##########################################################
# Query made at 02/16/2025 21:21:57 UTC
# Time interval: from 07/01/2016 00:00  to 07/31/2016 23:59  UTC
##########################################################

##########################################################
# KBLI, Bellingham, Bellingham International Airport (United States)
# WMO index: -----. WIGOS ID: Unknown
# Latitude 48-47-58N. Longitude 122-32-21W. Altitude 48 m.
##########################################################

###################################
#  METAR/SPECI from KBLI
###################################
201607312353 METAR KBLI 312353Z VRB04KT 10SM CLR 23/12 A3004 RMK AO2 SLP176 T02280117 10228 20172 57010=
201607312253 METAR KBLI 312253Z 21006KT 10SM CLR 22/12 A3005 RMK AO2 SLP179 T02220117=
201607312153 METAR KBLI 312153Z 16008KT 10SM CLR 22/12 A3006 RMK AO2 SLP183 T02170122=
201607312053 METAR KBLI 312053Z 19007KT 10SM CLR 21/12 A3007 RMK AO2 SLP187 T02060117 50000=
201607311953 METAR KBLI 311953Z 20007KT 150V240 10SM CLR 19/11 A3007 RMK AO2 SLP188 T01940111=
201607311853 METAR KBLI 311853Z 21008KT 10SM CLR 19/11 A3007 RMK AO2 SLP188 T01890111=
201607311753 METAR KBLI 311753Z 16008KT 140V210 10SM BKN070 17/11 A3007 RMK AO2 SLP187 T01720111 10183 20150 51012=
201607311653 METAR KBLI 311653Z 16010KT 10SM BKN032 OVC070 18/12 A3006 RMK AO2 SLP185 T01780117=
201607311645 SPECI KBLI 311645Z 18010KT 10SM OVC030 18/12 A3006 RMK AO2 T01780117=
201607311626 SPECI KBLI 311626Z 16011KT 10SM OVC029 16/12 A3005 RMK AO2 T01610117=
201607311553 METAR KBLI 311553Z 17009G17KT 10SM OVC030 16/12 A3005 RMK AO2 SLP180 T01610117=
201607311541 SPECI KBLI 311541Z 17010KT 10SM OVC030 16/12 A3004 RMK AO2 T01610117=
201607311453 METAR KBLI 311453Z 18007KT 10SM OVC027 16/12 A3003 RMK AO2 SLP175 T01560117 53013=
201607311353 METAR KBLI 311353Z 18007KT 10SM OVC026 16/12 A3002 RMK AO2 SLP169 T01560122=
201607311253 METAR KBLI 311253Z AUTO 17007KT 10SM BKN025 BKN060 OVC080 16/12 A2999 RMK AO2 SLP161 T01560117=
201607311249 SPECI KBLI 311249Z AUTO 18007KT 10SM BKN025 BKN060 OVC080 16/12 A2999 RMK AO2=
201607311153 METAR KBLI 311153Z AUTO 17008KT 10SM FEW027 OVC060 15/12 A2998 RMK AO2 SLP158 T01500117 10167 20139 53016=
201607311053 METAR KBLI 311053Z AUTO 17007KT 10SM BKN080 16/12 A2996 RMK AO2 SLP151 T01560122=
201607310953 METAR KBLI 310953Z AUTO 18006KT 10SM BKN075 BKN090 16/13 A2995 RMK AO2 SLP146 T01610128=
201607310853 METAR KBLI 310853Z AUTO 18004KT 10SM SCT070 BKN090 16/13 A2994 RMK AO2 SLP142 T01610128 51003=
201607310753 METAR KBLI 310753Z AUTO 00000KT 10SM FEW070 SCT085 15/12 A2994 RMK AO2 SLP142 T01500122 402440139=
201607310653 METAR KBLI 310653Z AUTO 17004KT 10SM CLR 16/11 A2993 RMK AO2 SLP140 T01560111=
201607310553 METAR KBLI 310553Z AUTO 00000KT 10SM CLR 16/12 A2993 RMK AO2 SLP140 T01560117 10239 20150 53010=
201607310453 METAR KBLI 310453Z 00000KT 10SM CLR 17/12 A2991 RMK AO2 SLP136 T01670117=
201607310353 METAR KBLI 310353Z 00000KT 10SM CLR 18/12 A2990 RMK AO2 SLP131 T01830117=
201607310253 METAR KBLI 310253Z 00000KT 10SM CLR 21/11 A2990 RMK AO2 SLP129 T02110106 58005=
201607310153 METAR KBLI 310153Z VRB03KT 10SM CLR 22/10 A2991 RMK AO2 SLP132 T02220100=
201607310053 METAR KBLI 310053Z VRB03KT 10SM CLR 23/09 A2991 RMK AO2 SLP134 T02280094=
201607302353 METAR KBLI 302353Z 27006KT 10SM CLR 24/10 A2991 RMK AO2 SLP134 T02390100 10244 20206 58010=
201607302253 METAR KBLI 302253Z 32004KT 10SM CLR 24/08 A2993 RMK AO2 SLP139 T02390083=
201607302153 METAR KBLI 302153Z VRB06KT 10SM CLR 23/09 A2994 RMK AO2 SLP142 T02330089=
201607302053 METAR KBLI 302053Z 30008KT 250V340 10SM CLR 22/08 A2994 RMK AO2 SLP144 T02220078 50000=
201607301953 METAR KBLI 301953Z 29008KT 240V330 10SM CLR 22/08 A2995 RMK AO2 SLP145 T02220083=
201607301853 METAR KBLI 301853Z 33008G16KT 10SM CLR 22/08 A2995 RMK AO2 SLP146 T02170078=
201607301753 METAR KBLI 301753Z 30010KT 10SM CLR 21/08 A2994 RMK AO2 SLP144 T02060078 10211 20139 51005=
201607301653 METAR KBLI 301653Z VRB06KT 10SM CLR 20/09 A2994 RMK AO2 SLP143 T02000089=
201607301553 METAR KBLI 301553Z 32008KT 10SM CLR 18/10 A2994 RMK AO2 SLP142 T01830100=
201607301453 METAR KBLI 301453Z VRB04KT 10SM CLR 18/11 A2993 RMK AO2 SLP139 T01780106 51010=
201607301353 METAR KBLI 301353Z 31004KT 10SM CLR 16/11 A2992 RMK AO2 SLP137 T01610111=
201607301253 METAR KBLI 301253Z AUTO 00000KT 10SM CLR 15/11 A2991 RMK AO2 SLP132 T01500111=
201607301153 METAR KBLI 301153Z AUTO 00000KT 10SM CLR 16/12 A2990 RMK AO2 SLP129 T01560117 10211 20156 55001=
201607301053 METAR KBLI 301053Z AUTO VRB03KT 10SM CLR 16/12 A2989 RMK AO2 SLP127 T01610117=
201607300953 METAR KBLI 300953Z AUTO 00000KT 10SM CLR 16/12 A2989 RMK AO2 SLP128 T01610117=
201607300853 METAR KBLI 300853Z AUTO 28003KT 10SM CLR 18/12 A2990 RMK AO2 SLP130 T01780117 51004=
201607300753 METAR KBLI 300753Z AUTO VRB05KT 10SM CLR 19/12 A2990 RMK AO2 SLP130 T01890122 402610144=
201607300653 METAR KBLI 300653Z AUTO VRB03KT 10SM CLR 21/12 A2989 RMK AO2 SLP127 T02060122=
201607300553 METAR KBLI 300553Z AUTO 29007KT 240V330 10SM CLR 21/13 A2989 RMK AO2 SLP126 T02110128 10256 20183 55001=
201607300453 METAR KBLI 300453Z 00000KT 10SM CLR 19/14 A2988 RMK AO2 SLP123 T01890139=
201607300353 METAR KBLI 300353Z 00000KT 10SM CLR 21/14 A2988 RMK AO2 SLP123 T02060139=
201607300253 METAR KBLI 300253Z AUTO 00000KT 10SM CLR 24/14 A2989 RMK AO2 SLP127 T02390144 56011=
201607300153 METAR KBLI 300153Z 16003KT 10SM CLR 25/13 A2990 RMK AO2 SLP129 T02500133=
201607300053 METAR KBLI 300053Z 00000KT 10SM CLR 26/13 A2991 RMK AO2 SLP132 T02560133=
201607292353 METAR KBLI 292353Z VRB04KT 10SM CLR 25/14 A2992 RMK AO2 SLP138 T02500139 10261 20222 58010=
201607292253 METAR KBLI 292253Z VRB03KT 10SM CLR 25/15 A2994 RMK AO2 SLP143 T02500150=
201607292153 METAR KBLI 292153Z 24007KT 10SM CLR 24/16 A2995 RMK AO2 SLP146 T02440156=
201607292053 METAR KBLI 292053Z VRB03KT 10SM CLR 26/16 A2996 RMK AO2 SLP148 T02560161 58015=
201607291953 METAR KBLI 291953Z VRB03KT 10SM CLR 25/17 A2998 RMK AO2 SLP155 T02500167=
201607291853 METAR KBLI 291853Z 10SM SCT017 24/17 A2999 RMK AO2 SLP159 T02390167=
201607291753 METAR KBLI 291753Z 00000KT 10SM SCT016 23/17 A3000 RMK AO2 SLP163 T02280172 10228 20144 56003 $=
201607291653 METAR KBLI 291653Z 16007KT 10SM FEW008 BKN016 22/17 A3000 RMK AO2 SLP164 T02170167=
201607291553 METAR KBLI 291553Z 00000KT 10SM SCT008 BKN014 20/16 A3001 RMK AO2 SLP167 T02000161=
201607291528 SPECI KBLI 291528Z VRB03KT 10SM SCT008 BKN014 19/16 A3001 RMK AO2 T01940156=
201607291455 SPECI KBLI 291455Z 25003KT 10SM FEW012 19/16 A3001 RMK AO2 T01940156=
201607291453 METAR KBLI 291453Z 00000KT 10SM CLR 19/16 A3001 RMK AO2 SLP167 T01940161 53001=
201607291353 METAR KBLI 291353Z 21003KT 10SM FEW010 18/16 A3000 RMK AO2 SLP165 T01780161=
201607291253 METAR KBLI 291253Z AUTO 00000KT 10SM CLR 16/14 A3000 RMK AO2 SLP164 T01610144=
201607291153 METAR KBLI 291153Z AUTO 17003KT 10SM CLR 17/15 A3001 RMK AO2 SLP166 T01670150 10206 20161 55005=
201607291053 METAR KBLI 291053Z AUTO 18004KT 10SM CLR 17/15 A3001 RMK AO2 SLP166 T01720150=
201607290953 METAR KBLI 290953Z AUTO 17003KT 10SM CLR 17/14 A3002 RMK AO2 SLP169 T01720144=
201607290853 METAR KBLI 290853Z AUTO 10SM CLR 20/14 A3002 RMK AO2 SLP171 T02000139 58000=
201607290753 METAR KBLI 290753Z AUTO 00000KT 10SM CLR 18/16 A3003 RMK AO2 SLP173 T01780156 402670150=
201607290653 METAR KBLI 290653Z AUTO 16003KT 10SM CLR 18/16 A3002 RMK AO2 SLP170 T01780156=
201607290553 METAR KBLI 290553Z AUTO 00000KT 10SM CLR 18/15 A3002 RMK AO2 SLP171 T01830150 10261 20183 53001=
201607290453 METAR KBLI 290453Z 00000KT 10SM CLR 19/16 A3002 RMK AO2 SLP170 T01890161=
201607290353 METAR KBLI 290353Z 00000KT 10SM CLR 21/17 A3002 RMK AO2 SLP169 T02060167=
201607290253 METAR KBLI 290253Z 17003KT 10SM CLR 23/16 A3002 RMK AO2 SLP170 T02330161 56012=
201607290153 METAR KBLI 290153Z 21004KT 10SM CLR 24/16 A3003 RMK AO2 SLP172 T02440156=
201607290053 METAR KBLI 290053Z 00000KT 10SM CLR 26/16 A3004 RMK AO2 SLP175 T02560156=
201607282353 METAR KBLI 282353Z VRB04KT 10SM CLR 25/16 A3005 RMK AO2 SLP181 T02500156 10267 20228 56014=
201607282253 METAR KBLI 282253Z 28005KT 10SM CLR 24/15 A3007 RMK AO2 SLP187 T02390150=
201607282153 METAR KBLI 282153Z VRB06KT 10SM CLR 25/15 A3008 RMK AO2 SLP189 T02500150=
201607282053 METAR KBLI 282053Z VRB04KT 10SM CLR 26/15 A3009 RMK AO2 SLP195 T02560150 58009=
201607281953 METAR KBLI 281953Z 23007KT 180V280 10SM CLR 25/16 A3011 RMK AO2 SLP201 T02500156=
201607281853 METAR KBLI 281853Z 28008KT 10SM CLR 24/16 A3011 RMK AO2 SLP202 T02440161=
201607281753 METAR KBLI 281753Z VRB06KT 10SM CLR 23/17 A3012 RMK AO2 SLP204 T02330172 10239 20150 56003=
201607281653 METAR KBLI 281653Z 00000KT 10SM CLR 22/17 A3012 RMK AO2 SLP205 T02220167=
201607281607 SPECI KBLI 281607Z 16004KT 10SM SCT008 19/17 A3013 RMK AO2 T01940167=
201607281553 METAR KBLI 281553Z 15005KT 10SM OVC008 19/17 A3013 RMK AO2 SLP206 T01940172=
201607281453 METAR KBLI 281453Z 15003KT 10SM OVC007 18/17 A3013 RMK AO2 SLP207 T01830167 53008=
201607281418 SPECI KBLI 281418Z 00000KT 10SM OVC007 18/17 A3012 RMK AO2 T01830167=
201607281353 METAR KBLI 281353Z 16005KT 10SM SCT007 18/16 A3012 RMK AO2 SLP203 T01780161=
201607281253 METAR KBLI 281253Z AUTO 11003KT 10SM CLR 15/13 A3010 RMK AO2 SLP199 T01500133=
201607281153 METAR KBLI 281153Z AUTO 16003KT 10SM CLR 16/14 A3010 RMK AO2 SLP199 T01560144 10183 20156 51002=
201607281053 METAR KBLI 281053Z AUTO 22005KT 10SM CLR 16/15 A3010 RMK AO2 SLP198 T01610150=
201607280953 METAR KBLI 280953Z AUTO 18004KT 10SM CLR 16/14 A3011 RMK AO2 SLP199 T01610144=
201607280853 METAR KBLI 280853Z AUTO 18005KT 10SM CLR 17/14 A3010 RMK AO2 SLP198 T01670144 50001=
201607280753 METAR KBLI 280753Z AUTO 17006KT 10SM CLR 18/14 A3010 RMK AO2 SLP198 T01780144 402610139=
201607280653 METAR KBLI 280653Z AUTO 18005KT 10SM CLR 18/15 A3010 RMK AO2 SLP197 T01830150=
201607280553 METAR KBLI 280553Z AUTO 19003KT 10SM CLR 18/15 A3010 RMK AO2 SLP196 T01830150 10250 20183 53009=
201607280453 METAR KBLI 280453Z 19003KT 10SM CLR 19/16 A3009 RMK AO2 SLP193 T01940161=
201607280353 METAR KBLI 280353Z 00000KT 10SM CLR 20/15 A3007 RMK AO2 SLP190 T02000150=
201607280253 METAR KBLI 280253Z 17004KT 10SM CLR 23/14 A3007 RMK AO2 SLP187 T02280144 55004=
201607280153 METAR KBLI 280153Z VRB04KT 10SM CLR 24/14 A3007 RMK AO2 SLP186 T02390144=
201607280053 METAR KBLI 280053Z VRB05KT 10SM CLR 24/15 A3008 RMK AO2 SLP190 T02440150=
201607272353 METAR KBLI 272353Z 26007KT 230V300 10SM CLR 25/14 A3008 RMK AO2 SLP191 T02500144 10261 20206 56011=
201607272253 METAR KBLI 272253Z 19004KT 10SM CLR 24/15 A3009 RMK AO2 SLP193 T02440150=
201607272153 METAR KBLI 272153Z 23006KT 10SM CLR 24/14 A3010 RMK AO2 SLP198 T02440144=
201607272053 METAR KBLI 272053Z VRB05KT 10SM CLR 24/16 A3011 RMK AO2 SLP202 T02390156 58008=
201607271953 METAR KBLI 271953Z 24007KT 200V260 10SM CLR 24/16 A3012 RMK AO2 SLP205 T02390156=
201607271853 METAR KBLI 271853Z VRB03KT 10SM CLR 23/16 A3013 RMK AO2 SLP208 T02280156=
201607271753 METAR KBLI 271753Z 19004KT 10SM CLR 21/15 A3014 RMK AO2 SLP211 T02060150 10206 20139 58000=
201607271653 METAR KBLI 271653Z 00000KT 10SM CLR 19/14 A3014 RMK AO2 SLP214 T01890139=
201607271553 METAR KBLI 271553Z 18005KT 10SM FEW007 17/13 A3015 RMK AO2 SLP214 T01670133=
201607271453 METAR KBLI 271453Z 16006KT 10SM CLR 16/13 A3014 RMK AO2 SLP211 T01560128 53008=
201607271353 METAR KBLI 271353Z 16003KT 10SM CLR 15/13 A3013 RMK AO2 SLP208 T01500133=
201607271253 METAR KBLI 271253Z AUTO 00000KT 10SM CLR 14/12 A3012 RMK AO2 SLP206 T01390122=
201607271153 METAR KBLI 271153Z AUTO 18005KT 10SM CLR 14/13 A3011 RMK AO2 SLP204 T01390128 10161 20139 53008=
201607271053 METAR KBLI 271053Z AUTO 16003KT 10SM CLR 14/12 A3010 RMK AO2 SLP199 T01440122=
201607270953 METAR KBLI 270953Z AUTO 17004KT 10SM CLR 15/13 A3010 RMK AO2 SLP197 T01500128=
201607270853 METAR KBLI 270853Z AUTO 19004KT 10SM CLR 16/13 A3009 RMK AO2 SLP196 T01560128 58001=
201607270753 METAR KBLI 270753Z AUTO 18006KT 10SM CLR 16/13 A3010 RMK AO2 SLP198 T01560128 402110150=
201607270653 METAR KBLI 270653Z AUTO 19006KT 10SM CLR 16/13 A3010 RMK AO2 SLP199 T01560128=
201607270553 METAR KBLI 270553Z AUTO 17010KT 10SM CLR 16/13 A3009 RMK AO2 SLP197 T01610133 10211 20161 50006=
201607270453 METAR KBLI 270453Z 17008KT 10SM CLR 17/14 A3010 RMK AO2 SLP198 T01720139=
201607270353 METAR KBLI 270353Z 17007KT 10SM CLR 19/14 A3008 RMK AO2 SLP192 T01890139=
201607270253 METAR KBLI 270253Z 18008KT 10SM CLR 19/14 A3008 RMK AO2 SLP191 T01940139 56006=
201607270153 METAR KBLI 270153Z 17010KT 10SM CLR 21/14 A3008 RMK AO2 SLP192 T02060139=
201607270053 METAR KBLI 270053Z 16009G15KT 10SM CLR 21/14 A3009 RMK AO2 SLP195 T02110139=
201607262353 METAR KBLI 262353Z 19010G16KT 10SM CLR 21/13 A3010 RMK AO2 SLP197 T02110133 10211 20178 57012=
201607262253 METAR KBLI 262253Z 18013KT 10SM CLR 21/13 A3010 RMK AO2 SLP199 T02060133=
201607262153 METAR KBLI 262153Z 17008KT 10SM CLR 21/14 A3012 RMK AO2 SLP207 T02060139=
201607262053 METAR KBLI 262053Z 17012G19KT 10SM CLR 19/13 A3013 RMK AO2 SLP209 T01940128 58005=
201607261953 METAR KBLI 261953Z 18011G17KT 10SM CLR 19/13 A3014 RMK AO2 SLP211 T01890128=
201607261853 METAR KBLI 261853Z 17012G19KT 10SM CLR 19/13 A3014 RMK AO2 SLP213 T01890128=
201607261753 METAR KBLI 261753Z 17014G20KT 10SM CLR 18/13 A3014 RMK AO2 SLP214 T01830128 10183 20150 51007=
201607261653 METAR KBLI 261653Z 17014G19KT 10SM FEW020 17/13 A3014 RMK AO2 SLP212 T01670128=
201607261553 METAR KBLI 261553Z 17010G17KT 10SM FEW007 SCT065 16/13 A3013 RMK AO2 SLP210 T01610128=
201607261453 METAR KBLI 261453Z 17010KT 10SM FEW070 16/13 A3012 RMK AO2 SLP206 T01610128 53014=
201607261353 METAR KBLI 261353Z 18008KT 10SM SCT070 16/13 A3011 RMK AO2 SLP200 T01560128=
201607261253 METAR KBLI 261253Z AUTO 17011KT 10SM FEW070 15/13 A3009 RMK AO2 SLP195 T01500128=
201607261153 METAR KBLI 261153Z AUTO 17011G18KT 10SM CLR 15/13 A3008 RMK AO2 SLP192 T01500128 10178 20150 53009=
201607261053 METAR KBLI 261053Z AUTO 18009KT 10SM FEW080 16/13 A3007 RMK AO2 SLP187 T01560128=
201607260953 METAR KBLI 260953Z AUTO 17011KT 10SM CLR 16/13 A3006 RMK AO2 SLP184 T01610128=
201607260853 METAR KBLI 260853Z AUTO 17008KT 10SM CLR 16/13 A3006 RMK AO2 SLP182 T01610128 53009=
201607260753 METAR KBLI 260753Z AUTO 17008KT 10SM CLR 17/13 A3004 RMK AO2 SLP179 T01670128 402670150=
201607260653 METAR KBLI 260653Z AUTO 17007KT 10SM CLR 17/13 A3004 RMK AO2 SLP176 T01720133=
201607260553 METAR KBLI 260553Z AUTO 18010KT 10SM CLR 18/14 A3003 RMK AO2 SLP174 T01780139 10256 20178 53005=
201607260453 METAR KBLI 260453Z 17011KT 10SM CLR 18/14 A3003 RMK AO2 SLP173 T01830144=
201607260353 METAR KBLI 260353Z 17009KT 10SM CLR 19/14 A3001 RMK AO2 SLP169 T01890144=
201607260253 METAR KBLI 260253Z 17007KT 10SM CLR 21/15 A3001 RMK AO2 SLP168 T02060150 56006=
201607260153 METAR KBLI 260153Z 16008KT 10SM CLR 22/16 A3002 RMK AO2 SLP169 T02170156=
201607260053 METAR KBLI 260053Z 16008KT 10SM CLR 24/16 A3002 RMK AO2 SLP172 T02440156=
201607252353 METAR KBLI 252353Z VRB04KT 10SM CLR 25/16 A3003 RMK AO2 SLP174 T02500161 10267 20178 58009=
201607252253 METAR KBLI 252253Z 28005KT 10SM CLR 26/16 A3004 RMK AO2 SLP177 T02560156=
201607252153 METAR KBLI 252153Z VRB06KT 10SM CLR 25/16 A3005 RMK AO2 SLP181 T02500161=
201607252053 METAR KBLI 252053Z VRB05KT 10SM CLR 24/14 A3006 RMK AO2 SLP183 T02390144 57007=
201607251953 METAR KBLI 251953Z 17007KT 10SM CLR 22/14 A3006 RMK AO2 SLP185 T02220144=
201607251853 METAR KBLI 251853Z 18008KT 10SM CLR 20/14 A3007 RMK AO2 SLP188 T02000144=
201607251753 METAR KBLI 251753Z 17007KT 10SM CLR 18/14 A3008 RMK AO2 SLP191 T01830144 10183 20150 51007=
201607251653 METAR KBLI 251653Z VRB06KT 10SM CLR 18/14 A3007 RMK AO2 SLP189 T01780144=
201607251553 METAR KBLI 251553Z 18005KT 10SM CLR 16/13 A3007 RMK AO2 SLP187 T01610133=
201607251453 METAR KBLI 251453Z 17006KT 10SM CLR 17/14 A3006 RMK AO2 SLP182 T01670139 53008=
201607251353 METAR KBLI 251353Z 18008KT 10SM CLR 16/14 A3005 RMK AO2 SLP181 T01610139=
201607251253 METAR KBLI 251253Z AUTO 18004KT 10SM CLR 16/13 A3003 RMK AO2 SLP175 T01560133=
201607251153 METAR KBLI 251153Z AUTO VRB03KT 10SM CLR 16/13 A3003 RMK AO2 SLP175 T01560133 10183 20156 53005=
201607251053 METAR KBLI 251053Z AUTO 16004KT 10SM CLR 16/13 A3002 RMK AO2 SLP172 T01610128=
201607250953 METAR KBLI 250953Z AUTO 19005KT 10SM CLR 16/13 A3002 RMK AO2 SLP170 T01610128=
201607250853 METAR KBLI 250853Z AUTO 17004KT 10SM CLR 17/13 A3002 RMK AO2 SLP170 T01670133 56001=
201607250753 METAR KBLI 250753Z AUTO 17005KT 10SM CLR 17/13 A3002 RMK AO2 SLP169 T01720133 402560111=
201607250653 METAR KBLI 250653Z AUTO 18004KT 10SM CLR 18/14 A3002 RMK AO2 SLP170 T01780139=
201607250553 METAR KBLI 250553Z AUTO 00000KT 10SM CLR 17/14 A3002 RMK AO2 SLP171 T01720139 10250 20172 50002=
201607250453 METAR KBLI 250453Z 00000KT 10SM CLR 18/14 A3002 RMK AO2 SLP173 T01780139=
201607250353 METAR KBLI 250353Z 00000KT 10SM CLR 20/13 A3001 RMK AO2 SLP169 T02000133=
201607250253 METAR KBLI 250253Z 26003KT 10SM CLR 23/12 A3002 RMK AO2 SLP169 T02330117 56012=
201607250153 METAR KBLI 250153Z 28005KT 10SM CLR 24/12 A3002 RMK AO2 SLP170 T02440117=
201607250053 METAR KBLI 250053Z 27006KT 10SM CLR 24/12 A3003 RMK AO2 SLP176 T02440122=
201607242353 METAR KBLI 242353Z VRB03KT 10SM CLR 25/12 A3005 RMK AO2 SLP182 T02500122 10256 20206 56013=
201607242253 METAR KBLI 242253Z VRB04KT 10SM CLR 25/12 A3006 RMK AO2 SLP186 T02500122=
201607242153 METAR KBLI 242153Z 28006KT 10SM CLR 24/12 A3007 RMK AO2 SLP188 T02440122=
201607242053 METAR KBLI 242053Z VRB05KT 10SM CLR 24/12 A3009 RMK AO2 SLP194 T02390122 58010=
201607241953 METAR KBLI 241953Z 31006KT 10SM CLR 23/13 A3010 RMK AO2 SLP198 T02330133=
201607241853 METAR KBLI 241853Z 21006KT 10SM CLR 22/14 A3011 RMK AO2 SLP202 T02220139=
201607241753 METAR KBLI 241753Z VRB04KT 10SM CLR 20/13 A3012 RMK AO2 SLP206 T02000133 10206 20111 58006=
201607241721 SPECI KBLI 241721Z 00000KT 10SM CLR 20/13 A3012 RMK AO2 T02000128=
201607241712 SPECI KBLI 241712Z 00000KT 2 1/2SM HZ CLR 20/13 A3013 RMK AO2 T02000128=
201607241653 METAR KBLI 241653Z 00000KT 10SM CLR 19/12 A3013 RMK AO2 SLP210 T01890122=
201607241553 METAR KBLI 241553Z VRB04KT 10SM CLR 17/13 A3015 RMK AO2 SLP214 T01670128=
201607241453 METAR KBLI 241453Z VRB04KT 10SM CLR 16/13 A3014 RMK AO2 SLP211 T01560128 55003=
201607241353 METAR KBLI 241353Z 00000KT 10SM CLR 14/13 A3014 RMK AO2 SLP211 T01440128=
201607241253 METAR KBLI 241253Z AUTO 00000KT 10SM CLR 12/10 A3014 RMK AO2 SLP213 T01170100=
201607241153 METAR KBLI 241153Z AUTO 00000KT 10SM CLR 12/11 A3015 RMK AO2 SLP214 T01170111 10156 20111 56008=
201607241053 METAR KBLI 241053Z AUTO 00000KT 10SM CLR 12/11 A3016 RMK AO2 SLP217 T01170111=
201607240953 METAR KBLI 240953Z AUTO 00000KT 10SM CLR 13/11 A3016 RMK AO2 SLP218 T01280111=
201607240853 METAR KBLI 240853Z AUTO 16003KT 10SM CLR 15/12 A3017 RMK AO2 SLP222 T01500122 58009=
201607240753 METAR KBLI 240753Z AUTO 18003KT 10SM CLR 15/13 A3018 RMK AO2 SLP226 T01500128 402170144=
201607240653 METAR KBLI 240653Z AUTO 15003KT 10SM CLR 15/12 A3019 RMK AO2 SLP229 T01500122=
201607240553 METAR KBLI 240553Z AUTO 00000KT 10SM CLR 16/12 A3020 RMK AO2 SLP231 T01560117 10211 20156 58002=
201607240453 METAR KBLI 240453Z 20003KT 10SM CLR 16/12 A3020 RMK AO2 SLP233 T01610122=
201607240353 METAR KBLI 240353Z 17005KT 10SM CLR 18/11 A3020 RMK AO2 SLP233 T01830111=
201607240253 METAR KBLI 240253Z 19003KT 10SM CLR 19/11 A3020 RMK AO2 SLP233 T01940111 56010=
201607240153 METAR KBLI 240153Z 17007KT 10SM CLR 20/10 A3020 RMK AO2 SLP234 T02000100=
201607240053 METAR KBLI 240053Z 16009KT 10SM CLR 21/11 A3022 RMK AO2 SLP237 T02060106=
201607232353 METAR KBLI 232353Z 19007KT 10SM CLR 21/11 A3023 RMK AO2 SLP243 T02110106 10217 20183 58005=
201607232253 METAR KBLI 232253Z 18008G15KT 160V220 10SM CLR 21/11 A3025 RMK AO2 SLP247 T02060106=
201607232153 METAR KBLI 232153Z 16010G15KT 10SM CLR 21/11 A3025 RMK AO2 SLP248 T02110106=
201607232053 METAR KBLI 232053Z 19009G16KT 160V220 10SM FEW035 21/11 A3025 RMK AO2 SLP247 T02060106 58004=
201607231953 METAR KBLI 231953Z 17011KT 10SM SCT035 21/11 A3025 RMK AO2 SLP249 T02060106=
201607231853 METAR KBLI 231853Z 17012G16KT 10SM FEW030 SCT047 19/11 A3025 RMK AO2 SLP251 T01940111=
201607231753 METAR KBLI 231753Z 17008KT 10SM FEW045 19/12 A3026 RMK AO2 SLP252 T01890122 10194 20144 51007=
201607231653 METAR KBLI 231653Z 17007G17KT 10SM FEW030 BKN045 18/12 A3025 RMK AO2 SLP250 T01780122=
201607231553 METAR KBLI 231553Z 17009KT 10SM FEW040 17/13 A3025 RMK AO2 SLP250 T01670128=
201607231453 METAR KBLI 231453Z 17008KT 10SM FEW046 16/12 A3024 RMK AO2 SLP245 T01560122 51005=
201607231353 METAR KBLI 231353Z 17009KT 10SM FEW005 SCT046 15/12 A3024 RMK AO2 SLP245 T01500122=
201607231253 METAR KBLI 231253Z 16009KT 10SM CLR 15/12 A3023 RMK AO2 SLP244 T01500122=
201607231153 METAR KBLI 231153Z 17009G16KT 10SM FEW042 16/12 A3022 RMK AO2 SLP240 T01560122 10178 20156 57007=
201607231053 METAR KBLI 231053Z 17006KT 10SM OVC040 17/11 A3023 RMK AO2 SLP241 T01670111=
201607230953 METAR KBLI 230953Z 17005KT 10SM OVC038 17/11 A3024 RMK AO2 SLP244 T01670106=
201607230853 METAR KBLI 230853Z 16007KT 10SM OVC036 17/11 A3024 RMK AO2 SLP246 T01720111 58000=
201607230753 METAR KBLI 230753Z 17007KT 10SM OVC040 17/12 A3025 RMK AO2 SLP247 T01720117 402170161=
201607230653 METAR KBLI 230653Z 16007KT 10SM SCT042 OVC055 17/12 A3025 RMK AO2 SLP247 T01720122=
201607230553 METAR KBLI 230553Z 16008KT 10SM OVC050 18/12 A3024 RMK AO2 SLP248 T01780117 10206 20178 50004=
201607230453 METAR KBLI 230453Z 16007KT 10SM OVC055 18/12 A3025 RMK AO2 SLP248 T01780117=
201607230353 METAR KBLI 230353Z 16011G17KT 10SM FEW046 OVC055 18/12 A3024 RMK AO2 SLP245 T01830117=
201607230253 METAR KBLI 230253Z 16013G18KT 10SM OVC060 19/12 A3023 RMK AO2 SLP243 T01890117 53004=
201607230153 METAR KBLI 230153Z 17013G19KT 10SM SCT060 19/12 A3022 RMK AO2 SLP240 T01940117=
201607230053 METAR KBLI 230053Z 18012G20KT 10SM CLR 20/12 A3022 RMK AO2 SLP240 T02000117=
201607222353 METAR KBLI 222353Z 17015G25KT 10SM SCT060 21/12 A3022 RMK AO2 SLP238 T02060117 10217 20189 51000=
201607222253 METAR KBLI 222253Z 16014G21KT 10SM OVC060 21/12 A3022 RMK AO2 SLP238 T02110122=
201607222153 METAR KBLI 222153Z 17011G19KT 10SM OVC060 21/12 A3022 RMK AO2 SLP240 T02060117=
201607222053 METAR KBLI 222053Z 16015G19KT 10SM SCT055 BKN100 21/12 A3022 RMK AO2 SLP238 T02110117 53009=
201607221953 METAR KBLI 221953Z 17013G19KT 10SM CLR 21/12 A3021 RMK AO2 SLP234 T02110117=
201607221853 METAR KBLI 221853Z 17012KT 10SM FEW035 BKN070 21/12 A3020 RMK AO2 SLP232 T02060117=
201607221755 SPECI KBLI 221755Z 15010G18KT 10SM FEW035 BKN070 19/12 A3019 RMK AO2 T01890117=
201607221753 METAR KBLI 221753Z 17011G18KT 10SM FEW035 SCT065 19/12 A3019 RMK AO2 SLP228 T01890117 10189 20167 51013=
201607221653 METAR KBLI 221653Z 17010KT 10SM CLR 17/12 A3018 RMK AO2 SLP225 T01670117=
201607221553 METAR KBLI 221553Z 17010G17KT 10SM FEW037 BKN055 17/12 A3017 RMK AO2 SLP220 T01670117=
201607221453 METAR KBLI 221453Z 16010G18KT 10SM OVC110 17/12 A3015 RMK AO2 SLP215 T01670122 51019=
201607221353 METAR KBLI 221353Z 16012KT 10SM OVC120 17/12 A3014 RMK AO2 SLP210 T01670122=
201607221253 METAR KBLI 221253Z AUTO 16012KT 10SM SCT075 OVC100 17/12 A3012 RMK AO2 SLP204 T01720122=
201607221153 METAR KBLI 221153Z AUTO 16006KT 10SM CLR 17/13 A3010 RMK AO2 SLP196 60004 70004 T01670128 10189 20161 53010=
201607221053 METAR KBLI 221053Z AUTO 16008KT 9SM SCT110 16/13 A3009 RMK AO2 SLP193 T01610133=
201607220953 METAR KBLI 220953Z AUTO 17009KT 10SM FEW110 17/14 A3007 RMK AO2 SLP187 T01670139=
201607220853 METAR KBLI 220853Z AUTO 17007KT 10SM CLR 17/13 A3006 RMK AO2 RAE0758 SLP185 P0000 60004 T01720133 53003=
201607220753 METAR KBLI 220753Z AUTO 18008KT 10SM -RA FEW070 BKN090 BKN110 18/13 A3005 RMK AO2 RAB44 SLP182 P0000 T01780133 402670117=
201607220653 METAR KBLI 220653Z AUTO 19008KT 10SM SCT070 OVC090 18/15 A3005 RMK AO2 RAE45 SLP179 P0004 T01830150=
201607220553 METAR KBLI 220553Z AUTO 17008KT 10SM -RA OVC100 19/14 A3006 RMK AO2 RAB0458 SLP182 P0000 60000 T01890139 10267 20189 53019=
201607220453 METAR KBLI 220453Z 17003KT 10SM FEW075 SCT100 BKN120 20/14 A3003 RMK AO2 SLP173 T02000144=
201607220353 METAR KBLI 220353Z 19003KT 10SM CLR 21/14 A3001 RMK AO2 SLP167 T02110144=
201607220253 METAR KBLI 220253Z 23004KT 10SM CLR 23/13 A3000 RMK AO2 SLP163 T02330133 55001=
201607220153 METAR KBLI 220153Z 00000KT 10SM CLR 24/14 A2999 RMK AO2 SLP160 T02440139=
201607220053 METAR KBLI 220053Z 27007KT 10SM CLR 26/14 A2999 RMK AO2 SLP160 T02560139=
201607212353 METAR KBLI 212353Z 29007KT 10SM CLR 26/14 A3000 RMK AO2 SLP164 T02610139 10267 20233 58009=
201607212253 METAR KBLI 212253Z 28008KT 10SM CLR 26/13 A3001 RMK AO2 SLP167 T02560133=
201607212153 METAR KBLI 212153Z 26009KT 10SM CLR 25/14 A3003 RMK AO2 SLP172 T02500139=
201607212053 METAR KBLI 212053Z 26009KT 10SM CLR 24/14 A3003 RMK AO2 SLP174 T02440144 58008=
201607211953 METAR KBLI 211953Z 27008KT 10SM CLR 24/15 A3004 RMK AO2 SLP177 T02440150=
201607211853 METAR KBLI 211853Z 32005KT 10SM CLR 25/14 A3005 RMK AO2 SLP180 T02500139=
201607211753 METAR KBLI 211753Z 34008KT 310V020 10SM CLR 24/13 A3005 RMK AO2 SLP182 T02390133 10239 20117 58008=
201607211653 METAR KBLI 211653Z 36006KT 10SM CLR 22/13 A3007 RMK AO2 SLP186 T02170128=
201607211553 METAR KBLI 211553Z VRB04KT 10SM CLR 19/13 A3008 RMK AO2 SLP190 T01890133=
201607211453 METAR KBLI 211453Z 34003KT 10SM CLR 17/13 A3008 RMK AO2 SLP190 T01670133 53005=
201607211353 METAR KBLI 211353Z 00000KT 10SM CLR 14/13 A3007 RMK AO2 SLP188 T01440133=
201607211253 METAR KBLI 211253Z AUTO 00000KT 10SM CLR 12/11 A3007 RMK AO2 SLP188 T01170111=
201607211153 METAR KBLI 211153Z AUTO 00000KT 10SM CLR 12/11 A3006 RMK AO2 SLP186 T01220111 10161 20122 58002=
201607211053 METAR KBLI 211053Z AUTO 00000KT 10SM CLR 13/12 A3007 RMK AO2 SLP189 T01280117=
201607210953 METAR KBLI 210953Z AUTO 00000KT 10SM CLR 14/12 A3007 RMK AO2 SLP188 T01390122=
201607210853 METAR KBLI 210853Z AUTO 00000KT 10SM CLR 14/12 A3007 RMK AO2 SLP187 T01440122 58001=
201607210753 METAR KBLI 210753Z AUTO 00000KT 10SM CLR 15/12 A3007 RMK AO2 SLP189 T01500122 402500139=
201607210653 METAR KBLI 210653Z AUTO 00000KT 10SM CLR 16/13 A3007 RMK AO2 SLP188 T01560128=
201607210553 METAR KBLI 210553Z AUTO 00000KT 10SM CLR 16/13 A3007 RMK AO2 SLP190 T01560128 10239 20156 53001=
201607210453 METAR KBLI 210453Z 00000KT 10SM CLR 16/13 A3007 RMK AO2 SLP189 T01610128=
201607210353 METAR KBLI 210353Z 00000KT 10SM CLR 19/13 A3007 RMK AO2 SLP187 T01890133=
201607210253 METAR KBLI 210253Z VRB03KT 10SM CLR 22/12 A3007 RMK AO2 SLP188 T02220122 56010=
201607210153 METAR KBLI 210153Z VRB03KT 10SM FEW100 23/12 A3008 RMK AO2 SLP190 T02280122=
201607210053 METAR KBLI 210053Z 28005KT 10SM OVC100 23/13 A3009 RMK AO2 SLP194 T02280128=
201607202353 METAR KBLI 202353Z 18005KT 10SM BKN100 24/12 A3010 RMK AO2 SLP198 T02390122 10250 20194 56009=
201607202253 METAR KBLI 202253Z VRB05KT 10SM CLR 24/13 A3011 RMK AO2 SLP199 T02390128=
201607202153 METAR KBLI 202153Z VRB06KT 10SM CLR 23/12 A3011 RMK AO2 SLP202 T02330122=
201607202053 METAR KBLI 202053Z VRB04KT 10SM CLR 23/13 A3013 RMK AO2 SLP206 T02280133 57004=
201607201953 METAR KBLI 201953Z 17005KT 10SM CLR 22/13 A3013 RMK AO2 SLP207 T02220128=
201607201853 METAR KBLI 201853Z 19006KT 10SM CLR 21/13 A3014 RMK AO2 SLP211 T02060128=
201607201753 METAR KBLI 201753Z 19007KT 10SM CLR 19/13 A3014 RMK AO2 SLP212 T01940133 10200 20139 51007=
201607201653 METAR KBLI 201653Z 17010KT 10SM BKN049 19/14 A3014 RMK AO2 SLP211 T01890139=
201607201553 METAR KBLI 201553Z 17008KT 10SM BKN047 18/13 A3013 RMK AO2 SLP208 T01780133=
201607201453 METAR KBLI 201453Z 17008KT 10SM FEW055 OVC085 17/14 A3012 RMK AO2 SLP204 T01670139 51010=
201607201353 METAR KBLI 201353Z 17004KT 10SM FEW055 OVC085 17/14 A3011 RMK AO2 SLP202 T01670139=
201607201253 METAR KBLI 201253Z AUTO 32003KT 10SM OVC080 15/13 A3010 RMK AO2 SLP199 T01500128=
201607201153 METAR KBLI 201153Z AUTO 16004KT 10SM BKN055 OVC080 17/14 A3009 RMK AO2 SLP194 T01670139 10172 20144 55001=
201607201053 METAR KBLI 201053Z AUTO 18006KT 10SM OVC080 16/13 A3008 RMK AO2 SLP192 T01610133=
201607200953 METAR KBLI 200953Z AUTO 15005KT 10SM CLR 16/13 A3009 RMK AO2 SLP193 T01560128=
201607200853 METAR KBLI 200853Z AUTO 00000KT 10SM CLR 15/13 A3009 RMK AO2 SLP196 T01500128 50001=
201607200753 METAR KBLI 200753Z AUTO 17004KT 10SM CLR 16/13 A3009 RMK AO2 SLP195 T01610128 402390144=
201607200653 METAR KBLI 200653Z AUTO 00000KT 10SM FEW090 16/14 A3009 RMK AO2 SLP196 T01610139=
201607200553 METAR KBLI 200553Z AUTO 00000KT 10SM CLR 17/14 A3009 RMK AO2 SLP196 T01670139 10233 20161 53010=
201607200453 METAR KBLI 200453Z 00000KT 10SM BKN080 17/13 A3008 RMK AO2 SLP192 T01720133=
201607200353 METAR KBLI 200353Z 00000KT 10SM SCT080 18/13 A3007 RMK AO2 SLP187 T01830128=
201607200253 METAR KBLI 200253Z 25003KT 10SM CLR 21/12 A3006 RMK AO2 SLP185 T02110122 56005=
201607200153 METAR KBLI 200153Z 24005KT 10SM CLR 22/11 A3006 RMK AO2 SLP185 T02220106=
201607200053 METAR KBLI 200053Z VRB06KT 10SM CLR 23/11 A3007 RMK AO2 SLP186 T02330111=
201607192353 METAR KBLI 192353Z 19006KT 10SM CLR 23/11 A3008 RMK AO2 SLP190 T02280111 10239 20194 58006=
201607192253 METAR KBLI 192253Z 18007KT 10SM FEW060 23/11 A3008 RMK AO2 SLP192 T02280106=
201607192153 METAR KBLI 192153Z 00000KT 10SM CLR 22/12 A3009 RMK AO2 SLP195 T02220122=
201607192053 METAR KBLI 192053Z VRB06KT 10SM FEW050 22/12 A3010 RMK AO2 SLP196 T02170117 50000=
201607191953 METAR KBLI 191953Z 18007KT 150V220 10SM BKN050 21/12 A3010 RMK AO2 SLP196 T02110122=
201607191853 METAR KBLI 191853Z 21007KT 10SM FEW030 20/13 A3010 RMK AO2 SLP198 T02000128=
201607191753 METAR KBLI 191753Z VRB06G14KT 10SM CLR 19/13 A3010 RMK AO2 SLP196 T01940128 10200 20161 50004=
201607191653 METAR KBLI 191653Z 16006KT 10SM FEW025 SCT050 18/13 A3010 RMK AO2 SLP197 T01830133=
201607191555 SPECI KBLI 191555Z 16011KT 10SM SCT025 BKN050 17/13 A3010 RMK AO2 T01720133=
201607191553 METAR KBLI 191553Z 17010KT 10SM CLR 18/13 A3010 RMK AO2 SLP197 T01780133=
201607191453 METAR KBLI 191453Z 17010KT 10SM SCT026 BKN050 17/13 A3008 RMK AO2 SLP193 T01670133 53013=
201607191353 METAR KBLI 191353Z 16010KT 10SM OVC047 17/14 A3007 RMK AO2 SLP188 T01720139=
201607191253 METAR KBLI 191253Z AUTO 19006KT 10SM OVC044 16/14 A3006 RMK AO2 SLP184 T01610139=
201607191153 METAR KBLI 191153Z AUTO 18007KT 10SM OVC035 17/14 A3005 RMK AO2 SLP179 T01720139 10183 20167 53006=
201607191053 METAR KBLI 191053Z AUTO 17004KT 10SM OVC033 18/14 A3003 RMK AO2 SLP173 T01780144=
201607190953 METAR KBLI 190953Z AUTO 16006KT 10SM OVC032 18/14 A3003 RMK AO2 SLP172 T01780144=
201607190853 METAR KBLI 190853Z AUTO 17006KT 10SM BKN033 OVC044 18/14 A3003 RMK AO2 SLP173 T01780144 50000=
201607190822 SPECI KBLI 190822Z AUTO 19004KT 10SM FEW023 SCT035 OVC044 18/14 A3003 RMK AO2 T01780144=
201607190753 METAR KBLI 190753Z AUTO 18005KT 10SM BKN023 OVC035 18/14 A3003 RMK AO2 SLP174 T01780139 402220128=
201607190722 SPECI KBLI 190722Z AUTO 18004KT 10SM OVC031 18/14 A3004 RMK AO2 T01780144=
201607190653 METAR KBLI 190653Z AUTO 17006KT 10SM BKN029 OVC036 18/15 A3003 RMK AO2 SLP174 T01780150=
201607190642 SPECI KBLI 190642Z AUTO 17007KT 10SM BKN029 OVC038 18/15 A3003 RMK AO2 T01830150=
201607190553 METAR KBLI 190553Z AUTO 17009KT 10SM OVC040 18/15 A3003 RMK AO2 SLP173 T01830150 10206 20183 53010=
201607190453 METAR KBLI 190453Z 16007KT 10SM SCT042 OVC070 19/14 A3002 RMK AO2 SLP170 T01890144=
201607190353 METAR KBLI 190353Z 15011KT 10SM BKN029 OVC065 18/14 A3000 RMK AO2 SLP164 T01830144=
201607190312 SPECI KBLI 190312Z 17011KT 10SM BKN025 OVC100 18/15 A3000 RMK AO2 T01830150=
201607190253 METAR KBLI 190253Z 17008G17KT 10SM FEW029 SCT070 BKN100 18/15 A2999 RMK AO2 SLP163 T01830150 53004=
201607190153 METAR KBLI 190153Z 17007KT 10SM FEW090 19/14 A2999 RMK AO2 SLP161 T01890144=
201607190053 METAR KBLI 190053Z 17009G17KT 10SM SCT029 19/14 A2999 RMK AO2 SLP160 T01940144=
201607182353 METAR KBLI 182353Z 16008KT 10SM SCT029 20/14 A2998 RMK AO2 SLP159 T02000144 10222 20194 53013=
201607182253 METAR KBLI 182253Z 18010G17KT 10SM FEW100 21/14 A2997 RMK AO2 SLP154 T02110144=
201607182153 METAR KBLI 182153Z 16011G20KT 10SM FEW037 22/14 A2996 RMK AO2 SLP150 T02170144=
201607182053 METAR KBLI 182053Z 18011G17KT 10SM FEW080 22/14 A2995 RMK AO2 SLP145 T02170144 53002=
201607181953 METAR KBLI 181953Z 16009KT 10SM SCT085 22/15 A2994 RMK AO2 SLP142 T02170150=
201607181853 METAR KBLI 181853Z VRB06KT 10SM SCT050 21/14 A2994 RMK AO2 SLP143 T02060144=
201607181753 METAR KBLI 181753Z VRB03KT 10SM BKN039 20/14 A2994 RMK AO2 SLP143 T02000144 10200 20128 58004=
201607181653 METAR KBLI 181653Z 16005KT 10SM SCT050 18/14 A2995 RMK AO2 SLP148 T01830144=
201607181553 METAR KBLI 181553Z 17008KT 10SM BKN042 OVC050 17/14 A2996 RMK AO2 SLP150 T01720139=
201607181508 SPECI KBLI 181508Z 19005KT 10SM SCT006 BKN048 16/14 A2995 RMK AO2 T01610139=
201607181453 METAR KBLI 181453Z VRB04KT 10SM BKN006 16/14 A2995 RMK AO2 SLP147 T01610139 53010=
201607181407 SPECI KBLI 181407Z 16003KT 10SM FEW006 16/14 A2994 RMK AO2 T01610144=
201607181353 METAR KBLI 181353Z 00000KT 10SM FEW030 16/14 A2994 RMK AO2 SLP142 T01610144=
201607181342 SPECI KBLI 181342Z 00000KT 10SM CLR 16/14 A2993 RMK AO2 T01560144=
201607181253 METAR KBLI 181253Z AUTO 00000KT 10SM CLR 13/12 A2992 RMK AO2 SLP139 T01330122=
201607181153 METAR KBLI 181153Z AUTO 00000KT 10SM CLR 14/13 A2992 RMK AO2 SLP137 T01390128 10178 20139 53000=
201607181053 METAR KBLI 181053Z AUTO 00000KT 10SM FEW090 16/13 A2992 RMK AO2 SLP136 T01560133=
201607180953 METAR KBLI 180953Z AUTO 17006KT 10SM FEW090 16/14 A2992 RMK AO2 SLP137 T01560139=
201607180853 METAR KBLI 180853Z AUTO 18005KT 10SM SCT085 16/14 A2992 RMK AO2 SLP137 T01610139 56002=
201607180753 METAR KBLI 180753Z AUTO 19005KT 10SM CLR 17/14 A2992 RMK AO2 SLP137 T01670144 402500122=
201607180653 METAR KBLI 180653Z AUTO 00000KT 10SM CLR 17/14 A2992 RMK AO2 SLP138 T01670144=
201607180553 METAR KBLI 180553Z AUTO 17003KT 10SM CLR 18/15 A2993 RMK AO2 SLP139 T01780150 10250 20172 51005=
201607180453 METAR KBLI 180453Z 00000KT 10SM FEW048 18/15 A2993 RMK AO2 LTG DSNT W SLP139 T01780150=
201607180353 METAR KBLI 180353Z 00000KT 10SM BKN034 20/14 A2992 RMK AO2 SLP137 T02000139=
201607180253 METAR KBLI 180253Z 16006KT 10SM BKN050 22/15 A2991 RMK AO2 SLP134 T02220150 53005=
201607180153 METAR KBLI 180153Z VRB04KT 10SM BKN042 23/14 A2990 RMK AO2 SLP130 T02330139=
201607180053 METAR KBLI 180053Z VRB06KT 10SM BKN042 23/13 A2990 RMK AO2 LTG DSNT N SLP131 T02330133=
201607172353 METAR KBLI 172353Z 29005KT 10SM CLR 24/14 A2990 RMK AO2 SLP129 T02440144 10250 20200 58012=
201607172253 METAR KBLI 172253Z VRB04KT 10SM CLR 24/14 A2992 RMK AO2 SLP136 T02440144=
201607172153 METAR KBLI 172153Z VRB05KT 10SM CLR 23/14 A2993 RMK AO2 LTG DSNT NE SLP140 T02280144=
201607172058 SPECI KBLI 172058Z 30007KT 250V340 10SM FEW120 23/14 A2993 RMK AO2 LTG DSNT E T02280144=
201607172053 METAR KBLI 172053Z 28007KT 10SM FEW120 23/14 A2994 RMK AO2 SLP142 T02280144 58012=
201607171953 METAR KBLI 171953Z 27005KT 10SM FEW025 SCT030 BKN120 22/15 A2995 RMK AO2 SLP148 T02220150=
201607171853 METAR KBLI 171853Z 17006KT 10SM FEW018 SCT024 BKN120 21/16 A2996 RMK AO2 SLP152 T02110156=
201607171807 SPECI KBLI 171807Z VRB05KT 10SM SCT022 SCT030 21/15 A2997 RMK AO2 T02110150=
201607171800 SPECI KBLI 171800Z VRB05KT 10SM BKN022 OVC030 21/15 A2997 RMK AO2 T02110150=
201607171753 METAR KBLI 171753Z 18004KT 10SM SCT022 BKN110 20/15 A2997 RMK AO2 SLP155 T02000150 10217 20128 58005=
201607171653 METAR KBLI 171653Z VRB04KT 10SM FEW110 19/14 A2998 RMK AO2 SLP158 T01940144=
201607171553 METAR KBLI 171553Z 00000KT 10SM SCT044 BKN110 17/14 A2999 RMK AO2 SLP160 T01720139=
201607171453 METAR KBLI 171453Z 16004KT 10SM CLR 17/14 A2999 RMK AO2 SLP159 T01670139 53003=
201607171353 METAR KBLI 171353Z 17003KT 10SM CLR 16/14 A2998 RMK AO2 SLP158 T01560139=
201607171253 METAR KBLI 171253Z AUTO 00000KT 7SM FEW005 BKN120 13/13 A2998 RMK AO2 SLP157 T01330128=
201607171242 SPECI KBLI 171242Z AUTO 00000KT 5SM BR FEW005 BKN120 13/12 A2998 RMK AO2 T01280122=
201607171153 METAR KBLI 171153Z AUTO 00000KT 10SM BKN120 14/13 A2998 RMK AO2 SLP156 T01390128 10156 20122 58006=
201607171053 METAR KBLI 171053Z AUTO 00000KT 8SM CLR 13/12 A2998 RMK AO2 SLP159 T01330122=
201607170953 METAR KBLI 170953Z AUTO 00000KT 10SM CLR 13/12 A2999 RMK AO2 SLP161 T01330122=
201607170853 METAR KBLI 170853Z AUTO 00000KT 10SM CLR 14/13 A2999 RMK AO2 SLP163 T01440133 58004=
201607170753 METAR KBLI 170753Z AUTO 00000KT 10SM CLR 14/13 A3000 RMK AO2 SLP166 T01440133 402170133=
201607170653 METAR KBLI 170653Z AUTO 00000KT 10SM CLR 14/13 A3000 RMK AO2 SLP165 T01440128=
201607170553 METAR KBLI 170553Z AUTO 00000KT 10SM CLR 16/13 A3001 RMK AO2 SLP167 T01560133 10217 20150 56004=
201607170453 METAR KBLI 170453Z 00000KT 10SM CLR 16/13 A3001 RMK AO2 SLP167 T01610128=
201607170353 METAR KBLI 170353Z 00000KT 10SM CLR 18/14 A3001 RMK AO2 SLP168 T01830139=
201607170253 METAR KBLI 170253Z 28003KT 10SM CLR 21/13 A3002 RMK AO2 SLP171 T02060128 55004=
201607170153 METAR KBLI 170153Z 00000KT 10SM CLR 21/13 A3001 RMK AO2 SLP170 T02110128=
201607170053 METAR KBLI 170053Z VRB04KT 10SM CLR 22/12 A3003 RMK AO2 SLP173 T02170117=
201607162353 METAR KBLI 162353Z 19006KT 10SM CLR 21/12 A3003 RMK AO2 SLP175 T02110122 10211 20161 56011=
201607162253 METAR KBLI 162253Z VRB05KT 10SM SCT035 21/13 A3004 RMK AO2 SLP178 T02110128=
201607162153 METAR KBLI 162153Z VRB05KT 10SM CLR 21/13 A3005 RMK AO2 SLP182 T02060128=
201607162053 METAR KBLI 162053Z 19006KT 10SM BKN045 OVC060 19/13 A3006 RMK AO2 SLP187 T01940128 58003=
201607161953 METAR KBLI 161953Z VRB05KT 10SM BKN049 18/13 A3007 RMK AO2 SLP188 T01830128=
201607161853 METAR KBLI 161853Z 17008G14KT 150V210 10SM OVC043 18/13 A3007 RMK AO2 SLP190 T01780128=
201607161753 METAR KBLI 161753Z 19007KT 150V220 10SM SCT015 OVC043 16/13 A3007 RMK AO2 SLP190 T01610128 10161 20150 53003=
201607161653 METAR KBLI 161653Z 16010G16KT 10SM OVC015 16/12 A3007 RMK AO2 SLP188 T01560122=
201607161651 SPECI KBLI 161651Z 17007G16KT 10SM OVC015 16/12 A3007 RMK AO2=
201607161553 METAR KBLI 161553Z 16010KT 10SM SCT015 15/12 A3007 RMK AO2 SLP187 T01500122=
201607161453 METAR KBLI 161453Z 16010KT 10SM OVC046 15/12 A3007 RMK AO2 SLP187 T01500117 53010=
201607161353 METAR KBLI 161353Z 17011KT 10SM SCT047 OVC055 16/12 A3005 RMK AO2 SLP182 T01560117=
201607161253 METAR KBLI 161253Z AUTO 16012KT 10SM OVC046 16/12 A3004 RMK AO2 SLP179 T01560117=
201607161153 METAR KBLI 161153Z AUTO 18009KT 10SM OVC047 16/11 A3004 RMK AO2 SLP176 T01560111 10183 20156 58003=
201607161053 METAR KBLI 161053Z AUTO 17011KT 10SM OVC050 16/12 A3004 RMK AO2 SLP177 T01610117=
201607160953 METAR KBLI 160953Z AUTO 19006KT 10SM OVC049 17/12 A3004 RMK AO2 SLP179 T01670117=
201607160853 METAR KBLI 160853Z AUTO 17006KT 10SM OVC055 17/12 A3004 RMK AO2 SLP180 T01720117 55006=
201607160753 METAR KBLI 160753Z AUTO 16009G16KT 10SM OVC055 18/11 A3004 RMK AO2 SLP178 T01830111 402220106=
201607160653 METAR KBLI 160653Z AUTO 16008KT 10SM BKN060 OVC075 18/12 A3006 RMK AO2 SLP184 T01780122=
201607160553 METAR KBLI 160553Z AUTO 17006KT 10SM OVC060 18/12 A3006 RMK AO2 SLP186 T01830122 10222 20183 58001=
201607160453 METAR KBLI 160453Z 16007KT 10SM BKN060 OVC120 19/12 A3007 RMK AO2 SLP189 T01940117=
201607160353 METAR KBLI 160353Z 16004KT 10SM OVC055 21/11 A3006 RMK AO2 SLP186 T02060106=
201607160253 METAR KBLI 160253Z 17004KT 10SM BKN050 OVC110 21/12 A3007 RMK AO2 SLP187 T02110117 56012=
201607160153 METAR KBLI 160153Z 18003KT 10SM OVC050 22/11 A3008 RMK AO2 SLP190 T02170111=
201607160053 METAR KBLI 160053Z VRB04KT 10SM FEW050 OVC110 22/10 A3009 RMK AO2 SLP194 T02170100=
201607152353 METAR KBLI 152353Z VRB05KT 10SM SCT050 22/11 A3010 RMK AO2 SLP199 T02170106 10222 20167 58015=
201607152253 METAR KBLI 152253Z 17005KT 10SM CLR 21/10 A3012 RMK AO2 SLP204 T02110100=
201607152153 METAR KBLI 152153Z VRB06KT 10SM CLR 21/12 A3013 RMK AO2 SLP208 T02060117=
201607152053 METAR KBLI 152053Z 18007KT 10SM SCT044 19/12 A3014 RMK AO2 SLP213 T01940122 58004=
201607151953 METAR KBLI 151953Z 19007KT 150V210 10SM OVC045 19/13 A3015 RMK AO2 SLP217 T01890128=
201607151853 METAR KBLI 151853Z 16008KT 10SM SCT014 OVC044 17/12 A3016 RMK AO2 SLP217 T01720122=
201607151753 METAR KBLI 151753Z 16011KT 10SM OVC014 17/12 A3016 RMK AO2 SLP217 T01670122 10172 20139 51004=
201607151653 METAR KBLI 151653Z 16009KT 10SM OVC013 16/12 A3016 RMK AO2 SLP217 T01610122=
201607151553 METAR KBLI 151553Z 16008KT 10SM OVC012 15/12 A3015 RMK AO2 SLP216 T01500122=
201607151453 METAR KBLI 151453Z 17007KT 10SM OVC012 15/12 A3014 RMK AO2 SLP213 T01500122 53002=
201607151353 METAR KBLI 151353Z 16008KT 10SM BKN013 OVC041 16/13 A3013 RMK AO2 SLP210 T01560128=
201607151253 METAR KBLI 151253Z AUTO 17004KT 10SM BKN046 14/12 A3014 RMK AO2 SLP212 T01390117=
201607151230 SPECI KBLI 151230Z AUTO 15006KT 10SM SCT017 BKN034 BKN046 14/12 A3013 RMK AO2 T01440122=
201607151153 METAR KBLI 151153Z AUTO 15005KT 10SM BKN020 BKN033 14/12 A3014 RMK AO2 SLP211 T01440122 10144 20106 58008=
201607151053 METAR KBLI 151053Z AUTO 00000KT 10SM OVC038 13/12 A3015 RMK AO2 SLP216 T01280117=
201607150953 METAR KBLI 150953Z AUTO 00000KT 10SM FEW030 11/10 A3015 RMK AO2 SLP215 T01060100=
201607150853 METAR KBLI 150853Z AUTO 00000KT 10SM SCT044 12/11 A3016 RMK AO2 SLP219 T01220111 56003=
201607150753 METAR KBLI 150753Z AUTO 00000KT 10SM CLR 13/11 A3016 RMK AO2 SLP219 T01280111 402280117=
201607150653 METAR KBLI 150653Z AUTO 00000KT 10SM CLR 13/11 A3016 RMK AO2 SLP220 T01280111=
201607150553 METAR KBLI 150553Z AUTO 00000KT 10SM CLR 12/11 A3017 RMK AO2 SLP222 60000 T01220106 10217 20122 56001=
201607150453 METAR KBLI 150453Z 00000KT 10SM CLR 14/12 A3017 RMK AO2 SLP223 T01390117=
201607150353 METAR KBLI 150353Z 00000KT 10SM FEW120 16/12 A3017 RMK AO2 RAE15 SLP221 P0000 T01560117=
201607150253 METAR KBLI 150253Z 03003KT 10SM -RA OVC095 17/11 A3017 RMK AO2 RAB28 SLP223 P0000 60000 T01720111 58003=
201607150153 METAR KBLI 150153Z 30008KT 10SM BKN095 OVC110 19/12 A3018 RMK AO2 SLP227 T01890117=
201607150053 METAR KBLI 150053Z 30007KT 10SM SCT100 21/11 A3018 RMK AO2 SLP226 T02060111=
201607142353 METAR KBLI 142353Z 16008KT 10SM CLR 22/12 A3018 RMK AO2 SLP226 T02170117 10228 20178 56008=
201607142253 METAR KBLI 142253Z VRB06KT 10SM CLR 22/11 A3019 RMK AO2 SLP229 T02220111=
201607142153 METAR KBLI 142153Z 26006KT 10SM FEW020 22/11 A3020 RMK AO2 SLP233 T02220106=
201607142053 METAR KBLI 142053Z VRB05KT 10SM FEW020 22/12 A3021 RMK AO2 SLP235 T02170117 58009=
201607141953 METAR KBLI 141953Z VRB04KT 10SM FEW020 21/12 A3023 RMK AO2 SLP241 T02060122=
201607141853 METAR KBLI 141853Z VRB03KT 10SM SCT021 OVC060 19/13 A3023 RMK AO2 SLP243 T01940133=
201607141753 METAR KBLI 141753Z 19007KT 160V230 10SM SCT030 18/13 A3023 RMK AO2 SLP244 T01830133 10183 20139 58001=
201607141706 SPECI KBLI 141706Z VRB05KT 10SM FEW015 SCT020 BKN070 17/13 A3024 RMK AO2 T01670128=
201607141653 METAR KBLI 141653Z 19005KT 10SM SCT014 BKN019 OVC070 16/13 A3024 RMK AO2 SLP245 T01610128=
201607141553 METAR KBLI 141553Z 16008KT 10SM OVC065 16/13 A3024 RMK AO2 SLP245 T01560128=
201607141453 METAR KBLI 141453Z 18008KT 10SM SCT016 16/13 A3024 RMK AO2 SLP245 T01560128 53006=
201607141353 METAR KBLI 141353Z 18006KT 10SM SCT019 14/12 A3023 RMK AO2 SLP242 T01440122=
201607141253 METAR KBLI 141253Z 18005KT 10SM CLR 14/12 A3022 RMK AO2 SLP240 T01390122=
201607141153 METAR KBLI 141153Z 17003KT 10SM CLR 12/11 A3022 RMK AO2 SLP239 T01220106 10156 20117 58001=
201607141053 METAR KBLI 141053Z 18004KT 10SM CLR 13/12 A3022 RMK AO2 SLP240 T01330117=
201607140953 METAR KBLI 140953Z 17003KT 10SM CLR 13/11 A3023 RMK AO2 SLP241 T01330111=
201607140853 METAR KBLI 140853Z 18004KT 10SM FEW055 14/12 A3022 RMK AO2 SLP240 T01440117 58001=
201607140753 METAR KBLI 140753Z 15003KT 10SM CLR 15/12 A3023 RMK AO2 SLP242 T01500117 402220133=
201607140653 METAR KBLI 140653Z 18003KT 10SM FEW060 14/12 A3023 RMK AO2 SLP241 T01440122=
201607140553 METAR KBLI 140553Z 19003KT 10SM CLR 16/11 A3023 RMK AO2 SLP242 T01560111 10222 20144 50004=
201607140453 METAR KBLI 140453Z 18003KT 10SM CLR 15/11 A3023 RMK AO2 SLP242 T01500106=
201607140353 METAR KBLI 140353Z 00000KT 10SM CLR 17/10 A3022 RMK AO2 SLP239 T01720100=
201607140253 METAR KBLI 140253Z 18003KT 10SM CLR 21/08 A3021 RMK AO2 SLP237 T02060083 56005=
201607140153 METAR KBLI 140153Z VRB04KT 10SM FEW060 21/07 A3022 RMK AO2 SLP238 T02110067=
201607140053 METAR KBLI 140053Z 28003KT 10SM CLR 22/08 A3022 RMK AO2 SLP238 T02220083=
201607132353 METAR KBLI 132353Z 29006KT 10SM CLR 22/09 A3023 RMK AO2 SLP243 T02170094 10222 20172 56004=
201607132253 METAR KBLI 132253Z 10SM CLR 22/11 A3023 RMK AO2 SLP243 T02220111=
201607132153 METAR KBLI 132153Z 18008KT 10SM CLR 22/11 A3024 RMK AO2 SLP244 T02170111=
201607132053 METAR KBLI 132053Z 10SM CLR 21/11 A3024 RMK AO2 SLP247 T02060106 50000=
201607131953 METAR KBLI 131953Z VRB05KT 10SM CLR 20/10 A3025 RMK AO2 SLP248 T02000100=
201607131853 METAR KBLI 131853Z 19007G14KT 160V230 10SM OVC075 18/12 A3025 RMK AO2 SLP250 T01830117=
201607131753 METAR KBLI 131753Z 18007KT 10SM OVC075 17/12 A3024 RMK AO2 SLP247 T01720117 10172 20144 51009=
201607131653 METAR KBLI 131653Z 17007KT 10SM OVC080 17/12 A3023 RMK AO2 SLP243 T01670122=
201607131553 METAR KBLI 131553Z 17007KT 10SM OVC065 16/12 A3023 RMK AO2 SLP241 T01560122=
201607131453 METAR KBLI 131453Z 17008KT 10SM FEW014 OVC055 16/12 A3021 RMK AO2 SLP237 T01560117 52015=
201607131353 METAR KBLI 131353Z 15006KT 10SM OVC055 16/11 A3020 RMK AO2 SLP232 T01560111=
201607131253 METAR KBLI 131253Z AUTO 15006KT 10SM OVC050 15/11 A3019 RMK AO2 SLP227 T01500106 $=
201607131153 METAR KBLI 131153Z AUTO 17004KT 10SM FEW055 OVC075 15/11 A3017 RMK AO2 SLP222 60000 T01500106 10178 20144 53010 $=
201607131053 METAR KBLI 131053Z AUTO 00000KT 10SM OVC060 15/11 A3016 RMK AO2 SLP218 T01500111=
201607130953 METAR KBLI 130953Z AUTO 16005KT 10SM OVC042 15/12 A3015 RMK AO2 RAB14E38 SLP214 P0000 T01500117=
201607130853 METAR KBLI 130853Z AUTO 16007KT 10SM OVC042 16/12 A3014 RMK AO2 RAE0758 SLP212 P0000 60000 T01610117 51012=
201607130753 METAR KBLI 130753Z AUTO 17007KT 10SM -RA SCT050 OVC060 16/12 A3014 RMK AO2 RAB47 SLP210 P0000 T01560122 402220133=
201607130653 METAR KBLI 130653Z AUTO 17009KT 10SM BKN050 OVC060 17/12 A3012 RMK AO2 SLP205 T01720122=
201607130553 METAR KBLI 130553Z AUTO 17005KT 10SM BKN055 OVC080 18/13 A3011 RMK AO2 SLP201 T01780133 10222 20178 51019=
201607130453 METAR KBLI 130453Z 16006KT 10SM OVC080 18/13 A3010 RMK AO2 SLP197 T01780133=
201607130353 METAR KBLI 130353Z 17006KT 10SM OVC075 19/13 A3007 RMK AO2 SLP188 T01890128=
201607130253 METAR KBLI 130253Z 20003KT 10SM SCT080 20/12 A3005 RMK AO2 SLP182 T02000122 53004=
201607130153 METAR KBLI 130153Z 16006KT 10SM CLR 21/12 A3005 RMK AO2 SLP180 T02110122=
201607130053 METAR KBLI 130053Z 17007KT 10SM BKN085 22/13 A3004 RMK AO2 SLP178 T02220128=
201607122353 METAR KBLI 122353Z VRB04KT 10SM BKN085 21/12 A3004 RMK AO2 SLP178 T02110117 10222 20172 51003=
201607122253 METAR KBLI 122253Z 20005KT 10SM CLR 22/11 A3004 RMK AO2 SLP177 T02170111=
201607122153 METAR KBLI 122153Z VRB06KT 10SM BKN110 22/12 A3003 RMK AO2 SLP176 T02220117=
201607122053 METAR KBLI 122053Z 20005KT 10SM FEW095 BKN110 21/12 A3003 RMK AO2 SLP175 T02060122 53008=
201607121953 METAR KBLI 121953Z 18009KT 10SM BKN070 20/13 A3002 RMK AO2 SLP171 T02000128=
201607121853 METAR KBLI 121853Z 18006KT 10SM OVC070 19/12 A3001 RMK AO2 SLP169 T01890122=
201607121753 METAR KBLI 121753Z 21006KT 10SM OVC070 17/13 A3000 RMK AO2 SLP166 T01720133 10183 20133 51008=
201607121653 METAR KBLI 121653Z VRB03KT 10SM BKN041 OVC060 17/13 A3000 RMK AO2 SLP165 T01720133=
201607121553 METAR KBLI 121553Z VRB04KT 10SM BKN065 BKN120 16/14 A2999 RMK AO2 SLP162 T01610139=
201607121453 METAR KBLI 121453Z 00000KT 10SM BKN085 BKN100 16/14 A2998 RMK AO2 SLP158 T01560139 51011=
201607121353 METAR KBLI 121353Z 00000KT 10SM BKN080 OVC110 14/13 A2997 RMK AO2 SLP155 T01390133=
201607121253 METAR KBLI 121253Z AUTO 00000KT 10SM BKN075 14/13 A2996 RMK AO2 SLP150 T01390133=
201607121153 METAR KBLI 121153Z AUTO 00000KT 10SM FEW080 BKN090 14/13 A2995 RMK AO2 SLP147 60004 70004 T01390133 10156 20133 56004=
201607121053 METAR KBLI 121053Z AUTO 00000KT 10SM OVC090 14/13 A2995 RMK AO2 SLP147 P0001 T01440133=
201607120953 METAR KBLI 120953Z AUTO 00000KT 10SM BKN090 OVC110 14/13 A2995 RMK AO2 RAE39 SLP149 P0000 T01390133=
201607120853 METAR KBLI 120853Z AUTO 00000KT 10SM -RA OVC090 14/14 A2996 RMK AO2 SLP151 P0002 60003 T01440139 56006=
201607120753 METAR KBLI 120753Z AUTO 00000KT 10SM -RA OVC090 15/13 A2996 RMK AO2 RAB0658E15B36 SLP151 P0001 T01500133 402060139=
201607120653 METAR KBLI 120653Z AUTO 00000KT 10SM OVC090 16/12 A2997 RMK AO2 SLP153 T01560122=
201607120553 METAR KBLI 120553Z AUTO 00000KT 10SM OVC090 16/12 A2998 RMK AO2 SLP157 T01560122 10206 20139 58004=
201607120453 METAR KBLI 120453Z 00000KT 10SM CLR 14/11 A2999 RMK AO2 SLP160 T01440111=
201607120353 METAR KBLI 120353Z AUTO VRB04KT 10SM FEW095 17/11 A2999 RMK AO2 SLP160 T01670111=
201607120253 METAR KBLI 120253Z 17004KT 10SM CLR 18/12 A2999 RMK AO2 SLP162 T01830122 56010=
201607120153 METAR KBLI 120153Z 19006KT 10SM CLR 19/12 A3000 RMK AO2 SLP164 T01940117=
201607120053 METAR KBLI 120053Z 18006KT 10SM CLR 20/11 A3001 RMK AO2 SLP168 T02000111=
201607112353 METAR KBLI 112353Z 18007KT 150V220 10SM CLR 20/11 A3002 RMK AO2 SLP172 T02000111 10206 20150 58016=
201607112253 METAR KBLI 112253Z 16009KT 150V210 10SM CLR 20/12 A3005 RMK AO2 SLP180 T02000117=
201607112153 METAR KBLI 112153Z 19005KT 10SM CLR 19/12 A3006 RMK AO2 SLP185 T01890117=
201607112053 METAR KBLI 112053Z 17009G16KT 150V230 10SM BKN038 18/12 A3007 RMK AO2 SLP188 T01830117 58006=
201607111953 METAR KBLI 111953Z 18007KT 10SM OVC034 17/12 A3008 RMK AO2 SLP192 T01670117=
201607111853 METAR KBLI 111853Z 17008KT 10SM SCT029 BKN041 17/12 A3009 RMK AO2 SLP194 T01670117=
201607111753 METAR KBLI 111753Z 17011KT 10SM BKN029 OVC037 16/11 A3009 RMK AO2 SLP195 60000 T01610111 10167 20144 51004=
201607111653 METAR KBLI 111653Z 17010G16KT 10SM FEW016 SCT031 OVC100 16/11 A3009 RMK AO2 SLP193 T01610111=
201607111553 METAR KBLI 111553Z 17010G15KT 10SM FEW017 BKN090 15/11 A3008 RMK AO2 RAB1457E13 SLP192 P0000 T01500106=
201607111453 METAR KBLI 111453Z 16012G20KT 10SM FEW017 BKN085 OVC110 14/11 A3008 RMK AO2 SLP190 T01440106 53009=
201607111353 METAR KBLI 111353Z 16010G19KT 10SM FEW029 OVC100 14/10 A3006 RMK AO2 SLP185 T01440100=
201607111328 SPECI KBLI 111328Z AUTO 16012KT 10SM FEW027 OVC110 14/10 A3006 RMK AO2 T01440100=
201607111303 SPECI KBLI 111303Z AUTO 16011G19KT 10SM BKN027 BKN090 OVC110 14/10 A3005 RMK AO2 T01440100=
201607111253 METAR KBLI 111253Z AUTO 15013KT 10SM SCT028 OVC090 14/10 A3005 RMK AO2 SLP182 T01440100=
201607111153 METAR KBLI 111153Z AUTO 15010G16KT 10SM BKN090 OVC110 14/11 A3005 RMK AO2 RAB18E27 SLP181 P0000 60000 T01440106 10161 20144 53003=
201607111053 METAR KBLI 111053Z AUTO 17012G18KT 10SM OVC090 16/10 A3005 RMK AO2 SLP180 T01560100=
201607110953 METAR KBLI 110953Z AUTO 16009G15KT 10SM OVC095 16/10 A3004 RMK AO2 RAB24E35 SLP177 P0000 T01560100=
201607110853 METAR KBLI 110853Z AUTO 16009KT 10SM BKN075 OVC090 16/11 A3004 RMK AO2 SLP178 60000 T01560106 50006=
201607110753 METAR KBLI 110753Z AUTO 17009KT 10SM BKN080 OVC095 16/11 A3004 RMK AO2 RAB0654E37 SLP179 P0000 T01560106 402220133=
201607110653 METAR KBLI 110653Z AUTO 17010KT 10SM OVC080 16/11 A3004 RMK AO2 RAB05E31 SLP177 P0000 T01560111=
201607110553 METAR KBLI 110553Z AUTO 17011G17KT 10SM BKN080 OVC100 16/12 A3002 RMK AO2 SLP172 T01610117 10217 20161 53007=
201607110453 METAR KBLI 110453Z 17010G18KT 10SM BKN080 OVC095 17/11 A3002 RMK AO2 SLP170 T01720111=
201607110353 METAR KBLI 110353Z 17011G16KT 10SM OVC090 17/12 A3000 RMK AO2 SLP166 T01720122=
201607110253 METAR KBLI 110253Z 17009KT 10SM OVC100 19/12 A3000 RMK AO2 SLP165 T01890117 55000=
201607110153 METAR KBLI 110153Z 16011KT 10SM OVC095 19/13 A3000 RMK AO2 SLP164 T01940128=
201607110053 METAR KBLI 110053Z 16009KT 10SM FEW095 22/12 A3000 RMK AO2 SLP163 T02170117=
201607102353 METAR KBLI 102353Z 17008KT 10SM CLR 21/12 A3000 RMK AO2 SLP165 T02110117 10222 20172 56003=
201607102253 METAR KBLI 102253Z VRB04KT 10SM FEW035 SCT080 21/11 A3000 RMK AO2 SLP166 T02110111=
201607102153 METAR KBLI 102153Z VRB06KT 10SM FEW029 BKN035 21/12 A3000 RMK AO2 SLP166 T02060117=
201607102053 METAR KBLI 102053Z 18008KT 10SM SCT028 BKN080 20/13 A3001 RMK AO2 SLP168 T02000128 50001=
201607101953 METAR KBLI 101953Z VRB04KT 10SM SCT024 BKN080 19/13 A3002 RMK AO2 SLP170 T01940133=
201607101853 METAR KBLI 101853Z VRB05KT 10SM CLR 18/13 A3001 RMK AO2 SLP168 T01830128=
201607101753 METAR KBLI 101753Z 18005KT 10SM SCT050 18/12 A3001 RMK AO2 SLP168 60000 T01830122 10183 20139 50002=
201607101653 METAR KBLI 101653Z 18004KT 10SM FEW020 BKN049 OVC070 17/11 A3001 RMK AO2 SLP169 T01670111=
201607101553 METAR KBLI 101553Z 00000KT 10SM FEW034 FEW042 OVC065 16/13 A3001 RMK AO2 SLP169 T01610128=
201607101453 METAR KBLI 101453Z 00000KT 10SM OVC065 15/13 A3000 RMK AO2 RAE24 SLP166 P0000 60000 T01500133 53006=
201607101353 METAR KBLI 101353Z 00000KT 7SM -RA SCT033 OVC045 14/13 A3000 RMK AO2 RAB46 SLP163 P0000 T01440128=
201607101253 METAR KBLI 101253Z AUTO 00000KT 10SM BKN050 OVC065 14/12 A2999 RMK AO2 RAB28E38 SLP161 P0000 T01440122=
201607101153 METAR KBLI 101153Z AUTO 00000KT 10SM OVC048 14/12 A2998 RMK AO2 SLP159 T01440122 10156 20133 53002=
201607101053 METAR KBLI 101053Z AUTO 00000KT 10SM OVC050 14/12 A2998 RMK AO2 SLP156 T01390122=
201607100953 METAR KBLI 100953Z AUTO 00000KT 10SM FEW048 SCT090 15/12 A2998 RMK AO2 SLP156 T01500117=
201607100853 METAR KBLI 100853Z AUTO 00000KT 10SM OVC080 15/12 A2998 RMK AO2 SLP157 T01500117 56005=
201607100753 METAR KBLI 100753Z AUTO 32003KT 10SM FEW048 OVC070 14/12 A2998 RMK AO2 SLP159 T01390117 402110139=
201607100653 METAR KBLI 100653Z AUTO 10SM BKN075 OVC100 15/11 A2998 RMK AO2 SLP159 T01500111=
201607100553 METAR KBLI 100553Z AUTO 00000KT 10SM OVC085 16/12 A2999 RMK AO2 SLP163 T01560117 10206 20150 50004=
201607100453 METAR KBLI 100453Z 00000KT 10SM OVC085 16/11 A2999 RMK AO2 SLP163 T01560111=
201607100353 METAR KBLI 100353Z 00000KT 10SM BKN085 17/12 A2999 RMK AO2 SLP160 T01670117=
201607100253 METAR KBLI 100253Z 19004KT 10SM FEW090 OVC110 18/11 A2998 RMK AO2 SLP159 T01780106 53002=
201607100153 METAR KBLI 100153Z 17005KT 10SM OVC095 19/11 A2997 RMK AO2 SLP156 T01890111=
201607100053 METAR KBLI 100053Z 18007KT 10SM CLR 20/10 A2997 RMK AO2 SLP156 T02000100=
201607092353 METAR KBLI 092353Z 17009G15KT 10SM FEW046 BKN070 20/10 A2998 RMK AO2 SLP157 T02000100 10211 20161 54000=
201607092253 METAR KBLI 092253Z AUTO 17008KT 150V220 10SM BKN048 BKN060 BKN070 21/11 A2998 RMK AO2 SLP156 T02060106=
201607092153 METAR KBLI 092153Z VRB06KT 10SM BKN045 BKN060 OVC110 19/11 A2998 RMK AO2 SLP157 T01940111=
201607092053 METAR KBLI 092053Z 17012G17KT 10SM FEW044 FEW055 SCT100 20/11 A2998 RMK AO2 SLP157 T02000111 53007=
201607091953 METAR KBLI 091953Z 16009KT 10SM FEW039 SCT050 SCT060 18/11 A2997 RMK AO2 SLP153 T01830111=
201607091853 METAR KBLI 091853Z 17010G17KT 10SM FEW029 FEW037 SCT080 18/12 A2996 RMK AO2 SLP152 T01830117=
201607091753 METAR KBLI 091753Z 18007KT 10SM SCT030 BKN037 17/12 A2995 RMK AO2 SLP149 T01670117 10172 20150 51007=
201607091701 SPECI KBLI 091701Z 19006KT 10SM FEW010 BKN033 BKN045 17/12 A2995 RMK AO2 T01670117=
201607091700 SPECI KBLI 091700Z 19007KT 10SM FEW029 SCT040 BKN049 17/12 A2995 RMK AO2 T01670122=
201607091653 METAR KBLI 091653Z 18007KT 10SM FEW010 OVC028 17/12 A2995 RMK AO2 SLP148 T01670117=
201607091553 METAR KBLI 091553Z 17011G18KT 10SM FEW008 BKN028 17/11 A2994 RMK AO2 SLP145 T01670111=
201607091453 METAR KBLI 091453Z 17007KT 10SM BKN021 BKN030 OVC043 16/12 A2993 RMK AO2 SLP142 T01560122 53015=
201607091353 METAR KBLI 091353Z 16011G18KT 10SM BKN027 OVC032 16/12 A2992 RMK AO2 SLP135 T01560122=
201607091311 SPECI KBLI 091311Z AUTO 15013G20KT 10SM BKN029 OVC035 16/12 A2991 RMK AO2 T01560117=
201607091253 METAR KBLI 091253Z AUTO 15008KT 10SM OVC036 16/12 A2990 RMK AO2 SLP129 T01560122=
201607091153 METAR KBLI 091153Z AUTO 15007KT 10SM FEW023 OVC036 16/13 A2989 RMK AO2 SLP127 60020 70020 T01560128 10167 20144 53011=
201607091053 METAR KBLI 091053Z AUTO 14007KT 10SM FEW080 OVC110 15/13 A2988 RMK AO2 RAE43 SLP123 P0002 T01500133=
201607090953 METAR KBLI 090953Z AUTO 14008KT 10SM -RA OVC075 14/13 A2986 RMK AO2 SLP117 P0010 T01440128=
201607090853 METAR KBLI 090853Z AUTO 16009KT 5SM RA BR SCT060 OVC080 15/13 A2986 RMK AO2 LTG DSNT N SLP117 P0008 60008 T01500133 53006=
201607090753 METAR KBLI 090753Z AUTO 18007KT 10SM -RA BKN055 BKN070 OVC100 16/13 A2984 RMK AO2 RAB30 SLP110 P0000 T01560133 402280156=
201607090653 METAR KBLI 090653Z AUTO 17005KT 10SM BKN075 BKN100 17/14 A2983 RMK AO2 SLP108 T01670139=
201607090553 METAR KBLI 090553Z AUTO 04003KT 10SM OVC085 17/13 A2984 RMK AO2 SLP111 60000 T01670133 10222 20167 58007=
201607090453 METAR KBLI 090453Z 00000KT 10SM OVC100 17/13 A2985 RMK AO2 RAB39E48 SLP115 P0000 T01720128=
201607090353 METAR KBLI 090353Z 16003KT 10SM OVC100 18/14 A2986 RMK AO2 SLP116 T01830139=
201607090253 METAR KBLI 090253Z 00000KT 10SM CLR 19/13 A2986 RMK AO2 SLP118 T01940133 55001=
201607090153 METAR KBLI 090153Z 22005KT 10SM CLR 22/12 A2986 RMK AO2 SLP116 T02170122=
201607090053 METAR KBLI 090053Z 19005KT 10SM CLR 22/12 A2986 RMK AO2 SLP116 T02170122=
201607082353 METAR KBLI 082353Z 18009G16KT 10SM CLR 22/12 A2987 RMK AO2 SLP118 T02220122 10228 20178 58007=
201607082253 METAR KBLI 082253Z 18009KT 10SM FEW055 22/12 A2987 RMK AO2 SLP120 T02220122=
201607082153 METAR KBLI 082153Z 16011G16KT 10SM SCT049 SCT060 22/12 A2988 RMK AO2 SLP124 T02170122=
201607082053 METAR KBLI 082053Z 17008G17KT 10SM SCT039 BKN090 21/12 A2989 RMK AO2 SLP125 T02060122 53005=
201607081953 METAR KBLI 081953Z 17011G20KT 10SM OVC085 19/13 A2988 RMK AO2 SLP123 T01940128=
201607081853 METAR KBLI 081853Z 17007KT 10SM FEW033 SCT040 BKN047 19/13 A2987 RMK AO2 SLP120 T01890133=
201607081753 METAR KBLI 081753Z 18008KT 10SM BKN027 OVC037 18/13 A2986 RMK AO2 SLP117 60000 T01780128 10178 20161 51009=
201607081653 METAR KBLI 081653Z 18008KT 170V230 10SM OVC026 17/13 A2986 RMK AO2 SLP115 T01720128=
201607081553 METAR KBLI 081553Z 16010G22KT 10SM BKN026 OVC032 17/13 A2985 RMK AO2 SLP113 T01720128=
201607081453 METAR KBLI 081453Z 16014G19KT 10SM BKN023 OVC030 17/13 A2983 RMK AO2 RAB22E46 SLP108 P0000 60000 T01670133 53010=
201607081353 METAR KBLI 081353Z 15013G19KT 10SM OVC019 16/13 A2982 RMK AO2 SLP105 T01610133=
201607081253 METAR KBLI 081253Z AUTO 16011G18KT 10SM BKN018 OVC023 17/13 A2981 RMK AO2 SLP101 T01670128=
201607081153 METAR KBLI 081153Z AUTO 16014G22KT 10SM BKN022 OVC033 17/13 A2980 RMK AO2 SLP098 60001 70013 T01720128 10172 20161 55002=
201607081053 METAR KBLI 081053Z AUTO 16014G20KT 140V220 10SM BKN021 OVC026 17/14 A2980 RMK AO2 SLP097 T01720139=
201607080953 METAR KBLI 080953Z AUTO 15007KT 10SM OVC025 17/14 A2981 RMK AO2 SLP099 T01720139=
201607080900 SPECI KBLI 080900Z AUTO VRB04KT 10SM BKN024 BKN080 OVC120 16/14 A2981 RMK AO2 T01610139=
201607080853 METAR KBLI 080853Z AUTO 15006KT 10SM SCT024 BKN080 BKN120 17/14 A2981 RMK AO2 SLP101 60001 T01670139 58014=
201607080808 SPECI KBLI 080808Z AUTO 13006KT 10SM SCT024 BKN031 OVC110 16/14 A2983 RMK AO2 T01610139=
201607080753 METAR KBLI 080753Z AUTO 11006KT 10SM BKN024 BKN110 16/14 A2983 RMK AO2 SLP107 T01610139 401890128=
201607080743 SPECI KBLI 080743Z AUTO 12006KT 10SM BKN024 BKN070 BKN120 16/14 A2983 RMK AO2 T01610139=
201607080653 METAR KBLI 080653Z AUTO 13007KT 10SM FEW030 BKN045 OVC090 16/14 A2984 RMK AO2 RAE40 SLP110 P0001 T01610139=
201607080553 METAR KBLI 080553Z AUTO 16006KT 10SM -RA SCT024 OVC039 17/14 A2985 RMK AO2 RAB06 SLP115 P0000 60005 T01670139 10189 20161 58001=
201607080453 METAR KBLI 080453Z 13004KT 10SM BKN025 BKN042 OVC080 17/14 A2985 RMK AO2 RAE36 SLP114 P0001 T01670144=
201607080353 METAR KBLI 080353Z 15007KT 10SM -RA BKN023 BKN030 OVC050 17/14 A2986 RMK AO2 SLP117 P0004 T01670144=
201607080253 METAR KBLI 080253Z VRB06KT 10SM -RA OVC028 18/14 A2986 RMK AO2 RAB05 SLP116 P0000 60000 T01780139 56005=
201607080153 METAR KBLI 080153Z 14012KT 10SM BKN032 OVC043 19/13 A2987 RMK AO2 SLP119 T01890128=
201607080053 METAR KBLI 080053Z 00000KT 10SM OVC034 18/15 A2987 RMK AO2 RAB00E10 SLP120 P0000 T01830150=
201607072353 METAR KBLI 072353Z 02004KT 10SM OVC033 18/15 A2988 RMK AO2 RAB15E29 SLP124 P0000 60000 T01780150 10183 20150 58010=
201607072253 METAR KBLI 072253Z 02004KT 10SM OVC033 18/15 A2989 RMK AO2 SLP127 T01830150=
201607072153 METAR KBLI 072153Z 11005KT 10SM BKN030 OVC037 18/13 A2990 RMK AO2 SLP132 T01830128=
201607072053 METAR KBLI 072053Z 00000KT 10SM FEW010 SCT034 OVC065 17/15 A2991 RMK AO2 SLP134 60000 T01720150 58005=
201607071953 METAR KBLI 071953Z 15003KT 5SM BR FEW004 SCT022 OVC028 16/14 A2992 RMK AO2 RAE44 SLP137 P0000 T01560144=
201607071914 SPECI KBLI 071914Z 19006KT 5SM -RA BR FEW008 BKN024 OVC038 16/14 A2993 RMK AO2 P0000 T01560139=
201607071906 SPECI KBLI 071906Z 19004KT 10SM -RA FEW021 BKN026 OVC038 16/14 A2993 RMK AO2 P0000 T01560139=
201607071853 METAR KBLI 071853Z VRB05KT 10SM -RA SCT026 OVC041 16/14 A2993 RMK AO2 RAE04B52 SLP140 P0000 T01560139=
201607071803 SPECI KBLI 071803Z VRB04KT 10SM -RA BKN022 OVC060 15/14 A2992 RMK AO2 P0000 T01500139=
201607071753 METAR KBLI 071753Z VRB04KT 10SM -RA SCT020 OVC055 15/14 A2992 RMK AO2 SLP139 P0001 60007 T01500139 10156 20128 51006=
201607071653 METAR KBLI 071653Z 16006KT 8SM -RA SCT049 OVC060 14/13 A2992 RMK AO2 SLP138 P0004 T01440133=
201607071553 METAR KBLI 071553Z 17006KT 10SM -RA BKN060 OVC085 15/13 A2992 RMK AO2 SLP137 P0002 T01500128=
201607071453 METAR KBLI 071453Z 17004KT 10SM -RA BKN060 OVC100 15/12 A2991 RMK AO2 RAB27 SLP133 P0000 60000 T01500122 53001=
201607071353 METAR KBLI 071353Z 18005KT 10SM BKN080 OVC110 15/12 A2990 RMK AO2 SLP132 T01500122=
201607071253 METAR KBLI 071253Z AUTO 00000KT 10SM BKN100 BKN120 13/12 A2991 RMK AO2 SLP132 T01330122=
201607071153 METAR KBLI 071153Z AUTO 03003KT 10SM BKN090 13/12 A2991 RMK AO2 SLP133 T01280117 10150 20128 57009=
201607071053 METAR KBLI 071053Z AUTO 00000KT 10SM FEW085 14/12 A2991 RMK AO2 SLP136 T01440122=
201607070953 METAR KBLI 070953Z AUTO 00000KT 10SM SCT075 13/12 A2993 RMK AO2 SLP139 T01330117=
201607070853 METAR KBLI 070853Z AUTO 10SM CLR 13/12 A2993 RMK AO2 SLP142 T01330117 58011=
201607070753 METAR KBLI 070753Z AUTO 00000KT 10SM CLR 14/11 A2995 RMK AO2 SLP147 T01390111 402220089=
201607070653 METAR KBLI 070653Z AUTO 00000KT 10SM CLR 15/12 A2996 RMK AO2 SLP150 T01500117=
201607070553 METAR KBLI 070553Z AUTO 00000KT 10SM CLR 14/11 A2997 RMK AO2 SLP153 T01440111 10222 20139 56008=
201607070453 METAR KBLI 070453Z 00000KT 10SM CLR 16/11 A2997 RMK AO2 SLP156 T01560111=
201607070353 METAR KBLI 070353Z 00000KT 10SM CLR 17/12 A2998 RMK AO2 SLP158 T01670117=
201607070253 METAR KBLI 070253Z 00000KT 10SM CLR 20/10 A2999 RMK AO2 SLP161 T02000100 55010=
201607070153 METAR KBLI 070153Z VRB03KT 10SM CLR 21/10 A2999 RMK AO2 SLP161 T02110100=
201607070053 METAR KBLI 070053Z VRB03KT 10SM CLR 22/11 A3000 RMK AO2 SLP164 T02220106=
201607062353 METAR KBLI 062353Z 18005KT 10SM CLR 22/11 A3002 RMK AO2 SLP171 T02170106 10222 20172 56012=
201607062253 METAR KBLI 062253Z AUTO 19006KT 10SM CLR 22/12 A3003 RMK AO2 SLP176 T02170122=
201607062153 METAR KBLI 062153Z VRB03KT 10SM CLR 21/11 A3003 RMK AO2 SLP176 T02110106=
201607062053 METAR KBLI 062053Z 17008KT 10SM CLR 21/12 A3005 RMK AO2 SLP183 T02060117 58004=
201607061953 METAR KBLI 061953Z 18007KT 10SM CLR 19/12 A3006 RMK AO2 SLP184 T01940117=
201607061853 METAR KBLI 061853Z VRB03KT 10SM CLR 19/12 A3006 RMK AO2 SLP186 T01890117=
201607061753 METAR KBLI 061753Z VRB06KT 10SM CLR 17/12 A3006 RMK AO2 SLP186 T01720117 10172 20094 57004=
201607061653 METAR KBLI 061653Z VRB04KT 10SM CLR 16/12 A3007 RMK AO2 SLP189 T01610117=
201607061553 METAR KBLI 061553Z 00000KT 10SM CLR 16/11 A3007 RMK AO2 SLP189 T01560111=
201607061453 METAR KBLI 061453Z 00000KT 10SM CLR 14/12 A3008 RMK AO2 SLP191 T01440117 53005=
201607061353 METAR KBLI 061353Z 00000KT 10SM CLR 12/11 A3007 RMK AO2 SLP190 T01170106=
201607061306 SPECI KBLI 061306Z AUTO 00000KT 3SM BR CLR 09/09 A3006 RMK AO2 T00940089 $=
201607061257 SPECI KBLI 061257Z AUTO 00000KT 1 3/4SM R16/3000VP6000FT BR CLR 09/09 A3006 RMK AO2 T00940094 $=
201607061253 METAR KBLI 061253Z AUTO 00000KT 10SM CLR 10/09 A3006 RMK AO2 SLP188 T01000094 $=
201607061153 METAR KBLI 061153Z AUTO 18004KT 10SM CLR 11/10 A3006 RMK AO2 SLP186 7//// T01110100 10133 20089 56001 $=
201607061053 METAR KBLI 061053Z AUTO 17005KT 10SM CLR 12/11 A3006 RMK AO2 SLP187 T01220111 $=
201607060953 METAR KBLI 060953Z AUTO 00000KT 9SM CLR 09/08 A3006 RMK AO2 SLP187 T00940083 $=
201607060853 METAR KBLI 060853Z AUTO 00000KT 10SM CLR 10/09 A3006 RMK AO2 SLP188 T01000089 50002 $=
201607060753 METAR KBLI 060753Z AUTO 00000KT 10SM SCT080 10/09 A3007 RMK AO2 SLP190 T01000094 401720100 $=
201607060653 METAR KBLI 060653Z AUTO 00000KT 10SM BKN055 12/11 A3007 RMK AO2 SLP189 T01170106 $=
201607060553 METAR KBLI 060553Z AUTO 16003KT 10SM BKN060 13/11 A3006 RMK AO2 SLP186 T01330106 10172 20128 56003 $=
201607060453 METAR KBLI 060453Z 14003KT 10SM CLR 13/11 A3006 RMK AO2 SLP187 T01330111 $=
201607060353 METAR KBLI 060353Z 17007KT 10SM OVC085 15/12 A3006 RMK AO2 SLP187 T01500117 $=
201607060253 METAR KBLI 060253Z 17006KT 10SM OVC085 15/12 A3007 RMK AO2 SLP189 T01500117 56008 $=
201607060153 METAR KBLI 060153Z 17010KT 10SM SCT080 16/11 A3007 RMK AO2 SLP189 T01610111 $=
201607060053 METAR KBLI 060053Z 15009KT 10SM BKN065 OVC080 17/13 A3008 RMK AO2 SLP190 T01720128 $=
201607052353 METAR KBLI 052353Z 16007KT 10SM OVC060 14/12 A3009 RMK AO2 RAB14E47 SLP197 P0001 6//// T01440122 10150 20139 56007 $=
201607052253 METAR KBLI 052253Z 16009KT 10SM FEW015 OVC055 15/12 A3010 RMK AO2 RAB09E32 SLP197 P0000 T01500117 $=
201607052153 METAR KBLI 052153Z 15010KT 10SM OVC065 15/12 A3010 RMK AO2 RAEMMB2057E47 SLP197 T01500122 $=
201607052056 SPECI KBLI 052056Z 10SM FEW014 BKN050 14/12 A3011 RMK AO2 RAEMM T01440117 $=
201607052053 METAR KBLI 052053Z 10SM -RA 14/12 A3011 RMK AO2 SLP203 P0002 60002 T01440117 53006 $=
201607051953 METAR KBLI 051953Z 16008G19KT 10SM -RA FEW055 OVC080 14/11 A3010 RMK AO2 RAB45 SLP199 P0000 T01440111=
201607051853 METAR KBLI 051853Z 16010G18KT 10SM FEW048 OVC060 14/11 A3010 RMK AO2 SLP199 T01440106=
201607051753 METAR KBLI 051753Z 16016KT 10SM FEW014 OVC039 14/10 A3010 RMK AO2 RAB23E32 SLP197 P0000 60001 T01390100 10139 20122 51002=
201607051653 METAR KBLI 051653Z 17012G18KT 10SM OVC035 13/11 A3009 RMK AO2 RAB15E30 SLP196 P0000 T01330111=
201607051553 METAR KBLI 051553Z 16011G17KT 10SM OVC036 13/11 A3009 RMK AO2 SLP196 T01280106=
201607051453 METAR KBLI 051453Z 17009KT 10SM OVC050 12/11 A3009 RMK AO2 SLP194 60001 T01220106 52006=
201607051353 METAR KBLI 051353Z 16008KT 10SM OVC046 13/11 A3008 RMK AO2 RAE20 SLP193 P0000 T01280106=
201607051300 SPECI KBLI 051300Z AUTO 17010G19KT 9SM -RA FEW029 SCT035 OVC042 12/11 A3008 RMK AO2 P0000 T01220106=
201607051253 METAR KBLI 051253Z AUTO 17012G18KT 7SM -RA BKN029 OVC042 13/11 A3008 RMK AO2 RAB28 SLP190 P0001 T01280106=
201607051231 SPECI KBLI 051231Z AUTO 18007KT 10SM -RA BKN029 BKN035 OVC047 13/11 A3008 RMK AO2 RAB28 P0000 T01280106=
201607051153 METAR KBLI 051153Z AUTO 14009KT 10SM BKN034 OVC045 13/11 A3007 RMK AO2 RAE40 SLP188 P0001 60001 70001 T01280106 10150 20128 58007=
201607051053 METAR KBLI 051053Z AUTO 17007KT 150V210 10SM -RA OVC031 14/10 A3008 RMK AO2 RAE00B52 SLP192 P0000 T01390100=
201607050953 METAR KBLI 050953Z AUTO 16007KT 10SM -RA FEW033 OVC041 14/10 A3008 RMK AO2 RAB38 SLP192 P0000 T01390100=
201607050853 METAR KBLI 050853Z AUTO 16004KT 10SM FEW048 OVC090 14/10 A3009 RMK AO2 SLP195 T01390100 58002=
201607050753 METAR KBLI 050753Z AUTO 10SM BKN050 OVC075 14/10 A3010 RMK AO2 SLP197 T01390100 401890128=
201607050653 METAR KBLI 050653Z AUTO 15010KT 10SM SCT070 OVC090 14/09 A3010 RMK AO2 SLP198 T01440094=
201607050553 METAR KBLI 050553Z AUTO 16007KT 10SM OVC085 15/09 A3010 RMK AO2 SLP198 T01500094 10189 20150 53003=
201607050453 METAR KBLI 050453Z 15009KT 10SM FEW048 OVC090 16/09 A3009 RMK AO2 SLP196 T01560094=
201607050353 METAR KBLI 050353Z 16008G15KT 10SM CLR 16/09 A3008 RMK AO2 SLP193 T01560094=
201607050253 METAR KBLI 050253Z 17011G18KT 10SM CLR 17/09 A3009 RMK AO2 SLP194 T01720089 56004=
201607050153 METAR KBLI 050153Z 16011G18KT 10SM CLR 18/09 A3009 RMK AO2 SLP194 T01780089=
201607050053 METAR KBLI 050053Z 17015G23KT 10SM FEW090 18/10 A3009 RMK AO2 SLP196 T01780100=
201607042353 METAR KBLI 042353Z 16014G20KT 10SM FEW065 18/11 A3010 RMK AO2 SLP199 T01830106 10189 20144 58006=
201607042253 METAR KBLI 042253Z 16012G21KT 10SM SCT060 18/11 A3011 RMK AO2 SLP203 T01830106=
201607042153 METAR KBLI 042153Z 17011G20KT 10SM SCT049 OVC090 17/11 A3012 RMK AO2 SLP204 T01670111=
201607042053 METAR KBLI 042053Z 15014G18KT 10SM OVC048 17/11 A3012 RMK AO2 SLP204 T01670111 57001=
201607041953 METAR KBLI 041953Z 16013G20KT 10SM FEW026 17/12 A3012 RMK AO2 SLP205 T01670117=
201607041853 METAR KBLI 041853Z 16014G20KT 10SM FEW016 BKN042 OVC050 16/11 A3012 RMK AO2 SLP205 T01560111=
201607041753 METAR KBLI 041753Z 17011KT 10SM OVC046 14/11 A3012 RMK AO2 SLP206 60000 T01440111 10144 20128 51006=
201607041653 METAR KBLI 041653Z 17012G18KT 10SM FEW008 OVC048 13/11 A3012 RMK AO2 RAB1558E43 SLP206 P0000 T01330111=
201607041553 METAR KBLI 041553Z 17012G18KT 10SM FEW010 SCT035 BKN060 14/11 A3011 RMK AO2 SLP201 T01390111=
201607041453 METAR KBLI 041453Z 15008KT 10SM FEW010 OVC060 14/11 A3010 RMK AO2 SLP200 T01390111 53004=
201607041353 METAR KBLI 041353Z 16004KT 10SM FEW035 BKN095 13/11 A3010 RMK AO2 SLP197 T01330111=
201607041253 METAR KBLI 041253Z AUTO 17004KT 10SM FEW049 BKN070 13/11 A3009 RMK AO2 SLP196 T01280111=
201607041153 METAR KBLI 041153Z AUTO 16006KT 10SM FEW032 FEW039 OVC055 13/11 A3009 RMK AO2 SLP195 60017 70019 T01330111 10156 20133 56003=
201607041113 SPECI KBLI 041113Z AUTO 16006KT 10SM FEW029 BKN035 OVC050 13/11 A3009 RMK AO2 T01330111=
201607041053 METAR KBLI 041053Z AUTO 17006KT 10SM BKN029 BKN041 OVC048 13/11 A3009 RMK AO2 SLP196 P0001 T01330111=
201607041050 SPECI KBLI 041050Z AUTO 16008KT 10SM FEW012 BKN029 OVC046 13/11 A3009 RMK AO2 P0001=
201607040953 METAR KBLI 040953Z AUTO 16008KT 10SM OVC047 13/12 A3010 RMK AO2 RAE31 SLP198 P0001 T01330117=
201607040853 METAR KBLI 040853Z AUTO 16009KT 5SM RA BR BKN044 BKN065 OVC080 13/12 A3010 RMK AO2 RAB06 SLP198 P0015 60015 T01330117 51002=
201607040753 METAR KBLI 040753Z AUTO 18007G16KT 10SM OVC048 14/11 A3010 RMK AO2 SLP197 T01440106 402060139=
201607040653 METAR KBLI 040653Z AUTO 16007KT 10SM OVC095 15/09 A3010 RMK AO2 SLP199 T01500094=
201607040553 METAR KBLI 040553Z AUTO 16008KT 10SM OVC100 16/08 A3009 RMK AO2 SLP196 T01560083 10194 20156 54000=
201607040453 METAR KBLI 040453Z 16008KT 10SM OVC100 16/08 A3009 RMK AO2 SLP197 T01610083=
201607040353 METAR KBLI 040353Z 17006KT 10SM CLR 16/09 A3009 RMK AO2 SLP196 T01610094=
201607040253 METAR KBLI 040253Z 16011KT 10SM CLR 17/08 A3009 RMK AO2 SLP196 T01720078 58005=
201607040153 METAR KBLI 040153Z 17012KT 10SM CLR 18/08 A3010 RMK AO2 SLP198 T01780078=
201607040053 METAR KBLI 040053Z 17012G20KT 10SM CLR 18/08 A3010 RMK AO2 SLP200 T01830083=
201607032353 METAR KBLI 032353Z 17012G21KT 10SM CLR 19/08 A3011 RMK AO2 SLP201 T01940083 10206 20161 56007=
201607032253 METAR KBLI 032253Z 15010G18KT 10SM CLR 20/08 A3012 RMK AO2 SLP204 T02000083=
201607032153 METAR KBLI 032153Z 17012G18KT 10SM CLR 19/09 A3012 RMK AO2 SLP205 T01940094=
201607032053 METAR KBLI 032053Z 17008G17KT 10SM CLR 19/11 A3013 RMK AO2 SLP209 T01940106 50003=
201607031953 METAR KBLI 031953Z 18009KT 10SM SCT050 18/11 A3013 RMK AO2 SLP209 T01780111=
201607031853 METAR KBLI 031853Z 17006KT 10SM BKN050 BKN065 17/12 A3013 RMK AO2 SLP208 T01670117=
201607031753 METAR KBLI 031753Z 16008KT 10SM FEW027 BKN047 BKN065 16/12 A3012 RMK AO2 SLP206 60002 T01610117 10161 20139 51014=
201607031653 METAR KBLI 031653Z 17006KT 10SM BKN041 16/12 A3011 RMK AO2 SLP203 T01560122=
201607031553 METAR KBLI 031553Z 17005KT 10SM FEW020 BKN048 16/12 A3010 RMK AO2 RAE09 SLP198 P0001 T01560122=
201607031544 SPECI KBLI 031544Z 17006KT 10SM SCT022 OVC046 15/12 A3009 RMK AO2 RAE09 P0001 T01500122=
201607031453 METAR KBLI 031453Z 17007KT 4SM RA BR BKN028 BKN035 OVC043 14/12 A3008 RMK AO2 RAB43 SLP192 P0001 60001 T01390117 53013=
201607031353 METAR KBLI 031353Z 17011G16KT 10SM SCT008 BKN037 BKN080 14/12 A3006 RMK AO2 SLP186 T01390117=
201607031312 SPECI KBLI 031312Z AUTO 16010G16KT 10SM FEW008 BKN036 OVC075 14/12 A3005 RMK AO2 T01440117=
201607031253 METAR KBLI 031253Z AUTO 16010KT 10SM FEW036 BKN075 14/12 A3005 RMK AO2 SLP182 T01440117=
201607031153 METAR KBLI 031153Z AUTO 16009KT 10SM OVC065 14/12 A3004 RMK AO2 RAB08E21 SLP179 P0000 60000 T01440117 10161 20144 53012=
201607031053 METAR KBLI 031053Z AUTO 17009G16KT 10SM OVC070 15/12 A3003 RMK AO2 SLP175 T01500117=
201607030953 METAR KBLI 030953Z AUTO 17012G18KT 10SM SCT075 OVC100 14/11 A3002 RMK AO2 SLP170 T01440111=
201607030853 METAR KBLI 030853Z AUTO 17010KT 10SM OVC070 15/11 A3001 RMK AO2 SLP167 T01500111 53006=
201607030753 METAR KBLI 030753Z AUTO 17011G17KT 10SM OVC075 16/11 A3000 RMK AO2 SLP164 T01560111 402110139=
201607030653 METAR KBLI 030653Z AUTO 17011G17KT 10SM FEW070 FEW095 16/11 A2999 RMK AO2 SLP160 T01560106=
201607030553 METAR KBLI 030553Z AUTO 18010G18KT 10SM BKN070 16/11 A2999 RMK AO2 SLP160 T01610106 10200 20161 50002=
201607030453 METAR KBLI 030453Z 17011G17KT 10SM OVC070 17/12 A2999 RMK AO2 SLP161 T01720117=
201607030353 METAR KBLI 030353Z 16011KT 10SM SCT080 BKN120 18/12 A2998 RMK AO2 SLP159 T01780122=
201607030253 METAR KBLI 030253Z 16007G16KT 120V190 10SM SCT110 18/12 A2998 RMK AO2 SLP158 T01830122 55007=
201607030153 METAR KBLI 030153Z 16014G21KT 10SM BKN100 18/13 A2997 RMK AO2 SLP155 T01830128=
201607030053 METAR KBLI 030053Z 16011G17KT 10SM SCT100 19/13 A2999 RMK AO2 SLP161 T01940128=
201607022353 METAR KBLI 022353Z 17010G18KT 10SM CLR 19/13 A3000 RMK AO2 SLP165 T01940133 10211 20183 58003=
201607022253 METAR KBLI 022253Z 16011KT 10SM CLR 21/13 A3001 RMK AO2 SLP168 T02060133=
201607022153 METAR KBLI 022153Z 18012G18KT 10SM CLR 20/13 A3001 RMK AO2 SLP168 T02000128=
201607022053 METAR KBLI 022053Z 18011G17KT 10SM CLR 21/13 A3001 RMK AO2 SLP168 T02060128 58005=
201607021953 METAR KBLI 021953Z 18010G17KT 10SM CLR 21/13 A3002 RMK AO2 SLP171 T02060128=
201607021853 METAR KBLI 021853Z 16013G17KT 10SM CLR 19/13 A3002 RMK AO2 SLP171 T01940133=
201607021753 METAR KBLI 021753Z 16010KT 10SM CLR 19/14 A3002 RMK AO2 SLP173 T01890139 10189 20150 58001=
201607021653 METAR KBLI 021653Z VRB05KT 10SM BKN041 OVC048 17/14 A3003 RMK AO2 SLP174 T01720139=
201607021553 METAR KBLI 021553Z 17006KT 10SM OVC039 16/14 A3004 RMK AO2 SLP177 T01610139=
201607021453 METAR KBLI 021453Z 17004KT 10SM FEW039 16/14 A3003 RMK AO2 SLP174 T01560139 50002=
201607021353 METAR KBLI 021353Z 18006KT 10SM BKN041 OVC050 15/13 A3003 RMK AO2 SLP175 T01500133=
201607021253 METAR KBLI 021253Z AUTO 18005KT 10SM BKN050 15/13 A3002 RMK AO2 SLP173 T01500133=
201607021153 METAR KBLI 021153Z AUTO 18004KT 10SM SCT048 15/13 A3002 RMK AO2 SLP172 T01500133 10156 20139 56002=
201607021053 METAR KBLI 021053Z AUTO 18004KT 10SM OVC048 16/14 A3002 RMK AO2 SLP172 T01560139=
201607020953 METAR KBLI 020953Z AUTO 00000KT 10SM OVC048 15/13 A3002 RMK AO2 SLP173 T01500133=
201607020853 METAR KBLI 020853Z AUTO 00000KT 10SM FEW055 15/13 A3003 RMK AO2 SLP174 T01500133 57008=
201607020753 METAR KBLI 020753Z AUTO 00000KT 10SM CLR 15/13 A3004 RMK AO2 SLP177 T01500133 402060133=
201607020653 METAR KBLI 020653Z AUTO 18004KT 10SM CLR 15/13 A3004 RMK AO2 SLP180 T01500133=
201607020553 METAR KBLI 020553Z AUTO 19003KT 10SM CLR 16/13 A3005 RMK AO2 SLP182 T01560128 10206 20156 56007=
201607020453 METAR KBLI 020453Z 17004KT 10SM BKN050 17/13 A3006 RMK AO2 SLP186 T01720133=
201607020353 METAR KBLI 020353Z 00000KT 10SM OVC050 18/13 A3006 RMK AO2 SLP185 T01830133=
201607020253 METAR KBLI 020253Z 00000KT 10SM OVC055 19/13 A3007 RMK AO2 SLP189 T01940128 56010=
201607020153 METAR KBLI 020153Z 00000KT 10SM FEW044 BKN060 20/12 A3008 RMK AO2 SLP193 T02000122=
201607020053 METAR KBLI 020053Z AUTO VRB03KT 10SM BKN036 OVC065 19/11 A3009 RMK AO2 SLP195 T01940111=
201607012353 METAR KBLI 012353Z AUTO 18004KT 10SM OVC043 19/11 A3010 RMK AO2 SLP199 T01890111 10194 20156 58008=
201607012253 METAR KBLI 012253Z AUTO 19004KT 10SM SCT050 OVC070 18/12 A3011 RMK AO2 SLP202 T01830117=
201607012153 METAR KBLI 012153Z 16004KT 10SM OVC038 17/11 A3012 RMK AO2 SLP205 T01720111=
201607012053 METAR KBLI 012053Z 17007KT 10SM OVC044 16/12 A3013 RMK AO2 SLP207 T01610117 51002=
201607011953 METAR KBLI 011953Z 15010G17KT 10SM OVC050 17/12 A3012 RMK AO2 SLP206 T01670117=
201607011853 METAR KBLI 011853Z 18009KT 10SM OVC060 16/12 A3013 RMK AO2 SLP209 T01610117=
201607011753 METAR KBLI 011753Z 19007KT 10SM OVC065 16/11 A3012 RMK AO2 RAE1656 SLP205 P0000 60000 T01560106 10156 20133 53005=
201607011653 METAR KBLI 011653Z 17010G15KT 10SM -RA BKN075 OVC100 16/11 A3012 RMK AO2 RAB47 SLP205 P0000 T01560111=
201607011553 METAR KBLI 011553Z 17009KT 10SM CLR 16/11 A3011 RMK AO2 SLP201 T01560106=
201607011453 METAR KBLI 011453Z 17009KT 140V200 10SM CLR 15/11 A3011 RMK AO2 SLP201 T01500106 53005=
201607011353 METAR KBLI 011353Z 16008KT 10SM CLR 14/10 A3010 RMK AO2 SLP198 T01440100=
201607011253 METAR KBLI 011253Z AUTO 16007KT 10SM CLR 14/10 A3009 RMK AO2 SLP195 T01390100=
201607011153 METAR KBLI 011153Z AUTO 15004KT 10SM CLR 13/09 A3009 RMK AO2 SLP196 T01330094 10161 20133 50000=
201607011053 METAR KBLI 011053Z AUTO 17006KT 10SM CLR 14/09 A3009 RMK AO2 SLP196 T01390094=
201607010953 METAR KBLI 010953Z AUTO 16008G18KT 10SM CLR 15/09 A3009 RMK AO2 SLP196 T01500089=
201607010853 METAR KBLI 010853Z AUTO 14011KT 10SM CLR 15/09 A3009 RMK AO2 SLP196 T01500089 58007=
201607010753 METAR KBLI 010753Z AUTO 16012G18KT 10SM CLR 16/09 A3010 RMK AO2 SLP200 T01560094 401890128=
201607010653 METAR KBLI 010653Z AUTO 15017G23KT 10SM CLR 16/09 A3010 RMK AO2 SLP200 T01560094=
201607010553 METAR KBLI 010553Z AUTO 16013G18KT 10SM CLR 16/10 A3011 RMK AO2 SLP203 T01610100 10189 20161 56001=
201607010453 METAR KBLI 010453Z 15007KT 10SM CLR 17/11 A3012 RMK AO2 SLP204 T01670106=
201607010353 METAR KBLI 010353Z 17011KT 10SM CLR 17/12 A3011 RMK AO2 SLP202 T01670117=
201607010253 METAR KBLI 010253Z 17010G16KT 10SM CLR 18/12 A3012 RMK AO2 SLP204 T01780117 56013=
201607010153 METAR KBLI 010153Z 17010KT 10SM CLR 18/12 A3013 RMK AO2 SLP207 T01830117=
201607010053 METAR KBLI 010053Z 17010G17KT 10SM CLR 18/12 A3013 RMK AO2 SLP210 T01780122=

# No short TAF reports from KBLI in databse.

###################################
#  large TAF from KBLI
###################################
201607312320 TAF KBLI 312320Z 0100/0124 21006KT P6SM SKC FM010300 19004KT P6SM
                       FEW100 FM011600 18005KT P6SM SCT250=
201607311720 TAF KBLI 311720Z 3118/0118 16010KT P6SM BKN030 FM311900 18010KT
                       P6SM SCT100 FM010300 19004KT P6SM FEW100
                       FM011600 17005KT P6SM SCT250=
201607311120 TAF KBLI 311120Z 3112/0112 17007KT P6SM BKN080 FM311800 18010KT
                       P6SM SCT100 FM010300 19004KT P6SM FEW100=
201607310524 TAF KBLI 310524Z 3106/0106 00000KT P6SM FEW060 FM311200 17005KT
                       P6SM BKN100 FM311800 18010KT P6SM SCT100
                       SCT250 FM010300 19004KT P6SM FEW100=
201607302320 TAF KBLI 302320Z 3100/3124 19010KT P6SM SKC FM310500 18006KT P6SM
                       SCT250 FM311600 17012KT P6SM SCT100 SCT250=
201607301720 TAF KBLI 301720Z 3018/3118 19010KT P6SM SKC FM310500 18006KT P6SM
                       SCT250=
201607301120 TAF KBLI 301120Z 3012/3112 18007KT P6SM FEW060=
201607300520 TAF KBLI 300520Z 3006/3106 00000KT P6SM SKC FM301200 18005KT P6SM
                       SKC FM301800 18010KT P6SM SKC=
201607292320 TAF KBLI 292320Z 3000/3024 20006KT P6SM SKC FM300600 18008KT P6SM
                       SCT040 SCT200 FM301200 18008KT P6SM BKN015
                       FM301700 18013G22KT P6SM SCT020 SCT250 FM302000
                       18009KT P6SM SCT250=
201607291720 TAF KBLI 291720Z 2918/3018 16007KT P6SM FEW008 SCT016 FM291900
                       20006KT P6SM SKC FM300600 18008KT P6SM SCT040
                       SCT200 FM301100 18008KT P6SM BKN015 FM301600
                       18009KT P6SM SCT020 SCT250=
201607291120 TAF KBLI 291120Z 2912/3012 18005KT P6SM SKC FM291900 30006KT P6SM
                       SKC FM300600 23008KT P6SM SCT040 SCT200
                       FM301100 18008KT P6SM BKN015=
201607290520 TAF KBLI 290520Z 2906/3006 00000KT P6SM SKC FM291700 18007KT P6SM
                       SKC FM292100 22007KT P6SM SKC=
201607282320 TAF KBLI 282320Z 2900/2924 28005KT P6SM SKC FM290300 18005KT P6SM
                       SKC FM291700 18007KT P6SM SKC FM292100 22007KT
                       P6SM SKC=
201607281728 TAF KBLI 281728Z 2818/2918 00000KT P6SM SKC FM282000 23006KT P6SM
                       SKC FM290300 18005KT P6SM SKC=
201607281443 TAF AMD KBLI 281443Z 2815/2912 00000KT P6SM OVC007 FM281600 VRB03KT
                       P6SM SCT010 FM281700 21006KT P6SM SKC FM290300
                       18005KT P6SM SKC=
201607281120 TAF KBLI 281120Z 2812/2912 22005KT P6SM SKC=
201607280520 TAF KBLI 280520Z 2806/2906 19003KT P6SM SKC FM282000 20007KT P6SM
                       SKC=
201607272320 TAF KBLI 272320Z 2800/2824 19004KT P6SM SKC FM280400 18005KT P6SM
                       SKC FM282000 20007KT P6SM SKC=
201607271724 TAF KBLI 271724Z 2718/2818 00000KT P6SM SKC FM272200 24005KT P6SM
                       SKC FM280400 18005KT P6SM SKC=
201607271120 TAF KBLI 271120Z 2712/2812 VRB03KT P6SM SKC FM271800 23006KT P6SM
                       SKC=
201607270520 TAF KBLI 270520Z 2706/2806 18009KT P6SM SKC FM271000 16005KT P6SM
                       SKC FM271900 20008KT P6SM SKC=
201607262320 TAF KBLI 262320Z 2700/2724 18013KT P6SM SKC FM270300 18009KT P6SM
                       SKC FM271000 16005KT P6SM SKC FM271900 20008KT
                       P6SM SKC=
201607261726 TAF KBLI 261726Z 2618/2718 17014G19KT P6SM FEW020 SCT250 FM262100
                       18008KT P6SM SCT250 FM271000 18004KT P6SM
                       SCT250=
201607261120 TAF KBLI 261120Z 2612/2712 17010KT P6SM SCT010 SCT080 FM261700
                       18008KT P6SM FEW040=
201607260520 TAF KBLI 260520Z 2606/2706 17011KT P6SM SCT200 FM261100 17010KT
                       P6SM BKN015 BKN040 FM261800 18008KT P6SM
                       FEW040=
201607252327 TAF KBLI 252327Z 2600/2624 28005KT P6SM FEW250 FM260400 18010KT
                       P6SM SCT040 FM261100 17010KT P6SM BKN015
                       BKN040 FM261800 18008KT P6SM FEW040=
201607251723 TAF KBLI 251723Z 2518/2618 VRB06KT P6SM SCT220 FM252000 18008KT
                       P6SM SCT220 FM260600 17010KT P6SM SCT040
                       FM261100 17010KT P6SM BKN015 BKN040=
201607251120 TAF KBLI 251120Z 2512/2612 17005KT P6SM SCT200 FM251800 24007KT
                       P6SM SCT200 FM260600 17010KT P6SM SCT040
                       FM261100 17010KT P6SM SCT010 BKN040=
201607250528 TAF KBLI 250528Z 2506/2606 VRB03KT P6SM SCT200 FM251800 23007KT
                       P6SM SCT200=
201607242342 TAF KBLI 242342Z 2500/2524 VRB03KT P6SM SKC FM251800 18008KT P6SM
                       SCT250=
201607241736 TAF KBLI 241736Z 2418/2518 VRB03KT P6SM SKC FM242000 21007KT P6SM
                       SCT250 FM250200 VRB03KT P6SM SKC=
201607241120 TAF KBLI 241120Z 2412/2512 VRB03KT P6SM FEW007 FM241600 20007KT
                       P6SM SKC FM250800 17005KT P6SM BKN150=
201607240520 TAF KBLI 240520Z 2406/2506 16005KT P6SM SKC FM241200 VRB03KT P6SM
                       FEW009 FM241600 19007KT P6SM SKC=
201607232323 TAF KBLI 232323Z 2400/2424 19008KT P6SM FEW050 FM240300 VRB03KT
                       P6SM SKC FM241200 VRB03KT P6SM FEW009 FM241600
                       18005KT P6SM SKC FM242000 21007KT P6SM SKC=
201607231726 TAF KBLI 231726Z 2318/2418 17011KT P6SM FEW030 SCT050
                      TEMPO 2318/2320 FEW030 BKN050 FM232100 19008KT
                       P6SM FEW050 FM240300 VRB03KT P6SM SKC=
201607231505 TAF AMD KBLI 231505Z 2315/2412 17009KT P6SM FEW022 FEW050 FM231800
                       17011KT P6SM FEW050 FM232100 19009KT P6SM
                       SKC=
201607231120 TAF KBLI 231120Z 2312/2412 17006KT P6SM OVC040 FM231400 17009KT
                       P6SM SCT015 BKN035 FM231800 17011KT P6SM
                       SCT025 BKN040 FM232100 19009KT P6SM SKC=
201607230537 TAF KBLI 230537Z 2306/2406 17009KT P6SM SCT040 OVC050 FM231100
                       17009KT P6SM SCT018 BKN250 FM231400 17009KT
                       P6SM SCT012 BKN018 FM231800 17013KT P6SM
                       SCT025 BKN040 FM232100 19009KT P6SM SKC=
201607222338 TAF KBLI 222338Z 2300/2324 17015KT P6SM FEW035 BKN060 FM230300
                       17009KT P6SM FEW035 SCT060 FM231200 17009KT
                       P6SM SCT018 BKN250
                      TEMPO 2314/2318 BKN018 BKN250 FM231800 17013KT
                       P6SM SCT025 BKN250 FM232000 19009KT P6SM
                       BKN250=
201607221741 TAF KBLI 221741Z 2218/2318 17015KT P6SM SCT060 SCT120 BKN200 FM230300
                       17009KT P6SM SCT200 FM231200 17009KT P6SM
                       SCT018
                      TEMPO 2314/2318 BKN018=
201607221426 TAF AMD KBLI 221426Z 2214/2312 17013KT P6SM VCSH SCT040 OVC100
                       TEMPO 2214/2216 -RA BKN040 OVC100 FM221600
                       17013KT P6SM -RA FEW009 SCT018 OVC040
                      TEMPO 2216/2219 5SM -RA BR SCT009 OVC018
                       FM221900 17012KT P6SM SCT025 BKN040 FM222300
                       17013KT P6SM SCT035 BKN200 FM231000 17008KT
                       P6SM BKN025=
201607221129 TAF KBLI 221129Z 2212/2312 17008KT P6SM VCSH SCT070 BKN100 FM221400
                       18013KT P6SM VCSH SCT015 BKN020 OVC050 FM221900
                       17012KT P6SM SCT025 BKN040 FM222300 17013KT
                       P6SM SCT035 BKN200 FM231000 17008KT P6SM
                       BKN025=
201607220535 TAF KBLI 220535Z 2206/2306 17008KT P6SM VCSH SCT070 BKN100 FM221300
                       18013KT P6SM VCSH SCT015 BKN020 OVC050 FM221900
                       17012KT P6SM SCT025 BKN040 FM222300 17013KT
                       P6SM SCT035 BKN200=
201607212334 TAF KBLI 212334Z 2200/2224 29008KT P6SM FEW070 SCT100 FM220200
                       19009KT P6SM SCT070 BKN100 FM220600 18010KT
                       P6SM VCSH SCT025 BKN050 OVC080 FM221300
                       17010KT P6SM OVC025 FM221800 17010KT P6SM
                       BKN040=
201607211742 TAF KBLI 211742Z 2118/2218 36007KT P6SM FEW200 FM212200 29006KT
                       P6SM FEW150 SCT200 FM220300 19009KT P6SM
                       VCSH SCT070 BKN100 FM220900 17012KT P6SM
                       VCSH SCT025 BKN050 OVC080 FM221300 17012KT
                       P6SM OVC025=
201607211127 TAF KBLI 211127Z 2112/2212 27005KT P6SM SCT200 FM220200 19009KT
                       P6SM VCSH SCT080 BKN120 FM221000 17011KT
                       P6SM VCSH SCT018 BKN050 OVC080=
201607210539 TAF KBLI 210539Z 2106/2206 VRB04KT P6SM SCT200 FM220200 19009KT
                       P6SM VCSH SCT080 BKN120=
201607202338 TAF KBLI 202338Z 2100/2124 18006KT P6SM SCT100 SCT200 FM210400
                       VRB04KT P6SM FEW100 SCT200 FM212000 18006KT
                       P6SM FEW080 SCT150=
201607201747 TAF KBLI 201747Z 2018/2118 17009KT P6SM SCT050 SCT080
                      TEMPO 2018/2019 BKN050 FM201900 18009KT P6SM
                       SCT080 SCT200 FM210400 VRB04KT P6SM FEW080
                       SCT200=
201607201122 TAF KBLI 201122Z 2012/2112 18006KT P6SM OVC080 FM201900 18007KT
                       P6SM SCT060 FM210100 00000KT P6SM FEW100=
201607200521 TAF KBLI 200521Z 2006/2106 00000KT P6SM BKN080 FM201200 17007KT
                       P6SM SCT025 BKN060 FM201900 18007KT P6SM
                       SCT060=
201607192320 TAF KBLI 192320Z 2000/2024 18007KT P6SM FEW060 FM201200 17007KT
                       P6SM SCT025 BKN060 FM201900 18007KT P6SM
                       SCT060=
201607191746 TAF KBLI 191746Z 1918/2018 17007KT P6SM FEW025 SCT050 FM201200
                       17007KT P6SM SCT025 BKN050=
201607191503 TAF AMD KBLI 191503Z 1915/2012 17010KT P6SM SCT026 BKN050 FM192000
                       17007KT P6SM SCT040 BKN070=
201607191120 TAF KBLI 191120Z 1912/2012 16006KT P6SM OVC030 FM192000 17007KT
                       P6SM SCT040 BKN070=
201607190520 TAF KBLI 190520Z 1906/2006 16007KT P6SM SCT030 OVC070
                      TEMPO 1906/1909 BKN030 OVC050 FM191000 17007KT
                       P6SM OVC050 FM192000 17007KT P6SM SCT050
                       BKN100=
201607190446 TAF AMD KBLI 190446Z 1905/1924 15011KT P6SM BKN029 OVC070
                      TEMPO 1905/1909 SCT029 OVC050 FM191000 17007KT
                       P6SM BKN050=
201607182323 TAF KBLI 182323Z 1900/1924 18010G17KT P6SM SCT050 SCT100 FM190200
                       16010KT P6SM VCSH BKN035 OVC050 FM190500
                       17007KT P6SM SCT050 BKN080 FM191000 17007KT
                       P6SM BKN050=
201607182244 TAF AMD KBLI 182244Z 1823/1918 16011G20KT P6SM SCT035 OVC070 FM190200
                       16010KT P6SM -SHRA BKN035 OVC050 FM190500
                       17007KT P6SM SCT050 BKN080 FM191000 17007KT
                       P6SM BKN050=
201607181729 TAF KBLI 181729Z 1818/1918 16005KT P6SM SCT050 FM181900 18008KT
                       P6SM SCT050 SCT100 SCT250 FM182200 17010KT
                       P6SM VCSH BKN050 OVC100 FM190500 17007KT
                       P6SM SCT050 BKN080 FM191000 17007KT P6SM
                       BKN050=
201607181123 TAF KBLI 181123Z 1812/1912 18005KT P6SM SCT050 SCT100 FM181900
                       18008KT P6SM SCT050 BKN100 FM182200 17010KT
                       P6SM VCSH BKN050 OVC100 FM190400 17007KT
                       P6SM VCSH BKN050 BKN080 FM191000 16006KT
                       P6SM BKN050=
201607180538 TAF KBLI 180538Z 1806/1906 VRB03KT P6SM SCT050 FM182100 18008KT
                       P6SM SCT050 BKN120=
201607172320 TAF KBLI 172320Z 1800/1824 23005KT P6SM SCT060 BKN120 FM180600
                       21006KT P6SM SCT060 FM181800 18008KT P6SM
                       SCT050 BKN120=
201607171722 TAF KBLI 171722Z 1718/1818 VRB04KT P6SM FEW050 SCT120 FM172200
                       21006KT P6SM SCT060 BKN100 FM180600 21006KT
                       P6SM SCT060=
201607171125 TAF KBLI 171125Z 1712/1812 VRB03KT P6SM SCT050 FM171400 VRB03KT
                       P6SM BKN060 FM172200 21006KT P6SM SCT060
                       BKN100 FM180600 21006KT P6SM SCT060=
201607170542 TAF KBLI 170542Z 1706/1806 VRB03KT P6SM SCT050 FM172200 21006KT
                       P6SM FEW050 SCT100=
201607162329 TAF KBLI 162329Z 1700/1724 19005KT P6SM FEW040 SCT100 FM170400
                       00000KT P6SM FEW050 BKN100 FM171900 21006KT
                       P6SM FEW050 SCT100=
201607161721 TAF KBLI 161721Z 1618/1718 16010KT P6SM BKN020 OVC050 FM162000
                       17010KT P6SM BKN050 BKN100 FM170100 17008KT
                       P6SM BKN100=
201607161138 TAF KBLI 161138Z 1612/1712 17008KT P6SM OVC050 FM170100 17008KT
                       P6SM BKN060=
201607160533 TAF KBLI 160533Z 1606/1706 17006KT P6SM BKN060 BKN100 FM161500
                       17006KT P6SM SCT060 BKN100=
201607152320 TAF KBLI 152320Z 1600/1624 17006KT P6SM FEW050 FM161000 16005KT
                       P6SM BKN050 BKN100=
201607151720 TAF KBLI 151720Z 1518/1618 16008KT P6SM BKN015 OVC050 FM152000
                       17008KT P6SM SCT050 SCT100 FM160300 17005KT
                       P6SM SCT050 BKN100 FM161000 16005KT P6SM
                       BKN050 BKN100=
201607151503 TAF AMD KBLI 151503Z 1515/1612 17006KT P6SM BKN012 OVC045 FM151900
                       19006KT P6SM SCT050 BKN250 FM160300 VRB03KT
                       P6SM SCT050 BKN250=
201607151120 TAF KBLI 151120Z 1512/1612 17005KT P6SM OVC040 FM152100 20005KT
                       P6SM SCT100 SCT250 FM160300 VRB03KT P6SM
                       SCT050 BKN250=
201607150520 TAF KBLI 150520Z 1506/1606 VRB03KT P6SM SCT250 FM151200 17005KT
                       P6SM SCT050 BKN100 FM152100 20006KT P6SM
                       SCT100 SCT250=
201607142354 TAF AMD KBLI 142354Z 1500/1524 18008KT P6SM FEW060 BKN120
                      TEMPO 1501/1503 29007KT -SHRA SCT040 BKN080
                       FM150300 17005KT P6SM SCT050 BKN100=
201607142335 TAF KBLI 142335Z 1500/1524 18008KT P6SM FEW060 BKN120 FM150300
                       17005KT P6SM SCT050 BKN100=
201607141720 TAF KBLI 141720Z 1418/1518 19005KT P6SM SCT020 BKN060
                      TEMPO 1418/1419 BKN020 OVC060 FM142000 18008KT
                       P6SM FEW060 BKN120 FM150300 17004KT P6SM
                       SCT050 BKN100=
201607141120 TAF KBLI 141120Z 1412/1512 18004KT P6SM SCT250 FM141800 17010KT
                       P6SM SCT035 BKN250 FM150100 18004KT P6SM
                       SCT250=
201607140520 TAF KBLI 140520Z 1406/1506 18003KT P6SM SKC FM140900 17004KT P6SM
                       SKC FM141800 17007KT P6SM SCT035 BKN250
                       FM150100 18004KT P6SM SCT250=
201607132335 TAF KBLI 132335Z 1400/1424 18006KT P6SM SCT250 FM140900 17004KT
                       P6SM SKC FM141800 17007KT P6SM SCT035 BKN250=
201607132100 TAF AMD KBLI 132100Z 1321/1418 19007KT P6SM SCT080 BKN250 FM140300
                       18006KT P6SM SCT250 FM140900 17004KT P6SM
                       SKC=
201607131248 TAF AMD KBLI 131248Z 1313/1412 17004KT P6SM OVC070 FM131800 17007KT
                       P6SM BKN070 FM132100 20006KT P6SM SCT080
                       SCT250 FM140200 VRB03KT P6SM SCT250=
201607131120 TAF KBLI 131120Z 1312/1412 VRB03KT P6SM OVC060 FM131300 17007KT
                       P6SM OVC040 FM131800 17007KT P6SM SCT050
                       BKN080 FM132100 20006KT P6SM SCT080 SCT250
                       FM140200 VRB03KT P6SM SCT250=
201607130520 TAF KBLI 130520Z 1306/1406 16006KT P6SM OVC080 FM131300 17005KT
                       P6SM OVC035 FM131800 17007KT P6SM SCT040
                       BKN070 FM132100 20006KT P6SM SCT070 SCT250=
201607122335 TAF KBLI 122335Z 1300/1324 20005KT P6SM VCSH SCT040 SCT080
                      TEMPO 1300/1304 -SHRA BKN040 BKN070 FM130600
                       17005KT P6SM BKN040 FM131300 17005KT P6SM
                       OVC035 FM131800 17007KT P6SM SCT040 BKN070=
201607122100 TAF AMD KBLI 122100Z 1221/1318 18009KT P6SM VCSH SCT040 BKN070
                       TEMPO 1222/1302 -SHRA BKN040 BKN070 FM130600
                       17005KT P6SM BKN040 FM131300 17005KT P6SM
                       OVC035=
201607121725 TAF KBLI 121725Z 1218/1318 VRB03KT P6SM BKN040 OVC060 FM121900
                       18006KT P6SM VCSH BKN040 OVC060
                      TEMPO 1219/1223 -RA OVC040 FM122300 18005KT
                       P6SM SCT040 BKN100 FM130600 17005KT P6SM
                       BKN040 FM131300 17005KT P6SM OVC035=
201607121120 TAF KBLI 121120Z 1212/1312 VRB03KT P6SM BKN050 OVC090 FM121800
                       18006KT P6SM VCSH BKN040
                      TEMPO 1219/1223 -RA OVC040 FM122300 18005KT
                       P6SM SCT040 BKN100 FM130600 17005KT P6SM
                       BKN040=
201607120524 TAF KBLI 120524Z 1206/1306 VRB03KT P6SM SCT100 FM121200 17005KT
                       P6SM BKN040 OVC100 FM121800 18006KT P6SM
                       BKN040
                      TEMPO 1219/1223 -RA OVC040 FM122300 18005KT
                       P6SM SCT040 BKN100=
201607112335 TAF KBLI 112335Z 1200/1224 16009KT P6SM SCT050 BKN160 FM120600
                       00000KT P6SM OVC100 FM121200 17005KT P6SM
                       OVC040 FM121800 18006KT P6SM -RA OVC040=
201607111720 TAF KBLI 111720Z 1118/1218 17010G16KT P6SM FEW016 SCT030 OVC100
                       FM120000 17006KT P6SM BKN050 OVC100 FM120600
                       00000KT P6SM OVC100 FM121200 17005KT P6SM
                       OVC040=
201607111318 TAF AMD KBLI 111318Z 1113/1212 16011G19KT P6SM VCSH BKN027 BKN090
                       OVC110
                      TEMPO 1113/1116 -SHRA BKN050 FM111600 17009KT
                       P6SM SCT040 BKN120 FM120000 17006KT P6SM
                       BKN050 OVC100=
201607111120 TAF KBLI 111120Z 1112/1212 17010G20KT P6SM VCSH SCT060 BKN090
                      TEMPO 1112/1116 -SHRA BKN050 FM111600 17009KT
                       P6SM SCT040 BKN120 FM120000 17006KT P6SM
                       BKN050 OVC100=
201607110638 TAF AMD KBLI 110638Z 1107/1206 17010G20KT P6SM VCSH SCT050 BKN080
                       TEMPO 1107/1111 -SHRA BKN050 FM111500 17009KT
                       P6SM SCT025 BKN100 FM111900 18008KT P6SM
                       SCT035 BKN120=
201607110520 TAF KBLI 110520Z 1106/1206 17010G20KT P6SM BKN080 FM111500 17009KT
                       P6SM SCT025 FM111900 18008KT P6SM SCT035
                       BKN120=
201607102328 TAF KBLI 102328Z 1100/1124 18007KT P6SM SCT070 FM110300 17010KT
                       P6SM BKN070 FM111000 16011KT P6SM BKN025
                       BKN070 FM111600 17009KT P6SM SCT025 BKN070=
201607101741 TAF KBLI 101741Z 1018/1118 18007KT P6SM SCT070 FM110300 17010KT
                       P6SM BKN070 FM111000 16011KT P6SM BKN025
                       BKN070 FM111600 16009KT P6SM SCT025 BKN070=
201607101740 TAF KBLI 101740Z 1018/1118 18007KT P6SM SCT070 FM110300 17010KT
                       P6SM BKN070 FM111000 16011KT P6SM BKN025
                       BKN070 FM111600 16009KT P6SM SCT025 BKN070=
201607101120 TAF KBLI 101120Z 1012/1112 VRB04KT P6SM BKN050 BKN100 FM101600
                       18006KT P6SM SCT050 SCT100 FM102000 18010KT
                       P6SM SCT050=
201607100520 TAF KBLI 100520Z 1006/1106 17004KT P6SM VCSH SCT050 BKN080 FM101600
                       18006KT P6SM SCT050 SCT080 FM102000 18010KT
                       P6SM SCT050=
201607092320 TAF KBLI 092320Z 1000/1024 17005KT P6SM BKN045 OVC060 FM100300
                       17003KT P6SM SCT015 BKN035 OVC060 FM101900
                       18008KT P6SM SCT045 BKN070=
201607091740 TAF KBLI 091740Z 0918/1018 18009KT P6SM FEW010 BKN035 FM092200
                       17005KT P6SM SCT025 BKN035 OVC060 FM100300
                       17003KT P6SM SCT015 BKN035 OVC060=
201607091507 TAF AMD KBLI 091507Z 0915/1012 14007KT P6SM VCSH BKN025 BKN045
                       FM091700 16008KT P6SM SCT050 SCT100 FM091900
                       VRB04KT P6SM SCT060 SCT120=
201607091125 TAF KBLI 091125Z 0912/1012 14007KT P6SM VCSH SCT040 BKN080
                      TEMPO 0912/0915 -SHRA BKN040 FM091500 16008KT
                       P6SM SCT050 SCT100 FM091900 VRB04KT P6SM
                       SCT060 SCT120=
201607090520 TAF KBLI 090520Z 0906/1006 18008KT P6SM VCSH SCT030 SCT060 OVC100
                       FM090800 18008KT P6SM -SHRA BKN035 OVC050
                       FM091400 16008KT P6SM VCSH BKN025 BKN050
                       FM091900 04006KT P6SM SCT030 BKN060=
201607082320 TAF KBLI 082320Z 0900/0924 18008KT P6SM SCT030 SCT060 BKN200 FM090700
                       18008KT P6SM VCSH BKN050 FM091100 16008KT
                       P6SM VCSH BKN025 BKN050 FM092000 04006KT
                       P6SM SCT030 BKN060=
201607082003 TAF AMD KBLI 082003Z 0820/0918 18010G20KT P6SM BKN050 BKN080 FM090700
                       16008KT P6SM BKN020 OVC040 FM091700 04005KT
                       P6SM SCT020 BKN050=
201607081720 TAF KBLI 081720Z 0818/0918 18010KT P6SM VCSH OVC025 FM082100 18012KT
                       P6SM VCSH BKN030 BKN050 FM090900 16008KT
                       P6SM BKN015 OVC035 FM091700 04005KT P6SM
                       SCT020 BKN050=
201607081126 TAF KBLI 081126Z 0812/0912 16012G20KT P6SM VCSH BKN020 OVC030 FM081800
                       16010G18KT P6SM BKN030 BKN070 FM090000 17006KT
                       P6SM BKN030 OVC070 FM090400 16006KT P6SM
                       -SHRA BKN025 OVC040=
201607080520 TAF KBLI 080520Z 0806/0906 12004KT P6SM -SHRA BKN025 OVC040 FM081200
                       16011G17KT P6SM OVC030 FM081900 16010G18KT
                       P6SM VCSH BKN030 OVC050=
201607072333 TAF KBLI 072333Z 0800/0824 02004KT P6SM VCSH OVC035 FM080100 12004KT
                       P6SM -RA OVC030 FM080700 15006KT P6SM VCSH
                       OVC030 FM081200 16011G17KT P6SM OVC030 FM081900
                       16010G18KT P6SM VCSH BKN030 OVC050=
201607071726 TAF KBLI 071726Z 0718/0818 16006KT P6SM -SHRA SCT040 OVC060 FM071900
                       17007KT P6SM VCSH SCT030 OVC045
                      TEMPO 0719/0723 -SHRA BKN025 OVC045 FM080300
                       16005KT P6SM VCSH OVC035=
201607071120 TAF KBLI 071120Z 0712/0812 16006KT P6SM SCT050 BKN080 OVC120 FM071800
                       16010KT P6SM -SHRA SCT030 OVC050=
201607070520 TAF KBLI 070520Z 0706/0806 VRB03KT P6SM SCT120 BKN200 FM071200
                       16008G12KT P6SM BKN050 OVC100 FM071800 16010G15KT
                       P6SM -SHRA SCT030 OVC050=
201607062329 TAF KBLI 062329Z 0700/0724 19006KT P6SM SKC FM070600 VRB03KT P6SM
                       SCT100 SCT200 FM071200 16008G12KT P6SM BKN050
                       OVC100 FM071800 16010G15KT P6SM -SHRA SCT030
                       OVC050=
201607061726 TAF KBLI 061726Z 0618/0718 VRB04KT P6SM SCT040 FM061900 22005KT
                       P6SM SCT050 SCT100 FM070000 20004KT P6SM
                       SCT100 SCT200 FM070600 VRB03KT P6SM SCT050
                       BKN250 FM071200 16004KT P6SM BKN050 OVC100=
201607061120 TAF KBLI 061120Z 0612/0712 18005KT P6SM SCT060 SCT100 FM070300
                       18004KT P6SM SCT100 BKN200 FM070700 18007KT
                       P6SM OVC050=
201607060520 TAF KBLI 060520Z 0606/0706 14003KT P6SM SCT080 BKN100 FM060800
                       16003KT P6SM OVC050 FM061800 20006KT P6SM
                       SCT050 SCT100 FM070400 18004KT P6SM SCT100
                       BKN200=
201607052335 TAF KBLI 052335Z 0600/0624 16009KT P6SM VCSH FEW015 OVC060 FM060200
                       16007KT P6SM VCSH BKN035 OVC050 FM060600
                       16004KT P6SM SCT035 BKN050 FM060800 16003KT
                       P6SM OVC035=
201607051730 TAF KBLI 051730Z 0518/0618 17012G18KT P6SM OVC035 FM052000 16010KT
                       P6SM VCSH BKN035 OVC050 FM060600 17005KT
                       P6SM SCT035 BKN050 FM061000 VRB03KT P6SM
                       OVC035=
201607051120 TAF KBLI 051120Z 0512/0612 17007KT P6SM -SHRA OVC030 FM051400 17007KT
                       P6SM -SHRA OVC025 FM051900 17008KT P6SM
                       -SHRA BKN035 BKN050 FM060100 17006KT P6SM
                       SCT035 BKN050=
201607050524 TAF KBLI 050524Z 0506/0606 15009KT P6SM FEW050 OVC090 FM051000
                       17010KT P6SM OVC035 FM051400 17010KT P6SM
                       -SHRA OVC025 FM051900 17008KT P6SM -SHRA
                       BKN035 BKN050 FM060100 17006KT P6SM SCT035
                       BKN050=
201607042332 TAF KBLI 042332Z 0500/0524 16012G21KT P6SM BKN060 FM050700 17010KT
                       P6SM OVC035 FM051400 16011G17KT P6SM OVC015
                       FM051900 17009G17KT P6SM BKN035=
201607041737 TAF KBLI 041737Z 0418/0518 17012G18KT P6SM VCSH FEW008 OVC050 FM042100
                       16012G18KT P6SM VCSH SCT025 BKN035 FM050300
                       17011KT P6SM BKN035 FM050700 17010KT P6SM
                       OVC035 FM051100 17009KT P6SM OVC035 FM051400
                       17009KT P6SM OVC015=
201607041604 TAF AMD KBLI 041604Z 0416/0512 17012G18KT P6SM FEW010 SCT035 BKN060
                       FM041900 17011G18KT P6SM VCSH SCT025 BKN040
                       FM050200 18007KT P6SM SCT035 BKN050=
201607041120 TAF KBLI 041120Z 0412/0512 17006KT P6SM -SHRA BKN022 BKN035 OVC050
                       FM041900 17011G18KT P6SM VCSH SCT025 BKN040
                       FM050200 18007KT P6SM SCT035 BKN050=
201607040821 TAF AMD KBLI 040821Z 0408/0506 18007G16KT P6SM VCSH SCT020 OVC040
                       FM041100 17012KT P6SM VCSH BKN018 OVC035
                       FM041900 17011G18KT P6SM VCSH SCT018 BKN035
                       FM050200 18007KT P6SM SCT035 BKN050=
201607040523 TAF KBLI 040523Z 0406/0506 16008KT P6SM OVC100 FM040800 17009KT
                       P6SM SCT050 OVC080 FM041100 17012KT P6SM
                       VCSH BKN018 OVC035 FM041900 17011G18KT P6SM
                       VCSH SCT018 BKN035 FM050200 18007KT P6SM
                       SCT035 BKN050=
201607032337 TAF KBLI 032337Z 0400/0424 17011G20KT P6SM SKC FM040600 17010KT
                       P6SM SCT025 BKN035 FM041200 17009KT P6SM
                       SCT012 OVC018
                      TEMPO 0413/0417 6SM -SHRA BR OVC012 FM041900
                       17011G18KT P6SM SCT018 BKN030 FM042200 18013G20KT
                       P6SM SCT030 SCT050=
201607031736 TAF KBLI 031736Z 0318/0418 17009KT P6SM SCT030 BKN040 FM032100
                       18011G20KT P6SM SCT040 FM040600 17010KT
                       P6SM SCT025 BKN035 FM041200 17009KT P6SM
                       SCT012 OVC018
                      TEMPO 0413/0417 6SM -SHRA BR OVC012=
201607031450 TAF AMD KBLI 031450Z 0315/0412 17011G18KT P6SM VCSH SCT008 BKN035
                       BKN080
                      TEMPO 0315/0316 5SM -SHRA BR BKN008 OVC035
                       FM031700 17011G18KT P6SM SCT020 OVC050 FM032100
                       18011G20KT P6SM SCT250 FM040600 17010KT
                       P6SM SCT025 OVC050=
201607031131 TAF KBLI 031131Z 0312/0412 17009G16KT P6SM OVC070 FM031400 17011G18KT
                       P6SM SCT020 OVC050 FM032100 18011G20KT P6SM
                       SCT250 FM040600 17010KT P6SM SCT025 OVC050=
201607030520 TAF KBLI 030520Z 0306/0406 17011G17KT P6SM OVC070 FM031100 18010G16KT
                       P6SM SCT012 OVC020
                      TEMPO 0311/0315 4SM -DZ BR SCT005 OVC012
                       FM031500 17011G18KT P6SM SCT012 BKN020 FM031900
                       18011G20KT P6SM BKN050 FM032100 18011G20KT
                       P6SM SCT250 FM040400 17010KT P6SM SCT250=
201607022320 TAF KBLI 022320Z 0300/0324 18010G16KT P6SM SCT045 SCT100 FM030800
                       18010G16KT P6SM SCT009 OVC015
                      TEMPO 0309/0313 4SM -DZ BR SCT005 OVC009
                       FM031600 17011G18KT P6SM SCT012 BKN020 FM031900
                       18011G20KT P6SM SKC=
201607021737 TAF KBLI 021737Z 0218/0318 18006KT P6SM SCT030 BKN045 FM022200
                       19010G16KT P6SM SCT045 SCT100 FM030800 18010G16KT
                       P6SM SCT010 OVC018
                      TEMPO 0309/0313 4SM -DZ BR SCT006 OVC010
                       FM031600 17011G18KT P6SM SCT012 BKN020=
201607021120 TAF KBLI 021120Z 0212/0312 18004KT P6SM SCT025 OVC050 FM021400
                       18006KT P6SM SCT025 BKN050 FM022100 18010G16KT
                       P6SM BKN050 BKN100 FM030400 18009KT P6SM
                       OVC050=
201607020524 TAF KBLI 020524Z 0206/0306 17004KT P6SM BKN050 FM021400 18006KT
                       P6SM SCT025 BKN050 FM022100 18010G16KT P6SM
                       BKN050 BKN100=
201607012337 TAF KBLI 012337Z 0200/0224 18008KT P6SM BKN060 OVC100 FM020600
                       18008KT P6SM SCT060 BKN100 FM021400 18008KT
                       P6SM SCT060=
201607011736 TAF KBLI 011736Z 0118/0218 17012G18KT P6SM BKN060 OVC100 FM020300
                       19008KT P6SM SCT060 BKN120 FM021200 19008KT
                       P6SM SCT060=
201607011120 TAF KBLI 011120Z 0112/0212 17006KT P6SM BKN200 FM011700 17011G18KT
                       P6SM OVC035 FM011900 17008G14KT P6SM OVC060
                       FM012200 18006KT P6SM BKN035 BKN060 FM020400
                       18005KT P6SM BKN035=
201607010525 TAF KBLI 010525Z 0106/0206 15007KT P6SM SCT250 FM011000 17011G17KT
                       P6SM SCT015 BKN030 BKN250 FM011400 17009KT
                       P6SM OVC035 FM011800 17007KT P6SM SCT015
                       OVC025 FM011900 18007KT P6SM BKN035 BKN050
                       FM012200 18006KT P6SM BKN035 BKN060 FM020400
                       18004KT P6SM BKN035=