##########################################################
# Query made at 02/16/2025 21:39:57 UTC
# Time interval: from 06/01/2017 00:00  to 06/30/2017 23:59  UTC
##########################################################

##########################################################
# KBLI, Bellingham, Bellingham International Airport (United States)
# WMO index: -----. WIGOS ID: Unknown
# Latitude 48-47-58N. Longitude 122-32-21W. Altitude 48 m.
##########################################################

###################################
#  METAR/SPECI from KBLI
###################################
201706302353 METAR KBLI 302353Z 25003KT 10SM CLR 25/14 A2997 RMK AO2 SLP152 T02500139 10256 20200 58012=
201706302253 METAR KBLI 302253Z 20006KT 10SM CLR 25/13 A2998 RMK AO2 SLP158 T02500133=
201706302153 METAR KBLI 302153Z VRB05KT 10SM CLR 26/14 A2999 RMK AO2 SLP160 T02560144=
201706302053 METAR KBLI 302053Z 00000KT 10SM CLR 24/15 A3000 RMK AO2 SLP164 T02440150 58016=
201706301953 METAR KBLI 301953Z 21006KT 10SM CLR 23/16 A3003 RMK AO2 SLP172 T02330161=
201706301853 METAR KBLI 301853Z 19003KT 10SM CLR 22/16 A3004 RMK AO2 SLP175 T02220156=
201706301753 METAR KBLI 301753Z 20005KT 10SM CLR 20/14 A3005 RMK AO2 SLP180 T02000144 10206 20122 58008=
201706301653 METAR KBLI 301653Z 00000KT 10SM CLR 20/14 A3006 RMK AO2 SLP183 T02000144=
201706301553 METAR KBLI 301553Z VRB03KT 10SM CLR 18/14 A3007 RMK AO2 SLP189 T01780139=
201706301453 METAR KBLI 301453Z 00000KT 10SM CLR 16/13 A3007 RMK AO2 SLP188 T01610133 58001=
201706301353 METAR KBLI 301353Z 22003KT 10SM CLR 15/13 A3007 RMK AO2 SLP189 T01500133=
201706301253 METAR KBLI 301253Z AUTO 00000KT 10SM CLR 12/12 A3008 RMK AO2 SLP191 T01220117=
201706301153 METAR KBLI 301153Z AUTO 00000KT 10SM CLR 13/13 A3008 RMK AO2 SLP189 T01330128 10172 20133 55000=
201706301053 METAR KBLI 301053Z AUTO 18004KT 10SM CLR 14/13 A3007 RMK AO2 SLP188 T01440128=
201706300953 METAR KBLI 300953Z AUTO 19004KT 10SM CLR 14/13 A3007 RMK AO2 SLP189 T01440128=
201706300853 METAR KBLI 300853Z AUTO 18005KT 10SM CLR 15/13 A3008 RMK AO2 SLP190 T01500133 56002=
201706300753 METAR KBLI 300753Z AUTO 17005KT 10SM CLR 16/13 A3008 RMK AO2 SLP191 T01560133 402390128=
201706300653 METAR KBLI 300653Z AUTO 17005KT 10SM CLR 16/14 A3008 RMK AO2 SLP192 T01610139=
201706300553 METAR KBLI 300553Z AUTO 18005KT 10SM CLR 17/13 A3008 RMK AO2 SLP193 T01720133 10239 20167 53000=
201706300453 METAR KBLI 300453Z 00000KT 10SM CLR 17/14 A3008 RMK AO2 SLP192 T01720139=
201706300353 METAR KBLI 300353Z 00000KT 10SM CLR 19/14 A3008 RMK AO2 SLP190 T01890139=
201706300253 METAR KBLI 300253Z 27003KT 10SM CLR 22/13 A3008 RMK AO2 SLP193 T02170128 56006=
201706300153 METAR KBLI 300153Z VRB03KT 10SM CLR 23/10 A3009 RMK AO2 SLP193 T02280100=
201706300053 METAR KBLI 300053Z VRB04KT 10SM CLR 24/12 A3009 RMK AO2 SLP195 T02390117=
201706292353 METAR KBLI 292353Z 30005KT 10SM CLR 24/12 A3010 RMK AO2 SLP198 T02390122 10239 20178 58010=
201706292253 METAR KBLI 292253Z VRB06KT 10SM CLR 23/12 A3011 RMK AO2 SLP202 T02280117=
201706292153 METAR KBLI 292153Z VRB04KT 10SM CLR 22/13 A3012 RMK AO2 SLP205 T02220128=
201706292053 METAR KBLI 292053Z 29007KT 240V320 10SM CLR 22/13 A3013 RMK AO2 SLP208 T02220128 58008=
201706291953 METAR KBLI 291953Z VRB05KT 10SM CLR 21/13 A3014 RMK AO2 SLP211 T02110133=
201706291853 METAR KBLI 291853Z 18005KT 10SM CLR 20/13 A3015 RMK AO2 SLP216 T02000128=
201706291753 METAR KBLI 291753Z 19007KT 10SM CLR 18/12 A3016 RMK AO2 SLP218 T01780122 10178 20128 51004=
201706291653 METAR KBLI 291653Z VRB06KT 10SM CLR 16/12 A3016 RMK AO2 SLP217 T01610122=
201706291553 METAR KBLI 291553Z VRB06KT 10SM SCT035 16/13 A3015 RMK AO2 SLP215 T01560128=
201706291453 METAR KBLI 291453Z 18005KT 10SM SCT034 14/12 A3014 RMK AO2 SLP213 T01440122 51013=
201706291353 METAR KBLI 291353Z 18005KT 10SM CLR 14/13 A3014 RMK AO2 SLP211 T01440128=
201706291253 METAR KBLI 291253Z AUTO 00000KT 10SM CLR 13/13 A3012 RMK AO2 SLP205 T01330128=
201706291153 METAR KBLI 291153Z AUTO 17004KT 10SM CLR 14/13 A3011 RMK AO2 SLP200 T01390128 10167 20139 53010=
201706291053 METAR KBLI 291053Z AUTO 18004KT 10SM CLR 14/13 A3009 RMK AO2 SLP196 T01440128=
201706290953 METAR KBLI 290953Z AUTO 17006KT 10SM CLR 15/13 A3008 RMK AO2 SLP191 T01500133=
201706290853 METAR KBLI 290853Z AUTO 16004KT 10SM CLR 16/13 A3007 RMK AO2 SLP190 T01560128 51007=
201706290753 METAR KBLI 290753Z AUTO 16006KT 10SM CLR 16/13 A3007 RMK AO2 SLP189 T01560128 402110133=
201706290653 METAR KBLI 290653Z AUTO 16005KT 10SM CLR 16/13 A3006 RMK AO2 SLP185 T01610133=
201706290553 METAR KBLI 290553Z AUTO 18005KT 10SM CLR 17/14 A3005 RMK AO2 SLP183 T01670139 10211 20167 53011=
201706290453 METAR KBLI 290453Z 17006KT 10SM CLR 18/14 A3004 RMK AO2 SLP180 T01780139=
201706290353 METAR KBLI 290353Z 17005KT 10SM FEW065 18/13 A3003 RMK AO2 SLP174 T01830133=
201706290253 METAR KBLI 290253Z 18005KT 10SM CLR 20/13 A3002 RMK AO2 SLP172 T02000128 53005=
201706290153 METAR KBLI 290153Z VRB06KT 10SM CLR 21/13 A3002 RMK AO2 SLP170 T02060133=
201706290053 METAR KBLI 290053Z VRB05KT 10SM CLR 21/13 A3001 RMK AO2 SLP167 T02060128=
201706282353 METAR KBLI 282353Z 19008KT 10SM CLR 21/12 A3001 RMK AO2 SLP167 T02060117 10206 20156 58005=
201706282253 METAR KBLI 282253Z 18008KT 10SM CLR 20/11 A3002 RMK AO2 SLP170 T02000111=
201706282153 METAR KBLI 282153Z VRB06KT 10SM CLR 19/12 A3002 RMK AO2 SLP171 T01940122=
201706282053 METAR KBLI 282053Z 18007KT 10SM CLR 19/12 A3002 RMK AO2 SLP172 T01890122 50003=
201706281953 METAR KBLI 281953Z 18007KT 160V220 10SM BKN060 18/12 A3003 RMK AO2 SLP174 T01830122=
201706281853 METAR KBLI 281853Z 17008KT 10SM OVC060 16/13 A3003 RMK AO2 SLP174 T01610128=
201706281753 METAR KBLI 281753Z 18006KT 10SM OVC060 16/12 A3001 RMK AO2 SLP169 T01560122 10156 20133 50007=
201706281653 METAR KBLI 281653Z 16008KT 10SM SCT021 OVC055 15/12 A3002 RMK AO2 SLP170 T01500122=
201706281553 METAR KBLI 281553Z 17012KT 10SM SCT021 OVC055 14/12 A3000 RMK AO2 SLP165 T01440117=
201706281453 METAR KBLI 281453Z 17009KT 10SM OVC055 13/12 A2999 RMK AO2 SLP163 T01330117 53009=
201706281353 METAR KBLI 281353Z 18007KT 150V230 10SM BKN055 BKN075 14/12 A2998 RMK AO2 SLP158 T01390122=
201706281253 METAR KBLI 281253Z AUTO 17006KT 10SM BKN055 OVC075 13/12 A2998 RMK AO2 SLP157 T01330117=
201706281153 METAR KBLI 281153Z AUTO 17007KT 10SM FEW070 13/12 A2997 RMK AO2 SLP154 T01330117 10161 20133 53007=
201706281053 METAR KBLI 281053Z AUTO VRB04KT 10SM FEW065 14/12 A2995 RMK AO2 SLP149 T01390122=
201706280953 METAR KBLI 280953Z AUTO 17008KT 10SM FEW065 14/12 A2995 RMK AO2 SLP147 T01440117=
201706280853 METAR KBLI 280853Z AUTO 17007KT 10SM CLR 14/12 A2995 RMK AO2 SLP146 T01440117 55002=
201706280753 METAR KBLI 280753Z AUTO 15004KT 10SM CLR 14/12 A2994 RMK AO2 SLP145 T01440117 402110133=
201706280653 METAR KBLI 280653Z AUTO 17005KT 10SM CLR 16/12 A2995 RMK AO2 SLP148 T01560117=
201706280553 METAR KBLI 280553Z AUTO 18003KT 10SM CLR 16/12 A2995 RMK AO2 SLP148 T01560122 10211 20150 53002=
201706280453 METAR KBLI 280453Z 17007KT 10SM CLR 17/12 A2995 RMK AO2 SLP148 T01670122=
201706280353 METAR KBLI 280353Z 00000KT 10SM CLR 17/12 A2994 RMK AO2 SLP146 T01670117=
201706280253 METAR KBLI 280253Z 19003KT 10SM CLR 19/11 A2995 RMK AO2 SLP146 T01940106 56010=
201706280153 METAR KBLI 280153Z VRB03KT 10SM CLR 21/09 A2996 RMK AO2 SLP149 T02060094=
201706280053 METAR KBLI 280053Z 17006KT 10SM CLR 21/12 A2996 RMK AO2 SLP152 T02060117=
201706272353 METAR KBLI 272353Z 16007KT 10SM CLR 21/12 A2998 RMK AO2 SLP156 T02060117 10206 20161 58017=
201706272253 METAR KBLI 272253Z 17008KT 10SM CLR 20/12 A2999 RMK AO2 SLP163 T02000117=
201706272153 METAR KBLI 272153Z VRB05KT 10SM CLR 19/11 A3001 RMK AO2 SLP168 T01940111=
201706272053 METAR KBLI 272053Z 20007KT 160V250 10SM CLR 18/12 A3003 RMK AO2 SLP174 T01830117 58006=
201706271953 METAR KBLI 271953Z 16009KT 10SM CLR 18/12 A3004 RMK AO2 SLP178 T01780117=
201706271853 METAR KBLI 271853Z 17009G15KT 10SM CLR 17/12 A3004 RMK AO2 SLP179 T01720117=
201706271753 METAR KBLI 271753Z 16009G15KT 10SM SCT032 16/12 A3004 RMK AO2 SLP180 T01610117 10161 20133 51003=
201706271653 METAR KBLI 271653Z 17011G16KT 10SM FEW010 SCT032 15/12 A3004 RMK AO2 SLP179 T01500117=
201706271553 METAR KBLI 271553Z 17010KT 10SM SCT032 15/11 A3004 RMK AO2 SLP180 T01500111=
201706271453 METAR KBLI 271453Z 17009KT 10SM FEW015 14/11 A3004 RMK AO2 SLP177 T01390111 53008=
201706271353 METAR KBLI 271353Z 16009KT 10SM CLR 14/11 A3003 RMK AO2 SLP173 T01390111=
201706271253 METAR KBLI 271253Z AUTO 17008KT 10SM CLR 13/11 A3002 RMK AO2 SLP172 T01330106=
201706271153 METAR KBLI 271153Z AUTO 17010KT 10SM CLR 13/11 A3001 RMK AO2 SLP168 T01330106 10156 20133 53014=
201706271053 METAR KBLI 271053Z AUTO 17010KT 10SM CLR 13/10 A3000 RMK AO2 SLP163 T01330100=
201706270953 METAR KBLI 270953Z AUTO 17010G19KT 10SM CLR 14/10 A2998 RMK AO2 SLP159 T01390100=
201706270853 METAR KBLI 270853Z AUTO 18008KT 10SM CLR 14/11 A2997 RMK AO2 SLP155 T01440106 53003=
201706270753 METAR KBLI 270753Z AUTO 17005KT 10SM CLR 15/10 A2996 RMK AO2 SLP152 T01500100 402110144=
201706270653 METAR KBLI 270653Z AUTO 16008KT 10SM CLR 15/09 A2996 RMK AO2 SLP151 T01500089=
201706270553 METAR KBLI 270553Z AUTO 16008KT 10SM CLR 14/11 A2996 RMK AO2 SLP151 T01440106 10211 20144 51022=
201706270453 METAR KBLI 270453Z 17009G18KT 10SM CLR 14/11 A2995 RMK AO2 SLP147 T01440106=
201706270353 METAR KBLI 270353Z 17009G18KT 10SM CLR 16/11 A2991 RMK AO2 SLP135 T01560106=
201706270253 METAR KBLI 270253Z 18009G19KT 10SM CLR 17/11 A2990 RMK AO2 SLP129 T01720111 55002=
201706270153 METAR KBLI 270153Z 17009G17KT 10SM CLR 18/12 A2989 RMK AO2 SLP127 T01780117=
201706270053 METAR KBLI 270053Z 19011G18KT 10SM CLR 19/11 A2989 RMK AO2 SLP128 T01890111=
201706262353 METAR KBLI 262353Z 16008G18KT 10SM CLR 21/13 A2990 RMK AO2 SLP131 T02110128 10211 20172 58012=
201706262253 METAR KBLI 262253Z 16007KT 10SM CLR 20/13 A2992 RMK AO2 SLP138 T02000133=
201706262153 METAR KBLI 262153Z 17011KT 10SM CLR 20/13 A2993 RMK AO2 SLP138 T02000133=
201706262053 METAR KBLI 262053Z 18008KT 10SM CLR 20/14 A2994 RMK AO2 SLP142 T02000139 50003=
201706261953 METAR KBLI 261953Z 18010G16KT 10SM CLR 19/13 A2994 RMK AO2 SLP143 T01890128=
201706261853 METAR KBLI 261853Z VRB05KT 10SM CLR 19/13 A2993 RMK AO2 SLP141 T01890128=
201706261753 METAR KBLI 261753Z 17009KT 10SM CLR 17/12 A2993 RMK AO2 SLP140 T01720117 10172 20150 51006=
201706261653 METAR KBLI 261653Z 16012G19KT 10SM CLR 17/11 A2992 RMK AO2 SLP138 T01670111=
201706261553 METAR KBLI 261553Z 16013G22KT 10SM CLR 16/11 A2992 RMK AO2 SLP136 T01610106=
201706261453 METAR KBLI 261453Z 17011G18KT 10SM CLR 17/09 A2991 RMK AO2 SLP133 T01670094 51014=
201706261353 METAR KBLI 261353Z 16012G18KT 10SM CLR 16/10 A2990 RMK AO2 PK WND 16026/1306 SLP129 T01560100=
201706261253 METAR KBLI 261253Z AUTO 17015G24KT 10SM CLR 15/11 A2988 RMK AO2 SLP124 T01500106=
201706261153 METAR KBLI 261153Z AUTO 18012G20KT 10SM CLR 16/11 A2987 RMK AO2 SLP119 T01560106 10194 20156 51016=
201706261053 METAR KBLI 261053Z AUTO 17006KT 10SM CLR 19/09 A2987 RMK AO2 SLP118 T01890089=
201706260953 METAR KBLI 260953Z AUTO 17009G17KT 10SM CLR 18/09 A2985 RMK AO2 SLP111 T01780094=
201706260853 METAR KBLI 260853Z AUTO 18006KT 10SM CLR 18/12 A2982 RMK AO2 SLP103 T01830117 50000=
201706260753 METAR KBLI 260753Z AUTO 18010G16KT 10SM CLR 18/11 A2984 RMK AO2 SLP109 T01830106 402890128=
201706260653 METAR KBLI 260653Z AUTO 18009G19KT 10SM CLR 18/12 A2983 RMK AO2 SLP106 T01780122=
201706260553 METAR KBLI 260553Z AUTO 17013G18KT 10SM CLR 19/12 A2982 RMK AO2 SLP103 T01940122 10289 20194 53002=
201706260453 METAR KBLI 260453Z 18007KT 10SM CLR 23/12 A2981 RMK AO2 SLP099 T02280117=
201706260353 METAR KBLI 260353Z 17004KT 10SM CLR 21/14 A2982 RMK AO2 SLP102 T02110139=
201706260253 METAR KBLI 260253Z 14004KT 10SM CLR 23/16 A2982 RMK AO2 SLP101 T02330156 56010=
201706260153 METAR KBLI 260153Z 22003KT 10SM CLR 26/13 A2982 RMK AO2 SLP104 T02610133=
201706260053 METAR KBLI 260053Z 28003KT 10SM CLR 28/15 A2983 RMK AO2 SLP106 T02830150=
201706252353 METAR KBLI 252353Z 27007KT 10SM CLR 27/13 A2985 RMK AO2 SLP111 T02670128 10289 20250 56015=
201706252253 METAR KBLI 252253Z 26004KT 10SM CLR 27/16 A2986 RMK AO2 SLP115 T02720156=
201706252153 METAR KBLI 252153Z 25004KT 10SM CLR 26/15 A2987 RMK AO2 SLP120 T02610150=
201706252053 METAR KBLI 252053Z 27007KT 10SM CLR 26/14 A2989 RMK AO2 SLP126 T02610144 56013=
201706251953 METAR KBLI 251953Z 25005KT 10SM CLR 26/15 A2990 RMK AO2 SLP131 T02560150=
201706251853 METAR KBLI 251853Z 29005KT 10SM CLR 28/15 A2991 RMK AO2 SLP134 T02830150=
201706251753 METAR KBLI 251753Z VRB03KT 10SM CLR 27/14 A2993 RMK AO2 SLP139 T02720139 10272 20128 58009=
201706251653 METAR KBLI 251653Z 00000KT 10SM CLR 25/15 A2994 RMK AO2 SLP143 T02500150=
201706251553 METAR KBLI 251553Z VRB03KT 10SM CLR 23/14 A2995 RMK AO2 SLP146 T02280144=
201706251453 METAR KBLI 251453Z 35003KT 10SM CLR 21/13 A2996 RMK AO2 SLP148 T02060133 55002=
201706251353 METAR KBLI 251353Z AUTO 00000KT 10SM CLR 17/15 A2995 RMK AO2 SLP147 T01720150=
201706251253 METAR KBLI 251253Z AUTO 00000KT 10SM CLR 13/13 A2996 RMK AO2 SLP149 T01330133=
201706251222 SPECI KBLI 251222Z AUTO 00000KT 3SM BR CLR 13/13 A2996 RMK AO2 T01280128=
201706251213 SPECI KBLI 251213Z AUTO 00000KT 1 3/4SM BR CLR 13/13 A2996 RMK AO2 VIS 3/4V5 T01330128=
201706251153 METAR KBLI 251153Z AUTO 00000KT 10SM CLR 14/13 A2996 RMK AO2 SLP150 T01440133 10178 20133 55002=
201706251053 METAR KBLI 251053Z AUTO 00000KT 10SM CLR 13/13 A2996 RMK AO2 SLP149 T01330128=
201706250953 METAR KBLI 250953Z AUTO 00000KT 10SM CLR 14/13 A2996 RMK AO2 SLP151 T01440128=
201706250853 METAR KBLI 250853Z AUTO 00000KT 10SM CLR 16/13 A2996 RMK AO2 SLP152 T01560133 58006=
201706250753 METAR KBLI 250753Z AUTO 00000KT 10SM CLR 16/13 A2997 RMK AO2 SLP154 T01610133 403000100=
201706250653 METAR KBLI 250653Z AUTO 00000KT 10SM CLR 17/13 A2998 RMK AO2 SLP156 T01720128=
201706250553 METAR KBLI 250553Z AUTO 00000KT 10SM CLR 18/13 A2998 RMK AO2 SLP158 T01780133 10289 20172 58006=
201706250453 METAR KBLI 250453Z 00000KT 10SM CLR 18/14 A2999 RMK AO2 SLP161 T01830139=
201706250353 METAR KBLI 250353Z 00000KT 10SM CLR 21/16 A2999 RMK AO2 SLP161 T02110156=
201706250253 METAR KBLI 250253Z 00000KT 10SM CLR 26/15 A3000 RMK AO2 SLP164 T02560150 56020=
201706250153 METAR KBLI 250153Z 28004KT 10SM CLR 27/14 A3002 RMK AO2 SLP169 T02720144=
201706250053 METAR KBLI 250053Z 27006KT 10SM CLR 28/14 A3003 RMK AO2 SLP174 T02780144=
201706242353 METAR KBLI 242353Z 29007KT 10SM CLR 28/14 A3006 RMK AO2 SLP184 T02830144 10300 20233 56019=
201706242253 METAR KBLI 242253Z VRB04KT 10SM CLR 30/13 A3008 RMK AO2 SLP191 T03000133=
201706242153 METAR KBLI 242153Z 29006KT 10SM CLR 28/13 A3010 RMK AO2 SLP197 T02830133=
201706242053 METAR KBLI 242053Z 26007KT 10SM CLR 26/14 A3012 RMK AO2 SLP204 T02610139 56013=
201706241953 METAR KBLI 241953Z 30006KT 10SM CLR 28/13 A3013 RMK AO2 SLP207 T02780133=
201706241853 METAR KBLI 241853Z 27005KT 10SM CLR 26/13 A3014 RMK AO2 SLP211 T02560128=
201706241753 METAR KBLI 241753Z 01006KT 10SM CLR 26/12 A3016 RMK AO2 SLP216 T02610122 10261 20100 58005=
201706241653 METAR KBLI 241653Z 02006KT 10SM CLR 23/13 A3016 RMK AO2 SLP217 T02330128=
201706241553 METAR KBLI 241553Z 35004KT 10SM CLR 21/13 A3017 RMK AO2 SLP221 T02060128=
201706241453 METAR KBLI 241453Z 35003KT 10SM CLR 17/12 A3017 RMK AO2 SLP221 T01720122 53005=
201706241353 METAR KBLI 241353Z AUTO 35004KT 10SM CLR 14/12 A3016 RMK AO2 SLP219 T01440122=
201706241253 METAR KBLI 241253Z AUTO 00000KT 10SM CLR 11/11 A3016 RMK AO2 SLP218 T01110106=
201706241153 METAR KBLI 241153Z AUTO 01003KT 10SM CLR 10/09 A3015 RMK AO2 SLP217 T01000094 10150 20100 53000=
201706241053 METAR KBLI 241053Z AUTO 00000KT 10SM CLR 11/11 A3015 RMK AO2 SLP217 T01110106=
201706240953 METAR KBLI 240953Z AUTO 00000KT 10SM CLR 13/11 A3014 RMK AO2 SLP214 T01280111=
201706240853 METAR KBLI 240853Z AUTO 00000KT 10SM CLR 13/11 A3015 RMK AO2 SLP216 T01280111 52002=
201706240753 METAR KBLI 240753Z AUTO 00000KT 10SM CLR 14/11 A3015 RMK AO2 SLP216 T01390111 402500089=
201706240653 METAR KBLI 240653Z AUTO 00000KT 10SM CLR 14/12 A3015 RMK AO2 SLP215 T01390117=
201706240553 METAR KBLI 240553Z AUTO 00000KT 10SM CLR 14/12 A3015 RMK AO2 SLP214 T01440122 10250 20144 55000=
201706240453 METAR KBLI 240453Z 00000KT 10SM CLR 16/13 A3014 RMK AO2 SLP213 T01560133=
201706240353 METAR KBLI 240353Z 00000KT 10SM CLR 18/14 A3014 RMK AO2 SLP213 T01830139=
201706240253 METAR KBLI 240253Z 17003KT 10SM CLR 22/14 A3015 RMK AO2 SLP215 T02170144 56010=
201706240153 METAR KBLI 240153Z 00000KT 10SM CLR 23/12 A3015 RMK AO2 SLP217 T02330122=
201706240053 METAR KBLI 240053Z 27006KT 10SM CLR 24/13 A3016 RMK AO2 SLP220 T02440128=
201706232353 METAR KBLI 232353Z 00000KT 10SM CLR 24/13 A3018 RMK AO2 SLP225 T02390133 10244 20217 58010=
201706232253 METAR KBLI 232253Z 27008KT 10SM CLR 24/13 A3019 RMK AO2 SLP230 T02390128=
201706232153 METAR KBLI 232153Z VRB05KT 10SM CLR 23/12 A3021 RMK AO2 SLP234 T02280122=
201706232053 METAR KBLI 232053Z 25007KT 210V280 10SM CLR 23/12 A3021 RMK AO2 SLP235 T02280117 56007=
201706232019 SPECI KBLI 232019Z 29007KT 250V320 10SM CLR 23/12 A3021 RMK AO2 T02280117=
201706231953 METAR KBLI 231953Z 29007KT 260V320 10SM CLR 23/11 A3021 RMK AO2 SLP236 T02280111=
201706231853 METAR KBLI 231853Z VRB06KT 10SM CLR 23/11 A3023 RMK AO2 SLP241 T02280111=
201706231753 METAR KBLI 231753Z 34006KT 10SM CLR 22/12 A3023 RMK AO2 SLP243 T02220122 10222 20089 58006=
201706231653 METAR KBLI 231653Z 30006KT 10SM CLR 19/11 A3024 RMK AO2 SLP247 T01940111=
201706231553 METAR KBLI 231553Z 33004KT 10SM CLR 17/11 A3025 RMK AO2 SLP248 T01720111=
201706231453 METAR KBLI 231453Z 02005KT 10SM CLR 15/11 A3025 RMK AO2 SLP249 T01500106 51007=
201706231353 METAR KBLI 231353Z 00000KT 10SM CLR 13/11 A3025 RMK AO2 SLP249 T01330106=
201706231253 METAR KBLI 231253Z AUTO 00000KT 10SM CLR 09/08 A3025 RMK AO2 SLP248 T00890083=
201706231153 METAR KBLI 231153Z AUTO 00000KT 10SM CLR 10/09 A3023 RMK AO2 SLP242 T01000089 10133 20089 50001=
201706231053 METAR KBLI 231053Z AUTO 00000KT 10SM CLR 11/09 A3023 RMK AO2 SLP244 T01110094=
201706230953 METAR KBLI 230953Z AUTO 00000KT 10SM CLR 12/09 A3023 RMK AO2 SLP242 T01170094=
201706230853 METAR KBLI 230853Z AUTO 00000KT 10SM CLR 11/09 A3022 RMK AO2 SLP241 T01110094 58002=
201706230753 METAR KBLI 230753Z AUTO 00000KT 10SM CLR 12/09 A3023 RMK AO2 SLP243 T01170094 402170083=
201706230653 METAR KBLI 230653Z AUTO 00000KT 10SM CLR 12/10 A3023 RMK AO2 SLP244 T01220100=
201706230553 METAR KBLI 230553Z AUTO 00000KT 10SM CLR 13/12 A3023 RMK AO2 SLP243 T01330117 10217 20122 53001=
201706230453 METAR KBLI 230453Z 24004KT 10SM CLR 14/12 A3022 RMK AO2 SLP241 T01440122=
201706230353 METAR KBLI 230353Z 00000KT 10SM CLR 16/11 A3022 RMK AO2 SLP240 T01610111=
201706230253 METAR KBLI 230253Z 00000KT 10SM CLR 19/09 A3023 RMK AO2 SLP242 T01940089 56008=
201706230153 METAR KBLI 230153Z 30006KT 10SM CLR 21/08 A3023 RMK AO2 SLP243 T02060078=
201706230053 METAR KBLI 230053Z 30005KT 10SM CLR 21/08 A3024 RMK AO2 SLP245 T02110083=
201706222353 METAR KBLI 222353Z 27007KT 240V300 10SM CLR 21/08 A3025 RMK AO2 SLP250 T02110083 10217 20178 58011=
201706222253 METAR KBLI 222253Z 26008KT 10SM CLR 21/11 A3027 RMK AO2 SLP255 T02110106=
201706222153 METAR KBLI 222153Z 28009KT 10SM CLR 21/11 A3028 RMK AO2 SLP260 T02060111=
201706222053 METAR KBLI 222053Z 30007KT 10SM CLR 20/11 A3028 RMK AO2 SLP261 T02000106 58010=
201706221953 METAR KBLI 221953Z 26008KT 230V300 10SM CLR 19/11 A3030 RMK AO2 SLP266 T01890111=
201706221853 METAR KBLI 221853Z 29005KT 10SM CLR 19/12 A3030 RMK AO2 SLP268 T01890117=
201706221753 METAR KBLI 221753Z 28004KT 10SM SCT028 18/10 A3031 RMK AO2 SLP271 T01830100 10183 20083 58001=
201706221653 METAR KBLI 221653Z 17005KT 10SM FEW012 17/11 A3032 RMK AO2 SLP274 T01720106=
201706221553 METAR KBLI 221553Z 00000KT 10SM FEW012 16/11 A3032 RMK AO2 SLP273 T01560106 $=
201706221453 METAR KBLI 221453Z 15004KT 10SM FEW012 14/10 A3032 RMK AO2 SLP272 T01440100 51006=
201706221353 METAR KBLI 221353Z 14004KT 10SM FEW012 13/11 A3031 RMK AO2 SLP271 T01280106=
201706221253 METAR KBLI 221253Z AUTO 00000KT 10SM CLR 10/09 A3031 RMK AO2 SLP268 T01000089=
201706221153 METAR KBLI 221153Z AUTO 00000KT 10SM CLR 09/08 A3030 RMK AO2 SLP267 T00890083 10122 20083 55002=
201706221053 METAR KBLI 221053Z AUTO 00000KT 10SM CLR 09/09 A3030 RMK AO2 SLP266 T00940089=
201706220953 METAR KBLI 220953Z AUTO 19003KT 10SM CLR 11/09 A3030 RMK AO2 SLP268 T01060094=
201706220853 METAR KBLI 220853Z AUTO 16004KT 10SM CLR 12/09 A3031 RMK AO2 SLP269 T01170094 51012=
201706220753 METAR KBLI 220753Z AUTO 00000KT 10SM CLR 10/09 A3029 RMK AO2 SLP266 T01000089 401940094=
201706220653 METAR KBLI 220653Z AUTO 00000KT 10SM CLR 11/09 A3029 RMK AO2 SLP263 T01110094=
201706220553 METAR KBLI 220553Z AUTO 00000KT 10SM CLR 12/10 A3027 RMK AO2 SLP257 T01220100 10194 20117 53001=
201706220453 METAR KBLI 220453Z 20004KT 10SM CLR 13/09 A3027 RMK AO2 SLP257 T01330094=
201706220353 METAR KBLI 220353Z 00000KT 10SM CLR 14/09 A3026 RMK AO2 SLP254 T01440089=
201706220253 METAR KBLI 220253Z VRB03KT 10SM CLR 18/07 A3027 RMK AO2 SLP256 T01780067 55005=
201706220153 METAR KBLI 220153Z 29004KT 10SM CLR 18/06 A3027 RMK AO2 SLP255 T01830061=
201706220053 METAR KBLI 220053Z VRB06KT 10SM CLR 18/07 A3027 RMK AO2 SLP257 T01830067=
201706212353 METAR KBLI 212353Z VRB03KT 10SM CLR 19/06 A3028 RMK AO2 SLP261 T01890061 10194 20156 58004=
201706212253 METAR KBLI 212253Z 31005KT 10SM CLR 19/06 A3029 RMK AO2 SLP264 T01890061=
201706212153 METAR KBLI 212153Z VRB03KT 10SM BKN047 19/08 A3029 RMK AO2 SLP264 T01890083 $=
201706212053 METAR KBLI 212053Z 15007KT 10SM FEW055 18/08 A3030 RMK AO2 SLP265 T01830078 58004 $=
201706211953 METAR KBLI 211953Z 18008KT 10SM SCT055 17/09 A3031 RMK AO2 SLP269 T01720089 $=
201706211853 METAR KBLI 211853Z VRB06KT 10SM CLR 17/08 A3031 RMK AO2 SLP271 T01670083 $=
201706211753 METAR KBLI 211753Z 15008KT 10SM CLR 16/09 A3031 RMK AO2 SLP269 60000 T01560089 10156 20117 51011 $=
201706211653 METAR KBLI 211653Z 16010G14KT 10SM FEW020 SCT055 15/10 A3030 RMK AO2 SLP267 T01500100=
201706211553 METAR KBLI 211553Z 18007KT 10SM FEW020 SCT055 13/09 A3029 RMK AO2 SLP262 T01330094=
201706211454 SPECI KBLI 211454Z 17005KT 10SM SCT060 14/09 A3028 RMK AO2 T01390094=
201706211453 METAR KBLI 211453Z 17005KT 10SM OVC060 14/09 A3028 RMK AO2 SLP258 60000 T01390094 53010=
201706211353 METAR KBLI 211353Z 16007KT 10SM BKN060 13/09 A3026 RMK AO2 RAE37 SLP252 P0000 T01280089=
201706211253 METAR KBLI 211253Z AUTO 16005KT 10SM -RA SCT060 12/09 A3025 RMK AO2 SLP250 P0000 T01170089=
201706211153 METAR KBLI 211153Z AUTO 15006KT 10SM -RA BKN055 12/08 A3025 RMK AO2 SLP248 P0000 60000 T01170083 10133 20117 51013=
201706211053 METAR KBLI 211053Z AUTO 16007KT 10SM -RA OVC060 12/09 A3024 RMK AO2 SLP246 P0000 T01220089=
201706210953 METAR KBLI 210953Z AUTO 17007KT 10SM -RA OVC055 12/09 A3023 RMK AO2 SLP242 P0000 T01220094=
201706210853 METAR KBLI 210853Z AUTO 17006KT 10SM -RA OVC049 13/09 A3021 RMK AO2 SLP235 P0000 60000 T01280089 51008=
201706210753 METAR KBLI 210753Z AUTO 17005KT 10SM -RA SCT048 12/09 A3020 RMK AO2 SLP234 P0000 T01220089 401940122=
201706210653 METAR KBLI 210653Z AUTO 17006KT 10SM -RA FEW042 13/09 A3019 RMK AO2 SLP230 P0000 T01280094=
201706210553 METAR KBLI 210553Z AUTO 17007KT 10SM -RA CLR 13/09 A3018 RMK AO2 RAB23 SLP227 P0000 60000 T01330089 10183 20133 51018=
201706210453 METAR KBLI 210453Z 17009KT 10SM CLR 14/11 A3017 RMK AO2 SLP224 T01440106=
201706210353 METAR KBLI 210353Z 17007KT 10SM CLR 16/11 A3015 RMK AO2 SLP214 T01560106=
201706210253 METAR KBLI 210253Z 17010G17KT 10SM CLR 17/11 A3013 RMK AO2 SLP209 T01670106 50002=
201706210153 METAR KBLI 210153Z 17009KT 10SM CLR 18/11 A3014 RMK AO2 SLP211 T01780106=
201706210053 METAR KBLI 210053Z 18010KT 10SM CLR 18/12 A3013 RMK AO2 SLP210 T01780117=
201706202353 METAR KBLI 202353Z 18010G19KT 10SM CLR 18/11 A3013 RMK AO2 SLP207 60000 T01830111 10194 20167 50004=
201706202253 METAR KBLI 202253Z 17010G18KT 10SM FEW027 18/13 A3013 RMK AO2 SLP209 T01830128=
201706202153 METAR KBLI 202153Z 17014G22KT 10SM BKN060 18/13 A3012 RMK AO2 SLP204 T01830128=
201706202053 METAR KBLI 202053Z 17009KT 10SM SCT043 OVC060 18/14 A3011 RMK AO2 RAE32 SLP203 P0000 60000 T01780144 51013=
201706201953 METAR KBLI 201953Z 17007G15KT 10SM -RA BKN043 BKN050 OVC060 17/14 A3010 RMK AO2 RAB50 SLP199 VCSH P0000 T01670144=
201706201853 METAR KBLI 201853Z 15010G17KT 10SM BKN040 OVC050 17/15 A3009 RMK AO2 RAB09E30 SLP195 VCSH P0000 T01670150=
201706201753 METAR KBLI 201753Z 17011G18KT 10SM FEW038 BKN049 OVC080 17/14 A3008 RMK AO2 SLP190 60000 T01670144 10183 20133 53011=
201706201653 METAR KBLI 201653Z 17013G21KT 10SM FEW035 SCT055 BKN070 17/14 A3006 RMK AO2 SLP184 T01720144=
201706201553 METAR KBLI 201553Z 18012G17KT 10SM FEW004 FEW035 SCT070 16/14 A3006 RMK AO2 SLP184 T01610144=
201706201453 METAR KBLI 201453Z 18011KT 10SM FEW004 FEW036 BKN075 15/14 A3004 RMK AO2 SLP179 60000 T01500139 53012=
201706201353 METAR KBLI 201353Z 18009KT 10SM FEW004 BKN070 OVC085 14/14 A3003 RMK AO2 RAE49 SLP176 P0000 T01440139=
201706201253 METAR KBLI 201253Z AUTO 17008KT 10SM -RA BKN040 BKN060 OVC090 15/14 A3002 RMK AO2 SLP170 P0000 T01500139=
201706201153 METAR KBLI 201153Z AUTO 00000KT 10SM -RA FEW050 SCT075 OVC095 14/14 A3001 RMK AO2 SLP167 P0000 60000 T01390139 10144 20122 50003=
201706201053 METAR KBLI 201053Z AUTO 00000KT 10SM -RA FEW050 FEW100 13/13 A3001 RMK AO2 SLP169 P0000 T01330128=
201706200953 METAR KBLI 200953Z AUTO 00000KT 10SM -RA BKN080 13/12 A3001 RMK AO2 SLP168 P0000 T01280122=
201706200853 METAR KBLI 200853Z AUTO 00000KT 10SM -RA BKN120 13/13 A3000 RMK AO2 SLP165 P0000 60000 T01280128 52001=
201706200753 METAR KBLI 200753Z AUTO 18003KT 10SM -RA CLR 14/13 A3000 RMK AO2 SLP164 P0000 T01390133 402060122=
201706200653 METAR KBLI 200653Z AUTO 15003KT 10SM -RA CLR 14/13 A3000 RMK AO2 SLP165 P0000 T01390128=
201706200553 METAR KBLI 200553Z AUTO 00000KT 10SM -RA CLR 14/13 A3000 RMK AO2 RAB25 SLP164 P0000 60000 T01440133 10189 20144 50003=
201706200453 METAR KBLI 200453Z 17003KT 10SM FEW075 15/13 A3000 RMK AO2 SLP165 T01500133=
201706200353 METAR KBLI 200353Z 00000KT 10SM CLR 16/13 A3000 RMK AO2 SLP166 T01610133=
201706200253 METAR KBLI 200253Z 22004KT 10SM BKN110 17/14 A2999 RMK AO2 SLP161 T01720144 56003=
201706200153 METAR KBLI 200153Z 15004KT 10SM FEW120 18/15 A2999 RMK AO2 SLP161 T01780150=
201706200053 METAR KBLI 200053Z 00000KT 10SM BKN120 19/15 A3000 RMK AO2 SLP163 T01890150=
201706192353 METAR KBLI 192353Z 26003KT 10SM FEW120 18/14 A3000 RMK AO2 SLP165 T01830144 10206 20172 58004=
201706192253 METAR KBLI 192253Z VRB04KT 10SM CLR 18/14 A3002 RMK AO2 SLP171 T01830144=
201706192153 METAR KBLI 192153Z 34004KT 10SM CLR 21/16 A3000 RMK AO2 SLP163 T02060156=
201706192053 METAR KBLI 192053Z 36007KT 10SM CLR 19/14 A3001 RMK AO2 SLP168 T01890144 58010=
201706191953 METAR KBLI 191953Z VRB04KT 10SM FEW120 17/14 A3003 RMK AO2 SLP176 T01720144=
201706191853 METAR KBLI 191853Z 32004KT 10SM FEW120 17/14 A3004 RMK AO2 SLP179 T01720139=
201706191753 METAR KBLI 191753Z 35006KT 10SM CLR 17/13 A3004 RMK AO2 SLP178 60000 T01720133 10178 20122 58003=
201706191653 METAR KBLI 191653Z 35003KT 10SM CLR 17/13 A3005 RMK AO2 SLP181 T01670133=
201706191553 METAR KBLI 191553Z 35006KT 10SM FEW015 16/13 A3005 RMK AO2 SLP180 T01560133=
201706191453 METAR KBLI 191453Z 02004KT 10SM FEW010 15/13 A3005 RMK AO2 SLP182 60000 T01500133 56005=
201706191353 METAR KBLI 191353Z 05003KT 10SM FEW060 14/13 A3006 RMK AO2 RAE49 SLP184 P0000 T01390128=
201706191253 METAR KBLI 191253Z AUTO 00000KT 10SM -RA CLR 13/12 A3005 RMK AO2 SLP182 P0000 T01280122=
201706191153 METAR KBLI 191153Z AUTO 35004KT 10SM -RA CLR 12/12 A3007 RMK AO2 SLP188 P0000 60000 70006 T01220117 10139 20122 58018=
201706191053 METAR KBLI 191053Z AUTO 36006KT 10SM -RA CLR 13/12 A3008 RMK AO2 SLP194 P0000 T01280122=
201706190953 METAR KBLI 190953Z AUTO 34005KT 10SM -RA FEW100 13/12 A3010 RMK AO2 SLP201 P0000 T01280122=
201706190853 METAR KBLI 190853Z AUTO 00000KT 10SM -RA FEW100 12/12 A3012 RMK AO2 SLP206 P0000 60000 T01220122 58011=
201706190753 METAR KBLI 190753Z AUTO 00000KT 10SM -RA BKN100 13/13 A3013 RMK AO2 SLP211 P0000 T01280128 401560117=
201706190653 METAR KBLI 190653Z AUTO 36004KT 10SM -RA BKN100 13/13 A3014 RMK AO2 SLP214 P0000 T01330128=
201706190553 METAR KBLI 190553Z AUTO 00000KT 10SM -RA OVC100 14/13 A3015 RMK AO2 RAB29 SLP217 P0000 60000 T01390133 10156 20139 56002=
201706190253 METAR KBLI 190253Z 01006KT 10SM SCT014 BKN044 OVC055 16/14 A3016 RMK AO2 RAE0154 SLP219 P0000 60000 T01560144 56006=
201706190251 SPECI KBLI 190251Z 02005KT 10SM SCT014 BKN044 OVC055 16/14 A3016 RMK AO2 RAE0154 P0000=
201706190153 METAR KBLI 190153Z 01006KT 7SM -RA SCT007 BKN015 OVC047 16/14 A3016 RMK AO2 SLP221 P0000 T01560144=
201706190105 SPECI KBLI 190105Z 02006KT 10SM -RA SCT007 BKN015 OVC047 16/14 A3017 RMK AO2 P0000 T01560144=
201706190053 METAR KBLI 190053Z 01006KT 10SM -RA SCT007 OVC014 16/14 A3018 RMK AO2 SLP225 P0000 T01560144=
201706190017 SPECI KBLI 190017Z 01004KT 6SM -RA BR SCT007 BKN014 OVC021 16/14 A3018 RMK AO2 P0000 T01560139=
201706190000 SPECI KBLI 190000Z 01006KT 3SM -RA BR BKN007 OVC021 16/14 A3018 RMK AO2 P0000 T01560144=
201706182353 METAR KBLI 182353Z 01007KT 2SM -RA BR BKN007 BKN013 OVC021 16/14 A3018 RMK AO2 SLP227 P0000 60003 T01560144 10156 20133 58003=
201706182315 SPECI KBLI 182315Z 03006KT 2SM -RA BR BKN005 OVC013 14/14 A3019 RMK AO2 P0000 T01440139=
201706182300 SPECI KBLI 182300Z 02006KT 6SM -RA BR BKN005 OVC012 14/14 A3019 RMK AO2 P0000 T01440139=
201706182253 METAR KBLI 182253Z 01006KT 1 3/4SM -RA BR BKN005 OVC012 14/14 A3019 RMK AO2 CIG 004V009 SLP230 P0001 T01440139=
201706182248 SPECI KBLI 182248Z 03005KT 1 3/4SM -RA BR BKN005 OVC012 14/14 A3019 RMK AO2 CIG 004V009 P0001=
201706182209 SPECI KBLI 182209Z 01006KT 1 3/4SM -RA BR OVC004 14/14 A3019 RMK AO2 CIG 003V008 P0001 T01390139=
201706182153 METAR KBLI 182153Z 02004KT 1 3/4SM -RA BR BKN006 OVC014 14/13 A3019 RMK AO2 CIG 003V009 SLP229 P0001 T01390133=
201706182111 SPECI KBLI 182111Z 36004KT 1 3/4SM -RA BR OVC010 14/13 A3019 RMK AO2 P0000 T01440133=
201706182053 METAR KBLI 182053Z 36004KT 6SM -RA BR SCT007 OVC011 14/13 A3019 RMK AO2 SLP229 P0000 60001 T01440133 51004=
201706181953 METAR KBLI 181953Z 03005KT 6SM -RA BR BKN006 OVC014 14/13 A3018 RMK AO2 SLP228 P0000 T01390133=
201706181853 METAR KBLI 181853Z 03006KT 5SM -RA BR BKN004 OVC016 13/13 A3018 RMK AO2 SLP226 P0001 T01330128=
201706181843 SPECI KBLI 181843Z 02005KT 3SM -RA BR BKN004 OVC013 13/13 A3018 RMK AO2 P0000 T01330128=
201706181836 SPECI KBLI 181836Z 02004KT 3SM -RA BR SCT005 OVC013 13/13 A3017 RMK AO2 P0000 T01330128=
201706181753 METAR KBLI 181753Z 02005KT 3SM -RA BR BKN004 OVC014 13/13 A3017 RMK AO2 SLP224 P0001 60003 T01330128 10133 20117 53006=
201706181653 METAR KBLI 181653Z 01003KT 3SM -RA BR BKN006 OVC014 13/12 A3017 RMK AO2 SLP222 P0001 T01330122=
201706181603 SPECI KBLI 181603Z VRB04KT 2 1/2SM -RA BR BKN006 BKN014 OVC023 13/12 A3016 RMK AO2 P0000 T01280122=
201706181553 METAR KBLI 181553Z 02005KT 4SM -RA BR SCT006 BKN014 OVC023 13/12 A3016 RMK AO2 SLP218 P0000 T01280122=
201706181453 METAR KBLI 181453Z 02004KT 4SM -RA BR FEW005 OVC014 12/12 A3015 RMK AO2 SLP218 P0001 60001 T01220117 53006=
201706181353 METAR KBLI 181353Z 03005KT 6SM -RA BR OVC014 12/11 A3014 RMK AO2 SLP215 P0000 T01220111=
201706181253 METAR KBLI 181253Z AUTO 04003KT 6SM -RA BR OVC013 12/11 A3013 RMK AO2 SLP211 P0000 T01220111=
201706181153 METAR KBLI 181153Z AUTO 04005KT 10SM -RA OVC016 12/11 A3014 RMK AO2 SLP212 P0001 60001 70001 T01220111 10133 20122 50001=
201706181053 METAR KBLI 181053Z AUTO 00000KT 8SM -RA OVC018 12/12 A3014 RMK AO2 SLP211 P0000 T01220117=
201706180953 METAR KBLI 180953Z AUTO 00000KT 10SM -RA OVC019 13/11 A3014 RMK AO2 SLP212 P0000 T01280111=
201706180853 METAR KBLI 180853Z AUTO 00000KT 10SM -RA OVC026 12/11 A3013 RMK AO2 SLP210 P0000 60000 T01220111 51005=
201706180830 SPECI KBLI 180830Z AUTO 00000KT 10SM -RA BKN026 BKN035 OVC075 13/11 A3013 RMK AO2 P0000 T01280106=
201706180753 METAR KBLI 180753Z AUTO 18003KT 10SM -RA SCT038 BKN060 OVC080 12/11 A3013 RMK AO2 SLP207 P0000 T01220111 401720100=
201706180653 METAR KBLI 180653Z AUTO 00000KT 10SM -RA OVC040 13/10 A3013 RMK AO2 SLP210 P0000 T01330100=
201706180553 METAR KBLI 180553Z AUTO 00000KT 10SM -RA OVC045 13/10 A3012 RMK AO2 RAB22 SLP206 P0000 60000 T01280100 10161 20128 57003=
201706180453 METAR KBLI 180453Z 16003KT 10SM OVC047 13/10 A3012 RMK AO2 SLP206 T01280100=
201706180353 METAR KBLI 180353Z 00000KT 10SM SCT049 OVC060 13/09 A3013 RMK AO2 SLP209 T01330089=
201706180253 METAR KBLI 180253Z 00000KT 10SM OVC075 14/09 A3013 RMK AO2 SLP209 T01390089 58004=
201706180153 METAR KBLI 180153Z 17005KT 10SM OVC060 15/09 A3013 RMK AO2 SLP210 T01500094=
201706180053 METAR KBLI 180053Z 16005KT 10SM BKN080 OVC095 16/09 A3014 RMK AO2 SLP214 T01560089=
201706172353 METAR KBLI 172353Z 20005KT 10SM OVC100 16/08 A3014 RMK AO2 SLP213 T01560083 10172 20150 56004=
201706172253 METAR KBLI 172253Z VRB05KT 10SM SCT120 17/09 A3014 RMK AO2 SLP212 T01670094=
201706172153 METAR KBLI 172153Z 00000KT 10SM CLR 17/09 A3014 RMK AO2 SLP213 T01670089=
201706172053 METAR KBLI 172053Z 19006KT 10SM FEW046 17/09 A3015 RMK AO2 SLP216 T01670089 58003=
201706171953 METAR KBLI 171953Z 24005KT 10SM BKN037 BKN047 16/08 A3016 RMK AO2 SLP218 T01610083=
201706171853 METAR KBLI 171853Z 19006KT 10SM CLR 16/08 A3016 RMK AO2 SLP220 T01560078=
201706171753 METAR KBLI 171753Z 17006KT 10SM CLR 15/07 A3016 RMK AO2 SLP219 T01500072 10150 20106 58001=
201706171653 METAR KBLI 171653Z 19004KT 10SM CLR 14/09 A3017 RMK AO2 SLP224 T01390089=
201706171553 METAR KBLI 171553Z VRB05KT 10SM CLR 13/09 A3019 RMK AO2 SLP227 T01280089=
201706171453 METAR KBLI 171453Z 17007KT 10SM FEW055 13/09 A3017 RMK AO2 SLP221 T01280089 51004=
201706171353 METAR KBLI 171353Z 16004KT 10SM SCT055 12/08 A3016 RMK AO2 SLP220 T01220078=
201706171253 METAR KBLI 171253Z AUTO 15003KT 10SM OVC047 12/08 A3016 RMK AO2 SLP219 T01220078=
201706171153 METAR KBLI 171153Z AUTO 15003KT 10SM CLR 12/07 A3015 RMK AO2 SLP216 T01170072 10139 20100 53005=
201706171053 METAR KBLI 171053Z AUTO 16005KT 10SM CLR 12/07 A3014 RMK AO2 SLP214 T01170072=
201706170953 METAR KBLI 170953Z AUTO 17003KT 10SM CLR 11/08 A3014 RMK AO2 SLP214 T01110083=
201706170853 METAR KBLI 170853Z AUTO 17004KT 10SM FEW045 BKN060 13/08 A3014 RMK AO2 SLP211 T01280078 51012=
201706170753 METAR KBLI 170753Z AUTO 17004KT 10SM FEW050 SCT060 12/08 A3013 RMK AO2 SLP210 T01170078 401830117=
201706170653 METAR KBLI 170653Z AUTO 17005KT 10SM CLR 13/08 A3012 RMK AO2 SLP204 T01330078=
201706170553 METAR KBLI 170553Z AUTO 16005KT 10SM CLR 14/08 A3010 RMK AO2 SLP200 T01390078 10178 20133 53016=
201706170453 METAR KBLI 170453Z 18004KT 10SM CLR 14/08 A3008 RMK AO2 SLP193 T01440078=
201706170353 METAR KBLI 170353Z 16006KT 10SM SCT090 16/08 A3007 RMK AO2 SLP188 T01560083=
201706170253 METAR KBLI 170253Z 17010KT 10SM CLR 16/09 A3006 RMK AO2 SLP183 T01610089 53004=
201706170153 METAR KBLI 170153Z 17010KT 10SM CLR 17/10 A3005 RMK AO2 SLP180 T01670100=
201706170053 METAR KBLI 170053Z 16011KT 10SM CLR 17/11 A3005 RMK AO2 SLP182 T01720106=
201706162353 METAR KBLI 162353Z 17012G19KT 10SM CLR 18/10 A3004 RMK AO2 SLP179 T01780100 10183 20156 55001=
201706162253 METAR KBLI 162253Z 15011KT 10SM CLR 18/11 A3004 RMK AO2 SLP178 T01830106=
201706162153 METAR KBLI 162153Z 17011KT 10SM CLR 17/11 A3005 RMK AO2 SLP181 T01720111=
201706162053 METAR KBLI 162053Z 17011KT 10SM SCT032 BKN075 17/11 A3005 RMK AO2 SLP181 T01720111 53010=
201706161953 METAR KBLI 161953Z 16012G18KT 10SM SCT030 BKN055 17/11 A3004 RMK AO2 SLP178 T01670111=
201706161853 METAR KBLI 161853Z 16010G17KT 10SM SCT031 BKN070 17/12 A3002 RMK AO2 SLP172 T01670117=
201706161753 METAR KBLI 161753Z 16011KT 10SM FEW030 SCT051 16/11 A3002 RMK AO2 SLP170 60000 T01610111 10161 20128 51012=
201706161654 SPECI KBLI 161654Z 16007KT 10SM FEW004 SCT050 BKN080 14/11 A3001 RMK AO2 T01440106=
201706161653 METAR KBLI 161653Z 17008KT 10SM FEW050 OVC080 14/11 A3001 RMK AO2 SLP169 T01440106=
201706161553 METAR KBLI 161553Z 17007G15KT 10SM FEW004 SCT055 14/12 A3000 RMK AO2 SLP166 T01390117=
201706161453 METAR KBLI 161453Z 17006KT 10SM FEW004 SCT055 14/11 A2998 RMK AO2 SLP159 60000 T01390111 53011=
201706161353 METAR KBLI 161353Z 17006KT 10SM FEW004 SCT060 13/12 A2997 RMK AO2 RAE50 SLP154 P0000 T01330122=
201706161308 SPECI KBLI 161308Z AUTO 17006KT 10SM -RA FEW004 BKN050 13/13 A2996 RMK AO2 P0000 T01330128=
201706161253 METAR KBLI 161253Z AUTO 17004KT 10SM -RA SCT047 SCT060 13/12 A2996 RMK AO2 SLP151 P0000 T01330122=
201706161153 METAR KBLI 161153Z AUTO 16005KT 10SM -RA FEW003 OVC041 13/13 A2995 RMK AO2 SLP148 P0006 60014 70031 T01280128 10150 20128 53010=
201706161138 SPECI KBLI 161138Z AUTO 15005KT 10SM -RA SCT003 SCT013 OVC039 13/13 A2995 RMK AO2 P0006 T01330128=
201706161128 SPECI KBLI 161128Z AUTO 16006KT 5SM -RA BR BKN004 OVC037 13/13 A2994 RMK AO2 P0006 T01330133=
201706161113 SPECI KBLI 161113Z AUTO 16006KT 4SM -RA BR BKN005 BKN012 OVC031 13/13 A2994 RMK AO2 CIG 002V008 P0002 T01330133=
201706161103 SPECI KBLI 161103Z AUTO 17005KT 6SM -RA BR SCT005 BKN016 OVC031 13/13 A2994 RMK AO2 P0001 T01330133=
201706161053 METAR KBLI 161053Z AUTO 16005KT 8SM -RA FEW004 SCT016 OVC030 13/13 A2993 RMK AO2 SLP142 P0003 T01330133=
201706161048 SPECI KBLI 161048Z AUTO 16006KT 6SM -RA BR SCT004 SCT016 OVC030 13/13 A2993 RMK AO2 P0003=
201706161038 SPECI KBLI 161038Z AUTO 17005KT 5SM -RA BR SCT004 SCT014 OVC029 13/13 A2993 RMK AO2 P0002 T01330133=
201706160953 METAR KBLI 160953Z AUTO 16007KT 5SM -RA BR BKN003 BKN023 OVC028 14/13 A2992 RMK AO2 SLP138 P0001 T01390133=
201706160853 METAR KBLI 160853Z AUTO 16006KT 8SM -RA BKN003 OVC010 14/14 A2990 RMK AO2 SLP132 P0001 60004 T01390139 51020=
201706160841 SPECI KBLI 160841Z AUTO 16005KT 5SM -RA BR BKN003 BKN007 OVC011 14/14 A2990 RMK AO2 P0001 T01390139=
201706160824 SPECI KBLI 160824Z AUTO 17005KT 4SM -RA BR BKN005 BKN014 OVC026 14/14 A2990 RMK AO2 P0001 T01440139=
201706160816 SPECI KBLI 160816Z AUTO 17005KT 4SM -RA BR SCT003 BKN019 OVC026 14/14 A2990 RMK AO2 P0001 T01440139=
201706160753 METAR KBLI 160753Z AUTO 16007KT 3SM -RA BR FEW004 SCT009 OVC014 14/14 A2989 RMK AO2 SLP126 P0003 T01440139 401720111=
201706160740 SPECI KBLI 160740Z AUTO 17006KT 2 1/2SM -RA BR SCT007 OVC014 14/14 A2988 RMK AO2 P0003 T01440139=
201706160732 SPECI KBLI 160732Z AUTO 18006KT 3SM -RA BR BKN007 OVC012 14/14 A2988 RMK AO2 CIG 004V010 P0002 T01440139=
201706160725 SPECI KBLI 160725Z AUTO 18008G15KT 4SM -RA BR SCT007 OVC013 14/14 A2988 RMK AO2 P0001 T01440139=
201706160716 SPECI KBLI 160716Z AUTO 16009KT 9SM -RA OVC013 14/14 A2987 RMK AO2 P0001 T01440139=
201706160653 METAR KBLI 160653Z AUTO VRB05KT 9SM -RA OVC015 15/14 A2987 RMK AO2 SLP119 P0000 T01500139=
201706160548 METAR KBLI 160548Z AUTO 17007KT 10SM -RA FEW006 OVC016 15/14 A2984 RMK AO2 SLP112 P0001 60008 T01500144 10167 20144 51018=
201706160547 SPECI KBLI 160547Z AUTO 17008KT 10SM -RA FEW006 OVC016 15/14 A2984 RMK AO2 P0001=
201706160535 SPECI KBLI 160535Z AUTO 19007KT 10SM -RA BKN008 OVC014 15/14 A2985 RMK AO2 CIG 006V011 P0001 T01500144=
201706160453 METAR KBLI 160453Z 18005KT 5SM -RA BR SCT005 OVC010 14/14 A2983 RMK AO2 SLP109 P0003 T01440144=
201706160416 SPECI KBLI 160416Z 18007KT 5SM -RA BR FEW004 BKN011 OVC017 15/14 A2982 RMK AO2 P0001 T01500144=
201706160353 METAR KBLI 160353Z 17009KT 10SM -RA FEW010 OVC016 15/14 A2981 RMK AO2 SLP102 P0000 T01500144=
201706160253 METAR KBLI 160253Z 16008G17KT 7SM -RA OVC023 16/14 A2979 RMK AO2 SLP095 P0002 60004 T01560139 53007=
201706160153 METAR KBLI 160153Z 15014G21KT 9SM -RA OVC023 16/13 A2977 RMK AO2 PK WND 15026/0128 SLP088 P0002 T01610133=
201706160053 METAR KBLI 160053Z 15015G26KT 10SM -RA BKN026 OVC030 17/13 A2977 RMK AO2 PK WND 14029/2359 SLP087 P0000 T01670128=
201706152353 METAR KBLI 152353Z 15019G26KT 10SM -RA OVC028 17/13 A2977 RMK AO2 PK WND 15028/2326 SLP087 P0000 60005 T01670128 10172 20150 55003=
201706152253 METAR KBLI 152253Z 14018G25KT 10SM -RA BKN026 BKN048 OVC070 17/13 A2976 RMK AO2 PK WND 15026/2205 SLP084 P0000 T01670128=
201706152153 METAR KBLI 152153Z 14017G24KT 10SM -RA BKN020 BKN034 OVC080 16/13 A2977 RMK AO2 SLP087 P0002 T01560128=
201706152053 METAR KBLI 152053Z 14011G23KT 10SM -RA BKN020 OVC032 16/12 A2978 RMK AO2 SLP091 P0001 60003 T01560122 56009=
201706151953 METAR KBLI 151953Z 12014G22KT 10SM -RA BKN020 OVC032 16/11 A2979 RMK AO2 SLP093 P0000 T01560111=
201706151853 METAR KBLI 151853Z 12012G18KT 10SM -RA BKN036 OVC080 15/11 A2980 RMK AO2 SLP097 P0002 T01500111=
201706151753 METAR KBLI 151753Z 12015G23KT 10SM -RA SCT036 BKN075 OVC095 16/11 A2981 RMK AO2 SLP099 P0000 60004 T01610106 10161 20111 58023=
201706151653 METAR KBLI 151653Z 06004KT 10SM -RA SCT034 OVC055 13/12 A2983 RMK AO2 SLP109 P0002 T01330117=
201706151553 METAR KBLI 151553Z 04005KT 10SM -RA OVC055 13/12 A2986 RMK AO2 SLP117 P0000 T01280117=
201706151453 METAR KBLI 151453Z 01005KT 10SM -RA FEW065 BKN080 OVC100 12/11 A2987 RMK AO2 SLP123 P0000 60002 T01220106 58012=
201706151353 METAR KBLI 151353Z 12006KT 10SM -RA OVC065 13/10 A2990 RMK AO2 SLP129 P0002 T01280100=
201706151253 METAR KBLI 151253Z AUTO 00000KT 10SM -RA OVC075 12/10 A2991 RMK AO2 SLP134 P0000 T01170100=
201706151153 METAR KBLI 151153Z AUTO 00000KT 10SM -RA FEW049 BKN080 OVC100 12/09 A2991 RMK AO2 SLP134 P0000 60000 70001 T01170094 10133 20111 56016=
201706151053 METAR KBLI 151053Z AUTO 00000KT 10SM -RA OVC050 11/09 A2992 RMK AO2 SLP140 P0000 T01110094=
201706150953 METAR KBLI 150953Z AUTO 00000KT 10SM -RA OVC110 12/09 A2994 RMK AO2 SLP143 P0000 T01170094=
201706150853 METAR KBLI 150853Z AUTO 00000KT 10SM -RA SCT110 12/09 A2996 RMK AO2 SLP150 P0000 60000 T01170094 58018=
201706150753 METAR KBLI 150753Z AUTO 36003KT 10SM -RA OVC110 12/09 A2997 RMK AO2 SLP157 P0000 T01170094 401780106=
201706150653 METAR KBLI 150653Z AUTO 00000KT 10SM -RA OVC110 12/09 A3000 RMK AO2 SLP164 P0000 T01220094=
201706150553 METAR KBLI 150553Z AUTO 03003KT 10SM -RA OVC110 13/09 A3001 RMK AO2 RAB08 SLP169 P0000 60000 T01280094 10172 20128 58014=
201706150453 METAR KBLI 150453Z 03004KT 10SM FEW100 OVC110 13/09 A3003 RMK AO2 SLP174 T01330094=
201706150353 METAR KBLI 150353Z 02003KT 10SM SCT080 OVC100 14/09 A3004 RMK AO2 SLP180 T01440089=
201706150253 METAR KBLI 150253Z 01004KT 10SM BKN070 OVC110 16/09 A3005 RMK AO2 SLP183 T01560094 56010=
201706150153 METAR KBLI 150153Z 00000KT 10SM BKN070 OVC110 17/08 A3006 RMK AO2 SLP184 T01670078=
201706150053 METAR KBLI 150053Z VRB03KT 10SM SCT045 BKN070 17/07 A3007 RMK AO2 SLP189 T01720072=
201706142353 METAR KBLI 142353Z 00000KT 10SM FEW025 SCT045 OVC080 17/06 A3008 RMK AO2 SLP192 T01670061 10178 20139 56003=
201706142253 METAR KBLI 142253Z VRB05KT 10SM OVC080 17/06 A3009 RMK AO2 SLP194 T01670061=
201706142153 METAR KBLI 142153Z VRB06KT 10SM BKN040 OVC070 17/08 A3008 RMK AO2 SLP193 T01720078=
201706142053 METAR KBLI 142053Z VRB06KT 10SM FEW035 SCT065 17/09 A3009 RMK AO2 SLP195 T01720094 58000=
201706141953 METAR KBLI 141953Z 17004KT 10SM SCT035 BKN055 14/09 A3010 RMK AO2 SLP198 T01440089=
201706141853 METAR KBLI 141853Z 15008KT 10SM SCT035 BKN070 15/09 A3009 RMK AO2 SLP196 T01500089=
201706141753 METAR KBLI 141753Z VRB03KT 10SM FEW018 OVC065 13/09 A3009 RMK AO2 SLP197 60001 T01330089 10139 20106 51001=
201706141653 METAR KBLI 141653Z VRB05KT 10SM FEW026 OVC055 13/08 A3009 RMK AO2 SLP196 T01330083=
201706141553 METAR KBLI 141553Z 18004KT 10SM OVC055 12/08 A3009 RMK AO2 RAE51 SLP197 P0000 T01220083=
201706141453 METAR KBLI 141453Z 00000KT 10SM -RA SCT045 12/09 A3009 RMK AO2 SLP195 P0000 60001 T01170089 51002=
201706141358 SPECI KBLI 141358Z 12004KT 10SM -RA SCT045 12/08 A3009 RMK AO2 P0000 T01170083=
201706141353 METAR KBLI 141353Z 11004KT 10SM -RA OVC045 12/09 A3009 RMK AO2 SLP195 P0000 T01170089=
201706141253 METAR KBLI 141253Z AUTO 09003KT 10SM -RA OVC036 11/08 A3009 RMK AO2 SLP195 P0001 T01060083=
201706141153 METAR KBLI 141153Z AUTO 18006KT 10SM -RA FEW035 OVC046 12/08 A3008 RMK AO2 SLP192 P0000 60000 T01170078 10139 20117 53002=
201706141053 METAR KBLI 141053Z AUTO 17007KT 10SM -RA OVC050 12/08 A3007 RMK AO2 SLP189 P0000 T01220078=
201706140953 METAR KBLI 140953Z AUTO VRB03KT 10SM -RA OVC050 13/07 A3007 RMK AO2 SLP189 P0000 T01280067=
201706140853 METAR KBLI 140853Z AUTO 17007KT 10SM -RA OVC055 13/07 A3008 RMK AO2 SLP190 P0000 60000 T01280072 53003=
201706140753 METAR KBLI 140753Z AUTO VRB05KT 10SM -RA OVC065 13/07 A3007 RMK AO2 SLP189 P0000 T01330067 401780111=
201706140653 METAR KBLI 140653Z AUTO 16008KT 10SM -RA OVC055 14/07 A3007 RMK AO2 SLP188 P0000 T01390067=
201706140553 METAR KBLI 140553Z AUTO 17007KT 10SM -RA OVC060 14/07 A3007 RMK AO2 RAB27 SLP187 P0000 60000 T01390072 10167 20139 52002=
201706140453 METAR KBLI 140453Z 16007KT 10SM BKN060 14/07 A3007 RMK AO2 SLP188 T01440072=
201706140353 METAR KBLI 140353Z 15008KT 10SM SCT060 BKN075 14/08 A3006 RMK AO2 SLP185 T01440078=
201706140253 METAR KBLI 140253Z 16009KT 10SM SCT055 BKN075 15/07 A3006 RMK AO2 SLP185 T01500067 56003=
201706140153 METAR KBLI 140153Z 17008G16KT 10SM SCT050 BKN070 16/07 A3006 RMK AO2 SLP187 T01560067=
201706140053 METAR KBLI 140053Z 16008KT 10SM SCT070 16/08 A3007 RMK AO2 SLP188 T01610078=
201706132353 METAR KBLI 132353Z 18008KT 150V220 10SM FEW060 17/07 A3007 RMK AO2 SLP189 T01670072 10178 20150 58002=
201706132253 METAR KBLI 132253Z 17008KT 150V210 10SM SCT049 17/08 A3008 RMK AO2 SLP190 T01720078=
201706132153 METAR KBLI 132153Z 15011KT 10SM OVC080 18/06 A3008 RMK AO2 SLP191 T01780061=
201706132053 METAR KBLI 132053Z 17010G17KT 10SM BKN075 17/07 A3008 RMK AO2 SLP191 T01720067 58001=
201706131953 METAR KBLI 131953Z 17012KT 10SM SCT050 OVC070 16/08 A3008 RMK AO2 SLP191 T01610078=
201706131853 METAR KBLI 131853Z 17012KT 10SM BKN065 BKN080 16/08 A3008 RMK AO2 SLP193 T01610083=
201706131753 METAR KBLI 131753Z 16011G17KT 10SM FEW020 15/09 A3008 RMK AO2 SLP192 T01500089 10156 20111 58001=
201706131653 METAR KBLI 131653Z 16011G18KT 130V190 10SM FEW018 SCT060 14/08 A3008 RMK AO2 SLP193 T01440083=
201706131553 METAR KBLI 131553Z 15012KT 10SM FEW018 SCT045 14/08 A3008 RMK AO2 SLP193 T01390078=
201706131453 METAR KBLI 131453Z 16011G17KT 10SM FEW018 SCT075 13/08 A3008 RMK AO2 SLP193 T01330078 53005=
201706131353 METAR KBLI 131353Z 16009KT 10SM FEW018 SCT040 12/08 A3008 RMK AO2 SLP192 T01170078=
201706131301 SPECI KBLI 131301Z AUTO 15008KT 10SM SCT018 12/08 A3007 RMK AO2 T01170078=
201706131253 METAR KBLI 131253Z AUTO 15009KT 10SM BKN018 12/08 A3007 RMK AO2 SLP189 T01170078=
201706131211 SPECI KBLI 131211Z AUTO 16008KT 10SM BKN019 BKN038 OVC080 12/08 A3007 RMK AO2 T01170078=
201706131153 METAR KBLI 131153Z AUTO 16008KT 10SM FEW018 SCT037 BKN080 12/08 A3007 RMK AO2 SLP188 T01170078 10133 20117 51008=
201706131053 METAR KBLI 131053Z AUTO 16009G17KT 10SM OVC035 12/08 A3006 RMK AO2 SLP186 T01170078=
201706130953 METAR KBLI 130953Z AUTO 16010G15KT 10SM OVC037 12/08 A3006 RMK AO2 SLP184 T01220078=
201706130853 METAR KBLI 130853Z AUTO 15011KT 10SM OVC039 13/07 A3004 RMK AO2 SLP180 T01280072 53002=
201706130753 METAR KBLI 130753Z AUTO 16009KT 10SM OVC033 13/07 A3004 RMK AO2 SLP178 T01280072 401830117=
201706130653 METAR KBLI 130653Z AUTO 16008KT 10SM BKN035 13/07 A3004 RMK AO2 SLP177 T01330067=
201706130553 METAR KBLI 130553Z AUTO 17009KT 10SM CLR 13/07 A3004 RMK AO2 SLP178 T01280072 10178 20128 53013=
201706130453 METAR KBLI 130453Z 15014G19KT 10SM CLR 13/07 A3003 RMK AO2 SLP175 T01330072=
201706130353 METAR KBLI 130353Z 16011G18KT 10SM CLR 14/07 A3000 RMK AO2 SLP167 T01390072=
201706130253 METAR KBLI 130253Z 15012G22KT 10SM SCT060 16/08 A3000 RMK AO2 SLP165 T01560078 53004=
201706130153 METAR KBLI 130153Z 15014G20KT 10SM SCT060 16/09 A2999 RMK AO2 SLP162 T01610094=
201706130053 METAR KBLI 130053Z 16012G20KT 10SM CLR 17/10 A2999 RMK AO2 SLP161 T01720100=
201706122353 METAR KBLI 122353Z 17014G20KT 10SM SCT060 18/11 A2999 RMK AO2 SLP160 T01780106 10183 20144 56001=
201706122253 METAR KBLI 122253Z 17010G20KT 10SM SCT060 18/11 A2999 RMK AO2 SLP160 T01780106=
201706122153 METAR KBLI 122153Z 17009G17KT 10SM BKN070 17/11 A2998 RMK AO2 SLP158 T01720106=
201706122053 METAR KBLI 122053Z 17011G17KT 10SM SCT048 OVC070 17/10 A2999 RMK AO2 SLP162 T01720100 51003=
201706121953 METAR KBLI 121953Z 16013G22KT 10SM FEW045 BKN070 17/11 A2999 RMK AO2 SLP161 T01670106=
201706121853 METAR KBLI 121853Z 16012KT 10SM OVC070 16/11 A2999 RMK AO2 SLP162 T01560106=
201706121753 METAR KBLI 121753Z 17009KT 10SM OVC070 14/11 A2998 RMK AO2 SLP160 T01440106 10150 20128 50000=
201706121653 METAR KBLI 121653Z 17009KT 10SM FEW020 SCT047 OVC060 14/11 A2999 RMK AO2 SLP162 T01390106=
201706121553 METAR KBLI 121553Z 18007KT 10SM SCT027 OVC055 13/11 A2999 RMK AO2 SLP160 T01330106=
201706121453 METAR KBLI 121453Z 17007KT 10SM BKN023 OVC050 13/10 A2998 RMK AO2 SLP159 T01280100 51008=
201706121355 SPECI KBLI 121355Z 18007KT 10SM BKN023 OVC050 13/10 A2998 RMK AO2 T01330100=
201706121353 METAR KBLI 121353Z 18008KT 10SM OVC023 13/10 A2998 RMK AO2 SLP158 T01330100=
201706121338 SPECI KBLI 121338Z AUTO 18006KT 10SM BKN022 OVC047 13/10 A2998 RMK AO2 T01280100=
201706121253 METAR KBLI 121253Z AUTO 17006KT 10SM OVC043 13/11 A2996 RMK AO2 SLP152 T01330106=
201706121153 METAR KBLI 121153Z AUTO 16008KT 10SM OVC055 13/10 A2996 RMK AO2 SLP150 T01330100 10139 20117 55001=
201706121053 METAR KBLI 121053Z AUTO 17006KT 10SM BKN050 OVC065 13/11 A2995 RMK AO2 SLP148 T01330111=
201706120953 METAR KBLI 120953Z AUTO 00000KT 10SM OVC055 13/11 A2995 RMK AO2 SLP149 T01280111=
201706120853 METAR KBLI 120853Z AUTO 00000KT 10SM BKN070 12/10 A2996 RMK AO2 SLP151 T01220100 56004=
201706120753 METAR KBLI 120753Z AUTO 00000KT 10SM BKN070 12/11 A2996 RMK AO2 SLP152 T01170106 402110106=
201706120653 METAR KBLI 120653Z AUTO 00000KT 10SM CLR 12/11 A2996 RMK AO2 SLP152 T01170106=
201706120553 METAR KBLI 120553Z AUTO 00000KT 10SM CLR 13/11 A2997 RMK AO2 SLP156 T01280106 10211 20128 55000=
201706120453 METAR KBLI 120453Z 16005KT 10SM CLR 13/09 A2997 RMK AO2 SLP156 T01330094=
201706120353 METAR KBLI 120353Z 26003KT 10SM CLR 16/09 A2997 RMK AO2 SLP154 T01610094=
201706120253 METAR KBLI 120253Z 28005KT 10SM CLR 19/08 A2997 RMK AO2 SLP156 T01890078 55005=
201706120153 METAR KBLI 120153Z 29004KT 10SM CLR 21/08 A2997 RMK AO2 SLP154 T02060078=
201706120053 METAR KBLI 120053Z VRB04KT 10SM CLR 20/08 A2998 RMK AO2 SLP157 T02000078=
201706112353 METAR KBLI 112353Z 26005KT 10SM CLR 21/08 A2999 RMK AO2 SLP161 T02060083 10206 20156 58011=
201706112253 METAR KBLI 112253Z VRB03KT 10SM CLR 19/08 A3000 RMK AO2 SLP165 T01940083=
201706112153 METAR KBLI 112153Z 10SM SCT028 19/11 A3001 RMK AO2 SLP169 T01940106=
201706112053 METAR KBLI 112053Z 17008KT 10SM FEW023 18/12 A3002 RMK AO2 SLP172 T01830122 58005=
201706111953 METAR KBLI 111953Z 27006KT 10SM FEW023 BKN060 17/11 A3003 RMK AO2 SLP174 T01720111=
201706111853 METAR KBLI 111853Z VRB04KT 10SM OVC060 17/11 A3003 RMK AO2 SLP176 T01670111=
201706111753 METAR KBLI 111753Z VRB06KT 10SM CLR 16/11 A3004 RMK AO2 SLP177 T01560106 10156 20111 50006=
201706111653 METAR KBLI 111653Z 16010G15KT 10SM FEW020 SCT040 BKN060 15/11 A3004 RMK AO2 SLP177 T01500111=
201706111554 SPECI KBLI 111554Z 18007KT 10SM FEW020 SCT040 OVC055 13/11 A3003 RMK AO2 T01330106=
201706111553 METAR KBLI 111553Z 17007KT 10SM FEW020 BKN040 OVC055 13/11 A3003 RMK AO2 SLP175 T01330106=
201706111453 METAR KBLI 111453Z 17009KT 10SM FEW040 SCT060 13/10 A3002 RMK AO2 SLP171 T01280100 53012=
201706111353 METAR KBLI 111353Z 16010KT 10SM FEW060 13/11 A3000 RMK AO2 SLP165 T01280106=
201706111253 METAR KBLI 111253Z AUTO 17003KT 10SM BKN060 BKN100 12/10 A3000 RMK AO2 SLP164 T01170100=
201706111153 METAR KBLI 111153Z AUTO 18004KT 10SM OVC110 11/09 A2998 RMK AO2 SLP159 T01060094 10144 20106 53014=
201706111053 METAR KBLI 111053Z AUTO 16003KT 10SM SCT085 11/09 A2996 RMK AO2 SLP152 T01110094=
201706110953 METAR KBLI 110953Z AUTO 18007KT 10SM BKN090 13/09 A2995 RMK AO2 SLP149 T01280094=
201706110853 METAR KBLI 110853Z AUTO 17008KT 10SM BKN050 BKN090 13/09 A2994 RMK AO2 SLP145 T01330089 53012=
201706110753 METAR KBLI 110753Z AUTO 17006KT 10SM BKN075 14/09 A2993 RMK AO2 SLP141 T01390094 401780111=
201706110653 METAR KBLI 110653Z AUTO 17004KT 10SM OVC085 14/10 A2992 RMK AO2 SLP136 T01440100=
201706110553 METAR KBLI 110553Z AUTO 15003KT 10SM CLR 14/09 A2991 RMK AO2 SLP134 T01390089 10178 20139 51012=
201706110453 METAR KBLI 110453Z 16005KT 10SM BKN065 OVC080 15/09 A2990 RMK AO2 SLP131 T01500089=
201706110353 METAR KBLI 110353Z 18005KT 10SM BKN075 15/09 A2988 RMK AO2 SLP126 T01500094=
201706110253 METAR KBLI 110253Z 17006KT 10SM CLR 16/11 A2987 RMK AO2 SLP123 T01560106 53008=
201706110153 METAR KBLI 110153Z 17006KT 10SM CLR 17/09 A2987 RMK AO2 SLP119 T01670094=
201706110053 METAR KBLI 110053Z 17007KT 10SM CLR 17/09 A2986 RMK AO2 SLP115 T01720094=
201706102353 METAR KBLI 102353Z 15009KT 10SM FEW070 SCT080 18/10 A2985 RMK AO2 SLP113 T01780100 10178 20139 50000=
201706102253 METAR KBLI 102253Z VRB05KT 10SM CLR 17/09 A2985 RMK AO2 SLP114 T01720094=
201706102153 METAR KBLI 102153Z 16006KT 10SM CLR 17/09 A2985 RMK AO2 SLP114 T01670094=
201706102053 METAR KBLI 102053Z 16009KT 10SM CLR 16/09 A2985 RMK AO2 SLP113 T01610089 58001=
201706101953 METAR KBLI 101953Z 16009G15KT 10SM SCT065 15/09 A2985 RMK AO2 SLP113 T01500089=
201706101853 METAR KBLI 101853Z 18011KT 10SM FEW060 14/08 A2986 RMK AO2 SLP116 T01440083=
201706101753 METAR KBLI 101753Z 16012G15KT 10SM SCT017 14/09 A2985 RMK AO2 SLP115 60000 T01390089 10144 20111 53003=
201706101653 METAR KBLI 101653Z 18010G17KT 10SM FEW017 SCT023 BKN065 14/09 A2985 RMK AO2 SLP114 T01390094=
201706101553 METAR KBLI 101553Z 17009KT 10SM BKN023 BKN060 13/09 A2984 RMK AO2 SLP112 T01280089=
201706101453 METAR KBLI 101453Z 16009KT 10SM BKN021 BKN035 12/09 A2984 RMK AO2 SLP111 60000 T01220089 51004=
201706101353 METAR KBLI 101353Z 15005KT 10SM BKN020 OVC034 12/08 A2984 RMK AO2 RAE50 SLP110 P0000 T01170083=
201706101301 SPECI KBLI 101301Z AUTO 12004KT 10SM -RA BKN021 OVC049 12/08 A2984 RMK AO2 P0000 T01170083=
201706101253 METAR KBLI 101253Z AUTO 00000KT 10SM -RA SCT020 OVC050 12/08 A2984 RMK AO2 SLP110 P0000 T01170083=
201706101153 METAR KBLI 101153Z AUTO 15007KT 10SM -RA FEW075 OVC100 12/08 A2983 RMK AO2 SLP107 P0000 60000 7//// T01170083 10139 20117 55000=
201706101053 METAR KBLI 101053Z AUTO 15009KT 10SM -RA FEW048 SCT065 BKN100 12/08 A2983 RMK AO2 SLP106 P0000 T01220083=
201706100953 METAR KBLI 100953Z AUTO 15007KT 10SM -RA SCT065 OVC090 12/08 A2983 RMK AO2 SLP108 P0000 T01220083=
201706100853 METAR KBLI 100853Z AUTO 15008KT 10SM -RA SCT070 OVC090 13/08 A2983 RMK AO2 SLP108 P0000 60000 T01280078 51002=
201706100753 METAR KBLI 100753Z AUTO 15010KT 10SM -RA OVC085 13/08 A2983 RMK AO2 SLP107 P0000 T01330078 401830100=
201706100653 METAR KBLI 100653Z AUTO 16006KT 10SM -RA FEW045 BKN055 OVC080 14/08 A2983 RMK AO2 SLP106 P0000 T01390078=
201706100553 METAR KBLI 100553Z AUTO 16005KT 10SM -RA SCT050 12/09 A2982 RMK AO2 RAB08 SLP106 P0000 60000 T01220094 10178 20106 53009=
201706100453 METAR KBLI 100453Z 00000KT 10SM FEW045 12/09 A2981 RMK AO2 SLP101 T01220089=
201706100353 METAR KBLI 100353Z 00000KT 10SM BKN065 13/09 A2980 RMK AO2 SLP097 T01330094=
201706100253 METAR KBLI 100253Z VRB04KT 10SM FEW070 16/08 A2980 RMK AO2 LTG DSNT NE SLP096 T01610078 55002=
201706100153 METAR KBLI 100153Z 18003KT 10SM CLR 17/07 A2980 RMK AO2 LTG DSNT SE SLP095 T01720072=
201706100053 METAR KBLI 100053Z 17005KT 10SM CLR 18/07 A2980 RMK AO2 SLP095 T01780072=
201706092353 METAR KBLI 092353Z VRB05KT 10SM CLR 18/07 A2980 RMK AO2 SLP098 6//// T01780067 10183 20139 56016=
201706092253 METAR KBLI 092253Z 19007KT 10SM SCT055 18/08 A2981 RMK AO2 SLP100 T01780078=
201706092153 METAR KBLI 092153Z VRB05KT 10SM CLR 17/07 A2983 RMK AO2 SLP106 T01720072=
201706092053 METAR KBLI 092053Z VRB05KT 10SM OVC070 17/07 A2985 RMK AO2 SLP114 6//// T01670072 58012=
201706091953 METAR KBLI 091953Z AUTO 22004KT 10SM BKN060 BKN110 16/07 A2986 RMK AO2 SLP119 T01560072=
201706091853 METAR KBLI 091853Z AUTO 18006KT 10SM OVC065 15/08 A2987 RMK AO2 SLP123 T01500083=
201706091753 METAR KBLI 091753Z 16010G17KT 10SM SCT035 16/08 A2988 RMK AO2 RAB20E51 SLP126 6//// T01560083 10156 20100 58003 PNO $=
201706091653 METAR KBLI 091653Z 15006KT 10SM FEW020 BKN065 14/09 A2989 RMK AO2 SLP129 T01440094=
201706091553 METAR KBLI 091553Z 14004KT 10SM FEW020 OVC065 13/09 A2989 RMK AO2 SLP129 T01280089=
201706091453 METAR KBLI 091453Z 12004KT 10SM FEW024 OVC060 12/09 A2989 RMK AO2 RAE1354 SLP129 P0000 60000 T01220089 56006=
201706091353 METAR KBLI 091353Z 00000KT 10SM -RA FEW037 SCT047 OVC060 11/10 A2990 RMK AO2 SLP131 P0000 T01110100=
201706091253 METAR KBLI 091253Z AUTO 18004KT 10SM -RA BKN041 OVC048 11/09 A2990 RMK AO2 RAB26 SLP131 P0000 T01060094=
201706091153 METAR KBLI 091153Z AUTO 00000KT 10SM SCT047 BKN060 10/09 A2991 RMK AO2 SLP135 60003 70045 T01000094 10122 20100 58007=
201706091105 SPECI KBLI 091105Z AUTO 14004KT 10SM SCT009 OVC060 11/10 A2991 RMK AO2 T01060100=
201706091053 METAR KBLI 091053Z AUTO 17003KT 10SM OVC060 11/10 A2992 RMK AO2 SLP139 T01060100=
201706090953 METAR KBLI 090953Z AUTO 00000KT 10SM BKN050 OVC060 11/10 A2993 RMK AO2 SLP142 T01060100=
201706090853 METAR KBLI 090853Z AUTO 11004KT 10SM BKN050 OVC065 11/10 A2993 RMK AO2 RAE33 SLP142 P0002 60003 T01110100 53003=
201706090753 METAR KBLI 090753Z AUTO 12006KT 10SM -RA OVC055 11/10 A2992 RMK AO2 RAB06 SLP140 P0001 T01110100 401720111=
201706090653 METAR KBLI 090653Z AUTO 13006KT 10SM OVC050 12/11 A2992 RMK AO2 RAE0554B16E25 SLP137 P0000 T01170106=
201706090553 METAR KBLI 090553Z AUTO 18005KT 10SM -RA OVC055 12/11 A2992 RMK AO2 RAB26 SLP138 P0000 60005 T01170111 10139 20111 53006=
201706090453 METAR KBLI 090453Z 16003KT 10SM OVC050 12/11 A2991 RMK AO2 SLP137 T01170111=
201706090353 METAR KBLI 090353Z 14005KT 10SM OVC055 12/11 A2991 RMK AO2 RAB00E10 SLP134 P0000 T01220106=
201706090253 METAR KBLI 090253Z 13006KT 10SM OVC050 12/11 A2990 RMK AO2 RAE53 SLP133 P0001 60005 T01170106 51022=
201706090153 METAR KBLI 090153Z 12008KT 6SM -RA BR OVC050 13/11 A2989 RMK AO2 SLP127 P0004 T01280111=
201706090053 METAR KBLI 090053Z 15008KT 6SM -RA BR SCT015 BKN026 OVC055 13/12 A2987 RMK AO2 SLP121 P0000 T01330117=
201706082353 METAR KBLI 082353Z 17007KT 10SM -RA SCT015 BKN040 OVC050 14/13 A2984 RMK AO2 SLP111 P0002 60015 T01390128 10172 20133 51039=
201706082253 METAR KBLI 082253Z 16010KT 7SM -RA SCT017 BKN030 OVC050 14/13 A2981 RMK AO2 SLP102 P0005 T01390128=
201706082153 METAR KBLI 082153Z 17009KT 5SM -RA BR SCT020 BKN050 OVC060 14/13 A2976 RMK AO2 SLP085 P0005 T01390128=
201706082053 METAR KBLI 082053Z 17010G22KT 3SM -RA BR SCT013 BKN019 OVC032 14/13 A2972 RMK AO2 SLP071 P0003 60003 T01440133 53030=
201706081953 METAR KBLI 081953Z 16016G24KT 6SM -RA SCT012 BKN024 OVC029 16/13 A2969 RMK AO2 SLP060 P0000 T01560128=
201706081853 METAR KBLI 081853Z 16007G20KT 10SM -RA SCT014 BKN027 OVC070 17/14 A2965 RMK AO2 RAE08B29 SLP047 P0000 T01720139=
201706081753 METAR KBLI 081753Z 12006KT 7SM -RA FEW004 BKN022 OVC090 17/14 A2964 RMK AO2 SLP041 P0002 60022 T01670144 10167 20122 53011=
201706081653 METAR KBLI 081653Z 17003KT 6SM -RA BR FEW004 BKN022 OVC090 13/13 A2962 RMK AO2 SLP036 CIG VSBY LWR S-W P0004 T01330133=
201706081553 METAR KBLI 081553Z 17004KT 4SM -RA BR SCT007 BKN028 OVC050 13/13 A2962 RMK AO2 SLP034 CIG VSBY LWR S-WVSBY LWR S-W P0006 T01330133=
201706081453 METAR KBLI 081453Z 00000KT 7SM -RA BKN017 OVC037 13/13 A2960 RMK AO2 SLP030 P0004 60010 T01330128 55015=
201706081435 SPECI KBLI 081435Z 00000KT 7SM -RA BKN017 OVC037 13/13 A2960 RMK AO2 P0002 T01280128=
201706081353 METAR KBLI 081353Z 00000KT 10SM -RA FEW023 OVC046 13/12 A2960 RMK AO2 SLP028 P0002 T01280122=
201706081341 SPECI KBLI 081341Z AUTO 00000KT 10SM -RA FEW018 SCT023 OVC048 13/12 A2960 RMK AO2 P0001 T01280122=
201706081253 METAR KBLI 081253Z AUTO 00000KT 8SM -RA FEW018 OVC026 12/12 A2962 RMK AO2 SLP037 P0004 T01220117=
201706081208 SPECI KBLI 081208Z AUTO 00000KT 10SM -RA BKN028 BKN080 OVC100 12/12 A2964 RMK AO2 P0001 T01220117=
201706081153 METAR KBLI 081153Z AUTO 17003KT 9SM -RA FEW027 BKN090 OVC110 12/12 A2965 RMK AO2 SLP045 P0003 60005 70005 T01220117 10172 20122 58012=
201706081053 METAR KBLI 081053Z AUTO 18005KT 8SM -RA FEW055 OVC085 13/11 A2967 RMK AO2 RAB0958 SLP052 P0002 T01280111=
201706080953 METAR KBLI 080953Z AUTO 17009KT 10SM SCT070 OVC085 15/10 A2969 RMK AO2 SLP059 T01500100=
201706080853 METAR KBLI 080853Z AUTO 18006KT 10SM OVC090 15/09 A2968 RMK AO2 RAB24E40 SLP056 P0000 60000 T01500094 58000=
201706080753 METAR KBLI 080753Z AUTO 18008KT 10SM OVC100 16/09 A2969 RMK AO2 SLP058 T01610094 402330139=
201706080653 METAR KBLI 080653Z AUTO 18007KT 10SM OVC100 17/09 A2968 RMK AO2 SLP056 T01670089=
201706080553 METAR KBLI 080553Z AUTO 17010G14KT 10SM OVC100 17/09 A2968 RMK AO2 SLP057 T01670094 10222 20167 53014=
201706080453 METAR KBLI 080453Z 16007KT 10SM SCT120 17/10 A2966 RMK AO2 SLP051 T01720100=
201706080353 METAR KBLI 080353Z 17009KT 10SM SCT120 18/08 A2965 RMK AO2 SLP045 T01780083=
201706080253 METAR KBLI 080253Z 16010KT 10SM BKN120 18/07 A2964 RMK AO2 SLP043 T01830072 55005=
201706080153 METAR KBLI 080153Z 18010KT 10SM CLR 19/09 A2964 RMK AO2 SLP041 T01890089=
201706080053 METAR KBLI 080053Z VRB04KT 10SM CLR 21/11 A2965 RMK AO2 SLP045 T02060106=
201706072353 METAR KBLI 072353Z 18005KT 10SM CLR 22/11 A2966 RMK AO2 SLP049 T02170111 10233 20194 58013=
201706072253 METAR KBLI 072253Z VRB03KT 10SM CLR 22/09 A2968 RMK AO2 SLP054 T02220089=
201706072153 METAR KBLI 072153Z 27004KT 10SM CLR 23/09 A2968 RMK AO2 SLP055 T02280089=
201706072053 METAR KBLI 072053Z VRB03KT 10SM CLR 23/12 A2970 RMK AO2 SLP060 T02280117 56028=
201706071953 METAR KBLI 071953Z 21006KT 10SM CLR 23/11 A2972 RMK AO2 SLP069 T02280111=
201706071853 METAR KBLI 071853Z 00000KT 10SM CLR 22/09 A2974 RMK AO2 SLP076 T02170094=
201706071753 METAR KBLI 071753Z 17005KT 10SM CLR 19/07 A2978 RMK AO2 SLP089 T01940067 10194 20139 56018=
201706071653 METAR KBLI 071653Z VRB04KT 10SM CLR 19/08 A2979 RMK AO2 SLP092 T01890083=
201706071553 METAR KBLI 071553Z 16007KT 10SM CLR 17/08 A2982 RMK AO2 SLP102 T01670083=
201706071453 METAR KBLI 071453Z 18004KT 10SM CLR 15/08 A2983 RMK AO2 SLP107 T01500083 56010=
201706071353 METAR KBLI 071353Z 19004KT 10SM CLR 14/07 A2983 RMK AO2 SLP107 T01440072=
201706071253 METAR KBLI 071253Z AUTO 00000KT 10SM CLR 15/06 A2985 RMK AO2 SLP114 T01500056=
201706071153 METAR KBLI 071153Z AUTO 16006KT 10SM CLR 15/07 A2986 RMK AO2 SLP117 T01500072 10172 20144 58005=
201706071053 METAR KBLI 071053Z AUTO 17007KT 10SM CLR 14/09 A2986 RMK AO2 SLP118 T01440089=
201706070953 METAR KBLI 070953Z AUTO 18006KT 10SM CLR 15/10 A2987 RMK AO2 SLP121 T01500100=
201706070853 METAR KBLI 070853Z AUTO 19006KT 10SM FEW120 15/11 A2988 RMK AO2 SLP122 T01500106 50003=
201706070753 METAR KBLI 070753Z AUTO 17007KT 10SM OVC110 16/10 A2988 RMK AO2 SLP122 T01560100 402560094=
201706070653 METAR KBLI 070653Z AUTO 18007KT 10SM BKN120 17/11 A2987 RMK AO2 SLP120 T01670106=
201706070553 METAR KBLI 070553Z AUTO 17008KT 10SM CLR 17/12 A2987 RMK AO2 SLP119 T01720117 10256 20172 50005=
201706070453 METAR KBLI 070453Z 18005KT 10SM CLR 19/11 A2987 RMK AO2 SLP119 T01890106=
201706070353 METAR KBLI 070353Z 18008KT 10SM CLR 19/11 A2986 RMK AO2 SLP118 T01890111=
201706070253 METAR KBLI 070253Z 17003KT 10SM CLR 22/09 A2985 RMK AO2 SLP113 T02170094 55007=
201706070153 METAR KBLI 070153Z 27004KT 10SM CLR 24/10 A2985 RMK AO2 SLP111 T02440100=
201706070053 METAR KBLI 070053Z 27007KT 10SM CLR 24/12 A2986 RMK AO2 SLP115 T02440117=
201706062353 METAR KBLI 062353Z 27007KT 10SM CLR 26/12 A2987 RMK AO2 SLP121 T02560122 10256 20217 56013=
201706062253 METAR KBLI 062253Z 26006KT 10SM CLR 25/13 A2988 RMK AO2 SLP124 T02500128=
201706062153 METAR KBLI 062153Z 28008KT 10SM CLR 24/13 A2990 RMK AO2 SLP130 T02390128=
201706062053 METAR KBLI 062053Z 26007KT 10SM CLR 24/14 A2991 RMK AO2 SLP134 T02440139 58018=
201706061953 METAR KBLI 061953Z 27004KT 10SM CLR 24/11 A2993 RMK AO2 SLP140 T02390111=
201706061853 METAR KBLI 061853Z VRB05KT 10SM CLR 22/12 A2995 RMK AO2 SLP148 T02220122=
201706061753 METAR KBLI 061753Z 02005KT 10SM CLR 22/10 A2997 RMK AO2 SLP153 T02170100 10217 20094 58013=
201706061653 METAR KBLI 061653Z 03006KT 10SM CLR 19/10 A2998 RMK AO2 SLP159 T01940100=
201706061553 METAR KBLI 061553Z 00000KT 10SM CLR 18/10 A3000 RMK AO2 SLP163 T01780100=
201706061453 METAR KBLI 061453Z 00000KT 10SM CLR 16/10 A3000 RMK AO2 SLP166 T01560100 55005=
201706061353 METAR KBLI 061353Z AUTO 00000KT 10SM CLR 14/12 A3000 RMK AO2 SLP166 T01390117=
201706061253 METAR KBLI 061253Z AUTO 00000KT 10SM CLR 09/09 A3001 RMK AO2 SLP169 T00940089=
201706061153 METAR KBLI 061153Z AUTO 00000KT 10SM CLR 10/09 A3002 RMK AO2 SLP172 T01000094 10133 20100 56007=
201706061053 METAR KBLI 061053Z AUTO 00000KT 10SM CLR 12/10 A3002 RMK AO2 SLP173 T01170100=
201706060953 METAR KBLI 060953Z AUTO 00000KT 10SM CLR 11/10 A3003 RMK AO2 SLP176 T01110100=
201706060853 METAR KBLI 060853Z AUTO 00000KT 10SM CLR 13/11 A3004 RMK AO2 SLP179 T01280106 58006=
201706060753 METAR KBLI 060753Z AUTO 18003KT 10SM CLR 13/10 A3005 RMK AO2 SLP182 T01330100 402170056=
201706060653 METAR KBLI 060653Z AUTO 00000KT 10SM CLR 12/08 A3005 RMK AO2 SLP183 T01220083=
201706060553 METAR KBLI 060553Z AUTO 00000KT 10SM CLR 13/09 A3006 RMK AO2 SLP185 T01280094 10211 20128 51002=
201706060453 METAR KBLI 060453Z 00000KT 10SM CLR 14/08 A3006 RMK AO2 SLP185 T01390078=
201706060353 METAR KBLI 060353Z 00000KT 10SM CLR 14/09 A3006 RMK AO2 SLP184 T01440089=
201706060253 METAR KBLI 060253Z 27003KT 10SM CLR 18/07 A3006 RMK AO2 SLP183 T01830067 56006=
201706060153 METAR KBLI 060153Z 26005KT 10SM CLR 19/07 A3006 RMK AO2 SLP185 T01940067=
201706060053 METAR KBLI 060053Z VRB04KT 10SM CLR 21/07 A3007 RMK AO2 SLP188 T02060067=
201706052353 METAR KBLI 052353Z 25006KT 10SM CLR 21/08 A3007 RMK AO2 SLP191 T02060078 10217 20161 58020=
201706052253 METAR KBLI 052253Z 28006KT 10SM CLR 21/08 A3009 RMK AO2 SLP196 T02110078=
201706052153 METAR KBLI 052153Z VRB05KT 10SM CLR 20/08 A3012 RMK AO2 SLP205 T02000078=
201706052053 METAR KBLI 052053Z 27006KT 10SM CLR 19/08 A3013 RMK AO2 SLP211 T01890078 56016=
201706051953 METAR KBLI 051953Z 31006KT 10SM CLR 19/08 A3014 RMK AO2 SLP213 T01890078=
201706051853 METAR KBLI 051853Z 16005KT 10SM CLR 17/08 A3016 RMK AO2 SLP220 T01720078=
201706051753 METAR KBLI 051753Z 13005KT 10SM CLR 17/09 A3018 RMK AO2 SLP225 T01720089 10172 20056 58008=
201706051653 METAR KBLI 051653Z 00000KT 10SM CLR 15/04 A3019 RMK AO2 SLP230 T01500044=
201706051553 METAR KBLI 051553Z 00000KT 10SM CLR 14/06 A3020 RMK AO2 SLP232 T01440056=
201706051453 METAR KBLI 051453Z 00000KT 10SM CLR 12/07 A3020 RMK AO2 SLP235 T01220067 53004=
201706051353 METAR KBLI 051353Z 01003KT 10SM CLR 10/06 A3019 RMK AO2 SLP232 T01000061=
201706051253 METAR KBLI 051253Z AUTO 00000KT 10SM CLR 07/06 A3020 RMK AO2 SLP232 T00670056=
201706051153 METAR KBLI 051153Z AUTO 00000KT 10SM CLR 07/06 A3019 RMK AO2 SLP231 T00670056 10117 20067 51004=
201706051053 METAR KBLI 051053Z AUTO 15003KT 10SM CLR 10/07 A3019 RMK AO2 SLP230 T01000067=
201706050953 METAR KBLI 050953Z AUTO 16003KT 10SM CLR 09/06 A3019 RMK AO2 SLP230 T00940056=
201706050853 METAR KBLI 050853Z AUTO 18003KT 10SM CLR 09/05 A3018 RMK AO2 SLP227 T00890050 51008=
201706050753 METAR KBLI 050753Z AUTO 16004KT 10SM CLR 11/04 A3017 RMK AO2 SLP223 T01060044 401720100=
201706050653 METAR KBLI 050653Z AUTO 15004KT 10SM CLR 11/05 A3017 RMK AO2 SLP222 T01060050=
201706050553 METAR KBLI 050553Z AUTO 16005KT 10SM CLR 12/05 A3015 RMK AO2 SLP218 T01170050 10172 20117 53008=
201706050453 METAR KBLI 050453Z 16005KT 10SM CLR 13/06 A3015 RMK AO2 SLP216 T01280056=
201706050353 METAR KBLI 050353Z 17007KT 10SM CLR 13/06 A3014 RMK AO2 SLP212 T01330061=
201706050253 METAR KBLI 050253Z 16008KT 10SM CLR 16/03 A3013 RMK AO2 SLP210 T01560028 51005=
201706050153 METAR KBLI 050153Z 16007KT 10SM CLR 16/04 A3013 RMK AO2 SLP209 T01610039=
201706050053 METAR KBLI 050053Z 16010KT 10SM CLR 17/05 A3012 RMK AO2 SLP207 T01670050=
201706042353 METAR KBLI 042353Z 16013KT 10SM CLR 17/04 A3012 RMK AO2 SLP204 T01670044 10172 20144 52001=
201706042253 METAR KBLI 042253Z 16010G16KT 10SM CLR 17/01 A3011 RMK AO2 SLP203 T01720011=
201706042153 METAR KBLI 042153Z 18008G16KT 10SM CLR 17/04 A3011 RMK AO2 SLP203 T01670039=
201706042053 METAR KBLI 042053Z 17010KT 10SM CLR 17/06 A3011 RMK AO2 SLP203 T01670061 50005=
201706041953 METAR KBLI 041953Z 15012G18KT 10SM CLR 16/05 A3012 RMK AO2 SLP205 T01560050=
201706041853 METAR KBLI 041853Z 17011G17KT 10SM CLR 15/06 A3010 RMK AO2 SLP201 T01500056=
201706041753 METAR KBLI 041753Z 16014G19KT 10SM SCT080 14/07 A3010 RMK AO2 SLP198 T01440072 10150 20111 51010=
201706041653 METAR KBLI 041653Z 17008KT 10SM OVC070 13/07 A3009 RMK AO2 SLP197 T01330067=
201706041553 METAR KBLI 041553Z 17007KT 10SM OVC065 13/07 A3008 RMK AO2 SLP194 T01280072=
201706041453 METAR KBLI 041453Z 16007KT 10SM BKN070 OVC080 12/08 A3007 RMK AO2 SLP188 T01220078 52013=
201706041353 METAR KBLI 041353Z 16005KT 10SM FEW060 OVC080 12/08 A3005 RMK AO2 SLP183 T01170083=
201706041253 METAR KBLI 041253Z 17010KT 10SM OVC075 11/08 A3004 RMK AO2 SLP180 T01110083=
201706041153 METAR KBLI 041153Z 18005KT 10SM OVC075 12/08 A3003 RMK AO2 SLP175 T01170083 10133 20100 53005=
201706041053 METAR KBLI 041053Z 17006KT 10SM OVC070 12/08 A3002 RMK AO2 SLP171 T01170083=
201706040953 METAR KBLI 040953Z 17008KT 10SM OVC070 12/08 A3001 RMK AO2 SLP171 T01170078=
201706040853 METAR KBLI 040853Z 16003KT 10SM OVC070 11/07 A3001 RMK AO2 SLP170 T01110072 55003=
201706040753 METAR KBLI 040753Z 00000KT 10SM CLR 10/06 A3001 RMK AO2 SLP170 T01000056 401610100=
201706040653 METAR KBLI 040653Z 16005KT 10SM CLR 12/06 A3002 RMK AO2 SLP173 T01220056=
201706040553 METAR KBLI 040553Z 16006KT 10SM CLR 13/07 A3002 RMK AO2 SLP174 T01330072 10161 20128 53001=
201706040453 METAR KBLI 040453Z 17007KT 10SM BKN075 13/07 A3002 RMK AO2 SLP172 T01330067=
201706040353 METAR KBLI 040353Z 17006KT 10SM CLR 14/07 A3001 RMK AO2 SLP170 T01390067=
201706040253 METAR KBLI 040253Z 17007KT 10SM CLR 15/07 A3002 RMK AO2 SLP171 T01500072 55011=
201706040153 METAR KBLI 040153Z 18007KT 10SM CLR 15/07 A3002 RMK AO2 SLP171 T01500072=
201706040053 METAR KBLI 040053Z VRB05KT 10SM FEW060 16/08 A3003 RMK AO2 SLP176 T01560083=
201706032353 METAR KBLI 032353Z VRB06KT 10SM SCT055 16/09 A3005 RMK AO2 SLP182 T01610089 10161 20133 58012=
201706032253 METAR KBLI 032253Z 15007KT 10SM BKN060 16/09 A3007 RMK AO2 SLP187 T01560089=
201706032153 METAR KBLI 032153Z 00000KT 10SM OVC033 15/09 A3008 RMK AO2 SLP191 T01500089=
201706032053 METAR KBLI 032053Z 16006KT 10SM OVC036 14/09 A3009 RMK AO2 SLP195 T01390094 51002=
201706031953 METAR KBLI 031953Z 18003KT 10SM OVC038 14/09 A3009 RMK AO2 SLP195 T01390094=
201706031853 METAR KBLI 031853Z 18006KT 10SM OVC040 14/09 A3009 RMK AO2 SLP195 T01390094=
201706031753 METAR KBLI 031753Z 18007KT 10SM OVC038 14/10 A3008 RMK AO2 SLP193 T01390100 10139 20128 53015=
201706031653 METAR KBLI 031653Z 17007KT 10SM OVC039 13/09 A3007 RMK AO2 SLP188 T01330094=
201706031553 METAR KBLI 031553Z 17004KT 10SM OVC037 13/09 A3005 RMK AO2 SLP181 T01330094=
201706031453 METAR KBLI 031453Z 17005KT 10SM OVC036 13/09 A3003 RMK AO2 SLP176 T01330094 51016=
201706031353 METAR KBLI 031353Z 18008KT 10SM OVC040 13/11 A3002 RMK AO2 SLP173 T01330106=
201706031253 METAR KBLI 031253Z AUTO 18007KT 10SM SCT037 BKN060 OVC070 13/10 A3000 RMK AO2 SLP166 T01330100=
201706031153 METAR KBLI 031153Z AUTO 18006KT 10SM BKN036 OVC048 13/11 A2999 RMK AO2 SLP161 70001 T01280111 10133 20111 53011=
201706031053 METAR KBLI 031053Z AUTO 19006KT 10SM FEW035 BKN060 13/11 A2998 RMK AO2 SLP156 T01280106=
201706030953 METAR KBLI 030953Z AUTO 19004KT 10SM BKN065 13/11 A2997 RMK AO2 SLP154 T01280111=
201706030853 METAR KBLI 030853Z AUTO 17004KT 10SM CLR 11/10 A2996 RMK AO2 SLP150 T01110100 53003=
201706030753 METAR KBLI 030753Z AUTO 00000KT 10SM CLR 12/11 A2995 RMK AO2 SLP146 T01170106 402060111=
201706030653 METAR KBLI 030653Z AUTO 00000KT 10SM CLR 12/11 A2994 RMK AO2 SLP146 T01170106=
201706030553 METAR KBLI 030553Z AUTO 00000KT 10SM CLR 12/11 A2995 RMK AO2 SLP147 T01220111 10200 20122 56017=
201706030453 METAR KBLI 030453Z 00000KT 10SM CLR 13/12 A2997 RMK AO2 SLP154 T01330117=
201706030353 METAR KBLI 030353Z 00000KT 10SM CLR 16/12 A2998 RMK AO2 SLP157 T01610117=
201706030253 METAR KBLI 030253Z 33003KT 10SM CLR 19/11 A3000 RMK AO2 SLP164 T01890111 58018=
201706030153 METAR KBLI 030153Z 29003KT 10SM CLR 19/10 A3002 RMK AO2 SLP172 T01940100=
201706030053 METAR KBLI 030053Z 31004KT 10SM CLR 19/10 A3004 RMK AO2 SLP178 T01940100=
201706022353 METAR KBLI 022353Z 29006KT 10SM CLR 19/11 A3005 RMK AO2 SLP181 T01940111 10206 20161 58017=
201706022253 METAR KBLI 022253Z VRB05KT 10SM CLR 21/11 A3007 RMK AO2 SLP187 T02060106=
201706022153 METAR KBLI 022153Z 21008KT 10SM CLR 18/11 A3009 RMK AO2 SLP195 T01830106=
201706022053 METAR KBLI 022053Z 17008KT 10SM CLR 18/11 A3010 RMK AO2 SLP199 T01830111 51005=
201706021953 METAR KBLI 021953Z 21008G16KT 170V230 10SM FEW036 17/11 A3010 RMK AO2 SLP199 T01720111=
201706021853 METAR KBLI 021853Z 18007G15KT 150V220 10SM BKN034 17/11 A3010 RMK AO2 SLP198 T01670111=
201706021753 METAR KBLI 021753Z 18009KT 10SM BKN036 OVC044 17/12 A3009 RMK AO2 SLP194 60001 T01720117 10172 20139 51018=
201706021653 METAR KBLI 021653Z 17007G16KT 10SM BKN031 16/11 A3008 RMK AO2 SLP192 T01560111=
201706021553 METAR KBLI 021553Z 17012G19KT 10SM BKN031 16/11 A3006 RMK AO2 SLP186 T01560106=
201706021453 METAR KBLI 021453Z 15013G20KT 10SM SCT027 16/10 A3003 RMK AO2 SLP176 60001 T01560100 51011=
201706021353 METAR KBLI 021353Z 16014G19KT 10SM SCT024 15/09 A3002 RMK AO2 SLP171 T01500094=
201706021324 SPECI KBLI 021324Z AUTO 16009G18KT 10SM SCT028 15/09 A3002 RMK AO2 T01500094=
201706021253 METAR KBLI 021253Z AUTO 16009G23KT 10SM BKN028 14/09 A3002 RMK AO2 RAE07 SLP170 P0001 T01440094=
201706021223 SPECI KBLI 021223Z AUTO 15011G17KT 10SM BKN028 BKN110 14/09 A3001 RMK AO2 RAE07 P0001 T01440094=
201706021153 METAR KBLI 021153Z AUTO 16010G19KT 10SM -RA FEW055 BKN070 OVC085 14/10 A3000 RMK AO2 RAB34 SLP165 P0000 60000 T01440100 10144 20133 53008=
201706021053 METAR KBLI 021053Z AUTO 18006KT 10SM FEW032 BKN080 OVC095 14/10 A2999 RMK AO2 SLP162 T01390100=
201706020953 METAR KBLI 020953Z AUTO 17008KT 10SM FEW033 OVC085 14/11 A2998 RMK AO2 SLP158 T01390106=
201706020853 METAR KBLI 020853Z AUTO 17004KT 10SM FEW033 BKN075 OVC090 13/11 A2998 RMK AO2 SLP157 60000 T01330111 53006=
201706020753 METAR KBLI 020753Z AUTO 18005KT 10SM BKN055 OVC090 14/11 A2996 RMK AO2 RAB17E31 SLP154 P0000 T01390111 401610133=
201706020653 METAR KBLI 020653Z AUTO 15004KT 10SM OVC050 14/12 A2996 RMK AO2 RAB03E14 SLP152 P0000 T01440117=
201706020553 METAR KBLI 020553Z AUTO VRB03KT 10SM OVC041 14/12 A2996 RMK AO2 SLP151 60000 T01440117 10161 20144 53003=
201706020453 METAR KBLI 020453Z 18003KT 10SM BKN036 OVC046 15/12 A2996 RMK AO2 RAE01 SLP150 P0000 T01500117=
201706020353 METAR KBLI 020353Z 18004KT 10SM -RA FEW041 OVC050 15/12 A2995 RMK AO2 RAB51 SLP147 P0000 T01500117=
201706020253 METAR KBLI 020253Z 17005KT 10SM OVC041 16/11 A2995 RMK AO2 SLP148 T01560111 53006=
201706020153 METAR KBLI 020153Z 18007KT 10SM BKN043 OVC050 16/11 A2994 RMK AO2 SLP143 T01560111=
201706020053 METAR KBLI 020053Z 18005KT 10SM SCT027 BKN042 16/12 A2994 RMK AO2 SLP145 T01610117=
201706012353 METAR KBLI 012353Z 17007KT 10SM BKN028 OVC045 14/12 A2993 RMK AO2 SLP142 60000 T01440122 10156 20133 53005=
201706012253 METAR KBLI 012253Z 17003KT 10SM BKN026 OVC045 15/13 A2992 RMK AO2 SLP138 T01500133=
201706012153 METAR KBLI 012153Z 20006KT 10SM BKN024 OVC034 14/13 A2992 RMK AO2 SLP139 T01440128=
201706012053 METAR KBLI 012053Z 17006KT 10SM SCT005 BKN023 OVC028 14/13 A2992 RMK AO2 RAB1957E38 SLP137 P0000 60000 T01440133 51012=
201706011953 METAR KBLI 011953Z 21005KT 10SM BKN008 BKN026 OVC034 14/13 A2992 RMK AO2 RAB34E52 SLP136 P0000 T01390133=
201706011853 METAR KBLI 011853Z 15009KT 10SM FEW004 BKN008 BKN015 14/13 A2989 RMK AO2 SLP128 T01440133=
201706011753 METAR KBLI 011753Z VRB06KT 4SM BR SCT004 BKN007 OVC031 14/14 A2988 RMK AO2 SLP124 T01440139 10144 20133 52007=
201706011653 METAR KBLI 011653Z 19007KT 160V230 7SM BKN007 BKN015 OVC022 14/13 A2987 RMK AO2 SLP121 T01390133=
201706011553 METAR KBLI 011553Z 17005KT 7SM BKN007 OVC010 14/13 A2987 RMK AO2 SLP121 T01390133=
201706011537 SPECI KBLI 011537Z 17004KT 10SM BKN007 BKN010 OVC020 14/13 A2987 RMK AO2 T01390133=
201706011523 SPECI KBLI 011523Z 17006KT 10SM SCT007 BKN012 OVC020 14/13 A2987 RMK AO2 T01390133=
201706011516 SPECI KBLI 011516Z 18007KT 10SM FEW006 SCT010 OVC020 14/14 A2986 RMK AO2 T01440139=
201706011453 METAR KBLI 011453Z 18004KT 10SM SCT010 OVC019 14/14 A2986 RMK AO2 SLP117 VSBY SW-W 3SM T01390139 51004=
201706011353 METAR KBLI 011353Z 17005KT 10SM BKN017 OVC022 14/13 A2986 RMK AO2 SLP117 T01390133=
201706011313 SPECI KBLI 011313Z AUTO 16005KT 10SM BKN017 BKN026 OVC036 14/13 A2986 RMK AO2 T01390133=
201706011253 METAR KBLI 011253Z AUTO 16008KT 10SM BKN037 OVC044 14/13 A2985 RMK AO2 SLP115 T01390133=
201706011153 METAR KBLI 011153Z AUTO 16007KT 10SM OVC045 14/13 A2985 RMK AO2 RAB1055E33 SLP113 P0001 60009 70014 T01390133 10144 20133 50004=
201706011129 SPECI KBLI 011129Z AUTO 16007KT 10SM -RA FEW008 SCT017 OVC045 14/13 A2985 RMK AO2 RAB1055 P0001 T01390133=
201706011110 SPECI KBLI 011110Z AUTO 16006KT 10SM -RA FEW008 BKN015 OVC027 13/13 A2985 RMK AO2 RAB1055 P0001 T01330133=
201706011102 SPECI KBLI 011102Z AUTO 17004KT 10SM -RA SCT009 OVC013 13/13 A2985 RMK AO2 RAB1055 P0001 T01330133=
201706011053 METAR KBLI 011053Z AUTO 19003KT 10SM OVC013 13/13 A2985 RMK AO2 RAE04B29E53 SLP114 P0000 T01330133=
201706011016 SPECI KBLI 011016Z AUTO 22003KT 10SM SCT005 BKN010 OVC014 13/13 A2985 RMK AO2 RAE04 P0000 T01330133=
201706010953 METAR KBLI 010953Z AUTO VRB03KT 10SM -RA BKN005 OVC009 13/13 A2984 RMK AO2 SLP112 P0002 T01330133=
201706010853 METAR KBLI 010853Z AUTO 19005KT 7SM -RA BKN007 OVC015 13/13 A2983 RMK AO2 CIG 004V011 SLP109 P0002 60006 T01330133 55000=
201706010841 SPECI KBLI 010841Z AUTO 19003KT 6SM -RA BR BKN007 OVC015 13/13 A2983 RMK AO2 CIG 004V011 P0002 T01330133=
201706010834 SPECI KBLI 010834Z AUTO 19005KT 8SM -RA SCT007 BKN012 OVC018 14/13 A2983 RMK AO2 P0001 T01390133=
201706010753 METAR KBLI 010753Z AUTO 17007KT 9SM -RA FEW005 BKN018 OVC024 14/14 A2983 RMK AO2 RAE08B17 SLP108 P0002 T01440139 402000106=
201706010733 SPECI KBLI 010733Z AUTO 20003KT 8SM -RA SCT009 BKN022 OVC090 14/13 A2984 RMK AO2 RAE08B17 P0001 T01390133=
201706010713 SPECI KBLI 010713Z AUTO 00000KT 10SM BKN022 BKN038 OVC095 14/13 A2984 RMK AO2 RAE08 P0000 T01390133=
201706010653 METAR KBLI 010653Z AUTO 18004KT 6SM -RA BR FEW020 SCT028 OVC039 14/14 A2984 RMK AO2 SLP109 P0002 T01440139=
201706010553 METAR KBLI 010553Z AUTO 00000KT 6SM -RA BR OVC040 14/14 A2984 RMK AO2 SLP109 P0001 60005 T01440144 10183 20144 53004=
201706010453 METAR KBLI 010453Z 00000KT 7SM -RA OVC040 14/14 A2984 RMK AO2 SLP110 P0004 T01440139=
201706010353 METAR KBLI 010353Z 00000KT 9SM -RA OVC050 15/13 A2982 RMK AO2 RAB0255E15B47 SLP105 P0000 T01500133=
201706010253 METAR KBLI 010253Z 00000KT 10SM FEW055 SCT080 OVC090 16/13 A2982 RMK AO2 RAB32E53 SLP106 P0000 60000 T01560128 58005=
201706010153 METAR KBLI 010153Z 31004KT 10SM BKN047 BKN055 OVC095 16/12 A2983 RMK AO2 SLP108 T01610117=
201706010053 METAR KBLI 010053Z 29004KT 10SM OVC080 17/11 A2984 RMK AO2 SLP109 T01670111=

# No short TAF reports from KBLI in databse.

###################################
#  large TAF from KBLI
###################################
201706302320 TAF KBLI 302320Z 0100/0124 21009KT P6SM FEW200 FM011400 18010KT
                       P6SM SCT012 FM011800 18009KT P6SM SKC=
201706301720 TAF KBLI 301720Z 3018/0118 20004KT P6SM FEW200 FM302000 23007KT
                       P6SM FEW200 FM010400 21010KT P6SM FEW200=
201706301120 TAF KBLI 301120Z 3012/0112 VRB04KT P6SM SKC FM302000 33007KT P6SM
                       BKN200 FM010400 21010KT P6SM BKN200=
201706300520 TAF KBLI 300520Z 3006/0106 VRB03KT P6SM SCT250 FM302000 30006KT
                       P6SM BKN250 FM010400 22012KT P6SM BKN250=
201706292320 TAF KBLI 292320Z 3000/3024 20006KT P6SM SKC FM300500 VRB03KT P6SM
                       SCT250 FM301800 20006KT P6SM SKC=
201706291720 TAF KBLI 291720Z 2918/3018 VRB04KT P6SM SCT040 FM291900 19006KT
                       P6SM SCT040 FM292200 20006KT P6SM SKC FM300500
                       VRB03KT P6SM SCT250=
201706291120 TAF KBLI 291120Z 2912/3012 VRB03KT P6SM SCT040 FM291900 23006KT
                       P6SM SCT040 FM292200 23006KT P6SM SKC=
201706290520 TAF KBLI 290520Z 2906/3006 17007KT P6SM SKC FM291400 17007KT P6SM
                       SCT025 FM292000 20007KT P6SM SKC=
201706282320 TAF KBLI 282320Z 2900/2924 17007KT P6SM SKC FM291000 VRB03KT P6SM
                       SKC FM291400 17005KT P6SM SKC FM292000 20007KT
                       P6SM SKC=
201706281720 TAF KBLI 281720Z 2818/2918 17007KT P6SM SCT020 OVC050 FM282000
                       17007KT P6SM SKC FM291000 VRB03KT P6SM SKC
                       FM291400 17005KT P6SM SKC=
201706281120 TAF KBLI 281120Z 2812/2912 VRB04KT P6SM FEW050 FM281400 17007KT
                       P6SM SCT015 FM281800 21007KT P6SM SKC=
201706280520 TAF KBLI 280520Z 2806/2906 17007KT P6SM SKC FM281400 17007KT P6SM
                       SCT015 FM281800 21007KT P6SM SKC=
201706272337 TAF KBLI 272337Z 2800/2824 17006KT P6SM SCT250 FM281500 17009KT
                       P6SM SCT015 BKN250 FM281800 19008KT P6SM
                       SCT250=
201706271738 TAF KBLI 271738Z 2718/2818 17012KT P6SM SCT015 SCT035 BKN250
                      TEMPO 2718/2720 BKN015 BKN035 BKN250 FM272000
                       19009KT P6SM FEW035 BKN250 FM280100 17004KT
                       P6SM SCT250=
201706271431 KBLI 271431Z 2715/2812 17010KT P6SM FEW018 BKN200 FM272000 20008KT
                       P6SM FEW040 SCT200 FM280200 17006KT P6SM
                       SCT200=
201706271120 TAF KBLI 271120Z 2712/2812 18010KT P6SM SCT020
                      TEMPO 2712/2715 BKN020 FM271500 18008KT P6SM
                       BKN020 FM272000 24006KT P6SM SCT040 SCT200
                       FM280000 24006KT P6SM SCT200 FM281000 18008KT
                       P6SM SCT020=
201706270520 TAF KBLI 270520Z 2706/2806 19012KT P6SM SCT120 SCT200 FM271100
                       18008KT P6SM SCT018
                      TEMPO 2711/2713 BKN018 FM271300 18008KT P6SM
                       OVC018
                      TEMPO 2718/2720 SCT020 FM272000 24007KT P6SM
                       SCT040 SCT200 FM280000 24007KT P6SM SCT200=
201706262320 TAF KBLI 262320Z 2700/2724 17010KT P6SM BKN200 FM270600 17008KT
                       P6SM SCT200 FM271200 17008KT P6SM OVC020
                       FM271700 17013KT P6SM BKN025 BKN200 FM271900
                       19009KT P6SM FEW035 SCT200=
201706261857 KBLI 261857Z 2619/2718 17011KT P6SM FEW090 BKN200 FM270000 19011KT
                       P6SM SCT200 FM270600 17008KT P6SM SCT200
                       FM271200 17008KT P6SM OVC020=
201706261741 TAF KBLI 261741Z 2618/2718 17015KT P6SM FEW090 BKN200 FM270000
                       19011KT P6SM SCT200 FM270600 17008KT P6SM
                       SCT200 FM271200 17008KT P6SM OVC020=
201706261639 KBLI 261639Z 2617/2712 17015G22KT P6SM FEW090 BKN200 FM261800 17015KT
                       P6SM SCT090 BKN200 FM261900 19013KT P6SM
                       SCT040 BKN200=
201706261413 KBLI 261413Z 2614/2712 17013G20KT P6SM BKN200 FM261500 17015KT
                       P6SM SCT015 BKN200
                      TEMPO 2615/2618 BKN015 BKN200 FM261800 17015KT
                       P6SM SCT015 BKN200 FM261900 19013KT P6SM
                       SCT040 BKN200=
201706261120 TAF KBLI 261120Z 2612/2712 17008KT P6SM BKN200 FM261500 17015KT
                       P6SM BKN015 BKN200 FM261800 17015KT P6SM
                       SCT015 BKN200 FM261900 19013KT P6SM SCT040
                       BKN200=
201706260520 TAF KBLI 260520Z 2606/2706 17008KT P6SM BKN200 FM261500 17015KT
                       P6SM BKN009 BKN200 FM261800 17015KT P6SM
                       SCT016 SCT200 FM261900 19013KT P6SM FEW050
                       SCT200=
201706252342 TAF KBLI 252342Z 2600/2624 VRB04KT P6SM BKN250 FM260600 17008KT
                       P6SM SCT250 FM261500 17015KT P6SM BKN009
                       BKN200 FM261800 17015KT P6SM SCT016 SCT200
                       FM261900 19013KT P6SM FEW050 SCT200=
201706251742 TAF KBLI 251742Z 2518/2618 VRB04KT P6SM BKN250 FM260600 17008KT
                       P6SM SCT250 FM261500 17014KT P6SM BKN009
                       BKN200=
201706251120 TAF KBLI 251120Z 2512/2612 VRB03KT P6SM SCT200 FM252000 25005KT
                       P6SM BKN200 FM260400 17008KT P6SM SCT150
                       BKN200=
201706250536 TAF KBLI 250536Z 2506/2606 VRB03KT P6SM SKC FM252000 24005KT P6SM
                       SCT250=
201706242322 TAF KBLI 242322Z 2500/2524 VRB03KT P6SM SKC FM252100 25005KT P6SM
                       SKC=
201706241724 TAF KBLI 241724Z 2418/2518 01006KT P6SM SKC FM242000 28006KT P6SM
                       SKC FM250100 VRB03KT P6SM SKC=
201706241120 TAF KBLI 241120Z 2412/2512 VRB03KT P6SM SKC FM242000 27006KT P6SM
                       SKC FM250500 VRB03KT P6SM SCT250=
201706240528 TAF KBLI 240528Z 2406/2506 VRB03KT P6SM SKC FM242000 27006KT P6SM
                       SKC=
201706232324 TAF KBLI 232324Z 2400/2424 28007KT P6SM SKC FM240200 VRB03KT P6SM
                       SKC FM242000 29006KT P6SM SKC=
201706232101 KBLI 232101Z 2321/2418 25007KT P6SM SKC FM240200 VRB03KT P6SM SKC=
201706231730 TAF KBLI 231730Z 2318/2418 31006KT P6SM SKC FM232000 28008KT P6SM
                       SKC FM240200 VRB03KT P6SM SKC=
201706231120 TAF KBLI 231120Z 2312/2412 VRB03KT P6SM SKC FM231800 27006KT P6SM
                       SKC FM240500 VRB03KT P6SM SKC=
201706230530 TAF KBLI 230530Z 2306/2406 VRB03KT P6SM SKC FM231800 27006KT P6SM
                       SKC=
201706222320 TAF KBLI 222320Z 2300/2324 25006KT P6SM SKC FM230200 VRB03KT P6SM
                       SKC FM231800 30007KT P6SM SKC=
201706221720 TAF KBLI 221720Z 2218/2318 VRB03KT P6SM FEW015 FM221900 25006KT
                       P6SM SKC FM230200 VRB03KT P6SM SKC=
201706221120 TAF KBLI 221120Z 2212/2312 VRB03KT P6SM SKC FM221800 25006KT P6SM
                       SKC=
201706220527 TAF KBLI 220527Z 2206/2306 VRB03KT P6SM SKC FM221800 25006KT P6SM
                       SKC=
201706212339 TAF KBLI 212339Z 2200/2224 18008KT P6SM SKC FM220300 18004KT P6SM
                       SKC FM221800 33006KT P6SM SKC=
201706211720 TAF KBLI 211720Z 2118/2218 19010KT P6SM SCT050 FM220300 19004KT
                       P6SM SKC=
201706211548 KBLI 211548Z 2116/2212 16007KT P6SM SCT060 FM211800 19010KT P6SM
                       SCT250 FM220600 18004KT P6SM SKC=
201706211144 TAF KBLI 211144Z 2112/2212 16007KT P6SM OVC060 FM211300 18004KT
                       P6SM BKN020 FM211800 19010KT P6SM SCT250
                       FM220600 18004KT P6SM SKC=
201706210537 TAF KBLI 210537Z 2106/2206 17009KT P6SM SKC FM210800 17008KT P6SM
                       SCT070 FM211300 18004KT P6SM BKN020 FM211800
                       19010KT P6SM SCT250 FM220300 18004KT P6SM
                       SKC=
201706202320 TAF KBLI 202320Z 2100/2124 17010G18KT P6SM FEW027 FM210700 17008KT
                       P6SM SCT070 FM211300 18004KT P6SM BKN020
                       FM211800 18008KT P6SM SCT250=
201706201729 TAF KBLI 201729Z 2018/2118 17013G21KT P6SM SCT035 SCT060 BKN070
                       FM210700 17008KT P6SM SCT070 FM211300 18004KT
                       P6SM BKN025 OVC050=
201706201150 TAF KBLI 201150Z 2012/2112 18010KT P6SM FEW050 BKN080
                      TEMPO 2014/2017 -SHRA BKN025 OVC040 FM202000
                       18014G20KT P6SM SCT025 BKN050 FM210700 17008KT
                       P6SM FEW080=
201706200543 TAF KBLI 200543Z 2006/2106 VRB03KT P6SM FEW070 FM200800 18006KT
                       P6SM OVC050 FM201100 18010KT P6SM SCT025
                       OVC040
                      TEMPO 2013/2017 -SHRA BKN025 OVC040 FM202000
                       18014G20KT P6SM SCT025 BKN050=
201706192325 TAF KBLI 192325Z 2000/2024 VRB04KT P6SM SCT150 BKN250 FM200400
                       VRB04KT P6SM OVC100 FM200800 18006KT P6SM
                       OVC050 FM201100 18010KT P6SM SCT025 OVC040
                       TEMPO 2013/2017 -SHRA BKN025 OVC040 FM202000
                       18014G20KT P6SM SCT025 BKN050=
201706191730 TAF KBLI 191730Z 1918/2018 35003KT P6SM SCT120 BKN180 FM200200
                       17006KT P6SM BKN080 OVC150 FM200500 18006KT
                       P6SM SCT040 OVC080 FM201000 18007KT P6SM
                       BKN025 OVC040 FM201400 18010G18KT P6SM OVC025
                       PROB30 2014/2018 -SHRA=
201706191132 TAF KBLI 191132Z 1912/2012 36006KT P6SM SCT006
                      TEMPO 1914/1916 5SM BR FM191900 25005KT P6SM
                       SCT250 FM200400 19006KT P6SM SCT100 OVC200
                       FM200700 19006KT P6SM SCT040 BKN080 OVC150
                       FM201000 19006KT P6SM BKN025 OVC040=
201706190538 TAF KBLI 190538Z 1906/2006 00000KT P6SM SCT060 BKN100 FM191000
                       00000KT P6SM SCT060 FM191900 25005KT P6SM
                       SCT250 FM200400 19006KT P6SM SCT100 OVC200=
201706182320 TAF KBLI 182320Z 1900/1924 01006KT P6SM SCT005 OVC012
                      TEMPO 1900/1902 2SM -RA BR BKN005 OVC012
                       FM190300 VRB03KT P6SM BKN020 FM190500 00000KT
                       P6SM SCT025 BKN050 FM191000 00000KT P6SM
                       SCT060 FM191900 25005KT P6SM FEW060 SCT250=
201706182201 KBLI 182201Z 1822/1918 01003KT P6SM SCT006 OVC015
                      TEMPO 1822/1824 3SM -RA BR BKN006 OVC015
                       FM190000 16004KT P6SM BKN025 OVC050 FM190300
                       VRB03KT P6SM SCT025 BKN050 OVC090 FM190800
                       00000KT P6SM BKN060=
201706181720 TAF KBLI 181720Z 1818/1918 01003KT 5SM BR SCT006 OVC015
                      TEMPO 1818/1820 3SM -RA BR BKN006 OVC015
                       FM182200 16004KT P6SM BKN025 OVC050 FM190100
                       VRB03KT P6SM SCT025 BKN050 OVC090 FM190800
                       00000KT P6SM BKN060=
201706181134 TAF KBLI 181134Z 1812/1912 VRB03KT P6SM -RA OVC015 FM181800 VRB03KT
                       P6SM SCT015 BKN025 OVC040 FM182200 VRB03KT
                       P6SM BKN050 OVC090 FM190400 VRB03KT P6SM
                       SCT050 BKN100 FM190900 VRB03KT P6SM BKN200=
201706180540 TAF KBLI 180540Z 1806/1906 VRB03KT P6SM SCT025 OVC040 FM181800
                       VRB03KT P6SM BKN050 OVC090 FM190400 VRB03KT
                       P6SM SCT050 BKN100=
201706172321 TAF KBLI 172321Z 1800/1824 17005KT P6SM FEW050 OVC100 FM181200
                       16003KT P6SM BKN050 OVC090=
201706171721 TAF KBLI 171721Z 1718/1818 19006KT P6SM FEW060 BKN150 FM180300
                       17005KT P6SM FEW050 OVC090 FM180700 16003KT
                       P6SM OVC070=
201706171120 TAF KBLI 171120Z 1712/1812 16005KT P6SM SCT040 SCT100 SCT250 FM171800
                       17005KT P6SM SCT040 SCT100 OVC200 FM172100
                       17006KT P6SM SCT040 BKN100 OVC150 FM180300
                       04004KT P6SM SCT040 OVC090 FM180700 VRB04KT
                       P6SM OVC040=
201706170520 TAF KBLI 170520Z 1706/1806 16006KT P6SM SCT100 SCT250 FM171000
                       16005KT P6SM SCT040 SCT100 SCT250 FM171800
                       17005KT P6SM SCT040 SCT100 OVC200 FM172100
                       17006KT P6SM SCT040 BKN100 OVC150 FM180200
                       04004KT P6SM SCT035 OVC080=
201706162326 TAF KBLI 162326Z 1700/1724 17008KT P6SM SCT050 BKN250 FM170900
                       17006KT P6SM BKN050 BKN250 FM171300 16008KT
                       P6SM BKN020 BKN040 FM171800 18008KT P6SM
                       SCT040 BKN150=
201706161720 TAF KBLI 161720Z 1618/1718 16007KT P6SM SCT050 BKN080 FM162200
                       17010KT P6SM BKN040 FM170500 17006KT P6SM
                       SCT040 FM171300 16008KT P6SM BKN020 BKN040=
201706161440 KBLI 161440Z 1615/1712 17006KT P6SM FEW004 BKN060 FM161800 17009KT
                       P6SM SCT025 BKN035 FM162200 17010KT P6SM
                       BKN040=
201706161120 TAF KBLI 161120Z 1612/1712 16007KT P6SM SCT004 SCT015 OVC030
                      TEMPO 1612/1616 5SM -SHRA BR SCT004 OVC015
                       FM161800 17009KT P6SM SCT025 BKN035 FM162200
                       17010KT P6SM BKN040=
201706160907 KBLI 160907Z 1609/1706 16007KT 5SM -SHRA BR SCT003 BKN012 OVC025
                       TEMPO 1609/1611 4SM -RA BR OVC003 FM161100
                       16007KT P6SM SCT006 OVC012 FM161800 17009KT
                       P6SM SCT025 BKN035 FM162200 17010KT P6SM
                       BKN035=
201706160529 TAF KBLI 160529Z 1606/1706 18008KT 5SM -SHRA SCT012 OVC020
                      TEMPO 1606/1609 4SM -SHRA BR SCT006 OVC012
                       FM160900 17012KT P6SM VCSH OVC025 FM161800
                       17012G18KT P6SM SCT025 BKN035 FM162200 17011G18KT
                       P6SM BKN035=
201706152323 TAF KBLI 152323Z 1600/1624 14018G25KT P6SM -RA BKN026 BKN050 OVC070
                       FM160100 16015G22KT 6SM -SHRA BKN025 OVC045
                       FM160600 17011G17KT P6SM VCSH OVC020 FM161200
                       17011KT P6SM VCSH OVC020 FM161800 17012G18KT
                       P6SM OVC025 FM162200 17011G18KT P6SM BKN035=
201706151840 KBLI 151840Z 1519/1618 12015G23KT P6SM -RA SCT035 BKN080 OVC100
                       FM152000 13011G19KT 5SM RA BKN025 OVC035
                       FM160100 14012G19KT P6SM -SHRA BKN025 OVC045
                       FM160600 17012KT P6SM VCSH OVC030=
201706151727 TAF KBLI 151727Z 1518/1618 06004KT P6SM -RA SCT035 OVC060 FM152000
                       13011G19KT 5SM RA BKN025 OVC035 FM160100
                       14012G19KT P6SM -SHRA BKN025 OVC045 FM160600
                       17012KT P6SM VCSH OVC030=
201706151132 TAF KBLI 151132Z 1512/1612 10005KT P6SM -RA BKN050 OVC080 FM151500
                       12010G18KT P6SM -RA SCT035 OVC045 FM151700
                       16015G26KT P6SM -RA SCT025 OVC035 FM152100
                       17018G28KT 5SM -RA BKN025 OVC045 FM160000
                       18016G26KT P6SM -SHRA BKN035 BKN045 FM160600
                       17013G22KT P6SM VCSH BKN030 OVC040=
201706150528 TAF KBLI 150528Z 1506/1606 03004KT P6SM BKN100 BKN200 FM150900
                       06005KT P6SM BKN090 OVC150 FM151300 12010G18KT
                       P6SM -RA SCT035 OVC045 FM151700 16015G27KT
                       P6SM -RA SCT025 OVC035 FM152100 18020G32KT
                       5SM -RA BKN025 OVC045 FM160100 18016G26KT
                       P6SM -SHRA BKN035 BKN045=
201706142323 TAF KBLI 142323Z 1500/1524 VRB05KT P6SM OVC080 FM150500 00000KT
                       P6SM OVC060 FM151400 10005G15KT P6SM -RA
                       SCT025 OVC045 FM152100 12014G20KT 5SM -RA
                       BKN025 OVC045=
201706141729 TAF KBLI 141729Z 1418/1518 VRB05KT P6SM FEW026 OVC060 FM150500
                       00000KT P6SM OVC060 FM151400 11004KT P6SM
                       -RA SCT025 OVC045=
201706141120 TAF KBLI 141120Z 1412/1512 16008KT P6SM OVC050
                      TEMPO 1412/1415 -RA BKN030 OVC050 FM141500
                       17007KT P6SM SCT035 BKN050 FM141800 16006KT
                       P6SM SCT060 FM150300 15006KT P6SM SCT050
                       SCT150 FM150800 15006KT P6SM BKN050 OVC120=
201706140520 TAF KBLI 140520Z 1406/1506 16008KT P6SM SCT050 BKN070
                      TEMPO 1411/1415 BKN030 OVC050 FM141500 17007KT
                       P6SM SCT035 BKN050 FM141800 16006KT P6SM
                       SCT060 FM150300 15006KT P6SM SCT050 SCT120=
201706132341 TAF KBLI 132341Z 1400/1424 17008KT P6SM BKN050 FM140400 17008KT
                       P6SM BKN040 FM141100 16005KT P6SM OVC025
                       FM141800 16008KT P6SM BKN050=
201706131736 TAF KBLI 131736Z 1318/1418 17010G20KT P6SM SCT060 FM140400 17008KT
                       P6SM BKN040 FM141100 17005KT P6SM OVC025=
201706131121 TAF KBLI 131121Z 1312/1412 17010KT P6SM OVC035 FM131800 17010KT
                       P6SM BKN035 OVC045 FM132000 17010KT P6SM
                       SCT040 BKN060 FM140400 17005KT P6SM BKN040=
201706130520 TAF KBLI 130520Z 1306/1406 17013G20KT P6SM BKN080 FM130800 18008KT
                       P6SM SCT030 BKN060 FM131200 17009KT P6SM
                       OVC030 FM131800 17010KT P6SM BKN035 OVC045
                       FM132100 17010KT P6SM SCT035 BKN050=
201706122351 TAF KBLI 122351Z 1300/1324 17010G20KT P6SM BKN060 FM130800 18008KT
                       P6SM BKN025 OVC040 FM131200 17009KT P6SM
                       OVC025 FM131800 17010KT P6SM BKN030 OVC040=
201706121738 TAF KBLI 121738Z 1218/1318 17009KT P6SM SCT050 OVC060 FM122000
                       18010KT P6SM SCT030 OVC050 FM130000 20012KT
                       P6SM BKN030 OVC050 FM130800 18008KT P6SM
                       BKN025 OVC040 FM131200 17009KT P6SM OVC025=
201706121120 TAF KBLI 121120Z 1212/1312 18006KT P6SM BKN050 OVC070 FM122000
                       18008KT P6SM SCT030 BKN050 FM130000 20012KT
                       P6SM BKN030=
201706120532 TAF KBLI 120532Z 1206/1306 18006KT P6SM SCT200 FM121500 23006KT
                       P6SM FEW020 SCT040 FM122000 23008KT P6SM
                       SCT030 BKN050=
201706112320 TAF KBLI 112320Z 1200/1224 23006KT P6SM SCT040 FM120400 30006KT
                       P6SM SKC FM121000 VRB03KT P6SM SCT015 FM121200
                       18006KT P6SM BKN012 FM121700 23006KT P6SM
                       SCT020 BKN040 FM122000 23008KT P6SM SCT030
                       BKN050=
201706111720 TAF KBLI 111720Z 1118/1218 16010KT P6SM SCT040 FM112200 23007KT
                       P6SM SCT040 FM121200 18006KT P6SM SCT012
                       SCT040 FM121700 18006KT P6SM SCT020 BKN040=
201706111120 TAF KBLI 111120Z 1112/1212 17005KT P6SM SCT080 SCT200 FM111800
                       31007KT P6SM SCT040=
201706110520 TAF KBLI 110520Z 1106/1206 17005KT P6SM BKN060 BKN080 FM111800
                       31007KT P6SM SCT040=
201706102320 TAF KBLI 102320Z 1100/1124 VRB05KT P6SM SCT040 SCT200 FM110600
                       VRB03KT P6SM SCT040 FM111800 31007KT P6SM
                       SCT040=
201706101720 TAF KBLI 101720Z 1018/1118 18010KT P6SM SCT025 BKN050 FM110000
                       32007KT P6SM BKN050=
201706101414 KBLI 101414Z 1014/1112 15005KT P6SM BKN020 OVC035 FM101700 18006KT
                       P6SM SCT020 BKN040 FM102100 21006KT P6SM
                       SCT050=
201706101123 TAF KBLI 101123Z 1012/1112 15009KT P6SM FEW050 SCT070 BKN100 FM101800
                       19006KT P6SM SCT050 SCT070=
201706100532 TAF KBLI 100532Z 1006/1106 18005KT P6SM VCSH SCT040 SCT120 FM100700
                       18006KT P6SM SCT040 FM101800 19007KT P6SM
                       SCT050 SCT070=
201706092324 TAF KBLI 092324Z 1000/1024 18007KT P6SM SCT050 FM100900 18006KT
                       P6SM BKN040 FM101800 23007KT P6SM BKN050
                       BKN090=
201706091720 TAF KBLI 091720Z 0918/1018 16006KT P6SM VCSH BKN050 FM100900 VRB04KT
                       P6SM BKN030 FM101700 23006KT P6SM SCT040=
201706091120 TAF KBLI 091120Z 0912/1012 17004KT P6SM OVC060 FM091800 16008KT
                       P6SM BKN060 BKN100 FM092300 18007KT P6SM
                       VCSH BKN050 FM100300 20004KT P6SM BKN040=
201706090520 TAF KBLI 090520Z 0906/1006 15004KT P6SM VCSH BKN050 FM090900 15006KT
                       P6SM BKN040 BKN080 FM091800 16008KT P6SM
                       BKN050 BKN100=
201706090347 KBLI 090347Z 0904/0924 15004KT P6SM VCSH BKN050 OVC080 FM090600
                       17006KT P6SM BKN040 FM091800 16008KT P6SM
                       BKN050 BKN100=
201706082320 TAF KBLI 082320Z 0900/0924 16010KT P6SM -SHRA SCT020 BKN030 BKN100
                       FM090300 15004KT P6SM BKN040 OVC080 FM091800
                       16008KT P6SM BKN050 BKN100=
201706081720 TAF KBLI 081720Z 0818/0918 15005KT P6SM -RA FEW005 BKN025 OVC090
                       FM082100 16012KT P6SM -SHRA BKN030 OVC040
                       FM090200 15004KT P6SM BKN040 OVC080=
201706081120 TAF KBLI 081120Z 0812/0912 16008KT P6SM -RA FEW030 SCT050 OVC080
                       FM081400 16010KT P6SM -RA BKN030 OVC070
                       FM082000 16012KT P6SM -SHRA BKN030 OVC040
                       FM090200 15004KT P6SM BKN030=
201706080520 TAF KBLI 080520Z 0806/0906 18007KT P6SM FEW060 BKN120 FM080700
                       17008KT P6SM OVC060 FM081100 16008KT P6SM
                       -RA OVC050 FM081500 16010KT 5SM -RA BR OVC015
                       FM082200 16012KT P6SM -SHRA BKN025 OVC040=
201706072320 TAF KBLI 072320Z 0800/0824 26004KT P6SM FEW060 BKN120 BKN250 FM080700
                       17006KT P6SM OVC060 FM081100 16006KT P6SM
                       -RA OVC050 FM081500 16010KT 5SM -RA BR OVC015
                       FM082200 16012KT P6SM -SHRA BKN025 OVC040=
201706071720 TAF KBLI 071720Z 0718/0818 18008KT P6SM FEW120 BKN250 FM072300
                       19008KT P6SM SCT070 BKN200 FM080700 17006KT
                       P6SM OVC060 FM081100 16006KT P6SM -RA OVC050
                       FM081500 16012KT 5SM -RA BR OVC020=
201706071120 TAF KBLI 071120Z 0712/0812 17007KT P6SM BKN250 FM072300 20008KT
                       P6SM SCT070 BKN200 FM080300 18006KT P6SM
                       BKN070 OVC150 FM080700 17006KT P6SM OVC050
                       FM081100 16006KT P6SM -RA OVC050=
201706070520 TAF KBLI 070520Z 0706/0806 18005KT P6SM BKN200 FM080200 18006KT
                       P6SM BKN070 OVC150=
201706062320 TAF KBLI 062320Z 0700/0724 26006KT P6SM SCT250 FM070300 18006KT
                       P6SM BKN200=
201706061733 TAF KBLI 061733Z 0618/0718 03006KT P6SM SCT250 FM062000 25006KT
                       P6SM SCT250 FM070000 22005KT P6SM SCT050
                       FM070300 17006KT P6SM BKN200=
201706061120 TAF KBLI 061120Z 0612/0712 00000KT P6SM SKC FM062000 24006KT P6SM
                       SCT250 FM070000 21007KT P6SM SCT250 FM070300
                       17007KT P6SM BKN250=
201706060520 TAF KBLI 060520Z 0606/0706 00000KT P6SM BKN250 FM062000 26006KT
                       P6SM SCT250 FM062200 22007KT P6SM SCT250
                       FM070300 18003KT P6SM BKN250=
201706052320 TAF KBLI 052320Z 0600/0624 28006KT P6SM BKN250 FM060400 00000KT
                       P6SM BKN200 FM062000 26006KT P6SM SCT250=
201706051720 TAF KBLI 051720Z 0518/0618 24005KT P6SM FEW250 FM060400 00000KT
                       P6SM BKN200=
201706051120 TAF KBLI 051120Z 0512/0612 15003KT P6SM SKC FM051900 22007KT P6SM
                       SKC FM060400 17004KT P6SM SCT180=
201706050520 TAF KBLI 050520Z 0506/0606 16005KT P6SM SCT250 FM051900 22007KT
                       P6SM SCT250 FM060400 17004KT P6SM SCT250=
201706042320 TAF KBLI 042320Z 0500/0524 18010KT P6SM SCT250 FM050600 17006KT
                       P6SM SCT250 FM051900 24007KT P6SM SCT250=
201706041720 TAF KBLI 041720Z 0418/0518 17006KT P6SM OVC060 FM042100 18008KT
                       P6SM SCT060 SCT250 FM050000 18010KT P6SM
                       SCT250 FM050600 17006KT P6SM SCT250=
201706041120 TAF KBLI 041120Z 0412/0512 17006KT P6SM OVC060 FM042100 18008KT
                       P6SM SCT060 SCT250 FM050000 18010KT P6SM
                       SCT250 FM050600 17006KT P6SM SCT250=
201706040520 TAF KBLI 040520Z 0406/0506 17007KT P6SM BKN080 FM041200 17007KT
                       P6SM BKN040 BKN080 FM042100 18008KT P6SM
                       SCT050 SCT250 FM050000 18010KT P6SM SCT250=
201706032320 TAF KBLI 032320Z 0400/0424 17008KT P6SM SCT060 FM040400 17005KT
                       P6SM SCT045 FM040800 17007KT P6SM BKN045
                       FM042100 18008KT P6SM SCT050 SCT250=
201706031720 TAF KBLI 031720Z 0318/0418 17007KT P6SM BKN035 OVC050 FM031900
                       17008KT P6SM SCT040 FM032200 18007KT P6SM
                       SCT200 FM040400 17005KT P6SM SCT045 FM040800
                       17007KT P6SM BKN045=
201706031120 TAF KBLI 031120Z 0312/0412 19006KT P6SM OVC050 FM031300 17007KT
                       P6SM BKN035 OVC050 FM031900 17008KT P6SM
                       SCT040 FM032200 18007KT P6SM SCT200 FM040400
                       17005KT P6SM SCT045=
201706030526 TAF KBLI 030526Z 0306/0406 00000KT P6SM BKN200 FM031300 17007KT
                       P6SM BKN035 FM031900 17008KT P6SM SCT040
                       FM032200 18007KT P6SM SCT200=
201706022323 TAF KBLI 022323Z 0300/0324 17006KT P6SM SCT040 FM030300 VRB03KT
                       P6SM SCT040 FM031200 17007KT P6SM BKN040
                       FM031800 17008KT P6SM SCT045=
201706021722 TAF KBLI 021722Z 0218/0318 17008G15KT P6SM BKN035 FM022300 17006KT
                       P6SM SCT040 FM030300 VRB03KT P6SM SCT040
                       FM031200 17007KT P6SM BKN040=
201706021311 KBLI 021311Z 0213/0312 17011KT P6SM VCSH SCT028 BKN060 OVC100
                      TEMPO 0213/0217 17012G22KT -SHRA BKN028 OVC060
                       FM021800 16009KT P6SM OVC030 FM022000 19006KT
                       P6SM OVC045 FM022100 VRB03KT P6SM SCT025=
201706021158 KBLI 021158Z 0212/0312 17011KT P6SM VCSH FEW030 BKN060 OVC100
                      TEMPO 0212/0216 -SHRA FM021800 16009KT P6SM
                       OVC030 FM022000 19006KT P6SM OVC045 FM022100
                       VRB03KT P6SM SCT025=
201706021123 KBLI 021123Z 0211/0312 18006KT P6SM VCSH FEW030 BKN080 OVC100 FM021800
                       16009KT P6SM OVC030 FM022000 19006KT P6SM
                       OVC045 FM022100 VRB03KT P6SM SCT025=
201706021120 TAF KBLI 021120Z 0212/0312 18006KT P6SM VCSH BKN030 BKN080 OVC100
                       FM021800 16009KT P6SM OVC030 FM022000 19006KT
                       P6SM OVC045 FM022100 VRB03KT P6SM SCT025=
201706020520 TAF KBLI 020520Z 0206/0306 18003KT P6SM VCSH BKN035 OVC045 FM021000
                       17006KT P6SM VCSH OVC035 FM021800 18007G13KT
                       P6SM OVC045 FM022100 23004KT P6SM SCT025
                       BKN050=
201706012332 TAF KBLI 012332Z 0200/0224 18007KT P6SM SCT025 BKN045
                      TEMPO 0200/0202 BKN025 OVC045 FM020700 17005KT
                       P6SM BKN030 OVC050 FM020900 16006KT P6SM
                       -SHRA BKN020 OVC040 FM021900 17008KT P6SM
                       BKN025 BKN045 FM022200 19007KT P6SM SCT025
                       BKN045=
201706011734 TAF KBLI 011734Z 0118/0218 19007KT P6SM VCSH BKN015 OVC025
                      TEMPO 0118/0120 BKN007 OVC015 FM012000 17007KT
                       P6SM VCSH SCT015 BKN025 OVC045 FM012200
                       18007KT P6SM SCT025 BKN045 FM020600 16005KT
                       P6SM VCSH OVC040 FM020900 16006KT P6SM -SHRA
                       BKN007 OVC015=
201706011200 KBLI 011200Z 0112/0212 16007KT P6SM VCSH SCT015 OVC045
                      TEMPO 0112/0116 BKN015 OVC045 FM011800 17008G13KT
                       P6SM VCSH BKN015 OVC030 FM012100 18007G13KT
                       P6SM SCT025 BKN045 FM020600 16005KT P6SM
                       OVC050=
201706011120 TAF KBLI 011120Z 0112/0212 17004KT P6SM VCSH SCT009 OVC013 FM011800
                       17008G13KT P6SM VCSH BKN015 OVC030 FM012100
                       18007G13KT P6SM SCT025 BKN045 FM020600 16005KT
                       P6SM OVC050=
201706011001 KBLI 011001Z 0110/0206 VRB03KT P6SM -SHRA BKN005 OVC009 FM011200
                       18005KT P6SM VCSH SCT005 OVC012 FM011900
                       18008G14KT P6SM OVC018 FM012200 18005KT
                       P6SM SCT025 BKN045=
201706010535 TAF KBLI 010535Z 0106/0206 00000KT P6SM -SHRA OVC040 FM011000 17004KT
                       P6SM -SHRA BKN015 OVC030 FM011900 18008G14KT
                       P6SM BKN025 FM012200 18005KT P6SM SCT025
                       BKN045=