##########################################################
# Query made at 02/16/2025 21:36:43 UTC
# Time interval: from 04/01/2017 00:00  to 04/30/2017 23:59  UTC
##########################################################

##########################################################
# KBLI, Bellingham, Bellingham International Airport (United States)
# WMO index: -----. WIGOS ID: Unknown
# Latitude 48-47-58N. Longitude 122-32-21W. Altitude 48 m.
##########################################################

###################################
#  METAR/SPECI from KBLI
###################################
201704302353 METAR KBLI 302353Z 17011G17KT 10SM BKN090 13/04 A3027 RMK AO2 SLP259 T01330044 10139 20117 53003=
201704302253 METAR KBLI 302253Z 16009KT 10SM FEW060 BKN090 13/04 A3027 RMK AO2 SLP256 T01280044=
201704302153 METAR KBLI 302153Z 15010KT 10SM CLR 13/05 A3027 RMK AO2 SLP257 T01330050=
201704302053 METAR KBLI 302053Z 16010KT 10SM CLR 13/05 A3026 RMK AO2 SLP255 T01330050 51009=
201704301953 METAR KBLI 301953Z 17008KT 10SM FEW048 SCT060 13/03 A3026 RMK AO2 SLP253 T01330033=
201704301853 METAR KBLI 301853Z 16009G14KT 10SM SCT037 13/04 A3025 RMK AO2 SLP250 T01280039=
201704301753 METAR KBLI 301753Z VRB06KT 10SM SCT033 11/04 A3024 RMK AO2 SLP246 T01110039 10111 20083 53014=
201704301653 METAR KBLI 301653Z VRB03KT 10SM SCT031 11/04 A3022 RMK AO2 SLP242 T01060039=
201704301553 METAR KBLI 301553Z VRB05KT 10SM BKN060 11/03 A3020 RMK AO2 SLP233 T01060033=
201704301453 METAR KBLI 301453Z 22004KT 10SM BKN065 09/03 A3019 RMK AO2 SLP232 T00940028 53026=
201704301353 METAR KBLI 301353Z 18004KT 10SM CLR 09/02 A3017 RMK AO2 SLP223 T00890022=
201704301253 METAR KBLI 301253Z AUTO VRB03KT 10SM CLR 08/02 A3014 RMK AO2 SLP212 T00830022=
201704301153 METAR KBLI 301153Z AUTO VRB03KT 10SM CLR 09/05 A3012 RMK AO2 SLP205 70002 T00890050 10106 20089 53012=
201704301053 METAR KBLI 301053Z AUTO 21005KT 10SM SCT016 SCT022 09/07 A3010 RMK AO2 SLP199 T00940072=
201704301023 SPECI KBLI 301023Z AUTO 17008KT 10SM SCT019 BKN025 09/08 A3010 RMK AO2 T00940078=
201704300953 METAR KBLI 300953Z AUTO 17008KT 10SM FEW023 09/07 A3009 RMK AO2 SLP196 T00940072=
201704300916 SPECI KBLI 300916Z AUTO 16008KT 10SM SCT021 09/08 A3008 RMK AO2 T00940078=
201704300853 METAR KBLI 300853Z AUTO 16011G18KT 10SM BKN022 OVC027 10/08 A3008 RMK AO2 SLP193 T01000078 53013=
201704300753 METAR KBLI 300753Z AUTO 16012G19KT 10SM BKN028 10/07 A3007 RMK AO2 SLP188 T01000072 401330050=
201704300732 SPECI KBLI 300732Z AUTO 17012G18KT 10SM BKN029 OVC035 11/07 A3006 RMK AO2 T01060072=
201704300653 METAR KBLI 300653Z AUTO 17013G25KT 10SM BKN037 OVC070 11/07 A3005 RMK AO2 PK WND 17027/0615 SLP183 T01060067=
201704300553 METAR KBLI 300553Z AUTO 16014G22KT 10SM OVC042 11/07 A3004 RMK AO2 PK WND 16027/0543 SLP180 60001 T01060067 10122 20100 56005=
201704300453 METAR KBLI 300453Z 15013KT 10SM FEW029 OVC043 11/06 A3004 RMK AO2 SLP181 T01060061=
201704300353 METAR KBLI 300353Z 14013G17KT 10SM OVC048 11/06 A3004 RMK AO2 SLP178 T01060061=
201704300253 METAR KBLI 300253Z 15011KT 10SM FEW034 OVC048 11/06 A3006 RMK AO2 RAE47 SLP186 P0000 60001 T01060056 58015=
201704300153 METAR KBLI 300153Z 14013KT 10SM -RA SCT041 OVC050 11/06 A3007 RMK AO2 SLP192 P0001 T01060056=
201704300053 METAR KBLI 300053Z 15014G23KT 10SM -RA OVC047 11/04 A3009 RMK AO2 SLP196 P0000 T01110044=
201704292353 METAR KBLI 292353Z 16011G23KT 10SM -RA OVC049 12/03 A3010 RMK AO2 RAB39 SLP201 P0000 60001 T01220033 10133 20094 58021=
201704292253 METAR KBLI 292253Z 04004KT 10SM OVC070 12/09 A3012 RMK AO2 SLP206 T01170089=
201704292153 METAR KBLI 292153Z 00000KT 10SM OVC085 12/08 A3015 RMK AO2 SLP218 T01220078=
201704292053 METAR KBLI 292053Z 00000KT 10SM OVC075 11/09 A3016 RMK AO2 RAB1955E40 SLP221 P0001 60001 T01110089 56023=
201704291953 METAR KBLI 291953Z 18006KT 10SM SCT060 BKN075 OVC090 11/07 A3017 RMK AO2 SLP226 T01060067=
201704291853 METAR KBLI 291853Z VRB06KT 10SM BKN100 11/07 A3021 RMK AO2 SLP239 T01060067=
201704291753 METAR KBLI 291753Z VRB06KT 10SM BKN100 09/06 A3023 RMK AO2 SLP245 T00940061 10100 20050 58019=
201704291653 METAR KBLI 291653Z 17008KT 10SM BKN110 09/06 A3025 RMK AO2 SLP251 T00940061=
201704291553 METAR KBLI 291553Z 16005KT 10SM FEW120 09/05 A3028 RMK AO2 SLP260 T00940050=
201704291453 METAR KBLI 291453Z 00000KT 10SM CLR 08/06 A3029 RMK AO2 SLP263 T00780056 53003=
201704291353 METAR KBLI 291353Z 00000KT 10SM CLR 06/05 A3027 RMK AO2 SLP258 T00610050=
201704291253 METAR KBLI 291253Z AUTO 00000KT 10SM CLR 06/04 A3027 RMK AO2 SLP257 T00560044=
201704291153 METAR KBLI 291153Z AUTO 15004KT 10SM CLR 06/04 A3028 RMK AO2 SLP260 T00610044 10106 20056 57008=
201704291053 METAR KBLI 291053Z AUTO 00000KT 10SM CLR 06/04 A3029 RMK AO2 SLP264 T00610044=
201704290953 METAR KBLI 290953Z AUTO 00000KT 10SM CLR 07/04 A3029 RMK AO2 SLP265 T00670044=
201704290853 METAR KBLI 290853Z AUTO 17003KT 10SM CLR 08/04 A3030 RMK AO2 SLP268 T00830044 55002=
201704290753 METAR KBLI 290753Z AUTO 16004KT 10SM CLR 08/04 A3030 RMK AO2 SLP267 T00830044 401500072=
201704290653 METAR KBLI 290653Z AUTO 12006KT 10SM CLR 08/04 A3030 RMK AO2 SLP267 T00830044=
201704290553 METAR KBLI 290553Z AUTO 17005KT 10SM CLR 11/05 A3031 RMK AO2 SLP270 T01060050 10150 20106 55000=
201704290453 METAR KBLI 290453Z 17006KT 10SM CLR 11/05 A3031 RMK AO2 SLP269 T01110050=
201704290353 METAR KBLI 290353Z 17006KT 10SM CLR 11/06 A3031 RMK AO2 SLP269 T01110061=
201704290253 METAR KBLI 290253Z VRB06KT 10SM CLR 12/05 A3031 RMK AO2 SLP271 T01220050 55002=
201704290153 METAR KBLI 290153Z 17006KT 10SM CLR 13/05 A3031 RMK AO2 SLP270 T01330050=
201704290053 METAR KBLI 290053Z 16007KT 10SM CLR 14/02 A3031 RMK AO2 SLP272 T01390022=
201704282353 METAR KBLI 282353Z 16008KT 120V180 10SM CLR 15/04 A3032 RMK AO2 SLP273 T01500044 10150 20106 58010=
201704282253 METAR KBLI 282253Z 15005KT 10SM CLR 14/04 A3033 RMK AO2 SLP276 T01440044=
201704282153 METAR KBLI 282153Z 17007KT 10SM CLR 14/05 A3034 RMK AO2 SLP281 T01390050=
201704282053 METAR KBLI 282053Z 20005KT 10SM FEW027 13/06 A3034 RMK AO2 SLP283 T01280061 50000=
201704281953 METAR KBLI 281953Z 18008KT 10SM BKN022 OVC028 12/07 A3035 RMK AO2 SLP284 T01220067=
201704281853 METAR KBLI 281853Z VRB04KT 10SM BKN023 12/06 A3034 RMK AO2 SLP282 T01170056=
201704281753 METAR KBLI 281753Z 25004KT 10SM BKN025 11/06 A3034 RMK AO2 SLP283 T01060056 10106 20078 51013=
201704281653 METAR KBLI 281653Z VRB04KT 10SM SCT019 BKN025 OVC031 10/05 A3033 RMK AO2 SLP279 T01000050=
201704281553 METAR KBLI 281553Z 20003KT 10SM BKN019 OVC027 09/05 A3032 RMK AO2 SLP276 T00940050=
201704281521 SPECI KBLI 281521Z 16006KT 10SM FEW021 BKN028 10/05 A3031 RMK AO2 T01000050=
201704281453 METAR KBLI 281453Z 17005KT 10SM SCT023 09/05 A3031 RMK AO2 SLP270 T00940050 51010=
201704281353 METAR KBLI 281353Z 18004KT 10SM SCT026 OVC032 09/06 A3030 RMK AO2 SLP266 T00890056=
201704281348 SPECI KBLI 281348Z 17003KT 10SM OVC030 09/06 A3029 RMK AO2=
201704281312 SPECI KBLI 281312Z AUTO 18003KT 10SM OVC029 08/06 A3028 RMK AO2 T00830061=
201704281300 SPECI KBLI 281300Z AUTO 17004KT 10SM OVC031 08/06 A3028 RMK AO2 T00830061=
201704281253 METAR KBLI 281253Z AUTO 18003KT 10SM OVC029 08/06 A3028 RMK AO2 SLP260 T00830061=
201704281153 METAR KBLI 281153Z AUTO 15004KT 10SM OVC027 08/06 A3025 RMK AO2 SLP252 60000 70001 T00830056 10083 20061 53017=
201704281053 METAR KBLI 281053Z AUTO 16004KT 10SM BKN024 08/06 A3023 RMK AO2 SLP245 T00830056=
201704281045 SPECI KBLI 281045Z AUTO VRB03KT 10SM BKN025 BKN038 08/06 A3023 RMK AO2 T00830056=
201704280953 METAR KBLI 280953Z AUTO 17005KT 10SM OVC039 08/06 A3021 RMK AO2 RAB0856E12 SLP239 P0000 T00830061=
201704280853 METAR KBLI 280853Z AUTO 15004KT 10SM OVC047 08/05 A3020 RMK AO2 SLP235 T00780050 51015=
201704280753 METAR KBLI 280753Z AUTO 16003KT 10SM FEW045 BKN055 OVC070 07/05 A3019 RMK AO2 SLP232 T00720050 401330061=
201704280653 METAR KBLI 280653Z AUTO 00000KT 10SM OVC046 07/05 A3018 RMK AO2 SLP227 T00720050=
201704280553 METAR KBLI 280553Z AUTO 00000KT 10SM CLR 06/05 A3016 RMK AO2 SLP222 T00610050 10133 20061 51020=
201704280453 METAR KBLI 280453Z 00000KT 10SM CLR 07/05 A3014 RMK AO2 SLP216 T00670050=
201704280353 METAR KBLI 280353Z 26003KT 10SM BKN080 09/05 A3012 RMK AO2 SLP208 T00890050=
201704280253 METAR KBLI 280253Z 27004KT 10SM CLR 11/04 A3010 RMK AO2 SLP202 T01060044 53012=
201704280153 METAR KBLI 280153Z 26006KT 10SM CLR 12/03 A3009 RMK AO2 SLP195 T01220028=
201704280053 METAR KBLI 280053Z VRB03KT 10SM FEW046 13/02 A3007 RMK AO2 SLP190 T01280017=
201704272353 METAR KBLI 272353Z 17009KT 10SM SCT047 12/02 A3007 RMK AO2 SLP189 60001 T01220022 10133 20089 51003=
201704272253 METAR KBLI 272253Z 18007KT 140V210 10SM SCT045 13/04 A3007 RMK AO2 SLP188 T01280039=
201704272153 METAR KBLI 272153Z 17007KT 10SM FEW085 12/04 A3007 RMK AO2 SLP188 T01170039=
201704272053 METAR KBLI 272053Z 17006KT 10SM BKN075 BKN090 12/04 A3006 RMK AO2 SLP186 60001 T01170039 58000=
201704271953 METAR KBLI 271953Z 18005KT 10SM FEW046 BKN060 OVC085 11/04 A3006 RMK AO2 RAB30E40 SLP187 P0000 T01110039=
201704271853 METAR KBLI 271853Z 00000KT 10SM SCT021 SCT027 OVC045 10/04 A3006 RMK AO2 RAE06 SLP188 P0001 T01000044=
201704271753 METAR KBLI 271753Z 35005KT 5SM -RA SCT021 SCT027 OVC045 09/06 A3006 RMK AO2 RAB14E29B46 SLP187 P0000 60000 T00890056 10089 20072 51010=
201704271653 METAR KBLI 271653Z 31003KT 10SM SCT021 OVC045 09/06 A3005 RMK AO2 RAB27E44 SLP185 P0000 T00890056=
201704271636 SPECI KBLI 271636Z 30003KT 10SM -RA SCT021 BKN042 OVC060 08/05 A3005 RMK AO2 RAB27 P0000 T00830050=
201704271629 SPECI KBLI 271629Z 27003KT 10SM -RA BKN021 BKN042 OVC060 08/04 A3005 RMK AO2 RAB27 P0000 T00830044=
201704271553 METAR KBLI 271553Z 21004KT 10SM FEW021 OVC060 08/05 A3004 RMK AO2 RAB42E52 SLP181 P0000 T00830050=
201704271453 METAR KBLI 271453Z 15006KT 10SM SCT046 SCT050 OVC070 08/05 A3003 RMK AO2 SLP176 60000 T00830050 53014=
201704271355 SPECI KBLI 271355Z 16008KT 10SM FEW044 SCT070 OVC095 08/05 A3001 RMK AO2 T00780050=
201704271353 METAR KBLI 271353Z AUTO 15007KT 10SM SCT070 OVC095 08/05 A3001 RMK AO2 SLP171 T00780050=
201704271253 METAR KBLI 271253Z AUTO 17005KT 10SM SCT044 BKN065 OVC100 08/06 A3000 RMK AO2 RAB1158E11 SLP167 P0000 T00780056=
201704271153 METAR KBLI 271153Z AUTO 17004KT 10SM FEW020 BKN044 OVC060 08/06 A2999 RMK AO2 SLP162 60000 T00780056 10100 20072 52009=
201704271053 METAR KBLI 271053Z AUTO 00000KT 10SM OVC041 08/06 A2998 RMK AO2 RAE45 SLP159 P0000 T00780061=
201704270953 METAR KBLI 270953Z AUTO 17004KT 6SM -RA BR FEW016 OVC035 08/06 A2997 RMK AO2 RAB05 SLP156 P0000 T00780056=
201704270853 METAR KBLI 270853Z AUTO 19003KT 10SM OVC036 09/04 A2996 RMK AO2 RAB05E16 SLP153 P0000 60000 T00890044 53015=
201704270753 METAR KBLI 270753Z AUTO 17004KT 10SM OVC036 09/03 A2995 RMK AO2 SLP148 T00940028 401440094=
201704270653 METAR KBLI 270653Z AUTO VRB04KT 10SM BKN038 OVC048 09/03 A2993 RMK AO2 SLP141 T00940028=
201704270553 METAR KBLI 270553Z AUTO 21006KT 10SM SCT031 OVC042 10/03 A2992 RMK AO2 SLP138 60000 T01000033 10139 20100 51021=
201704270530 SPECI KBLI 270530Z AUTO 10SM SCT029 OVC044 10/03 A2991 RMK AO2 T01000033=
201704270453 METAR KBLI 270453Z VRB05KT 10SM BKN028 OVC036 10/03 A2990 RMK AO2 RAB06E26 SLP133 P0000 T01000033=
201704270353 METAR KBLI 270353Z 20006KT 10SM OVC055 11/03 A2988 RMK AO2 SLP125 T01060028=
201704270253 METAR KBLI 270253Z 23003KT 10SM OVC060 12/03 A2986 RMK AO2 SLP117 T01170028 51016=
201704270153 METAR KBLI 270153Z 22007G14KT 10SM SCT060 13/02 A2984 RMK AO2 SLP112 T01280022=
201704270053 METAR KBLI 270053Z 26008G15KT 210V290 10SM OVC060 13/03 A2983 RMK AO2 SLP107 T01330028=
201704262353 METAR KBLI 262353Z 24010G15KT 200V280 10SM SCT045 BKN060 14/03 A2981 RMK AO2 SLP101 T01390033 10144 20122 51004=
201704262253 METAR KBLI 262253Z 20008KT 10SM SCT043 SCT050 SCT065 13/06 A2980 RMK AO2 SLP099 T01330056=
201704262153 METAR KBLI 262153Z 19007G17KT 160V240 10SM SCT040 SCT047 BKN055 14/06 A2981 RMK AO2 SLP100 T01390056=
201704262053 METAR KBLI 262053Z 18009G18KT 10SM BKN040 BKN047 OVC085 14/06 A2980 RMK AO2 SLP097 T01390056 51008=
201704261953 METAR KBLI 261953Z 20008G16KT 10SM BKN043 BKN050 13/05 A2979 RMK AO2 SLP093 T01280050=
201704261853 METAR KBLI 261853Z VRB06KT 10SM BKN037 BKN070 12/06 A2979 RMK AO2 SLP093 T01220056=
201704261753 METAR KBLI 261753Z VRB06KT 10SM OVC085 13/04 A2977 RMK AO2 SLP089 60000 T01280044 10128 20100 51012=
201704261653 METAR KBLI 261653Z 17006KT 10SM FEW060 OVC080 12/07 A2976 RMK AO2 RAB24E33 SLP086 P0000 T01170072=
201704261553 METAR KBLI 261553Z 18008KT 10SM FEW075 OVC090 11/07 A2975 RMK AO2 SLP082 T01060072=
201704261453 METAR KBLI 261453Z 18006G15KT 10SM SCT090 11/08 A2974 RMK AO2 RAE09 SLP077 P0000 60000 T01060078 51003=
201704261353 METAR KBLI 261353Z 18006KT 10SM -RA SCT019 BKN024 BKN090 10/08 A2973 RMK AO2 RAB45 SLP076 P0000 T01000078=
201704261253 METAR KBLI 261253Z AUTO 17008KT 10SM BKN065 BKN085 10/08 A2973 RMK AO2 SLP074 T01000078=
201704261212 SPECI KBLI 261212Z AUTO 16011G18KT 10SM FEW019 SCT028 BKN060 10/08 A2973 RMK AO2 T01000083=
201704261153 METAR KBLI 261153Z AUTO 17010G16KT 10SM FEW016 SCT022 BKN028 10/09 A2974 RMK AO2 SLP076 60000 T01000089 10106 20094 55001=
201704261125 SPECI KBLI 261125Z AUTO 17011KT 10SM FEW015 BKN021 BKN080 10/08 A2973 RMK AO2 T01000083=
201704261104 SPECI KBLI 261104Z AUTO 16010KT 10SM FEW012 SCT028 BKN048 10/09 A2973 RMK AO2 T01000089=
201704261053 METAR KBLI 261053Z AUTO 16011G17KT 10SM FEW012 BKN027 OVC048 10/09 A2973 RMK AO2 SLP074 T01000089=
201704261009 SPECI KBLI 261009Z AUTO 16010KT 10SM SCT011 OVC035 10/09 A2973 RMK AO2 T01000089=
201704260953 METAR KBLI 260953Z AUTO 16007KT 130V190 10SM BKN011 OVC031 10/09 A2973 RMK AO2 RAE30 SLP074 P0000 T01000089=
201704260928 SPECI KBLI 260928Z AUTO VRB04KT 9SM -RA OVC013 09/09 A2973 RMK AO2 P0000 T00940089=
201704260904 SPECI KBLI 260904Z AUTO 00000KT 3SM -RA BR OVC017 09/09 A2974 RMK AO2 P0000 T00940089=
201704260853 METAR KBLI 260853Z AUTO 00000KT 2 1/2SM -RA BR OVC019 09/08 A2974 RMK AO2 SLP077 P0000 60000 T00940083 55002=
201704260810 SPECI KBLI 260810Z AUTO 00000KT 10SM -RA OVC028 10/08 A2973 RMK AO2 P0000 T01000083=
201704260753 METAR KBLI 260753Z AUTO 00000KT 10SM -RA OVC030 09/08 A2973 RMK AO2 RAB27 SLP075 P0000 T00940083 401390094=
201704260653 METAR KBLI 260653Z AUTO 07004KT 10SM OVC043 10/07 A2974 RMK AO2 SLP077 T01000072=
201704260553 METAR KBLI 260553Z AUTO 12007KT 10SM OVC048 11/07 A2974 RMK AO2 RAE29 SLP078 P0000 60000 T01060072 10139 20094 57006=
201704260453 METAR KBLI 260453Z 00000KT 10SM -RA OVC048 10/08 A2975 RMK AO2 SLP082 P0000 T01000083=
201704260353 METAR KBLI 260353Z 11005KT 10SM -RA OVC060 12/06 A2975 RMK AO2 SLP081 P0000 T01170056=
201704260253 METAR KBLI 260253Z 12008KT 10SM -RA OVC065 13/04 A2976 RMK AO2 RAB31 SLP084 P0000 60000 T01280039 56019=
201704260153 METAR KBLI 260153Z 15011G17KT 10SM OVC080 14/04 A2978 RMK AO2 SLP090 T01390039=
201704260053 METAR KBLI 260053Z 17009KT 10SM OVC100 13/06 A2980 RMK AO2 SLP097 T01330061=
201704252353 METAR KBLI 252353Z 17009G17KT 10SM FEW120 13/06 A2982 RMK AO2 SLP103 T01330056 10139 20117 58021=
201704252253 METAR KBLI 252253Z 17010G16KT 10SM SCT045 13/06 A2984 RMK AO2 SLP112 T01330056=
201704252153 METAR KBLI 252153Z 17010G17KT 10SM CLR 13/05 A2986 RMK AO2 SLP118 T01330050=
201704252053 METAR KBLI 252053Z 17011G21KT 10SM BKN060 13/06 A2988 RMK AO2 SLP125 T01330061 58013=
201704251953 METAR KBLI 251953Z 18008KT 10SM CLR 13/07 A2990 RMK AO2 SLP131 T01280067=
201704251853 METAR KBLI 251853Z 17012G19KT 10SM FEW036 13/06 A2991 RMK AO2 SLP135 T01280061=
201704251753 METAR KBLI 251753Z 15010KT 10SM BKN031 OVC080 12/06 A2992 RMK AO2 SLP138 T01170061 10117 20100 56005=
201704251740 SPECI KBLI 251740Z 17011G18KT 10SM SCT028 OVC033 12/06 A2992 RMK AO2 T01170056=
201704251653 METAR KBLI 251653Z 16008KT 10SM BKN023 OVC029 11/06 A2992 RMK AO2 SLP139 T01060061=
201704251553 METAR KBLI 251553Z 18008KT 10SM BKN026 OVC070 10/07 A2993 RMK AO2 SLP142 T01000067=
201704251453 METAR KBLI 251453Z 17010KT 10SM FEW015 BKN026 OVC070 10/07 A2993 RMK AO2 SLP143 T01000067 51010=
201704251353 METAR KBLI 251353Z 17010KT 10SM BKN026 OVC060 10/07 A2993 RMK AO2 SLP142 T01000072=
201704251323 SPECI KBLI 251323Z AUTO 17011KT 10SM BKN024 OVC055 10/07 A2992 RMK AO2 T01000072=
201704251305 SPECI KBLI 251305Z AUTO 17010G17KT 10SM SCT024 OVC060 10/08 A2991 RMK AO2 T01000078=
201704251253 METAR KBLI 251253Z AUTO 17012G18KT 10SM BKN023 OVC065 10/07 A2991 RMK AO2 SLP136 T01000072=
201704251153 METAR KBLI 251153Z AUTO 17009KT 10SM OVC020 11/07 A2990 RMK AO2 SLP133 T01060072 10106 20089 50004=
201704251053 METAR KBLI 251053Z AUTO 17009G16KT 10SM OVC019 11/08 A2991 RMK AO2 SLP134 T01060078=
201704251041 SPECI KBLI 251041Z AUTO 17009KT 10SM BKN020 11/08 A2991 RMK AO2 T01060078=
201704250953 METAR KBLI 250953Z AUTO 17012G17KT 10SM FEW080 10/07 A2990 RMK AO2 SLP132 T01000072=
201704250853 METAR KBLI 250853Z AUTO 16009KT 10SM OVC080 10/07 A2989 RMK AO2 SLP130 T01000072 51010=
201704250753 METAR KBLI 250753Z AUTO 16009KT 10SM OVC075 11/07 A2989 RMK AO2 SLP128 T01060067 401390078=
201704250653 METAR KBLI 250653Z AUTO 16007KT 10SM OVC060 11/06 A2988 RMK AO2 SLP124 T01060061=
201704250553 METAR KBLI 250553Z AUTO 17004KT 10SM CLR 09/06 A2986 RMK AO2 SLP119 T00940061 10139 20083 51023=
201704250453 METAR KBLI 250453Z 17005KT 10SM CLR 09/07 A2984 RMK AO2 SLP112 T00940072=
201704250353 METAR KBLI 250353Z 19004KT 10SM CLR 09/07 A2982 RMK AO2 SLP105 T00940072=
201704250253 METAR KBLI 250253Z 00000KT 10SM CLR 12/07 A2979 RMK AO2 SLP096 T01170072 53011=
201704250153 METAR KBLI 250153Z 28004KT 10SM CLR 13/06 A2978 RMK AO2 SLP090 T01330061=
201704250053 METAR KBLI 250053Z VRB06KT 10SM CLR 13/07 A2977 RMK AO2 SLP087 T01330067=
201704242353 METAR KBLI 242353Z 26008KT 10SM CLR 13/05 A2976 RMK AO2 SLP085 T01280050 10133 20111 51004=
201704242253 METAR KBLI 242253Z 26008KT 230V290 10SM CLR 13/06 A2976 RMK AO2 SLP084 T01330061=
201704242153 METAR KBLI 242153Z 30010KT 10SM FEW055 13/07 A2976 RMK AO2 SLP085 T01280067=
201704242053 METAR KBLI 242053Z VRB06KT 10SM FEW035 BKN047 OVC060 12/06 A2975 RMK AO2 SLP081 T01220061 53004=
201704241953 METAR KBLI 241953Z 29008KT 10SM FEW025 BKN038 BKN050 13/06 A2974 RMK AO2 SLP078 T01330056=
201704241853 METAR KBLI 241853Z 33006KT 10SM FEW022 OVC042 12/06 A2974 RMK AO2 SLP077 T01170061=
201704241753 METAR KBLI 241753Z 02004KT 10SM FEW022 SCT042 11/07 A2974 RMK AO2 SLP077 60000 T01110072 10117 20078 58001=
201704241653 METAR KBLI 241653Z 15004KT 10SM FEW016 SCT032 10/07 A2974 RMK AO2 SLP078 T01000067=
201704241553 METAR KBLI 241553Z 00000KT 10SM SCT032 OVC055 09/08 A2975 RMK AO2 SLP080 T00940078=
201704241453 METAR KBLI 241453Z 01003KT 10SM SCT018 OVC026 08/08 A2974 RMK AO2 RAB34E45 SLP080 P0000 60000 T00830078 53001=
201704241353 METAR KBLI 241353Z 05003KT 10SM OVC022 08/07 A2974 RMK AO2 SLP079 T00780072=
201704241253 METAR KBLI 241253Z AUTO 03004KT 10SM OVC020 08/07 A2974 RMK AO2 SLP076 T00780072=
201704241153 METAR KBLI 241153Z AUTO 05003KT 10SM BKN022 OVC035 08/07 A2974 RMK AO2 SLP078 60000 T00780072 10094 20078 56007=
201704241053 METAR KBLI 241053Z AUTO 05004KT 10SM BKN025 OVC030 08/07 A2975 RMK AO2 RAE49 SLP080 P0000 T00780072=
201704241032 SPECI KBLI 241032Z AUTO 06004KT 10SM -RA BKN023 OVC037 08/07 A2975 RMK AO2 P0000 T00830072=
201704240953 METAR KBLI 240953Z AUTO 05003KT 10SM -RA FEW023 OVC035 08/07 A2975 RMK AO2 SLP081 P0000 T00830072=
201704240940 SPECI KBLI 240940Z AUTO 07004KT 9SM -RA FEW023 BKN030 OVC036 08/07 A2975 RMK AO2 P0000 T00830072=
201704240853 METAR KBLI 240853Z AUTO 10003KT 10SM -RA BKN020 OVC027 09/07 A2976 RMK AO2 SLP085 P0000 60000 T00890072 58005=
201704240753 METAR KBLI 240753Z AUTO 14005KT 10SM -RA OVC020 09/07 A2977 RMK AO2 SLP087 P0000 T00890072 401390089=
201704240704 SPECI KBLI 240704Z AUTO 14005KT 9SM -RA BKN024 BKN031 OVC044 09/08 A2977 RMK AO2 P0000 T00890078=
201704240653 METAR KBLI 240653Z AUTO 15006KT 9SM -RA SCT024 BKN031 OVC044 09/08 A2978 RMK AO2 SLP090 P0000 T00890078=
201704240608 SPECI KBLI 240608Z AUTO 14008KT 10SM -RA FEW017 SCT027 OVC036 09/07 A2978 RMK AO2 P0000 T00890072=
201704240553 METAR KBLI 240553Z AUTO 14006KT 10SM -RA BKN017 BKN027 OVC032 09/07 A2978 RMK AO2 SLP091 P0000 60000 T00940072 10117 20089 50004=
201704240500 SPECI KBLI 240500Z 15008KT 10SM -RA BKN020 BKN030 OVC034 09/07 A2978 RMK AO2 P0000 T00940072=
201704240453 METAR KBLI 240453Z 15008KT 7SM -RA SCT022 OVC030 09/07 A2978 RMK AO2 SLP092 P0000 T00940072=
201704240437 SPECI KBLI 240437Z 16009G16KT 10SM -RA SCT022 OVC030 09/07 A2978 RMK AO2 P0000 T00940072=
201704240410 SPECI KBLI 240410Z 15009KT 9SM -RA SCT017 BKN026 OVC036 09/08 A2978 RMK AO2 P0000 T00940078=
201704240353 METAR KBLI 240353Z 15008KT 7SM -RA FEW017 BKN034 OVC041 09/08 A2978 RMK AO2 SLP090 P0000 T00940078=
201704240253 METAR KBLI 240253Z 14011KT 10SM -RA OVC048 10/07 A2977 RMK AO2 SLP087 P0000 60000 T01000072 56005=
201704240153 METAR KBLI 240153Z 14013G23KT 10SM -RA FEW026 SCT049 OVC060 11/07 A2977 RMK AO2 RAB42 SLP088 P0000 T01060067=
201704240053 METAR KBLI 240053Z 14013G18KT 10SM OVC055 12/07 A2977 RMK AO2 RAB26E39 SLP088 P0000 T01170067=
201704232353 METAR KBLI 232353Z 14012G22KT 10SM OVC070 12/07 A2978 RMK AO2 RAE28 SLP092 P0000 60000 T01170067 10139 20117 56014=
201704232253 METAR KBLI 232253Z 15011G17KT 10SM -RA OVC070 12/07 A2980 RMK AO2 RAB32 SLP097 P0000 T01170072=
201704232153 METAR KBLI 232153Z 17010KT 10SM FEW035 OVC080 13/07 A2981 RMK AO2 SLP100 T01280067=
201704232053 METAR KBLI 232053Z 14010KT 10SM FEW031 SCT043 BKN055 13/07 A2982 RMK AO2 SLP106 T01330067 58015=
201704231953 METAR KBLI 231953Z 16007KT 10SM SCT038 BKN055 13/07 A2984 RMK AO2 SLP111 T01330067=
201704231853 METAR KBLI 231853Z 19006KT 10SM SCT029 BKN040 BKN050 13/06 A2986 RMK AO2 SLP118 T01280061=
201704231753 METAR KBLI 231753Z 16006KT 10SM FEW027 BKN034 BKN048 12/07 A2987 RMK AO2 SLP122 T01220067 10122 20106 55003=
201704231653 METAR KBLI 231653Z 19009KT 10SM BKN035 OVC065 11/08 A2987 RMK AO2 SLP121 T01110078=
201704231553 METAR KBLI 231553Z 17008KT 10SM SCT028 BKN039 OVC047 11/07 A2988 RMK AO2 SLP124 T01110072=
201704231513 SPECI KBLI 231513Z 16008KT 10SM OVC031 11/07 A2988 RMK AO2 T01060072=
201704231453 METAR KBLI 231453Z 17008KT 10SM OVC029 11/07 A2988 RMK AO2 SLP125 T01060072 56007=
201704231440 SPECI KBLI 231440Z 16009KT 10SM BKN029 BKN035 OVC047 11/07 A2988 RMK AO2 T01060072=
201704231353 METAR KBLI 231353Z 14013KT 10SM OVC031 11/07 A2988 RMK AO2 SLP126 T01060072=
201704231332 SPECI KBLI 231332Z AUTO 16008KT 10SM OVC029 11/07 A2989 RMK AO2 T01060067=
201704231253 METAR KBLI 231253Z AUTO 16011KT 10SM BKN039 OVC047 11/07 A2989 RMK AO2 SLP128 T01060067=
201704231202 SPECI KBLI 231202Z AUTO 16008G17KT 10SM BKN032 BKN039 OVC046 11/06 A2990 RMK AO2 T01110061=
201704231153 METAR KBLI 231153Z AUTO 16009KT 10SM BKN029 BKN037 OVC045 11/07 A2990 RMK AO2 SLP132 T01110067 10117 20111 56008=
201704231119 SPECI KBLI 231119Z AUTO 16009KT 10SM BKN027 OVC033 12/06 A2991 RMK AO2 T01170061=
201704231053 METAR KBLI 231053Z AUTO 15010KT 10SM OVC030 12/07 A2991 RMK AO2 SLP134 T01170067=
201704231005 SPECI KBLI 231005Z AUTO 16011KT 10SM BKN029 OVC036 12/07 A2991 RMK AO2 T01170067=
201704230953 METAR KBLI 230953Z AUTO 16010G16KT 10SM BKN030 OVC036 12/07 A2991 RMK AO2 SLP137 T01170067=
201704230853 METAR KBLI 230853Z AUTO 17010KT 10SM OVC032 12/07 A2992 RMK AO2 SLP140 T01170067 53005=
201704230823 SPECI KBLI 230823Z AUTO 16010G19KT 10SM OVC030 12/07 A2992 RMK AO2 T01170067=
201704230815 SPECI KBLI 230815Z AUTO 16012G19KT 10SM BKN028 OVC034 12/07 A2993 RMK AO2 T01170067=
201704230753 METAR KBLI 230753Z AUTO 16013G20KT 10SM BKN030 OVC055 12/07 A2992 RMK AO2 SLP139 T01170072 401610083=
201704230653 METAR KBLI 230653Z AUTO 16013KT 10SM BKN065 OVC090 12/07 A2991 RMK AO2 SLP135 T01170072=
201704230553 METAR KBLI 230553Z AUTO 16011KT 10SM BKN075 OVC100 12/08 A2991 RMK AO2 SLP135 T01220078 10150 20117 51010=
201704230453 METAR KBLI 230453Z 16008G18KT 10SM BKN049 12/08 A2991 RMK AO2 SLP134 T01220083=
201704230353 METAR KBLI 230353Z 16013G18KT 10SM BKN036 OVC048 13/08 A2989 RMK AO2 SLP129 T01330078=
201704230253 METAR KBLI 230253Z 16011G19KT 10SM SCT032 BKN070 OVC085 13/08 A2988 RMK AO2 SLP124 T01330083 53013=
201704230153 METAR KBLI 230153Z 17013G18KT 10SM FEW028 OVC038 13/09 A2987 RMK AO2 SLP120 T01330089=
201704230053 METAR KBLI 230053Z 16013G20KT 10SM OVC036 14/07 A2984 RMK AO2 PK WND 15026/0026 SLP113 T01440072=
201704222353 METAR KBLI 222353Z 14012G19KT 10SM BKN039 OVC048 14/07 A2984 RMK AO2 SLP111 60000 T01440067 10161 20117 55000=
201704222253 METAR KBLI 222253Z 14014G20KT 10SM SCT070 BKN080 OVC120 14/08 A2984 RMK AO2 SLP111 T01440078=
201704222153 METAR KBLI 222153Z AUTO 14014G26KT 10SM FEW038 BKN070 OVC090 14/08 A2984 RMK AO2 PK WND 13026/2147 RAE00 SLP110 P0000 T01440083=
201704222053 METAR KBLI 222053Z 15011G22KT 10SM -RA BKN060 OVC075 12/09 A2984 RMK AO2 SLP111 P0000 60000 T01220089 51033=
201704221953 METAR KBLI 221953Z 18010G23KT 10SM -RA BKN060 OVC080 14/07 A2983 RMK AO2 RAB41 SLP107 P0000 T01390072=
201704221853 METAR KBLI 221853Z 00000KT 10SM OVC095 16/06 A2976 RMK AO2 SLP083 T01560061=
201704221753 METAR KBLI 221753Z 02006KT 10SM OVC110 16/04 A2974 RMK AO2 SLP078 T01560044 10156 20106 56009=
201704221653 METAR KBLI 221653Z 01007KT 10SM CLR 16/04 A2974 RMK AO2 SLP079 T01560044=
201704221553 METAR KBLI 221553Z 02009KT 10SM CLR 14/04 A2974 RMK AO2 SLP077 T01440039=
201704221453 METAR KBLI 221453Z 02008KT 10SM CLR 13/04 A2977 RMK AO2 SLP086 T01330044 58030=
201704221353 METAR KBLI 221353Z 01007KT 10SM CLR 11/04 A2980 RMK AO2 SLP098 T01110039=
201704221253 METAR KBLI 221253Z AUTO 01005KT 10SM CLR 11/04 A2983 RMK AO2 SLP109 T01060039=
201704221153 METAR KBLI 221153Z AUTO 03007KT 10SM CLR 11/03 A2986 RMK AO2 SLP117 T01060033 10117 20083 58033=
201704221053 METAR KBLI 221053Z AUTO 01004KT 10SM CLR 10/04 A2990 RMK AO2 SLP131 T01000044=
201704220953 METAR KBLI 220953Z AUTO 36003KT 10SM CLR 09/05 A2992 RMK AO2 SLP140 T00890050=
201704220853 METAR KBLI 220853Z AUTO 35003KT 10SM CLR 10/06 A2996 RMK AO2 SLP151 T01000056 58028=
201704220753 METAR KBLI 220753Z AUTO 02003KT 10SM CLR 11/06 A2998 RMK AO2 SLP160 T01060061 401940078=
201704220653 METAR KBLI 220653Z AUTO 02006KT 10SM CLR 11/08 A3002 RMK AO2 SLP171 T01060078=
201704220553 METAR KBLI 220553Z AUTO 00000KT 10SM CLR 10/09 A3004 RMK AO2 SLP179 T01000094 10183 20100 58015=
201704220453 METAR KBLI 220453Z 00000KT 10SM CLR 11/09 A3006 RMK AO2 SLP186 T01110094=
201704220353 METAR KBLI 220353Z 00000KT 10SM CLR 12/09 A3007 RMK AO2 SLP189 T01220094=
201704220253 METAR KBLI 220253Z 28005KT 10SM CLR 16/09 A3009 RMK AO2 SLP195 T01610089 56031=
201704220153 METAR KBLI 220153Z 30003KT 10SM CLR 18/09 A3010 RMK AO2 SLP201 T01780094=
201704220053 METAR KBLI 220053Z 26005KT 10SM CLR 17/09 A3015 RMK AO2 SLP215 T01720089=
201704212353 METAR KBLI 212353Z 31005KT 10SM CLR 18/09 A3018 RMK AO2 SLP226 T01780089 10194 20139 56034=
201704212253 METAR KBLI 212253Z 02008KT 10SM CLR 19/07 A3021 RMK AO2 SLP237 T01940072=
201704212153 METAR KBLI 212153Z 02008KT 10SM CLR 18/06 A3024 RMK AO2 SLP248 T01830061=
201704212053 METAR KBLI 212053Z 01009KT 330V030 10SM CLR 17/07 A3028 RMK AO2 SLP260 T01720067 58031=
201704211953 METAR KBLI 211953Z 03009KT 10SM CLR 16/06 A3031 RMK AO2 SLP271 T01610061=
201704211853 METAR KBLI 211853Z 32009KT 10SM FEW030 15/08 A3034 RMK AO2 SLP282 T01500078=
201704211800 SPECI KBLI 211800Z 03007G16KT 10SM FEW026 14/07 A3037 RMK AO2 T01390072=
201704211753 METAR KBLI 211753Z 04010G16KT 10SM BKN017 14/07 A3037 RMK AO2 SLP291 T01390072 10139 20089 58015=
201704211653 METAR KBLI 211653Z 36007KT 10SM SCT017 BKN027 13/08 A3039 RMK AO2 SLP299 T01280083=
201704211553 METAR KBLI 211553Z 04006KT 10SM SCT013 BKN027 11/08 A3040 RMK AO2 SLP301 T01110078=
201704211512 SPECI KBLI 211512Z 00000KT 10SM BKN025 10/07 A3041 RMK AO2 T01000072=
201704211453 METAR KBLI 211453Z 05003KT 10SM FEW020 10/07 A3041 RMK AO2 SLP306 T01000072 50003=
201704211353 METAR KBLI 211353Z AUTO 00000KT 10SM SCT055 09/07 A3042 RMK AO2 SLP307 T00940072=
201704211253 METAR KBLI 211253Z AUTO 16006KT 10SM OVC060 09/07 A3041 RMK AO2 SLP304 T00940072=
201704211153 METAR KBLI 211153Z AUTO 16006KT 10SM OVC055 10/07 A3041 RMK AO2 SLP303 60000 70001 T01000072 10111 20078 51004=
201704211053 METAR KBLI 211053Z AUTO 16004KT 10SM OVC055 08/07 A3040 RMK AO2 SLP303 T00830072=
201704210953 METAR KBLI 210953Z AUTO 17003KT 10SM OVC050 09/07 A3040 RMK AO2 SLP300 T00890072=
201704210853 METAR KBLI 210853Z AUTO 00000KT 10SM BKN055 BKN070 09/08 A3039 RMK AO2 SLP299 60000 T00890078 51010=
201704210753 METAR KBLI 210753Z AUTO 19003KT 10SM SCT046 09/08 A3039 RMK AO2 RAB00E25 SLP297 P0000 T00940083 401560089=
201704210653 METAR KBLI 210653Z AUTO 18003KT 10SM BKN048 BKN065 OVC080 11/08 A3038 RMK AO2 SLP296 T01060083=
201704210553 METAR KBLI 210553Z AUTO 17003KT 10SM FEW046 OVC070 11/08 A3036 RMK AO2 SLP289 T01110078 10150 20111 51024=
201704210453 METAR KBLI 210453Z 00000KT 10SM OVC065 12/08 A3035 RMK AO2 SLP283 T01170078=
201704210353 METAR KBLI 210353Z 00000KT 10SM OVC065 11/07 A3031 RMK AO2 SLP272 T01110072=
201704210253 METAR KBLI 210253Z 00000KT 10SM SCT055 12/07 A3029 RMK AO2 LTG DSNT SE SLP265 T01220067 53014=
201704210153 METAR KBLI 210153Z 19004KT 10SM FEW049 14/06 A3027 RMK AO2 SLP257 T01390056=
201704210053 METAR KBLI 210053Z 16005KT 10SM CLR 15/05 A3026 RMK AO2 SLP254 T01500050=
201704202353 METAR KBLI 202353Z 17006KT 10SM CLR 15/05 A3025 RMK AO2 SLP252 T01500050 10156 20111 53010=
201704202253 METAR KBLI 202253Z 17006KT 10SM FEW070 14/05 A3024 RMK AO2 SLP246 T01440050=
201704202153 METAR KBLI 202153Z 20007KT 10SM BKN080 14/04 A3023 RMK AO2 SLP245 T01390044=
201704202053 METAR KBLI 202053Z 17004KT 10SM FEW030 SCT040 SCT065 13/07 A3022 RMK AO2 SLP242 T01330067 51012=
201704201953 METAR KBLI 201953Z 18009KT 10SM OVC090 12/08 A3022 RMK AO2 SLP239 T01220078=
201704201853 METAR KBLI 201853Z 17010KT 10SM FEW038 12/07 A3020 RMK AO2 SLP235 T01170072=
201704201753 METAR KBLI 201753Z 16009KT 10SM SCT075 SCT095 12/08 A3019 RMK AO2 SLP230 60001 T01170078 10117 20089 53019=
201704201653 METAR KBLI 201653Z 17006KT 10SM OVC060 11/07 A3016 RMK AO2 SLP222 T01060072=
201704201553 METAR KBLI 201553Z 17007KT 10SM SCT040 BKN050 OVC060 10/07 A3015 RMK AO2 SLP217 T01000067=
201704201453 METAR KBLI 201453Z 17008KT 10SM SCT049 OVC060 09/07 A3013 RMK AO2 SLP211 60001 T00940067 53013=
201704201353 METAR KBLI 201353Z 16006KT 10SM OVC039 09/07 A3012 RMK AO2 SLP206 T00890067=
201704201253 METAR KBLI 201253Z AUTO 16008KT 10SM SCT019 OVC045 09/07 A3010 RMK AO2 RAE19 SLP198 P0001 T00890067=
201704201251 SPECI KBLI 201251Z AUTO 15008KT 10SM SCT019 OVC045 09/07 A3010 RMK AO2 RAE19 P0001=
201704201153 METAR KBLI 201153Z AUTO 15008KT 10SM -RA OVC016 09/07 A3009 RMK AO2 RAB05E33B53 SLP197 P0000 60000 T00940072 10111 20089 53007=
201704201053 METAR KBLI 201053Z AUTO 16006KT 10SM OVC017 09/07 A3008 RMK AO2 SLP194 T00940072=
201704200953 METAR KBLI 200953Z AUTO 15008KT 10SM BKN016 BKN025 OVC060 09/08 A3007 RMK AO2 RAE50 SLP190 P0000 T00940078=
201704200948 SPECI KBLI 200948Z AUTO 16008KT 10SM -RA BKN016 BKN029 OVC055 09/08 A3007 RMK AO2 P0000=
201704200853 METAR KBLI 200853Z AUTO 15010G18KT 8SM -RA FEW015 SCT035 OVC046 09/08 A3006 RMK AO2 SLP187 P0000 60000 T00940078 51015=
201704200753 METAR KBLI 200753Z AUTO 16008G16KT 10SM -RA OVC048 09/07 A3005 RMK AO2 RAB0655 SLP183 P0000 T00890072 401390067=
201704200653 METAR KBLI 200653Z AUTO 16009G15KT 10SM SCT033 OVC044 11/08 A3004 RMK AO2 RAE45 SLP178 P0000 T01060078=
201704200553 METAR KBLI 200553Z AUTO VRB03KT 10SM -RA SCT045 OVC060 10/08 A3002 RMK AO2 RAB52 SLP172 P0000 60000 T01000078 10133 20089 53007=
201704200453 METAR KBLI 200453Z 36003KT 10SM OVC110 09/07 A3000 RMK AO2 SLP166 T00940072=
201704200353 METAR KBLI 200353Z 04003KT 10SM OVC110 11/08 A2999 RMK AO2 SLP164 T01060078=
201704200253 METAR KBLI 200253Z 01004KT 10SM OVC110 11/08 A3000 RMK AO2 SLP166 T01110078 58010=
201704200153 METAR KBLI 200153Z 14009KT 10SM BKN120 13/06 A3001 RMK AO2 SLP170 T01330056=
201704200053 METAR KBLI 200053Z 14011KT 10SM SCT120 13/06 A3003 RMK AO2 SLP175 T01330056=
201704192353 METAR KBLI 192353Z 13013G20KT 10SM CLR 13/06 A3003 RMK AO2 SLP175 60000 T01330056 10139 20111 58005=
201704192253 METAR KBLI 192253Z 14015G22KT 10SM FEW040 13/05 A3004 RMK AO2 PK WND 17028/2222 SLP179 T01330050=
201704192153 METAR KBLI 192153Z 13011KT 10SM SCT110 13/06 A3005 RMK AO2 SLP183 T01330061=
201704192053 METAR KBLI 192053Z 15013G26KT 10SM SCT037 SCT120 13/06 A3004 RMK AO2 PK WND 15032/1956 SLP181 60000 T01280056 51015=
201704191953 METAR KBLI 191953Z 14019G26KT 10SM FEW032 BKN100 BKN120 13/07 A3002 RMK AO2 PK WND 15027/1932 RAE14 SLP174 P0000 T01280067=
201704191853 METAR KBLI 191853Z 16011KT 9SM -RA OVC060 11/07 A3004 RMK AO2 RAB32 SLP179 P0000 T01110072=
201704191753 METAR KBLI 191753Z 14006KT 10SM BKN070 OVC080 13/04 A3000 RMK AO2 SLP165 T01330044 10133 20067 55001=
201704191653 METAR KBLI 191653Z 00000KT 10SM BKN065 OVC080 11/07 A2999 RMK AO2 SLP164 T01110067=
201704191553 METAR KBLI 191553Z VRB03KT 10SM FEW075 SCT110 10/07 A2999 RMK AO2 SLP161 T01000067=
201704191453 METAR KBLI 191453Z 35004KT 10SM SCT110 08/06 A3000 RMK AO2 SLP166 T00780061 55001=
201704191353 METAR KBLI 191353Z 01005KT 10SM CLR 08/06 A2999 RMK AO2 SLP164 T00780056=
201704191253 METAR KBLI 191253Z AUTO 01004KT 10SM CLR 07/06 A3000 RMK AO2 SLP166 T00720061=
201704191153 METAR KBLI 191153Z AUTO VRB03KT 10SM CLR 07/06 A3001 RMK AO2 SLP168 T00720061 10100 20067 56012=
201704191053 METAR KBLI 191053Z AUTO 01003KT 10SM CLR 07/06 A3001 RMK AO2 SLP170 T00720061=
201704190953 METAR KBLI 190953Z AUTO 01005KT 10SM CLR 07/07 A3003 RMK AO2 SLP174 T00720067=
201704190853 METAR KBLI 190853Z 03003KT 9SM CLR 07/07 A3004 RMK AO2 SLP179 T00720067 58005=
201704190753 METAR KBLI 190753Z 01004KT 9SM FEW041 07/07 A3005 RMK AO2 SLP183 T00720067 401610072=
201704190653 METAR KBLI 190653Z 03003KT 10SM SCT041 08/07 A3005 RMK AO2 SLP183 T00830072=
201704190553 METAR KBLI 190553Z 05003KT 10SM FEW043 10/08 A3005 RMK AO2 SLP184 60000 T01000078 10156 20100 51014=
201704190453 METAR KBLI 190453Z 00000KT 10SM BKN044 BKN050 OVC065 11/09 A3004 RMK AO2 RAB20E37 SLP181 P0000 T01110089=
201704190353 METAR KBLI 190353Z 00000KT 10SM SCT039 BKN060 OVC080 12/08 A3004 RMK AO2 SLP178 T01220078=
201704190253 METAR KBLI 190253Z VRB03KT 10SM SCT042 BKN050 13/06 A3001 RMK AO2 SLP170 T01330056 53013=
201704190153 METAR KBLI 190153Z 27004KT 10SM SCT045 BKN050 OVC065 14/06 A2999 RMK AO2 SLP163 T01390056=
201704190053 METAR KBLI 190053Z 29005KT 10SM FEW050 14/07 A2998 RMK AO2 SLP158 T01440072=
201704182353 METAR KBLI 182353Z VRB05KT 10SM FEW110 15/07 A2997 RMK AO2 SLP157 T01500067 10161 20122 53006=
201704182253 METAR KBLI 182253Z 17007KT 10SM FEW060 16/07 A2997 RMK AO2 SLP155 T01560067=
201704182153 METAR KBLI 182153Z 16009G17KT 10SM BKN060 16/08 A2996 RMK AO2 SLP152 T01560083=
201704182053 METAR KBLI 182053Z 16012G18KT 10SM FEW037 15/08 A2996 RMK AO2 SLP151 T01500078 51013=
201704181953 METAR KBLI 181953Z 17010KT 10SM FEW028 BKN037 BKN049 13/08 A2994 RMK AO2 SLP146 T01330078=
201704181853 METAR KBLI 181853Z 16011G19KT 10SM SCT031 BKN038 BKN060 13/08 A2993 RMK AO2 SLP142 T01280083=
201704181800 SPECI KBLI 181800Z 17010G18KT 10SM SCT035 BKN065 BKN095 13/08 A2992 RMK AO2 T01280083=
201704181753 METAR KBLI 181753Z 16012G17KT 10SM BKN026 BKN032 OVC065 13/08 A2992 RMK AO2 SLP138 60000 T01280083 10128 20111 53016=
201704181653 METAR KBLI 181653Z 16012G18KT 10SM BKN024 OVC029 12/08 A2990 RMK AO2 SLP132 T01220078=
201704181617 SPECI KBLI 181617Z 17010G17KT 10SM BKN022 OVC090 12/08 A2989 RMK AO2 T01220078=
201704181553 METAR KBLI 181553Z 16006KT 10SM FEW022 SCT065 OVC090 12/08 A2988 RMK AO2 RAB35E44 SLP124 P0000 T01170083=
201704181529 SPECI KBLI 181529Z 16007KT 10SM SCT022 SCT049 BKN090 12/08 A2987 RMK AO2 T01170078=
201704181453 METAR KBLI 181453Z AUTO 16013G19KT 10SM BKN022 OVC041 12/08 A2987 RMK AO2 SLP122 T01170078 53008=
201704181353 METAR KBLI 181353Z AUTO 16012KT 10SM BKN026 OVC030 12/08 A2986 RMK AO2 SLP117 T01220078=
201704181253 METAR KBLI 181253Z AUTO 13008KT 10SM FEW028 BKN037 OVC095 12/07 A2985 RMK AO2 SLP115 T01170072=
201704181153 METAR KBLI 181153Z AUTO 15008KT 10SM FEW033 SCT090 12/07 A2985 RMK AO2 SLP114 T01170067 10122 20106 53000=
201704181053 METAR KBLI 181053Z AUTO 15008KT 10SM BKN034 OVC120 12/07 A2984 RMK AO2 SLP113 T01220067=
201704181025 SPECI KBLI 181025Z AUTO 16012KT 10SM BKN031 OVC090 12/07 A2984 RMK AO2 T01220067=
201704180953 METAR KBLI 180953Z AUTO 15005KT 10SM OVC029 12/07 A2984 RMK AO2 SLP112 T01220072=
201704180853 METAR KBLI 180853Z AUTO 16008KT 10SM OVC026 12/07 A2985 RMK AO2 SLP113 T01220072 50001=
201704180829 SPECI KBLI 180829Z AUTO 16007G15KT 10SM BKN028 OVC034 12/07 A2985 RMK AO2 T01220072=
201704180753 METAR KBLI 180753Z AUTO 14004KT 10SM SCT025 BKN034 OVC050 12/08 A2985 RMK AO2 SLP114 T01220078 401560083=
201704180705 SPECI KBLI 180705Z AUTO 14007KT 10SM BKN027 BKN034 OVC042 12/08 A2985 RMK AO2 T01170078=
201704180653 METAR KBLI 180653Z AUTO 14003KT 10SM SCT027 BKN034 OVC070 11/08 A2985 RMK AO2 SLP114 T01110083=
201704180553 METAR KBLI 180553Z AUTO 18004KT 10SM FEW033 SCT040 OVC095 11/08 A2984 RMK AO2 SLP113 60000 T01110083 10144 20111 51012=
201704180453 METAR KBLI 180453Z 16009G17KT 10SM SCT029 BKN095 OVC120 12/07 A2983 RMK AO2 SLP110 T01220072=
201704180353 METAR KBLI 180353Z 15012G21KT 10SM BKN080 OVC100 12/07 A2982 RMK AO2 PK WND 15027/0333 SLP105 T01220072=
201704180253 METAR KBLI 180253Z 15012G23KT 10SM FEW060 BKN090 OVC110 12/07 A2981 RMK AO2 RAE00 SLP101 P0000 60000 T01220067 50002=
201704180153 METAR KBLI 180153Z 15015G25KT 10SM -RA OVC090 13/07 A2981 RMK AO2 RAE0058B49 SLP102 P0000 T01280072=
201704180053 METAR KBLI 180053Z 15013G20KT 10SM -RA BKN065 OVC080 14/07 A2981 RMK AO2 RAE28B48 SLP101 P0000 T01390067=
201704172353 METAR KBLI 172353Z 17010G18KT 10SM -RA SCT049 OVC060 14/07 A2980 RMK AO2 RAB51 SLP099 P0000 60000 T01440072 10156 20133 55003=
201704172253 METAR KBLI 172253Z 15013G18KT 10SM SCT041 OVC095 16/07 A2980 RMK AO2 SLP096 T01560067=
201704172153 METAR KBLI 172153Z 17013G23KT 10SM BKN043 BKN060 OVC100 16/07 A2980 RMK AO2 SLP099 T01560067=
201704172053 METAR KBLI 172053Z 15014G25KT 10SM FEW041 OVC095 15/07 A2981 RMK AO2 SLP102 T01500067 58005=
201704171953 METAR KBLI 171953Z 17011KT 10SM SCT035 BKN055 14/07 A2982 RMK AO2 SLP106 T01440072=
201704171853 METAR KBLI 171853Z 18011G17KT 10SM BKN036 OVC045 13/07 A2983 RMK AO2 PK WND 17026/1758 SLP109 T01330072=
201704171753 METAR KBLI 171753Z 16013G24KT 10SM FEW090 14/07 A2983 RMK AO2 SLP107 T01390067 10139 20083 53008=
201704171653 METAR KBLI 171653Z 16013G23KT 10SM SCT033 OVC070 13/06 A2982 RMK AO2 SLP103 T01280061=
201704171553 METAR KBLI 171553Z VRB06KT 10SM SCT035 BKN075 OVC100 12/07 A2981 RMK AO2 SLP102 T01170072=
201704171453 METAR KBLI 171453Z 16011KT 10SM OVC065 11/07 A2980 RMK AO2 SLP099 T01060072 53016=
201704171353 METAR KBLI 171353Z 19003KT 10SM BKN075 OVC090 09/08 A2979 RMK AO2 SLP093 T00890083=
201704171253 METAR KBLI 171253Z AUTO 00000KT 10SM OVC075 08/08 A2976 RMK AO2 SLP085 T00830078=
201704171153 METAR KBLI 171153Z AUTO 00000KT 10SM BKN070 OVC100 08/08 A2976 RMK AO2 SLP083 60000 T00830083 10100 20083 55001=
201704171053 METAR KBLI 171053Z AUTO 16003KT 10SM SCT065 BKN090 OVC110 09/08 A2975 RMK AO2 RAE22 SLP082 P0000 T00940083=
201704170953 METAR KBLI 170953Z AUTO 00000KT 10SM -RA BKN070 OVC090 09/08 A2976 RMK AO2 RAB42 SLP083 P0000 T00890078=
201704170853 METAR KBLI 170853Z AUTO 00000KT 10SM SCT075 OVC090 09/08 A2976 RMK AO2 SLP083 T00890078 58005=
201704170753 METAR KBLI 170753Z AUTO 00000KT 10SM OVC100 09/08 A2976 RMK AO2 SLP085 T00940078 401890033=
201704170653 METAR KBLI 170653Z AUTO 22003KT 10SM OVC100 10/07 A2977 RMK AO2 SLP089 T01000072=
201704170553 METAR KBLI 170553Z AUTO 13003KT 10SM FEW060 OVC080 10/07 A2977 RMK AO2 SLP088 T01000067 10172 20100 53000=
201704170453 METAR KBLI 170453Z 26004KT 10SM OVC095 10/07 A2977 RMK AO2 SLP086 T01000067=
201704170353 METAR KBLI 170353Z 18003KT 10SM BKN120 11/07 A2977 RMK AO2 SLP087 T01060067=
201704170253 METAR KBLI 170253Z 00000KT 10SM OVC110 11/06 A2977 RMK AO2 SLP089 T01060061 58005=
201704170153 METAR KBLI 170153Z 00000KT 10SM FEW100 12/07 A2977 RMK AO2 SLP090 T01220067=
201704170053 METAR KBLI 170053Z 26009KT 10SM CLR 13/07 A2978 RMK AO2 SLP093 T01280067=
201704162353 METAR KBLI 162353Z 27006KT 10SM CLR 17/06 A2979 RMK AO2 SLP093 T01670061 10189 20128 56025=
201704162253 METAR KBLI 162253Z 36010KT 10SM CLR 18/01 A2980 RMK AO2 SLP099 T01830011=
201704162153 METAR KBLI 162153Z 36009KT 10SM CLR 18/02 A2983 RMK AO2 SLP107 T01780022=
201704162053 METAR KBLI 162053Z 02012G19KT 10SM CLR 17/02 A2986 RMK AO2 SLP118 T01670022 58034=
201704161953 METAR KBLI 161953Z 01013KT 10SM CLR 16/02 A2990 RMK AO2 SLP130 T01610022=
201704161853 METAR KBLI 161853Z 03011KT 10SM CLR 14/03 A2993 RMK AO2 SLP143 T01390028=
201704161753 METAR KBLI 161753Z 04010KT 10SM CLR 13/02 A2996 RMK AO2 SLP152 T01330017 10133 20039 58019=
201704161653 METAR KBLI 161653Z 04011KT 10SM CLR 12/02 A2997 RMK AO2 SLP158 T01170022=
201704161553 METAR KBLI 161553Z 03009KT 10SM CLR 09/02 A3000 RMK AO2 SLP168 T00890022=
201704161453 METAR KBLI 161453Z 01006KT 10SM CLR 07/03 A3002 RMK AO2 SLP172 T00670028 56017=
201704161353 METAR KBLI 161353Z 36005KT 10SM CLR 04/02 A3003 RMK AO2 SLP178 T00440022=
201704161253 METAR KBLI 161253Z AUTO 01007KT 10SM CLR 04/02 A3004 RMK AO2 SLP180 T00440022=
201704161153 METAR KBLI 161153Z AUTO 01008KT 10SM CLR 04/02 A3007 RMK AO2 SLP189 70001 T00390022 10061 20033 58023=
201704161053 METAR KBLI 161053Z AUTO 02006KT 10SM CLR 04/02 A3010 RMK AO2 SLP200 T00390022=
201704160953 METAR KBLI 160953Z AUTO 05004KT 10SM CLR 04/03 A3012 RMK AO2 SLP209 T00440033=
201704160853 METAR KBLI 160853Z AUTO 01007KT 10SM CLR 04/03 A3013 RMK AO2 SLP212 T00440033 56012=
201704160753 METAR KBLI 160753Z AUTO 36007KT 10SM CLR 05/03 A3014 RMK AO2 SLP215 T00500033 401390039=
201704160653 METAR KBLI 160653Z AUTO 35003KT 10SM CLR 05/03 A3015 RMK AO2 SLP219 T00500028=
201704160553 METAR KBLI 160553Z AUTO 00000KT 10SM CLR 06/03 A3017 RMK AO2 SLP224 T00610033 10122 20056 58005=
201704160453 METAR KBLI 160453Z 00000KT 10SM CLR 07/03 A3018 RMK AO2 SLP228 T00670033=
201704160353 METAR KBLI 160353Z 00000KT 10SM CLR 08/03 A3018 RMK AO2 SLP229 T00830028=
201704160253 METAR KBLI 160253Z 00000KT 10SM CLR 10/04 A3019 RMK AO2 SLP230 T01000039 58008=
201704160153 METAR KBLI 160153Z 00000KT 10SM CLR 12/04 A3020 RMK AO2 SLP234 T01170039=
201704160053 METAR KBLI 160053Z 02004KT 10SM FEW045 OVC060 12/03 A3020 RMK AO2 SLP235 T01170028=
201704152353 METAR KBLI 152353Z 05006KT 10SM SCT048 12/03 A3021 RMK AO2 SLP238 T01220033 10139 20094 56014=
201704152253 METAR KBLI 152253Z VRB06KT 10SM SCT043 13/02 A3022 RMK AO2 SLP240 T01330022=
201704152153 METAR KBLI 152153Z VRB03KT 10SM CLR 12/02 A3024 RMK AO2 SLP246 T01220017=
201704152053 METAR KBLI 152053Z 18006KT 10SM CLR 11/03 A3025 RMK AO2 SLP252 T01110033 56009=
201704151953 METAR KBLI 151953Z 18009KT 10SM FEW036 11/04 A3026 RMK AO2 SLP255 T01060044=
201704151853 METAR KBLI 151853Z 19008KT 160V220 10SM CLR 10/05 A3027 RMK AO2 SLP259 T01000050=
201704151753 METAR KBLI 151753Z 16010KT 10SM OVC085 09/05 A3028 RMK AO2 SLP261 60001 T00940050 10094 20061 53004=
201704151653 METAR KBLI 151653Z 16010KT 10SM FEW035 BKN065 09/05 A3027 RMK AO2 SLP259 T00890050=
201704151553 METAR KBLI 151553Z 16007KT 10SM FEW019 SCT035 08/05 A3027 RMK AO2 SLP259 T00780050=
201704151453 METAR KBLI 151453Z 17006KT 10SM SCT029 07/05 A3027 RMK AO2 SLP257 60001 T00720050 53006=
201704151353 METAR KBLI 151353Z 16005KT 10SM FEW026 BKN075 06/05 A3026 RMK AO2 RAE14 SLP254 P0000 T00610050=
201704151253 METAR KBLI 151253Z AUTO 14007KT 10SM -RA FEW026 OVC041 06/05 A3025 RMK AO2 SLP252 P0001 T00610050=
201704151208 SPECI KBLI 151208Z AUTO 15007KT 10SM -RA SCT022 BKN033 OVC045 07/05 A3025 RMK AO2 P0000 T00670050=
201704151201 SPECI KBLI 151201Z AUTO 16006KT 10SM -RA SCT022 BKN027 OVC065 07/05 A3025 RMK AO2 P0000 T00670050=
201704151153 METAR KBLI 151153Z AUTO 15008KT 10SM -RA SCT022 OVC032 07/05 A3025 RMK AO2 SLP251 P0001 60025 70025 T00670050 10089 20067 53006=
201704151144 SPECI KBLI 151144Z AUTO 15007KT 10SM -RA BKN022 BKN027 OVC033 07/05 A3025 RMK AO2 P0001 T00670050=
201704151053 METAR KBLI 151053Z AUTO 14011KT 10SM -RA FEW038 BKN060 OVC080 07/06 A3024 RMK AO2 SLP248 P0000 T00670056=
201704151037 SPECI KBLI 151037Z AUTO 14010KT 10SM -RA SCT017 BKN060 OVC080 07/06 A3024 RMK AO2 P0000 T00670056=
201704150953 METAR KBLI 150953Z AUTO 16010KT 10SM -RA FEW011 BKN018 OVC023 07/06 A3023 RMK AO2 SLP246 P0016 T00720056=
201704150926 SPECI KBLI 150926Z AUTO 16009KT 9SM -RA OVC012 07/06 A3023 RMK AO2 P0013 T00720056=
201704150919 SPECI KBLI 150919Z AUTO 20008KT 170V250 2 1/2SM -RA BR SCT010 BKN014 OVC022 07/06 A3023 RMK AO2 P0012 T00670061=
201704150910 SPECI KBLI 150910Z AUTO VRB03KT 2 1/2SM RA BR SCT013 BKN017 OVC024 07/06 A3023 RMK AO2 P0008 T00670061=
201704150853 METAR KBLI 150853Z AUTO 17012G17KT 4SM -RA BR SCT018 OVC026 07/06 A3022 RMK AO2 RAB25 SLP242 P0008 60008 T00720056 53012=
201704150841 SPECI KBLI 150841Z AUTO 18008G15KT 5SM RA SCT021 BKN026 OVC031 08/05 A3022 RMK AO2 RAB25 P0003 T00780050=
201704150833 SPECI KBLI 150833Z AUTO 18009KT 160V230 9SM -RA FEW021 OVC030 08/05 A3021 RMK AO2 RAB25 P0000 T00780050=
201704150753 METAR KBLI 150753Z AUTO 16014G21KT 10SM SCT020 BKN026 OVC070 08/04 A3020 RMK AO2 RAE06 SLP234 P0000 T00830044 401280067=
201704150653 METAR KBLI 150653Z AUTO 16011G19KT 10SM -RA BKN019 OVC027 08/05 A3019 RMK AO2 RAB43 SLP232 P0000 T00830050=
201704150630 SPECI KBLI 150630Z AUTO 16010KT 10SM BKN025 OVC032 09/05 A3019 RMK AO2 T00890050=
201704150553 METAR KBLI 150553Z AUTO 16009G16KT 10SM FEW019 BKN032 OVC047 09/05 A3019 RMK AO2 SLP230 T00890050 10128 20089 51012=
201704150453 METAR KBLI 150453Z 16006KT 10SM BKN037 BKN047 OVC060 09/05 A3018 RMK AO2 SLP228 T00940050=
201704150353 METAR KBLI 150353Z VRB05KT 10SM BKN040 OVC050 09/04 A3017 RMK AO2 SLP225 T00940039=
201704150253 METAR KBLI 150253Z 18004KT 10SM BKN065 10/04 A3015 RMK AO2 SLP218 T01000039 51013=
201704150153 METAR KBLI 150153Z VRB05KT 10SM FEW095 11/03 A3014 RMK AO2 SLP213 T01060033=
201704150053 METAR KBLI 150053Z 20008G17KT 170V240 10SM CLR 12/03 A3013 RMK AO2 SLP210 T01170033=
201704142353 METAR KBLI 142353Z VRB06KT 10SM FEW065 FEW100 12/03 A3011 RMK AO2 RAB16E28 SLP203 P0000 60000 T01220028 10122 20083 51002=
201704142253 METAR KBLI 142253Z 18007KT 10SM FEW085 11/04 A3011 RMK AO2 SLP204 T01110039=
201704142153 METAR KBLI 142153Z 17009G16KT 10SM FEW035 12/03 A3011 RMK AO2 SLP203 T01170033=
201704142053 METAR KBLI 142053Z 16010KT 10SM CLR 11/04 A3010 RMK AO2 SLP202 T01060044 51002=
201704141953 METAR KBLI 141953Z 18008G17KT 10SM FEW030 SCT070 10/04 A3010 RMK AO2 SLP202 T01000044=
201704141853 METAR KBLI 141853Z 16012G18KT 10SM SCT060 SCT070 09/05 A3010 RMK AO2 SLP202 T00940050=
201704141753 METAR KBLI 141753Z 17008G18KT 10SM FEW047 BKN055 OVC070 08/04 A3010 RMK AO2 SLP200 T00830044 10089 20072 51014=
201704141653 METAR KBLI 141653Z 16012G20KT 10SM FEW018 SCT037 09/04 A3009 RMK AO2 SLP196 T00890044=
201704141619 SPECI KBLI 141619Z 17008G17KT 10SM FEW018 SCT037 09/05 A3008 RMK AO2 T00890050=
201704141553 METAR KBLI 141553Z 17011KT 10SM SCT036 BKN100 08/04 A3007 RMK AO2 SLP192 T00830044=
201704141453 METAR KBLI 141453Z 16008KT 10SM FEW024 FEW029 SCT038 08/04 A3006 RMK AO2 SLP187 T00780039 53013=
201704141353 METAR KBLI 141353Z 15009KT 10SM SCT033 OVC075 07/04 A3004 RMK AO2 SLP182 T00720044=
201704141253 METAR KBLI 141253Z AUTO 16006KT 10SM BKN033 BKN080 07/04 A3003 RMK AO2 SLP178 T00720044=
201704141153 METAR KBLI 141153Z AUTO 15010KT 10SM FEW085 07/04 A3002 RMK AO2 SLP173 60054 70090 T00720044 10078 20067 51007=
201704141119 SPECI KBLI 141119Z AUTO 15008KT 10SM SCT022 BKN032 07/05 A3002 RMK AO2 T00720050=
201704141053 METAR KBLI 141053Z AUTO 15011KT 10SM OVC020 08/05 A3001 RMK AO2 RAE11 SLP171 P0001 T00780050=
201704140953 METAR KBLI 140953Z AUTO 00000KT 4SM -RA BR SCT016 BKN024 OVC029 07/06 A3000 RMK AO2 SLP168 P0019 T00670061=
201704140914 SPECI KBLI 140914Z AUTO 16006KT 4SM -RA BR BKN027 OVC034 07/06 A3000 RMK AO2 P0008 T00670056=
201704140904 SPECI KBLI 140904Z AUTO 18003KT 2 1/2SM RA BR FEW012 OVC027 07/06 A3000 RMK AO2 P0006 T00670056=
201704140853 METAR KBLI 140853Z AUTO 18005KT 4SM RA BR FEW012 BKN029 OVC037 07/06 A3000 RMK AO2 SLP165 P0016 60034 T00670056 53019=
201704140845 SPECI KBLI 140845Z AUTO VRB03KT 6SM -RA BR FEW011 BKN030 OVC036 07/06 A3000 RMK AO2 P0013 T00670061=
201704140753 METAR KBLI 140753Z AUTO VRB06KT 5SM -RA BR SCT017 OVC023 07/07 A2998 RMK AO2 SLP158 P0013 T00720067 401280067=
201704140653 METAR KBLI 140653Z AUTO 16007G17KT 6SM -RA BR BKN025 OVC031 08/06 A2996 RMK AO2 SLP151 P0005 T00780061=
201704140553 METAR KBLI 140553Z AUTO 17007KT 8SM -RA FEW013 SCT018 OVC029 08/07 A2994 RMK AO2 SLP146 P0023 60032 T00780067 10117 20078 51022=
201704140546 SPECI KBLI 140546Z AUTO VRB04KT 4SM -RA BR SCT017 BKN029 OVC035 08/07 A2994 RMK AO2 P0022 T00780067=
201704140453 METAR KBLI 140453Z 16011KT 4SM RA BR FEW016 SCT026 OVC033 08/06 A2993 RMK AO2 SLP144 P0009 T00780061=
201704140353 METAR KBLI 140353Z 00000KT 10SM -RA OVC038 09/07 A2990 RMK AO2 RAB34 SLP134 P0000 T00940067=
201704140253 METAR KBLI 140253Z 00000KT 10SM FEW020 BKN034 BKN046 09/06 A2988 RMK AO2 RAE07 SLP124 P0000 60000 T00890061 51018=
201704140153 METAR KBLI 140153Z 29009KT 10SM -RA SCT029 OVC034 10/06 A2986 RMK AO2 RAB49 SLP121 P0000 T01000061=
201704140053 METAR KBLI 140053Z 17007KT 10SM FEW041 BKN065 11/06 A2984 RMK AO2 SLP113 T01110061=
201704132353 METAR KBLI 132353Z 17012G18KT 10SM SCT055 BKN075 11/06 A2982 RMK AO2 SLP107 T01110061 10128 20106 53026=
201704132253 METAR KBLI 132253Z 16013KT 10SM SCT033 BKN075 OVC090 11/06 A2980 RMK AO2 LTG DSNT N SLP098 T01110061=
201704132153 METAR KBLI 132153Z 16014G23KT 10SM SCT100 BKN120 12/05 A2976 RMK AO2 SLP085 T01220050=
201704132053 METAR KBLI 132053Z 17013G24KT 10SM SCT100 13/05 A2975 RMK AO2 PK WND 17028/2030 SLP079 T01280050 51005=
201704131953 METAR KBLI 131953Z 17014G21KT 10SM FEW110 12/06 A2974 RMK AO2 SLP078 T01220061=
201704131853 METAR KBLI 131853Z 17013G19KT 10SM SCT043 BKN090 BKN100 12/06 A2974 RMK AO2 SLP077 T01170056=
201704131753 METAR KBLI 131753Z 16014G21KT 10SM BKN035 OVC095 11/05 A2973 RMK AO2 SLP074 60004 T01060050 10111 20067 51002=
201704131653 METAR KBLI 131653Z 15012KT 10SM BKN034 OVC090 10/04 A2973 RMK AO2 SLP073 T01000044=
201704131553 METAR KBLI 131553Z 13007KT 10SM OVC031 09/05 A2973 RMK AO2 SLP075 T00890050=
201704131453 METAR KBLI 131453Z 14006KT 10SM OVC025 08/05 A2972 RMK AO2 SLP072 60004 T00830050 53006=
201704131353 METAR KBLI 131353Z 10SM BKN025 OVC030 07/06 A2971 RMK AO2 SLP068 T00720056=
201704131253 METAR KBLI 131253Z AUTO 03004KT 10SM BKN019 OVC026 07/06 A2971 RMK AO2 RAE49 SLP068 P0004 T00670061=
201704131219 SPECI KBLI 131219Z AUTO 00000KT 9SM -RA SCT010 BKN023 OVC032 07/06 A2971 RMK AO2 P0003 T00720061=
201704131153 METAR KBLI 131153Z AUTO 00000KT 4SM -RA BR OVC009 07/06 A2970 RMK AO2 CIG 007V012 SLP065 P0013 60020 70047 T00720061 10111 20072 53016=
201704131124 SPECI KBLI 131124Z AUTO 21006G15KT 5SM -RA BR FEW008 BKN013 OVC018 08/07 A2969 RMK AO2 P0004 T00830067=
201704131108 SPECI KBLI 131108Z AUTO 16013G24KT 10SM -RA FEW014 BKN021 OVC050 08/07 A2968 RMK AO2 P0001 T00830067=
201704131053 METAR KBLI 131053Z AUTO 15012KT 10SM -RA FEW022 SCT036 OVC050 08/07 A2968 RMK AO2 SLP057 P0002 T00830067=
201704131023 SPECI KBLI 131023Z AUTO 16012G23KT 10SM -RA SCT027 SCT042 OVC050 08/07 A2967 RMK AO2 P0001 T00830067=
201704131016 SPECI KBLI 131016Z AUTO 16013G20KT 10SM -RA FEW024 BKN029 OVC055 08/07 A2967 RMK AO2 P0000 T00830067=
201704130953 METAR KBLI 130953Z AUTO 16010KT 10SM -RA OVC050 09/07 A2966 RMK AO2 SLP052 P0003 T00890072=
201704130853 METAR KBLI 130853Z AUTO 16012G18KT 10SM -RA FEW035 OVC050 09/07 A2966 RMK AO2 SLP050 P0002 60002 T00940072 53002=
201704130753 METAR KBLI 130753Z AUTO 16010G15KT 10SM -RA OVC046 11/06 A2965 RMK AO2 RAB52 SLP047 P0000 T01060061 401670078=
201704130653 METAR KBLI 130653Z AUTO 15010KT 10SM FEW050 OVC080 11/07 A2965 RMK AO2 RAB02E16 SLP047 P0000 T01110067=
201704130553 METAR KBLI 130553Z AUTO 17011KT 10SM BKN055 OVC070 11/08 A2965 RMK AO2 SLP048 T01110083 10161 20100 53002=
201704130453 METAR KBLI 130453Z 02005KT 10SM BKN080 OVC090 11/07 A2964 RMK AO2 SLP043 T01060067=
201704130353 METAR KBLI 130353Z 01006KT 10SM CLR 10/06 A2965 RMK AO2 SLP047 T01000061=
201704130253 METAR KBLI 130253Z 01008KT 10SM FEW060 11/07 A2965 RMK AO2 SLP046 T01110067 58019=
201704130153 METAR KBLI 130153Z 01007KT 10SM SCT070 BKN110 13/07 A2967 RMK AO2 SLP053 T01280072=
201704130053 METAR KBLI 130053Z 03010KT 10SM BKN060 OVC090 14/07 A2969 RMK AO2 SLP060 T01390072=
201704122353 METAR KBLI 122353Z VRB04KT 10SM SCT049 16/06 A2970 RMK AO2 SLP065 60000 T01610061 10167 20117 58006=
201704122253 METAR KBLI 122253Z 15011KT 10SM SCT042 BKN100 16/06 A2972 RMK AO2 SLP070 T01560061=
201704122153 METAR KBLI 122153Z 13014G22KT 10SM BKN041 BKN050 15/07 A2973 RMK AO2 SLP073 T01500067=
201704122053 METAR KBLI 122053Z 14016G21KT 10SM FEW038 OVC080 13/07 A2972 RMK AO2 PK WND 13026/1956 SLP072 60000 T01330067 51009=
201704121953 METAR KBLI 121953Z 13015G25KT 10SM BKN037 OVC044 13/07 A2972 RMK AO2 SLP071 T01330072=
201704121902 SPECI KBLI 121902Z 14013G22KT 10SM FEW028 OVC036 13/08 A2972 RMK AO2 T01280078=
201704121853 METAR KBLI 121853Z 15012G25KT 10SM BKN029 OVC037 12/08 A2972 RMK AO2 PK WND 14032/1758 RAE02 SLP072 P0000 T01220078=
201704121800 SPECI KBLI 121800Z 15020G32KT 10SM -RA BKN030 OVC060 12/07 A2970 RMK AO2 PK WND 14032/1758 P0000 T01220072=
201704121753 METAR KBLI 121753Z 15020G30KT 10SM -RA BKN029 OVC060 12/08 A2970 RMK AO2 PK WND 16036/1729 RAE1655B51 SLP063 P0000 60027 T01170078 10117 20078 53012=
201704121733 SPECI KBLI 121733Z 15023G36KT 10SM BKN029 BKN035 OVC070 12/07 A2969 RMK AO2 PK WND 16036/1729 RAE1655 P0000 T01170072=
201704121653 METAR KBLI 121653Z 13018G28KT 10SM -RA BKN032 OVC060 11/08 A2967 RMK AO2 PK WND 13028/1648 SLP056 P0004 T01060078=
201704121651 SPECI KBLI 121651Z 12013G28KT 10SM -RA FEW023 BKN031 OVC060 11/08 A2967 RMK AO2 PK WND 13028/1648 P0004=
201704121619 SPECI KBLI 121619Z 10SM -RA OVC028 09/08 A2966 RMK AO2 P0003 T00890078=
201704121553 METAR KBLI 121553Z 02004KT 4SM RA BR OVC033 08/07 A2966 RMK AO2 SLP052 P0006 T00830072=
201704121453 METAR KBLI 121453Z 02008KT 10SM -RA OVC045 08/07 A2965 RMK AO2 SLP048 P0004 60017 T00830072 58005=
201704121353 METAR KBLI 121353Z 05003KT 10SM -RA OVC042 08/07 A2967 RMK AO2 SLP053 P0008 T00830072=
201704121253 METAR KBLI 121253Z AUTO 00000KT 5SM -RA BR OVC039 08/07 A2968 RMK AO2 SLP056 P0005 T00830072=
201704121153 METAR KBLI 121153Z AUTO 14004KT 10SM -RA OVC055 11/04 A2967 RMK AO2 RAB34 SLP052 P0000 60000 T01060039 10122 20078 56013=
201704121053 METAR KBLI 121053Z AUTO 10SM OVC070 12/M01 A2967 RMK AO2 SLP053 T01171006=
201704120953 METAR KBLI 120953Z AUTO 36010KT 10SM FEW060 OVC075 12/M01 A2967 RMK AO2 SLP054 T01171006=
201704120853 METAR KBLI 120853Z AUTO 01007KT 10SM OVC080 11/01 A2970 RMK AO2 SLP065 T01110011 56022=
201704120753 METAR KBLI 120753Z AUTO 02009KT 10SM OVC085 11/02 A2972 RMK AO2 SLP072 T01110017 401560028=
201704120653 METAR KBLI 120653Z AUTO 13007KT 10SM OVC070 10/06 A2974 RMK AO2 SLP079 T01000056=
201704120553 METAR KBLI 120553Z AUTO 00000KT 10SM OVC110 08/07 A2977 RMK AO2 SLP088 T00780067 10156 20078 58021=
201704120453 METAR KBLI 120453Z 00000KT 10SM BKN110 08/07 A2981 RMK AO2 SLP101 T00830067=
201704120353 METAR KBLI 120353Z 15004KT 10SM CLR 09/07 A2982 RMK AO2 SLP106 T00940067=
201704120253 METAR KBLI 120253Z 00000KT 10SM CLR 11/06 A2983 RMK AO2 SLP109 T01060061 58015=
201704120153 METAR KBLI 120153Z 27006KT 10SM CLR 12/06 A2985 RMK AO2 SLP115 T01170061=
201704120053 METAR KBLI 120053Z 28006KT 10SM CLR 13/06 A2986 RMK AO2 SLP120 T01330061=
201704112353 METAR KBLI 112353Z 36006KT 10SM CLR 16/00 A2987 RMK AO2 SLP123 T01560000 10156 20106 56026=
201704112253 METAR KBLI 112253Z 34007KT 10SM CLR 16/00 A2990 RMK AO2 SLP130 T01560000=
201704112153 METAR KBLI 112153Z 36008G16KT 10SM CLR 15/01 A2992 RMK AO2 SLP140 T01500006=
201704112053 METAR KBLI 112053Z 34010G16KT 10SM CLR 14/02 A2995 RMK AO2 SLP150 T01390022 58026=
201704111953 METAR KBLI 111953Z 02012KT 10SM CLR 13/03 A2998 RMK AO2 SLP159 T01330028=
201704111853 METAR KBLI 111853Z 02013G19KT 10SM CLR 12/03 A3001 RMK AO2 SLP169 T01170033=
201704111753 METAR KBLI 111753Z 36012KT 10SM CLR 11/04 A3003 RMK AO2 SLP176 T01060039 10106 20028 58027=
201704111653 METAR KBLI 111653Z 01010KT 10SM CLR 09/05 A3006 RMK AO2 SLP188 T00940050=
201704111553 METAR KBLI 111553Z 01009KT 10SM CLR 08/05 A3009 RMK AO2 SLP197 T00780050=
201704111453 METAR KBLI 111453Z 36006KT 10SM CLR 06/04 A3011 RMK AO2 SLP204 T00560039 56010=
201704111353 METAR KBLI 111353Z 35003KT 10SM CLR 04/03 A3012 RMK AO2 SLP206 T00440028=
201704111253 METAR KBLI 111253Z AUTO 06003KT 10SM CLR 05/02 A3012 RMK AO2 SLP208 T00500022=
201704111153 METAR KBLI 111153Z AUTO 13007KT 10SM OVC060 07/03 A3014 RMK AO2 SLP214 70001 T00720033 10083 20072 58004=
201704111053 METAR KBLI 111053Z AUTO 15007KT 10SM OVC055 08/03 A3014 RMK AO2 SLP216 T00780028=
201704110953 METAR KBLI 110953Z AUTO 15007KT 10SM OVC047 08/03 A3015 RMK AO2 SLP218 T00780033=
201704110853 METAR KBLI 110853Z AUTO 17006KT 10SM OVC038 08/03 A3015 RMK AO2 SLP217 T00780033 51008=
201704110803 SPECI KBLI 110803Z AUTO 16006KT 10SM SCT031 OVC037 08/04 A3015 RMK AO2 T00780039=
201704110753 METAR KBLI 110753Z AUTO 15007KT 10SM BKN028 OVC036 08/04 A3015 RMK AO2 SLP218 T00780039 401220072=
201704110653 METAR KBLI 110653Z AUTO 17010KT 10SM OVC027 08/04 A3014 RMK AO2 SLP214 T00830039=
201704110612 SPECI KBLI 110612Z AUTO 16012G19KT 10SM OVC029 08/04 A3013 RMK AO2 T00830044=
201704110553 METAR KBLI 110553Z AUTO 16010G19KT 10SM OVC030 08/04 A3013 RMK AO2 SLP210 60001 T00830044 10106 20078 51025=
201704110453 METAR KBLI 110453Z 15013G24KT 10SM SCT030 BKN036 OVC043 08/04 A3011 RMK AO2 SLP204 T00830044=
201704110353 METAR KBLI 110353Z 16015G22KT 10SM BKN030 BKN036 OVC043 09/04 A3008 RMK AO2 PK WND 16028/0304 RAB0259E17 SLP194 P0001 T00890044=
201704110253 METAR KBLI 110253Z 14012KT 10SM BKN033 OVC043 09/04 A3005 RMK AO2 RAB20E33 SLP185 P0000 60000 T00890044 51012=
201704110153 METAR KBLI 110153Z 14010G17KT 10SM SCT037 BKN070 OVC095 09/04 A3005 RMK AO2 RAE34 SLP182 P0000 T00890044=
201704110053 METAR KBLI 110053Z 15015G22KT 10SM -RA FEW032 BKN050 OVC090 09/04 A3005 RMK AO2 PK WND 17026/0018 RAB24 SLP182 P0000 T00940044=
201704102353 METAR KBLI 102353Z 16014G24KT 10SM FEW036 BKN046 BKN095 11/04 A3002 RMK AO2 SLP173 60000 T01060039 10122 20094 51008=
201704102253 METAR KBLI 102253Z 15015G22KT 10SM BKN037 BKN046 OVC080 11/03 A3001 RMK AO2 PK WND 17027/2207 SLP169 T01060033=
201704102153 METAR KBLI 102153Z 16015G21KT 10SM BKN041 BKN050 11/03 A3001 RMK AO2 SLP168 T01110033=
201704102053 METAR KBLI 102053Z 14016G24KT 10SM SCT042 12/03 A2999 RMK AO2 RAE02 SLP163 P0000 60000 T01170028 56004=
201704101953 METAR KBLI 101953Z 16014G24KT 10SM -RA BKN035 OVC049 11/02 A3000 RMK AO2 RAB48 SLP165 P0000 T01060022=
201704101853 METAR KBLI 101853Z 16009KT 10SM BKN040 OVC046 11/02 A2999 RMK AO2 SLP164 T01110022=
201704101753 METAR KBLI 101753Z 15016G23KT 10SM SCT028 BKN055 OVC070 11/04 A3001 RMK AO2 SLP169 60000 T01060039 10106 20072 53008=
201704101653 METAR KBLI 101653Z 14014G22KT 10SM BKN025 BKN030 OVC038 08/03 A3000 RMK AO2 SLP166 T00830033=
201704101553 METAR KBLI 101553Z 14015G21KT 10SM BKN022 OVC030 08/04 A2999 RMK AO2 RAB21E39 SLP163 P0000 T00780039=
201704101453 METAR KBLI 101453Z 13014G21KT 10SM OVC025 08/04 A2998 RMK AO2 SLP161 60000 T00780039 53010=
201704101353 METAR KBLI 101353Z 13013KT 10SM OVC021 07/04 A2997 RMK AO2 SLP158 T00720039=
201704101309 SPECI KBLI 101309Z AUTO 14012KT 10SM BKN022 OVC035 07/04 A2996 RMK AO2 T00720039=
201704101253 METAR KBLI 101253Z AUTO 14013G19KT 10SM FEW024 BKN030 OVC038 07/04 A2996 RMK AO2 RAE23 SLP152 P0000 T00720039=
201704101248 SPECI KBLI 101248Z AUTO 14011G17KT 10SM FEW024 OVC031 07/04 A2995 RMK AO2 RAE23 P0000=
201704101226 SPECI KBLI 101226Z AUTO 14011G20KT 10SM SCT022 BKN029 OVC038 07/04 A2995 RMK AO2 RAE23 P0000 T00720044=
201704101153 METAR KBLI 101153Z AUTO 13013KT 10SM -RA FEW034 SCT042 OVC050 07/04 A2993 RMK AO2 RAB34 SLP144 P0000 60000 T00720039 10106 20072 53011=
201704101053 METAR KBLI 101053Z AUTO 14012KT 10SM SCT050 OVC070 09/03 A2993 RMK AO2 SLP141 T00940028=
201704100953 METAR KBLI 100953Z AUTO 05004KT 10SM BKN075 OVC090 08/03 A2990 RMK AO2 SLP130 T00830028=
201704100853 METAR KBLI 100853Z AUTO 06004KT 10SM OVC065 09/03 A2990 RMK AO2 SLP133 T00890028 50004=
201704100753 METAR KBLI 100753Z AUTO 15008KT 10SM OVC070 10/02 A2991 RMK AO2 SLP135 T01000022 401330044=
201704100653 METAR KBLI 100653Z AUTO 17003KT 10SM BKN070 OVC090 10/04 A2990 RMK AO2 SLP133 T01000039=
201704100553 METAR KBLI 100553Z AUTO 36004KT 10SM OVC080 08/03 A2989 RMK AO2 SLP130 T00830028 10122 20078 56011=
201704100500 METAR KBLI NIL=
201704100353 METAR KBLI 100353Z 02003KT 10SM BKN100 BKN120 09/04 A2992 RMK AO2 SLP138 T00890039=
201704100253 METAR KBLI 100253Z 00000KT 10SM CLR 09/04 A2992 RMK AO2 SLP140 T00890039 56018=
201704100153 METAR KBLI 100153Z 00000KT 10SM CLR 11/03 A2993 RMK AO2 SLP144 T01110028=
201704100053 METAR KBLI 100053Z 00000KT 10SM CLR 12/00 A2996 RMK AO2 SLP152 T01170000=
201704092353 METAR KBLI 092353Z VRB05KT 10SM CLR 12/00 A2998 RMK AO2 SLP159 T01220000 10133 20100 58020=
201704092253 METAR KBLI 092253Z VRB06KT 10SM CLR 12/01 A3000 RMK AO2 SLP167 T01220011=
201704092153 METAR KBLI 092153Z 20008KT 10SM SCT060 12/02 A3002 RMK AO2 SLP172 T01220017=
201704092053 METAR KBLI 092053Z 16009KT 10SM BKN060 12/M01 A3004 RMK AO2 SLP179 T01221011 58019=
201704091953 METAR KBLI 091953Z 11010G17KT 10SM FEW050 12/00 A3006 RMK AO2 SLP186 T01220000=
201704091853 METAR KBLI 091853Z 11010KT 10SM BKN048 11/01 A3008 RMK AO2 SLP193 T01060006=
201704091753 METAR KBLI 091753Z 13012G22KT 10SM BKN045 BKN055 10/02 A3009 RMK AO2 SLP198 T01000017 10100 20044 58007=
201704091653 METAR KBLI 091653Z 13008KT 10SM BKN065 08/03 A3010 RMK AO2 SLP202 T00830028=
201704091553 METAR KBLI 091553Z 04003KT 10SM OVC055 07/04 A3011 RMK AO2 SLP205 T00670044=
201704091453 METAR KBLI 091453Z 10005KT 10SM BKN033 BKN040 OVC055 07/04 A3011 RMK AO2 SLP205 T00670044 53001=
201704091353 METAR KBLI 091353Z 10003KT 10SM FEW026 FEW037 BKN090 04/04 A3011 RMK AO2 SLP203 T00440039=
201704091344 SPECI KBLI 091344Z AUTO 07004KT 10SM SCT026 SCT034 OVC090 04/04 A3011 RMK AO2 T00440039=
201704091304 SPECI KBLI 091304Z AUTO 10004KT 10SM BKN028 OVC036 05/04 A3011 RMK AO2 T00500044=
201704091253 METAR KBLI 091253Z AUTO 09004KT 10SM OVC034 05/04 A3011 RMK AO2 SLP203 T00500044=
201704091153 METAR KBLI 091153Z AUTO 08003KT 10SM FEW023 OVC032 05/04 A3011 RMK AO2 RAE50 SLP204 P0004 60011 70019 T00500039 10067 20044 50004=
201704091150 SPECI KBLI 091150Z AUTO 00000KT 10SM BKN030 OVC036 05/04 A3011 RMK AO2 RAE50 P0004=
201704091141 SPECI KBLI 091141Z AUTO 00000KT 7SM -RA FEW025 BKN029 OVC036 06/04 A3011 RMK AO2 P0004 T00560039=
201704091119 SPECI KBLI 091119Z AUTO 11005KT 10SM -RA OVC033 05/04 A3011 RMK AO2 P0002 T00500039=
201704091102 SPECI KBLI 091102Z AUTO 11007KT 7SM -RA FEW012 BKN028 OVC036 05/04 A3011 RMK AO2 P0001 T00500044=
201704091053 METAR KBLI 091053Z AUTO 09007KT 6SM -RA BR FEW011 OVC030 05/04 A3011 RMK AO2 SLP204 P0004 T00500039=
201704090953 METAR KBLI 090953Z AUTO 12009KT 10SM -RA BKN034 OVC046 06/04 A3010 RMK AO2 SLP200 P0003 T00560044=
201704090853 METAR KBLI 090853Z AUTO 16007KT 10SM -RA OVC060 06/04 A3009 RMK AO2 RAB04 SLP197 P0000 60000 T00610044 53019=
201704090753 METAR KBLI 090753Z AUTO 13006KT 10SM OVC055 07/05 A3007 RMK AO2 SLP191 T00670050 400940044=
201704090653 METAR KBLI 090653Z AUTO 00000KT 10SM BKN060 OVC110 06/05 A3005 RMK AO2 SLP184 T00610050=
201704090553 METAR KBLI 090553Z AUTO 00000KT 10SM SCT080 06/04 A3003 RMK AO2 SLP178 60000 T00560044 10094 20056 51021=
201704090453 METAR KBLI 090453Z 14004KT 10SM FEW070 BKN085 07/04 A3002 RMK AO2 SLP173 T00670044=
201704090353 METAR KBLI 090353Z 17004KT 10SM FEW055 OVC080 07/04 A3000 RMK AO2 RAB17E33 SLP166 P0000 T00720044=
201704090253 METAR KBLI 090253Z 17006KT 10SM FEW038 BKN065 OVC075 09/04 A2997 RMK AO2 SLP157 60000 T00890044 51011=
201704090153 METAR KBLI 090153Z 17004KT 10SM BKN050 OVC070 09/04 A2996 RMK AO2 SLP155 T00890044=
201704090053 METAR KBLI 090053Z 18003KT 10SM FEW050 SCT060 OVC100 09/05 A2995 RMK AO2 RAB00E18 SLP149 P0000 T00890050=
201704082353 METAR KBLI 082353Z 15006KT 10SM FEW027 BKN034 OVC043 09/06 A2994 RMK AO2 RAE45 SLP146 P0001 60008 T00890056 10094 20078 51016=
201704082253 METAR KBLI 082253Z 13010KT 10SM -RA SCT028 OVC034 08/06 A2993 RMK AO2 SLP141 P0002 T00830056=
201704082208 SPECI KBLI 082208Z 15007KT 8SM -RA SCT028 OVC034 08/06 A2992 RMK AO2 P0001 T00780056=
201704082200 SPECI KBLI 082200Z 15009KT 6SM -RA BR BKN028 OVC034 08/06 A2992 RMK AO2 P0000 T00780061=
201704082153 METAR KBLI 082153Z 15009KT 7SM -RA SCT028 OVC044 08/06 A2992 RMK AO2 SLP139 P0005 T00780061=
201704082053 METAR KBLI 082053Z 16013G20KT 10SM -RA SCT025 OVC044 08/04 A2989 RMK AO2 RAB23 SLP130 P0000 60000 T00830044 53018=
201704081953 METAR KBLI 081953Z 17014G22KT 10SM SCT025 OVC050 09/04 A2987 RMK AO2 PK WND 16027/1927 RAE16 SLP122 P0000 T00890039=
201704081853 METAR KBLI 081853Z 17013G22KT 10SM -RA BKN033 OVC050 09/04 A2985 RMK AO2 RAB48 SLP117 P0000 T00940044=
201704081833 SPECI KBLI 081833Z 16012G23KT 10SM OVC031 09/04 A2985 RMK AO2 T00890039=
201704081753 METAR KBLI 081753Z 16014G26KT 10SM BKN027 OVC040 08/03 A2984 RMK AO2 PK WND 14027/1657 SLP112 60000 T00830028 10089 20072 53024=
201704081653 METAR KBLI 081653Z 15014G21KT 10SM BKN027 08/03 A2981 RMK AO2 PK WND 15026/1617 SLP102 T00830033=
201704081553 METAR KBLI 081553Z 15017G22KT 10SM OVC028 08/03 A2979 RMK AO2 SLP094 T00830033=
201704081453 METAR KBLI 081453Z 16012KT 10SM OVC024 08/04 A2977 RMK AO2 SLP088 60000 T00780044 53023=
201704081353 METAR KBLI 081353Z 16010G18KT 10SM BKN020 OVC025 07/04 A2975 RMK AO2 SLP080 T00720044=
201704081337 SPECI KBLI 081337Z AUTO 16012G18KT 10SM FEW018 BKN027 OVC037 07/05 A2974 RMK AO2 T00720050=
201704081308 SPECI KBLI 081308Z AUTO 17011G22KT 10SM SCT021 BKN036 OVC049 07/05 A2972 RMK AO2 T00720050=
201704081253 METAR KBLI 081253Z AUTO 16012G21KT 10SM FEW015 BKN020 OVC034 07/05 A2972 RMK AO2 RAE52 SLP071 P0000 T00720050=
201704081153 METAR KBLI 081153Z AUTO 16014G20KT 10SM -RA BKN020 BKN029 OVC040 07/06 A2970 RMK AO2 PK WND 15026/1106 SLP065 P0001 60001 70016 T00720056 10094 20072 51022=
201704081053 METAR KBLI 081053Z AUTO 15015G23KT 10SM -RA BKN021 OVC027 08/05 A2968 RMK AO2 RAB52 SLP057 P0000 T00830050=
201704080953 METAR KBLI 080953Z AUTO 16014G22KT 10SM BKN024 OVC032 08/05 A2966 RMK AO2 PK WND 18029/0917 RAB03E42 SLP049 P0000 T00830050=
201704080853 METAR KBLI 080853Z AUTO 16016G29KT 10SM OVC023 09/04 A2963 RMK AO2 PK WND 14031/0837 SLP042 T00890044 51029=
201704080753 METAR KBLI 080753Z AUTO 16021G32KT 10SM OVC025 09/04 A2962 RMK AO2 PK WND 16032/0752 SLP036 T00890044 401440078=
201704080653 METAR KBLI 080653Z AUTO 16019G29KT 10SM OVC025 09/05 A2958 RMK AO2 PK WND 16035/0601 SLP023 T00890050=
201704080553 METAR KBLI 080553Z AUTO 16020G41KT 10SM BKN028 09/04 A2955 RMK AO2 PK WND 17041/0549 SLP012 T00940039 10122 20094 51041=
201704080542 SPECI KBLI 080542Z AUTO 16021G37KT 10SM BKN028 09/04 A2954 RMK AO2 PK WND 15038/0506 T00940039=
201704080453 METAR KBLI 080453Z 16019G36KT 10SM SCT028 SCT110 09/04 A2952 RMK AO2 PK WND 13038/0439 SLP003 T00940039=
201704080353 METAR KBLI 080353Z 16023G33KT 10SM BKN031 BKN095 OVC110 10/04 A2948 RMK AO2 PK WND 15041/0255 SLP990 T01000044=
201704080253 METAR KBLI 080253Z 15023G41KT 10SM SCT032 BKN046 11/04 A2942 RMK AO2 PK WND 14051/0237 PRESRR SLP971 T01060039 53025=
201704080153 METAR KBLI 080153Z 15028G46KT 10SM CLR 12/03 A2935 RMK AO2 PK WND 14053/0132 SLP946 T01170033=
201704080053 METAR KBLI 080053Z 14028G40KT 10SM SCT047 BKN055 BKN075 12/04 A2936 RMK AO2 PK WND 15045/0031 SLP947 T01220039=
201704080000 METAR KBLI NIL=
201704072300 METAR KBLI NIL=
201704072153 METAR KBLI 072153Z 14029G39KT 10SM FEW110 14/05 A2929 RMK AO2 PK WND 15044/2104 SLP925 T01390050=
201704072053 METAR KBLI 072053Z 15023G37KT 10SM SCT110 14/05 A2926 RMK AO2 PK WND 14037/2053 SLP915 60000 T01390050 53009=
201704071953 METAR KBLI 071953Z 14021G33KT 10SM FEW050 BKN110 14/06 A2925 RMK AO2 PK WND 13033/1951 SLP910 T01390061=
201704071853 METAR KBLI 071853Z 13015G22KT 10SM SCT030 BKN065 OVC100 13/08 A2923 RMK AO2 PK WND 16029/1755 RAE11 SLP904 P0000 T01280078=
201704071753 METAR KBLI 071753Z 15023G33KT 6SM -RA FEW040 BKN050 OVC060 11/08 A2924 RMK AO2 PK WND 14033/1752 RAB07 SLP907 P0002 60015 T01060078 10122 20078 53024=
201704071653 METAR KBLI 071653Z 02006KT 10SM BKN070 11/09 A2917 RMK AO2 RAB1558E24 SLP885 P0005 T01110094=
201704071553 METAR KBLI 071553Z 01005KT 10SM SCT047 BKN080 10/09 A2917 RMK AO2 SLP886 T01000089=
201704071453 METAR KBLI 071453Z 04007KT 10SM FEW022 BKN090 08/08 A2917 RMK AO2 SLP884 60008 T00830078 56017=
201704071353 METAR KBLI 071353Z 32003KT 10SM SCT035 BKN110 08/08 A2918 RMK AO2 SLP889 T00830083=
201704071253 METAR KBLI 071253Z AUTO 10006KT 10SM FEW070 SCT090 BKN110 09/08 A2917 RMK AO2 RAE35 SLP886 P0008 T00890078=
201704071153 METAR KBLI 071153Z AUTO 17008KT 7SM -RA FEW035 FEW045 OVC055 08/07 A2922 RMK AO2 PRESRR SLP900 P0008 60012 70013 T00830072 10094 20078 55013=
201704071053 METAR KBLI 071053Z AUTO 04004KT 10SM -RA OVC060 09/06 A2918 RMK AO2 RAB0957 PRESRR SLP889 P0004 T00890056=
201704070953 METAR KBLI 070953Z AUTO 01014G20KT 10SM FEW055 BKN075 OVC090 09/05 A2916 RMK AO2 RAB36E45 PRESFR SLP881 P0000 T00890050=
201704070853 METAR KBLI 070853Z AUTO 02013KT 10SM OVC100 09/06 A2925 RMK AO2 SLP913 T00890056 56060=
201704070753 METAR KBLI 070753Z AUTO 01010KT 10SM CLR 08/06 A2931 RMK AO2 SLP932 T00830061 401280078=
201704070653 METAR KBLI 070653Z AUTO 01011KT 10SM CLR 08/06 A2936 RMK AO2 SLP950 T00830061=
201704070553 METAR KBLI 070553Z AUTO 03009KT 10SM CLR 08/07 A2943 RMK AO2 SLP973 T00830067 10128 20083 58062=
201704070453 METAR KBLI 070453Z 02011G18KT 10SM CLR 08/07 A2950 RMK AO2 PRESFR SLP997 T00830067=
201704070353 METAR KBLI 070353Z 01008KT 10SM CLR 09/08 A2958 RMK AO2 PRESFR SLP022 T00890078=
201704070253 METAR KBLI 070253Z 02006KT 10SM CLR 09/08 A2962 RMK AO2 SLP036 T00940078 58023=
201704070153 METAR KBLI 070153Z 00000KT 10SM FEW047 FEW065 12/07 A2965 RMK AO2 SLP046 T01220067=
201704070053 METAR KBLI 070053Z 00000KT 10SM FEW039 13/07 A2966 RMK AO2 SLP051 T01280067=
201704062353 METAR KBLI 062353Z VRB05KT 10SM SCT033 SCT055 12/08 A2969 RMK AO2 SLP059 60001 T01220078 10122 20100 58004=
201704062253 METAR KBLI 062253Z 15009KT 10SM SCT023 SCT028 OVC045 12/08 A2970 RMK AO2 RAE00 SLP063 P0000 T01170083=
201704062153 METAR KBLI 062153Z 19004KT 10SM -RA SCT023 SCT031 BKN041 11/08 A2971 RMK AO2 RAB31 SLP067 P0000 T01060083=
201704062053 METAR KBLI 062053Z 16008KT 10SM SCT023 SCT028 OVC034 12/07 A2970 RMK AO2 SLP063 60001 T01170072 55000=
201704061953 METAR KBLI 061953Z 14012G23KT 10SM FEW022 BKN035 BKN095 12/08 A2969 RMK AO2 RAE43 SLP060 P0000 T01170083=
201704061853 METAR KBLI 061853Z 15013G22KT 10SM -RA SCT025 OVC060 11/07 A2970 RMK AO2 SLP065 P0001 T01060072=
201704061753 METAR KBLI 061753Z 14016G20KT 10SM -RA FEW027 SCT032 OVC050 11/07 A2970 RMK AO2 PK WND 15028/1703 RAB18 SLP063 P0000 60000 T01110067 10111 20083 53006=
201704061653 METAR KBLI 061653Z 14017G22KT 10SM FEW030 BKN070 OVC080 11/06 A2968 RMK AO2 RAB20E22 SLP058 P0000 T01110061=
201704061553 METAR KBLI 061553Z 14018KT 10SM SCT028 OVC080 11/06 A2968 RMK AO2 PK WND 12031/1526 SLP056 T01060061=
201704061453 METAR KBLI 061453Z 12016G22KT 10SM FEW028 OVC090 10/07 A2968 RMK AO2 SLP056 T01000067 58001=
201704061353 METAR KBLI 061353Z 12004KT 10SM BKN070 OVC095 08/07 A2969 RMK AO2 SLP063 T00830067=
201704061253 METAR KBLI 061253Z AUTO 02008KT 10SM OVC075 08/07 A2967 RMK AO2 SLP054 T00830067=
201704061153 METAR KBLI 061153Z AUTO 01008KT 10SM OVC095 08/07 A2968 RMK AO2 SLP058 60001 70021 T00830072 10100 20078 56030=
201704061053 METAR KBLI 061053Z AUTO 01009KT 10SM OVC095 08/07 A2970 RMK AO2 RAB17E30 SLP064 P0000 T00830072=
201704060953 METAR KBLI 060953Z AUTO 35004KT 10SM BKN085 BKN110 08/07 A2975 RMK AO2 SLP080 T00830072=
201704060853 METAR KBLI 060853Z AUTO 35004KT 10SM BKN080 OVC110 08/08 A2977 RMK AO2 SLP089 60001 T00830078 58019=
201704060753 METAR KBLI 060753Z AUTO 04004KT 10SM SCT100 09/08 A2979 RMK AO2 RAE25 SLP093 P0001 T00890078 401330089=
201704060653 METAR KBLI 060653Z AUTO 11009KT 10SM -RA FEW025 BKN048 OVC080 10/08 A2983 RMK AO2 PRESFR SLP106 P0000 T01000078=
201704060649 SPECI KBLI 060649Z AUTO 10010KT 10SM -RA SCT025 BKN048 OVC080 10/08 A2983 RMK AO2 PRESFR P0000=
201704060639 SPECI KBLI 060639Z AUTO 11010KT 10SM -RA BKN025 BKN036 OVC046 10/08 A2984 RMK AO2 P0000 T01000078=
201704060612 SPECI KBLI 060612Z 10004KT 10SM -RA SCT027 OVC039 09/08 A2986 RMK AO2 P0000 T00940083=
201704060553 METAR KBLI 060553Z 05003KT 9SM -RA OVC028 09/08 A2987 RMK AO2 RAB20 SLP120 P0001 60001 T00940083 10111 20089 58003=
201704060453 METAR KBLI 060453Z 02006KT 10SM OVC042 09/08 A2987 RMK AO2 SLP122 T00940083=
201704060353 METAR KBLI 060353Z 01004KT 10SM OVC039 09/09 A2988 RMK AO2 SLP123 T00940089=
201704060253 METAR KBLI 060253Z 08006KT 10SM FEW026 FEW032 OVC049 10/08 A2988 RMK AO2 RAE03 SLP124 P0000 60000 T01000083 58014=
201704060245 SPECI KBLI 060245Z 08005KT 10SM SCT024 SCT032 OVC049 10/08 A2988 RMK AO2 RAE03 P0000 T01000083=
201704060153 METAR KBLI 060153Z 12009KT 10SM -RA BKN024 BKN031 OVC039 11/08 A2989 RMK AO2 RAB37 SLP130 P0000 T01060083=
201704060053 METAR KBLI 060053Z 13010KT 10SM OVC023 11/08 A2991 RMK AO2 SLP135 T01110078=
201704052353 METAR KBLI 052353Z 15009G14KT 10SM OVC024 12/08 A2992 RMK AO2 SLP138 60002 T01170078 10117 20100 58002=
201704052253 METAR KBLI 052253Z 17010KT 10SM OVC024 11/07 A2992 RMK AO2 SLP138 T01110072=
201704052153 METAR KBLI 052153Z 14010G18KT 10SM OVC021 11/08 A2993 RMK AO2 RAB30E40 SLP141 P0000 T01110078=
201704052053 METAR KBLI 052053Z 15008KT 10SM OVC023 11/08 A2992 RMK AO2 RAE12 SLP139 P0000 60002 T01110078 53000=
201704051953 METAR KBLI 051953Z 15009KT 9SM -RA BKN029 OVC055 11/07 A2991 RMK AO2 RAB02 SLP136 P0001 T01110072=
201704051853 METAR KBLI 051853Z 14011KT 10SM SCT022 OVC080 11/08 A2991 RMK AO2 RAE52 SLP135 P0001 T01060078=
201704051753 METAR KBLI 051753Z 14016KT 10SM -RA BKN022 OVC060 10/08 A2992 RMK AO2 SLP139 P0002 60017 T01000078 10128 20100 51011=
201704051653 METAR KBLI 051653Z 15011KT 10SM -RA SCT022 BKN026 OVC050 10/08 A2991 RMK AO2 SLP136 P0006 T01000078=
201704051553 METAR KBLI 051553Z 14009KT 6SM -RA BR BKN026 OVC032 10/08 A2991 RMK AO2 SLP135 P0004 T01000078=
201704051453 METAR KBLI 051453Z 14005KT 6SM -RA BR OVC033 10/08 A2989 RMK AO2 SLP128 P0003 60005 T01000078 51018=
201704051353 METAR KBLI 051353Z 14012G17KT 10SM -RA OVC035 11/07 A2988 RMK AO2 SLP124 P0002 T01060072=
201704051253 METAR KBLI 051253Z AUTO 14013G25KT 10SM -RA FEW045 BKN065 OVC080 12/06 A2985 RMK AO2 PK WND 15033/1157 SLP116 P0000 T01170056=
201704051153 METAR KBLI 051153Z AUTO 16018G33KT 10SM -RA FEW055 OVC080 13/05 A2983 RMK AO2 PK WND 15033/1151 RAB05 SLP110 P0000 60002 70004 T01280050 10133 20094 53003=
201704051053 METAR KBLI 051053Z AUTO 14017G24KT 10SM BKN055 OVC090 13/05 A2983 RMK AO2 PK WND 16031/1023 RAB23E44 SLP109 P0000 T01280050=
201704050953 METAR KBLI 050953Z AUTO 14022G29KT 10SM OVC070 13/05 A2983 RMK AO2 PK WND 14033/0859 SLP107 T01280050=
201704050853 METAR KBLI 050853Z AUTO 15019G30KT 10SM OVC080 13/06 A2983 RMK AO2 PK WND 15035/0826 RAE00 SLP107 P0001 60002 T01280056 58018=
201704050753 METAR KBLI 050753Z AUTO 14016G23KT 10SM -RA BKN080 OVC110 12/06 A2984 RMK AO2 SLP113 P0000 T01170061 401610033=
201704050653 METAR KBLI 050653Z AUTO 13014G18KT 10SM -RA SCT043 BKN080 OVC095 11/06 A2987 RMK AO2 SLP123 P0001 T01060056=
201704050553 METAR KBLI 050553Z AUTO 14005KT 10SM -RA OVC080 10/07 A2988 RMK AO2 SLP126 P0001 60002 T01000067 10139 20100 51006=
201704050453 METAR KBLI 050453Z 15012G18KT 10SM -RA BKN080 OVC100 12/05 A2988 RMK AO2 SLP125 P0001 T01170050=
201704050353 METAR KBLI 050353Z 16011KT 10SM -RA OVC060 12/04 A2988 RMK AO2 RAE01B53 SLP125 P0000 T01170044=
201704050253 METAR KBLI 050253Z 14010G18KT 10SM -RA OVC065 14/02 A2986 RMK AO2 PK WND 14028/0221 SLP119 P0000 60000 T01390022 58014=
201704050153 METAR KBLI 050153Z 13011KT 10SM -RA OVC060 13/03 A2988 RMK AO2 SLP125 P0000 T01280033=
201704050053 METAR KBLI 050053Z 15008G21KT 10SM -RA OVC060 13/03 A2989 RMK AO2 PK WND 15026/0020 SLP131 P0000 T01330033=
201704042353 METAR KBLI 042353Z 13011G19KT 10SM -RA BKN055 OVC070 13/02 A2990 RMK AO2 PK WND 15027/2325 RAB08 SLP134 P0000 60000 T01330022 10161 20106 56010=
201704042253 METAR KBLI 042253Z 16012G20KT 10SM BKN065 OVC080 14/00 A2991 RMK AO2 PK WND 15026/2213 SLP135 T01440000=
201704042153 METAR KBLI 042153Z VRB03KT 10SM OVC075 14/03 A2992 RMK AO2 SLP140 T01390028=
201704042053 METAR KBLI 042053Z 02004KT 10SM OVC085 13/02 A2993 RMK AO2 SLP144 T01280022 56011=
201704041953 METAR KBLI 041953Z 01003KT 10SM BKN090 13/02 A2994 RMK AO2 SLP146 T01280017=
201704041853 METAR KBLI 041853Z 32004KT 10SM OVC090 12/02 A2995 RMK AO2 SLP151 T01170022=
201704041753 METAR KBLI 041753Z 05007KT 10SM BKN095 BKN110 11/01 A2997 RMK AO2 SLP155 T01060006 10106 20033 58012=
201704041653 METAR KBLI 041653Z 00000KT 10SM OVC090 09/01 A2998 RMK AO2 SLP160 T00890011=
201704041553 METAR KBLI 041553Z 02005KT 10SM OVC100 07/02 A3000 RMK AO2 SLP166 T00720017=
201704041453 METAR KBLI 041453Z 03003KT 10SM OVC110 06/02 A3000 RMK AO2 SLP167 T00560022 58009=
201704041353 METAR KBLI 041353Z 00000KT 10SM CLR 05/01 A3002 RMK AO2 SLP174 T00500011=
201704041253 METAR KBLI 041253Z AUTO 00000KT 10SM CLR 04/02 A3002 RMK AO2 SLP175 T00440022=
201704041153 METAR KBLI 041153Z AUTO 05003KT 10SM CLR 04/02 A3003 RMK AO2 SLP176 T00440017 10056 20033 58015=
201704041053 METAR KBLI 041053Z AUTO 35003KT 10SM CLR 05/02 A3004 RMK AO2 SLP182 T00500017=
201704040953 METAR KBLI 040953Z AUTO 00000KT 10SM CLR 04/02 A3006 RMK AO2 SLP187 T00390022=
201704040853 METAR KBLI 040853Z AUTO 00000KT 10SM CLR 04/02 A3007 RMK AO2 SLP190 T00390022 56008=
201704040753 METAR KBLI 040753Z AUTO 00000KT 10SM CLR 04/02 A3008 RMK AO2 SLP193 T00440022 401220011=
201704040653 METAR KBLI 040653Z AUTO 00000KT 10SM CLR 05/03 A3008 RMK AO2 SLP195 T00500028=
201704040553 METAR KBLI 040553Z AUTO 00000KT 10SM CLR 05/02 A3010 RMK AO2 SLP199 T00500022 10117 20039 58009=
201704040453 METAR KBLI 040453Z 00000KT 10SM CLR 06/03 A3012 RMK AO2 SLP208 T00560028=
201704040353 METAR KBLI 040353Z 00000KT 10SM CLR 06/02 A3012 RMK AO2 SLP210 T00560022=
201704040253 METAR KBLI 040253Z 26003KT 10SM CLR 08/02 A3012 RMK AO2 SLP210 T00830022 56015=
201704040153 METAR KBLI 040153Z 28004KT 10SM CLR 11/02 A3013 RMK AO2 SLP212 T01060017=
201704040053 METAR KBLI 040053Z VRB04KT 10SM CLR 12/02 A3015 RMK AO2 SLP219 T01170017=
201704032353 METAR KBLI 032353Z 31006KT 10SM CLR 12/02 A3017 RMK AO2 SLP224 T01170022 10122 20078 58022=
201704032253 METAR KBLI 032253Z 30007KT 10SM CLR 11/03 A3019 RMK AO2 SLP232 T01110033=
201704032153 METAR KBLI 032153Z 27008KT 10SM CLR 11/03 A3022 RMK AO2 SLP240 T01110028=
201704032053 METAR KBLI 032053Z 34007KT 10SM FEW033 12/02 A3023 RMK AO2 SLP246 T01220017 58018=
201704031953 METAR KBLI 031953Z 00000KT 10SM SCT033 11/02 A3026 RMK AO2 SLP254 T01060022=
201704031853 METAR KBLI 031853Z 00000KT 10SM SCT026 OVC033 09/03 A3028 RMK AO2 SLP261 T00890033=
201704031753 METAR KBLI 031753Z 00000KT 10SM SCT024 08/02 A3029 RMK AO2 SLP264 T00780022 10083 20011 55000=
201704031707 SPECI KBLI 031707Z 36004KT 10SM SCT038 08/03 A3029 RMK AO2 T00830028=
201704031653 METAR KBLI 031653Z 00000KT 10SM CLR 08/03 A3028 RMK AO2 SLP261 T00830033=
201704031553 METAR KBLI 031553Z 04004KT 10SM SCT022 06/03 A3029 RMK AO2 SLP267 T00560028=
201704031453 METAR KBLI 031453Z 35003KT 10SM SCT026 02/02 A3029 RMK AO2 SLP265 T00220017 53003=
201704031353 METAR KBLI 031353Z 00000KT 10SM FEW030 02/01 A3027 RMK AO2 SLP261 T00170011=
201704031253 METAR KBLI 031253Z AUTO 00000KT 10SM BKN032 03/02 A3027 RMK AO2 SLP259 T00330022=
201704031207 SPECI KBLI 031207Z AUTO 00000KT 10SM OVC031 03/02 A3028 RMK AO2 T00280022=
201704031153 METAR KBLI 031153Z AUTO 00000KT 10SM FEW020 BKN029 03/02 A3028 RMK AO2 SLP261 T00280017 10056 20017 53001=
201704031104 SPECI KBLI 031104Z AUTO 00000KT 10SM SCT017 BKN024 02/01 A3027 RMK AO2 T00220011=
201704031053 METAR KBLI 031053Z AUTO 00000KT 10SM FEW017 SCT024 02/01 A3027 RMK AO2 SLP260 T00170006=
201704030953 METAR KBLI 030953Z AUTO 00000KT 10SM CLR 02/01 A3027 RMK AO2 SLP259 T00220011=
201704030853 METAR KBLI 030853Z AUTO 00000KT 10SM CLR 02/01 A3027 RMK AO2 SLP260 T00220011 51007=
201704030753 METAR KBLI 030753Z AUTO 18003KT 10SM FEW044 SCT075 03/02 A3027 RMK AO2 SLP257 T00330022 401060033=
201704030653 METAR KBLI 030653Z AUTO 15003KT 10SM BKN047 04/02 A3027 RMK AO2 SLP258 T00440017=
201704030553 METAR KBLI 030553Z AUTO 00000KT 10SM CLR 04/02 A3025 RMK AO2 SLP253 T00390017 10106 20033 51006=
201704030453 METAR KBLI 030453Z 00000KT 10SM SCT070 04/02 A3025 RMK AO2 SLP252 T00440022=
201704030353 METAR KBLI 030353Z 00000KT 10SM CLR 05/02 A3025 RMK AO2 SLP250 T00500017=
201704030253 METAR KBLI 030253Z 10SM CLR 07/02 A3023 RMK AO2 SLP247 T00670017 55004=
201704030153 METAR KBLI 030153Z 00000KT 10SM SCT060 BKN090 09/00 A3023 RMK AO2 SLP246 T00940000=
201704030053 METAR KBLI 030053Z 28005KT 10SM SCT047 BKN060 10/M02 A3024 RMK AO2 SLP248 T01001017=
201704022353 METAR KBLI 022353Z VRB05KT 10SM FEW050 BKN065 OVC090 11/01 A3025 RMK AO2 SLP251 T01060011 10106 20083 58010=
201704022253 METAR KBLI 022253Z 28005KT 10SM FEW070 OVC090 11/02 A3026 RMK AO2 SLP254 T01060017=
201704022153 METAR KBLI 022153Z VRB05KT 10SM BKN075 OVC090 09/02 A3027 RMK AO2 SLP258 T00940017=
201704022053 METAR KBLI 022053Z 23005KT 10SM BKN080 11/02 A3028 RMK AO2 SLP261 T01060017 58007=
201704021953 METAR KBLI 021953Z 25006KT 10SM BKN035 BKN080 10/02 A3030 RMK AO2 SLP267 T01000017=
201704021853 METAR KBLI 021853Z 23006KT 10SM SCT032 BKN049 09/02 A3030 RMK AO2 SLP268 T00940017=
201704021753 METAR KBLI 021753Z 17006KT 10SM FEW033 SCT055 08/04 A3030 RMK AO2 SLP269 T00830039 10089 20033 53004=
201704021653 METAR KBLI 021653Z 18006KT 10SM CLR 08/04 A3029 RMK AO2 SLP267 T00830039=
201704021553 METAR KBLI 021553Z 15008KT 10SM R16/2200VP6000FT CLR 08/03 A3029 RMK AO2 SLP266 T00780033=
201704021453 METAR KBLI 021453Z 17004KT 10SM CLR 07/02 A3029 RMK AO2 SLP264 T00720022 53004=
201704021353 METAR KBLI 021353Z 18003KT 10SM CLR 03/02 A3028 RMK AO2 SLP262 T00330017=
201704021253 METAR KBLI 021253Z AUTO 20003KT 10SM CLR 04/02 A3028 RMK AO2 SLP261 T00390022=
201704021153 METAR KBLI 021153Z AUTO 17004KT 10SM CLR 06/02 A3028 RMK AO2 SLP260 70021 T00560017 10089 20056 58002=
201704021053 METAR KBLI 021053Z AUTO VRB03KT 10SM FEW039 07/02 A3029 RMK AO2 SLP265 T00720017=
201704020953 METAR KBLI 020953Z AUTO VRB04KT 10SM OVC040 08/02 A3029 RMK AO2 SLP265 T00780022=
201704020918 SPECI KBLI 020918Z AUTO VRB03KT 10SM BKN030 OVC038 08/02 A3029 RMK AO2 T00830022=
201704020907 SPECI KBLI 020907Z AUTO 20006KT 10SM BKN029 OVC038 08/02 A3029 RMK AO2 T00830022=
201704020853 METAR KBLI 020853Z AUTO 19005KT 10SM OVC030 08/02 A3028 RMK AO2 SLP262 T00830022 53018=
201704020753 METAR KBLI 020753Z AUTO 22005KT 10SM OVC055 09/02 A3026 RMK AO2 SLP256 T00890022 401220072=
201704020653 METAR KBLI 020653Z AUTO 20003KT 10SM SCT055 08/04 A3025 RMK AO2 SLP250 T00830039=
201704020553 METAR KBLI 020553Z AUTO 18007KT 10SM SCT048 09/04 A3023 RMK AO2 SLP244 T00890044 10122 20083 53008=
201704020453 METAR KBLI 020453Z 17008KT 10SM CLR 09/05 A3022 RMK AO2 SLP240 T00890050=
201704020353 METAR KBLI 020353Z 16009G19KT 10SM BKN040 BKN075 10/07 A3021 RMK AO2 SLP239 T01000067=
201704020253 METAR KBLI 020253Z 17009KT 10SM FEW022 BKN070 10/08 A3020 RMK AO2 SLP236 T01000078 56007=
201704020153 METAR KBLI 020153Z 18007KT 10SM SCT048 BKN080 11/08 A3021 RMK AO2 SLP237 T01060078=
201704020053 METAR KBLI 020053Z 16005KT 10SM FEW050 12/08 A3022 RMK AO2 SLP239 T01170078=
201704012353 METAR KBLI 012353Z 17006KT 10SM FEW015 SCT055 12/08 A3022 RMK AO2 SLP242 T01170078 10117 20089 53002=
201704012338 SPECI KBLI 012338Z 17007KT 10SM FEW016 BKN055 12/08 A3023 RMK AO2 T01170078=
201704012253 METAR KBLI 012253Z 16009KT 10SM BKN016 OVC050 11/08 A3022 RMK AO2 SLP242 T01110078=
201704012153 METAR KBLI 012153Z 16007KT 10SM SCT020 BKN025 OVC055 11/08 A3022 RMK AO2 SLP241 T01060078=
201704012142 SPECI KBLI 012142Z 17008KT 10SM BKN020 BKN025 OVC055 11/08 A3022 RMK AO2 T01060078=
201704012106 SPECI KBLI 012106Z 17010KT 10SM FEW008 OVC055 11/08 A3022 RMK AO2 T01060083=
201704012053 METAR KBLI 012053Z 15010KT 10SM FEW031 OVC055 11/09 A3022 RMK AO2 SLP241 T01060089 51008=
201704011953 METAR KBLI 011953Z 17006KT 10SM FEW020 OVC030 09/08 A3022 RMK AO2 SLP241 T00940078=
201704011934 SPECI KBLI 011934Z 17009KT 10SM OVC030 09/08 A3022 RMK AO2 T00940083=
201704011853 METAR KBLI 011853Z 18006G16KT 10SM BKN025 OVC029 09/08 A3020 RMK AO2 SLP235 T00940078=
201704011753 METAR KBLI 011753Z 18008G17KT 10SM BKN027 OVC034 09/07 A3020 RMK AO2 SLP233 60021 T00890072 10089 20072 53012=
201704011653 METAR KBLI 011653Z 17009KT 7SM FEW019 OVC025 09/08 A3018 RMK AO2 RAE42 SLP227 P0002 T00890078=
201704011615 SPECI KBLI 011615Z 16007KT 2SM -RA BR SCT011 OVC022 09/07 A3017 RMK AO2 P0001 T00890072=
201704011553 METAR KBLI 011553Z 09003KT 3SM -RA BR SCT011 OVC022 08/08 A3017 RMK AO2 SLP225 P0001 T00830078=
201704011527 SPECI KBLI 011527Z 18004KT 3SM -RA BR SCT011 OVC022 08/07 A3016 RMK AO2 P0001 T00830072=
201704011453 METAR KBLI 011453Z 00000KT 2SM -RA BR FEW003 BKN014 OVC043 08/08 A3016 RMK AO2 SLP222 P0006 60018 T00780078 53004=
201704011353 METAR KBLI 011353Z 00000KT 2SM -RA BR FEW003 BKN026 OVC043 08/07 A3015 RMK AO2 SLP218 P0006 T00780072=
201704011341 SPECI KBLI 011341Z 00000KT 4SM -RA BR SCT002 BKN014 OVC045 08/08 A3015 RMK AO2 P0005 T00780078=
201704011253 METAR KBLI 011253Z AUTO 01003KT 3SM -RA BR BKN003 BKN017 OVC044 08/07 A3015 RMK AO2 SLP217 P0006 T00780072=
201704011249 SPECI KBLI 011249Z AUTO 36004KT 4SM -RA BR SCT003 BKN019 OVC044 08/07 A3015 RMK AO2 P0005=
201704011239 SPECI KBLI 011239Z AUTO 36004KT 4SM -RA BR FEW003 BKN035 OVC044 08/07 A3015 RMK AO2 P0004 T00780072=
201704011153 METAR KBLI 011153Z AUTO 32003KT 5SM -RA BR OVC044 08/07 A3014 RMK AO2 SLP213 P0002 60011 70011 T00780072 10094 20078 58014=
201704011053 METAR KBLI 011053Z AUTO 03003KT 5SM -RA BR FEW018 SCT044 OVC055 08/07 A3015 RMK AO2 SLP217 P0006 T00780072=
201704010953 METAR KBLI 010953Z AUTO 33004KT 6SM -RA BR BKN039 BKN047 OVC055 08/07 A3018 RMK AO2 SLP228 P0002 T00780072=
201704010853 METAR KBLI 010853Z AUTO 00000KT 10SM -RA FEW047 OVC055 08/08 A3018 RMK AO2 RAB15 SLP227 P0000 60001 T00830078 56023=
201704010753 METAR KBLI 010753Z AUTO 00000KT 10SM OVC065 08/07 A3019 RMK AO2 RAB0658E47 SLP232 P0001 T00830072 401220022=
201704010653 METAR KBLI 010653Z AUTO 00000KT 10SM OVC060 09/06 A3022 RMK AO2 SLP241 T00890056=
201704010553 METAR KBLI 010553Z AUTO 00000KT 10SM OVC060 09/06 A3025 RMK AO2 SLP251 T00940061 10117 20094 50001=
201704010453 METAR KBLI 010453Z 00000KT 10SM OVC060 09/06 A3025 RMK AO2 SLP253 T00940061=
201704010353 METAR KBLI 010353Z 00000KT 10SM OVC065 10/06 A3025 RMK AO2 SLP251 T01000061=
201704010253 METAR KBLI 010253Z 00000KT 10SM OVC065 11/06 A3024 RMK AO2 SLP249 T01060056 58018=
201704010153 METAR KBLI 010153Z 00000KT 10SM OVC065 11/06 A3027 RMK AO2 SLP257 T01110056=
201704010053 METAR KBLI 010053Z VRB03KT 10SM OVC070 12/04 A3029 RMK AO2 SLP265 T01170044=

# No short TAF reports from KBLI in databse.

###################################
#  large TAF from KBLI
###################################
201704302336 TAF KBLI 302336Z 0100/0124 17007KT P6SM SCT050 BKN080 FM010900
                       17005KT P6SM SCT012 BKN035 FM011500 16008KT
                       P6SM -RA SCT012 BKN030 OVC045 FM012000 17008KT
                       P6SM SCT025 BKN040=
201704301736 TAF KBLI 301736Z 3018/0118 19009KT P6SM SCT030 SCT060 FM302200
                       20008KT P6SM SCT045 FM010900 17007KT P6SM
                       SCT012 BKN035 FM011500 16008KT P6SM -RA
                       SCT012 BKN025 OVC040=
201704301120 TAF KBLI 301120Z 3012/0112 17008KT P6SM SCT015 BKN025
                      TEMPO 3012/3016 OVC015 FM301600 17008KT P6SM
                       BKN030 FM301900 17008KT P6SM SCT035 BKN045
                       FM010900 16006KT P6SM OVC030=
201704300522 TAF KBLI 300522Z 3006/0106 15013G20KT P6SM VCSH SCT025 BKN035 OVC040
                       FM300800 17012KT P6SM VCSH SCT020 BKN030
                       BKN040 FM301900 18010KT P6SM SCT035 SCT045=
201704292339 TAF KBLI 292339Z 3000/3024 15011G20KT P6SM -RA SCT035 OVC050 FM300400
                       17013G20KT P6SM VCSH SCT018 BKN025 FM302100
                       18010KT P6SM VCSH SCT030 BKN045=
201704291738 TAF KBLI 291738Z 2918/3018 16009KT P6SM SCT070 OVC100 FM292300
                       17011G20KT P6SM -RA OVC030 FM300500 17013G22KT
                       P6SM VCSH SCT018 BKN025=
201704291120 TAF KBLI 291120Z 2912/3012 17005KT P6SM SCT150 BKN200 FM291500
                       15008KT P6SM BKN060 BKN120 OVC200 FM292100
                       16012G22KT P6SM -RA BKN030 OVC040 FM292300
                       16015G25KT P6SM -RA OVC025 FM300500 16013KT
                       P6SM -SHRA OVC025 FM300800 19010KT P6SM
                       VCSH BKN030=
201704290520 TAF KBLI 290520Z 2906/3006 17006KT P6SM BKN200 FM291200 16008KT
                       P6SM SCT150 BKN200 FM291500 16012KT P6SM
                       BKN060 BKN120 OVC200 FM292100 17012G22KT
                       P6SM -RA BKN030 OVC040 FM292300 17010KT
                       P6SM -RA OVC030 FM300400 14007KT P6SM -SHRA
                       BKN030=
201704282328 TAF KBLI 282328Z 2900/2924 15005KT P6SM SCT200 FM290700 VRB03KT
                       P6SM SCT200 FM291200 16008G16KT P6SM BKN200=
201704281728 TAF KBLI 281728Z 2818/2918 VRB04KT P6SM VCSH SCT019 BKN025 OVC030
                       FM282000 18007KT P6SM SCT045 FM290700 VRB03KT
                       P6SM SCT035 FM291200 16007KT P6SM OVC060=
201704281120 TAF KBLI 281120Z 2812/2912 17005KT P6SM SCT025 BKN035
                      TEMPO 2812/2815 BKN025 BKN035 FM281600 17005KT
                       P6SM BKN035 FM281900 18006KT P6SM SCT040
                       FM290700 16005KT P6SM SCT050 BKN200=
201704280520 TAF KBLI 280520Z 2806/2906 VRB04KT P6SM SCT035 BKN060 FM281000
                       17004KT P6SM SCT030 SCT045 FM281700 17006KT
                       P6SM SCT050 FM282000 18006KT P6SM SCT050=
201704272326 TAF KBLI 272326Z 2800/2824 18007KT P6SM VCSH SCT045 BKN070 FM280400
                       17005KT P6SM BKN030 FM280800 17004KT P6SM
                       OVC025 FM281500 16005KT P6SM BKN035=
201704271735 TAF KBLI 271735Z 2718/2818 31003KT P6SM SCT021 OVC045 FM280000
                       18008KT P6SM OVC030 FM280100 18008KT P6SM
                       VCSH OVC030 FM280400 17005KT P6SM BKN030
                       FM280800 17004KT P6SM OVC025 FM281500 16005KT
                       P6SM BKN035=
201704271120 TAF KBLI 271120Z 2712/2812 17005KT P6SM VCSH SCT025 OVC035 FM271800
                       18008KT P6SM VCSH BKN040 FM280600 17006KT
                       P6SM BKN030=
201704270520 TAF KBLI 270520Z 2706/2806 20006KT P6SM SCT025 OVC035 FM270900
                       18006KT P6SM SCT025 OVC030 FM271200 17005KT
                       P6SM OVC025 FM271800 17006KT P6SM BKN040=
201704262328 TAF KBLI 262328Z 2700/2724 20008KT P6SM VCSH SCT045 SCT050 SCT070
                       FM270600 17010G17KT P6SM OVC035 FM270900
                       17008KT P6SM OVC035 FM271200 17009G16KT
                       P6SM VCSH OVC020 FM272200 19009G15KT P6SM
                       BKN035=
201704261725 TAF KBLI 261725Z 2618/2718 17006KT P6SM FEW060 OVC080 FM262100
                       18010G17KT P6SM VCSH SCT025 BKN040 FM270600
                       17008KT P6SM OVC035 FM271300 17010G16KT
                       P6SM OVC020=
201704261302 KBLI 261302Z 2613/2712 17012G20KT P6SM VCSH SCT020 BKN045 FM261800
                       18013G22KT P6SM VCSH SCT025 BKN035 FM270000
                       18012KT P6SM BKN030 FM270600 18010KT P6SM
                       OVC025=
201704261120 TAF KBLI 261120Z 2612/2712 17012G20KT P6SM -SHRA SCT012 BKN025
                       OVC035 FM261800 18013G22KT P6SM VCSH SCT025
                       BKN035 FM270000 18012KT P6SM BKN030 FM270600
                       18010KT P6SM OVC025=
201704260815 KBLI 260815Z 2608/2706 10005KT P6SM -RA OVC025 FM261000 15009KT
                       P6SM -SHRA BKN025 FM261200 17012KT P6SM
                       -SHRA BKN030 FM261900 18013KT P6SM VCSH
                       BKN040 FM270000 18010KT P6SM BKN040=
201704260540 TAF KBLI 260540Z 2606/2706 12006KT P6SM -RA OVC040 FM260900 16010KT
                       P6SM -SHRA BKN035 FM261200 17012KT P6SM
                       -SHRA BKN030 FM261900 18014KT P6SM VCSH
                       BKN040 FM270000 18010KT P6SM BKN040=
201704252320 TAF KBLI 252320Z 2600/2624 17012KT P6SM -RA OVC050 FM260600 17012KT
                       P6SM -RA OVC040 FM261200 18012KT P6SM -SHRA
                       BKN025 FM261800 21012KT P6SM VCSH BKN040=
201704251908 KBLI 251908Z 2519/2618 16012G20KT P6SM SCT035 BKN200 FM252100 16012G20KT
                       P6SM BKN040 BKN120 FM260300 16012G20KT P6SM
                       -RA OVC040 FM261400 20012KT P6SM -SHRA BKN025
                       FM261700 20012KT P6SM VCSH BKN040=
201704251732 TAF KBLI 251732Z 2518/2618 16008KT P6SM BKN025 BKN200 FM252100
                       16010KT P6SM BKN040 BKN120 FM260300 16012KT
                       P6SM -RA OVC040 FM261400 20012KT P6SM -SHRA
                       BKN025 FM261700 20012KT P6SM VCSH BKN040=
201704251122 TAF KBLI 251122Z 2512/2612 16010G18KT P6SM BKN020 OVC045
                      TEMPO 2512/2516 SCT020 BKN045 FM251600 16010G18KT
                       P6SM SCT025 BKN045
                      TEMPO 2516/2518 BKN025 OVC045 FM251800 16012KT
                       P6SM BKN045 BKN120 FM260200 16012G22KT P6SM
                       -RA OVC040 FM260700 15012KT P6SM -RA OVC030=
201704250532 TAF KBLI 250532Z 2506/2606 16006KT P6SM SCT045 FM251300 16009KT
                       P6SM SCT025 BKN045
                      TEMPO 2513/2517 BKN025 BKN045 FM251800 16012KT
                       P6SM BKN045 BKN120 FM260100 16012G22KT P6SM
                       -RA OVC040=
201704242320 TAF KBLI 242320Z 2500/2524 26008KT P6SM SCT050 FM250600 VRB04KT
                       P6SM SCT040 FM251100 18008KT P6SM BKN020
                       FM251800 18012KT P6SM BKN040 BKN120 FM252300
                       16012G22KT P6SM -RA OVC040=
201704241720 TAF KBLI 241720Z 2418/2518 VRB04KT P6SM SCT030
                      TEMPO 2418/2422 BKN030 FM250400 21008KT P6SM
                       VCSH BKN035 FM250900 18012KT P6SM OVC025
                       FM251600 16007KT P6SM BKN035=
201704241123 TAF KBLI 241123Z 2412/2512 05005KT P6SM VCSH BKN025 OVC035 FM241600
                       35005KT P6SM SCT025 BKN050 FM242200 26006KT
                       P6SM SCT040 FM250500 17007KT P6SM SCT012
                       BKN060 FM251000 16010KT P6SM BKN012 OVC025=
201704240536 TAF KBLI 240536Z 2406/2506 15005KT P6SM VCSH BKN025 OVC040
                      TEMPO 2406/2408 -SHRA FM241700 35005KT P6SM
                       SCT025 BKN050 FM242200 28006KT P6SM SKC
                       FM250500 17007KT P6SM SCT012 BKN060=
201704232320 TAF KBLI 232320Z 2400/2424 16010KT P6SM -SHRA SCT035 OVC060 FM240300
                       16008KT P6SM -SHRA SCT025 OVC045 FM240600
                       16008KT P6SM -SHRA BKN025 OVC040 FM241800
                       36006KT P6SM SCT025 BKN050 BKN080=
201704231721 TAF KBLI 231721Z 2318/2418 17010KT P6SM BKN040 OVC060 FM232300
                       16012G18KT P6SM -SHRA OVC040 FM240200 16008KT
                       P6SM -SHRA BKN025 OVC040 FM241100 16005KT
                       P6SM VCSH SCT025 OVC040=
201704231635 KBLI 231635Z 2317/2412 17010KT P6SM OVC045 FM240000 16010G18KT
                       P6SM -SHRA BKN030 OVC045 FM241100 16005KT
                       P6SM VCSH SCT025 OVC040=
201704231137 TAF KBLI 231137Z 2312/2412 16010G18KT P6SM VCSH BKN025 OVC035
                      TEMPO 2315/2319 -SHRA FM231900 17010G18KT
                       P6SM VCSH SCT025 BKN035 OVC050 FM240000
                       16010G18KT P6SM -SHRA SCT015 OVC025 FM240800
                       15006KT P6SM VCSH SCT018 BKN035=
201704230527 TAF KBLI 230527Z 2306/2406 16010G18KT P6SM SCT025 BKN040 FM231400
                       16010KT P6SM -SHRA SCT015 BKN025 OVC035
                       FM231900 17010G18KT P6SM VCSH SCT025 BKN035
                       OVC050 FM240000 16010G18KT P6SM -SHRA SCT015
                       OVC025=
201704222324 TAF KBLI 222324Z 2300/2324 15015G25KT P6SM -SHRA SCT040 BKN050
                       OVC070 FM230600 17010KT P6SM BKN030 OVC050
                       FM231000 16008KT P6SM BKN025 OVC050 FM232200
                       17007KT P6SM -RA BKN025 OVC050=
201704221721 TAF KBLI 221721Z 2218/2318 01007KT P6SM BKN100 OVC200 FM222000
                       13012KT P6SM OVC080 FM222200 15015G25KT
                       P6SM -RA OVC050 FM230000 17014G24KT P6SM
                       -SHRA OVC035 FM230500 17012KT P6SM VCSH
                       OVC045=
201704221126 TAF KBLI 221126Z 2212/2312 03005KT P6SM BKN200 FM221800 15010KT
                       P6SM BKN060 OVC100 FM222100 16012G20KT P6SM
                       -SHRA SCT035 OVC050 FM230300 15011KT P6SM
                       -SHRA SCT020 OVC035=
201704220539 TAF KBLI 220539Z 2206/2306 05005KT P6SM BKN200 FM221800 15010KT
                       P6SM BKN050 OVC100 FM222100 16012G20KT P6SM
                       VCSH SCT035 OVC050 FM230100 16010G18KT P6SM
                       -SHRA SCT030 OVC040=
201704212320 TAF KBLI 212320Z 2200/2224 02008KT P6SM SKC FM220400 VRB03KT P6SM
                       BKN200 FM221800 15010KT P6SM BKN050 OVC100
                       FM222100 16010G18KT P6SM -RA OVC050=
201704211720 TAF KBLI 211720Z 2118/2218 02007KT P6SM SCT027
                      TEMPO 2118/2120 BKN027 FM212200 20008KT P6SM
                       SKC FM220300 00000KT P6SM BKN200=
201704211120 TAF KBLI 211120Z 2112/2212 VRB03KT P6SM BKN050 FM211600 VRB03KT
                       P6SM SCT050 FM211800 33006KT P6SM SCT250
                       FM220500 04006KT P6SM BKN200=
201704210520 TAF KBLI 210520Z 2106/2206 VRB03KT P6SM BKN060 FM211200 VRB03KT
                       P6SM SCT012
                      TEMPO 2113/2117 BKN012 FM211800 33006KT P6SM
                       SCT250 FM220500 04006KT P6SM BKN200=
201704202333 TAF KBLI 202333Z 2100/2124 17007KT P6SM VCSH SCT060
                      TEMPO 2100/2102 BKN060 FM210600 VRB03KT P6SM
                       SKC FM211800 03006KT P6SM SCT250 FM212100
                       32006KT P6SM SCT250=
201704202246 KBLI 202246Z 2023/2118 20007KT P6SM VCSH SCT060
                      TEMPO 2023/2101 -SHRA BKN060 FM210200 17004KT
                       P6SM SCT060 FM211500 VRB03KT P6SM SCT250=
201704202103 KBLI 202103Z 2021/2118 17010KT P6SM VCSH SCT035 SCT060
                      TEMPO 2021/2024 -SHRA BKN035 OVC060 FM210200
                       17004KT P6SM SCT060 FM211500 VRB03KT P6SM
                       SCT250=
201704201743 TAF KBLI 201743Z 2018/2118 17010KT P6SM VCSH BKN050 FM202000 17010KT
                       P6SM VCSH SCT035 BKN060
                      TEMPO 2020/2024 -SHRA FM210200 17004KT P6SM
                       SCT060 FM211500 VRB03KT P6SM SCT250=
201704201433 KBLI 201433Z 2015/2112 17008KT P6SM FEW020 BKN040 BKN200 FM201800
                       18008KT P6SM VCSH BKN035 FM210000 23006KT
                       P6SM BKN040 FM211000 VRB03KT P6SM SCT040=
201704201120 TAF KBLI 201120Z 2012/2112 16006KT P6SM OVC017 FM201500 18008KT
                       P6SM BKN025 FM201800 18008KT P6SM VCSH BKN035
                       FM210000 23006KT P6SM BKN040 FM211000 VRB03KT
                       P6SM SCT040=
201704200534 TAF KBLI 200534Z 2006/2106 VRB03KT P6SM VCSH SCT040 BKN100 FM200900
                       18008KT P6SM -SHRA BKN040 BKN100 FM201800
                       18008KT P6SM BKN030 FM210000 23006KT P6SM
                       BKN040 FM210500 VRB03KT P6SM SCT040=
201704192341 TAF KBLI 192341Z 2000/2024 14013KT P6SM VCSH SCT060 SCT100 OVC200
                       TEMPO 2000/2004 14012G22KT FM200600 14009KT
                       P6SM BKN060 OVC100
                      TEMPO 2006/2010 -SHRA BKN035 OVC050 FM201100
                       14006KT P6SM -SHRA BKN035 OVC050 FM201300
                       14006KT P6SM OVC028 FM201800 17011KT P6SM
                       -SHRA SCT035 BKN050=
201704192230 KBLI 192230Z 1923/2018 14013KT P6SM VCSH SCT060 SCT110 OVC200 FM200300
                       VRB05KT P6SM SCT035 BKN060 BKN200
                      TEMPO 2003/2007 -SHRA FM200900 17005KT P6SM
                       BKN035 OVC050
                      PROB30 2009/2015 -SHRA FM201500 17005KT P6SM
                       -SHRA OVC028=
201704191959 KBLI 191959Z 1920/2018 15013G23KT P6SM -RA SCT035 OVC060 FM200300
                       VRB05KT P6SM SCT035 BKN060 BKN200
                      TEMPO 2003/2007 -SHRA FM200900 17005KT P6SM
                       BKN035 OVC050
                      PROB30 2009/2015 -SHRA FM201500 17005KT P6SM
                       -SHRA OVC028=
201704191731 TAF KBLI 191731Z 1918/2018 07007KT P6SM BKN060 OVC110
                      TEMPO 1918/1920 -RA FM192000 15013KT P6SM
                       -RA SCT035 OVC050 FM200300 VRB05KT P6SM
                       SCT035 BKN060 BKN200
                      TEMPO 2003/2007 -SHRA FM200900 17005KT P6SM
                       BKN035 OVC050
                      PROB30 2009/2015 -SHRA FM201500 17005KT P6SM
                       -SHRA OVC028=
201704191120 TAF KBLI 191120Z 1912/2012 VRB03KT P6SM SCT080 BKN150 FM191600
                       14008KT P6SM SCT040 BKN080 OVC150 FM192000
                       18012KT P6SM -RA OVC040 FM200200 20012KT
                       P6SM -SHRA BKN025 BKN040=
201704190520 TAF KBLI 190520Z 1906/2006 12007KT P6SM BKN050 BKN200 FM192000
                       18012KT P6SM -RA OVC040 FM200200 20012KT
                       P6SM -SHRA BKN025 BKN040=
201704182320 TAF KBLI 182320Z 1900/1924 16008KT P6SM FEW060 SCT120 FM191500
                       06008KT P6SM BKN070 OVC120 FM192100 15008KT
                       P6SM -RA OVC050=
201704181723 TAF KBLI 181723Z 1818/1918 16012G18KT P6SM SCT025 BKN050 BKN090
                       TEMPO 1822/1902 -SHRA BKN025 OVC050 FM190400
                       16008KT P6SM SCT060 SCT120 FM191500 12008KT
                       P6SM BKN070 OVC120=
201704181509 KBLI 181509Z 1815/1912 16010G18KT P6SM SCT022 BKN040 OVC070
                      TEMPO 1815/1818 BKN022 OVC040 FM181900 16010KT
                       P6SM VCSH BKN040 OVC080 FM190400 18010KT
                       P6SM VCSH BKN050 BKN100=
201704181120 TAF KBLI 181120Z 1812/1912 16010KT P6SM VCSH BKN035 BKN100 FM182000
                       16010KT P6SM VCSH BKN040 OVC080 FM190400
                       18010KT P6SM VCSH BKN050 BKN100=
201704180900 KBLI 180900Z 1809/1906 16010KT P6SM VCSH BKN025 OVC050 FM182000
                       16012KT P6SM -RA BKN040 OVC080 FM190400
                       21012KT P6SM VCSH BKN050 BKN100=
201704180520 TAF KBLI 180520Z 1806/1906 16012KT P6SM VCSH BKN050 BKN100 FM182000
                       16012KT P6SM -RA BKN040 OVC080 FM190400
                       21012KT P6SM VCSH BKN050 BKN100=
201704180209 KBLI 180209Z 1802/1824 15012G22KT P6SM -RA BKN050 OVC090 FM181200
                       17012KT P6SM -RA OVC040=
201704172320 TAF KBLI 172320Z 1800/1824 15013G18KT P6SM SCT040 OVC090 FM180100
                       15010KT P6SM -RA SCT035 OVC060 FM180700
                       15008KT P6SM SCT035 BKN050 FM181800 17010KT
                       P6SM -RA BKN035 OVC050=
201704171721 TAF KBLI 171721Z 1718/1818 16012G20KT P6SM SCT035 BKN070 BKN100
                       FM180000 17010KT P6SM -RA BKN035 OVC050
                       FM180700 15008KT P6SM SCT035 BKN050=
201704171135 TAF KBLI 171135Z 1712/1812 VRB03KT P6SM OVC080 FM171900 14008KT
                       P6SM OVC050 FM172300 17008KT P6SM -RA OVC035
                       FM180700 15008KT P6SM SCT035 BKN050=
201704170540 TAF KBLI 170540Z 1706/1806 VRB03KT P6SM OVC100 FM171500 14008KT
                       P6SM OVC050 FM172300 17008KT P6SM -RA OVC035=
201704162322 TAF KBLI 162322Z 1700/1724 36008KT P6SM SCT100 OVC200 FM170600
                       VRB03KT P6SM BKN100 OVC200 FM171100 16005KT
                       P6SM OVC060 FM171500 15006KT P6SM OVC025
                       FM172000 15012KT P6SM OVC040=
201704161720 TAF KBLI 161720Z 1618/1718 04010KT P6SM FEW100 BKN200 FM170600
                       VRB03KT P6SM BKN100 OVC200 FM171300 16005KT
                       P6SM OVC060=
201704161120 TAF KBLI 161120Z 1612/1712 02008KT P6SM BKN200 FM170600 VRB03KT
                       P6SM BKN100 OVC200=
201704160538 TAF KBLI 160538Z 1606/1706 VRB03KT P6SM SKC FM161900 01008KT P6SM
                       BKN200=
201704152326 TAF KBLI 152326Z 1600/1624 22005KT P6SM SCT050 FM160400 VRB03KT
                       P6SM SKC FM161600 01008KT P6SM BKN200=
201704151727 TAF KBLI 151727Z 1518/1618 16010KT P6SM FEW035 BKN070 FM160400
                       VRB03KT P6SM SKC=
201704151123 TAF KBLI 151123Z 1512/1612 17008KT P6SM BKN035 BKN060
                      TEMPO 1512/1516 -SHRA FM152000 22006KT P6SM
                       SCT035 BKN060 FM160400 03006KT P6SM SKC=
201704150540 TAF KBLI 150540Z 1506/1606 17008KT P6SM BKN035 BKN060 FM152200
                       25006KT P6SM SCT035 BKN060 FM160400 03006KT
                       P6SM SKC=
201704142320 TAF KBLI 142320Z 1500/1524 18008KT P6SM FEW040 SCT090 FM150300
                       17008KT P6SM SCT040 BKN090
                      TEMPO 1504/1508 -SHRA BKN040 BKN090 FM150800
                       16006KT P6SM BKN050 BKN100 FM152000 17010KT
                       P6SM SCT050 BKN150=
201704141721 TAF KBLI 141721Z 1418/1518 16012G20KT P6SM SCT035 BKN090 FM150300
                       17008KT P6SM SCT030 BKN070=
201704141318 KBLI 141318Z 1413/1512 16006KT P6SM BKN035 BKN080 FM141800 17012G18KT
                       P6SM BKN040 FM150300 17008KT P6SM SCT030
                       BKN060 FM150600 16006KT P6SM BKN030 OVC050=
201704141128 TAF KBLI 141128Z 1412/1512 15010KT P6SM OVC020 FM141600 16008KT
                       P6SM BKN035 BKN060 FM141800 17012G18KT P6SM
                       BKN040 FM150300 17008KT P6SM SCT030 BKN060
                       FM150600 16006KT P6SM BKN030 OVC050=
201704140542 TAF KBLI 140542Z 1406/1506 16005KT 4SM -SHRA BR SCT025 OVC030 FM140900
                       15007KT P6SM SCT035 BKN070 FM141600 16008KT
                       P6SM BKN035 BKN060 FM142000 17012G18KT P6SM
                       BKN060 FM150300 17008KT P6SM SCT030 BKN060=
201704132320 TAF KBLI 132320Z 1400/1424 17013G24KT P6SM FEW030 SCT100 FM140100
                       17010KT P6SM SCT030 BKN080 FM140500 16005KT
                       P6SM -SHRA BKN030 BKN060 FM141600 16008KT
                       P6SM BKN035 BKN060 FM142000 17012G18KT P6SM
                       BKN060=
201704132105 TAF AMD KBLI 132105Z 1321/1418 17013G24KT P6SM FEW030 SCT100 FM140100
                       17010KT P6SM SCT030 BKN080 FM140500 16005KT
                       P6SM SCT030 BKN060
                      PROB30 1406/1412 -SHRA BKN030 OVC060=
201704131916 TAF KBLI 131916Z 1319/1418 15012KT P6SM VCSH BKN035 OVC050 FM132000
                       16012G20KT P6SM -SHRA BKN030 OVC050=
201704131754 KBLI 131754Z 1318/1418 15012KT P6SM VCSH BKN035 OVC050 FM132000
                       16012G20KT P6SM -SHRA BKN030 OVC050=
201704131751 KBLI 131751Z 1318/1418 18008KT P6SM VCSH BKN035 OVC050 FM132000
                       16012G20KT P6SM -SHRA BKN030 OVC050=
201704131740 TAF KBLI 131740Z 1318/1418 15012KT P6SM VCSH BKN035 OVC050 FM132000
                       16012G20KT P6SM -SHRA BKN030 OVC050=
201704131317 KBLI 131317Z 1313/1412 03004KT P6SM BKN019 OVC026 FM131400 15012KT
                       P6SM VCSH BKN035 OVC050 FM132000 16015G23KT
                       P6SM -SHRA BKN030 OVC050=
201704131216 KBLI 131216Z 1312/1412 00000KT 4SM -SHRA BR OVC009 FM131400 15012KT
                       P6SM VCSH BKN035 OVC050 FM132000 16015G23KT
                       P6SM -SHRA BKN030 OVC050=
201704131139 TAF KBLI 131139Z 1312/1412 16008KT P6SM -SHRA BKN015 OVC028 FM131600
                       15012KT P6SM VCSH BKN035 OVC050 FM132000
                       16015G23KT P6SM -SHRA BKN030 OVC050=
201704130539 TAF KBLI 130539Z 1306/1406 02005KT P6SM -RA BKN035 OVC060 FM130800
                       11005KT P6SM -SHRA BKN035 OVC050 FM131000
                       15005KT P6SM -SHRA SCT013 OVC028 FM131600
                       15012KT P6SM -SHRA BKN035 OVC050 FM132000
                       16015G23KT P6SM -SHRA BKN030 OVC050=
201704122343 TAF KBLI 122343Z 1300/1324 15009KT P6SM VCSH SCT035 BKN060 BKN100
                       TEMPO 1303/1307 -SHRA FM130700 11005KT P6SM
                       -SHRA BKN035 OVC050 FM131000 15005KT P6SM
                       -SHRA SCT013 OVC028 FM131600 15012KT P6SM
                       -SHRA BKN035 OVC050 FM132000 16015G23KT
                       P6SM -SHRA BKN030 OVC050=
201704122015 KBLI 122015Z 1220/1318 13015G22KT P6SM -SHRA BKN035 OVC050 FM122200
                       13013KT P6SM -SHRA SCT035 BKN060 OVC100
                       FM130200 10006KT P6SM -SHRA SCT028 BKN060
                       OVC100 FM131000 15004KT P6SM -SHRA SCT013
                       OVC028 FM131600 15012KT P6SM -SHRA BKN035
                       OVC050=
201704121734 TAF KBLI 121734Z 1218/1318 13015KT P6SM -SHRA SCT020 BKN035 OVC050
                       TEMPO 1218/1220 13015G25KT 5SM SHRA BKN020
                       OVC035 FM122100 13013KT P6SM -SHRA SCT028
                       BKN050 OVC100 FM130200 10006KT P6SM -SHRA
                       SCT028 BKN060 OVC100 FM131000 15004KT P6SM
                       -SHRA SCT013 OVC028 FM131600 15012KT P6SM
                       -SHRA BKN035 OVC050=
201704121655 KBLI 121655Z 1217/1312 14013G23KT P6SM -SHRA SCT030 OVC060
                      TEMPO 1217/1221 4SM SHRA BKN030 OVC050 FM130300
                       02003KT P6SM -SHRA BKN035 OVC050 FM130900
                       14004KT P6SM VCSH BKN040 OVC060=
201704121651 KBLI 121651Z 1217/1312 VRB04KT P6SM -RA OVC280 FM121900 13013KT
                       P6SM -RA OVC028 FM130300 02003KT P6SM -SHRA
                       BKN035 OVC050 FM130900 14004KT P6SM VCSH
                       BKN040 OVC060=
201704121128 TAF KBLI 121128Z 1212/1312 VRB04KT P6SM -RA OVC070 FM121400 VRB04KT
                       P6SM -RA OVC060 FM121900 13013KT P6SM -RA
                       OVC028 FM130300 02003KT P6SM -SHRA BKN035
                       OVC050 FM130900 14004KT P6SM VCSH BKN040
                       OVC060=
201704120541 TAF KBLI 120541Z 1206/1306 VRB03KT P6SM BKN110 FM121200 VRB04KT
                       P6SM -RA BKN060 OVC120 FM121400 VRB04KT
                       P6SM -RA OVC060 FM121600 07008KT P6SM -RA
                       SCT028 OVC040 FM121900 13013KT P6SM -RA
                       OVC028=
201704112339 TAF KBLI 112339Z 1200/1224 36009KT P6SM FEW120 OVC200 FM121000
                       VRB04KT P6SM SCT060 OVC120
                      PROB30 1210/1213 -RA OVC060 FM121300 VRB04KT
                       P6SM -RA OVC060 FM121600 07008KT P6SM -RA
                       SCT028 OVC040 FM121900 13013KT P6SM -RA
                       OVC028=
201704111721 TAF KBLI 111721Z 1118/1218 01013KT P6SM SCT250 FM112100 33009KT
                       P6SM FEW120 OVC200 FM120300 VRB04KT P6SM
                       SCT060 OVC120 FM120600 VRB04KT P6SM -RA
                       OVC060 FM121300 05005KT P6SM -RA SCT028
                       OVC040 FM121600 10009KT P6SM -RA OVC028=
201704111422 KBLI 111422Z 1114/1212 VRB03KT P6SM SKC FM111800 01008KT P6SM SCT250
                       FM112100 32010KT P6SM SCT250 FM120600 VRB03KT
                       P6SM BKN060=
201704111141 TAF KBLI 111141Z 1112/1212 15007KT P6SM OVC050 FM111600 VRB03KT
                       P6SM BKN050 FM111800 01008KT P6SM SKC FM112100
                       32010KT P6SM SCT200 FM120600 VRB03KT P6SM
                       BKN060=
201704110547 TAF KBLI 110547Z 1106/1206 15015G25KT P6SM BKN035 OVC045 FM111200
                       VRB04KT P6SM SCT025 SCT070 SCT200 FM111800
                       02008KT P6SM SKC FM112100 32008KT P6SM SCT200=
201704102320 TAF KBLI 102320Z 1100/1124 16013KT P6SM SCT035 BKN050 BKN200
                      TEMPO 1100/1103 16013G22KT -SHRA BKN035 OVC050
                       FM110600 15010KT P6SM BKN070 BKN200 FM111200
                       VRB04KT P6SM SCT025 SCT070 SCT200 FM111800
                       02008KT P6SM SKC FM112100 32008KT P6SM SCT200=
201704101859 KBLI 101859Z 1019/1118 17013KT P6SM VCSH SCT028 OVC050 FM102000
                       17015G25KT P6SM -SHRA SCT028 BKN050
                      TEMPO 1020/1024 3SM SHRA BKN028 OVC050 FM110300
                       15013KT P6SM -SHRA SCT035 BKN060 FM110600
                       15008KT P6SM VCSH SCT045 BKN070 BKN200 FM111200
                       13004KT P6SM SCT070 SCT200=
201704101727 TAF KBLI 101727Z 1018/1118 15015G23KT P6SM BKN028 OVC050 FM102000
                       17015G25KT P6SM -SHRA SCT028 BKN050
                      TEMPO 1020/1024 3SM SHRA BKN028 OVC050 FM110300
                       15013KT P6SM -SHRA SCT035 BKN060 FM110600
                       15008KT P6SM VCSH SCT045 BKN070 BKN200 FM111200
                       13004KT P6SM SCT070 SCT200=
201704101416 KBLI 101416Z 1014/1112 14013KT P6SM VCSH BKN022 OVC035
                      TEMPO 1014/1018 -SHRA FM101800 16014G24KT
                       P6SM -SHRA SCT025 BKN040 OVC050 FM110300
                       17012KT P6SM VCSH SCT025 BKN040 FM110900
                       16008KT P6SM SCT020 BKN035=
201704101121 TAF KBLI 101121Z 1012/1112 15010KT P6SM -RA BKN035 OVC050 FM101500
                       16012G22KT P6SM SCT025 OVC040
                      TEMPO 1015/1019 -SHRA BKN025 OVC040 FM101900
                       16014G24KT P6SM -SHRA SCT025 BKN040 OVC050
                       FM110300 17012KT P6SM VCSH SCT025 BKN040
                       FM110900 16008KT P6SM SCT020 BKN035=
201704100523 TAF KBLI 100523Z 1006/1106 03005KT P6SM SCT050 BKN090 FM100800
                       13010KT P6SM -RA SCT035 OVC050 FM101400
                       16012G22KT P6SM -SHRA SCT025 OVC040 FM110300
                       17012KT P6SM VCSH SCT025 BKN040=
201704092338 TAF KBLI 092338Z 1000/1024 08005KT P6SM SCT070 BKN150 FM100800
                       13010KT P6SM -SHRA SCT035 OVC050 FM101400
                       16012G20KT P6SM VCSH SCT020 OVC035=
201704091738 TAF KBLI 091738Z 0918/1018 15006KT P6SM SCT040 BKN200 FM092200
                       17011G18KT P6SM SCT200 FM100100 08005KT
                       P6SM SCT070 BKN150 FM100900 13010KT P6SM
                       -RA SCT045 OVC060 FM101300 16012G20KT P6SM
                       -RA SCT025 OVC035=
201704091122 TAF KBLI 091122Z 0912/1012 15008KT P6SM VCSH BKN025 FM091500 15006KT
                       P6SM SCT050 BKN200 FM092300 15012KT P6SM
                       SCT050 BKN100 FM100800 13010KT P6SM -RA
                       OVC050=
201704090534 TAF KBLI 090534Z 0906/1006 16008KT P6SM SCT050 FM091400 16006KT
                       P6SM SCT050 BKN200 FM092300 15012KT P6SM
                       SCT050 BKN100=
201704082337 TAF KBLI 082337Z 0900/0924 14010KT P6SM -SHRA SCT025 BKN035 OVC050
                       FM090500 16008KT P6SM BKN050 FM090900 14004KT
                       P6SM SCT050 FM091400 VRB03KT P6SM SCT050
                       BKN200=
201704081728 TAF KBLI 081728Z 0818/0918 15012G25KT P6SM VCSH BKN025 OVC040
                      TEMPO 0818/0820 -SHRA SCT025 BKN040 FM082000
                       16012G20KT P6SM VCSH SCT030 BKN050 FM090300
                       16010KT P6SM VCSH BKN050 FM090600 16007KT
                       P6SM SCT050 FM091000 16008KT P6SM BKN025=
201704081121 TAF KBLI 081121Z 0812/0912 16014G24KT P6SM BKN025 OVC040
                      TEMPO 0812/0816 -SHRA SCT025 BKN040 FM081600
                       16012G22KT P6SM BKN025 OVC040
                      TEMPO 0816/0820 -SHRA SCT025 BKN040 FM082000
                       16012G20KT P6SM VCSH SCT030 BKN050 FM090300
                       16010KT P6SM VCSH BKN050 FM090700 16007KT
                       P6SM SCT050=
201704080531 TAF KBLI 080531Z 0806/0906 16022G32KT P6SM SCT030 BKN050
                      TEMPO 0806/0810 -SHRA BKN030 OVC050 FM081000
                       16018G28KT P6SM SCT025 BKN045
                      TEMPO 0810/0814 -SHRA BKN025 OVC045 FM081400
                       16012G22KT P6SM -SHRA SCT020 OVC035 FM081800
                       16012G20KT P6SM VCSH SCT030 BKN050 FM090300
                       16010KT P6SM VCSH BKN050=
201704072337 TAF KBLI 072337Z 0800/0824 14025G35KT P6SM VCSH SCT045 BKN060 FM080300
                       16017G28KT P6SM -SHRA SCT030 OVC045 FM081200
                       16011G18KT P6SM -SHRA SCT020 OVC035 FM081800
                       16012KT P6SM VCSH BKN035 OVC060=
201704071737 TAF KBLI 071737Z 0718/0818 16022G35KT P6SM VCSH SCT045 BKN060
                      TEMPO 0718/0720 -SHRA FM080300 16017G28KT
                       P6SM -SHRA SCT030 OVC045 FM081200 16011G18KT
                       P6SM -SHRA SCT020 OVC035=
201704071120 TAF KBLI 071120Z 0712/0812 07012G20KT P6SM -RA SCT025 OVC050
                      TEMPO 0714/0718 4SM RA BR BKN025 OVC050 FM071800
                       12020G30KT P6SM -RA BKN020 OVC040 FM072200
                       15020G30KT P6SM -SHRA BKN020 BKN040 FM080200
                       16015G25KT P6SM -SHRA BKN025 BKN050=
201704070520 TAF KBLI 070520Z 0706/0806 04011KT P6SM SCT050 BKN200 FM071200
                       07012G20KT P6SM -RA SCT025 OVC050
                      TEMPO 0714/0718 4SM RA BR BKN025 OVC050 FM071800
                       12020G30KT P6SM -RA BKN020 OVC040 FM072200
                       15020G30KT P6SM -SHRA BKN020 BKN040 FM080200
                       16015G25KT P6SM -SHRA BKN025 BKN050=
201704062320 TAF KBLI 062320Z 0700/0724 14008KT P6SM BKN040 FM070600 04008KT
                       P6SM SCT050 BKN200 FM071200 07012G20KT P6SM
                       -RA SCT025 OVC050
                      TEMPO 0714/0718 4SM RA BR BKN025 OVC050 FM071800
                       15020G30KT P6SM -RA BKN020 OVC040 FM072200
                       18020G30KT P6SM -SHRA BKN020 BKN040=
201704062120 KBLI 062120Z 0621/0718 16010KT P6SM VCSH BKN035 BKN090 FM070000
                       18008KT P6SM VCSH SCT040 BKN090 FM070600
                       06010KT P6SM BKN090 FM071000 12012G22KT
                       P6SM -RA SCT020 OVC040 FM071700 16020G30KT
                       P6SM -RA BKN020 OVC040=
201704061720 TAF KBLI 061720Z 0618/0718 14014G22KT P6SM -RA SCT025 OVC040 FM062200
                       18010KT P6SM VCSH SCT025 BKN050 FM071000
                       12012G22KT P6SM -RA SCT020 OVC040 FM071700
                       16020G30KT P6SM -RA BKN020 OVC040=
201704061120 TAF KBLI 061120Z 0612/0712 04007KT P6SM VCSH SCT050 OVC080 FM061400
                       16010KT P6SM -RA SCT025 OVC050
                      TEMPO 0616/0619 5SM BR BKN025 FM061900 18008KT
                       P6SM VCSH SCT025 BKN050 FM062300 20006KT
                       P6SM SCT030 BKN060 FM070300 VRB04KT P6SM
                       SCT030 BKN070 FM071100 VRB03KT P6SM -RA
                       SCT015 OVC030=
201704060528 TAF KBLI 060528Z 0606/0706 06005KT P6SM VCSH SCT025 OVC050 FM061200
                       16010KT P6SM -RA SCT025 OVC050
                      TEMPO 0616/0619 5SM BR BKN025 FM061900 18008KT
                       P6SM VCSH SCT025 BKN050 FM062300 20006KT
                       P6SM SCT030 BKN060 FM070300 VRB04KT P6SM
                       SCT030 BKN070=
201704052320 TAF KBLI 052320Z 0600/0624 16010KT P6SM VCSH SCT025 OVC050
                      TEMPO 0600/0604 BKN025 OVC050 FM061000 16010KT
                       P6SM -RA SCT025 OVC050 FM061900 VRB04KT
                       P6SM VCSH SCT025 BKN050=
201704051720 TAF KBLI 051720Z 0518/0618 15010KT P6SM -RA SCT025 OVC060
                      TEMPO 0518/0522 5SM -RA BR BKN025 OVC050
                       FM060000 VRB04KT P6SM -SHRA BKN030 BKN060
                       FM060600 VRB04KT P6SM SCT030 OVC060 FM061200
                       14010KT P6SM -RA BKN025 OVC040=
201704051120 TAF KBLI 051120Z 0512/0612 15018G28KT P6SM SCT030 OVC050
                      TEMPO 0512/0516 -RA BKN030 OVC050 FM051600
                       15012KT P6SM -SHRA BKN030 BKN045 FM060000
                       16010KT P6SM -SHRA SCT030 BKN045 FM061100
                       15006KT P6SM -SHRA BKN030 OVC045=
201704050541 TAF KBLI 050541Z 0506/0606 15012G22KT P6SM -RA SCT030 OVC045 FM051200
                       15012KT P6SM -RA OVC030 FM051800 15010KT
                       P6SM -SHRA BKN030 BKN045 FM060000 16010KT
                       P6SM -SHRA SCT030 BKN045=
201704042320 TAF KBLI 042320Z 0500/0524 16012G22KT P6SM OVC050 FM050400 16015G25KT
                       P6SM -RA OVC040 FM051000 18010KT P6SM -RA
                       OVC020 FM051800 VRB04KT P6SM -SHRA BKN020
                       BKN040=
201704041720 TAF KBLI 041720Z 0418/0518 12006KT P6SM OVC080 FM042200 14010KT
                       P6SM OVC050 FM050400 17012G22KT P6SM -RA
                       OVC040 FM051000 18012KT P6SM -RA OVC020=
201704041120 TAF KBLI 041120Z 0412/0512 VRB03KT P6SM OVC150 FM041700 06007KT
                       P6SM OVC100 FM042200 14012KT P6SM OVC080
                       FM050400 14014G24KT P6SM -RA OVC050=
201704040520 TAF KBLI 040520Z 0406/0506 VRB03KT P6SM OVC250 FM041000 VRB03KT
                       P6SM OVC150 FM041700 06007KT P6SM OVC100
                       FM042200 14012KT P6SM OVC090 FM050400 14014G24KT
                       P6SM OVC070=
201704032320 TAF KBLI 032320Z 0400/0424 31007KT P6SM SCT250 FM040600 02004KT
                       P6SM BKN250 FM041000 00000KT P6SM OVC150
                       FM041700 12010KT P6SM OVC090 FM042300 16012KT
                       P6SM OVC050=
201704031720 TAF KBLI 031720Z 0318/0418 36006KT P6SM SCT040 FM040600 04005KT
                       P6SM BKN200 FM041600 12005KT P6SM OVC120=
201704031120 TAF KBLI 031120Z 0312/0412 VRB03KT P6SM SCT020 BKN040 FM031600
                       16006KT P6SM BKN035 FM031800 19008KT P6SM
                       FEW035 FM040200 VRB03KT P6SM SCT250 FM040800
                       12004KT P6SM BKN250=
201704030520 TAF KBLI 030520Z 0306/0406 VRB03KT P6SM SCT060 FM030900 VRB03KT
                       P6SM BKN040 FM031600 16006KT P6SM BKN035
                       FM031800 19008KT P6SM FEW035 FM040200 VRB03KT
                       P6SM SCT250=
201704022320 TAF KBLI 022320Z 0300/0324 18006KT P6SM BKN060 FM030400 20005KT
                       P6SM SCT060 FM030900 13005KT P6SM BKN030
                       FM031600 16006KT P6SM BKN035 FM031800 17008KT
                       P6SM FEW035=
201704021734 TAF KBLI 021734Z 0218/0318 18010KT P6SM SCT060 FM030400 17005KT
                       P6SM FEW060 FM030700 13005KT P6SM SCT020
                       FM031600 16006KT P6SM SCT030=
201704021120 TAF KBLI 021120Z 0212/0312 VRB04KT P6SM SCT040 BKN050 FM021400
                       17012KT P6SM SCT020 BKN030 OVC040 FM022000
                       19013G22KT P6SM SCT025 BKN060 FM030100 17007KT
                       P6SM SCT030 BKN060 FM030600 VRB03KT P6SM
                       SCT060 SCT250=
201704020525 TAF KBLI 020525Z 0206/0306 17009KT P6SM SCT035 BKN050 FM021100
                       17012KT P6SM SCT020 BKN030 OVC040 FM022000
                       19013G22KT P6SM SCT025 BKN060 FM030100 17007KT
                       P6SM SCT030 BKN060=
201704012336 TAF KBLI 012336Z 0200/0224 17009KT P6SM VCSH SCT018 BKN035
                      TEMPO 0203/0207 -SHRA BKN018 FM020800 19010G18KT
                       P6SM VCSH SCT015 BKN050 FM021300 18008KT
                       P6SM SCT012 BKN025 OVC040 FM022000 19009KT
                       P6SM SCT025 BKN060=
201704011737 TAF KBLI 011737Z 0118/0218 17011G18KT P6SM SCT018 BKN025 OVC035
                       FM012200 18009KT P6SM SCT025 BKN035 FM020800
                       19010G18KT P6SM VCSH SCT020 BKN030=
201704011511 KBLI 011511Z 0115/0212 16006KT 3SM -RA BR BKN015 OVC030 FM011700
                       17011G18KT P6SM VCSH SCT015 BKN025 OVC035
                       FM012100 18009KT P6SM SCT025 BKN035 FM020300
                       17012G21KT P6SM SCT020 OVC030=
201704011120 TAF KBLI 011120Z 0112/0212 16005KT P6SM -RA SCT020 BKN040 OVC050
                       FM011300 16010KT P6SM -RA SCT020 OVC030
                       FM011600 17011G18KT P6SM VCSH SCT015 BKN025
                       OVC035 FM012100 18009KT P6SM SCT025 BKN035
                       FM020300 17012G21KT P6SM SCT020 OVC030=
201704010520 TAF KBLI 010520Z 0106/0206 VRB03KT P6SM OVC060 FM011000 16005KT
                       P6SM -RA SCT020 OVC030 FM011300 16010KT
                       P6SM -RA BKN020 FM011600 17011G18KT P6SM
                       VCSH SCT015 BKN025 OVC035 FM012100 18009KT
                       P6SM SCT025 BKN035=