##########################################################
# Query made at 02/16/2025 21:35:03 UTC
# Time interval: from 03/01/2017 00:00  to 03/31/2017 23:59  UTC
##########################################################

##########################################################
# KBLI, Bellingham, Bellingham International Airport (United States)
# WMO index: -----. WIGOS ID: Unknown
# Latitude 48-47-58N. Longitude 122-32-21W. Altitude 48 m.
##########################################################

###################################
#  METAR/SPECI from KBLI
###################################
201703312353 METAR KBLI 312353Z 18005KT 10SM OVC070 12/04 A3030 RMK AO2 SLP267 T01170039 10122 20094 58022=
201703312253 METAR KBLI 312253Z VRB05KT 10SM BKN080 12/04 A3031 RMK AO2 SLP273 T01170044=
201703312153 METAR KBLI 312153Z VRB03KT 10SM BKN075 11/04 A3034 RMK AO2 SLP284 T01110044=
201703312053 METAR KBLI 312053Z 18004KT 10SM CLR 11/04 A3036 RMK AO2 SLP289 T01060044 58011=
201703311953 METAR KBLI 311953Z 17006KT 10SM BKN090 10/04 A3037 RMK AO2 SLP293 T01000044=
201703311853 METAR KBLI 311853Z VRB05KT 10SM FEW095 11/05 A3039 RMK AO2 SLP299 T01060050=
201703311753 METAR KBLI 311753Z 16005KT 10SM FEW050 FEW100 09/04 A3039 RMK AO2 SLP300 T00940044 10100 20028 51012=
201703311653 METAR KBLI 311653Z 16007KT 10SM SCT050 09/04 A3039 RMK AO2 SLP297 T00890044=
201703311553 METAR KBLI 311553Z 16007KT 10SM FEW024 SCT049 08/05 A3038 RMK AO2 SLP296 T00780050=
201703311453 METAR KBLI 311453Z 15008KT 10SM SCT050 07/05 A3036 RMK AO2 SLP289 T00720050 56001=
201703311353 METAR KBLI 311353Z 15008KT 10SM SCT016 OVC048 07/05 A3037 RMK AO2 SLP292 T00720050=
201703311344 SPECI KBLI 311344Z AUTO 15008KT 10SM BKN016 OVC048 07/05 A3037 RMK AO2 T00670050=
201703311253 METAR KBLI 311253Z AUTO 15004KT 10SM FEW050 05/04 A3035 RMK AO2 SLP285 T00500039=
201703311153 METAR KBLI 311153Z AUTO 00000KT 10SM SCT049 03/02 A3036 RMK AO2 SLP289 T00330022 10061 20022 50007=
201703311053 METAR KBLI 311053Z AUTO 00000KT 10SM CLR 03/02 A3037 RMK AO2 SLP291 T00330022=
201703310953 METAR KBLI 310953Z AUTO 00000KT 10SM CLR 02/02 A3035 RMK AO2 SLP287 T00220022=
201703310853 METAR KBLI 310853Z AUTO 00000KT 10SM CLR 05/03 A3034 RMK AO2 SLP283 T00500033 51007=
201703310753 METAR KBLI 310753Z AUTO 13004KT 10SM CLR 04/03 A3034 RMK AO2 SLP282 T00440028 401220033=
201703310653 METAR KBLI 310653Z AUTO 14003KT 10SM CLR 04/03 A3033 RMK AO2 SLP279 T00440028=
201703310553 METAR KBLI 310553Z AUTO 00000KT 10SM CLR 05/03 A3032 RMK AO2 SLP276 T00500033 10117 20044 51015=
201703310453 METAR KBLI 310453Z 15003KT 10SM CLR 07/04 A3031 RMK AO2 SLP272 T00670039=
201703310353 METAR KBLI 310353Z 17003KT 10SM CLR 07/04 A3029 RMK AO2 SLP267 T00720039=
201703310253 METAR KBLI 310253Z 19003KT 10SM CLR 08/05 A3028 RMK AO2 SLP261 T00830050 53009=
201703310153 METAR KBLI 310153Z 14005KT 10SM CLR 11/04 A3025 RMK AO2 SLP253 T01060044=
201703310053 METAR KBLI 310053Z 16004KT 10SM CLR 12/03 A3025 RMK AO2 SLP252 T01170028=
201703302353 METAR KBLI 302353Z 17006KT 10SM CLR 12/04 A3025 RMK AO2 SLP251 T01170039 10122 20078 51007=
201703302253 METAR KBLI 302253Z VRB05KT 10SM FEW041 12/04 A3024 RMK AO2 SLP249 T01170044=
201703302153 METAR KBLI 302153Z 31005KT 10SM FEW030 11/03 A3023 RMK AO2 SLP246 T01060033=
201703302053 METAR KBLI 302053Z 28005KT 10SM SCT030 10/04 A3023 RMK AO2 SLP243 T01000039 51017=
201703301953 METAR KBLI 301953Z 28006KT 10SM BKN026 BKN033 09/04 A3021 RMK AO2 SLP239 T00890044=
201703301853 METAR KBLI 301853Z 25007KT 10SM BKN023 OVC030 08/04 A3020 RMK AO2 SLP234 T00780044=
201703301753 METAR KBLI 301753Z 26003KT 10SM FEW026 BKN030 OVC037 08/04 A3017 RMK AO2 RAB1657E28 SLP226 P0000 60000 T00780039 10078 20050 51034=
201703301653 METAR KBLI 301653Z 00000KT 10SM BKN026 OVC032 08/05 A3015 RMK AO2 SLP217 T00780050=
201703301553 METAR KBLI 301553Z 19005KT 10SM FEW022 OVC038 07/06 A3011 RMK AO2 SLP204 T00720056=
201703301453 METAR KBLI 301453Z 17006KT 10SM SCT022 SCT034 OVC046 07/05 A3008 RMK AO2 SLP192 T00670050 53012=
201703301353 METAR KBLI 301353Z 18003KT 10SM FEW036 SCT050 BKN055 06/04 A3006 RMK AO2 SLP188 T00560044=
201703301253 METAR KBLI 301253Z AUTO 16003KT 10SM FEW029 BKN036 06/04 A3005 RMK AO2 SLP183 T00560044=
201703301153 METAR KBLI 301153Z AUTO 17003KT 10SM FEW030 SCT043 OVC050 06/05 A3004 RMK AO2 SLP180 60012 70039 T00560050 10083 20056 53009=
201703301053 METAR KBLI 301053Z AUTO 17004KT 10SM FEW095 06/05 A3002 RMK AO2 RAE11 SLP173 P0000 T00610050=
201703300953 METAR KBLI 300953Z AUTO 17003KT 10SM -RA FEW019 FEW037 OVC049 07/06 A3001 RMK AO2 SLP171 P0002 T00670056=
201703300948 SPECI KBLI 300948Z AUTO 16004KT 10SM -RA FEW020 FEW029 OVC049 07/06 A3001 RMK AO2 P0002=
201703300853 METAR KBLI 300853Z AUTO 16004KT 9SM -RA BKN021 OVC025 07/06 A3000 RMK AO2 SLP168 P0005 60010 T00670056 53017=
201703300753 METAR KBLI 300753Z AUTO 17003KT 4SM -RA BR OVC021 07/06 A2998 RMK AO2 RAB10 SLP160 P0005 T00720061 401280067=
201703300653 METAR KBLI 300653Z AUTO 18006KT 10SM BKN027 OVC039 08/05 A2996 RMK AO2 SLP153 T00830050=
201703300553 METAR KBLI 300553Z AUTO 18007KT 10SM OVC041 08/05 A2995 RMK AO2 SLP151 T00830050 10122 20078 51027=
201703300453 METAR KBLI 300453Z 16004KT 10SM OVC060 08/04 A2994 RMK AO2 SLP145 T00780044=
201703300353 METAR KBLI 300353Z 18007KT 160V220 10SM FEW060 SCT090 08/04 A2992 RMK AO2 SLP139 T00830044=
201703300253 METAR KBLI 300253Z 19007G15KT 150V230 10SM CLR 10/03 A2987 RMK AO2 SLP124 T01000033 51018=
201703300153 METAR KBLI 300153Z 23010G18KT 200V280 10SM FEW100 11/03 A2986 RMK AO2 SLP119 T01060033=
201703300053 METAR KBLI 300053Z 21009G16KT 180V260 10SM FEW060 BKN085 11/04 A2984 RMK AO2 SLP114 T01110044=
201703292353 METAR KBLI 292353Z 26010G17KT 10SM BKN100 12/05 A2982 RMK AO2 SLP105 60002 T01220050 10128 20106 51017=
201703292253 METAR KBLI 292253Z 17008KT 10SM OVC060 12/08 A2980 RMK AO2 RAE2156 SLP099 P0000 T01220083=
201703292153 METAR KBLI 292153Z 17007KT 9SM -RA SCT017 BKN045 OVC050 11/11 A2979 RMK AO2 SLP095 P0002 T01110106=
201703292113 SPECI KBLI 292113Z 17011G18KT 7SM -RA BKN014 11/10 A2978 RMK AO2 P0002 T01060100=
201703292053 METAR KBLI 292053Z 16013G19KT 7SM -RA BKN016 BKN039 OVC048 11/10 A2977 RMK AO2 RAE21B44 SLP088 P0000 60000 T01110100 53008=
201703291953 METAR KBLI 291953Z 16013G24KT 6SM -RA BR SCT017 BKN025 OVC050 11/09 A2975 RMK AO2 RAB21 SLP083 P0000 T01060094=
201703291853 METAR KBLI 291853Z 15014G24KT 8SM SCT018 BKN022 OVC048 11/09 A2974 RMK AO2 SLP079 T01060094=
201703291753 METAR KBLI 291753Z 15015G25KT 10SM OVC025 11/08 A2975 RMK AO2 SLP080 P0001 60025 T01060078 10106 20067 56032=
201703291653 METAR KBLI 291653Z 03006KT 10SM OVC026 08/07 A2976 RMK AO2 RAB00E51 SLP087 P0001 T00780072=
201703291553 METAR KBLI 291553Z 04005KT 8SM OVC028 07/07 A2980 RMK AO2 RAE52 SLP097 P0002 T00720067=
201703291453 METAR KBLI 291453Z 03005KT 2 1/2SM -RA BR FEW019 OVC028 07/06 A2984 RMK AO2 SLP113 P0007 60021 T00670061 58026=
201703291450 SPECI KBLI 291450Z 04005KT 2 1/2SM -RA BR OVC028 07/06 A2984 RMK AO2 P0007=
201703291353 METAR KBLI 291353Z 05008KT 6SM -RA BR OVC031 07/06 A2986 RMK AO2 SLP119 P0008 T00670061=
201703291253 METAR KBLI 291253Z AUTO 04007KT 6SM -RA BR OVC031 07/06 A2990 RMK AO2 SLP134 P0006 T00670061=
201703291232 SPECI KBLI 291232Z AUTO 06005KT 9SM -RA OVC031 07/06 A2991 RMK AO2 P0004 T00720061=
201703291214 SPECI KBLI 291214Z AUTO 08008KT 8SM -RA OVC029 07/06 A2992 RMK AO2 P0001 T00720056=
201703291153 METAR KBLI 291153Z AUTO 09007KT 10SM -RA OVC030 07/06 A2992 RMK AO2 SLP139 P0006 60033 70055 T00720056 10089 20072 58038=
201703291146 SPECI KBLI 291146Z AUTO 09011KT 10SM -RA OVC030 07/06 A2992 RMK AO2 P0006 T00720056=
201703291132 SPECI KBLI 291132Z AUTO 10010KT 8SM -RA OVC029 07/06 A2993 RMK AO2 P0005 T00720056=
201703291053 METAR KBLI 291053Z AUTO 12012G20KT 8SM -RA BKN033 OVC046 08/06 A2997 RMK AO2 SLP157 P0008 T00780056=
201703290953 METAR KBLI 290953Z AUTO 12013G23KT 9SM -RA BKN031 OVC043 08/06 A3001 RMK AO2 SLP170 P0006 T00830056=
201703290853 METAR KBLI 290853Z AUTO 13015KT 7SM -RA SCT033 OVC047 08/06 A3003 RMK AO2 PK WND 13027/0835 SLP178 P0005 60013 T00830061 58023=
201703290753 METAR KBLI 290753Z AUTO 13013G20KT 8SM -RA FEW034 FEW041 OVC050 09/07 A3006 RMK AO2 SLP187 P0004 T00890067 401000078=
201703290713 SPECI KBLI 290713Z AUTO 14012G18KT 7SM -RA BKN030 OVC047 09/07 A3007 RMK AO2 P0001 T00890067=
201703290653 METAR KBLI 290653Z AUTO 13011G19KT 7SM -RA OVC028 09/07 A3008 RMK AO2 SLP194 P0004 T00890067=
201703290553 METAR KBLI 290553Z AUTO 13009KT 6SM -RA BR OVC024 09/07 A3010 RMK AO2 SLP201 P0007 60015 T00890072 10100 20089 58003 TSNO=
201703290453 METAR KBLI 290453Z 15009KT 6SM -RA BR BKN019 OVC025 09/08 A3012 RMK AO2 SLP208 P0007 T00940078=
201703290353 METAR KBLI 290353Z 15009KT 10SM -RA OVC021 10/07 A3012 RMK AO2 RAB24 SLP208 P0000 T01000072=
201703290253 METAR KBLI 290253Z 14014KT 10SM OVC023 10/07 A3011 RMK AO2 RAE10 SLP204 P0000 60001 T01000067 58003=
201703290153 METAR KBLI 290153Z 14016G22KT 10SM -RA BKN024 OVC060 10/07 A3011 RMK AO2 RAE27B30 SLP205 P0001 T01000067=
201703290134 SPECI KBLI 290134Z 15015G21KT 10SM -RA BKN026 OVC065 10/07 A3011 RMK AO2 RAE27B30 P0001 T01000072=
201703290127 SPECI KBLI 290127Z 16012KT 10SM SCT026 OVC065 10/07 A3011 RMK AO2 RAE27 P0001 T01000067=
201703290053 METAR KBLI 290053Z 15013G21KT 10SM -RA OVC025 10/07 A3012 RMK AO2 RAB09 SLP207 P0000 T01000072=
201703282353 METAR KBLI 282353Z 15015G21KT 10SM BKN023 OVC060 10/07 A3012 RMK AO2 RAE20 SLP207 P0000 60006 T01000067 10100 20089 58007=
201703282253 METAR KBLI 282253Z 14010KT 10SM -RA OVC021 09/07 A3013 RMK AO2 SLP212 P0001 T00940072=
201703282153 METAR KBLI 282153Z 15014G22KT 10SM -RA BKN024 BKN028 OVC048 09/07 A3014 RMK AO2 SLP214 P0002 T00940067=
201703282053 METAR KBLI 282053Z 14012KT 10SM -RA SCT016 BKN024 OVC060 09/07 A3014 RMK AO2 PK WND 15026/2009 SLP215 P0001 60003 T00940072 58000=
201703281953 METAR KBLI 281953Z 14017G23KT 10SM -RA SCT023 BKN029 OVC050 09/07 A3015 RMK AO2 SLP217 P0002 T00940067=
201703281853 METAR KBLI 281853Z 14015G23KT 10SM -RA OVC021 09/06 A3014 RMK AO2 RAE06B52 SLP215 P0000 T00940061=
201703281753 METAR KBLI 281753Z 14015G20KT 10SM -RA OVC020 09/06 A3014 RMK AO2 PK WND 14032/1657 RAB31 SLP215 P0000 60001 T00890061 10089 20083 53006=
201703281653 METAR KBLI 281653Z 15020G28KT 10SM OVC021 09/06 A3012 RMK AO2 PK WND 14028/1604 SLP209 T00890056=
201703281553 METAR KBLI 281553Z 15018G26KT 10SM OVC022 08/05 A3012 RMK AO2 PK WND 13036/1533 SLP207 T00830050=
201703281500 SPECI KBLI 281500Z 15018G29KT 10SM BKN025 BKN050 OVC060 08/05 A3012 RMK AO2 PK WND 13029/1454 T00830050=
201703281453 METAR KBLI 281453Z 15020G27KT 10SM SCT025 OVC060 08/05 A3012 RMK AO2 PK WND 14027/1448 RAB03E13 SLP209 P0000 60001 T00830050 58003=
201703281353 METAR KBLI 281353Z 15016G24KT 10SM SCT025 SCT048 OVC060 08/05 A3013 RMK AO2 PK WND 13027/1327 RAB01E37B40E49 SLP212 P0000 T00830050=
201703281339 SPECI KBLI 281339Z 15018G26KT 10SM SCT023 BKN055 OVC070 08/05 A3013 RMK AO2 PK WND 13027/1327 RAB01E37 P0000 T00830050=
201703281253 METAR KBLI 281253Z AUTO 15018G27KT 10SM OVC023 08/05 A3015 RMK AO2 PK WND 14030/1211 RAE26 SLP216 P0001 T00830050=
201703281153 METAR KBLI 281153Z AUTO 15019G29KT 10SM -RA OVC022 08/05 A3013 RMK AO2 PK WND 14033/1109 RAB45 SLP212 P0000 60004 70009 T00830050 10083 20078 56011=
201703281053 METAR KBLI 281053Z AUTO 15017G30KT 10SM OVC022 08/05 A3014 RMK AO2 PK WND 13031/1012 SLP216 T00830050=
201703281017 SPECI KBLI 281017Z AUTO 15017G31KT 10SM BKN021 BKN048 OVC070 08/05 A3014 RMK AO2 PK WND 13031/1012 T00830050=
201703280953 METAR KBLI 280953Z AUTO 16017G27KT 10SM SCT021 BKN085 OVC100 08/05 A3014 RMK AO2 PK WND 16027/0947 SLP215 P0001 T00830050=
201703280921 SPECI KBLI 280921Z AUTO 15015G24KT 10SM SCT022 BKN060 OVC080 08/05 A3015 RMK AO2 P0001 T00780050=
201703280912 SPECI KBLI 280912Z AUTO 15015G23KT 10SM BKN022 BKN041 OVC060 08/05 A3016 RMK AO2 P0001 T00780050=
201703280853 METAR KBLI 280853Z AUTO 15015G21KT 10SM FEW020 BKN060 OVC075 08/06 A3017 RMK AO2 RAE18 SLP223 P0000 60003 T00780056 58006=
201703280805 SPECI KBLI 280805Z AUTO 15012G24KT 10SM -RA SCT025 SCT037 OVC050 08/06 A3018 RMK AO2 P0000 T00780061=
201703280753 METAR KBLI 280753Z AUTO 16011G22KT 10SM -RA BKN025 BKN036 OVC048 08/06 A3018 RMK AO2 SLP229 P0001 T00780061 401170078=
201703280653 METAR KBLI 280653Z AUTO 16010G19KT 10SM -RA OVC027 08/07 A3018 RMK AO2 SLP229 P0002 T00830067=
201703280553 METAR KBLI 280553Z AUTO 16008KT 9SM -RA BKN026 OVC033 08/07 A3018 RMK AO2 SLP229 P0002 60005 T00830067 10111 20083 51014=
201703280543 SPECI KBLI 280543Z AUTO 16008KT 9SM -RA BKN026 BKN033 OVC043 08/07 A3018 RMK AO2 P0002 T00830072=
201703280453 METAR KBLI 280453Z 17006KT 8SM -RA SCT024 OVC034 09/08 A3018 RMK AO2 SLP226 P0003 T00890078=
201703280353 METAR KBLI 280353Z 16009KT 10SM -RA OVC022 09/07 A3016 RMK AO2 RAB34 SLP220 P0000 T00940072=
201703280253 METAR KBLI 280253Z 16009G16KT 10SM OVC026 10/07 A3014 RMK AO2 SLP215 60000 T01000067 53009=
201703280212 SPECI KBLI 280212Z 17008G15KT 10SM BKN028 BKN033 OVC080 10/07 A3013 RMK AO2 T01000067=
201703280153 METAR KBLI 280153Z 17008KT 10SM SCT030 BKN037 OVC085 11/07 A3013 RMK AO2 SLP211 T01060067=
201703280053 METAR KBLI 280053Z 17007KT 10SM FEW032 OVC085 11/06 A3012 RMK AO2 RAB2358E13 SLP207 P0000 T01060061=
201703272353 METAR KBLI 272353Z 16006KT 10SM FEW019 BKN070 OVC090 11/07 A3011 RMK AO2 RAB2256E37 SLP206 P0000 60000 T01060067 10117 20089 50008=
201703272253 METAR KBLI 272253Z 16010KT 10SM OVC080 11/06 A3012 RMK AO2 SLP206 T01060061=
201703272153 METAR KBLI 272153Z 17009KT 10SM SCT024 OVC046 11/06 A3012 RMK AO2 SLP206 T01060061=
201703272100 SPECI KBLI 272100Z 18011G18KT 10SM SCT024 BKN035 11/06 A3009 RMK AO2 T01110061=
201703272053 METAR KBLI 272053Z 17013KT 10SM FEW024 BKN028 11/06 A3009 RMK AO2 SLP197 T01110061 52024=
201703271953 METAR KBLI 271953Z 16013G21KT 10SM FEW024 BKN028 11/06 A3006 RMK AO2 SLP186 T01110061=
201703271853 METAR KBLI 271853Z 17009G16KT 10SM BKN024 OVC030 09/06 A3005 RMK AO2 SLP184 T00940061=
201703271753 METAR KBLI 271753Z 16009G17KT 10SM OVC025 09/06 A3002 RMK AO2 SLP174 60000 T00890056 10094 20078 51027=
201703271653 METAR KBLI 271653Z 16011G19KT 10SM OVC025 09/06 A3000 RMK AO2 SLP166 T00890056=
201703271553 METAR KBLI 271553Z 15010KT 10SM OVC023 09/06 A2996 RMK AO2 SLP155 T00890056=
201703271453 METAR KBLI 271453Z 15009KT 10SM BKN024 OVC030 08/06 A2994 RMK AO2 SLP146 60000 T00830056 53018=
201703271353 METAR KBLI 271353Z 13010KT 10SM OVC023 08/06 A2992 RMK AO2 RAB1256E11 SLP139 P0000 T00830056=
201703271253 METAR KBLI 271253Z AUTO 13006KT 10SM OVC022 08/06 A2990 RMK AO2 RAB32E45 SLP134 P0000 T00830061=
201703271153 METAR KBLI 271153Z AUTO 13010KT 10SM BKN025 OVC030 08/06 A2989 RMK AO2 SLP128 60005 70038 T00780061 10089 20072 53009=
201703271145 SPECI KBLI 271145Z AUTO 13010KT 7SM SCT022 OVC030 08/07 A2988 RMK AO2 T00780067=
201703271053 METAR KBLI 271053Z AUTO 11006KT 10SM OVC019 08/06 A2987 RMK AO2 SLP121 T00780061=
201703270953 METAR KBLI 270953Z AUTO 14007KT 10SM OVC016 08/07 A2986 RMK AO2 RAE39 SLP118 P0001 T00780067=
201703270931 SPECI KBLI 270931Z AUTO 14008KT 8SM -RA OVC014 08/06 A2985 RMK AO2 P0001 T00780061=
201703270853 METAR KBLI 270853Z AUTO 14008KT 7SM -RA OVC016 08/06 A2984 RMK AO2 RAB26 SLP114 P0001 60004 T00830061 53021=
201703270753 METAR KBLI 270753Z AUTO 15004KT 10SM OVC018 08/07 A2982 RMK AO2 RAE14 SLP106 P0000 T00830067 401110050=
201703270653 METAR KBLI 270653Z AUTO 16005KT 10SM -RA OVC015 08/07 A2980 RMK AO2 RAB08 SLP099 P0003 T00830072=
201703270553 METAR KBLI 270553Z AUTO 30003KT 10SM OVC019 07/07 A2978 RMK AO2 RAE37 SLP093 P0001 60024 T00720072 10100 20072 53014=
201703270453 METAR KBLI 270453Z 09005KT 8SM -RA OVC020 08/07 A2977 RMK AO2 SLP088 P0007 T00780067=
201703270353 METAR KBLI 270353Z VRB03KT 10SM -RA OVC028 08/07 A2976 RMK AO2 SLP084 P0005 T00780072=
201703270253 METAR KBLI 270253Z 00000KT 7SM -RA SCT027 OVC034 07/07 A2974 RMK AO2 SLP080 P0009 60011 T00720072 53007=
201703270153 METAR KBLI 270153Z 00000KT 7SM -RA OVC033 08/06 A2973 RMK AO2 SLP076 P0002 T00830061=
201703270053 METAR KBLI 270053Z 15005KT 10SM -RA OVC037 09/06 A2973 RMK AO2 RAB33 SLP074 P0000 T00940056=
201703262353 METAR KBLI 262353Z 12011G21KT 10SM BKN036 BKN050 OVC060 10/04 A2972 RMK AO2 RAB34E43 SLP072 P0000 60002 T01000044 10111 20072 56008=
201703262253 METAR KBLI 262253Z 13011KT 10SM OVC040 11/05 A2972 RMK AO2 RAB04E24 SLP072 P0000 T01060050=
201703262153 METAR KBLI 262153Z 03005KT 10SM BKN046 OVC055 10/06 A2973 RMK AO2 RAB35E41 SLP074 P0000 T01000061=
201703262053 METAR KBLI 262053Z 04009KT 10SM SCT075 BKN095 09/06 A2974 RMK AO2 SLP080 60002 T00940056 56019=
201703261953 METAR KBLI 261953Z 03008KT 10SM FEW014 OVC045 08/06 A2976 RMK AO2 RAE25 SLP087 P0001 T00780056=
201703261949 SPECI KBLI 261949Z 03008KT 10SM FEW014 OVC045 08/06 A2976 RMK AO2 RAE25 P0001=
201703261853 METAR KBLI 261853Z 08004KT 10SM -RA BKN028 BKN046 OVC055 07/06 A2980 RMK AO2 SLP099 P0001 T00720056=
201703261753 METAR KBLI 261753Z 12010KT 6SM -RA BR OVC029 07/06 A2982 RMK AO2 SLP107 P0004 60007 T00720056 10078 20050 56002=
201703261653 METAR KBLI 261653Z 04005KT 10SM -RA OVC036 06/05 A2983 RMK AO2 SLP109 P0003 T00610050=
201703261553 METAR KBLI 261553Z 00000KT 7SM -RA BKN047 OVC065 06/04 A2982 RMK AO2 RAB45 SLP107 P0000 T00610039=
201703261453 METAR KBLI 261453Z 06004KT 10SM BKN065 OVC110 06/03 A2983 RMK AO2 SLP109 T00560033 56022=
201703261353 METAR KBLI 261353Z 04004KT 10SM SCT045 BKN055 OVC070 06/03 A2984 RMK AO2 SLP112 T00560033=
201703261253 METAR KBLI 261253Z AUTO 05004KT 10SM FEW042 BKN060 BKN070 06/03 A2986 RMK AO2 SLP119 T00560033=
201703261153 METAR KBLI 261153Z AUTO 04005KT 10SM OVC046 06/04 A2989 RMK AO2 SLP131 70001 T00560039 10072 20050 58030=
201703261053 METAR KBLI 261053Z AUTO 08004KT 10SM FEW046 FEW050 OVC065 06/03 A2993 RMK AO2 SLP142 T00560033=
201703260953 METAR KBLI 260953Z AUTO 05003KT 10SM OVC060 06/04 A2996 RMK AO2 SLP153 T00560039=
201703260853 METAR KBLI 260853Z AUTO 00000KT 10SM FEW034 06/04 A2998 RMK AO2 SLP161 T00560039 58013=
201703260753 METAR KBLI 260753Z AUTO 00000KT 10SM FEW030 OVC037 06/04 A3000 RMK AO2 SLP166 T00560044 401060056=
201703260653 METAR KBLI 260653Z AUTO 00000KT 10SM SCT043 BKN055 06/05 A3001 RMK AO2 SLP170 T00610050=
201703260553 METAR KBLI 260553Z AUTO 17003KT 10SM FEW030 SCT037 BKN055 07/05 A3002 RMK AO2 SLP173 60000 T00720050 10106 20072 56012=
201703260453 METAR KBLI 260453Z 16004KT 10SM BKN039 OVC055 07/04 A3003 RMK AO2 RAB23E40 SLP177 P0000 T00720044=
201703260353 METAR KBLI 260353Z 12007KT 10SM OVC050 08/04 A3004 RMK AO2 SLP181 T00780039=
201703260253 METAR KBLI 260253Z 13006KT 10SM BKN055 OVC070 08/04 A3005 RMK AO2 SLP185 T00830039 56006=
201703260153 METAR KBLI 260153Z 16005KT 10SM OVC060 09/02 A3006 RMK AO2 SLP188 T00890022=
201703260053 METAR KBLI 260053Z 17006KT 10SM FEW060 09/03 A3006 RMK AO2 SLP187 T00940028=
201703252353 METAR KBLI 252353Z 19004KT 10SM OVC065 10/02 A3007 RMK AO2 SLP191 60000 T01000022 10106 20072 56010=
201703252253 METAR KBLI 252253Z 15004KT 10SM BKN070 10/03 A3008 RMK AO2 SLP195 T01000028=
201703252153 METAR KBLI 252153Z VRB03KT 10SM SCT040 BKN050 BKN060 09/04 A3009 RMK AO2 RAB04E19 SLP198 P0000 T00940039=
201703252053 METAR KBLI 252053Z 21005KT 10SM SCT055 OVC070 09/04 A3010 RMK AO2 SLP202 60000 T00890039 50001=
201703251953 METAR KBLI 251953Z 15008KT 10SM FEW022 SCT033 BKN080 08/04 A3011 RMK AO2 SLP203 T00830039=
201703251940 SPECI KBLI 251940Z 18005KT 10SM SCT023 BKN033 OVC080 08/04 A3010 RMK AO2 T00830044=
201703251928 SPECI KBLI 251928Z 17006KT 10SM BKN025 OVC032 08/04 A3011 RMK AO2 T00780039=
201703251853 METAR KBLI 251853Z 15008KT 10SM OVC036 08/04 A3011 RMK AO2 RAE09 SLP203 P0000 T00780039=
201703251753 METAR KBLI 251753Z 18006KT 10SM -RA FEW015 BKN044 OVC055 07/05 A3010 RMK AO2 RAE00B30 SLP201 P0001 60001 T00720050 10083 20072 53013=
201703251653 METAR KBLI 251653Z 19006KT 10SM -RA SCT046 OVC060 08/05 A3008 RMK AO2 RAB41 SLP193 P0000 T00780050=
201703251553 METAR KBLI 251553Z 18005KT 10SM BKN070 BKN095 07/05 A3007 RMK AO2 RAE07 SLP189 P0000 T00720050=
201703251453 METAR KBLI 251453Z 18006KT 10SM -RA OVC065 07/04 A3006 RMK AO2 RAB47 SLP187 P0000 60000 T00720044 53019=
201703251353 METAR KBLI 251353Z AUTO 18007KT 10SM BKN075 OVC085 07/04 A3003 RMK AO2 SLP177 T00720044=
201703251253 METAR KBLI 251253Z AUTO 17006KT 10SM OVC065 07/06 A3001 RMK AO2 RAB12E25 SLP169 P0000 T00720056=
201703251153 METAR KBLI 251153Z AUTO 17007G15KT 10SM FEW016 SCT023 OVC055 07/06 A3000 RMK AO2 RAE47 SLP168 P0000 60000 70026 T00720061 10083 20072 53010=
201703251053 METAR KBLI 251053Z AUTO 16011G22KT 10SM -RA FEW020 BKN029 OVC036 08/06 A2999 RMK AO2 RAB30 SLP162 P0000 T00780056=
201703250953 METAR KBLI 250953Z 16015G25KT 10SM BKN025 BKN029 OVC080 08/04 A2998 RMK AO2 SLP159 T00830044=
201703250900 SPECI KBLI 250900Z 15013G22KT 10SM BKN028 OVC035 08/04 A2997 RMK AO2 T00830044=
201703250853 METAR KBLI 250853Z 15012KT 10SM BKN030 OVC035 08/04 A2997 RMK AO2 SLP157 60000 T00830044 51012=
201703250753 METAR KBLI 250753Z 15014G23KT 10SM BKN041 OVC048 08/04 A2997 RMK AO2 SLP155 T00830044 401220061=
201703250716 SPECI KBLI 250716Z 15011G20KT 10SM FEW025 OVC033 08/05 A2996 RMK AO2 T00830050=
201703250653 METAR KBLI 250653Z 16011KT 10SM OVC023 08/06 A2995 RMK AO2 RAB08E22 SLP150 P0000 T00830056=
201703250553 METAR KBLI 250553Z 15009KT 10SM BKN020 OVC024 08/07 A2994 RMK AO2 SLP146 60026 T00830067 10106 20078 51035=
201703250515 SPECI KBLI 250515Z 16007G14KT 10SM BKN018 BKN024 BKN034 08/07 A2992 RMK AO2 T00830067=
201703250453 METAR KBLI 250453Z 14006KT 10SM FEW036 SCT049 BKN110 08/07 A2991 RMK AO2 RAE27 SLP136 P0008 T00830072=
201703250425 SPECI KBLI 250425Z 17005KT 10SM -RA SCT036 SCT046 BKN120 08/06 A2988 RMK AO2 P0008 T00780061=
201703250416 SPECI KBLI 250416Z 18004KT 4SM -RA BKN021 OVC033 08/06 A2988 RMK AO2 P0008 T00830056=
201703250400 SPECI KBLI 250400Z 00000KT 2 1/2SM RA BR FEW013 BKN021 OVC033 08/08 A2988 RMK AO2 P0004 T00830078=
201703250353 METAR KBLI 250353Z 27005KT 2SM RA BR FEW013 SCT019 OVC033 08/08 A2988 RMK AO2 RAB08 SLP126 P0018 T00830078=
201703250330 SPECI KBLI 250330Z 16010G16KT 4SM RA BR FEW017 BKN024 OVC036 09/08 A2986 RMK AO2 RAB08 P0006 T00890078=
201703250253 METAR KBLI 250253Z 16012G17KT 10SM OVC048 10/06 A2984 RMK AO2 PK WND 14026/0159 SLP111 60000 T01000061 53017=
201703250153 METAR KBLI 250153Z 15014G23KT 10SM FEW021 BKN075 BKN110 10/06 A2982 RMK AO2 RAE13 SLP104 P0000 T01000061=
201703250137 SPECI KBLI 250137Z 15015KT 10SM FEW021 BKN029 BKN070 10/07 A2981 RMK AO2 RAE13 P0000 T01000072=
201703250053 METAR KBLI 250053Z 16012G21KT 10SM -RA FEW030 OVC060 11/07 A2980 RMK AO2 RAE2358B47 SLP100 P0000 T01060067=
201703242353 METAR KBLI 242353Z 15015G23KT 10SM -RA SCT031 OVC075 11/07 A2979 RMK AO2 RAB45 SLP093 P0000 60000 T01110067 10122 20106 53005=
201703242253 METAR KBLI 242253Z 16012KT 10SM OVC035 12/06 A2977 RMK AO2 RAB01E13 SLP090 P0000 T01170056=
201703242153 METAR KBLI 242153Z 17009G16KT 10SM BKN031 BKN038 OVC047 11/06 A2977 RMK AO2 SLP089 T01110061=
201703242053 METAR KBLI 242053Z 16013G23KT 10SM FEW034 BKN080 OVC090 12/06 A2977 RMK AO2 SLP088 T01170061 51005=
201703241953 METAR KBLI 241953Z 16012G18KT 10SM FEW028 OVC037 12/07 A2977 RMK AO2 PK WND 15026/1910 SLP087 T01170067=
201703241853 METAR KBLI 241853Z 16012G22KT 10SM OVC028 12/06 A2976 RMK AO2 SLP085 T01170056=
201703241800 SPECI KBLI 241800Z 15009KT 10SM OVC025 11/06 A2976 RMK AO2 T01060061=
201703241753 METAR KBLI 241753Z 15009KT 10SM SCT027 OVC033 11/06 A2976 RMK AO2 SLP084 T01060061 10106 20072 53004=
201703241653 METAR KBLI 241653Z 13008KT 10SM SCT027 OVC033 11/06 A2975 RMK AO2 SLP079 T01060061=
201703241553 METAR KBLI 241553Z 32004KT 10SM SCT027 OVC033 08/07 A2974 RMK AO2 SLP080 T00780067=
201703241453 METAR KBLI 241453Z 29004KT 10SM BKN031 07/06 A2974 RMK AO2 SLP080 T00720061 56003=
201703241353 METAR KBLI 241353Z 35004KT 10SM BKN035 BKN044 OVC050 07/06 A2974 RMK AO2 SLP080 T00720061=
201703241253 METAR KBLI 241253Z AUTO 05005KT 10SM OVC039 07/06 A2974 RMK AO2 SLP079 T00720056=
201703241153 METAR KBLI 241153Z AUTO 14007KT 090V170 10SM OVC043 10/05 A2975 RMK AO2 SLP082 60007 70014 T01000050 10100 20061 56023=
201703241053 METAR KBLI 241053Z AUTO 35005KT 10SM BKN042 OVC085 07/06 A2977 RMK AO2 SLP088 T00670061=
201703240953 METAR KBLI 240953Z AUTO 12009KT 10SM BKN035 OVC080 08/06 A2980 RMK AO2 RAE05 SLP098 P0000 T00830061=
201703240853 METAR KBLI 240853Z AUTO 04003KT 10SM -RA BKN037 OVC050 07/07 A2982 RMK AO2 SLP106 P0001 60007 T00720067 58011=
201703240753 METAR KBLI 240753Z AUTO 00000KT 10SM -RA FEW024 SCT037 OVC050 08/07 A2983 RMK AO2 SLP109 P0003 T00780067 401280067=
201703240653 METAR KBLI 240653Z AUTO 05004KT 10SM -RA FEW029 OVC036 08/07 A2984 RMK AO2 SLP113 P0003 T00780067=
201703240553 METAR KBLI 240553Z AUTO 12004KT 9SM -RA OVC042 08/06 A2985 RMK AO2 SLP117 P0004 60007 T00830061 10117 20083 58007=
201703240453 METAR KBLI 240453Z 12010KT 10SM -RA SCT046 BKN055 OVC070 09/06 A2987 RMK AO2 SLP121 P0001 T00890056=
201703240353 METAR KBLI 240353Z 12008KT 10SM -RA OVC043 09/06 A2987 RMK AO2 SLP124 P0002 T00890056=
201703240253 METAR KBLI 240253Z VRB05KT 10SM -RA BKN060 OVC075 12/03 A2987 RMK AO2 RAB06E32B49 SLP124 P0000 60000 T01170028 56016=
201703240153 METAR KBLI 240153Z 03005KT 10SM BKN065 OVC080 11/04 A2989 RMK AO2 SLP130 T01060039=
201703240053 METAR KBLI 240053Z 00000KT 10SM OVC100 11/04 A2990 RMK AO2 SLP131 T01060039=
201703232353 METAR KBLI 232353Z 17006KT 10SM FEW120 12/03 A2992 RMK AO2 SLP140 T01170033 10128 20100 56023=
201703232253 METAR KBLI 232253Z 17010G18KT 10SM CLR 12/03 A2994 RMK AO2 SLP146 T01220033=
201703232153 METAR KBLI 232153Z 18008KT 10SM FEW050 SCT120 12/03 A2996 RMK AO2 SLP154 T01170033=
201703232053 METAR KBLI 232053Z 16014G19KT 10SM SCT045 12/02 A2999 RMK AO2 SLP164 T01170022 58015=
201703231953 METAR KBLI 231953Z 14011KT 10SM BKN042 12/02 A3001 RMK AO2 SLP170 T01170022=
201703231853 METAR KBLI 231853Z 15013KT 10SM SCT040 SCT085 11/02 A3003 RMK AO2 SLP176 T01110022=
201703231753 METAR KBLI 231753Z 14013G19KT 10SM FEW034 BKN090 10/03 A3003 RMK AO2 SLP178 T01000028 10106 20072 58001=
201703231653 METAR KBLI 231653Z 14014G21KT 10SM FEW030 FEW080 SCT100 09/03 A3004 RMK AO2 PK WND 16026/1630 SLP180 T00890028=
201703231553 METAR KBLI 231553Z 15014G19KT 10SM FEW027 BKN080 08/03 A3004 RMK AO2 SLP182 T00830028=
201703231453 METAR KBLI 231453Z 15015G22KT 10SM SCT026 OVC080 07/03 A3004 RMK AO2 SLP180 T00720028 50002=
201703231353 METAR KBLI 231353Z 15012KT 10SM FEW028 BKN070 OVC090 07/03 A3004 RMK AO2 SLP181 T00720028=
201703231253 METAR KBLI 231253Z AUTO 16013G21KT 10SM FEW026 SCT065 BKN080 07/03 A3004 RMK AO2 SLP179 T00720028=
201703231227 SPECI KBLI 231227Z AUTO 15012KT 10SM SCT027 OVC090 07/03 A3003 RMK AO2 T00720028=
201703231153 METAR KBLI 231153Z AUTO 16014KT 10SM OVC027 07/03 A3003 RMK AO2 SLP177 70002 T00720028 10078 20067 53000=
201703231120 SPECI KBLI 231120Z AUTO 15013KT 10SM BKN026 BKN075 BKN100 07/03 A3003 RMK AO2 T00720028=
201703231053 METAR KBLI 231053Z AUTO 14014KT 10SM FEW027 BKN075 07/03 A3003 RMK AO2 SLP178 T00720028=
201703230953 METAR KBLI 230953Z AUTO 14013KT 10SM CLR 07/03 A3002 RMK AO2 SLP174 T00670033=
201703230853 METAR KBLI 230853Z AUTO 16010KT 10SM FEW037 SCT070 OVC090 07/04 A3003 RMK AO2 SLP176 T00720039 50004=
201703230753 METAR KBLI 230753Z AUTO 14008KT 10SM OVC095 07/04 A3004 RMK AO2 SLP179 T00670039 401280061=
201703230653 METAR KBLI 230653Z AUTO 14008KT 10SM BKN048 BKN060 OVC090 07/03 A3003 RMK AO2 SLP176 T00720033=
201703230553 METAR KBLI 230553Z AUTO 14007KT 10SM BKN075 07/02 A3002 RMK AO2 SLP173 60002 T00720022 10111 20072 51028=
201703230453 METAR KBLI 230453Z 15003KT 10SM OVC060 08/02 A3001 RMK AO2 SLP169 T00780022=
201703230353 METAR KBLI 230353Z VRB06KT 10SM OVC055 08/03 A2998 RMK AO2 SLP160 T00830028=
201703230253 METAR KBLI 230253Z VRB05KT 10SM OVC110 09/03 A2994 RMK AO2 SLP145 60002 T00890033 53040=
201703230153 METAR KBLI 230153Z 21011G17KT 10SM BKN100 10/06 A2989 RMK AO2 RAE0056 SLP130 P0000 T01000061=
201703230053 METAR KBLI 230053Z 00000KT 8SM -RA FEW026 BKN043 OVC090 09/08 A2986 RMK AO2 SLP118 P0002 T00890078=
201703222353 METAR KBLI 222353Z 16014G26KT 10SM -RA FEW045 BKN055 OVC065 11/07 A2982 RMK AO2 PK WND 15030/2256 RAB11 SLP105 P0000 60000 T01110067 10128 20111 53010=
201703222253 METAR KBLI 222253Z 17014G26KT 10SM SCT070 OVC090 12/06 A2980 RMK AO2 PK WND 15031/2217 SLP100 T01170061=
201703222153 METAR KBLI 222153Z 16018G30KT 10SM FEW035 BKN100 BKN120 12/06 A2978 RMK AO2 PK WND 15031/2138 SLP093 T01220056=
201703222058 SPECI KBLI 222058Z 16017G27KT 10SM SCT038 12/05 A2979 RMK AO2 PK WND 17027/2054 T01220050=
201703222053 METAR KBLI 222053Z 16017G27KT 10SM BKN038 13/05 A2979 RMK AO2 PK WND 15030/2001 SLP093 T01280050 51016=
201703221953 METAR KBLI 221953Z 17016G28KT 10SM FEW035 OVC100 12/05 A2978 RMK AO2 PK WND 15032/1915 SLP092 T01220050=
201703221853 METAR KBLI 221853Z 15020G27KT 10SM FEW075 OVC100 13/04 A2977 RMK AO2 PK WND 14031/1838 SLP086 T01280044=
201703221753 METAR KBLI 221753Z 15018G29KT 10SM FEW031 12/07 A2974 RMK AO2 PK WND 15033/1707 SLP078 60000 T01170067 10128 20067 51014=
201703221653 METAR KBLI 221653Z 15016G30KT 10SM SCT036 12/06 A2974 RMK AO2 PK WND 15033/1610 SLP076 T01220056=
201703221553 METAR KBLI 221553Z 15016G32KT 10SM FEW038 12/06 A2971 RMK AO2 PK WND 17032/1544 RAB02E11 SLP068 P0000 T01170056=
201703221453 METAR KBLI 221453Z 15019G33KT 10SM FEW038 12/06 A2970 RMK AO2 PK WND 15033/1445 SLP064 T01170056 53009=
201703221353 METAR KBLI 221353Z 15018G27KT 10SM FEW038 FEW047 11/06 A2967 RMK AO2 PK WND 14032/1339 WSHFT 1254 SLP055 T01110061=
201703221314 SPECI KBLI 221314Z AUTO 14016G22KT 10SM FEW038 SCT047 BKN110 12/06 A2967 RMK AO2 WSHFT 1254 T01170056=
201703221253 METAR KBLI 221253Z AUTO 12007KT 090V180 10SM SCT045 BKN050 BKN110 08/06 A2968 RMK AO2 SLP058 T00780061=
201703221153 METAR KBLI 221153Z AUTO 00000KT 10SM SCT055 BKN070 BKN085 07/06 A2967 RMK AO2 SLP055 60000 70011 T00670061 10083 20061 56008=
201703221053 METAR KBLI 221053Z AUTO 05005KT 10SM BKN100 BKN120 07/06 A2968 RMK AO2 SLP056 T00720061=
201703220953 METAR KBLI 220953Z AUTO 03006KT 10SM FEW050 SCT100 07/06 A2969 RMK AO2 SLP062 T00670061=
201703220853 METAR KBLI 220853Z AUTO 00000KT 10SM BKN070 OVC090 07/07 A2970 RMK AO2 RAB12E48 SLP065 P0000 60000 T00720067 50003=
201703220753 METAR KBLI 220753Z AUTO 00000KT 10SM FEW039 OVC080 08/07 A2971 RMK AO2 SLP067 T00780067 401390067=
201703220653 METAR KBLI 220653Z AUTO 35003KT 10SM BKN042 OVC050 08/07 A2970 RMK AO2 SLP066 T00830067=
201703220553 METAR KBLI 220553Z AUTO 35003KT 10SM OVC042 08/07 A2969 RMK AO2 SLP062 T00830067 10139 20072 56003=
201703220453 METAR KBLI 220453Z 12006KT 10SM BKN100 08/06 A2969 RMK AO2 SLP062 T00830061=
201703220353 METAR KBLI 220353Z 34005KT 10SM SCT041 OVC050 09/07 A2970 RMK AO2 SLP064 T00940067=
201703220253 METAR KBLI 220253Z 12006KT 10SM BKN042 BKN060 OVC090 13/07 A2970 RMK AO2 SLP064 T01280067 53002=
201703220153 METAR KBLI 220153Z 14014G17KT 10SM SCT038 BKN080 OVC095 13/07 A2969 RMK AO2 SLP060 T01330072=
201703220053 METAR KBLI 220053Z 14008KT 10SM BKN041 OVC100 14/07 A2969 RMK AO2 SLP059 T01390072=
201703212353 METAR KBLI 212353Z 14006KT 10SM OVC038 13/08 A2969 RMK AO2 SLP061 60001 T01330078 10133 20106 51001=
201703212253 METAR KBLI 212253Z 17003KT 10SM OVC037 12/08 A2969 RMK AO2 SLP061 T01220083=
201703212153 METAR KBLI 212153Z VRB03KT 10SM OVC043 12/08 A2970 RMK AO2 RAE31 SLP063 P0000 T01170078=
201703212053 METAR KBLI 212053Z 00000KT 10SM -RA SCT050 BKN070 OVC090 11/08 A2969 RMK AO2 RAB18 SLP061 P0001 60001 T01110078 55001=
201703211953 METAR KBLI 211953Z 02007KT 10SM SCT055 OVC100 12/06 A2966 RMK AO2 SLP049 T01220061=
201703211853 METAR KBLI 211853Z 03010KT 10SM SCT045 BKN110 12/07 A2967 RMK AO2 SLP053 T01220067=
201703211753 METAR KBLI 211753Z 36010KT 10SM BKN040 OVC100 11/07 A2969 RMK AO2 SLP062 60010 T01060067 10106 20067 56012=
201703211653 METAR KBLI 211653Z 02009KT 10SM SCT038 OVC060 08/07 A2970 RMK AO2 RAE11 SLP066 P0000 T00830067=
201703211553 METAR KBLI 211553Z 01006KT 10SM -RA SCT036 OVC060 07/06 A2972 RMK AO2 SLP070 P0001 T00720061=
201703211547 SPECI KBLI 211547Z 02007KT 10SM -RA SCT036 OVC060 07/06 A2972 RMK AO2 P0001=
201703211512 SPECI KBLI 211512Z 36005KT 10SM -RA SCT036 OVC060 07/07 A2972 RMK AO2 P0000 T00720067=
201703211453 METAR KBLI 211453Z 34003KT 7SM -RA OVC036 07/07 A2973 RMK AO2 SLP074 P0004 60009 T00670067 58003=
201703211353 METAR KBLI 211353Z 04004KT 10SM -RA SCT045 OVC060 07/07 A2973 RMK AO2 SLP077 P0003 T00670067=
201703211253 METAR KBLI 211253Z AUTO 00000KT 10SM -RA BKN050 OVC060 07/06 A2975 RMK AO2 RAB1158 SLP080 P0002 T00720061=
201703211153 METAR KBLI 211153Z AUTO 08003KT 10SM OVC060 09/03 A2974 RMK AO2 SLP076 60000 70008 T00890028 10094 20078 56020=
201703211053 METAR KBLI 211053Z AUTO 03007KT 10SM FEW060 BKN085 09/03 A2974 RMK AO2 SLP077 T00890028=
201703210953 METAR KBLI 210953Z AUTO 03009KT 10SM OVC065 09/03 A2977 RMK AO2 SLP088 T00890033=
201703210853 METAR KBLI 210853Z AUTO 03010KT 10SM BKN055 BKN080 OVC100 09/03 A2980 RMK AO2 SLP097 60000 T00890033 56031=
201703210753 METAR KBLI 210753Z AUTO 02007KT 10SM BKN070 BKN090 08/05 A2983 RMK AO2 SLP107 T00830050 401280028=
201703210653 METAR KBLI 210653Z AUTO 04006KT 10SM OVC050 08/05 A2985 RMK AO2 RAE06 SLP116 P0000 T00830050=
201703210553 METAR KBLI 210553Z AUTO 05004KT 10SM -RA BKN048 OVC075 08/05 A2989 RMK AO2 SLP129 P0000 60003 T00830050 10128 20072 58012=
201703210453 METAR KBLI 210453Z 01005KT 10SM -RA BKN050 OVC060 08/06 A2990 RMK AO2 SLP135 P0000 T00780061=
201703210353 METAR KBLI 210353Z 36003KT 10SM -RA SCT065 OVC080 08/06 A2992 RMK AO2 SLP139 P0001 T00780061=
201703210253 METAR KBLI 210253Z 00000KT 10SM -RA OVC048 08/06 A2992 RMK AO2 SLP141 P0002 60002 T00830061 53007=
201703210153 METAR KBLI 210153Z 27003KT 7SM -RA BKN044 OVC050 09/04 A2992 RMK AO2 RAB25 SLP139 P0000 T00940039=
201703210053 METAR KBLI 210053Z 02008KT 10SM OVC085 12/M03 A2989 RMK AO2 SLP128 T01221033=
201703202353 METAR KBLI 202353Z 02011G20KT 10SM BKN090 BKN110 13/M03 A2990 RMK AO2 SLP134 60005 T01281033 10128 20089 56024=
201703202253 METAR KBLI 202253Z 04015G21KT 10SM BKN085 13/M03 A2992 RMK AO2 SLP140 T01281033=
201703202153 METAR KBLI 202153Z 02012G21KT 10SM CLR 13/M04 A2994 RMK AO2 PK WND 01027/2110 SLP146 T01281039=
201703202053 METAR KBLI 202053Z 03013G23KT 10SM CLR 13/M03 A2997 RMK AO2 SLP158 60005 T01281033 58021=
201703201953 METAR KBLI 201953Z 03015G23KT 10SM CLR 12/M04 A3000 RMK AO2 SLP168 T01221039=
201703201853 METAR KBLI 201853Z 04014G23KT CLR 11/M04 A3003 RMK AO2 RAE03 SLP178 P0005 T01061044 $=
201703201753 METAR KBLI 201753Z 04014G21KT -RA SCT120 09/M04 A3004 RMK AO2 RAB35 SLP179 P0000 60000 T00891044 10089 20033 58013 $=
201703201653 METAR KBLI 201653Z 03014G20KT 10SM CLR 08/M04 A3006 RMK AO2 SLP186 T00831044 $=
201703201553 METAR KBLI 201553Z 04011KT 10SM CLR 07/M04 A3007 RMK AO2 SLP190 T00721039=
201703201453 METAR KBLI 201453Z 02013G18KT 10SM CLR 06/M04 A3007 RMK AO2 SLP193 T00561039 58017=
201703201353 METAR KBLI 201353Z 02007KT 10SM CLR 04/M03 A3009 RMK AO2 SLP199 T00391028=
201703201253 METAR KBLI 201253Z AUTO 02008KT 10SM CLR 04/M03 A3011 RMK AO2 SLP206 T00391028=
201703201153 METAR KBLI 201153Z AUTO 03008G16KT 10SM CLR 04/M02 A3012 RMK AO2 SLP209 70001 T00391022 10044 20028 55016=
201703201053 METAR KBLI 201053Z AUTO 02010G16KT 10SM CLR 04/M02 A3012 RMK AO2 SLP209 T00391017=
201703200953 METAR KBLI 200953Z AUTO 01008KT 10SM CLR 03/M01 A3015 RMK AO2 SLP218 T00331011=
201703200853 METAR KBLI 200853Z AUTO 02008KT 10SM CLR 03/M01 A3017 RMK AO2 SLP225 T00331006 56016=
201703200753 METAR KBLI 200753Z AUTO 01008KT 10SM CLR 03/00 A3019 RMK AO2 SLP230 T00330000 401110022=
201703200653 METAR KBLI 200653Z AUTO 01007KT 10SM CLR 03/00 A3020 RMK AO2 SLP237 T00280000=
201703200553 METAR KBLI 200553Z AUTO 36007KT 10SM CLR 03/00 A3022 RMK AO2 SLP242 T00280000 10106 20022 58008=
201703200453 METAR KBLI 200453Z 32004KT 10SM CLR 03/00 A3023 RMK AO2 SLP247 T00330000=
201703200353 METAR KBLI 200353Z 32004KT 10SM CLR 05/M01 A3024 RMK AO2 SLP248 T00501006=
201703200253 METAR KBLI 200253Z 31004KT 10SM CLR 06/01 A3025 RMK AO2 SLP251 T00560006 56008=
201703200153 METAR KBLI 200153Z 34005KT 10SM CLR 08/M02 A3025 RMK AO2 SLP252 T00781017=
201703200053 METAR KBLI 200053Z 01009KT 10SM FEW044 10/M01 A3026 RMK AO2 SLP254 T01001006=
201703192353 METAR KBLI 192353Z 33006KT 10SM FEW039 10/M01 A3027 RMK AO2 SLP258 T01001006 10111 20061 56018=
201703192253 METAR KBLI 192253Z 33008KT 10SM FEW049 09/01 A3029 RMK AO2 SLP264 T00890006=
201703192153 METAR KBLI 192153Z VRB05KT 10SM SCT046 10/00 A3030 RMK AO2 SLP268 T01000000=
201703192053 METAR KBLI 192053Z 36004KT 10SM OVC060 08/00 A3032 RMK AO2 SLP276 T00830000 58002=
201703191953 METAR KBLI 191953Z 00000KT 10SM FEW070 08/01 A3033 RMK AO2 SLP278 T00830006=
201703191853 METAR KBLI 191853Z 00000KT 10SM CLR 07/02 A3033 RMK AO2 SLP280 T00720022=
201703191753 METAR KBLI 191753Z 15007KT 120V190 10SM BKN055 07/02 A3033 RMK AO2 SLP279 60001 T00670022 10067 20028 53013=
201703191653 METAR KBLI 191653Z 16003KT 10SM FEW050 05/03 A3031 RMK AO2 RAE02 SLP274 P0000 T00500028=
201703191553 METAR KBLI 191553Z 15004KT 4SM -RA BR BKN047 OVC060 04/03 A3030 RMK AO2 RAB30 SLP270 P0001 T00390028=
201703191453 METAR KBLI 191453Z 13007KT 10SM OVC060 03/02 A3029 RMK AO2 SLP266 T00330017 51019=
201703191353 METAR KBLI 191353Z 16004KT 10SM FEW033 BKN060 BKN100 03/02 A3027 RMK AO2 SLP260 T00280017=
201703191253 METAR KBLI 191253Z AUTO 15007KT 10SM FEW027 BKN042 BKN070 04/02 A3025 RMK AO2 SLP253 T00390022=
201703191153 METAR KBLI 191153Z AUTO 16004KT 10SM FEW030 BKN037 OVC055 04/02 A3023 RMK AO2 RAE1058 SLP246 P0000 60000 70017 T00390017 10050 20022 51016=
201703191053 METAR KBLI 191053Z AUTO 17004KT 10SM -RA FEW039 BKN050 OVC110 04/02 A3022 RMK AO2 RAB43 SLP241 P0000 T00440022=
201703190953 METAR KBLI 190953Z AUTO 17006KT 10SM BKN060 BKN080 04/02 A3021 RMK AO2 SLP237 T00440022=
201703190853 METAR KBLI 190853Z AUTO 16007KT 10SM FEW040 BKN065 OVC080 05/01 A3019 RMK AO2 SLP230 T00500011 53014=
201703190753 METAR KBLI 190753Z AUTO 18003KT 10SM BKN080 OVC090 04/M01 A3017 RMK AO2 SLP224 T00441011 401000022=
201703190653 METAR KBLI 190653Z AUTO 19003KT 10SM CLR 03/M02 A3015 RMK AO2 SLP220 T00281017=
201703190553 METAR KBLI 190553Z AUTO VRB03KT 10SM FEW065 04/M02 A3014 RMK AO2 SLP215 T00441022 10094 20044 52027=
201703190453 METAR KBLI 190453Z 19005KT 10SM CLR 06/M03 A3011 RMK AO2 SLP206 T00611033=
201703190353 METAR KBLI 190353Z VRB04KT 10SM CLR 06/M02 A3009 RMK AO2 SLP197 T00561017=
201703190253 METAR KBLI 190253Z 19003KT 10SM CLR 06/M01 A3006 RMK AO2 SLP188 T00611006 51031=
201703190153 METAR KBLI 190153Z VRB05KT 10SM FEW080 08/M02 A3004 RMK AO2 SLP179 T00831017=
201703190053 METAR KBLI 190053Z 20004KT 10SM FEW065 08/01 A3000 RMK AO2 SLP167 T00830011=
201703182353 METAR KBLI 182353Z 15007KT 10SM CLR 09/02 A2997 RMK AO2 SLP157 60001 T00890022 10089 20072 51038=
201703182253 METAR KBLI 182253Z 15006KT 10SM FEW031 BKN100 09/03 A2993 RMK AO2 SLP144 T00890033=
201703182153 METAR KBLI 182153Z VRB05KT 10SM OVC095 07/03 A2990 RMK AO2 SLP132 T00720028=
201703182053 METAR KBLI 182053Z VRB05KT 10SM FEW037 SCT050 OVC070 07/04 A2986 RMK AO2 PRESRR SLP118 60001 T00720039 53041=
201703181953 METAR KBLI 181953Z 21005KT 10SM FEW019 BKN046 OVC055 08/05 A2981 RMK AO2 RAB13E39 SLP102 P0000 T00780050=
201703181853 METAR KBLI 181853Z 17007KT 10SM BKN022 OVC027 07/06 A2977 RMK AO2 RAE38 SLP088 P0001 T00720061=
201703181840 SPECI KBLI 181840Z 17006KT 10SM BKN025 BKN034 OVC045 07/07 A2976 RMK AO2 RAE38 P0001 T00720067=
201703181806 SPECI KBLI 181806Z 17005KT 10SM -RA SCT004 BKN044 OVC055 07/07 A2974 RMK AO2 P0001 T00720067=
201703181800 SPECI KBLI 181800Z 17005KT 10SM -RA BKN004 BKN011 OVC040 07/07 A2974 RMK AO2 P0000 T00720067=
201703181753 METAR KBLI 181753Z 18006KT 10SM -RA SCT008 SCT048 OVC055 07/07 A2974 RMK AO2 RAB06 SLP077 P0002 60016 T00720067 10100 20061 53033=
201703181653 METAR KBLI 181653Z 00000KT 10SM FEW006 SCT014 OVC055 07/06 A2970 RMK AO2 SLP064 T00670061=
201703181618 SPECI KBLI 181618Z 17003KT 10SM FEW006 SCT014 BKN046 07/06 A2967 RMK AO2 T00670061=
201703181553 METAR KBLI 181553Z 00000KT 10SM SCT006 BKN014 BKN075 07/06 A2965 RMK AO2 RAE49 SLP047 P0002 T00670061=
201703181453 METAR KBLI 181453Z 00000KT 6SM -RA BR OVC008 06/06 A2964 RMK AO2 SLP045 P0005 60012 T00610061 53018=
201703181353 METAR KBLI 181353Z VRB03KT 5SM -RA BR OVC005 06/06 A2962 RMK AO2 SLP039 P0002 T00610056=
201703181325 SPECI KBLI 181325Z AUTO 25004KT 10SM -RA BKN006 OVC012 06/06 A2960 RMK AO2 P0000 T00610061=
201703181253 METAR KBLI 181253Z AUTO 21003KT 10SM -RA FEW003 BKN014 OVC039 06/06 A2958 RMK AO2 SLP026 P0005 T00610061=
201703181250 SPECI KBLI 181250Z AUTO 00000KT 10SM -RA SCT003 BKN014 OVC039 06/06 A2959 RMK AO2 P0005=
201703181219 SPECI KBLI 181219Z AUTO 27007KT 240V300 5SM -RA BR BKN003 OVC010 07/07 A2957 RMK AO2 CIG 002V006 P0004 T00670067=
201703181211 SPECI KBLI 181211Z AUTO 28007G17KT 4SM -RA BR BKN005 OVC010 07/07 A2957 RMK AO2 CIG 002V008 P0003 T00720072=
201703181204 SPECI KBLI 181204Z AUTO 26008KT 220V280 4SM RA BR SCT005 OVC010 08/08 A2957 RMK AO2 PRESRR P0002 T00830078=
201703181153 METAR KBLI 181153Z AUTO 20007G16KT 160V250 5SM -RA BR OVC013 10/09 A2955 RMK AO2 RAB11 SLP013 P0004 60008 70051 T01000094 10100 20056 53008=
201703181151 SPECI KBLI 181151Z AUTO VRB05G16KT 5SM -RA BR OVC013 10/09 A2955 RMK AO2 RAB11 P0003=
201703181120 SPECI KBLI 181120Z AUTO 00000KT 10SM -RA SCT007 OVC019 07/07 A2952 RMK AO2 RAB11 P0000 T00670067=
201703181053 METAR KBLI 181053Z AUTO 32004KT 10SM BKN008 OVC021 06/06 A2952 RMK AO2 RAB18E37 CIG 006V011 SLP003 P0000 T00560056=
201703181040 SPECI KBLI 181040Z AUTO 31005KT 10SM BKN008 BKN011 OVC021 06/06 A2952 RMK AO2 RAB18E37 P0000 T00560056=
201703181023 SPECI KBLI 181023Z AUTO 30004KT 10SM -RA SCT008 BKN014 OVC021 06/06 A2952 RMK AO2 RAB18 P0000 T00560056=
201703181007 SPECI KBLI 181007Z AUTO 36005KT 10SM SCT010 BKN018 OVC024 06/06 A2953 RMK AO2 T00560056=
201703180953 METAR KBLI 180953Z AUTO 33005KT 10SM BKN009 OVC018 06/06 A2952 RMK AO2 RAB22E43 CIG 008V013 SLP004 P0000 T00560056=
201703180935 SPECI KBLI 180935Z AUTO 36004KT 10SM -RA BKN009 OVC018 06/06 A2953 RMK AO2 RAB22 CIG 008V014 P0000 T00560056=
201703180853 METAR KBLI 180853Z AUTO 34006KT 10SM BKN016 OVC021 06/06 A2955 RMK AO2 RAE08B21E34 SLP015 P0000 60004 T00560056 58041=
201703180846 SPECI KBLI 180846Z AUTO 34007KT 10SM OVC016 06/06 A2956 RMK AO2 RAE08B21E34 P0000 T00560056=
201703180811 SPECI KBLI 180811Z AUTO 36006KT 10SM FEW004 OVC014 06/05 A2959 RMK AO2 RAE08 P0000 T00560050=
201703180753 METAR KBLI 180753Z AUTO 35007KT 10SM -RA FEW004 OVC015 06/05 A2961 RMK AO2 SLP033 P0001 T00560050 401060017=
201703180733 SPECI KBLI 180733Z AUTO 36004KT 9SM -RA FEW004 OVC017 06/06 A2962 RMK AO2 P0001 T00560056=
201703180653 METAR KBLI 180653Z AUTO 02006KT 6SM -RA BR OVC019 06/05 A2964 RMK AO2 SLP045 P0003 T00560050=
201703180553 METAR KBLI 180553Z AUTO 02006KT 8SM -RA OVC029 06/05 A2968 RMK AO2 SLP057 P0003 60035 T00560050 10067 20050 56038=
201703180531 SPECI KBLI 180531Z AUTO 02008KT 7SM -RA OVC030 06/05 A2969 RMK AO2 P0002 T00560050=
201703180453 METAR KBLI 180453Z 02005KT 4SM -RA BR BKN024 OVC036 06/05 A2971 RMK AO2 SLP070 P0008 T00560050=
201703180353 METAR KBLI 180353Z 02009KT 4SM -RA BR FEW019 BKN027 OVC036 05/04 A2974 RMK AO2 SLP081 P0004 T00500044=
201703180325 SPECI KBLI 180325Z 02008KT 5SM -RA BR FEW017 BKN029 OVC037 05/04 A2977 RMK AO2 P0002 T00500044=
201703180253 METAR KBLI 180253Z 02008KT 6SM -RA BR SCT019 SCT024 OVC031 05/04 A2979 RMK AO2 SLP096 P0004 60020 T00500044 58021=
201703180153 METAR KBLI 180153Z 02006KT 3SM -RA BR BKN018 OVC026 06/04 A2982 RMK AO2 SLP107 P0009 T00560044=
201703180150 SPECI KBLI 180150Z 02006KT 2 1/2SM -RA BR BKN018 OVC026 06/04 A2982 RMK AO2 P0008=
201703180117 SPECI KBLI 180117Z 03009KT 3SM RA BR FEW008 BKN019 OVC026 06/06 A2984 RMK AO2 P0003 T00610056=
201703180110 SPECI KBLI 180110Z 04005KT 4SM -RA BR FEW008 BKN013 OVC027 07/06 A2984 RMK AO2 P0002 T00670061=
201703180059 SPECI KBLI 180059Z 03003KT 6SM -RA BR FEW008 BKN028 OVC032 07/06 A2985 RMK AO2 P0001 T00670061=
201703180053 METAR KBLI 180053Z 00000KT 6SM -RA BR BKN030 OVC037 07/06 A2985 RMK AO2 SLP117 P0007 T00670061=
201703172353 METAR KBLI 172353Z 00000KT 6SM -RA BR FEW025 OVC034 07/06 A2987 RMK AO2 SLP125 P0006 60008 T00670056 10106 20067 58021=
201703172253 METAR KBLI 172253Z 11007KT 6SM -RA OVC032 07/04 A2990 RMK AO2 SLP134 P0002 T00720044=
201703172153 METAR KBLI 172153Z 16009G18KT 10SM -RA BKN040 OVC048 09/03 A2992 RMK AO2 RAB22 SLP139 P0000 T00890028=
201703172053 METAR KBLI 172053Z 14003KT 10SM OVC060 09/01 A2993 RMK AO2 SLP144 T00940011 56013=
201703172011 SPECI KBLI 172011Z 17006KT 10SM FEW060 BKN080 OVC100 08/01 A2996 RMK AO2 T00830011=
201703171953 METAR KBLI 171953Z 03004KT 10SM BKN100 09/01 A2994 RMK AO2 SLP147 T00940006=
201703171853 METAR KBLI 171853Z 02005KT 10SM BKN120 09/01 A2995 RMK AO2 SLP150 T00890011=
201703171753 METAR KBLI 171753Z 03005KT 10SM BKN110 08/01 A2997 RMK AO2 SLP157 T00780011 10078 20022 58030=
201703171653 METAR KBLI 171653Z 03004KT 10SM BKN120 06/02 A3000 RMK AO2 SLP168 T00560017=
201703171553 METAR KBLI 171553Z 01003KT 10SM CLR 04/01 A3003 RMK AO2 SLP178 T00390011=
201703171453 METAR KBLI 171453Z 03005KT 10SM CLR 03/01 A3006 RMK AO2 SLP187 T00330006 58021=
201703171353 METAR KBLI 171353Z 01005KT 10SM CLR 03/01 A3008 RMK AO2 SLP194 T00280006=
201703171253 METAR KBLI 171253Z AUTO 34005KT 10SM CLR 02/01 A3011 RMK AO2 SLP205 T00220011=
201703171153 METAR KBLI 171153Z AUTO 03007KT 10SM CLR 03/02 A3012 RMK AO2 SLP209 T00280017 10089 20017 56025=
201703171053 METAR KBLI 171053Z AUTO 03006KT 10SM CLR 02/02 A3015 RMK AO2 SLP217 T00220017=
201703170953 METAR KBLI 170953Z AUTO 00000KT 10SM CLR 03/01 A3017 RMK AO2 SLP225 T00280011=
201703170853 METAR KBLI 170853Z AUTO 09007KT 10SM CLR 06/01 A3020 RMK AO2 SLP234 T00560006 58003=
201703170753 METAR KBLI 170753Z AUTO 12005KT 10SM CLR 07/01 A3021 RMK AO2 SLP238 T00720006 401110050=
201703170653 METAR KBLI 170653Z AUTO 14012KT 10SM CLR 08/00 A3021 RMK AO2 SLP239 T00830000=
201703170553 METAR KBLI 170553Z AUTO 14011KT 10SM CLR 08/01 A3021 RMK AO2 SLP237 T00830006 10106 20083 58001=
201703170453 METAR KBLI 170453Z 15009KT 10SM CLR 08/01 A3021 RMK AO2 SLP239 T00830006=
201703170353 METAR KBLI 170353Z 16007KT 10SM CLR 08/01 A3021 RMK AO2 SLP238 T00830011=
201703170253 METAR KBLI 170253Z 16011KT 10SM CLR 09/01 A3021 RMK AO2 SLP238 T00940011 55004=
201703170153 METAR KBLI 170153Z 16009KT 10SM FEW055 10/01 A3020 RMK AO2 SLP235 T01000011=
201703170053 METAR KBLI 170053Z 15011KT 10SM FEW049 OVC075 11/02 A3021 RMK AO2 SLP239 T01060022=
201703162353 METAR KBLI 162353Z 17014G20KT 10SM OVC080 11/02 A3022 RMK AO2 SLP242 T01060017 10111 20072 55007=
201703162253 METAR KBLI 162253Z 16011G18KT 10SM OVC085 11/02 A3022 RMK AO2 SLP241 T01060022=
201703162153 METAR KBLI 162153Z 18011G19KT 10SM FEW038 OVC090 11/03 A3023 RMK AO2 SLP244 T01110033=
201703162053 METAR KBLI 162053Z 16011G19KT 10SM OVC085 09/03 A3024 RMK AO2 SLP249 T00940028 51003=
201703161953 METAR KBLI 161953Z 15013G23KT 10SM SCT080 SCT110 09/02 A3024 RMK AO2 SLP249 T00940022=
201703161853 METAR KBLI 161853Z 16015G20KT 10SM FEW075 SCT095 09/02 A3024 RMK AO2 SLP248 T00890022=
201703161753 METAR KBLI 161753Z 17015G21KT 10SM OVC100 07/03 A3023 RMK AO2 SLP246 T00720028 10072 20050 51019=
201703161653 METAR KBLI 161653Z 16012KT 10SM SCT110 07/02 A3022 RMK AO2 SLP242 T00670022=
201703161553 METAR KBLI 161553Z 16006KT 10SM SCT046 06/02 A3020 RMK AO2 SLP236 T00610022=
201703161453 METAR KBLI 161453Z 17011G16KT 10SM SCT090 06/02 A3018 RMK AO2 SLP227 T00560017 51024=
201703161353 METAR KBLI 161353Z VRB05KT 10SM FEW040 SCT100 06/02 A3017 RMK AO2 SLP223 T00610017=
201703161253 METAR KBLI 161253Z AUTO 13006KT 10SM CLR 05/01 A3014 RMK AO2 SLP215 T00500011=
201703161153 METAR KBLI 161153Z AUTO VRB05KT 10SM CLR 06/01 A3010 RMK AO2 SLP202 70020 T00610011 10089 20061 51040=
201703161053 METAR KBLI 161053Z AUTO 20005KT 10SM CLR 07/02 A3006 RMK AO2 SLP188 T00670022=
201703160953 METAR KBLI 160953Z AUTO 16006KT 10SM FEW080 OVC095 07/04 A3003 RMK AO2 SLP178 T00720039=
201703160853 METAR KBLI 160853Z AUTO 17008KT 10SM OVC085 08/05 A2999 RMK AO2 SLP162 T00780050 51042=
201703160753 METAR KBLI 160753Z AUTO 17009KT 10SM FEW080 OVC095 08/05 A2995 RMK AO2 SLP150 T00780050 401110078=
201703160653 METAR KBLI 160653Z AUTO 16013G19KT 10SM OVC075 09/06 A2990 RMK AO2 SLP134 T00890061=
201703160610 SPECI KBLI 160610Z AUTO 18009G21KT 10SM FEW017 BKN080 OVC100 09/07 A2988 RMK AO2 T00890072=
201703160558 SPECI KBLI 160558Z AUTO 18009G24KT 10SM VCTS FEW014 BKN034 OVC090 09/08 A2987 RMK AO2 LTG DSNT N T00940078=
201703160550 METAR KBLI 160550Z AUTO 18012G17KT 10SM VCTS SCT016 BKN029 OVC095 09/08 A2986 RMK AO2 LTG DSNT N RAB28E45 SLP119 P0006 60013 T00940078 10111 20089 53032=
201703160549 SPECI KBLI 160549Z AUTO 18011G17KT 10SM VCTS SCT016 BKN029 OVC100 09/08 A2986 RMK AO2 LTG DSNT N RAB28E45 P0006=
201703160541 SPECI KBLI 160541Z AUTO 18009G18KT 150V220 8SM -RA SCT014 BKN026 OVC090 09/08 A2985 RMK AO2 LTG DSNT N RAB28 P0006 T00940078=
201703160534 SPECI KBLI 160534Z AUTO 20012G19KT 170V230 3SM +RA BR BKN014 BKN023 OVC065 09/07 A2985 RMK AO2 LTG DSNT N RAB28 P0006 T00940072=
201703160453 METAR KBLI 160453Z 16013G20KT 10SM FEW014 BKN085 10/08 A2981 RMK AO2 SLP104 T01000078=
201703160353 METAR KBLI 160353Z 16011G19KT 10SM BKN095 10/08 A2978 RMK AO2 LTG DSNT NW SLP094 T01000083=
201703160307 SPECI KBLI 160307Z 17008KT 10SM FEW018 SCT026 BKN100 10/09 A2977 RMK AO2 T01000089=
201703160253 METAR KBLI 160253Z 17008KT 10SM BKN026 OVC095 10/09 A2976 RMK AO2 SLP087 60007 T01000089 53007=
201703160226 SPECI KBLI 160226Z 17009G17KT 10SM SCT014 BKN024 OVC030 10/09 A2976 RMK AO2 T01000089=
201703160210 SPECI KBLI 160210Z 17008KT 10SM BKN014 OVC031 10/08 A2975 RMK AO2 T01000083=
201703160153 METAR KBLI 160153Z 00000KT 7SM BKN016 BKN021 OVC028 09/09 A2975 RMK AO2 RAE49 SLP083 P0004 T00940089=
201703160053 METAR KBLI 160053Z 00000KT 10SM -RA BKN024 OVC034 10/08 A2975 RMK AO2 RAB29 SLP081 P0003 T01000083=
201703152353 METAR KBLI 152353Z 34003KT 10SM SCT027 BKN032 OVC050 11/08 A2974 RMK AO2 RAB01E29 SLP079 P0000 60000 T01110083 10111 20089 56021=
201703152253 METAR KBLI 152253Z 00000KT 10SM SCT021 BKN027 OVC032 11/08 A2976 RMK AO2 SLP086 T01110078=
201703152153 METAR KBLI 152153Z 36004KT 10SM SCT011 BKN031 OVC110 11/08 A2978 RMK AO2 SLP091 T01110083=
201703152055 SPECI KBLI 152055Z 00000KT 10SM FEW011 SCT016 BKN055 09/08 A2980 RMK AO2 T00940078=
201703152053 METAR KBLI 152053Z 22003KT 10SM FEW011 SCT033 BKN055 09/08 A2981 RMK AO2 SLP101 60000 T00940083 56017=
201703152030 SPECI KBLI 152030Z 02004KT 10SM SCT009 SCT030 OVC055 11/09 A2981 RMK AO2 T01060089=
201703152002 SPECI KBLI 152002Z 02004KT 10SM BKN009 BKN012 OVC030 11/09 A2982 RMK AO2 T01060089=
201703151955 SPECI KBLI 151955Z 36004KT 10SM SCT009 OVC017 11/09 A2982 RMK AO2 T01060094=
201703151953 METAR KBLI 151953Z 36004KT 10SM BKN007 OVC014 11/09 A2982 RMK AO2 RAB1857E07 SLP105 P0000 T01060089=
201703151944 SPECI KBLI 151944Z 02004KT 10SM BKN007 BKN014 OVC021 11/09 A2982 RMK AO2 RAB1857E07 P0000 T01060094=
201703151937 SPECI KBLI 151937Z 04004KT 10SM SCT007 BKN014 OVC021 11/09 A2982 RMK AO2 RAB1857E07 P0000 T01060094=
201703151853 METAR KBLI 151853Z 00000KT 10SM OVC007 10/09 A2984 RMK AO2 CIG 004V010 SLP110 T01000089=
201703151753 METAR KBLI 151753Z 00000KT 3SM BR BKN006 OVC010 09/09 A2986 RMK AO2 RAE20 CIG 004V008 SLP118 P0000 60007 T00890089 10094 20083 56002=
201703151653 METAR KBLI 151653Z 00000KT 3SM -RA BR SCT004 OVC021 09/08 A2986 RMK AO2 SLP120 P0005 T00890083=
201703151557 SPECI KBLI 151557Z 00000KT 3SM -RA BR SCT007 OVC040 08/08 A2985 RMK AO2 P0000 T00830083=
201703151553 METAR KBLI 151553Z 00000KT 4SM -RA BR FEW007 OVC040 08/08 A2986 RMK AO2 RAB52 SLP118 P0000 T00830083=
201703151453 METAR KBLI 151453Z 00000KT 10SM SCT042 08/08 A2986 RMK AO2 RAB07E17 SLP119 P0000 60002 T00830083 56013=
201703151357 SPECI KBLI 151357Z 09005KT 10SM SCT046 08/08 A2987 RMK AO2 T00830083=
201703151353 METAR KBLI 151353Z 09005KT 10SM OVC046 08/08 A2987 RMK AO2 SLP123 T00830083=
201703151253 METAR KBLI 151253Z AUTO 10003KT 10SM OVC040 09/08 A2989 RMK AO2 RAE29 SLP128 P0002 T00890083=
201703151153 METAR KBLI 151153Z AUTO 16003KT 6SM -RA BR BKN042 OVC050 09/09 A2990 RMK AO2 RAB07 SLP133 P0003 60010 70046 T00890089 10100 20089 56009=
201703151053 METAR KBLI 151053Z AUTO 16004KT 10SM OVC041 09/09 A2991 RMK AO2 SLP135 T00940089=
201703150953 METAR KBLI 150953Z AUTO 19003KT 10SM OVC041 09/09 A2992 RMK AO2 RAE0856 SLP140 P0000 T00940094=
201703150853 METAR KBLI 150853Z AUTO 17003KT 9SM -RA OVC042 09/09 A2993 RMK AO2 RAE02B35 SLP142 P0001 60007 T00940094 50002=
201703150753 METAR KBLI 150753Z AUTO 16003KT 7SM -RA OVC039 10/09 A2993 RMK AO2 SLP143 P0003 T01000094 401390078=
201703150653 METAR KBLI 150653Z AUTO 00000KT 10SM -RA OVC035 10/10 A2994 RMK AO2 SLP144 P0003 T01000100=
201703150631 SPECI KBLI 150631Z AUTO 00000KT 3SM -RA BR FEW014 SCT019 OVC035 10/10 A2993 RMK AO2 P0002 T01000100=
201703150624 SPECI KBLI 150624Z AUTO 24003KT 5SM -RA BR FEW003 BKN016 OVC034 10/10 A2993 RMK AO2 P0001 T01000100=
201703150604 SPECI KBLI 150604Z AUTO 16006KT 5SM -RA BR SCT003 SCT010 OVC032 10/10 A2993 RMK AO2 P0001 T01000100=
201703150553 METAR KBLI 150553Z AUTO 16008KT 5SM -RA BR SCT003 BKN011 OVC032 10/10 A2993 RMK AO2 SLP141 P0003 60012 T01000100 10133 20100 53017=
201703150551 SPECI KBLI 150551Z AUTO 16008KT 5SM -RA BR FEW003 BKN011 OVC032 10/10 A2992 RMK AO2 P0003=
201703150546 SPECI KBLI 150546Z AUTO 16008KT 5SM -RA BR FEW003 SCT010 OVC032 10/10 A2992 RMK AO2 P0003 T01000100=
201703150532 SPECI KBLI 150532Z AUTO 17007KT 7SM -RA FEW009 BKN014 OVC031 10/10 A2992 RMK AO2 P0002 T01000100=
201703150453 METAR KBLI 150453Z 17008KT 6SM -RA BR OVC017 11/10 A2990 RMK AO2 SLP133 P0005 T01060100=
201703150416 SPECI KBLI 150416Z 17011KT 7SM -RA SCT012 BKN019 OVC028 11/10 A2990 RMK AO2 P0000 T01060100=
201703150400 SPECI KBLI 150400Z 17010G16KT 3SM -RA BR BKN014 OVC018 11/10 A2990 RMK AO2 P0000 T01060100=
201703150353 METAR KBLI 150353Z 18009KT 3SM -RA BR OVC016 11/10 A2989 RMK AO2 RAB0256 SLP129 P0003 T01060100=
201703150310 SPECI KBLI 150310Z 17011G18KT 10SM -RA SCT025 OVC029 12/10 A2988 RMK AO2 RAB0256 P0000 T01170100=
201703150253 METAR KBLI 150253Z 17012G20KT 10SM OVC031 12/09 A2988 RMK AO2 RAE39 SLP124 P0000 60001 T01220094 53011=
201703150153 METAR KBLI 150153Z 16009KT 10SM -RA BKN032 OVC044 13/10 A2986 RMK AO2 RAB53 SLP117 P0000 T01330100=
201703150053 METAR KBLI 150053Z 16009KT 10SM FEW032 SCT060 OVC075 13/11 A2985 RMK AO2 RAE2354 SLP116 P0001 T01330106=
201703142353 METAR KBLI 142353Z 16010KT 10SM -RA FEW021 BKN040 OVC070 12/11 A2984 RMK AO2 RAB32 SLP113 P0000 60000 T01220106 10139 20117 50010=
201703142351 SPECI KBLI 142351Z 16011KT 9SM -RA SCT021 BKN040 OVC070 12/11 A2984 RMK AO2 RAB32 P0000=
201703142253 METAR KBLI 142253Z 18008KT 10SM OVC023 13/10 A2983 RMK AO2 SLP109 T01280100=
201703142153 METAR KBLI 142153Z 17009KT 10SM OVC021 13/11 A2981 RMK AO2 SLP102 T01330106=
201703142053 METAR KBLI 142053Z 16009KT 10SM OVC018 13/11 A2980 RMK AO2 SLP099 T01280106 51020=
201703141953 METAR KBLI 141953Z 21009KT 180V250 10SM OVC016 12/11 A2979 RMK AO2 SLP096 T01220111=
201703141853 METAR KBLI 141853Z 17007KT 10SM BKN017 OVC022 12/11 A2977 RMK AO2 SLP089 T01170111=
201703141753 METAR KBLI 141753Z 18012G19KT 10SM OVC017 12/11 A2975 RMK AO2 RAE01 SLP079 P0000 60024 T01220106 10122 20078 52010=
201703141653 METAR KBLI 141653Z 18006KT 10SM -RA OVC016 12/11 A2974 RMK AO2 SLP077 P0002 T01170106=
201703141553 METAR KBLI 141553Z 00000KT 10SM -RA OVC022 09/09 A2972 RMK AO2 RAB49 SLP072 P0000 T00890089=
201703141500 SPECI KBLI 141500Z 00000KT 10SM OVC026 09/08 A2971 RMK AO2 T00890083=
201703141453 METAR KBLI 141453Z 00000KT 10SM SCT027 OVC033 09/09 A2971 RMK AO2 RAE36 SLP070 P0001 60022 T00890089 56031=
201703141353 METAR KBLI 141353Z 03006KT 7SM -RA BKN035 OVC050 08/08 A2974 RMK AO2 SLP078 P0009 T00830083=
201703141253 METAR KBLI 141253Z AUTO 02007KT 6SM -RA BR BKN037 OVC055 08/08 A2977 RMK AO2 SLP088 P0012 T00830078=
201703141153 METAR KBLI 141153Z AUTO 04005KT 3SM RA BR FEW040 OVC050 08/08 A2981 RMK AO2 SLP101 P0007 60007 70022 T00780078 10089 20078 58042=
201703141053 METAR KBLI 141053Z AUTO 05003KT 10SM -RA FEW043 BKN060 OVC075 08/07 A2985 RMK AO2 RAB39 SLP116 P0000 T00830072=
201703140953 METAR KBLI 140953Z AUTO 02003KT 10SM SCT055 OVC110 08/07 A2990 RMK AO2 SLP132 T00780072=
201703140853 METAR KBLI 140853Z AUTO 02004KT 10SM BKN050 OVC110 08/08 A2993 RMK AO2 SLP143 T00830078 58030=
201703140753 METAR KBLI 140753Z AUTO 02003KT 5SM BR OVC110 08/08 A2997 RMK AO2 SLP156 T00780078 401110078=
201703140653 METAR KBLI 140653Z AUTO 36004KT 7SM BKN055 BKN120 08/08 A2998 RMK AO2 SLP161 T00830078=
201703140553 METAR KBLI 140553Z AUTO 00000KT 6SM BR OVC049 09/08 A3002 RMK AO2 SLP174 T00890083 10111 20083 56001=
201703140453 METAR KBLI 140453Z 35003KT 10SM BKN047 BKN055 09/08 A3002 RMK AO2 SLP174 T00890078=
201703140353 METAR KBLI 140353Z 00000KT 10SM SCT021 OVC060 09/08 A3002 RMK AO2 SLP174 T00940078=
201703140326 SPECI KBLI 140326Z 02003KT 10SM SCT022 OVC060 10/08 A3002 RMK AO2 T01000078=
201703140253 METAR KBLI 140253Z 04003KT 10SM OVC019 10/08 A3003 RMK AO2 SLP175 T01000083 56007=
201703140153 METAR KBLI 140153Z 04004KT 10SM BKN021 OVC060 11/08 A3003 RMK AO2 SLP175 T01060083=
201703140053 METAR KBLI 140053Z 05004KT 10SM OVC018 11/09 A3003 RMK AO2 SLP178 T01060089=
201703132353 METAR KBLI 132353Z 02006KT 10SM OVC025 11/09 A3005 RMK AO2 SLP182 60002 T01110089 10111 20083 53001=
201703132327 SPECI KBLI 132327Z 02006KT 10SM BKN027 OVC060 11/09 A3005 RMK AO2 T01110089=
201703132253 METAR KBLI 132253Z 02004KT 10SM BKN060 OVC085 11/09 A3004 RMK AO2 RAB07E19 SLP180 P0000 T01110089=
201703132153 METAR KBLI 132153Z 36005KT 10SM OVC055 10/08 A3004 RMK AO2 SLP180 T01000083=
201703132053 METAR KBLI 132053Z 02003KT 10SM BKN055 11/09 A3004 RMK AO2 SLP182 60002 T01060089 56004=
201703131953 METAR KBLI 131953Z 35003KT 10SM FEW024 SCT075 BKN120 09/08 A3005 RMK AO2 SLP183 T00940083=
201703131853 METAR KBLI 131853Z 00000KT 10SM BKN024 OVC110 09/08 A3005 RMK AO2 RAE53 SLP184 P0002 T00890083=
201703131753 METAR KBLI 131753Z VRB03KT 10SM -RA OVC025 09/08 A3006 RMK AO2 RAB53 SLP186 P0000 60013 T00890078 10106 20078 51006=
201703131720 SPECI KBLI 131720Z 02005KT 10SM SCT027 BKN055 08/07 A3004 RMK AO2 T00830072=
201703131653 METAR KBLI 131653Z 02006KT 10SM SCT027 SCT033 08/08 A3005 RMK AO2 RAB1558E22 SLP184 P0000 T00830078=
201703131604 SPECI KBLI 131604Z 08008KT 8SM -RA SCT030 BKN060 08/07 A3003 RMK AO2 RAB1558 PRESFR P0000 T00830072=
201703131553 METAR KBLI 131553Z 02005KT 10SM SCT030 BKN060 08/07 A3005 RMK AO2 RAB32E42 SLP184 P0000 T00780072=
201703131453 METAR KBLI 131453Z 36006KT 10SM SCT030 BKN060 OVC100 09/07 A3004 RMK AO2 RAE44 SLP179 P0005 60013 T00890072 56010=
201703131353 METAR KBLI 131353Z VRB04KT 8SM -RA FEW036 SCT044 OVC055 10/07 A3006 RMK AO2 PRESRR SLP185 P0007 T01000072=
201703131253 METAR KBLI 131253Z AUTO 00000KT 8SM -RA OVC065 08/08 A3004 RMK AO2 RAB04 SLP179 P0001 T00780078=
201703131153 METAR KBLI 131153Z AUTO 33006KT 10SM BKN039 BKN050 OVC065 08/07 A3007 RMK AO2 RAE11B27E36 SLP190 P0001 60008 70009 T00780072 10083 20078 55016=
201703131053 METAR KBLI 131053Z AUTO 36005KT 9SM -RA OVC065 08/08 A3006 RMK AO2 SLP186 P0000 T00780078=
201703130953 METAR KBLI 130953Z AUTO 04005KT 6SM -RA BR FEW042 BKN055 OVC070 08/07 A3009 RMK AO2 SLP197 P0002 T00780072=
201703130853 METAR KBLI 130853Z AUTO 36006KT 6SM -RA BR BKN043 OVC050 08/08 A3012 RMK AO2 SLP206 P0002 60005 T00780078 56016=
201703130753 METAR KBLI 130753Z AUTO 01007KT 4SM -RA BR SCT003 OVC050 08/08 A3013 RMK AO2 SLP211 P0003 T00830078 401170083=
201703130653 METAR KBLI 130653Z AUTO 36004KT 7SM -RA BKN050 OVC060 08/08 A3014 RMK AO2 RAB16 SLP216 P0000 T00830083=
201703130553 METAR KBLI 130553Z AUTO 34004KT 10SM OVC070 09/08 A3016 RMK AO2 SLP223 60000 T00890078 10111 20089 55005=
201703130453 METAR KBLI 130453Z 36004KT 10SM OVC090 09/08 A3016 RMK AO2 SLP220 T00940078=
201703130353 METAR KBLI 130353Z 01004KT 10SM OVC090 09/07 A3017 RMK AO2 SLP224 T00940067=
201703130253 METAR KBLI 130253Z 13004KT 10SM OVC090 11/06 A3018 RMK AO2 RAE15 SLP226 P0000 60000 T01110056 56016=
201703130153 METAR KBLI 130153Z 13007KT 10SM -RA FEW047 OVC070 11/07 A3019 RMK AO2 RAB15 SLP231 P0000 T01060067=
201703130053 METAR KBLI 130053Z 14009KT 10SM OVC100 11/07 A3021 RMK AO2 RAE20 SLP237 P0000 T01110067=
201703122353 METAR KBLI 122353Z 20007KT 170V240 10SM -RA FEW028 BKN065 OVC110 11/07 A3023 RMK AO2 RAB38 SLP242 P0000 60001 T01110072 10117 20089 55012=
201703122253 METAR KBLI 122253Z 15011KT 10SM FEW030 BKN050 OVC070 12/08 A3022 RMK AO2 RAE20 SLP242 P0001 T01170083=
201703122200 SPECI KBLI 122200Z 16008KT 10SM -RA SCT024 BKN060 OVC070 10/08 A3025 RMK AO2 P0000 T01000083=
201703122153 METAR KBLI 122153Z 17006KT 10SM -RA BKN024 BKN060 OVC070 10/08 A3025 RMK AO2 RAE2059B46 SLP250 P0000 T01000078=
201703122053 METAR KBLI 122053Z 17009KT 10SM -RA FEW017 SCT025 OVC060 11/08 A3026 RMK AO2 RAB15 SLP254 P0000 60000 T01060078 57000=
201703121953 METAR KBLI 121953Z 16009KT 10SM FEW017 OVC065 11/07 A3027 RMK AO2 RAB01E22 SLP257 P0000 T01110072=
201703121853 METAR KBLI 121853Z 15011KT 10SM FEW017 BKN060 OVC075 10/07 A3025 RMK AO2 RAE1754 SLP252 P0000 T01000072=
201703121753 METAR KBLI 121753Z 17009KT 10SM -RA FEW017 BKN055 OVC100 09/08 A3026 RMK AO2 RAB41 SLP256 P0000 60000 T00940078 10100 20083 51010=
201703121653 METAR KBLI 121653Z 18005KT 10SM FEW019 SCT026 BKN075 09/07 A3025 RMK AO2 SLP252 T00890072=
201703121553 METAR KBLI 121553Z 15005KT 10SM FEW019 SCT026 BKN090 09/07 A3024 RMK AO2 SLP249 T00890072=
201703121539 SPECI KBLI 121539Z 16004KT 10SM SCT024 08/07 A3024 RMK AO2 T00830072=
201703121453 METAR KBLI 121453Z 17006KT 10SM FEW024 OVC030 08/07 A3023 RMK AO2 SLP245 T00830067 51003=
201703121451 SPECI KBLI 121451Z 17006KT 10SM FEW024 OVC030 08/07 A3023 RMK AO2=
201703121353 METAR KBLI 121353Z VRB03KT 10SM OVC023 08/07 A3023 RMK AO2 SLP243 T00830067=
201703121253 METAR KBLI 121253Z AUTO 17006KT 10SM OVC019 08/07 A3022 RMK AO2 SLP242 T00830067=
201703121153 METAR KBLI 121153Z AUTO 17005KT 10SM OVC023 08/07 A3022 RMK AO2 SLP243 70028 T00830067 10100 20083 51017=
201703121053 METAR KBLI 121053Z AUTO 15010G16KT 10SM OVC022 09/07 A3021 RMK AO2 SLP237 T00890067=
201703121043 SPECI KBLI 121043Z AUTO 17006KT 10SM BKN024 OVC032 09/07 A3021 RMK AO2 T00890067=
201703120953 METAR KBLI 120953Z AUTO 14007KT 10SM BKN034 OVC060 08/07 A3019 RMK AO2 SLP232 T00830067=
201703120853 METAR KBLI 120853Z AUTO 16008KT 10SM FEW037 OVC060 09/07 A3017 RMK AO2 SLP226 T00890067 51037=
201703120753 METAR KBLI 120753Z AUTO 17007KT 10SM BKN039 OVC055 09/07 A3015 RMK AO2 SLP218 T00890067 401060039=
201703120737 SPECI KBLI 120737Z AUTO 16008KT 10SM SCT027 BKN039 OVC055 09/07 A3014 RMK AO2 T00890067=
201703120704 SPECI KBLI 120704Z AUTO 16007KT 10SM BKN027 OVC041 09/07 A3012 RMK AO2 T00940067=
201703120653 METAR KBLI 120653Z AUTO 18009KT 10SM SCT027 BKN041 OVC065 09/06 A3011 RMK AO2 SLP205 T00940061=
201703120553 METAR KBLI 120553Z 15008KT 10SM SCT028 BKN037 OVC060 09/07 A3006 RMK AO2 SLP188 60016 T00940067 10106 20083 51040=
201703120453 METAR KBLI 120453Z VRB04KT 10SM SCT023 OVC060 09/07 A3002 RMK AO2 SLP175 T00940067=
201703120442 SPECI KBLI 120442Z 17005KT 10SM SCT023 OVC060 09/07 A3002 RMK AO2 T00940072=
201703120353 METAR KBLI 120353Z 16007KT 10SM OVC023 09/08 A2999 RMK AO2 SLP162 T00940083=
201703120253 METAR KBLI 120253Z 17005KT 10SM FEW008 BKN026 OVC033 09/08 A2994 RMK AO2 RAE53 SLP148 P0006 60016 T00890083 53025=
201703120218 SPECI KBLI 120218Z 18006KT 5SM -RA BR SCT008 BKN014 OVC039 09/08 A2992 RMK AO2 P0005 T00890083=
201703120204 SPECI KBLI 120204Z 18005KT 5SM RA BR FEW011 BKN019 OVC043 09/08 A2991 RMK AO2 P0003 T00890083=
201703120201 SPECI KBLI 120201Z VRB06KT 2 1/2SM RA BR SCT011 SCT018 OVC041 09/08 A2991 RMK AO2 P0002 T00890083=
201703120153 METAR KBLI 120153Z VRB06KT 2 1/2SM RA BR FEW013 BKN019 OVC041 09/08 A2990 RMK AO2 RAB00 SLP134 P0010 T00940083=
201703120145 SPECI KBLI 120145Z 20005KT 4SM -RA BR SCT019 OVC041 09/08 A2990 RMK AO2 RAB00 P0009 T00940083=
201703120135 SPECI KBLI 120135Z 17009KT 4SM RA BR BKN019 OVC039 09/08 A2988 RMK AO2 RAB00 P0007 T00940083=
201703120132 SPECI KBLI 120132Z 17011KT 1 3/4SM RA BR BKN019 BKN023 OVC033 09/08 A2988 RMK AO2 RAB00 P0006 T00940083=
201703120053 METAR KBLI 120053Z 16011KT 10SM SCT018 BKN023 OVC060 11/08 A2986 RMK AO2 SLP121 T01060078=
201703112353 METAR KBLI 112353Z 15014KT 10SM SCT024 OVC060 11/07 A2987 RMK AO2 SLP122 60012 T01060072 10106 20061 55000=
201703112253 METAR KBLI 112253Z 14008G17KT 10SM BKN024 BKN032 OVC060 11/08 A2987 RMK AO2 RAE30 SLP122 P0000 T01060078=
201703112242 SPECI KBLI 112242Z 15011G19KT 10SM OVC024 11/07 A2986 RMK AO2 RAE30 P0000 T01060072=
201703112153 METAR KBLI 112153Z 10006KT 7SM -RA SCT023 BKN030 OVC046 09/07 A2985 RMK AO2 SLP116 P0004 T00940072=
201703112100 SPECI KBLI 112100Z 16003KT 7SM -RA SCT019 SCT025 OVC038 09/07 A2987 RMK AO2 P0000 T00890072=
201703112053 METAR KBLI 112053Z 17006KT 10SM -RA SCT019 BKN025 OVC038 09/07 A2987 RMK AO2 SLP122 P0003 60008 T00890072 55013=
201703111953 METAR KBLI 111953Z 14015G22KT 10SM -RA FEW028 SCT045 OVC070 09/06 A2987 RMK AO2 PK WND 13027/1940 SLP121 P0001 T00940061=
201703111853 METAR KBLI 111853Z 08004KT 10SM -RA FEW030 SCT036 OVC055 07/06 A2991 RMK AO2 SLP135 P0004 T00720056=
201703111753 METAR KBLI 111753Z 00000KT 10SM -RA FEW005 BKN055 OVC075 06/05 A2991 RMK AO2 RAB34 SLP135 P0000 60000 T00610050 10067 20039 56021=
201703111653 METAR KBLI 111653Z 10003KT 10SM BKN110 07/04 A2991 RMK AO2 SLP137 T00670039=
201703111553 METAR KBLI 111553Z 01007KT 10SM CLR 06/04 A2993 RMK AO2 SLP143 T00610039=
201703111453 METAR KBLI 111453Z 02007KT 10SM BKN110 06/04 A2997 RMK AO2 SLP156 T00560039 58042=
201703111353 METAR KBLI 111353Z AUTO 35004KT 10SM SCT110 05/04 A3002 RMK AO2 SLP172 T00500039=
201703111253 METAR KBLI 111253Z AUTO 01005KT 10SM CLR 04/04 A3005 RMK AO2 SLP186 T00440039=
201703111153 METAR KBLI 111153Z AUTO 01004KT 10SM BKN110 04/04 A3009 RMK AO2 SLP198 70002 T00390039 10072 20039 58039=
201703111053 METAR KBLI 111053Z AUTO 02006KT 10SM CLR 04/04 A3014 RMK AO2 SLP213 T00440039=
201703110953 METAR KBLI 110953Z AUTO 03003KT 10SM SCT038 06/04 A3018 RMK AO2 SLP229 T00560044=
201703110853 METAR KBLI 110853Z AUTO 06003KT 10SM SCT041 06/04 A3021 RMK AO2 SLP238 T00610044 58014=
201703110753 METAR KBLI 110753Z AUTO 02003KT 10SM SCT029 OVC043 06/05 A3023 RMK AO2 SLP244 T00610050 401060039=
201703110732 SPECI KBLI 110732Z AUTO 04003KT 10SM SCT027 OVC041 07/05 A3023 RMK AO2 T00670050=
201703110701 SPECI KBLI 110701Z AUTO 00000KT 10SM BKN028 OVC039 07/05 A3025 RMK AO2 T00670050=
201703110653 METAR KBLI 110653Z AUTO 00000KT 10SM SCT026 OVC039 06/05 A3025 RMK AO2 SLP252 T00610050=
201703110631 SPECI KBLI 110631Z AUTO 00000KT 10SM OVC038 07/05 A3025 RMK AO2 T00670050=
201703110607 SPECI KBLI 110607Z 00000KT 10SM BKN025 OVC036 07/05 A3025 RMK AO2 T00670050=
201703110600 SPECI KBLI 110600Z 00000KT 10SM FEW025 OVC036 07/05 A3025 RMK AO2 T00720050=
201703110553 METAR KBLI 110553Z 17003KT 10SM BKN025 OVC036 07/05 A3025 RMK AO2 SLP252 T00720050 10089 20067 56007=
201703110527 SPECI KBLI 110527Z 00000KT 10SM OVC026 07/05 A3025 RMK AO2 T00720050=
201703110453 METAR KBLI 110453Z 00000KT 10SM FEW027 OVC034 07/05 A3025 RMK AO2 SLP252 T00720050=
201703110400 SPECI KBLI 110400Z 12005KT 10SM FEW009 OVC034 08/04 A3025 RMK AO2 T00780044=
201703110353 METAR KBLI 110353Z 13005KT 10SM OVC034 08/04 A3025 RMK AO2 SLP251 T00780044=
201703110253 METAR KBLI 110253Z 16004KT 10SM OVC030 08/04 A3027 RMK AO2 SLP259 T00780044 53008=
201703110153 METAR KBLI 110153Z 14007KT 10SM OVC034 08/04 A3025 RMK AO2 SLP251 T00830044=
201703110053 METAR KBLI 110053Z 14006KT 10SM FEW037 OVC047 09/04 A3024 RMK AO2 SLP249 T00890044=
201703102353 METAR KBLI 102353Z 17004KT 10SM BKN030 OVC037 09/03 A3025 RMK AO2 SLP250 T00890033 10100 20083 51016=
201703102253 METAR KBLI 102253Z VRB04KT 10SM OVC033 09/03 A3024 RMK AO2 SLP248 T00940028=
201703102153 METAR KBLI 102153Z VRB04KT 10SM OVC030 09/03 A3022 RMK AO2 SLP241 T00940033=
201703102053 METAR KBLI 102053Z 20007KT 10SM BKN030 OVC036 09/05 A3020 RMK AO2 SLP234 T00940050 53035=
201703101953 METAR KBLI 101953Z 17008KT 10SM OVC037 09/06 A3016 RMK AO2 SLP222 T00940061=
201703101853 METAR KBLI 101853Z 17010KT 10SM OVC038 09/07 A3013 RMK AO2 SLP210 T00890072=
201703101819 SPECI KBLI 101819Z 16008KT 10SM FEW010 BKN034 OVC041 09/08 A3011 RMK AO2 T00890083=
201703101753 METAR KBLI 101753Z 17008KT 5SM BR SCT015 BKN021 OVC028 09/08 A3009 RMK AO2 RAB39E48 SLP199 P0000 60002 T00890078 10094 20083 51046=
201703101700 SPECI KBLI 101700Z 16010KT 3SM BR FEW017 BKN025 OVC033 09/08 A3005 RMK AO2 T00890078=
201703101653 METAR KBLI 101653Z 17010KT 3SM BR FEW017 SCT024 OVC031 09/08 A3005 RMK AO2 RAE49 SLP183 P0001 T00890078=
201703101553 METAR KBLI 101553Z 18009KT 3SM -RA BR FEW017 BKN025 OVC034 09/07 A3001 RMK AO2 RAB1456 SLP170 P0001 T00940072=
201703101453 METAR KBLI 101453Z 17008KT 10SM OVC037 09/07 A2996 RMK AO2 SLP152 T00940067 51039=
201703101353 METAR KBLI 101353Z AUTO 16011KT 10SM BKN037 OVC046 09/07 A2992 RMK AO2 SLP141 T00940067=
201703101253 METAR KBLI 101253Z AUTO 16010G16KT 10SM BKN050 OVC060 09/07 A2988 RMK AO2 SLP126 T00940067=
201703101205 SPECI KBLI 101205Z AUTO 16009KT 10SM FEW025 SCT037 OVC060 09/07 A2984 RMK AO2 T00890072=
201703101153 METAR KBLI 101153Z AUTO 18008KT 10SM BKN025 BKN037 OVC050 09/07 A2984 RMK AO2 RAB1058E09 SLP113 P0000 60002 70032 T00890072 10106 20039 53027=
201703101053 METAR KBLI 101053Z AUTO VRB06KT 10SM OVC018 09/07 A2981 RMK AO2 SLP103 T00940072=
201703100953 METAR KBLI 100953Z AUTO 18009G19KT 10SM OVC020 09/07 A2977 RMK AO2 PK WND 16029/0924 RAE11 SLP089 P0001 T00940072=
201703100853 METAR KBLI 100853Z AUTO 18007KT 10SM -RA OVC021 09/07 A2976 RMK AO2 RAB32 SLP085 P0001 60001 T00890072 56022=
201703100753 METAR KBLI 100753Z AUTO 01005KT 10SM OVC019 04/04 A2977 RMK AO2 SLP089 T00390039 400500017=
201703100724 SPECI KBLI 100724Z AUTO 35006KT 10SM OVC015 04/04 A2979 RMK AO2 T00390039=
201703100653 METAR KBLI 100653Z AUTO 02008KT 8SM OVC013 04/04 A2980 RMK AO2 SLP099 T00390039=
201703100553 METAR KBLI 100553Z 01005KT 7SM OVC010 04/03 A2982 RMK AO2 RAB06E20 SLP108 P0000 60012 T00390033 10039 20028 58002=
201703100532 SPECI KBLI 100532Z 02007KT 3SM BR FEW005 OVC011 03/03 A2983 RMK AO2 RAB06E20 P0000 T00330033=
201703100453 METAR KBLI 100453Z 34005KT 6SM BR OVC010 04/03 A2984 RMK AO2 RAE01 SLP114 P0000 T00390033=
201703100438 SPECI KBLI 100438Z 01006KT 10SM OVC014 03/03 A2983 RMK AO2 RAE01 P0000 T00330033=
201703100353 METAR KBLI 100353Z 03007KT 3SM -RA BR FEW006 OVC016 03/03 A2983 RMK AO2 RAE0255B25 SLP110 P0001 T00330028=
201703100253 METAR KBLI 100253Z 01009KT 10SM -RA OVC023 03/03 A2984 RMK AO2 SLP114 P0001 60011 T00280028 56029=
201703100153 METAR KBLI 100153Z 02009KT 10SM -RA OVC035 03/02 A2986 RMK AO2 SLP121 P0003 T00280022=
201703100053 METAR KBLI 100053Z 01010KT 3SM -RA BR FEW017 OVC034 03/02 A2990 RMK AO2 SLP134 P0007 T00280022=
201703092353 METAR KBLI 092353Z 02009KT 5SM -RA BR FEW017 OVC031 03/03 A2993 RMK AO2 SLP144 P0006 60018 T00330028 10050 20033 58049=
201703092253 METAR KBLI 092253Z 01009KT 5SM RA BR OVC024 04/03 A2999 RMK AO2 SLP165 P0008 T00390028=
201703092153 METAR KBLI 092153Z 01005KT 3SM RA BR BKN026 OVC032 04/03 A3002 RMK AO2 RAB07 SLP175 P0004 T00440033=
201703092053 METAR KBLI 092053Z 02006KT 10SM OVC020 05/03 A3008 RMK AO2 SLP194 T00500028 58014=
201703091953 METAR KBLI 091953Z 01008KT 10SM BKN027 OVC035 04/02 A3011 RMK AO2 SLP204 T00440022=
201703091853 METAR KBLI 091853Z 03006KT 10SM OVC027 04/03 A3010 RMK AO2 SLP203 T00440028=
201703091753 METAR KBLI 091753Z 01006KT 10SM FEW005 BKN027 OVC038 04/03 A3012 RMK AO2 SLP207 T00390028 10039 20017 58009=
201703091750 SPECI KBLI 091750Z 01006KT 10SM FEW005 BKN027 OVC035 04/03 A3011 RMK AO2=
201703091653 METAR KBLI 091653Z 01003KT 5SM BR OVC013 03/02 A3013 RMK AO2 SLP211 T00280022=
201703091553 METAR KBLI 091553Z 01004KT 3SM BR FEW002 BKN012 OVC028 02/02 A3013 RMK AO2 SLP214 T00220017=
201703091551 SPECI KBLI 091551Z 36004KT 3SM BR FEW002 BKN012 OVC028 02/02 A3013 RMK AO2=
201703091453 METAR KBLI 091453Z 34004KT 4SM BR SCT012 OVC021 02/02 A3014 RMK AO2 SLP217 T00170017 53004=
201703091416 SPECI KBLI 091416Z AUTO 02003KT 3SM BR FEW002 BKN011 OVC024 02/01 A3014 RMK AO2 T00170011=
201703091408 SPECI KBLI 091408Z AUTO 01003KT 3SM BR FEW002 SCT011 OVC024 02/02 A3014 RMK AO2 T00170017=
201703091353 METAR KBLI 091353Z AUTO 02004KT 4SM BR SCT011 OVC026 02/01 A3014 RMK AO2 SLP217 T00170011=
201703091333 SPECI KBLI 091333Z AUTO 01003KT 4SM BR FEW013 OVC028 02/02 A3014 RMK AO2 T00170017=
201703091322 SPECI KBLI 091322Z AUTO 02003KT 4SM BR FEW002 FEW013 OVC030 02/02 A3014 RMK AO2 T00170017=
201703091306 SPECI KBLI 091306Z AUTO 00000KT 3SM BR SCT002 BKN013 OVC032 02/02 A3013 RMK AO2 T00170017=
201703091253 METAR KBLI 091253Z AUTO 00000KT 2 1/2SM BR BKN002 OVC013 02/02 A3013 RMK AO2 SLP212 T00170017=
201703091244 SPECI KBLI 091244Z AUTO 00000KT 2 1/2SM BR BKN002 OVC013 02/02 A3013 RMK AO2 T00170017=
201703091222 SPECI KBLI 091222Z AUTO 01003KT 2 1/2SM BR FEW002 OVC012 02/02 A3014 RMK AO2 T00220017=
201703091153 METAR KBLI 091153Z AUTO 36003KT 3SM BR OVC012 02/02 A3013 RMK AO2 RAE34 SLP213 P0000 60008 70028 T00220017 10028 20017 53001=
201703091150 SPECI KBLI 091150Z AUTO 36003KT 3SM BR OVC012 02/02 A3013 RMK AO2 RAE34 P0000=
201703091132 SPECI KBLI 091132Z AUTO 35003KT 2 1/2SM -RA BR OVC012 02/02 A3012 RMK AO2 P0000 T00220022=
201703091119 SPECI KBLI 091119Z AUTO 36003KT 3SM -RA BR OVC012 02/02 A3012 RMK AO2 P0000 T00220022=
201703091110 SPECI KBLI 091110Z AUTO 00000KT 2 1/2SM -RA BR BKN011 OVC043 02/02 A3012 RMK AO2 P0000 T00220022=
201703091101 SPECI KBLI 091101Z AUTO 00000KT 3SM -RA BR OVC011 02/02 A3012 RMK AO2 P0000 T00220022=
201703091053 METAR KBLI 091053Z AUTO 05003KT 2 1/2SM -RA BR BKN011 OVC045 02/02 A3012 RMK AO2 RAE21B42 SLP209 P0001 T00220022=
201703091018 SPECI KBLI 091018Z AUTO 00000KT 2 1/2SM -RA BR OVC013 02/02 A3013 RMK AO2 P0000 T00220022=
201703090953 METAR KBLI 090953Z AUTO 00000KT 3SM -RA BR OVC010 02/02 A3013 RMK AO2 RAB50 SLP212 P0000 T00220022=
201703090939 SPECI KBLI 090939Z AUTO 00000KT 3SM BR OVC010 02/02 A3012 RMK AO2 T00220017=
201703090917 SPECI KBLI 090917Z AUTO 00000KT 2 1/2SM BR OVC009 02/02 A3012 RMK AO2 T00220017=
201703090853 METAR KBLI 090853Z AUTO 00000KT 3SM BR OVC011 02/02 A3011 RMK AO2 RAE44 SLP206 P0001 60007 T00220022 51004=
201703090811 SPECI KBLI 090811Z AUTO 00000KT 4SM -RA BR BKN012 BKN019 OVC031 02/02 A3011 RMK AO2 P0001 T00220017=
201703090800 SPECI KBLI 090800Z AUTO 00000KT 5SM -RA BR SCT012 BKN019 OVC033 02/02 A3011 RMK AO2 P0000 T00220017=
201703090753 METAR KBLI 090753Z AUTO 04003KT 5SM -RA BR BKN012 BKN023 OVC028 02/02 A3011 RMK AO2 UPB43E44 SLP206 P0001 T00220017 400720017=
201703090653 METAR KBLI 090653Z AUTO 01007KT 6SM -RA BR OVC010 02/01 A3011 RMK AO2 CIG 008V013 SLP206 P0005 T00170011=
201703090553 METAR KBLI 090553Z 03004KT 8SM -RA OVC013 02/02 A3010 RMK AO2 SLP202 P0004 60018 T00170017 10072 20017 55002=
201703090453 METAR KBLI 090453Z 04005KT 4SM -RA BR OVC014 02/01 A3009 RMK AO2 SLP200 P0005 T00170011=
201703090442 SPECI KBLI 090442Z 04006KT 4SM RA BR OVC014 02/01 A3010 RMK AO2 P0003 T00170011=
201703090353 METAR KBLI 090353Z 02006KT 5SM -RA BR FEW004 OVC017 02/02 A3010 RMK AO2 SLP203 P0001 T00220017=
201703090344 SPECI KBLI 090344Z 02006KT 5SM -RA BR FEW003 OVC017 02/02 A3010 RMK AO2 P0000 T00220017=
201703090313 SPECI KBLI 090313Z 04009KT 10SM -RA FEW017 BKN026 OVC034 02/02 A3010 RMK AO2 P0000 T00220017=
201703090300 SPECI KBLI 090300Z 03007KT 10SM -RA FEW007 BKN033 OVC055 02/02 A3011 RMK AO2 P0000 T00220017=
201703090253 METAR KBLI 090253Z 03005KT 10SM -RA FEW019 BKN035 OVC055 02/02 A3011 RMK AO2 SLP204 P0001 60008 T00220017 50005=
201703090230 SPECI KBLI 090230Z 34004KT 10SM -RA FEW022 OVC034 03/02 A3011 RMK AO2 P0000 T00280022=
201703090153 METAR KBLI 090153Z 29006KT 8SM -RA SCT013 BKN019 OVC035 03/02 A3011 RMK AO2 SLP206 P0006 T00330022=
201703090053 METAR KBLI 090053Z 18004KT 3SM -RA SCT024 BKN031 OVC042 05/02 A3010 RMK AO2 RAB41 SLP202 P0001 T00500017=
201703082353 METAR KBLI 082353Z 18006KT 10SM SCT065 BKN110 07/M02 A3009 RMK AO2 SLP199 T00721022 10072 20033 58017=
201703082253 METAR KBLI 082253Z 18006KT 10SM OVC070 07/M02 A3011 RMK AO2 SLP207 VCSH T00671017=
201703082153 METAR KBLI 082153Z 15009KT 10SM FEW075 BKN095 OVC110 07/M01 A3013 RMK AO2 SLP211 T00671006=
201703082053 METAR KBLI 082053Z 16008KT 10SM FEW020 SCT110 07/00 A3014 RMK AO2 SLP216 T00670000 50000=
201703081953 METAR KBLI 081953Z 17011KT 10SM FEW032 FEW075 06/01 A3014 RMK AO2 SLP217 VCSH T00560006=
201703081853 METAR KBLI 081853Z 16011G18KT 10SM FEW019 SCT029 OVC095 05/02 A3016 RMK AO2 SLP221 T00500017=
201703081753 METAR KBLI 081753Z 17014G20KT 10SM SCT019 SCT026 OVC065 04/02 A3014 RMK AO2 SLP216 60002 T00390022 10044 20017 53015=
201703081719 SPECI KBLI 081719Z 16010G16KT 10SM SCT019 SCT026 OVC065 04/02 A3013 RMK AO2 T00390022=
201703081712 SPECI KBLI 081712Z 17008G15KT 10SM SCT019 BKN026 OVC065 04/02 A3013 RMK AO2 T00390017=
201703081653 METAR KBLI 081653Z 17009KT 10SM FEW018 SCT050 OVC065 03/02 A3012 RMK AO2 RAE17B34E49 SLP210 P0001 T00330017=
201703081553 METAR KBLI 081553Z 18005KT 10SM -RA FEW014 BKN035 OVC048 03/01 A3011 RMK AO2 RAB19 SLP204 P0001 T00280011=
201703081455 SPECI KBLI 081455Z 18005KT 10SM FEW024 BKN055 OVC070 04/00 A3010 RMK AO2 T00390000=
201703081453 METAR KBLI 081453Z 17005KT 10SM BKN055 OVC070 03/00 A3010 RMK AO2 SLP201 T00330000 51011=
201703081353 METAR KBLI 081353Z AUTO 16003KT 10SM BKN050 BKN070 OVC085 03/M01 A3009 RMK AO2 SLP199 T00331006=
201703081253 METAR KBLI 081253Z AUTO 16004KT 10SM BKN065 BKN080 OVC090 03/M01 A3009 RMK AO2 SLP198 T00331006=
201703081153 METAR KBLI 081153Z AUTO 00000KT 10SM SCT070 OVC090 03/M01 A3007 RMK AO2 SLP191 70003 T00281011 10050 20028 51025=
201703081053 METAR KBLI 081053Z AUTO 00000KT 10SM FEW070 BKN090 04/M02 A3005 RMK AO2 SLP185 T00391017=
201703080953 METAR KBLI 080953Z AUTO VRB04KT 10SM FEW090 04/M02 A3003 RMK AO2 SLP178 T00391022=
201703080853 METAR KBLI 080853Z AUTO VRB05KT 10SM CLR 04/M01 A2999 RMK AO2 SLP165 T00441011 53035=
201703080753 METAR KBLI 080753Z AUTO VRB03KT 10SM CLR 04/M01 A2994 RMK AO2 SLP149 T00441006 400560022=
201703080653 METAR KBLI 080653Z AUTO 18006KT 10SM FEW032 BKN080 05/02 A2992 RMK AO2 SLP141 T00500022=
201703080625 SPECI KBLI 080625Z AUTO 18008KT 10SM SCT010 BKN065 OVC080 04/03 A2990 RMK AO2 T00440033=
201703080612 SPECI KBLI 080612Z 16013G18KT 10SM FEW009 BKN018 OVC060 04/03 A2989 RMK AO2 T00440033=
201703080553 METAR KBLI 080553Z 17009G18KT 10SM BKN020 BKN049 OVC060 04/03 A2989 RMK AO2 RAB0458E43 SLP130 P0000 60002 T00440033 10056 20044 53025=
201703080453 METAR KBLI 080453Z 18010KT 10SM BKN020 BKN049 OVC070 05/03 A2985 RMK AO2 RAB36E46 SLP117 P0000 T00500033=
201703080440 SPECI KBLI 080440Z 17009KT 10SM -RA BKN000 BKN049 OVC060 05/03 A2984 RMK AO2 RAB36 P0000 T00500033=
201703080353 METAR KBLI 080353Z 14008KT 10SM BKN018 OVC026 04/02 A2982 RMK AO2 SLP108 T00440022=
201703080253 METAR KBLI 080253Z 15008KT 10SM FEW022 BKN050 OVC095 04/02 A2981 RMK AO2 RAE39 SLP105 P0000 60002 T00440022 55001=
201703080153 METAR KBLI 080153Z 15014G21KT 10SM -RA FEW014 BKN020 OVC055 04/03 A2981 RMK AO2 SLP102 P0001 T00440028=
201703080053 METAR KBLI 080053Z 16009KT 10SM -RA OVC020 05/03 A2982 RMK AO2 SLP106 P0001 T00500028=
201703072353 METAR KBLI 072353Z 15005KT 10SM -RA OVC019 05/03 A2982 RMK AO2 SLP106 P0000 60001 T00500028 10056 20044 56014=
201703072253 METAR KBLI 072253Z 17006G15KT 8SM -RA OVC021 06/03 A2983 RMK AO2 SLP110 P0001 T00560028=
201703072153 METAR KBLI 072153Z 15011G20KT 10SM -RA BKN025 OVC033 05/02 A2984 RMK AO2 RAB12 SLP114 P0000 T00500022=
201703072131 SPECI KBLI 072131Z 14013G22KT 10SM -RA BKN025 OVC038 05/02 A2985 RMK AO2 RAB12 P0000 T00500017=
201703072112 SPECI KBLI 072112Z 15016G23KT 10SM -RA SCT025 OVC040 06/02 A2985 RMK AO2 RAB12 P0000 T00560017=
201703072053 METAR KBLI 072053Z 14011G22KT 10SM BKN027 OVC038 06/01 A2986 RMK AO2 SLP120 60000 T00560011 58028=
201703071953 METAR KBLI 071953Z 11010KT 10SM OVC027 05/01 A2989 RMK AO2 RAB03E24 SLP129 P0000 T00500011=
201703071907 SPECI KBLI 071907Z 13009KT 10SM -RA BKN027 OVC031 05/00 A2992 RMK AO2 RAB03 P0000 T00500000=
201703071853 METAR KBLI 071853Z 13008KT 10SM FEW010 BKN032 OVC045 05/00 A2992 RMK AO2 SLP141 T00500000=
201703071753 METAR KBLI 071753Z 12009KT 10SM FEW010 BKN035 OVC070 04/M01 A2994 RMK AO2 SLP148 T00441006 10050 20022 56014=
201703071653 METAR KBLI 071653Z 15009KT 10SM FEW035 OVC065 04/M01 A2996 RMK AO2 SLP153 T00441006=
201703071553 METAR KBLI 071553Z 14010KT 10SM FEW070 SCT100 BKN120 03/M01 A2997 RMK AO2 SLP157 T00331006=
201703071453 METAR KBLI 071453Z 14013G19KT 10SM CLR 03/M01 A2998 RMK AO2 SLP163 T00331006 58005 $=
201703071353 METAR KBLI 071353Z AUTO 13011KT 10SM FEW024 FEW031 03/00 A2999 RMK AO2 SLP164 T00280000 $=
201703071343 SPECI KBLI 071343Z AUTO 13010KT 10SM SCT024 SCT030 02/00 A2999 RMK AO2 T00220000 $=
201703071330 SPECI KBLI 071330Z AUTO 12012KT 10SM BKN026 OVC033 02/00 A3000 RMK AO2 T00220000 $=
201703071253 METAR KBLI 071253Z AUTO 15010KT 10SM SCT030 OVC038 03/00 A3000 RMK AO2 SLP169 T00330000 $=
201703071226 SPECI KBLI 071226Z AUTO 15011KT 10SM FEW022 BKN030 OVC036 03/00 A3000 RMK AO2 T00330000 $=
201703071153 METAR KBLI 071153Z AUTO 14011KT 10SM BKN022 OVC026 03/00 A3000 RMK AO2 SLP167 60000 70001 T00330000 10039 20022 53005 $=
201703071102 SPECI KBLI 071102Z AUTO 15015G23KT 10SM BKN024 BKN070 OVC090 04/M01 A2999 RMK AO2 T00391006 $=
201703071053 METAR KBLI 071053Z AUTO 15016G23KT 10SM SCT025 BKN070 OVC085 04/M01 A2998 RMK AO2 SLP163 T00391006 $=
201703070953 METAR KBLI 070953Z AUTO 15014G21KT 10SM OVC095 03/M01 A2998 RMK AO2 SLP161 T00331006 $=
201703070853 METAR KBLI 070853Z AUTO 13008KT 10SM FEW028 OVC095 03/M01 A2998 RMK AO2 SLP162 60000 T00281011 50002 $=
201703070753 METAR KBLI 070753Z AUTO 14009KT 10SM SCT046 BKN080 OVC100 03/M01 A2998 RMK AO2 UPE00 SLP163 P0000 T00281006 400560011 $=
201703070653 METAR KBLI 070653Z AUTO 15007KT 10SM UP BKN039 BKN047 OVC110 03/01 A2998 RMK AO2 UPB52 SLP162 P0000 T00280006 $=
201703070553 METAR KBLI 070553Z 16003KT 10SM BKN065 OVC080 03/M01 A2998 RMK AO2 SLP160 T00281011 10050 20022 51018 $=
201703070453 METAR KBLI 070453Z 14007KT 10SM CLR 02/M02 A2996 RMK AO2 SLP154 T00221017 $=
201703070353 METAR KBLI 070353Z 17006KT 10SM CLR 03/M02 A2994 RMK AO2 SLP149 T00331022 $=
201703070253 METAR KBLI 070253Z 18005KT 10SM BKN070 04/M02 A2992 RMK AO2 SLP142 T00391017 53018 $=
201703070153 METAR KBLI 070153Z 16008KT 10SM FEW024 BKN033 04/01 A2990 RMK AO2 SLP135 T00440006 $=
201703070053 METAR KBLI 070053Z 16009KT 10SM BKN030 BKN036 05/00 A2988 RMK AO2 SLP128 T00500000 $=
201703062353 METAR KBLI 062353Z 18010KT 10SM FEW021 05/01 A2987 RMK AO2 RAB21E40 SLP124 P0000 60001 T00500006 10056 20017 53006 $=
201703062309 SPECI KBLI 062309Z 17007KT 10SM FEW005 SCT026 BKN055 04/00 A2987 RMK AO2 T00440000 $=
201703062253 METAR KBLI 062253Z 17007KT 10SM SCT060 04/00 A2986 RMK AO2 SLP122 T00440000 $=
201703062153 METAR KBLI 062153Z 17009KT 10SM FEW007 SCT010 04/01 A2985 RMK AO2 SNE00 SLP118 P0001 T00390011 $=
201703062121 SPECI KBLI 062121Z 17010KT 10SM SCT005 SCT010 03/02 A2985 RMK AO2 SNE00 P0001 T00330017 $=
201703062101 SPECI KBLI 062101Z 15008KT 9SM SCT005 BKN016 BKN070 02/02 A2985 RMK AO2 SNE00 P0000 T00220022 $=
201703062056 SPECI KBLI 062056Z 15008KT 4SM -SN BR SCT005 BKN016 BKN070 03/02 A2985 RMK AO2 P0000 T00280022 $=
201703062053 METAR KBLI 062053Z 15008KT 2 1/2SM -SN BR BKN016 OVC070 02/02 A2985 RMK AO2 SNB34 SLP118 P0000 60000 T00220017 51020 $=
201703061953 METAR KBLI 061953Z 14007KT 10SM SCT013 BKN024 OVC095 04/01 A2984 RMK AO2 SNE1857 SLP113 P0000 T00390011 $=
201703061853 METAR KBLI 061853Z 14010KT 9SM -SN FEW006 BKN070 02/01 A2982 RMK AO2 RAB21E22UPB22E31SNB31 SLP106 P0000 T00170011 $=
201703061834 SPECI KBLI 061834Z 16010KT 9SM -SN FEW006 BKN070 OVC080 02/01 A2981 RMK AO2 RAB21E22UPB22E31SNB31 P0000 T00170011 $=
201703061805 SPECI KBLI 061805Z 16010KT 10SM FEW021 SCT060 BKN080 03/01 A2980 RMK AO2 T00330006 $=
201703061753 METAR KBLI 061753Z 15010KT 10SM FEW015 BKN080 03/01 A2979 RMK AO2 SLP097 T00330006 10033 20028 53023 $=
201703061653 METAR KBLI 061653Z 17011KT 10SM FEW011 FEW022 03/01 A2976 RMK AO2 SLP088 T00330011 $=
201703061553 METAR KBLI 061553Z 16012G16KT 10SM FEW011 SCT023 03/01 A2975 RMK AO2 SLP082 T00280011=
201703061453 METAR KBLI 061453Z 18007KT 10SM FEW012 SCT020 BKN110 03/01 A2972 RMK AO2 SLP074 T00330006 51019=
201703061353 METAR KBLI 061353Z AUTO 18008KT 10SM FEW075 SCT120 03/00 A2971 RMK AO2 SLP070 T00330000=
201703061253 METAR KBLI 061253Z AUTO 18009KT 10SM FEW065 BKN085 OVC120 03/00 A2970 RMK AO2 SLP065 T00330000=
201703061153 METAR KBLI 061153Z AUTO 18007KT 10SM BKN095 03/M01 A2967 RMK AO2 SLP055 60013 70039 T00331006 10039 20011 51022=
201703061053 METAR KBLI 061053Z AUTO 18008KT 10SM FEW022 BKN040 BKN090 03/01 A2964 RMK AO2 SLP045 T00330006=
201703061049 SPECI KBLI 061049Z AUTO 18007KT 10SM SCT022 BKN040 03/01 A2964 RMK AO2=
201703061031 SPECI KBLI 061031Z AUTO 17010G17KT 10SM SCT008 BKN020 BKN025 03/02 A2962 RMK AO2 T00330017=
201703061017 SPECI KBLI 061017Z AUTO 19009G20KT 10SM SCT008 BKN013 OVC019 03/02 A2961 RMK AO2 T00330022=
201703060953 METAR KBLI 060953Z AUTO 16013G22KT 10SM SCT015 BKN020 OVC026 03/02 A2960 RMK AO2 RAB07E37SNE07 SLP033 P0007 T00330022=
201703060933 SPECI KBLI 060933Z AUTO 17014KT 10SM -RA SCT007 SCT014 OVC020 03/02 A2960 RMK AO2 RAB07SNE07 P0007 T00280022=
201703060853 METAR KBLI 060853Z AUTO 17010G17KT 3SM -SN BR OVC006 02/01 A2960 RMK AO2 RAE18SNB18 SLP031 P0006 60006 T00170011 51023=
201703060847 SPECI KBLI 060847Z AUTO 18008G16KT 3SM -SN BR OVC006 02/01 A2960 RMK AO2 RAE18SNB18 P0004=
201703060829 SPECI KBLI 060829Z AUTO 16008KT 1 1/4SM R16/6000VP6000FT -SN BR SCT005 BKN008 OVC015 01/01 A2960 RMK AO2 RAE18SNB18 P0001 T00110006=
201703060821 SPECI KBLI 060821Z AUTO 17011KT 2 1/2SM -SN BR SCT008 BKN012 OVC017 02/01 A2959 RMK AO2 RAE18SNB18 P0001 T00170011=
201703060819 SPECI KBLI 060819Z AUTO 16012KT 3SM -SN BR FEW008 BKN012 OVC023 02/01 A2959 RMK AO2 RAE18SNB18 P0001 T00170011=
201703060753 METAR KBLI 060753Z AUTO 16013G17KT 9SM -RA SCT013 OVC020 03/02 A2958 RMK AO2 RAB45 CIG 017V027 SLP025 P0000 T00330017 400670006=
201703060709 SPECI KBLI 060709Z AUTO 17011G16KT 10SM FEW012 BKN019 OVC049 04/02 A2956 RMK AO2 T00390017=
201703060653 METAR KBLI 060653Z AUTO 17007KT 10SM BKN012 OVC019 04/02 A2956 RMK AO2 SLP018 T00390022=
201703060637 SPECI KBLI 060637Z AUTO 18008KT 10SM BKN012 OVC019 03/02 A2955 RMK AO2 T00330017=
201703060553 METAR KBLI 060553Z 16009G17KT 10SM BKN016 BKN022 OVC027 03/02 A2953 RMK AO2 SLP007 60004 T00330017 10056 20028 53015=
201703060453 METAR KBLI 060453Z 15012KT 10SM SCT020 BKN028 OVC055 03/01 A2950 RMK AO2 RAE12 SLP998 P0000 T00330011=
201703060410 SPECI KBLI 060410Z 14010KT 10SM -RA BKN020 BKN026 OVC032 03/01 A2949 RMK AO2 P0000 T00330011=
201703060353 METAR KBLI 060353Z 14009KT 10SM -RA SCT023 BKN055 OVC085 04/01 A2949 RMK AO2 RAB50 SLP994 P0000 T00390011=
201703060253 METAR KBLI 060253Z 11010KT 10SM FEW017 BKN038 OVC080 03/01 A2948 RMK AO2 RAE38 SLP992 P0002 60004 T00280011 53008=
201703060153 METAR KBLI 060153Z 12004KT 7SM -RA OVC025 03/02 A2947 RMK AO2 RAB08 SLP989 P0002 T00330017=
201703060053 METAR KBLI 060053Z 14015G21KT 10SM BKN029 BKN048 OVC075 05/00 A2946 RMK AO2 PK WND 13027/0012 SLP985 T00500000=
201703052353 METAR KBLI 052353Z 15015G25KT 10SM BKN031 06/00 A2946 RMK AO2 PK WND 14027/2339 SLP984 60000 T00560000 10067 20039 58006=
201703052253 METAR KBLI 052253Z 15014G25KT 10SM BKN027 OVC033 06/00 A2947 RMK AO2 RAE2156 SLP987 P0000 T00560000=
201703052153 METAR KBLI 052153Z 15010KT 10SM -RA BKN027 BKN033 OVC047 06/01 A2947 RMK AO2 RAB46 SLP987 P0000 T00610011=
201703052053 METAR KBLI 052053Z 15013G23KT 10SM FEW026 BKN038 OVC049 05/01 A2948 RMK AO2 SLP990 T00500011 58003=
201703052000 SPECI KBLI 052000Z 15010KT 10SM BKN030 BKN035 OVC060 06/01 A2948 RMK AO2 T00560006=
201703051953 METAR KBLI 051953Z 14012KT 10SM BKN025 BKN037 OVC055 06/00 A2948 RMK AO2 SLP993 T00560000=
201703051900 SPECI KBLI 051900Z 15015G19KT 10SM BKN025 BKN037 OVC055 05/01 A2949 RMK AO2 T00500006=
201703051853 METAR KBLI 051853Z 15011G21KT 10SM FEW025 BKN037 OVC055 05/01 A2949 RMK AO2 SLP994 T00500006=
201703051753 METAR KBLI 051753Z 13012KT 10SM SCT023 BKN032 OVC070 04/02 A2949 RMK AO2 RAB1656E14UPB14E17SNE1656 SLP993 P0000 60022 T00390017 10039 20006 50008=
201703051653 METAR KBLI 051653Z 12003KT 5SM -SN BR SCT008 OVC015 02/01 A2949 RMK AO2 SLP995 P0011 T00170011=
201703051649 SPECI KBLI 051649Z 14005KT 3SM -SN BR SCT008 OVC013 02/01 A2949 RMK AO2 P0011=
201703051629 SPECI KBLI 051629Z 16008G16KT 2 1/2SM -SN BR OVC007 02/02 A2949 RMK AO2 VIS 2V4 P0007 T00170017=
201703051617 SPECI KBLI 051617Z 16010KT 3SM -SN BR OVC007 02/01 A2949 RMK AO2 P0004 T00170011=
201703051603 SPECI KBLI 051603Z 15013KT 2SM -SN BR BKN008 OVC012 02/01 A2949 RMK AO2 P0002 T00170011=
201703051553 METAR KBLI 051553Z 15011KT 2 1/2SM -SN BR OVC010 02/01 A2948 RMK AO2 RAB06E46SNB46 SLP993 P0005 T00170011=
201703051544 SPECI KBLI 051544Z 14011KT 2 1/2SM RA BR SCT008 OVC013 02/01 A2948 RMK AO2 VIS 1 3/4V4 RAB06 P0003 T00220011=
201703051526 SPECI KBLI 051526Z 15013G21KT 5SM -RA BR BKN012 BKN023 OVC045 03/01 A2947 RMK AO2 RAB06 P0001 T00280011=
201703051453 METAR KBLI 051453Z 15013KT 10SM BKN037 OVC045 03/01 A2946 RMK AO2 RAE01 SLP986 P0000 60006 T00330011 53004=
201703051438 SPECI KBLI 051438Z AUTO 15015G22KT 10SM SCT019 BKN030 OVC045 03/01 A2946 RMK AO2 RAE01 P0000 T00330011=
201703051353 METAR KBLI 051353Z AUTO 13010KT 10SM -RA OVC018 03/01 A2945 RMK AO2 RAB34 SLP983 P0004 T00280011=
201703051253 METAR KBLI 051253Z AUTO 33003KT 10SM OVC023 01/01 A2945 RMK AO2 RAB12E19SNE12 SLP982 P0002 T00110006=
201703051200 SPECI KBLI 051200Z AUTO 36004KT 3SM -SN BR FEW008 BKN015 OVC020 01/01 A2945 RMK AO2 P0000 T00060006=
201703051153 METAR KBLI 051153Z AUTO 36004KT 2 1/2SM -SN BR SCT011 OVC015 01/01 A2945 RMK AO2 VIS 2V4 SLP981 P0002 60005 70008 T00060006 10033 20006 58013=
201703051148 SPECI KBLI 051148Z AUTO 01004KT 2SM -SN BR SCT011 OVC015 01/01 A2945 RMK AO2 P0002=
201703051145 SPECI KBLI 051145Z AUTO 35005KT 1 1/2SM -SN BR SCT011 OVC016 01/01 A2945 RMK AO2 P0002 T00060006=
201703051136 SPECI KBLI 051136Z AUTO 36005KT 3/4SM R16/5000VP6000FT -SN BR BKN010 BKN015 OVC020 01/01 A2945 RMK AO2 P0002 T00060006=
201703051130 SPECI KBLI 051130Z AUTO 02007KT 1 3/4SM -SN BR SCT012 OVC020 01/00 A2945 RMK AO2 P0002 T00110000=
201703051107 SPECI KBLI 051107Z AUTO 03006KT 3SM -SN BR FEW004 OVC018 01/01 A2945 RMK AO2 P0001 T00110006=
201703051056 SPECI KBLI 051056Z AUTO 03007KT 1 3/4SM -SN BR FEW004 BKN020 OVC026 01/01 A2946 RMK AO2 P0000 T00060006=
201703051053 METAR KBLI 051053Z AUTO 03006KT 2 1/2SM -SN BR BKN020 OVC025 01/01 A2946 RMK AO2 SLP984 P0001 T00110006=
201703051031 SPECI KBLI 051031Z AUTO 02005KT 3SM -SN BR BKN023 OVC029 01/01 A2946 RMK AO2 P0000 T00060006=
201703051010 SPECI KBLI 051010Z AUTO 02006KT 1SM R16/P6000FT -SN BR VV015 01/01 A2947 RMK AO2 P0000 T00060006=
201703050959 SPECI KBLI 050959Z AUTO 01005KT 3/4SM R16/P6000FT -SN BR VV013 01/00 A2948 RMK AO2 P0000 T00110000=
201703050953 METAR KBLI 050953Z AUTO 02005KT 1 1/4SM -SN BR OVC015 01/00 A2948 RMK AO2 UPB0857E03SNB03 SLP991 P0002 T00110000=
201703050949 SPECI KBLI 050949Z AUTO 03007KT 1 3/4SM -SN BR OVC017 02/M01 A2948 RMK AO2 UPB0857E03SNB03 P0002=
201703050936 SPECI KBLI 050936Z AUTO 04005KT 4SM -SN OVC025 02/M01 A2948 RMK AO2 UPB0857E03SNB03 P0001 T00221006=
201703050853 METAR KBLI 050853Z AUTO 04004KT 10SM OVC050 03/M01 A2949 RMK AO2 SLP994 T00281011 58006=
201703050753 METAR KBLI 050753Z AUTO 03005KT 10SM BKN055 OVC080 03/M02 A2949 RMK AO2 SLP995 T00281017 400720011=
201703050653 METAR KBLI 050653Z AUTO 04006KT 10SM BKN065 OVC080 03/M02 A2951 RMK AO2 SLP001 T00281017=
201703050553 METAR KBLI 050553Z 01008KT 10SM SCT120 02/M01 A2951 RMK AO2 SLP000 T00221011 10067 20022 56020=
201703050453 METAR KBLI 050453Z 01007KT 10SM SCT110 03/M01 A2952 RMK AO2 SLP004 T00281011=
201703050353 METAR KBLI 050353Z 01008KT 10SM CLR 03/M01 A2954 RMK AO2 SLP011 T00281011=
201703050253 METAR KBLI 050253Z 01007KT 10SM CLR 03/M01 A2956 RMK AO2 SLP020 T00331011 56024=
201703050153 METAR KBLI 050153Z 03007KT 10SM CLR 04/00 A2959 RMK AO2 SLP028 T00390000=
201703050053 METAR KBLI 050053Z 02007KT 10SM CLR 06/01 A2961 RMK AO2 SLP035 T00560006=
201703042353 METAR KBLI 042353Z 03007KT 10SM FEW023 07/01 A2963 RMK AO2 SLP044 60000 T00670011 10072 20022 56026=
201703042253 METAR KBLI 042253Z 01006KT 10SM FEW023 SCT046 BKN065 07/02 A2966 RMK AO2 SLP053 T00670017=
201703042204 SPECI KBLI 042204Z 03007KT 10SM FEW020 SCT026 BKN032 07/03 A2968 RMK AO2 T00720028=
201703042153 METAR KBLI 042153Z 02007KT 10SM FEW021 BKN026 OVC034 07/03 A2968 RMK AO2 SLP060 T00670028=
201703042135 SPECI KBLI 042135Z 04004KT 10SM FEW021 BKN028 07/02 A2969 RMK AO2 T00720017=
201703042127 SPECI KBLI 042127Z VRB05KT 10SM SCT028 07/02 A2969 RMK AO2 T00720017=
201703042103 SPECI KBLI 042103Z 03005KT 10SM BKN026 BKN047 OVC060 07/03 A2970 RMK AO2 T00670028=
201703042053 METAR KBLI 042053Z VRB05KT 10SM FEW013 BKN042 OVC050 06/02 A2971 RMK AO2 RAB11E20 SLP070 P0000 60000 T00610017 58019=
201703042000 SPECI KBLI 042000Z 13003KT 10SM FEW010 BKN060 OVC085 03/01 A2974 RMK AO2 T00330011=
201703041953 METAR KBLI 041953Z 10003KT 10SM BKN011 BKN055 OVC075 04/02 A2974 RMK AO2 SLP080 T00390022=
201703041918 SPECI KBLI 041918Z 12007KT 10SM BKN011 BKN055 OVC075 03/02 A2975 RMK AO2 T00330017=
201703041911 SPECI KBLI 041911Z 15004KT 10SM SCT011 SCT055 OVC075 03/01 A2975 RMK AO2 T00280011=
201703041903 SPECI KBLI 041903Z 16007KT 10SM SCT008 BKN013 OVC080 03/01 A2975 RMK AO2 T00280011=
201703041853 METAR KBLI 041853Z 16007KT 10SM BKN010 OVC026 03/02 A2975 RMK AO2 RAE12 SLP085 P0000 T00280017=
201703041842 SPECI KBLI 041842Z 12006KT 10SM BKN010 OVC026 03/02 A2976 RMK AO2 RAE12 P0000 T00280017=
201703041830 SPECI KBLI 041830Z VRB03KT 10SM BKN009 BKN015 OVC025 03/02 A2976 RMK AO2 RAE12 P0000 T00280017=
201703041753 METAR KBLI 041753Z 09004KT 3SM -RA BR FEW016 BKN021 OVC037 02/02 A2977 RMK AO2 UPB02E12B43E47RAB47SNB12E43 SLP089 P0002 60003 T00220017 10028 20011 51006=
201703041730 SPECI KBLI 041730Z 12005KT 3SM -SN BR OVC017 02/01 A2977 RMK AO2 UPB02E12SNB12 P0002 T00170006=
201703041719 SPECI KBLI 041719Z 13009KT 2 1/2SM -SN BR FEW017 BKN028 OVC065 02/01 A2977 RMK AO2 VIS 1 1/2V5 UPB02E12SNB12 P0000 T00220006=
201703041653 METAR KBLI 041653Z 14006KT 10SM FEW026 BKN090 OVC110 02/01 A2977 RMK AO2 SLP089 T00220006=
201703041553 METAR KBLI 041553Z 10004KT 10SM CLR 01/01 A2975 RMK AO2 SLP085 T00110006=
201703041453 METAR KBLI 041453Z 16007KT 10SM FEW016 02/01 A2975 RMK AO2 SLP084 60001 T00170006 51006=
201703041428 SPECI KBLI 041428Z AUTO 17005KT 10SM SCT016 SCT021 02/01 A2975 RMK AO2 T00170006=
201703041353 METAR KBLI 041353Z AUTO 16005KT 10SM BKN013 BKN055 02/01 A2975 RMK AO2 SLP084 T00170006=
201703041253 METAR KBLI 041253Z AUTO 18004KT 10SM FEW009 BKN012 OVC019 02/02 A2975 RMK AO2 RAE30 SLP083 P0001 T00220017=
201703041228 SPECI KBLI 041228Z AUTO 13007KT 10SM -RA SCT006 BKN012 OVC050 02/01 A2975 RMK AO2 P0001 T00170011=
201703041153 METAR KBLI 041153Z AUTO 16008KT 10SM -RA BKN006 BKN016 OVC025 02/02 A2973 RMK AO2 RAE04B28SNB04E28 SLP077 P0003 60004 70061 T00170017 10039 20017 51010=
201703041144 SPECI KBLI 041144Z AUTO 15009KT 10SM -RA BKN006 BKN016 OVC025 02/02 A2973 RMK AO2 RAE04B28SNB04E28 P0003 T00170017=
201703041123 SPECI KBLI 041123Z AUTO 15009KT 7SM -SN SCT008 OVC021 02/01 A2972 RMK AO2 RAE04SNB04 P0002 T00170011=
201703041101 SPECI KBLI 041101Z AUTO 17009KT 9SM -RA BKN009 OVC017 02/01 A2973 RMK AO2 P0001 T00220011=
201703041053 METAR KBLI 041053Z AUTO 16008KT 9SM -RA BKN011 OVC017 02/01 A2972 RMK AO2 RAB23 SLP074 P0001 T00220011=
201703041031 SPECI KBLI 041031Z AUTO 16012G19KT 10SM -RA FEW009 OVC029 02/01 A2972 RMK AO2 RAB23 P0000 T00220011=
201703040953 METAR KBLI 040953Z AUTO 16010KT 10SM SCT012 SCT038 OVC055 03/01 A2972 RMK AO2 SLP072 T00280011=
201703040853 METAR KBLI 040853Z AUTO 15009KT 10SM FEW030 OVC070 03/01 A2970 RMK AO2 SLP067 T00280011 51015=
201703040753 METAR KBLI 040753Z AUTO 15007KT 10SM BKN090 BKN110 03/01 A2970 RMK AO2 SLP065 T00280011 400830028=
201703040653 METAR KBLI 040653Z AUTO 14008KT 10SM OVC048 03/02 A2967 RMK AO2 SLP058 T00330017=
201703040553 METAR KBLI 040553Z 14011KT 10SM BKN060 OVC075 03/02 A2966 RMK AO2 RAE0456 SLP052 P0000 60021 T00280022 10056 20028 53009=
201703040509 SPECI KBLI 040509Z 12012KT 10SM FEW020 OVC045 03/02 A2964 RMK AO2 RAE0456 P0000 T00330017=
201703040453 METAR KBLI 040453Z 12011KT 10SM -RA BKN020 OVC043 03/02 A2964 RMK AO2 SLP047 P0002 T00330022=
201703040353 METAR KBLI 040353Z 15010KT 8SM -RA FEW009 BKN016 OVC020 04/03 A2964 RMK AO2 SLP046 P0006 T00390028=
201703040253 METAR KBLI 040253Z 14010KT 10SM -RA OVC028 04/03 A2963 RMK AO2 SLP041 P0003 60013 T00440033 56004=
201703040153 METAR KBLI 040153Z 8SM -RA FEW016 FEW024 OVC029 05/04 A2963 RMK AO2 SLP042 P0006 T00500039=
201703040130 SPECI KBLI 040130Z 26005KT 6SM -RA BR FEW007 OVC032 06/04 A2964 RMK AO2 P0005 T00560044=
201703040123 SPECI KBLI 040123Z VRB06KT 4SM -RA BR FEW007 BKN028 OVC037 06/05 A2963 RMK AO2 P0005 T00560050=
201703040116 SPECI KBLI 040116Z VRB05KT 2 1/2SM -RA BR SCT007 BKN026 OVC035 06/05 A2963 RMK AO2 P0004 T00560050=
201703040109 SPECI KBLI 040109Z VRB03KT 2 1/2SM -RA BR BKN007 BKN011 OVC035 06/05 A2964 RMK AO2 P0003 T00560050=
201703040100 SPECI KBLI 040100Z VRB04G15KT 3SM RA BR BKN007 BKN012 OVC026 06/05 A2964 RMK AO2 P0001 T00560050=
201703040053 METAR KBLI 040053Z 27008KT 6SM -RA BR SCT005 BKN020 OVC026 06/05 A2964 RMK AO2 SLP044 P0004 T00560050=
201703040000 SPECI KBLI 040000Z 28004KT 8SM -RA FEW005 BKN020 OVC026 06/06 A2964 RMK AO2 P0001 T00610056=
201703032353 METAR KBLI 032353Z 00000KT 7SM -RA BKN008 BKN015 OVC025 06/06 A2964 RMK AO2 RAB2259 SLP045 P0013 60031 T00610056 10078 20061 58021=
201703032346 SPECI KBLI 032346Z 29003KT 3SM -RA BR BKN008 BKN015 OVC025 06/06 A2964 RMK AO2 RAB2259 P0013 T00610061=
201703032336 SPECI KBLI 032336Z 29004KT 1 3/4SM RA BR BKN008 BKN015 OVC025 06/06 A2965 RMK AO2 RAB2259 P0012 T00610056=
201703032317 SPECI KBLI 032317Z VRB04KT 2 1/2SM RA BR FEW007 OVC014 06/06 A2966 RMK AO2 VIS 1 3/4V4 RAB2259 P0005 T00610056=
201703032300 SPECI KBLI 032300Z 29006KT 10SM -RA FEW007 OVC012 06/06 A2966 RMK AO2 RAB2259 P0000 T00610056=
201703032253 METAR KBLI 032253Z 31004KT 10SM BKN004 OVC012 06/06 A2967 RMK AO2 RAB2154E42 SLP055 P0001 T00610056=
201703032225 SPECI KBLI 032225Z 30004KT 9SM -RA SCT004 OVC012 06/06 A2968 RMK AO2 RAB2154 P0001 T00610056=
201703032216 SPECI KBLI 032216Z 29004KT 10SM -RA BKN004 OVC012 06/06 A2969 RMK AO2 RAB2154 P0000 T00610056=
201703032153 METAR KBLI 032153Z 29004KT 10SM FEW004 OVC012 07/07 A2970 RMK AO2 RAE22 SLP066 P0002 T00670067=
201703032112 SPECI KBLI 032112Z 00000KT 4SM -RA BR OVC012 07/07 A2974 RMK AO2 P0002 T00720067=
201703032101 SPECI KBLI 032101Z 00000KT 2 1/2SM -RA BR OVC012 07/07 A2975 RMK AO2 P0001 T00720067=
201703032053 METAR KBLI 032053Z 00000KT 3SM -RA BR OVC010 07/07 A2976 RMK AO2 SLP085 P0005 60015 T00720067 58021=
201703032006 SPECI KBLI 032006Z 21004KT 3SM -RA BR OVC010 07/07 A2979 RMK AO2 P0001 T00720072=
201703031953 METAR KBLI 031953Z VRB05KT 2 1/2SM RA BR BKN009 OVC017 07/07 A2980 RMK AO2 SLP098 P0007 T00720072=
201703031949 SPECI KBLI 031949Z 18005G16KT 2 1/2SM RA BR BKN009 OVC014 07/07 A2980 RMK AO2 CIG 006V013 P0006=
201703031940 SPECI KBLI 031940Z 18010G16KT 2 1/2SM -RA BR OVC012 08/07 A2980 RMK AO2 P0004 T00780067=
201703031900 SPECI KBLI 031900Z 17011KT 10SM -RA OVC012 08/07 A2982 RMK AO2 P0000 T00780067=
201703031853 METAR KBLI 031853Z 17010KT 9SM -RA OVC015 08/07 A2982 RMK AO2 SLP106 P0003 T00780067=
201703031753 METAR KBLI 031753Z 17010G20KT 10SM -RA OVC016 08/07 A2984 RMK AO2 RAB1655 SLP114 P0005 60005 T00780067 10083 20078 56008=
201703031653 METAR KBLI 031653Z 17016G23KT 10SM OVC015 08/06 A2985 RMK AO2 PK WND 16029/1628 RAE25 SLP116 P0000 T00780061=
201703031553 METAR KBLI 031553Z 16015G24KT 10SM -RA OVC015 08/06 A2986 RMK AO2 PK WND 17028/1517 RAB45 SLP119 P0000 T00780061=
201703031453 METAR KBLI 031453Z 16016G29KT 10SM OVC015 08/06 A2987 RMK AO2 PK WND 16032/1410 SLP122 T00830056 58022=
201703031353 METAR KBLI 031353Z AUTO 17014G25KT 10SM OVC017 08/06 A2989 RMK AO2 PK WND 15029/1320 SLP131 T00830056=
201703031253 METAR KBLI 031253Z AUTO 15020G27KT 10SM OVC016 08/06 A2991 RMK AO2 PK WND 14034/1216 SLP136 T00780056=
201703031153 METAR KBLI 031153Z AUTO 15021G27KT 10SM OVC016 08/06 A2993 RMK AO2 PK WND 14030/1104 RAE29 SLP145 P0001 60002 70005 T00780056 10083 20072 58024=
201703031053 METAR KBLI 031053Z AUTO 15017G27KT 7SM -RA OVC017 08/06 A2996 RMK AO2 PK WND 16028/1043 SLP152 P0001 T00780056=
201703030953 METAR KBLI 030953Z AUTO 15021G30KT 10SM -RA OVC019 08/04 A2999 RMK AO2 PK WND 15032/0941 RAB44 SLP162 P0000 T00780044=
201703030853 METAR KBLI 030853Z AUTO 15016G26KT 10SM OVC022 08/04 A3001 RMK AO2 PK WND 15028/0812 SLP169 60000 T00780039 58020=
201703030753 METAR KBLI 030753Z AUTO 15020G30KT 10SM OVC022 08/04 A3003 RMK AO2 PK WND 15032/0732 RAB42E51 SLP176 P0000 T00780039 400830044=
201703030653 METAR KBLI 030653Z AUTO 15021G28KT 10SM BKN024 OVC070 07/04 A3005 RMK AO2 PK WND 15031/0642 SLP183 T00720039=
201703030642 SPECI KBLI 030642Z AUTO 15022G31KT 10SM BKN022 OVC065 07/04 A3005 RMK AO2 PK WND 15031/0642 T00720039=
201703030553 METAR KBLI 030553Z 15021G25KT 10SM SCT022 SCT032 OVC060 07/04 A3007 RMK AO2 PK WND 16031/0534 RAB0455E0459B15E35 SLP189 P0000 60001 T00720044 10083 20072 58014=
201703030531 SPECI KBLI 030531Z 15019G30KT 10SM -RA SCT020 BKN041 OVC060 07/04 A3008 RMK AO2 PK WND 14031/0459 RAB0455E0459B15 P0000 T00720044=
201703030453 METAR KBLI 030453Z 15018G26KT 10SM OVC023 07/04 A3008 RMK AO2 PK WND 15032/0431 SLP195 T00720044=
201703030353 METAR KBLI 030353Z 15016G22KT 10SM OVC023 07/04 A3010 RMK AO2 RAE18 SLP200 P0001 T00720044=
201703030253 METAR KBLI 030253Z 15011KT 10SM -RA OVC022 07/05 A3011 RMK AO2 SLP203 P0000 60000 T00720050 58012=
201703030153 METAR KBLI 030153Z 15014KT 10SM -RA SCT023 BKN028 OVC050 07/05 A3012 RMK AO2 RAE07B36 SLP209 P0000 T00720050=
201703030053 METAR KBLI 030053Z 15015KT 10SM -RA SCT026 BKN039 OVC060 08/04 A3014 RMK AO2 RAB45 SLP214 P0000 T00780044=
201703030048 SPECI KBLI 030048Z 15014KT 10SM -RA SCT026 SCT039 OVC060 08/04 A3014 RMK AO2 RAB45 P0000=
201703022353 METAR KBLI 022353Z 15010KT 10SM OVC026 08/04 A3017 RMK AO2 SLP225 60002 T00830044 10083 20072 56020=
201703022253 METAR KBLI 022253Z 15016G22KT 10SM OVC025 08/04 A3019 RMK AO2 SLP231 T00830044=
201703022153 METAR KBLI 022153Z 15013KT 10SM BKN026 BKN032 OVC070 08/04 A3020 RMK AO2 SLP236 T00780044=
201703022053 METAR KBLI 022053Z 15014KT 10SM BKN019 BKN024 OVC070 08/05 A3023 RMK AO2 RAE53 SLP245 P0002 60002 T00780050 58008=
201703021953 METAR KBLI 021953Z 16013G23KT 10SM -RA OVC021 08/04 A3025 RMK AO2 RAB23 SLP251 P0000 T00780044=
201703021853 METAR KBLI 021853Z 16011G17KT 10SM OVC022 08/04 A3025 RMK AO2 SLP252 T00780039=
201703021753 METAR KBLI 021753Z 16012G24KT 10SM SCT024 08/03 A3025 RMK AO2 SLP253 T00780033 10078 20044 56011=
201703021653 METAR KBLI 021653Z 15012G19KT 10SM SCT024 08/03 A3026 RMK AO2 SLP253 T00780033=
201703021553 METAR KBLI 021553Z 14012KT 10SM SCT026 OVC085 07/03 A3026 RMK AO2 SLP256 T00720033=
201703021453 METAR KBLI 021453Z 15012KT 10SM SCT027 OVC090 07/04 A3028 RMK AO2 SLP264 T00670039 58013=
201703021353 METAR KBLI 021353Z AUTO 15011KT 10SM SCT025 OVC090 07/04 A3030 RMK AO2 SLP269 T00670039=
201703021253 METAR KBLI 021253Z AUTO 15009KT 10SM OVC022 07/04 A3031 RMK AO2 SLP272 T00670039=
201703021202 SPECI KBLI 021202Z AUTO 14008KT 6SM BR OVC026 06/04 A3032 RMK AO2 T00610044=
201703021153 METAR KBLI 021153Z AUTO 00000KT 2 1/2SM BR OVC025 04/04 A3032 RMK AO2 SLP277 60008 70009 T00440044 10056 20044 58020=
201703021053 METAR KBLI 021053Z AUTO 00000KT 4SM BR OVC025 04/04 A3034 RMK AO2 SLP284 T00440044=
201703021022 SPECI KBLI 021022Z AUTO 00000KT 5SM BR BKN029 OVC036 04/04 A3036 RMK AO2 T00440044=
201703021005 SPECI KBLI 021005Z AUTO 00000KT 6SM BR SCT024 BKN030 OVC035 04/04 A3036 RMK AO2 T00440044=
201703020953 METAR KBLI 020953Z AUTO 02004KT 6SM BR BKN024 OVC033 04/04 A3037 RMK AO2 SLP291 T00440044=
201703020853 METAR KBLI 020853Z AUTO 00000KT 10SM OVC020 04/04 A3038 RMK AO2 RAE48 SLP296 P0003 60008 T00440044 58007=
201703020753 METAR KBLI 020753Z AUTO 32003KT 3SM RA BR OVC018 05/05 A3039 RMK AO2 RAB16 SLP300 P0004 T00500050 400780050=
201703020745 SPECI KBLI 020745Z AUTO 36004KT 4SM -RA BR OVC018 05/05 A3039 RMK AO2 RAB16 P0003 T00500050=
201703020738 SPECI KBLI 020738Z AUTO 34003KT 2 1/2SM -RA BR OVC018 05/04 A3040 RMK AO2 RAB16 P0002 T00500044=
201703020653 METAR KBLI 020653Z AUTO 00000KT 10SM OVC018 05/05 A3040 RMK AO2 RAB19E41 SLP302 P0001 T00500050=
201703020553 METAR KBLI 020553Z 12003KT 10SM OVC024 06/04 A3040 RMK AO2 RAE05 SLP304 P0000 60001 T00560044 10072 20056 58004=
201703020529 SPECI KBLI 020529Z 11005KT 10SM OVC028 06/04 A3040 RMK AO2 RAE05 P0000 T00560044=
201703020453 METAR KBLI 020453Z 11003KT 10SM -RA BKN030 OVC070 06/04 A3041 RMK AO2 RAB51 SLP307 P0000 T00560044=
201703020400 SPECI KBLI 020400Z 10005KT 10SM SCT034 OVC049 06/04 A3041 RMK AO2 T00560044=
201703020353 METAR KBLI 020353Z 11005KT 10SM BKN028 OVC034 06/04 A3041 RMK AO2 RAE12 SLP307 P0000 T00560044=
201703020253 METAR KBLI 020253Z 12003KT 8SM -RA BKN028 OVC036 06/05 A3041 RMK AO2 SLP308 P0001 60001 T00560050 55000=
201703020153 METAR KBLI 020153Z 16004KT 10SM -RA BKN043 OVC055 06/04 A3041 RMK AO2 RAB0055 SLP307 P0000 T00610044=
201703020053 METAR KBLI 020053Z 17007KT 10SM BKN055 OVC070 07/03 A3042 RMK AO2 SLP308 T00670033=
201703012353 METAR KBLI 012353Z 17007KT 10SM SCT050 OVC070 07/04 A3042 RMK AO2 SLP308 60000 T00670039 10078 20067 53006=
201703012253 METAR KBLI 012253Z 16007KT 10SM BKN035 BKN045 OVC055 07/04 A3041 RMK AO2 RAB34E44 SLP306 P0000 T00720039=
201703012153 METAR KBLI 012153Z 17011G16KT 10SM FEW020 OVC055 07/04 A3040 RMK AO2 SLP302 T00720039=
201703012053 METAR KBLI 012053Z 16011G16KT 10SM FEW022 OVC060 07/04 A3040 RMK AO2 SLP301 60000 T00720039 51020=
201703011953 METAR KBLI 011953Z 16012G17KT 10SM FEW022 OVC060 07/04 A3039 RMK AO2 RAE01 SLP298 P0000 T00670044=
201703011853 METAR KBLI 011853Z 17008G16KT 10SM -RA FEW022 OVC060 07/04 A3037 RMK AO2 RAB50 SLP292 P0000 T00670044=
201703011753 METAR KBLI 011753Z 17008KT 10SM FEW019 SCT043 OVC070 07/04 A3034 RMK AO2 SLP282 T00670039 10072 20061 51032=
201703011653 METAR KBLI 011653Z 17011KT 10SM FEW017 SCT022 07/04 A3031 RMK AO2 SLP272 T00670039=
201703011553 METAR KBLI 011553Z 18009G17KT 10SM FEW010 BKN070 OVC090 06/04 A3028 RMK AO2 SLP260 T00610039=
201703011453 METAR KBLI 011453Z 18007KT 10SM FEW015 OVC060 07/03 A3024 RMK AO2 SLP249 T00670033 53022=
201703011353 METAR KBLI 011353Z AUTO 18006KT 10SM FEW023 BKN039 OVC055 07/04 A3022 RMK AO2 SLP242 T00670039=
201703011311 SPECI KBLI 011311Z AUTO 17010G15KT 10SM FEW024 SCT029 OVC050 06/04 A3020 RMK AO2 T00610044=
201703011253 METAR KBLI 011253Z AUTO 17009G20KT 10SM FEW013 BKN027 OVC034 06/04 A3019 RMK AO2 SLP233 T00610044=
201703011153 METAR KBLI 011153Z AUTO 17012KT 10SM FEW014 BKN026 OVC034 06/04 A3018 RMK AO2 RAB29E37 SLP227 P0000 60000 70004 T00610039 10072 20050 51014=
201703011053 METAR KBLI 011053Z AUTO 16013G17KT 10SM BKN021 OVC025 06/04 A3016 RMK AO2 RAB26E46 SLP223 P0000 T00610039=
201703011029 SPECI KBLI 011029Z AUTO 17009G19KT 10SM -RA SCT021 BKN027 OVC039 06/04 A3016 RMK AO2 RAB26 P0000 T00610039=
201703010953 METAR KBLI 010953Z AUTO 17011G21KT 10SM FEW026 BKN034 OVC050 07/03 A3015 RMK AO2 SLP218 T00720028=
201703010853 METAR KBLI 010853Z AUTO 16013G19KT 10SM SCT029 BKN037 OVC060 06/03 A3013 RMK AO2 RAB0754E06 SLP213 P0000 60000 T00610033 51013=
201703010825 SPECI KBLI 010825Z AUTO 16011G20KT 10SM SCT022 BKN037 OVC060 06/03 A3014 RMK AO2 RAB0754E06 P0000 T00560033=
201703010753 METAR KBLI 010753Z AUTO 17011KT 10SM BKN022 OVC029 06/03 A3013 RMK AO2 RAE11B33E45 SLP210 P0000 T00560033 400671050=
201703010653 METAR KBLI 010653Z AUTO 16013KT 10SM -RA BKN023 OVC028 06/03 A3012 RMK AO2 PK WND 15026/0608 RAE28B33 SLP207 P0000 T00560028=
201703010628 SPECI KBLI 010628Z AUTO 17014G21KT 10SM OVC027 06/02 A3011 RMK AO2 PK WND 15026/0608 RAE28 P0000 T00560022=
201703010553 METAR KBLI 010553Z 15015G27KT 10SM -RA OVC030 06/02 A3010 RMK AO2 PK WND 16029/0512 RAB25 SLP201 P0000 60000 T00610017 10067 20044 53002=
201703010453 METAR KBLI 010453Z 15018G26KT 10SM OVC050 06/01 A3008 RMK AO2 PK WND 14026/0453 SLP194 T00610006=
201703010353 METAR KBLI 010353Z 15012KT 10SM BKN060 OVC075 06/M01 A3007 RMK AO2 SLP194 T00561006=
201703010253 METAR KBLI 010253Z 15010G16KT 10SM OVC050 05/M01 A3009 RMK AO2 SLP198 60000 T00501011 58006=
201703010153 METAR KBLI 010153Z 15010KT 10SM FEW039 OVC055 05/M01 A3010 RMK AO2 RAB16E27 SLP202 P0000 T00501011=
201703010053 METAR KBLI 010053Z 14009KT 10SM FEW034 BKN050 OVC070 05/01 A3011 RMK AO2 SLP204 T00500006=

# No short TAF reports from KBLI in databse.

###################################
#  large TAF from KBLI
###################################
201703312337 TAF KBLI 312337Z 0100/0124 VRB03KT P6SM BKN070 OVC090 FM011000
                       16005KT P6SM -RA SCT020 OVC030 FM011300
                       16010KT P6SM -RA BKN020 FM011600 17011G18KT
                       P6SM VCSH SCT015 BKN025 OVC035 FM012100
                       19009KT P6SM SCT025 BKN035=
201703311736 TAF KBLI 311736Z 3118/0118 16005KT P6SM SCT025 SCT045 BKN120 FM312200
                       18005KT P6SM BKN080 OVC150 FM010700 12003KT
                       P6SM VCSH SCT025 OVC045 FM011000 16005KT
                       P6SM -RA SCT012 OVC020 FM011600 17011G18KT
                       P6SM VCSH SCT015 BKN025 OVC035=
201703311120 TAF KBLI 311120Z 3112/0112 00000KT P6SM SCT060 SCT200
                      TEMPO 3112/3116 BKN025 FM311900 17005KT P6SM
                       SCT060 OVC200 FM010100 VRB03KT P6SM SCT050
                       OVC100 FM010400 17005KT P6SM VCSH SCT030
                       OVC050 FM011000 16005KT P6SM -RA BKN030=
201703310520 TAF KBLI 310520Z 3106/0106 VRB03KT P6SM SCT040 FM311000 00000KT
                       P6SM SCT015 BKN200
                      TEMPO 3112/3116 BKN015 FM311900 17005KT P6SM
                       SCT030 OVC200 FM010200 VRB03KT P6SM SCT030
                       OVC100=
201703302320 TAF KBLI 302320Z 3100/3124 VRB05KT P6SM SCT040 FM310400 VRB03KT
                       P6SM SCT040 FM311000 00000KT P6SM SCT015
                       BKN200
                      TEMPO 3112/3116 BKN015 FM311900 VRB03KT P6SM
                       SCT030 OVC200=
201703301720 TAF KBLI 301720Z 3018/3118 23007KT P6SM SCT015 BKN035 FM302100
                       24010KT P6SM SCT020 BKN040 FM310000 30010KT
                       P6SM SCT025 BKN050 FM310600 VRB03KT P6SM
                       SCT040 SCT200 FM311700 16006KT P6SM BKN200=
201703301120 TAF KBLI 301120Z 3012/3112 19006KT P6SM VCSH BKN045 FM302100 24006KT
                       P6SM VCSH BKN045 FM310100 VRB03KT P6SM SCT050
                       SCT200=
201703300520 TAF KBLI 300520Z 3006/3106 17006KT P6SM OVC050 FM301200 19006KT
                       P6SM VCSH OVC025 FM302100 24006KT P6SM VCSH
                       BKN045 FM310100 VRB03KT P6SM SCT050 SCT200=
201703292328 TAF KBLI 292328Z 3000/3024 17008KT P6SM VCSH OVC060
                      TEMPO 3000/3003 BKN035 BKN050 FM300300 19008G16KT
                       P6SM VCSH OVC030 FM300600 18006G15KT P6SM
                       VCSH OVC019 FM301200 19006KT P6SM VCSH OVC019
                       FM302100 30006KT P6SM VCSH BKN045=
201703291733 TAF KBLI 291733Z 2918/3018 03006KT P6SM OVC026 FM292000 20015G25KT
                       P6SM VCSH BKN030 OVC050 FM292300 22013G24KT
                       P6SM SCT035 BKN050
                      TEMPO 2923/3003 BKN035 BKN050 FM300300 21013KT
                       P6SM VCSH BKN035 FM300600 21010KT P6SM VCSH
                       OVC025=
201703291505 TAF AMD KBLI 291505Z 2915/3012 03005KT 2SM -RA BR FEW019 OVC028
                       TEMPO 2915/2918 5SM -RA BR BKN020 OVC035
                       FM291800 15015G25KT P6SM -RA BKN028 OVC050
                       FM292100 17013KT P6SM -SHRA BKN035 OVC050
                       FM300000 17009KT P6SM VCSH SCT035 BKN060
                       BKN200
                      PROB30 3006/3012 -SHRA OVC030=
201703291125 TAF KBLI 291125Z 2912/3012 10013G20KT P6SM -RA SCT020 OVC035
                      TEMPO 2914/2918 5SM -RA BR BKN020 OVC035
                       FM291800 15015G25KT P6SM -RA BKN028 OVC050
                       FM292100 17013KT P6SM -SHRA BKN035 OVC050
                       FM300000 17009KT P6SM VCSH SCT035 BKN060
                       BKN200
                      PROB30 3006/3012 -SHRA OVC030=
201703290805 KBLI 290805Z 2908/3006 13013KT 6SM -RA BR SCT028 OVC050
                      TEMPO 2908/2912 13018G28KT BKN028 OVC050
                       FM291200 11015G25KT P6SM -RA BKN015 OVC030
                       FM291800 15015G25KT P6SM -SHRA BKN022 OVC050
                       FM292100 17013KT P6SM VCSH BKN035 OVC050
                       PROB30 2921/3001 -SHRA FM300300 17009KT
                       P6SM VCSH SCT035 BKN050 BKN200=
201703290539 TAF KBLI 290539Z 2906/3006 13013KT 5SM -RA BR SCT007 OVC015
                      TEMPO 2908/2912 13018G28KT FM291200 11015G25KT
                       P6SM -RA BKN015 OVC030 FM291800 15015G25KT
                       P6SM -SHRA BKN022 OVC050 FM292100 17013KT
                       P6SM VCSH BKN035 OVC050
                      PROB30 2921/3001 -SHRA FM300300 17009KT P6SM
                       VCSH SCT035 BKN050 BKN200=
201703290432 KBLI 290432Z 2905/2924 15011KT P6SM -RA BKN025 OVC050 FM291000
                       16012G22KT 4SM RA BR OVC012 FM291500 18012G22KT
                       P6SM -RA BKN015 OVC030 FM292000 22012G22KT
                       P6SM VCSH SCT020 BKN040=
201703290136 KBLI 290136Z 2902/2924 15013G20KT P6SM VCSH SCT025 OVC060
                      TEMPO 2902/2906 -RA OVC025 FM291000 16012G22KT
                       4SM RA BR OVC012 FM291500 18012G22KT P6SM
                       -RA BKN015 OVC030 FM292000 22012G22KT P6SM
                       VCSH SCT020 BKN040=
201703282320 TAF KBLI 282320Z 2900/2924 15012G20KT P6SM -RA OVC022 FM291000
                       16012G22KT 4SM RA BR OVC012 FM291500 18012G22KT
                       P6SM -RA BKN015 OVC030 FM292000 22012G22KT
                       P6SM VCSH SCT020 BKN040=
201703281720 TAF KBLI 281720Z 2818/2918 15018G28KT P6SM -RA OVC020 FM290000
                       18012G22KT P6SM -RA OVC020 FM290600 15015G25KT
                       5SM -RA BR OVC015=
201703281126 TAF KBLI 281126Z 2812/2912 15018G28KT P6SM VCSH OVC022
                      TEMPO 2812/2815 -RA FM281500 15013G23KT 6SM
                       -RA BR SCT009 OVC020 FM281900 15020G30KT
                       P6SM -RA BKN028 OVC050 FM290300 15013G22KT
                       5SM -RA BR OVC022 FM290900 12013KT 5SM -RA
                       BR SCT007 OVC018=
201703280941 KBLI 280941Z 2810/2906 15015G23KT P6SM VCSH SCT022 OVC060
                      TEMPO 2810/2812 -RA BKN022 OVC050 FM281200
                       15015G23KT 6SM -RA BR SCT007 OVC020
                      TEMPO 2812/2816 4SM -RA BR FM281800 15018G28KT
                       P6SM -RA BKN028 OVC050=
201703280807 KBLI 280807Z 2808/2906 15012G20KT P6SM -RA FEW009 SCT020 OVC035
                       TEMPO 2808/2809 FEW009 OVC020 FM280900 15012KT
                       6SM -RA BR SCT007 OVC020
                      TEMPO 2811/2815 4SM -RA BR FM281800 15018G28KT
                       P6SM -RA BKN028 OVC050=
201703280537 TAF KBLI 280537Z 2806/2906 15012KT P6SM -RA FEW009 SCT020 OVC035
                       TEMPO 2806/2809 FEW009 OVC020 FM280900 15012KT
                       6SM -RA BR SCT007 OVC020
                      TEMPO 2811/2815 4SM -RA BR FM281800 15018G28KT
                       P6SM -RA BKN028 OVC050=
201703280253 KBLI 280253Z 2803/2824 17009KT P6SM VCSH SCT028 BKN035 OVC100
                      TEMPO 2803/2807 -RA BKN028 OVC060 FM281000
                       16012KT P6SM -RA BKN025 OVC050 FM282000
                       16012G22KT P6SM -RA OVC020=
201703280154 KBLI 280154Z 2802/2824 17007KT P6SM VCSH FEW030 BKN070 OVC150 FM281000
                       16012KT P6SM -RA BKN025 OVC050 FM282000
                       16012G22KT P6SM -RA OVC020=
201703272320 TAF KBLI 272320Z 2800/2824 18010KT P6SM SCT020 BKN060 FM281000
                       16012KT P6SM -RA BKN025 OVC050 FM282000
                       16012G22KT P6SM -RA OVC020=
201703271720 TAF KBLI 271720Z 2718/2818 16014KT P6SM VCSH BKN025 BKN040 FM280000
                       20010KT P6SM SCT030 BKN050 FM280900 18008KT
                       P6SM -RA BKN030 OVC050 FM281200 16014KT
                       P6SM -RA OVC025=
201703271131 TAF KBLI 271131Z 2712/2812 13007KT P6SM VCSH OVC020
                      TEMPO 2714/2718 -SHRA FM271800 17012KT P6SM
                       -SHRA BKN028 OVC050 FM280000 17007KT P6SM
                       VCSH SCT028 BKN035 BKN050
                      PROB30 2800/2806 -SHRA FM280600 15007KT P6SM
                       -RA SCT028 BKN035 OVC050=
201703270535 TAF KBLI 270535Z 2706/2806 12006KT P6SM -SHRA SCT020 OVC035
                      TEMPO 2706/2710 5SM -SHRA BR BKN020 OVC035
                       FM271000 15008KT P6SM -SHRA OVC020 FM271800
                       15010KT P6SM -SHRA OVC025 FM272100 17010KT
                       P6SM -SHRA SCT028 BKN035 OVC050 FM280300
                       17004KT P6SM SCT035 BKN050=
201703270232 KBLI 270232Z 2703/2724 15007KT P6SM -RA OVC035
                      TEMPO 2703/2706 4SM -RA BR OVC025 FM270600
                       17010KT P6SM VCSH BKN035 BKN050 FM271200
                       16010KT P6SM -SHRA BKN030 BKN045 FM272100
                       17010KT P6SM VCSH SCT035 BKN050=
201703262321 TAF KBLI 262321Z 2700/2724 14010KT P6SM SCT030 OVC045
                      TEMPO 2700/2703 -RA OVC030 FM270300 16012KT
                       P6SM -SHRA BKN030 OVC050 FM270600 17010KT
                       P6SM VCSH BKN035 BKN050 FM271200 16010KT
                       P6SM -SHRA BKN030 BKN045 FM272100 17010KT
                       P6SM VCSH SCT035 BKN050=
201703261733 TAF KBLI 261733Z 2618/2718 14010KT P6SM -RA BKN035 OVC050 FM262300
                       15012KT 5SM -RA BR OVC030 FM270200 16012KT
                       P6SM -SHRA BKN030 OVC050 FM270600 17010KT
                       P6SM VCSH BKN035 BKN050 FM271200 16010KT
                       P6SM -SHRA BKN030 BKN045=
201703261120 TAF KBLI 261120Z 2612/2712 07006KT P6SM BKN050 OVC110 FM261500
                       09009KT P6SM -RA BKN035 OVC050 FM261800
                       11015G25KT P6SM -RA OVC035 FM262100 11015G25KT
                       5SM -RA BR OVC028 FM270300 15013G22KT P6SM
                       -SHRA SCT009 OVC022 FM270600 17009KT P6SM
                       -SHRA BKN022 OVC040=
201703260901 TAF AMD KBLI 260901Z 2609/2706 VRB03KT P6SM SCT050 OVC150 FM261200
                       06006KT P6SM BKN050 OVC110 FM261500 09009KT
                       P6SM -RA BKN035 OVC050 FM261800 11013G20KT
                       P6SM -RA OVC035 FM262100 11015G25KT 5SM
                       -RA BR OVC028 FM270300 14013G20KT P6SM -SHRA
                       SCT009 OVC022=
201703260536 TAF KBLI 260536Z 2606/2706 13005KT P6SM BKN050 OVC150 FM261200
                       06006KT P6SM BKN050 OVC110 FM261500 09009KT
                       P6SM -RA BKN035 OVC050 FM261800 11013G20KT
                       P6SM -RA OVC035 FM262100 11015G25KT 5SM
                       -RA BR OVC028 FM270300 14013G20KT P6SM -SHRA
                       SCT009 OVC022=
201703260208 KBLI 260208Z 2602/2624 15005KT P6SM VCSH BKN060 OVC200 FM260600
                       VRB03KT P6SM SCT070 OVC150 FM261200 05006KT
                       P6SM BKN070 OVC120 FM261900 06009KT P6SM
                       -RA BKN045 OVC070=
201703260207 KBLI 260207Z 2602/2624 15005KT P6SM BKN060 OVC200 FM260600 VRB03KT
                       P6SM SCT070 OVC150 FM261200 05006KT P6SM
                       BKN070 OVC120 FM261900 06009KT P6SM -RA
                       BKN045 OVC070=
201703252320 TAF KBLI 252320Z 2600/2624 16005KT P6SM BKN050 FM260300 VRB03KT
                       P6SM SCT050 BKN200 FM261200 05006KT P6SM
                       BKN070 OVC120 FM261900 06009KT P6SM -RA
                       BKN045 OVC070=
201703251725 TAF KBLI 251725Z 2518/2618 19009KT P6SM VCSH SCT035 BKN050 FM260000
                       17005KT P6SM SCT050 FM261200 05006KT P6SM
                       BKN070 OVC120=
201703251421 KBLI 251421Z 2514/2612 17008KT P6SM VCSH SCT030 BKN050 FM251800
                       19009KT P6SM VCSH SCT035 BKN050 FM260000
                       17004KT P6SM SCT035 BKN070 BKN200 FM260600
                       12004KT P6SM SCT070 BKN200=
201703251140 TAF KBLI 251140Z 2512/2612 17013KT P6SM VCSH BKN025 OVC050
                      TEMPO 2512/2516 17013G22KT 5SM SHRA FM251800
                       19009KT P6SM VCSH BKN035 BKN060
                      TEMPO 2518/2522 -SHRA FM260000 17004KT P6SM
                       SCT035 BKN070 BKN200 FM260600 12004KT P6SM
                       SCT070 BKN200=
201703251031 KBLI 251031Z 2511/2606 17013KT P6SM VCSH BKN025 OVC050
                      TEMPO 2511/2514 17015G22KT 5SM SHRA FM251400
                       17011KT P6SM VCSH BKN025 OVC050 FM251800
                       19009KT P6SM VCSH SCT030 BKN050 FM260000
                       17004KT P6SM FEW035 BKN060=
201703250758 KBLI 250758Z 2508/2606 16012KT P6SM VCSH SCT022 OVC045
                      TEMPO 2508/2510 16012G22KT BKN022 OVC040
                       FM251000 17013KT P6SM -SHRA BKN018 OVC035
                       FM251400 17011KT P6SM VCSH BKN025 OVC050
                       FM251800 19009KT P6SM VCSH SCT030 BKN050
                       PROB30 2518/2524 -SHRA BKN030 OVC050 FM260000
                       17004KT P6SM FEW035 BKN060=
201703250523 TAF KBLI 250523Z 2506/2606 17011KT P6SM VCSH SCT018 BKN035 BKN050
                       TEMPO 2506/2510 -SHRA BKN018 OVC035 FM251000
                       17013KT P6SM -SHRA BKN018 OVC035 FM251400
                       17011KT P6SM VCSH BKN025 OVC050 FM251800
                       19009KT P6SM VCSH SCT030 BKN050
                      PROB30 2518/2524 -SHRA BKN030 OVC050 FM260000
                       17004KT P6SM FEW035 BKN060=
201703250338 KBLI 250338Z 2504/2524 16012KT P6SM VCSH FEW015 SCT025 BKN050
                      TEMPO 2504/2506 4SM SHRA BKN020 OVC035 FM251300
                       15010KT P6SM BKN030 BKN045 FM251800 17007KT
                       P6SM SCT040 BKN050=
201703242327 TAF KBLI 242327Z 2500/2524 16012G22KT P6SM SCT030 BKN045
                      TEMPO 2500/2504 -SHRA BKN030 OVC045 FM250400
                       16012KT P6SM VCSH SCT030 BKN050 FM251300
                       15010KT P6SM BKN030 BKN045 FM251800 17007KT
                       P6SM SCT040 BKN050=
201703241813 KBLI 241813Z 2418/2518 15010KT P6SM VCSH SCT030 BKN045
                      TEMPO 2418/2420 BKN025 OVC045 FM242000 16012G22KT
                       P6SM SCT030 BKN045
                      TEMPO 2421/2501 -SHRA BKN030 OVC045 FM250300
                       16012KT P6SM VCSH SCT030 BKN050 FM251300
                       15010KT P6SM BKN030 BKN045=
201703241721 TAF KBLI 241721Z 2418/2518 15010KT P6SM VCSH SCT030 BKN045 FM242000
                       16012G22KT P6SM SCT030 BKN045
                      TEMPO 2421/2501 -SHRA BKN030 OVC045 FM250300
                       16012KT P6SM VCSH SCT030 BKN050 FM251300
                       15010KT P6SM BKN030 BKN045=
201703241130 TAF KBLI 241130Z 2412/2512 16008KT P6SM BKN040 OVC090
                      TEMPO 2414/2418 P6SM -SHRA BKN025 OVC040
                       FM241800 18012G22KT P6SM -SHRA SCT030 BKN045
                       OVC060 FM250300 16012KT P6SM VCSH SCT040
                       BKN060 BKN100=
201703240520 TAF KBLI 240520Z 2406/2506 12010KT P6SM -RA SCT045 BKN060 OVC070
                       FM240800 11016G24KT P6SM -RA OVC050 FM241200
                       13013G22KT P6SM -SHRA SCT040 BKN050 FM250300
                       20012KT P6SM VCSH SCT025 BKN050=
201703232320 TAF KBLI 232320Z 2400/2424 15016G27KT P6SM SCT035 BKN100 BKN200
                       FM240300 13017G28KT P6SM -RA SCT035 OVC050
                       FM241200 13013G22KT P6SM -SHRA SCT040 BKN050=
201703231720 TAF KBLI 231720Z 2318/2418 14015G25KT P6SM SCT025 BKN080 BKN150
                       FM232100 15016G27KT P6SM SCT035 BKN070 OVC150
                       FM240200 13017G28KT P6SM -RA SCT035 OVC050
                       FM241200 13013G22KT P6SM -SHRA SCT040 BKN050=
201703231514 KBLI 231514Z 2315/2412 14015G25KT P6SM SCT025 BKN080 FM232100 15016G27KT
                       P6SM SCT060 BKN120 FM240300 13017G28KT P6SM
                       -RA OVC040=
201703231120 TAF KBLI 231120Z 2312/2412 14014KT P6SM SCT025 BKN080
                      TEMPO 2313/2317 BKN025 OVC070 FM232100 16014G22KT
                       P6SM SCT060 BKN120 FM240300 15018G28KT P6SM
                       -RA OVC040=
201703230535 TAF KBLI 230535Z 2306/2406 15003KT P6SM OVC060 FM231200 15012G20KT
                       P6SM SCT025 BKN070 FM232100 14014G24KT P6SM
                       SCT060 OVC120 FM240300 06010KT P6SM -RA
                       SCT030 OVC040=
201703222339 TAF KBLI 222339Z 2300/2324 18013G22KT P6SM -SHRA SCT035 BKN050
                       FM230200 20011KT P6SM VCSH SCT030 BKN050
                       FM231200 15012G20KT P6SM SCT025 BKN070 FM232100
                       14014G24KT P6SM SCT060 OVC120=
201703221732 TAF KBLI 221732Z 2218/2318 16018G30KT P6SM SCT030 BKN050
                      TEMPO 2218/2222 5SM -SHRA BKN030 OVC045 FM222200
                       17016G28KT P6SM SCT030 BKN050
                      TEMPO 2222/2302 -SHRA BKN030 OVC045 FM230200
                       17012KT P6SM VCSH SCT030 BKN050 FM231200
                       16010KT P6SM SCT030 BKN050=
201703221423 KBLI 221423Z 2214/2312 16015G25KT P6SM VCSH SCT035 BKN045 FM221800
                       16018G28KT P6SM -SHRA SCT030 BKN050
                      TEMPO 2218/2222 5SM -SHRA BR OVC025 FM230400
                       17008KT P6SM VCSH SCT030 BKN060 BKN100=
201703221120 TAF KBLI 221120Z 2212/2312 05005KT P6SM VCSH BKN100 BKN120 FM221600
                       16014G22KT P6SM -SHRA BKN035 OVC050 FM222000
                       16018G28KT P6SM -SHRA SCT030 BKN050
                      TEMPO 2220/2224 5SM -SHRA BR OVC025 FM230400
                       17008KT P6SM VCSH SCT030 BKN060 BKN100=
201703220536 TAF KBLI 220536Z 2206/2306 12005KT P6SM VCSH SCT035 BKN050 OVC080
                       FM221600 16018G26KT P6SM -SHRA BKN035 OVC050
                       FM221700 16017G28KT P6SM -SHRA SCT030 BKN050
                       TEMPO 2220/2224 5SM -SHRA BR OVC025 FM230300
                       17008KT P6SM VCSH SCT030 BKN060 BKN100=
201703212320 TAF KBLI 212320Z 2200/2224 12005KT P6SM VCSH BKN035 BKN050 OVC080
                       FM220400 12005KT P6SM SCT030 BKN050 FM221500
                       15013G25KT P6SM -RA BKN030 OVC050 FM221700
                       16017G28KT P6SM VCSH SCT030 BKN050 FM222100
                       18014G23KT P6SM VCSH SCT030 SCT050=
201703211720 TAF KBLI 211720Z 2118/2218 03007KT P6SM VCSH SCT035 OVC050 FM212100
                       16007KT P6SM -SHRA BKN035 BKN050 OVC080
                       FM220400 13005KT P6SM VCSH SCT030 BKN040
                       FM221600 15015G25KT P6SM -SHRA BKN030 OVC050=
201703211130 TAF KBLI 211130Z 2112/2212 03007KT P6SM FEW060 BKN090 FM211500
                       03007KT P6SM -RA OVC050 FM211900 09011G18KT
                       P6SM -RA OVC030 FM212200 16007KT P6SM VCSH
                       SCT030 BKN050 OVC080=
201703210530 TAF KBLI 210530Z 2106/2206 01005KT P6SM -RA BKN050 OVC060 FM211500
                       03007KT P6SM -RA OVC050 FM211900 09011G18KT
                       P6SM -RA OVC030=
201703202328 TAF KBLI 202328Z 2100/2124 04015G21KT P6SM BKN090 FM210500 02007KT
                       P6SM VCSH OVC070 FM211500 03007KT P6SM -RA
                       OVC060 FM211900 09011G18KT P6SM -RA OVC030=
201703201728 TAF KBLI 201728Z 2018/2118 03014G20KT P6SM SCT120 BKN200 FM210100
                       01008KT P6SM OVC100 FM210800 02005KT P6SM
                       OVC070=
201703201120 TAF KBLI 201120Z 2012/2112 02012G20KT P6SM BKN250 FM210100 01008KT
                       P6SM OVC100 FM210700 02005KT P6SM OVC070=
201703200526 TAF KBLI 200526Z 2006/2106 01005KT P6SM BKN250 FM201800 02012G18KT
                       P6SM BKN250 FM210100 01008KT P6SM OVC100=
201703200108 KBLI 200108Z 2001/2024 01009KT P6SM FEW045 SCT200 FM200600 02011KT
                       P6SM BKN200 FM201600 02011G17KT P6SM OVC200=
201703192320 TAF KBLI 192320Z 2000/2024 33008KT P6SM FEW050 SCT250 FM200300
                       02005KT P6SM SCT250 FM201100 02011KT P6SM
                       SCT250 FM201600 02011G17KT P6SM OVC200=
201703191720 TAF KBLI 191720Z 1918/2018 16003KT P6SM FEW050 SCT250 FM192200
                       01006KT P6SM SCT250 FM201100 02011KT P6SM
                       SCT250=
201703191120 TAF KBLI 191120Z 1912/2012 16005KT P6SM SCT040 BKN070
                      TEMPO 1912/1916 -SHRA BKN040 OVC070 FM192000
                       01006KT P6SM SCT080 SCT250=
201703190521 TAF KBLI 190521Z 1906/2006 19005KT P6SM SCT090 FM190900 16004KT
                       P6SM BKN070 FM191800 36006KT P6SM SCT080
                       SCT250=
201703182320 TAF KBLI 182320Z 1900/1924 15006KT P6SM SCT030 BKN100 FM190600
                       15005KT P6SM SCT100 FM191800 36006KT P6SM
                       SCT250=
201703182018 KBLI 182018Z 1820/1918 21005KT P6SM VCSH SCT020 BKN045 OVC060 FM190300
                       18005KT P6SM SCT090=
201703181720 TAF KBLI 181720Z 1818/1918 00000KT P6SM VCSH FEW006 SCT014 OVC060
                       TEMPO 1818/1820 BKN014 OVC060 FM182000 19011G18KT
                       P6SM SCT030 SCT090 FM190300 18005KT P6SM
                       SCT090=
201703181558 KBLI 181558Z 1816/1912 00000KT P6SM VCSH SCT006 BKN014 BKN080 FM182000
                       19014G22KT P6SM FEW030 SCT090 FM190300 17008KT
                       P6SM BKN100=
201703181418 KBLI 181418Z 1814/1912 31005KT P6SM -SHRA SCT005 BKN015 OVC040
                       TEMPO 1814/1816 BKN005 OVC015 FM181600 18010G18KT
                       P6SM -SHRA BKN015 OVC030 FM182200 19014G22KT
                       P6SM FEW030 SCT090 FM190300 17008KT P6SM
                       BKN100=
201703181121 TAF KBLI 181121Z 1812/1912 31005KT P6SM SCT008 OVC020
                      TEMPO 1812/1816 -RA BKN008 OVC020 FM181600
                       18010G18KT P6SM -SHRA BKN015 OVC030 FM182200
                       19014G22KT P6SM FEW030 SCT090 FM190300 17008KT
                       P6SM BKN100=
201703180520 TAF KBLI 180520Z 1806/1906 02005KT 4SM -RA BR BKN025 OVC035 FM181200
                       14010KT 5SM -RA BR OVC015 FM181600 18008G15KT
                       P6SM -SHRA BKN015 BKN030 FM182200 19014G22KT
                       P6SM FEW030 SCT090 FM190200 17008KT P6SM
                       BKN100=
201703180122 KBLI 180122Z 1801/1824 03009KT 5SM -RA BR SCT008 OVC025
                      TEMPO 1801/1805 3SM RA BR BKN008 OVC015 FM181200
                       14010KT 5SM -RA BR OVC015 FM181600 18007G15KT
                       P6SM -SHRA BKN015 BKN030 FM182200 19010KT
                       P6SM VCSH BKN050=
201703180059 KBLI 180059Z 1801/1824 VRB03KT 6SM -RA BR SCT015 OVC030 FM180300
                       03007KT 4SM -RA BR SCT007 OVC022 FM181200
                       14010KT 5SM -RA BR OVC015 FM181600 18007G15KT
                       P6SM -SHRA BKN015 BKN030 FM182200 19010KT
                       P6SM VCSH BKN050=
201703180034 KBLI 180034Z 1801/1824 VRB03KT 6SM -RA BR SCT025 OVC035 FM180300
                       03007KT 4SM -RA BR SCT011 OVC025 FM181200
                       14010KT 5SM -RA BR OVC015 FM181600 18007G15KT
                       P6SM -SHRA BKN015 BKN030 FM182200 19010KT
                       P6SM VCSH BKN050=
201703172326 TAF KBLI 172326Z 1800/1824 11007KT 6SM -RA OVC025 FM180500 04008KT
                       6SM -RA BR OVC025 FM181200 14010KT 5SM -RA
                       BR OVC015 FM181600 18007G15KT P6SM -SHRA
                       BKN015 BKN030 FM182200 19010KT P6SM VCSH
                       BKN050=
201703171727 TAF KBLI 171727Z 1718/1818 03004KT P6SM BKN120 FM172200 04006KT
                       P6SM -RA SCT030 OVC050 FM180500 04008KT
                       P6SM -RA OVC030 FM180600 04010KT 4SM -RA
                       BR BKN020 OVC030 FM181200 VRB04KT 5SM -RA
                       BR OVC015 FM181600 18007KT P6SM -SHRA BKN015
                       BKN030=
201703171121 TAF KBLI 171121Z 1712/1812 03005KT P6SM BKN250 FM171900 04006KT
                       P6SM BKN080 OVC200 FM172200 04006KT P6SM
                       -RA SCT030 OVC050 FM180300 04008KT P6SM
                       -RA OVC030=
201703170520 TAF KBLI 170520Z 1706/1806 15008KT P6SM FEW080 BKN250 FM171900
                       07004KT P6SM BKN080 OVC200 FM172200 06006KT
                       P6SM -RA SCT030 OVC050 FM180300 04008KT
                       P6SM -RA OVC030=
201703170128 KBLI 170128Z 1701/1724 16011KT P6SM FEW050 BKN080 FM170300 15008KT
                       P6SM SCT080 FM170600 15008KT P6SM FEW020
                       SCT100 BKN200 FM171200 06005KT P6SM SCT020
                       BKN100 OVC200 FM171800 09006KT P6SM SCT025
                       BKN080 BKN120 FM172200 12008KT P6SM -RA
                       SCT030 OVC050=
201703162320 TAF KBLI 162320Z 1700/1724 17012G20KT P6SM SCT030 BKN080 FM170300
                       18010KT P6SM FEW035 SCT100 FM170600 15008KT
                       P6SM FEW020 SCT100 BKN200 FM171200 06005KT
                       P6SM SCT020 BKN100 OVC200 FM171800 09006KT
                       P6SM SCT025 BKN080 BKN120 FM172200 12008KT
                       P6SM -RA SCT030 OVC050=
201703161720 TAF KBLI 161720Z 1618/1718 16013G20KT P6SM SCT025 SCT050
                      TEMPO 1620/1624 -SHRA SCT025 BKN045 FM170500
                       13008KT P6SM SCT025 SCT050 SCT200 FM171200
                       05007KT P6SM SCT025 BKN050 BKN150=
201703161120 TAF KBLI 161120Z 1612/1712 16006KT P6SM BKN090 FM161600 16012KT
                       P6SM SCT025 BKN060=
201703160520 TAF KBLI 160520Z 1606/1706 16012G20KT P6SM SCT020 BKN100 FM161000
                       16008KT P6SM FEW020 SCT100 FM161600 16012KT
                       P6SM SCT020 BKN050=
201703160307 KBLI 160307Z 1603/1624 17008KT P6SM SCT025 BKN100
                      TEMPO 1603/1607 BKN025 OVC100 FM160700 16012KT
                       P6SM SCT015 BKN050 FM161900 15014KT P6SM
                       SCT020 BKN050=
201703152320 TAF KBLI 152320Z 1600/1624 01005KT P6SM SCT015 BKN030 OVC050
                      TEMPO 1600/1602 5SM -RA BKN015 OVC030 FM160200
                       17014G25KT P6SM VCSH SCT015 BKN050 FM160800
                       16012KT P6SM SCT015 BKN050 FM161900 15014KT
                       P6SM SCT020 BKN050=
201703152057 KBLI 152057Z 1521/1618 01005KT P6SM SCT010 BKN030 OVC050 FM160100
                       17013G22KT P6SM BKN050 FM160600 18012G22KT
                       P6SM BKN050 FM161000 17008KT P6SM SCT012
                       BKN050=
201703151825 KBLI 151825Z 1518/1618 18005KT 5SM -RA BR SCT012 BKN022 OVC040
                       TEMPO 1518/1522 2SM -RA BR OVC012 FM160000
                       20015G25KT P6SM -SHRA BKN025 BKN050 FM160600
                       20013G22KT P6SM VCSH BKN050 FM161000 17008KT
                       P6SM SCT012 BKN050=
201703151720 TAF KBLI 151720Z 1518/1618 18008KT 5SM -RA BR SCT012 BKN022 OVC040
                       TEMPO 1518/1522 2SM -RA BR OVC012 FM160000
                       20015G25KT P6SM -SHRA BKN025 BKN050 FM160600
                       20013G22KT P6SM VCSH BKN050 FM161000 17008KT
                       P6SM SCT012 BKN050=
201703151120 TAF KBLI 151120Z 1512/1612 16006KT P6SM -RA SCT020 OVC040 FM151800
                       18008KT P6SM -RA BKN020 OVC040 FM160200
                       20012G22KT P6SM -SHRA BKN020 BKN050=
201703150520 TAF KBLI 150520Z 1506/1606 18008KT P6SM -RA BKN020 OVC050
                      TEMPO 1506/1510 5SM -RA BR OVC015 FM151000
                       18006KT 5SM -RA BR OVC012 FM151800 18008KT
                       P6SM -RA BKN020 OVC050 FM160200 20012G22KT
                       P6SM -SHRA BKN020 BKN050=
201703150417 KBLI 150417Z 1504/1524 17010G16KT 3SM -RA BR OVC015 FM151200 VRB04KT
                       P6SM -RA OVC020 FM152000 16007KT P6SM BKN030
                       BKN050=
201703142320 TAF KBLI 142320Z 1500/1524 17010KT P6SM VCSH BKN025 BKN050 FM150600
                       18005KT P6SM -RA BKN022 OVC040 FM151300
                       VRB04KT P6SM -RA OVC020 FM152000 16007KT
                       P6SM BKN030 BKN050=
201703141720 TAF KBLI 141720Z 1418/1518 16005KT P6SM -RA OVC025 FM142200 20010KT
                       P6SM VCSH SCT025 BKN050 FM150500 18008KT
                       P6SM -RA BKN020 OVC040=
201703141120 TAF KBLI 141120Z 1412/1512 VRB03KT P6SM -RA OVC050 FM141500 12006KT
                       P6SM -RA OVC030 FM141800 20012KT P6SM VCSH
                       BKN030 OVC050 FM142200 20010KT P6SM VCSH
                       SCT025 BKN050 FM150500 18008KT P6SM -RA
                       BKN020 OVC040=
201703140520 TAF KBLI 140520Z 1406/1506 VRB03KT P6SM SCT010 OVC050 FM141200
                       18008KT P6SM -RA BKN015 OVC040 FM141800
                       20012KT P6SM VCSH BKN015 BKN040 FM142200
                       20010KT P6SM VCSH SCT025 BKN050 FM150500
                       18008KT P6SM -RA BKN020 OVC040=
201703140036 KBLI 140036Z 1401/1424 02006KT P6SM BKN025 OVC060 FM140600 13004KT
                       5SM -RA BR BKN020 OVC050 FM141100 16008KT
                       4SM -RA BR BKN020 OVC030 FM142000 17013G22KT
                       4SM -SHRA BR BKN015 OVC025=
201703132323 TAF KBLI 132323Z 1400/1424 VRB04KT P6SM OVC060 FM140600 13004KT
                       5SM -RA BR BKN020 OVC050 FM141100 16008KT
                       4SM -RA BR BKN020 OVC030 FM142000 17013G22KT
                       4SM -SHRA BR BKN015 OVC025=
201703131726 TAF KBLI 131726Z 1318/1418 VRB04KT P6SM -RA SCT030 BKN040 FM132000
                       16010KT 5SM -RA BR OVC025 FM140200 13004KT
                       4SM -RA BR OVC020 FM141100 16008KT 4SM -RA
                       BR BKN020 OVC030=
201703131120 TAF KBLI 131120Z 1312/1412 VRB04KT P6SM -RA OVC040 FM131600 16010KT
                       5SM -RA BR OVC025 FM140200 VRB03KT 3SM -RA
                       BR OVC012=
201703130520 TAF KBLI 130520Z 1306/1406 VRB04KT P6SM OVC080 FM130900 16006KT
                       P6SM -RA OVC050 FM131200 18008KT P6SM -RA
                       OVC030 FM132100 18006KT 4SM -RA BR OVC015=
201703122325 TAF KBLI 122325Z 1300/1324 14009KT P6SM -RA FEW025 OVC050 FM130600
                       14012KT P6SM -RA FEW018 OVC035 FM130900
                       14012KT P6SM -RA OVC035 FM131200 13009KT
                       5SM -RA BR FEW009 OVC022 FM131500 13007KT
                       4SM -RA BR SCT007 OVC015=
201703122125 KBLI 122125Z 1221/1318 16008KT P6SM -RA FEW015 SCT025 OVC050
                      TEMPO 1221/1224 FEW015 BKN025 OVC050 FM130300
                       13008KT P6SM -RA BKN035 OVC050 FM130900
                       13012KT P6SM -RA OVC035 FM131200 13009KT
                       5SM -RA BR OVC022=
201703121920 KBLI 121920Z 1219/1318 15011KT P6SM -RA SCT025 OVC060 FM122100
                       16008KT P6SM -RA BKN025 OVC050 FM130300
                       13008KT P6SM -RA BKN035 OVC050 FM130900
                       13012KT P6SM -RA OVC035 FM131200 13009KT
                       5SM -RA BR OVC022=
201703121741 TAF KBLI 121741Z 1218/1318 16006KT P6SM SCT025 BKN070 OVC150 FM122100
                       16008KT P6SM -RA BKN025 OVC050 FM130300
                       13008KT P6SM -RA BKN035 OVC050 FM130900
                       13012KT P6SM -RA OVC035 FM131200 13009KT
                       5SM -RA BR OVC022=
201703121604 KBLI 121604Z 1216/1312 15007KT P6SM SCT020 BKN090 OVC150
                      TEMPO 1216/1218 BKN020 OVC090 FM121800 15007KT
                       P6SM BKN030 BKN100 FM122200 16006KT P6SM
                       -RA OVC030 FM130600 16006KT 4SM -RA BR OVC020=
201703121415 KBLI 121415Z 1214/1312 VRB04KT P6SM OVC022 FM121800 16006KT P6SM
                       BKN030 BKN100 FM122200 16006KT P6SM -RA
                       OVC030 FM130600 16006KT 4SM -RA BR OVC020=
201703121127 TAF KBLI 121127Z 1212/1312 16008KT P6SM OVC022 FM121600 16006KT
                       P6SM BKN030 BKN100 FM122200 16006KT P6SM
                       -RA OVC030 FM130600 16006KT 4SM -RA BR OVC020=
201703120520 TAF KBLI 120520Z 1206/1306 20012KT P6SM SCT020 BKN050 FM120900
                       20012KT P6SM BKN025 BKN050 FM121800 18006KT
                       P6SM SCT025 BKN050 FM130000 14005KT P6SM
                       SCT040 BKN100 FM130500 VRB03KT P6SM BKN040
                       BKN100=
201703120000 KBLI 120000Z 1200/1224 15013G20KT P6SM VCSH SCT025 OVC040
                      TEMPO 1200/1203 -SHRA BKN025 OVC040 FM120300
                       17013KT P6SM -SHRA OVC025 FM120600 17007KT
                       P6SM VCSH BKN025 OVC040 FM121800 15008KT
                       6SM -RA BR OVC025=
201703112342 TAF KBLI 112342Z 1200/1224 15013G20KT P6SM VCSH BKN025 OVC040
                      TEMPO 1200/1203 -SHRA FM120300 17013KT P6SM
                       -SHRA OVC025 FM120600 17007KT P6SM VCSH
                       BKN025 OVC040 FM121800 15008KT 6SM -RA BR
                       OVC025=
201703112112 KBLI 112112Z 1121/1218 14008KT P6SM -RA SCT020 OVC040
                      TEMPO 1121/1124 5SM -RA BR BKN020 OVC040
                       FM120000 15013G23KT 4SM -RA BR FEW008 OVC025
                       FM120300 17015G25KT P6SM -SHRA BKN025 OVC050
                       FM120600 17010KT P6SM BKN030 OVC050
                      PROB30 1206/1212 -SHRA=
201703111814 KBLI 111814Z 1118/1218 05005KT P6SM -RA FEW005 SCT030 OVC050
                      TEMPO 1118/1120 5SM -RA BR FM112000 12012KT
                       4SM -RA BR FEW008 OVC030 FM120000 15013G23KT
                       4SM -RA BR FEW008 OVC025 FM120300 17015G25KT
                       P6SM -SHRA BKN025 OVC050 FM120600 17010KT
                       P6SM BKN030 OVC050
                      PROB30 1206/1212 -SHRA=
201703111746 TAF KBLI 111746Z 1118/1218 VRB03KT 6SM -RA BR SCT030 OVC090 FM112000
                       13012KT 4SM -RA BR OVC025 FM120300 20012G20KT
                       P6SM -SHRA BKN030=
201703111127 TAF KBLI 111127Z 1112/1212 VRB03KT P6SM SCT040 OVC120 FM111800
                       VRB03KT 6SM -RA BR SCT025 OVC050 FM112000
                       13012KT 4SM -RA BR OVC025 FM120300 20012G20KT
                       P6SM -SHRA BKN030=
201703110520 TAF KBLI 110520Z 1106/1206 00000KT P6SM OVC035 FM111200 VRB03KT
                       P6SM BKN040 OVC100 FM111800 VRB03KT 6SM
                       -RA BR SCT025 OVC050 FM112000 13012KT 4SM
                       -RA BR OVC025=
201703110028 KBLI 110028Z 1100/1124 17004KT P6SM BKN030 OVC200 FM110600 VRB03KT
                       P6SM FEW030 SCT100 OVC200 FM111200 VRB03KT
                       P6SM SCT050 OVC100
                      PROB30 1115/1118 -RA OVC050 FM111800 VRB03KT
                       6SM -RA BR SCT025 OVC050 FM112000 13012KT
                       4SM -RA BR OVC025=
201703102342 TAF KBLI 102342Z 1100/1124 VRB03KT P6SM BKN035 OVC200 FM110600
                       VRB03KT P6SM FEW035 SCT100 OVC200 FM111200
                       VRB03KT P6SM SCT050 OVC100
                      PROB30 1115/1118 -RA OVC050 FM111800 VRB03KT
                       6SM -RA BR SCT025 OVC050 FM112000 13012KT
                       4SM -RA BR OVC025=
201703102112 KBLI 102112Z 1021/1118 19009KT P6SM SCT030 BKN050 OVC200
                      TEMPO 1021/1024 BKN030 OVC050 FM110000 17005KT
                       P6SM SCT050 BKN080 BKN200 FM110600 VRB03KT
                       P6SM SCT080 BKN200=
201703101903 KBLI 101903Z 1019/1118 17012KT P6SM VCSH SCT025 OVC040
                      TEMPO 1019/1021 -SHRA BKN025 OVC040 FM102100
                       19009KT P6SM SCT030 BKN050 OVC200 FM110000
                       17005KT P6SM SCT050 BKN080 BKN200 FM110600
                       VRB03KT P6SM SCT080 BKN200=
201703101740 TAF KBLI 101740Z 1018/1118 17012KT 6SM BR FEW015 SCT025 OVC035
                       TEMPO 1018/1019 3SM -SHRA BR FEW017 BKN025
                       OVC035 FM101900 19008KT P6SM SCT035 BKN060
                       BKN200 FM102100 21006KT P6SM BKN025 OVC040
                       FM110200 VRB03KT P6SM SCT025 BKN045=
201703101721 KBLI 101721Z 1017/1112 17012KT 6SM BR FEW015 SCT025 OVC035
                      TEMPO 1017/1019 3SM -SHRA BR FEW017 BKN025
                       OVC035 FM101900 19008KT P6SM SCT035 BKN060
                       BKN200 FM102100 21006KT P6SM BKN025 OVC040
                       FM110200 VRB03KT P6SM SCT025 BKN045=
201703101523 KBLI 101523Z 1015/1112 17009KT P6SM OVC035 FM101800 19008KT P6SM
                       SCT035 BKN060 BKN200 FM102100 21006KT P6SM
                       BKN025 OVC040 FM110200 VRB03KT P6SM SCT025
                       BKN045=
201703101141 TAF KBLI 101141Z 1012/1112 18010G20KT P6SM BKN015 OVC025
                      TEMPO 1012/1016 5SM -RA BR BKN010 OVC020
                       FM101900 19008KT P6SM BKN015 OVC030 FM102100
                       21006KT P6SM BKN025 OVC040 FM110200 VRB03KT
                       P6SM SCT025 BKN045=
201703100547 TAF KBLI 100547Z 1006/1106 03010KT 4SM BR OVC010 FM100800 13015G22KT
                       P6SM OVC010 FM101200 16014G24KT P6SM OVC010
                       FM101600 19009KT P6SM BKN015 OVC025 FM102200
                       20006KT P6SM OVC025=
201703092332 TAF KBLI 092332Z 1000/1024 01009KT 5SM RA BR OVC024 FM100600 15016KT
                       P6SM -RA OVC015 FM101200 16013G22KT P6SM
                       -RA OVC015 FM101500 17011KT 5SM BR VCSH
                       OVC015 FM101800 18009KT 4SM BR OVC015 FM102100
                       19006KT P6SM OVC015=
201703091733 TAF KBLI 091733Z 0918/1018 01003KT 5SM BR OVC013 FM092100 03008KT
                       5SM BR OVC014 FM100000 03010KT 5SM -RA BR
                       OVC020 FM100500 10014G21KT 5SM -RA BR OVC014
                       FM100900 14018G25KT 5SM -RA BR BKN008 OVC014
                       FM101200 17016G24KT 5SM -RA BR OVC014=
201703091132 TAF KBLI 091132Z 0912/1012 00000KT 3SM -RA BR BKN010 OVC020 FM091500
                       03005KT 6SM BR SCT009 BKN015 OVC030 FM092200
                       03010KT P6SM -RA BKN020 OVC040 FM100200
                       05010G18KT 5SM -RA BR BKN012 OVC020=
201703090904 TAF AMD KBLI 090904Z 0909/1006 04005KT 4SM -RA BR BKN014 OVC030
                       FM091200 04005KT P6SM VCSH BKN014 OVC030
                       FM091500 04006KT P6SM SCT025 BKN080 FM092200
                       02008KT P6SM -RA SCT025 OVC040=
201703090544 TAF KBLI 090544Z 0906/1006 04005KT 4SM -RA BR BKN014 OVC030 FM090800
                       04005KT P6SM VCSH BKN014 OVC030 FM091500
                       04006KT P6SM SCT025 BKN080 FM092200 02008KT
                       P6SM -RA SCT025 OVC040=
201703082331 TAF KBLI 082331Z 0900/0924 18006KT P6SM OVC070 FM090200 15008KT
                       P6SM -RA BKN025 OVC040 FM090800 12005KT
                       P6SM VCSH SCT025 BKN040=
201703081724 TAF KBLI 081724Z 0818/0918 16010G16KT P6SM VCSH SCT019 SCT026 OVC070
                       FM082300 16010KT P6SM -RA SCT030 OVC050
                       FM090200 15008KT P6SM -RA BKN025 OVC040
                       FM090600 12005KT P6SM SCT025 BKN040=
201703081129 TAF KBLI 081129Z 0812/0912 20005KT P6SM SCT030 BKN070 FM082200
                       16010KT P6SM -RA SCT030 OVC050 FM090200
                       15008KT P6SM -RA BKN025 OVC040 FM090600
                       12005KT P6SM SCT025 BKN040=
201703080749 KBLI 080749Z 0808/0906 24010KT P6SM VCSH SCT030 BKN060 FM081300
                       18007KT P6SM SCT030 BKN060 FM082200 16010KT
                       P6SM -RA BKN030 OVC045=
201703080540 TAF KBLI 080540Z 0806/0906 18012KT P6SM VCSH BKN020 OVC045 FM080800
                       24010KT P6SM VCSH BKN025 OVC050 FM081300
                       18007KT P6SM SCT030 BKN050 FM082200 16010KT
                       P6SM -RA BKN030 OVC045=
201703072329 TAF KBLI 072329Z 0800/0824 17006G15KT P6SM -RA OVC021 FM080400
                       17010KT P6SM VCSH OVC030 FM081000 21012KT
                       P6SM VCSH OVC050 FM081300 20008KT P6SM OVC050=
201703072103 KBLI 072103Z 0721/0818 14011G22KT P6SM -RA BKN027 OVC040 FM080400
                       17010KT P6SM VCSH OVC030 FM080900 21012KT
                       P6SM VCSH OVC050 FM081200 20008KT P6SM OVC050=
201703071731 TAF KBLI 071731Z 0718/0818 15009KT P6SM -RA BKN035 OVC070 FM072100
                       13007KT 4SM -RA BR OVC025 FM080400 17010KT
                       P6SM VCSH OVC030 FM080900 21012KT P6SM VCSH
                       OVC050 FM081200 20008KT P6SM OVC050=
201703071139 TAF KBLI 071139Z 0712/0812 15015G25KT P6SM BKN020 OVC040 FM071400
                       12012G22KT P6SM -RASN BKN015 OVC030
                      TEMPO 0714/0717 3SM -SN BR BKN010 OVC020
                       FM071700 12014G24KT 4SM -RA BR OVC015 FM080500
                       17012KT P6SM -SHRA BKN025 OVC040=
201703070544 TAF KBLI 070544Z 0706/0806 16007KT P6SM VCSH SCT060 BKN100 FM070900
                       16009KT P6SM OVC050 FM071300 14010KT P6SM
                       -RA OVC025 FM071800 12012G20KT 4SM -RA BR
                       OVC015=
201703062332 TAF KBLI 062332Z 0700/0724 17007KT P6SM VCSH FEW005 SCT026 BKN060
                       FM070900 16009KT P6SM VCSH OVC050 FM071200
                       14010KT P6SM -RA OVC025 FM071800 11011KT
                       4SM BR OVC025=
201703061726 TAF KBLI 061726Z 0618/0718 17011KT P6SM VCSH FEW011 FEW022 BKN040
                       FM062000 17008KT P6SM SCT030 BKN045 FM071000
                       15009KT P6SM -RA BKN012 OVC035=
201703061139 TAF KBLI 061139Z 0612/0712 18008KT P6SM VCSH SCT025 BKN040 FM061600
                       18008KT P6SM -SHRA SCT015 BKN025 OVC040
                       FM062100 18008KT P6SM VCSH SCT025 BKN040
                       FM070300 12004KT P6SM SCT030 BKN050=
201703060544 TAF KBLI 060544Z 0606/0706 16014KT P6SM VCSH SCT020 BKN030 OVC050
                       FM061200 18008KT P6SM VCSH SCT012 BKN020
                       OVC030
                      TEMPO 0612/0615 3SM -SHRASN BR SCT008 BKN012
                       OVC020 FM062100 18008KT P6SM VCSH SCT025
                       BKN040 FM070300 12004KT P6SM SCT030 BKN050=
201703052345 TAF KBLI 052345Z 0600/0624 16014G25KT P6SM VCSH SCT025 BKN035 OVC050
                       TEMPO 0600/0604 2SM -SHRA BR SCT012 OVC020
                       FM060700 17008KT P6SM VCSH SCT008 BKN015
                       FM061200 18007KT P6SM VCSH SCT012 BKN020
                       TEMPO 0612/0616 2SM -SHSNRA BR SCT008 BKN012
                       OVC020 FM062000 18006KT P6SM VCSH SCT018
                       BKN035=
201703051748 TAF KBLI 051748Z 0518/0618 16010KT P6SM VCSH SCT018 BKN030
                      TEMPO 0520/0522 4SM -SHRASN BR BKN018 OVC030
                       FM052300 16010KT P6SM VCSH SCT020 BKN035
                       OVC050
                      TEMPO 0602/0606 2SM -SHRASN BR SCT012 OVC020
                       FM060800 17005KT P6SM VCSH SCT008 BKN015=
201703051557 KBLI 051557Z 0516/0612 16011KT 3SM -SHRASN BR BKN012 OVC020 FM051700
                       16010KT P6SM VCSH SCT018 BKN030 FM052200
                       16010KT P6SM -SHRA SCT020 BKN035 OVC050=
201703051328 KBLI 051328Z 0513/0612 36004KT 5SM BR VCSH SCT012 OVC025
                      TEMPO 0513/0517 3SM -SHSN SCT006 OVC012 FM051700
                       16010KT P6SM -SHRA SCT006 BKN015 OVC030
                       FM052200 16010KT P6SM -SHRA SCT020 BKN035
                       OVC050=
201703051139 TAF KBLI 051139Z 0512/0612 02008KT 4SM -SN SCT006 BKN011 OVC020
                       TEMPO 0512/0516 1SM -SN BKN006 OVC011 FM051800
                       16010KT P6SM -SHRA SCT006 BKN015 OVC030
                       FM052200 16010KT P6SM -SHRA SCT020 BKN035
                       OVC050=
201703050542 TAF KBLI 050542Z 0506/0606 02008KT P6SM OVC070 FM050900 02008KT
                       P6SM BKN035 OVC050 FM051200 02008KT 4SM
                       -SN SCT006 BKN011 OVC020
                      TEMPO 0514/0517 1SM -SN BKN006 OVC011 FM051700
                       14012KT P6SM -SHRA SCT006 BKN015 OVC030
                       FM052100 14012KT P6SM -SHRA SCT020 BKN035
                       OVC050=
201703050104 KBLI 050104Z 0501/0524 02009KT P6SM FEW022 SCT100 OVC200 FM050400
                       02009KT P6SM FEW018 SCT050 OVC100 FM050600
                       02009KT P6SM SCT007 SCT022 OVC050 FM050900
                       07011KT 2SM -SHSN OVC007
                      TEMPO 0513/0517 1/2SM SHSN VV002 FM051800
                       14013G20KT 5SM SHRASN SCT007 OVC020=
201703042344 TAF KBLI 042344Z 0500/0524 04007KT P6SM SCT028 BKN050 FM050600
                       02011KT P6SM SCT028 SCT050 FM050900 02011KT
                       3SM -SHSN SCT009 OVC022
                      PROB30 0512/0516 1/2SM SHSN VV002=
201703042115 KBLI 042115Z 0421/0518 11005KT P6SM VCSH SCT028 OVC050
                      TEMPO 0421/0424 -SHRA BKN028 OVC050 FM050000
                       04007KT P6SM SCT028 BKN050 FM050600 02011KT
                       P6SM SCT028 SCT050 FM050900 02011KT 3SM
                       -SHSN SCT009 OVC022
                      PROB30 0512/0516 1/2SM SHSN VV002=
201703041940 KBLI 041940Z 0420/0518 11005KT P6SM VCSH SCT015 OVC060
                      TEMPO 0420/0424 -SHRA BKN015 OVC030 FM050000
                       04007KT P6SM SCT028 BKN050 FM050600 02011KT
                       P6SM SCT028 SCT050 FM050900 02011KT 3SM
                       -SHSN SCT009 OVC022
                      PROB30 0512/0516 1/2SM SHSN VV002=
201703041832 KBLI 041832Z 0419/0518 08005KT 3SM SHRASN BKN020 OVC035 FM042000
                       08005KT P6SM VCSH SCT028 OVC050
                      TEMPO 0420/0424 -SHRA BKN028 OVC050 FM050000
                       04007KT P6SM SCT028 BKN050 FM050600 02011KT
                       P6SM SCT028 SCT050 FM050900 02011KT 3SM
                       -SHSN SCT009 OVC022
                      PROB30 0512/0516 1/2SM SHSN VV002=
201703041748 TAF KBLI 041748Z 0418/0518 15006KT P6SM VCSH SCT015 SCT060
                      TEMPO 0418/0419 -SHRASN BKN015 OVC060 FM042100
                       14006KT P6SM SCT035 BKN060 BKN200 FM050000
                       VRB03KT P6SM SCT035 BKN060 BKN200 FM050800
                       02006KT 4SM -SN BKN020 OVC035=
201703041535 KBLI 041535Z 0416/0512 15006KT P6SM VCSH SCT015 SCT060
                      TEMPO 0417/0419 -SHRASN BKN015 OVC060 FM042100
                       14006KT P6SM SCT035 BKN060 BKN200 FM050000
                       VRB03KT P6SM SCT035 BKN060 BKN200 FM050800
                       02006KT 4SM -SN BKN020 OVC035=
201703041412 KBLI 041412Z 0414/0512 16006KT P6SM VCSH SCT012 BKN025 OVC040
                      TEMPO 0414/0416 VRB03KT OVC012 FM041600 17006KT
                       P6SM -SHRA SCT020 BKN035 OVC050 FM042100
                       14006KT P6SM SCT035 BKN060 BKN200 FM050000
                       VRB03KT P6SM SCT035 BKN060 BKN200 FM050800
                       02006KT 4SM -SN BKN020 OVC035=
201703041141 TAF KBLI 041141Z 0412/0512 14008KT P6SM SCT012 BKN022 OVC040
                      TEMPO 0412/0416 5SM -SHRASN FM041600 17006KT
                       P6SM -SHRA SCT020 BKN035 OVC050 FM042100
                       14006KT P6SM SCT035 BKN060 BKN200 FM050000
                       VRB03KT P6SM SCT035 BKN060 BKN200 FM050800
                       02006KT 4SM -SN BKN020 OVC035=
201703040542 TAF KBLI 040542Z 0406/0506 14008KT P6SM SCT025 BKN040 OVC060 FM041400
                       17006KT P6SM -SHRA SCT020 BKN035 OVC050
                       FM042000 14006KT P6SM SCT035 BKN060 BKN200
                       FM050000 VRB03KT P6SM SCT035 BKN060 BKN200=
201703040027 KBLI 040027Z 0400/0424 VRB05KT P6SM -SHRA FEW007 BKN020 OVC035
                       TEMPO 0400/0404 19013KT 3SM SHRA BKN007
                       OVC015 FM040600 17008KT P6SM VCSH FEW020
                       BKN035 OVC060 FM041200 17005KT 5SM -SHRA
                       BR SCT008 OVC020
                      PROB30 0412/0415 2SM SHRASN BKN008 OVC020
                       FM041800 14007KT P6SM -SHRA SCT020 BKN035
                       OVC060 FM042100 10007KT P6SM VCSH SCT035
                       BKN060 BKN200=
201703032340 TAF KBLI 032340Z 0400/0424 VRB05KT P6SM -RA SCT007 OVC015 FM040300
                       19009KT P6SM -RA BKN015 OVC030 FM040600
                       17009KT P6SM VCSH SCT015 BKN035 OVC060 FM041200
                       17006KT 5SM -RA BR BKN015 OVC030=
201703032308 KBLI 032308Z 0323/0418 VRB05KT P6SM -RA SCT007 OVC015 FM040300
                       19009KT P6SM -RA BKN015 OVC030 FM040600
                       17009KT P6SM VCSH SCT015 BKN035 OVC060 FM041200
                       17006KT 5SM -RA BR BKN015 OVC030=
201703032018 KBLI 032018Z 0320/0418 19010KT 5SM -RA BR BKN015 OVC030
                      TEMPO 0320/0322 3SM -RA BR FM032200 17012G20KT
                       3SM -RA BR SCT008 OVC015 FM040300 17012KT
                       P6SM -RA BKN015 OVC030 FM040600 17009KT
                       P6SM VCSH SCT015 BKN035 OVC060 FM041200
                       17006KT 5SM -RA BR BKN015 OVC030=
201703031948 KBLI 031948Z 0320/0418 17012KT P6SM VCSH BKN015 OVC030
                      TEMPO 0320/0321 17012G20KT 3SM -RA BR FM032100
                       17012G20KT 4SM -RA BR SCT008 OVC015 FM040300
                       17012KT P6SM -RA BKN015 OVC030 FM040600
                       17009KT P6SM VCSH SCT015 BKN035 OVC060 FM041200
                       17006KT 5SM -RA BR BKN015 OVC030=
201703031848 KBLI 031848Z 0319/0418 17012G20KT P6SM VCSH BKN015 OVC030
                      TEMPO 0319/0321 -RA FM032100 17012G20KT 4SM
                       -RA BR SCT008 OVC015 FM040300 17012KT P6SM
                       -RA BKN015 OVC030 FM040600 17009KT P6SM
                       VCSH SCT015 BKN035 OVC060 FM041200 17006KT
                       5SM -RA BR BKN015 OVC030=
201703031747 TAF KBLI 031747Z 0318/0418 15014KT 5SM -RA BR BKN012 OVC020 FM040200
                       18012KT P6SM SCT015 BKN030 OVC050 FM040500
                       18012KT P6SM SCT030 BKN050 FM040900 14004KT
                       P6SM BKN050=
201703031136 TAF KBLI 031136Z 0312/0412 15018G28KT P6SM -RA SCT012 BKN020 OVC035
                       FM031800 15014KT 5SM -RA BR BKN012 OVC020
                       FM040200 18012KT P6SM SCT015 BKN030 OVC050
                       FM040500 18012KT P6SM SCT030 BKN050 FM040900
                       14004KT P6SM BKN050=
201703030538 TAF KBLI 030538Z 0306/0406 15018G28KT P6SM -RA SCT015 BKN025 OVC040
                       TEMPO 0306/0310 SCT015 SCT025 OVC040 FM031800
                       15014G24KT 5SM -RA BR BKN015 OVC030 FM040300
                       18012KT P6SM SCT015 BKN030 OVC050 FM040500
                       18012KT P6SM SCT030 BKN050=
201703030011 KBLI 030011Z 0300/0324 15015KT P6SM OVC025
                      TEMPO 0300/0303 15015G23KT -RA FM030300 15020G30KT
                       P6SM -RA OVC015 FM030900 15023G33KT P6SM
                       SCT015 OVC030
                      TEMPO 0309/0312 -RA BKN015 OVC030 FM031200
                       15013G23KT 6SM -RA BR BKN015 OVC030 FM032000
                       17013G23KT 5SM -RA BR FEW009 OVC015=
201703030007 KBLI 030007Z 0300/0324 15015G23KT P6SM OVC025
                      TEMPO 0300/0303 -RA FM030300 15020G30KT P6SM
                       -RA OVC015 FM030900 15023G33KT P6SM SCT015
                       OVC030
                      TEMPO 0309/0312 -RA BKN015 OVC030 FM031200
                       15013G23KT 6SM -RA BR BKN015 OVC030 FM032000
                       17013G23KT 5SM -RA BR FEW009 OVC015=
201703022341 TAF KBLI 022341Z 0300/0324 15015KT P6SM -RA SCT015 OVC025
                      TEMPO 0300/0301 15015G25KT BKN015 OVC025
                       FM030300 15020G30KT P6SM -RA SCT015 OVC035
                       FM031200 15012G20KT P6SM -RA SCT015 OVC028=
201703022109 KBLI 022109Z 0221/0318 15015KT P6SM -RA SCT015 OVC025
                      TEMPO 0221/0301 15015G25KT BKN015 OVC025
                       FM030300 15020G30KT P6SM -RA SCT015 OVC035
                       FM031200 15012G20KT P6SM -RA SCT015 OVC028=
201703021929 KBLI 021929Z 0219/0318 15013G20KT P6SM VCSH SCT025 OVC050
                      TEMPO 0219/0221 -RA BKN025 OVC050 FM022100
                       15015G25KT P6SM -RA SCT015 OVC025 FM030300
                       15020G30KT P6SM -RA SCT015 OVC035 FM031200
                       15012G20KT P6SM -RA SCT015 OVC028=
201703021741 TAF KBLI 021741Z 0218/0318 15013G20KT P6SM VCSH SCT025 SCT050 OVC130
                       TEMPO 0218/0220 SCT025 BKN050 OVC130 FM022000
                       15015G25KT P6SM -RA SCT015 SCT030 OVC050
                       TEMPO 0220/0224 SCT015 OVC030 FM030300 15020G30KT
                       P6SM -RA SCT015 OVC035 FM031200 15012G20KT
                       P6SM -RA SCT015 OVC028=
201703021140 TAF KBLI 021140Z 0212/0312 VRB03KT P6SM SCT025 BKN040 OVC100
                      TEMPO 0212/0216 4SM BR OVC025 FM021800 16012KT
                       P6SM -RA SCT025 OVC040 FM022200 16014G24KT
                       P6SM -RA SCT010 OVC020=
201703020553 TAF KBLI 020553Z 0206/0306 12008KT P6SM OVC025 FM021100 14008KT
                       P6SM SCT025 BKN040 OVC100 FM021900 16012G20KT
                       P6SM -RA SCT025 OVC040 FM022200 16012G20KT
                       P6SM -RA OVC020=
201703012322 TAF KBLI 012322Z 0200/0224 16008KT P6SM FEW020 BKN035 OVC060 FM020900
                       16008KT P6SM BKN020 OVC035 FM021900 16015G23KT
                       P6SM -RA OVC020=
201703011722 TAF KBLI 011722Z 0118/0218 17010KT P6SM SCT025 BKN070
                      TEMPO 0118/0121 -SHRA BKN025 OVC070 FM020000
                       16006KT P6SM BKN025 OVC070=
201703011140 TAF KBLI 011140Z 0112/0212 17013G22KT P6SM -SHRA BKN022 OVC035
                       FM011500 17012KT P6SM -SHRA BKN025 OVC035
                       FM012200 17008KT P6SM -RA OVC035 FM020600
                       16012G22KT P6SM -RA OVC030 FM021000 16015G25KT
                       6SM -RA OVC025=
201703010552 TAF KBLI 010552Z 0106/0206 15018G28KT P6SM VCSH SCT030 OVC050 FM010900
                       17014G24KT P6SM VCSH BKN030 OVC050 FM011500
                       17012KT P6SM VCSH SCT025 OVC040 FM011900
                       17008KT P6SM -SHRA SCT025 OVC040 FM020300
                       16008KT P6SM OVC030=