##########################################################
# Query made at 02/16/2025 21:41:34 UTC
# Time interval: from 07/01/2017 00:00  to 07/31/2017 23:59  UTC
##########################################################

##########################################################
# KBLI, Bellingham, Bellingham International Airport (United States)
# WMO index: -----. WIGOS ID: Unknown
# Latitude 48-47-58N. Longitude 122-32-21W. Altitude 48 m.
##########################################################

###################################
#  METAR/SPECI from KBLI
###################################
201707312353 METAR KBLI 312353Z VRB03KT 10SM CLR 25/14 A3019 RMK AO2 SLP227 T02500144 10250 20217 58018=
201707312253 METAR KBLI 312253Z VRB05KT 10SM CLR 24/14 A3020 RMK AO2 SLP233 T02440144=
201707312153 METAR KBLI 312153Z 24007KT 10SM CLR 24/14 A3023 RMK AO2 SLP240 T02440139=
201707312053 METAR KBLI 312053Z 28007KT 10SM CLR 24/14 A3024 RMK AO2 SLP244 T02440139 56012=
201707311953 METAR KBLI 311953Z VRB06KT 10SM CLR 23/14 A3025 RMK AO2 SLP247 T02330139=
201707311853 METAR KBLI 311853Z 26009KT 10SM CLR 23/14 A3026 RMK AO2 SLP251 T02280144=
201707311753 METAR KBLI 311753Z VRB03KT 10SM CLR 22/13 A3027 RMK AO2 SLP255 T02170133 10217 20106 58006=
201707311653 METAR KBLI 311653Z 00000KT 10SM CLR 19/13 A3028 RMK AO2 SLP258 T01890133=
201707311553 METAR KBLI 311553Z 21003KT 10SM CLR 17/13 A3029 RMK AO2 SLP263 T01720128=
201707311453 METAR KBLI 311453Z 00000KT 10SM CLR 16/12 A3029 RMK AO2 SLP263 T01610122 53005=
201707311353 METAR KBLI 311353Z 00000KT 10SM CLR 14/13 A3028 RMK AO2 SLP260 T01390128=
201707311253 METAR KBLI 311253Z AUTO 00000KT 10SM CLR 12/11 A3028 RMK AO2 SLP259 T01170111=
201707311153 METAR KBLI 311153Z AUTO 00000KT 10SM CLR 11/11 A3027 RMK AO2 SLP258 T01110106 10167 20111 53007=
201707311053 METAR KBLI 311053Z AUTO 00000KT 10SM CLR 12/11 A3027 RMK AO2 SLP255 T01220111=
201707310953 METAR KBLI 310953Z AUTO 18004KT 10SM CLR 14/12 A3026 RMK AO2 SLP253 T01440122=
201707310853 METAR KBLI 310853Z AUTO 19004KT 10SM CLR 14/12 A3025 RMK AO2 SLP251 T01440117 53002=
201707310753 METAR KBLI 310753Z AUTO 20004KT 10SM CLR 15/12 A3025 RMK AO2 SLP250 T01500117 402330150=
201707310653 METAR KBLI 310653Z AUTO 17004KT 10SM CLR 16/12 A3025 RMK AO2 SLP249 T01610117=
201707310553 METAR KBLI 310553Z AUTO 20003KT 10SM CLR 17/12 A3025 RMK AO2 SLP249 T01670117 10233 20167 51007=
201707310453 METAR KBLI 310453Z 18008KT 10SM CLR 18/11 A3025 RMK AO2 SLP248 T01830106=
201707310353 METAR KBLI 310353Z 17006KT 10SM CLR 18/12 A3024 RMK AO2 SLP244 T01830122=
201707310253 METAR KBLI 310253Z 17005KT 10SM CLR 20/12 A3023 RMK AO2 SLP242 T02000122 56006=
201707310153 METAR KBLI 310153Z 16008KT 10SM CLR 21/13 A3023 RMK AO2 SLP242 T02110133=
201707310053 METAR KBLI 310053Z 17007KT 10SM CLR 23/13 A3024 RMK AO2 SLP244 T02280128=
201707302353 METAR KBLI 302353Z 17007KT 10SM CLR 23/12 A3025 RMK AO2 SLP247 T02280122 10233 20183 56006=
201707302253 METAR KBLI 302253Z 17007KT 10SM CLR 23/12 A3025 RMK AO2 SLP247 T02280122=
201707302153 METAR KBLI 302153Z VRB05KT 10SM CLR 22/13 A3026 RMK AO2 SLP251 T02220128=
201707302053 METAR KBLI 302053Z 18006KT 10SM CLR 22/13 A3026 RMK AO2 SLP253 T02170133 58004=
201707301953 METAR KBLI 301953Z 18009KT 150V210 10SM CLR 22/14 A3027 RMK AO2 SLP255 T02170139=
201707301853 METAR KBLI 301853Z 18006G15KT 10SM CLR 19/14 A3027 RMK AO2 SLP256 T01940144=
201707301753 METAR KBLI 301753Z 18010KT 10SM CLR 18/15 A3028 RMK AO2 SLP257 T01830150 10189 20156 51008=
201707301653 METAR KBLI 301653Z 17009G17KT 10SM CLR 17/15 A3027 RMK AO2 SLP254 T01720150=
201707301618 SPECI KBLI 301618Z 18009G14KT 150V220 10SM SCT003 17/15 A3027 RMK AO2 T01670150=
201707301553 METAR KBLI 301553Z 19008KT 10SM BKN004 16/15 A3027 RMK AO2 SLP255 T01610150=
201707301453 METAR KBLI 301453Z 18006KT 10SM FEW004 17/15 A3025 RMK AO2 SLP249 T01670150 52019=
201707301353 METAR KBLI 301353Z 18008G16KT 10SM SCT004 16/15 A3023 RMK AO2 SLP242 T01560150=
201707301341 SPECI KBLI 301341Z AUTO 17009KT 10SM SCT004 16/15 A3023 RMK AO2 T01560150=
201707301253 METAR KBLI 301253Z AUTO 18010KT 10SM CLR 16/14 A3021 RMK AO2 SLP236 T01560144=
201707301153 METAR KBLI 301153Z AUTO 18006KT 10SM OVC055 16/14 A3020 RMK AO2 SLP230 T01610144 10194 20156 51006=
201707301053 METAR KBLI 301053Z AUTO 18009KT 10SM FEW060 16/14 A3019 RMK AO2 SLP229 T01560144=
201707300953 METAR KBLI 300953Z AUTO 18007KT 10SM CLR 16/14 A3018 RMK AO2 SLP225 T01610144=
201707300853 METAR KBLI 300853Z AUTO 18009KT 10SM CLR 17/14 A3018 RMK AO2 SLP224 T01670139 51014=
201707300753 METAR KBLI 300753Z AUTO 19004KT 10SM CLR 17/14 A3017 RMK AO2 SLP222 T01720144 402220111=
201707300653 METAR KBLI 300653Z AUTO 19008KT 10SM CLR 18/14 A3015 RMK AO2 SLP216 T01780144=
201707300553 METAR KBLI 300553Z AUTO 17008KT 10SM CLR 19/14 A3014 RMK AO2 SLP211 T01940144 10222 20189 51009=
201707300453 METAR KBLI 300453Z 17006KT 10SM CLR 20/15 A3013 RMK AO2 SLP208 T02000150=
201707300353 METAR KBLI 300353Z 17009KT 10SM CLR 21/14 A3012 RMK AO2 SLP205 T02060144=
201707300253 METAR KBLI 300253Z 17010KT 10SM CLR 21/14 A3011 RMK AO2 SLP202 T02060144 55007=
201707300153 METAR KBLI 300153Z 17009G16KT 10SM CLR 22/13 A3011 RMK AO2 SLP201 T02170133=
201707300053 METAR KBLI 300053Z 16009G15KT 10SM CLR 22/12 A3011 RMK AO2 SLP203 T02170122=
201707292353 METAR KBLI 292353Z 17010G17KT 10SM CLR 22/11 A3013 RMK AO2 SLP209 T02220106 10222 20172 58008=
201707292253 METAR KBLI 292253Z 17011KT 10SM CLR 22/11 A3014 RMK AO2 SLP213 T02170106=
201707292153 METAR KBLI 292153Z 18010G18KT 10SM CLR 22/12 A3015 RMK AO2 SLP216 T02170117=
201707292053 METAR KBLI 292053Z 17007KT 10SM CLR 21/12 A3016 RMK AO2 SLP217 T02060117 55001=
201707291953 METAR KBLI 291953Z 18011KT 10SM CLR 19/11 A3015 RMK AO2 SLP217 T01940111=
201707291853 METAR KBLI 291853Z 17008KT 10SM CLR 18/12 A3015 RMK AO2 SLP217 T01830117=
201707291753 METAR KBLI 291753Z 17009G17KT 10SM CLR 17/12 A3016 RMK AO2 SLP218 T01720117 10172 20111 53008=
201707291653 METAR KBLI 291653Z 17011KT 10SM CLR 17/12 A3015 RMK AO2 SLP215 T01670117=
201707291553 METAR KBLI 291553Z 17011KT 10SM CLR 16/11 A3014 RMK AO2 SLP212 T01610111=
201707291453 METAR KBLI 291453Z 17009KT 10SM CLR 16/11 A3013 RMK AO2 SLP209 T01610111 53012=
201707291353 METAR KBLI 291353Z 17004KT 10SM CLR 15/11 A3012 RMK AO2 SLP204 T01500111=
201707291253 METAR KBLI 291253Z AUTO 17003KT 10SM CLR 11/10 A3010 RMK AO2 SLP199 T01110100=
201707291153 METAR KBLI 291153Z AUTO 00000KT 10SM CLR 13/11 A3010 RMK AO2 SLP197 T01280111 10172 20128 53008=
201707291053 METAR KBLI 291053Z AUTO 17008KT 10SM CLR 14/11 A3009 RMK AO2 SLP194 T01440111=
201707290953 METAR KBLI 290953Z AUTO 17007KT 10SM CLR 14/11 A3007 RMK AO2 SLP190 T01440111=
201707290853 METAR KBLI 290853Z AUTO 17007KT 10SM CLR 15/11 A3007 RMK AO2 SLP189 T01500111 51004=
201707290753 METAR KBLI 290753Z AUTO 17005KT 10SM CLR 16/12 A3007 RMK AO2 SLP189 T01560117 402220106=
201707290653 METAR KBLI 290653Z AUTO 17006KT 10SM CLR 16/12 A3007 RMK AO2 SLP187 T01610117=
201707290553 METAR KBLI 290553Z AUTO 16006KT 10SM CLR 17/11 A3006 RMK AO2 SLP185 T01720106 10217 20167 53008=
201707290453 METAR KBLI 290453Z 17009G16KT 10SM CLR 17/12 A3006 RMK AO2 SLP183 T01720122=
201707290353 METAR KBLI 290353Z 17007KT 10SM CLR 18/13 A3004 RMK AO2 SLP179 T01830128=
201707290253 METAR KBLI 290253Z 18006KT 10SM CLR 19/12 A3004 RMK AO2 SLP177 T01940122 58008=
201707290153 METAR KBLI 290153Z 17007KT 10SM CLR 20/13 A3005 RMK AO2 SLP181 T02000133=
201707290053 METAR KBLI 290053Z 17006KT 10SM CLR 22/13 A3006 RMK AO2 SLP183 T02170128=
201707282353 METAR KBLI 282353Z VRB06KT 10SM CLR 22/12 A3006 RMK AO2 SLP186 T02170122 10222 20161 58009=
201707282253 METAR KBLI 282253Z 16008KT 10SM CLR 21/12 A3007 RMK AO2 SLP189 T02110122=
201707282153 METAR KBLI 282153Z 19007KT 10SM CLR 21/12 A3008 RMK AO2 SLP192 T02060122=
201707282053 METAR KBLI 282053Z 17009KT 10SM CLR 20/12 A3009 RMK AO2 SLP195 T02000117 58006=
201707281953 METAR KBLI 281953Z 17008KT 10SM CLR 19/12 A3010 RMK AO2 SLP198 T01890122=
201707281853 METAR KBLI 281853Z 17008KT 10SM CLR 18/13 A3011 RMK AO2 SLP202 T01830128=
201707281753 METAR KBLI 281753Z 17009KT 10SM CLR 16/13 A3011 RMK AO2 SLP201 T01610128 10167 20106 58002=
201707281653 METAR KBLI 281653Z 18008KT 10SM CLR 16/12 A3011 RMK AO2 SLP202 T01610122=
201707281553 METAR KBLI 281553Z 19006KT 10SM CLR 14/12 A3011 RMK AO2 SLP204 T01440122=
201707281453 METAR KBLI 281453Z VRB04KT 10SM FEW005 14/12 A3011 RMK AO2 SLP203 T01390122 52006=
201707281354 SPECI KBLI 281354Z 18004KT 10SM FEW005 13/12 A3011 RMK AO2 T01330122=
201707281353 METAR KBLI 281353Z 18004KT 10SM CLR 13/12 A3011 RMK AO2 SLP201 T01330122=
201707281253 METAR KBLI 281253Z AUTO 00000KT 10SM CLR 11/10 A3010 RMK AO2 SLP199 T01060100=
201707281153 METAR KBLI 281153Z AUTO 17004KT 10SM CLR 12/11 A3010 RMK AO2 SLP197 T01220111 10161 20122 51005=
201707281053 METAR KBLI 281053Z AUTO 17004KT 10SM CLR 13/11 A3009 RMK AO2 SLP195 T01280106=
201707280953 METAR KBLI 280953Z AUTO 15003KT 10SM CLR 13/11 A3009 RMK AO2 SLP196 T01330106=
201707280853 METAR KBLI 280853Z AUTO 16007KT 10SM CLR 15/11 A3008 RMK AO2 SLP192 T01500106 52000=
201707280753 METAR KBLI 280753Z AUTO 15007KT 10SM CLR 15/11 A3008 RMK AO2 SLP192 T01500106 401890139=
201707280653 METAR KBLI 280653Z AUTO 15006KT 10SM CLR 16/11 A3008 RMK AO2 SLP192 T01560106=
201707280553 METAR KBLI 280553Z AUTO 15007KT 10SM CLR 16/11 A3008 RMK AO2 SLP192 T01610111 10183 20161 56001=
201707280453 METAR KBLI 280453Z 16008KT 10SM CLR 17/11 A3009 RMK AO2 SLP193 T01670111=
201707280353 METAR KBLI 280353Z 16009KT 10SM CLR 17/12 A3008 RMK AO2 SLP191 T01720122=
201707280253 METAR KBLI 280253Z 17009KT 10SM CLR 18/12 A3009 RMK AO2 SLP194 T01780117 56011=
201707280153 METAR KBLI 280153Z 17011KT 10SM CLR 18/12 A3009 RMK AO2 SLP197 T01780122=
201707280053 METAR KBLI 280053Z 16009KT 10SM CLR 18/12 A3011 RMK AO2 SLP201 T01830122=
201707272353 METAR KBLI 272353Z 17013G19KT 10SM CLR 18/12 A3012 RMK AO2 SLP205 T01830122 10189 20167 58011=
201707272253 METAR KBLI 272253Z 17016G19KT 10SM CLR 18/12 A3014 RMK AO2 SLP211 T01830122=
201707272153 METAR KBLI 272153Z 16012G19KT 10SM CLR 18/12 A3015 RMK AO2 SLP214 T01830117=
201707272053 METAR KBLI 272053Z 16012KT 10SM FEW018 18/12 A3015 RMK AO2 SLP216 T01830117 51004=
201707271953 METAR KBLI 271953Z 17008G18KT 10SM SCT018 18/12 A3015 RMK AO2 SLP214 T01780117=
201707271853 METAR KBLI 271853Z 16011G20KT 10SM OVC018 17/12 A3015 RMK AO2 SLP214 T01720117=
201707271753 METAR KBLI 271753Z 16013G20KT 10SM BKN018 17/12 A3014 RMK AO2 SLP212 T01670117 10167 20139 51011=
201707271703 SPECI KBLI 271703Z 16012KT 10SM BKN018 16/12 A3013 RMK AO2 T01610117=
201707271653 METAR KBLI 271653Z 15014G19KT 10SM SCT018 16/12 A3014 RMK AO2 SLP211 T01560117=
201707271553 METAR KBLI 271553Z 15013G21KT 10SM FEW012 16/12 A3012 RMK AO2 SLP206 T01610122=
201707271453 METAR KBLI 271453Z 16012G23KT 10SM SCT012 OVC065 16/12 A3011 RMK AO2 SLP201 T01560122 51016=
201707271353 METAR KBLI 271353Z 17012G22KT 10SM SCT014 BKN070 14/12 A3009 RMK AO2 SLP196 T01440117=
201707271253 METAR KBLI 271253Z AUTO 17007KT 10SM SCT070 14/12 A3008 RMK AO2 SLP191 T01390117=
201707271153 METAR KBLI 271153Z AUTO 18007KT 10SM CLR 14/12 A3006 RMK AO2 SLP185 T01390117 10167 20139 53010=
201707271053 METAR KBLI 271053Z AUTO 18008KT 10SM CLR 14/12 A3004 RMK AO2 SLP179 T01440122=
201707270953 METAR KBLI 270953Z AUTO 17012KT 10SM FEW080 14/12 A3004 RMK AO2 SLP178 T01440122=
201707270853 METAR KBLI 270853Z AUTO 17010KT 10SM CLR 15/12 A3003 RMK AO2 SLP175 T01500117 51007=
201707270753 METAR KBLI 270753Z AUTO 17007KT 10SM CLR 16/12 A3002 RMK AO2 SLP172 T01560122 402170133=
201707270653 METAR KBLI 270653Z AUTO 17009KT 10SM CLR 16/12 A3002 RMK AO2 SLP171 T01610122=
201707270553 METAR KBLI 270553Z AUTO 18010KT 10SM CLR 17/12 A3001 RMK AO2 SLP167 T01670122 10206 20167 53004=
201707270453 METAR KBLI 270453Z 18008KT 10SM CLR 17/13 A3000 RMK AO2 SLP165 T01720128=
201707270353 METAR KBLI 270353Z 18007KT 10SM CLR 17/14 A3000 RMK AO2 SLP163 T01720139=
201707270253 METAR KBLI 270253Z 17009KT 10SM CLR 18/14 A3000 RMK AO2 SLP163 T01830139 58011=
201707270153 METAR KBLI 270153Z 18008KT 10SM CLR 19/14 A3001 RMK AO2 SLP167 T01890139=
201707270053 METAR KBLI 270053Z 18007KT 10SM CLR 19/14 A3002 RMK AO2 SLP171 T01890139=
201707262353 METAR KBLI 262353Z 18008KT 160V240 10SM CLR 21/14 A3003 RMK AO2 SLP174 T02110144 10217 20167 58009=
201707262253 METAR KBLI 262253Z 18009G17KT 10SM CLR 21/14 A3004 RMK AO2 SLP179 T02110139=
201707262153 METAR KBLI 262153Z 17013G20KT 10SM CLR 21/14 A3005 RMK AO2 SLP180 T02110139=
201707262053 METAR KBLI 262053Z 17012G19KT 10SM CLR 21/14 A3005 RMK AO2 SLP183 T02060139 58005=
201707261953 METAR KBLI 261953Z 17010G24KT 10SM CLR 20/13 A3006 RMK AO2 SLP185 T02000133=
201707261853 METAR KBLI 261853Z 18008G16KT 10SM CLR 18/13 A3006 RMK AO2 SLP185 T01830133=
201707261753 METAR KBLI 261753Z 17012G17KT 10SM CLR 17/13 A3007 RMK AO2 SLP188 T01670128 10167 20133 50003=
201707261653 METAR KBLI 261653Z 17009KT 10SM CLR 16/13 A3007 RMK AO2 SLP190 T01560128=
201707261553 METAR KBLI 261553Z 17010G17KT 10SM FEW005 15/12 A3007 RMK AO2 SLP188 T01500122=
201707261453 METAR KBLI 261453Z 17011KT 10SM FEW005 14/13 A3006 RMK AO2 SLP185 T01440128 51012=
201707261353 METAR KBLI 261353Z 17008KT 10SM FEW005 14/13 A3005 RMK AO2 SLP180 T01390128=
201707261253 METAR KBLI 261253Z AUTO 18009KT 10SM CLR 13/13 A3004 RMK AO2 SLP176 T01330128=
201707261236 SPECI KBLI 261236Z AUTO 17008KT 10SM FEW002 13/13 A3003 RMK AO2 T01330128=
201707261153 METAR KBLI 261153Z AUTO 18007KT 10SM CLR 14/13 A3002 RMK AO2 SLP171 T01440128 10167 20144 53006=
201707261053 METAR KBLI 261053Z AUTO 17010G15KT 10SM CLR 15/13 A3001 RMK AO2 SLP166 T01500128=
201707260953 METAR KBLI 260953Z AUTO 18008KT 10SM CLR 16/12 A3001 RMK AO2 SLP166 T01560122=
201707260853 METAR KBLI 260853Z AUTO 18007KT 10SM CLR 15/12 A3001 RMK AO2 SLP166 T01500122 50005=
201707260753 METAR KBLI 260753Z AUTO 18004KT 10SM CLR 16/12 A3001 RMK AO2 SLP166 T01560122 402670133=
201707260653 METAR KBLI 260653Z AUTO 18007KT 10SM CLR 16/13 A3000 RMK AO2 SLP162 T01610133=
201707260553 METAR KBLI 260553Z AUTO 19005KT 10SM CLR 17/13 A2999 RMK AO2 SLP161 T01670133 10261 20167 53005=
201707260453 METAR KBLI 260453Z 18005KT 10SM CLR 18/13 A2999 RMK AO2 SLP160 T01780133=
201707260353 METAR KBLI 260353Z 00000KT 10SM CLR 18/14 A2997 RMK AO2 SLP156 T01780144=
201707260253 METAR KBLI 260253Z 17005KT 10SM CLR 22/15 A2998 RMK AO2 SLP156 T02170150 55006=
201707260153 METAR KBLI 260153Z 20004KT 10SM CLR 24/12 A2998 RMK AO2 SLP155 T02440122=
201707260053 METAR KBLI 260053Z VRB04KT 10SM CLR 26/13 A2998 RMK AO2 SLP157 T02560133=
201707252353 METAR KBLI 252353Z 25005KT 10SM CLR 26/14 A2999 RMK AO2 SLP161 T02560139 10267 20200 56011=
201707252253 METAR KBLI 252253Z VRB04KT 10SM CLR 27/15 A3000 RMK AO2 SLP164 T02670150=
201707252153 METAR KBLI 252153Z VRB04KT 10SM CLR 24/14 A3001 RMK AO2 SLP168 T02440139=
201707252053 METAR KBLI 252053Z VRB05KT 10SM CLR 24/15 A3003 RMK AO2 SLP173 T02390150 58003=
201707251953 METAR KBLI 251953Z VRB04KT 10SM CLR 22/14 A3003 RMK AO2 SLP176 T02220144=
201707251853 METAR KBLI 251853Z 19004KT 10SM CLR 22/15 A3003 RMK AO2 SLP175 T02170150=
201707251753 METAR KBLI 251753Z 17005KT 10SM CLR 20/14 A3004 RMK AO2 SLP177 T02000144 10206 20133 51004=
201707251653 METAR KBLI 251653Z 16006KT 10SM CLR 19/14 A3004 RMK AO2 SLP177 T01890144=
201707251553 METAR KBLI 251553Z 14005KT 10SM CLR 18/14 A3003 RMK AO2 SLP176 T01780144=
201707251453 METAR KBLI 251453Z 15004KT 10SM CLR 17/14 A3002 RMK AO2 SLP171 T01720144 51008=
201707251353 METAR KBLI 251353Z 16004KT 10SM CLR 16/14 A3002 RMK AO2 SLP169 T01610144=
201707251253 METAR KBLI 251253Z AUTO 00000KT 10SM CLR 13/13 A3000 RMK AO2 SLP165 T01330128=
201707251153 METAR KBLI 251153Z AUTO 17004KT 10SM CLR 14/13 A3000 RMK AO2 SLP163 T01440133 10161 20133 51006=
201707251053 METAR KBLI 251053Z AUTO 17005KT 10SM CLR 15/14 A3000 RMK AO2 SLP162 T01500139=
201707250953 METAR KBLI 250953Z AUTO 18006KT 10SM CLR 16/14 A2999 RMK AO2 SLP161 T01560139=
201707250853 METAR KBLI 250853Z AUTO 00000KT 10SM CLR 14/13 A2998 RMK AO2 SLP158 T01440128 51005=
201707250753 METAR KBLI 250753Z AUTO 00000KT 10SM CLR 14/13 A2997 RMK AO2 SLP156 T01440128 402440106=
201707250653 METAR KBLI 250653Z AUTO 00000KT 10SM CLR 15/13 A2997 RMK AO2 SLP155 T01500133=
201707250553 METAR KBLI 250553Z AUTO 00000KT 10SM CLR 16/14 A2997 RMK AO2 SLP152 T01560139 10244 20150 53008=
201707250453 METAR KBLI 250453Z 00000KT 10SM CLR 16/14 A2995 RMK AO2 SLP148 T01610139=
201707250353 METAR KBLI 250353Z 00000KT 10SM CLR 18/16 A2995 RMK AO2 SLP146 T01830156=
201707250253 METAR KBLI 250253Z 19003KT 10SM CLR 22/16 A2994 RMK AO2 SLP144 T02170156 56007=
201707250153 METAR KBLI 250153Z 00000KT 10SM CLR 23/14 A2995 RMK AO2 SLP146 T02330144=
201707250053 METAR KBLI 250053Z 27004KT 10SM CLR 24/15 A2995 RMK AO2 SLP149 T02390150=
201707242353 METAR KBLI 242353Z 25006KT 10SM CLR 23/15 A2996 RMK AO2 SLP152 T02330150 10239 20211 58015=
201707242253 METAR KBLI 242253Z VRB06KT 10SM CLR 24/14 A2998 RMK AO2 SLP158 T02390144=
201707242153 METAR KBLI 242153Z VRB05KT 10SM CLR 23/13 A2999 RMK AO2 SLP163 T02280133=
201707242053 METAR KBLI 242053Z VRB06KT 10SM CLR 22/13 A3001 RMK AO2 SLP168 T02220133 57009=
201707241953 METAR KBLI 241953Z 28005KT 10SM CLR 22/13 A3002 RMK AO2 SLP171 T02220133=
201707241853 METAR KBLI 241853Z 25010G15KT 210V300 10SM CLR 22/14 A3003 RMK AO2 SLP174 T02170139=
201707241753 METAR KBLI 241753Z 31005KT 10SM FEW027 22/15 A3004 RMK AO2 SLP177 T02170150 10217 20106 58006=
201707241653 METAR KBLI 241653Z 00000KT 10SM CLR 19/13 A3005 RMK AO2 SLP181 T01940133=
201707241553 METAR KBLI 241553Z 00000KT 10SM CLR 18/13 A3006 RMK AO2 SLP184 T01830133=
201707241453 METAR KBLI 241453Z 00000KT 10SM CLR 16/13 A3005 RMK AO2 SLP183 T01610133 53008=
201707241353 METAR KBLI 241353Z 00000KT 10SM CLR 13/12 A3005 RMK AO2 SLP180 T01330122=
201707241253 METAR KBLI 241253Z AUTO 00000KT 10SM CLR 11/11 A3003 RMK AO2 SLP176 T01110106=
201707241153 METAR KBLI 241153Z AUTO 00000KT 10SM CLR 11/11 A3003 RMK AO2 SLP175 T01110111 10150 20106 55001=
201707241053 METAR KBLI 241053Z AUTO 00000KT 10SM CLR 12/11 A3002 RMK AO2 SLP172 T01170111=
201707240953 METAR KBLI 240953Z AUTO 00000KT 10SM CLR 12/12 A3002 RMK AO2 SLP173 T01220117=
201707240853 METAR KBLI 240853Z AUTO 00000KT 10SM CLR 13/11 A3003 RMK AO2 SLP176 T01280111 58000=
201707240753 METAR KBLI 240753Z AUTO 00000KT 10SM CLR 12/11 A3004 RMK AO2 SLP177 T01220111 402280122=
201707240653 METAR KBLI 240653Z AUTO 00000KT 10SM CLR 14/11 A3004 RMK AO2 SLP177 T01390111=
201707240553 METAR KBLI 240553Z AUTO 00000KT 10SM CLR 14/11 A3003 RMK AO2 SLP176 T01440111 10228 20139 53002=
201707240453 METAR KBLI 240453Z 00000KT 10SM CLR 15/11 A3003 RMK AO2 SLP175 T01500111=
201707240353 METAR KBLI 240353Z 23003KT 10SM CLR 17/13 A3003 RMK AO2 SLP174 T01720128=
201707240253 METAR KBLI 240253Z 28004KT 10SM CLR 21/12 A3003 RMK AO2 SLP173 T02060122 56007=
201707240153 METAR KBLI 240153Z 28006KT 10SM CLR 22/11 A3003 RMK AO2 SLP175 T02170111=
201707240053 METAR KBLI 240053Z VRB04KT 10SM CLR 22/12 A3004 RMK AO2 SLP176 T02170117=
201707232353 METAR KBLI 232353Z 26008KT 10SM CLR 22/13 A3005 RMK AO2 SLP180 T02220128 10228 20189 58007=
201707232253 METAR KBLI 232253Z 30010G15KT 10SM CLR 22/13 A3007 RMK AO2 SLP186 T02220128=
201707232153 METAR KBLI 232153Z VRB06KT 10SM FEW043 22/14 A3007 RMK AO2 SLP186 T02170144=
201707232116 SPECI KBLI 232116Z VRB05KT 10SM BKN021 22/15 A3007 RMK AO2 T02170150=
201707232109 SPECI KBLI 232109Z VRB05KT 10SM FEW021 21/15 A3007 RMK AO2 T02110150=
201707232053 METAR KBLI 232053Z VRB03KT 10SM SCT019 BKN024 21/16 A3007 RMK AO2 SLP187 T02060156 58006=
201707231953 METAR KBLI 231953Z VRB04KT 10SM BKN018 21/16 A3008 RMK AO2 SLP189 T02060156=
201707231853 METAR KBLI 231853Z VRB06KT 10SM BKN016 OVC025 19/16 A3009 RMK AO2 SLP193 T01940156=
201707231753 METAR KBLI 231753Z VRB04KT 10SM SCT006 OVC011 18/16 A3009 RMK AO2 SLP195 T01830156 10189 20167 50004=
201707231735 SPECI KBLI 231735Z 28004KT 10SM SCT006 OVC011 18/16 A3009 RMK AO2 T01830161=
201707231653 METAR KBLI 231653Z VRB05KT 10SM OVC006 18/16 A3009 RMK AO2 SLP195 T01780161=
201707231553 METAR KBLI 231553Z VRB04KT 10SM OVC007 17/16 A3009 RMK AO2 SLP193 T01720156=
201707231453 METAR KBLI 231453Z 18005KT 10SM OVC007 17/15 A3008 RMK AO2 SLP190 T01670150 53003=
201707231353 METAR KBLI 231353Z VRB03KT 10SM FEW006 OVC021 17/16 A3007 RMK AO2 SLP188 T01670156=
201707231253 METAR KBLI 231253Z AUTO 18003KT 10SM OVC028 17/15 A3007 RMK AO2 SLP188 T01670150=
201707231153 METAR KBLI 231153Z AUTO 00000KT 10SM FEW007 OVC026 17/15 A3007 RMK AO2 SLP187 70002 T01670150 10189 20167 56003=
201707231053 METAR KBLI 231053Z AUTO 17004KT 10SM OVC028 17/15 A3007 RMK AO2 SLP188 T01720150=
201707231025 SPECI KBLI 231025Z AUTO 20003KT 10SM BKN027 OVC050 17/15 A3007 RMK AO2 T01720150=
201707230953 METAR KBLI 230953Z AUTO 00000KT 10SM OVC050 18/15 A3007 RMK AO2 SLP188 T01780150=
201707230853 METAR KBLI 230853Z AUTO 00000KT 10SM OVC055 18/16 A3008 RMK AO2 SLP190 T01830156 58007=
201707230753 METAR KBLI 230753Z AUTO 27004KT 10SM OVC060 18/16 A3009 RMK AO2 SLP193 T01830156 402390150=
201707230653 METAR KBLI 230653Z AUTO 00000KT 10SM OVC060 19/17 A3009 RMK AO2 SLP195 T01890167=
201707230553 METAR KBLI 230553Z AUTO 00000KT 10SM OVC060 18/17 A3010 RMK AO2 SLP197 T01830167 10239 20178 58003=
201707230453 METAR KBLI 230453Z 00000KT 10SM OVC060 19/16 A3011 RMK AO2 SLP201 T01890161=
201707230353 METAR KBLI 230353Z 00000KT 10SM CLR 20/16 A3010 RMK AO2 SLP198 T02000161=
201707230253 METAR KBLI 230253Z 35005KT 10SM FEW085 22/16 A3011 RMK AO2 SLP200 T02170161 56012=
201707230153 METAR KBLI 230153Z VRB06KT 10SM BKN070 23/16 A3011 RMK AO2 SLP202 T02330161=
201707230053 METAR KBLI 230053Z 36009KT 10SM OVC065 22/16 A3013 RMK AO2 SLP207 T02170156=
201707222353 METAR KBLI 222353Z 35007KT 10SM FEW025 OVC080 23/17 A3014 RMK AO2 SLP212 T02330167 10233 20189 58012=
201707222253 METAR KBLI 222253Z 33007KT 10SM OVC065 22/17 A3016 RMK AO2 SLP216 T02220167=
201707222153 METAR KBLI 222153Z 36007KT 10SM OVC070 23/16 A3017 RMK AO2 SLP221 T02280161=
201707222053 METAR KBLI 222053Z 32007KT 290V360 10SM BKN080 OVC090 23/17 A3018 RMK AO2 SLP224 T02330167 58005=
201707221953 METAR KBLI 221953Z 35004KT 10SM OVC060 23/16 A3019 RMK AO2 SLP227 T02280161=
201707221853 METAR KBLI 221853Z 04004KT 10SM FEW013 OVC050 21/17 A3019 RMK AO2 SLP229 T02060167=
201707221753 METAR KBLI 221753Z 01004KT 10SM OVC037 19/17 A3019 RMK AO2 SLP230 60002 T01890167 10189 20150 53001=
201707221653 METAR KBLI 221653Z 03004KT 10SM BKN037 OVC060 18/16 A3019 RMK AO2 SLP228 T01780161=
201707221553 METAR KBLI 221553Z 04004KT 10SM OVC036 17/16 A3019 RMK AO2 SLP230 T01720161=
201707221453 METAR KBLI 221453Z 05003KT 10SM OVC034 16/16 A3019 RMK AO2 RAE26 SLP229 P0001 60002 T01610156 51013=
201707221353 METAR KBLI 221353Z 00000KT 10SM -RA OVC039 16/15 A3018 RMK AO2 RAB1254E03B20 SLP226 P0001 T01560150=
201707221253 METAR KBLI 221253Z AUTO 00000KT 9SM OVC041 16/14 A3017 RMK AO2 RAB06E22 SLP222 P0000 T01560144=
201707221153 METAR KBLI 221153Z AUTO 21003KT 10SM OVC060 16/14 A3015 RMK AO2 SLP216 T01610139 10172 20161 53004=
201707221053 METAR KBLI 221053Z AUTO 00000KT 10SM OVC050 16/14 A3014 RMK AO2 SLP211 T01610139=
201707220953 METAR KBLI 220953Z AUTO 00000KT 10SM OVC055 17/13 A3013 RMK AO2 SLP210 T01670133=
201707220853 METAR KBLI 220853Z AUTO 21004KT 10SM FEW055 OVC070 17/14 A3014 RMK AO2 SLP211 T01670144 53007=
201707220753 METAR KBLI 220753Z AUTO 26003KT 10SM OVC070 17/15 A3013 RMK AO2 SLP208 T01670150 402060122=
201707220653 METAR KBLI 220653Z AUTO 00000KT 10SM OVC080 17/15 A3013 RMK AO2 SLP207 T01670150=
201707220553 METAR KBLI 220553Z AUTO 00000KT 10SM FEW060 SCT110 17/14 A3012 RMK AO2 RAE02 SLP205 P0000 60000 T01670144 10206 20167 58004=
201707220453 METAR KBLI 220453Z 00000KT 10SM -RA OVC060 18/16 A3013 RMK AO2 RAB49 SLP208 P0000 T01780156=
201707220353 METAR KBLI 220353Z 00000KT 10SM OVC070 18/15 A3012 RMK AO2 SLP207 T01830150=
201707220253 METAR KBLI 220253Z 00000KT 10SM OVC070 19/15 A3013 RMK AO2 RAB11E22 SLP209 P0000 60000 T01890150 56005=
201707220153 METAR KBLI 220153Z 27003KT 10SM OVC070 19/14 A3013 RMK AO2 RAB09E25 SLP209 P0000 T01890144=
201707220053 METAR KBLI 220053Z 00000KT 10SM OVC080 20/13 A3014 RMK AO2 RAB15E29 SLP212 P0000 T02000133=
201707212353 METAR KBLI 212353Z VRB03KT 10SM FEW035 BKN090 BKN110 21/13 A3015 RMK AO2 RAB00E40 SLP214 P0000 60000 T02060128 10206 20178 56002=
201707212253 METAR KBLI 212253Z 31003KT 10SM OVC100 20/12 A3015 RMK AO2 RAB01E14 SLP215 P0000 T02000122=
201707212153 METAR KBLI 212153Z VRB03KT 10SM OVC095 20/12 A3015 RMK AO2 SLP215 T02000117=
201707212053 METAR KBLI 212053Z 27003KT 10SM BKN110 21/13 A3015 RMK AO2 RAB22E35 SLP216 P0000 60000 T02060128 58001=
201707211953 METAR KBLI 211953Z 00000KT 10SM FEW038 OVC110 19/13 A3016 RMK AO2 SLP218 T01940128=
201707211853 METAR KBLI 211853Z 00000KT 10SM FEW120 19/13 A3016 RMK AO2 SLP218 T01940128=
201707211753 METAR KBLI 211753Z 17006KT 10SM FEW120 18/13 A3016 RMK AO2 SLP218 T01780128 10183 20122 53006=
201707211653 METAR KBLI 211653Z 18006KT 10SM OVC120 17/12 A3014 RMK AO2 SLP213 T01720117=
201707211553 METAR KBLI 211553Z 18005KT 10SM CLR 17/13 A3014 RMK AO2 SLP212 T01670128=
201707211453 METAR KBLI 211453Z 18005KT 10SM CLR 16/13 A3014 RMK AO2 SLP212 T01610128 53008=
201707211353 METAR KBLI 211353Z 00000KT 10SM CLR 13/12 A3013 RMK AO2 SLP208 T01330122=
201707211253 METAR KBLI 211253Z AUTO 00000KT 10SM CLR 12/12 A3012 RMK AO2 SLP205 T01220117=
201707211153 METAR KBLI 211153Z AUTO VRB03KT 10SM CLR 14/13 A3012 RMK AO2 SLP204 70006 T01440128 10167 20128 56001=
201707211053 METAR KBLI 211053Z AUTO 21003KT 10SM BKN065 14/13 A3012 RMK AO2 SLP204 T01390128=
201707210953 METAR KBLI 210953Z AUTO 00000KT 10SM BKN060 14/13 A3012 RMK AO2 SLP204 T01390128=
201707210853 METAR KBLI 210853Z AUTO 17003KT 10SM CLR 14/13 A3012 RMK AO2 SLP205 T01440128 53003=
201707210753 METAR KBLI 210753Z AUTO 18006KT 10SM CLR 16/13 A3011 RMK AO2 SLP204 T01560128 402110156=
201707210653 METAR KBLI 210653Z AUTO 17007KT 10SM CLR 17/13 A3011 RMK AO2 SLP202 T01670133=
201707210553 METAR KBLI 210553Z AUTO 17006KT 10SM CLR 17/13 A3011 RMK AO2 SLP202 T01670133 10211 20167 50001=
201707210453 METAR KBLI 210453Z 17005KT 10SM OVC060 18/12 A3011 RMK AO2 SLP203 T01780122=
201707210353 METAR KBLI 210353Z 18004KT 10SM BKN085 18/12 A3011 RMK AO2 SLP200 T01830122=
201707210253 METAR KBLI 210253Z 16007KT 10SM OVC085 20/12 A3011 RMK AO2 SLP201 T02000117 56003=
201707210153 METAR KBLI 210153Z 16007KT 10SM OVC080 20/12 A3011 RMK AO2 SLP201 T02000117=
201707210053 METAR KBLI 210053Z 17007KT 10SM BKN075 21/12 A3011 RMK AO2 SLP201 T02060117=
201707202353 METAR KBLI 202353Z 16010KT 10SM CLR 21/12 A3012 RMK AO2 SLP204 T02060117 10211 20167 58004=
201707202253 METAR KBLI 202253Z 16011KT 10SM BKN090 21/12 A3012 RMK AO2 SLP205 T02060122=
201707202153 METAR KBLI 202153Z 17011KT 10SM FEW090 21/13 A3013 RMK AO2 SLP206 T02060128=
201707202053 METAR KBLI 202053Z 16008G16KT 140V200 10SM FEW020 SCT080 20/13 A3013 RMK AO2 SLP207 T02000128 51010=
201707201953 METAR KBLI 201953Z 17010KT 10SM FEW020 SCT060 19/13 A3012 RMK AO2 SLP206 T01890133=
201707201853 METAR KBLI 201853Z 17010KT 10SM FEW005 SCT040 BKN065 18/14 A3012 RMK AO2 SLP204 T01780144=
201707201753 METAR KBLI 201753Z 16010KT 10SM OVC041 17/15 A3010 RMK AO2 RAE1658 SLP198 P0000 60006 T01670150 10167 20156 51009=
201707201653 METAR KBLI 201653Z 16007KT 10SM -RA FEW005 SCT025 OVC038 16/15 A3009 RMK AO2 RAB33 SLP196 P0000 T01560150=
201707201553 METAR KBLI 201553Z 15009KT 10SM SCT018 OVC030 16/14 A3009 RMK AO2 RAE1457B04E35 SLP194 P0006 T01560144=
201707201457 SPECI KBLI 201457Z 17007KT 10SM FEW024 SCT029 OVC035 16/14 A3007 RMK AO2 RAE57 P0000 T01610139=
201707201453 METAR KBLI 201453Z 17007KT 10SM -RA FEW026 OVC035 16/14 A3007 RMK AO2 RAB27 SLP188 P0000 60000 T01610139 51016=
201707201353 METAR KBLI 201353Z 17008KT 10SM OVC044 16/14 A3006 RMK AO2 RAB12E53 SLP184 P0000 T01610139=
201707201253 METAR KBLI 201253Z AUTO 17008G15KT 10SM OVC045 17/13 A3004 RMK AO2 SLP177 T01670133=
201707201153 METAR KBLI 201153Z AUTO 17011G18KT 10SM BKN085 16/13 A3002 RMK AO2 SLP171 T01610133 10183 20161 53007=
201707201053 METAR KBLI 201053Z AUTO 17009G17KT 10SM SCT075 OVC100 17/13 A3001 RMK AO2 SLP166 T01670133=
201707200953 METAR KBLI 200953Z AUTO 18009G15KT 10SM BKN070 BKN080 OVC100 17/13 A3000 RMK AO2 SLP163 T01720128=
201707200853 METAR KBLI 200853Z AUTO 17009KT 10SM OVC090 18/12 A3000 RMK AO2 SLP164 T01780122 51006=
201707200753 METAR KBLI 200753Z AUTO 16006KT 10SM OVC080 18/12 A3000 RMK AO2 SLP163 T01780117 402170150=
201707200653 METAR KBLI 200653Z AUTO 17006KT 10SM FEW080 SCT110 18/12 A2999 RMK AO2 SLP160 T01780122=
201707200553 METAR KBLI 200553Z AUTO 17006KT 10SM FEW080 18/12 A2998 RMK AO2 SLP158 T01780122 10211 20178 53004=
201707200453 METAR KBLI 200453Z 17005KT 10SM CLR 18/13 A2998 RMK AO2 SLP157 T01830128=
201707200353 METAR KBLI 200353Z 17007KT 10SM CLR 18/13 A2997 RMK AO2 SLP154 T01830128=
201707200253 METAR KBLI 200253Z 17009KT 10SM CLR 20/12 A2997 RMK AO2 SLP154 T02000122 56009=
201707200153 METAR KBLI 200153Z 17008KT 10SM CLR 20/11 A2997 RMK AO2 SLP154 T02000111=
201707200053 METAR KBLI 200053Z 17010G17KT 10SM CLR 21/11 A2998 RMK AO2 SLP156 T02060106=
201707192353 METAR KBLI 192353Z 18008KT 10SM CLR 21/09 A3000 RMK AO2 SLP164 T02110089 10217 20178 58020=
201707192253 METAR KBLI 192253Z 17009KT 10SM CLR 21/08 A3002 RMK AO2 SLP171 T02110083=
201707192153 METAR KBLI 192153Z 18008G14KT 10SM CLR 21/08 A3004 RMK AO2 SLP177 T02060078=
201707192053 METAR KBLI 192053Z 17009KT 10SM CLR 21/08 A3005 RMK AO2 SLP183 T02060078 58010=
201707191953 METAR KBLI 191953Z 17010KT 10SM CLR 19/09 A3007 RMK AO2 SLP188 T01940094=
201707191853 METAR KBLI 191853Z 17009KT 10SM CLR 19/10 A3008 RMK AO2 SLP192 T01890100=
201707191753 METAR KBLI 191753Z 17010G18KT 10SM CLR 18/11 A3008 RMK AO2 SLP193 T01780106 10178 20150 58001=
201707191653 METAR KBLI 191653Z 15013G18KT 10SM CLR 17/11 A3009 RMK AO2 SLP194 T01720106=
201707191553 METAR KBLI 191553Z 17012G21KT 10SM CLR 16/11 A3010 RMK AO2 SLP197 T01610111=
201707191453 METAR KBLI 191453Z 16013G19KT 10SM CLR 16/09 A3009 RMK AO2 SLP193 T01560094 51009=
201707191353 METAR KBLI 191353Z 17013G19KT 10SM CLR 16/09 A3008 RMK AO2 SLP192 T01560089=
201707191253 METAR KBLI 191253Z AUTO 17009KT 10SM CLR 15/08 A3007 RMK AO2 SLP186 T01500083=
201707191153 METAR KBLI 191153Z AUTO 18009KT 10SM CLR 15/09 A3006 RMK AO2 SLP183 T01500089 10183 20150 53013=
201707191053 METAR KBLI 191053Z AUTO 18009KT 10SM CLR 15/09 A3004 RMK AO2 SLP179 T01500094=
201707190953 METAR KBLI 190953Z AUTO 17006KT 10SM CLR 16/09 A3003 RMK AO2 SLP173 T01560089=
201707190853 METAR KBLI 190853Z AUTO VRB04KT 10SM CLR 16/09 A3002 RMK AO2 SLP170 T01610089 51009=
201707190753 METAR KBLI 190753Z AUTO 18009KT 10SM CLR 17/09 A3001 RMK AO2 SLP168 T01720089 402560100=
201707190653 METAR KBLI 190653Z AUTO 19005KT 10SM CLR 18/09 A3001 RMK AO2 SLP166 T01780089=
201707190553 METAR KBLI 190553Z AUTO 17007KT 10SM CLR 18/11 A2999 RMK AO2 SLP161 T01830106 10244 20183 53007=
201707190453 METAR KBLI 190453Z 18007KT 10SM CLR 19/11 A2998 RMK AO2 SLP158 T01940111=
201707190353 METAR KBLI 190353Z 17006KT 10SM CLR 19/11 A2997 RMK AO2 SLP155 T01940111=
201707190253 METAR KBLI 190253Z 17007KT 10SM CLR 22/10 A2997 RMK AO2 SLP156 T02170100 55001=
201707190153 METAR KBLI 190153Z 17007KT 10SM CLR 21/12 A2997 RMK AO2 SLP155 T02110122=
201707190053 METAR KBLI 190053Z 19007KT 10SM CLR 23/11 A2997 RMK AO2 SLP155 T02330111=
201707182353 METAR KBLI 182353Z 18006KT 10SM CLR 24/11 A2998 RMK AO2 SLP157 T02440106 10256 20194 57009=
201707182253 METAR KBLI 182253Z 25006KT 10SM CLR 25/05 A2999 RMK AO2 SLP160 T02500050=
201707182153 METAR KBLI 182153Z VRB05KT 10SM CLR 24/07 A3000 RMK AO2 SLP163 T02440072=
201707182053 METAR KBLI 182053Z VRB05KT 10SM CLR 23/10 A3001 RMK AO2 SLP166 T02330100 58007=
201707181953 METAR KBLI 181953Z 20005KT 10SM CLR 22/12 A3001 RMK AO2 SLP168 T02220117=
201707181853 METAR KBLI 181853Z VRB04KT 10SM CLR 21/12 A3002 RMK AO2 SLP172 T02060117=
201707181753 METAR KBLI 181753Z 19004KT 10SM CLR 19/12 A3003 RMK AO2 SLP173 T01940117 10194 20100 58004=
201707181653 METAR KBLI 181653Z 15004KT 10SM CLR 18/12 A3003 RMK AO2 SLP176 T01780117=
201707181553 METAR KBLI 181553Z 20005KT 10SM CLR 16/11 A3004 RMK AO2 SLP179 T01610111=
201707181453 METAR KBLI 181453Z VRB05KT 10SM CLR 15/11 A3004 RMK AO2 SLP177 T01500111 53006=
201707181353 METAR KBLI 181353Z 00000KT 10SM CLR 13/12 A3003 RMK AO2 SLP176 T01330122=
201707181253 METAR KBLI 181253Z AUTO 00000KT 10SM CLR 10/09 A3002 RMK AO2 SLP172 T01000094=
201707181153 METAR KBLI 181153Z AUTO 00000KT 10SM CLR 11/10 A3002 RMK AO2 SLP171 T01060100 10161 20106 53001=
201707181053 METAR KBLI 181053Z AUTO 00000KT 10SM CLR 12/11 A3002 RMK AO2 SLP170 T01170106=
201707180853 METAR KBLI 180853Z AUTO 17004KT 10SM CLR 13/12 A3001 RMK AO2 SLP170 T01330117 58001=
201707180753 METAR KBLI 180753Z AUTO 18004KT 10SM CLR 15/11 A3002 RMK AO2 SLP170 T01500111 402390106=
201707180653 METAR KBLI 180653Z AUTO 19003KT 10SM CLR 15/12 A3002 RMK AO2 SLP171 T01500117=
201707180553 METAR KBLI 180553Z AUTO 00000KT 10SM CLR 14/11 A3002 RMK AO2 SLP171 T01440111 10239 20144 53003=
201707180453 METAR KBLI 180453Z 17003KT 10SM CLR 16/13 A3002 RMK AO2 SLP170 T01610128=
201707180353 METAR KBLI 180353Z 24004KT 10SM CLR 18/13 A3001 RMK AO2 SLP166 T01830128=
201707180253 METAR KBLI 180253Z 26003KT 10SM CLR 20/12 A3001 RMK AO2 SLP168 T02000117 56008=
201707180153 METAR KBLI 180153Z 28004KT 10SM CLR 23/09 A3001 RMK AO2 SLP168 T02280094=
201707180053 METAR KBLI 180053Z 27004KT 10SM CLR 23/07 A3002 RMK AO2 SLP171 T02330072=
201707172353 METAR KBLI 172353Z 31007KT 10SM CLR 23/07 A3003 RMK AO2 SLP176 T02330067 10233 20194 58016=
201707172253 METAR KBLI 172253Z 29008KT 240V310 10SM CLR 23/09 A3005 RMK AO2 SLP182 T02280089=
201707172153 METAR KBLI 172153Z 26007KT 200V300 10SM CLR 22/11 A3007 RMK AO2 SLP187 T02170106=
201707172053 METAR KBLI 172053Z 29007KT 10SM CLR 21/12 A3008 RMK AO2 SLP192 T02110117 56008=
201707171953 METAR KBLI 171953Z 28007KT 220V300 10SM CLR 21/12 A3008 RMK AO2 SLP193 T02110122=
201707171853 METAR KBLI 171853Z 28007KT 10SM CLR 20/11 A3009 RMK AO2 SLP196 T02000111=
201707171753 METAR KBLI 171753Z 32005KT 10SM CLR 19/09 A3011 RMK AO2 SLP201 T01940094 10200 20106 58008=
201707171653 METAR KBLI 171653Z VRB05KT 10SM CLR 18/12 A3012 RMK AO2 SLP204 T01780122=
201707171553 METAR KBLI 171553Z 19005KT 10SM CLR 16/12 A3013 RMK AO2 SLP209 T01560117=
201707171453 METAR KBLI 171453Z 00000KT 10SM CLR 16/11 A3013 RMK AO2 SLP209 T01560111 50003=
201707171353 METAR KBLI 171353Z AUTO 00000KT 10SM CLR 13/11 A3013 RMK AO2 SLP209 T01280111=
201707171253 METAR KBLI 171253Z AUTO 06003KT 10SM CLR 11/11 A3012 RMK AO2 SLP207 T01110106=
201707171153 METAR KBLI 171153Z AUTO 15004KT 10SM CLR 11/11 A3012 RMK AO2 SLP206 T01110106 10133 20111 58008=
201707171053 METAR KBLI 171053Z AUTO 16003KT 10SM CLR 12/11 A3013 RMK AO2 SLP208 T01220111=
201707171036 SPECI KBLI 171036Z AUTO 16003KT 10SM SCT029 12/12 A3013 RMK AO2 T01220117=
201707171000 SPECI KBLI 171000Z AUTO 00000KT 10SM BKN029 12/12 A3014 RMK AO2 T01220117=
201707170953 METAR KBLI 170953Z AUTO 00000KT 10SM SCT029 12/11 A3014 RMK AO2 SLP213 T01170111=
201707170853 METAR KBLI 170853Z AUTO 18003KT 10SM CLR 13/12 A3014 RMK AO2 SLP214 T01280117 56004=
201707170753 METAR KBLI 170753Z AUTO 00000KT 10SM CLR 12/12 A3015 RMK AO2 SLP215 T01220117 402170111=
201707170653 METAR KBLI 170653Z AUTO 00000KT 10SM CLR 13/12 A3015 RMK AO2 SLP216 T01280117=
201707170553 METAR KBLI 170553Z AUTO 00000KT 10SM CLR 13/12 A3016 RMK AO2 SLP218 T01280117 10217 20128 56006=
201707170453 METAR KBLI 170453Z 00000KT 10SM CLR 15/11 A3017 RMK AO2 SLP221 T01500111=
201707170353 METAR KBLI 170353Z 00000KT 10SM CLR 16/11 A3017 RMK AO2 SLP221 T01560106=
201707170253 METAR KBLI 170253Z 00000KT 10SM CLR 18/10 A3018 RMK AO2 SLP224 T01780100 56011=
201707170153 METAR KBLI 170153Z 26005KT 10SM CLR 21/08 A3018 RMK AO2 SLP226 T02060078=
201707170053 METAR KBLI 170053Z 00000KT 10SM CLR 21/07 A3019 RMK AO2 SLP228 T02110072=
201707162353 METAR KBLI 162353Z VRB03KT 10SM CLR 22/08 A3021 RMK AO2 SLP235 T02170083 10217 20161 58014=
201707162253 METAR KBLI 162253Z 20004KT 10SM CLR 21/09 A3022 RMK AO2 SLP241 T02060094=
201707162153 METAR KBLI 162153Z 20005KT 10SM CLR 20/08 A3024 RMK AO2 SLP244 T02000078=
201707162053 METAR KBLI 162053Z 17005KT 10SM CLR 19/09 A3025 RMK AO2 SLP249 T01940089 58004=
201707161953 METAR KBLI 161953Z VRB06KT 10SM CLR 18/08 A3026 RMK AO2 SLP251 T01830083=
201707161853 METAR KBLI 161853Z 17009KT 10SM CLR 18/11 A3026 RMK AO2 SLP254 T01780111=
201707161753 METAR KBLI 161753Z 17008KT 10SM OVC070 16/12 A3026 RMK AO2 SLP254 T01610117 10161 20133 51007=
201707161653 METAR KBLI 161653Z 17008KT 10SM FEW048 BKN060 OVC080 16/11 A3026 RMK AO2 SLP252 T01610106=
201707161553 METAR KBLI 161553Z 17010KT 10SM BKN050 BKN060 OVC080 16/11 A3025 RMK AO2 SLP251 T01560106=
201707161453 METAR KBLI 161453Z 14009KT 10SM OVC075 15/10 A3024 RMK AO2 SLP247 T01500100 51009=
201707161353 METAR KBLI 161353Z 16006KT 10SM CLR 14/10 A3023 RMK AO2 SLP243 T01440100=
201707161253 METAR KBLI 161253Z AUTO 15007KT 10SM BKN060 14/09 A3023 RMK AO2 SLP242 T01390094=
201707161153 METAR KBLI 161153Z AUTO 16006KT 10SM FEW020 14/09 A3021 RMK AO2 SLP237 T01390094 10172 20139 53015=
201707161053 METAR KBLI 161053Z AUTO 17004KT 10SM CLR 14/09 A3020 RMK AO2 SLP232 T01440089=
201707160953 METAR KBLI 160953Z AUTO 18008KT 10SM SCT050 16/08 A3018 RMK AO2 SLP226 T01560083=
201707160853 METAR KBLI 160853Z AUTO 17008KT 10SM BKN055 16/08 A3017 RMK AO2 SLP222 T01610083 50003=
201707160753 METAR KBLI 160753Z AUTO 19003KT 10SM OVC055 17/08 A3017 RMK AO2 SLP223 T01670083 402170139=
201707160653 METAR KBLI 160653Z AUTO VRB03KT 10SM OVC050 17/07 A3017 RMK AO2 SLP221 T01670072=
201707160553 METAR KBLI 160553Z AUTO VRB03KT 10SM OVC050 17/08 A3016 RMK AO2 SLP220 T01720078 10211 20172 53006=
201707160453 METAR KBLI 160453Z VRB04KT 10SM OVC060 18/11 A3015 RMK AO2 SLP214 T01780106=
201707160353 METAR KBLI 160353Z 17004KT 10SM OVC060 18/11 A3014 RMK AO2 SLP212 T01830111=
201707160253 METAR KBLI 160253Z 17006KT 10SM OVC065 19/12 A3015 RMK AO2 SLP214 T01940117 55005=
201707160153 METAR KBLI 160153Z 17007KT 10SM CLR 20/11 A3014 RMK AO2 SLP213 T02000111=
201707160053 METAR KBLI 160053Z 16010KT 10SM CLR 21/11 A3015 RMK AO2 SLP216 T02060111=
201707152353 METAR KBLI 152353Z 16012KT 10SM CLR 21/11 A3016 RMK AO2 SLP219 T02110106 10217 20183 58007=
201707152253 METAR KBLI 152253Z 16012KT 10SM CLR 21/11 A3017 RMK AO2 SLP222 T02060111=
201707152153 METAR KBLI 152153Z 17009KT 140V210 10SM CLR 21/11 A3018 RMK AO2 SLP224 T02060111=
201707152053 METAR KBLI 152053Z 17008G16KT 130V190 10SM CLR 21/11 A3018 RMK AO2 SLP226 T02060106 56001=
201707151953 METAR KBLI 151953Z 16012G18KT 10SM CLR 19/10 A3018 RMK AO2 SLP225 T01940100=
201707151853 METAR KBLI 151853Z 17011KT 10SM CLR 19/09 A3018 RMK AO2 SLP226 T01890094=
201707151753 METAR KBLI 151753Z 17011G19KT 10SM CLR 18/11 A3018 RMK AO2 SLP226 T01830106 10183 20139 51005=
201707151653 METAR KBLI 151653Z 17013KT 10SM CLR 18/09 A3018 RMK AO2 SLP226 T01780094=
201707151553 METAR KBLI 151553Z 16008KT 10SM CLR 17/09 A3018 RMK AO2 SLP224 T01720089=
201707151453 METAR KBLI 151453Z 18008KT 10SM CLR 16/11 A3017 RMK AO2 SLP221 T01610106 53012=
201707151353 METAR KBLI 151353Z 17007KT 10SM CLR 15/11 A3015 RMK AO2 SLP217 T01500106=
201707151253 METAR KBLI 151253Z AUTO 18007KT 10SM CLR 14/11 A3014 RMK AO2 SLP212 T01390106=
201707151153 METAR KBLI 151153Z AUTO 17010KT 10SM CLR 14/11 A3013 RMK AO2 SLP208 T01440106 10172 20144 53010=
201707151053 METAR KBLI 151053Z AUTO 18008KT 10SM CLR 14/11 A3012 RMK AO2 SLP203 T01440111=
201707150953 METAR KBLI 150953Z AUTO 17007G15KT 10SM CLR 15/11 A3011 RMK AO2 SLP202 T01500106=
201707150853 METAR KBLI 150853Z AUTO 18007KT 10SM CLR 16/11 A3010 RMK AO2 SLP198 T01560111 53007=
201707150753 METAR KBLI 150753Z AUTO 18005KT 10SM CLR 16/12 A3009 RMK AO2 SLP194 T01610117 402330117=
201707150653 METAR KBLI 150653Z AUTO 17007KT 10SM CLR 17/12 A3008 RMK AO2 SLP193 T01670117=
201707150553 METAR KBLI 150553Z AUTO 17006KT 10SM CLR 17/12 A3008 RMK AO2 SLP192 T01720122 10233 20172 51007=
201707150453 METAR KBLI 150453Z 16005KT 10SM CLR 18/11 A3008 RMK AO2 SLP191 T01830106=
201707150353 METAR KBLI 150353Z 17007KT 10SM CLR 18/12 A3007 RMK AO2 SLP187 T01780122=
201707150253 METAR KBLI 150253Z 17007KT 10SM CLR 20/12 A3006 RMK AO2 SLP185 T02000117 56009=
201707150153 METAR KBLI 150153Z 20003KT 10SM CLR 22/12 A3007 RMK AO2 SLP187 T02170117=
201707150053 METAR KBLI 150053Z VRB04KT 10SM CLR 22/13 A3007 RMK AO2 SLP189 T02220128=
201707142353 METAR KBLI 142353Z 24004KT 10SM CLR 23/12 A3009 RMK AO2 SLP194 T02330122 10233 20178 58013=
201707142253 METAR KBLI 142253Z 20003KT 10SM CLR 23/11 A3010 RMK AO2 SLP199 T02280111=
201707142153 METAR KBLI 142153Z VRB05KT 10SM CLR 22/11 A3012 RMK AO2 SLP204 T02220111=
201707142053 METAR KBLI 142053Z VRB06KT 10SM CLR 22/13 A3013 RMK AO2 SLP208 T02170128 58012=
201707141953 METAR KBLI 141953Z VRB05KT 10SM CLR 21/12 A3014 RMK AO2 SLP211 T02110122=
201707141853 METAR KBLI 141853Z VRB03KT 10SM CLR 20/11 A3015 RMK AO2 SLP217 T02000106=
201707141753 METAR KBLI 141753Z 24004KT 10SM CLR 18/11 A3016 RMK AO2 SLP219 T01780111 10183 20117 57003=
201707141653 METAR KBLI 141653Z 20004KT 10SM CLR 17/12 A3016 RMK AO2 SLP220 T01670117=
201707141553 METAR KBLI 141553Z 00000KT 10SM CLR 15/11 A3017 RMK AO2 SLP222 T01500111=
201707141453 METAR KBLI 141453Z 19004KT 10SM CLR 14/11 A3017 RMK AO2 SLP223 T01440106 52006=
201707141353 METAR KBLI 141353Z 17003KT 10SM CLR 14/11 A3017 RMK AO2 SLP221 T01390111=
201707141253 METAR KBLI 141253Z AUTO 00000KT 10SM CLR 12/11 A3016 RMK AO2 SLP219 T01220106=
201707141153 METAR KBLI 141153Z AUTO 17007KT 10SM CLR 13/11 A3015 RMK AO2 SLP216 T01330106 10156 20117 53002=
201707141053 METAR KBLI 141053Z AUTO 18005KT 10SM CLR 13/11 A3014 RMK AO2 SLP213 T01330106=
201707140953 METAR KBLI 140953Z AUTO 19003KT 10SM CLR 12/11 A3015 RMK AO2 SLP214 T01170106=
201707140853 METAR KBLI 140853Z AUTO 18004KT 10SM CLR 14/11 A3015 RMK AO2 SLP214 T01390106 53005=
201707140753 METAR KBLI 140753Z AUTO 16004KT 10SM CLR 14/11 A3014 RMK AO2 SLP212 T01390111 402000128=
201707140653 METAR KBLI 140653Z AUTO 16005KT 10SM CLR 14/11 A3013 RMK AO2 SLP210 T01390106=
201707140553 METAR KBLI 140553Z AUTO 17007KT 10SM CLR 16/11 A3013 RMK AO2 SLP209 T01560111 10200 20156 53004=
201707140453 METAR KBLI 140453Z 18006KT 10SM CLR 16/11 A3013 RMK AO2 SLP209 T01560111=
201707140353 METAR KBLI 140353Z 17005KT 10SM CLR 17/11 A3012 RMK AO2 SLP205 T01670111=
201707140253 METAR KBLI 140253Z 19003KT 10SM CLR 17/11 A3012 RMK AO2 SLP205 T01720111 58006=
201707140153 METAR KBLI 140153Z 17005KT 10SM CLR 19/11 A3013 RMK AO2 SLP209 T01890111=
201707140053 METAR KBLI 140053Z 17009KT 10SM CLR 19/12 A3014 RMK AO2 SLP211 T01940117=
201707132353 METAR KBLI 132353Z AUTO 17006KT 10SM CLR 20/12 A3014 RMK AO2 SLP211 T02000117 10200 20161 58002=
201707132253 METAR KBLI 132253Z AUTO 19010G14KT 10SM CLR 19/11 A3014 RMK AO2 SLP214 T01890106=
201707132153 METAR KBLI 132153Z 17010G16KT 10SM FEW060 19/12 A3015 RMK AO2 SLP214 T01890122=
201707132053 METAR KBLI 132053Z 19008KT 10SM FEW042 OVC060 19/12 A3014 RMK AO2 SLP213 T01890122 51010=
201707131953 METAR KBLI 131953Z 16010KT 10SM FEW046 OVC060 17/13 A3014 RMK AO2 SLP214 T01720128=
201707131853 METAR KBLI 131853Z 17009G18KT 10SM OVC047 17/13 A3013 RMK AO2 SLP210 T01670128=
201707131753 METAR KBLI 131753Z 16011KT 10SM OVC049 16/13 A3011 RMK AO2 SLP203 T01610128 10167 20144 51016=
201707131653 METAR KBLI 131653Z 17009G16KT 10SM OVC060 17/13 A3010 RMK AO2 SLP199 T01670128=
201707131553 METAR KBLI 131553Z 18005KT 10SM OVC041 16/12 A3009 RMK AO2 SLP194 T01610122=
201707131453 METAR KBLI 131453Z 17007KT 10SM OVC042 16/12 A3006 RMK AO2 SLP186 T01560117 53016=
201707131353 METAR KBLI 131353Z 17009KT 10SM OVC043 16/13 A3004 RMK AO2 SLP179 T01560128=
201707131253 METAR KBLI 131253Z AUTO 17007KT 10SM OVC048 15/12 A3003 RMK AO2 SLP176 T01500122=
201707131153 METAR KBLI 131153Z AUTO 18010G15KT 10SM OVC050 15/12 A3002 RMK AO2 SLP170 T01500122 10172 20144 53016=
201707131053 METAR KBLI 131053Z AUTO VRB06KT 10SM BKN070 BKN090 15/12 A2999 RMK AO2 SLP163 T01500122=
201707130953 METAR KBLI 130953Z AUTO 18009KT 10SM BKN090 15/12 A2998 RMK AO2 SLP158 T01500117=
201707130853 METAR KBLI 130853Z AUTO 17008KT 10SM BKN075 BKN090 16/12 A2997 RMK AO2 SLP154 T01560122 50000=
201707130753 METAR KBLI 130753Z AUTO 17004KT 10SM BKN095 17/12 A2997 RMK AO2 SLP156 T01670117 402060122=
201707130653 METAR KBLI 130653Z AUTO 18003KT 10SM FEW095 16/13 A2997 RMK AO2 SLP155 T01610128=
201707130553 METAR KBLI 130553Z AUTO 17006KT 10SM CLR 17/12 A2997 RMK AO2 SLP154 T01720122 10206 20167 53001=
201707130453 METAR KBLI 130453Z 18006KT 10SM CLR 17/13 A2997 RMK AO2 SLP154 T01720133=
201707130353 METAR KBLI 130353Z 17005KT 10SM R16/2600VP6000FT CLR 18/12 A2996 RMK AO2 SLP152 T01830122=
201707130253 METAR KBLI 130253Z VRB04KT 10SM CLR 19/12 A2996 RMK AO2 SLP152 T01940122 56012=
201707130153 METAR KBLI 130153Z 18006KT 10SM CLR 19/12 A2997 RMK AO2 SLPNO T01940117=
201707130053 METAR KBLI 130053Z 18006KT 10SM CLR 21/11 A2999 RMK AO2 SLP160 T02060111=
201707122353 METAR KBLI 122353Z VRB04KT 10SM CLR 21/11 A3000 RMK AO2 SLP164 T02060111 10206 20172 58015=
201707122253 METAR KBLI 122253Z 16011G15KT 10SM CLR 20/12 A3002 RMK AO2 SLP171 T02000122=
201707122153 METAR KBLI 122153Z 16011KT 10SM CLR 20/12 A3004 RMK AO2 SLP177 T02000117=
201707122053 METAR KBLI 122053Z 17011G16KT 10SM CLR 19/12 A3004 RMK AO2 SLP179 T01940117 58004=
201707121953 METAR KBLI 121953Z 18009KT 10SM CLR 19/11 A3005 RMK AO2 SLP182 T01890111=
201707121853 METAR KBLI 121853Z 16011KT 10SM CLR 18/11 A3006 RMK AO2 SLP184 T01830111=
201707121753 METAR KBLI 121753Z 16008G16KT 10SM CLR 17/12 A3005 RMK AO2 SLP183 T01720117 10183 20122 51005=
201707121653 METAR KBLI 121653Z 17013G19KT 10SM SCT045 17/12 A3005 RMK AO2 SLP183 T01670117=
201707121553 METAR KBLI 121553Z 16013G19KT 10SM CLR 17/11 A3005 RMK AO2 SLP181 T01720111 $=
201707121453 METAR KBLI 121453Z 16008KT 10SM CLR 16/11 A3004 RMK AO2 SLP178 T01610106 50008 $=
201707121353 METAR KBLI 121353Z 15010KT 10SM CLR A3004 RMK AO2 SLPNO $=
201707121253 METAR KBLI 121253Z AUTO 16006KT 10SM CLR 14/10 A3003 RMK AO2 SLP176 T01390100 $=
201707121153 METAR KBLI 121153Z AUTO 15005KT 10SM CLR 13/09 A3002 RMK AO2 SLP170 T01280089 10167 20122 53004 $=
201707121053 METAR KBLI 121053Z AUTO 15004KT 10SM CLR 13/09 A3001 RMK AO2 SLP168 T01330094 $=
201707120953 METAR KBLI 120953Z AUTO 16003KT 10SM CLR 13/09 A3001 RMK AO2 SLP167 T01330094 $=
201707120853 METAR KBLI 120853Z AUTO 00000KT 10SM CLR 14/09 A3001 RMK AO2 SLP167 T01390094 58001 $=
201707120753 METAR KBLI 120753Z AUTO 15004KT 10SM CLR 16/10 A3001 RMK AO2 SLP168 T01560100 402060106 $=
201707120653 METAR KBLI 120653Z AUTO 16004KT 10SM CLR 16/10 A3001 RMK AO2 SLP167 T01610100 $=
201707120553 METAR KBLI 120553Z AUTO 16005KT 10SM CLR 17/12 A3001 RMK AO2 SLP167 T01670117 10206 20167 58002 $=
201707120453 METAR KBLI 120453Z 17006KT 10SM CLR 17/12 A3002 RMK AO2 SLP170 T01670117=
201707120353 METAR KBLI 120353Z 16007KT 10SM CLR 17/11 A3002 RMK AO2 SLP171 T01720111=
201707120253 METAR KBLI 120253Z 18006KT 10SM CLR 18/12 A3001 RMK AO2 SLP169 T01830122 56013=
201707120153 METAR KBLI 120153Z VRB05KT 10SM CLR 19/12 A3002 RMK AO2 SLP171 T01940122=
201707120053 METAR KBLI 120053Z 18005KT 10SM CLR 20/12 A3003 RMK AO2 SLP175 T02000117=
201707112353 METAR KBLI 112353Z 16008KT 10SM CLR 21/12 A3005 RMK AO2 SLP182 T02060117 10206 20156 58014=
201707112253 METAR KBLI 112253Z VRB05KT 10SM CLR 20/12 A3007 RMK AO2 SLP189 T02000122=
201707112153 METAR KBLI 112153Z 19006KT 10SM CLR 19/12 A3008 RMK AO2 SLP192 T01940117=
201707112053 METAR KBLI 112053Z 17007KT 10SM CLR 19/11 A3009 RMK AO2 SLP196 T01890111 58008=
201707111953 METAR KBLI 111953Z 17012KT 10SM CLR 18/11 A3011 RMK AO2 SLP202 T01780106 $=
201707111853 METAR KBLI 111853Z 18011G17KT 10SM CLR 17/11 A3011 RMK AO2 SLP203 T01720111 $=
201707111753 METAR KBLI 111753Z 17010G16KT 10SM CLR 16/11 A3012 RMK AO2 SLP204 T01560111 10167 20106 51002 $=
201707111653 METAR KBLI 111653Z 17009KT 130V200 10SM CLR 16/11 A3011 RMK AO2 SLP202 T01610111 $=
201707111553 METAR KBLI 111553Z 16009KT 10SM CLR 16/11 A3012 RMK AO2 SLP204 T01560111 $=
201707111453 METAR KBLI 111453Z 15004KT 10SM CLR 14/10 A3011 RMK AO2 SLP202 T01440100 51008 $=
201707111353 METAR KBLI 111353Z 15005KT 10SM CLR 14/10 A3010 RMK AO2 SLP199 T01390100 $=
201707111253 METAR KBLI 111253Z AUTO 13006KT 10SM CLR 12/09 A3009 RMK AO2 SLP197 T01170094=
201707111153 METAR KBLI 111153Z AUTO 15004KT 10SM CLR 12/10 A3008 RMK AO2 SLP193 T01220100 10150 20106 53005=
201707111053 METAR KBLI 111053Z AUTO VRB03KT 10SM FEW055 13/10 A3008 RMK AO2 SLP192 T01280100=
201707110953 METAR KBLI 110953Z AUTO 16004KT 10SM FEW060 13/09 A3007 RMK AO2 SLP188 T01280094=
201707110853 METAR KBLI 110853Z AUTO 15004KT 10SM SCT055 12/09 A3007 RMK AO2 SLP188 T01220089 53006=
201707110753 METAR KBLI 110753Z AUTO 17003KT 10SM CLR 13/10 A3007 RMK AO2 SLP187 T01330100 402060133=
201707110653 METAR KBLI 110653Z AUTO 16006KT 10SM CLR 14/09 A3005 RMK AO2 SLP182 T01440089=
201707110553 METAR KBLI 110553Z AUTO 17006KT 10SM CLR 15/09 A3005 RMK AO2 SLP182 60000 T01500094 10183 20150 53006=
201707110453 METAR KBLI 110453Z 17009KT 10SM CLR 16/10 A3004 RMK AO2 SLP179 T01560100=
201707110353 METAR KBLI 110353Z 18006KT 10SM CLR 17/09 A3003 RMK AO2 SLP175 T01670089=
201707110253 METAR KBLI 110253Z 17009KT 10SM BKN100 18/09 A3004 RMK AO2 SLP176 60000 T01830089 51003=
201707110153 METAR KBLI 110153Z 17007KT 10SM FEW041 BKN060 OVC095 17/10 A3003 RMK AO2 RAB0059E32 SLP176 P0000 T01670100=
201707110053 METAR KBLI 110053Z 18007KT 10SM OVC100 17/11 A3003 RMK AO2 SLP174 T01670106=
201707102353 METAR KBLI 102353Z 19008KT 170V230 10SM BKN110 17/10 A3003 RMK AO2 SLP173 T01670100 10206 20167 58002=
201707102253 METAR KBLI 102253Z 17011G21KT 10SM FEW035 BKN120 19/09 A3003 RMK AO2 SLP176 T01890089=
201707102153 METAR KBLI 102153Z 17012G20KT 10SM CLR 19/09 A3003 RMK AO2 SLP176 T01940094=
201707102053 METAR KBLI 102053Z 16011G20KT 140V210 10SM CLR 20/11 A3003 RMK AO2 SLP175 T02000111 58002=
201707101953 METAR KBLI 101953Z 16012G17KT 10SM FEW070 19/12 A3004 RMK AO2 SLP177 T01940117=
201707101853 METAR KBLI 101853Z VRB05KT 10SM BKN060 19/13 A3004 RMK AO2 SLP177 T01890128=
201707101753 METAR KBLI 101753Z 20004KT 10SM SCT060 BKN075 18/13 A3004 RMK AO2 SLP178 T01780128 10183 20139 51006=
201707101653 METAR KBLI 101653Z 17007KT 10SM SCT047 BKN060 17/13 A3004 RMK AO2 SLP178 T01720128=
201707101553 METAR KBLI 101553Z 18003KT 10SM OVC047 16/13 A3003 RMK AO2 SLP175 T01560128=
201707101453 METAR KBLI 101453Z 17005KT 10SM BKN046 15/13 A3002 RMK AO2 SLP171 T01500128 53004=
201707101353 METAR KBLI 101353Z 20005KT 10SM SCT048 16/13 A3001 RMK AO2 SLP166 T01560133=
201707101253 METAR KBLI 101253Z AUTO 19003KT 10SM CLR 14/13 A3001 RMK AO2 SLP165 T01390128=
201707101153 METAR KBLI 101153Z AUTO 21003KT 10SM CLR 14/13 A3001 RMK AO2 SLP166 T01440128 10172 20144 53000=
201707101053 METAR KBLI 101053Z AUTO 18005KT 10SM CLR 14/13 A3000 RMK AO2 SLP163 T01440133=
201707100953 METAR KBLI 100953Z AUTO 17006KT 10SM CLR 15/13 A3000 RMK AO2 SLP165 T01500133=
201707100853 METAR KBLI 100853Z AUTO 18005KT 10SM CLR 16/13 A3001 RMK AO2 SLP166 T01560133 56006=
201707100753 METAR KBLI 100753Z AUTO 20003KT 10SM CLR 16/14 A3001 RMK AO2 SLP168 T01560139 402390150=
201707100653 METAR KBLI 100653Z AUTO 18005KT 10SM CLR 17/14 A3002 RMK AO2 SLP170 T01670139=
201707100553 METAR KBLI 100553Z AUTO 18005KT 10SM CLR 17/14 A3002 RMK AO2 SLP172 T01720139 10233 20172 53001=
201707100453 METAR KBLI 100453Z 19004KT 10SM CLR 18/14 A3002 RMK AO2 SLP170 T01780139=
201707100353 METAR KBLI 100353Z 19003KT 10SM CLR 19/14 A3001 RMK AO2 SLP167 T01890144=
201707100253 METAR KBLI 100253Z 17005KT 10SM CLR 21/14 A3002 RMK AO2 SLP171 T02110144 56013=
201707100153 METAR KBLI 100153Z 18005KT 10SM SCT085 23/14 A3003 RMK AO2 SLP173 T02280144=
201707100053 METAR KBLI 100053Z 16005KT 10SM BKN085 23/14 A3005 RMK AO2 SLP179 T02330139=
201707092353 METAR KBLI 092353Z 18007KT 10SM BKN085 23/13 A3006 RMK AO2 SLP184 T02330133 10239 20194 58012=
201707092253 METAR KBLI 092253Z 17007KT 140V210 10SM SCT080 23/14 A3007 RMK AO2 SLP188 T02280144=
201707092153 METAR KBLI 092153Z 17010G16KT 10SM FEW065 22/14 A3008 RMK AO2 SLP192 T02220144=
201707092053 METAR KBLI 092053Z 18009G17KT 10SM FEW070 SCT100 22/14 A3009 RMK AO2 SLP195 T02170144 58001=
201707091953 METAR KBLI 091953Z 16010G19KT 120V190 10SM CLR 22/14 A3010 RMK AO2 SLP198 T02170144=
201707091853 METAR KBLI 091853Z 16010KT 140V200 10SM CLR 20/14 A3011 RMK AO2 SLP199 T02000144=
201707091753 METAR KBLI 091753Z 17009G19KT 10SM CLR 20/14 A3010 RMK AO2 SLP196 T02000139 10200 20150 51003=
201707091653 METAR KBLI 091653Z 15014G19KT 10SM FEW090 19/13 A3009 RMK AO2 SLP195 T01890133=
201707091553 METAR KBLI 091553Z 17012G19KT 10SM SCT095 18/13 A3009 RMK AO2 SLP195 T01830133=
201707091453 METAR KBLI 091453Z 17010G15KT 10SM CLR 17/12 A3009 RMK AO2 SLP193 T01720122 51009=
201707091353 METAR KBLI 091353Z 17013G19KT 10SM CLR 16/12 A3008 RMK AO2 SLP189 T01610117=
201707091253 METAR KBLI 091253Z AUTO 17009KT 10SM CLR 16/12 A3007 RMK AO2 SLP188 T01560117=
201707091153 METAR KBLI 091153Z AUTO 17009KT 10SM CLR 16/12 A3006 RMK AO2 SLP183 T01610117 10178 20150 53006=
201707091053 METAR KBLI 091053Z AUTO 17007KT 10SM CLR 17/11 A3005 RMK AO2 SLP180 T01670106=
201707090953 METAR KBLI 090953Z AUTO 16005KT 10SM CLR 16/11 A3004 RMK AO2 SLP179 T01560111=
201707090853 METAR KBLI 090853Z AUTO 17004KT 10SM CLR 16/11 A3004 RMK AO2 SLP178 T01610111 53004=
201707090753 METAR KBLI 090753Z AUTO 17009KT 10SM CLR 17/11 A3003 RMK AO2 SLP175 T01670111 402500128=
201707090653 METAR KBLI 090653Z AUTO 17009KT 10SM CLR 17/11 A3003 RMK AO2 SLP173 T01720111=
201707090553 METAR KBLI 090553Z AUTO 18005KT 10SM CLR 17/13 A3003 RMK AO2 SLP173 T01720128 10244 20172 52003=
201707090453 METAR KBLI 090453Z 18006KT 10SM CLR 18/14 A3003 RMK AO2 SLP174 T01830139=
201707090353 METAR KBLI 090353Z 20005KT 10SM CLR 19/14 A3002 RMK AO2 SLP171 T01890144=
201707090253 METAR KBLI 090253Z 16006KT 10SM CLR 20/14 A3002 RMK AO2 SLP171 T02000139 55009=
201707090153 METAR KBLI 090153Z VRB04KT 10SM CLR 23/11 A3002 RMK AO2 SLP170 T02330111=
201707090053 METAR KBLI 090053Z VRB04KT 10SM CLR 24/10 A3003 RMK AO2 SLP173 T02390100=
201707082353 METAR KBLI 082353Z VRB05KT 10SM CLR 24/12 A3005 RMK AO2 SLP179 T02440117 10250 20194 56016=
201707082253 METAR KBLI 082253Z VRB04KT 10SM CLR 25/12 A3006 RMK AO2 SLP183 T02500122=
201707082153 METAR KBLI 082153Z VRB05KT 10SM CLR 24/12 A3008 RMK AO2 SLP190 T02390117=
201707082053 METAR KBLI 082053Z VRB06KT 10SM CLR 23/12 A3009 RMK AO2 SLP195 T02330117 58010=
201707081953 METAR KBLI 081953Z VRB05KT 10SM CLR 23/14 A3011 RMK AO2 SLP199 T02280139=
201707081853 METAR KBLI 081853Z 20004KT 10SM CLR 21/14 A3011 RMK AO2 SLP203 T02110139=
201707081753 METAR KBLI 081753Z VRB03KT 10SM CLR 20/13 A3012 RMK AO2 SLP205 T02000128 10200 20139 58011=
201707081653 METAR KBLI 081653Z 20004KT 10SM CLR 18/13 A3014 RMK AO2 SLP212 T01780128=
201707081553 METAR KBLI 081553Z VRB04KT 10SM CLR 17/12 A3015 RMK AO2 SLP217 T01670122=
201707081453 METAR KBLI 081453Z 00000KT 10SM CLR 16/12 A3016 RMK AO2 SLP217 T01610117 58002=
201707081353 METAR KBLI 081353Z VRB03KT 10SM CLR 14/12 A3016 RMK AO2 SLP219 T01440117=
201707081253 METAR KBLI 081253Z AUTO 18004KT 10SM CLR 14/12 A3017 RMK AO2 SLP221 T01390117=
201707081153 METAR KBLI 081153Z AUTO 19003KT 10SM CLR 14/12 A3016 RMK AO2 SLP219 T01390117 10172 20128 50001=
201707081053 METAR KBLI 081053Z AUTO VRB03KT 10SM CLR 14/11 A3017 RMK AO2 SLP222 T01440106=
201707080953 METAR KBLI 080953Z AUTO 18004KT 10SM CLR 14/12 A3016 RMK AO2 SLP220 T01440117=
201707080853 METAR KBLI 080853Z AUTO 18004KT 10SM CLR 14/11 A3016 RMK AO2 SLP218 T01440111 58003=
201707080753 METAR KBLI 080753Z AUTO 16004KT 10SM CLR 15/09 A3016 RMK AO2 SLP221 T01500094 402060150=
201707080653 METAR KBLI 080653Z AUTO 14007KT 10SM CLR 16/10 A3016 RMK AO2 SLP220 T01560100=
201707080553 METAR KBLI 080553Z AUTO 16011KT 10SM CLR 17/10 A3017 RMK AO2 SLP221 T01720100 10206 20172 56003=
201707080453 METAR KBLI 080453Z 16010KT 10SM CLR 17/10 A3017 RMK AO2 SLP222 T01720100=
201707080353 METAR KBLI 080353Z 16013G17KT 10SM CLR 18/11 A3016 RMK AO2 SLP219 T01830106=
201707080253 METAR KBLI 080253Z 16009G20KT 10SM CLR 19/11 A3017 RMK AO2 SLP224 T01890106 58013=
201707080153 METAR KBLI 080153Z 15012G20KT 10SM CLR 20/11 A3019 RMK AO2 SLP229 T02000106=
201707080053 METAR KBLI 080053Z 15012KT 10SM CLR 20/10 A3020 RMK AO2 SLP233 T02000100=
201707072353 METAR KBLI 072353Z 16013G19KT 10SM CLR 21/11 A3021 RMK AO2 SLP237 T02060106 10206 20172 58005=
201707072253 METAR KBLI 072253Z 17015G22KT 10SM CLR 20/11 A3022 RMK AO2 SLP240 T02000106=
201707072153 METAR KBLI 072153Z 17014G20KT 10SM CLR 19/12 A3023 RMK AO2 SLP243 T01940117=
201707072053 METAR KBLI 072053Z 17012G21KT 10SM CLR 19/11 A3023 RMK AO2 SLP242 T01890111 53014=
201707071953 METAR KBLI 071953Z 16013G23KT 10SM CLR 18/11 A3021 RMK AO2 SLP236 T01780111=
201707071853 METAR KBLI 071853Z 17012G22KT 10SM FEW024 17/11 A3020 RMK AO2 SLP232 T01720111=
201707071753 METAR KBLI 071753Z 16013G23KT 10SM FEW024 17/12 A3019 RMK AO2 SLP228 T01720117 10172 20150 53019=
201707071653 METAR KBLI 071653Z 16012G20KT 10SM CLR 17/12 A3017 RMK AO2 PK WND 15026/1603 SLP223 T01720117=
201707071553 METAR KBLI 071553Z 16018G24KT 10SM CLR 16/11 A3014 RMK AO2 PK WND 15028/1504 SLP211 T01610111=
201707071453 METAR KBLI 071453Z 16017G25KT 10SM CLR 15/11 A3013 RMK AO2 PK WND 16026/1442 SLP209 T01500106 53027=
201707071353 METAR KBLI 071353Z 16011G19KT 10SM CLR 16/09 A3010 RMK AO2 SLP198 T01560094=
201707071253 METAR KBLI 071253Z AUTO 17009KT 10SM CLR 16/09 A3007 RMK AO2 SLP189 T01560094=
201707071153 METAR KBLI 071153Z AUTO 18009KT 10SM CLR 15/10 A3005 RMK AO2 SLP181 T01500100 10172 20150 53004=
201707071053 METAR KBLI 071053Z AUTO 18006KT 10SM CLR 16/09 A3004 RMK AO2 SLP178 T01560094=
201707070953 METAR KBLI 070953Z AUTO 17007KT 10SM CLR 16/10 A3004 RMK AO2 SLP178 T01560100=
201707070853 METAR KBLI 070853Z AUTO 18005KT 10SM CLR 16/10 A3004 RMK AO2 SLP177 T01560100 50001=
201707070753 METAR KBLI 070753Z AUTO 17008KT 10SM CLR 16/11 A3004 RMK AO2 SLP178 T01610106 402610150=
201707070653 METAR KBLI 070653Z AUTO 17007KT 10SM CLR 17/11 A3004 RMK AO2 SLP178 T01670111=
201707070553 METAR KBLI 070553Z 17008KT 10SM CLR 17/12 A3004 RMK AO2 SLP177 T01720122 10250 20172 53000=
201707070453 METAR KBLI 070453Z 17008KT 10SM CLR 19/11 A3003 RMK AO2 SLP176 T01890111=
201707070353 METAR KBLI 070353Z 18006KT 10SM CLR 19/12 A3003 RMK AO2 SLP174 T01940117=
201707070253 METAR KBLI 070253Z 18006KT 10SM CLR 21/12 A3004 RMK AO2 SLP176 T02060117 56012=
201707070153 METAR KBLI 070153Z 18006KT 10SM CLR 22/12 A3004 RMK AO2 SLP177 T02170122=
201707070053 METAR KBLI 070053Z VRB04KT 10SM CLR 24/12 A3005 RMK AO2 SLP181 T02390117=
201707062353 METAR KBLI 062353Z VRB04KT 10SM CLR 25/13 A3007 RMK AO2 SLP187 T02500133 10261 20183 58014=
201707062253 METAR KBLI 062253Z 19005KT 10SM CLR 26/13 A3009 RMK AO2 SLP193 T02560133=
201707062153 METAR KBLI 062153Z 20004KT 10SM CLR 23/12 A3010 RMK AO2 SLP198 T02280122=
201707062053 METAR KBLI 062053Z 19004KT 10SM CLR 23/12 A3011 RMK AO2 SLP201 T02280122 58009=
201707061953 METAR KBLI 061953Z 17007KT 10SM CLR 21/11 A3012 RMK AO2 SLP206 T02110111=
201707061853 METAR KBLI 061853Z 17008KT 10SM CLR 21/11 A3014 RMK AO2 SLP210 T02060106=
201707061753 METAR KBLI 061753Z 16010KT 10SM CLR 19/12 A3014 RMK AO2 SLP211 T01890117 10189 20150 58002=
201707061653 METAR KBLI 061653Z 19007KT 10SM CLR 17/12 A3015 RMK AO2 SLP215 T01720117=
201707061553 METAR KBLI 061553Z 17009KT 10SM CLR 17/12 A3015 RMK AO2 SLP214 T01670117=
201707061453 METAR KBLI 061453Z 17010KT 10SM CLR 17/07 A3014 RMK AO2 SLP212 T01720072 51015=
201707061353 METAR KBLI 061353Z 18005KT 10SM CLR 16/11 A3013 RMK AO2 SLP208 T01560106=
201707061253 METAR KBLI 061253Z AUTO 16006KT 10SM CLR 16/09 A3012 RMK AO2 SLP204 T01560094=
201707061153 METAR KBLI 061153Z AUTO 17011KT 10SM CLR 16/09 A3010 RMK AO2 SLP197 T01560094 10183 20156 53011=
201707061053 METAR KBLI 061053Z AUTO 17009KT 10SM CLR 16/08 A3008 RMK AO2 SLP191 T01610083=
201707060953 METAR KBLI 060953Z AUTO 17006KT 10SM CLR 16/10 A3007 RMK AO2 SLP189 T01610100=
201707060853 METAR KBLI 060853Z AUTO 17007KT 10SM CLR 17/11 A3007 RMK AO2 SLP186 T01670111 51014=
201707060753 METAR KBLI 060753Z AUTO 17007KT 10SM CLR 17/12 A3006 RMK AO2 SLP183 T01720122 402720094=
201707060653 METAR KBLI 060653Z AUTO 18007KT 10SM CLR 18/12 A3004 RMK AO2 SLP176 T01780122=
201707060553 METAR KBLI 060553Z AUTO 21003KT 10SM CLR 18/13 A3002 RMK AO2 SLP172 T01780133 10272 20178 53015=
201707060453 METAR KBLI 060453Z 19005KT 10SM CLR 19/12 A3001 RMK AO2 SLP166 T01940122=
201707060353 METAR KBLI 060353Z 17007KT 10SM CLR 21/15 A2999 RMK AO2 SLP160 T02060150=
201707060253 METAR KBLI 060253Z 19004KT 10SM CLR 24/13 A2998 RMK AO2 SLP157 T02390128 55001=
201707060153 METAR KBLI 060153Z 00000KT 10SM CLR 26/10 A2997 RMK AO2 SLP154 T02610100=
201707060053 METAR KBLI 060053Z 26005KT 10SM CLR 27/10 A2998 RMK AO2 SLP157 T02670100=
201707052353 METAR KBLI 052353Z 28005KT 10SM CLR 27/10 A2998 RMK AO2 SLP158 T02720100 10272 20211 58006=
201707052253 METAR KBLI 052253Z 30006KT 10SM CLR 27/11 A2999 RMK AO2 SLP161 T02670106=
201707052153 METAR KBLI 052153Z VRB05KT 10SM CLR 25/12 A3000 RMK AO2 SLP163 T02500117=
201707052053 METAR KBLI 052053Z VRB03KT 10SM CLR 25/13 A3000 RMK AO2 SLP163 T02500128 58003=
201707051953 METAR KBLI 051953Z 30007KT 10SM CLR 24/13 A3000 RMK AO2 SLP164 T02390133=
201707051853 METAR KBLI 051853Z 27005KT 10SM CLR 23/13 A3001 RMK AO2 SLP166 T02280128=
201707051753 METAR KBLI 051753Z VRB03KT 10SM CLR 23/12 A3001 RMK AO2 SLP166 T02280122 10228 20094 58002=
201707051653 METAR KBLI 051653Z 00000KT 10SM CLR 20/12 A3002 RMK AO2 SLP170 T02000122=
201707051553 METAR KBLI 051553Z 00000KT 10SM CLR 18/13 A3002 RMK AO2 SLP171 T01780128=
201707051453 METAR KBLI 051453Z 00000KT 10SM CLR 16/12 A3001 RMK AO2 SLP169 T01560122 53006=
201707051353 METAR KBLI 051353Z 00000KT 10SM CLR 13/12 A3000 RMK AO2 SLP166 T01330117=
201707051253 METAR KBLI 051253Z AUTO 00000KT 4SM BR CLR 10/09 A2999 RMK AO2 SLP163 T01000094=
201707051221 SPECI KBLI 051221Z AUTO 00000KT 3SM BR CLR 09/09 A2999 RMK AO2 T00940094=
201707051212 SPECI KBLI 051212Z AUTO 00000KT 2 1/2SM BR CLR 09/09 A2999 RMK AO2 VIS 1 1/2V4 T00940089=
201707051153 METAR KBLI 051153Z AUTO 00000KT 6SM BR CLR 09/09 A2999 RMK AO2 SLP163 T00940089 10161 20094 53003=
201707051053 METAR KBLI 051053Z AUTO 00000KT 7SM CLR 11/10 A2998 RMK AO2 SLP159 T01110100=
201707051041 SPECI KBLI 051041Z AUTO 00000KT 6SM BR CLR 11/09 A2998 RMK AO2 T01060094=
201707051031 SPECI KBLI 051031Z AUTO 00000KT 2SM BR CLR 11/09 A2999 RMK AO2 VIS 3/4V5 T01060094=
201707050953 METAR KBLI 050953Z AUTO 00000KT 7SM CLR 12/11 A2999 RMK AO2 SLP161 T01220111=
201707050853 METAR KBLI 050853Z AUTO 16003KT 6SM BR CLR 13/12 A2999 RMK AO2 SLP160 T01330122 53002=
201707050753 METAR KBLI 050753Z AUTO 16003KT 10SM CLR 15/13 A2998 RMK AO2 SLP158 T01500128 402330089=
201707050653 METAR KBLI 050653Z AUTO 17003KT 10SM CLR 15/13 A2998 RMK AO2 SLP157 T01500133=
201707050553 METAR KBLI 050553Z AUTO 18003KT 10SM CLR 16/13 A2998 RMK AO2 SLP158 T01560133 10233 20144 53000=
201707050453 METAR KBLI 050453Z 19003KT 10SM CLR 16/13 A2998 RMK AO2 SLP159 T01560133=
201707050353 METAR KBLI 050353Z 00000KT 10SM CLR 18/12 A2998 RMK AO2 SLP156 T01780122=
201707050253 METAR KBLI 050253Z 18003KT 10SM CLR 21/11 A2998 RMK AO2 SLP158 T02110111 56008=
201707050153 METAR KBLI 050153Z 00000KT 10SM CLR 23/08 A2998 RMK AO2 SLP159 T02280083=
201707050053 METAR KBLI 050053Z VRB04KT 10SM CLR 23/09 A2999 RMK AO2 SLP162 T02280089=
201707042353 METAR KBLI 042353Z VRB04KT 10SM CLR 23/08 A3000 RMK AO2 SLP166 T02330083 10233 20194 58013=
201707042253 METAR KBLI 042253Z VRB04KT 10SM CLR 23/09 A3002 RMK AO2 SLP171 T02280089=
201707042153 METAR KBLI 042153Z VRB04KT 10SM CLR 22/10 A3003 RMK AO2 SLP175 T02220100=
201707042053 METAR KBLI 042053Z VRB05KT 10SM CLR 22/11 A3004 RMK AO2 SLP179 T02170106 58006=
201707041953 METAR KBLI 041953Z 28008KT 10SM CLR 21/12 A3005 RMK AO2 SLP181 T02110117=
201707041853 METAR KBLI 041853Z VRB05KT 10SM CLR 21/13 A3006 RMK AO2 SLP183 T02060128=
201707041753 METAR KBLI 041753Z VRB03KT 10SM CLR 20/12 A3006 RMK AO2 SLP185 T02000117 10200 20089 58009=
201707041653 METAR KBLI 041653Z 21004KT 10SM CLR 18/11 A3007 RMK AO2 SLP189 T01780111=
201707041553 METAR KBLI 041553Z 00000KT 10SM CLR 17/12 A3008 RMK AO2 SLP193 T01670117=
201707041453 METAR KBLI 041453Z 00000KT 10SM CLR 15/12 A3009 RMK AO2 SLP194 T01500117 51002=
201707041353 METAR KBLI 041353Z 00000KT 10SM CLR 13/12 A3009 RMK AO2 SLP194 T01330117=
201707041253 METAR KBLI 041253Z AUTO 10SM CLR 09/08 A3008 RMK AO2 SLP194 T00940083=
201707041153 METAR KBLI 041153Z AUTO 00000KT 9SM CLR 09/09 A3008 RMK AO2 SLP192 T00940089 10133 20094 56006=
201707041053 METAR KBLI 041053Z AUTO 00000KT 10SM CLR 11/09 A3008 RMK AO2 SLP192 T01060094=
201707040953 METAR KBLI 040953Z AUTO 16003KT 10SM CLR 12/11 A3009 RMK AO2 SLP194 T01220106=
201707040853 METAR KBLI 040853Z AUTO 16004KT 10SM CLR 12/11 A3010 RMK AO2 SLP198 T01220106 55005=
201707040753 METAR KBLI 040753Z AUTO 00000KT 10SM CLR 12/11 A3010 RMK AO2 SLP197 T01170106 402110117=
201707040653 METAR KBLI 040653Z AUTO 17003KT 10SM CLR 12/11 A3010 RMK AO2 SLP199 T01220106=
201707040553 METAR KBLI 040553Z AUTO 00000KT 10SM CLR 13/11 A3011 RMK AO2 SLP203 T01280111 10206 20128 56005=
201707040453 METAR KBLI 040453Z 00000KT 10SM CLR 14/12 A3012 RMK AO2 SLP204 T01390117=
201707040353 METAR KBLI 040353Z 18003KT 10SM CLR 16/12 A3012 RMK AO2 SLP205 T01610117=
201707040253 METAR KBLI 040253Z 18003KT 10SM CLR 19/11 A3013 RMK AO2 SLP208 T01890111 56010=
201707040153 METAR KBLI 040153Z 17006KT 10SM CLR 20/12 A3013 RMK AO2 SLP210 T02000117=
201707040053 METAR KBLI 040053Z 17005KT 10SM CLR 21/11 A3014 RMK AO2 SLP213 T02060111=
201707032353 METAR KBLI 032353Z 17006KT 10SM CLR 20/11 A3016 RMK AO2 SLP218 T02000106 10211 20167 56008=
201707032253 METAR KBLI 032253Z VRB05KT 10SM CLR 21/11 A3016 RMK AO2 SLP220 T02060106=
201707032153 METAR KBLI 032153Z 17007KT 10SM CLR 19/11 A3017 RMK AO2 SLP223 T01940111=
201707032053 METAR KBLI 032053Z 18007KT 10SM FEW040 18/11 A3018 RMK AO2 SLP226 T01830106 58003=
201707031953 METAR KBLI 031953Z 17009KT 10SM CLR 19/12 A3019 RMK AO2 SLP228 T01890117=
201707031853 METAR KBLI 031853Z 16008KT 10SM BKN040 17/12 A3019 RMK AO2 SLP228 T01670117=
201707031753 METAR KBLI 031753Z 20007KT 10SM SCT038 17/12 A3019 RMK AO2 SLP229 T01670117 10167 20139 51010=
201707031653 METAR KBLI 031653Z 18008KT 10SM FEW027 BKN055 16/11 A3019 RMK AO2 SLP228 T01560111=
201707031553 METAR KBLI 031553Z 17008KT 10SM SCT027 OVC055 15/11 A3018 RMK AO2 SLP225 T01500111=
201707031453 METAR KBLI 031453Z 17007KT 10SM SCT027 BKN047 14/12 A3016 RMK AO2 SLP219 T01440117 53010=
201707031353 METAR KBLI 031353Z 18005KT 10SM SCT025 BKN047 14/11 A3014 RMK AO2 SLP213 T01390111=
201707031351 SPECI KBLI 031351Z 17006KT 10SM BKN025 OVC047 14/11 A3014 RMK AO2=
201707031253 METAR KBLI 031253Z AUTO 17005KT 10SM SCT022 BKN045 BKN055 14/11 A3013 RMK AO2 SLP209 T01390111=
201707031205 SPECI KBLI 031205Z AUTO 18006KT 10SM FEW021 OVC042 14/12 A3012 RMK AO2 T01390117=
201707031153 METAR KBLI 031153Z AUTO 18006KT 10SM BKN021 OVC040 14/11 A3012 RMK AO2 SLP204 T01390111 10167 20133 53011=
201707031143 SPECI KBLI 031143Z AUTO 18006KT 10SM BKN021 BKN045 14/11 A3011 RMK AO2 T01390111=
201707031118 SPECI KBLI 031118Z AUTO 17005KT 10SM SCT025 14/11 A3010 RMK AO2 T01390111=
201707031053 METAR KBLI 031053Z AUTO 16009KT 10SM BKN024 14/11 A3010 RMK AO2 SLP197 T01390111=
201707030953 METAR KBLI 030953Z AUTO 17010G18KT 10SM CLR 14/11 A3008 RMK AO2 SLP193 T01390111=
201707030853 METAR KBLI 030853Z AUTO 17009KT 10SM CLR 14/12 A3008 RMK AO2 SLP191 T01390117 51013=
201707030753 METAR KBLI 030753Z AUTO 17011G19KT 10SM CLR 15/11 A3007 RMK AO2 SLP188 T01500111 402060122=
201707030653 METAR KBLI 030653Z AUTO 17010G19KT 10SM CLR 16/12 A3005 RMK AO2 SLP183 T01560117=
201707030553 METAR KBLI 030553Z AUTO 15009KT 10SM CLR 16/12 A3004 RMK AO2 SLP178 T01610122 10206 20161 53013=
201707030453 METAR KBLI 030453Z 17010KT 10SM CLR 18/12 A3002 RMK AO2 SLP172 T01780122=
201707030353 METAR KBLI 030353Z 16009KT 10SM CLR 19/12 A3001 RMK AO2 SLP166 T01890122=
201707030253 METAR KBLI 030253Z 17012G19KT 10SM CLR 19/13 A3000 RMK AO2 SLP165 T01940133 56010=
201707030153 METAR KBLI 030153Z 17010KT 140V210 10SM CLR 21/14 A3001 RMK AO2 SLP169 T02060144=
201707030053 METAR KBLI 030053Z 18011G18KT 10SM CLR 21/14 A3002 RMK AO2 SLP171 T02060139=
201707022353 METAR KBLI 022353Z 17013G20KT 10SM CLR 21/14 A3003 RMK AO2 SLP176 T02060139 10206 20167 58009=
201707022253 METAR KBLI 022253Z 16012G21KT 10SM SCT085 20/13 A3005 RMK AO2 SLP180 T02000133=
201707022153 METAR KBLI 022153Z 17014G21KT 10SM CLR 19/13 A3005 RMK AO2 SLP182 T01940128=
201707022053 METAR KBLI 022053Z 17012KT 10SM CLR 18/13 A3006 RMK AO2 SLP185 T01830128 56006=
201707021953 METAR KBLI 021953Z 16013G21KT 10SM CLR 18/12 A3007 RMK AO2 SLP187 T01780122=
201707021853 METAR KBLI 021853Z 17009G18KT 10SM CLR 17/13 A3007 RMK AO2 SLP188 T01720128=
201707021753 METAR KBLI 021753Z 17015G21KT 10SM CLR 17/12 A3008 RMK AO2 SLP191 T01670122 10167 20122 51004=
201707021653 METAR KBLI 021653Z 17010G18KT 150V220 10SM FEW008 FEW015 16/13 A3007 RMK AO2 SLP189 T01610128=
201707021553 METAR KBLI 021553Z 17012KT 10SM FEW007 FEW015 15/13 A3007 RMK AO2 SLP188 T01500128=
201707021453 METAR KBLI 021453Z 17010KT 10SM FEW010 14/12 A3006 RMK AO2 SLP187 T01440122 50005=
201707021356 SPECI KBLI 021356Z 16009KT 10SM FEW010 SCT060 14/12 A3007 RMK AO2 T01440122=
201707021353 METAR KBLI 021353Z 16007KT 10SM BKN060 14/12 A3007 RMK AO2 SLP187 T01390122=
201707021253 METAR KBLI 021253Z AUTO VRB03KT 10SM CLR 13/11 A3006 RMK AO2 SLP185 T01330111=
201707021153 METAR KBLI 021153Z AUTO 16003KT 10SM CLR 13/11 A3005 RMK AO2 SLP182 T01330106 10167 20133 53004=
201707021053 METAR KBLI 021053Z AUTO 15003KT 10SM CLR 14/11 A3004 RMK AO2 SLP178 T01390106=
201707020953 METAR KBLI 020953Z AUTO 15006KT 10SM CLR 14/11 A3004 RMK AO2 SLP177 T01440106=
201707020853 METAR KBLI 020853Z AUTO 15008KT 10SM CLR 15/11 A3004 RMK AO2 SLP177 T01500106 52004=
201707020753 METAR KBLI 020753Z AUTO 16010G17KT 10SM CLR 16/11 A3003 RMK AO2 SLP176 T01560106 401890128=
201707020653 METAR KBLI 020653Z AUTO 16011G18KT 10SM CLR 16/11 A3003 RMK AO2 SLP174 T01560106=
201707020553 METAR KBLI 020553Z AUTO 16011G17KT 10SM CLR 16/12 A3002 RMK AO2 SLP173 T01610117 10189 20161 56001=
201707020453 METAR KBLI 020453Z 16009KT 10SM CLR 17/11 A3002 RMK AO2 SLP173 T01720111=
201707020353 METAR KBLI 020353Z 16010G17KT 10SM CLR 18/11 A3002 RMK AO2 SLP172 T01780106=
201707020253 METAR KBLI 020253Z 17010G18KT 10SM CLR 18/11 A3003 RMK AO2 SLP174 T01780111 56003=
201707020153 METAR KBLI 020153Z 16010KT 10SM CLR 18/12 A3003 RMK AO2 SLP174 T01780117=
201707020053 METAR KBLI 020053Z 17012KT 10SM CLR 18/12 A3003 RMK AO2 SLP176 T01830122=
201707012353 METAR KBLI 012353Z 17008G15KT 10SM CLR 19/13 A3004 RMK AO2 SLP177 T01890128 10189 20150 58012=
201707012253 METAR KBLI 012253Z 17010KT 10SM CLR 18/12 A3005 RMK AO2 SLP182 T01830122=
201707012153 METAR KBLI 012153Z 17011G20KT 10SM CLR 17/12 A3006 RMK AO2 SLP186 T01720122=
201707012053 METAR KBLI 012053Z 17012G19KT 10SM CLR 17/12 A3007 RMK AO2 SLP189 T01720122 53003=
201707011953 METAR KBLI 011953Z 18014G22KT 10SM CLR 16/12 A3006 RMK AO2 SLP186 T01610117=
201707011853 METAR KBLI 011853Z 18010G18KT 160V230 10SM SCT012 16/12 A3007 RMK AO2 SLP187 T01560117=
201707011753 METAR KBLI 011753Z 18011G19KT 10SM SCT012 15/12 A3006 RMK AO2 SLP186 T01500117 10156 20128 50002=
201707011718 SPECI KBLI 011718Z 16012G20KT 10SM SCT007 SCT012 14/12 A3006 RMK AO2 T01440117=
201707011653 METAR KBLI 011653Z 17011G19KT 10SM BKN008 14/12 A3006 RMK AO2 SLP186 T01390117=
201707011553 METAR KBLI 011553Z 16012G20KT 7SM OVC008 13/11 A3007 RMK AO2 SLP189 T01280111=
201707011453 METAR KBLI 011453Z 16015G22KT 10SM OVC011 13/11 A3006 RMK AO2 SLP184 T01280106 53017=
201707011353 METAR KBLI 011353Z 16013G23KT 10SM BKN014 13/11 A3003 RMK AO2 SLP175 T01330111=
201707011328 SPECI KBLI 011328Z AUTO 16014G24KT 10SM BKN014 BKN085 13/11 A3003 RMK AO2 T01330106=
201707011253 METAR KBLI 011253Z AUTO 16014G23KT 10SM CLR 13/10 A3002 RMK AO2 PK WND 14028/1205 SLP169 T01330100=
201707011153 METAR KBLI 011153Z AUTO 16013G25KT 10SM CLR 14/09 A3001 RMK AO2 SLP165 T01440089 10167 20139 53019=
201707011053 METAR KBLI 011053Z AUTO 16012KT 10SM CLR 14/11 A2998 RMK AO2 SLP156 T01440106=
201707010953 METAR KBLI 010953Z AUTO 17011KT 10SM OVC080 15/11 A2996 RMK AO2 SLP150 T01500111=
201707010853 METAR KBLI 010853Z AUTO 17011KT 10SM FEW085 15/12 A2995 RMK AO2 SLP147 T01500117 53005=
201707010753 METAR KBLI 010753Z AUTO 17008G15KT 10SM CLR 16/12 A2994 RMK AO2 SLP144 T01560122 402560122=
201707010653 METAR KBLI 010653Z AUTO 18009KT 10SM CLR 16/13 A2994 RMK AO2 SLP142 T01610128=
201707010553 METAR KBLI 010553Z AUTO 19007KT 10SM CLR 17/13 A2993 RMK AO2 SLP143 T01670133 10256 20167 53001=
201707010453 METAR KBLI 010453Z 17009KT 10SM CLR 18/14 A2993 RMK AO2 SLP141 T01780144=
201707010353 METAR KBLI 010353Z 17008KT 10SM CLR 19/14 A2993 RMK AO2 SLP139 T01940139=
201707010253 METAR KBLI 010253Z 17007KT 10SM CLR 21/14 A2993 RMK AO2 SLP141 T02110139 56012=
201707010153 METAR KBLI 010153Z 17007KT 10SM CLR 22/15 A2995 RMK AO2 SLP145 T02220150=
201707010053 METAR KBLI 010053Z 18005KT 10SM CLR 24/16 A2995 RMK AO2 SLP148 T02440156=

# No short TAF reports from KBLI in databse.

###################################
#  large TAF from KBLI
###################################
201707312320 TAF KBLI 312320Z 0100/0124 25007KT P6SM SKC FM010300 VRB03KT P6SM
                       SKC FM011600 36005KT P6SM SKC FM011900 31007KT
                       P6SM SKC=
201707311720 TAF KBLI 311720Z 3118/0118 VRB03KT P6SM SKC FM311900 25007KT P6SM
                       SKC FM010000 VRB03KT P6SM SKC FM011600 36005KT
                       P6SM SKC=
201707311120 TAF KBLI 311120Z 3112/0112 00000KT P6SM SKC FM311900 25007KT P6SM
                       SKC FM010000 VRB03KT P6SM SKC=
201707310536 TAF KBLI 310536Z 3106/0106 18008KT P6SM SKC FM311100 18004KT P6SM
                       SKC FM311900 24007KT P6SM SKC FM010000 22004KT
                       P6SM SKC=
201707302324 TAF KBLI 302324Z 3100/3124 18005KT P6SM SKC FM311800 25008KT P6SM
                       SKC=
201707301720 TAF KBLI 301720Z 3018/3118 18009G18KT P6SM SKC FM310200 20005KT
                       P6SM SKC=
201707301426 KBLI 301426Z 3014/3112 18008KT P6SM SCT006
                      TEMPO 3014/3017 BKN006 FM301800 19007KT P6SM
                       SKC FM310200 20003KT P6SM SKC=
201707301120 TAF KBLI 301120Z 3012/3112 18009KT P6SM FEW060 FM301300 18008KT
                       P6SM BKN015 FM310000 23002KT P6SM SKC=
201707300520 TAF KBLI 300520Z 3006/3106 17006KT P6SM SKC FM301200 18005KT P6SM
                       SCT025 OVC120
                      TEMPO 3013/3017 BKN025 OVC070 FM301800 20006KT
                       P6SM SKC FM310500 18003KT P6SM SKC=
201707292320 TAF KBLI 292320Z 3000/3024 18009G18KT P6SM SKC FM300300 18006KT
                       P6SM SKC FM301200 18004KT P6SM SCT025 FM301700
                       19007KT P6SM SKC=
201707291720 TAF KBLI 291720Z 2918/3018 18009KT P6SM SKC FM300600 18005KT P6SM
                       SKC=
201707291120 TAF KBLI 291120Z 2912/3012 17008KT P6SM SKC FM291800 18007KT P6SM
                       SKC FM292100 18007KT P6SM SKC FM300500 18007KT
                       P6SM SKC=
201707290524 TAF KBLI 290524Z 2906/3006 17009G16KT P6SM SKC FM291300 18006KT
                       P6SM SCT025 FM291800 18007KT P6SM SKC FM292100
                       18007G14KT P6SM SKC FM300500 17008KT P6SM
                       SKC=
201707282320 TAF KBLI 282320Z 2900/2924 18008KT P6SM SKC=
201707281720 TAF KBLI 281720Z 2818/2918 18006KT P6SM SKC FM282200 18009KT P6SM
                       SKC FM290600 18005KT P6SM SKC=
201707281124 TAF KBLI 281124Z 2812/2912 17008KT P6SM FEW020
                      TEMPO 2812/2816 BKN020 FM281700 17006KT P6SM
                       FEW040=
201707280524 TAF KBLI 280524Z 2806/2906 17008KT P6SM SKC=
201707272321 TAF KBLI 272321Z 2800/2824 17012G18KT P6SM FEW040 FM280400 17008KT
                       P6SM SKC=
201707271805 KBLI 271805Z 2718/2818 17012G18KT P6SM SCT020 BKN060
                      TEMPO 2718/2720 BKN020 BKN060 FM272000 18010KT
                       P6SM SCT060 FM280100 17008KT P6SM SKC=
201707271720 TAF KBLI 271720Z 2718/2818 17012G18KT P6SM SCT020 BKN060 FM272000
                       18010KT P6SM SCT060 FM280100 17008KT P6SM
                       SKC=
201707271543 KBLI 271543Z 2716/2812 16012G18KT P6SM SCT012 BKN070 FM272000 18010KT
                       P6SM SCT050=
201707271121 TAF KBLI 271121Z 2712/2812 18010KT P6SM SCT009 BKN250
                      TEMPO 2712/2714 BKN009 FM271400 18008KT P6SM
                       BKN009 FM271900 18010KT P6SM SCT025 BKN050
                       FM272100 18010KT P6SM SCT050=
201707270520 TAF KBLI 270520Z 2706/2806 18010KT P6SM BKN250 FM271500 17010KT
                       P6SM OVC020 FM271900 18010KT P6SM SCT025
                       BKN050 FM272100 18010KT P6SM SCT050=
201707262323 TAF KBLI 262323Z 2700/2724 18010KT P6SM FEW050 SCT250 FM271200
                       17001KT P6SM BKN050 FM271500 17010KT P6SM
                       OVC020 FM271900 18010KT P6SM SCT025 BKN050
                       FM272100 18010KT P6SM SCT050=
201707261721 TAF KBLI 261721Z 2618/2718 17010KT P6SM SCT250 FM271200 17001KT
                       P6SM BKN050 FM271500 17010KT P6SM OVC020=
201707261120 TAF KBLI 261120Z 2612/2712 18008KT P6SM SKC FM261500 17008KT P6SM
                       FEW010 FM261800 18008KT P6SM SCT250=
201707260523 TAF KBLI 260523Z 2606/2706 18005KT P6SM SKC FM261400 17008KT P6SM
                       FEW010 FM261800 18008KT P6SM SCT250=
201707252322 TAF KBLI 252322Z 2600/2624 18005KT P6SM SKC FM261400 17008KT P6SM
                       FEW010 FM261800 18008KT P6SM SCT250=
201707251721 TAF KBLI 251721Z 2518/2618 21006KT P6SM SKC FM260100 18005KT P6SM
                       SKC=
201707251120 TAF KBLI 251120Z 2512/2612 18004KT P6SM FEW250 FM252100 25006KT
                       P6SM SKC=
201707250520 TAF KBLI 250520Z 2506/2606 18004KT P6SM SKC FM252100 25006KT P6SM
                       SKC=
201707242320 TAF KBLI 242320Z 2500/2524 27005KT P6SM FEW250 FM250300 18004KT
                       P6SM SKC FM252100 25006KT P6SM SKC=
201707241720 TAF KBLI 241720Z 2418/2518 28005KT P6SM FEW250 FM250300 18004KT
                       P6SM SKC=
201707241123 TAF KBLI 241123Z 2412/2512 00000KT P6SM SKC FM242000 28006KT P6SM
                       SKC FM250300 20004KT P6SM SKC=
201707240525 TAF KBLI 240525Z 2406/2506 VRB03KT P6SM SKC FM242000 28006KT P6SM
                       SKC FM250300 20004KT P6SM SKC=
201707232320 TAF KBLI 232320Z 2400/2424 30012KT P6SM SKC FM240800 03006KT P6SM
                       SKC FM241700 33007KT P6SM SKC=
201707231939 KBLI 231939Z 2320/2418 33006KT P6SM SCT015 BKN025 FM232200 33010KT
                       P6SM SCT030 FM240000 33010KT P6SM SKC FM241300
                       03006KT P6SM SKC FM241700 33007KT P6SM SKC=
201707231720 TAF KBLI 231720Z 2318/2418 33006KT P6SM OVC008 FM232000 33010KT
                       P6SM BKN015 FM232200 33010KT P6SM SCT030
                       FM240000 33010KT P6SM SKC FM241300 03006KT
                       P6SM SKC FM241700 33007KT P6SM SKC=
201707231509 KBLI 231509Z 2315/2412 18006KT P6SM BKN007 OVC025 FM231800 19008KT
                       P6SM SCT010 OVC030 FM232100 20008KT P6SM
                       SCT035 FM232300 19006KT P6SM SCT250=
201707231130 TAF KBLI 231130Z 2312/2412 17004KT P6SM OVC028 FM231800 19008KT
                       P6SM BKN030 FM232100 20008KT P6SM SCT035
                       FM232300 19006KT P6SM SCT250=
201707230526 TAF KBLI 230526Z 2306/2406 00000KT P6SM OVC060 FM231200 19005KT
                       P6SM SCT010 BKN018 FM231900 19008KT P6SM
                       FEW015 BKN030 FM232100 20008KT P6SM SCT035=
201707222320 TAF KBLI 222320Z 2300/2324 33007KT P6SM BKN070 FM230300 00000KT
                       P6SM OVC060 FM231100 19005KT P6SM SCT010
                       BKN018 FM231900 19008KT P6SM FEW015 BKN030
                       FM232100 20008KT P6SM SCT035=
201707221742 TAF KBLI 221742Z 2218/2318 VRB03KT P6SM VCSH BKN035 OVC060 FM222200
                       25004KT P6SM SCT040 BKN060 FM231000 19005KT
                       P6SM SCT010 BKN018=
201707221130 TAF KBLI 221130Z 2212/2312 00000KT P6SM VCSH OVC050 FM222000 19006KT
                       P6SM SCT040 OVC060=
201707220534 TAF KBLI 220534Z 2206/2306 00000KT P6SM OVC060
                      TEMPO 2206/2210 -RA FM221000 17006KT P6SM
                       VCSH SCT035 OVC050
                      TEMPO 2210/2214 -RA FM221400 VRB03KT P6SM
                       SCT040 OVC060
                      TEMPO 2214/2218 -RA=
201707212337 TAF KBLI 212337Z 2200/2224 22002KT P6SM VCSH SCT080 OVC100
                      TEMPO 2200/2204 -RA FM220400 VRB03KT P6SM
                       VCSH SCT060 OVC080
                      TEMPO 2204/2208 -RA FM221100 17006KT P6SM
                       VCSH SCT035 OVC050
                      TEMPO 2211/2215 -RA=
201707211738 TAF KBLI 211738Z 2118/2218 18005KT P6SM BKN120 FM220400 19006KT
                       P6SM SCT060 OVC080 FM221100 16006KT P6SM
                       SCT035 OVC050
                      TEMPO 2211/2215 -RA=
201707211130 TAF KBLI 211130Z 2112/2212 21003KT P6SM BKN070
                      TEMPO 2113/2117 BKN040 FM211900 17009KT P6SM
                       SCT040 BKN100 FM220400 19006KT P6SM OVC060
                       PROB30 2206/2212 -RA OVC050=
201707210530 TAF KBLI 210530Z 2106/2206 17005KT P6SM OVC060 FM211300 16004KT
                       P6SM BKN035 FM211900 17009KT P6SM SCT040
                       BKN100 FM220000 19006KT P6SM OVC100=
201707202320 TAF KBLI 202320Z 2100/2124 16011KT P6SM BKN090 FM210200 18009KT
                       P6SM SCT040 BKN080 FM211300 16004KT P6SM
                       BKN035 BKN150 FM211800 17009KT P6SM SCT040
                       BKN100 FM212200 19006KT P6SM OVC100=
201707201720 TAF KBLI 201720Z 2018/2118 16010KT P6SM SCT025 OVC040 FM202000
                       17012G18KT P6SM SCT035 BKN060 FM210200 17010KT
                       P6SM SCT040 BKN080 FM211300 16004KT P6SM
                       BKN035 BKN150=
201707201122 TAF KBLI 201122Z 2012/2112 17009G17KT P6SM SCT050 OVC100 FM201500
                       17010G18KT P6SM VCSH BKN030 OVC050 FM202000
                       17012G18KT P6SM VCSH SCT035 BKN060 FM210200
                       17010KT P6SM SCT040 BKN080=
201707200721 TAF KBLI 200721Z 2006/2106 17005KT P6SM SKC FM200900 17006KT P6SM
                       BKN070 BKN100 FM201500 17008KT P6SM BKN030
                       OVC050 FM202000 17012G18KT P6SM SCT035 BKN060=
201707192321 TAF KBLI 192321Z 2000/2024 17008KT P6SM FEW050 SCT250 FM200900
                       17006KT P6SM BKN070 BKN100 FM201500 17008KT
                       P6SM BKN030 OVC050 FM202000 17012G18KT P6SM
                       SCT035 BKN060=
201707191721 TAF KBLI 191721Z 1918/2018 15012G18KT P6SM SKC FM192000 17010KT
                       P6SM SCT250 FM200600 17006KT P6SM BKN070
                       BKN100 FM201500 17008KT P6SM BKN030 OVC050=
201707191629 KBLI 191629Z 1916/2012 17012G20KT P6SM SKC FM192000 17010KT P6SM
                       SKC FM200000 18007KT P6SM SCT100 BKN250
                       FM200600 17006KT P6SM SCT050 OVC100 FM201000
                       17008KT P6SM SCT030 OVC050=
201707191120 TAF KBLI 191120Z 1912/2012 17008KT P6SM FEW250 FM200000 18007KT
                       P6SM SCT100 BKN250 FM200600 17006KT P6SM
                       SCT050 OVC100 FM201000 17008KT P6SM SCT030
                       OVC050=
201707190520 TAF KBLI 190520Z 1906/2006 17008KT P6SM FEW250 FM200000 18007KT
                       P6SM SCT100 BKN250=
201707182320 TAF KBLI 182320Z 1900/1924 21005KT P6SM FEW050 FEW250 FM190500
                       17008KT P6SM FEW250=
201707181726 TAF KBLI 181726Z 1818/1918 21005KT P6SM SKC FM190500 17008KT P6SM
                       FEW250=
201707181120 TAF KBLI 181120Z 1812/1912 VRB03KT P6SM FEW250 FM181600 20006KT
                       P6SM FEW250 FM190500 17007KT P6SM FEW250=
201707180520 TAF KBLI 180520Z 1806/1906 VRB03KT P6SM FEW250 FM181600 21006KT
                       P6SM FEW250=
201707172320 TAF KBLI 172320Z 1800/1824 29008KT P6SM FEW250 FM180500 VRB03KT
                       P6SM FEW250=
201707171727 TAF KBLI 171727Z 1718/1818 VRB05KT P6SM SCT250 FM180500 00000KT
                       P6SM FEW250=
201707171120 TAF KBLI 171120Z 1712/1812 VRB03KT P6SM SCT030 SCT250 FM171800
                       26007KT P6SM FEW250 FM180300 VRB03KT P6SM
                       SKC=
201707170520 TAF KBLI 170520Z 1706/1806 VRB03KT P6SM SCT250 FM171800 26007KT
                       P6SM FEW250 FM180300 VRB03KT P6SM SKC=
201707162329 TAF KBLI 162329Z 1700/1724 20004KT P6SM SKC FM170400 00000KT P6SM
                       SCT250 FM171800 26007KT P6SM BKN250=
201707161739 TAF KBLI 161739Z 1618/1718 17008KT P6SM FEW050 BKN060 OVC080 FM162300
                       19006KT P6SM SCT060 SCT100 FM170400 00000KT
                       P6SM SCT250=
201707161120 TAF KBLI 161120Z 1612/1712 17009KT P6SM SCT050 FM161700 17010KT
                       P6SM SCT050 SCT250 FM170200 VRB04KT P6SM
                       SCT250=
201707160521 TAF KBLI 160521Z 1606/1706 VRB04KT P6SM OVC060 FM160700 18008KT
                       P6SM SCT020 OVC050 FM161300 17009KT P6SM
                       OVC035 FM161700 17010KT P6SM SCT025 BKN045
                       FM162100 18008KT P6SM SCT045 SCT250 FM170200
                       VRB04KT P6SM SCT250=
201707152331 TAF KBLI 152331Z 1600/1624 16012KT P6SM SKC FM160400 18010G16KT
                       P6SM SCT050 FM160700 18008KT P6SM SCT020
                       FM161300 17009KT P6SM OVC035 FM161700 17012KT
                       P6SM SCT025 BKN045=
201707151720 TAF KBLI 151720Z 1518/1618 17013KT P6SM SKC FM152200 18011KT P6SM
                       SCT100 SCT250 FM160400 18011KT P6SM SCT050
                       SCT120 FM160700 18009KT P6SM SCT020 OVC040
                       FM161200 18009KT P6SM OVC020 FM161700 17010G16KT
                       P6SM SCT020 BKN040=
201707151120 TAF KBLI 151120Z 1512/1612 17009G14KT P6SM FEW250 FM152200 18011G20KT
                       P6SM FEW250 FM160400 17010KT P6SM SCT050
                       BKN100 FM161000 18010KT P6SM SCT025 OVC050=
201707150520 TAF KBLI 150520Z 1506/1606 18003KT P6SM SKC FM150900 17009G14KT
                       P6SM SCT250 FM152200 18011G20KT P6SM FEW250
                       FM160400 17010KT P6SM BKN100=
201707142325 TAF KBLI 142325Z 1500/1524 20003KT P6SM SKC FM150900 17009G14KT
                       P6SM SCT250=
201707141720 TAF KBLI 141720Z 1418/1518 20004KT P6SM FEW250 FM142000 20005KT
                       P6SM SCT250 FM150900 18009KT P6SM SCT250=
201707141120 TAF KBLI 141120Z 1412/1512 17006KT P6SM SKC FM142100 21007KT P6SM
                       FEW250 FM150200 17004KT P6SM SCT250=
201707140543 TAF KBLI 140543Z 1406/1506 17005KT P6SM SKC FM142000 20007KT P6SM
                       SKC FM150200 VRB03KT P6SM SKC=
201707140226 KBLI 140226Z 1402/1424 17005KT P6SM FEW050 FM141100 VRB03KT P6SM
                       SKC FM142100 20007KT P6SM SKC=
201707132320 TAF KBLI 132320Z 1400/1424 19010G14KT P6SM FEW060 FM140300 18004KT
                       P6SM SKC FM141100 VRB03KT P6SM SKC FM142100
                       20007KT P6SM SKC=
201707131720 TAF KBLI 131720Z 1318/1418 17009G16KT P6SM OVC060 FM132300 17010KT
                       P6SM SCT060 FM140300 17006KT P6SM SCT250
                       FM141100 VRB03KT P6SM SKC=
201707131438 KBLI 131438Z 1315/1412 17010KT P6SM OVC045 FM132300 17010KT P6SM
                       SCT050 FM140300 17006KT P6SM FEW120=
201707131120 TAF KBLI 131120Z 1312/1412 17010KT P6SM FEW020 OVC060
                      TEMPO 1314/1318 BKN020 OVC060 FM131800 17013KT
                       P6SM SCT030 BKN050 FM132100 17010KT P6SM
                       SCT050 FM140300 17006KT P6SM FEW120=
201707130532 TAF KBLI 130532Z 1306/1406 17005KT P6SM SCT080 FM130900 17005KT
                       P6SM BKN080 FM131200 17008KT P6SM SCT022
                       OVC080
                      TEMPO 1314/1318 BKN022 OVC080 FM131800 17012KT
                       P6SM BKN035 BKN080 FM132100 17008KT P6SM
                       FEW040=
201707130305 KBLI 130305Z 1303/1324 VRB04KT P6SM SKC FM131300 18008KT P6SM SCT030
                       TEMPO 1315/1318 BKN030 FM131900 18010G16KT
                       P6SM SKC=
201707122327 TAF KBLI 122327Z 1300/1324 16011KT P6SM SKC FM130400 17006KT P6SM
                       SKC FM131300 18008KT P6SM SCT030
                      TEMPO 1315/1318 BKN030 FM131900 18010G16KT
                       P6SM SKC=
201707121725 TAF KBLI 121725Z 1218/1318 17013G19KT P6SM SCT045 FM130000 18006KT
                       P6SM BKN200 FM131000 17005KT P6SM SCT030
                       BKN150=
201707121610 KBLI 121610Z 1216/1312 16013G19KT P6SM SCT200 FM130000 18006KT
                       P6SM BKN200 FM131000 17005KT P6SM SCT040
                       BKN150=
201707121139 TAF KBLI 121139Z 1212/1312 15004KT P6SM SKC FM121400 17005KT P6SM
                       FEW040 FM121800 18008KT P6SM SCT250 FM130600
                       17006KT P6SM SKC FM131000 17005KT P6SM SCT040=
201707120536 TAF KBLI 120536Z 1206/1306 17006KT P6SM SCT120 FM121200 17005KT
                       P6SM FEW040 FM121800 18008KT P6SM SCT250=
201707112320 TAF KBLI 112320Z 1200/1224 18005KT P6SM SCT250 FM120600 17005KT
                       P6SM SCT250 FM121800 18008KT P6SM SCT250=
201707111720 TAF KBLI 111720Z 1118/1218 17009KT P6SM SKC FM120000 19008KT P6SM
                       SCT250 FM120600 17005KT P6SM SCT250=
201707111412 KBLI 111412Z 1114/1212 17007KT P6SM SCT050
                      TEMPO 1115/1118 BKN050 FM120000 19006KT P6SM
                       SKC FM120600 17005KT P6SM FEW040=
201707111153 TAF KBLI 111153Z 1112/1212 16003KT P6SM SCT050 FM111400 17007KT
                       P6SM BKN030 FM111800 17008KT P6SM SCT050
                       FM120000 19006KT P6SM SKC FM120600 17005KT
                       P6SM FEW040=
201707110545 TAF KBLI 110545Z 1106/1206 17008KT P6SM SCT120 FM111200 17006KT
                       P6SM BKN040 FM111800 18008KT P6SM SCT050
                       FM120000 19006KT P6SM SKC=
201707102321 TAF KBLI 102321Z 1100/1124 17011G21KT P6SM FEW035 BKN120 FM110600
                       18008KT P6SM SCT250=
201707102019 KBLI 102019Z 1020/1118 16012G17KT P6SM FEW070 FM110000 18009KT
                       P6SM SCT120=
201707101725 TAF KBLI 101725Z 1018/1118 17007KT P6SM BKN060 FM102100 18007KT
                       P6SM SCT060 BKN120 FM110000 18009KT P6SM
                       SCT120=
201707101138 TAF KBLI 101138Z 1012/1112 18005KT P6SM SKC FM101400 17006KT P6SM
                       BKN040 FM101800 18006KT P6SM SCT030 BKN120
                       FM110000 18010KT P6SM BKN120 FM110600 17007KT
                       P6SM SCT060=
201707100550 TAF KBLI 100550Z 1006/1106 19004KT P6SM SCT080 FM100800 18003KT
                       P6SM SCT030 BKN050 FM101200 17005KT P6SM
                       OVC030 FM101800 18006KT P6SM SCT030 SCT200
                       FM110000 18010KT P6SM SCT050=
201707092328 TAF KBLI 092328Z 1000/1024 17007KT P6SM SCT080 SCT200 FM100500
                       18008KT P6SM SCT030 BKN050 FM101200 17005KT
                       P6SM OVC030 FM101800 18006KT P6SM SCT030
                       SCT200=
201707091720 TAF KBLI 091720Z 0918/1018 15012G20KT P6SM FEW100 SCT200 FM100000
                       18008KT P6SM SCT030 BKN050 FM100900 17005KT
                       P6SM OVC030=
201707091147 TAF KBLI 091147Z 0912/1012 17007KT P6SM SCT250 FM091800 17006KT
                       P6SM BKN080 FM100000 18008KT P6SM SCT025
                       OVC050 FM100600 17005KT P6SM OVC050=
201707090540 TAF KBLI 090540Z 0906/1006 18006KT P6SM SCT250 FM091400 17006KT
                       P6SM BKN080 FM092100 18008KT P6SM SCT025
                       OVC050=
201707082323 TAF KBLI 082323Z 0900/0924 VRB04KT P6SM SKC FM090300 17008KT P6SM
                       SCT250 FM091400 17006KT P6SM BKN080 FM092100
                       28006KT P6SM SCT025 OVC050=
201707081733 TAF KBLI 081733Z 0818/0918 20004KT P6SM SKC FM082100 20006KT P6SM
                       SCT250 FM090300 17008KT P6SM SCT250 FM091400
                       17006KT P6SM BKN080=
201707081124 TAF KBLI 081124Z 0812/0912 17006KT P6SM BKN250 FM082100 20006KT
                       P6SM SCT250 FM090300 17010KT P6SM SCT250=
201707080805 KBLI 080805Z 0808/0906 16007KT P6SM BKN250 FM081200 17010KT P6SM
                       SCT250=
201707080520 TAF KBLI 080520Z 0806/0906 17010G18KT P6SM BKN250 FM081200 17010KT
                       P6SM SCT250=
201707072324 TAF KBLI 072324Z 0800/0824 17015G25KT P6SM SCT250 FM080400 17006KT
                       P6SM SCT250 FM081800 17010KT P6SM SCT250=
201707071720 TAF KBLI 071720Z 0718/0818 17015G25KT P6SM SCT250 FM080400 17008KT
                       P6SM BKN250=
201707071121 TAF KBLI 071121Z 0712/0812 17010KT P6SM SKC FM072000 18010KT P6SM
                       SCT250 FM080500 17008KT P6SM BKN250=
201707070532 TAF KBLI 070532Z 0706/0806 18006KT P6SM SKC FM071300 17010KT P6SM
                       SKC FM071900 18010KT P6SM SCT250=
201707062321 TAF KBLI 062321Z 0700/0724 19005KT P6SM SKC FM070600 18006KT P6SM
                       SKC FM071300 17012G18KT P6SM SKC FM071900
                       21005KT P6SM SKC=
201707061728 TAF KBLI 061728Z 0618/0718 19007KT P6SM SKC FM062200 19006KT P6SM
                       SKC FM070600 18006KT P6SM SKC FM071300 17011G17KT
                       P6SM SKC=
201707061120 TAF KBLI 061120Z 0612/0712 17006KT P6SM SKC FM062100 20007KT P6SM
                       SKC FM070400 17008KT P6SM SKC=
201707060520 TAF KBLI 060520Z 0606/0706 17006KT P6SM SKC FM062100 20007KT P6SM
                       SKC FM070400 17008KT P6SM SKC=
201707052320 TAF KBLI 052320Z 0600/0624 30006KT P6SM SKC FM060600 VRB03KT P6SM
                       SKC=
201707051720 TAF KBLI 051720Z 0518/0618 VRB05KT P6SM SKC=
201707051121 TAF KBLI 051121Z 0512/0612 00000KT P6SM SKC FM051900 22005KT P6SM
                       SKC FM060400 00000KT P6SM SKC=
201707050522 TAF KBLI 050522Z 0506/0606 VRB03KT P6SM SKC FM051900 22005KT P6SM
                       SKC=
201707042320 TAF KBLI 042320Z 0500/0524 VRB04KT P6SM SKC=
201707041720 TAF KBLI 041720Z 0418/0518 21005KT P6SM SCT250 FM050300 VRB03KT
                       P6SM SKC=
201707041120 TAF KBLI 041120Z 0412/0512 17003KT P6SM BKN250 FM042000 24006KT
                       P6SM BKN250 FM050300 VRB03KT P6SM SCT250=
201707040520 TAF KBLI 040520Z 0406/0506 00000KT P6SM FEW250 FM041200 VRB03KT
                       P6SM SCT015
                      TEMPO 0412/0416 BKN015 FM041800 23007KT P6SM
                       SKC=
201707032320 TAF KBLI 032320Z 0400/0424 18007KT P6SM SKC FM041200 VRB03KT P6SM
                       SCT015
                      TEMPO 0412/0416 BKN015 FM041800 32007KT P6SM
                       SKC=
201707031727 TAF KBLI 031727Z 0318/0418 18008KT P6SM BKN050 FM032200 VRB04KT
                       P6SM SCT050 FM040200 21007KT P6SM SKC FM041200
                       18006KT P6SM SCT010 FM041700 21006KT P6SM
                       SKC=
201707031559 KBLI 031559Z 0316/0412 18008KT P6SM SCT025 BKN050 FM032100 18008KT
                       P6SM SCT050 FM040000 21006KT P6SM SKC=
201707031120 TAF KBLI 031120Z 0312/0412 17010KT P6SM BKN025 BKN050 FM031900
                       19008KT P6SM SCT050 FM032100 21008KT P6SM
                       SKC FM040300 VRB03KT P6SM SKC=
201707030522 TAF KBLI 030522Z 0306/0406 17010KT P6SM SKC FM031000 17010KT P6SM
                       BKN050 FM031300 17010KT P6SM BKN025 BKN050
                       FM031900 19008KT P6SM SCT050 FM032100 19008KT
                       P6SM SKC=
201707022320 TAF KBLI 022320Z 0300/0324 16012G21KT P6SM SCT090 FM030300 18012KT
                       P6SM SCT250 FM031000 18010KT P6SM BKN050
                       FM032100 18008KT P6SM SKC=
201707022157 KBLI 022157Z 0222/0318 17014G21KT P6SM SKC FM030300 17012KT P6SM
                       SCT250 FM031000 17010KT P6SM BKN050=
201707021736 TAF KBLI 021736Z 0218/0318 17010G18KT P6SM FEW008 FEW015 FM022100
                       18010KT P6SM SCT250 FM031000 17010KT P6SM
                       BKN050=
201707021121 TAF KBLI 021121Z 0212/0312 15004KT P6SM SKC FM021400 17006KT P6SM
                       SCT020 FM022100 18010KT P6SM SCT050 FM031000
                       17008KT P6SM BKN050=
201707020524 TAF KBLI 020524Z 0206/0306 16008KT P6SM SKC FM021400 17010KT P6SM
                       SCT020 FM022100 18008KT P6SM FEW050=
201707012333 TAF KBLI 012333Z 0200/0224 17010KT P6SM SKC FM021400 17010G15KT
                       P6SM SCT020=
201707011728 TAF KBLI 011728Z 0118/0218 17011G19KT P6SM BKN008 FM011900 17011G19KT
                       P6SM SKC FM020400 17009KT P6SM SKC=
201707011349 KBLI 011349Z 0114/0212 17012G20KT P6SM BKN012 FM011800 18010KT
                       P6SM SKC=
201707011126 TAF KBLI 011126Z 0112/0212 16012KT P6SM BKN250 FM011400 18010KT
                       P6SM SCT012 SCT250 FM011800 18010KT P6SM
                       SKC=
201707010524 TAF KBLI 010524Z 0106/0206 17009KT P6SM BKN250 FM011400 18010KT
                       P6SM SCT012 FM011800 18009KT P6SM SKC=
201707010045 KBLI 010045Z 0101/0124 VRB04KT P6SM SCT200 FM011400 18010KT P6SM
                       SCT012 FM011800 18009KT P6SM SKC=