##########################################################
# Query made at 02/16/2025 21:31:46 UTC
# Time interval: from 01/01/2017 00:00  to 01/31/2017 23:59  UTC
##########################################################

##########################################################
# KBLI, Bellingham, Bellingham International Airport (United States)
# WMO index: -----. WIGOS ID: Unknown
# Latitude 48-47-58N. Longitude 122-32-21W. Altitude 48 m.
##########################################################

###################################
#  METAR/SPECI from KBLI
###################################
201701312353 METAR KBLI 312353Z 01012G21KT 10SM CLR 06/M12 A3029 RMK AO2 PK WND 02027/2256 SLP265 T00561117 10061 20028 56004=
201701312253 METAR KBLI 312253Z 01013G21KT 10SM CLR 06/M11 A3029 RMK AO2 SLP266 T00611111=
201701312153 METAR KBLI 312153Z 02014G24KT 10SM CLR 06/M11 A3029 RMK AO2 PK WND 36028/2142 SLP266 T00611106=
201701312053 METAR KBLI 312053Z 02016G24KT 10SM CLR 06/M09 A3030 RMK AO2 PK WND 04028/1954 SLP269 T00561094 53004=
201701311953 METAR KBLI 311953Z 02017G24KT 10SM CLR 06/M09 A3029 RMK AO2 PK WND 02029/1935 SLP266 T00561094=
201701311853 METAR KBLI 311853Z 01014G24KT 10SM CLR 04/M09 A3029 RMK AO2 PK WND 01028/1815 SLP266 T00441089=
201701311753 METAR KBLI 311753Z 36014G20KT 10SM CLR 03/M07 A3029 RMK AO2 SLP266 T00281072 10028 21006 53008=
201701311653 METAR KBLI 311653Z 34009KT 10SM CLR 01/M07 A3027 RMK AO2 SLP260 T00111067=
201701311553 METAR KBLI 311553Z 31009KT 10SM CLR 00/M06 A3026 RMK AO2 SLP258 T00001061=
201701311453 METAR KBLI 311453Z 32008KT 10SM CLR 00/M06 A3026 RMK AO2 SLP257 T00001056 53005=
201701311353 METAR KBLI 311353Z AUTO 30009KT 10SM CLR 00/M05 A3024 RMK AO2 SLP249 T00001050=
201701311253 METAR KBLI 311253Z AUTO 31006KT 10SM CLR 00/M04 A3025 RMK AO2 SLP252 T00001039=
201701311153 METAR KBLI 311153Z AUTO 30007KT 10SM CLR 00/M03 A3025 RMK AO2 SLP252 T00001033 10039 20000 50007=
201701311053 METAR KBLI 311053Z AUTO 30006KT 10SM CLR 01/M02 A3026 RMK AO2 SLP256 T00111017=
201701310953 METAR KBLI 310953Z AUTO 31006KT 10SM CLR 02/M01 A3024 RMK AO2 SLP251 T00171011=
201701310853 METAR KBLI 310853Z AUTO 30007KT 10SM SCT070 03/01 A3023 RMK AO2 SLP244 T00280006 58005=
201701310753 METAR KBLI 310753Z AUTO 31006KT 10SM CLR 03/01 A3024 RMK AO2 SLP248 T00280011 400720006=
201701310653 METAR KBLI 310653Z AUTO 30004KT 10SM CLR 03/02 A3024 RMK AO2 SLP250 T00330017=
201701310553 METAR KBLI 310553Z 34003KT 10SM CLR 04/02 A3024 RMK AO2 SLP250 T00390017 10061 20033 57005=
201701310453 METAR KBLI 310453Z 31004KT 10SM SCT019 04/02 A3025 RMK AO2 SLP252 T00390017=
201701310353 METAR KBLI 310353Z 31005KT 10SM FEW022 04/02 A3025 RMK AO2 SLP253 T00390022=
201701310253 METAR KBLI 310253Z 30007KT 10SM CLR 04/02 A3026 RMK AO2 SLP255 T00440022 58016=
201701310153 METAR KBLI 310153Z 31005KT 10SM CLR 04/02 A3027 RMK AO2 SLP259 T00440022=
201701310053 METAR KBLI 310053Z 00000KT 10SM CLR 06/02 A3030 RMK AO2 SLP268 T00560022=
201701302353 METAR KBLI 302353Z 32004KT 10SM FEW020 06/03 A3030 RMK AO2 SLP271 T00610028 10067 20056 58025=
201701302345 SPECI KBLI 302345Z 00000KT 10SM FEW020 06/02 A3031 RMK AO2 T00610022=
201701302253 METAR KBLI 302253Z 00000KT 10SM BKN018 07/03 A3033 RMK AO2 SLP281 T00670028=
201701302244 SPECI KBLI 302244Z 26003KT 10SM BKN018 07/03 A3034 RMK AO2 T00670028=
201701302153 METAR KBLI 302153Z 28003KT 10SM SCT017 OVC050 06/03 A3035 RMK AO2 SLP287 T00610028=
201701302053 METAR KBLI 302053Z 34004KT 10SM BKN019 OVC040 07/03 A3038 RMK AO2 SLP295 T00670028 58006=
201701302000 SPECI KBLI 302000Z 35004KT 10SM BKN019 OVC040 06/03 A3038 RMK AO2 T00610028=
201701301953 METAR KBLI 301953Z 34004KT 10SM SCT017 OVC040 07/03 A3038 RMK AO2 SLP296 T00670028=
201701301853 METAR KBLI 301853Z 28004KT 10SM SCT017 OVC040 06/02 A3040 RMK AO2 SLP301 T00610022=
201701301801 SPECI KBLI 301801Z 28003KT 10SM SCT019 BKN040 06/03 A3039 RMK AO2 T00610028=
201701301753 METAR KBLI 301753Z VRB03KT 10SM OVC019 06/03 A3040 RMK AO2 SLP301 T00610028 10061 20006 58005=
201701301745 SPECI KBLI 301745Z 30003KT 10SM BKN019 06/03 A3040 RMK AO2 T00610028=
201701301653 METAR KBLI 301653Z 00000KT 10SM SCT021 BKN055 04/03 A3040 RMK AO2 SLP302 T00440033=
201701301600 SPECI KBLI 301600Z 00000KT 10SM SCT021 OVC055 04/03 A3041 RMK AO2 T00440033=
201701301553 METAR KBLI 301553Z 00000KT 10SM BKN020 OVC055 04/03 A3041 RMK AO2 SLP306 T00390033=
201701301534 SPECI KBLI 301534Z 00000KT 10SM SCT022 OVC055 04/03 A3041 RMK AO2 T00390033=
201701301453 METAR KBLI 301453Z 00000KT 10SM BKN023 OVC029 04/03 A3041 RMK AO2 SLP306 T00440033 57002=
201701301353 METAR KBLI 301353Z AUTO 00000KT 10SM BKN024 OVC050 06/03 A3041 RMK AO2 SLP307 T00560033=
201701301310 SPECI KBLI 301310Z AUTO 28003KT 10SM BKN026 OVC050 04/03 A3042 RMK AO2 T00440033=
201701301253 METAR KBLI 301253Z AUTO 00000KT 10SM OVC050 02/02 A3041 RMK AO2 SLP308 T00170017=
201701301205 SPECI KBLI 301205Z AUTO 00000KT 3SM R16/6000VP6000FT BR SCT050 01/01 A3041 RMK AO2 T00110011=
201701301201 SPECI KBLI 301201Z AUTO 00000KT 1SM R16/6000VP6000FT BR SCT050 01/01 A3041 RMK AO2 VIS 1/2V4 T00110011=
201701301153 METAR KBLI 301153Z AUTO 00000KT 1/4SM R16/5500VP6000FT FG FEW002 BKN050 02/02 A3041 RMK AO2 SLP307 70002 T00220017 10083 20017 58004=
201701301146 SPECI KBLI 301146Z AUTO 00000KT 1/2SM R16/4000VP6000FT FG BKN050 02/02 A3042 RMK AO2 T00170017=
201701301140 SPECI KBLI 301140Z AUTO 00000KT 1SM R16/3500VP6000FT BR BKN050 02/02 A3042 RMK AO2 T00170017=
201701301120 SPECI KBLI 301120Z AUTO 00000KT 1/2SM R16/3000VP6000FT FG BKN050 02/02 A3042 RMK AO2 T00220022=
201701301113 SPECI KBLI 301113Z AUTO 00000KT 3/4SM R16/2400VP6000FT BR FEW002 BKN050 03/03 A3042 RMK AO2 T00330033=
201701301057 SPECI KBLI 301057Z AUTO 00000KT 1/2SM R16/2600VP6000FT FG SCT050 02/02 A3042 RMK AO2 T00220017=
201701301053 METAR KBLI 301053Z AUTO 00000KT 1 1/4SM BR SCT050 02/02 A3043 RMK AO2 VIS 1/2V3 SLP313 T00220017=
201701301039 SPECI KBLI 301039Z AUTO 00000KT 1 3/4SM R16/2600VP6000FT BR FEW016 FEW039 03/03 A3043 RMK AO2 VIS 1V5 T00280028=
201701300953 METAR KBLI 300953Z AUTO 20003KT 10SM FEW018 SCT055 06/05 A3043 RMK AO2 SLP313 T00560050=
201701300904 SPECI KBLI 300904Z AUTO 20004KT 10SM FEW018 SCT023 BKN055 06/05 A3043 RMK AO2 T00610050=
201701300853 METAR KBLI 300853Z AUTO 18004KT 10SM BKN018 BKN023 OVC055 07/06 A3043 RMK AO2 SLP312 T00670056 58002=
201701300827 SPECI KBLI 300827Z AUTO 23003KT 10SM BKN018 BKN055 06/05 A3043 RMK AO2 T00560050=
201701300753 METAR KBLI 300753Z AUTO 17005KT 10SM BKN055 07/06 A3043 RMK AO2 SLP313 T00720056 401000011=
201701300653 METAR KBLI 300653Z AUTO 18004KT 10SM SCT032 BKN040 BKN060 08/06 A3044 RMK AO2 SLP317 T00780056=
201701300600 SPECI KBLI 300600Z 17009KT 10SM FEW017 BKN033 OVC047 08/06 A3043 RMK AO2 T00830056=
201701300553 METAR KBLI 300553Z 17010KT 10SM BKN022 BKN047 08/06 A3044 RMK AO2 SLP315 T00830056 10089 20078 51021=
201701300453 METAR KBLI 300453Z 16012G20KT 10SM BKN022 OVC049 08/05 A3042 RMK AO2 SLP310 T00830050=
201701300353 METAR KBLI 300353Z 17010G17KT 10SM OVC025 08/05 A3039 RMK AO2 SLP299 T00830050=
201701300253 METAR KBLI 300253Z 16015G23KT 10SM BKN028 08/05 A3037 RMK AO2 SLP294 T00830050 51003=
201701300153 METAR KBLI 300153Z 16013G20KT 10SM SCT033 08/05 A3036 RMK AO2 SLP291 T00780050=
201701300053 METAR KBLI 300053Z 16013G20KT 10SM SCT032 BKN060 08/05 A3037 RMK AO2 PK WND 16028/0013 SLP295 T00830050=
201701292353 METAR KBLI 292353Z 15014G20KT 10SM OVC034 09/04 A3036 RMK AO2 RAB2254E03 SLP290 P0000 60002 T00940039 10094 20083 53016=
201701292253 METAR KBLI 292253Z 14009KT 10SM OVC034 09/04 A3034 RMK AO2 SLP282 T00890044=
201701292153 METAR KBLI 292153Z 16009KT 10SM OVC037 08/04 A3034 RMK AO2 SLP282 T00830044=
201701292053 METAR KBLI 292053Z 15013KT 10SM OVC046 08/05 A3032 RMK AO2 PK WND 14029/2021 RAE50 SLP275 P0002 60002 T00830050 56010=
201701291953 METAR KBLI 291953Z 17014G26KT 10SM -RA FEW027 OVC070 09/04 A3034 RMK AO2 PK WND 16026/1859 RAB48 SLP284 P0000 T00890039=
201701291853 METAR KBLI 291853Z 15015G29KT 10SM CLR 09/03 A3031 RMK AO2 PK WND 15029/1847 SLP271 T00940028=
201701291753 METAR KBLI 291753Z 20006G15KT 10SM CLR 08/03 A3035 RMK AO2 SLP285 T00830028 10100 20011 55004=
201701291653 METAR KBLI 291653Z 16017G21KT 10SM CLR 10/01 A3030 RMK AO2 PK WND 13027/1555 PRESFR SLP270 T01000011=
201701291553 METAR KBLI 291553Z 13017G23KT 10SM CLR 08/01 A3029 RMK AO2 PRESFR SLP265 T00830006=
201701291453 METAR KBLI 291453Z 00000KT 10SM CLR 02/00 A3036 RMK AO2 SLP290 T00170000 55002=
201701291353 METAR KBLI 291353Z AUTO 03003KT 10SM CLR 02/01 A3034 RMK AO2 SLP283 T00170006=
201701291253 METAR KBLI 291253Z AUTO 00000KT 10SM CLR 02/00 A3036 RMK AO2 SLP291 T00170000=
201701291153 METAR KBLI 291153Z AUTO 01003KT 10SM CLR 02/00 A3037 RMK AO2 SLP293 T00220000 10039 20017 58015=
201701291053 METAR KBLI 291053Z AUTO 01003KT 10SM CLR 02/01 A3039 RMK AO2 SLP300 T00170006=
201701290953 METAR KBLI 290953Z AUTO 00000KT 10SM CLR 03/01 A3041 RMK AO2 SLP307 T00280006=
201701290853 METAR KBLI 290853Z AUTO 29003KT 10SM CLR 03/01 A3041 RMK AO2 SLP307 T00280011 58017=
201701290753 METAR KBLI 290753Z AUTO 04003KT 10SM CLR 03/01 A3043 RMK AO2 SLP315 T00330011 400721017=
201701290653 METAR KBLI 290653Z AUTO 00000KT 10SM CLR 03/01 A3045 RMK AO2 SLP321 T00330011=
201701290553 METAR KBLI 290553Z 35006KT 10SM CLR 04/01 A3046 RMK AO2 SLP325 T00390011 10072 20028 55007=
201701290453 METAR KBLI 290453Z 36004KT 10SM CLR 03/01 A3046 RMK AO2 SLP324 T00330011=
201701290353 METAR KBLI 290353Z 01003KT 10SM CLR 04/01 A3046 RMK AO2 SLP325 T00390011=
201701290253 METAR KBLI 290253Z 36004KT 10SM CLR 04/01 A3048 RMK AO2 SLP332 T00390006 58007=
201701290153 METAR KBLI 290153Z 33003KT 10SM CLR 04/01 A3049 RMK AO2 SLP333 T00440011=
201701290053 METAR KBLI 290053Z 33003KT 10SM CLR 06/02 A3051 RMK AO2 SLP340 T00560017=
201701282353 METAR KBLI 282353Z 01003KT 10SM CLR 07/02 A3050 RMK AO2 SLP339 T00670022 10072 20028 56020=
201701282253 METAR KBLI 282253Z 01003KT 10SM CLR 07/02 A3053 RMK AO2 SLP348 T00720017=
201701282153 METAR KBLI 282153Z 00000KT 10SM CLR 07/01 A3053 RMK AO2 SLP349 T00720011=
201701282053 METAR KBLI 282053Z 35003KT 10SM CLR 07/01 A3056 RMK AO2 SLP359 T00670006 58010=
201701281953 METAR KBLI 281953Z 00000KT 10SM CLR 04/01 A3058 RMK AO2 SLP364 T00440006=
201701281853 METAR KBLI 281853Z 03004KT 10SM CLR 03/01 A3059 RMK AO2 SLP367 T00280006=
201701281753 METAR KBLI 281753Z 30004KT 10SM CLR 02/01 A3059 RMK AO2 SLP369 T00220006 10022 21017 50012=
201701281653 METAR KBLI 281653Z 00000KT 10SM CLR 00/M01 A3060 RMK AO2 SLP371 T00001006=
201701281553 METAR KBLI 281553Z 00000KT 10SM CLR 00/M01 A3057 RMK AO2 SLP361 T00001011=
201701281453 METAR KBLI 281453Z 00000KT 10SM CLR M01/M01 A3056 RMK AO2 SLP357 T10061011 58014=
201701281353 METAR KBLI 281353Z AUTO 00000KT 10SM CLR M01/M02 A3058 RMK AO2 SLP365 T10061017=
201701281253 METAR KBLI 281253Z AUTO 29003KT 10SM CLR 00/M01 A3061 RMK AO2 SLP374 T00001011=
201701281153 METAR KBLI 281153Z AUTO 00000KT 10SM CLR 00/M01 A3060 RMK AO2 SLP372 T00001006 10044 21006 53002=
201701281053 METAR KBLI 281053Z AUTO 00000KT 10SM CLR 00/M01 A3060 RMK AO2 SLP372 T00001011=
201701280953 METAR KBLI 280953Z AUTO 00000KT 10SM CLR 01/00 A3059 RMK AO2 SLP367 T00060000=
201701280853 METAR KBLI 280853Z AUTO 00000KT 10SM CLR 02/00 A3060 RMK AO2 SLP369 T00220000 56002=
201701280753 METAR KBLI 280753Z AUTO 33004KT 10SM CLR 03/01 A3060 RMK AO2 SLP373 T00280006 401001011=
201701280653 METAR KBLI 280653Z AUTO 36005KT 10SM CLR 03/00 A3059 RMK AO2 SLP367 T00280000=
201701280553 METAR KBLI 280553Z 36004KT 10SM CLR 04/01 A3060 RMK AO2 SLP372 T00440011 10089 20039 55002=
201701280453 METAR KBLI 280453Z 34003KT 10SM CLR 05/01 A3059 RMK AO2 SLP368 T00500011=
201701280353 METAR KBLI 280353Z 00000KT 10SM CLR 06/02 A3060 RMK AO2 SLP371 T00560017=
201701280253 METAR KBLI 280253Z 01004KT 10SM FEW120 06/02 A3061 RMK AO2 SLP374 T00560017 58002=
201701280153 METAR KBLI 280153Z 01004KT 10SM FEW120 07/02 A3062 RMK AO2 SLP377 T00670022=
201701280053 METAR KBLI 280053Z VRB03KT 10SM CLR 08/02 A3061 RMK AO2 SLP374 T00780022=
201701272353 METAR KBLI 272353Z 01004KT 10SM CLR 09/02 A3061 RMK AO2 SLP376 T00890017 10100 20039 56006=
201701272253 METAR KBLI 272253Z 00000KT 10SM CLR 10/02 A3062 RMK AO2 SLP378 T01000017=
201701272153 METAR KBLI 272153Z 34004KT 10SM CLR 10/02 A3062 RMK AO2 SLP379 T01000017=
201701272053 METAR KBLI 272053Z 34003KT 10SM CLR 09/02 A3063 RMK AO2 SLP383 T00940022 58012=
201701271953 METAR KBLI 271953Z 00000KT 10SM CLR 08/02 A3065 RMK AO2 SLP389 T00830022=
201701271853 METAR KBLI 271853Z 03003KT 10SM CLR 06/01 A3067 RMK AO2 SLP395 T00610011=
201701271753 METAR KBLI 271753Z 35003KT 10SM SCT043 04/01 A3067 RMK AO2 SLP395 T00390011 10039 20011 53013=
201701271653 METAR KBLI 271653Z 00000KT 10SM OVC044 03/02 A3065 RMK AO2 SLP388 T00280017=
201701271553 METAR KBLI 271553Z 00000KT 10SM OVC045 02/01 A3064 RMK AO2 SLP385 T00170006=
201701271453 METAR KBLI 271453Z 00000KT 10SM OVC044 03/01 A3063 RMK AO2 SLP382 T00280011 53003=
201701271353 METAR KBLI 271353Z AUTO 00000KT 10SM OVC044 01/01 A3060 RMK AO2 SLP370 T00110006=
201701271253 METAR KBLI 271253Z AUTO 35003KT 10SM OVC045 01/01 A3062 RMK AO2 SLP378 T00110006=
201701271153 METAR KBLI 271153Z AUTO 00000KT 10SM OVC046 01/01 A3062 RMK AO2 SLP378 I6001 T00110006 10022 21011 53009=
201701271053 METAR KBLI 271053Z AUTO 03003KT 10SM OVC043 01/01 A3061 RMK AO2 SLP376 T00110006=
201701270953 METAR KBLI 270953Z AUTO 01004KT 10SM BKN042 01/M01 A3059 RMK AO2 SLP368 T00061006=
201701270853 METAR KBLI 270853Z AUTO 35003KT 10SM OVC042 01/00 A3059 RMK AO2 SLP369 I3001 T00060000 53003=
201701270753 METAR KBLI 270753Z AUTO 00000KT 6SM CLR M01/M01 A3058 RMK AO2 SLP366 T10061011 400831011=
201701270653 METAR KBLI 270653Z AUTO 00000KT 10SM CLR 02/01 A3058 RMK AO2 SLP366 I1001 T00170011=
201701270553 METAR KBLI 270553Z 00000KT 10SM CLR 01/00 A3058 RMK AO2 SLP366 T00060000 10072 21006 53009=
201701270453 METAR KBLI 270453Z 00000KT 7SM CLR 01/01 A3057 RMK AO2 SLP362 T00110006=
201701270353 METAR KBLI 270353Z 00000KT 7SM CLR 02/01 A3056 RMK AO2 SLP360 T00170006=
201701270253 METAR KBLI 270253Z 00000KT 10SM CLR 02/01 A3056 RMK AO2 SLP358 T00170006 50005=
201701270153 METAR KBLI 270153Z 00000KT 10SM CLR 02/01 A3056 RMK AO2 SLP359 T00220011=
201701270053 METAR KBLI 270053Z 00000KT 10SM CLR 05/02 A3055 RMK AO2 SLP355 T00500022=
201701262353 METAR KBLI 262353Z 00000KT 10SM CLR 07/02 A3054 RMK AO2 SLP351 T00720022 10083 20039 53008=
201701262253 METAR KBLI 262253Z 35003KT 10SM CLR 08/02 A3052 RMK AO2 SLP345 T00780022=
201701262153 METAR KBLI 262153Z 00000KT 10SM SCT045 08/02 A3051 RMK AO2 SLP342 T00830022=
201701262053 METAR KBLI 262053Z 00000KT 10SM SCT046 07/03 A3052 RMK AO2 SLP343 T00720028 50004=
201701261953 METAR KBLI 261953Z 00000KT 10SM OVC048 06/03 A3053 RMK AO2 SLP349 T00610028=
201701261853 METAR KBLI 261853Z 00000KT 10SM BKN050 06/03 A3053 RMK AO2 SLP348 T00560028=
201701261753 METAR KBLI 261753Z 35003KT 10SM CLR 04/03 A3050 RMK AO2 SLP338 I6001 T00440028 10044 21011 51016=
201701261653 METAR KBLI 261653Z 00000KT 10SM CLR 01/01 A3048 RMK AO2 SLP333 T00060006=
201701261557 SPECI KBLI 261557Z 00000KT 10SM BKN050 OVC060 01/01 A3048 RMK AO2 T00060006=
201701261553 METAR KBLI 261553Z 00000KT 3SM SCT050 OVC065 01/01 A3048 RMK AO2 SLP332 T00060006=
201701261453 METAR KBLI 261453Z 00000KT 10SM OVC050 01/01 A3046 RMK AO2 SLP323 I1001 I3001 T00060006 53014=
201701261353 METAR KBLI 261353Z AUTO 00000KT 4SM BR BKN050 M01/M01 A3043 RMK AO2 SLP316 T10061011=
201701261344 SPECI KBLI 261344Z AUTO 00000KT 3SM BR BKN050 M01/M01 A3044 RMK AO2 T10111011=
201701261311 SPECI KBLI 261311Z AUTO 00000KT 1 3/4SM R16/3000VP6000FT BR CLR M01/M01 A3042 RMK AO2 T10061011=
201701261306 SPECI KBLI 261306Z AUTO 00000KT 3SM R16/3000VP6000FT BR FEW026 M01/M01 A3042 RMK AO2 T10111011=
201701261301 SPECI KBLI 261301Z AUTO 00000KT 1 1/4SM BR FEW026 M01/M01 A3042 RMK AO2 T10061011=
201701261253 METAR KBLI 261253Z AUTO 00000KT 2 1/2SM BR FEW026 M01/M01 A3042 RMK AO2 SLP309 T10061011=
201701261248 SPECI KBLI 261248Z AUTO 00000KT 3SM BR SCT026 M01/M01 A3042 RMK AO2=
201701261153 METAR KBLI 261153Z AUTO 00000KT 6SM BR BKN024 OVC055 00/00 A3042 RMK AO2 SLP309 T00000000 10039 20000 51016=
201701261105 SPECI KBLI 261105Z AUTO 00000KT 3SM BR BKN025 OVC055 00/00 A3041 RMK AO2 T00000000=
201701261053 METAR KBLI 261053Z AUTO 00000KT 3SM BR FEW025 OVC055 00/00 A3041 RMK AO2 SLP306 T00000000=
201701261043 SPECI KBLI 261043Z AUTO 00000KT 2 1/2SM BR OVC055 01/00 A3040 RMK AO2 T00060000=
201701260953 METAR KBLI 260953Z AUTO 00000KT 6SM BR FEW024 OVC055 01/01 A3038 RMK AO2 SLP298 T00110006=
201701260853 METAR KBLI 260853Z AUTO 00000KT 7SM OVC055 01/01 A3037 RMK AO2 SLP293 T00110006 53010=
201701260753 METAR KBLI 260753Z AUTO 31003KT 10SM BKN055 01/01 A3036 RMK AO2 SLP290 T00110011 400671006=
201701260653 METAR KBLI 260653Z AUTO 00000KT 10SM OVC060 03/02 A3035 RMK AO2 SLP286 T00330022=
201701260553 METAR KBLI 260553Z 00000KT 10SM OVC060 03/02 A3034 RMK AO2 SLP283 T00330022 10061 20028 51013=
201701260453 METAR KBLI 260453Z 00000KT 10SM BKN040 OVC050 03/02 A3033 RMK AO2 SLP279 T00330022=
201701260353 METAR KBLI 260353Z AUTO 00000KT 10SM OVC055 04/02 A3032 RMK AO2 SLP275 T00390022=
201701260253 METAR KBLI 260253Z 00000KT 10SM OVC055 04/02 A3030 RMK AO2 SLP271 T00390022 51007=
201701260153 METAR KBLI 260153Z 00000KT 10SM OVC045 04/02 A3030 RMK AO2 SLP270 T00440017=
201701260053 METAR KBLI 260053Z 00000KT 10SM OVC050 05/02 A3029 RMK AO2 SLP268 T00500022=
201701252353 METAR KBLI 252353Z 00000KT 10SM OVC050 06/03 A3028 RMK AO2 SLP264 T00610028 10067 20022 53005=
201701252253 METAR KBLI 252253Z 00000KT 10SM R16/2400VP6000FT OVC049 06/02 A3027 RMK AO2 SLP261 T00610022=
201701252153 METAR KBLI 252153Z 30003KT 10SM OVC047 06/03 A3027 RMK AO2 SLP258 T00610033=
201701252053 METAR KBLI 252053Z 00000KT 10SM OVC049 06/03 A3027 RMK AO2 SLP259 T00560028 50002 $=
201701251953 METAR KBLI 251953Z 00000KT 8SM FEW048 OVC070 04/03 A3027 RMK AO2 SLP260 T00440028 $=
201701251853 METAR KBLI 251853Z 00000KT 10SM FEW050 OVC070 04/03 A3027 RMK AO2 SLP260 T00390028 $=
201701251753 METAR KBLI 251753Z 00000KT 10SM FEW055 SCT070 OVC095 02/01 A3026 RMK AO2 SLP256 T00170011 10017 21006 53009 $=
201701251653 METAR KBLI 251653Z 00000KT 10SM BKN050 OVC070 01/01 A3025 RMK AO2 SLP255 T00060006=
201701251553 METAR KBLI 251553Z 00000KT 10SM OVC050 01/01 A3024 RMK AO2 SLP249 T00060006=
201701251453 METAR KBLI 251453Z 00000KT 10SM SCT050 OVC110 00/00 A3023 RMK AO2 SLP247 T00000000 53006=
201701251353 METAR KBLI 251353Z AUTO 00000KT 6SM BR OVC110 01/00 A3022 RMK AO2 SLP243 T00060000=
201701251253 METAR KBLI 251253Z AUTO 00000KT 9SM FEW046 00/00 A3022 RMK AO2 SLP243 T00000000=
201701251153 METAR KBLI 251153Z AUTO 00000KT 4SM BR FEW110 00/00 A3022 RMK AO2 SLP241 T00000000 10017 21006 50000=
201701251053 METAR KBLI 251053Z AUTO 00000KT 7SM BKN050 00/00 A3022 RMK AO2 SLP243 T00000000=
201701250953 METAR KBLI 250953Z AUTO 00000KT 3SM BR CLR M01/M01 A3022 RMK AO2 SLP242 T10061011=
201701250948 SPECI KBLI 250948Z AUTO 00000KT 2 1/2SM BR CLR M01/M01 A3022 RMK AO2=
201701250853 METAR KBLI 250853Z AUTO 00000KT 4SM BR CLR M01/M01 A3020 RMK AO2 SLP237 T10061006 53001=
201701250753 METAR KBLI 250753Z AUTO 00000KT 6SM BR CLR 01/00 A3020 RMK AO2 SLP236 T00060000 400501006=
201701250653 METAR KBLI 250653Z AUTO 00000KT 9SM CLR 01/01 A3020 RMK AO2 SLP237 T00110006=
201701250553 METAR KBLI 250553Z 04004KT 10SM CLR 01/01 A3020 RMK AO2 SLP237 T00110006 10050 20006 53007=
201701250453 METAR KBLI 250453Z 00000KT 10SM SCT050 01/01 A3019 RMK AO2 SLP233 T00110011=
201701250353 METAR KBLI 250353Z 00000KT 10SM BKN048 02/02 A3019 RMK AO2 SLP231 T00220017=
201701250253 METAR KBLI 250253Z 00000KT 10SM OVC044 03/02 A3018 RMK AO2 SLP229 T00280022 53008=
201701250153 METAR KBLI 250153Z 00000KT 10SM OVC042 04/02 A3017 RMK AO2 SLP225 T00390022=
201701250053 METAR KBLI 250053Z 00000KT 10SM OVC041 04/03 A3016 RMK AO2 SLP223 T00440028=
201701242353 METAR KBLI 242353Z 00000KT 10SM OVC041 05/03 A3016 RMK AO2 SLP221 T00500028 10050 20022 53005=
201701242253 METAR KBLI 242253Z 00000KT 10SM SCT014 OVC040 05/02 A3015 RMK AO2 SLP218 T00500022=
201701242205 SPECI KBLI 242205Z 00000KT 10SM SCT016 OVC041 04/02 A3014 RMK AO2 T00440017=
201701242153 METAR KBLI 242153Z 00000KT 10SM BKN016 OVC043 05/02 A3014 RMK AO2 SLP215 T00500017=
201701242053 METAR KBLI 242053Z 00000KT 10SM OVC014 04/02 A3014 RMK AO2 SLP215 T00390017 50004=
201701242012 SPECI KBLI 242012Z 00000KT 10SM OVC015 03/02 A3014 RMK AO2 T00330017=
201701241953 METAR KBLI 241953Z 00000KT 10SM OVC014 03/02 A3014 RMK AO2 SLP217 T00330017=
201701241904 SPECI KBLI 241904Z 00000KT 10SM OVC014 03/02 A3014 RMK AO2 T00280017=
201701241853 METAR KBLI 241853Z 00000KT 10SM SCT015 OVC020 03/02 A3014 RMK AO2 SLP216 T00280017=
201701241753 METAR KBLI 241753Z 00000KT 10SM OVC019 02/02 A3013 RMK AO2 SLP212 T00220017 10022 20011 53017=
201701241653 METAR KBLI 241653Z 00000KT 10SM OVC020 02/01 A3011 RMK AO2 SLP205 T00170011=
201701241553 METAR KBLI 241553Z 00000KT 10SM OVC019 02/01 A3009 RMK AO2 SLP199 T00170011=
201701241453 METAR KBLI 241453Z 00000KT 10SM SCT016 OVC028 02/01 A3008 RMK AO2 SLP195 T00170011 51012=
201701241353 METAR KBLI 241353Z AUTO 00000KT 10SM FEW016 OVC025 02/01 A3008 RMK AO2 SLP194 T00170011=
201701241253 METAR KBLI 241253Z AUTO 00000KT 10SM OVC020 02/02 A3006 RMK AO2 SLP188 T00170017=
201701241153 METAR KBLI 241153Z AUTO 00000KT 8SM OVC022 01/01 A3004 RMK AO2 SLP182 I6001 T00110011 10028 21017 51010=
201701241053 METAR KBLI 241053Z AUTO 13003KT 10SM OVC019 02/02 A3004 RMK AO2 SLP180 T00220017=
201701240953 METAR KBLI 240953Z AUTO 00000KT 9SM OVC016 01/01 A3002 RMK AO2 SLP176 T00110011=
201701240909 SPECI KBLI 240909Z AUTO 00000KT 10SM OVC015 01/01 A3001 RMK AO2 T00110011=
201701240853 METAR KBLI 240853Z AUTO 00000KT 10SM OVC012 01/01 A3001 RMK AO2 SLP171 I1001 I3001 T00110006 51012=
201701240803 SPECI KBLI 240803Z AUTO 00000KT 10SM BKN012 00/00 A3001 RMK AO2 T00000000=
201701240753 METAR KBLI 240753Z AUTO 13003KT 2 1/2SM BR BKN013 M01/M01 A3001 RMK AO2 SLP171 I1000 T10061011 400781022=
201701240722 SPECI KBLI 240722Z AUTO 00000KT 7SM FEW009 M01/M02 A3000 RMK AO2 T10111017=
201701240706 SPECI KBLI 240706Z AUTO 00000KT 4SM BR CLR M01/M02 A2999 RMK AO2 T10111017=
201701240702 SPECI KBLI 240702Z AUTO 00000KT 1 1/4SM BR FEW009 M01/M02 A2999 RMK AO2 T10111017=
201701240657 SPECI KBLI 240657Z AUTO 00000KT 3/4SM R16/P6000FT BR VV009 M01/M01 A2999 RMK AO2 T10111011=
201701240653 METAR KBLI 240653Z AUTO 00000KT 1 1/4SM BR SCT009 M01/M02 A2999 RMK AO2 SLP166 I1000 T10061017=
201701240646 SPECI KBLI 240646Z AUTO 14003KT 1 1/4SM BR FEW009 M01/M02 A2999 RMK AO2 I1000 T10111017=
201701240637 SPECI KBLI 240637Z AUTO 00000KT 3/4SM R16/P6000FT BR VV009 M01/M02 A2999 RMK AO2 I1000 T10111017=
201701240630 SPECI KBLI 240630Z AUTO 00000KT 1 3/4SM BR FEW009 M01/M01 A2998 RMK AO2 I1000 T10111011=
201701240553 METAR KBLI 240553Z 00000KT 10SM CLR M01/M01 A2997 RMK AO2 SLP160 I1001 I6001 T10111011 10067 21011 53014=
201701240453 METAR KBLI 240453Z 00000KT 10SM CLR M01/M01 A2995 RMK AO2 SLP153 I1000 T10061011=
201701240435 SPECI KBLI 240435Z 00000KT 10SM CLR M01/M01 A2995 RMK AO2 I1000 T10061011=
201701240418 SPECI KBLI 240418Z 00000KT 1 3/4SM BR CLR M01/M01 A2995 RMK AO2 I1000 T10061011=
201701240353 METAR KBLI 240353Z 00000KT 10SM CLR 00/M01 A2994 RMK AO2 SLP149 T00001006=
201701240253 METAR KBLI 240253Z 00000KT 10SM CLR 00/00 A2993 RMK AO2 SLP147 T00000000 53015=
201701240153 METAR KBLI 240153Z 00000KT 10SM CLR 02/01 A2992 RMK AO2 SLP142 T00170011=
201701240053 METAR KBLI 240053Z 00000KT 10SM CLR 03/02 A2990 RMK AO2 SLP134 T00280017=
201701232353 METAR KBLI 232353Z 00000KT 10SM CLR 07/03 A2989 RMK AO2 SLP130 I6001 T00670033 10078 21011 53013=
201701232253 METAR KBLI 232253Z 28004KT 10SM CLR 07/03 A2987 RMK AO2 SLP124 T00720028=
201701232153 METAR KBLI 232153Z 22004KT 10SM CLR 07/03 A2986 RMK AO2 SLP120 T00720033=
201701232053 METAR KBLI 232053Z 00000KT 10SM CLR 06/03 A2985 RMK AO2 SLP118 I3001 T00610033 51010=
201701231953 METAR KBLI 231953Z 00000KT 10SM FEW024 04/03 A2984 RMK AO2 SLP115 T00390028=
201701231853 METAR KBLI 231853Z VRB04KT 9SM CLR 01/01 A2983 RMK AO2 SLP112 I1001 T00110006=
201701231753 METAR KBLI 231753Z 33003KT 10SM FEW005 M01/M01 A2982 RMK AO2 SLP108 I6000 T10061006 10006 21022 51023=
201701231653 METAR KBLI 231653Z 00000KT 10SM CLR 01/00 A2980 RMK AO2 SLP101 I1000 T00060000=
201701231616 SPECI KBLI 231616Z 02005KT 10SM FEW010 SCT085 M01/M01 A2979 RMK AO2 T10061011=
201701231557 SPECI KBLI 231557Z 01003KT 10SM FEW010 SCT085 M01/M01 A2978 RMK AO2 T10111011=
201701231555 SPECI KBLI 231555Z 01003KT 2 1/2SM BR FEW003 M01/M01 A2978 RMK AO2 T10061011=
201701231553 METAR KBLI 231553Z 01003KT 10SM FEW010 SCT085 M01/M02 A2978 RMK AO2 SLP094 I1000 T10111017=
201701231453 METAR KBLI 231453Z 00000KT 10SM FEW002 M01/M02 A2975 RMK AO2 SLP084 I1000 I3000 T10111017 53025=
201701231437 SPECI KBLI 231437Z AUTO 00000KT 7SM FEW002 M01/M02 A2974 RMK AO2 I1000 T10111017=
201701231423 SPECI KBLI 231423Z AUTO 00000KT 2 1/2SM BR FEW002 M02/M02 A2974 RMK AO2 I1000 T10171017=
201701231353 METAR KBLI 231353Z AUTO 00000KT 7SM CLR M02/M02 A2973 RMK AO2 SLP076 I1000 T10171017=
201701231253 METAR KBLI 231253Z AUTO 00000KT 10SM CLR M01/M01 A2970 RMK AO2 SLP067 T10061006=
201701231153 METAR KBLI 231153Z AUTO 00000KT 10SM CLR 00/00 A2968 RMK AO2 SLP060 70003 T00000000 10022 20000 53019=
201701231053 METAR KBLI 231053Z AUTO 35006KT 10SM CLR 01/00 A2966 RMK AO2 SLP052 T00110000=
201701230953 METAR KBLI 230953Z AUTO 01006KT 10SM CLR 02/01 A2964 RMK AO2 SLP045 T00170006=
201701230853 METAR KBLI 230853Z AUTO 36005KT 10SM CLR 02/01 A2963 RMK AO2 SLP041 T00170011 51006=
201701230753 METAR KBLI 230753Z AUTO 02003KT 10SM CLR 01/01 A2962 RMK AO2 SLP041 T00110006 400780006=
201701230653 METAR KBLI 230653Z AUTO 02006KT 10SM CLR 02/01 A2962 RMK AO2 SLP039 T00170011=
201701230553 METAR KBLI 230553Z 01004KT 10SM CLR 03/02 A2961 RMK AO2 SLP035 T00280017 10067 20017 51008=
201701230453 METAR KBLI 230453Z 01006KT 10SM CLR 03/02 A2960 RMK AO2 SLP033 T00280017=
201701230353 METAR KBLI 230353Z 36004KT 10SM CLR 02/02 A2959 RMK AO2 SLP029 T00220017=
201701230253 METAR KBLI 230253Z 36005KT 10SM CLR 04/02 A2958 RMK AO2 SLP027 T00390022 51007=
201701230153 METAR KBLI 230153Z 03003KT 10SM FEW040 05/03 A2958 RMK AO2 SLP025 T00500028=
201701230053 METAR KBLI 230053Z 01004KT 10SM OVC040 06/04 A2957 RMK AO2 SLP024 T00610039=
201701222353 METAR KBLI 222353Z 03006KT 10SM BKN110 07/04 A2956 RMK AO2 SLP019 60003 T00670039 10078 20056 53011=
201701222253 METAR KBLI 222253Z 11007KT 10SM OVC110 07/04 A2954 RMK AO2 SLP013 T00720039=
201701222153 METAR KBLI 222153Z 13013G19KT 10SM OVC070 08/04 A2953 RMK AO2 RAE18 SLP010 P0000 T00780044=
201701222053 METAR KBLI 222053Z 13007KT 10SM -RA BKN045 OVC055 08/05 A2953 RMK AO2 SLP007 P0000 60003 T00780050 50020=
201701221953 METAR KBLI 221953Z 11008KT 9SM -RA FEW027 BKN045 OVC055 07/04 A2953 RMK AO2 SLP008 P0002 T00720044=
201701221853 METAR KBLI 221853Z 14010KT 10SM -RA SCT027 BKN039 OVC050 07/03 A2951 RMK AO2 RAB24 SLP002 P0001 T00720028=
201701221753 METAR KBLI 221753Z 00000KT 10SM OVC070 07/01 A2947 RMK AO2 SLP987 T00670006 10067 20006 53017=
201701221653 METAR KBLI 221653Z 04007KT 10SM CLR 05/00 A2943 RMK AO2 SLP975 T00500000=
201701221553 METAR KBLI 221553Z 01007KT 10SM CLR 04/00 A2942 RMK AO2 SLP970 T00440000=
201701221453 METAR KBLI 221453Z 01007KT 10SM CLR 04/01 A2942 RMK AO2 SLP971 T00390006 56039=
201701221353 METAR KBLI 221353Z AUTO 01008KT 10SM CLR 03/01 A2945 RMK AO2 SLP982 T00280011=
201701221253 METAR KBLI 221253Z AUTO 01005KT 10SM CLR 01/00 A2950 RMK AO2 SLP997 T00060000=
201701221153 METAR KBLI 221153Z AUTO 00000KT 10SM CLR 02/02 A2954 RMK AO2 SLP011 T00220017 10067 20011 56021=
201701221053 METAR KBLI 221053Z AUTO 01003KT 10SM SCT060 03/02 A2956 RMK AO2 SLP016 T00330017=
201701220953 METAR KBLI 220953Z AUTO 03005KT 10SM BKN055 03/02 A2957 RMK AO2 SLP020 T00330022=
201701220853 METAR KBLI 220853Z AUTO 00000KT 10SM SCT050 OVC060 05/03 A2960 RMK AO2 SLP031 T00500033 51009=
201701220753 METAR KBLI 220753Z AUTO 00000KT 10SM OVC060 04/03 A2959 RMK AO2 SLP029 T00390028 401060039=
201701220653 METAR KBLI 220653Z AUTO 00000KT 10SM OVC070 05/03 A2958 RMK AO2 SLP026 T00500033=
201701220553 METAR KBLI 220553Z 00000KT 10SM OVC090 06/03 A2957 RMK AO2 SLP022 60000 T00560033 10089 20039 51024=
201701220453 METAR KBLI 220453Z 00000KT 10SM OVC100 04/03 A2956 RMK AO2 SLP017 T00440028=
201701220353 METAR KBLI 220353Z 18003KT 10SM OVC090 06/03 A2953 RMK AO2 SLP009 T00560033=
201701220253 METAR KBLI 220253Z 00000KT 10SM OVC090 05/03 A2950 RMK AO2 SLP998 60000 T00500028 53018=
201701220153 METAR KBLI 220153Z 01004KT 10SM CLR 06/03 A2947 RMK AO2 SLP989 T00560028=
201701220053 METAR KBLI 220053Z 03004KT 10SM FEW080 BKN120 07/04 A2946 RMK AO2 RAE2355 SLP984 P0000 T00720039=
201701212353 METAR KBLI 212353Z 04005KT 10SM -RA BKN065 OVC080 09/05 A2945 RMK AO2 RAE08B45 SLP980 P0000 60000 T00890050 10106 20061 53017=
201701212253 METAR KBLI 212253Z 01006KT 10SM -RA OVC065 09/04 A2943 RMK AO2 RAB49 SLP975 P0000 T00940044=
201701212153 METAR KBLI 212153Z 01004KT 10SM OVC075 10/04 A2941 RMK AO2 SLP967 T01000044=
201701212053 METAR KBLI 212053Z 34004KT 10SM BKN080 10/04 A2940 RMK AO2 SLP963 T01000039 51014=
201701211953 METAR KBLI 211953Z 04004KT 10SM OVC100 10/05 A2938 RMK AO2 SLP958 T01000050=
201701211853 METAR KBLI 211853Z 02006KT 10SM OVC095 08/05 A2937 RMK AO2 SLP955 T00830050=
201701211753 METAR KBLI 211753Z 03005KT 10SM BKN090 OVC110 06/04 A2936 RMK AO2 SLP949 60000 T00610044 10067 20039 51022=
201701211653 METAR KBLI 211653Z 00000KT 10SM BKN055 OVC070 05/04 A2934 RMK AO2 RAB35E47 SLP944 P0000 T00500044=
201701211553 METAR KBLI 211553Z 36003KT 10SM SCT060 OVC080 04/03 A2931 RMK AO2 RAB34E46 SLP935 P0000 T00440033=
201701211453 METAR KBLI 211453Z 01004KT 10SM OVC048 04/03 A2929 RMK AO2 SLP928 60000 T00440033 53012=
201701211353 METAR KBLI 211353Z AUTO 01005KT 10SM OVC044 04/03 A2928 RMK AO2 RAE29 SLP923 P0000 T00440033=
201701211253 METAR KBLI 211253Z AUTO 04004KT 10SM -RA BKN044 OVC080 04/04 A2926 RMK AO2 RAE25B50 SLP917 P0000 T00440039=
201701211153 METAR KBLI 211153Z AUTO 00000KT 10SM -RA OVC050 05/04 A2926 RMK AO2 SLP915 P0001 60003 70003 T00500044 10067 20044 51013=
201701211053 METAR KBLI 211053Z AUTO 00000KT 10SM -RA OVC045 04/04 A2925 RMK AO2 SLP914 P0001 T00440044=
201701210953 METAR KBLI 210953Z AUTO 00000KT 10SM -RA OVC042 06/04 A2925 RMK AO2 SLP911 P0001 T00560044=
201701210853 METAR KBLI 210853Z AUTO 00000KT 10SM -RA FEW018 OVC048 06/03 A2922 RMK AO2 RAB30 SLP902 P0000 60000 T00560028 53013=
201701210753 METAR KBLI 210753Z AUTO 35007KT 10SM BKN060 OVC080 06/02 A2919 RMK AO2 SLP892 T00560022 400940017=
201701210653 METAR KBLI 210653Z AUTO 35003KT 10SM OVC070 05/02 A2919 RMK AO2 SLP892 T00500022=
201701210553 METAR KBLI 210553Z 36004KT 10SM BKN060 OVC080 06/03 A2918 RMK AO2 RAB19E34 SLP889 P0000 60000 T00610028 10083 20050 51015=
201701210453 METAR KBLI 210453Z 06006KT 10SM BKN070 OVC080 06/03 A2918 RMK AO2 SLP888 T00610028=
201701210353 METAR KBLI 210353Z VRB03KT 10SM OVC085 06/02 A2916 RMK AO2 SLP884 T00560022=
201701210253 METAR KBLI 210253Z 36003KT 10SM FEW090 BKN110 06/02 A2914 RMK AO2 SLP876 T00610017 53006=
201701210153 METAR KBLI 210153Z 36005KT 10SM OVC090 07/02 A2913 RMK AO2 SLP872 T00670017=
201701210053 METAR KBLI 210053Z 01006KT 10SM BKN090 07/02 A2912 RMK AO2 SLP870 T00720017=
201701202353 METAR KBLI 202353Z 01006KT 10SM BKN080 08/02 A2912 RMK AO2 SLP869 T00830022 10094 20061 55002=
201701202253 METAR KBLI 202253Z 01006KT 10SM OVC110 09/03 A2912 RMK AO2 SLP868 T00890028=
201701202153 METAR KBLI 202153Z 02009KT 10SM BKN100 09/03 A2912 RMK AO2 SLP869 T00890028=
201701202053 METAR KBLI 202053Z 02010KT 10SM OVC110 09/03 A2913 RMK AO2 SLP871 T00890033 58020=
201701201953 METAR KBLI 201953Z 36010G16KT 10SM CLR 09/03 A2916 RMK AO2 SLP880 T00890033=
201701201853 METAR KBLI 201853Z 01011KT 10SM BKN110 08/03 A2918 RMK AO2 SLP888 T00780033=
201701201753 METAR KBLI 201753Z 36008KT 10SM FEW095 06/03 A2919 RMK AO2 SLP892 T00610028 10061 20017 56016=
201701201653 METAR KBLI 201653Z 01006KT 10SM CLR 03/02 A2920 RMK AO2 SLP896 T00330017=
201701201553 METAR KBLI 201553Z 01007KT 10SM CLR 02/01 A2921 RMK AO2 SLP900 T00220011=
201701201453 METAR KBLI 201453Z 02006KT 10SM CLR 02/01 A2924 RMK AO2 SLP909 T00170011 56030=
201701201353 METAR KBLI 201353Z AUTO 02007KT 10SM CLR 03/02 A2926 RMK AO2 SLP917 T00280022=
201701201253 METAR KBLI 201253Z AUTO 01008KT 10SM CLR 03/02 A2929 RMK AO2 SLP927 T00280022=
201701201153 METAR KBLI 201153Z AUTO 02008KT 10SM CLR 03/02 A2932 RMK AO2 SLP938 60000 70006 T00330022 10083 20028 58022=
201701201053 METAR KBLI 201053Z AUTO 02008KT 10SM CLR 03/03 A2935 RMK AO2 SLP947 T00330028=
201701200953 METAR KBLI 200953Z AUTO 09005KT 10SM FEW045 SCT110 06/03 A2938 RMK AO2 SLP955 T00610028=
201701200853 METAR KBLI 200853Z AUTO 12010KT 10SM BKN100 08/04 A2939 RMK AO2 RAB06E23 SLP960 P0000 60000 T00780039 58014=
201701200753 METAR KBLI 200753Z AUTO 12009KT 10SM FEW041 BKN065 OVC080 08/04 A2941 RMK AO2 RAB34E44 SLP966 P0000 T00830039 400940078=
201701200701 SPECI KBLI 200701Z AUTO 15010G17KT 10SM FEW029 OVC035 08/04 A2942 RMK AO2 T00830044=
201701200653 METAR KBLI 200653Z AUTO 15009KT 10SM BKN028 OVC035 08/04 A2942 RMK AO2 RAB23E33 SLP971 P0000 T00830044=
201701200553 METAR KBLI 200553Z 14011G18KT 10SM OVC026 08/05 A2943 RMK AO2 RAB0459E43 SLP974 P0000 60000 T00830050 10089 20078 56002=
201701200453 METAR KBLI 200453Z 15014G20KT 10SM OVC028 09/05 A2943 RMK AO2 SLP974 T00890050=
201701200353 METAR KBLI 200353Z 14015G23KT 10SM OVC022 08/05 A2943 RMK AO2 SLP974 T00830050=
201701200253 METAR KBLI 200253Z 13015KT 10SM OVC022 08/05 A2944 RMK AO2 SLP976 T00830050 58002=
201701200153 METAR KBLI 200153Z 14011KT 10SM BKN022 OVC029 08/06 A2945 RMK AO2 SLP979 T00780056=
201701200053 METAR KBLI 200053Z 14014G22KT 10SM SCT024 BKN075 OVC090 08/05 A2944 RMK AO2 SLP977 T00830050=
201701192353 METAR KBLI 192353Z 15014G21KT 10SM BKN027 OVC033 09/06 A2944 RMK AO2 SLP978 60004 T00890056 10094 20083 56001=
201701192306 SPECI KBLI 192306Z 16012G20KT 10SM BKN028 OVC036 09/06 A2944 RMK AO2 T00940056=
201701192253 METAR KBLI 192253Z 16011G19KT 10SM OVC030 09/06 A2944 RMK AO2 RAE07 SLP978 P0000 T00940056=
201701192233 SPECI KBLI 192233Z 15013G24KT 10SM FEW025 BKN033 OVC041 09/06 A2944 RMK AO2 RAE07 P0000 T00940061=
201701192153 METAR KBLI 192153Z 15014G18KT 10SM -RA SCT022 BKN027 OVC035 09/06 A2944 RMK AO2 PK WND 15026/2056 SLP978 P0003 T00890061=
201701192053 METAR KBLI 192053Z 16013G24KT 10SM -RA BKN027 OVC033 09/06 A2945 RMK AO2 PK WND 15030/2015 RAB38 SLP979 P0000 60001 T00890056 56006=
201701191953 METAR KBLI 191953Z 16021G32KT 10SM OVC027 09/05 A2945 RMK AO2 PK WND 14032/1946 SLP979 T00940050=
201701191853 METAR KBLI 191853Z 16016G25KT 10SM OVC028 09/05 A2945 RMK AO2 RAE36 SLP981 P0001 T00890050=
201701191753 METAR KBLI 191753Z 15017G22KT 10SM -RA BKN028 BKN034 OVC050 08/06 A2946 RMK AO2 PK WND 15026/1729 SLP985 P0001 60002 T00830056 10094 20083 51014=
201701191653 METAR KBLI 191653Z 16014G25KT 10SM -RA BKN028 OVC034 09/05 A2945 RMK AO2 PK WND 15029/1643 RAE1554B50 SLP980 P0000 T00890050=
201701191553 METAR KBLI 191553Z 15017G27KT 10SM -RA BKN026 BKN036 OVC075 09/05 A2944 RMK AO2 PK WND 15030/1529 RAB22 SLP978 P0001 T00890050=
201701191453 METAR KBLI 191453Z 15011G23KT 10SM OVC028 09/04 A2942 RMK AO2 RAB27E34 SLP971 P0000 60000 T00890044 51008=
201701191435 SPECI KBLI 191435Z AUTO 15016G23KT 10SM OVC028 09/04 A2942 RMK AO2 RAB27E34 P0000 T00890044=
201701191419 SPECI KBLI 191419Z AUTO 15012G19KT 10SM OVC030 09/05 A2942 RMK AO2 T00890050=
201701191353 METAR KBLI 191353Z AUTO 16011G22KT 10SM OVC028 09/05 A2942 RMK AO2 SLP969 T00890050=
201701191253 METAR KBLI 191253Z AUTO 15014G27KT 10SM BKN025 OVC100 09/05 A2941 RMK AO2 PK WND 17027/1247 SLP964 T00890050=
201701191153 METAR KBLI 191153Z AUTO 16016G23KT 10SM OVC022 09/06 A2940 RMK AO2 PK WND 16028/1134 SLP961 60023 70064 T00890056 10100 20078 51020=
201701191053 METAR KBLI 191053Z AUTO 15016G22KT 10SM OVC018 08/06 A2938 RMK AO2 PK WND 14027/1033 RAE48 SLP956 P0000 T00830061=
201701191026 SPECI KBLI 191026Z AUTO 15015G26KT 10SM -RA BKN019 BKN041 OVC049 08/06 A2938 RMK AO2 PK WND 15026/1022 P0000 T00830061=
201701190953 METAR KBLI 190953Z AUTO 15015G23KT 10SM -RA FEW015 BKN037 OVC047 08/07 A2937 RMK AO2 SLP952 P0005 T00830067=
201701190853 METAR KBLI 190853Z AUTO 15011KT 7SM -RA OVC040 08/07 A2934 RMK AO2 PK WND 15029/0811 SLP941 P0010 60018 T00780067 53038=
201701190840 SPECI KBLI 190840Z AUTO 16012G17KT 7SM -RA FEW016 FEW022 OVC040 08/07 A2933 RMK AO2 PK WND 15029/0811 PRESRR P0008 T00830067=
201701190827 SPECI KBLI 190827Z AUTO 17009G25KT 5SM -RA BR FEW009 BKN016 OVC038 08/07 A2931 RMK AO2 PK WND 15029/0811 PRESRR P0007 T00830067=
201701190816 SPECI KBLI 190816Z AUTO 16015G29KT 5SM -RA BR SCT015 BKN022 OVC033 08/07 A2929 RMK AO2 PK WND 15029/0811 P0005 T00830067=
201701190753 METAR KBLI 190753Z AUTO 15019G32KT 6SM RA BR FEW021 BKN032 OVC041 09/07 A2927 RMK AO2 PK WND 15035/0710 SLP919 P0007 T00890072 401330078=
201701190653 METAR KBLI 190653Z AUTO 15021G35KT 9SM -RA BKN036 OVC050 10/07 A2923 RMK AO2 PK WND 14037/0632 SLP904 P0001 T01000067=
201701190553 METAR KBLI 190553Z 11013G21KT 10SM -RA OVC043 09/08 A2922 RMK AO2 SLP903 P0006 60029 T00890078 10122 20078 55002=
201701190510 SPECI KBLI 190510Z VRB03KT 5SM RA BR FEW003 BKN035 OVC047 08/08 A2923 RMK AO2 P0002 T00830078=
201701190453 METAR KBLI 190453Z 00000KT 5SM -RA BR FEW028 OVC045 08/08 A2922 RMK AO2 SLP901 P0009 T00780078=
201701190437 SPECI KBLI 190437Z 00000KT 5SM -RA BR SCT028 SCT033 OVC045 08/08 A2922 RMK AO2 P0008 T00830083=
201701190429 SPECI KBLI 190429Z 01004KT 4SM RA BR BKN028 BKN036 OVC045 08/08 A2922 RMK AO2 P0007 T00830083=
201701190410 SPECI KBLI 190410Z 36005KT 4SM -RA BR FEW003 SCT041 OVC050 08/08 A2921 RMK AO2 P0003 T00780078=
201701190353 METAR KBLI 190353Z 03003KT 5SM -RA BR FEW033 FEW041 OVC050 08/08 A2921 RMK AO2 SLP900 P0004 T00780078=
201701190253 METAR KBLI 190253Z 10004KT 8SM -RA FEW027 BKN034 OVC044 10/09 A2923 RMK AO2 SLP905 P0008 60010 T01000089 58008=
201701190153 METAR KBLI 190153Z 18004KT 9SM -RA FEW040 FEW050 OVC060 10/09 A2924 RMK AO2 SLP909 P0002 T01000089=
201701190100 SPECI KBLI 190100Z 15011KT 10SM -RA FEW015 BKN065 OVC080 11/08 A2925 RMK AO2 P0000 T01110083=
201701190053 METAR KBLI 190053Z 15009KT 10SM -RA BKN027 OVC090 12/08 A2925 RMK AO2 SLP911 P0000 T01170083=
201701190002 SPECI KBLI 190002Z 15016G21KT 10SM -RA BKN027 OVC090 12/08 A2925 RMK AO2 P0000 T01220083=
201701182353 METAR KBLI 182353Z 15018G26KT 10SM -RA FEW027 FEW065 OVC090 12/09 A2925 RMK AO2 PK WND 16029/2310 RAB02E24B41 SLP913 P0000 60000 T01220089 10133 20122 56009=
201701182339 SPECI KBLI 182339Z 16015G24KT 10SM FEW027 OVC095 13/08 A2926 RMK AO2 PK WND 16029/2310 RAB02E24 P0000 T01280083=
201701182331 SPECI KBLI 182331Z 16013G25KT 10SM BKN027 BKN041 OVC095 13/08 A2926 RMK AO2 PK WND 16029/2310 RAB02E24 P0000 T01280083=
201701182253 METAR KBLI 182253Z 16011G21KT 10SM BKN033 OVC070 13/08 A2926 RMK AO2 PK WND 15031/2213 RAB44E53 SLP916 P0000 T01280083=
201701182153 METAR KBLI 182153Z 16017G30KT 10SM SCT030 OVC070 13/08 A2927 RMK AO2 PK WND 15030/2140 RAB17E32 SLP917 P0000 T01330083=
201701182139 SPECI KBLI 182139Z 15018G29KT 10SM SCT026 BKN070 OVC090 13/08 A2926 RMK AO2 PK WND 15029/2135 RAB17E32 P0000 T01330083=
201701182053 METAR KBLI 182053Z 17014G22KT 10SM OVC024 13/08 A2928 RMK AO2 PK WND 16033/2008 RAB38E53 SLP922 P0000 60000 T01280083 51014=
201701181953 METAR KBLI 181953Z 15016G24KT 10SM BKN027 OVC080 13/08 A2927 RMK AO2 PK WND 14037/1857 SLP918 T01280083=
201701181853 METAR KBLI 181853Z 14020G35KT 10SM OVC028 13/08 A2926 RMK AO2 PK WND 14035/1849 SLP915 T01280083=
201701181753 METAR KBLI 181753Z 13017G27KT 10SM SCT031 BKN041 12/09 A2924 RMK AO2 PK WND 13027/1700 RAE14 SLP908 P0001 60012 T01220089 10122 20083 58017=
201701181744 SPECI KBLI 181744Z 13021G27KT 10SM BKN029 BKN041 BKN070 12/09 A2925 RMK AO2 PK WND 13027/1700 RAE14 P0001 T01170089=
201701181653 METAR KBLI 181653Z 14019G31KT 5SM RA FEW027 SCT041 OVC055 12/09 A2926 RMK AO2 PK WND 15034/1638 RAB24 SLP916 P0005 T01170089=
201701181553 METAR KBLI 181553Z VRB06KT 10SM OVC030 09/08 A2927 RMK AO2 RAE28 SLP918 P0001 T00890078=
201701181453 METAR KBLI 181453Z 14013KT 8SM -RA FEW044 OVC060 11/09 A2929 RMK AO2 PK WND 15030/1408 SLP925 P0005 60005 T01110094 56016=
201701181444 SPECI KBLI 181444Z 14012G21KT 7SM -RA SCT023 OVC060 11/09 A2929 RMK AO2 PK WND 15030/1408 P0004 T01110094=
201701181353 METAR KBLI 181353Z AUTO 15017G23KT 10SM -RA BKN023 OVC070 12/09 A2930 RMK AO2 PK WND 14029/1302 RAE07B37 SLP928 P0000 T01170089=
201701181325 SPECI KBLI 181325Z AUTO 15015G25KT 10SM BKN023 OVC085 12/08 A2932 RMK AO2 PK WND 14029/1302 RAE07 P0000 T01220083=
201701181253 METAR KBLI 181253Z AUTO 15018G25KT 10SM -RA SCT027 BKN080 OVC090 12/08 A2932 RMK AO2 RAB27 SLP935 P0000 T01170083=
201701181222 SPECI KBLI 181222Z AUTO 15010G19KT 10SM BKN028 BKN095 OVC120 12/08 A2934 RMK AO2 T01220083=
201701181153 METAR KBLI 181153Z AUTO 14013G20KT 10SM FEW028 OVC100 12/08 A2934 RMK AO2 PK WND 14030/1107 SLP941 60001 70019 T01220083 10122 20106 56014=
201701181103 SPECI KBLI 181103Z AUTO 14021G27KT 10SM SCT025 BKN100 OVC110 12/08 A2935 RMK AO2 PK WND 15027/1102 T01220083=
201701181053 METAR KBLI 181053Z AUTO 15016KT 10SM BKN025 OVC100 12/08 A2935 RMK AO2 PK WND 15033/1001 SLP944 T01170083=
201701181007 SPECI KBLI 181007Z AUTO 15016G33KT 10SM BKN026 BKN100 12/08 A2936 RMK AO2 PK WND 15033/1001 T01170083=
201701180953 METAR KBLI 180953Z AUTO 15018G28KT 10SM SCT024 BKN100 12/08 A2936 RMK AO2 PK WND 15038/0910 SLP948 T01170083=
201701180943 SPECI KBLI 180943Z AUTO 15020G33KT 10SM SCT024 BKN110 12/08 A2936 RMK AO2 PK WND 15038/0910 T01170083=
201701180853 METAR KBLI 180853Z AUTO 15021G28KT 10SM BKN024 OVC030 12/08 A2938 RMK AO2 PK WND 15037/0819 SLP955 60001 T01170083 56006=
201701180809 SPECI KBLI 180809Z AUTO 15023G35KT 10SM BKN024 11/08 A2938 RMK AO2 PK WND 15035/0809 T01110083=
201701180753 METAR KBLI 180753Z AUTO 15022G32KT 10SM SCT022 11/08 A2939 RMK AO2 PK WND 13041/0711 RAE0658 PRESRR SLP960 P0000 T01110083 401390033=
201701180704 SPECI KBLI 180704Z AUTO 16022G39KT 10SM SCT020 SCT065 OVC085 11/08 A2938 RMK AO2 PK WND 14039/0657 RAE0658 P0000 T01110083=
201701180653 METAR KBLI 180653Z AUTO 15025G39KT 10SM -RA BKN020 BKN080 OVC090 11/08 A2937 RMK AO2 PK WND 15039/0647 PRESFR SLP953 P0001 T01060083=
201701180553 METAR KBLI 180553Z 16024G38KT 10SM -RA FEW020 SCT044 OVC070 11/08 A2940 RMK AO2 PK WND 15042/0500 SLP962 P0001 60012 T01110083 10128 20111 53007=
201701180453 METAR KBLI 180453Z 16024G35KT 10SM -RA FEW023 SCT055 OVC075 12/08 A2938 RMK AO2 PK WND 15044/0409 SLP956 P0002 T01170083=
201701180353 METAR KBLI 180353Z 15024G48KT 10SM -RA OVC080 11/08 A2936 RMK AO2 PK WND 15048/0347 SLP949 P0005 T01110083=
201701180253 METAR KBLI 180253Z 16027G47KT 10SM -RA FEW024 FEW055 OVC080 12/08 A2938 RMK AO2 PK WND 17050/0237 SLP955 P0003 60004 T01170083 56023=
201701180153 METAR KBLI 180153Z 16028G42KT 10SM -RA FEW028 OVC075 13/08 A2938 RMK AO2 PK WND 14044/0140 RAE34B53 SLP956 P0000 T01280083=
201701180053 METAR KBLI 180053Z 15017G28KT 10SM -RA OVC030 13/09 A2943 RMK AO2 PK WND 13034/0000 SLP972 P0001 T01280089=
201701172353 METAR KBLI 172353Z 15023G38KT 6SM -RA OVC030 12/09 A2945 RMK AO2 PK WND 14038/2258 RAB01 SLP979 P0005 60005 T01220089 10139 20111 56055=
201701172253 METAR KBLI 172253Z 15023G31KT 10SM BKN033 BKN100 13/07 A2949 RMK AO2 PK WND 17038/2215 SLP993 T01280067=
201701172153 METAR KBLI 172153Z 14027G38KT 10SM BKN100 12/06 A2955 RMK AO2 PK WND 14038/2152 SLP014 T01170056=
201701172053 METAR KBLI 172053Z 14019G31KT 10SM FEW040 BKN080 12/04 A2961 RMK AO2 PK WND 15040/2029 SLP034 T01220039 58006=
201701171953 METAR KBLI 171953Z 15026G43KT 10SM BKN080 BKN110 14/03 A2962 RMK AO2 PK WND 15045/1920 SLP037 T01390033=
201701171853 METAR KBLI 171853Z 16023G32KT 10SM OVC090 12/04 A2964 RMK AO2 PK WND 16041/1758 SLP044 T01220044=
201701171753 METAR KBLI 171753Z 15023G34KT 10SM BKN080 OVC100 13/04 A2963 RMK AO2 PK WND 15040/1658 SLP041 60001 T01330044 10139 20044 55014=
201701171653 METAR KBLI 171653Z 16022G32KT 10SM BKN080 OVC100 13/03 A2963 RMK AO2 PK WND 14042/1633 RAE1558B14E27 SLP040 P0001 T01330028=
201701171553 METAR KBLI 171553Z 14013G24KT 10SM -RA OVC090 13/04 A2963 RMK AO2 PK WND 14027/1537 RAB49 SLP042 P0000 T01280039=
201701171453 METAR KBLI 171453Z 14016G20KT 10SM OVC080 12/03 A2967 RMK AO2 WSHFT 1408 RAB38E47 SLP055 P0000 60000 T01170028 56046=
201701171428 SPECI KBLI 171428Z AUTO 14011G19KT 10SM OVC080 12/01 A2969 RMK AO2 WSHFT 1408 T01220011=
201701171353 METAR KBLI 171353Z AUTO 15007KT 10SM OVC080 09/02 A2973 RMK AO2 SLP075 T00940022=
201701171253 METAR KBLI 171253Z AUTO 12012G25KT 10SM OVC100 10/02 A2973 RMK AO2 SLP076 T01000017=
201701171153 METAR KBLI 171153Z AUTO 35003KT 10SM OVC070 04/04 A2981 RMK AO2 RAB1058E18 SLP102 P0000 60000 70011 T00440039 10044 20028 58009=
201701171053 METAR KBLI 171053Z AUTO 35007KT 10SM OVC080 04/04 A2983 RMK AO2 RAB14E35 SLP111 P0000 T00440039=
201701170953 METAR KBLI 170953Z AUTO 32005KT 10SM SCT090 OVC110 03/03 A2981 RMK AO2 RAE21 SLP104 P0000 T00330028=
201701170853 METAR KBLI 170853Z AUTO 35003KT 10SM -RA OVC085 03/03 A2983 RMK AO2 RAB44 SLP111 P0000 60000 T00330028 56027=
201701170753 METAR KBLI 170753Z AUTO 01005KT 10SM OVC080 03/03 A2986 RMK AO2 SLP120 T00330028 400561011=
201701170653 METAR KBLI 170653Z AUTO 34003KT 10SM SCT080 OVC100 03/03 A2987 RMK AO2 SLP123 T00280028=
201701170553 METAR KBLI 170553Z 02006KT 10SM OVC060 03/02 A2991 RMK AO2 RAE35 SLP139 P0002 60011 T00280022 10056 20028 56026=
201701170453 METAR KBLI 170453Z 36006KT 10SM -RA OVC055 03/02 A2995 RMK AO2 SLP152 P0001 T00330022=
201701170353 METAR KBLI 170353Z 01005KT 10SM -RA BKN055 BKN070 OVC085 04/02 A2995 RMK AO2 SLP150 P0005 T00390022=
201701170253 METAR KBLI 170253Z 05005KT 7SM -RA OVC060 03/01 A2999 RMK AO2 RAB01 SLP165 P0003 60003 T00330011 53006=
201701170153 METAR KBLI 170153Z 33005KT 10SM OVC070 04/M01 A2997 RMK AO2 SLP158 T00441006=
201701170053 METAR KBLI 170053Z 06005KT 10SM OVC070 04/M01 A2995 RMK AO2 SLP149 T00441006=
201701162353 METAR KBLI 162353Z 34004KT 10SM OVC075 06/M01 A2997 RMK AO2 SLP159 T00561006 10056 20028 56033=
201701162253 METAR KBLI 162253Z 29003KT 10SM OVC075 05/M01 A3000 RMK AO2 SLP168 T00501006=
201701162153 METAR KBLI 162153Z VRB03KT 10SM OVC075 06/M01 A3002 RMK AO2 PRESFR SLP173 T00561011=
201701162053 METAR KBLI 162053Z 04006KT 10SM OVC080 05/M01 A3007 RMK AO2 SLP192 T00501011 58028=
201701161953 METAR KBLI 161953Z 00000KT 10SM OVC085 05/M01 A3011 RMK AO2 SLP206 T00501011=
201701161853 METAR KBLI 161853Z 04003KT 10SM OVC090 03/M02 A3016 RMK AO2 SLP223 T00331017=
201701161753 METAR KBLI 161753Z 00000KT 10SM OVC080 03/M01 A3015 RMK AO2 SLP221 T00281011 10028 21011 58013=
201701161653 METAR KBLI 161653Z 00000KT 10SM OVC085 01/M02 A3017 RMK AO2 SLP227 T00111022=
201701161553 METAR KBLI 161553Z 36003KT 10SM OVC090 01/M02 A3018 RMK AO2 SLP232 T00111022=
201701161453 METAR KBLI 161453Z 00000KT 10SM OVC090 01/M02 A3019 RMK AO2 SLP234 T00061022 58011=
201701161353 METAR KBLI 161353Z AUTO 00000KT 10SM OVC095 01/M03 A3021 RMK AO2 SLP240 T00061028=
201701161253 METAR KBLI 161253Z AUTO 30003KT 10SM BKN095 M01/M03 A3023 RMK AO2 SLP247 T10061033=
201701161153 METAR KBLI 161153Z AUTO 00000KT 10SM SCT110 00/M03 A3022 RMK AO2 SLP244 T00001033 10006 21017 58012=
201701161053 METAR KBLI 161053Z AUTO 33003KT 10SM OVC100 00/M03 A3027 RMK AO2 SLP259 T00001033=
201701160953 METAR KBLI 160953Z AUTO 00000KT 10SM OVC100 01/M03 A3024 RMK AO2 SLP248 T00061033=
201701160853 METAR KBLI 160853Z AUTO 03003KT 10SM OVC110 00/M03 A3026 RMK AO2 SLP256 T00001033 58014=
201701160753 METAR KBLI 160753Z AUTO 34004KT 10SM OVC120 M01/M04 A3028 RMK AO2 SLP264 T10061039 400611050=
201701160653 METAR KBLI 160653Z AUTO 01006KT 10SM CLR M01/M04 A3029 RMK AO2 SLP267 T10061039=
201701160553 METAR KBLI 160553Z 02005KT 10SM CLR M01/M04 A3030 RMK AO2 SLP271 T10111044 10044 21017 51005=
201701160453 METAR KBLI 160453Z 36004KT 10SM CLR M01/M04 A3029 RMK AO2 SLP267 T10111044=
201701160353 METAR KBLI 160353Z 35004KT 10SM CLR M01/M04 A3030 RMK AO2 SLP272 T10061039=
201701160253 METAR KBLI 160253Z 36003KT 10SM CLR M01/M04 A3029 RMK AO2 SLP266 T10061039 58003=
201701160153 METAR KBLI 160153Z 01003KT 10SM CLR M01/M04 A3029 RMK AO2 SLP267 T10061039=
201701160053 METAR KBLI 160053Z 00000KT 10SM CLR M01/M04 A3029 RMK AO2 SLP269 T10061039=
201701152353 METAR KBLI 152353Z 03003KT 10SM CLR 03/M03 A3030 RMK AO2 SLP270 T00331033 10061 21006 53006=
201701152253 METAR KBLI 152253Z 00000KT 10SM CLR 06/M03 A3029 RMK AO2 SLP266 T00561033=
201701152153 METAR KBLI 152153Z 00000KT 10SM CLR 06/M03 A3028 RMK AO2 SLP262 T00561028=
201701152053 METAR KBLI 152053Z 00000KT 10SM CLR 04/M03 A3028 RMK AO2 SLP263 T00441033 58013=
201701151953 METAR KBLI 151953Z 00000KT 10SM SCT075 03/M03 A3030 RMK AO2 SLP271 T00331033=
201701151853 METAR KBLI 151853Z 04005KT 10SM FEW075 02/M04 A3031 RMK AO2 SLP274 T00171039=
201701151753 METAR KBLI 151753Z 01004KT 10SM OVC070 M01/M04 A3031 RMK AO2 SLP276 T10061044 11006 21050 53006=
201701151653 METAR KBLI 151653Z 00000KT 10SM BKN070 M02/M04 A3029 RMK AO2 SLP268 T10171044=
201701151553 METAR KBLI 151553Z 34003KT 10SM BKN080 M04/M06 A3028 RMK AO2 SLP267 T10391056=
201701151453 METAR KBLI 151453Z 00000KT 10SM OVC090 M04/M06 A3030 RMK AO2 SLP271 T10391056 50003=
201701151353 METAR KBLI 151353Z AUTO 02003KT 10SM CLR M04/M06 A3031 RMK AO2 SLP274 T10391061=
201701151253 METAR KBLI 151253Z AUTO 00000KT 10SM FEW110 M04/M06 A3030 RMK AO2 SLP270 T10391061=
201701151153 METAR KBLI 151153Z AUTO 09008KT 10SM OVC090 M02/M06 A3029 RMK AO2 PRESFR SLP267 T10171056 11011 21028 58001=
201701151053 METAR KBLI 151053Z AUTO 28004KT 10SM BKN110 M02/M06 A3031 RMK AO2 SLP275 T10221061=
201701150953 METAR KBLI 150953Z AUTO 35006KT 10SM SCT110 M02/M06 A3031 RMK AO2 SLP273 T10221061=
201701150853 METAR KBLI 150853Z AUTO 02004KT 10SM FEW120 M02/M06 A3029 RMK AO2 SLP268 T10221061 52004=
201701150753 METAR KBLI 150753Z AUTO 35005KT 10SM CLR M03/M07 A3029 RMK AO2 SLP267 T10281067 400391067=
201701150653 METAR KBLI 150653Z AUTO 33006KT 10SM CLR M02/M07 A3028 RMK AO2 SLP265 T10221067=
201701150553 METAR KBLI 150553Z 00000KT 10SM CLR M02/M07 A3028 RMK AO2 SLP264 T10171067 10011 21028 58006=
201701150453 METAR KBLI 150453Z 02004KT 10SM CLR M03/M07 A3030 RMK AO2 SLP271 T10281067=
201701150353 METAR KBLI 150353Z 01003KT 10SM CLR M02/M07 A3030 RMK AO2 SLP271 T10221072=
201701150253 METAR KBLI 150253Z 01004KT 10SM CLR M02/M07 A3030 RMK AO2 SLP271 T10171067 55006=
201701150153 METAR KBLI 150153Z 00000KT 10SM CLR M01/M07 A3029 RMK AO2 SLP267 T10111067=
201701150053 METAR KBLI 150053Z 04003KT 10SM CLR M01/M07 A3030 RMK AO2 SLP271 T10061067=
201701142353 METAR KBLI 142353Z 36004KT 10SM CLR 01/M07 A3032 RMK AO2 SLP276 T00111067 10039 21028 56012=
201701142253 METAR KBLI 142253Z 02006KT 10SM CLR 03/M07 A3032 RMK AO2 SLP278 T00281067=
201701142153 METAR KBLI 142153Z 02008KT 10SM CLR 04/M06 A3033 RMK AO2 SLP281 T00391061=
201701142053 METAR KBLI 142053Z 03009KT 10SM CLR 03/M07 A3035 RMK AO2 SLP288 T00281067 58021=
201701141953 METAR KBLI 141953Z 02009KT 10SM CLR 02/M07 A3037 RMK AO2 SLP294 T00171067=
201701141853 METAR KBLI 141853Z 02008KT 10SM CLR M01/M07 A3040 RMK AO2 SLP304 T10061067=
201701141753 METAR KBLI 141753Z 02004KT 10SM CLR M03/M07 A3041 RMK AO2 SLP311 T10281072 11028 21067 55005=
201701141653 METAR KBLI 141653Z 01005KT 10SM CLR M05/M08 A3041 RMK AO2 SLP310 T10501083=
201701141553 METAR KBLI 141553Z 01005KT 10SM CLR M06/M09 A3041 RMK AO2 SLP311 T10611089=
201701141453 METAR KBLI 141453Z 02004KT 10SM CLR M06/M09 A3043 RMK AO2 SLP316 T10611089 58005=
201701141353 METAR KBLI 141353Z AUTO 01006KT 10SM CLR M07/M09 A3044 RMK AO2 SLP318 T10671089=
201701141253 METAR KBLI 141253Z AUTO 36004KT 10SM CLR M06/M08 A3044 RMK AO2 SLP320 T10611083=
201701141153 METAR KBLI 141153Z AUTO 36004KT 10SM CLR M05/M08 A3044 RMK AO2 SLP321 T10501083 11028 21050 58003=
201701141053 METAR KBLI 141053Z AUTO 02006KT 10SM CLR M05/M08 A3044 RMK AO2 SLP320 T10501083=
201701140953 METAR KBLI 140953Z AUTO 04007KT 10SM CLR M04/M08 A3046 RMK AO2 SLP325 T10391078=
201701140853 METAR KBLI 140853Z AUTO 36004KT 10SM CLR M04/M08 A3045 RMK AO2 SLP323 T10391078 53001=
201701140753 METAR KBLI 140753Z AUTO 36005KT 10SM CLR M04/M08 A3044 RMK AO2 SLP319 T10391078 400061078=
201701140653 METAR KBLI 140653Z AUTO 01006KT 10SM CLR M03/M08 A3045 RMK AO2 SLP324 T10331078=
201701140553 METAR KBLI 140553Z 36006KT 10SM CLR M03/M08 A3045 RMK AO2 SLP323 T10281083 11011 21033 55001=
201701140453 METAR KBLI 140453Z 36006KT 10SM CLR M03/M08 A3045 RMK AO2 SLP322 T10281083=
201701140353 METAR KBLI 140353Z 03007KT 10SM CLR M02/M08 A3045 RMK AO2 SLP324 T10221078=
201701140253 METAR KBLI 140253Z 01007KT 10SM CLR M02/M08 A3046 RMK AO2 SLP325 T10221078 55001=
201701140153 METAR KBLI 140153Z 01009KT 10SM CLR M02/M08 A3045 RMK AO2 SLP323 T10171083=
201701140053 METAR KBLI 140053Z 01005KT 10SM CLR M02/M08 A3045 RMK AO2 SLP323 T10171078=
201701132353 METAR KBLI 132353Z 03008KT 10SM CLR M01/M08 A3046 RMK AO2 SLP326 T10111078 10006 21050 53006=
201701132253 METAR KBLI 132253Z 01005KT 10SM CLR M01/M07 A3045 RMK AO2 SLP324 T10061072=
201701132153 METAR KBLI 132153Z 01008KT 10SM CLR 00/M07 A3044 RMK AO2 SLP318 T00001072=
201701132053 METAR KBLI 132053Z 02009KT 10SM CLR 00/M08 A3044 RMK AO2 SLP320 T00001078 58009=
201701131953 METAR KBLI 131953Z 01005KT 10SM CLR M01/M07 A3046 RMK AO2 SLP326 T10111072=
201701131853 METAR KBLI 131853Z 03005KT 10SM CLR M03/M07 A3047 RMK AO2 SLP330 T10281072=
201701131753 METAR KBLI 131753Z 01005KT 10SM CLR M05/M08 A3047 RMK AO2 SLP329 T10501083 11050 21078 53015=
201701131653 METAR KBLI 131653Z 02005KT 10SM CLR M06/M09 A3045 RMK AO2 SLP322 T10611094=
201701131553 METAR KBLI 131553Z 36003KT 10SM CLR M07/M10 A3044 RMK AO2 SLP321 T10721100=
201701131453 METAR KBLI 131453Z 36003KT 10SM CLR M08/M10 A3042 RMK AO2 SLP314 T10781100 51003=
201701131353 METAR KBLI 131353Z AUTO 36004KT 10SM CLR M07/M10 A3042 RMK AO2 SLP313 T10721100=
201701131253 METAR KBLI 131253Z AUTO 36004KT 10SM CLR M08/M10 A3042 RMK AO2 SLP312 T10781100=
201701131153 METAR KBLI 131153Z AUTO 01004KT 10SM CLR M07/M10 A3041 RMK AO2 SLP311 T10721100 11067 21078 53014=
201701131053 METAR KBLI 131053Z AUTO 01003KT 10SM CLR M07/M10 A3040 RMK AO2 SLP307 T10721100=
201701130953 METAR KBLI 130953Z AUTO 00000KT 10SM CLR M08/M11 A3038 RMK AO2 SLP298 T10781106=
201701130853 METAR KBLI 130853Z AUTO 36006KT 10SM CLR M07/M11 A3037 RMK AO2 SLP297 T10721106 50005=
201701130753 METAR KBLI 130753Z AUTO 04004KT 10SM CLR M07/M11 A3037 RMK AO2 SLP297 T10721106 400111094=
201701130653 METAR KBLI 130653Z AUTO 36004KT 10SM CLR M07/M11 A3037 RMK AO2 SLP296 T10671106=
201701130553 METAR KBLI 130553Z 36004KT 10SM CLR M07/M11 A3036 RMK AO2 SLP291 T10671106 11011 21072 51016=
201701130500 METAR KBLI NIL=
201701130400 METAR KBLI NIL=
201701130353 METAR KBLI 130353Z 01004KT 10SM CLR M06/M11 A3033 RMK AO2 SLP284 T10611106=
201701130253 METAR KBLI 130253Z 36003KT 10SM CLR M05/M11 A3031 RMK AO2 SLP276 T10501106 51008=
201701130153 METAR KBLI 130153Z 35004KT 10SM CLR M04/M10 A3030 RMK AO2 SLP272 T10441100=
201701130053 METAR KBLI 130053Z 01004KT 10SM CLR M03/M09 A3030 RMK AO2 SLP271 T10331094=
201701122353 METAR KBLI 122353Z 01005KT 10SM CLR M01/M09 A3028 RMK AO2 SLP267 T10111094 10011 21050 53008=
201701122253 METAR KBLI 122253Z 03008KT 10SM CLR 00/M09 A3026 RMK AO2 SLP258 T00001094=
201701122153 METAR KBLI 122153Z 36005KT 10SM CLR 01/M09 A3025 RMK AO2 SLP255 T00111094=
201701122053 METAR KBLI 122053Z 36006KT 10SM CLR 00/M10 A3026 RMK AO2 SLP258 T00001100 50002=
201701121953 METAR KBLI 121953Z 02004KT 10SM CLR M01/M09 A3027 RMK AO2 SLP262 T10111094=
201701121853 METAR KBLI 121853Z 01006KT 10SM CLR M03/M09 A3027 RMK AO2 SLP262 T10281089=
201701121753 METAR KBLI 121753Z 01004KT 10SM CLR M05/M09 A3025 RMK AO2 SLP257 T10501089 11050 21094 51020=
201701121653 METAR KBLI 121653Z 01004KT 10SM CLR M07/M11 A3025 RMK AO2 SLP254 T10721111=
201701121553 METAR KBLI 121553Z 35005KT 10SM CLR M09/M12 A3021 RMK AO2 SLP243 T10941122=
201701121453 METAR KBLI 121453Z 36003KT 10SM CLR M09/M12 A3020 RMK AO2 SLP237 T10891122 53013=
201701121353 METAR KBLI 121353Z AUTO 35004KT 10SM CLR M08/M11 A3017 RMK AO2 SLP228 T10831111=
201701121253 METAR KBLI 121253Z AUTO 34004KT 10SM CLR M09/M12 A3017 RMK AO2 SLP227 T10941117=
201701121153 METAR KBLI 121153Z AUTO 00000KT 10SM CLR M07/M11 A3016 RMK AO2 SLP223 T10721106 11050 21083 51018=
201701121053 METAR KBLI 121053Z AUTO 00000KT 10SM CLR M08/M12 A3015 RMK AO2 SLP222 T10781122=
201701120953 METAR KBLI 120953Z AUTO 02003KT 10SM CLR M07/M12 A3012 RMK AO2 SLP211 T10671122=
201701120853 METAR KBLI 120853Z AUTO 01003KT 10SM CLR M07/M12 A3010 RMK AO2 SLP205 T10671122 53017=
201701120753 METAR KBLI 120753Z AUTO 36003KT 10SM CLR M07/M12 A3008 RMK AO2 SLP196 T10671122 400171072=
201701120653 METAR KBLI 120653Z AUTO 36007KT 10SM CLR M06/M12 A3007 RMK AO2 SLP193 T10611122=
201701120553 METAR KBLI 120553Z 36005KT 10SM CLR M06/M12 A3005 RMK AO2 SLP188 T10561122 10000 21056 53020=
201701120453 METAR KBLI 120453Z 01007KT 10SM CLR M05/M12 A3003 RMK AO2 SLP182 T10501117=
201701120353 METAR KBLI 120353Z 35004KT 10SM CLR M04/M12 A3001 RMK AO2 SLP172 T10441122=
201701120253 METAR KBLI 120253Z 01006KT 10SM CLR M04/M12 A2999 RMK AO2 SLP168 T10391122 51023=
201701120153 METAR KBLI 120153Z 01006KT 10SM CLR M03/M13 A2997 RMK AO2 SLP161 T10331128=
201701120053 METAR KBLI 120053Z 01007KT 10SM CLR M02/M13 A2995 RMK AO2 SLP152 T10221133=
201701112353 METAR KBLI 112353Z 02008KT 10SM CLR 00/M13 A2993 RMK AO2 SLP144 T00001133 10017 21022 53019=
201701112253 METAR KBLI 112253Z 02010KT 10SM CLR 01/M14 A2990 RMK AO2 SLP134 T00111144=
201701112153 METAR KBLI 112153Z 01010KT 10SM CLR 01/M15 A2988 RMK AO2 SLP127 T00111150=
201701112053 METAR KBLI 112053Z 03014KT 10SM CLR 01/M17 A2987 RMK AO2 SLP124 T00061167 51010=
201701111953 METAR KBLI 111953Z 03015G23KT 10SM CLR 00/M17 A2986 RMK AO2 SLP123 T00001172=
201701111853 METAR KBLI 111853Z 04015G24KT 10SM CLR M01/M17 A2986 RMK AO2 PK WND 04027/1809 SLP121 T10111172=
201701111753 METAR KBLI 111753Z 04014G22KT 10SM CLR M02/M17 A2984 RMK AO2 SLP115 T10221172 11022 21039 53034=
201701111653 METAR KBLI 111653Z 04012KT 10SM CLR M03/M18 A2980 RMK AO2 SLP102 T10331178=
201701111553 METAR KBLI 111553Z 03012G24KT 10SM CLR M04/M18 A2977 RMK AO2 PK WND 02028/1454 SLP091 T10391183=
201701111453 METAR KBLI 111453Z 03018G28KT 10SM CLR M04/M18 A2974 RMK AO2 PK WND 02039/1428 SLP080 T10391183 53015 $=
201701111353 METAR KBLI 111353Z AUTO 02021G36KT 10SM CLR M04/M19 A2972 RMK AO2 PK WND 03041/1321 SLP074 T10391189 $=
201701111253 METAR KBLI 111253Z AUTO 02026G35KT 10SM CLR M04/M19 A2970 RMK AO2 PK WND 03040/1227 SLP069 T10391194 $=
201701111153 METAR KBLI 111153Z AUTO 02027G40KT 10SM CLR M04/M19 A2969 RMK AO2 PK WND 03044/1130 SLP065 T10391189 11039 21044 53012 $=
201701111053 METAR KBLI 111053Z AUTO 03023G40KT 10SM CLR M04/M19 A2967 RMK AO2 PK WND 03043/0954 SLP059 T10441189 $=
201701110953 METAR KBLI 110953Z AUTO 03027G42KT 10SM CLR M04/M19 A2966 RMK AO2 PK WND 02043/0932 SLP052 T10441194 $=
201701110853 METAR KBLI 110853Z AUTO 02028G45KT 10SM CLR M04/M19 A2966 RMK AO2 PK WND 04045/0846 SLP053 T10441189 56008 $=
201701110753 METAR KBLI 110753Z AUTO 02024G43KT 10SM CLR M04/M19 A2966 RMK AO2 PK WND 02043/0748 SLP053 T10441189 400061044 $=
201701110653 METAR KBLI 110653Z AUTO 02025G45KT 10SM CLR M04/M18 A2967 RMK AO2 PK WND 03045/0648 SLP056 T10391183 $=
201701110553 METAR KBLI 110553Z 02025G42KT 10SM CLR M04/M18 A2968 RMK AO2 PK WND 02042/0505 SLP061 T10391178 11011 21044 50002 $=
201701110453 METAR KBLI 110453Z 02023G41KT 10SM CLR M04/M18 A2968 RMK AO2 PK WND 02048/0420 SLP063 T10391178 $=
201701110353 METAR KBLI 110353Z 02026G41KT 10SM CLR M03/M18 A2968 RMK AO2 PK WND 03046/0336 SLP061 T10331178 $=
201701110253 METAR KBLI 110253Z 02025G43KT 10SM CLR M03/M18 A2967 RMK AO2 PK WND 02047/0241 SLP059 T10281178 52002 $=
201701110153 METAR KBLI 110153Z 02028G42KT 10SM CLR M02/M17 A2967 RMK AO2 PK WND 03044/0123 SLP055 T10221167 $=
201701110053 METAR KBLI 110053Z 02025G42KT 10SM CLR M02/M16 A2968 RMK AO2 PK WND 02043/2354 SLP060 T10221156 $=
201701102353 METAR KBLI 102353Z 02020G39KT 10SM CLR M01/M16 A2967 RMK AO2 PK WND 02049/2308 SLP056 T10111156 11006 21011 55003 $=
201701102253 METAR KBLI 102253Z 03025G45KT 10SM CLR M01/M15 A2966 RMK AO2 PK WND 03047/2208 SLP055 T10061150 $=
201701102153 METAR KBLI 102153Z 01030G46KT 10SM CLR M01/M15 A2967 RMK AO2 PK WND 01046/2152 SLP059 T10061150 $=
201701102053 METAR KBLI 102053Z 01032G46KT 10SM CLR M01/M14 A2968 RMK AO2 PK WND 02046/2045 SLP059 T10061139 58011 $=
201701101953 METAR KBLI 101953Z 02032G44KT 10SM CLR M01/M13 A2969 RMK AO2 PK WND 03047/1942 SLP064 T10061133 $=
201701101853 METAR KBLI 101853Z 02022G38KT 10SM CLR M01/M12 A2971 RMK AO2 PK WND 03048/1832 SLP071 T10061122 $=
201701101753 METAR KBLI 101753Z 02027G38KT 10SM CLR M01/M12 A2971 RMK AO2 PK WND 03042/1726 SLP070 T10111122 10000 21017 51013 $=
201701101653 METAR KBLI 101653Z 02019G33KT 10SM FEW055 M02/M12 A2970 RMK AO2 PK WND 03034/1637 SLP068 T10171117 $=
201701101553 METAR KBLI 101553Z 03019G33KT 10SM OVC055 M01/M12 A2968 RMK AO2 PK WND 03037/1517 SLP061 T10111117=
201701101453 METAR KBLI 101453Z 02020G30KT 10SM OVC055 M01/M10 A2967 RMK AO2 PK WND 03033/1418 SLP057 T10111100 53002=
201701101353 METAR KBLI 101353Z AUTO 02018G29KT 10SM OVC055 M01/M09 A2966 RMK AO2 PK WND 04029/1351 SLP055 T10061094=
201701101253 METAR KBLI 101253Z AUTO 02016G25KT 10SM OVC055 M01/M08 A2967 RMK AO2 PK WND 02026/1226 SLP055 T10061083=
201701101153 METAR KBLI 101153Z AUTO 02018G24KT 10SM OVC055 00/M08 A2967 RMK AO2 PK WND 02026/1100 SLP055 70001 T00001083 10006 21011 58006=
201701101053 METAR KBLI 101053Z AUTO 02014G22KT 10SM BKN045 OVC055 00/M07 A2969 RMK AO2 SLP063 T00001072=
201701100953 METAR KBLI 100953Z AUTO 02013KT 10SM OVC041 01/M06 A2968 RMK AO2 SLP059 T00061056=
201701100853 METAR KBLI 100853Z AUTO 02011KT 10SM OVC045 01/M04 A2968 RMK AO2 SLP060 T00061044 58005=
201701100753 METAR KBLI 100753Z AUTO 02010KT 10SM OVC031 01/M03 A2969 RMK AO2 SLP064 T00061028 400671017=
201701100718 SPECI KBLI 100718Z AUTO 03008KT 10SM BKN029 BKN034 OVC045 00/M02 A2970 RMK AO2 T00001022=
201701100653 METAR KBLI 100653Z AUTO 03006KT 10SM BKN045 M01/M02 A2970 RMK AO2 SLP066 T10111022=
201701100553 METAR KBLI 100553Z 36005KT 10SM SCT031 OVC042 M01/M02 A2970 RMK AO2 SLP065 T10061017 10056 21017 51006=
201701100453 METAR KBLI 100453Z 01004KT 10SM SCT039 M01/M02 A2970 RMK AO2 SLP066 T10111017=
201701100353 METAR KBLI 100353Z 35006KT 10SM FEW034 01/M01 A2969 RMK AO2 SLP063 T00061006=
201701100253 METAR KBLI 100253Z 13008KT 10SM CLR 03/01 A2968 RMK AO2 SLP059 T00330006 51003=
201701100153 METAR KBLI 100153Z 14006KT 10SM CLR 03/01 A2967 RMK AO2 SLP057 T00280006=
201701100053 METAR KBLI 100053Z 15009KT 10SM CLR 04/02 A2968 RMK AO2 SLP058 T00440017=
201701092353 METAR KBLI 092353Z 16011KT 10SM SCT028 06/02 A2967 RMK AO2 SLP056 T00560022 10067 20039 53016=
201701092307 SPECI KBLI 092307Z 16008KT 10SM SCT028 06/03 A2966 RMK AO2 T00560028=
201701092300 SPECI KBLI 092300Z 16007KT 10SM BKN028 06/03 A2966 RMK AO2 T00560028=
201701092253 METAR KBLI 092253Z 17008KT 10SM SCT027 06/03 A2965 RMK AO2 SLP050 T00560028=
201701092153 METAR KBLI 092153Z 17011G18KT 10SM SCT025 06/02 A2964 RMK AO2 SLP043 T00610022=
201701092053 METAR KBLI 092053Z 15009KT 10SM CLR 06/02 A2962 RMK AO2 SLP039 T00610022 55001=
201701091953 METAR KBLI 091953Z 16008KT 10SM CLR 06/02 A2962 RMK AO2 SLP038 T00610022=
201701091853 METAR KBLI 091853Z 16006KT 10SM FEW012 SCT055 05/02 A2962 RMK AO2 SLP041 T00500022=
201701091755 SPECI KBLI 091755Z 15004KT 10SM FEW012 SCT055 04/02 A2962 RMK AO2 T00390022=
201701091753 METAR KBLI 091753Z 15003KT 10SM FEW100 03/02 A2962 RMK AO2 SLP041 60001 T00330022 10056 20022 53015=
201701091653 METAR KBLI 091653Z 16005KT 10SM SCT055 BKN070 03/02 A2961 RMK AO2 SLP036 T00280017=
201701091553 METAR KBLI 091553Z 17006KT 10SM FEW024 04/02 A2958 RMK AO2 SLP025 T00390022=
201701091453 METAR KBLI 091453Z 18005KT 10SM FEW026 SCT038 BKN080 05/02 A2958 RMK AO2 SLP026 60001 T00500017 53010=
201701091353 METAR KBLI 091353Z AUTO 16012KT 10SM FEW026 SCT090 05/02 A2955 RMK AO2 SLP014 T00500022=
201701091340 SPECI KBLI 091340Z AUTO 16009KT 10SM FEW022 SCT070 05/02 A2955 RMK AO2 T00500022=
201701091328 SPECI KBLI 091328Z AUTO 16010KT 10SM SCT022 BKN028 BKN070 04/02 A2955 RMK AO2 T00440022=
201701091253 METAR KBLI 091253Z AUTO 17009KT 10SM FEW023 FEW042 BKN100 04/03 A2954 RMK AO2 RAE12 SLP011 P0001 T00440028=
201701091214 SPECI KBLI 091214Z AUTO 17005KT 10SM SCT019 BKN041 OVC065 04/03 A2955 RMK AO2 RAE12 P0001 T00390028=
201701091153 METAR KBLI 091153Z AUTO 19008G17KT 160V240 5SM RA BR OVC017 04/03 A2955 RMK AO2 PK WND 17028/1057 SLP016 P0013 60032 70052 T00390033 10067 20011 53023=
201701091053 METAR KBLI 091053Z AUTO 16015G26KT 4SM -RA BR BKN017 BKN022 OVC028 06/04 A2948 RMK AO2 PK WND 15032/1015 SLP993 P0015 T00610044=
201701090953 METAR KBLI 090953Z AUTO 16012G24KT 5SM RA BR OVC017 07/04 A2947 RMK AO2 RAB09 SLP988 P0003 T00670044=
201701090853 METAR KBLI 090853Z AUTO 15007KT 10SM OVC017 06/04 A2948 RMK AO2 RAB0755E06UPB06E14 SLP993 P0000 60001 T00560044 51007=
201701090821 SPECI KBLI 090821Z AUTO 32004KT 10SM OVC015 01/01 A2948 RMK AO2 RAB0755E06UPB06E14 P0000 T00110006=
201701090753 METAR KBLI 090753Z AUTO 34006KT 10SM OVC013 01/01 A2948 RMK AO2 RAB07E22UPB11E12 SLP992 P0000 T00110006 400560011=
201701090653 METAR KBLI 090653Z AUTO 34004KT 10SM OVC022 01/01 A2947 RMK AO2 RAB19E36 SLP988 P0001 T00110011=
201701090553 METAR KBLI 090553Z 35006KT 10SM OVC026 02/01 A2946 RMK AO2 SLP986 60011 T00170011 10028 20017 53007=
201701090453 METAR KBLI 090453Z 02007KT 10SM OVC029 02/01 A2945 RMK AO2 RAE52 SLP981 P0001 T00170011=
201701090353 METAR KBLI 090353Z 03007KT 10SM -RA OVC030 02/02 A2944 RMK AO2 SLP978 P0003 T00220017=
201701090322 SPECI KBLI 090322Z 03009KT 10SM -RA FEW021 OVC030 02/02 A2944 RMK AO2 P0002 T00220017=
201701090253 METAR KBLI 090253Z 04006KT 6SM -RA BR FEW012 BKN025 OVC032 02/02 A2944 RMK AO2 SLP978 P0003 60007 T00220017 53001=
201701090234 SPECI KBLI 090234Z 03006KT 10SM -RA FEW014 BKN027 OVC034 02/02 A2944 RMK AO2 P0002 T00220017=
201701090153 METAR KBLI 090153Z 02006KT 7SM -RA SCT021 BKN030 OVC034 03/01 A2944 RMK AO2 SLP978 P0002 T00280011=
201701090053 METAR KBLI 090053Z 03006G15KT 10SM -RA OVC040 03/01 A2943 RMK AO2 SLP976 P0002 T00280006=
201701082353 METAR KBLI 082353Z 02009G15KT 7SM -RA OVC042 03/01 A2944 RMK AO2 SLP977 P0002 60009 T00280006 10056 20028 56040=
201701082253 METAR KBLI 082253Z 03011KT 10SM -RA OVC042 03/00 A2945 RMK AO2 SLP982 P0005 T00280000=
201701082153 METAR KBLI 082153Z 03010KT 10SM -RA OVC050 03/M02 A2949 RMK AO2 SLP995 P0002 T00331017=
201701082053 METAR KBLI 082053Z 04006KT 10SM -RA OVC060 05/M04 A2956 RMK AO2 RAB28 SLP018 P0000 60000 T00501039 58040=
201701081953 METAR KBLI 081953Z 06011KT 10SM BKN070 OVC085 06/M06 A2960 RMK AO2 SLP033 T00561061=
201701081853 METAR KBLI 081853Z 03015G20KT 10SM BKN075 OVC090 06/M07 A2964 RMK AO2 SLP046 T00561067=
201701081753 METAR KBLI 081753Z 03018G27KT 10SM SCT090 05/M07 A2968 RMK AO2 PK WND 02029/1735 SLP058 T00501072 10050 20028 56045=
201701081653 METAR KBLI 081653Z 03016G25KT 10SM BKN075 04/M07 A2972 RMK AO2 PK WND 03026/1626 SLP072 T00391072=
201701081553 METAR KBLI 081553Z 03015G22KT 10SM SCT049 OVC085 04/M08 A2975 RMK AO2 SLP082 T00391078=
201701081453 METAR KBLI 081453Z 02016G24KT 10SM FEW043 SCT065 OVC075 04/M08 A2981 RMK AO2 SLP104 T00391083 56040=
201701081353 METAR KBLI 081353Z AUTO 03014G21KT 10SM BKN045 OVC110 03/M08 A2985 RMK AO2 SLP117 T00331083=
201701081253 METAR KBLI 081253Z AUTO 02013G19KT 10SM FEW042 SCT075 BKN120 03/M09 A2989 RMK AO2 SLP130 T00281089=
201701081153 METAR KBLI 081153Z AUTO 02014G20KT 10SM SCT044 OVC075 03/M09 A2993 RMK AO2 SLP144 T00281089 10028 21022 58013=
201701081053 METAR KBLI 081053Z AUTO 02012G19KT 10SM SCT046 OVC085 03/M09 A2995 RMK AO2 SLP151 T00281094=
201701080953 METAR KBLI 080953Z AUTO 02013G20KT 10SM BKN065 OVC080 03/M09 A2996 RMK AO2 SLP154 T00281094=
201701080853 METAR KBLI 080853Z AUTO 02009KT 10SM FEW046 OVC070 02/M09 A2997 RMK AO2 SLP157 T00221089 50004=
201701080753 METAR KBLI 080753Z AUTO 01007KT 10SM OVC070 01/M07 A2997 RMK AO2 SLP158 T00111072 400391078=
201701080653 METAR KBLI 080653Z AUTO 00000KT 10SM OVC090 M02/M06 A2997 RMK AO2 SLP159 T10171061=
201701080553 METAR KBLI 080553Z AUTO 24003KT 10SM CLR M01/M06 A2996 RMK AO2 SLP154 T10111061 10033 21017 53032=
201701080453 METAR KBLI 080453Z 03005KT 10SM FEW039 BKN049 BKN070 01/M07 A2992 RMK AO2 SLP142 T00061067=
201701080353 METAR KBLI 080353Z 00000KT 10SM OVC085 01/M07 A2990 RMK AO2 SLP134 T00111072=
201701080253 METAR KBLI 080253Z 00000KT 10SM OVC085 02/M07 A2986 RMK AO2 SLP123 T00171072 53029=
201701080153 METAR KBLI 080153Z 00000KT 10SM OVC070 02/M10 A2983 RMK AO2 SLP111 T00221100=
201701080053 METAR KBLI 080053Z 04010KT 10SM OVC070 03/M11 A2979 RMK AO2 SLP097 T00331111=
201701072353 METAR KBLI 072353Z 02011KT 10SM OVC075 03/M12 A2977 RMK AO2 SLP092 T00331117 10039 21011 56011=
201701072253 METAR KBLI 072253Z 04011G19KT 10SM OVC080 04/M12 A2978 RMK AO2 SLP095 T00391117=
201701072153 METAR KBLI 072153Z 03011G17KT 10SM OVC095 04/M12 A2980 RMK AO2 SLP100 T00391117=
201701072053 METAR KBLI 072053Z 03014G19KT 10SM OVC090 03/M11 A2981 RMK AO2 SLP103 T00281106 58031=
201701071953 METAR KBLI 071953Z 00000KT 10SM OVC100 02/M05 A2984 RMK AO2 SLP114 T00171050=
201701071853 METAR KBLI 071853Z 06003KT 10SM SCT100 M01/M04 A2987 RMK AO2 SLP126 T10061039=
201701071753 METAR KBLI 071753Z 04003KT 10SM CLR M01/M04 A2990 RMK AO2 SLP134 I6000 T10111044 11011 21078 56012=
201701071653 METAR KBLI 071653Z 00000KT 10SM CLR M07/M08 A2990 RMK AO2 SLP137 T10671083=
201701071553 METAR KBLI 071553Z 00000KT 10SM CLR M07/M09 A2991 RMK AO2 SLP140 T10721089=
201701071453 METAR KBLI 071453Z 00000KT 10SM CLR M07/M08 A2993 RMK AO2 SLP148 I1000 I3000 T10721083 56014=
201701071353 METAR KBLI 071353Z AUTO 00000KT 10SM CLR M07/M08 A2995 RMK AO2 SLP152 T10721083=
201701071253 METAR KBLI 071253Z AUTO 00000KT 10SM CLR M07/M08 A2995 RMK AO2 SLP155 T10671078=
201701071153 METAR KBLI 071153Z AUTO 00000KT 10SM CLR M06/M08 A2997 RMK AO2 SLP160 T10561078 11011 21061 58003=
201701071053 METAR KBLI 071053Z AUTO 00000KT 10SM CLR M06/M08 A2999 RMK AO2 SLP167 T10561078=
201701070953 METAR KBLI 070953Z AUTO 00000KT 10SM CLR M03/M07 A2999 RMK AO2 SLP165 T10331067=
201701070853 METAR KBLI 070853Z AUTO 36003KT 10SM CLR M04/M07 A2998 RMK AO2 SLP163 T10441072 58005=
201701070753 METAR KBLI 070753Z AUTO 00000KT 10SM CLR M03/M06 A3000 RMK AO2 SLP169 T10281061 400441039=
201701070653 METAR KBLI 070653Z AUTO 00000KT 10SM CLR M04/M07 A3000 RMK AO2 SLP169 T10391067=
201701070553 METAR KBLI 070553Z 00000KT 10SM CLR M02/M06 A3000 RMK AO2 SLP169 T10221056 10022 21022 53001=
201701070453 METAR KBLI 070453Z 00000KT 10SM CLR M02/M05 A3000 RMK AO2 SLP168 T10171050=
201701070353 METAR KBLI 070353Z 00000KT 10SM FEW120 M01/M05 A3000 RMK AO2 SLP168 T10111050=
201701070253 METAR KBLI 070253Z 02004KT 10SM FEW120 M01/M05 A3000 RMK AO2 SLP168 T10111050 55004=
201701070153 METAR KBLI 070153Z 36003KT 10SM CLR M01/M04 A2999 RMK AO2 SLP166 T10061044=
201701070053 METAR KBLI 070053Z 36004KT 10SM CLR 00/M04 A3000 RMK AO2 SLP169 T00001044=
201701062353 METAR KBLI 062353Z 01006KT 10SM BKN070 02/M04 A3001 RMK AO2 SLP172 T00221044 10044 21006 55003=
201701062253 METAR KBLI 062253Z 03005KT 10SM OVC070 03/M04 A3000 RMK AO2 SLP170 T00331044=
201701062153 METAR KBLI 062153Z 01005KT 10SM OVC070 04/M05 A3001 RMK AO2 SLP171 T00391050=
201701062053 METAR KBLI 062053Z 02005KT 10SM OVC070 03/M04 A3002 RMK AO2 SLP175 T00281044 58009=
201701061953 METAR KBLI 061953Z 04004KT 10SM SCT050 BKN070 02/M05 A3003 RMK AO2 SLP178 T00171050=
201701061853 METAR KBLI 061853Z VRB03KT 10SM SCT055 BKN080 01/M05 A3005 RMK AO2 SLP186 T00061050=
201701061753 METAR KBLI 061753Z 02004KT 10SM BKN055 OVC080 M01/M05 A3005 RMK AO2 SLP184 T10061050 11006 21022 51006=
201701061653 METAR KBLI 061653Z 35005KT 10SM FEW060 OVC075 M01/M06 A3004 RMK AO2 SLP184 T10111056=
201701061553 METAR KBLI 061553Z 02003KT 10SM OVC070 M02/M06 A3003 RMK AO2 SLP181 T10171061=
201701061544 SPECI KBLI 061544Z 36006KT 10SM OVC070 M02/M06 A3004 RMK AO2 T10171061=
201701061453 METAR KBLI 061453Z 18003KT 10SM OVC070 M01/M07 A3003 RMK AO2 SLP178 T10061067 58019=
201701061353 METAR KBLI 061353Z AUTO 00000KT 10SM OVC065 M02/M06 A3005 RMK AO2 SLP186 T10221061=
201701061253 METAR KBLI 061253Z AUTO 01003KT 10SM OVC060 M02/M06 A3007 RMK AO2 SLP193 T10171061=
201701061153 METAR KBLI 061153Z AUTO 01003KT 10SM SCT050 OVC060 M02/M07 A3008 RMK AO2 SLP197 T10221067 11022 21028 58007=
201701061053 METAR KBLI 061053Z AUTO 00000KT 10SM OVC060 M02/M06 A3010 RMK AO2 SLP202 T10221061=
201701060953 METAR KBLI 060953Z AUTO 00000KT 10SM OVC050 M02/M07 A3011 RMK AO2 SLP205 T10221067=
201701060853 METAR KBLI 060853Z AUTO 36003KT 10SM BKN032 BKN047 OVC060 M02/M06 A3010 RMK AO2 SLP204 T10221061 56019=
201701060812 SPECI KBLI 060812Z AUTO 35003KT 10SM FEW030 BKN044 OVC055 M02/M06 A3011 RMK AO2 T10221061=
201701060753 METAR KBLI 060753Z AUTO 00000KT 10SM OVC029 M02/M06 A3012 RMK AO2 SLP209 T10221056 400221089=
201701060653 METAR KBLI 060653Z AUTO 00000KT 10SM OVC028 M02/M06 A3014 RMK AO2 SLP217 T10221061=
201701060553 METAR KBLI 060553Z 00000KT 10SM OVC029 M03/M06 A3016 RMK AO2 SLP224 T10281061 11011 21039 56008=
201701060540 SPECI KBLI 060540Z 00000KT 10SM BKN029 OVC043 M03/M07 A3016 RMK AO2 T10281067=
201701060453 METAR KBLI 060453Z 00000KT 10SM OVC047 M03/M07 A3017 RMK AO2 SLP228 T10331067=
201701060353 METAR KBLI 060353Z 00000KT 10SM CLR M04/M07 A3017 RMK AO2 SLP227 T10391067=
201701060253 METAR KBLI 060253Z 00000KT 10SM CLR M03/M07 A3018 RMK AO2 SLP232 T10281072 56014=
201701060153 METAR KBLI 060153Z 00000KT 10SM CLR M03/M07 A3020 RMK AO2 SLP237 T10281067=
201701060053 METAR KBLI 060053Z 00000KT 10SM CLR M03/M06 A3020 RMK AO2 SLP239 T10281061=
201701052353 METAR KBLI 052353Z 00000KT 10SM CLR M01/M05 A3022 RMK AO2 SLP246 T10111050 10022 21044 56015=
201701052253 METAR KBLI 052253Z 00000KT 10SM CLR 02/M07 A3023 RMK AO2 SLP247 T00171072=
201701052153 METAR KBLI 052153Z VRB03KT 10SM CLR 02/M07 A3024 RMK AO2 SLP252 T00171072=
201701052053 METAR KBLI 052053Z 33003KT 10SM SCT110 01/M06 A3027 RMK AO2 SLP260 T00111056 58018=
201701051953 METAR KBLI 051953Z 00000KT 10SM CLR 00/M06 A3029 RMK AO2 SLP268 T00001056=
201701051853 METAR KBLI 051853Z 00000KT 10SM CLR M02/M06 A3031 RMK AO2 SLP274 T10171061=
201701051753 METAR KBLI 051753Z 36003KT 10SM CLR M04/M08 A3032 RMK AO2 SLP279 I6000 T10441078 11044 21089 58002=
201701051653 METAR KBLI 051653Z 00000KT 10SM CLR M07/M08 A3033 RMK AO2 SLP282 T10671083=
201701051553 METAR KBLI 051553Z 00000KT 10SM CLR M08/M09 A3033 RMK AO2 SLP282 I1000 T10781094=
201701051453 METAR KBLI 051453Z 00000KT 10SM CLR M08/M10 A3033 RMK AO2 SLP282 T10831100 58011=
201701051353 METAR KBLI 051353Z AUTO 00000KT 10SM CLR M08/M09 A3034 RMK AO2 SLP285 T10781094=
201701051253 METAR KBLI 051253Z AUTO 00000KT 10SM CLR M08/M11 A3035 RMK AO2 SLP291 T10781106=
201701051153 METAR KBLI 051153Z AUTO 00000KT 10SM CLR M07/M10 A3036 RMK AO2 SLP292 T10671100 11028 21078 58008=
201701051053 METAR KBLI 051053Z AUTO 00000KT 10SM CLR M07/M09 A3037 RMK AO2 SLP296 T10671094=
201701050953 METAR KBLI 050953Z AUTO 01006KT 10SM CLR M06/M09 A3038 RMK AO2 SLP298 T10611094=
201701050853 METAR KBLI 050853Z AUTO 00000KT 10SM CLR M06/M09 A3038 RMK AO2 SLP299 T10561094 51004=
201701050753 METAR KBLI 050753Z AUTO 00000KT 10SM CLR M06/M10 A3038 RMK AO2 SLP298 T10561100 400281067=
201701050653 METAR KBLI 050653Z AUTO 00000KT 10SM CLR M04/M10 A3038 RMK AO2 SLP298 T10441100=
201701050553 METAR KBLI 050553Z 00000KT 10SM CLR M03/M10 A3037 RMK AO2 SLP295 T10281100 10017 21050 51009=
201701050453 METAR KBLI 050453Z 01006KT 10SM CLR M03/M10 A3036 RMK AO2 SLP292 T10281100=
201701050353 METAR KBLI 050353Z 35006KT 10SM CLR M02/M11 A3036 RMK AO2 SLP291 T10171106=
201701050253 METAR KBLI 050253Z 03011KT 10SM CLR M01/M11 A3034 RMK AO2 SLP286 T10061106 51009=
201701050153 METAR KBLI 050153Z 03008KT 10SM CLR M01/M11 A3034 RMK AO2 SLP284 T10061111=
201701050053 METAR KBLI 050053Z 02013KT 10SM CLR 01/M12 A3033 RMK AO2 SLP280 T00061117=
201701042353 METAR KBLI 042353Z 01011G20KT 10SM CLR 02/M12 A3032 RMK AO2 SLP277 T00171122 10028 20000 53010=
201701042253 METAR KBLI 042253Z 01014G21KT 10SM CLR 03/M12 A3030 RMK AO2 SLP270 T00281122=
201701042153 METAR KBLI 042153Z 36015G23KT 10SM CLR 03/M12 A3029 RMK AO2 PK WND 01026/2116 SLP268 T00281122=
201701042053 METAR KBLI 042053Z 02014G25KT 10SM CLR 03/M13 A3029 RMK AO2 PK WND 02029/2009 SLP266 T00281128 58002=
201701041953 METAR KBLI 041953Z 03016G34KT 10SM CLR 02/M14 A3029 RMK AO2 PK WND 02034/1948 SLP267 T00221139=
201701041853 METAR KBLI 041853Z 03017G29KT 10SM CLR 01/M14 A3029 RMK AO2 PK WND 02029/1847 SLP269 T00111139=
201701041753 METAR KBLI 041753Z 02015G25KT 10SM CLR 00/M14 A3029 RMK AO2 PK WND 03026/1705 SLP268 T00001139 10000 21028 53010=
201701041653 METAR KBLI 041653Z 03014G24KT 10SM CLR M02/M14 A3028 RMK AO2 PK WND 03026/1635 SLP264 T10171139=
201701041553 METAR KBLI 041553Z 04014G21KT 10SM CLR M02/M14 A3027 RMK AO2 SLP260 T10221139=
201701041453 METAR KBLI 041453Z 04011G20KT 10SM CLR M02/M14 A3026 RMK AO2 SLP259 T10221139 58002=
201701041353 METAR KBLI 041353Z AUTO 04013G21KT 10SM CLR M02/M14 A3027 RMK AO2 SLP261 T10221144=
201701041253 METAR KBLI 041253Z AUTO 04017G24KT 10SM CLR M02/M15 A3027 RMK AO2 PK WND 03030/1208 SLP259 T10171150=
201701041153 METAR KBLI 041153Z AUTO 03014G27KT 10SM CLR M02/M16 A3027 RMK AO2 PK WND 04033/1139 SLP260 T10221156 11022 21039 56006=
201701041053 METAR KBLI 041053Z AUTO 03014G27KT 10SM CLR M03/M15 A3027 RMK AO2 PK WND 03029/1011 SLP262 T10331150=
201701040953 METAR KBLI 040953Z AUTO 02017G30KT 10SM CLR M03/M16 A3028 RMK AO2 PK WND 03031/0913 SLP263 T10331156=
201701040853 METAR KBLI 040853Z AUTO 02017G33KT 10SM CLR M04/M16 A3029 RMK AO2 PK WND 02034/0804 SLP268 T10391161 56009=
201701040753 METAR KBLI 040753Z AUTO 02021G34KT 10SM CLR M04/M17 A3029 RMK AO2 PK WND 03043/0706 SLP269 T10391172 410171044=
201701040653 METAR KBLI 040653Z AUTO 03026G35KT 10SM CLR M03/M17 A3031 RMK AO2 PK WND 02041/0639 SLP274 T10331172=
201701040553 METAR KBLI 040553Z 03022G39KT 10SM CLR M04/M18 A3032 RMK AO2 PK WND 03040/0540 SLP277 T10391178 11028 21039 58004=
201701040453 METAR KBLI 040453Z 02023G41KT 10SM CLR M03/M18 A3032 RMK AO2 PK WND 04041/0451 SLP280 T10331183=
201701040353 METAR KBLI 040353Z 02017G33KT 10SM CLR M03/M18 A3033 RMK AO2 PK WND 02036/0301 SLP284 T10331183=
201701040253 METAR KBLI 040253Z 03019G34KT 10SM CLR M03/M18 A3033 RMK AO2 PK WND 02036/0155 SLP281 T10331178 56006=
201701040153 METAR KBLI 040153Z 02023G34KT 10SM CLR M03/M17 A3033 RMK AO2 PK WND 02035/0120 SLP282 T10331172=
201701040053 METAR KBLI 040053Z 02020G33KT 10SM CLR M03/M17 A3034 RMK AO2 PK WND 01033/0044 SLP285 T10281172=
201701032353 METAR KBLI 032353Z 02014G30KT 10SM CLR M03/M17 A3034 RMK AO2 PK WND 03033/2329 SLP287 T10281167 11017 21033 53002=
201701032253 METAR KBLI 032253Z 03023G34KT 10SM CLR M02/M17 A3034 RMK AO2 PK WND 02035/2220 SLP285 T10221172=
201701032153 METAR KBLI 032153Z 02020G33KT 10SM CLR M02/M17 A3034 RMK AO2 PK WND 03038/2110 SLP284 T10171167=
201701032053 METAR KBLI 032053Z 03022G33KT 10SM CLR M02/M17 A3034 RMK AO2 PK WND 02035/2031 SLP284 T10171172 58003=
201701031953 METAR KBLI 031953Z 03019G30KT 10SM CLR M02/M17 A3035 RMK AO2 PK WND 03033/1903 SLP287 T10171172=
201701031853 METAR KBLI 031853Z 03018G30KT 10SM CLR M02/M17 A3035 RMK AO2 PK WND 03030/1848 SLP288 T10221172=
201701031753 METAR KBLI 031753Z 03018G27KT 10SM CLR M03/M17 A3035 RMK AO2 PK WND 02031/1739 SLP288 T10331172 11033 21044 53011=
201701031653 METAR KBLI 031653Z 04014G22KT 10SM CLR M04/M17 A3033 RMK AO2 PK WND 02029/1607 SLP283 T10391172=
201701031553 METAR KBLI 031553Z 02019G28KT 10SM CLR M04/M17 A3033 RMK AO2 PK WND 02031/1510 SLP281 T10441172=
201701031453 METAR KBLI 031453Z 02019G30KT 10SM CLR M04/M17 A3031 RMK AO2 PK WND 02033/1429 SLP277 T10441172 51002=
201701031353 METAR KBLI 031353Z AUTO 01017G31KT 10SM CLR M04/M17 A3031 RMK AO2 PK WND 01031/1313 SLP276 T10441172 $=
201701031253 METAR KBLI 031253Z AUTO 02017G31KT 10SM CLR M04/M17 A3031 RMK AO2 PK WND 02031/1248 SLP275 T10391172 $=
201701031153 METAR KBLI 031153Z AUTO 03018G29KT 10SM CLR M04/M17 A3031 RMK AO2 PK WND 04029/1151 SLP274 T10391167 11028 21039 53012 $=
201701031053 METAR KBLI 031053Z AUTO 03017G22KT 10SM CLR M04/M16 A3030 RMK AO2 PK WND 04028/1005 SLP269 T10391161 $=
201701030953 METAR KBLI 030953Z AUTO 03018G30KT 10SM CLR M04/M17 A3028 RMK AO2 PK WND 02035/0924 SLP263 T10391167 $=
201701030853 METAR KBLI 030853Z AUTO 02020G29KT 10SM CLR M03/M16 A3027 RMK AO2 PK WND 01029/0852 SLP261 T10331161 53016 $=
201701030753 METAR KBLI 030753Z AUTO 02015G23KT 10SM CLR M03/M16 A3026 RMK AO2 SLP256 T10331161 410061033 $=
201701030653 METAR KBLI 030653Z AUTO 03015G23KT 10SM CLR M03/M16 A3023 RMK AO2 PK WND 02031/0557 SLP249 T10331161 $=
201701030553 METAR KBLI 030553Z 03019G31KT 10SM CLR M03/M16 A3022 RMK AO2 PK WND 03035/0532 SLP245 T10281161 11017 21033 51023 $=
201701030453 METAR KBLI 030453Z 02017G35KT 10SM CLR M03/M16 A3020 RMK AO2 PK WND 01035/0444 SLP238 T10281156 $=
201701030353 METAR KBLI 030353Z 03017G30KT 10SM CLR M03/M16 A3018 RMK AO2 PK WND 01032/0322 SLP230 T10281156 $=
201701030253 METAR KBLI 030253Z 03019G29KT 10SM CLR M03/M16 A3015 RMK AO2 PK WND 02035/0206 SLP222 T10281156 53015 $=
201701030153 METAR KBLI 030153Z 03021G33KT 10SM CLR M02/M15 A3014 RMK AO2 PK WND 03036/0119 SLP215 T10221150 $=
201701030053 METAR KBLI 030053Z 02020G30KT 10SM CLR M02/M14 A3012 RMK AO2 PK WND 02035/0000 SLP211 T10221144 $=
201701022353 METAR KBLI 022353Z 02021G32KT 10SM CLR M02/M15 A3011 RMK AO2 PK WND 02034/2316 SLP206 T10171150 11006 21022 53016 $=
201701022253 METAR KBLI 022253Z 03022G34KT 10SM CLR M01/M15 A3009 RMK AO2 PK WND 04035/2201 SLP199 T10061150 $=
201701022153 METAR KBLI 022153Z 03023G34KT 10SM CLR M01/M15 A3007 RMK AO2 PK WND 02036/2137 SLP194 T10061150 $=
201701022053 METAR KBLI 022053Z 02019G33KT 10SM CLR M01/M16 A3006 RMK AO2 PK WND 02038/2031 SLP190 T10061156 51010 $=
201701021953 METAR KBLI 021953Z 02020G35KT 10SM CLR M01/M16 A3006 RMK AO2 PK WND 01038/1912 SLP188 T10111156 $=
201701021853 METAR KBLI 021853Z 02024G38KT 10SM CLR M02/M16 A3005 RMK AO2 PK WND 03038/1809 SLP188 T10171156 $=
201701021753 METAR KBLI 021753Z 03024G36KT 10SM CLR M02/M16 A3003 RMK AO2 PK WND 02044/1733 SLP180 T10221156 11017 21028 53022 $=
201701021653 METAR KBLI 021653Z 02025G44KT 10SM CLR M02/M15 A3001 RMK AO2 PK WND 03044/1649 SLP172 T10221150 $=
201701021553 METAR KBLI 021553Z 03022G33KT 10SM CLR M03/M15 A2998 RMK AO2 PK WND 03037/1536 SLP161 T10281150 $=
201701021453 METAR KBLI 021453Z 02023G35KT 10SM CLR M02/M14 A2997 RMK AO2 PK WND 01037/1359 SLP158 T10221144 53015 $=
201701021353 METAR KBLI 021353Z AUTO 02022G31KT 10SM CLR M02/M14 A2995 RMK AO2 PK WND 03040/1321 SLP153 T10221139 $=
201701021253 METAR KBLI 021253Z AUTO 02023G32KT 10SM CLR M02/M13 A2993 RMK AO2 PK WND 04035/1216 SLP145 T10171133 $=
201701021153 METAR KBLI 021153Z AUTO 02020G36KT 10SM CLR M02/M13 A2992 RMK AO2 PK WND 03038/1128 SLP144 T10171128 11006 21017 51012 $=
201701021053 METAR KBLI 021053Z AUTO 03021G33KT 10SM CLR M01/M13 A2991 RMK AO2 PK WND 04039/1035 SLP140 T10111128 $=
201701020953 METAR KBLI 020953Z AUTO 03022G35KT 10SM CLR M01/M12 A2991 RMK AO2 PK WND 04036/0905 SLP137 T10111122 $=
201701020853 METAR KBLI 020853Z AUTO 02023G38KT 10SM CLR M01/M12 A2989 RMK AO2 PK WND 03038/0847 SLP132 T10111117 53012 $=
201701020753 METAR KBLI 020753Z AUTO 02021G35KT 10SM CLR M01/M11 A2988 RMK AO2 PK WND 02037/0743 SLP127 T10111111 400221011 $=
201701020653 METAR KBLI 020653Z AUTO 02019G34KT 10SM CLR M01/M11 A2987 RMK AO2 PK WND 03039/0619 SLP124 T10061111 $=
201701020553 METAR KBLI 020553Z 03022G37KT 10SM CLR M01/M11 A2986 RMK AO2 PK WND 02042/0504 SLP120 T10061111 51019 $=
201701020453 METAR KBLI 020453Z 03024G35KT 10SM CLR 00/M11 A2983 RMK AO2 PK WND 02039/0434 SLP113 T00001111 $=
201701020353 METAR KBLI 020353Z 03025G37KT 10SM 00/M11 A2982 RMK AO2 PK WND 02037/0349 SLP109 T00001106 $=
201701020253 METAR KBLI 020253Z 03025G35KT 10SM CLR 00/M10 A2980 RMK AO2 PK WND 02041/0234 SLP101 T00001100 50006 $=
201701020153 METAR KBLI 020153Z 03021G35KT 10SM CLR 00/M09 A2980 RMK AO2 PK WND 02038/0132 SLP103 T00001089=
201701020053 METAR KBLI 020053Z 02023G34KT 10SM SCT120 00/M08 A2979 RMK AO2 PK WND 03038/0043 SLP099 T00001083=
201701012353 METAR KBLI 012353Z 02024G35KT 10SM OVC120 01/M07 A2978 RMK AO2 PK WND 03036/2313 SLP095 T00061072 10022 20006 53007=
201701012253 METAR KBLI 012253Z 02018G36KT 10SM OVC110 01/M07 A2977 RMK AO2 PK WND 02036/2244 SLP092 T00111067=
201701012153 METAR KBLI 012153Z 02018G31KT 10SM OVC110 02/M06 A2976 RMK AO2 PK WND 04034/2130 SLP089 T00171056=
201701012053 METAR KBLI 012053Z 02017G29KT 10SM OVC110 02/M05 A2976 RMK AO2 PK WND 02033/2027 SLP087 T00171050 51007=
201701011953 METAR KBLI 011953Z 02019G28KT 10SM CLR 02/M04 A2976 RMK AO2 PK WND 02028/1953 SLP086 T00171039=
201701011853 METAR KBLI 011853Z 02016G22KT 10SM CLR 01/M03 A2975 RMK AO2 PK WND 02032/1831 SLP085 T00111033=
201701011753 METAR KBLI 011753Z 35013KT 10SM CLR 01/M02 A2974 RMK AO2 SLP080 T00111022 10011 20006 53006=
201701011653 METAR KBLI 011653Z 01015G22KT 10SM SCT120 01/M03 A2973 RMK AO2 SLP077 T00111028=
201701011553 METAR KBLI 011553Z 36011KT 10SM OVC100 01/M01 A2972 RMK AO2 SLP073 T00111006=
201701011453 METAR KBLI 011453Z 36010KT 10SM OVC080 01/M01 A2972 RMK AO2 SLP073 T00061006 53003=
201701011353 METAR KBLI 011353Z 34007KT 10SM OVC075 01/00 A2971 RMK AO2 SLP069 T00060000=
201701011307 SPECI KBLI 011307Z AUTO 33007KT 6SM BR SCT003 OVC085 01/00 A2970 RMK AO2 T00060000=
201701011253 METAR KBLI 011253Z AUTO 33006KT 6SM BR BKN003 OVC075 01/00 A2970 RMK AO2 SLP069 T00060000=
201701011210 SPECI KBLI 011210Z AUTO 34005KT 8SM BKN003 BKN028 OVC110 01/01 A2970 RMK AO2 T00060006=
201701011153 METAR KBLI 011153Z AUTO 35005KT 8SM SCT003 BKN070 OVC110 01/01 A2971 RMK AO2 SNE1057 SLP071 P0001 60008 70020 T00060006 10011 20006 50005=
201701011117 SPECI KBLI 011117Z AUTO 35005KT 7SM BKN004 BKN046 OVC070 01/01 A2972 RMK AO2 SNE1057 P0000 T00060006=
201701011110 SPECI KBLI 011110Z AUTO 35003KT 8SM SCT004 BKN013 OVC070 01/01 A2971 RMK AO2 SNE1057 P0000 T00060006=
201701011103 SPECI KBLI 011103Z AUTO 35004KT 6SM BR SCT009 BKN047 OVC070 01/01 A2972 RMK AO2 SNE1057 P0000 T00060006=
201701011053 METAR KBLI 011053Z AUTO 00000KT 3SM -SN BR SCT005 BKN013 OVC070 01/01 A2971 RMK AO2 SLP070 P0001 T00060006=
201701011049 SPECI KBLI 011049Z AUTO 00000KT 2SM -SN BR SCT005 BKN013 OVC029 01/01 A2971 RMK AO2 P0001=
201701011034 SPECI KBLI 011034Z AUTO 00000KT 1 1/2SM -SN BR BKN005 OVC017 01/01 A2971 RMK AO2 P0001 T00060006=
201701011023 SPECI KBLI 011023Z AUTO 36003KT 1SM R16/5500VP6000FT -SN BR BKN003 OVC019 01/00 A2971 RMK AO2 P0000 T00060000=
201701011011 SPECI KBLI 011011Z AUTO 00000KT 1 1/4SM -SN BR FEW006 FEW014 OVC021 01/01 A2971 RMK AO2 P0000 T00060006=
201701011000 SPECI KBLI 011000Z AUTO 00000KT 1 1/4SM -SN BR SCT010 SCT015 OVC021 01/01 A2970 RMK AO2 P0000 T00060006=
201701010953 METAR KBLI 010953Z AUTO 00000KT 1 1/2SM -SN BR BKN010 BKN015 OVC021 01/01 A2970 RMK AO2 SNB0857 SLP067 P0002 T00060006=
201701010937 SPECI KBLI 010937Z AUTO 00000KT 1 1/2SM -SN BR FEW003 BKN009 OVC018 01/01 A2970 RMK AO2 SNB0857 P0001 T00060006=
201701010913 SPECI KBLI 010913Z AUTO 00000KT 1 3/4SM -SN BR SCT003 BKN011 OVC031 01/00 A2970 RMK AO2 SNB0857 P0000 T00060000=
201701010906 SPECI KBLI 010906Z AUTO 16003KT 3SM -SN BR FEW003 BKN011 OVC042 01/00 A2970 RMK AO2 SNB0857 P0000 T00060000=
201701010853 METAR KBLI 010853Z AUTO 00000KT 5SM BR SCT009 BKN034 OVC070 01/01 A2970 RMK AO2 SNE37 SLP065 P0002 60004 T00060006 58002=
201701010844 SPECI KBLI 010844Z AUTO 00000KT 6SM BR SCT005 BKN060 OVC070 01/01 A2970 RMK AO2 SNE37 P0002 T00060006=
201701010807 SPECI KBLI 010807Z AUTO 12004KT 3SM -SN BR OVC005 01/00 A2970 RMK AO2 P0001 T00060000=
201701010753 METAR KBLI 010753Z AUTO 00000KT 1 3/4SM -SN BR BKN006 OVC014 01/01 A2971 RMK AO2 SNE0654B22 SLP068 P0002 T00060006 400330006=
201701010742 SPECI KBLI 010742Z AUTO 00000KT 1 3/4SM -SN BR SCT006 BKN016 OVC021 01/01 A2971 RMK AO2 SNE0654B22 P0001 T00060006=
201701010735 SPECI KBLI 010735Z AUTO 16003KT 1 1/2SM -SN BR BKN016 OVC075 01/01 A2970 RMK AO2 SNE0654B22 P0001 T00060006=
201701010726 SPECI KBLI 010726Z AUTO 00000KT 2 1/2SM -SN BR BKN018 BKN070 OVC085 01/01 A2970 RMK AO2 SNE0654B22 P0001 T00060006=
201701010707 SPECI KBLI 010707Z AUTO 08003KT 8SM FEW023 BKN046 OVC080 01/01 A2970 RMK AO2 SNE0654 P0000 T00060006=
201701010653 METAR KBLI 010653Z AUTO 08003KT 6SM -SN BR SCT005 BKN026 OVC045 01/01 A2971 RMK AO2 SNE11B31 SLP069 P0000 T00060006=
201701010651 SPECI KBLI 010651Z AUTO 00000KT 3SM -SN BR BKN005 BKN026 OVC045 01/01 A2971 RMK AO2 SNE11B31 P0000=
201701010640 SPECI KBLI 010640Z AUTO 02003KT 1 3/4SM -SN BR BKN005 OVC010 01/01 A2971 RMK AO2 SNE11B31 P0000 T00110006=
201701010553 METAR KBLI 010553Z 30006KT 7SM -SN BKN006 OVC011 01/01 A2970 RMK AO2 SNB53 SLP067 P0000 60009 T00110011 10033 20011 53001=
201701010544 SPECI KBLI 010544Z 29006KT 10SM OVC005 01/01 A2970 RMK AO2 T00110006=
201701010453 METAR KBLI 010453Z 29010KT 7SM BKN004 OVC011 02/01 A2967 RMK AO2 RAE32 CIG 002V007 SLP057 P0001 T00170011=
201701010421 SPECI KBLI 010421Z VRB04KT 10SM -RA OVC008 03/02 A2967 RMK AO2 CIG 005V012 P0001 T00280022=
201701010353 METAR KBLI 010353Z 18010G19KT 8SM -RA BKN011 OVC017 03/02 A2968 RMK AO2 RAB0255 SLP061 P0007 T00280017=
201701010323 SPECI KBLI 010323Z 19007G15KT 150V220 8SM -RA OVC013 03/02 A2969 RMK AO2 RAB0255 P0002 T00280017=
201701010253 METAR KBLI 010253Z 14012G19KT 9SM OVC016 03/01 A2970 RMK AO2 SNE51 SLP066 P0000 60001 T00280011 56043=
201701010153 METAR KBLI 010153Z 15010KT 10SM -SN OVC013 02/01 A2974 RMK AO2 UPB02E12B38E47RAB47E48SNE02B48 SLP079 P0000 T00220006=
201701010053 METAR KBLI 010053Z 14018G23KT 4SM -SN BR BKN016 OVC023 02/00 A2978 RMK AO2 SLP092 P0001 T00170000=

# No short TAF reports from KBLI in databse.

###################################
#  large TAF from KBLI
###################################
201701312320 TAF KBLI 312320Z 0100/0124 01014G24KT P6SM FEW250 FM010200 02013KT
                       P6SM FEW250 FM011800 03020G32KT P6SM FEW250=
201701311723 TAF KBLI 311723Z 3118/0118 34010KT P6SM SKC FM312100 02014G22KT
                       P6SM SKC FM010200 02012KT P6SM SKC=
201701311120 TAF KBLI 311120Z 3112/0112 33005KT P6SM BKN150 FM311600 01007KT
                       P6SM BKN200 FM312100 02014G22KT P6SM SCT200
                       FM010200 02011KT P6SM SCT200=
201701310520 TAF KBLI 310520Z 3106/0106 VRB03KT P6SM SCT018 BKN120 FM310800
                       02005KT P6SM BKN150 FM311600 02014G22KT
                       P6SM SCT150=
201701302326 TAF KBLI 302326Z 3100/3124 00000KT P6SM SCT018 BKN120
                      TEMPO 3100/3102 BKN018 OVC120 FM310800 02005KT
                       P6SM BKN150 FM311600 02014G22KT P6SM SCT150=
201701302007 KBLI 302007Z 3020/3118 34005KT P6SM SCT020 BKN040 OVC120
                      TEMPO 3020/3022 BKN020 OVC040 FM302200 34006KT
                       P6SM SCT060 BKN150 FM310800 02005KT P6SM
                       SCT150=
201701302005 KBLI 302005Z 3020/3118 32006KT P6SM SCT008 BKN120
                      TEMPO 3020/3022 BKN008 OVC120 FM302200 34006KT
                       P6SM SCT060 BKN150 FM310800 02005KT P6SM
                       SCT150=
201701301723 TAF KBLI 301723Z 3018/3118 00000KT P6SM SCT020 BKN060 FM302000
                       34005KT P6SM SCT060 BKN150 FM310800 02005KT
                       P6SM SCT150=
201701301120 TAF KBLI 301120Z 3012/3112 VRB03KT P6SM BKN020 OVC050
                      TEMPO 3012/3016 1/2SM FG SCT015 SCT040 FM301900
                       33006KT P6SM SCT020 OVC040 FM310000 01005KT
                       P6SM SCT040 OVC080=
201701301054 KBLI 301054Z 3011/3106 17008KT P6SM BKN025 OVC050
                      TEMPO 3011/3015 1 1/2SM BR SCT015 SCT040
                       FM301700 35006KT P6SM OVC035 FM310000 01005KT
                       P6SM SCT035 OVC050=
201701300520 TAF KBLI 300520Z 3006/3106 17008KT P6SM BKN025 OVC050 FM301700
                       35006KT P6SM OVC035 FM310000 01005KT P6SM
                       SCT035 OVC050=
201701292331 TAF KBLI 292331Z 3000/3024 14009KT P6SM VCSH OVC035 FM300400 17008KT
                       P6SM BKN025 OVC050 FM301700 35004KT P6SM
                       OVC035=
201701291732 TAF KBLI 291732Z 2918/3018 16017G21KT P6SM OVC150 FM292100 16018G26KT
                       5SM -RA BR OVC060 FM292300 16015G21KT P6SM
                       -RA OVC030 FM300200 17012G18KT P6SM BKN025
                       OVC050 FM300800 17004KT P6SM OVC020=
201701291120 TAF KBLI 291120Z 2912/3012 VRB03KT P6SM BKN160 OVC220 FM291300
                       17011KT P6SM BKN150 OVC200 FM291800 16014G23KT
                       P6SM BKN050 OVC100
                      TEMPO 2921/3001 4SM -RA BR OVC025 FM300200
                       16008KT P6SM SCT015 OVC025 FM301000 VRB03KT
                       P6SM OVC015=
201701290520 TAF KBLI 290520Z 2906/3006 VRB03KT P6SM BKN160 OVC220 FM290900
                       15006KT P6SM BKN160 OVC220 FM291300 17011KT
                       P6SM BKN150 OVC200 FM291800 16014G23KT P6SM
                       BKN050 OVC100
                      TEMPO 2921/3001 4SM -RA BR OVC025 FM300200
                       16008KT P6SM SCT015 OVC025=
201701282322 TAF KBLI 282322Z 2900/2924 01003KT P6SM BKN160 OVC220=
201701281723 TAF KBLI 281723Z 2818/2918 00000KT P6SM BKN150=
201701281120 TAF KBLI 281120Z 2812/2912 VRB03KT P6SM SCT120 OVC200 FM281800
                       16006KT P6SM SCT250 FM290900 17005KT P6SM
                       BKN100 OVC250=
201701280520 TAF KBLI 280520Z 2806/2906 VRB03KT P6SM SCT120 OVC200 FM281800
                       16006KT P6SM SCT250=
201701272320 TAF KBLI 272320Z 2800/2824 00000KT P6SM BKN200 FM280300 VRB03KT
                       P6SM OVC200=
201701271726 TAF KBLI 271726Z 2718/2818 00000KT P6SM OVC045 FM271900 09004KT
                       P6SM OVC060 FM280300 VRB03KT P6SM OVC200=
201701271140 TAF KBLI 271140Z 2712/2812 VRB03KT P6SM BKN045 OVC200 FM271800
                       VRB03KT P6SM SCT050 SCT100 BKN200
                      TEMPO 2718/2720 BKN050 BKN100 OVC200 FM280000
                       VRB03KT P6SM SCT100 OVC200=
201701270540 TAF KBLI 270540Z 2706/2806 00000KT 6SM BR FEW050 OVC200
                      TEMPO 2706/2709 3SM BR FM270900 00000KT 5SM
                       BR BKN050 OVC200 FM271800 VRB03KT P6SM SCT050
                       OVC200=
201701262334 TAF KBLI 262334Z 2700/2724 VRB03KT P6SM SCT045 BKN200 FM270900
                       00000KT 3SM BR SCT200 FM271500 00000KT P6SM
                       SCT200=
201701261742 TAF KBLI 261742Z 2618/2718 VRB03KT P6SM SCT050 FM262100 VRB03KT
                       P6SM SCT035 BKN050 FM270400 VRB03KT P6SM
                       SCT050 BKN100 FM271100 00000KT 3SM BR SCT200
                       FM271500 00000KT P6SM SCT200=
201701261318 KBLI 261318Z 2613/2712 00000KT 5SM BR SCT022 OVC050
                      TEMPO 2613/2616 1 1/2SM BR BKN022 OVC050
                       FM261600 00000KT P6SM OVC022 FM261800 VRB03KT
                       P6SM BKN030 BKN050 OVC100 FM262100 VRB03KT
                       P6SM SCT035 BKN050 OVC100=
201701261317 KBLI 261317Z 2613/2712 00000KT 5SM BR SCT022 OVC050
                      TEMPO 2613/2616 2SM BR BKN022 OVC050 FM261600
                       00000KT P6SM OVC022 FM261800 VRB03KT P6SM
                       BKN030 BKN050 OVC100 FM262100 VRB03KT P6SM
                       SCT035 BKN050 OVC100=
201701261140 TAF KBLI 261140Z 2612/2712 00000KT 5SM BR SCT022 OVC050
                      TEMPO 2612/2614 2SM BR BKN022 OVC050 FM261400
                       00000KT 5SM BR OVC022 FM261800 VRB03KT P6SM
                       BKN030 BKN050 OVC100 FM262100 VRB03KT P6SM
                       SCT035 BKN050 OVC100=
201701260540 TAF KBLI 260540Z 2606/2706 00000KT P6SM FEW030 OVC045 FM260900
                       00000KT P6SM SCT020 OVC035 FM261800 VRB03KT
                       P6SM BKN035 BKN100 OVC200 FM262100 VRB03KT
                       P6SM SCT050 BKN100 OVC200=
201701252340 TAF KBLI 252340Z 2600/2624 VRB03KT P6SM BKN040 OVC060 FM262100
                       VRB03KT P6SM SCT040 BKN060=
201701251739 TAF KBLI 251739Z 2518/2618 VRB03KT P6SM BKN040 OVC060=
201701251133 TAF KBLI 251133Z 2512/2612 00000KT P6SM SCT050 OVC130
                      TEMPO 2512/2516 3SM BR BKN050 OVC130 FM251600
                       VRB03KT P6SM FEW035 OVC050 FM252100 VRB03KT
                       P6SM BKN035 OVC050 FM260600 00000KT P6SM
                       OVC025 FM260900 00000KT 5SM BR OVC012=
201701250906 KBLI 250906Z 2509/2606 00000KT 4SM BR SCT003 BKN130
                      TEMPO 2509/2512 1SM BR BKN003 BKN130 FM251200
                       00000KT 1/4SM FG VV001 FM251800 VRB03KT
                       2SM BR OVC006 FM252000 VRB03KT P6SM BKN012
                       OVC050 FM252200 VRB03KT P6SM SCT020 OVC050=
201701250715 KBLI 250715Z 2507/2606 00000KT 6SM BR FEW003 SCT050
                      TEMPO 2507/2509 1 1/2SM BR BKN003 BKN050
                       FM250900 00000KT 1SM BR OVC003 FM251000
                       00000KT 1/4SM FG VV001 FM251800 VRB03KT
                       2SM BR OVC006 FM252000 VRB03KT P6SM BKN012
                       OVC050 FM252200 VRB03KT P6SM SCT020 OVC050=
201701250538 TAF KBLI 250538Z 2506/2606 00000KT 6SM BR FEW003 SCT050
                      TEMPO 2506/2508 1 1/2SM BR BKN003 BKN050
                       FM250800 00000KT 1SM BR OVC003 FM251000
                       00000KT 1/4SM FG VV001 FM251800 VRB03KT
                       2SM BR OVC006 FM252000 VRB03KT P6SM BKN012
                       OVC050 FM252200 VRB03KT P6SM SCT020 OVC050=
201701250313 KBLI 250313Z 2503/2524 VRB03KT P6SM OVC045 FM250800 13005KT P6SM
                       VCFG BKN012
                      TEMPO 2512/2516 3SM BR OVC010 FM252100 VRB03KT
                       P6SM BKN025
                      TEMPO 2521/2524 SCT030=
201701242359 KBLI 242359Z 2500/2524 VRB03KT P6SM BKN040 BKN200 FM250800 13005KT
                       P6SM VCFG BKN012
                      TEMPO 2512/2516 3SM BR OVC010 FM252100 VRB03KT
                       P6SM BKN025
                      TEMPO 2521/2524 SCT030=
201701242320 TAF KBLI 242320Z 2500/2524 VRB03KT P6SM BKN020 BKN200 FM250800
                       13005KT P6SM VCFG BKN012
                      TEMPO 2512/2516 3SM BR OVC010 FM252100 VRB03KT
                       P6SM BKN025
                      TEMPO 2521/2524 SCT030=
201701242010 KBLI 242010Z 2420/2518 00000KT P6SM OVC015 FM242300 VRB03KT P6SM
                       BKN020 BKN200 FM250800 13005KT P6SM VCFG
                       BKN012
                      TEMPO 2512/2516 3SM BR OVC010=
201701241720 TAF KBLI 241720Z 2418/2518 00000KT P6SM OVC025 FM242100 VRB03KT
                       P6SM SCT035 BKN200 FM250800 13005KT P6SM
                       VCFG BKN012
                      TEMPO 2512/2516 3SM BR OVC010=
201701241140 TAF KBLI 241140Z 2412/2512 VRB03KT P6SM OVC018 FM242000 VRB03KT
                       P6SM SCT018 BKN200 FM242100 VRB03KT P6SM
                       BKN200 FM250600 VRB03KT 4SM BR SCT015 SCT200=
201701240910 KBLI 240910Z 2409/2506 00000KT P6SM BKN012 FM241800 00000KT P6SM
                       BKN120 FM242000 VRB03KT P6SM SCT120 FM250000
                       00000KT P6SM BKN120=
201701240708 KBLI 240708Z 2407/2506 00000KT 1 1/2SM BR SCT005
                      TEMPO 2407/2409 3/4SM BR BKN005 FM240900
                       00000KT 3/4SM BR VV003
                      TEMPO 2412/2416 1/4SM FG VV001 FM241800 00000KT
                       5SM BR BKN007 BKN120 FM242000 VRB03KT P6SM
                       SCT120 FM250000 00000KT P6SM BKN120=
201701240540 TAF KBLI 240540Z 2406/2506 00000KT P6SM MIFG SKC FM240800 00000KT
                       4SM BR FEW003 FM241000 00000KT 1SM BR VV002
                       FM241800 00000KT 5SM BR BKN007 BKN120 FM242000
                       VRB03KT P6SM SCT120 FM250000 00000KT P6SM
                       BKN120=
201701240433 KBLI 240433Z 2405/2424 00000KT 4SM BR SKC
                      TEMPO 2405/2407 1SM BR FM240700 00000KT 1SM
                       BR FEW003
                      TEMPO 2407/2411 1/2SM FG VV002 FM241100 00000KT
                       1/2SM FG VV002 FM241800 VRB04KT P6SM SCT025=
201701232320 TAF KBLI 232320Z 2400/2424 30005KT P6SM FEW200 FM240600 02003KT
                       P6SM FEW200 FM241200 VRB03KT P6SM BKN015
                       FM241800 VRB04KT P6SM SCT025=
201701231722 TAF KBLI 231722Z 2318/2418 36005KT P6SM SCT250 FM241300 VRB03KT
                       P6SM BKN015=
201701231141 TAF KBLI 231141Z 2312/2412 01005KT P6SM BKN200 FM231400 01005KT
                       P6SM BKN100 BKN200 FM231800 01006KT P6SM
                       SCT200 FM240600 00000KT P6SM SCT020 BKN200=
201701230534 TAF KBLI 230534Z 2306/2406 02004KT P6SM SCT050 BKN200 FM231800
                       01006KT P6SM SCT200=
201701222323 TAF KBLI 222323Z 2300/2324 11007KT P6SM VCSH SCT040 BKN110 FM230600
                       02004KT P6SM SCT040 BKN150 FM230900 02004KT
                       P6SM SCT040 FM231800 01005KT P6SM SCT250=
201701221733 TAF KBLI 221733Z 2218/2318 04007KT P6SM VCSH SCT060 BKN100 FM221900
                       06008KT P6SM -RA BKN030 OVC050 FM230600
                       02004KT P6SM BKN050 OVC100 FM230900 02004KT
                       P6SM SCT040=
201701221120 TAF KBLI 221120Z 2212/2312 03005KT P6SM SCT060 BKN100 FM221900
                       06008KT P6SM -RA BKN030 OVC050 FM230200
                       VRB04KT P6SM BKN050 OVC100=
201701220538 TAF KBLI 220538Z 2206/2306 VRB03KT P6SM SCT060 OVC090
                      TEMPO 2206/2209 -SHRA BKN060 OVC090 FM221100
                       04007KT P6SM BKN090 FM221900 10010KT P6SM
                       -RA BKN035 OVC060 FM230100 05005KT P6SM
                       BKN060 BKN100=
201701212333 TAF KBLI 212333Z 2200/2224 01006KT P6SM VCSH SCT040 BKN070 FM220200
                       03010KT P6SM -SHRA BKN040 OVC070 FM221200
                       03009KT P6SM SCT040 BKN070 FM221800 10010KT
                       P6SM -RA BKN040 OVC070=
201701211736 TAF KBLI 211736Z 2118/2218 VRB03KT P6SM BKN050 OVC070 FM212000
                       05006KT P6SM BKN045 BKN070 FM220200 03010KT
                       P6SM -SHRA OVC040=
201701211144 TAF KBLI 211144Z 2112/2212 VRB03KT P6SM VCSH BKN040 OVC070
                      TEMPO 2112/2114 -SHRA FM212000 11006KT P6SM
                       VCSH BKN045 BKN070 FM220300 13010KT P6SM
                       VCSH OVC050=
201701210537 TAF KBLI 210537Z 2106/2206 10004KT P6SM OVC080 FM211200 06005KT
                       P6SM OVC050 FM211800 06008KT P6SM VCSH BKN050
                       OVC080=
201701202320 TAF KBLI 202320Z 2100/2124 03006KT P6SM OVC110 FM210600 04006KT
                       P6SM SCT060 OVC080=
201701201720 TAF KBLI 201720Z 2018/2118 01006KT P6SM SCT200 FM202100 03006KT
                       P6SM SCT080 BKN200 FM210600 04006KT P6SM
                       VCSH OVC080=
201701201134 TAF KBLI 201134Z 2012/2112 06006KT P6SM BKN200 FM201800 02008KT
                       P6SM BKN100 FM210200 04006KT P6SM OVC080=
201701200538 TAF KBLI 200538Z 2006/2106 15012G20KT P6SM VCSH BKN028 OVC050 FM201400
                       04010KT P6SM SCT050 BKN100 FM201800 04008KT
                       P6SM SCT100 BKN200 FM202200 05008KT P6SM
                       OVC100=
201701192330 TAF KBLI 192330Z 2000/2024 16012G20KT P6SM -RA BKN028 OVC035 FM200300
                       15013G19KT P6SM VCSH OVC030 FM200900 08009G17KT
                       P6SM VCSH SCT030 FM201800 04008KT P6SM BKN100
                       BKN250=
201701191733 TAF KBLI 191733Z 1918/2018 16014G25KT P6SM -SHRA BKN028 OVC035
                       FM200200 16013G19KT P6SM VCSH OVC019 FM200900
                       07011G17KT P6SM VCSH SCT030 BKN050=
201701191136 TAF KBLI 191136Z 1912/2012 15015G25KT P6SM -SHRA SCT025 OVC045
                       TEMPO 1912/1916 BKN018 OVC040 FM191600 16015G25KT
                       P6SM -SHRA BKN020 OVC040 FM200200 16010G20KT
                       P6SM VCSH BKN030 BKN050=
201701190642 KBLI 190642Z 1907/2006 12018G27KT P6SM -RA SCT025 OVC045 FM190900
                       17015G25KT P6SM -SHRA BKN025 OVC045 FM191600
                       16014G24KT P6SM VCSH BKN030 OVC050 FM192100
                       16012G20KT P6SM -SHRA BKN030 BKN050=
201701190540 TAF KBLI 190540Z 1906/2006 16007KT 4SM -RA BR BKN025 OVC045 FM191000
                       17012KT 4SM -SHRA BKN025 OVC045 FM191600
                       16014G24KT P6SM VCSH BKN030 OVC050 FM192100
                       16012G20KT P6SM -SHRA BKN030 BKN050=
201701182335 KBLI 182335Z 1900/1924 16011G21KT P6SM -RA BKN025 BKN040 OVC070
                       FM190300 15010G17KT 5SM -SHRA BKN015 OVC030
                       FM191300 16014G22KT 5SM BR VCSH OVC030 FM192100
                       17012KT P6SM -SHRA BKN035 BKN070=
201701182334 TAF KBLI 182334Z 1900/1924 16011G21KT P6SM -RA BKN035 OVC070 FM190300
                       15010G17KT 5SM -SHRA BKN015 OVC030 FM191300
                       16014G22KT 5SM BR VCSH OVC030 FM192100 17012KT
                       P6SM -SHRA BKN035 BKN070=
201701182103 KBLI 182103Z 1821/1918 17014G22KT P6SM -SHRA BKN030 OVC060 FM190300
                       17010KT P6SM -SHRA BKN015 OVC030 FM190600
                       16009G15KT 5SM -SHRA BR OVC020=
201701181732 TAF KBLI 181732Z 1818/1918 14019G31KT 5SM -RA FEW027 SCT040 OVC060
                       FM182200 16015G22KT P6SM -SHRA SCT030 OVC060
                       FM190300 17010KT P6SM -SHRA BKN015 OVC030
                       FM190600 16009G15KT 5SM -SHRA BR OVC020=
201701181121 TAF KBLI 181121Z 1812/1912 15018G32KT P6SM BKN025 OVC090 FM181600
                       15020G35KT P6SM -SHRA BKN020 OVC040 FM190300
                       15012KT P6SM -SHRA BKN015 OVC030=
201701180525 TAF KBLI 180525Z 1806/1906 15025G40KT P6SM -RA SCT025 OVC070 FM180800
                       15020G35KT P6SM -RA BKN025 OVC060 FM181600
                       15020G35KT P6SM -SHRA BKN020 OVC040 FM190300
                       15012KT P6SM -SHRA BKN015 OVC030=
201701180411 KBLI 180411Z 1804/1824 15025G40KT P6SM -RA SCT025 OVC080 FM180700
                       15020G35KT P6SM -RA BKN025 OVC060 FM181600
                       18012G22KT P6SM -RA BKN020 OVC040 FM182200
                       20012KT P6SM -SHRA BKN025 BKN050=
201701180211 KBLI 180211Z 1802/1824 16030G40KT P6SM -RA SCT028 OVC050
                      TEMPO 1802/1804 3SM RA BR BKN028 OVC040 FM180400
                       16022G32KT 3SM RA BR OVC015 FM181600 18012G22KT
                       P6SM -RA BKN020 OVC040 FM182200 20012KT
                       P6SM -SHRA BKN025 BKN050=
201701172320 TAF KBLI 172320Z 1800/1824 16022G32KT P6SM -RA OVC040
                      TEMPO 1800/1804 3SM RA BR OVC025 FM180400
                       16022G32KT 3SM RA BR OVC015 FM181600 18012G22KT
                       P6SM -RA BKN020 OVC040 FM182200 20012KT
                       P6SM -SHRA BKN025 BKN050=
201701171720 TAF KBLI 171720Z 1718/1818 16022G32KT P6SM -RA OVC050 FM180000
                       16022G32KT P6SM -RA OVC025 FM180600 18022G32KT
                       5SM RA BR OVC015 FM181600 18012G22KT P6SM
                       -RA BKN020 OVC040=
201701171131 TAF KBLI 171131Z 1712/1812 01007KT P6SM OVC080 FM171400 16014G22KT
                       P6SM -RA OVC040 FM180200 16020G32KT P6SM
                       -RA OVC025=
201701170524 TAF KBLI 170524Z 1706/1806 03006KT P6SM -RA OVC060 FM171400 16014G22KT
                       P6SM -RA OVC040 FM180200 16020G32KT P6SM
                       -RA OVC025=
201701162320 TAF KBLI 162320Z 1700/1724 14007KT P6SM BKN060 OVC120 FM171000
                       16014G22KT P6SM -RA OVC040 FM172200 16015G25KT
                       P6SM -RA OVC025=
201701161720 TAF KBLI 161720Z 1618/1718 14006KT P6SM BKN120 BKN200 FM162200
                       14006KT P6SM BKN080 OVC120 FM171000 16008KT
                       P6SM OVC060 FM171300 16012G22KT P6SM -RA
                       OVC040=
201701161124 TAF KBLI 161124Z 1612/1712 VRB03KT P6SM OVC100 FM161900 07005KT
                       P6SM SCT050 OVC080 FM170200 14014G22KT P6SM
                       -RA SCT040 OVC060=
201701160520 TAF KBLI 160520Z 1606/1706 36004KT P6SM BKN150 FM161200 VRB03KT
                       P6SM SCT080 OVC120 FM161900 07006KT P6SM
                       SCT050 OVC080 FM170200 14014G22KT P6SM -RA
                       SCT040 OVC060=
201701152328 TAF KBLI 152328Z 1600/1624 VRB03KT P6SM SCT200 FM160600 VRB03KT
                       P6SM BKN150 FM161000 17003KT P6SM SCT070
                       OVC100 FM161400 VRB03KT P6SM OVC070 FM162100
                       14008KT P6SM SCT040 OVC070=
201701151720 TAF KBLI 151720Z 1518/1618 VRB03KT P6SM SCT200 FM160600 VRB03KT
                       P6SM BKN150 FM161000 17003KT P6SM SCT070
                       OVC100=
201701151120 TAF KBLI 151120Z 1512/1612 VRB04KT P6SM BKN120 FM151500 VRB03KT
                       P6SM SCT200 FM160600 14003KT P6SM BKN150=
201701150525 TAF KBLI 150525Z 1506/1606 02004KT P6SM BKN250 FM150800 18003KT
                       P6SM BKN150 FM151800 VRB03KT P6SM SCT100
                       BKN150=
201701142320 TAF KBLI 142320Z 1500/1524 01004KT P6SM SCT200 FM150200 VRB03KT
                       P6SM SCT200 FM150800 18003KT P6SM BKN150
                       FM151800 VRB03KT P6SM SCT100 BKN150=
201701141720 TAF KBLI 141720Z 1418/1518 01004KT P6SM SCT200 FM142200 VRB03KT
                       P6SM BKN200 FM150800 15003KT P6SM OVC150=
201701141120 TAF KBLI 141120Z 1412/1512 02004KT P6SM SCT200 FM142200 VRB03KT
                       P6SM BKN200 FM150800 00000KT P6SM OVC150=
201701140520 TAF KBLI 140520Z 1406/1506 36006KT P6SM BKN150=
201701132320 TAF KBLI 132320Z 1400/1424 02008KT P6SM FEW150 OVC200=
201701131720 TAF KBLI 131720Z 1318/1418 02004KT P6SM SCT250 FM132000 VRB03KT
                       P6SM OVC200=
201701131120 TAF KBLI 131120Z 1312/1412 02004KT P6SM SCT250 FM132000 VRB03KT
                       P6SM OVC200=
201701130520 TAF KBLI 130520Z 1306/1406 02004KT P6SM SCT250 FM131200 VRB03KT
                       P6SM OVC200=
201701122320 TAF KBLI 122320Z 1300/1324 03008KT P6SM SKC FM130700 07003KT P6SM
                       SKC=
201701121720 TAF KBLI 121720Z 1218/1318 01004KT P6SM SKC=
201701121132 TAF KBLI 121132Z 1212/1312 04006KT P6SM SKC=
201701120520 TAF KBLI 120520Z 1206/1306 03007KT P6SM SKC=
201701112320 TAF KBLI 112320Z 1200/1224 02010KT P6SM SKC FM120600 04007KT P6SM
                       SKC=
201701112205 KBLI 112205Z 1122/1218 01010KT P6SM SKC FM120600 04007KT P6SM SKC=
201701111720 TAF KBLI 111720Z 1118/1218 04012G22KT P6SM SKC FM120000 03012KT
                       P6SM SKC FM120600 04007KT P6SM SKC=
201701111530 KBLI 111530Z 1116/1212 03018G28KT P6SM SKC FM120000 03012KT P6SM
                       SKC=
201701111120 TAF KBLI 111120Z 1112/1212 03024G40KT P6SM SKC FM112000 03018G25KT
                       P6SM SKC=
201701110520 TAF KBLI 110520Z 1106/1206 02022G40KT P6SM SKC FM111000 03022G35KT
                       P6SM SKC FM112000 03018G25KT P6SM SKC=
201701102320 TAF KBLI 102320Z 1100/1124 03025G45KT P6SM SKC FM110300 02028G40KT
                       P6SM SKC FM111000 03022G35KT P6SM SKC FM112000
                       03018G25KT P6SM SKC=
201701102100 KBLI 102100Z 1021/1118 01032G46KT P6SM SKC FM110300 02028G40KT
                       P6SM SKC FM111000 03022G35KT P6SM SKC=
201701101733 TAF KBLI 101733Z 1018/1118 02019G33KT P6SM FEW060 FM102000 02022G35KT
                       P6SM SKC=
201701101120 TAF KBLI 101120Z 1012/1112 02017G27KT P6SM BKN050 FM102000 02018G30KT
                       P6SM SCT050 FM110600 02015G25KT P6SM SKC=
201701100520 TAF KBLI 100520Z 1006/1106 01004KT P6SM SCT040 FM100800 02008KT
                       P6SM BKN050 BKN120 FM101400 01018G30KT P6SM
                       SKC=
201701100029 KBLI 100029Z 1000/1024 16011KT P6SM SCT028 BKN120 FM100800 02008KT
                       P6SM BKN050 BKN120 FM101400 01018G30KT P6SM
                       SKC=
201701092326 TAF KBLI 092326Z 1000/1024 16007KT P6SM BKN028 FM100800 02008KT
                       P6SM BKN050 BKN120 FM101400 01018G30KT P6SM
                       SKC=
201701091732 TAF KBLI 091732Z 0918/1018 16005KT P6SM VCSH BKN035 BKN070 FM092100
                       16008KT P6SM BKN070 OVC120 FM100800 02008KT
                       P6SM BKN120 FM101400 01018G30KT P6SM SKC=
201701091142 TAF KBLI 091142Z 0912/1012 17015G25KT 5SM -SHRA BR BKN018 OVC025
                       FM091600 16010KT P6SM VCSH SCT015 BKN040
                       FM100300 13006KT 5SM -SHRASN BR SCT015 BKN030
                       OVC045 FM100800 03020G30KT P6SM SCT050=
201701090540 TAF KBLI 090540Z 0906/1006 04006KT P6SM VCSH OVC025 FM090900 17011G19KT
                       5SM -RA BR SCT012 OVC018 FM091800 16011KT
                       P6SM SCT018 BKN045 FM100300 04007KT P6SM
                       VCSH BKN040=
201701090034 KBLI 090034Z 0901/0924 03013KT P6SM -RA FEW028 OVC040 WS020/12020KT
                       TEMPO 0901/0903 5SM -RA BR FM090300 07013KT
                       5SM -RA BR FEW022 OVC035 WS020/15030KT FM090700
                       13013G20KT P6SM -RA SCT020 OVC035 WS020/17030KT
                       FM091200 17013G20KT 5SM -RA BR BKN020 OVC035
                       FM091800 15009KT P6SM FEW020 BKN035 OVC050
                       PROB30 0918/0924 -SHRA=
201701082345 TAF KBLI 082345Z 0900/0924 05013G20KT P6SM -RA SCT035 OVC050 WS020/12020KT
                       FM090400 07013KT P6SM -RA OVC035 WS020/17025KT
                       FM091000 13013KT P6SM -SHRA FEW020 OVC035
                       WS020/18035KT FM091500 17013KT P6SM SCT035
                       OVC050
                      PROB30 0915/0918 -SHRA=
201701082057 KBLI 082057Z 0821/0918 03013KT P6SM -RA OVC060 WS020/12015KT FM090000
                       05013G20KT P6SM -RA SCT035 OVC050 WS020/12020KT
                       FM090400 07013KT P6SM -RA OVC035 WS020/17025KT
                       FM091000 13013KT P6SM -SHRA FEW020 OVC035
                       WS020/18035KT FM091500 17013KT P6SM SCT035
                       OVC050
                      PROB30 0915/0918 -SHRA=
201701081828 KBLI 081828Z 0818/0918 03015G25KT P6SM SCT060 OVC130 WS020/12015KT
                       FM082100 03015G25KT P6SM VCSH OVC060 WS020/12015KT
                       TEMPO 0821/0824 -RA FM090000 05013G20KT
                       P6SM -RA SCT035 OVC050 WS020/12020KT FM090400
                       07013KT P6SM -RA OVC035 WS020/17025KT FM091000
                       13013KT P6SM -SHRA FEW020 OVC035 WS020/18035KT
                       FM091500 17013KT P6SM SCT035 OVC050
                      PROB30 0915/0918 -SHRA=
201701081741 TAF KBLI 081741Z 0818/0918 02015G25KT P6SM VCSH OVC080 WS020/15030KT
                       FM082100 03014G22KT P6SM -RA SCT035 OVC045
                       FM090000 04009KT 5SM -RA BR SCT015 OVC030
                       FM090400 16014G21KT P6SM VCSH SCT015 BKN025
                       OVC045=
201701081552 KBLI 081552Z 0816/0912 02015G25KT P6SM VCSH SCT045 OVC080 WS020/15030KT
                       FM082100 03014G22KT P6SM -RA SCT035 OVC045
                       FM090000 04009KT 5SM -RA BR SCT015 OVC030
                       FM090400 16014G21KT P6SM VCSH SCT015 BKN025
                       OVC045=
201701081139 TAF KBLI 081139Z 0812/0912 03012G18KT P6SM SCT040 OVC050
                      TEMPO 0815/0818 -SHRA FM082100 03014G22KT
                       P6SM -RA SCT035 OVC045 FM090000 04009KT
                       5SM -RA BR SCT015 OVC030 FM090400 16014G21KT
                       P6SM VCSH SCT015 BKN025 OVC045=
201701080551 TAF KBLI 080551Z 0806/0906 03010KT P6SM SCT040 BKN050
                      TEMPO 0818/0822 -RA SCT030 OVC040 FM082200
                       03013G21KT P6SM VCSH BKN050 OVC080 FM090300
                       06009KT 6SM -RA SCT020 OVC035=
201701080053 KBLI 080053Z 0801/0824 04013KT P6SM OVC080 FM081200 02009KT P6SM
                       SCT035 OVC060
                      PROB30 0812/0818 -SN OVC035 FM081800 02012KT
                       P6SM SCT020 BKN035 OVC050
                      PROB30 0818/0821 -SN FM082100 02012KT 6SM
                       -PL BR SCT020 OVC035=
201701072351 TAF KBLI 072351Z 0800/0824 03013KT P6SM OVC080 FM080600 04009KT
                       P6SM BKN100 OVC200 FM081200 01007KT P6SM
                       FEW060 BKN100 OVC200=
201701072112 TAF AMD KBLI 072112Z 0721/0818 03013KT P6SM BKN100 OVC200
                      TEMPO 0721/0724 03013G23KT FM080600 04009KT
                       P6SM BKN100 OVC200 FM081200 01007KT P6SM
                       FEW060 BKN100 OVC200=
201701071743 TAF KBLI 071743Z 0718/0818 01004KT P6SM OVC200 FM072100 04009KT
                       P6SM FEW100 OVC200 FM080600 04009KT P6SM
                       BKN100 OVC200 FM081200 01007KT P6SM FEW060
                       BKN100 OVC200=
201701071146 TAF KBLI 071146Z 0712/0812 04006KT P6SM BKN200 FM072200 05008KT
                       P6SM BKN080 OVC120 FM080600 04010KT P6SM
                       BKN040 OVC060 FM080800 04012G21KT 5SM -RASN
                       SCT015 BKN030 OVC040=
201701070543 TAF KBLI 070543Z 0706/0806 03005KT P6SM SCT120 BKN200 FM072200
                       05010KT P6SM BKN080 OVC120 FM080500 04011KT
                       4SM -SN SCT015 BKN030 OVC040=
201701070025 KBLI 070025Z 0700/0724 01005KT P6SM BKN070 BKN200 FM070600 01005KT
                       P6SM SCT070 BKN200 FM071200 01005KT P6SM
                       SCT200 FM071800 04011KT P6SM SCT200=
201701062344 TAF KBLI 062344Z 0700/0724 06005KT P6SM BKN070 BKN150 FM070600
                       10010KT P6SM SCT070 BKN150 FM071200 07010KT
                       P6SM SCT070 SCT150=
201701061745 TAF KBLI 061745Z 0618/0718 05006KT P6SM VCSH OVC070 FM062100 12011KT
                       P6SM BKN070 BKN150 FM070600 10010KT P6SM
                       SCT070 BKN150 FM071200 07010KT P6SM SCT070
                       SCT150=
201701061702 KBLI 061702Z 0617/0712 01005KT P6SM OVC070 FM070100 08006KT P6SM
                       SCT100 BKN150 FM070800 06006KT P6SM SCT040
                       BKN200=
201701061123 TAF KBLI 061123Z 0612/0712 VRB03KT P6SM SCT045 OVC060 FM061700
                       15012G20KT P6SM BKN060 FM070100 08006KT
                       P6SM SCT100 BKN150 FM070800 06006KT P6SM
                       SCT040 BKN200=
201701060538 TAF KBLI 060538Z 0606/0706 14006KT P6SM SCT025 BKN045 OVC200 FM061400
                       16009G18KT P6SM OVC045 FM062000 15012G20KT
                       P6SM SCT050 BKN070 FM070100 07007KT P6SM
                       SCT120 SCT200=
201701052320 TAF KBLI 052320Z 0600/0624 00000KT P6SM SCT250 FM060600 14008KT
                       P6SM BKN200 FM061800 14010G16KT P6SM OVC060=
201701051732 TAF KBLI 051732Z 0518/0618 00000KT P6SM SKC FM060900 13009G15KT
                       P6SM SCT030 OVC070 FM061600 13010G16KT P6SM
                       SCT040 OVC120=
201701051123 TAF KBLI 051123Z 0512/0612 04005KT P6SM SKC FM051600 15005KT P6SM
                       SCT200 FM060400 15008KT P6SM SCT030 OVC040
                       PROB30 0610/0612 5SM -SN SCT015 BKN030 OVC040=
201701050537 TAF KBLI 050537Z 0506/0606 03006KT P6SM SKC FM051400 15005KT P6SM
                       SCT200 FM060400 15008KT P6SM SCT030 BKN040=
201701042320 TAF KBLI 042320Z 0500/0524 01014G21KT P6SM SKC FM050600 06007KT
                       P6SM SKC FM051400 14006KT P6SM SKC FM052100
                       14006KT P6SM SCT200=
201701041725 TAF KBLI 041725Z 0418/0518 03014G24KT P6SM SKC FM050600 04005KT
                       P6SM SKC FM051400 08004KT P6SM SKC=
201701041138 TAF KBLI 041138Z 0412/0512 03015G25KT P6SM SKC FM042300 04006KT
                       P6SM SKC=
201701040532 TAF KBLI 040532Z 0406/0506 03022G34KT P6SM SKC FM041300 03015G25KT
                       P6SM SKC FM042300 02006KT P6SM SKC=
201701032320 TAF KBLI 032320Z 0400/0424 03023G34KT P6SM SKC FM041300 03019G27KT
                       P6SM SKC FM042300 01012KT P6SM SKC=
201701032111 TAF AMD KBLI 032111Z 0321/0418 03022G33KT P6SM SKC FM041300 03019G27KT
                       P6SM SKC=
201701031720 TAF KBLI 031720Z 0318/0418 04014G22KT P6SM SKC FM040900 04019G27KT
                       P6SM SKC=
201701031120 TAF KBLI 031120Z 0312/0412 02015G28KT P6SM SKC=
201701030528 TAF KBLI 030528Z 0306/0406 02017G30KT P6SM SKC=
201701022320 TAF KBLI 022320Z 0300/0324 03022G34KT P6SM SKC FM030400 02015G27KT
                       P6SM SKC FM032000 02022G29KT P6SM SKC=
201701022131 KBLI 022131Z 0222/0318 02019G33KT P6SM SKC FM030400 02015G27KT
                       P6SM SKC=
201701021731 TAF KBLI 021731Z 0218/0318 02025G44KT P6SM SKC FM022200 02022G32KT
                       P6SM SKC FM030400 02015G27KT P6SM SKC=
201701021125 TAF KBLI 021125Z 0212/0312 03024G35KT P6SM SCT120 FM022200 02014G25KT
                       P6SM SKC=
201701020534 TAF KBLI 020534Z 0206/0306 03024G35KT P6SM BKN120 FM030100 02014G25KT
                       P6SM SKC=
201701012325 TAF KBLI 012325Z 0200/0224 02022G36KT P6SM BKN120 FM020600 01018G32KT
                       P6SM SCT120=
201701011723 TAF KBLI 011723Z 0118/0218 01017G25KT P6SM SCT100 BKN150 FM011900
                       02025G35KT P6SM SCT100 BKN150 FM020300 01018G28KT
                       P6SM SCT100 BKN150=
201701011405 TAF AMD KBLI 011405Z 0114/0212 34007KT P6SM SCT003 OVC080 FM011600
                       02012KT P6SM SCT012 BKN080 FM011900 02025G35KT
                       P6SM SCT080 BKN250 FM020300 01015G25KT P6SM
                       SCT250=
201701011135 TAF KBLI 011135Z 0112/0212 35003KT P6SM BKN004 OVC013
                      TEMPO 0112/0116 4SM -SHSN OVC004 FM011600
                       02012KT P6SM SCT012 BKN025 FM011900 02025G35KT
                       P6SM SCT080 BKN250 FM020300 01015G25KT P6SM
                       SCT250=
201701010530 TAF KBLI 010530Z 0106/0206 29010KT P6SM -RA BKN004 OVC011
                      TEMPO 0106/0110 SCT006 OVC015 FM011000 03012KT
                       P6SM SCT012 BKN025
                      TEMPO 0110/0114 2SM -SN OVC004 FM011700 02018G30KT
                       P6SM SCT035 FM012000 02025G35KT P6SM FEW040=