##########################################################
# Query made at 02/16/2025 21:59:35 UTC
# Time interval: from 06/01/2018 00:00  to 06/30/2018 23:59  UTC
##########################################################

##########################################################
# KBLI, Bellingham, Bellingham International Airport (United States)
# WMO index: -----. WIGOS ID: Unknown
# Latitude 48-47-58N. Longitude 122-32-21W. Altitude 48 m.
##########################################################

###################################
#  METAR/SPECI from KBLI
###################################
201806302353 METAR KBLI 302353Z 16009KT 10SM OVC065 16/12 A3015 RMK AO2 SLP215 60003 T01560122 10156 20144 58008=
201806302300 SPECI KBLI 302300Z 16012KT 10SM FEW007 BKN014 OVC038 16/12 A3016 RMK AO2 T01560122=
201806302253 METAR KBLI 302253Z 16009KT 10SM FEW010 BKN014 OVC038 16/13 A3016 RMK AO2 SLP219 T01560128=
201806302153 METAR KBLI 302153Z 16009KT 8SM FEW008 BKN014 OVC038 14/13 A3017 RMK AO2 SLP221 T01440128=
201806302053 METAR KBLI 302053Z 18009KT 10SM SCT014 OVC041 14/12 A3017 RMK AO2 RAB00E28 SLP223 P0000 60003 T01440122 51004=
201806301953 METAR KBLI 301953Z 16009KT 8SM SCT012 OVC042 14/12 A3017 RMK AO2 RAE39 SLP223 P0001 T01440122=
201806301946 SPECI KBLI 301946Z 15009KT 5SM BR SCT012 OVC044 14/12 A3017 RMK AO2 RAE39 P0001 T01440122=
201806301856 SPECI KBLI 301856Z 17008KT 5SM -RA BR FEW009 BKN012 OVC060 14/12 A3017 RMK AO2 P0000 T01440122=
201806301853 METAR KBLI 301853Z 17008KT 5SM -RA BR SCT035 BKN045 OVC060 14/12 A3017 RMK AO2 SLP222 P0002 T01440122=
201806301753 METAR KBLI 301753Z 16009KT 10SM -RA FEW010 OVC040 14/12 A3016 RMK AO2 SLP219 P0002 60002 T01440117 10156 20144 53002=
201806301653 METAR KBLI 301653Z 16010KT 10SM -RA FEW025 BKN065 OVC080 15/12 A3016 RMK AO2 RAB16 SLP219 P0000 T01500117=
201806301553 METAR KBLI 301553Z 17011KT 10SM FEW025 FEW049 OVC100 16/11 A3014 RMK AO2 SLP213 T01560111=
201806301453 METAR KBLI 301453Z 17009KT 10SM SCT021 BKN034 OVC100 15/11 A3016 RMK AO2 SLP217 T01500111 53001=
201806301408 SPECI KBLI 301408Z 17007KT 10SM BKN023 OVC036 15/11 A3016 RMK AO2 T01500111=
201806301353 METAR KBLI 301353Z 16008KT 10SM SCT024 OVC037 14/11 A3015 RMK AO2 SLP216 T01440111=
201806301253 METAR KBLI 301253Z AUTO 17010KT 10SM FEW060 BKN120 14/12 A3015 RMK AO2 SLP217 T01440122=
201806301153 METAR KBLI 301153Z AUTO 18006KT 10SM FEW031 SCT044 BKN120 14/12 A3015 RMK AO2 SLP216 70006 T01440122 10161 20144 53001=
201806301053 METAR KBLI 301053Z AUTO 18004KT 10SM FEW006 OVC042 14/12 A3015 RMK AO2 SLP215 T01440122=
201806300953 METAR KBLI 300953Z AUTO 17005KT 10SM OVC040 15/12 A3014 RMK AO2 SLP214 T01500122=
201806300853 METAR KBLI 300853Z AUTO 16007KT 10SM OVC036 15/12 A3015 RMK AO2 SLP215 T01500122 58003=
201806300753 METAR KBLI 300753Z AUTO 16005KT 10SM CLR 15/12 A3015 RMK AO2 SLP216 T01500122 401780139=
201806300653 METAR KBLI 300653Z AUTO 16003KT 10SM OVC065 16/13 A3016 RMK AO2 SLP220 T01610128=
201806300553 METAR KBLI 300553Z AUTO 00000KT 10SM SCT030 OVC046 16/13 A3016 RMK AO2 SLP218 T01610133 10178 20156 51005=
201806300453 METAR KBLI 300453Z 00000KT 10SM OVC030 16/13 A3016 RMK AO2 SLP218 T01610128=
201806300353 METAR KBLI 300353Z 00000KT 10SM SCT031 BKN039 OVC065 17/12 A3014 RMK AO2 SLP214 T01670122=
201806300253 METAR KBLI 300253Z 19003KT 10SM BKN031 OVC040 17/12 A3014 RMK AO2 SLP213 T01720122 53002=
201806300153 METAR KBLI 300153Z 17004KT 10SM OVC040 18/13 A3013 RMK AO2 SLP210 T01780128=
201806300053 METAR KBLI 300053Z 20004KT 10SM FEW020 SCT040 OVC055 17/12 A3013 RMK AO2 SLP209 T01720122=
201806292353 METAR KBLI 292353Z 16007KT 10SM FEW020 SCT040 OVC060 17/13 A3014 RMK AO2 RAB04E14 SLP210 P0000 60002 T01720128 10178 20144 58000=
201806292253 METAR KBLI 292253Z VRB06KT 8SM FEW020 SCT040 OVC050 17/13 A3014 RMK AO2 RAE2154 SLP212 P0000 T01670128=
201806292153 METAR KBLI 292153Z 17005KT 8SM -RA SCT020 OVC050 16/13 A3013 RMK AO2 SLP210 P0001 T01610128=
201806292053 METAR KBLI 292053Z VRB05KT 10SM -RA OVC060 16/13 A3014 RMK AO2 RAB43 SLP211 P0000 60001 T01610128 51005=
201806291953 METAR KBLI 291953Z 19004KT 10SM BKN040 OVC047 16/12 A3014 RMK AO2 RAE30 SLP210 P0000 T01560122=
201806291853 METAR KBLI 291853Z 17003KT 8SM -RA FEW020 SCT040 OVC050 15/12 A3013 RMK AO2 RAE22B53 SLP207 P0001 T01500122=
201806291753 METAR KBLI 291753Z 18005KT 5SM -RA SCT047 OVC080 14/12 A3012 RMK AO2 SLP206 P0002 60004 T01440117 10150 20139 51008=
201806291653 METAR KBLI 291653Z 00000KT 6SM -RA OVC035 14/12 A3012 RMK AO2 RAB1556 SLP206 P0002 T01440117=
201806291553 METAR KBLI 291553Z 16005KT 10SM FEW037 OVC050 15/11 A3010 RMK AO2 SLP200 T01500111=
201806291453 METAR KBLI 291453Z 18004KT 10SM OVC055 15/11 A3010 RMK AO2 SLP197 T01500106 51003=
201806291353 METAR KBLI 291353Z 17005KT 10SM OVC055 14/11 A3010 RMK AO2 SLP197 T01440106=
201806291253 METAR KBLI 291253Z AUTO 17004KT 10SM FEW044 BKN055 OVC075 14/11 A3009 RMK AO2 SLP196 T01440106=
201806291153 METAR KBLI 291153Z AUTO 16007KT 10SM BKN049 OVC070 14/11 A3009 RMK AO2 SLP194 T01440106 10150 20144 55001=
201806291053 METAR KBLI 291053Z AUTO 17005KT 10SM OVC043 15/10 A3009 RMK AO2 SLP194 T01500100=
201806290953 METAR KBLI 290953Z AUTO 16004KT 10SM SCT049 BKN075 OVC085 14/09 A3008 RMK AO2 SLP193 T01440094=
201806290853 METAR KBLI 290853Z AUTO 17007KT 10SM OVC045 15/09 A3009 RMK AO2 SLP196 T01500094 53000=
201806290753 METAR KBLI 290753Z AUTO 18005KT 10SM OVC042 14/10 A3009 RMK AO2 SLP193 T01440100 401720128=
201806290653 METAR KBLI 290653Z AUTO 18007KT 10SM OVC050 14/10 A3008 RMK AO2 SLP193 T01440100=
201806290553 METAR KBLI 290553Z AUTO 17008KT 10SM BKN045 OVC070 14/09 A3009 RMK AO2 RAE0454 SLP195 P0000 60000 T01440094 10172 20144 51004=
201806290453 METAR KBLI 290453Z 17007KT 10SM -RA SCT041 BKN050 OVC070 15/09 A3009 RMK AO2 RAB36 SLP195 P0000 T01500094=
201806290353 METAR KBLI 290353Z 17008KT 10SM BKN049 OVC065 16/09 A3008 RMK AO2 SLP192 T01560094=
201806290253 METAR KBLI 290253Z 16009KT 10SM FEW050 OVC070 16/09 A3008 RMK AO2 SLP191 T01610089 58002=
201806290153 METAR KBLI 290153Z 17009KT 10SM OVC070 16/09 A3009 RMK AO2 SLP193 T01610089=
201806290053 METAR KBLI 290053Z 17009KT 10SM BKN070 OVC090 17/09 A3008 RMK AO2 SLP192 T01670094=
201806282353 METAR KBLI 282353Z 17008KT 10SM BKN075 BKN100 17/09 A3008 RMK AO2 SLP193 60000 T01670094 10172 20144 51001=
201806282253 METAR KBLI 282253Z 17012KT 10SM SCT090 17/09 A3008 RMK AO2 SLP193 T01720094=
201806282153 METAR KBLI 282153Z 16010KT 10SM FEW029 SCT046 OVC100 16/09 A3008 RMK AO2 RAB04E52 SLP193 P0000 T01560094=
201806282053 METAR KBLI 282053Z 16014G21KT 10SM OVC100 16/09 A3008 RMK AO2 SLP192 T01560089 50004=
201806281953 METAR KBLI 281953Z 17010KT 10SM OVC090 16/09 A3008 RMK AO2 SLP193 T01560094=
201806281853 METAR KBLI 281853Z 17012G19KT 10SM FEW060 SCT070 OVC100 16/09 A3008 RMK AO2 SLP191 T01560094=
201806281753 METAR KBLI 281753Z 17012G19KT 10SM FEW033 BKN060 OVC110 15/09 A3007 RMK AO2 SLP188 60000 T01500094 10150 20128 51008=
201806281653 METAR KBLI 281653Z 17011KT 10SM FEW030 BKN060 15/09 A3006 RMK AO2 SLP185 T01500094=
201806281553 METAR KBLI 281553Z 17011KT 10SM OVC031 14/09 A3006 RMK AO2 SLP184 T01440089=
201806281500 SPECI KBLI 281500Z 15010KT 10SM SCT028 14/09 A3005 RMK AO2 T01390089=
201806281453 METAR KBLI 281453Z 16009KT 10SM BKN028 14/08 A3004 RMK AO2 SLP180 60000 T01390083 53007=
201806281353 METAR KBLI 281353Z 15006KT 10SM FEW037 13/09 A3003 RMK AO2 SLP176 T01280089=
201806281332 SPECI KBLI 281332Z 15008KT 10SM SCT027 BKN037 13/09 A3003 RMK AO2 T01330089=
201806281253 METAR KBLI 281253Z AUTO 15005KT 10SM BKN027 OVC035 13/09 A3003 RMK AO2 RAB07E26 SLP176 P0000 T01330089=
201806281153 METAR KBLI 281153Z AUTO 17004KT 10SM BKN026 OVC095 13/09 A3002 RMK AO2 SLP173 T01330089 10156 20128 53004=
201806281145 SPECI KBLI 281145Z AUTO 15006KT 10SM BKN026 BKN038 OVC095 13/09 A3002 RMK AO2 T01330089=
201806281053 METAR KBLI 281053Z AUTO 15005KT 10SM FEW029 BKN041 BKN095 13/09 A3002 RMK AO2 SLP171 T01330089=
201806280953 METAR KBLI 280953Z AUTO 16005KT 10SM OVC042 14/09 A3002 RMK AO2 SLP170 T01390089=
201806280853 METAR KBLI 280853Z AUTO 17003KT 10SM SCT050 OVC070 14/09 A3001 RMK AO2 SLP169 T01440089 55001=
201806280753 METAR KBLI 280753Z AUTO 18003KT 10SM BKN060 OVC080 15/08 A3001 RMK AO2 SLP168 T01500083 402110100=
201806280653 METAR KBLI 280653Z AUTO 16007KT 10SM OVC075 15/08 A3001 RMK AO2 SLP169 T01500078=
201806280553 METAR KBLI 280553Z AUTO 16009KT 10SM OVC100 15/08 A3002 RMK AO2 SLP170 T01500083 10200 20150 53005=
201806280453 METAR KBLI 280453Z 17008KT 10SM CLR 16/08 A3001 RMK AO2 SLP169 T01610078=
201806280353 METAR KBLI 280353Z 17006KT 10SM CLR 16/09 A3001 RMK AO2 SLP167 T01610094=
201806280253 METAR KBLI 280253Z 16008KT 10SM CLR 17/09 A3000 RMK AO2 SLP166 T01720094 56001=
201806280153 METAR KBLI 280153Z 16009KT 10SM CLR 18/10 A3000 RMK AO2 SLP166 T01780100=
201806280053 METAR KBLI 280053Z 17008KT 10SM CLR 19/10 A3000 RMK AO2 SLP164 T01890100=
201806272353 METAR KBLI 272353Z 17010KT 10SM CLR 20/11 A3001 RMK AO2 SLP167 T02000106 10211 20167 58007=
201806272253 METAR KBLI 272253Z 18007KT 150V220 10SM CLR 20/10 A3002 RMK AO2 SLP171 T02000100=
201806272153 METAR KBLI 272153Z VRB04KT 10SM CLR 19/07 A3002 RMK AO2 SLP172 T01940072=
201806272053 METAR KBLI 272053Z 28005KT 10SM CLR 19/09 A3003 RMK AO2 SLP175 T01940089 58006=
201806271953 METAR KBLI 271953Z VRB05KT 10SM CLR 19/09 A3004 RMK AO2 SLP179 T01890094=
201806271853 METAR KBLI 271853Z VRB05KT 10SM FEW019 18/11 A3004 RMK AO2 SLP179 T01780106=
201806271812 SPECI KBLI 271812Z 16006KT 10SM SCT018 17/11 A3004 RMK AO2 T01670111=
201806271800 SPECI KBLI 271800Z 15008KT 10SM BKN018 17/11 A3005 RMK AO2 T01670111=
201806271753 METAR KBLI 271753Z VRB06KT 10SM SCT018 BKN060 17/11 A3005 RMK AO2 SLP181 T01670111 10167 20128 58004=
201806271653 METAR KBLI 271653Z 19006KT 10SM BKN055 16/11 A3006 RMK AO2 SLP185 T01560106=
201806271553 METAR KBLI 271553Z 16008KT 10SM BKN060 14/10 A3006 RMK AO2 SLP185 T01440100=
201806271453 METAR KBLI 271453Z 18006KT 10SM BKN060 14/10 A3006 RMK AO2 SLP185 T01390100 55001=
201806271353 METAR KBLI 271353Z 16006KT 10SM CLR 13/09 A3005 RMK AO2 SLP183 T01330094=
201806271253 METAR KBLI 271253Z AUTO 17005KT 10SM CLR 13/09 A3006 RMK AO2 SLP184 T01280089=
201806271153 METAR KBLI 271153Z AUTO 18005KT 10SM CLR 13/09 A3006 RMK AO2 SLP186 T01280089 10144 20100 56011=
201806271053 METAR KBLI 271053Z AUTO 18005KT 10SM CLR 12/09 A3007 RMK AO2 SLP187 T01220094=
201806270953 METAR KBLI 270953Z AUTO 00000KT 10SM CLR 11/09 A3008 RMK AO2 SLP193 T01110089=
201806270853 METAR KBLI 270853Z AUTO 00000KT 10SM CLR 11/08 A3010 RMK AO2 SLP197 T01060083 56009=
201806270753 METAR KBLI 270753Z AUTO 00000KT 10SM CLR 12/09 A3010 RMK AO2 SLP199 T01170089 402060117=
201806270653 METAR KBLI 270653Z AUTO 00000KT 10SM CLR 13/09 A3011 RMK AO2 SLP202 T01330089=
201806270553 METAR KBLI 270553Z AUTO 16003KT 10SM CLR 13/10 A3012 RMK AO2 SLP206 T01330100 10206 20122 58006=
201806270453 METAR KBLI 270453Z 00000KT 10SM CLR 13/10 A3013 RMK AO2 SLP210 T01330100=
201806270353 METAR KBLI 270353Z 17003KT 10SM CLR 16/09 A3013 RMK AO2 SLP210 T01610094=
201806270253 METAR KBLI 270253Z 18003KT 10SM CLR 19/08 A3014 RMK AO2 SLP213 T01890078 56010=
201806270153 METAR KBLI 270153Z 00000KT 10SM CLR 20/06 A3015 RMK AO2 SLP215 T02000061=
201806270053 METAR KBLI 270053Z 29005KT 10SM CLR 20/07 A3016 RMK AO2 SLP220 T02000067=
201806262353 METAR KBLI 262353Z 18006KT 10SM CLR 20/09 A3017 RMK AO2 SLP223 T02000089 10200 20161 58011=
201806262253 METAR KBLI 262253Z 16004KT 10SM CLR 19/08 A3019 RMK AO2 SLP227 T01940083=
201806262153 METAR KBLI 262153Z VRB06KT 10SM CLR 19/08 A3020 RMK AO2 SLP231 T01890078=
201806262053 METAR KBLI 262053Z 22005KT 10SM SCT080 18/08 A3021 RMK AO2 SLP234 T01830083 56003=
201806261953 METAR KBLI 261953Z 19007KT 10SM BKN080 18/08 A3021 RMK AO2 SLP236 T01780083=
201806261853 METAR KBLI 261853Z 16010KT 10SM SCT050 BKN080 17/09 A3021 RMK AO2 SLP235 T01720089=
201806261753 METAR KBLI 261753Z 15010KT 10SM BKN080 16/10 A3021 RMK AO2 SLP237 T01610100 10161 20122 51010=
201806261653 METAR KBLI 261653Z 16009KT 10SM SCT034 BKN055 BKN080 15/09 A3021 RMK AO2 SLP235 T01500094=
201806261553 METAR KBLI 261553Z 17009KT 10SM SCT030 BKN040 BKN080 14/09 A3019 RMK AO2 SLP230 T01440089=
201806261453 METAR KBLI 261453Z 17006KT 10SM SCT030 BKN050 BKN080 14/10 A3018 RMK AO2 SLP227 T01390100 51009=
201806261353 METAR KBLI 261353Z 17006KT 10SM BKN030 BKN075 13/11 A3018 RMK AO2 SLP225 T01330106=
201806261334 SPECI KBLI 261334Z AUTO 16005KT 10SM BKN030 OVC075 13/11 A3017 RMK AO2 T01330106=
201806261319 SPECI KBLI 261319Z AUTO 17005KT 10SM BKN028 BKN055 OVC075 13/11 A3017 RMK AO2 T01330106=
201806261253 METAR KBLI 261253Z AUTO 17005KT 10SM FEW055 OVC075 13/10 A3017 RMK AO2 SLP221 T01280100=
201806261153 METAR KBLI 261153Z AUTO 16005KT 10SM FEW028 BKN048 OVC075 13/10 A3016 RMK AO2 SLP218 60006 70008 T01280100 10144 20117 51007=
201806261134 SPECI KBLI 261134Z AUTO 17004KT 10SM SCT026 OVC046 12/11 A3016 RMK AO2 T01220106=
201806261124 SPECI KBLI 261124Z AUTO 18003KT 10SM BKN026 BKN046 OVC075 12/11 A3015 RMK AO2 T01220106=
201806261053 METAR KBLI 261053Z AUTO 17004KT 10SM BKN045 OVC070 12/10 A3015 RMK AO2 RAE08 SLP216 P0000 T01220100=
201806260953 METAR KBLI 260953Z AUTO 15006KT 4SM RA BR FEW031 BKN042 OVC060 12/11 A3015 RMK AO2 RAB07 SLP216 P0006 T01220106=
201806260853 METAR KBLI 260853Z AUTO 16004KT 10SM BKN049 BKN060 OVC070 13/09 A3014 RMK AO2 SLP211 T01330094 53004=
201806260753 METAR KBLI 260753Z AUTO 18003KT 10SM FEW075 12/09 A3013 RMK AO2 SLP210 T01220089 401890122=
201806260653 METAR KBLI 260653Z AUTO 21004KT 10SM CLR 14/08 A3013 RMK AO2 SLP208 T01390078=
201806260553 METAR KBLI 260553Z AUTO 00000KT 10SM SCT075 14/08 A3013 RMK AO2 SLP207 T01440083 10178 20144 53009=
201806260453 METAR KBLI 260453Z 18004KT 10SM BKN060 OVC080 15/09 A3011 RMK AO2 SLP203 T01500094=
201806260353 METAR KBLI 260353Z 17005KT 10SM BKN065 16/09 A3010 RMK AO2 SLP199 T01610089=
201806260253 METAR KBLI 260253Z 16006KT 10SM CLR 16/09 A3010 RMK AO2 SLP198 T01610089 51005=
201806260153 METAR KBLI 260153Z 17009KT 10SM BKN075 17/09 A3009 RMK AO2 SLP196 T01720094=
201806260053 METAR KBLI 260053Z 18007KT 10SM BKN070 BKN080 17/09 A3010 RMK AO2 SLP197 T01720094=
201806252353 METAR KBLI 252353Z 16009KT 10SM BKN070 BKN080 17/09 A3009 RMK AO2 SLP194 T01720089 10189 20161 53007=
201806252253 METAR KBLI 252253Z 16012KT 10SM CLR 18/09 A3007 RMK AO2 SLP190 T01830094=
201806252153 METAR KBLI 252153Z 17010G14KT 10SM SCT050 BKN070 18/08 A3007 RMK AO2 SLP188 T01830083=
201806252053 METAR KBLI 252053Z 17013G20KT 10SM FEW040 BKN060 18/09 A3006 RMK AO2 SLP186 T01830089 53012=
201806251953 METAR KBLI 251953Z 17011G18KT 10SM CLR 18/09 A3004 RMK AO2 SLP179 T01780094=
201806251853 METAR KBLI 251853Z 18010KT 10SM FEW039 SCT050 17/09 A3003 RMK AO2 SLP176 T01720094=
201806251753 METAR KBLI 251753Z VRB06KT 10SM FEW037 BKN060 17/07 A3003 RMK AO2 SLP174 60002 T01670072 10167 20128 51018=
201806251653 METAR KBLI 251653Z 22007KT 10SM OVC055 16/07 A3001 RMK AO2 SLP169 T01560072=
201806251553 METAR KBLI 251553Z 18006KT 10SM FEW010 SCT048 BKN055 14/11 A2999 RMK AO2 RAE1455 SLP163 P0000 T01440111=
201806251453 METAR KBLI 251453Z 17008KT 10SM -RA FEW010 BKN055 14/11 A2997 RMK AO2 SLP156 P0002 60002 T01390111 53012=
201806251353 METAR KBLI 251353Z 16009KT 10SM -RA OVC075 14/11 A2995 RMK AO2 RAB25 SLP148 P0000 T01390106=
201806251309 SPECI KBLI 251309Z AUTO 16010KT 10SM FEW010 SCT075 BKN110 14/11 A2995 RMK AO2 T01390106=
201806251253 METAR KBLI 251253Z AUTO 16008KT 10SM BKN010 BKN110 13/11 A2994 RMK AO2 SLP144 T01330106=
201806251248 SPECI KBLI 251248Z AUTO 16009KT 10SM BKN010 BKN110 13/11 A2994 RMK AO2 CIG 008V014=
201806251153 METAR KBLI 251153Z AUTO 15012KT 10SM FEW014 SCT022 BKN037 13/11 A2992 RMK AO2 SLP138 60016 70017 T01330106 10156 20128 53004=
201806251135 SPECI KBLI 251135Z AUTO 15009G15KT 10SM SCT010 13/11 A2991 RMK AO2 T01280106=
201806251117 SPECI KBLI 251117Z AUTO 16010KT 10SM BKN010 OVC060 13/11 A2991 RMK AO2 CIG 008V014 T01330106=
201806251102 SPECI KBLI 251102Z AUTO 15012G19KT 10SM FEW008 SCT046 OVC055 13/11 A2990 RMK AO2 T01330111=
201806251053 METAR KBLI 251053Z AUTO 16012KT 10SM FEW046 BKN055 OVC070 13/11 A2990 RMK AO2 SLP129 T01330111=
201806251020 SPECI KBLI 251020Z AUTO 17012KT 10SM FEW008 BKN055 OVC095 13/12 A2990 RMK AO2 T01330117=
201806251001 SPECI KBLI 251001Z AUTO 17008KT 10SM FEW009 BKN024 OVC055 14/12 A2991 RMK AO2 T01440122=
201806250953 METAR KBLI 250953Z AUTO 17010KT 10SM FEW010 BKN013 OVC050 14/12 A2991 RMK AO2 RAE03 SLP133 P0000 T01440122=
201806250921 SPECI KBLI 250921Z AUTO 19006KT 10SM FEW007 BKN011 OVC032 14/13 A2992 RMK AO2 RAE03 P0000 T01440128=
201806250911 SPECI KBLI 250911Z AUTO 20005KT 10SM FEW007 SCT011 OVC032 14/13 A2992 RMK AO2 RAE03 P0000 T01440128=
201806250853 METAR KBLI 250853Z AUTO 00000KT 10SM -RA BKN032 OVC046 15/13 A2991 RMK AO2 RAE09B46 SLP134 P0000 60016 T01500128 53001=
201806250753 METAR KBLI 250753Z AUTO 11014KT 9SM -RA BKN070 OVC090 15/13 A2986 RMK AO2 SLP117 P0012 T01500128 402220122=
201806250710 SPECI KBLI 250710Z AUTO 08008KT 7SM RA FEW015 SCT055 OVC075 14/13 A2989 RMK AO2 LTG DSNT E PRESFR P0005 T01440128=
201806250653 METAR KBLI 250653Z AUTO VRB03KT 5SM -RA BR OVC012 15/13 A2992 RMK AO2 SLP139 P0004 T01500133=
201806250635 SPECI KBLI 250635Z AUTO VRB04KT 10SM -RA BKN012 OVC024 15/13 A2992 RMK AO2 P0001 T01500128=
201806250622 SPECI KBLI 250622Z AUTO VRB03KT 10SM -RA FEW009 BKN024 OVC032 16/13 A2991 RMK AO2 LTG DSNT E P0001 T01560133=
201806250553 METAR KBLI 250553Z AUTO 00000KT 10SM -RA BKN085 OVC100 15/13 A2991 RMK AO2 LTG DSNT NE AND E RAB03 SLP133 P0001 60001 T01500128 10206 20150 51021=
201806250453 METAR KBLI 250453Z 00000KT 10SM SCT008 BKN110 16/13 A2989 RMK AO2 LTG DSNT NE SLP127 T01560133=
201806250434 SPECI KBLI 250434Z 16004KT 10SM FEW008 16/13 A2989 RMK AO2 T01560128=
201806250353 METAR KBLI 250353Z 22003KT 10SM FEW120 16/13 A2987 RMK AO2 SLP120 T01610133=
201806250253 METAR KBLI 250253Z 00000KT 10SM CLR 18/13 A2985 RMK AO2 SLP112 T01780133 56008=
201806250153 METAR KBLI 250153Z 26004KT 10SM CLR 19/13 A2985 RMK AO2 SLP113 T01890128=
201806250053 METAR KBLI 250053Z 24007KT 190V260 10SM SCT100 20/12 A2985 RMK AO2 SLP115 T02000117=
201806242353 METAR KBLI 242353Z 26003KT 10SM CLR 21/12 A2987 RMK AO2 SLP120 T02060122 10222 20156 56021=
201806242253 METAR KBLI 242253Z VRB06KT 10SM FEW110 22/12 A2989 RMK AO2 SLP128 T02170122=
201806242153 METAR KBLI 242153Z VRB04KT 10SM CLR 22/13 A2991 RMK AO2 SLP132 T02170133=
201806242053 METAR KBLI 242053Z VRB05KT 10SM CLR 21/13 A2993 RMK AO2 SLP141 T02110133 58025=
201806241953 METAR KBLI 241953Z 16004KT 10SM CLR 19/13 A2996 RMK AO2 SLP151 T01890128=
201806241853 METAR KBLI 241853Z 16005KT 10SM FEW010 18/13 A2998 RMK AO2 SLP159 T01780128=
201806241753 METAR KBLI 241753Z VRB05KT 10SM SCT005 16/12 A3000 RMK AO2 SLP166 T01560117 10167 20122 56018=
201806241721 SPECI KBLI 241721Z 16005KT 10SM CLR 16/12 A3001 RMK AO2 T01560117=
201806241653 METAR KBLI 241653Z 17006KT 10SM BKN007 15/12 A3001 RMK AO2 PRESFR SLP170 T01500117=
201806241553 METAR KBLI 241553Z VRB04KT 2SM BR OVC004 14/12 A3004 RMK AO2 SLP180 T01390117=
201806241453 METAR KBLI 241453Z 16006KT 2SM BR OVC003 13/11 A3006 RMK AO2 SLP184 T01280111 56011=
201806241402 SPECI KBLI 241402Z 17006KT 2SM BR OVC003 13/11 A3006 RMK AO2 T01280111=
201806241353 METAR KBLI 241353Z 16006KT 10SM OVC003 12/11 A3006 RMK AO2 SLP186 T01220111=
201806241303 SPECI KBLI 241303Z AUTO 17007KT 10SM BKN003 13/11 A3007 RMK AO2 T01280111=
201806241253 METAR KBLI 241253Z AUTO 17009KT 10SM FEW005 13/11 A3008 RMK AO2 SLP190 T01280106=
201806241238 SPECI KBLI 241238Z AUTO 17008KT 10SM FEW005 13/11 A3008 RMK AO2 T01280111=
201806241153 METAR KBLI 241153Z AUTO VRB04KT 10SM CLR 13/11 A3009 RMK AO2 SLP195 T01280111 10156 20128 56004=
201806241053 METAR KBLI 241053Z AUTO 16005KT 10SM CLR 13/11 A3009 RMK AO2 SLP196 T01330111=
201806240953 METAR KBLI 240953Z AUTO 18005KT 10SM CLR 14/11 A3010 RMK AO2 SLP198 T01390111=
201806240853 METAR KBLI 240853Z AUTO 17005KT 10SM CLR 14/12 A3010 RMK AO2 SLP199 T01390117 58008=
201806240753 METAR KBLI 240753Z AUTO 16004KT 10SM CLR 14/12 A3011 RMK AO2 SLP203 T01440117 402170139=
201806240653 METAR KBLI 240653Z AUTO 16006KT 10SM CLR 16/12 A3012 RMK AO2 SLP206 T01560117=
201806240553 METAR KBLI 240553Z AUTO 18005KT 10SM CLR 16/12 A3013 RMK AO2 SLP208 T01560117 10217 20156 56001=
201806240453 METAR KBLI 240453Z 18004KT 10SM CLR 16/12 A3013 RMK AO2 SLP209 T01560117=
201806240353 METAR KBLI 240353Z 17003KT 10SM FEW080 17/12 A3012 RMK AO2 SLP206 T01720122=
201806240253 METAR KBLI 240253Z 16005KT 10SM FEW080 19/12 A3013 RMK AO2 SLP208 T01940122 56010=
201806240153 METAR KBLI 240153Z 16006KT 10SM FEW080 20/12 A3013 RMK AO2 SLP209 T02000122=
201806240053 METAR KBLI 240053Z 19006KT 10SM CLR 21/11 A3015 RMK AO2 SLP215 T02110111=
201806232353 METAR KBLI 232353Z 14007KT 10SM FEW047 22/10 A3016 RMK AO2 SLP218 T02170100 10217 20167 58005=
201806232253 METAR KBLI 232253Z VRB03KT 10SM BKN049 21/11 A3017 RMK AO2 SLP222 T02110106=
201806232153 METAR KBLI 232153Z VRB04KT 10SM FEW047 21/11 A3017 RMK AO2 SLP222 T02060111=
201806232053 METAR KBLI 232053Z 16008KT 10SM CLR 20/11 A3017 RMK AO2 SLP223 T02000106 58001=
201806231953 METAR KBLI 231953Z 19007KT 160V230 10SM FEW024 19/12 A3018 RMK AO2 SLP226 T01940122=
201806231918 SPECI KBLI 231918Z VRB03KT 10SM SCT027 19/12 A3018 RMK AO2 T01890122=
201806231853 METAR KBLI 231853Z 10SM OVC025 18/12 A3018 RMK AO2 SLP225 T01780122=
201806231753 METAR KBLI 231753Z 17005KT 10SM OVC015 17/12 A3018 RMK AO2 SLP224 T01670122 10172 20139 51007=
201806231712 SPECI KBLI 231712Z 17005KT 10SM BKN024 OVC045 16/12 A3017 RMK AO2 T01560117=
201806231653 METAR KBLI 231653Z 17006KT 10SM SCT026 OVC043 16/12 A3017 RMK AO2 SLP222 T01560117=
201806231553 METAR KBLI 231553Z 17006KT 10SM FEW018 BKN031 OVC042 15/11 A3016 RMK AO2 SLP219 T01500111=
201806231453 METAR KBLI 231453Z 18005KT 10SM OVC017 14/11 A3015 RMK AO2 SLP217 T01390106 53008=
201806231353 METAR KBLI 231353Z VRB06KT 10SM SCT016 BKN027 OVC037 14/11 A3014 RMK AO2 SLP212 T01390106=
201806231349 SPECI KBLI 231349Z 18006KT 10SM SCT016 BKN027 OVC039 14/11 A3014 RMK AO2=
201806231253 METAR KBLI 231253Z AUTO 17008KT 10SM FEW019 SCT030 OVC039 14/11 A3013 RMK AO2 SLP209 T01390111=
201806231153 METAR KBLI 231153Z AUTO 18005KT 10SM OVC039 14/11 A3012 RMK AO2 SLP206 60000 T01390106 10150 20139 51005=
201806231053 METAR KBLI 231053Z AUTO 19004KT 10SM BKN037 BKN047 OVC065 14/11 A3012 RMK AO2 SLP205 T01390111=
201806230953 METAR KBLI 230953Z AUTO 19006KT 10SM OVC033 14/11 A3012 RMK AO2 SLP204 T01440106=
201806230924 SPECI KBLI 230924Z AUTO VRB03KT 10SM OVC030 14/11 A3011 RMK AO2 T01440106=
201806230910 SPECI KBLI 230910Z AUTO 17005KT 10SM BKN029 OVC037 14/11 A3011 RMK AO2 T01440106=
201806230853 METAR KBLI 230853Z AUTO 18006KT 10SM SCT029 OVC039 14/11 A3011 RMK AO2 SLP201 60000 T01440106 53000=
201806230753 METAR KBLI 230753Z AUTO 18005KT 10SM SCT048 OVC055 14/10 A3010 RMK AO2 RAE11 SLP199 P0000 T01440100 401780139=
201806230653 METAR KBLI 230653Z AUTO 16004KT 10SM -RA SCT050 OVC060 15/10 A3010 RMK AO2 RAB44 SLP200 P0000 T01500100=
201806230553 METAR KBLI 230553Z AUTO 17006KT 10SM OVC048 15/10 A3011 RMK AO2 SLP200 T01500100 10178 20150 53001=
201806230453 METAR KBLI 230453Z 17009KT 10SM BKN048 15/10 A3010 RMK AO2 SLP200 T01500100=
201806230353 METAR KBLI 230353Z 17011G18KT 10SM SCT045 BKN070 BKN090 16/09 A3010 RMK AO2 SLP199 T01560094=
201806230253 METAR KBLI 230253Z 17012G16KT 10SM BKN055 BKN090 17/10 A3010 RMK AO2 SLP200 T01670100 56006=
201806230153 METAR KBLI 230153Z 17010KT 10SM SCT055 BKN090 17/10 A3011 RMK AO2 SLP201 T01670100=
201806230053 METAR KBLI 230053Z 17010KT 10SM BKN050 OVC100 17/10 A3011 RMK AO2 SLP203 T01720100=
201806222353 METAR KBLI 222353Z 16009KT 10SM BKN043 17/11 A3012 RMK AO2 SLP206 T01720106 10172 20150 56010=
201806222253 METAR KBLI 222253Z 18008KT 10SM BKN040 17/10 A3013 RMK AO2 SLP209 T01670100=
201806222153 METAR KBLI 222153Z 17008G16KT 10SM OVC036 17/10 A3014 RMK AO2 SLP212 T01670100=
201806222053 METAR KBLI 222053Z 16011G18KT 10SM OVC038 16/11 A3015 RMK AO2 SLP216 T01610106 58002=
201806222026 SPECI KBLI 222026Z 17011KT 10SM SCT017 OVC040 16/10 A3016 RMK AO2 T01610100=
201806221953 METAR KBLI 221953Z 15009G16KT 10SM OVC016 16/11 A3016 RMK AO2 SLP218 T01560106=
201806221853 METAR KBLI 221853Z 17010KT 10SM OVC016 16/11 A3016 RMK AO2 SLP219 T01610106=
201806221753 METAR KBLI 221753Z 16010KT 10SM OVC017 15/10 A3016 RMK AO2 SLP218 T01500100 10150 20139 50006 $=
201806221653 METAR KBLI 221653Z 17008KT 10SM OVC018 14/09 A3016 RMK AO2 SLP220 T01390094=
201806221553 METAR KBLI 221553Z 16009G16KT 10SM OVC018 14/10 A3016 RMK AO2 SLP219 T01390100=
201806221453 METAR KBLI 221453Z 17008KT 10SM OVC019 14/09 A3014 RMK AO2 SLP213 T01440094 51005=
201806221353 METAR KBLI 221353Z 15010KT 10SM OVC020 14/10 A3014 RMK AO2 SLP212 T01440100=
201806221253 METAR KBLI 221253Z AUTO 16009KT 10SM OVC017 14/10 A3013 RMK AO2 SLP210 T01390100=
201806221153 METAR KBLI 221153Z AUTO 17009KT 10SM OVC018 14/10 A3013 RMK AO2 SLP207 T01390100 10156 20139 53006=
201806221053 METAR KBLI 221053Z AUTO 16009KT 10SM OVC017 14/10 A3012 RMK AO2 SLP205 T01440100=
201806221004 SPECI KBLI 221004Z AUTO 17012G20KT 10SM BKN017 14/11 A3012 RMK AO2 T01390106=
201806220953 METAR KBLI 220953Z AUTO 16010KT 10SM SCT017 14/10 A3011 RMK AO2 SLP203 T01390100=
201806220928 SPECI KBLI 220928Z AUTO 16013KT 10SM SCT017 14/10 A3011 RMK AO2 T01390100=
201806220909 SPECI KBLI 220909Z AUTO 16010KT 10SM BKN017 14/11 A3011 RMK AO2 T01390106=
201806220853 METAR KBLI 220853Z AUTO 16011KT 10SM FEW017 14/11 A3011 RMK AO2 SLP201 T01390106 50002=
201806220753 METAR KBLI 220753Z AUTO 16011KT 10SM BKN060 14/10 A3011 RMK AO2 SLP202 T01440100 401940139=
201806220653 METAR KBLI 220653Z AUTO 16011G19KT 10SM FEW055 15/11 A3011 RMK AO2 SLP201 T01500106=
201806220553 METAR KBLI 220553Z AUTO 16011KT 10SM FEW065 16/11 A3010 RMK AO2 SLP199 T01560111 10189 20156 50006=
201806220453 METAR KBLI 220453Z 16012G20KT 10SM OVC060 16/11 A3010 RMK AO2 SLP200 T01610111=
201806220353 METAR KBLI 220353Z 16011KT 10SM FEW055 16/11 A3009 RMK AO2 SLP194 T01610111=
201806220253 METAR KBLI 220253Z 17011G18KT 10SM FEW055 17/11 A3008 RMK AO2 SLP193 T01720111 55002=
201806220153 METAR KBLI 220153Z 17010G17KT 10SM CLR 18/12 A3008 RMK AO2 SLP191 T01780117=
201806220053 METAR KBLI 220053Z 17011G18KT 10SM CLR 18/12 A3009 RMK AO2 SLP195 T01780122=
201806212353 METAR KBLI 212353Z 16011KT 10SM CLR 18/12 A3009 RMK AO2 SLP195 T01830122 10194 20150 58009=
201806212253 METAR KBLI 212253Z 17011KT 10SM CLR 18/12 A3010 RMK AO2 SLP198 T01830122=
201806212153 METAR KBLI 212153Z 16010G15KT 10SM CLR 19/12 A3011 RMK AO2 SLP202 T01890122=
201806212053 METAR KBLI 212053Z VRB06KT 10SM FEW025 18/12 A3011 RMK AO2 SLP204 T01780117 50006=
201806211953 METAR KBLI 211953Z 16009KT 10SM SCT027 18/12 A3012 RMK AO2 SLP204 T01780117=
201806211853 METAR KBLI 211853Z 18010KT 10SM OVC024 16/12 A3011 RMK AO2 SLP202 T01610117=
201806211753 METAR KBLI 211753Z 18009KT 10SM OVC019 15/12 A3010 RMK AO2 SLP198 60000 T01500117 10156 20139 51012=
201806211653 METAR KBLI 211653Z 16011KT 10SM SCT010 OVC015 15/12 A3009 RMK AO2 SLP194 T01500117=
201806211553 METAR KBLI 211553Z 17006KT 10SM SCT010 OVC015 14/12 A3008 RMK AO2 SLP191 T01440122=
201806211517 SPECI KBLI 211517Z 17005KT 10SM OVC010 14/12 A3007 RMK AO2 CIG 005V014 T01390122=
201806211453 METAR KBLI 211453Z VRB06KT 10SM OVC008 14/12 A3006 RMK AO2 RAE16B37E47 CIG 005V010 SLP186 P0000 60000 T01390122 53022=
201806211353 METAR KBLI 211353Z 16011KT 10SM -RA OVC009 14/12 A3004 RMK AO2 SLP177 P0000 T01390117=
201806211331 SPECI KBLI 211331Z AUTO 16012G19KT 10SM -RA OVC009 14/12 A3003 RMK AO2 P0000 T01390117=
201806211253 METAR KBLI 211253Z AUTO 17015G24KT 10SM -RA OVC013 14/11 A3002 RMK AO2 PK WND 16026/1227 SLP170 P0000 T01390111=
201806211153 METAR KBLI 211153Z AUTO 16016G25KT 10SM -RA OVC012 15/12 A3000 RMK AO2 PK WND 16029/1128 SLP163 P0000 60000 T01500117 10183 20150 51026=
201806211132 SPECI KBLI 211132Z AUTO 16014G29KT 10SM -RA BKN012 15/12 A2998 RMK AO2 PK WND 16029/1128 P0000 T01500117=
201806211053 METAR KBLI 211053Z AUTO 16019G28KT 10SM -RA CLR 15/11 A2997 RMK AO2 PK WND 17028/1010 RAB52 SLP154 P0000 T01500111=
201806210953 METAR KBLI 210953Z AUTO 16014G25KT 10SM CLR 16/11 A2995 RMK AO2 PK WND 18027/0930 RAB02E18 SLP148 P0000 T01560106=
201806210853 METAR KBLI 210853Z AUTO 17014G21KT 10SM CLR 16/11 A2992 RMK AO2 SLP136 T01610111 53009=
201806210753 METAR KBLI 210753Z AUTO 18009KT 10SM CLR 17/12 A2990 RMK AO2 SLP130 T01720117 402780139=
201806210653 METAR KBLI 210653Z AUTO 18008KT 10SM CLR 18/12 A2989 RMK AO2 SLP127 T01830122=
201806210553 METAR KBLI 210553Z AUTO 17008KT 10SM CLR 18/12 A2989 RMK AO2 SLP127 T01780122 10261 20178 53002=
201806210453 METAR KBLI 210453Z 16008KT 10SM CLR 19/12 A2988 RMK AO2 SLP124 T01890117=
201806210353 METAR KBLI 210353Z 18005KT 10SM CLR 21/12 A2988 RMK AO2 SLP124 T02110117=
201806210253 METAR KBLI 210253Z 17006KT 10SM SCT120 23/12 A2989 RMK AO2 SLP125 T02280122 56000=
201806210153 METAR KBLI 210153Z 17007KT 10SM CLR 24/14 A2989 RMK AO2 SLP125 T02390144=
201806210053 METAR KBLI 210053Z 16004KT 10SM CLR 26/15 A2988 RMK AO2 LTG DSNT E SLP124 T02560150=
201806202353 METAR KBLI 202353Z VRB03KT 10SM CLR 26/13 A2989 RMK AO2 SLP125 T02610133 10278 20228 56014=
201806202253 METAR KBLI 202253Z 23006KT 10SM CLR 26/14 A2990 RMK AO2 SLP130 T02610139=
201806202153 METAR KBLI 202153Z 28005KT 10SM CLR 28/16 A2991 RMK AO2 SLP132 T02780156=
201806202053 METAR KBLI 202053Z 28005KT 10SM CLR 26/16 A2993 RMK AO2 SLP139 T02610161 58009=
201806201953 METAR KBLI 201953Z 22004KT 10SM CLR 23/15 A2994 RMK AO2 SLP144 T02330150=
201806201853 METAR KBLI 201853Z 21004KT 10SM CLR 24/16 A2995 RMK AO2 SLP146 T02440161=
201806201753 METAR KBLI 201753Z VRB03KT 10SM CLR 24/15 A2995 RMK AO2 SLP148 T02390150 10244 20144 58006=
201806201653 METAR KBLI 201653Z 20005KT 10SM CLR 18/14 A2997 RMK AO2 SLP154 T01830139=
201806201553 METAR KBLI 201553Z 00000KT 10SM CLR 19/13 A2997 RMK AO2 SLP154 T01940133=
201806201453 METAR KBLI 201453Z 00000KT 10SM CLR 19/13 A2997 RMK AO2 SLP154 T01940128 53000=
201806201353 METAR KBLI 201353Z 00000KT 10SM CLR 17/13 A2997 RMK AO2 SLP152 T01670128=
201806201253 METAR KBLI 201253Z AUTO 00000KT 10SM CLR 15/13 A2997 RMK AO2 SLP153 T01500128=
201806201153 METAR KBLI 201153Z AUTO 00000KT 10SM CLR 14/12 A2997 RMK AO2 SLP153 60000 T01440122 10183 20139 58004=
201806201053 METAR KBLI 201053Z AUTO 00000KT 10SM CLR 16/12 A2998 RMK AO2 SLP156 T01560122=
201806200953 METAR KBLI 200953Z AUTO VRB03KT 10SM CLR 16/13 A2998 RMK AO2 RAB08E35 SLP157 P0000 T01560133=
201806200853 METAR KBLI 200853Z AUTO 17005KT 10SM CLR 17/13 A2998 RMK AO2 SLP158 T01670128 58003=
201806200753 METAR KBLI 200753Z AUTO 18006KT 10SM CLR 17/13 A2999 RMK AO2 SLP160 T01670128 402440161=
201806200653 METAR KBLI 200653Z AUTO 17009KT 10SM FEW100 18/13 A2999 RMK AO2 SLP159 T01780128=
201806200553 METAR KBLI 200553Z AUTO 17009KT 10SM CLR 18/13 A2999 RMK AO2 SLP162 T01780128 10233 20167 53007=
201806200453 METAR KBLI 200453Z 17010KT 10SM CLR 18/12 A2998 RMK AO2 SLP159 T01780122=
201806200353 METAR KBLI 200353Z 17008KT 10SM CLR 18/13 A2997 RMK AO2 SLP154 T01830128=
201806200253 METAR KBLI 200253Z 17009KT 10SM CLR 20/13 A2997 RMK AO2 SLP155 T02000128 55006=
201806200153 METAR KBLI 200153Z 17007KT 10SM CLR 22/13 A2997 RMK AO2 SLP152 T02170128=
201806200053 METAR KBLI 200053Z 17008KT 10SM CLR 22/13 A2997 RMK AO2 SLP154 T02220128=
201806192353 METAR KBLI 192353Z 18006KT 10SM CLR 23/13 A2999 RMK AO2 SLP160 T02330128 10244 20189 58012=
201806192253 METAR KBLI 192253Z VRB05KT 10SM CLR 24/13 A3001 RMK AO2 SLP167 T02390128=
201806192153 METAR KBLI 192153Z 17006KT 10SM CLR 24/13 A3002 RMK AO2 SLP170 T02390133=
201806192053 METAR KBLI 192053Z 20006KT 10SM CLR 23/13 A3003 RMK AO2 SLP172 T02330133 58009=
201806191953 METAR KBLI 191953Z 18007KT 10SM CLR 22/13 A3004 RMK AO2 SLP176 T02170133=
201806191853 METAR KBLI 191853Z VRB05KT 10SM CLR 21/13 A3004 RMK AO2 SLP179 T02060133=
201806191753 METAR KBLI 191753Z 15008KT 10SM CLR 19/13 A3005 RMK AO2 SLP181 T01890128 10194 20161 58000=
201806191653 METAR KBLI 191653Z 20006KT 10SM CLR 18/12 A3005 RMK AO2 SLP182 T01780122=
201806191553 METAR KBLI 191553Z 19008KT 150V210 10SM CLR 17/12 A3005 RMK AO2 SLP182 T01720122=
201806191453 METAR KBLI 191453Z 17008KT 130V190 10SM CLR 17/12 A3005 RMK AO2 SLP181 T01670122 53011=
201806191353 METAR KBLI 191353Z 17008G15KT 10SM CLR 17/13 A3004 RMK AO2 SLP177 T01670128=
201806191253 METAR KBLI 191253Z AUTO 17008KT 10SM CLR 17/13 A3003 RMK AO2 SLP174 T01670128=
201806191153 METAR KBLI 191153Z AUTO 17008KT 10SM CLR 17/12 A3002 RMK AO2 SLP170 T01670122 10211 20167 53017=
201806191053 METAR KBLI 191053Z AUTO 17011KT 10SM CLR 18/12 A3000 RMK AO2 SLP164 T01780122=
201806190953 METAR KBLI 190953Z AUTO 16014G20KT 10SM CLR 18/12 A2998 RMK AO2 SLP157 T01830117=
201806190853 METAR KBLI 190853Z AUTO 17013KT 10SM CLR 19/11 A2997 RMK AO2 SLP153 T01890111 51013=
201806190753 METAR KBLI 190753Z AUTO 16012G18KT 10SM CLR 21/09 A2996 RMK AO2 SLP151 T02060094 402830117=
201806190653 METAR KBLI 190653Z AUTO 16009KT 10SM CLR 19/12 A2994 RMK AO2 SLP143 T01940117=
201806190553 METAR KBLI 190553Z AUTO 17016G22KT 10SM CLR 19/11 A2993 RMK AO2 SLP140 T01940111 10278 20194 53010=
201806190453 METAR KBLI 190453Z 17009G15KT 10SM CLR 21/11 A2992 RMK AO2 SLP135 T02110111=
201806190353 METAR KBLI 190353Z 18009KT 10SM CLR 23/11 A2990 RMK AO2 SLP130 T02280111=
201806190253 METAR KBLI 190253Z 18005KT 10SM CLR 23/12 A2990 RMK AO2 SLP130 T02330122 55000=
201806190153 METAR KBLI 190153Z 17006KT 10SM CLR 26/13 A2990 RMK AO2 SLP128 T02560128=
201806190053 METAR KBLI 190053Z 17007KT 10SM CLR 27/13 A2989 RMK AO2 SLP128 T02670128=
201806182353 METAR KBLI 182353Z VRB03KT 10SM CLR 28/12 A2990 RMK AO2 SLP130 T02780122 10283 20233 57005=
201806182253 METAR KBLI 182253Z 17004KT 10SM CLR 27/13 A2991 RMK AO2 SLP132 T02720128=
201806182153 METAR KBLI 182153Z 17006KT 10SM CLR 27/14 A2991 RMK AO2 SLP133 T02670139=
201806182053 METAR KBLI 182053Z VRB05KT 10SM CLR 26/13 A2992 RMK AO2 SLP135 T02610128 56010=
201806181953 METAR KBLI 181953Z VRB03KT 10SM CLR 25/13 A2992 RMK AO2 SLP137 T02500128=
201806181853 METAR KBLI 181853Z 16007KT 10SM CLR 24/12 A2994 RMK AO2 SLP143 T02440122=
201806181753 METAR KBLI 181753Z VRB03KT 10SM CLR 23/11 A2995 RMK AO2 SLP145 T02330106 10233 20117 50001=
201806181653 METAR KBLI 181653Z 00000KT 10SM CLR 22/12 A2995 RMK AO2 SLP147 T02220117=
201806181553 METAR KBLI 181553Z VRB03KT 10SM CLR 21/12 A2995 RMK AO2 SLP147 T02110117=
201806181453 METAR KBLI 181453Z 00000KT 10SM CLR 19/12 A2994 RMK AO2 SLP145 T01890122 51014=
201806181353 METAR KBLI 181353Z 00000KT 10SM CLR 17/12 A2993 RMK AO2 SLP141 T01720122=
201806181253 METAR KBLI 181253Z AUTO 00000KT 10SM CLR 13/11 A2992 RMK AO2 SLP138 T01330111=
201806181153 METAR KBLI 181153Z AUTO 00000KT 10SM CLR 12/10 A2990 RMK AO2 SLP132 T01220100 10161 20122 51009=
201806181053 METAR KBLI 181053Z AUTO 00000KT 10SM CLR 13/11 A2990 RMK AO2 SLP131 T01280106=
201806180953 METAR KBLI 180953Z AUTO 00000KT 10SM CLR 14/11 A2989 RMK AO2 SLP126 T01390111=
201806180853 METAR KBLI 180853Z AUTO 00000KT 10SM CLR 15/12 A2988 RMK AO2 SLP122 T01500122 53009=
201806180753 METAR KBLI 180753Z AUTO 22003KT 10SM CLR 15/12 A2986 RMK AO2 SLP117 T01500117 402610106=
201806180653 METAR KBLI 180653Z AUTO 00000KT 10SM CLR 16/12 A2985 RMK AO2 SLP113 T01560117=
201806180553 METAR KBLI 180553Z AUTO 16003KT 10SM CLR 16/12 A2985 RMK AO2 SLP112 T01610122 10233 20150 53004=
201806180453 METAR KBLI 180453Z 00000KT 10SM CLR 16/12 A2985 RMK AO2 SLP111 T01610117=
201806180353 METAR KBLI 180353Z 00000KT 10SM CLR 19/13 A2984 RMK AO2 SLP109 T01890133=
201806180253 METAR KBLI 180253Z 00000KT 10SM CLR 23/13 A2984 RMK AO2 SLP109 T02280133 56011=
201806180153 METAR KBLI 180153Z 16004KT 10SM CLR 23/12 A2985 RMK AO2 SLP111 T02280122=
201806180053 METAR KBLI 180053Z 17004KT 10SM CLR 23/14 A2985 RMK AO2 SLP114 T02280139=
201806172353 METAR KBLI 172353Z VRB03KT 10SM CLR 22/13 A2987 RMK AO2 SLP121 T02220133 10261 20222 56007=
201806172253 METAR KBLI 172253Z 25004KT 10SM CLR 24/11 A2988 RMK AO2 SLP123 T02390111=
201806172153 METAR KBLI 172153Z VRB04KT 10SM CLR 25/13 A2988 RMK AO2 SLP123 T02500128=
201806172053 METAR KBLI 172053Z VRB05KT 10SM CLR 26/13 A2989 RMK AO2 SLP127 T02560133 58017=
201806171953 METAR KBLI 171953Z 27007KT 240V300 10SM CLR 25/12 A2991 RMK AO2 SLP133 T02500117=
201806171853 METAR KBLI 171853Z 26007KT 230V300 10SM CLR 24/13 A2993 RMK AO2 SLP140 T02440128=
201806171753 METAR KBLI 171753Z 26006KT 10SM CLR 24/13 A2994 RMK AO2 SLP143 T02390133 10239 20106 58013=
201806171653 METAR KBLI 171653Z 32005KT 10SM CLR 23/12 A2996 RMK AO2 SLP150 T02280117=
201806171553 METAR KBLI 171553Z VRB05KT 10SM CLR 21/12 A2997 RMK AO2 SLP155 T02060122=
201806171537 SPECI KBLI 171537Z 34004KT 10SM CLR 19/12 A2997 RMK AO2 T01940117=
201806171453 METAR KBLI 171453Z 01003KT 10SM CLR 18/12 A2998 RMK AO2 SLP156 T01830122 51002=
201806171353 METAR KBLI 171353Z 00000KT 10SM CLR 15/13 A2997 RMK AO2 SLP155 T01500128=
201806171253 METAR KBLI 171253Z AUTO 00000KT 10SM CLR 12/10 A2997 RMK AO2 SLP155 T01170100=
201806171153 METAR KBLI 171153Z AUTO 00000KT 10SM CLR 11/09 A2997 RMK AO2 SLP155 T01060089 10178 20106 53005=
201806171053 METAR KBLI 171053Z AUTO 00000KT 10SM CLR 12/10 A2997 RMK AO2 SLP152 T01170100=
201806170953 METAR KBLI 170953Z AUTO 00000KT 10SM CLR 13/11 A2996 RMK AO2 SLP149 T01280111=
201806170853 METAR KBLI 170853Z AUTO 00000KT 10SM CLR 13/11 A2995 RMK AO2 SLP148 T01330106 53005=
201806170753 METAR KBLI 170753Z AUTO 00000KT 10SM CLR 14/11 A2995 RMK AO2 SLP146 T01440106 402670106=
201806170653 METAR KBLI 170653Z AUTO 17006KT 10SM CLR 17/09 A2995 RMK AO2 SLP145 T01720094=
201806170553 METAR KBLI 170553Z AUTO 00000KT 10SM CLR 16/10 A2994 RMK AO2 SLP144 T01610100 10267 20150 50005=
201806170453 METAR KBLI 170453Z 21003KT 10SM FEW120 19/09 A2995 RMK AO2 SLP145 T01890089=
201806170353 METAR KBLI 170353Z 19005KT 10SM SCT100 20/09 A2995 RMK AO2 SLP146 T02000094=
201806170253 METAR KBLI 170253Z 30005KT 10SM FEW100 25/07 A2993 RMK AO2 SLP138 T02500072 55001=
201806170153 METAR KBLI 170153Z 30006KT 10SM FEW100 26/07 A2992 RMK AO2 SLP137 T02610072=
201806170053 METAR KBLI 170053Z 30014G20KT 10SM FEW100 26/07 A2993 RMK AO2 SLP138 T02610072=
201806162353 METAR KBLI 162353Z 31012G19KT 10SM FEW100 26/09 A2993 RMK AO2 SLP139 T02610089 10267 20211 56009=
201806162253 METAR KBLI 162253Z 29011KT 10SM CLR 26/09 A2993 RMK AO2 SLP141 T02560089=
201806162153 METAR KBLI 162153Z 28009G16KT 230V310 10SM FEW100 26/10 A2995 RMK AO2 SLP147 T02560100=
201806162053 METAR KBLI 162053Z 31010KT 10SM CLR 26/11 A2996 RMK AO2 SLP149 T02560111 58006=
201806161953 METAR KBLI 161953Z 28010KT 10SM FEW100 24/11 A2997 RMK AO2 SLP153 T02390111=
201806161853 METAR KBLI 161853Z 30009KT 10SM CLR 23/11 A2997 RMK AO2 SLP156 T02280111=
201806161753 METAR KBLI 161753Z 31007KT 10SM CLR 21/11 A2998 RMK AO2 SLP156 T02110111 10217 20122 50001=
201806161653 METAR KBLI 161653Z 34008KT 300V010 10SM CLR 19/11 A2998 RMK AO2 SLP158 T01940111=
201806161553 METAR KBLI 161553Z 32006KT 10SM CLR 18/12 A2998 RMK AO2 SLP157 T01830117=
201806161453 METAR KBLI 161453Z 33008KT 10SM CLR 16/11 A2997 RMK AO2 SLP156 T01610111 51012=
201806161353 METAR KBLI 161353Z 33006KT 10SM CLR 14/10 A2997 RMK AO2 SLP153 T01440100=
201806161253 METAR KBLI 161253Z AUTO 31007KT 10SM CLR 13/10 A2996 RMK AO2 SLP150 T01330100=
201806161153 METAR KBLI 161153Z AUTO 31006KT 10SM CLR 13/09 A2994 RMK AO2 SLP143 60000 T01280094 10150 20106 53000=
201806161053 METAR KBLI 161053Z AUTO 33005KT 10SM FEW049 BKN110 12/10 A2993 RMK AO2 RAB37E48 SLP140 P0000 T01220100=
201806160953 METAR KBLI 160953Z AUTO 00000KT 10SM CLR 11/09 A2993 RMK AO2 SLP140 T01110094=
201806160853 METAR KBLI 160853Z AUTO 00000KT 10SM BKN090 12/09 A2994 RMK AO2 SLP143 T01170094 50007=
201806160753 METAR KBLI 160753Z AUTO 00000KT 10SM FEW050 OVC090 13/10 A2994 RMK AO2 SLP144 T01330100 401940083=
201806160653 METAR KBLI 160653Z AUTO 00000KT 10SM OVC090 14/11 A2992 RMK AO2 SLP139 T01390106=
201806160553 METAR KBLI 160553Z AUTO 00000KT 10SM SCT050 OVC090 14/11 A2991 RMK AO2 SLP135 T01440106 10194 20144 53003=
201806160453 METAR KBLI 160453Z 17004KT 10SM OVC085 16/10 A2991 RMK AO2 SLP135 T01560100=
201806160353 METAR KBLI 160353Z 17005KT 10SM OVC080 17/11 A2990 RMK AO2 SLP131 T01670106=
201806160253 METAR KBLI 160253Z 17005KT 10SM BKN070 BKN080 17/10 A2991 RMK AO2 SLP133 T01720100 56008=
201806160153 METAR KBLI 160153Z 16005KT 10SM OVC080 18/11 A2991 RMK AO2 SLP133 T01780106=
201806160053 METAR KBLI 160053Z 16006KT 10SM OVC075 18/10 A2992 RMK AO2 SLP137 T01830100=
201806152353 METAR KBLI 152353Z VRB05KT 10SM OVC070 18/09 A2993 RMK AO2 SLP142 T01830094 10189 20161 58010=
201806152253 METAR KBLI 152253Z VRB04KT 10SM OVC065 17/11 A2995 RMK AO2 SLP148 T01720106=
201806152153 METAR KBLI 152153Z 18005KT 10SM SCT027 OVC065 18/11 A2996 RMK AO2 SLP150 T01780111=
201806152053 METAR KBLI 152053Z 25004KT 10SM SCT027 OVC065 18/11 A2996 RMK AO2 SLP152 T01830106 58007=
201806151953 METAR KBLI 151953Z 27005KT 10SM FEW025 OVC060 17/11 A2998 RMK AO2 SLP158 T01720106=
201806151853 METAR KBLI 151853Z VRB04KT 10SM SCT027 17/10 A2998 RMK AO2 SLP159 T01670100=
201806151753 METAR KBLI 151753Z 00000KT 10SM SCT020 17/10 A2998 RMK AO2 SLP159 T01670100 10178 20083 58003=
201806151653 METAR KBLI 151653Z VRB03KT 10SM FEW011 FEW038 SCT060 16/11 A2999 RMK AO2 SLP162 T01560106=
201806151553 METAR KBLI 151553Z 00000KT 10SM FEW011 SCT045 OVC055 13/09 A3000 RMK AO2 SLP164 T01330094=
201806151453 METAR KBLI 151453Z 00000KT 10SM FEW009 OVC047 12/09 A2999 RMK AO2 SLP163 T01220094 53004=
201806151353 METAR KBLI 151353Z 00000KT 10SM SCT050 13/10 A2999 RMK AO2 SLP160 T01280100=
201806151253 METAR KBLI 151253Z AUTO 00000KT 10SM CLR 09/08 A2998 RMK AO2 SLP159 T00890078=
201806151153 METAR KBLI 151153Z AUTO 00000KT 10SM FEW075 09/07 A2998 RMK AO2 SLP160 T00940072 10122 20089 58001=
201806151053 METAR KBLI 151053Z AUTO 00000KT 10SM CLR 09/08 A2999 RMK AO2 SLP161 T00940078=
201806150953 METAR KBLI 150953Z AUTO 00000KT 10SM OVC075 11/09 A2999 RMK AO2 SLP160 T01110089=
201806150853 METAR KBLI 150853Z AUTO 00000KT 10SM OVC075 11/08 A2999 RMK AO2 SLP161 T01060083 56008=
201806150753 METAR KBLI 150753Z AUTO 00000KT 10SM SCT075 11/09 A2999 RMK AO2 SLP163 T01060089 401890094=
201806150653 METAR KBLI 150653Z AUTO 18003KT 10SM CLR 12/08 A3000 RMK AO2 SLP166 T01170083=
201806150553 METAR KBLI 150553Z AUTO 17003KT 10SM CLR 12/08 A3001 RMK AO2 SLP169 T01220083 10183 20122 58003=
201806150453 METAR KBLI 150453Z 17004KT 10SM CLR 14/09 A3002 RMK AO2 SLP170 T01440089=
201806150353 METAR KBLI 150353Z 17006KT 10SM CLR 15/09 A3001 RMK AO2 SLP169 T01500089=
201806150253 METAR KBLI 150253Z 17007KT 10SM CLR 16/09 A3002 RMK AO2 SLP171 T01610089 56008=
201806150153 METAR KBLI 150153Z 18005KT 10SM CLR 18/08 A3002 RMK AO2 SLP172 T01780083=
201806150053 METAR KBLI 150053Z 19007KT 150V220 10SM SCT080 18/08 A3003 RMK AO2 SLP176 T01780078=
201806142353 METAR KBLI 142353Z VRB06KT 10SM OVC080 18/08 A3004 RMK AO2 SLP179 T01830078 10189 20144 58012=
201806142253 METAR KBLI 142253Z 17008KT 10SM SCT080 18/07 A3006 RMK AO2 SLP185 T01780072=
201806142153 METAR KBLI 142153Z 15010KT 10SM CLR 18/08 A3007 RMK AO2 SLP188 T01780078=
201806142053 METAR KBLI 142053Z 17011KT 10SM FEW080 17/08 A3008 RMK AO2 SLP191 T01720078 58002=
201806141953 METAR KBLI 141953Z 16009KT 10SM CLR 17/08 A3009 RMK AO2 SLP195 T01670083=
201806141853 METAR KBLI 141853Z 16010KT 10SM FEW080 16/09 A3009 RMK AO2 SLP196 T01610089=
201806141753 METAR KBLI 141753Z 18009KT 10SM BKN047 OVC080 15/09 A3008 RMK AO2 SLP193 T01500089 10150 20117 51010=
201806141653 METAR KBLI 141653Z 16012G18KT 10SM FEW014 SCT044 OVC080 14/09 A3008 RMK AO2 SLP191 T01390094=
201806141553 METAR KBLI 141553Z 16011G16KT 10SM FEW039 SCT050 OVC075 13/09 A3007 RMK AO2 SLP188 T01330089=
201806141500 SPECI KBLI 141500Z 17007KT 10SM SCT039 OVC060 13/09 A3006 RMK AO2 T01280089=
201806141453 METAR KBLI 141453Z 17009KT 10SM OVC039 12/08 A3005 RMK AO2 SLP183 T01220083 53011=
201806141353 METAR KBLI 141353Z 16005KT 10SM FEW039 SCT046 OVC075 13/08 A3004 RMK AO2 SLP178 T01280078=
201806141253 METAR KBLI 141253Z AUTO 17005KT 10SM SCT042 BKN050 OVC060 12/08 A3003 RMK AO2 SLP175 T01170078=
201806141153 METAR KBLI 141153Z AUTO 15006KT 10SM FEW043 OVC065 12/08 A3002 RMK AO2 SLP173 70005 T01170078 10144 20111 53009=
201806141053 METAR KBLI 141053Z AUTO 18003KT 10SM BKN060 OVC075 12/08 A3001 RMK AO2 SLP168 T01170078=
201806140953 METAR KBLI 140953Z AUTO 17005KT 10SM OVC075 12/08 A3000 RMK AO2 SLP165 T01170078=
201806140853 METAR KBLI 140853Z AUTO 16003KT 10SM BKN055 11/08 A2999 RMK AO2 SLP164 T01110078 53005=
201806140753 METAR KBLI 140753Z AUTO 16006KT 10SM BKN060 BKN075 13/08 A2998 RMK AO2 SLP160 T01280078 401780117=
201806140653 METAR KBLI 140653Z AUTO VRB04KT 10SM SCT080 13/08 A2997 RMK AO2 SLP156 T01330083=
201806140553 METAR KBLI 140553Z AUTO 00000KT 10SM BKN046 BKN065 OVC080 14/09 A2998 RMK AO2 SLP158 T01390094 10178 20139 53015=
201806140453 METAR KBLI 140453Z 17003KT 10SM BKN055 OVC080 15/08 A2996 RMK AO2 SLP153 T01500083=
201806140353 METAR KBLI 140353Z VRB04KT 10SM OVC075 16/08 A2994 RMK AO2 SLP147 T01560078=
201806140253 METAR KBLI 140253Z 16004KT 10SM SCT048 OVC070 16/08 A2993 RMK AO2 SLP142 T01610083 53003=
201806140153 METAR KBLI 140153Z 16006KT 10SM CLR 17/08 A2992 RMK AO2 SLP139 T01720083=
201806140053 METAR KBLI 140053Z 16006KT 10SM FEW055 17/09 A2993 RMK AO2 SLP139 T01720089=
201806132353 METAR KBLI 132353Z 16010KT 10SM FEW050 16/08 A2992 RMK AO2 SLP139 60000 T01610083 10172 20122 51004=
201806132253 METAR KBLI 132253Z 17011G17KT 10SM CLR 17/09 A2992 RMK AO2 SLP137 T01670089=
201806132153 METAR KBLI 132153Z 17012G17KT 10SM FEW039 FEW046 FEW110 17/10 A2992 RMK AO2 SLP137 T01670100=
201806132053 METAR KBLI 132053Z 16010KT 10SM CLR 16/11 A2991 RMK AO2 SLP134 60000 T01610106 51012=
201806131953 METAR KBLI 131953Z 16013KT 10SM FEW014 BKN049 OVC060 14/10 A2991 RMK AO2 RAE1857 SLP134 P0000 T01390100=
201806131853 METAR KBLI 131853Z 17010G16KT 10SM -RA FEW009 BKN020 OVC047 13/11 A2989 RMK AO2 RAB47 SLP128 P0000 T01330106=
201806131753 METAR KBLI 131753Z 16012G17KT 10SM OVC022 13/09 A2987 RMK AO2 SLP123 60005 T01280094 10133 20117 51006=
201806131716 SPECI KBLI 131716Z 16008G15KT 10SM BKN016 OVC026 13/09 A2987 RMK AO2 T01280094=
201806131653 METAR KBLI 131653Z 15009KT 10SM OVC014 12/09 A2987 RMK AO2 RAB16E41 SLP121 P0000 T01220094=
201806131645 SPECI KBLI 131645Z 15009KT 10SM BKN014 OVC019 12/09 A2987 RMK AO2 RAB16E41 P0000 T01220094=
201806131553 METAR KBLI 131553Z 15011KT 10SM BKN022 OVC026 12/08 A2986 RMK AO2 RAB1455E29 SLP119 P0001 T01170083=
201806131529 SPECI KBLI 131529Z 14011KT 10SM OVC026 12/08 A2986 RMK AO2 RAB1455E29 P0001 T01170083=
201806131453 METAR KBLI 131453Z 18007KT 10SM OVC035 12/08 A2986 RMK AO2 RAE25 SLP117 P0002 60004 T01220083 53005=
201806131353 METAR KBLI 131353Z 13005KT 7SM RA SCT036 BKN049 OVC065 13/09 A2985 RMK AO2 RAE08B38 SLP112 P0001 T01330094=
201806131253 METAR KBLI 131253Z AUTO 08003KT 9SM -RA OVC070 12/11 A2984 RMK AO2 SLP109 P0001 T01220111=
201806131153 METAR KBLI 131153Z AUTO 00000KT 8SM -RA OVC065 12/11 A2984 RMK AO2 RAE1057B48 SLP110 P0001 60002 70002 T01220111 10133 20122 56006=
201806131053 METAR KBLI 131053Z AUTO 00000KT 10SM -RA BKN080 OVC095 12/11 A2984 RMK AO2 RAB18 SLP111 P0001 T01220111=
201806130953 METAR KBLI 130953Z AUTO 00000KT 10SM OVC070 13/11 A2985 RMK AO2 SLP115 T01280106=
201806130853 METAR KBLI 130853Z AUTO 00000KT 10SM OVC070 13/11 A2986 RMK AO2 SLP117 T01280106 58014=
201806130753 METAR KBLI 130753Z AUTO 00000KT 10SM OVC080 13/11 A2988 RMK AO2 SLP123 T01280106 401890061=
201806130653 METAR KBLI 130653Z AUTO 00000KT 10SM BKN080 OVC095 13/11 A2989 RMK AO2 SLP126 T01330106=
201806130553 METAR KBLI 130553Z AUTO 00000KT 10SM OVC085 13/11 A2990 RMK AO2 SLP131 T01330106 10167 20133 56009=
201806130453 METAR KBLI 130453Z 00000KT 10SM OVC090 13/11 A2990 RMK AO2 SLP132 T01330106=
201806130353 METAR KBLI 130353Z 00000KT 10SM OVC100 14/10 A2992 RMK AO2 SLP136 T01440100=
201806130253 METAR KBLI 130253Z 29006KT 10SM OVC110 14/09 A2993 RMK AO2 SLP141 T01440094 56015=
201806130153 METAR KBLI 130153Z 27005KT 10SM OVC120 16/10 A2993 RMK AO2 SLP144 T01610100=
201806130053 METAR KBLI 130053Z 32007KT 10SM BKN100 16/10 A2995 RMK AO2 SLP147 T01610100=
201806122353 METAR KBLI 122353Z 27003KT 10SM BKN120 16/10 A2997 RMK AO2 SLP156 T01610100 10189 20161 56027=
201806122253 METAR KBLI 122253Z 00000KT 10SM BKN110 18/08 A3000 RMK AO2 SLP167 T01830083=
201806122153 METAR KBLI 122153Z 03007KT 10SM BKN110 18/08 A3000 RMK AO2 SLP166 T01830078=
201806122053 METAR KBLI 122053Z 04004KT 10SM OVC110 17/08 A3005 RMK AO2 SLP183 T01720078 58012=
201806121953 METAR KBLI 121953Z VRB03KT 10SM FEW120 18/08 A3007 RMK AO2 SLP189 T01780078=
201806121853 METAR KBLI 121853Z 36006KT 10SM CLR 18/07 A3008 RMK AO2 SLP191 T01780067=
201806121753 METAR KBLI 121753Z 02007KT 10SM CLR 17/07 A3009 RMK AO2 SLP194 T01670072 10167 20061 56015=
201806121653 METAR KBLI 121653Z 03008KT 10SM CLR 16/07 A3010 RMK AO2 SLP199 T01560072=
201806121553 METAR KBLI 121553Z 01006KT 10SM CLR 14/07 A3011 RMK AO2 SLP203 T01390072=
201806121453 METAR KBLI 121453Z 36006KT 10SM CLR 12/07 A3013 RMK AO2 SLP210 T01170067 58010=
201806121353 METAR KBLI 121353Z 35003KT 10SM CLR 10/06 A3014 RMK AO2 SLP214 T01000061=
201806121253 METAR KBLI 121253Z AUTO 00000KT 10SM CLR 07/05 A3015 RMK AO2 SLP216 T00670050=
201806121153 METAR KBLI 121153Z AUTO 00000KT 10SM CLR 08/06 A3016 RMK AO2 SLP220 T00780056 10139 20067 58009=
201806121053 METAR KBLI 121053Z AUTO 00000KT 10SM CLR 07/06 A3018 RMK AO2 SLP226 T00720056=
201806120953 METAR KBLI 120953Z AUTO 00000KT 10SM CLR 08/06 A3018 RMK AO2 SLP226 T00830056=
201806120853 METAR KBLI 120853Z AUTO 00000KT 10SM CLR 09/06 A3019 RMK AO2 SLP229 T00890061 53000=
201806120653 METAR KBLI 120653Z AUTO 16005KT 10SM CLR 13/06 A3018 RMK AO2 SLP227 T01280061=
201806120553 METAR KBLI 120553Z AUTO 16005KT 10SM CLR 14/06 A3019 RMK AO2 SLP229 T01390061 10178 20133 50001=
201806120453 METAR KBLI 120453Z 17005KT 10SM CLR 14/06 A3019 RMK AO2 SLP231 T01440061=
201806120353 METAR KBLI 120353Z 17005KT 10SM CLR 15/07 A3018 RMK AO2 SLP227 T01500067=
201806120253 METAR KBLI 120253Z 17007KT 10SM CLR 16/06 A3018 RMK AO2 SLP228 T01610061 56005=
201806120153 METAR KBLI 120153Z 17007KT 10SM CLR 17/04 A3019 RMK AO2 SLP227 T01720044=
201806120053 METAR KBLI 120053Z 18008G14KT 10SM CLR 17/05 A3020 RMK AO2 SLP232 T01670050=
201806112353 METAR KBLI 112353Z 16008KT 10SM CLR 18/06 A3020 RMK AO2 SLP232 T01780056 10178 20139 58006=
201806112253 METAR KBLI 112253Z 16009KT 10SM CLR 17/06 A3021 RMK AO2 SLP236 T01720061=
201806112153 METAR KBLI 112153Z 16009KT 10SM CLR 17/05 A3021 RMK AO2 SLP236 T01720050=
201806112053 METAR KBLI 112053Z 15008KT 130V190 10SM CLR 17/06 A3022 RMK AO2 SLP239 T01670061 51007=
201806111953 METAR KBLI 111953Z 17008KT 140V230 10SM FEW050 SCT060 16/07 A3021 RMK AO2 SLP238 T01610072=
201806111853 METAR KBLI 111853Z 19007KT 150V230 10SM CLR 15/07 A3021 RMK AO2 SLP237 T01500072=
201806111753 METAR KBLI 111753Z 18008KT 10SM CLR 14/08 A3020 RMK AO2 SLP232 T01390078 10144 20106 52011=
201806111653 METAR KBLI 111653Z 16008KT 10SM FEW020 SCT060 13/08 A3019 RMK AO2 SLP229 T01330078=
201806111556 SPECI KBLI 111556Z 17009KT 10SM FEW020 SCT060 12/08 A3017 RMK AO2 T01220078=
201806111553 METAR KBLI 111553Z 18007KT 150V220 10SM FEW060 12/08 A3017 RMK AO2 SLP224 T01220078=
201806111453 METAR KBLI 111453Z 17009KT 10SM SCT013 OVC060 12/08 A3016 RMK AO2 SLP221 T01170078 53009=
201806111353 METAR KBLI 111353Z 17006KT 10SM FEW013 SCT020 OVC060 11/08 A3015 RMK AO2 SLP216 T01110078=
201806111340 SPECI KBLI 111340Z 16008KT 10SM BKN013 BKN020 OVC060 11/08 A3014 RMK AO2 T01110078=
201806111253 METAR KBLI 111253Z AUTO 15006KT 10SM SCT026 OVC065 11/07 A3014 RMK AO2 SLP212 T01060072=
201806111249 SPECI KBLI 111249Z AUTO 16006KT 10SM BKN026 OVC065 11/07 A3014 RMK AO2=
201806111153 METAR KBLI 111153Z AUTO 17004KT 10SM FEW038 BKN055 OVC065 11/07 A3012 RMK AO2 SLP207 60000 70001 T01060067 10122 20106 52012=
201806111053 METAR KBLI 111053Z AUTO 17006KT 10SM FEW030 OVC065 11/07 A3011 RMK AO2 SLP203 T01110072=
201806110953 METAR KBLI 110953Z AUTO 15008KT 10SM FEW016 OVC065 11/07 A3010 RMK AO2 RAE01 SLP199 P0000 T01110072=
201806110853 METAR KBLI 110853Z AUTO 16008KT 10SM -RA FEW015 OVC060 11/07 A3009 RMK AO2 RAB51 SLP195 P0000 60000 T01110072 53006=
201806110753 METAR KBLI 110753Z AUTO 16008KT 10SM FEW044 SCT060 11/07 A3008 RMK AO2 SLP192 T01110072 401670094=
201806110653 METAR KBLI 110653Z AUTO 17009G16KT 10SM FEW018 SCT029 BKN042 12/07 A3007 RMK AO2 RAB0556E06 SLP190 P0000 T01170072=
201806110553 METAR KBLI 110553Z AUTO 18008KT 10SM BKN039 BKN048 OVC060 12/06 A3007 RMK AO2 SLP189 T01220061 10156 20122 53012=
201806110453 METAR KBLI 110453Z 16008KT 10SM SCT060 OVC080 12/06 A3005 RMK AO2 SLP184 T01220056=
201806110353 METAR KBLI 110353Z 17008KT 10SM FEW055 OVC085 13/05 A3004 RMK AO2 SLP179 T01280050=
201806110253 METAR KBLI 110253Z 18006KT 10SM BKN065 13/06 A3004 RMK AO2 SLP178 T01330061 53001=
201806110153 METAR KBLI 110153Z 16009G16KT 10SM FEW049 14/05 A3003 RMK AO2 SLP175 T01440050=
201806110053 METAR KBLI 110053Z 19007KT 10SM SCT050 BKN100 15/04 A3003 RMK AO2 SLP175 T01500044=
201806102353 METAR KBLI 102353Z 19008G16KT 160V240 10SM SCT040 BKN100 15/04 A3003 RMK AO2 RAE05 SLP176 P0000 60000 T01500044 10167 20122 50003=
201806102253 METAR KBLI 102253Z VRB05KT 10SM -RA BKN038 BKN049 13/07 A3004 RMK AO2 LTG DSNT S RAB34 SLP178 P0000 T01330072=
201806102153 METAR KBLI 102153Z 16009KT 10SM BKN060 16/06 A3002 RMK AO2 SLP173 T01610056=
201806102053 METAR KBLI 102053Z 17011KT 10SM SCT050 15/05 A3002 RMK AO2 SLP173 60000 T01500050 58004=
201806101953 METAR KBLI 101953Z 17008KT 10SM SCT050 BKN100 15/07 A3003 RMK AO2 SLP175 T01500067=
201806101853 METAR KBLI 101853Z 16014KT 10SM FEW020 SCT050 BKN070 13/07 A3003 RMK AO2 RAB10E34 SLP176 P0000 T01330067=
201806101753 METAR KBLI 101753Z 17012G18KT 10SM FEW015 BKN060 13/07 A3003 RMK AO2 SLP177 60001 T01330072 10133 20100 50005=
201806101653 METAR KBLI 101653Z 16012G17KT 10SM CLR 13/07 A3003 RMK AO2 SLP177 T01280067=
201806101553 METAR KBLI 101553Z 16010G18KT 10SM FEW029 12/06 A3002 RMK AO2 SLP174 T01170061=
201806101453 METAR KBLI 101453Z 15011G18KT 10SM SCT027 OVC060 11/06 A3002 RMK AO2 SLP172 60001 T01060056 53007=
201806101353 METAR KBLI 101353Z 16009G17KT 10SM SCT070 11/07 A3001 RMK AO2 RAE10 SLP168 P0000 T01060067=
201806101253 METAR KBLI 101253Z AUTO 16010G15KT 10SM -RA FEW027 BKN050 OVC060 11/07 A3000 RMK AO2 RAB16 SLP166 P0001 T01060072=
201806101153 METAR KBLI 101153Z AUTO 17005KT 10SM FEW033 BKN055 OVC070 11/05 A3000 RMK AO2 SLP164 T01110050 10122 20094 53008=
201806101053 METAR KBLI 101053Z AUTO 18006KT 10SM CLR 10/05 A2999 RMK AO2 SLP161 T01000050=
201806100953 METAR KBLI 100953Z AUTO 17004KT 10SM FEW060 10/05 A2998 RMK AO2 SLP159 T01000050=
201806100853 METAR KBLI 100853Z AUTO 17003KT 10SM OVC048 11/05 A2997 RMK AO2 SLP156 T01060050 53008=
201806100753 METAR KBLI 100753Z AUTO 18004KT 10SM OVC039 12/04 A2996 RMK AO2 SLP152 T01170044 401670094=
201806100653 METAR KBLI 100653Z AUTO 16004KT 10SM CLR 10/05 A2995 RMK AO2 SLP150 T01000050=
201806100553 METAR KBLI 100553Z AUTO 17005KT 10SM CLR 12/06 A2995 RMK AO2 SLP148 T01220056 10167 20122 53003=
201806100453 METAR KBLI 100453Z 16007KT 10SM SCT065 BKN080 13/07 A2993 RMK AO2 SLP143 T01330067=
201806100353 METAR KBLI 100353Z 16005KT 10SM SCT070 BKN095 14/07 A2993 RMK AO2 SLP141 T01390067=
201806100253 METAR KBLI 100253Z 17006KT 10SM SCT070 BKN095 15/06 A2994 RMK AO2 SLP144 T01500061 56002=
201806100153 METAR KBLI 100153Z 17005KT 10SM FEW060 SCT075 SCT100 15/07 A2994 RMK AO2 SLP144 T01500067=
201806100053 METAR KBLI 100053Z 17008KT 10SM CLR 15/08 A2994 RMK AO2 SLP145 T01500078=
201806092353 METAR KBLI 092353Z 17009KT 10SM CLR 16/07 A2994 RMK AO2 SLP146 T01610067 10161 20133 50002=
201806092253 METAR KBLI 092253Z 17006KT 10SM CLR 16/07 A2995 RMK AO2 SLP147 T01610072=
201806092153 METAR KBLI 092153Z 16009G17KT 10SM CLR 16/08 A2995 RMK AO2 SLP148 T01560078=
201806092053 METAR KBLI 092053Z 16008KT 10SM FEW060 16/08 A2994 RMK AO2 SLP144 T01560078 58005=
201806091953 METAR KBLI 091953Z 17007KT 10SM FEW060 16/08 A2994 RMK AO2 SLP146 T01560078=
201806091853 METAR KBLI 091853Z 17008KT 150V210 10SM CLR 14/08 A2995 RMK AO2 SLP148 T01440078=
201806091753 METAR KBLI 091753Z 19008G16KT 10SM CLR 13/08 A2995 RMK AO2 SLP149 T01330078 10139 20100 56003=
201806091653 METAR KBLI 091653Z 16008KT 10SM CLR 13/08 A2995 RMK AO2 SLP150 T01330078=
201806091553 METAR KBLI 091553Z 16010KT 10SM SCT050 12/08 A2995 RMK AO2 SLP150 T01220078=
201806091453 METAR KBLI 091453Z 15007KT 10SM BKN045 11/08 A2996 RMK AO2 SLP152 T01110083 51008=
201806091353 METAR KBLI 091353Z 16007KT 10SM FEW033 11/08 A2996 RMK AO2 SLP151 T01060078=
201806091307 SPECI KBLI 091307Z AUTO 16003KT 10SM SCT028 SCT033 10/08 A2995 RMK AO2 T01000078=
201806091253 METAR KBLI 091253Z AUTO 16003KT 10SM FEW019 BKN027 BKN034 10/08 A2995 RMK AO2 SLP148 T01000078=
201806091153 METAR KBLI 091153Z AUTO 16009KT 10SM BKN018 BKN023 BKN029 11/08 A2994 RMK AO2 SLP144 60003 70032 T01060083 10111 20106 50004=
201806091149 SPECI KBLI 091149Z AUTO 16007KT 10SM BKN018 BKN023 11/08 A2994 RMK AO2=
201806091053 METAR KBLI 091053Z AUTO 18005KT 10SM FEW015 BKN065 11/08 A2993 RMK AO2 SLP141 T01060083=
201806091001 SPECI KBLI 091001Z AUTO 14009KT 10SM SCT007 OVC043 11/09 A2993 RMK AO2 T01060094=
201806090953 METAR KBLI 090953Z AUTO 17008KT 10SM SCT007 BKN011 OVC042 11/09 A2993 RMK AO2 RAE10B36E40 SLP140 P0002 T01060094=
201806090911 SPECI KBLI 090911Z AUTO 15006KT 10SM BKN008 BKN011 OVC041 11/09 A2992 RMK AO2 RAE10 CIG 004V009 P0001 T01110094=
201806090853 METAR KBLI 090853Z AUTO 15005KT 10SM -RA FEW005 OVC039 11/09 A2992 RMK AO2 RAB22 SLP140 P0001 60001 T01110094 53001=
201806090753 METAR KBLI 090753Z AUTO 00000KT 10SM OVC035 11/09 A2992 RMK AO2 SLP138 T01060094 401720106=
201806090653 METAR KBLI 090653Z AUTO 00000KT 10SM FEW021 OVC030 11/09 A2992 RMK AO2 RAE10 SLP137 P0000 T01110094=
201806090605 SPECI KBLI 090605Z AUTO 26003KT 10SM -RA OVC030 11/09 A2992 RMK AO2 P0000 T01110094=
201806090553 METAR KBLI 090553Z AUTO 14003KT 10SM -RA OVC029 11/09 A2992 RMK AO2 RAE14B47 SLP139 P0002 60020 T01110094 10122 20111 56010=
201806090453 METAR KBLI 090453Z 00000KT 8SM -RA OVC027 11/10 A2993 RMK AO2 SLP142 P0002 T01110100=
201806090353 METAR KBLI 090353Z 00000KT 6SM -RA BR FEW010 OVC027 11/09 A2994 RMK AO2 SLP145 P0003 T01110094=
201806090253 METAR KBLI 090253Z 07003KT 6SM -RA BR FEW010 BKN030 OVC044 11/10 A2995 RMK AO2 SLP149 P0004 60013 T01110100 58015=
201806090153 METAR KBLI 090153Z 08003KT 5SM -RA BR SCT025 OVC030 11/09 A2997 RMK AO2 SLP154 P0005 T01110094=
201806090053 METAR KBLI 090053Z 00000KT 5SM -RA SCT020 OVC027 12/09 A2998 RMK AO2 SLP159 P0004 T01170089=
201806082353 METAR KBLI 082353Z 00000KT 5SM -RA BR SCT020 OVC027 12/10 A2999 RMK AO2 SLP163 P0005 60009 T01220100 10172 20117 58000=
201806082253 METAR KBLI 082253Z VRB04KT 5SM -RA BR SCT022 BKN043 OVC065 14/12 A3000 RMK AO2 SLP165 P0002 T01390117=
201806082153 METAR KBLI 082153Z 17008KT 150V210 8SM -RA FEW027 BKN033 OVC043 14/11 A3000 RMK AO2 SLP164 P0002 T01390106=
201806082053 METAR KBLI 082053Z 17010KT 8SM -RA OVC035 15/11 A3000 RMK AO2 RAE02B36 SLP163 P0000 60000 T01500106 53006=
201806081953 METAR KBLI 081953Z 15014G19KT 10SM -RA OVC038 17/08 A2999 RMK AO2 PK WND 12026/1904 RAE10B46 SLP161 P0000 T01670083=
201806081853 METAR KBLI 081853Z 15011G22KT 10SM -RA FEW039 OVC080 16/08 A2998 RMK AO2 RAB01 SLP159 P0000 T01610083=
201806081753 METAR KBLI 081753Z 15014G19KT 10SM FEW055 BKN080 OVC095 16/08 A2998 RMK AO2 PK WND 14029/1712 SLP157 T01610078 10167 20144 53006=
201806081653 METAR KBLI 081653Z 14021G29KT 10SM BKN120 16/08 A2996 RMK AO2 PK WND 15033/1619 SLP152 T01610078=
201806081553 METAR KBLI 081553Z 15016G27KT 10SM FEW043 16/08 A2996 RMK AO2 PK WND 15031/1455 SLP152 T01610083=
201806081453 METAR KBLI 081453Z 15016G25KT 10SM CLR 17/08 A2996 RMK AO2 SLP151 T01670083 56003=
201806081353 METAR KBLI 081353Z 14017G25KT 10SM FEW110 16/08 A2996 RMK AO2 SLP151 T01610078=
201806081253 METAR KBLI 081253Z AUTO 14013G19KT 10SM OVC044 16/08 A2996 RMK AO2 SLP151 T01610078=
201806081153 METAR KBLI 081153Z AUTO 14010KT 10SM OVC045 16/08 A2997 RMK AO2 SLP154 60000 T01610078 10161 20128 56013=
201806081053 METAR KBLI 081053Z AUTO 14009KT 10SM OVC085 16/08 A2997 RMK AO2 SLP155 T01560083=
201806080953 METAR KBLI 080953Z AUTO 00000KT 10SM OVC080 13/11 A2999 RMK AO2 RAE11 SLP162 P0000 T01280111=
201806080853 METAR KBLI 080853Z AUTO 17003KT 10SM -RA FEW046 OVC085 14/11 A3001 RMK AO2 RAE07B33 SLP167 P0000 60000 T01440106 55000=
201806080753 METAR KBLI 080753Z AUTO 17004KT 10SM -RA OVC080 14/11 A3000 RMK AO2 RAE0659B51 SLP166 P0000 T01390106 401780117=
201806080653 METAR KBLI 080653Z AUTO 00000KT 10SM -RA OVC080 13/11 A3001 RMK AO2 SLP168 P0000 T01330106=
201806080553 METAR KBLI 080553Z AUTO 00000KT 10SM -RA FEW065 OVC085 13/10 A3001 RMK AO2 RAB52 SLP168 P0000 60000 T01330100 10178 20128 51005=
201806080453 METAR KBLI 080453Z 00000KT 10SM SCT085 13/09 A3001 RMK AO2 SLP168 T01330094=
201806080353 METAR KBLI 080353Z 00000KT 10SM FEW110 15/09 A3000 RMK AO2 SLP165 T01500094=
201806080253 METAR KBLI 080253Z 17003KT 10SM SCT100 BKN110 17/09 A2999 RMK AO2 SLP162 T01720089 56007=
201806080153 METAR KBLI 080153Z 00000KT 10SM FEW120 18/09 A3000 RMK AO2 SLP165 T01780089=
201806080053 METAR KBLI 080053Z 14007KT 10SM FEW120 17/09 A3000 RMK AO2 SLP165 T01720089=
201806072353 METAR KBLI 072353Z 22005KT 10SM CLR 17/09 A3001 RMK AO2 SLP169 T01670094 10172 20144 53004=
201806072253 METAR KBLI 072253Z 19007KT 10SM FEW120 17/09 A3001 RMK AO2 SLP167 T01670094=
201806072153 METAR KBLI 072153Z 17006KT 10SM FEW120 17/09 A3000 RMK AO2 SLP166 T01670094=
201806072053 METAR KBLI 072053Z 20006KT 10SM OVC046 16/09 A3000 RMK AO2 SLP165 T01610089 51007=
201806071953 METAR KBLI 071953Z VRB05KT 10SM BKN035 OVC050 15/09 A3000 RMK AO2 SLP165 T01500094=
201806071853 METAR KBLI 071853Z VRB04KT 10SM OVC030 14/09 A2999 RMK AO2 SLP161 T01440094=
201806071753 METAR KBLI 071753Z VRB05KT 10SM OVC028 14/09 A2998 RMK AO2 SLP158 T01390094 10139 20128 53005=
201806071653 METAR KBLI 071653Z 10SM OVC029 14/10 A2997 RMK AO2 SLP155 T01390100=
201806071553 METAR KBLI 071553Z 17007KT 10SM OVC027 14/09 A2997 RMK AO2 SLP153 T01390089=
201806071550 SPECI KBLI 071550Z 17008KT 10SM OVC027 14/09 A2997 RMK AO2=
201806071453 METAR KBLI 071453Z 17008KT 10SM OVC030 14/08 A2995 RMK AO2 SLP149 T01390083 53015=
201806071353 METAR KBLI 071353Z 17010KT 10SM OVC032 13/09 A2994 RMK AO2 SLP143 T01330089=
201806071253 METAR KBLI 071253Z AUTO 17005KT 10SM FEW033 13/09 A2992 RMK AO2 SLP136 T01280089=
201806071153 METAR KBLI 071153Z AUTO 16006KT 10SM CLR 13/09 A2991 RMK AO2 SLP133 T01280094 10150 20117 53009=
201806071053 METAR KBLI 071053Z 17003KT 10SM CLR 12/09 A2990 RMK AO2 SLP130 T01220094=
201806070953 METAR KBLI 070953Z 16003KT 10SM CLR 12/10 A2989 RMK AO2 SLP128 T01220100=
201806070853 METAR KBLI 070853Z 17005KT 10SM CLR 13/10 A2988 RMK AO2 SLP125 T01280100 53005=
201806070753 METAR KBLI 070753Z 16004KT 10SM CLR 14/09 A2987 RMK AO2 SLP121 T01390094 402060078=
201806070653 METAR KBLI 070653Z 18004KT 10SM CLR 14/10 A2987 RMK AO2 SLP120 T01440100=
201806070553 METAR KBLI 070553Z 19004KT 10SM CLR 15/09 A2987 RMK AO2 SLP120 T01500094 10194 20150 50002=
201806070453 METAR KBLI 070453Z 17004KT 10SM CLR 16/10 A2987 RMK AO2 SLP120 T01560100=
201806070353 METAR KBLI 070353Z 18003KT 10SM CLR 16/10 A2986 RMK AO2 SLP119 T01560100=
201806070253 METAR KBLI 070253Z 00000KT 10SM CLR 17/08 A2986 RMK AO2 SLP117 T01720083 56008=
201806070153 METAR KBLI 070153Z 24003KT 10SM CLR 18/09 A2986 RMK AO2 SLP118 T01830089=
201806070053 METAR KBLI 070053Z 24003KT 10SM BKN110 19/09 A2987 RMK AO2 SLP122 T01890089=
201806062353 METAR KBLI 062353Z 23005KT 10SM CLR 19/09 A2988 RMK AO2 SLP125 T01890089 10206 20167 56015=
201806062253 METAR KBLI 062253Z VRB03KT 10SM CLR 19/09 A2989 RMK AO2 SLP129 T01940089=
201806062153 METAR KBLI 062153Z VRB05KT 10SM CLR 19/10 A2991 RMK AO2 SLP134 T01940100 $=
201806062053 METAR KBLI 062053Z 18008KT 10SM CLR 19/09 A2993 RMK AO2 SLP140 T01940089 58011 $=
201806061953 METAR KBLI 061953Z 20008KT 10SM CLR 19/08 A2994 RMK AO2 SLP146 T01890083 $=
201806061853 METAR KBLI 061853Z 20005KT 10SM CLR 18/09 A2995 RMK AO2 SLP148 T01780089 $=
201806061753 METAR KBLI 061753Z 20005KT 10SM CLR 17/08 A2996 RMK AO2 SLP151 T01670083 10172 20078 58004 $=
201806061653 METAR KBLI 061653Z 18006KT 10SM CLR 16/08 A2997 RMK AO2 SLP154 T01560078 $=
201806061553 METAR KBLI 061553Z 20005KT 10SM CLR 15/07 A2997 RMK AO2 SLP155 T01500072=
201806061453 METAR KBLI 061453Z 00000KT 10SM SCT055 14/09 A2997 RMK AO2 SLP156 T01390089 50002=
201806061353 METAR KBLI 061353Z 00000KT 10SM BKN055 10/08 A2997 RMK AO2 SLP157 T01000078=
201806061253 METAR KBLI 061253Z AUTO 00000KT 10SM CLR 09/07 A2997 RMK AO2 SLP157 T00890067=
201806061153 METAR KBLI 061153Z AUTO 00000KT 10SM CLR 11/08 A2997 RMK AO2 SLP154 T01060078 10161 20089 53001=
201806061053 METAR KBLI 061053Z AUTO 00000KT 10SM CLR 09/07 A2997 RMK AO2 SLP155 T00940067=
201806060953 METAR KBLI 060953Z AUTO 00000KT 10SM CLR 10/08 A2996 RMK AO2 SLP152 T01000078=
201806060853 METAR KBLI 060853Z AUTO 00000KT 10SM CLR 11/08 A2997 RMK AO2 SLP154 T01060078 58005=
201806060753 METAR KBLI 060753Z AUTO 16004KT 10SM BKN110 14/08 A2998 RMK AO2 SLP157 T01390078 401940078=
201806060653 METAR KBLI 060653Z AUTO 19005KT 10SM OVC080 15/08 A2998 RMK AO2 SLP159 T01500083=
201806060553 METAR KBLI 060553Z AUTO 16004KT 10SM OVC085 16/08 A2998 RMK AO2 SLP158 T01610078 10194 20161 50002=
201806060453 METAR KBLI 060453Z 17005KT 10SM OVC085 17/08 A2999 RMK AO2 SLP160 T01670078=
201806060353 METAR KBLI 060353Z 15005KT 10SM OVC090 17/08 A2998 RMK AO2 SLP156 T01670083=
201806060253 METAR KBLI 060253Z 16006KT 10SM OVC090 17/08 A2998 RMK AO2 SLP156 T01720083 56001=
201806060153 METAR KBLI 060153Z 17005KT 10SM OVC110 18/07 A2998 RMK AO2 SLP156 T01780072=
201806060053 METAR KBLI 060053Z 18004KT 10SM SCT080 BKN120 18/06 A2998 RMK AO2 SLP157 T01830056=
201806052353 METAR KBLI 052353Z 18006KT 10SM FEW080 18/05 A2998 RMK AO2 SLP158 T01830050 10189 20133 58006=
201806052253 METAR KBLI 052253Z 18008KT 10SM CLR 18/04 A2999 RMK AO2 SLP162 T01830039=
201806052153 METAR KBLI 052153Z 17009G16KT 150V220 10SM BKN075 BKN110 18/05 A3000 RMK AO2 SLP165 T01830050=
201806052053 METAR KBLI 052053Z 15011G18KT 10SM FEW040 BKN085 17/06 A3000 RMK AO2 SLP164 T01670061 50006=
201806051953 METAR KBLI 051953Z 17009KT 10SM OVC090 15/07 A3000 RMK AO2 SLP165 T01500072=
201806051853 METAR KBLI 051853Z 17008KT 150V210 10SM FEW020 SCT060 BKN100 14/07 A2999 RMK AO2 SLP163 T01390072=
201806051753 METAR KBLI 051753Z 19005KT 10SM OVC100 13/08 A2998 RMK AO2 SLP159 T01330078 10139 20083 58001=
201806051653 METAR KBLI 051653Z VRB06KT 10SM FEW030 SCT060 BKN110 12/07 A2999 RMK AO2 SLP161 T01220067=
201806051553 METAR KBLI 051553Z 18005KT 10SM FEW020 BKN055 BKN110 12/07 A2998 RMK AO2 SLP161 T01170067=
201806051453 METAR KBLI 051453Z 16008KT 10SM BKN060 12/07 A2998 RMK AO2 SLP160 T01170067 53008=
201806051353 METAR KBLI 051353Z 16005KT 10SM FEW015 SCT040 SCT060 11/07 A2997 RMK AO2 SLP156 T01110067=
201806051253 METAR KBLI 051253Z AUTO VRB03KT 10SM SCT050 09/07 A2996 RMK AO2 SLP154 T00940067=
201806051153 METAR KBLI 051153Z AUTO 00000KT 10SM BKN055 OVC070 09/06 A2996 RMK AO2 SLP151 T00890061 10122 20072 56008=
201806051053 METAR KBLI 051053Z AUTO 00000KT 10SM BKN060 11/08 A2996 RMK AO2 SLP153 T01060078=
201806050953 METAR KBLI 050953Z AUTO 00000KT 10SM SCT050 09/06 A2997 RMK AO2 SLP156 T00940061=
201806050853 METAR KBLI 050853Z AUTO 00000KT 10SM BKN060 08/06 A2998 RMK AO2 SLP160 T00830061 58012=
201806050753 METAR KBLI 050753Z AUTO 00000KT 10SM CLR 09/06 A3000 RMK AO2 SLP167 T00890061 401670072=
201806050653 METAR KBLI 050653Z AUTO 14003KT 10SM CLR 11/06 A3001 RMK AO2 SLP170 T01060056=
201806050553 METAR KBLI 050553Z AUTO 17005KT 10SM CLR 12/07 A3002 RMK AO2 SLP171 T01170067 10167 20106 56010=
201806050453 METAR KBLI 050453Z 17005KT 10SM CLR 12/07 A3002 RMK AO2 SLP174 T01220067=
201806050353 METAR KBLI 050353Z 18003KT 10SM CLR 13/07 A3003 RMK AO2 SLP175 T01280067=
201806050253 METAR KBLI 050253Z 15008KT 10SM FEW095 15/06 A3005 RMK AO2 SLP181 T01500061 58011=
201806050153 METAR KBLI 050153Z 14010KT 10SM CLR 16/07 A3006 RMK AO2 SLP185 T01560067=
201806050053 METAR KBLI 050053Z 16010KT 10SM CLR 16/05 A3007 RMK AO2 SLP189 T01610050=
201806042353 METAR KBLI 042353Z 16011G16KT 10SM CLR 16/06 A3008 RMK AO2 SLP192 T01610061 10167 20139 58002=
201806042253 METAR KBLI 042253Z 17011G18KT 10SM CLR 16/06 A3008 RMK AO2 SLP193 T01610056=
201806042153 METAR KBLI 042153Z 19008G18KT 10SM CLR 17/06 A3009 RMK AO2 SLP194 T01670061=
201806042053 METAR KBLI 042053Z 17013KT 10SM SCT045 17/07 A3008 RMK AO2 SLP194 T01670067 51002=
201806041953 METAR KBLI 041953Z 16012G18KT 10SM SCT043 16/07 A3008 RMK AO2 SLP193 T01610067=
201806041853 METAR KBLI 041853Z 17009G18KT 10SM SCT043 16/08 A3008 RMK AO2 SLP194 T01560078=
201806041753 METAR KBLI 041753Z 16013G18KT 10SM CLR 14/08 A3008 RMK AO2 SLP192 T01440078 10144 20094 51005=
201806041653 METAR KBLI 041653Z 18011KT 10SM BKN055 BKN075 14/08 A3008 RMK AO2 SLP192 T01390083=
201806041553 METAR KBLI 041553Z 16010KT 10SM SCT015 BKN055 13/08 A3007 RMK AO2 SLP191 T01280078=
201806041453 METAR KBLI 041453Z 17010KT 140V200 10SM FEW015 FEW080 12/07 A3006 RMK AO2 SLP187 T01220072 53001=
201806041353 METAR KBLI 041353Z 16005KT 10SM FEW015 SCT080 11/07 A3006 RMK AO2 SLP187 T01110067=
201806041253 METAR KBLI 041253Z AUTO 17003KT 10SM FEW070 09/07 A3006 RMK AO2 SLP186 T00940067=
201806041153 METAR KBLI 041153Z AUTO 15004KT 10SM SCT038 OVC055 11/07 A3006 RMK AO2 RAB15E25 SLP186 P0000 60000 70013 T01060072 10111 20094 53008=
201806041053 METAR KBLI 041053Z AUTO 16005KT 10SM BKN031 OVC042 11/07 A3005 RMK AO2 SLP184 T01060067=
201806040953 METAR KBLI 040953Z AUTO 16005KT 10SM FEW027 BKN050 OVC070 11/07 A3004 RMK AO2 SLP181 T01060067=
201806040853 METAR KBLI 040853Z AUTO 15003KT 10SM FEW026 OVC055 10/07 A3004 RMK AO2 SLP179 T01000067 51006=
201806040753 METAR KBLI 040753Z AUTO 17003KT 10SM FEW065 09/07 A3004 RMK AO2 SLP178 T00940067 401440094=
201806040653 METAR KBLI 040653Z AUTO 15006KT 10SM FEW100 10/07 A3003 RMK AO2 SLP176 T01000067=
201806040553 METAR KBLI 040553Z AUTO 15008KT 10SM OVC100 11/06 A3002 RMK AO2 SLP172 60003 T01110061 10117 20111 53004=
201806040453 METAR KBLI 040453Z 17011G15KT 10SM FEW070 11/06 A3001 RMK AO2 SLP170 T01110061=
201806040353 METAR KBLI 040353Z 15007KT 10SM OVC065 11/09 A3000 RMK AO2 SLP167 P0001 T01110089=
201806040253 METAR KBLI 040253Z 16007KT 10SM OVC044 12/09 A3001 RMK AO2 RAE49 SLP168 P0000 60002 T01170089 56011=
201806040153 METAR KBLI 040153Z 15006KT 10SM -RA BKN049 OVC060 12/09 A3001 RMK AO2 RAB0054E06B31 SLP170 P0001 T01170094=
201806040053 METAR KBLI 040053Z 16008KT 10SM BKN048 BKN065 12/08 A3002 RMK AO2 RAE49 SLP173 P0001 T01170083=
201806032353 METAR KBLI 032353Z 17009KT 8SM -RA SCT015 OVC065 12/09 A3004 RMK AO2 SLP179 P0002 60010 T01170094 10144 20117 58001=
201806032322 SPECI KBLI 032322Z 17009G16KT 10SM -RA FEW007 OVC065 12/10 A3004 RMK AO2 P0001 T01170100=
201806032253 METAR KBLI 032253Z 17008KT 8SM -RA SCT015 OVC070 12/10 A3005 RMK AO2 SLP181 P0002 T01220100=
201806032153 METAR KBLI 032153Z 17010G16KT 5SM -RA SCT015 OVC070 12/09 A3004 RMK AO2 SLP179 P0002 T01170089=
201806032053 METAR KBLI 032053Z 17008KT 10SM -RA OVC070 13/09 A3004 RMK AO2 SLP180 P0003 60004 T01280094 51015=
201806031953 METAR KBLI 031953Z 15009KT 10SM -RA OVC080 13/09 A3004 RMK AO2 SLP179 P0001 T01280089=
201806031853 METAR KBLI 031853Z 17012G20KT 10SM -RA FEW065 BKN080 OVC090 13/08 A3003 RMK AO2 RAB51 SLP178 P0000 T01280083=
201806031753 METAR KBLI 031753Z 19005KT 10SM OVC090 14/09 A3000 RMK AO2 SLP165 T01440089 10144 20122 58010=
201806031653 METAR KBLI 031653Z 18006KT 10SM FEW048 OVC100 14/09 A3001 RMK AO2 SLP169 T01390094=
201806031553 METAR KBLI 031553Z 16005KT 10SM OVC100 13/09 A3002 RMK AO2 SLP173 T01330089=
201806031453 METAR KBLI 031453Z 17003KT 10SM OVC100 14/09 A3003 RMK AO2 SLP174 T01390094 56004=
201806031353 METAR KBLI 031353Z 17009KT 10SM OVC100 12/09 A3003 RMK AO2 SLP176 T01220089=
201806031253 METAR KBLI 031253Z AUTO 17006KT 10SM OVC110 13/09 A3003 RMK AO2 SLP174 T01280094=
201806031153 METAR KBLI 031153Z AUTO 18007KT 10SM FEW080 OVC110 13/09 A3004 RMK AO2 SLP178 T01280094 10139 20117 58006=
201806031053 METAR KBLI 031053Z AUTO 18006KT 10SM CLR 13/09 A3005 RMK AO2 SLP182 T01280094=
201806030953 METAR KBLI 030953Z AUTO 18006KT 10SM CLR 14/10 A3005 RMK AO2 SLP183 T01390100=
201806030853 METAR KBLI 030853Z AUTO 17005KT 10SM CLR 14/10 A3006 RMK AO2 SLP184 T01390100 58011=
201806030753 METAR KBLI 030753Z AUTO 00000KT 10SM CLR 12/09 A3007 RMK AO2 SLP189 T01220094 402220106=
201806030653 METAR KBLI 030653Z AUTO 00000KT 10SM CLR 12/08 A3008 RMK AO2 SLP191 T01220083=
201806030553 METAR KBLI 030553Z AUTO 00000KT 10SM CLR 13/09 A3009 RMK AO2 SLP195 T01330094 10222 20133 56005=
201806030453 METAR KBLI 030453Z 00000KT 10SM SCT100 16/09 A3010 RMK AO2 SLP198 T01560094=
201806030353 METAR KBLI 030353Z 00000KT 10SM SCT100 16/10 A3010 RMK AO2 SLP197 T01610100=
201806030253 METAR KBLI 030253Z 28004KT 10SM CLR 20/08 A3011 RMK AO2 SLP201 T02000083 56019=
201806030153 METAR KBLI 030153Z 25003KT 10SM CLR 21/08 A3012 RMK AO2 SLP206 T02060078=
201806030053 METAR KBLI 030053Z VRB05KT 10SM CLR 22/08 A3014 RMK AO2 SLP213 T02220083=
201806022353 METAR KBLI 022353Z 24006KT 10SM CLR 21/08 A3016 RMK AO2 SLP219 T02110078 10222 20178 58021=
201806022253 METAR KBLI 022253Z 24005KT 10SM FEW100 22/08 A3018 RMK AO2 SLP227 T02170078=
201806022153 METAR KBLI 022153Z VRB05KT 10SM CLR 22/09 A3020 RMK AO2 SLP233 T02170089=
201806022053 METAR KBLI 022053Z VRB04KT 10SM FEW060 21/09 A3022 RMK AO2 SLP241 T02110089 58010=
201806021953 METAR KBLI 021953Z 33005KT 10SM FEW070 21/09 A3023 RMK AO2 SLP243 T02060089=
201806021853 METAR KBLI 021853Z VRB03KT 10SM BKN080 19/08 A3025 RMK AO2 SLP249 T01890078=
201806021753 METAR KBLI 021753Z 00000KT 10SM CLR 18/08 A3026 RMK AO2 SLP251 T01780078 10183 20106 58004=
201806021653 METAR KBLI 021653Z 35005KT 10SM SCT080 17/09 A3027 RMK AO2 SLP255 T01670094=
201806021553 METAR KBLI 021553Z 36003KT 10SM OVC080 14/08 A3027 RMK AO2 SLP258 T01440083=
201806021453 METAR KBLI 021453Z 32003KT 10SM OVC070 13/09 A3027 RMK AO2 SLP255 T01330089 53006=
201806021353 METAR KBLI 021353Z 00000KT 10SM BKN070 OVC085 12/09 A3026 RMK AO2 SLP253 T01220094=
201806021253 METAR KBLI 021253Z AUTO 00000KT 10SM BKN070 OVC090 11/09 A3026 RMK AO2 SLP253 T01110089=
201806021153 METAR KBLI 021153Z AUTO 00000KT 10SM OVC065 11/09 A3025 RMK AO2 SLP251 60000 T01060089 10133 20106 50003=
201806021053 METAR KBLI 021053Z AUTO 00000KT 10SM OVC080 11/09 A3025 RMK AO2 RAB33E52 SLP251 P0000 T01110089=
201806020953 METAR KBLI 020953Z AUTO 00000KT 10SM FEW060 OVC085 12/08 A3025 RMK AO2 SLP249 T01170078=
201806020853 METAR KBLI 020853Z AUTO 00000KT 10SM OVC060 12/08 A3024 RMK AO2 SLP248 60000 T01220078 58001=
201806020753 METAR KBLI 020753Z AUTO 35003KT 10SM BKN070 12/08 A3024 RMK AO2 SLP248 T01220078 401720111=
201806020653 METAR KBLI 020653Z AUTO 00000KT 10SM OVC070 13/08 A3025 RMK AO2 RAB30E44 SLP250 P0000 T01330078=
201806020553 METAR KBLI 020553Z AUTO 00000KT 10SM OVC070 13/08 A3024 RMK AO2 SLP248 60000 T01330083 10167 20128 53004=
201806020453 METAR KBLI 020453Z 03003KT 10SM BKN080 13/08 A3024 RMK AO2 RAB08E19 SLP247 P0000 T01280083=
201806020353 METAR KBLI 020353Z 02003KT 10SM BKN080 13/08 A3023 RMK AO2 SLP243 T01280078=
201806020253 METAR KBLI 020253Z 00000KT 10SM BKN075 15/08 A3023 RMK AO2 RAB28E39 SLP245 P0000 60000 T01500078 55003=
201806020153 METAR KBLI 020153Z 00000KT 10SM BKN070 16/07 A3023 RMK AO2 SLP244 T01560067=
201806020053 METAR KBLI 020053Z 18005KT 10SM SCT090 OVC110 16/07 A3023 RMK AO2 RAB19E29 SLP245 P0000 T01610067=
201806012353 METAR KBLI 012353Z 16007KT 10SM BKN060 17/07 A3024 RMK AO2 RAB45E51 SLP248 P0000 60000 T01670067 10172 20133 53005=
201806012253 METAR KBLI 012253Z 18006G15KT 10SM BKN065 17/07 A3024 RMK AO2 SLP246 T01670067=
201806012153 METAR KBLI 012153Z VRB05KT 10SM SCT045 OVC060 16/07 A3023 RMK AO2 SLP243 T01560067=
201806012053 METAR KBLI 012053Z 19007KT 150V210 10SM SCT050 16/07 A3023 RMK AO2 SLP243 T01560072 51012=
201806011953 METAR KBLI 011953Z 16008KT 10SM FEW046 15/07 A3022 RMK AO2 SLP239 T01500067=
201806011853 METAR KBLI 011853Z VRB05KT 10SM OVC050 13/07 A3022 RMK AO2 SLP239 T01330067=
201806011753 METAR KBLI 011753Z 18007KT 10SM OVC045 13/07 A3019 RMK AO2 SLP232 T01330067 10133 20111 51014=
201806011653 METAR KBLI 011653Z VRB06KT 10SM OVC044 13/06 A3018 RMK AO2 SLP226 T01330061=
201806011553 METAR KBLI 011553Z 15011KT 10SM BKN037 OVC046 12/06 A3017 RMK AO2 SLP224 T01220061=
201806011453 METAR KBLI 011453Z 16010G17KT 10SM SCT043 OVC050 12/06 A3015 RMK AO2 SLP218 T01170061 51021=
201806011353 METAR KBLI 011353Z 17008KT 10SM OVC042 12/06 A3013 RMK AO2 SLP211 T01170061=
201806011253 METAR KBLI 011253Z AUTO 15006KT 10SM SCT043 OVC080 11/05 A3011 RMK AO2 SLP204 T01110050=
201806011153 METAR KBLI 011153Z AUTO 15009KT 10SM OVC085 11/05 A3009 RMK AO2 SLP197 T01110050 10122 20111 51022=
201806011053 METAR KBLI 011053Z AUTO 14009KT 10SM OVC080 11/05 A3007 RMK AO2 SLP189 T01110050=
201806010953 METAR KBLI 010953Z AUTO 16010G17KT 10SM FEW070 OVC080 12/05 A3006 RMK AO2 SLP185 T01170050=
201806010853 METAR KBLI 010853Z AUTO 16011G17KT 10SM CLR 12/05 A3003 RMK AO2 SLP175 T01170050 53016=
201806010753 METAR KBLI 010753Z AUTO 17011G18KT 10SM CLR 12/04 A3001 RMK AO2 SLP168 T01170044 401670078=
201806010653 METAR KBLI 010653Z AUTO 17010KT 10SM BKN075 12/04 A2999 RMK AO2 SLP163 T01220039=
201806010553 METAR KBLI 010553Z AUTO 16007G15KT 10SM FEW075 12/03 A2998 RMK AO2 SLP159 T01220033 10161 20122 53016=
201806010453 METAR KBLI 010453Z 15011KT 10SM SCT070 13/04 A2997 RMK AO2 SLP154 T01280039=
201806010353 METAR KBLI 010353Z 16010KT 10SM FEW080 SCT120 14/04 A2994 RMK AO2 SLP146 T01390044=
201806010253 METAR KBLI 010253Z 16009G17KT 10SM SCT080 15/06 A2993 RMK AO2 SLP143 T01500061 53007=
201806010153 METAR KBLI 010153Z 16011G19KT 10SM SCT080 16/07 A2992 RMK AO2 SLP139 T01560067=
201806010053 METAR KBLI 010053Z 16013G18KT 10SM CLR 16/06 A2991 RMK AO2 SLP136 T01560061=

# No short TAF reports from KBLI in databse.

###################################
#  large TAF from KBLI
###################################
201806302327 TAF KBLI 302327Z 0100/0124 16012KT P6SM FEW007 BKN014 OVC040 FM010400
                       17010KT P6SM BKN025 OVC040 FM011000 17008KT
                       P6SM OVC020 FM012000 17014KT P6SM BKN035
                       FM012300 17014KT P6SM SCT035=
201806302218 KBLI 302218Z 3022/0118 18009KT P6SM SCT025 OVC040
                      TEMPO 3022/0102 BKN014 OVC035 FM011000 17008KT
                       P6SM OVC025=
201806302105 KBLI 302105Z 3021/0118 18009KT P6SM SCT025 OVC040 FM011000 17008KT
                       P6SM OVC025=
201806301937 KBLI 301937Z 3020/0118 17008KT 5SM -RA BR FEW009 BKN012 OVC060
                       FM302200 17008KT P6SM -SHRA BKN025 OVC050
                       FM010300 17012KT P6SM VCSH OVC025=
201806301720 TAF KBLI 301720Z 3018/0118 16010KT P6SM -SHRA FEW025 BKN070 OVC080
                       FM302000 17010KT P6SM -SHRA OVC025 FM010300
                       17012KT P6SM VCSH OVC025=
201806301624 KBLI 301624Z 3016/0112 17011KT P6SM SCT025 OVC060 FM301800 17009KT
                       P6SM -SHRA BKN025 OVC100 FM302100 VRB04KT
                       P6SM -SHRA OVC025 FM010300 VRB04KT P6SM
                       VCSH OVC020=
201806301424 KBLI 301424Z 3014/0112 17007KT P6SM BKN023 OVC035 FM301800 18008KT
                       P6SM -SHRA OVC030 FM302100 VRB04KT P6SM
                       -SHRA OVC025 FM010300 VRB04KT P6SM VCSH
                       OVC020=
201806301120 TAF KBLI 301120Z 3012/0112 18006KT P6SM OVC040 FM301800 18008KT
                       P6SM -SHRA OVC030 FM302100 VRB04KT P6SM
                       -SHRA OVC025 FM010300 VRB04KT P6SM VCSH
                       OVC020=
201806300802 KBLI 300802Z 3008/0106 17005KT P6SM SCT050 FM301200 18006KT P6SM
                       OVC050 FM301500 17012KT P6SM -SHRA OVC040
                       FM302100 17009KT P6SM -SHRA BKN035 OVC050
                       FM010300 17007KT P6SM SCT035 BKN050=
201806300523 TAF KBLI 300523Z 3006/0106 17005KT P6SM OVC028 FM301500 17012KT
                       P6SM -SHRA OVC022 FM302100 17009KT P6SM
                       -SHRA BKN035 OVC050 FM010300 17007KT P6SM
                       SCT035 BKN050=
201806300200 KBLI 300200Z 3002/3024 17004KT P6SM OVC040 FM301500 17011G18KT
                       P6SM VCSH BKN015 OVC025 FM302100 17008G15KT
                       P6SM -SHRA SCT015 OVC030=
201806292326 TAF KBLI 292326Z 3000/3024 VRB06KT P6SM VCSH FEW020 SCT040 OVC050
                       FM300800 17005KT P6SM OVC035 FM301500 17011G18KT
                       P6SM VCSH BKN015 OVC025 FM302100 17008G15KT
                       P6SM -SHRA SCT015 OVC030=
201806291738 TAF KBLI 291738Z 2918/3018 00000KT P6SM -RA OVC035 FM292100 18005KT
                       P6SM VCSH OVC035 FM301100 17007KT P6SM OVC025
                       FM301400 17012G18KT P6SM -RA OVC025=
201806291120 TAF KBLI 291120Z 2912/3012 18006KT P6SM OVC040 FM300400 18008KT
                       P6SM OVC030=
201806290521 TAF KBLI 290521Z 2906/3006 17008KT P6SM BKN050 OVC070 FM291000
                       16006KT P6SM OVC035 FM291400 16006KT P6SM
                       OVC025 FM291900 17007KT P6SM OVC035 FM292200
                       18008KT P6SM BKN045 OVC070=
201806282320 TAF KBLI 282320Z 2900/2924 17012KT P6SM VCSH SCT035 OVC090 FM291000
                       16006KT P6SM VCSH OVC035 FM291400 16006KT
                       P6SM VCSH OVC015 FM292200 17007KT P6SM OVC035=
201806281730 TAF KBLI 281730Z 2818/2918 17011KT P6SM FEW030 BKN120 FM290900
                       17004KT P6SM VCSH OVC020=
201806281504 KBLI 281504Z 2815/2912 15010KT P6SM SCT028 OVC050 FM282100 21007KT
                       P6SM SCT020 OVC050 FM290600 18008KT P6SM
                       OVC025=
201806281309 KBLI 281309Z 2813/2912 15005KT P6SM BKN027 OVC040 FM282100 21007KT
                       P6SM SCT020 OVC050 FM290600 18008KT P6SM
                       OVC025=
201806281120 TAF KBLI 281120Z 2812/2912 15005KT P6SM BKN040 BKN080 FM282100
                       21007KT P6SM OVC040 FM290600 18008KT P6SM
                       OVC025=
201806280520 TAF KBLI 280520Z 2806/2906 17008KT P6SM BKN150 FM281000 17008KT
                       P6SM SCT020 BKN035 OVC060 FM281200 17010KT
                       P6SM SCT012 BKN020 OVC045 FM281900 17012KT
                       P6SM SCT025 OVC045=
201806272344 TAF KBLI 272344Z 2800/2824 18006KT P6SM SCT060 BKN120 OVC200 FM280200
                       17012G18KT P6SM BKN090 OVC120 FM280900 17008KT
                       P6SM SCT020 BKN035 OVC060 FM281200 17010KT
                       P6SM SCT012 BKN020 OVC045 FM282100 17010KT
                       P6SM -RA SCT018 BKN025 OVC045=
201806271738 TAF KBLI 271738Z 2718/2818 19006KT P6SM SCT060 BKN120 OVC200 FM280200
                       17012G18KT P6SM BKN090 OVC120 FM280900 17008KT
                       P6SM SCT020 BKN035 OVC060 FM281200 17010KT
                       P6SM SCT012 BKN020 OVC045=
201806271120 TAF KBLI 271120Z 2712/2812 17005KT P6SM SCT120 BKN200 FM271800
                       17008KT P6SM SCT070 BKN120 OVC200 FM280200
                       17012G18KT P6SM BKN080 OVC120 FM280900 17008KT
                       P6SM BKN040 OVC080=
201806270531 TAF KBLI 270531Z 2706/2806 18005KT P6SM FEW050 SCT250 FM271100
                       17005KT P6SM SCT120 BKN200 FM271800 17008KT
                       P6SM SCT050 BKN070 BKN120 FM280200 17012KT
                       P6SM BKN060 OVC120=
201806262322 TAF KBLI 262322Z 2700/2724 20008KT P6SM FEW050 FM270300 18005KT
                       P6SM FEW050 FM271100 17005KT P6SM SCT050
                       BKN120 FM271800 17008KT P6SM SCT050 BKN070
                       BKN120=
201806261721 TAF KBLI 261721Z 2618/2718 18009KT P6SM SCT035 BKN060 FM262100
                       20008KT P6SM SCT050 FM270300 18005KT P6SM
                       FEW050 SCT200 FM271100 17005KT P6SM SCT050
                       BKN120=
201806261134 TAF KBLI 261134Z 2612/2712 18005KT P6SM BKN045 BKN070 FM261800
                       18009KT P6SM SCT035 BKN060 FM262100 20008KT
                       P6SM SCT050 FM270300 18005KT P6SM FEW050
                       SCT200 FM271100 17005KT P6SM SCT050 BKN120=
201806260524 TAF KBLI 260524Z 2606/2706 18004KT P6SM BKN060 OVC080 FM261400
                       17005KT P6SM BKN020 OVC050 FM261800 18008KT
                       P6SM SCT025 BKN050 FM262100 18008KT P6SM
                       SCT050=
201806252320 TAF KBLI 252320Z 2600/2624 16012KT P6SM SCT050 BKN070 FM260200
                       17009KT P6SM SCT035 BKN060 FM260700 17006KT
                       P6SM BKN035 FM261800 18009KT P6SM SCT050
                       SCT250=
201806252128 KBLI 252128Z 2521/2618 17013G20KT P6SM VCSH SCT040 BKN060 FM260200
                       17009KT P6SM SCT035 BKN060 FM260700 17006KT
                       P6SM BKN035=
201806251741 TAF KBLI 251741Z 2518/2618 22007KT P6SM VCSH OVC050 FM252000 19010KT
                       P6SM VCSH BKN035 BKN060 FM260200 17009KT
                       P6SM SCT035 BKN060 FM260700 17006KT P6SM
                       BKN035=
201806251144 TAF KBLI 251144Z 2512/2612 16012KT P6SM VCSH SCT015 BKN050
                      TEMPO 2512/2516 BKN010 OVC035 FM251600 18011KT
                       P6SM VCSH BKN030 BKN050 FM252000 19010KT
                       P6SM VCSH BKN035 BKN060 FM260200 17009KT
                       P6SM SCT035 BKN060 FM260700 17006KT P6SM
                       BKN035=
201806250657 KBLI 250657Z 2507/2606 21007KT P6SM -RA BKN025 BKN050
                      TEMPO 2507/2511 5SM -RA BR BKN012 OVC022
                       FM251200 21012KT P6SM VCSH BKN025 BKN050=
201806250520 TAF KBLI 250520Z 2506/2606 21007KT P6SM -RA OVC050 FM251200 21012KT
                       P6SM VCSH BKN025 BKN050=
201806242335 TAF KBLI 242335Z 2500/2524 VRB06KT P6SM FEW110 SCT200 FM250300
                       20004KT P6SM BKN050 OVC120 FM250700 18007KT
                       5SM -RA OVC035 FM251000 18010G17KT 5SM -RA
                       OVC009 FM251500 18013KT 5SM -RA OVC020 FM251900
                       18014G20KT P6SM VCSH BKN025 OVC050 FM252000
                       18012G18KT P6SM BKN050=
201806241729 TAF KBLI 241729Z 2418/2518 17006KT P6SM SCT008 FM241900 22006KT
                       P6SM SCT200 FM250300 VRB03KT P6SM BKN060
                       OVC120 FM250800 17010G17KT 5SM -RA OVC019
                       FM251400 18011G17KT P6SM VCSH BKN022 BKN050=
201806241610 KBLI 241610Z 2416/2512 VRB04KT 2SM BR OVC004 FM241700 20007KT P6SM
                       SCT120 BKN200 FM250100 22008KT P6SM BKN080
                       OVC120 FM250500 18008KT P6SM -RA OVC040
                       FM250900 17006KT P6SM -RA OVC025=
201806241456 KBLI 241456Z 2415/2512 18006KT P6SM SCT005 BKN200
                      TEMPO 2415/2416 2SM BR OVC003 FM241800 20007KT
                       P6SM SCT120 BKN200 FM250100 22008KT P6SM
                       BKN080 OVC120 FM250500 18008KT P6SM -RA
                       OVC040 FM250900 17006KT P6SM -RA OVC025=
201806241337 KBLI 241337Z 2414/2512 18006KT P6SM SCT005 BKN200
                      TEMPO 2414/2416 BKN004 FM241800 20007KT P6SM
                       SCT120 BKN200 FM250100 22008KT P6SM BKN080
                       OVC120 FM250500 18008KT P6SM -RA OVC040
                       FM250900 17006KT P6SM -RA OVC025=
201806241133 TAF KBLI 241133Z 2412/2512 18006KT P6SM BKN200 FM241800 20007KT
                       P6SM SCT120 BKN200 FM250100 22008KT P6SM
                       BKN080 OVC120 FM250500 18008KT P6SM -RA
                       OVC040 FM250900 17006KT P6SM -RA OVC025=
201806240539 TAF KBLI 240539Z 2406/2506 18006KT P6SM SKC FM242000 21007KT P6SM
                       SCT050 SCT120 BKN200 FM250300 21008KT P6SM
                       BKN040 BKN120 FM250500 18008KT P6SM -RA
                       OVC040=
201806232323 TAF KBLI 232323Z 2400/2424 VRB03KT P6SM SCT050 FM241300 20005KT
                       P6SM SCT010 FM241600 24005KT P6SM SKC=
201806231732 TAF KBLI 231732Z 2318/2418 17005KT P6SM BKN024 OVC045 FM232000
                       18007KT P6SM BKN035 FM232300 17006KT P6SM
                       SCT040 FM241200 17004KT P6SM SCT010=
201806231514 KBLI 231514Z 2315/2412 18005KT P6SM OVC017 FM231700 18006KT P6SM
                       BKN035 OVC050 FM231900 18006KT P6SM SCT045=
201806231131 TAF KBLI 231131Z 2312/2412 18006KT P6SM BKN035 OVC050 FM231900
                       18006KT P6SM SCT045=
201806230520 TAF KBLI 230520Z 2306/2406 18008KT P6SM BKN040 FM231000 17005KT
                       P6SM OVC035 FM232300 18007KT P6SM SCT045=
201806222330 TAF KBLI 222330Z 2300/2324 18008KT P6SM BKN040 FM230200 17007KT
                       P6SM SCT045 FM231000 17005KT P6SM OVC035
                       FM232300 18007KT P6SM SCT045=
201806221733 TAF KBLI 221733Z 2218/2318 17008KT P6SM OVC018 FM222000 17009KT
                       P6SM BKN030 FM230800 19006KT P6SM OVC020=
201806221121 TAF KBLI 221121Z 2212/2312 18008KT P6SM OVC020 FM221800 18008KT
                       P6SM SCT020 BKN035=
201806220520 TAF KBLI 220520Z 2206/2306 17012G20KT P6SM BKN050 FM220900 20008KT
                       P6SM OVC040 FM221800 22010KT P6SM VCSH BKN040=
201806212347 TAF KBLI 212347Z 2200/2224 17010KT P6SM SKC FM220900 17011KT P6SM
                       OVC030 FM221200 18011KT P6SM OVC015 FM221800
                       18012G20KT P6SM OVC025=
201806212054 KBLI 212054Z 2121/2218 16011KT P6SM SCT010 SCT025 FM212200 17010G16KT
                       P6SM SCT040 FM221200 17011KT P6SM OVC015=
201806211724 TAF KBLI 211724Z 2118/2218 16011KT P6SM SCT010 OVC015 FM212100
                       17010G16KT P6SM SCT040 FM221200 17011KT
                       P6SM OVC015=
201806211426 KBLI 211426Z 2114/2212 16011KT P6SM VCSH OVC009 FM211600 18012KT
                       P6SM OVC015 FM211900 18012KT P6SM BKN025
                       FM212100 18010KT P6SM SCT040 BKN150 FM220900
                       18010KT P6SM OVC025=
201806211143 KBLI 211143Z 2112/2212 16015G25KT P6SM OVC015 FM211600 18012KT
                       P6SM OVC015 FM211900 18012KT P6SM BKN025
                       FM212100 18010KT P6SM SCT040 BKN150 FM220900
                       18010KT P6SM OVC025=
201806211130 TAF KBLI 211130Z 2112/2212 16015G25KT P6SM SKC FM211400 16015G25KT
                       P6SM OVC015 FM211600 18012KT P6SM OVC015
                       FM211900 18012KT P6SM BKN025 FM212100 18010KT
                       P6SM SCT040 BKN150 FM220900 18010KT P6SM
                       OVC025=
201806210520 TAF KBLI 210520Z 2106/2206 18010KT P6SM BKN250 FM211100 18010KT
                       P6SM BKN010 FM211600 18012KT P6SM OVC015
                       FM211800 22007KT P6SM OVC025 FM212100 22007KT
                       P6SM BKN035 FM220000 22007KT P6SM SCT040
                       FM220500 22007KT P6SM BKN030=
201806202328 TAF KBLI 202328Z 2100/2124 23006KT P6SM BKN150 BKN250 FM210300
                       19005KT P6SM VCSH BKN120 BKN200 FM211400
                       18016KT P6SM OVC020 FM211900 18014KT P6SM
                       OVC035=
201806201735 TAF KBLI 201735Z 2018/2118 20005KT P6SM SCT120 BKN200
                      TEMPO 2023/2103 -TSRA BKN070CB FM210300 18008KT
                       P6SM VCSH BKN080 BKN120 FM210900 17012KT
                       P6SM SCT020 BKN100=
201806201122 TAF KBLI 201122Z 2012/2112 VRB04KT P6SM SCT120 SCT200 FM201800
                       19006KT P6SM SCT120 BKN200 FM210100 18008KT
                       P6SM VCSH BKN080 BKN120 FM210900 17012KT
                       P6SM SCT020 BKN100=
201806200525 TAF KBLI 200525Z 2006/2106 17010KT P6SM FEW120 SCT250 FM201800
                       19006KT P6SM SCT060 BKN250 FM210300 18008KT
                       P6SM SCT060 BKN250=
201806192320 TAF KBLI 192320Z 2000/2024 17006KT P6SM FEW250 FM201800 19006KT
                       P6SM FEW060 BKN250=
201806191738 TAF KBLI 191738Z 1918/2018 18008KT P6SM SKC FM200600 17004KT P6SM
                       SCT250=
201806191136 TAF KBLI 191136Z 1912/2012 17011KT P6SM SKC FM191800 19008KT P6SM
                       FEW120 SCT200 FM200300 17007KT P6SM SCT120
                       SCT200=
201806190600 TAF KBLI 190600Z 1906/2006 17009KT P6SM SKC FM191800 19007KT P6SM
                       SCT150 FM200300 17005KT P6SM SCT120 SCT250=
201806182327 TAF KBLI 182327Z 1900/1924 17005KT P6SM FEW250 FM190600 17010KT
                       P6SM SKC FM191800 19007KT P6SM SKC=
201806181749 TAF KBLI 181749Z 1818/1918 VRB04KT P6SM FEW250 FM190000 21005KT
                       P6SM FEW250 FM190300 17005KT P6SM FEW250
                       FM190600 17010KT P6SM SKC=
201806181134 TAF KBLI 181134Z 1812/1912 VRB03KT P6SM SCT250 FM181800 23006KT
                       P6SM FEW150 SCT250 FM190300 17006KT P6SM
                       FEW150 SCT250 FM190900 17011KT P6SM SCT200=
201806180550 TAF KBLI 180550Z 1806/1906 VRB03KT P6SM SCT250 FM181800 28006KT
                       P6SM FEW150 SCT250 FM182100 23005KT P6SM
                       FEW150 SCT250 FM190300 17005KT P6SM FEW150
                       SCT250=
201806172320 TAF KBLI 172320Z 1800/1824 VRB03KT P6SM SCT250 FM181800 31005KT
                       P6SM SKC FM182100 25005KT P6SM FEW250=
201806171741 TAF KBLI 171741Z 1718/1818 33008KT P6SM FEW060 FM172100 29006KT
                       P6SM SKC FM180100 VRB02KT P6SM SKC=
201806171136 TAF KBLI 171136Z 1712/1812 00000KT P6SM SKC FM172100 29006KT P6SM
                       SKC FM180300 18005KT P6SM SKC=
201806170556 TAF KBLI 170556Z 1706/1806 20005KT P6SM SCT100 SCT200 FM171800
                       34008KT P6SM FEW100 SCT150 FM172100 30010KT
                       P6SM FEW100 SCT150 FM180400 20004KT P6SM
                       FEW100=
201806170005 KBLI 170005Z 1700/1724 31012KT P6SM FEW250 FM170300 28005KT P6SM
                       SKC FM171700 34008KT P6SM SKC FM172100 28008KT
                       P6SM SKC=
201806162326 TAF KBLI 162326Z 1700/1724 28008KT P6SM FEW250 FM170300 VRB02KT
                       P6SM SKC FM171700 34008KT P6SM SKC FM172100
                       28008KT P6SM SKC=
201806161908 KBLI 161908Z 1619/1718 31010KT P6SM FEW060 SCT250 FM170000 28008KT
                       P6SM FEW090 SCT250 FM170300 VRB02KT P6SM
                       SCT250=
201806161741 TAF KBLI 161741Z 1618/1718 35013KT P6SM FEW060 SCT250 FM162100
                       31010KT P6SM FEW060 SCT250 FM170000 28008KT
                       P6SM FEW090 SCT250 FM170300 VRB02KT P6SM
                       SCT250=
201806161525 KBLI 161525Z 1615/1712 34008KT P6SM FEW060 FM161800 36007KT P6SM
                       SKC FM170200 16004KT P6SM SKC=
201806161138 TAF KBLI 161138Z 1612/1712 35005KT P6SM SCT050 SCT120 FM161600
                       36007KT P6SM SKC FM170200 16004KT P6SM SKC=
201806160549 TAF KBLI 160549Z 1606/1706 17005KT P6SM BKN080 FM161600 36009KT
                       P6SM SCT080 SCT100 FM162100 33008KT P6SM
                       SCT080 SCT100 FM170200 VRB03KT P6SM FEW100=
201806152341 TAF KBLI 152341Z 1600/1624 VRB05KT P6SM BKN070 FM160300 VRB02KT
                       P6SM SCT070 FM161500 02005KT P6SM SCT250
                       FM161800 35009KT P6SM SCT250 FM162100 28007KT
                       P6SM SKC=
201806152227 KBLI 152227Z 1522/1618 22006KT P6SM SCT030 OVC060 FM160000 21006KT
                       P6SM BKN070 FM160300 VRB02KT P6SM SCT070=
201806151740 TAF KBLI 151740Z 1518/1618 VRB03KT P6SM FEW015 SCT040 BKN060 FM152000
                       25006KT P6SM BKN060 FM160000 21006KT P6SM
                       SCT070 FM160300 VRB02KT P6SM SCT070=
201806151130 TAF KBLI 151130Z 1512/1612 17003KT P6SM SCT020 SCT070 FM152000
                       21007KT P6SM SKC FM160900 VRB03KT P6SM SCT070=
201806150530 TAF KBLI 150530Z 1506/1606 17004KT P6SM FEW070 FM151000 18003KT
                       P6SM SCT018 BKN050 FM152000 19008KT P6SM
                       SCT080=
201806142322 TAF KBLI 142322Z 1500/1524 17008KT P6SM SCT080 FM151000 18003KT
                       P6SM SCT018 BKN050 FM152000 19008KT P6SM
                       SCT080=
201806141731 TAF KBLI 141731Z 1418/1518 16012G18KT P6SM FEW015 SCT045 BKN080
                       FM150000 17008KT P6SM SCT050 SCT080 FM151000
                       18003KT P6SM SCT018 BKN050=
201806141133 TAF KBLI 141133Z 1412/1512 17004KT P6SM VCSH SCT020 BKN040 FM141700
                       17009KT P6SM SCT025 BKN050 FM142200 17007KT
                       P6SM SKC FM151000 18003KT P6SM SCT018=
201806140932 KBLI 140932Z 1410/1506 17004KT P6SM VCSH SCT030 BKN050 FM141300
                       17008KT P6SM VCSH SCT020 BKN035 FM141700
                       17009KT P6SM SCT025 BKN050 FM142200 17007KT
                       P6SM SKC=
201806140537 TAF KBLI 140537Z 1406/1506 17003KT P6SM BKN060 OVC080 FM140900
                       18006KT P6SM BKN020 FM141700 21006KT P6SM
                       SCT025 BKN050=
201806132320 TAF KBLI 132320Z 1400/1424 20012KT P6SM SCT040 FM140900 18006KT
                       P6SM BKN020 FM141700 21006KT P6SM SCT025
                       BKN050=
201806131720 TAF KBLI 131720Z 1318/1418 15010KT P6SM SCT015 BKN040
                      TEMPO 1318/1321 -SHRA BKN015 OVC030 FM132200
                       22010KT P6SM VCSH BKN040 FM140900 18006KT
                       P6SM BKN020 FM141700 21006KT P6SM SCT025
                       BKN050=
201806131128 TAF KBLI 131128Z 1312/1412 15005KT P6SM -RA OVC050 FM131600 18012G18KT
                       P6SM -RA BKN025 BKN050 FM132100 18012G18KT
                       P6SM -SHRA SCT030 BKN050 FM140700 17007KT
                       P6SM BKN027 BKN050=
201806130520 TAF KBLI 130520Z 1306/1406 00000KT P6SM OVC080 FM130900 16007KT
                       P6SM -RA OVC050 FM131600 18012G18KT P6SM
                       -SHRA BKN025 BKN050 FM132100 18012G18KT
                       P6SM VCSH SCT030 BKN050=
201806122324 TAF KBLI 122324Z 1300/1324 VRB04KT P6SM OVC110 FM130900 16007KT
                       P6SM -RA OVC050 FM131600 18012G18KT P6SM
                       -SHRA BKN025 BKN050 FM132100 18012G18KT
                       P6SM VCSH SCT030 BKN050=
201806121732 TAF KBLI 121732Z 1218/1318 03008KT P6SM FEW150 BKN250 FM122100
                       31005KT P6SM OVC150 FM130400 VRB04KT P6SM
                       OVC080 FM130900 16007KT P6SM -RA OVC050
                       FM131600 18012G18KT P6SM -SHRA BKN025 BKN050=
201806121142 TAF KBLI 121142Z 1212/1312 VRB03KT P6SM SCT250 FM121900 30005KT
                       P6SM BKN200 FM130100 23005KT P6SM BKN120
                       OVC200 FM130900 13006KT P6SM -RA OVC050=
201806120530 TAF KBLI 120530Z 1206/1306 17005KT P6SM SKC FM121000 VRB03KT P6SM
                       SCT250 FM121900 30005KT P6SM BKN250=
201806112320 TAF KBLI 112320Z 1200/1224 17009KT P6SM SKC FM120500 17005KT P6SM
                       SKC FM121000 VRB03KT P6SM SCT250 FM121900
                       30005KT P6SM BKN250=
201806111725 TAF KBLI 111725Z 1118/1218 16008KT P6SM FEW020 SCT060 FM112200
                       18009KT P6SM SKC FM120500 17005KT P6SM SKC=
201806111130 TAF KBLI 111130Z 1112/1212 17006KT P6SM SCT025 BKN050 FM111700
                       17010KT P6SM SCT050 FM112200 18009KT P6SM
                       SKC FM120500 17005KT P6SM SKC=
201806110538 TAF KBLI 110538Z 1106/1206 17006KT P6SM SCT045 BKN060 FM111100
                       18004KT P6SM SCT025 BKN040 FM111400 17006KT
                       P6SM BKN025 BKN040 FM111700 17009KT P6SM
                       SCT030 FM112000 18008KT P6SM SKC=
201806102320 TAF KBLI 102320Z 1100/1124 20007KT P6SM VCSH BKN040 FM110400 VRB04KT
                       P6SM SCT040 FM111100 VRB04KT P6SM BKN020
                       FM111700 VRB04KT P6SM SCT025 BKN050 FM112200
                       21006KT P6SM SCT050=
201806101720 TAF KBLI 101720Z 1018/1118 16012KT P6SM SCT040 FM102200 22010KT
                       P6SM VCSH BKN040 FM110400 VRB04KT P6SM SCT040
                       FM111100 VRB04KT P6SM BKN020 FM111700 VRB04KT
                       P6SM SCT025 BKN050=
201806101139 TAF KBLI 101139Z 1012/1112 18006KT P6SM VCSH SCT035 SCT060
                      TEMPO 1012/1016 BKN035 FM101900 17012KT P6SM
                       VCSH SCT040 BKN060 FM102200 17010KT P6SM
                       -SHRA SCT025 BKN040 OVC060 FM110600 17006KT
                       P6SM BKN035=
201806100551 TAF KBLI 100551Z 1006/1106 16007KT P6SM SCT050 FM101000 18006KT
                       P6SM VCSH SCT020 BKN030 FM101900 17010KT
                       P6SM VCSH SCT040 BKN060 FM110500 17005KT
                       P6SM VCSH SCT025 BKN040 OVC060=
201806092320 TAF KBLI 092320Z 1000/1024 18007KT P6SM SCT050 FM100900 18006KT
                       P6SM BKN020 FM101800 21010KT P6SM -SHRA
                       BKN035 FM102300 21010KT P6SM VCSH BKN050=
201806091720 TAF KBLI 091720Z 0918/1018 16010KT P6SM SCT040 FM092000 18010KT
                       P6SM VCSH BKN040 FM101000 18008KT P6SM BKN020
                       BKN040 FM101600 18010KT P6SM -SHRA BKN020
                       OVC040=
201806091632 KBLI 091632Z 0917/1012 16010KT P6SM SCT040 FM092000 18010KT P6SM
                       VCSH BKN040 FM101000 18008KT P6SM VCSH BKN020
                       BKN040=
201806091120 TAF KBLI 091120Z 0912/1012 17008KT P6SM VCSH SCT015 BKN025 OVC060
                       FM091900 18010KT P6SM VCSH SCT020 BKN060
                       FM092200 18009KT P6SM VCSH SCT025 SCT050=
201806090538 TAF KBLI 090538Z 0906/1006 17003KT P6SM -SHRA SCT012 BKN020 OVC030
                       FM091600 17008KT P6SM VCSH SCT015 BKN025
                       OVC060 FM091900 18010KT P6SM VCSH SCT020
                       BKN060 FM092200 18009KT P6SM VCSH SCT025
                       SCT050=
201806082320 TAF KBLI 082320Z 0900/0924 VRB04KT P6SM -RA SCT022 OVC050
                      TEMPO 0900/0904 4SM -RA BR BKN022 OVC040
                       FM090500 VRB04KT P6SM -RA BKN015 OVC040
                       TEMPO 0905/0909 5SM -RA BR OVC010 FM091200
                       23007KT P6SM -SHRA BKN012 BKN030 FM092000
                       23007KT P6SM VCSH SCT020 BKN040=
201806081721 TAF KBLI 081721Z 0818/0918 15014G25KT P6SM BKN040 OVC080 FM082100
                       16005KT 5SM -RA BR SCT025 BKN040 OVC060
                       FM090100 16005KT P6SM -SHRA SCT015 BKN025
                       OVC035 FM090500 17006KT P6SM -SHRA SCT015
                       OVC025 FM091000 17005KT P6SM -SHRA OVC015=
201806081215 TAF KBLI 081215Z 0812/0912 14010KT P6SM OVC045 FM082100 16005KT
                       5SM -RA BR SCT025 BKN040 OVC060 FM090100
                       16005KT P6SM -SHRA SCT015 BKN025 OVC035=
201806080549 TAF KBLI 080549Z 0806/0906 18008KT P6SM SCT050 BKN080 FM081200
                       15011G19KT P6SM BKN050 OVC080 FM082100 16005KT
                       5SM -RA BR SCT025 BKN040 OVC060 FM090100
                       16005KT P6SM -SHRA SCT015 BKN025 OVC035=
201806072320 TAF KBLI 072320Z 0800/0824 18008KT P6SM SCT050 OVC200 FM080600
                       18008KT P6SM SCT030 OVC050 FM081200 18008KT
                       P6SM OVC025 FM081800 21010KT P6SM OVC040
                       FM082200 21010KT P6SM -RA OVC030=
201806071720 TAF KBLI 071720Z 0718/0818 18008KT P6SM BKN035 BKN200 FM081000
                       18008KT P6SM -RA OVC020=
201806071130 TAF KBLI 071130Z 0712/0812 17003KT P6SM SCT030 BKN250
                      TEMPO 0712/0716 OVC030 FM071600 17010KT P6SM
                       SCT030 BKN070 FM080600 17007KT P6SM VCSH
                       BKN040 OVC070=
201806070520 TAF KBLI 070520Z 0706/0806 VRB04KT P6SM BKN250 FM071200 18008KT
                       P6SM BKN015 FM071700 21010KT P6SM SCT030
                       FM080200 17006KT P6SM BKN040=
201806062324 TAF KBLI 062324Z 0700/0724 VRB04KT P6SM BKN250 FM071200 18008KT
                       P6SM BKN015 FM071700 21007KT P6SM SCT030=
201806061720 TAF KBLI 061720Z 0618/0718 18006KT P6SM SCT250 FM070800 18008KT
                       P6SM SCT030 SCT250 FM071200 18008KT P6SM
                       BKN015 FM071700 21007KT P6SM SCT030=
201806061125 TAF KBLI 061125Z 0612/0712 00000KT P6SM SKC FM061800 18007KT P6SM
                       SCT250=
201806060523 TAF KBLI 060523Z 0606/0706 16005KT P6SM BKN080 FM061800 20007KT
                       P6SM SCT250 FM070100 18004KT P6SM SCT250=
201806052328 TAF KBLI 052328Z 0600/0624 18010G16KT P6SM BKN080 FM060200 16008KT
                       P6SM BKN080 FM061800 18007KT P6SM SCT250=
201806051720 TAF KBLI 051720Z 0518/0618 18010KT P6SM BKN050 BKN100 OVC150 FM060300
                       18007KT P6SM SCT050 BKN100=
201806051213 TAF KBLI 051213Z 0512/0612 00000KT P6SM BKN060 OVC070 FM051800
                       18010KT P6SM SCT060 BKN120 OVC200 FM060000
                       VRB03KT P6SM SCT050 BKN100=
201806050520 TAF KBLI 050520Z 0506/0606 17008KT P6SM SCT060 BKN250 FM051200
                       VRB04KT P6SM BKN060 BKN150 BKN200 FM051800
                       18010KT P6SM SCT060 BKN120 OVC200 FM060000
                       VRB03KT P6SM SCT050 BKN100=
201806042320 TAF KBLI 042320Z 0500/0524 18010G20KT P6SM SCT060 SCT250 FM050300
                       17008KT P6SM SCT060 BKN250 FM051200 VRB04KT
                       P6SM BKN060 BKN150 BKN200 FM051800 18007KT
                       P6SM SCT060 BKN120 OVC200=
201806041735 TAF KBLI 041735Z 0418/0518 18010G20KT P6SM SCT030 BKN060 FM050200
                       17006KT P6SM SCT060 BKN250 FM051200 VRB04KT
                       P6SM BKN060=
201806041138 TAF KBLI 041138Z 0412/0512 16005KT P6SM BKN030 OVC040 FM041800
                       18010G20KT P6SM SCT030 BKN060 FM050200 17006KT
                       P6SM SCT060 BKN250=
201806040520 TAF KBLI 040520Z 0406/0506 16010KT P6SM SCT030 BKN070 FM041400
                       17006KT P6SM SCT020 BKN030 FM041800 18010G20KT
                       P6SM SCT030 BKN060 FM050200 17006KT P6SM
                       SCT060 SCT250=
201806032321 TAF KBLI 032321Z 0400/0424 17009KT P6SM -RA OVC025 FM040100 16010KT
                       P6SM VCSH SCT030 OVC050 FM040600 17006KT
                       P6SM SCT035 OVC060=
201806032320 TAF KBLI 032320Z 0400/0424 17009KT P6SM -RA OVC025 FM040100 16010KT
                       P6SM VCSH SCT030 OVC050 FM040600 17006KT
                       P6SM SCT035 OVC060=
201806031738 TAF KBLI 031738Z 0318/0418 17005KT P6SM FEW050 OVC100 FM031900
                       17009KT P6SM -RA BKN040 OVC080 FM032000
                       17009KT P6SM -RA OVC025 FM040100 16010KT
                       P6SM VCSH SCT030 OVC050 FM040600 17006KT
                       P6SM SCT035 OVC060=
201806031135 TAF KBLI 031135Z 0312/0412 18006KT P6SM FEW060 SCT250 FM031500
                       17005KT P6SM OVC100 FM032000 17009KT P6SM
                       -RA OVC025 FM040000 16010KT P6SM VCSH SCT030
                       OVC050 FM040600 17006KT P6SM SCT035 OVC060=
201806030523 TAF KBLI 030523Z 0306/0406 VRB03KT P6SM SCT100 SCT200 FM030800
                       VRB03KT P6SM BKN100 OVC200 FM031200 18004KT
                       P6SM SCT060 OVC100 FM031700 18008KT P6SM
                       -RA BKN030 OVC050 FM032000 20010G20KT P6SM
                       -RA OVC025 FM040300 17009KT P6SM BKN030
                       OVC050=
201806022320 TAF KBLI 022320Z 0300/0324 23006KT P6SM SCT100 BKN200 FM030300
                       VRB03KT P6SM SCT100 BKN200 FM030800 VRB03KT
                       P6SM BKN100 OVC200 FM031200 18004KT P6SM
                       SCT060 OVC100 FM031700 18008KT P6SM -RA
                       BKN030 OVC050 FM032000 21010G20KT P6SM -RA
                       OVC025=
201806021720 TAF KBLI 021720Z 0218/0318 17004KT P6SM BKN100 BKN200 FM022100
                       23006KT P6SM SCT100 BKN200 FM030300 VRB03KT
                       P6SM SCT100 BKN200 FM030800 VRB03KT P6SM
                       BKN100 OVC200 FM031200 18004KT P6SM SCT060
                       OVC100 FM031700 18007KT P6SM -RA BKN035
                       OVC060=
201806021120 TAF KBLI 021120Z 0212/0312 00000KT P6SM OVC080 FM021700 17004KT
                       P6SM BKN100 BKN200 FM022100 23006KT P6SM
                       SCT100 BKN200 FM030300 VRB03KT P6SM BKN200=
201806020904 TAF AMD KBLI 020904Z 0209/0306 00000KT P6SM OVC060 FM021700 19006KT
                       P6SM SCT060 BKN120 FM022100 25006KT P6SM
                       SCT060 SCT120 BKN200 FM030300 VRB03KT P6SM
                       SCT100 BKN200=
201806020523 TAF KBLI 020523Z 0206/0306 VRB03KT P6SM BKN070 BKN150 FM020800
                       16005KT P6SM BKN035 OVC150 FM021700 19006KT
                       P6SM SCT050 BKN120 OVC150 FM022100 25006KT
                       P6SM SCT060 SCT120 BKN200 FM030300 VRB03KT
                       P6SM SCT060 SCT200=
201806012320 TAF KBLI 012320Z 0200/0224 17010G20KT P6SM BKN050 BKN200 FM020400
                       16005KT P6SM BKN050 BKN150 OVC200 FM020800
                       16005KT P6SM BKN035 OVC150 FM021700 19006KT
                       P6SM SCT050 BKN120 OVC150=
201806011720 TAF KBLI 011720Z 0118/0218 16013G20KT P6SM BKN035 BKN100 FM020000
                       17010G20KT P6SM BKN060 BKN200 FM020300 16007KT
                       P6SM BKN040 BKN150 OVC200=
201806011125 TAF KBLI 011125Z 0112/0212 14009KT P6SM OVC080 FM011700 17014KT
                       P6SM SCT050 BKN100 FM020000 17008KT P6SM
                       OVC050 FM020600 16005KT P6SM OVC050=
201806010521 TAF KBLI 010521Z 0106/0206 15010KT P6SM SCT070 FM011200 16008KT
                       P6SM BKN025 OVC040 FM011800 17014KT P6SM
                       SCT030 BKN050 FM012000 17014KT P6SM FEW035
                       SCT060=