##########################################################
# Query made at 02/16/2025 21:53:00 UTC
# Time interval: from 02/01/2018 00:00  to 02/28/2018 23:59  UTC
##########################################################

##########################################################
# KBLI, Bellingham, Bellingham International Airport (United States)
# WMO index: -----. WIGOS ID: Unknown
# Latitude 48-47-58N. Longitude 122-32-21W. Altitude 48 m.
##########################################################

###################################
#  METAR/SPECI from KBLI
###################################
201802282353 METAR KBLI 282353Z 14012G23KT 10SM SCT043 OVC070 08/01 A2958 RMK AO2 SLP023 T00830006 10083 20067 56038=
201802282253 METAR KBLI 282253Z 13015G29KT 10SM OVC050 07/01 A2961 RMK AO2 PK WND 13029/2244 SLP036 T00720011=
201802282153 METAR KBLI 282153Z 12010G17KT 10SM OVC055 08/01 A2964 RMK AO2 SLP046 T00780011=
201802282053 METAR KBLI 282053Z 14014G20KT 10SM SCT043 OVC060 08/01 A2969 RMK AO2 PK WND 13026/2026 SLP061 T00780006 58036=
201802281953 METAR KBLI 281953Z 14019G27KT 10SM SCT044 OVC060 08/00 A2973 RMK AO2 PK WND 14028/1917 SLP076 T00780000=
201802281853 METAR KBLI 281853Z 12013G21KT 10SM BKN080 OVC095 08/01 A2976 RMK AO2 SLP086 T00780011=
201802281753 METAR KBLI 281753Z 12014G20KT 10SM SCT046 OVC090 07/01 A2980 RMK AO2 SLP099 T00670011 10067 20039 58034=
201802281653 METAR KBLI 281653Z 13012G19KT 10SM FEW025 OVC085 06/02 A2984 RMK AO2 SLP114 T00560017=
201802281553 METAR KBLI 281553Z 13011KT 10SM FEW025 SCT037 BKN100 06/02 A2988 RMK AO2 SLP126 T00560017=
201802281453 METAR KBLI 281453Z 14011KT 10SM FEW060 BKN085 OVC120 04/02 A2990 RMK AO2 SLP133 T00440017 58017=
201802281353 METAR KBLI 281353Z AUTO 15006KT 10SM SCT050 BKN065 OVC110 04/02 A2992 RMK AO2 SLP139 T00390017=
201802281253 METAR KBLI 281253Z AUTO 16005KT 10SM FEW028 OVC065 04/02 A2993 RMK AO2 SLP145 T00390017=
201802281153 METAR KBLI 281153Z AUTO 15008KT 10SM SCT060 OVC075 04/02 A2995 RMK AO2 SLP150 60000 70002 T00440017 10056 20039 58015=
201802281053 METAR KBLI 281053Z AUTO 16008G16KT 10SM BKN060 BKN070 OVC095 04/02 A2997 RMK AO2 RAE24 SLP156 P0000 T00440022=
201802280953 METAR KBLI 280953Z AUTO 16012G17KT 10SM -RA FEW024 OVC039 04/03 A2998 RMK AO2 RAB26 SLP162 P0000 T00440028=
201802280853 METAR KBLI 280853Z AUTO 16009KT 10SM FEW024 OVC060 06/03 A2999 RMK AO2 SLP164 T00560028 58008=
201802280753 METAR KBLI 280753Z AUTO 16007KT 10SM SCT022 OVC110 06/03 A3000 RMK AO2 SLP168 T00560028 400780033=
201802280653 METAR KBLI 280653Z AUTO 16005KT 10SM FEW040 BKN110 04/02 A3001 RMK AO2 SLP170 T00390022=
201802280553 METAR KBLI 280553Z 13006KT 10SM SCT065 OVC080 04/02 A3001 RMK AO2 SLP173 T00440022 10067 20044 50002=
201802280453 METAR KBLI 280453Z 15004KT 10SM OVC060 05/02 A3002 RMK AO2 SLP174 T00500022=
201802280353 METAR KBLI 280353Z 15006KT 10SM OVC065 04/02 A3001 RMK AO2 SLP172 T00440022=
201802280253 METAR KBLI 280253Z 14005KT 10SM BKN065 04/02 A3001 RMK AO2 SLP171 T00440022 56001=
201802280153 METAR KBLI 280153Z 17005KT 10SM OVC070 06/02 A3001 RMK AO2 SLP171 T00560022=
201802280053 METAR KBLI 280053Z 00000KT 10SM FEW070 SCT085 07/02 A3001 RMK AO2 SLP171 T00670022=
201802272353 METAR KBLI 272353Z VRB04KT 10SM OVC055 07/02 A3001 RMK AO2 RAB21E46 SLP172 P0000 60000 T00670022 10078 20050 53005=
201802272253 METAR KBLI 272253Z VRB05KT 10SM BKN060 BKN075 08/03 A3001 RMK AO2 RAB2156E10 SLP170 P0000 T00780028=
201802272153 METAR KBLI 272153Z 17010KT 10SM SCT041 BKN070 BKN090 07/04 A2998 RMK AO2 SLP163 T00720039=
201802272053 METAR KBLI 272053Z 16013G20KT 10SM FEW023 SCT028 OVC041 07/03 A3000 RMK AO2 RAE07 SLP167 P0000 60000 T00670033 58002=
201802271953 METAR KBLI 271953Z 16013G20KT 5SM -RA BR SCT017 BKN023 OVC031 05/04 A3001 RMK AO2 RAB04E06B49 SLP173 P0000 T00500039=
201802271853 METAR KBLI 271853Z 17014G23KT 10SM BKN024 OVC028 06/02 A3002 RMK AO2 SLP174 T00560022=
201802271753 METAR KBLI 271753Z 16009G20KT 10SM FEW019 OVC037 06/02 A3000 RMK AO2 SLP169 60002 T00560022 10056 20033 56013=
201802271653 METAR KBLI 271653Z 15013KT 10SM FEW019 SCT045 OVC060 05/02 A3002 RMK AO2 RAB00E12 SLP173 P0000 T00500017=
201802271553 METAR KBLI 271553Z 15012KT 10SM SCT016 BKN043 OVC060 04/02 A3002 RMK AO2 RAE02B12E25 SLP175 P0000 T00440017=
201802271453 METAR KBLI 271453Z 15010KT 10SM -RA SCT016 BKN043 OVC070 04/02 A3004 RMK AO2 RAE02B36 SLP182 P0001 60002 T00390022 58016=
201802271353 METAR KBLI 271353Z AUTO 16012KT 10SM -RA BKN030 OVC040 04/02 A3006 RMK AO2 RAE33B53 SLP187 P0000 T00390017=
201802271340 SPECI KBLI 271340Z AUTO 16009G16KT 10SM FEW022 SCT027 OVC035 04/02 A3007 RMK AO2 RAE33 P0000 T00390017=
201802271253 METAR KBLI 271253Z AUTO 15010G16KT 10SM -RA FEW014 BKN026 OVC037 03/02 A3008 RMK AO2 SLP196 P0001 T00330017=
201802271244 SPECI KBLI 271244Z AUTO 15010G15KT 10SM -RA FEW013 BKN027 OVC036 03/02 A3008 RMK AO2 P0001 T00330017=
201802271237 SPECI KBLI 271237Z AUTO 16007KT 10SM -RA FEW013 SCT027 OVC036 03/02 A3008 RMK AO2 P0001 T00330017=
201802271153 METAR KBLI 271153Z AUTO 16009KT 10SM -RA OVC025 04/02 A3009 RMK AO2 SLP198 P0001 60004 70009 T00390017 10050 20033 58018=
201802271134 SPECI KBLI 271134Z AUTO 14011KT 10SM -RA BKN024 OVC038 03/02 A3010 RMK AO2 P0001 T00330017=
201802271111 SPECI KBLI 271111Z AUTO 14008KT 10SM -RA FEW018 SCT026 OVC040 03/02 A3011 RMK AO2 P0001 T00330017=
201802271053 METAR KBLI 271053Z AUTO 15011KT 10SM -RA BKN022 OVC026 03/02 A3012 RMK AO2 SLP208 P0001 T00330017=
201802270953 METAR KBLI 270953Z AUTO 15010G16KT 10SM -RA FEW017 OVC024 03/02 A3013 RMK AO2 SLP211 P0001 T00330017=
201802270853 METAR KBLI 270853Z AUTO 17009G18KT 10SM -RA BKN021 OVC029 04/01 A3014 RMK AO2 RAB0756 SLP216 P0001 60001 T00390006 56014=
201802270753 METAR KBLI 270753Z AUTO 16011KT 10SM FEW029 BKN047 OVC055 04/00 A3015 RMK AO2 SLP219 T00440000 400670000=
201802270653 METAR KBLI 270653Z AUTO 16007KT 10SM SCT039 BKN048 BKN065 04/01 A3016 RMK AO2 RAB14E35 SLP223 P0000 T00440006=
201802270553 METAR KBLI 270553Z 16008KT 10SM BKN050 05/M01 A3018 RMK AO2 SLP230 T00501006 10067 20039 56001=
201802270453 METAR KBLI 270453Z 15004KT 10SM FEW040 OVC050 04/M01 A3018 RMK AO2 SLP230 T00441011=
201802270353 METAR KBLI 270353Z 16004KT 10SM BKN037 OVC065 04/M01 A3018 RMK AO2 SLP230 T00391011=
201802270253 METAR KBLI 270253Z 15005KT 10SM BKN065 04/M01 A3019 RMK AO2 SLP231 T00441006 56004=
201802270153 METAR KBLI 270153Z 16006KT 10SM FEW029 OVC065 05/00 A3019 RMK AO2 SLP231 T00500000=
201802270053 METAR KBLI 270053Z 17005KT 10SM BKN065 06/M01 A3019 RMK AO2 SLP234 T00611006=
201802262353 METAR KBLI 262353Z 16005KT 10SM BKN050 BKN065 06/01 A3020 RMK AO2 SLP235 60004 T00560006 10056 20022 53002=
201802262253 METAR KBLI 262253Z VRB05KT 10SM OVC060 05/01 A3020 RMK AO2 SLP235 T00500011=
201802262153 METAR KBLI 262153Z VRB05KT 10SM SCT023 OVC060 05/02 A3019 RMK AO2 SLP233 T00500017=
201802262053 METAR KBLI 262053Z VRB06KT 10SM BKN023 BKN037 OVC048 04/02 A3019 RMK AO2 RAE12 SLP233 P0000 60004 T00440017 51009=
201802262043 SPECI KBLI 262043Z 16006KT 10SM BKN023 BKN037 OVC048 04/01 A3019 RMK AO2 RAE12 P0000 T00440011=
201802261953 METAR KBLI 261953Z VRB05KT 10SM -RA BKN014 BKN024 OVC060 03/02 A3019 RMK AO2 RAE1854B50 SLP232 P0000 T00330017=
201802261853 METAR KBLI 261853Z 16008KT 7SM -RA FEW009 BKN013 OVC055 03/02 A3018 RMK AO2 SLP230 P0004 T00280017=
201802261846 SPECI KBLI 261846Z 16009KT 8SM -RA FEW009 SCT013 OVC055 03/02 A3018 RMK AO2 P0004 T00280017=
201802261827 SPECI KBLI 261827Z 16010KT 3SM -RA BR FEW010 OVC014 02/01 A3018 RMK AO2 P0003 T00220011=
201802261753 METAR KBLI 261753Z 19006KT 6SM -RA BR BKN029 BKN037 OVC045 03/01 A3016 RMK AO2 UPB1656E11 SLP224 P0001 60001 T00280011 10028 20011 51033=
201802261653 METAR KBLI 261653Z 17009KT 10SM -RA BKN010 BKN024 OVC030 03/01 A3013 RMK AO2 RAB16UPB37E41 SLP212 P0000 T00280006=
201802261553 METAR KBLI 261553Z 17009KT 10SM FEW010 FEW040 OVC050 02/01 A3010 RMK AO2 SLP203 T00220006=
201802261500 SPECI KBLI 261500Z 16009KT 10SM SCT010 OVC050 02/01 A3007 RMK AO2 T00220006=
201802261453 METAR KBLI 261453Z 16010KT 10SM BKN010 BKN027 OVC050 02/01 A3007 RMK AO2 UPB23E35SNB35E36 SLP191 P0000 60000 T00220006 51023=
201802261445 SPECI KBLI 261445Z AUTO 16008KT 10SM BKN010 BKN027 OVC055 02/01 A3007 RMK AO2 UPB23E35SNB35E36 P0000 T00220006=
201802261438 SPECI KBLI 261438Z AUTO 16009KT 10SM SCT011 BKN029 OVC055 02/01 A3006 RMK AO2 UPB23E35SNB35E36 P0000 T00220006=
201802261353 METAR KBLI 261353Z AUTO 18007KT 10SM SCT030 BKN046 OVC055 02/01 A3005 RMK AO2 SLP185 T00220006=
201802261253 METAR KBLI 261253Z AUTO 16005KT 10SM OVC050 02/01 A3002 RMK AO2 SLP174 T00220006=
201802261153 METAR KBLI 261153Z AUTO 16006KT 10SM FEW031 SCT043 01/M01 A3000 RMK AO2 SLP167 60000 70002 T00061006 10028 20000 51020=
201802261053 METAR KBLI 261053Z AUTO 16005KT 10SM SCT033 BKN044 OVC050 01/00 A2998 RMK AO2 SLP160 T00110000=
201802260953 METAR KBLI 260953Z AUTO 16004KT 10SM FEW029 SCT038 BKN055 01/00 A2996 RMK AO2 SLP153 T00060000=
201802260853 METAR KBLI 260853Z AUTO 16004KT 10SM FEW030 01/00 A2994 RMK AO2 SLP147 60000 T00110000 51023=
201802260753 METAR KBLI 260753Z AUTO 15005KT 10SM BKN036 BKN048 01/00 A2991 RMK AO2 SLP139 T00110000 400780006=
201802260653 METAR KBLI 260653Z AUTO 16004KT 10SM FEW029 BKN036 BKN055 02/01 A2989 RMK AO2 RAE05UPB05E07 SLP131 P0000 T00170006=
201802260553 METAR KBLI 260553Z 15005KT 10SM -RA SCT027 BKN037 02/01 A2987 RMK AO2 RAB37 SLP123 P0000 60000 T00220006 10056 20006 53026=
201802260453 METAR KBLI 260453Z 15003KT 10SM SCT050 SCT120 02/00 A2984 RMK AO2 SLP114 T00170000=
201802260353 METAR KBLI 260353Z 17004KT 10SM FEW038 03/00 A2981 RMK AO2 SLP104 T00280000=
201802260253 METAR KBLI 260253Z 17004KT 10SM CLR 03/00 A2979 RMK AO2 SLP096 T00280000 53017=
201802260153 METAR KBLI 260153Z VRB05KT 10SM CLR 04/01 A2977 RMK AO2 SLP090 T00440006=
201802260053 METAR KBLI 260053Z VRB04KT 10SM SCT026 SCT034 BKN050 06/M01 A2975 RMK AO2 SLP084 T00561006=
201802252353 METAR KBLI 252353Z 20007KT 10SM SCT026 SCT034 BKN050 06/01 A2974 RMK AO2 SLP080 T00560006 10078 20050 50002=
201802252253 METAR KBLI 252253Z VRB05KT 10SM FEW049 SCT060 06/00 A2974 RMK AO2 SLP080 T00610000=
201802252153 METAR KBLI 252153Z 22007KT 10SM SCT045 BKN055 07/M03 A2974 RMK AO2 SLP078 T00721028=
201802252053 METAR KBLI 252053Z VRB04KT 10SM BKN047 BKN060 07/M02 A2973 RMK AO2 SLP077 T00721017 50001=
201802251953 METAR KBLI 251953Z 22008KT 10SM CLR 07/M01 A2974 RMK AO2 SLP081 T00671011=
201802251853 METAR KBLI 251853Z 23012G20KT 200V270 10SM CLR 07/M01 A2975 RMK AO2 SLP083 T00671011=
201802251753 METAR KBLI 251753Z 19008G15KT 150V230 10SM BKN120 05/02 A2973 RMK AO2 SLP077 60002 T00500017 10061 20044 58004=
201802251653 METAR KBLI 251653Z 19007KT 10SM BKN070 OVC095 05/01 A2974 RMK AO2 SLP080 T00500011=
201802251553 METAR KBLI 251553Z 18008KT 10SM OVC080 06/02 A2974 RMK AO2 SLP079 T00560017=
201802251453 METAR KBLI 251453Z VRB06KT 10SM BKN085 OVC100 06/02 A2975 RMK AO2 SLP081 60002 T00560017 56013=
201802251353 METAR KBLI 251353Z AUTO 18010G17KT 10SM FEW026 FEW035 SCT060 06/03 A2975 RMK AO2 RAE14 SLP083 P0000 T00610028=
201802251338 SPECI KBLI 251338Z AUTO 18010G18KT 10SM FEW018 BKN035 OVC060 06/03 A2976 RMK AO2 RAE14 P0000 T00610033=
201802251253 METAR KBLI 251253Z AUTO 16013G25KT 10SM -RA OVC015 04/03 A2976 RMK AO2 PK WND 14031/1207 SLP086 P0002 T00440033=
201802251153 METAR KBLI 251153Z AUTO 15021G32KT 8SM -RA BKN025 OVC030 05/03 A2978 RMK AO2 PK WND 15032/1146 RAB15 SLP094 P0000 60004 70010 T00500028 10056 20028 56042=
201802251053 METAR KBLI 251053Z AUTO 16017G28KT 10SM BKN045 OVC055 06/02 A2981 RMK AO2 PK WND 15036/1022 SLP103 T00560022=
201802250953 METAR KBLI 250953Z AUTO 15020G27KT 10SM FEW019 OVC060 05/02 A2984 RMK AO2 PK WND 14030/0938 PRESFR SLP113 T00500022=
201802250853 METAR KBLI 250853Z AUTO 15016G23KT 10SM SCT021 BKN055 OVC070 04/02 A2991 RMK AO2 SLP137 60004 T00440017 58039=
201802250753 METAR KBLI 250753Z AUTO 16010G20KT 10SM SCT035 BKN055 OVC070 04/02 A2995 RMK AO2 RAE39 SLP151 P0001 T00440017 400611006=
201802250733 SPECI KBLI 250733Z AUTO 15010G19KT 10SM -RA OVC033 04/01 A2996 RMK AO2 P0001 T00390011=
201802250653 METAR KBLI 250653Z AUTO 13008KT 10SM -RA BKN026 OVC055 03/01 A3000 RMK AO2 RAB00 SLP168 P0003 T00280011=
201802250553 METAR KBLI 250553Z 16011G16KT 10SM BKN026 BKN032 OVC055 04/01 A3003 RMK AO2 RAE27 SLP176 P0001 60001 T00440011 10050 20039 56018=
201802250453 METAR KBLI 250453Z 17013G24KT 10SM -RA BKN024 BKN038 OVC050 04/01 A3005 RMK AO2 PK WND 15026/0434 RAB41 SLP184 P0000 T00390011=
201802250441 SPECI KBLI 250441Z 16014G26KT 10SM -RA BKN029 BKN044 OVC095 04/01 A3005 RMK AO2 PK WND 15026/0434 RAB41 P0000 T00440006=
201802250353 METAR KBLI 250353Z 16011G18KT 10SM FEW032 SCT040 BKN050 05/00 A3004 RMK AO2 SLP183 T00500000=
201802250253 METAR KBLI 250253Z 15010KT 10SM BKN110 04/00 A3008 RMK AO2 SLP194 T00440000 56006=
201802250153 METAR KBLI 250153Z 14007KT 10SM BKN060 BKN120 04/00 A3008 RMK AO2 SLP195 T00440000=
201802250053 METAR KBLI 250053Z 17009KT 10SM BKN060 05/01 A3009 RMK AO2 SLP199 T00500006=
201802242353 METAR KBLI 242353Z 16007KT 10SM BKN045 OVC055 05/01 A3010 RMK AO2 SLP200 T00500011 10061 20011 51001=
201802242253 METAR KBLI 242253Z 16007KT 10SM FEW021 SCT026 04/02 A3009 RMK AO2 SLP200 T00440017=
201802242153 METAR KBLI 242153Z 29005KT 10SM SCT026 BKN032 05/00 A3010 RMK AO2 SLP201 T00500000=
201802242053 METAR KBLI 242053Z 10SM FEW023 04/M01 A3009 RMK AO2 SLP200 T00391006 51020=
201802241953 METAR KBLI 241953Z 25006KT 10SM BKN017 04/01 A3008 RMK AO2 SLP196 T00390006=
201802241853 METAR KBLI 241853Z 16003KT 10SM BKN020 OVC025 02/01 A3006 RMK AO2 SLP189 T00220006=
201802241753 METAR KBLI 241753Z 12004KT 10SM OVC018 01/00 A3003 RMK AO2 SLP180 60005 T00110000 10022 21006 51037=
201802241653 METAR KBLI 241653Z 00000KT 10SM SCT019 BKN025 OVC031 01/M01 A3000 RMK AO2 SNE36 SLP170 P0000 T00061006=
201802241553 METAR KBLI 241553Z 36005KT 1 1/2SM -SN BR FEW008 OVC021 00/M01 A2998 RMK AO2 SNB41 SLP161 P0000 T00001006=
201802241549 SPECI KBLI 241549Z 35004KT 2SM -SN BR SCT008 OVC021 00/M01 A2997 RMK AO2 SNB41 P0000=
201802241453 METAR KBLI 241453Z 32006KT 10SM OVC004 00/M01 A2992 RMK AO2 SNB03E36 SLP143 P0000 60005 T00001006 53024=
201802241400 SPECI KBLI 241400Z AUTO 36007KT 8SM BKN004 OVC012 00/M01 A2988 RMK AO2 T00001006=
201802241353 METAR KBLI 241353Z AUTO 01005KT 8SM BKN005 OVC012 01/00 A2988 RMK AO2 RAB00E25SNB25E53 SLP128 P0005 T00060000=
201802241347 SPECI KBLI 241347Z AUTO 13003KT 3SM -SN BR OVC005 01/00 A2988 RMK AO2 RAB00E25SNB25 P0005=
201802241340 SPECI KBLI 241340Z AUTO 33003KT 1 1/4SM R16/6000VP6000FT -SN BR OVC005 01/00 A2988 RMK AO2 RAB00E25SNB25 P0005 T00060000=
201802241331 SPECI KBLI 241331Z AUTO 00000KT 2 1/2SM -SN BR BKN003 OVC007 01/00 A2987 RMK AO2 RAB00E25SNB25 CIG 002V006 P0002 T00060000=
201802241253 METAR KBLI 241253Z AUTO 16008KT 10SM OVC009 02/01 A2987 RMK AO2 RAE1159UPB1155E1158 SLP123 P0000 T00220011=
201802241236 SPECI KBLI 241236Z AUTO 16009KT 10SM OVC010 02/01 A2986 RMK AO2 RAE1159UPB1155E1158 CIG 007V012 P0000 T00220011=
201802241218 SPECI KBLI 241218Z AUTO 16010KT 10SM BKN009 OVC016 02/01 A2986 RMK AO2 RAE1159UPB1155E1158 CIG 007V013 P0000 T00170011=
201802241203 SPECI KBLI 241203Z AUTO 16012G20KT 10SM BKN010 OVC016 02/01 A2986 RMK AO2 RAE1159UPB1155E1158 CIG 007V012 P0000 T00220011=
201802241153 METAR KBLI 241153Z AUTO 16013G20KT 10SM -RA SCT010 OVC016 02/01 A2985 RMK AO2 RAE10B41UPB08E09B28E41 SLP118 P0000 60013 70016 I6001 T00220011 10022 21011 56018=
201802241148 SPECI KBLI 241148Z AUTO 16013KT 10SM -RA FEW010 OVC016 02/01 A2985 RMK AO2 RAE10B41UPB08E09B28E41 P0000=
201802241141 SPECI KBLI 241141Z AUTO 16012G19KT 10SM -RA FEW010 OVC014 02/01 A2985 RMK AO2 RAE10B41UPB08E09B28E41 P0000 T00220011=
201802241134 SPECI KBLI 241134Z AUTO 16012G19KT 10SM UP SCT010 OVC016 02/01 A2985 RMK AO2 RAE10UPB08E09B28 P0000 T00220011=
201802241053 METAR KBLI 241053Z AUTO 15011G18KT 10SM -RA OVC011 02/01 A2987 RMK AO2 UPB0959E17SNB22E32 SLP124 P0002 T00220011=
201802240953 METAR KBLI 240953Z AUTO 15011G18KT 9SM -RA OVC011 02/01 A2991 RMK AO2 UPE0859RAB53FZRAB0859E03SNB03E53 SLP137 P0003 I1001 T00170006=
201802240909 SPECI KBLI 240909Z AUTO 13012KT 8SM -SN BKN012 BKN018 OVC024 02/01 A2993 RMK AO2 UPE0859FZRAB0859E03SNB03 P0000 I1001 T00170006=
201802240859 SPECI KBLI 240859Z AUTO 15010G22KT 10SM -FZRA BKN014 BKN019 OVC024 02/01 A2993 RMK AO2 UPE59FZRAB59 P0000 I1001 T00220006=
201802240853 METAR KBLI 240853Z AUTO 15013G24KT 10SM UP BKN017 OVC024 02/01 A2994 RMK AO2 RAB19E24B46E48UPB24SNE0758 SLP147 P0001 60008 T00220006 58033=
201802240820 SPECI KBLI 240820Z AUTO 14016G21KT 10SM -RA SCT013 OVC022 02/00 A2996 RMK AO2 RAB19SNE0758 P0000 T00220000=
201802240753 METAR KBLI 240753Z AUTO 13006KT 9SM -SN OVC013 01/00 A2998 RMK AO2 SLP163 P0003 T00110000 400171072=
201802240742 SPECI KBLI 240742Z AUTO 13007KT 3SM -SN BR OVC013 01/00 A2998 RMK AO2 P0003 T00110000=
201802240731 SPECI KBLI 240731Z AUTO 12006KT 2 1/2SM -SN BR OVC015 01/00 A3000 RMK AO2 P0003 T00110000=
201802240721 SPECI KBLI 240721Z AUTO 12006KT 1 1/2SM -SN BR SCT009 OVC015 01/00 A3001 RMK AO2 P0003 T00060000=
201802240713 SPECI KBLI 240713Z AUTO 12007KT 1 1/4SM -SN BR OVC013 00/M01 A3001 RMK AO2 P0002 T00001006=
201802240706 SPECI KBLI 240706Z AUTO 08004KT 1SM R16/4500VP6000FT -SN BR SCT009 OVC015 M01/M01 A3002 RMK AO2 PRESFR P0002 T10061011=
201802240703 SPECI KBLI 240703Z AUTO 09003KT 3/4SM R16/4500VP6000FT -SN BR BKN009 OVC015 M01/M01 A3002 RMK AO2 P0001 T10061011=
201802240656 SPECI KBLI 240656Z AUTO 05004KT 3/4SM R16/5000VP6000FT -SN BR BKN011 OVC017 M01/M02 A3003 RMK AO2 P0000 T10111017=
201802240653 METAR KBLI 240653Z AUTO 04004KT 1SM R16/5000VP6000FT -SN BR SCT011 OVC017 M01/M02 A3003 RMK AO2 SLP181 P0004 T10111017=
201802240642 SPECI KBLI 240642Z AUTO 11004KT 2SM -SN BR OVC017 M01/M01 A3004 RMK AO2 P0002 T10061011=
201802240623 SPECI KBLI 240623Z AUTO 00000KT 3SM -SN BR OVC018 M01/M01 A3006 RMK AO2 P0001 T10111011=
201802240600 SPECI KBLI 240600Z 02004KT 2 1/2SM -SN BR OVC018 M01/M02 A3007 RMK AO2 P0001 T10111017=
201802240553 METAR KBLI 240553Z 03004KT 1 3/4SM -SN BR OVC018 M01/M02 A3008 RMK AO2 UPB0454E00SNB00 SLP195 P0003 60003 T10111017 10017 21011 56008=
201802240551 SPECI KBLI 240551Z 03003KT 1 1/2SM -SN BR OVC018 M01/M02 A3008 RMK AO2 UPB0454E00SNB00 P0003=
201802240544 SPECI KBLI 240544Z 01005KT 2SM -SN BR OVC020 M01/M02 A3008 RMK AO2 UPB0454E00SNB00 P0003 T10111017=
201802240537 SPECI KBLI 240537Z 02004KT 3SM -SN BR OVC020 00/M01 A3008 RMK AO2 UPB0454E00SNB00 P0002 T00001011=
201802240528 SPECI KBLI 240528Z 06004KT 2 1/2SM -SN BR OVC022 01/M01 A3009 RMK AO2 UPB0454E00SNB00 P0002 T00061011=
201802240521 SPECI KBLI 240521Z 08007KT 3SM -SN BR OVC022 01/M01 A3008 RMK AO2 UPB0454E00SNB00 P0002 T00061011=
201802240513 SPECI KBLI 240513Z 10007KT 2 1/2SM -SN BR BKN022 OVC028 01/M01 A3009 RMK AO2 UPB0454E00SNB00 P0001 T00061011=
201802240453 METAR KBLI 240453Z 12007KT 10SM FEW023 OVC028 01/M02 A3010 RMK AO2 SLP202 T00111022=
201802240449 SPECI KBLI 240449Z 13009KT 10SM FEW023 OVC028 01/M02 A3010 RMK AO2=
201802240400 SPECI KBLI 240400Z 13009KT 10SM SCT026 OVC033 01/M02 A3012 RMK AO2 T00111022=
201802240353 METAR KBLI 240353Z 15008KT 10SM BKN028 OVC037 01/M02 A3012 RMK AO2 SLP210 T00111022=
201802240253 METAR KBLI 240253Z 14010G20KT 10SM OVC034 01/M03 A3015 RMK AO2 SLP219 60000 T00111033 57015=
201802240153 METAR KBLI 240153Z 11009G19KT 10SM OVC033 01/M04 A3016 RMK AO2 UPE16SNB0056E07 SLP223 P0000 T00111039=
201802240053 METAR KBLI 240053Z 14008KT 10SM UP OVC046 01/M05 A3018 RMK AO2 UPB26E35B53SNB25E26 SLP230 P0000 T00111050=
201802232353 METAR KBLI 232353Z 14016G20KT 10SM OVC055 01/M06 A3019 RMK AO2 SNB12E44 SLP233 P0000 60000 T00111056 10011 21017 56033=
201802232253 METAR KBLI 232253Z 14018G23KT 10SM OVC055 01/M06 A3021 RMK AO2 SLP240 T00061056=
201802232153 METAR KBLI 232153Z 13015KT 10SM OVC060 00/M04 A3026 RMK AO2 SNB04E14 SLP257 P0000 T00001039=
201802232053 METAR KBLI 232053Z 14017G23KT 10SM FEW050 OVC070 M01/M03 A3029 RMK AO2 SNE30 SLP268 P0000 60000 T10061033 58027=
201802232027 SPECI KBLI 232027Z 15013G20KT 10SM -SN SCT021 SCT035 OVC070 M01/M03 A3030 RMK AO2 P0000 T10111033=
201802232022 SPECI KBLI 232022Z 16011G19KT 2SM R16/6000VP6000FT -SN BR BKN019 BKN035 OVC070 M01/M03 A3031 RMK AO2 P0000 T10111028=
201802231953 METAR KBLI 231953Z 15012KT 1SM R16/3000V5000FT -SN BR VV010 M02/M03 A3034 RMK AO2 SLP284 P0000 T10171028=
201802231916 SPECI KBLI 231916Z 15018G24KT 1 3/4SM R16/4500VP6000FT -SN BKN019 OVC027 M01/M04 A3036 RMK AO2 P0000 T10061044=
201802231853 METAR KBLI 231853Z 13012KT 6SM -SN BKN028 OVC036 00/M06 A3037 RMK AO2 SNB45 SLP293 P0000 T00001061=
201802231801 SPECI KBLI 231801Z 14010KT 10SM BKN028 OVC036 01/M08 A3037 RMK AO2 T00061083=
201802231753 METAR KBLI 231753Z 15008KT 10SM OVC030 01/M08 A3037 RMK AO2 SLP294 T00061078 10006 21067 55008=
201802231653 METAR KBLI 231653Z 14009KT 10SM OVC037 01/M08 A3036 RMK AO2 SLP293 T00061078=
201802231553 METAR KBLI 231553Z 14007KT 10SM SCT046 M01/M08 A3038 RMK AO2 SLP297 T10061083=
201802231453 METAR KBLI 231453Z 14008KT 10SM SCT050 BKN065 OVC095 M01/M08 A3039 RMK AO2 SLP302 T10111078 58009=
201802231353 METAR KBLI 231353Z AUTO 00000KT 10SM OVC100 M04/M07 A3041 RMK AO2 SLP308 T10391072=
201802231253 METAR KBLI 231253Z AUTO 00000KT 10SM BKN120 M07/M08 A3042 RMK AO2 SLP311 T10671083=
201802231153 METAR KBLI 231153Z AUTO 00000KT 10SM CLR M06/M09 A3042 RMK AO2 SLP311 T10611089 11033 21072 58005=
201802231053 METAR KBLI 231053Z AUTO 00000KT 10SM CLR M06/M09 A3043 RMK AO2 SLP315 T10611089=
201802230953 METAR KBLI 230953Z AUTO 00000KT 10SM CLR M06/M09 A3044 RMK AO2 SLP318 T10561089=
201802230853 METAR KBLI 230853Z AUTO 00000KT 10SM CLR M06/M09 A3043 RMK AO2 SLP315 T10611094 50004=
201802230753 METAR KBLI 230753Z AUTO 00000KT 10SM CLR M05/M09 A3043 RMK AO2 SLP316 T10501089 400441056=
201802230653 METAR KBLI 230653Z AUTO 31003KT 10SM CLR M05/M08 A3043 RMK AO2 SLP315 T10501078=
201802230553 METAR KBLI 230553Z 00000KT 10SM CLR M03/M08 A3042 RMK AO2 SLP312 T10331083 10039 21050 53007=
201802230453 METAR KBLI 230453Z 00000KT 10SM CLR M04/M08 A3042 RMK AO2 SLP310 T10391078=
201802230353 METAR KBLI 230353Z 33004KT 10SM CLR M02/M09 A3040 RMK AO2 SLP305 T10221089=
201802230253 METAR KBLI 230253Z 31005KT 10SM CLR M01/M09 A3040 RMK AO2 SLP305 T10111089 53009=
201802230153 METAR KBLI 230153Z 32004KT 10SM CLR 01/M12 A3039 RMK AO2 SLP300 T00111117=
201802230053 METAR KBLI 230053Z 01006KT 10SM CLR 03/M12 A3037 RMK AO2 SLP295 T00281122=
201802222353 METAR KBLI 222353Z 36009G18KT 10SM CLR 04/M13 A3037 RMK AO2 SLP296 T00391128 10044 20000 53006=
201802222253 METAR KBLI 222253Z 36010G16KT 10SM CLR 04/M12 A3036 RMK AO2 SLP293 T00441122=
201802222153 METAR KBLI 222153Z 04017G25KT 10SM CLR 03/M13 A3036 RMK AO2 PK WND 02028/2055 SLP291 T00331133=
201802222053 METAR KBLI 222053Z 01021G29KT 10SM CLR 03/M13 A3036 RMK AO2 PK WND 01030/2042 SLP289 T00281128 50002=
201802221953 METAR KBLI 221953Z 03016G26KT 10SM CLR 02/M13 A3037 RMK AO2 PK WND 02033/1857 SLP294 T00221128=
201802221853 METAR KBLI 221853Z 02016G26KT 10SM CLR 01/M12 A3036 RMK AO2 PK WND 03032/1821 SLP292 T00111117=
201802221753 METAR KBLI 221753Z 04013G25KT 10SM CLR 00/M11 A3035 RMK AO2 PK WND 03028/1719 SLP287 T00001106 10000 21039 51019=
201802221653 METAR KBLI 221653Z 02016G22KT 10SM CLR M01/M11 A3034 RMK AO2 PK WND 03026/1636 SLP285 T10111106=
201802221553 METAR KBLI 221553Z 01011G19KT 10SM CLR M03/M11 A3032 RMK AO2 SLP278 T10281111=
201802221453 METAR KBLI 221453Z 01017G23KT 10SM CLR M03/M11 A3029 RMK AO2 SLP269 T10331111 53013=
201802221353 METAR KBLI 221353Z AUTO 02017G24KT 10SM CLR M03/M11 A3028 RMK AO2 PK WND 03029/1318 SLP262 T10281111=
201802221253 METAR KBLI 221253Z AUTO 02014G23KT 10SM CLR M03/M10 A3026 RMK AO2 SLP256 T10281100=
201802221153 METAR KBLI 221153Z AUTO 36012KT 10SM CLR M03/M08 A3025 RMK AO2 SLP255 70001 T10331078 11033 21050 50006=
201802221053 METAR KBLI 221053Z AUTO 35009KT 10SM CLR M04/M07 A3026 RMK AO2 SLP256 T10391067=
201802220953 METAR KBLI 220953Z AUTO 35009KT 10SM CLR M04/M06 A3024 RMK AO2 SLP252 T10391061=
201802220853 METAR KBLI 220853Z AUTO 36009KT 10SM CLR M04/M06 A3023 RMK AO2 SLP248 T10391056 51004=
201802220753 METAR KBLI 220753Z AUTO 36007KT 10SM CLR M04/M06 A3023 RMK AO2 SLP248 T10441056 400111061=
201802220653 METAR KBLI 220653Z AUTO 02006KT 10SM CLR M05/M06 A3022 RMK AO2 SLP246 T10501056=
201802220553 METAR KBLI 220553Z 01005KT 10SM CLR M04/M05 A3022 RMK AO2 SNE0454 SLP245 P0000 60001 T10441050 10000 21044 53000=
201802220453 METAR KBLI 220453Z 02006KT 7SM -SN OVC046 M03/M04 A3022 RMK AO2 SLP244 P0000 T10331039=
201802220440 SPECI KBLI 220440Z 02007KT 6SM -SN OVC038 M03/M04 A3022 RMK AO2 P0000 T10331039=
201802220353 METAR KBLI 220353Z 02006KT 4SM -SN BKN015 OVC038 M03/M03 A3022 RMK AO2 SLP243 P0000 T10281033=
201802220341 SPECI KBLI 220341Z 03005KT 5SM -SN BR BKN015 OVC038 M02/M03 A3021 RMK AO2 P0000 T10221033=
201802220253 METAR KBLI 220253Z 04005KT 2SM -SN BR OVC021 M02/M03 A3022 RMK AO2 SLP245 P0001 60001 T10221033 58004=
201802220219 SPECI KBLI 220219Z 03006KT 1 1/4SM -SN BR SCT007 SCT012 OVC018 M02/M03 A3022 RMK AO2 P0000 T10221033=
201802220208 SPECI KBLI 220208Z 07004KT 1 1/2SM -SN BR BKN012 OVC024 M02/M03 A3023 RMK AO2 P0000 T10171028=
201802220153 METAR KBLI 220153Z 11005KT 2SM -SN BR BKN012 OVC024 M02/M03 A3023 RMK AO2 SLP247 P0000 T10171033=
201802220151 SPECI KBLI 220151Z 11005KT 2SM -SN BR BKN012 OVC024 M02/M03 A3023 RMK AO2 P0000=
201802220125 SPECI KBLI 220125Z 12005KT 2SM -SN BR OVC024 M01/M03 A3023 RMK AO2 P0000 T10111033=
201802220110 SPECI KBLI 220110Z 11003KT 1 3/4SM -SN OVC022 M01/M04 A3023 RMK AO2 P0000 T10111039=
201802220053 METAR KBLI 220053Z 13004KT 4SM -SN BKN020 OVC029 M01/M04 A3023 RMK AO2 SNB42 SLP248 P0000 T10061044=
201802220041 SPECI KBLI 220041Z 11005KT 6SM HZ OVC020 M01/M04 A3023 RMK AO2 T10061044=
201802212353 METAR KBLI 212353Z 11006KT 10SM FEW031 BKN060 OVC070 00/M06 A3024 RMK AO2 SLP249 T00001061 10011 21017 58013=
201802212331 SPECI KBLI 212331Z 16006KT 10SM BKN036 OVC043 01/M06 A3024 RMK AO2 T00061056=
201802212253 METAR KBLI 212253Z 15009KT 7SM SCT018 BKN028 OVC050 00/M06 A3025 RMK AO2 SLP255 T00001061=
201802212153 METAR KBLI 212153Z 13005KT 10SM OVC044 01/M07 A3027 RMK AO2 SLP259 T00061072=
201802212053 METAR KBLI 212053Z 17005KT 10SM OVC055 01/M09 A3028 RMK AO2 SLP263 T00111094 58010=
201802211953 METAR KBLI 211953Z VRB03KT 10SM BKN060 OVC070 01/M08 A3030 RMK AO2 SLP270 T00061078=
201802211853 METAR KBLI 211853Z VRB05KT 10SM BKN075 OVC090 M01/M08 A3032 RMK AO2 SLP276 T10061083=
201802211753 METAR KBLI 211753Z 00000KT 10SM OVC080 M02/M08 A3030 RMK AO2 SLP272 T10171078 11017 21061 58007=
201802211653 METAR KBLI 211653Z 00000KT 10SM OVC100 M03/M09 A3032 RMK AO2 SLP277 T10331089=
201802211553 METAR KBLI 211553Z 00000KT 10SM BKN120 M04/M10 A3033 RMK AO2 SLP281 T10441100=
201802211453 METAR KBLI 211453Z 03004KT 10SM CLR M05/M10 A3033 RMK AO2 SLP280 T10501100 56004=
201802211353 METAR KBLI 211353Z AUTO 00000KT 10SM CLR M05/M12 A3033 RMK AO2 SLP280 T10501117=
201802211253 METAR KBLI 211253Z AUTO 01003KT 10SM CLR M06/M12 A3032 RMK AO2 SLP279 T10561122=
201802211153 METAR KBLI 211153Z AUTO 02008KT 10SM CLR M05/M12 A3034 RMK AO2 SLP284 T10501122 11011 21050 55003=
201802211053 METAR KBLI 211053Z AUTO 02006KT 10SM CLR M04/M12 A3033 RMK AO2 SLP283 T10441122=
201802210953 METAR KBLI 210953Z AUTO 03012G18KT 10SM CLR M03/M13 A3034 RMK AO2 SLP284 T10331133=
201802210853 METAR KBLI 210853Z AUTO 02010KT 10SM CLR M03/M13 A3035 RMK AO2 SLP287 T10281133 51015=
201802210753 METAR KBLI 210753Z AUTO 02014G19KT 10SM CLR M02/M13 A3034 RMK AO2 SLP283 T10221133 400331056=
201802210653 METAR KBLI 210653Z AUTO 01011G20KT 10SM CLR M02/M13 A3033 RMK AO2 SLP281 T10221133=
201802210553 METAR KBLI 210553Z 02015G24KT 10SM CLR M01/M13 A3030 RMK AO2 PK WND 03026/0534 SLP272 T10111133 10028 21011 51016=
201802210453 METAR KBLI 210453Z 02016G23KT 10SM CLR M01/M13 A3029 RMK AO2 PK WND 02026/0430 SLP267 T10061128=
201802210353 METAR KBLI 210353Z 02016G21KT 10SM CLR M01/M13 A3028 RMK AO2 SLP263 T10061128=
201802210253 METAR KBLI 210253Z 02014G24KT 10SM CLR 01/M13 A3025 RMK AO2 SLP256 T00061128 52014=
201802210153 METAR KBLI 210153Z 03010G22KT 10SM CLR 01/M12 A3024 RMK AO2 SLP250 T00111122=
201802210053 METAR KBLI 210053Z 01012G16KT 10SM CLR 02/M10 A3023 RMK AO2 SLP247 T00171100=
201802202353 METAR KBLI 202353Z 01012KT 10SM CLR 03/M11 A3021 RMK AO2 SLP241 T00281106 10033 21022 55001=
201802202253 METAR KBLI 202253Z 01009KT 10SM CLR 03/M10 A3021 RMK AO2 SLP240 T00281100=
201802202153 METAR KBLI 202153Z 02009KT 10SM CLR 03/M09 A3021 RMK AO2 SLP240 T00281094=
201802202053 METAR KBLI 202053Z 01006KT 10SM BKN043 02/M09 A3022 RMK AO2 SLP243 T00171089 53001=
201802201953 METAR KBLI 201953Z 03008KT 350V050 10SM SCT040 01/M09 A3022 RMK AO2 SLP243 T00111089=
201802201853 METAR KBLI 201853Z 03007KT 10SM SCT038 OVC090 00/M09 A3022 RMK AO2 SLP242 T00001089=
201802201753 METAR KBLI 201753Z 02008KT 10SM FEW040 BKN100 M02/M09 A3022 RMK AO2 SLP243 T10221089 11022 21056 53008=
201802201653 METAR KBLI 201653Z 01007KT 10SM OVC100 M03/M08 A3020 RMK AO2 SLP239 T10331083=
201802201553 METAR KBLI 201553Z 01006KT 10SM OVC100 M04/M09 A3020 RMK AO2 SLP237 T10441089=
201802201453 METAR KBLI 201453Z 02007KT 10SM OVC100 M05/M09 A3019 RMK AO2 SLP235 T10501089 56007=
201802201353 METAR KBLI 201353Z AUTO 01005KT 10SM BKN110 M06/M09 A3020 RMK AO2 SLP237 T10561089=
201802201253 METAR KBLI 201253Z AUTO 02005KT 10SM SCT110 M06/M09 A3020 RMK AO2 SLP236 T10561089=
201802201153 METAR KBLI 201153Z AUTO 01005KT 10SM BKN055 M05/M09 A3021 RMK AO2 SLP240 T10501089 11028 21056 50000=
201802201053 METAR KBLI 201053Z AUTO 35003KT 10SM BKN050 M06/M09 A3021 RMK AO2 SLP242 T10561089=
201802200953 METAR KBLI 200953Z AUTO 36004KT 10SM CLR M06/M09 A3021 RMK AO2 SLP242 T10561089=
201802200853 METAR KBLI 200853Z AUTO 36003KT 10SM FEW050 BKN110 M04/M08 A3021 RMK AO2 SLP240 T10441083 50001=
201802200753 METAR KBLI 200753Z AUTO 36003KT 10SM CLR M04/M09 A3021 RMK AO2 SLP242 T10391089 400221044=
201802200653 METAR KBLI 200653Z AUTO 36004KT 10SM CLR M04/M09 A3021 RMK AO2 SLP240 T10391089=
201802200553 METAR KBLI 200553Z 01003KT 10SM FEW120 M03/M10 A3021 RMK AO2 SLP239 T10331100 10022 21033 58001=
201802200453 METAR KBLI 200453Z 00000KT 10SM CLR M02/M09 A3021 RMK AO2 SLP242 T10221094=
201802200353 METAR KBLI 200353Z 00000KT 10SM CLR M02/M10 A3021 RMK AO2 SLP241 T10221100=
201802200253 METAR KBLI 200253Z 00000KT 10SM CLR M02/M08 A3021 RMK AO2 SLP241 T10221083 55001=
201802200153 METAR KBLI 200153Z 00000KT 10SM CLR M01/M12 A3020 RMK AO2 SLP238 T10111122=
201802200053 METAR KBLI 200053Z 02003KT 10SM CLR 01/M14 A3020 RMK AO2 SLP236 T00111139=
201802192353 METAR KBLI 192353Z 03006KT 10SM CLR 02/M14 A3021 RMK AO2 SLP241 T00171144 10022 21017 57008=
201802192253 METAR KBLI 192253Z 35007KT 10SM CLR 02/M14 A3022 RMK AO2 SLP244 T00221139=
201802192153 METAR KBLI 192153Z 35010KT 10SM CLR 02/M14 A3023 RMK AO2 SLP246 T00171144=
201802192053 METAR KBLI 192053Z 02012G19KT 10SM CLR 01/M14 A3024 RMK AO2 SLP249 T00111144 58005=
201802191953 METAR KBLI 191953Z 02012G21KT 10SM CLR 01/M15 A3024 RMK AO2 SLP252 T00061150=
201802191853 METAR KBLI 191853Z 03013G25KT 10SM CLR M01/M14 A3025 RMK AO2 SLP255 T10061144=
201802191753 METAR KBLI 191753Z 02011G22KT 10SM CLR M02/M14 A3025 RMK AO2 SLP254 T10171144 11017 21044 53011=
201802191653 METAR KBLI 191653Z 03015G20KT 10SM CLR M02/M15 A3024 RMK AO2 SLP249 T10221150=
201802191553 METAR KBLI 191553Z 03013G23KT 10SM CLR M04/M15 A3023 RMK AO2 SLP247 T10391150=
201802191453 METAR KBLI 191453Z 04009G17KT 10SM CLR M04/M14 A3022 RMK AO2 SLP244 T10441144 51027=
201802191353 METAR KBLI 191353Z AUTO 36014G24KT 10SM CLR M04/M14 A3020 RMK AO2 SLP239 T10391144=
201802191253 METAR KBLI 191253Z AUTO 02012G20KT 10SM CLR M04/M14 A3017 RMK AO2 PK WND 03026/1157 SLP226 T10391144=
201802191153 METAR KBLI 191153Z AUTO 02017G26KT 10SM CLR M03/M14 A3014 RMK AO2 PK WND 04026/1145 SLP216 T10331139 11028 21033 51021=
201802191053 METAR KBLI 191053Z AUTO 01016G24KT 10SM CLR M03/M13 A3013 RMK AO2 PK WND 02029/1006 SLP212 T10331133=
201802190953 METAR KBLI 190953Z AUTO 01019G27KT 10SM CLR M03/M13 A3009 RMK AO2 PK WND 03031/0925 SLP200 T10331133=
201802190853 METAR KBLI 190853Z AUTO 02016G30KT 10SM CLR M03/M13 A3008 RMK AO2 PK WND 02030/0849 SLP195 T10281133 51020=
201802190753 METAR KBLI 190753Z AUTO 02017G32KT 10SM CLR M03/M13 A3006 RMK AO2 PK WND 02032/0745 SLP191 T10281133 400221028=
201802190653 METAR KBLI 190653Z AUTO 02018G30KT 10SM CLR M03/M13 A3004 RMK AO2 PK WND 03034/0603 SLP181 T10281128=
201802190553 METAR KBLI 190553Z 02022G31KT 10SM CLR M03/M13 A3002 RMK AO2 PK WND 03034/0500 SLP176 T10281133 11006 21028 53021=
201802190453 METAR KBLI 190453Z 02021G36KT 10SM CLR M02/M13 A3000 RMK AO2 PK WND 03036/0448 SLP167 T10221133=
201802190353 METAR KBLI 190353Z 01021G35KT 10SM CLR M02/M14 A2996 RMK AO2 PK WND 01036/0256 SLP157 T10221139=
201802190253 METAR KBLI 190253Z 02025G40KT 10SM CLR M02/M14 A2996 RMK AO2 PK WND 02040/0245 SLP154 T10221139 51021=
201802190153 METAR KBLI 190153Z 01023G33KT 10SM CLR M02/M14 A2994 RMK AO2 PK WND 01045/0119 SLP148 T10171139=
201802190053 METAR KBLI 190053Z 02027G38KT 10SM CLR M01/M14 A2991 RMK AO2 PK WND 03043/0022 SLP139 T10111139=
201802182353 METAR KBLI 182353Z 01026G37KT 10SM CLR M01/M13 A2989 RMK AO2 PK WND 01039/2327 SLP133 T10061128 10006 21017 51021=
201802182253 METAR KBLI 182253Z 02026G39KT 10SM CLR 00/M12 A2987 RMK AO2 PK WND 02043/2215 SLP126 T00001122=
201802182153 METAR KBLI 182153Z 02029G43KT 10SM CLR 00/M13 A2985 RMK AO2 PK WND 02052/2054 SLP120 T00001128=
201802182053 METAR KBLI 182053Z 03033G52KT 10SM CLR 00/M13 A2983 RMK AO2 PK WND 03052/2051 SLP111 T00001128 51021=
201802181953 METAR KBLI 181953Z 03024G39KT 10SM CLR 00/M12 A2982 RMK AO2 PK WND 02043/1910 SLP109 T00001117=
201802181853 METAR KBLI 181853Z 02026G39KT 10SM FEW085 M01/M11 A2978 RMK AO2 PK WND 04044/1841 SLP096 T10061111=
201802181753 METAR KBLI 181753Z 02025G43KT 10SM FEW042 BKN060 M01/M11 A2977 RMK AO2 PK WND 02044/1719 SLP089 60000 T10111111 10006 21017 51034=
201802181653 METAR KBLI 181653Z 02025G37KT 10SM FEW042 BKN055 M01/M11 A2974 RMK AO2 PK WND 03040/1626 SLP080 T10111106=
201802181625 SPECI KBLI 181625Z 02020G36KT 10SM SCT042 OVC060 M01/M10 A2973 RMK AO2 PK WND 02037/1603 T10111100=
201802181553 METAR KBLI 181553Z 03021G37KT 10SM OVC041 M01/M11 A2971 RMK AO2 PK WND 03040/1523 SLP069 T10111106=
201802181523 SPECI KBLI 181523Z 03023G40KT 10SM SCT040 OVC048 M01/M09 A2969 RMK AO2 PK WND 03040/1523 T10111094=
201802181453 METAR KBLI 181453Z 03021G31KT 10SM BKN036 OVC055 M01/M09 A2967 RMK AO2 PK WND 03033/1420 SNB06E15 SLP055 P0000 60000 T10061089 53018=
201802181353 METAR KBLI 181353Z AUTO 04017G32KT 10SM OVC035 00/M07 A2965 RMK AO2 PK WND 04032/1348 SNB24E41 SLP048 P0000 T00001072=
201802181306 SPECI KBLI 181306Z AUTO 03020G29KT 10SM OVC032 01/M06 A2964 RMK AO2 PK WND 02029/1258 T00061061=
201802181253 METAR KBLI 181253Z AUTO 03018G30KT 10SM BKN026 OVC033 01/M06 A2963 RMK AO2 PK WND 02030/1248 SNE38 SLP042 P0000 T00061061=
201802181214 SPECI KBLI 181214Z AUTO 03015G27KT 3SM -SN BKN016 OVC029 00/M04 A2961 RMK AO2 PK WND 04028/1202 P0000 T00001039=
201802181205 SPECI KBLI 181205Z AUTO 04017G28KT 2SM -SN BKN013 OVC028 00/M03 A2961 RMK AO2 PK WND 04028/1202 P0000 T00001033=
201802181153 METAR KBLI 181153Z AUTO 04011G23KT 1 3/4SM -SN BR OVC013 00/M02 A2961 RMK AO2 PK WND 04027/1129 SLP036 P0001 60001 70061 T00001022 10050 20000 53010=
201802181144 SPECI KBLI 181144Z AUTO 04014G25KT 1 3/4SM -SN BR BKN013 OVC018 00/M02 A2961 RMK AO2 PK WND 04027/1129 P0001 T00001022=
201802181138 SPECI KBLI 181138Z AUTO 04017G27KT 2 1/2SM -SN BR OVC015 00/M02 A2960 RMK AO2 PK WND 04027/1129 P0001 T00001022=
201802181130 SPECI KBLI 181130Z AUTO 04016G27KT 3SM -SN BR OVC017 00/M02 A2961 RMK AO2 PK WND 04027/1129 P0001 T00001017=
201802181116 SPECI KBLI 181116Z AUTO 03013G20KT 2 1/2SM -SN BR OVC021 00/M01 A2960 RMK AO2 P0001 T00001011=
201802181053 METAR KBLI 181053Z AUTO 04014G19KT 5SM -SN BR BKN019 OVC028 01/M01 A2960 RMK AO2 RAE0955SNB38 SLP032 P0000 T00061006=
201802181023 SPECI KBLI 181023Z AUTO 04011G17KT 10SM SCT019 BKN024 OVC095 01/M01 A2960 RMK AO2 RAE0955 P0000 T00111006=
201802180953 METAR KBLI 180953Z AUTO 01005KT 10SM -RA BKN060 OVC090 01/00 A2959 RMK AO2 UPB11E25RAB46 SLP029 P0000 T00110000=
201802180853 METAR KBLI 180853Z AUTO 02005KT 10SM BKN047 OVC055 01/00 A2958 RMK AO2 SLP026 60000 T00110000 51017=
201802180753 METAR KBLI 180753Z AUTO 02003KT 10SM FEW110 01/00 A2956 RMK AO2 SLP020 T00060000 400940006=
201802180700 SPECI KBLI 180700Z AUTO 01003KT 10SM CLR 02/01 A2955 RMK AO2 T00170011=
201802180653 METAR KBLI 180653Z AUTO 00000KT 10SM BKN028 BKN038 OVC050 02/01 A2956 RMK AO2 RAE10 SLP018 P0000 T00170006=
201802180553 METAR KBLI 180553Z VRB04KT 10SM -RA BKN028 BKN044 OVC055 05/01 A2953 RMK AO2 SLP008 P0003 60005 T00500011 10083 20050 53007=
201802180453 METAR KBLI 180453Z 20005KT 10SM -RA FEW010 SCT016 OVC023 06/04 A2950 RMK AO2 SLP997 P0001 T00560044=
201802180353 METAR KBLI 180353Z VRB03KT 10SM -RA FEW022 BKN028 OVC038 06/04 A2951 RMK AO2 RAB32 SLP002 P0001 T00610039=
201802180337 SPECI KBLI 180337Z VRB04KT 10SM -RA FEW022 BKN029 OVC035 07/03 A2951 RMK AO2 RAB32 P0000 T00670033=
201802180253 METAR KBLI 180253Z 18004KT 10SM SCT026 BKN040 OVC075 07/03 A2952 RMK AO2 SLP005 T00670028 58001=
201802180153 METAR KBLI 180153Z VRB04KT 10SM SCT032 BKN090 07/03 A2952 RMK AO2 SLP004 T00720028=
201802180053 METAR KBLI 180053Z 17005KT 10SM FEW041 OVC070 08/02 A2953 RMK AO2 SLP007 T00780022=
201802172353 METAR KBLI 172353Z VRB06KT 10SM OVC065 08/02 A2952 RMK AO2 SLP005 60004 T00830017 10094 20067 53013=
201802172253 METAR KBLI 172253Z 18007G16KT 10SM FEW037 BKN090 08/02 A2951 RMK AO2 SLP999 T00830022=
201802172153 METAR KBLI 172153Z 21008KT 10SM SCT036 BKN090 OVC110 07/02 A2950 RMK AO2 SLP996 T00720017=
201802172053 METAR KBLI 172053Z 21007G20KT 160V240 10SM SCT070 BKN100 08/03 A2949 RMK AO2 PK WND 22028/2000 SLP993 60004 T00830028 51004=
201802171953 METAR KBLI 171953Z 18008G17KT 130V210 10SM FEW023 FEW035 SCT070 09/06 A2948 RMK AO2 SLP991 T00890056=
201802171853 METAR KBLI 171853Z 18011G27KT 10SM SCT018 BKN024 08/07 A2948 RMK AO2 PK WND 15029/1754 RAE52 SLP989 P0004 T00780067=
201802171753 METAR KBLI 171753Z 15016G26KT 4SM RA BR BKN015 OVC030 07/06 A2951 RMK AO2 PK WND 14027/1742 SLP000 P0006 60051 T00670056 10067 20039 56077=
201802171653 METAR KBLI 171653Z 15012KT 9SM -RA OVC016 06/04 A2956 RMK AO2 RAE01B49 SLP017 P0000 T00610039=
201802171553 METAR KBLI 171553Z 13015KT 10SM -RA BKN018 OVC028 05/03 A2961 RMK AO2 PRESFR SLP037 P0008 T00500033=
201802171453 METAR KBLI 171453Z 11008KT 9SM -RA FEW020 OVC026 04/03 A2974 RMK AO2 PRESFR SLP079 P0012 60037 T00390028 58067=
201802171353 METAR KBLI 171353Z AUTO 08004KT 8SM RA SCT017 OVC024 04/04 A2983 RMK AO2 PRESFR SLP109 P0011 T00440039=
201802171253 METAR KBLI 171253Z AUTO 00000KT 5SM RA BR OVC019 04/04 A2990 RMK AO2 SLP133 P0014 T00440044=
201802171209 SPECI KBLI 171209Z AUTO 00000KT 5SM RA BR FEW005 BKN020 OVC026 04/04 A2993 RMK AO2 P0004 T00440044=
201802171153 METAR KBLI 171153Z AUTO 16004KT 4SM RA BR SCT017 OVC022 04/04 A2994 RMK AO2 PRESFR SLP146 P0009 60018 70031 T00440044 10056 20044 58046=
201802171127 SPECI KBLI 171127Z AUTO 18005KT 7SM -RA FEW009 FEW016 OVC026 05/04 A2997 RMK AO2 P0002 T00500044=
201802171118 SPECI KBLI 171118Z AUTO 15005KT 5SM -RA BR FEW011 FEW021 OVC026 05/04 A2997 RMK AO2 P0002 T00500044=
201802171053 METAR KBLI 171053Z AUTO 17006KT 8SM -RA FEW005 OVC030 05/04 A2999 RMK AO2 SLP164 P0007 T00500044=
201802171004 SPECI KBLI 171004Z AUTO 18006KT 10SM -RA FEW006 BKN029 OVC040 05/04 A3003 RMK AO2 P0000 T00500044=
201802170953 METAR KBLI 170953Z AUTO 19006KT 10SM -RA FEW004 BKN035 OVC045 05/04 A3003 RMK AO2 RAE20B36 SLP177 P0001 T00500044=
201802170905 SPECI KBLI 170905Z AUTO 17004KT 9SM -RA FEW004 OVC030 05/05 A3006 RMK AO2 P0001 T00500050=
201802170853 METAR KBLI 170853Z AUTO 18005KT 10SM -RA FEW012 BKN032 OVC040 05/04 A3007 RMK AO2 SLP191 P0001 60001 T00500044 55014=
201802170848 SPECI KBLI 170848Z AUTO 19003KT 10SM -RA FEW004 BKN032 OVC048 05/04 A3007 RMK AO2 P0001=
201802170753 METAR KBLI 170753Z AUTO 19003KT 10SM -RA SCT032 OVC041 05/04 A3010 RMK AO2 SLP200 P0000 T00500044 400780039=
201802170653 METAR KBLI 170653Z AUTO 17004KT 10SM -RA OVC045 06/04 A3011 RMK AO2 RAB51 SLP206 P0000 T00560044=
201802170553 METAR KBLI 170553Z 18004KT 10SM OVC055 06/04 A3013 RMK AO2 SLP211 T00560044 10067 20050 58014=
201802170453 METAR KBLI 170453Z 16003KT 10SM SCT050 OVC070 06/04 A3014 RMK AO2 SLP214 T00560039=
201802170353 METAR KBLI 170353Z 18003KT 10SM BKN060 OVC070 06/04 A3016 RMK AO2 SLP223 T00560044=
201802170253 METAR KBLI 170253Z 17004KT 10SM OVC070 06/05 A3017 RMK AO2 SLP225 T00610050 53006=
201802170216 SPECI KBLI 170216Z 18004KT 10SM FEW009 OVC070 06/06 A3017 RMK AO2 T00610056=
201802170153 METAR KBLI 170153Z 17005KT 10SM FEW014 SCT031 OVC070 06/06 A3016 RMK AO2 SLP221 T00610056=
201802170149 SPECI KBLI 170149Z 17005KT 10SM FEW012 SCT031 OVC070 06/06 A3016 RMK AO2=
201802170053 METAR KBLI 170053Z 17005KT 10SM BKN026 OVC034 07/05 A3015 RMK AO2 SLP220 T00670050=
201802162353 METAR KBLI 162353Z 18007KT 10SM BKN026 OVC034 07/06 A3015 RMK AO2 SLP219 60000 T00670056 10078 20044 53005=
201802162253 METAR KBLI 162253Z 16008KT 10SM BKN024 07/05 A3013 RMK AO2 SLP210 T00720050=
201802162153 METAR KBLI 162153Z 16009KT 10SM BKN026 07/06 A3013 RMK AO2 SLP212 T00720056=
201802162124 SPECI KBLI 162124Z 17011KT 10SM SCT015 BKN025 07/05 A3014 RMK AO2 T00720050=
201802162100 SPECI KBLI 162100Z 15012KT 10SM FEW013 07/05 A3014 RMK AO2 T00720050=
201802162053 METAR KBLI 162053Z 16012G18KT 10SM BKN015 BKN031 OVC090 07/06 A3014 RMK AO2 SLP213 60000 T00720056 58006=
201802161953 METAR KBLI 161953Z 16011KT 10SM BKN015 BKN031 OVC090 06/05 A3015 RMK AO2 RAB19E48 SLP218 P0000 T00610050=
201802161853 METAR KBLI 161853Z 17011KT 10SM OVC013 06/04 A3016 RMK AO2 SLP223 T00560044=
201802161832 SPECI KBLI 161832Z 16011G16KT 10SM OVC011 06/04 A3016 RMK AO2 T00560044=
201802161753 METAR KBLI 161753Z 16007KT 3SM BR OVC009 04/04 A3015 RMK AO2 RAE44 CIG 006V013 SLP220 P0002 60013 T00440039 10050 20039 56007=
201802161655 SPECI KBLI 161655Z 15009KT 5SM -RA BR BKN009 OVC017 05/04 A3016 RMK AO2 P0000 T00500039=
201802161653 METAR KBLI 161653Z 15009KT 3SM -RA BR BKN010 OVC017 05/04 A3016 RMK AO2 CIG 007V013 SLP221 P0002 T00500039=
201802161553 METAR KBLI 161553Z 16011KT 3SM -RA BR BKN009 BKN015 OVC023 04/04 A3016 RMK AO2 SLP222 P0002 T00440039=
201802161551 SPECI KBLI 161551Z 16012KT 5SM -RA BR BKN009 BKN015 OVC023 04/04 A3016 RMK AO2 P0002=
201802161453 METAR KBLI 161453Z 16012G22KT 10SM -RA OVC018 04/04 A3017 RMK AO2 SLP227 P0001 60007 T00440039 58010=
201802161419 SPECI KBLI 161419Z AUTO 16014KT 10SM -RA OVC015 04/03 A3019 RMK AO2 P0001 T00440033=
201802161353 METAR KBLI 161353Z AUTO 16014G20KT 10SM -RA BKN013 OVC018 04/03 A3018 RMK AO2 SLP230 P0002 T00440033=
201802161325 SPECI KBLI 161325Z AUTO 16013G18KT 10SM -RA FEW009 BKN015 OVC022 04/03 A3020 RMK AO2 P0001 T00440033=
201802161317 SPECI KBLI 161317Z AUTO 16012KT 10SM -RA FEW010 BKN016 OVC022 04/03 A3020 RMK AO2 P0001 T00440033=
201802161305 SPECI KBLI 161305Z AUTO 16012G22KT 10SM -RA FEW009 BKN012 OVC020 04/03 A3020 RMK AO2 P0001 T00440033=
201802161303 SPECI KBLI 161303Z AUTO 17011G22KT 10SM -RA SCT012 BKN017 OVC022 04/03 A3020 RMK AO2 P0001 T00440033=
201802161253 METAR KBLI 161253Z AUTO 16012KT 10SM -RA FEW009 BKN014 OVC022 04/03 A3021 RMK AO2 SLP238 P0004 T00440033=
201802161218 SPECI KBLI 161218Z AUTO 17010KT 10SM -RA FEW010 OVC019 04/03 A3022 RMK AO2 P0002 T00440028=
201802161153 METAR KBLI 161153Z AUTO 16010G17KT 10SM -RA BKN013 OVC019 04/03 A3024 RMK AO2 SLP250 P0006 60020 70020 T00440033 10056 20044 58026=
201802161053 METAR KBLI 161053Z AUTO 17010G16KT 7SM -RA BKN011 OVC017 04/03 A3027 RMK AO2 SLP259 P0006 T00440033=
201802161037 SPECI KBLI 161037Z AUTO 17010G19KT 8SM -RA BKN010 BKN015 OVC022 04/03 A3028 RMK AO2 P0005 T00440033=
201802161035 SPECI KBLI 161035Z AUTO 17011G19KT 8SM -RA SCT010 BKN015 OVC022 04/03 A3028 RMK AO2 P0004 T00440033=
201802161028 SPECI KBLI 161028Z AUTO 17009G16KT 9SM -RA FEW008 BKN013 OVC023 04/03 A3028 RMK AO2 P0004 T00440033=
201802161019 SPECI KBLI 161019Z AUTO 16006KT 7SM -RA BKN014 OVC023 04/03 A3029 RMK AO2 P0003 T00440033=
201802160953 METAR KBLI 160953Z AUTO 16007KT 9SM -RA FEW012 OVC019 04/03 A3030 RMK AO2 SLP268 P0006 T00440028=
201802160853 METAR KBLI 160853Z AUTO 17008KT 10SM -RA BKN027 OVC033 05/02 A3032 RMK AO2 SLP276 P0002 60002 T00500017 56016=
201802160753 METAR KBLI 160753Z AUTO 18006KT 10SM -RA FEW031 OVC047 06/03 A3033 RMK AO2 RAB51 SLP281 P0000 T00560033 400610006=
201802160700 SPECI KBLI 160700Z AUTO 17008KT 10SM BKN055 OVC075 06/03 A3035 RMK AO2 T00560028=
201802160653 METAR KBLI 160653Z AUTO 17009KT 10SM BKN022 OVC060 06/03 A3035 RMK AO2 SLP287 T00560028=
201802160553 METAR KBLI 160553Z 15003KT 10SM BKN022 OVC070 04/03 A3037 RMK AO2 RAB02E38 SLP292 P0000 60000 T00440033 10056 20039 58007=
201802160500 SPECI KBLI 160500Z 14005KT 10SM FEW015 BKN026 OVC085 05/03 A3037 RMK AO2 T00500033=
201802160453 METAR KBLI 160453Z 14005KT 10SM FEW015 BKN042 OVC085 05/03 A3037 RMK AO2 RAB36E46 SLP294 P0000 T00500033=
201802160353 METAR KBLI 160353Z 17005KT 10SM FEW021 SCT029 OVC040 05/03 A3039 RMK AO2 SLP299 T00500028=
201802160253 METAR KBLI 160253Z 00000KT 10SM BKN021 BKN027 OVC042 04/02 A3039 RMK AO2 RAB41E50 SLP300 P0000 60000 T00390022 58004=
201802160153 METAR KBLI 160153Z 00000KT 10SM BKN047 OVC065 04/01 A3040 RMK AO2 RAB02E17 SLP304 P0000 T00390011=
201802160053 METAR KBLI 160053Z 36004KT 10SM FEW020 BKN043 OVC060 05/03 A3040 RMK AO2 SLP303 T00500028=
201802152353 METAR KBLI 152353Z 00000KT 8SM SCT036 OVC047 05/03 A3040 RMK AO2 SLP304 T00500033 10061 20028 56006=
201802152253 METAR KBLI 152253Z 19003KT 10SM SCT020 SCT045 OVC050 06/03 A3041 RMK AO2 SLP305 T00610028=
201802152204 SPECI KBLI 152204Z 17006KT 10SM SCT020 SCT045 OVC055 06/03 A3040 RMK AO2 T00560028=
201802152153 METAR KBLI 152153Z 17005KT 10SM BKN020 OVC045 06/03 A3041 RMK AO2 SLP306 T00560028=
201802152100 SPECI KBLI 152100Z 17006KT 10SM BKN015 BKN020 OVC055 06/03 A3042 RMK AO2 T00560028=
201802152053 METAR KBLI 152053Z 19005KT 10SM BKN012 OVC050 06/03 A3042 RMK AO2 SLP310 T00560028 56007=
201802152049 SPECI KBLI 152049Z 17007KT 10SM BKN012 OVC050 06/03 A3042 RMK AO2=
201802152042 SPECI KBLI 152042Z 17003KT 10SM SCT016 OVC050 06/03 A3042 RMK AO2 T00560028=
201802151953 METAR KBLI 151953Z 00000KT 10SM FEW008 BKN021 OVC043 05/03 A3044 RMK AO2 SLP316 T00500033=
201802151946 SPECI KBLI 151946Z 33003KT 10SM FEW008 BKN021 OVC043 05/04 A3044 RMK AO2 T00500039=
201802151853 METAR KBLI 151853Z 00000KT 10SM FEW017 OVC038 04/03 A3044 RMK AO2 SLP317 T00390033=
201802151753 METAR KBLI 151753Z 00000KT 10SM FEW016 OVC031 02/02 A3043 RMK AO2 SLP315 T00220022 10028 20006 51017=
201802151654 SPECI KBLI 151654Z 00000KT 10SM SCT018 OVC031 02/02 A3043 RMK AO2 T00170017=
201802151653 METAR KBLI 151653Z 00000KT 8SM OVC029 02/02 A3043 RMK AO2 SLP312 T00170017=
201802151553 METAR KBLI 151553Z 00000KT 5SM BR FEW003 OVC023 01/01 A3040 RMK AO2 SLP305 T00110011=
201802151453 METAR KBLI 151453Z 36004KT 9SM OVC020 02/01 A3038 RMK AO2 SLP299 T00170011 53022=
201802151353 METAR KBLI 151353Z AUTO 35004KT 10SM OVC017 01/01 A3036 RMK AO2 SLP291 T00110011=
201802151327 SPECI KBLI 151327Z AUTO 00000KT 9SM BKN017 01/01 A3035 RMK AO2 T00110006=
201802151253 METAR KBLI 151253Z AUTO 35004KT 4SM BR FEW020 01/01 A3034 RMK AO2 SLP283 T00110011=
201802151239 SPECI KBLI 151239Z AUTO 35003KT 8SM SCT020 02/02 A3034 RMK AO2 T00170017=
201802151225 SPECI KBLI 151225Z AUTO 00000KT 10SM BKN020 OVC044 02/02 A3033 RMK AO2 T00220017=
201802151153 METAR KBLI 151153Z AUTO 00000KT 10SM OVC042 03/02 A3032 RMK AO2 SLP276 60002 70008 T00280022 10044 20022 51009=
201802151115 SPECI KBLI 151115Z AUTO 00000KT 9SM FEW015 SCT021 OVC042 02/02 A3032 RMK AO2 T00220017=
201802151053 METAR KBLI 151053Z AUTO 03003KT 7SM BKN017 OVC024 02/02 A3032 RMK AO2 SLP276 T00220022=
201802150953 METAR KBLI 150953Z AUTO 08003KT 10SM BKN025 OVC033 03/03 A3031 RMK AO2 SLP273 T00280028=
201802150902 SPECI KBLI 150902Z AUTO 11005KT 10SM BKN024 BKN030 OVC038 04/03 A3030 RMK AO2 T00390028=
201802150853 METAR KBLI 150853Z AUTO 11005KT 10SM FEW009 BKN035 OVC042 04/03 A3029 RMK AO2 RAE06 SLP267 P0000 60002 T00390028 51017=
201802150848 SPECI KBLI 150848Z AUTO 14006KT 10SM FEW009 SCT027 OVC038 04/03 A3029 RMK AO2 RAE06 P0000=
201802150840 SPECI KBLI 150840Z AUTO 15007KT 10SM FEW009 BKN027 OVC040 04/03 A3028 RMK AO2 RAE06 P0000 T00390028=
201802150805 SPECI KBLI 150805Z AUTO 17006KT 10SM -RA FEW007 BKN036 OVC070 04/03 A3027 RMK AO2 P0000 T00390028=
201802150753 METAR KBLI 150753Z AUTO 17005KT 6SM -RA BR FEW015 BKN033 OVC070 04/03 A3026 RMK AO2 SLP257 P0001 T00390028 400560006=
201802150735 SPECI KBLI 150735Z AUTO 17009KT 10SM -RA FEW020 BKN050 OVC070 04/03 A3026 RMK AO2 P0001 T00390028=
201802150707 SPECI KBLI 150707Z AUTO 17007KT 10SM -RA SCT019 BKN025 OVC035 04/03 A3025 RMK AO2 P0000 T00440028=
201802150653 METAR KBLI 150653Z AUTO 17007KT 10SM -RA FEW028 OVC035 04/03 A3024 RMK AO2 SLP250 P0001 T00440028=
201802150553 METAR KBLI 150553Z 17005KT 10SM -RA SCT039 SCT045 OVC055 03/02 A3021 RMK AO2 RAB47 SLP239 P0000 60000 T00330017 10056 20011 53016=
201802150453 METAR KBLI 150453Z 14006KT 10SM OVC039 03/02 A3019 RMK AO2 SLP232 T00330017=
201802150353 METAR KBLI 150353Z 14004KT 10SM SCT037 02/02 A3018 RMK AO2 SLP228 T00220017=
201802150253 METAR KBLI 150253Z 17004KT 10SM SCT020 02/02 A3016 RMK AO2 SLP223 T00170017 53018=
201802150153 METAR KBLI 150153Z 17003KT 10SM SCT020 03/02 A3014 RMK AO2 SLP216 T00330022=
201802150053 METAR KBLI 150053Z 00000KT 10SM BKN023 06/02 A3012 RMK AO2 SLP208 T00560022=
201802142353 METAR KBLI 142353Z 00000KT 10SM SCT014 BKN022 BKN026 06/02 A3011 RMK AO2 SLP205 60000 T00560022 10056 20017 52011=
201802142253 METAR KBLI 142253Z 02003KT 10SM SCT014 BKN022 OVC026 06/03 A3010 RMK AO2 SLP202 T00560028=
201802142212 SPECI KBLI 142212Z 00000KT 10SM SCT013 OVC022 05/03 A3009 RMK AO2 T00500028=
201802142153 METAR KBLI 142153Z 35003KT 10SM BKN011 OVC022 05/03 A3009 RMK AO2 SLP197 T00500028=
201802142124 SPECI KBLI 142124Z 29004KT 10SM BKN011 OVC016 04/03 A3008 RMK AO2 T00440028=
201802142053 METAR KBLI 142053Z 33005KT 7SM SCT004 OVC021 04/03 A3008 RMK AO2 SLP194 60000 T00390028 51009=
201802142022 SPECI KBLI 142022Z 00000KT 7SM SCT004 OVC021 04/03 A3007 RMK AO2 T00390028=
201802142002 SPECI KBLI 142002Z 00000KT 2SM BR BKN004 BKN023 OVC028 03/02 A3007 RMK AO2 T00330022=
201802141955 SPECI KBLI 141955Z 00000KT 2SM BR SCT004 BKN023 OVC028 03/03 A3007 RMK AO2 T00330028=
201802141953 METAR KBLI 141953Z 02003KT 2SM BR BKN004 BKN023 OVC028 03/03 A3007 RMK AO2 RAE50 SLP192 P0000 T00330028=
201802141853 METAR KBLI 141853Z 03004KT 2SM -RA BR BKN004 BKN012 OVC042 02/02 A3006 RMK AO2 UPB23E30B47E49RAB30 SLP190 P0000 T00220017=
201802141753 METAR KBLI 141753Z 01005KT 2SM BR OVC003 02/02 A3005 RMK AO2 UPB19E33 SLP185 P0000 60006 T00170017 10017 20006 51029=
201802141653 METAR KBLI 141653Z 36003KT 2SM BR SCT002 OVC012 01/01 A3002 RMK AO2 UPB38E47 SLP176 P0000 T00110011=
201802141553 METAR KBLI 141553Z 36004KT 2SM BR SCT002 OVC012 01/01 A2999 RMK AO2 RAB04E05B07E49UPB05E07 SLP166 P0000 T00110006=
201802141507 SPECI KBLI 141507Z 01004KT 2SM -RA BR FEW002 OVC011 01/01 A2997 RMK AO2 RAB04E05B07UPB05E07 P0000 T00060006=
201802141506 SPECI KBLI 141506Z 01003KT 2SM UP BR FEW002 OVC011 01/01 A2997 RMK AO2 RAB04E05UPB05 P0000 T00060006=
201802141456 SPECI KBLI 141456Z 36003KT 2SM BR OVC011 01/01 A2997 RMK AO2 T00110006=
201802141453 METAR KBLI 141453Z 01003KT 3SM BR OVC011 01/01 A2996 RMK AO2 UPE1357RAB1357E02 SLP156 P0000 60006 T00110011 52013=
201802141353 METAR KBLI 141353Z AUTO 02004KT 2SM UP BR OVC012 01/01 A2995 RMK AO2 UPB23SNE23B26E37 SLP150 P0002 T00060006=
201802141344 SPECI KBLI 141344Z AUTO 01004KT 2SM UP BR FEW002 OVC012 01/01 A2995 RMK AO2 UPB23SNE23B26E37 P0002 T00060006=
201802141320 SPECI KBLI 141320Z AUTO 01005KT 1 3/4SM -SN BR SCT002 OVC013 01/01 A2995 RMK AO2 P0001 T00060006=
201802141253 METAR KBLI 141253Z AUTO 36003KT 1 1/2SM -SN BR OVC002 01/01 A2994 RMK AO2 RAE34SNB34 SLP149 P0004 T00060006=
201802141236 SPECI KBLI 141236Z AUTO 34004KT 1 3/4SM -SN BR BKN002 OVC010 01/01 A2994 RMK AO2 RAE34SNB34 P0003 T00060006=
201802141220 SPECI KBLI 141220Z AUTO 35004KT 2SM -RA BR SCT002 OVC012 01/01 A2993 RMK AO2 P0002 T00060006=
201802141153 METAR KBLI 141153Z AUTO 01005KT 2SM RA BR OVC012 01/01 A2993 RMK AO2 SLP143 P0008 60015 70025 T00060006 10033 20006 56004=
201802141134 SPECI KBLI 141134Z AUTO 00000KT 2SM RA BR SCT002 OVC012 01/01 A2993 RMK AO2 P0006 T00060006=
201802141125 SPECI KBLI 141125Z AUTO 36003KT 2SM RA BR BKN002 OVC014 01/01 A2993 RMK AO2 P0004 T00060006=
201802141117 SPECI KBLI 141117Z AUTO 35006KT 2 1/2SM -RA BR SCT002 OVC014 01/01 A2993 RMK AO2 P0003 T00110006=
201802141104 SPECI KBLI 141104Z AUTO 35006KT 4SM -RA BR FEW002 OVC014 01/01 A2993 RMK AO2 P0001 T00110006=
201802141053 METAR KBLI 141053Z AUTO 35006KT 8SM -RA OVC016 02/01 A2993 RMK AO2 SLP144 P0001 T00220011=
201802141022 SPECI KBLI 141022Z AUTO 10004KT 10SM -RA BKN018 OVC032 03/02 A2993 RMK AO2 P0001 T00330022=
201802140953 METAR KBLI 140953Z AUTO 14009KT 10SM -RA SCT027 OVC035 03/02 A2993 RMK AO2 UPB01E02B22E30 SLP145 P0001 T00330017=
201802140853 METAR KBLI 140853Z AUTO 13010KT 10SM -RA BKN050 BKN060 OVC075 03/02 A2994 RMK AO2 RAE27B46UPB47E48 SLP148 P0000 60005 T00280017 58018=
201802140830 SPECI KBLI 140830Z AUTO 13009KT 10SM FEW017 BKN041 OVC049 03/02 A2995 RMK AO2 RAE27 P0000 T00280017=
201802140753 METAR KBLI 140753Z AUTO 12007KT 10SM -RA BKN016 OVC023 03/02 A2996 RMK AO2 SLP156 P0003 T00280017 400561044=
201802140724 SPECI KBLI 140724Z AUTO 14007KT 10SM -RA FEW009 BKN015 OVC027 03/02 A2997 RMK AO2 P0001 T00280017=
201802140706 SPECI KBLI 140706Z AUTO 16009KT 10SM -RA FEW009 SCT015 OVC031 02/02 A2997 RMK AO2 P0000 T00220017=
201802140653 METAR KBLI 140653Z AUTO 16010G16KT 10SM -RA SCT010 SCT014 OVC032 02/02 A2997 RMK AO2 SLP159 P0002 T00220017=
201802140643 SPECI KBLI 140643Z AUTO 17010KT 10SM -RA FEW010 SCT014 OVC030 02/02 A2998 RMK AO2 P0002 T00220017=
201802140553 METAR KBLI 140553Z 14011KT 8SM -RA SCT012 OVC017 02/01 A2999 RMK AO2 SLP166 P0008 60010 T00220011 10056 20022 58022=
201802140453 METAR KBLI 140453Z 17012KT 7SM -RA OVC019 03/01 A3003 RMK AO2 RAB10 SLP178 P0002 T00330006=
201802140353 METAR KBLI 140353Z 16009KT 10SM OVC044 06/M03 A3005 RMK AO2 SLP183 T00561028=
201802140253 METAR KBLI 140253Z 18007KT 10SM OVC110 06/M03 A3006 RMK AO2 SLP189 T00561033 56023=
201802140153 METAR KBLI 140153Z 17006KT 10SM SCT110 05/M03 A3007 RMK AO2 SLP194 T00501028=
201802140053 METAR KBLI 140053Z 17008KT 10SM OVC110 05/M04 A3010 RMK AO2 SLP203 T00501039=
201802132353 METAR KBLI 132353Z 19007KT 10SM SCT110 06/M04 A3013 RMK AO2 SLP212 T00561044 10056 20006 57036=
201802132253 METAR KBLI 132253Z 18005KT 10SM OVC085 05/M03 A3017 RMK AO2 SLP226 T00501033=
201802132153 METAR KBLI 132153Z VRB05KT 10SM BKN085 OVC120 04/M02 A3019 RMK AO2 SLP235 T00441022=
201802132053 METAR KBLI 132053Z 16004KT 10SM OVC075 04/M05 A3023 RMK AO2 SLP248 T00391050 56021=
201802131953 METAR KBLI 131953Z 00000KT 10SM BKN065 04/M03 A3025 RMK AO2 SLP255 T00391028=
201802131853 METAR KBLI 131853Z 00000KT 10SM BKN065 04/M03 A3027 RMK AO2 SLP262 T00391033=
201802131753 METAR KBLI 131753Z 00000KT 10SM FEW070 BKN110 01/M03 A3030 RMK AO2 SLP270 T00111028 10011 21044 58007=
201802131653 METAR KBLI 131653Z 00000KT 10SM BKN060 M01/M04 A3031 RMK AO2 SLP273 T10061044=
201802131553 METAR KBLI 131553Z 00000KT 10SM SCT065 M03/M04 A3032 RMK AO2 SLP276 T10281044=
201802131453 METAR KBLI 131453Z 00000KT 10SM CLR M03/M06 A3032 RMK AO2 SLP276 T10281056 56011=
201802131353 METAR KBLI 131353Z AUTO 00000KT 10SM SCT120 M04/M06 A3032 RMK AO2 SLP279 T10441061=
201802131253 METAR KBLI 131253Z AUTO 00000KT 10SM CLR M04/M06 A3033 RMK AO2 SLP281 T10441061=
201802131153 METAR KBLI 131153Z AUTO 00000KT 10SM CLR M04/M07 A3035 RMK AO2 SLP288 T10441067 11022 21044 58005=
201802131053 METAR KBLI 131053Z AUTO 00000KT 10SM CLR M04/M06 A3036 RMK AO2 SLP290 T10391061=
201802130953 METAR KBLI 130953Z AUTO 00000KT 10SM CLR M04/M07 A3036 RMK AO2 SLP291 T10391067=
201802130853 METAR KBLI 130853Z AUTO 00000KT 10SM CLR M03/M07 A3036 RMK AO2 SLP292 T10331072 53002=
201802130753 METAR KBLI 130753Z AUTO 00000KT 10SM CLR M03/M07 A3036 RMK AO2 SLP290 T10281067 400611033=
201802130653 METAR KBLI 130653Z AUTO 00000KT 10SM CLR M03/M07 A3036 RMK AO2 SLP292 T10281072=
201802130553 METAR KBLI 130553Z 00000KT 10SM CLR M03/M07 A3036 RMK AO2 SLP290 T10281067 10056 21033 53005=
201802130453 METAR KBLI 130453Z 00000KT 10SM CLR M02/M07 A3035 RMK AO2 SLP288 T10171067=
201802130353 METAR KBLI 130353Z 00000KT 10SM CLR M02/M06 A3035 RMK AO2 SLP287 T10171061=
201802130253 METAR KBLI 130253Z 00000KT 10SM CLR M01/M06 A3034 RMK AO2 SLP285 T10061061 51006=
201802130153 METAR KBLI 130153Z 00000KT 10SM CLR 00/M07 A3034 RMK AO2 SLP284 T00001067=
201802130053 METAR KBLI 130053Z 00000KT 10SM CLR 04/M12 A3033 RMK AO2 SLP280 T00391117=
201802122353 METAR KBLI 122353Z 33005KT 10SM CLR 06/M13 A3032 RMK AO2 SLP278 T00561128 10061 20017 58007=
201802122253 METAR KBLI 122253Z VRB04KT 10SM CLR 06/M11 A3034 RMK AO2 SLP282 T00561111=
201802122153 METAR KBLI 122153Z 35005KT 10SM CLR 06/M11 A3034 RMK AO2 SLP282 T00611106=
201802122053 METAR KBLI 122053Z 36005KT 10SM CLR 06/M10 A3035 RMK AO2 SLP285 T00561100 50002=
201802121953 METAR KBLI 121953Z 02006KT 10SM CLR 04/M11 A3035 RMK AO2 SLP287 T00441111=
201802121853 METAR KBLI 121853Z 02010KT 10SM CLR 03/M12 A3035 RMK AO2 SLP288 T00331117=
201802121753 METAR KBLI 121753Z 02011KT 10SM CLR 02/M12 A3034 RMK AO2 SLP283 T00171122 10022 21011 53006=
201802121653 METAR KBLI 121653Z 01013G19KT 10SM CLR 01/M12 A3033 RMK AO2 SLP279 T00061122=
201802121553 METAR KBLI 121553Z 03012KT 10SM CLR M01/M12 A3031 RMK AO2 SLP274 T10111122=
201802121453 METAR KBLI 121453Z 02016G21KT 10SM CLR M01/M12 A3032 RMK AO2 PK WND 01029/1356 SLP277 T10111122 51019=
201802121353 METAR KBLI 121353Z AUTO 02017G27KT 10SM CLR M01/M13 A3031 RMK AO2 PK WND 01031/1329 SLP273 T10061128=
201802121253 METAR KBLI 121253Z AUTO 02018G24KT 10SM CLR M01/M12 A3029 RMK AO2 PK WND 02028/1203 SLP266 T10061122=
201802121153 METAR KBLI 121153Z AUTO 02016G27KT 10SM CLR M01/M12 A3026 RMK AO2 PK WND 03031/1109 SLP258 T10061117 10022 21006 53013=
201802121053 METAR KBLI 121053Z AUTO 02021G33KT 10SM CLR 00/M12 A3023 RMK AO2 PK WND 02033/1045 SLP247 T00001122=
201802120953 METAR KBLI 120953Z AUTO 02018G31KT 10SM CLR 00/M12 A3024 RMK AO2 PK WND 03035/0932 SLP250 T00001117=
201802120853 METAR KBLI 120853Z AUTO 02020G28KT 10SM CLR 01/M12 A3023 RMK AO2 PK WND 02035/0812 SLP245 T00061117 51032=
201802120753 METAR KBLI 120753Z AUTO 02020G29KT 10SM CLR 01/M12 A3020 RMK AO2 PK WND 01032/0704 SLP236 T00111117 400721011=
201802120653 METAR KBLI 120653Z AUTO 03021G35KT 10SM CLR 02/M12 A3017 RMK AO2 PK WND 02036/0620 SLP225 T00171117=
201802120553 METAR KBLI 120553Z 02024G33KT 10SM CLR 02/M12 A3013 RMK AO2 PK WND 01037/0457 SLP213 T00221117 10067 20022 51029=
201802120453 METAR KBLI 120453Z 02021G32KT 10SM CLR 03/M11 A3011 RMK AO2 PK WND 04034/0356 SLP207 T00281111=
201802120353 METAR KBLI 120353Z 03019G29KT 10SM CLR 03/M09 A3008 RMK AO2 PK WND 02031/0300 SLP196 T00331094=
201802120253 METAR KBLI 120253Z 02016G29KT 10SM CLR 04/M09 A3005 RMK AO2 PK WND 01029/0253 SLP184 T00441089 53020=
201802120153 METAR KBLI 120153Z 02012G20KT 10SM CLR 05/M09 A3002 RMK AO2 SLP173 T00501089=
201802120053 METAR KBLI 120053Z 35008KT 10SM CLR 06/M03 A2999 RMK AO2 SLP166 T00611028=
201802112353 METAR KBLI 112353Z 30010KT 10SM CLR 07/M01 A2999 RMK AO2 SLP164 T00671011 10072 20033 51002=
201802112253 METAR KBLI 112253Z 32008KT 10SM CLR 07/M02 A2999 RMK AO2 SLP163 T00721017=
201802112153 METAR KBLI 112153Z VRB06KT 10SM CLR 07/M02 A2999 RMK AO2 SLP163 T00721022=
201802112053 METAR KBLI 112053Z 01004KT 10SM CLR 07/M03 A2998 RMK AO2 SLP162 T00671028 50003=
201802111953 METAR KBLI 111953Z 33008KT 10SM CLR 06/M04 A2998 RMK AO2 SLP162 T00561039=
201802111853 METAR KBLI 111853Z 36010KT 10SM CLR 04/M03 A2999 RMK AO2 SLP165 T00441028=
201802111753 METAR KBLI 111753Z 01009KT 10SM FEW045 03/M03 A2997 RMK AO2 SLP159 T00331028 10033 21011 53002=
201802111653 METAR KBLI 111653Z 36007KT 10SM OVC043 03/M03 A2997 RMK AO2 SLP158 T00281028=
201802111553 METAR KBLI 111553Z 36006KT 10SM SCT045 01/M03 A2997 RMK AO2 SLP158 T00111028=
201802111453 METAR KBLI 111453Z 02006KT 10SM OVC044 00/M03 A2997 RMK AO2 SLP158 T00001028 56019=
201802111353 METAR KBLI 111353Z AUTO 02005KT 10SM BKN048 M01/M03 A2998 RMK AO2 SLP163 T10111028=
201802111253 METAR KBLI 111253Z AUTO 01005KT 10SM CLR M01/M03 A3000 RMK AO2 SLP169 T10111028=
201802111153 METAR KBLI 111153Z AUTO 36003KT 10SM FEW037 M01/M03 A3002 RMK AO2 SLP176 T10061028 10000 21011 56024=
201802111053 METAR KBLI 111053Z AUTO 35005KT 10SM CLR 00/M03 A3005 RMK AO2 SLP185 T00001028=
201802110953 METAR KBLI 110953Z AUTO 34004KT 10SM CLR 00/M02 A3006 RMK AO2 SLP187 T00001017=
201802110853 METAR KBLI 110853Z AUTO 03004KT 10SM SCT043 M01/M02 A3009 RMK AO2 SLP200 T10061022 58041=
201802110753 METAR KBLI 110753Z AUTO 00000KT 10SM CLR M01/M03 A3014 RMK AO2 SLP215 T10061028 400671017=
201802110653 METAR KBLI 110653Z AUTO 00000KT 10SM CLR M01/M03 A3018 RMK AO2 SLP230 T10061033=
201802110553 METAR KBLI 110553Z 00000KT 10SM FEW039 M01/M03 A3022 RMK AO2 SLP242 T10061033 10056 21011 58023=
201802110453 METAR KBLI 110453Z 00000KT 10SM CLR M01/M03 A3024 RMK AO2 SLP251 T10061033=
201802110353 METAR KBLI 110353Z 00000KT 10SM CLR M01/M03 A3026 RMK AO2 SLP259 T10061033=
201802110253 METAR KBLI 110253Z 00000KT 10SM CLR 01/M03 A3029 RMK AO2 SLP266 T00061028 56023=
201802110153 METAR KBLI 110153Z 14004KT 10SM CLR 02/M03 A3031 RMK AO2 SLP273 T00171033=
201802110053 METAR KBLI 110053Z 16003KT 10SM CLR 04/M04 A3033 RMK AO2 SLP279 T00391039=
201802102353 METAR KBLI 102353Z VRB03KT 10SM CLR 06/M04 A3036 RMK AO2 SLP288 T00561044 10067 20017 56021=
201802102253 METAR KBLI 102253Z 18005KT 10SM CLR 06/M05 A3037 RMK AO2 SLP293 T00561050=
201802102153 METAR KBLI 102153Z 17004KT 10SM CLR 05/M04 A3039 RMK AO2 SLP299 T00501044=
201802102053 METAR KBLI 102053Z 00000KT 10SM CLR 06/M05 A3042 RMK AO2 SLP309 T00561050 58010=
201802101953 METAR KBLI 101953Z 00000KT 10SM CLR 04/M06 A3044 RMK AO2 SLP318 T00391056=
201802101853 METAR KBLI 101853Z 00000KT 10SM CLR 03/M07 A3045 RMK AO2 SLP320 T00281067=
201802101753 METAR KBLI 101753Z 03006KT 10SM CLR 02/M07 A3045 RMK AO2 SLP320 T00171072 10017 21017 51010=
201802101653 METAR KBLI 101653Z 01006KT 10SM CLR 00/M08 A3044 RMK AO2 SLP316 T00001078=
201802101553 METAR KBLI 101553Z 01009KT 10SM CLR M02/M08 A3044 RMK AO2 SLP320 T10171083=
201802101453 METAR KBLI 101453Z 01008KT 10SM CLR M01/M09 A3042 RMK AO2 SLP310 T10111089 51007=
201802101353 METAR KBLI 101353Z AUTO 35006KT 10SM CLR M01/M08 A3041 RMK AO2 SLP309 T10111083=
201802101253 METAR KBLI 101253Z AUTO 02010KT 10SM CLR M01/M08 A3041 RMK AO2 SLP309 T10111083=
201802101153 METAR KBLI 101153Z AUTO 36010G19KT 10SM CLR 00/M09 A3040 RMK AO2 SLP303 70001 T00001089 10017 20000 53019=
201802101053 METAR KBLI 101053Z AUTO 02010G18KT 10SM CLR 01/M09 A3037 RMK AO2 PK WND 03026/1026 SLP292 T00061089=
201802100953 METAR KBLI 100953Z AUTO 01013G22KT 10SM CLR 01/M08 A3036 RMK AO2 SLP289 T00061083=
201802100853 METAR KBLI 100853Z AUTO 01011G23KT 10SM CLR 01/M08 A3034 RMK AO2 PK WND 01026/0802 SLP284 T00111083 51011=
201802100753 METAR KBLI 100753Z AUTO 01015G23KT 10SM CLR 01/M08 A3034 RMK AO2 SLP282 T00111078 400720011=
201802100653 METAR KBLI 100653Z AUTO 01016G25KT 10SM CLR 02/M08 A3033 RMK AO2 PK WND 02033/0608 SLP280 T00171078=
201802100553 METAR KBLI 100553Z 02018G25KT 10SM CLR 02/M07 A3031 RMK AO2 PK WND 02026/0524 SLP273 T00171072 10056 20017 53010=
201802100453 METAR KBLI 100453Z 02016G27KT 10SM FEW075 03/M07 A3030 RMK AO2 PK WND 02027/0450 SLP269 T00281067=
201802100353 METAR KBLI 100353Z 01012G18KT 10SM CLR 03/M06 A3029 RMK AO2 SLP265 T00281061=
201802100253 METAR KBLI 100253Z 01011KT 10SM OVC075 03/M04 A3028 RMK AO2 SLP263 T00331044 53001=
201802100153 METAR KBLI 100153Z 02009KT 10SM CLR 03/M05 A3027 RMK AO2 SLP259 T00331050=
201802100053 METAR KBLI 100053Z 02011KT 10SM SCT070 04/M05 A3028 RMK AO2 SLP262 T00441050=
201802092353 METAR KBLI 092353Z 01011G19KT 10SM SCT065 06/M04 A3028 RMK AO2 SLP262 60001 T00561044 10072 20039 56005=
201802092253 METAR KBLI 092253Z 02009KT 10SM FEW060 FEW075 06/M04 A3028 RMK AO2 SLP263 T00611039=
201802092153 METAR KBLI 092153Z 36008KT 10SM OVC055 06/M02 A3028 RMK AO2 SLP264 T00611022=
201802092053 METAR KBLI 092053Z 36008KT 10SM BKN048 06/M02 A3029 RMK AO2 SLP267 60001 T00561017 58001=
201802091953 METAR KBLI 091953Z 02006KT 10SM BKN041 BKN049 05/M01 A3031 RMK AO2 RAE1856 SLP271 P0000 T00501006=
201802091853 METAR KBLI 091853Z 02007KT 10SM -RA SCT011 OVC032 04/01 A3030 RMK AO2 RAB22 SLP271 P0001 T00440011=
201802091753 METAR KBLI 091753Z 02005KT 10SM FEW012 OVC032 04/01 A3029 RMK AO2 RAE32 SLP267 P0000 60000 T00390011 10061 20039 53010=
201802091653 METAR KBLI 091653Z 35004KT 10SM -RA FEW022 SCT028 OVC037 04/02 A3028 RMK AO2 RAB45 SLP262 P0000 T00440022=
201802091553 METAR KBLI 091553Z 00000KT 10SM FEW015 SCT029 OVC031 06/04 A3027 RMK AO2 SLP259 T00610039=
201802091453 METAR KBLI 091453Z 00000KT 10SM FEW019 SCT025 OVC031 06/03 A3026 RMK AO2 SLP256 T00610033 50002=
201802091418 SPECI KBLI 091418Z AUTO 00000KT 10SM FEW019 OVC029 06/04 A3026 RMK AO2 T00560039=
201802091353 METAR KBLI 091353Z AUTO 17003KT 10SM SCT021 OVC030 06/03 A3026 RMK AO2 SLP257 T00610033=
201802091334 SPECI KBLI 091334Z AUTO 00000KT 10SM FEW019 BKN032 OVC050 06/03 A3026 RMK AO2 T00560033=
201802091253 METAR KBLI 091253Z AUTO 00000KT 10SM FEW020 BKN027 OVC048 06/04 A3026 RMK AO2 SLP255 T00560039=
201802091153 METAR KBLI 091153Z AUTO 00000KT 10SM SCT022 OVC028 06/04 A3026 RMK AO2 SLP254 T00560039 10078 20039 51005=
201802091053 METAR KBLI 091053Z AUTO 00000KT 10SM BKN024 OVC029 05/03 A3025 RMK AO2 SLP253 T00500033=
201802091008 SPECI KBLI 091008Z AUTO 11003KT 10SM BKN027 BKN032 OVC075 05/02 A3025 RMK AO2 T00500022=
201802090953 METAR KBLI 090953Z AUTO 00000KT 10SM FEW031 OVC075 04/02 A3025 RMK AO2 SLP250 T00440022=
201802090926 SPECI KBLI 090926Z AUTO 00000KT 10SM OVC030 05/02 A3024 RMK AO2 T00500022=
201802090853 METAR KBLI 090853Z AUTO 00000KT 10SM BKN029 BKN075 04/03 A3024 RMK AO2 SLP248 T00440033 51015=
201802090753 METAR KBLI 090753Z AUTO 00000KT 10SM OVC080 07/02 A3023 RMK AO2 SLP245 T00670017 401280061=
201802090653 METAR KBLI 090653Z AUTO 00000KT 10SM FEW034 OVC080 07/06 A3022 RMK AO2 SLP243 T00670056=
201802090553 METAR KBLI 090553Z 00000KT 10SM OVC070 08/05 A3020 RMK AO2 SLP234 60000 T00780050 10100 20072 53012=
201802090453 METAR KBLI 090453Z 00000KT 10SM OVC065 08/05 A3018 RMK AO2 SLP229 T00780050=
201802090353 METAR KBLI 090353Z 00000KT 10SM BKN060 BKN085 08/04 A3016 RMK AO2 SLP222 T00780044=
201802090253 METAR KBLI 090253Z 18004KT 10SM BKN040 OVC048 08/05 A3016 RMK AO2 RAB18E30 SLP221 P0000 60000 T00830050 53013=
201802090153 METAR KBLI 090153Z 21003KT 10SM BKN036 BKN046 OVC080 08/04 A3014 RMK AO2 RAB0059E08 SLP215 P0000 T00830044=
201802090053 METAR KBLI 090053Z VRB03KT 10SM BKN034 09/06 A3014 RMK AO2 RAB2358E14 SLP213 P0000 T00890056=
201802082353 METAR KBLI 082353Z 28007KT 10SM FEW049 SCT055 OVC075 10/07 A3012 RMK AO2 RAB25E40 SLP208 P0000 60000 T01000067 10128 20100 53007=
201802082253 METAR KBLI 082253Z 30008KT 10SM BKN070 11/07 A3011 RMK AO2 SLP203 T01110072=
201802082153 METAR KBLI 082153Z VRB04KT 10SM BKN033 11/07 A3010 RMK AO2 SLP199 T01110067=
201802082053 METAR KBLI 082053Z 17008KT 10SM BKN040 11/07 A3010 RMK AO2 SLP200 T01060067 58001=
201802081953 METAR KBLI 081953Z 15012KT 10SM SCT043 SCT055 11/07 A3011 RMK AO2 SLP203 T01060072=
201802081853 METAR KBLI 081853Z 16008KT 10SM OVC043 11/07 A3011 RMK AO2 SLP204 T01060072=
201802081753 METAR KBLI 081753Z 16014G21KT 10SM SCT019 BKN038 BKN049 10/08 A3010 RMK AO2 SLP201 60000 T01000078 10106 20094 53008=
201802081653 METAR KBLI 081653Z 16010G18KT 10SM FEW020 SCT040 BKN050 09/08 A3008 RMK AO2 SLP194 T00940078=
201802081554 SPECI KBLI 081554Z 17007G15KT 10SM FEW020 SCT049 BKN060 09/07 A3009 RMK AO2 T00940072=
201802081553 METAR KBLI 081553Z 17009KT 10SM FEW020 BKN049 BKN060 09/07 A3009 RMK AO2 SLP196 T00940072=
201802081453 METAR KBLI 081453Z 16009KT 10SM BKN055 09/07 A3008 RMK AO2 SLP193 60000 T00940072 50002=
201802081353 METAR KBLI 081353Z AUTO 18010G18KT 10SM SCT020 BKN047 10/07 A3008 RMK AO2 SLP193 T01000072=
201802081348 SPECI KBLI 081348Z AUTO 17011G18KT 10SM SCT022 BKN047 10/07 A3008 RMK AO2=
201802081313 SPECI KBLI 081313Z AUTO 18011G18KT 10SM BKN021 BKN025 11/08 A3008 RMK AO2 T01060078=
201802081305 SPECI KBLI 081305Z AUTO 18010G17KT 10SM SCT021 10/08 A3008 RMK AO2 T01000078=
201802081253 METAR KBLI 081253Z AUTO 17010KT 10SM SCT023 BKN028 10/08 A3008 RMK AO2 RAE04 SLP191 P0000 T01000078=
201802081228 SPECI KBLI 081228Z AUTO 17009G17KT 10SM BKN026 BKN032 OVC070 10/08 A3009 RMK AO2 RAE04 P0000 T01000078=
201802081153 METAR KBLI 081153Z AUTO 17012G18KT 10SM -RA FEW018 BKN042 OVC065 10/08 A3009 RMK AO2 RAB04E16B38 SLP196 P0000 60000 70004 T01000078 10122 20100 51002=
201802081150 SPECI KBLI 081150Z AUTO 17012G18KT 10SM -RA FEW021 BKN040 OVC070 10/08 A3009 RMK AO2 RAB04E16B38 P0000=
201802081110 SPECI KBLI 081110Z AUTO 22010G16KT 10SM -RA FEW021 BKN026 OVC032 11/08 A3011 RMK AO2 RAB04 P0000 T01110083=
201802081053 METAR KBLI 081053Z AUTO 21009G22KT 170V250 10SM FEW023 BKN034 OVC043 11/08 A3010 RMK AO2 PK WND 16026/1004 SLP201 T01060078=
201802080953 METAR KBLI 080953Z AUTO 18012G20KT 10SM OVC055 12/08 A3008 RMK AO2 PK WND 17027/0907 SLP194 T01170078=
201802080853 METAR KBLI 080853Z AUTO 18012G25KT 10SM OVC055 11/08 A3010 RMK AO2 PK WND 17026/0841 SLP200 T01110083 56030=
201802080753 METAR KBLI 080753Z AUTO 18009G20KT 10SM CLR 11/08 A3011 RMK AO2 PK WND 16027/0732 SLP202 T01110078 401220078=
201802080653 METAR KBLI 080653Z AUTO 16012KT 10SM CLR 11/08 A3014 RMK AO2 SLP212 T01110078=
201802080553 METAR KBLI 080553Z 17012KT 10SM BKN120 11/08 A3019 RMK AO2 SLP230 60000 T01110078 10111 20094 56020=
201802080500 SPECI KBLI 080500Z 17013G23KT 10SM FEW028 SCT110 10/08 A3019 RMK AO2 T01000078=
201802080453 METAR KBLI 080453Z 17009G22KT 10SM BKN028 10/08 A3020 RMK AO2 SLP233 T01000078=
201802080430 SPECI KBLI 080430Z 17014G20KT 10SM BKN028 10/08 A3021 RMK AO2 T01000078=
201802080423 SPECI KBLI 080423Z 16012G20KT 10SM SCT028 10/08 A3021 RMK AO2 T01000078=
201802080353 METAR KBLI 080353Z 17009G17KT 10SM BKN028 BKN035 BKN110 09/08 A3024 RMK AO2 SLP249 T00940078=
201802080253 METAR KBLI 080253Z 17013G19KT 10SM OVC023 10/08 A3025 RMK AO2 SLP252 60000 T01000083 58013=
201802080153 METAR KBLI 080153Z 17010G20KT 10SM BKN025 OVC031 09/08 A3028 RMK AO2 SLP262 T00940083=
201802080053 METAR KBLI 080053Z 17014G21KT 10SM SCT010 BKN022 OVC100 09/08 A3029 RMK AO2 RAE40 SLP265 P0000 T00940083=
201802072353 METAR KBLI 072353Z 17011G19KT 10SM -RA BKN010 BKN044 OVC100 09/08 A3030 RMK AO2 RAE24B52 CIG 008V014 SLP269 P0001 60002 T00940083 10094 20083 56017=
201802072253 METAR KBLI 072253Z 17010G17KT 7SM -RA OVC010 09/08 A3032 RMK AO2 SLP275 CIG VSBY LWR S-W P0001 T00940083=
201802072231 SPECI KBLI 072231Z 17012KT 7SM -RA OVC011 09/08 A3032 RMK AO2 CIG VSBY LWR S-W P0000 T00890083=
201802072153 METAR KBLI 072153Z 17012G19KT 10SM -RA SCT014 OVC021 09/08 A3033 RMK AO2 RAB2055 SLP277 P0000 T00890083=
201802072053 METAR KBLI 072053Z 18008G16KT 10SM OVC020 09/08 A3035 RMK AO2 RAE17 SLP286 P0000 60000 T00890078 58006=
201802071953 METAR KBLI 071953Z 17012G19KT 10SM -RA OVC019 09/08 A3037 RMK AO2 RAB43 SLP291 P0000 T00890078=
201802071853 METAR KBLI 071853Z 17010G18KT 10SM OVC022 09/08 A3037 RMK AO2 SLP292 T00890078=
201802071753 METAR KBLI 071753Z 17009G21KT 10SM OVC023 08/08 A3037 RMK AO2 SLP293 60002 T00830078 10083 20078 53008=
201802071653 METAR KBLI 071653Z 17011G17KT 10SM OVC025 08/08 A3036 RMK AO2 SLP290 T00830078=
201802071553 METAR KBLI 071553Z 17011KT 10SM OVC025 08/07 A3035 RMK AO2 RAE08 SLP287 P0000 T00830072=
201802071453 METAR KBLI 071453Z 16010KT 3SM -RA BR FEW005 FEW013 OVC023 08/07 A3035 RMK AO2 RAB11 SLP285 P0002 60002 T00780072 50002=
201802071440 SPECI KBLI 071440Z AUTO 17009G16KT 5SM -RA BR FEW006 OVC022 08/08 A3034 RMK AO2 RAB11 P0002 T00780078=
201802071353 METAR KBLI 071353Z AUTO 17010G17KT 8SM OVC022 08/07 A3035 RMK AO2 SLP286 T00830072=
201802071253 METAR KBLI 071253Z AUTO 17010G17KT 10SM OVC025 08/07 A3035 RMK AO2 SLP285 T00830072=
201802071153 METAR KBLI 071153Z AUTO 16011G18KT 10SM BKN026 OVC036 08/07 A3034 RMK AO2 SLP283 60007 70014 T00830072 10083 20078 51002=
201802071053 METAR KBLI 071053Z AUTO 17007G16KT 10SM FEW011 SCT019 OVC024 08/07 A3034 RMK AO2 SLP283 T00780072=
201802071034 SPECI KBLI 071034Z AUTO 17010G15KT 10SM FEW012 OVC021 08/07 A3035 RMK AO2 T00780072=
201802070953 METAR KBLI 070953Z AUTO 17009KT 8SM BKN012 OVC020 08/07 A3035 RMK AO2 RAB35E48 SLP285 P0000 T00780072=
201802070907 SPECI KBLI 070907Z AUTO VRB05KT 10SM FEW007 OVC014 08/08 A3035 RMK AO2 T00780078=
201802070853 METAR KBLI 070853Z AUTO 16007KT 9SM FEW007 SCT011 OVC018 08/08 A3034 RMK AO2 RAE36 SLP281 P0002 60007 T00780078 58002=
201802070824 SPECI KBLI 070824Z AUTO 16007KT 3SM -RA BR SCT008 OVC011 08/07 A3034 RMK AO2 P0002 T00780072=
201802070753 METAR KBLI 070753Z AUTO 16003KT 4SM -RA BR OVC010 08/08 A3035 RMK AO2 CIG 008V013 SLP285 P0003 T00780078 400830067=
201802070703 SPECI KBLI 070703Z AUTO 18004KT 10SM -RA BKN011 BKN025 OVC030 08/08 A3034 RMK AO2 P0000 T00780078=
201802070653 METAR KBLI 070653Z AUTO 17006KT 10SM -RA SCT010 BKN025 OVC031 08/07 A3034 RMK AO2 SLP282 P0002 T00780072=
201802070631 SPECI KBLI 070631Z AUTO 16009KT 10SM -RA FEW008 BKN025 OVC030 08/07 A3034 RMK AO2 P0001 T00780072=
201802070553 METAR KBLI 070553Z 16010KT 10SM -RA OVC025 08/07 A3035 RMK AO2 RAB39 SLP284 P0001 60004 T00780072 10078 20078 52004=
201802070453 METAR KBLI 070453Z 17008KT 10SM SCT019 BKN028 OVC040 08/07 A3033 RMK AO2 RAE30 SLP280 P0000 T00780072=
201802070353 METAR KBLI 070353Z 17010KT 5SM -RA BR FEW007 BKN012 OVC017 08/07 A3035 RMK AO2 RAB0258 SLP284 P0003 T00780072=
201802070253 METAR KBLI 070253Z 16009KT 8SM BKN012 BKN017 OVC026 08/07 A3033 RMK AO2 RAB19E33 SLP280 P0000 60000 T00780072 53006=
201802070153 METAR KBLI 070153Z 16009KT 10SM BKN010 OVC014 08/07 A3032 RMK AO2 CIG 006V013 SLP277 T00780072=
201802070053 METAR KBLI 070053Z 16009KT 3SM BR BKN004 OVC029 08/07 A3031 RMK AO2 RAE13 SLP273 P0000 T00780072=
201802070010 SPECI KBLI 070010Z 16009KT 2SM -RA BR SCT006 BKN014 OVC029 08/07 A3031 RMK AO2 P0000 T00780072=
201802062353 METAR KBLI 062353Z 17008KT 5SM -RA BR FEW005 BKN014 OVC029 08/07 A3032 RMK AO2 SLP274 P0001 60003 T00780072 10083 20078 56005=
201802062253 METAR KBLI 062253Z 18009KT 9SM -RA BKN016 BKN034 OVC041 08/07 A3032 RMK AO2 SLP274 P0001 T00780072=
201802062153 METAR KBLI 062153Z 17007KT 10SM -RA FEW004 BKN016 OVC034 08/07 A3032 RMK AO2 RAB2054 SLP274 P0001 T00780072=
201802062150 SPECI KBLI 062150Z 18006KT 10SM -RA FEW004 BKN034 OVC070 08/08 A3032 RMK AO2 RAB2054 P0001=
201802062053 METAR KBLI 062053Z 17010KT 10SM BKN013 OVC018 08/07 A3033 RMK AO2 RAB07E34 SLP279 P0000 60000 T00780072 50007=
201802061953 METAR KBLI 061953Z 17009KT 10SM BKN013 OVC018 08/07 A3034 RMK AO2 RAB1857E44 SLP282 P0000 T00830067=
201802061933 SPECI KBLI 061933Z 17009KT 10SM -RA BKN011 OVC018 08/07 A3033 RMK AO2 RAB1857 P0000 T00780067=
201802061925 SPECI KBLI 061925Z 16009KT 10SM -RA SCT011 OVC016 08/07 A3034 RMK AO2 RAB1857 P0000 T00780067=
201802061914 SPECI KBLI 061914Z 16008KT 10SM -RA BKN009 BKN014 OVC024 08/07 A3033 RMK AO2 RAB1857 CIG 009V012 P0000 T00780067=
201802061853 METAR KBLI 061853Z 16007KT 10SM BKN012 BKN017 OVC065 08/07 A3033 RMK AO2 SLP277 T00780067=
201802061753 METAR KBLI 061753Z 16008KT 10SM BKN012 OVC018 08/06 A3031 RMK AO2 SLP272 T00780061 10078 20072 51015=
201802061653 METAR KBLI 061653Z 16007KT 10SM BKN028 BKN040 08/07 A3030 RMK AO2 SLP268 T00780067=
201802061553 METAR KBLI 061553Z 17005KT 10SM BKN030 OVC039 07/06 A3028 RMK AO2 SLP263 T00720061=
201802061453 METAR KBLI 061453Z 17003KT 10SM BKN035 OVC043 07/07 A3027 RMK AO2 SLP257 T00720067 51012=
201802061353 METAR KBLI 061353Z AUTO 18003KT 10SM BKN032 OVC044 07/07 A3025 RMK AO2 SLP253 T00720067=
201802061332 SPECI KBLI 061332Z AUTO 19003KT 10SM BKN030 OVC040 07/07 A3024 RMK AO2 T00720067=
201802061302 SPECI KBLI 061302Z AUTO 18004KT 10SM BKN029 OVC042 07/07 A3024 RMK AO2 T00720067=
201802061253 METAR KBLI 061253Z AUTO 17004KT 10SM SCT027 BKN033 OVC042 07/07 A3024 RMK AO2 SLP249 T00720067=
201802061153 METAR KBLI 061153Z AUTO 17005KT 10SM BKN032 OVC047 07/07 A3023 RMK AO2 SLP245 70002 T00720067 10078 20067 51007=
201802061120 SPECI KBLI 061120Z AUTO 18005KT 10SM SCT025 BKN050 OVC060 07/07 A3023 RMK AO2 T00720067=
201802061053 METAR KBLI 061053Z AUTO 18005KT 10SM BKN026 OVC040 07/07 A3023 RMK AO2 SLP244 T00720067=
201802060953 METAR KBLI 060953Z AUTO 19005KT 10SM FEW029 SCT043 OVC055 07/07 A3022 RMK AO2 SLP240 T00720067=
201802060853 METAR KBLI 060853Z AUTO 00000KT 10SM OVC055 07/07 A3021 RMK AO2 SLP238 T00720072 53011=
201802060753 METAR KBLI 060753Z AUTO 19003KT 10SM OVC065 08/07 A3020 RMK AO2 SLP235 T00780072 400890072=
201802060653 METAR KBLI 060653Z AUTO 19004KT 10SM OVC065 08/07 A3018 RMK AO2 SLP229 T00780072=
201802060553 METAR KBLI 060553Z 19003KT 10SM FEW046 SCT055 OVC080 07/07 A3018 RMK AO2 SLP227 60000 T00720072 10083 20072 53010=
201802060453 METAR KBLI 060453Z 16003KT 10SM SCT031 BKN050 OVC065 08/07 A3016 RMK AO2 RAB13E50 SLP223 P0000 T00780072=
201802060353 METAR KBLI 060353Z 16004KT 7SM BKN034 OVC041 08/07 A3016 RMK AO2 RAB16E46 SLP220 P0000 T00780072=
201802060253 METAR KBLI 060253Z 16003KT 10SM OVC046 08/07 A3015 RMK AO2 RAB0159E11 SLP217 P0000 60000 T00830067 53005=
201802060153 METAR KBLI 060153Z 00000KT 10SM OVC019 08/07 A3014 RMK AO2 SLP214 T00830072=
201802060116 SPECI KBLI 060116Z 00000KT 10SM FEW005 OVC021 08/07 A3014 RMK AO2 T00830072=
201802060053 METAR KBLI 060053Z 17004KT 10SM FEW005 OVC030 08/07 A3013 RMK AO2 SLP212 T00830067=
201802052353 METAR KBLI 052353Z 16007KT 10SM FEW005 SCT032 OVC044 08/07 A3013 RMK AO2 SLP212 60001 T00830072 10089 20083 53003=
201802052253 METAR KBLI 052253Z 17007KT 10SM FEW025 OVC039 08/07 A3013 RMK AO2 SLP210 T00830072=
201802052153 METAR KBLI 052153Z 16010KT 10SM SCT027 OVC034 08/07 A3012 RMK AO2 RAE18 SLP208 P0000 T00830072=
201802052053 METAR KBLI 052053Z 17009KT 10SM -RA FEW021 OVC034 08/07 A3012 RMK AO2 SLP209 P0001 60001 T00830072 58001=
201802051953 METAR KBLI 051953Z 16009KT 10SM -RA FEW024 OVC032 08/07 A3013 RMK AO2 RAB02 SLP211 P0000 T00830072=
201802051853 METAR KBLI 051853Z 16008KT 10SM SCT030 BKN043 OVC050 09/07 A3013 RMK AO2 SLP211 T00890067=
201802051801 SPECI KBLI 051801Z 16008KT 10SM SCT028 OVC055 08/07 A3012 RMK AO2 T00830072=
201802051753 METAR KBLI 051753Z 16007KT 10SM BKN028 OVC055 08/07 A3013 RMK AO2 SLP210 60001 T00830072 10089 20078 53003=
201802051701 SPECI KBLI 051701Z 17008KT 10SM SCT024 BKN040 BKN070 08/07 A3012 RMK AO2 T00780072=
201802051653 METAR KBLI 051653Z 17007KT 10SM OVC024 08/07 A3012 RMK AO2 RAE1559 SLP207 P0000 T00780072=
201802051553 METAR KBLI 051553Z 16007KT 10SM -RA FEW031 BKN070 OVC090 08/07 A3012 RMK AO2 SLP206 P0000 T00780072=
201802051550 SPECI KBLI 051550Z 16006KT 10SM -RA BKN026 BKN060 OVC070 08/07 A3012 RMK AO2 P0000=
201802051529 SPECI KBLI 051529Z 17006KT 10SM -RA SCT026 BKN065 OVC080 08/07 A3012 RMK AO2 P0000 T00780072=
201802051453 METAR KBLI 051453Z 17005KT 10SM -RA OVC026 08/07 A3012 RMK AO2 RAB02 SLP207 P0001 60001 T00780072 52005=
201802051353 METAR KBLI 051353Z AUTO 17004KT 10SM OVC026 08/07 A3011 RMK AO2 RAB19E30 SLP205 P0000 T00830067=
201802051319 SPECI KBLI 051319Z AUTO 17007KT 10SM -RA BKN029 BKN060 OVC100 08/07 A3011 RMK AO2 RAB19 P0000 T00830067=
201802051253 METAR KBLI 051253Z AUTO 17007KT 10SM FEW060 FEW085 OVC110 08/07 A3011 RMK AO2 SLP203 T00830067=
201802051153 METAR KBLI 051153Z AUTO 17006KT 10SM BKN032 OVC100 09/06 A3010 RMK AO2 RAB36E47 SLP201 P0000 60000 70055 T00890061 10089 20083 53001=
201802051053 METAR KBLI 051053Z AUTO 17008KT 10SM OVC034 08/07 A3010 RMK AO2 SLP199 T00830067=
201802050953 METAR KBLI 050953Z AUTO 16008KT 10SM OVC055 08/07 A3010 RMK AO2 SLP199 T00830067=
201802050853 METAR KBLI 050853Z AUTO 16003KT 10SM SCT050 OVC070 09/06 A3010 RMK AO2 SLP200 T00890061 51014=
201802050753 METAR KBLI 050753Z AUTO 17006KT 10SM BKN055 OVC075 09/06 A3009 RMK AO2 SLP198 T00890061 401170089=
201802050653 METAR KBLI 050653Z AUTO 17008KT 10SM OVC080 09/06 A3007 RMK AO2 SLP191 T00890061=
201802050553 METAR KBLI 050553Z 18009G16KT 160V230 10SM FEW055 BKN095 09/06 A3006 RMK AO2 SLP186 T00890061 10117 20089 51010=
201802050453 METAR KBLI 050453Z 16010KT 10SM OVC055 09/06 A3006 RMK AO2 SLP186 T00940061=
201802050353 METAR KBLI 050353Z 17009G19KT 10SM SCT040 OVC060 10/07 A3003 RMK AO2 SLP178 T01000067=
201802050253 METAR KBLI 050253Z 17010G20KT 10SM BKN043 BKN065 10/07 A3003 RMK AO2 SLP176 T01000072 53010=
201802050153 METAR KBLI 050153Z 16009KT 10SM CLR 10/07 A3002 RMK AO2 SLP172 T01000072=
201802050053 METAR KBLI 050053Z 18008KT 10SM FEW036 11/07 A3000 RMK AO2 SLP166 T01110072=
201802042353 METAR KBLI 042353Z 17008KT 10SM CLR 12/07 A3000 RMK AO2 SLP166 60009 T01170072 10117 20100 56010=
201802042253 METAR KBLI 042253Z 16010G17KT 10SM CLR 11/08 A3000 RMK AO2 SLP167 T01110083=
201802042153 METAR KBLI 042153Z 17007KT 10SM FEW037 SCT050 OVC065 11/09 A3001 RMK AO2 SLP170 T01110089=
201802042142 SPECI KBLI 042142Z 17010G15KT 10SM FEW029 BKN039 OVC060 11/09 A3002 RMK AO2 T01060089=
201802042053 METAR KBLI 042053Z 16010G17KT 10SM SCT018 BKN026 OVC055 11/09 A3003 RMK AO2 SLP176 60009 T01110089 56010=
201802042028 SPECI KBLI 042028Z 17010G18KT 10SM FEW016 BKN021 OVC060 11/09 A3003 RMK AO2 T01110089=
201802041953 METAR KBLI 041953Z 17009G17KT 10SM SCT016 BKN045 OVC070 11/09 A3004 RMK AO2 RAE33 SLP180 P0002 T01060094=
201802041853 METAR KBLI 041853Z 16014G25KT 5SM -RA BR BKN016 BKN035 OVC070 11/09 A3006 RMK AO2 SLP186 P0007 T01060094=
201802041753 METAR KBLI 041753Z 16012KT 8SM -RA BKN015 BKN033 OVC045 11/09 A3005 RMK AO2 RAE05B37 SLP183 P0001 60046 T01060094 10106 20089 50000=
201802041653 METAR KBLI 041653Z 17014G21KT 10SM -RA OVC013 10/09 A3006 RMK AO2 SLP186 P0008 T01000089=
201802041553 METAR KBLI 041553Z 16013G22KT 6SM RA BR OVC015 10/09 A3005 RMK AO2 RAB13 SLP183 P0006 T01000089=
201802041453 METAR KBLI 041453Z 17015G21KT 10SM OVC018 09/09 A3005 RMK AO2 RAE49 SLP183 P0005 60031 T00940089 58019=
201802041353 METAR KBLI 041353Z AUTO 17011KT 7SM RA OVC022 09/08 A3007 RMK AO2 SLP192 P0013 T00940083=
201802041253 METAR KBLI 041253Z AUTO 16010KT 5SM RA BR OVC020 09/08 A3009 RMK AO2 SLP197 P0013 T00890083=
201802041153 METAR KBLI 041153Z AUTO 17010KT 7SM -RA OVC019 09/08 A3010 RMK AO2 SLP202 P0004 60041 70068 T00890083 10094 20089 56020=
201802041053 METAR KBLI 041053Z AUTO 17011KT 10SM -RA SCT023 BKN029 OVC043 09/08 A3012 RMK AO2 SLP207 P0004 T00890083=
201802040953 METAR KBLI 040953Z AUTO 17011G21KT 8SM -RA OVC029 09/08 A3013 RMK AO2 SLP210 P0008 T00890083=
201802040925 SPECI KBLI 040925Z AUTO 17012G18KT 6SM RA BR SCT003 OVC022 09/09 A3014 RMK AO2 P0006 T00890089=
201802040900 SPECI KBLI 040900Z AUTO 17010KT 6SM -RA BR BKN004 OVC022 09/09 A3015 RMK AO2 P0001 T00890089=
201802040853 METAR KBLI 040853Z AUTO 19006KT 4SM RA BR SCT004 OVC022 09/09 A3016 RMK AO2 SLP222 P0012 60025 T00890089 55006=
201802040821 SPECI KBLI 040821Z AUTO 18008KT 5SM RA BR SCT005 OVC024 09/09 A3015 RMK AO2 P0005 T00890089=
201802040812 SPECI KBLI 040812Z AUTO 17009G14KT 6SM -RA BR BKN005 OVC023 09/09 A3016 RMK AO2 P0002 T00890089=
201802040753 METAR KBLI 040753Z AUTO 17009KT 6SM -RA BR BKN003 BKN010 OVC022 09/09 A3015 RMK AO2 SLP219 P0011 T00890089 400940083=
201802040743 SPECI KBLI 040743Z AUTO 17008KT 3SM +RA BR BKN003 BKN010 OVC022 09/09 A3016 RMK AO2 P0009 T00890089=
201802040724 SPECI KBLI 040724Z AUTO 17009KT 5SM RA BR FEW005 BKN011 OVC026 09/09 A3017 RMK AO2 P0003 T00890089=
201802040653 METAR KBLI 040653Z AUTO 17008KT 10SM -RA SCT005 OVC023 09/08 A3017 RMK AO2 SLP224 P0002 T00890083=
201802040641 SPECI KBLI 040641Z AUTO 17008KT 10SM -RA BKN005 OVC022 09/09 A3018 RMK AO2 P0001 T00890089=
201802040623 SPECI KBLI 040623Z 17008KT 3SM -RA BR BKN004 BKN016 OVC024 09/09 A3018 RMK AO2 P0001 T00890089=
201802040614 SPECI KBLI 040614Z 17007KT 3SM -RA BR SCT004 BKN016 OVC024 09/09 A3018 RMK AO2 P0001 T00890089=
201802040553 METAR KBLI 040553Z 17007KT 3SM -RA BR BKN003 OVC027 09/09 A3018 RMK AO2 SLP228 P0002 60025 T00890089 10094 20089 58009=
201802040453 METAR KBLI 040453Z 16007KT 2SM -RA BR OVC002 09/09 A3019 RMK AO2 SLP232 P0006 T00890089=
201802040353 METAR KBLI 040353Z 17007KT 4SM RA BR OVC003 09/09 A3021 RMK AO2 SLP237 P0007 T00890089=
201802040307 SPECI KBLI 040307Z 16008KT 6SM -RA BR OVC004 09/09 A3020 RMK AO2 P0001 T00890089=
201802040253 METAR KBLI 040253Z 17009KT 6SM -RA BR OVC005 09/09 A3021 RMK AO2 SLP238 P0004 60010 T00890089 56012=
201802040241 SPECI KBLI 040241Z 16007KT 6SM -RA BR OVC004 09/09 A3021 RMK AO2 P0003 T00890089=
201802040200 SPECI KBLI 040200Z 16007KT 6SM -RA BR OVC007 09/09 A3022 RMK AO2 P0000 T00890089=
201802040153 METAR KBLI 040153Z 17008KT 6SM -RA BR SCT007 OVC028 09/09 A3022 RMK AO2 SLP241 P0005 T00890089=
201802040053 METAR KBLI 040053Z 16008KT 10SM -RA SCT007 BKN028 OVC034 09/09 A3023 RMK AO2 SLP245 P0001 T00940089=
201802040041 SPECI KBLI 040041Z 16008KT 10SM -RA SCT007 BKN028 OVC034 09/09 A3023 RMK AO2 P0001 T00890089=
201802032353 METAR KBLI 032353Z 17008KT 10SM -RA SCT034 SCT050 OVC075 09/09 A3024 RMK AO2 SLP250 P0001 60001 T00940089 10094 20089 58010=
201802032253 METAR KBLI 032253Z 16008KT 10SM -RA SCT007 OVC017 09/09 A3026 RMK AO2 RAB50 SLP254 P0000 T00940089=
201802032153 METAR KBLI 032153Z 17011KT 10SM SCT007 OVC017 09/09 A3027 RMK AO2 SLP257 T00940089=
201802032103 SPECI KBLI 032103Z 18009KT 10SM FEW008 BKN017 OVC030 09/08 A3027 RMK AO2 T00940083=
201802032053 METAR KBLI 032053Z 17009KT 10SM BKN017 OVC031 09/08 A3028 RMK AO2 SLP260 T00940083 58002=
201802031953 METAR KBLI 031953Z 17008KT 10SM BKN017 OVC031 09/08 A3028 RMK AO2 SLP262 T00940083=
201802031900 SPECI KBLI 031900Z 16010G17KT 10SM OVC015 09/09 A3029 RMK AO2 T00890089=
201802031853 METAR KBLI 031853Z 16011KT 10SM OVC006 09/09 A3029 RMK AO2 SLP265 T00890089=
201802031753 METAR KBLI 031753Z 17011KT 10SM OVC006 09/08 A3028 RMK AO2 SLP263 60001 T00890083 10089 20083 53020=
201802031708 SPECI KBLI 031708Z 16012G17KT 7SM BKN008 OVC013 09/08 A3026 RMK AO2 T00890083=
201802031653 METAR KBLI 031653Z 17012G17KT 9SM FEW007 OVC013 09/08 A3026 RMK AO2 SLP254 T00890083=
201802031650 SPECI KBLI 031650Z 17010G17KT 10SM FEW007 OVC013 09/08 A3026 RMK AO2=
201802031553 METAR KBLI 031553Z 16010KT 10SM OVC016 09/08 A3023 RMK AO2 SLP245 T00890083=
201802031453 METAR KBLI 031453Z 17012G18KT 10SM FEW005 SCT016 OVC050 08/08 A3022 RMK AO2 SLP243 60001 T00830083 55001=
201802031400 SPECI KBLI 031400Z AUTO 17010KT 10SM FEW006 BKN017 OVC055 08/08 A3022 RMK AO2 T00830083=
201802031353 METAR KBLI 031353Z AUTO 17011G18KT 10SM SCT017 SCT026 OVC055 08/08 A3022 RMK AO2 RAE04 SLP240 P0000 T00830083=
201802031324 SPECI KBLI 031324Z AUTO 16008KT 10SM SCT003 BKN018 OVC055 08/08 A3022 RMK AO2 RAE04 P0000 T00830083=
201802031253 METAR KBLI 031253Z AUTO 16011KT 6SM -RA BR BKN002 OVC018 08/08 A3023 RMK AO2 SLP243 P0001 T00830083=
201802031153 METAR KBLI 031153Z AUTO 16012KT 4SM -RA BR BKN004 BKN023 OVC031 08/08 A3021 RMK AO2 RAB39 SLP239 P0001 60027 70052 T00830083 10089 20083 53002=
201802031053 METAR KBLI 031053Z AUTO 16011G20KT 10SM OVC003 08/08 A3021 RMK AO2 RAE03 SLP236 P0000 T00830083=
201802031036 SPECI KBLI 031036Z AUTO 16010KT 10SM BKN004 OVC022 08/08 A3021 RMK AO2 RAE03 P0000 T00830083=
201802031008 SPECI KBLI 031008Z AUTO 16009KT 9SM BKN005 OVC024 08/08 A3020 RMK AO2 RAE03 CIG 002V008 P0000 T00830083=
201802030953 METAR KBLI 030953Z AUTO 16011KT 6SM -RA BR BKN003 BKN007 OVC037 08/08 A3020 RMK AO2 SLP234 P0005 T00830083=
201802030853 METAR KBLI 030853Z AUTO 17008KT 3SM -RA BR BKN003 OVC008 08/08 A3021 RMK AO2 SLP237 P0009 60021 T00830083 50007=
201802030810 SPECI KBLI 030810Z AUTO 17006KT 3SM RA BR OVC003 08/08 A3023 RMK AO2 P0002 T00830083=
201802030753 METAR KBLI 030753Z AUTO 17007KT 4SM RA BR OVC005 08/08 A3022 RMK AO2 CIG 003V009 SLP240 P0007 T00830083 401110044=
201802030653 METAR KBLI 030653Z AUTO 17008KT 7SM -RA BKN006 BKN024 OVC037 08/08 A3021 RMK AO2 SLP240 P0005 T00830083=
201802030643 SPECI KBLI 030643Z AUTO 17008KT 7SM -RA FEW007 SCT024 OVC038 08/08 A3022 RMK AO2 P0003 T00830083=
201802030553 METAR KBLI 030553Z 16014G19KT 5SM -RA BR FEW036 OVC048 08/08 A3019 RMK AO2 RAB02 SLP230 P0006 60006 T00830078 10106 20083 58005=
201802030453 METAR KBLI 030453Z 17008KT 10SM OVC044 09/07 A3020 RMK AO2 SLP236 T00940067=
201802030353 METAR KBLI 030353Z 17009KT 10SM OVC048 09/07 A3019 RMK AO2 SLP232 T00940072=
201802030253 METAR KBLI 030253Z 16010KT 10SM OVC048 09/07 A3020 RMK AO2 SLP235 T00940072 51017=
201802030153 METAR KBLI 030153Z 16008KT 10SM OVC055 09/07 A3020 RMK AO2 SLP234 T00940072=
201802030053 METAR KBLI 030053Z 17008G15KT 10SM OVC050 10/07 A3017 RMK AO2 SLP223 T01000072=
201802022353 METAR KBLI 022353Z 17010G16KT 10SM BKN043 OVC050 11/08 A3015 RMK AO2 SLP218 60000 T01060078 10111 20094 53009=
201802022253 METAR KBLI 022253Z 17013G19KT 10SM OVC050 11/08 A3013 RMK AO2 SLP210 T01110078=
201802022153 METAR KBLI 022153Z 16009KT 10SM FEW043 OVC075 11/08 A3013 RMK AO2 SLP210 T01060083=
201802022053 METAR KBLI 022053Z 17011G17KT 10SM BKN044 OVC090 10/09 A3012 RMK AO2 SLP208 60000 T01000089 51024=
201802021953 METAR KBLI 021953Z 16012KT 10SM FEW016 SCT022 OVC041 10/09 A3011 RMK AO2 SLP203 T01000094=
201802021853 METAR KBLI 021853Z 17011G17KT 10SM OVC021 09/09 A3010 RMK AO2 RAE1758 SLP200 P0000 T00940094=
201802021753 METAR KBLI 021753Z 18012G20KT 10SM -RA FEW021 SCT031 BKN043 09/09 A3005 RMK AO2 PK WND 15026/1708 SLP185 P0004 60019 T00940089 10094 20044 56004=
201802021707 SPECI KBLI 021707Z 17015G23KT 8SM -RA BKN018 BKN041 OVC055 09/09 A3006 RMK AO2 P0002 T00940089=
201802021700 SPECI KBLI 021700Z 17013G23KT 5SM RA BR FEW018 BKN041 OVC055 09/09 A3006 RMK AO2 P0001 T00940089=
201802021653 METAR KBLI 021653Z 17013G22KT 5SM RA BR BKN017 BKN038 OVC047 09/09 A3006 RMK AO2 PK WND 16026/1629 SLP187 P0008 T00940089=
201802021553 METAR KBLI 021553Z 16015G27KT 6SM RA BR OVC017 09/08 A3005 RMK AO2 PK WND 16027/1548 RAB32 SLP182 P0003 T00890083=
201802021453 METAR KBLI 021453Z 00000KT 4SM BR FEW001 OVC016 05/05 A3007 RMK AO2 SLP190 60004 T00500050 58023=
201802021439 SPECI KBLI 021439Z AUTO 00000KT 4SM BR FEW001 SCT008 OVC018 05/05 A3008 RMK AO2 T00500050=
201802021404 SPECI KBLI 021404Z AUTO 00000KT 3SM BR OVC003 05/05 A3011 RMK AO2 CIG 001V007 T00500050=
201802021353 METAR KBLI 021353Z AUTO 00000KT 2 1/2SM BR OVC003 05/05 A3011 RMK AO2 RAE33B44E51 CIG 001V005 SLP204 P0002 T00500050=
201802021349 SPECI KBLI 021349Z AUTO 00000KT 2 1/2SM -RA BR OVC003 05/05 A3011 RMK AO2 RAE33B44 CIG 001V005 P0002=
201802021336 SPECI KBLI 021336Z AUTO 01003KT 3SM BR OVC003 05/05 A3013 RMK AO2 RAE33 P0001 T00500050=
201802021253 METAR KBLI 021253Z AUTO 35003KT 2 1/2SM -RA BR OVC002 04/04 A3013 RMK AO2 RAE20B37 SLP213 P0002 T00440044=
201802021230 SPECI KBLI 021230Z AUTO 34003KT 2 1/2SM BR OVC002 04/04 A3014 RMK AO2 RAE20 P0001 T00440044=
201802021218 SPECI KBLI 021218Z AUTO 00000KT 3SM -RA BR OVC002 04/04 A3015 RMK AO2 P0001 T00440044=
201802021153 METAR KBLI 021153Z AUTO 04004KT 2 1/2SM -RA BR BKN003 OVC007 04/04 A3015 RMK AO2 RAE1055B30 CIG 002V005 SLP220 P0002 60006 70039 T00440044 10050 20044 58001=
201802021135 SPECI KBLI 021135Z AUTO 36004KT 2 1/2SM -RA BR OVC004 04/04 A3017 RMK AO2 RAE1055B30 CIG 002V007 P0001 T00440044=
201802021122 SPECI KBLI 021122Z AUTO 34004KT 2 1/2SM BR OVC005 04/04 A3017 RMK AO2 RAE1055 CIG 002V007 P0001 T00440044=
201802021053 METAR KBLI 021053Z AUTO 03004KT 2 1/2SM -RA BR OVC004 04/04 A3017 RMK AO2 RAE14B17 CIG 002V007 SLP223 P0002 T00440044=
201802021033 SPECI KBLI 021033Z AUTO 03003KT 2 1/2SM -RA BR OVC003 04/04 A3017 RMK AO2 RAE14B17 CIG 002V006 P0001 T00440044=
201802021023 SPECI KBLI 021023Z AUTO 36005KT 2 1/2SM -RA BR OVC005 04/04 A3017 RMK AO2 RAE14B17 CIG 002V006 P0001 T00440044=
201802021016 SPECI KBLI 021016Z AUTO 01005KT 3SM BR OVC005 04/04 A3017 RMK AO2 RAE14 CIG 002V009 P0001 T00440044=
201802020953 METAR KBLI 020953Z AUTO 36006KT 2 1/2SM -RA BR OVC009 04/04 A3016 RMK AO2 RAB28 SLP221 P0001 T00440044=
201802020940 SPECI KBLI 020940Z AUTO 34005KT 3SM -RA BR BKN009 OVC016 04/04 A3016 RMK AO2 RAB28 CIG 007V013 P0001 T00440044=
201802020929 SPECI KBLI 020929Z AUTO 34004KT 6SM -RA BR BKN011 OVC018 04/04 A3015 RMK AO2 RAB28 P0000 T00440044=
201802020853 METAR KBLI 020853Z AUTO 34003KT 6SM BR OVC015 05/05 A3013 RMK AO2 SLP211 60001 T00500050 51005=
201802020841 SPECI KBLI 020841Z AUTO 02004KT 5SM BR OVC015 05/05 A3012 RMK AO2 T00500050=
201802020753 METAR KBLI 020753Z AUTO 36004KT 6SM BR FEW003 OVC014 04/04 A3013 RMK AO2 SLP212 T00440044 400720044=
201802020744 SPECI KBLI 020744Z AUTO 35003KT 6SM BR OVC014 04/04 A3013 RMK AO2 T00440044=
201802020732 SPECI KBLI 020732Z AUTO 36004KT 6SM BR OVC015 04/04 A3013 RMK AO2 T00440044=
201802020722 SPECI KBLI 020722Z AUTO 35005KT 6SM BR OVC014 04/04 A3012 RMK AO2 T00440044=
201802020653 METAR KBLI 020653Z AUTO 35003KT 6SM BR BKN015 OVC023 05/05 A3011 RMK AO2 RAE30 SLP206 P0001 T00500050=
201802020553 METAR KBLI 020553Z 35004KT 8SM -RA OVC022 05/05 A3011 RMK AO2 SLP204 P0003 60016 T00500050 10061 20050 53006=
201802020453 METAR KBLI 020453Z 04004KT 10SM -RA OVC022 05/04 A3009 RMK AO2 SLP198 P0003 T00500044=
201802020353 METAR KBLI 020353Z 02004KT 10SM -RA OVC028 05/05 A3009 RMK AO2 SLP199 P0002 T00500050=
201802020253 METAR KBLI 020253Z 03007KT 7SM -RA SCT030 OVC038 05/05 A3009 RMK AO2 SLP198 P0002 60008 T00500050 56015=
201802020153 METAR KBLI 020153Z 02006KT 6SM -RA BR FEW005 OVC023 05/05 A3010 RMK AO2 SLP202 P0004 T00500050=
201802020053 METAR KBLI 020053Z 02004KT 5SM -RA BR OVC022 06/06 A3012 RMK AO2 SLP206 P0002 T00560056=
201802012353 METAR KBLI 012353Z 03004KT 5SM -RA BR OVC022 06/06 A3013 RMK AO2 SLP211 P0004 60014 T00610056 10072 20061 56020=
201802012253 METAR KBLI 012253Z 11007KT 10SM -RA OVC018 07/05 A3014 RMK AO2 SLP215 P0003 T00720050=
201802012153 METAR KBLI 012153Z 13006KT 10SM -RA OVC017 07/05 A3017 RMK AO2 SLP223 P0003 T00720050=
201802012053 METAR KBLI 012053Z 12004KT 10SM -RA OVC016 07/06 A3019 RMK AO2 SLP231 P0001 60004 T00720056 58008=
201802011953 METAR KBLI 011953Z 15003KT 10SM -RA OVC016 07/06 A3021 RMK AO2 SLP236 P0001 T00720056=
201802011853 METAR KBLI 011853Z 12005KT 10SM -RA OVC017 07/06 A3021 RMK AO2 SLP239 P0002 T00670056=
201802011753 METAR KBLI 011753Z 12003KT 9SM -RA OVC015 06/05 A3021 RMK AO2 SLP239 P0002 60003 T00610050 10067 20050 53008=
201802011653 METAR KBLI 011653Z 14005KT 10SM -RA BKN018 OVC025 06/05 A3020 RMK AO2 RAB20 SLP236 P0001 T00610050=
201802011553 METAR KBLI 011553Z 13006KT 10SM BKN020 OVC024 06/04 A3019 RMK AO2 RAB1456E18 SLP231 P0000 T00610044=
201802011453 METAR KBLI 011453Z 00000KT 9SM OVC017 05/04 A3019 RMK AO2 RAE25 SLP233 P0000 60000 T00500044 53003=
201802011353 METAR KBLI 011353Z AUTO 13003KT 10SM -RA BKN026 OVC032 06/04 A3018 RMK AO2 RAB53 SLP230 P0000 T00610039=
201802011348 SPECI KBLI 011348Z AUTO 16004KT 10SM BKN028 OVC032 06/04 A3018 RMK AO2=
201802011316 SPECI KBLI 011316Z AUTO 14008KT 10SM FEW017 FEW025 OVC032 06/04 A3018 RMK AO2 T00610039=
201802011253 METAR KBLI 011253Z AUTO 14008KT 10SM SCT017 OVC027 06/04 A3018 RMK AO2 SLP229 T00610039=
201802011153 METAR KBLI 011153Z AUTO 15008KT 10SM BKN018 OVC029 06/04 A3017 RMK AO2 RAB1057E26 SLP226 P0001 60001 70013 T00610039 10067 20056 55000=
201802011053 METAR KBLI 011053Z AUTO 14007KT 10SM BKN018 OVC032 06/04 A3018 RMK AO2 RAE31 SLP227 P0000 T00560039=
201802010953 METAR KBLI 010953Z AUTO 13009KT 10SM -RA BKN016 OVC032 06/04 A3017 RMK AO2 RAB22E34B52 SLP226 P0000 T00610039=
201802010944 SPECI KBLI 010944Z AUTO 14008KT 10SM BKN017 OVC032 06/04 A3017 RMK AO2 RAB22E34 P0000 T00610039=
201802010934 SPECI KBLI 010934Z AUTO 14009KT 10SM SCT017 OVC032 06/04 A3017 RMK AO2 RAB22E34 P0000 T00610039=
201802010906 SPECI KBLI 010906Z AUTO 14010KT 10SM BKN017 OVC035 06/04 A3018 RMK AO2 T00610039=
201802010853 METAR KBLI 010853Z AUTO 15011KT 10SM SCT015 OVC035 06/04 A3017 RMK AO2 RAE04 SLP226 P0000 60000 T00610039 52007=
201802010753 METAR KBLI 010753Z AUTO 16013G20KT 10SM -RA FEW025 OVC035 07/04 A3017 RMK AO2 RAB46 SLP224 P0000 T00670039 400670039=
201802010653 METAR KBLI 010653Z AUTO 16013KT 10SM OVC035 07/04 A3016 RMK AO2 SLP221 T00670039=
201802010632 SPECI KBLI 010632Z AUTO 16013G22KT 10SM OVC035 07/04 A3016 RMK AO2 T00670039=
201802010553 METAR KBLI 010553Z 17014G23KT 10SM BKN025 OVC035 07/04 A3015 RMK AO2 RAE0455B17E32 SLP219 P0001 60007 T00670039 10067 20056 53004=
201802010453 METAR KBLI 010453Z 16012KT 10SM -RA BKN025 OVC040 07/04 A3014 RMK AO2 SLP215 P0000 T00670039=
201802010353 METAR KBLI 010353Z 15010KT 7SM -RA BKN021 OVC042 07/04 A3014 RMK AO2 RAE05B45 SLP215 P0000 T00670039=
201802010253 METAR KBLI 010253Z 14009KT 7SM -RA BKN024 OVC034 06/04 A3014 RMK AO2 SLP216 P0000 60006 T00560039 56009=
201802010153 METAR KBLI 010153Z 12011KT 7SM -RA BKN023 OVC034 06/03 A3015 RMK AO2 SLP218 P0004 T00560033=
201802010053 METAR KBLI 010053Z 13009KT 7SM -RA BKN023 OVC036 06/04 A3015 RMK AO2 SLP220 P0002 T00560039=
201802010002 SPECI KBLI 010002Z 12006KT 10SM -RA OVC031 06/04 A3016 RMK AO2 P0000 T00560039=

# No short TAF reports from KBLI in databse.

###################################
#  large TAF from KBLI
###################################
201802282320 TAF KBLI 282320Z 0100/0124 14017G30KT P6SM -RA OVC040
                      TEMPO 0102/0105 5SM -RA BR OVC030 FM010500
                       17017G27KT 5SM -RA BR OVC025 FM010900 21012G20KT
                       P6SM -SHRA BKN020 OVC040 FM011600 18012KT
                       P6SM VCSH BKN025 BKN050 FM012100 16008KT
                       P6SM SCT025 BKN050=
201802281720 TAF KBLI 281720Z 2818/0118 14012G20KT P6SM VCSH SCT025 OVC060 FM282100
                       13020G30KT P6SM -RA BKN025 OVC040 FM010900
                       16015G25KT P6SM -SHRA BKN020 OVC035=
201802281140 TAF KBLI 281140Z 2812/0112 15012G20KT P6SM VCSH BKN045 BKN070 FM281900
                       14018G28KT P6SM BKN035 OVC050 FM282100 13020G30KT
                       P6SM -RA BKN025 OVC040 FM010900 16015G25KT
                       P6SM -SHRA BKN020 OVC035=
201802280520 TAF KBLI 280520Z 2806/0106 17006KT P6SM OVC060 FM281200 15008KT
                       P6SM -RA OVC050 FM281600 14013G19KT P6SM
                       -RA OVC025 FM282000 13020G26KT P6SM -RA
                       BKN025 OVC050=
201802272333 TAF KBLI 272333Z 2800/2824 VRB05KT P6SM VCSH BKN060 BKN080 FM280200
                       17006KT P6SM OVC050 FM281200 15008KT P6SM
                       -RA OVC050 FM281600 14013G19KT P6SM -RA
                       OVC025 FM282000 13020G26KT P6SM -RA BKN025
                       OVC050=
201802271742 TAF KBLI 271742Z 2718/2818 15013KT P6SM VCSH FEW019 SCT045 OVC060
                       FM280200 15009KT P6SM OVC050 FM281300 14015G21KT
                       P6SM -RA BKN025 OVC050=
201802271138 TAF KBLI 271138Z 2712/2812 15010KT P6SM -RA BKN020 OVC040 FM271800
                       17014G22KT P6SM -RA BKN025 BKN050 FM280200
                       18007KT P6SM BKN035 BKN060 FM281000 15010KT
                       P6SM BKN050 BKN100=
201802270920 KBLI 270920Z 2709/2806 18012G18KT P6SM -RA BKN022 OVC040 FM271200
                       17012G18KT 6SM -RA BR BKN020 OVC045 FM271800
                       17012G22KT P6SM VCSH BKN030=
201802270526 TAF KBLI 270526Z 2706/2806 15005KT P6SM FEW040 OVC050 FM271100
                       17010G16KT 4SM -RASN BKN025 OVC060 FM271800
                       17010G17KT P6SM VCSH BKN030=
201802262337 TAF KBLI 262337Z 2700/2724 VRB05KT P6SM OVC060 FM271100 17010G16KT
                       4SM -RASN BKN025 OVC060 FM271800 17010G17KT
                       P6SM VCSH OVC015=
201802261812 TAF KBLI 261812Z 2618/2718 19006KT P6SM VCSH BKN030 OVC045 FM261900
                       16006KT P6SM BKN035 FM270500 15009KT P6SM
                       OVC060 FM270900 16010KT P6SM OVC030 FM271300
                       16010G16KT 5SM -RASN OVC020=
201802261136 TAF KBLI 261136Z 2612/2712 16005KT P6SM SCT020 BKN045
                      TEMPO 2612/2616 BKN020 FM261600 VRB03KT P6SM
                       BKN035 FM261900 17005KT P6SM SCT035 SCT200
                       FM270500 14006KT P6SM BKN080 OVC120 FM271100
                       16010KT 6SM -RASN BR BKN027 OVC050=
201802260520 TAF KBLI 260520Z 2606/2706 18004KT P6SM VCSH SCT050 SCT120 FM260900
                       VRB03KT P6SM BKN020 OVC030 FM261500 VRB03KT
                       P6SM OVC035 FM261900 17005KT P6SM SCT035=
201802252338 TAF KBLI 252338Z 2600/2624 VRB05KT P6SM VCSH FEW050 SCT060 FM260200
                       21006KT P6SM SCT020 BKN040 FM260800 VRB03KT
                       P6SM BKN020 OVC030 FM261100 00000KT P6SM
                       OVC035 FM261900 17005KT P6SM BKN035=
201802251738 TAF KBLI 251738Z 2518/2618 19007KT P6SM VCSH BKN070 OVC100 FM260200
                       17005KT P6SM SCT020 BKN070 FM260900 VRB03KT
                       P6SM OVC035=
201802251120 TAF KBLI 251120Z 2512/2612 18015G22KT P6SM -RA BKN030 OVC040 FM252200
                       19011G18KT P6SM VCSH SCT020 BKN035 FM260100
                       16007KT P6SM SCT025 BKN040 FM260600 VRB04KT
                       P6SM SCT025 BKN040=
201802250520 TAF KBLI 250520Z 2506/2606 17015G25KT P6SM -RA BKN030 OVC050
                      TEMPO 2506/2508 BKN025 FM250800 16018G24KT
                       P6SM -RA OVC025 FM251000 18015G22KT P6SM
                       -RA OVC020 FM252200 19011G18KT P6SM VCSH
                       SCT020 BKN035=
201802242333 TAF KBLI 242333Z 2500/2524 16007KT P6SM FEW021 SCT026 BKN200 FM250700
                       16018G24KT P6SM -RA OVC025 FM251000 18015G22KT
                       P6SM -RA OVC020 FM252200 19011G18KT P6SM
                       VCSH SCT020 BKN035=
201802241735 TAF KBLI 241735Z 2418/2518 00000KT P6SM VCSH SCT019 BKN025 OVC030
                       FM242200 15008KT P6SM BKN040 FM250500 15013G20KT
                       P6SM OVC030 FM250600 16018G25KT P6SM -RA
                       OVC019 FM251000 17017G24KT P6SM -RA OVC015=
201802241631 KBLI 241631Z 2417/2512 36005KT 2SM -SN BR VCSH FEW008 OVC021 FM241800
                       18010KT P6SM -SHRA BKN025 FM242100 20007KT
                       P6SM VCSH OVC040 FM250400 16017G26KT P6SM
                       -RA BKN015 OVC025=
201802241340 KBLI 241340Z 2414/2512 15012KT P6SM VCSH BKN015 OVC025
                      TEMPO 2414/2416 2SM -SHSN BR OVC005 FM241800
                       18010KT P6SM -SHRA BKN025 FM242100 20007KT
                       P6SM VCSH OVC040 FM250400 16017G26KT P6SM
                       -RA BKN015 OVC025=
201802241120 TAF KBLI 241120Z 2412/2512 15012KT P6SM VCSH BKN015 OVC025
                      TEMPO 2412/2416 -SHRASN OVC010 FM241800 18010KT
                       P6SM -SHRA BKN025 FM242100 20007KT P6SM
                       VCSH OVC040 FM250400 16017G26KT P6SM -RA
                       BKN015 OVC025=
201802240525 TAF KBLI 240525Z 2406/2506 15012KT P6SM VCSH BKN020 OVC030
                      TEMPO 2406/2409 -SHSN FM240900 13010KT P6SM
                       -SHRA OVC015 FM241800 18010KT P6SM -SHRA
                       BKN025 FM242100 20007KT P6SM VCSH OVC040=
201802232335 TAF KBLI 232335Z 2400/2424 14018G26KT P6SM OVC060
                      TEMPO 2400/2404 5SM -SN OVC030 FM240400 15012KT
                       P6SM VCSH BKN015 OVC030 FM240700 13010KT
                       P6SM -SHRA OVC015 FM241800 35009KT P6SM
                       -SHRASN BKN025 FM242100 20007KT P6SM -SHRA
                       OVC040=
201802231722 TAF KBLI 231722Z 2318/2418 17010KT P6SM OVC080 FM231900 16016G24KT
                       5SM -SN OVC030 FM240000 15012KT P6SM VCSH
                       BKN015 OVC030 FM240700 13010KT P6SM -SHRA
                       OVC015=
201802231120 TAF KBLI 231120Z 2312/2412 VRB03KT P6SM SKC FM231400 17010KT P6SM
                       OVC080 FM231900 16016G24KT 5SM -SN OVC030
                       FM240000 15012KT P6SM VCSH BKN015 OVC030
                       FM240700 13010KT P6SM -SHRA OVC015=
201802230520 TAF KBLI 230520Z 2306/2406 01006KT P6SM SKC FM231400 17008KT P6SM
                       OVC080 FM232000 16016G24KT 5SM -SN OVC030=
201802222338 TAF KBLI 222338Z 2300/2324 36010G16KT P6SM SKC FM230600 01006KT
                       P6SM SKC FM231400 17008KT P6SM OVC080 FM232000
                       16016G24KT 5SM -SN OVC030=
201802221756 TAF KBLI 221756Z 2218/2318 02016G22KT P6SM SKC FM230200 03007KT
                       P6SM SCT200 FM231000 14006KT P6SM SCT120
                       BKN200=
201802221315 KBLI 221315Z 2213/2312 02014G22KT P6SM SCT050 SCT200 FM221800 02012G20KT
                       P6SM SCT200 FM230200 03007KT P6SM SCT200
                       FM231000 14006KT P6SM SCT120 BKN200=
201802221140 TAF KBLI 221140Z 2212/2312 01011KT P6SM SCT050 SCT200 FM221800
                       01011KT P6SM SCT200 FM230200 03006KT P6SM
                       SCT200 FM231000 14006KT P6SM SCT120 BKN200=
201802220524 TAF KBLI 220524Z 2206/2306 02006KT P6SM -SN OVC045 FM220700 02008KT
                       P6SM SCT050 SCT120 FM221800 01009KT P6SM
                       SCT120=
201802220350 KBLI 220350Z 2204/2224 03005KT 5SM -SN BR BKN015 OVC040 FM220600
                       02008KT P6SM SCT050 BKN120 FM221800 01009KT
                       P6SM SCT120=
201802220121 KBLI 220121Z 2201/2224 11003KT 1SM -SN OVC015 FM220600 02008KT
                       P6SM SCT050 BKN120 FM221800 01009KT P6SM
                       SCT120=
201802220003 TAF KBLI 220003Z 2200/2224 16006KT P6SM BKN035 OVC045 FM220100
                       07006KT 3SM -SN BR OVC035 FM220600 02008KT
                       P6SM SCT050 BKN120 FM221800 01009KT P6SM
                       SCT120=
201802211742 TAF KBLI 211742Z 2118/2218 VRB03KT P6SM OVC100 FM212000 06010KT
                       P6SM OVC080 FM212200 13006KT P6SM OVC060
                       FM220200 05006KT 6SM -SN BR OVC040 FM220800
                       02008KT P6SM SCT050 BKN120=
201802211146 TAF KBLI 211146Z 2112/2212 04008KT P6SM SCT100 BKN200 FM211800
                       06010KT P6SM OVC080 FM212200 13006KT P6SM
                       OVC060 FM220200 05006KT 6SM -SN BR OVC040
                       FM220900 02008KT P6SM SCT050 BKN120=
201802210524 TAF KBLI 210524Z 2106/2206 02016G23KT P6SM SKC FM211200 04008KT
                       P6SM SCT100 BKN200 FM211800 06010KT P6SM
                       OVC080 FM212200 05008KT P6SM OVC060=
201802210242 KBLI 210242Z 2103/2124 03010G22KT P6SM SKC FM211200 04005KT P6SM
                       FEW060 SCT250 FM211800 16004KT P6SM OVC060=
201802202333 TAF KBLI 202333Z 2100/2124 01009KT P6SM SKC FM210500 04005KT P6SM
                       FEW060 SCT250 FM211800 16004KT P6SM OVC060=
201802201731 TAF KBLI 201731Z 2018/2118 01007KT P6SM OVC100 FM202100 01011KT
                       P6SM OVC045 FM210200 01007KT P6SM BKN200
                       FM210500 01005KT P6SM FEW060 SCT250=
201802201129 TAF KBLI 201129Z 2012/2112 35004KT P6SM SCT070 BKN120 FM201900
                       03008KT P6SM SCT100 BKN200 FM210300 01006KT
                       P6SM SKC=
201802200534 TAF KBLI 200534Z 2006/2106 00000KT P6SM BKN250 FM201300 04005KT
                       P6SM BKN250 FM201900 03008KT P6SM SKC FM210400
                       01004KT P6SM SKC=
201802192337 TAF KBLI 192337Z 2000/2024 35007KT P6SM SCT250 FM200300 04004KT
                       P6SM BKN250 FM200600 04006KT P6SM SCT250=
201802191734 TAF KBLI 191734Z 1918/2018 03015G20KT P6SM SKC FM192100 01009G18KT
                       P6SM SCT250 FM200300 02004KT P6SM SCT250
                       FM200600 05006KT P6SM SCT250=
201802191131 TAF KBLI 191131Z 1912/2012 02015G25KT P6SM SKC FM191800 03012G18KT
                       P6SM SKC FM200200 02007KT P6SM SKC=
201802190520 TAF KBLI 190520Z 1906/2006 03018G28KT P6SM SCT050 FM190900 03015G25KT
                       P6SM SKC FM191800 03012KT P6SM SKC FM200000
                       02007KT P6SM SKC=
201802182320 TAF KBLI 182320Z 1900/1924 03027G37KT P6SM SKC FM190400 03018G28KT
                       P6SM SCT050 FM190900 03015G25KT P6SM SKC
                       FM191800 03012KT P6SM SKC=
201802181720 TAF KBLI 181720Z 1818/1918 03025G35KT P6SM BKN050 FM190200 03018G28KT
                       P6SM SCT050 FM190900 02015G25KT P6SM SKC=
201802181611 KBLI 181611Z 1816/1912 04025G35KT P6SM VCSH BKN040
                      TEMPO 1816/1818 3SM -SHSN OVC030 FM181800
                       04025G35KT P6SM BKN050 FM190200 03018G28KT
                       P6SM SCT050 FM190900 02015G25KT P6SM SKC=
201802181138 TAF KBLI 181138Z 1812/1912 04015G25KT P6SM VCSH SCT017 BKN030
                      TEMPO 1812/1816 3SM -SN BR BKN017 OVC025
                       FM181800 04020G30KT P6SM SCT035 BKN060 FM190200
                       03018G28KT P6SM FEW040 SCT200 FM190900 02015G25KT
                       P6SM SKC=
201802180520 TAF KBLI 180520Z 1806/1906 20005KT P6SM -SHRA SCT015 BKN025 FM180700
                       32012KT P6SM -SHSN BKN015 FM180900 04020G30KT
                       P6SM SCT015 BKN030
                      TEMPO 1809/1813 3SM -SHSN BKN010 OVC030 FM181700
                       04025G35KT P6SM SCT040 FM190000 01014G23KT
                       P6SM FEW040 SCT200=
201802172320 TAF KBLI 172320Z 1800/1824 19012G22KT P6SM VCSH BKN040 FM180300
                       24015G25KT P6SM -SHRA BKN030 FM180700 32012KT
                       P6SM -SHSN BKN015 FM180900 04020G30KT P6SM
                       SCT015 BKN030
                      TEMPO 1809/1813 3SM -SHSN BKN010 OVC030 FM181700
                       04025G35KT P6SM SCT040=
201802171725 TAF KBLI 171725Z 1718/1818 16015G25KT 6SM -RA OVC015 FM172000 19020G30KT
                       P6SM -SHRA BKN020 BKN040
                      TEMPO 1720/1724 SCT020 BKN040 FM180200 24015G25KT
                       P6SM -SHRA BKN015 BKN040 FM180500 32012KT
                       P6SM -SHSN BKN015 FM180800 04020G30KT P6SM
                       SCT015 BKN030
                      TEMPO 1809/1813 3SM -SHSN BKN010 OVC030 FM181600
                       04025G35KT P6SM SCT040=
201802171139 TAF KBLI 171139Z 1712/1812 17008KT 5SM -RA SCT011 OVC022 FM171500
                       15012KT 4SM -RA BKN006 OVC011 FM171800 18015G25KT
                       6SM -SHRA BKN015 BKN030 FM180200 VRB03KT
                       P6SM -SHRA BKN020 OVC030 FM180800 03014G24KT
                       4SM -SHSN BKN010 OVC020=
201802170924 KBLI 170924Z 1709/1806 17008KT P6SM -RA OVC025 FM171400 15015G23KT
                       5SM -RA OVC015 FM171800 18015G25KT 6SM -SHRA
                       BKN015 BKN030 FM180200 14008KT P6SM -SHRA
                       BKN020 OVC030=
201802170520 TAF KBLI 170520Z 1706/1806 16008KT P6SM SCT040 BKN060 FM170800
                       17008KT P6SM -RA OVC025 FM171400 15015G23KT
                       5SM -RA OVC015 FM171800 18015G25KT 6SM -SHRA
                       BKN015 BKN030 FM180200 14008KT P6SM -SHRA
                       BKN020 OVC030=
201802162341 TAF KBLI 162341Z 1700/1724 16008KT P6SM BKN024 FM170800 17008KT
                       P6SM -RA OVC015 FM171400 15015G23KT 5SM
                       -RA OVC015 FM171800 18015G25KT 6SM -SHRA
                       BKN015 BKN030=
201802161737 TAF KBLI 161737Z 1618/1718 15009KT 5SM -RA BR BKN009 OVC017 FM162000
                       17009KT P6SM VCSH BKN017 OVC025 FM162300
                       17008KT P6SM SCT018 BKN035 OVC050 FM170800
                       17008KT P6SM -RA OVC015 FM171400 15015G23KT
                       P6SM -RA OVC015=
201802161131 TAF KBLI 161131Z 1612/1712 17012KT P6SM -RA BKN010 OVC018 FM161800
                       17012KT P6SM SCT014 BKN025 OVC035 FM162300
                       17008KT P6SM SCT018 BKN035 OVC050 FM170800
                       17008KT P6SM -RA OVC015=
201802160520 TAF KBLI 160520Z 1606/1706 17005KT P6SM -RA SCT015 OVC025 FM160800
                       17009KT 5SM -RA BR SCT010 OVC015 FM161700
                       17009KT P6SM -RA SCT018 OVC025 FM162300
                       20004KT P6SM VCSH SCT018 BKN030 OVC045 FM170100
                       18004KT P6SM VCSH BKN015 OVC025=
201802152342 TAF KBLI 152342Z 1600/1624 16008KT P6SM SCT020 BKN040 OVC060 FM160500
                       17005KT P6SM -RA SCT015 OVC025 FM160800
                       17009KT 5SM -RA BR SCT010 OVC015 FM161700
                       17009KT P6SM -RA SCT018 OVC025 FM162300
                       20004KT P6SM VCSH SCT018 BKN030 OVC045=
201802151744 TAF KBLI 151744Z 1518/1618 VRB03KT P6SM SCT018 OVC030 FM152200
                       16008KT P6SM SCT030 BKN045 OVC120 FM160300
                       17005KT P6SM -RA SCT015 OVC025 FM160700
                       17009KT 5SM -RA BR SCT010 OVC015 FM161600
                       17009KT P6SM -RA SCT018 OVC030=
201802151136 TAF KBLI 151136Z 1512/1612 00000KT P6SM SCT022 BKN035 BKN060
                      TEMPO 1512/1516 BKN022 OVC035 FM151900 VRB03KT
                       P6SM SCT030 BKN080 OVC200 FM160000 15006KT
                       P6SM -RA OVC040 FM160500 15006KT 5SM -RA
                       SCT010 OVC020=
201802150525 TAF KBLI 150525Z 1506/1606 VRB03KT P6SM SCT015 OVC035 FM150800
                       05004KT P6SM SCT005 OVC010 FM151200 03008KT
                       P6SM BKN008 FM151800 02003KT P6SM SCT010
                       BKN020 FM152200 VRB03KT P6SM SCT018 BKN025
                       OVC040 FM160000 17004KT P6SM -RA SCT015
                       OVC025=
201802142347 TAF KBLI 142347Z 1500/1524 VRB03KT P6SM SCT015 BKN025 FM150600
                       05004KT 6SM -SHSNRA BR SCT005 OVC010 FM151200
                       03008KT P6SM BKN008 FM151800 02003KT P6SM
                       SCT010 BKN020 FM152200 VRB03KT P6SM SCT018
                       BKN025 OVC040=
201802141751 TAF KBLI 141751Z 1418/1518 35003KT 4SM -RASN BR SCT005 BKN012 OVC020
                       FM142000 34005KT P6SM VCSH SCT012 BKN020
                       FM142200 VRB03KT P6SM SCT020 FM150200 16004KT
                       P6SM SCT015 BKN025 FM150700 05004KT 5SM
                       -SHSNRA BR SCT005 OVC012 FM151200 03008KT
                       P6SM SCT035=
201802141612 KBLI 141612Z 1416/1512 35004KT 3SM -SHRA SCT008 OVC012 FM141800
                       34005KT P6SM VCSH SCT012 BKN020 BKN040 FM142200
                       VRB03KT P6SM SCT025 FM150200 16004KT P6SM
                       SCT015 BKN025 FM150800 04004KT 5SM -SHSNRA
                       BR SCT005 OVC012=
201802141141 TAF KBLI 141141Z 1412/1512 36004KT P6SM -SHRA SCT005 SCT022 OVC030
                       TEMPO 1412/1416 2SM -RA BR BKN004 OVC012
                       FM141800 02008KT P6SM VCSH SCT015 BKN025
                       OVC040 FM142100 31005KT P6SM FEW030 BKN060
                       FM150000 VRB03KT P6SM SCT060 FM150600 04004KT
                       P6SM OVC050=
201802141008 KBLI 141008Z 1410/1506 14009KT P6SM -SHRA SCT022 OVC030 FM141500
                       02008KT P6SM VCSH SCT015 OVC035 FM141800
                       35008KT P6SM SCT025 BKN050 FM142100 31005KT
                       P6SM FEW030 BKN060 FM150000 VRB03KT P6SM
                       SCT060=
201802140553 KBLI 140553Z 1406/1506 17012KT 6SM -RASN BR SCT008 OVC015
                      TEMPO 1408/1412 2SM -SN BR BKN008 OVC015
                       FM141200 21006KT 2SM -SN BR BKN008 OVC015
                       FM141500 02008KT 2SM -SHRASN SCT008 BKN015
                       OVC030 FM141800 35008KT P6SM SCT015 BKN030
                       BKN050 FM142100 31005KT P6SM FEW030 BKN060
                       FM150000 VRB03KT P6SM SCT060=
201802140541 TAF KBLI 140541Z 1406/1506 17012KT 6SM -RA BR SCT008 OVC015 FM141200
                       21006KT 5SM -RA BR SCT008 OVC015 FM141500
                       02008KT 6SM -SHRASN SCT008 BKN015 OVC030
                       FM141800 35008KT P6SM SCT015 BKN030 BKN050
                       FM142100 31005KT P6SM FEW030 BKN060 FM150000
                       VRB03KT P6SM SCT060=
201802140502 KBLI 140502Z 1405/1424 16012KT 6SM -RA BR OVC018 FM140900 14012G20KT
                       P6SM -RA OVC022 FM141600 15010KT P6SM -SHRA
                       BKN025 FM142000 36005KT P6SM BKN030=
201802132329 TAF KBLI 132329Z 1400/1424 18006KT P6SM BKN080 OVC120 FM140700
                       15012KT P6SM -RA SCT025 OVC050 FM140900
                       14012G20KT P6SM -RA OVC022 FM141600 15010KT
                       P6SM -SHRA BKN025 FM142000 36005KT P6SM
                       BKN030=
201802131725 TAF KBLI 131725Z 1318/1418 17004KT P6SM BKN060 BKN200 FM140000
                       15006KT P6SM BKN050 OVC100 FM140700 15012KT
                       P6SM -RA SCT025 OVC050 FM140900 14012G20KT
                       P6SM -RA OVC022 FM141600 15010KT P6SM -SHRA
                       BKN025=
201802131134 TAF KBLI 131134Z 1312/1412 VRB04KT P6SM BKN200 FM131500 VRB04KT
                       P6SM SCT100 BKN200 FM140000 15006KT P6SM
                       BKN050 OVC100 FM140300 15012KT P6SM -RA
                       SCT025 OVC050 FM140800 14012G20KT P6SM -RA
                       OVC022=
201802130520 TAF KBLI 130520Z 1306/1406 VRB02KT P6SM BKN200 FM131500 VRB02KT
                       P6SM SCT100 BKN200 FM131800 15006KT P6SM
                       FEW050 BKN100 OVC200 FM140000 15006KT P6SM
                       BKN050 OVC100
                      TEMPO 1400/1403 -RA FM140300 15009KT P6SM
                       -RA SCT028 OVC050=
201802130302 KBLI 130302Z 1303/1324 00000KT P6SM BKN200 FM131200 18004KT P6SM
                       SCT120=
201802122320 TAF KBLI 122320Z 1300/1324 33004KT P6SM SKC FM130200 00000KT P6SM
                       SKC FM131200 18004KT P6SM SCT120=
201802121720 TAF KBLI 121720Z 1218/1318 02012G20KT P6SM SKC FM121900 01008KT
                       P6SM SKC FM122300 33004KT P6SM SKC FM130200
                       00000KT P6SM SKC=
201802121122 TAF KBLI 121122Z 1212/1312 02018G30KT P6SM SKC FM121500 01014G22KT
                       P6SM SKC FM121900 01008KT P6SM SKC FM122300
                       33004KT P6SM SKC FM130200 00000KT P6SM SKC=
201802120532 TAF KBLI 120532Z 1206/1306 02020G30KT P6SM SKC FM120900 02015KT
                       P6SM SKC
                      TEMPO 1209/1212 02013G23KT FM121500 01008KT
                       P6SM SKC FM122100 33004KT P6SM SKC=
201802120259 KBLI 120259Z 1203/1224 01018G28KT P6SM SKC FM121200 01013KT P6SM
                       SKC FM121500 01007KT P6SM SKC FM122100 33004KT
                       P6SM SKC=
201802120211 KBLI 120211Z 1202/1224 01013KT P6SM SKC
                      TEMPO 1204/1208 01017G27KT FM121500 01007KT
                       P6SM SKC FM122100 33004KT P6SM SKC=
201802120126 KBLI 120126Z 1201/1224 35010KT P6SM SKC FM120300 01013KT P6SM SKC
                       TEMPO 1204/1208 01017G27KT FM121500 01007KT
                       P6SM SKC FM122100 33004KT P6SM SKC=
201802112320 TAF KBLI 112320Z 1200/1224 36012KT P6SM SKC=
201802111720 TAF KBLI 111720Z 1118/1218 36007KT P6SM BKN040 FM111900 36012KT
                       P6SM SKC FM120100 01018G28KT P6SM SKC=
201802111128 TAF KBLI 111128Z 1112/1212 00000KT P6SM BKN120 OVC200 FM111800
                       34007KT P6SM FEW070 SCT200 FM112100 36012KT
                       P6SM SKC FM120100 01018G28KT P6SM SKC=
201802110538 TAF KBLI 110538Z 1106/1206 00000KT P6SM BKN200 FM111800 34007KT
                       P6SM FEW070 SCT200 FM112100 36012KT P6SM
                       SKC FM120100 01018G28KT P6SM SKC=
201802110307 KBLI 110307Z 1103/1124 VRB03KT P6SM OVC200 FM110600 VRB03KT P6SM
                       SCT120 OVC200 FM111500 01007KT P6SM SCT070
                       BKN200 FM112100 02012KT P6SM FEW050=
201802102320 TAF KBLI 102320Z 1100/1124 18004KT P6SM SCT200 FM110300 12003KT
                       P6SM BKN200 FM111100 04005KT P6SM SCT100
                       BKN200 FM111500 01007KT P6SM SCT070 BKN200
                       FM112100 02012KT P6SM FEW050=
201802101722 TAF KBLI 101722Z 1018/1118 01008KT P6SM FEW200 FM110300 VRB03KT
                       P6SM BKN200 FM111100 04005KT P6SM OVC120=
201802101120 TAF KBLI 101120Z 1012/1112 02012KT P6SM SKC FM101800 04004KT P6SM
                       SKC FM110300 VRB03KT P6SM BKN200 FM111100
                       15005KT P6SM OVC120=
201802100535 TAF KBLI 100535Z 1006/1106 02015G25KT P6SM FEW070 FM101200 02012KT
                       P6SM SKC FM101800 04005KT P6SM SKC FM102100
                       21004KT P6SM SKC=
201802100306 KBLI 100306Z 1003/1024 02012KT P6SM SCT070
                      TEMPO 1003/1006 BKN070 FM101200 04012G18KT
                       P6SM SKC FM101800 02008KT P6SM SKC=
201802100252 KBLI 100252Z 1003/1024 02012KT P6SM SKC FM101200 04012G18KT P6SM
                       SKC FM101800 02008KT P6SM SKC=
201802092320 TAF KBLI 092320Z 1000/1024 04012KT P6SM SCT050 FM100300 04012G18KT
                       P6SM SKC FM101200 02008KT P6SM SKC=
201802091721 TAF KBLI 091721Z 0918/1018 01006KT P6SM VCSH SCT025 OVC040 FM092000
                       04012KT P6SM SCT030 BKN050 FM100000 04012KT
                       P6SM SCT050 FM100800 04010KT P6SM SKC=
201802091120 TAF KBLI 091120Z 0912/1012 04006KT P6SM BKN025 FM091600 04012KT
                       P6SM SCT025 BKN050 FM100000 04012KT P6SM
                       SCT050 FM101000 04006KT P6SM SKC=
201802090937 KBLI 090937Z 0910/1006 00000KT P6SM OVC030 FM091200 04010KT P6SM
                       BKN050 FM092000 02014G24KT P6SM BKN050 FM100500
                       02012KT P6SM SCT050=
201802090522 TAF KBLI 090522Z 0906/1006 00000KT P6SM BKN070 FM091000 04010KT
                       P6SM SCT030 BKN045 FM092000 02014G24KT P6SM
                       BKN060 FM100100 02012KT P6SM SCT070=
201802082347 TAF KBLI 082347Z 0900/0924 23008KT P6SM VCSH SCT035 BKN060 FM090500
                       VRB03KT P6SM SCT015 BKN025 FM091000 04012G20KT
                       P6SM SCT030 BKN045 FM092200 02014G24KT P6SM
                       SCT050=
201802081745 TAF KBLI 081745Z 0818/0918 17010G20KT P6SM VCSH SCT018 BKN045 FM082200
                       20012G20KT P6SM VCSH SCT045 FM090400 32004KT
                       P6SM SCT010 BKN016 FM091000 04010G18KT P6SM
                       SCT025 SCT040=
201802081411 KBLI 081411Z 0814/0912 18010G20KT P6SM VCSH SCT020 BKN040
                      TEMPO 0814/0817 BKN020 OVC040 FM090000 30008KT
                       P6SM -SHRA BKN030 FM090800 VRB04KT P6SM
                       VCSH BKN020=
201802081129 TAF KBLI 081129Z 0812/0912 22012G20KT P6SM -RA OVC025 FM081800
                       22014G22KT P6SM VCSH BKN030 FM090400 30008KT
                       P6SM -SHRA BKN020 FM090800 VRB04KT P6SM
                       VCSH OVC015=
201802080533 TAF KBLI 080533Z 0806/0906 17012G20KT P6SM SCT020 BKN150
                      TEMPO 0806/0808 BKN020 OVC150 FM080900 16014G22KT
                       P6SM -RA SCT020 OVC050 FM081400 16014G22KT
                       6SM -RA BR BKN015 OVC050 FM082000 19012G18KT
                       P6SM SCT018 BKN030 FM082300 20008KT P6SM
                       SCT025 BKN060=
201802072334 TAF KBLI 072334Z 0800/0824 17010G18KT P6SM VCSH BKN012 OVC020
                      TEMPO 0800/0804 -RA FM080900 16014G22KT 6SM
                       -RA BR SCT012 OVC018 FM082000 19011G18KT
                       P6SM VCSH SCT018 BKN030 FM082200 20010G17KT
                       P6SM SCT025 BKN060=
201802071743 TAF KBLI 071743Z 0718/0818 17010G18KT P6SM VCSH SCT015 OVC025 FM081000
                       16014G22KT 6SM -RA BR SCT012 OVC018=
201802071130 TAF KBLI 071130Z 0712/0812 17010KT P6SM VCSH SCT010 OVC022 FM072200
                       16010KT P6SM SCT015 OVC025 FM080400 16012G20KT
                       6SM -RA BR OVC020=
201802070520 TAF KBLI 070520Z 0706/0806 17008KT P6SM SCT010 BKN025 OVC040
                      TEMPO 0706/0710 5SM -RA BR BKN010 OVC025
                       FM071200 16008KT P6SM SCT008 OVC015 FM080300
                       16010KT P6SM SCT015 OVC025=
201802062342 TAF KBLI 062342Z 0700/0724 16008KT P6SM -RA BKN015 OVC025 FM071300
                       16009KT P6SM VCSH SCT008 OVC015 FM072100
                       16010KT P6SM VCSH SCT014 OVC020=
201802062107 KBLI 062107Z 0621/0718 16008KT P6SM -RA BKN015 OVC025 FM071300
                       16010KT P6SM VCSH SCT012 BKN025 OVC040=
201802061746 TAF KBLI 061746Z 0618/0718 16007KT P6SM SCT015 BKN025 OVC035 FM062300
                       17007KT P6SM -RA BKN018 OVC030 FM071300
                       16010KT P6SM VCSH SCT012 BKN025 OVC040=
201802061134 TAF KBLI 061134Z 0612/0712 18005KT P6SM BKN022 OVC040 FM062000
                       17006KT P6SM VCSH BKN025 OVC050 FM070000
                       17007KT P6SM -RA OVC022 FM070500 17010KT
                       P6SM -RA OVC017=
201802060520 TAF KBLI 060520Z 0606/0706 16004KT P6SM SCT020 OVC050
                      TEMPO 0606/0609 OVC020 FM060900 18005KT P6SM
                       SCT012 OVC020 FM062000 17006KT P6SM -RA
                       BKN012 OVC020=
201802052338 TAF KBLI 052338Z 0600/0624 17007KT P6SM VCSH SCT025 OVC040 FM060800
                       18005KT P6SM SCT012 OVC020 FM061600 17006KT
                       P6SM -RA BKN012 OVC020=
201802051742 TAF KBLI 051742Z 0518/0618 17007KT P6SM SCT025 BKN040 FM060800
                       18005KT P6SM SCT012 OVC020 FM061600 17004KT
                       P6SM -RA BKN012 OVC020=
201802051123 TAF KBLI 051123Z 0512/0612 18010KT P6SM VCSH SCT020 OVC035 FM052000
                       18010KT P6SM VCSH SCT025 BKN040 FM060500
                       18006KT P6SM BKN030 FM061000 18005KT P6SM
                       OVC020=
201802050520 TAF KBLI 050520Z 0506/0606 18010KT P6SM SCT020 BKN040
                      TEMPO 0506/0510 BKN020 OVC040 FM052100 21010KT
                       P6SM SCT025 BKN040 FM060500 18006KT P6SM
                       BKN025=
201802050401 KBLI 050401Z 0504/0524 18010G20KT P6SM SCT020 BKN040 FM050800 20012KT
                       P6SM VCSH BKN020 OVC040 FM052200 18008KT
                       P6SM SCT025 BKN040=
201802042330 TAF KBLI 042330Z 0500/0524 16010G17KT P6SM SCT030 BKN060 FM050400
                       17008KT P6SM BKN030 OVC060 FM050800 18007KT
                       P6SM VCSH OVC020 FM052200 18008KT P6SM SCT025
                       BKN040=
201802041730 TAF KBLI 041730Z 0418/0518 17014G22KT P6SM -RA OVC013 FM050100
                       18010KT P6SM OVC015 FM051200 17010KT P6SM
                       OVC025=
201802041131 TAF KBLI 041131Z 0412/0512 17010KT P6SM -RA SCT004 OVC025 FM041500
                       17010KT 4SM -RA BKN004 OVC015 FM042100 18012G20KT
                       4SM -RA BR SCT008 OVC015 FM050100 18010KT
                       P6SM OVC015=
201802040535 TAF KBLI 040535Z 0406/0506 17008KT 3SM -RA OVC002
                      TEMPO 0406/0410 1SM -RA FM041500 17008KT
                       4SM -RA SCT005 BKN008 OVC015 FM042000 18013G20KT
                       3SM -RA BR SCT008 OVC015 FM050000 18010KT
                       P6SM OVC015=
201802040309 KBLI 040309Z 0403/0424 17008KT P6SM -RA OVC005 FM040700 17008KT
                       4SM -RA SCT005 BKN008 OVC015 FM041800 18013G20KT
                       3SM -RA BR OVC015=
201802032336 TAF KBLI 032336Z 0400/0424 16008KT P6SM -RA SCT007 OVC017 FM040200
                       17008KT P6SM -RA BKN020 OVC035 FM040900
                       17008KT 4SM -RA BKN008 OVC015 FM041800 18013G20KT
                       3SM -RA BR OVC015=
201802032002 KBLI 032002Z 0320/0418 17008KT P6SM BKN017 OVC030 FM032200 17008KT
                       P6SM SCT030 OVC045 FM040200 17008KT P6SM
                       -RA BKN020 OVC035 FM040900 17008KT 4SM -RA
                       BKN008 OVC015=
201802031721 TAF KBLI 031721Z 0318/0418 17012G17KT P6SM FEW007 OVC013 FM031900
                       17008KT P6SM SCT008 BKN020 OVC030 FM032200
                       17008KT P6SM SCT030 OVC045 FM040200 17008KT
                       P6SM -RA BKN020 OVC035 FM040900 17008KT
                       4SM -RA BKN008 OVC015=
201802031604 KBLI 031604Z 0316/0412 16010KT P6SM OVC016 FM031900 17008KT P6SM
                       SCT008 BKN020 OVC030 FM032200 17008KT P6SM
                       SCT030 OVC045 FM040200 17008KT P6SM -RA
                       BKN020 OVC035 FM040900 17008KT 4SM -RA BKN008
                       OVC015=
201802031142 TAF KBLI 031142Z 0312/0412 16012KT P6SM OVC004 FM031500 16012KT
                       P6SM SCT004 BKN008 OVC015 FM031900 17008KT
                       P6SM SCT008 BKN020 OVC030 FM032200 17008KT
                       P6SM SCT030 OVC045 FM040200 17008KT P6SM
                       -RA BKN020 OVC035 FM040900 17008KT 4SM -RA
                       BKN008 OVC015=
201802030816 KBLI 030816Z 0308/0406 17008KT 3SM -RA OVC004 FM031100 17008KT
                       5SM BR SCT006 BKN018 OVC030 FM031800 17008KT
                       P6SM SCT018 BKN030 OVC050 FM032200 17008KT
                       P6SM SCT030 OVC045 FM040200 17008KT P6SM
                       -RA BKN020 OVC035=
201802030541 TAF KBLI 030541Z 0306/0406 17008KT P6SM OVC045 FM031200 17008KT
                       P6SM BKN018 OVC030 FM031800 17008KT P6SM
                       SCT018 BKN030 OVC050 FM032200 17008KT P6SM
                       SCT030 OVC045 FM040200 17008KT P6SM -RA
                       BKN020 OVC035=
201802022339 TAF KBLI 022339Z 0300/0324 17015KT P6SM SCT028 OVC050 FM030300
                       17009KT 6SM -RA BR OVC028 FM030600 17009KT
                       4SM -RA BR OVC018 FM031200 17008KT P6SM
                       VCSH BKN018 OVC030 FM031800 17008KT P6SM
                       SCT018 BKN030 OVC050
                      PROB30 0320/0324 -SHRA=
201802022219 KBLI 022219Z 0222/0318 17013KT P6SM VCSH SCT035 OVC060 FM030000
                       19009KT P6SM SCT035 BKN060 OVC110 FM030600
                       15009KT P6SM -RA SCT018 OVC035
                      TEMPO 0306/0310 4SM -RA BR BKN018 OVC035
                       FM031200 15009KT P6SM BKN018 OVC030=
201802022020 KBLI 022020Z 0220/0318 17013KT P6SM SCT020 BKN040 BKN060
                      TEMPO 0220/0222 BKN020 BKN040 OVC060 FM022200
                       19013G20KT P6SM -SHRA BKN035 BKN060 FM030000
                       19009KT P6SM SCT035 BKN060 OVC110 FM030600
                       15009KT P6SM -RA SCT018 OVC035
                      TEMPO 0306/0310 4SM -RA BR BKN018 OVC035
                       FM031200 15009KT P6SM BKN018 OVC030=
201802021741 TAF KBLI 021741Z 0218/0318 17015G23KT P6SM -SHRA SCT018 OVC035
                       TEMPO 0218/0222 4SM SHRA BKN018 OVC030 FM022200
                       19013G20KT P6SM -SHRA BKN035 BKN050 FM030000
                       19009KT P6SM SCT035 BKN060 OVC110 FM030600
                       15009KT P6SM -RA SCT018 OVC035
                      TEMPO 0306/0310 4SM -RA BR BKN018 OVC035
                       FM031200 15009KT P6SM BKN018 OVC030=
201802021557 KBLI 021557Z 0216/0312 15015G25KT 6SM BR OVC015
                      TEMPO 0216/0218 4SM -SHRA BR FM021800 17015G25KT
                       5SM -RA SCT006 OVC015 FM030000 17006KT P6SM
                       SCT015 BKN025 OVC040 FM030900 14006KT 5SM
                       -RA SCT006 BKN015 OVC030=
201802021511 KBLI 021511Z 0215/0312 VRB02KT 4SM BR FEW003 OVC015
                      TEMPO 0215/0218 2SM -SHRA BKN003 OVC015 FM021800
                       17008KT 5SM -RA SCT006 OVC015 FM030000 17006KT
                       P6SM SCT015 BKN025 OVC040 FM030900 14006KT
                       5SM -RA SCT006 BKN015 OVC030=
201802021139 TAF KBLI 021139Z 0212/0312 VRB03KT 2SM -RA OVC004
                      TEMPO 0214/0216 5SM BR FM021600 17008KT 5SM
                       -RA SCT006 OVC015 FM030000 17006KT P6SM
                       SCT015 BKN025 OVC040 FM030900 14006KT 5SM
                       -RA SCT006 BKN015 OVC030=
201802020540 TAF KBLI 020540Z 0206/0306 04004KT P6SM -RA OVC022 FM020900 VRB04KT
                       P6SM SCT006 OVC015 FM021800 17010KT P6SM
                       -RA SCT012 OVC022 FM030200 17006KT P6SM
                       SCT025 BKN040 BKN060=
201802012340 TAF KBLI 012340Z 0200/0224 10006KT P6SM -RA OVC015 FM020500 14009KT
                       5SM -RA BR SCT007 OVC015 FM020900 VRB04KT
                       5SM BR SCT007 OVC015
                      PROB30 0209/0215 5SM -SHRA BR FM021500 15009KT
                       5SM -SHRA BR OVC020 FM021800 17013KT P6SM
                       -SHRA BKN028 OVC050=
201802011741 TAF KBLI 011741Z 0118/0218 13006KT P6SM BKN018 OVC030
                      TEMPO 0118/0121 -RA FM012100 13006KT 5SM
                       -RA BR OVC015 FM020600 15009KT P6SM -RA
                       BKN015 OVC030 FM020900 17006KT P6SM VCSH
                       BKN015 OVC030
                      PROB30 0209/0215 -RA=
201802011146 TAF KBLI 011146Z 0112/0212 15008KT P6SM -RA BKN022 OVC040 FM012300
                       15008KT 5SM -RA BR SCT006 OVC015 FM020600
                       18010KT P6SM BKN015 OVC025=
201802010540 TAF KBLI 010540Z 0106/0206 15012KT P6SM -RA BKN022 OVC040 FM012300
                       12006KT 5SM -RA BR SCT006 OVC015=
201802010046 KBLI 010046Z 0101/0124 15009KT P6SM -RA SCT022 OVC035
                      TEMPO 0101/0103 5SM -RA BR OVC022 FM010300
                       15013KT 5SM -RA BR SCT009 OVC020 FM010900
                       15008KT 6SM -RA BR OVC025 FM012000 12006KT
                       4SM -RA BR SCT007 OVC015=
201802010014 KBLI 010014Z 0100/0124 15009KT 6SM -RA BR BKN022 OVC035
                      TEMPO 0100/0103 4SM -RA BR OVC018 FM010300
                       15013KT 5SM -RA BR SCT009 OVC020 FM010900
                       15008KT 6SM -RA BR OVC025 FM012000 12006KT
                       4SM -RA BR SCT007 OVC015=