##########################################################
# Query made at 02/16/2025 22:04:31 UTC
# Time interval: from 09/01/2018 00:00  to 09/30/2018 23:59  UTC
##########################################################

##########################################################
# KBLI, Bellingham, Bellingham International Airport (United States)
# WMO index: -----. WIGOS ID: Unknown
# Latitude 48-47-58N. Longitude 122-32-21W. Altitude 48 m.
##########################################################

###################################
#  METAR/SPECI from KBLI
###################################
201809302353 METAR KBLI 302353Z 32003KT 10SM BKN036 OVC060 13/10 A2979 RMK AO2 SLP096 60008 T01280100 10133 20122 56006=
201809302253 METAR KBLI 302253Z 35004KT 10SM BKN039 OVC060 13/11 A2979 RMK AO2 RAE16 SLP095 P0000 T01280111=
201809302153 METAR KBLI 302153Z 36005KT 10SM -RA BKN050 OVC080 13/11 A2980 RMK AO2 RAB34 SLP097 P0000 T01280111=
201809302053 METAR KBLI 302053Z 02005KT 10SM OVC085 13/12 A2981 RMK AO2 RAE49 SLP102 P0001 60008 T01330117 58006=
201809301953 METAR KBLI 301953Z 35003KT 10SM -RA BKN040 BKN075 OVC090 13/11 A2982 RMK AO2 SLP105 P0003 T01280111=
201809301853 METAR KBLI 301853Z 03006KT 8SM -RA OVC026 12/11 A2983 RMK AO2 SLP108 P0004 T01220106=
201809301753 METAR KBLI 301753Z 35005KT 8SM -RA OVC025 12/11 A2983 RMK AO2 SLP108 P0004 60016 T01220106 10122 20117 53001=
201809301653 METAR KBLI 301653Z 01004KT 10SM -RA OVC027 12/11 A2983 RMK AO2 SLP108 P0002 T01220106=
201809301629 SPECI KBLI 301629Z 05003KT 10SM -RA OVC029 12/11 A2983 RMK AO2 P0002 T01220106=
201809301553 METAR KBLI 301553Z 03004KT 9SM -RA FEW028 BKN039 OVC046 12/10 A2983 RMK AO2 SLP107 P0003 T01170100=
201809301453 METAR KBLI 301453Z 00000KT 10SM -RA BKN055 OVC080 12/10 A2983 RMK AO2 SLP106 P0001 60007 T01170100 55001=
201809301353 METAR KBLI 301353Z 04006KT 10SM -RA FEW037 OVC055 12/09 A2982 RMK AO2 SLP104 P0002 T01170094=
201809301253 METAR KBLI 301253Z AUTO 36006KT 10SM -RA FEW032 OVC049 12/10 A2982 RMK AO2 SLP105 P0004 T01170100=
201809301153 METAR KBLI 301153Z AUTO 01005KT 9SM -RA FEW027 FEW050 OVC075 12/10 A2983 RMK AO2 SLP107 P0006 60017 70017 T01170100 10139 20117 58005=
201809301125 SPECI KBLI 301125Z AUTO 03004KT 10SM -RA SCT026 OVC075 12/10 A2983 RMK AO2 P0003 T01170100=
201809301053 METAR KBLI 301053Z AUTO 02005KT 10SM -RA OVC027 12/10 A2984 RMK AO2 SLP111 P0004 T01220100=
201809301021 SPECI KBLI 301021Z AUTO 05004KT 10SM -RA OVC029 12/10 A2984 RMK AO2 P0001 T01220100=
201809300953 METAR KBLI 300953Z AUTO 03005KT 10SM -RA OVC030 13/09 A2984 RMK AO2 RAE18B40 SLP110 P0001 T01280094=
201809300943 SPECI KBLI 300943Z AUTO 03006KT 10SM -RA OVC029 13/09 A2984 RMK AO2 RAE18B40 P0000 T01280094=
201809300853 METAR KBLI 300853Z AUTO 03006KT 10SM -RA OVC031 13/10 A2984 RMK AO2 SLP111 P0004 60006 T01280100 50004=
201809300753 METAR KBLI 300753Z AUTO 02004KT 10SM -RA OVC031 13/11 A2984 RMK AO2 SLP112 P0001 T01330106 401890133=
201809300653 METAR KBLI 300653Z AUTO 05005KT 10SM -RA OVC038 14/11 A2984 RMK AO2 RAB27 SLP110 P0001 T01390106=
201809300553 METAR KBLI 300553Z AUTO 03005KT 10SM SCT055 OVC085 14/09 A2983 RMK AO2 RAE48 SLP108 P0000 60000 T01390094 10178 20139 50006=
201809300453 METAR KBLI 300453Z 04005KT 10SM -RA BKN060 OVC090 14/09 A2984 RMK AO2 SLP109 P0000 T01440094=
201809300353 METAR KBLI 300353Z 03010KT 10SM -RA OVC090 16/08 A2983 RMK AO2 SLP106 P0000 T01610083=
201809300253 METAR KBLI 300253Z 04010KT 10SM -RA OVC090 17/07 A2981 RMK AO2 RAB21 SLP101 P0000 60000 T01670072 53013=
201809300153 METAR KBLI 300153Z 02012KT 10SM OVC095 18/05 A2979 RMK AO2 SLP095 T01780050=
201809300053 METAR KBLI 300053Z 03011G17KT 10SM OVC085 18/04 A2978 RMK AO2 SLP090 T01780039=
201809292353 METAR KBLI 292353Z 02008G16KT 10SM OVC080 17/03 A2978 RMK AO2 RAB2256E45 SLP089 P0000 60000 T01720033 10189 20172 50002=
201809292253 METAR KBLI 292253Z 02011G20KT 10SM FEW060 OVC085 18/02 A2978 RMK AO2 SLP091 T01830022=
201809292153 METAR KBLI 292153Z 02016G23KT 10SM OVC085 19/02 A2977 RMK AO2 PK WND 05026/2100 SLP085 T01890022=
201809292053 METAR KBLI 292053Z 03013G23KT 10SM OVC085 18/02 A2977 RMK AO2 PK WND 02026/2036 SLP087 T01830022 50001=
201809291953 METAR KBLI 291953Z 03015G26KT 10SM OVC085 18/03 A2978 RMK AO2 PK WND 02028/1911 SLP088 T01830028=
201809291853 METAR KBLI 291853Z 03020G30KT 10SM OVC085 18/03 A2978 RMK AO2 PK WND 03030/1853 SLP089 T01830028=
201809291753 METAR KBLI 291753Z 02015G28KT 10SM OVC080 18/02 A2977 RMK AO2 PK WND 02030/1659 SLP085 T01830022 10189 20183 51012=
201809291653 METAR KBLI 291653Z 03015G26KT 10SM OVC090 19/03 A2976 RMK AO2 PK WND 02026/1637 SLP082 T01890028=
201809291553 METAR KBLI 291553Z 03015G25KT 10SM OVC090 18/02 A2974 RMK AO2 PK WND 02028/1520 SLP077 T01830022=
201809291453 METAR KBLI 291453Z 02015G28KT 10SM OVC090 18/02 A2973 RMK AO2 PK WND 01029/1431 SLP073 T01830017 53008=
201809291353 METAR KBLI 291353Z 02018G26KT 10SM OVC090 19/01 A2972 RMK AO2 PK WND 03027/1319 SLP069 T01890011=
201809291253 METAR KBLI 291253Z AUTO 03013G24KT 10SM OVC090 19/01 A2971 RMK AO2 PK WND 03026/1231 SLP066 T01890011=
201809291153 METAR KBLI 291153Z AUTO 03014G21KT 10SM OVC090 19/02 A2971 RMK AO2 SLP064 T01890017 10189 20144 56004=
201809291053 METAR KBLI 291053Z AUTO 03012G21KT 10SM CLR 18/01 A2971 RMK AO2 SLP066 T01830011=
201809290953 METAR KBLI 290953Z AUTO 03011G16KT 10SM CLR 18/02 A2972 RMK AO2 SLP067 T01830022=
201809290853 METAR KBLI 290853Z AUTO 03011G17KT 10SM CLR 18/04 A2972 RMK AO2 SLP069 T01830039 50000=
201809290753 METAR KBLI 290753Z AUTO 01005KT 10SM CLR 16/05 A2973 RMK AO2 SLP071 T01610050 402560117=
201809290653 METAR KBLI 290653Z AUTO 02006KT 10SM CLR 15/06 A2972 RMK AO2 SLP070 T01500061=
201809290553 METAR KBLI 290553Z AUTO 36004KT 10SM CLR 14/08 A2972 RMK AO2 SLP070 T01440078 10217 20117 56005=
201809290453 METAR KBLI 290453Z 30004KT 10SM CLR 13/10 A2972 RMK AO2 SLP071 T01280100=
201809290353 METAR KBLI 290353Z 00000KT 10SM CLR 13/10 A2973 RMK AO2 SLP074 T01330100=
201809290253 METAR KBLI 290253Z 00000KT 10SM CLR 15/10 A2974 RMK AO2 SLP075 T01500100 56013=
201809290153 METAR KBLI 290153Z 28007KT 10SM CLR 18/11 A2974 RMK AO2 SLP077 T01780106=
201809290053 METAR KBLI 290053Z 28007KT 10SM CLR 20/10 A2975 RMK AO2 SLP078 T02000100=
201809282353 METAR KBLI 282353Z 27007KT 10SM CLR 22/11 A2977 RMK AO2 SLP086 T02170111 10256 20217 56019=
201809282253 METAR KBLI 282253Z 01009KT 10SM CLR 25/07 A2979 RMK AO2 SLP092 T02500072=
201809282153 METAR KBLI 282153Z 36010KT 10SM CLR 25/07 A2981 RMK AO2 SLP097 T02500072=
201809282053 METAR KBLI 282053Z 36011G20KT 10SM CLR 24/07 A2983 RMK AO2 SLP105 T02440067 58018=
201809281953 METAR KBLI 281953Z 36012G18KT 10SM CLR 24/07 A2985 RMK AO2 SLP113 T02390067=
201809281853 METAR KBLI 281853Z 02013G21KT 10SM CLR 23/07 A2986 RMK AO2 SLP119 T02280067=
201809281753 METAR KBLI 281753Z 01014G22KT 10SM CLR 22/07 A2988 RMK AO2 SLP124 T02170067 10217 20167 58009=
201809281653 METAR KBLI 281653Z 02010G16KT 10SM CLR 21/07 A2989 RMK AO2 SLP127 T02060072=
201809281553 METAR KBLI 281553Z 01010KT 10SM CLR 19/07 A2990 RMK AO2 SLP131 T01890067=
201809281453 METAR KBLI 281453Z 01011KT 10SM CLR 17/06 A2991 RMK AO2 SLP133 T01720061 58000=
201809281353 METAR KBLI 281353Z 01012KT 10SM CLR 17/06 A2991 RMK AO2 SLP133 T01670061=
201809281253 METAR KBLI 281253Z AUTO 01011KT 10SM CLR 17/06 A2991 RMK AO2 SLP134 T01720061=
201809281153 METAR KBLI 281153Z AUTO 01013G19KT 10SM CLR 18/06 A2991 RMK AO2 SLP132 T01780061 10194 20106 58008=
201809281053 METAR KBLI 281053Z AUTO 01012G19KT 10SM CLR 18/06 A2992 RMK AO2 SLP135 T01830061=
201809280953 METAR KBLI 280953Z AUTO 01012KT 10SM CLR 19/06 A2992 RMK AO2 PK WND 01026/0859 SLP138 T01890061=
201809280853 METAR KBLI 280853Z AUTO 02013G19KT 10SM CLR 19/07 A2993 RMK AO2 SLP140 T01940067 56003=
201809280753 METAR KBLI 280753Z AUTO 02013G20KT 10SM CLR 19/08 A2993 RMK AO2 SLP141 T01890083 402110067=
201809280653 METAR KBLI 280653Z AUTO VRB03KT 10SM CLR 13/10 A2993 RMK AO2 SLP143 T01280100=
201809280553 METAR KBLI 280553Z AUTO 00000KT 10SM CLR 11/09 A2994 RMK AO2 SLP145 T01110094 10194 20111 58001=
201809280453 METAR KBLI 280453Z 00000KT 10SM CLR 12/11 A2994 RMK AO2 SLP147 T01220106=
201809280353 METAR KBLI 280353Z 00000KT 10SM CLR 13/11 A2994 RMK AO2 SLP146 T01330111=
201809280253 METAR KBLI 280253Z 00000KT 10SM CLR 14/11 A2994 RMK AO2 SLP146 T01390111 56009=
201809280153 METAR KBLI 280153Z 00000KT 10SM CLR 16/12 A2995 RMK AO2 SLP148 T01610117=
201809280053 METAR KBLI 280053Z 27006KT 10SM CLR 19/12 A2995 RMK AO2 SLP150 T01890122=
201809272353 METAR KBLI 272353Z 28007KT 10SM CLR 19/12 A2997 RMK AO2 SLP155 T01940122 10211 20167 56024=
201809272253 METAR KBLI 272253Z 26006KT 10SM CLR 20/12 A2999 RMK AO2 SLP162 T02000122=
201809272153 METAR KBLI 272153Z 28004KT 10SM CLR 21/12 A3001 RMK AO2 SLP168 T02060122=
201809272053 METAR KBLI 272053Z 28005KT 10SM CLR 21/13 A3004 RMK AO2 SLP178 T02060128 57020=
201809271953 METAR KBLI 271953Z VRB04KT 10SM CLR 19/13 A3006 RMK AO2 SLP185 T01890128=
201809271853 METAR KBLI 271853Z 29005KT 10SM CLR 18/12 A3008 RMK AO2 SLP193 T01780117=
201809271753 METAR KBLI 271753Z 35005KT 10SM CLR 17/11 A3010 RMK AO2 SLP199 T01670111 10167 20067 58004=
201809271653 METAR KBLI 271653Z 35003KT 10SM FEW002 14/11 A3011 RMK AO2 SLP202 T01390111=
201809271636 SPECI KBLI 271636Z 02004KT 8SM SCT002 13/11 A3010 RMK AO2 T01330106=
201809271630 SPECI KBLI 271630Z 02003KT 3SM BR BKN001 13/11 A3010 RMK AO2 T01280106=
201809271626 SPECI KBLI 271626Z 36004KT 1SM R16/3500VP6000FT BR OVC001 13/11 A3010 RMK AO2 T01280106=
201809271618 SPECI KBLI 271618Z 03004KT 1/2SM R16/2000V6000FT FG OVC001 12/10 A3011 RMK AO2 T01220100=
201809271612 SPECI KBLI 271612Z 35003KT 3/4SM R16/3500VP6000FT BR BKN002 12/10 A3011 RMK AO2 T01220100=
201809271607 SPECI KBLI 271607Z 01003KT 2SM BR BKN002 12/10 A3011 RMK AO2 T01220100=
201809271600 SPECI KBLI 271600Z 01003KT 6SM BR SCT002 12/10 A3011 RMK AO2 T01220100=
201809271553 METAR KBLI 271553Z 00000KT 4SM BR CLR 12/10 A3011 RMK AO2 SLP202 T01220100=
201809271528 SPECI KBLI 271528Z 00000KT 4SM R16/1800VP6000FT BR CLR 11/09 A3011 RMK AO2 T01110094=
201809271453 METAR KBLI 271453Z 00000KT M1/4SM R16/0800V1000FT FG VV001 08/07 A3011 RMK AO2 SLP203 T00830067 56000=
201809271353 METAR KBLI 271353Z 00000KT 1/4SM R16/1000V1200FT FG VV001 07/06 A3011 RMK AO2 SLP203 T00720061=
201809271333 SPECI KBLI 271333Z AUTO 01003KT 1/4SM R16/1600VP6000FT FG VV001 07/06 A3011 RMK AO2 T00670056=
201809271314 SPECI KBLI 271314Z AUTO 00000KT 1/2SM R16/1000V2200FT FG VV001 07/06 A3011 RMK AO2 T00720061=
201809271310 SPECI KBLI 271310Z AUTO 00000KT 3/4SM R16/1200VP6000FT BR VV001 07/06 A3011 RMK AO2 T00720061=
201809271305 SPECI KBLI 271305Z AUTO 00000KT 2SM R16/2200VP6000FT BR OVC001 08/07 A3011 RMK AO2 VIS 1V5 T00780067=
201809271253 METAR KBLI 271253Z AUTO 30003KT 7SM R16/2600VP6000FT OVC003 08/06 A3011 RMK AO2 SLP203 T00780061=
201809271245 SPECI KBLI 271245Z AUTO 00000KT 6SM BR OVC003 07/06 A3011 RMK AO2 T00720056=
201809271229 SPECI KBLI 271229Z AUTO 00000KT 4SM BR BKN005 08/06 A3011 RMK AO2 T00780061=
201809271224 SPECI KBLI 271224Z AUTO 00000KT 1SM R16/6000VP6000FT BR VV005 08/06 A3012 RMK AO2 T00780061=
201809271213 SPECI KBLI 271213Z AUTO 00000KT 2SM R16/2800V4500FT BR BKN005 08/06 A3011 RMK AO2 T00780061=
201809271207 SPECI KBLI 271207Z AUTO 00000KT 3/4SM R16/2800VP6000FT BR VV005 08/06 A3011 RMK AO2 T00780061=
201809271153 METAR KBLI 271153Z AUTO 00000KT 1/4SM R16/2000VP6000FT FG VV003 08/07 A3011 RMK AO2 SLP203 T00830067 10106 20072 56010=
201809271144 SPECI KBLI 271144Z AUTO 00000KT 1/2SM R16/1600VP6000FT FG VV002 08/06 A3011 RMK AO2 T00780061=
201809271140 SPECI KBLI 271140Z AUTO 00000KT 1 1/2SM R16/1600V4000FT BR BKN003 08/06 A3011 RMK AO2 T00780061=
201809271107 SPECI KBLI 271107Z AUTO 00000KT 4SM BR BKN003 07/06 A3012 RMK AO2 T00720056=
201809271053 METAR KBLI 271053Z AUTO 00000KT 7SM R16/3500VP6000FT FEW006 08/07 A3012 RMK AO2 SLP206 T00830067=
201809271023 SPECI KBLI 271023Z AUTO 00000KT 7SM R16/2600VP6000FT FEW002 08/07 A3013 RMK AO2 T00830067=
201809271016 SPECI KBLI 271016Z AUTO 00000KT 2 1/2SM R16/2000V4000FT BR SCT001 09/07 A3013 RMK AO2 VIS 1V5 T00890072=
201809271003 SPECI KBLI 271003Z AUTO 00000KT 1 3/4SM R16/2400V4500FT BR BKN001 09/08 A3013 RMK AO2 T00940078=
201809270953 METAR KBLI 270953Z AUTO 00000KT 3/4SM R16/1800VP6000FT BR VV001 09/08 A3013 RMK AO2 SLP211 T00940078=
201809270949 SPECI KBLI 270949Z AUTO 00000KT 1/2SM R16/2000VP6000FT FG VV001 09/07 A3013 RMK AO2=
201809270943 SPECI KBLI 270943Z AUTO 00000KT 1 1/4SM BR BKN001 08/07 A3013 RMK AO2 T00830067=
201809270941 SPECI KBLI 270941Z AUTO 00000KT 3SM BR BKN001 08/07 A3013 RMK AO2 T00830067=
201809270929 SPECI KBLI 270929Z AUTO 00000KT 10SM FEW002 08/07 A3013 RMK AO2 T00830067=
201809270918 SPECI KBLI 270918Z AUTO 00000KT 5SM BR CLR 08/07 A3014 RMK AO2 T00830067=
201809270904 SPECI KBLI 270904Z AUTO 00000KT 1 3/4SM R16/4000VP6000FT BR CLR 08/07 A3014 RMK AO2 VIS 1V5 T00830067=
201809270853 METAR KBLI 270853Z AUTO 00000KT 9SM CLR 09/08 A3014 RMK AO2 SLP214 T00940078 56003=
201809270753 METAR KBLI 270753Z AUTO 00000KT 10SM CLR 10/08 A3014 RMK AO2 SLP214 T01000083 401830078=
201809270748 SPECI KBLI 270748Z AUTO 00000KT 4SM BR CLR 10/08 A3014 RMK AO2=
201809270744 SPECI KBLI 270744Z AUTO 00000KT 1SM R16/P6000FT BR CLR 09/08 A3015 RMK AO2 T00940078=
201809270727 SPECI KBLI 270727Z AUTO 00000KT 1/2SM R16/2800VP6000FT FG CLR 09/08 A3015 RMK AO2 T00940078=
201809270720 SPECI KBLI 270720Z AUTO 00000KT 1 3/4SM R16/3000VP6000FT BR CLR 10/08 A3015 RMK AO2 VIS 1/2V5 T01000083=
201809270653 METAR KBLI 270653Z AUTO 00000KT 9SM CLR 10/08 A3014 RMK AO2 SLP215 T01000083=
201809270553 METAR KBLI 270553Z AUTO 00000KT 8SM CLR 11/09 A3015 RMK AO2 SLP217 T01060089 10178 20100 53001=
201809270453 METAR KBLI 270453Z 00000KT 10SM CLR 11/09 A3014 RMK AO2 SLP212 T01110094=
201809270353 METAR KBLI 270353Z 00000KT 10SM CLR 11/09 A3015 RMK AO2 SLP217 T01060089=
201809270253 METAR KBLI 270253Z 00000KT 10SM CLR 12/09 A3015 RMK AO2 SLP215 T01170094 58009=
201809270153 METAR KBLI 270153Z 28004KT 10SM CLR 14/11 A3016 RMK AO2 SLP220 T01390106=
201809270053 METAR KBLI 270053Z 27004KT 10SM CLR 17/10 A3016 RMK AO2 SLP220 T01670100=
201809262353 METAR KBLI 262353Z VRB03KT 10SM CLR 18/11 A3017 RMK AO2 SLP224 T01780111 10183 20144 56013=
201809262253 METAR KBLI 262253Z VRB06KT 10SM CLR 18/11 A3018 RMK AO2 SLP228 T01830111=
201809262153 METAR KBLI 262153Z 28005KT 10SM CLR 18/12 A3020 RMK AO2 SLP232 T01830117=
201809262053 METAR KBLI 262053Z VRB03KT 10SM FEW018 18/11 A3021 RMK AO2 SLP237 T01780111 58013=
201809261953 METAR KBLI 261953Z 00000KT 10SM SCT018 17/11 A3023 RMK AO2 SLP242 T01670111=
201809261853 METAR KBLI 261853Z VRB03KT 10SM FEW016 17/11 A3024 RMK AO2 SLP247 T01720106=
201809261753 METAR KBLI 261753Z VRB04KT 5SM HZ SCT004 14/10 A3025 RMK AO2 SLP250 CIG LWR SW-N T01440100 10144 20083 58004=
201809261734 SPECI KBLI 261734Z 30004KT 6SM HZ SCT004 13/11 A3025 RMK AO2 T01330106=
201809261709 SPECI KBLI 261709Z 34003KT 1SM R16/4000VP6000FT BR BKN002 13/11 A3025 RMK AO2 T01280106=
201809261705 SPECI KBLI 261705Z 00000KT 1SM R16/4000VP6000FT BR OVC002 13/11 A3025 RMK AO2 T01280111=
201809261653 METAR KBLI 261653Z 34003KT 1/2SM R16/1800VP6000FT FG VV002 12/10 A3025 RMK AO2 SLP251 T01170100=
201809261637 SPECI KBLI 261637Z 02003KT 1/4SM R16/1600V2400FT FG VV002 11/09 A3025 RMK AO2 T01110094=
201809261614 SPECI KBLI 261614Z 01003KT 1/4SM R16/2000V2200FT FG VV002 11/09 A3025 RMK AO2 T01060094=
201809261553 METAR KBLI 261553Z 01003KT 1/4SM R16/2000V3500FT FG VV002 10/09 A3026 RMK AO2 SLP254 T01000089=
201809261550 SPECI KBLI 261550Z 00000KT 1/4SM R16/1800V3500FT FG VV002 10/08 A3026 RMK AO2=
201809261543 SPECI KBLI 261543Z 01003KT 1/2SM R16/1400V3000FT FG OVC001 10/08 A3026 RMK AO2 T01000083=
201809261526 SPECI KBLI 261526Z 00000KT 1/2SM R16/3500VP6000FT FG OVC003 09/08 A3026 RMK AO2 T00940078=
201809261503 SPECI KBLI 261503Z 35003KT 3/4SM R16/P6000FT BR OVC002 09/08 A3026 RMK AO2 T00940078=
201809261456 SPECI KBLI 261456Z 00000KT 3SM BR OVC002 09/08 A3026 RMK AO2 T00940078=
201809261453 METAR KBLI 261453Z 00000KT 1/2SM R16/P6000FT FG OVC002 09/08 A3026 RMK AO2 SLP253 T00940078 53006=
201809261439 SPECI KBLI 261439Z 36003KT 1/4SM R16/2200V5000FT FG VV002 09/08 A3025 RMK AO2 T00940078=
201809261353 METAR KBLI 261353Z 00000KT 1/4SM R16/1400V1600FT FG VV002 10/08 A3024 RMK AO2 SLP246 T01000083=
201809261318 SPECI KBLI 261318Z AUTO 00000KT 1/4SM R16/1200V1600FT FG VV002 09/08 A3024 RMK AO2 T00940083=
201809261302 SPECI KBLI 261302Z AUTO 00000KT 1/2SM R16/2400VP6000FT FG VV002 09/08 A3024 RMK AO2 T00940078=
201809261257 SPECI KBLI 261257Z AUTO 00000KT 1 1/2SM R16/2400VP6000FT BR OVC002 09/08 A3024 RMK AO2 T00940078=
201809261253 METAR KBLI 261253Z AUTO 00000KT 3SM BR OVC002 09/08 A3024 RMK AO2 SLP247 T00940078=
201809261200 SPECI KBLI 261200Z AUTO 00000KT 10SM OVC004 08/07 A3024 RMK AO2 T00830072=
201809261153 METAR KBLI 261153Z AUTO 00000KT 10SM OVC005 08/07 A3024 RMK AO2 SLP247 T00830067 10106 20078 55001=
201809261128 SPECI KBLI 261128Z AUTO 00000KT 9SM OVC005 08/06 A3024 RMK AO2 T00780061=
201809261121 SPECI KBLI 261121Z AUTO 00000KT 2SM BR BKN005 08/06 A3023 RMK AO2 T00780061=
201809261119 SPECI KBLI 261119Z AUTO 00000KT 3/4SM R16/P6000FT BR VV005 08/06 A3023 RMK AO2 T00780061=
201809261116 SPECI KBLI 261116Z AUTO 00000KT 1/4SM R16/1600VP6000FT FG VV004 08/07 A3024 RMK AO2 T00830067=
201809261109 SPECI KBLI 261109Z AUTO 00000KT 1/2SM R16/1400V4000FT FG VV005 08/06 A3024 RMK AO2 T00780061=
201809261106 SPECI KBLI 261106Z AUTO 00000KT 1 3/4SM R16/1400V2600FT BR FEW007 08/06 A3024 RMK AO2 T00780061=
201809261103 SPECI KBLI 261103Z AUTO 00000KT 3SM R16/1400V3500FT BR FEW007 08/06 A3024 RMK AO2 T00780061=
201809261100 SPECI KBLI 261100Z AUTO 00000KT 2 1/2SM R16/2200V3500FT BR CLR 08/06 A3024 RMK AO2 T00780061=
201809261053 METAR KBLI 261053Z AUTO 00000KT 3SM R16/2800V5500FT BR CLR 08/07 A3023 RMK AO2 SLP245 T00830067=
201809261041 SPECI KBLI 261041Z AUTO 00000KT 3SM R16/1600V2800FT BR CLR 08/06 A3024 RMK AO2 T00780056=
201809261028 SPECI KBLI 261028Z AUTO 00000KT 3/4SM R16/2800VP6000FT BR CLR 08/06 A3024 RMK AO2 T00830061=
201809261016 SPECI KBLI 261016Z AUTO 00000KT 2SM R16/3500VP6000FT BR CLR 08/07 A3024 RMK AO2 T00830067=
201809260953 METAR KBLI 260953Z AUTO 00000KT 8SM CLR 08/07 A3024 RMK AO2 SLP248 T00830067=
201809260930 SPECI KBLI 260930Z AUTO 00000KT 5SM BR FEW006 09/07 A3024 RMK AO2 T00890067=
201809260907 SPECI KBLI 260907Z AUTO 00000KT 4SM BR CLR 09/07 A3024 RMK AO2 T00890072=
201809260856 SPECI KBLI 260856Z AUTO 00000KT 1 1/2SM R16/4000VP6000FT BR CLR 08/07 A3024 RMK AO2 T00830067=
201809260853 METAR KBLI 260853Z AUTO 00000KT 8SM R16/4000VP6000FT CLR 09/07 A3024 RMK AO2 SLP248 T00890072 50001=
201809260829 SPECI KBLI 260829Z AUTO 00000KT 3SM BR CLR 09/07 A3025 RMK AO2 T00890072=
201809260820 SPECI KBLI 260820Z AUTO 00000KT 1 3/4SM R16/4500VP6000FT BR CLR 09/07 A3024 RMK AO2 VIS 1/2V5 T00940072=
201809260753 METAR KBLI 260753Z AUTO 00000KT 10SM R16/6000VP6000FT CLR 09/07 A3025 RMK AO2 SLP249 T00890072 401830050=
201809260653 METAR KBLI 260653Z AUTO 00000KT 5SM R16/6000VP6000FT BR CLR 10/08 A3025 RMK AO2 SLP250 T01000083=
201809260553 METAR KBLI 260553Z AUTO 00000KT 10SM CLR 11/09 A3024 RMK AO2 SLP247 T01060089 10178 20094 51002=
201809260453 METAR KBLI 260453Z 00000KT 10SM CLR 11/09 A3024 RMK AO2 SLP246 T01060089=
201809260353 METAR KBLI 260353Z 00000KT 10SM CLR 11/09 A3024 RMK AO2 SLP246 T01110089=
201809260253 METAR KBLI 260253Z 00000KT 10SM CLR 12/10 A3023 RMK AO2 SLP246 T01220100 58007=
201809260153 METAR KBLI 260153Z 00000KT 10SM CLR 14/11 A3024 RMK AO2 SLP246 T01440106=
201809260053 METAR KBLI 260053Z VRB04KT 10SM CLR 17/09 A3025 RMK AO2 SLP251 T01720094=
201809252353 METAR KBLI 252353Z 26005KT 10SM CLR 17/11 A3025 RMK AO2 SLP252 T01720106 10183 20144 56008=
201809252253 METAR KBLI 252253Z VRB05KT 10SM CLR 18/11 A3026 RMK AO2 SLP253 T01780111=
201809252153 METAR KBLI 252153Z 27007KT 10SM CLR 18/11 A3027 RMK AO2 SLP258 T01780106=
201809252053 METAR KBLI 252053Z 27007KT 10SM FEW028 18/11 A3028 RMK AO2 SLP260 T01780106 58012=
201809251953 METAR KBLI 251953Z 35004KT 10SM SCT021 17/10 A3029 RMK AO2 SLP264 T01670100=
201809251853 METAR KBLI 251853Z 35004KT 10SM CLR 16/10 A3031 RMK AO2 SLP269 T01610100=
201809251753 METAR KBLI 251753Z VRB05KT 10SM CLR 14/09 A3031 RMK AO2 SLP272 T01440089 10144 20050 53005=
201809251653 METAR KBLI 251653Z 03005KT 10SM CLR 12/09 A3031 RMK AO2 SLP271 T01170089=
201809251607 SPECI KBLI 251607Z 00000KT 10SM FEW002 09/07 A3030 RMK AO2 T00940072=
201809251553 METAR KBLI 251553Z 00000KT 7SM SCT002 09/07 A3030 RMK AO2 SLP268 VIS N-NW 2 T00890067=
201809251549 SPECI KBLI 251549Z 01003KT 7SM SCT002 09/07 A3030 RMK AO2 VIS N-NW 2=
201809251526 SPECI KBLI 251526Z 02003KT 1/2SM R16/1400V5000FT FG SCT002 08/06 A3030 RMK AO2 VIS S 7 T00780056=
201809251453 METAR KBLI 251453Z 00000KT 10SM FEW007 07/04 A3030 RMK AO2 SLP267 T00670044 53001=
201809251431 SPECI KBLI 251431Z 00000KT 5SM R16/2000VP6000FT BCFG FEW002 06/04 A3029 RMK AO2 T00560044=
201809251424 SPECI KBLI 251424Z 00000KT 5SM R16/1800V2200FT BCFG FEW002 06/04 A3029 RMK AO2 T00560044=
201809251422 SPECI KBLI 251422Z 00000KT 3SM R16/1800V2200FT BCFG FEW002 06/04 A3029 RMK AO2 T00560044=
201809251354 SPECI KBLI 251354Z 00000KT 1/2SM R16/1600VP6000FT BCFG SCT001 06/04 A3029 RMK AO2 T00610044=
201809251353 METAR KBLI 251353Z 00000KT 1SM R16/1800VP6000FT BCFG SCT001 06/04 A3029 RMK AO2 SLP265 T00610044=
201809251335 SPECI KBLI 251335Z AUTO 00000KT 1/2SM R16/1400V2400FT FG VV001 06/05 A3029 RMK AO2 T00610050=
201809251326 SPECI KBLI 251326Z AUTO 00000KT 1/2SM R16/1400VP6000FT FG VV002 07/05 A3029 RMK AO2 T00670050=
201809251321 SPECI KBLI 251321Z AUTO 00000KT 1 3/4SM R16/2000VP6000FT BR OVC003 07/05 A3030 RMK AO2 T00670050=
201809251314 SPECI KBLI 251314Z AUTO 00000KT 4SM R16/5500VP6000FT BR BKN003 06/04 A3030 RMK AO2 T00610044=
201809251257 SPECI KBLI 251257Z AUTO 00000KT 1SM R16/3500VP6000FT BR VV004 05/03 A3029 RMK AO2 T00500033=
201809251253 METAR KBLI 251253Z AUTO 00000KT 2 1/2SM BR CLR 05/03 A3029 RMK AO2 SLP266 T00500033=
201809251248 SPECI KBLI 251248Z AUTO 00000KT 9SM FEW001 05/03 A3029 RMK AO2=
201809251212 SPECI KBLI 251212Z AUTO 00000KT 3SM BR CLR 06/04 A3030 RMK AO2 T00560039=
201809251203 SPECI KBLI 251203Z AUTO 00000KT 1 1/2SM R16/2000VP6000FT BR CLR 05/04 A3030 RMK AO2 T00500039=
201809251153 METAR KBLI 251153Z AUTO 00000KT 9SM FEW002 06/04 A3029 RMK AO2 SLP265 T00610044 10094 20056 55002=
201809251130 SPECI KBLI 251130Z AUTO 00000KT 3SM BR SCT002 06/04 A3029 RMK AO2 T00560039=
201809251126 SPECI KBLI 251126Z AUTO 00000KT 1 1/4SM R16/4000VP6000FT BR SCT002 06/04 A3029 RMK AO2 T00560039=
201809251119 SPECI KBLI 251119Z AUTO 00000KT 3/4SM R16/3500VP6000FT BR VV002 06/04 A3029 RMK AO2 T00560039=
201809251110 SPECI KBLI 251110Z AUTO 00000KT 1SM R16/2200VP6000FT BR VV002 07/05 A3030 RMK AO2 VIS 1/2V5 T00670050=
201809251106 SPECI KBLI 251106Z AUTO 00000KT 2 1/2SM R16/3000VP6000FT BR SCT001 07/05 A3030 RMK AO2 VIS 3/4V5 T00670050=
201809251102 SPECI KBLI 251102Z AUTO 00000KT 3SM R16/5000VP6000FT BR BKN001 07/06 A3029 RMK AO2 T00720056=
201809251059 SPECI KBLI 251059Z AUTO 00000KT 1SM R16/4000VP6000FT BR VV001 07/06 A3029 RMK AO2 VIS 1/2V5 T00720056=
201809251053 METAR KBLI 251053Z AUTO 00000KT 1/4SM R16/2000V5500FT FG VV001 07/06 A3029 RMK AO2 SLP264 T00720056=
201809251051 SPECI KBLI 251051Z AUTO 00000KT 1/4SM R16/1400V4500FT FG VV001 07/06 A3029 RMK AO2=
201809251019 SPECI KBLI 251019Z AUTO 00000KT 1/2SM R16/1600V1800FT FG VV001 07/06 A3031 RMK AO2 T00720061=
201809251014 SPECI KBLI 251014Z AUTO 00000KT 1SM R16/1600V4000FT BR VV001 07/05 A3031 RMK AO2 T00670050=
201809251008 SPECI KBLI 251008Z AUTO 00000KT 1 3/4SM R16/2000VP6000FT BR SCT002 07/05 A3030 RMK AO2 T00670050=
201809250953 METAR KBLI 250953Z AUTO 00000KT 7SM FEW002 06/04 A3030 RMK AO2 SLP267 T00610044=
201809250901 SPECI KBLI 250901Z AUTO 00000KT 3SM BR SCT001 08/06 A3029 RMK AO2 T00780061=
201809250859 SPECI KBLI 250859Z AUTO 00000KT 1SM R16/P6000FT BR VV001 08/06 A3029 RMK AO2 T00780061=
201809250853 METAR KBLI 250853Z AUTO 00000KT 1/2SM R16/1400VP6000FT FG VV001 08/06 A3029 RMK AO2 SLP264 T00830061 50002=
201809250851 SPECI KBLI 250851Z AUTO 00000KT 1/2SM R16/1400VP6000FT FG VV001 08/06 A3029 RMK AO2=
201809250849 SPECI KBLI 250849Z AUTO 00000KT 1/2SM R16/1400VP6000FT FG CLR 08/06 A3029 RMK AO2=
201809250846 SPECI KBLI 250846Z AUTO 00000KT 1 1/2SM R16/1400VP6000FT BR CLR 07/06 A3029 RMK AO2 T00720056=
201809250811 SPECI KBLI 250811Z AUTO 00000KT 3SM BR CLR 08/07 A3029 RMK AO2 T00830067=
201809250803 SPECI KBLI 250803Z AUTO 00000KT 1 3/4SM BR CLR 08/07 A3029 RMK AO2 T00830067=
201809250753 METAR KBLI 250753Z AUTO 00000KT 8SM CLR 08/06 A3029 RMK AO2 SLP265 T00780061 401830061=
201809250653 METAR KBLI 250653Z AUTO 00000KT 5SM BR CLR 09/07 A3028 RMK AO2 SLP261 T00890072=
201809250553 METAR KBLI 250553Z AUTO 00000KT 10SM CLR 09/07 A3028 RMK AO2 SLP262 T00940072 10172 20089 52006=
201809250453 METAR KBLI 250453Z 00000KT 10SM CLR 09/08 A3028 RMK AO2 SLP260 T00940078=
201809250353 METAR KBLI 250353Z 00000KT 10SM CLR 11/08 A3027 RMK AO2 SLP257 T01060078=
201809250253 METAR KBLI 250253Z 00000KT 10SM CLR 11/08 A3026 RMK AO2 SLP255 T01110078 56006=
201809250153 METAR KBLI 250153Z 00000KT 10SM CLR 13/09 A3027 RMK AO2 SLP256 T01330089=
201809250053 METAR KBLI 250053Z 26004KT 10SM CLR 16/08 A3027 RMK AO2 SLP256 T01610083=
201809242353 METAR KBLI 242353Z VRB06KT 10SM CLR 17/09 A3028 RMK AO2 SLP261 T01670089 10183 20144 53000=
201809242253 METAR KBLI 242253Z 27008KT 10SM CLR 17/09 A3027 RMK AO2 SLP258 T01670089=
201809242153 METAR KBLI 242153Z VRB06KT 10SM SCT032 17/09 A3028 RMK AO2 SLP259 T01720094=
201809242053 METAR KBLI 242053Z 32006KT 10SM SCT037 BKN110 17/09 A3028 RMK AO2 SLP261 T01670094 58001=
201809241953 METAR KBLI 241953Z 02003KT 10SM FEW030 SCT100 18/08 A3029 RMK AO2 SLP264 T01780083=
201809241853 METAR KBLI 241853Z 01005KT 10SM FEW040 SCT100 16/08 A3029 RMK AO2 SLP264 T01610083=
201809241753 METAR KBLI 241753Z VRB03KT 10SM FEW045 16/09 A3029 RMK AO2 SLP262 T01560089 10156 20061 52008=
201809241655 METAR KBLI 241655Z COR 00000KT 10SM SCT045 13/09 A3028 RMK AO2 SLP259 T01280089=
201809241653 METAR KBLI 241653Z 00000KT 10SM CLR 13/09 A3028 RMK AO2 SLP259 T01280089=
201809241553 METAR KBLI 241553Z 00000KT 10SM SCT045 11/08 A3027 RMK AO2 SLP257 T01060083=
201809241453 METAR KBLI 241453Z 00000KT 10SM SCT044 09/08 A3026 RMK AO2 SLP254 T00890078 53012=
201809241353 METAR KBLI 241353Z 00000KT 10SM OVC043 08/06 A3024 RMK AO2 SLP249 T00780061=
201809241253 METAR KBLI 241253Z AUTO 00000KT 10SM OVC042 07/06 A3023 RMK AO2 SLP243 T00670056 $=
201809241153 METAR KBLI 241153Z AUTO 00000KT 10SM FEW002 06/04 A3022 RMK AO2 SLP242 T00610044 10094 20061 53007 $=
201809241143 SPECI KBLI 241143Z AUTO 00000KT 10SM FEW002 07/05 A3022 RMK AO2 T00670050 $=
201809241136 SPECI KBLI 241136Z AUTO 00000KT 2 1/2SM BR FEW002 06/04 A3022 RMK AO2 T00610044 $=
201809241122 SPECI KBLI 241122Z AUTO 00000KT 3SM BR FEW002 07/05 A3022 RMK AO2 T00670050 $=
201809241119 SPECI KBLI 241119Z AUTO 00000KT 1 1/4SM R16/4500VP6000FT BR FEW002 07/05 A3022 RMK AO2 T00670050 $=
201809241112 SPECI KBLI 241112Z AUTO 00000KT 1 1/2SM R16/4500VP6000FT BR CLR 07/05 A3022 RMK AO2 T00720050 $=
201809241105 SPECI KBLI 241105Z AUTO 00000KT 9SM CLR 08/06 A3022 RMK AO2 T00780061 $=
201809241053 METAR KBLI 241053Z AUTO 00000KT 2 1/2SM BR CLR 07/06 A3021 RMK AO2 VIS 1 1/4V5 SLP239 T00720056 $=
201809240953 METAR KBLI 240953Z AUTO 00000KT 10SM CLR 07/06 A3021 RMK AO2 SLP236 T00720061 $=
201809240919 SPECI KBLI 240919Z AUTO 00000KT 3SM BR CLR 07/06 A3020 RMK AO2 T00720061 $=
201809240914 SPECI KBLI 240914Z AUTO 00000KT 1 3/4SM BR CLR 07/06 A3020 RMK AO2 VIS 1V3 T00720056 $=
201809240853 METAR KBLI 240853Z AUTO 00000KT 10SM CLR 08/06 A3020 RMK AO2 SLP234 T00780061 51005 $=
201809240753 METAR KBLI 240753Z AUTO 00000KT 10SM BKN045 08/07 A3020 RMK AO2 SLP232 T00830067 401560078 $=
201809240653 METAR KBLI 240653Z AUTO 00000KT 10SM FEW037 09/07 A3019 RMK AO2 SLP231 T00890072 $=
201809240553 METAR KBLI 240553Z AUTO 00000KT 10SM CLR 09/07 A3018 RMK AO2 SLP228 T00890072 10150 20089 50006 $=
201809240453 METAR KBLI 240453Z 00000KT 10SM BKN050 09/07 A3019 RMK AO2 SLP230 T00940072 $=
201809240353 METAR KBLI 240353Z 00000KT 10SM CLR 09/07 A3018 RMK AO2 SLP226 T00940072 $=
201809240253 METAR KBLI 240253Z 00000KT 10SM CLR 12/09 A3017 RMK AO2 SLP222 T01170089 55002 $=
201809240153 METAR KBLI 240153Z 00000KT 10SM OVC070 14/09 A3016 RMK AO2 SLP221 T01440089 $=
201809240053 METAR KBLI 240053Z 00000KT 10SM BKN055 BKN075 15/07 A3017 RMK AO2 SLP222 T01500072 $=
201809232353 METAR KBLI 232353Z 00000KT 10SM OVC044 14/08 A3017 RMK AO2 SLP224 60000 T01440078 10156 20139 50001 $=
201809232253 METAR KBLI 232253Z VRB04KT 10SM OVC042 15/08 A3018 RMK AO2 SLP226 T01500078 $=
201809232153 METAR KBLI 232153Z 16006KT 10SM OVC046 15/08 A3017 RMK AO2 RAB00E24 SLP225 P0000 T01500078 $=
201809232053 METAR KBLI 232053Z 18004KT 10SM OVC047 14/08 A3017 RMK AO2 SLP223 T01440078 50002 $=
201809231953 METAR KBLI 231953Z 16004KT 10SM OVC050 14/08 A3017 RMK AO2 SLP223 T01440083 $=
201809231853 METAR KBLI 231853Z 16009KT 10SM OVC050 14/08 A3017 RMK AO2 SLP222 T01390083 $=
201809231753 METAR KBLI 231753Z 18008KT 10SM SCT020 SCT048 OVC055 14/09 A3016 RMK AO2 SLP221 60000 T01390089 10139 20122 51019 $=
201809231653 METAR KBLI 231653Z 17005KT 10SM OVC060 13/09 A3015 RMK AO2 SLP216 T01330089 $=
201809231553 METAR KBLI 231553Z VRB05KT 10SM SCT040 OVC060 13/09 A3013 RMK AO2 SLP208 T01280094 $=
201809231453 METAR KBLI 231453Z 17005KT 10SM FEW033 OVC060 13/09 A3011 RMK AO2 SLP202 60000 T01280089 53011 $=
201809231353 METAR KBLI 231353Z 17006KT 10SM FEW029 BKN036 OVC060 13/08 A3009 RMK AO2 SLP198 T01280083 $=
201809231253 METAR KBLI 231253Z AUTO 18006KT 10SM OVC044 12/08 A3008 RMK AO2 RAE20B40E50 SLP192 P0000 T01220083 $=
201809231153 METAR KBLI 231153Z AUTO 17005KT 10SM -RA FEW025 OVC042 13/08 A3007 RMK AO2 RAE09B40 SLP189 P0001 60002 70014 T01280083 10139 20122 51010 $=
201809231100 SPECI KBLI 231100Z AUTO 17006KT 10SM -RA SCT023 OVC036 13/09 A3006 RMK AO2 P0000 T01280089 $=
201809231053 METAR KBLI 231053Z AUTO 16006KT 10SM -RA BKN023 OVC034 12/09 A3006 RMK AO2 SLP187 P0001 T01220089 $=
201809230953 METAR KBLI 230953Z AUTO 16009KT 10SM -RA BKN022 BKN029 OVC039 13/09 A3006 RMK AO2 RAB53 SLP184 P0000 T01280089=
201809230919 SPECI KBLI 230919Z AUTO VRB04KT 10SM BKN025 OVC038 13/08 A3005 RMK AO2 T01330083=
201809230853 METAR KBLI 230853Z AUTO 19008KT 160V230 10SM OVC033 13/08 A3004 RMK AO2 SLP179 60000 T01330083 53012=
201809230753 METAR KBLI 230753Z AUTO VRB06KT 10SM OVC060 13/08 A3003 RMK AO2 SLP174 T01330078 401780133=
201809230653 METAR KBLI 230653Z AUTO 17004KT 10SM SCT070 OVC090 13/08 A3001 RMK AO2 RAE17 SLP169 P0000 T01330083=
201809230553 METAR KBLI 230553Z AUTO 16008KT 10SM -RA OVC042 14/08 A3001 RMK AO2 RAB52 SLP167 P0000 60000 T01390083 10172 20139 51020=
201809230453 METAR KBLI 230453Z 17005KT 10SM OVC036 14/08 A2999 RMK AO2 RAB20E29 SLP161 P0000 T01390083=
201809230353 METAR KBLI 230353Z 14008KT 10SM BKN040 BKN047 OVC080 14/09 A2997 RMK AO2 RAB07E30 SLP154 P0000 T01390094=
201809230253 METAR KBLI 230253Z 17004KT 10SM FEW006 BKN017 BKN032 14/12 A2995 RMK AO2 LTG DSNT N SLP147 T01390117 53017=
201809230153 METAR KBLI 230153Z 20005KT 10SM BKN017 BKN032 OVC090 15/12 A2994 RMK AO2 SLP143 T01500122=
201809230053 METAR KBLI 230053Z 17010KT 10SM FEW030 SCT060 BKN090 16/11 A2991 RMK AO2 SLP133 T01610111=
201809222353 METAR KBLI 222353Z 16007KT 10SM FEW030 BKN090 17/11 A2990 RMK AO2 SLP131 60005 T01670111 10178 20150 53008=
201809222253 METAR KBLI 222253Z 16010KT 10SM FEW030 SCT080 18/12 A2988 RMK AO2 SLP124 T01780117=
201809222153 METAR KBLI 222153Z 16009G14KT 10SM FEW025 BKN085 17/13 A2987 RMK AO2 RAE13 SLP121 P0001 T01720128=
201809222053 METAR KBLI 222053Z 17008KT 10SM -RA FEW015 SCT025 BKN065 17/13 A2987 RMK AO2 RAE33B51 SLP122 P0000 60004 T01670133 53002=
201809221953 METAR KBLI 221953Z 15013KT 10SM -RA FEW015 SCT025 BKN060 17/14 A2987 RMK AO2 RAB02 SLP121 P0003 T01720144=
201809221853 METAR KBLI 221853Z 15008KT 10SM BKN024 BKN070 16/13 A2987 RMK AO2 RAE21B43E53 SLP120 P0001 T01560133=
201809221753 METAR KBLI 221753Z 15010KT 10SM -RA SCT015 BKN060 BKN070 15/13 A2985 RMK AO2 SLP115 VIS NE-S 3SM P0005 60007 T01500133 10167 20150 53017=
201809221653 METAR KBLI 221653Z 16011G18KT 9SM -RA FEW015 SCT060 OVC070 15/13 A2983 RMK AO2 SLP107 P0002 T01500128=
201809221553 METAR KBLI 221553Z 16012G22KT 10SM -RA OVC018 16/12 A2981 RMK AO2 RAB23 SLP101 P0000 T01560122=
201809221453 METAR KBLI 221453Z 15011G23KT 10SM OVC022 17/11 A2980 RMK AO2 SLP097 60000 T01670111 53007=
201809221353 METAR KBLI 221353Z 16011G20KT 10SM OVC023 17/12 A2978 RMK AO2 SLP091 T01670117=
201809221253 METAR KBLI 221253Z AUTO 16010G19KT 10SM OVC025 17/12 A2978 RMK AO2 RAB06E16 SLP090 P0000 T01670117=
201809221222 SPECI KBLI 221222Z AUTO 16009G18KT 10SM BKN028 OVC033 17/12 A2978 RMK AO2 RAB06E16 P0000 T01670117=
201809221212 SPECI KBLI 221212Z AUTO 16012G20KT 10SM -RA FEW027 OVC031 17/12 A2978 RMK AO2 RAB06 P0000 T01670117=
201809221153 METAR KBLI 221153Z AUTO 15012G22KT 10SM BKN026 OVC031 17/12 A2978 RMK AO2 RAB03E31 SLP090 P0000 60000 70012 T01670117 10172 20161 58003=
201809221146 SPECI KBLI 221146Z AUTO 15014G22KT 10SM BKN026 BKN031 OVC085 17/12 A2978 RMK AO2 RAB03E31 P0000 T01670117=
201809221132 SPECI KBLI 221132Z AUTO 15013G19KT 10SM SCT026 BKN031 OVC085 16/12 A2979 RMK AO2 RAB03E31 P0000 T01610117=
201809221053 METAR KBLI 221053Z AUTO 17014G21KT 10SM OVC022 17/12 A2979 RMK AO2 SLP094 T01670117=
201809220953 METAR KBLI 220953Z AUTO 16013G20KT 10SM OVC026 17/12 A2980 RMK AO2 RAE31 SLP095 P0000 T01670117=
201809220853 METAR KBLI 220853Z AUTO 16012G21KT 10SM -RA SCT022 BKN028 OVC085 16/12 A2979 RMK AO2 PK WND 15028/0825 RAB47 SLP093 P0000 60000 T01610122 53002=
201809220753 METAR KBLI 220753Z AUTO 15020G26KT 10SM BKN020 OVC090 17/12 A2977 RMK AO2 PK WND 15027/0721 SLP086 T01670122 401830122=
201809220653 METAR KBLI 220653Z AUTO 16011G18KT 10SM OVC022 17/12 A2978 RMK AO2 SLP090 T01670122=
201809220553 METAR KBLI 220553Z AUTO 17007KT 10SM OVC027 17/12 A2978 RMK AO2 RAE46 SLP090 P0001 60004 T01670122 10183 20144 58007=
201809220540 SPECI KBLI 220540Z AUTO 16007KT 10SM -RA BKN026 OVC038 17/13 A2978 RMK AO2 P0001 T01670128=
201809220453 METAR KBLI 220453Z VRB06KT 10SM -RA SCT026 OVC040 17/13 A2979 RMK AO2 SLP093 P0002 T01670128=
201809220353 METAR KBLI 220353Z 11005KT 10SM -RA SCT034 BKN060 OVC090 17/12 A2980 RMK AO2 RAB28 SLP097 P0001 T01670122=
201809220253 METAR KBLI 220253Z 15011G20KT 120V180 10SM SCT038 BKN065 OVC085 18/12 A2980 RMK AO2 SLP098 60000 T01830117 55008=
201809220153 METAR KBLI 220153Z 11006KT 10SM SCT080 BKN100 17/12 A2980 RMK AO2 SLP096 T01720122=
201809220053 METAR KBLI 220053Z VRB03KT 10SM OVC100 15/13 A2981 RMK AO2 RAE23 SLP100 P0000 T01500133=
201809212353 METAR KBLI 212353Z 35003KT 9SM -RA OVC095 14/13 A2983 RMK AO2 SLP107 P0005 60006 T01440128 10172 20144 56023=
201809212253 METAR KBLI 212253Z 10008KT 10SM -RA OVC095 16/13 A2984 RMK AO2 SLP110 P0001 T01560128=
201809212153 METAR KBLI 212153Z 05006KT 10SM -RA FEW036 OVC100 16/13 A2987 RMK AO2 RAB37 SLP120 P0000 T01560128=
201809212053 METAR KBLI 212053Z 03004KT 10SM SCT034 BKN055 BKN090 17/13 A2990 RMK AO2 SLP130 T01670133 56017=
201809211953 METAR KBLI 211953Z 03003KT 10SM OVC038 16/13 A2990 RMK AO2 SLP133 T01560128=
201809211853 METAR KBLI 211853Z 15005KT 10SM OVC032 17/12 A2992 RMK AO2 SLP138 T01670117=
201809211753 METAR KBLI 211753Z 16003KT 10SM SCT030 OVC039 16/12 A2995 RMK AO2 SLP146 60002 T01560122 10156 20122 58008=
201809211653 METAR KBLI 211653Z 00000KT 10SM OVC039 14/13 A2996 RMK AO2 SLP152 T01440128=
201809211553 METAR KBLI 211553Z 00000KT 10SM BKN040 OVC065 13/12 A2996 RMK AO2 SLP153 T01330117=
201809211453 METAR KBLI 211453Z 31003KT 10SM BKN038 OVC070 12/11 A2997 RMK AO2 SLP155 60002 T01220111 56008=
201809211353 METAR KBLI 211353Z AUTO 00000KT 10SM OVC037 13/11 A2997 RMK AO2 SLP157 T01280111=
201809211253 METAR KBLI 211253Z AUTO 09007KT 10SM BKN035 OVC044 12/11 A2998 RMK AO2 RAE43 SLP159 P0002 T01220106=
201809211231 SPECI KBLI 211231Z AUTO 07006KT 10SM -RA OVC031 12/11 A2999 RMK AO2 P0002 T01220106=
201809211207 SPECI KBLI 211207Z AUTO 35006KT 7SM -RA OVC029 12/11 A3000 RMK AO2 P0001 T01220106=
201809211153 METAR KBLI 211153Z AUTO 01005KT 8SM -RA OVC030 12/11 A2999 RMK AO2 RAB31 SLP164 P0001 60014 70019 T01220106 10128 20122 55000=
201809211053 METAR KBLI 211053Z AUTO 00000KT 10SM BKN034 BKN042 OVC050 12/11 A2998 RMK AO2 RAE49 SLP158 P0002 T01220106=
201809210953 METAR KBLI 210953Z AUTO 34003KT 6SM -RA BR OVC035 12/11 A2999 RMK AO2 RAE0856B25 SLP161 P0001 T01220106=
201809210853 METAR KBLI 210853Z AUTO 35006KT 9SM -RA OVC034 12/11 A2999 RMK AO2 RAB03 SLP164 P0003 60010 T01220106 58011=
201809210753 METAR KBLI 210753Z AUTO 33003KT 10SM FEW033 OVC040 12/11 A3000 RMK AO2 RAE46 SLP167 P0005 T01220111 401560117=
201809210653 METAR KBLI 210653Z AUTO 36005KT 10SM -RA OVC040 12/11 A3003 RMK AO2 SLP174 P0002 T01220106=
201809210553 METAR KBLI 210553Z AUTO 03006KT 10SM -RA OVC039 13/11 A3003 RMK AO2 RAB27 SLP175 P0001 60003 T01280106 10150 20128 56016=
201809210453 METAR KBLI 210453Z 01004KT 8SM BKN044 OVC060 13/11 A3004 RMK AO2 RAE07 SLP179 P0000 T01280111=
201809210353 METAR KBLI 210353Z 02005KT 7SM -RA SCT040 BKN047 OVC055 13/11 A3006 RMK AO2 SLP186 P0001 T01280111=
201809210253 METAR KBLI 210253Z 04005KT 8SM -RA FEW020 BKN045 OVC070 13/11 A3007 RMK AO2 SLP191 P0001 60001 T01330111 56014=
201809210153 METAR KBLI 210153Z 03005KT 10SM -RA FEW010 SCT060 OVC090 13/11 A3009 RMK AO2 RAB03 SLP195 P0000 T01330111=
201809210053 METAR KBLI 210053Z 03006KT 10SM OVC070 14/11 A3010 RMK AO2 RAE2356B15E35 SLP199 P0000 T01390111=
201809202353 METAR KBLI 202353Z 04004KT 10SM -RA FEW010 OVC080 15/11 A3012 RMK AO2 RAE05B37 SLP205 P0000 60002 T01500106 10156 20139 58004=
201809202253 METAR KBLI 202253Z 02004KT 10SM -RA FEW010 OVC070 15/12 A3013 RMK AO2 SLP208 P0002 T01500117=
201809202153 METAR KBLI 202153Z 00000KT 10SM -RA OVC075 14/10 A3013 RMK AO2 RAB07 SLP211 P0000 T01440100=
201809202053 METAR KBLI 202053Z 19005KT 10SM SCT050 BKN065 OVC075 15/09 A3013 RMK AO2 RAB22E45 SLP209 P0000 60000 T01500094 55003=
201809201953 METAR KBLI 201953Z VRB06KT 10SM FEW037 BKN100 16/09 A3012 RMK AO2 SLP208 T01560094=
201809201853 METAR KBLI 201853Z 16009KT 10SM FEW120 16/10 A3012 RMK AO2 SLP206 T01560100=
201809201753 METAR KBLI 201753Z 16008KT 10SM SCT120 14/10 A3014 RMK AO2 SLP212 T01390100 10139 20122 50005=
201809201653 METAR KBLI 201653Z VRB06KT 10SM SCT013 SCT075 14/11 A3014 RMK AO2 SLP213 T01390106=
201809201553 METAR KBLI 201553Z 16008KT 10SM SCT011 SCT075 14/11 A3013 RMK AO2 SLP209 T01390111=
201809201453 METAR KBLI 201453Z 16004KT 10SM FEW010 BKN043 13/11 A3012 RMK AO2 SLP206 T01280106 51012=
201809201353 METAR KBLI 201353Z AUTO 18004KT 10SM OVC025 12/11 A3012 RMK AO2 SLP205 T01220106=
201809201306 SPECI KBLI 201306Z AUTO 17003KT 10SM BKN029 OVC037 12/11 A3010 RMK AO2 T01220106=
201809201253 METAR KBLI 201253Z AUTO 16003KT 10SM BKN030 OVC035 13/11 A3010 RMK AO2 SLP197 T01280111=
201809201244 SPECI KBLI 201244Z AUTO 00000KT 10SM BKN030 OVC036 13/11 A3010 RMK AO2 T01280111=
201809201153 METAR KBLI 201153Z AUTO 00000KT 9SM BKN020 OVC032 13/11 A3009 RMK AO2 RAB1056E25 SLP194 P0001 60004 70005 T01280111 10139 20117 53003=
201809201135 SPECI KBLI 201135Z AUTO 00000KT 8SM SCT022 OVC034 13/11 A3008 RMK AO2 RAB1056E25 P0001 T01280111=
201809201053 METAR KBLI 201053Z AUTO 00000KT 10SM OVC022 13/12 A3008 RMK AO2 RAE51 SLP193 P0003 T01280117=
201809201025 SPECI KBLI 201025Z AUTO 18004KT 6SM -RA BR FEW004 BKN022 OVC030 13/11 A3008 RMK AO2 P0003 T01280111=
201809201012 SPECI KBLI 201012Z AUTO 00000KT 5SM -RA BR SCT022 BKN028 OVC039 12/11 A3008 RMK AO2 P0002 T01220111=
201809200953 METAR KBLI 200953Z AUTO 00000KT 7SM -RA BKN040 BKN049 OVC070 13/11 A3007 RMK AO2 RAB51 SLP190 P0000 T01280106=
201809200853 METAR KBLI 200853Z AUTO 00000KT 10SM SCT039 OVC075 12/11 A3008 RMK AO2 SLP191 T01220106 53003=
201809200753 METAR KBLI 200753Z AUTO 00000KT 10SM FEW043 BKN080 12/10 A3007 RMK AO2 SLP190 T01170100 401830067=
201809200653 METAR KBLI 200653Z AUTO 00000KT 10SM OVC080 13/10 A3007 RMK AO2 SLP190 T01330100=
201809200553 METAR KBLI 200553Z AUTO 19003KT 10SM OVC075 14/10 A3007 RMK AO2 SLP189 60001 T01390100 10178 20139 50006=
201809200453 METAR KBLI 200453Z 17004KT 10SM OVC070 14/10 A3007 RMK AO2 RAB22E46 SLP189 P0001 T01390100=
201809200353 METAR KBLI 200353Z 16007KT 10SM BKN035 OVC075 15/10 A3006 RMK AO2 SLP187 T01500100=
201809200253 METAR KBLI 200253Z 17005KT 10SM OVC065 16/10 A3005 RMK AO2 SLP182 T01560100 53002=
201809200153 METAR KBLI 200153Z 16006KT 10SM BKN070 OVC090 16/10 A3004 RMK AO2 SLP181 T01560100=
201809200053 METAR KBLI 200053Z 17008KT 10SM FEW075 OVC110 17/09 A3004 RMK AO2 SLP179 T01670089=
201809192353 METAR KBLI 192353Z 17007KT 10SM SCT110 18/06 A3004 RMK AO2 SLP180 T01780061 10183 20133 56006=
201809192253 METAR KBLI 192253Z 18006KT 10SM SCT120 18/07 A3004 RMK AO2 SLP180 T01780067=
201809192153 METAR KBLI 192153Z 17007KT 10SM CLR 18/07 A3006 RMK AO2 SLP184 T01780067=
201809192053 METAR KBLI 192053Z 18007KT 10SM CLR 17/09 A3006 RMK AO2 SLP186 T01670089 58012=
201809191953 METAR KBLI 191953Z 18006KT 10SM CLR 16/09 A3007 RMK AO2 SLP190 T01610089=
201809191853 METAR KBLI 191853Z 18007KT 10SM CLR 14/09 A3009 RMK AO2 SLP195 T01440094=
201809191753 METAR KBLI 191753Z 16008KT 10SM CLR 13/09 A3009 RMK AO2 SLP198 T01330094 10139 20067 58001=
201809191653 METAR KBLI 191653Z VRB04KT 10SM SCT005 12/09 A3010 RMK AO2 SLP198 T01220094=
201809191553 METAR KBLI 191553Z 17006KT 10SM SCT006 11/09 A3010 RMK AO2 SLP198 T01110089=
201809191548 SPECI KBLI 191548Z 16005KT 10SM SCT006 11/09 A3010 RMK AO2=
201809191453 METAR KBLI 191453Z 00000KT 10SM CLR 08/07 A3009 RMK AO2 SLP196 T00830067 53005=
201809191353 METAR KBLI 191353Z 00000KT 10SM R16/2800VP6000FT CLR 07/06 A3008 RMK AO2 SLP192 DRFG T00720056=
201809191347 SPECI KBLI 191347Z 00000KT 1 1/2SM R16/2000VP6000FT BR FEW002 07/06 A3008 RMK AO2=
201809191253 METAR KBLI 191253Z AUTO 00000KT 10SM CLR 07/06 A3007 RMK AO2 SLP189 T00720056=
201809191153 METAR KBLI 191153Z AUTO 00000KT 4SM BR SCT003 08/06 A3007 RMK AO2 SLP190 T00780061 10094 20072 51004=
201809191053 METAR KBLI 191053Z AUTO 00000KT 10SM FEW002 08/06 A3007 RMK AO2 SLP189 T00780061=
201809191041 SPECI KBLI 191041Z AUTO 00000KT 10SM SCT002 07/06 A3007 RMK AO2 T00720056=
201809190953 METAR KBLI 190953Z AUTO 00000KT 10SM CLR 08/06 A3007 RMK AO2 SLP188 T00830061=
201809190910 SPECI KBLI 190910Z AUTO 00000KT 5SM BR CLR 08/07 A3006 RMK AO2 T00830067=
201809190906 SPECI KBLI 190906Z AUTO 00000KT 1 1/2SM BR CLR 08/07 A3006 RMK AO2 T00830067=
201809190853 METAR KBLI 190853Z AUTO 00000KT 10SM CLR 09/07 A3006 RMK AO2 SLP186 T00890067 56001=
201809190753 METAR KBLI 190753Z AUTO 00000KT 10SM CLR 09/07 A3006 RMK AO2 SLP187 T00890072 401780072=
201809190653 METAR KBLI 190653Z AUTO 00000KT 10SM CLR 09/07 A3006 RMK AO2 SLP185 T00890072=
201809190553 METAR KBLI 190553Z AUTO 00000KT 10SM CLR 09/07 A3006 RMK AO2 SLP187 T00890072 10172 20089 58003=
201809190453 METAR KBLI 190453Z 00000KT 10SM CLR 09/08 A3007 RMK AO2 SLP190 T00940078=
201809190353 METAR KBLI 190353Z 00000KT 10SM CLR 11/08 A3007 RMK AO2 SLP190 T01060083=
201809190253 METAR KBLI 190253Z 00000KT 10SM CLR 11/08 A3007 RMK AO2 SLP191 T01110078 55001=
201809190153 METAR KBLI 190153Z 28003KT 10SM CLR 14/08 A3007 RMK AO2 SLP188 T01440083=
201809190053 METAR KBLI 190053Z 29005KT 10SM CLR 17/08 A3007 RMK AO2 SLP189 T01670078=
201809182353 METAR KBLI 182353Z 29006KT 10SM CLR 17/09 A3008 RMK AO2 SLP191 T01720089 10178 20128 56013=
201809182253 METAR KBLI 182253Z 27007KT 10SM CLR 17/09 A3008 RMK AO2 SLP193 T01720089=
201809182153 METAR KBLI 182153Z 28007KT 10SM CLR 17/09 A3010 RMK AO2 SLP199 T01670094=
201809182053 METAR KBLI 182053Z 28006KT 10SM CLR 16/09 A3011 RMK AO2 SLP204 T01610094 58005=
201809181953 METAR KBLI 181953Z 25004KT 10SM SCT021 17/09 A3012 RMK AO2 SLP206 T01670094=
201809181853 METAR KBLI 181853Z 26004KT 10SM SCT021 15/08 A3013 RMK AO2 SLP209 T01500083=
201809181850 SPECI KBLI 181850Z VRB03KT 10SM SCT021 15/08 A3013 RMK AO2=
201809181753 METAR KBLI 181753Z 29004KT 10SM BKN012 14/09 A3014 RMK AO2 SLP212 T01390089 10144 20072 51001=
201809181653 METAR KBLI 181653Z 32003KT 10SM BKN011 13/09 A3013 RMK AO2 SLP211 T01330094=
201809181553 METAR KBLI 181553Z 00000KT 10SM BKN012 11/08 A3014 RMK AO2 SLP212 T01060083=
201809181453 METAR KBLI 181453Z 00000KT 10SM OVC013 08/07 A3013 RMK AO2 SLP210 T00830067 51007=
201809181353 METAR KBLI 181353Z 00000KT 10SM R16/2200VP6000FT BCFG SCT013 08/06 A3013 RMK AO2 SLP209 T00780061=
201809181349 SPECI KBLI 181349Z 00000KT 10SM BCFG SCT013 08/07 A3013 RMK AO2=
201809181335 SPECI KBLI 181335Z 00000KT 1 1/2SM BR OVC014 08/07 A3012 RMK AO2 VIS 3/4V5 T00830067=
201809181253 METAR KBLI 181253Z AUTO 00000KT 10SM OVC014 09/07 A3012 RMK AO2 SLP205 T00890072=
201809181153 METAR KBLI 181153Z AUTO 00000KT 10SM OVC013 10/08 A3011 RMK AO2 SLP204 T01000083 10106 20078 58001=
201809181053 METAR KBLI 181053Z AUTO 00000KT 10SM OVC013 10/08 A3011 RMK AO2 SLP204 T01000083=
201809180953 METAR KBLI 180953Z AUTO 00000KT 10SM OVC012 10/08 A3011 RMK AO2 SLP204 T01000083=
201809180853 METAR KBLI 180853Z AUTO 00000KT 10SM BKN013 09/07 A3011 RMK AO2 SLP204 T00890072 53001=
201809180840 SPECI KBLI 180840Z AUTO 00000KT 10SM BKN014 08/06 A3011 RMK AO2 T00830061=
201809180753 METAR KBLI 180753Z AUTO 00000KT 10SM CLR 08/06 A3011 RMK AO2 SLP202 T00830061 401780078=
201809180653 METAR KBLI 180653Z AUTO 00000KT 10SM CLR 08/07 A3011 RMK AO2 SLP204 T00830067=
201809180553 METAR KBLI 180553Z AUTO 00000KT 9SM CLR 09/07 A3011 RMK AO2 SLP203 T00940072 10172 20083 50004=
201809180453 METAR KBLI 180453Z 00000KT 10SM CLR 09/08 A3011 RMK AO2 SLP204 T00940078=
201809180353 METAR KBLI 180353Z 00000KT 10SM CLR 10/08 A3011 RMK AO2 SLP203 T01000078=
201809180253 METAR KBLI 180253Z 00000KT 10SM CLR 11/08 A3010 RMK AO2 SLP199 T01110083 55002=
201809180153 METAR KBLI 180153Z 00000KT 10SM CLR 14/07 A3010 RMK AO2 SLP198 T01390067=
201809180053 METAR KBLI 180053Z VRB03KT 10SM CLR 17/04 A3010 RMK AO2 SLP198 T01670044=
201809172353 METAR KBLI 172353Z 30007KT 10SM CLR 17/06 A3011 RMK AO2 SLP200 T01720061 10178 20139 56007=
201809172253 METAR KBLI 172253Z VRB03KT 10SM CLR 17/06 A3011 RMK AO2 SLP203 T01720061=
201809172153 METAR KBLI 172153Z VRB03KT 10SM CLR 17/07 A3011 RMK AO2 SLP202 T01720072=
201809172053 METAR KBLI 172053Z 17006KT 10SM CLR 17/06 A3013 RMK AO2 SLP208 T01670061 58007=
201809171953 METAR KBLI 171953Z 14006KT 10SM FEW030 SCT070 16/07 A3015 RMK AO2 SLP214 T01610072=
201809171853 METAR KBLI 171853Z VRB06KT 10SM FEW010 SCT070 15/07 A3015 RMK AO2 SLP216 T01500067=
201809171755 METAR KBLI 171755Z COR 18009KT 10SM FEW010 SCT070 14/07 A3015 RMK AO2 SLP216 T01390072 10144 20111 51005=
201809171753 METAR KBLI 171753Z 22006KT 10SM CLR 14/07 A3015 RMK AO2 SLP216 T01390072 10144 20111 51005=
201809171653 METAR KBLI 171653Z 19004KT 10SM FEW010 FEW070 14/07 A3014 RMK AO2 SLP215 T01390072=
201809171553 METAR KBLI 171553Z 14006KT 10SM FEW010 FEW070 13/07 A3014 RMK AO2 SLP213 T01330072=
201809171453 METAR KBLI 171453Z 00000KT 10SM FEW015 SCT070 12/07 A3013 RMK AO2 SLP211 T01170072 51006=
201809171353 METAR KBLI 171353Z 16004KT 10SM BKN070 12/07 A3013 RMK AO2 SLP209 T01170072=
201809171253 METAR KBLI 171253Z AUTO 14005KT 10SM OVC070 12/08 A3012 RMK AO2 SLP208 T01220078=
201809171153 METAR KBLI 171153Z AUTO VRB03KT 10SM OVC070 12/08 A3012 RMK AO2 SLP205 70034 T01220078 10139 20122 53006=
201809171053 METAR KBLI 171053Z AUTO 17005KT 10SM OVC070 13/08 A3010 RMK AO2 SLP201 T01280078=
201809170953 METAR KBLI 170953Z AUTO 18006KT 10SM FEW060 OVC075 13/08 A3010 RMK AO2 SLP200 T01280078=
201809170853 METAR KBLI 170853Z AUTO VRB06KT 10SM OVC065 13/08 A3010 RMK AO2 SLP198 T01280078 51013=
201809170753 METAR KBLI 170753Z AUTO 19003KT 10SM SCT047 BKN060 13/07 A3009 RMK AO2 SLP194 T01330072 401720128=
201809170653 METAR KBLI 170653Z AUTO 17007KT 10SM OVC065 14/08 A3007 RMK AO2 SLP190 T01390083=
201809170553 METAR KBLI 170553Z AUTO 17007KT 10SM OVC060 14/08 A3006 RMK AO2 SLP186 T01390083 10156 20133 51020=
201809170453 METAR KBLI 170453Z 17005KT 10SM OVC065 14/08 A3004 RMK AO2 SLP180 T01390083=
201809170353 METAR KBLI 170353Z 17006KT 10SM BKN055 OVC110 14/09 A3002 RMK AO2 SLP173 T01390094=
201809170253 METAR KBLI 170253Z 16005KT 10SM BKN055 14/09 A3000 RMK AO2 SLP165 T01440089 53017=
201809170153 METAR KBLI 170153Z VRB05KT 10SM BKN075 15/09 A2998 RMK AO2 SLP159 T01500089=
201809170053 METAR KBLI 170053Z 17006KT 10SM FEW020 SCT040 BKN070 15/09 A2996 RMK AO2 SLP152 T01500094=
201809162353 METAR KBLI 162353Z VRB06KT 10SM BKN030 BKN055 14/09 A2995 RMK AO2 LTG DSNT SE SLP148 60014 T01440094 10172 20133 53020=
201809162253 METAR KBLI 162253Z 29004KT 6SM SCT013 BKN025 BKN055 14/12 A2993 RMK AO2 RAB06E53 SLP140 P0009 T01390117=
201809162237 SPECI KBLI 162237Z VRB04KT 4SM +RA BR BKN013 BKN025 OVC060 13/11 A2993 RMK AO2 LTG DSNT N RAB06 P0007 T01330111=
201809162153 METAR KBLI 162153Z 16004KT 10SM BKN025 BKN035 OVC060 15/12 A2990 RMK AO2 LTG DSNT N RAB08E48 SLP131 P0003 T01500117=
201809162059 SPECI KBLI 162059Z 17009KT 10SM FEW015 BKN026 OVC070 16/10 A2989 RMK AO2 T01560100=
201809162053 METAR KBLI 162053Z 17009KT 10SM FEW015 BKN026 OVC070 16/11 A2989 RMK AO2 SLP128 60002 T01560106 51017=
201809161953 METAR KBLI 161953Z 16012G19KT 10SM FEW015 SCT040 BKN060 16/11 A2987 RMK AO2 RAB20E50 SLP122 P0000 T01610106=
201809161853 METAR KBLI 161853Z 14009KT 10SM SCT015 BKN031 OVC042 14/11 A2987 RMK AO2 RAB1754E47 SLP120 P0002 T01440106=
201809161753 METAR KBLI 161753Z 16008KT 8SM SCT015 BKN031 OVC042 14/11 A2984 RMK AO2 RAE09 SLP112 P0001 60020 T01390106 10150 20128 53017=
201809161653 METAR KBLI 161653Z 14010KT 10SM -RA SCT021 BKN031 OVC055 13/11 A2982 RMK AO2 SLP105 P0012 T01330106=
201809161616 SPECI KBLI 161616Z 16009G14KT 4SM RA BR FEW020 SCT036 OVC050 13/11 A2981 RMK AO2 P0007 T01280111=
201809161553 METAR KBLI 161553Z 15010KT 7SM -RA SCT018 BKN025 OVC030 13/11 A2979 RMK AO2 RAB09 SLP096 P0004 T01280111=
201809161536 SPECI KBLI 161536Z 13009KT 2SM R16/6000VP6000FT -RA BR FEW017 BKN026 OVC030 13/11 A2979 RMK AO2 RAB09 P0002 T01280106=
201809161521 SPECI KBLI 161521Z 13014G19KT 9SM -RA OVC028 13/10 A2978 RMK AO2 RAB09 P0000 T01330100=
201809161453 METAR KBLI 161453Z 13015G18KT 10SM SCT030 OVC039 14/10 A2978 RMK AO2 RAE21 SLP090 P0001 60003 T01390100 55000=
201809161353 METAR KBLI 161353Z 10008KT 10SM -RA FEW030 BKN040 OVC070 14/09 A2977 RMK AO2 RAB01 SLP087 P0002 T01390094=
201809161253 METAR KBLI 161253Z AUTO 12008KT 10SM FEW042 OVC080 14/09 A2977 RMK AO2 RAB04E48 SLP087 P0000 T01440089=
201809161153 METAR KBLI 161153Z AUTO 12008KT 10SM SCT040 BKN050 OVC120 15/08 A2978 RMK AO2 SLP090 60000 70005 T01500083 10150 20139 56013=
201809161053 METAR KBLI 161053Z AUTO 12009G15KT 10SM FEW035 BKN044 OVC075 15/08 A2979 RMK AO2 SLP094 T01500083=
201809160953 METAR KBLI 160953Z AUTO 12007KT 10SM SCT037 BKN044 OVC070 15/08 A2980 RMK AO2 SLP097 T01500083=
201809160853 METAR KBLI 160853Z AUTO 11009G18KT 10SM SCT033 SCT044 OVC065 15/08 A2982 RMK AO2 RAB34E51 SLP103 P0000 60000 T01500083 58005=
201809160753 METAR KBLI 160753Z AUTO 11009KT 10SM BKN036 OVC046 15/09 A2982 RMK AO2 SLP105 T01500089 401780106=
201809160653 METAR KBLI 160653Z AUTO 11010KT 10SM OVC037 14/09 A2983 RMK AO2 SLP106 T01440089=
201809160553 METAR KBLI 160553Z AUTO 09006KT 10SM FEW030 BKN080 BKN100 14/09 A2983 RMK AO2 SLP108 60000 T01390094 10178 20139 50002=
201809160453 METAR KBLI 160453Z 12007KT 10SM BKN075 OVC100 14/10 A2984 RMK AO2 RAB28E46 SLP109 P0000 T01440100=
201809160353 METAR KBLI 160353Z 14004KT 10SM SCT035 BKN065 BKN080 15/10 A2983 RMK AO2 SLP109 T01500100=
201809160253 METAR KBLI 160253Z 14007KT 10SM FEW034 BKN055 OVC070 16/10 A2983 RMK AO2 RAE31 SLP107 P0000 60000 T01560100 56001=
201809160153 METAR KBLI 160153Z 17005KT 10SM -RA SCT030 OVC080 17/09 A2983 RMK AO2 RAB53 SLP107 P0000 T01670089=
201809160053 METAR KBLI 160053Z 14008KT 10SM BKN030 BKN075 17/09 A2983 RMK AO2 RAE11 SLP105 P0000 T01720094=
201809152356 SPECI KBLI 152356Z 15007KT 10SM -RA BKN025 BKN060 17/11 A2983 RMK AO2 P0000 T01720106=
201809152353 METAR KBLI 152353Z 15006KT 10SM -RA SCT025 BKN060 17/10 A2983 RMK AO2 RAB51 SLP107 P0000 60004 T01670100 10172 20144 56004=
201809152253 METAR KBLI 152253Z 14008KT 10SM BKN024 BKN070 17/11 A2983 RMK AO2 SLP108 T01670106=
201809152153 METAR KBLI 152153Z 15006KT 10SM SCT030 BKN040 BKN070 16/12 A2983 RMK AO2 RAE44 SLP109 P0000 T01610117=
201809152112 SPECI KBLI 152112Z 17006KT 10SM -RA SCT020 BKN027 OVC055 14/12 A2984 RMK AO2 P0000 T01440117=
201809152053 METAR KBLI 152053Z 17005KT 10SM -RA SCT020 BKN027 OVC041 14/12 A2984 RMK AO2 SLP112 P0002 60004 T01440117 56001=
201809152049 SPECI KBLI 152049Z 16006KT 10SM -RA SCT020 BKN027 OVC055 14/12 A2984 RMK AO2 P0002=
201809151953 METAR KBLI 151953Z 16007KT 10SM -RA SCT025 OVC050 15/11 A2984 RMK AO2 SLP111 P0001 T01500111=
201809151938 SPECI KBLI 151938Z 18006KT 10SM -RA BKN029 BKN035 OVC055 15/11 A2984 RMK AO2 P0001 T01500106=
201809151923 SPECI KBLI 151923Z 17007KT 10SM -RA SCT029 BKN035 OVC050 15/11 A2984 RMK AO2 P0000 T01500106=
201809151853 METAR KBLI 151853Z 17007KT 10SM -RA BKN029 OVC035 15/11 A2984 RMK AO2 SLP111 P0001 T01500106=
201809151753 METAR KBLI 151753Z 10004KT 10SM -RA BKN029 BKN040 OVC065 15/11 A2984 RMK AO2 RAB1654 SLP112 P0001 60001 T01500111 10150 20106 53000=
201809151653 METAR KBLI 151653Z 00000KT 10SM BKN029 OVC043 14/12 A2984 RMK AO2 RAB1558E34 SLP112 P0000 T01440117=
201809151553 METAR KBLI 151553Z 00000KT 10SM BKN047 OVC070 13/11 A2984 RMK AO2 RAB15E24 SLP112 P0000 T01280111=
201809151453 METAR KBLI 151453Z 02003KT 10SM OVC070 12/11 A2984 RMK AO2 RAB08E32 SLP112 P0000 60000 T01220106 56004=
201809151353 METAR KBLI 151353Z 00000KT 10SM BKN100 OVC120 11/10 A2984 RMK AO2 SLP112 T01110100=
201809151253 METAR KBLI 151253Z AUTO 00000KT 9SM FEW044 BKN110 11/09 A2985 RMK AO2 SLP114 T01110094=
201809151225 SPECI KBLI 151225Z AUTO 00000KT 7SM FEW044 BKN100 11/09 A2985 RMK AO2 T01110094=
201809151218 SPECI KBLI 151218Z AUTO 00000KT 2 1/2SM BR BKN100 11/09 A2985 RMK AO2 VIS 1 1/2V5 T01060094=
201809151206 SPECI KBLI 151206Z AUTO 00000KT 3SM BR FEW075 BKN100 11/10 A2985 RMK AO2 T01110100=
201809151159 SPECI KBLI 151159Z AUTO 00000KT 1 3/4SM R16/6000VP6000FT BR FEW075 BKN100 11/10 A2986 RMK AO2 T01110100=
201809151153 METAR KBLI 151153Z AUTO 00000KT 5SM BR SCT075 BKN100 12/10 A2986 RMK AO2 SLP116 60009 70025 T01170100 10133 20117 58006=
201809151109 SPECI KBLI 151109Z AUTO 00000KT 3SM R16/4000VP6000FT BR BKN060 12/11 A2986 RMK AO2 T01220106=
201809151103 SPECI KBLI 151103Z AUTO 00000KT 1 1/2SM R16/6000VP6000FT BR SCT060 12/11 A2986 RMK AO2 T01220106=
201809151053 METAR KBLI 151053Z AUTO 00000KT 2 1/2SM BR SCT060 SCT080 12/11 A2986 RMK AO2 SLP118 T01220106=
201809150953 METAR KBLI 150953Z AUTO 00000KT 10SM OVC065 12/11 A2987 RMK AO2 SLP121 T01220106=
201809150853 METAR KBLI 150853Z AUTO 00000KT 10SM OVC070 12/11 A2987 RMK AO2 RAE19 SLP122 P0000 60009 T01220106 58007=
201809150753 METAR KBLI 150753Z AUTO 00000KT 10SM -RA OVC060 12/11 A2989 RMK AO2 SLP126 P0003 T01220106 401780106=
201809150720 SPECI KBLI 150720Z AUTO 29003KT 10SM -RA FEW019 SCT025 OVC065 12/11 A2989 RMK AO2 P0002 T01220106=
201809150653 METAR KBLI 150653Z AUTO 28005KT 3SM +RA BR SCT004 BKN025 OVC046 13/12 A2989 RMK AO2 SLP129 P0006 T01330117=
201809150636 SPECI KBLI 150636Z AUTO VRB03KT 10SM -RA FEW004 BKN029 OVC075 13/12 A2990 RMK AO2 P0000 T01330122=
201809150553 METAR KBLI 150553Z AUTO 00000KT 10SM -RA BKN034 BKN047 OVC070 13/12 A2989 RMK AO2 SLP129 P0009 60014 T01330122 10172 20133 58005=
201809150453 METAR KBLI 150453Z 00000KT 6SM -RA BR FEW040 BKN060 OVC080 14/12 A2990 RMK AO2 SLP133 P0003 T01390122=
201809150353 METAR KBLI 150353Z 00000KT 10SM -RA FEW041 FEW050 OVC065 14/12 A2991 RMK AO2 RAB00 SLP137 P0002 T01390122=
201809150253 METAR KBLI 150253Z 01003KT 10SM SCT043 OVC075 16/11 A2991 RMK AO2 SLP135 T01560111 55004=
201809150153 METAR KBLI 150153Z 19003KT 10SM FEW040 BKN090 OVC110 15/11 A2991 RMK AO2 SLP134 T01500106=
201809150053 METAR KBLI 150053Z 20003KT 10SM FEW120 17/10 A2992 RMK AO2 SLP136 T01670100=
201809142353 METAR KBLI 142353Z VRB06KT 10SM SCT080 17/09 A2992 RMK AO2 SLP137 T01720094 10178 20156 58011=
201809142253 METAR KBLI 142253Z 16007KT 10SM SCT080 17/10 A2993 RMK AO2 SLP142 T01720100=
201809142153 METAR KBLI 142153Z 18007KT 10SM CLR 17/10 A2994 RMK AO2 SLP146 T01720100=
201809142053 METAR KBLI 142053Z 17009KT 10SM CLR 17/09 A2995 RMK AO2 SLP150 T01720094 56007=
201809141953 METAR KBLI 141953Z 18008KT 10SM CLR 17/11 A2996 RMK AO2 SLP152 T01670106=
201809141853 METAR KBLI 141853Z 18006KT 10SM FEW018 FEW080 16/11 A2997 RMK AO2 SLP154 T01610111=
201809141753 METAR KBLI 141753Z 15004KT 10SM SCT015 OVC050 16/12 A2997 RMK AO2 SLP156 60002 T01560117 10156 20111 56001=
201809141653 METAR KBLI 141653Z 00000KT 10SM SCT015 OVC046 14/11 A2997 RMK AO2 SLP156 T01390106=
201809141553 METAR KBLI 141553Z 11004KT 10SM SCT018 OVC034 13/11 A2997 RMK AO2 RAE06 SLP155 P0000 T01330106=
201809141538 SPECI KBLI 141538Z 12004KT 10SM SCT016 OVC033 13/11 A2997 RMK AO2 RAE06 P0000 T01280111=
201809141453 METAR KBLI 141453Z 00000KT 10SM -RA SCT009 BKN020 OVC031 12/10 A2998 RMK AO2 RAB12 SLP157 P0002 60002 T01170100 55001=
201809141353 METAR KBLI 141353Z 00000KT 10SM BKN009 OVC035 12/09 A2997 RMK AO2 SLP155 T01170094=
201809141330 SPECI KBLI 141330Z AUTO 00000KT 10SM BKN009 OVC031 12/10 A2997 RMK AO2 T01170100=
201809141319 SPECI KBLI 141319Z AUTO 00000KT 10SM SCT009 OVC031 12/09 A2997 RMK AO2 T01170094=
201809141253 METAR KBLI 141253Z AUTO 00000KT 10SM FEW019 BKN038 OVC050 12/09 A2997 RMK AO2 SLP155 T01170094=
201809141224 SPECI KBLI 141224Z AUTO 00000KT 10SM FEW026 BKN036 OVC045 12/09 A2997 RMK AO2 T01170094=
201809141153 METAR KBLI 141153Z AUTO 00000KT 10SM OVC025 12/10 A2998 RMK AO2 SLP157 60000 T01170100 10128 20106 57004=
201809141053 METAR KBLI 141053Z AUTO 00000KT 10SM OVC025 11/09 A2998 RMK AO2 SLP158 T01110094=
201809141040 SPECI KBLI 141040Z AUTO 00000KT 10SM BKN025 OVC070 11/09 A2998 RMK AO2 T01110094=
201809140953 METAR KBLI 140953Z AUTO 00000KT 10SM OVC080 11/09 A2999 RMK AO2 RAB0856E08 SLP160 P0000 T01060089=
201809140853 METAR KBLI 140853Z AUTO 00000KT 10SM BKN041 BKN060 OVC080 11/09 A2999 RMK AO2 SLP162 T01060094 55002=
201809140753 METAR KBLI 140753Z AUTO 00000KT 10SM OVC085 11/09 A2999 RMK AO2 SLP161 T01110094 401890111=
201809140653 METAR KBLI 140653Z AUTO 01003KT 10SM BKN075 OVC090 12/10 A2999 RMK AO2 SLP163 T01170100=
201809140553 METAR KBLI 140553Z AUTO 01004KT 10SM OVC090 13/11 A2999 RMK AO2 SLP163 T01280106 10183 20128 51007=
201809140453 METAR KBLI 140453Z 17004KT 10SM OVC085 14/11 A2999 RMK AO2 SLP161 T01440111=
201809140353 METAR KBLI 140353Z 17003KT 10SM BKN090 15/11 A2999 RMK AO2 SLP160 T01500111=
201809140253 METAR KBLI 140253Z 19005KT 10SM SCT080 BKN090 16/11 A2997 RMK AO2 SLP156 T01560111 50002=
201809140153 METAR KBLI 140153Z VRB03KT 10SM SCT060 BKN090 16/11 A2998 RMK AO2 SLP156 T01610106=
201809140053 METAR KBLI 140053Z VRB06KT 10SM SCT060 BKN090 18/11 A2997 RMK AO2 SLP155 T01780111=
201809132353 METAR KBLI 132353Z 17006KT 10SM SCT060 BKN085 17/11 A2997 RMK AO2 SLP154 60000 T01720111 10189 20156 53004=
201809132253 METAR KBLI 132253Z 16008KT 10SM SCT060 BKN090 18/11 A2996 RMK AO2 SLP152 T01830106=
201809132155 METAR KBLI 132155Z COR 20009KT 10SM BKN080 18/11 A2996 RMK AO2 SLP151 T01780106=
201809132153 METAR KBLI 132153Z VRB06KT 10SM OVC085 18/11 A2996 RMK AO2 SLP151 T01780106=
201809132053 METAR KBLI 132053Z 18006KT 10SM OVC085 17/11 A2996 RMK AO2 SLP151 60000 T01670106 51005=
201809131953 METAR KBLI 131953Z 16011KT 10SM OVC090 17/11 A2995 RMK AO2 RAE03 SLP149 P0000 T01720106=
201809131853 METAR KBLI 131853Z VRB06G14KT 10SM -RA OVC080 16/12 A2995 RMK AO2 RAE05B37 SLP148 P0000 T01610117=
201809131753 METAR KBLI 131753Z 17010G16KT 10SM -RA OVC080 16/11 A2995 RMK AO2 RAB34 SLP146 P0000 60000 T01560111 10156 20133 53008=
201809131653 METAR KBLI 131653Z 17011G17KT 10SM OVC090 16/11 A2994 RMK AO2 SLP143 T01560111=
201809131553 METAR KBLI 131553Z 17010G17KT 10SM SCT009 OVC090 14/11 A2993 RMK AO2 SLP139 T01440106=
201809131453 METAR KBLI 131453Z 17010KT 10SM FEW012 BKN075 OVC090 14/11 A2992 RMK AO2 SLP138 T01440106 53004=
201809131353 METAR KBLI 131353Z 17009KT 10SM OVC090 14/11 A2991 RMK AO2 SLP134 T01390106=
201809131253 METAR KBLI 131253Z AUTO 17007KT 10SM OVC090 14/11 A2991 RMK AO2 SLP134 T01390111=
201809131209 SPECI KBLI 131209Z AUTO 16008KT 10SM SCT017 BKN070 OVC090 14/11 A2991 RMK AO2 T01390106=
201809131201 SPECI KBLI 131201Z AUTO 16009KT 10SM BKN017 OVC070 14/11 A2991 RMK AO2 T01390106=
201809131153 METAR KBLI 131153Z AUTO 17010KT 10SM FEW012 SCT018 OVC065 14/11 A2991 RMK AO2 SLP133 70004 T01390111 10150 20139 58001=
201809131053 METAR KBLI 131053Z AUTO 16007KT 10SM OVC090 14/11 A2991 RMK AO2 SLP134 T01440106=
201809130953 METAR KBLI 130953Z AUTO 15007KT 10SM OVC090 14/11 A2991 RMK AO2 SLP134 T01440106=
201809130853 METAR KBLI 130853Z AUTO 16007KT 10SM OVC090 14/10 A2991 RMK AO2 SLP134 T01440100 53001=
201809130753 METAR KBLI 130753Z AUTO 16007KT 10SM OVC090 14/10 A2990 RMK AO2 SLP132 T01440100 401780117=
201809130653 METAR KBLI 130653Z AUTO 16005KT 10SM OVC090 14/10 A2991 RMK AO2 SLP133 T01440100=
201809130553 METAR KBLI 130553Z AUTO 17004KT 10SM OVC090 15/10 A2991 RMK AO2 SLP133 T01500100 10178 20139 50002=
201809130453 METAR KBLI 130453Z 18003KT 10SM OVC085 15/11 A2992 RMK AO2 SLP136 T01500111=
201809130353 METAR KBLI 130353Z 18003KT 10SM OVC085 14/11 A2991 RMK AO2 SLP135 T01440111=
201809130253 METAR KBLI 130253Z 00000KT 10SM OVC085 14/11 A2990 RMK AO2 SLP132 T01390111 55002=
201809130153 METAR KBLI 130153Z 00000KT 10SM CLR 14/11 A2990 RMK AO2 SLP131 T01440111=
201809130053 METAR KBLI 130053Z VRB04KT 10SM CLR 17/11 A2990 RMK AO2 SLP131 T01720111=
201809122353 METAR KBLI 122353Z VRB06KT 10SM CLR 17/11 A2991 RMK AO2 LTG DSNT N SLP133 T01720111 10178 20144 56006=
201809122253 METAR KBLI 122253Z 16010KT 10SM BKN080 17/12 A2991 RMK AO2 LTG DSNT N SLP133 T01720117=
201809122153 METAR KBLI 122153Z 18007KT 10SM BKN080 17/11 A2991 RMK AO2 SLP135 T01720111=
201809122053 METAR KBLI 122053Z 16009KT 10SM FEW012 SCT037 OVC080 17/11 A2992 RMK AO2 SLP139 T01670111 58002=
201809121953 METAR KBLI 121953Z VRB03KT 10SM FEW012 SCT037 OVC080 16/12 A2993 RMK AO2 SLP141 T01610122=
201809121853 METAR KBLI 121853Z 00000KT 10SM SCT013 BKN027 OVC060 14/12 A2993 RMK AO2 SLP141 T01440117=
201809121753 METAR KBLI 121753Z 00000KT 10SM FEW006 BKN043 OVC055 16/12 A2993 RMK AO2 RAB1654E04B38E48 SLP140 P0000 60004 T01560117 10156 20117 51005=
201809121736 SPECI KBLI 121736Z 00000KT 10SM FEW005 BKN022 OVC044 14/12 A2993 RMK AO2 RAB1654E04 P0000 T01440117=
201809121653 METAR KBLI 121653Z 00000KT 10SM FEW004 SCT038 OVC070 14/12 A2992 RMK AO2 SLP139 T01440122=
201809121610 SPECI KBLI 121610Z 00000KT 10SM SCT017 BKN070 OVC080 14/12 A2992 RMK AO2 T01390117=
201809121553 METAR KBLI 121553Z 00000KT 10SM BKN026 BKN046 OVC080 13/12 A2992 RMK AO2 RAE50 SLP137 P0002 T01330117=
201809121453 METAR KBLI 121453Z 00000KT 6SM -RA BR BKN026 OVC075 13/11 A2991 RMK AO2 RAB25 SLP135 P0002 60002 T01280111 53004=
201809121353 METAR KBLI 121353Z 00000KT 10SM BKN023 BKN033 OVC080 12/11 A2990 RMK AO2 SLP132 T01220106=
201809121338 SPECI KBLI 121338Z 06003KT 10SM SCT025 BKN034 OVC085 12/10 A2990 RMK AO2 T01170100=
201809121253 METAR KBLI 121253Z AUTO 00000KT 10SM BKN026 OVC032 12/11 A2990 RMK AO2 SLP130 T01220106=
201809121219 SPECI KBLI 121219Z AUTO 36003KT 10SM BKN024 BKN031 OVC080 12/10 A2990 RMK AO2 T01170100=
201809121211 SPECI KBLI 121211Z AUTO 00000KT 10SM SCT024 BKN030 OVC080 12/10 A2990 RMK AO2 T01170100=
201809121153 METAR KBLI 121153Z AUTO 00000KT 10SM BKN027 BKN041 OVC075 12/11 A2990 RMK AO2 RAE25 SLP131 P0000 60002 70013 T01220106 10139 20122 58003=
201809121053 METAR KBLI 121053Z AUTO 01003KT 10SM -RA BKN025 BKN033 OVC065 12/11 A2991 RMK AO2 RAB41 SLP133 P0001 T01220106=
201809120953 METAR KBLI 120953Z AUTO 00000KT 10SM FEW026 BKN060 OVC080 12/11 A2991 RMK AO2 RAE0856 SLP133 P0000 T01220106=
201809120853 METAR KBLI 120853Z AUTO 00000KT 10SM -RA OVC080 13/11 A2991 RMK AO2 RAB0754E12B44 SLP135 P0000 60001 T01280111 50000=
201809120753 METAR KBLI 120753Z AUTO 35003KT 10SM BKN030 OVC060 13/11 A2992 RMK AO2 RAE15 SLP137 P0000 T01330111 402000122=
201809120653 METAR KBLI 120653Z AUTO 00000KT 10SM -RA FEW060 OVC080 13/12 A2992 RMK AO2 RAB47 SLP137 P0001 T01330117=
201809120553 METAR KBLI 120553Z AUTO 00000KT 10SM SCT055 OVC070 14/12 A2991 RMK AO2 SLP135 60006 T01390117 10183 20133 50005=
201809120453 METAR KBLI 120453Z 10006KT 10SM OVC038 14/12 A2992 RMK AO2 RAB18E26B49E51 SLP136 P0006 T01390117=
201809120411 SPECI KBLI 120411Z 12007KT 10SM BKN029 BKN036 OVC090 15/11 A2992 RMK AO2 T01500106=
201809120353 METAR KBLI 120353Z 11006KT 10SM FEW026 SCT060 BKN090 15/10 A2991 RMK AO2 SLP135 T01500100=
201809120253 METAR KBLI 120253Z 11005KT 10SM BKN090 16/09 A2990 RMK AO2 SLP130 T01560089 56003=
201809120153 METAR KBLI 120153Z 12005KT 10SM CLR 17/10 A2990 RMK AO2 SLP130 T01720100=
201809120053 METAR KBLI 120053Z 08004KT 10SM CLR 17/09 A2990 RMK AO2 LTG DSNT SE SLP129 T01670094=
201809112353 METAR KBLI 112353Z 04009KT 10SM BKN034 BKN080 18/11 A2991 RMK AO2 SLP133 T01830106 10200 20167 56005=
201809112336 SPECI KBLI 112336Z 30006KT 10SM FEW032 BKN080 19/11 A2990 RMK AO2 LTG DSNT NE AND E T01940106=
201809112321 SPECI KBLI 112321Z 20005KT 10SM VCTS BKN080 19/11 A2991 RMK AO2 LTG DSNT NE T01890106=
201809112253 METAR KBLI 112253Z 17007KT 10SM CLR 19/11 A2991 RMK AO2 LTG DSNT N SLP133 T01940106=
201809112236 SPECI KBLI 112236Z 17007KT 130V190 10SM FEW100 19/11 A2991 RMK AO2 LTG DSNT N AND E T01940106=
201809112200 SPECI KBLI 112200Z VRB06KT 10SM VCTS CLR 19/11 A2991 RMK AO2 LTG DSNT N AND NE T01940111=
201809112153 METAR KBLI 112153Z 16007G14KT 10SM CLR 19/10 A2991 RMK AO2 LTG DSNT N AND NE SLP136 T01940100=
201809112128 SPECI KBLI 112128Z 18008KT 140V210 10SM VCTS CLR 19/11 A2992 RMK AO2 LTG DSNT NE T01890111=
201809112053 METAR KBLI 112053Z 17007G16KT 140V210 10SM CLR 18/11 A2992 RMK AO2 LTG DSNT NE SLP138 T01830111 58005=
201809111953 METAR KBLI 111953Z VRB05KT 10SM CLR 18/12 A2993 RMK AO2 SLP139 T01780117=
201809111853 METAR KBLI 111853Z 17008KT 10SM FEW070 BKN090 17/11 A2994 RMK AO2 SLP143 T01720111=
201809111753 METAR KBLI 111753Z VRB05KT 10SM BKN075 OVC090 17/12 A2994 RMK AO2 SLP143 60005 T01670117 10172 20122 58003=
201809111653 METAR KBLI 111653Z 00000KT 10SM FEW025 SCT055 OVC075 15/12 A2994 RMK AO2 RAE47 SLP145 P0004 T01500117=
201809111553 METAR KBLI 111553Z 16005KT 10SM -RA SCT025 SCT032 OVC075 14/11 A2995 RMK AO2 RAB44 SLP147 P0000 T01390106=
201809111453 METAR KBLI 111453Z 00000KT 10SM OVC021 13/11 A2995 RMK AO2 SLP146 60001 T01330111 53003=
201809111353 METAR KBLI 111353Z 19003KT 10SM FEW023 BKN060 OVC075 13/11 A2993 RMK AO2 RAE52 SLP142 P0001 T01280111=
201809111253 METAR KBLI 111253Z AUTO 21003KT 10SM -RA OVC070 13/11 A2993 RMK AO2 RAB45 SLP141 P0000 T01280111=
201809111153 METAR KBLI 111153Z AUTO 00000KT 10SM BKN060 13/11 A2994 RMK AO2 SLP143 T01280106 10161 20122 56003=
201809111053 METAR KBLI 111053Z AUTO 18004KT 10SM SCT060 OVC085 13/11 A2994 RMK AO2 SLP144 T01330111=
201809110953 METAR KBLI 110953Z AUTO VRB04KT 10SM BKN075 13/11 A2994 RMK AO2 SLP145 T01330111=
201809110853 METAR KBLI 110853Z AUTO 00000KT 10SM CLR 13/11 A2995 RMK AO2 SLP147 T01280111 50000=
201809110753 METAR KBLI 110753Z AUTO 18004KT 10SM BKN095 13/12 A2995 RMK AO2 SLP147 T01330117 401940117=
201809110653 METAR KBLI 110653Z AUTO 18004KT 10SM FEW085 15/12 A2995 RMK AO2 SLP148 T01500122=
201809110553 METAR KBLI 110553Z AUTO 18005KT 10SM FEW070 OVC085 16/11 A2995 RMK AO2 SLP147 60000 T01610111 10194 20150 50003=
201809110453 METAR KBLI 110453Z 00000KT 10SM BKN065 OVC095 16/12 A2995 RMK AO2 SLP148 T01560117=
201809110353 METAR KBLI 110353Z 15006KT 10SM FEW060 BKN075 OVC090 17/12 A2995 RMK AO2 SLP147 T01670117=
201809110253 METAR KBLI 110253Z VRB04KT 10SM BKN060 OVC085 17/11 A2994 RMK AO2 LTG DSNT SE RAB22E33 SLP143 P0000 60000 T01720106 56003=
201809110153 METAR KBLI 110153Z VRB03KT 10SM BKN075 BKN090 17/11 A2994 RMK AO2 LTG DSNT SE SLP144 T01720111=
201809110053 METAR KBLI 110053Z VRB03KT 10SM FEW065 SCT095 18/12 A2994 RMK AO2 SLP145 T01830117=
201809102353 METAR KBLI 102353Z VRB05KT 10SM BKN065 OVC085 19/12 A2995 RMK AO2 LTG DSNT NE SLP147 60000 T01890117 10189 20156 56006=
201809102253 METAR KBLI 102253Z 21006KT 10SM OVC070 19/12 A2995 RMK AO2 RAB11E24 SLP147 P0000 T01890117=
201809102153 METAR KBLI 102153Z 17006KT 10SM BKN065 OVC085 18/12 A2996 RMK AO2 SLP150 T01780117=
201809102053 METAR KBLI 102053Z VRB06KT 10SM FEW025 BKN060 BKN100 18/12 A2996 RMK AO2 RAE1959 SLP153 P0000 60000 T01780117 53002=
201809101955 METAR KBLI 101955Z COR 19008G17KT 10SM BKN060 17/12 A2996 RMK AO2 RAB48 SLP152 P0000 T01670122=
201809101953 METAR KBLI 101953Z 19008KT 10SM -RA OVC060 17/12 A2996 RMK AO2 RAB48 SLP152 P0000 T01670122=
201809101853 METAR KBLI 101853Z 17011G16KT 10SM CLR 17/12 A2996 RMK AO2 SLP149 T01720122=
201809101753 METAR KBLI 101753Z 17008G16KT 10SM SCT095 17/12 A2996 RMK AO2 SLP151 T01670122 10167 20117 51001=
201809101653 METAR KBLI 101653Z 17010KT 10SM FEW010 SCT070 16/12 A2996 RMK AO2 SLP151 T01560117=
201809101555 METAR KBLI 101555Z COR 17004KT 10SM FEW010 SCT040 BKN070 14/12 A2996 RMK AO2 SLP150 T01440122=
201809101553 METAR KBLI 101553Z 17004KT 10SM BKN070 OVC085 14/12 A2996 RMK AO2 SLP150 T01440122=
201809101453 METAR KBLI 101453Z 00000KT 10SM FEW005 SCT040 BKN070 13/12 A2995 RMK AO2 SLP149 T01330117 53010=
201809101353 METAR KBLI 101353Z 15005KT 10SM BKN060 12/11 A2994 RMK AO2 SLP147 T01220106=
201809101253 METAR KBLI 101253Z AUTO 18003KT 10SM CLR 13/11 A2993 RMK AO2 SLP142 T01280111=
201809101153 METAR KBLI 101153Z AUTO 16005KT 10SM FEW080 13/12 A2992 RMK AO2 SLP139 60000 70053 T01330117 10150 20133 53006=
201809101053 METAR KBLI 101053Z AUTO 17005KT 10SM BKN075 14/12 A2992 RMK AO2 SLP136 T01390122=
201809100953 METAR KBLI 100953Z AUTO 17003KT 10SM SCT060 BKN080 14/13 A2991 RMK AO2 SLP132 T01440128=
201809100853 METAR KBLI 100853Z AUTO 18004KT 10SM BKN055 15/13 A2991 RMK AO2 SLP133 60000 T01500133 56001=
201809100753 METAR KBLI 100753Z AUTO 18005KT 10SM OVC055 15/13 A2991 RMK AO2 SLP133 T01500133 401830128=
201809100653 METAR KBLI 100653Z AUTO 16006KT 10SM OVC060 15/13 A2991 RMK AO2 RAE07 SLP133 P0000 T01500128=
201809100553 METAR KBLI 100553Z AUTO 17006KT 10SM -RA FEW023 BKN060 OVC085 15/13 A2991 RMK AO2 SLP134 P0002 60029 T01500133 10161 20144 58002=
201809100525 SPECI KBLI 100525Z AUTO 16008KT 9SM -RA SCT023 BKN030 OVC065 14/13 A2991 RMK AO2 P0002 T01440133=
201809100512 SPECI KBLI 100512Z 15008KT 6SM -RA BR SCT005 BKN025 OVC065 14/13 A2991 RMK AO2 P0001 T01440128=
201809100502 SPECI KBLI 100502Z 17007KT 6SM -RA BR BKN004 BKN022 OVC032 14/13 A2992 RMK AO2 P0000 T01440128=
201809100453 METAR KBLI 100453Z 17005KT 10SM -RA BKN005 OVC024 14/13 A2992 RMK AO2 SLP139 P0011 T01440128=
201809100450 SPECI KBLI 100450Z 17007KT 10SM -RA BKN005 BKN024 OVC048 14/13 A2992 RMK AO2 P0011=
201809100407 SPECI KBLI 100407Z 18005KT 4SM RA BR FEW021 BKN050 OVC070 15/13 A2992 RMK AO2 P0005 T01500133=
201809100353 METAR KBLI 100353Z 17005KT 4SM RA BR FEW018 BKN023 OVC048 15/13 A2992 RMK AO2 RAB0259 SLP136 P0006 T01500133=
201809100253 METAR KBLI 100253Z 00000KT 8SM BKN027 BKN048 OVC075 16/14 A2991 RMK AO2 RAE45 SLP134 P0000 60010 T01560139 53004=
201809100153 METAR KBLI 100153Z 08003KT 8SM -RA BKN085 OVC110 16/14 A2989 RMK AO2 SLP129 P0004 T01560139=
201809100053 METAR KBLI 100053Z 05003KT 5SM RA SCT040 BKN055 OVC080 16/14 A2990 RMK AO2 SLP130 P0006 T01560139=
201809092353 METAR KBLI 092353Z 03004KT 5SM RA BR BKN070 OVC085 16/14 A2990 RMK AO2 SLP130 P0007 60023 T01610144 10183 20161 55012=
201809092253 METAR KBLI 092253Z 05004KT 10SM -RA BKN060 OVC070 17/14 A2989 RMK AO2 RAE27B53 SLP128 P0001 T01670139=
201809092153 METAR KBLI 092153Z 09005KT 10SM -RA BKN070 OVC090 16/13 A2991 RMK AO2 SLP134 P0004 T01610133=
201809092053 METAR KBLI 092053Z 14008KT 8SM -RA SCT040 OVC065 17/13 A2993 RMK AO2 SLP142 P0005 60011 T01720128 56005=
201809091953 METAR KBLI 091953Z 15005KT 6SM -RA OVC070 17/13 A2994 RMK AO2 SLP143 P0006 T01670128=
201809091853 METAR KBLI 091853Z 12006KT 10SM -RA OVC080 18/12 A2994 RMK AO2 RAB45 SLP144 P0000 T01830117=
201809091753 METAR KBLI 091753Z 11005KT 10SM FEW040 BKN085 18/13 A2995 RMK AO2 RAE00 SLP147 P0000 60001 T01780128 10178 20128 56010=
201809091653 METAR KBLI 091653Z 33003KT 10SM -RA FEW047 FEW075 OVC100 16/14 A2996 RMK AO2 RAE00B33 SLP150 P0000 T01610139=
201809091553 METAR KBLI 091553Z 35003KT 10SM -RA OVC090 15/13 A2997 RMK AO2 RAE1457B26 SLP153 P0001 T01500128=
201809091453 METAR KBLI 091453Z 00000KT 10SM -RA FEW070 BKN080 OVC100 14/12 A2998 RMK AO2 RAB45 SLP157 P0000 60000 T01390122 55003=
201809091353 METAR KBLI 091353Z 00000KT 10SM BKN110 14/12 A2998 RMK AO2 SLP157 T01390117=
201809091259 SPECI KBLI 091259Z AUTO 00000KT 3SM R16/5000VP6000FT BR FEW002 FEW120 13/12 A2998 RMK AO2 T01330117=
201809091253 METAR KBLI 091253Z AUTO 00000KT 2 1/2SM R16/5000VP6000FT BR FEW120 13/11 A2999 RMK AO2 VIS 1 1/2V5 SLP160 T01280111=
201809091246 SPECI KBLI 091246Z AUTO 00000KT 2SM R16/3500VP6000FT BR CLR 13/11 A2999 RMK AO2 VIS 1 1/2V5 T01280111=
201809091235 SPECI KBLI 091235Z AUTO 00000KT 5SM R16/3500VP6000FT BR CLR 13/12 A2999 RMK AO2 T01330117=
201809091212 SPECI KBLI 091212Z AUTO 00000KT 2SM R16/2600VP6000FT BR SCT001 13/12 A2999 RMK AO2 T01330117=
201809091157 SPECI KBLI 091157Z AUTO 00000KT 3/4SM R16/2200V4000FT BR VV001 13/12 A2999 RMK AO2 T01330117=
201809091153 METAR KBLI 091153Z AUTO 00000KT 1SM R16/2200V4000FT BR VV002 14/12 A2999 RMK AO2 SLP161 60001 70003 T01390122 10156 20133 58002=
201809091149 SPECI KBLI 091149Z AUTO 00000KT 3/4SM R16/2200VP6000FT BR VV001 13/12 A2999 RMK AO2=
201809091131 SPECI KBLI 091131Z AUTO 00000KT 1/2SM R16/2200V5000FT FG VV002 13/12 A2999 RMK AO2 T01330117=
201809091122 SPECI KBLI 091122Z AUTO 00000KT 3/4SM R16/2200VP6000FT BR VV002 13/12 A2999 RMK AO2 T01330117=
201809091117 SPECI KBLI 091117Z AUTO 00000KT 1 3/4SM BR CLR 14/12 A2999 RMK AO2 VIS 3/4V4 T01390122=
201809091053 METAR KBLI 091053Z AUTO 00000KT 7SM FEW031 14/13 A2999 RMK AO2 SLP162 T01440128=
201809090953 METAR KBLI 090953Z AUTO 11003KT 10SM BKN041 OVC070 14/13 A3000 RMK AO2 SLP164 T01440128=
201809090853 METAR KBLI 090853Z AUTO 06003KT 10SM BKN060 14/13 A2999 RMK AO2 SLP163 60001 T01440128 56009=
201809090753 METAR KBLI 090753Z AUTO 03003KT 10SM OVC048 15/13 A3000 RMK AO2 RAE06 SLP165 P0000 T01500133 401890122=
201809090653 METAR KBLI 090653Z AUTO 04003KT 10SM -RA OVC039 15/13 A3001 RMK AO2 RAE12B52 SLP169 P0001 T01500133=
201809090553 METAR KBLI 090553Z AUTO 00000KT 9SM -RA BKN037 BKN050 OVC070 15/13 A3002 RMK AO2 RAB0455E24B48 SLP172 P0002 60002 T01500133 10183 20150 58003=
201809090453 METAR KBLI 090453Z 00000KT 10SM SCT034 OVC070 16/14 A3003 RMK AO2 SLP174 T01560139=
201809090353 METAR KBLI 090353Z 08003KT 10SM OVC060 15/13 A3003 RMK AO2 SLP176 T01500133=
201809090253 METAR KBLI 090253Z 00000KT 10SM FEW026 SCT035 BKN085 16/13 A3003 RMK AO2 RAE22 SLP175 P0000 60000 T01560133 56004=
201809090153 METAR KBLI 090153Z 27006KT 10SM -RA FEW029 SCT065 OVC090 16/13 A3003 RMK AO2 RAB38 SLP175 P0000 T01610128=
201809090053 METAR KBLI 090053Z 00000KT 10SM SCT048 BKN055 OVC070 18/13 A3004 RMK AO2 SLP177 T01780128=
201809082353 METAR KBLI 082353Z 19004KT 10SM SCT040 BKN055 18/13 A3004 RMK AO2 SLP179 T01830128 10189 20161 56006=
201809082253 METAR KBLI 082253Z 18005KT 10SM SCT040 BKN065 18/13 A3005 RMK AO2 SLP180 T01830128=
201809082153 METAR KBLI 082153Z 16008KT 10SM FEW015 SCT060 BKN090 18/13 A3005 RMK AO2 SLP183 T01830128=
201809082053 METAR KBLI 082053Z 18006KT 10SM FEW010 SCT030 BKN090 18/13 A3006 RMK AO2 SLP185 T01780128 58005=
201809081953 METAR KBLI 081953Z 18007KT 10SM FEW010 SCT030 BKN090 18/13 A3007 RMK AO2 SLP187 T01780133=
201809081853 METAR KBLI 081853Z 18007KT 150V210 10SM FEW010 SCT030 BKN070 17/13 A3007 RMK AO2 SLP189 T01720133=
201809081753 METAR KBLI 081753Z 18007KT 140V230 10SM FEW010 SCT030 16/13 A3007 RMK AO2 SLP190 T01610133 10172 20128 53005=
201809081653 METAR KBLI 081653Z 17008KT 10SM FEW006 16/13 A3006 RMK AO2 SLP187 T01610133=
201809081553 METAR KBLI 081553Z 17007KT 10SM OVC006 16/13 A3006 RMK AO2 CIG 004V008 SLP185 T01560133=
201809081523 SPECI KBLI 081523Z 16008KT 10SM BKN004 BKN012 16/13 A3006 RMK AO2 T01560133=
201809081500 SPECI KBLI 081500Z 18007KT 10SM FEW006 BKN014 15/13 A3006 RMK AO2 T01500133=
201809081453 METAR KBLI 081453Z 17008KT 10SM OVC014 15/13 A3006 RMK AO2 SLP185 T01500128 53003=
201809081353 METAR KBLI 081353Z 17004KT 10SM OVC014 15/13 A3005 RMK AO2 SLP182 T01500128=
201809081253 METAR KBLI 081253Z AUTO 17005KT 10SM OVC017 14/12 A3005 RMK AO2 SLP182 T01390122=
201809081247 SPECI KBLI 081247Z AUTO 17004KT 4SM BR OVC017 14/12 A3005 RMK AO2=
201809081221 SPECI KBLI 081221Z AUTO 00000KT 1 1/2SM BR FEW003 BKN020 13/12 A3005 RMK AO2 VIS 3/4V2 1/2 T01330117=
201809081202 SPECI KBLI 081202Z AUTO 00000KT 2SM BR FEW003 OVC021 13/12 A3005 RMK AO2 T01330122=
201809081153 METAR KBLI 081153Z AUTO 00000KT 3/4SM R16/P6000FT BR BKN020 13/12 A3005 RMK AO2 SLP181 60002 70033 T01280117 10144 20122 55002=
201809081146 SPECI KBLI 081146Z AUTO 00000KT 1/2SM R16/2600VP6000FT FG FEW003 BKN020 13/11 A3005 RMK AO2 T01280111=
201809081137 SPECI KBLI 081137Z AUTO 00000KT 1/2SM R16/2600VP6000FT FG FEW004 SCT020 BKN050 13/11 A3005 RMK AO2 T01280111=
201809081131 SPECI KBLI 081131Z AUTO 00000KT 1 3/4SM BR FEW004 SCT050 13/12 A3005 RMK AO2 VIS 1V5 T01330117=
201809081124 SPECI KBLI 081124Z AUTO 00000KT 3SM BR SCT004 BKN050 13/12 A3005 RMK AO2 T01330122=
201809081117 SPECI KBLI 081117Z AUTO 00000KT 3SM R16/6000VP6000FT BR BKN050 13/12 A3005 RMK AO2 T01330122=
201809081114 SPECI KBLI 081114Z AUTO 00000KT 1 1/2SM R16/5000VP6000FT BR FEW003 BKN050 BKN080 13/12 A3005 RMK AO2 T01330117=
201809081107 SPECI KBLI 081107Z AUTO 00000KT 3/4SM R16/5000VP6000FT BR FEW003 SCT050 BKN080 13/12 A3005 RMK AO2 T01330117=
201809081058 SPECI KBLI 081058Z AUTO 00000KT 1 3/4SM R16/3500VP6000FT BR FEW043 BKN055 BKN080 14/12 A3005 RMK AO2 T01390122=
201809081053 METAR KBLI 081053Z AUTO 00000KT 3SM R16/3500VP6000FT BR FEW043 BKN055 OVC080 14/12 A3004 RMK AO2 SLP180 T01390122=
201809081011 SPECI KBLI 081011Z AUTO 00000KT 4SM R16/3000VP6000FT BR SCT001 OVC046 14/13 A3004 RMK AO2 T01440128=
201809081004 SPECI KBLI 081004Z AUTO 00000KT 2 1/2SM R16/4000VP6000FT BR FEW001 BKN046 OVC075 14/13 A3004 RMK AO2 T01390128=
201809080953 METAR KBLI 080953Z AUTO 00000KT 1 3/4SM BR BKN047 OVC070 14/13 A3004 RMK AO2 VIS 1V4 RAE11 SLP179 P0001 T01390128=
201809080906 SPECI KBLI 080906Z AUTO 00000KT 4SM -RA BR SCT009 BKN037 OVC065 14/13 A3005 RMK AO2 P0001 T01440128=
201809080853 METAR KBLI 080853Z AUTO 00000KT 5SM -RA BR FEW002 BKN009 OVC041 14/13 A3005 RMK AO2 RAE22B52 SLP183 P0001 60001 T01440133 53005=
201809080845 SPECI KBLI 080845Z AUTO 00000KT 5SM BR SCT002 BKN009 OVC055 14/13 A3006 RMK AO2 RAE22 P0001 T01440128=
201809080835 SPECI KBLI 080835Z AUTO 00000KT 5SM BR SCT002 OVC055 14/13 A3005 RMK AO2 RAE22 P0001 T01440128=
201809080806 SPECI KBLI 080806Z AUTO 00000KT 3SM -RA BR FEW014 OVC060 14/13 A3005 RMK AO2 P0001 T01440133=
201809080753 METAR KBLI 080753Z AUTO 00000KT 1 1/2SM R16/4500VP6000FT -RA BR SCT049 OVC060 14/13 A3005 RMK AO2 RAB20 SLP181 P0000 T01440128 401940139=
201809080748 SPECI KBLI 080748Z AUTO 00000KT 1 3/4SM R16/5000VP6000FT -RA BR BKN049 OVC065 14/13 A3005 RMK AO2 RAB20 P0000=
201809080653 METAR KBLI 080653Z AUTO 00000KT 5SM BR FEW002 OVC055 14/13 A3004 RMK AO2 SLP178 T01440128=
201809080553 METAR KBLI 080553Z AUTO 00000KT 3SM BR FEW001 FEW050 OVC080 14/13 A3004 RMK AO2 SLP178 60023 T01440128 10156 20139 51001=
201809080548 SPECI KBLI 080548Z AUTO 00000KT 2SM BR FEW001 BKN080 OVC090 14/13 A3004 RMK AO2=
201809080537 SPECI KBLI 080537Z AUTO 00000KT 4SM R16/5000VP6000FT BR FEW001 SCT070 OVC085 14/13 A3004 RMK AO2 T01390128=
201809080453 METAR KBLI 080453Z 29003KT 10SM BKN055 BKN075 14/13 A3004 RMK AO2 RAE28 SLP179 P0002 T01440128=
201809080353 METAR KBLI 080353Z 14004KT 6SM -RA BR BKN060 OVC085 16/13 A3003 RMK AO2 SLP176 P0004 T01560133=
201809080253 METAR KBLI 080253Z 09005KT 5SM -RA BR BKN050 OVC080 14/13 A3004 RMK AO2 SLP178 P0009 60017 T01440128 50003=
201809080153 METAR KBLI 080153Z 11003KT 5SM -RA BR OVC090 15/13 A3004 RMK AO2 SLP179 P0005 T01500133=
201809080053 METAR KBLI 080053Z 00000KT 7SM -RA OVC095 15/13 A3003 RMK AO2 SLP175 P0003 T01500133=
201809072353 METAR KBLI 072353Z 00000KT 8SM -RA OVC095 15/13 A3003 RMK AO2 SLP174 P0006 60008 T01500133 10194 20150 53007=
201809072253 METAR KBLI 072253Z 00000KT 9SM -RA OVC090 16/12 A3003 RMK AO2 SLP174 P0002 T01610122=
201809072153 METAR KBLI 072153Z 28003KT 10SM -RA OVC100 17/12 A3000 RMK AO2 RAB28 SLP166 P0000 T01720122=
201809072053 METAR KBLI 072053Z VRB05KT 10SM SCT050 BKN080 19/10 A3001 RMK AO2 SLP167 T01940100 56021=
201809071953 METAR KBLI 071953Z 19006KT 10SM CLR 18/11 A3003 RMK AO2 SLP173 T01780111=
201809071853 METAR KBLI 071853Z VRB05KT 10SM FEW120 18/11 A3005 RMK AO2 SLP182 T01780111=
201809071753 METAR KBLI 071753Z 17008KT 10SM FEW100 17/11 A3007 RMK AO2 SLP189 T01720106 10172 20144 58009=
201809071653 METAR KBLI 071653Z 16008KT 10SM FEW030 16/11 A3008 RMK AO2 SLP193 T01560106=
201809071553 METAR KBLI 071553Z 16010G14KT 10SM SCT100 BKN120 16/11 A3009 RMK AO2 SLP194 T01560106=
201809071453 METAR KBLI 071453Z 15007KT 10SM SCT100 BKN120 15/11 A3010 RMK AO2 SLP197 T01500106 51008=
201809071353 METAR KBLI 071353Z 16005KT 10SM FEW055 SCT100 BKN110 14/11 A3010 RMK AO2 SLP197 T01440106=
201809071253 METAR KBLI 071253Z AUTO 18010G17KT 10SM CLR 14/11 A3009 RMK AO2 SLP194 T01440106=
201809071153 METAR KBLI 071153Z AUTO 18007KT 10SM CLR 15/11 A3007 RMK AO2 SLP189 T01500106 10178 20144 50003=
201809071053 METAR KBLI 071053Z AUTO 17013KT 10SM CLR 14/11 A3008 RMK AO2 SLP190 T01440106=
201809070953 METAR KBLI 070953Z AUTO 17010KT 10SM CLR 15/11 A3007 RMK AO2 SLP188 T01500106=
201809070853 METAR KBLI 070853Z AUTO 17009KT 10SM CLR 16/11 A3007 RMK AO2 SLP186 T01560106 51011=
201809070753 METAR KBLI 070753Z AUTO 18011G17KT 10SM CLR 16/11 A3006 RMK AO2 SLP184 T01560106 402560089=
201809070653 METAR KBLI 070653Z AUTO 18006G15KT 10SM CLR 16/11 A3004 RMK AO2 SLP177 T01610106=
201809070553 METAR KBLI 070553Z AUTO 18009KT 10SM CLR 18/09 A3003 RMK AO2 SLP174 T01780094 10244 20178 53016=
201809070453 METAR KBLI 070453Z 18008KT 10SM CLR 19/09 A3001 RMK AO2 SLP170 T01890089=
201809070353 METAR KBLI 070353Z 18006KT 10SM CLR 19/10 A3000 RMK AO2 SLP165 T01890100=
201809070253 METAR KBLI 070253Z 17008KT 10SM CLR 20/09 A2999 RMK AO2 SLP160 T02000089 55003=
201809070153 METAR KBLI 070153Z 17008KT 10SM CLR 22/05 A2998 RMK AO2 SLP157 T02220050=
201809070053 METAR KBLI 070053Z 17006KT 10SM CLR 22/08 A2998 RMK AO2 SLP158 T02220083=
201809062353 METAR KBLI 062353Z 16006KT 8SM CLR 24/08 A2999 RMK AO2 SLP163 T02440083 10256 20194 57008=
201809062253 METAR KBLI 062253Z 16007KT 8SM CLR 25/08 A3000 RMK AO2 SLP165 T02500083=
201809062153 METAR KBLI 062153Z 17007KT 10SM CLR 25/09 A3001 RMK AO2 SLP168 T02500089=
201809062053 METAR KBLI 062053Z VRB05KT 10SM CLR 24/09 A3002 RMK AO2 SLP170 T02440089 56010=
201809061953 METAR KBLI 061953Z VRB04KT 10SM CLR 23/08 A3003 RMK AO2 SLP174 T02330078=
201809061853 METAR KBLI 061853Z VRB03KT 10SM CLR 22/09 A3004 RMK AO2 SLP177 T02220089=
201809061753 METAR KBLI 061753Z VRB04KT 10SM CLR 19/09 A3005 RMK AO2 SLP181 T01940094 10200 20089 53002=
201809061653 METAR KBLI 061653Z 22003KT 10SM CLR 18/11 A3004 RMK AO2 SLP180 T01780106=
201809061553 METAR KBLI 061553Z 00000KT 10SM CLR 17/10 A3004 RMK AO2 SLP178 T01670100=
201809061453 METAR KBLI 061453Z 00000KT 10SM CLR 12/09 A3004 RMK AO2 SLP179 T01220094 53011=
201809061353 METAR KBLI 061353Z 00000KT 10SM CLR 09/07 A3003 RMK AO2 SLP176 T00940072=
201809061253 METAR KBLI 061253Z AUTO 00000KT 10SM CLR 10/07 A3002 RMK AO2 SLP171 T01000072=
201809061153 METAR KBLI 061153Z AUTO 00000KT 10SM CLR 10/08 A3001 RMK AO2 SLP168 T01000078 10139 20100 53003=
201809061053 METAR KBLI 061053Z AUTO 00000KT 10SM CLR 11/08 A3000 RMK AO2 SLP166 T01060078=
201809060953 METAR KBLI 060953Z AUTO 00000KT 10SM CLR 12/08 A3000 RMK AO2 SLP164 T01170083=
201809060853 METAR KBLI 060853Z AUTO 00000KT 10SM CLR 13/09 A3000 RMK AO2 SLP165 T01280094 51007=
201809060753 METAR KBLI 060753Z AUTO 15003KT 10SM CLR 13/09 A3000 RMK AO2 SLP163 T01280094 402610078=
201809060653 METAR KBLI 060653Z AUTO 16003KT 10SM CLR 14/10 A2999 RMK AO2 SLP160 T01390100=
201809060553 METAR KBLI 060553Z AUTO 00000KT 10SM CLR 14/09 A2998 RMK AO2 SLP158 T01390089 10244 20139 53010=
201809060453 METAR KBLI 060453Z 00000KT 10SM CLR 15/10 A2997 RMK AO2 SLP155 T01500100=
201809060353 METAR KBLI 060353Z 00000KT 10SM CLR 16/11 A2996 RMK AO2 SLP151 T01560106=
201809060253 METAR KBLI 060253Z 00000KT 10SM CLR 18/11 A2995 RMK AO2 SLP148 T01780111 55003=
201809060153 METAR KBLI 060153Z 00000KT 10SM CLR 21/10 A2995 RMK AO2 SLP146 T02060100=
201809060053 METAR KBLI 060053Z 28006KT 10SM CLR 24/08 A2995 RMK AO2 SLP147 T02390083=
201809052353 METAR KBLI 052353Z 25007KT 10SM CLR 24/09 A2996 RMK AO2 SLP151 T02440089 10261 20222 58010=
201809052253 METAR KBLI 052253Z 28006KT 10SM CLR 24/09 A2997 RMK AO2 SLP155 T02440094=
201809052153 METAR KBLI 052153Z 28009KT 10SM CLR 24/09 A2998 RMK AO2 SLP158 T02390094=
201809052053 METAR KBLI 052053Z 28009KT 10SM CLR 23/10 A2999 RMK AO2 SLP162 T02330100 56009=
201809051953 METAR KBLI 051953Z VRB04KT 10SM CLR 26/06 A3000 RMK AO2 SLP162 T02610056=
201809051853 METAR KBLI 051853Z 30007KT 10SM CLR 25/07 A3001 RMK AO2 SLP166 T02500067=
201809051753 METAR KBLI 051753Z 32007KT 10SM CLR 22/07 A3002 RMK AO2 SLP171 T02170072 10222 20078 58004=
201809051653 METAR KBLI 051653Z 34005KT 10SM CLR 19/07 A3003 RMK AO2 SLP173 T01890072=
201809051553 METAR KBLI 051553Z 36004KT 10SM CLR 15/09 A3003 RMK AO2 SLP175 T01500089=
201809051453 METAR KBLI 051453Z 00000KT 10SM CLR 11/09 A3003 RMK AO2 SLP176 T01060089 53010=
201809051353 METAR KBLI 051353Z 00000KT 10SM CLR 08/07 A3002 RMK AO2 SLP172 T00830067=
201809051253 METAR KBLI 051253Z AUTO 00000KT 10SM CLR 08/06 A3001 RMK AO2 SLP168 T00780061=
201809051153 METAR KBLI 051153Z AUTO 00000KT 10SM CLR 09/07 A3000 RMK AO2 SLP165 T00890072 10128 20083 58002=
201809051053 METAR KBLI 051053Z AUTO 00000KT 10SM CLR 10/08 A3000 RMK AO2 SLP166 T01000083=
201809051013 SPECI KBLI 051013Z AUTO 00000KT 10SM CLR 09/08 A3000 RMK AO2 T00940078=
201809051000 SPECI KBLI 051000Z AUTO 00000KT 1 3/4SM BR CLR 10/08 A3000 RMK AO2 T01000083=
201809050953 METAR KBLI 050953Z AUTO 00000KT 10SM CLR 10/08 A3000 RMK AO2 SLP166 T01000083=
201809050853 METAR KBLI 050853Z AUTO 00000KT 10SM CLR 11/09 A3001 RMK AO2 SLP167 T01110089 57002=
201809050753 METAR KBLI 050753Z AUTO 00000KT 10SM CLR 11/09 A3001 RMK AO2 SLP169 T01110089 402330067=
201809050653 METAR KBLI 050653Z AUTO 00000KT 10SM CLR 12/09 A3001 RMK AO2 SLP167 T01220089=
201809050553 METAR KBLI 050553Z AUTO 00000KT 10SM CLR 12/10 A3001 RMK AO2 SLP169 T01220100 10228 20117 50001=
201809050453 METAR KBLI 050453Z 00000KT 10SM CLR 12/10 A3002 RMK AO2 SLP172 T01220100=
201809050353 METAR KBLI 050353Z 00000KT 10SM CLR 14/11 A3002 RMK AO2 SLP171 T01390111=
201809050253 METAR KBLI 050253Z 00000KT 10SM CLR 17/11 A3001 RMK AO2 SLP169 T01670111 58012=
201809050153 METAR KBLI 050153Z 24003KT 10SM CLR 19/11 A3002 RMK AO2 SLP173 T01940106=
201809050053 METAR KBLI 050053Z 27005KT 10SM CLR 22/11 A3003 RMK AO2 SLP176 T02170106=
201809042353 METAR KBLI 042353Z 28007KT 10SM CLR 23/09 A3004 RMK AO2 SLP179 T02280089 10233 20194 56016=
201809042253 METAR KBLI 042253Z 28006KT 10SM CLR 22/10 A3006 RMK AO2 SLP185 T02170100=
201809042153 METAR KBLI 042153Z 25008KT 230V300 10SM CLR 22/10 A3007 RMK AO2 SLP189 T02170100=
201809042053 METAR KBLI 042053Z 26007KT 220V290 10SM CLR 22/11 A3009 RMK AO2 SLP195 T02170111 58017=
201809041953 METAR KBLI 041953Z 31008KT 10SM CLR 22/11 A3011 RMK AO2 SLP201 T02220106=
201809041853 METAR KBLI 041853Z 35007KT 10SM CLR 21/08 A3013 RMK AO2 SLP208 T02110078=
201809041753 METAR KBLI 041753Z 01004KT 10SM CLR 19/08 A3014 RMK AO2 SLP212 T01940083 10200 20067 58002=
201809041714 SPECI KBLI 041714Z VRB05KT 10SM CLR 17/08 A3014 RMK AO2 T01670083=
201809041653 METAR KBLI 041653Z 31005KT 10SM CLR 17/09 A3015 RMK AO2 SLP214 T01720089=
201809041553 METAR KBLI 041553Z 34003KT 10SM CLR 14/09 A3015 RMK AO2 SLP216 T01440094=
201809041453 METAR KBLI 041453Z 00000KT 10SM CLR 10/08 A3015 RMK AO2 SLP215 T01000078 53008=
201809041353 METAR KBLI 041353Z 00000KT 10SM CLR 07/05 A3014 RMK AO2 SLP213 T00670050=
201809041253 METAR KBLI 041253Z AUTO 00000KT 10SM CLR 08/06 A3013 RMK AO2 SLP208 T00780061=
201809041153 METAR KBLI 041153Z AUTO 00000KT 10SM CLR 08/07 A3012 RMK AO2 SLP207 T00830067 10117 20083 50000=
201809041053 METAR KBLI 041053Z AUTO 00000KT 10SM CLR 09/07 A3013 RMK AO2 SLP208 T00890067=
201809040953 METAR KBLI 040953Z AUTO 00000KT 10SM CLR 09/07 A3013 RMK AO2 SLP208 T00940067=
201809040853 METAR KBLI 040853Z AUTO 00000KT 10SM CLR 10/08 A3012 RMK AO2 SLP206 T01000078 51003=
201809040753 METAR KBLI 040753Z AUTO 00000KT 10SM CLR 10/08 A3012 RMK AO2 SLP206 T01000083 402110100=
201809040653 METAR KBLI 040653Z AUTO 00000KT 10SM CLR 11/09 A3012 RMK AO2 SLP205 T01110089=
201809040553 METAR KBLI 040553Z AUTO 00000KT 10SM CLR 11/08 A3011 RMK AO2 SLP203 T01110083 10206 20111 50004=
201809040453 METAR KBLI 040453Z 00000KT 10SM CLR 12/08 A3012 RMK AO2 SLP204 T01220078=
201809040353 METAR KBLI 040353Z 00000KT 10SM CLR 13/07 A3011 RMK AO2 SLP202 T01330072=
201809040253 METAR KBLI 040253Z 27004KT 10SM CLR 16/07 A3010 RMK AO2 SLP199 T01610072 56005=
201809040153 METAR KBLI 040153Z 29004KT 10SM CLR 19/06 A3010 RMK AO2 SLP199 T01940061=
201809040053 METAR KBLI 040053Z 29005KT 10SM CLR 21/07 A3011 RMK AO2 SLP201 T02060067=
201809032353 METAR KBLI 032353Z 29005KT 10SM CLR 21/08 A3012 RMK AO2 SLP204 T02060078 10211 20172 56009=
201809032253 METAR KBLI 032253Z 24007KT 10SM CLR 20/09 A3012 RMK AO2 SLP206 T02000089=
201809032153 METAR KBLI 032153Z VRB06KT 10SM CLR 19/10 A3013 RMK AO2 SLP210 T01940100=
201809032053 METAR KBLI 032053Z VRB04KT 10SM SCT080 19/09 A3014 RMK AO2 SLP213 T01940094 58001=
201809031953 METAR KBLI 031953Z 10SM CLR 18/09 A3015 RMK AO2 SLP214 T01830094=
201809031853 METAR KBLI 031853Z VRB03KT 10SM CLR 17/09 A3015 RMK AO2 SLP215 T01720094=
201809031753 METAR KBLI 031753Z 29005KT 10SM FEW023 BKN070 17/09 A3015 RMK AO2 SLP215 T01720094 10172 20139 51010=
201809031653 METAR KBLI 031653Z VRB04KT 10SM SCT022 17/09 A3015 RMK AO2 SLP214 T01670094=
201809031553 METAR KBLI 031553Z VRB03KT 10SM SCT022 BKN040 16/11 A3014 RMK AO2 SLP211 T01560106=
201809031453 METAR KBLI 031453Z 00000KT 10SM SCT025 BKN075 14/13 A3012 RMK AO2 SLP205 T01440128 53016=
201809031353 METAR KBLI 031353Z 00000KT 10SM SCT023 BKN055 OVC075 14/12 A3010 RMK AO2 SLP197 T01440122=
201809031341 SPECI KBLI 031341Z 18003KT 10SM FEW024 BKN030 OVC075 14/12 A3009 RMK AO2 T01440122=
201809031315 SPECI KBLI 031315Z AUTO 00000KT 10SM BKN029 OVC070 14/12 A3009 RMK AO2 T01440122=
201809031253 METAR KBLI 031253Z AUTO 16003KT 10SM SCT025 BKN050 OVC070 15/12 A3009 RMK AO2 SLP193 T01500122=
201809031222 SPECI KBLI 031222Z AUTO 00000KT 10SM SCT021 BKN050 OVC070 15/12 A3008 RMK AO2 T01500122=
201809031153 METAR KBLI 031153Z AUTO 17005KT 10SM BKN018 OVC025 15/12 A3007 RMK AO2 SLP190 T01500122 10156 20150 50008=
201809031053 METAR KBLI 031053Z AUTO 00000KT 10SM BKN016 BKN021 OVC026 16/12 A3008 RMK AO2 SLP189 T01560122=
201809030953 METAR KBLI 030953Z AUTO 00000KT 10SM FEW018 BKN023 OVC075 16/12 A3007 RMK AO2 SLP188 T01560122=
201809030936 SPECI KBLI 030936Z AUTO 26003KT 10SM FEW017 BKN048 OVC075 16/12 A3006 RMK AO2 T01560122=
201809030914 SPECI KBLI 030914Z AUTO 16005KT 10SM FEW011 BKN018 OVC023 16/12 A3005 RMK AO2 T01560122=
201809030853 METAR KBLI 030853Z AUTO 17005KT 10SM BKN014 OVC019 16/12 A3005 RMK AO2 SLP182 T01560122 51012=
201809030821 SPECI KBLI 030821Z AUTO 17004KT 10SM BKN014 BKN020 OVC065 16/12 A3005 RMK AO2 T01560117=
201809030753 METAR KBLI 030753Z AUTO 19005KT 10SM FEW020 15/11 A3004 RMK AO2 SLP178 T01500111 402220106=
201809030653 METAR KBLI 030653Z AUTO 17008KT 10SM CLR 15/12 A3003 RMK AO2 SLP174 T01500117=
201809030553 METAR KBLI 030553Z AUTO 18006KT 10SM BKN060 BKN110 15/12 A3002 RMK AO2 SLP170 T01500117 10211 20150 53004=
201809030453 METAR KBLI 030453Z 18009KT 10SM BKN120 15/12 A3000 RMK AO2 SLP166 T01500117=
201809030353 METAR KBLI 030353Z 17008KT 10SM CLR 17/11 A3000 RMK AO2 SLP165 T01670111=
201809030253 METAR KBLI 030253Z 17007KT 10SM CLR 17/10 A3000 RMK AO2 SLP166 T01670100 56011=
201809030153 METAR KBLI 030153Z 17008KT 10SM CLR 18/11 A3002 RMK AO2 SLP170 T01780106=
201809030053 METAR KBLI 030053Z 18007KT 10SM CLR 19/10 A3002 RMK AO2 SLP172 T01940100=
201809022353 METAR KBLI 022353Z 17007KT 10SM CLR 21/09 A3004 RMK AO2 SLP177 T02060094 10222 20150 58018=
201809022253 METAR KBLI 022253Z 21007KT 10SM CLR 22/09 A3006 RMK AO2 SLP186 T02170094=
201809022153 METAR KBLI 022153Z VRB04KT 10SM CLR 21/11 A3008 RMK AO2 SLP191 T02060106=
201809022053 METAR KBLI 022053Z 20005KT 10SM CLR 19/10 A3009 RMK AO2 SLP195 T01940100 56011=
201809021953 METAR KBLI 021953Z 18006KT 10SM CLR 18/09 A3010 RMK AO2 SLP197 T01830089=
201809021853 METAR KBLI 021853Z VRB06KT 10SM CLR 17/10 A3011 RMK AO2 SLP201 T01720100=
201809021753 METAR KBLI 021753Z 16003KT 10SM FEW120 15/11 A3012 RMK AO2 SLP206 T01500106 10150 20122 50003=
201809021653 METAR KBLI 021653Z 22004KT 10SM FEW005 13/11 A3013 RMK AO2 SLP207 T01330106=
201809021629 SPECI KBLI 021629Z 17005KT 10SM FEW005 13/10 A3013 RMK AO2 T01280100=
201809021553 METAR KBLI 021553Z 17006KT 10SM CLR 13/10 A3013 RMK AO2 SLP207 T01330100=
201809021453 METAR KBLI 021453Z 18005KT 10SM CLR 13/10 A3011 RMK AO2 SLP203 T01280100 51003=
201809021353 METAR KBLI 021353Z 20004KT 10SM CLR 12/10 A3011 RMK AO2 SLP202 T01220100=
201809021253 METAR KBLI 021253Z AUTO 18006KT 10SM CLR 13/09 A3010 RMK AO2 SLP200 T01280094=
201809021153 METAR KBLI 021153Z AUTO 18005KT 10SM CLR 13/09 A3010 RMK AO2 SLP199 T01280094 10139 20106 58002=
201809021053 METAR KBLI 021053Z AUTO 18006KT 10SM FEW050 13/10 A3011 RMK AO2 SLP200 T01330100=
201809020953 METAR KBLI 020953Z AUTO 16004KT 10SM CLR 12/09 A3011 RMK AO2 SLP201 T01170089=
201809020853 METAR KBLI 020853Z AUTO 18003KT 10SM CLR 11/09 A3011 RMK AO2 SLP201 T01110089 50001=
201809020753 METAR KBLI 020753Z AUTO 18004KT 10SM CLR 12/09 A3011 RMK AO2 SLP202 T01220094 402000117=
201809020653 METAR KBLI 020653Z AUTO 18003KT 10SM CLR 12/09 A3011 RMK AO2 SLP201 T01220094=
201809020553 METAR KBLI 020553Z AUTO 16003KT 10SM CLR 14/10 A3010 RMK AO2 SLP200 T01390100 10200 20139 50004=
201809020453 METAR KBLI 020453Z 18006KT 10SM CLR 15/11 A3011 RMK AO2 SLP201 T01500106=
201809020353 METAR KBLI 020353Z 18004KT 10SM CLR 15/11 A3010 RMK AO2 SLP199 T01500106=
201809020253 METAR KBLI 020253Z 17005KT 10SM CLR 16/11 A3009 RMK AO2 SLP196 T01610111 56004=
201809020153 METAR KBLI 020153Z 17005KT 10SM CLR 18/11 A3009 RMK AO2 SLP196 T01830111=
201809020053 METAR KBLI 020053Z 18005KT 10SM FEW080 19/11 A3010 RMK AO2 SLP199 T01890106=
201809012353 METAR KBLI 012353Z 16008KT 10SM FEW080 20/11 A3011 RMK AO2 SLP200 T02000106 10200 20156 58012=
201809012253 METAR KBLI 012253Z 20006KT 10SM SCT080 19/11 A3011 RMK AO2 SLP203 T01940111=
201809012153 METAR KBLI 012153Z 17008KT 10SM CLR 19/11 A3013 RMK AO2 SLP209 T01890111=
201809012053 METAR KBLI 012053Z 17008KT 10SM FEW030 SCT070 18/11 A3014 RMK AO2 SLP212 T01830111 58000=
201809011953 METAR KBLI 011953Z 17009G16KT 10SM SCT044 BKN080 17/11 A3014 RMK AO2 SLP212 T01720111=
201809011853 METAR KBLI 011853Z 17008KT 150V210 10SM BKN028 BKN044 16/11 A3014 RMK AO2 SLP212 T01610111=
201809011753 METAR KBLI 011753Z 17010KT 10SM OVC028 16/11 A3014 RMK AO2 SLP212 T01560111 10161 20139 53011=
201809011653 METAR KBLI 011653Z 17004KT 10SM OVC027 16/11 A3013 RMK AO2 SLP209 T01560111=
201809011553 METAR KBLI 011553Z 17006KT 10SM BKN033 OVC050 15/10 A3012 RMK AO2 SLP204 T01500100=
201809011453 METAR KBLI 011453Z 16005KT 10SM BKN036 OVC060 15/10 A3011 RMK AO2 SLP201 T01500100 53009=
201809011353 METAR KBLI 011353Z 16005KT 10SM BKN034 OVC041 14/09 A3009 RMK AO2 SLP195 T01440094=
201809011253 METAR KBLI 011253Z AUTO 16003KT 10SM OVC034 14/10 A3009 RMK AO2 SLP196 T01440100=
201809011153 METAR KBLI 011153Z AUTO 17005KT 10SM BKN060 14/10 A3008 RMK AO2 SLP191 T01390100 10150 20133 58003=
201809011053 METAR KBLI 011053Z AUTO 15007KT 10SM OVC080 14/10 A3008 RMK AO2 SLP193 T01440100=
201809010953 METAR KBLI 010953Z AUTO 17004KT 10SM OVC065 14/09 A3008 RMK AO2 SLP193 T01390094=
201809010853 METAR KBLI 010853Z AUTO 15006KT 10SM SCT070 BKN085 14/09 A3009 RMK AO2 SLP194 T01390089 53001=
201809010753 METAR KBLI 010753Z AUTO 15012G19KT 10SM CLR 14/10 A3008 RMK AO2 SLP191 T01440100 401890133=
201809010653 METAR KBLI 010653Z AUTO 16009G17KT 10SM CLR 15/09 A3008 RMK AO2 SLP191 T01500089=
201809010553 METAR KBLI 010553Z AUTO 15009KT 10SM FEW065 SCT100 15/09 A3008 RMK AO2 SLP193 T01500089 10183 20150 50004=
201809010453 METAR KBLI 010453Z 16010KT 10SM SCT100 16/09 A3009 RMK AO2 SLP195 T01560089=
201809010353 METAR KBLI 010353Z 16009KT 10SM BKN100 16/09 A3008 RMK AO2 SLP192 T01610089=
201809010253 METAR KBLI 010253Z 16011KT 10SM BKN090 17/09 A3007 RMK AO2 SLP188 T01670089 58010=
201809010153 METAR KBLI 010153Z 16009KT 10SM BKN090 17/09 A3009 RMK AO2 SLP194 T01720094=
201809010053 METAR KBLI 010053Z 17009KT 10SM FEW100 18/11 A3009 RMK AO2 SLP196 T01780106=

# No short TAF reports from KBLI in databse.

###################################
#  large TAF from KBLI
###################################
201809302326 TAF KBLI 302326Z 0100/0124 35004KT P6SM BKN040 OVC060 FM010200
                       14005KT P6SM VCSH BKN035 OVC080 FM011300
                       15005KT 6SM -RA BR OVC020 FM011600 15006KT
                       4SM -RA BR OVC015 FM012100 18004KT 6SM -SHRA
                       BR BKN020 BKN035=
201809302018 KBLI 302018Z 3020/0118 35003KT P6SM -RA BKN040 OVC080 FM010100
                       14005KT P6SM VCSH BKN035 OVC080 FM011400
                       15008KT 6SM -RA BR OVC020 FM011600 15006KT
                       4SM -RA BR OVC015=
201809301726 TAF KBLI 301726Z 3018/0118 01004KT P6SM -RA OVC027 FM010100 14005KT
                       P6SM -SHRA BKN035 OVC080 FM011400 15008KT
                       6SM -RA BR OVC020 FM011600 15006KT 4SM -RA
                       BR OVC015=
201809301132 TAF KBLI 301132Z 3012/0112 03005KT P6SM -RA SCT030 OVC050
                      TEMPO 3012/3016 -RA BKN022 OVC040 FM301600
                       VRB04KT 6SM -SHRA BR BKN030 OVC045 FM010100
                       VRB04KT P6SM -SHRA BKN035 OVC080 FM010700
                       15008KT 6SM -RA BR OVC027=
201809300522 TAF KBLI 300522Z 3006/0106 04005KT P6SM -SHRA BKN050 OVC090 FM300900
                       VRB03KT P6SM -SHRA SCT030 OVC050 FM301500
                       VRB03KT 6SM -SHRA BR BKN030 OVC045 FM010200
                       VRB03KT P6SM BKN035 OVC080=
201809292324 TAF KBLI 292324Z 3000/3024 02011G20KT P6SM FEW060 OVC090 FM300300
                       VRB03KT P6SM VCSH BKN045 OVC070 FM300900
                       VRB03KT P6SM -SHRA SCT020 OVC035 FM301500
                       VRB03KT 4SM -SHRA BR BKN020 OVC035=
201809291738 TAF KBLI 291738Z 2918/3018 03015G26KT P6SM OVC090 FM292000 36012KT
                       P6SM OVC070 FM300500 VRB03KT P6SM VCSH BKN045
                       OVC070 FM301200 VRB03KT P6SM -SHRA SCT020
                       OVC035=
201809291139 TAF KBLI 291139Z 2912/3012 02014G22KT P6SM BKN090 BKN200 FM292000
                       30006KT P6SM OVC080 FM300500 VRB03KT P6SM
                       BKN045 OVC070=
201809290521 TAF KBLI 290521Z 2906/3006 00000KT P6SM SKC FM291000 02012G18KT
                       P6SM FEW250 FM291400 02014G23KT P6SM BKN090
                       BKN200 FM292000 35008KT P6SM OVC080=
201809282320 TAF KBLI 282320Z 2900/2924 01009KT P6SM SKC FM290400 04006KT P6SM
                       SCT200 FM291200 02013KT P6SM OVC100 FM292000
                       35008KT P6SM OVC070=
201809281720 TAF KBLI 281720Z 2818/2918 02010G16KT P6SM FEW200 FM282000 32006KT
                       P6SM FEW200 FM290400 04006KT P6SM SCT200
                       FM291500 04006KT P6SM OVC070=
201809281121 TAF KBLI 281121Z 2812/2912 03014G20KT P6SM SKC FM281800 29005KT
                       P6SM SKC FM290200 VRB03KT P6SM SKC=
201809280840 KBLI 280840Z 2809/2906 03014KT P6SM SKC FM281800 29005KT P6SM SKC
                       FM290200 VRB03KT P6SM SKC=
201809280520 TAF KBLI 280520Z 2806/2906 00000KT P6SM SKC
                      TEMPO 2812/2816 1/2SM FG FM281800 29005KT
                       P6SM SKC FM290200 VRB03KT P6SM SKC=
201809272320 TAF KBLI 272320Z 2800/2824 26006KT P6SM SKC FM280400 00000KT P6SM
                       SKC
                      TEMPO 2812/2816 1/2SM FG FM281800 34005KT
                       P6SM SKC=
201809271721 TAF KBLI 271721Z 2718/2818 29006KT P6SM SKC FM280400 00000KT P6SM
                       SKC FM281000 00000KT 1/4SM FG VV001 FM281600
                       00000KT 4SM BR SCT002 FM281700 VRB04KT P6SM
                       SKC=
201809271415 KBLI 271415Z 2714/2812 00000KT 1/4SM FG VV001 FM271600 00000KT
                       5SM BR SCT003 FM271700 29006KT P6SM SKC
                       FM280400 00000KT P6SM SKC=
201809271139 TAF KBLI 271139Z 2712/2812 00000KT 5SM BR SCT001
                      TEMPO 2712/2715 1SM BR OVC001 FM271600 29006KT
                       P6SM SKC FM280400 00000KT P6SM SKC=
201809270523 TAF KBLI 270523Z 2706/2806 00000KT P6SM SKC FM271200 00000KT 1/4SM
                       FG VV001 FM271700 VRB03KT 5SM BR SCT005
                       FM271800 32006KT P6SM SKC=
201809262353 TAF KBLI 262353Z 2700/2724 VRB06KT P6SM SKC FM270400 VRB03KT P6SM
                       SKC FM271200 VRB03KT 1/4SM FG VV001 FM271700
                       VRB03KT 5SM BR SCT005 FM271800 32006KT P6SM
                       SKC=
201809261723 TAF KBLI 261723Z 2618/2718 34003KT 1SM BR BKN002 FM261900 VRB04KT
                       P6SM SKC FM262000 25006KT P6SM SKC FM270400
                       VRB03KT P6SM SKC FM271200 VRB03KT 1/4SM
                       FG VV001 FM271700 VRB03KT 5SM BR SCT005=
201809261606 KBLI 261606Z 2616/2712 01003KT 1/4SM FG VV002 FM261700 VRB05KT
                       5SM BR SCT005 FM261800 VRB05KT P6SM SCT250
                       FM262000 25006KT P6SM SCT250 FM270400 VRB03KT
                       P6SM SKC=
201809261404 KBLI 261404Z 2614/2712 00000KT 1/4SM FG VV002 FM261600 VRB03KT
                       3SM BR SCT005 FM261700 VRB05KT P6SM SCT250
                       FM261900 25006KT P6SM SCT250 FM270400 VRB03KT
                       P6SM SKC=
201809261120 TAF KBLI 261120Z 2612/2712 VRB03KT 3SM BR FEW005
                      TEMPO 2612/2616 1/2SM FG VV002 FM261700 VRB05KT
                       P6SM SCT250 FM261900 25006KT P6SM SCT250
                       FM270400 VRB03KT P6SM SKC=
201809260520 TAF KBLI 260520Z 2606/2706 00000KT P6SM SKC FM261200 VRB03KT 3SM
                       BR SCT002 FM261500 VRB05KT P6SM SKC FM261900
                       22006KT P6SM SKC=
201809252320 TAF KBLI 252320Z 2600/2624 28007KT P6SM SCT250 FM260300 VRB03KT
                       P6SM SKC FM261200 VRB03KT 3SM BR SCT002
                       FM261500 VRB05KT P6SM SKC FM261900 22006KT
                       P6SM SKC=
201809251720 TAF KBLI 251720Z 2518/2618 35006KT P6SM SCT250 FM252200 28007KT
                       P6SM SCT250 FM260600 VRB03KT P6SM SKC=
201809251123 TAF KBLI 251123Z 2512/2612 VRB03KT 3SM BR SCT001 SCT250
                      TEMPO 2512/2516 1/2SM FG VV001 FM251800 35006KT
                       P6SM BKN250 FM252200 27007KT P6SM SCT250
                       FM260600 VRB03KT P6SM SKC=
201809250900 KBLI 250900Z 2509/2606 VRB03KT 3SM BR SCT001 SCT200
                      TEMPO 2509/2513 1/2SM FG VV001 FM251800 35006KT
                       P6SM BKN250=
201809250520 TAF KBLI 250520Z 2506/2606 VRB03KT P6SM SCT250 FM251800 35006KT
                       P6SM BKN250=
201809242320 TAF KBLI 242320Z 2500/2524 VRB04KT P6SM SCT040 FM251800 35006KT
                       P6SM SKC=
201809241720 TAF KBLI 241720Z 2418/2518 VRB04KT P6SM SCT050 FM250600 17003KT
                       P6SM SKC=
201809241129 TAF KBLI 241129Z 2412/2512 00000KT P6SM SCT050
                      TEMPO 2412/2416 3SM BR FM241800 25005KT P6SM
                       FEW060 FM250600 17003KT P6SM SKC=
201809240520 TAF KBLI 240520Z 2406/2506 00000KT P6SM BKN050 FM242000 26005KT
                       P6SM FEW060=
201809232321 TAF KBLI 232321Z 2400/2424 16006KT P6SM BKN050 FM240200 18003KT
                       P6SM SCT050 BKN200 FM240600 VRB03KT P6SM
                       FEW050 FM242000 26005KT P6SM FEW060=
201809231721 TAF KBLI 231721Z 2318/2418 17005KT P6SM BKN060 FM240100 18003KT
                       P6SM SCT060 BKN200 FM240600 VRB03KT P6SM
                       FEW060 SCT200=
201809231120 TAF KBLI 231120Z 2312/2412 16008KT P6SM VCSH SCT025 BKN040
                      TEMPO 2312/2316 BKN020 OVC035 FM232100 17008KT
                       P6SM SCT025 BKN050 FM240000 VRB04KT P6SM
                       SCT050 BKN200 FM240600 18003KT P6SM FEW050
                       SCT200=
201809230528 TAF KBLI 230528Z 2306/2406 17005KT P6SM VCSH OVC035 FM231000 16008KT
                       P6SM OVC025 FM232100 17008KT P6SM SCT025
                       BKN050 FM240000 VRB04KT P6SM SCT050=
201809222320 TAF KBLI 222320Z 2300/2324 17008KT P6SM FEW025 BKN060 FM231000
                       16008KT P6SM OVC025 FM232100 17008KT P6SM
                       SCT025 BKN050=
201809221722 TAF KBLI 221722Z 2218/2318 16012G20KT P6SM VCSH FEW020 BKN060
                      TEMPO 2218/2222 -SHRA BKN020 OVC060 FM230200
                       17008KT P6SM VCSH FEW025 BKN060 FM231000
                       16008KT P6SM OVC025=
201809221126 TAF KBLI 221126Z 2212/2312 17014G21KT P6SM -SHRA OVC022 FM222300
                       17009G16KT P6SM VCSH SCT025 BKN050 FM230500
                       17008KT P6SM VCSH OVC035 FM230800 16009KT
                       P6SM BKN025=
201809220520 TAF KBLI 220520Z 2206/2306 VRB05KT P6SM -RA SCT025 OVC040
                      TEMPO 2206/2210 5SM -RA BR BKN025 OVC040
                       FM221000 16008KT P6SM -SHRA BKN020 OVC040
                       FM221900 18012G18KT P6SM VCSH SCT020 BKN040=
201809212320 TAF KBLI 212320Z 2200/2224 05006KT P6SM -RA SCT035 BKN060 OVC100
                       FM220500 16008KT P6SM -SHRA BKN025 OVC050
                       FM221000 16008KT P6SM SCT015 OVC025 FM221900
                       16012G18KT P6SM -SHRA BKN015 OVC025=
201809211720 TAF KBLI 211720Z 2118/2218 15006KT P6SM BKN050 OVC250 FM220100
                       14004KT P6SM -RA SCT025 BKN050 OVC150 FM220500
                       16010KT P6SM -SHRA BKN025 OVC050=
201809211135 TAF KBLI 211135Z 2112/2212 00000KT P6SM BKN035 BKN040 OVC050 FM220000
                       17014KT 4SM -RA BR BKN025 OVC050=
201809210909 KBLI 210909Z 2109/2206 35006KT P6SM -RA OVC035 FM211900 17013G20KT
                       P6SM BKN035 OVC070 FM220200 19014G22KT P6SM
                       OVC025=
201809210555 TAF KBLI 210555Z 2106/2206 VRB04KT P6SM -RA BKN040 OVC070 FM210900
                       15012G20KT P6SM OVC030 FM211900 17013G20KT
                       P6SM BKN035 OVC070 FM220200 19014G22KT P6SM
                       OVC025=
201809202322 TAF KBLI 202322Z 2100/2124 VRB04KT P6SM -RA SCT040 BKN060 OVC100
                       FM210400 VRB04KT P6SM -RA BKN040 OVC070
                       FM210900 15012KT P6SM OVC030 FM211900 15011KT
                       P6SM BKN035 OVC070=
201809201728 TAF KBLI 201728Z 2018/2118 17006KT P6SM SCT013 BKN040 OVC070 FM202100
                       17008KT P6SM SCT020 BKN040 OVC070 FM210000
                       14008KT P6SM VCSH BKN040 OVC060 FM210600
                       15012KT P6SM VCSH OVC030=
201809201131 TAF KBLI 201131Z 2012/2112 00000KT P6SM VCSH OVC022 FM201600 17006KT
                       P6SM VCSH OVC012 FM201900 17006KT P6SM VCSH
                       BKN040 FM210400 14004KT P6SM VCSH BKN040
                       OVC060=
201809200552 TAF KBLI 200552Z 2006/2106 17004KT P6SM SCT040 OVC080 FM201100
                       18006KT P6SM OVC015 FM201800 17008KT P6SM
                       SCT040 BKN060 OVC100 FM210300 VRB04KT P6SM
                       BKN030 OVC050=
201809192330 TAF KBLI 192330Z 2000/2024 17006KT P6SM SCT040 SCT120 FM200300
                       17004KT P6SM BKN040 OVC100 FM201000 18006KT
                       P6SM BKN020 OVC030 FM201800 17008KT P6SM
                       SCT040 BKN060 OVC100=
201809191720 TAF KBLI 191720Z 1918/2018 18005KT P6SM FEW200
                      TEMPO 1918/1919 SCT005 FM192000 17007KT P6SM
                       SCT120 SCT200 FM200000 17006KT P6SM SCT050
                       BKN120 FM200700 17004KT P6SM BKN045 OVC100
                       FM201400 18006KT P6SM BKN015 OVC030=
201809191134 TAF KBLI 191134Z 1912/2012 VRB04KT P6SM FEW002 SCT200
                      TEMPO 1912/1916 3SM BR FM191900 17007KT P6SM
                       SCT120 BKN200 FM200100 17006KT P6SM SCT050
                       BKN120 FM200700 17004KT P6SM BKN045 OVC100=
201809190520 TAF KBLI 190520Z 1906/2006 VRB03KT P6SM BKN200 FM191200 17004KT
                       P6SM FEW012 BKN200 FM191900 19007KT P6SM
                       SCT120 BKN200 FM200100 17003KT P6SM OVC050=
201809182322 TAF KBLI 182322Z 1900/1924 27007KT P6SM SCT200 FM190300 18005KT
                       P6SM BKN200 FM191200 17004KT P6SM FEW012
                       BKN200 FM191900 19007KT P6SM SCT120 BKN200=
201809181721 TAF KBLI 181721Z 1818/1918 VRB05KT P6SM SCT011
                      TEMPO 1818/1820 BKN011 FM182100 24006KT P6SM
                       FEW025 SCT200 FM190000 17004KT P6SM SCT200=
201809181120 TAF KBLI 181120Z 1812/1912 VRB04KT P6SM SCT015
                      TEMPO 1812/1816 BKN013 FM181800 VRB05KT P6SM
                       FEW015 SCT200 FM182100 24006KT P6SM FEW040
                       SCT200 FM190500 17004KT P6SM SCT200=
201809180848 KBLI 180848Z 1809/1906 VRB04KT P6SM SCT015
                      TEMPO 1809/1813 BKN014 FM181300 00000KT P6SM
                       FEW015 FM181900 20006KT P6SM FEW040 SCT200=
201809180556 TAF KBLI 180556Z 1806/1906 VRB04KT P6SM SKC FM181100 00000KT P6SM
                       FEW010 FM181200 00000KT 4SM BR OVC006
                      TEMPO 1813/1817 2SM BR OVC002 FM181900 20006KT
                       P6SM FEW040 SCT200=
201809172320 TAF KBLI 172320Z 1800/1824 20006KT P6SM FEW040 FM180400 20004KT
                       P6SM SKC FM181200 18003KT P6SM SCT012 FM181800
                       20006KT P6SM FEW040 SCT200=
201809171720 TAF KBLI 171720Z 1718/1818 19005KT P6SM FEW010 FEW070 FM172000
                       24006KT P6SM FEW070 FM180400 VRB04KT P6SM
                       SKC FM181000 18003KT P6SM SCT012=
201809171123 TAF KBLI 171123Z 1712/1812 17005KT P6SM SCT035 BKN060 FM171900
                       17004KT P6SM SCT050 FM172100 24006KT P6SM
                       FEW050 FM180400 VRB04KT P6SM SKC=
201809170520 TAF KBLI 170520Z 1706/1806 17005KT P6SM OVC070 FM171000 16004KT
                       P6SM OVC035 FM171300 VRB03KT P6SM BKN015
                       OVC025 FM171900 17004KT P6SM SCT020 BKN035
                       FM172100 24006KT P6SM SCT040 FM180100 00000KT
                       P6SM FEW050=
201809162320 TAF KBLI 162320Z 1700/1724 16010KT P6SM SCT025 BKN070
                      TEMPO 1700/1701 -SHRA BKN025 OVC070 FM170600
                       17006KT P6SM FEW030 BKN080 FM171000 17004KT
                       P6SM BKN020 OVC030=
201809161723 TAF KBLI 161723Z 1618/1718 15012G20KT P6SM SCT020 BKN070
                      TEMPO 1618/1622 -SHRA BKN020 OVC070 FM162300
                       17012KT P6SM SCT030 BKN070 FM170400 17006KT
                       P6SM FEW035 BKN090 FM171000 17004KT P6SM
                       BKN020 OVC030=
201809161122 TAF KBLI 161122Z 1612/1712 12009KT P6SM -RA SCT025 OVC040
                      TEMPO 1612/1616 5SM RA BR BKN017 OVC028 FM161600
                       11010G17KT 5SM -SHRA BR OVC022 FM162000
                       16012G18KT P6SM -SHRA BKN025 BKN045 FM170000
                       17008KT P6SM VCSH BKN035 BKN050 FM170500
                       17005KT P6SM FEW030 BKN050=
201809160529 TAF KBLI 160529Z 1606/1706 12007KT P6SM VCSH BKN080 OVC100 FM161000
                       15009KT 5SM -SHRA SCT025 OVC050 FM161300
                       13005KT 5SM -SHRA BR BKN025 OVC040 FM161800
                       14010G17KT 5SM -SHRA BR OVC022 FM162000
                       16012G18KT 5SM -SHRA OVC019 FM170000 21007KT
                       P6SM VCSH OVC030 FM170200 VRB03KT P6SM FEW030
                       OVC060=
201809152323 TAF KBLI 152323Z 1600/1624 14006KT P6SM SCT025 BKN070
                      TEMPO 1600/1604 BKN025 OVC070 FM160700 11005KT
                       P6SM BKN025 OVC050 FM161200 08004KT 4SM
                       -SHRA BR BKN015 OVC025 FM161900 15010KT
                       P6SM -SHRA SCT015 BKN030 OVC050 FM162200
                       16012G18KT P6SM SCT025 BKN050 BKN090=
201809151733 TAF KBLI 151733Z 1518/1618 13005KT P6SM -SHRA BKN025 OVC050 FM160100
                       15005KT P6SM SCT030 BKN060 OVC100 FM160700
                       12005KT P6SM BKN025 OVC050 FM161200 08004KT
                       4SM -SHRA BR BKN015 OVC025=
201809151128 TAF KBLI 151128Z 1512/1612 00000KT 4SM BR BKN060 FM151500 14004KT
                       P6SM VCSH OVC040 FM152100 16004KT P6SM -SHRA
                       BKN020 OVC040 FM160500 VRB03KT 4SM -SHRA
                       BR OVC020=
201809150712 KBLI 150712Z 1507/1606 00000KT 6SM -SHRA BR FEW040 BKN060 OVC080
                       TEMPO 1507/1511 3SM SHRA BR SCT004 BKN025
                       OVC040 FM151200 14004KT P6SM -SHRA OVC040
                       FM152100 16004KT P6SM VCSH SCT020 BKN050=
201809150530 TAF KBLI 150530Z 1506/1606 00000KT 6SM -SHRA BR FEW040 BKN060 OVC080
                       FM151200 14004KT P6SM -SHRA OVC040 FM152100
                       16004KT P6SM VCSH SCT020 BKN050=
201809141724 TAF KBLI 141724Z 1418/1518 17004KT P6SM SCT015 BKN045
                      TEMPO 1418/1419 BKN015 OVC045 FM142200 17008KT
                       P6SM SCT050 BKN090 FM150300 15003KT P6SM
                       -SHRA SCT030 OVC070 FM150700 VRB03KT P6SM
                       -SHRA BKN025 OVC040=
201809141647 KBLI 141647Z 1417/1512 13004KT P6SM SCT015 OVC035 FM142200 17008KT
                       P6SM SCT050 BKN090 FM150300 15003KT P6SM
                       -SHRA OVC030=
201809141413 KBLI 141413Z 1414/1512 00000KT P6SM BKN009 OVC035 FM141700 16006KT
                       P6SM SCT030 BKN080 FM142200 17008KT P6SM
                       SCT050 BKN090 FM150300 15003KT P6SM -SHRA
                       OVC030=
201809141136 TAF KBLI 141136Z 1412/1512 00000KT P6SM VCSH OVC025 FM141500 16004KT
                       P6SM BKN015 BKN070 FM141700 16006KT P6SM
                       SCT030 BKN080 FM142200 17008KT P6SM SCT050
                       BKN090 FM150300 15003KT P6SM -SHRA OVC030=
201809140534 TAF KBLI 140534Z 1406/1506 17004KT P6SM BKN080 FM141300 16004KT
                       P6SM BKN015 BKN070 FM141700 16006KT P6SM
                       SCT030 BKN080 FM142200 17008KT P6SM SCT050
                       BKN090 FM150300 VRB03KT P6SM -RA OVC030=
201809140304 KBLI 140304Z 1403/1424 19005KT P6SM VCSH SCT060 BKN090 FM141500
                       15003KT P6SM BKN020 OVC050 FM142000 16006KT
                       P6SM SCT025 BKN050 FM142200 17008KT P6SM
                       FEW030 BKN090=
201809132327 TAF KBLI 132327Z 1400/1424 16006KT P6SM SCT060 BKN090 FM141500
                       15003KT P6SM BKN020 OVC050 FM142000 16006KT
                       P6SM SCT025 BKN050 FM142200 17008KT P6SM
                       FEW030 BKN090=
201809131720 TAF KBLI 131720Z 1318/1418 17010G18KT P6SM FEW025 BKN090 FM140100
                       16005KT P6SM FEW020 OVC060 FM141500 15003KT
                       P6SM BKN020 OVC060=
201809131149 TAF KBLI 131149Z 1312/1412 17004KT P6SM OVC080
                      TEMPO 1312/1315 BKN015 OVC060 FM131700 17007KT
                       P6SM SCT020 BKN070 FM132200 18007KT P6SM
                       VCSH SCT030 BKN060 FM140600 16003KT P6SM
                       FEW020 OVC060=
201809130524 TAF KBLI 130524Z 1306/1406 VRB04KT P6SM VCSH SCT020 BKN080 FM130900
                       17004KT P6SM BKN015 BKN080 FM131700 17007KT
                       P6SM SCT020 BKN070 FM132200 23007KT P6SM
                       VCSH SCT030 BKN060=
201809122320 TAF KBLI 122320Z 1300/1324 17008KT P6SM VCSH SCT030 BKN070 FM130600
                       VRB04KT P6SM VCSH SCT020 BKN050 FM131200
                       18005KT P6SM BKN015 BKN050 FM131600 21005KT
                       P6SM SCT020 BKN050 FM132200 23007KT P6SM
                       SCT030 BKN060=
201809121720 TAF KBLI 121720Z 1218/1318 VRB04KT P6SM SCT025 BKN070 FM130000
                       23007KT P6SM VCSH BKN050 FM131000 18004KT
                       P6SM BKN015 FM131700 21005KT P6SM SCT025
                       BKN050=
201809121142 TAF KBLI 121142Z 1212/1312 VRB03KT P6SM -SHRA BKN025 BKN060 FM121400
                       16003KT P6SM VCSH BKN015 OVC040 FM121800
                       17006KT P6SM BKN025 BKN070 FM122300 19007KT
                       P6SM VCSH SCT035 BKN060 FM130600 17004KT
                       P6SM SCT035 OVC070=
201809120859 TAF AMD KBLI 120859Z 1209/1306 VRB03KT P6SM VCSH BKN030 BKN090
                       TEMPO 1209/1212 -SHRA BKN025 FM121200 VRB03KT
                       P6SM BKN020 BKN080 FM121800 17006KT P6SM
                       BKN025 BKN070 FM122300 19007KT P6SM VCSH
                       SCT035 BKN060=
201809120523 TAF KBLI 120523Z 1206/1306 11006KT P6SM VCSH BKN030 BKN090
                      TEMPO 1206/1210 -SHRA BKN025 FM121000 16005KT
                       P6SM BKN020 BKN080 FM121800 17006KT P6SM
                       BKN025 BKN070 FM122300 19007KT P6SM VCSH
                       SCT035 BKN060=
201809112320 TAF KBLI 112320Z 1200/1224 18008KT P6SM VCSH BKN050 FM120600 18006KT
                       P6SM SCT020 BKN050 FM121100 18006KT P6SM
                       BKN020 BKN050 FM121700 18006KT P6SM SCT025
                       BKN050=
201809111723 TAF KBLI 111723Z 1118/1218 VRB04KT P6SM VCSH SCT025 BKN070 FM112100
                       18006KT P6SM VCSH BKN040 BKN070 FM120600
                       18006KT P6SM BKN020 BKN040=
201809111126 TAF KBLI 111126Z 1112/1212 18004KT P6SM VCSH BKN050 BKN080
                      TEMPO 1112/1116 BKN030 FM111600 17008KT P6SM
                       VCSH SCT030 BKN050 FM112100 17007KT P6SM
                       -SHRA BKN050 BKN080 FM120300 17005KT P6SM
                       VCSH BKN035 BKN060 FM120900 17004KT P6SM
                       BKN030 BKN050=
201809110542 TAF KBLI 110542Z 1106/1206 16004KT P6SM BKN060 BKN100 FM111300
                       16007KT P6SM BKN025 BKN050 FM111800 17008KT
                       P6SM VCSH SCT030 BKN050
                      PROB30 1120/1202 -SHRA BKN030 FM120300 17005KT
                       P6SM VCSH BKN025 BKN080=
201809102320 TAF KBLI 102320Z 1100/1124 21008KT P6SM BKN060 FM110400 18008KT
                       P6SM SCT025 BKN050 FM110800 18008KT P6SM
                       BKN025 BKN050 FM111700 18008KT P6SM SCT025
                       BKN050=
201809101724 TAF KBLI 101724Z 1018/1118 18010KT P6SM SCT020 BKN070 FM102000
                       18010KT P6SM VCSH SCT020 BKN050 FM110800
                       18007KT P6SM BKN015 FM111700 18007KT P6SM
                       SCT020 BKN050=
201809101137 TAF KBLI 101137Z 1012/1112 17007KT P6SM BKN040 BKN070 FM101700
                       18009KT P6SM BKN035 BKN060 FM102100 17008KT
                       P6SM VCSH BKN040 FM110900 17006KT P6SM BKN022
                       OVC040=
201809100520 TAF KBLI 100520Z 1006/1106 18006KT 4SM -RA BR BKN030 OVC070 FM100800
                       17006KT P6SM -SHRA BKN020 OVC050 FM101000
                       17005KT P6SM BKN015 FM101700 18006KT P6SM
                       BKN025 FM102100 21008KT P6SM BKN040=
201809092320 TAF KBLI 092320Z 1000/1024 VRB04KT P6SM -RA OVC050
                      TEMPO 1000/1004 5SM -RA BR OVC030 FM100400
                       18006KT P6SM -SHRA OVC020 FM100900 18006KT
                       P6SM BKN015 FM101700 18006KT P6SM BKN025
                       FM102100 21008KT P6SM BKN040=
201809092201 KBLI 092201Z 0922/1018 10006KT P6SM -RA BKN050 OVC100 FM100000
                       14008KT P6SM -RA BKN030 OVC060
                      TEMPO 1002/1006 4SM -RA BR OVC025 FM100700
                       17008KT P6SM VCSH OVC020 FM101700 17008KT
                       P6SM BKN020 BKN050=
201809091720 TAF KBLI 091720Z 0918/1018 VRB04KT P6SM -SHRA BKN050 OVC100 FM092100
                       18012KT P6SM -RA BKN030 OVC060
                      TEMPO 1000/1004 4SM -RA BR OVC025 FM100700
                       17008KT P6SM VCSH OVC020=
201809091128 TAF KBLI 091128Z 0912/1012 15005KT P6SM VCSH SCT030 OVC100
                      TEMPO 0912/0916 1SM BR VV002 FM091800 18011KT
                       P6SM VCSH SCT030 OVC080 FM100000 18010KT
                       P6SM -RA BKN030 OVC060 FM100700 17008KT
                       P6SM VCSH OVC020=
201809090535 TAF KBLI 090535Z 0906/1006 VRB04KT P6SM VCSH SCT030 OVC070
                      TEMPO 0906/0908 -SHRA FM091000 15005KT P6SM
                       SCT025 OVC060 FM091700 18014KT P6SM SCT030
                       OVC060 FM092300 18010KT P6SM VCSH BKN040
                       FM100100 19010KT 6SM -RA OVC015=
201809090303 KBLI 090303Z 0903/0924 VRB04KT P6SM VCSH FEW025 SCT040 BKN080
                      TEMPO 0903/0904 -SHRA SCT025 FM090600 18008KT
                       P6SM BKN050 OVC150 FM091000 18012KT P6SM
                       BKN025 OVC050 FM091700 18014KT P6SM SCT030
                       OVC050 FM092300 18010KT P6SM -RA OVC030=
201809090158 KBLI 090158Z 0902/0924 21006KT P6SM VCSH BKN050 OVC070
                      TEMPO 0902/0903 -SHRA SCT030 FM090600 18008KT
                       P6SM BKN050 OVC150 FM091000 18012KT P6SM
                       BKN025 OVC050 FM091700 18014KT P6SM SCT030
                       OVC050 FM092300 18010KT P6SM -RA OVC030=
201809090108 KBLI 090108Z 0901/0924 19004KT P6SM VCSH BKN050 OVC070 FM090600
                       18008KT P6SM BKN050 OVC150 FM091000 18012KT
                       P6SM BKN025 OVC050 FM091700 18014KT P6SM
                       SCT030 OVC050 FM092300 18010KT P6SM -RA
                       OVC030=
201809082320 TAF KBLI 082320Z 0900/0924 18006KT P6SM BKN070 BKN200 FM090600
                       18008KT P6SM BKN050 OVC150 FM091000 18012KT
                       P6SM BKN025 OVC050 FM091700 18014KT P6SM
                       SCT030 OVC050 FM092300 18010KT P6SM -RA
                       OVC030=
201809081720 TAF KBLI 081720Z 0818/0918 19008KT P6SM VCSH SCT015 BKN070 BKN180
                       TEMPO 0818/0821 BKN015 OVC050 FM082100 18008KT
                       P6SM SCT030 BKN070 BKN200 FM090600 18008KT
                       P6SM BKN050 OVC150 FM091000 18012KT P6SM
                       BKN025 OVC050 FM091700 18014KT P6SM SCT030
                       OVC050=
201809081601 KBLI 081601Z 0816/0912 17007KT P6SM OVC006
                      TEMPO 0816/0818 BKN010 OVC040 FM081800 17007KT
                       P6SM SCT010 OVC040 FM090200 18006KT P6SM
                       VCSH BKN050 BKN100 FM091000 18008KT P6SM
                       BKN020 OVC050=
201809081348 KBLI 081348Z 0814/0912 17006KT P6SM VCSH SCT017 BKN050
                      TEMPO 0814/0817 BKN017 FM081900 17006KT P6SM
                       SCT030 BKN100 FM090200 18003KT P6SM VCSH
                       BKN050 BKN100=
201809081139 TAF KBLI 081139Z 0812/0912 17006KT P6SM VCSH BKN050
                      TEMPO 0812/0816 2SM BR SCT004 FM081900 17006KT
                       P6SM SCT030 BKN100 FM090200 18003KT P6SM
                       VCSH BKN050 BKN100=
201809081005 KBLI 081005Z 0810/0906 17006KT P6SM VCSH SCT020 BKN040 OVC060
                      TEMPO 0810/0814 2SM BR FM081900 17006KT P6SM
                       SCT030 BKN100 FM090200 VRB03KT P6SM BKN050
                       BKN100=
201809080527 TAF KBLI 080527Z 0806/0906 VRB03KT P6SM VCSH OVC070 FM081000 17006KT
                       P6SM BKN020 OVC060 FM081900 17006KT P6SM
                       SCT030 BKN100 FM090200 VRB03KT P6SM BKN050
                       BKN100=
201809080305 KBLI 080305Z 0803/0824 VRB04KT P6SM -SHRA FEW030 OVC050 FM080600
                       18008KT P6SM -SHRA OVC020 FM080900 17006KT
                       P6SM BKN015 OVC060 FM081800 18006KT P6SM
                       SCT030 BKN080=
201809072353 TAF KBLI 072353Z 0800/0824 17008KT P6SM FEW030 BKN100 FM080300
                       22006KT P6SM -SHRA SCT025 OVC060 FM080600
                       18008KT P6SM -SHRA OVC020 FM080900 17006KT
                       P6SM BKN015 OVC060 FM081800 18006KT P6SM
                       SCT030 BKN080=
201809071734 TAF KBLI 071734Z 0718/0818 17008KT P6SM FEW030 BKN150 FM072000
                       17008KT P6SM FEW030 BKN100 FM080300 22006KT
                       P6SM -SHRA SCT025 OVC060 FM080600 18008KT
                       P6SM -SHRA OVC020 FM080900 17006KT P6SM
                       BKN015 OVC060=
201809071124 TAF KBLI 071124Z 0712/0812 17012KT P6SM BKN150
                      TEMPO 0714/0718 SCT020 FM072000 17006KT P6SM
                       FEW030 BKN100 FM080300 22006KT P6SM -SHRA
                       SCT025 OVC060 FM080600 18008KT P6SM -SHRA
                       OVC020=
201809070526 TAF KBLI 070526Z 0706/0806 17007KT P6SM FEW150 SCT250 FM071200
                       17007KT P6SM BKN180 FM072000 17006KT P6SM
                       VCSH FEW030 BKN100 FM080100 23006KT P6SM
                       -SHRA SCT025 OVC060=
201809062355 TAF KBLI 062355Z 0700/0724 16007KT P6SM SKC FM070300 17009KT P6SM
                       FEW250 FM071100 17007KT P6SM BKN200 FM071800
                       18006KT P6SM BKN180=
201809061749 TAF KBLI 061749Z 0618/0718 VRB03KT P6SM FEW150 SCT250 FM070300
                       17011KT P6SM SCT150 SCT250 FM071100 17008KT
                       P6SM BKN120 OVC200=
201809061120 TAF KBLI 061120Z 0612/0712 VRB03KT P6SM FEW150 SCT250 FM061800
                       19008KT P6SM FEW150 SCT250 FM070300 17011KT
                       P6SM SCT150 SCT250 FM071100 17008KT P6SM
                       BKN120 OVC200=
201809060529 TAF KBLI 060529Z 0606/0706 VRB03KT P6SM FEW150 SCT250 FM061800
                       19008KT P6SM FEW150 SCT250 FM070300 VRB04KT
                       P6SM SCT150 SCT250=
201809052320 TAF KBLI 052320Z 0600/0624 VRB04KT P6SM SCT250 FM061800 17008KT
                       P6SM SCT250=
201809051729 TAF KBLI 051729Z 0518/0618 VRB04KT P6SM SCT250=
201809051133 TAF KBLI 051133Z 0512/0612 VRB03KT P6SM SCT250 FM051900 29006KT
                       P6SM SCT250 FM060800 18005KT P6SM SCT250=
201809050528 TAF KBLI 050528Z 0506/0606 VRB03KT P6SM SCT250 FM051900 29006KT
                       P6SM SCT250=
201809042340 TAF KBLI 042340Z 0500/0524 VRB03KT P6SM SCT250=
201809041740 TAF KBLI 041740Z 0418/0518 35006KT P6SM BKN250 FM042100 28006KT
                       P6SM BKN250 FM050100 VRB02KT P6SM FEW250=
201809041128 TAF KBLI 041128Z 0412/0512 VRB03KT P6SM SCT200 FM041700 02005KT
                       P6SM SKC FM042100 30007KT P6SM SKC FM050400
                       17003KT P6SM SKC=
201809040520 TAF KBLI 040520Z 0406/0506 VRB03KT P6SM FEW200 FM041700 01007KT
                       P6SM SKC FM042100 30007KT P6SM SKC=
201809032320 TAF KBLI 032320Z 0400/0424 VRB03KT P6SM SKC FM041700 01007KT P6SM
                       SKC FM042100 30007KT P6SM SKC=
201809031724 TAF KBLI 031724Z 0318/0418 19005KT P6SM SCT025 SCT050
                      TEMPO 0318/0320 SCT025 BKN050 FM032000 23006KT
                       P6SM SCT060 FM040100 VRB02KT P6SM SKC=
201809031610 KBLI 031610Z 0316/0412 VRB03KT P6SM SCT025 BKN050 FM031800 19006KT
                       P6SM SCT030 BKN050 FM032100 24006KT P6SM
                       SCT060 FM040300 VRB03KT P6SM SKC=
201809031435 KBLI 031435Z 0315/0412 VRB03KT P6SM SCT025 OVC060
                      TEMPO 0315/0318 BKN025 OVC060 FM031800 19006KT
                       P6SM SCT030 BKN050 FM032100 24006KT P6SM
                       SCT060 FM040300 VRB03KT P6SM SKC=
201809031120 TAF KBLI 031120Z 0312/0412 VRB04KT P6SM SCT018 BKN025 OVC050
                      TEMPO 0312/0316 BKN015 OVC022 FM031800 19006KT
                       P6SM SCT030 BKN050 FM032100 24006KT P6SM
                       SCT060 FM040300 VRB03KT P6SM SKC=
201809030532 TAF KBLI 030532Z 0306/0406 17008KT P6SM BKN070 OVC120 FM031100
                       17005KT P6SM OVC025 FM031800 19006KT P6SM
                       SCT030 BKN050 FM032100 24006KT P6SM SCT060
                       FM040000 VRB03KT P6SM SKC=
201809022320 TAF KBLI 022320Z 0300/0324 21007KT P6SM FEW250 FM030300 17007KT
                       P6SM BKN070 OVC120 FM031100 17005KT P6SM
                       OVC027 FM031800 19006KT P6SM SCT030 BKN050
                       FM032100 24006KT P6SM SCT060=
201809021725 TAF KBLI 021725Z 0218/0318 19007KT P6SM FEW070 SCT250 FM030300
                       17007KT P6SM BKN070 OVC120 FM031100 17005KT
                       P6SM OVC027=
201809021132 TAF KBLI 021132Z 0212/0312 18006KT P6SM FEW050 BKN200 FM021900
                       17008KT P6SM SCT070 BKN200 FM030300 17007KT
                       P6SM BKN070 OVC120 FM030900 17005KT P6SM
                       VCSH OVC027=
201809020522 TAF KBLI 020522Z 0206/0306 18006KT P6SM BKN200 FM021000 18004KT
                       P6SM BKN060 BKN200 FM021900 17008KT P6SM
                       SCT070=
201809012330 TAF KBLI 012330Z 0200/0224 20006KT P6SM SCT080 FM021000 18004KT
                       P6SM BKN060 FM021900 17008KT P6SM SCT070=
201809011720 TAF KBLI 011720Z 0118/0218 17004KT P6SM SCT025 OVC060
                      TEMPO 0118/0120 BKN025 OVC060 FM012200 19008KT
                       P6SM SCT070 SCT250 FM021000 18004KT P6SM
                       BKN060=
201809011120 TAF KBLI 011120Z 0112/0212 17010KT P6SM BKN080 OVC200 FM011400
                       16006KT P6SM BKN060 FM011900 19008KT P6SM
                       SCT070 SCT250 FM020800 18004KT P6SM BKN060=
201809010522 TAF KBLI 010522Z 0106/0206 17010KT P6SM SCT040 BKN100 OVC200 FM011400
                       16006KT P6SM BKN040 FM011900 19008KT P6SM
                       SCT040 SCT250=