##########################################################
# Query made at 02/16/2025 22:02:51 UTC
# Time interval: from 08/01/2018 00:00  to 08/31/2018 23:59  UTC
##########################################################

##########################################################
# KBLI, Bellingham, Bellingham International Airport (United States)
# WMO index: -----. WIGOS ID: Unknown
# Latitude 48-47-58N. Longitude 122-32-21W. Altitude 48 m.
##########################################################

###################################
#  METAR/SPECI from KBLI
###################################
201808312353 METAR KBLI 312353Z 17011G18KT 10SM SCT100 18/10 A3010 RMK AO2 SLP199 T01780100 10189 20167 58013=
201808312253 METAR KBLI 312253Z 16013G19KT 10SM BKN120 19/10 A3011 RMK AO2 SLP202 T01890100=
201808312153 METAR KBLI 312153Z 17014G19KT 10SM FEW110 18/11 A3013 RMK AO2 SLP210 T01780106=
201808312053 METAR KBLI 312053Z 15015G19KT 10SM FEW030 17/10 A3014 RMK AO2 SLP211 T01720100 50003=
201808311953 METAR KBLI 311953Z 16013G19KT 10SM FEW030 18/10 A3014 RMK AO2 SLP212 T01780100=
201808311853 METAR KBLI 311853Z 16011KT 10SM CLR 17/11 A3013 RMK AO2 SLP210 T01720106=
201808311753 METAR KBLI 311753Z 17012G17KT 10SM FEW080 17/11 A3013 RMK AO2 SLP208 T01670111 10172 20133 51009=
201808311653 METAR KBLI 311653Z 17006KT 10SM BKN060 16/11 A3013 RMK AO2 SLP208 T01560111=
201808311553 METAR KBLI 311553Z 17006KT 10SM SCT060 14/11 A3011 RMK AO2 SLP202 T01440111=
201808311453 METAR KBLI 311453Z 18004KT 10SM FEW055 14/11 A3010 RMK AO2 SLP198 T01440111 53014=
201808311353 METAR KBLI 311353Z 17004KT 10SM CLR 14/11 A3008 RMK AO2 SLP191 T01390111=
201808311253 METAR KBLI 311253Z AUTO 18008KT 10SM CLR 14/11 A3006 RMK AO2 SLP186 T01390106=
201808311153 METAR KBLI 311153Z AUTO 19006KT 10SM FEW055 14/11 A3006 RMK AO2 SLP184 T01390111 10172 20139 53004=
201808311053 METAR KBLI 311053Z AUTO 18007KT 10SM CLR 14/11 A3005 RMK AO2 SLP183 T01440111=
201808310953 METAR KBLI 310953Z AUTO 18006KT 10SM FEW047 14/11 A3005 RMK AO2 SLP181 T01440111=
201808310853 METAR KBLI 310853Z AUTO 19008KT 160V230 10SM CLR 15/11 A3005 RMK AO2 SLP181 T01500111 51005=
201808310753 METAR KBLI 310753Z AUTO 20005KT 10SM FEW060 16/12 A3004 RMK AO2 SLP179 T01610117 402110133=
201808310653 METAR KBLI 310653Z AUTO 17005KT 10SM CLR 17/11 A3004 RMK AO2 SLP177 T01670111=
201808310553 METAR KBLI 310553Z AUTO 16008KT 10SM SCT080 17/11 A3003 RMK AO2 SLP176 T01720111 10206 20172 51010=
201808310453 METAR KBLI 310453Z 18008KT 10SM BKN080 17/11 A3003 RMK AO2 SLP173 T01720111=
201808310353 METAR KBLI 310353Z 16008KT 10SM BKN065 OVC085 18/12 A3001 RMK AO2 SLP169 T01830117=
201808310253 METAR KBLI 310253Z 16007KT 10SM FEW070 19/11 A3000 RMK AO2 SLP166 T01890111 55004=
201808310153 METAR KBLI 310153Z 16010KT 10SM CLR 19/11 A3000 RMK AO2 SLP164 T01940106=
201808310053 METAR KBLI 310053Z 17010KT 10SM OVC095 20/12 A3001 RMK AO2 SLP167 T02000117=
201808302353 METAR KBLI 302353Z 18007KT 140V200 10SM FEW080 OVC095 20/12 A3002 RMK AO2 SLP170 T02000122 10211 20172 55000=
201808302253 METAR KBLI 302253Z 17009KT 10SM SCT090 21/13 A3002 RMK AO2 SLP170 T02110128=
201808302153 METAR KBLI 302153Z 17009G16KT 140V210 10SM CLR 20/12 A3001 RMK AO2 SLP169 T02000122=
201808302053 METAR KBLI 302053Z 19009G17KT 10SM SCT055 19/12 A3002 RMK AO2 SLP171 T01940122 51003=
201808301953 METAR KBLI 301953Z 16008KT 10SM FEW025 SCT055 19/13 A3002 RMK AO2 SLP170 T01940128=
201808301853 METAR KBLI 301853Z 16011KT 10SM FEW015 BKN075 18/13 A3002 RMK AO2 SLP170 T01830128=
201808301753 METAR KBLI 301753Z 16007KT 10SM FEW010 SCT030 BKN060 17/13 A3001 RMK AO2 SLP168 T01720128 10172 20144 52011=
201808301653 METAR KBLI 301653Z 16010KT 10SM FEW011 OVC043 16/12 A3000 RMK AO2 SLP165 T01560122=
201808301553 METAR KBLI 301553Z 17006KT 10SM SCT013 BKN046 16/12 A2998 RMK AO2 SLP159 T01560122=
201808301453 METAR KBLI 301453Z 17011KT 10SM SCT010 BKN043 15/12 A2998 RMK AO2 SLP157 T01500122 52009=
201808301436 SPECI KBLI 301436Z 17008KT 10SM FEW009 BKN042 OVC049 15/12 A2998 RMK AO2 T01500122=
201808301353 METAR KBLI 301353Z 16007KT 10SM FEW010 BKN043 15/12 A2997 RMK AO2 SLP154 T01500122=
201808301253 METAR KBLI 301253Z AUTO 17005KT 10SM OVC060 15/12 A2996 RMK AO2 SLP150 T01500122=
201808301153 METAR KBLI 301153Z AUTO 17007KT 10SM FEW010 OVC055 14/12 A2995 RMK AO2 SLP148 70003 T01440122 10150 20133 51004=
201808301053 METAR KBLI 301053Z AUTO 16005KT 10SM BKN055 OVC070 15/12 A2995 RMK AO2 SLP147 T01500122=
201808300953 METAR KBLI 300953Z AUTO 17004KT 10SM BKN065 14/12 A2994 RMK AO2 SLP145 T01440117=
201808300853 METAR KBLI 300853Z AUTO 17004KT 10SM CLR 13/11 A2994 RMK AO2 SLP143 T01330111 51010=
201808300753 METAR KBLI 300753Z AUTO 15004KT 10SM CLR 14/11 A2993 RMK AO2 SLP141 T01390111 402060122=
201808300653 METAR KBLI 300653Z AUTO 17005KT 10SM CLR 14/11 A2992 RMK AO2 SLP136 T01440111=
201808300553 METAR KBLI 300553Z AUTO 16004KT 10SM CLR 15/12 A2991 RMK AO2 SLP133 T01500117 10194 20150 51010=
201808300453 METAR KBLI 300453Z 18004KT 10SM CLR 16/12 A2990 RMK AO2 SLP131 T01560117=
201808300353 METAR KBLI 300353Z 18006KT 10SM CLR 16/12 A2989 RMK AO2 SLP127 T01610117=
201808300253 METAR KBLI 300253Z 18007KT 10SM CLR 17/12 A2988 RMK AO2 SLP123 T01670117 51003=
201808300153 METAR KBLI 300153Z 18008KT 10SM CLR 17/12 A2987 RMK AO2 SLP122 T01720117=
201808300053 METAR KBLI 300053Z 18008G18KT 10SM CLR 18/11 A2987 RMK AO2 SLP121 T01830111=
201808292353 METAR KBLI 292353Z 18010G17KT 10SM CLR 19/12 A2987 RMK AO2 SLP119 T01940117 10206 20156 51002=
201808292253 METAR KBLI 292253Z 16011G16KT 10SM FEW120 20/12 A2986 RMK AO2 SLP118 T02000122=
201808292153 METAR KBLI 292153Z 17010KT 10SM BKN085 19/12 A2987 RMK AO2 SLP120 T01940122=
201808292053 METAR KBLI 292053Z 17014G21KT 10SM FEW080 BKN100 18/12 A2986 RMK AO2 SLP117 T01830117 57002=
201808291953 METAR KBLI 291953Z 16010G19KT 10SM OVC100 18/12 A2986 RMK AO2 SLP116 T01830117=
201808291853 METAR KBLI 291853Z 17008KT 10SM BKN100 OVC120 18/12 A2987 RMK AO2 SLP120 T01780122=
201808291753 METAR KBLI 291753Z 16009KT 10SM FEW120 16/12 A2987 RMK AO2 RAE1657 SLP119 P0000 60003 T01560122 10156 20139 50000=
201808291653 METAR KBLI 291653Z 18007KT 10SM -RA BKN100 OVC110 14/12 A2986 RMK AO2 SLP119 P0003 T01390122=
201808291553 METAR KBLI 291553Z 19006KT 10SM -RA OVC095 14/11 A2988 RMK AO2 RAB45 SLP123 P0000 T01440111=
201808291453 METAR KBLI 291453Z 17007KT 10SM CLR 14/11 A2987 RMK AO2 SLP119 T01440111 56008=
201808291353 METAR KBLI 291353Z 17006KT 10SM CLR 14/12 A2987 RMK AO2 SLP121 T01390117=
201808291253 METAR KBLI 291253Z AUTO 17005KT 10SM CLR 14/12 A2987 RMK AO2 SLP118 T01440117=
201808291153 METAR KBLI 291153Z AUTO 17007KT 10SM CLR 14/12 A2989 RMK AO2 SLP126 T01440117 10150 20122 55007=
201808291053 METAR KBLI 291053Z AUTO 17003KT 10SM CLR 14/12 A2988 RMK AO2 SLP125 T01440117=
201808290953 METAR KBLI 290953Z AUTO 18003KT 10SM CLR 13/11 A2990 RMK AO2 SLP129 T01330111=
201808290853 METAR KBLI 290853Z AUTO 00000KT 10SM CLR 13/11 A2991 RMK AO2 SLP134 T01280106 55009=
201808290753 METAR KBLI 290753Z AUTO 00000KT 10SM CLR 14/11 A2991 RMK AO2 SLP134 T01390111 402500089=
201808290653 METAR KBLI 290653Z AUTO 00000KT 10SM CLR 14/11 A2993 RMK AO2 SLP142 T01390106=
201808290553 METAR KBLI 290553Z AUTO 00000KT 10SM CLR 14/11 A2994 RMK AO2 SLP143 T01440111 10250 20139 58006=
201808290453 METAR KBLI 290453Z 00000KT 10SM CLR 14/12 A2995 RMK AO2 SLP147 T01440117=
201808290353 METAR KBLI 290353Z 00000KT 10SM CLR 16/12 A2995 RMK AO2 SLP148 T01610117=
201808290253 METAR KBLI 290253Z 00000KT 10SM CLR 18/12 A2996 RMK AO2 SLP150 T01830122 58010=
201808290153 METAR KBLI 290153Z 00000KT 10SM CLR 22/12 A2997 RMK AO2 SLP153 T02170117=
201808290053 METAR KBLI 290053Z 28005KT 10SM CLR 23/11 A2998 RMK AO2 SLP157 T02330111=
201808282353 METAR KBLI 282353Z 18005KT 10SM CLR 24/13 A2999 RMK AO2 SLP160 T02390128 10250 20194 58021=
201808282253 METAR KBLI 282253Z VRB03KT 10SM CLR 24/13 A3001 RMK AO2 SLP167 T02390128=
201808282153 METAR KBLI 282153Z VRB05KT 10SM CLR 24/12 A3003 RMK AO2 SLP174 T02390122=
201808282053 METAR KBLI 282053Z VRB05KT 10SM FEW080 23/11 A3005 RMK AO2 SLP181 T02280106 58012=
201808281953 METAR KBLI 281953Z 18005KT 10SM FEW080 22/11 A3006 RMK AO2 SLP185 T02170111=
201808281853 METAR KBLI 281853Z 23006KT 10SM FEW080 21/09 A3008 RMK AO2 SLP191 T02060094=
201808281753 METAR KBLI 281753Z 00000KT 10SM CLR 20/09 A3008 RMK AO2 SLP193 T02000094 10200 20089 58002=
201808281653 METAR KBLI 281653Z 00000KT 10SM FEW080 17/11 A3009 RMK AO2 SLP195 T01720106=
201808281553 METAR KBLI 281553Z 00000KT 10SM FEW080 16/11 A3009 RMK AO2 SLP196 T01560106=
201808281453 METAR KBLI 281453Z 00000KT 10SM FEW080 11/09 A3009 RMK AO2 SLP195 T01110089 53005=
201808281353 METAR KBLI 281353Z 00000KT 10SM CLR 10/08 A3009 RMK AO2 SLP195 T01000083=
201808281253 METAR KBLI 281253Z AUTO 00000KT 10SM CLR 09/08 A3007 RMK AO2 SLP189 T00890078=
201808281153 METAR KBLI 281153Z AUTO 00000KT 10SM CLR 11/08 A3008 RMK AO2 SLP190 T01060083 10156 20094 56001=
201808281053 METAR KBLI 281053Z AUTO 00000KT 10SM CLR 10/08 A3008 RMK AO2 SLP190 T01000083=
201808280953 METAR KBLI 280953Z AUTO 00000KT 10SM CLR 11/09 A3007 RMK AO2 SLP189 T01060089=
201808280853 METAR KBLI 280853Z AUTO 00000KT 10SM CLR 12/10 A3008 RMK AO2 SLP191 T01170100 53003=
201808280753 METAR KBLI 280753Z AUTO 16005KT 10SM CLR 13/09 A3007 RMK AO2 SLP189 T01330094 402440111=
201808280653 METAR KBLI 280653Z AUTO 15004KT 10SM CLR 13/09 A3007 RMK AO2 SLP187 T01330094=
201808280553 METAR KBLI 280553Z AUTO 14003KT 10SM CLR 13/07 A3007 RMK AO2 SLP188 T01280072 10228 20122 53002=
201808280453 METAR KBLI 280453Z 00000KT 10SM CLR 14/09 A3007 RMK AO2 SLP188 T01390089=
201808280353 METAR KBLI 280353Z 00000KT 10SM CLR 15/09 A3006 RMK AO2 SLP186 T01500094=
201808280253 METAR KBLI 280253Z 00000KT 10SM CLR 18/11 A3006 RMK AO2 SLP186 T01780111 55006=
201808280153 METAR KBLI 280153Z 17003KT 10SM CLR 21/09 A3006 RMK AO2 SLP185 T02110094=
201808280053 METAR KBLI 280053Z VRB03KT 10SM FEW100 22/07 A3007 RMK AO2 SLP189 T02220067=
201808272353 METAR KBLI 272353Z 28008KT 10SM FEW100 22/08 A3008 RMK AO2 SLP193 T02220078 10244 20183 58005=
201808272253 METAR KBLI 272253Z VRB05KT 10SM FEW090 23/09 A3009 RMK AO2 SLP194 T02330089=
201808272155 METAR KBLI 272155Z COR 23010KT 10SM FEW100 23/11 A3010 RMK AO2 SLP198 T02280111=
201808272153 METAR KBLI 272153Z 26008KT 240V310 10SM CLR 23/11 A3010 RMK AO2 SLP198 T02280111=
201808272053 METAR KBLI 272053Z 31007KT 10SM FEW100 23/11 A3010 RMK AO2 SLP198 T02330106 56009=
201808271953 METAR KBLI 271953Z VRB03KT 10SM FEW100 23/11 A3011 RMK AO2 SLP201 T02280106=
201808271853 METAR KBLI 271853Z 32008KT 10SM FEW090 21/12 A3011 RMK AO2 SLP202 T02110117=
201808271753 METAR KBLI 271753Z 29006KT 10SM FEW080 18/12 A3013 RMK AO2 SLP207 T01830117 10183 20117 51011=
201808271653 METAR KBLI 271653Z 34006KT 10SM SCT013 17/12 A3012 RMK AO2 SLP205 T01670122=
201808271553 METAR KBLI 271553Z 01006KT 10SM FEW016 16/12 A3010 RMK AO2 SLP200 T01560122=
201808271526 SPECI KBLI 271526Z 34004KT 3SM BR SCT002 SCT016 14/12 A3010 RMK AO2 T01390117=
201808271517 SPECI KBLI 271517Z 33004KT 3/4SM R16/4000VP6000FT BR VV001 13/11 A3010 RMK AO2 T01330111=
201808271515 SPECI KBLI 271515Z 34004KT 1 1/2SM R16/3000V5500FT BR BKN002 13/11 A3010 RMK AO2 T01330111=
201808271513 SPECI KBLI 271513Z 33004KT 1SM R16/3000V5500FT BR BKN002 OVC110 13/11 A3010 RMK AO2 T01330111=
201808271507 SPECI KBLI 271507Z 34004KT 1/2SM R16/2200V5500FT FG BKN002 OVC110 13/12 A3009 RMK AO2 T01280117=
201808271453 METAR KBLI 271453Z 35004KT 1/4SM R16/1200V1600FT FG VV002 12/11 A3009 RMK AO2 SLP197 T01220106 53012=
201808271353 METAR KBLI 271353Z 00000KT M1/4SM R16/1000FT FG VV001 12/11 A3007 RMK AO2 SLP190 T01170106=
201808271349 SPECI KBLI 271349Z 00000KT M1/4SM R16/1000V1200FT FG VV001 12/10 A3007 RMK AO2=
201808271253 METAR KBLI 271253Z AUTO 34004KT 1/4SM R16/1800V2000FT FG VV002 12/11 A3006 RMK AO2 SLP185 T01170106=
201808271245 SPECI KBLI 271245Z AUTO 31004KT 1/2SM R16/2000V2200FT FG VV002 12/11 A3005 RMK AO2 T01220106=
201808271234 SPECI KBLI 271234Z AUTO 30004KT 1/2SM R16/2000V2400FT FG VV002 12/11 A3005 RMK AO2 T01220106=
201808271153 METAR KBLI 271153Z AUTO 32004KT 1/2SM R16/1800V2000FT FG VV002 12/11 A3004 RMK AO2 SLP177 70014 T01220111 10122 20106 51014=
201808271053 METAR KBLI 271053Z AUTO 36003KT 1/4SM R16/1400V1600FT FG VV002 12/11 A3002 RMK AO2 SLP173 T01220111=
201808271021 SPECI KBLI 271021Z AUTO 01004KT 1/4SM R16/1600V1800FT FG VV002 12/11 A3002 RMK AO2 T01220111=
201808270953 METAR KBLI 270953Z AUTO 02007KT 1/4SM R16/1400V1600FT FG VV001 12/11 A3001 RMK AO2 SLP169 T01170106=
201808270900 SPECI KBLI 270900Z AUTO 35003KT 1/4SM R16/1400V1800FT FG VV001 11/10 A3000 RMK AO2 T01110100=
201808270853 METAR KBLI 270853Z AUTO 00000KT 1/2SM R16/1600V4500FT FG VV002 11/09 A3000 RMK AO2 SLP164 T01110094 51010=
201808270835 SPECI KBLI 270835Z AUTO 36003KT 1/2SM R16/5000VP6000FT FG VV003 11/10 A2999 RMK AO2 T01110100=
201808270832 SPECI KBLI 270832Z AUTO 35003KT 1SM R16/4500VP6000FT BR VV002 11/10 A2999 RMK AO2 T01110100=
201808270818 SPECI KBLI 270818Z AUTO 00000KT 1 1/2SM BR CLR 12/10 A2999 RMK AO2 T01170100=
201808270801 SPECI KBLI 270801Z AUTO 00000KT 3SM BR CLR 11/10 A2999 RMK AO2 T01110100=
201808270753 METAR KBLI 270753Z AUTO 04003KT 1 1/2SM R16/4000VP6000FT BR FEW008 11/10 A2999 RMK AO2 SLP163 T01110100 401720106=
201808270751 SPECI KBLI 270751Z AUTO 04003KT 1 3/4SM R16/3500VP6000FT BR FEW008 11/10 A2999 RMK AO2=
201808270744 SPECI KBLI 270744Z AUTO 00000KT 2SM R16/3500VP6000FT BR CLR 11/10 A2999 RMK AO2 T01110100=
201808270728 SPECI KBLI 270728Z AUTO 00000KT 1SM R16/P6000FT BR VV005 11/09 A2999 RMK AO2 T01060089=
201808270721 SPECI KBLI 270721Z AUTO 35003KT 2SM R16/5500VP6000FT BR FEW005 11/09 A2999 RMK AO2 T01060094=
201808270718 SPECI KBLI 270718Z AUTO 00000KT 1SM R16/5500VP6000FT BR VV005 11/09 A2998 RMK AO2 T01110094=
201808270702 SPECI KBLI 270702Z AUTO 00000KT 1/2SM R16/2600VP6000FT FG VV005 11/09 A2998 RMK AO2 T01110094=
201808270653 METAR KBLI 270653Z AUTO 00000KT 1 1/2SM R16/2200VP6000FT BR FEW031 11/09 A2997 RMK AO2 SLP156 T01110094=
201808270553 METAR KBLI 270553Z AUTO 00000KT 8SM CLR 12/11 A2997 RMK AO2 SLP154 T01220111 10167 20122 53014=
201808270453 METAR KBLI 270453Z 17003KT 10SM BKN039 OVC055 15/12 A2995 RMK AO2 SLP146 T01500117=
201808270353 METAR KBLI 270353Z 15004KT 10SM OVC047 16/11 A2994 RMK AO2 SLP145 T01560111=
201808270253 METAR KBLI 270253Z 17005KT 10SM BKN043 OVC050 16/11 A2992 RMK AO2 SLP139 T01560111 55003=
201808270153 METAR KBLI 270153Z 16006KT 10SM OVC041 16/11 A2992 RMK AO2 SLP137 T01560111=
201808270053 METAR KBLI 270053Z 16006KT 10SM SCT038 BKN055 16/11 A2993 RMK AO2 SLP141 T01610111=
201808262353 METAR KBLI 262353Z 18007KT 10SM SCT018 BKN042 BKN070 17/12 A2993 RMK AO2 SLP142 60000 T01670117 10172 20139 58009=
201808262253 METAR KBLI 262253Z 15007KT 10SM FEW049 OVC065 16/12 A2995 RMK AO2 RAB33E43 SLP146 P0000 T01610122=
201808262153 METAR KBLI 262153Z 15007KT 10SM SCT015 BKN030 OVC050 15/12 A2996 RMK AO2 SLP149 T01500117=
201808262053 METAR KBLI 262053Z 17008KT 10SM BKN011 OVC037 14/12 A2996 RMK AO2 SLP151 60000 T01440117 56009=
201808262042 SPECI KBLI 262042Z 16008KT 7SM BKN013 OVC037 14/12 A2996 RMK AO2 T01440122=
201808261953 METAR KBLI 261953Z 17008KT 5SM BR BKN008 OVC013 14/13 A2997 RMK AO2 RAB30E40 SLP154 P0000 T01440128=
201808261907 SPECI KBLI 261907Z 16008KT 4SM BR BKN006 OVC016 14/13 A2997 RMK AO2 T01440128=
201808261900 SPECI KBLI 261900Z 17007KT 5SM BR SCT009 BKN016 OVC033 14/13 A2997 RMK AO2 T01440128=
201808261853 METAR KBLI 261853Z 17007KT 4SM BR BKN006 OVC016 14/12 A2997 RMK AO2 SLP155 T01440122=
201808261753 METAR KBLI 261753Z 17008KT 5SM BR BKN006 OVC013 14/12 A2999 RMK AO2 RAE46 SLP160 P0002 60014 T01390122 10144 20133 58004=
201808261704 SPECI KBLI 261704Z 17006KT 2 1/2SM -RA BR OVC004 14/12 A2999 RMK AO2 CIG 003V009 P0002 T01390122=
201808261653 METAR KBLI 261653Z 17007KT 5SM -RA BR BKN004 OVC026 14/12 A2999 RMK AO2 SLP162 P0006 T01390122=
201808261641 SPECI KBLI 261641Z 17007KT 5SM -RA BR BKN004 OVC023 13/12 A2999 RMK AO2 P0004 T01330122=
201808261600 SPECI KBLI 261600Z 15009KT 5SM -RA BR OVC006 14/12 A3000 RMK AO2 CIG 005V010 P0000 T01390122=
201808261553 METAR KBLI 261553Z 15009KT 9SM -RA FEW007 OVC020 14/12 A3000 RMK AO2 SLP163 P0003 T01390122=
201808261507 SPECI KBLI 261507Z 17008KT 7SM -RA FEW009 BKN020 BKN035 14/12 A3000 RMK AO2 P0001 T01390122=
201808261453 METAR KBLI 261453Z 18007KT 6SM -RA BR BKN020 BKN035 OVC049 14/12 A3000 RMK AO2 SLP164 P0003 60003 T01390122 56005=
201808261411 SPECI KBLI 261411Z 17008KT 5SM -RA BR FEW007 BKN018 OVC047 14/12 A3000 RMK AO2 P0001 T01390122=
201808261353 METAR KBLI 261353Z 17008KT 8SM -RA FEW028 OVC048 14/12 A3000 RMK AO2 RAB41 SLP164 P0000 T01390122=
201808261253 METAR KBLI 261253Z AUTO 17007KT 7SM SCT006 OVC055 14/12 A3000 RMK AO2 SLP163 T01390122=
201808261246 SPECI KBLI 261246Z AUTO VRB05KT 8SM SCT006 OVC055 14/12 A3000 RMK AO2 T01390122=
201808261153 METAR KBLI 261153Z AUTO 18005KT 8SM OVC060 14/12 A3001 RMK AO2 SLP169 70003 T01440117 10150 20139 58007=
201808261101 SPECI KBLI 261101Z AUTO 15006KT 8SM FEW015 BKN035 OVC048 14/12 A3003 RMK AO2 T01440117=
201808261053 METAR KBLI 261053Z AUTO 16004KT 8SM BKN018 OVC034 14/12 A3003 RMK AO2 SLP174 T01440117=
201808261051 SPECI KBLI 261051Z AUTO 16003KT 8SM BKN018 OVC034 14/12 A3003 RMK AO2=
201808261031 SPECI KBLI 261031Z AUTO 20004KT 6SM HZ BKN014 BKN032 OVC041 14/12 A3003 RMK AO2 T01440117=
201808260953 METAR KBLI 260953Z AUTO 00000KT 6SM BR OVC039 14/12 A3003 RMK AO2 SLP176 T01390117=
201808260853 METAR KBLI 260853Z AUTO 17004KT 8SM OVC055 14/12 A3004 RMK AO2 SLP177 T01440117 58007=
201808260807 SPECI KBLI 260807Z AUTO 00000KT 8SM SCT024 OVC055 14/12 A3004 RMK AO2 T01440117=
201808260753 METAR KBLI 260753Z AUTO 00000KT 8SM BKN023 BKN029 OVC055 14/12 A3005 RMK AO2 SLP181 T01390117 401610133=
201808260741 SPECI KBLI 260741Z AUTO 00000KT 8SM SCT023 BKN029 OVC055 14/12 A3005 RMK AO2 T01440117=
201808260653 METAR KBLI 260653Z AUTO 00000KT 7SM OVC055 14/12 A3005 RMK AO2 SLP182 T01440117=
201808260553 METAR KBLI 260553Z AUTO 17003KT 7SM FEW015 OVC050 14/11 A3006 RMK AO2 SLP184 T01440111 10156 20144 50003=
201808260453 METAR KBLI 260453Z 17003KT 5SM HZ SCT016 BKN037 OVC047 15/11 A3006 RMK AO2 SLP185 T01500111=
201808260353 METAR KBLI 260353Z 16004KT 5SM HZ SCT016 BKN050 OVC080 14/11 A3006 RMK AO2 SLP186 T01440111=
201808260253 METAR KBLI 260253Z 18004KT 3SM HZ SCT015 OVC055 15/11 A3005 RMK AO2 SLP181 T01500111 51004=
201808260153 METAR KBLI 260153Z 16006KT 3SM HZ BKN060 OVC090 15/12 A3004 RMK AO2 SLP180 T01500117=
201808260053 METAR KBLI 260053Z 17009KT 5SM HZ SCT075 OVC090 16/11 A3004 RMK AO2 SLP179 T01560111=
201808252353 METAR KBLI 252353Z 17009G15KT 4SM HZ BKN050 OVC090 16/12 A3004 RMK AO2 SLP177 60002 T01560122 10161 20139 58003=
201808252253 METAR KBLI 252253Z 17009G16KT 5SM HZ OVC060 16/12 A3004 RMK AO2 SLP177 T01560117=
201808252153 METAR KBLI 252153Z 17009KT 5SM HZ OVC050 15/12 A3004 RMK AO2 SLP180 T01500117=
201808252053 METAR KBLI 252053Z 17011KT 2SM HZ FEW009 OVC065 14/12 A3004 RMK AO2 RAE45 SLP179 P0001 60002 T01440122 56001=
201808252017 SPECI KBLI 252017Z 16010KT 2SM -RA HZ FEW008 BKN048 OVC055 14/12 A3004 RMK AO2 P0001 T01440122=
201808251953 METAR KBLI 251953Z 17010KT 2SM -RA HZ FEW008 BKN017 OVC038 14/12 A3005 RMK AO2 SLP180 P0000 T01440122=
201808251928 SPECI KBLI 251928Z 17010KT 4SM -RA HZ FEW007 BKN018 OVC055 14/12 A3005 RMK AO2 P0000 T01390122=
201808251853 METAR KBLI 251853Z 17010KT 4SM -RA HZ FEW015 BKN049 OVC060 14/12 A3004 RMK AO2 SLP180 P0001 T01390117=
201808251753 METAR KBLI 251753Z 17012G17KT 4SM -RA HZ FEW008 OVC060 14/12 A3005 RMK AO2 SLP181 P0001 60001 T01390117 10144 20133 53003=
201808251653 METAR KBLI 251653Z 17012G18KT 5SM -RA HZ FEW008 OVC060 13/11 A3004 RMK AO2 SLP179 P0000 T01330111=
201808251553 METAR KBLI 251553Z 17009G18KT 4SM -RA HZ FEW055 BKN080 OVC095 13/11 A3004 RMK AO2 RAB30 SLP180 P0000 T01330106=
201808251453 METAR KBLI 251453Z 16009G16KT 4SM HZ FU SCT075 14/10 A3004 RMK AO2 SLP177 T01440100 53002=
201808251353 METAR KBLI 251353Z 17007KT 3SM HZ CLR 14/11 A3003 RMK AO2 SLP174 T01390111=
201808251253 METAR KBLI 251253Z AUTO 17005KT 7SM CLR 13/11 A3001 RMK AO2 SLP169 T01330111=
201808251153 METAR KBLI 251153Z AUTO 17006KT 7SM CLR 13/11 A3003 RMK AO2 SLP175 T01330111 10144 20111 58007=
201808251053 METAR KBLI 251053Z AUTO 16006KT 7SM CLR 14/11 A3005 RMK AO2 SLP181 T01390111=
201808250953 METAR KBLI 250953Z AUTO 17004KT 8SM CLR 14/11 A3005 RMK AO2 SLP182 T01390111=
201808250853 METAR KBLI 250853Z AUTO 17004KT 7SM CLR 14/12 A3005 RMK AO2 SLP182 T01440117 56003=
201808250753 METAR KBLI 250753Z AUTO 17006KT 10SM CLR 14/11 A3005 RMK AO2 SLP183 T01390111 402060111=
201808250653 METAR KBLI 250653Z AUTO 00000KT 10SM CLR 12/08 A3006 RMK AO2 SLP184 T01170083=
201808250553 METAR KBLI 250553Z AUTO 00000KT 10SM CLR 12/09 A3006 RMK AO2 SLP185 T01220089 10206 20122 50003=
201808250453 METAR KBLI 250453Z 00000KT 10SM SCT090 13/09 A3007 RMK AO2 SLP188 T01330089=
201808250353 METAR KBLI 250353Z 00000KT 8SM SCT120 14/09 A3007 RMK AO2 SLP187 T01440094=
201808250253 METAR KBLI 250253Z 00000KT 10SM SCT120 17/10 A3005 RMK AO2 SLP183 T01720100 53001=
201808250153 METAR KBLI 250153Z 27004KT 10SM SCT100 19/10 A3005 RMK AO2 SLP181 T01940100=
201808250053 METAR KBLI 250053Z 16004KT 10SM CLR 20/11 A3005 RMK AO2 SLP181 T02000106=
201808242353 METAR KBLI 242353Z VRB05KT 10SM CLR 21/11 A3005 RMK AO2 SLP182 T02060106 10206 20167 57011=
201808242253 METAR KBLI 242253Z VRB05KT 10SM CLR 21/11 A3006 RMK AO2 SLP185 T02060106=
201808242153 METAR KBLI 242153Z VRB04KT 10SM SCT031 20/11 A3007 RMK AO2 SLP189 T02000106=
201808242053 METAR KBLI 242053Z VRB06KT 10SM CLR 19/11 A3008 RMK AO2 SLP193 T01940106 52003=
201808241953 METAR KBLI 241953Z 18006KT 10SM FEW070 18/11 A3008 RMK AO2 SLP190 T01830106=
201808241853 METAR KBLI 241853Z VRB05KT 10SM SCT022 18/11 A3008 RMK AO2 SLP192 T01780111=
201808241753 METAR KBLI 241753Z 17011KT 10SM OVC022 17/11 A3007 RMK AO2 SLP189 T01670111 10172 20133 51009=
201808241653 METAR KBLI 241653Z 17008KT 9SM OVC022 16/11 A3007 RMK AO2 SLP188 T01560111=
201808241553 METAR KBLI 241553Z 17007KT 9SM OVC022 15/11 A3006 RMK AO2 SLP186 T01500106=
201808241453 METAR KBLI 241453Z 17009G16KT 8SM OVC022 14/11 A3005 RMK AO2 SLP180 T01440106 53012=
201808241353 METAR KBLI 241353Z 17007KT 8SM OVC022 14/11 A3003 RMK AO2 SLP175 T01440106=
201808241315 SPECI KBLI 241315Z AUTO 17009KT 9SM BKN023 OVC031 14/11 A3002 RMK AO2 T01390106=
201808241306 SPECI KBLI 241306Z AUTO 17008KT 8SM SCT023 OVC031 14/11 A3002 RMK AO2 T01390106=
201808241253 METAR KBLI 241253Z AUTO 17009KT 8SM BKN023 OVC029 14/11 A3002 RMK AO2 SLP170 T01390106=
201808241208 SPECI KBLI 241208Z AUTO 17009KT 8SM BKN023 OVC090 14/11 A3001 RMK AO2 T01390111=
201808241153 METAR KBLI 241153Z AUTO 17009G17KT 7SM FEW024 BKN090 13/11 A3001 RMK AO2 SLP168 T01330111 10150 20128 53003=
201808241129 SPECI KBLI 241129Z AUTO 17010KT 7SM FEW007 OVC090 14/11 A3001 RMK AO2 T01390111=
201808241053 METAR KBLI 241053Z AUTO 18009KT 7SM OVC090 14/11 A3000 RMK AO2 SLP166 T01390111=
201808240953 METAR KBLI 240953Z AUTO 17008G14KT 7SM OVC090 14/11 A3000 RMK AO2 SLP165 T01390111=
201808240853 METAR KBLI 240853Z AUTO 00000KT 7SM OVC085 14/11 A3000 RMK AO2 SLP164 T01390106 53001=
201808240753 METAR KBLI 240753Z AUTO 16005KT 8SM FEW080 14/11 A2999 RMK AO2 SLP161 T01440106 401940139=
201808240653 METAR KBLI 240653Z AUTO 16006KT 7SM BKN060 OVC080 15/11 A2999 RMK AO2 SLP161 T01500111=
201808240553 METAR KBLI 240553Z AUTO 15005KT 8SM CLR 15/11 A2999 RMK AO2 SLP163 T01500111 10194 20139 50004=
201808240453 METAR KBLI 240453Z 15004KT 8SM OVC070 14/11 A3000 RMK AO2 SLP163 T01440111=
201808240353 METAR KBLI 240353Z 18003KT 9SM CLR 15/12 A2999 RMK AO2 SLP161 T01500117=
201808240253 METAR KBLI 240253Z 19004KT 10SM CLR 17/12 A2998 RMK AO2 SLP159 T01670117 55005=
201808240153 METAR KBLI 240153Z 17004KT 10SM CLR 18/12 A2998 RMK AO2 SLP158 T01780117=
201808240053 METAR KBLI 240053Z 17005KT 10SM CLR 18/11 A2999 RMK AO2 SLP162 T01830111=
201808232353 METAR KBLI 232353Z 17008KT 10SM SCT040 19/11 A3000 RMK AO2 SLP164 T01890111 10194 20172 58006=
201808232253 METAR KBLI 232253Z 19007KT 130V240 10SM FEW037 19/11 A3001 RMK AO2 SLP167 T01890111=
201808232153 METAR KBLI 232153Z 17009KT 10SM BKN037 18/12 A3002 RMK AO2 SLP171 T01830117=
201808232053 METAR KBLI 232053Z 17009KT 10SM OVC038 18/12 A3002 RMK AO2 SLP170 T01780122 50001=
201808231953 METAR KBLI 231953Z 20008KT 7SM HZ FU BKN032 OVC043 17/12 A3002 RMK AO2 SLP171 T01720122=
201808231910 SPECI KBLI 231910Z 17009G18KT 3SM HZ FU BKN033 18/12 A3002 RMK AO2 T01780122=
201808231853 METAR KBLI 231853Z 17011G17KT 2SM HZ FU FEW095 18/12 A3002 RMK AO2 SLP170 T01780122=
201808231753 METAR KBLI 231753Z 17009KT 2SM HZ FU SCT024 18/12 A3002 RMK AO2 SLP170 T01780117 10178 20144 51008=
201808231654 SPECI KBLI 231654Z 16008KT 2SM HZ FU SCT024 16/12 A3001 RMK AO2 T01560117=
201808231653 METAR KBLI 231653Z 17008KT 2 1/2SM HZ FU OVC024 16/12 A3001 RMK AO2 SLP167 T01560117=
201808231604 SPECI KBLI 231604Z 17012G18KT 2 1/2SM HZ FU SCT015 OVC023 16/11 A3000 RMK AO2 T01560111=
201808231557 SPECI KBLI 231557Z 17010G19KT 3SM HZ FU BKN015 BKN021 OVC026 16/11 A3000 RMK AO2 T01560111=
201808231553 METAR KBLI 231553Z 17009G19KT 2 1/2SM HZ FU BKN014 OVC021 16/11 A3000 RMK AO2 SLP165 T01560111=
201808231532 SPECI KBLI 231532Z 18010G18KT 2SM HZ FU OVC014 15/12 A3000 RMK AO2 T01500117=
201808231514 SPECI KBLI 231514Z 17013KT 2SM HZ FU OVC015 15/12 A3000 RMK AO2 T01500117=
201808231453 METAR KBLI 231453Z 16012KT 2SM HZ FU BKN013 15/12 A2999 RMK AO2 SLP162 T01500117 51018=
201808231351 SPECI KBLI 231351Z 17008G15KT 2SM HZ FU SCT008 SCT010 OVC015 14/12 A2997 RMK AO2=
201808231238 SPECI KBLI 231238Z AUTO 17013G19KT 5SM HZ FU BKN008 OVC044 14/12 A2996 RMK AO2 T01440122=
201808231153 METAR KBLI 231153Z AUTO 17011G19KT 8SM HZ FU OVC045 15/12 A2994 RMK AO2 SLP142 T01500117 10189 20144 51010=
201808231053 METAR KBLI 231053Z AUTO 16012G21KT 10SM HZ FU OVC046 15/12 A2993 RMK AO2 SLP141 T01500117=
201808230953 METAR KBLI 230953Z AUTO 17010G22KT 10SM HZ FU FEW012 OVC050 15/12 A2993 RMK AO2 SLP138 T01500117=
201808230853 METAR KBLI 230853Z AUTO 18015G25KT 8SM HZ FU OVC049 16/11 A2991 RMK AO2 SLP132 T01610111 53014=
201808230805 SPECI KBLI 230805Z AUTO 17014G23KT 4SM HZ FU OVC042 17/11 A2989 RMK AO2 T01670106=
201808230753 METAR KBLI 230753Z AUTO 16015G25KT 2 1/2SM HZ FU OVC042 17/11 A2989 RMK AO2 SLP125 T01670111 402610117=
201808230713 SPECI KBLI 230713Z AUTO 17012G18KT 2SM HZ FU OVC030 18/11 A2988 RMK AO2 T01780106=
201808230653 METAR KBLI 230653Z AUTO 17011KT 1 3/4SM HZ FU OVC027 18/11 A2987 RMK AO2 SLP120 T01830106=
201808230643 SPECI KBLI 230643Z AUTO 18012G20KT 1 3/4SM HZ FU OVC029 19/11 A2987 RMK AO2 T01890106=
201808230627 SPECI KBLI 230627Z AUTO 17007KT 1 3/4SM HZ FU OVC030 19/11 A2987 RMK AO2 T01890106=
201808230603 SPECI KBLI 230603Z AUTO 17006KT 2 1/2SM HZ FU OVC036 18/11 A2987 RMK AO2 T01830111=
201808230553 METAR KBLI 230553Z AUTO 18007KT 3SM HZ FU OVC038 18/12 A2987 RMK AO2 SLP118 T01780117 10256 20167 50004=
201808230453 METAR KBLI 230453Z 18008KT 5SM HZ FU OVC039 17/12 A2987 RMK AO2 SLP120 T01670117=
201808230353 METAR KBLI 230353Z 16003KT 1 3/4SM HZ FU OVC037 18/11 A2986 RMK AO2 SLP116 T01830106=
201808230253 METAR KBLI 230253Z 16005KT 1 3/4SM HZ FU OVC030 19/13 A2985 RMK AO2 SLP115 T01940133 55008=
201808230244 SPECI KBLI 230244Z 18003KT 1 1/2SM HZ FU OVC030 20/14 A2985 RMK AO2 T02000139=
201808230153 METAR KBLI 230153Z 00000KT 1 1/2SM HZ FU OVC028 23/12 A2985 RMK AO2 SLP115 T02280122=
201808230053 METAR KBLI 230053Z 00000KT 1 1/2SM HZ FU OVC026 25/12 A2986 RMK AO2 SLP117 T02500117=
201808222353 METAR KBLI 222353Z 22003KT 1 1/2SM HZ FU OVC024 26/10 A2988 RMK AO2 SLP122 T02560100 10261 20206 58011=
201808222253 METAR KBLI 222253Z 26005KT 1 1/2SM HZ FU OVC024 25/09 A2989 RMK AO2 SLP128 T02500089=
201808222153 METAR KBLI 222153Z 25005KT 2SM HZ FU OVC029 25/12 A2990 RMK AO2 SLP130 T02500122=
201808222053 METAR KBLI 222053Z 19005KT 2SM HZ FU BKN030 OVC036 25/12 A2991 RMK AO2 SLP133 T02500117 56010=
201808221953 METAR KBLI 221953Z VRB04KT 2SM HZ FU OVC033 24/13 A2992 RMK AO2 SLP136 T02390128=
201808221853 METAR KBLI 221853Z 00000KT 2SM HZ FU OVC033 22/13 A2993 RMK AO2 SLP140 T02220128=
201808221753 METAR KBLI 221753Z 16005KT 2SM HZ FU OVC034 21/12 A2994 RMK AO2 SLP143 T02060122 10206 20117 58001=
201808221653 METAR KBLI 221653Z 16005KT 2SM HZ FU OVC030 19/12 A2994 RMK AO2 SLP145 T01940117=
201808221553 METAR KBLI 221553Z 16005KT 2SM HZ FU OVC028 18/13 A2994 RMK AO2 SLP145 T01780133=
201808221453 METAR KBLI 221453Z 18004KT 2SM HZ FU OVC028 16/13 A2994 RMK AO2 SLP145 T01560128 53005=
201808221416 SPECI KBLI 221416Z 00000KT 2SM HZ FU OVC029 13/11 A2994 RMK AO2 T01280106=
201808221353 METAR KBLI 221353Z 00000KT 2SM HZ FU OVC035 12/10 A2993 RMK AO2 SLP141 T01170100=
201808221344 SPECI KBLI 221344Z 00000KT 2SM BR FU OVC037 12/10 A2993 RMK AO2 T01220100=
201808221253 METAR KBLI 221253Z AUTO 00000KT 4SM BR OVC044 13/11 A2993 RMK AO2 SLP139 T01280106 $=
201808221153 METAR KBLI 221153Z AUTO 00000KT 3SM BR FEW043 13/11 A2993 RMK AO2 SLP140 T01280106 10178 20128 58005 $=
201808221053 METAR KBLI 221053Z AUTO 00000KT 3SM BR CLR 13/11 A2994 RMK AO2 SLP144 T01330111 $=
201808220953 METAR KBLI 220953Z AUTO 00000KT 4SM HZ CLR 14/11 A2994 RMK AO2 SLP143 T01390106 $=
201808220853 METAR KBLI 220853Z AUTO 00000KT 3SM HZ CLR 15/12 A2994 RMK AO2 SLP145 T01500117 58003 $=
201808220753 METAR KBLI 220753Z AUTO 00000KT 4SM HZ CLR 16/11 A2995 RMK AO2 SLP148 T01560111 402940122 $=
201808220653 METAR KBLI 220653Z AUTO 00000KT 4SM HZ SCT075 16/12 A2995 RMK AO2 SLP147 T01560117 $=
201808220553 METAR KBLI 220553Z AUTO 00000KT 4SM HZ CLR 18/12 A2995 RMK AO2 SLP148 T01780117 10289 20167 55001 $=
201808220536 SPECI KBLI 220536Z AUTO 00000KT 4SM HZ CLR 17/11 A2995 RMK AO2 T01720111 $=
201808220453 METAR KBLI 220453Z 00000KT 2SM HZ FU FEW050 18/12 A2995 RMK AO2 SLP147 T01780117 $=
201808220353 METAR KBLI 220353Z 00000KT 2SM HZ FU FEW055 19/12 A2995 RMK AO2 SLP147 T01940122 $=
201808220253 METAR KBLI 220253Z 15003KT 2SM HZ FU CLR 23/13 A2996 RMK AO2 SLP149 T02280133 56010 $=
201808220153 METAR KBLI 220153Z 00000KT 2SM HZ FU SCT050 26/13 A2997 RMK AO2 SLP152 T02610128 $=
201808220053 METAR KBLI 220053Z 22003KT 2SM HZ FU FEW047 28/10 A2998 RMK AO2 SLP156 T02830100 $=
201808212353 METAR KBLI 212353Z 26004KT 2SM HZ FU FEW049 28/10 A2999 RMK AO2 SLP159 T02830100 10294 20244 58017 $=
201808212253 METAR KBLI 212253Z VRB03KT 2SM HZ FU BKN032 28/12 A3001 RMK AO2 SLP166 T02830117 $=
201808212153 METAR KBLI 212153Z VRB04KT 2SM HZ FU BKN033 28/12 A3003 RMK AO2 SLP172 T02780117 $=
201808212053 METAR KBLI 212053Z 21005KT 2SM HZ FU SCT033 28/14 A3004 RMK AO2 SLP176 T02780144 56012 $=
201808211953 METAR KBLI 211953Z 31004KT 2SM HZ FU SCT030 SCT039 29/11 A3004 RMK AO2 SLP178 T02890111 $=
201808211853 METAR KBLI 211853Z 00000KT 2SM HZ FU OVC033 27/09 A3007 RMK AO2 SLP187 T02720094 $=
201808211753 METAR KBLI 211753Z 32003KT 2SM HZ FU OVC033 24/11 A3008 RMK AO2 SLP189 T02440111 10244 20122 58000 $=
201808211653 METAR KBLI 211653Z 00000KT 2SM HZ FU SCT031 21/12 A3008 RMK AO2 SLP190 T02110117 $=
201808211553 METAR KBLI 211553Z 00000KT 2SM HZ FU SCT033 18/12 A3008 RMK AO2 SLP192 T01830122 $=
201808211453 METAR KBLI 211453Z 00000KT 2SM HZ FU SCT037 15/12 A3008 RMK AO2 SLP190 T01500117 53006 $=
201808211353 METAR KBLI 211353Z 00000KT 2SM HZ FU SCT042 13/11 A3006 RMK AO2 SLP185 T01330111=
201808211325 SPECI KBLI 211325Z AUTO 00000KT 2SM BR OVC046 13/11 A3006 RMK AO2 T01330111=
201808211253 METAR KBLI 211253Z AUTO 00000KT 3SM BR OVC046 13/11 A3007 RMK AO2 SLP186 T01280106=
201808211153 METAR KBLI 211153Z AUTO 00000KT 3SM BR OVC048 13/11 A3006 RMK AO2 SLP183 T01330111 10178 20133 51008=
201808211053 METAR KBLI 211053Z AUTO 00000KT 3SM HZ OVC048 14/11 A3006 RMK AO2 SLP182 T01440111=
201808210953 METAR KBLI 210953Z AUTO 18003KT 3SM HZ OVC055 15/12 A3004 RMK AO2 SLP178 T01500117=
201808210853 METAR KBLI 210853Z AUTO 18003KT 3SM HZ OVC055 16/12 A3003 RMK AO2 SLP175 T01610122 51008=
201808210753 METAR KBLI 210753Z AUTO 18004KT 3SM HZ BKN060 17/13 A3003 RMK AO2 SLP173 T01670128 403060106=
201808210653 METAR KBLI 210653Z AUTO 00000KT 3SM HZ OVC044 16/12 A3002 RMK AO2 SLP170 T01610122=
201808210639 SPECI KBLI 210639Z AUTO 00000KT 3SM HZ OVC038 17/13 A3002 RMK AO2 T01720128=
201808210453 METAR KBLI 210453Z 00000KT 2SM HZ FU OVC048 17/13 A3000 RMK AO2 SLP163 T01720128=
201808210353 METAR KBLI 210353Z 00000KT 2SM HZ FU OVC046 18/13 A2999 RMK AO2 SLP162 T01830133=
201808210253 METAR KBLI 210253Z 21004KT 2SM HZ FU OVC035 21/14 A2998 RMK AO2 SLP156 T02110144 53004=
201808210153 METAR KBLI 210153Z 16005KT 2SM HZ FU OVC035 26/13 A2996 RMK AO2 SLP152 T02560133=
201808210053 METAR KBLI 210053Z 28008KT 2SM HZ FU SCT035 28/12 A2996 RMK AO2 SLP150 T02780117=
201808202353 METAR KBLI 202353Z 29007KT 2SM HZ FU SCT038 29/12 A2996 RMK AO2 SLP151 T02890117 10306 20239 58009=
201808202253 METAR KBLI 202253Z 27009KT 2SM HZ FU SCT036 30/09 A2997 RMK AO2 SLP154 T03000089=
201808202153 METAR KBLI 202153Z 28009KT 2SM HZ FU BKN039 29/12 A2999 RMK AO2 SLP158 T02890122=
201808202053 METAR KBLI 202053Z 30010G15KT 2SM HZ FU SCT039 30/13 A2999 RMK AO2 SLP161 T03000133 56018=
201808201953 METAR KBLI 201953Z 29011KT 250V320 2SM HZ FU SCT037 28/14 A3001 RMK AO2 SLP165 T02780139=
201808201853 METAR KBLI 201853Z 31008KT 2SM HZ FU SCT037 27/13 A3003 RMK AO2 SLP174 T02670128=
201808201753 METAR KBLI 201753Z 33008KT 2SM HZ FU BKN039 24/14 A3005 RMK AO2 SLP179 T02390139 10239 20106 58003=
201808201653 METAR KBLI 201653Z 35007KT 2SM HZ FU SCT040 21/16 A3005 RMK AO2 SLP182 T02060156=
201808201640 SPECI KBLI 201640Z 31006KT 2SM HZ FU SCT040 19/15 A3005 RMK AO2 T01890150=
201808201553 METAR KBLI 201553Z 36003KT 1SM R16/P6000FT HZ FU FEW001 OVC080 15/13 A3005 RMK AO2 SLP182 T01500133=
201808201547 SPECI KBLI 201547Z 01003KT 1SM R16/P6000FT HZ FU FEW001 OVC080 15/13 A3005 RMK AO2=
201808201542 SPECI KBLI 201542Z 00000KT 1 1/4SM R16/1600VP6000FT FG FU FEW001 BKN015 OVC110 15/14 A3005 RMK AO2 T01500139=
201808201533 SPECI KBLI 201533Z 32003KT 1/2SM R16/1000V5000FT FG FU FEW001 BKN015 OVC110 14/13 A3005 RMK AO2 T01390128=
201808201520 SPECI KBLI 201520Z 02003KT 1/2SM R16/0800V1200FT FG FU FEW001 BKN015 OVC110 14/12 A3005 RMK AO2 T01390122=
201808201508 SPECI KBLI 201508Z 00000KT 1/2SM R16/1000V6000FT FG FU FEW001 BKN015 OVC110 13/12 A3005 RMK AO2 T01330117=
201808201506 SPECI KBLI 201506Z 00000KT 1/4SM R16/1400VP6000FT FG FU FEW001 BKN015 OVC110 13/12 A3005 RMK AO2 T01330117=
201808201500 SPECI KBLI 201500Z 35003KT 2SM R16/2400VP6000FT HZ FU FEW001 13/11 A3005 RMK AO2 T01280111=
201808201458 SPECI KBLI 201458Z 34003KT 4SM R16/2400VP6000FT HZ FU FEW001 OVC029 13/11 A3005 RMK AO2 T01280111=
201808201453 METAR KBLI 201453Z 00000KT 2SM HZ FU FEW001 13/11 A3005 RMK AO2 SLP183 T01280111 51004=
201808201353 METAR KBLI 201353Z 00000KT 2SM HZ FU FEW001 OVC120 11/09 A3005 RMK AO2 SLP182 T01110094=
201808201350 SPECI KBLI 201350Z 00000KT 2 1/2SM BR FU BKN041 OVC120 11/09 A3005 RMK AO2=
201808201255 SPECI KBLI 201255Z AUTO 00000KT 1/2SM R16/1200VP6000FT FG FU BKN046 BKN090 BKN110 11/10 A3005 RMK AO2 T01110100=
201808201253 METAR KBLI 201253Z AUTO 00000KT 1SM R16/1600VP6000FT BR FU BKN046 11/10 A3005 RMK AO2 SLP180 T01110100=
201808201247 SPECI KBLI 201247Z AUTO 00000KT 1SM R16/P6000FT BR FU BKN047 11/09 A3004 RMK AO2 $=
201808201227 SPECI KBLI 201227Z AUTO 00000KT 1/2SM R16/2200VP6000FT FG FU OVC050 11/09 A3004 RMK AO2 T01110094 $=
201808201212 SPECI KBLI 201212Z AUTO 00000KT 1 1/4SM BR FU OVC048 11/09 A3004 RMK AO2 T01060094 $=
201808201204 SPECI KBLI 201204Z AUTO 00000KT 4SM BR FU OVC048 12/10 A3004 RMK AO2 T01170100 $=
201808201153 METAR KBLI 201153Z AUTO 00000KT 1SM R16/1200VP6000FT BR FU OVC046 11/09 A3004 RMK AO2 SLP179 T01110094 10150 20111 53003 $=
201808201139 SPECI KBLI 201139Z AUTO 00000KT 3SM BR FU OVC048 12/10 A3004 RMK AO2 T01170100 $=
201808201137 SPECI KBLI 201137Z AUTO 00000KT 1SM R16/P6000FT BR FU OVC048 12/10 A3004 RMK AO2 T01170100 $=
201808201128 SPECI KBLI 201128Z AUTO 00000KT 1/2SM R16/1400VP6000FT FG FU OVC048 12/10 A3004 RMK AO2 T01170100 $=
201808201126 SPECI KBLI 201126Z AUTO 00000KT 1 1/4SM R16/1400VP6000FT BR FU OVC050 12/10 A3004 RMK AO2 T01170100 $=
201808201121 SPECI KBLI 201121Z AUTO 00000KT 3SM R16/2000VP6000FT BR FU OVC050 12/11 A3004 RMK AO2 T01170106 $=
201808201109 SPECI KBLI 201109Z AUTO 00000KT 1 3/4SM BR FU OVC048 12/11 A3003 RMK AO2 T01220106 $=
201808201053 METAR KBLI 201053Z AUTO 00000KT 5SM BR FU OVC048 13/11 A3003 RMK AO2 SLP176 T01330111 $=
201808200953 METAR KBLI 200953Z AUTO 00000KT 5SM BR FU OVC050 12/11 A3003 RMK AO2 SLP175 T01220106 $=
201808200918 SPECI KBLI 200918Z AUTO 00000KT 3SM BR FU OVC050 12/11 A3003 RMK AO2 T01220106 $=
201808200913 SPECI KBLI 200913Z AUTO 00000KT 3/4SM R16/P6000FT BR FU OVC050 13/11 A3003 RMK AO2 T01280111 $=
201808200904 SPECI KBLI 200904Z AUTO 00000KT 1 3/4SM BR FU OVC050 13/11 A3003 RMK AO2 T01280111 $=
201808200853 METAR KBLI 200853Z AUTO 00000KT 6SM BR FU OVC055 13/11 A3003 RMK AO2 SLP176 T01280111 50005 $=
201808200753 METAR KBLI 200753Z AUTO 00000KT 5SM BR FU OVC048 14/12 A3003 RMK AO2 SLP176 T01390122 402280117 $=
201808200653 METAR KBLI 200653Z AUTO 00000KT 5SM BR FU OVC046 14/12 A3003 RMK AO2 SLP174 T01390122 $=
201808200553 METAR KBLI 200553Z AUTO 00000KT 5SM BR FU OVC050 14/12 A3002 RMK AO2 SLP171 T01440122 10211 20139 50004 $=
201808200453 METAR KBLI 200453Z 00000KT 5SM BR FU OVC050 15/13 A3002 RMK AO2 SLP172 T01500128 $=
201808200353 METAR KBLI 200353Z 17004KT 5SM HZ FU OVC050 17/14 A3002 RMK AO2 SLP171 T01670139 $=
201808200253 METAR KBLI 200253Z 00000KT 6SM HZ FU OVC050 17/14 A3001 RMK AO2 SLP167 T01720139 55000 $=
201808200153 METAR KBLI 200153Z VRB03KT 6SM HZ FU OVC046 19/14 A3000 RMK AO2 SLP165 T01890144 $=
201808200053 METAR KBLI 200053Z 23003KT 7SM BR FEW015 BKN045 20/14 A3000 RMK AO2 SLP166 T02000144 $=
201808192355 METAR KBLI 192355Z COR 23004KT 7SM BR FEW015 BKN046 21/13 A3001 RMK AO2 SLP168 T02110133 10228 20194 58016 $=
201808192353 METAR KBLI 192353Z VRB03KT 10SM BR BKN046 21/13 A3001 RMK AO2 SLP168 T02110133 10228 20194 58016 $=
201808192306 SPECI KBLI 192306Z VRB03KT 6SM BR FEW015 BKN045 22/14 A3002 RMK AO2 T02170144 $=
201808192304 SPECI KBLI 192304Z VRB04KT 2SM BR FEW015 BKN045 22/14 A3002 RMK AO2 T02170144 $=
201808192253 METAR KBLI 192253Z 27004KT 10SM HZ FU OVC037 22/14 A3003 RMK AO2 SLP174 T02220144 $=
201808192153 METAR KBLI 192153Z 27008KT 6SM HZ FU FEW015 BKN045 22/15 A3004 RMK AO2 SLP179 T02170150 $=
201808192053 METAR KBLI 192053Z VRB05KT 5SM HZ FU SCT015 BKN045 23/15 A3006 RMK AO2 SLP184 T02280150 56014 $=
201808191953 METAR KBLI 191953Z VRB04KT 5SM FU BKN041 21/15 A3007 RMK AO2 SLP189 T02110150 $=
201808191853 METAR KBLI 191853Z 32003KT 10SM BR OVC032 21/15 A3008 RMK AO2 SLP192 T02110150 $=
201808191753 METAR KBLI 191753Z 00000KT 5SM BR FEW010 BKN035 BKN040 19/14 A3010 RMK AO2 SLP198 T01940144 10194 20117 57001 $=
201808191653 METAR KBLI 191653Z 00000KT 10SM OVC038 18/14 A3010 RMK AO2 SLP199 T01830144 $=
201808191553 METAR KBLI 191553Z 00000KT 9SM OVC041 16/13 A3010 RMK AO2 SLP198 T01610133 $=
201808191453 METAR KBLI 191453Z 00000KT 7SM OVC043 14/12 A3010 RMK AO2 SLP199 T01390117 53003 $=
201808191353 METAR KBLI 191353Z 00000KT 6SM BR OVC044 13/11 A3010 RMK AO2 SLP198 T01280111 $=
201808191253 METAR KBLI 191253Z AUTO 00000KT 9SM OVC044 12/11 A3010 RMK AO2 SLP197 T01220106 $=
201808191153 METAR KBLI 191153Z AUTO 00000KT 7SM OVC043 12/11 A3009 RMK AO2 SLP196 T01220106 10150 20122 55001 $=
201808191145 SPECI KBLI 191145Z AUTO 00000KT 3SM BR OVC043 13/11 A3009 RMK AO2 T01280111 $=
201808191136 SPECI KBLI 191136Z AUTO 00000KT 1 1/2SM BR OVC042 12/11 A3009 RMK AO2 T01220106 $=
201808191053 METAR KBLI 191053Z AUTO 00000KT 8SM OVC041 13/11 A3009 RMK AO2 SLP196 T01280106 $=
201808190953 METAR KBLI 190953Z AUTO 00000KT 4SM BR BKN044 13/11 A3009 RMK AO2 SLP195 T01280111 $=
201808190853 METAR KBLI 190853Z AUTO 00000KT 10SM CLR 14/12 A3010 RMK AO2 SLP197 T01390117 57003 $=
201808190753 METAR KBLI 190753Z AUTO 00000KT 10SM SCT055 14/12 A3010 RMK AO2 SLP199 T01390117 402280100 $=
201808190653 METAR KBLI 190653Z AUTO 00000KT 10SM BKN050 14/12 A3010 RMK AO2 SLP198 T01390117 $=
201808190553 METAR KBLI 190553Z AUTO 00000KT 10SM FEW060 15/12 A3011 RMK AO2 SLP200 T01500117 10228 20144 58000 $=
201808190453 METAR KBLI 190453Z 00000KT 10SM CLR 16/12 A3011 RMK AO2 SLP202 T01560122 $=
201808190353 METAR KBLI 190353Z 00000KT 10SM FEW070 17/12 A3011 RMK AO2 SLP201 T01670122 $=
201808190253 METAR KBLI 190253Z 00000KT 10SM SCT065 19/13 A3011 RMK AO2 SLP201 T01890128 56007 $=
201808190153 METAR KBLI 190153Z 27005KT 10SM SCT065 20/13 A3011 RMK AO2 SLP202 T02000133 $=
201808190053 METAR KBLI 190053Z 28005KT 10SM FU FEW050 SCT065 22/13 A3012 RMK AO2 SLP205 T02170133 $=
201808182353 METAR KBLI 182353Z 26005KT 10SM FU SCT040 23/13 A3013 RMK AO2 SLP208 T02280133 10228 20178 58018 $=
201808182253 METAR KBLI 182253Z VRB05KT 8SM FU BKN050 22/13 A3015 RMK AO2 SLP215 T02220133 $=
201808182153 METAR KBLI 182153Z 29007KT 10SM FU BKN050 22/14 A3017 RMK AO2 SLP221 T02220139 $=
201808182053 METAR KBLI 182053Z 28006KT 10SM FU FEW055 22/13 A3018 RMK AO2 SLP227 T02170128 58013 $=
201808181953 METAR KBLI 181953Z 28005KT 10SM FU FEW050 21/13 A3019 RMK AO2 SLP231 T02110128 $=
201808181853 METAR KBLI 181853Z 16004KT 10SM FU CLR 18/12 A3021 RMK AO2 SLP237 T01830117 $=
201808181753 METAR KBLI 181753Z 00000KT 10SM BR CLR 18/12 A3022 RMK AO2 SLP240 T01780117 10178 20100 58005 $=
201808181653 METAR KBLI 181653Z 17004KT 4SM BR CLR 17/12 A3023 RMK AO2 SLP244 T01670122 $=
201808181553 METAR KBLI 181553Z 00000KT 10SM CLR 16/12 A3024 RMK AO2 SLP246 T01560122 $=
201808181453 METAR KBLI 181453Z AUTO 00000KT 6SM BR CLR 14/12 A3024 RMK AO2 SLP245 T01390122 53007 $=
201808181353 METAR KBLI 181353Z AUTO 00000KT 4SM BR CLR 11/09 A3023 RMK AO2 SLP242 T01110094 $=
201808181316 SPECI KBLI 181316Z AUTO 00000KT 3SM BR CLR 11/09 A3022 RMK AO2 T01060089 $=
201808181306 SPECI KBLI 181306Z AUTO 00000KT 1 3/4SM BR CLR 11/10 A3022 RMK AO2 T01110100 $=
201808181253 METAR KBLI 181253Z AUTO 00000KT 6SM BR CLR 11/09 A3022 RMK AO2 SLP240 T01110094 $=
201808181153 METAR KBLI 181153Z AUTO 00000KT 8SM CLR 12/10 A3022 RMK AO2 SLP238 T01170100 10161 20106 53000 $=
201808181053 METAR KBLI 181053Z AUTO 00000KT 9SM CLR 11/09 A3021 RMK AO2 SLP237 T01110094 $=
201808180953 METAR KBLI 180953Z AUTO 00000KT 10SM CLR 12/10 A3021 RMK AO2 SLP237 T01170100 $=
201808180853 METAR KBLI 180853Z AUTO 00000KT 10SM CLR 12/09 A3021 RMK AO2 SLP238 T01170094 53004 $=
201808180753 METAR KBLI 180753Z AUTO 00000KT 10SM CLR 13/10 A3021 RMK AO2 SLP236 T01280100 402110128=
201808180653 METAR KBLI 180653Z AUTO 17005KT 10SM CLR 16/11 A3021 RMK AO2 SLP235 T01560111=
201808180553 METAR KBLI 180553Z AUTO 16005KT 10SM CLR 16/12 A3020 RMK AO2 SLP234 T01610117 10211 20161 51009=
201808180453 METAR KBLI 180453Z 18004KT 10SM CLR 17/12 A3020 RMK AO2 SLP233 T01670117=
201808180353 METAR KBLI 180353Z 18005KT 10SM CLR 17/12 A3019 RMK AO2 SLP228 T01720117=
201808180253 METAR KBLI 180253Z 18004KT 10SM CLR 18/12 A3018 RMK AO2 SLP224 T01830122 58006=
201808180153 METAR KBLI 180153Z 17004KT 10SM CLR 21/12 A3018 RMK AO2 SLP226 T02060117=
201808180053 METAR KBLI 180053Z 16006KT 10SM CLR 21/12 A3019 RMK AO2 SLP230 T02110122=
201808172353 METAR KBLI 172353Z 16008KT 10SM CLR 21/12 A3019 RMK AO2 SLP230 T02060122 10211 20156 58009=
201808172253 METAR KBLI 172253Z 19007KT 10SM CLR 20/12 A3021 RMK AO2 SLP234 T02000117=
201808172153 METAR KBLI 172153Z VRB06KT 10SM CLR 20/12 A3021 RMK AO2 SLP236 T02000122=
201808172053 METAR KBLI 172053Z 18008KT 150V220 10SM CLR 19/12 A3022 RMK AO2 SLP239 T01940122 58002=
201808171953 METAR KBLI 171953Z 18007G16KT 10SM CLR 18/12 A3022 RMK AO2 SLP240 T01780117=
201808171853 METAR KBLI 171853Z 17009G19KT 10SM CLR 17/12 A3023 RMK AO2 SLP242 T01720117=
201808171753 METAR KBLI 171753Z 18009G15KT 150V220 10SM FEW014 16/11 A3023 RMK AO2 SLP242 T01560111 10161 20133 51013=
201808171653 METAR KBLI 171653Z 17009G17KT 10SM FEW013 16/11 A3022 RMK AO2 SLP239 T01560111=
201808171553 METAR KBLI 171553Z 17009G18KT 10SM FEW019 14/11 A3021 RMK AO2 SLP235 T01440106=
201808171453 METAR KBLI 171453Z 17011G18KT 10SM CLR 15/10 A3019 RMK AO2 SLP229 T01500100 53017=
201808171353 METAR KBLI 171353Z 16010KT 10SM CLR 14/10 A3017 RMK AO2 SLP221 T01440100=
201808171253 METAR KBLI 171253Z AUTO 18008KT 10SM CLR 13/10 A3015 RMK AO2 SLP217 T01330100=
201808171153 METAR KBLI 171153Z AUTO 18008KT 10SM CLR 13/10 A3014 RMK AO2 SLP212 T01330100 10172 20133 51009=
201808171053 METAR KBLI 171053Z AUTO 17008KT 10SM CLR 14/09 A3014 RMK AO2 SLP212 T01390094=
201808170953 METAR KBLI 170953Z AUTO 18008G15KT 10SM CLR 14/10 A3013 RMK AO2 SLP207 T01390100=
201808170853 METAR KBLI 170853Z AUTO 17010KT 10SM CLR 14/10 A3011 RMK AO2 SLP203 T01440100 51010=
201808170753 METAR KBLI 170753Z AUTO 17011KT 9SM CLR 15/11 A3010 RMK AO2 SLP200 T01500106 402060128=
201808170653 METAR KBLI 170653Z AUTO 17007KT 9SM CLR 16/10 A3010 RMK AO2 SLP198 T01610100=
201808170553 METAR KBLI 170553Z AUTO 17007KT 10SM CLR 17/11 A3008 RMK AO2 SLP193 T01720111 10206 20172 53014=
201808170453 METAR KBLI 170453Z 17008KT 10SM HZ FU CLR 18/12 A3007 RMK AO2 SLP187 T01830117=
201808170353 METAR KBLI 170353Z 17010KT 8SM HZ FU CLR 17/12 A3006 RMK AO2 SLP184 T01720117=
201808170253 METAR KBLI 170253Z 17010KT 10SM HZ FU CLR 17/12 A3004 RMK AO2 SLP179 T01720117 55000=
201808170153 METAR KBLI 170153Z 17007KT 6SM HZ FU CLR 19/13 A3004 RMK AO2 SLP178 T01940128=
201808170053 METAR KBLI 170053Z 18008KT 6SM HZ FU CLR 19/12 A3004 RMK AO2 SLP180 T01940122=
201808162353 METAR KBLI 162353Z 17007KT 7SM HZ FU CLR 20/13 A3005 RMK AO2 SLP180 T02000128 10206 20161 58007=
201808162253 METAR KBLI 162253Z 17008KT 6SM HZ FU CLR 20/12 A3006 RMK AO2 SLP184 T02000122=
201808162153 METAR KBLI 162153Z 16008KT 7SM HZ FU CLR 19/12 A3007 RMK AO2 SLP188 T01940122=
201808162053 METAR KBLI 162053Z 18011G16KT 7SM HZ FU CLR 18/12 A3007 RMK AO2 SLP187 T01830117 50002=
201808161953 METAR KBLI 161953Z 18009G15KT 10SM HZ FU CLR 18/12 A3007 RMK AO2 SLP188 T01830122=
201808161853 METAR KBLI 161853Z 17012KT 7SM HZ FU CLR 17/12 A3007 RMK AO2 SLP187 T01720122=
201808161753 METAR KBLI 161753Z 18008KT 7SM HZ FU CLR 17/12 A3006 RMK AO2 SLP186 T01670117 10167 20128 51010=
201808161653 METAR KBLI 161653Z 17009G15KT 7SM HZ FU FEW030 16/12 A3006 RMK AO2 SLP185 T01560117=
201808161553 METAR KBLI 161553Z 17009G16KT 140V200 7SM HZ FU CLR 15/12 A3005 RMK AO2 SLP182 T01500117=
201808161453 METAR KBLI 161453Z 17010KT 7SM HZ FU CLR 15/12 A3003 RMK AO2 SLP175 T01500117 53019=
201808161353 METAR KBLI 161353Z 17010G18KT 7SM HZ FU CLR 13/11 A3002 RMK AO2 SLP169 VCDRFG T01330111=
201808161253 METAR KBLI 161253Z AUTO 17009KT 7SM HZ FU SCT003 13/12 A2999 RMK AO2 SLP160 T01280117=
201808161215 SPECI KBLI 161215Z AUTO 20007KT 7SM HZ FU FEW004 13/11 A2998 RMK AO2 T01280111=
201808161153 METAR KBLI 161153Z AUTO 19007KT 8SM HZ FU CLR 13/12 A2998 RMK AO2 SLP156 T01330117 10178 20133 51014=
201808161053 METAR KBLI 161053Z AUTO VRB06KT 9SM HZ FU CLR 13/12 A2997 RMK AO2 SLP153 T01330117=
201808160953 METAR KBLI 160953Z AUTO 18008KT 10SM HZ FU OVC048 14/12 A2995 RMK AO2 SLP147 T01440117=
201808160853 METAR KBLI 160853Z AUTO 18008KT 10SM HZ FU OVC040 16/12 A2994 RMK AO2 SLP142 T01560122 53013=
201808160753 METAR KBLI 160753Z AUTO 18009KT 9SM HZ FU CLR 17/13 A2992 RMK AO2 SLP135 T01720128 402780139=
201808160653 METAR KBLI 160653Z AUTO 18008KT 7SM HZ FU CLR 18/13 A2991 RMK AO2 SLP132 T01780133=
201808160553 METAR KBLI 160553Z AUTO 22007KT 7SM HZ FU CLR 17/13 A2990 RMK AO2 SLP129 T01720133 10272 20172 53010=
201808160453 METAR KBLI 160453Z 19006KT 4SM HZ FU CLR 18/13 A2989 RMK AO2 SLP125 T01830133=
201808160353 METAR KBLI 160353Z 18004KT 4SM HZ FU CLR 19/12 A2988 RMK AO2 SLP122 T01940117=
201808160253 METAR KBLI 160253Z 17004KT 4SM HZ FU CLR 21/14 A2987 RMK AO2 SLP119 T02110144 55003=
201808160153 METAR KBLI 160153Z VRB03KT 10SM HZ FU CLR 24/13 A2987 RMK AO2 SLP118 T02440128=
201808160053 METAR KBLI 160053Z 20003KT 5SM HZ FU CLR 26/13 A2987 RMK AO2 SLP121 T02610128=
201808152353 METAR KBLI 152353Z 31005KT 4SM HZ FU CLR 27/12 A2988 RMK AO2 SLP122 T02720122 10278 20222 58010=
201808152253 METAR KBLI 152253Z 28006KT 4SM HZ FU CLR 27/13 A2989 RMK AO2 SLP126 T02720128=
201808152153 METAR KBLI 152153Z 29005KT 4SM HZ FU CLR 27/13 A2990 RMK AO2 SLP129 T02720128=
201808152053 METAR KBLI 152053Z VRB04KT 3SM HZ FU CLR 26/15 A2991 RMK AO2 SLP132 T02560150 58006=
201808151953 METAR KBLI 151953Z VRB04KT 5SM HZ FU CLR 25/15 A2992 RMK AO2 SLP137 T02500150=
201808151853 METAR KBLI 151853Z VRB05KT 5SM HZ FU CLR 23/15 A2993 RMK AO2 SLP139 T02330150=
201808151753 METAR KBLI 151753Z 00000KT 4SM HZ FU CLR 22/15 A2993 RMK AO2 SLP138 T02220150 10222 20144 50002=
201808151653 METAR KBLI 151653Z 20003KT 4SM HZ FU CLR 20/14 A2993 RMK AO2 SLP141 T02000144=
201808151553 METAR KBLI 151553Z 16004KT 4SM HZ FU CLR 18/14 A2993 RMK AO2 SLP140 T01780144=
201808151455 SPECI KBLI 151455Z 16003KT 4SM HZ FU CLR 17/14 A2992 RMK AO2 T01670144=
201808151453 METAR KBLI 151453Z 15003KT 4SM BR FU CLR 17/14 A2992 RMK AO2 SLP137 T01670144 53014=
201808151353 METAR KBLI 151353Z 19004KT 5SM HZ FU CLR 16/13 A2990 RMK AO2 SLP130 T01610133=
201808151253 METAR KBLI 151253Z AUTO 18004KT 5SM BR CLR 16/13 A2989 RMK AO2 SLP126 T01560133=
201808151153 METAR KBLI 151153Z AUTO 18004KT 4SM BR CLR 14/13 A2988 RMK AO2 SLP122 T01440128 10167 20139 51007=
201808151053 METAR KBLI 151053Z AUTO 00000KT 5SM BR CLR 14/13 A2988 RMK AO2 SLP121 T01440128=
201808150953 METAR KBLI 150953Z AUTO 00000KT 5SM BR CLR 14/12 A2987 RMK AO2 SLP119 T01440122=
201808150853 METAR KBLI 150853Z AUTO 00000KT 5SM BR CLR 14/12 A2986 RMK AO2 SLP115 T01440122 51005=
201808150753 METAR KBLI 150753Z AUTO 00000KT 6SM BR CLR 16/14 A2985 RMK AO2 SLP114 T01560139 402610117=
201808150653 METAR KBLI 150653Z AUTO 00000KT 6SM BR CLR 16/14 A2985 RMK AO2 SLP112 T01610139=
201808150553 METAR KBLI 150553Z AUTO 00000KT 6SM BR BKN050 16/14 A2984 RMK AO2 SLP110 T01610139 10261 20161 51003=
201808150453 METAR KBLI 150453Z 00000KT 4SM HZ FU OVC048 17/14 A2984 RMK AO2 SLP110 T01670144=
201808150353 METAR KBLI 150353Z 17003KT 3SM HZ FU OVC048 18/15 A2983 RMK AO2 SLP109 T01780150=
201808150253 METAR KBLI 150253Z 00000KT 4SM HZ FU OVC043 20/15 A2983 RMK AO2 SLP107 T02000150 56010=
201808150153 METAR KBLI 150153Z 00000KT 4SM HZ FU OVC042 22/16 A2984 RMK AO2 SLP110 T02220156=
201808150053 METAR KBLI 150053Z 28006KT 3SM HZ FU FEW045 25/14 A2984 RMK AO2 SLP111 T02500144=
201808142353 METAR KBLI 142353Z 28007KT 3SM HZ FU FEW047 26/15 A2986 RMK AO2 SLP117 T02560150 10261 20206 56019=
201808142253 METAR KBLI 142253Z 28006KT 3SM HZ FU FEW046 26/16 A2988 RMK AO2 SLP122 T02560156=
201808142153 METAR KBLI 142153Z 30008KT 3SM HZ FU FEW045 26/16 A2990 RMK AO2 SLP128 T02560161=
201808142053 METAR KBLI 142053Z 27008KT 3SM HZ FU FEW045 24/16 A2992 RMK AO2 SLP136 T02440156 58014=
201808141953 METAR KBLI 141953Z 27004KT 3SM HZ FU FEW041 25/14 A2993 RMK AO2 SLP140 T02500144=
201808141853 METAR KBLI 141853Z 31003KT 3SM HZ FU FEW045 24/13 A2995 RMK AO2 SLP146 T02390128=
201808141753 METAR KBLI 141753Z 34005KT 3SM HZ FU FEW045 21/13 A2996 RMK AO2 SLP151 T02060133 10211 20117 58003=
201808141655 SPECI KBLI 141655Z 32003KT 3SM HZ FU CLR 19/14 A2997 RMK AO2 T01890144=
201808141653 METAR KBLI 141653Z 00000KT 4SM HZ FU CLR 19/14 A2996 RMK AO2 SLP153 T01890139=
201808141553 METAR KBLI 141553Z 00000KT 3SM HZ FU FEW045 18/15 A2997 RMK AO2 SLP153 T01780150=
201808141453 METAR KBLI 141453Z 00000KT 3SM HZ FU FEW001 15/13 A2997 RMK AO2 SLP154 T01500133 53003=
201808141433 SPECI KBLI 141433Z 00000KT 3SM R16/2000VP6000FT HZ FU FEW001 13/12 A2997 RMK AO2 T01330122=
201808141400 SPECI KBLI 141400Z 00000KT 1SM R16/0800VP6000FT BR BKN023 13/11 A2996 RMK AO2 T01280111=
201808141353 METAR KBLI 141353Z 00000KT 1SM R16/0800V1400FT BR BKN022 12/11 A2996 RMK AO2 SLP151 T01220111=
201808141351 SPECI KBLI 141351Z 00000KT 1SM R16/0800VP6000FT BR BKN022 12/11 A2996 RMK AO2=
201808141345 SPECI KBLI 141345Z AUTO 00000KT 3SM R16/0800VP6000FT BR OVC022 12/11 A2996 RMK AO2 T01220106=
201808141343 SPECI KBLI 141343Z AUTO 00000KT 1 1/2SM R16/1200VP6000FT BR OVC022 12/11 A2996 RMK AO2 T01220106=
201808141327 SPECI KBLI 141327Z AUTO 00000KT 1/2SM R16/P6000FT FG BKN025 12/11 A2996 RMK AO2 T01220106=
201808141316 SPECI KBLI 141316Z AUTO 00000KT 1/2SM R16/1400VP6000FT FG SCT027 12/11 A2996 RMK AO2 VIS 1/4V2 1/2 T01170106=
201808141312 SPECI KBLI 141312Z AUTO 00000KT 1 1/4SM R16/2400VP6000FT BR FEW029 12/11 A2996 RMK AO2 VIS 1/4V5 T01220106=
201808141253 METAR KBLI 141253Z AUTO 00000KT 4SM BR FEW031 13/11 A2996 RMK AO2 SLP151 T01280111=
201808141240 SPECI KBLI 141240Z AUTO 00000KT 4SM BR FEW026 13/11 A2996 RMK AO2 T01280111=
201808141233 SPECI KBLI 141233Z AUTO 00000KT 2 1/2SM BR FEW026 12/11 A2996 RMK AO2 T01220106=
201808141223 SPECI KBLI 141223Z AUTO 00000KT 3/4SM R16/P6000FT BR FEW026 12/11 A2996 RMK AO2 T01220111=
201808141153 METAR KBLI 141153Z AUTO 00000KT 4SM BR CLR 13/12 A2996 RMK AO2 SLP151 T01330117 10156 20128 58004=
201808141134 SPECI KBLI 141134Z AUTO 00000KT 4SM BR FEW025 13/11 A2996 RMK AO2 T01330111=
201808141130 SPECI KBLI 141130Z AUTO 00000KT 1SM R16/P6000FT BR FEW025 13/11 A2996 RMK AO2 T01280111=
201808141121 SPECI KBLI 141121Z AUTO 00000KT 1/2SM R16/2200VP6000FT FG FEW026 13/12 A2996 RMK AO2 T01330117=
201808141117 SPECI KBLI 141117Z AUTO 00000KT 1 3/4SM R16/2200VP6000FT BR CLR 13/11 A2996 RMK AO2 VIS 1/2V5 T01280111=
201808141102 SPECI KBLI 141102Z AUTO 00000KT 4SM BR CLR 14/12 A2996 RMK AO2 T01390122=
201808141053 METAR KBLI 141053Z AUTO 00000KT 2 1/2SM BR CLR 13/12 A2996 RMK AO2 SLP152 T01330117=
201808141038 SPECI KBLI 141038Z AUTO 00000KT 5SM R16/1400VP6000FT BR CLR 13/12 A2996 RMK AO2 T01330117=
201808141028 SPECI KBLI 141028Z AUTO 00000KT 2SM BR CLR 13/12 A2997 RMK AO2 T01330117=
201808140953 METAR KBLI 140953Z AUTO 00000KT 5SM BR CLR 13/12 A2997 RMK AO2 SLP155 T01330117=
201808140853 METAR KBLI 140853Z AUTO 00000KT 4SM BR CLR 14/13 A2997 RMK AO2 SLP154 T01440128 58001=
201808140753 METAR KBLI 140753Z AUTO 00000KT 4SM BR FEW049 14/13 A2997 RMK AO2 SLP155 T01440128 402440106=
201808140653 METAR KBLI 140653Z AUTO 00000KT 5SM BR FEW050 15/13 A2997 RMK AO2 SLP156 T01500133=
201808140553 METAR KBLI 140553Z AUTO 00000KT 6SM BR FEW055 16/14 A2997 RMK AO2 SLP156 T01560139 10233 20150 58001=
201808140453 METAR KBLI 140453Z 00000KT 6SM HZ FU CLR 16/14 A2998 RMK AO2 SLP157 T01610139=
201808140353 METAR KBLI 140353Z 00000KT 6SM HZ FU CLR 17/14 A2998 RMK AO2 SLP157 T01720144=
201808140253 METAR KBLI 140253Z 00000KT 6SM HZ FU CLR 20/15 A2998 RMK AO2 SLP157 T02000150 58012=
201808140153 METAR KBLI 140153Z 28005KT 6SM HZ FU CLR 22/15 A2999 RMK AO2 SLP162 T02170150=
201808140053 METAR KBLI 140053Z 27004KT 4SM HZ FU FEW075 22/16 A3001 RMK AO2 SLP166 T02220156=
201808132353 METAR KBLI 132353Z 28006KT 4SM HZ FU CLR 23/15 A3001 RMK AO2 SLP169 T02330150 10244 20206 56017=
201808132253 METAR KBLI 132253Z 26007KT 8SM HZ FU CLR 23/15 A3003 RMK AO2 SLP174 T02330150=
201808132153 METAR KBLI 132153Z 28006KT 3SM HZ FU SCT020 23/16 A3005 RMK AO2 SLP181 T02330156=
201808132053 METAR KBLI 132053Z 28007KT 3SM HZ FU CLR 24/16 A3006 RMK AO2 SLP186 T02390156 58013=
201808131953 METAR KBLI 131953Z VRB04KT 3SM HZ FU CLR 23/14 A3008 RMK AO2 SLP192 T02330139=
201808131853 METAR KBLI 131853Z VRB03KT 3SM HZ FU CLR 22/14 A3010 RMK AO2 SLP197 T02170139=
201808131753 METAR KBLI 131753Z 34004KT 4SM HZ FU FEW018 BKN050 20/14 A3010 RMK AO2 SLP199 T02000139 10206 20106 58007=
201808131653 METAR KBLI 131653Z 36005KT 3SM HZ FU CLR 18/14 A3011 RMK AO2 SLP203 T01830139=
201808131553 METAR KBLI 131553Z 36003KT 3SM HZ FU CLR 16/14 A3012 RMK AO2 SLP205 T01560139=
201808131453 METAR KBLI 131453Z 00000KT 1SM R16/P6000FT BR FEW001 BKN008 13/12 A3012 RMK AO2 SLP206 T01330117 50001=
201808131418 SPECI KBLI 131418Z 00000KT 1/2SM R16/2000VP6000FT FG VV002 13/11 A3012 RMK AO2 T01280111=
201808131409 SPECI KBLI 131409Z 36004KT 3/4SM R16/2800VP6000FT BR VV002 12/11 A3013 RMK AO2 T01220111=
201808131353 METAR KBLI 131353Z 34003KT 1/2SM R16/1800VP6000FT FG VV001 12/11 A3012 RMK AO2 SLP206 T01170106=
201808131335 SPECI KBLI 131335Z AUTO 35003KT 1/4SM R16/2400VP6000FT FG OVC001 12/11 A3012 RMK AO2 T01170106=
201808131328 SPECI KBLI 131328Z AUTO 00000KT 3/4SM R16/5500VP6000FT BR OVC001 12/10 A3012 RMK AO2 T01170100=
201808131320 SPECI KBLI 131320Z AUTO 00000KT 9SM BKN001 11/10 A3012 RMK AO2 T01110100=
201808131308 SPECI KBLI 131308Z AUTO 00000KT 5SM BR FEW002 11/09 A3012 RMK AO2 T01060094=
201808131253 METAR KBLI 131253Z AUTO 00000KT 5SM BR CLR 11/09 A3012 RMK AO2 SLP205 T01110094=
201808131153 METAR KBLI 131153Z AUTO 00000KT 3SM BR CLR 12/10 A3012 RMK AO2 SLP205 T01170100 10150 20111 58002=
201808131053 METAR KBLI 131053Z AUTO 00000KT 10SM CLR 12/11 A3013 RMK AO2 SLP207 T01170106=
201808130953 METAR KBLI 130953Z AUTO 00000KT 10SM CLR 12/11 A3013 RMK AO2 SLP209 T01220106=
201808130853 METAR KBLI 130853Z AUTO 27003KT 10SM CLR 13/11 A3012 RMK AO2 SLP207 T01280111 55001=
201808130753 METAR KBLI 130753Z AUTO 00000KT 10SM FEW080 12/11 A3012 RMK AO2 SLP206 T01220106 402280122=
201808130653 METAR KBLI 130653Z AUTO 00000KT 10SM CLR 14/12 A3013 RMK AO2 SLP207 T01440122=
201808130553 METAR KBLI 130553Z AUTO 00000KT 10SM CLR 15/12 A3013 RMK AO2 SLP208 T01500117 10217 20139 51006=
201808130453 METAR KBLI 130453Z 00000KT 10SM CLR 15/12 A3012 RMK AO2 SLP206 T01500122=
201808130353 METAR KBLI 130353Z 00000KT 10SM CLR 16/12 A3012 RMK AO2 SLP204 T01610122=
201808130253 METAR KBLI 130253Z 28004KT 10SM CLR 19/12 A3011 RMK AO2 SLP202 T01890122 56009=
201808130153 METAR KBLI 130153Z 26006KT 10SM CLR 21/12 A3012 RMK AO2 SLP203 T02060117=
201808130053 METAR KBLI 130053Z VRB06KT 10SM FEW100 21/11 A3013 RMK AO2 SLP206 T02110111=
201808122353 METAR KBLI 122353Z 30008KT 10SM FEW035 FEW080 22/12 A3014 RMK AO2 SLP210 T02170117 10228 20178 56015=
201808122253 METAR KBLI 122253Z 25007KT 210V290 10SM FEW035 SCT080 22/12 A3015 RMK AO2 SLP214 T02170117=
201808122153 METAR KBLI 122153Z VRB06KT 10SM FEW030 SCT080 21/13 A3016 RMK AO2 SLP218 T02110128=
201808122053 METAR KBLI 122053Z VRB05KT 10SM CLR 21/12 A3018 RMK AO2 SLP225 T02060122 58001=
201808121953 METAR KBLI 121953Z 17010KT 10SM FEW050 SCT100 19/12 A3019 RMK AO2 SLP229 T01940122=
201808121853 METAR KBLI 121853Z 16009G14KT 10SM FEW050 BKN120 19/12 A3019 RMK AO2 SLP228 T01890122=
201808121753 METAR KBLI 121753Z 17010G17KT 10SM BKN050 BKN075 18/12 A3018 RMK AO2 SLP227 T01780122 10178 20161 51012=
201808121653 METAR KBLI 121653Z 16010KT 10SM OVC075 17/13 A3018 RMK AO2 SLP224 T01670128=
201808121553 METAR KBLI 121553Z 16009KT 10SM FEW014 OVC070 17/13 A3017 RMK AO2 SLP221 T01670128=
201808121453 METAR KBLI 121453Z 16009KT 10SM BKN065 17/13 A3015 RMK AO2 SLP215 T01670128 51016=
201808121353 METAR KBLI 121353Z 17006KT 10SM OVC085 17/13 A3014 RMK AO2 SLP210 T01670128=
201808121253 METAR KBLI 121253Z AUTO 17009KT 10SM BKN090 16/13 A3013 RMK AO2 SLP207 T01610128=
201808121153 METAR KBLI 121153Z AUTO 17008KT 10SM CLR 17/12 A3010 RMK AO2 SLP199 60000 70007 T01670122 10183 20167 52007=
201808121053 METAR KBLI 121053Z AUTO 17006KT 10SM BKN042 17/13 A3009 RMK AO2 SLP197 T01670128=
201808120953 METAR KBLI 120953Z AUTO 17006KT 10SM SCT040 17/13 A3009 RMK AO2 SLP195 T01720128=
201808120853 METAR KBLI 120853Z AUTO 18007KT 10SM FEW044 SCT060 17/13 A3008 RMK AO2 SLP191 60000 T01670133 53006=
201808120753 METAR KBLI 120753Z AUTO 17006KT 10SM BKN050 BKN110 17/14 A3007 RMK AO2 RAE0659 SLP188 P0000 T01720139 402060172=
201808120653 METAR KBLI 120653Z AUTO 17007KT 10SM -RA OVC110 18/14 A3006 RMK AO2 RAB44 SLP185 P0000 T01780144=
201808120553 METAR KBLI 120553Z AUTO 17008KT 10SM SCT095 18/14 A3006 RMK AO2 SLP186 T01780144 10200 20172 51007=
201808120453 METAR KBLI 120453Z 16007KT 10SM FEW110 18/14 A3006 RMK AO2 SLP186 T01780139=
201808120353 METAR KBLI 120353Z 17007KT 10SM SCT050 BKN075 BKN110 18/14 A3005 RMK AO2 SLP181 T01830139=
201808120253 METAR KBLI 120253Z 17007KT 10SM BKN050 BKN100 18/14 A3004 RMK AO2 SLP179 T01830139 53010=
201808120153 METAR KBLI 120153Z 16010KT 10SM BKN050 BKN100 19/14 A3003 RMK AO2 SLP174 T01890144=
201808120053 METAR KBLI 120053Z 17008KT 10SM SCT100 19/13 A3002 RMK AO2 SLP170 T01940128=
201808112353 METAR KBLI 112353Z 17009KT 10SM FEW095 19/14 A3001 RMK AO2 SLP169 60007 T01940144 10206 20178 58004=
201808112253 METAR KBLI 112253Z VRB05KT 10SM FEW028 FEW055 BKN080 19/14 A3003 RMK AO2 LTG DSNT SE RAE05 SLP174 P0001 T01890144=
201808112201 SPECI KBLI 112201Z 15003KT 10SM -RA FEW042 BKN050 OVC080 18/16 A3002 RMK AO2 LTG DSNT SE AND S P0001 T01830156=
201808112153 METAR KBLI 112153Z 00000KT 2SM R16/5000VP6000FT -RA BR SCT041 OVC050 18/16 A3003 RMK AO2 LTG DSNT SE AND S RAB36 SLP174 P0006 T01780156=
201808112148 SPECI KBLI 112148Z 18003KT 1 3/4SM R16/5000VP6000FT +RA BKN043 OVC050 18/15 A3003 RMK AO2 RAB36 P0006=
201808112053 METAR KBLI 112053Z 17010KT 10SM BKN055 OVC075 21/14 A3003 RMK AO2 SLP172 T02060139 53001=
201808111953 METAR KBLI 111953Z 17010G15KT 10SM FEW048 OVC065 20/13 A3002 RMK AO2 SLP169 T02000133=
201808111853 METAR KBLI 111853Z 17009G17KT 10SM BKN046 19/13 A3002 RMK AO2 SLP170 T01940133=
201808111753 METAR KBLI 111753Z 16013G19KT 10SM OVC048 18/13 A3002 RMK AO2 SLP171 T01830133 10189 20172 52001=
201808111653 METAR KBLI 111653Z 15007KT 10SM SCT035 BKN045 OVC050 19/13 A3002 RMK AO2 SLP171 T01890128=
201808111553 METAR KBLI 111553Z 15011KT 10SM BKN034 OVC041 18/13 A3002 RMK AO2 SLP170 T01830128=
201808111453 METAR KBLI 111453Z 14012KT 10SM BKN026 OVC034 18/13 A3002 RMK AO2 SLP170 T01780128 51007=
201808111353 METAR KBLI 111353Z 15009G16KT 10SM FEW026 OVC036 17/13 A3001 RMK AO2 SLP168 T01720133=
201808111349 SPECI KBLI 111349Z 15012KT 10SM SCT026 OVC034 17/13 A3001 RMK AO2=
201808111253 METAR KBLI 111253Z AUTO 17008KT 10SM BKN022 OVC031 18/14 A3000 RMK AO2 SLP164 T01780139=
201808111153 METAR KBLI 111153Z AUTO 17009KT 10SM SCT023 BKN029 OVC039 17/14 A2998 RMK AO2 SLP158 T01720139 10194 20172 53007=
201808111142 SPECI KBLI 111142Z AUTO 17010KT 10SM SCT023 BKN029 OVC037 18/14 A2998 RMK AO2 T01780139=
201808111107 SPECI KBLI 111107Z AUTO 16011G18KT 10SM SCT026 OVC035 17/14 A2998 RMK AO2 T01720139=
201808111053 METAR KBLI 111053Z AUTO 15013G21KT 10SM BKN028 OVC035 18/14 A2998 RMK AO2 SLP157 T01780139=
201808111035 SPECI KBLI 111035Z AUTO 15012KT 10SM OVC029 17/13 A2997 RMK AO2 T01720133=
201808110953 METAR KBLI 110953Z AUTO 16010G16KT 10SM OVC030 17/13 A2996 RMK AO2 SLP151 T01720133=
201808110929 SPECI KBLI 110929Z AUTO 13006KT 10SM BKN029 17/13 A2996 RMK AO2 T01720133=
201808110853 METAR KBLI 110853Z AUTO 16008KT 10SM CLR 18/13 A2995 RMK AO2 SLP147 T01780133 51008=
201808110753 METAR KBLI 110753Z AUTO 16009KT 10SM CLR 18/13 A2995 RMK AO2 SLP145 T01830133 402780139=
201808110653 METAR KBLI 110653Z AUTO 17006KT 10SM CLR 19/13 A2993 RMK AO2 SLP141 T01890133=
201808110553 METAR KBLI 110553Z AUTO 16009KT 10SM CLR 19/14 A2993 RMK AO2 SLP138 T01890139 10256 20189 51014=
201808110453 METAR KBLI 110453Z 16006KT 10SM CLR 20/14 A2992 RMK AO2 SLP136 T02000139=
201808110353 METAR KBLI 110353Z 17011KT 10SM CLR 20/14 A2990 RMK AO2 SLP130 T02000139=
201808110253 METAR KBLI 110253Z 17011KT 10SM SCT120 22/13 A2988 RMK AO2 SLP124 T02220128 55000=
201808110153 METAR KBLI 110153Z 17011KT 10SM FEW100 24/13 A2987 RMK AO2 SLP121 T02440128=
201808110053 METAR KBLI 110053Z 17012KT 10SM CLR 25/13 A2989 RMK AO2 SLP125 T02500133=
201808102353 METAR KBLI 102353Z 17010KT 10SM CLR 24/14 A2988 RMK AO2 SLP124 T02440139 10278 20211 58009=
201808102253 METAR KBLI 102253Z VRB06G15KT 10SM CLR 28/13 A2990 RMK AO2 SLP128 T02780128=
201808102153 METAR KBLI 102153Z 17007KT 10SM CLR 28/13 A2990 RMK AO2 SLP131 T02780128=
201808102053 METAR KBLI 102053Z 18010G16KT 10SM CLR 26/14 A2991 RMK AO2 SLP133 T02610139 58001=
201808101953 METAR KBLI 101953Z 19007KT 10SM CLR 25/15 A2991 RMK AO2 SLP134 T02500150=
201808101853 METAR KBLI 101853Z 18009KT 10SM CLR 23/16 A2992 RMK AO2 SLP137 T02330156=
201808101753 METAR KBLI 101753Z 16008KT 10SM CLR 22/15 A2991 RMK AO2 SLP134 T02170150 10217 20139 51008=
201808101653 METAR KBLI 101653Z VRB06KT 10SM CLR 21/15 A2991 RMK AO2 SLP132 T02060150=
201808101553 METAR KBLI 101553Z 19005KT 10SM CLR 20/16 A2990 RMK AO2 SLP131 T02000156=
201808101453 METAR KBLI 101453Z 00000KT 10SM CLR 18/15 A2989 RMK AO2 SLP125 T01780150 58003=
201808101353 METAR KBLI 101353Z 00000KT 10SM CLR 15/13 A2990 RMK AO2 SLP130 T01500128=
201808101253 METAR KBLI 101253Z AUTO 00000KT 10SM CLR 15/13 A2990 RMK AO2 SLP129 T01500128=
201808101153 METAR KBLI 101153Z AUTO 00000KT 10SM CLR 14/12 A2990 RMK AO2 SLP128 T01390122 10194 20139 51007=
201808101053 METAR KBLI 101053Z AUTO 00000KT 8SM CLR 14/13 A2989 RMK AO2 SLP125 T01440128=
201808100953 METAR KBLI 100953Z AUTO 00000KT 10SM CLR 16/13 A2989 RMK AO2 SLP125 T01560133=
201808100853 METAR KBLI 100853Z AUTO 00000KT 10SM CLR 16/14 A2988 RMK AO2 SLP122 T01610139 58007=
201808100753 METAR KBLI 100753Z AUTO 18003KT 10SM CLR 18/14 A2989 RMK AO2 SLP125 T01780144 403110178=
201808100653 METAR KBLI 100653Z AUTO 18003KT 10SM CLR 19/14 A2989 RMK AO2 SLP127 T01890144=
201808100553 METAR KBLI 100553Z AUTO 17004KT 10SM CLR 19/14 A2990 RMK AO2 SLP129 T01940139 10311 20183 50002=
201808100453 METAR KBLI 100453Z 00000KT 10SM CLR 19/14 A2990 RMK AO2 SLP129 T01940139=
201808100353 METAR KBLI 100353Z 00000KT 10SM CLR 21/13 A2990 RMK AO2 SLP128 T02110133=
201808100253 METAR KBLI 100253Z 00000KT 10SM CLR 24/14 A2989 RMK AO2 SLP127 T02390139 56013=
201808100153 METAR KBLI 100153Z 16005KT 10SM CLR 28/14 A2990 RMK AO2 SLP130 T02780139=
201808100053 METAR KBLI 100053Z 18004KT 10SM CLR 29/13 A2992 RMK AO2 SLP134 T02940133=
201808092353 METAR KBLI 092353Z 28004KT 10SM CLR 31/13 A2993 RMK AO2 SLP139 T03060133 10311 20239 58014=
201808092253 METAR KBLI 092253Z 19004KT 10SM CLR 29/13 A2995 RMK AO2 SLP146 T02940133=
201808092153 METAR KBLI 092153Z VRB04KT 10SM CLR 29/14 A2996 RMK AO2 SLP148 T02890139=
201808092053 METAR KBLI 092053Z 18006KT 10SM CLR 28/14 A2997 RMK AO2 SLP153 T02830139 58007=
201808091953 METAR KBLI 091953Z 15007KT 10SM CLR 27/14 A2998 RMK AO2 SLP157 T02670139=
201808091853 METAR KBLI 091853Z 18006KT 10SM CLR 26/13 A2999 RMK AO2 SLP161 T02560133=
201808091753 METAR KBLI 091753Z 18005KT 10SM CLR 24/13 A2999 RMK AO2 SLP161 T02390133 10244 20200 50004=
201808091653 METAR KBLI 091653Z 17006KT 10SM CLR 23/13 A3000 RMK AO2 SLP163 T02330128=
201808091553 METAR KBLI 091553Z 17008KT 10SM CLR 22/13 A3000 RMK AO2 SLP163 T02220133=
201808091453 METAR KBLI 091453Z 14009KT 10SM CLR 21/13 A2998 RMK AO2 SLP156 T02110133 51015=
201808091353 METAR KBLI 091353Z 17009KT 10SM CLR 20/13 A2997 RMK AO2 SLP151 T02000128=
201808091253 METAR KBLI 091253Z AUTO 17010G17KT 10SM CLR 21/13 A2996 RMK AO2 SLP147 T02060128=
201808091153 METAR KBLI 091153Z AUTO 17013G20KT 10SM CLR 22/11 A2994 RMK AO2 SLP141 T02220111 10222 20183 53009=
201808091053 METAR KBLI 091053Z AUTO 17008KT 10SM CLR 21/13 A2993 RMK AO2 SLP137 T02110128=
201808090953 METAR KBLI 090953Z AUTO 17005KT 10SM CLR 21/13 A2992 RMK AO2 SLP135 T02060133=
201808090853 METAR KBLI 090853Z AUTO 18007KT 10SM CLR 21/14 A2991 RMK AO2 SLP132 T02110144 51009=
201808090753 METAR KBLI 090753Z AUTO 19006KT 10SM CLR 21/14 A2990 RMK AO2 SLP129 T02110144 403170139=
201808090653 METAR KBLI 090653Z AUTO 20006KT 10SM CLR 21/16 A2990 RMK AO2 SLP128 T02110161=
201808090553 METAR KBLI 090553Z AUTO 15003KT 10SM CLR 21/16 A2988 RMK AO2 SLP123 T02110156 10317 20211 51014=
201808090453 METAR KBLI 090453Z 18008KT 10SM CLR 23/14 A2987 RMK AO2 SLP120 T02280139=
201808090353 METAR KBLI 090353Z 19004KT 10SM CLR 23/16 A2985 RMK AO2 SLP114 T02330156=
201808090253 METAR KBLI 090253Z 21003KT 10SM CLR 27/14 A2984 RMK AO2 SLP109 T02670144 55004=
201808090153 METAR KBLI 090153Z 26004KT 10SM CLR 30/14 A2983 RMK AO2 SLP106 T03000144=
201808090053 METAR KBLI 090053Z 28005KT 10SM CLR 31/14 A2984 RMK AO2 SLP109 T03110144=
201808082353 METAR KBLI 082353Z 24005KT 10SM CLR 31/16 A2985 RMK AO2 SLP113 T03060156 10317 20250 56014=
201808082253 METAR KBLI 082253Z 28008KT 10SM CLR 30/14 A2987 RMK AO2 SLP119 T03000144=
201808082153 METAR KBLI 082153Z 28004KT 10SM CLR 32/14 A2988 RMK AO2 SLP120 T03170144=
201808082053 METAR KBLI 082053Z VRB05KT 10SM CLR 30/14 A2989 RMK AO2 SLP126 T03000144 56009=
201808081953 METAR KBLI 081953Z 21004KT 10SM CLR 28/14 A2990 RMK AO2 SLP130 T02830144=
201808081853 METAR KBLI 081853Z 20006KT 10SM CLR 27/16 A2991 RMK AO2 SLP133 T02670156=
201808081753 METAR KBLI 081753Z 22004KT 10SM CLR 25/15 A2992 RMK AO2 SLP136 T02500150 10250 20139 50000=
201808081653 METAR KBLI 081653Z 10003KT 10SM CLR 23/13 A2993 RMK AO2 SLP138 T02330133=
201808081553 METAR KBLI 081553Z 18005KT 10SM CLR 21/14 A2993 RMK AO2 SLP141 T02060139=
201808081453 METAR KBLI 081453Z 00000KT 10SM CLR 19/14 A2992 RMK AO2 SLP136 T01940144 53008=
201808081353 METAR KBLI 081353Z 19003KT 10SM CLR 16/14 A2991 RMK AO2 SLP133 T01610139=
201808081253 METAR KBLI 081253Z AUTO 00000KT 10SM CLR 14/12 A2990 RMK AO2 SLP130 T01440122=
201808081153 METAR KBLI 081153Z AUTO 00000KT 10SM CLR 15/13 A2989 RMK AO2 SLP127 T01500128 10194 20144 58001=
201808081053 METAR KBLI 081053Z AUTO 00000KT 10SM CLR 16/13 A2990 RMK AO2 SLP131 T01560133=
201808080953 METAR KBLI 080953Z AUTO 00000KT 10SM CLR 17/14 A2990 RMK AO2 SLP129 T01670139=
201808080853 METAR KBLI 080853Z AUTO 00000KT 10SM CLR 17/14 A2990 RMK AO2 SLP128 T01720139 58002=
201808080753 METAR KBLI 080753Z AUTO 17006KT 10SM CLR 18/14 A2990 RMK AO2 SLP130 T01830144 403060144=
201808080653 METAR KBLI 080653Z AUTO 00000KT 10SM CLR 18/14 A2990 RMK AO2 SLP129 T01830144=
201808080553 METAR KBLI 080553Z AUTO 00000KT 10SM CLR 19/14 A2990 RMK AO2 SLP130 T01890139 10300 20183 51004=
201808080453 METAR KBLI 080453Z 00000KT 10SM CLR 19/12 A2990 RMK AO2 SLP130 T01890122=
201808080353 METAR KBLI 080353Z 00000KT 10SM CLR 21/13 A2989 RMK AO2 SLP127 T02060128=
201808080253 METAR KBLI 080253Z 00000KT 10SM CLR 24/13 A2989 RMK AO2 SLP126 T02440128 56014=
201808080153 METAR KBLI 080153Z 27004KT 10SM CLR 28/11 A2990 RMK AO2 SLP129 T02780111=
201808080053 METAR KBLI 080053Z 25004KT 10SM CLR 29/12 A2991 RMK AO2 SLP134 T02940117=
201808072353 METAR KBLI 072353Z 28004KT 10SM CLR 30/11 A2993 RMK AO2 SLP140 T03000111 10306 20206 58024=
201808072253 METAR KBLI 072253Z VRB03KT 10SM CLR 29/11 A2996 RMK AO2 SLP148 T02940111=
201808072153 METAR KBLI 072153Z VRB03KT 10SM CLR 27/13 A2998 RMK AO2 SLP158 T02720133=
201808072053 METAR KBLI 072053Z 23004KT 10SM CLR 26/14 A3000 RMK AO2 SLP164 T02610139 56017=
201808071953 METAR KBLI 071953Z 17005KT 10SM CLR 24/14 A3002 RMK AO2 SLP169 T02390139=
201808071853 METAR KBLI 071853Z VRB03KT 10SM CLR 22/14 A3004 RMK AO2 SLP176 T02220139=
201808071753 METAR KBLI 071753Z VRB03KT 10SM CLR 21/14 A3005 RMK AO2 SLP181 T02060139 10206 20144 58008=
201808071653 METAR KBLI 071653Z 21003KT 10SM CLR 18/13 A3006 RMK AO2 SLP185 T01830128=
201808071553 METAR KBLI 071553Z 17006KT 10SM FEW002 17/13 A3008 RMK AO2 SLP190 T01670128=
201808071453 METAR KBLI 071453Z 16007KT 10SM FEW002 16/12 A3008 RMK AO2 SLP189 T01560122 51008=
201808071353 METAR KBLI 071353Z 16005KT 10SM FEW002 15/13 A3007 RMK AO2 SLP188 T01500128=
201808071253 METAR KBLI 071253Z AUTO 17005KT 10SM CLR 14/12 A3006 RMK AO2 SLP183 T01440122=
201808071153 METAR KBLI 071153Z AUTO 18005KT 10SM CLR 15/12 A3005 RMK AO2 SLP181 T01500122 10178 20150 53002=
201808071053 METAR KBLI 071053Z AUTO 18006KT 10SM CLR 16/13 A3005 RMK AO2 SLP179 T01610128=
201808070953 METAR KBLI 070953Z AUTO 18007KT 10SM CLR 16/12 A3005 RMK AO2 SLP179 T01610122=
201808070853 METAR KBLI 070853Z AUTO 17008KT 10SM CLR 17/13 A3004 RMK AO2 SLP178 T01670128 53001=
201808070753 METAR KBLI 070753Z AUTO 18007KT 10SM CLR 17/13 A3004 RMK AO2 SLP177 T01670128 402560150=
201808070653 METAR KBLI 070653Z AUTO 18007KT 10SM CLR 17/14 A3004 RMK AO2 SLP177 T01720139=
201808070553 METAR KBLI 070553Z AUTO 00000KT 10SM CLR 18/13 A3004 RMK AO2 SLP178 T01780133 10250 20178 50002=
201808070453 METAR KBLI 070453Z 16004KT 10SM CLR 19/14 A3005 RMK AO2 SLP179 T01890139=
201808070353 METAR KBLI 070353Z 18003KT 10SM CLR 20/14 A3003 RMK AO2 SLP175 T02000139=
201808070253 METAR KBLI 070253Z 17004KT 10SM CLR 22/14 A3003 RMK AO2 SLP175 T02220139 58010=
201808070153 METAR KBLI 070153Z 17003KT 10SM CLR 24/13 A3005 RMK AO2 SLP179 T02440133=
201808070053 METAR KBLI 070053Z 17006KT 10SM CLR 25/13 A3006 RMK AO2 SLP183 T02500133=
201808062353 METAR KBLI 062353Z 16006KT 10SM CLR 25/14 A3007 RMK AO2 SLP186 T02500139 10256 20189 58014=
201808062253 METAR KBLI 062253Z 17007KT 10SM CLR 24/13 A3008 RMK AO2 SLP191 T02440133=
201808062153 METAR KBLI 062153Z 19006KT 10SM CLR 24/13 A3009 RMK AO2 SLP195 T02390133=
201808062053 METAR KBLI 062053Z 18005KT 10SM CLR 23/13 A3011 RMK AO2 SLP200 T02280133 58005=
201808061953 METAR KBLI 061953Z 16007KT 10SM CLR 22/13 A3011 RMK AO2 SLP202 T02170133=
201808061853 METAR KBLI 061853Z 16007KT 10SM CLR 21/14 A3012 RMK AO2 SLP204 T02110139=
201808061753 METAR KBLI 061753Z 16007KT 130V190 10SM CLR 19/13 A3012 RMK AO2 SLP205 T01890133 10194 20150 51010=
201808061653 METAR KBLI 061653Z VRB05KT 10SM CLR 19/14 A3012 RMK AO2 SLP203 T01890139=
201808061553 METAR KBLI 061553Z 17008KT 10SM CLR 17/13 A3011 RMK AO2 SLP199 T01720133=
201808061453 METAR KBLI 061453Z 18007KT 10SM CLR 17/13 A3009 RMK AO2 SLP195 T01670133 53014=
201808061353 METAR KBLI 061353Z 19003KT 10SM CLR 16/13 A3007 RMK AO2 SLP189 T01560128=
201808061253 METAR KBLI 061253Z AUTO 17004KT 10SM CLR 16/13 A3006 RMK AO2 SLP184 T01560133=
201808061153 METAR KBLI 061153Z AUTO 17005KT 10SM CLR 16/13 A3005 RMK AO2 SLP181 T01560128 10189 20156 53008=
201808061053 METAR KBLI 061053Z AUTO 18004KT 10SM CLR 16/13 A3004 RMK AO2 SLP176 T01610133=
201808060953 METAR KBLI 060953Z AUTO 18004KT 10SM CLR 17/13 A3003 RMK AO2 SLP174 T01670133=
201808060853 METAR KBLI 060853Z AUTO 17006KT 10SM CLR 17/14 A3003 RMK AO2 SLP172 T01720139 51007=
201808060753 METAR KBLI 060753Z AUTO VRB03KT 10SM CLR 17/13 A3002 RMK AO2 SLP172 T01720133 402720139=
201808060653 METAR KBLI 060653Z AUTO 18004KT 10SM CLR 18/13 A3002 RMK AO2 SLP170 T01780133=
201808060553 METAR KBLI 060553Z AUTO 18005KT 10SM CLR 19/14 A3000 RMK AO2 SLP165 T01890139 10272 20189 51010=
201808060453 METAR KBLI 060453Z 17006KT 10SM CLR 19/13 A3000 RMK AO2 SLP164 T01890133=
201808060353 METAR KBLI 060353Z 17005KT 10SM CLR 20/14 A2999 RMK AO2 SLP160 T02000144=
201808060253 METAR KBLI 060253Z 00000KT 10SM FEW120 23/14 A2997 RMK AO2 SLP155 T02280139 56002=
201808060153 METAR KBLI 060153Z 20004KT 10SM SCT110 26/12 A2998 RMK AO2 SLP155 T02560122=
201808060053 METAR KBLI 060053Z VRB05KT 10SM CLR 26/12 A2997 RMK AO2 SLP154 T02610117=
201808052353 METAR KBLI 052353Z 26005KT 10SM CLR 27/12 A2998 RMK AO2 SLP157 T02720122 10272 20189 58012=
201808052253 METAR KBLI 052253Z 22007KT 10SM CLR 26/14 A3000 RMK AO2 SLP162 T02610139=
201808052153 METAR KBLI 052153Z 21005KT 10SM CLR 25/14 A3000 RMK AO2 SLP165 T02500139=
201808052053 METAR KBLI 052053Z VRB03KT 10SM CLR 25/13 A3002 RMK AO2 SLP169 T02500133 58008=
201808051953 METAR KBLI 051953Z VRB03KT 10SM CLR 23/13 A3003 RMK AO2 SLP174 T02280128=
201808051853 METAR KBLI 051853Z VRB05KT 10SM CLR 21/12 A3004 RMK AO2 SLP178 T02060122=
201808051753 METAR KBLI 051753Z 19008KT 10SM CLR 19/12 A3004 RMK AO2 SLP177 T01890122 10194 20150 51006=
201808051653 METAR KBLI 051653Z 18008KT 10SM CLR 18/13 A3004 RMK AO2 SLP178 T01780128=
201808051553 METAR KBLI 051553Z 17006KT 10SM CLR 17/13 A3004 RMK AO2 SLP177 T01670128=
201808051453 METAR KBLI 051453Z 17004KT 10SM CLR 16/13 A3002 RMK AO2 SLP171 T01610128 51009=
201808051353 METAR KBLI 051353Z AUTO 18005KT 10SM CLR 16/13 A3001 RMK AO2 SLP168 T01560128=
201808051253 METAR KBLI 051253Z AUTO 17004KT 10SM CLR 16/13 A3000 RMK AO2 SLP165 T01560128=
201808051153 METAR KBLI 051153Z AUTO 17005KT 10SM CLR 16/13 A2999 RMK AO2 SLP161 T01560128 10183 20139 53003=
201808051053 METAR KBLI 051053Z AUTO 00000KT 10SM CLR 14/12 A2999 RMK AO2 SLP160 T01390122=
201808050953 METAR KBLI 050953Z AUTO 00000KT 10SM CLR 14/13 A2998 RMK AO2 SLP158 T01440128=
201808050853 METAR KBLI 050853Z AUTO 19003KT 10SM CLR 16/13 A2998 RMK AO2 SLP158 T01610128 50006=
201808050753 METAR KBLI 050753Z AUTO 17005KT 10SM CLR 17/12 A2998 RMK AO2 SLP159 T01720122 402500117=
201808050653 METAR KBLI 050653Z AUTO 17003KT 10SM CLR 18/13 A2997 RMK AO2 SLP154 T01780128=
201808050553 METAR KBLI 050553Z AUTO 18005KT 10SM FEW080 18/13 A2996 RMK AO2 SLP152 T01830133 10250 20183 50008=
201808050453 METAR KBLI 050453Z 19005KT 10SM SCT080 18/13 A2997 RMK AO2 SLP153 T01830133=
201808050353 METAR KBLI 050353Z 18005KT 10SM FEW120 19/14 A2995 RMK AO2 SLP148 T01940139=
201808050253 METAR KBLI 050253Z 00000KT 10SM FEW110 22/14 A2994 RMK AO2 SLP144 T02220139 55004=
201808050153 METAR KBLI 050153Z 17004KT 10SM FEW100 24/14 A2993 RMK AO2 SLP140 T02390144=
201808050053 METAR KBLI 050053Z VRB04KT 10SM CLR 24/11 A2994 RMK AO2 SLP141 T02440106=
201808042353 METAR KBLI 042353Z 20005KT 10SM CLR 24/11 A2995 RMK AO2 SLP148 T02440111 10244 20161 58019=
201808042253 METAR KBLI 042253Z VRB05KT 10SM CLR 24/12 A2998 RMK AO2 SLP157 T02440122=
201808042153 METAR KBLI 042153Z 27007KT 240V300 10SM CLR 23/12 A3000 RMK AO2 SLP163 T02330122=
201808042053 METAR KBLI 042053Z 22004KT 10SM CLR 22/13 A3001 RMK AO2 SLP167 T02220133 56012=
201808041953 METAR KBLI 041953Z VRB06KT 10SM CLR 19/13 A3002 RMK AO2 SLP171 T01940128=
201808041853 METAR KBLI 041853Z VRB06KT 10SM CLR 18/13 A3003 RMK AO2 SLP176 T01780128=
201808041753 METAR KBLI 041753Z 19008KT 160V220 10SM OVC004 16/12 A3004 RMK AO2 SLP180 T01610122 10161 20133 58006=
201808041653 METAR KBLI 041653Z 18007KT 10SM OVC004 16/12 A3005 RMK AO2 SLP183 T01560122=
201808041553 METAR KBLI 041553Z VRB05KT 5SM HZ OVC004 15/12 A3006 RMK AO2 SLP185 T01500122=
201808041453 METAR KBLI 041453Z 17004KT 3SM BR OVC003 14/12 A3006 RMK AO2 SLP185 T01390122 53001=
201808041353 METAR KBLI 041353Z 18005KT 3SM BR OVC003 13/12 A3006 RMK AO2 SLP185 T01330122=
201808041301 SPECI KBLI 041301Z AUTO 18005KT 10SM BKN002 13/12 A3006 RMK AO2 T01330122=
201808041253 METAR KBLI 041253Z AUTO 18005KT 10SM SCT003 14/12 A3006 RMK AO2 SLP184 T01390122=
201808041245 SPECI KBLI 041245Z AUTO 18005KT 10SM FEW003 14/12 A3006 RMK AO2 T01390122=
201808041153 METAR KBLI 041153Z AUTO 18005KT 10SM CLR 14/12 A3006 RMK AO2 SLP184 T01390117 10167 20117 58003=
201808041053 METAR KBLI 041053Z AUTO 00000KT 10SM CLR 12/11 A3006 RMK AO2 SLP186 T01220106=
201808040953 METAR KBLI 040953Z AUTO 00000KT 10SM CLR 13/11 A3007 RMK AO2 SLP188 T01330111=
201808040853 METAR KBLI 040853Z AUTO 16004KT 10SM CLR 16/12 A3007 RMK AO2 SLP187 T01560117 58006=
201808040753 METAR KBLI 040753Z AUTO 17003KT 10SM SCT044 16/11 A3007 RMK AO2 SLP190 T01610111 402110144=
201808040653 METAR KBLI 040653Z AUTO 15007KT 10SM CLR 17/12 A3008 RMK AO2 SLP191 T01670117=
201808040553 METAR KBLI 040553Z AUTO 16006KT 10SM CLR 17/12 A3008 RMK AO2 SLP193 T01670117 10211 20167 58003=
201808040453 METAR KBLI 040453Z 16008KT 10SM CLR 18/12 A3009 RMK AO2 SLP196 T01780122=
201808040353 METAR KBLI 040353Z 17007KT 10SM BKN055 BKN090 18/12 A3009 RMK AO2 SLP195 T01830117=
201808040253 METAR KBLI 040253Z 16006KT 10SM SCT090 18/13 A3009 RMK AO2 SLP196 T01830128 55004=
201808040153 METAR KBLI 040153Z VRB05KT 10SM FEW090 19/12 A3009 RMK AO2 SLP195 T01940117=
201808040053 METAR KBLI 040053Z 17007KT 10SM CLR 21/12 A3010 RMK AO2 SLP197 T02060122=
201808032353 METAR KBLI 032353Z 18007KT 10SM FEW090 21/12 A3010 RMK AO2 SLP200 T02060122 10211 20167 58009=
201808032253 METAR KBLI 032253Z 17008KT 10SM FEW100 21/12 A3012 RMK AO2 SLP204 T02060117=
201808032153 METAR KBLI 032153Z 17010KT 10SM SCT070 20/11 A3012 RMK AO2 SLP205 T02000111=
201808032053 METAR KBLI 032053Z 15011KT 10SM OVC065 19/11 A3013 RMK AO2 SLP209 T01940111 51011=
201808031953 METAR KBLI 031953Z 17009KT 10SM OVC060 18/11 A3012 RMK AO2 SLP206 T01780111=
201808031853 METAR KBLI 031853Z 18007KT 10SM OVC055 17/12 A3011 RMK AO2 SLP203 T01720117=
201808031753 METAR KBLI 031753Z 16011KT 10SM OVC060 17/12 A3010 RMK AO2 SLP197 60000 T01670117 10167 20144 51012=
201808031653 METAR KBLI 031653Z 17008KT 10SM OVC065 16/11 A3009 RMK AO2 RAB25E39 SLP195 P0000 T01560111=
201808031553 METAR KBLI 031553Z 18006KT 10SM OVC065 16/11 A3007 RMK AO2 SLP190 T01610111=
201808031453 METAR KBLI 031453Z 16008KT 10SM FEW012 FEW036 OVC070 16/11 A3006 RMK AO2 SLP186 T01560111 51009=
201808031353 METAR KBLI 031353Z 18007KT 10SM FEW041 OVC065 15/11 A3006 RMK AO2 SLP184 T01500111=
201808031253 METAR KBLI 031253Z AUTO 18005KT 10SM BKN065 14/12 A3005 RMK AO2 SLP180 T01440117=
201808031153 METAR KBLI 031153Z AUTO 17010KT 10SM FEW048 OVC065 15/12 A3004 RMK AO2 SLP177 T01500122 10172 20150 53001=
201808031053 METAR KBLI 031053Z AUTO 17009KT 10SM OVC065 15/12 A3003 RMK AO2 SLP176 T01500122=
201808030953 METAR KBLI 030953Z AUTO 16008KT 10SM OVC060 15/12 A3003 RMK AO2 SLP175 T01500122=
201808030853 METAR KBLI 030853Z AUTO 17006KT 10SM FEW028 FEW049 BKN065 16/12 A3003 RMK AO2 SLP176 T01560122 58000=
201808030753 METAR KBLI 030753Z AUTO 17006KT 10SM SCT029 OVC060 16/12 A3003 RMK AO2 SLP176 T01560117 402000150=
201808030750 SPECI KBLI 030750Z AUTO 17007KT 10SM SCT029 OVC060 16/12 A3004 RMK AO2=
201808030736 SPECI KBLI 030736Z AUTO 17008KT 10SM BKN029 OVC060 16/12 A3003 RMK AO2 T01610122=
201808030653 METAR KBLI 030653Z AUTO 17007KT 10SM OVC055 17/12 A3003 RMK AO2 SLP176 T01670122=
201808030553 METAR KBLI 030553Z AUTO 17005KT 10SM OVC050 17/12 A3003 RMK AO2 SLP175 T01720122 10189 20167 50002=
201808030453 METAR KBLI 030453Z 17006KT 10SM OVC050 17/12 A3003 RMK AO2 SLP176 T01720122=
201808030353 METAR KBLI 030353Z 17006KT 10SM OVC050 17/12 A3003 RMK AO2 SLP175 T01720122=
201808030253 METAR KBLI 030253Z VRB06KT 10SM OVC050 17/12 A3002 RMK AO2 SLP173 T01720122 58006=
201808030153 METAR KBLI 030153Z 16009KT 10SM OVC045 18/13 A3003 RMK AO2 SLP176 T01830128=
201808030053 METAR KBLI 030053Z 18007KT 10SM OVC043 19/13 A3004 RMK AO2 SLP178 T01890128=
201808022353 METAR KBLI 022353Z 17007KT 10SM OVC046 19/13 A3004 RMK AO2 SLP179 T01890133 10200 20167 56008=
201808022253 METAR KBLI 022253Z 15008KT 10SM FEW041 BKN050 19/12 A3005 RMK AO2 SLP181 T01940122=
201808022153 METAR KBLI 022153Z 15010KT 10SM OVC035 18/13 A3006 RMK AO2 SLP184 T01830128=
201808022053 METAR KBLI 022053Z 16009KT 10SM OVC035 17/13 A3007 RMK AO2 SLP188 T01670128 51008=
201808021953 METAR KBLI 021953Z 19006G15KT 10SM SCT007 BKN038 OVC047 17/13 A3006 RMK AO2 SLP187 T01720133=
201808021853 METAR KBLI 021853Z 18009KT 10SM FEW008 FEW026 BKN050 17/13 A3006 RMK AO2 SLP184 T01670128=
201808021835 SPECI KBLI 021835Z 19008G17KT 140V240 10SM FEW008 FEW028 SCT050 17/13 A3005 RMK AO2 T01670128=
201808021753 METAR KBLI 021753Z 15008KT 10SM SCT017 BKN050 18/13 A3005 RMK AO2 SLP180 T01780128 10178 20150 51009=
201808021725 SPECI KBLI 021725Z 17009KT 10SM FEW007 SCT017 BKN055 17/12 A3005 RMK AO2 T01720122=
201808021653 METAR KBLI 021653Z 17010KT 10SM FEW007 BKN017 OVC046 16/13 A3004 RMK AO2 SLP180 T01610128=
201808021632 SPECI KBLI 021632Z 17008KT 10SM FEW009 OVC017 16/13 A3004 RMK AO2 T01610128=
201808021553 METAR KBLI 021553Z 16007KT 10SM SCT012 OVC022 16/12 A3004 RMK AO2 SLP177 T01610122=
201808021541 SPECI KBLI 021541Z 16009KT 10SM SCT011 BKN022 OVC042 16/12 A3003 RMK AO2 T01560117=
201808021453 METAR KBLI 021453Z 17007KT 10SM BKN011 OVC025 16/12 A3002 RMK AO2 SLP171 T01560117 53014=
201808021446 SPECI KBLI 021446Z 16009KT 10SM BKN011 OVC025 16/12 A3002 RMK AO2 T01560117=
201808021353 METAR KBLI 021353Z 16008KT 10SM OVC024 15/12 A3000 RMK AO2 SLP164 T01500117=
201808021253 METAR KBLI 021253Z AUTO 16008KT 10SM OVC024 16/12 A2998 RMK AO2 SLP158 T01560117=
201808021153 METAR KBLI 021153Z AUTO 16010KT 10SM BKN024 16/12 A2998 RMK AO2 SLP156 T01560117 10172 20150 51005=
201808021126 SPECI KBLI 021126Z AUTO 16009KT 10SM BKN020 16/12 A2997 RMK AO2 T01560117=
201808021053 METAR KBLI 021053Z AUTO 16008KT 10SM CLR 16/12 A2997 RMK AO2 SLP155 T01560117=
201808020953 METAR KBLI 020953Z AUTO 16010KT 10SM CLR 16/12 A2997 RMK AO2 SLP153 T01560117=
201808020853 METAR KBLI 020853Z AUTO 16009KT 10SM CLR 16/12 A2996 RMK AO2 SLP151 T01610117 50002=
201808020753 METAR KBLI 020753Z AUTO 16007KT 10SM CLR 17/12 A2997 RMK AO2 SLP153 T01670122 402060150=
201808020653 METAR KBLI 020653Z AUTO 17009KT 10SM CLR 17/12 A2997 RMK AO2 SLP153 T01670122=
201808020553 METAR KBLI 020553Z AUTO 16007G16KT 10SM CLR 17/13 A2996 RMK AO2 SLP150 T01720128 10206 20167 53004=
201808020453 METAR KBLI 020453Z 16009KT 10SM CLR 17/13 A2995 RMK AO2 SLP148 T01720128=
201808020353 METAR KBLI 020353Z 17011KT 10SM CLR 17/13 A2994 RMK AO2 SLP146 T01720128=
201808020253 METAR KBLI 020253Z 16008G16KT 10SM CLR 18/13 A2994 RMK AO2 SLP145 T01780128 56013=
201808020153 METAR KBLI 020153Z 17010G15KT 10SM CLR 19/13 A2995 RMK AO2 SLP148 T01890133=
201808020053 METAR KBLI 020053Z 18009KT 10SM CLR 20/13 A2996 RMK AO2 SLP152 T02000133=
201808012353 METAR KBLI 012353Z 18010KT 10SM CLR 21/13 A2998 RMK AO2 SLP158 T02060133 10206 20161 58014=
201808012253 METAR KBLI 012253Z 18007G16KT 120V230 10SM CLR 20/13 A3000 RMK AO2 SLP164 T02000133=
201808012200 SPECI KBLI 012200Z 18008KT 150V210 10SM CLR 20/13 A3001 RMK AO2 T02000133=
201808012153 METAR KBLI 012153Z 17008G15KT 140V230 10SM OVC018 19/13 A3001 RMK AO2 SLP167 T01940128=
201808012053 METAR KBLI 012053Z 16006KT 10SM OVC018 18/13 A3002 RMK AO2 SLP172 T01830133 58006=
201808011953 METAR KBLI 011953Z VRB05KT 10SM OVC013 17/13 A3003 RMK AO2 SLP174 T01720133=
201808011853 METAR KBLI 011853Z 19006KT 10SM FEW008 OVC015 17/13 A3004 RMK AO2 SLP177 T01670128=
201808011753 METAR KBLI 011753Z 17008KT 10SM BR BKN004 OVC015 16/13 A3004 RMK AO2 SLP178 T01610133 10161 20150 51004=
201808011653 METAR KBLI 011653Z 18005KT 6SM BR BKN004 OVC015 16/13 A3004 RMK AO2 CIG 002V008 SLP178 T01560133 $=
201808011604 SPECI KBLI 011604Z 18007KT 140V220 6SM BR BKN004 OVC014 16/13 A3004 RMK AO2 T01560133 $=
201808011553 METAR KBLI 011553Z VRB05KT 6SM BR BKN005 OVC014 16/13 A3004 RMK AO2 SLP178 T01560133 $=
201808011513 SPECI KBLI 011513Z 17009KT 6SM BR OVC007 15/13 A3003 RMK AO2 CIG 005V011 T01500128=
201808011453 METAR KBLI 011453Z 17007KT 8SM SCT007 OVC012 16/13 A3003 RMK AO2 SLP174 T01560128 51008=
201808011353 METAR KBLI 011353Z 17009KT 10SM OVC010 16/13 A3001 RMK AO2 CIG 007V013 SLP169 T01560128=
201808011253 METAR KBLI 011253Z AUTO 17008KT 10SM OVC012 16/12 A3000 RMK AO2 SLP166 T01560122=
201808011202 SPECI KBLI 011202Z AUTO 16010KT 10SM OVC014 16/12 A3000 RMK AO2 T01560122=
201808011153 METAR KBLI 011153Z AUTO 16011G17KT 10SM BKN016 16/12 A3000 RMK AO2 SLP163 T01560122 10183 20156 51007=
201808011150 SPECI KBLI 011150Z AUTO 16011KT 10SM BKN016 16/12 A3000 RMK AO2=
201808011053 METAR KBLI 011053Z AUTO 17009KT 10SM CLR 16/12 A2999 RMK AO2 SLP161 T01610122=
201808010953 METAR KBLI 010953Z AUTO 16009KT 10SM CLR 16/13 A2998 RMK AO2 SLP157 T01610128=
201808010853 METAR KBLI 010853Z AUTO 16011G17KT 10SM CLR 17/13 A2997 RMK AO2 SLP154 T01670133 51003=
201808010753 METAR KBLI 010753Z AUTO 16009G17KT 10SM CLR 17/13 A2997 RMK AO2 SLP154 T01720133 402110150=
201808010653 METAR KBLI 010653Z AUTO 16009KT 10SM CLR 17/14 A2996 RMK AO2 SLP153 T01720139=
201808010553 METAR KBLI 010553Z AUTO 16010G16KT 10SM CLR 18/13 A2996 RMK AO2 SLP151 T01830133 10206 20183 53009=
201808010453 METAR KBLI 010453Z 17011G17KT 10SM CLR 18/14 A2995 RMK AO2 SLP148 T01830139=
201808010353 METAR KBLI 010353Z 16011KT 10SM CLR 19/13 A2994 RMK AO2 SLP143 T01940133=
201808010253 METAR KBLI 010253Z 17014G20KT 10SM CLR 20/13 A2993 RMK AO2 SLP142 T02000133 56009=
201808010153 METAR KBLI 010153Z 17011G20KT 10SM CLR 20/13 A2993 RMK AO2 SLP142 T02000133=
201808010053 METAR KBLI 010053Z 17014G21KT 10SM CLR 20/13 A2994 RMK AO2 SLP145 T02000133=

# No short TAF reports from KBLI in databse.

###################################
#  large TAF from KBLI
###################################
201808312333 TAF KBLI 312333Z 0100/0124 16012G18KT P6SM SCT050 BKN120 FM010200
                       17010KT P6SM FEW050 SCT200 FM011400 16006KT
                       P6SM BKN025 FM011900 19008KT P6SM SCT030
                       SCT250=
201808312101 KBLI 312101Z 3121/0118 16012G18KT P6SM SCT030 SCT250 FM010200 17010KT
                       P6SM SCT040 FM011400 17006KT P6SM BKN025=
201808311727 TAF KBLI 311727Z 3118/0118 17006KT P6SM SCT060 FM011400 17006KT
                       P6SM BKN025=
201808311135 TAF KBLI 311135Z 3112/0112 18006KT P6SM SCT050 FM311600 18006KT
                       P6SM BKN050 FM312300 18012KT P6SM SCT050
                       FM010400 18006KT P6SM SCT050=
201808310520 TAF KBLI 310520Z 3106/0106 18008KT P6SM BKN070 FM311100 17005KT
                       P6SM BKN025 FM311800 17009KT P6SM BKN050
                       FM312000 17010G16KT P6SM BKN050 FM010200
                       17007KT P6SM OVC050=
201808302330 TAF KBLI 302330Z 3100/3124 17010KT P6SM SCT090 FM311100 17005KT
                       P6SM BKN020 FM311800 17009KT P6SM SCT025
                       BKN050 FM312200 17010G15KT P6SM SCT070=
201808302103 KBLI 302103Z 3021/3118 19010G15KT P6SM SCT050 FM311100 17005KT
                       P6SM OVC020 FM311700 17007KT P6SM BKN025
                       BKN050=
201808301731 TAF KBLI 301731Z 3018/3118 17010KT P6SM FEW012 OVC040 FM302000
                       17006KT P6SM BKN040 BKN070 FM311100 17005KT
                       P6SM OVC020 FM311700 17007KT P6SM BKN025
                       BKN050=
201808301136 TAF KBLI 301136Z 3012/3112 17006KT P6SM SCT025 OVC040 FM302000
                       17006KT P6SM SCT030 BKN045=
201808301033 KBLI 301033Z 3011/3106 17006KT P6SM OVC040 FM301500 17008KT P6SM
                       VCSH BKN020 OVC040 FM301900 17008KT P6SM
                       SCT025 BKN050=
201808300522 TAF KBLI 300522Z 3006/3106 VRB04KT P6SM BKN050 FM301000 17009KT
                       P6SM VCSH OVC015 FM301700 17009KT P6SM VCSH
                       BKN025 BKN080 FM302200 17008KT P6SM BKN050=
201808292326 TAF KBLI 292326Z 3000/3024 17012KT P6SM VCSH BKN080 BKN250 FM300600
                       17007KT P6SM VCSH BKN040 BKN080 FM301000
                       17009KT P6SM VCSH OVC015
                      PROB30 3010/3016 -RA FM301700 17009KT P6SM
                       VCSH BKN025 BKN080 FM302200 17008KT P6SM
                       BKN050=
201808292001 KBLI 292001Z 2920/3018 16010KT P6SM VCSH OVC100 FM292300 17010KT
                       P6SM VCSH OVC050 FM301000 17009KT P6SM VCSH
                       OVC015 FM301700 17009KT P6SM OVC025=
201808291735 TAF KBLI 291735Z 2918/3018 17008KT P6SM -RA OVC100 FM292300 17010KT
                       P6SM VCSH OVC050 FM301000 17009KT P6SM VCSH
                       OVC015 FM301700 17009KT P6SM OVC025=
201808291120 TAF KBLI 291120Z 2912/3012 VRB04KT P6SM SCT250 FM291500 17006KT
                       P6SM BKN150 BKN250 FM291900 17012KT P6SM
                       OVC100 FM300100 17006KT P6SM OVC050 FM301000
                       17009KT P6SM OVC025=
201808290520 TAF KBLI 290520Z 2906/3006 VRB04KT P6SM SCT250 FM291500 17006KT
                       P6SM BKN150 BKN250 FM291900 17012KT P6SM
                       BKN050 BKN100 FM300100 17006KT P6SM OVC050=
201808282331 TAF KBLI 282331Z 2900/2924 VRB04KT P6SM SCT250 FM291500 17006KT
                       P6SM BKN150 BKN250 FM291900 17012KT P6SM
                       VCSH BKN050 BKN100=
201808281729 TAF KBLI 281729Z 2818/2918 00000KT P6SM SKC FM282000 22006KT P6SM
                       SKC FM290600 17007KT P6SM SCT250 FM291700
                       17009KT P6SM SCT050 BKN120=
201808281133 TAF KBLI 281133Z 2812/2912 VRB05KT P6SM SKC FM282000 22006KT P6SM
                       SCT250 FM290600 18006KT P6SM SCT250=
201808280520 TAF KBLI 280520Z 2806/2906 VRB04KT P6SM SCT250 FM280700 18005KT
                       P6SM SKC=
201808272320 TAF KBLI 272320Z 2800/2824 VRB04KT P6SM SCT250 FM280500 18005KT
                       P6SM SKC=
201808271720 TAF KBLI 271720Z 2718/2818 34007KT P6SM SCT015 FM272000 29006KT
                       P6SM SCT250 FM280300 17005KT P6SM SKC=
201808271500 KBLI 271500Z 2715/2812 36005KT 1/4SM FG OVC002 FM271800 02007KT
                       P6SM FEW035 SCT250 FM272100 29006KT P6SM
                       SCT250 FM280300 17005KT P6SM SKC=
201808271127 TAF KBLI 271127Z 2712/2812 02005KT 5SM BR SCT005 SCT030
                      TEMPO 2712/2715 1/4SM FG VV001 FM271700 02007KT
                       P6SM FEW035 SCT250 FM272100 29006KT P6SM
                       SCT250 FM280300 17005KT P6SM SKC=
201808271001 KBLI 271001Z 2710/2806 02005KT 3SM BR SCT005
                      TEMPO 2710/2714 1/4SM FG VV001 FM271700 04007KT
                       P6SM SCT250 FM272100 29006KT P6SM SCT250
                       FM280300 17002KT P6SM SKC=
201808270711 KBLI 270711Z 2707/2806 17003KT 6SM BR SCT005 BKN040 OVC060
                      TEMPO 2707/2711 1/2SM FG VV004 FM271100 00000KT
                       P6SM SCT030 OVC040 FM271300 05005KT P6SM
                       BKN050 FM271800 04007KT P6SM SCT250 FM272100
                       29006KT P6SM SCT250 FM280300 17002KT P6SM
                       SKC=
201808270520 TAF KBLI 270520Z 2706/2806 17003KT P6SM BKN040 OVC060 FM271000
                       00000KT P6SM SCT030 OVC040 FM271200 05005KT
                       P6SM BKN050 FM271800 04007KT P6SM SCT250
                       FM272100 29006KT P6SM SCT250 FM280300 17002KT
                       P6SM SKC=
201808262332 TAF KBLI 262332Z 2700/2724 15007KT P6SM VCSH BKN050 FM270200 16003KT
                       P6SM BKN040 OVC070 FM271200 00000KT 5SM
                       FU BKN007 OVC015 FM271800 35004KT 6SM FU
                       SCT250=
201808261734 TAF KBLI 261734Z 2618/2718 17008KT 5SM -RA BR OVC005 FM262100 17009KT
                       P6SM VCSH BKN025 OVC050 FM270000 16007KT
                       P6SM SCT030 BKN060 FM270600 VRB03KT 6SM
                       FU SCT060 FM271200 00000KT 5SM FU BKN007
                       OVC015 FM271700 VRB04KT 6SM FU SCT250=
201808261505 KBLI 261505Z 2615/2712 17008KT 6SM -RA BR SCT010 BKN020 OVC040
                       FM262100 17009KT P6SM VCSH BKN025 OVC050
                       FM270000 17006KT P6SM SCT030 BKN060 BKN200
                       FM270600 VRB03KT 6SM FU SCT060 BKN200=
201808261125 TAF KBLI 261125Z 2612/2712 15007KT P6SM SCT015 OVC040
                      TEMPO 2612/2615 -RA BKN015 OVC040 FM261500
                       17011KT 6SM -RA BR OVC015 FM262100 17009KT
                       P6SM BKN025 OVC050 FM270000 17006KT P6SM
                       SCT030 BKN060 BKN200 FM270600 VRB03KT 6SM
                       FU SCT060 BKN200=
201808261007 KBLI 261007Z 2610/2706 VRB03KT 6SM BR OVC035 FM261500 17007KT 4SM
                       -SHRA BR FU OVC015 FM262200 17009KT 6SM
                       FU VCSH BKN025 BKN050
                      PROB30 2622/2704 -SHRA=
201808260526 TAF KBLI 260526Z 2606/2706 17003KT 5SM HZ SCT016 BKN035 OVC045
                       FM261000 17004KT 4SM FU SCT008 BKN025 OVC035
                       FM261500 17007KT 4SM -SHRA BR FU OVC015
                       FM262200 17009KT 6SM FU VCSH BKN025 BKN050
                       PROB30 2622/2704 -SHRA=
201808260302 KBLI 260302Z 2603/2624 18004KT 4SM FU SCT015 OVC060 FM261000 17004KT
                       4SM FU SCT008 BKN020 FM261400 17007KT 4SM
                       -SHRA FU OVC015 FM261700 17009KT 6SM FU
                       VCSH OVC020
                      PROB30 2622/2624 -SHRA=
201808260054 KBLI 260054Z 2601/2624 17009G15KT 4SM FU BKN050 OVC090 FM261000
                       17004KT 4SM FU SCT008 BKN020 FM261400 17007KT
                       4SM -SHRA FU OVC015 FM261700 17009KT 6SM
                       FU VCSH OVC020
                      PROB30 2622/2624 -SHRA=
201808252332 TAF KBLI 252332Z 2600/2624 17010G15KT 5SM FU VCSH OVC060 FM260200
                       17005KT 6SM FU OVC060 FM261000 17004KT 6SM
                       FU SCT008 BKN020 FM261400 17007KT 6SM -SHRA
                       FU OVC015 FM261700 17009KT 6SM FU VCSH OVC020
                       PROB30 2622/2624 -SHRA=
201808251738 TAF KBLI 251738Z 2518/2618 17010G18KT 5SM HZ VCSH SCT010 OVC050
                       TEMPO 2518/2520 -SHRA FM252000 16007G15KT
                       P6SM VCSH BKN030 BKN060 FM260300 17005KT
                       6SM HZ OVC050 FM261000 17004KT 6SM HZ SCT008
                       BKN020 FM261400 17007KT 6SM HZ OVC015=
201808251403 KBLI 251403Z 2514/2612 17009KT 3SM BR FU SCT022 SCT100 OVC250
                      TEMPO 2514/2518 BKN022 BKN100 OVC250 FM251800
                       17009KT P6SM VCSH FEW035 OVC050 FM260300
                       17004KT P6SM SCT050 BKN090 FM261000 17004KT
                       P6SM SCT028 SCT050 BKN090=
201808251140 TAF KBLI 251140Z 2512/2612 17005KT 6SM BR FU SCT100 OVC250 FM251400
                       17009KT 6SM BR FU SCT022 BKN100 OVC250
                      TEMPO 2514/2518 BKN022 BKN100 OVC250 FM251800
                       17009KT P6SM VCSH FEW035 OVC050 FM260300
                       17004KT P6SM SCT050 BKN090 FM261000 17004KT
                       P6SM SCT028 SCT050 BKN090=
201808250520 TAF KBLI 250520Z 2506/2606 VRB03KT P6SM FEW090 FM251200 17004KT
                       6SM HZ BKN030 FM251500 17005KT P6SM OVC018
                       FM252100 17007KT P6SM BKN020 BKN040 FM260100
                       VRB03KT P6SM BKN030=
201808242329 TAF KBLI 242329Z 2500/2524 19005KT P6SM FEW035 FM251200 17004KT
                       6SM HZ BKN020 FM251400 17005KT P6SM OVC018
                       FM252100 17007KT P6SM BKN020 BKN040=
201808241737 TAF KBLI 241737Z 2418/2518 17009KT P6SM OVC022 FM242100 17007KT
                       P6SM BKN030 FM250000 19005KT P6SM FEW040
                       SCT250 FM251200 17004KT 6SM HZ BKN020 FM251500
                       17005KT P6SM OVC025=
201808241219 KBLI 241219Z 2412/2512 17009KT P6SM OVC022 FM242000 19007KT P6SM
                       FEW035 BKN060 FM250200 17004KT P6SM SCT060
                       BKN250=
201808241140 TAF KBLI 241140Z 2412/2512 17009KT 6SM FU FEW022 OVC090 FM241400
                       17009KT 6SM FU OVC022 FM241800 17009KT P6SM
                       BKN028 BKN060 FM242000 19007KT P6SM FEW035
                       BKN060 FM250200 17004KT P6SM SCT060 BKN250=
201808240653 KBLI 240653Z 2407/2506 15005KT P6SM SCT070
                      TEMPO 2407/2410 BKN070 FM241000 18007KT P6SM
                       BKN030 FM241600 17006KT P6SM OVC020 FM242000
                       17008KT P6SM BKN030 FM250000 VRB04KT P6SM
                       SCT040=
201808240524 TAF KBLI 240524Z 2406/2506 17005KT P6SM BKN050 FM241000 18007KT
                       P6SM BKN030 FM241600 17006KT P6SM OVC020
                       FM242000 17008KT P6SM BKN030 FM250000 VRB04KT
                       P6SM SCT040=
201808232358 TAF KBLI 232358Z 2400/2424 19007KT P6SM SCT035 FM240600 18007KT
                       P6SM BKN027 FM241000 17006KT P6SM OVC020
                       FM241800 17009KT P6SM OVC030=
201808231752 TAF KBLI 231752Z 2318/2418 17008KT P6SM BKN025 FM231900 17012KT
                       P6SM SCT025 FM240600 17007KT P6SM BKN027
                       FM241000 17006KT P6SM OVC020=
201808231137 TAF KBLI 231137Z 2312/2412 17012G20KT P6SM SCT012 BKN040
                      TEMPO 2312/2315 BKN015 FM231600 17012G18KT
                       P6SM OVC014 FM232100 17012KT P6SM SCT025
                       FM240600 17007KT P6SM BKN027 FM241000 17006KT
                       P6SM OVC020=
201808230741 KBLI 230741Z 2308/2406 17010KT 3SM FU BKN040 FM231300 17013KT 5SM
                       FU SCT016 BKN035 FM231600 17012G18KT P6SM
                       OVC015 FM232200 17010KT P6SM SCT025 FM240200
                       17007KT P6SM BKN035=
201808230520 TAF KBLI 230520Z 2306/2406 17010KT 6SM FU BKN040 FM231200 17013KT
                       P6SM OVC010 FM231700 17012KT P6SM OVC015
                       FM232200 17010KT P6SM SCT025 FM240200 17007KT
                       P6SM BKN035=
201808222326 TAF KBLI 222326Z 2300/2324 25005KT 2SM FU OVC030 FM230500 17012KT
                       6SM FU SCT040 FM231200 17013KT P6SM OVC010
                       FM231700 17012KT P6SM OVC015 FM232200 17010KT
                       P6SM SCT025=
201808221754 TAF KBLI 221754Z 2218/2318 17005KT 2SM FU OVC030 FM230200 17007KT
                       4SM FU BKN040 FM230600 17012KT 6SM FU SCT040
                       FM231200 17012KT P6SM OVC010 FM231700 17012KT
                       P6SM BKN020=
201808221120 TAF KBLI 221120Z 2212/2312 VRB03KT 3SM FU BKN040 FM221800 17007KT
                       5SM FU BKN040 FM230600 17012KT 6SM FU SCT040=
201808220532 TAF KBLI 220532Z 2206/2306 VRB03KT 2SM FU BKN040 FM222100 20008KT
                       4SM FU BKN040=
201808212320 TAF KBLI 212320Z 2200/2224 22005KT 2SM FU OVC030 FM221200 VRB03KT
                       2SM FU OVC030 FM222000 20008KT 4SM FU BKN040=
201808211720 TAF KBLI 211720Z 2118/2218 22005KT 2SM FU OVC030 FM220400 18006KT
                       3SM FU OVC040=
201808211120 TAF KBLI 211120Z 2112/2212 18003KT 3SM FU OVC045 FM211800 22005KT
                       4SM FU OVC045 FM220400 18006KT 3SM FU OVC050=
201808210833 KBLI 210833Z 2109/2206 VRB03KT 3SM FU OVC050 FM211100 00000KT 2SM
                       FU OVC045 FM211800 VRB05KT 3SM FU OVC040
                       FM220000 VRB05KT 4SM FU OVC050=
201808210523 TAF KBLI 210523Z 2106/2206 00000KT 2SM FU VV045 FM211000 00000KT
                       1SM FU VV035 FM211800 VRB05KT 3SM FU VV040
                       FM220000 VRB05KT 4SM FU VV050=
201808210315 KBLI 210315Z 2103/2124 VRB03KT 2SM FU VV035 FM210600 18004KT 3SM
                       FU OVC035=
201808202320 TAF KBLI 202320Z 2100/2124 27009KT 2SM FU OVC035 FM210600 18004KT
                       3SM FU OVC035=
201808202220 KBLI 202220Z 2022/2118 32008KT 2SM FU OVC040 FM210600 18004KT 3SM
                       FU OVC040=
201808201722 TAF KBLI 201722Z 2018/2118 35008KT 2SM FU OVC040 FM202100 33011KT
                       5SM FU OVC040 FM210000 29006KT 5SM FU OVC040
                       FM210600 18004KT 4SM FU OVC040=
201808201123 TAF KBLI 201123Z 2012/2112 VRB03KT 3SM FU OVC045 FM201800 35008KT
                       3SM FU OVC045 FM202100 33011KT 5SM FU OVC045
                       FM210000 29006KT 5SM FU OVC045 FM210600
                       18004KT 4SM FU OVC045=
201808200541 TAF KBLI 200541Z 2006/2106 VRB03KT 5SM FU OVC040 FM200900 VRB03KT
                       3SM FU OVC030 FM201200 01007KT 1SM FU OVC020
                       FM201800 01015KT 3SM FU OVC030 FM202100
                       33011KT 5SM FU OVC040 FM210000 29006KT 5SM
                       FU OVC040=
201808200413 KBLI 200413Z 2004/2024 VRB03KT 5SM FU OVC040 FM201800 02012KT 2SM
                       FU OVC040=
201808200124 KBLI 200124Z 2001/2024 VRB03KT 6SM FU FEW015 OVC035 FM200400 VRB03KT
                       4SM FU OVC035 FM201800 02012KT 2SM FU OVC040=
201808192320 TAF KBLI 192320Z 2000/2024 VRB04KT 6SM FU FEW015 OVC045 FM200600
                       VRB04KT 4SM FU OVC035 FM201800 02012KT 2SM
                       FU OVC040=
201808191720 TAF KBLI 191720Z 1918/2018 30006KT 6SM FU OVC040 FM200100 VRB04KT
                       5SM FU OVC035=
201808191137 TAF KBLI 191137Z 1912/2012 VRB03KT 5SM FU SKC FM191800 35006KT
                       4SM BR SKC FM200100 26004KT 5SM FU SKC=
201808190541 TAF KBLI 190541Z 1906/2006 00000KT P6SM SCT200 FM191200 VRB03KT
                       5SM FU SKC FM191800 35006KT 4SM BR SKC FM200000
                       26004KT 5SM FU SKC=
201808182320 TAF KBLI 182320Z 1900/1924 20005KT P6SM BKN050 FM191000 18005KT
                       4SM FU BKN050 FM192000 VRB04KT 4SM FU OVC040=
201808181722 TAF KBLI 181722Z 1818/1918 00000KT 4SM HZ BKN200 FM182000 23005KT
                       P6SM BKN200 FM190100 VRB04KT P6SM BKN200=
201808181340 KBLI 181340Z 1814/1912 00000KT 3SM BR SKC FM181600 18005KT P6SM
                       SKC FM182100 23005KT P6SM SKC FM190100 VRB02KT
                       P6SM SKC=
201808181142 TAF KBLI 181142Z 1812/1912 00000KT P6SM SKC FM181600 18005KT P6SM
                       SKC FM182100 23005KT P6SM SKC FM190100 VRB02KT
                       P6SM SKC=
201808180531 TAF KBLI 180531Z 1806/1906 18005KT P6SM SKC FM181200 18005KT P6SM
                       VCFG FEW013 FM181600 18005KT P6SM SKC FM182100
                       23005KT P6SM SKC FM190100 VRB02KT P6SM SKC=
201808172320 TAF KBLI 172320Z 1800/1824 17006KT P6SM SKC=
201808171720 TAF KBLI 171720Z 1718/1818 17008KT P6SM FEW015
                      TEMPO 1718/1719 SCT015 FM171900 17006KT P6SM
                       SKC=
201808171140 TAF KBLI 171140Z 1712/1812 17008KT P6SM SKC FM171500 17011KT P6SM
                       SCT018 FM171800 17006KT P6SM SKC=
201808170541 TAF KBLI 170541Z 1706/1806 17008KT P6SM SCT150 FM171500 17011KT
                       P6SM SCT018 FM171800 17006KT P6SM SKC=
201808162320 TAF KBLI 162320Z 1700/1724 18008KT P6SM SKC FM171500 17009G15KT
                       P6SM SKC=
201808161724 TAF KBLI 161724Z 1618/1718 18008KT P6SM SKC FM171500 17008G15KT
                       P6SM SKC=
201808161143 TAF KBLI 161143Z 1612/1712 17008KT 6SM FU SKC FM161500 17008KT
                       P6SM VCFG FEW009 FM161800 19006KT P6SM SKC
                       FM170300 17006KT P6SM SKC=
201808160540 TAF KBLI 160540Z 1606/1706 18006KT 4SM FU SKC FM161200 17008KT
                       6SM FU SKC FM161500 17008KT P6SM VCFG FEW009
                       FM161800 19006KT P6SM SKC=
201808160136 KBLI 160136Z 1602/1624 VRB03KT 4SM FU SKC FM161200 18005KT P6SM
                       SCT050=
201808152320 TAF KBLI 152320Z 1600/1624 27005KT 4SM HZ FU SCT050 FM160300 18005KT
                       P6SM SCT050=
201808151720 TAF KBLI 151720Z 1518/1618 22005KT 4SM HZ FU SCT050 FM152100 21006KT
                       6SM HZ FU SCT050 FM160300 18005KT P6SM SCT050=
201808151153 TAF KBLI 151153Z 1512/1612 00000KT 5SM HZ FU SCT050 FM151400 00000KT
                       4SM HZ FU SCT040 FM151900 22005KT 5SM HZ
                       FU SCT050 FM152100 21006KT 6SM HZ FU SCT050
                       FM160300 18005KT P6SM SCT050=
201808150520 TAF KBLI 150520Z 1506/1606 00000KT 4SM HZ FU BKN050 FM151800 22005KT
                       4SM HZ FU BKN050=
201808142320 TAF KBLI 142320Z 1500/1524 28006KT 3SM HZ FU SCT050 FM150300 20005KT
                       3SM HZ FU SCT050=
201808142101 KBLI 142101Z 1421/1518 28006KT 3SM HZ FU SCT050 FM150300 18005KT
                       P6SM SKC=
201808141720 TAF KBLI 141720Z 1418/1518 VRB03KT 3SM HZ FU SCT050 FM142100 26005KT
                       6SM HZ FU SKC FM150300 18005KT P6SM SKC=
201808141420 KBLI 141420Z 1414/1512 00000KT 1SM HZ BR BKN025 FM141700 20005KT
                       5SM HZ FU SCT050 FM141900 25007KT 6SM HZ
                       FU SCT050 FM150000 20005KT P6SM FEW060 FM150400
                       VRB03KT P6SM FEW060=
201808141142 TAF KBLI 141142Z 1412/1512 00000KT 4SM HZ FU FEW025 SCT045
                      TEMPO 1412/1415 2SM HZ BR SCT025 SCT045 FM141700
                       20005KT 5SM HZ FU SCT050 FM141900 25007KT
                       6SM HZ FU SCT050 FM150000 20005KT P6SM FEW060
                       FM150400 VRB03KT P6SM FEW060=
201808140837 KBLI 140837Z 1409/1506 00000KT 6SM HZ FU SCT045
                      TEMPO 1409/1413 4SM HZ FU FM141900 24006KT
                       6SM HZ FU SCT050 FM150000 20005KT P6SM FEW050=
201808140520 TAF KBLI 140520Z 1406/1506 00000KT 6SM HZ FU SCT045 FM141900 24005KT
                       6SM HZ FU SCT050=
201808132322 TAF KBLI 132322Z 1400/1424 VRB04KT 5SM HZ FU SKC=
201808132046 KBLI 132046Z 1321/1418 VRB04KT 3SM HZ FU SKC=
201808131724 TAF KBLI 131724Z 1318/1418 36005KT 3SM HZ FU SKC FM132000 29005KT
                       6SM HZ FU SCT035 FM140300 VRB03KT 3SM HZ
                       FU SCT030=
201808131637 KBLI 131637Z 1317/1412 36003KT 3SM HZ FU SKC FM131800 29005KT 5SM
                       HZ FU SCT050 FM140300 VRB02KT 3SM HZ FU
                       SCT030=
201808131422 KBLI 131422Z 1314/1412 00000KT 1/2SM FG VV002 FM131600 00000KT
                       4SM BR SCT005 SCT080 FM131800 29006KT P6SM
                       SCT080 FM140400 00000KT P6SM SCT080=
201808131120 TAF KBLI 131120Z 1312/1412 00000KT P6SM SCT080 FM131800 29006KT
                       P6SM SCT080 FM140400 00000KT P6SM SCT080=
201808130522 TAF KBLI 130522Z 1306/1406 00000KT P6SM SKC FM131600 32005KT P6SM
                       SKC=
201808122320 TAF KBLI 122320Z 1300/1324 25007KT P6SM FEW035 SCT080 FM130400
                       VRB03KT P6SM SKC FM131600 32005KT P6SM SKC=
201808121720 TAF KBLI 121720Z 1218/1318 16010KT P6SM SCT040 OVC080 FM122100
                       18005KT P6SM SCT050 FM130400 VRB03KT P6SM
                       SKC=
201808121132 TAF KBLI 121132Z 1212/1312 18008KT P6SM BKN035 FM122100 VRB03KT
                       P6SM SCT050 FM130100 VRB03KT P6SM SKC=
201808120520 TAF KBLI 120520Z 1206/1306 16007KT P6SM SCT050 BKN100 FM121100
                       18008KT P6SM BKN025 OVC050 FM122100 24005KT
                       P6SM SCT050 FM130100 VRB03KT P6SM SKC=
201808112321 TAF KBLI 112321Z 1200/1224 VRB05KT P6SM VCSH SCT025 BKN050 BKN080
                       FM120200 17006KT P6SM SCT025 BKN050 FM121100
                       18008KT P6SM BKN025 OVC050 FM122100 24005KT
                       P6SM SCT050 SCT250=
201808112150 KBLI 112150Z 1122/1218 17010KT P6SM -SHRA SCT035 BKN050 OVC080
                       FM120100 16010KT P6SM SCT025 BKN050 FM120700
                       17006KT P6SM SCT025 BKN050=
201808111856 KBLI 111856Z 1119/1218 16013G19KT P6SM OVC050 FM112100 16012KT
                       P6SM -SHRA BKN025 OVC040 FM120100 16010KT
                       P6SM SCT025 BKN050 FM120700 17006KT P6SM
                       SCT025 BKN050=
201808111735 TAF KBLI 111735Z 1118/1218 15007KT P6SM SCT035 BKN045 OVC050 FM112100
                       16010KT P6SM -SHRA OVC025 FM120100 16010KT
                       P6SM SCT025 BKN050 FM120700 17006KT P6SM
                       SCT025 BKN050=
201808111126 TAF KBLI 111126Z 1112/1212 16010G18KT P6SM SCT025 OVC035
                      TEMPO 1112/1116 BKN020 OVC035 FM111700 17008KT
                       P6SM -SHRA BKN030 OVC045 FM120300 17008KT
                       P6SM VCSH SCT030 BKN050 FM120600 17007KT
                       P6SM SCT030 BKN050 FM120900 17006KT P6SM
                       OVC025=
201808110527 TAF KBLI 110527Z 1106/1206 16006KT P6SM FEW250 FM111300 17008KT
                       P6SM OVC025 FM111700 18008KT P6SM -SHRA
                       SCT025 OVC035 FM120300 17008KT P6SM SCT030
                       BKN050=
201808102328 TAF KBLI 102328Z 1100/1124 18006G15KT P6SM SCT250 FM110400 18010KT
                       P6SM SCT040 FM111000 17009KT P6SM BKN025
                       FM111500 18008KT P6SM -SHRA OVC025 FM112000
                       18008KT P6SM -SHRA SCT025 OVC035=
201808101745 TAF KBLI 101745Z 1018/1118 VRB06KT P6SM SKC FM102100 20008G15KT
                       P6SM SKC FM110300 18010KT P6SM SCT040 FM111000
                       17009KT P6SM BKN025 FM111500 18008KT P6SM
                       -SHRA OVC025=
201808101123 TAF KBLI 101123Z 1012/1112 VRB03KT P6SM SKC FM101800 20007KT P6SM
                       SKC FM102100 21010KT P6SM SKC FM110300 18010KT
                       P6SM SCT040 FM111000 17009KT P6SM BKN030=
201808100520 TAF KBLI 100520Z 1006/1106 VRB03KT P6SM SKC FM101800 21007KT P6SM
                       SKC FM102200 21010KT P6SM SKC FM110400 21012KT
                       P6SM SCT030=
201808092335 TAF KBLI 092335Z 1000/1024 19006KT P6SM SCT070 FM101500 18008KT
                       P6SM SCT120 SCT200=
201808091735 TAF KBLI 091735Z 0918/1018 19006KT P6SM SCT070 FM101500 18005KT
                       P6SM SCT120 SCT200=
201808091248 KBLI 091248Z 0913/1012 18012KT P6SM SKC FM092100 21006KT P6SM SKC
                       FM100500 18006KT P6SM SKC=
201808091120 TAF KBLI 091120Z 0912/1012 18006KT P6SM SKC FM092100 21006KT P6SM
                       SKC FM100500 18006KT P6SM SKC=
201808090520 TAF KBLI 090520Z 0906/1006 18006KT P6SM SKC=
201808082329 TAF KBLI 082329Z 0900/0924 25004KT P6SM BKN070 BKN100 FM090300
                       18006KT P6SM SCT070 SCT100 FM092000 23005KT
                       P6SM BKN070 BKN100=
201808081737 TAF KBLI 081737Z 0818/0918 23004KT P6SM SCT100 FM090300 18006KT
                       P6SM SCT100=
201808081132 TAF KBLI 081132Z 0812/0912 VRB04KT P6SM SKC FM082100 25005KT P6SM
                       SKC FM090600 18006KT P6SM SKC=
201808080520 TAF KBLI 080520Z 0806/0906 VRB04KT P6SM SKC=
201808072320 TAF KBLI 072320Z 0800/0824 VRB04KT P6SM SKC FM081900 24006KT P6SM
                       SKC=
201808071720 TAF KBLI 071720Z 0718/0818 21003KT P6SM SKC FM071900 18007KT P6SM
                       SKC FM080500 18003KT P6SM SKC=
201808071126 TAF KBLI 071126Z 0712/0812 18006KT P6SM SKC FM071900 24006KT P6SM
                       SKC FM080500 18005KT P6SM SKC=
201808070520 TAF KBLI 070520Z 0706/0806 VRB04KT P6SM SKC=
201808062320 TAF KBLI 062320Z 0700/0724 17007KT P6SM SKC=
201808061726 TAF KBLI 061726Z 0618/0718 VRB05KT P6SM SCT250 FM061900 19006KT
                       P6SM FEW200 FM070600 18007KT P6SM SKC=
201808061128 TAF KBLI 061128Z 0612/0712 18005KT P6SM SCT200 FM061900 22006KT
                       P6SM FEW200 FM070600 18005KT P6SM SKC=
201808060520 TAF KBLI 060520Z 0606/0706 18006KT P6SM SCT250 FM061900 22006KT
                       P6SM FEW200=
201808052320 TAF KBLI 052320Z 0600/0624 22006KT P6SM FEW250 FM060400 18005KT
                       P6SM FEW250 FM061900 22006KT P6SM FEW200=
201808051722 TAF KBLI 051722Z 0518/0618 18008KT P6SM SCT250 FM052100 23006KT
                       P6SM FEW070 SCT250 FM060400 18005KT P6SM
                       FEW250=
201808051132 TAF KBLI 051132Z 0512/0612 17004KT P6SM SCT200 FM052100 23006KT
                       P6SM FEW120 SCT200 FM060400 18005KT P6SM
                       SCT200=
201808050536 TAF KBLI 050536Z 0506/0606 17004KT P6SM FEW100 SCT250=
201808042321 TAF KBLI 042321Z 0500/0524 27007KT P6SM FEW040 FM050400 17003KT
                       P6SM SKC=
201808041720 TAF KBLI 041720Z 0418/0518 18007KT P6SM SCT004
                      TEMPO 0418/0419 BKN004 FM042000 22006KT P6SM
                       FEW050 SCT250 FM050400 17003KT P6SM SKC=
201808041612 KBLI 041612Z 0416/0512 VRB05KT P6SM BKN004 FM041730 20006KT P6SM
                       SCT250=
201808041305 KBLI 041305Z 0413/0512 00000KT P6SM BKN002 FM041600 20006KT P6SM
                       SCT250=
201808041131 TAF KBLI 041131Z 0412/0512 00000KT P6SM SKC FM041300 00000KT P6SM
                       SCT003 FM041600 20006KT P6SM SCT250=
201808040554 TAF KBLI 040554Z 0406/0506 17008KT P6SM SCT050 SCT100 FM041200
                       17005KT P6SM BKN025 BKN050 FM041800 18005KT
                       P6SM FEW030 BKN060 FM041900 20008KT P6SM
                       SCT070 FM050400 20008KT P6SM FEW080=
201808032325 TAF KBLI 032325Z 0400/0424 17008KT P6SM FEW050 SCT100 FM041400
                       17005KT P6SM BKN025 BKN050 FM041800 18005KT
                       P6SM FEW030 BKN060 FM042100 20008KT P6SM
                       SCT070=
201808031720 TAF KBLI 031720Z 0318/0418 18008KT P6SM SCT045 BKN070 FM041400
                       17005KT P6SM BKN025 OVC045=
201808031550 KBLI 031550Z 0316/0412 16008KT P6SM FEW015 SCT035 OVC070
                      TEMPO 0316/0319 SCT015 BKN035 OVC070 FM031900
                       18008KT P6SM BKN045=
201808031130 TAF KBLI 031130Z 0312/0412 18008KT P6SM OVC050 FM031400 18008KT
                       P6SM OVC025 FM031900 18008KT P6SM BKN045=
201808030545 TAF KBLI 030545Z 0306/0406 18008KT P6SM OVC050 FM031000 18008KT
                       P6SM OVC020 FM031900 21007KT P6SM BKN030
                       FM032100 21007KT P6SM BKN040=
201808030539 TAF KBLI 030539Z 0306/0406 18008KT P6SM SCT030 OVC045 FM031000
                       18008KT P6SM OVC020
                      TEMPO 0312/0316 4SM -DZ BR OVC015 FM031900
                       21007KT P6SM BKN030 FM032100 21007KT P6SM
                       BKN040 FM040000 17006KT P6SM SCT045=
201808022320 TAF KBLI 022320Z 0300/0324 18008KT P6SM BKN040 FM030400 18008KT
                       P6SM OVC030 FM031000 18008KT P6SM OVC020
                       FM031900 21007KT P6SM BKN030 FM032100 21007KT
                       P6SM BKN040=
201808021928 KBLI 021928Z 0219/0318 18010KT P6SM SCT025 BKN050
                      TEMPO 0220/0224 BKN025 OVC040 FM030000 18010KT
                       P6SM SCT025 OVC035 FM030700 18010KT P6SM
                       OVC025 FM031000 18010KT P6SM OVC018=
201808021720 TAF KBLI 021720Z 0218/0318 18010KT P6SM BKN018 OVC040
                      TEMPO 0218/0221 -DZ OVC015 FM022300 18010KT
                       P6SM SCT025 OVC035 FM030700 18010KT P6SM
                       OVC025 FM031000 18010KT P6SM OVC018=
201808021132 TAF KBLI 021132Z 0212/0312 18008KT P6SM OVC021 FM022000 20008KT
                       P6SM SCT025 BKN035 OVC050 FM030700 18008KT
                       P6SM OVC025=
201808020547 TAF KBLI 020547Z 0206/0306 16010KT P6SM SKC FM021100 18008KT P6SM
                       BKN025 FM021300 18008KT P6SM OVC018
                      TEMPO 0214/0217 5SM -DZ BR OVC015 FM021800
                       21007KT P6SM OVC025 FM022200 22007KT P6SM
                       BKN040 OVC060=
201808012320 TAF KBLI 012320Z 0200/0224 18010KT P6SM SKC FM020900 18008KT P6SM
                       BKN025 FM021200 18008KT P6SM OVC018
                      TEMPO 0214/0217 4SM -DZ BR OVC012 FM021800
                       21007KT P6SM OVC025 FM022200 22007KT P6SM
                       BKN040=
201808011720 TAF KBLI 011720Z 0118/0218 17007KT P6SM SCT005 OVC015
                      TEMPO 0118/0120 6SM BR BKN005 OVC015 FM012000
                       21007KT P6SM BKN015
                      TEMPO 0120/0122 SCT020 FM012200 23007KT P6SM
                       SCT025 SCT250 FM020700 21007KT P6SM OVC015
                       FM021300 18010KT 5SM -DZ BR OVC009 FM021700
                       21007KT P6SM BKN015 OVC030=
201808011532 KBLI 011532Z 0116/0212 17010KT P6SM BKN007 OVC012
                      TEMPO 0116/0118 SCT007 OVC012 FM011800 18009KT
                       P6SM BKN015
                      TEMPO 0119/0121 SCT017 FM012100 18009KT P6SM
                       FEW020 SCT250 FM020900 17008KT P6SM OVC018=
201808011137 TAF KBLI 011137Z 0112/0212 17012KT P6SM SCT015
                      TEMPO 0112/0114 BKN014 FM011400 17009G15KT
                       P6SM OVC011 FM011800 18009KT P6SM BKN015
                       TEMPO 0118/0120 SCT017 FM012000 18009KT
                       P6SM FEW020 SCT250 FM020900 17008KT P6SM
                       OVC018=
201808010531 TAF KBLI 010531Z 0106/0206 17011G17KT P6SM SKC FM011200 18009KT
                       P6SM BKN011 FM011600 18008G14KT P6SM SCT250=