##########################################################
# Query made at 02/16/2025 22:11:09 UTC
# Time interval: from 01/01/2019 00:00  to 01/31/2019 23:59  UTC
##########################################################

##########################################################
# KBLI, Bellingham, Bellingham International Airport (United States)
# WMO index: -----. WIGOS ID: Unknown
# Latitude 48-47-58N. Longitude 122-32-21W. Altitude 48 m.
##########################################################

###################################
#  METAR/SPECI from KBLI
###################################
201901312353 METAR KBLI 312353Z 00000KT 10SM BKN080 BKN110 08/03 A2976 RMK AO2 SLP087 T00830028 10094 20061 56019=
201901312253 METAR KBLI 312253Z 29003KT 10SM BKN110 09/03 A2978 RMK AO2 SLP091 T00890028=
201901312153 METAR KBLI 312153Z 00000KT 10SM OVC100 08/02 A2979 RMK AO2 SLP096 T00830022=
201901312053 METAR KBLI 312053Z 15003KT 10SM OVC075 07/02 A2982 RMK AO2 SLP106 T00720017 58012=
201901311953 METAR KBLI 311953Z 18004KT 10SM OVC070 07/01 A2984 RMK AO2 SLP114 T00720011=
201901311853 METAR KBLI 311853Z 00000KT 10SM OVC070 07/02 A2986 RMK AO2 SLP121 T00670022=
201901311753 METAR KBLI 311753Z 14003KT 10SM OVC065 06/01 A2985 RMK AO2 SLP118 60000 T00560011 10056 20033 53003=
201901311653 METAR KBLI 311653Z 00000KT 10SM BKN065 OVC080 04/01 A2984 RMK AO2 RAB24E48 SLP115 P0000 T00440006=
201901311553 METAR KBLI 311553Z 00000KT 10SM OVC070 04/00 A2985 RMK AO2 SLP117 T00440000=
201901311453 METAR KBLI 311453Z 00000KT 10SM OVC070 04/M01 A2984 RMK AO2 SLP115 T00391006 58016=
201901311353 METAR KBLI 311353Z AUTO 00000KT 10SM SCT080 OVC090 04/M01 A2985 RMK AO2 SLP119 T00391011=
201901311253 METAR KBLI 311253Z AUTO 00000KT 10SM OVC085 03/M01 A2988 RMK AO2 SLP128 T00331006=
201901311153 METAR KBLI 311153Z AUTO 00000KT 10SM OVC085 04/M01 A2989 RMK AO2 SLP131 T00391006 10050 20028 58006=
201901311053 METAR KBLI 311053Z AUTO 00000KT 10SM OVC085 03/M01 A2990 RMK AO2 SLP134 T00331006=
201901310953 METAR KBLI 310953Z AUTO 32004KT 10SM OVC090 03/M01 A2991 RMK AO2 SLP136 T00331011=
201901310853 METAR KBLI 310853Z AUTO 00000KT 10SM BKN095 03/M01 A2991 RMK AO2 SLP137 T00331011 58011=
201901310753 METAR KBLI 310753Z AUTO 00000KT 10SM OVC110 03/M02 A2992 RMK AO2 SLP141 T00331017 400721022=
201901310653 METAR KBLI 310653Z AUTO 03003KT 10SM OVC110 04/M02 A2993 RMK AO2 SLP146 T00441017=
201901310553 METAR KBLI 310553Z 31004KT 10SM OVC110 04/M01 A2994 RMK AO2 SLP148 T00441006 10067 20033 58006=
201901310453 METAR KBLI 310453Z 00000KT 10SM OVC110 04/M01 A2995 RMK AO2 SLP149 T00441011=
201901310353 METAR KBLI 310353Z 31003KT 10SM BKN120 05/M02 A2996 RMK AO2 SLP153 T00501017=
201901310253 METAR KBLI 310253Z 00000KT 10SM BKN110 05/M02 A2996 RMK AO2 SLP154 T00501017 55001=
201901310153 METAR KBLI 310153Z 00000KT 10SM SCT110 06/M02 A2995 RMK AO2 SLP152 T00561017=
201901310053 METAR KBLI 310053Z 03003KT 10SM OVC110 06/M02 A2996 RMK AO2 SLP153 T00611017=
201901302353 METAR KBLI 302353Z 01004KT 10SM CLR 07/M02 A2996 RMK AO2 SLP155 T00671017 10072 20028 56012=
201901302253 METAR KBLI 302253Z 36003KT 10SM FEW100 07/M02 A2997 RMK AO2 SLP157 T00721022=
201901302153 METAR KBLI 302153Z 33003KT 10SM FEW110 07/M02 A2998 RMK AO2 SLP161 T00721022=
201901302053 METAR KBLI 302053Z VRB03KT 10SM FEW110 07/M02 A3000 RMK AO2 SLP167 T00671017 58010=
201901301953 METAR KBLI 301953Z 01004KT 10SM FEW120 06/M02 A3001 RMK AO2 SLP171 T00611022=
201901301853 METAR KBLI 301853Z 35003KT 10SM CLR 06/M02 A3002 RMK AO2 SLP175 T00561022=
201901301753 METAR KBLI 301753Z 00000KT 10SM CLR 03/M03 A3003 RMK AO2 SLP178 T00281028 10028 21011 53004=
201901301653 METAR KBLI 301653Z 00000KT 10SM CLR 01/M03 A3002 RMK AO2 SLP175 T00111033=
201901301553 METAR KBLI 301553Z 00000KT 10SM CLR 00/M04 A3001 RMK AO2 SLP174 T00001044=
201901301453 METAR KBLI 301453Z 00000KT 10SM CLR M01/M04 A3002 RMK AO2 SLP174 T10061044 55004=
201901301353 METAR KBLI 301353Z AUTO 00000KT 10SM CLR 00/M05 A3001 RMK AO2 SLP171 T00001050=
201901301253 METAR KBLI 301253Z AUTO 01003KT 10SM CLR 00/M05 A3002 RMK AO2 SLP176 T00001050=
201901301153 METAR KBLI 301153Z AUTO 36004KT 10SM CLR 00/M05 A3003 RMK AO2 SLP178 T00001050 10011 21022 56006=
201901301053 METAR KBLI 301053Z AUTO 00000KT 10SM CLR M01/M05 A3003 RMK AO2 SLP180 T10111050=
201901300953 METAR KBLI 300953Z AUTO 00000KT 10SM CLR M02/M06 A3003 RMK AO2 SLP180 T10171056=
201901300853 METAR KBLI 300853Z AUTO 00000KT 10SM CLR M01/M05 A3005 RMK AO2 SLP184 T10111050 51001=
201901300753 METAR KBLI 300753Z AUTO 00000KT 10SM CLR M01/M05 A3005 RMK AO2 SLP184 T10061050 400941039=
201901300653 METAR KBLI 300653Z AUTO 00000KT 10SM CLR 01/M05 A3005 RMK AO2 SLP185 T00111050=
201901300553 METAR KBLI 300553Z 01004KT 10SM CLR 01/M06 A3005 RMK AO2 SLP183 T00061056 10083 20000 58010=
201901300453 METAR KBLI 300453Z 34004KT 10SM CLR 02/M06 A3005 RMK AO2 SLP187 T00171056=
201901300353 METAR KBLI 300353Z 35004KT 10SM CLR 02/M06 A3007 RMK AO2 SLP192 T00221056=
201901300253 METAR KBLI 300253Z 00000KT 10SM CLR 02/M05 A3008 RMK AO2 SLP194 T00221050 56003=
201901300153 METAR KBLI 300153Z 32003KT 10SM CLR 03/M05 A3008 RMK AO2 SLP196 T00331050=
201901300053 METAR KBLI 300053Z 01004KT 10SM CLR 06/M06 A3008 RMK AO2 SLP194 T00611056=
201901292353 METAR KBLI 292353Z 01007KT 10SM CLR 08/M06 A3009 RMK AO2 SLP197 T00831056 10094 20033 56017=
201901292253 METAR KBLI 292253Z 01007KT 10SM CLR 09/M04 A3010 RMK AO2 SLP201 T00941044=
201901292153 METAR KBLI 292153Z 01007KT 10SM CLR 09/M04 A3011 RMK AO2 SLP205 T00941039=
201901292053 METAR KBLI 292053Z 02009KT 10SM CLR 08/M04 A3014 RMK AO2 SLP214 T00831044 58018=
201901291953 METAR KBLI 291953Z 02008KT 10SM CLR 08/M04 A3016 RMK AO2 SLP222 T00781044=
201901291853 METAR KBLI 291853Z 02005KT 10SM CLR 06/M03 A3018 RMK AO2 SLP229 T00611033=
201901291753 METAR KBLI 291753Z 00000KT 10SM CLR 03/M03 A3019 RMK AO2 SLP232 T00331033 10033 21039 51002=
201901291653 METAR KBLI 291653Z 36003KT 10SM CLR 00/M04 A3019 RMK AO2 SLP233 T00001044=
201901291553 METAR KBLI 291553Z 00000KT 10SM CLR M02/M06 A3019 RMK AO2 SLP233 T10221056=
201901291453 METAR KBLI 291453Z 00000KT 10SM CLR M03/M06 A3018 RMK AO2 SLP232 T10331056 53005=
201901291353 METAR KBLI 291353Z AUTO 00000KT 10SM CLR M02/M06 A3018 RMK AO2 SLP230 T10221061=
201901291253 METAR KBLI 291253Z AUTO 00000KT 10SM CLR M02/M06 A3018 RMK AO2 SLP228 T10221056=
201901291153 METAR KBLI 291153Z AUTO 04003KT 10SM CLR 01/M05 A3017 RMK AO2 SLP226 T00061050 10028 21022 58009=
201901291053 METAR KBLI 291053Z AUTO 05003KT 10SM CLR M01/M05 A3019 RMK AO2 SLP232 T10061050=
201901290953 METAR KBLI 290953Z AUTO 02005KT 10SM CLR M01/M05 A3020 RMK AO2 SLP235 T10061050=
201901290853 METAR KBLI 290853Z AUTO 32003KT 10SM CLR 00/M05 A3020 RMK AO2 SLP235 T00001050 58004=
201901290753 METAR KBLI 290753Z AUTO 03003KT 10SM CLR 02/M04 A3020 RMK AO2 SLP235 T00221044 401061011=
201901290653 METAR KBLI 290653Z AUTO 01003KT 10SM CLR M01/M04 A3021 RMK AO2 SLP240 T10061044=
201901290553 METAR KBLI 290553Z 00000KT 10SM CLR 01/M03 A3021 RMK AO2 SLP239 T00111033 10083 20000 58006=
201901290453 METAR KBLI 290453Z 00000KT 10SM CLR 02/M01 A3022 RMK AO2 SLP242 T00221011=
201901290353 METAR KBLI 290353Z 32005KT 10SM CLR 04/M01 A3023 RMK AO2 SLP245 T00391006=
201901290253 METAR KBLI 290253Z 32006KT 10SM CLR 04/01 A3023 RMK AO2 SLP245 T00390006 58016=
201901290153 METAR KBLI 290153Z 32004KT 10SM CLR 04/00 A3024 RMK AO2 SLP250 T00440000=
201901290053 METAR KBLI 290053Z 31004KT 10SM CLR 07/01 A3026 RMK AO2 SLP255 T00670006=
201901282353 METAR KBLI 282353Z 31006KT 10SM CLR 08/01 A3027 RMK AO2 SLP260 T00830006 10106 20061 56018=
201901282253 METAR KBLI 282253Z 33003KT 10SM CLR 10/M03 A3029 RMK AO2 SLP266 T01001033=
201901282153 METAR KBLI 282153Z 01009KT 10SM CLR 09/M04 A3030 RMK AO2 SLP270 T00941039=
201901282053 METAR KBLI 282053Z 01009KT 10SM CLR 10/M03 A3033 RMK AO2 SLP277 T01001033 58015=
201901281953 METAR KBLI 281953Z VRB03KT 10SM CLR 09/00 A3035 RMK AO2 SLP284 T00940000=
201901281853 METAR KBLI 281853Z VRB03KT 10SM CLR 08/M02 A3036 RMK AO2 SLP290 T00831022=
201901281753 METAR KBLI 281753Z 00000KT 10SM CLR 06/M02 A3037 RMK AO2 SLP293 T00611022 10067 20044 53001=
201901281653 METAR KBLI 281653Z 03008KT 10SM CLR 07/M05 A3037 RMK AO2 SLP293 T00671050=
201901281553 METAR KBLI 281553Z 03007KT 10SM BKN120 06/M06 A3036 RMK AO2 SLP290 T00611056=
201901281453 METAR KBLI 281453Z 03010KT 10SM BKN100 06/M06 A3037 RMK AO2 SLP292 T00611056 58008=
201901281353 METAR KBLI 281353Z AUTO 02010KT 10SM CLR 06/M05 A3038 RMK AO2 SLP295 T00561050=
201901281253 METAR KBLI 281253Z AUTO 01010KT 10SM CLR 06/M06 A3039 RMK AO2 SLP300 T00561056=
201901281153 METAR KBLI 281153Z AUTO 02012KT 10SM CLR 06/M06 A3039 RMK AO2 SLP300 I6001 T00611056 10072 21017 50001=
201901281053 METAR KBLI 281053Z AUTO 02015G22KT 10SM CLR 06/M06 A3040 RMK AO2 SLP302 T00611056=
201901280953 METAR KBLI 280953Z AUTO 02012G21KT 10SM CLR 07/M05 A3039 RMK AO2 SLP299 T00671050=
201901280853 METAR KBLI 280853Z AUTO 02012G20KT 10SM CLR 07/M04 A3039 RMK AO2 SLP299 I3001 T00671044 58002=
201901280753 METAR KBLI 280753Z AUTO 02014G22KT 10SM CLR 06/M03 A3039 RMK AO2 SLP299 I1001 T00611033 400671017=
201901280727 SPECI KBLI 280727Z AUTO 36007KT 3SM BR CLR 00/M02 A3040 RMK AO2 I1000 T00001017=
201901280711 SPECI KBLI 280711Z AUTO 00000KT 1 1/2SM BR CLR M01/M03 A3040 RMK AO2 T10111028=
201901280708 SPECI KBLI 280708Z AUTO 00000KT 3SM R16/2400VP6000FT BR CLR M01/M03 A3040 RMK AO2 T10111028=
201901280700 SPECI KBLI 280700Z AUTO 00000KT 2 1/2SM R16/1800VP6000FT BR CLR M01/M02 A3039 RMK AO2 T10111022=
201901280653 METAR KBLI 280653Z AUTO 00000KT 10SM R16/1800VP6000FT CLR M01/M02 A3040 RMK AO2 SLP302 I1000 T10111017=
201901280553 METAR KBLI 280553Z 00000KT 10SM CLR 01/M01 A3040 RMK AO2 SLP302 T00111006 10067 21006 51008=
201901280453 METAR KBLI 280453Z 00000KT 3SM BR CLR 02/01 A3039 RMK AO2 SLP301 T00170006=
201901280353 METAR KBLI 280353Z 00000KT 7SM CLR 02/01 A3039 RMK AO2 SLP300 T00170006=
201901280253 METAR KBLI 280253Z 00000KT 10SM BKN016 06/02 A3037 RMK AO2 SLP294 T00560022 53001=
201901280153 METAR KBLI 280153Z 33003KT 10SM OVC016 06/03 A3037 RMK AO2 SLP292 T00610033=
201901280143 SPECI KBLI 280143Z 33003KT 10SM OVC016 06/03 A3036 RMK AO2 T00610033=
201901280136 SPECI KBLI 280136Z 00000KT 10SM OVC014 06/03 A3036 RMK AO2 T00610033=
201901280053 METAR KBLI 280053Z 00000KT 10SM OVC016 06/03 A3037 RMK AO2 SLP293 T00610033=
201901272353 METAR KBLI 272353Z 00000KT 10SM OVC017 07/03 A3037 RMK AO2 SLP293 T00670028 10067 20039 56006=
201901272253 METAR KBLI 272253Z 06003KT 10SM OVC015 07/03 A3037 RMK AO2 SLP293 T00670028=
201901272206 SPECI KBLI 272206Z 30003KT 10SM OVC015 07/03 A3037 RMK AO2 T00670028=
201901272153 METAR KBLI 272153Z 29003KT 10SM OVC014 06/03 A3037 RMK AO2 SLP295 T00610028=
201901272053 METAR KBLI 272053Z 00000KT 10SM OVC019 06/03 A3039 RMK AO2 SLP299 T00610033 56002=
201901271953 METAR KBLI 271953Z 30004KT 10SM OVC017 07/03 A3039 RMK AO2 SLP300 T00670028=
201901271853 METAR KBLI 271853Z 05004KT 10SM BKN013 BKN019 06/03 A3039 RMK AO2 SLP299 T00610033=
201901271800 SPECI KBLI 271800Z 00000KT 7SM BKN013 OVC019 05/04 A3039 RMK AO2 T00500039=
201901271753 METAR KBLI 271753Z 00000KT 5SM BR SCT013 OVC019 04/03 A3039 RMK AO2 SLP301 T00390033 10044 21011 53014=
201901271653 METAR KBLI 271653Z 08003KT 4SM BR OVC011 04/03 A3038 RMK AO2 SLP296 T00440033=
201901271553 METAR KBLI 271553Z 14003KT 4SM BR OVC007 04/03 A3036 RMK AO2 SLP291 T00390028=
201901271453 METAR KBLI 271453Z 00000KT 4SM BR OVC006 03/01 A3035 RMK AO2 SLP287 T00280011 50000=
201901271353 METAR KBLI 271353Z AUTO 00000KT 7SM OVC007 02/01 A3036 RMK AO2 SLP291 T00220006=
201901271308 SPECI KBLI 271308Z AUTO 00000KT 6SM BR OVC007 01/M01 A3037 RMK AO2 CIG 006V010 T00061006=
201901271253 METAR KBLI 271253Z AUTO 00000KT 6SM BR OVC010 01/M01 A3037 RMK AO2 CIG 008V013 SLP292 T00061006=
201901271225 SPECI KBLI 271225Z AUTO 00000KT 5SM BR BKN011 00/M02 A3035 RMK AO2 T00001017=
201901271211 SPECI KBLI 271211Z AUTO 17003KT 2 1/2SM BR BKN011 M01/M02 A3035 RMK AO2 T10061017=
201901271153 METAR KBLI 271153Z AUTO 00000KT 5SM BR FEW002 M01/M02 A3035 RMK AO2 SLP287 T10111022 10017 21017 58011=
201901271150 SPECI KBLI 271150Z AUTO 00000KT 2SM BR FEW002 M02/M02 A3035 RMK AO2=
201901271148 SPECI KBLI 271148Z AUTO 00000KT 1SM R16/P6000FT BR VV002 M01/M02 A3035 RMK AO2=
201901271141 SPECI KBLI 271141Z AUTO 00000KT 1/2SM R16/2800VP6000FT FZFG VV002 M01/M02 A3035 RMK AO2 T10061017=
201901271139 SPECI KBLI 271139Z AUTO 00000KT 3/4SM R16/2800VP6000FT BR VV001 M01/M02 A3035 RMK AO2 T10061022=
201901271136 SPECI KBLI 271136Z AUTO 00000KT 1 1/4SM R16/2800VP6000FT BR CLR M01/M02 A3036 RMK AO2 VIS 1/2V3 T10111022=
201901271121 SPECI KBLI 271121Z AUTO 00000KT 2 1/2SM R16/5000VP6000FT BR CLR M01/M02 A3036 RMK AO2 T10061017=
201901271110 SPECI KBLI 271110Z AUTO 00000KT 1SM R16/2600VP6000FT BR CLR 00/M01 A3036 RMK AO2 T00001011=
201901271053 METAR KBLI 271053Z AUTO 00000KT 1/2SM R16/2400VP6000FT FZFG CLR M01/M02 A3037 RMK AO2 SLP293 T10111017=
201901271047 SPECI KBLI 271047Z AUTO 00000KT 1 3/4SM R16/2400VP6000FT BR CLR M01/M01 A3037 RMK AO2=
201901271037 SPECI KBLI 271037Z AUTO 00000KT 5SM R16/4500VP6000FT BR CLR M01/M02 A3037 RMK AO2 T10061017=
201901271027 SPECI KBLI 271027Z AUTO 00000KT 2SM R16/5000VP6000FT BR CLR 01/M02 A3038 RMK AO2 T00061017=
201901270953 METAR KBLI 270953Z AUTO 00000KT 3SM BR CLR 01/M01 A3038 RMK AO2 SLP296 T00061006=
201901270853 METAR KBLI 270853Z AUTO 00000KT 4SM BR CLR 01/M01 A3038 RMK AO2 SLP298 T00111011 58011=
201901270845 SPECI KBLI 270845Z AUTO 00000KT 3SM BR CLR 01/M01 A3039 RMK AO2 T00061011=
201901270830 SPECI KBLI 270830Z AUTO 00000KT 1SM R16/P6000FT BR CLR 01/M01 A3039 RMK AO2 T00061011=
201901270822 SPECI KBLI 270822Z AUTO 00000KT 3/4SM R16/P6000FT BR CLR 01/M01 A3039 RMK AO2 VIS 1/4V2 1/2 T00111006=
201901270813 SPECI KBLI 270813Z AUTO 00000KT 1 3/4SM BR CLR 01/M01 A3040 RMK AO2 T00061011=
201901270753 METAR KBLI 270753Z AUTO 00000KT 4SM BR CLR 01/M01 A3040 RMK AO2 SLP304 T00111006 401000006=
201901270653 METAR KBLI 270653Z AUTO 00000KT 5SM BR CLR 02/00 A3040 RMK AO2 SLP304 T00170000=
201901270553 METAR KBLI 270553Z 00000KT 6SM BR CLR 03/01 A3042 RMK AO2 SLP309 T00280011 10083 20022 58015=
201901270453 METAR KBLI 270453Z 00000KT 9SM CLR 03/01 A3044 RMK AO2 SLP317 T00280011=
201901270353 METAR KBLI 270353Z 31003KT 10SM CLR 04/02 A3045 RMK AO2 SLP319 T00390017=
201901270253 METAR KBLI 270253Z 32003KT 10SM CLR 04/02 A3046 RMK AO2 SLP324 T00440017 55007=
201901270153 METAR KBLI 270153Z 00000KT 10SM SCT030 05/02 A3046 RMK AO2 SLP324 T00500022=
201901270053 METAR KBLI 270053Z 34004KT 10SM CLR 07/02 A3047 RMK AO2 SLP327 T00670022=
201901262353 METAR KBLI 262353Z 35005KT 10SM SCT030 08/03 A3048 RMK AO2 SLP330 T00830028 10100 20061 56016=
201901262253 METAR KBLI 262253Z 34006KT 10SM SCT030 09/03 A3049 RMK AO2 SLP334 T00940028=
201901262153 METAR KBLI 262153Z 04004KT 10SM SCT030 BKN120 09/04 A3051 RMK AO2 SLP341 T00940039=
201901262053 METAR KBLI 262053Z 02005KT 10SM SCT030 BKN120 08/03 A3053 RMK AO2 SLP346 T00830033 58010=
201901261953 METAR KBLI 261953Z 01004KT 10SM SCT030 BKN120 08/03 A3055 RMK AO2 SLP352 T00780033=
201901261853 METAR KBLI 261853Z 34004KT 10SM BKN030 07/04 A3057 RMK AO2 SLP359 T00670039=
201901261753 METAR KBLI 261753Z 02005KT 10SM OVC031 06/04 A3056 RMK AO2 SLP356 T00610039 10061 20050 55002=
201901261653 METAR KBLI 261653Z 36003KT 8SM OVC031 06/03 A3056 RMK AO2 SLP356 T00560033=
201901261553 METAR KBLI 261553Z 00000KT 6SM BR OVC020 05/03 A3056 RMK AO2 SLP358 T00500033=
201901261453 METAR KBLI 261453Z 00000KT 5SM BR OVC021 05/04 A3057 RMK AO2 SLP360 T00500039 55001=
201901261353 METAR KBLI 261353Z AUTO 00000KT 5SM BR OVC021 05/04 A3056 RMK AO2 SLP358 T00500039=
201901261253 METAR KBLI 261253Z AUTO 00000KT 6SM BR OVC019 06/04 A3057 RMK AO2 SLP359 T00560039=
201901261153 METAR KBLI 261153Z AUTO 00000KT 6SM BR OVC023 06/03 A3057 RMK AO2 SLP360 T00560033 10061 20056 50000=
201901261053 METAR KBLI 261053Z AUTO 00000KT 7SM OVC023 06/04 A3057 RMK AO2 SLP360 T00560044=
201901260953 METAR KBLI 260953Z AUTO 00000KT 7SM OVC023 06/04 A3057 RMK AO2 SLP360 T00560039=
201901260853 METAR KBLI 260853Z AUTO 00000KT 7SM OVC019 06/04 A3057 RMK AO2 SLP360 T00560039 50004=
201901260753 METAR KBLI 260753Z AUTO 00000KT 8SM BKN027 OVC032 06/04 A3057 RMK AO2 SLP360 T00560039 400830039=
201901260748 SPECI KBLI 260748Z AUTO 00000KT 8SM BKN025 OVC034 06/04 A3057 RMK AO2=
201901260714 SPECI KBLI 260714Z AUTO 00000KT 8SM OVC032 06/03 A3056 RMK AO2 T00560033=
201901260653 METAR KBLI 260653Z AUTO 00000KT 9SM OVC028 06/04 A3056 RMK AO2 SLP355 T00560039=
201901260553 METAR KBLI 260553Z 00000KT 8SM SCT020 BKN028 OVC040 06/04 A3056 RMK AO2 SLP355 T00610039 10078 20056 50005=
201901260453 METAR KBLI 260453Z 00000KT 8SM BKN027 OVC040 06/04 A3056 RMK AO2 SLP357 T00610039=
201901260353 METAR KBLI 260353Z 00000KT 10SM BKN031 BKN040 06/03 A3055 RMK AO2 SLP354 T00610033=
201901260253 METAR KBLI 260253Z 00000KT 10SM BKN033 BKN040 06/04 A3054 RMK AO2 SLP351 T00610039 53004=
201901260153 METAR KBLI 260153Z 00000KT 10SM OVC037 07/03 A3053 RMK AO2 SLP347 T00670033=
201901260053 METAR KBLI 260053Z 00000KT 10SM OVC033 07/03 A3053 RMK AO2 SLP345 T00720033=
201901252353 METAR KBLI 252353Z 30003KT 10SM OVC033 07/03 A3053 RMK AO2 SLP346 T00720033 10083 20056 55001=
201901252253 METAR KBLI 252253Z 30004KT 10SM OVC033 08/03 A3052 RMK AO2 SLP344 T00780033=
201901252153 METAR KBLI 252153Z 00000KT 10SM OVC035 08/04 A3051 RMK AO2 SLP341 T00780039=
201901252053 METAR KBLI 252053Z 01003KT 10SM OVC035 08/04 A3053 RMK AO2 SLP346 T00780039 51007=
201901251953 METAR KBLI 251953Z 00000KT 10SM OVC036 07/04 A3052 RMK AO2 SLP343 T00720044=
201901251853 METAR KBLI 251853Z 35003KT 9SM OVC035 06/04 A3053 RMK AO2 SLP346 T00610044=
201901251753 METAR KBLI 251753Z 01005KT 8SM OVC035 06/04 A3051 RMK AO2 SLP341 T00560039 10056 20039 51012=
201901251653 METAR KBLI 251653Z 00000KT 8SM OVC037 05/04 A3050 RMK AO2 SLP339 T00500039=
201901251553 METAR KBLI 251553Z 00000KT 6SM BR OVC038 04/03 A3049 RMK AO2 SLP334 T00440028=
201901251453 METAR KBLI 251453Z 00000KT 8SM OVC038 04/03 A3047 RMK AO2 SLP329 T00390028 53001=
201901251353 METAR KBLI 251353Z AUTO 00000KT 5SM BR OVC037 04/03 A3046 RMK AO2 SLP325 T00440033=
201901251253 METAR KBLI 251253Z AUTO 00000KT 5SM BR OVC038 04/03 A3047 RMK AO2 SLP328 T00440033=
201901251153 METAR KBLI 251153Z AUTO 00000KT 7SM OVC038 04/03 A3047 RMK AO2 SLP327 T00440033 10056 20044 50001=
201901251053 METAR KBLI 251053Z AUTO 11003KT 6SM BR OVC037 04/03 A3048 RMK AO2 SLP328 T00440028=
201901250953 METAR KBLI 250953Z AUTO 00000KT 5SM BR OVC036 04/03 A3048 RMK AO2 SLP328 T00440033=
201901250853 METAR KBLI 250853Z AUTO 00000KT 8SM OVC034 05/04 A3047 RMK AO2 SLP326 T00500039 53005=
201901250753 METAR KBLI 250753Z AUTO 11003KT 7SM OVC035 04/03 A3046 RMK AO2 SLP324 T00440033 400780011=
201901250653 METAR KBLI 250653Z AUTO 00000KT 8SM OVC040 05/04 A3045 RMK AO2 SLP320 T00500039=
201901250553 METAR KBLI 250553Z 00000KT 10SM OVC040 05/03 A3046 RMK AO2 SLP322 T00500033 10072 20044 58003=
201901250453 METAR KBLI 250453Z 00000KT 10SM BKN041 04/04 A3046 RMK AO2 SLP324 T00440039=
201901250353 METAR KBLI 250353Z 08003KT 10SM BKN041 05/03 A3046 RMK AO2 SLP323 T00500033=
201901250253 METAR KBLI 250253Z 00000KT 10SM BKN042 05/03 A3046 RMK AO2 SLP325 T00500033 58002=
201901250153 METAR KBLI 250153Z 00000KT 10SM OVC044 06/04 A3048 RMK AO2 SLP329 T00560039=
201901250053 METAR KBLI 250053Z 31004KT 10SM BKN044 07/04 A3048 RMK AO2 SLP332 T00670039=
201901242353 METAR KBLI 242353Z 00000KT 10SM BKN046 07/04 A3047 RMK AO2 SLP327 T00720039 10078 20050 58007=
201901242253 METAR KBLI 242253Z 35003KT 10SM OVC045 08/04 A3049 RMK AO2 SLP333 T00780039=
201901242153 METAR KBLI 242153Z 36003KT 10SM OVC046 08/04 A3049 RMK AO2 SLP333 T00780039=
201901242053 METAR KBLI 242053Z 01004KT 10SM OVC044 07/04 A3049 RMK AO2 SLP334 T00720039 58008=
201901241953 METAR KBLI 241953Z 03005KT 10SM OVC044 07/04 A3051 RMK AO2 SLP340 T00670039=
201901241853 METAR KBLI 241853Z 34003KT 10SM OVC040 06/04 A3052 RMK AO2 SLP343 T00560039=
201901241753 METAR KBLI 241753Z 36004KT 10SM OVC041 05/03 A3052 RMK AO2 SLP343 T00500033 10050 20028 53002=
201901241653 METAR KBLI 241653Z 00000KT 10SM OVC040 04/03 A3051 RMK AO2 SLP341 T00440028=
201901241553 METAR KBLI 241553Z 00000KT 10SM OVC040 04/03 A3051 RMK AO2 SLP340 T00390028=
201901241453 METAR KBLI 241453Z 00000KT 10SM OVC042 04/02 A3051 RMK AO2 SLP340 T00390022 53004=
201901241353 METAR KBLI 241353Z AUTO 00000KT 9SM OVC042 04/03 A3051 RMK AO2 SLP341 T00390028=
201901241300 SPECI KBLI 241300Z AUTO 00000KT 4SM BR OVC042 03/03 A3050 RMK AO2 T00330028=
201901241253 METAR KBLI 241253Z AUTO 00000KT 2 1/2SM BR OVC042 03/03 A3050 RMK AO2 SLP336 T00330028=
201901241239 SPECI KBLI 241239Z AUTO 00000KT 2SM BR OVC043 03/03 A3049 RMK AO2 T00330033=
201901241230 SPECI KBLI 241230Z AUTO 00000KT 3SM R16/5000VP6000FT BR OVC043 03/03 A3050 RMK AO2 T00330028=
201901241220 SPECI KBLI 241220Z AUTO 00000KT 2SM R16/3500VP6000FT BR OVC042 03/03 A3050 RMK AO2 T00330028=
201901241211 SPECI KBLI 241211Z AUTO 35003KT 3SM BR OVC042 03/03 A3050 RMK AO2 T00330028=
201901241202 SPECI KBLI 241202Z AUTO 00000KT 2 1/2SM BR OVC040 03/03 A3050 RMK AO2 T00330028=
201901241153 METAR KBLI 241153Z AUTO 32003KT 1 3/4SM BR OVC040 03/02 A3050 RMK AO2 VIS 1V3 SLP337 70003 T00280022 10067 20011 56004=
201901241142 SPECI KBLI 241142Z AUTO 32003KT 2 1/2SM R16/4500VP6000FT BR FEW001 OVC040 03/02 A3050 RMK AO2 T00330022=
201901241132 SPECI KBLI 241132Z AUTO 00000KT 1 1/2SM R16/4000VP6000FT BR FEW001 OVC040 03/02 A3050 RMK AO2 T00330022=
201901241123 SPECI KBLI 241123Z AUTO 00000KT 3/4SM R16/3000V4000FT BR FEW001 OVC038 03/02 A3050 RMK AO2 T00280017=
201901241053 METAR KBLI 241053Z AUTO 00000KT 1/2SM R16/2200VP6000FT FG BKN038 02/01 A3051 RMK AO2 SLP341 T00170011=
201901241045 SPECI KBLI 241045Z AUTO 00000KT 1/2SM R16/2600VP6000FT FG FEW038 02/02 A3052 RMK AO2 T00220017=
201901241030 SPECI KBLI 241030Z AUTO 00000KT 3/4SM R16/5000VP6000FT BR CLR 03/02 A3052 RMK AO2 T00280017=
201901241019 SPECI KBLI 241019Z AUTO 00000KT 1 3/4SM BR FEW020 03/02 A3051 RMK AO2 T00280017=
201901241011 SPECI KBLI 241011Z AUTO 00000KT 8SM SCT020 03/02 A3051 RMK AO2 T00330022=
201901240953 METAR KBLI 240953Z AUTO 00000KT 10SM OVC020 04/03 A3049 RMK AO2 SLP336 T00440028=
201901240853 METAR KBLI 240853Z AUTO 00000KT 10SM OVC018 05/04 A3051 RMK AO2 SLP340 T00500039 51015=
201901240753 METAR KBLI 240753Z AUTO 00000KT 10SM OVC017 06/03 A3050 RMK AO2 SLP337 T00560033 400830022=
201901240653 METAR KBLI 240653Z AUTO 00000KT 10SM OVC017 06/04 A3049 RMK AO2 SLP333 T00560039=
201901240553 METAR KBLI 240553Z 00000KT 10SM OVC016 06/04 A3047 RMK AO2 SLP327 T00560039 10067 20022 53016=
201901240453 METAR KBLI 240453Z 00000KT 10SM OVC015 05/04 A3043 RMK AO2 SLP314 T00500039=
201901240353 METAR KBLI 240353Z 00000KT 10SM OVC016 04/03 A3043 RMK AO2 SLP315 T00440033=
201901240253 METAR KBLI 240253Z 00000KT 10SM OVC016 03/03 A3042 RMK AO2 SLP311 T00330028 51016=
201901240200 SPECI KBLI 240200Z 00000KT 9SM BKN017 03/02 A3041 RMK AO2 T00280017=
201901240153 METAR KBLI 240153Z 00000KT 10SM SCT017 02/02 A3041 RMK AO2 SLP307 T00220017=
201901240053 METAR KBLI 240053Z 00000KT 10SM CLR 04/03 A3039 RMK AO2 SLP301 T00440028=
201901232353 METAR KBLI 232353Z 16003KT 10SM BKN012 07/03 A3037 RMK AO2 SLP295 T00670033 10072 20056 51015=
201901232253 METAR KBLI 232253Z 00000KT 10SM OVC012 07/03 A3037 RMK AO2 SLP292 T00670033=
201901232153 METAR KBLI 232153Z VRB03KT 10SM OVC012 07/04 A3035 RMK AO2 SLP288 T00670039=
201901232053 METAR KBLI 232053Z VRB03KT 10SM OVC010 07/04 A3033 RMK AO2 SLP279 T00670044 51021=
201901231953 METAR KBLI 231953Z 00000KT 10SM OVC010 06/04 A3033 RMK AO2 SLP279 T00610039=
201901231853 METAR KBLI 231853Z 00000KT 10SM OVC010 06/04 A3030 RMK AO2 SLP269 T00610039=
201901231753 METAR KBLI 231753Z 00000KT 10SM FEW007 OVC012 06/03 A3027 RMK AO2 SLP258 60003 T00560033 10056 20039 51057=
201901231653 METAR KBLI 231653Z 36004KT 10SM OVC008 05/03 A3021 RMK AO2 SLP240 T00500033=
201901231553 METAR KBLI 231553Z 07004KT 7SM OVC009 04/03 A3015 RMK AO2 SLP220 T00440028=
201901231453 METAR KBLI 231453Z 31006KT 4SM BR FEW003 OVC016 04/03 A3010 RMK AO2 RAB17E37 SLP200 P0001 60003 T00440033 51051=
201901231438 SPECI KBLI 231438Z 36005KT 4SM BR FEW003 OVC016 04/03 A3008 RMK AO2 RAB17E37 P0001 T00390033=
201901231421 SPECI KBLI 231421Z AUTO 33009KT 2SM -RA BR FEW008 BKN015 OVC020 04/03 A3009 RMK AO2 RAB17 P0000 T00390028=
201901231408 SPECI KBLI 231408Z AUTO 32007KT 6SM BR FEW008 OVC020 04/03 A3008 RMK AO2 PRESRR T00440028=
201901231353 METAR KBLI 231353Z AUTO 33008G16KT 10SM BKN007 OVC021 04/03 A3005 RMK AO2 RAE14 PRESRR SLP186 P0001 T00440028=
201901231329 SPECI KBLI 231329Z AUTO 01012G17KT 8SM OVC005 04/03 A3002 RMK AO2 RAE14 CIG 004V009 P0001 T00390028=
201901231303 SPECI KBLI 231303Z AUTO 34012G17KT 4SM -RA BR BKN004 BKN010 OVC014 04/03 A3001 RMK AO2 PRESRR P0000 T00390028=
201901231252 METAR KBLI 231252Z AUTO 36013G18KT 2 1/2SM -RA BR FEW004 OVC012 04/03 A2999 RMK AO2 RAB36 SLP165 P0001 T00390028=
201901231251 SPECI KBLI 231251Z AUTO 01013G18KT 2 1/2SM -RA BR FEW004 BKN010 OVC014 04/03 A2999 RMK AO2 RAB36 P0001=
201901231223 SPECI KBLI 231223Z AUTO 34007KT 10SM OVC013 04/03 A2996 RMK AO2 T00440028=
201901231153 METAR KBLI 231153Z AUTO 01004KT 10SM OVC008 04/03 A2994 RMK AO2 RAE1057B34E41 SLP149 P0000 60045 70126 T00440033 10083 20039 51025=
201901231134 SPECI KBLI 231134Z AUTO 03006KT 10SM -RA OVC006 04/03 A2994 RMK AO2 RAE1057B34 CIG 003V008 P0000 T00390033=
201901231053 METAR KBLI 231053Z AUTO 34006KT 10SM -RA OVC003 04/03 A2994 RMK AO2 SLP147 P0022 T00390028=
201901231037 SPECI KBLI 231037Z AUTO 35005KT 5SM -RA BR BKN003 OVC010 04/03 A2993 RMK AO2 P0022 T00390028=
201901231029 SPECI KBLI 231029Z AUTO 36007KT 2 1/2SM RA BR BKN003 OVC010 04/03 A2992 RMK AO2 P0021 T00440033=
201901231024 SPECI KBLI 231024Z AUTO 35004KT 2SM RA BR SCT005 OVC010 04/03 A2991 RMK AO2 P0020 T00440033=
201901231015 SPECI KBLI 231015Z AUTO 00000KT 1 1/2SM R16/3500VP6000FT RA BR FEW003 OVC009 04/04 A2991 RMK AO2 P0017 T00440044=
201901231004 SPECI KBLI 231004Z AUTO 36007KT 1 3/4SM R16/5000VP6000FT +RA BR FEW003 OVC011 04/03 A2991 RMK AO2 VIS 1V5 P0009 T00440033=
201901230953 METAR KBLI 230953Z AUTO 36009KT 7SM -RA SCT003 SCT008 OVC013 04/03 A2989 RMK AO2 RAE13B51 SLP131 P0000 T00440028=
201901230945 SPECI KBLI 230945Z AUTO 34004KT 9SM FEW003 BKN014 OVC021 05/03 A2989 RMK AO2 RAE13 P0000 T00500033=
201901230941 SPECI KBLI 230941Z AUTO 32007KT 10SM BKN014 OVC021 05/04 A2988 RMK AO2 RAE13 PRESRR P0000 T00500039=
201901230853 METAR KBLI 230853Z AUTO 00000KT 6SM -RA BR BKN015 BKN021 OVC029 04/03 A2987 RMK AO2 SLP123 P0004 60023 T00390033 58026=
201901230821 SPECI KBLI 230821Z AUTO 35003KT 5SM -RA BR OVC015 04/03 A2988 RMK AO2 P0002 T00390033=
201901230806 SPECI KBLI 230806Z AUTO 35006KT 4SM -RA BR OVC014 04/03 A2990 RMK AO2 P0002 T00390028=
201901230753 METAR KBLI 230753Z AUTO 35005KT 4SM RA BR OVC015 04/03 A2991 RMK AO2 SLP136 P0008 T00390028 400780011=
201901230653 METAR KBLI 230653Z AUTO 35007KT 3SM RA BR OVC017 04/03 A2992 RMK AO2 SLP141 P0011 T00390033=
201901230553 METAR KBLI 230553Z 36006KT 7SM -RA BKN019 OVC026 04/03 A2995 RMK AO2 SLP149 P0008 60068 T00440028 10067 20039 58033=
201901230453 METAR KBLI 230453Z 02006KT 5SM RA BR OVC020 04/03 A2999 RMK AO2 SLP164 P0018 T00440033=
201901230353 METAR KBLI 230353Z 06006KT 6SM RA BR OVC025 06/04 A3001 RMK AO2 SLP169 P0011 T00610039=
201901230253 METAR KBLI 230253Z 07004KT 7SM -RA BKN028 OVC037 06/04 A3004 RMK AO2 SLP182 P0011 60031 T00560039 58041=
201901230225 SPECI KBLI 230225Z 08005KT 9SM -RA BKN028 OVC033 06/04 A3007 RMK AO2 P0007 T00610039=
201901230153 METAR KBLI 230153Z 05006KT 6SM RA BR FEW020 SCT027 OVC034 04/03 A3009 RMK AO2 SLP197 P0011 T00440033=
201901230053 METAR KBLI 230053Z 04006KT 5SM -RA BR FEW019 OVC025 04/03 A3013 RMK AO2 SLP212 P0009 T00440033=
201901222353 METAR KBLI 222353Z 10006G15KT 4SM RA OVC023 07/04 A3016 RMK AO2 SLP223 P0010 60013 T00670039 10072 20067 56025=
201901222253 METAR KBLI 222253Z 12009KT 7SM -RA BKN024 OVC034 07/04 A3018 RMK AO2 RAB00 SLP229 P0003 T00720039=
201901222153 METAR KBLI 222153Z 13012G19KT 10SM OVC023 07/03 A3021 RMK AO2 RAE30 SLP239 P0000 T00720033=
201901222053 METAR KBLI 222053Z 13014G20KT 5SM -RA BKN023 BKN028 OVC035 07/03 A3024 RMK AO2 RAB37 SLP248 P0000 60000 T00670033 58016=
201901221953 METAR KBLI 221953Z 13012KT 10SM BKN026 OVC035 07/03 A3026 RMK AO2 SLP256 T00670028=
201901221853 METAR KBLI 221853Z 13016G24KT 10SM OVC026 07/02 A3028 RMK AO2 SLP262 T00670017=
201901221753 METAR KBLI 221753Z 13014G23KT 10SM OVC025 07/02 A3029 RMK AO2 SLP265 T00670017 10078 20061 56009=
201901221653 METAR KBLI 221653Z 14017G24KT 10SM OVC025 07/02 A3029 RMK AO2 SLP266 T00720017=
201901221553 METAR KBLI 221553Z 14015G19KT 10SM FEW026 SCT041 OVC055 07/02 A3030 RMK AO2 SLP268 T00670017=
201901221455 SPECI KBLI 221455Z 13013G17KT 10SM SCT030 SCT038 OVC060 07/02 A3031 RMK AO2 T00670017=
201901221453 METAR KBLI 221453Z 13010G17KT 10SM SCT030 BKN042 OVC050 07/02 A3032 RMK AO2 SLP275 T00670017 58006=
201901221353 METAR KBLI 221353Z AUTO 13010KT 10SM FEW031 BKN050 OVC070 06/02 A3033 RMK AO2 SLP280 T00610017=
201901221253 METAR KBLI 221253Z AUTO 13011G16KT 10SM BKN030 BKN040 OVC070 07/01 A3034 RMK AO2 SLP285 T00670011=
201901221153 METAR KBLI 221153Z AUTO 14014G20KT 10SM BKN037 BKN060 OVC075 07/01 A3033 RMK AO2 SLP280 T00720006 10072 20011 58009=
201901221053 METAR KBLI 221053Z AUTO 14010G16KT 10SM BKN033 OVC090 07/00 A3036 RMK AO2 SLP289 T00720000=
201901220953 METAR KBLI 220953Z AUTO 13008KT 10SM OVC100 06/M01 A3035 RMK AO2 SLP286 T00611011=
201901220853 METAR KBLI 220853Z AUTO 13006KT 10SM OVC110 05/M01 A3036 RMK AO2 SLP290 T00501006 58012=
201901220753 METAR KBLI 220753Z AUTO 00000KT 10SM OVC110 02/01 A3039 RMK AO2 SLP301 T00170006 400781028=
201901220653 METAR KBLI 220653Z AUTO 00000KT 10SM CLR 02/00 A3039 RMK AO2 SLP301 T00170000=
201901220553 METAR KBLI 220553Z 00000KT 10SM CLR 02/00 A3040 RMK AO2 SLP302 T00170000 10061 20011 51004=
201901220453 METAR KBLI 220453Z 00000KT 10SM CLR 02/00 A3039 RMK AO2 SLP299 T00170000=
201901220353 METAR KBLI 220353Z 00000KT 10SM FEW044 BKN055 02/00 A3040 RMK AO2 SLP304 T00170000=
201901220253 METAR KBLI 220253Z 00000KT 10SM FEW045 SCT050 02/00 A3038 RMK AO2 SLP299 T00170000 50005=
201901220153 METAR KBLI 220153Z 00000KT 10SM BKN050 02/00 A3039 RMK AO2 SLP299 T00220000=
201901220053 METAR KBLI 220053Z 00000KT 10SM CLR 03/00 A3038 RMK AO2 SLP299 T00280000=
201901212353 METAR KBLI 212353Z 00000KT 10SM SCT049 06/01 A3037 RMK AO2 SLP293 T00610011 10078 20028 51011=
201901212253 METAR KBLI 212253Z 14003KT 10SM BKN047 07/01 A3036 RMK AO2 SLP290 T00670011=
201901212153 METAR KBLI 212153Z 15004KT 10SM FEW020 SCT035 BKN050 07/01 A3035 RMK AO2 SLP287 T00670011=
201901212053 METAR KBLI 212053Z 16003KT 10SM OVC050 06/02 A3034 RMK AO2 SLP282 T00610022 51022=
201901211953 METAR KBLI 211953Z 00000KT 10SM BKN050 06/02 A3031 RMK AO2 SLP275 T00560022=
201901211853 METAR KBLI 211853Z 00000KT 10SM FEW050 05/02 A3030 RMK AO2 SLP271 T00500022=
201901211753 METAR KBLI 211753Z 00000KT 10SM FEW015 SCT045 03/01 A3027 RMK AO2 SLP261 I6001 T00280006 10028 21022 51029=
201901211653 METAR KBLI 211653Z 00000KT 10SM FEW020 BKN047 01/00 A3024 RMK AO2 SLP250 T00110000=
201901211553 METAR KBLI 211553Z 00000KT 10SM SCT025 OVC045 00/M01 A3022 RMK AO2 SLP243 T00001011=
201901211453 METAR KBLI 211453Z 35004KT 10SM FEW034 OVC044 00/M01 A3018 RMK AO2 SLP232 I3001 T00001011 53026=
201901211353 METAR KBLI 211353Z AUTO 00000KT 10SM FEW008 OVC035 01/00 A3015 RMK AO2 SLP220 I1001 T00060000=
201901211329 SPECI KBLI 211329Z AUTO 00000KT 10SM FEW008 OVC035 00/M01 A3014 RMK AO2 T00001006=
201901211253 METAR KBLI 211253Z AUTO 00000KT 10SM OVC035 M01/M01 A3013 RMK AO2 SLP212 T10061011=
201901211234 SPECI KBLI 211234Z AUTO 00000KT 10SM SCT004 OVC033 M01/M02 A3012 RMK AO2 T10061017=
201901211220 SPECI KBLI 211220Z AUTO 36003KT 10SM BKN004 OVC029 M01/M02 A3012 RMK AO2 T10061022=
201901211211 SPECI KBLI 211211Z AUTO 00000KT 9SM SCT004 OVC029 M02/M03 A3011 RMK AO2 T10171028=
201901211156 SPECI KBLI 211156Z AUTO 00000KT 3SM BR BKN027 M02/M03 A3011 RMK AO2 T10171033=
201901211153 METAR KBLI 211153Z AUTO 00000KT 1 1/4SM R16/6000VP6000FT BR BKN027 M02/M03 A3011 RMK AO2 SLP204 I1000 I6000 T10221033 10011 21028 51023=
201901211128 SPECI KBLI 211128Z AUTO 00000KT 1 1/2SM BR CLR M02/M03 A3009 RMK AO2 T10221033=
201901211053 METAR KBLI 211053Z AUTO 00000KT 3SM BR CLR M01/M02 A3008 RMK AO2 SLP196 I1000 T10111022=
201901210953 METAR KBLI 210953Z AUTO 00000KT 6SM BR CLR M02/M03 A3006 RMK AO2 SLP188 I1000 T10171028=
201901210905 SPECI KBLI 210905Z AUTO 00000KT 6SM BR CLR M01/M02 A3004 RMK AO2 T10111022=
201901210858 SPECI KBLI 210858Z AUTO 00000KT 2 1/2SM BR CLR M01/M02 A3004 RMK AO2 T10111022=
201901210851 METAR KBLI 210851Z AUTO 00000KT 1 3/4SM BR CLR M01/M02 A3004 RMK AO2 VIS 1V4 SLP181 I1000 I3000 T10111022 51019=
201901210850 SPECI KBLI 210850Z AUTO 00000KT 1 3/4SM BR CLR M01/M02 A3004 RMK AO2 VIS 1V4 I1000=
201901210821 SPECI KBLI 210821Z AUTO 35003KT 3SM BR CLR M02/M03 A3003 RMK AO2 I1000 T10221033=
201901210756 SPECI KBLI 210756Z AUTO 00000KT 1 3/4SM BR CLR M01/M02 A3002 RMK AO2 T10061017=
201901210753 METAR KBLI 210753Z AUTO 00000KT 4SM BR CLR M01/M02 A3002 RMK AO2 SLP176 T10061017 400891011=
201901210739 SPECI KBLI 210739Z AUTO 00000KT 4SM BR CLR M01/M02 A3002 RMK AO2 T10061017=
201901210735 SPECI KBLI 210735Z AUTO 00000KT 1SM R16/P6000FT BR CLR M01/M02 A3002 RMK AO2 T10061017=
201901210727 SPECI KBLI 210727Z AUTO 00000KT 1/2SM R16/P6000FT FG CLR 00/M02 A3002 RMK AO2 T00001017=
201901210717 SPECI KBLI 210717Z AUTO 00000KT 1SM R16/2200VP6000FT BR CLR 00/M01 A3001 RMK AO2 T00001011=
201901210700 SPECI KBLI 210700Z AUTO 00000KT 1/2SM R16/5000VP6000FT FG CLR 00/M02 A3001 RMK AO2 T00001017=
201901210656 SPECI KBLI 210656Z AUTO 00000KT 1 3/4SM R16/5000VP6000FT BR CLR M01/M02 A3001 RMK AO2 VIS 3/4V2 1/2 T10061017=
201901210653 METAR KBLI 210653Z AUTO 00000KT 10SM CLR M01/M02 A3001 RMK AO2 SLP170 I1000 T10061017=
201901210553 METAR KBLI 210553Z 00000KT 10SM CLR M01/M02 A2998 RMK AO2 SLP162 I1001 I6001 T10061017 10072 21011 53013=
201901210508 SPECI KBLI 210508Z 00000KT 10SM CLR 01/M01 A2998 RMK AO2 I1001 T00061011=
201901210500 SPECI KBLI 210500Z 00000KT 1/2SM R16/P6000FT FG VV010 01/M01 A2997 RMK AO2 I1000 T00061011=
201901210453 METAR KBLI 210453Z 00000KT 10SM CLR M01/M02 A2997 RMK AO2 SLP157 I1000 T10061017=
201901210353 METAR KBLI 210353Z 00000KT 8SM CLR 00/M01 A2995 RMK AO2 SLP152 T00001006=
201901210253 METAR KBLI 210253Z 00000KT 10SM CLR 01/00 A2994 RMK AO2 SLP149 T00110000 51014=
201901210153 METAR KBLI 210153Z 10SM FEW025 SCT100 04/02 A2993 RMK AO2 SLP145 T00440022=
201901210053 METAR KBLI 210053Z 27004KT 10SM FEW025 SCT100 06/02 A2992 RMK AO2 SLP140 T00560017=
201901202353 METAR KBLI 202353Z 28005KT 10SM FEW025 07/02 A2990 RMK AO2 SLP134 T00720017 10089 20044 53003=
201901202253 METAR KBLI 202253Z 31005KT 10SM SCT025 08/02 A2989 RMK AO2 SLP132 T00780017=
201901202153 METAR KBLI 202153Z 00000KT 10SM SCT025 08/02 A2989 RMK AO2 SLP129 T00830022=
201901202053 METAR KBLI 202053Z 32008KT 10SM CLR 08/03 A2989 RMK AO2 SLP131 T00830028 58015=
201901201953 METAR KBLI 201953Z 35005KT 10SM CLR 07/03 A2991 RMK AO2 SLP136 T00670033=
201901201853 METAR KBLI 201853Z 34006KT 10SM FEW010 BKN150 06/03 A2993 RMK AO2 SLP143 T00560028=
201901201753 METAR KBLI 201753Z 36006KT 10SM CLR 04/03 A2994 RMK AO2 SLP146 T00440028 10044 20017 58013=
201901201653 METAR KBLI 201653Z 01007KT 10SM CLR 03/02 A2995 RMK AO2 SLP151 T00330022=
201901201553 METAR KBLI 201553Z 01007KT 10SM CLR 03/03 A2996 RMK AO2 SLP156 T00280028=
201901201453 METAR KBLI 201453Z 36007KT 9SM CLR 03/02 A2998 RMK AO2 SLP160 T00280022 58027=
201901201353 METAR KBLI 201353Z AUTO 01008KT 8SM CLR 02/02 A3001 RMK AO2 SLP170 T00220022=
201901201253 METAR KBLI 201253Z AUTO 01005KT 7SM CLR 02/01 A3004 RMK AO2 SLP180 T00220011=
201901201153 METAR KBLI 201153Z AUTO 36003KT 5SM BR FEW043 02/02 A3006 RMK AO2 SLP187 60001 70007 T00220017 10067 20011 58022=
201901201111 SPECI KBLI 201111Z 35004KT 5SM BR SCT043 02/01 A3007 RMK AO2 T00220011=
201901201102 SPECI KBLI 201102Z 35003KT 2SM BR SCT044 02/01 A3008 RMK AO2 T00170006=
201901201053 METAR KBLI 201053Z 36004KT 3/4SM R16/5500VP6000FT BR FEW044 01/01 A3008 RMK AO2 SLP196 T00110006=
201901201030 SPECI KBLI 201030Z 00000KT 1 1/2SM BR CLR 02/01 A3009 RMK AO2 T00220011=
201901200953 METAR KBLI 200953Z 00000KT 8SM CLR 03/02 A3010 RMK AO2 SLP201 T00330022=
201901200853 METAR KBLI 200853Z 36003KT 4SM BR FEW040 BKN060 03/02 A3012 RMK AO2 SLP209 60001 T00330017 58012=
201901200753 METAR KBLI 200753Z 16003KT 10SM SCT038 OVC049 06/04 A3015 RMK AO2 SLP216 T00610044 401170044=
201901200653 METAR KBLI 200653Z 00000KT 10SM SCT040 BKN070 06/04 A3015 RMK AO2 RAB28E47 SLP219 P0001 T00610044=
201901200553 METAR KBLI 200553Z 16004KT 10SM BKN070 07/04 A3016 RMK AO2 SLP221 60000 T00670044 10083 20044 53002=
201901200453 METAR KBLI 200453Z 00000KT 10SM BKN075 BKN090 06/04 A3015 RMK AO2 SLP218 T00560039=
201901200353 METAR KBLI 200353Z 15005KT 10SM BKN060 BKN070 OVC085 06/04 A3015 RMK AO2 RAB0255E28 SLP218 P0000 T00560044=
201901200253 METAR KBLI 200253Z 17004KT 10SM FEW041 SCT048 BKN060 07/04 A3015 RMK AO2 SLP218 60000 T00720039 53005=
201901200153 METAR KBLI 200153Z 26003KT 10SM SCT038 BKN046 OVC060 08/05 A3015 RMK AO2 RAB0056E07 SLP216 P0000 T00830050=
201901200053 METAR KBLI 200053Z 17004KT 10SM SCT044 BKN055 OVC090 08/06 A3013 RMK AO2 SLP211 T00830056=
201901192353 METAR KBLI 192353Z 00000KT 10SM SCT021 BKN033 OVC090 07/06 A3014 RMK AO2 RAE04 SLP213 P0000 60006 T00720056 10106 20072 51024=
201901192302 SPECI KBLI 192302Z VRB03KT 10SM -RA SCT021 BKN033 OVC090 08/06 A3013 RMK AO2 P0000 T00830056=
201901192253 METAR KBLI 192253Z 19007KT 3SM -RA BKN021 BKN034 OVC095 08/06 A3013 RMK AO2 RAB36 SLP210 P0005 T00830056=
201901192248 SPECI KBLI 192248Z 19004KT 2 1/2SM RA SCT019 BKN029 OVC095 08/05 A3013 RMK AO2 VIS 1 1/2V5 RAB36 PRESRR P0002=
201901192153 METAR KBLI 192153Z 18009KT 10SM SCT022 BKN035 09/04 A3010 RMK AO2 RAB2059E28 SLP198 P0001 T00890044=
201901192053 METAR KBLI 192053Z 16011G17KT 10SM SCT030 BKN060 BKN100 10/05 A3006 RMK AO2 SLP187 T01000050 58001=
201901191953 METAR KBLI 191953Z 17009KT 10SM SCT050 OVC070 10/04 A3008 RMK AO2 SLP193 T01000044=
201901191853 METAR KBLI 191853Z 16009KT 10SM SCT030 BKN050 10/04 A3009 RMK AO2 SLP196 T01000044=
201901191753 METAR KBLI 191753Z 16009KT 10SM FEW039 BKN055 09/04 A3007 RMK AO2 SLP189 T00940039 10100 20083 51035=
201901191653 METAR KBLI 191653Z 16009KT 10SM SCT031 BKN040 09/05 A3003 RMK AO2 SLP178 T00890050=
201901191553 METAR KBLI 191553Z 16006G14KT 10SM CLR 09/04 A3001 RMK AO2 SLP169 T00890044=
201901191453 METAR KBLI 191453Z VRB05KT 10SM CLR 10/02 A2996 RMK AO2 SLP154 T01000022 53024=
201901191353 METAR KBLI 191353Z AUTO VRB06KT 10SM CLR 10/02 A2993 RMK AO2 SLP143 T01000022=
201901191253 METAR KBLI 191253Z AUTO 18009KT 10SM CLR 10/03 A2991 RMK AO2 SLP135 T01000033=
201901191153 METAR KBLI 191153Z AUTO 16014KT 10SM FEW012 SCT036 09/07 A2989 RMK AO2 SLP129 60002 70028 T00890067 10117 20067 51031=
201901191149 SPECI KBLI 191149Z AUTO 16012G18KT 10SM FEW012 SCT036 09/07 A2989 RMK AO2=
201901191123 SPECI KBLI 191123Z AUTO 16017G24KT 10SM SCT014 BKN020 OVC033 09/07 A2988 RMK AO2 T00940067=
201901191101 SPECI KBLI 191101Z AUTO 17017G24KT 10SM BKN014 OVC029 10/07 A2986 RMK AO2 T01000067=
201901191053 METAR KBLI 191053Z AUTO 16014G24KT 10SM BKN016 OVC029 10/07 A2985 RMK AO2 PK WND 18027/1005 SLP115 T01000067=
201901190953 METAR KBLI 190953Z AUTO 10SM BKN021 BKN027 OVC038 11/07 A2980 RMK AO2 PK WND 16029/0926 RAE08B29E45 SLP097 P0001 T01060067=
201901190853 METAR KBLI 190853Z AUTO 15016G24KT 10SM -RA OVC027 11/06 A2976 RMK AO2 RAB52 SLP083 P0000 60001 T01110061 51002=
201901190838 SPECI KBLI 190838Z AUTO 15014G19KT 10SM OVC029 12/06 A2976 RMK AO2 T01170061=
201901190753 METAR KBLI 190753Z AUTO 10SM OVC031 10/06 A2976 RMK AO2 RAE0655 SLP083 P0000 T01000056 401060067=
201901190653 METAR KBLI 190653Z AUTO 04007KT 10SM -RA OVC037 07/05 A2977 RMK AO2 SLP087 P0001 T00720050=
201901190553 METAR KBLI 190553Z 03007KT 10SM -RA OVC040 07/05 A2975 RMK AO2 SLP083 P0006 60011 T00720050 10106 20072 58041=
201901190453 METAR KBLI 190453Z 04009KT 9SM -RA SCT040 OVC050 07/04 A2980 RMK AO2 RAE07B38 PRESFR SLP098 P0001 T00720044=
201901190353 METAR KBLI 190353Z 11005KT 10SM -RA SCT040 OVC050 08/03 A2984 RMK AO2 SLP111 P0003 T00830033=
201901190253 METAR KBLI 190253Z 11006KT 10SM -RA SCT041 OVC055 09/03 A2987 RMK AO2 SLP124 P0001 60001 T00890033 56033=
201901190153 METAR KBLI 190153Z 16005KT 10SM -RA OVC050 09/04 A2990 RMK AO2 RAB44 SLP132 P0000 T00940039=
201901190053 METAR KBLI 190053Z 08005KT 10SM BKN110 10/02 A2993 RMK AO2 SLP144 T01000022=
201901182353 METAR KBLI 182353Z 11010KT 10SM BKN050 BKN060 11/03 A2997 RMK AO2 SLP156 T01060028 10106 20089 58023=
201901182253 METAR KBLI 182253Z 14011KT 10SM CLR 11/03 A3000 RMK AO2 SLP166 T01060033=
201901182153 METAR KBLI 182153Z 13016G21KT 10SM FEW036 BKN100 OVC110 11/03 A3003 RMK AO2 SLP174 T01060033=
201901182053 METAR KBLI 182053Z 14013KT 10SM SCT034 OVC110 11/04 A3004 RMK AO2 SLP179 T01060039 58013=
201901181953 METAR KBLI 181953Z 15013G19KT 10SM FEW095 10/04 A3006 RMK AO2 SLP187 T01000039=
201901181853 METAR KBLI 181853Z 14011KT 10SM FEW025 OVC039 09/04 A3008 RMK AO2 SLP193 T00940039=
201901181753 METAR KBLI 181753Z 14011KT 10SM FEW025 SCT039 09/04 A3008 RMK AO2 SLP193 60015 T00890044 10089 20072 51012=
201901181653 METAR KBLI 181653Z 15014G19KT 10SM SCT019 BKN030 BKN035 08/05 A3008 RMK AO2 SLP192 T00830050=
201901181553 METAR KBLI 181553Z 16010KT 10SM FEW021 OVC100 08/05 A3004 RMK AO2 RAE10 SLP182 P0000 T00780050=
201901181522 SPECI KBLI 181522Z 15012KT 10SM FEW022 BKN050 OVC120 08/06 A3004 RMK AO2 RAE10 P0000 T00780056=
201901181453 METAR KBLI 181453Z 16010G18KT 6SM RA BR FEW022 BKN029 OVC037 08/06 A3004 RMK AO2 SLP181 P0014 60015 T00780056 52022=
201901181353 METAR KBLI 181353Z AUTO 15011G18KT 10SM -RA BKN023 BKN033 OVC040 09/05 A3001 RMK AO2 RAE00B47 SLP169 P0000 T00890050=
201901181351 SPECI KBLI 181351Z AUTO 16011G18KT 10SM -RA BKN023 BKN033 OVC040 09/05 A3001 RMK AO2 RAE00B47 P0000=
201901181326 SPECI KBLI 181326Z AUTO 15012KT 10SM BKN030 BKN046 OVC100 09/06 A3000 RMK AO2 RAE00 P0000 T00890056=
201901181253 METAR KBLI 181253Z AUTO 15013G20KT 9SM -RA OVC022 09/06 A2998 RMK AO2 SLP158 P0001 T00890061=
201901181153 METAR KBLI 181153Z AUTO 16010G17KT 10SM -RA BKN019 BKN026 OVC050 09/06 A2995 RMK AO2 RAB00 SLP147 P0000 60001 70011 T00890061 10100 20089 51037=
201901181114 SPECI KBLI 181114Z AUTO 15015G21KT 10SM -RA BKN017 OVC034 09/06 A2993 RMK AO2 RAB00 P0000 T00890061=
201901181053 METAR KBLI 181053Z AUTO 15015G24KT 10SM SCT018 OVC033 09/06 A2992 RMK AO2 RAB32E50 SLP139 P0000 T00940056=
201901181036 SPECI KBLI 181036Z AUTO 16014G21KT 10SM -RA FEW017 SCT023 OVC035 09/06 A2991 RMK AO2 RAB32 P0000 T00940056=
201901181021 SPECI KBLI 181021Z AUTO 16011G21KT 10SM FEW017 BKN028 OVC036 09/06 A2990 RMK AO2 T00940056=
201901180953 METAR KBLI 180953Z AUTO 15012KT 10SM FEW020 OVC036 09/06 A2988 RMK AO2 PK WND 15026/0923 SLP124 P0001 T00940056=
201901180927 SPECI KBLI 180927Z AUTO 15018G26KT 10SM FEW020 SCT026 OVC036 10/06 A2986 RMK AO2 PK WND 15026/0923 P0001 T01000056=
201901180853 METAR KBLI 180853Z AUTO 16013G22KT 10SM BKN024 OVC034 09/06 A2984 RMK AO2 PK WND 16028/0801 RAB04E46 SLP110 P0000 60000 T00940056 53046=
201901180753 METAR KBLI 180753Z AUTO 17015G25KT 10SM OVC023 10/05 A2979 RMK AO2 PK WND 15028/0729 RAE30 SLP097 P0000 T01000050 401330039=
201901180653 METAR KBLI 180653Z AUTO 16014G23KT 10SM -RA BKN027 OVC037 10/05 A2974 RMK AO2 PK WND 15032/0630 RAE0554B48 SLP078 P0000 T01000050=
201901180553 METAR KBLI 180553Z 15017G28KT 10SM -RA BKN026 OVC033 10/06 A2970 RMK AO2 PK WND 15029/0514 SLP065 P0004 60005 T01000056 10117 20100 53044=
201901180453 METAR KBLI 180453Z 16017G29KT 9SM -RA BKN028 OVC035 10/06 A2967 RMK AO2 PK WND 16036/0400 RAB13 SLP053 P0001 T01000056=
201901180353 METAR KBLI 180353Z 14027G38KT 10SM BKN031 OVC090 11/04 A2961 RMK AO2 PK WND 13038/0351 SLP033 T01110044=
201901180253 METAR KBLI 180253Z 14020G29KT 10SM FEW034 BKN090 BKN120 11/04 A2957 RMK AO2 PK WND 13030/0229 SLP021 T01110044 51019=
201901180153 METAR KBLI 180153Z 12015G23KT 090V150 10SM OVC040 12/04 A2956 RMK AO2 SLP018 T01170039=
201901180053 METAR KBLI 180053Z 12009G19KT 10SM SCT040 BKN100 12/04 A2954 RMK AO2 SLP011 T01170039=
201901172353 METAR KBLI 172353Z 13010G24KT 10SM SCT050 BKN100 12/04 A2952 RMK AO2 SLP003 60000 T01170039 10133 20078 53009=
201901172253 METAR KBLI 172253Z 13014G22KT 10SM SCT050 BKN120 12/04 A2949 RMK AO2 SLP995 T01220039=
201901172153 METAR KBLI 172153Z 13011KT 10SM BKN055 OVC090 12/04 A2949 RMK AO2 SLP992 T01220044=
201901172053 METAR KBLI 172053Z 02004KT 10SM OVC050 12/05 A2949 RMK AO2 SLP993 60000 T01220050 51002=
201901171953 METAR KBLI 171953Z 01008KT 10SM OVC055 09/03 A2949 RMK AO2 SLP993 T00890033=
201901171853 METAR KBLI 171853Z 04007KT 10SM BKN065 OVC080 08/03 A2950 RMK AO2 RAB24E35 SLP998 P0000 T00830028=
201901171753 METAR KBLI 171753Z 02008KT 10SM SCT080 BKN095 08/02 A2948 RMK AO2 SLP992 60005 T00780017 10078 20039 53000=
201901171653 METAR KBLI 171653Z 02009KT 10SM BKN100 06/01 A2947 RMK AO2 RAB1555E16 SLP988 P0001 T00610006=
201901171553 METAR KBLI 171553Z 01009KT 10SM SCT055 OVC080 05/00 A2948 RMK AO2 SLP991 T00500000=
201901171453 METAR KBLI 171453Z 01009KT 10SM OVC055 06/01 A2948 RMK AO2 SLP992 60004 T00560011 55010=
201901171353 METAR KBLI 171353Z AUTO 02009KT 10SM FEW050 BKN060 OVC100 05/02 A2948 RMK AO2 RAE45 SLP991 P0001 T00500017=
201901171253 METAR KBLI 171253Z AUTO 10SM -RA OVC050 04/02 A2950 RMK AO2 SLP000 P0003 T00440017=
201901171153 METAR KBLI 171153Z AUTO 33003KT 10SM -RA OVC050 04/01 A2951 RMK AO2 RAB31 SLP002 P0000 60000 T00440006 10061 20028 55004=
201901171053 METAR KBLI 171053Z AUTO 00000KT 10SM OVC070 05/M02 A2950 RMK AO2 SLP996 T00501017=
201901170953 METAR KBLI 170953Z AUTO 36005KT 10SM BKN070 OVC120 05/M02 A2950 RMK AO2 SLP998 T00501022=
201901170853 METAR KBLI 170853Z AUTO 01006KT 10SM BKN120 04/M02 A2952 RMK AO2 SLP006 T00441022 58016=
201901170753 METAR KBLI 170753Z AUTO 01008KT 10SM CLR 04/M02 A2954 RMK AO2 SLP013 T00441022 400831011=
201901170653 METAR KBLI 170653Z AUTO 01009KT 10SM SCT110 04/M03 A2956 RMK AO2 SLP019 T00391028=
201901170553 METAR KBLI 170553Z 02008KT 10SM CLR 03/M03 A2957 RMK AO2 SLP023 T00331028 10067 20022 56024=
201901170453 METAR KBLI 170453Z 01007KT 10SM CLR 03/M03 A2959 RMK AO2 SLP029 T00281028=
201901170353 METAR KBLI 170353Z 36005KT 10SM CLR 03/M03 A2961 RMK AO2 SLP035 T00281033=
201901170253 METAR KBLI 170253Z 02005KT 10SM CLR 03/M03 A2964 RMK AO2 SLP047 T00281033 56020=
201901170153 METAR KBLI 170153Z 02007KT 10SM CLR 04/M03 A2965 RMK AO2 SLP051 T00391028=
201901170053 METAR KBLI 170053Z 01007KT 10SM CLR 05/M02 A2968 RMK AO2 SLP059 T00501022=
201901162353 METAR KBLI 162353Z 36006KT 10SM CLR 07/M02 A2971 RMK AO2 SLP068 T00671017 10083 20022 58019=
201901162253 METAR KBLI 162253Z 34004KT 10SM FEW120 08/M01 A2973 RMK AO2 SLP075 T00831011=
201901162153 METAR KBLI 162153Z 01004KT 10SM BKN120 08/M02 A2975 RMK AO2 SLP081 T00831017=
201901162053 METAR KBLI 162053Z 02004KT 10SM CLR 07/M02 A2976 RMK AO2 SLP087 T00721017 58015=
201901161953 METAR KBLI 161953Z 36005KT 10SM FEW090 OVC120 06/M02 A2979 RMK AO2 SLP096 T00561017=
201901161853 METAR KBLI 161853Z 03003KT 10SM OVC110 04/M02 A2980 RMK AO2 SLP102 T00391017=
201901161753 METAR KBLI 161753Z 00000KT 10SM OVC110 02/M02 A2980 RMK AO2 SLP102 T00221022 10028 21011 53013=
201901161653 METAR KBLI 161653Z 00000KT 10SM CLR 02/M03 A2979 RMK AO2 SLP096 T00171033=
201901161553 METAR KBLI 161553Z 36003KT 10SM CLR M01/M05 A2977 RMK AO2 SLP090 T10061050=
201901161453 METAR KBLI 161453Z 00000KT 10SM CLR 01/M04 A2977 RMK AO2 SLP090 T00061044 55004=
201901161353 METAR KBLI 161353Z AUTO 01004KT 10SM CLR 01/M04 A2976 RMK AO2 SLP088 T00061044=
201901161253 METAR KBLI 161253Z AUTO 36004KT 10SM CLR 00/M04 A2977 RMK AO2 SLP089 T00001044=
201901161153 METAR KBLI 161153Z AUTO 36003KT 10SM CLR 01/M04 A2978 RMK AO2 SLP093 T00061044 10028 20000 58002=
201901161053 METAR KBLI 161053Z AUTO 36005KT 10SM CLR 01/M04 A2979 RMK AO2 SLP097 T00061039=
201901160953 METAR KBLI 160953Z AUTO 00000KT 10SM BKN110 01/M03 A2979 RMK AO2 SLP098 T00111033=
201901160853 METAR KBLI 160853Z AUTO 02004KT 10SM BKN120 01/M03 A2978 RMK AO2 SLP095 T00061033 58000=
201901160753 METAR KBLI 160753Z AUTO 00000KT 10SM CLR 01/M03 A2979 RMK AO2 SLP098 T00111033 400831033=
201901160653 METAR KBLI 160653Z AUTO 36003KT 10SM BKN120 03/M03 A2980 RMK AO2 SLP098 T00281033=
201901160553 METAR KBLI 160553Z 35003KT 10SM OVC120 02/M03 A2978 RMK AO2 SLP095 T00221033 10061 20011 58003=
201901160453 METAR KBLI 160453Z 35003KT 10SM SCT120 02/M03 A2979 RMK AO2 SLP097 T00171033=
201901160353 METAR KBLI 160353Z 01004KT 10SM BKN120 02/M03 A2979 RMK AO2 SLP099 T00171033=
201901160253 METAR KBLI 160253Z 01004KT 10SM CLR 02/M03 A2979 RMK AO2 SLP099 T00171033 58009=
201901160153 METAR KBLI 160153Z 35003KT 10SM CLR 03/M03 A2980 RMK AO2 SLP101 T00331033=
201901160053 METAR KBLI 160053Z 36005KT 10SM CLR 04/M03 A2981 RMK AO2 SLP104 T00391033=
201901152353 METAR KBLI 152353Z 34004KT 10SM CLR 06/M02 A2982 RMK AO2 SLP106 T00611022 10083 20028 56010=
201901152253 METAR KBLI 152253Z 01005KT 10SM CLR 07/M02 A2982 RMK AO2 SLP106 T00721017=
201901152153 METAR KBLI 152153Z 36006KT 10SM CLR 08/M02 A2982 RMK AO2 SLP108 T00781022=
201901152053 METAR KBLI 152053Z 36007KT 10SM CLR 07/M02 A2985 RMK AO2 SLP117 T00721022 58016=
201901151953 METAR KBLI 151953Z 36008KT 10SM CLR 07/M02 A2987 RMK AO2 SLP125 T00721017=
201901151853 METAR KBLI 151853Z 36006KT 10SM CLR 06/M01 A2989 RMK AO2 SLP132 T00561006=
201901151753 METAR KBLI 151753Z 35004KT 10SM CLR 03/M01 A2990 RMK AO2 SLP134 I6000 T00281011 10028 21033 53003=
201901151653 METAR KBLI 151653Z 00000KT 10SM CLR M02/M03 A2990 RMK AO2 SLP135 T10171033=
201901151553 METAR KBLI 151553Z 00000KT 10SM CLR M03/M05 A2988 RMK AO2 SLP130 I1000 T10281050=
201901151453 METAR KBLI 151453Z 00000KT 10SM CLR M03/M04 A2989 RMK AO2 SLP131 T10281039 55005=
201901151353 METAR KBLI 151353Z AUTO 35003KT 10SM CLR M01/M03 A2989 RMK AO2 SLP130 T10111033=
201901151253 METAR KBLI 151253Z AUTO 36005KT 10SM CLR 00/M03 A2989 RMK AO2 SLP130 T00001028=
201901151153 METAR KBLI 151153Z AUTO 36004KT 10SM CLR M02/M03 A2990 RMK AO2 SLP135 I1000 I6000 T10171033 11006 21028 58006=
201901151053 METAR KBLI 151053Z AUTO 36003KT 10SM CLR M03/M04 A2992 RMK AO2 SLP140 T10281039=
201901150953 METAR KBLI 150953Z AUTO 00000KT 8SM CLR M02/M03 A2992 RMK AO2 SLP142 I1000 T10221033=
201901150853 METAR KBLI 150853Z AUTO 00000KT 8SM CLR M02/M03 A2992 RMK AO2 SLP141 I1000 I3000 T10171028 58007=
201901150753 METAR KBLI 150753Z AUTO 00000KT 8SM CLR M02/M03 A2993 RMK AO2 SLP146 I1000 T10221033 401061028=
201901150653 METAR KBLI 150653Z AUTO 00000KT 5SM BR CLR M02/M03 A2995 RMK AO2 SLP150 I1000 T10171028=
201901150553 METAR KBLI 150553Z 00000KT 10SM CLR M01/M02 A2994 RMK AO2 SLP149 T10111022 10061 21017 56006=
201901150500 SPECI KBLI 150500Z 00000KT 10SM R16/2600V3500FT FEW001 00/M02 A2994 RMK AO2 PRFG T00001022=
201901150453 METAR KBLI 150453Z 00000KT 1/2SM R16/2600V4000FT FZFG VV001 M01/M02 A2995 RMK AO2 SLP151 T10061017=
201901150435 SPECI KBLI 150435Z 00000KT 1/4SM R16/1400V2600FT FG VV001 00/M01 A2995 RMK AO2 T00001011=
201901150353 METAR KBLI 150353Z 00000KT 1/4SM R16/1000V1200FT FG VV001 01/01 A2995 RMK AO2 SLP152 T00110006=
201901150253 METAR KBLI 150253Z 00000KT 1/4SM R16/0800V1000FT FG VV001 02/01 A2996 RMK AO2 SLP156 T00170011 58003=
201901150153 METAR KBLI 150153Z 00000KT 1/4SM R16/1200V1400FT FG VV001 02/02 A2996 RMK AO2 SLP155 T00220017=
201901150120 SPECI KBLI 150120Z 00000KT 1/4SM R16/1400V1600FT FG VV001 03/02 A2997 RMK AO2 T00280022=
201901150113 SPECI KBLI 150113Z 00000KT 1/4SM R16/1400V2400FT FG VV001 03/02 A2997 RMK AO2 T00280022=
201901150105 SPECI KBLI 150105Z 30003KT 3/4SM R16/2200VP6000FT BR VV001 03/02 A2997 RMK AO2 VSBY S-N 1/2SM DRFG T00280022=
201901150101 SPECI KBLI 150101Z 00000KT 2SM R16/4500VP6000FT BR BKN001 03/02 A2997 RMK AO2 VSBY S-N 1/2SM DRFG T00330022=
201901150053 METAR KBLI 150053Z 00000KT 3SM BR SCT001 03/02 A2997 RMK AO2 SLP159 T00330022=
201901150051 SPECI KBLI 150051Z VRB03KT 3SM BR SCT001 03/02 A2997 RMK AO2=
201901142353 METAR KBLI 142353Z 28004KT 10SM CLR 06/03 A2998 RMK AO2 SLP161 T00610028 10106 20050 56012=
201901142253 METAR KBLI 142253Z 01009KT 10SM CLR 11/00 A2999 RMK AO2 SLP162 T01060000=
201901142153 METAR KBLI 142153Z 02009KT 10SM FEW003 11/00 A3000 RMK AO2 SLP167 T01060000=
201901142053 METAR KBLI 142053Z 01007KT 10SM CLR 10/00 A3001 RMK AO2 SLP173 T01000000 58022=
201901141953 METAR KBLI 141953Z 01006KT 10SM CLR 08/00 A3004 RMK AO2 SLP182 T00830000=
201901141853 METAR KBLI 141853Z 03007KT 10SM CLR 07/00 A3007 RMK AO2 SLP192 T00670000=
201901141753 METAR KBLI 141753Z 03006KT 10SM CLR 05/M01 A3008 RMK AO2 SLP195 I6000 T00501006 10050 21028 56004=
201901141653 METAR KBLI 141653Z 04006KT 10SM CLR 02/M01 A3008 RMK AO2 SLP195 T00221011=
201901141553 METAR KBLI 141553Z 01008KT 10SM CLR 01/M02 A3008 RMK AO2 SLP196 T00061022=
201901141453 METAR KBLI 141453Z 33008KT 10SM CLR 01/M02 A3009 RMK AO2 SLP199 I3000 T00061017 58012=
201901141353 METAR KBLI 141353Z AUTO 35003KT 10SM CLR 01/M02 A3010 RMK AO2 SLP203 I1000 T00111022=
201901141253 METAR KBLI 141253Z AUTO 00000KT 10SM CLR M02/M03 A3011 RMK AO2 SLP208 T10171033=
201901141153 METAR KBLI 141153Z AUTO 00000KT 10SM CLR M02/M04 A3012 RMK AO2 SLP210 I6001 T10221039 10022 21022 56007=
201901141053 METAR KBLI 141053Z AUTO 00000KT 10SM CLR 02/M01 A3012 RMK AO2 SLP209 I1000 T00221011=
201901140953 METAR KBLI 140953Z AUTO 36004KT 10SM CLR 01/M02 A3013 RMK AO2 SLP212 I1001 T00061017=
201901140853 METAR KBLI 140853Z AUTO 00000KT 10SM CLR 00/M01 A3014 RMK AO2 SLP217 T00001011 58005=
201901140753 METAR KBLI 140753Z AUTO 35004KT 10SM CLR 00/M01 A3015 RMK AO2 SLP218 T00001011 401171017=
201901140707 SPECI KBLI 140707Z AUTO 00000KT 4SM CLR M01/M02 A3016 RMK AO2 T10061022=
201901140700 SPECI KBLI 140700Z AUTO 00000KT 2 1/2SM CLR M01/M02 A3017 RMK AO2 T10061022=
201901140653 METAR KBLI 140653Z AUTO 35003KT 10SM CLR M01/M02 A3017 RMK AO2 SLP224 T10061022=
201901140553 METAR KBLI 140553Z 00000KT 10SM CLR 00/M01 A3016 RMK AO2 SLP222 T00001011 10094 21006 53006=
201901140548 SPECI KBLI 140548Z 00000KT 1 3/4SM BR CLR 00/M02 A3016 RMK AO2 VIS 3/4V5=
201901140453 METAR KBLI 140453Z 00000KT 9SM CLR 02/00 A3015 RMK AO2 SLP221 T00170000=
201901140353 METAR KBLI 140353Z 00000KT 8SM CLR 01/M01 A3014 RMK AO2 SLP218 T00111006=
201901140253 METAR KBLI 140253Z 00000KT 10SM CLR 03/01 A3014 RMK AO2 SLP217 T00280006 50001=
201901140153 METAR KBLI 140153Z 00000KT 10SM CLR 03/01 A3014 RMK AO2 SLP217 T00280011=
201901140053 METAR KBLI 140053Z 00000KT 10SM CLR 04/01 A3014 RMK AO2 SLP216 T00390006=
201901132353 METAR KBLI 132353Z 00000KT 10SM CLR 09/02 A3014 RMK AO2 SLP215 T00940022 10117 20056 56006=
201901132253 METAR KBLI 132253Z 02005KT 10SM CLR 11/03 A3015 RMK AO2 SLP218 T01110028=
201901132153 METAR KBLI 132153Z 02007KT 10SM CLR 11/02 A3015 RMK AO2 SLP217 T01110022=
201901132053 METAR KBLI 132053Z 01006KT 10SM CLR 11/02 A3016 RMK AO2 SLP220 T01060022 58017=
201901131953 METAR KBLI 131953Z 02006KT 10SM CLR 09/02 A3017 RMK AO2 SLP226 T00940017=
201901131853 METAR KBLI 131853Z 01005KT 10SM CLR 08/01 A3020 RMK AO2 SLP235 T00780011=
201901131753 METAR KBLI 131753Z 35004KT 10SM CLR 06/01 A3020 RMK AO2 SLP237 T00560006 10056 21017 53013=
201901131653 METAR KBLI 131653Z 00000KT 10SM CLR 00/M01 A3019 RMK AO2 SLP232 T00001011=
201901131553 METAR KBLI 131553Z 00000KT 10SM CLR M01/M02 A3017 RMK AO2 SLP228 T10111022=
201901131453 METAR KBLI 131453Z 00000KT 10SM CLR M02/M03 A3017 RMK AO2 SLP224 T10171028 53001=
201901131353 METAR KBLI 131353Z AUTO 00000KT 10SM CLR M01/M02 A3016 RMK AO2 SLP222 T10061022=
201901131253 METAR KBLI 131253Z AUTO 00000KT 10SM CLR 01/M01 A3016 RMK AO2 SLP222 T00061011=
201901131153 METAR KBLI 131153Z AUTO 00000KT 10SM CLR 01/M01 A3016 RMK AO2 SLP223 T00061011 10044 21006 50009=
201901131053 METAR KBLI 131053Z AUTO 01003KT 10SM CLR 00/M02 A3016 RMK AO2 SLP223 T00001017=
201901130953 METAR KBLI 130953Z AUTO 00000KT 10SM CLR 01/M01 A3016 RMK AO2 SLP220 T00061006=
201901130853 METAR KBLI 130853Z AUTO 36003KT 10SM CLR 01/M01 A3014 RMK AO2 SLP213 T00111011 51007=
201901130753 METAR KBLI 130753Z AUTO 36004KT 10SM CLR 03/00 A3013 RMK AO2 SLP211 T00280000 401171017=
201901130653 METAR KBLI 130653Z AUTO 00000KT 10SM CLR 02/M01 A3013 RMK AO2 SLP211 T00171006=
201901130553 METAR KBLI 130553Z 35003KT 10SM CLR 04/00 A3011 RMK AO2 SLP207 T00390000 10100 20033 52016=
201901130453 METAR KBLI 130453Z 03004KT 10SM CLR 04/01 A3010 RMK AO2 SLP202 T00440006=
201901130353 METAR KBLI 130353Z 35006KT 10SM CLR 03/01 A3008 RMK AO2 SLP196 T00330006=
201901130253 METAR KBLI 130253Z 36003KT 10SM CLR 06/01 A3007 RMK AO2 SLP190 T00560011 53014=
201901130153 METAR KBLI 130153Z 36006KT 10SM CLR 06/01 A3005 RMK AO2 SLP186 T00560011=
201901130053 METAR KBLI 130053Z 03004KT 10SM CLR 08/02 A3003 RMK AO2 SLP176 T00780022=
201901122353 METAR KBLI 122353Z 02005KT 10SM CLR 10/03 A3002 RMK AO2 SLP176 T01000028 10117 20050 53007=
201901122253 METAR KBLI 122253Z 36006KT 10SM CLR 11/02 A3001 RMK AO2 SLP171 T01110022=
201901122153 METAR KBLI 122153Z 02005KT 10SM CLR 12/02 A3000 RMK AO2 SLP167 T01170022=
201901122053 METAR KBLI 122053Z 36003KT 10SM CLR 11/03 A3000 RMK AO2 SLP168 T01060028 50002=
201901121953 METAR KBLI 121953Z 14003KT 10SM CLR 08/03 A3001 RMK AO2 SLP171 T00830028=
201901121853 METAR KBLI 121853Z 16005KT 10SM CLR 07/02 A3001 RMK AO2 SLP172 T00720017=
201901121753 METAR KBLI 121753Z 00000KT 10SM CLR 05/02 A3000 RMK AO2 SLP167 I6001 T00500022 10050 21017 53016=
201901121653 METAR KBLI 121653Z 00000KT 10SM CLR 00/M01 A2998 RMK AO2 SLP162 I1000 T00001011=
201901121553 METAR KBLI 121553Z 00000KT 10SM CLR M01/M03 A2996 RMK AO2 SLP156 T10111033=
201901121453 METAR KBLI 121453Z 00000KT 10SM CLR M01/M02 A2995 RMK AO2 SLP152 I3001 T10061017 56006=
201901121353 METAR KBLI 121353Z AUTO 36003KT 10SM FEW095 00/M01 A2996 RMK AO2 SLP154 I1000 T00001011=
201901121253 METAR KBLI 121253Z AUTO 01003KT 10SM FEW100 01/M02 A2996 RMK AO2 SLP154 I1001 T00061017=
201901121153 METAR KBLI 121153Z AUTO 00000KT 10SM CLR 00/M02 A2997 RMK AO2 SLP158 I1001 I6001 T00001017 10039 21006 51009=
201901121053 METAR KBLI 121053Z AUTO 00000KT 10SM CLR 01/M01 A2996 RMK AO2 SLP156 T00061011=
201901120953 METAR KBLI 120953Z AUTO 35003KT 10SM CLR 01/00 A2996 RMK AO2 SLP152 T00110000=
201901120853 METAR KBLI 120853Z AUTO 34003KT 10SM CLR 03/01 A2994 RMK AO2 SLP148 T00280011 53000=
201901120753 METAR KBLI 120753Z AUTO 35003KT 10SM CLR 02/00 A2994 RMK AO2 SLP146 T00170000 401170011=
201901120653 METAR KBLI 120653Z AUTO 00000KT 10SM CLR 02/01 A2994 RMK AO2 SLP145 T00220006=
201901120553 METAR KBLI 120553Z 00000KT 10SM CLR 02/01 A2994 RMK AO2 SLP149 T00170006 10100 20011 52009=
201901120453 METAR KBLI 120453Z 00000KT 10SM CLR 03/01 A2994 RMK AO2 SLP146 T00280011=
201901120353 METAR KBLI 120353Z 00000KT 10SM CLR 03/01 A2992 RMK AO2 SLP141 T00330011=
201901120253 METAR KBLI 120253Z 00000KT 10SM CLR 04/02 A2991 RMK AO2 SLP139 T00440022 56010=
201901120153 METAR KBLI 120153Z 03006KT 10SM CLR 07/03 A2991 RMK AO2 SLP138 T00670028=
201901120053 METAR KBLI 120053Z 00000KT 10SM CLR 08/03 A2993 RMK AO2 SLP144 T00780028=
201901112353 METAR KBLI 112353Z 00000KT 10SM CLR 09/04 A2994 RMK AO2 SLP148 T00940039 10117 20078 55005=
201901112253 METAR KBLI 112253Z 01006KT 10SM CLR 11/04 A2994 RMK AO2 SLP146 T01060039=
201901112153 METAR KBLI 112153Z 35005KT 10SM CLR 11/04 A2994 RMK AO2 SLP147 T01110039=
201901112053 METAR KBLI 112053Z 35004KT 10SM CLR 11/04 A2996 RMK AO2 SLP153 T01060039 56024=
201901111953 METAR KBLI 111953Z 03008KT 10SM CLR 11/03 A2997 RMK AO2 SLP157 T01110033=
201901111853 METAR KBLI 111853Z 03008KT 10SM CLR 10/03 A3001 RMK AO2 SLP170 T01000033=
201901111753 METAR KBLI 111753Z 36004KT 10SM OVC110 07/03 A3003 RMK AO2 SLP177 T00720033 10072 20039 50007=
201901111653 METAR KBLI 111653Z 34004KT 10SM OVC090 06/03 A3003 RMK AO2 SLP177 T00560033=
201901111553 METAR KBLI 111553Z 35003KT 10SM BKN120 04/03 A3001 RMK AO2 SLP171 T00440028=
201901111453 METAR KBLI 111453Z 00000KT 10SM CLR 05/03 A3001 RMK AO2 SLP169 T00500028 56009=
201901111353 METAR KBLI 111353Z AUTO 00000KT 10SM FEW110 05/03 A3001 RMK AO2 SLP169 T00500033=
201901111253 METAR KBLI 111253Z AUTO 00000KT 10SM OVC110 05/03 A3002 RMK AO2 SLP173 T00500033=
201901111153 METAR KBLI 111153Z AUTO 00000KT 10SM BKN120 05/03 A3003 RMK AO2 SLP179 T00500033 10083 20044 58002=
201901111053 METAR KBLI 111053Z AUTO 00000KT 10SM OVC120 06/03 A3005 RMK AO2 SLP185 T00560033=
201901110953 METAR KBLI 110953Z AUTO 00000KT 10SM CLR 06/03 A3005 RMK AO2 SLP184 T00560033=
201901110853 METAR KBLI 110853Z AUTO 03004KT 10SM CLR 06/03 A3004 RMK AO2 SLP181 T00560033 56007=
201901110753 METAR KBLI 110753Z AUTO 01005KT 10SM CLR 06/03 A3004 RMK AO2 SLP182 T00610033 401280061=
201901110653 METAR KBLI 110653Z AUTO 01006KT 10SM BKN070 07/04 A3005 RMK AO2 SLP185 T00720044=
201901110553 METAR KBLI 110553Z 36004KT 10SM OVC060 08/05 A3006 RMK AO2 SLP188 T00830050 10122 20067 52003=
201901110453 METAR KBLI 110453Z 03006KT 10SM FEW050 BKN110 07/05 A3006 RMK AO2 SLP186 T00720050=
201901110353 METAR KBLI 110353Z 03007KT 10SM FEW020 BKN048 BKN110 09/06 A3006 RMK AO2 SLP185 T00890061=
201901110253 METAR KBLI 110253Z 03003KT 10SM FEW020 BKN045 BKN080 09/06 A3005 RMK AO2 SLP183 T00940056 56005=
201901110153 METAR KBLI 110153Z 11008KT 10SM SCT080 OVC110 12/05 A3005 RMK AO2 SLP184 T01220050=
201901110053 METAR KBLI 110053Z 12009KT 10SM FEW020 BKN038 BKN120 11/05 A3006 RMK AO2 SLP186 T01110050=
201901102353 METAR KBLI 102353Z 15011KT 10SM OVC034 12/06 A3007 RMK AO2 SLP189 T01220056 10128 20106 53004=
201901102253 METAR KBLI 102253Z 14011KT 10SM SCT025 BKN043 BKN058 12/05 A3006 RMK AO2 SLP187 T01220050=
201901102225 SPECI KBLI 102225Z 15012KT 10SM SCT025 BKN043 BKN058 12/05 A3006 RMK AO2 T01220050=
201901102153 METAR KBLI 102153Z 16008G17KT 10SM OVC028 12/05 A3006 RMK AO2 SLP185 T01220050=
201901102053 METAR KBLI 102053Z 14010KT 10SM OVC028 12/07 A3006 RMK AO2 SLP184 T01170067 58002=
201901101953 METAR KBLI 101953Z 15007KT 10SM BKN025 OVC037 11/07 A3007 RMK AO2 SLP191 T01110072=
201901101948 SPECI KBLI 101948Z 16010KT 10SM BKN025 OVC037 11/07 A3008 RMK AO2=
201901101853 METAR KBLI 101853Z 15011KT 10SM SCT024 SCT029 OVC039 11/07 A3006 RMK AO2 SLP187 T01110067=
201901101849 SPECI KBLI 101849Z 16012KT 10SM SCT024 SCT029 OVC039 11/07 A3006 RMK AO2=
201901101753 METAR KBLI 101753Z 16009KT 10SM SCT019 BKN025 OVC039 11/07 A3006 RMK AO2 SLP185 60000 T01060067 10106 20094 53026=
201901101653 METAR KBLI 101653Z 15012G17KT 10SM BKN019 BKN027 OVC039 11/07 A3004 RMK AO2 SLP178 T01060067=
201901101553 METAR KBLI 101553Z 15015G22KT 10SM OVC017 11/07 A3000 RMK AO2 RAB05E38 SLP166 P0000 T01060067=
201901101453 METAR KBLI 101453Z 15010G19KT 9SM OVC016 10/07 A2998 RMK AO2 SLP159 60000 T01000072 53012=
201901101353 METAR KBLI 101353Z AUTO 16008KT 10SM OVC018 10/07 A2995 RMK AO2 SLP149 T01000072=
201901101253 METAR KBLI 101253Z AUTO 15009KT 10SM OVC019 10/07 A2994 RMK AO2 RAB31E45 SLP146 P0000 T01000072=
201901101153 METAR KBLI 101153Z AUTO 16009KT 10SM OVC018 11/07 A2994 RMK AO2 SLP147 60001 70006 T01060072 10117 20100 51034=
201901101053 METAR KBLI 101053Z AUTO 15015G20KT 10SM OVC019 11/07 A2993 RMK AO2 PK WND 15027/0955 RAE0959B21E51 SLP140 P0000 T01110067=
201901100953 METAR KBLI 100953Z AUTO 16017G25KT 10SM -RA OVC018 11/07 A2989 RMK AO2 PK WND 15029/0936 RAB24 SLP128 P0001 T01060072=
201901100853 METAR KBLI 100853Z AUTO 16014G27KT 10SM OVC020 11/07 A2984 RMK AO2 PK WND 14027/0853 SLP113 T01110067 53036=
201901100753 METAR KBLI 100753Z AUTO 16016G27KT 10SM OVC021 12/07 A2981 RMK AO2 PK WND 16029/0722 SLP101 T01170067 401390039=
201901100653 METAR KBLI 100653Z AUTO 15018G28KT 10SM BKN026 12/06 A2977 RMK AO2 PK WND 12034/0626 SLP089 T01170061=
201901100553 METAR KBLI 100553Z 15024G35KT 10SM BKN029 12/06 A2974 RMK AO2 PK WND 14035/0552 SLP078 T01170056 10128 20117 53019=
201901100453 METAR KBLI 100453Z 14017G29KT 10SM OVC032 12/06 A2971 RMK AO2 PK WND 14032/0431 SLP069 T01170056=
201901100353 METAR KBLI 100353Z 15022G30KT 10SM OVC032 12/06 A2970 RMK AO2 PK WND 13035/0317 SLP065 T01220056=
201901100253 METAR KBLI 100253Z 14019G30KT 10SM BKN034 OVC080 12/06 A2968 RMK AO2 PK WND 15035/0221 SLP059 T01170056 53014=
201901100153 METAR KBLI 100153Z 14018G24KT 10SM FEW040 OVC080 12/05 A2966 RMK AO2 PK WND 14038/0127 SLP052 T01220050=
201901100053 METAR KBLI 100053Z 14021G32KT 10SM SCT043 BKN090 OVC120 13/05 A2964 RMK AO2 PK WND 14032/0050 SLP045 T01280050=
201901092353 METAR KBLI 092353Z 13016G24KT 10SM BKN048 OVC090 12/04 A2964 RMK AO2 PK WND 13029/2340 SLP044 T01220044 10139 20044 53001=
201901092253 METAR KBLI 092253Z 13018G26KT 10SM SCT049 OVC100 12/05 A2963 RMK AO2 PK WND 13035/2204 SLP042 T01220050=
201901092156 SPECI KBLI 092156Z 13023G35KT 10SM SCT049 BKN095 13/05 A2963 RMK AO2 PK WND 12031/2155 T01280050=
201901092153 METAR KBLI 092153Z 13027G35KT 10SM BKN049 BKN100 13/05 A2963 RMK AO2 PK WND 13035/2152 SLP041 T01280050=
201901092053 METAR KBLI 092053Z 13009KT 110V180 10SM FEW060 OVC110 13/05 A2963 RMK AO2 SLP043 T01280050 58022=
201901091953 METAR KBLI 091953Z 01005KT 10SM SCT110 06/04 A2965 RMK AO2 SLP050 T00610039=
201901091853 METAR KBLI 091853Z 01006KT 10SM FEW100 06/04 A2968 RMK AO2 SLP060 T00610044=
201901091753 METAR KBLI 091753Z 01005KT 10SM SCT050 BKN100 04/03 A2970 RMK AO2 SLP066 60005 T00440033 10044 20039 51011=
201901091653 METAR KBLI 091653Z 36004KT 10SM FEW065 BKN090 OVC110 04/03 A2969 RMK AO2 RAE47 SLP064 P0000 T00390028=
201901091553 METAR KBLI 091553Z 36004KT 10SM -RA OVC065 04/03 A2968 RMK AO2 SLP060 P0002 T00390028=
201901091453 METAR KBLI 091453Z 34004KT 10SM -RA OVC090 04/03 A2967 RMK AO2 RAB1354E09B46 SLP054 P0000 60003 T00390028 55011=
201901091353 METAR KBLI 091353Z AUTO 01006KT 10SM FEW043 BKN065 OVC080 04/03 A2966 RMK AO2 RAE52 SLP053 P0002 T00440028=
201901091253 METAR KBLI 091253Z AUTO 01003KT 10SM -RA OVC065 04/03 A2968 RMK AO2 SLP058 P0001 T00440028=
201901091153 METAR KBLI 091153Z AUTO 00000KT 10SM -RA OVC060 04/03 A2970 RMK AO2 SLP065 P0003 60004 70006 T00390028 10050 20039 58005=
201901091053 METAR KBLI 091053Z AUTO 36003KT 10SM -RA OVC060 04/02 A2972 RMK AO2 RAB14 SLP072 P0001 T00440022=
201901090953 METAR KBLI 090953Z AUTO 02006KT 10SM SCT065 SCT080 OVC110 04/02 A2971 RMK AO2 SLP068 T00440017=
201901090853 METAR KBLI 090853Z AUTO 01008KT 10SM FEW085 04/01 A2971 RMK AO2 SLP070 60000 T00390011 58029=
201901090753 METAR KBLI 090753Z AUTO 02011KT 10SM BKN080 OVC100 04/01 A2975 RMK AO2 RAE15 SLP082 P0000 T00390011 400501006=
201901090653 METAR KBLI 090653Z AUTO 03009KT 10SM -RA BKN080 OVC100 04/02 A2977 RMK AO2 RAB34 SLP090 P0000 T00390017=
201901090553 METAR KBLI 090553Z 02006KT 10SM OVC070 04/02 A2980 RMK AO2 SLP099 60001 T00390017 10039 20033 58009=
201901090453 METAR KBLI 090453Z 02006KT 10SM OVC080 03/02 A2982 RMK AO2 RAE50 SLP106 P0000 T00330017=
201901090353 METAR KBLI 090353Z 02007KT 10SM -RA OVC080 03/01 A2981 RMK AO2 RAB19 SLP104 P0001 T00330006=
201901090253 METAR KBLI 090253Z 02008KT 10SM FEW050 FEW090 BKN110 04/00 A2982 RMK AO2 RAB08E27 SLP109 P0000 60000 T00390000 58013=
201901090153 METAR KBLI 090153Z 03010G16KT 10SM SCT055 BKN080 OVC110 03/M01 A2984 RMK AO2 RAE0059 SLP115 P0000 T00331006=
201901090053 METAR KBLI 090053Z 02011KT 10SM -RA SCT048 BKN055 OVC085 03/M01 A2985 RMK AO2 RAB2355 SLP118 P0000 T00331006=
201901082353 METAR KBLI 082353Z 02013KT 10SM BKN046 BKN060 OVC080 04/M02 A2986 RMK AO2 RAE09B25E50 SLP122 P0000 60001 T00391017 10050 20039 56027=
201901082253 METAR KBLI 082253Z 03013G19KT 10SM -RA OVC045 04/M02 A2989 RMK AO2 RAB03 SLP129 P0001 T00391017=
201901082153 METAR KBLI 082153Z 03010G17KT 10SM OVC047 05/M04 A2991 RMK AO2 RAB20E32 SLP137 P0000 T00501039=
201901082053 METAR KBLI 082053Z 04010G20KT 10SM OVC050 04/M04 A2995 RMK AO2 SLP149 T00441039 58042=
201901081953 METAR KBLI 081953Z 02015G22KT 10SM OVC046 04/M06 A2998 RMK AO2 PRESFR SLP162 T00441061=
201901081853 METAR KBLI 081853Z 03010G19KT 10SM BKN050 OVC060 05/M07 A3004 RMK AO2 SLP182 T00501067=
201901081753 METAR KBLI 081753Z 04009KT 10SM SCT046 OVC060 04/M06 A3007 RMK AO2 SLP191 T00441061 10044 20022 55001=
201901081653 METAR KBLI 081653Z 04011G20KT 10SM BKN065 OVC075 04/M07 A3006 RMK AO2 SLP187 T00391072=
201901081553 METAR KBLI 081553Z 03014KT 10SM BKN080 OVC095 04/M07 A3005 RMK AO2 SLP185 T00391072=
201901081453 METAR KBLI 081453Z 03011G21KT 10SM BKN110 03/M07 A3007 RMK AO2 SLP193 T00331067 56024=
201901081353 METAR KBLI 081353Z AUTO 03012G18KT 10SM CLR 03/M07 A3009 RMK AO2 SLP197 T00281067=
201901081253 METAR KBLI 081253Z AUTO 03014G20KT 10SM CLR 02/M07 A3011 RMK AO2 SLP206 T00221067=
201901081153 METAR KBLI 081153Z AUTO 03013G21KT 10SM CLR 02/M06 A3014 RMK AO2 SLP217 T00221061 10022 21011 58015=
201901081053 METAR KBLI 081053Z AUTO 04009KT 10SM CLR 01/M06 A3017 RMK AO2 SLP226 T00111056=
201901080953 METAR KBLI 080953Z AUTO 03008KT 10SM CLR 01/M05 A3019 RMK AO2 SLP233 T00111050=
201901080853 METAR KBLI 080853Z AUTO 02011G18KT 10SM CLR 00/M04 A3019 RMK AO2 SLP232 T00001044 58023=
201901080753 METAR KBLI 080753Z AUTO 01008KT 10SM CLR M01/M04 A3022 RMK AO2 SLP242 T10061039 400721022=
201901080653 METAR KBLI 080653Z AUTO 01007KT 10SM CLR M01/M03 A3025 RMK AO2 SLP252 T10061033=
201901080553 METAR KBLI 080553Z 01006KT 10SM CLR M01/M03 A3026 RMK AO2 SLP256 T10061028 10044 21022 50004=
201901080453 METAR KBLI 080453Z 02005KT 10SM CLR M01/M02 A3027 RMK AO2 SLP260 T10111022=
201901080353 METAR KBLI 080353Z 00000KT 10SM CLR M01/M02 A3027 RMK AO2 SLP260 T10111022=
201901080253 METAR KBLI 080253Z 00000KT 10SM CLR M01/M02 A3025 RMK AO2 SLP252 T10061022 51016=
201901080153 METAR KBLI 080153Z 00000KT 10SM CLR 00/M02 A3023 RMK AO2 SLP247 T00001022=
201901080053 METAR KBLI 080053Z 00000KT 10SM CLR 02/M01 A3022 RMK AO2 SLP243 T00171011=
201901072353 METAR KBLI 072353Z 01005KT 10SM CLR 04/M02 A3020 RMK AO2 SLP236 60000 T00441017 10072 20044 51026=
201901072253 METAR KBLI 072253Z 00000KT 10SM CLR 06/M03 A3018 RMK AO2 SLP228 T00611028=
201901072153 METAR KBLI 072153Z 18003KT 10SM SCT035 SCT050 06/M02 A3015 RMK AO2 SLP219 T00611022=
201901072053 METAR KBLI 072053Z VRB03KT 10SM SCT030 BKN060 06/M02 A3013 RMK AO2 SLP210 60000 T00611017 51029=
201901071953 METAR KBLI 071953Z 00000KT 10SM SCT030 SCT060 06/M01 A3010 RMK AO2 SLP201 T00611011=
201901071853 METAR KBLI 071853Z VRB03KT 10SM CLR 05/00 A3008 RMK AO2 RAB22E32 SLP195 P0000 T00500000=
201901071753 METAR KBLI 071753Z VRB03KT 10SM SCT025 BKN035 BKN060 05/01 A3004 RMK AO2 SLP181 60000 T00500006 10050 20033 53047=
201901071653 METAR KBLI 071653Z 28004KT 10SM SCT026 BKN034 04/01 A2999 RMK AO2 RAB34E43 PRESRR SLP166 VIRGA NNE P0000 T00390006=
201901071553 METAR KBLI 071553Z 00000KT 10SM SCT037 BKN050 BKN060 04/M01 A2994 RMK AO2 SLP148 T00441006=
201901071453 METAR KBLI 071453Z 15003KT 10SM SCT040 BKN060 04/01 A2990 RMK AO2 SLP134 60000 T00390011 53045=
201901071428 SPECI KBLI 071428Z AUTO VRB03KT 10SM SCT023 BKN060 04/01 A2988 RMK AO2 T00390011=
201901071353 METAR KBLI 071353Z AUTO 00000KT 10SM OVC023 04/02 A2985 RMK AO2 SLP116 T00440017=
201901071307 SPECI KBLI 071307Z AUTO 18006KT 10SM SCT014 OVC021 04/02 A2980 RMK AO2 T00440022=
201901071253 METAR KBLI 071253Z AUTO 15005KT 10SM BKN012 OVC024 04/02 A2978 RMK AO2 RAE00 SLP093 P0000 T00390022=
201901071153 METAR KBLI 071153Z AUTO 15011KT 8SM -RA BKN011 OVC017 03/02 A2977 RMK AO2 SLP088 P0002 60006 70030 T00330017 10039 20017 51031=
201901071053 METAR KBLI 071053Z AUTO 17010KT 7SM -RA BKN013 OVC021 03/02 A2974 RMK AO2 RAB0959 SLP080 P0004 T00330017=
201901071033 SPECI KBLI 071033Z AUTO 18009KT 8SM -RA SCT016 BKN022 OVC046 04/02 A2973 RMK AO2 RAB0959 P0001 T00390022=
201901070953 METAR KBLI 070953Z AUTO 17010KT 10SM OVC065 04/02 A2971 RMK AO2 SLP069 T00390017=
201901070853 METAR KBLI 070853Z AUTO 17004KT 10SM SCT014 SCT019 BKN090 02/01 A2967 RMK AO2 SLP057 T00220006 53024=
201901070753 METAR KBLI 070753Z AUTO 14005KT 10SM SCT050 BKN090 02/01 A2964 RMK AO2 SLP047 T00220006 400830011=
201901070653 METAR KBLI 070653Z AUTO 16003KT 10SM BKN041 BKN100 02/01 A2962 RMK AO2 SLP040 T00220006=
201901070623 SPECI KBLI 070623Z 00000KT 10SM SCT028 SCT100 02/01 A2961 RMK AO2 T00170006=
201901070553 METAR KBLI 070553Z 07004KT 10SM BKN028 OVC041 02/01 A2960 RMK AO2 SLP033 60024 T00170006 10061 20011 51013=
201901070453 METAR KBLI 070453Z 00000KT 10SM FEW027 BKN075 OVC110 02/01 A2959 RMK AO2 RAE31 SLP030 P0009 T00170006=
201901070441 SPECI KBLI 070441Z 05003KT 10SM SCT028 BKN050 OVC080 02/01 A2959 RMK AO2 RAE31 P0009 T00220011=
201901070401 SPECI KBLI 070401Z 01004KT 4SM RA BR OVC019 01/00 A2959 RMK AO2 P0002 T00110000=
201901070353 METAR KBLI 070353Z 36003KT 2 1/2SM +RA BR OVC019 01/00 A2959 RMK AO2 RAB24 SLP029 P0015 T00110000=
201901070326 SPECI KBLI 070326Z 30008KT 9SM -RA FEW008 BKN017 OVC021 03/01 A2958 RMK AO2 RAB24 P0001 T00330011=
201901070253 METAR KBLI 070253Z 34004KT 10SM OVC019 04/02 A2957 RMK AO2 SLP021 60000 T00440017 52006=
201901070229 SPECI KBLI 070229Z 11005KT 10SM SCT019 BKN025 OVC033 06/02 A2956 RMK AO2 T00560017=
201901070153 METAR KBLI 070153Z 16006KT 10SM FEW030 BKN045 OVC100 06/01 A2956 RMK AO2 RAB18E27 SLP017 P0000 T00610011=
201901070053 METAR KBLI 070053Z 16005KT 10SM FEW030 OVC100 06/01 A2955 RMK AO2 SLP016 T00610011=
201901062353 METAR KBLI 062353Z 16007KT 10SM FEW019 BKN070 07/03 A2955 RMK AO2 SLP013 60000 T00670028 10072 20056 53002=
201901062253 METAR KBLI 062253Z 16009KT 10SM SCT018 BKN080 OVC120 07/02 A2954 RMK AO2 LTG DSNT NW SLP010 T00670022=
201901062153 METAR KBLI 062153Z 16012G16KT 10SM SCT015 BKN035 BKN080 07/02 A2954 RMK AO2 SLP011 T00670022=
201901062053 METAR KBLI 062053Z 17009G19KT 10SM FEW015 BKN035 BKN065 07/03 A2954 RMK AO2 SLP012 60000 T00720028 50001=
201901061953 METAR KBLI 061953Z 17010KT 10SM FEW015 SCT030 BKN065 07/03 A2954 RMK AO2 RAE1859 SLP012 P0000 T00720028=
201901061853 METAR KBLI 061853Z 16010KT 10SM -RA SCT020 BKN035 06/03 A2954 RMK AO2 RAB18 SLP011 P0000 T00610028=
201901061753 METAR KBLI 061753Z 17012G18KT 10SM SCT036 SCT049 OVC070 06/02 A2954 RMK AO2 SLP010 60000 T00610022 10072 20056 51027=
201901061653 METAR KBLI 061653Z 16008KT 10SM SCT032 SCT075 06/02 A2951 RMK AO2 RAB13E22 SLP002 P0000 T00560022=
201901061553 METAR KBLI 061553Z 18009G18KT 10SM SCT025 BKN032 BKN090 06/02 A2949 RMK AO2 RAE04 SLP994 P0000 T00610017=
201901061453 METAR KBLI 061453Z 19009G23KT 170V230 10SM -RA SCT023 SCT042 BKN060 06/02 A2946 RMK AO2 RAB53 SLP983 P0000 60000 T00610017 51082=
201901061353 METAR KBLI 061353Z AUTO 19008G22KT 150V210 10SM SCT027 07/01 A2941 RMK AO2 PRESRR SLP968 T00720011=
201901061253 METAR KBLI 061253Z AUTO 18013G20KT 160V220 10SM FEW037 SCT065 OVC085 07/01 A2934 RMK AO2 RAE09 SLP943 P0000 T00670011=
201901061153 METAR KBLI 061153Z AUTO 19009G25KT 150V230 10SM -RA FEW026 BKN050 OVC065 06/03 A2921 RMK AO2 PK WND 16035/1115 PRESRR SLP900 P0007 60012 70013 T00560033 10083 20056 53023=
201901061145 SPECI KBLI 061145Z AUTO 19013G28KT 160V220 7SM -RA FEW023 SCT030 OVC040 06/03 A2920 RMK AO2 PK WND 16035/1115 PRESRR P0007 T00560033=
201901061126 SPECI KBLI 061126Z AUTO 15025G34KT 5SM -RA BKN023 OVC032 08/04 A2916 RMK AO2 PK WND 16035/1115 LTG DSNT S P0003 T00780044=
201901061114 SPECI KBLI 061114Z AUTO 15020G31KT 10SM -RA SCT025 OVC032 08/04 A2916 RMK AO2 PK WND 14031/1114 LTG DSNT S P0001 T00830044=
201901061053 METAR KBLI 061053Z AUTO 14012KT 10SM -RA BKN029 OVC035 08/04 A2916 RMK AO2 SLP881 P0001 T00830044=
201901060953 METAR KBLI 060953Z AUTO 00000KT 10SM -RA BKN047 OVC055 06/04 A2914 RMK AO2 RAE02B27 SLP876 P0000 T00610044=
201901060853 METAR KBLI 060853Z AUTO 00000KT 10SM -RA BKN047 OVC060 07/04 A2915 RMK AO2 RAE27B47 SLP877 P0000 60004 T00670044 56013=
201901060753 METAR KBLI 060753Z AUTO 00000KT 10SM -RA OVC045 06/04 A2915 RMK AO2 RAB00 SLP880 P0004 T00610044 401000044=
201901060653 METAR KBLI 060653Z AUTO 04005KT 10SM FEW060 OVC080 07/03 A2917 RMK AO2 RAB0558E14 SLP887 P0000 T00720033=
201901060553 METAR KBLI 060553Z 01008KT 10SM FEW060 OVC080 07/03 A2918 RMK AO2 SLP890 60001 T00670033 10100 20067 56029=
201901060453 METAR KBLI 060453Z 36007KT 10SM BKN110 07/03 A2920 RMK AO2 SLP897 T00670033=
201901060353 METAR KBLI 060353Z 03007KT 10SM BKN048 BKN095 08/04 A2922 RMK AO2 RAE53 PRESFR SLP903 P0000 T00780039=
201901060253 METAR KBLI 060253Z 13014KT 10SM -RA BKN048 OVC060 09/03 A2927 RMK AO2 SLP919 P0001 60001 T00940033 58018=
201901060153 METAR KBLI 060153Z 17004KT 10SM -RA SCT020 BKN050 OVC065 08/03 A2930 RMK AO2 RAB06 SLP928 P0000 T00830033=
201901060053 METAR KBLI 060053Z 01004KT 10SM BKN065 OVC080 07/03 A2931 RMK AO2 SLP932 T00670033=
201901052353 METAR KBLI 052353Z 00000KT 10SM OVC100 08/03 A2932 RMK AO2 SLP937 T00780028 10089 20072 57031=
201901052253 METAR KBLI 052253Z 18003KT 10SM OVC100 08/03 A2935 RMK AO2 SLP948 T00830028=
201901052153 METAR KBLI 052153Z 06003KT 10SM OVC095 09/02 A2938 RMK AO2 SLP958 T00890022=
201901052053 METAR KBLI 052053Z 04005KT 10SM SCT120 09/02 A2941 RMK AO2 SLP968 T00890022 58038=
201901051953 METAR KBLI 051953Z 03008KT 10SM CLR 08/02 A2946 RMK AO2 SLP983 T00830022=
201901051853 METAR KBLI 051853Z 02008KT 10SM SCT120 08/02 A2950 RMK AO2 SLP997 T00780017=
201901051753 METAR KBLI 051753Z 02008KT 10SM CLR 07/01 A2953 RMK AO2 SLP007 T00720011 10072 20044 58025=
201901051653 METAR KBLI 051653Z 02007KT 10SM CLR 07/01 A2957 RMK AO2 SLP019 T00670011=
201901051553 METAR KBLI 051553Z 02005KT 10SM FEW120 06/01 A2958 RMK AO2 SLP025 T00560011=
201901051453 METAR KBLI 051453Z 01006KT 10SM BKN110 06/02 A2960 RMK AO2 SLP032 T00560017 56027=
201901051353 METAR KBLI 051353Z AUTO 02007KT 10SM BKN110 06/02 A2963 RMK AO2 SLP040 T00560017=
201901051253 METAR KBLI 051253Z AUTO 03004KT 10SM SCT049 06/02 A2965 RMK AO2 SLP050 T00610022=
201901051153 METAR KBLI 051153Z AUTO 02007KT 10SM BKN050 OVC060 06/02 A2968 RMK AO2 SLP060 T00610022 10094 20050 58021=
201901051053 METAR KBLI 051053Z AUTO 02007KT 10SM OVC070 06/02 A2971 RMK AO2 SLP070 T00610022=
201901050953 METAR KBLI 050953Z AUTO 01007KT 10SM OVC100 06/03 A2973 RMK AO2 SLP076 T00560028=
201901050853 METAR KBLI 050853Z AUTO 36004KT 10SM CLR 05/02 A2975 RMK AO2 SLP081 T00500022 58020=
201901050753 METAR KBLI 050753Z AUTO 02004KT 10SM SCT039 07/03 A2977 RMK AO2 SLP088 T00670028 401110067=
201901050653 METAR KBLI 050653Z AUTO 00000KT 10SM FEW044 08/03 A2980 RMK AO2 SLP098 T00830028=
201901050553 METAR KBLI 050553Z 12006KT 10SM CLR 09/03 A2981 RMK AO2 SLP100 T00940033 10106 20094 58006=
201901050453 METAR KBLI 050453Z 15009KT 10SM SCT038 10/03 A2982 RMK AO2 SLP104 T01000033=
201901050353 METAR KBLI 050353Z 16006KT 10SM SCT038 09/03 A2982 RMK AO2 SLP107 T00940033=
201901050253 METAR KBLI 050253Z 15011KT 10SM BKN036 OVC095 10/04 A2982 RMK AO2 SLP106 T01000039 53011=
201901050153 METAR KBLI 050153Z 15012KT 10SM SCT041 OVC090 10/04 A2981 RMK AO2 SLP102 T01000039=
201901050053 METAR KBLI 050053Z 16007KT 10SM SCT034 BKN041 OVC090 10/04 A2980 RMK AO2 SLP099 T01000039=
201901042353 METAR KBLI 042353Z 16011G22KT 10SM SCT031 BKN050 OVC080 11/04 A2979 RMK AO2 SLP095 T01060039 10111 20100 53012=
201901042253 METAR KBLI 042253Z 16012G17KT 10SM SCT070 OVC090 11/05 A2978 RMK AO2 SLP091 T01110050=
201901042153 METAR KBLI 042153Z 16011KT 10SM FEW030 BKN075 OVC100 11/04 A2976 RMK AO2 PK WND 14027/2059 SLP085 T01060044=
201901042053 METAR KBLI 042053Z 15018G27KT 10SM FEW075 11/05 A2976 RMK AO2 PK WND 15027/2026 SLP084 T01110050 51009=
201901041953 METAR KBLI 041953Z 16015G23KT 10SM FEW110 11/05 A2975 RMK AO2 PK WND 15029/1926 SLP080 T01060050=
201901041853 METAR KBLI 041853Z 16015G27KT 10SM FEW070 FEW090 SCT110 11/04 A2975 RMK AO2 PK WND 14031/1832 SLP079 T01060044=
201901041753 METAR KBLI 041753Z 15020G31KT 10SM SCT025 BKN070 OVC085 10/05 A2973 RMK AO2 PK WND 15036/1732 SLP075 60000 T01000050 10100 20089 53022=
201901041738 SPECI KBLI 041738Z 15018G36KT 10SM FEW020 SCT060 OVC085 10/05 A2973 RMK AO2 PK WND 15036/1732 T01000050=
201901041653 METAR KBLI 041653Z 15018G30KT 10SM BKN028 BKN060 OVC090 09/05 A2970 RMK AO2 PK WND 15030/1632 SLP065 T00940050=
201901041553 METAR KBLI 041553Z 16015G30KT 10SM SCT021 BKN028 OVC085 09/05 A2969 RMK AO2 PK WND 15030/1540 RAE13 SLP059 P0000 T00940050 $=
201901041546 SPECI KBLI 041546Z 16019G30KT 10SM SCT021 BKN028 OVC085 09/05 A2969 RMK AO2 PK WND 15030/1540 RAE13 P0000 T00940050 $=
201901041453 METAR KBLI 041453Z 15019G29KT 10SM -RA SCT021 BKN055 OVC080 09/06 A2967 RMK AO2 PK WND 15031/1415 RAE1357B43 SLP052 P0000 60000 T00940056 $=
201901041353 METAR KBLI 041353Z AUTO 16017G28KT 10SM -RA SCT022 BKN034 OVC055 09/06 RMK AO2 PK WND 15035/1343 RAB48 SLPNO P0000 T00940056 $=
201901041343 SPECI KBLI 041343Z AUTO 15024G35KT 10SM SCT024 BKN048 OVC055 09/05 RMK AO2 PK WND 15035/1343 T00940050 $=
201901041253 METAR KBLI 041253Z AUTO 16018G28KT 10SM BKN026 OVC065 09/05 RMK AO2 PK WND 14030/1242 SLPNO T00940050 $=
201901041230 SPECI KBLI 041230Z AUTO 15020G29KT 10SM BKN025 OVC075 09/05 RMK AO2 PK WND 15030/1158 T00890050 $=
201901041221 SPECI KBLI 041221Z AUTO 14020G29KT 10SM SCT025 OVC075 09/05 RMK AO2 PK WND 15030/1158 T00890050 $=
201901041153 METAR KBLI 041153Z AUTO 15016G29KT 10SM BKN021 BKN026 OVC080 09/06 RMK AO2 PK WND 15030/1120 SLPNO 60007 70083 T00890056 10122 20089 $=
201901041053 METAR KBLI 041053Z AUTO 16012G27KT 10SM OVC020 09/06 RMK AO2 PK WND 16027/1044 SLPNO T00940061 $=
201901041012 SPECI KBLI 041012Z AUTO 15019G25KT 10SM FEW016 BKN026 09/06 RMK AO2 T00940061 $=
201901040953 METAR KBLI 040953Z AUTO 15015G20KT 10SM FEW015 09/06 RMK AO2 SLPNO T00890061 $=
201901040900 SPECI KBLI 040900Z AUTO 16008KT 10SM FEW016 BKN070 09/07 RMK AO2 T00890067 $=
201901040853 METAR KBLI 040853Z AUTO 16008KT 10SM SCT014 BKN020 BKN070 09/07 RMK AO2 RAE17 SLPNO P0000 60007 T00890072 $=
201901040835 SPECI KBLI 040835Z AUTO 16010G17KT 10SM BKN016 BKN050 09/07 RMK AO2 RAE17 P0000 T00890072 $=
201901040818 SPECI KBLI 040818Z AUTO 17005KT 10SM BKN014 BKN021 OVC031 09/07 RMK AO2 RAE17 P0000 T00890067 $=
201901040753 METAR KBLI 040753Z AUTO 18011G18KT 6SM -RA BR BKN017 OVC022 09/07 RMK AO2 PK WND 16037/0706 SLPNO P0005 T00940072 401220078 $=
201901040725 SPECI KBLI 040725Z AUTO 17016G29KT 10SM -RA FEW022 BKN028 OVC037 11/06 RMK AO2 PK WND 16037/0706 P0000 T01060061 $=
201901040653 METAR KBLI 040653Z AUTO 16017G29KT 10SM -RA FEW040 BKN055 OVC070 11/06 A2954 RMK AO2 PK WND 14042/0604 RAB0554 SLP008 P0002 T01110056 $=
201901040553 METAR KBLI 040553Z 15024G46KT 10SM BKN032 BKN065 OVC090 12/06 A2953 RMK AO2 PK WND 15046/0529 SLP004 60020 T01220056 10122 20094 56040 $=
201901040453 METAR KBLI 040453Z 16022G41KT 8SM BKN025 OVC075 12/07 A2956 RMK AO2 PK WND 15040/0440 RAE11 SLP014 P0000 T01170067 $=
201901040353 METAR KBLI 040353Z 16019G25KT 6SM -RA BKN016 OVC020 11/08 A2960 RMK AO2 SLP030 P0002 T01060078=
201901040253 METAR KBLI 040253Z 16013G22KT 6SM -RA BR BKN018 OVC020 10/08 A2965 RMK AO2 PK WND 17029/0205 SLP046 P0005 60018 T01000078 58019=
201901040153 METAR KBLI 040153Z 16014G25KT 9SM -RA OVC016 10/08 A2968 RMK AO2 SLP057 P0006 T01000078=
201901040053 METAR KBLI 040053Z 17012G21KT 7SM -RA OVC015 10/08 A2969 RMK AO2 SLP063 P0007 T01000078=
201901032353 METAR KBLI 032353Z 17013G25KT 6SM -RA BR BKN017 OVC050 10/08 A2970 RMK AO2 PK WND 17029/2310 SLP066 P0011 60038 T01000078 10111 20100 58002=
201901032253 METAR KBLI 032253Z 17016G24KT 4SM -RA BR SCT017 BKN027 OVC050 10/08 A2971 RMK AO2 PK WND 17027/2237 SLP069 P0013 T01000078=
201901032153 METAR KBLI 032153Z 16014G27KT 5SM -RA BKN019 BKN031 OVC055 11/08 A2970 RMK AO2 PK WND 16027/2144 SLP066 P0006 T01060078=
201901032053 METAR KBLI 032053Z 16016G23KT 3SM -RA BR BKN016 OVC024 10/08 A2971 RMK AO2 PK WND 15032/2005 RAB22 SLP068 P0005 60008 T01000078 58012=
201901031953 METAR KBLI 031953Z 15019G27KT 10SM OVC017 11/07 A2972 RMK AO2 PK WND 15030/1901 RAE37 SLP072 P0000 T01060072=
201901031853 METAR KBLI 031853Z 16017G25KT 10SM -RA OVC019 10/07 A2976 RMK AO2 PK WND 16031/1754 SLP085 P0003 T01000072=
201901031753 METAR KBLI 031753Z 15019G26KT 10SM -RA OVC019 10/07 A2974 RMK AO2 PK WND 15028/1655 SLP080 P0002 60018 T01000067 10100 20083 53002=
201901031718 SPECI KBLI 031718Z 15015G23KT 8SM -RA BKN021 OVC060 10/07 A2974 RMK AO2 PK WND 15028/1655 P0002 T01000072=
201901031653 METAR KBLI 031653Z 15019G29KT 7SM -RA SCT022 BKN050 OVC060 09/07 A2974 RMK AO2 PK WND 15030/1641 SLP080 P0003 T00940067=
201901031553 METAR KBLI 031553Z 15015G24KT 10SM -RA SCT019 OVC060 09/07 A2973 RMK AO2 PK WND 15035/1503 SLP074 P0004 T00940067=
201901031453 METAR KBLI 031453Z 15014G21KT 10SM -RA FEW043 OVC050 09/06 A2974 RMK AO2 SLP078 P0002 60009 T00940061 56031=
201901031353 METAR KBLI 031353Z AUTO 15014G20KT 10SM -RA FEW020 FEW026 OVC050 09/06 A2975 RMK AO2 SLP081 P0004 T00940061=
201901031253 METAR KBLI 031253Z AUTO 16010G21KT 10SM -RA FEW021 OVC047 09/06 A2978 RMK AO2 PK WND 15028/1157 SLP093 P0003 T00890061=
201901031153 METAR KBLI 031153Z AUTO 15017G21KT 6SM RA FEW020 OVC043 09/06 A2983 RMK AO2 PK WND 13032/1110 SLP109 P0008 60024 70065 T00890056 10089 20072 56003=
201901031053 METAR KBLI 031053Z AUTO 15016G21KT 8SM -RA FEW022 OVC046 08/06 A2983 RMK AO2 SLP110 P0006 T00830056=
201901031041 SPECI KBLI 031041Z AUTO 15012G25KT 6SM -RA FEW020 SCT036 OVC048 08/05 A2982 RMK AO2 P0005 T00830050=
201901030953 METAR KBLI 030953Z AUTO 14014G25KT 7SM -RA BKN022 BKN040 OVC050 08/05 A2983 RMK AO2 SLP108 P0003 T00830050=
201901030926 SPECI KBLI 030926Z AUTO 15012G22KT 10SM -RA BKN022 BKN027 OVC055 08/05 A2983 RMK AO2 P0001 T00830050=
201901030853 METAR KBLI 030853Z AUTO 14014G29KT 10SM -RA FEW024 OVC055 08/04 A2984 RMK AO2 PK WND 14031/0842 SLP112 P0003 60007 T00830044 58016=
201901030825 SPECI KBLI 030825Z AUTO 14017KT 10SM -RA SCT024 OVC060 08/04 A2983 RMK AO2 P0002 T00780044=
201901030801 SPECI KBLI 030801Z AUTO 14011G26KT 9SM -RA BKN024 OVC055 08/04 A2986 RMK AO2 P0001 T00780044=
201901030753 METAR KBLI 030753Z AUTO 14017G25KT 9SM -RA SCT024 BKN038 OVC055 08/04 A2986 RMK AO2 PK WND 13026/0657 SLP120 P0003 T00780044 400890006=
201901030748 SPECI KBLI 030748Z AUTO 15013G24KT 9SM -RA BKN024 BKN029 OVC055 08/04 A2987 RMK AO2 PK WND 13026/0657 P0003=
201901030653 METAR KBLI 030653Z AUTO 13018G21KT 10SM -RA FEW030 SCT049 OVC065 08/03 A2989 RMK AO2 SLP129 P0001 T00780033=
201901030553 METAR KBLI 030553Z 14013G20KT 10SM -RA SCT029 BKN050 OVC060 08/03 A2992 RMK AO2 SLP141 P0002 60039 T00780028 10078 20033 56026=
201901030453 METAR KBLI 030453Z 13014G23KT 8SM -RA BKN029 OVC060 07/02 A2993 RMK AO2 SLP143 P0005 T00720022=
201901030353 METAR KBLI 030353Z 13015G23KT 6SM -RA BKN029 OVC046 07/02 A2997 RMK AO2 SLP158 P0007 T00670022=
201901030253 METAR KBLI 030253Z 13012G18KT 5SM RA BKN035 OVC050 07/02 A3000 RMK AO2 SLP167 P0010 60025 T00670022 58016=
201901030153 METAR KBLI 030153Z 05005KT 5SM RA BR BKN035 OVC045 03/02 A3002 RMK AO2 SLP176 P0008 T00330017=
201901030053 METAR KBLI 030053Z 12006KT 5SM RA BKN043 OVC050 06/01 A3004 RMK AO2 SLP182 P0007 T00560006=
201901022353 METAR KBLI 022353Z 16009G15KT 5SM -RA OVC050 06/M01 A3004 RMK AO2 SLP183 P0001 60002 T00611006 10089 20028 55023=
201901022253 METAR KBLI 022253Z 13008KT 10SM -RA BKN050 OVC065 07/M02 A3001 RMK AO2 SLP171 P0001 T00721017=
201901022153 METAR KBLI 022153Z 05005KT 10SM -RA BKN050 OVC060 04/01 A3004 RMK AO2 RAB31 PRESFR SLP181 P0000 T00440011=
201901022053 METAR KBLI 022053Z 35006KT 10SM OVC060 04/01 A3011 RMK AO2 RAB22E31 SLP206 P0000 60000 T00390006 56012=
201901021953 METAR KBLI 021953Z 35003KT 10SM OVC065 04/01 A3011 RMK AO2 SLP206 T00390006=
201901021853 METAR KBLI 021853Z 34004KT 10SM OVC065 04/01 A3014 RMK AO2 SLP216 T00390006=
201901021753 METAR KBLI 021753Z 32004KT 10SM OVC065 03/01 A3015 RMK AO2 SLP219 T00280006 10033 20011 58015=
201901021653 METAR KBLI 021653Z 02004KT 10SM OVC065 02/00 A3019 RMK AO2 SLP231 T00220000=
201901021553 METAR KBLI 021553Z 00000KT 10SM OVC070 02/01 A3018 RMK AO2 SLP228 T00220006=
201901021453 METAR KBLI 021453Z 00000KT 10SM BKN080 OVC095 02/00 A3019 RMK AO2 SLP233 T00170000 56014=
201901021353 METAR KBLI 021353Z AUTO 07004KT 10SM BKN070 OVC100 02/00 A3019 RMK AO2 SLP234 T00170000=
201901021253 METAR KBLI 021253Z AUTO 00000KT 10SM SCT055 BKN075 OVC090 02/00 A3023 RMK AO2 SLP245 T00170000=
201901021153 METAR KBLI 021153Z AUTO 00000KT 10SM OVC060 02/00 A3023 RMK AO2 SLP247 T00170000 10017 20006 58015=
201901021053 METAR KBLI 021053Z AUTO 00000KT 10SM OVC060 01/M01 A3025 RMK AO2 SLP254 T00111006=
201901020953 METAR KBLI 020953Z AUTO 00000KT 10SM OVC055 01/M01 A3028 RMK AO2 SLP262 T00111006=
201901020853 METAR KBLI 020853Z AUTO 00000KT 10SM OVC042 01/M01 A3028 RMK AO2 SLP262 T00111011 58015=
201901020753 METAR KBLI 020753Z AUTO 00000KT 10SM OVC043 01/M01 A3030 RMK AO2 SLP269 T00111011 400561011=
201901020653 METAR KBLI 020653Z AUTO 00000KT 10SM OVC034 01/M01 A3032 RMK AO2 SLP277 T00111011=
201901020553 METAR KBLI 020553Z 00000KT 10SM OVC042 01/M02 A3032 RMK AO2 SLP278 T00061017 10044 20000 58012=
201901020453 METAR KBLI 020453Z 01003KT 10SM OVC043 01/M01 A3033 RMK AO2 SLP282 T00061011=
201901020353 METAR KBLI 020353Z 00000KT 10SM BKN045 01/M02 A3035 RMK AO2 SLP288 T00061017=
201901020253 METAR KBLI 020253Z 00000KT 10SM FEW045 FEW060 01/M02 A3035 RMK AO2 SLP289 T00111017 58012=
201901020153 METAR KBLI 020153Z 00000KT 10SM OVC049 02/M01 A3038 RMK AO2 SLP299 T00221011=
201901020053 METAR KBLI 020053Z 00000KT 10SM OVC050 03/M01 A3038 RMK AO2 SLP296 T00331011=
201901012353 METAR KBLI 012353Z 02004KT 10SM OVC050 04/M01 A3039 RMK AO2 SLP300 T00441006 10056 20011 55004=
201901012253 METAR KBLI 012253Z 04004KT 10SM BKN060 OVC075 05/M01 A3039 RMK AO2 SLP299 T00501006=
201901012153 METAR KBLI 012153Z 03004KT 10SM OVC050 05/M01 A3039 RMK AO2 SLP300 T00501006=
201901012053 METAR KBLI 012053Z 04005KT 10SM OVC050 05/M01 A3040 RMK AO2 SLP304 T00501006 58021=
201901011953 METAR KBLI 011953Z 01005KT 10SM FEW050 04/M01 A3043 RMK AO2 SLP314 T00391006=
201901011853 METAR KBLI 011853Z 03003KT 10SM OVC050 03/M01 A3045 RMK AO2 SLP320 T00281006=
201901011753 METAR KBLI 011753Z 04003KT 10SM OVC060 01/M01 A3046 RMK AO2 SLP326 T00111011 10011 21006 50008=
201901011653 METAR KBLI 011653Z 00000KT 10SM BKN060 OVC075 01/M01 A3047 RMK AO2 SLP329 T00061011=
201901011553 METAR KBLI 011553Z 00000KT 10SM OVC085 01/M02 A3045 RMK AO2 SLP323 T00061017=
201901011453 METAR KBLI 011453Z 00000KT 10SM SCT120 00/M02 A3044 RMK AO2 SLP318 T00001017 55003=
201901011353 METAR KBLI 011353Z AUTO 00000KT 10SM CLR 00/M02 A3043 RMK AO2 SLP314 T00001017=
201901011253 METAR KBLI 011253Z AUTO 00000KT 10SM SCT065 M01/M02 A3043 RMK AO2 SLP315 T10061022=
201901011153 METAR KBLI 011153Z AUTO 00000KT 10SM BKN070 00/M02 A3045 RMK AO2 SLP320 T00001022 10006 21011 58003=
201901011053 METAR KBLI 011053Z AUTO 00000KT 10SM OVC070 00/M02 A3046 RMK AO2 SLP323 T00001022=
201901010953 METAR KBLI 010953Z AUTO 00000KT 10SM SCT070 BKN095 00/M02 A3045 RMK AO2 SLP320 T00001022=
201901010853 METAR KBLI 010853Z AUTO 00000KT 10SM OVC065 01/M02 A3046 RMK AO2 SLP323 T00061017 56003=
201901010753 METAR KBLI 010753Z AUTO 00000KT 10SM FEW070 OVC095 01/M02 A3046 RMK AO2 SLP322 T00061017 400671017=
201901010653 METAR KBLI 010653Z AUTO 00000KT 10SM SCT085 BKN110 00/M02 A3045 RMK AO2 SLP319 T00001017=
201901010553 METAR KBLI 010553Z 00000KT 10SM OVC075 00/M02 A3047 RMK AO2 SLP327 T00001017 10039 21006 55006=
201901010453 METAR KBLI 010453Z 00000KT 10SM FEW120 00/M02 A3045 RMK AO2 SLP323 T00001022=
201901010353 METAR KBLI 010353Z 00000KT 10SM FEW120 00/M03 A3048 RMK AO2 SLP331 T00001028=
201901010253 METAR KBLI 010253Z 00000KT 10SM CLR 00/M03 A3048 RMK AO2 SLP333 T00001033 58001=
201901010153 METAR KBLI 010153Z 00000KT 10SM CLR M01/M03 A3048 RMK AO2 SLP334 T10061033=
201901010053 METAR KBLI 010053Z 00000KT 10SM OVC100 02/M03 A3049 RMK AO2 SLP334 T00171033=

# No short TAF reports from KBLI in databse.

###################################
#  large TAF from KBLI
###################################
201901312326 TAF KBLI 312326Z 0100/0124 00000KT P6SM BKN080 OVC150 FM010400
                       15010KT P6SM OVC060 FM010700 15010KT P6SM
                       -RA OVC040 FM011200 15012G20KT 6SM -RA BR
                       OVC025=
201901311720 TAF KBLI 311720Z 3118/0118 00000KT P6SM BKN080 FM010400 15010KT
                       P6SM OVC040
                      TEMPO 0104/0107 -RA FM010700 15011KT P6SM
                       -RA OVC035 FM011000 15011G18KT 6SM -RA BR
                       OVC025=
201901311120 TAF KBLI 311120Z 3112/0112 00000KT P6SM OVC090 FM311600 16005KT
                       P6SM OVC060 FM010400 15010KT P6SM OVC040
                       TEMPO 0104/0107 -RA FM010700 15011KT P6SM
                       -RA OVC035 FM011000 15011G18KT 6SM -RA BR
                       OVC025=
201901310533 TAF KBLI 310533Z 3106/0106 00000KT P6SM OVC110 FM311600 16005KT
                       P6SM OVC060 FM010400 15006KT P6SM OVC040
                       TEMPO 0104/0106 -RA=
201901302320 TAF KBLI 302320Z 3100/3124 VRB03KT P6SM BKN150 BKN250 FM312000
                       18006KT P6SM BKN120 BKN200=
201901301720 TAF KBLI 301720Z 3018/3118 VRB03KT P6SM BKN120 BKN200=
201901301120 TAF KBLI 301120Z 3012/3112 00000KT P6SM FEW250 FM302000 31004KT
                       P6SM BKN250 FM310300 00000KT P6SM OVC100=
201901300520 TAF KBLI 300520Z 3006/3106 00000KT P6SM FEW250 FM302000 31004KT
                       P6SM BKN250 FM310300 00000KT P6SM OVC100=
201901292320 TAF KBLI 292320Z 3000/3024 33006KT P6SM SCT250 FM300600 00000KT
                       P6SM BKN250 FM301200 VRB03KT P6SM BKN200=
201901291720 TAF KBLI 291720Z 2918/3018 01005KT P6SM SCT250=
201901291120 TAF KBLI 291120Z 2912/3012 01005KT P6SM SCT250=
201901290520 TAF KBLI 290520Z 2906/3006 32005KT P6SM SCT250 FM290800 02006KT
                       P6SM SCT250 FM292300 35004KT P6SM SCT250=
201901282320 TAF KBLI 282320Z 2900/2924 35005KT P6SM SCT250=
201901281720 TAF KBLI 281720Z 2818/2918 03008KT P6SM SCT250=
201901281123 TAF KBLI 281123Z 2812/2912 02012G17KT P6SM FEW250 FM282200 01008KT
                       P6SM SKC=
201901281025 KBLI 281025Z 2810/2906 02012G20KT P6SM SCT250 FM281200 04012KT
                       P6SM SKC=
201901280522 TAF KBLI 280522Z 2806/2906 06003KT P6SM SCT250
                      TEMPO 2806/2809 2SM BR FM280900 06010KT P6SM
                       SCT250 FM281200 04012KT P6SM SKC=
201901272336 TAF KBLI 272336Z 2800/2824 06003KT P6SM OVC015 FM280200 06010KT
                       P6SM SCT250 FM281200 04012KT P6SM SKC=
201901272139 KBLI 272139Z 2722/2818 00000KT P6SM OVC019 FM280000 04008KT P6SM
                       SCT250 FM281200 04012KT P6SM SKC=
201901272054 KBLI 272054Z 2721/2818 30004KT P6SM OVC017 FM272130 03008KT P6SM
                       SCT020 SCT250 FM281200 04012KT P6SM SKC=
201901271728 TAF KBLI 271728Z 2718/2818 08003KT 4SM BR OVC011 FM272100 36004KT
                       P6SM BKN250 FM281200 04012KT P6SM OVC012=
201901271609 KBLI 271609Z 2716/2812 14003KT 4SM BR OVC007 FM271800 36004KT P6SM
                       SCT005 SCT250 FM272100 34005KT P6SM SCT250=
201901271402 KBLI 271402Z 2714/2812 00000KT 5SM BR OVC005 FM271800 36004KT P6SM
                       SCT005 SCT250 FM272100 34005KT P6SM SCT250=
201901271120 TAF KBLI 271120Z 2712/2812 00000KT 1/4SM FG OVC005 FM271800 36004KT
                       P6SM SCT005 SCT250 FM272100 34005KT P6SM
                       SCT250=
201901270917 KBLI 270917Z 2709/2806 00000KT 3SM BR SCT250
                      TEMPO 2709/2712 3/4SM BR FM271200 VRB03KT
                       1/4SM FG OVC005 FM271900 36004KT P6SM SCT004
                       SCT250 FM272100 34005KT P6SM SCT250=
201901270520 TAF KBLI 270520Z 2706/2806 34006KT P6SM SCT030 BKN250 FM271000
                       35002KT 3/4SM BR SCT250 FM271200 VRB03KT
                       1/4SM FG OVC005 FM271900 36004KT P6SM SCT004
                       SCT250 FM272100 34005KT P6SM SCT250=
201901262329 TAF KBLI 262329Z 2700/2724 34006KT P6SM SCT030 BKN250 FM271000
                       35002KT 3/4SM BR SCT250 FM271200 VRB03KT
                       1/4SM FG OVC005 FM271900 36004KT P6SM SCT004
                       SCT250=
201901261736 TAF KBLI 261736Z 2618/2718 36003KT P6SM OVC030 FM262100 00000KT
                       P6SM SCT030 SCT120 FM271200 VRB03KT 1/2SM
                       FG BKN010=
201901261120 TAF KBLI 261120Z 2612/2712 00000KT 4SM BR OVC020 FM261600 VRB03KT
                       P6SM SCT120 FM271000 VRB03KT P6SM BKN025=
201901260520 TAF KBLI 260520Z 2606/2706 00000KT P6SM BKN025 OVC040 FM261100
                       00000KT 2SM BR OVC015 FM261600 VRB03KT P6SM
                       SCT030 SCT120=
201901252320 TAF KBLI 252320Z 2600/2624 30004KT P6SM OVC035 FM260400 00000KT
                       P6SM SCT250 FM261100 00000KT 2SM BR OVC025
                       FM261600 00000KT P6SM SCT030 SCT120=
201901251724 TAF KBLI 251724Z 2518/2618 00000KT P6SM OVC035 FM252200 00000KT
                       P6SM SCT035 FM260400 00000KT P6SM BKN035
                       BKN250 FM260700 00000KT P6SM OVC030 FM261100
                       VRB03KT P6SM SCT019 OVC025=
201901251125 TAF KBLI 251125Z 2512/2612 00000KT P6SM OVC035
                      TEMPO 2512/2516 6SM BR FEW020 FM252100 VRB03KT
                       P6SM BKN040 FM260000 00000KT P6SM SCT050
                       BKN150 FM260400 VRB03KT P6SM BKN035=
201901250522 TAF KBLI 250522Z 2506/2606 00000KT P6SM BKN040 FM250900 00000KT
                       P6SM SCT008 OVC022 FM252100 VRB03KT P6SM
                       SCT020 OVC050 FM260000 00000KT P6SM SCT050
                       BKN150=
201901242324 TAF KBLI 242324Z 2500/2524 35003KT P6SM OVC045 FM250900 00000KT
                       P6SM SCT008 OVC020 FM252100 VRB03KT P6SM
                       SCT020 OVC050=
201901241720 TAF KBLI 241720Z 2418/2518 00000KT P6SM OVC040 FM242100 VRB03KT
                       P6SM SCT025 BKN050
                      TEMPO 2422/2502 SCT025 SCT050 FM250600 00000KT
                       P6SM SCT008 OVC020=
201901241611 KBLI 241611Z 2416/2512 00000KT P6SM OVC040 FM242100 VRB03KT P6SM
                       SCT025 BKN050 FM250600 00000KT P6SM SCT008
                       OVC020=
201901241404 KBLI 241404Z 2414/2512 00000KT P6SM SCT010 BKN030 OVC040
                      TEMPO 2414/2416 2SM BR BKN004 FM241800 VRB03KT
                       P6SM SCT015 BKN030 FM242300 VRB03KT P6SM
                       SCT025 BKN040 FM250600 00000KT P6SM SCT008
                       OVC020=
201901241120 TAF KBLI 241120Z 2412/2512 00000KT 2SM BR SCT004 BKN030
                      TEMPO 2412/2416 1/2SM FG BKN002 FM241800
                       VRB03KT P6SM SCT015 BKN030 FM242300 VRB03KT
                       P6SM SCT025 BKN040 FM250600 00000KT P6SM
                       SCT008 OVC020=
201901240536 TAF KBLI 240536Z 2406/2506 00000KT P6SM OVC012 FM241900 VRB03KT
                       P6SM SCT015 OVC025 FM242300 VRB03KT P6SM
                       SCT025 BKN040=
201901232323 TAF KBLI 232323Z 2400/2424 00000KT P6SM SCT012
                      TEMPO 2400/2402 BKN012 FM240800 00000KT 6SM
                       BR OVC012 FM242200 VRB03KT P6SM BKN015 BKN030=
201901231724 TAF KBLI 231724Z 2318/2418 36004KT P6SM OVC008 FM232000 02004KT
                       P6SM SCT010 BKN025 FM232200 04003KT P6SM
                       SCT030 FM240800 00000KT 6SM BR OVC012=
201901231120 TAF KBLI 231120Z 2312/2412 34005KT P6SM VCSH SCT005 OVC010
                      TEMPO 2312/2315 -SHRA BKN003 FM231800 01006KT
                       P6SM OVC015 FM232100 VRB03KT P6SM BKN020
                       FM240500 00000KT 6SM BR OVC012=
201901230528 TAF KBLI 230528Z 2306/2406 11012KT 5SM -SHRA BR OVC015 FM231400
                       06006KT 5SM -SHRA BR OVC015 FM231800 01006KT
                       P6SM OVC015 FM232100 VRB03KT P6SM OVC025=
201901230233 KBLI 230233Z 2303/2324 08005KT P6SM -RA BKN028 OVC035 FM230700
                       14012KT 6SM -SHRA BR OVC015 FM231200 VRB04KT
                       P6SM BKN020 OVC050 FM231800 VRB03KT P6SM
                       SCT025 OVC050 FM232100 VRB03KT P6SM FEW025
                       BKN050=
201901230159 KBLI 230159Z 2302/2324 05006KT 6SM -RA BR FEW020 SCT027 OVC035
                       FM230700 14012KT 6SM -SHRA BR OVC015 FM231200
                       VRB04KT P6SM BKN020 OVC050 FM231800 VRB03KT
                       P6SM SCT025 OVC050 FM232100 VRB03KT P6SM
                       FEW025 BKN050=
201901222324 TAF KBLI 222324Z 2300/2324 12009KT P6SM -RA BKN025 OVC035 FM230700
                       14012KT 6SM -SHRA BR OVC015 FM231200 VRB04KT
                       P6SM BKN020 OVC050 FM231800 VRB03KT P6SM
                       SCT025 OVC050 FM232100 VRB03KT P6SM FEW025
                       BKN050=
201901221837 TAF KBLI 221837Z 2219/2318 14017G25KT P6SM OVC025 FM222100 16015G25KT
                       5SM -RA BR OVC020 FM230700 14012KT 6SM -SHRA
                       BR BKN020 OVC035 FM231400 VRB03KT P6SM SCT025
                       OVC050=
201901221120 TAF KBLI 221120Z 2212/2312 14010G18KT P6SM -RA BKN035 OVC090 FM221900
                       15014G22KT P6SM -RA OVC035 FM222100 16015G25KT
                       5SM -RA BR OVC025 FM230000 16012G22KT 5SM
                       -SHRA BR BKN020 BKN035=
201901220520 TAF KBLI 220520Z 2206/2306 00000KT P6SM FEW045 BKN060 FM221200
                       12010KT P6SM -RA OVC050 FM221900 15014G22KT
                       P6SM -RA OVC035 FM222100 16015G25KT 5SM
                       -RA BR OVC025 FM230000 16012G22KT 5SM -SHRA
                       BR BKN020 BKN035=
201901212320 TAF KBLI 212320Z 2200/2224 14003KT P6SM BKN050 FM220200 13005KT
                       P6SM SCT050 BKN250 FM220600 13008KT P6SM
                       SCT050 BKN100 OVC200 FM221200 12010KT P6SM
                       -RA OVC050 FM222000 13014KT 5SM -RA BR OVC025=
201901211721 TAF KBLI 211721Z 2118/2218 00000KT P6SM FEW020 BKN045 FM212100
                       00000KT P6SM SCT045 SCT200 FM220600 13008KT
                       P6SM SCT050 BKN100 OVC200 FM221200 12010KT
                       P6SM -RA OVC050=
201901211132 TAF KBLI 211132Z 2112/2212 00000KT 5SM BR SCT025
                      TEMPO 2112/2114 1SM BR FM211400 00000KT P6SM
                       OVC025 FM211900 00000KT P6SM OVC035 FM212100
                       00000KT P6SM SCT035 SCT200 FM220600 13008KT
                       P6SM SCT050 BKN100 OVC200 FM221100 13008KT
                       P6SM OVC050=
201901210726 KBLI 210726Z 2107/2206 VRB03KT 2SM BR BKN010
                      TEMPO 2108/2112 1/2SM FG FM211500 18007KT
                       P6SM BKN020 FM211900 VRB03KT P6SM SCT030
                       SCT200 FM220500 17011KT P6SM SCT025 BKN150=
201901210534 TAF KBLI 210534Z 2106/2206 VRB03KT P6SM BKN015 FM211500 18007KT
                       P6SM BKN020 FM211900 VRB03KT P6SM SCT030
                       SCT200 FM220500 17011KT P6SM SCT025 BKN150=
201901202324 TAF KBLI 202324Z 2100/2124 VRB03KT P6SM SCT030 SCT200 FM211300
                       VRB03KT P6SM BKN025 FM211900 VRB03KT P6SM
                       SCT030 SCT200=
201901201720 TAF KBLI 201720Z 2018/2118 02006KT P6SM SCT050 BKN150 FM210000
                       VRB03KT P6SM SCT200 FM211300 04004KT P6SM
                       BKN025=
201901201132 TAF KBLI 201132Z 2012/2112 02006KT P6SM SCT050 BKN150
                      TEMPO 2012/2015 4SM BR FM210000 VRB03KT P6SM
                       SCT200=
201901200520 TAF KBLI 200520Z 2006/2106 VRB04KT P6SM SCT070 BKN090 FM201100
                       02004KT P6SM SCT030 BKN150 FM201800 02009KT
                       P6SM SCT040 BKN150 FM202200 33005KT P6SM
                       FEW010 BKN160=
201901192320 TAF KBLI 192320Z 2000/2024 17010KT P6SM VCSH SCT030 BKN040
                      TEMPO 2000/2004 -SHRA SCT020 BKN030 FM200600
                       VRB04KT P6SM SCT050 BKN080 FM201100 02004KT
                       P6SM SCT030 BKN050 FM201700 34006KT P6SM
                       SCT050 SCT200=
201901191721 TAF KBLI 191721Z 1918/2018 17010KT P6SM VCSH SCT030 BKN040 FM192300
                       18010KT P6SM SCT040 FM200600 VRB04KT P6SM
                       SCT050 BKN080 FM201100 02004KT P6SM SCT030
                       BKN050=
201901191405 KBLI 191405Z 1914/2012 18009KT P6SM -SHRA FEW012 BKN035 FM191600
                       17012G18KT P6SM VCSH BKN020 BKN060 FM192300
                       18010KT P6SM SCT050 FM200600 VRB04KT P6SM
                       SCT050 BKN080=
201901191133 TAF KBLI 191133Z 1912/2012 18015G25KT P6SM -SHRA BKN015 OVC030
                       FM191600 17012G18KT P6SM VCSH BKN020 BKN060
                       FM192300 18010KT P6SM SCT050 FM200600 VRB04KT
                       P6SM SCT050 BKN080=
201901190520 TAF KBLI 190520Z 1906/2006 04009KT P6SM -RA OVC040 FM191300 18013G22KT
                       P6SM -SHRA BKN025 OVC050 FM191700 19010G17KT
                       P6SM VCSH SCT025 BKN050 FM192300 18006KT
                       P6SM BKN050=
201901182320 TAF KBLI 182320Z 1900/1924 13011KT P6SM BKN050 OVC080 FM190300
                       11015G24KT P6SM -RA OVC045 FM190600 14018G27KT
                       P6SM -RA OVC035 FM191400 18010KT P6SM -RA
                       OVC035 FM192000 18010KT P6SM VCSH OVC040=
201901181724 TAF KBLI 181724Z 1818/1918 15012G20KT P6SM SCT020 BKN035 FM181900
                       15012KT P6SM SCT035 BKN050 FM182300 10013KT
                       P6SM BKN050 OVC080 FM190300 11015G24KT P6SM
                       -RA OVC045 FM190600 14018G27KT P6SM -RA
                       OVC035 FM191400 18010KT P6SM -RA OVC035=
201901181139 TAF KBLI 181139Z 1812/1912 15012G20KT P6SM SCT020 OVC035
                      TEMPO 1812/1815 -SHRA BKN020 OVC035 FM181800
                       15010KT P6SM SCT035 BKN050 FM182300 03006KT
                       P6SM BKN050 OVC080 FM190300 07008KT P6SM
                       -RA OVC045 FM190600 14016G26KT P6SM -RA
                       OVC035=
201901180520 TAF KBLI 180520Z 1806/1906 16017G29KT P6SM -RA BKN028 OVC035 FM180900
                       16012KT P6SM VCSH BKN025 BKN050 FM181600
                       11012KT P6SM OVC050 FM190300 10015G25KT
                       P6SM -RA OVC050 WS020/18040KT=
201901172320 TAF KBLI 172320Z 1800/1824 14015G25KT P6SM -RA OVC050
                      TEMPO 1804/1808 5SM -RA OVC030 FM180800 16015G25KT
                       P6SM VCSH BKN025 BKN050 FM181600 12010KT
                       P6SM BKN030 OVC060=
201901171739 TAF KBLI 171739Z 1718/1818 02009KT P6SM -RA OVC090 FM172000 02007KT
                       P6SM OVC090 FM180300 13012KT P6SM -RA BKN045
                       OVC070 FM181400 15012G22KT P6SM BKN030 OVC045=
201901171131 TAF KBLI 171131Z 1712/1812 03006KT P6SM -RA OVC050 WS020/17035KT
                       FM171700 03006KT P6SM SCT070 BKN120 FM180300
                       13012KT P6SM -RA BKN045 OVC070 FM180800
                       15012G22KT P6SM -RA BKN030 OVC045=
201901170525 TAF KBLI 170525Z 1706/1806 01007KT P6SM SCT120 OVC200 FM170800
                       04012KT P6SM OVC080 FM171200 05013KT P6SM
                       -RA OVC050 WS020/17030KT FM172200 12018G25KT
                       P6SM -SHRA OVC040 FM180400 15018G25KT P6SM
                       -SHRA OVC030=
201901170218 KBLI 170218Z 1702/1724 02007KT P6SM BKN120 OVC250 FM170700 04010KT
                       P6SM VCSH BKN070 OVC120 FM171300 04010G20KT
                       P6SM -RA OVC060=
201901162344 TAF KBLI 162344Z 1700/1724 34004KT P6SM FEW120 BKN200 FM170700
                       04010KT P6SM VCSH BKN070 OVC120 FM171300
                       04010G20KT P6SM -RA OVC060=
201901161740 TAF KBLI 161740Z 1618/1718 00000KT P6SM BKN200 FM162200 02006KT
                       P6SM SCT120 BKN200 FM170500 03012KT P6SM
                       BKN120 BKN200 FM171000 03014G22KT P6SM -RA
                       BKN060 OVC120=
201901161122 TAF KBLI 161122Z 1612/1712 36005KT P6SM BKN120 BKN250 FM162200
                       02006KT P6SM SCT120 BKN250 FM170500 03012KT
                       P6SM BKN120 BKN250 FM171000 03014G22KT P6SM
                       -RA BKN060 OVC120=
201901160524 TAF KBLI 160524Z 1606/1706 01004KT P6SM BKN120 OVC200 FM161400
                       04006KT P6SM OVC120 FM162100 03009KT P6SM
                       SCT050 OVC090=
201901152340 TAF KBLI 152340Z 1600/1624 01005KT P6SM BKN120 OVC200 FM161400
                       04006KT P6SM OVC120=
201901151726 TAF KBLI 151726Z 1518/1618 00000KT P6SM SCT250 FM161500 03004KT
                       P6SM OVC120=
201901151121 TAF KBLI 151121Z 1512/1612 36004KT P6SM BKN250 FM160100 01003KT
                       P6SM BKN120 OVC200=
201901150840 KBLI 150840Z 1509/1606 00000KT P6SM SCT250
                      TEMPO 1512/1516 2SM BR SCT001 FM151700 36004KT
                       P6SM BKN250=
201901150524 TAF KBLI 150524Z 1506/1606 00000KT P6SM VCFG SKC
                      TEMPO 1506/1509 1/2SM FG VV001 FM150900 00000KT
                       1/2SM FG VV001 FM151700 36004KT P6SM BKN250=
201901150112 KBLI 150112Z 1501/1524 05005KT 1SM BR OVC001
                      TEMPO 1501/1504 1/2SM FG VV001 FM150400 01002KT
                       1/2SM FG VV001 FM151700 04004KT P6SM BKN250=
201901142334 TAF KBLI 142334Z 1500/1524 01009KT P6SM FEW250 FM151300 05005KT
                       2SM BR OVC004 FM151700 04004KT P6SM BKN250=
201901141723 TAF KBLI 141723Z 1418/1518 04006KT P6SM SKC FM150800 08004KT P6SM
                       FEW003 SCT250
                      TEMPO 1510/1514 2SM BR SKC=
201901141125 TAF KBLI 141125Z 1412/1512 00000KT P6SM SKC FM141800 36005KT P6SM
                       SKC FM150100 00000KT P6SM FEW250=
201901140520 TAF KBLI 140520Z 1406/1506 01004KT P6SM SKC=
201901132331 TAF KBLI 132331Z 1400/1424 01004KT P6SM SKC=
201901131720 TAF KBLI 131720Z 1318/1418 VRB04KT P6SM SKC=
201901131125 TAF KBLI 131125Z 1312/1412 01003KT P6SM BKN250 FM131600 36004KT
                       P6SM SKC=
201901130520 TAF KBLI 130520Z 1306/1406 02005KT P6SM SCT200 FM131800 36004KT
                       P6SM SKC=
201901122336 TAF KBLI 122336Z 1300/1324 01005KT P6SM SCT200 FM130300 VRB02KT
                       P6SM SCT200 FM131200 35002KT P6SM SKC=
201901121720 TAF KBLI 121720Z 1218/1318 03005KT P6SM SCT200 FM130300 VRB02KT
                       P6SM SKC=
201901121123 TAF KBLI 121123Z 1212/1312 00000KT P6SM BKN250 FM121800 03005KT
                       P6SM SCT250 FM130300 00000KT P6SM SKC=
201901120521 TAF KBLI 120521Z 1206/1306 01004KT P6SM BKN250 FM122000 02006KT
                       P6SM SCT250=
201901112320 TAF KBLI 112320Z 1200/1224 01004KT P6SM BKN120 FM120900 VRB03KT
                       P6SM SCT200 FM121800 09006KT P6SM BKN200=
201901111730 TAF KBLI 111730Z 1118/1218 01004KT P6SM BKN110 FM120900 VRB03KT
                       P6SM SCT200=
201901111124 TAF KBLI 111124Z 1112/1212 VRB03KT P6SM OVC120 FM111700 03004KT
                       P6SM BKN120 FM120900 VRB03KT P6SM SCT200=
201901110529 TAF KBLI 110529Z 1106/1206 03006KT P6SM SCT050 BKN100 FM111600
                       03006KT P6SM BKN100 OVC200 FM112200 03006KT
                       P6SM BKN200=
201901102320 TAF KBLI 102320Z 1100/1124 14012KT P6SM SCT025 BKN040 BKN120
                      TEMPO 1100/1104 BKN025 OVC040 FM111600 14010KT
                       P6SM BKN050 BKN120 FM112200 14008KT P6SM
                       BKN200=
201901102117 KBLI 102117Z 1021/1118 14012KT P6SM OVC028 FM110400 14014KT P6SM
                       SCT030 BKN050 OVC090 FM111100 10008KT P6SM
                       BKN090=
201901101721 TAF KBLI 101721Z 1018/1118 15012G20KT P6SM BKN020 OVC040
                      TEMPO 1018/1021 OVC015 FM102100 15010KT P6SM
                       SCT025 OVC040 FM110100 10008KT P6SM BKN050
                       OVC100 FM111100 10006KT P6SM BKN090=
201901101121 TAF KBLI 101121Z 1012/1112 15015G22KT P6SM -RA OVC020
                      TEMPO 1012/1016 BKN020 FM101900 15010KT P6SM
                       SCT025 OVC040 FM110100 10008KT P6SM BKN050
                       OVC100 FM111100 10006KT P6SM BKN090=
201901100539 TAF KBLI 100539Z 1006/1106 15020G28KT P6SM -RA OVC035 FM100900
                       17012KT P6SM OVC025 FM101800 15006KT P6SM
                       SCT025 OVC040 FM110000 10006KT P6SM BKN050
                       OVC100=
201901100009 KBLI 100009Z 1000/1024 13016G24KT P6SM BKN050 OVC090 FM100400 15020G28KT
                       P6SM -RA OVC035 FM100700 16015G22KT P6SM
                       -RA OVC030 FM101200 17010KT P6SM OVC025
                       FM102100 14010KT P6SM SCT040 BKN100=
201901092320 TAF KBLI 092320Z 1000/1024 13023G35KT P6SM -RA OVC050 WS020/18040KT
                       FM100400 15020G28KT P6SM -RA OVC035 FM100700
                       16015G22KT P6SM -RA OVC030 FM101200 17010KT
                       P6SM OVC025 FM102100 14010KT P6SM SCT040
                       BKN100=
201901091723 TAF KBLI 091723Z 0918/1018 36004KT P6SM -RA BKN070 OVC100 FM092100
                       10014G26KT P6SM -SHRA SCT030 OVC050 WS020/18040KT
                       FM100300 15020G28KT P6SM -RA OVC035 FM100700
                       16015G22KT P6SM -RA OVC025 FM101200 17006KT
                       P6SM -SHRA OVC025=
201901091121 TAF KBLI 091121Z 0912/1012 VRB04KT P6SM -RA OVC060 FM091500 08010KT
                       P6SM -RA OVC050 FM092000 11014G26KT P6SM
                       -RA SCT030 OVC050 WS020/18040KT FM100300
                       14015G24KT P6SM -RA OVC035 FM100800 16015KT
                       P6SM -RA OVC025=
201901090535 TAF KBLI 090535Z 0906/1006 04008KT P6SM -RA OVC060 FM091500 10010KT
                       P6SM -RA OVC050 FM100000 15014G24KT P6SM
                       -RA OVC035=
201901082340 TAF KBLI 082340Z 0900/0924 03013G19KT P6SM -RA OVC045 FM090900
                       07010KT P6SM -RA OVC045 FM091500 10017G24KT
                       P6SM -RA OVC040=
201901081730 TAF KBLI 081730Z 0818/0918 04011G20KT P6SM -RA BKN060 OVC080 FM090300
                       06012KT P6SM -RA OVC040 FM091100 08010KT
                       P6SM -SHRA OVC040=
201901081130 TAF KBLI 081130Z 0812/0912 04009KT P6SM BKN150 FM081500 03012KT
                       P6SM OVC100 FM081800 03015G25KT P6SM -RA
                       OVC050 FM090300 06012KT P6SM -RA OVC040
                       FM091100 08010KT P6SM -SHRA OVC040=
201901080545 TAF KBLI 080545Z 0806/0906 03008KT P6SM SCT200 FM081200 03008KT
                       P6SM BKN120 OVC200 FM081600 03012KT P6SM
                       BKN050 OVC100 FM081900 03015G25KT P6SM -RA
                       OVC040 FM090300 03012KT P6SM -RA OVC040=
201901072320 TAF KBLI 072320Z 0800/0824 VRB05KT P6SM SCT040 SCT200 FM080300
                       03007KT P6SM FEW040 SCT120 BKN200 FM081500
                       02010KT P6SM BKN040 OVC100 FM082200 04010KT
                       P6SM -RA BKN025 OVC040=
201901071724 TAF KBLI 071724Z 0718/0818 VRB04KT P6SM SCT025 BKN035 FM071900
                       19005KT P6SM BKN040 BKN060 FM072200 VRB05KT
                       P6SM SCT040 BKN200 FM080300 03007KT P6SM
                       FEW040 SCT120 BKN200 FM081500 02010KT P6SM
                       BKN040 OVC100=
201901071125 TAF KBLI 071125Z 0712/0812 17009KT P6SM SCT020 BKN040
                      TEMPO 0712/0716 -RA BKN015 OVC030 FM071800
                       19007KT P6SM VCSH BKN040 BKN060 FM072200
                       VRB05KT P6SM SCT040 BKN200 FM080300 03007KT
                       P6SM FEW040 SCT120 BKN200=
201901070539 TAF KBLI 070539Z 0706/0806 VRB06KT P6SM VCSH FEW027 BKN070 OVC110
                       FM070900 17007KT P6SM -SHRA BKN030 FM071200
                       27006KT P6SM BKN025 FM071800 29007KT P6SM
                       BKN030 FM072100 29006KT P6SM SCT040 SCT200
                       FM080300 15006KT P6SM SCT150=
201901062327 TAF KBLI 062327Z 0700/0724 16008KT P6SM -SHRA SCT018 BKN035 OVC120
                       FM070900 17007KT P6SM VCSH BKN030 FM071200
                       18006KT P6SM BKN025 FM071800 18004KT P6SM
                       BKN030 FM072100 18004KT P6SM SCT040 SCT200=
201901061722 TAF KBLI 061722Z 0618/0718 18010KT P6SM -SHRA SCT030 BKN045 FM062100
                       16008KT P6SM -SHRA SCT040 BKN050 FM070600
                       17007KT P6SM VCSH BKN040 FM071200 18006KT
                       P6SM BKN025=
201901061304 KBLI 061304Z 0613/0712 16012G18KT P6SM VCSH OVC035 FM061500 17012G18KT
                       P6SM -SHRA BKN030 FM061800 17013KT P6SM
                       VCSH BKN035 FM070200 17007KT P6SM VCSH BKN040=
201901061135 TAF KBLI 061135Z 0612/0712 16020G30KT P6SM -RA OVC030 FM061500
                       17014G22KT P6SM -SHRA BKN030 FM061800 17013KT
                       P6SM VCSH BKN035 FM070200 17007KT P6SM VCSH
                       BKN040=
201901060540 TAF KBLI 060540Z 0606/0706 01007KT P6SM -SHRA BKN100 FM061100 20020G30KT
                       P6SM -RA OVC020 FM061500 17012G20KT P6SM
                       VCSH BKN025 FM061800 17010KT P6SM BKN030
                       FM070200 17007KT P6SM -SHRA OVC030=
201901052331 TAF KBLI 052331Z 0600/0624 15004KT P6SM BKN100 OVC150 FM060400
                       12012G22KT P6SM -RA BKN040 OVC070
                      TEMPO 0610/0611 18020KT FM061100 18020G30KT
                       P6SM -RA OVC020 FM061500 17010KT P6SM VCSH
                       BKN025 FM061800 17010KT P6SM BKN030=
201901051736 TAF KBLI 051736Z 0518/0618 02005KT P6SM SCT120 BKN150 FM052200
                       06009KT P6SM BKN120 OVC150 FM060400 12012G22KT
                       P6SM -RA BKN040 OVC070 FM061100 18020G30KT
                       P6SM -RA OVC020 FM061500 17010KT P6SM VCSH
                       BKN025=
201901051133 TAF KBLI 051133Z 0512/0612 01006KT P6SM SCT070 FM051800 02005KT
                       P6SM SCT090 FM052200 06009KT P6SM BKN100
                       FM060100 12012G22KT P6SM -RA BKN030 OVC060=
201901050532 TAF KBLI 050532Z 0506/0606 15008KT P6SM SCT040 BKN100 FM050900
                       10004KT P6SM SCT090 FM051800 02006KT P6SM
                       SCT090 FM052200 06009KT P6SM BKN100 FM060100
                       10012G20KT P6SM -RA BKN030 OVC060=
201901042320 TAF KBLI 042320Z 0500/0524 16012G18KT P6SM SCT070 BKN090 FM050400
                       15007KT P6SM FEW070 BKN200 FM050900 01008KT
                       P6SM SCT200 FM051800 04010KT P6SM BKN200=
201901041723 TAF KBLI 041723Z 0418/0518 16015G25KT P6SM VCSH SCT030 BKN060
                      TEMPO 0418/0422 -SHRA BKN030 FM042200 16014KT
                       P6SM SCT040 BKN080 FM050500 14006KT P6SM
                       SCT080 SCT150 FM050900 02008KT P6SM SCT200=
201901041139 TAF KBLI 041139Z 0412/0512 16015G25KT P6SM VCSH BKN020 OVC050 FM041800
                       16017KT P6SM BKN030 FM042100 16014KT P6SM
                       SCT040 BKN080 FM050500 14006KT P6SM SCT080
                       SCT150=
201901040539 TAF KBLI 040539Z 0406/0506 17025G40KT 6SM -RA BKN025 OVC050
                      TEMPO 0406/0408 4SM RA FM040900 17018G28KT
                       P6SM -SHRA OVC018 FM041200 15015G24KT P6SM
                       VCSH BKN018 OVC022 FM041800 16012G18KT P6SM
                       BKN030 FM042100 17014KT P6SM SCT040 BKN080
                       FM050500 16007KT P6SM SCT080 SCT150=
201901032336 TAF KBLI 032336Z 0400/0424 17015G25KT 4SM -RA SCT017 BKN025 OVC050
                       FM040800 17012G22KT P6SM VCSH BKN020 OVC050
                       FM041200 15012G20KT P6SM BKN025 OVC050 FM041800
                       16012KT P6SM BKN030=
201901031725 TAF KBLI 031725Z 0318/0418 15014G22KT P6SM -RA BKN020 OVC060 FM032000
                       16025G35KT P6SM -SHRA BKN015 OVC025 FM032300
                       16020G28KT 6SM -RA OVC025 FM041100 17015G23KT
                       6SM -RA OVC030=
201901031435 KBLI 031435Z 0315/0412 15014G22KT P6SM -RA FEW020 BKN025 OVC045
                       FM032000 16025G35KT P6SM -SHRA BKN015 OVC025
                       FM032300 16020G28KT 6SM -RA OVC025 FM041100
                       17015G23KT 6SM -RA OVC030=
201901031138 TAF KBLI 031138Z 0312/0412 15020G30KT 5SM -RA BR BKN018 OVC025
                       FM032000 16025G35KT P6SM -SHRA BKN015 OVC025
                       FM032300 16020G28KT 6SM -RA OVC025=
201901030540 TAF KBLI 030540Z 0306/0406 13015G25KT P6SM -RA OVC030 FM031100
                       15020G30KT 5SM -RA BR BKN018 OVC025 FM032000
                       17025G35KT P6SM -SHRA BKN020 OVC040 FM032300
                       16025G33KT 6SM -RA OVC025=
201901022320 TAF KBLI 022320Z 0300/0324 14011KT P6SM -RA BKN050 OVC080 FM030400
                       14016G26KT P6SM -RA OVC030 FM031100 14020G30KT
                       5SM -RA BR BKN018 OVC025 FM032000 17025G35KT
                       P6SM -RA OVC020=
201901021720 TAF KBLI 021720Z 0218/0318 15006KT P6SM BKN060 OVC090 FM022200
                       14011KT P6SM -RA BKN045 OVC080 FM030400
                       14016G26KT P6SM -RA OVC030 FM031100 14020G30KT
                       5SM -RA BR BKN018 OVC025=
201901021127 TAF KBLI 021127Z 0212/0312 VRB03KT P6SM BKN060 OVC120 FM021600
                       15006KT P6SM BKN050 OVC090 FM022200 14011KT
                       P6SM -RA BKN045 OVC080 FM030400 14016G26KT
                       P6SM -RA OVC030=
201901020524 TAF KBLI 020524Z 0206/0306 01003KT P6SM SCT050 BKN250
                      TEMPO 0206/0210 OVC050 FM021600 15004KT P6SM
                       BKN090 OVC200 FM022100 14010KT P6SM -RA
                       BKN060 OVC090 FM030300 14014G22KT P6SM -RA
                       OVC050=
201901012320 TAF KBLI 012320Z 0200/0224 04004KT P6SM BKN060 OVC080 FM020600
                       15006KT P6SM OVC060 FM021900 17012G20KT
                       P6SM OVC060 FM022300 16013G22KT P6SM -RA
                       OVC050=
201901011720 TAF KBLI 011720Z 0118/0218 00000KT P6SM BKN060 OVC080 FM012000
                       16004KT P6SM BKN100 BKN200 FM020600 16005KT
                       P6SM OVC070=
201901011132 TAF KBLI 011132Z 0112/0212 VRB03KT P6SM BKN070 OVC120 FM012000
                       16004KT P6SM SCT100 BKN200 FM020600 VRB03KT
                       P6SM BKN060 OVC120=
201901010522 TAF KBLI 010522Z 0106/0206 00000KT P6SM FEW120 SCT200 FM010900
                       07003KT P6SM BKN100 OVC200 FM012100 16004KT
                       P6SM SCT100 BKN200=