##########################################################
# Query made at 02/16/2025 22:16:06 UTC
# Time interval: from 04/01/2019 00:00  to 04/30/2019 23:59  UTC
##########################################################

##########################################################
# KBLI, Bellingham, Bellingham International Airport (United States)
# WMO index: -----. WIGOS ID: Unknown
# Latitude 48-47-58N. Longitude 122-32-21W. Altitude 48 m.
##########################################################

###################################
#  METAR/SPECI from KBLI
###################################
201904302353 METAR KBLI 302353Z VRB04KT 10SM CLR 17/M05 A3008 RMK AO2 SLP191 T01721050 10183 20150 58013=
201904302253 METAR KBLI 302253Z 32008KT 10SM CLR 18/M06 A3009 RMK AO2 SLP195 T01781056=
201904302153 METAR KBLI 302153Z 28009KT 10SM CLR 18/M03 A3010 RMK AO2 SLP201 T01781033=
201904302053 METAR KBLI 302053Z 10SM FEW055 18/01 A3011 RMK AO2 SLP204 T01780006 58011=
201904301953 METAR KBLI 301953Z 30008KT 10SM CLR 17/01 A3013 RMK AO2 SLP208 T01670011=
201904301853 METAR KBLI 301853Z VRB04KT 10SM CLR 17/01 A3014 RMK AO2 SLP213 T01670006=
201904301753 METAR KBLI 301753Z 01005KT 10SM CLR 15/01 A3015 RMK AO2 SLP215 T01500006 10150 20022 58001=
201904301653 METAR KBLI 301653Z 01005KT 10SM CLR 13/01 A3015 RMK AO2 SLP217 T01280006=
201904301553 METAR KBLI 301553Z 02006KT 10SM CLR 10/01 A3015 RMK AO2 SLP218 T01000011=
201904301453 METAR KBLI 301453Z 01006KT 10SM CLR 08/01 A3015 RMK AO2 SLP217 T00780006 53005=
201904301353 METAR KBLI 301353Z 35004KT 10SM CLR 05/M01 A3015 RMK AO2 SLP216 T00501006=
201904301253 METAR KBLI 301253Z AUTO 34004KT 10SM CLR 03/M02 A3013 RMK AO2 SLP211 T00281017=
201904301153 METAR KBLI 301153Z AUTO 00000KT 10SM CLR 04/M01 A3014 RMK AO2 SLP212 T00441011 10078 20017 53007=
201904301053 METAR KBLI 301053Z AUTO 01003KT 10SM CLR 04/M02 A3012 RMK AO2 SLP208 T00391017=
201904300953 METAR KBLI 300953Z AUTO 36004KT 10SM CLR 03/M01 A3012 RMK AO2 SLP205 T00281006=
201904300853 METAR KBLI 300853Z AUTO 00000KT 10SM CLR 04/01 A3012 RMK AO2 SLP205 T00390006 51007=
201904300753 METAR KBLI 300753Z AUTO 00000KT 10SM CLR 06/01 A3012 RMK AO2 SLP205 T00560006 401830011=
201904300653 METAR KBLI 300653Z AUTO 00000KT 10SM CLR 06/01 A3010 RMK AO2 SLP200 T00610006=
201904300553 METAR KBLI 300553Z AUTO 00000KT 10SM CLR 08/01 A3010 RMK AO2 SLP198 T00780011 10178 20072 51012=
201904300453 METAR KBLI 300453Z 00000KT 10SM CLR 09/01 A3009 RMK AO2 SLP196 T00890011=
201904300353 METAR KBLI 300353Z 34003KT 10SM CLR 13/M01 A3008 RMK AO2 SLP192 T01281006=
201904300253 METAR KBLI 300253Z 30004KT 10SM CLR 15/M02 A3006 RMK AO2 SLP187 T01501022 55002=
201904300153 METAR KBLI 300153Z 31007G16KT 10SM CLR 17/M04 A3006 RMK AO2 SLP185 T01671039=
201904300053 METAR KBLI 300053Z 32009KT 10SM CLR 17/M03 A3006 RMK AO2 SLP188 T01721033=
201904292353 METAR KBLI 292353Z 33011KT 10SM CLR 17/M03 A3007 RMK AO2 SLP189 T01721028 10183 20156 56014=
201904292253 METAR KBLI 292253Z 32014G21KT 10SM CLR 17/M02 A3008 RMK AO2 PK WND 31029/2234 SLP194 T01671017=
201904292153 METAR KBLI 292153Z 27009G18KT 10SM CLR 18/M03 A3009 RMK AO2 SLP196 T01831033=
201904292053 METAR KBLI 292053Z 28010G16KT 230V310 10SM CLR 16/02 A3011 RMK AO2 SLP204 T01560022 56017=
201904291953 METAR KBLI 291953Z 29008G18KT 10SM CLR 17/02 A3012 RMK AO2 SLP207 T01720022=
201904291853 METAR KBLI 291853Z 02009KT 10SM CLR 17/M01 A3014 RMK AO2 SLP214 T01721011=
201904291753 METAR KBLI 291753Z 36007KT 320V060 10SM CLR 16/00 A3016 RMK AO2 SLP220 T01560000 10156 20011 57011=
201904291653 METAR KBLI 291653Z 03006G16KT 10SM CLR 14/01 A3017 RMK AO2 SLP224 T01390006=
201904291553 METAR KBLI 291553Z 02008KT 10SM CLR 11/01 A3018 RMK AO2 SLP228 T01060006=
201904291453 METAR KBLI 291453Z 01006KT 10SM CLR 08/01 A3019 RMK AO2 SLP231 T00830011 55000=
201904291353 METAR KBLI 291353Z 01005KT 10SM CLR 06/01 A3019 RMK AO2 SLP230 T00560006=
201904291253 METAR KBLI 291253Z AUTO 02004KT 10SM CLR 02/M01 A3019 RMK AO2 SLP230 T00171011=
201904291153 METAR KBLI 291153Z AUTO 00000KT 10SM CLR 03/00 A3019 RMK AO2 SLP233 T00280000 10106 20022 57001=
201904291053 METAR KBLI 291053Z AUTO 00000KT 10SM CLR 03/00 A3020 RMK AO2 SLP234 T00280000=
201904290953 METAR KBLI 290953Z AUTO 00000KT 10SM CLR 05/02 A3019 RMK AO2 SLP231 T00500017=
201904290853 METAR KBLI 290853Z AUTO 00000KT 10SM CLR 04/02 A3020 RMK AO2 SLP234 T00440022 51002=
201904290753 METAR KBLI 290753Z AUTO 00000KT 10SM CLR 07/03 A3020 RMK AO2 SLP233 T00720033 401610011=
201904290653 METAR KBLI 290653Z AUTO 17004KT 10SM OVC110 10/03 A3019 RMK AO2 SLP232 T01000028=
201904290553 METAR KBLI 290553Z AUTO 00000KT 10SM OVC110 10/02 A3019 RMK AO2 SLP231 T01000017 10156 20094 50002=
201904290453 METAR KBLI 290453Z 00000KT 10SM BKN110 10/02 A3020 RMK AO2 SLP233 T01000017=
201904290353 METAR KBLI 290353Z 00000KT 10SM BKN110 10/00 A3019 RMK AO2 SLP232 T01000000=
201904290253 METAR KBLI 290253Z 29004KT 10SM CLR 13/M04 A3019 RMK AO2 SLP229 T01331039 58013=
201904290153 METAR KBLI 290153Z 30005KT 10SM CLR 15/M04 A3020 RMK AO2 SLP234 T01501039=
201904290053 METAR KBLI 290053Z 30008KT 10SM FEW100 16/M04 A3021 RMK AO2 SLP239 T01561039=
201904282353 METAR KBLI 282353Z 29010KT 10SM SCT100 16/M03 A3022 RMK AO2 SLP242 T01561033 10161 20128 58013=
201904282253 METAR KBLI 282253Z 29010G16KT 10SM SCT090 15/M01 A3024 RMK AO2 SLP250 T01501011=
201904282153 METAR KBLI 282153Z 29008KT 230V320 10SM CLR 14/01 A3026 RMK AO2 SLP255 T01440006=
201904282053 METAR KBLI 282053Z 31009KT 10SM SCT060 14/03 A3026 RMK AO2 SLP254 T01440033 56016=
201904281953 METAR KBLI 281953Z VRB04KT 10SM FEW090 15/01 A3027 RMK AO2 SLP259 T01500006=
201904281853 METAR KBLI 281853Z 34007KT 10SM CLR 14/01 A3029 RMK AO2 SLP265 T01440006=
201904281753 METAR KBLI 281753Z 35007KT 10SM FEW100 12/02 A3031 RMK AO2 SLP270 T01220017 10122 20011 58001=
201904281653 METAR KBLI 281653Z 05007KT 10SM CLR 11/03 A3031 RMK AO2 SLP273 T01110028=
201904281553 METAR KBLI 281553Z 04005KT 10SM CLR 08/03 A3031 RMK AO2 SLP273 T00780028=
201904281453 METAR KBLI 281453Z 36006KT 10SM CLR 06/02 A3031 RMK AO2 SLP272 T00610017 53012=
201904281353 METAR KBLI 281353Z 36003KT 10SM CLR 03/01 A3030 RMK AO2 SLP268 T00330006=
201904281253 METAR KBLI 281253Z AUTO 00000KT 10SM CLR 01/M01 A3028 RMK AO2 SLP262 T00111011=
201904281153 METAR KBLI 281153Z AUTO 00000KT 10SM CLR 03/00 A3028 RMK AO2 SLP261 T00280000 10094 20011 51019=
201904281053 METAR KBLI 281053Z AUTO 00000KT 10SM CLR 03/00 A3026 RMK AO2 SLP256 T00330000=
201904280953 METAR KBLI 280953Z AUTO 01003KT 10SM CLR 03/M01 A3024 RMK AO2 SLP248 T00331006=
201904280853 METAR KBLI 280853Z AUTO 00000KT 10SM CLR 06/01 A3022 RMK AO2 SLP242 T00610011 53012=
201904280753 METAR KBLI 280753Z AUTO 19004KT 10SM CLR 08/03 A3021 RMK AO2 SLP238 T00780028 401280067=
201904280653 METAR KBLI 280653Z AUTO 20004KT 10SM CLR 09/02 A3020 RMK AO2 SLP233 T00890017=
201904280553 METAR KBLI 280553Z AUTO VRB03KT 10SM CLR 08/02 A3019 RMK AO2 SLP230 T00780017 10128 20067 51015=
201904280453 METAR KBLI 280453Z 18004KT 10SM CLR 07/02 A3018 RMK AO2 SLP226 T00670022=
201904280353 METAR KBLI 280353Z 00000KT 10SM CLR 08/01 A3016 RMK AO2 SLP221 T00780011=
201904280253 METAR KBLI 280253Z VRB03KT 10SM CLR 11/M01 A3014 RMK AO2 SLP214 T01111011 51006=
201904280153 METAR KBLI 280153Z 30007KT 10SM CLR 12/M02 A3014 RMK AO2 SLP213 T01221017=
201904280053 METAR KBLI 280053Z 30005KT 10SM CLR 12/00 A3013 RMK AO2 SLP211 T01170000=
201904272353 METAR KBLI 272353Z 31005KT 10SM CLR 12/M02 A3012 RMK AO2 RAB2254E08 SLP208 P0000 60000 T01171017 10128 20078 50008=
201904272333 METAR KBLI 272333Z 29008KT 10SM FEW046 SCT070 08/01 A3012 RMK AO2 RAE10 SLP214 P0000 T00830006=
201904272253 METAR KBLI 272253Z 07006KT 10SM BKN046 BKN070 OVC080 08/01 A3014 RMK AO2 RAE10 SLP214 P0000 T00830006=
201904272153 METAR KBLI 272153Z 03007KT 10SM -RA SCT050 09/01 A3012 RMK AO2 WSHFT 2106 RAB47 SLP209 P0000 T00890006=
201904272053 METAR KBLI 272053Z 30012G20KT 260V340 10SM CLR 12/M01 A3010 RMK AO2 SLP200 T01171006 56004=
201904271953 METAR KBLI 271953Z 30014G24KT 10SM FEW042 11/M01 A3010 RMK AO2 SLP200 T01061011=
201904271853 METAR KBLI 271853Z 30008G24KT 260V330 10SM SCT040 11/M01 A3011 RMK AO2 PK WND 30029/1835 SLP203 T01061006=
201904271753 METAR KBLI 271753Z 26019G25KT 10SM SCT035 SCT044 10/M01 A3011 RMK AO2 SLP204 T01001006 10106 20072 55003=
201904271653 METAR KBLI 271653Z 30007G21KT 260V320 10SM BKN037 BKN046 09/01 A3011 RMK AO2 SLP203 T00940006=
201904271553 METAR KBLI 271553Z VRB06G14KT 10SM BKN044 BKN050 08/M02 A3012 RMK AO2 SLP208 T00831017=
201904271453 METAR KBLI 271453Z 26007G15KT 230V300 10SM FEW045 08/M02 A3012 RMK AO2 SLP207 T00831022 58005=
201904271353 METAR KBLI 271353Z 26006G15KT 10SM SCT042 08/M02 A3013 RMK AO2 SLP211 T00781022=
201904271253 METAR KBLI 271253Z AUTO VRB06KT 10SM BKN070 08/M02 A3013 RMK AO2 SLP211 T00781017=
201904271153 METAR KBLI 271153Z AUTO 28007G15KT 250V340 10SM OVC070 08/00 A3014 RMK AO2 SLP212 T00830000 10100 20078 53002=
201904271053 METAR KBLI 271053Z AUTO 29011G17KT 10SM SCT041 OVC050 08/01 A3013 RMK AO2 SLP210 T00830011=
201904270953 METAR KBLI 270953Z AUTO VRB05KT 10SM OVC033 09/03 A3014 RMK AO2 SLP212 T00940028=
201904270853 METAR KBLI 270853Z AUTO VRB05KT 10SM FEW049 OVC060 10/02 A3013 RMK AO2 SLP211 T01000022 58007=
201904270753 METAR KBLI 270753Z AUTO 19006KT 10SM BKN050 09/02 A3014 RMK AO2 SLP215 T00940022 401390056=
201904270653 METAR KBLI 270653Z AUTO 18006KT 10SM CLR 09/04 A3014 RMK AO2 SLP214 T00940039=
201904270553 METAR KBLI 270553Z AUTO 17006KT 10SM BKN048 09/04 A3015 RMK AO2 SLP217 T00940039 10139 20094 50002=
201904270453 METAR KBLI 270453Z 17007KT 10SM SCT040 BKN060 11/03 A3016 RMK AO2 SLP220 T01060033=
201904270353 METAR KBLI 270353Z 19004KT 10SM SCT040 BKN070 11/03 A3015 RMK AO2 SLP217 T01060028=
201904270253 METAR KBLI 270253Z 20007KT 10SM SCT060 11/04 A3015 RMK AO2 SLP215 T01110039 57002=
201904270153 METAR KBLI 270153Z 17008KT 10SM FEW035 BKN100 12/04 A3015 RMK AO2 SLP217 T01220039=
201904270053 METAR KBLI 270053Z 17011G19KT 10SM FEW035 SCT100 13/04 A3015 RMK AO2 SLP216 T01330044=
201904262353 METAR KBLI 262353Z 18014G19KT 10SM SCT050 BKN090 13/04 A3015 RMK AO2 SLP218 T01330039 10139 20111 58004=
201904262253 METAR KBLI 262253Z 17013G21KT 10SM SCT050 BKN090 13/04 A3016 RMK AO2 SLP221 T01330039=
201904262153 METAR KBLI 262153Z 17011G19KT 10SM SCT080 BKN120 14/04 A3017 RMK AO2 SLP224 T01390039=
201904262053 METAR KBLI 262053Z 18013G23KT 10SM FEW120 13/04 A3017 RMK AO2 SLP222 T01330044 50001=
201904262004 SPECI KBLI 262004Z 16009G15KT 10SM SCT029 12/06 A3017 RMK AO2 T01220061=
201904261953 METAR KBLI 261953Z 18007KT 10SM OVC029 12/07 A3017 RMK AO2 SLP223 T01220067=
201904261853 METAR KBLI 261853Z 19004KT 10SM BKN023 OVC029 12/06 A3017 RMK AO2 SLP224 T01170061=
201904261753 METAR KBLI 261753Z VRB05KT 10SM BKN029 11/05 A3016 RMK AO2 SLP221 T01110050 10117 20056 51007=
201904261749 SPECI KBLI 261749Z 22007KT 10SM BKN029 11/05 A3016 RMK AO2=
201904261653 METAR KBLI 261653Z VRB05KT 10SM CLR 12/02 A3015 RMK AO2 SLP216 T01170022=
201904261553 METAR KBLI 261553Z 28006KT 10SM CLR 11/02 A3014 RMK AO2 SLP214 T01060022=
201904261453 METAR KBLI 261453Z VRB05KT 10SM CLR 10/03 A3013 RMK AO2 SLP210 T01000033 53014=
201904261353 METAR KBLI 261353Z 00000KT 10SM CLR 08/03 A3011 RMK AO2 SLP205 T00780033=
201904261253 METAR KBLI 261253Z AUTO 00000KT 10SM CLR 07/03 A3010 RMK AO2 SLP199 T00670028=
201904261153 METAR KBLI 261153Z AUTO VRB03KT 10SM CLR 07/03 A3009 RMK AO2 SLP196 T00670033 10106 20067 51010=
201904261053 METAR KBLI 261053Z AUTO VRB03KT 10SM CLR 08/04 A3008 RMK AO2 SLP192 T00830039=
201904260953 METAR KBLI 260953Z AUTO 18005KT 10SM CLR 09/05 A3007 RMK AO2 SLP189 T00940050=
201904260853 METAR KBLI 260853Z AUTO 19007KT 10SM CLR 10/04 A3006 RMK AO2 SLP185 T01000044 55000=
201904260753 METAR KBLI 260753Z AUTO 15005KT 10SM CLR 09/04 A3005 RMK AO2 SLP184 T00940039 401500011=
201904260653 METAR KBLI 260653Z AUTO 18003KT 10SM CLR 09/05 A3005 RMK AO2 SLP183 T00890050=
201904260553 METAR KBLI 260553Z AUTO 00000KT 10SM CLR 10/06 A3006 RMK AO2 SLP185 T01000056 10150 20094 50002=
201904260453 METAR KBLI 260453Z 17003KT 10SM CLR 09/06 A3006 RMK AO2 SLP187 T00940061=
201904260353 METAR KBLI 260353Z 17003KT 10SM CLR 11/06 A3006 RMK AO2 SLP186 T01060061=
201904260253 METAR KBLI 260253Z 18003KT 10SM CLR 12/06 A3005 RMK AO2 SLP184 T01170061 56014=
201904260153 METAR KBLI 260153Z 27004KT 10SM CLR 13/06 A3006 RMK AO2 SLP188 T01280061=
201904260053 METAR KBLI 260053Z 30005KT 10SM CLR 14/06 A3007 RMK AO2 SLP192 T01390056=
201904252353 METAR KBLI 252353Z 30006KT 10SM CLR 15/05 A3009 RMK AO2 SLP199 T01500050 10150 20128 58017=
201904252253 METAR KBLI 252253Z 31007KT 10SM CLR 15/05 A3012 RMK AO2 SLP206 T01500050=
201904252153 METAR KBLI 252153Z 30007KT 10SM CLR 14/06 A3013 RMK AO2 SLP212 T01440056=
201904252053 METAR KBLI 252053Z 27008KT 240V310 10SM CLR 14/06 A3014 RMK AO2 SLP215 T01440056 58022=
201904251953 METAR KBLI 251953Z 29007KT 10SM CLR 14/05 A3017 RMK AO2 SLP222 T01390050=
201904251853 METAR KBLI 251853Z 00000KT 10SM CLR 14/04 A3019 RMK AO2 SLP230 T01390039=
201904251753 METAR KBLI 251753Z 29004KT 10SM CLR 13/03 A3021 RMK AO2 SLP237 T01280033 10133 20011 56013=
201904251653 METAR KBLI 251653Z 02005KT 10SM CLR 11/04 A3022 RMK AO2 SLP241 T01110039=
201904251553 METAR KBLI 251553Z 02005KT 10SM CLR 09/04 A3024 RMK AO2 SLP247 T00940039=
201904251453 METAR KBLI 251453Z 03006KT 10SM CLR 07/03 A3025 RMK AO2 SLP250 T00720033 55003=
201904251353 METAR KBLI 251353Z 01003KT 10SM CLR 03/01 A3025 RMK AO2 SLP250 T00280006=
201904251253 METAR KBLI 251253Z AUTO 03004KT 10SM CLR 03/01 A3024 RMK AO2 SLP249 T00280011=
201904251153 METAR KBLI 251153Z AUTO 34003KT 10SM CLR 02/00 A3026 RMK AO2 SLP254 T00170000 10067 20017 58009=
201904251053 METAR KBLI 251053Z AUTO 00000KT 10SM CLR 02/01 A3027 RMK AO2 SLP258 T00220006=
201904250953 METAR KBLI 250953Z AUTO 00000KT 10SM CLR 03/01 A3028 RMK AO2 SLP261 T00330011=
201904250853 METAR KBLI 250853Z AUTO 00000KT 10SM CLR 04/01 A3028 RMK AO2 SLP263 T00390011 56007=
201904250753 METAR KBLI 250753Z AUTO 00000KT 10SM CLR 06/02 A3029 RMK AO2 SLP264 T00560022 401500044=
201904250653 METAR KBLI 250653Z AUTO 00000KT 10SM CLR 06/02 A3029 RMK AO2 SLP266 T00560017=
201904250553 METAR KBLI 250553Z AUTO 00000KT 10SM CLR 07/02 A3030 RMK AO2 SLP269 T00670017 10150 20056 50000=
201904250453 METAR KBLI 250453Z 00000KT 10SM CLR 07/02 A3031 RMK AO2 SLP271 T00670022=
201904250353 METAR KBLI 250353Z 00000KT 10SM CLR 08/02 A3030 RMK AO2 SLP270 T00780022=
201904250253 METAR KBLI 250253Z 00000KT 10SM CLR 12/02 A3030 RMK AO2 SLP268 T01170022 56010=
201904250153 METAR KBLI 250153Z 28006KT 10SM CLR 13/02 A3031 RMK AO2 SLP271 T01330017=
201904250053 METAR KBLI 250053Z 30007KT 10SM CLR 14/01 A3032 RMK AO2 SLP275 T01390006=
201904242353 METAR KBLI 242353Z AUTO VRB05KT 10SM CLR 14/01 A3033 RMK AO2 SLP278 T01390006 10144 20111 58010=
201904242253 METAR KBLI 242253Z AUTO VRB06G15KT 10SM CLR 13/01 A3034 RMK AO2 SLP283 T01330011=
201904242153 METAR KBLI 242153Z AUTO VRB05KT 10SM CLR 14/01 A3035 RMK AO2 SLP286 T01390011=
201904242053 METAR KBLI 242053Z AUTO 33008KT 10SM CLR 13/02 A3036 RMK AO2 SLP289 T01330017 58001=
201904241953 METAR KBLI 241953Z AUTO 28008KT 10SM BKN055 13/02 A3037 RMK AO2 SLP292 T01280022=
201904241853 METAR KBLI 241853Z AUTO 28006KT 10SM BKN055 12/02 A3037 RMK AO2 SLP292 T01220017=
201904241753 METAR KBLI 241753Z VRB04KT 10SM SCT025 11/03 A3037 RMK AO2 SLP290 T01110033 10117 20089 53006 $=
201904241653 METAR KBLI 241653Z VRB04KT 10SM SCT025 11/03 A3036 RMK AO2 SLP287 T01060028 $=
201904241553 METAR KBLI 241553Z 30008KT 250V330 10SM SCT049 BKN060 10/03 A3035 RMK AO2 SLP285 T01000033=
201904241453 METAR KBLI 241453Z 27007KT 230V300 10SM SCT049 BKN060 09/03 A3035 RMK AO2 SLP284 T00940028 53018=
201904241353 METAR KBLI 241353Z 00000KT 10SM SCT050 OVC065 09/03 A3032 RMK AO2 SLP275 T00890033=
201904241253 METAR KBLI 241253Z AUTO 00000KT 10SM BKN048 OVC065 09/03 A3031 RMK AO2 SLP270 T00890033=
201904241153 METAR KBLI 241153Z AUTO VRB03KT 10SM BKN048 OVC060 09/04 A3030 RMK AO2 SLP266 T00940039 10100 20067 53013=
201904241053 METAR KBLI 241053Z AUTO 18003KT 10SM BKN060 09/05 A3028 RMK AO2 SLP262 T00890050=
201904240953 METAR KBLI 240953Z AUTO VRB05KT 10SM BKN065 09/05 A3026 RMK AO2 SLP255 T00890050=
201904240853 METAR KBLI 240853Z AUTO 15004KT 10SM CLR 07/03 A3026 RMK AO2 SLP253 T00670033 51012=
201904240753 METAR KBLI 240753Z AUTO 18003KT 10SM BKN070 09/04 A3025 RMK AO2 SLP250 T00890039 401500089=
201904240653 METAR KBLI 240653Z AUTO 18005KT 10SM OVC070 09/04 A3024 RMK AO2 SLP246 T00890039=
201904240553 METAR KBLI 240553Z AUTO 17004KT 10SM OVC042 10/04 A3022 RMK AO2 SLP241 T01000039 10144 20094 53016=
201904240453 METAR KBLI 240453Z 18007KT 10SM CLR 10/03 A3021 RMK AO2 SLP235 T01000033=
201904240353 METAR KBLI 240353Z 17007KT 10SM BKN070 11/03 A3019 RMK AO2 SLP230 T01110033=
201904240253 METAR KBLI 240253Z 20004KT 10SM BKN070 12/05 A3018 RMK AO2 SLP225 T01220050 53001=
201904240153 METAR KBLI 240153Z 17008KT 10SM FEW050 OVC065 13/05 A3017 RMK AO2 SLP224 T01280050=
201904240053 METAR KBLI 240053Z 18008KT 10SM CLR 14/05 A3017 RMK AO2 SLP222 T01440050=
201904232353 METAR KBLI 232353Z 18011KT 10SM CLR 14/05 A3017 RMK AO2 SLP224 T01390050 10150 20111 58004=
201904232253 METAR KBLI 232253Z 18012KT 10SM SCT050 14/06 A3018 RMK AO2 SLP226 T01440056=
201904232153 METAR KBLI 232153Z 17011KT 10SM CLR 14/07 A3019 RMK AO2 SLP229 T01440067=
201904232053 METAR KBLI 232053Z 18008KT 10SM FEW045 SCT065 14/07 A3018 RMK AO2 SLP228 T01390067 53003=
201904231953 METAR KBLI 231953Z 18007KT 10SM SCT041 OVC065 13/07 A3018 RMK AO2 SLP226 T01280072=
201904231853 METAR KBLI 231853Z 18007KT 10SM OVC036 12/08 A3018 RMK AO2 SLP225 T01170078=
201904231753 METAR KBLI 231753Z 18009KT 10SM OVC034 11/07 A3018 RMK AO2 SLP225 T01110072 10117 20100 53007=
201904231653 METAR KBLI 231653Z 18009KT 10SM OVC033 11/08 A3016 RMK AO2 SLP219 T01110078=
201904231553 METAR KBLI 231553Z 18010KT 10SM FEW020 OVC043 11/08 A3016 RMK AO2 SLP221 T01060083=
201904231453 METAR KBLI 231453Z 18009KT 10SM FEW020 OVC040 10/08 A3015 RMK AO2 SLP218 T01000083 53002=
201904231353 METAR KBLI 231353Z 18007KT 10SM SCT036 OVC044 11/08 A3014 RMK AO2 SLP214 T01060083=
201904231253 METAR KBLI 231253Z AUTO 18010KT 10SM FEW013 SCT029 OVC037 10/08 A3013 RMK AO2 SLP211 T01000078=
201904231244 SPECI KBLI 231244Z AUTO 16010KT 10SM FEW015 BKN036 OVC043 11/08 A3014 RMK AO2 T01060078=
201904231153 METAR KBLI 231153Z AUTO 19007KT 10SM OVC015 11/08 A3015 RMK AO2 SLP216 60001 70016 T01060078 10122 20106 55005=
201904231053 METAR KBLI 231053Z AUTO VRB05KT 10SM BKN016 OVC028 11/08 A3015 RMK AO2 SLP215 T01060083=
201904231043 SPECI KBLI 231043Z AUTO VRB04KT 10SM FEW010 OVC016 11/08 A3016 RMK AO2 T01060078=
201904231016 SPECI KBLI 231016Z AUTO 20004KT 10SM OVC014 11/08 A3015 RMK AO2 T01060083=
201904230953 METAR KBLI 230953Z AUTO 21003KT 10SM BKN015 OVC028 11/08 A3016 RMK AO2 RAB01E37 SLP218 P0001 T01110083=
201904230853 METAR KBLI 230853Z AUTO 19006KT 10SM BKN019 OVC028 11/08 A3016 RMK AO2 RAB37E53 SLP221 P0000 60000 T01110083 58000=
201904230836 SPECI KBLI 230836Z AUTO 19006KT 10SM BKN019 BKN025 OVC042 12/08 A3016 RMK AO2 T01170078=
201904230824 SPECI KBLI 230824Z AUTO 20006KT 10SM SCT020 OVC043 12/08 A3016 RMK AO2 T01170083=
201904230753 METAR KBLI 230753Z AUTO 19006KT 10SM OVC021 12/08 A3016 RMK AO2 SLP220 T01170083 401220089=
201904230653 METAR KBLI 230653Z AUTO 18003KT 10SM OVC021 12/08 A3017 RMK AO2 SLP223 T01170083=
201904230553 METAR KBLI 230553Z AUTO 18006KT 10SM OVC025 12/08 A3016 RMK AO2 SLP222 60000 T01170078 10122 20111 58007=
201904230453 METAR KBLI 230453Z 20006KT 10SM OVC021 11/08 A3019 RMK AO2 SLP229 T01110078=
201904230353 METAR KBLI 230353Z 18009KT 10SM OVC017 11/08 A3019 RMK AO2 RAE17 SLP232 P0000 T01110078=
201904230253 METAR KBLI 230253Z VRB06KT 10SM -RA OVC021 12/07 A3018 RMK AO2 RAB0154 SLP228 P0000 60000 T01170072 56017=
201904230230 SPECI KBLI 230230Z 17009G14KT 10SM -RA BKN023 BKN038 OVC080 12/07 A3018 RMK AO2 RAB0154 P0000 T01170072=
201904230153 METAR KBLI 230153Z 16011KT 10SM FEW034 BKN060 OVC080 12/07 A3019 RMK AO2 SLP231 T01220067=
201904230053 METAR KBLI 230053Z 16012G17KT 10SM OVC040 12/06 A3022 RMK AO2 SLP241 T01220061=
201904222353 METAR KBLI 222353Z 15010KT 10SM OVC039 12/06 A3023 RMK AO2 SLP245 60012 T01220061 10122 20100 58005=
201904222253 METAR KBLI 222253Z 15010KT 10SM OVC041 12/06 A3025 RMK AO2 SLP250 T01220056=
201904222153 METAR KBLI 222153Z 16008KT 10SM SCT030 BKN045 OVC060 12/05 A3025 RMK AO2 RAE11 SLP250 P0001 T01170050=
201904222132 SPECI KBLI 222132Z 16008KT 10SM BKN032 OVC040 11/08 A3025 RMK AO2 RAE11 P0001 T01110078=
201904222053 METAR KBLI 222053Z 05005KT 7SM -RA SCT020 BKN028 OVC050 10/08 A3025 RMK AO2 SLP250 P0001 60011 T01000083 51004=
201904221953 METAR KBLI 221953Z 04006KT 5SM -RA BR SCT008 BKN017 OVC050 10/08 A3024 RMK AO2 SLP249 P0006 T01000078=
201904221918 SPECI KBLI 221918Z 05003KT 5SM -RA BR BKN008 BKN017 OVC055 10/08 A3025 RMK AO2 P0003 T01000078=
201904221900 SPECI KBLI 221900Z 04005KT 5SM -RA BR FEW007 BKN017 OVC060 10/08 A3025 RMK AO2 P0001 T01000078=
201904221853 METAR KBLI 221853Z 01005KT 5SM -RA BR FEW008 BKN036 OVC070 10/08 A3026 RMK AO2 SLP253 P0004 T01000078=
201904221820 SPECI KBLI 221820Z 01005KT 7SM -RA BKN008 OVC060 10/08 A3024 RMK AO2 P0002 T01000078=
201904221753 METAR KBLI 221753Z VRB05KT 8SM -RA OVC060 10/08 A3024 RMK AO2 SLP246 P0002 60003 T01000078 10106 20089 55001=
201904221653 METAR KBLI 221653Z 04004KT 8SM -RA FEW040 OVC065 10/08 A3021 RMK AO2 SLP237 P0001 T01000078=
201904221553 METAR KBLI 221553Z 00000KT 10SM -RA BKN060 OVC090 10/06 A3023 RMK AO2 RAB17 SLP243 P0000 T01000061=
201904221453 METAR KBLI 221453Z 17006KT 10SM FEW040 BKN070 OVC090 10/06 A3024 RMK AO2 RAB29E44 SLP247 P0000 60000 T01000056 58002=
201904221353 METAR KBLI 221353Z 18006KT 10SM FEW040 BKN075 OVC095 09/06 A3027 RMK AO2 SLP256 T00940061=
201904221253 METAR KBLI 221253Z AUTO 18005KT 10SM OVC075 09/06 A3027 RMK AO2 SLP257 T00940056=
201904221153 METAR KBLI 221153Z AUTO 18004KT 10SM OVC070 09/06 A3024 RMK AO2 SLP248 T00890056 10106 20089 55008=
201904221053 METAR KBLI 221053Z AUTO 18008KT 10SM OVC070 09/05 A3024 RMK AO2 SLP247 T00940050=
201904220953 METAR KBLI 220953Z AUTO 19007KT 10SM OVC080 10/04 A3025 RMK AO2 SLP249 T01000044=
201904220853 METAR KBLI 220853Z AUTO 17007KT 10SM OVC080 10/05 A3027 RMK AO2 SLP257 T01000050 58003=
201904220753 METAR KBLI 220753Z AUTO 16004KT 10SM OVC095 11/05 A3028 RMK AO2 SLP262 T01060050 401390083=
201904220653 METAR KBLI 220653Z AUTO 17006KT 10SM OVC110 11/04 A3028 RMK AO2 SLP262 T01060044=
201904220553 METAR KBLI 220553Z AUTO 17006KT 10SM BKN110 11/05 A3028 RMK AO2 SLP260 T01060050 10128 20106 50003=
201904220453 METAR KBLI 220453Z 17007KT 10SM CLR 11/05 A3028 RMK AO2 SLP262 T01110050=
201904220353 METAR KBLI 220353Z 17005KT 10SM CLR 11/05 A3028 RMK AO2 SLP261 T01110050=
201904220253 METAR KBLI 220253Z 17007KT 10SM FEW110 11/05 A3027 RMK AO2 SLP257 T01110050 56006=
201904220153 METAR KBLI 220153Z 18007KT 10SM CLR 12/06 A3027 RMK AO2 SLP258 T01170056=
201904220053 METAR KBLI 220053Z 18008KT 10SM FEW017 BKN120 12/06 A3028 RMK AO2 SLP260 T01170061=
201904212353 METAR KBLI 212353Z 17010KT 10SM FEW030 BKN110 12/06 A3029 RMK AO2 SLP263 T01220061 10139 20117 56005=
201904212253 METAR KBLI 212253Z 19010KT 10SM SCT020 BKN060 13/06 A3029 RMK AO2 SLP265 T01280061=
201904212153 METAR KBLI 212153Z 18009KT 10SM SCT019 BKN050 12/06 A3029 RMK AO2 SLP265 T01220061=
201904212053 METAR KBLI 212053Z 17010G16KT 10SM SCT019 12/07 A3030 RMK AO2 SLP269 T01170067 51004=
201904211953 METAR KBLI 211953Z 17010G16KT 10SM BKN017 BKN050 12/07 A3030 RMK AO2 SLP267 T01170067=
201904211853 METAR KBLI 211853Z 18011G17KT 10SM SCT017 BKN022 12/07 A3030 RMK AO2 SLP269 T01220072=
201904211753 METAR KBLI 211753Z 18009G18KT 10SM SCT020 BKN060 12/07 A3029 RMK AO2 SLP264 T01170067 10117 20083 51012=
201904211653 METAR KBLI 211653Z 17010KT 10SM OVC021 11/06 A3029 RMK AO2 SLP263 T01110061=
201904211622 SPECI KBLI 211622Z 18012G18KT 10SM BKN022 11/06 A3028 RMK AO2 T01060061=
201904211553 METAR KBLI 211553Z 17009KT 10SM SCT022 11/06 A3027 RMK AO2 SLP258 T01110056=
201904211453 METAR KBLI 211453Z 17009G17KT 10SM CLR 11/06 A3025 RMK AO2 SLP252 T01060061 53018=
201904211353 METAR KBLI 211353Z 17010G16KT 10SM CLR 10/05 A3023 RMK AO2 SLP244 T01000050=
201904211253 METAR KBLI 211253Z AUTO 17010KT 10SM CLR 10/04 A3022 RMK AO2 SLP241 T01000044=
201904211153 METAR KBLI 211153Z AUTO 14006KT 10SM CLR 08/04 A3020 RMK AO2 SLP234 T00830039 10106 20083 53013=
201904211053 METAR KBLI 211053Z AUTO 17006KT 10SM CLR 09/04 A3019 RMK AO2 SLP229 T00940044=
201904210953 METAR KBLI 210953Z AUTO 17006KT 10SM CLR 09/06 A3017 RMK AO2 SLP224 T00940056=
201904210853 METAR KBLI 210853Z AUTO 19005KT 10SM CLR 09/05 A3016 RMK AO2 SLP222 T00940050 53015=
201904210753 METAR KBLI 210753Z AUTO 15005KT 10SM CLR 09/04 A3015 RMK AO2 SLP216 T00940044 401560044=
201904210653 METAR KBLI 210653Z AUTO 17006KT 10SM CLR 10/04 A3013 RMK AO2 SLP211 T01000044=
201904210553 METAR KBLI 210553Z AUTO 17005KT 10SM CLR 10/04 A3012 RMK AO2 SLP207 T01000044 10156 20083 53016=
201904210453 METAR KBLI 210453Z 19004KT 10SM CLR 09/04 A3010 RMK AO2 SLP201 T00890044=
201904210353 METAR KBLI 210353Z 18003KT 10SM CLR 09/05 A3008 RMK AO2 SLP195 T00890050=
201904210253 METAR KBLI 210253Z 17004KT 10SM CLR 12/05 A3007 RMK AO2 SLP190 T01170050 51009=
201904210153 METAR KBLI 210153Z 17005KT 10SM CLR 13/06 A3006 RMK AO2 SLP189 T01330056=
201904210053 METAR KBLI 210053Z 17007KT 10SM FEW040 14/06 A3005 RMK AO2 SLP185 T01390056=
201904202353 METAR KBLI 202353Z 25006KT 10SM FEW040 15/05 A3005 RMK AO2 SLP181 T01500050 10156 20117 53002=
201904202253 METAR KBLI 202253Z 29010G16KT 10SM CLR 15/06 A3004 RMK AO2 SLP179 T01500056=
201904202153 METAR KBLI 202153Z 28006G16KT 10SM FEW030 15/06 A3004 RMK AO2 SLP178 T01500061=
201904202053 METAR KBLI 202053Z 27010G16KT 10SM SCT030 15/07 A3004 RMK AO2 SLP179 T01500072 57003=
201904201953 METAR KBLI 201953Z 27008KT 10SM SCT030 14/07 A3004 RMK AO2 SLP180 T01390072=
201904201853 METAR KBLI 201853Z 30008KT 10SM FEW015 SCT024 13/07 A3005 RMK AO2 SLP182 T01330072=
201904201832 SPECI KBLI 201832Z 33009KT 10SM FEW015 SCT020 13/07 A3005 RMK AO2 T01330072=
201904201753 METAR KBLI 201753Z 29010KT 10SM SCT015 BKN020 12/08 A3005 RMK AO2 SLP182 T01220078 10122 20044 51006=
201904201700 SPECI KBLI 201700Z 31005KT 10SM OVC016 11/07 A3004 RMK AO2 T01110067=
201904201653 METAR KBLI 201653Z 32005KT 10SM BKN011 OVC018 11/07 A3004 RMK AO2 SLP180 T01110072=
201904201553 METAR KBLI 201553Z 00000KT 10SM BKN011 OVC019 09/07 A3004 RMK AO2 SLP180 T00890072=
201904201453 METAR KBLI 201453Z 00000KT 10SM SCT019 BKN027 08/06 A3003 RMK AO2 SLP176 T00780056 51008=
201904201353 METAR KBLI 201353Z 02003KT 9SM BKN024 06/04 A3002 RMK AO2 SLP174 T00560039=
201904201349 SPECI KBLI 201349Z 01003KT 10SM BKN024 06/04 A3002 RMK AO2=
201904201253 METAR KBLI 201253Z AUTO 34003KT 7SM FEW015 05/04 A3001 RMK AO2 SLP169 T00500039=
201904201237 SPECI KBLI 201237Z AUTO 35003KT 10SM FEW014 SCT090 06/04 A3000 RMK AO2 T00560044=
201904201153 METAR KBLI 201153Z AUTO 00000KT 10SM BKN010 06/04 A2999 RMK AO2 SLP164 70010 T00610044 10094 20050 53001=
201904201140 SPECI KBLI 201140Z AUTO 00000KT 3SM BR BKN010 06/04 A3000 RMK AO2 T00560039=
201904201137 SPECI KBLI 201137Z AUTO 00000KT 2SM BR SCT010 06/04 A3000 RMK AO2 T00560039=
201904201053 METAR KBLI 201053Z AUTO 00000KT 10SM SCT018 06/04 A2999 RMK AO2 SLP162 T00610044=
201904201046 SPECI KBLI 201046Z AUTO 00000KT 10SM SCT018 07/04 A2999 RMK AO2 T00670044=
201904200953 METAR KBLI 200953Z AUTO 00000KT 10SM BKN017 07/04 A2999 RMK AO2 SLP161 T00720044=
201904200853 METAR KBLI 200853Z AUTO 00000KT 10SM CLR 08/05 A2999 RMK AO2 SLP163 T00830050 50008=
201904200753 METAR KBLI 200753Z AUTO 00000KT 10SM CLR 07/05 A2999 RMK AO2 SLP163 T00720050 401560067=
201904200653 METAR KBLI 200653Z AUTO 00000KT 10SM CLR 07/05 A2998 RMK AO2 SLP159 T00720050=
201904200553 METAR KBLI 200553Z AUTO 00000KT 10SM CLR 08/05 A2997 RMK AO2 SLP156 T00780050 10144 20072 53006=
201904200453 METAR KBLI 200453Z 00000KT 10SM CLR 09/06 A2996 RMK AO2 SLP152 T00890056=
201904200353 METAR KBLI 200353Z 00000KT 10SM SCT025 BKN075 10/07 A2995 RMK AO2 SLP150 T01000067=
201904200253 METAR KBLI 200253Z 25005KT 10SM SCT028 BKN100 12/07 A2995 RMK AO2 SLP148 T01220067 56006=
201904200223 SPECI KBLI 200223Z 29006KT 10SM SCT024 BKN031 13/07 A2995 RMK AO2 T01330067=
201904200220 SPECI KBLI 200220Z 29005KT 10SM BKN024 BKN031 13/07 A2995 RMK AO2 T01330067=
201904200153 METAR KBLI 200153Z 25007KT 10SM FEW015 SCT025 BKN100 13/07 A2995 RMK AO2 SLP149 T01280072=
201904200053 METAR KBLI 200053Z 29005KT 10SM FEW020 SCT095 14/08 A2996 RMK AO2 SLP151 T01390083=
201904192353 METAR KBLI 192353Z VRB06KT 10SM BKN024 BKN055 OVC080 13/09 A2997 RMK AO2 SLP154 T01330089 10156 20117 58003=
201904192253 METAR KBLI 192253Z VRB05KT 10SM FEW014 BKN024 OVC120 14/09 A2997 RMK AO2 SLP155 T01440094=
201904192207 SPECI KBLI 192207Z VRB05KT 10SM FEW014 BKN024 OVC120 14/09 A2997 RMK AO2 T01390094=
201904192200 SPECI KBLI 192200Z 21007KT 160V260 10SM SCT120 14/09 A2997 RMK AO2 T01390094=
201904192153 METAR KBLI 192153Z 22007KT 10SM FEW014 BKN024 OVC120 14/09 A2997 RMK AO2 SLP157 T01390094=
201904192053 METAR KBLI 192053Z 19004KT 8SM FEW012 SCT020 BKN029 14/09 A2997 RMK AO2 SLP157 T01390094 58005=
201904191953 METAR KBLI 191953Z 23003KT 7SM SCT006 BKN016 OVC060 12/10 A2998 RMK AO2 SLP159 T01220100=
201904191853 METAR KBLI 191853Z 00000KT 5SM BR OVC005 12/10 A2999 RMK AO2 SLP162 T01220100=
201904191753 METAR KBLI 191753Z 27003KT 5SM BR OVC006 11/09 A2999 RMK AO2 CIG 004V010 SLP162 60010 T01110094 10117 20111 53009=
201904191730 SPECI KBLI 191730Z 00000KT 10SM OVC005 11/10 A2999 RMK AO2 T01110100=
201904191653 METAR KBLI 191653Z 22004KT 5SM BR OVC003 11/10 A2998 RMK AO2 SLP160 T01110100=
201904191553 METAR KBLI 191553Z 18007KT 10SM BKN003 OVC016 12/10 A2997 RMK AO2 SLP155 T01170100=
201904191453 METAR KBLI 191453Z 18006KT 10SM BKN004 BKN044 11/10 A2996 RMK AO2 RAE06B17E53 SLP153 P0001 60010 T01110100 50002=
201904191447 SPECI KBLI 191447Z 18008KT 8SM -RA SCT004 BKN019 OVC046 11/10 A2996 RMK AO2 RAE06B17 P0001=
201904191413 SPECI KBLI 191413Z 17007KT 2SM BR BKN002 OVC015 11/10 A2996 RMK AO2 RAE06 P0000 T01110100=
201904191353 METAR KBLI 191353Z 17007KT 2SM -RA BR FEW005 OVC016 11/09 A2997 RMK AO2 SLP154 P0009 T01110094=
201904191322 SPECI KBLI 191322Z AUTO VRB03KT 2SM -RA BR SCT004 SCT008 OVC015 11/10 A2997 RMK AO2 P0004 T01110100=
201904191253 METAR KBLI 191253Z AUTO 18005KT 10SM -RA SCT009 OVC017 12/09 A2996 RMK AO2 RAB1155E04B46 SLP153 P0000 T01170094=
201904191248 SPECI KBLI 191248Z AUTO 18006KT 10SM -RA FEW009 OVC017 12/09 A2996 RMK AO2 RAB1155E04B46 P0000=
201904191153 METAR KBLI 191153Z AUTO 19006KT 10SM FEW010 OVC017 12/10 A2996 RMK AO2 SLP153 60015 70087 T01170100 10122 20117 56011=
201904191053 METAR KBLI 191053Z AUTO 19006KT 10SM FEW016 BKN023 OVC028 12/11 A2997 RMK AO2 RAE49 SLP155 P0002 T01170106=
201904191027 SPECI KBLI 191027Z AUTO 21007KT 10SM -RA SCT005 BKN026 OVC060 12/10 A2997 RMK AO2 P0002 T01170100=
201904190953 METAR KBLI 190953Z AUTO VRB06KT 7SM -RA OVC003 12/11 A2998 RMK AO2 SLP158 P0003 T01170106=
201904190937 SPECI KBLI 190937Z AUTO 19004KT 6SM -RA BR BKN003 OVC007 12/11 A2998 RMK AO2 P0002 T01170106=
201904190924 SPECI KBLI 190924Z AUTO VRB04KT 7SM -RA SCT002 OVC008 12/11 A2999 RMK AO2 CIG 005V012 P0001 T01220111=
201904190853 METAR KBLI 190853Z AUTO VRB03KT 7SM -RA OVC002 12/11 A3000 RMK AO2 SLP164 P0001 60010 T01220106 56014=
201904190753 METAR KBLI 190753Z AUTO 00000KT 9SM -RA OVC003 12/11 A3001 RMK AO2 SLP168 P0004 T01220111 401440106=
201904190739 SPECI KBLI 190739Z AUTO VRB03KT 7SM -RA OVC003 12/11 A3001 RMK AO2 CIG 002V007 P0003 T01220106=
201904190708 SPECI KBLI 190708Z AUTO 00000KT 4SM -RA BR BKN005 OVC012 12/10 A3001 RMK AO2 P0002 T01170100=
201904190653 METAR KBLI 190653Z AUTO 00000KT 4SM -RA BR FEW005 OVC011 12/11 A3001 RMK AO2 SLP171 P0005 T01170106=
201904190627 SPECI KBLI 190627Z AUTO 00000KT 3SM -RA BR FEW005 BKN013 OVC018 12/11 A3002 RMK AO2 P0003 T01170106=
201904190615 SPECI KBLI 190615Z AUTO 00000KT 2 1/2SM -RA BR BKN016 OVC027 12/11 A3003 RMK AO2 P0002 T01170106=
201904190603 SPECI KBLI 190603Z AUTO 00000KT 3SM -RA BR FEW012 BKN018 OVC027 12/11 A3003 RMK AO2 P0001 T01170106=
201904190553 METAR KBLI 190553Z AUTO 00000KT 2 1/2SM -RA BR FEW002 FEW012 OVC025 12/11 A3004 RMK AO2 RAB12 SLP178 P0004 60042 T01170106 10128 20117 58005=
201904190542 SPECI KBLI 190542Z AUTO 00000KT 2SM -RA BR FEW002 SCT012 OVC025 12/11 A3004 RMK AO2 RAB12 P0003 T01170106=
201904190534 SPECI KBLI 190534Z AUTO 34003KT 3SM R16/5000VP6000FT -RA BR FEW002 OVC025 12/11 A3004 RMK AO2 RAB12 P0002 T01170106=
201904190453 METAR KBLI 190453Z 00000KT 8SM FEW018 SCT030 OVC070 12/11 A3005 RMK AO2 RAE39 SLP181 P0001 T01220106=
201904190353 METAR KBLI 190353Z 14006KT 5SM -RA BR SCT015 BKN045 OVC070 13/11 A3005 RMK AO2 SLP183 P0005 T01280111=
201904190253 METAR KBLI 190253Z 08003KT 2SM -RA BR BKN004 OVC030 12/11 A3005 RMK AO2 SLP183 P0009 60032 T01170106 56020=
201904190153 METAR KBLI 190153Z 00000KT 2SM -RA BR BKN004 OVC034 12/11 A3007 RMK AO2 SLP189 P0009 T01220106=
201904190053 METAR KBLI 190053Z 14005KT 2 1/2SM -RA BR BKN015 OVC038 12/11 A3008 RMK AO2 SLP194 P0014 T01220106=
201904190007 SPECI KBLI 190007Z 00000KT 2SM RA BR BKN015 BKN030 OVC050 12/11 A3010 RMK AO2 P0004 T01220106=
201904182358 SPECI KBLI 182358Z 00000KT 4SM RA BR BKN015 BKN030 OVC050 12/11 A3011 RMK AO2 P0002 T01220106=
201904182355 SPECI KBLI 182355Z 34003KT 2 1/2SM RA BR BKN015 BKN030 OVC050 12/11 A3011 RMK AO2 P0001 T01220106=
201904182353 METAR KBLI 182353Z 32003KT 4SM -RA BR BKN015 BKN030 OVC050 12/11 A3011 RMK AO2 RAB2255 SLP204 P0005 60010 T01220106 10144 20117 56015=
201904182308 SPECI KBLI 182308Z 17004KT 4SM -RA BKN015 BKN050 14/08 A3010 RMK AO2 RAB2255 P0001 T01390083=
201904182253 METAR KBLI 182253Z 19005KT 10SM SCT015 BKN032 BKN055 14/08 A3011 RMK AO2 RAB04E44 SLP204 P0000 T01440083=
201904182153 METAR KBLI 182153Z 16006KT 10SM OVC035 14/09 A3014 RMK AO2 RAE2058B36E45 SLP213 P0000 T01390089=
201904182053 METAR KBLI 182053Z 11003KT 10SM -RA BKN039 OVC060 14/08 A3016 RMK AO2 RAE1957B48 SLP219 P0000 60005 T01440083 56020=
201904181953 METAR KBLI 181953Z 14006KT 10SM -RA OVC070 13/11 A3017 RMK AO2 SLP223 P0003 T01330106=
201904181853 METAR KBLI 181853Z 04004KT 6SM -RA BR SCT040 BKN050 OVC065 12/10 A3020 RMK AO2 SLP233 P0002 T01220100=
201904181753 METAR KBLI 181753Z 05006KT 5SM -RA BR FEW004 SCT045 OVC060 12/09 A3022 RMK AO2 SLP239 P0004 60020 T01170094 10117 20106 56002=
201904181653 METAR KBLI 181653Z 34004KT 4SM -RA BR BKN033 OVC049 11/09 A3022 RMK AO2 RAE05B36 SLP240 P0002 T01110094=
201904181553 METAR KBLI 181553Z AUTO 03004KT 10SM -RA BKN055 OVC070 11/09 A3021 RMK AO2 SLP238 P0002 T01110094=
201904181453 METAR KBLI 181453Z AUTO 03003KT 6SM -RA BR FEW050 BKN060 OVC080 11/09 A3022 RMK AO2 SLP241 P0005 60012 T01060089 58008=
201904181353 METAR KBLI 181353Z AUTO 08005KT 5SM -RA BR FEW041 SCT060 OVC075 11/09 A3023 RMK AO2 SLP244 P0005 T01060089=
201904181253 METAR KBLI 181253Z AUTO 04004KT 7SM -RA FEW003 OVC042 11/09 A3024 RMK AO2 SLP248 P0002 T01060089=
201904181153 METAR KBLI 181153Z AUTO 36004KT 6SM -RA BR FEW004 OVC042 11/09 A3025 RMK AO2 RAE04B50 SLP250 P0000 60004 70006 T01060089 10128 20106 55009=
201904181127 SPECI KBLI 181127Z AUTO 34003KT 5SM BR FEW003 OVC038 11/09 A3025 RMK AO2 RAE04 P0000 T01060094=
201904181053 METAR KBLI 181053Z AUTO 01004KT 6SM -RA BR OVC036 11/09 A3024 RMK AO2 RAE23B51 SLP249 P0001 T01060089=
201904180953 METAR KBLI 180953Z AUTO 33003KT 8SM -RA SCT040 BKN050 OVC060 11/09 A3025 RMK AO2 SLP252 P0001 T01110094=
201904180853 METAR KBLI 180853Z AUTO 00000KT 9SM -RA FEW050 OVC060 11/09 A3027 RMK AO2 SLP258 P0001 60002 T01110094 57008=
201904180753 METAR KBLI 180753Z AUTO 00000KT 10SM -RA OVC060 12/09 A3028 RMK AO2 SLP261 P0000 T01170094 401500089=
201904180653 METAR KBLI 180653Z AUTO 00000KT 10SM -RA OVC070 12/09 A3029 RMK AO2 RAB19 SLP263 P0001 T01220089=
201904180553 METAR KBLI 180553Z AUTO 00000KT 10SM OVC060 12/08 A3030 RMK AO2 SLP266 T01220083 10150 20122 53007=
201904180453 METAR KBLI 180453Z 00000KT 10SM OVC050 12/08 A3029 RMK AO2 SLP265 T01220083=
201904180353 METAR KBLI 180353Z 18003KT 10SM FEW045 OVC080 13/08 A3028 RMK AO2 SLP259 T01330083=
201904180253 METAR KBLI 180253Z 18005KT 10SM OVC085 14/08 A3028 RMK AO2 SLP259 T01390078 56002=
201904180153 METAR KBLI 180153Z 17005KT 10SM OVC085 14/07 A3028 RMK AO2 SLP259 T01390072=
201904180053 METAR KBLI 180053Z 17006KT 10SM OVC090 14/07 A3027 RMK AO2 SLP259 T01390072=
201904172353 METAR KBLI 172353Z 20007KT 10SM OVC100 15/07 A3028 RMK AO2 SLP261 T01500067 10150 20117 58000=
201904172253 METAR KBLI 172253Z 19010G17KT 10SM BKN100 15/07 A3028 RMK AO2 SLP262 T01500072=
201904172153 METAR KBLI 172153Z 20011G16KT 10SM CLR 14/07 A3029 RMK AO2 SLP263 T01440072=
201904172053 METAR KBLI 172053Z 20013G21KT 160V240 10SM FEW030 14/07 A3028 RMK AO2 SLP261 T01390072 50004=
201904171953 METAR KBLI 171953Z 20009G19KT 10SM CLR 13/07 A3029 RMK AO2 SLP264 T01330072=
201904171853 METAR KBLI 171853Z 17011G15KT 10SM SCT055 13/07 A3028 RMK AO2 SLP261 T01280072=
201904171753 METAR KBLI 171753Z 19011KT 10SM FEW026 FEW047 OVC065 12/07 A3027 RMK AO2 SLP258 60002 T01170072 10117 20094 51020=
201904171653 METAR KBLI 171653Z 18013G18KT 10SM BKN046 OVC060 11/07 A3025 RMK AO2 RAE34 SLP252 P0001 T01110072=
201904171553 METAR KBLI 171553Z 18009G16KT 10SM -RA OVC044 10/07 A3024 RMK AO2 RAB02E22B52 SLP248 P0000 T01000072=
201904171453 METAR KBLI 171453Z 18009KT 10SM FEW029 BKN045 10/07 A3021 RMK AO2 RAE31 SLP238 P0000 60001 T01000072 52014=
201904171353 METAR KBLI 171353Z 20006KT 10SM -RA FEW022 SCT029 OVC044 09/07 A3020 RMK AO2 RAB23 SLP234 P0001 T00940072=
201904171305 SPECI KBLI 171305Z AUTO 17006KT 10SM BKN024 OVC050 09/07 A3019 RMK AO2 T00940072=
201904171253 METAR KBLI 171253Z AUTO 17006KT 10SM SCT026 OVC050 09/07 A3018 RMK AO2 SLP227 T00940072=
201904171234 SPECI KBLI 171234Z AUTO 16005KT 10SM SCT026 BKN045 OVC050 09/07 A3018 RMK AO2 T00940067=
201904171153 METAR KBLI 171153Z AUTO 15005KT 10SM BKN022 BKN027 OVC037 09/07 A3017 RMK AO2 SLP224 60008 70013 T00940072 10094 20089 53006=
201904171053 METAR KBLI 171053Z AUTO 17007KT 10SM FEW004 SCT036 OVC049 09/07 A3016 RMK AO2 RAE29 SLP220 P0002 T00890072=
201904171029 SPECI KBLI 171029Z AUTO 18004KT 10SM SCT019 OVC039 09/07 A3016 RMK AO2 RAE29 P0002 T00890072=
201904171005 SPECI KBLI 171005Z AUTO 20005KT 7SM -RA SCT009 BKN021 OVC033 09/07 A3016 RMK AO2 P0001 T00940072=
201904170953 METAR KBLI 170953Z AUTO VRB05KT 6SM -RA BR FEW021 BKN032 OVC045 09/07 A3015 RMK AO2 RAB20 SLP218 P0002 T00940072=
201904170853 METAR KBLI 170853Z AUTO 18004KT 10SM OVC045 09/07 A3014 RMK AO2 SLP212 60004 T00940072 51020=
201904170753 METAR KBLI 170753Z AUTO 19004KT 10SM BKN041 OVC050 09/07 A3012 RMK AO2 RAE48 SLP208 P0002 T00940072 401330033=
201904170653 METAR KBLI 170653Z AUTO 19003KT 10SM -RA FEW045 BKN049 OVC080 09/07 A3010 RMK AO2 RAB06 SLP199 P0002 T00940072=
201904170643 SPECI KBLI 170643Z AUTO 21003KT 10SM -RA SCT026 BKN047 OVC055 09/07 A3010 RMK AO2 RAB06 P0001 T00940072=
201904170553 METAR KBLI 170553Z AUTO 22003KT 10SM OVC026 09/07 A3008 RMK AO2 RAB31E49 SLP193 P0000 60005 T00940072 10122 20094 53009=
201904170453 METAR KBLI 170453Z 00000KT 10SM OVC026 09/08 A3006 RMK AO2 RAE37 SLP185 P0000 T00940078=
201904170441 SPECI KBLI 170441Z 00000KT 10SM BKN028 OVC032 09/08 A3005 RMK AO2 RAE37 P0000 T00940078=
201904170353 METAR KBLI 170353Z 00000KT 10SM -RA BKN030 OVC042 10/07 A3004 RMK AO2 SLP179 P0001 T01000067=
201904170253 METAR KBLI 170253Z 00000KT 5SM -RA BR FEW024 BKN036 OVC043 10/08 A3005 RMK AO2 SLP184 P0004 60004 T01000078 51009=
201904170249 SPECI KBLI 170249Z 00000KT 4SM RA BR SCT024 OVC034 10/08 A3005 RMK AO2 P0004=
201904170241 SPECI KBLI 170241Z 00000KT 7SM -RA BKN024 BKN031 OVC049 11/08 A3005 RMK AO2 P0003 T01060078=
201904170153 METAR KBLI 170153Z 00000KT 10SM -RA BKN041 OVC055 11/07 A3004 RMK AO2 RAB0057 SLP181 P0000 T01110072=
201904170053 METAR KBLI 170053Z VRB05KT 10SM FEW047 BKN065 OVC075 12/07 A3002 RMK AO2 RAB35E45 SLP175 P0000 T01220067=
201904162353 METAR KBLI 162353Z 20005KT 10SM BKN050 OVC060 12/06 A3002 RMK AO2 SLP174 T01220061 10133 20100 51015=
201904162253 METAR KBLI 162253Z 17011KT 10SM FEW040 SCT070 BKN120 13/06 A3000 RMK AO2 SLP168 T01280056=
201904162153 METAR KBLI 162153Z 23005KT 10SM FEW041 SCT049 BKN055 13/06 A3000 RMK AO2 SLP167 T01280056=
201904162053 METAR KBLI 162053Z 19008KT 10SM OVC046 12/06 A2998 RMK AO2 SLP159 T01220056 55001=
201904161953 METAR KBLI 161953Z 20010KT 10SM SCT070 12/05 A2998 RMK AO2 SLP158 T01220050=
201904161853 METAR KBLI 161853Z 19010KT 10SM SCT070 11/05 A2998 RMK AO2 SLP159 T01110050=
201904161753 METAR KBLI 161753Z 17012KT 10SM SCT070 10/04 A2998 RMK AO2 SLP160 T01000044 10100 20039 51020=
201904161653 METAR KBLI 161653Z 19007KT 10SM FEW030 BKN065 10/04 A2996 RMK AO2 SLP155 T01000039=
201904161553 METAR KBLI 161553Z 17005KT 10SM BKN065 09/04 A2994 RMK AO2 SLP146 T00940044=
201904161453 METAR KBLI 161453Z 11003KT 10SM OVC090 09/05 A2992 RMK AO2 SLP139 T00890050 51017=
201904161353 METAR KBLI 161353Z 00000KT 10SM FEW030 BKN090 06/04 A2990 RMK AO2 SLP133 T00560039=
201904161253 METAR KBLI 161253Z AUTO 00000KT 10SM BKN090 04/02 A2989 RMK AO2 SLP130 T00390022=
201904161153 METAR KBLI 161153Z AUTO 00000KT 10SM BKN080 04/02 A2987 RMK AO2 SLP123 T00440022 10078 20033 53019=
201904161131 SPECI KBLI 161131Z AUTO 00000KT 10SM FEW009 SCT080 04/02 A2986 RMK AO2 T00390022=
201904161053 METAR KBLI 161053Z AUTO 16003KT 10SM FEW110 06/03 A2985 RMK AO2 SLP114 T00560033=
201904160953 METAR KBLI 160953Z AUTO 00000KT 10SM BKN120 04/03 A2983 RMK AO2 SLP111 T00390028=
201904160853 METAR KBLI 160853Z AUTO 00000KT 10SM CLR 05/03 A2981 RMK AO2 SLP104 T00500028 52015=
201904160753 METAR KBLI 160753Z AUTO 00000KT 10SM CLR 04/02 A2980 RMK AO2 SLP100 T00440022 401440039=
201904160653 METAR KBLI 160653Z AUTO 00000KT 10SM CLR 06/03 A2978 RMK AO2 SLP092 T00610033=
201904160553 METAR KBLI 160553Z AUTO 00000KT 10SM CLR 07/04 A2977 RMK AO2 SLP088 T00720039 10128 20072 51015=
201904160453 METAR KBLI 160453Z 00000KT 10SM CLR 08/04 A2976 RMK AO2 SLP086 T00780044=
201904160353 METAR KBLI 160353Z 00000KT 10SM CLR 08/04 A2974 RMK AO2 SLP077 T00830039=
201904160253 METAR KBLI 160253Z 28003KT 10SM CLR 11/04 A2972 RMK AO2 SLP073 T01060039 56004=
201904160153 METAR KBLI 160153Z 30006KT 10SM CLR 12/04 A2972 RMK AO2 SLP073 T01170044=
201904160053 METAR KBLI 160053Z 29007KT 10SM CLR 13/04 A2973 RMK AO2 SLP074 T01280039=
201904152353 METAR KBLI 152353Z 28006KT 10SM CLR 13/04 A2974 RMK AO2 SLP078 T01280039 10144 20094 58015=
201904152253 METAR KBLI 152253Z 35007KT 10SM CLR 14/01 A2975 RMK AO2 SLP081 T01440011=
201904152153 METAR KBLI 152153Z VRB06KT 10SM CLR 14/02 A2977 RMK AO2 SLP087 T01390017=
201904152053 METAR KBLI 152053Z 35008KT 10SM SCT045 13/02 A2978 RMK AO2 SLP091 T01330017 56020=
201904151953 METAR KBLI 151953Z 03008KT 10SM FEW039 12/02 A2980 RMK AO2 SLP099 T01220022=
201904151853 METAR KBLI 151853Z 02005KT 10SM SCT033 11/02 A2982 RMK AO2 SLP105 T01110017=
201904151848 METAR KBLI 151848Z COR 05005KT 10SM FEW033 11/02 A2982 RMK AO2 SLP105 T01110017=
201904151753 METAR KBLI 151753Z 30004KT 10SM SCT030 09/02 A2984 RMK AO2 SLP113 T00940017 10100 20039 58012=
201904151653 METAR KBLI 151653Z 16003KT 10SM SCT035 09/02 A2985 RMK AO2 SLP116 T00940022=
201904151553 METAR KBLI 151553Z 03007KT 10SM FEW030 08/02 A2987 RMK AO2 SLP122 T00830022=
201904151453 METAR KBLI 151453Z 00000KT 10SM FEW025 SCT060 06/02 A2987 RMK AO2 SLP124 T00610022 57002=
201904151353 METAR KBLI 151353Z 07005KT 10SM FEW060 04/02 A2988 RMK AO2 SLP125 T00440017=
201904151253 METAR KBLI 151253Z AUTO 00000KT 10SM OVC060 04/02 A2988 RMK AO2 SLP125 T00440022=
201904151153 METAR KBLI 151153Z AUTO 17003KT 10SM FEW050 OVC060 06/02 A2988 RMK AO2 SLP126 T00560017 10072 20050 55003=
201904151053 METAR KBLI 151053Z AUTO 18004KT 10SM FEW055 05/03 A2987 RMK AO2 SLP124 T00500028=
201904150953 METAR KBLI 150953Z AUTO 17007KT 10SM FEW009 06/03 A2988 RMK AO2 SLP125 T00560028=
201904150924 SPECI KBLI 150924Z AUTO 17007KT 10SM FEW009 SCT028 06/03 A2988 RMK AO2 T00560028=
201904150916 SPECI KBLI 150916Z AUTO 17006KT 10SM FEW009 BKN028 06/03 A2988 RMK AO2 T00560028=
201904150909 SPECI KBLI 150909Z AUTO 18006KT 10SM FEW009 SCT028 06/03 A2989 RMK AO2 T00560028=
201904150853 METAR KBLI 150853Z AUTO 19005KT 10SM FEW027 06/03 A2989 RMK AO2 SLP129 T00610028 51002=
201904150753 METAR KBLI 150753Z AUTO 17008KT 10SM FEW041 06/02 A2989 RMK AO2 SLP129 T00610022 401060061=
201904150703 SPECI KBLI 150703Z AUTO 17011G17KT 10SM FEW025 SCT060 06/03 A2988 RMK AO2 T00610028=
201904150653 METAR KBLI 150653Z AUTO 18011KT 10SM FEW012 BKN025 BKN065 07/03 A2988 RMK AO2 SLP127 T00670028=
201904150649 SPECI KBLI 150649Z AUTO 18010KT 10SM BKN025 OVC060 07/03 A2988 RMK AO2=
201904150553 METAR KBLI 150553Z AUTO 18011KT 10SM FEW050 OVC060 07/02 A2988 RMK AO2 SLP125 T00720022 10089 20072 51007=
201904150453 METAR KBLI 150453Z 17009KT 10SM CLR 07/02 A2988 RMK AO2 SLP124 T00720022=
201904150353 METAR KBLI 150353Z 18007KT 10SM FEW020 07/02 A2987 RMK AO2 SLP123 T00720022=
201904150253 METAR KBLI 150253Z 17012G17KT 10SM FEW020 OVC110 08/03 A2986 RMK AO2 SLP118 T00780028 55005=
201904150153 METAR KBLI 150153Z AUTO 18008G15KT 150V210 10SM OVC100 08/02 A2985 RMK AO2 SLP117 T00830022=
201904150053 METAR KBLI 150053Z 16014KT 10SM FEW040 OVC110 09/03 A2986 RMK AO2 SLP119 T00890028=
201904142353 METAR KBLI 142353Z 17010KT 10SM FEW035 SCT090 OVC120 09/02 A2987 RMK AO2 SLP123 T00890022 10106 20089 58001=
201904142253 METAR KBLI 142253Z 18010G18KT 10SM FEW030 SCT070 OVC100 10/02 A2988 RMK AO2 SLP125 T01000017=
201904142153 METAR KBLI 142153Z 15018KT 10SM FEW030 SCT050 OVC110 10/03 A2988 RMK AO2 SLP126 T01000028=
201904142053 METAR KBLI 142053Z 16015G23KT 10SM SCT030 10/03 A2988 RMK AO2 SLP125 T01000028 56006=
201904141953 METAR KBLI 141953Z 18013G19KT 10SM CLR 09/03 A2988 RMK AO2 SLP125 T00940028=
201904141948 METAR KBLI 141948Z COR 17014G21KT 10SM CLR 10/03 A2987 RMK AO2 SLP125 T00940028=
201904141853 METAR KBLI 141853Z 19012KT 10SM SCT020 BKN100 10/02 A2988 RMK AO2 SLP127 T01000022=
201904141753 METAR KBLI 141753Z 18008KT 10SM SCT020 BKN100 09/03 A2989 RMK AO2 SLP130 T00890028 10089 20072 58001=
201904141653 METAR KBLI 141653Z 19007G16KT 160V230 10SM FEW022 BKN090 OVC120 09/03 A2989 RMK AO2 SLP131 T00890028=
201904141553 METAR KBLI 141553Z 20007KT 10SM OVC100 08/03 A2990 RMK AO2 SLP132 T00830028=
201904141453 METAR KBLI 141453Z 19008KT 10SM OVC041 08/03 A2990 RMK AO2 SLP131 T00780028 53006=
201904141353 METAR KBLI 141353Z 20005KT 10SM FEW019 07/03 A2989 RMK AO2 SLP129 T00720028=
201904141253 METAR KBLI 141253Z AUTO 19006KT 10SM SCT060 BKN085 OVC110 07/03 A2988 RMK AO2 SLP125 T00720028=
201904141153 METAR KBLI 141153Z AUTO VRB05KT 10SM FEW110 07/03 A2988 RMK AO2 SLP126 70054 T00720028 10083 20072 53003=
201904141053 METAR KBLI 141053Z AUTO 19008KT 170V230 10SM CLR 08/03 A2987 RMK AO2 SLP123 T00780028=
201904140953 METAR KBLI 140953Z AUTO 19007KT 10SM FEW047 SCT100 08/03 A2986 RMK AO2 SLP121 T00780028=
201904140853 METAR KBLI 140853Z AUTO 20007G15KT 150V220 10SM FEW050 BKN100 08/03 A2987 RMK AO2 SLP122 T00780028 51007=
201904140753 METAR KBLI 140753Z AUTO 20008G17KT 10SM FEW019 SCT050 BKN080 08/03 A2986 RMK AO2 SLP120 T00830033 401000078=
201904140653 METAR KBLI 140653Z AUTO 19007G15KT 160V220 10SM SCT020 OVC050 08/03 A2986 RMK AO2 SLP119 T00830033=
201904140553 METAR KBLI 140553Z AUTO 20008KT 10SM FEW024 BKN090 08/03 A2985 RMK AO2 SLP115 60000 T00830028 10100 20083 51013=
201904140453 METAR KBLI 140453Z 18007KT 10SM FEW120 08/03 A2984 RMK AO2 SLP112 T00830028=
201904140353 METAR KBLI 140353Z 20007KT 10SM CLR 08/03 A2983 RMK AO2 SLP108 T00830028=
201904140253 METAR KBLI 140253Z VRB06KT 10SM SCT120 09/03 A2981 RMK AO2 SLP103 60000 T00940028 53010=
201904140153 METAR KBLI 140153Z 20007KT 10SM CLR 10/04 A2980 RMK AO2 SLP098 T01000039=
201904140053 METAR KBLI 140053Z 18011G18KT 10SM SCT020 BKN070 10/04 A2978 RMK AO2 PK WND 19026/2359 RAE2357 SLP093 P0000 T01000044=
201904132353 METAR KBLI 132353Z 17016G24KT 10SM -RA BKN023 BKN050 OVC075 09/06 A2978 RMK AO2 PK WND 17030/2304 RAB21 SLP092 P0000 60002 T00890056 10100 20078 58003=
201904132253 METAR KBLI 132253Z 17013G26KT 10SM BKN023 OVC046 09/04 A2979 RMK AO2 PK WND 16030/2154 RAE26 SLP097 P0000 T00940044=
201904132200 SPECI KBLI 132200Z 16014G30KT 10SM -RA BKN023 BKN060 OVC080 09/04 A2979 RMK AO2 PK WND 16030/2154 P0000 T00890044=
201904132153 METAR KBLI 132153Z 16019G29KT 10SM -RA FEW023 BKN060 OVC080 09/04 A2979 RMK AO2 PK WND 15033/2140 SLP096 P0001 T00890044=
201904132149 SPECI KBLI 132149Z 16021G33KT 10SM -RA BKN023 BKN050 OVC085 09/04 A2979 RMK AO2 PK WND 15033/2140 P0001=
201904132142 SPECI KBLI 132142Z 16019G33KT 10SM -RA FEW020 BKN050 OVC085 09/04 A2979 RMK AO2 PK WND 15033/2140 P0001 T00890044=
201904132053 METAR KBLI 132053Z 15019G26KT 10SM -RA BKN023 OVC060 08/04 A2980 RMK AO2 PK WND 16030/2016 RAB1954E04B30 SLP098 P0000 60001 T00830044 58018=
201904131953 METAR KBLI 131953Z 15017G22KT 10SM BKN024 OVC060 08/04 A2983 RMK AO2 PK WND 15026/1938 RAB28E47 SLP109 P0000 T00830044=
201904131853 METAR KBLI 131853Z 15013G22KT 10SM BKN022 OVC060 08/04 A2984 RMK AO2 PK WND 17027/1838 RAE35 SLP112 P0001 T00780039=
201904131753 METAR KBLI 131753Z 15015G23KT 7SM -RA OVC024 08/04 A2985 RMK AO2 RAE33B53 SLP116 P0000 60052 T00780039 10083 20078 58018=
201904131653 METAR KBLI 131653Z 15012KT 6SM -RA FEW007 SCT018 OVC023 08/05 A2987 RMK AO2 SLP123 P0002 T00780050=
201904131553 METAR KBLI 131553Z 16010G19KT 6SM -RA FEW007 BKN018 OVC032 08/04 A2989 RMK AO2 SLP130 P0003 T00780044=
201904131453 METAR KBLI 131453Z 5SM -RA SCT007 BKN015 OVC029 08/06 A2990 RMK AO2 SLP134 P0009 60047 T00830056 58002=
201904131353 METAR KBLI 131353Z 17006G17KT 5SM RA BR SCT007 BKN015 OVC033 08/06 A2991 RMK AO2 SLP134 P0020 T00830061=
201904131327 SPECI KBLI 131327Z AUTO 17007KT 5SM RA BR SCT006 BKN011 OVC030 08/07 A2991 RMK AO2 P0011 T00830072=
201904131320 SPECI KBLI 131320Z AUTO 18007KT 5SM RA BR FEW006 BKN009 OVC025 08/07 A2991 RMK AO2 P0008 T00830067=
201904131253 METAR KBLI 131253Z AUTO 17009KT 5SM RA BR BKN004 BKN008 OVC012 08/07 A2991 RMK AO2 SLP135 P0018 T00830072=
201904131222 SPECI KBLI 131222Z AUTO 19007G16KT 5SM RA BR BKN006 OVC012 08/07 A2992 RMK AO2 CIG 003V010 P0010 T00830072=
201904131153 METAR KBLI 131153Z AUTO 18013G18KT 3SM RA BR BKN004 BKN008 OVC015 08/07 A2992 RMK AO2 RAB00 SLP138 P0012 60012 70012 T00830067 10100 20083 55008=
201904131149 SPECI KBLI 131149Z AUTO 17010G16KT 3SM RA BR BKN004 BKN013 OVC018 08/07 A2992 RMK AO2 RAB00 P0011=
201904131142 SPECI KBLI 131142Z AUTO 17010KT 3SM RA BR SCT004 BKN010 OVC021 09/07 A2992 RMK AO2 RAB00 P0009 T00890067=
201904131131 SPECI KBLI 131131Z AUTO 18010G17KT 4SM -RA BR FEW004 SCT010 OVC021 09/07 A2992 RMK AO2 RAB00 P0006 T00890067=
201904131053 METAR KBLI 131053Z AUTO 19006KT 10SM OVC025 09/06 A2992 RMK AO2 SLP140 T00940056=
201904130953 METAR KBLI 130953Z AUTO 18008KT 10SM BKN021 BKN030 OVC035 10/06 A2994 RMK AO2 SLP146 T01000056=
201904130926 SPECI KBLI 130926Z AUTO 17008KT 10SM BKN021 OVC100 10/06 A2995 RMK AO2 T01000056=
201904130853 METAR KBLI 130853Z AUTO 17007KT 10SM OVC095 10/05 A2995 RMK AO2 SLP149 T01000050 58012=
201904130753 METAR KBLI 130753Z AUTO 18007KT 10SM CLR 10/05 A2996 RMK AO2 SLP154 T01000050 401330072=
201904130653 METAR KBLI 130653Z AUTO 18008KT 10SM SCT034 10/05 A2997 RMK AO2 SLP157 T01000050=
201904130553 METAR KBLI 130553Z AUTO 17005KT 10SM CLR 09/05 A2999 RMK AO2 SLP162 T00940050 10128 20089 58008=
201904130453 METAR KBLI 130453Z 17004KT 10SM CLR 10/05 A3001 RMK AO2 SLP169 T01000050=
201904130353 METAR KBLI 130353Z 17006KT 10SM FEW080 SCT120 11/05 A3000 RMK AO2 SLP167 T01060050=
201904130253 METAR KBLI 130253Z 17007KT 10SM FEW080 SCT120 11/06 A3001 RMK AO2 SLP170 T01060061 58008=
201904130153 METAR KBLI 130153Z 17005KT 10SM SCT080 BKN120 11/06 A3003 RMK AO2 SLP178 T01110056=
201904130053 METAR KBLI 130053Z 20007KT 10SM SCT080 12/06 A3004 RMK AO2 SLP178 T01220056=
201904122353 METAR KBLI 122353Z 21007KT 10SM FEW040 SCT080 13/05 A3004 RMK AO2 SLP178 T01280050 10133 20094 56011=
201904122253 METAR KBLI 122253Z 18008KT 10SM FEW020 SCT080 13/05 A3005 RMK AO2 SLP181 T01280050=
201904122153 METAR KBLI 122153Z 18007KT 10SM FEW030 SCT080 12/04 A3006 RMK AO2 SLP185 T01170039=
201904122053 METAR KBLI 122053Z 28007KT 240V310 10SM FEW049 12/05 A3007 RMK AO2 SLP189 T01220050 51002=
201904121953 METAR KBLI 121953Z 25005KT 10SM SCT018 OVC047 11/05 A3007 RMK AO2 SLP190 T01060050=
201904121920 SPECI KBLI 121920Z VRB04KT 10SM SCT020 OVC046 11/05 A3007 RMK AO2 T01060050=
201904121853 METAR KBLI 121853Z 31006KT 10SM OVC019 11/06 A3007 RMK AO2 SLP192 T01060056=
201904121753 METAR KBLI 121753Z 00000KT 10SM FEW014 BKN022 09/05 A3006 RMK AO2 SLP188 T00940050 10111 20072 53005=
201904121653 METAR KBLI 121653Z 00000KT 10SM BKN012 09/05 A3006 RMK AO2 SLP186 T00890050=
201904121553 METAR KBLI 121553Z 00000KT 10SM OVC010 08/06 A3006 RMK AO2 SLP186 T00830056=
201904121453 METAR KBLI 121453Z 00000KT 10SM BKN010 OVC044 08/06 A3005 RMK AO2 SLP184 T00780061 51013=
201904121353 METAR KBLI 121353Z 00000KT 5SM BR OVC025 07/06 A3004 RMK AO2 SLP179 T00720056=
201904121320 SPECI KBLI 121320Z AUTO 00000KT 10SM FEW009 OVC024 07/06 A3003 RMK AO2 T00720056=
201904121253 METAR KBLI 121253Z AUTO 32003KT 10SM OVC023 07/06 A3003 RMK AO2 SLP177 T00720056=
201904121153 METAR KBLI 121153Z AUTO 02003KT 6SM BR OVC020 07/05 A3001 RMK AO2 SLP171 70054 T00720050 10078 20072 53009=
201904121053 METAR KBLI 121053Z AUTO 35003KT 7SM OVC018 08/06 A2999 RMK AO2 SLP164 T00780061=
201904121000 SPECI KBLI 121000Z AUTO 34005KT 8SM OVC015 08/06 A2999 RMK AO2 T00780061=
201904120953 METAR KBLI 120953Z AUTO 33004KT 8SM OVC014 08/06 A2999 RMK AO2 SLP164 T00780061=
201904120914 SPECI KBLI 120914Z AUTO 34005KT 10SM BKN011 OVC028 07/06 A2998 RMK AO2 T00720056=
201904120853 METAR KBLI 120853Z AUTO 34005KT 10SM OVC009 08/06 A2998 RMK AO2 SLP162 T00780061 51008=
201904120837 SPECI KBLI 120837Z AUTO 34005KT 9SM BKN007 BKN028 OVC055 08/06 A2998 RMK AO2 T00780056=
201904120828 SPECI KBLI 120828Z AUTO 33004KT 10SM FEW007 BKN046 OVC055 08/06 A2998 RMK AO2 T00780056=
201904120753 METAR KBLI 120753Z AUTO 36004KT 8SM BKN027 OVC049 08/06 A2997 RMK AO2 SLP158 T00780061 400940067=
201904120750 SPECI KBLI 120750Z AUTO 35003KT 8SM BKN027 OVC049 08/06 A2997 RMK AO2=
201904120722 SPECI KBLI 120722Z AUTO 36004KT 8SM SCT027 OVC047 08/06 A2997 RMK AO2 T00780056=
201904120653 METAR KBLI 120653Z AUTO 00000KT 8SM FEW020 BKN026 OVC036 08/06 A2996 RMK AO2 SLP153 T00780061=
201904120553 METAR KBLI 120553Z AUTO 35003KT 10SM OVC017 08/07 A2996 RMK AO2 RAE16 SLP153 P0000 60029 T00780067 10094 20078 51008=
201904120453 METAR KBLI 120453Z 36006KT 5SM -RA BR BKN015 BKN030 OVC045 08/07 A2995 RMK AO2 SLP151 P0008 T00780067=
201904120353 METAR KBLI 120353Z 36007KT 5SM -RA BR SCT005 OVC015 08/06 A2995 RMK AO2 SLP149 P0004 T00780061=
201904120253 METAR KBLI 120253Z 36007KT 4SM -RA BR BKN008 OVC016 08/06 A2993 RMK AO2 SLP145 P0005 60017 T00780061 56005=
201904120153 METAR KBLI 120153Z 02006KT 2 1/2SM -RA BR BKN008 OVC018 08/07 A2993 RMK AO2 SLP145 P0005 T00830067=
201904120150 SPECI KBLI 120150Z 02007KT 2 1/2SM -RA BR BKN007 OVC018 08/07 A2993 RMK AO2 P0005=
201904120144 SPECI KBLI 120144Z 03006KT 3SM -RA BR FEW006 OVC018 08/07 A2993 RMK AO2 P0004 T00830067=
201904120053 METAR KBLI 120053Z 02007KT 6SM -RA BR SCT010 OVC021 09/07 A2994 RMK AO2 SLP146 P0007 T00890072=
201904112353 METAR KBLI 112353Z 04005KT 7SM -RA BKN023 OVC039 09/07 A2995 RMK AO2 SLP149 P0003 60024 T00940072 10094 20089 58017=
201904112253 METAR KBLI 112253Z 06005KT 6SM -RA BR FEW028 OVC039 09/07 A2997 RMK AO2 SLP156 P0006 T00940072=
201904112153 METAR KBLI 112153Z 11006KT 7SM -RA BKN047 OVC055 09/07 A2999 RMK AO2 SLP164 P0007 T00940067=
201904112053 METAR KBLI 112053Z 19003KT 5SM -RA BKN046 OVC055 09/06 A3000 RMK AO2 SLP166 P0004 60008 T00890061 58015=
201904111953 METAR KBLI 111953Z 19004KT 9SM -RA BKN048 OVC055 09/06 A3001 RMK AO2 SLP171 P0003 T00890061=
201904111853 METAR KBLI 111853Z 16004KT 10SM -RA FEW014 SCT041 OVC060 09/06 A3003 RMK AO2 SLP176 P0001 T00940056=
201904111753 METAR KBLI 111753Z 20004KT 10SM -RA FEW014 OVC034 09/06 A3004 RMK AO2 SLP181 P0000 60001 T00890061 10089 20067 58009=
201904111654 SPECI KBLI 111654Z 16007KT 10SM -RA SCT029 BKN034 OVC041 08/05 A3005 RMK AO2 P0000 T00830050=
201904111653 METAR KBLI 111653Z 17006KT 10SM -RA SCT027 OVC034 08/05 A3005 RMK AO2 SLP184 P0001 T00830050=
201904111616 SPECI KBLI 111616Z AUTO 15006KT 10SM -RA FEW015 BKN024 OVC031 09/05 A3006 RMK AO2 P0000 T00890050=
201904111553 METAR KBLI 111553Z AUTO 13005KT 10SM -RA SCT034 OVC050 08/05 A3006 RMK AO2 RAB41 SLP188 P0000 T00830050=
201904111453 METAR KBLI 111453Z AUTO 16005KT 10SM SCT070 BKN095 OVC110 08/04 A3007 RMK AO2 SLP190 T00780044 56008=
201904111353 METAR KBLI 111353Z AUTO 16003KT 10SM OVC075 07/04 A3007 RMK AO2 SLP192 T00670044=
201904111253 METAR KBLI 111253Z AUTO 18003KT 10SM OVC090 07/04 A3008 RMK AO2 SLP195 T00670044=
201904111200 SPECI KBLI 111200Z AUTO 16004KT 10SM FEW028 SCT033 OVC120 07/05 A3009 RMK AO2 T00720050=
201904111153 METAR KBLI 111153Z AUTO 16005KT 10SM FEW015 BKN028 OVC120 07/05 A3009 RMK AO2 SLP198 70042 T00720050 10078 20067 58012=
201904111134 SPECI KBLI 111134Z AUTO 17003KT 10SM BKN016 BKN030 OVC110 07/05 A3010 RMK AO2 T00670050=
201904111053 METAR KBLI 111053Z AUTO 17003KT 10SM OVC060 07/05 A3011 RMK AO2 SLP203 T00720050=
201904110953 METAR KBLI 110953Z AUTO 17003KT 10SM BKN033 OVC060 07/05 A3012 RMK AO2 SLP206 T00720050=
201904110853 METAR KBLI 110853Z AUTO 18003KT 10SM SCT045 OVC070 08/06 A3013 RMK AO2 SLP210 T00780056 58013=
201904110753 METAR KBLI 110753Z AUTO 18004KT 10SM OVC035 08/06 A3014 RMK AO2 SLP216 T00780056 401110078=
201904110653 METAR KBLI 110653Z AUTO 17004KT 10SM OVC035 08/06 A3015 RMK AO2 SLP218 T00780061=
201904110553 METAR KBLI 110553Z AUTO 16003KT 10SM BKN039 OVC080 08/06 A3017 RMK AO2 SLP223 60003 T00780061 10111 20078 50001=
201904110453 METAR KBLI 110453Z 00000KT 10SM OVC070 08/07 A3017 RMK AO2 RAE0355 SLP224 P0000 T00780067=
201904110353 METAR KBLI 110353Z 17004KT 10SM -RA OVC055 09/07 A3016 RMK AO2 RAB43 SLP222 P0000 T00890067=
201904110253 METAR KBLI 110253Z 17005KT 7SM SCT016 BKN042 OVC049 09/07 A3016 RMK AO2 RAE37 SLP222 P0001 60003 T00890067 56006=
201904110153 METAR KBLI 110153Z VRB04KT 6SM -RA SCT018 BKN039 OVC065 09/07 A3017 RMK AO2 RAB38 SLP225 P0002 T00940067=
201904110053 METAR KBLI 110053Z AUTO 18005KT 10SM SCT060 SCT075 10/06 A3017 RMK AO2 SLP223 T01000061=
201904102353 METAR KBLI 102353Z 18009KT 10SM BKN055 10/07 A3018 RMK AO2 SLP228 60030 T01000067 10106 20078 56015=
201904102253 METAR KBLI 102253Z 18009KT 10SM FEW013 BKN065 10/07 A3019 RMK AO2 SLP232 T01000067=
201904102200 SPECI KBLI 102200Z 17011KT 10SM SCT016 BKN050 OVC060 09/07 A3020 RMK AO2 T00940067=
201904102153 METAR KBLI 102153Z 17010KT 10SM BKN016 BKN050 OVC060 09/07 A3020 RMK AO2 RAE33 SLP236 P0002 T00890067=
201904102053 METAR KBLI 102053Z 18009G17KT 3SM -RA BR FEW023 OVC032 08/06 A3022 RMK AO2 SLP243 P0007 60028 T00830061 58013=
201904101953 METAR KBLI 101953Z 19008KT 2SM -RA BR FEW010 SCT017 OVC032 08/06 A3025 RMK AO2 SLP250 P0014 T00830061=
201904101857 SPECI KBLI 101857Z 17009KT 2SM -RA BKN029 OVC034 08/06 A3026 RMK AO2 P0001 T00830056=
201904101853 METAR KBLI 101853Z 17010G17KT 5SM -RA FEW016 OVC031 08/06 A3026 RMK AO2 SLP256 P0007 T00830056=
201904101753 METAR KBLI 101753Z 14009KT 5SM -RA FEW018 FEW024 OVC035 08/05 A3026 RMK AO2 RAB1656 SLP255 P0006 60009 T00830050 10094 20083 58015=
201904101653 METAR KBLI 101653Z 17007KT 10SM FEW019 BKN033 OVC049 08/06 A3028 RMK AO2 RAE43 SLP263 P0002 T00830056=
201904101553 METAR KBLI 101553Z 18009G17KT 10SM -RA FEW016 OVC031 08/05 A3030 RMK AO2 RAB24 SLP269 P0001 T00830050=
201904101453 METAR KBLI 101453Z 20008KT 10SM BKN021 BKN029 OVC045 09/04 A3030 RMK AO2 RAB14E29 SLP269 P0000 60000 T00940044 55003=
201904101353 METAR KBLI 101353Z 18006KT 10SM SCT043 BKN050 OVC085 09/04 A3031 RMK AO2 RAB1258E41 SLP270 P0000 T00890039=
201904101253 METAR KBLI 101253Z AUTO 18005KT 10SM OVC045 09/04 A3031 RMK AO2 RAE11 SLP272 P0000 T00940039=
201904101153 METAR KBLI 101153Z AUTO 17004KT 10SM -RA OVC041 09/04 A3032 RMK AO2 RAE13B52 SLP275 P0000 60000 70001 T00890044 10100 20089 53005=
201904101053 METAR KBLI 101053Z AUTO 18005KT 10SM -RA OVC043 09/04 A3032 RMK AO2 RAB43 SLP273 P0000 T00890044=
201904100953 METAR KBLI 100953Z AUTO 19004KT 10SM FEW018 OVC040 09/04 A3031 RMK AO2 SLP270 T00890044=
201904100853 METAR KBLI 100853Z AUTO 17007KT 10SM BKN040 BKN060 OVC080 09/04 A3031 RMK AO2 SLP270 T00890044 55001=
201904100753 METAR KBLI 100753Z AUTO 16008KT 10SM FEW046 OVC065 09/04 A3030 RMK AO2 SLP269 T00940039 401330078=
201904100653 METAR KBLI 100653Z AUTO 16006KT 10SM FEW048 FEW055 OVC080 09/04 A3031 RMK AO2 SLP272 T00940039=
201904100553 METAR KBLI 100553Z AUTO 17006KT 10SM SCT049 OVC060 10/04 A3031 RMK AO2 SLP271 T01000039 10128 20100 52018=
201904100453 METAR KBLI 100453Z 17007KT 10SM BKN050 BKN065 OVC080 10/03 A3029 RMK AO2 SLP266 T01000033=
201904100353 METAR KBLI 100353Z 17007KT 10SM FEW044 10/04 A3027 RMK AO2 SLP259 T01000039=
201904100253 METAR KBLI 100253Z 18005KT 10SM BKN041 BKN050 11/04 A3025 RMK AO2 SLP253 T01060044 51013=
201904100153 METAR KBLI 100153Z 19008KT 10SM BKN039 OVC049 12/04 A3024 RMK AO2 SLP248 T01170044=
201904100053 METAR KBLI 100053Z 17007KT 10SM BKN039 OVC050 12/05 A3023 RMK AO2 SLP243 T01220050=
201904092353 METAR KBLI 092353Z 17008KT 10SM BKN037 13/05 A3022 RMK AO2 SLP239 T01280050 10133 20094 51005=
201904092253 METAR KBLI 092253Z VRB06KT 10SM FEW036 13/05 A3022 RMK AO2 SLP239 T01280050=
201904092153 METAR KBLI 092153Z 17009KT 10SM SCT030 OVC041 13/05 A3021 RMK AO2 SLP236 T01280050=
201904092053 METAR KBLI 092053Z 26005KT 10SM BKN030 BKN040 12/04 A3020 RMK AO2 SLP233 T01170044 51013=
201904092001 SPECI KBLI 092001Z 27007KT 10SM FEW023 BKN034 12/05 A3019 RMK AO2 T01170050=
201904091953 METAR KBLI 091953Z VRB03KT 10SM SCT023 BKN028 OVC034 11/05 A3019 RMK AO2 SLP233 T01110050=
201904091853 METAR KBLI 091853Z 29005KT 10SM SCT023 OVC029 10/04 A3019 RMK AO2 SLP230 T01000044=
201904091753 METAR KBLI 091753Z VRB04KT 10SM BKN019 OVC026 09/05 A3016 RMK AO2 SLP221 60001 T00940050 10094 20078 53024=
201904091653 METAR KBLI 091653Z 28004KT 10SM OVC017 09/05 A3013 RMK AO2 SLP211 T00890050=
201904091553 METAR KBLI 091553Z 30007KT 10SM OVC019 08/05 A3011 RMK AO2 SLP204 T00830050=
201904091453 METAR KBLI 091453Z VRB03KT 10SM OVC018 08/06 A3009 RMK AO2 SLP197 60001 T00830056 53023=
201904091353 METAR KBLI 091353Z 00000KT 10SM BKN017 BKN022 OVC041 08/06 A3006 RMK AO2 SLP188 T00780061=
201904091346 SPECI KBLI 091346Z 19003KT 10SM BKN020 BKN042 OVC049 08/06 A3006 RMK AO2 T00780061=
201904091253 METAR KBLI 091253Z AUTO 00000KT 10SM OVC037 08/07 A3004 RMK AO2 RAE24 SLP180 P0001 T00780067=
201904091153 METAR KBLI 091153Z AUTO 00000KT 9SM -RA OVC038 08/07 A3002 RMK AO2 SLP174 P0003 60015 70026 T00780067 10083 20078 53009=
201904091053 METAR KBLI 091053Z AUTO 28004KT 5SM RA BR OVC044 08/06 A3001 RMK AO2 SLP169 P0009 T00780061=
201904091034 SPECI KBLI 091034Z AUTO 29004KT 6SM -RA BR SCT024 OVC043 08/06 A3000 RMK AO2 P0005 T00780061=
201904090953 METAR KBLI 090953Z AUTO 30004KT 9SM -RA FEW007 OVC020 08/07 A3000 RMK AO2 RAE00B23 SLP166 P0002 T00830067=
201904090921 SPECI KBLI 090921Z AUTO 29007KT 10SM SCT008 OVC016 08/07 A3000 RMK AO2 RAE00 P0000 T00830067=
201904090853 METAR KBLI 090853Z AUTO 29004KT 9SM -RA BKN015 OVC022 08/07 A2999 RMK AO2 RAB12 SLP163 P0001 60001 T00830067 53007=
201904090753 METAR KBLI 090753Z AUTO 00000KT 3SM BR OVC016 08/07 A2998 RMK AO2 SLP160 T00780067 401390044=
201904090653 METAR KBLI 090653Z AUTO 32003KT 4SM BR BKN016 BKN020 OVC085 08/07 A2997 RMK AO2 SLP157 T00780067=
201904090648 SPECI KBLI 090648Z AUTO 33003KT 5SM BR OVC016 08/07 A2997 RMK AO2=
201904090553 METAR KBLI 090553Z AUTO 00000KT 6SM BR OVC011 08/07 A2997 RMK AO2 SLP156 60008 T00830072 10111 20083 51014=
201904090532 SPECI KBLI 090532Z AUTO 33004KT 6SM BR BKN010 08/07 A2996 RMK AO2 T00830067=
201904090453 METAR KBLI 090453Z 29005KT 6SM BR OVC008 08/07 A2996 RMK AO2 SLP153 T00830072=
201904090444 SPECI KBLI 090444Z 29005KT 6SM BR BKN010 OVC080 08/07 A2996 RMK AO2 T00830072=
201904090353 METAR KBLI 090353Z 29004KT 9SM FEW065 OVC095 08/07 A2995 RMK AO2 RAE15B34E44 SLP149 P0001 T00830067=
201904090253 METAR KBLI 090253Z 07005KT 9SM -RA BKN050 OVC060 09/07 A2993 RMK AO2 RAB46 SLP142 P0000 60007 T00890067 58005=
201904090153 METAR KBLI 090153Z 31006KT 10SM BKN041 OVC055 09/07 A2995 RMK AO2 RAE40 SLP149 P0003 T00940072=
201904090053 METAR KBLI 090053Z 30005KT 3SM RA BR BKN039 BKN046 OVC060 09/07 A2995 RMK AO2 RAB2357 SLP151 P0004 T00890067=
201904082353 METAR KBLI 082353Z 27006KT 10SM OVC034 11/06 A2994 RMK AO2 SLP147 60001 T01110056 10139 20089 56012=
201904082253 METAR KBLI 082253Z VRB04KT 10SM OVC033 13/04 A2995 RMK AO2 SLP149 T01330039=
201904082153 METAR KBLI 082153Z 00000KT 10SM OVC035 13/04 A2996 RMK AO2 SLP153 T01330039=
201904082053 METAR KBLI 082053Z 34004KT 10SM OVC036 13/06 A2998 RMK AO2 SLP159 60001 T01280056 58006=
201904081953 METAR KBLI 081953Z 01007KT 10SM BKN030 OVC043 12/06 A2998 RMK AO2 SLP161 T01170061=
201904081853 METAR KBLI 081853Z VRB03KT 10SM BKN041 OVC050 10/06 A3000 RMK AO2 RAE29 SLP166 P0001 T01000061=
201904081753 METAR KBLI 081753Z 27004KT 5SM -RA BKN039 OVC046 09/06 A3000 RMK AO2 RAB06E16B34 SLP165 P0002 60002 T00890056 10100 20050 53005=
201904081653 METAR KBLI 081653Z 00000KT 10SM OVC060 10/04 A2998 RMK AO2 SLP160 T01000039=
201904081553 METAR KBLI 081553Z 00000KT 10SM BKN070 08/04 A2999 RMK AO2 SLP162 T00830044=
201904081453 METAR KBLI 081453Z 01004KT 10SM SCT080 BKN100 07/03 A2998 RMK AO2 SLP160 T00720028 55003=
201904081353 METAR KBLI 081353Z 04005KT 10SM BKN110 05/02 A2998 RMK AO2 SLP159 T00500017=
201904081253 METAR KBLI 081253Z AUTO 04004KT 10SM BKN110 06/03 A2998 RMK AO2 SLP159 T00560028=
201904081153 METAR KBLI 081153Z AUTO 02006KT 10SM CLR 06/03 A2999 RMK AO2 SLP163 70004 T00610028 10072 20039 56016=
201904081053 METAR KBLI 081053Z AUTO 03006KT 10SM CLR 04/02 A3000 RMK AO2 SLP167 T00440022=
201904080953 METAR KBLI 080953Z AUTO 02006KT 10SM CLR 06/03 A3002 RMK AO2 SLP175 T00560028=
201904080853 METAR KBLI 080853Z AUTO 03006KT 10SM CLR 06/03 A3004 RMK AO2 SLP180 T00560028 58005=
201904080753 METAR KBLI 080753Z AUTO 01004KT 10SM CLR 04/03 A3005 RMK AO2 SLP185 T00440028 401390039=
201904080653 METAR KBLI 080653Z AUTO 00000KT 10SM CLR 06/03 A3006 RMK AO2 SLP188 T00560033=
201904080553 METAR KBLI 080553Z AUTO 00000KT 10SM CLR 06/04 A3005 RMK AO2 SLP185 T00610039 10133 20061 50002=
201904080453 METAR KBLI 080453Z 00000KT 10SM CLR 07/04 A3006 RMK AO2 SLP187 T00670039=
201904080353 METAR KBLI 080353Z 18003KT 10SM CLR 09/04 A3006 RMK AO2 SLP186 T00890044=
201904080253 METAR KBLI 080253Z 20004KT 10SM CLR 10/04 A3005 RMK AO2 SLP183 T01000044 58002=
201904080153 METAR KBLI 080153Z 19008KT 10SM SCT070 12/04 A3006 RMK AO2 SLP186 T01220044=
201904080053 METAR KBLI 080053Z VRB05KT 10SM CLR 13/04 A3005 RMK AO2 SLP184 T01280039=
201904072353 METAR KBLI 072353Z 19010KT 10SM FEW040 SCT065 13/04 A3005 RMK AO2 SLP184 T01330044 10139 20089 53007=
201904072253 METAR KBLI 072253Z 18012KT 10SM FEW030 SCT075 13/04 A3004 RMK AO2 SLP180 T01330044=
201904072153 METAR KBLI 072153Z 19008KT 10SM SCT075 13/04 A3004 RMK AO2 SLP178 T01280044=
201904072053 METAR KBLI 072053Z 17014KT 10SM SCT030 BKN070 12/05 A3003 RMK AO2 SLP177 T01170050 51020=
201904071953 METAR KBLI 071953Z 17011KT 10SM BKN025 BKN060 11/05 A3003 RMK AO2 SLP176 T01110050=
201904071853 METAR KBLI 071853Z 17008KT 150V220 10SM SCT010 BKN025 BKN040 11/05 A3000 RMK AO2 SLP168 T01110050=
201904071753 METAR KBLI 071753Z 18005KT 10SM BKN010 BKN025 09/06 A2997 RMK AO2 SLP158 60004 T00890061 10089 20067 53037=
201904071653 METAR KBLI 071653Z 18004KT 10SM FEW004 BKN008 OVC030 08/06 A2994 RMK AO2 SLP147 T00830056=
201904071610 SPECI KBLI 071610Z 00000KT 10SM BKN005 OVC034 08/06 A2991 RMK AO2 T00780056=
201904071553 METAR KBLI 071553Z 04003KT 10SM FEW004 OVC034 08/06 A2990 RMK AO2 SLP132 T00780056=
201904071453 METAR KBLI 071453Z 03005KT 10SM FEW004 OVC036 07/05 A2987 RMK AO2 SLP121 60004 T00670050 53020=
201904071353 METAR KBLI 071353Z 04004KT 10SM FEW003 OVC034 07/05 A2984 RMK AO2 RAE07 SLP112 P0001 T00670050=
201904071338 SPECI KBLI 071338Z 05004KT 10SM FEW003 OVC034 07/05 A2984 RMK AO2 RAE07 P0001 T00670050=
201904071253 METAR KBLI 071253Z AUTO 04007KT 10SM -RA OVC037 07/05 A2981 RMK AO2 SLP103 P0003 T00670050=
201904071153 METAR KBLI 071153Z AUTO 03006KT 7SM RA OVC036 07/05 A2981 RMK AO2 SLP101 P0006 60007 70008 T00670050 10094 20067 53001=
201904071053 METAR KBLI 071053Z AUTO 10SM -RA OVC042 08/04 A2980 RMK AO2 SLP099 P0001 T00780044=
201904070953 METAR KBLI 070953Z AUTO 19007KT 10SM -RA FEW043 OVC060 09/03 A2979 RMK AO2 RAB15 SLP095 P0000 T00890033=
201904070853 METAR KBLI 070853Z AUTO 00000KT 10SM FEW034 BKN046 OVC070 08/05 A2980 RMK AO2 SLP099 T00780050 56013=
201904070753 METAR KBLI 070753Z AUTO 05007KT 10SM SCT043 BKN075 OVC095 08/05 A2981 RMK AO2 SLP102 T00780050 401280067=
201904070653 METAR KBLI 070653Z AUTO 06006KT 10SM FEW049 OVC090 08/05 A2983 RMK AO2 SLP108 T00780050=
201904070553 METAR KBLI 070553Z AUTO 04006KT 10SM SCT080 BKN100 OVC120 08/05 A2984 RMK AO2 SLP112 60001 T00780050 10122 20078 50004=
201904070453 METAR KBLI 070453Z 16004KT 10SM SCT070 OVC090 10/05 A2985 RMK AO2 RAB07E19 SLP116 P0000 T01000050=
201904070353 METAR KBLI 070353Z 21003KT 10SM BKN028 OVC043 09/04 A2985 RMK AO2 SLP116 T00940044=
201904070346 SPECI KBLI 070346Z 28004KT 10SM OVC028 09/04 A2986 RMK AO2 T00940039=
201904070253 METAR KBLI 070253Z 18005KT 10SM BKN040 OVC050 11/05 A2983 RMK AO2 RAB13E43 SLP108 P0001 60001 T01060050 51012=
201904070153 METAR KBLI 070153Z 17008KT 10SM SCT038 BKN060 OVC090 11/06 A2982 RMK AO2 RAB31E50 SLP107 P0000 T01110056=
201904070053 METAR KBLI 070053Z 18007KT 10SM OVC070 12/04 A2981 RMK AO2 SLP103 T01220044=
201904062353 METAR KBLI 062353Z 17020G26KT 10SM SCT050 OVC075 12/05 A2979 RMK AO2 PK WND 18026/2302 SLP095 60000 T01170050 10128 20094 51020=
201904062253 METAR KBLI 062253Z 18016G23KT 10SM OVC075 12/04 A2977 RMK AO2 PK WND 18029/2207 SLP088 T01170039=
201904062153 METAR KBLI 062153Z 17017G23KT 10SM FEW034 BKN048 OVC090 12/04 A2976 RMK AO2 PK WND 19028/2130 RAB27E40 SLP083 P0000 T01220039=
201904062053 METAR KBLI 062053Z 16022G32KT 10SM SCT050 BKN100 12/04 A2973 RMK AO2 SLP075 60000 T01170044 51031=
201904061953 METAR KBLI 061953Z 17017G29KT 10SM SCT028 11/04 A2970 RMK AO2 PK WND 16033/1938 SLP065 T01110044=
201904061853 METAR KBLI 061853Z 16015G29KT 10SM SCT030 BKN040 OVC055 11/04 A2967 RMK AO2 RAB07E40 SLP055 P0000 T01110044=
201904061753 METAR KBLI 061753Z 17014G24KT 10SM FEW030 SCT040 BKN055 09/04 A2964 RMK AO2 WSHFT 1731 RAB26E53 SLP044 P0000 60000 T00940044 10106 20067 53013=
201904061751 SPECI KBLI 061751Z 17014G24KT 10SM -RA FEW030 SCT040 OVC055 10/04 A2964 RMK AO2 WSHFT 1731 RAB26 P0000=
201904061653 METAR KBLI 061653Z 03006KT 10SM BKN056 OVC065 08/03 A2959 RMK AO2 SLP029 T00830033=
201904061553 METAR KBLI 061553Z 08004KT 10SM OVC085 11/02 A2960 RMK AO2 WSHFT 1449 SLP030 T01060017=
201904061509 SPECI KBLI 061509Z 15009KT 10SM OVC080 11/02 A2962 RMK AO2 WSHFT 1449 T01060017=
201904061453 METAR KBLI 061453Z 16013G19KT 10SM BKN085 OVC110 11/02 A2963 RMK AO2 SLP042 T01060022 56022=
201904061353 METAR KBLI 061353Z 05006KT 10SM SCT050 OVC095 07/03 A2965 RMK AO2 SLP049 T00720028=
201904061253 METAR KBLI 061253Z AUTO 03005KT 10SM FEW110 07/02 A2967 RMK AO2 SLP055 T00720022=
201904061153 METAR KBLI 061153Z AUTO 00000KT 10SM OVC044 08/02 A2970 RMK AO2 SLP065 60000 70019 T00780022 10100 20078 58017=
201904061053 METAR KBLI 061053Z AUTO 12007KT 10SM SCT038 BKN045 09/03 A2972 RMK AO2 SLP071 T00940028=
201904060953 METAR KBLI 060953Z AUTO 16013G20KT 10SM OVC035 10/03 A2973 RMK AO2 PK WND 17028/0854 SLP075 T01000028=
201904060853 METAR KBLI 060853Z AUTO 16016G23KT 10SM OVC030 09/03 A2975 RMK AO2 PK WND 15027/0839 SLP080 60000 T00940033 58006=
201904060753 METAR KBLI 060753Z AUTO 15013G22KT 10SM OVC028 09/04 A2976 RMK AO2 RAB18E27 SLP085 P0000 T00940039 401500094=
201904060653 METAR KBLI 060653Z AUTO 15013KT 10SM SCT037 OVC100 09/04 A2977 RMK AO2 SLP086 T00940044=
201904060602 SPECI KBLI 060602Z AUTO 16011KT 10SM SCT029 BKN049 OVC110 10/05 A2977 RMK AO2 T01000050=
201904060553 METAR KBLI 060553Z AUTO 16012G17KT 10SM BKN029 BKN045 OVC050 10/05 A2977 RMK AO2 SLP087 60015 T01000050 10111 20094 50006=
201904060542 SPECI KBLI 060542Z AUTO 15008KT 10SM SCT029 BKN036 OVC055 10/05 A2977 RMK AO2 T01000050=
201904060525 SPECI KBLI 060525Z AUTO 16011KT 10SM BKN029 BKN036 OVC043 10/06 A2977 RMK AO2 T01000056=
201904060518 SPECI KBLI 060518Z 16011KT 10SM SCT027 OVC047 10/06 A2977 RMK AO2 T01000056=
201904060453 METAR KBLI 060453Z 16012G16KT 10SM BKN050 10/06 A2977 RMK AO2 SLP088 T01000056=
201904060353 METAR KBLI 060353Z 15005KT 10SM SCT020 BKN050 09/05 A2977 RMK AO2 SLP087 T00940050=
201904060253 METAR KBLI 060253Z 15004KT 10SM SCT017 BKN050 10/07 A2975 RMK AO2 SLP081 60015 T01000067 51039=
201904060153 METAR KBLI 060153Z 16007KT 10SM SCT015 OVC055 10/07 A2973 RMK AO2 RAE14 SLP074 P0001 T01000067=
201904060148 METAR KBLI 060148Z COR 16008KT 10SM SCT015 BKN045 11/07 A2973 RMK AO2 RAE14 SLP074 P0001 T01000067=
201904060127 METAR KBLI 060127Z COR 16009KT 10SM SCT015 BKN045 11/08 A2972 RMK AO2 SLP065 P0014 T01000078=
201904060053 METAR KBLI 060053Z VRB04G14KT 8SM RA BKN025 BKN040 10/08 A2970 RMK AO2 SLP065 P0014 T01000078=
201904052353 METAR KBLI 052353Z 17016G26KT 8SM -RA BKN025 OVC045 11/06 A2964 RMK AO2 PK WND 19035/2313 SLP042 P0002 60003 T01110061 10150 20111 53023=
201904052253 METAR KBLI 052253Z 16017G32KT 10SM -RA BKN025 BKN065 12/07 A2960 RMK AO2 PK WND 18033/2203 RAB00 SLP031 P0001 T01170072=
201904052153 METAR KBLI 052153Z 16016G24KT 10SM SCT049 BKN060 OVC085 13/07 A2959 RMK AO2 PK WND 17029/2139 SLP027 T01280072=
201904052053 METAR KBLI 052053Z 17015G22KT 10SM SCT048 BKN070 14/07 A2957 RMK AO2 SLP019 T01440067 56015=
201904051953 METAR KBLI 051953Z 35005KT 10SM SCT060 BKN080 OVC120 14/08 A2957 RMK AO2 SLP021 T01440083=
201904051853 METAR KBLI 051853Z 02003KT 10SM OVC100 14/08 A2960 RMK AO2 SLP029 T01440078=
201904051753 METAR KBLI 051753Z VRB03KT 10SM OVC110 14/07 A2961 RMK AO2 SLP034 60001 T01440072 10144 20106 58020=
201904051653 METAR KBLI 051653Z 09006KT 10SM FEW050 14/06 A2964 RMK AO2 SLP044 T01390061=
201904051553 METAR KBLI 051553Z 00000KT 10SM OVC048 12/07 A2966 RMK AO2 SLP050 T01170072=
201904051453 METAR KBLI 051453Z 06005KT 10SM BKN047 BKN055 12/07 A2967 RMK AO2 RAE03 SLP054 P0000 60001 T01170067 58013=
201904051353 METAR KBLI 051353Z 13008KT 10SM -RA BKN060 BKN075 OVC090 11/07 A2969 RMK AO2 RAE02B33 SLP060 P0001 T01110067=
201904051253 METAR KBLI 051253Z AUTO 14009KT 10SM -RA OVC050 11/07 A2970 RMK AO2 SLP065 P0000 T01110072=
201904051153 METAR KBLI 051153Z AUTO 14009KT 10SM -RA OVC060 12/07 A2971 RMK AO2 RAB1057 SLP066 P0000 60001 70001 T01170072 10139 20111 58016=
201904051053 METAR KBLI 051053Z AUTO 12010G15KT 10SM BKN055 OVC070 12/07 A2972 RMK AO2 RAE25 SLP071 P0001 T01220072=
201904050953 METAR KBLI 050953Z AUTO 14009KT 10SM -RA OVC070 12/07 A2974 RMK AO2 RAB02 SLP078 P0000 T01220067=
201904050853 METAR KBLI 050853Z AUTO 13007KT 10SM OVC060 13/06 A2976 RMK AO2 RAE0758 SLP082 P0000 60000 T01330061 56005=
201904050753 METAR KBLI 050753Z AUTO 00000KT 10SM -RA BKN070 OVC090 11/07 A2976 RMK AO2 SLP083 P0000 T01110072 401830094=
201904050653 METAR KBLI 050653Z AUTO 12003KT 10SM -RA BKN065 OVC090 13/06 A2976 RMK AO2 RAB40 SLP084 P0000 T01280056=
201904050553 METAR KBLI 050553Z AUTO 13005KT 10SM FEW060 OVC080 14/06 A2977 RMK AO2 SLP088 T01390056 10183 20111 58003=
201904050453 METAR KBLI 050453Z 12006KT 10SM SCT070 BKN100 13/06 A2978 RMK AO2 SLP093 T01330061=
201904050353 METAR KBLI 050353Z 00000KT 10SM SCT080 12/07 A2978 RMK AO2 SLP092 T01170067=
201904050253 METAR KBLI 050253Z 16003KT 10SM SCT090 12/07 A2978 RMK AO2 SLP091 T01220072 56012=
201904050153 METAR KBLI 050153Z 00000KT 10SM CLR 14/07 A2979 RMK AO2 SLP093 T01440067=
201904050053 METAR KBLI 050053Z 25008KT 10SM FEW100 16/06 A2979 RMK AO2 SLP096 T01560061=
201904042353 METAR KBLI 042353Z 02006KT 10SM FEW100 17/06 A2981 RMK AO2 SLP103 T01720061 10178 20122 56029=
201904042253 METAR KBLI 042253Z 33004KT 10SM FEW090 17/06 A2984 RMK AO2 SLP112 T01670061=
201904042153 METAR KBLI 042153Z 35005G14KT 10SM FEW090 17/07 A2987 RMK AO2 SLP122 T01670067=
201904042053 METAR KBLI 042053Z 02008KT 10SM FEW090 16/06 A2990 RMK AO2 SLP132 T01560056 58026=
201904041953 METAR KBLI 041953Z 36008KT 10SM FEW034 15/07 A2992 RMK AO2 SLP140 T01500067=
201904041853 METAR KBLI 041853Z 02006KT 10SM FEW026 13/06 A2996 RMK AO2 SLP152 T01330061=
201904041753 METAR KBLI 041753Z 03005KT 10SM SCT019 13/07 A2998 RMK AO2 SLP158 60000 T01330067 10133 20094 58010=
201904041653 METAR KBLI 041653Z 34003KT 10SM SCT019 12/07 A2999 RMK AO2 SLP163 T01220067=
201904041553 METAR KBLI 041553Z 00000KT 10SM FEW047 OVC055 11/06 A3000 RMK AO2 SLP167 T01060056=
201904041453 METAR KBLI 041453Z 17004KT 10SM OVC055 09/06 A3001 RMK AO2 SLP169 60000 T00940056 55001=
201904041353 METAR KBLI 041353Z 17004KT 10SM BKN050 09/04 A3000 RMK AO2 RAB01E14 SLP167 P0000 T00940044=
201904041253 METAR KBLI 041253Z AUTO 18004KT 10SM BKN038 OVC045 10/04 A3000 RMK AO2 SLP166 T01000044=
201904041153 METAR KBLI 041153Z AUTO 17008KT 10SM OVC039 09/05 A3001 RMK AO2 SLP169 60000 70049 T00940050 10106 20094 50005=
201904041053 METAR KBLI 041053Z AUTO 17008KT 10SM OVC036 10/05 A3001 RMK AO2 SLP170 T01000050=
201904040953 METAR KBLI 040953Z AUTO 17011KT 10SM OVC031 10/06 A3001 RMK AO2 SLP168 T01000056=
201904040853 METAR KBLI 040853Z AUTO 17008KT 10SM OVC030 10/06 A2999 RMK AO2 SLP164 60000 T01000056 53012=
201904040753 METAR KBLI 040753Z AUTO 17011G18KT 10SM OVC042 11/06 A2998 RMK AO2 RAE02 SLP160 P0000 T01060061 401390089=
201904040653 METAR KBLI 040653Z AUTO 18009KT 10SM -RA SCT033 SCT040 OVC047 11/06 A2996 RMK AO2 RAB0558E34B52 SLP154 P0000 T01060056=
201904040553 METAR KBLI 040553Z AUTO 17008KT 10SM OVC042 11/06 A2996 RMK AO2 SLP152 60000 T01060061 10122 20106 51017=
201904040453 METAR KBLI 040453Z 16008KT 10SM FEW045 BKN070 OVC100 11/07 A2994 RMK AO2 SLP147 T01110067=
201904040353 METAR KBLI 040353Z 16006KT 10SM SCT047 SCT055 OVC090 11/07 A2992 RMK AO2 SLP140 T01060067=
201904040253 METAR KBLI 040253Z 14008KT 10SM OVC045 11/07 A2991 RMK AO2 SLP134 60000 T01110072 51012=
201904040153 METAR KBLI 040153Z 16007KT 10SM OVC047 11/07 A2990 RMK AO2 RAB0055E20 SLP130 P0000 T01110072=
201904040053 METAR KBLI 040053Z 17007KT 10SM SCT038 OVC047 12/07 A2989 RMK AO2 RAB06E31 SLP129 P0000 T01170072=
201904032353 METAR KBLI 032353Z 18004KT 10SM FEW030 BKN036 OVC060 12/06 A2987 RMK AO2 SLP122 60019 T01220061 10139 20117 51028=
201904032253 METAR KBLI 032253Z VRB05KT 10SM FEW029 OVC060 12/07 A2985 RMK AO2 SLP116 T01220072=
201904032153 METAR KBLI 032153Z VRB03KT 10SM OVC046 12/09 A2982 RMK AO2 RAE31 SLP104 P0016 T01220089=
201904032121 SPECI KBLI 032121Z 00000KT 4SM -RA BR FEW024 BKN041 OVC070 12/09 A2981 RMK AO2 P0016 T01170094=
201904032115 SPECI KBLI 032115Z VRB06G18KT 1SM R16/4000VP6000FT +RA FEW024 BKN041 OVC070 12/09 A2981 RMK AO2 P0015 T01170089=
201904032053 METAR KBLI 032053Z 18008G17KT 6SM -RA FEW024 BKN041 OVC070 13/09 A2979 RMK AO2 RAB52 SLP094 P0002 60003 T01330089 53013=
201904031953 METAR KBLI 031953Z 17013G20KT 10SM FEW022 BKN024 OVC038 13/09 A2977 RMK AO2 RAB01E33 SLP087 P0001 T01330089=
201904031853 METAR KBLI 031853Z 17012G21KT 10SM FEW022 BKN029 OVC038 13/08 A2976 RMK AO2 SLP084 T01330083=
201904031753 METAR KBLI 031753Z 17011G21KT 10SM OVC027 13/08 A2975 RMK AO2 RAE33 SLP082 P0002 60030 T01280083 10128 20094 53003=
201904031653 METAR KBLI 031653Z 16013G20KT 10SM -RA BKN023 BKN041 OVC060 12/08 A2975 RMK AO2 SLP079 P0003 T01220083=
201904031553 METAR KBLI 031553Z 17009KT 10SM -RA OVC022 11/08 A2975 RMK AO2 SLP081 P0003 T01060083=
201904031453 METAR KBLI 031453Z 00000KT 7SM -RA OVC025 09/08 A2974 RMK AO2 SLP079 P0001 60022 T00940083 53002=
201904031353 METAR KBLI 031353Z 35004KT 9SM -RA FEW003 OVC021 09/08 A2974 RMK AO2 SLP078 P0008 T00940083=
201904031253 METAR KBLI 031253Z AUTO 02004KT 3SM RA BR OVC020 09/08 A2973 RMK AO2 SLP075 P0013 T00940083=
201904031233 SPECI KBLI 031233Z AUTO 05004KT 3SM RA BR SCT017 OVC024 09/08 A2973 RMK AO2 P0009 T00940083 $=
201904031222 SPECI KBLI 031222Z AUTO 06005KT 2 1/2SM RA BR BKN021 OVC027 09/08 A2973 RMK AO2 P0006 T00940078 $=
201904031153 METAR KBLI 031153Z AUTO 05004KT 5SM -RA BR OVC021 09/08 A2974 RMK AO2 SLP076 P0005 6//// 7//// T00940078 10139 20089 $=
201904031110 SPECI KBLI 031110Z AUTO 05006KT 6SM -RA BR OVC025 09/07 A2974 RMK AO2 P0002 T00940072 $=
201904031053 METAR KBLI 031053Z AUTO 03006KT 7SM -RA 09/07 A2975 RMK AO2 RAB37 SLP079 T00940072 PNO $=
201904030853 METAR KBLI 030853Z AUTO 00000KT 10SM -RA OVC050 10/08 A2977 RMK AO2 SLP085 P0002 60003 T01000078 51009=
201904030753 METAR KBLI 030753Z AUTO 00000KT 10SM -RA OVC055 11/07 A2976 RMK AO2 SLP084 P0001 T01060067 402170050=
201904030653 METAR KBLI 030653Z AUTO 19005KT 10SM -RA OVC070 13/05 A2975 RMK AO2 RAB45 SLP079 P0000 T01330050=
201904030553 METAR KBLI 030553Z AUTO 19006KT 10SM OVC100 13/05 A2974 RMK AO2 SLP076 T01280050 10178 20122 51002=
201904030453 METAR KBLI 030453Z 16005KT 10SM OVC100 13/03 A2974 RMK AO2 SLP076 T01280028=
201904030353 METAR KBLI 030353Z 19003KT 10SM OVC110 13/03 A2974 RMK AO2 SLP076 T01330028=
201904030253 METAR KBLI 030253Z 17004KT 10SM BKN110 13/05 A2973 RMK AO2 SLP074 T01280050 50000=
201904030153 METAR KBLI 030153Z 18006KT 10SM OVC110 14/06 A2973 RMK AO2 SLP074 T01440056=
201904030053 METAR KBLI 030053Z VRB04KT 10SM OVC110 17/02 A2973 RMK AO2 SLP075 T01670017=
201904022353 METAR KBLI 022353Z 27007KT 10SM SCT110 18/02 A2973 RMK AO2 SLP074 T01780022 10217 20172 56015=
201904022253 METAR KBLI 022253Z 29007KT 10SM CLR 19/01 A2974 RMK AO2 SLP078 T01890011=
201904022153 METAR KBLI 022153Z 28008KT 10SM CLR 19/02 A2976 RMK AO2 SLP084 T01890017=
201904022053 METAR KBLI 022053Z 04007KT 360V080 10SM CLR 21/M02 A2978 RMK AO2 SLP089 T02111022 58013=
201904021953 METAR KBLI 021953Z 10SM CLR 20/M01 A2979 RMK AO2 SLP094 T02001011 $=
201904021853 METAR KBLI 021853Z 01011KT 10SM CLR 19/M01 A2980 RMK AO2 SLP099 T01941006=
201904021753 METAR KBLI 021753Z 03012KT 10SM CLR 17/M01 A2981 RMK AO2 SLP102 T01721011 10172 20078 58012=
201904021653 METAR KBLI 021653Z 02011G18KT 10SM CLR 16/M01 A2983 RMK AO2 SLP106 T01561011=
201904021553 METAR KBLI 021553Z AUTO 01006KT 10SM CLR 13/M01 A2984 RMK AO2 SLP112 T01281006=
201904021453 METAR KBLI 021453Z AUTO 01008KT 10SM CLR 10/M02 A2985 RMK AO2 SLP113 T01001017 56006=
201904021353 METAR KBLI 021353Z AUTO 01007KT 10SM CLR 08/M02 A2985 RMK AO2 SLP114 T00831022=
201904021253 METAR KBLI 021253Z AUTO 01008KT 10SM CLR 08/M02 A2986 RMK AO2 SLP117 T00831022=
201904021153 METAR KBLI 021153Z AUTO 02005KT 10SM CLR 08/M02 A2986 RMK AO2 SLP120 T00831022 10089 20050 58012=
201904021053 METAR KBLI 021053Z AUTO 01007KT 10SM CLR 08/M01 A2988 RMK AO2 SLP124 T00831011=
201904020953 METAR KBLI 020953Z AUTO 01007KT 10SM CLR 08/M01 A2989 RMK AO2 SLP128 T00831006=
201904020853 METAR KBLI 020853Z AUTO 00000KT 10SM CLR 06/03 A2990 RMK AO2 SLP132 T00610033 58002=
201904020753 METAR KBLI 020753Z AUTO 00000KT 10SM CLR 06/03 A2990 RMK AO2 SLP133 T00610028 402170017=
201904020653 METAR KBLI 020653Z AUTO 00000KT 10SM CLR 06/03 A2990 RMK AO2 SLP133 T00610033=
201904020553 METAR KBLI 020553Z AUTO 00000KT 10SM CLR 07/04 A2991 RMK AO2 SLP134 T00670039 10189 20067 58003=
201904020453 METAR KBLI 020453Z 00000KT 10SM CLR 08/03 A2991 RMK AO2 SLP135 T00780033=
201904020353 METAR KBLI 020353Z 00000KT 10SM CLR 09/03 A2992 RMK AO2 SLP137 T00940033=
201904020253 METAR KBLI 020253Z 00000KT 10SM CLR 13/04 A2992 RMK AO2 SLP137 T01330039 56010=
201904020153 METAR KBLI 020153Z 28004KT 10SM CLR 17/04 A2993 RMK AO2 SLP141 T01670039=
201904020053 METAR KBLI 020053Z 28006KT 10SM CLR 18/03 A2993 RMK AO2 SLP143 T01780033=
201904012353 METAR KBLI 012353Z 28009KT 10SM CLR 18/03 A2995 RMK AO2 SLP147 T01830033 10217 20167 58017=
201904012253 METAR KBLI 012253Z 28009KT 10SM CLR 18/03 A2996 RMK AO2 SLP152 T01780033=
201904012153 METAR KBLI 012153Z 26008G16KT 10SM CLR 18/06 A2998 RMK AO2 SLP160 T01780056=
201904012053 METAR KBLI 012053Z 35008KT 10SM CLR 21/00 A3000 RMK AO2 SLP164 T02110000 58020=
201904011953 METAR KBLI 011953Z 01012G17KT 10SM CLR 21/02 A3002 RMK AO2 SLP172 T02060017=
201904011853 METAR KBLI 011853Z 02010G16KT 10SM CLR 18/02 A3004 RMK AO2 SLP179 T01830017=
201904011753 METAR KBLI 011753Z 03007KT 10SM CLR 17/02 A3006 RMK AO2 SLP184 T01670022 10167 20022 58010=
201904011653 METAR KBLI 011653Z 01006KT 10SM CLR 13/03 A3007 RMK AO2 SLP188 T01280033=
201904011553 METAR KBLI 011553Z 01006KT 10SM CLR 10/02 A3008 RMK AO2 SLP194 T01000022=
201904011453 METAR KBLI 011453Z 00000KT 10SM CLR 06/02 A3009 RMK AO2 SLP196 T00610017 56003=
201904011353 METAR KBLI 011353Z 00000KT 10SM CLR 03/00 A3009 RMK AO2 SLP197 T00280000=
201904011253 METAR KBLI 011253Z AUTO 00000KT 10SM CLR 04/01 A3009 RMK AO2 SLP196 T00440011=
201904011153 METAR KBLI 011153Z AUTO 35003KT 10SM CLR 04/01 A3009 RMK AO2 SLP198 T00440011 10067 20017 56006=
201904011053 METAR KBLI 011053Z AUTO 34003KT 9SM CLR 03/01 A3010 RMK AO2 SLP202 T00280011=
201904010953 METAR KBLI 010953Z AUTO 34003KT 10SM CLR 04/01 A3010 RMK AO2 SLP201 T00390011=
201904010853 METAR KBLI 010853Z AUTO 32004KT 10SM CLR 05/02 A3011 RMK AO2 SLP204 T00500022 58006=
201904010753 METAR KBLI 010753Z AUTO 00000KT 10SM CLR 04/02 A3012 RMK AO2 SLP208 T00440022 401720017=
201904010653 METAR KBLI 010653Z AUTO 00000KT 10SM CLR 06/02 A3013 RMK AO2 SLP209 T00560022=
201904010553 METAR KBLI 010553Z AUTO 00000KT 10SM CLR 06/02 A3013 RMK AO2 SLP212 T00610022 10172 20056 50002=
201904010453 METAR KBLI 010453Z 00000KT 10SM CLR 07/02 A3014 RMK AO2 SLP214 T00670022=
201904010353 METAR KBLI 010353Z 00000KT 10SM CLR 08/03 A3013 RMK AO2 SLP211 T00830028=
201904010253 METAR KBLI 010253Z 26003KT 10SM CLR 11/03 A3013 RMK AO2 SLP210 T01110033 56013=
201904010153 METAR KBLI 010153Z 27004KT 10SM CLR 14/04 A3014 RMK AO2 SLP214 T01440039=
201904010053 METAR KBLI 010053Z 25005KT 10SM CLR 17/04 A3015 RMK AO2 SLP215 T01670044=

# No short TAF reports from KBLI in databse.

###################################
#  large TAF from KBLI
###################################
201904302320 TAF KBLI 302320Z 0100/0124 32008KT P6SM SKC FM010600 VRB04KT P6SM
                       SKC FM011200 18007KT P6SM SCT200 FM011700
                       21007KT P6SM SCT040 SCT200=
201904301720 TAF KBLI 301720Z 3018/0118 36006KT P6SM SKC FM010600 VRB04KT P6SM
                       SKC FM011200 18007KT P6SM SCT200 FM011700
                       21007KT P6SM SCT040 SCT200=
201904301133 TAF KBLI 301133Z 3012/0112 36004KT P6SM SKC FM302000 30008KT P6SM
                       SKC FM010500 22006KT P6SM SKC=
201904300535 TAF KBLI 300535Z 3006/0106 VRB05KT P6SM SCT250 FM302000 30008KT
                       P6SM FEW050 SCT250 FM302300 24007KT P6SM
                       SCT250=
201904292320 TAF KBLI 292320Z 3000/3024 32014KT P6SM FEW050 SCT250 FM300500
                       03008KT P6SM SCT250 FM302000 34012KT P6SM
                       FEW050 SCT250=
201904292103 KBLI 292103Z 2921/3018 29012KT P6SM FEW050 SCT250 FM300500 VRB03KT
                       P6SM SCT250=
201904291720 TAF KBLI 291720Z 2918/3018 02012KT P6SM FEW060 SCT250 FM300500
                       VRB03KT P6SM SCT250=
201904291135 TAF KBLI 291135Z 2912/3012 35003KT P6SM BKN100 FM291800 34007KT
                       P6SM FEW060 SCT250 FM300500 35003KT P6SM
                       SCT250=
201904290520 TAF KBLI 290520Z 2906/3006 VRB03KT P6SM BKN100 FM291800 35007KT
                       P6SM FEW060 SCT100=
201904282320 TAF KBLI 282320Z 2900/2924 30011KT P6SM SCT090 FM290600 VRB03KT
                       P6SM SKC FM291800 33007KT P6SM SKC=
201904281720 TAF KBLI 281720Z 2818/2918 04007KT P6SM SKC FM290600 VRB03KT P6SM
                       SKC=
201904281132 TAF KBLI 281132Z 2812/2912 03003KT P6SM SKC FM281800 34009KT P6SM
                       SKC FM290700 03003KT P6SM SKC=
201904280527 TAF KBLI 280527Z 2806/2906 VRB04KT P6SM SKC FM281800 36007KT P6SM
                       SKC=
201904272321 TAF KBLI 272321Z 2800/2824 05008KT P6SM BKN050 BKN100 FM280500
                       VRB03KT P6SM SCT250 FM281800 33007KT P6SM
                       SCT250=
201904271728 TAF KBLI 271728Z 2718/2818 29010G21KT P6SM BKN050 FM272100 25014G22KT
                       P6SM BKN050 BKN250 FM280500 VRB03KT P6SM
                       SCT250=
201904271137 TAF KBLI 271137Z 2712/2812 29012KT P6SM SCT040 BKN050 FM271600
                       25012G23KT P6SM BKN050 FM272100 22014G22KT
                       P6SM BKN050 BKN250 FM280500 04003KT P6SM
                       SCT250=
201904270532 TAF KBLI 270532Z 2706/2806 17007KT P6SM SCT040 BKN060 FM271200
                       17008KT P6SM BKN040 BKN060 FM271600 17012KT
                       P6SM BKN050 FM272100 22014G22KT P6SM OVC050=
201904262320 TAF KBLI 262320Z 2700/2724 17012G22KT P6SM BKN050 BKN120 FM271200
                       17010KT P6SM BKN050 BKN220 FM271600 14014G20KT
                       P6SM BKN050 FM271800 30015G21KT P6SM OVC050=
201904262117 KBLI 262117Z 2621/2718 18012G22KT P6SM FEW030 SCT120 FM270500 17012G19KT
                       P6SM BKN050 OVC070 FM271600 14014G20KT P6SM
                       BKN050=
201904262007 KBLI 262007Z 2620/2718 18007KT P6SM BKN025 FM262100 18012KT P6SM
                       SCT030 FM270500 17012G19KT P6SM BKN050 OVC070
                       FM271600 14014G20KT P6SM BKN050=
201904261720 TAF KBLI 261720Z 2618/2718 17005KT P6SM SCT200 FM262100 18012KT
                       P6SM SCT040 FM270500 17012G19KT P6SM BKN050
                       OVC070 FM271600 14014G20KT P6SM BKN050=
201904261138 TAF KBLI 261138Z 2612/2712 18004KT P6SM SCT150 FM261400 17005KT
                       P6SM SCT200 FM262100 18012KT P6SM SCT040
                       FM270500 17012G19KT P6SM BKN050 OVC070=
201904260521 TAF KBLI 260521Z 2606/2706 18004KT P6SM BKN150 OVC200 FM261400
                       17005KT P6SM SCT200 FM262100 18012KT P6SM
                       SCT040=
201904252329 TAF KBLI 252329Z 2600/2624 31007KT P6SM BKN150 OVC200 FM260400
                       18004KT P6SM BKN070 OVC200 FM261400 17005KT
                       P6SM SCT250 FM262100 18012KT P6SM SCT250=
201904251720 TAF KBLI 251720Z 2518/2618 02005KT P6SM BKN200 FM251900 30006KT
                       P6SM SCT120 OVC200 FM260400 20004KT P6SM
                       BKN070 OVC200 FM261400 17005KT P6SM SCT250=
201904251130 TAF KBLI 251130Z 2512/2612 00000KT P6SM SCT200 FM251900 32006KT
                       P6SM SCT120 OVC200 FM260400 20004KT P6SM
                       BKN070 OVC200=
201904250520 TAF KBLI 250520Z 2506/2606 00000KT P6SM SCT200 FM251900 35006KT
                       P6SM SCT120 OVC200 FM260400 20004KT P6SM
                       BKN100 OVC200=
201904242320 TAF KBLI 242320Z 2500/2524 26006KT P6SM SKC FM250300 00000KT P6SM
                       SCT250 FM251900 30006KT P6SM SCT120 OVC200=
201904241720 TAF KBLI 241720Z 2418/2518 VRB04KT P6SM SCT025 FM242000 24007KT
                       P6SM SKC FM250300 VRB03KT P6SM SCT250=
201904241126 TAF KBLI 241126Z 2412/2512 VRB03KT P6SM BKN050 FM241700 19007KT
                       P6SM SCT050 FM242000 23008KT P6SM SKC FM250800
                       00000KT P6SM SCT250=
201904240520 TAF KBLI 240520Z 2406/2506 18008KT P6SM SCT050 FM241100 18006KT
                       P6SM BKN040 FM241800 18006KT P6SM SCT040=
201904232334 TAF KBLI 232334Z 2400/2424 18012KT P6SM SCT050 FM240400 17009KT
                       P6SM BKN050 FM241100 17005KT P6SM BKN050
                       FM241800 17008KT P6SM SCT250=
201904231730 TAF KBLI 231730Z 2318/2418 18010G18KT P6SM BKN030
                      TEMPO 2318/2322 -SHRA FM232200 19010G18KT
                       P6SM BKN050 FM240400 17009KT P6SM BKN050
                       FM241100 17005KT P6SM BKN050=
201904231128 TAF KBLI 231128Z 2312/2412 VRB04KT P6SM VCSH OVC015 FM231700 18010G18KT
                       P6SM BKN025
                      TEMPO 2318/2322 -SHRA FM232200 20010G18KT
                       P6SM SCT050 FM240400 17009KT P6SM BKN050
                       FM241100 17005KT P6SM SCT050 SCT250=
201904230528 TAF KBLI 230528Z 2306/2406 18008KT P6SM VCSH OVC015 FM231700 18009G16KT
                       P6SM BKN025 FM232100 19010G18KT P6SM SCT050
                       FM240400 17009KT P6SM BKN050=
201904222325 TAF KBLI 222325Z 2300/2324 15010KT P6SM -SHRA OVC040 FM230200 17008KT
                       P6SM -SHRA BKN025 OVC040 FM230700 17008KT
                       P6SM BKN025 FM231700 18009G16KT P6SM SCT025
                       BKN040=
201904221720 TAF KBLI 221720Z 2218/2318 VRB04KT P6SM VCSH SCT040 OVC060 FM221900
                       18008KT P6SM -RA OVC030 FM230200 17012KT
                       P6SM -RA OVC025 FM230700 17009KT P6SM SCT015
                       OVC025=
201904221124 TAF KBLI 221124Z 2212/2312 19007KT P6SM OVC080 FM221600 17009KT
                       P6SM VCSH BKN040 OVC080 FM221900 18012G18KT
                       6SM -RA OVC030 FM230200 17011KT 6SM -RA
                       OVC025 FM230700 17009KT P6SM VCSH SCT015
                       OVC025=
201904220520 TAF KBLI 220520Z 2206/2306 18008KT P6SM SCT050 BKN150 FM221000
                       18008KT P6SM BKN050 OVC100 FM221800 18010KT
                       P6SM VCSH BKN040 OVC080 FM230000 18012KT
                       P6SM -RA OVC030=
201904212320 TAF KBLI 212320Z 2200/2224 19010KT P6SM SCT020 BKN060 BKN150 FM220600
                       18008KT P6SM SCT050 OVC150 FM220900 16005KT
                       P6SM OVC100 FM221800 15010KT P6SM VCSH BKN040
                       OVC080=
201904211724 TAF KBLI 211724Z 2118/2218 17012KT P6SM BKN020 BKN150 FM212000
                       17012KT P6SM SCT030 BKN150 FM220300 18008KT
                       P6SM SCT050 OVC150 FM220900 16005KT P6SM
                       OVC100=
201904211506 KBLI 211506Z 2115/2212 17012KT P6SM FEW030 BKN150 FM220300 18008KT
                       P6SM SCT050 OVC150 FM220900 16005KT P6SM
                       OVC080=
201904211126 TAF KBLI 211126Z 2112/2212 17006KT P6SM FEW250 FM211800 17012KT
                       P6SM FEW030 BKN180 FM220300 18008KT P6SM
                       SCT050 OVC150 FM220900 16005KT P6SM OVC080=
201904210520 TAF KBLI 210520Z 2106/2206 18005KT P6SM SKC FM211200 18006KT P6SM
                       SCT015 FM211800 18008KT P6SM SCT020 SCT150
                       FM220300 18008KT P6SM SCT050 BKN150=
201904202320 TAF KBLI 202320Z 2100/2124 29010KT P6SM FEW030 FM210600 18006KT
                       P6SM SKC FM211800 18010KT P6SM SCT030 BKN150=
201904201804 KBLI 201804Z 2018/2118 31010KT P6SM SCT015 BKN020 FM201900 32009KT
                       P6SM SKC FM210900 17008KT P6SM BKN200=
201904201738 TAF KBLI 201738Z 2018/2118 31005KT P6SM BKN015 FM201900 32005KT
                       P6SM SKC FM210900 17008KT P6SM BKN200=
201904201129 TAF KBLI 201129Z 2012/2112 00000KT P6SM SCT200
                      TEMPO 2012/2016 SCT015 FM201800 34005KT P6SM
                       SKC FM210900 17008KT P6SM BKN200=
201904200526 TAF KBLI 200526Z 2006/2106 VRB03KT P6SM SCT040 FM201000 00000KT
                       P6SM BKN015 BKN040 FM201800 VRB03KT P6SM
                       SCT040=
201904200209 KBLI 200209Z 2002/2024 25007KT P6SM VCSH SCT025 BKN100 FM201200
                       01003KT P6SM BKN022 FM201800 35006KT P6SM
                       SCT040=
201904192320 TAF KBLI 192320Z 2000/2024 VRB05KT P6SM VCSH FEW015 BKN025 OVC120
                       FM200400 VRB05KT P6SM BKN030 BKN120 FM201200
                       01003KT P6SM BKN022 FM201800 35006KT P6SM
                       SCT040=
201904191723 TAF KBLI 191723Z 1918/2018 22004KT P6SM SCT003 BKN015 BKN040
                      TEMPO 1918/1920 5SM BR OVC003 FM192200 18008KT
                       P6SM BKN030 OVC080 FM200300 VRB03KT P6SM
                       BKN040=
201904191124 TAF KBLI 191124Z 1912/2012 19006KT P6SM SCT015 OVC025 FM191500
                       17008KT P6SM -RA OVC010 FM191800 18008KT
                       P6SM BKN025 OVC040 FM192200 18008KT P6SM
                       BKN035 OVC045 FM200300 VRB03KT P6SM BKN050=
201904190811 KBLI 190811Z 1908/2006 00000KT P6SM -RA SCT003 OVC015
                      TEMPO 1908/1912 4SM -RA BR OVC003 FM191800
                       18008KT P6SM VCSH OVC025 FM192300 18008KT
                       P6SM BKN035 OVC045 FM200300 35007KT P6SM
                       BKN050 OVC070=
201904190539 TAF KBLI 190539Z 1906/2006 17008KT 4SM -RA FEW008 BKN015 OVC025
                       FM190800 17007KT 4SM -RA BKN020 OVC030 FM191800
                       18008KT P6SM VCSH OVC025 FM192300 18008KT
                       P6SM BKN035 OVC045 FM200300 35007KT P6SM
                       BKN050 OVC070=
201904190202 KBLI 190202Z 1902/1924 17004KT 5SM -RA SCT005 OVC030
                      TEMPO 1902/1904 2SM -RA BR BKN004 FM190600
                       17008G16KT P6SM -RA OVC020 FM191800 18008KT
                       P6SM VCSH OVC025=
201904190058 KBLI 190058Z 1901/1924 17005KT 3SM -RA BKN015 BKN030 OVC040 FM190200
                       17006KT P6SM -RA OVC030 FM190600 17008G16KT
                       P6SM -RA OVC020 FM191800 18008KT P6SM VCSH
                       OVC025=
201904182320 TAF KBLI 182320Z 1900/1924 19005KT P6SM -RA SCT015 BKN030 BKN060
                       FM190200 17006KT P6SM -RA OVC030 FM190600
                       17008G16KT P6SM -RA OVC020 FM191800 18008KT
                       P6SM VCSH OVC025=
201904182101 KBLI 182101Z 1821/1918 11003KT P6SM -RA BKN040 OVC060 FM190200
                       17006KT 5SM -RA BKN025 OVC035 FM190500 17010G17KT
                       P6SM -RA OVC020=
201904181739 TAF KBLI 181739Z 1818/1918 34004KT 4SM -RA BR BKN035 OVC050 FM190200
                       17006KT 5SM -RA BKN025 OVC035 FM190500 17010G17KT
                       P6SM -RA OVC020=
201904181505 TAF AMD KBLI 181505Z 1815/1912 03003KT P6SM -RA FEW050 BKN060 OVC080
                       FM181700 05004KT 5SM -RA BR BKN025 OVC035
                       FM190600 17010KT 5SM -RA BKN010 OVC025=
201904181120 TAF KBLI 181120Z 1812/1912 01004KT P6SM -RA OVC035 FM181500 05004KT
                       5SM -RA BR BKN025 OVC035 FM190600 17010KT
                       5SM -RA BKN010 OVC025=
201904180520 TAF KBLI 180520Z 1806/1906 00000KT P6SM OVC050 FM180900 16005KT
                       P6SM -RA SCT025 OVC045 FM181500 13005KT
                       P6SM -RA BKN025 OVC040=
201904180342 KBLI 180342Z 1804/1824 18005KT P6SM OVC090 FM180900 16005KT P6SM
                       -RA BKN020 OVC045=
201904172328 TAF KBLI 172328Z 1800/1824 19010G17KT P6SM BKN100 FM180300 16007KT
                       P6SM BKN045 FM180900 16005KT P6SM -RA BKN020
                       OVC045=
201904171734 TAF KBLI 171734Z 1718/1818 18013G18KT P6SM BKN045 OVC060 FM172100
                       17009G15KT P6SM SCT020 OVC050 FM180300 16004KT
                       P6SM BKN050 FM181200 16007KT P6SM -RA SCT025
                       BKN050=
201904171502 TAF AMD KBLI 171502Z 1715/1812 18009KT P6SM FEW029 BKN045
                      TEMPO 1715/1719 BKN025 OVC045 FM171900 17012G18KT
                       P6SM SCT025 OVC050 FM180300 17006KT P6SM
                       SCT050 BKN100 FM180800 15003KT P6SM -RA
                       SCT025 OVC040=
201904171120 TAF KBLI 171120Z 1712/1812 17008KT P6SM SCT025 OVC050
                      TEMPO 1712/1714 OVC025 FM171400 17010KT P6SM
                       OVC025 FM171900 17012G18KT P6SM SCT025 OVC050
                       FM180300 17006KT P6SM SCT050 BKN100 FM180800
                       15003KT P6SM -RA SCT025 OVC040=
201904170539 TAF KBLI 170539Z 1706/1806 18006KT P6SM BKN025 OVC050 FM171100
                       17013KT P6SM OVC020 FM171800 17014G22KT
                       P6SM SCT020 OVC040 FM180300 17012KT P6SM
                       OVC050=
201904170046 KBLI 170046Z 1701/1724 19010KT P6SM SCT050 BKN070 BKN120
                      TEMPO 1701/1705 P6SM -RA BKN040 OVC080 FM170600
                       18006KT P6SM VCSH BKN025 OVC050 FM171100
                       17013KT P6SM OVC020 FM171900 17014G22KT
                       P6SM SCT020 OVC040=
201904162320 TAF KBLI 162320Z 1700/1724 19010KT P6SM SCT050 BKN070 BKN120 FM170600
                       18006KT P6SM BKN025 OVC050
                      TEMPO 1706/1710 -RA OVC020 FM171100 17013KT
                       P6SM OVC020 FM171900 17014G22KT P6SM SCT020
                       OVC040=
201904161720 TAF KBLI 161720Z 1618/1718 19008KT P6SM SCT030 BKN070 FM162200
                       20010KT P6SM BKN060 BKN120 FM170600 18010KT
                       P6SM VCSH BKN025 OVC050
                      TEMPO 1706/1709 -RA OVC020 FM171100 17013KT
                       P6SM OVC020=
201904161120 TAF KBLI 161120Z 1612/1712 16003KT P6SM FEW080 BKN150 FM161700
                       19008KT P6SM SCT070 BKN200 FM162200 20010KT
                       P6SM BKN060 BKN120 FM170600 18012KT P6SM
                       BKN025 OVC050=
201904160539 TAF KBLI 160539Z 1606/1706 00000KT P6SM SCT200 FM160900 00000KT
                       P6SM BKN120 FM161400 16005KT P6SM SCT050
                       BKN120 FM161700 17010KT P6SM BKN040 OVC070=
201904152320 TAF KBLI 152320Z 1600/1624 32006KT P6SM SCT200 FM160400 00000KT
                       P6SM SCT200 FM160900 00000KT 3SM BR SCT200
                       FM161400 16005KT P6SM SCT050 SCT200 FM161700
                       17010KT P6SM OVC040=
201904151722 TAF KBLI 151722Z 1518/1618 18004KT P6SM SCT050 SCT200 FM152100
                       29006KT P6SM SCT200 FM160400 00000KT P6SM
                       SCT200 FM160900 00000KT 3SM BR SCT200 FM161400
                       16005KT P6SM SCT050 SCT200=
201904151130 TAF KBLI 151130Z 1512/1612 18004KT P6SM SCT050 SCT200 FM152100
                       29006KT P6SM SCT200 FM160400 00000KT P6SM
                       SCT200 FM160900 00000KT 3SM BR SCT200=
201904150529 TAF KBLI 150529Z 1506/1606 17009KT P6SM SCT060 BKN090 FM150900
                       16008KT P6SM BKN060 FM152100 29007KT P6SM
                       SCT060 SCT200 FM160400 00000KT P6SM SCT200=
201904142320 TAF KBLI 142320Z 1500/1524 18010G18KT P6SM VCSH FEW030 SCT070 OVC100
                       TEMPO 1500/1502 OVC070 FM150500 15006KT
                       P6SM SCT020 OVC035 FM151500 12006KT P6SM
                       BKN060 FM152100 30007KT P6SM SCT060=
201904141733 TAF KBLI 141733Z 1418/1518 19007G16KT P6SM FEW022 BKN090 OVC120
                       FM142100 17007KT P6SM VCSH BKN035 BKN050
                       FM150500 15004KT P6SM SCT020 OVC035=
201904141130 TAF KBLI 141130Z 1412/1512 18010KT P6SM SCT050 FM141800 18010KT
                       P6SM VCSH BKN050 FM150300 18006KT P6SM BKN050=
201904140529 TAF KBLI 140529Z 1406/1506 19007KT P6SM FEW025 FEW040 SCT120 FM140900
                       18010KT P6SM VCSH SCT040 SCT200 FM142200
                       17011G18KT P6SM VCSH BKN050 FM150300 18006KT
                       P6SM BKN050=
201904132334 TAF KBLI 132334Z 1400/1424 17013G26KT P6SM VCSH BKN023 OVC045 FM140500
                       17013G21KT P6SM OVC025 FM142200 17009G16KT
                       P6SM OVC050=
201904132104 KBLI 132104Z 1321/1418 15019G26KT P6SM -RA BKN023 OVC060 FM140000
                       21016G23KT P6SM VCSH OVC025 FM140300 17013KT
                       P6SM VCSH SCT025 OVC050=
201904131740 TAF KBLI 131740Z 1318/1418 15012KT P6SM -RA FEW007 SCT018 OVC023
                       FM131900 16017G24KT 6SM -RA OVC015 FM140000
                       16016G23KT 4SM -RA BR OVC015 FM140300 17013KT
                       P6SM VCSH SCT025 OVC050=
201904131430 KBLI 131430Z 1315/1412 17006G17KT 5SM RA BR SCT007 BKN015 OVC035
                       FM131700 18014G24KT P6SM -RA SCT020 BKN035
                       OVC050 FM140000 18014G24KT P6SM -SHRA BKN020
                       OVC030 FM140400 20012KT P6SM VCSH SCT025
                       BKN040 BKN060=
201904131140 TAF KBLI 131140Z 1312/1412 18012G20KT 5SM -RA SCT015 OVC025 FM131700
                       18014G24KT P6SM -RA SCT020 BKN035 OVC050
                       FM140000 18014G24KT P6SM -SHRA BKN020 OVC030
                       FM140400 20012KT P6SM VCSH SCT025 BKN040
                       BKN060=
201904130526 TAF KBLI 130526Z 1306/1406 17005KT P6SM SCT040 SCT080 FM130900
                       16008KT P6SM SCT030 OVC040 FM131300 17011G18KT
                       6SM -RA OVC025 FM132100 15023G30KT P6SM
                       -SHRA SCT015 OVC020 FM140300 17016G25KT
                       P6SM BKN050=
201904130216 KBLI 130216Z 1302/1324 18006KT P6SM SCT080 BKN100 FM130900 15006KT
                       P6SM OVC050 FM131200 16009KT P6SM -RA OVC025
                       FM131500 16010KT 4SM -RA BR OVC025 FM132100
                       15023KT P6SM VCSH OVC015=
201904122321 TAF KBLI 122321Z 1300/1324 18008KT P6SM FEW020 SCT080 FM130900
                       15006KT P6SM OVC050 FM131200 16009KT P6SM
                       -RA OVC025 FM131500 16010KT 4SM -RA BR OVC025
                       FM132100 15023KT P6SM VCSH OVC015=
201904121735 TAF KBLI 121735Z 1218/1318 00000KT P6SM BKN012 FM122100 19006KT
                       P6SM SCT025 BKN050 FM130600 16008KT P6SM
                       OVC100 FM131200 16010KT P6SM -RA OVC025
                       FM131500 15011KT 5SM -RA BR OVC025=
201904121501 KBLI 121501Z 1215/1312 00000KT P6SM BKN010 OVC045 FM121800 36004KT
                       P6SM SCT025 BKN040 FM130000 18006KT P6SM
                       BKN050 BKN200 FM131100 15012KT P6SM -RA
                       OVC045=
201904121136 TAF KBLI 121136Z 1212/1312 36004KT P6SM OVC020 FM121800 36004KT
                       P6SM SCT025 BKN040 FM130000 18006KT P6SM
                       BKN050 BKN200 FM131100 15012KT P6SM -RA
                       OVC045=
201904120823 KBLI 120823Z 1208/1306 36004KT P6SM SCT008 BKN022 OVC045 FM121600
                       VRB03KT P6SM SCT025 BKN050 FM122100 16009KT
                       P6SM SCT050 SCT100=
201904120534 TAF KBLI 120534Z 1206/1306 36006KT P6SM VCSH SCT005 OVC015
                      TEMPO 1206/1208 5SM -RA BR FM120800 VRB03KT
                       P6SM VCSH BKN005 OVC012 FM121300 VRB03KT
                       P6SM OVC015 FM121600 14006KT P6SM SCT020
                       BKN050 FM122100 16009KT P6SM SCT050 SCT100=
201904120300 KBLI 120300Z 1203/1224 02007KT 5SM -RA BKN007 OVC015 FM120800 03005KT
                       P6SM VCSH SCT020 BKN025 OVC030 FM121600
                       14005KT P6SM SCT020 BKN025 OVC030=
201904112338 TAF KBLI 112338Z 1200/1224 VRB05KT P6SM VCSH FEW025 OVC040 FM120200
                       03005KT P6SM SCT020 BKN025 OVC030 FM121600
                       14005KT P6SM SCT020 BKN025 OVC030=
201904111730 TAF KBLI 111730Z 1118/1218 17007KT P6SM -RA SCT025 BKN030 OVC040
                       FM111900 18010KT P6SM -SHRA BKN025 OVC040
                       FM120000 17006KT P6SM SCT020 BKN025 OVC030=
201904111342 KBLI 111342Z 1114/1212 18006KT P6SM SCT030 OVC060 FM111900 18006KT
                       P6SM -SHRA BKN025 OVC040 FM120000 18006KT
                       P6SM SCT025 BKN040 OVC060=
201904111145 TAF KBLI 111145Z 1112/1212 18006KT P6SM -RA BKN020 OVC040 FM112100
                       18006KT P6SM SCT020 BKN040 OVC060=
201904110527 TAF KBLI 110527Z 1106/1206 VRB04KT P6SM VCSH SCT015 OVC050 FM110900
                       17005KT P6SM VCSH SCT015 OVC030 FM111600
                       16007KT P6SM -RA OVC020 FM112100 17011KT
                       P6SM -RA BKN030 OVC040 FM120500 VRB04KT
                       P6SM -RA OVC030=
201904102339 TAF KBLI 102339Z 1100/1124 18010KT P6SM VCSH FEW010 BKN060 FM110400
                       18005KT P6SM OVC035 FM110900 17006KT P6SM
                       -RA OVC020 FM111500 16005KT P6SM -RA OVC025=
201904101733 TAF KBLI 101733Z 1018/1118 18010KT P6SM SCT025 BKN040
                      TEMPO 1018/1022 -SHRA FEW015 OVC030 FM102200
                       16010KT P6SM VCSH OVC030 FM110300 18005KT
                       P6SM -RA OVC030=
201904101123 TAF KBLI 101123Z 1012/1112 18008KT P6SM -SHRA BKN040 FM101600 18010KT
                       P6SM SCT025 BKN040
                      TEMPO 1017/1021 -SHRA BKN025 OVC040 FM110000
                       18010KT P6SM VCSH BKN040 FM110900 18010KT
                       P6SM -RA OVC025=
201904100520 TAF KBLI 100520Z 1006/1106 17008KT P6SM BKN050 OVC080 FM101000
                       17008KT P6SM BKN020 OVC035 FM101600 16015KT
                       P6SM -RA BKN010 OVC020 FM110100 17008KT
                       P6SM SCT020 OVC050=
201904092337 TAF KBLI 092337Z 1000/1024 VRB06KT P6SM FEW035 BKN040 BKN070 FM100400
                       02010KT P6SM BKN040 FM101000 17010KT P6SM
                       BKN035 FM101400 16015KT P6SM BKN030=
201904091723 TAF KBLI 091723Z 0918/1018 VRB05KT P6SM OVC015 FM091900 30010KT
                       P6SM BKN040 FM100600 17010KT P6SM BKN025=
201904091120 TAF KBLI 091120Z 0912/1012 28008KT P6SM SCT020 BKN040
                      TEMPO 0912/0916 4SM -SHRA BR BKN020 OVC040
                       FM091600 30008KT P6SM BKN030 FM091900 30010KT
                       P6SM BKN040 FM100600 VRB04KT P6SM BKN025=
201904090520 TAF KBLI 090520Z 0906/1006 VRB03KT P6SM SCT008 BKN060
                      TEMPO 0906/0909 6SM BR OVC008 FM090900 00000KT
                       P6SM OVC025 FM091400 18005KT P6SM BKN030
                       FM091900 18008KT P6SM BKN040=
201904082340 TAF KBLI 082340Z 0900/0924 VRB05KT P6SM OVC030
                      TEMPO 0900/0903 6SM -SHRA BR BKN025 FM090300
                       VRB05KT P6SM BKN040 FM091100 30003KT P6SM
                       OVC025 FM091400 21005KT P6SM BKN030=
201904081738 TAF KBLI 081738Z 0818/0918 VRB04KT P6SM OVC060
                      TEMPO 0818/0820 -RA OVC040 FM082000 17007KT
                       P6SM -SHRA BKN040 FM082300 24008KT P6SM
                       BKN040 FM090900 19005KT P6SM BKN035=
201904081120 TAF KBLI 081120Z 0812/0912 03006KT P6SM BKN050 OVC100
                      TEMPO 0816/0820 -RA OVC040 FM082000 18006KT
                       P6SM -SHRA BKN040 FM082300 20010KT P6SM
                       BKN040 FM090900 18008KT P6SM BKN020=
201904080524 TAF KBLI 080524Z 0806/0906 00000KT P6SM FEW070 SCT250 FM080900
                       00000KT P6SM SCT070 BKN150 FM081200 01004KT
                       P6SM BKN070 BKN150 FM082000 20005KT P6SM
                       BKN070 OVC150=
201904072321 TAF KBLI 072321Z 0800/0824 18012KT P6SM FEW030 SCT080 FM080300
                       VRB04KT P6SM SCT040 BKN100 FM080900 01004KT
                       P6SM OVC040 FM081200 02005KT P6SM VCSH OVC040
                       FM082000 20005KT P6SM VCSH BKN040=
201904071739 TAF KBLI 071739Z 0718/0818 18004KT P6SM FEW004 SCT008 OVC030
                      TEMPO 0718/0719 BKN008 FM072000 VRB04KT P6SM
                       SCT030 BKN040 FM080800 VRB04KT P6SM OVC040
                       FM081200 VRB04KT P6SM -RA OVC030=
201904071615 KBLI 071615Z 0716/0812 VRB04KT P6SM SCT005 BKN035
                      TEMPO 0716/0718 BKN005 FM072000 VRB04KT P6SM
                       SCT040 BKN080 FM080800 VRB04KT P6SM OVC040=
201904071122 TAF KBLI 071122Z 0712/0812 VRB04KT P6SM -RA OVC040 FM071600 VRB04KT
                       P6SM BKN040 FM072000 VRB04KT P6SM SCT040
                       BKN080 FM080800 VRB04KT P6SM OVC040=
201904070520 TAF KBLI 070520Z 0706/0806 16004KT P6SM SCT070 OVC090 FM071200
                       14004KT P6SM BKN050 OVC070 FM072000 18008KT
                       P6SM SCT050=
201904062320 TAF KBLI 062320Z 0700/0724 16013G22KT P6SM SCT040 OVC070 FM070300
                       15005KT P6SM VCSH BKN050 FM071200 14004KT
                       P6SM BKN050 FM071600 16007KT P6SM BKN050=
201904061729 TAF KBLI 061729Z 0618/0718 12010KT P6SM BKN050 OVC070 FM061900
                       16013G22KT P6SM -RA OVC030 FM062200 18011KT
                       P6SM -SHRA BKN030 FM070300 15005KT P6SM
                       VCSH BKN050 FM071200 14004KT P6SM BKN050=
201904061120 TAF KBLI 061120Z 0612/0712 12010KT P6SM BKN050 OVC100 FM061600
                       12014KT P6SM -RA OVC040 FM061800 16022G30KT
                       P6SM -RA OVC030 FM062200 18020G30KT P6SM
                       -SHRA BKN030 FM070300 18012G22KT P6SM VCSH
                       BKN050=
201904060837 KBLI 060837Z 0609/0706 15012G22KT P6SM OVC028 FM061400 09010KT
                       P6SM -RA OVC025 FM061800 12022G30KT P6SM
                       -RA OVC030 FM062200 15016KT P6SM -SHRA BKN040
                       FM070100 16008KT P6SM VCSH BKN050=
201904060522 TAF KBLI 060522Z 0606/0706 14008KT P6SM BKN050 FM061400 09010KT
                       P6SM -RA OVC050 FM061800 12022G30KT P6SM
                       -RA OVC040 FM062200 15016KT P6SM -SHRA SCT040
                       OVC070 FM070100 16008KT P6SM VCSH SCT040
                       OVC070=
201904052329 TAF KBLI 052329Z 0600/0624 16015G25KT P6SM -RA BKN030 OVC060 FM060100
                       16008KT P6SM -SHRA BKN040 OVC060 FM060700
                       16005KT P6SM VCSH BKN040 OVC060 FM061300
                       09010KT P6SM VCSH BKN040 OVC060 FM061800
                       12022G30KT P6SM -RA BKN030 OVC050=
201904051751 KBLI 051751Z 0518/0618 10007KT P6SM -RA SCT045 BKN060 FM051900
                       14015KT P6SM -SHRA BKN040 OVC060 FM052200
                       14015G20KT P6SM -RA BKN030 OVC050 FM060100
                       16008KT P6SM -SHRA BKN040 OVC060 FM060700
                       16005KT P6SM VCSH BKN040 OVC060 FM061300
                       09010KT P6SM VCSH BKN040 OVC060=
201904051739 TAF KBLI 051739Z 0518/0618 12008KT P6SM -RA BKN045 OVC060 FM051900
                       14015KT P6SM -SHRA BKN040 OVC060 FM052200
                       14015G20KT P6SM -RA BKN030 OVC050 FM060100
                       16008KT P6SM -SHRA BKN040 OVC060 FM060700
                       16005KT P6SM VCSH BKN040 OVC060=
201904051120 TAF KBLI 051120Z 0512/0612 12010KT P6SM -RA BKN045 OVC060 FM051700
                       14015KT P6SM -SHRA BKN040 OVC060 FM052000
                       14015G20KT P6SM -RA BKN030 OVC050 FM060100
                       16008KT P6SM -SHRA BKN040 OVC060 FM060700
                       16005KT P6SM VCSH BKN040 OVC060=
201904050544 TAF KBLI 050544Z 0506/0606 13006KT P6SM SCT060 BKN100 FM050900
                       12005KT P6SM -RA BKN040 OVC060 FM051700
                       14015KT P6SM -SHRA BKN040 OVC060 FM052000
                       14015G20KT P6SM -RA BKN030 OVC050 FM060100
                       16008KT P6SM -SHRA BKN040 OVC060=
201904042338 TAF KBLI 042338Z 0500/0524 VRB04KT P6SM BKN060 OVC120 FM050900
                       12005KT P6SM -SHRA BKN040 OVC060 FM051700
                       14015KT P6SM -SHRA BKN040 OVC060 FM052000
                       14020KT P6SM -SHRA BKN040 OVC050=
201904041738 TAF KBLI 041738Z 0418/0518 VRB04KT P6SM SCT040 OVC200 FM042200
                       VRB04KT P6SM BKN060 OVC120 FM050800 16006KT
                       P6SM -SHRA BKN040 OVC080 FM051700 14015KT
                       P6SM -SHRA BKN040 OVC060=
201904041120 TAF KBLI 041120Z 0412/0512 17008KT P6SM BKN035 BKN200 FM041700
                       VRB04KT P6SM SCT040 OVC200 FM042200 VRB04KT
                       P6SM BKN060 OVC120 FM050800 16006KT P6SM
                       -SHRA BKN040 OVC080=
201904040520 TAF KBLI 040520Z 0406/0506 16008KT P6SM FEW045 BKN070 OVC100 FM041000
                       16009G15KT P6SM SCT025 OVC060 FM041700 18007KT
                       P6SM BKN100 OVC200 FM050000 VRB03KT P6SM
                       BKN070 OVC120=
201904032337 TAF KBLI 032337Z 0400/0424 17009KT P6SM VCSH SCT030 BKN050 FM040600
                       16010KT P6SM SCT035 BKN060 FM041200 16008KT
                       P6SM BKN035 BKN070 FM041900 15007KT P6SM
                       BKN100 OVC200=
201904031726 TAF KBLI 031726Z 0318/0418 17012G18KT P6SM VCSH SCT025 BKN050
                      TEMPO 0318/0321 -SHRA BKN022 OVC040 FM032200
                       18012KT P6SM VCSH BKN030 BKN050 FM041000
                       18008KT P6SM BKN035 BKN060=
201904031302 KBLI 031302Z 0313/0412 VRB04KT P6SM BKN025 OVC040
                      TEMPO 0313/0316 3SM SHRA BR OVC017 FM031600
                       16010KT P6SM -SHRA BKN025 OVC040 FM031800
                       21012G20KT P6SM VCSH SCT025 BKN050 FM041000
                       18008KT P6SM BKN025=
201904031120 TAF KBLI 031120Z 0312/0412 VRB04KT P6SM OVC040
                      TEMPO 0312/0315 -RA OVC025 FM031500 16010KT
                       P6SM VCSH BKN025 OVC040 FM031800 21012G20KT
                       P6SM VCSH SCT025 BKN050 FM041000 18008KT
                       P6SM BKN025=
201904030530 TAF KBLI 030530Z 0306/0406 16005KT P6SM VCSH OVC100 FM030900 16006KT
                       P6SM -SHRA OVC035 FM031500 15005KT P6SM
                       -SHRA OVC019 FM031800 17009G17KT P6SM -SHRA
                       OVC019 FM040000 17014G21KT P6SM VCSH BKN035
                       BKN060=
201904022321 TAF KBLI 022321Z 0300/0324 26006KT P6SM BKN100 OVC200 FM030500
                       14004KT P6SM OVC070 FM030900 14005KT P6SM
                       VCSH OVC050 FM031100 12005KT P6SM -SHRA
                       BKN030 OVC040 FM031700 15008KT 6SM -SHRA
                       BR BKN022 OVC035 FM032100 16012G18KT 6SM
                       -SHRA BR BKN025 OVC040=
201904021740 TAF KBLI 021740Z 0218/0318 02010KT P6SM SCT100 BKN200 FM030400
                       24006KT P6SM BKN100 OVC200 FM030800 14004KT
                       P6SM VCSH OVC060 FM031100 13005KT P6SM -SHRA
                       BKN030 OVC040 FM031700 15008KT 6SM -SHRA
                       BR BKN025 OVC035=
201904021122 TAF KBLI 021122Z 0212/0312 01005KT P6SM SCT250 FM030100 24006KT
                       P6SM OVC090 FM030600 14004KT P6SM OVC050
                       FM030900 16005KT P6SM -SHRA BKN030 OVC040=
201904020520 TAF KBLI 020520Z 0206/0306 00000KT P6SM BKN200 FM030100 26004KT
                       P6SM OVC100 FM030400 17003KT P6SM OVC050=
201904012339 TAF KBLI 012339Z 0200/0224 29008KT P6SM BKN250 FM020300 35003KT
                       P6SM SCT250 FM021900 23007KT P6SM BKN250=
201904011735 TAF KBLI 011735Z 0118/0218 36005KT P6SM BKN200 FM012000 01012KT
                       P6SM BKN250 FM020100 35002KT P6SM SCT250=
201904011120 TAF KBLI 011120Z 0112/0212 36004KT P6SM BKN200 FM012000 01012KT
                       P6SM BKN250 FM020100 35002KT P6SM SCT250=
201904010520 TAF KBLI 010520Z 0106/0206 00000KT P6SM BKN200 FM011500 01005KT
                       P6SM OVC200 FM012000 01012KT P6SM BKN250=