##########################################################
# Query made at 02/16/2025 22:19:23 UTC
# Time interval: from 06/01/2019 00:00  to 06/30/2019 23:59  UTC
##########################################################

##########################################################
# KBLI, Bellingham, Bellingham International Airport (United States)
# WMO index: -----. WIGOS ID: Unknown
# Latitude 48-47-58N. Longitude 122-32-21W. Altitude 48 m.
##########################################################

###################################
#  METAR/SPECI from KBLI
###################################
201906302353 METAR KBLI 302353Z VRB05KT 10SM CLR 24/08 A3007 RMK AO2 SLP188 T02390083 10244 20211 57019=
201906302253 METAR KBLI 302253Z 26004KT 10SM CLR 23/09 A3009 RMK AO2 SLP194 T02330089=
201906302153 METAR KBLI 302153Z 32006KT 10SM CLR 24/11 A3011 RMK AO2 SLP201 T02390106=
201906302053 METAR KBLI 302053Z 30008KT 10SM FEW100 23/11 A3012 RMK AO2 SLP206 T02280111 56008=
201906301953 METAR KBLI 301953Z 29010G15KT 10SM FEW100 22/13 A3013 RMK AO2 SLP210 T02220128=
201906301853 METAR KBLI 301853Z 24004KT 10SM FEW100 22/12 A3014 RMK AO2 SLP211 T02170122=
201906301753 METAR KBLI 301753Z 00000KT 10SM FEW100 21/11 A3015 RMK AO2 SLP215 T02110111 10211 20106 58003=
201906301653 METAR KBLI 301653Z 00000KT 10SM CLR 20/11 A3016 RMK AO2 SLP219 T02000111=
201906301553 METAR KBLI 301553Z VRB03KT 10SM FEW014 18/13 A3016 RMK AO2 SLP219 T01830133=
201906301453 METAR KBLI 301453Z 00000KT 10SM CLR 16/12 A3016 RMK AO2 SLP218 T01610122 51006=
201906301353 METAR KBLI 301353Z 00000KT 10SM CLR 14/12 A3016 RMK AO2 SLP218 T01440122=
201906301253 METAR KBLI 301253Z AUTO 00000KT 10SM FEW005 11/09 A3015 RMK AO2 SLP215 T01060089=
201906301242 SPECI KBLI 301242Z AUTO 00000KT 10SM SCT005 11/10 A3015 RMK AO2 T01110100=
201906301153 METAR KBLI 301153Z AUTO 00000KT 4SM BR CLR 11/09 A3014 RMK AO2 SLP211 T01060094 10144 20106 56001=
201906301151 SPECI KBLI 301151Z AUTO 00000KT 2 1/2SM BR CLR 11/09 A3014 RMK AO2=
201906301053 METAR KBLI 301053Z AUTO 00000KT 5SM BR CLR 12/10 A3013 RMK AO2 SLP209 T01170100=
201906301043 SPECI KBLI 301043Z AUTO 00000KT 9SM FEW004 12/10 A3013 RMK AO2 T01220100=
201906300953 METAR KBLI 300953Z AUTO 00000KT 10SM CLR 12/11 A3014 RMK AO2 SLP212 T01220106=
201906300853 METAR KBLI 300853Z AUTO 00000KT 10SM CLR 13/11 A3014 RMK AO2 SLP211 T01330111 50000=
201906300753 METAR KBLI 300753Z AUTO 00000KT 10SM CLR 13/11 A3014 RMK AO2 SLP212 T01330106 402280117=
201906300653 METAR KBLI 300653Z AUTO 00000KT 10SM CLR 13/11 A3014 RMK AO2 SLP212 T01330106=
201906300553 METAR KBLI 300553Z AUTO 00000KT 10SM CLR 14/11 A3014 RMK AO2 SLP211 T01440106 10228 20144 51007=
201906300453 METAR KBLI 300453Z 00000KT 10SM CLR 16/10 A3013 RMK AO2 SLP209 T01610100=
201906300353 METAR KBLI 300353Z 29004KT 10SM CLR 19/10 A3012 RMK AO2 SLP206 T01890100=
201906300253 METAR KBLI 300253Z 30006KT 10SM CLR 21/09 A3011 RMK AO2 SLP203 T02060094 55006=
201906300153 METAR KBLI 300153Z 28008KT 10SM CLR 21/10 A3011 RMK AO2 SLP202 T02110100=
201906300053 METAR KBLI 300053Z 25011KT 10SM SCT040 22/12 A3011 RMK AO2 SLP203 T02170117=
201906292353 METAR KBLI 292353Z 25008KT 10SM SCT045 23/12 A3013 RMK AO2 SLP209 T02280117 10228 20183 58008=
201906292253 METAR KBLI 292253Z 25008KT 10SM SCT040 22/09 A3014 RMK AO2 SLP212 T02220089=
201906292153 METAR KBLI 292153Z 25008KT 10SM SCT040 22/09 A3015 RMK AO2 SLP215 T02220094=
201906292053 METAR KBLI 292053Z 25007KT 10SM SCT040 22/11 A3015 RMK AO2 SLP217 T02170106 58004=
201906291953 METAR KBLI 291953Z 21009KT 10SM SCT030 SCT050 21/11 A3016 RMK AO2 SLP219 T02060111=
201906291853 METAR KBLI 291853Z 22006KT 10SM SCT040 21/09 A3016 RMK AO2 SLP220 T02060094=
201906291753 METAR KBLI 291753Z 19006KT 10SM FEW040 19/10 A3017 RMK AO2 SLP221 T01890100 10189 20117 50003=
201906291653 METAR KBLI 291653Z VRB05KT 10SM OVC065 18/11 A3017 RMK AO2 SLP221 T01780111=
201906291553 METAR KBLI 291553Z 19003KT 10SM FEW065 17/11 A3016 RMK AO2 SLP220 T01670106=
201906291453 METAR KBLI 291453Z 00000KT 10SM CLR 16/11 A3016 RMK AO2 SLP218 T01610111 53014=
201906291353 METAR KBLI 291353Z 00000KT 10SM CLR 14/12 A3014 RMK AO2 SLP213 T01390122=
201906291253 METAR KBLI 291253Z AUTO 00000KT 10SM CLR 12/10 A3013 RMK AO2 SLP208 T01170100=
201906291153 METAR KBLI 291153Z AUTO 00000KT 10SM CLR 12/10 A3012 RMK AO2 SLP204 T01220100 10150 20122 58000=
201906291053 METAR KBLI 291053Z AUTO 00000KT 10SM OVC085 13/11 A3012 RMK AO2 SLP205 T01330106=
201906290953 METAR KBLI 290953Z AUTO 19003KT 10SM SCT080 OVC095 14/11 A3012 RMK AO2 SLP204 T01390106=
201906290853 METAR KBLI 290853Z AUTO 00000KT 10SM BKN080 13/11 A3012 RMK AO2 SLP204 T01330111 53001=
201906290753 METAR KBLI 290753Z AUTO 00000KT 10SM SCT080 13/11 A3011 RMK AO2 SLP203 T01330106 402000133=
201906290653 METAR KBLI 290653Z AUTO 00000KT 10SM CLR 14/11 A3011 RMK AO2 SLP202 T01390111=
201906290553 METAR KBLI 290553Z AUTO 00000KT 10SM BKN085 BKN110 15/12 A3011 RMK AO2 RAE0457 SLP203 P0000 60000 T01500117 10200 20144 53001=
201906290453 METAR KBLI 290453Z 00000KT 10SM -RA FEW060 BKN080 OVC100 16/11 A3011 RMK AO2 RAB47 SLP203 P0000 T01560111=
201906290353 METAR KBLI 290353Z 00000KT 10SM FEW060 SCT080 BKN100 16/11 A3011 RMK AO2 SLP202 T01610106=
201906290253 METAR KBLI 290253Z 25004KT 10SM FEW060 SCT080 17/10 A3011 RMK AO2 SLP202 T01720100 53003=
201906290153 METAR KBLI 290153Z 20007KT 10SM FEW060 SCT090 19/09 A3010 RMK AO2 SLP199 T01890089=
201906290053 METAR KBLI 290053Z 19003KT 10SM CLR 19/08 A3010 RMK AO2 SLP198 T01940083=
201906282353 METAR KBLI 282353Z 19004KT 10SM FEW060 SCT090 19/08 A3010 RMK AO2 SLP199 T01940083 10200 20167 58004=
201906282253 METAR KBLI 282253Z 19005KT 10SM FEW060 SCT090 19/09 A3011 RMK AO2 SLP201 T01940094=
201906282153 METAR KBLI 282153Z 17008KT 10SM CLR 19/09 A3011 RMK AO2 SLP203 T01940089=
201906282053 METAR KBLI 282053Z 19007KT 150V210 10SM CLR 19/10 A3011 RMK AO2 SLP203 T01890100 50000=
201906281953 METAR KBLI 281953Z 17011KT 10SM CLR 18/10 A3012 RMK AO2 SLP204 T01830100=
201906281853 METAR KBLI 281853Z 19006KT 10SM SCT027 BKN085 17/10 A3012 RMK AO2 SLP204 T01720100=
201906281826 SPECI KBLI 281826Z 20009KT 10SM SCT027 BKN085 17/11 A3011 RMK AO2 T01720106=
201906281753 METAR KBLI 281753Z 17009KT 10SM FEW018 BKN027 17/11 A3011 RMK AO2 SLP203 T01670106 10167 20139 58000=
201906281653 METAR KBLI 281653Z 19009KT 10SM FEW018 BKN027 16/11 A3012 RMK AO2 SLP205 T01560111=
201906281553 METAR KBLI 281553Z 18010KT 10SM SCT020 BKN038 OVC085 16/10 A3011 RMK AO2 SLP202 T01560100=
201906281453 METAR KBLI 281453Z 17008KT 10SM SCT021 BKN027 15/10 A3011 RMK AO2 SLP203 T01500100 52004=
201906281353 METAR KBLI 281353Z 17009KT 10SM FEW015 BKN024 OVC055 14/11 A3011 RMK AO2 SLP203 T01440106=
201906281315 SPECI KBLI 281315Z AUTO 17007KT 10SM BKN015 BKN025 OVC055 14/11 A3011 RMK AO2 T01440106=
201906281253 METAR KBLI 281253Z AUTO 16006KT 10SM SCT015 OVC060 14/10 A3010 RMK AO2 SLP199 T01440100=
201906281153 METAR KBLI 281153Z AUTO 19005KT 10SM OVC050 14/11 A3010 RMK AO2 SLP199 60004 70036 T01440106 10156 20139 51005=
201906281053 METAR KBLI 281053Z AUTO 19006KT 10SM OVC047 14/11 A3010 RMK AO2 SLP198 T01440106=
201906280953 METAR KBLI 280953Z AUTO 18006KT 10SM BKN047 OVC055 14/11 A3009 RMK AO2 SLP195 T01440106=
201906280853 METAR KBLI 280853Z AUTO 18008KT 10SM SCT045 OVC070 14/11 A3009 RMK AO2 RAE14 SLP193 P0000 60004 T01440111 50003=
201906280753 METAR KBLI 280753Z AUTO 17006KT 4SM -RA FEW031 SCT045 OVC060 14/11 A3009 RMK AO2 RAB25 SLP194 P0004 T01390111 402000133=
201906280653 METAR KBLI 280653Z AUTO 18005KT 10SM FEW045 BKN060 OVC075 15/10 A3008 RMK AO2 SLP192 T01500100=
201906280553 METAR KBLI 280553Z AUTO 17005KT 10SM FEW039 BKN065 16/11 A3007 RMK AO2 SLP190 T01560106 10200 20156 51008=
201906280453 METAR KBLI 280453Z 17006KT 10SM SCT040 BKN055 16/11 A3007 RMK AO2 SLP188 T01610111=
201906280353 METAR KBLI 280353Z 20004KT 10SM SCT060 BKN100 17/12 A3006 RMK AO2 SLP184 T01720117=
201906280253 METAR KBLI 280253Z 21006KT 10SM SCT050 BKN100 18/11 A3005 RMK AO2 LTG DSNT SE SLP182 T01780106 53006=
201906280153 METAR KBLI 280153Z 21006KT 10SM SCT060 BKN090 18/10 A3004 RMK AO2 SLP178 T01830100=
201906280053 METAR KBLI 280053Z 21008KT 10SM BKN070 19/09 A3004 RMK AO2 SLP177 T01940089=
201906272353 METAR KBLI 272353Z 17005KT 10SM SCT060 BKN085 20/09 A3003 RMK AO2 SLP176 60002 T02000094 10200 20133 55000=
201906272253 METAR KBLI 272253Z 20006KT 10SM SCT060 BKN085 18/10 A3003 RMK AO2 SLP174 T01830100=
201906272153 METAR KBLI 272153Z 16008KT 10SM BKN060 18/10 A3003 RMK AO2 SLP175 T01830100=
201906272053 METAR KBLI 272053Z 19008KT 10SM SCT020 BKN070 17/11 A3003 RMK AO2 SLP176 60002 T01670106 51006=
201906271953 METAR KBLI 271953Z 18009KT 10SM SCT009 BKN025 OVC120 16/12 A3003 RMK AO2 RAE09 SLP175 P0000 T01610122=
201906271853 METAR KBLI 271853Z 17008KT 10SM -RA BKN005 OVC060 15/13 A3003 RMK AO2 SLP174 P0002 T01500133=
201906271846 SPECI KBLI 271846Z 16009G16KT 4SM -RA BR SCT005 BKN017 OVC024 14/13 A3002 RMK AO2 P0002 T01440128=
201906271753 METAR KBLI 271753Z 17007KT 2 1/2SM R16/5500VP6000FT -RA BR SCT006 BKN017 OVC024 13/12 A3002 RMK AO2 SLP170 P0010 60030 T01330117 10139 20133 51023=
201906271747 SPECI KBLI 271747Z 17009KT 1 1/4SM R16/5500VP6000FT -RA BR SCT006 BKN016 OVC028 13/12 A3001 RMK AO2 P0010=
201906271711 SPECI KBLI 271711Z 17009G18KT 1 1/4SM R16/4000VP6000FT RA BR OVC003 13/12 A3000 RMK AO2 P0008 T01330117=
201906271704 SPECI KBLI 271704Z 17008G15KT 3/4SM R16/3500VP6000FT RA BR BKN003 OVC007 13/12 A3000 RMK AO2 P0006 T01330122=
201906271653 METAR KBLI 271653Z 17010KT 1 1/2SM R16/4500VP6000FT RA BR BKN005 OVC014 13/12 A2999 RMK AO2 SLP162 P0007 T01330117=
201906271630 SPECI KBLI 271630Z 17008KT 1 1/2SM R16/5000VP6000FT -RA BR BKN005 OVC014 13/12 A2998 RMK AO2 P0003 T01330117=
201906271621 SPECI KBLI 271621Z 17009G17KT 1 3/4SM R16/5000VP6000FT -RA BR SCT005 BKN013 OVC021 13/12 A2998 RMK AO2 P0003 T01330117=
201906271600 SPECI KBLI 271600Z 17013G18KT 1 3/4SM -RA BR SCT005 BKN015 OVC020 13/12 A2998 RMK AO2 P0000 T01330117=
201906271556 SPECI KBLI 271556Z 16010G14KT 2SM R16/6000VP6000FT -RA BR SCT005 BKN011 OVC016 13/12 A2997 RMK AO2 P0000 T01330117=
201906271553 METAR KBLI 271553Z 16007G16KT 1 3/4SM R16/6000VP6000FT -RA BR SCT005 BKN009 OVC016 13/12 A2997 RMK AO2 CIG 008V011 SLP155 P0003 T01330117=
201906271453 METAR KBLI 271453Z 18011G17KT 3SM R16/5500VP6000FT -RA BR OVC009 14/12 A2995 RMK AO2 CIG 005V011 SLP147 P0003 60010 T01390117 53010=
201906271401 SPECI KBLI 271401Z 19005KT 5SM -RA BR BKN005 BKN011 OVC041 14/12 A2994 RMK AO2 P0000 T01390122=
201906271353 METAR KBLI 271353Z 18004KT 4SM -RA BR FEW005 BKN011 OVC041 14/12 A2994 RMK AO2 SLP144 P0001 T01390122=
201906271311 SPECI KBLI 271311Z AUTO 19005KT 10SM -RA BKN007 BKN014 OVC090 14/12 A2993 RMK AO2 CIG 004V012 P0000 T01390122=
201906271258 SPECI KBLI 271258Z AUTO 18004KT 9SM -RA BKN010 BKN028 OVC090 14/12 A2993 RMK AO2 P0000 T01390117=
201906271253 METAR KBLI 271253Z AUTO 18004KT 8SM -RA SCT008 BKN080 OVC090 14/12 A2993 RMK AO2 SLP140 P0006 T01390117=
201906271153 METAR KBLI 271153Z AUTO 18005KT 5SM RA BR OVC065 13/12 A2992 RMK AO2 SLP137 P0021 60052 70052 T01330117 10161 20133 53008=
201906271102 SPECI KBLI 271102Z AUTO 18012KT 4SM RA BR FEW007 BKN060 OVC070 13/12 A2990 RMK AO2 P0003 T01330117=
201906271053 METAR KBLI 271053Z AUTO 18010G17KT 5SM RA BR OVC060 13/12 A2990 RMK AO2 SLP129 P0017 T01330117=
201906271018 SPECI KBLI 271018Z AUTO 17009G18KT 6SM -RA BR FEW008 OVC070 14/12 A2989 RMK AO2 P0006 T01390117=
201906270953 METAR KBLI 270953Z AUTO 17010KT 6SM -RA BR OVC075 14/12 A2989 RMK AO2 SLP127 P0013 T01390117=
201906270653 METAR KBLI 270653Z AUTO 20003KT 10SM OVC100 16/12 A2989 RMK AO2 SLP127 T01560117=
201906270553 METAR KBLI 270553Z AUTO 00000KT 10SM OVC110 15/11 A2990 RMK AO2 SLP130 T01500111 10200 20150 51005=
201906270453 METAR KBLI 270453Z 15005KT 10SM BKN110 16/11 A2989 RMK AO2 SLP128 T01610106=
201906270353 METAR KBLI 270353Z 14003KT 10SM OVC095 17/11 A2990 RMK AO2 SLP130 T01670106=
201906270253 METAR KBLI 270253Z 00000KT 10SM OVC110 17/11 A2988 RMK AO2 LTG DSNT NE SLP125 T01720106 51013=
201906270153 METAR KBLI 270153Z 19007KT 10SM CLR 17/10 A2988 RMK AO2 LTG DSNT E SLP123 T01720100=
201906270053 METAR KBLI 270053Z 17009KT 10SM CLR 19/10 A2986 RMK AO2 LTG DSNT SE SLP118 T01890100=
201906262353 METAR KBLI 262353Z VRB04KT 10SM CLR 20/09 A2984 RMK AO2 LTG DSNT E SLP112 T02000094 10222 20172 55002=
201906262253 METAR KBLI 262253Z 29005KT 10SM CLR 21/09 A2983 RMK AO2 SLP106 T02110089=
201906262153 METAR KBLI 262153Z 24007KT 200V310 10SM CLR 22/09 A2984 RMK AO2 SLP110 T02220089=
201906262053 METAR KBLI 262053Z 32007KT 10SM CLR 22/09 A2985 RMK AO2 SLP114 T02170094 58017=
201906261953 METAR KBLI 261953Z VRB03KT 10SM CLR 21/10 A2988 RMK AO2 SLP123 T02060100=
201906261853 METAR KBLI 261853Z VRB05KT 10SM CLR 19/11 A2989 RMK AO2 SLP128 T01890106=
201906261753 METAR KBLI 261753Z VRB03KT 10SM CLR 18/11 A2990 RMK AO2 SLP131 T01780106 10178 20139 58002=
201906261653 METAR KBLI 261653Z 19009KT 160V220 10SM CLR 16/10 A2991 RMK AO2 SLP134 T01610100=
201906261553 METAR KBLI 261553Z 18007KT 10SM SCT085 16/10 A2991 RMK AO2 SLP135 T01560100=
201906261453 METAR KBLI 261453Z 19006KT 10SM OVC090 16/10 A2991 RMK AO2 SLP134 T01560100 50007=
201906261353 METAR KBLI 261353Z 20003KT 10SM OVC090 14/10 A2991 RMK AO2 SLP134 T01440100=
201906261253 METAR KBLI 261253Z AUTO 17007KT 10SM OVC090 14/10 A2990 RMK AO2 SLP131 T01390100=
201906261153 METAR KBLI 261153Z AUTO 18005KT 10SM FEW080 BKN100 14/10 A2989 RMK AO2 SLP127 T01390100 10167 20122 52002=
201906261053 METAR KBLI 261053Z AUTO 18006KT 10SM BKN110 14/10 A2989 RMK AO2 SLP126 T01440100=
201906260953 METAR KBLI 260953Z AUTO VRB03KT 10SM CLR 14/09 A2989 RMK AO2 SLP126 T01390094=
201906260853 METAR KBLI 260853Z AUTO 00000KT 10SM CLR 12/09 A2988 RMK AO2 SLP125 T01220089 51004=
201906260753 METAR KBLI 260753Z AUTO 00000KT 10SM CLR 14/09 A2988 RMK AO2 SLP125 T01440089 402280078=
201906260653 METAR KBLI 260653Z AUTO 00000KT 10SM CLR 16/09 A2988 RMK AO2 SLP124 T01560094=
201906260553 METAR KBLI 260553Z AUTO 19006KT 10SM CLR 17/10 A2987 RMK AO2 SLP121 T01670100 10228 20156 53010=
201906260453 METAR KBLI 260453Z 19006KT 10SM CLR 17/10 A2986 RMK AO2 SLP118 T01670100=
201906260353 METAR KBLI 260353Z 00000KT 10SM CLR 18/11 A2985 RMK AO2 SLP113 T01780106=
201906260253 METAR KBLI 260253Z 00000KT 10SM CLR 19/11 A2984 RMK AO2 SLP111 T01940106 53003=
201906260153 METAR KBLI 260153Z 00000KT 10SM CLR 21/09 A2984 RMK AO2 LTG DSNT E SLP110 T02060089=
201906260053 METAR KBLI 260053Z VRB05KT 10SM SCT060 22/06 A2983 RMK AO2 LTG DSNT E SLP108 T02170061=
201906252353 METAR KBLI 252353Z 29005KT 10SM SCT060 22/07 A2983 RMK AO2 SLP108 T02220072 10222 20178 56009=
201906252253 METAR KBLI 252253Z VRB06KT 10SM SCT060 21/08 A2983 RMK AO2 SLP108 T02110078=
201906252153 METAR KBLI 252153Z VRB04KT 10SM CLR 22/08 A2984 RMK AO2 SLP111 T02170083=
201906252053 METAR KBLI 252053Z VRB06KT 10SM CLR 21/09 A2986 RMK AO2 SLP116 T02060089 58008=
201906251953 METAR KBLI 251953Z 19008KT 10SM SCT080 19/09 A2987 RMK AO2 SLP119 T01940094=
201906251853 METAR KBLI 251853Z 19007KT 10SM SCT080 18/11 A2988 RMK AO2 SLP123 T01830106=
201906251753 METAR KBLI 251753Z 00000KT 10SM CLR 19/10 A2988 RMK AO2 SLP125 T01890100 10189 20078 58006=
201906251653 METAR KBLI 251653Z 22004KT 10SM FEW080 17/10 A2989 RMK AO2 SLP126 T01720100=
201906251553 METAR KBLI 251553Z 20004KT 10SM FEW080 15/09 A2990 RMK AO2 SLP130 T01500094=
201906251453 METAR KBLI 251453Z 26003KT 10SM CLR 13/09 A2990 RMK AO2 SLP131 T01330094 50003=
201906251353 METAR KBLI 251353Z 04003KT 10SM CLR 12/09 A2990 RMK AO2 SLP131 T01220089=
201906251253 METAR KBLI 251253Z AUTO 00000KT 10SM CLR 08/07 A2990 RMK AO2 SLP131 T00830072=
201906251153 METAR KBLI 251153Z AUTO 00000KT 10SM CLR 08/06 A2989 RMK AO2 SLP129 T00780061 10139 20078 56007=
201906251053 METAR KBLI 251053Z AUTO 00000KT 10SM CLR 09/07 A2990 RMK AO2 SLP130 T00940072=
201906250953 METAR KBLI 250953Z AUTO 00000KT 10SM CLR 10/08 A2991 RMK AO2 SLP134 T01000078=
201906250853 METAR KBLI 250853Z AUTO 00000KT 10SM CLR 10/08 A2991 RMK AO2 SLP136 T01000078 58007=
201906250753 METAR KBLI 250753Z AUTO 00000KT 10SM CLR 11/08 A2992 RMK AO2 SLP139 T01110083 401890111=
201906250653 METAR KBLI 250653Z AUTO 18003KT 10SM CLR 12/09 A2993 RMK AO2 SLP141 T01220089=
201906250553 METAR KBLI 250553Z AUTO 18005KT 10SM CLR 14/09 A2993 RMK AO2 SLP142 T01390094 10189 20133 56004=
201906250453 METAR KBLI 250453Z 00000KT 10SM CLR 14/09 A2994 RMK AO2 SLP143 T01390094=
201906250353 METAR KBLI 250353Z 20003KT 10SM CLR 16/09 A2993 RMK AO2 SLP142 T01610094=
201906250253 METAR KBLI 250253Z 18005KT 10SM CLR 17/09 A2995 RMK AO2 SLP147 T01720089 56015=
201906250153 METAR KBLI 250153Z 18005KT 10SM CLR 18/09 A2996 RMK AO2 SLP150 T01830089=
201906242353 METAR KBLI 242353Z 21006KT 10SM CLR 18/08 A2999 RMK AO2 SLP161 T01830078 10183 20144 56016=
201906242253 METAR KBLI 242253Z 18008KT 10SM CLR 18/07 A3000 RMK AO2 SLP165 T01780072=
201906242153 METAR KBLI 242153Z 20006KT 10SM CLR 17/07 A3002 RMK AO2 SLP170 T01670072=
201906242053 METAR KBLI 242053Z 19010KT 10SM OVC080 17/08 A3004 RMK AO2 SLP178 T01720078 58004=
201906241953 METAR KBLI 241953Z 16015KT 10SM SCT035 BKN070 OVC085 16/08 A3005 RMK AO2 SLP181 T01560078=
201906241853 METAR KBLI 241853Z 18012KT 10SM BKN040 BKN080 15/09 A3005 RMK AO2 SLP183 T01500089=
201906241753 METAR KBLI 241753Z 16013KT 10SM BKN040 BKN080 15/09 A3005 RMK AO2 SLP182 T01500089 10150 20117 58002=
201906241653 METAR KBLI 241653Z 18008KT 10SM OVC040 14/09 A3006 RMK AO2 SLP184 T01440089=
201906241553 METAR KBLI 241553Z 17007KT 10SM SCT043 OVC075 14/09 A3006 RMK AO2 SLP184 T01390089=
201906241453 METAR KBLI 241453Z 16006KT 10SM FEW015 BKN060 OVC080 13/09 A3006 RMK AO2 SLP184 T01330089 58002=
201906241353 METAR KBLI 241353Z 17006KT 10SM OVC050 13/09 A3006 RMK AO2 SLP185 T01280089=
201906241253 METAR KBLI 241253Z AUTO 15007KT 10SM OVC050 13/08 A3007 RMK AO2 SLP187 T01280083=
201906241153 METAR KBLI 241153Z AUTO 00000KT 10SM BKN055 BKN075 12/08 A3006 RMK AO2 SLP187 60000 70002 T01170083 10133 20111 58005=
201906241053 METAR KBLI 241053Z AUTO 15007KT 10SM FEW047 OVC055 12/08 A3007 RMK AO2 SLP190 T01220083=
201906240953 METAR KBLI 240953Z AUTO 16004KT 10SM FEW049 12/08 A3008 RMK AO2 SLP190 T01220083=
201906240853 METAR KBLI 240853Z AUTO 16005KT 10SM OVC050 13/09 A3008 RMK AO2 RAE0758 SLP191 P0000 60000 T01280089 57006=
201906240753 METAR KBLI 240753Z AUTO 16005KT 10SM -RA OVC048 13/09 A3008 RMK AO2 RAB45 SLP193 P0000 T01280094 401780122=
201906240653 METAR KBLI 240653Z AUTO 18005KT 10SM BKN037 OVC047 13/09 A3009 RMK AO2 RAB30E48 SLP197 P0000 T01280089=
201906240553 METAR KBLI 240553Z AUTO 18005KT 10SM FEW024 SCT043 OVC055 13/09 A3010 RMK AO2 RAB19E48 SLP198 P0000 60000 T01330089 10178 20133 51001=
201906240538 SPECI KBLI 240538Z AUTO 17005KT 10SM -RA BKN024 BKN042 OVC049 13/09 A3010 RMK AO2 RAB19 P0000 T01330089=
201906240453 METAR KBLI 240453Z 17008KT 10SM SCT033 OVC075 14/09 A3010 RMK AO2 SLP199 T01390089=
201906240353 METAR KBLI 240353Z 18007KT 10SM SCT047 BKN060 BKN070 14/08 A3009 RMK AO2 SLP198 T01440083=
201906240253 METAR KBLI 240253Z 17012G18KT 10SM FEW050 OVC070 16/08 A3010 RMK AO2 SLP197 T01560083 56006=
201906240153 METAR KBLI 240153Z 17010G17KT 10SM BKN070 16/08 A3010 RMK AO2 SLP199 T01560078=
201906240053 METAR KBLI 240053Z 16016G23KT 10SM SCT045 BKN085 17/08 A3010 RMK AO2 SLP199 T01670078=
201906232353 METAR KBLI 232353Z 17013G21KT 10SM FEW070 18/08 A3011 RMK AO2 SLP203 T01780083 10178 20139 56008=
201906232253 METAR KBLI 232253Z 17013G22KT 10SM SCT050 17/09 A3012 RMK AO2 SLP205 T01670089=
201906232153 METAR KBLI 232153Z 18012G19KT 10SM CLR 17/09 A3013 RMK AO2 SLP208 T01720094=
201906232053 METAR KBLI 232053Z 17011G21KT 10SM SCT030 BKN042 17/09 A3014 RMK AO2 SLP211 T01670094 50000=
201906232046 SPECI KBLI 232046Z 18011G17KT 10SM BKN030 BKN042 OVC065 16/09 A3014 RMK AO2 T01610094=
201906231953 METAR KBLI 231953Z 18013KT 10SM BKN020 OVC025 16/09 A3014 RMK AO2 SLP213 T01560089=
201906231853 METAR KBLI 231853Z 16010KT 10SM BKN019 OVC026 15/10 A3014 RMK AO2 SLP213 T01500100=
201906231753 METAR KBLI 231753Z 15007KT 10SM BKN020 OVC025 14/10 A3014 RMK AO2 SLP211 60002 T01440100 10144 20122 51003=
201906231653 METAR KBLI 231653Z 17007KT 10SM OVC020 14/10 A3014 RMK AO2 SLP211 T01390100=
201906231553 METAR KBLI 231553Z 17006KT 10SM OVC020 13/10 A3013 RMK AO2 SLP210 T01330100=
201906231453 METAR KBLI 231453Z 18004KT 10SM OVC022 13/10 A3013 RMK AO2 SLP208 60002 T01280100 55000=
201906231353 METAR KBLI 231353Z 15006KT 10SM OVC023 12/10 A3013 RMK AO2 SLP208 T01220100=
201906231310 SPECI KBLI 231310Z AUTO 16006KT 10SM BKN024 OVC050 12/10 A3013 RMK AO2 T01220100=
201906231253 METAR KBLI 231253Z AUTO 17005KT 10SM SCT024 OVC050 12/10 A3013 RMK AO2 RAB13E48 SLP208 P0002 T01220100=
201906231215 SPECI KBLI 231215Z AUTO 17005KT 7SM -RA SCT023 BKN027 OVC055 12/10 A3013 RMK AO2 RAB13 P0001 T01220100=
201906231153 METAR KBLI 231153Z AUTO 17005KT 10SM SCT027 SCT033 OVC055 13/09 A3013 RMK AO2 RAB20E47 SLP209 P0000 60000 T01280094 10139 20128 56004=
201906231117 SPECI KBLI 231117Z AUTO 16007KT 10SM BKN029 OVC050 13/09 A3013 RMK AO2 T01330089=
201906231053 METAR KBLI 231053Z AUTO 17006KT 10SM FEW031 OVC050 13/09 A3014 RMK AO2 SLP211 T01330089=
201906230953 METAR KBLI 230953Z AUTO 18008KT 10SM OVC065 13/09 A3013 RMK AO2 SLP210 T01280089=
201906230853 METAR KBLI 230853Z AUTO 17007KT 10SM OVC070 13/09 A3014 RMK AO2 SLP212 T01330094 55000=
201906230753 METAR KBLI 230753Z AUTO 18012G20KT 10SM FEW041 OVC075 13/09 A3014 RMK AO2 SLP211 T01280094 401780128=
201906230653 METAR KBLI 230653Z AUTO 17015G22KT 10SM SCT013 BKN041 OVC090 13/09 A3014 RMK AO2 SLP214 T01330094=
201906230553 METAR KBLI 230553Z AUTO 18011G22KT 10SM FEW014 BKN090 14/10 A3014 RMK AO2 SLP213 T01390100 10178 20139 56002=
201906230453 METAR KBLI 230453Z 18013G21KT 10SM SCT085 14/10 A3014 RMK AO2 SLP214 T01440100=
201906230353 METAR KBLI 230353Z 16012G19KT 10SM FEW018 BKN090 15/10 A3014 RMK AO2 SLP213 T01500100=
201906230253 METAR KBLI 230253Z 18012G19KT 10SM SCT100 16/10 A3015 RMK AO2 SLP215 T01560100 56012=
201906230153 METAR KBLI 230153Z 18011G20KT 10SM CLR 16/09 A3015 RMK AO2 SLP217 T01610094=
201906230053 METAR KBLI 230053Z 18010G17KT 10SM FEW095 17/09 A3017 RMK AO2 SLP221 T01720094=
201906222353 METAR KBLI 222353Z 18012KT 10SM SCT030 BKN080 17/10 A3018 RMK AO2 SLP226 T01720100 10172 20139 56010=
201906222253 METAR KBLI 222253Z 18017KT 10SM SCT018 SCT030 BKN075 17/10 A3018 RMK AO2 SLP226 T01720100=
201906222153 METAR KBLI 222153Z 18015KT 10SM BKN025 BKN075 17/10 A3020 RMK AO2 SLP233 T01670100=
201906222053 METAR KBLI 222053Z 19016KT 10SM BKN018 BKN028 OVC060 16/10 A3021 RMK AO2 SLP236 T01560100 55004=
201906221953 METAR KBLI 221953Z 17017KT 10SM BKN018 BKN025 16/10 A3020 RMK AO2 SLP234 T01560100=
201906221853 METAR KBLI 221853Z 15012KT 10SM BKN014 BKN025 14/09 A3021 RMK AO2 SLP237 T01440094=
201906221753 METAR KBLI 221753Z 15010G18KT 10SM BKN014 14/09 A3022 RMK AO2 SLP240 T01390094 10139 20128 51007=
201906221653 METAR KBLI 221653Z 18008KT 10SM OVC014 13/09 A3022 RMK AO2 SLP238 T01330094=
201906221553 METAR KBLI 221553Z 17009G15KT 10SM OVC013 13/09 A3021 RMK AO2 SLP237 T01330094=
201906221453 METAR KBLI 221453Z 16012G19KT 10SM OVC013 13/09 A3020 RMK AO2 SLP233 T01280094 50002=
201906221443 SPECI KBLI 221443Z 17011G18KT 10SM OVC014 13/09 A3020 RMK AO2 T01280094=
201906221410 SPECI KBLI 221410Z 18013G19KT 10SM OVC015 13/09 A3021 RMK AO2 T01280089=
201906221353 METAR KBLI 221353Z AUTO 17012G19KT 10SM OVC014 13/09 A3020 RMK AO2 SLP233 T01280089=
201906221315 SPECI KBLI 221315Z AUTO 17012G20KT 10SM OVC014 13/09 A3020 RMK AO2 T01280094=
201906221253 METAR KBLI 221253Z AUTO 16013G19KT 10SM FEW009 OVC016 13/09 A3020 RMK AO2 SLP232 T01280094=
201906221153 METAR KBLI 221153Z AUTO 17013G21KT 10SM FEW011 OVC018 13/09 A3019 RMK AO2 SLP231 T01280094 10161 20128 51011=
201906221111 SPECI KBLI 221111Z AUTO 18013G20KT 10SM BKN021 BKN080 OVC095 13/09 A3019 RMK AO2 T01280094=
201906221053 METAR KBLI 221053Z AUTO 18013G20KT 10SM OVC090 13/09 A3019 RMK AO2 SLP229 T01330089=
201906220953 METAR KBLI 220953Z AUTO 18011G18KT 10SM OVC085 13/09 A3017 RMK AO2 SLP224 T01330094=
201906220853 METAR KBLI 220853Z AUTO 17012G18KT 10SM CLR 14/10 A3016 RMK AO2 SLP220 T01390100 51004=
201906220753 METAR KBLI 220753Z AUTO 18012G17KT 10SM OVC090 15/09 A3016 RMK AO2 SLP220 T01500094 402110128=
201906220653 METAR KBLI 220653Z AUTO 17010G17KT 10SM CLR 16/10 A3016 RMK AO2 SLP218 T01560100=
201906220553 METAR KBLI 220553Z AUTO 18008KT 10SM CLR 16/10 A3015 RMK AO2 SLP216 T01610100 10211 20156 53007=
201906220453 METAR KBLI 220453Z 16010KT 10SM SCT060 17/11 A3014 RMK AO2 SLP211 T01670111=
201906220353 METAR KBLI 220353Z 16007KT 10SM BKN060 18/12 A3013 RMK AO2 SLP209 T01830117=
201906220253 METAR KBLI 220253Z 17010KT 10SM FEW080 20/10 A3013 RMK AO2 SLP208 T02000100 55002=
201906220153 METAR KBLI 220153Z 19009KT 10SM FEW080 21/11 A3013 RMK AO2 SLP208 T02060106=
201906220053 METAR KBLI 220053Z 20006KT 10SM CLR 21/09 A3013 RMK AO2 SLP209 T02060094=
201906212353 METAR KBLI 212353Z 19009KT 10SM CLR 20/10 A3014 RMK AO2 SLP211 T02000100 10206 20156 57005=
201906212253 METAR KBLI 212253Z VRB06KT 10SM CLR 20/10 A3014 RMK AO2 SLP213 T02000100=
201906212153 METAR KBLI 212153Z 19009G16KT 10SM CLR 19/09 A3015 RMK AO2 SLP214 T01890094=
201906212053 METAR KBLI 212053Z 21009KT 10SM CLR 18/09 A3015 RMK AO2 SLP216 T01830094 58002=
201906211953 METAR KBLI 211953Z 20009KT 160V230 10SM CLR 17/09 A3015 RMK AO2 SLP216 T01720094=
201906211853 METAR KBLI 211853Z 17010KT 10SM SCT070 17/09 A3016 RMK AO2 SLP219 T01670089=
201906211753 METAR KBLI 211753Z 19008KT 10SM CLR 16/09 A3016 RMK AO2 SLP218 T01560089 10161 20128 51005=
201906211653 METAR KBLI 211653Z 20009KT 170V230 10SM CLR 15/09 A3016 RMK AO2 SLP217 T01500089=
201906211553 METAR KBLI 211553Z 18010G16KT 10SM CLR 14/08 A3015 RMK AO2 SLP215 T01440083=
201906211453 METAR KBLI 211453Z 17010G16KT 10SM CLR 14/08 A3014 RMK AO2 SLP213 T01390083 53016=
201906211353 METAR KBLI 211353Z 17008KT 10SM CLR 13/08 A3013 RMK AO2 SLP208 T01330083=
201906211253 METAR KBLI 211253Z AUTO 17010G16KT 10SM CLR 13/08 A3011 RMK AO2 SLP202 T01280083=
201906211153 METAR KBLI 211153Z AUTO 17009G16KT 10SM CLR 13/08 A3010 RMK AO2 SLP197 70009 T01280083 10150 20128 53013=
201906211053 METAR KBLI 211053Z AUTO 17011G17KT 10SM OVC110 13/08 A3008 RMK AO2 SLP191 T01330078=
201906210953 METAR KBLI 210953Z AUTO 17011G16KT 10SM OVC100 14/08 A3007 RMK AO2 SLP188 T01390083=
201906210853 METAR KBLI 210853Z AUTO 16004KT 10SM OVC100 14/08 A3006 RMK AO2 SLP185 T01440078 51011=
201906210753 METAR KBLI 210753Z AUTO 16006KT 10SM OVC085 14/08 A3005 RMK AO2 SLP183 T01440078 401830111=
201906210653 METAR KBLI 210653Z AUTO 18004KT 10SM FEW075 OVC090 15/08 A3004 RMK AO2 SLP177 T01500078=
201906210553 METAR KBLI 210553Z AUTO 19003KT 10SM OVC090 15/08 A3003 RMK AO2 SLP174 T01500078 10172 20150 53006=
201906210453 METAR KBLI 210453Z 17004KT 10SM OVC095 16/08 A3002 RMK AO2 SLP170 T01560078=
201906210353 METAR KBLI 210353Z 18008KT 10SM OVC100 16/08 A3000 RMK AO2 SLP166 T01560083=
201906210253 METAR KBLI 210253Z 18007KT 10SM OVC100 16/08 A3001 RMK AO2 SLP168 T01610078 56008=
201906210153 METAR KBLI 210153Z 18009G15KT 10SM OVC110 16/08 A3001 RMK AO2 SLP171 T01610078=
201906210053 METAR KBLI 210053Z 18009KT 10SM SCT110 17/08 A3002 RMK AO2 SLP170 T01720078=
201906202353 METAR KBLI 202353Z 18008KT 10SM CLR 17/08 A3003 RMK AO2 SLP176 T01720078 10183 20139 58015=
201906202253 METAR KBLI 202253Z 19008KT 10SM CLR 17/08 A3006 RMK AO2 SLP184 T01720078=
201906202153 METAR KBLI 202153Z VRB06KT 10SM FEW033 17/08 A3007 RMK AO2 SLP187 T01720083=
201906202053 METAR KBLI 202053Z 21006KT 10SM FEW033 17/09 A3008 RMK AO2 SLP191 T01670089 58004=
201906202002 SPECI KBLI 202002Z 17007KT 10SM BKN022 16/09 A3008 RMK AO2 T01560094=
201906201953 METAR KBLI 201953Z VRB04KT 10SM OVC046 16/09 A3009 RMK AO2 SLP195 T01560089=
201906201853 METAR KBLI 201853Z VRB04KT 10SM BKN026 BKN034 OVC041 15/09 A3009 RMK AO2 SLP195 T01500089=
201906201753 METAR KBLI 201753Z 20008KT 10SM SCT015 BKN024 14/09 A3009 RMK AO2 SLP196 60009 T01390089 10144 20111 58002=
201906201653 METAR KBLI 201653Z VRB04KT 10SM SCT014 OVC024 13/09 A3009 RMK AO2 SLP198 T01330089=
201906201602 SPECI KBLI 201602Z 18005KT 10SM BKN016 OVC022 13/09 A3010 RMK AO2 T01280089=
201906201553 METAR KBLI 201553Z 17004KT 10SM OVC014 13/09 A3010 RMK AO2 SLP198 T01280089=
201906201453 METAR KBLI 201453Z 17006KT 10SM BKN014 OVC025 12/09 A3009 RMK AO2 SLP197 60009 T01220089 53008=
201906201408 SPECI KBLI 201408Z 16006KT 10SM BKN019 OVC055 12/09 A3009 RMK AO2 T01170089=
201906201353 METAR KBLI 201353Z 17006KT 10SM FEW020 OVC055 12/09 A3008 RMK AO2 RAE00 SLP194 P0001 T01170089=
201906201339 SPECI KBLI 201339Z AUTO 17004KT 10SM SCT024 OVC055 12/09 A3008 RMK AO2 RAE00 P0001 T01170094=
201906201253 METAR KBLI 201253Z AUTO 17005KT 6SM -RA BR FEW017 OVC024 11/09 A3008 RMK AO2 SLP191 P0008 T01110089=
201906201239 SPECI KBLI 201239Z AUTO 17003KT 3SM -RA BR FEW015 BKN022 OVC030 11/09 A3008 RMK AO2 P0008 T01110089=
201906201229 SPECI KBLI 201229Z AUTO 16004KT 2 1/2SM RA BR SCT019 OVC024 11/09 A3008 RMK AO2 P0007 T01110089=
201906201153 METAR KBLI 201153Z AUTO 16007KT 8SM -RA BKN029 BKN035 OVC055 12/09 A3007 RMK AO2 RAB03 SLP189 P0001 60001 70003 T01170089 10128 20117 51003=
201906201150 SPECI KBLI 201150Z AUTO 17008KT 8SM -RA BKN029 BKN046 OVC055 12/08 A3007 RMK AO2 RAB03 P0001=
201906201053 METAR KBLI 201053Z AUTO 18007KT 10SM SCT033 OVC055 12/08 A3007 RMK AO2 SLP188 T01170083=
201906200953 METAR KBLI 200953Z AUTO 16004KT 10SM SCT041 BKN060 12/08 A3006 RMK AO2 SLP186 T01170083=
201906200853 METAR KBLI 200853Z AUTO 17007KT 10SM FEW036 12/08 A3006 RMK AO2 SLP185 60000 T01170083 55003=
201906200753 METAR KBLI 200753Z AUTO 18006KT 10SM FEW040 BKN065 12/08 A3006 RMK AO2 RAB0657E39 SLP184 P0000 T01220078 401890122=
201906200653 METAR KBLI 200653Z AUTO 16006KT 10SM OVC049 13/07 A3007 RMK AO2 RAB09E21 SLP188 P0000 T01280072=
201906200553 METAR KBLI 200553Z AUTO 23003KT 10SM FEW049 OVC060 13/08 A3007 RMK AO2 SLP189 60002 T01280078 10183 20122 55002=
201906200453 METAR KBLI 200453Z 20003KT 10SM BKN070 OVC110 13/08 A3007 RMK AO2 SLP189 T01330078=
201906200353 METAR KBLI 200353Z 18007KT 10SM FEW055 SCT070 OVC110 13/08 A3006 RMK AO2 RAE49 SLP187 P0002 T01330083=
201906200253 METAR KBLI 200253Z 19005KT 10SM -RA SCT060 OVC075 15/07 A3008 RMK AO2 RAB52 SLP191 P0000 60000 T01500067 56003=
201906200153 METAR KBLI 200153Z 17006KT 10SM SCT055 SCT085 BKN120 16/07 A3008 RMK AO2 SLP190 T01610067=
201906200053 METAR KBLI 200053Z VRB06KT 10SM SCT085 17/06 A3008 RMK AO2 SLP192 T01670056=
201906192353 METAR KBLI 192353Z 16012KT 10SM FEW085 18/07 A3009 RMK AO2 SLP194 T01780067 10189 20150 56015=
201906192253 METAR KBLI 192253Z 17011G16KT 10SM OVC080 17/07 A3010 RMK AO2 SLP197 T01720072=
201906192153 METAR KBLI 192153Z 19013G21KT 10SM OVC075 18/07 A3011 RMK AO2 SLP203 T01780072=
201906192053 METAR KBLI 192053Z 19009KT 10SM CLR 17/07 A3013 RMK AO2 SLP209 T01720072 58010=
201906191953 METAR KBLI 191953Z 17015G20KT 10SM SCT070 16/08 A3014 RMK AO2 SLP213 T01610078=
201906191853 METAR KBLI 191853Z 17012G19KT 10SM CLR 16/08 A3016 RMK AO2 SLP218 T01610083=
201906191753 METAR KBLI 191753Z 18013KT 10SM CLR 15/08 A3016 RMK AO2 SLP219 T01500083 10150 20122 58000=
201906191653 METAR KBLI 191653Z 17009KT 10SM FEW047 BKN080 14/09 A3017 RMK AO2 SLP222 T01440089=
201906191553 METAR KBLI 191553Z 18013KT 10SM FEW015 SCT045 BKN080 13/08 A3017 RMK AO2 SLP224 T01330083=
201906191453 METAR KBLI 191453Z 18013KT 10SM FEW015 BKN045 BKN080 13/08 A3016 RMK AO2 SLP219 T01280078 50003=
201906191353 METAR KBLI 191353Z 17011KT 10SM FEW015 BKN040 BKN070 12/08 A3017 RMK AO2 SLP221 T01220078=
201906191253 METAR KBLI 191253Z AUTO 18011G19KT 10SM FEW034 OVC070 12/08 A3015 RMK AO2 SLP216 T01220078=
201906191153 METAR KBLI 191153Z AUTO 16013G18KT 10SM BKN060 12/08 A3015 RMK AO2 SLP216 60002 70002 T01220078 10139 20122 53005=
201906191053 METAR KBLI 191053Z AUTO 17010KT 10SM FEW033 BKN060 13/08 A3014 RMK AO2 SLP213 T01280078=
201906190953 METAR KBLI 190953Z AUTO 17010KT 10SM SCT070 OVC090 12/08 A3014 RMK AO2 SLP212 T01220078=
201906190853 METAR KBLI 190853Z AUTO 17007KT 10SM OVC060 13/08 A3014 RMK AO2 SLP211 60002 T01280083 55002=
201906190753 METAR KBLI 190753Z AUTO 16009KT 10SM BKN060 BKN100 12/09 A3013 RMK AO2 RAB12E39 SLP210 P0002 T01220089 402000122=
201906190653 METAR KBLI 190653Z AUTO 17011G18KT 10SM BKN055 OVC095 14/08 A3014 RMK AO2 SLP211 T01390078=
201906190553 METAR KBLI 190553Z AUTO 18009KT 10SM FEW065 OVC090 14/08 A3014 RMK AO2 SLP213 T01390078 10189 20139 53003=
201906190453 METAR KBLI 190453Z 17012G18KT 10SM OVC055 15/07 A3014 RMK AO2 SLP211 T01500067=
201906190353 METAR KBLI 190353Z 17010KT 10SM OVC055 16/08 A3013 RMK AO2 SLP209 T01560083=
201906190253 METAR KBLI 190253Z 18011G19KT 10SM OVC060 16/09 A3013 RMK AO2 SLP210 T01610094 56011=
201906190153 METAR KBLI 190153Z 18013G18KT 10SM BKN060 17/10 A3014 RMK AO2 SLP210 T01670100=
201906190053 METAR KBLI 190053Z 18013KT 10SM CLR 18/10 A3016 RMK AO2 SLP217 T01780100=
201906182353 METAR KBLI 182353Z 18014G26KT 10SM CLR 18/09 A3017 RMK AO2 PK WND 19026/2350 SLP221 T01830094 10200 20172 58011=
201906182253 METAR KBLI 182253Z 17009G19KT 10SM CLR 19/10 A3018 RMK AO2 SLP226 T01940100=
201906182153 METAR KBLI 182153Z 17010G16KT 10SM CLR 19/11 A3020 RMK AO2 SLP231 T01940106=
201906182053 METAR KBLI 182053Z 16010G16KT 10SM BKN060 19/11 A3020 RMK AO2 SLP232 T01940106 55001=
201906181953 METAR KBLI 181953Z 19010KT 10SM FEW055 20/11 A3019 RMK AO2 SLP230 T02000111=
201906181853 METAR KBLI 181853Z 19007KT 140V230 10SM BKN055 18/11 A3020 RMK AO2 SLP233 T01780111=
201906181753 METAR KBLI 181753Z 19009KT 10SM CLR 17/11 A3020 RMK AO2 SLP233 T01720111 10178 20150 53009=
201906181653 METAR KBLI 181653Z 18012G17KT 10SM CLR 16/11 A3019 RMK AO2 SLP230 T01610106=
201906181553 METAR KBLI 181553Z 18010G15KT 10SM CLR 15/11 A3018 RMK AO2 SLP225 T01500111=
201906181453 METAR KBLI 181453Z 19006KT 10SM OVC060 15/11 A3017 RMK AO2 SLP223 T01500106 51014=
201906181353 METAR KBLI 181353Z 20005KT 10SM FEW022 SCT041 OVC055 16/12 A3017 RMK AO2 SLP221 T01560117=
201906181253 METAR KBLI 181253Z AUTO 18005KT 10SM FEW030 OVC046 16/12 A3015 RMK AO2 SLP214 T01560117=
201906181153 METAR KBLI 181153Z AUTO 18006KT 10SM BKN037 OVC046 15/12 A3013 RMK AO2 SLP209 T01500117 10161 20150 53009=
201906181053 METAR KBLI 181053Z AUTO 18009KT 10SM OVC047 15/12 A3011 RMK AO2 SLP203 T01500122=
201906180953 METAR KBLI 180953Z AUTO 18010G17KT 10SM OVC046 15/12 A3010 RMK AO2 SLP200 T01500117=
201906180853 METAR KBLI 180853Z AUTO 19008KT 10SM OVC060 16/12 A3010 RMK AO2 SLP200 T01560117 53003=
201906180753 METAR KBLI 180753Z AUTO 19007KT 10SM SCT065 OVC100 16/12 A3010 RMK AO2 SLP198 T01560117 401940133=
201906180653 METAR KBLI 180653Z AUTO 18012G19KT 10SM SCT065 OVC090 15/12 A3010 RMK AO2 SLP197 T01500117=
201906180553 METAR KBLI 180553Z AUTO 18011G17KT 10SM OVC095 16/12 A3010 RMK AO2 SLP197 T01560117 10194 20156 52009=
201906180453 METAR KBLI 180453Z 18010G16KT 10SM SCT100 17/12 A3009 RMK AO2 SLP195 T01670117=
201906180353 METAR KBLI 180353Z 17010G18KT 10SM FEW100 18/12 A3007 RMK AO2 SLP190 T01780117=
201906180253 METAR KBLI 180253Z 18012G19KT 10SM CLR 19/12 A3007 RMK AO2 SLP188 T01890122 56007=
201906180153 METAR KBLI 180153Z 18012G20KT 10SM CLR 19/13 A3007 RMK AO2 SLP188 T01940128=
201906180053 METAR KBLI 180053Z 18011G17KT 10SM CLR 18/13 A3009 RMK AO2 SLP194 T01830128=
201906172353 METAR KBLI 172353Z 19011G20KT 10SM CLR 18/12 A3009 RMK AO2 SLP194 T01830122 10194 20156 56008=
201906172253 METAR KBLI 172253Z 19010G18KT 10SM CLR 19/12 A3010 RMK AO2 SLP198 T01890122=
201906172153 METAR KBLI 172153Z 19008G17KT 10SM CLR 19/12 A3010 RMK AO2 SLP199 T01890122=
201906172053 METAR KBLI 172053Z 18009G17KT 10SM CLR 19/12 A3011 RMK AO2 SLP203 T01890122 58001 $=
201906171953 METAR KBLI 171953Z 10SM CLR 18/12 A3012 RMK AO2 SLP206 T01780117 $=
201906171853 METAR KBLI 171853Z 18016KT 10SM FEW010 SCT060 17/12 A3012 RMK AO2 SLP204 T01670117=
201906171753 METAR KBLI 171753Z 18015KT 10SM FEW006 SCT065 16/11 A3012 RMK AO2 SLP204 T01560111 10161 20133 51007=
201906171653 METAR KBLI 171653Z 17014G20KT 10SM CLR 15/11 A3011 RMK AO2 SLP202 T01500106=
201906171553 METAR KBLI 171553Z 18016G23KT 10SM FEW005 FEW025 15/11 A3010 RMK AO2 SLP199 T01500111=
201906171453 METAR KBLI 171453Z 17014KT 10SM FEW008 SCT070 14/11 A3010 RMK AO2 SLP197 LOW CIG DSTN SSE-W MOV NNW T01440106 51016=
201906171353 METAR KBLI 171353Z 17013KT 10SM SCT065 BKN075 14/11 A3008 RMK AO2 SLP193 T01390106=
201906171253 METAR KBLI 171253Z AUTO 19008KT 10SM BKN065 14/11 A3006 RMK AO2 SLP186 T01390106=
201906171153 METAR KBLI 171153Z AUTO 18011KT 10SM BKN070 14/11 A3005 RMK AO2 SLP181 T01390106 10150 20139 52009=
201906171053 METAR KBLI 171053Z AUTO 18008G15KT 10SM OVC070 14/11 A3004 RMK AO2 SLP178 T01390106=
201906170953 METAR KBLI 170953Z AUTO 18009KT 10SM OVC065 14/11 A3003 RMK AO2 SLP175 T01440111=
201906170853 METAR KBLI 170853Z AUTO 18009G17KT 10SM CLR 14/11 A3002 RMK AO2 SLP172 T01390106 53006=
201906170753 METAR KBLI 170753Z AUTO 18010KT 10SM CLR 15/11 A3001 RMK AO2 SLP167 T01500111 402110122=
201906170653 METAR KBLI 170653Z AUTO 18010G16KT 10SM CLR 15/11 A3000 RMK AO2 SLP165 T01500111=
201906170553 METAR KBLI 170553Z AUTO 18010G18KT 10SM CLR 15/11 A3000 RMK AO2 SLP165 T01500111 10200 20150 51006=
201906170453 METAR KBLI 170453Z 18010G17KT 10SM CLR 16/12 A3000 RMK AO2 SLP163 T01560117=
201906170353 METAR KBLI 170353Z 18010KT 10SM CLR 17/12 A2999 RMK AO2 SLP162 T01720117=
201906170253 METAR KBLI 170253Z 18008KT 10SM CLR 18/12 A2998 RMK AO2 SLP159 T01780122 55005=
201906170153 METAR KBLI 170153Z 18010KT 10SM CLR 18/12 A2998 RMK AO2 SLP157 T01830117=
201906170053 METAR KBLI 170053Z 18014KT 10SM FEW080 19/12 A2999 RMK AO2 SLP161 T01940117=
201906162353 METAR KBLI 162353Z 18010G18KT 10SM CLR 20/12 A3000 RMK AO2 SLP165 T02000117 10211 20161 58009=
201906162253 METAR KBLI 162253Z 19009KT 160V220 10SM CLR 20/12 A3002 RMK AO2 SLP170 T02000122=
201906162153 METAR KBLI 162153Z 19014KT 10SM FEW090 21/12 A3003 RMK AO2 SLP173 T02060122=
201906162053 METAR KBLI 162053Z 17012KT 10SM FEW090 20/11 A3003 RMK AO2 SLP174 T02000111 56006=
201906161953 METAR KBLI 161953Z 18008KT 10SM CLR 19/12 A3003 RMK AO2 SLP175 T01940122=
201906161853 METAR KBLI 161853Z 19013KT 10SM FEW080 17/12 A3004 RMK AO2 SLP178 T01720117=
201906161753 METAR KBLI 161753Z 18013KT 10SM FEW030 16/12 A3005 RMK AO2 SLP180 T01610117 10167 20122 55001=
201906161653 METAR KBLI 161653Z 18007KT 10SM CLR 16/11 A3004 RMK AO2 SLP178 T01560111=
201906161553 METAR KBLI 161553Z 20007KT 10SM CLR 16/11 A3005 RMK AO2 SLP180 T01560111=
201906161453 METAR KBLI 161453Z 20005KT 10SM FEW008 14/11 A3005 RMK AO2 SLP181 T01440106 51005=
201906161353 METAR KBLI 161353Z 17004KT 10SM FEW008 14/09 A3005 RMK AO2 SLP180 T01390094=
201906161253 METAR KBLI 161253Z AUTO 18004KT 10SM CLR 13/10 A3004 RMK AO2 SLP178 T01280100=
201906161053 METAR KBLI 161053Z AUTO 18006KT 10SM CLR 13/09 A3002 RMK AO2 SLP171 T01280094=
201906160953 METAR KBLI 160953Z AUTO 18007KT 10SM CLR 14/09 A3002 RMK AO2 SLP170 T01390094=
201906160853 METAR KBLI 160853Z AUTO 18009KT 10SM CLR 13/09 A3002 RMK AO2 SLP170 T01330094 58000=
201906160753 METAR KBLI 160753Z AUTO 17006KT 10SM CLR 14/09 A3002 RMK AO2 SLP171 T01390089 402000128=
201906160653 METAR KBLI 160653Z AUTO 18009KT 10SM CLR 14/11 A3002 RMK AO2 SLP172 T01390106=
201906160553 METAR KBLI 160553Z AUTO 18009KT 10SM CLR 14/11 A3002 RMK AO2 SLP171 T01440106 10194 20144 53002=
201906160453 METAR KBLI 160453Z 18014G21KT 10SM CLR 16/12 A3001 RMK AO2 SLP170 T01560117=
201906160353 METAR KBLI 160353Z 18010KT 10SM CLR 17/11 A3001 RMK AO2 SLP169 T01670111=
201906160253 METAR KBLI 160253Z 18009KT 10SM CLR 17/11 A3001 RMK AO2 SLP168 T01720111 56005=
201906160153 METAR KBLI 160153Z 18008KT 10SM CLR 18/12 A3001 RMK AO2 SLP169 T01780117=
201906160053 METAR KBLI 160053Z 17011KT 10SM FEW100 19/11 A3002 RMK AO2 SLP170 T01890111=
201906152353 METAR KBLI 152353Z 18012KT 10SM FEW090 19/11 A3003 RMK AO2 SLP173 T01940111 10200 20144 56012=
201906152253 METAR KBLI 152253Z 19009KT 10SM CLR 20/12 A3003 RMK AO2 SLP176 T02000117=
201906152153 METAR KBLI 152153Z 20007KT 10SM CLR 19/12 A3005 RMK AO2 SLP181 T01890117=
201906152053 METAR KBLI 152053Z 19007KT 160V230 10SM CLR 18/12 A3006 RMK AO2 SLP185 T01780117 58007=
201906151953 METAR KBLI 151953Z 18011KT 10SM FEW030 FEW100 17/11 A3008 RMK AO2 SLP190 T01720111=
201906151853 METAR KBLI 151853Z 17012KT 10SM FEW006 SCT030 SCT045 16/11 A3008 RMK AO2 SLP192 T01560111=
201906151820 SPECI KBLI 151820Z 18013KT 10SM SCT006 BKN020 BKN045 14/11 A3008 RMK AO2 T01440111=
201906151753 METAR KBLI 151753Z 18010KT 10SM BKN006 BKN040 14/11 A3008 RMK AO2 SLP193 T01440111 10144 20128 51002=
201906151705 SPECI KBLI 151705Z 19006KT 10SM SCT007 OVC048 14/11 A3008 RMK AO2 T01390111=
201906151653 METAR KBLI 151653Z 19008KT 150V220 10SM OVC048 14/11 A3008 RMK AO2 SLP192 VSBY LWR S-W DRFG T01390106=
201906151553 METAR KBLI 151553Z 19008KT 10SM OVC048 14/11 A3008 RMK AO2 SLP193 VSBY LWR S-W DRFG T01390106=
201906151453 METAR KBLI 151453Z 18007KT 10SM OVC047 13/11 A3008 RMK AO2 SLP191 T01330106 53004=
201906151353 METAR KBLI 151353Z 18009KT 10SM OVC048 13/11 A3007 RMK AO2 SLP189 VSBY LWR S-W DRFG T01330106=
201906151253 METAR KBLI 151253Z AUTO 18006KT 10SM OVC048 13/10 A3006 RMK AO2 SLP186 T01280100=
201906151153 METAR KBLI 151153Z AUTO 20004KT 10SM OVC049 13/11 A3007 RMK AO2 SLP187 T01330106 10156 20128 51002=
201906151053 METAR KBLI 151053Z AUTO 18007KT 10SM OVC050 13/10 A3006 RMK AO2 SLP187 T01280100=
201906150953 METAR KBLI 150953Z AUTO 18008KT 10SM OVC050 14/10 A3007 RMK AO2 SLP187 T01390100=
201906150853 METAR KBLI 150853Z AUTO 18006KT 10SM OVC050 14/10 A3006 RMK AO2 SLP185 T01440100 53002=
201906150753 METAR KBLI 150753Z AUTO 17005KT 10SM OVC050 15/10 A3006 RMK AO2 SLP184 T01500100 401940122=
201906150653 METAR KBLI 150653Z AUTO 18006KT 10SM CLR 15/10 A3006 RMK AO2 SLP185 T01500100=
201906150553 METAR KBLI 150553Z AUTO 18006KT 10SM CLR 15/11 A3006 RMK AO2 SLP184 T01500106 10194 20150 53005=
201906150453 METAR KBLI 150453Z 17010KT 10SM CLR 16/10 A3005 RMK AO2 SLP181 T01560100=
201906150353 METAR KBLI 150353Z 17010KT 10SM FEW100 16/10 A3004 RMK AO2 SLP178 T01610100=
201906150253 METAR KBLI 150253Z 19012KT 10SM FEW080 18/10 A3004 RMK AO2 SLP178 T01780100 55005=
201906150153 METAR KBLI 150153Z 17012KT 10SM FEW080 19/10 A3004 RMK AO2 SLP177 T01890100=
201906150053 METAR KBLI 150053Z 19005KT 10SM CLR 19/10 A3004 RMK AO2 SLP180 T01890100=
201906142353 METAR KBLI 142353Z 18008KT 10SM CLR 19/09 A3006 RMK AO2 SLP183 T01890094 10194 20156 58012=
201906142253 METAR KBLI 142253Z 18007KT 10SM CLR 18/09 A3007 RMK AO2 SLP189 T01830094=
201906142153 METAR KBLI 142153Z 19007G14KT 150V220 10SM CLR 18/09 A3008 RMK AO2 SLP192 T01830094=
201906142053 METAR KBLI 142053Z 19007KT 160V230 10SM SCT016 18/10 A3009 RMK AO2 SLP195 T01780100 51004=
201906141953 METAR KBLI 141953Z 21008KT 170V230 10SM CLR 17/10 A3009 RMK AO2 SLP194 T01720100=
201906141853 METAR KBLI 141853Z 17011KT 10SM SCT021 SCT040 17/09 A3009 RMK AO2 SLP195 T01670094=
201906141753 METAR KBLI 141753Z 17012KT 10SM SCT021 BKN040 16/10 A3008 RMK AO2 SLP191 T01560100 10161 20122 51004=
201906141653 METAR KBLI 141653Z 17008KT 10SM OVC040 15/09 A3007 RMK AO2 SLP189 T01500094=
201906141553 METAR KBLI 141553Z 18008KT 10SM OVC039 14/09 A3007 RMK AO2 SLP188 T01440094=
201906141500 SPECI KBLI 141500Z 17007KT 10SM BKN018 OVC038 14/09 A3006 RMK AO2 T01390094=
201906141453 METAR KBLI 141453Z 18008KT 10SM SCT018 OVC039 14/09 A3006 RMK AO2 SLP186 T01390094 53015=
201906141353 METAR KBLI 141353Z 17008KT 10SM OVC039 14/09 A3005 RMK AO2 SLP181 T01390094=
201906141253 METAR KBLI 141253Z AUTO 17009G17KT 10SM FEW018 FEW036 SCT050 13/09 A3003 RMK AO2 SLP174 T01330089=
201906141153 METAR KBLI 141153Z AUTO 17007KT 10SM FEW033 12/09 A3002 RMK AO2 SLP171 T01220089 10144 20122 53017=
201906141053 METAR KBLI 141053Z AUTO 17006KT 10SM CLR 13/09 A3000 RMK AO2 SLP165 T01280094=
201906140953 METAR KBLI 140953Z AUTO 17006KT 10SM FEW065 13/09 A2998 RMK AO2 SLP158 T01280089=
201906140853 METAR KBLI 140853Z AUTO 15007KT 10SM CLR 13/09 A2997 RMK AO2 SLP154 T01280089 53016=
201906140753 METAR KBLI 140753Z AUTO 19006KT 10SM CLR 13/09 A2995 RMK AO2 SLP146 T01330089 402110133=
201906140653 METAR KBLI 140653Z AUTO 18008KT 10SM CLR 14/09 A2994 RMK AO2 SLP143 T01390089=
201906140553 METAR KBLI 140553Z AUTO 18010G20KT 10SM CLR 14/09 A2992 RMK AO2 SLP138 T01440089 10211 20139 51017=
201906140453 METAR KBLI 140453Z 17016KT 10SM FEW100 15/09 A2991 RMK AO2 SLP134 T01500094=
201906140353 METAR KBLI 140353Z 17018G25KT 10SM FEW090 16/09 A2988 RMK AO2 PK WND 18026/0331 SLP125 T01560094=
201906140253 METAR KBLI 140253Z 17016KT 10SM FEW090 17/10 A2987 RMK AO2 SLP121 T01720100 55001=
201906140153 METAR KBLI 140153Z 19010G18KT 10SM CLR 19/09 A2987 RMK AO2 SLP119 T01940094=
201906140053 METAR KBLI 140053Z 17011KT 10SM CLR 19/11 A2988 RMK AO2 SLP123 T01940106=
201906132353 METAR KBLI 132353Z 17011G21KT 10SM CLR 19/11 A2987 RMK AO2 PK WND 18027/2321 RAB26E38 SLP122 P0000 60000 T01940106 10206 20172 58005=
201906132253 METAR KBLI 132253Z 18018G26KT 10SM CLR 18/11 A2988 RMK AO2 SLP124 T01780111=
201906132153 METAR KBLI 132153Z 18013G22KT 10SM CLR 18/11 A2989 RMK AO2 SLP126 T01780106 $=
201906132053 METAR KBLI 132053Z 19010G19KT 10SM CLR 18/11 A2989 RMK AO2 SLP127 T01780106 58001 $=
201906131953 METAR KBLI 131953Z 19012G20KT 10SM CLR 19/11 A2989 RMK AO2 SLP128 T01940106 $=
201906131853 METAR KBLI 131853Z 18015G21KT 10SM CLR 21/12 A2989 RMK AO2 SLP127 T02060117=
201906131753 METAR KBLI 131753Z 16012G19KT 10SM CLR 19/12 A2989 RMK AO2 SLP127 T01940117 10194 20144 50006=
201906131653 METAR KBLI 131653Z 18013G18KT 10SM CLR 18/12 A2989 RMK AO2 SLP128 T01830117=
201906131553 METAR KBLI 131553Z 18010KT 10SM CLR 18/12 A2989 RMK AO2 SLP126 T01830117=
201906131453 METAR KBLI 131453Z 18011G18KT 10SM CLR 17/12 A2987 RMK AO2 SLP121 T01670117 53014=
201906131353 METAR KBLI 131353Z 19012G19KT 10SM CLR 15/11 A2986 RMK AO2 SLP114 T01500111=
201906131253 METAR KBLI 131253Z AUTO 18009G18KT 10SM CLR 14/11 A2985 RMK AO2 SLP112 T01440111=
201906131153 METAR KBLI 131153Z AUTO 19011G16KT 10SM CLR 16/11 A2983 RMK AO2 SLP107 T01560111 10217 20156 51012=
201906131053 METAR KBLI 131053Z AUTO 20009G16KT 10SM SCT100 16/11 A2982 RMK AO2 SLP103 T01610111=
201906130953 METAR KBLI 130953Z AUTO 18008KT 10SM FEW100 17/12 A2981 RMK AO2 SLP100 T01720117=
201906130853 METAR KBLI 130853Z AUTO 18010KT 10SM CLR 18/12 A2980 RMK AO2 SLP095 T01780117 50000=
201906130753 METAR KBLI 130753Z AUTO 18007KT 10SM CLR 19/13 A2980 RMK AO2 SLP097 T01890128 402940133=
201906130653 METAR KBLI 130653Z AUTO 16005KT 10SM CLR 21/13 A2980 RMK AO2 SLP096 T02110133=
201906130553 METAR KBLI 130553Z AUTO 19005KT 10SM CLR 21/13 A2980 RMK AO2 SLP095 T02110133 10294 20200 53001=
201906130453 METAR KBLI 130453Z 20004KT 10SM CLR 21/14 A2980 RMK AO2 SLP094 T02110144=
201906130353 METAR KBLI 130353Z 00000KT 10SM CLR 23/16 A2979 RMK AO2 SLP092 T02280161=
201906130253 METAR KBLI 130253Z 17003KT 10SM CLR 27/17 A2980 RMK AO2 SLP093 T02670172 58021=
201906130153 METAR KBLI 130153Z 00000KT 10SM CLR 29/15 A2982 RMK AO2 SLP101 T02940150=
201906130053 METAR KBLI 130053Z 17003KT 10SM CLR 26/15 A2985 RMK AO2 SLP111 T02610150=
201906122353 METAR KBLI 122353Z 29004KT 10SM CLR 26/14 A2986 RMK AO2 SLP116 T02610144 10294 20250 56018=
201906122253 METAR KBLI 122253Z VRB04KT 10SM CLR 28/14 A2987 RMK AO2 SLP121 T02830144=
201906122153 METAR KBLI 122153Z 30005KT 10SM CLR 29/16 A2989 RMK AO2 SLP127 T02890161=
201906122053 METAR KBLI 122053Z 28009KT 10SM CLR 26/15 A2991 RMK AO2 SLP134 T02610150 56016=
201906121953 METAR KBLI 121953Z VRB06KT 10SM CLR 26/16 A2993 RMK AO2 SLP139 T02560161=
201906121853 METAR KBLI 121853Z 28006KT 10SM CLR 26/16 A2994 RMK AO2 SLP144 T02610161=
201906121753 METAR KBLI 121753Z 32003KT 10SM CLR 26/16 A2996 RMK AO2 SLP150 T02560156 10261 20133 58011=
201906121653 METAR KBLI 121653Z 35003KT 10SM CLR 24/14 A2998 RMK AO2 SLP156 T02440144=
201906121553 METAR KBLI 121553Z 34004KT 10SM CLR 22/14 A2998 RMK AO2 SLP158 T02170139=
201906121453 METAR KBLI 121453Z 00000KT 10SM CLR 21/13 A2999 RMK AO2 SLP161 T02110133 58007=
201906121353 METAR KBLI 121353Z 00000KT 10SM CLR 17/14 A3001 RMK AO2 SLP167 T01670139=
201906121253 METAR KBLI 121253Z AUTO 00000KT 10SM CLR 15/12 A3001 RMK AO2 SLP167 T01500122=
201906121153 METAR KBLI 121153Z AUTO 00000KT 10SM CLR 14/12 A3001 RMK AO2 SLP168 T01440122 10167 20133 56006=
201906121053 METAR KBLI 121053Z AUTO 00000KT 10SM CLR 15/12 A3002 RMK AO2 SLP170 T01500122=
201906120953 METAR KBLI 120953Z AUTO 00000KT 10SM CLR 15/12 A3002 RMK AO2 SLP171 T01500122=
201906120853 METAR KBLI 120853Z AUTO 00000KT 10SM CLR 15/13 A3003 RMK AO2 SLP174 T01500128 57008=
201906120753 METAR KBLI 120753Z AUTO 00000KT 10SM CLR 16/13 A3004 RMK AO2 SLP178 T01610128 402670106=
201906120653 METAR KBLI 120653Z AUTO 00000KT 10SM CLR 16/13 A3005 RMK AO2 SLP180 T01610128=
201906120553 METAR KBLI 120553Z AUTO 00000KT 10SM CLR 17/13 A3006 RMK AO2 SLP183 T01670133 10261 20161 56009=
201906120453 METAR KBLI 120453Z 00000KT 10SM CLR 18/14 A3007 RMK AO2 SLP186 T01780139=
201906120353 METAR KBLI 120353Z 00000KT 10SM CLR 20/14 A3007 RMK AO2 SLP188 T02000144=
201906120253 METAR KBLI 120253Z 20003KT 10SM CLR 24/14 A3008 RMK AO2 SLP192 T02390144 56021=
201906120153 METAR KBLI 120153Z VRB03KT 10SM CLR 26/14 A3010 RMK AO2 SLP197 T02560139=
201906120053 METAR KBLI 120053Z 29006KT 10SM CLR 25/13 A3012 RMK AO2 SLP205 T02500128=
201906112353 METAR KBLI 112353Z 26009KT 10SM CLR 26/14 A3015 RMK AO2 SLP213 T02560139 10267 20228 57024=
201906112253 METAR KBLI 112253Z 28008KT 10SM CLR 26/13 A3017 RMK AO2 SLP221 T02610133=
201906112153 METAR KBLI 112153Z 28008KT 10SM CLR 25/13 A3020 RMK AO2 SLP230 T02500128=
201906112053 METAR KBLI 112053Z 28011KT 10SM CLR 24/13 A3022 RMK AO2 SLP237 T02390133 58018=
201906111953 METAR KBLI 111953Z 30009KT 10SM CLR 24/13 A3024 RMK AO2 SLP246 T02440133=
201906111853 METAR KBLI 111853Z 31006KT 10SM CLR 24/13 A3025 RMK AO2 SLP250 T02390133=
201906111753 METAR KBLI 111753Z 33009KT 10SM CLR 23/13 A3027 RMK AO2 SLP255 T02280133 10233 20106 58010=
201906111653 METAR KBLI 111653Z 33007KT 10SM CLR 21/13 A3029 RMK AO2 SLP261 T02110133=
201906111553 METAR KBLI 111553Z 35005KT 10SM CLR 20/13 A3029 RMK AO2 SLP263 T02000133=
201906111453 METAR KBLI 111453Z 01003KT 10SM CLR 17/12 A3030 RMK AO2 SLP266 T01720122 58001=
201906111353 METAR KBLI 111353Z 00000KT 10SM CLR 14/11 A3031 RMK AO2 SLP270 T01390111=
201906111253 METAR KBLI 111253Z AUTO 00000KT 10SM CLR 11/10 A3030 RMK AO2 SLP268 T01110100=
201906111246 SPECI KBLI 111246Z AUTO 00000KT 4SM BR CLR 11/09 A3030 RMK AO2 T01060089=
201906111238 SPECI KBLI 111238Z AUTO 36004KT 1 3/4SM BR CLR 11/09 A3030 RMK AO2 VIS 3/4V5 T01060089=
201906111153 METAR KBLI 111153Z AUTO 00000KT 6SM BR CLR 12/10 A3030 RMK AO2 SLP267 T01170100 10161 20111 51002=
201906111053 METAR KBLI 111053Z AUTO 00000KT 10SM CLR 12/10 A3030 RMK AO2 SLP266 T01170100=
201906110953 METAR KBLI 110953Z AUTO 00000KT 10SM CLR 13/11 A3030 RMK AO2 SLP267 T01280106=
201906110853 METAR KBLI 110853Z AUTO 00000KT 10SM CLR 13/11 A3030 RMK AO2 SLP265 T01330106 51003=
201906110753 METAR KBLI 110753Z AUTO 00000KT 10SM CLR 14/11 A3030 RMK AO2 SLP265 T01390111 402280100=
201906110653 METAR KBLI 110653Z AUTO 25003KT 10SM CLR 14/11 A3029 RMK AO2 SLP264 T01440106=
201906110553 METAR KBLI 110553Z AUTO 25003KT 10SM CLR 16/11 A3029 RMK AO2 SLP263 T01610111 10228 20144 53006=
201906110453 METAR KBLI 110453Z 00000KT 10SM CLR 16/11 A3028 RMK AO2 SLP261 T01610111=
201906110353 METAR KBLI 110353Z 27004KT 10SM CLR 18/11 A3028 RMK AO2 SLP259 T01830111=
201906110253 METAR KBLI 110253Z 29003KT 10SM CLR 21/11 A3027 RMK AO2 SLP257 T02060106 56008=
201906110153 METAR KBLI 110153Z 28005KT 10SM CLR 22/11 A3028 RMK AO2 SLP259 T02170111=
201906110053 METAR KBLI 110053Z 25006KT 10SM FEW090 22/11 A3029 RMK AO2 SLP261 T02170106=
201906102353 METAR KBLI 102353Z 26006KT 10SM CLR 22/11 A3030 RMK AO2 SLP265 T02220111 10228 20161 58009=
201906102253 METAR KBLI 102253Z VRB03KT 10SM CLR 22/11 A3031 RMK AO2 SLP268 T02170106=
201906102153 METAR KBLI 102153Z 25007KT 10SM FEW080 21/10 A3032 RMK AO2 SLP274 T02110100=
201906102053 METAR KBLI 102053Z 20004KT 10SM FEW080 22/11 A3032 RMK AO2 SLP275 T02170111 58002=
201906101953 METAR KBLI 101953Z 00000KT 10SM FEW035 SCT080 20/09 A3033 RMK AO2 SLP277 T02000089=
201906101853 METAR KBLI 101853Z 21005KT 10SM FEW040 BKN080 18/12 A3033 RMK AO2 SLP277 T01780122=
201906101753 METAR KBLI 101753Z 20004KT 10SM SCT030 OVC070 17/12 A3033 RMK AO2 SLP277 T01670117 10167 20100 52005=
201906101653 METAR KBLI 101653Z 16005KT 10SM OVC090 16/11 A3033 RMK AO2 SLP275 T01610106=
201906101553 METAR KBLI 101553Z 19003KT 10SM BKN120 14/09 A3032 RMK AO2 SLP273 T01440089=
201906101453 METAR KBLI 101453Z 00000KT 10SM SCT060 14/09 A3032 RMK AO2 SLP272 T01440089 53001=
201906101353 METAR KBLI 101353Z 00000KT 10SM BKN060 13/08 A3031 RMK AO2 SLP269 T01330083=
201906101253 METAR KBLI 101253Z AUTO 00000KT 10SM FEW060 11/09 A3031 RMK AO2 SLP271 T01060089=
201906101153 METAR KBLI 101153Z AUTO 00000KT 10SM CLR 12/09 A3031 RMK AO2 SLP271 T01220089 10133 20111 55001=
201906101053 METAR KBLI 101053Z AUTO 19005KT 10SM CLR 13/09 A3031 RMK AO2 SLP269 T01280089=
201906100953 METAR KBLI 100953Z AUTO 20004KT 10SM CLR 13/09 A3032 RMK AO2 SLP272 T01280094=
201906100853 METAR KBLI 100853Z AUTO 18004KT 10SM CLR 12/07 A3032 RMK AO2 SLP272 T01220072 57003=
201906100753 METAR KBLI 100753Z AUTO 00000KT 10SM BKN100 13/07 A3032 RMK AO2 SLP272 T01280072 402060061=
201906100653 METAR KBLI 100653Z AUTO 00000KT 10SM OVC110 13/07 A3032 RMK AO2 SLP275 T01280072=
201906100553 METAR KBLI 100553Z AUTO 00000KT 10SM CLR 12/07 A3033 RMK AO2 SLP276 T01170067 10206 20117 53003=
201906100453 METAR KBLI 100453Z 00000KT 10SM CLR 13/07 A3032 RMK AO2 SLP275 T01280072=
201906100353 METAR KBLI 100353Z 26003KT 10SM SCT100 16/08 A3032 RMK AO2 SLP272 T01560083=
201906100253 METAR KBLI 100253Z 24004KT 10SM SCT100 18/07 A3032 RMK AO2 SLP272 T01830067 55007=
201906100153 METAR KBLI 100153Z 25005KT 10SM SCT085 BKN100 20/07 A3031 RMK AO2 SLP271 T02000072=
201906100053 METAR KBLI 100053Z 26004KT 10SM BKN090 21/06 A3032 RMK AO2 SLP274 T02060061=
201906092353 METAR KBLI 092353Z 29003KT 10SM OVC090 20/06 A3034 RMK AO2 SLP280 T02000056 10206 20156 58008=
201906092253 METAR KBLI 092253Z 29004KT 10SM FEW070 BKN100 19/05 A3035 RMK AO2 SLP285 T01940050=
201906092153 METAR KBLI 092153Z 28007KT 220V310 10SM BKN100 21/08 A3035 RMK AO2 SLP284 T02060078=
201906092053 METAR KBLI 092053Z 00000KT 10SM FEW120 19/06 A3036 RMK AO2 SLP287 T01940061 58008=
201906091953 METAR KBLI 091953Z 18008KT 10SM CLR 19/10 A3037 RMK AO2 SLP291 T01890100=
201906091853 METAR KBLI 091853Z 26004KT 10SM CLR 17/09 A3038 RMK AO2 SLP293 T01670094=
201906091753 METAR KBLI 091753Z 21004KT 10SM CLR 16/09 A3038 RMK AO2 SLP295 T01560094 10161 20061 58006=
201906091653 METAR KBLI 091653Z 21005KT 10SM CLR 15/09 A3040 RMK AO2 SLP300 T01500094=
201906091553 METAR KBLI 091553Z 31003KT 10SM CLR 14/09 A3040 RMK AO2 SLP301 T01440089=
201906091453 METAR KBLI 091453Z VRB03KT 10SM CLR 12/08 A3040 RMK AO2 SLP302 T01220083 50002=
201906091353 METAR KBLI 091353Z 00000KT 10SM CLR 12/08 A3041 RMK AO2 SLP303 T01170083=
201906091253 METAR KBLI 091253Z AUTO 00000KT 10SM CLR 08/06 A3040 RMK AO2 SLP303 T00780061=
201906091153 METAR KBLI 091153Z AUTO 00000KT 10SM CLR 07/05 A3040 RMK AO2 SLP301 T00670050 10144 20061 58002=
201906091053 METAR KBLI 091053Z AUTO 00000KT 10SM CLR 08/06 A3040 RMK AO2 SLP303 T00830061=
201906090953 METAR KBLI 090953Z AUTO 00000KT 10SM CLR 09/06 A3041 RMK AO2 SLP304 T00890061=
201906090853 METAR KBLI 090853Z AUTO 00000KT 10SM CLR 11/07 A3041 RMK AO2 SLP303 T01060067 53002=
201906090753 METAR KBLI 090753Z AUTO 17003KT 10SM CLR 12/07 A3040 RMK AO2 SLP303 T01170067 401780117=
201906090653 METAR KBLI 090653Z AUTO 16003KT 10SM CLR 13/07 A3040 RMK AO2 SLP301 T01280067=
201906090553 METAR KBLI 090553Z AUTO 17006KT 10SM CLR 14/07 A3040 RMK AO2 SLP301 T01440072 10178 20144 53007=
201906090453 METAR KBLI 090453Z 16007KT 10SM FEW100 14/07 A3039 RMK AO2 SLP299 T01440072=
201906090353 METAR KBLI 090353Z 15008KT 10SM FEW075 16/08 A3038 RMK AO2 SLP294 T01560078=
201906090253 METAR KBLI 090253Z 16010KT 10SM FEW070 16/08 A3038 RMK AO2 SLP294 T01610083 55000=
201906090153 METAR KBLI 090153Z 16010KT 10SM FEW070 17/08 A3037 RMK AO2 SLP290 T01670078=
201906090053 METAR KBLI 090053Z 19007KT 160V240 10SM CLR 17/08 A3038 RMK AO2 SLP292 T01720078=
201906082353 METAR KBLI 082353Z 19013KT 10SM FEW060 17/07 A3038 RMK AO2 SLP294 T01720067 10178 20139 52001=
201906082253 METAR KBLI 082253Z 17010KT 10SM FEW060 17/07 A3038 RMK AO2 SLP294 T01720072=
201906082153 METAR KBLI 082153Z 18010G18KT 10SM CLR 17/08 A3038 RMK AO2 SLP292 T01720078=
201906082053 METAR KBLI 082053Z 17009KT 10SM CLR 17/08 A3038 RMK AO2 SLP293 T01670078 51003=
201906081953 METAR KBLI 081953Z 18011G15KT 10SM SCT023 OVC045 16/08 A3038 RMK AO2 SLP292 T01560083=
201906081853 METAR KBLI 081853Z 18010KT 10SM BKN018 OVC043 15/08 A3037 RMK AO2 SLP291 T01500083=
201906081753 METAR KBLI 081753Z 18009G16KT 10SM SCT014 BKN018 OVC031 14/08 A3036 RMK AO2 SLP288 60000 T01390083 10139 20117 51014=
201906081653 METAR KBLI 081653Z 18009KT 10SM FEW014 BKN018 OVC031 13/09 A3035 RMK AO2 SLP284 T01330089=
201906081553 METAR KBLI 081553Z 18009KT 10SM SCT012 BKN020 OVC036 12/08 A3033 RMK AO2 SLP279 T01220078=
201906081453 METAR KBLI 081453Z 18007KT 10SM OVC080 12/07 A3032 RMK AO2 SLP274 60000 T01220072 51019=
201906081353 METAR KBLI 081353Z 17010G19KT 10SM OVC055 12/07 A3030 RMK AO2 SLP268 T01170072=
201906081253 METAR KBLI 081253Z AUTO 17010KT 10SM FEW045 BKN065 OVC085 12/07 A3028 RMK AO2 RAB04E13 SLP262 P0000 T01170072=
201906081153 METAR KBLI 081153Z AUTO 17010KT 10SM BKN060 OVC080 12/07 A3026 RMK AO2 RAB1058E17 SLP255 P0000 60000 T01220072 10133 20117 52014=
201906081053 METAR KBLI 081053Z AUTO 17012G19KT 10SM BKN065 OVC075 12/07 A3025 RMK AO2 RAB04E20 SLP250 P0000 T01220072=
201906080953 METAR KBLI 080953Z AUTO 17010G18KT 10SM OVC075 12/07 A3024 RMK AO2 RAE0857 SLP246 P0000 T01220072=
201906080853 METAR KBLI 080853Z AUTO 16012G17KT 10SM -RA FEW050 OVC080 12/08 A3022 RMK AO2 RAB35 SLP241 P0000 60000 T01220078 52017=
201906080753 METAR KBLI 080753Z AUTO 17010G18KT 10SM OVC070 13/07 A3021 RMK AO2 SLP236 T01280072 401670100=
201906080653 METAR KBLI 080653Z AUTO 17010G17KT 10SM OVC075 13/08 A3019 RMK AO2 SLP230 T01280078=
201906080553 METAR KBLI 080553Z AUTO 17010G19KT 10SM OVC075 13/07 A3017 RMK AO2 SLP225 T01330072 10167 20128 53019=
201906080453 METAR KBLI 080453Z 16010KT 10SM OVC075 13/08 A3016 RMK AO2 SLP218 T01330078=
201906080353 METAR KBLI 080353Z 17014KT 10SM FEW040 SCT080 13/07 A3013 RMK AO2 SLP211 T01330072=
201906080253 METAR KBLI 080253Z 18014KT 10SM FEW040 SCT080 14/07 A3012 RMK AO2 SLP205 T01440067 53012=
201906080153 METAR KBLI 080153Z 18008KT 10SM CLR 16/06 A3010 RMK AO2 SLP199 T01560061=
201906080053 METAR KBLI 080053Z 20010KT 10SM FEW030 SCT070 16/06 A3009 RMK AO2 SLP195 T01610061=
201906072353 METAR KBLI 072353Z 18012KT 10SM SCT030 BKN070 16/06 A3008 RMK AO2 SLP193 T01560061 10161 20133 51008=
201906072253 METAR KBLI 072253Z 21014KT 10SM SCT030 BKN065 16/06 A3008 RMK AO2 SLP193 T01560056=
201906072153 METAR KBLI 072153Z 18016KT 10SM SCT030 BKN060 16/07 A3006 RMK AO2 SLP186 T01560067=
201906072053 METAR KBLI 072053Z 18012G17KT 10SM 14/07 A3006 RMK AO2 SLP185 T01440067 $=
201906071953 METAR KBLI 071953Z 17012G18KT 10SM OVC065 14/07 A3006 RMK AO2 SLP185 T01390072 $=
201906071853 METAR KBLI 071853Z 17011G19KT 10SM FEW016 SCT024 BKN060 14/08 A3005 RMK AO2 SLP182 T01440078 $=
201906071753 METAR KBLI 071753Z 16011KT 10SM SCT018 BKN065 14/08 A3004 RMK AO2 SLP180 60000 T01390083 10139 20100 51009 $=
201906071653 METAR KBLI 071653Z 18009KT 160V220 10SM FEW018 BKN065 13/07 A3004 RMK AO2 SLP179 T01330072=
201906071601 SPECI KBLI 071601Z 17007KT 10SM FEW019 SCT026 OVC065 13/07 A3003 RMK AO2 T01280072=
201906071553 METAR KBLI 071553Z 18008KT 10SM SCT019 BKN026 OVC065 12/07 A3003 RMK AO2 SLP175 T01220072=
201906071453 METAR KBLI 071453Z 13006KT 10SM OVC016 11/07 A3002 RMK AO2 RAB25E38 SLP171 P0000 60000 T01110072 53008=
201906071353 METAR KBLI 071353Z 13006KT 10SM BKN016 BKN021 OVC032 11/07 A3000 RMK AO2 SLP167 T01060072=
201906071310 SPECI KBLI 071310Z AUTO 14005KT 10SM BKN017 BKN070 10/07 A3000 RMK AO2 T01000067=
201906071253 METAR KBLI 071253Z AUTO 15005KT 10SM BKN055 BKN070 10/07 A3000 RMK AO2 RAB24E35 SLP164 P0000 T01000067=
201906071202 SPECI KBLI 071202Z AUTO 15005KT 10SM SCT015 SCT035 OVC050 11/07 A2999 RMK AO2 T01060067=
201906071153 METAR KBLI 071153Z AUTO 16007KT 10SM BKN015 BKN033 OVC070 11/07 A2999 RMK AO2 SLP162 60001 70001 T01060067 10128 20100 52004=
201906071129 SPECI KBLI 071129Z AUTO 13007KT 10SM SCT016 BKN021 OVC055 11/06 A2999 RMK AO2 T01060061=
201906071053 METAR KBLI 071053Z AUTO 00000KT 10SM FEW028 FEW033 BKN045 11/07 A2999 RMK AO2 SLP161 T01060072=
201906070953 METAR KBLI 070953Z AUTO 15004KT 10SM OVC041 11/07 A2998 RMK AO2 SLP159 T01060072=
201906070853 METAR KBLI 070853Z AUTO 00000KT 10SM BKN033 BKN046 OVC065 10/08 A2998 RMK AO2 RAB10E52 SLP158 P0001 60001 T01000078 53004=
201906070753 METAR KBLI 070753Z AUTO 13006KT 10SM FEW039 BKN050 OVC065 12/06 A2997 RMK AO2 SLP156 T01170056 401780100=
201906070653 METAR KBLI 070653Z AUTO VRB03KT 10SM FEW026 OVC055 12/06 A2997 RMK AO2 SLP154 T01220061=
201906070553 METAR KBLI 070553Z AUTO 00000KT 10SM SCT050 BKN060 OVC075 13/06 A2996 RMK AO2 SLP154 T01280056 10172 20117 53006=
201906070453 METAR KBLI 070453Z 00000KT 10SM FEW065 OVC090 12/07 A2996 RMK AO2 SLP152 T01170067=
201906070353 METAR KBLI 070353Z 00000KT 10SM BKN110 13/06 A2994 RMK AO2 SLP147 T01280056=
201906070253 METAR KBLI 070253Z 19003KT 10SM BKN090 OVC110 14/05 A2995 RMK AO2 SLP147 T01440050 50000=
201906070153 METAR KBLI 070153Z VRB04KT 10SM BKN095 15/04 A2995 RMK AO2 SLP148 T01500044=
201906070053 METAR KBLI 070053Z VRB04KT 10SM SCT080 SCT095 16/04 A2995 RMK AO2 SLP148 T01610039=
201906062353 METAR KBLI 062353Z 23008KT 10SM OVC085 16/03 A2995 RMK AO2 SLP147 T01610033 10178 20128 55003=
201906062253 METAR KBLI 062253Z 20006KT 10SM CLR 17/04 A2994 RMK AO2 SLP144 T01720044=
201906062153 METAR KBLI 062153Z 17007KT 150V220 10SM CLR 17/05 A2994 RMK AO2 SLP145 T01720050=
201906062053 METAR KBLI 062053Z 17008KT 10SM CLR 16/06 A2995 RMK AO2 SLP150 T01610061 57009=
201906061953 METAR KBLI 061953Z 17007KT 10SM CLR 16/04 A2996 RMK AO2 SLP153 T01560044=
201906061853 METAR KBLI 061853Z 17008KT 10SM CLR 15/07 A2997 RMK AO2 SLP157 T01500067=
201906061753 METAR KBLI 061753Z 17008KT 10SM FEW055 BKN080 13/06 A2998 RMK AO2 SLP160 T01330056 10133 20106 51003=
201906061653 METAR KBLI 061653Z 16009KT 10SM SCT025 BKN080 13/06 A2998 RMK AO2 SLP159 T01280061=
201906061553 METAR KBLI 061553Z 17010KT 10SM FEW025 13/06 A2998 RMK AO2 SLP158 T01280061=
201906061453 METAR KBLI 061453Z 17008KT 10SM FEW070 12/06 A2997 RMK AO2 SLP157 T01220061 56002=
201906061353 METAR KBLI 061353Z 17007KT 10SM FEW070 12/06 A2997 RMK AO2 SLP157 T01220056=
201906061253 METAR KBLI 061253Z AUTO 19005KT 10SM CLR 11/05 A2998 RMK AO2 SLP158 T01060050=
201906061153 METAR KBLI 061153Z AUTO 17008KT 10SM FEW070 11/05 A2998 RMK AO2 SLP159 70015 T01060050 10122 20094 55001=
201906061053 METAR KBLI 061053Z AUTO 16007KT 10SM OVC060 12/05 A2998 RMK AO2 SLP158 T01170050=
201906060953 METAR KBLI 060953Z AUTO 17006KT 10SM OVC065 12/05 A2998 RMK AO2 SLP158 T01170050=
201906060853 METAR KBLI 060853Z AUTO 12003KT 10SM BKN065 BKN085 11/06 A2998 RMK AO2 SLP159 T01110056 55001=
201906060753 METAR KBLI 060753Z AUTO 17004KT 10SM FEW070 SCT085 11/06 A2998 RMK AO2 SLP159 T01060056 401610094=
201906060653 METAR KBLI 060653Z AUTO 00000KT 10SM BKN065 12/04 A2998 RMK AO2 SLP159 T01170044=
201906060553 METAR KBLI 060553Z AUTO 17004KT 10SM OVC065 12/06 A2998 RMK AO2 SLP160 60013 T01220056 10144 20117 53012=
201906060453 METAR KBLI 060453Z VRB04KT 10SM BKN047 OVC060 13/07 A2997 RMK AO2 SLP156 T01280067=
201906060353 METAR KBLI 060353Z 18004KT 10SM OVC048 14/10 A2995 RMK AO2 SLP150 T01390100=
201906060253 METAR KBLI 060253Z 19003KT 10SM OVC045 14/10 A2995 RMK AO2 SLP148 60013 T01390100 56008=
201906060153 METAR KBLI 060153Z 00000KT 10SM BKN038 OVC045 13/12 A2996 RMK AO2 RAE0059B15E27 SLP151 P0000 T01330117=
201906060053 METAR KBLI 060053Z 00000KT 10SM -RA FEW060 OVC080 13/11 A2996 RMK AO2 SLP151 P0013 T01330106=
201906060035 SPECI KBLI 060035Z 23004KT 3SM -RA BR FEW048 BKN060 OVC075 13/11 A2997 RMK AO2 P0012 T01280106=
201906052359 SPECI KBLI 052359Z 23003KT 1 3/4SM R16/6000VP6000FT RA BKN043 OVC055 14/10 A2997 RMK AO2 P0002 T01440100=
201906052353 METAR KBLI 052353Z 00000KT 4SM -RA BKN043 OVC055 14/09 A2997 RMK AO2 RAB26 SLP156 P0002 60002 T01440094 10161 20139 55003=
201906052253 METAR KBLI 052253Z 18008KT 10SM OVC050 16/08 A2997 RMK AO2 SLP154 T01610083=
201906052153 METAR KBLI 052153Z 19008G16KT 10SM BKN050 BKN090 16/08 A2997 RMK AO2 SLP156 T01610083=
201906052053 METAR KBLI 052053Z 19014KT 10SM SCT080 BKN110 16/07 A2998 RMK AO2 SLP159 60000 T01610072 58000=
201906051953 METAR KBLI 051953Z 17008KT 10SM FEW027 SCT038 OVC075 15/07 A2998 RMK AO2 RAE1857B16E50 SLP158 P0000 T01500067=
201906051853 METAR KBLI 051853Z VRB05KT 10SM -RA FEW044 BKN050 OVC085 14/08 A2999 RMK AO2 RAE1755B36 SLP163 P0000 T01390078=
201906051753 METAR KBLI 051753Z VRB06KT 10SM -RA SCT070 OVC085 14/07 A2998 RMK AO2 RAB44 SLP160 P0000 60000 T01390067 10144 20117 58001=
201906051653 METAR KBLI 051653Z 19012KT 10SM OVC090 14/07 A2998 RMK AO2 SLP160 T01390067=
201906051553 METAR KBLI 051553Z 18011KT 10SM FEW080 BKN100 14/06 A2999 RMK AO2 SLP162 T01390061=
201906051453 METAR KBLI 051453Z 19012KT 10SM BKN085 12/07 A2999 RMK AO2 SLP160 T01220072 57003=
201906051353 METAR KBLI 051353Z 18015KT 10SM BKN080 12/07 A2999 RMK AO2 SLP162 T01220067=
201906051253 METAR KBLI 051253Z AUTO 18008KT 10SM OVC080 12/07 A2999 RMK AO2 SLP162 T01220072=
201906051153 METAR KBLI 051153Z AUTO 17005KT 10SM BKN090 12/07 A3000 RMK AO2 SLP164 T01220067 10144 20122 58006=
201906051053 METAR KBLI 051053Z AUTO 17006KT 10SM BKN049 BKN080 BKN095 13/05 A3001 RMK AO2 SLP167 T01280050=
201906050953 METAR KBLI 050953Z AUTO VRB04KT 10SM SCT080 OVC100 13/06 A3001 RMK AO2 SLP168 T01280056=
201906050853 METAR KBLI 050853Z AUTO 18005KT 10SM FEW080 OVC100 13/06 A3001 RMK AO2 SLP169 T01330061 56006=
201906050753 METAR KBLI 050753Z AUTO 19006KT 10SM OVC090 13/07 A3002 RMK AO2 SLP171 T01330072 401890089=
201906050653 METAR KBLI 050653Z AUTO 19007KT 10SM OVC085 14/08 A3003 RMK AO2 SLP173 T01390083=
201906050553 METAR KBLI 050553Z AUTO 18004KT 10SM FEW085 13/06 A3003 RMK AO2 SLP176 T01330061 10189 20133 58006=
201906050453 METAR KBLI 050453Z 17006KT 10SM CLR 14/07 A3004 RMK AO2 SLP179 T01440067=
201906050353 METAR KBLI 050353Z 17003KT 10SM CLR 15/08 A3004 RMK AO2 SLP181 T01500078=
201906050253 METAR KBLI 050253Z 20003KT 10SM CLR 16/07 A3005 RMK AO2 SLP182 T01610067 56018=
201906050153 METAR KBLI 050153Z 18007KT 10SM CLR 17/06 A3006 RMK AO2 SLP185 T01720056=
201906050053 METAR KBLI 050053Z 20005KT 10SM FEW090 18/04 A3008 RMK AO2 SLP192 T01830039=
201906042353 METAR KBLI 042353Z 18009KT 10SM FEW100 18/05 A3010 RMK AO2 SLP200 T01830050 10183 20144 57016=
201906042253 METAR KBLI 042253Z 19010KT 10SM FEW100 18/08 A3012 RMK AO2 SLP207 T01830078=
201906042153 METAR KBLI 042153Z VRB06G16KT 10SM CLR 17/07 A3014 RMK AO2 SLP211 T01720072=
201906042053 METAR KBLI 042053Z 17014KT 10SM FEW080 16/07 A3015 RMK AO2 SLP217 T01610067 58005=
201906041953 METAR KBLI 041953Z 17012G17KT 10SM CLR 16/07 A3017 RMK AO2 SLP222 T01610067=
201906041853 METAR KBLI 041853Z 17011G16KT 10SM CLR 16/07 A3017 RMK AO2 SLP223 T01560067=
201906041753 METAR KBLI 041753Z 17016KT 10SM FEW080 FEW100 15/08 A3017 RMK AO2 SLP221 T01500078 10150 20100 51005=
201906041653 METAR KBLI 041653Z 18010KT 10SM FEW020 14/07 A3017 RMK AO2 SLP221 T01440067=
201906041553 METAR KBLI 041553Z 18011G17KT 10SM FEW015 13/07 A3016 RMK AO2 SLP220 T01280072=
201906041453 METAR KBLI 041453Z 18008KT 10SM FEW020 13/07 A3015 RMK AO2 SLP216 T01280067 50005=
201906041353 METAR KBLI 041353Z 16008KT 10SM FEW015 12/06 A3015 RMK AO2 SLP217 T01170061=
201906041253 METAR KBLI 041253Z AUTO 16007KT 10SM CLR 11/06 A3015 RMK AO2 SLP215 T01060061=
201906041153 METAR KBLI 041153Z AUTO 15007KT 10SM CLR 10/06 A3014 RMK AO2 SLP212 T01000061 10133 20089 51008=
201906041053 METAR KBLI 041053Z AUTO 15004KT 10SM CLR 09/05 A3013 RMK AO2 SLP209 T00940050=
201906040953 METAR KBLI 040953Z AUTO 16008KT 10SM CLR 11/05 A3012 RMK AO2 SLP205 T01110050=
201906040853 METAR KBLI 040853Z AUTO 16006KT 10SM CLR 11/04 A3011 RMK AO2 SLP202 T01110044 52002=
201906040753 METAR KBLI 040753Z AUTO 18005KT 10SM CLR 11/03 A3011 RMK AO2 SLP201 T01110033 401780111=
201906040653 METAR KBLI 040653Z AUTO 16006KT 10SM CLR 13/02 A3011 RMK AO2 SLP201 T01280022=
201906040553 METAR KBLI 040553Z AUTO 16005KT 10SM CLR 14/02 A3010 RMK AO2 SLP200 T01390017 10172 20139 53006=
201906040453 METAR KBLI 040453Z AUTO 17008KT 10SM CLR 14/04 A3010 RMK AO2 SLP198 T01390044=
201906040353 METAR KBLI 040353Z AUTO 18008KT 10SM CLR 14/04 A3009 RMK AO2 SLP195 T01440044=
201906040253 METAR KBLI 040253Z AUTO 18010G18KT 10SM CLR 16/07 A3009 RMK AO2 SLP194 T01560067 58009=
201906040153 METAR KBLI 040153Z AUTO 17010G17KT 10SM CLR 17/06 A3010 RMK AO2 SLP198 T01670061=
201906040053 METAR KBLI 040053Z AUTO 18010G16KT 10SM CLR 17/07 A3011 RMK AO2 SLP201 T01670072=
201906032353 METAR KBLI 032353Z AUTO 18011G18KT 10SM CLR 17/07 A3011 RMK AO2 SLP203 T01720072 10178 20156 58006=
201906032253 METAR KBLI 032253Z AUTO 18012G17KT 10SM CLR 17/06 A3012 RMK AO2 SLP206 T01670061=
201906032153 METAR KBLI 032153Z AUTO 19010KT 10SM CLR 18/07 A3013 RMK AO2 SLP207 T01780072=
201906032053 METAR KBLI 032053Z AUTO 19010G17KT 10SM CLR 17/07 A3013 RMK AO2 SLP209 T01720072 51009=
201906032051 METAR KBLI 032051Z 16016KT 10SM FEW060 17/08 A3013=
201906031953 METAR KBLI 031953Z AUTO 18012G16KT 10SM FEW055 17/08 A3012 RMK AO2 SLP207 T01720078=
201906031855 METAR KBLI 031855Z 17012KT 10SM SCT060 17/08 A3012=
201906031853 METAR KBLI 031853Z AUTO 17012G17KT 10SM CLR 17/08 A3011 RMK AO2 SLP203 T01670078=
201906031753 METAR KBLI 031753Z AUTO 16013G20KT 10SM CLR 16/09 A3010 RMK AO2 SLP200 T01610089 10161 20117 53013=
201906031654 METAR KBLI 031654Z 18014KT 10SM SCT060 14/09 A3009=
201906031653 METAR KBLI 031653Z AUTO 18010G15KT 10SM CLR 16/08 A3009 RMK AO2 SLP194 T01560083=
201906031555 METAR KBLI 031555Z 18008KT 10SM SCT060 14/07 A3008=
201906031553 METAR KBLI 031553Z AUTO 18008KT 10SM OVC060 14/07 A3008 RMK AO2 SLP191 T01390067=
201906031453 METAR KBLI 031453Z AUTO 18010G17KT 10SM CLR 13/07 A3007 RMK AO2 SLP187 T01330067 53025=
201906031353 METAR KBLI 031353Z AUTO 16009G14KT 10SM CLR 13/07 A3004 RMK AO2 SLP178 T01280067=
201906031253 METAR KBLI 031253Z AUTO 17006KT 10SM CLR 12/06 A3002 RMK AO2 SLP170 T01220061=
201906031153 METAR KBLI 031153Z AUTO 18006KT 10SM BKN060 13/07 A2999 RMK AO2 SLP162 T01280067 10150 20128 51016=
201906031053 METAR KBLI 031053Z AUTO 16007KT 10SM SCT070 13/07 A2998 RMK AO2 SLP158 T01330067=
201906030953 METAR KBLI 030953Z AUTO 18007KT 10SM OVC070 14/08 A2996 RMK AO2 SLP152 T01390078=
201906030853 METAR KBLI 030853Z AUTO 18006KT 10SM OVC070 14/08 A2995 RMK AO2 SLP147 T01440078 53014=
201906030753 METAR KBLI 030753Z AUTO 18008KT 10SM OVC080 14/07 A2993 RMK AO2 SLP139 T01440067 402110122=
201906030653 METAR KBLI 030653Z AUTO 20009KT 10SM BKN080 OVC100 14/08 A2991 RMK AO2 SLP135 T01440078=
201906030553 METAR KBLI 030553Z AUTO 18010G19KT 10SM OVC085 15/07 A2991 RMK AO2 SLP133 T01500067 10211 20150 53012=
201906030453 METAR KBLI 030453Z AUTO 18011KT 10SM BKN110 16/06 A2989 RMK AO2 SLP127 T01610056=
201906030353 METAR KBLI 030353Z AUTO 18012KT 10SM FEW120 17/07 A2988 RMK AO2 SLP123 T01720072=
201906030253 METAR KBLI 030253Z AUTO 17010G16KT 10SM CLR 18/07 A2987 RMK AO2 SLP120 T01830067 56003=
201906030153 METAR KBLI 030153Z AUTO 17009KT 10SM CLR 19/09 A2987 RMK AO2 SLP121 T01890089=
201906030053 METAR KBLI 030053Z AUTO 17011G19KT 10SM CLR 21/07 A2987 RMK AO2 SLP120 T02060067=
201906022353 METAR KBLI 022353Z AUTO 18010KT 10SM CLR 19/10 A2988 RMK AO2 SLP123 T01890100 10211 20178 58004=
201906022253 METAR KBLI 022253Z AUTO 18009KT 10SM CLR 19/11 A2989 RMK AO2 SLP126 T01940111=
201906022153 METAR KBLI 022153Z AUTO 18010KT 10SM CLR 21/12 A2988 RMK AO2 SLP125 T02060117=
201906022053 METAR KBLI 022053Z AUTO 17008KT 10SM CLR 21/11 A2989 RMK AO2 SLP127 T02060106 56006=
201906021953 METAR KBLI 021953Z AUTO 23005KT 10SM CLR 21/12 A2989 RMK AO2 SLP128 T02060117=
201906021853 METAR KBLI 021853Z AUTO 18007KT 10SM CLR 19/11 A2990 RMK AO2 SLP130 T01890111=
201906021753 METAR KBLI 021753Z AUTO 19005KT 10SM CLR 18/12 A2991 RMK AO2 SLP133 T01780117 10183 20122 58002=
201906021653 METAR KBLI 021653Z AUTO VRB05KT 10SM CLR 17/12 A2992 RMK AO2 SLP139 T01720117=
201906021553 METAR KBLI 021553Z AUTO 18004KT 10SM BKN050 16/12 A2992 RMK AO2 SLP138 T01560117=
201906021453 METAR KBLI 021453Z AUTO 17006KT 10SM BKN050 15/11 A2992 RMK AO2 SLP136 T01500111 55001=
201906021353 METAR KBLI 021353Z AUTO 18006KT 10SM CLR 14/11 A2991 RMK AO2 SLP136 T01440111=
201906021253 METAR KBLI 021253Z AUTO 18003KT 10SM CLR 12/11 A2991 RMK AO2 SLP135 T01220106=
201906021153 METAR KBLI 021153Z AUTO 18006KT 10SM CLR 13/11 A2992 RMK AO2 SLP137 T01280106 10150 20128 56004=
201906021053 METAR KBLI 021053Z AUTO 18005KT 10SM CLR 13/11 A2992 RMK AO2 SLP137 T01330106=
201906020953 METAR KBLI 020953Z AUTO 18006KT 10SM CLR 13/11 A2993 RMK AO2 SLP141 T01330106=
201906020853 METAR KBLI 020853Z AUTO 22006KT 10SM CLR 14/11 A2993 RMK AO2 SLP141 T01390106 56002=
201906020753 METAR KBLI 020753Z AUTO 20005KT 10SM CLR 14/11 A2993 RMK AO2 SLP142 T01390106 402000122=
201906020653 METAR KBLI 020653Z AUTO 19006KT 10SM CLR 14/11 A2993 RMK AO2 SLP141 T01440111=
201906020553 METAR KBLI 020553Z AUTO 20003KT 10SM CLR 15/11 A2994 RMK AO2 SLP143 T01500106 10200 20150 51006=
201906020453 METAR KBLI 020453Z AUTO 19006KT 10SM CLR 16/11 A2993 RMK AO2 SLP143 T01560111=
201906020353 METAR KBLI 020353Z AUTO 19005KT 10SM CLR 16/12 A2992 RMK AO2 SLP137 T01610117=
201906020253 METAR KBLI 020253Z AUTO 17007KT 10SM CLR 18/12 A2992 RMK AO2 SLP136 T01780117 56015=
201906020153 METAR KBLI 020153Z AUTO 19006KT 10SM CLR 19/12 A2993 RMK AO2 SLP141 T01940117=
201906020053 METAR KBLI 020053Z AUTO 18007KT 10SM CLR 20/12 A2994 RMK AO2 SLP144 T02000117=
201906012353 METAR KBLI 012353Z AUTO 17009KT 10SM CLR 19/12 A2996 RMK AO2 SLP152 T01890122 10200 20161 56010=
201906012253 METAR KBLI 012253Z AUTO 19008G15KT 10SM CLR 20/12 A2997 RMK AO2 SLP154 T02000117=
201906012153 METAR KBLI 012153Z AUTO 20007KT 10SM CLR 19/12 A2998 RMK AO2 SLP158 T01940117=
201906012053 METAR KBLI 012053Z AUTO 22008KT 10SM CLR 18/12 A2999 RMK AO2 SLP162 T01830117 56007=
201906011953 METAR KBLI 011953Z AUTO 20007G16KT 180V240 10SM CLR 18/12 A3000 RMK AO2 SLP164 T01780122=
201906011853 METAR KBLI 011853Z AUTO 18011G17KT 10SM CLR 17/12 A3000 RMK AO2 SLP166 T01720117=
201906011753 METAR KBLI 011753Z AUTO 19010G17KT 170V230 10SM CLR 16/11 A3001 RMK AO2 SLP169 T01610111 10161 20133 58001=
201906011653 METAR KBLI 011653Z AUTO 20010G17KT 10SM CLR 15/11 A3002 RMK AO2 SLP172 T01500106=
201906011553 METAR KBLI 011553Z AUTO 18010G19KT 10SM CLR 14/11 A3001 RMK AO2 SLP170 T01440106=
201906011453 METAR KBLI 011453Z AUTO 18012G22KT 10SM CLR 14/09 A3002 RMK AO2 SLP170 T01390094 51005=
201906011353 METAR KBLI 011353Z AUTO 18009G15KT 10SM CLR 14/09 A3001 RMK AO2 SLP169 T01440094=
201906011253 METAR KBLI 011253Z AUTO 18008KT 10SM CLR 14/08 A3001 RMK AO2 SLP167 T01440078=
201906011153 METAR KBLI 011153Z AUTO 18010KT 10SM CLR 13/09 A3000 RMK AO2 SLP165 T01330089 10144 20122 58001=
201906011053 METAR KBLI 011053Z AUTO 18011KT 10SM CLR 13/09 A3001 RMK AO2 SLP167 T01280089=
201906010953 METAR KBLI 010953Z AUTO 18010KT 10SM CLR 13/09 A3000 RMK AO2 SLP165 T01280089=
201906010853 METAR KBLI 010853Z AUTO 18013KT 10SM CLR 13/09 A3000 RMK AO2 SLP166 T01330089 53006=
201906010753 METAR KBLI 010753Z AUTO 18010KT 10SM CLR 13/09 A2999 RMK AO2 SLP163 T01330094 401940133=
201906010653 METAR KBLI 010653Z AUTO 18009KT 10SM CLR 14/10 A2999 RMK AO2 SLP162 T01390100=
201906010553 METAR KBLI 010553Z AUTO 18010KT 10SM CLR 14/11 A2999 RMK AO2 SLP160 T01440106 10194 20144 53004=
201906010453 METAR KBLI 010453Z AUTO 19010KT 10SM CLR 16/11 A2999 RMK AO2 SLP160 T01560106=
201906010353 METAR KBLI 010353Z AUTO 19010KT 10SM CLR 16/11 A2997 RMK AO2 SLP154 T01610111=
201906010253 METAR KBLI 010253Z AUTO 18011G18KT 10SM CLR 18/11 A2997 RMK AO2 SLP156 T01780106 56010=
201906010153 METAR KBLI 010153Z AUTO 18006KT 10SM CLR 18/12 A2998 RMK AO2 SLP157 T01830117=
201906010053 METAR KBLI 010053Z AUTO 18008KT 10SM CLR 19/12 A2999 RMK AO2 SLP162 T01890117=

# No short TAF reports from KBLI in databse.

###################################
#  large TAF from KBLI
###################################
201906302320 TAF KBLI 302320Z 0100/0124 26006KT P6SM FEW050 FM010600 VRB03KT
                       P6SM SKC FM012000 23006KT P6SM SCT040 SCT120=
201906301720 TAF KBLI 301720Z 3018/0118 VRB04KT P6SM SKC FM302200 28006KT P6SM
                       FEW050 SCT200 FM010300 18005KT P6SM SCT200=
201906301210 KBLI 301210Z 3012/0112 00000KT 4SM BR SKC FM301500 VRB03KT P6SM
                       SKC FM302200 28006KT P6SM FEW050 SCT200
                       FM010300 18005KT P6SM SCT200=
201906301159 TAF KBLI 301159Z 3012/0112 00000KT 4SM BR SKC FM302200 25008KT
                       P6SM FEW050 SCT200 FM010300 18005KT P6SM
                       SCT200=
201906300520 TAF KBLI 300520Z 3006/0106 33005KT P6SM SCT200 FM301200 VRB03KT
                       P6SM SCT200 FM302200 25008KT P6SM FEW050
                       SCT200 FM010300 18005KT P6SM SCT200=
201906292320 TAF KBLI 292320Z 3000/3024 25008KT P6SM SCT040 SCT200 FM300600
                       33005KT P6SM SCT200 FM301200 VRB03KT P6SM
                       SCT200 FM302200 25008KT P6SM FEW050 SCT200=
201906291720 TAF KBLI 291720Z 2918/3018 VRB04KT P6SM SCT060 SCT120 SCT200 FM300600
                       00000KT P6SM SCT200=
201906291136 TAF KBLI 291136Z 2912/3012 00000KT P6SM BKN080 BKN250 FM291900
                       23007KT P6SM SCT250 FM300300 VRB03KT P6SM
                       SCT250=
201906290530 TAF KBLI 290530Z 2906/3006 VRB03KT P6SM BKN070 BKN250 FM291900
                       23007KT P6SM SCT250 FM300300 VRB03KT P6SM
                       SCT250=
201906282335 TAF KBLI 282335Z 2900/2924 17006KT P6SM BKN050 BKN250 FM290700
                       17003KT P6SM BKN070 BKN250 FM291900 23007KT
                       P6SM SCT250=
201906281735 TAF KBLI 281735Z 2818/2918 18009KT P6SM FEW020 BKN030 FM281900
                       17006KT P6SM BKN050 FM290700 17003KT P6SM
                       BKN070=
201906281138 TAF KBLI 281138Z 2812/2912 19006KT P6SM OVC045 FM281400 17008KT
                       P6SM BKN035 FM281900 17006KT P6SM BKN050=
201906280534 TAF KBLI 280534Z 2806/2906 17006KT P6SM SCT040 BKN050 FM281100
                       17006KT P6SM OVC035 FM281500 17010KT P6SM
                       OVC035 FM281900 17006KT P6SM OVC050=
201906272326 TAF KBLI 272326Z 2800/2824 19006KT P6SM VCSH SCT040 BKN060 FM280600
                       17005KT P6SM OVC050 FM281100 17006KT P6SM
                       OVC025 FM281900 18006KT P6SM OVC050=
201906271722 TAF KBLI 271722Z 2718/2818 17010G16KT 3SM -SHRA BR BKN005 OVC015
                       TEMPO 2718/2720 2SM RA BR OVC003 FM272100
                       19006KT P6SM VCSH BKN035 OVC060 FM280600
                       17005KT P6SM OVC050 FM281100 17006KT P6SM
                       OVC025=
201906271503 KBLI 271503Z 2715/2812 18008G14KT 3SM -SHRA BR BKN010 OVC040 FM271600
                       17012KT P6SM -SHRA OVC020 FM272100 19006KT
                       P6SM VCSH BKN035 OVC060 FM280600 17005KT
                       P6SM OVC050=
201906271322 KBLI 271322Z 2713/2812 19005KT P6SM -SHRA BKN015 OVC090
                      TEMPO 2713/2715 4SM -RA BR BKN007 FM271600
                       17012KT P6SM -SHRA OVC020 FM272100 19006KT
                       P6SM VCSH BKN035 OVC060 FM280600 17005KT
                       P6SM OVC050=
201906271133 TAF KBLI 271133Z 2712/2812 18010KT P6SM -SHRA BKN060 OVC070
                      TEMPO 2712/2715 4SM -RA BR FEW007 FM271600
                       17012KT P6SM -SHRA OVC020 FM272100 19006KT
                       P6SM VCSH BKN035 OVC060 FM280600 17005KT
                       P6SM OVC050=
201906270536 TAF KBLI 270536Z 2706/2806 17007KT P6SM -SHRA BKN060 OVC100 FM271100
                       17010KT P6SM -SHRA OVC035 FM271600 17012KT
                       P6SM -SHRA OVC020 FM272100 20005KT P6SM
                       VCSH BKN035 OVC060=
201906270225 KBLI 270225Z 2702/2724 16011KT P6SM -SHRA BKN070 OVC120 FM270400
                       17007KT P6SM -SHRA BKN060 OVC100 FM271100
                       17011KT P6SM -SHRA OVC027 FM272000 18007KT
                       P6SM VCSH BKN035 OVC060=
201906270057 KBLI 270057Z 2701/2724 16011KT P6SM VCTS BKN070CB OVC120 FM270400
                       17007KT P6SM -SHRA BKN060 OVC100 FM271100
                       17011KT P6SM -SHRA OVC027 FM272000 18007KT
                       P6SM VCSH BKN035 OVC060=
201906262321 TAF KBLI 262321Z 2700/2724 22006KT P6SM VCSH BKN070 OVC120 FM270400
                       17007KT P6SM -SHRA BKN060 OVC100 FM271100
                       17011KT P6SM -SHRA OVC027 FM272000 18007KT
                       P6SM VCSH BKN035 OVC060=
201906261737 TAF KBLI 261737Z 2618/2718 17009KT P6SM SCT040 BKN120 FM262000
                       22006KT P6SM VCSH BKN070 OVC120 FM270300
                       17007KT P6SM -SHRA BKN070 OVC100 FM271000
                       17011KT P6SM -SHRA OVC050=
201906261316 KBLI 261316Z 2613/2712 17007KT P6SM FEW050 OVC090 FM262200 25006KT
                       P6SM VCSH FEW250 FM270300 17004KT P6SM OVC070
                       FM270700 17006KT P6SM OVC050=
201906261139 TAF KBLI 261139Z 2612/2712 18006KT P6SM FEW050 BKN110 FM261400
                       17007KT P6SM BKN080 OVC120 FM262200 22007KT
                       P6SM VCSH BKN080 OVC120 FM270300 17005KT
                       P6SM OVC050=
201906260537 TAF KBLI 260537Z 2606/2706 19006KT P6SM BKN100 OVC200 FM261400
                       17007KT P6SM BKN080 OVC120 FM262200 22007KT
                       P6SM VCSH BKN080 OVC120 FM270300 17005KT
                       P6SM OVC050=
201906252322 TAF KBLI 252322Z 2600/2624 VRB05KT P6SM SCT070 BKN120 FM260600
                       17006KT P6SM BKN100 OVC200 FM261400 17007KT
                       P6SM BKN080 OVC120 FM262200 22007KT P6SM
                       VCSH BKN080 OVC120=
201906251723 TAF KBLI 251723Z 2518/2618 20005KT P6SM FEW100 SCT200 FM252200
                       22006KT P6SM SCT120 BKN200 FM260600 17006KT
                       P6SM BKN100 OVC200 FM261300 17005KT P6SM
                       BKN060 OVC100=
201906251130 TAF KBLI 251130Z 2512/2612 VRB05KT P6SM SCT200 FM251500 18004KT
                       P6SM FEW120 SCT200 FM252200 24006KT P6SM
                       SCT120 BKN200 FM260200 19004KT P6SM BKN100
                       OVC200=
201906250523 TAF KBLI 250523Z 2506/2606 VRB05KT P6SM SCT200 FM251500 16004KT
                       P6SM FEW120 SCT200 FM252200 24006KT P6SM
                       SCT120 BKN200 FM260200 18004KT P6SM BKN100
                       OVC120=
201906242320 TAF KBLI 242320Z 2500/2524 19008KT P6SM SCT200 FM250600 17007KT
                       P6SM SCT200 FM251500 16004KT P6SM FEW120
                       SCT200 FM252200 22007KT P6SM SCT120 BKN200=
201906241723 TAF KBLI 241723Z 2418/2518 18008KT P6SM SCT030 OVC050 FM242100
                       19010KT P6SM BKN050 FM250100 17007KT P6SM
                       FEW050 SCT200 FM251500 16004KT P6SM FEW120
                       SCT200=
201906241131 TAF KBLI 241131Z 2412/2512 15007KT P6SM OVC050
                      TEMPO 2412/2416 BKN025 FM241800 18010KT P6SM
                       SCT025 OVC050 FM242100 19010KT P6SM SCT050
                       FM250100 17007KT P6SM SCT250=
201906240523 TAF KBLI 240523Z 2406/2506 17008KT P6SM SCT030 OVC070 FM240800
                       17008KT P6SM SCT015 BKN030 FM241100 17008KT
                       P6SM BKN015 FM241900 19010KT P6SM BKN025
                       FM242100 19010KT P6SM SCT040=
201906232333 TAF KBLI 232333Z 2400/2424 18013G22KT P6SM BKN050 FM240800 17008KT
                       P6SM VCSH SCT009 BKN030 OVC040 FM241100
                       17008KT P6SM VCSH SCT008 OVC012 FM241900
                       19010KT P6SM BKN025 FM242100 19010KT P6SM
                       BKN030=
201906231736 TAF KBLI 231736Z 2318/2418 18010KT P6SM OVC020 FM231900 18010G17KT
                       P6SM OVC035 FM232300 18010KT P6SM BKN050
                       FM240800 17008KT P6SM VCSH SCT009 BKN030
                       OVC040 FM241100 17008KT P6SM VCSH SCT008
                       OVC012=
201906231131 TAF KBLI 231131Z 2312/2412 17006KT P6SM VCSH BKN030
                      TEMPO 2312/2314 -SHRA OVC030 FM231400 18010KT
                       P6SM BKN018 OVC025 FM231900 18010G17KT P6SM
                       OVC030 FM232300 18010KT P6SM BKN045 FM241000
                       17007KT P6SM SCT015 OVC040=
201906230530 TAF KBLI 230530Z 2306/2406 17015G22KT P6SM BKN080 FM230900 17012KT
                       P6SM OVC015 FM231800 17011KT P6SM BKN020
                       BKN050 FM232100 18010KT P6SM SCT025 BKN040=
201906222336 TAF KBLI 222336Z 2300/2324 17015G22KT P6SM SCT018 SCT030 BKN070
                       FM230800 17012KT P6SM OVC015 FM231800 17011KT
                       P6SM BKN020 BKN050 FM232100 18010KT P6SM
                       SCT025 BKN040=
201906221739 TAF KBLI 221739Z 2218/2318 17010G17KT P6SM BKN014 BKN200 FM222300
                       17011G18KT P6SM BKN040 BKN200 FM230700 17012KT
                       P6SM OVC015 FM231000 17008KT 6SM -DZ BR
                       OVC009 FM231700 17011KT P6SM BKN020 BKN050=
201906221334 KBLI 221334Z 2214/2312 17012G20KT P6SM OVC014 FM221800 17012G20KT
                       P6SM OVC025 FM230000 17011G18KT P6SM BKN035
                       FM230700 17012KT P6SM OVC030 FM231000 17008KT
                       6SM -DZ BR OVC009=
201906221130 TAF KBLI 221130Z 2212/2312 18012G18KT P6SM OVC090 FM221400 17012G18KT
                       P6SM OVC020 FM221800 17012G20KT P6SM OVC030
                       FM230000 17011G18KT P6SM BKN035 FM230700
                       17012KT P6SM OVC030 FM231000 17008KT 6SM
                       -DZ BR OVC009=
201906220520 TAF KBLI 220520Z 2206/2306 16010KT P6SM SCT060 SCT250 FM221400
                       17012G18KT P6SM OVC020 FM222300 16011G17KT
                       P6SM SCT030=
201906212331 TAF KBLI 212331Z 2200/2224 VRB06KT P6SM SKC FM221400 17012G18KT
                       P6SM BKN025 FM222300 16011G17KT P6SM SCT050=
201906211738 TAF KBLI 211738Z 2118/2218 20009KT P6SM SKC FM212000 18009G15KT
                       P6SM SKC FM220200 17010KT P6SM SCT050 SCT100
                       FM221000 17008G14KT P6SM OVC035 FM221400
                       17010KT P6SM OVC015=
201906211501 KBLI 211501Z 2115/2212 17010G16KT P6SM SCT090 FM212000 18011KT
                       P6SM SCT100 FM221000 17008KT P6SM SCT030
                       BKN070=
201906211129 TAF KBLI 211129Z 2112/2212 17010KT P6SM OVC090
                      TEMPO 2114/2118 BKN020 FM212000 18011KT P6SM
                       SCT100 FM221000 17008KT P6SM SCT030 BKN070=
201906210520 TAF KBLI 210520Z 2106/2206 18006KT P6SM OVC090 FM211400 18006KT
                       P6SM SCT020 BKN070
                      TEMPO 2114/2118 BKN020 BKN070 FM212200 22007KT
                       P6SM SCT050 BKN120=
201906202323 TAF KBLI 202323Z 2100/2124 19008KT P6SM BKN250 FM211400 15005KT
                       P6SM OVC025 FM211700 18007KT P6SM BKN050
                       FM212300 19007G13KT P6SM SCT250=
201906201735 TAF KBLI 201735Z 2018/2118 VRB04KT P6SM SCT015 OVC025 FM202000
                       18008KT P6SM BKN045 FM210000 17010KT P6SM
                       OVC060 FM210400 17007KT P6SM OVC050 FM211100
                       16006KT P6SM OVC019=
201906201336 KBLI 201336Z 2014/2112 17005KT P6SM VCSH SCT015 OVC025
                      TEMPO 2014/2015 -RA FM201500 17008KT P6SM
                       OVC025 FM201800 18010KT P6SM BKN040 FM202100
                       19011KT P6SM BKN060 FM210300 17008KT P6SM
                       VCSH BKN060 OVC100=
201906201133 TAF KBLI 201133Z 2012/2112 18007KT P6SM VCSH SCT030 OVC050
                      TEMPO 2012/2014 -RA OVC030 FM201500 17008KT
                       P6SM OVC030 FM201800 18010KT P6SM BKN040
                       FM202100 19011KT P6SM BKN060 FM210300 17008KT
                       P6SM VCSH BKN060 OVC100=
201906200524 TAF KBLI 200524Z 2006/2106 20003KT P6SM VCSH BKN070 OVC110 FM200900
                       18004KT P6SM OVC035 FM201500 17007KT P6SM
                       OVC020 FM201700 18007KT P6SM OVC035 FM201800
                       19008KT P6SM SCT025 OVC040 FM202100 17008G15KT
                       P6SM FEW030 BKN060=
201906200302 TAF AMD KBLI 200302Z 2003/2024 19005KT P6SM -SHRA SCT060 OVC080
                       FM200600 18007KT P6SM -SHRA BKN035 OVC050
                       FM201300 17008KT P6SM BKN015 OVC030 FM201800
                       18008KT P6SM SCT020 BKN050 FM202100 19008KT
                       P6SM FEW030 BKN080=
201906192325 TAF KBLI 192325Z 2000/2024 17010G16KT P6SM SCT040 OVC080 FM200600
                       18007KT P6SM -SHRA BKN035 OVC050 FM201300
                       17008KT P6SM BKN015 OVC030 FM201800 18008KT
                       P6SM SCT020 BKN050 FM202100 19008KT P6SM
                       FEW030 BKN080=
201906191722 TAF KBLI 191722Z 1918/2018 17012KT P6SM FEW045 BKN080 FM200600
                       18007KT P6SM -SHRA BKN035 OVC050 FM201300
                       17008KT P6SM BKN015 OVC030=
201906191140 TAF KBLI 191140Z 1912/2012 18014KT P6SM SCT035 BKN050 FM200600
                       18014KT P6SM -SHRA BKN035 OVC050=
201906190538 TAF KBLI 190538Z 1906/2006 17012G18KT P6SM BKN050 FM190900 18014KT
                       P6SM BKN050 FM191400 17012KT P6SM VCSH BKN035
                       OVC050 FM192100 18015KT P6SM -SHRA BKN035
                       OVC050=
201906182345 TAF KBLI 182345Z 1900/1924 18010G18KT P6SM SCT050 FM190900 18010KT
                       P6SM BKN050 FM191400 17012KT P6SM VCSH BKN035
                       OVC050 FM192100 18014G22KT P6SM -SHRA BKN035
                       OVC050=
201906181724 TAF KBLI 181724Z 1818/1918 18012G18KT P6SM SCT060 FM190000 18014G20KT
                       P6SM SCT050 BKN100 FM190900 18010KT P6SM
                       BKN050 FM191400 17012KT P6SM VCSH BKN035
                       OVC050=
201906181139 TAF KBLI 181139Z 1812/1912 18010KT P6SM OVC040 FM182100 18012G18KT
                       P6SM BKN050 BKN080 FM190900 18010KT P6SM
                       BKN050=
201906180536 TAF KBLI 180536Z 1806/1906 18010G18KT P6SM SCT100 FM180700 18014KT
                       P6SM SCT050 BKN120 BKN200 FM181000 17008KT
                       P6SM BKN035 OVC050 FM181300 17011KT P6SM
                       VCSH OVC035 FM182100 19012G18KT P6SM BKN050
                       BKN120 FM190000 17015G20KT P6SM BKN100=
201906172329 TAF KBLI 172329Z 1800/1824 18014G20KT P6SM BKN200 FM180700 18011KT
                       P6SM SCT050 BKN120 BKN200 FM181000 17008KT
                       P6SM BKN030 OVC070 FM181300 17011KT P6SM
                       VCSH OVC030 FM182100 19012G18KT P6SM BKN050
                       BKN120=
201906171721 TAF KBLI 171721Z 1718/1818 18014G22KT P6SM FEW008 SCT030 BKN200
                       FM180700 18011KT P6SM SCT050 BKN120 BKN200
                       FM180900 17008KT P6SM BKN040 OVC100 FM181300
                       17010KT P6SM OVC025=
201906171126 TAF KBLI 171126Z 1712/1812 18010KT P6SM BKN050 FM171600 18010KT
                       P6SM SCT050 FM172000 18010KT P6SM SCT050
                       BKN200=
201906170539 TAF KBLI 170539Z 1706/1806 18013KT P6SM SCT250 FM171200 17012KT
                       P6SM BKN025 FM171500 17012KT P6SM OVC035
                       FM172000 18012KT P6SM SCT030 SCT050 BKN200
                       FM180400 17014KT P6SM BKN050=
201906162320 TAF KBLI 162320Z 1700/1724 18010KT P6SM SCT200 FM170300 17013KT
                       P6SM SCT200 FM171200 17010KT P6SM BKN025
                       FM171500 17012KT P6SM OVC020 FM172000 19012KT
                       P6SM SCT030 SCT050 BKN200=
201906161725 TAF KBLI 161725Z 1618/1718 18010KT P6SM SCT200 FM170500 17013KT
                       P6SM SCT200 FM171200 17010KT P6SM BKN020
                       FM171500 17012KT P6SM OVC017=
201906161135 TAF KBLI 161135Z 1612/1712 18006KT P6SM SCT008
                      TEMPO 1614/1616 BKN008 FM161700 18012KT P6SM
                       SCT200=
201906160538 TAF KBLI 160538Z 1606/1706 18012KT P6SM FEW250 FM161100 17010KT
                       P6SM BKN200 FM161900 19012KT P6SM SCT200=
201906152327 TAF KBLI 152327Z 1600/1624 19009KT P6SM FEW050 FM160200 18012KT
                       P6SM FEW050 SCT200 FM161100 17010KT P6SM
                       BKN200 FM161700 17009KT P6SM SCT200=
201906151726 TAF KBLI 151726Z 1518/1618 18006KT P6SM FEW010 BKN050 FM151900
                       20006KT P6SM SCT050 FM160200 18012KT P6SM
                       FEW050 SCT200 FM161100 17010KT P6SM BKN200=
201906151137 TAF KBLI 151137Z 1512/1612 18006KT P6SM OVC050 FM151900 20006KT
                       P6SM SCT050=
201906150911 KBLI 150911Z 1509/1606 18006KT P6SM OVC050 FM151600 20006KT P6SM
                       SCT050=
201906150520 TAF KBLI 150520Z 1506/1606 17010KT P6SM SKC FM151400 18006KT P6SM
                       SCT020 SCT050 FM151800 23006KT P6SM SCT050=
201906142320 TAF KBLI 142320Z 1500/1524 18007KT P6SM FEW035 FM150600 18007KT
                       P6SM SKC FM151400 17004KT P6SM SCT020 FM151800
                       20004KT P6SM SCT030 SCT120=
201906141720 TAF KBLI 141720Z 1418/1518 18008KT P6SM BKN040 FM142100 18006KT
                       P6SM SCT040 FM150600 18007KT P6SM SCT200=
201906141321 KBLI 141321Z 1413/1512 17010KT P6SM FEW020 FEW035 SCT050
                      TEMPO 1413/1417 BKN020 FM141900 18008KT P6SM
                       BKN035 FM142100 18006KT P6SM SCT040 FM150300
                       20006KT P6SM SCT040 FM150600 18007KT P6SM
                       SCT200=
201906141127 TAF KBLI 141127Z 1412/1512 17006KT P6SM SCT020 BKN040
                      TEMPO 1412/1416 BKN020 FM141900 18008KT P6SM
                       BKN035 FM142100 18006KT P6SM SCT040 FM150300
                       20006KT P6SM SCT040 FM150600 18007KT P6SM
                       SCT200=
201906140520 TAF KBLI 140520Z 1406/1506 18015KT P6SM SCT040 FM140900 18012KT
                       P6SM SCT020 BKN040
                      TEMPO 1412/1416 BKN020 FM141900 18008KT P6SM
                       BKN035 FM142100 20006KT P6SM SCT040 FM150300
                       20006KT P6SM SCT040=
201906132320 TAF KBLI 132320Z 1400/1424 18015G25KT P6SM SCT250 FM140600 17010KT
                       P6SM FEW250 FM141400 17010KT P6SM OVC008
                       FM141800 18006KT P6SM SCT010 FM141900 18006KT
                       P6SM SCT030=
201906131728 TAF KBLI 131728Z 1318/1418 18012KT P6SM FEW250 FM131900 20012G20KT
                       P6SM FEW250 FM141400 17010KT P6SM OVC008=
201906131130 TAF KBLI 131130Z 1312/1412 20010KT P6SM SCT100 SCT250 FM131400
                       18010KT P6SM SCT250 FM131900 20012G20KT
                       P6SM SCT250 FM141000 17010KT P6SM OVC050=
201906130526 TAF KBLI 130526Z 1306/1406 VRB04KT P6SM SCT180 SCT250 FM131400
                       18008KT P6SM SCT250 FM131900 20012KT P6SM
                       SCT250=
201906122320 TAF KBLI 122320Z 1300/1324 22005KT P6SM BKN250 FM130500 18008KT
                       P6SM SCT250=
201906121720 TAF KBLI 121720Z 1218/1318 33005KT P6SM BKN250 FM130100 22005KT
                       P6SM BKN250 FM130500 18008KT P6SM SCT250=
201906121125 TAF KBLI 121125Z 1212/1312 VRB03KT P6SM SKC FM121500 35004KT P6SM
                       SKC FM122000 27006KT P6SM SCT250 FM130100
                       22005KT P6SM SCT250=
201906120523 TAF KBLI 120523Z 1206/1306 VRB03KT P6SM SKC FM121500 36004KT P6SM
                       SKC FM122000 27005KT P6SM SCT250=
201906112331 TAF KBLI 112331Z 1200/1224 28008KT P6SM FEW250 FM120400 VRB03KT
                       P6SM SKC=
201906111729 TAF KBLI 111729Z 1118/1218 33007KT P6SM FEW250 FM120200 02008KT
                       P6SM SKC=
201906111120 TAF KBLI 111120Z 1112/1212 VRB04KT P6SM SCT250 FM112000 28006KT
                       P6SM SKC FM120400 18003KT P6SM SKC=
201906110529 TAF KBLI 110529Z 1106/1206 VRB04KT P6SM SCT250 FM112000 28008KT
                       P6SM SKC FM120400 VRB03KT P6SM SKC=
201906102335 TAF KBLI 102335Z 1100/1124 VRB05KT P6SM SCT250 FM112000 28008KT
                       P6SM SKC=
201906101720 TAF KBLI 101720Z 1018/1118 VRB05KT P6SM BKN120=
201906101120 TAF KBLI 101120Z 1012/1112 VRB04KT P6SM BKN200=
201906100520 TAF KBLI 100520Z 1006/1106 19005KT P6SM BKN200=
201906092322 TAF KBLI 092322Z 1000/1024 29004KT P6SM FEW070 BKN100 BKN250 FM100600
                       19004KT P6SM BKN060 BKN200=
201906091722 TAF KBLI 091722Z 0918/1018 21005KT P6SM BKN250 FM092100 23005KT
                       P6SM OVC120 FM100600 00000KT P6SM SCT200=
201906091120 TAF KBLI 091120Z 0912/1012 00000KT P6SM BKN250 FM092100 24006KT
                       P6SM OVC150 FM100600 32006KT P6SM SCT150=
201906090520 TAF KBLI 090520Z 0906/1006 17007KT P6SM SCT200 FM091900 22006KT
                       P6SM BKN100=
201906082336 TAF KBLI 082336Z 0900/0924 17010KT P6SM FEW060 FM090400 18008KT
                       P6SM SCT200 FM091900 22006KT P6SM SCT250=
201906081732 TAF KBLI 081732Z 0818/0918 18010KT P6SM FEW015 BKN020 OVC030 FM081900
                       18010KT P6SM SCT025 BKN050 FM090000 17008KT
                       P6SM SCT070 FM090400 18008KT P6SM BKN200=
201906081120 TAF KBLI 081120Z 0812/0912 18012KT P6SM SCT025 OVC060 FM081500
                       18008KT P6SM BKN025 BKN050 FM081900 21005KT
                       P6SM SCT025 BKN050 FM090000 VRB04KT P6SM
                       BKN050 FM090600 00000KT P6SM SCT050 BKN200=
201906080523 TAF KBLI 080523Z 0806/0906 17010KT P6SM OVC060 FM081100 16007KT
                       P6SM OVC030 FM082000 17010KT P6SM OVC050
                       FM090000 18005KT P6SM FEW250=
201906072333 TAF KBLI 072333Z 0800/0824 21012G18KT P6SM SCT030 BKN060 FM080300
                       17010KT P6SM BKN050 FM081100 16007KT P6SM
                       OVC030 FM082000 17010KT P6SM OVC050=
201906071738 TAF KBLI 071738Z 0718/0818 18010KT P6SM -SHRA FEW020 BKN060 FM080200
                       17008KT P6SM BKN050 FM081000 16007KT P6SM
                       OVC030=
201906071120 TAF KBLI 071120Z 0712/0812 16007KT P6SM VCSH SCT025 BKN050 FM071700
                       18010KT P6SM -SHRA BKN025 BKN050 FM080200
                       18008KT P6SM BKN050=
201906070521 TAF KBLI 070521Z 0706/0806 VRB04KT P6SM VCSH SCT050 OVC100 FM071200
                       16007KT P6SM VCSH BKN030 FM072000 17008G15KT
                       P6SM -RA OVC025 FM080200 17008KT P6SM BKN050=
201906062320 TAF KBLI 062320Z 0700/0724 18008KT P6SM VCSH BKN040 FM071000 16007KT
                       P6SM VCSH BKN030 FM071500 17008KT P6SM -RA
                       OVC025=
201906061731 TAF KBLI 061731Z 0618/0718 17010KT P6SM SCT025 BKN060 FM062000
                       18008KT P6SM VCSH BKN040 FM071000 16007KT
                       P6SM VCSH BKN030=
201906061120 TAF KBLI 061120Z 0612/0712 17007KT P6SM BKN050 FM062000 18012KT
                       P6SM VCSH BKN040 FM071000 30006KT P6SM VCSH
                       BKN030=
201906060520 TAF KBLI 060520Z 0606/0706 VRB05KT P6SM VCSH BKN045 OVC060 FM060800
                       17008KT P6SM BKN040 OVC050 FM062000 18007G15KT
                       P6SM BKN050 FM070200 18006KT P6SM OVC050=
201906052320 TAF KBLI 052320Z 0600/0624 18011KT P6SM VCSH OVC050 FM060300 17010KT
                       P6SM -RA OVC040 FM060800 17007KT P6SM BKN040
                       OVC050=
201906051720 TAF KBLI 051720Z 0518/0618 18011KT P6SM BKN045 OVC070 FM052200
                       17012G18KT P6SM VCSH BKN040 OVC060 FM060300
                       17010KT P6SM -RA OVC035 FM060800 17007KT
                       P6SM BKN030 OVC050=
201906051120 TAF KBLI 051120Z 0512/0612 16008KT P6SM BKN050 OVC080 FM051600
                       16010KT P6SM BKN045 OVC070 FM052200 17012G18KT
                       P6SM VCSH BKN040 OVC060 FM060300 17010KT
                       P6SM -RA OVC035 FM060800 17007KT P6SM BKN030
                       OVC050=
201906050539 TAF KBLI 050539Z 0506/0606 18008KT P6SM SCT120 BKN200 FM050800
                       16008KT P6SM SCT120 OVC200 FM051200 16008KT
                       P6SM BKN100 OVC200 FM051600 16010G17KT P6SM
                       BKN060 OVC100 FM052200 17012KT P6SM VCSH
                       BKN040 OVC060 FM060300 17009KT P6SM -RA
                       OVC040=
201906042320 TAF KBLI 042320Z 0500/0524 18008KT P6SM SCT100 SCT200 FM050800
                       16006KT P6SM SCT120 OVC200 FM051100 16005KT
                       P6SM BKN080 OVC120 FM051600 16009KT P6SM
                       OVC060=
201906041726 TAF KBLI 041726Z 0418/0518 17012KT P6SM FEW020 SCT050 SCT200 FM042300
                       18008KT P6SM BKN200 FM050800 16006KT P6SM
                       SCT120 OVC200 FM051100 16005KT P6SM BKN080
                       OVC120=
201906041131 TAF KBLI 041131Z 0412/0512 17007KT P6SM SCT050 SCT200 FM041700
                       17012KT P6SM SCT050 SCT200 FM042300 18008KT
                       P6SM BKN200 FM050800 16006KT P6SM SCT120
                       OVC200 FM051100 16005KT P6SM FEW080 BKN120
                       OVC200=
201906040537 TAF KBLI 040537Z 0406/0506 18012KT P6SM FEW250 FM040900 17008KT
                       P6SM SCT020 SCT200 FM041600 17010KT P6SM
                       FEW250 FM042300 18010G17KT P6SM SCT250=
201906032332 TAF KBLI 032332Z 0400/0424 18012KT P6SM FEW250 FM040900 17008KT
                       P6SM SCT020 SCT200 FM041600 17010KT P6SM
                       FEW250=
201906031748 TAF KBLI 031748Z 0318/0418 18012G18KT P6SM SCT060 BKN200 FM040000
                       18011KT P6SM SCT200 FM040900 17008KT P6SM
                       SCT020 SCT200 FM041600 17008KT P6SM SCT200=
201906031121 TAF KBLI 031121Z 0312/0412 17010KT P6SM SCT035 BKN060 FM031800
                       19012G18KT P6SM SCT060 BKN200 FM040000 18011KT
                       P6SM SCT200 FM040900 17008KT P6SM SCT020
                       SCT200=
201906030853 KBLI 030853Z 0309/0406 18010KT P6SM BKN070 BKN200 FM031200 17010KT
                       P6SM SCT035 BKN060 FM031800 19012G18KT P6SM
                       SCT050 BKN200 FM040000 18011KT P6SM SCT200=
201906030537 TAF KBLI 030537Z 0306/0406 18008KT P6SM BKN200 FM031200 17010G19KT
                       P6SM SCT020 BKN040 FM031800 19012G18KT P6SM
                       SCT200 FM040300 18012KT P6SM SCT250=
201906022320 TAF KBLI 022320Z 0300/0324 18008KT P6SM BKN200 FM031400 17012G18KT
                       P6SM SCT020 SCT200 FM031800 19012G18KT P6SM
                       SCT200=
201906021724 TAF KBLI 021724Z 0218/0318 17010G16KT P6SM SCT200 FM030700 17009KT
                       P6SM BKN080 BKN200 FM031400 17010G16KT P6SM
                       SCT020 SCT200=
201906021120 TAF KBLI 021120Z 0212/0312 17008KT P6SM SCT050 SCT200 FM021700
                       19008G14KT P6SM SCT060 SCT200 FM022300 17012G18KT
                       P6SM SCT200 FM030700 17009KT P6SM SCT020
                       BKN120 BKN200=
201906020538 TAF KBLI 020538Z 0206/0306 19008KT P6SM SCT250 FM021200 17008KT
                       P6SM SCT030 BKN070 BKN250 FM021700 19008G14KT
                       P6SM SCT070 SCT250 FM022300 17012G19KT P6SM
                       SCT250=
201906012320 TAF KBLI 012320Z 0200/0224 19008G14KT P6SM SCT250 FM021200 17008KT
                       P6SM SCT030 SCT250 FM021700 19008G14KT P6SM
                       SCT250=
201906011720 TAF KBLI 011720Z 0118/0218 20010G16KT P6SM SCT200=
201906011126 TAF KBLI 011126Z 0112/0212 18010KT P6SM SCT200 FM011500 18010G15KT
                       P6SM SCT200 FM012000 18010KT P6SM SCT200
                       FM020600 17008KT P6SM SCT200=
201906010539 TAF KBLI 010539Z 0106/0206 17008KT P6SM SKC FM011900 18010G15KT
                       P6SM SKC=