##########################################################
# Query made at 02/16/2025 22:47:15 UTC
# Time interval: from 11/01/2020 00:00  to 11/30/2020 23:59  UTC
##########################################################

##########################################################
# KBLI, Bellingham, Bellingham International Airport (United States)
# WMO index: -----. WIGOS ID: Unknown
# Latitude 48-47-58N. Longitude 122-32-21W. Altitude 48 m.
##########################################################

###################################
#  METAR/SPECI from KBLI
###################################
202011302353 METAR KBLI 302353Z 18003KT 10SM SCT060 09/04 A3025 RMK AO2 SLP253 60004 T00890039 10111 20083 51053=
202011302253 METAR KBLI 302253Z 25004KT 10SM FEW030 SCT040 BKN065 10/04 A3021 RMK AO2 SLP236 T01000044=
202011302153 METAR KBLI 302153Z VRB03KT 10SM SCT036 BKN060 11/05 A3015 RMK AO2 SLP216 T01060050=
202011302053 METAR KBLI 302053Z 14003KT 10SM SCT015 BKN060 09/06 A3010 RMK AO2 RAE33 SLP199 P0002 60004 T00940061 51055=
202011301953 METAR KBLI 301953Z 22005KT 6SM -RA SCT021 BKN028 BKN041 09/06 A3006 RMK AO2 RAB33 SLP186 P0001 T00890056=
202011301937 SPECI KBLI 301937Z 17007KT 8SM -RA FEW019 BKN028 OVC050 09/04 A3004 RMK AO2 RAB33 P0000 T00890044=
202011301853 METAR KBLI 301853Z VRB05KT 10SM FEW024 SCT032 BKN070 09/03 A3001 RMK AO2 RAE1756 SLP171 P0001 T00890028=
202011301753 METAR KBLI 301753Z 29008G25KT 9SM -RA FEW008 SCT024 BKN031 08/05 A2993 RMK AO2 RAB1658 PRESRR SLP144 P0002 60011 T00830050 10094 20083 53056=
202011301742 SPECI KBLI 301742Z 24007KT 190V270 3SM -RA BKN024 BKN030 OVC037 08/05 A2991 RMK AO2 RAB1658 PRESRR P0002 T00830050=
202011301653 METAR KBLI 301653Z VRB06G17KT 10SM FEW008 SCT015 SCT050 09/05 A2984 RMK AO2 PK WND 19033/1601 RAE07 SLP111 P0000 T00890050=
202011301630 SPECI KBLI 301630Z 20009G21KT 10SM FEW008 SCT015 SCT020 08/05 A2982 RMK AO2 PK WND 19033/1601 RAE07 P0000 T00830050=
202011301553 METAR KBLI 301553Z 18017G29KT 8SM -RA SCT008 BKN014 BKN035 08/06 A2979 RMK AO2 PK WND 18031/1503 RAB03 SLP096 P0002 T00830056=
202011301548 SPECI KBLI 301548Z 19018G29KT 7SM -RA SCT008 BKN014 BKN035 08/06 A2979 RMK AO2 PK WND 18031/1503 RAB03 P0002=
202011301546 SPECI KBLI 301546Z 18018G29KT 7SM -RA BKN016 BKN044 OVC085 08/06 A2979 RMK AO2 PK WND 18031/1503 RAB03 P0002 T00830056=
202011301453 METAR KBLI 301453Z 18019G32KT 10SM FEW016 SCT075 BKN110 08/05 A2977 RMK AO2 PK WND 19034/1413 RAE41 SLP088 P0005 60007 T00830050 53006=
202011301442 SPECI KBLI 301442Z 18019G29KT 10SM SCT018 BKN070 OVC110 08/05 A2976 RMK AO2 PK WND 19034/1413 RAE41 P0005 T00830050=
202011301353 METAR KBLI 301353Z AUTO 18021G32KT 8SM -RA BKN025 OVC032 09/04 A2976 RMK AO2 PK WND 18032/1353 RAB18 SLP085 P0001 T00940044=
202011301315 SPECI KBLI 301315Z AUTO 17019G30KT 10SM BKN029 OVC055 09/04 A2974 RMK AO2 PK WND 16031/1302 T00940039=
202011301253 METAR KBLI 301253Z AUTO 17024G33KT 10SM SCT031 BKN060 OVC100 09/04 A2973 RMK AO2 PK WND 18040/1225 RAE30 SLP076 P0001 T00940039=
202011301153 METAR KBLI 301153Z AUTO 16019G32KT 5SM -RA OVC048 08/04 A2975 RMK AO2 PK WND 18035/1110 SLP082 P0007 60007 70007 T00830039 10106 20039 56025=
202011301053 METAR KBLI 301053Z AUTO 19017G24KT 10SM -RA FEW050 OVC060 10/02 A2978 RMK AO2 PK WND 19030/1042 RAB41 SLP093 P0000 T01000022=
202011300953 METAR KBLI 300953Z AUTO 14005KT 10SM SCT100 10/01 A2976 RMK AO2 SLP087 T01000011=
202011300853 METAR KBLI 300853Z AUTO 17005KT 10SM FEW100 06/02 A2982 RMK AO2 SLP107 T00560017 56038=
202011300753 METAR KBLI 300753Z AUTO 01004KT 10SM FEW120 05/01 A2984 RMK AO2 SLP114 T00500011 400891011=
202011300653 METAR KBLI 300653Z AUTO 00000KT 10SM CLR 04/01 A2990 RMK AO2 SLP134 T00390011=
202011300553 METAR KBLI 300553Z 00000KT 10SM BKN120 05/02 A2994 RMK AO2 SLP146 T00500017 10078 20044 58024=
202011300453 METAR KBLI 300453Z 32004KT 10SM FEW090 BKN120 05/02 A2997 RMK AO2 SLP159 T00500017=
202011300353 METAR KBLI 300353Z 29004KT 10SM OVC100 07/02 A3000 RMK AO2 SLP169 T00670022=
202011300253 METAR KBLI 300253Z 02003KT 10SM OVC090 07/02 A3001 RMK AO2 SLP170 T00670022 58022=
202011300153 METAR KBLI 300153Z 34003KT 10SM OVC080 07/03 A3004 RMK AO2 SLP181 T00670028=
202011300053 METAR KBLI 300053Z 00000KT 10SM OVC080 07/03 A3005 RMK AO2 SLP186 T00670033=
202011292353 METAR KBLI 292353Z 05003KT 10SM OVC075 07/03 A3007 RMK AO2 SLP193 T00720028 10089 20033 58029=
202011292253 METAR KBLI 292253Z 03004KT 10SM SCT060 BKN070 08/02 A3010 RMK AO2 SLP203 T00830022=
202011292153 METAR KBLI 292153Z 00000KT 10SM FEW070 OVC110 09/03 A3013 RMK AO2 SLP213 T00890028=
202011292053 METAR KBLI 292053Z 04004KT 10SM CLR 08/02 A3016 RMK AO2 SLP223 T00830022 57035=
202011291953 METAR KBLI 291953Z VRB04KT 10SM FEW001 08/03 A3019 RMK AO2 SLP234 T00780033=
202011291853 METAR KBLI 291853Z 00000KT 10SM FEW001 04/03 A3023 RMK AO2 SLP247 T00440033=
202011291834 SPECI KBLI 291834Z 07003KT 3SM R16/1000V2400FT BR SCT001 04/03 A3024 RMK AO2 T00390028=
202011291753 METAR KBLI 291753Z 00000KT 1/8SM R16/0600V0800FT FG VV001 03/02 A3027 RMK AO2 SLP258 I6003 T00330022 10033 21011 58003=
202011291653 METAR KBLI 291653Z 00000KT 1/4SM R16/1000V1200FT FG VV002 01/00 A3027 RMK AO2 SLP259 I1002 T00110000=
202011291553 METAR KBLI 291553Z 00000KT 1/2SM R16/1000V2000FT FZFG VV003 M01/M02 A3027 RMK AO2 SLP261 I1000 T10061022=
202011291532 SPECI KBLI 291532Z 00000KT 1/2SM R16/P6000FT FZFG OVC003 M01/M02 A3028 RMK AO2 I1000 T10111022=
202011291530 SPECI KBLI 291530Z 00000KT 3/4SM R16/P6000FT BR OVC003 M01/M02 A3028 RMK AO2 I1000 T10061022=
202011291453 METAR KBLI 291453Z 00000KT 10SM CLR M01/M02 A3028 RMK AO2 SLP262 I1000 I3001 T10061022 56009=
202011291353 METAR KBLI 291353Z AUTO 02003KT 10SM SCT050 01/M01 A3028 RMK AO2 SLP263 I1001 T00061011=
202011291253 METAR KBLI 291253Z AUTO 00000KT 10SM BKN050 01/M01 A3030 RMK AO2 SLP269 I1000 T00061011=
202011291153 METAR KBLI 291153Z AUTO 00000KT 10SM BKN047 01/M01 A3030 RMK AO2 SLP271 I1001 I6003 T00061006 10028 21011 58013=
202011291053 METAR KBLI 291053Z AUTO 00000KT 6SM BR FEW050 00/M01 A3033 RMK AO2 SLP280 I1001 T00001011=
202011291015 SPECI KBLI 291015Z AUTO 00000KT 7SM FEW001 00/M02 A3033 RMK AO2 I1001 T00001017=
202011290953 METAR KBLI 290953Z AUTO 00000KT 7SM CLR M01/M02 A3033 RMK AO2 SLP281 I1001 T10061017=
202011290910 SPECI KBLI 290910Z AUTO 00000KT 3SM BR CLR 00/M02 A3034 RMK AO2 T00001017=
202011290859 SPECI KBLI 290859Z AUTO 00000KT 1 1/2SM R16/5500VP6000FT BR FEW004 00/M01 A3034 RMK AO2 T00001011=
202011290853 METAR KBLI 290853Z AUTO 00000KT 5SM BR FEW004 01/M01 A3034 RMK AO2 SLP284 I3000 T00061006 58007=
202011290845 SPECI KBLI 290845Z AUTO 00000KT 5SM BR SCT004 01/00 A3034 RMK AO2 T00110000=
202011290830 SPECI KBLI 290830Z AUTO 00000KT 3SM BR OVC005 02/01 A3034 RMK AO2 T00170006=
202011290817 SPECI KBLI 290817Z AUTO 00000KT 1 3/4SM BR BKN005 01/00 A3034 RMK AO2 VIS 1V3 T00110000=
202011290809 SPECI KBLI 290809Z AUTO 00000KT 3/4SM R16/P6000FT BR BKN005 01/M01 A3035 RMK AO2 T00061006=
202011290801 SPECI KBLI 290801Z AUTO 00000KT 1SM R16/3500VP6000FT BR VV005 01/M01 A3035 RMK AO2 T00061006=
202011290753 METAR KBLI 290753Z AUTO 00000KT 1 1/2SM R16/4000VP6000FT BR CLR 01/M01 A3035 RMK AO2 SLP288 T00061006 400940006=
202011290747 SPECI KBLI 290747Z AUTO 00000KT 1SM R16/P6000FT BR VV003 01/M01 A3035 RMK AO2=
202011290717 SPECI KBLI 290717Z AUTO 00000KT 1/2SM R16/4500VP6000FT FG VV002 01/M01 A3036 RMK AO2 T00111006=
202011290714 SPECI KBLI 290714Z AUTO 00000KT 1SM R16/4500VP6000FT BR VV002 01/M01 A3036 RMK AO2 VIS 1/4V5 T00111006=
202011290653 METAR KBLI 290653Z AUTO 00000KT 5SM R16/5000VP6000FT BR CLR 02/01 A3036 RMK AO2 SLP290 I1000 T00220011=
202011290553 METAR KBLI 290553Z 04003KT 10SM CLR 02/01 A3036 RMK AO2 SLP291 T00220011 10078 20017 56009=
202011290453 METAR KBLI 290453Z 00000KT 10SM CLR 02/01 A3037 RMK AO2 SLP292 T00220006=
202011290353 METAR KBLI 290353Z 00000KT 10SM CLR 03/02 A3038 RMK AO2 SLP296 T00330017=
202011290253 METAR KBLI 290253Z 00000KT 10SM CLR 02/01 A3039 RMK AO2 SLP300 T00170006 50001=
202011290227 SPECI KBLI 290227Z 00000KT 10SM CLR 02/01 A3040 RMK AO2 T00220006=
202011290220 SPECI KBLI 290220Z 00000KT 1 3/4SM BR CLR 02/01 A3040 RMK AO2 T00220006=
202011290153 METAR KBLI 290153Z 00000KT 10SM FEW040 03/02 A3040 RMK AO2 SLP302 T00330017=
202011290053 METAR KBLI 290053Z 00000KT 10SM CLR 04/03 A3040 RMK AO2 SLP302 T00390028=
202011282353 METAR KBLI 282353Z 00000KT 10SM FEW030 08/04 A3039 RMK AO2 SLP298 T00780039 10094 20078 52003=
202011282253 METAR KBLI 282253Z 30004KT 10SM FEW022 09/04 A3038 RMK AO2 SLP297 T00890039=
202011282153 METAR KBLI 282153Z 34004KT 10SM R16/3500VP6000FT FEW033 BKN043 09/04 A3038 RMK AO2 SLP295 T00890039=
202011282053 METAR KBLI 282053Z 31003KT 10SM R16/3500VP6000FT SCT019 08/04 A3038 RMK AO2 SLP294 T00830039 52001=
202011282050 SPECI KBLI 282050Z 30003KT 10SM R16/3500VP6000FT FEW021 08/04 A3038 RMK AO2=
202011282002 SPECI KBLI 282002Z 33005KT 10SM BKN014 09/05 A3037 RMK AO2 T00940050=
202011281953 METAR KBLI 281953Z 32004KT 10SM CLR 08/04 A3037 RMK AO2 SLP293 T00830044=
202011281853 METAR KBLI 281853Z 28004KT 10SM SCT010 BKN017 08/05 A3037 RMK AO2 SLP293 T00830050=
202011281753 METAR KBLI 281753Z 30004KT 10SM BKN012 08/05 A3035 RMK AO2 SLP284 T00830050 10089 20056 51026=
202011281653 METAR KBLI 281653Z 17003KT 10SM SCT017 BKN027 OVC031 08/06 A3033 RMK AO2 SLP277 T00830056=
202011281640 SPECI KBLI 281640Z 00000KT 10SM BKN018 BKN026 OVC031 08/06 A3031 RMK AO2 T00830056=
202011281553 METAR KBLI 281553Z 19004KT 10SM R16/5500VP6000FT BKN033 07/04 A3029 RMK AO2 SLP267 T00720044=
202011281453 METAR KBLI 281453Z AUTO 18004KT 10SM FEW080 07/04 A3027 RMK AO2 SLP257 T00720044 53023=
202011281353 METAR KBLI 281353Z AUTO 18004KT 10SM CLR 06/04 A3023 RMK AO2 SLP246 T00610039=
202011281253 METAR KBLI 281253Z AUTO 17005KT 10SM CLR 06/04 A3022 RMK AO2 SLP241 T00610039=
202011281153 METAR KBLI 281153Z AUTO 19005KT 10SM CLR 07/04 A3020 RMK AO2 SLP235 60001 70013 T00670044 10094 20067 51011=
202011281053 METAR KBLI 281053Z AUTO 19005KT 10SM FEW027 07/04 A3019 RMK AO2 SLP233 T00720044=
202011280953 METAR KBLI 280953Z AUTO 18005KT 10SM CLR 08/05 A3018 RMK AO2 SLP226 T00830050=
202011280853 METAR KBLI 280853Z AUTO 18008KT 10SM CLR 09/04 A3017 RMK AO2 SLP223 60001 T00890044 53025=
202011280753 METAR KBLI 280753Z AUTO 19010G16KT 10SM SCT020 09/05 A3014 RMK AO2 SLP212 T00890050 401220083=
202011280653 METAR KBLI 280653Z AUTO 19011KT 10SM CLR 09/06 A3010 RMK AO2 RAE12 SLP199 P0001 T00890056=
202011280615 SPECI KBLI 280615Z 18017G23KT 10SM FEW017 OVC034 08/06 A3009 RMK AO2 RAE12 P0001 T00830056=
202011280553 METAR KBLI 280553Z 20011G22KT 3SM -RA SCT020 OVC025 08/06 A3009 RMK AO2 SLP198 P0009 60012 T00830056 10117 20083 53040=
202011280537 SPECI KBLI 280537Z 21011G23KT 5SM -RA BKN026 OVC034 09/05 A3010 RMK AO2 P0007 T00890050=
202011280453 METAR KBLI 280453Z 18014G23KT 6SM -RA SCT025 BKN035 OVC050 09/04 A3005 RMK AO2 PK WND 19029/0354 RAB04 SLP183 P0003 T00940044=
202011280353 METAR KBLI 280353Z 18016G31KT 10SM SCT025 OVC065 12/03 A3000 RMK AO2 PK WND 19031/0353 PRESRR SLP166 T01170028=
202011280253 METAR KBLI 280253Z 16018G25KT 10SM SCT040 OVC075 11/03 A2998 RMK AO2 PK WND 15032/0217 SLP157 T01110028 56039=
202011280153 METAR KBLI 280153Z 17017G26KT 10SM SCT035 BKN065 OVC070 11/03 A3000 RMK AO2 PK WND 17026/0149 SLP166 T01110028=
202011280053 METAR KBLI 280053Z 16020G26KT 10SM OVC065 11/03 A3004 RMK AO2 PK WND 16026/0053 SLP181 T01110033=
202011272353 METAR KBLI 272353Z 18011KT 10SM OVC038 11/04 A3009 RMK AO2 SLP197 T01110039 10122 20100 56023=
202011272253 METAR KBLI 272253Z 19009G17KT 10SM CLR 11/04 A3011 RMK AO2 SLP204 T01110044=
202011272153 METAR KBLI 272153Z 18013G22KT 10SM CLR 12/03 A3013 RMK AO2 SLP208 T01170033=
202011272053 METAR KBLI 272053Z 17013G22KT 10SM CLR 12/03 A3016 RMK AO2 PK WND 19027/2005 SLP220 T01220033 58020=
202011271953 METAR KBLI 271953Z 18012G18KT 10SM CLR 12/03 A3018 RMK AO2 SLP228 T01170033=
202011271853 METAR KBLI 271853Z 17014G21KT 10SM FEW055 11/03 A3021 RMK AO2 SLP237 T01060028=
202011271753 METAR KBLI 271753Z 18012G21KT 10SM FEW060 10/03 A3022 RMK AO2 SLP241 T01000028 10100 20094 56009=
202011271653 METAR KBLI 271653Z 17009KT 10SM FEW055 10/03 A3023 RMK AO2 SLP244 T01000028=
202011271553 METAR KBLI 271553Z 17015G25KT 10SM SCT055 09/03 A3022 RMK AO2 PK WND 17026/1534 SLP241 T00940028=
202011271453 METAR KBLI 271453Z AUTO 18014KT 10SM BKN055 09/03 A3025 RMK AO2 SLP250 T00940033 56009=
202011271353 METAR KBLI 271353Z AUTO 18015G22KT 10SM OVC060 09/03 A3025 RMK AO2 SLP252 T00940033=
202011271253 METAR KBLI 271253Z AUTO 18016G24KT 10SM OVC050 09/04 A3026 RMK AO2 PK WND 18028/1218 SLP255 T00940039=
202011271153 METAR KBLI 271153Z AUTO 18013G24KT 10SM SCT027 OVC055 09/04 A3027 RMK AO2 SLP259 70004 T00940039 10094 20083 58009=
202011271053 METAR KBLI 271053Z AUTO 17017G24KT 10SM FEW055 FEW075 BKN110 09/04 A3029 RMK AO2 PK WND 18026/1034 SLP264 T00890039=
202011270953 METAR KBLI 270953Z AUTO 18015G21KT 10SM OVC060 09/04 A3030 RMK AO2 SLP267 T00890044=
202011270853 METAR KBLI 270853Z AUTO 18014G22KT 10SM OVC055 09/04 A3030 RMK AO2 SLP268 T00940044 58009=
202011270753 METAR KBLI 270753Z AUTO 18011KT 10SM FEW023 OVC055 09/04 A3031 RMK AO2 SLP273 T00940044 400940061=
202011270653 METAR KBLI 270653Z AUTO 17010KT 10SM FEW022 OVC050 09/04 A3032 RMK AO2 SLP275 T00940044=
202011270553 METAR KBLI 270553Z 17010KT 10SM SCT020 OVC050 09/05 A3033 RMK AO2 RAB28E38 SLP277 P0000 60002 T00890050 10089 20078 56006=
202011270453 METAR KBLI 270453Z 18013G19KT 10SM SCT035 BKN045 OVC055 09/05 A3033 RMK AO2 RAE0355B24E36 SLP278 P0000 T00890050=
202011270353 METAR KBLI 270353Z 19011G15KT 10SM -RA SCT025 BKN039 OVC050 09/05 A3034 RMK AO2 RAB04 SLP281 P0000 T00890050=
202011270253 METAR KBLI 270253Z 18008KT 10SM SCT025 BKN037 OVC050 09/05 A3034 RMK AO2 RAE11 SLP283 P0000 60002 T00890050 56012=
202011270153 METAR KBLI 270153Z 10SM -RA OVC038 09/05 A3035 RMK AO2 SLP287 P0000 T00890050=
202011270053 METAR KBLI 270053Z 18007KT 10SM -RA SCT025 BKN035 OVC050 08/06 A3036 RMK AO2 SLP290 P0002 T00780056=
202011262353 METAR KBLI 262353Z 17007KT 5SM -RA BR BKN038 OVC055 08/06 A3038 RMK AO2 RAB2254 SLP296 P0002 60002 T00780056 10089 20078 55007=
202011262253 METAR KBLI 262253Z 18007KT 10SM OVC043 09/04 A3038 RMK AO2 SLP294 T00890044=
202011262153 METAR KBLI 262153Z 19011KT 10SM SCT016 OVC043 08/05 A3039 RMK AO2 SLP297 T00830050=
202011262053 METAR KBLI 262053Z 18007G16KT 10SM FEW018 OVC042 08/05 A3040 RMK AO2 SLP302 T00830050 58003=
202011261953 METAR KBLI 261953Z 19012KT 10SM FEW015 OVC044 08/05 A3040 RMK AO2 SLP303 T00830050=
202011261853 METAR KBLI 261853Z 18010KT 10SM SCT014 BKN025 OVC050 08/05 A3041 RMK AO2 SLP305 T00780050=
202011261814 SPECI KBLI 261814Z 18006KT 10SM SCT014 BKN025 OVC050 08/05 A3041 RMK AO2 T00780050=
202011261753 METAR KBLI 261753Z 18006KT 10SM BKN014 OVC043 08/05 A3041 RMK AO2 SLP305 T00780050 10078 20067 53012=
202011261706 SPECI KBLI 261706Z 21004KT 10SM BKN013 BKN020 OVC042 07/05 A3040 RMK AO2 T00720050=
202011261653 METAR KBLI 261653Z 21005KT 10SM FEW011 BKN018 OVC041 07/04 A3039 RMK AO2 SLP300 T00720044=
202011261553 METAR KBLI 261553Z 20005KT 10SM BKN015 OVC043 07/04 A3038 RMK AO2 SLP294 T00720044=
202011261550 SPECI KBLI 261550Z 20007KT 10SM BKN015 OVC043 07/04 A3037 RMK AO2=
202011261453 METAR KBLI 261453Z 10SM BKN013 OVC034 07/05 A3037 RMK AO2 SLP293 T00720050 53008=
202011261445 SPECI KBLI 261445Z 00000KT 10SM SCT013 BKN020 OVC034 07/05 A3037 RMK AO2 T00720050=
202011261353 METAR KBLI 261353Z AUTO 20005KT 10SM OVC039 07/05 A3036 RMK AO2 SLP290 T00670050=
202011261253 METAR KBLI 261253Z AUTO 20003KT 10SM FEW023 OVC041 07/05 A3035 RMK AO2 SLP286 T00670050=
202011261249 SPECI KBLI 261249Z AUTO 19004KT 10SM SCT023 OVC041 07/05 A3035 RMK AO2=
202011261230 SPECI KBLI 261230Z AUTO 00000KT 9SM SCT011 OVC023 07/06 A3034 RMK AO2 T00670056=
202011261153 METAR KBLI 261153Z AUTO 00000KT 4SM BR BKN012 OVC017 06/06 A3036 RMK AO2 SLP290 60003 70050 T00610056 10067 20061 51012=
202011261145 SPECI KBLI 261145Z AUTO 00000KT 3SM BR BKN014 OVC038 06/05 A3036 RMK AO2 T00610050=
202011261134 SPECI KBLI 261134Z AUTO 00000KT 1 3/4SM BR BKN014 OVC038 06/04 A3037 RMK AO2 T00610044=
202011261128 SPECI KBLI 261128Z AUTO 00000KT 3SM BR SCT016 OVC038 06/05 A3037 RMK AO2 T00610050=
202011261053 METAR KBLI 261053Z AUTO 00000KT 3SM BR OVC017 06/05 A3036 RMK AO2 SLP288 T00610050=
202011261037 SPECI KBLI 261037Z AUTO 00000KT 2 1/2SM BR BKN015 OVC039 06/05 A3035 RMK AO2 T00610050=
202011260953 METAR KBLI 260953Z AUTO 14003KT 3SM BR FEW008 SCT018 OVC038 07/05 A3033 RMK AO2 RAE0855 SLP280 P0000 T00670050=
202011260857 SPECI KBLI 260857Z AUTO 00000KT 3SM BR FEW001 BKN027 OVC041 07/06 A3033 RMK AO2 RAE55 P0000 T00670056=
202011260853 METAR KBLI 260853Z AUTO 00000KT 2 1/2SM -RA BR SCT017 BKN027 OVC039 07/05 A3033 RMK AO2 RAB06 SLP278 P0003 60003 T00670050 53012=
202011260819 SPECI KBLI 260819Z AUTO 00000KT 2SM -RA BR BKN015 OVC031 06/05 A3033 RMK AO2 RAB06 P0000 T00610050=
202011260805 SPECI KBLI 260805Z AUTO 00000KT 4SM BR FEW017 OVC031 06/05 A3032 RMK AO2 T00610050=
202011260753 METAR KBLI 260753Z AUTO 00000KT 5SM BR BKN017 BKN025 OVC031 07/05 A3031 RMK AO2 SLP273 T00670050 400780056=
202011260714 SPECI KBLI 260714Z AUTO 00000KT 7SM SCT006 OVC017 06/05 A3029 RMK AO2 T00610050=
202011260653 METAR KBLI 260653Z AUTO 00000KT 5SM BR BKN006 OVC031 06/05 A3029 RMK AO2 SLP266 T00610050=
202011260651 SPECI KBLI 260651Z AUTO 00000KT 6SM BR BKN007 OVC031 06/05 A3029 RMK AO2=
202011260634 SPECI KBLI 260634Z AUTO 00000KT 8SM SCT007 BKN013 OVC031 07/05 A3028 RMK AO2 T00670050=
202011260602 SPECI KBLI 260602Z 00000KT 6SM BR BKN006 BKN015 OVC038 06/06 A3030 RMK AO2 T00610056=
202011260553 METAR KBLI 260553Z 00000KT 4SM BR FEW006 SCT014 OVC035 06/05 A3030 RMK AO2 RAB04E39 SLP268 P0001 60022 T00610050 10078 20056 51024=
202011260531 SPECI KBLI 260531Z 15003KT 6SM -RA BR FEW022 OVC034 06/05 A3028 RMK AO2 RAB04 P0000 T00610050=
202011260514 SPECI KBLI 260514Z 00000KT 9SM -RA FEW009 BKN017 OVC034 07/05 A3028 RMK AO2 RAB04 P0000 T00670050=
202011260507 SPECI KBLI 260507Z 00000KT 9SM -RA BKN009 BKN019 OVC023 07/06 A3028 RMK AO2 RAB04 CIG 007V014 P0000 T00670056=
202011260453 METAR KBLI 260453Z 00000KT 6SM BR BKN010 OVC015 06/05 A3028 RMK AO2 RAB09E29 CIG 005V011 SLP263 P0000 T00610050=
202011260441 SPECI KBLI 260441Z 00000KT 5SM BR FEW007 BKN015 OVC042 06/05 A3028 RMK AO2 RAB09E29 P0000 T00610050=
202011260431 SPECI KBLI 260431Z 00000KT 2SM BR FEW005 BKN017 OVC044 06/04 A3027 RMK AO2 VIS 1 1/4V4 RAB09E29 P0000 T00610044=
202011260422 SPECI KBLI 260422Z 00000KT 1 1/4SM -RA BR SCT014 BKN019 OVC045 06/04 A3026 RMK AO2 RAB09 P0000 T00560044=
202011260412 SPECI KBLI 260412Z 00000KT 2SM -RA BR BKN019 BKN047 OVC060 06/04 A3026 RMK AO2 RAB09 P0000 T00560044=
202011260355 SPECI KBLI 260355Z 00000KT 3SM BR SCT021 BKN026 OVC055 06/04 A3026 RMK AO2 T00610044=
202011260353 METAR KBLI 260353Z 00000KT 2 1/2SM BR SCT021 BKN037 OVC060 06/04 A3026 RMK AO2 SLP254 T00610044=
202011260315 SPECI KBLI 260315Z 00000KT 9SM FEW009 BKN035 OVC043 07/06 A3024 RMK AO2 T00670056=
202011260306 SPECI KBLI 260306Z 00000KT 9SM SCT009 BKN024 OVC032 07/06 A3024 RMK AO2 T00670056=
202011260253 METAR KBLI 260253Z 00000KT 9SM BKN010 BKN014 OVC022 07/06 A3023 RMK AO2 RAE49 CIG 008V012 SLP244 P0011 60021 T00720061 51019=
202011260153 METAR KBLI 260153Z 16004KT 6SM -RA FEW008 BKN014 OVC035 08/05 A3022 RMK AO2 SLP240 P0008 T00780050=
202011260138 SPECI KBLI 260138Z 00000KT 10SM -RA FEW007 BKN020 OVC037 07/06 A3022 RMK AO2 P0006 T00720056=
202011260053 METAR KBLI 260053Z 17003KT 8SM -RA OVC033 07/06 A3020 RMK AO2 RAE25B41 SLP234 P0002 T00720056=
202011252353 METAR KBLI 252353Z 17004KT 5SM -RA BR FEW023 BKN030 OVC035 08/06 A3017 RMK AO2 SLP225 P0002 60004 T00780056 10078 20072 53024=
202011252253 METAR KBLI 252253Z 00000KT 6SM -RA SCT018 BKN028 OVC036 08/05 A3015 RMK AO2 RAB49 SLP218 P0002 T00780050=
202011252153 METAR KBLI 252153Z 17005KT 10SM FEW018 BKN024 OVC036 08/05 A3012 RMK AO2 RAB11E23B50E53 SLP208 P0000 T00780050=
202011252053 METAR KBLI 252053Z 16007KT 10SM BKN021 BKN026 OVC034 08/04 A3010 RMK AO2 SLP201 T00780044 51020=
202011251953 METAR KBLI 251953Z 18006KT 10SM FEW021 OVC035 08/04 A3008 RMK AO2 SLP195 T00780044=
202011251853 METAR KBLI 251853Z 18003KT 10SM OVC021 08/04 A3007 RMK AO2 SLP192 T00780044=
202011251753 METAR KBLI 251753Z 18004KT 10SM FEW009 OVC019 07/04 A3004 RMK AO2 SLP181 60021 T00720044 10072 20061 52025=
202011251653 METAR KBLI 251653Z 17005KT 10SM FEW009 OVC015 07/04 A3002 RMK AO2 SLP172 T00670044=
202011251553 METAR KBLI 251553Z 16003KT 10SM SCT009 OVC016 06/04 A2999 RMK AO2 SLP165 T00610044=
202011251453 METAR KBLI 251453Z 16007KT 10SM BKN009 OVC016 06/04 A2997 RMK AO2 RAE15 CIG 008V013 SLP156 P0001 60021 T00610044 53013=
202011251423 SPECI KBLI 251423Z AUTO 17004KT 10SM BKN009 OVC016 06/04 A2996 RMK AO2 RAE15 CIG 006V011 P0001 T00610044=
202011251414 SPECI KBLI 251414Z AUTO 17005KT 7SM -RA SCT009 BKN016 OVC023 06/04 A2996 RMK AO2 P0001 T00610044=
202011251353 METAR KBLI 251353Z AUTO 16008KT 6SM -RA BR BKN023 OVC028 06/04 A2995 RMK AO2 SLP150 P0009 T00610044=
202011251253 METAR KBLI 251253Z AUTO 18005KT 4SM RA BR SCT007 BKN020 OVC025 06/04 A2994 RMK AO2 SLP148 P0011 T00610044=
202011251227 SPECI KBLI 251227Z AUTO 18007KT 7SM -RA BKN007 OVC027 06/04 A2994 RMK AO2 P0004 T00610044=
202011251153 METAR KBLI 251153Z AUTO 18008KT 6SM -RA BR FEW008 OVC026 06/04 A2993 RMK AO2 SLP143 P0011 60025 70044 T00610039 10072 20050 51008=
202011251053 METAR KBLI 251053Z AUTO 19008KT 5SM RA BR OVC022 06/04 A2993 RMK AO2 SLP142 P0009 T00610039=
202011250953 METAR KBLI 250953Z AUTO 21003KT 5SM -RA BR FEW014 BKN024 OVC035 06/04 A2991 RMK AO2 RAB01 SLP137 P0005 T00610044=
202011250926 SPECI KBLI 250926Z AUTO 19007KT 6SM -RA BR SCT013 SCT023 OVC031 06/04 A2991 RMK AO2 RAB01 P0002 T00610044=
202011250901 SPECI KBLI 250901Z AUTO 19007KT 10SM -RA BKN012 BKN019 OVC028 07/04 A2991 RMK AO2 RAB01 P0000 T00670039=
202011250853 METAR KBLI 250853Z AUTO 19006KT 10SM BKN016 BKN028 OVC036 07/04 A2991 RMK AO2 SLP135 T00670039 51003=
202011250850 SPECI KBLI 250850Z AUTO 19008KT 10SM SCT016 BKN028 OVC044 07/04 A2991 RMK AO2=
202011250753 METAR KBLI 250753Z AUTO 20004KT 10SM FEW046 BKN110 07/03 A2990 RMK AO2 SLP132 T00720028 401060050=
202011250653 METAR KBLI 250653Z AUTO 17004KT 10SM BKN055 06/03 A2990 RMK AO2 SLP132 T00560028=
202011250553 METAR KBLI 250553Z VRB03KT 10SM CLR 05/03 A2989 RMK AO2 SLP129 60002 T00500028 10078 20050 53012=
202011250453 METAR KBLI 250453Z 19006KT 10SM SCT047 06/03 A2987 RMK AO2 SLP122 T00610028=
202011250422 SPECI KBLI 250422Z 17007KT 10SM SCT021 07/03 A2987 RMK AO2 T00670028=
202011250408 SPECI KBLI 250408Z 17009KT 10SM BKN021 07/03 A2986 RMK AO2 T00670033=
202011250353 METAR KBLI 250353Z 18004KT 10SM FEW021 06/03 A2986 RMK AO2 SLP119 T00610028=
202011250253 METAR KBLI 250253Z 18007KT 10SM CLR 07/03 A2985 RMK AO2 SLP117 60002 T00670033 53016=
202011250153 METAR KBLI 250153Z VRB05G17KT 10SM FEW017 07/04 A2982 RMK AO2 RAE17 SLP105 P0001 T00670039=
202011250053 METAR KBLI 250053Z 19008KT 10SM -RA SCT035 OVC047 07/05 A2980 RMK AO2 SLP101 P0001 T00720050=
202011242353 METAR KBLI 242353Z VRB05KT 5SM -RA BR BKN010 OVC013 08/06 A2981 RMK AO2 SLP104 P0007 60017 T00780061 10106 20078 53015=
202011242253 METAR KBLI 242253Z VRB06KT 4SM RA BR OVC013 09/07 A2979 RMK AO2 PK WND 18028/2157 SLP097 P0008 T00890067=
202011242224 SPECI KBLI 242224Z 21009G21KT 180V240 4SM RA OVC013 09/07 A2977 RMK AO2 PK WND 18028/2157 P0005 T00940067=
202011242153 METAR KBLI 242153Z 19019G35KT 4SM RA OVC019 10/07 A2976 RMK AO2 PK WND 17037/2105 RAB01 SLP085 P0002 T01000067=
202011242053 METAR KBLI 242053Z 19021G38KT 10SM OVC023 11/06 A2977 RMK AO2 PK WND 18038/2053 SLP088 T01060056 56035=
202011241953 METAR KBLI 241953Z 18023G36KT 10SM R16/3500VP6000FT OVC021 11/05 A2979 RMK AO2 PK WND 16039/1933 SLP094 T01060050=
202011241853 METAR KBLI 241853Z 17022G35KT 10SM OVC021 10/05 A2985 RMK AO2 PK WND 19035/1845 SLP117 T01000050=
202011241753 METAR KBLI 241753Z 18019G30KT 10SM OVC024 10/04 A2987 RMK AO2 PK WND 16031/1710 SLP124 T01000044 10100 20083 56025=
202011241653 METAR KBLI 241653Z 17025G36KT 10SM SCT024 OVC075 09/04 A2989 RMK AO2 PK WND 17036/1651 SLP130 T00940039=
202011241553 METAR KBLI 241553Z 16019G33KT 10SM SCT024 OVC075 09/03 A2992 RMK AO2 PK WND 16036/1529 SLP140 T00940033=
202011241453 METAR KBLI 241453Z 17015G27KT 10SM OVC065 09/03 A2995 RMK AO2 PK WND 16028/1427 SLP149 T00940028 56037=
202011241353 METAR KBLI 241353Z AUTO 17014G24KT 10SM OVC060 09/03 A2998 RMK AO2 SLP160 T00940028=
202011241253 METAR KBLI 241253Z AUTO 17016G21KT 10SM FEW048 BKN055 OVC070 09/03 A3002 RMK AO2 SLP174 T00940033=
202011241242 SPECI KBLI 241242Z AUTO 17018G23KT 10SM SCT027 OVC055 09/03 A3003 RMK AO2 T00890033=
202011241153 METAR KBLI 241153Z AUTO 15010G17KT 10SM OVC027 09/04 A3006 RMK AO2 RAE02 SLP186 P0000 60000 70011 T00890039 10089 20072 58016=
202011241119 SPECI KBLI 241119Z AUTO 16011KT 10SM BKN024 OVC050 08/04 A3008 RMK AO2 RAE02 P0000 T00830039=
202011241053 METAR KBLI 241053Z AUTO 16008KT 10SM -RA FEW026 SCT031 OVC050 08/04 A3009 RMK AO2 RAB25 SLP197 P0000 T00830039=
202011240953 METAR KBLI 240953Z AUTO 17010KT 10SM OVC050 08/03 A3010 RMK AO2 SLP199 T00830033=
202011240853 METAR KBLI 240853Z AUTO 18007KT 10SM OVC060 08/03 A3011 RMK AO2 SLP203 T00780033 58010=
202011240753 METAR KBLI 240753Z AUTO 17004KT 10SM OVC070 07/04 A3012 RMK AO2 SLP209 T00720044 400780050=
202011240653 METAR KBLI 240653Z AUTO 18005KT 10SM FEW036 SCT045 OVC065 08/04 A3013 RMK AO2 SLP212 T00780044=
202011240553 METAR KBLI 240553Z 19006KT 10SM SCT027 OVC070 08/04 A3014 RMK AO2 SLP213 T00780044 10078 20072 53012=
202011240453 METAR KBLI 240453Z 19007KT 10SM OVC039 08/05 A3012 RMK AO2 SLP208 T00780050=
202011240401 SPECI KBLI 240401Z 18003KT 10SM SCT013 OVC039 07/04 A3012 RMK AO2 T00720044=
202011240353 METAR KBLI 240353Z 16004KT 10SM BKN013 OVC039 07/04 A3011 RMK AO2 SLP206 T00720044=
202011240253 METAR KBLI 240253Z 17003KT 10SM FEW016 OVC040 07/04 A3010 RMK AO2 SLP201 T00720044 51013=
202011240153 METAR KBLI 240153Z 17004KT 10SM OVC041 07/04 A3009 RMK AO2 SLP198 T00720044=
202011240053 METAR KBLI 240053Z 18005KT 10SM BKN022 OVC043 07/04 A3007 RMK AO2 SLP192 T00720044=
202011232353 METAR KBLI 232353Z 00000KT 10SM OVC015 07/06 A3006 RMK AO2 SLP188 60001 T00720056 10072 20061 51009=
202011232253 METAR KBLI 232253Z 00000KT 10SM SCT007 OVC012 07/06 A3005 RMK AO2 SLP185 T00720056=
202011232153 METAR KBLI 232153Z 00000KT 3SM BR OVC006 07/05 A3003 RMK AO2 RAB12E30 CIG 003V008 SLP178 P0001 T00670050=
202011232058 SPECI KBLI 232058Z 00000KT 1SM R16/6000VP6000FT BR OVC008 07/05 A3002 RMK AO2 CIG 005V012 T00670050=
202011232053 METAR KBLI 232053Z 00000KT 2SM R16/6000VP6000FT BR SCT007 OVC010 07/05 A3002 RMK AO2 SLP173 T00670050 51013=
202011232014 SPECI KBLI 232014Z 00000KT 2 1/2SM HZ SCT007 OVC017 07/04 A3001 RMK AO2 T00720044=
202011231953 METAR KBLI 231953Z 00000KT 10SM OVC016 07/04 A3001 RMK AO2 SLP170 T00720044=
202011231853 METAR KBLI 231853Z 05004KT 10SM OVC023 07/04 A3000 RMK AO2 SLP166 T00670039=
202011231753 METAR KBLI 231753Z 00000KT 10SM SCT015 OVC021 06/04 A2998 RMK AO2 SLP160 60010 T00610039 10078 20050 51023=
202011231653 METAR KBLI 231653Z 05003KT 10SM SCT026 OVC034 06/04 A2996 RMK AO2 SLP153 T00610039=
202011231553 METAR KBLI 231553Z 19003KT 10SM FEW017 SCT035 OVC065 06/03 A2994 RMK AO2 SLP146 T00610028=
202011231500 SPECI KBLI 231500Z 15005KT 10SM FEW028 SCT037 BKN120 06/03 A2992 RMK AO2 T00560028=
202011231453 METAR KBLI 231453Z 16004KT 10SM SCT028 BKN037 OVC120 06/03 A2991 RMK AO2 RAE18 SLP137 P0000 60010 T00610028 53011=
202011231439 SPECI KBLI 231439Z AUTO 15009KT 10SM BKN028 OVC037 06/03 A2991 RMK AO2 RAE18 P0000 T00610028=
202011231353 METAR KBLI 231353Z AUTO 12006KT 10SM -RA FEW027 OVC036 07/03 A2990 RMK AO2 SLP132 P0004 T00670033=
202011231315 SPECI KBLI 231315Z AUTO 15004KT 10SM -RA BKN030 OVC036 07/04 A2990 RMK AO2 P0001 T00670039=
202011231253 METAR KBLI 231253Z AUTO 17008KT 8SM -RA BKN027 OVC035 07/03 A2989 RMK AO2 SLP130 P0006 T00720033=
202011231227 SPECI KBLI 231227Z AUTO 18007KT 150V220 9SM -RA FEW021 OVC029 07/04 A2989 RMK AO2 P0003 T00720039=
202011231206 SPECI KBLI 231206Z AUTO 18009KT 8SM -RA FEW022 OVC031 07/04 A2987 RMK AO2 P0001 T00720039=
202011231153 METAR KBLI 231153Z AUTO 19008KT 10SM -RA BKN026 OVC045 08/04 A2988 RMK AO2 RAB45 SLP126 P0000 60000 70001 T00780039 10078 20056 53004=
202011231103 SPECI KBLI 231103Z AUTO 18005KT 10SM FEW022 BKN029 OVC034 07/04 A2987 RMK AO2 T00670044=
202011231053 METAR KBLI 231053Z AUTO 18006KT 10SM FEW016 BKN030 OVC037 07/04 A2987 RMK AO2 SLP124 T00720039=
202011231049 SPECI KBLI 231049Z AUTO 19006KT 10SM FEW016 BKN030 OVC037 07/04 A2987 RMK AO2=
202011231006 SPECI KBLI 231006Z AUTO 00000KT 9SM OVC015 06/04 A2987 RMK AO2 T00560044=
202011230953 METAR KBLI 230953Z AUTO 00000KT 9SM BKN012 OVC017 06/04 A2987 RMK AO2 SLP122 T00560039=
202011230853 METAR KBLI 230853Z AUTO 00000KT 8SM OVC012 06/04 A2988 RMK AO2 SLP128 T00560039 58006=
202011230821 SPECI KBLI 230821Z AUTO 00000KT 10SM OVC014 06/04 A2989 RMK AO2 T00560039=
202011230753 METAR KBLI 230753Z AUTO 00000KT 10SM OVC020 06/04 A2989 RMK AO2 SLP131 T00560039 400830011=
202011230653 METAR KBLI 230653Z AUTO 00000KT 10SM BKN024 OVC029 06/04 A2990 RMK AO2 SLP133 T00560039=
202011230553 METAR KBLI 230553Z 00000KT 10SM OVC026 06/04 A2990 RMK AO2 SLP135 60000 T00560039 10083 20056 50000=
202011230453 METAR KBLI 230453Z 02003KT 10SM OVC024 06/04 A2991 RMK AO2 RAB10E41 SLP136 P0000 T00560039=
202011230353 METAR KBLI 230353Z 17006KT 10SM OVC026 07/03 A2991 RMK AO2 RAB04E30 SLP137 P0000 T00720028=
202011230253 METAR KBLI 230253Z 16007KT 10SM OVC035 08/02 A2990 RMK AO2 SLP135 60000 T00780022 58007=
202011230153 METAR KBLI 230153Z 14005KT 10SM FEW034 OVC046 08/03 A2991 RMK AO2 RAB0055E08 SLP137 P0000 T00780028=
202011230053 METAR KBLI 230053Z 19009G14KT 10SM OVC036 08/03 A2992 RMK AO2 RAB37E43 SLP141 P0000 T00830028=
202011222353 METAR KBLI 222353Z 12005KT 10SM OVC048 07/03 A2992 RMK AO2 RAB10E26 SLP142 P0000 60001 T00720033 10072 20056 58009=
202011222253 METAR KBLI 222253Z 03004KT 10SM OVC055 07/04 A2994 RMK AO2 RAB15E31 SLP147 P0000 T00670039=
202011222153 METAR KBLI 222153Z 02006KT 10SM OVC050 06/03 A2994 RMK AO2 SLP148 T00610033=
202011222053 METAR KBLI 222053Z 05006KT 10SM FEW047 OVC055 06/03 A2995 RMK AO2 RAB1957E43 SLP151 P0001 60001 T00560033 58013=
202011221953 METAR KBLI 221953Z 06004KT 10SM SCT050 BKN070 OVC085 06/02 A2998 RMK AO2 SLP160 T00560022=
202011221853 METAR KBLI 221853Z 00000KT 10SM FEW060 SCT075 OVC100 06/02 A2999 RMK AO2 SLP164 T00560022=
202011221753 METAR KBLI 221753Z 05004KT 10SM OVC100 06/02 A2999 RMK AO2 SLP164 T00560017 10056 20011 56009=
202011221653 METAR KBLI 221653Z 35004KT 10SM OVC110 04/02 A3000 RMK AO2 SLP168 T00390017=
202011221553 METAR KBLI 221553Z 29005KT 10SM CLR 03/01 A3000 RMK AO2 SLP169 T00280006=
202011221453 METAR KBLI 221453Z 00000KT 10SM CLR 02/00 A3002 RMK AO2 SLP173 T00170000 56014=
202011221353 METAR KBLI 221353Z AUTO 12003KT 10SM CLR 02/00 A3004 RMK AO2 SLP180 T00170000=
202011221253 METAR KBLI 221253Z AUTO 12005KT 10SM CLR 02/00 A3003 RMK AO2 SLP178 T00170000=
202011221153 METAR KBLI 221153Z AUTO 31003KT 10SM CLR 02/01 A3006 RMK AO2 SLP187 T00220006 10039 20017 56031=
202011221053 METAR KBLI 221053Z AUTO 01003KT 10SM CLR 02/00 A3008 RMK AO2 SLP194 T00220000=
202011220953 METAR KBLI 220953Z AUTO 00000KT 10SM CLR 02/01 A3012 RMK AO2 SLP207 T00220006=
202011220853 METAR KBLI 220853Z AUTO 03003KT 10SM CLR 02/01 A3015 RMK AO2 SLP217 T00170006 58027=
202011220753 METAR KBLI 220753Z AUTO 08003KT 10SM CLR 02/00 A3018 RMK AO2 SLP229 T00220000 401000017=
202011220653 METAR KBLI 220653Z AUTO 00000KT 10SM CLR 03/01 A3021 RMK AO2 SLP238 T00330011=
202011220553 METAR KBLI 220553Z 04004KT 10SM CLR 03/01 A3023 RMK AO2 SLP246 T00330011 10078 20033 58017=
202011220453 METAR KBLI 220453Z 03003KT 10SM CLR 04/01 A3025 RMK AO2 SLP253 T00390011=
202011220353 METAR KBLI 220353Z 34004KT 10SM CLR 04/02 A3026 RMK AO2 SLP258 T00390017=
202011220253 METAR KBLI 220253Z 03004KT 10SM CLR 05/03 A3028 RMK AO2 SLP263 T00500028 56028=
202011220153 METAR KBLI 220153Z 04004KT 10SM CLR 06/03 A3031 RMK AO2 SLP272 T00560033=
202011220053 METAR KBLI 220053Z 04007KT 10SM CLR 07/04 A3033 RMK AO2 SLP279 T00720039=
202011212353 METAR KBLI 212353Z 04007KT 10SM CLR 08/04 A3036 RMK AO2 SLP290 T00780044 10100 20067 56026=
202011212253 METAR KBLI 212253Z 02008KT 10SM CLR 08/04 A3038 RMK AO2 SLP297 T00830044=
202011212153 METAR KBLI 212153Z 04008KT 10SM CLR 09/04 A3042 RMK AO2 SLP308 T00940044=
202011212053 METAR KBLI 212053Z 05010KT 10SM CLR 10/04 A3044 RMK AO2 SLP317 T01000044 58018=
202011211953 METAR KBLI 211953Z 04007KT 10SM FEW049 08/06 A3047 RMK AO2 SLP325 T00830056=
202011211853 METAR KBLI 211853Z 03006KT 10SM OVC050 07/04 A3048 RMK AO2 SLP331 T00720044=
202011211804 SPECI KBLI 211804Z 35003KT 10SM SCT020 OVC050 07/04 A3050 RMK AO2 T00720044=
202011211753 METAR KBLI 211753Z 00000KT 10SM BKN020 OVC050 07/04 A3050 RMK AO2 SLP335 T00670044 10072 20028 51008=
202011211653 METAR KBLI 211653Z 00000KT 10SM SCT020 OVC048 04/03 A3049 RMK AO2 SLP334 T00440033=
202011211553 METAR KBLI 211553Z 00000KT 10SM R16/4500VP6000FT FEW017 FEW050 03/02 A3048 RMK AO2 SLP330 T00330022=
202011211543 SPECI KBLI 211543Z 00000KT 10SM FEW017 BKN050 04/03 A3048 RMK AO2 T00440028=
202011211514 SPECI KBLI 211514Z 09003KT 10SM BKN017 04/03 A3048 RMK AO2 T00440028=
202011211507 SPECI KBLI 211507Z 00000KT 1 3/4SM BR BKN017 04/03 A3047 RMK AO2 VIS 3/4V5 T00440033=
202011211453 METAR KBLI 211453Z 00000KT 10SM OVC015 06/04 A3047 RMK AO2 SLP327 T00560044 51007=
202011211416 SPECI KBLI 211416Z AUTO 00000KT 10SM OVC015 06/04 A3047 RMK AO2 T00560039=
202011211358 SPECI KBLI 211358Z AUTO 00000KT 7SM BKN013 04/03 A3047 RMK AO2 T00390028=
202011211353 METAR KBLI 211353Z AUTO 00000KT 3SM BR SCT015 04/02 A3047 RMK AO2 SLP326 T00390022=
202011211307 SPECI KBLI 211307Z AUTO 00000KT 1 3/4SM BR FEW031 04/03 A3047 RMK AO2 VIS 3/4V5 T00440033=
202011211253 METAR KBLI 211253Z AUTO 16003KT 6SM BR BKN031 06/04 A3047 RMK AO2 SLP326 T00560039=
202011211246 SPECI KBLI 211246Z AUTO 00000KT 7SM OVC030 06/05 A3047 RMK AO2 T00610050=
202011211153 METAR KBLI 211153Z AUTO 00000KT 10SM OVC025 07/06 A3045 RMK AO2 SLP320 60004 70020 T00720056 10089 20067 51005=
202011211053 METAR KBLI 211053Z AUTO 00000KT 10SM OVC022 08/06 A3045 RMK AO2 SLP319 T00780061=
202011210953 METAR KBLI 210953Z AUTO 19003KT 10SM BKN019 OVC028 07/06 A3044 RMK AO2 SLP318 T00720056=
202011210940 SPECI KBLI 210940Z AUTO 00000KT 10SM FEW019 BKN028 07/06 A3045 RMK AO2 T00720056=
202011210924 SPECI KBLI 210924Z AUTO 00000KT 10SM FEW020 08/06 A3044 RMK AO2 T00780061=
202011210900 SPECI KBLI 210900Z AUTO 20004KT 10SM BKN015 BKN023 08/07 A3044 RMK AO2 T00830067=
202011210853 METAR KBLI 210853Z AUTO VRB05KT 10SM BKN014 BKN022 09/07 A3044 RMK AO2 SLP315 60004 T00890067 53011=
202011210826 SPECI KBLI 210826Z AUTO VRB04KT 10SM BKN014 OVC041 09/07 A3043 RMK AO2 T00890067=
202011210818 SPECI KBLI 210818Z AUTO 20006KT 10SM SCT014 BKN022 BKN041 09/07 A3043 RMK AO2 T00890067=
202011210753 METAR KBLI 210753Z AUTO 19005KT 10SM SCT024 08/07 A3043 RMK AO2 RAE06 SLP312 P0000 T00830067 401060083=
202011210725 SPECI KBLI 210725Z AUTO 18007KT 10SM FEW009 SCT050 08/06 A3041 RMK AO2 RAE06 P0000 T00830061=
202011210712 SPECI KBLI 210712Z AUTO 17007KT 10SM SCT013 BKN050 08/07 A3042 RMK AO2 RAE06 P0000 T00830067=
202011210653 METAR KBLI 210653Z AUTO VRB05KT 8SM -RA OVC016 09/07 A3041 RMK AO2 SLP307 P0004 T00890067=
202011210553 METAR KBLI 210553Z VRB06G16KT 6SM -RA BKN015 OVC025 09/06 A3040 RMK AO2 SLP304 P0005 60015 T00940061 10100 20089 53013=
202011210453 METAR KBLI 210453Z 18007G16KT 8SM -RA SCT020 BKN027 OVC037 09/06 A3039 RMK AO2 SLP298 P0001 T00940061=
202011210353 METAR KBLI 210353Z 18010KT 8SM -RA BKN025 OVC040 09/06 A3038 RMK AO2 SLP294 P0001 T00940061=
202011210253 METAR KBLI 210253Z 18009KT 8SM -RA BKN025 BKN035 OVC045 09/06 A3037 RMK AO2 SLP292 P0002 60008 T00890061 51007=
202011210153 METAR KBLI 210153Z 18009KT 5SM -RA BKN022 OVC034 09/06 A3036 RMK AO2 RAB0059 SLP290 P0006 T00890061=
202011210143 SPECI KBLI 210143Z 20007KT 170V230 4SM RA BKN021 OVC034 09/06 A3037 RMK AO2 RAB0059 P0005 T00940061=
202011210053 METAR KBLI 210053Z 19010G17KT 10SM FEW020 SCT028 BKN060 10/05 A3035 RMK AO2 RAB30E53 SLP286 P0000 T01000050=
202011202353 METAR KBLI 202353Z 19012G18KT 10SM OVC075 10/04 A3035 RMK AO2 RAB33E44 SLP285 P0000 60000 T01000044 10106 20094 55006=
202011202253 METAR KBLI 202253Z 18014G22KT 10SM FEW055 OVC100 10/04 A3035 RMK AO2 SLP284 T01000044=
202011202153 METAR KBLI 202153Z 18012G18KT 10SM SCT065 BKN110 10/04 A3036 RMK AO2 SLP288 T01000044=
202011202053 METAR KBLI 202053Z 18010G20KT 10SM SCT020 OVC070 10/04 A3036 RMK AO2 SLP290 60000 T01000044 58007=
202011202012 SPECI KBLI 202012Z 18012G20KT 10SM FEW025 BKN065 BKN075 10/04 A3037 RMK AO2 T01000044=
202011201953 METAR KBLI 201953Z 18013G21KT 10SM BKN025 BKN060 OVC080 10/04 A3038 RMK AO2 SLP295 T01000044=
202011201853 METAR KBLI 201853Z 18013G20KT 10SM BKN023 OVC070 10/04 A3039 RMK AO2 RAE08 SLP299 P0000 T01000044=
202011201753 METAR KBLI 201753Z 18011G21KT 10SM -RA SCT025 OVC070 09/04 A3039 RMK AO2 RAB44 SLP298 P0000 60001 T00940044 10100 20083 50000=
202011201653 METAR KBLI 201653Z 18010KT 10SM OVC022 09/04 A3040 RMK AO2 SLP302 T00940044=
202011201553 METAR KBLI 201553Z 19008KT 10SM OVC023 09/04 A3040 RMK AO2 SLP301 T00940044=
202011201453 METAR KBLI 201453Z 17008KT 10SM OVC019 09/05 A3039 RMK AO2 SLP298 60001 T00890050 55000=
202011201353 METAR KBLI 201353Z AUTO 18007KT 10SM BKN021 BKN031 OVC065 08/04 A3038 RMK AO2 RAB12E26 SLP297 P0000 T00830044=
202011201253 METAR KBLI 201253Z AUTO 17012KT 10SM FEW039 OVC060 08/04 A3039 RMK AO2 RAB17E49 SLP299 P0001 T00830044=
202011201153 METAR KBLI 201153Z AUTO 17009KT 10SM FEW038 OVC050 08/04 A3039 RMK AO2 SLP299 70001 T00830044 10089 20083 52009=
202011201053 METAR KBLI 201053Z AUTO 17010KT 10SM BKN042 BKN055 OVC075 09/04 A3038 RMK AO2 SLP295 T00890044=
202011200953 METAR KBLI 200953Z AUTO 18010KT 10SM BKN044 08/04 A3037 RMK AO2 SLP293 T00830039=
202011200853 METAR KBLI 200853Z AUTO 18010G19KT 10SM BKN050 OVC060 09/04 A3036 RMK AO2 SLP290 T00890039 51010=
202011200801 SPECI KBLI 200801Z AUTO 17013G22KT 10SM SCT022 BKN050 OVC070 09/04 A3035 RMK AO2 T00890039=
202011200753 METAR KBLI 200753Z AUTO 17016G22KT 10SM BKN020 BKN065 OVC100 09/04 A3035 RMK AO2 SLP287 T00890039 400940039=
202011200700 SPECI KBLI 200700Z AUTO 18012KT 10SM OVC021 09/04 A3034 RMK AO2 T00890039=
202011200653 METAR KBLI 200653Z AUTO 17011KT 10SM SCT027 OVC070 09/04 A3034 RMK AO2 SLP283 T00890039=
202011200553 METAR KBLI 200553Z 17012G20KT 10SM SCT027 BKN070 BKN110 09/03 A3033 RMK AO2 SLP279 T00890033 10089 20083 53010=
202011200453 METAR KBLI 200453Z 17011KT 10SM SCT025 BKN070 BKN095 08/03 A3032 RMK AO2 SLP276 T00830033=
202011200353 METAR KBLI 200353Z 18007KT 10SM FEW048 BKN065 OVC090 08/04 A3031 RMK AO2 SLP272 T00830039=
202011200253 METAR KBLI 200253Z 17011KT 10SM SCT030 BKN060 09/04 A3030 RMK AO2 SLP269 T00890039 51014=
202011200153 METAR KBLI 200153Z 16011KT 10SM FEW038 BKN055 08/04 A3029 RMK AO2 SLP266 T00830039=
202011200053 METAR KBLI 200053Z 17011G16KT 10SM SCT020 SCT030 BKN040 09/04 A3028 RMK AO2 SLP262 T00890039=
202011192353 METAR KBLI 192353Z 18007KT 10SM SCT048 BKN060 OVC070 09/04 A3026 RMK AO2 SLP255 T00890039 10094 20078 51009=
202011192253 METAR KBLI 192253Z 19007KT 10SM FEW024 SCT032 OVC065 09/03 A3025 RMK AO2 SLP252 T00890033=
202011192153 METAR KBLI 192153Z 18007KT 10SM BKN060 OVC075 08/04 A3025 RMK AO2 SLP250 T00830044=
202011192053 METAR KBLI 192053Z 18009KT 10SM FEW050 BKN060 09/04 A3023 RMK AO2 SLP246 T00890044 51018=
202011191953 METAR KBLI 191953Z 19012KT 10SM FEW050 BKN060 09/05 A3022 RMK AO2 SLP242 T00890050=
202011191853 METAR KBLI 191853Z 19008G15KT 10SM BKN055 08/03 A3021 RMK AO2 SLP238 T00830033=
202011191753 METAR KBLI 191753Z 18009KT 10SM FEW045 08/03 A3018 RMK AO2 SLP228 60001 T00830033 10083 20039 51037=
202011191653 METAR KBLI 191653Z 19004KT 10SM SCT045 07/04 A3015 RMK AO2 RAE29 SLP218 P0001 T00720039=
202011191553 METAR KBLI 191553Z 20004KT 9SM -RA SCT044 OVC055 07/03 A3012 RMK AO2 RAB29 SLP206 P0000 T00720033=
202011191453 METAR KBLI 191453Z 16003KT 10SM FEW070 06/02 A3007 RMK AO2 SLP192 T00610022 53039=
202011191353 METAR KBLI 191353Z AUTO 19005KT 10SM CLR 07/02 A3003 RMK AO2 SLP178 T00670022=
202011191253 METAR KBLI 191253Z AUTO 20005KT 10SM CLR 07/03 A2999 RMK AO2 SLP165 T00720028=
202011191153 METAR KBLI 191153Z AUTO 20007KT 10SM CLR 08/04 A2996 RMK AO2 SLP152 60011 70059 T00780039 10083 20078 52027=
202011191053 METAR KBLI 191053Z AUTO 19008KT 10SM FEW026 BKN045 OVC085 08/05 A2993 RMK AO2 SLP143 T00780050=
202011191045 SPECI KBLI 191045Z AUTO 19009G17KT 10SM FEW020 SCT028 BKN045 08/05 A2993 RMK AO2 T00780050=
202011190953 METAR KBLI 190953Z AUTO 18009KT 10SM BKN020 OVC030 08/05 A2990 RMK AO2 SLP134 T00780050=
202011190915 SPECI KBLI 190915Z AUTO 18008KT 10SM FEW022 BKN027 OVC060 08/06 A2989 RMK AO2 T00780056=
202011190853 METAR KBLI 190853Z AUTO 19008KT 10SM SCT026 BKN039 OVC085 08/06 A2988 RMK AO2 RAB21E28 SLP125 P0000 60011 T00780056 51031=
202011190753 METAR KBLI 190753Z AUTO 20007KT 10SM BKN032 OVC060 08/06 A2985 RMK AO2 RAE26 SLP116 P0004 T00780056 401000072=
202011190735 SPECI KBLI 190735Z AUTO VRB05KT 10SM FEW012 BKN034 OVC060 08/06 A2984 RMK AO2 RAE26 P0004 T00780056=
202011190653 METAR KBLI 190653Z AUTO 20008G15KT 6SM -RA BR SCT010 BKN023 OVC030 08/06 A2982 RMK AO2 RAB0554 SLP107 P0007 T00780056=
202011190553 METAR KBLI 190553Z 19010G18KT 10SM BKN022 OVC028 08/06 A2979 RMK AO2 RAB02E36 SLP094 P0000 60019 T00830056 10089 20078 51032=
202011190510 SPECI KBLI 190510Z 18012KT 10SM -RA SCT011 BKN022 OVC029 08/06 A2977 RMK AO2 RAB02 P0000 T00830056=
202011190453 METAR KBLI 190453Z 18011G21KT 10SM BKN011 BKN032 OVC039 08/06 A2976 RMK AO2 RAE34 SLP086 P0002 T00830061=
202011190437 SPECI KBLI 190437Z 18010KT 10SM FEW009 SCT027 OVC041 08/06 A2975 RMK AO2 RAE34 P0002 T00830061=
202011190423 SPECI KBLI 190423Z 18008KT 10SM -RA SCT011 SCT034 OVC041 08/06 A2974 RMK AO2 P0002 T00830061=
202011190414 SPECI KBLI 190414Z 19009KT 8SM -RA FEW009 BKN012 OVC040 08/06 A2974 RMK AO2 P0002 T00830056=
202011190402 SPECI KBLI 190402Z 19009G18KT 10SM -RA BKN014 OVC023 08/05 A2973 RMK AO2 P0001 T00830050=
202011190353 METAR KBLI 190353Z 19007KT 150V220 10SM -RA BKN015 OVC023 08/05 A2973 RMK AO2 RAB43 SLP075 P0000 T00830050=
202011190345 SPECI KBLI 190345Z 20007G15KT 10SM -RA BKN015 BKN022 OVC029 08/05 A2972 RMK AO2 RAB43 P0000 T00830050=
202011190337 SPECI KBLI 190337Z 20007G16KT 10SM BKN014 BKN022 OVC043 08/05 A2972 RMK AO2 T00830050=
202011190300 SPECI KBLI 190300Z 20007KT 10SM OVC042 08/04 A2969 RMK AO2 T00830044=
202011190253 METAR KBLI 190253Z 20008KT 6SM FEW008 BKN013 OVC039 08/04 A2969 RMK AO2 RAE10 SLP062 P0000 60017 T00830044 53031=
202011190200 SPECI KBLI 190200Z 19006KT 6SM -RA BR FEW008 BKN013 OVC039 08/06 A2966 RMK AO2 P0000 T00780056=
202011190153 METAR KBLI 190153Z 19006KT 6SM -RA BR BKN010 OVC034 08/06 A2965 RMK AO2 SLP049 P0013 T00780061=
202011190122 SPECI KBLI 190122Z 19013G22KT 4SM RA BKN013 OVC021 08/06 A2963 RMK AO2 P0004 T00830056=
202011190053 METAR KBLI 190053Z 18013KT 10SM -RA SCT018 BKN026 OVC046 08/06 A2961 RMK AO2 SLP036 P0004 T00830056=
202011182353 METAR KBLI 182353Z 18007KT 9SM -RA SCT018 BKN026 OVC046 09/06 A2960 RMK AO2 SLP030 P0003 60006 T00890061 10100 20078 51014=
202011182253 METAR KBLI 182253Z 17010KT 10SM -RA SCT018 BKN026 OVC046 09/06 A2959 RMK AO2 SLP026 P0002 T00940061=
202011182153 METAR KBLI 182153Z 18013G20KT 10SM -RA OVC018 09/06 A2958 RMK AO2 RAB27 SLP024 P0000 T00940056=
202011182053 METAR KBLI 182053Z 17017G23KT 10SM OVC020 10/06 A2956 RMK AO2 PK WND 17027/1958 RAE13B37E46 SLP016 P0000 60001 T01000056 53006=
202011181953 METAR KBLI 181953Z 18019G28KT 10SM -RA OVC028 10/06 A2954 RMK AO2 PK WND 17028/1944 SLP010 P0001 T01000056=
202011181853 METAR KBLI 181853Z 16012G17KT 10SM -RA OVC028 09/06 A2954 RMK AO2 RAB06 SLP009 P0000 T00940056=
202011181851 SPECI KBLI 181851Z 17010G17KT 10SM -RA OVC028 09/06 A2954 RMK AO2 RAB06 P0000=
202011181753 METAR KBLI 181753Z 06004KT 10SM SCT037 OVC055 08/06 A2954 RMK AO2 RAE43 SLP011 P0002 60023 T00780061 10100 20072 56007=
202011181653 METAR KBLI 181653Z 06005KT 10SM -RA SCT040 OVC055 08/06 A2954 RMK AO2 SLP012 P0001 T00780056=
202011181553 METAR KBLI 181553Z 04005KT 10SM -RA FEW036 SCT043 07/06 A2955 RMK AO2 SLP014 P0007 T00720056=
202011181453 METAR KBLI 181453Z 08005KT 6SM -RA BR OVC037 08/06 A2956 RMK AO2 SLP018 P0007 60013 T00780061 57012=
202011181353 METAR KBLI 181353Z AUTO 05005KT 10SM -RA OVC038 08/06 A2957 RMK AO2 RAB1258 SLP023 P0006 T00780061=
202011181253 METAR KBLI 181253Z AUTO 16003KT 10SM FEW049 BKN060 OVC080 09/05 A2958 RMK AO2 RAE28 SLP025 P0000 T00940050=
202011181153 METAR KBLI 181153Z AUTO 14007KT 10SM -RA BKN055 OVC070 10/04 A2960 RMK AO2 RAB48 SLP029 P0000 60000 70050 T01000044 10100 20089 58006=
202011181053 METAR KBLI 181053Z AUTO 17011KT 10SM OVC100 09/04 A2961 RMK AO2 SLP033 T00940044=
202011180953 METAR KBLI 180953Z AUTO 15012KT 10SM SCT080 OVC110 09/04 A2962 RMK AO2 SLP037 T00890044=
202011180853 METAR KBLI 180853Z AUTO 17011KT 10SM SCT090 09/06 A2962 RMK AO2 SLP035 T00890056 51022=
202011180753 METAR KBLI 180753Z AUTO 18012G19KT 10SM CLR 10/06 A2961 RMK AO2 SLP032 T01000061 401670050=
202011180735 SPECI KBLI 180735Z AUTO 19011G20KT 10SM FEW018 SCT029 BKN060 10/07 A2960 RMK AO2 T01000067=
202011180706 SPECI KBLI 180706Z AUTO 18012KT 10SM BKN020 BKN027 OVC075 10/07 A2960 RMK AO2 T01000067=
202011180653 METAR KBLI 180653Z AUTO 18010KT 10SM FEW021 SCT055 OVC070 09/07 A2960 RMK AO2 SLP029 T00940072=
202011180553 METAR KBLI 180553Z 18007KT 10SM FEW070 SCT095 BKN120 09/07 A2955 RMK AO2 RAE36 SLP013 P0009 60049 T00890067 10122 20089 53023=
202011180453 METAR KBLI 180453Z 19007KT 4SM -RA BR FEW031 BKN039 OVC048 09/07 A2951 RMK AO2 SLP001 P0011 T00890072=
202011180432 SPECI KBLI 180432Z 19006KT 2SM RA BR BKN032 OVC042 09/08 A2950 RMK AO2 P0006 T00890078=
202011180404 SPECI KBLI 180404Z 18008KT 4SM -RA BR BKN030 OVC036 09/08 A2948 RMK AO2 P0000 T00940078=
202011180353 METAR KBLI 180353Z 17008KT 3SM -RA BR BKN029 OVC036 09/08 A2948 RMK AO2 SLP991 P0003 T00940078=
202011180351 SPECI KBLI 180351Z 18008KT 3SM -RA BR BKN029 OVC036 09/08 A2948 RMK AO2 P0003=
202011180325 SPECI KBLI 180325Z 18008KT 7SM -RA FEW007 SCT016 OVC031 10/08 A2947 RMK AO2 P0002 T01000078=
202011180300 SPECI KBLI 180300Z 00000KT 3SM -RA BR FEW009 OVC016 10/09 A2945 RMK AO2 P0001 T01000089=
202011180253 METAR KBLI 180253Z 00000KT 2SM RA BR FEW012 OVC018 10/08 A2945 RMK AO2 SLP979 P0023 60026 T01000083 53026=
202011180222 SPECI KBLI 180222Z 20008KT 150V250 5SM +RA BR SCT008 BKN015 OVC020 10/08 A2942 RMK AO2 P0015 T01000083=
202011180153 METAR KBLI 180153Z 19012G20KT 6SM -RA BKN019 BKN025 OVC031 11/08 A2940 RMK AO2 RAB15 SLP963 P0003 T01110083=
202011180053 METAR KBLI 180053Z 18012G20KT 10SM BKN017 OVC027 12/08 A2939 RMK AO2 SLP960 T01220083=
202011172353 METAR KBLI 172353Z 19013G23KT 10SM BKN027 OVC035 13/08 A2937 RMK AO2 RAE20 SLP951 P0000 60001 T01280083 10156 20128 51040=
202011172253 METAR KBLI 172253Z 18014G22KT 10SM -RA SCT021 BKN025 OVC030 13/08 A2935 RMK AO2 PK WND 18029/2158 RAB44 SLP944 P0000 T01280083=
202011172153 METAR KBLI 172153Z 19018G27KT 10SM BKN027 OVC080 13/08 A2931 RMK AO2 PK WND 19041/2103 SLP933 T01330083=
202011172053 METAR KBLI 172053Z 18024G35KT 10SM FEW025 SCT040 BKN060 14/08 A2925 RMK AO2 PK WND 19041/2030 RAE22 SLP912 P0001 60001 T01440083 50004=
202011171953 METAR KBLI 171953Z 19020G32KT 10SM -RA FEW043 BKN050 OVC060 15/07 A2925 RMK AO2 PK WND 17049/1918 RAB07E17B53 SLP913 P0000 T01500072=
202011171853 METAR KBLI 171853Z 17027G41KT 10SM FEW080 BKN100 BKN120 15/07 A2924 RMK AO2 PK WND 17049/1819 RAB19E28 SLP907 P0000 T01500072=
202011171753 METAR KBLI 171753Z 17023G45KT 10SM FEW050 16/07 A2924 RMK AO2 PK WND 17045/1751 RAB1657E34 SLP908 P0000 60000 T01560067 10167 20050 50013=
202011171653 METAR KBLI 171653Z 17018G27KT 10SM FEW050 BKN075 OVC095 15/06 A2926 RMK AO2 PK WND 18027/1643 SLP913 T01500056=
202011171553 METAR KBLI 171553Z VRB03KT 10SM FEW050 07/04 A2925 RMK AO2 SLP912 T00720039=
202011171453 METAR KBLI 171453Z 00000KT 10SM FEW050 06/04 A2920 RMK AO2 PRESFR SLP896 T00610039 58054=
202011171353 METAR KBLI 171353Z AUTO 00000KT 10SM CLR 06/04 A2929 RMK AO2 PRESFR SLP927 T00560039=
202011171253 METAR KBLI 171253Z AUTO 00000KT 10SM CLR 06/04 A2933 RMK AO2 SLP941 T00610039=
202011171153 METAR KBLI 171153Z AUTO 05006KT 10SM CLR 07/03 A2936 RMK AO2 SLP950 70064 T00720033 10078 20067 58042=
202011171053 METAR KBLI 171053Z AUTO 05004KT 10SM CLR 07/03 A2942 RMK AO2 PRESFR SLP970 T00720033=
202011170953 METAR KBLI 170953Z AUTO 03007KT 10SM CLR 07/03 A2947 RMK AO2 SLP986 T00720033=
202011170853 METAR KBLI 170853Z AUTO 02007KT 10SM CLR 07/03 A2949 RMK AO2 SLP992 T00720033 58037=
202011170753 METAR KBLI 170753Z AUTO 03010KT 10SM CLR 07/03 A2952 RMK AO2 SLP006 T00720033 400720061=
202011170653 METAR KBLI 170653Z AUTO 02009KT 10SM CLR 07/04 A2957 RMK AO2 SLP020 T00720039=
202011170553 METAR KBLI 170553Z 02007KT 10SM CLR 07/04 A2960 RMK AO2 SLP030 60009 T00720044 10072 20067 56023=
202011170532 SPECI KBLI 170532Z 02006KT 10SM FEW045 07/04 A2960 RMK AO2 T00720044=
202011170453 METAR KBLI 170453Z 03007KT 7SM OVC026 07/04 A2961 RMK AO2 SLP033 T00720044=
202011170353 METAR KBLI 170353Z 02005KT 6SM BR OVC026 07/05 A2964 RMK AO2 RAE0257 SLP044 P0000 T00720050=
202011170253 METAR KBLI 170253Z 05006KT 6SM -RA BR OVC020 07/05 A2966 RMK AO2 SLP053 P0000 60009 T00670050 56029=
202011170153 METAR KBLI 170153Z 05010KT 8SM -RA OVC023 07/04 A2968 RMK AO2 SLP058 P0002 T00670044=
202011170053 METAR KBLI 170053Z 05010KT 5SM -RA BR OVC028 07/04 A2972 RMK AO2 SLP071 P0007 T00670044=
202011170046 SPECI KBLI 170046Z 04011KT 5SM RA BR OVC028 07/04 A2973 RMK AO2 P0006 T00670044=
202011162353 METAR KBLI 162353Z 05013KT 4SM RA BR OVC037 07/04 A2975 RMK AO2 SLP082 P0016 60055 T00670044 10072 20061 58054=
202011162253 METAR KBLI 162253Z 05012KT 4SM RA BR OVC043 07/04 A2980 RMK AO2 SLP101 P0017 T00670044=
202011162153 METAR KBLI 162153Z 05010KT 4SM RA FEW005 SCT023 OVC045 07/04 A2986 RMK AO2 SLP119 P0013 T00670039=
202011162053 METAR KBLI 162053Z 04010KT 5SM -RA FEW005 SCT023 OVC045 07/04 A2991 RMK AO2 SLP136 P0006 60009 T00670039 58039 $=
202011161953 METAR KBLI 161953Z 04007KT 10SM -RA OVC050 07/04 A2996 RMK AO2 SLP153 P0001 T00720044 $=
202011161853 METAR KBLI 161853Z 07004KT 10SM -RA SCT023 OVC045 07/05 A3001 RMK AO2 SLP169 P0002 T00720050 $=
202011161758 SPECI KBLI 161758Z 04008KT 10SM -RA SCT039 OVC050 07/04 A3003 RMK AO2 P0000 T00670039 $=
202011161753 METAR KBLI 161753Z 05008KT 10SM -RA OVC038 07/04 A3003 RMK AO2 RAB44 SLP176 P0000 60000 T00670039 10067 20061 56020 $=
202011161653 METAR KBLI 161653Z 02009KT 10SM OVC039 07/03 A3004 RMK AO2 SLP182 T00670033=
202011161553 METAR KBLI 161553Z 04007KT 10SM OVC039 06/03 A3006 RMK AO2 SLP188 T00610033=
202011161453 METAR KBLI 161453Z 04006KT 10SM OVC035 06/03 A3008 RMK AO2 SLP195 T00610033 56012=
202011161353 METAR KBLI 161353Z AUTO 04005KT 10SM OVC036 06/04 A3009 RMK AO2 SLP199 T00610039 $=
202011161253 METAR KBLI 161253Z AUTO 04007KT 10SM SCT030 OVC043 06/04 A3011 RMK AO2 SLP203 T00610044 $=
202011161201 SPECI KBLI 161201Z AUTO 03005KT 10SM BKN027 OVC033 06/04 A3011 RMK AO2 T00610044 $=
202011161153 METAR KBLI 161153Z AUTO 02005KT 10SM BKN030 06/04 A3012 RMK AO2 SLP207 60000 70025 T00610044 10072 20061 58005 $=
202011161146 SPECI KBLI 161146Z AUTO 02005KT 10SM BKN030 06/04 A3012 RMK AO2 T00610044 $=
202011161131 SPECI KBLI 161131Z AUTO 02005KT 10SM BKN028 06/04 A3012 RMK AO2 T00610044 $=
202011161101 SPECI KBLI 161101Z AUTO 36003KT 10SM BKN030 OVC035 07/05 A3012 RMK AO2 T00670050 $=
202011161053 METAR KBLI 161053Z AUTO 35004KT 10SM OVC028 06/05 A3013 RMK AO2 SLP209 T00610050 $=
202011161017 SPECI KBLI 161017Z AUTO 00000KT 10SM BKN025 BKN032 OVC070 07/06 A3012 RMK AO2 T00720056 $=
202011160953 METAR KBLI 160953Z AUTO 00000KT 10SM FEW029 SCT049 OVC060 07/06 A3013 RMK AO2 RAE04 SLP211 P0000 T00720056 $=
202011160853 METAR KBLI 160853Z AUTO 00000KT 10SM -RA OVC065 07/04 A3013 RMK AO2 RAB05E21B53 SLP212 P0000 60000 T00670044 50009 $=
202011160753 METAR KBLI 160753Z AUTO 00000KT 10SM SCT024 BKN032 OVC100 07/05 A3013 RMK AO2 SLP212 T00670050 401110061 $=
202011160732 SPECI KBLI 160732Z AUTO 00000KT 10SM SCT029 BKN037 OVC100 06/05 A3013 RMK AO2 T00610050 $=
202011160719 SPECI KBLI 160719Z AUTO 00000KT 10SM FEW022 BKN029 OVC039 07/05 A3013 RMK AO2 T00670050 $=
202011160710 SPECI KBLI 160710Z AUTO 00000KT 10SM SCT022 BKN030 OVC039 07/05 A3013 RMK AO2 T00670050 $=
202011160653 METAR KBLI 160653Z AUTO 00000KT 10SM SCT022 BKN029 OVC065 07/05 A3013 RMK AO2 SLP209 T00670050 $=
202011160553 METAR KBLI 160553Z 00000KT 10SM FEW080 BKN100 07/05 A3011 RMK AO2 RAB02E27 SLP203 P0001 60008 T00720050 10089 20067 51015 $=
202011160453 METAR KBLI 160453Z 16003KT 10SM SCT047 BKN100 07/06 A3010 RMK AO2 RAB13E38 SLP200 P0001 T00720056 $=
202011160353 METAR KBLI 160353Z 19005KT 10SM FEW039 BKN048 BKN100 08/05 A3008 RMK AO2 RAB09E53 SLP193 P0001 T00830050 $=
202011160253 METAR KBLI 160253Z 18004KT 10SM OVC120 07/04 A3006 RMK AO2 SLP188 60005 T00720044 51017 $=
202011160153 METAR KBLI 160153Z 19005KT 10SM SCT046 BKN065 OVC120 08/05 A3004 RMK AO2 RAE17 SLP180 P0003 T00830050 $=
202011160125 SPECI KBLI 160125Z 17005KT 10SM FEW033 SCT065 SCT090 08/05 A3003 RMK AO2 RAE17 P0003 T00780050 $=
202011160053 METAR KBLI 160053Z 21009G20KT 190V260 4SM -RA FEW018 BKN040 OVC055 09/05 A3004 RMK AO2 RAB38 PRESRR SLP180 P0002 T00890050 $=
202011152353 METAR KBLI 152353Z 20004KT 10SM FEW027 08/05 A3001 RMK AO2 RAE46 SLP171 P0005 60008 T00780050 10111 20078 51022 $=
202011152253 METAR KBLI 152253Z 20008KT 10SM -RA BKN038 BKN045 OVC090 09/05 A3000 RMK AO2 RAB18 SLP165 P0002 T00890050 $=
202011152153 METAR KBLI 152153Z 20011G17KT 10SM SCT034 SCT060 BKN120 10/04 A2997 RMK AO2 RAB10E27 SLP156 P0001 T01000044 $=
202011152053 METAR KBLI 152053Z 18011G18KT 10SM FEW049 BKN055 OVC095 11/04 A2995 RMK AO2 SLP149 T01060039 51018 $=
202011151953 METAR KBLI 151953Z 17011G18KT 10SM FEW038 11/04 A2995 RMK AO2 SLP148 T01110039 $=
202011151853 METAR KBLI 151853Z 20011KT 10SM FEW041 10/04 A2993 RMK AO2 SLP143 T01000044 $=
202011151753 METAR KBLI 151753Z 18009G17KT 10SM FEW015 SCT040 09/04 A2989 RMK AO2 RAE16 SLP131 P0001 60009 T00890044 10100 20072 51037 $=
202011151653 METAR KBLI 151653Z 20008KT 10SM -RA FEW015 SCT025 BKN040 08/04 A2988 RMK AO2 RAE01B53 PRESRR SLP126 P0000 T00780039 $=
202011151553 METAR KBLI 151553Z 22008G15KT 10SM -RA FEW017 SCT025 BKN032 08/04 A2984 RMK AO2 RAB10 SLP113 P0008 T00780044 $=
202011151530 SPECI KBLI 151530Z 21010G18KT 5SM -RA BKN028 OVC042 09/04 A2981 RMK AO2 RAB10 P0001 T00890044 $=
202011151453 METAR KBLI 151453Z 19009G18KT 10SM SCT032 BKN047 09/04 A2978 RMK AO2 SLP093 T00890039 51026 $=
202011151353 METAR KBLI 151353Z AUTO 19010G18KT 10SM BKN041 BKN050 OVC075 09/04 A2976 RMK AO2 SLP086 T00940039 $=
202011151253 METAR KBLI 151253Z AUTO 19011KT 10SM SCT040 SCT048 BKN120 09/04 A2973 RMK AO2 SLP076 T00940039 $=
202011151153 METAR KBLI 151153Z AUTO 19009G18KT 10SM SCT100 08/04 A2970 RMK AO2 RAE12 SLP067 P0001 60007 70011 T00830044 10094 20050 51013 $=
202011151053 METAR KBLI 151053Z AUTO 19011G17KT 10SM -RA FEW030 OVC037 09/06 A2970 RMK AO2 RAB44 SLP064 P0000 T00890056 $=
202011150953 METAR KBLI 150953Z AUTO 18011G21KT 10SM SCT027 BKN033 OVC060 08/06 A2968 RMK AO2 RAB09E50 SLP058 P0001 T00830056 $=
202011150906 SPECI KBLI 150906Z AUTO 18012G19KT 10SM SCT018 BKN031 OVC046 09/06 A2967 RMK AO2 T00890056 $=
202011150853 METAR KBLI 150853Z AUTO 18015G24KT 10SM BKN018 BKN035 OVC046 08/05 A2967 RMK AO2 RAE52 SLP053 P0003 60005 T00830050 53007 $=
202011150805 SPECI KBLI 150805Z AUTO 18013G23KT 7SM -RA SCT025 BKN029 OVC036 09/05 A2966 RMK AO2 P0000 T00890050 $=
202011150753 METAR KBLI 150753Z AUTO 19010G21KT 8SM -RA SCT025 OVC036 09/04 A2965 RMK AO2 RAE17B35 SLP050 P0001 T00890044 400940050 $=
202011150653 METAR KBLI 150653Z AUTO 17014G21KT 10SM -RA OVC033 09/04 A2964 RMK AO2 SLP045 P0001 T00890039 $=
202011150553 METAR KBLI 150553Z 03005KT 10SM -RA OVC038 06/03 A2965 RMK AO2 RAB12 SLP047 P0001 60004 T00560028 10078 20056 55016 $=
202011150453 METAR KBLI 150453Z 03007KT 10SM OVC036 06/03 A2964 RMK AO2 RAE21 SLP045 P0000 T00560033 $=
202011150353 METAR KBLI 150353Z 00000KT 10SM -RA OVC034 06/03 A2967 RMK AO2 SLP055 P0001 T00560033 $=
202011150253 METAR KBLI 150253Z 07007KT 10SM -RA OVC038 06/02 A2969 RMK AO2 RAB00 SLP063 P0001 60002 T00610022 56060 $=
202011150153 METAR KBLI 150153Z 08003KT 10SM SCT025 BKN045 06/02 A2975 RMK AO2 RAE40 PRESFR SLP081 P0000 T00610022 $=
202011150053 METAR KBLI 150053Z 13005KT 10SM -RA SCT031 OVC043 07/02 A2982 RMK AO2 SLP104 P0001 T00720022 $=
202011142353 METAR KBLI 142353Z 15008KT 10SM -RA FEW038 OVC048 08/03 A2987 RMK AO2 RAB14 SLP123 P0000 60000 T00780028 10089 20072 56044 $=
202011142253 METAR KBLI 142253Z 14008KT 10SM FEW025 SCT035 BKN065 08/02 A2991 RMK AO2 SLP136 T00830017 $=
202011142153 METAR KBLI 142153Z 14009KT 10SM SCT031 OVC100 08/02 A2995 RMK AO2 SLP150 T00830017 $=
202011142053 METAR KBLI 142053Z 17012G17KT 10SM CLR 08/02 A3000 RMK AO2 SLP167 T00830017 58012 $=
202011141953 METAR KBLI 141953Z 17009KT 10SM FEW050 08/02 A3003 RMK AO2 SLP178 T00780022 $=
202011141853 METAR KBLI 141853Z 18013G21KT 10SM SCT025 BKN040 OVC050 07/03 A3004 RMK AO2 SLP182 T00720028 $=
202011141806 SPECI KBLI 141806Z 18012KT 10SM SCT023 BKN034 OVC045 07/03 A3004 RMK AO2 T00720028 $=
202011141753 METAR KBLI 141753Z 19012G17KT 10SM BKN023 BKN036 OVC043 07/03 A3004 RMK AO2 SLP179 T00720028 10078 20050 51010=
202011141749 SPECI KBLI 141749Z 20008KT 10SM BKN023 BKN035 BKN041 07/03 A3003 RMK AO2=
202011141653 METAR KBLI 141653Z 19009G16KT 10SM SCT050 07/03 A3002 RMK AO2 SLP174 T00720028=
202011141553 METAR KBLI 141553Z 20004KT 10SM SCT043 06/02 A3001 RMK AO2 SLP169 T00610017=
202011141453 METAR KBLI 141453Z 20004KT 10SM FEW040 06/02 A2998 RMK AO2 SLP160 T00560017 53025=
202011141353 METAR KBLI 141353Z AUTO 20004KT 10SM CLR 06/02 A2995 RMK AO2 SLP151 T00610017=
202011141253 METAR KBLI 141253Z AUTO 20005KT 10SM SCT030 07/02 A2992 RMK AO2 SLP141 T00670022=
202011141153 METAR KBLI 141153Z AUTO 20005KT 10SM OVC050 07/03 A2991 RMK AO2 SLP135 70017 T00720028 10072 20033 52024=
202011141053 METAR KBLI 141053Z AUTO 20007KT 10SM BKN070 OVC085 07/02 A2988 RMK AO2 SLP126 T00720017=
202011140953 METAR KBLI 140953Z AUTO 19004KT 10SM OVC085 07/02 A2986 RMK AO2 SLP120 T00670022=
202011140853 METAR KBLI 140853Z AUTO 20005KT 10SM CLR 06/02 A2984 RMK AO2 SLP111 T00610017 51038=
202011140753 METAR KBLI 140753Z AUTO 19004KT 10SM CLR 07/01 A2981 RMK AO2 SLP101 T00670011 401000033=
202011140653 METAR KBLI 140653Z AUTO 19005KT 10SM CLR 06/01 A2977 RMK AO2 SLP087 T00560006=
202011140553 METAR KBLI 140553Z VRB04KT 10SM FEW050 06/01 A2972 RMK AO2 SLP073 T00610006 10089 20050 51048=
202011140453 METAR KBLI 140453Z 19005KT 10SM FEW050 07/01 A2968 RMK AO2 SLP057 T00670011=
202011140353 METAR KBLI 140353Z 19005KT 10SM FEW050 BKN080 08/01 A2963 RMK AO2 SLP043 T00780006=
202011140253 METAR KBLI 140253Z VRB05KT 10SM FEW030 BKN080 08/01 A2958 RMK AO2 LTG DSNT NE SLP025 T00830011 52041=
202011140153 METAR KBLI 140153Z 20008KT 10SM BKN075 OVC090 08/03 A2954 RMK AO2 SLP011 T00830028=
202011140053 METAR KBLI 140053Z 19007KT 160V220 10SM FEW025 SCT050 BKN085 08/04 A2950 RMK AO2 SLP997 T00830039=
202011132353 METAR KBLI 132353Z 00000KT 10SM BKN080 08/04 A2946 RMK AO2 SLP983 60001 T00830044 10100 20078 53042=
202011132253 METAR KBLI 132253Z VRB03KT 10SM FEW080 FEW090 09/04 A2942 RMK AO2 SLP969 T00890044=
202011132153 METAR KBLI 132153Z 31006KT 10SM FEW044 OVC075 10/04 A2937 RMK AO2 SLP955 T01000044=
202011132053 METAR KBLI 132053Z VRB04KT 10SM FEW040 BKN070 OVC100 08/04 A2933 RMK AO2 RAE1956 SLP940 P0000 60001 T00830044 51061=
202011131953 METAR KBLI 131953Z 29011G19KT 260V330 10SM -RA FEW019 BKN036 OVC055 08/04 A2929 RMK AO2 SLP925 P0001 T00830044=
202011131853 METAR KBLI 131853Z 24008G16KT 190V290 10SM -RA FEW029 OVC040 09/05 A2921 RMK AO2 RAB19 PRESRR SLP897 P0000 T00890050=
202011131753 METAR KBLI 131753Z 21009G22KT 170V250 10SM SCT008 BKN017 OVC027 08/06 A2915 RMK AO2 PK WND 19027/1658 RAE51 SLP879 P0001 60016 T00830061 10089 20078 53004=
202011131653 METAR KBLI 131653Z 19012G22KT 3SM -RA BR FEW008 SCT016 OVC025 08/06 A2914 RMK AO2 RAB1555 SLP874 P0004 T00830061=
202011131553 METAR KBLI 131553Z 17013G26KT 10SM BKN019 OVC027 08/06 A2914 RMK AO2 PK WND 17026/1547 RAB35E46 SLP875 P0000 T00830056=
202011131549 SPECI KBLI 131549Z 18015G26KT 10SM FEW015 BKN021 OVC027 08/06 A2914 RMK AO2 PK WND 17026/1547 RAB35E46 P0000=
202011131453 METAR KBLI 131453Z 17016G26KT 10SM FEW010 SCT030 OVC055 09/06 A2912 RMK AO2 PK WND 18032/1421 RAE49 SLP867 P0005 60011 T00890056 56033=
202011131437 SPECI KBLI 131437Z AUTO 18018G29KT 10SM -RA FEW016 BKN031 OVC049 08/06 A2911 RMK AO2 PK WND 18032/1421 P0005 T00830056=
202011131353 METAR KBLI 131353Z AUTO 18017G30KT 4SM RA SCT018 BKN024 OVC035 08/06 A2914 RMK AO2 PK WND 17030/1327 SLP874 P0005 T00830056=
202011131253 METAR KBLI 131253Z AUTO 17018G25KT 10SM -RA OVC023 08/04 A2916 RMK AO2 PK WND 14028/1241 SLP881 P0001 T00830044=
202011131153 METAR KBLI 131153Z AUTO 15014G21KT 9SM -RA OVC026 08/04 A2921 RMK AO2 PK WND 17030/1102 SLP900 P0006 60035 70054 T00780044 10089 20078 56069=
202011131053 METAR KBLI 131053Z AUTO 17016G28KT 6SM -RA OVC026 08/04 A2927 RMK AO2 PK WND 18028/1052 SLP918 P0005 T00830044=
202011130953 METAR KBLI 130953Z AUTO 16011G18KT 7SM -RA OVC025 08/04 A2934 RMK AO2 PRESFR SLP943 P0004 T00830044=
202011130853 METAR KBLI 130853Z AUTO 16020G28KT 7SM -RA OVC023 08/04 A2942 RMK AO2 PK WND 16028/0852 SLP969 P0005 60020 T00830044 58058=
202011130753 METAR KBLI 130753Z AUTO 17016G23KT 5SM RA BKN022 OVC028 08/05 A2948 RMK AO2 PRESFR SLP991 P0008 T00830050 400890017=
202011130653 METAR KBLI 130653Z AUTO 17015G25KT 6SM -RA OVC023 08/04 A2954 RMK AO2 PK WND 16029/0631 SLP011 P0007 T00780044=
202011130553 METAR KBLI 130553Z 18016G25KT 5SM -RA BKN022 OVC027 08/04 A2959 RMK AO2 PK WND 18028/0528 SLP027 P0007 60019 T00780044 10083 20067 56031=
202011130453 METAR KBLI 130453Z 17013G26KT 6SM -RA BKN025 OVC036 08/04 A2961 RMK AO2 PK WND 17031/0437 SLP035 P0005 T00780039=
202011130353 METAR KBLI 130353Z 17017G25KT 8SM -RA SCT020 OVC027 07/03 A2964 RMK AO2 SLP046 P0004 T00720033=
202011130253 METAR KBLI 130253Z 16014KT 9SM -RA SCT024 OVC029 07/03 A2968 RMK AO2 PK WND 17026/0219 SLP060 P0002 60003 T00720033 56020=
202011130153 METAR KBLI 130153Z 16017G24KT 10SM -RA OVC029 07/03 A2971 RMK AO2 RAE13B32 SLP068 P0000 T00720028=
202011130053 METAR KBLI 130053Z 16012G21KT 10SM -RA OVC034 08/02 A2974 RMK AO2 RAB23 SLP080 P0001 T00780022=
202011122353 METAR KBLI 122353Z 17016G24KT 10SM BKN038 OVC060 08/01 A2977 RMK AO2 PK WND 17029/2305 RAE07 SLP089 P0000 60000 T00830011 10089 20050 56031=
202011122253 METAR KBLI 122253Z 16019G26KT 10SM -RA BKN055 OVC070 08/02 A2979 RMK AO2 PK WND 17030/2221 RAB28 SLP095 P0000 T00780017=
202011122153 METAR KBLI 122153Z 16020G29KT 10SM OVC075 09/01 A2982 RMK AO2 PK WND 16029/2148 SLP106 T00890006=
202011122053 METAR KBLI 122053Z 15013G21KT 10SM OVC075 09/00 A2986 RMK AO2 RAB1956E06 SLP120 P0000 60000 T00890000 58041=
202011121953 METAR KBLI 121953Z 15010KT 10SM BKN035 BKN048 OVC060 08/01 A2991 RMK AO2 RAB15E24 SLP138 P0000 T00830011=
202011121853 METAR KBLI 121853Z 15008KT 10SM BKN033 OVC060 08/01 A2995 RMK AO2 SLP150 T00830006=
202011121804 SPECI KBLI 121804Z VRB04KT 10SM OVC030 06/01 A2997 RMK AO2 T00560011=
202011121753 METAR KBLI 121753Z 04004KT 10SM OVC029 05/01 A2998 RMK AO2 SLP162 T00500011 10050 20017 56021=
202011121653 METAR KBLI 121653Z 05003KT 10SM SCT033 OVC075 04/00 A3000 RMK AO2 SLP166 T00440000=
202011121553 METAR KBLI 121553Z 00000KT 10SM FEW033 BKN075 02/M01 A3002 RMK AO2 SLP173 T00171006=
202011121453 METAR KBLI 121453Z 00000KT 10SM BKN070 02/00 A3004 RMK AO2 SLP183 T00220000 58016=
202011121353 METAR KBLI 121353Z AUTO 04003KT 10SM FEW047 OVC075 03/00 A3006 RMK AO2 SLP188 T00280000=
202011121253 METAR KBLI 121253Z AUTO 02003KT 10SM OVC075 03/01 A3008 RMK AO2 SLP195 T00280006=
202011121153 METAR KBLI 121153Z AUTO 02003KT 10SM OVC070 03/01 A3009 RMK AO2 SLP199 T00280006 10044 20022 58013=
202011121053 METAR KBLI 121053Z AUTO 01003KT 10SM OVC070 03/01 A3010 RMK AO2 SLP203 T00280006=
202011120953 METAR KBLI 120953Z AUTO 34005KT 10SM OVC070 03/01 A3012 RMK AO2 SLP208 T00280006=
202011120853 METAR KBLI 120853Z AUTO 02003KT 10SM OVC070 03/01 A3013 RMK AO2 SLP212 T00280006 58013=
202011120753 METAR KBLI 120753Z AUTO 00000KT 10SM OVC070 03/01 A3014 RMK AO2 SLP217 T00330006 400611022=
202011120653 METAR KBLI 120653Z AUTO 00000KT 10SM OVC065 03/01 A3017 RMK AO2 SLP225 T00330006=
202011120553 METAR KBLI 120553Z 31005KT 10SM OVC060 04/01 A3017 RMK AO2 SLP225 T00390006 10050 20033 58007=
202011120453 METAR KBLI 120453Z 00000KT 10SM OVC060 04/01 A3018 RMK AO2 SLP230 T00390011=
202011120353 METAR KBLI 120353Z 00000KT 10SM OVC060 03/01 A3018 RMK AO2 SLP231 T00330011=
202011120253 METAR KBLI 120253Z 00000KT 10SM OVC060 04/01 A3019 RMK AO2 SLP233 T00390011 56005=
202011120153 METAR KBLI 120153Z 00000KT 10SM OVC060 04/01 A3020 RMK AO2 SLP235 T00390011=
202011120053 METAR KBLI 120053Z 00000KT 10SM OVC055 04/02 A3020 RMK AO2 SLP236 T00440017=
202011112353 METAR KBLI 112353Z 05003KT 10SM OVC050 05/02 A3021 RMK AO2 SLP238 T00500022 10061 20022 51008=
202011112253 METAR KBLI 112253Z 03004KT 10SM OVC047 06/02 A3020 RMK AO2 SLP237 T00560022=
202011112153 METAR KBLI 112153Z 00000KT 10SM FEW013 OVC049 06/02 A3020 RMK AO2 SLP235 T00610022=
202011112053 METAR KBLI 112053Z 00000KT 10SM FEW010 OVC049 06/03 A3018 RMK AO2 SLP230 T00610028 58002=
202011111953 METAR KBLI 111953Z 00000KT 10SM FEW008 OVC047 05/03 A3020 RMK AO2 SLP234 T00500028=
202011111906 SPECI KBLI 111906Z 00000KT 10SM FEW009 OVC045 05/03 A3020 RMK AO2 T00500028=
202011111853 METAR KBLI 111853Z 00000KT 10SM FEW011 OVC045 04/03 A3020 RMK AO2 SLP236 T00440028=
202011111758 SPECI KBLI 111758Z 05003KT 10SM SCT044 03/01 A3019 RMK AO2 T00280011=
202011111753 METAR KBLI 111753Z 06003KT 10SM SCT039 02/01 A3019 RMK AO2 SLP233 I6001 T00220011 10022 21022 53012=
202011111653 METAR KBLI 111653Z 04003KT 10SM SCT039 01/00 A3018 RMK AO2 SLP231 I1001 T00110000=
202011111553 METAR KBLI 111553Z 19003KT 10SM SCT038 00/M01 A3016 RMK AO2 SLP223 I1000 T00001011=
202011111456 SPECI KBLI 111456Z 00000KT 10SM OVC036 00/M02 A3016 RMK AO2 T00001017=
202011111453 METAR KBLI 111453Z 00000KT 6SM BR BKN036 00/M02 A3016 RMK AO2 SLP221 I3000 T00001017 51010=
202011111400 SPECI KBLI 111400Z AUTO 00000KT 3SM BR FEW001 OVC033 M02/M03 A3015 RMK AO2 T10171028=
202011111357 SPECI KBLI 111357Z AUTO 02003KT 1 1/4SM BR FEW001 OVC033 M02/M03 A3015 RMK AO2 T10171033=
202011111353 METAR KBLI 111353Z AUTO 00000KT 1/2SM R16/P6000FT FZFG FEW001 OVC033 M02/M03 A3015 RMK AO2 SLP219 I1000 T10171028=
202011111319 SPECI KBLI 111319Z AUTO 00000KT 1/4SM R16/1200VP6000FT FZFG VV001 M01/M03 A3014 RMK AO2 T10111028=
202011111307 SPECI KBLI 111307Z AUTO 00000KT 1/4SM R16/1000V1400FT FZFG VV001 M01/M03 A3014 RMK AO2 T10111028=
202011111253 METAR KBLI 111253Z AUTO 00000KT 1/2SM R16/2200V3500FT FZFG VV001 M02/M03 A3014 RMK AO2 SLP214 I1000 T10171033=
202011111217 SPECI KBLI 111217Z AUTO 00000KT 1/2SM R16/2000VP6000FT FZFG VV001 M02/M03 A3013 RMK AO2 T10171033=
202011111202 SPECI KBLI 111202Z AUTO 00000KT 1SM R16/2000VP6000FT BR VV001 M02/M03 A3013 RMK AO2 T10171033=
202011111153 METAR KBLI 111153Z AUTO 00000KT 1/4SM R16/2600VP6000FT FZFG VV001 M02/M03 A3013 RMK AO2 SLP211 70001 I1000 I6001 T10171033 10028 21017 51013=
202011111150 SPECI KBLI 111150Z AUTO 00000KT 1/2SM R16/2600VP6000FT FZFG VV001 M02/M03 A3013 RMK AO2 I1000=
202011111148 SPECI KBLI 111148Z AUTO 00000KT 1SM R16/2600VP6000FT BR VV001 M02/M03 A3013 RMK AO2 VIS 1/4V3 I1000=
202011111136 SPECI KBLI 111136Z AUTO 00000KT 2SM R16/2400VP6000FT BR FEW002 M02/M03 A3013 RMK AO2 I1000 T10171033=
202011111132 SPECI KBLI 111132Z AUTO 00000KT 1SM R16/2200VP6000FT BR VV002 M02/M03 A3013 RMK AO2 I1000 T10171028=
202011111122 SPECI KBLI 111122Z AUTO 00000KT 1/2SM R16/2000V5000FT FZFG VV002 M02/M03 A3013 RMK AO2 I1000 T10171033=
202011111115 SPECI KBLI 111115Z AUTO 00000KT 1SM R16/2000V3500FT BR VV002 M01/M03 A3012 RMK AO2 T10111028=
202011111100 SPECI KBLI 111100Z AUTO 00000KT 1/4SM R16/2400VP6000FT FZFG VV002 M01/M03 A3012 RMK AO2 T10111028=
202011111053 METAR KBLI 111053Z AUTO 00000KT 1/2SM R16/2000VP6000FT FZFG CLR M02/M03 A3012 RMK AO2 SLP208 I1000 T10171028=
202011111038 SPECI KBLI 111038Z AUTO 00000KT 1/2SM R16/P6000FT FZFG CLR M01/M02 A3012 RMK AO2 I1000 T10061022=
202011111027 SPECI KBLI 111027Z AUTO 00000KT 1SM R16/P6000FT BR CLR M01/M03 A3011 RMK AO2 I1000 T10111028=
202011111011 SPECI KBLI 111011Z AUTO 00000KT 1/4SM R16/2800VP6000FT FZFG CLR M01/M02 A3011 RMK AO2 T10061022=
202011110953 METAR KBLI 110953Z AUTO 00000KT 3/4SM R16/P6000FT BR CLR M01/M02 A3010 RMK AO2 SLP203 I1000 T10061022=
202011110942 SPECI KBLI 110942Z AUTO 00000KT 1 3/4SM BR CLR M01/M02 A3010 RMK AO2 I1000 T10111022=
202011110853 METAR KBLI 110853Z AUTO 00000KT 6SM BR CLR 00/M02 A3009 RMK AO2 SLP198 I1001 I3001 T00001017 52008=
202011110753 METAR KBLI 110753Z AUTO 00000KT 10SM CLR 01/M01 A3008 RMK AO2 SLP196 T00111011 400610000=
202011110653 METAR KBLI 110653Z AUTO 09003KT 7SM BKN033 02/00 A3007 RMK AO2 SLP193 T00170000=
202011110553 METAR KBLI 110553Z 04003KT 10SM OVC035 02/00 A3007 RMK AO2 SLP190 T00170000 10056 20011 53015=
202011110453 METAR KBLI 110453Z 00000KT 7SM BKN036 01/00 A3005 RMK AO2 SLP185 T00110000=
202011110401 SPECI KBLI 110401Z 00000KT 7SM BKN033 01/00 A3003 RMK AO2 T00110000=
202011110353 METAR KBLI 110353Z 00000KT 2 1/2SM FEW028 SCT033 02/00 A3003 RMK AO2 SLP179 T00170000=
202011110253 METAR KBLI 110253Z 00000KT 7SM FEW026 03/01 A3002 RMK AO2 SLP175 T00280011 53008=
202011110204 SPECI KBLI 110204Z 00000KT 8SM OVC030 04/03 A3002 RMK AO2 T00440028=
202011110153 METAR KBLI 110153Z 00000KT 9SM OVC029 04/02 A3001 RMK AO2 SLP172 T00440022=
202011110100 SPECI KBLI 110100Z 00000KT 10SM OVC027 05/02 A3001 RMK AO2 T00500022=
202011110053 METAR KBLI 110053Z 02003KT 10SM SCT028 05/02 A3000 RMK AO2 SLP169 T00500022=
202011102353 METAR KBLI 102353Z 03005KT 10SM FEW030 SCT037 04/02 A3000 RMK AO2 SLP167 60001 T00440017 10061 20044 53004=
202011102253 METAR KBLI 102253Z 34003KT 10SM FEW050 FEW075 06/02 A2999 RMK AO2 SLP164 T00560022=
202011102153 METAR KBLI 102153Z 02003KT 10SM FEW020 OVC065 06/02 A2998 RMK AO2 RAE28 SLP162 P0000 T00610022=
202011102053 METAR KBLI 102053Z 02004KT 10SM -RA SCT011 OVC055 06/03 A2999 RMK AO2 RAE21B51 SLP163 P0000 60001 T00610028 58003=
202011101953 METAR KBLI 101953Z 00000KT 9SM -RA SCT006 BKN020 OVC044 06/03 A2999 RMK AO2 SLP165 P0001 T00560028=
202011101853 METAR KBLI 101853Z 00000KT 7SM -RA BKN020 BKN055 OVC070 05/03 A3000 RMK AO2 RAB33 SLP166 P0000 T00500028=
202011101817 SPECI KBLI 101817Z 06003KT 5SM BR FEW009 BKN075 OVC090 04/03 A2999 RMK AO2 T00440028=
202011101753 METAR KBLI 101753Z 00000KT 10SM SCT055 SCT070 BKN085 04/02 A2999 RMK AO2 RAE13 SLP166 P0000 60000 T00440022 10044 20017 51006=
202011101653 METAR KBLI 101653Z 00000KT 6SM -RA BR BKN033 03/02 A2999 RMK AO2 UPB26E32RAB32 SLP165 P0000 T00330017=
202011101553 METAR KBLI 101553Z 00000KT 6SM BR FEW011 OVC060 02/01 A2998 RMK AO2 SLP161 T00220011=
202011101453 METAR KBLI 101453Z 00000KT 3SM BR BKN011 OVC110 02/01 A2997 RMK AO2 SLP159 60000 T00220011 51005=
202011101446 SPECI KBLI 101446Z 00000KT 3SM BR BKN010 BKN080 OVC100 02/01 A2997 RMK AO2 T00220011=
202011101432 SPECI KBLI 101432Z AUTO 03003KT 2 1/2SM BR FEW008 SCT080 OVC110 02/01 A2997 RMK AO2 T00170006=
202011101425 SPECI KBLI 101425Z AUTO 04003KT 3SM BR FEW002 BKN080 OVC100 02/01 A2997 RMK AO2 T00220006=
202011101414 SPECI KBLI 101414Z AUTO 05003KT 3SM BR SCT002 BKN008 OVC100 02/01 A2997 RMK AO2 CIG 007V010 T00220011=
202011101353 METAR KBLI 101353Z AUTO 00000KT 4SM BR OVC002 02/01 A2997 RMK AO2 SLP158 T00220011=
202011101253 METAR KBLI 101253Z AUTO 03004KT 7SM OVC002 03/01 A2996 RMK AO2 RAE00 SLP156 P0000 T00280011=
202011101220 SPECI KBLI 101220Z AUTO 35005KT 5SM BR BKN002 OVC008 02/01 A2997 RMK AO2 RAE00 CIG 002V006 P0000 T00220011=
202011101153 METAR KBLI 101153Z AUTO 00000KT 3SM -RA BR FEW003 BKN009 OVC013 03/02 A2996 RMK AO2 CIG 007V011 SLP154 P0005 60011 70017 T00280017 10056 20028 53001=
202011101136 SPECI KBLI 101136Z AUTO 33005KT 3SM -RA BR FEW002 OVC009 03/01 A2996 RMK AO2 CIG 007V014 P0005 T00280011=
202011101113 SPECI KBLI 101113Z AUTO 04003KT 2 1/2SM -RA BR OVC009 03/02 A2995 RMK AO2 CIG 007V012 P0003 T00280017=
202011101101 SPECI KBLI 101101Z AUTO 08003KT 3SM -RA BR OVC009 03/01 A2995 RMK AO2 P0001 T00280011=
202011101053 METAR KBLI 101053Z AUTO 05004KT 2 1/2SM -RA BR OVC009 03/01 A2995 RMK AO2 SLP151 P0004 T00280011=
202011101038 SPECI KBLI 101038Z AUTO 35005KT 2SM -RA BR OVC010 03/01 A2995 RMK AO2 CIG 006V012 P0002 T00280011=
202011100953 METAR KBLI 100953Z AUTO 08003KT 10SM -RA OVC014 04/02 A2995 RMK AO2 RAB20 SLP151 P0002 T00440017=
202011100932 SPECI KBLI 100932Z AUTO 14006KT 10SM -RA BKN013 OVC020 04/02 A2995 RMK AO2 RAB20 P0001 T00440017=
202011100853 METAR KBLI 100853Z AUTO 18010KT 10SM OVC017 05/02 A2996 RMK AO2 RAB05E27 SLP152 P0000 60000 T00500017 55005=
202011100810 SPECI KBLI 100810Z AUTO 19012G23KT 10SM -RA BKN020 OVC034 06/02 A2993 RMK AO2 RAB05 P0000 T00560017=
202011100753 METAR KBLI 100753Z AUTO 17009KT 10SM FEW021 OVC034 06/01 A2993 RMK AO2 RAB0655E11 SLP142 P0000 T00560011 400671033=
202011100716 SPECI KBLI 100716Z AUTO 17009G18KT 10SM FEW021 SCT027 OVC031 06/02 A2993 RMK AO2 RAB0655E11 P0000 T00560017=
202011100653 METAR KBLI 100653Z AUTO 16014KT 10SM BKN021 OVC025 05/02 A2993 RMK AO2 RAE06 SLP145 P0000 T00500017=
202011100553 METAR KBLI 100553Z 17013G19KT 130V200 10SM -RA OVC022 05/01 A2997 RMK AO2 RAB0458 SLP157 P0001 60006 T00500011 10067 20033 56028=
202011100453 METAR KBLI 100453Z 15016G23KT 10SM BKN020 OVC026 04/01 A2998 RMK AO2 RAE46 SLP162 P0002 T00440011=
202011100353 METAR KBLI 100353Z 09005KT 10SM -RA BKN017 BKN024 OVC029 03/02 A3002 RMK AO2 SLP176 P0002 T00330017=
202011100253 METAR KBLI 100253Z 14009KT 10SM -RA OVC024 04/01 A3005 RMK AO2 SLP186 P0001 60001 T00390006 58017=
202011100153 METAR KBLI 100153Z 13007KT 10SM -RA BKN028 OVC040 05/M01 A3008 RMK AO2 RAB29 SLP194 P0000 T00501006=
202011100053 METAR KBLI 100053Z 15008KT 10SM FEW022 BKN055 OVC070 07/M03 A3009 RMK AO2 SLP198 T00671028=
202011092353 METAR KBLI 092353Z 16012KT 10SM OVC070 07/M03 A3010 RMK AO2 SLP203 T00671028 10067 20056 58024=
202011092253 METAR KBLI 092253Z 16012KT 10SM OVC075 07/M03 A3013 RMK AO2 SLP212 T00671028=
202011092153 METAR KBLI 092153Z 15011KT 10SM BKN043 OVC055 07/M03 A3015 RMK AO2 SLP220 T00671028=
202011092053 METAR KBLI 092053Z 14010KT 10SM FEW045 OVC055 07/M02 A3018 RMK AO2 SLP227 T00671022 58007=
202011091953 METAR KBLI 091953Z 19010G16KT 10SM FEW045 OVC055 06/M02 A3019 RMK AO2 SLP232 T00611017=
202011091853 METAR KBLI 091853Z 19008KT 10SM OVC060 06/M02 A3020 RMK AO2 SLP235 T00561017=
202011091753 METAR KBLI 091753Z 18004KT 10SM OVC075 06/M03 A3020 RMK AO2 SLP234 T00611028 10061 21017 50000=
202011091653 METAR KBLI 091653Z 15006KT 10SM OVC095 04/M02 A3020 RMK AO2 SLP235 T00441022=
202011091553 METAR KBLI 091553Z VRB03KT 10SM BKN120 02/M02 A3020 RMK AO2 SLP235 T00171022=
202011091453 METAR KBLI 091453Z 00000KT 10SM BKN120 01/M02 A3019 RMK AO2 SLP234 T00111022 57004=
202011091353 METAR KBLI 091353Z AUTO 00000KT 10SM CLR 01/M03 A3020 RMK AO2 SLP235 T00061028=
202011091253 METAR KBLI 091253Z AUTO 00000KT 10SM CLR 00/M04 A3020 RMK AO2 SLP237 T00001039=
202011091153 METAR KBLI 091153Z AUTO 00000KT 10SM CLR M02/M06 A3021 RMK AO2 SLP238 T10171056 10050 21033 58002=
202011091053 METAR KBLI 091053Z AUTO 00000KT 10SM CLR M02/M06 A3021 RMK AO2 SLP240 T10221061=
202011090953 METAR KBLI 090953Z AUTO 00000KT 10SM CLR M01/M07 A3021 RMK AO2 SLP240 T10111072=
202011090853 METAR KBLI 090853Z AUTO 00000KT 10SM CLR M01/M07 A3021 RMK AO2 SLP241 T10111067 53008=
202011090753 METAR KBLI 090753Z AUTO 00000KT 10SM CLR 00/M07 A3020 RMK AO2 SLP237 T00001072 400890000=
202011090653 METAR KBLI 090653Z AUTO 07009KT 10SM CLR 04/M09 A3020 RMK AO2 SLP233 T00441089=
202011090553 METAR KBLI 090553Z 07009KT 10SM CLR 05/M09 A3019 RMK AO2 SLP232 T00501094 10078 20039 50005=
202011090453 METAR KBLI 090453Z 05010KT 10SM CLR 05/M09 A3020 RMK AO2 SLP237 T00501089=
202011090353 METAR KBLI 090353Z 01006KT 10SM CLR 04/M09 A3019 RMK AO2 SLP233 T00441089=
202011090253 METAR KBLI 090253Z 02004KT 10SM CLR 05/M09 A3018 RMK AO2 SLP227 T00501089 51021=
202011090153 METAR KBLI 090153Z 04010KT 10SM CLR 05/M08 A3016 RMK AO2 SLP222 T00501083=
202011090053 METAR KBLI 090053Z 02009KT 10SM CLR 07/M09 A3014 RMK AO2 SLP216 T00671089=
202011082353 METAR KBLI 082353Z 05014G21KT 10SM CLR 08/M10 A3011 RMK AO2 PK WND 05027/2257 SLP206 T00781100 10089 20067 53014=
202011082253 METAR KBLI 082253Z 05015G22KT 10SM CLR 09/M09 A3010 RMK AO2 PK WND 05029/2205 SLP201 T00891094=
202011082153 METAR KBLI 082153Z 04019G28KT 10SM CLR 09/M10 A3008 RMK AO2 PK WND 03034/2110 SLP195 T00891100=
202011082053 METAR KBLI 082053Z 04020G33KT 10SM CLR 09/M10 A3008 RMK AO2 PK WND 01035/2000 SLP192 T00891100 51010=
202011081953 METAR KBLI 081953Z 03023G32KT 10SM CLR 08/M11 A3007 RMK AO2 PK WND 05034/1935 SLP191 T00831106=
202011081853 METAR KBLI 081853Z 05019G32KT 10SM CLR 08/M10 A3008 RMK AO2 PK WND 05034/1756 SLP195 T00781100=
202011081753 METAR KBLI 081753Z 04019G32KT 10SM CLR 07/M10 A3004 RMK AO2 PK WND 05035/1715 SLP183 T00671100 10067 20044 50018=
202011081653 METAR KBLI 081653Z 03021G31KT 10SM CLR 06/M11 A3005 RMK AO2 PK WND 03033/1609 SLP184 T00611111=
202011081553 METAR KBLI 081553Z 04023G38KT 10SM CLR 06/M11 A3002 RMK AO2 PK WND 04038/1553 SLP175 T00561111=
202011081453 METAR KBLI 081453Z 04019G27KT 10SM CLR 05/M11 A2999 RMK AO2 PK WND 05033/1430 SLP165 T00501111 53023=
202011081353 METAR KBLI 081353Z AUTO 03018G27KT 10SM CLR 05/M11 A2994 RMK AO2 PK WND 04027/1339 SLP149 T00501106=
202011081253 METAR KBLI 081253Z AUTO 04013G23KT 10SM CLR 04/M10 A2993 RMK AO2 SLP145 T00441100=
202011081153 METAR KBLI 081153Z AUTO 04010G20KT 10SM FEW120 05/M09 A2992 RMK AO2 SLP141 T00501094 10050 20022 53025=
202011081053 METAR KBLI 081053Z AUTO 02012G19KT 10SM CLR 04/M09 A2989 RMK AO2 SLP129 T00441089=
202011080953 METAR KBLI 080953Z AUTO 01005KT 10SM CLR 03/M07 A2987 RMK AO2 SLP124 T00281072=
202011080853 METAR KBLI 080853Z AUTO 36006KT 10SM CLR 03/M07 A2985 RMK AO2 SLP115 T00281067 53008=
202011080753 METAR KBLI 080753Z AUTO 01007KT 10SM CLR 03/M07 A2983 RMK AO2 SLP108 T00331067 400940006=
202011080653 METAR KBLI 080653Z AUTO 03007KT 10SM CLR 03/M07 A2983 RMK AO2 SLP111 T00281067=
202011080553 METAR KBLI 080553Z 03006KT 10SM CLR 03/M07 A2982 RMK AO2 SLP108 T00331067 10067 20028 51014=
202011080453 METAR KBLI 080453Z 02005KT 10SM CLR 03/M07 A2981 RMK AO2 SLP104 T00331072=
202011080353 METAR KBLI 080353Z 03007KT 10SM CLR 04/M07 A2980 RMK AO2 SLP099 T00391072=
202011080253 METAR KBLI 080253Z 03007KT 10SM FEW080 04/M07 A2978 RMK AO2 SLP095 T00441067 53002=
202011080153 METAR KBLI 080153Z 02007KT 10SM SCT030 BKN100 06/M04 A2977 RMK AO2 SLP090 T00561044=
202011080053 METAR KBLI 080053Z 33004KT 10SM FEW070 OVC095 06/M01 A2977 RMK AO2 SLP091 T00611011=
202011072353 METAR KBLI 072353Z 32008KT 10SM SCT044 OVC060 06/M01 A2978 RMK AO2 RAB32E49 SLP093 P0000 60000 T00611006 10094 20056 53014=
202011072253 METAR KBLI 072253Z 34007KT 10SM SCT030 BKN060 08/01 A2976 RMK AO2 SLP085 T00780011=
202011072153 METAR KBLI 072153Z 04008KT 10SM OVC100 09/01 A2974 RMK AO2 SLP080 T00890006=
202011072053 METAR KBLI 072053Z 03010KT 10SM SCT100 09/01 A2974 RMK AO2 SLP078 60000 T00890006 58010=
202011071953 METAR KBLI 071953Z 00000KT 10SM FEW022 SCT070 08/02 A2974 RMK AO2 SLP079 T00830017=
202011071853 METAR KBLI 071853Z VRB03KT 10SM SCT015 SCT035 06/02 A2977 RMK AO2 RAE00 SLP088 P0000 T00560017=
202011071840 SPECI KBLI 071840Z 12004KT 10SM SCT021 OVC034 06/02 A2977 RMK AO2 RAE00 P0000 T00610022=
202011071819 SPECI KBLI 071819Z VRB03KT 10SM FEW018 BKN022 OVC065 06/02 A2977 RMK AO2 RAE00 P0000 T00610017=
202011071753 METAR KBLI 071753Z 00000KT 10SM -RA FEW023 SCT033 OVC060 06/02 A2977 RMK AO2 RAB45 SLP089 P0000 60000 T00610017 10061 20033 58004=
202011071653 METAR KBLI 071653Z 00000KT 10SM FEW024 BKN036 OVC060 06/01 A2978 RMK AO2 SLP092 T00610011=
202011071553 METAR KBLI 071553Z 00000KT 10SM BKN027 BKN035 OVC050 05/02 A2978 RMK AO2 SLP093 T00500017=
202011071453 METAR KBLI 071453Z 00000KT 10SM BKN029 BKN033 OVC041 05/02 A2978 RMK AO2 SLP093 T00500017 57006=
202011071448 SPECI KBLI 071448Z AUTO 00000KT 10SM BKN028 OVC036 04/02 A2978 RMK AO2=
202011071437 SPECI KBLI 071437Z AUTO 00000KT 10SM BKN030 OVC036 05/02 A2978 RMK AO2 T00500017=
202011071427 SPECI KBLI 071427Z AUTO 00000KT 10SM BKN028 OVC036 05/02 A2978 RMK AO2 T00500017=
202011071353 METAR KBLI 071353Z AUTO 36004KT 10SM OVC033 06/01 A2980 RMK AO2 SLP098 T00560006=
202011071350 SPECI KBLI 071350Z AUTO 36004KT 10SM OVC033 06/01 A2980 RMK AO2=
202011071319 SPECI KBLI 071319Z AUTO 00000KT 10SM OVC029 04/01 A2980 RMK AO2 T00440011=
202011071305 SPECI KBLI 071305Z AUTO 00000KT 10SM OVC031 04/01 A2980 RMK AO2 T00440011=
202011071253 METAR KBLI 071253Z AUTO 31004KT 10SM BKN029 05/01 A2980 RMK AO2 SLP100 T00500011=
202011071153 METAR KBLI 071153Z AUTO 00000KT 10SM OVC024 04/02 A2980 RMK AO2 SLP100 T00390017 10039 20006 58009=
202011071053 METAR KBLI 071053Z AUTO 00000KT 10SM BKN023 02/01 A2981 RMK AO2 SLP103 T00220006=
202011071032 SPECI KBLI 071032Z AUTO 00000KT 10SM BKN021 02/00 A2982 RMK AO2 T00170000=
202011071000 SPECI KBLI 071000Z AUTO 16003KT 10SM FEW021 01/M01 A2982 RMK AO2 T00111006=
202011070953 METAR KBLI 070953Z AUTO 00000KT 10SM BKN021 01/00 A2982 RMK AO2 SLP108 T00110000=
202011070928 SPECI KBLI 070928Z AUTO 17003KT 10SM BKN019 02/01 A2982 RMK AO2 T00220006=
202011070853 METAR KBLI 070853Z AUTO 00000KT 10SM FEW019 02/00 A2983 RMK AO2 SLP109 T00170000 56010=
202011070753 METAR KBLI 070753Z AUTO 00000KT 10SM CLR 01/M01 A2984 RMK AO2 SLP112 T00111006 401110011=
202011070653 METAR KBLI 070653Z AUTO 00000KT 10SM CLR 02/00 A2985 RMK AO2 SLP115 T00170000=
202011070553 METAR KBLI 070553Z 00000KT 10SM CLR 02/00 A2986 RMK AO2 SLP120 T00170000 10089 20017 53000=
202011070453 METAR KBLI 070453Z 17004KT 10SM CLR 03/01 A2985 RMK AO2 SLP117 T00280006=
202011070353 METAR KBLI 070353Z 00000KT 10SM CLR 02/00 A2985 RMK AO2 SLP118 T00170000=
202011070253 METAR KBLI 070253Z 00000KT 10SM FEW030 04/02 A2986 RMK AO2 SLP119 T00390017 50003=
202011070153 METAR KBLI 070153Z 00000KT 10SM CLR 06/02 A2986 RMK AO2 SLP120 T00610017=
202011070053 METAR KBLI 070053Z 32006KT 10SM FEW030 08/03 A2985 RMK AO2 SLP116 T00780028=
202011062353 METAR KBLI 062353Z 31006KT 10SM FEW025 09/02 A2985 RMK AO2 SLP115 T00890022 10111 20089 58006=
202011062253 METAR KBLI 062253Z 32006KT 10SM CLR 10/02 A2986 RMK AO2 SLP119 T01000022=
202011062153 METAR KBLI 062153Z 31010KT 10SM CLR 10/03 A2986 RMK AO2 SLP120 T01000028=
202011062053 METAR KBLI 062053Z 31010KT 10SM CLR 10/03 A2987 RMK AO2 SLP121 T01000028 56015=
202011061953 METAR KBLI 061953Z 31009KT 10SM CLR 11/02 A2987 RMK AO2 SLP123 T01060022=
202011061853 METAR KBLI 061853Z 33008KT 10SM CLR 10/03 A2990 RMK AO2 SLP132 T01000028=
202011061753 METAR KBLI 061753Z 35006KT 10SM CLR 09/03 A2991 RMK AO2 SLP136 T00940033 10094 20061 50006=
202011061653 METAR KBLI 061653Z 33009KT 10SM CLR 08/03 A2991 RMK AO2 SLP138 T00780028=
202011061553 METAR KBLI 061553Z 32008KT 10SM CLR 07/02 A2992 RMK AO2 SLP138 T00670022=
202011061453 METAR KBLI 061453Z 33009KT 10SM FEW015 07/02 A2989 RMK AO2 SLP130 T00670022 58001=
202011061353 METAR KBLI 061353Z AUTO 35007KT 10SM CLR 07/02 A2990 RMK AO2 SLP135 T00670022=
202011061253 METAR KBLI 061253Z AUTO 32008KT 10SM CLR 07/03 A2990 RMK AO2 SLP134 T00670028=
202011061153 METAR KBLI 061153Z AUTO 33008KT 10SM CLR 07/03 A2989 RMK AO2 SLP131 T00670033 10072 20061 56009=
202011061053 METAR KBLI 061053Z AUTO 35008KT 10SM CLR 07/03 A2990 RMK AO2 SLP133 T00720033=
202011060953 METAR KBLI 060953Z AUTO 02009KT 10SM CLR 07/03 A2990 RMK AO2 SLP133 T00670033=
202011060853 METAR KBLI 060853Z AUTO 01006KT 10SM CLR 07/04 A2992 RMK AO2 SLP140 T00720039 55002=
202011060753 METAR KBLI 060753Z AUTO 01007KT 10SM CLR 07/04 A2989 RMK AO2 SLP131 T00720039 401560061=
202011060653 METAR KBLI 060653Z AUTO 03005KT 10SM CLR 07/04 A2993 RMK AO2 SLP143 T00670039=
202011060553 METAR KBLI 060553Z 02003KT 10SM FEW021 SCT050 07/05 A2993 RMK AO2 SLP142 T00670050 10111 20061 56010=
202011060453 METAR KBLI 060453Z 05003KT 10SM CLR 07/05 A2993 RMK AO2 SLP143 T00670050=
202011060353 METAR KBLI 060353Z 00000KT 10SM CLR 07/05 A2994 RMK AO2 SLP147 T00720050=
202011060253 METAR KBLI 060253Z 00000KT 10SM CLR 08/06 A2996 RMK AO2 SLP151 T00830056 57009=
202011060153 METAR KBLI 060153Z 24003KT 10SM CLR 09/06 A2997 RMK AO2 SLP154 T00940061=
202011060053 METAR KBLI 060053Z 23003KT 10SM CLR 09/07 A2997 RMK AO2 SLP157 T00940067=
202011052353 METAR KBLI 052353Z 00000KT 10SM CLR 11/07 A2998 RMK AO2 SLP160 T01110067 10117 20111 58028=
202011052253 METAR KBLI 052253Z 18006KT 10SM SCT050 12/07 A3002 RMK AO2 SLP172 T01170067=
202011052153 METAR KBLI 052153Z 18005KT 10SM CLR 12/06 A3004 RMK AO2 SLP181 T01170061=
202011052053 METAR KBLI 052053Z 19003KT 10SM CLR 12/07 A3007 RMK AO2 SLP188 T01170067 58006=
202011051953 METAR KBLI 051953Z 18004KT 10SM SCT110 12/06 A3008 RMK AO2 SLP193 T01170061=
202011051853 METAR KBLI 051853Z VRB03KT 10SM OVC110 12/05 A3009 RMK AO2 SLP195 T01170050=
202011051753 METAR KBLI 051753Z VRB05KT 10SM OVC100 12/07 A3009 RMK AO2 SLP195 60000 T01170072 10144 20117 51009=
202011051653 METAR KBLI 051653Z 21005KT 10SM FEW030 12/07 A3008 RMK AO2 SLP193 T01170072=
202011051553 METAR KBLI 051553Z VRB05KT 10SM FEW030 OVC075 12/07 A3007 RMK AO2 RAB1454E52 SLP188 P0000 T01170067=
202011051453 METAR KBLI 051453Z VRB06KT 10SM OVC055 13/07 A3006 RMK AO2 SLP184 T01280067 51015=
202011051353 METAR KBLI 051353Z 28004KT 10SM BKN060 BKN080 OVC100 14/06 A3005 RMK AO2 SLP182 T01390056=
202011051253 METAR KBLI 051253Z 23009G16KT 190V270 10SM FEW035 SCT044 BKN055 14/07 A3004 RMK AO2 SLP179 T01440067=
202011051153 METAR KBLI 051153Z VRB03KT 10SM CLR 14/07 A3001 RMK AO2 SLP169 60001 70012 T01390072 10156 20139 53004=
202011051053 METAR KBLI 051053Z 29004KT 10SM CLR 14/08 A3002 RMK AO2 SLP171 T01440078=
202011050953 METAR KBLI 050953Z VRB06G14KT 10SM OVC065 15/06 A2998 RMK AO2 SLP159 T01500061=
202011050853 METAR KBLI 050853Z VRB05KT 10SM SCT038 BKN048 OVC100 16/09 A3000 RMK AO2 SLP164 60001 T01560094 53030=
202011050753 METAR KBLI 050753Z VRB05KT 10SM SCT080 16/11 A2993 RMK AO2 SLP142 T01560106 401720133=
202011050653 METAR KBLI 050653Z VRB06KT 10SM FEW029 OVC055 15/12 A2993 RMK AO2 RAB00E52 SLP140 P0001 T01500117=
202011050646 SPECI KBLI 050646Z VRB05G16KT 10SM -RA SCT027 OVC050 14/12 A2992 RMK AO2 RAB00 P0001 T01440122=
202011050624 SPECI KBLI 050624Z 20010G15KT 8SM -RA BKN028 OVC036 15/12 A2992 RMK AO2 RAB00 P0001 T01500122=
202011050553 METAR KBLI 050553Z 19008G18KT 10SM BKN031 OVC040 16/12 A2991 RMK AO2 SLP134 60011 T01560122 10161 20139 51008=
202011050500 SPECI KBLI 050500Z 18007G18KT 160V220 10SM SCT030 BKN037 OVC090 16/12 A2991 RMK AO2 T01560122=
202011050453 METAR KBLI 050453Z 18012KT 10SM SCT020 BKN024 OVC035 16/12 A2991 RMK AO2 RAE00 SLP133 P0000 T01560122=
202011050353 METAR KBLI 050353Z 19013G22KT 5SM -RA SCT020 BKN024 OVC035 14/12 A2993 RMK AO2 RAB10E19B38 SLP140 P0004 T01440117=
202011050253 METAR KBLI 050253Z 18016G27KT 10SM BKN020 OVC060 16/13 A2989 RMK AO2 PK WND 20027/0250 RAE36 SLP126 P0000 60007 T01560128 53002=
202011050153 METAR KBLI 050153Z 18015G26KT 10SM -RA OVC015 16/13 A2987 RMK AO2 PK WND 18030/0135 SLP121 P0003 T01610133=
202011050129 SPECI KBLI 050129Z 18015G27KT 10SM -RA OVC014 16/13 A2987 RMK AO2 PK WND 19027/0125 P0002 T01610133=
202011050053 METAR KBLI 050053Z 18016G24KT 10SM -RA OVC019 15/13 A2987 RMK AO2 PK WND 19030/0040 SLP122 P0004 T01500128=
202011042353 METAR KBLI 042353Z 19017G28KT 8SM -RA OVC022 16/13 A2988 RMK AO2 PK WND 18028/2350 RAB38 SLP124 P0000 60000 T01560128 10172 20156 58022=
202011042253 METAR KBLI 042253Z 18015G24KT 10SM OVC017 17/13 A2991 RMK AO2 SLP133 T01720128=
202011042153 METAR KBLI 042153Z 18010KT 10SM OVC019 16/12 A2993 RMK AO2 SLP142 T01610122=
202011042053 METAR KBLI 042053Z 18008KT 10SM OVC019 16/12 A2995 RMK AO2 SLP146 T01610122 50002=
202011041953 METAR KBLI 041953Z 19012G18KT 10SM BKN019 OVC027 16/12 A2996 RMK AO2 PK WND 18027/1919 SLP151 T01610122=
202011041853 METAR KBLI 041853Z 17014G23KT 10SM OVC017 17/13 A2994 RMK AO2 SLP145 T01670128=
202011041753 METAR KBLI 041753Z 18017G24KT 10SM OVC017 17/13 A2994 RMK AO2 PK WND 18028/1710 SLP144 T01670128 10167 20156 51016=
202011041653 METAR KBLI 041653Z 18014G24KT 10SM OVC019 17/13 A2993 RMK AO2 PK WND 17027/1638 SLP143 T01670128=
202011041553 METAR KBLI 041553Z 17017G23KT 10SM OVC020 17/13 A2992 RMK AO2 PK WND 17029/1510 SLP138 T01670128=
202011041453 METAR KBLI 041453Z 17019G26KT 10SM FEW023 SCT029 OVC080 17/12 A2989 RMK AO2 PK WND 17026/1358 SLP129 T01670122 51008=
202011041451 SPECI KBLI 041451Z 17016G24KT 10SM FEW023 SCT029 OVC080 17/12 A2989 RMK AO2 PK WND 17026/1358=
202011041353 METAR KBLI 041353Z AUTO 17016G25KT 10SM BKN024 OVC065 17/12 A2988 RMK AO2 SLP125 T01670122=
202011041253 METAR KBLI 041253Z AUTO 17013G19KT 10SM BKN025 OVC070 16/12 A2987 RMK AO2 SLP120 T01610122=
202011041223 SPECI KBLI 041223Z AUTO 17016G23KT 10SM BKN027 OVC070 16/12 A2986 RMK AO2 T01610117=
202011041153 METAR KBLI 041153Z AUTO 16015G19KT 10SM FEW021 OVC065 16/12 A2986 RMK AO2 RAE00 SLP117 P0001 60030 70147 T01560122 10156 20133 58005=
202011041121 SPECI KBLI 041121Z AUTO 17008KT 10SM OVC015 15/13 A2986 RMK AO2 RAE00 P0000 T01500128=
202011041053 METAR KBLI 041053Z AUTO 18006KT 9SM -RA OVC012 14/12 A2987 RMK AO2 RAE02B38 SLP121 P0000 T01440122=
202011041040 SPECI KBLI 041040Z AUTO 19005KT 9SM -RA BKN012 OVC070 14/13 A2987 RMK AO2 RAE02B38 P0000 T01440128=
202011040953 METAR KBLI 040953Z AUTO 15009KT 8SM -RA FEW034 BKN050 OVC065 14/12 A2987 RMK AO2 SLP122 P0008 T01390122=
202011040946 SPECI KBLI 040946Z AUTO 18005KT 5SM -RA BR FEW032 BKN050 OVC070 14/12 A2988 RMK AO2 P0008 T01390122=
202011040938 SPECI KBLI 040938Z AUTO 18006KT 2 1/2SM RA BR FEW032 OVC044 14/12 A2988 RMK AO2 P0007 T01390122=
202011040853 METAR KBLI 040853Z AUTO 18006KT 9SM -RA FEW041 OVC070 13/12 A2987 RMK AO2 SLP121 P0012 60021 T01330122 53010=
202011040803 SPECI KBLI 040803Z AUTO 21007KT 5SM -RA BR SCT012 SCT018 OVC041 14/12 A2988 RMK AO2 P0002 T01390122=
202011040753 METAR KBLI 040753Z AUTO 19009KT 5SM -RA BR BKN013 BKN020 OVC046 14/12 A2986 RMK AO2 RAB00 SLP117 P0009 T01390122 401560067=
202011040740 SPECI KBLI 040740Z AUTO 22004KT 4SM -RA BR OVC013 14/12 A2986 RMK AO2 RAB00 P0007 T01390122=
202011040653 METAR KBLI 040653Z AUTO 19010G16KT 10SM OVC016 15/12 A2985 RMK AO2 SLP114 T01500117=
202011040553 METAR KBLI 040553Z 18010G19KT 10SM OVC017 15/12 A2984 RMK AO2 SLP111 60001 T01500117 10150 20100 55012=
202011040453 METAR KBLI 040453Z 00000KT 5SM BR OVC018 11/09 A2984 RMK AO2 SLP110 T01060089=
202011040353 METAR KBLI 040353Z 02004KT 6SM BR OVC019 10/09 A2986 RMK AO2 RAB03E14 SLP118 P0000 T01000089=
202011040253 METAR KBLI 040253Z 02003KT 8SM OVC021 10/08 A2987 RMK AO2 SLP124 60001 T01000083 55001=
202011040200 SPECI KBLI 040200Z 02003KT 10SM BKN017 OVC030 10/09 A2986 RMK AO2 T01000089=
202011040153 METAR KBLI 040153Z 01004KT 10SM BKN012 BKN022 OVC030 10/09 A2986 RMK AO2 SLP118 T01000089=
202011040053 METAR KBLI 040053Z 00000KT 10SM BKN012 BKN023 OVC030 11/09 A2987 RMK AO2 RAE03 SLP121 P0001 T01060089=
202011032353 METAR KBLI 032353Z 07005KT 2SM -RA BR FEW003 OVC013 10/09 A2988 RMK AO2 SLP124 P0007 60035 T01000089 10122 20100 51010=
202011032302 SPECI KBLI 032302Z 02005KT 1 3/4SM R16/6000VP6000FT -RA BR SCT002 BKN006 OVC017 10/09 A2988 RMK AO2 P0003 T01000089=
202011032253 METAR KBLI 032253Z 04007KT 2SM -RA BR SCT002 BKN007 OVC017 10/09 A2987 RMK AO2 SLP124 P0007 T01000089=
202011032221 SPECI KBLI 032221Z 02006KT 1 3/4SM R16/5500VP6000FT RA BR FEW004 BKN010 OVC020 11/09 A2987 RMK AO2 P0004 T01060094=
202011032153 METAR KBLI 032153Z 36005KT 6SM -RA BR FEW004 BKN010 OVC020 11/09 A2986 RMK AO2 SLP117 P0003 T01110094=
202011032053 METAR KBLI 032053Z 16005KT 6SM -RA BKN010 OVC020 12/09 A2985 RMK AO2 SLP113 P0010 60018 T01220094 56011=
202011032001 SPECI KBLI 032001Z 17010KT 2SM RA BKN010 OVC020 12/09 A2985 RMK AO2 P0003 T01220094=
202011031953 METAR KBLI 031953Z 17008KT 2 1/2SM RA OVC020 12/09 A2985 RMK AO2 RAB1855 SLP118 P0005 T01220094=
202011031853 METAR KBLI 031853Z 12006KT 3SM HZ OVC022 12/09 A2986 RMK AO2 RAE24 SLP119 P0003 T01170089=
202011031753 METAR KBLI 031753Z 10004KT 3SM RA BR BKN022 OVC027 10/08 A2988 RMK AO2 SLP125 P0021 60081 T01000083 10122 20083 53016=
202011031658 SPECI KBLI 031658Z 3SM RA BKN029 OVC033 11/08 A2985 RMK AO2 P0002 T01110083=
202011031656 SPECI KBLI 031656Z 00000KT 2 1/2SM RA BKN029 OVC033 11/08 A2986 RMK AO2 P0001 T01110078=
202011031653 METAR KBLI 031653Z VRB05KT 3SM RA BKN029 OVC033 12/08 A2986 RMK AO2 SLP118 P0013 T01170078=
202011031553 METAR KBLI 031553Z 16015G22KT 4SM -RA OVC040 12/08 A2983 RMK AO2 WSHFT 1536 SLP107 P0021 T01220083=
202011031453 METAR KBLI 031453Z 06004KT 3SM RA BR OVC060 08/07 A2983 RMK AO2 SLP109 P0013 60026 T00830067 56012=
202011031353 METAR KBLI 031353Z AUTO 03003KT 5SM RA BR OVC065 08/07 A2983 RMK AO2 SLP109 P0011 T00830067=
202011031253 METAR KBLI 031253Z AUTO 00000KT 9SM -RA OVC095 09/06 A2986 RMK AO2 RAB1158 SLP120 P0002 T00890061=
202011031153 METAR KBLI 031153Z AUTO 36004KT 10SM OVC095 09/06 A2987 RMK AO2 RAB08E51 SLP120 P0000 60000 T00890056 10089 20044 56009=
202011031053 METAR KBLI 031053Z AUTO 01004KT 10SM OVC110 09/06 A2987 RMK AO2 SLP121 T00890056=
202011030953 METAR KBLI 030953Z AUTO 05004KT 10SM OVC110 08/06 A2988 RMK AO2 SLP124 T00830061=
202011030853 METAR KBLI 030853Z AUTO 03003KT 10SM BKN110 08/06 A2989 RMK AO2 SLP130 T00780056 56010=
202011030753 METAR KBLI 030753Z AUTO 00000KT 10SM BKN110 07/05 A2991 RMK AO2 SLP135 T00670050 401560000=
202011030653 METAR KBLI 030653Z AUTO 00000KT 10SM CLR 05/03 A2990 RMK AO2 SLP134 T00500033=
202011030553 METAR KBLI 030553Z 15003KT 9SM CLR 05/03 A2992 RMK AO2 SLP141 T00500033 10122 20039 58016=
202011030453 METAR KBLI 030453Z 00000KT 10SM CLR 06/03 A2994 RMK AO2 SLP146 T00560033=
202011030353 METAR KBLI 030353Z 00000KT 10SM CLR 04/03 A2996 RMK AO2 SLP156 T00440033=
202011030253 METAR KBLI 030253Z 10003KT 10SM CLR 07/04 A2997 RMK AO2 SLP158 T00670044 55008=
202011030153 METAR KBLI 030153Z 18003KT 10SM CLR 08/05 A2997 RMK AO2 SLP158 T00780050=
202011030053 METAR KBLI 030053Z 00000KT 10SM CLR 09/06 A2997 RMK AO2 SLP159 T00890056=
202011022353 METAR KBLI 022353Z 00000KT 10SM CLR 12/06 A3000 RMK AO2 SLP166 T01220061 10156 20100 56021=
202011022253 METAR KBLI 022253Z 00000KT 10SM CLR 15/07 A3001 RMK AO2 SLP172 T01500067=
202011022153 METAR KBLI 022153Z 02005KT 10SM CLR 15/07 A3003 RMK AO2 SLP177 T01500072=
202011022053 METAR KBLI 022053Z 35004KT 10SM CLR 14/07 A3006 RMK AO2 SLP187 T01440067 58020=
202011021953 METAR KBLI 021953Z 02003KT 10SM CLR 15/07 A3008 RMK AO2 SLP194 T01500072=
202011021853 METAR KBLI 021853Z VRB03KT 10SM CLR 13/07 A3010 RMK AO2 SLP201 T01280072=
202011021753 METAR KBLI 021753Z 00000KT 10SM CLR 10/06 A3012 RMK AO2 SLP208 T01000061 10100 20000 58004=
202011021653 METAR KBLI 021653Z 36003KT 10SM CLR 07/05 A3013 RMK AO2 SLP213 T00720050=
202011021553 METAR KBLI 021553Z 00000KT 9SM BCFG FEW002 02/01 A3013 RMK AO2 SLP213 T00170011=
202011021453 METAR KBLI 021453Z 00000KT 6SM BCFG SCT001 01/M01 A3013 RMK AO2 SLP213 T00061006 56003=
202011021450 SPECI KBLI 021450Z 05003KT 6SM BCFG SCT001 01/M01 A3013 RMK AO2=
202011021445 SPECI KBLI 021445Z 00000KT 3SM BR BKN001 01/M01 A3013 RMK AO2 T00061006=
202011021441 SPECI KBLI 021441Z AUTO 04003KT 1SM R16/6000VP6000FT BR VV001 01/M01 A3013 RMK AO2 T00061006=
202011021436 SPECI KBLI 021436Z AUTO 00000KT 1/2SM R16/2400VP6000FT FG VV001 01/M01 A3013 RMK AO2 T00061006=
202011021432 SPECI KBLI 021432Z AUTO 00000KT 3/4SM R16/1800V6000FT BR VV002 01/M01 A3014 RMK AO2 T00111006=
202011021422 SPECI KBLI 021422Z AUTO 00000KT 1SM R16/2600V4000FT BR VV001 01/00 A3014 RMK AO2 T00110000=
202011021405 SPECI KBLI 021405Z AUTO 00000KT 1/2SM R16/2200VP6000FT FG VV001 02/01 A3014 RMK AO2 VIS 1/4V5 T00170006=
202011021353 METAR KBLI 021353Z AUTO 00000KT 1SM R16/P6000FT BR VV001 01/00 A3013 RMK AO2 VIS 1/2V5 SLP213 T00110000=
202011021303 SPECI KBLI 021303Z AUTO 00000KT 9SM FEW002 02/M01 A3013 RMK AO2 T00171006=
202011021253 METAR KBLI 021253Z AUTO 00000KT 4SM BR CLR 01/M01 A3013 RMK AO2 SLP214 T00111006=
202011021230 SPECI KBLI 021230Z AUTO 00000KT 10SM CLR 02/00 A3013 RMK AO2 T00170000=
202011021221 SPECI KBLI 021221Z AUTO 00000KT 2SM BR CLR 02/00 A3013 RMK AO2 T00220000=
202011021153 METAR KBLI 021153Z AUTO 00000KT 7SM CLR 02/00 A3014 RMK AO2 SLP214 I1000 I6000 T00170000 10044 20011 58004=
202011021053 METAR KBLI 021053Z AUTO 00000KT 8SM FEW002 02/01 A3015 RMK AO2 SLP217 T00220006=
202011021045 SPECI KBLI 021045Z AUTO 00000KT 5SM R16/5000VP6000FT BR FEW002 02/01 A3015 RMK AO2 T00170006=
202011021023 SPECI KBLI 021023Z AUTO 00000KT 3SM BR CLR 02/01 A3015 RMK AO2 T00220006=
202011021002 SPECI KBLI 021002Z AUTO 00000KT 1 1/2SM R16/2600VP6000FT BR CLR 02/01 A3015 RMK AO2 T00220006=
202011020953 METAR KBLI 020953Z AUTO 00000KT 4SM BR CLR 03/01 A3015 RMK AO2 SLP218 T00280006=
202011020944 SPECI KBLI 020944Z AUTO 00000KT 5SM BR CLR 02/01 A3015 RMK AO2 T00220006=
202011020928 SPECI KBLI 020928Z AUTO 00000KT 2SM R16/3500VP6000FT BR CLR 02/01 A3015 RMK AO2 T00170006=
202011020919 SPECI KBLI 020919Z AUTO 00000KT 3/4SM R16/2600VP6000FT BR CLR 02/01 A3015 RMK AO2 VIS 1/4V3 T00220011=
202011020913 SPECI KBLI 020913Z AUTO 00000KT 2SM BR CLR 03/02 A3015 RMK AO2 T00280022=
202011020853 METAR KBLI 020853Z AUTO 00000KT 3SM BR CLR 04/02 A3015 RMK AO2 SLP219 T00390022 50001=
202011020851 SPECI KBLI 020851Z AUTO 00000KT 3SM BR CLR 04/02 A3015 RMK AO2=
202011020839 SPECI KBLI 020839Z AUTO 00000KT 1 3/4SM BR CLR 03/01 A3016 RMK AO2 T00280011=
202011020834 SPECI KBLI 020834Z AUTO 00000KT 3SM BR CLR 02/01 A3016 RMK AO2 T00220011=
202011020819 SPECI KBLI 020819Z AUTO 00000KT 1 3/4SM BR FEW002 02/01 A3016 RMK AO2 VIS 1/2V5 T00220011=
202011020812 SPECI KBLI 020812Z AUTO 00000KT 4SM BR SCT002 02/02 A3016 RMK AO2 T00220017=
202011020801 SPECI KBLI 020801Z AUTO 00000KT 4SM BR BKN002 03/01 A3016 RMK AO2 T00280011=
202011020759 SPECI KBLI 020759Z AUTO 00000KT 1SM R16/P6000FT BR VV002 03/01 A3016 RMK AO2 T00280011=
202011020753 METAR KBLI 020753Z AUTO 00000KT 1/4SM R16/1600VP6000FT FG VV002 03/01 A3016 RMK AO2 SLP220 T00280011 401440022=
202011020736 SPECI KBLI 020736Z AUTO 00000KT 3/4SM R16/2200VP6000FT BR VV003 03/02 A3016 RMK AO2 VIS 1/4V2 1/2 T00280017=
202011020717 SPECI KBLI 020717Z AUTO 00000KT 1 3/4SM R16/3500VP6000FT BR CLR 04/03 A3016 RMK AO2 T00390028=
202011020700 SPECI KBLI 020700Z AUTO 00000KT 3SM R16/3000VP6000FT BR CLR 03/02 A3016 RMK AO2 T00280022=
202011020653 METAR KBLI 020653Z AUTO 00000KT 1SM R16/2600VP6000FT BR CLR 04/03 A3015 RMK AO2 SLP218 T00390028=
202011020641 SPECI KBLI 020641Z AUTO 00000KT 1/2SM R16/2400VP6000FT FG CLR 03/03 A3015 RMK AO2 T00330028=
202011020638 SPECI KBLI 020638Z AUTO 00000KT 1 1/4SM R16/2400VP6000FT BR CLR 03/02 A3015 RMK AO2 T00330022=
202011020553 METAR KBLI 020553Z 00000KT 10SM CLR 04/03 A3016 RMK AO2 SLP220 T00390028 10117 20039 53002=
202011020453 METAR KBLI 020453Z 00000KT 10SM CLR 04/02 A3016 RMK AO2 SLP223 T00390022=
202011020353 METAR KBLI 020353Z 00000KT 10SM R16/5500VP6000FT CLR 05/03 A3015 RMK AO2 SLP217 T00500028=
202011020253 METAR KBLI 020253Z 00000KT 10SM CLR 06/04 A3015 RMK AO2 SLP219 T00610039 55006=
202011020153 METAR KBLI 020153Z 00000KT 10SM CLR 07/04 A3015 RMK AO2 SLP218 T00670039=
202011020053 METAR KBLI 020053Z 00000KT 10SM CLR 09/06 A3016 RMK AO2 SLP221 T00890056=
202011012353 METAR KBLI 012353Z 31004KT 10SM CLR 12/06 A3017 RMK AO2 SLP224 T01220061 10144 20094 56015=
202011012253 METAR KBLI 012253Z 30005KT 10SM CLR 13/06 A3018 RMK AO2 SLP229 T01280061=
202011012153 METAR KBLI 012153Z 29004KT 10SM CLR 13/06 A3019 RMK AO2 SLP233 T01330061=
202011012053 METAR KBLI 012053Z 03006KT 10SM CLR 14/04 A3021 RMK AO2 SLP238 T01440044 58019=
202011011953 METAR KBLI 011953Z 03006KT 10SM CLR 13/05 A3024 RMK AO2 SLP247 T01330050=
202011011853 METAR KBLI 011853Z 03007KT 10SM CLR 12/04 A3026 RMK AO2 SLP254 T01170044=
202011011753 METAR KBLI 011753Z 04005KT 10SM CLR 09/04 A3027 RMK AO2 SLP258 T00940044 10094 20022 58004=
202011011653 METAR KBLI 011653Z 04005KT 10SM CLR 07/03 A3027 RMK AO2 SLP259 T00670028=
202011011553 METAR KBLI 011553Z 00000KT 10SM CLR 03/02 A3028 RMK AO2 SLP264 T00330017=
202011011453 METAR KBLI 011453Z 00000KT 10SM CLR 03/01 A3028 RMK AO2 SLP263 T00330011 56009=
202011011353 METAR KBLI 011353Z AUTO 01003KT 10SM CLR 04/01 A3028 RMK AO2 SLP263 T00390011=
202011011253 METAR KBLI 011253Z AUTO 02006KT 10SM CLR 05/02 A3029 RMK AO2 SLP265 T00500017=
202011011153 METAR KBLI 011153Z AUTO 34005KT 10SM CLR 04/02 A3031 RMK AO2 SLP272 T00440022 10067 20039 58005=
202011011053 METAR KBLI 011053Z AUTO 36003KT 10SM CLR 05/03 A3032 RMK AO2 SLP274 T00500028=
202011010953 METAR KBLI 010953Z AUTO 36006KT 10SM CLR 06/03 A3032 RMK AO2 SLP276 T00560028=
202011010853 METAR KBLI 010853Z AUTO 02005KT 10SM CLR 06/03 A3032 RMK AO2 SLP277 T00560028 56010=
202011010753 METAR KBLI 010753Z AUTO 02006KT 8SM CLR 05/03 A3033 RMK AO2 SLP278 T00500028 401330006=
202011010653 METAR KBLI 010653Z AUTO 01003KT 7SM CLR 05/03 A3035 RMK AO2 SLP284 T00500028=
202011010553 METAR KBLI 010553Z AUTO 02003KT 8SM CLR 04/02 A3035 RMK AO2 SLP287 T00440022 10117 20044 56005=
202011010453 METAR KBLI 010453Z 02004KT 10SM CLR 05/02 A3036 RMK AO2 SLP289 T00500022=
202011010353 METAR KBLI 010353Z 35005KT 10SM CLR 06/03 A3036 RMK AO2 SLP291 T00560028=
202011010253 METAR KBLI 010253Z 32003KT 9SM CLR 06/04 A3037 RMK AO2 SLP293 T00560039 55003=
202011010153 METAR KBLI 010153Z 35003KT 10SM CLR 08/04 A3036 RMK AO2 SLP291 T00780044=
202011010053 METAR KBLI 010053Z 00000KT 10SM CLR 09/05 A3037 RMK AO2 SLP292 T00890050=

# No short TAF reports from KBLI in databse.

###################################
#  large TAF from KBLI
###################################
202011302321 TAF KBLI 302321Z 0100/0124 22008KT P6SM SCT030 SCT040 BKN060 FM010500
                       VRB04KT P6SM BKN050 FM011200 09002KT 4SM
                       BR SCT015 BKN050 FM011900 03005KT P6SM SCT250=
202011301732 TAF KBLI 301732Z 3018/0118 16017G27KT P6SM -SHRA OVC020 FM301900
                       20014G22KT P6SM VCSH SCT020 OVC040 FM010100
                       21010KT P6SM BKN050 FM010500 VRB04KT P6SM
                       OVC050=
202011301358 KBLI 301358Z 3014/0112 18021G32KT P6SM -RA BKN025 OVC030 FM301500
                       16017G27KT P6SM -SHRA OVC020 FM301900 20014G22KT
                       P6SM VCSH SCT020 OVC040 FM010100 21010KT
                       P6SM BKN050 FM010500 VRB04KT P6SM OVC050=
202011301215 KBLI 301215Z 3012/0112 19020G35KT P6SM -RA FEW050 OVC060 FM301500
                       16017G27KT P6SM -SHRA OVC020 FM301900 20014G22KT
                       P6SM VCSH SCT020 OVC040 FM010100 21010KT
                       P6SM BKN050 FM010500 VRB04KT P6SM OVC050=
202011301120 TAF KBLI 301120Z 3012/0112 19017G24KT P6SM -RA FEW050 OVC060 FM301500
                       16017G27KT P6SM -SHRA OVC020 FM301900 20014G22KT
                       P6SM VCSH SCT020 OVC040 FM010100 21010KT
                       P6SM BKN050 FM010500 VRB04KT P6SM OVC050=
202011300525 TAF KBLI 300525Z 3006/0106 14010KT P6SM OVC090 FM300900 16015G23KT
                       P6SM -RA OVC050 FM301200 15020G30KT P6SM
                       -RA OVC015 FM301500 16017G27KT P6SM -SHRA
                       OVC020 FM301900 23014G22KT P6SM VCSH SCT020
                       OVC040 FM010100 26010KT P6SM BKN050 FM010500
                       VRB04KT P6SM FEW060 SCT200=
202011292321 TAF KBLI 292321Z 3000/3024 03004KT P6SM BKN070 BKN250 FM301000
                       15015G23KT P6SM -RA OVC050 FM301200 15020G30KT
                       P6SM -RA OVC015 FM301500 16017G27KT P6SM
                       -SHRA OVC020 FM301800 18012G18KT P6SM VCSH
                       BKN035 OVC050=
202011291905 KBLI 291905Z 2919/3018 00000KT P6SM SCT250 FM292100 08004KT P6SM
                       BKN100 BKN250 FM300200 15008KT P6SM BKN090
                       OVC150 FM301000 15015G23KT P6SM -RA OVC050
                       FM301200 15020G30KT P6SM -RA OVC015 FM301500
                       16017G27KT P6SM -SHRA OVC020=
202011291727 TAF KBLI 291727Z 2918/3018 00000KT 1/4SM FG VV002 FM292000 VRB03KT
                       2SM BR BKN005 BKN250 FM292100 08004KT P6SM
                       BKN100 BKN250 FM300200 15008KT P6SM BKN090
                       OVC150 FM301000 15015G23KT P6SM -RA OVC050
                       FM301200 15020G30KT P6SM -RA OVC015 FM301500
                       16017G27KT P6SM -SHRA OVC020=
202011291604 KBLI 291604Z 2916/3012 00000KT 1/2SM FZFG VV003 FM291800 VRB03KT
                       P6SM SCT005 BKN250
                      TEMPO 2918/2920 2SM BR BKN005 BKN250 FM292100
                       11005KT P6SM BKN100 BKN250 FM300200 15008KT
                       P6SM OVC050 FM300800 15015G23KT P6SM OVC050
                       FM301100 15020G30KT P6SM -RA OVC015=
202011291140 TAF KBLI 291140Z 2912/3012 00000KT 6SM BR FEW050
                      TEMPO 2912/2915 3SM BR FM292100 11005KT P6SM
                       BKN100 BKN250 FM300200 15008KT P6SM OVC050
                       FM300800 15015G23KT P6SM OVC050 FM301100
                       15020G30KT P6SM -RA OVC015=
202011290857 KBLI 290857Z 2909/3006 00000KT 3SM BR OVC005 FM292100 11005KT P6SM
                       BKN100 BKN250 FM300200 15008KT P6SM OVC050=
202011290729 KBLI 290729Z 2907/3006 00000KT 1/2SM FG VV002 FM292100 11005KT
                       P6SM BKN100 BKN250 FM300200 15008KT P6SM
                       OVC050=
202011290520 TAF KBLI 290520Z 2906/3006 VRB03KT P6SM BKN250 FM292100 11005KT
                       P6SM BKN100 BKN250 FM300200 15008KT P6SM
                       OVC050=
202011282320 TAF KBLI 282320Z 2900/2924 VRB03KT P6SM BKN250 FM292100 06005KT
                       P6SM BKN100 BKN250=
202011281721 TAF KBLI 281721Z 2818/2918 17003KT P6SM SCT025
                      TEMPO 2818/2820 BKN025 FM282100 VRB04KT P6SM
                       SCT040 FM290200 06004KT P6SM BKN250=
202011281155 TAF KBLI 281155Z 2812/2912 19005KT P6SM FEW027 FM281600 19005KT
                       P6SM BKN035 FM282200 VRB04KT P6SM SCT070
                       FM290200 06004KT P6SM SCT070 SCT250=
202011280527 TAF KBLI 280527Z 2806/2906 16015G25KT P6SM -RA OVC025 FM280900
                       18008KT P6SM OVC020 FM281600 19005KT P6SM
                       BKN035 FM282200 VRB04KT P6SM SCT070 FM290200
                       06004KT P6SM SCT070 SCT250=
202011272320 TAF KBLI 272320Z 2800/2824 19009G17KT P6SM FEW050 BKN250 FM280300
                       16015G25KT P6SM -RA BKN030 OVC060 FM280600
                       16015G25KT P6SM OVC020 FM280900 17008KT
                       P6SM OVC025 FM282100 VRB03KT P6SM OVC050=
202011271725 TAF KBLI 271725Z 2718/2818 17010G18KT P6SM FEW060 BKN250 FM280300
                       16015G25KT P6SM -RA BKN030 OVC060 FM280600
                       16015G25KT P6SM OVC020 FM280900 17008KT
                       P6SM OVC025=
202011271138 TAF KBLI 271138Z 2712/2812 17014G22KT P6SM BKN045 FM271800 16015G25KT
                       P6SM BKN050 FM280300 16020G30KT 6SM -RA
                       BKN030 OVC060=
202011270520 TAF KBLI 270520Z 2706/2806 18009KT P6SM VCSH SCT025 BKN040
                      TEMPO 2706/2709 -RA BKN025 FM271000 17012KT
                       P6SM BKN045 FM271800 16013G20KT P6SM BKN050
                       FM280200 16014G22KT 6SM -RA BKN030 OVC060=
202011262333 TAF KBLI 262333Z 2700/2724 18007KT P6SM OVC040 FM270300 16009KT
                       P6SM OVC025 FM271800 16013KT P6SM BKN050=
202011261726 TAF KBLI 261726Z 2618/2718 21004KT P6SM BKN015 OVC020 FM262100
                       17008KT P6SM BKN025 FM270200 17009KT P6SM
                       BKN035 FM271300 16009KT P6SM OVC025=
202011261123 TAF KBLI 261123Z 2612/2712 00000KT 3SM BR BKN015 OVC030 FM261600
                       18006KT P6SM OVC015 FM262100 17007KT P6SM
                       BKN025 FM270000 17009KT P6SM BKN035=
202011260520 TAF KBLI 260520Z 2606/2706 00000KT 3SM BR VCSH SCT009 BKN025
                      TEMPO 2606/2610 2SM -SHRA FM261600 18006KT
                       P6SM OVC015 FM262100 17007KT P6SM BKN025
                       FM270000 17009KT P6SM BKN035=
202011252320 TAF KBLI 252320Z 2600/2624 VRB03KT P6SM BKN040 FM260900 18005KT
                       P6SM BKN020 FM262200 18005KT P6SM BKN040=
202011252023 KBLI 252023Z 2520/2618 18006KT P6SM SCT020 BKN035 FM260400 18006KT
                       P6SM BKN020 FM260900 18005KT P6SM OVC015
                       FM261700 18005KT P6SM BKN015=
202011251720 TAF KBLI 251720Z 2518/2618 18006KT P6SM BKN018 FM252100 18008KT
                       P6SM BKN025 FM260900 18005KT P6SM OVC015
                       FM261700 18005KT P6SM BKN015=
202011251122 TAF KBLI 251122Z 2512/2612 19008KT 5SM -RA BR OVC020 FM251500 18008KT
                       P6SM SCT015 BKN025 FM252000 16006KT P6SM
                       BKN025 FM260900 00000KT 6SM BR OVC020=
202011250520 TAF KBLI 250520Z 2506/2606 19006KT P6SM VCSH SCT045 FM251200 18008KT
                       P6SM OVC020 FM252000 16006KT P6SM BKN030=
202011242320 TAF KBLI 242320Z 2500/2524 21012KT 5SM -RA BR OVC020
                      TEMPO 2500/2503 3SM -RA BR OVC012 FM250300
                       21012KT P6SM -SHRA BKN020 OVC040 FM251200
                       18008KT P6SM OVC020 FM252000 16006KT P6SM
                       BKN030=
202011241720 TAF KBLI 241720Z 2418/2518 17025G35KT P6SM SCT025 OVC040
                      TEMPO 2418/2422 5SM -RA BR BKN025 OVC040
                       FM242200 20015G25KT P6SM -RA OVC025 FM250300
                       21012KT P6SM -SHRA BKN015 FM251200 18008KT
                       P6SM VCSH BKN020=
202011241120 TAF KBLI 241120Z 2412/2512 16012G18KT P6SM -DZ BKN025 OVC035 FM242000
                       18015G25KT P6SM -RA OVC025 FM250300 17010KT
                       P6SM -SHRA BKN015=
202011240520 TAF KBLI 240520Z 2406/2506 VRB03KT P6SM SCT007 OVC035 FM241200
                       16012G20KT P6SM -DZ BKN015 OVC035 FM242000
                       18015G25KT P6SM -RA OVC025=
202011232320 TAF KBLI 232320Z 2400/2424 VRB03KT P6SM SCT007 OVC015 FM241200
                       16012G20KT P6SM -DZ BKN015 OVC035 FM242000
                       18015G25KT P6SM -RA OVC025=
202011232103 KBLI 232103Z 2321/2418 00000KT P6SM SCT008 OVC015
                      TEMPO 2321/2324 2SM BR BKN008 OVC015 FM240000
                       VRB04KT P6SM BKN020 BKN040 FM241200 16012G22KT
                       P6SM -RA OVC020=
202011231720 TAF KBLI 231720Z 2318/2418 VRB04KT P6SM VCSH SCT025 OVC035 FM232100
                       VRB04KT P6SM BKN040 FM240600 14006KT P6SM
                       BKN025 FM241200 16012G22KT P6SM VCSH BKN030
                       OVC060=
202011231121 TAF KBLI 231121Z 2312/2412 18007KT P6SM SCT016 BKN025 OVC040
                      TEMPO 2312/2316 -RA BKN015 OVC025 FM231600
                       17008KT P6SM -RA OVC017 FM232100 16005KT
                       P6SM VCSH BKN022 FM240300 14006KT P6SM BKN025
                       FM241000 14012G18KT P6SM VCSH BKN030 OVC060=
202011230534 TAF KBLI 230534Z 2306/2406 17006KT P6SM VCSH OVC025 FM230800 14005KT
                       P6SM -RA OVC018 FM231500 17003KT P6SM -RA
                       OVC014 FM232300 17004KT P6SM BKN022=
202011222333 TAF KBLI 222333Z 2300/2324 03005KT P6SM VCSH OVC050 FM230200 13008KT
                       P6SM VCSH OVC025 FM230700 13005KT P6SM -RA
                       OVC015 FM231500 11003KT P6SM OVC015=
202011221725 TAF KBLI 221725Z 2218/2318 VRB03KT P6SM OVC100 FM222200 12006KT
                       P6SM VCSH OVC050 FM230200 13008KT P6SM VCSH
                       OVC025 FM230700 13005KT P6SM -RA OVC015
                       FM231500 11003KT P6SM OVC015=
202011221125 TAF KBLI 221125Z 2212/2312 VRB03KT P6SM OVC150 FM221900 13007KT
                       P6SM OVC100 FM222200 15008KT P6SM VCSH OVC050
                       FM230200 13008KT P6SM VCSH OVC025 FM230700
                       13005KT P6SM -RA OVC017=
202011220520 TAF KBLI 220520Z 2206/2306 34004KT P6SM SKC FM221500 14005KT P6SM
                       BKN250 FM221900 14008KT P6SM OVC100 FM222000
                       15008KT P6SM OVC050 FM230300 13005KT P6SM
                       OVC025=
202011212340 TAF KBLI 212340Z 2200/2224 02008KT P6SM SCT050 BKN150 FM221500
                       14005KT P6SM OVC120 FM221700 16012KT P6SM
                       OVC070 FM222000 15008KT P6SM OVC050=
202011211745 TAF KBLI 211745Z 2118/2218 VRB04KT P6SM SCT020 BKN050 FM212200
                       36005KT P6SM BKN060 BKN200 FM220400 01004KT
                       P6SM SCT060 BKN200=
202011211358 KBLI 211358Z 2114/2212 VRB03KT P6SM OVC022
                      TEMPO 2114/2118 3SM BR SCT020 FM211800 VRB04KT
                       P6SM BKN030 BKN050 FM212200 36005KT P6SM
                       BKN060 BKN200 FM220400 01004KT P6SM SCT060
                       BKN200=
202011211126 TAF KBLI 211126Z 2112/2212 VRB03KT P6SM OVC022 FM211800 VRB04KT
                       P6SM BKN030 BKN050 FM212200 36005KT P6SM
                       BKN060 BKN200 FM220400 01004KT P6SM SCT060
                       BKN200=
202011210535 TAF KBLI 210535Z 2106/2206 18010KT P6SM -RA BKN025 OVC040 FM210900
                       17005KT P6SM OVC025 FM211500 VRB02KT P6SM
                       OVC025 FM211900 VRB04KT P6SM OVC050 FM212200
                       01003KT P6SM BKN250=
202011202335 TAF KBLI 202335Z 2100/2124 16012G18KT P6SM -SHRA SCT040 OVC080
                       FM210300 16010KT P6SM VCSH BKN035 BKN050
                       FM210900 17005KT P6SM OVC025 FM211900 34004KT
                       P6SM OVC050=
202011201725 TAF KBLI 201725Z 2018/2118 16011KT P6SM VCSH OVC025 FM201900 16012G18KT
                       P6SM -SHRA OVC025 FM210300 16010KT P6SM
                       VCSH BKN035 BKN050 FM210900 17005KT P6SM
                       OVC025=
202011201128 TAF KBLI 201128Z 2012/2112 16011KT P6SM VCSH OVC035 FM201900 16012G18KT
                       P6SM -SHRA OVC025 FM210300 16010KT P6SM
                       VCSH BKN035 BKN050 FM210900 17005KT P6SM
                       OVC025=
202011200532 TAF KBLI 200532Z 2006/2106 18007KT P6SM VCSH FEW050 BKN070 OVC090
                       FM200900 16007KT P6SM VCSH OVC035 FM201900
                       17010G16KT P6SM -SHRA OVC025 FM210300 16010KT
                       P6SM VCSH BKN035 BKN050=
202011192320 TAF KBLI 192320Z 2000/2024 18008KT P6SM VCSH FEW025 SCT030 OVC050
                       FM200600 16007KT P6SM VCSH OVC025 FM201900
                       17010G16KT P6SM -SHRA OVC025=
202011191720 TAF KBLI 191720Z 1918/2018 17009KT P6SM VCSH SCT035 FM192100 16008KT
                       P6SM -SHRA BKN030 OVC050 FM200600 16007KT
                       P6SM VCSH OVC025=
202011191130 TAF KBLI 191130Z 1912/2012 18008KT P6SM SCT025 OVC050
                      TEMPO 1912/1916 BKN025 FM191800 17009KT P6SM
                       VCSH BKN035 BKN050 FM192100 16008KT P6SM
                       -SHRA BKN030 OVC050 FM200300 16007KT P6SM
                       -SHRA OVC025 FM200800 16007KT P6SM VCSH
                       OVC022=
202011190529 TAF KBLI 190529Z 1906/2006 19008KT P6SM SCT015 BKN045
                      TEMPO 1906/1910 -SHRA BKN015 OVC045 FM191200
                       17008KT P6SM SCT015 BKN050 FM191900 17010KT
                       P6SM -SHRA SCT025 OVC040=
202011182320 TAF KBLI 182320Z 1900/1924 17010G18KT P6SM -RA SCT020 BKN025 OVC045
                       FM190500 17010KT P6SM BKN035 FM190900 17007KT
                       P6SM OVC025 FM191900 17010G17KT P6SM -SHRA
                       OVC025=
202011182104 KBLI 182104Z 1821/1918 17015G23KT P6SM -SHRA OVC020 FM190500 17010KT
                       P6SM BKN035 FM190900 17007KT P6SM OVC025=
202011181740 TAF KBLI 181740Z 1818/1918 15007KT P6SM -RA SCT025 OVC040 FM190500
                       17010KT P6SM BKN035 FM190900 17007KT P6SM
                       OVC025=
202011181123 TAF KBLI 181123Z 1812/1912 18010KT P6SM VCSH SCT050 BKN100 FM181800
                       18012G18KT 5SM SHRA BKN025 OVC040 FM190500
                       17010KT P6SM BKN030 FM190900 17007KT P6SM
                       OVC020=
202011180520 TAF KBLI 180520Z 1806/1906 18010KT P6SM BKN015
                      TEMPO 1806/1807 3SM RA FM180700 18010KT P6SM
                       VCSH BKN030 BKN050 FM181800 18012G18KT 5SM
                       SHRA BKN025 OVC040 FM190500 17010KT P6SM
                       BKN030=
202011180323 KBLI 180323Z 1803/1824 18010KT P6SM BKN015
                      TEMPO 1803/1807 -SHRA FM180700 18010KT P6SM
                       VCSH BKN025 BKN050 FM181500 18012G18KT 5SM
                       SHRA BKN035 BKN060=
202011172321 TAF KBLI 172321Z 1800/1824 18015G25KT P6SM SCT025 BKN060
                      TEMPO 1800/1804 -SHRA BKN025 OVC050 FM180600
                       18012G20KT P6SM -SHRA BKN025 BKN050 FM181500
                       18012KT P6SM VCSH BKN035 BKN060=
202011172206 KBLI 172206Z 1722/1818 18020G30KT P6SM -SHRA BKN025 BKN050 FM180300
                       20015G25KT P6SM -SHRA BKN025 BKN050 FM180900
                       18012KT P6SM VCSH BKN030 FM181700 18012KT
                       P6SM -SHRA BKN030=
202011171929 KBLI 171929Z 1719/1818 18027G40KT P6SM SCT030 BKN050 OVC100
                      TEMPO 1720/1724 5SM -SHRA BKN025 OVC050 FM180000
                       17020G30KT P6SM -SHRA BKN025 BKN050 FM180300
                       20015G25KT P6SM -SHRA BKN025 BKN050 FM180900
                       18012KT P6SM VCSH BKN030 FM181700 18012KT
                       P6SM -SHRA BKN030=
202011171720 TAF KBLI 171720Z 1718/1818 17020G30KT P6SM -RA SCT020 OVC040 FM172100
                       18025G35KT 5SM -SHRA OVC025 FM180300 20015G25KT
                       P6SM -SHRA BKN025 FM180900 18012KT P6SM
                       VCSH BKN030 FM181700 18012KT P6SM -SHRA
                       BKN030=
202011171120 TAF KBLI 171120Z 1712/1812 05006KT P6SM SCT060 OVC200 FM171500
                       12012KT P6SM BKN050 BKN120 FM171700 15020G30KT
                       P6SM -RA SCT020 OVC040 FM172000 18035G45KT
                       P6SM -RA OVC020 FM180300 18025G35KT P6SM
                       -SHRA BKN020 FM180700 17012KT 5SM -RA BR
                       OVC020=
202011170520 TAF KBLI 170520Z 1706/1806 12012KT P6SM -SHRA BKN020 OVC040 FM170800
                       12012KT P6SM BKN050 BKN120 FM171600 15020G30KT
                       P6SM -RA SCT020 OVC040 FM172000 18035G45KT
                       P6SM -RA OVC020 FM180300 18025G35KT P6SM
                       -SHRA BKN020=
202011170333 KBLI 170333Z 1704/1724 12012KT P6SM -SHRA BKN020 OVC040 FM170800
                       12012KT P6SM BKN050 BKN120 FM171600 15017G27KT
                       P6SM -RA SCT020 OVC040 FM172000 18020G30KT
                       P6SM -RA OVC020 FM172300 20012G22KT P6SM
                       -SHRA BKN020=
202011162320 TAF KBLI 162320Z 1700/1724 05010KT 5SM -RA BR SCT015 OVC040
                      TEMPO 1700/1704 2SM -RA BR BKN015 OVC030
                       FM170400 12012KT P6SM SCT015 OVC040 FM170800
                       12012KT P6SM BKN050 BKN120 FM171600 15017G27KT
                       P6SM -RA SCT020 OVC040 FM172000 18020G30KT
                       P6SM -RA OVC020 FM172300 20012G22KT P6SM
                       -SHRA BKN020=
202011161720 TAF KBLI 161720Z 1618/1718 02007KT P6SM -RA OVC035
                      TEMPO 1620/1624 5SM -RA OVC025 FM170400 12008KT
                       P6SM SCT020 OVC050 FM171000 12008KT P6SM
                       BKN050 BKN120=
202011161120 TAF KBLI 161120Z 1612/1712 VRB03KT P6SM OVC030 FM162000 02008KT
                       P6SM -RA OVC015 FM170300 07012G20KT 5SM
                       -RA BR OVC025 FM170800 11008KT P6SM SCT030
                       OVC050=
202011160552 TAF KBLI 160552Z 1606/1706 19005KT P6SM SCT050 BKN100
                      TEMPO 1606/1608 -SHRA BKN050 OVC100 FM160800
                       14003KT P6SM OVC050 FM161200 02003KT P6SM
                       OVC025 FM162000 02008KT P6SM -RA OVC015=
202011152346 TAF KBLI 152346Z 1600/1624 20008G15KT P6SM -RA BKN040 BKN045 OVC090
                       FM160700 VRB04KT P6SM OVC030 FM161500 03005KT
                       P6SM OVC050 FM162300 01007G15KT 6SM -RA
                       BR OVC025=
202011151725 TAF KBLI 151725Z 1518/1618 20008G20KT P6SM -RA FEW015 SCT025 BKN040
                       FM160000 16008KT P6SM OVC050 FM160700 VRB04KT
                       P6SM OVC025 FM161500 03005KT P6SM OVC050=
202011151120 TAF KBLI 151120Z 1512/1612 11011KT P6SM VCSH SCT030 OVC035 FM151600
                       17012G22KT P6SM VCSH OVC050 FM160000 16008KT
                       P6SM OVC050 FM160700 VRB04KT P6SM OVC030=
202011150527 TAF KBLI 150527Z 1506/1606 00000KT P6SM -RA OVC030 FM150800 11008KT
                       P6SM -RA OVC015 FM151400 17012G22KT P6SM
                       OVC050 FM160000 16008KT P6SM OVC050=
202011142325 TAF KBLI 142325Z 1500/1524 14008KT P6SM FEW025 SCT035 BKN070 FM150400
                       10015G24KT P6SM -RA OVC030 FM152100 18010G20KT
                       P6SM -RA OVC050=
202011141857 KBLI 141857Z 1419/1518 18013G21KT P6SM SCT025 BKN040 OVC050 FM142100
                       15012G20KT P6SM SCT050 BKN100 FM150400 10015G24KT
                       P6SM -RA OVC050 FM151000 16015G25KT P6SM
                       -RA OVC025=
202011141738 TAF KBLI 141738Z 1418/1518 19006KT P6SM BKN050 FM142100 15012G20KT
                       P6SM SCT050 BKN100 FM150400 10015G24KT P6SM
                       -RA OVC050 FM151000 16015G25KT P6SM -RA
                       OVC025=
202011141120 TAF KBLI 141120Z 1412/1512 19006KT P6SM FEW030 BKN070 FM142100
                       15012KT P6SM SCT050 BKN100 FM150400 10015G24KT
                       P6SM -RA BKN025 OVC050=
202011140520 TAF KBLI 140520Z 1406/1506 19006KT P6SM FEW030 BKN090 FM142100
                       15012KT P6SM SCT050 BKN100 FM150400 10010KT
                       P6SM -RA BKN025 OVC050=
202011132327 TAF KBLI 132327Z 1400/1424 29007G15KT P6SM FEW080 FEW090 FM140800
                       18010KT P6SM OVC050 FM142100 16015G20KT
                       P6SM OVC050=
202011132120 KBLI 132120Z 1321/1418 29011G20KT P6SM FEW040 BKN070 OVC100 FM140000
                       20015G23KT P6SM VCSH BKN040 FM140800 18010KT
                       P6SM OVC050=
202011132009 KBLI 132009Z 1320/1418 29011G19KT P6SM -RA FEW019 BKN035 OVC060
                       FM132100 19012G20KT 6SM -SHRA OVC020 FM140000
                       20015G23KT P6SM VCSH BKN040 FM140800 18010KT
                       P6SM OVC050=
202011131819 KBLI 131819Z 1318/1418 21009G22KT P6SM SCT008 BKN017 OVC027 FM132100
                       19012G20KT 6SM -SHRA OVC020 FM140000 20015G23KT
                       P6SM VCSH BKN040 FM140800 18010KT P6SM OVC050=
202011131747 TAF KBLI 131747Z 1318/1418 19012G22KT 3SM -RA BR FEW008 SCT016
                       OVC025 FM132100 19012G20KT 6SM -SHRA OVC020
                       FM140000 20015G23KT P6SM VCSH BKN040 FM140800
                       18010KT P6SM OVC050=
202011131524 KBLI 131524Z 1315/1412 14011G20KT 4SM -RA BR OVC015 FM132100 19012G20KT
                       P6SM -SHRA OVC020 FM140000 20015G23KT P6SM
                       VCSH BKN040 FM140800 18010KT P6SM OVC050=
202011131121 TAF KBLI 131121Z 1312/1412 17015G25KT 4SM -RA BR OVC025 FM131500
                       14011G20KT 4SM -RA BR OVC015 FM132100 19012G20KT
                       P6SM -SHRA OVC020 FM140000 20015G23KT P6SM
                       VCSH BKN040 FM140800 18010KT P6SM OVC050=
202011130520 TAF KBLI 130520Z 1306/1406 16017G28KT 6SM -RA OVC028 FM130900 11015G25KT
                       4SM -RA BR OVC015 FM132100 27012G20KT P6SM
                       -SHRA BKN022 FM140000 26015KT P6SM VCSH
                       BKN040=
202011122330 TAF KBLI 122330Z 1300/1324 16019G26KT P6SM -RA BKN060 OVC070 FM130600
                       15025G30KT 4SM -RA OVC010 FM131200 11015G25KT
                       4SM -RA BR OVC015 FM131800 15010G20KT 2SM
                       -RA OVC007 FM132200 18017G25KT 4SM -RA OVC015=
202011122215 KBLI 122215Z 1222/1318 16020G29KT P6SM OVC080 FM130000 14016G26KT
                       6SM -RA BR OVC015 FM130600 15012G22KT 4SM
                       -RA OVC010 FM131200 14009KT 4SM -RA BR OVC015=
202011121732 TAF KBLI 121732Z 1218/1318 13012KT P6SM SCT030 OVC080 FM122100
                       13015G22KT P6SM -RA OVC035 FM130000 14016G26KT
                       6SM -RA BR OVC015 FM130600 15012G22KT 4SM
                       -RA OVC010 FM131200 14009KT 4SM -RA BR OVC015=
202011121136 TAF KBLI 121136Z 1212/1312 VRB04KT P6SM OVC050 FM121500 11006KT
                       P6SM BKN025 OVC050 FM121800 13012KT P6SM
                       VCSH OVC025 FM122100 13015G22KT P6SM -RA
                       OVC025 FM130000 14016G26KT 6SM -RA BR OVC015
                       FM130600 15012G22KT 4SM -RA OVC007=
202011120520 TAF KBLI 120520Z 1206/1306 VRB04KT P6SM OVC050 FM121500 11006KT
                       P6SM BKN025 OVC050 FM121800 13012KT P6SM
                       VCSH OVC025 FM122100 13015G22KT P6SM -RA
                       OVC025 FM130000 14016G26KT 6SM -RA BR OVC015=
202011112320 TAF KBLI 112320Z 1200/1224 VRB04KT P6SM OVC045 FM121500 11006KT
                       P6SM BKN025 OVC050 FM121800 13012KT P6SM
                       OVC025 FM122100 13015G22KT P6SM -RA OVC025=
202011111720 TAF KBLI 111720Z 1118/1218 04003KT P6SM BKN040 FM112000 15006KT
                       P6SM BKN050 FM120600 12004KT P6SM OVC050=
202011111132 TAF KBLI 111132Z 1112/1212 00000KT 1/2SM FZFG VV002
                      TEMPO 1113/1116 1/2SM FZFG OVC005 FM112000
                       15006KT P6SM SCT030 BKN050 FM120000 VRB04KT
                       P6SM OVC070 FM120600 12004KT 6SM BR OVC050=
202011110520 TAF KBLI 110520Z 1106/1206 00000KT P6SM BKN035 FM111000 00000KT
                       P6SM OVC025 FM112000 15006KT P6SM SCT030
                       BKN050 FM120000 15005KT P6SM OVC070=
202011102320 TAF KBLI 102320Z 1100/1124 35004KT P6SM FEW050 BKN080 FM110600
                       00000KT P6SM OVC025 FM112000 15006KT P6SM
                       SCT030 BKN050=
202011101733 TAF KBLI 101733Z 1018/1118 35004KT P6SM VCSH BKN030
                      TEMPO 1018/1022 6SM -SHRA BKN025 FM102200
                       01006KT P6SM BKN035 FM110600 VRB04KT P6SM
                       BKN025=
202011101124 TAF KBLI 101124Z 1012/1112 04003KT 2SM -RA BR OVC009 FM101500 12004KT
                       P6SM VCSH OVC015 FM101800 VRB04KT P6SM -RA
                       OVC007 FM102200 01006KT P6SM BKN035 FM110300
                       VRB04KT P6SM BKN050=
202011100520 TAF KBLI 100520Z 1006/1106 11009KT P6SM -RA BKN017 OVC025 FM100900
                       14006KT P6SM -SHRA BKN015 BKN040 FM101800
                       VRB04KT P6SM VCSH SCT015 BKN030 FM102200
                       01006KT P6SM BKN035 BKN050 FM110300 VRB04KT
                       P6SM BKN050=
202011092321 TAF KBLI 092321Z 1000/1024 16012KT P6SM SCT040 OVC080 FM100200
                       12010KT P6SM -RA SCT010 OVC020 FM100400
                       15010KT 4SM -RA BR OVC015 FM100900 VRB05KT
                       P6SM OVC015 FM101800 VRB04KT P6SM SCT025
                       BKN050=
202011091725 TAF KBLI 091725Z 0918/1018 13008KT P6SM OVC100 FM092300 13012G20KT
                       P6SM OVC050 FM100100 12010KT P6SM -RA SCT010
                       OVC020 FM100300 15010KT 4SM -RA BR OVC010
                       FM100900 VRB05KT P6SM VCSH OVC015=
202011091139 TAF KBLI 091139Z 0912/1012 14004KT P6SM SCT250 FM091700 13008KT
                       P6SM OVC100 FM092300 13012G20KT P6SM OVC050
                       FM100100 12010KT P6SM -RA SCT010 OVC020=
202011090520 TAF KBLI 090520Z 0906/1006 01007KT P6SM SKC FM090800 07006KT P6SM
                       SKC FM091100 14004KT P6SM SCT250 FM091700
                       13008KT P6SM OVC100 FM092300 13012G20KT
                       P6SM OVC050 FM100100 12010KT P6SM -RA SCT010
                       OVC020=
202011082336 TAF KBLI 082336Z 0900/0924 04015G22KT P6SM SKC FM090200 01012KT
                       P6SM SKC FM090800 05006KT P6SM SKC FM091100
                       10004KT P6SM SCT250 FM091800 13012G20KT
                       P6SM OVC100 FM092300 13014G22KT P6SM OVC050
                       PROB30 0923/0924 P6SM -SHRA OVC025=
202011081720 TAF KBLI 081720Z 0818/0918 04024G35KT P6SM SKC FM090200 01012KT
                       P6SM SKC FM090800 05006KT P6SM SKC FM091100
                       10004KT P6SM SCT250=
202011081641 KBLI 081641Z 0817/0912 04024G35KT P6SM SKC FM090100 01008KT P6SM
                       SKC FM090800 05003KT P6SM SKC FM091100 10002KT
                       P6SM SCT250=
202011081135 TAF KBLI 081135Z 0812/0912 02012G22KT P6SM SKC FM090100 01008KT
                       P6SM SKC FM090800 05003KT P6SM SKC FM091100
                       10002KT P6SM SCT250=
202011080520 TAF KBLI 080520Z 0806/0906 04008KT P6SM SCT250 FM081100 01013G24KT
                       P6SM SKC FM081600 01018G25KT P6SM SKC FM090100
                       01007KT P6SM SKC=
202011080003 KBLI 080003Z 0800/0824 36012G20KT P6SM SCT040 BKN060 FM080600 04015G25KT
                       P6SM SCT250=
202011072355 TAF KBLI 072355Z 0800/0824 36012G20KT P6SM SCT040 FM080600 04015G25KT
                       P6SM SKC=
202011071724 TAF KBLI 071724Z 0718/0818 36006KT P6SM BKN035 FM072200 36012G20KT
                       P6SM SCT040 FM080600 04015G25KT P6SM SKC=
202011071402 KBLI 071402Z 0714/0812 36006KT P6SM BKN035 FM072200 36012G20KT
                       P6SM SCT040 FM080600 04015G25KT P6SM SKC=
202011071120 TAF KBLI 071120Z 0712/0812 VRB03KT P6SM BKN022 FM071800 36006KT
                       P6SM BKN030 FM072200 36012G20KT P6SM SCT040
                       FM080600 04015G25KT P6SM SKC=
202011070520 TAF KBLI 070520Z 0706/0806 VRB02KT P6SM SKC FM071000 VRB03KT P6SM
                       OVC050 FM072000 34010G16KT P6SM OVC050=
202011062328 TAF KBLI 062328Z 0700/0724 35007KT P6SM SKC FM070300 VRB03KT P6SM
                       SKC FM071000 VRB03KT P6SM OVC050=
202011061728 TAF KBLI 061728Z 0618/0718 36012G18KT P6SM SKC FM062200 35007KT
                       P6SM SKC FM070300 VRB03KT P6SM SKC FM071000
                       VRB03KT P6SM OVC050=
202011061136 TAF KBLI 061136Z 0612/0712 35008KT P6SM SKC FM061600 36012G18KT
                       P6SM SKC FM062200 35007KT P6SM SKC FM070300
                       07003KT P6SM SKC=
202011060520 TAF KBLI 060520Z 0606/0706 VRB03KT P6SM SKC FM061600 36012G18KT
                       P6SM SKC FM062200 35007KT P6SM SKC FM070300
                       07003KT P6SM SKC=
202011052340 TAF KBLI 052340Z 0600/0624 VRB05KT P6SM SCT050 OVC180 FM060300
                       VRB05KT P6SM SCT120 FM061600 36012G18KT
                       P6SM SKC=
202011051729 TAF KBLI 051729Z 0518/0618 21006KT P6SM -SHRA SCT030 OVC070 FM060000
                       03005KT P6SM BKN150 FM060900 01010KT P6SM
                       FEW250=
202011051136 TAF KBLI 051136Z 0512/0612 29005G15KT P6SM -SHRA OVC060 FM051400
                       18010KT 6SM -SHRA OVC035 FM060200 VRB06KT
                       P6SM SCT030 SCT200 FM060900 01010KT P6SM
                       FEW250=
202011050520 TAF KBLI 050520Z 0506/0606 18015G25KT 6SM -RA SCT020 OVC030 FM050800
                       18014KT 6SM -SHRA OVC020 FM052300 VRB05KT
                       P6SM VCSH BKN025 FM060200 VRB04KT P6SM SCT030
                       SCT200=
202011042328 TAF KBLI 042328Z 0500/0524 18015G25KT 6SM -RA OVC018 FM050100 17025G32KT
                       4SM -RA OVC015 FM050800 18014KT 6SM -SHRA
                       OVC020 FM052300 VRB05KT P6SM VCSH BKN025=
202011041736 TAF KBLI 041736Z 0418/0518 18015G25KT P6SM VCSH BKN030 BKN080
                      TEMPO 0418/0421 6SM -RA FM042100 17019G30KT
                       P6SM VCSH BKN035 BKN100 FM050100 17025G32KT
                       4SM -RA OVC040 FM050800 18014KT 6SM -SHRA
                       OVC035=
202011041139 TAF KBLI 041139Z 0412/0512 17008KT P6SM OVC015 FM042100 17013G21KT
                       2SM -RA BR SCT007 OVC012 FM050000 17015G23KT
                       4SM -RA OVC050=
202011040520 TAF KBLI 040520Z 0406/0506 VRB04KT 6SM BR OVC020 FM040800 15012KT
                       P6SM OVC020 FM041200 16012G20KT 2SM -RA
                       BR SCT007 OVC012 FM042100 17013G21KT 2SM
                       -RA BR SCT007 OVC012 FM050000 17015G23KT
                       4SM -RA OVC050=
202011032325 TAF KBLI 032325Z 0400/0424 04007KT 2SM -SHRA BR SCT002 BKN007 OVC017
                       TEMPO 0400/0403 P6SM -RA OVC015 FM040300
                       15008KT P6SM OVC015 FM041200 16012KT 2SM
                       -RA BR SCT007 OVC012=
202011031720 TAF KBLI 031720Z 0318/0418 16012KT 3SM -RA BR BKN030 OVC040 FM032000
                       18015G25KT 5SM -RA BR OVC015 FM040000 20012KT
                       P6SM -SHRA BKN020 OVC040 FM041100 18012KT
                       P6SM -RA OVC020=
202011031120 TAF KBLI 031120Z 0312/0412 VRB04KT P6SM SCT040 OVC080 FM031500
                       16012KT 5SM -RA BR BKN020 OVC040 FM032000
                       18015G25KT 5SM -RA BR OVC015 FM040000 20012KT
                       P6SM -SHRA BKN020 OVC040 FM041100 18012KT
                       P6SM -RA OVC020=
202011030520 TAF KBLI 030520Z 0306/0406 VRB03KT P6SM BKN250 FM030900 16009KT
                       P6SM SCT015 BKN050 OVC200 FM031200 16012KT
                       P6SM -RA OVC015 FM032000 15012KT P6SM -SHRA
                       BKN020 FM040100 15008KT P6SM -SHRA OVC015=
202011022321 TAF KBLI 022321Z 0300/0324 18005KT P6SM BKN250 FM030900 16012KT
                       P6SM SCT015 BKN050 OVC200
                      TEMPO 0309/0312 BKN015 FM031200 16012KT P6SM
                       -RA OVC015 FM032000 15012KT P6SM -SHRA BKN020=
202011021724 TAF KBLI 021724Z 0218/0318 16006KT P6SM FEW250 FM030900 16012KT
                       P6SM SCT015 OVC200
                      TEMPO 0309/0312 BKN015 FM031200 16012KT P6SM
                       -RA OVC015=
202011021120 TAF KBLI 021120Z 0212/0312 00000KT 5SM BR SCT002
                      TEMPO 0212/0216 1SM BR BKN002 FM021800 16006KT
                       P6SM BKN250 FM030800 16012KT P6SM SCT015
                       OVC200
                      TEMPO 0308/0311 BKN015 FM031100 16012KT P6SM
                       -RA OVC015=
202011020703 KBLI 020703Z 0207/0306 00000KT 2SM BR SKC
                      TEMPO 0207/0211 1/2SM FG VV002 FM021100 00000KT
                       1/2SM FG VV002
                      TEMPO 0213/0216 2SM BR SCT002 FM021600 18005KT
                       P6SM SCT002 SCT250 FM021800 18006KT P6SM
                       BKN250=
202011020520 TAF KBLI 020520Z 0206/0306 VRB03KT P6SM FEW250 FM021500 18005KT
                       P6SM SCT250 FM030000 19003KT P6SM BKN250=
202011012322 TAF KBLI 012322Z 0200/0224 30005KT P6SM SKC FM020300 VRB03KT P6SM
                       SCT250 FM021500 18005KT P6SM BKN250=
202011011723 TAF KBLI 011723Z 0118/0218 04005KT P6SM SKC FM020300 VRB03KT P6SM
                       SCT250 FM021000 18005KT P6SM BKN250=
202011011510 KBLI 011510Z 0115/0212 36004KT P6SM SKC
                      TEMPO 0115/0116 6SM BR FM020300 VRB03KT P6SM
                       SCT250 FM021000 18007KT P6SM BKN250=
202011011120 TAF KBLI 011120Z 0112/0212 36004KT P6SM SKC
                      TEMPO 0112/0116 3SM BR FM020300 VRB03KT P6SM
                       SCT250 FM021000 18007KT P6SM BKN250=
202011010520 TAF KBLI 010520Z 0106/0206 02004KT P6SM FEW250 FM011600 VRB03KT
                       P6SM FEW250=