##########################################################
# Query made at 02/16/2025 22:43:56 UTC
# Time interval: from 09/01/2020 00:00  to 09/30/2020 23:59  UTC
##########################################################

##########################################################
# KBLI, Bellingham, Bellingham International Airport (United States)
# WMO index: -----. WIGOS ID: Unknown
# Latitude 48-47-58N. Longitude 122-32-21W. Altitude 48 m.
##########################################################

###################################
#  METAR/SPECI from KBLI
###################################
202009302353 METAR KBLI 302353Z 18003KT 10SM FU CLR 22/15 A3017 RMK AO2 SLP222 T02170150 10244 20178 58005=
202009302253 METAR KBLI 302253Z 22004KT 10SM FU CLR 22/16 A3018 RMK AO2 SLP226 T02220156=
202009302153 METAR KBLI 302153Z 23005KT 10SM FU CLR 23/16 A3018 RMK AO2 SLP225 T02330161=
202009302053 METAR KBLI 302053Z 00000KT 10SM FU CLR 23/16 A3018 RMK AO2 SLP227 T02330156 58001=
202009301953 METAR KBLI 301953Z 00000KT 10SM FU CLR 22/16 A3019 RMK AO2 SLP229 T02220156=
202009301853 METAR KBLI 301853Z 00000KT 10SM FU CLR 20/16 A3019 RMK AO2 SLP230 T02000156=
202009301753 METAR KBLI 301753Z 00000KT 10SM FU CLR 18/16 A3019 RMK AO2 SLP228 T01780156 10178 20089 53009=
202009301653 METAR KBLI 301653Z 00000KT 10SM CLR 15/14 A3017 RMK AO2 SLP225 T01500144=
202009301608 SPECI KBLI 301608Z 00000KT 6SM R16/1000V6000FT BCFG SCT001 13/12 A3017 RMK AO2 T01280122=
202009301553 METAR KBLI 301553Z 00000KT 1/4SM R16/1600V3500FT FG VV001 12/12 A3016 RMK AO2 SLP219 T01220117=
202009301548 SPECI KBLI 301548Z 00000KT 3/4SM R16/2200V3500FT BR VV001 12/11 A3016 RMK AO2=
202009301458 SPECI KBLI 301458Z 00000KT 3/4SM R16/0500V2200FT BR VV001 10/09 A3015 RMK AO2 T01000089=
202009301453 METAR KBLI 301453Z 00000KT 1SM R16/1000V3000FT BR VV001 11/09 A3015 RMK AO2 SLP216 T01060094 51006=
202009301449 SPECI KBLI 301449Z 00000KT 1SM R16/1200V3000FT BR VV001 10/09 A3015 RMK AO2=
202009301439 SPECI KBLI 301439Z 00000KT 1SM R16/1000V1600FT BR VV001 10/09 A3014 RMK AO2 T01000089=
202009301353 METAR KBLI 301353Z 00000KT 1SM R16/2200V5500FT BR VV001 10/08 A3014 RMK AO2 SLP212 T01000083=
202009301346 SPECI KBLI 301346Z AUTO 00000KT 2 1/2SM R16/1800VP6000FT BR BKN001 10/08 A3013 RMK AO2 VIS 1V5 T01000083=
202009301337 SPECI KBLI 301337Z AUTO 00000KT 3SM R16/4000VP6000FT BR FEW001 09/08 A3014 RMK AO2 T00940083=
202009301327 SPECI KBLI 301327Z AUTO 17003KT 1 3/4SM BR SCT001 10/08 A3013 RMK AO2 VIS 1/2V5 T01000083=
202009301317 SPECI KBLI 301317Z AUTO 00000KT 8SM R16/5000VP6000FT SCT001 10/09 A3013 RMK AO2 T01000089=
202009301307 SPECI KBLI 301307Z AUTO 00000KT 10SM BKN001 10/09 A3013 RMK AO2 T01000089=
202009301300 SPECI KBLI 301300Z AUTO 00000KT 2SM R16/2400VP6000FT BR BKN001 09/08 A3013 RMK AO2 T00940083=
202009301253 METAR KBLI 301253Z AUTO 05003KT 3/4SM R16/1800VP6000FT BR VV001 09/08 A3013 RMK AO2 SLP208 T00940083=
202009301248 SPECI KBLI 301248Z AUTO 00000KT 1/2SM R16/1800VP6000FT FG VV001 09/08 A3013 RMK AO2=
202009301241 SPECI KBLI 301241Z AUTO 04003KT 1 1/2SM R16/2400VP6000FT BR BKN001 09/08 A3013 RMK AO2 T00940083=
202009301216 SPECI KBLI 301216Z AUTO 00000KT 10SM R16/5500VP6000FT OVC001 10/09 A3013 RMK AO2 T01000089=
202009301153 METAR KBLI 301153Z AUTO 00000KT 10SM BKN002 10/09 A3012 RMK AO2 SLP206 T01000089 10128 20094 53008=
202009301137 SPECI KBLI 301137Z AUTO 00000KT 4SM BR BKN001 10/09 A3012 RMK AO2 T01000089=
202009301133 SPECI KBLI 301133Z AUTO 00000KT 1SM R16/2000VP6000FT BR VV001 10/09 A3012 RMK AO2 T01000089=
202009301125 SPECI KBLI 301125Z AUTO 00000KT 1/2SM R16/1800V3000FT FG VV001 10/09 A3012 RMK AO2 T01000089=
202009301120 SPECI KBLI 301120Z AUTO 00000KT 1 1/2SM R16/2000V4500FT BR BKN001 09/09 A3012 RMK AO2 T00940089=
202009301115 SPECI KBLI 301115Z AUTO 00000KT 3SM R16/3000V5500FT BR BKN001 11/09 A3012 RMK AO2 T01060094=
202009301053 METAR KBLI 301053Z AUTO 00000KT 1SM R16/2400VP6000FT BR VV001 10/09 A3011 RMK AO2 VIS 1/2V4 SLP201 T01000089=
202009301051 SPECI KBLI 301051Z AUTO 00000KT 1 1/2SM R16/2400VP6000FT BR FEW001 10/09 A3011 RMK AO2 VIS 1/2V5=
202009301041 SPECI KBLI 301041Z AUTO 00000KT 10SM FEW001 11/09 A3011 RMK AO2 T01060094=
202009301021 SPECI KBLI 301021Z AUTO 00000KT 2SM R16/2200V6000FT BR SCT001 11/09 A3011 RMK AO2 VIS 3/4V5 T01110094=
202009301010 SPECI KBLI 301010Z AUTO 00000KT 1SM R16/3500VP6000FT BR VV001 11/09 A3011 RMK AO2 T01060094=
202009300953 METAR KBLI 300953Z AUTO 00000KT 1/4SM R16/P6000FT FG VV001 11/10 A3011 RMK AO2 SLP202 T01110100=
202009300946 SPECI KBLI 300946Z AUTO 00000KT 1/2SM R16/2400VP6000FT FG VV002 11/09 A3011 RMK AO2 T01060094=
202009300929 SPECI KBLI 300929Z AUTO 00000KT 1SM R16/1600VP6000FT BR VV002 11/09 A3010 RMK AO2 VIS 1/2V5 T01060094=
202009300910 SPECI KBLI 300910Z AUTO 35003KT 2SM R16/2800VP6000FT BR SCT001 10/09 A3010 RMK AO2 VIS 1V5 T01000089=
202009300859 SPECI KBLI 300859Z AUTO 00000KT 1SM R16/2400VP6000FT BR VV001 11/09 A3010 RMK AO2 T01060094=
202009300857 SPECI KBLI 300857Z AUTO 00000KT 2SM R16/2400VP6000FT BR FEW002 11/09 A3010 RMK AO2 T01110094=
202009300853 METAR KBLI 300853Z AUTO 00000KT 9SM R16/2400VP6000FT CLR 11/10 A3010 RMK AO2 SLP198 T01110100 51013=
202009300826 SPECI KBLI 300826Z AUTO 00000KT 3SM R16/4000VP6000FT BR SCT001 12/10 A3009 RMK AO2 T01170100=
202009300819 SPECI KBLI 300819Z AUTO 00000KT 2SM BR SCT001 12/10 A3009 RMK AO2 VIS 1/2V5 T01170100=
202009300811 SPECI KBLI 300811Z AUTO 00000KT 1SM R16/3000VP6000FT BR VV001 11/10 A3009 RMK AO2 T01110100=
202009300808 SPECI KBLI 300808Z AUTO 00000KT 2 1/2SM R16/3000VP6000FT BR FEW002 11/10 A3009 RMK AO2 T01110100=
202009300753 METAR KBLI 300753Z AUTO 00000KT 6SM BR CLR 11/09 A3009 RMK AO2 SLP196 T01110094 402440089=
202009300721 SPECI KBLI 300721Z AUTO 00000KT 3SM R16/2600VP6000FT BR CLR 12/10 A3009 RMK AO2 T01220100=
202009300711 SPECI KBLI 300711Z AUTO 00000KT 1 3/4SM R16/5500VP6000FT BR CLR 11/10 A3008 RMK AO2 VIS 3/4V5 T01110100=
202009300653 METAR KBLI 300653Z AUTO 00000KT 10SM CLR 13/11 A3008 RMK AO2 SLP191 T01280111=
202009300553 METAR KBLI 300553Z AUTO 00000KT 10SM CLR 12/11 A3006 RMK AO2 SLP184 T01220106 10211 20122 51009=
202009300453 METAR KBLI 300453Z 00000KT 10SM CLR 13/11 A3006 RMK AO2 SLP184 T01280111=
202009300353 METAR KBLI 300353Z 00000KT 10SM CLR 13/12 A3004 RMK AO2 SLP178 T01330117=
202009300253 METAR KBLI 300253Z 00000KT 10SM CLR 15/13 A3003 RMK AO2 SLP175 T01500133 55001=
202009300153 METAR KBLI 300153Z 18003KT 10SM CLR 17/14 A3002 RMK AO2 SLP173 T01670139=
202009300053 METAR KBLI 300053Z 00000KT 10SM CLR 20/14 A3002 RMK AO2 SLP173 T02000139=
202009292353 METAR KBLI 292353Z VRB04KT 10SM CLR 21/14 A3003 RMK AO2 SLP176 T02110139 10244 20206 56010=
202009292253 METAR KBLI 292253Z VRB04KT 10SM CLR 22/14 A3004 RMK AO2 SLP178 T02170144=
202009292153 METAR KBLI 292153Z VRB05KT 10SM CLR 22/14 A3005 RMK AO2 SLP181 T02220144=
202009292053 METAR KBLI 292053Z 29007KT 10SM CLR 22/14 A3007 RMK AO2 SLP186 T02220144 58017=
202009291953 METAR KBLI 291953Z VRB04KT 10SM CLR 23/14 A3009 RMK AO2 SLP194 T02330144=
202009291853 METAR KBLI 291853Z 33007KT 10SM CLR 22/14 A3010 RMK AO2 SLP199 T02170139=
202009291753 METAR KBLI 291753Z 35007KT 10SM CLR 21/13 A3012 RMK AO2 SLP204 T02060133 10206 20089 58000=
202009291653 METAR KBLI 291653Z 02006KT 10SM CLR 18/13 A3012 RMK AO2 SLP206 T01830133=
202009291553 METAR KBLI 291553Z 03004KT 10SM CLR 16/12 A3012 RMK AO2 SLP207 T01560122=
202009291453 METAR KBLI 291453Z 01005KT 10SM CLR 13/11 A3012 RMK AO2 SLP205 T01330111 56006=
202009291353 METAR KBLI 291353Z 01004KT 10SM CLR 11/09 A3012 RMK AO2 SLP206 T01110094=
202009291253 METAR KBLI 291253Z AUTO 00000KT 10SM CLR 09/08 A3013 RMK AO2 SLP208 T00940078=
202009291153 METAR KBLI 291153Z AUTO 00000KT 10SM CLR 10/09 A3013 RMK AO2 SLP211 T01000089 10117 20089 57012=
202009291053 METAR KBLI 291053Z AUTO 34005KT 5SM R16/2600VP6000FT BR CLR 09/08 A3014 RMK AO2 SLP214 T00940078=
202009291037 SPECI KBLI 291037Z AUTO 02003KT 1 3/4SM R16/1400VP6000FT BR CLR 09/08 A3015 RMK AO2 T00890078=
202009290953 METAR KBLI 290953Z AUTO 00000KT 5SM R16/6000VP6000FT BR CLR 09/07 A3016 RMK AO2 SLP220 T00890072=
202009290940 SPECI KBLI 290940Z AUTO 00000KT 1 1/2SM BR CLR 09/08 A3016 RMK AO2 VIS 1/2V5 T00890078=
202009290853 METAR KBLI 290853Z AUTO 00000KT 7SM CLR 10/08 A3017 RMK AO2 SLP223 T01000083 58008=
202009290816 SPECI KBLI 290816Z AUTO 00000KT 4SM BR CLR 10/09 A3018 RMK AO2 T01000089=
202009290812 SPECI KBLI 290812Z AUTO 00000KT 1SM R16/P6000FT BR CLR 10/09 A3018 RMK AO2 T01000089=
202009290758 SPECI KBLI 290758Z AUTO 00000KT 1/2SM R16/2200VP6000FT FG CLR 10/09 A3019 RMK AO2 T01000089=
202009290753 METAR KBLI 290753Z AUTO 00000KT 1 1/4SM R16/2200V5500FT BR CLR 11/09 A3019 RMK AO2 SLP228 T01060089 402220083=
202009290751 SPECI KBLI 290751Z AUTO 00000KT 1 3/4SM R16/1800V5500FT BR CLR 10/09 A3019 RMK AO2=
202009290730 SPECI KBLI 290730Z AUTO 00000KT 4SM BR CLR 11/09 A3019 RMK AO2 T01060089=
202009290727 SPECI KBLI 290727Z AUTO 00000KT 1SM R16/P6000FT BR CLR 11/09 A3019 RMK AO2 T01060089=
202009290720 SPECI KBLI 290720Z AUTO 00000KT 1/2SM R16/P6000FT FG CLR 11/09 A3019 RMK AO2 T01060089=
202009290715 SPECI KBLI 290715Z AUTO 00000KT 1 1/2SM R16/6000VP6000FT BR CLR 10/09 A3019 RMK AO2 T01000089=
202009290653 METAR KBLI 290653Z AUTO 00000KT 9SM CLR 11/09 A3019 RMK AO2 SLP228 T01060089=
202009290553 METAR KBLI 290553Z AUTO 00000KT 10SM CLR 11/09 A3020 RMK AO2 SLP232 T01110094 10194 20111 58001=
202009290453 METAR KBLI 290453Z 00000KT 10SM CLR 12/10 A3020 RMK AO2 SLP234 T01220100=
202009290353 METAR KBLI 290353Z 00000KT 10SM CLR 12/11 A3020 RMK AO2 SLP235 T01220106=
202009290253 METAR KBLI 290253Z 00000KT 10SM CLR 14/12 A3020 RMK AO2 SLP234 T01390117 56014=
202009290153 METAR KBLI 290153Z 31003KT 10SM CLR 17/12 A3021 RMK AO2 SLP237 T01670117=
202009290053 METAR KBLI 290053Z 30006KT 10SM CLR 19/13 A3022 RMK AO2 SLP240 T01890128=
202009282353 METAR KBLI 282353Z 29006KT 10SM CLR 19/13 A3024 RMK AO2 SLP247 T01940128 10222 20172 56022=
202009282253 METAR KBLI 282253Z 30006KT 10SM CLR 20/13 A3026 RMK AO2 SLP254 T02000128=
202009282153 METAR KBLI 282153Z 36006KT 10SM CLR 22/12 A3028 RMK AO2 SLP260 T02220122=
202009282053 METAR KBLI 282053Z VRB06KT 10SM CLR 22/12 A3031 RMK AO2 SLP268 T02170117 58019=
202009281953 METAR KBLI 281953Z 04007KT 10SM CLR 21/11 A3033 RMK AO2 SLP278 T02060106=
202009281853 METAR KBLI 281853Z 03006KT 10SM CLR 19/11 A3035 RMK AO2 SLP284 T01890111=
202009281753 METAR KBLI 281753Z 02006KT 10SM CLR 17/11 A3036 RMK AO2 SLP288 T01720111 10172 20094 58008=
202009281653 METAR KBLI 281653Z 04007KT 10SM CLR 15/11 A3037 RMK AO2 SLP293 T01500106=
202009281553 METAR KBLI 281553Z 02007KT 10SM CLR 13/10 A3038 RMK AO2 SLP295 T01280100=
202009281453 METAR KBLI 281453Z 03005KT 10SM CLR 11/09 A3039 RMK AO2 SLP297 T01060089 56006=
202009281353 METAR KBLI 281353Z 02003KT 10SM CLR 09/08 A3039 RMK AO2 SLP298 T00940078=
202009281253 METAR KBLI 281253Z AUTO 01003KT 10SM CLR 09/08 A3039 RMK AO2 SLP297 T00940078=
202009281153 METAR KBLI 281153Z AUTO 06004KT 10SM CLR 09/08 A3040 RMK AO2 SLP301 T00940078 10117 20083 58010=
202009281053 METAR KBLI 281053Z AUTO 01004KT 10SM CLR 09/08 A3042 RMK AO2 SLP306 T00940083=
202009281028 SPECI KBLI 281028Z AUTO 36003KT 4SM BR CLR 09/08 A3042 RMK AO2 T00940078=
202009281019 SPECI KBLI 281019Z AUTO 00000KT 1 3/4SM BR CLR 09/08 A3042 RMK AO2 T00890078=
202009280953 METAR KBLI 280953Z AUTO 00000KT 3SM BR CLR 09/08 A3043 RMK AO2 SLP311 T00940083=
202009280941 SPECI KBLI 280941Z AUTO 00000KT 3/4SM R16/4000VP6000FT BR CLR 09/08 A3043 RMK AO2 T00940083=
202009280911 SPECI KBLI 280911Z AUTO 00000KT 5SM R16/2600V5000FT BR CLR 09/08 A3043 RMK AO2 T00890078=
202009280902 SPECI KBLI 280902Z AUTO 00000KT 2 1/2SM R16/2200V4000FT BR CLR 09/08 A3043 RMK AO2 VIS 1 1/4V5 T00890078=
202009280852 METAR KBLI 280852Z AUTO 00000KT 3/4SM R16/4000VP6000FT BR CLR 09/08 A3043 RMK AO2 SLP313 T00940078 58001=
202009280851 SPECI KBLI 280851Z AUTO 00000KT 3/4SM R16/P6000FT BR CLR 09/08 A3043 RMK AO2=
202009280845 SPECI KBLI 280845Z AUTO 00000KT 2SM R16/3500VP6000FT BR CLR 09/08 A3043 RMK AO2 VIS 1V5 T00940083=
202009280827 SPECI KBLI 280827Z AUTO 00000KT 10SM CLR 10/08 A3043 RMK AO2 T01000083=
202009280820 SPECI KBLI 280820Z AUTO 00000KT 2 1/2SM BR CLR 10/09 A3043 RMK AO2 T01000089=
202009280815 SPECI KBLI 280815Z AUTO 00000KT 3/4SM R16/P6000FT BR CLR 10/08 A3043 RMK AO2 T01000083=
202009280756 SPECI KBLI 280756Z AUTO 00000KT 1 1/2SM R16/3500VP6000FT BR CLR 09/08 A3044 RMK AO2 T00940083=
202009280753 METAR KBLI 280753Z AUTO 00000KT 5SM R16/3500VP6000FT BR CLR 10/08 A3044 RMK AO2 SLP313 T01000083 401940094=
202009280653 METAR KBLI 280653Z AUTO 00000KT 10SM CLR 11/09 A3044 RMK AO2 SLP315 T01060094=
202009280553 METAR KBLI 280553Z AUTO 00000KT 10SM CLR 11/09 A3044 RMK AO2 SLP314 T01110094 10194 20100 58004=
202009280534 SPECI KBLI 280534Z AUTO 00000KT 3SM BR CLR 10/09 A3044 RMK AO2 T01000089=
202009280525 SPECI KBLI 280525Z AUTO 00000KT 1 3/4SM BR CLR 10/09 A3044 RMK AO2 T01000089=
202009280453 METAR KBLI 280453Z 00000KT 10SM CLR 11/09 A3044 RMK AO2 SLP315 T01110094=
202009280353 METAR KBLI 280353Z 00000KT 10SM CLR 12/10 A3045 RMK AO2 SLP318 T01170100=
202009280253 METAR KBLI 280253Z 00000KT 10SM CLR 13/10 A3045 RMK AO2 SLP318 T01280100 58003=
202009280153 METAR KBLI 280153Z 00000KT 10SM CLR 14/11 A3046 RMK AO2 SLP320 T01440111=
202009280053 METAR KBLI 280053Z 31003KT 10SM CLR 17/11 A3046 RMK AO2 SLP320 T01720106=
202009272353 METAR KBLI 272353Z 05005KT 10SM CLR 19/10 A3046 RMK AO2 SLP320 T01940100 10194 20139 56011=
202009272253 METAR KBLI 272253Z VRB03KT 10SM FEW030 SCT070 19/11 A3046 RMK AO2 SLP322 T01890106=
202009272153 METAR KBLI 272153Z VRB03KT 10SM FEW030 BKN070 18/11 A3048 RMK AO2 SLP327 T01780106=
202009272053 METAR KBLI 272053Z 30004KT 10SM FEW020 BKN075 17/10 A3049 RMK AO2 SLP331 T01670100 51003=
202009271953 METAR KBLI 271953Z VRB03KT 10SM FEW019 OVC080 16/11 A3049 RMK AO2 SLP329 T01610106=
202009271853 METAR KBLI 271853Z 00000KT 10SM FEW020 SCT040 BKN080 16/10 A3049 RMK AO2 SLP331 T01560100=
202009271753 METAR KBLI 271753Z 00000KT 10SM FEW013 SCT025 BKN110 14/10 A3048 RMK AO2 SLP329 60000 T01440100 10144 20106 51016=
202009271653 METAR KBLI 271653Z 16004KT 10SM FEW012 FEW020 BKN110 14/11 A3046 RMK AO2 RAE02 SLP322 P0000 T01390106=
202009271553 METAR KBLI 271553Z 00000KT 10SM -RA FEW010 SCT090 BKN110 13/11 A3046 RMK AO2 RAB50 SLP320 P0000 T01280106=
202009271453 METAR KBLI 271453Z 00000KT 10SM FEW010 SCT015 BKN120 11/10 A3043 RMK AO2 SLP313 T01110100 53018=
202009271353 METAR KBLI 271353Z 00000KT 10SM FEW010 SCT020 BKN070 11/10 A3040 RMK AO2 SLP300 T01110100=
202009271332 SPECI KBLI 271332Z 00000KT 10SM SCT021 11/10 A3039 RMK AO2 T01110100=
202009271253 METAR KBLI 271253Z AUTO 20003KT 10SM FEW006 BKN022 12/10 A3038 RMK AO2 SLP295 T01170100=
202009271251 SPECI KBLI 271251Z AUTO 20004KT 10SM FEW006 BKN022 12/10 A3038 RMK AO2=
202009271240 SPECI KBLI 271240Z AUTO 20003KT 10SM SCT006 11/09 A3038 RMK AO2 T01110094=
202009271211 SPECI KBLI 271211Z AUTO VRB04KT 10SM FEW023 12/10 A3037 RMK AO2 T01170100=
202009271153 METAR KBLI 271153Z AUTO 22003KT 10SM BKN023 12/10 A3036 RMK AO2 SLP286 70048 T01170100 10139 20117 51018=
202009271053 METAR KBLI 271053Z AUTO VRB04KT 10SM OVC021 12/10 A3034 RMK AO2 SLP283 T01220100=
202009271001 SPECI KBLI 271001Z AUTO 20003KT 10SM BKN022 OVC043 12/11 A3034 RMK AO2 T01220106=
202009270953 METAR KBLI 270953Z AUTO 22003KT 10SM SCT021 BKN043 OVC060 12/11 A3033 RMK AO2 SLP279 T01220106=
202009270853 METAR KBLI 270853Z AUTO 19003KT 10SM BKN045 OVC055 13/10 A3030 RMK AO2 SLP269 T01280100 52025=
202009270753 METAR KBLI 270753Z AUTO 20005KT 10SM OVC047 13/10 A3028 RMK AO2 SLP261 T01280100 401500122=
202009270653 METAR KBLI 270653Z AUTO 20005KT 10SM OVC070 13/10 A3025 RMK AO2 SLP251 T01330100=
202009270553 METAR KBLI 270553Z AUTO 19004KT 10SM OVC075 13/10 A3023 RMK AO2 SLP243 60000 T01330100 10150 20133 53017=
202009270453 METAR KBLI 270453Z 19005KT 10SM SCT055 13/11 A3021 RMK AO2 SLP236 T01330106=
202009270353 METAR KBLI 270353Z 19005KT 10SM FEW050 SCT065 OVC080 13/11 A3019 RMK AO2 RAE09B38E47 SLP231 P0000 T01330106=
202009270253 METAR KBLI 270253Z 19005KT 10SM -RA BKN049 BKN060 OVC075 14/11 A3018 RMK AO2 RAB18E29B45 SLP226 P0000 60000 T01390106 53018=
202009270153 METAR KBLI 270153Z 19003KT 10SM SCT047 OVC060 14/11 A3015 RMK AO2 SLP216 T01390106=
202009270053 METAR KBLI 270053Z 19005KT 10SM SCT060 BKN090 14/11 A3014 RMK AO2 SLP212 T01440106=
202009262353 METAR KBLI 262353Z VRB05KT 10SM FEW060 14/11 A3012 RMK AO2 RAE2255 SLP208 P0000 60034 T01440111 10144 20128 50002=
202009262253 METAR KBLI 262253Z 18006KT 10SM -RA SCT020 BKN050 BKN065 14/12 A3013 RMK AO2 RAE23B45 SLP210 P0001 T01390117=
202009262153 METAR KBLI 262153Z 19003KT 5SM -RA BR SCT020 BKN050 OVC060 14/12 A3012 RMK AO2 SLP205 P0003 T01390117=
202009262053 METAR KBLI 262053Z 17005KT 7SM -RA SCT027 BKN065 OVC080 13/12 A3012 RMK AO2 SLP205 P0008 60030 T01330117 51008=
202009261953 METAR KBLI 261953Z 18004KT 8SM -RA SCT020 OVC055 14/12 A3011 RMK AO2 SLP202 P0011 T01390117=
202009261853 METAR KBLI 261853Z 22004KT 8SM -RA SCT020 BKN050 OVC070 13/11 A3011 RMK AO2 SLP202 P0011 T01280111=
202009261753 METAR KBLI 261753Z 18006KT 8SM -RA SCT020 BKN060 OVC080 13/11 A3009 RMK AO2 SLP197 P0001 60014 T01330111 10133 20122 51020=
202009261653 METAR KBLI 261653Z 19005KT 6SM -RA BR SCT015 BKN038 OVC060 13/11 A3007 RMK AO2 SLP191 P0011 T01280111=
202009261553 METAR KBLI 261553Z 22006KT 6SM -RA FEW029 FEW047 OVC055 13/10 A3006 RMK AO2 RAB38 SLP187 P0002 T01280100=
202009261453 METAR KBLI 261453Z 19010G16KT 10SM BKN095 13/10 A3003 RMK AO2 SLP176 T01330100 52005=
202009261353 METAR KBLI 261353Z 19009KT 10SM OVC070 13/09 A3003 RMK AO2 SLP175 T01280094=
202009261253 METAR KBLI 261253Z AUTO 19009KT 10SM FEW065 13/09 A3002 RMK AO2 SLP171 T01280094=
202009261153 METAR KBLI 261153Z AUTO 19008G16KT 10SM FEW075 13/09 A3002 RMK AO2 SLP171 60001 70030 T01330094 10139 20128 53017=
202009261053 METAR KBLI 261053Z AUTO 19007G17KT 10SM FEW026 OVC065 13/09 A3000 RMK AO2 SLP164 T01330094=
202009261024 SPECI KBLI 261024Z AUTO 19008G15KT 10SM SCT026 BKN065 13/09 A2999 RMK AO2 T01330094=
202009261015 SPECI KBLI 261015Z AUTO 19009G16KT 10SM BKN028 BKN060 BKN080 13/09 A2998 RMK AO2 T01330089=
202009260953 METAR KBLI 260953Z AUTO 20008KT 10SM FEW030 BKN080 13/09 A2998 RMK AO2 SLP159 T01330094=
202009260853 METAR KBLI 260853Z AUTO 19008KT 10SM BKN048 BKN060 OVC095 13/10 A2997 RMK AO2 RAE45 SLP155 P0001 60001 T01280100 51021=
202009260753 METAR KBLI 260753Z AUTO 19007KT 10SM -RA OVC065 13/09 A2995 RMK AO2 RAB53 SLP149 P0000 T01330094 401830133=
202009260653 METAR KBLI 260653Z AUTO VRB06KT 10SM OVC070 14/09 A2993 RMK AO2 SLP143 T01390094=
202009260553 METAR KBLI 260553Z AUTO 19005KT 10SM BKN070 OVC090 14/09 A2990 RMK AO2 RAB00E25 SLP132 P0001 60001 T01390094 10178 20133 51020=
202009260453 METAR KBLI 260453Z 19006KT 10SM OVC070 14/08 A2989 RMK AO2 SLP127 T01440083=
202009260353 METAR KBLI 260353Z 19004KT 10SM OVC070 14/08 A2987 RMK AO2 SLP121 T01440083=
202009260253 METAR KBLI 260253Z VRB05KT 10SM FEW065 OVC090 15/08 A2985 RMK AO2 SLP112 T01500078 51028=
202009260153 METAR KBLI 260153Z 20004KT 10SM BKN060 OVC085 16/08 A2982 RMK AO2 SLP105 T01560078=
202009260053 METAR KBLI 260053Z 19004KT 10SM SCT065 BKN080 17/07 A2980 RMK AO2 SLP096 T01720072=
202009252353 METAR KBLI 252353Z 18009KT 10SM BKN060 18/09 A2976 RMK AO2 SLP084 60009 T01780094 10183 20139 53025=
202009252253 METAR KBLI 252253Z VRB03KT 10SM FEW030 SCT080 17/11 A2974 RMK AO2 SLP075 T01720106=
202009252153 METAR KBLI 252153Z 18010KT 10SM FEW018 SCT060 16/11 A2971 RMK AO2 SLP067 T01610106=
202009252130 SPECI KBLI 252130Z 18010G18KT 10SM FEW015 SCT040 16/11 A2970 RMK AO2 T01610111=
202009252053 METAR KBLI 252053Z 18010G19KT 10SM SCT012 BKN018 BKN110 15/12 A2969 RMK AO2 SLP059 60009 T01500117 53019=
202009251953 METAR KBLI 251953Z 17014G24KT 10SM SCT012 BKN018 BKN110 15/12 A2965 RMK AO2 RAE1859 SLP047 P0000 T01500122=
202009251947 SPECI KBLI 251947Z 18011G24KT 10SM BKN013 BKN018 BKN110 15/13 A2965 RMK AO2 RAE1859 P0000=
202009251853 METAR KBLI 251853Z 18016G24KT 10SM -RA SCT020 BKN055 BKN070 14/12 A2963 RMK AO2 SLP039 P0009 T01390117=
202009251840 SPECI KBLI 251840Z 17015G25KT 5SM -RA BR SCT022 BKN050 OVC075 14/12 A2963 RMK AO2 PRESFR P0009 T01390117=
202009251825 SPECI KBLI 251825Z 18015G22KT 2 1/2SM RA FEW023 BKN044 OVC075 14/11 A2965 RMK AO2 P0007 T01390111=
202009251753 METAR KBLI 251753Z 18012G22KT 8SM -RA SCT020 BKN045 OVC070 14/11 A2963 RMK AO2 PK WND 17034/1709 SLP041 P0003 60019 T01440111 10161 20139 53014=
202009251653 METAR KBLI 251653Z 18017G32KT 9SM -RA FEW028 BKN075 OVC100 14/11 A2960 RMK AO2 PK WND 17039/1607 SLP030 P0001 T01440111=
202009251553 METAR KBLI 251553Z 18016G27KT 10SM -RA FEW021 SCT039 OVC050 14/11 A2961 RMK AO2 PK WND 17041/1459 SLP031 P0006 T01440106=
202009251453 METAR KBLI 251453Z 17026G44KT 4SM RA FEW026 BKN055 OVC070 14/11 A2959 RMK AO2 PK WND 19044/1448 SLP027 P0007 60009 T01440106 55018=
202009251353 METAR KBLI 251353Z 18020G39KT 10SM -RA FEW030 BKN036 OVC075 16/10 A2958 RMK AO2 PK WND 17039/1348 RAE09B41 SLP023 P0000 T01610100=
202009251253 METAR KBLI 251253Z AUTO 17018G28KT 10SM -RA BKN035 OVC048 16/11 A2962 RMK AO2 PK WND 18031/1157 SLP034 P0002 T01560106=
202009251153 METAR KBLI 251153Z AUTO 16018G30KT 9SM -RA OVC080 15/11 A2965 RMK AO2 PK WND 16032/1136 SLP045 P0002 60004 70054 T01500111 10172 20150 56036=
202009251053 METAR KBLI 251053Z AUTO 16019G27KT 10SM -RA OVC085 16/11 A2968 RMK AO2 PK WND 16029/1002 SLP054 P0000 T01560106=
202009250953 METAR KBLI 250953Z AUTO 16017G27KT 9SM -RA OVC080 16/11 A2972 RMK AO2 PK WND 16030/0940 RAB27 SLP070 P0002 T01560111=
202009250853 METAR KBLI 250853Z AUTO 17015G28KT 10SM FEW029 BKN110 17/11 A2975 RMK AO2 PK WND 16029/0834 RAB31E45 SLP081 P0000 60000 T01670106 56026=
202009250800 SPECI KBLI 250800Z AUTO 17018G24KT 10SM SCT028 BKN090 OVC110 17/11 A2977 RMK AO2 T01670106=
202009250753 METAR KBLI 250753Z AUTO 17016G24KT 10SM BKN028 BKN090 OVC110 17/11 A2977 RMK AO2 PK WND 16026/0700 SLP088 T01720106 401780144=
202009250653 METAR KBLI 250653Z AUTO 17012G22KT 10SM BKN028 OVC095 17/11 A2981 RMK AO2 RAE12 SLP099 P0000 T01670111=
202009250553 METAR KBLI 250553Z AUTO 17015G23KT 10SM -RA FEW090 OVC110 17/12 A2983 RMK AO2 RAB41 SLP108 P0000 60000 T01670117 10178 20167 56019=
202009250453 METAR KBLI 250453Z 17014G28KT 10SM BKN095 17/11 A2985 RMK AO2 PK WND 16028/0448 SLP113 T01670111=
202009250353 METAR KBLI 250353Z 17012G19KT 10SM FEW025 SCT100 BKN120 17/11 A2987 RMK AO2 SLP120 T01670106=
202009250253 METAR KBLI 250253Z 17010KT 10SM FEW025 SCT050 BKN090 17/11 A2989 RMK AO2 SLP127 T01670111 58010=
202009250153 METAR KBLI 250153Z 18011KT 10SM FEW025 SCT050 BKN075 17/12 A2990 RMK AO2 SLP131 T01720117=
202009250053 METAR KBLI 250053Z 19008KT 10SM FEW030 SCT060 BKN080 17/12 A2991 RMK AO2 SLP134 T01720117=
202009242353 METAR KBLI 242353Z 19008KT 10SM FEW025 SCT070 BKN090 17/12 A2992 RMK AO2 SLP138 60001 T01670122 10178 20150 53000=
202009242253 METAR KBLI 242253Z 18009G16KT 10SM FEW040 SCT090 SCT110 17/12 A2992 RMK AO2 RAB08E17 SLP137 P0000 T01670122=
202009242153 METAR KBLI 242153Z 19009KT 10SM BKN075 OVC095 18/12 A2992 RMK AO2 SLP137 T01780122=
202009242053 METAR KBLI 242053Z 19008G21KT 10SM OVC080 17/13 A2992 RMK AO2 SLP138 60001 T01720128 51012=
202009241953 METAR KBLI 241953Z 17013KT 10SM BKN075 OVC090 17/14 A2991 RMK AO2 SLP136 T01670139 $=
202009241853 METAR KBLI 241853Z 19010KT 10SM FEW013 SCT070 BKN090 16/13 A2990 RMK AO2 RAE49 SLP131 P0001 T01560133 $=
202009241753 METAR KBLI 241753Z 18010G19KT 4SM R16/5500VP6000FT -RA BR FEW012 BKN045 OVC060 16/13 A2988 RMK AO2 RAB10 SLP125 P0020 60049 T01560133 10156 20144 $=
202009241638 SPECI KBLI 241638Z 19009KT 3SM -RA BR FEW009 BKN042 OVC065 14/13 A2987 RMK AO2 P0017 T01440128=
202009241553 METAR KBLI 241553Z 18011G20KT 3SM RA BR SCT010 BKN048 OVC065 15/13 A2984 RMK AO2 RAB17 SLP111 P0006 T01500128=
202009241453 METAR KBLI 241453Z 18011G19KT 10SM SCT010 BKN050 OVC070 14/13 A2982 RMK AO2 LTG DSNT NE RAE34 SLP102 P0008 60023 T01440128 51005=
202009241425 SPECI KBLI 241425Z 19007G18KT 5SM -RA BR SCT009 BKN042 OVC080 14/13 A2981 RMK AO2 LTG DSNT N P0008 T01440128=
202009241410 SPECI KBLI 241410Z 19010G18KT 2SM RA BR SCT009 BKN045 OVC060 14/13 A2981 RMK AO2 P0005 T01440128=
202009241353 METAR KBLI 241353Z 19013G18KT 6SM -RA BR FEW013 BKN060 OVC075 14/13 A2980 RMK AO2 SLP097 P0011 T01440128=
202009241343 SPECI KBLI 241343Z 18010G17KT 5SM -RA BR FEW013 SCT046 OVC070 14/13 A2980 RMK AO2 P0010 T01440128=
202009241334 SPECI KBLI 241334Z AUTO 18012G21KT 2 1/2SM RA BR SCT013 BKN038 OVC075 14/13 A2980 RMK AO2 P0010 T01440128=
202009241327 SPECI KBLI 241327Z AUTO 19011G19KT 4SM -RA BR BKN013 BKN048 OVC060 14/13 A2981 RMK AO2 P0008 T01440128=
202009241321 SPECI KBLI 241321Z AUTO 19013G20KT 2 1/2SM -RA BR SCT013 BKN048 OVC065 15/13 A2980 RMK AO2 P0007 T01500128=
202009241253 METAR KBLI 241253Z AUTO 18008KT 5SM RA BR SCT015 BKN065 OVC080 15/13 A2980 RMK AO2 RAB15 SLP096 P0004 T01500128=
202009241153 METAR KBLI 241153Z AUTO 18011KT 10SM SCT015 SCT050 BKN075 15/12 A2978 RMK AO2 SLP091 60017 70077 T01500122 10156 20133 51013=
202009241053 METAR KBLI 241053Z AUTO 18010G17KT 10SM BKN055 OVC075 15/13 A2978 RMK AO2 RAE31 SLP089 P0001 T01500128=
202009241019 SPECI KBLI 241019Z AUTO 18009G18KT 9SM -RA FEW009 OVC060 14/13 A2977 RMK AO2 P0001 T01440128=
202009240953 METAR KBLI 240953Z AUTO 18011G19KT 3SM -RA BR SCT013 BKN038 OVC065 14/13 A2976 RMK AO2 RAB08 SLP084 P0009 T01440128=
202009240939 SPECI KBLI 240939Z AUTO 18011KT 8SM -RA BKN013 BKN018 OVC070 14/13 A2977 RMK AO2 RAB08 P0006 T01440128=
202009240853 METAR KBLI 240853Z AUTO 18010G19KT 10SM FEW021 OVC080 16/13 A2974 RMK AO2 SLP078 60007 T01560128 53015=
202009240814 SPECI KBLI 240814Z AUTO 18011G18KT 10SM FEW015 BKN085 OVC110 15/13 A2972 RMK AO2 LTG DSNT NE T01500128=
202009240802 SPECI KBLI 240802Z AUTO 18010G18KT 10SM SCT009 BKN024 OVC110 15/13 A2972 RMK AO2 LTG DSNT NE T01500128=
202009240753 METAR KBLI 240753Z AUTO 17011G18KT 10SM SCT006 BKN014 OVC120 15/13 A2972 RMK AO2 LTG DSNT NE RAE37 SLP069 P0007 T01500133 402000133=
202009240749 SPECI KBLI 240749Z AUTO 17010G19KT 10SM SCT006 BKN011 BKN018 15/13 A2972 RMK AO2 LTG DSNT NE RAE37 P0007=
202009240734 SPECI KBLI 240734Z AUTO 20010G17KT 9SM VCTS -RA FEW004 BKN007 OVC020 15/13 A2971 RMK AO2 P0007 T01500133=
202009240728 SPECI KBLI 240728Z AUTO 19009G18KT 2SM -RA BR FEW004 BKN007 OVC018 15/13 A2971 RMK AO2 VIS 1V5 P0007 T01500133=
202009240708 SPECI KBLI 240708Z AUTO 21004KT 8SM -RA BKN009 BKN039 OVC070 14/12 A2971 RMK AO2 P0001 T01440122=
202009240653 METAR KBLI 240653Z AUTO 20006KT 10SM -RA FEW041 OVC070 14/12 A2972 RMK AO2 RAB52 SLP069 P0000 T01440117=
202009240553 METAR KBLI 240553Z AUTO 11003KT 10SM OVC080 14/11 A2970 RMK AO2 SLP063 60042 T01390111 10189 20133 53017=
202009240453 METAR KBLI 240453Z 17004KT 10SM CLR 13/11 A2969 RMK AO2 SLP058 T01330111=
202009240353 METAR KBLI 240353Z 19006KT 10SM FEW055 SCT110 16/12 A2965 RMK AO2 RAE30 SLP046 P0004 T01560122=
202009240331 SPECI KBLI 240331Z 18009KT 10SM FEW025 BKN055 BKN075 15/13 A2964 RMK AO2 RAE30 P0004 T01500133 $=
202009240253 METAR KBLI 240253Z 20010G28KT 1 1/2SM R16/4500VP6000FT RA BR FEW006 OVC016 16/14 A2965 RMK AO2 PK WND 17032/0154 RAB04 SLP046 P0038 60038 T01560139 53025 $=
202009240251 SPECI KBLI 240251Z 20011G28KT 180V260 1 1/2SM R16/4500VP6000FT +RA BR FEW006 BKN014 OVC026 16/14 A2965 RMK AO2 PK WND 17032/0154 RAB04 P0037 $=
202009240243 SPECI KBLI 240243Z 22010G17KT 160V270 3/4SM R16/5500VP6000FT +RA BR FEW006 BKN016 OVC026 16/13 A2965 RMK AO2 PK WND 17032/0154 RAB04 PRESRR P0023 T01560133 $=
202009240153 METAR KBLI 240153Z 18022G35KT 10SM SCT033 BKN080 OVC110 18/12 A2957 RMK AO2 PK WND 15037/0142 SLP018 T01830122 $=
202009240053 METAR KBLI 240053Z 17016G29KT 10SM FEW024 BKN100 OVC120 18/13 A2958 RMK AO2 PK WND 17034/2355 SLP021 T01830133 $=
202009232353 METAR KBLI 232353Z 17023G34KT 10SM SCT023 BKN065 BKN120 18/13 A2958 RMK AO2 PK WND 17045/2306 SLP023 60014 T01830133 10194 20172 56029 $=
202009232253 METAR KBLI 232253Z 17020G36KT 10SM BKN025 OVC055 18/13 A2960 RMK AO2 PK WND 16044/2222 SLP028 T01830133 $=
202009232153 METAR KBLI 232153Z 17018G28KT 10SM BKN025 BKN037 OVC055 18/14 A2962 RMK AO2 PK WND 17032/2055 RAE49 SLP035 P0001 T01830139 $=
202009232053 METAR KBLI 232053Z 18016G25KT 10SM -RA BKN028 BKN044 OVC095 18/14 A2967 RMK AO2 PK WND 16030/2000 SLP052 P0006 60013 T01780144 58017 $=
202009231953 METAR KBLI 231953Z 18012G22KT 6SM -RA SCT020 BKN026 OVC070 17/14 A2970 RMK AO2 PK WND 16035/1903 SLP063 P0006 T01720144=
202009231853 METAR KBLI 231853Z 17022G33KT 10SM -RA BKN028 BKN070 OVC100 18/14 A2970 RMK AO2 PK WND 18036/1823 RAB17 SLP062 P0001 T01830139=
202009231753 METAR KBLI 231753Z 17021G30KT 10SM OVC028 19/13 A2972 RMK AO2 PK WND 17036/1731 SLP068 60004 T01940133 10194 20161 55009=
202009231653 METAR KBLI 231653Z 17020G30KT 10SM OVC028 19/13 A2970 RMK AO2 PK WND 16030/1653 SLP063 T01890128=
202009231553 METAR KBLI 231553Z 17019G25KT 10SM BKN028 OVC070 18/12 A2972 RMK AO2 PK WND 16033/1534 SLP070 T01830122=
202009231453 METAR KBLI 231453Z 17016G29KT 10SM OVC028 18/12 A2974 RMK AO2 PK WND 17029/1444 RAE06 SLP078 P0000 60004 T01780122 58009=
202009231443 SPECI KBLI 231443Z 17015G28KT 150V210 10SM OVC028 17/12 A2975 RMK AO2 PK WND 16028/1437 RAE06 P0000 T01720122=
202009231353 METAR KBLI 231353Z 17012G25KT 10SM -RA BKN033 OVC095 17/12 A2976 RMK AO2 SLP084 P0002 T01670117=
202009231253 METAR KBLI 231253Z AUTO 17011G18KT 9SM -RA OVC095 17/12 A2977 RMK AO2 PK WND 16026/1156 SLP088 P0002 T01720117=
202009231153 METAR KBLI 231153Z AUTO 17012G26KT 10SM -RA FEW065 OVC090 18/12 A2977 RMK AO2 PK WND 17029/1130 SLP086 P0000 60001 70001 T01780117 10200 20139 58021=
202009231053 METAR KBLI 231053Z AUTO 16017G27KT 10SM -RA FEW060 SCT075 OVC095 19/11 A2979 RMK AO2 PK WND 14027/1049 RAE0959B17 SLP092 P0001 T01940111=
202009230953 METAR KBLI 230953Z AUTO 16013G18KT 10SM -RA FEW065 BKN095 OVC110 19/11 A2982 RMK AO2 RAB40 SLP102 P0000 T01940111=
202009230853 METAR KBLI 230853Z AUTO 32003KT 10SM CLR 14/12 A2983 RMK AO2 SLP108 T01440117 58021=
202009230753 METAR KBLI 230753Z AUTO 00000KT 10SM CLR 16/11 A2985 RMK AO2 SLP114 T01610111 402000139=
202009230653 METAR KBLI 230653Z AUTO 00000KT 10SM FEW120 15/12 A2988 RMK AO2 SLP123 T01500117=
202009230553 METAR KBLI 230553Z AUTO 00000KT 10SM FEW120 15/12 A2989 RMK AO2 SLP129 T01500117 10194 20144 56018=
202009230453 METAR KBLI 230453Z 00000KT 10SM FEW120 16/12 A2990 RMK AO2 SLP130 T01560117=
202009230353 METAR KBLI 230353Z 00000KT 10SM CLR 16/12 A2994 RMK AO2 SLP145 T01610122=
202009230253 METAR KBLI 230253Z 00000KT 10SM BKN100 16/12 A2995 RMK AO2 SLP147 T01610122 58008=
202009230153 METAR KBLI 230153Z 00000KT 10SM CLR 17/12 A2995 RMK AO2 SLP148 T01670122=
202009230053 METAR KBLI 230053Z 00000KT 10SM BKN090 19/12 A2998 RMK AO2 SLP158 T01890122=
202009222353 METAR KBLI 222353Z 22003KT 10SM CLR 19/12 A2997 RMK AO2 SLP155 T01940117 10200 20161 56007=
202009222253 METAR KBLI 222253Z VRB06KT 10SM CLR 20/12 A2998 RMK AO2 SLP157 T02000122=
202009222153 METAR KBLI 222153Z 21007KT 180V240 10SM CLR 19/12 A2998 RMK AO2 SLP157 T01940117=
202009222053 METAR KBLI 222053Z 22004KT 10SM FEW055 19/10 A2999 RMK AO2 SLP162 T01940100 58007=
202009221953 METAR KBLI 221953Z 19007KT 170V240 10SM CLR 19/09 A3000 RMK AO2 SLP165 T01890094=
202009221853 METAR KBLI 221853Z VRB06KT 10SM BKN070 17/11 A3002 RMK AO2 SLP170 T01720111=
202009221753 METAR KBLI 221753Z 19007KT 10SM OVC070 17/12 A3001 RMK AO2 SLP169 60000 T01670117 10172 20139 53006=
202009221653 METAR KBLI 221653Z 18006KT 10SM FEW030 BKN070 16/11 A3000 RMK AO2 SLP165 T01560111=
202009221553 METAR KBLI 221553Z 19009G16KT 10SM FEW010 BKN060 15/12 A2999 RMK AO2 SLP163 T01500117=
202009221453 METAR KBLI 221453Z 19004KT 10SM SCT006 SCT030 BKN055 14/12 A3000 RMK AO2 SLP163 60000 T01390122 53008=
202009221353 METAR KBLI 221353Z 00000KT 10SM FEW031 SCT041 OVC060 14/13 A2998 RMK AO2 SLP159 T01440128=
202009221344 SPECI KBLI 221344Z AUTO 27006KT 10SM BKN031 OVC038 14/12 A2998 RMK AO2 T01440122=
202009221253 METAR KBLI 221253Z AUTO 20006KT 10SM OVC027 14/13 A2998 RMK AO2 RAE1154 SLP158 P0000 T01440128=
202009221208 SPECI KBLI 221208Z AUTO 20005KT 10SM SCT003 OVC029 14/13 A2998 RMK AO2 RAE1154 P0000 T01440128=
202009221153 METAR KBLI 221153Z AUTO 20006KT 10SM -RA SCT003 OVC030 14/13 A2997 RMK AO2 RAB35 SLP155 P0000 60000 T01440133 10167 20144 50003=
202009221151 SPECI KBLI 221151Z AUTO 20005KT 10SM -RA SCT003 BKN030 OVC041 14/13 A2997 RMK AO2 RAB35 P0000=
202009221053 METAR KBLI 221053Z AUTO 19005KT 10SM OVC032 15/13 A2996 RMK AO2 RAB0956E06 SLP153 P0000 T01500128=
202009220953 METAR KBLI 220953Z AUTO 19004KT 10SM OVC036 15/13 A2996 RMK AO2 SLP153 T01500128=
202009220853 METAR KBLI 220853Z AUTO 17005KT 10SM OVC036 16/13 A2996 RMK AO2 RAB0757E27 SLP152 P0000 60000 T01560128 52002=
202009220753 METAR KBLI 220753Z AUTO 00000KT 10SM OVC035 16/12 A2996 RMK AO2 SLP152 T01610122 402060089=
202009220653 METAR KBLI 220653Z AUTO 19003KT 10SM BKN036 OVC045 16/12 A2996 RMK AO2 SLP151 T01610122=
202009220553 METAR KBLI 220553Z AUTO 00000KT 10SM OVC037 16/13 A2996 RMK AO2 SLP150 T01610128 10200 20144 51007=
202009220453 METAR KBLI 220453Z 00000KT 10SM FEW075 14/12 A2996 RMK AO2 SLP150 T01440122=
202009220353 METAR KBLI 220353Z 00000KT 10SM FEW070 SCT090 OVC110 16/12 A2995 RMK AO2 SLP149 T01560122=
202009220253 METAR KBLI 220253Z 00000KT 10SM BKN100 16/13 A2994 RMK AO2 SLP145 T01610128 51001=
202009220153 METAR KBLI 220153Z 18003KT 10SM FEW070 OVC090 18/13 A2994 RMK AO2 SLP144 T01830128=
202009220053 METAR KBLI 220053Z 24005KT 10SM FEW050 SCT080 BKN095 19/12 A2994 RMK AO2 SLP143 T01940122=
202009212353 METAR KBLI 212353Z 29004KT 10SM SCT095 20/12 A2994 RMK AO2 SLP142 T02000122 10206 20161 56005=
202009212253 METAR KBLI 212253Z 21004KT 10SM FEW050 SCT090 19/12 A2994 RMK AO2 SLP144 T01940117=
202009212153 METAR KBLI 212153Z 23006KT 10SM FEW040 SCT095 20/11 A2994 RMK AO2 SLP145 T02000111=
202009212053 METAR KBLI 212053Z VRB06KT 10SM FEW035 21/11 A2995 RMK AO2 SLP148 T02060111 56007=
202009211953 METAR KBLI 211953Z 24004KT 10SM FEW035 SCT090 19/13 A2995 RMK AO2 SLP149 T01890128=
202009211853 METAR KBLI 211853Z 00000KT 10SM FEW025 SCT035 BKN100 18/13 A2995 RMK AO2 SLP149 T01780128=
202009211753 METAR KBLI 211753Z 00000KT 10SM SCT008 BKN039 16/13 A2997 RMK AO2 SLP156 T01610128 10161 20100 53004=
202009211724 SPECI KBLI 211724Z 00000KT 10SM FEW004 SCT039 16/13 A2998 RMK AO2 T01560133=
202009211653 METAR KBLI 211653Z 00000KT 10SM FEW036 14/12 A2996 RMK AO2 SLP154 T01440122=
202009211553 METAR KBLI 211553Z 00000KT 10SM SCT036 13/12 A2996 RMK AO2 SLP154 T01330117=
202009211453 METAR KBLI 211453Z 00000KT 10SM SCT034 12/10 A2996 RMK AO2 SLP153 T01170100 52004=
202009211353 METAR KBLI 211353Z 00000KT 10SM SCT036 11/09 A2996 RMK AO2 SLP152 T01060094=
202009211253 METAR KBLI 211253Z AUTO 00000KT 10SM BKN037 11/09 A2995 RMK AO2 SLP148 T01060089=
202009211153 METAR KBLI 211153Z AUTO 00000KT 10SM R16/2400V5000FT FEW001 OVC034 10/08 A2995 RMK AO2 SLP147 T01000083 10128 20089 56004=
202009211143 SPECI KBLI 211143Z AUTO 00000KT 3SM R16/2000V3500FT BR FEW001 BKN033 09/08 A2995 RMK AO2 T00940083=
202009211139 SPECI KBLI 211139Z AUTO 00000KT 1SM R16/2000VP6000FT BR SCT001 BKN033 09/08 A2995 RMK AO2 VIS 1/2V4 T00940083=
202009211133 SPECI KBLI 211133Z AUTO 00000KT 3/4SM R16/2400VP6000FT BR BKN001 BKN033 09/08 A2995 RMK AO2 T00940083=
202009211130 SPECI KBLI 211130Z AUTO 00000KT 1 3/4SM R16/2400VP6000FT BR SCT001 09/08 A2995 RMK AO2 T00940083=
202009211116 SPECI KBLI 211116Z AUTO 00000KT 10SM FEW001 SCT033 09/08 A2995 RMK AO2 T00940083=
202009211053 METAR KBLI 211053Z AUTO 00000KT 10SM CLR 10/08 A2995 RMK AO2 SLP148 T01000083=
202009211025 SPECI KBLI 211025Z AUTO 00000KT 4SM BR BKN036 09/08 A2995 RMK AO2 T00940083=
202009211022 SPECI KBLI 211022Z AUTO 00000KT 1SM R16/P6000FT BR BKN036 10/09 A2995 RMK AO2 T01000089=
202009211015 SPECI KBLI 211015Z AUTO 00000KT 1/2SM R16/4500VP6000FT FG BKN036 10/08 A2995 RMK AO2 T01000083=
202009211010 SPECI KBLI 211010Z AUTO 00000KT 1 3/4SM R16/4500VP6000FT BR BKN036 10/09 A2995 RMK AO2 VIS 1V5 T01000089=
202009210953 METAR KBLI 210953Z AUTO 00000KT 10SM FEW037 11/09 A2995 RMK AO2 SLP148 T01060089=
202009210853 METAR KBLI 210853Z AUTO 00000KT 10SM CLR 11/09 A2996 RMK AO2 SLP151 T01060089 58007=
202009210820 SPECI KBLI 210820Z AUTO 00000KT 3SM BR CLR 09/08 A2997 RMK AO2 T00940083=
202009210811 SPECI KBLI 210811Z AUTO 00000KT 1 3/4SM BR CLR 11/09 A2997 RMK AO2 VIS 1V5 T01060094=
202009210753 METAR KBLI 210753Z AUTO 00000KT 9SM CLR 11/09 A2997 RMK AO2 SLP156 T01060089 402110106=
202009210653 METAR KBLI 210653Z AUTO 00000KT 10SM CLR 12/10 A2998 RMK AO2 SLP158 T01170100=
202009210553 METAR KBLI 210553Z AUTO 00000KT 10SM CLR 12/10 A2998 RMK AO2 SLP159 T01170100 10206 20111 56007=
202009210453 METAR KBLI 210453Z 00000KT 10SM CLR 12/11 A2999 RMK AO2 SLP161 T01220106=
202009210353 METAR KBLI 210353Z 00000KT 10SM CLR 13/11 A2999 RMK AO2 SLP162 T01330111=
202009210253 METAR KBLI 210253Z 00000KT 10SM CLR 15/12 A3000 RMK AO2 SLP165 T01500117 56007=
202009210153 METAR KBLI 210153Z 00000KT 10SM CLR 17/12 A3000 RMK AO2 SLP166 T01720117=
202009210053 METAR KBLI 210053Z VRB03KT 10SM CLR 20/11 A3001 RMK AO2 SLP168 T02000111=
202009202353 METAR KBLI 202353Z 23003KT 10SM CLR 21/12 A3002 RMK AO2 SLP172 T02060117 10211 20167 56014=
202009202253 METAR KBLI 202253Z 23005KT 10SM FEW025 SCT080 21/11 A3003 RMK AO2 SLP175 T02060111=
202009202153 METAR KBLI 202153Z VRB04KT 10SM FEW020 SCT080 21/12 A3004 RMK AO2 SLP179 T02060117=
202009202053 METAR KBLI 202053Z 19007KT 10SM CLR 19/13 A3006 RMK AO2 SLP186 T01940128 58010=
202009201953 METAR KBLI 201953Z 19007KT 10SM SCT018 BKN085 19/13 A3009 RMK AO2 SLP195 T01890128=
202009201853 METAR KBLI 201853Z 18007KT 10SM SCT015 BKN035 18/13 A3009 RMK AO2 SLP195 T01780133=
202009201753 METAR KBLI 201753Z 19006KT 10SM SCT015 17/13 A3009 RMK AO2 SLP196 T01720133 10172 20133 53003=
202009201707 SPECI KBLI 201707Z 18009KT 10SM FEW013 SCT016 17/13 A3009 RMK AO2 T01670133=
202009201653 METAR KBLI 201653Z 19007KT 10SM BKN017 16/13 A3009 RMK AO2 SLP195 T01560133=
202009201553 METAR KBLI 201553Z 19006KT 10SM BKN013 15/13 A3009 RMK AO2 SLP194 T01500128=
202009201453 METAR KBLI 201453Z 19005KT 10SM FEW005 SCT014 BKN085 14/13 A3008 RMK AO2 SLP193 T01390128 53004=
202009201423 SPECI KBLI 201423Z 19006KT 10SM FEW005 SCT014 BKN085 14/13 A3008 RMK AO2 T01390128=
202009201353 METAR KBLI 201353Z 19006KT 10SM FEW005 BKN014 14/12 A3007 RMK AO2 SLP190 T01440122=
202009201339 SPECI KBLI 201339Z AUTO 20003KT 10SM BKN014 14/12 A3007 RMK AO2 T01390122=
202009201253 METAR KBLI 201253Z AUTO 18006KT 10SM CLR 14/12 A3007 RMK AO2 SLP188 T01440122=
202009201153 METAR KBLI 201153Z AUTO 19005KT 10SM FEW080 14/12 A3007 RMK AO2 SLP189 T01440122 10156 20139 58001=
202009201053 METAR KBLI 201053Z AUTO 17005KT 10SM FEW013 14/12 A3007 RMK AO2 SLP190 T01440117=
202009200953 METAR KBLI 200953Z AUTO 18006KT 10SM CLR 15/12 A3008 RMK AO2 SLP191 T01500122=
202009200853 METAR KBLI 200853Z AUTO 18009KT 10SM CLR 15/12 A3007 RMK AO2 SLP190 T01500122 53005=
202009200753 METAR KBLI 200753Z AUTO 20007KT 10SM SCT080 15/12 A3006 RMK AO2 SLP186 T01500122 401780150=
202009200653 METAR KBLI 200653Z AUTO 20007KT 10SM BKN085 15/13 A3006 RMK AO2 SLP186 T01500128=
202009200553 METAR KBLI 200553Z AUTO 20007KT 10SM FEW060 16/13 A3006 RMK AO2 SLP185 T01560128 10172 20156 53007=
202009200453 METAR KBLI 200453Z 20007KT 10SM SCT055 OVC085 16/13 A3005 RMK AO2 SLP182 T01560128=
202009200353 METAR KBLI 200353Z 10SM BKN065 OVC090 16/13 A3005 RMK AO2 SLP181 T01610128=
202009200253 METAR KBLI 200253Z 20006KT 10SM OVC047 16/13 A3004 RMK AO2 SLP177 T01610128 53003=
202009200153 METAR KBLI 200153Z 19007KT 10SM SCT050 OVC060 17/13 A3003 RMK AO2 SLP174 T01670128=
202009200053 METAR KBLI 200053Z 18006KT 10SM SCT032 BKN044 OVC100 17/13 A3003 RMK AO2 SLP174 T01670128=
202009192353 METAR KBLI 192353Z 18008KT 10SM FEW039 SCT070 OVC100 17/13 A3003 RMK AO2 RAE08 SLP175 P0000 60000 T01720128 10178 20167 57001=
202009192253 METAR KBLI 192253Z 18007KT 10SM -RA SCT070 OVC085 17/14 A3003 RMK AO2 RAE2157B37 SLP175 P0000 T01720139=
202009192153 METAR KBLI 192153Z 19007KT 10SM -RA SCT065 OVC085 18/13 A3003 RMK AO2 RAB48 SLP175 P0000 T01780133=
202009192053 METAR KBLI 192053Z 18007KT 10SM OVC060 18/13 A3003 RMK AO2 SLP176 T01780133 51008=
202009191953 METAR KBLI 191953Z 18009KT 10SM FEW018 OVC070 17/13 A3003 RMK AO2 SLP174 T01720128=
202009191853 METAR KBLI 191853Z 19009KT 10SM BKN042 OVC085 17/13 A3002 RMK AO2 SLP171 T01720128=
202009191753 METAR KBLI 191753Z 18010KT 10SM SCT036 BKN044 OVC100 17/13 A3001 RMK AO2 SLP167 T01670128 10172 20156 53015=
202009191653 METAR KBLI 191653Z 19009KT 10SM SCT038 OVC100 17/12 A2999 RMK AO2 SLP162 T01670122=
202009191553 METAR KBLI 191553Z 19008KT 10SM OVC100 16/12 A2998 RMK AO2 SLP157 T01610117=
202009191453 METAR KBLI 191453Z 18006KT 10SM BKN080 OVC110 16/12 A2996 RMK AO2 SLP153 T01610122 53010=
202009191353 METAR KBLI 191353Z 19005KT 10SM FEW043 OVC075 16/13 A2995 RMK AO2 SLP148 T01560128=
202009191253 METAR KBLI 191253Z AUTO 18007KT 10SM BKN095 16/13 A2995 RMK AO2 SLP146 T01560128=
202009191153 METAR KBLI 191153Z AUTO 19008KT 10SM CLR 16/13 A2994 RMK AO2 SLP143 T01560128 10167 20156 53005=
202009191053 METAR KBLI 191053Z AUTO 19011KT 10SM FEW100 16/12 A2992 RMK AO2 SLP139 T01560122=
202009190953 METAR KBLI 190953Z AUTO 19008KT 10SM CLR 16/13 A2992 RMK AO2 SLP137 T01560128=
202009190853 METAR KBLI 190853Z AUTO 19011G16KT 10SM CLR 16/13 A2992 RMK AO2 SLP137 T01560133 53001=
202009190753 METAR KBLI 190753Z AUTO VRB05KT 9SM SCT023 16/14 A2991 RMK AO2 SLP135 T01610139 401890111=
202009190719 SPECI KBLI 190719Z AUTO 19008KT 10SM BKN024 17/14 A2991 RMK AO2 T01670139=
202009190653 METAR KBLI 190653Z AUTO 19006KT 10SM BKN065 17/14 A2992 RMK AO2 SLP136 T01670139=
202009190600 SPECI KBLI 190600Z AUTO 18008KT 8SM FEW037 BKN075 17/14 A2992 RMK AO2 T01670144=
202009190553 METAR KBLI 190553Z AUTO 19006KT 8SM SCT009 OVC021 17/14 A2992 RMK AO2 SLP136 60000 T01670144 10167 20156 50005=
202009190453 METAR KBLI 190453Z 18007KT 5SM BR SCT009 OVC021 17/15 A2992 RMK AO2 SLP138 T01670150=
202009190353 METAR KBLI 190353Z 19007KT 5SM BR OVC021 17/15 A2991 RMK AO2 RAE08 SLP136 P0000 T01670150=
202009190253 METAR KBLI 190253Z 19011KT 3SM -RA BR FEW005 SCT050 BKN110 16/14 A2990 RMK AO2 RAB41 SLP131 P0000 60000 T01610144 53006=
202009190153 METAR KBLI 190153Z 20008G16KT 2SM BR FEW003 BKN100 16/14 A2988 RMK AO2 SLP125 T01560139=
202009190053 METAR KBLI 190053Z 19007KT 1 1/2SM BR BKN110 17/14 A2988 RMK AO2 SLP124 T01670144=
202009182353 METAR KBLI 182353Z 20005KT 1 1/2SM BR FEW006 BKN044 17/14 A2988 RMK AO2 SLP125 T01670144 10189 20161 58003=
202009182330 SPECI KBLI 182330Z 19006KT 1 1/2SM BR SCT006 SCT010 BKN050 17/14 A2989 RMK AO2 T01670144=
202009182253 METAR KBLI 182253Z 18005KT 1 1/2SM BR BKN007 17/15 A2989 RMK AO2 SLP126 T01720150=
202009182153 METAR KBLI 182153Z VRB04KT 1SM R16/P6000FT HZ BKN006 BKN031 17/14 A2989 RMK AO2 SLP127 T01720144=
202009182100 SPECI KBLI 182100Z 20004KT 1SM R16/P6000FT BR BKN006 BKN031 BKN048 16/14 A2989 RMK AO2 T01610144=
202009182053 METAR KBLI 182053Z 21006KT 1SM R16/P6000FT BR BKN003 OVC031 17/14 A2989 RMK AO2 SLP128 T01670144 55001=
202009181953 METAR KBLI 181953Z 21006KT 1SM R16/P6000FT BR BKN003 OVC031 16/14 A2989 RMK AO2 SLP127 T01610144=
202009181951 SPECI KBLI 181951Z 20006KT 2SM BR BKN003 OVC031 16/14 A2989 RMK AO2=
202009181853 METAR KBLI 181853Z 04003KT 1 1/2SM HZ FEW006 OVC047 19/16 A2989 RMK AO2 SLP126 T01890161=
202009181807 SPECI KBLI 181807Z 00000KT 1/4SM R16/P6000FT FG VV002 17/16 A2989 RMK AO2 T01720156=
202009181800 SPECI KBLI 181800Z 00000KT 3/4SM R16/P6000FT FG VV002 17/16 A2989 RMK AO2 T01670156=
202009181753 METAR KBLI 181753Z 00000KT 1/4SM R16/P6000FT FG VV002 16/16 A2989 RMK AO2 SLP128 T01610156 10161 20111 50001=
202009181741 SPECI KBLI 181741Z 00000KT 1/4SM R16/1600VP6000FT FG VV002 16/15 A2989 RMK AO2 T01560150=
202009181719 SPECI KBLI 181719Z 19003KT 1/4SM R16/1200V1400FT FG VV002 16/14 A2989 RMK AO2 T01560144=
202009181701 SPECI KBLI 181701Z 00000KT 1/4SM R16/2000V2800FT FG VV002 16/14 A2990 RMK AO2 T01560144=
202009181653 METAR KBLI 181653Z 00000KT 1/4SM R16/1400V2200FT FG VV002 15/14 A2990 RMK AO2 SLP129 T01500144=
202009181553 METAR KBLI 181553Z 00000KT 1/4SM R16/1000V1200FT FG VV002 14/14 A2989 RMK AO2 SLP128 T01440139=
202009181453 METAR KBLI 181453Z 00000KT 1/4SM R16/1200V2000FT FG VV002 14/13 A2989 RMK AO2 SLP127 T01390133 53001=
202009181444 SPECI KBLI 181444Z 00000KT 1/4SM R16/1200V1600FT FG VV002 14/13 A2989 RMK AO2 T01390128=
202009181415 SPECI KBLI 181415Z 00000KT 1/4SM R16/0700V1800FT FG VV001 13/12 A2989 RMK AO2 T01280117=
202009181411 SPECI KBLI 181411Z 30003KT 1/4SM R16/0800V2400FT FG VV002 13/12 A2989 RMK AO2 T01280117=
202009181353 METAR KBLI 181353Z 00000KT 1/4SM R16/1200V2800FT FG VV001 12/11 A2989 RMK AO2 SLP126 T01220111=
202009181349 SPECI KBLI 181349Z 00000KT 1/4SM R16/1400V4500FT FG VV001 12/11 A2988 RMK AO2=
202009181342 SPECI KBLI 181342Z 00000KT 3/4SM R16/1200V3000FT BR VV001 12/11 A2988 RMK AO2 T01220111=
202009181336 SPECI KBLI 181336Z AUTO 00000KT 1/4SM R16/1200V2000FT FG VV003 12/11 A2988 RMK AO2 T01220111=
202009181332 SPECI KBLI 181332Z AUTO 00000KT 1/4SM R16/1200VP6000FT FG VV005 12/12 A2988 RMK AO2 T01220117=
202009181323 SPECI KBLI 181323Z AUTO 03003KT 1/4SM R16/2000VP6000FT FG VV011 12/11 A2988 RMK AO2 T01170106=
202009181315 SPECI KBLI 181315Z AUTO 03003KT 1/4SM R16/1800VP6000FT FG VV016 12/11 A2988 RMK AO2 T01170106=
202009181302 SPECI KBLI 181302Z AUTO 00000KT 3/4SM R16/1400V4500FT BR BKN024 12/11 A2989 RMK AO2 T01220111=
202009181253 METAR KBLI 181253Z AUTO 00000KT 1/4SM R16/1600V1800FT FG BKN021 BKN110 12/12 A2989 RMK AO2 SLP126 T01220117=
202009181251 SPECI KBLI 181251Z AUTO 00000KT 1/4SM R16/1600V2000FT FG BKN021 BKN110 12/12 A2989 RMK AO2=
202009181241 SPECI KBLI 181241Z AUTO 00000KT 1/2SM R16/1600V4000FT FG BKN021 12/12 A2988 RMK AO2 T01220117=
202009181235 SPECI KBLI 181235Z AUTO 00000KT 1SM R16/1400V5500FT BR VV020 12/12 A2989 RMK AO2 T01220117=
202009181224 SPECI KBLI 181224Z AUTO 00000KT 1/2SM R16/2000V4500FT FG BKN022 12/12 A2989 RMK AO2 T01220117=
202009181212 SPECI KBLI 181212Z AUTO 00000KT 1SM R16/1600V3500FT BR VV016 13/12 A2989 RMK AO2 T01330122=
202009181208 SPECI KBLI 181208Z AUTO 00000KT 1/2SM R16/1600V2000FT FG VV015 13/12 A2989 RMK AO2 T01280122=
202009181201 SPECI KBLI 181201Z AUTO 00000KT 1/4SM R16/1600V2000FT FG VV005 13/12 A2989 RMK AO2 T01280117=
202009181153 METAR KBLI 181153Z AUTO 00000KT 1/4SM R16/1800V2200FT FG VV001 13/12 A2988 RMK AO2 SLP126 T01280117 10156 20128 58011=
202009181053 METAR KBLI 181053Z AUTO 00000KT M1/4SM R16/1000FT FG VV001 13/12 A2990 RMK AO2 SLP131 T01330122=
202009181033 SPECI KBLI 181033Z AUTO 00000KT 1/4SM R16/0600V0800FT FG VV001 14/13 A2991 RMK AO2 T01390128=
202009181024 SPECI KBLI 181024Z AUTO 00000KT 1/2SM R16/0700V3000FT FG VV002 13/12 A2992 RMK AO2 T01330122=
202009181009 SPECI KBLI 181009Z AUTO 00000KT M1/4SM R16/0700V1000FT FG VV003 13/13 A2992 RMK AO2 T01330128=
202009180953 METAR KBLI 180953Z AUTO 00000KT M1/4SM R16/0600V0800FT FG VV001 14/13 A2992 RMK AO2 SLP136 T01390133=
202009180939 SPECI KBLI 180939Z AUTO 00000KT M1/4SM R16/0800V1800FT FG VV001 14/13 A2991 RMK AO2 T01390128=
202009180928 SPECI KBLI 180928Z AUTO 00000KT 1/4SM R16/0800V1200FT FG VV004 14/13 A2991 RMK AO2 T01390128=
202009180920 SPECI KBLI 180920Z AUTO 00000KT 1/4SM R16/1000V1600FT FG VV010 14/13 A2991 RMK AO2 T01390133=
202009180912 SPECI KBLI 180912Z AUTO 00000KT 1/2SM R16/1400V2600FT FG FEW001 BKN012 14/14 A2992 RMK AO2 T01440139=
202009180906 SPECI KBLI 180906Z AUTO 00000KT 1SM R16/1600VP6000FT BR SCT001 OVC014 14/13 A2991 RMK AO2 T01440133=
202009180853 METAR KBLI 180853Z AUTO 00000KT 1SM R16/3000VP6000FT BR BKN001 OVC008 14/14 A2992 RMK AO2 SLP137 T01440139 50001=
202009180809 SPECI KBLI 180809Z AUTO 18005KT 1SM R16/3000VP6000FT BR OVC001 15/14 A2992 RMK AO2 T01500139=
202009180800 SPECI KBLI 180800Z AUTO 19004KT 1 1/4SM R16/3500VP6000FT BR BKN002 OVC043 15/14 A2993 RMK AO2 T01500139=
202009180753 METAR KBLI 180753Z AUTO 19003KT 2SM BR BKN002 OVC043 16/14 A2992 RMK AO2 SLP138 T01560139 402110133=
202009180751 SPECI KBLI 180751Z AUTO 19003KT 2SM BR SCT002 OVC043 16/14 A2992 RMK AO2=
202009180653 METAR KBLI 180653Z AUTO 00000KT 2 1/2SM BR OVC043 14/13 A2991 RMK AO2 SLP135 T01440128=
202009180643 SPECI KBLI 180643Z AUTO 19004KT 2 1/2SM BR OVC043 15/13 A2991 RMK AO2 T01500133=
202009180553 METAR KBLI 180553Z AUTO 19005KT 3SM BR OVC044 16/14 A2991 RMK AO2 SLP134 T01560144 10211 20144 51005=
202009180532 SPECI KBLI 180532Z AUTO 21004KT 3SM BR OVC043 16/14 A2991 RMK AO2 T01560144=
202009180453 METAR KBLI 180453Z VRB03KT 2 1/2SM BR FU OVC044 16/14 A2991 RMK AO2 SLP134 T01610144=
202009180353 METAR KBLI 180353Z 00000KT 3SM BR FU OVC042 15/13 A2990 RMK AO2 SLP132 T01500133=
202009180253 METAR KBLI 180253Z 00000KT 2SM BR FU SCT041 16/14 A2989 RMK AO2 SLP128 T01610144 56005=
202009180153 METAR KBLI 180153Z 00000KT 2SM HZ FU OVC044 18/16 A2989 RMK AO2 SLP128 T01830156=
202009180053 METAR KBLI 180053Z VRB03KT 1 1/2SM HZ FU BKN043 20/16 A2990 RMK AO2 SLP132 T02000161=
202009172353 METAR KBLI 172353Z 33003KT 1 1/2SM HZ FU FEW043 21/16 A2991 RMK AO2 SLP133 T02060161 10211 20183 56015=
202009172253 METAR KBLI 172253Z VRB04KT 1 1/2SM HZ FU FEW039 21/16 A2992 RMK AO2 SLP137 T02110161=
202009172153 METAR KBLI 172153Z 29004KT 1 1/2SM HZ FU FEW037 21/16 A2993 RMK AO2 SLP140 T02060161=
202009172053 METAR KBLI 172053Z VRB04KT 2SM HZ FU FEW017 SCT040 19/16 A2995 RMK AO2 SLP148 T01940156 56019=
202009171953 METAR KBLI 171953Z 00000KT 2SM HZ FU FEW015 SCT040 21/16 A2996 RMK AO2 SLP152 T02060161=
202009171853 METAR KBLI 171853Z 04004KT 1SM R16/P6000FT HZ FU FEW041 20/16 A2998 RMK AO2 SLP158 T02000161=
202009171753 METAR KBLI 171753Z 01004KT 1SM R16/P6000FT HZ FU SCT036 18/16 A3001 RMK AO2 SLP167 T01830156 10183 20133 57009=
202009171653 METAR KBLI 171653Z 00000KT 3/4SM R16/P6000FT BR FU FEW038 17/15 A3002 RMK AO2 SLP171 T01670150=
202009171553 METAR KBLI 171553Z 00000KT 3/4SM R16/P6000FT BR FU SCT034 16/14 A3002 RMK AO2 SLP173 T01560144=
202009171453 METAR KBLI 171453Z 00000KT 3/4SM R16/5500VP6000FT BR FU SCT031 14/13 A3004 RMK AO2 SLP177 T01440128 55000=
202009171353 METAR KBLI 171353Z 00000KT 1/2SM R16/P6000FT FG FU FEW023 BKN028 14/13 A3003 RMK AO2 SLP176 T01440133=
202009171351 SPECI KBLI 171351Z 00000KT 1/2SM R16/P6000FT FG FU BKN028 14/13 A3003 RMK AO2=
202009171341 SPECI KBLI 171341Z AUTO 00000KT 1/2SM R16/P6000FT FG FU BKN030 14/13 A3003 RMK AO2 T01440133=
202009171336 SPECI KBLI 171336Z AUTO 00000KT 1 1/2SM BR FU BKN030 15/14 A3004 RMK AO2 T01500139=
202009171303 SPECI KBLI 171303Z AUTO 00000KT 4SM BR FU OVC032 15/14 A3004 RMK AO2 T01500139=
202009171253 METAR KBLI 171253Z AUTO 00000KT 2 1/2SM BR FU OVC034 15/14 A3004 RMK AO2 VIS 1 1/4V4 SLP177 T01500139=
202009171249 SPECI KBLI 171249Z AUTO 00000KT 2SM BR FU BKN034 15/14 A3004 RMK AO2 VIS 1 1/4V3=
202009171242 SPECI KBLI 171242Z AUTO 00000KT 3SM BR FU FEW023 OVC034 15/14 A3003 RMK AO2 T01500139=
202009171232 SPECI KBLI 171232Z AUTO 00000KT 2 1/2SM BR FU SCT023 BKN034 15/14 A3003 RMK AO2 T01500139=
202009171228 SPECI KBLI 171228Z AUTO 00000KT 1SM R16/P6000FT BR FU BKN023 BKN034 14/14 A3003 RMK AO2 T01440139=
202009171223 SPECI KBLI 171223Z AUTO 00000KT 1/2SM R16/2000VP6000FT FG FU BKN023 14/14 A3003 RMK AO2 T01440139=
202009171212 SPECI KBLI 171212Z AUTO 00000KT 3/4SM R16/1800VP6000FT BR FU BKN023 14/13 A3003 RMK AO2 T01440133=
202009171204 SPECI KBLI 171204Z AUTO 00000KT 1SM R16/1200VP6000FT BR FU BKN023 14/14 A3003 RMK AO2 T01440139=
202009171200 SPECI KBLI 171200Z AUTO 00000KT 3/4SM R16/1200VP6000FT BR FU SCT023 16/14 A3003 RMK AO2 T01560144=
202009171153 METAR KBLI 171153Z AUTO 00000KT 1/2SM R16/P6000FT FG FU SCT023 BKN028 16/14 A3003 RMK AO2 SLP174 T01560144 10172 20144 58003=
202009171150 SPECI KBLI 171150Z AUTO 00000KT 3/4SM R16/P6000FT BR FU FEW023 SCT028 16/14 A3003 RMK AO2 VIS 1/4V3=
202009171143 SPECI KBLI 171143Z AUTO 00000KT 1 3/4SM BR FU BKN028 16/15 A3003 RMK AO2 T01610150=
202009171053 METAR KBLI 171053Z AUTO 00000KT 3SM BR FU OVC026 17/16 A3003 RMK AO2 SLP174 T01720156=
202009170953 METAR KBLI 170953Z AUTO 00000KT 3SM BR FU OVC022 17/15 A3004 RMK AO2 SLP176 T01670150=
202009170853 METAR KBLI 170853Z AUTO 00000KT 3SM BR FU OVC022 16/14 A3004 RMK AO2 SLP177 T01610144 50001=
202009170829 SPECI KBLI 170829Z AUTO 00000KT 3SM BR FU OVC022 16/14 A3004 RMK AO2 T01610144=
202009170819 SPECI KBLI 170819Z AUTO 00000KT 2 1/2SM BR FU BKN023 OVC045 16/14 A3004 RMK AO2 T01560139=
202009170807 SPECI KBLI 170807Z AUTO 00000KT 2 1/2SM R16/3500VP6000FT BR FU SCT023 OVC045 16/14 A3004 RMK AO2 T01560139=
202009170759 SPECI KBLI 170759Z AUTO 00000KT 1SM R16/P6000FT BR FU FEW025 OVC045 15/14 A3004 RMK AO2 T01500139=
202009170753 METAR KBLI 170753Z AUTO 00000KT 1/4SM R16/P6000FT FG FU OVC046 14/13 A3004 RMK AO2 SLP178 T01440133 402170133=
202009170750 SPECI KBLI 170750Z AUTO 00000KT 1/4SM R16/P6000FT FG FU OVC046 14/14 A3004 RMK AO2=
202009170742 SPECI KBLI 170742Z AUTO 00000KT 3/4SM R16/P6000FT BR FU OVC047 15/14 A3004 RMK AO2 T01500139=
202009170716 SPECI KBLI 170716Z AUTO 00000KT 2 1/2SM BR FU SCT021 OVC045 16/14 A3004 RMK AO2 T01560139=
202009170705 SPECI KBLI 170705Z AUTO 00000KT 3SM BR FU BKN020 OVC044 16/14 A3004 RMK AO2 T01560144=
202009170653 METAR KBLI 170653Z AUTO 00000KT 2 1/2SM BR FU OVC020 16/14 A3003 RMK AO2 SLP176 T01560144=
202009170641 SPECI KBLI 170641Z AUTO 00000KT 2 1/2SM BR FU BKN020 OVC044 15/14 A3003 RMK AO2 T01500139=
202009170626 SPECI KBLI 170626Z AUTO 00000KT 2 1/2SM BR FU FEW022 OVC044 15/14 A3003 RMK AO2 T01500139=
202009170615 SPECI KBLI 170615Z AUTO 00000KT 3SM BR FU FEW021 OVC044 16/14 A3003 RMK AO2 T01560139=
202009170553 METAR KBLI 170553Z AUTO 00000KT 2SM BR FU OVC044 16/14 A3002 RMK AO2 SLP173 T01560144 10206 20150 51011=
202009170453 METAR KBLI 170453Z 00000KT 2SM BR FU OVC044 16/14 A3002 RMK AO2 SLP171 T01610144=
202009170353 METAR KBLI 170353Z 20003KT 2SM BR FU OVC050 16/14 A3001 RMK AO2 SLP166 T01610144=
202009170253 METAR KBLI 170253Z 21005KT 2SM BR FU SCT060 17/15 A2999 RMK AO2 SLP161 T01720150 53008=
202009170153 METAR KBLI 170153Z VRB03KT 2SM BR FU CLR 17/15 A2998 RMK AO2 SLP156 T01720150=
202009170053 METAR KBLI 170053Z 19005KT 2SM HZ FU CLR 18/16 A2997 RMK AO2 SLP155 T01830156=
202009162353 METAR KBLI 162353Z 28003KT 2SM HZ FU CLR 20/16 A2997 RMK AO2 SLP153 T02000156 10217 20167 56007=
202009162253 METAR KBLI 162253Z VRB03KT 2SM HZ FU CLR 20/16 A2998 RMK AO2 SLP157 T02000156=
202009162153 METAR KBLI 162153Z 22004KT 1 1/2SM HZ FU CLR 21/17 A2998 RMK AO2 SLP157 T02110167=
202009162053 METAR KBLI 162053Z 24003KT 1SM R16/P6000FT HZ FU CLR 20/16 A2999 RMK AO2 SLP161 T02000161 56014=
202009161953 METAR KBLI 161953Z VRB03KT 3/4SM R16/P6000FT HZ FU CLR 21/16 A3000 RMK AO2 SLP165 T02060161=
202009161853 METAR KBLI 161853Z 01003KT 1SM R16/P6000FT HZ FU VV004 19/16 A3001 RMK AO2 SLP169 T01890161=
202009161839 SPECI KBLI 161839Z VRB03KT 3/4SM R16/P6000FT BR FU BKN003 18/16 A3002 RMK AO2 T01830161=
202009161753 METAR KBLI 161753Z 00000KT 1/2SM R16/5000VP6000FT FG FU VV002 17/16 A3003 RMK AO2 SLP175 T01670156 10167 20139 58005=
202009161745 SPECI KBLI 161745Z 00000KT 1/4SM R16/4000V6000FT FG FU VV001 17/16 A3003 RMK AO2 T01670156=
202009161743 SPECI KBLI 161743Z 33003KT 1SM R16/2400V5000FT FG FU VV001 17/16 A3003 RMK AO2 T01670156=
202009161740 SPECI KBLI 161740Z 00000KT 1/2SM R16/1800V4500FT FG FU VV001 17/16 A3003 RMK AO2 T01670156=
202009161653 METAR KBLI 161653Z 00000KT M1/4SM R16/0700V0800FT FG FU VV001 16/15 A3004 RMK AO2 SLP178 T01610150=
202009161553 METAR KBLI 161553Z 00000KT 1/4SM R16/0500V0800FT FG FU VV001 15/15 A3004 RMK AO2 SLP180 T01500150=
202009161453 METAR KBLI 161453Z 00000KT 1/4SM R16/0600V0700FT FG FU VV001 14/14 A3004 RMK AO2 SLP180 T01440139 53002=
202009161408 SPECI KBLI 161408Z 19003KT 1/4SM R16/0600V1000FT FG FU VV001 14/13 A3004 RMK AO2 T01390133=
202009161353 METAR KBLI 161353Z 00000KT 1/4SM R16/0700V2400FT FG FU VV001 14/13 A3003 RMK AO2 SLP175 T01390128=
202009161253 METAR KBLI 161253Z AUTO 00000KT 1/4SM R16/0800V1200FT FG FU VV001 14/13 A3003 RMK AO2 SLP175 T01390128=
202009161240 SPECI KBLI 161240Z AUTO 00000KT 1/4SM R16/1200V2000FT FG FU VV001 14/13 A3003 RMK AO2 T01390128=
202009161225 SPECI KBLI 161225Z AUTO 00000KT 1/2SM R16/2000V4000FT FG FU BKN004 OVC010 14/13 A3004 RMK AO2 T01390128=
202009161215 SPECI KBLI 161215Z AUTO 00000KT 3/4SM R16/2200V6000FT BR FU SCT004 OVC010 14/13 A3004 RMK AO2 T01390128=
202009161203 SPECI KBLI 161203Z AUTO 00000KT 1SM R16/3500V5500FT BR FU FEW004 OVC010 14/13 A3004 RMK AO2 T01390133=
202009161151 METAR KBLI 161151Z AUTO 00000KT 3/4SM R16/1200V6000FT BR FU VV007 14/13 A3004 RMK AO2 SLP177 60000 70001 T01390128 10167 20133 56012=
202009161150 SPECI KBLI 161150Z AUTO 00000KT 3/4SM R16/1000V4500FT BR FU VV007 14/13 A3004 RMK AO2=
202009161104 SPECI KBLI 161104Z AUTO 00000KT 1/4SM R16/1200V2200FT FG FU FEW001 OVC005 14/13 A3005 RMK AO2 T01440133=
202009161053 METAR KBLI 161053Z AUTO 00000KT 1/4SM R16/1600V5500FT FG FU VV003 14/13 A3005 RMK AO2 SLP179 T01440133=
202009161036 SPECI KBLI 161036Z AUTO 00000KT 3/4SM R16/2800VP6000FT BR FU BKN002 OVC018 15/14 A3005 RMK AO2 T01500139=
202009161004 SPECI KBLI 161004Z AUTO 19003KT 1 1/4SM BR FU SCT002 OVC015 15/14 A3005 RMK AO2 T01500139=
202009160953 METAR KBLI 160953Z AUTO 00000KT 1SM R16/6000VP6000FT BR FU SCT003 OVC013 15/14 A3005 RMK AO2 SLP180 T01500139=
202009160853 METAR KBLI 160853Z AUTO 00000KT 1 1/4SM BR FU BKN002 OVC012 16/14 A3007 RMK AO2 SLP189 60000 T01560144 55004=
202009160844 SPECI KBLI 160844Z AUTO 00000KT 1 1/4SM BR FU BKN002 OVC016 16/14 A3007 RMK AO2 T01560144=
202009160829 SPECI KBLI 160829Z AUTO 00000KT 1 1/2SM BR FU FEW003 BKN028 16/14 A3007 RMK AO2 T01560144=
202009160753 METAR KBLI 160753Z AUTO 28003KT 1 3/4SM BR FU CLR 16/14 A3007 RMK AO2 SLP187 T01610144 402610133=
202009160743 SPECI KBLI 160743Z AUTO 29005KT 1 3/4SM BR FU FEW120 16/14 A3007 RMK AO2 T01610144=
202009160736 SPECI KBLI 160736Z AUTO 28004KT 2SM BR FU FEW120 16/14 A3007 RMK AO2 T01610144=
202009160720 SPECI KBLI 160720Z AUTO 32006KT 1 3/4SM BR FU FEW050 SCT120 16/14 A3006 RMK AO2 T01610144=
202009160653 METAR KBLI 160653Z AUTO 31004KT 2 1/2SM BR FU CLR 17/14 A3007 RMK AO2 RAE20 SLP187 P0000 T01670144=
202009160553 METAR KBLI 160553Z AUTO 00000KT 2 1/2SM -RA BR FU FEW032 BKN075 OVC090 17/14 A3009 RMK AO2 RAE0459B27 SLP194 P0001 60001 T01670144 10239 20161 51014=
202009160453 METAR KBLI 160453Z 01005KT 2SM -RA BR FU OVC100 16/14 A3008 RMK AO2 RAE0359B23 SLP191 P0000 T01610139=
202009160401 SPECI KBLI 160401Z 23003KT 2SM BR FU FEW046 SCT110 17/15 A3008 RMK AO2 RAE0359 P0000 T01720150=
202009160353 METAR KBLI 160353Z 23004KT 3SM -RA BR FU FEW046 SCT100 BKN120 17/15 A3007 RMK AO2 RAB29 SLP189 P0000 T01670150=
202009160253 METAR KBLI 160253Z 18003KT 2SM HZ FU BKN110 18/14 A3005 RMK AO2 SLP180 T01780139 50004=
202009160153 METAR KBLI 160153Z 29007KT 2SM HZ FU OVC100 18/13 A3005 RMK AO2 SLP180 T01780133=
202009160053 METAR KBLI 160053Z 29006KT 2SM HZ FU BKN095 21/14 A3003 RMK AO2 SLP175 T02060144=
202009152353 METAR KBLI 152353Z 32004KT 2SM HZ FU BKN100 OVC120 24/15 A3003 RMK AO2 SLP174 T02390150 10261 20189 58020=
202009152253 METAR KBLI 152253Z 33004KT 1SM R16/P6000FT HZ FU OVC100 24/16 A3005 RMK AO2 SLP181 T02440156=
202009152153 METAR KBLI 152153Z 01005KT 2SM HZ FU CLR 26/13 A3007 RMK AO2 SLP189 T02560133=
202009152053 METAR KBLI 152053Z 03005KT 2SM HZ FU CLR 26/13 A3009 RMK AO2 SLP195 T02560133 58008=
202009151953 METAR KBLI 151953Z 33003KT 1/2SM R16/P6000FT HZ FU OVC050 23/14 A3011 RMK AO2 SLP200 T02330144=
202009151853 METAR KBLI 151853Z 01004KT 1/2SM R16/P6000FT HZ FU OVC055 21/15 A3011 RMK AO2 SLP203 T02110150=
202009151753 METAR KBLI 151753Z 00000KT 1/2SM R16/P6000FT HZ FU OVC050 19/15 A3012 RMK AO2 SLP204 T01890150 10189 20133 51007=
202009151653 METAR KBLI 151653Z 03003KT 1/2SM R16/P6000FT HZ FU OVC049 17/14 A3011 RMK AO2 SLP203 T01720139=
202009151553 METAR KBLI 151553Z 00000KT 1/2SM R16/6000VP6000FT FG FU SCT050 16/14 A3011 RMK AO2 SLP201 T01610144=
202009151453 METAR KBLI 151453Z 00000KT 1/2SM R16/5000VP6000FT FG FU FEW032 OVC048 15/13 A3009 RMK AO2 SLP197 T01500133 53010=
202009151353 METAR KBLI 151353Z 00000KT 1/2SM R16/4500VP6000FT FG FU OVC049 14/13 A3008 RMK AO2 SLP192 T01390128=
202009151313 SPECI KBLI 151313Z AUTO 00000KT 1 1/4SM BR FU FEW025 14/13 A3007 RMK AO2 T01390128=
202009151304 SPECI KBLI 151304Z AUTO 00000KT 3/4SM R16/P6000FT BR FU FEW023 FEW080 13/13 A3006 RMK AO2 T01330128=
202009151253 METAR KBLI 151253Z AUTO 00000KT 1SM R16/P6000FT BR FU FEW085 14/13 A3006 RMK AO2 SLP185 T01390128=
202009151246 SPECI KBLI 151246Z AUTO 02003KT 1SM R16/4000VP6000FT BR FU FEW016 FEW048 BKN085 14/13 A3006 RMK AO2 T01390128=
202009151224 SPECI KBLI 151224Z AUTO 03003KT 1/2SM R16/3000VP6000FT FG FU FEW017 BKN050 OVC090 14/13 A3005 RMK AO2 T01390128=
202009151216 SPECI KBLI 151216Z AUTO 01003KT 3/4SM R16/5000VP6000FT BR FU FEW019 BKN050 OVC095 14/13 A3006 RMK AO2 T01440133=
202009151153 METAR KBLI 151153Z AUTO 00000KT 1SM R16/5500VP6000FT BR FU FEW027 BKN050 OVC090 14/13 A3006 RMK AO2 SLP186 60000 70008 T01440133 10156 20139 53010=
202009151139 SPECI KBLI 151139Z AUTO 00000KT 3/4SM R16/2600V5500FT BR FU FEW027 SCT050 OVC090 14/13 A3006 RMK AO2 T01440133=
202009151128 SPECI KBLI 151128Z AUTO 00000KT 1/2SM R16/4500V5500FT FG FU BKN029 OVC090 14/13 A3006 RMK AO2 T01440133=
202009151123 SPECI KBLI 151123Z AUTO 00000KT 3/4SM R16/5000V5500FT BR FU BKN031 OVC095 14/13 A3006 RMK AO2 T01440133=
202009151112 SPECI KBLI 151112Z AUTO 00000KT 1/2SM R16/2400VP6000FT FG FU BKN033 OVC090 14/13 A3006 RMK AO2 T01440133=
202009151104 SPECI KBLI 151104Z AUTO 00000KT 3/4SM R16/P6000FT BR FU OVC035 14/13 A3005 RMK AO2 T01440133=
202009151053 METAR KBLI 151053Z AUTO 00000KT 1SM R16/P6000FT BR FU OVC035 15/14 A3005 RMK AO2 SLP183 T01500139=
202009151014 SPECI KBLI 151014Z AUTO 00000KT 1 1/4SM R16/5000VP6000FT BR FU OVC034 15/14 A3005 RMK AO2 T01500139=
202009150953 METAR KBLI 150953Z AUTO 31003KT 3/4SM R16/4000V6000FT BR FU OVC034 15/14 A3004 RMK AO2 SLP178 T01500139=
202009150915 SPECI KBLI 150915Z AUTO 35003KT 3/4SM R16/4500VP6000FT BR FU SCT031 OVC090 15/13 A3003 RMK AO2 T01500133=
202009150856 SPECI KBLI 150856Z AUTO 00000KT 1SM R16/4500VP6000FT BR FU BKN030 OVC095 15/14 A3003 RMK AO2 T01500139=
202009150853 METAR KBLI 150853Z AUTO 00000KT 3/4SM R16/4500V6000FT BR FU BKN029 OVC095 15/14 A3003 RMK AO2 SLP176 60000 T01500139 53001=
202009150849 SPECI KBLI 150849Z AUTO 34003KT 3/4SM R16/4500VP6000FT BR FU BKN029 OVC095 15/14 A3003 RMK AO2=
202009150813 SPECI KBLI 150813Z AUTO 00000KT 1SM R16/P6000FT BR FU BKN028 OVC070 16/14 A3003 RMK AO2 T01560139=
202009150802 SPECI KBLI 150802Z AUTO 00000KT 1SM R16/6000VP6000FT BR FU SCT027 OVC070 16/14 A3002 RMK AO2 T01560139=
202009150753 METAR KBLI 150753Z AUTO 03004KT 3/4SM R16/5000VP6000FT BR FU BKN027 OVC070 16/14 A3002 RMK AO2 RAE21 SLP171 P0000 T01560139 402060100=
202009150743 SPECI KBLI 150743Z AUTO 02004KT 3/4SM R16/4500V5000FT BR FU BKN027 OVC070 16/14 A3002 RMK AO2 RAE21 P0000 T01560139=
202009150733 SPECI KBLI 150733Z AUTO 00000KT 3/4SM R16/4500V6000FT BR FU SCT030 OVC070 16/14 A3002 RMK AO2 RAE21 P0000 T01560144=
202009150659 SPECI KBLI 150659Z AUTO 12004KT 1SM R16/4500V6000FT -RA BR FU SCT003 BKN032 OVC060 16/14 A3002 RMK AO2 P0000 T01560144=
202009150653 METAR KBLI 150653Z AUTO 00000KT 3/4SM R16/4500V5500FT -RA BR FU BKN004 BKN026 OVC065 16/14 A3003 RMK AO2 RAE05B18E27B52 SLP175 P0000 T01560144=
202009150648 SPECI KBLI 150648Z AUTO 18004KT 3/4SM R16/5000V5500FT BR FU BKN004 OVC026 16/14 A3003 RMK AO2 RAE05B18E27 P0000=
202009150640 SPECI KBLI 150640Z AUTO 18005KT 3/4SM R16/4000V5500FT BR FU BKN005 OVC031 15/14 A3004 RMK AO2 RAE05B18E27 P0000 T01500139=
202009150635 SPECI KBLI 150635Z AUTO 00000KT 3/4SM R16/4500V5500FT BR FU SCT005 OVC031 15/14 A3003 RMK AO2 RAE05B18E27 P0000 T01500139=
202009150628 SPECI KBLI 150628Z AUTO 00000KT 3/4SM R16/4500V5500FT BR FU OVC031 15/14 A3003 RMK AO2 RAE05B18E27 P0000 T01500139=
202009150607 SPECI KBLI 150607Z AUTO 00000KT 3/4SM R16/4500V5500FT BR FU SCT002 OVC020 15/14 A3002 RMK AO2 RAE05 P0000 T01500139=
202009150600 SPECI KBLI 150600Z AUTO 00000KT 1SM R16/4500V5500FT -RA BR FU BKN002 OVC024 16/14 A3001 RMK AO2 P0000 T01560144=
202009150553 METAR KBLI 150553Z AUTO 28003KT 3/4SM R16/4500V5000FT -RA BR FU OVC002 15/14 A3001 RMK AO2 RAB46 SLP169 P0000 60008 T01500139 10161 20150 53013=
202009150543 SPECI KBLI 150543Z AUTO 29003KT 3/4SM R16/3500V5000FT BR FU OVC002 15/14 A3000 RMK AO2 T01500139=
202009150533 SPECI KBLI 150533Z AUTO 00000KT 1/2SM R16/3500V5500FT FG FU OVC002 16/14 A3000 RMK AO2 T01560139=
202009150521 SPECI KBLI 150521Z 00000KT 3/4SM R16/3000V5500FT BR FU BKN002 BKN013 OVC080 16/14 A2999 RMK AO2 T01560144=
202009150514 SPECI KBLI 150514Z 00000KT 3/4SM R16/5000V5500FT BR FU SCT002 BKN013 OVC085 16/14 A3000 RMK AO2 T01560144=
202009150506 SPECI KBLI 150506Z VRB03KT 1SM R16/5000V5500FT BR FU FEW002 BKN013 OVC085 16/14 A2999 RMK AO2 T01560144=
202009150453 METAR KBLI 150453Z 00000KT 3/4SM R16/4500V5500FT BR FU BKN014 OVC080 16/14 A2999 RMK AO2 RAE01 SLP160 P0000 T01560144=
202009150418 SPECI KBLI 150418Z 00000KT 3/4SM R16/5000VP6000FT BR FU BKN017 OVC090 16/14 A2999 RMK AO2 RAE01 P0000 T01560144=
202009150353 METAR KBLI 150353Z 00000KT 3/4SM R16/3500V5500FT -RA BR FU SCT028 BKN075 OVC110 16/14 A2999 RMK AO2 RAB0256 SLP164 P0002 T01560144=
202009150346 SPECI KBLI 150346Z 30003KT 3/4SM R16/5000V6000FT -RA BR FU FEW016 BKN095 OVC110 16/14 A2999 RMK AO2 RAB0256 P0002 T01560144=
202009150253 METAR KBLI 150253Z 00000KT 1SM R16/6000VP6000FT BR FU SCT014 OVC100 16/14 A2997 RMK AO2 RAB23E53 SLP157 P0001 60006 T01560139 53006=
202009150153 METAR KBLI 150153Z 30004KT 1 1/4SM R16/5000V5500FT BR FU BKN030 OVC110 16/14 A2996 RMK AO2 RAE42 SLP153 P0003 T01560139=
202009150053 METAR KBLI 150053Z 06004KT 3/4SM R16/5500V6000FT -RA BR FU OVC027 16/13 A2996 RMK AO2 RAB06 SLP151 P0002 T01560133=
202009142353 METAR KBLI 142353Z 28006KT 3/4SM R16/P6000FT HZ FU OVC027 16/13 A2996 RMK AO2 SLP151 T01610133 10206 20161 53006=
202009142253 METAR KBLI 142253Z 00000KT 3/4SM R16/6000VP6000FT HZ FU OVC023 18/14 A2993 RMK AO2 SLP140 T01830139=
202009142153 METAR KBLI 142153Z 32003KT 3/4SM R16/5500VP6000FT HZ FU OVC021 19/14 A2993 RMK AO2 SLP142 T01890139=
202009142053 METAR KBLI 142053Z 01003KT 3/4SM R16/4500V5000FT HZ FU OVC021 20/13 A2994 RMK AO2 SLP144 T02000128 56011=
202009141953 METAR KBLI 141953Z 04005KT 3/4SM R16/4500V5500FT HZ FU OVC021 19/13 A2995 RMK AO2 SLP147 T01940128=
202009141853 METAR KBLI 141853Z 04005KT 3/4SM R16/5000V6000FT HZ FU OVC021 19/13 A2996 RMK AO2 SLP151 T01890128=
202009141753 METAR KBLI 141753Z 05005KT 3/4SM R16/5000V5500FT HZ FU OVC021 16/13 A2997 RMK AO2 SLP156 T01610128 10161 20100 52004=
202009141653 METAR KBLI 141653Z 01005KT 3/4SM R16/4000V4500FT BR FU SCT003 OVC021 13/12 A2997 RMK AO2 SLP154 T01280117=
202009141627 SPECI KBLI 141627Z 03005KT 1/2SM R16/3500V4000FT FG FU BKN001 OVC010 12/11 A2997 RMK AO2 T01220111=
202009141625 SPECI KBLI 141625Z 03005KT 1/2SM R16/3000V4000FT FG FU SCT001 OVC010 12/11 A2997 RMK AO2 T01220111=
202009141608 SPECI KBLI 141608Z 01005KT 1/4SM R16/1200V2400FT FG FU VV002 12/11 A2997 RMK AO2 T01170106=
202009141553 METAR KBLI 141553Z 03003KT 1/4SM R16/1000V1400FT FG FU VV001 12/11 A2997 RMK AO2 SLP155 T01170106=
202009141453 METAR KBLI 141453Z 02003KT 1/8SM R16/0600V0700FT FG FU VV001 10/09 A2996 RMK AO2 SLP153 T01000089 53002=
202009141353 METAR KBLI 141353Z 00000KT 1/8SM R16/0600V0700FT FG FU VV001 10/09 A2996 RMK AO2 SLP152 T01000094=
202009141253 METAR KBLI 141253Z AUTO 00000KT 1/4SM R16/0600V0700FT FG FU VV001 11/10 A2995 RMK AO2 SLP148 T01110100=
202009141153 METAR KBLI 141153Z AUTO 00000KT M1/4SM R16/0600V1000FT FG FU VV001 11/09 A2996 RMK AO2 SLP151 T01060094 10117 20100 51007=
202009141106 SPECI KBLI 141106Z AUTO 01003KT 1/4SM R16/0600V0800FT FG FU VV001 11/09 A2995 RMK AO2 T01060094=
202009141059 SPECI KBLI 141059Z AUTO 00000KT 3/4SM R16/0700V2200FT BR FU VV001 11/09 A2994 RMK AO2 T01110094=
202009141053 METAR KBLI 141053Z AUTO 00000KT 1 1/4SM R16/1000V4000FT BR FU OVC001 11/09 A2995 RMK AO2 SLP146 T01110094=
202009141033 SPECI KBLI 141033Z AUTO 00000KT 1 1/4SM BR FU OVC001 11/09 A2995 RMK AO2 T01060089=
202009141018 SPECI KBLI 141018Z AUTO 00000KT 1 1/2SM BR FU BKN002 OVC019 11/09 A2995 RMK AO2 T01060089=
202009140956 SPECI KBLI 140956Z AUTO 00000KT 1SM R16/1000VP6000FT BR FU FEW003 OVC021 11/09 A2995 RMK AO2 T01060089=
202009140953 METAR KBLI 140953Z AUTO 00000KT 1/2SM R16/1200VP6000FT FG FU OVC021 10/09 A2994 RMK AO2 SLP147 T01000089=
202009140933 SPECI KBLI 140933Z AUTO 00000KT 1/2SM R16/1400V4000FT FG FU OVC022 11/09 A2994 RMK AO2 T01060094=
202009140853 METAR KBLI 140853Z AUTO 00000KT 1 1/4SM R16/6000VP6000FT BR FU OVC024 11/09 A2993 RMK AO2 SLP143 T01060094 50000=
202009140753 METAR KBLI 140753Z AUTO 00000KT 1 1/2SM BR FU OVC027 11/09 A2995 RMK AO2 SLP148 T01110094 401780094=
202009140739 SPECI KBLI 140739Z AUTO 00000KT 1SM R16/P6000FT BR FU OVC027 11/09 A2994 RMK AO2 T01060089=
202009140729 SPECI KBLI 140729Z AUTO 00000KT 1/2SM R16/4000VP6000FT FG FU OVC027 11/09 A2994 RMK AO2 T01060089=
202009140653 METAR KBLI 140653Z AUTO 00000KT 1 1/2SM BR FU OVC027 11/09 A2994 RMK AO2 SLP144 T01110094=
202009140648 SPECI KBLI 140648Z AUTO 00000KT 3/4SM R16/5000VP6000FT BR FU OVC028 11/09 A2993 RMK AO2=
202009140603 SPECI KBLI 140603Z AUTO 00000KT 1 1/4SM R16/1800VP6000FT BR FU OVC028 09/08 A2992 RMK AO2 T00940083=
202009140553 METAR KBLI 140553Z AUTO 00000KT 3/4SM R16/3000VP6000FT BR FU OVC027 11/09 A2992 RMK AO2 SLP140 T01060089 10172 20100 51005=
202009140453 METAR KBLI 140453Z 00000KT 1 1/4SM R16/4500VP6000FT BR FU OVC028 11/09 A2992 RMK AO2 SLP139 T01060094=
202009140353 METAR KBLI 140353Z 00000KT 1 1/4SM R16/5500VP6000FT BR FU OVC029 11/09 A2991 RMK AO2 SLP134 T01110094=
202009140253 METAR KBLI 140253Z 00000KT 1SM R16/P6000FT BR FU OVC029 12/11 A2988 RMK AO2 SLP126 T01220106 53002=
202009140153 METAR KBLI 140153Z 00000KT 1SM R16/P6000FT HZ FU OVC027 14/12 A2988 RMK AO2 SLP123 T01440117=
202009140053 METAR KBLI 140053Z 29004KT 1SM R16/P6000FT HZ FU OVC026 16/12 A2988 RMK AO2 SLP123 T01610122=
202009132353 METAR KBLI 132353Z 00000KT 1SM R16/5500V6000FT HZ FU OVC025 17/12 A2988 RMK AO2 SLP124 T01720122 10178 20144 56015=
202009132253 METAR KBLI 132253Z 00000KT 1SM R16/5500VP6000FT HZ FU OVC025 18/12 A2989 RMK AO2 SLP127 T01780122=
202009132153 METAR KBLI 132153Z 00000KT 1SM R16/5500VP6000FT HZ FU OVC025 17/12 A2991 RMK AO2 SLP134 T01720122=
202009132053 METAR KBLI 132053Z 00000KT 1SM R16/5500VP6000FT HZ FU SCT011 OVC022 16/12 A2992 RMK AO2 SLP138 T01610122 58007=
202009131953 METAR KBLI 131953Z 00000KT 1SM R16/6000VP6000FT HZ FU OVC010 16/12 A2993 RMK AO2 SLP141 T01560117=
202009131853 METAR KBLI 131853Z 00000KT 1SM R16/0300VP6000FT HZ FU OVC008 15/12 A2994 RMK AO2 SLP143 T01500117=
202009131753 METAR KBLI 131753Z 00000KT 1SM R16/6000VP6000FT HZ FU OVC008 14/12 A2994 RMK AO2 SLP146 T01440117 10144 20100 58004=
202009131653 METAR KBLI 131653Z 00000KT 1SM R16/6000FT BR FU BKN003 OVC008 14/12 A2995 RMK AO2 SLP150 T01390122=
202009131553 METAR KBLI 131553Z 06004KT 1SM R16/5500V6000FT BR FU OVC008 13/12 A2995 RMK AO2 SLP148 T01330117=
202009131453 METAR KBLI 131453Z 00000KT 1SM R16/6000VP6000FT BR FU OVC004 12/12 A2996 RMK AO2 SLP151 T01220117 53004=
202009131401 SPECI KBLI 131401Z 00000KT 1/2SM R16/1600V5000FT FG FU VV003 12/11 A2995 RMK AO2 T01170111=
202009131353 METAR KBLI 131353Z 00000KT 1/2SM R16/1400V1800FT FG FU VV003 12/11 A2995 RMK AO2 SLP149 T01170106=
202009131333 SPECI KBLI 131333Z 00000KT 1/4SM R16/1200V1600FT FG FU VV002 11/11 A2995 RMK AO2 T01110106=
202009131323 SPECI KBLI 131323Z 00000KT 1/4SM R16/1200V2400FT FG FU VV002 12/11 A2995 RMK AO2 T01170106=
202009131253 METAR KBLI 131253Z AUTO 00000KT 1/4SM R16/1000V1200FT FG FU VV002 11/10 A2995 RMK AO2 SLP147 T01060100=
202009131221 SPECI KBLI 131221Z AUTO 00000KT 1/4SM R16/0700V1000FT FG FU VV001 10/09 A2994 RMK AO2 T01000094=
202009131214 SPECI KBLI 131214Z AUTO 00000KT M1/4SM R16/0600V0800FT FG FU VV002 11/09 A2994 RMK AO2 T01060094=
202009131207 SPECI KBLI 131207Z AUTO 00000KT M1/4SM R16/0600V0800FT FG FU VV005 11/09 A2994 RMK AO2 T01060094=
202009131200 SPECI KBLI 131200Z AUTO 00000KT 1/4SM R16/0700V5500FT FG FU VV010 10/09 A2994 RMK AO2 T01000094=
202009131153 METAR KBLI 131153Z AUTO 00000KT 3/4SM R16/1400VP6000FT BR FU FEW004 OVC015 11/09 A2994 RMK AO2 SLP146 T01060089 10139 20100 58003=
202009131145 SPECI KBLI 131145Z AUTO 00000KT 1 1/4SM BR FU SCT004 OVC022 11/09 A2994 RMK AO2 T01060089=
202009131125 SPECI KBLI 131125Z AUTO 00000KT 1 1/4SM BR FU BKN004 OVC026 11/09 A2995 RMK AO2 T01060094=
202009131053 METAR KBLI 131053Z AUTO 21004KT 1 1/2SM BR FU FEW005 OVC026 13/11 A2995 RMK AO2 SLP147 T01280111=
202009131046 SPECI KBLI 131046Z AUTO 20004KT 1 1/2SM BR FU SCT005 OVC028 13/11 A2995 RMK AO2 T01280111=
202009131036 SPECI KBLI 131036Z AUTO 19003KT 1 1/2SM BR FU OVC030 13/11 A2995 RMK AO2 T01280111=
202009131004 SPECI KBLI 131004Z AUTO 00000KT 1 1/4SM BR FU SCT008 OVC029 11/09 A2995 RMK AO2 T01060094=
202009130953 METAR KBLI 130953Z AUTO 00000KT 1SM R16/P6000FT BR FU FEW008 OVC031 11/09 A2995 RMK AO2 SLP150 T01060094=
202009130900 SPECI KBLI 130900Z AUTO 17004KT 1 3/4SM BR FU SCT008 SCT019 OVC031 13/11 A2995 RMK AO2 T01330111=
202009130853 METAR KBLI 130853Z AUTO 18005KT 1 3/4SM BR FU BKN008 BKN019 OVC027 13/11 A2995 RMK AO2 SLP148 T01330111 53006=
202009130802 SPECI KBLI 130802Z AUTO 19005KT 1 3/4SM BR FU OVC006 13/12 A2995 RMK AO2 T01330117=
202009130753 METAR KBLI 130753Z AUTO 19003KT 1 3/4SM BR FU OVC004 13/12 A2995 RMK AO2 SLP146 T01330117 401670117=
202009130653 METAR KBLI 130653Z AUTO 20006KT 1 1/2SM BR FU OVC004 13/12 A2993 RMK AO2 SLP143 T01330117=
202009130638 SPECI KBLI 130638Z AUTO 19006KT 1 1/2SM BR FU OVC004 14/12 A2993 RMK AO2 T01390117=
202009130553 METAR KBLI 130553Z AUTO VRB05KT 1 3/4SM BR FU OVC005 14/12 A2993 RMK AO2 SLP141 T01390117 10156 20117 58001=
202009130519 SPECI KBLI 130519Z AUTO 20004KT 1 1/2SM BR FU BKN005 OVC029 13/12 A2993 RMK AO2 T01330117=
202009130502 SPECI KBLI 130502Z 19003KT 1 3/4SM BR FU FEW006 OVC029 13/11 A2993 RMK AO2 T01330111=
202009130453 METAR KBLI 130453Z 19005KT 1 1/2SM BR FU OVC031 13/11 A2993 RMK AO2 SLP142 T01280111=
202009130353 METAR KBLI 130353Z 19003KT 1 1/2SM BR FU OVC031 12/11 A2994 RMK AO2 SLP145 T01220106=
202009130253 METAR KBLI 130253Z 00000KT 1 1/4SM BR FU OVC035 13/11 A2993 RMK AO2 SLP143 T01280106 58007=
202009130153 METAR KBLI 130153Z 00000KT 1 1/4SM BR FU OVC028 14/12 A2994 RMK AO2 SLP146 T01390117=
202009130053 METAR KBLI 130053Z 00000KT 1 1/4SM HZ FU BKN027 15/12 A2995 RMK AO2 SLP147 T01500117=
202009122353 METAR KBLI 122353Z 00000KT 1 1/4SM HZ FU BKN026 OVC036 16/12 A2996 RMK AO2 SLP150 T01560117 10167 20150 56011=
202009122343 SPECI KBLI 122343Z 00000KT 1 1/2SM HZ FU BKN026 OVC036 16/12 A2996 RMK AO2 T01560117=
202009122253 METAR KBLI 122253Z VRB03KT 1 1/2SM HZ FU SCT026 BKN031 16/12 A2997 RMK AO2 SLP153 T01560117=
202009122153 METAR KBLI 122153Z 18006KT 1 1/2SM HZ FU SCT026 16/12 A2997 RMK AO2 SLP156 T01610117=
202009122053 METAR KBLI 122053Z 21004KT 1 1/4SM HZ FU SCT025 16/11 A2999 RMK AO2 SLP160 T01560111 58010=
202009121953 METAR KBLI 121953Z 23004KT 1 1/4SM HZ FU SCT023 BKN030 16/12 A3000 RMK AO2 SLP164 T01560117=
202009121853 METAR KBLI 121853Z 20004KT 1 1/4SM HZ FU SCT023 BKN030 15/11 A3001 RMK AO2 SLP169 T01500111=
202009121753 METAR KBLI 121753Z 19006KT 1 1/4SM HZ FU SCT025 BKN034 15/12 A3002 RMK AO2 SLP171 T01500117 10150 20133 58002=
202009121653 METAR KBLI 121653Z 19005KT 1 1/4SM HZ FU CLR 14/12 A3002 RMK AO2 SLP173 T01440117=
202009121553 METAR KBLI 121553Z 18005KT 1 1/4SM HZ FU OVC030 14/12 A3002 RMK AO2 SLP172 T01440117=
202009121453 METAR KBLI 121453Z 19004KT 1SM R16/6000VP6000FT BR FU OVC030 14/12 A3002 RMK AO2 SLP173 T01390117 51005=
202009121353 METAR KBLI 121353Z AUTO 19005KT 1 1/2SM BR FU OVC033 13/12 A3002 RMK AO2 SLP170 T01330117=
202009121253 METAR KBLI 121253Z AUTO 20005KT 1 1/2SM BR FU OVC032 13/12 A3002 RMK AO2 SLP170 T01330117=
202009121153 METAR KBLI 121153Z AUTO 19007KT 1 3/4SM BR FU OVC032 14/12 A3001 RMK AO2 SLP168 T01390117 10161 20139 52005=
202009121122 SPECI KBLI 121122Z AUTO 18005KT 1 3/4SM BR FU OVC030 14/12 A3000 RMK AO2 T01390117=
202009121053 METAR KBLI 121053Z AUTO 18006KT 1 3/4SM BR FU OVC027 14/12 A3000 RMK AO2 SLP165 T01390117=
202009120953 METAR KBLI 120953Z AUTO 18008KT 1 3/4SM BR FU OVC022 14/12 A3000 RMK AO2 SLP165 T01390117=
202009120853 METAR KBLI 120853Z AUTO 18008KT 1 3/4SM HZ FU OVC022 14/12 A2999 RMK AO2 SLP163 T01440117 53007=
202009120753 METAR KBLI 120753Z AUTO 18009KT 1 3/4SM BR FU OVC021 14/12 A2998 RMK AO2 SLP159 T01440122 402110128=
202009120723 SPECI KBLI 120723Z AUTO 17008KT 1 3/4SM HZ FU OVC019 15/12 A2998 RMK AO2 T01500117=
202009120653 METAR KBLI 120653Z AUTO 18010KT 2SM HZ FU BKN019 16/12 A2998 RMK AO2 SLP158 T01560117=
202009120553 METAR KBLI 120553Z AUTO 19011KT 2SM HZ FU CLR 16/12 A2997 RMK AO2 SLP155 T01560117 10211 20156 51006=
202009120453 METAR KBLI 120453Z 18009KT 2SM HZ FU CLR 17/12 A2997 RMK AO2 SLP155 T01670117=
202009120353 METAR KBLI 120353Z 19007KT 2 1/2SM HZ FU CLR 17/12 A2996 RMK AO2 SLP153 T01670117=
202009120253 METAR KBLI 120253Z 18006KT 2SM HZ FU CLR 16/12 A2996 RMK AO2 SLP150 T01610117 56007=
202009120153 METAR KBLI 120153Z 20006KT 2SM HZ FU CLR 17/12 A2996 RMK AO2 SLP150 T01720117=
202009120053 METAR KBLI 120053Z 20006KT 1 3/4SM HZ FU CLR 19/12 A2996 RMK AO2 SLP150 T01890117=
202009112353 METAR KBLI 112353Z VRB04KT 1 3/4SM HZ FU CLR 21/12 A2998 RMK AO2 SLP156 T02110117 10211 20172 56015=
202009112253 METAR KBLI 112253Z 1 3/4SM HZ FU CLR 21/12 A2999 RMK AO2 SLP161 T02060117=
202009112153 METAR KBLI 112153Z 22008KT 1 3/4SM HZ FU CLR 19/12 A3000 RMK AO2 SLP166 T01940117=
202009112100 SPECI KBLI 112100Z 21007KT 1 3/4SM HZ FU FEW031 19/11 A3002 RMK AO2 T01890111=
202009112053 METAR KBLI 112053Z 21007G15KT 180V250 2SM HZ FU FEW031 19/11 A3002 RMK AO2 SLP172 T01890111 58008=
202009111953 METAR KBLI 111953Z VRB05KT 2SM HZ FU CLR 19/11 A3003 RMK AO2 SLP175 T01890111=
202009111853 METAR KBLI 111853Z 20006KT 1 3/4SM HZ FU CLR 18/12 A3004 RMK AO2 SLP178 T01830117=
202009111753 METAR KBLI 111753Z 19009KT 2SM HZ FU CLR 18/12 A3005 RMK AO2 SLP180 T01780122 10183 20161 50004=
202009111653 METAR KBLI 111653Z 19009G16KT 2SM HZ FU CLR 17/12 A3005 RMK AO2 SLP181 T01720117=
202009111605 SPECI KBLI 111605Z 19009KT 2SM HZ FU CLR 17/12 A3005 RMK AO2 T01670117=
202009111553 METAR KBLI 111553Z 19010KT 3SM HZ FU CLR 16/12 A3005 RMK AO2 SLP181 T01610117=
202009111453 METAR KBLI 111453Z 19011KT 4SM HZ FU CLR 16/11 A3003 RMK AO2 SLP176 T01610111 53015=
202009111353 METAR KBLI 111353Z 18011KT 5SM HZ FU CLR 17/10 A3002 RMK AO2 SLP169 T01670100=
202009111253 METAR KBLI 111253Z AUTO 19010KT 5SM HZ FU CLR 18/09 A3000 RMK AO2 SLP163 T01830089=
202009111153 METAR KBLI 111153Z AUTO 20006KT 10SM FU CLR 18/11 A2999 RMK AO2 SLP159 T01830106 10183 20128 51011=
202009111053 METAR KBLI 111053Z AUTO 00000KT 10SM FU CLR 14/12 A2998 RMK AO2 SLP157 T01390117=
202009110953 METAR KBLI 110953Z AUTO 00000KT 10SM FU CLR 13/12 A2997 RMK AO2 SLP153 T01330117=
202009110853 METAR KBLI 110853Z AUTO 19003KT 10SM FU CLR 17/13 A2996 RMK AO2 SLP149 T01720128 51007=
202009110753 METAR KBLI 110753Z AUTO 16004KT 10SM FU CLR 15/13 A2995 RMK AO2 SLP147 T01500128 402940106=
202009110653 METAR KBLI 110653Z AUTO 00000KT 10SM FU CLR 16/13 A2994 RMK AO2 SLP145 T01560128=
202009110553 METAR KBLI 110553Z AUTO 00000KT 10SM FU CLR 17/13 A2994 RMK AO2 SLP142 T01670128 10289 20161 53009=
202009110453 METAR KBLI 110453Z 00000KT 10SM FU CLR 16/13 A2993 RMK AO2 SLP138 T01610128=
202009110353 METAR KBLI 110353Z 00000KT 10SM FU CLR 18/13 A2992 RMK AO2 SLP136 T01830133=
202009110253 METAR KBLI 110253Z 00000KT 10SM FU CLR 20/14 A2991 RMK AO2 SLP134 T02000139 55003=
202009110153 METAR KBLI 110153Z 00000KT 10SM FU CLR 23/16 A2991 RMK AO2 SLP134 T02330156=
202009110053 METAR KBLI 110053Z 31003KT 10SM FU CLR 28/14 A2991 RMK AO2 SLP133 T02780139=
202009102353 METAR KBLI 102353Z 30005KT 10SM FU CLR 29/13 A2992 RMK AO2 SLP136 T02890128 10294 20228 56022=
202009102253 METAR KBLI 102253Z VRB03KT 10SM FU CLR 29/13 A2994 RMK AO2 SLP143 T02890133=
202009102153 METAR KBLI 102153Z VRB03KT 10SM FU CLR 29/14 A2997 RMK AO2 SLP152 T02890144=
202009102053 METAR KBLI 102053Z 22005KT 10SM FU CLR 27/14 A2998 RMK AO2 SLP158 T02720144 56008=
202009101953 METAR KBLI 101953Z VRB03KT 10SM FU CLR 27/15 A2999 RMK AO2 SLP159 T02670150=
202009101853 METAR KBLI 101853Z 31004KT 10SM FU CLR 26/14 A3000 RMK AO2 SLP163 T02560144=
202009101753 METAR KBLI 101753Z 16004KT 10SM FU CLR 23/14 A3001 RMK AO2 SLP166 T02330139 10233 20106 50003=
202009101653 METAR KBLI 101653Z 32003KT 10SM FU CLR 21/13 A3001 RMK AO2 SLP166 T02110133=
202009101553 METAR KBLI 101553Z AUTO 00000KT 10SM FU CLR 19/13 A3000 RMK AO2 SLP164 T01890128=
202009101453 METAR KBLI 101453Z AUTO 00000KT 10SM FU CLR 14/12 A3000 RMK AO2 SLP164 T01390117 53004=
202009101353 METAR KBLI 101353Z AUTO 00000KT 10SM FU CLR 12/10 A3000 RMK AO2 SLP163 T01220100=
202009101253 METAR KBLI 101253Z AUTO 00000KT 10SM FU CLR 12/10 A2999 RMK AO2 SLP159 T01170100=
202009101153 METAR KBLI 101153Z AUTO 00000KT 10SM FU CLR 12/11 A2999 RMK AO2 SLP159 T01220106 10156 20111 52003=
202009101053 METAR KBLI 101053Z AUTO 00000KT 10SM FU CLR 13/11 A2998 RMK AO2 SLP158 T01330111=
202009100953 METAR KBLI 100953Z AUTO 00000KT 10SM FU CLR 13/11 A2998 RMK AO2 SLP157 T01330111=
202009100853 METAR KBLI 100853Z AUTO 00000KT 10SM FU CLR 13/11 A2998 RMK AO2 SLP156 T01330111 53007=
202009100753 METAR KBLI 100753Z AUTO 23003KT 10SM FU CLR 14/12 A2996 RMK AO2 SLP150 T01440122 402890083=
202009100653 METAR KBLI 100653Z AUTO 00000KT 10SM FU CLR 14/12 A2996 RMK AO2 SLP151 T01390122=
202009100553 METAR KBLI 100553Z AUTO 00000KT 10SM FU CLR 14/12 A2996 RMK AO2 SLP149 T01440122 10267 20144 50001=
202009100453 METAR KBLI 100453Z 00000KT 10SM FU CLR 17/13 A2996 RMK AO2 SLP149 T01670128=
202009100353 METAR KBLI 100353Z 00000KT 10SM FU CLR 18/13 A2996 RMK AO2 SLP150 T01780128=
202009100253 METAR KBLI 100253Z 00000KT 10SM FU CLR 19/14 A2995 RMK AO2 SLP149 T01890139 55008=
202009100153 METAR KBLI 100153Z 00000KT 10SM FU CLR 22/14 A2995 RMK AO2 SLP147 T02220144=
202009100053 METAR KBLI 100053Z 00000KT 10SM FU CLR 26/11 A2996 RMK AO2 SLP151 T02610111=
202009092353 METAR KBLI 092353Z 30005KT 10SM FU CLR 27/09 A2998 RMK AO2 SLP156 T02670094 10289 20239 57014=
202009092253 METAR KBLI 092253Z VRB04KT 10SM FU CLR 26/12 A2999 RMK AO2 SLP161 T02610117=
202009092153 METAR KBLI 092153Z 29006KT 10SM FU CLR 26/12 A3001 RMK AO2 SLP166 T02560122=
202009092053 METAR KBLI 092053Z 23008KT 10SM FU CLR 25/13 A3002 RMK AO2 SLP170 T02500128 56020=
202009091953 METAR KBLI 091953Z VRB04KT 10SM FU CLR 28/10 A3004 RMK AO2 SLP175 T02830100=
202009091853 METAR KBLI 091853Z VRB04KT 10SM FU CLR 26/10 A3006 RMK AO2 SLP182 T02610100=
202009091753 METAR KBLI 091753Z 03007KT 10SM FU CLR 24/09 A3008 RMK AO2 SLP190 T02440094 10244 20083 58005=
202009091653 METAR KBLI 091653Z 34005KT 10SM FU CLR 21/09 A3009 RMK AO2 SLP195 T02060094=
202009091553 METAR KBLI 091553Z 35004KT 10SM R16/3500VP6000FT FU CLR 17/09 A3009 RMK AO2 SLP195 T01720094=
202009091453 METAR KBLI 091453Z 34003KT 8SM FU CLR 13/09 A3009 RMK AO2 SLP196 T01280089 52003=
202009091353 METAR KBLI 091353Z 00000KT 8SM FU CLR 09/07 A3009 RMK AO2 SLP194 T00940067=
202009091253 METAR KBLI 091253Z AUTO 00000KT 8SM FU CLR 09/07 A3009 RMK AO2 SLP194 T00890067=
202009091153 METAR KBLI 091153Z AUTO 00000KT 8SM FU CLR 10/07 A3008 RMK AO2 SLP193 T01000072 10133 20094 56002=
202009091053 METAR KBLI 091053Z AUTO 00000KT 8SM FU CLR 11/08 A3008 RMK AO2 SLP193 T01060078=
202009090953 METAR KBLI 090953Z AUTO 00000KT 8SM FU CLR 11/08 A3008 RMK AO2 SLP193 T01060078=
202009090853 METAR KBLI 090853Z AUTO 00000KT 9SM FU CLR 12/08 A3009 RMK AO2 SLP195 T01220078 56003=
202009090753 METAR KBLI 090753Z AUTO 00000KT 9SM FU CLR 12/08 A3009 RMK AO2 SLP195 T01220083 402610089=
202009090653 METAR KBLI 090653Z AUTO 00000KT 8SM FU CLR 12/08 A3010 RMK AO2 SLP197 T01170078=
202009090553 METAR KBLI 090553Z AUTO 00000KT 8SM FU CLR 14/08 A3010 RMK AO2 SLP199 T01390083 10250 20122 55003=
202009090453 METAR KBLI 090453Z 00000KT 8SM FU CLR 14/08 A3010 RMK AO2 SLP198 T01440083=
202009090353 METAR KBLI 090353Z 00000KT 8SM FU CLR 14/08 A3010 RMK AO2 SLP200 T01390083=
202009090253 METAR KBLI 090253Z 00000KT 9SM FU CLR 16/08 A3011 RMK AO2 SLP202 T01610083 56014=
202009090153 METAR KBLI 090153Z 00000KT 9SM FU CLR 20/08 A3012 RMK AO2 SLP204 T02000083=
202009090053 METAR KBLI 090053Z 30004KT 7SM FU CLR 23/05 A3013 RMK AO2 SLP209 T02330050=
202009082353 METAR KBLI 082353Z 30007KT 9SM FU CLR 25/03 A3015 RMK AO2 SLP216 T02500028 10261 20211 56029=
202009082253 METAR KBLI 082253Z 34008KT 7SM FU CLR 26/04 A3018 RMK AO2 SLP224 T02610039=
202009082153 METAR KBLI 082153Z 30006KT 7SM FU CLR 25/05 A3021 RMK AO2 SLP234 T02500050=
202009082053 METAR KBLI 082053Z 28005KT 10SM FU CLR 24/04 A3024 RMK AO2 SLP245 T02390044 57024=
202009081953 METAR KBLI 081953Z 18005KT 7SM FU CLR 23/06 A3026 RMK AO2 SLP253 T02280061=
202009081853 METAR KBLI 081853Z 7SM FU CLR 24/04 A3028 RMK AO2 SLP259 T02390039=
202009081753 METAR KBLI 081753Z 04003KT 9SM FU CLR 22/05 A3031 RMK AO2 SLP268 T02220050 10222 20089 58010=
202009081653 METAR KBLI 081653Z VRB03KT 6SM HZ FU CLR 19/04 A3032 RMK AO2 SLP272 T01940044=
202009081553 METAR KBLI 081553Z 00000KT 7SM FU CLR 16/06 A3033 RMK AO2 SLP275 T01610056=
202009081453 METAR KBLI 081453Z 00000KT 8SM FU CLR 12/07 A3034 RMK AO2 SLP279 T01170072 55001=
202009081353 METAR KBLI 081353Z 00000KT 8SM FU CLR 09/05 A3033 RMK AO2 SLP277 T00890050=
202009081253 METAR KBLI 081253Z AUTO 30003KT 10SM CLR 10/06 A3033 RMK AO2 SLP276 T01000056=
202009081153 METAR KBLI 081153Z AUTO 00000KT 10SM SCT039 11/06 A3034 RMK AO2 SLP279 T01110056 10233 20100 51003=
202009081053 METAR KBLI 081053Z AUTO 00000KT 10SM OVC037 12/06 A3034 RMK AO2 SLP277 T01220061=
202009080953 METAR KBLI 080953Z AUTO 00000KT 10SM OVC043 13/06 A3034 RMK AO2 SLP279 T01280061=
202009080853 METAR KBLI 080853Z AUTO 00000KT 10SM OVC045 13/06 A3033 RMK AO2 SLP276 T01280056 51025=
202009080753 METAR KBLI 080753Z AUTO 00000KT 10SM CLR 17/03 A3032 RMK AO2 SLP272 T01720033 402890117=
202009080653 METAR KBLI 080653Z AUTO 06007KT 10SM CLR 22/M01 A3029 RMK AO2 SLP261 T02221006=
202009080553 METAR KBLI 080553Z AUTO 04010KT 10SM CLR 22/00 A3026 RMK AO2 SLP250 T02170000 10283 20211 51017=
202009080453 METAR KBLI 080453Z 04009KT 10SM CLR 22/01 A3024 RMK AO2 SLP246 T02220006=
202009080353 METAR KBLI 080353Z 03009KT 10SM CLR 21/02 A3024 RMK AO2 SLP244 T02110022=
202009080253 METAR KBLI 080253Z 03010KT 10SM CLR 23/02 A3021 RMK AO2 SLP234 T02330022 50004=
202009080153 METAR KBLI 080153Z 03010KT 10SM CLR 26/03 A3022 RMK AO2 SLP236 T02610028=
202009080053 METAR KBLI 080053Z 03013G23KT 10SM CLR 28/02 A3021 RMK AO2 SLP234 T02780017=
202009072353 METAR KBLI 072353Z 04017G24KT 10SM CLR 28/02 A3020 RMK AO2 PK WND 04027/2317 SLP230 T02830017 10289 20256 58005=
202009072253 METAR KBLI 072253Z 03019G27KT 10SM CLR 28/03 A3020 RMK AO2 PK WND 03029/2208 SLP231 T02830028=
202009072153 METAR KBLI 072153Z 04020G27KT 10SM CLR 28/03 A3021 RMK AO2 PK WND 03028/2118 SLP234 T02780028=
202009072053 METAR KBLI 072053Z 05020G29KT 10SM CLR 28/04 A3021 RMK AO2 PK WND 04031/2028 SLP235 T02830039 53001=
202009071953 METAR KBLI 071953Z 04015G32KT 10SM CLR 27/04 A3021 RMK AO2 PK WND 04034/1909 SLP234 T02720044=
202009071853 METAR KBLI 071853Z 03020G37KT 10SM CLR 26/04 A3020 RMK AO2 PK WND 01039/1818 SLP230 T02610039=
202009071753 METAR KBLI 071753Z 04013G30KT 10SM CLR 26/05 A3021 RMK AO2 PK WND 05032/1730 SLP233 T02560050 10256 20117 51012=
202009071653 METAR KBLI 071653Z 01010KT 10SM FEW060 23/11 A3020 RMK AO2 SLP230 T02280111=
202009071553 METAR KBLI 071553Z 01007KT 10SM CLR 20/15 A3018 RMK AO2 SLP227 T02000150=
202009071453 METAR KBLI 071453Z 34008KT 10SM CLR 16/14 A3017 RMK AO2 SLP223 T01610144 53010=
202009071353 METAR KBLI 071353Z 36004KT 8SM CLR 13/12 A3016 RMK AO2 SLP219 T01330122=
202009071253 METAR KBLI 071253Z AUTO 36003KT 5SM BR CLR 13/12 A3015 RMK AO2 SLP214 T01280117=
202009071153 METAR KBLI 071153Z AUTO 00000KT 7SM CLR 12/11 A3014 RMK AO2 SLP212 T01220106 10150 20117 53002=
202009071053 METAR KBLI 071053Z AUTO 36003KT 6SM BR CLR 13/11 A3013 RMK AO2 SLP209 T01280111=
202009070953 METAR KBLI 070953Z AUTO 00000KT 10SM CLR 12/11 A3013 RMK AO2 SLP208 T01220111=
202009070853 METAR KBLI 070853Z AUTO 00000KT 10SM CLR 14/12 A3013 RMK AO2 SLP210 T01390117 58005=
202009070753 METAR KBLI 070753Z AUTO 00000KT 10SM CLR 14/12 A3014 RMK AO2 SLP212 T01390122 402330111=
202009070653 METAR KBLI 070653Z AUTO 00000KT 10SM CLR 14/12 A3015 RMK AO2 SLP215 T01390122=
202009070553 METAR KBLI 070553Z AUTO 00000KT 10SM CLR 15/12 A3015 RMK AO2 SLP215 T01500122 10228 20139 58000=
202009070453 METAR KBLI 070453Z 00000KT 10SM CLR 14/12 A3015 RMK AO2 SLP215 T01440122=
202009070353 METAR KBLI 070353Z 00000KT 10SM CLR 16/13 A3015 RMK AO2 SLP217 T01610128=
202009070253 METAR KBLI 070253Z 00000KT 10SM CLR 18/13 A3015 RMK AO2 SLP215 T01780133 56013=
202009070153 METAR KBLI 070153Z 00000KT 10SM CLR 21/14 A3016 RMK AO2 SLP218 T02060139=
202009070053 METAR KBLI 070053Z VRB05KT 10SM CLR 22/13 A3017 RMK AO2 SLP224 T02170133=
202009062353 METAR KBLI 062353Z 18007KT 10SM CLR 22/13 A3019 RMK AO2 SLP228 T02220133 10233 20189 58020=
202009062253 METAR KBLI 062253Z 18006KT 10SM FEW060 23/14 A3021 RMK AO2 SLP237 T02280139=
202009062153 METAR KBLI 062153Z 19007KT 10SM FEW028 23/14 A3023 RMK AO2 SLP244 T02280139=
202009062053 METAR KBLI 062053Z VRB04KT 10SM FEW027 22/14 A3025 RMK AO2 SLP249 T02170144 58014=
202009061953 METAR KBLI 061953Z 27005KT 10SM FEW025 BKN032 21/14 A3027 RMK AO2 SLP256 T02060144=
202009061853 METAR KBLI 061853Z 00000KT 10SM BKN032 21/14 A3028 RMK AO2 SLP260 T02110144=
202009061753 METAR KBLI 061753Z 00000KT 10SM BKN032 19/14 A3029 RMK AO2 SLP263 T01890139 10189 20111 50001=
202009061705 SPECI KBLI 061705Z 14003KT 7SM SCT003 BKN032 16/14 A3029 RMK AO2 T01610139=
202009061653 METAR KBLI 061653Z 13003KT 5SM BR BKN003 BKN032 16/14 A3029 RMK AO2 SLP263 T01560139=
202009061621 SPECI KBLI 061621Z 00000KT 1SM R16/3500VP6000FT BR OVC002 14/13 A3029 RMK AO2 T01440133=
202009061553 METAR KBLI 061553Z 00000KT 1/4SM R16/1400V3000FT FG VV002 14/13 A3029 RMK AO2 SLP264 T01390128=
202009061539 SPECI KBLI 061539Z 18003KT 1/4SM R16/1000V2000FT FG VV002 14/13 A3029 RMK AO2 T01390128=
202009061524 SPECI KBLI 061524Z 18005KT 1/4SM R16/1600VP6000FT FG OVC003 14/13 A3028 RMK AO2 T01440128=
202009061453 METAR KBLI 061453Z VRB03KT 6SM BR BKN003 14/13 A3029 RMK AO2 SLP262 T01440128 53004=
202009061435 SPECI KBLI 061435Z 00000KT 7SM BKN003 14/12 A3028 RMK AO2 T01390122=
202009061424 SPECI KBLI 061424Z 00000KT 7SM SCT003 BKN012 13/12 A3028 RMK AO2 T01330117=
202009061353 METAR KBLI 061353Z 00000KT 10SM FEW020 SCT030 13/11 A3027 RMK AO2 SLP258 T01280111=
202009061253 METAR KBLI 061253Z AUTO 00000KT 6SM BR BKN033 12/11 A3028 RMK AO2 SLP258 T01220106=
202009061153 METAR KBLI 061153Z AUTO 00000KT 5SM R16/3500VP6000FT BR CLR 12/11 A3028 RMK AO2 SLP258 T01220106 10156 20117 51005=
202009061053 METAR KBLI 061053Z AUTO 00000KT 8SM CLR 12/11 A3027 RMK AO2 SLP257 T01220106=
202009061045 SPECI KBLI 061045Z AUTO 00000KT 3SM BR CLR 12/11 A3027 RMK AO2 T01220111=
202009061041 SPECI KBLI 061041Z AUTO 00000KT 1SM R16/P6000FT BR CLR 12/11 A3027 RMK AO2 T01220111=
202009061034 SPECI KBLI 061034Z AUTO 00000KT 3/4SM R16/6000VP6000FT BR VV004 12/11 A3027 RMK AO2 T01220111=
202009061028 SPECI KBLI 061028Z AUTO 00000KT 1 3/4SM BR CLR 12/11 A3027 RMK AO2 T01170106=
202009060953 METAR KBLI 060953Z AUTO 00000KT 8SM CLR 13/11 A3027 RMK AO2 SLP256 T01280111=
202009060853 METAR KBLI 060853Z AUTO 00000KT 10SM OVC035 14/12 A3026 RMK AO2 SLP253 T01390122 51003=
202009060753 METAR KBLI 060753Z AUTO 00000KT 10SM OVC036 14/12 A3026 RMK AO2 SLP252 T01440122 402060128=
202009060653 METAR KBLI 060653Z AUTO 00000KT 10SM CLR 14/12 A3026 RMK AO2 SLP252 T01390117=
202009060553 METAR KBLI 060553Z AUTO 18003KT 10SM CLR 14/12 A3025 RMK AO2 SLP250 T01390117 10200 20128 51009=
202009060453 METAR KBLI 060453Z 00000KT 10SM CLR 14/12 A3025 RMK AO2 SLP249 T01440122=
202009060353 METAR KBLI 060353Z 00000KT 10SM CLR 15/13 A3025 RMK AO2 SLP248 T01500128=
202009060253 METAR KBLI 060253Z 20003KT 10SM CLR 16/13 A3022 RMK AO2 SLP241 T01610133 58003=
202009060153 METAR KBLI 060153Z 00000KT 10SM CLR 18/13 A3023 RMK AO2 SLP243 T01830133=
202009060053 METAR KBLI 060053Z VRB04KT 10SM FEW100 19/13 A3023 RMK AO2 SLP242 T01940128=
202009052353 METAR KBLI 052353Z 18004KT 10SM CLR 20/13 A3023 RMK AO2 SLP244 T02000133 10206 20172 58006=
202009052253 METAR KBLI 052253Z 18008KT 10SM CLR 21/13 A3024 RMK AO2 SLP246 T02060128=
202009052156 SPECI KBLI 052156Z VRB06KT 10SM SCT027 19/13 A3025 RMK AO2 T01940128=
202009052153 METAR KBLI 052153Z 24007KT 10SM BKN022 19/13 A3025 RMK AO2 SLP249 T01940128=
202009052053 METAR KBLI 052053Z VRB05KT 10SM OVC023 19/13 A3025 RMK AO2 SLP250 T01890133 50003=
202009051953 METAR KBLI 051953Z 21007KT 10SM BKN025 19/13 A3025 RMK AO2 SLP251 T01890133=
202009051853 METAR KBLI 051853Z 18007KT 10SM OVC022 18/13 A3025 RMK AO2 SLP249 T01780128=
202009051753 METAR KBLI 051753Z 17008KT 10SM FEW015 OVC020 17/13 A3024 RMK AO2 SLP247 T01720128 10172 20161 53026=
202009051653 METAR KBLI 051653Z 18009KT 10SM OVC020 17/13 A3022 RMK AO2 SLP240 T01670128=
202009051553 METAR KBLI 051553Z 18008KT 10SM OVC018 16/13 A3019 RMK AO2 SLP228 T01610133=
202009051453 METAR KBLI 051453Z 19009G18KT 10SM OVC016 16/13 A3017 RMK AO2 SLP221 T01610128 53019=
202009051353 METAR KBLI 051353Z AUTO 18011G18KT 10SM OVC019 17/13 A3014 RMK AO2 SLP210 T01670128=
202009051253 METAR KBLI 051253Z AUTO 18008KT 10SM OVC017 16/13 A3013 RMK AO2 SLP208 T01610128=
202009051153 METAR KBLI 051153Z AUTO 18009G19KT 10SM OVC018 16/12 A3011 RMK AO2 SLP200 T01610122 10178 20156 53019=
202009051128 SPECI KBLI 051128Z AUTO 18010G17KT 10SM BKN019 16/12 A3010 RMK AO2 T01560122=
202009051053 METAR KBLI 051053Z AUTO 19011G18KT 10SM CLR 16/12 A3009 RMK AO2 SLP193 T01560122=
202009050953 METAR KBLI 050953Z AUTO 18009G17KT 10SM CLR 17/13 A3007 RMK AO2 SLP188 T01670128=
202009050853 METAR KBLI 050853Z AUTO 18010G17KT 10SM CLR 17/13 A3005 RMK AO2 SLP182 T01670128 53015=
202009050753 METAR KBLI 050753Z AUTO 19009KT 10SM CLR 16/13 A3004 RMK AO2 SLP176 T01610128 402560111=
202009050653 METAR KBLI 050653Z AUTO 19010G18KT 10SM CLR 17/13 A3002 RMK AO2 SLP170 T01670128=
202009050553 METAR KBLI 050553Z AUTO 20007KT 10SM CLR 17/13 A3001 RMK AO2 SLP167 T01720128 10250 20172 51019=
202009050453 METAR KBLI 050453Z 18008KT 10SM CLR 17/13 A3000 RMK AO2 SLP165 T01720133=
202009050353 METAR KBLI 050353Z 22004KT 10SM CLR 18/14 A2999 RMK AO2 SLP160 T01830139=
202009050253 METAR KBLI 050253Z VRB05KT 10SM CLR 19/14 A2995 RMK AO2 SLP148 T01890139 53006=
202009050153 METAR KBLI 050153Z 21005KT 10SM CLR 22/15 A2994 RMK AO2 SLP143 T02170150=
202009050053 METAR KBLI 050053Z 00000KT 10SM CLR 23/14 A2993 RMK AO2 SLP141 T02330144=
202009042353 METAR KBLI 042353Z 29005KT 10SM CLR 24/15 A2993 RMK AO2 SLP142 T02440150 10256 20228 56010=
202009042253 METAR KBLI 042253Z VRB05KT 10SM CLR 26/16 A2994 RMK AO2 SLP142 T02560156=
202009042153 METAR KBLI 042153Z VRB04KT 10SM CLR 25/16 A2995 RMK AO2 SLP147 T02500161=
202009042053 METAR KBLI 042053Z VRB04KT 10SM CLR 24/16 A2996 RMK AO2 SLP152 T02390156 56010=
202009041953 METAR KBLI 041953Z 30007KT 10SM CLR 23/16 A2998 RMK AO2 SLP155 T02330156=
202009041853 METAR KBLI 041853Z VRB06KT 10SM CLR 23/16 A2998 RMK AO2 SLP157 T02330156=
202009041753 METAR KBLI 041753Z 07007KT 10SM R16/3500VP6000FT CLR 24/13 A3000 RMK AO2 SLP162 T02390133 10239 20111 58010=
202009041653 METAR KBLI 041653Z 01004KT 10SM R16/4000VP6000FT CLR 21/14 A3001 RMK AO2 SLP167 T02110139=
202009041553 METAR KBLI 041553Z 04003KT 10SM CLR 18/15 A3002 RMK AO2 SLP170 T01830150=
202009041453 METAR KBLI 041453Z 00000KT 10SM CLR 15/13 A3002 RMK AO2 SLP173 T01500133 53005=
202009041353 METAR KBLI 041353Z 00000KT 10SM BCFG FEW001 12/11 A3001 RMK AO2 SLP168 T01170106=
202009041329 SPECI KBLI 041329Z AUTO 32003KT 3SM R16/1600VP6000FT BR CLR 12/11 A3000 RMK AO2 T01170106=
202009041302 SPECI KBLI 041302Z AUTO 33003KT 1 1/2SM BR CLR 12/11 A3000 RMK AO2 T01170106=
202009041253 METAR KBLI 041253Z AUTO 32003KT 10SM R16/2400VP6000FT CLR 12/10 A3000 RMK AO2 SLP165 T01170100=
202009041233 SPECI KBLI 041233Z AUTO 00000KT 10SM CLR 12/11 A3000 RMK AO2 T01170106=
202009041226 SPECI KBLI 041226Z AUTO 00000KT 2 1/2SM BR CLR 12/11 A3000 RMK AO2 T01170106=
202009041153 METAR KBLI 041153Z AUTO 00000KT 10SM CLR 12/10 A3001 RMK AO2 SLP168 T01170100 10150 20111 58004=
202009041101 SPECI KBLI 041101Z AUTO 00000KT 10SM CLR 11/09 A3002 RMK AO2 T01110094=
202009041053 METAR KBLI 041053Z AUTO 00000KT 1 1/4SM BR CLR 12/10 A3002 RMK AO2 SLP171 T01170100=
202009041050 SPECI KBLI 041050Z AUTO 00000KT 3/4SM R16/P6000FT BR CLR 12/11 A3002 RMK AO2=
202009041038 SPECI KBLI 041038Z AUTO 00000KT 1 3/4SM BR CLR 12/11 A3002 RMK AO2 VIS 3/4V5 T01220111=
202009040953 METAR KBLI 040953Z AUTO 00000KT 10SM CLR 13/12 A3002 RMK AO2 SLP170 T01330117=
202009040853 METAR KBLI 040853Z AUTO 00000KT 6SM BR CLR 12/11 A3003 RMK AO2 SLP175 T01220111 55005=
202009040753 METAR KBLI 040753Z AUTO 00000KT 10SM CLR 14/12 A3003 RMK AO2 SLP174 T01390117 402560106=
202009040653 METAR KBLI 040653Z AUTO 00000KT 10SM CLR 14/12 A3004 RMK AO2 SLP178 T01390117=
202009040553 METAR KBLI 040553Z AUTO 00000KT 10SM CLR 15/12 A3005 RMK AO2 SLP180 60000 T01500122 10244 20139 58001=
202009040453 METAR KBLI 040453Z 00000KT 10SM CLR 15/12 A3005 RMK AO2 SLP183 T01500122=
202009040353 METAR KBLI 040353Z 00000KT 10SM CLR 16/12 A3005 RMK AO2 RAB13E22 SLP182 P0000 T01560122=
202009040253 METAR KBLI 040253Z 00000KT 10SM CLR 18/13 A3005 RMK AO2 SLP181 T01780133 56010=
202009040153 METAR KBLI 040153Z 29004KT 10SM CLR 21/14 A3006 RMK AO2 SLP184 T02110139=
202009040053 METAR KBLI 040053Z 29004KT 10SM CLR 23/14 A3007 RMK AO2 SLP188 T02280139=
202009032353 METAR KBLI 032353Z 27004KT 10SM CLR 24/14 A3008 RMK AO2 SLP192 T02440144 10256 20211 56018=
202009032253 METAR KBLI 032253Z 29003KT 10SM CLR 25/13 A3010 RMK AO2 SLP196 T02500133=
202009032153 METAR KBLI 032153Z 30007KT 10SM CLR 24/14 A3012 RMK AO2 SLP203 T02440144=
202009032053 METAR KBLI 032053Z 28005KT 10SM CLR 24/15 A3013 RMK AO2 SLP210 T02390150 58012=
202009031953 METAR KBLI 031953Z 29006KT 10SM CLR 23/14 A3015 RMK AO2 SLP215 T02330144=
202009031853 METAR KBLI 031853Z VRB04KT 10SM CLR 23/13 A3016 RMK AO2 SLP216 T02330133=
202009031753 METAR KBLI 031753Z 02005KT 10SM CLR 21/14 A3017 RMK AO2 SLP222 T02110139 10211 20106 50001=
202009031653 METAR KBLI 031653Z 03004KT 10SM CLR 18/14 A3017 RMK AO2 SLP222 T01830139=
202009031556 SPECI KBLI 031556Z 00000KT 8SM R16/3000VP6000FT SCT001 14/13 A3017 RMK AO2 T01440133=
202009031555 SPECI KBLI 031555Z 00000KT 2SM R16/3000VP6000FT BR BKN001 14/13 A3017 RMK AO2 T01440133=
202009031553 METAR KBLI 031553Z 35003KT 1/2SM R16/2600VP6000FT FG BKN001 14/13 A3017 RMK AO2 SLP224 T01440133=
202009031535 SPECI KBLI 031535Z 33004KT 1/2SM R16/1400V2400FT FG BKN001 14/13 A3017 RMK AO2 T01390128=
202009031514 SPECI KBLI 031514Z 00000KT 6SM R16/1400V5000FT BR SCT001 14/13 A3017 RMK AO2 T01390128=
202009031505 SPECI KBLI 031505Z 00000KT 6SM R16/1200V2200FT BR SCT001 14/13 A3017 RMK AO2 T01390128=
202009031453 METAR KBLI 031453Z 00000KT 6SM R16/1800V4500FT BR SCT001 14/13 A3017 RMK AO2 SLP221 T01390128 53009=
202009031443 SPECI KBLI 031443Z 00000KT 6SM R16/2000V5500FT BR SCT001 13/13 A3016 RMK AO2 T01330128=
202009031425 SPECI KBLI 031425Z 01003KT 6SM R16/1400V1600FT BR SCT001 12/11 A3016 RMK AO2 T01220111=
202009031412 SPECI KBLI 031412Z 01003KT 1/2SM R16/1200V1400FT FG VV001 12/11 A3015 RMK AO2 T01170106=
202009031358 SPECI KBLI 031358Z 01004KT 1/2SM R16/1400VP6000FT FG VV001 11/10 A3015 RMK AO2 T01110100=
202009031353 METAR KBLI 031353Z 01003KT 1SM R16/P6000FT BR BKN002 11/09 A3015 RMK AO2 SLP217 T01060094=
202009031351 SPECI KBLI 031351Z 02003KT 1SM R16/P6000FT BR BKN002 11/09 A3015 RMK AO2=
202009031348 SPECI KBLI 031348Z 01003KT 2SM BR SCT002 11/09 A3015 RMK AO2=
202009031332 SPECI KBLI 031332Z AUTO 36003KT 1SM R16/2000VP6000FT BR VV001 12/11 A3015 RMK AO2 T01170106=
202009031304 SPECI KBLI 031304Z AUTO 36003KT 1/2SM R16/2000V2600FT FG VV001 11/10 A3014 RMK AO2 T01110100=
202009031256 SPECI KBLI 031256Z AUTO 00000KT 1 3/4SM R16/2600V5500FT BR OVC001 11/11 A3014 RMK AO2 T01110106=
202009031253 METAR KBLI 031253Z AUTO 00000KT 3SM R16/2600VP6000FT BR OVC001 11/11 A3014 RMK AO2 SLP214 T01110106=
202009031249 SPECI KBLI 031249Z AUTO 00000KT 2 1/2SM R16/2400VP6000FT BR OVC001 12/11 A3015 RMK AO2=
202009031242 SPECI KBLI 031242Z AUTO 00000KT 3/4SM R16/1600V6000FT BR VV001 12/11 A3014 RMK AO2 T01170106=
202009031207 SPECI KBLI 031207Z AUTO 00000KT 1/2SM R16/1200V2200FT FG VV001 11/10 A3014 RMK AO2 T01110100=
202009031205 SPECI KBLI 031205Z AUTO 00000KT 3/4SM R16/1200VP6000FT BR VV001 11/10 A3014 RMK AO2 T01110100=
202009031202 SPECI KBLI 031202Z AUTO 00000KT 2 1/2SM R16/1400VP6000FT BR OVC001 11/10 A3014 RMK AO2 T01110100=
202009031153 METAR KBLI 031153Z AUTO 00000KT 2SM R16/2400VP6000FT BR BKN002 12/10 A3014 RMK AO2 SLP213 T01170100 10139 20111 53001=
202009031133 SPECI KBLI 031133Z AUTO 00000KT 10SM SCT002 12/10 A3014 RMK AO2 T01170100=
202009031053 METAR KBLI 031053Z AUTO 00000KT 10SM CLR 12/11 A3014 RMK AO2 SLP211 T01220111=
202009030953 METAR KBLI 030953Z AUTO 00000KT 10SM CLR 13/11 A3014 RMK AO2 SLP211 T01280111=
202009030853 METAR KBLI 030853Z AUTO 00000KT 10SM CLR 12/11 A3014 RMK AO2 SLP212 T01220111 50003=
202009030817 SPECI KBLI 030817Z AUTO 00000KT 3SM BR CLR 13/12 A3014 RMK AO2 T01330117=
202009030808 SPECI KBLI 030808Z AUTO 00000KT 1 3/4SM BR CLR 13/12 A3014 RMK AO2 T01280117=
202009030753 METAR KBLI 030753Z AUTO 00000KT 10SM CLR 13/12 A3014 RMK AO2 SLP212 T01330117 402280122=
202009030653 METAR KBLI 030653Z AUTO 00000KT 10SM CLR 14/12 A3014 RMK AO2 SLP211 T01390122=
202009030553 METAR KBLI 030553Z AUTO 00000KT 10SM CLR 15/13 A3013 RMK AO2 SLP209 T01500128 10228 20139 51010=
202009030453 METAR KBLI 030453Z 00000KT 10SM CLR 16/13 A3012 RMK AO2 SLP206 T01560133=
202009030353 METAR KBLI 030353Z 20003KT 10SM CLR 17/13 A3011 RMK AO2 SLP203 T01720133=
202009030253 METAR KBLI 030253Z 00000KT 10SM CLR 18/14 A3010 RMK AO2 SLP199 T01780144 50000=
202009030153 METAR KBLI 030153Z VRB03KT 10SM CLR 21/13 A3010 RMK AO2 SLP199 T02110133=
202009030053 METAR KBLI 030053Z 19005KT 10SM CLR 22/14 A3010 RMK AO2 SLP200 T02170139=
202009022353 METAR KBLI 022353Z 10SM FEW049 23/14 A3010 RMK AO2 SLP198 T02280144 10228 20167 58004=
202009022253 METAR KBLI 022253Z VRB03KT 10SM BKN049 22/14 A3011 RMK AO2 SLP200 T02220144=
202009022153 METAR KBLI 022153Z 18005KT 10SM CLR 22/14 A3011 RMK AO2 SLP201 T02220144=
202009022053 METAR KBLI 022053Z VRB05KT 10SM BKN050 21/15 A3011 RMK AO2 SLP201 T02110150 51004=
202009021953 METAR KBLI 021953Z 21006KT 10SM FEW025 BKN055 18/14 A3011 RMK AO2 SLP202 T01830144=
202009021853 METAR KBLI 021853Z 19005KT 10SM FEW025 BKN055 17/14 A3010 RMK AO2 SLP199 T01720139=
202009021753 METAR KBLI 021753Z 20008KT 10SM SCT012 BKN060 OVC070 17/14 A3010 RMK AO2 SLP198 T01670139 10172 20144 51018=
202009021653 METAR KBLI 021653Z 20008KT 10SM FEW005 BKN012 BKN070 17/14 A3008 RMK AO2 SLP192 T01670139=
202009021553 METAR KBLI 021553Z 19007G14KT 10SM SCT012 SCT030 17/14 A3007 RMK AO2 SLP187 T01720139=
202009021453 METAR KBLI 021453Z 19011G17KT 10SM FEW003 SCT011 BKN060 16/14 A3005 RMK AO2 SLP180 T01610139 53003=
202009021451 SPECI KBLI 021451Z 18009KT 10SM FEW003 SCT011 BKN060 16/14 A3004 RMK AO2=
202009021353 METAR KBLI 021353Z 19008G16KT 10SM BKN008 16/14 A3003 RMK AO2 CIG 003V011 SLP174 T01560144=
202009021333 SPECI KBLI 021333Z AUTO 18009KT 160V230 10SM OVC008 16/14 A3003 RMK AO2 CIG 004V011 T01560139=
202009021319 SPECI KBLI 021319Z AUTO 19011G20KT 10SM BKN004 OVC009 16/14 A3003 RMK AO2 CIG 004V008 T01560139=
202009021304 SPECI KBLI 021304Z AUTO 19012G20KT 10SM OVC006 16/14 A3002 RMK AO2 CIG 004V009 T01560139=
202009021253 METAR KBLI 021253Z AUTO 19013G20KT 10SM BKN004 OVC009 15/14 A3003 RMK AO2 CIG 001V008 SLP173 T01500139=
202009021239 SPECI KBLI 021239Z AUTO 19012G19KT 9SM BKN002 OVC006 15/13 A3002 RMK AO2 T01500133=
202009021229 SPECI KBLI 021229Z AUTO 19011KT 2SM R16/6000VP6000FT BR OVC002 15/14 A3002 RMK AO2 T01500139=
202009021211 SPECI KBLI 021211Z AUTO 19009G16KT 3/4SM R16/2600V5000FT BR VV002 14/13 A3003 RMK AO2 T01440133=
202009021153 METAR KBLI 021153Z AUTO 20009G15KT 1/2SM R16/2400V3000FT FG VV002 14/13 A3004 RMK AO2 SLP176 T01440133 10167 20133 56003=
202009021151 SPECI KBLI 021151Z AUTO 19009G15KT 3/4SM R16/2400V3000FT BR VV002 14/13 A3004 RMK AO2=
202009021142 SPECI KBLI 021142Z AUTO 19008KT 1/2SM R16/2400V4000FT FG VV002 14/13 A3003 RMK AO2 T01440133=
202009021117 SPECI KBLI 021117Z AUTO 19010KT 3/4SM R16/2600V5000FT BR OVC002 14/13 A3003 RMK AO2 T01440133=
202009021109 SPECI KBLI 021109Z AUTO 19008G15KT 2SM R16/3500VP6000FT BR OVC002 15/14 A3003 RMK AO2 T01500139=
202009021053 METAR KBLI 021053Z AUTO 20006KT 8SM OVC002 15/14 A3004 RMK AO2 SLP178 T01500139=
202009020953 METAR KBLI 020953Z AUTO VRB04KT 10SM BKN002 15/14 A3005 RMK AO2 SLP179 T01500139=
202009020929 SPECI KBLI 020929Z AUTO 20006KT 10SM BKN003 15/13 A3004 RMK AO2 T01500133=
202009020918 SPECI KBLI 020918Z AUTO 20006KT 10SM SCT004 15/13 A3005 RMK AO2 T01500133=
202009020853 METAR KBLI 020853Z AUTO 21006KT 10SM CLR 16/14 A3006 RMK AO2 SLP183 T01610139 56009=
202009020753 METAR KBLI 020753Z AUTO 00000KT 10SM CLR 14/12 A3006 RMK AO2 SLP186 T01440122 402330133=
202009020653 METAR KBLI 020653Z AUTO 18003KT 10SM CLR 16/12 A3007 RMK AO2 SLP189 T01610122=
202009020553 METAR KBLI 020553Z AUTO 20004KT 10SM CLR 16/13 A3008 RMK AO2 SLP193 T01610133 10228 20150 50001=
202009020453 METAR KBLI 020453Z 00000KT 10SM CLR 16/13 A3009 RMK AO2 SLP196 T01560133=
202009020353 METAR KBLI 020353Z 00000KT 10SM CLR 17/14 A3009 RMK AO2 SLP195 T01670139=
202009020253 METAR KBLI 020253Z 00000KT 10SM CLR 18/14 A3008 RMK AO2 SLP192 T01830144 56014=
202009020153 METAR KBLI 020153Z 28003KT 10SM CLR 22/13 A3010 RMK AO2 SLP196 T02170133=
202009020053 METAR KBLI 020053Z 00000KT 10SM CLR 23/14 A3010 RMK AO2 SLP197 T02280139=
202009012353 METAR KBLI 012353Z VRB03KT 10SM CLR 23/14 A3012 RMK AO2 SLP205 T02280139 10233 20172 58014=
202009012253 METAR KBLI 012253Z 17007KT 10SM CLR 23/13 A3014 RMK AO2 SLP210 T02280133=
202009012153 METAR KBLI 012153Z VRB04KT 10SM CLR 22/13 A3015 RMK AO2 SLP215 T02220133=
202009012053 METAR KBLI 012053Z VRB04KT 10SM CLR 22/13 A3016 RMK AO2 SLP219 T02220128 58007=
202009011953 METAR KBLI 011953Z 20005KT 10SM BKN036 21/12 A3018 RMK AO2 SLP224 T02060117=
202009011853 METAR KBLI 011853Z 00000KT 10SM OVC035 18/13 A3019 RMK AO2 SLP228 T01830128=
202009011753 METAR KBLI 011753Z 18003KT 10SM OVC035 17/13 A3019 RMK AO2 SLP228 T01720128 10172 20156 51004=
202009011653 METAR KBLI 011653Z VRB04KT 10SM OVC034 17/12 A3018 RMK AO2 SLP226 T01670122=
202009011553 METAR KBLI 011553Z 00000KT 10SM OVC035 17/12 A3019 RMK AO2 SLP228 T01670117=
202009011453 METAR KBLI 011453Z 00000KT 10SM OVC032 16/13 A3017 RMK AO2 SLP223 T01610128 53002=
202009011353 METAR KBLI 011353Z 00000KT 10SM OVC034 16/13 A3016 RMK AO2 SLP220 T01560128=
202009011253 METAR KBLI 011253Z AUTO 00000KT 10SM BKN035 OVC049 16/12 A3016 RMK AO2 SLP220 T01560122=
202009011153 METAR KBLI 011153Z AUTO 00000KT 10SM OVC038 16/12 A3017 RMK AO2 SLP221 T01560122 10167 20150 53000=
202009011053 METAR KBLI 011053Z AUTO 20003KT 10SM OVC039 16/12 A3017 RMK AO2 SLP221 T01610122=
202009010953 METAR KBLI 010953Z AUTO 19003KT 10SM OVC039 16/12 A3016 RMK AO2 SLP220 T01610117=
202009010853 METAR KBLI 010853Z AUTO 19004KT 10SM BKN035 OVC043 16/12 A3017 RMK AO2 SLP221 T01610122 51004=
202009010753 METAR KBLI 010753Z AUTO 20004KT 10SM OVC043 16/12 A3017 RMK AO2 SLP221 T01610117 401940111=
202009010653 METAR KBLI 010653Z AUTO 00000KT 10SM OVC046 16/12 A3016 RMK AO2 SLP219 T01560122=
202009010553 METAR KBLI 010553Z AUTO 00000KT 10SM OVC050 16/12 A3015 RMK AO2 SLP217 T01560117 10189 20133 51005=
202009010453 METAR KBLI 010453Z 00000KT 10SM OVC048 16/11 A3015 RMK AO2 SLP216 T01560111=
202009010353 METAR KBLI 010353Z 00000KT 10SM BKN050 14/11 A3015 RMK AO2 SLP216 T01440111=
202009010253 METAR KBLI 010253Z 24003KT 10SM CLR 15/11 A3014 RMK AO2 SLP212 T01500106 55002=
202009010153 METAR KBLI 010153Z 00000KT 10SM CLR 18/10 A3014 RMK AO2 SLP211 T01780100=
202009010053 METAR KBLI 010053Z VRB03KT 10SM SCT090 19/10 A3014 RMK AO2 SLP214 T01890100=

# No short TAF reports from KBLI in databse.

###################################
#  large TAF from KBLI
###################################
202009302339 TAF KBLI 302339Z 0100/0124 22005KT P6SM BKN060 FM010500 19004KT
                       P6SM SCT070 FM011100 18006KT 4SM BR BKN020
                       FM011900 22003KT P6SM SCT020=
202009301737 TAF KBLI 301737Z 3018/0118 00000KT 3/4SM BR SCT001 FM301900 18005KT
                       P6SM OVC070 FM010500 18003KT P6SM SCT070
                       FM011100 18006KT 4SM BR BKN025=
202009301536 KBLI 301536Z 3016/0112 00000KT 3/4SM BR VV001 FM301900 24004KT
                       P6SM SCT070 FM010500 VRB03KT P6SM SKC FM011100
                       18006KT 4SM BR BKN025=
202009301127 TAF KBLI 301127Z 3012/0112 00000KT 3SM BR SCT002 SCT100
                      TEMPO 3012/3015 1 1/2SM BR VV001 FM301800
                       24004KT P6SM SCT070 FM010500 VRB03KT P6SM
                       SKC FM011100 18006KT 4SM BR BKN025=
202009300834 KBLI 300834Z 3009/0106 00000KT 3SM BR SCT002 SCT100
                      TEMPO 3009/3013 1 1/2SM BR VV001 FM301800
                       18004KT P6SM SCT070 FM010500 VRB03KT P6SM
                       SKC=
202009300523 TAF KBLI 300523Z 3006/0106 00000KT P6SM SCT100
                      TEMPO 3012/3015 4SM BR FM301800 18004KT P6SM
                       SCT070 FM010500 VRB03KT P6SM SKC=
202009292331 TAF KBLI 292331Z 3000/3024 VRB06KT P6SM SKC FM300600 17005KT P6SM
                       BKN080=
202009291729 TAF KBLI 291729Z 2918/3018 02006KT P6SM SKC FM300500 00000KT P6SM
                       BKN080=
202009291121 TAF KBLI 291121Z 2912/3012 VRB04KT 5SM BR SKC
                      TEMPO 2912/2915 1 1/2SM BR FM291800 30005KT
                       P6SM SKC FM300500 00000KT P6SM BKN200=
202009290801 KBLI 290801Z 2908/3006 00000KT 4SM BR SKC
                      TEMPO 2908/2912 1 1/2SM BR FM291800 VRB04KT
                       P6SM SKC FM300500 00000KT P6SM SCT200=
202009290525 TAF KBLI 290525Z 2906/3006 00000KT P6SM SKC FM291800 VRB04KT P6SM
                       SKC FM300500 00000KT P6SM SCT200=
202009282331 TAF KBLI 282331Z 2900/2924 30006KT P6SM SKC FM290400 VRB03KT P6SM
                       SKC FM290600 17008KT P6SM SKC=
202009281736 TAF KBLI 281736Z 2818/2918 03007KT P6SM SKC FM282100 32006KT P6SM
                       SKC FM290400 VRB03KT P6SM SKC=
202009281121 TAF KBLI 281121Z 2812/2912 VRB03KT P6SM SKC=
202009280526 TAF KBLI 280526Z 2806/2906 VRB03KT P6SM SKC=
202009272320 TAF KBLI 272320Z 2800/2824 VRB04KT P6SM SKC=
202009271753 TAF KBLI 271753Z 2718/2818 VRB03KT P6SM SCT030 BKN100 FM272100
                       VRB03KT P6SM SKC=
202009271512 KBLI 271512Z 2715/2812 VRB03KT P6SM FEW010 SCT020 BKN120 FM271800
                       VRB03KT P6SM SCT030 BKN150 FM272100 VRB03KT
                       P6SM SKC=
202009271122 TAF KBLI 271122Z 2712/2812 VRB03KT P6SM OVC020 FM271800 VRB03KT
                       P6SM SCT030 BKN150 FM272100 VRB03KT P6SM
                       SKC=
202009270539 TAF KBLI 270539Z 2706/2806 18008KT P6SM SCT050 FM271000 16006KT
                       P6SM OVC022 FM271800 VRB03KT P6SM SCT030
                       SCT250 FM280000 VRB03KT P6SM SKC=
202009262320 TAF KBLI 262320Z 2700/2724 18008KT P6SM -SHRA SCT020 OVC050
                      TEMPO 2700/2703 4SM -RA BR OVC015 FM270300
                       18008KT P6SM SCT030 BKN050 FM271200 16005KT
                       4SM BR OVC025
                      TEMPO 2712/2716 1/2SM FG OVC010 FM272000
                       VRB04KT P6SM SCT030 SCT250=
202009261726 TAF KBLI 261726Z 2618/2718 18008KT P6SM -RA SCT015 OVC025
                      TEMPO 2620/2624 4SM -RA BR OVC015 FM270300
                       18008KT P6SM SCT030 BKN050
                      TEMPO 2712/2716 1/2SM FG OVC010=
202009261127 TAF KBLI 261127Z 2612/2712 18010G15KT P6SM SCT025 BKN060 FM261900
                       18008KT P6SM -RA SCT015 OVC025 FM270300
                       18008KT P6SM SCT030 BKN050=
202009260539 TAF KBLI 260539Z 2606/2706 18008KT P6SM BKN060 FM261700 18008KT
                       P6SM -RA SCT015 OVC025 FM270300 18008KT
                       P6SM SCT030 BKN050=
202009252321 TAF KBLI 252321Z 2600/2624 18008KT P6SM VCSH SCT030 BKN080 FM260300
                       16007KT P6SM VCSH SCT025 BKN050 FM261200
                       17006KT P6SM VCSH BKN025 FM261700 16008KT
                       4SM -SHRA BR OVC020=
202009251720 TAF KBLI 251720Z 2518/2618 17017G30KT P6SM -RA SCT025 OVC050 FM252000
                       18012G20KT 4SM -SHRA BR BKN020 OVC030 FM260100
                       16010KT P6SM VCSH SCT025 BKN050=
202009251122 TAF KBLI 251122Z 2512/2612 16019G27KT P6SM -RA SCT025 OVC080 FM251400
                       16020G32KT 5SM -RA BR OVC020 FM252000 18012G20KT
                       4SM -SHRA BR BKN020 OVC030 FM260100 16010KT
                       P6SM VCSH SCT025 BKN050=
202009250531 TAF KBLI 250531Z 2506/2606 17014G28KT P6SM BKN090 OVC200 FM251100
                       16020G32KT 4SM -RA OVC020 FM252000 18012G20KT
                       4SM -SHRA BR BKN020 OVC030 FM260100 16010KT
                       P6SM VCSH SCT025 BKN050=
202009242339 TAF KBLI 242339Z 2500/2524 17010G20KT P6SM VCSH SCT010 BKN040 FM250400
                       17012KT P6SM -SHRA BKN050 FM251100 16015G24KT
                       4SM -RA OVC020 FM252000 16010G17KT 2SM -RA
                       BR OVC015=
202009241726 TAF KBLI 241726Z 2418/2518 17010G20KT 4SM -SHRA SCT010 BKN040 FM250400
                       17012KT P6SM -SHRA BKN050 FM251000 16015G24KT
                       4SM -RA OVC030=
202009241129 TAF KBLI 241129Z 2412/2512 18010G18KT P6SM VCSH SCT010 BKN060
                      TEMPO 2412/2416 5SM -SHRA FM242000 17010G20KT
                       P6SM -SHRA BKN040 FM250400 17012KT P6SM
                       -SHRA BKN050 FM251000 16015G24KT 4SM -RA
                       OVC030=
202009240534 TAF KBLI 240534Z 2406/2506 18009KT P6SM VCSH OVC050
                      TEMPO 2406/2410 5SM -SHRA FM241000 17008KT
                       6SM -SHRA OVC030 FM241500 17007KT 6SM -SHRA
                       OVC015 FM242200 16010G20KT P6SM -SHRA BKN040
                       FM250500 17012KT P6SM -SHRA BKN050=
202009240308 KBLI 240308Z 2403/2424 16014G22KT 3SM -RA BR OVC012
                      TEMPO 2403/2404 1 1/2SM +RA BR FEW006 FM240700
                       16015G22KT 2SM -SHRA BR OVC015 FM241800
                       16016G23KT 4SM -SHRA BR OVC007=
202009232321 TAF KBLI 232321Z 2400/2424 17020G37KT 4SM -RA BKN025 OVC050 FM240200
                       16014G22KT 3SM -RA BR OVC012 FM240700 16015G22KT
                       2SM -SHRA BR OVC015 FM241800 16016G23KT
                       4SM -SHRA BR OVC007=
202009231726 TAF KBLI 231726Z 2318/2418 17020G30KT P6SM BKN030 OVC070 FM232000
                       17015G27KT 2SM -RA BR OVC012 FM240700 16015G22KT
                       2SM -SHRA BR OVC015=
202009231130 TAF KBLI 231130Z 2312/2412 16012G25KT 6SM -RA OVC040 FM231500 16020G30KT
                       3SM -RA BR OVC020 FM232200 17015G25KT 2SM
                       -RA BR OVC012 FM240700 16015G22KT 3SM -SHRA
                       BR OVC015=
202009230523 TAF KBLI 230523Z 2306/2406 00000KT P6SM SCT060 OVC100 FM231200
                       15012KT P6SM -SHRA OVC040 FM231500 16020G30KT
                       3SM -RA BR OVC020 FM232200 17015G25KT 2SM
                       -RA BR OVC012=
202009222321 TAF KBLI 222321Z 2300/2324 21007KT P6SM FEW050 FM230300 19003KT
                       P6SM OVC090 FM231000 16007KT 4SM -RA BR
                       OVC040 FM231600 04003KT 3SM -RA BR OVC015
                       FM232000 13010G18KT 2SM -RA BR OVC007=
202009221721 TAF KBLI 221721Z 2218/2318 18006KT P6SM FEW030 BKN070 FM230000
                       16006KT P6SM OVC090 FM231000 VRB04KT 4SM
                       -RA BR OVC040 FM231600 04003KT 3SM -RA BR
                       OVC015=
202009221129 TAF KBLI 221129Z 2212/2312 18006KT P6SM OVC025 FM221800 00000KT
                       P6SM SCT030 BKN250 FM230000 16006KT P6SM
                       OVC090 FM231000 15012G20KT P6SM -RA OVC040=
202009220545 TAF KBLI 220545Z 2206/2306 00000KT P6SM BKN080 FM221100 00000KT
                       1SM BR SCT001 FM221400 00000KT 4SM BR SCT002
                       FM221600 00000KT P6SM BKN250 FM230000 16006KT
                       P6SM OVC090=
202009212320 TAF KBLI 212320Z 2200/2224 21004KT P6SM FEW050 SCT090 FM220200
                       18005KT P6SM VCSH OVC070 FM221300 18003KT
                       6SM BR OVC015 FM222000 18005KT P6SM BKN050=
202009211743 TAF KBLI 211743Z 2118/2218 00000KT P6SM FEW035 FM212200 22005KT
                       P6SM BKN120 OVC200 FM220200 18005KT P6SM
                       VCSH OVC070 FM220900 17005KT P6SM OVC025
                       FM221300 18003KT 6SM BR OVC015=
202009211128 TAF KBLI 211128Z 2112/2212 VRB03KT P6SM SCT040 SCT200
                      TEMPO 2112/2116 3SM BR FM211800 19006KT P6SM
                       SCT120 OVC200 FM212200 22005KT P6SM BKN120
                       OVC200 FM220200 18005KT P6SM VCSH OVC070
                       FM220900 17005KT P6SM OVC025=
202009210539 TAF KBLI 210539Z 2106/2206 VRB03KT P6SM SCT050 SCT200 FM211400
                       17003KT P6SM OVC070 FM211800 19006KT P6SM
                       BKN120 OVC200 FM220300 18005KT P6SM VCSH
                       OVC070=
202009202330 TAF KBLI 202330Z 2100/2124 19007KT P6SM SCT025 SCT080 FM210200
                       17005KT P6SM SCT050 SCT200 FM211400 17003KT
                       P6SM OVC050 FM211800 19006KT P6SM BKN250=
202009201727 TAF KBLI 201727Z 2018/2118 17009KT P6SM SCT015 BKN040 FM202100
                       18007KT P6SM BKN050 FM210200 17005KT P6SM
                       SCT050 SCT200 FM211200 17003KT P6SM OVC050=
202009201120 TAF KBLI 201120Z 2012/2112 17008KT P6SM SCT015 BKN060
                      TEMPO 2012/2016 BKN015 FM202100 18007KT P6SM
                       BKN050 FM210300 17005KT P6SM SCT050 SCT200=
202009200527 TAF KBLI 200527Z 2006/2106 20007KT P6SM BKN050 OVC090 FM201000
                       17007KT P6SM OVC025 FM202100 18006KT P6SM
                       BKN050 FM210300 17005KT P6SM BKN070 BKN120=
202009192332 TAF KBLI 192332Z 2000/2024 16008KT P6SM VCSH SCT070 OVC080 FM200600
                       18006KT P6SM BKN040 BKN060 FM201200 17007KT
                       P6SM OVC015 FM202100 18005KT P6SM BKN050=
202009191728 TAF KBLI 191728Z 1918/2018 19012KT P6SM VCSH SCT040 OVC100 FM192100
                       16008KT P6SM VCSH OVC050 FM200600 18006KT
                       P6SM BKN040 BKN060 FM201200 17007KT P6SM
                       OVC015=
202009191559 KBLI 191559Z 1916/2012 19012KT P6SM VCSH SCT015 OVC080 FM192100
                       16008KT P6SM VCSH OVC050 FM200600 18006KT
                       P6SM BKN040 BKN060 FM201000 17007KT P6SM
                       OVC025=
202009191126 TAF KBLI 191126Z 1912/2012 18010KT P6SM VCSH SCT022 BKN100
                      TEMPO 1912/1916 BKN022 FM191600 18012KT P6SM
                       VCSH OVC022 FM192100 16008KT P6SM VCSH OVC035
                       FM200600 18006KT P6SM BKN040 BKN060 FM201000
                       17007KT P6SM OVC025=
202009190524 TAF KBLI 190524Z 1906/2006 18007KT 5SM BR SCT009 OVC021
                      TEMPO 1906/1909 OVC012 FM190900 18006KT 5SM
                       BR VCSH OVC012 FM191600 18008KT P6SM VCSH
                       BKN015 OVC027 FM192200 17009KT P6SM VCSH
                       SCT020 BKN040 FM200500 17006KT P6SM OVC025=
202009190305 KBLI 190305Z 1903/1924 19011KT 3SM -SHRA BR FEW005 SCT050 BKN110
                       FM190900 18006KT 5SM BR VCSH OVC015 FM191500
                       18006KT P6SM VCSH BKN018 OVC030 FM192200
                       21007KT P6SM VCSH SCT020 BKN050=
202009182320 TAF KBLI 182320Z 1900/1924 18006KT 4SM HZ SCT007 BKN035 OVC070
                       TEMPO 1900/1904 2SM -SHRA BR BKN007 OVC035
                       FM190400 18006KT 5SM BR VCSH OVC015 FM191500
                       18006KT P6SM VCSH BKN018 OVC030 FM192200
                       21007KT P6SM VCSH SCT020 BKN050=
202009182204 KBLI 182204Z 1822/1918 VRB04KT 2SM HZ BKN006 BKN035 FM190000 VRB04KT
                       5SM HZ SCT010 OVC035
                      TEMPO 1900/1904 3SM -SHRA BR BKN010 OVC030
                       FM190400 18006KT 5SM -SHRA BR BKN015 OVC040
                       FM190800 18006KT 5SM BR VCSH OVC015 FM191600
                       18006KT P6SM VCSH BKN018 OVC030=
202009181720 TAF KBLI 181720Z 1818/1918 00000KT 3SM BR FU SCT003 SCT025 BKN080
                       TEMPO 1818/1821 1/2SM FG VV002 FM182100
                       VRB04KT 6SM HZ SCT025 OVC050
                      TEMPO 1900/1904 3SM -SHRA BR BKN025 OVC050
                       FM190400 18006KT 5SM -SHRA BR BKN015 OVC040
                       FM190800 18006KT 5SM BR VCSH OVC015 FM191600
                       18006KT P6SM VCSH BKN018 OVC030=
202009181607 KBLI 181607Z 1816/1912 00000KT 1SM BR BKN020 BKN050 OVC100
                      TEMPO 1816/1818 1/4SM FG VV002 FM182000 17007KT
                       5SM BR BKN022 OVC045 FM190300 16010KT 6SM
                       -SHRA BR OVC015=
202009181317 KBLI 181317Z 1813/1912 00000KT 1SM BR BKN022
                      TEMPO 1813/1816 1/4SM FG VV001 FM181700 18006KT
                       2SM BR OVC012 FM182200 17010KT 5SM -SHRA
                       BR VCTS BKN022CB OVC045 FM190300 16010KT
                       6SM -SHRA BR OVC015=
202009181135 TAF KBLI 181135Z 1812/1912 00000KT 1/4SM FG VV001 FM181700 18006KT
                       3SM BR OVC009 FM182200 17010KT 5SM -SHRA
                       BR VCTS BKN022CB OVC045 FM190300 16010KT
                       6SM -SHRA BR OVC015=
202009180823 KBLI 180823Z 1808/1906 18005KT 3SM BR SCT001 OVC040
                      TEMPO 1808/1812 1SM BR OVC001 FM181200 17007KT
                       2SM BR FU OVC005 FM181700 18006KT 3SM BR
                       FU VCSH OVC017 FM182300 17010KT 5SM -SHRA
                       BR BKN022 OVC045=
202009180542 TAF KBLI 180542Z 1806/1906 17004KT 2SM FU HZ OVC040 FM181200 17007KT
                       2SM BR FU OVC020 FM181700 18006KT 3SM BR
                       FU VCSH OVC017 FM182300 17010KT 5SM -SHRA
                       BR BKN022 OVC045=
202009172322 TAF KBLI 172322Z 1800/1824 29005KT 1 1/2SM FU HZ FEW040 FM180300
                       17004KT 2SM FU HZ OVC040 FM181300 17005KT
                       2SM BR OVC015=
202009171720 TAF KBLI 171720Z 1718/1818 00000KT 3/4SM BR FU SCT035 FM172000
                       25005KT 3SM FU HZ OVC035 FM180300 17004KT
                       3SM FU HZ OVC040 FM181300 17005KT 1/2SM
                       FG OVC015=
202009171121 TAF KBLI 171121Z 1712/1812 00000KT 3SM FU HZ OVC025 FM172000 25005KT
                       3SM FU HZ OVC035 FM180300 17004KT 3SM FU
                       HZ OVC040 FM180900 17010KT 3SM FU HZ OVC040=
202009170901 KBLI 170901Z 1709/1806 00000KT 3SM BR FU OVC020 FM171400 18004KT
                       1SM FU BR OVC010 FM172000 25005KT 3SM FU
                       HZ OVC025=
202009170520 TAF KBLI 170520Z 1706/1806 00000KT 2SM FU HZ OVC040 FM171400 18004KT
                       1SM FU BR OVC010 FM172000 25005KT 3SM FU
                       HZ OVC025=
202009170306 KBLI 170306Z 1703/1724 VRB04KT 2SM FU HZ SCT060 SCT250 FM171400
                       18004KT 1SM FU BR OVC010 FM172000 25005KT
                       3SM FU HZ OVC025=
202009162320 TAF KBLI 162320Z 1700/1724 22004KT 1 1/2SM FU HZ OVC030 FM170200
                       19004KT 2SM FU HZ FEW250 FM171400 18004KT
                       1SM BR OVC010=
202009161721 TAF KBLI 161721Z 1618/1718 VRB03KT 1/2SM FG FU VV001
                      TEMPO 1618/1620 1/4SM FG FU FM162100 27004KT
                       2SM FU HZ OVC030 FM170200 19004KT 2SM FU
                       HZ OVC025 FM171200 18004KT 1/4SM FG OVC003=
202009161125 TAF KBLI 161125Z 1612/1712 00000KT 1/4SM FG FU VV005 FM161700 VRB03KT
                       1 1/2SM FU HZ BKN015 OVC100 FM161900 30004KT
                       2SM FU HZ OVC030 FM170200 17004KT 2SM FU
                       HZ OVC025=
202009161016 KBLI 161016Z 1610/1706 19003KT 1 1/2SM FU HZ SCT002 OVC015
                      TEMPO 1610/1614 1 1/2SM FU HZ BKN002 OVC015
                       FM161400 VRB02KT 1 1/2SM FU HZ BKN030 OVC100
                       FM161900 30004KT 2SM FU HZ OVC030=
202009160904 KBLI 160904Z 1609/1706 00000KT 1SM BR FU BKN002 OVC012 FM161400
                       VRB02KT 1 1/2SM FU HZ BKN030 OVC100 FM161900
                       30004KT 2SM FU HZ OVC030=
202009160521 TAF KBLI 160521Z 1606/1706 01005KT 2SM FU HZ OVC100
                      TEMPO 1606/1610 -SHRA FM161400 VRB02KT 1
                       1/2SM FU HZ BKN030 OVC100 FM161900 30004KT
                       2SM FU HZ OVC030=
202009160347 KBLI 160347Z 1604/1624 VRB03KT 2SM FU HZ SCT050 OVC100
                      TEMPO 1604/1608 -SHRA FM161400 VRB02KT 1/2SM
                       FU FG BKN005 OVC030 FM161900 30004KT 2SM
                       FU HZ SCT100=
202009160331 KBLI 160331Z 1604/1624 VRB03KT 2SM FU HZ SCT050 OVC100 FM161400
                       VRB02KT 1/2SM FU FG BKN005 OVC030 FM161900
                       30004KT 2SM FU HZ SCT100=
202009152327 TAF KBLI 152327Z 1600/1624 34005KT 1 1/2SM FU HZ OVC100 FM160300
                       00000KT 1 1/2SM FU HZ OVC030 FM161400 VRB02KT
                       1/2SM FU FG BKN005 OVC030 FM161900 30004KT
                       2SM FU HZ SCT100=
202009151728 TAF KBLI 151728Z 1518/1618 VRB03KT 1/2SM FG FU OVC050 FM152000
                       25005KT 1 1/2SM FU HZ BKN030 FM160300 00000KT
                       1 1/2SM FU HZ OVC030 FM161400 VRB02KT 1/2SM
                       FU FG SCT010 OVC030=
202009151217 KBLI 151217Z 1512/1612 00000KT 1SM BR FU OVC030
                      TEMPO 1512/1515 SCT030 OVC060 FM152000 25005KT
                       1 1/2SM FU HZ BKN030 FM160300 00000KT 1
                       1/2SM FU HZ OVC030=
202009151120 TAF KBLI 151120Z 1512/1612 00000KT 3/4SM BR FU OVC030 FM152000
                       25005KT 1 1/2SM FU HZ BKN030 FM160300 00000KT
                       1 1/2SM FU HZ OVC030=
202009150659 KBLI 150659Z 1507/1606 00000KT 1 1/2SM FU HZ SCT005 BKN015 OVC080
                       TEMPO 1507/1511 3/4SM -SHRA FU HZ BKN005
                       OVC015 FM151900 19005KT 2SM FU OVC100=
202009150522 TAF KBLI 150522Z 1506/1606 00000KT 1SM FU HZ BKN015 OVC080 FM151900
                       19005KT 2SM FU OVC100=
202009142320 TAF KBLI 142320Z 1500/1524 VRB03KT 3/4SM FU OVC020 FM151900 19005KT
                       1SM FU OVC100=
202009141720 TAF KBLI 141720Z 1418/1518 02005KT 1SM FU OVC025 FM142300 VRB03KT
                       1SM FU OVC100=
202009141458 KBLI 141458Z 1415/1512 VRB03KT 1SM FU VV001 FM141700 VRB03KT 2SM
                       FU OVC025=
202009141128 TAF KBLI 141128Z 1412/1512 VRB03KT 1/4SM FU OVC001 FM141400 VRB03KT
                       2SM FU OVC006 FM141700 VRB03KT 2SM FU OVC025=
202009140541 TAF KBLI 140541Z 1406/1506 VRB03KT 1SM FU OVC025=
202009132340 TAF KBLI 132340Z 1400/1424 18004KT 1SM FU SCT010 OVC025 FM141200
                       17002KT 1/2SM FU FG OVC003=
202009131725 TAF KBLI 131725Z 1318/1418 21004KT 1SM FU OVC003 FM131900 18004KT
                       1SM FU SCT010 OVC025 FM141200 17002KT 1/2SM
                       FU FG OVC003=
202009131330 KBLI 131330Z 1314/1412 00000KT 1/4SM FG FU VV002 FM131600 21004KT
                       1SM FU OVC003 FM131900 18004KT 1SM FU OVC020=
202009131134 KBLI 131134Z 1312/1412 21004KT 1 1/2SM FU BKN005 OVC025 FM131500
                       21004KT 1SM FU OVC003 FM131900 18004KT 1SM
                       FU OVC020=
202009131133 TAF KBLI 131133Z 1312/1412 21004KT 1 1/2SM FU SCT005 OVC025 FM131500
                       21004KT 1SM FU OVC003 FM131900 18004KT 1SM
                       FU OVC020=
202009130542 TAF KBLI 130542Z 1306/1406 21004KT 1 1/2SM FU BKN005 OVC020 FM131900
                       17008KT 1SM FU OVC020=
202009122330 TAF KBLI 122330Z 1300/1324 21004KT 1 1/2SM FU SCT025 FM131000 17008KT
                       1SM FU OVC020=
202009122148 KBLI 122148Z 1222/1318 21004KT 1 1/2SM FU SCT025 FM131000 17008KT
                       1SM FU OVC020=
202009121744 TAF KBLI 121744Z 1218/1318 19005KT 1SM FU SCT020 OVC035 FM122200
                       18006KT 2SM FU BKN035 FM131000 17008KT 1SM
                       FU OVC020=
202009121123 TAF KBLI 121123Z 1212/1312 17008KT 2SM FU OVC025 FM121600 17008KT
                       2SM FU OVC035 FM131000 17008KT 2SM FU OVC022=
202009120902 KBLI 120902Z 1209/1306 17010KT 2SM FU OVC022=
202009120540 TAF KBLI 120540Z 1206/1306 17010KT 2SM FU SKC=
202009112333 TAF KBLI 112333Z 1200/1224 17010KT 2SM FU SKC FM120800 17008KT
                       1SM FU OVC010 FM122000 18007KT 2SM FU BKN250=
202009111720 TAF KBLI 111720Z 1118/1218 19006KT 2SM FU SKC FM111900 17010KT
                       2SM FU SKC FM120900 17008KT 2SM FU SKC=
202009111427 KBLI 111427Z 1114/1212 19006KT 5SM FU SKC FM111900 17010KT 6SM
                       FU SKC=
202009111130 TAF KBLI 111130Z 1112/1212 19006KT P6SM SKC=
202009110539 TAF KBLI 110539Z 1106/1206 19006KT P6SM SKC FM111300 19008KT 2SM
                       BR FU OVC006 FM111700 19008KT 5SM BR FU
                       OVC009 FM111800 19008KT 6SM FU SKC=
202009102322 TAF KBLI 102322Z 1100/1124 VRB03KT 6SM FU SKC FM110700 18008KT
                       6SM FU SKC FM111600 18008KT 5SM FU SKC=
202009101722 TAF KBLI 101722Z 1018/1118 30006KT P6SM SKC FM110200 VRB03KT P6SM
                       SKC FM110700 18008KT P6SM SKC FM111600 18008KT
                       6SM FU SKC=
202009101130 TAF KBLI 101130Z 1012/1112 VRB03KT P6SM SKC FM101800 30006KT P6SM
                       SKC FM110200 VRB03KT P6SM SKC FM110700 18008KT
                       P6SM SKC=
202009100523 TAF KBLI 100523Z 1006/1106 VRB03KT P6SM SKC FM101800 30006KT P6SM
                       SKC FM110200 VRB03KT P6SM SKC=
202009092320 TAF KBLI 092320Z 1000/1024 VRB05KT P6SM SKC FM100600 18005KT 6SM
                       FU SKC=
202009091720 TAF KBLI 091720Z 0918/1018 34005KT 6SM FU SKC FM092100 31006KT
                       6SM FU SKC FM100200 VRB03KT 6SM FU SKC=
202009091125 TAF KBLI 091125Z 0912/1012 VRB03KT 6SM FU SKC FM092100 31006KT
                       6SM FU SKC FM100200 VRB03KT 6SM FU SKC=
202009090520 TAF KBLI 090520Z 0906/1006 VRB03KT 6SM FU SKC FM092100 31006KT
                       6SM FU SKC FM100200 VRB03KT 6SM FU SKC=
202009082328 TAF KBLI 082328Z 0900/0924 34008KT 6SM FU SKC FM090900 19003KT
                       6SM FU SKC FM091900 34005KT 6SM FU SKC=
202009081723 TAF KBLI 081723Z 0818/0918 VRB04KT 6SM HZ FU SKC FM082200 30008KT
                       P6SM SKC=
202009081138 TAF KBLI 081138Z 0812/0912 VRB06KT P6SM OVC035
                      TEMPO 0812/0816 5SM HZ FM081800 01005KT P6SM
                       SKC FM082200 30008KT P6SM SKC=
202009080538 TAF KBLI 080538Z 0806/0906 04010KT P6SM SKC FM082200 33009KT P6SM
                       SKC=
202009072332 TAF KBLI 072332Z 0800/0824 02018G28KT P6SM SKC FM080600 05010KT
                       P6SM SKC FM082100 30009KT P6SM SKC=
202009071739 TAF KBLI 071739Z 0718/0818 02011KT P6SM SCT010 FM071900 02018G28KT
                       P6SM SKC FM080600 05010KT P6SM SKC=
202009071137 TAF KBLI 071137Z 0712/0812 36005KT P6SM SKC
                      TEMPO 0712/0715 6SM BR SCT005 FM071700 03012G20KT
                       P6SM SCT010 FM071900 02018G28KT P6SM SKC
                       FM080600 05010KT P6SM SKC=
202009070524 TAF KBLI 070524Z 0706/0806 18006KT P6SM SCT060 SCT150 FM071400
                       00000KT P6SM BKN005 FM071700 03012G20KT
                       P6SM SCT010 FM071900 01018G26KT P6SM SKC=
202009062328 TAF KBLI 062328Z 0700/0724 18006KT P6SM SCT060 SCT150 FM071400
                       00000KT P6SM BKN005 FM071700 00000KT P6SM
                       SCT010 FM071900 01020G26KT P6SM SKC=
202009061734 TAF KBLI 061734Z 0618/0718 18005KT P6SM SCT004 BKN035 FM061900
                       25007KT P6SM SCT030 BKN060 FM070000 24006KT
                       P6SM SCT250=
202009061502 KBLI 061502Z 0615/0712 00000KT 6SM BR BKN003 FM061700 18005KT P6SM
                       SCT009 OVC015 FM061900 25007KT P6SM SCT030
                       BKN060 FM070000 24006KT P6SM SCT250=
202009061342 KBLI 061342Z 0614/0712 00000KT 6SM BR SCT015 BKN025
                      TEMPO 0614/0616 1SM BR OVC004 FM061600 18005KT
                       P6SM SCT015 OVC040 FM061800 25007KT P6SM
                       SCT030 BKN060 FM070000 24006KT P6SM SCT250=
202009061135 TAF KBLI 061135Z 0612/0712 00000KT 3SM BR OVC004
                      TEMPO 0612/0615 1SM BR VV004 FM061500 18005KT
                       P6SM BKN015 OVC035 FM061800 25007KT P6SM
                       SCT030 BKN060 FM070000 24006KT P6SM SCT250=
202009061042 KBLI 061042Z 0611/0706 00000KT 1SM BR OVC004 FM061300 18005KT P6SM
                       OVC017 FM061800 25007KT P6SM SCT030 SCT150
                       FM070000 24006KT P6SM SCT250=
202009060535 TAF KBLI 060535Z 0606/0706 18006KT P6SM FEW250 FM061300 18005KT
                       P6SM OVC017 FM061800 25007KT P6SM SCT030
                       SCT150 FM070000 24006KT P6SM SCT250=
202009052324 TAF KBLI 052324Z 0600/0624 18008KT P6SM SCT030 FM061300 18005KT
                       P6SM OVC017 FM061800 25007KT P6SM SCT030
                       SCT150=
202009051726 TAF KBLI 051726Z 0518/0618 18009KT P6SM OVC020 FM052000 18010KT
                       P6SM SCT025 OVC060 FM052200 21006KT P6SM
                       SCT025 SCT200 FM060000 17006KT P6SM SCT250=
202009051123 TAF KBLI 051123Z 0512/0612 19010KT P6SM OVC014 FM052000 18010KT
                       P6SM SCT025 OVC060 FM052200 21006KT P6SM
                       SCT025 SCT200 FM060000 17006KT P6SM SCT250=
202009050534 TAF KBLI 050534Z 0506/0606 17008KT P6SM SCT200 FM050900 17012G18KT
                       P6SM SCT017 FM051200 18011KT P6SM OVC014
                       FM052000 18010KT P6SM SCT025 SCT200=
202009042330 TAF KBLI 042330Z 0500/0524 VRB05KT P6SM SCT200 FM050500 17008KT
                       P6SM SCT200 FM050900 17012G18KT P6SM SCT017
                       FM051200 18011KT P6SM OVC014 FM052000 18010KT
                       P6SM SCT025 SCT200=
202009041734 TAF KBLI 041734Z 0418/0518 01004KT P6SM SKC FM050500 17008KT P6SM
                       SCT200 FM051300 17012G18KT P6SM SCT017 FM051500
                       18011KT P6SM OVC014=
202009041136 TAF KBLI 041136Z 0412/0512 VRB02KT P6SM SKC
                      TEMPO 0412/0415 1SM BR FM041700 20005KT P6SM
                       SKC FM050500 17008KT P6SM SKC FM051100 17012KT
                       P6SM OVC050=
202009040522 TAF KBLI 040522Z 0406/0506 18006KT P6SM SKC FM041900 25006KT P6SM
                       SKC FM050000 22005KT P6SM SKC=
202009032333 TAF KBLI 032333Z 0400/0424 29007KT P6SM SKC FM040200 VRB03KT P6SM
                       SKC FM040600 18006KT P6SM SKC FM041900 25006KT
                       P6SM SKC=
202009032046 KBLI 032046Z 0321/0418 29007KT P6SM SKC FM040200 VRB03KT P6SM SKC
                       FM040800 18006KT P6SM SKC=
202009031843 TAF KBLI 031843Z 0400/0424 26007KT P6SM SKC FM040200 VRB03KT P6SM
                       SKC FM040800 18006KT P6SM SKC=
202009031206 KBLI 031206Z 0312/0412 VRB03KT P6SM SCT250
                      TEMPO 0312/0316 2SM BR OVC003 FM032000 26007KT
                       P6SM SKC FM040200 VRB03KT P6SM SKC FM040800
                       18006KT P6SM SKC=
202009031120 TAF KBLI 031120Z 0312/0412 VRB03KT P6SM SCT250 FM032000 26007KT
                       P6SM SKC FM040200 VRB03KT P6SM SKC FM040800
                       18006KT P6SM SKC=
202009030520 TAF KBLI 030520Z 0306/0406 VRB03KT P6SM SCT250 FM032000 25007KT
                       P6SM SKC FM040200 VRB03KT P6SM SKC=
202009022320 TAF KBLI 022320Z 0300/0324 17008KT P6SM SCT050 BKN250 FM030200
                       18008KT P6SM SKC FM032000 28007KT P6SM SKC=
202009021723 TAF KBLI 021723Z 0218/0318 18012KT P6SM BKN015 BKN050 FM021900
                       17008KT P6SM SCT050 BKN250 FM030200 18008KT
                       P6SM SKC=
202009021557 KBLI 021557Z 0216/0312 18012KT P6SM SCT007 BKN050 FM021900 17008KT
                       P6SM SCT050 BKN250 FM030200 18008KT P6SM
                       SKC=
202009021438 KBLI 021438Z 0215/0312 18012KT P6SM BKN007 FM021900 17008KT P6SM
                       SCT050 BKN250 FM030200 18008KT P6SM SKC=
202009021122 KBLI 021122Z 0211/0312 18005KT P6SM BKN025
                      TEMPO 0212/0216 1SM BR OVC003 FM022000 17008KT
                       P6SM SCT050 BKN250 FM030200 18008KT P6SM
                       SKC=
202009021120 TAF KBLI 021120Z 0212/0312 18005KT P6SM BKN025
                      TEMPO 0212/0216 OVC003 FM022000 17008KT P6SM
                       SCT050 BKN250 FM030200 18008KT P6SM SKC=
202009021023 KBLI 021023Z 0210/0306 VRB03KT P6SM BKN050 OVC100
                      TEMPO 0210/0213 BKN003 FM021300 18005KT P6SM
                       BKN025 FM022000 17008KT P6SM SCT050 BKN250
                       FM030200 18004KT P6SM SKC=
202009020520 TAF KBLI 020520Z 0206/0306 VRB03KT P6SM SCT250 FM021000 18006KT
                       P6SM BKN050 OVC100 FM021300 18005KT P6SM
                       BKN025 FM022000 17008KT P6SM SCT050 BKN250
                       FM030200 18004KT P6SM SKC=
202009012328 TAF KBLI 012328Z 0200/0224 18008KT P6SM SCT250 FM020600 18010KT
                       P6SM BKN050 OVC100 FM021200 18008KT P6SM
                       BKN025 FM022000 17012KT P6SM SCT050 BKN250=
202009011721 TAF KBLI 011721Z 0118/0218 VRB04KT P6SM OVC035 FM011900 16005KT
                       P6SM SCT050 BKN250 FM012200 18008KT P6SM
                       SCT250 FM020600 17012KT P6SM SCT050 BKN100=
202009011120 TAF KBLI 011120Z 0112/0212 VRB04KT P6SM OVC035 FM011900 16005KT
                       P6SM SCT050 BKN250 FM012200 18008KT P6SM
                       SCT250 FM020600 17012KT P6SM SCT050 BKN100=
202009010520 TAF KBLI 010520Z 0106/0206 VRB04KT P6SM OVC050 FM011900 16005KT
                       P6SM SCT050 BKN250 FM012200 18008KT P6SM
                       SCT250=