##########################################################
# Query made at 02/16/2025 22:42:18 UTC
# Time interval: from 08/01/2020 00:00  to 08/31/2020 23:59  UTC
##########################################################

##########################################################
# KBLI, Bellingham, Bellingham International Airport (United States)
# WMO index: -----. WIGOS ID: Unknown
# Latitude 48-47-58N. Longitude 122-32-21W. Altitude 48 m.
##########################################################

###################################
#  METAR/SPECI from KBLI
###################################
202008312353 METAR KBLI 312353Z 28005KT 10SM CLR 19/10 A3015 RMK AO2 SLP214 T01890100 10194 20144 56003=
202008312253 METAR KBLI 312253Z VRB04KT 10SM CLR 19/12 A3015 RMK AO2 SLP214 T01940117=
202008312153 METAR KBLI 312153Z 20007KT 170V240 10SM SCT080 19/12 A3015 RMK AO2 SLP214 T01890117=
202008312053 METAR KBLI 312053Z VRB04KT 10SM FEW016 SCT043 18/12 A3015 RMK AO2 SLP216 T01830122 51007=
202008311953 METAR KBLI 311953Z VRB04KT 10SM SCT013 SCT042 17/12 A3015 RMK AO2 SLP216 T01720122=
202008311853 METAR KBLI 311853Z 19006KT 10SM SCT011 BKN025 BKN042 16/12 A3014 RMK AO2 SLP213 T01560117=
202008311753 METAR KBLI 311753Z VRB03KT 10SM SCT008 BKN020 OVC042 14/12 A3013 RMK AO2 SLP209 T01440117 10144 20111 51013=
202008311653 METAR KBLI 311653Z 18005KT 10SM FEW007 SCT044 14/11 A3012 RMK AO2 SLP206 T01440111=
202008311553 METAR KBLI 311553Z 18005KT 10SM FEW007 SCT044 14/11 A3011 RMK AO2 SLP201 T01390111=
202008311453 METAR KBLI 311453Z 17004KT 10SM FEW010 SCT044 14/11 A3009 RMK AO2 SLP196 T01390111 53010=
202008311353 METAR KBLI 311353Z 00000KT 10SM FEW010 SCT045 12/11 A3008 RMK AO2 SLP191 T01170106=
202008311253 METAR KBLI 311253Z AUTO 00000KT 10SM OVC047 12/11 A3007 RMK AO2 SLP188 T01220106=
202008311153 METAR KBLI 311153Z AUTO 00000KT 10SM OVC046 12/11 A3006 RMK AO2 SLP186 70005 T01170106 10144 20117 51008=
202008311053 METAR KBLI 311053Z AUTO 00000KT 10SM OVC047 12/11 A3006 RMK AO2 SLP184 T01220106=
202008310953 METAR KBLI 310953Z AUTO 00000KT 10SM OVC038 13/11 A3004 RMK AO2 SLP179 T01280111=
202008310907 SPECI KBLI 310907Z AUTO 00000KT 10SM OVC030 13/11 A3004 RMK AO2 T01330106=
202008310853 METAR KBLI 310853Z AUTO 15005KT 10SM OVC028 13/11 A3004 RMK AO2 SLP177 T01330106 58003=
202008310753 METAR KBLI 310753Z AUTO 00000KT 10SM OVC028 13/11 A3005 RMK AO2 SLP180 T01330111 402060100=
202008310653 METAR KBLI 310653Z AUTO 00000KT 10SM FEW013 OVC029 13/11 A3005 RMK AO2 SLP180 T01330106=
202008310629 SPECI KBLI 310629Z AUTO VRB03KT 10SM FEW020 OVC033 14/11 A3004 RMK AO2 T01390111=
202008310621 SPECI KBLI 310621Z AUTO 00000KT 10SM FEW018 BKN024 OVC050 14/11 A3005 RMK AO2 T01390111=
202008310553 METAR KBLI 310553Z AUTO VRB03KT 10SM OVC040 14/11 A3005 RMK AO2 SLP181 60005 T01440111 10183 20139 56013=
202008310453 METAR KBLI 310453Z 20003KT 10SM OVC045 15/11 A3006 RMK AO2 RAE0355 SLP183 P0000 T01500111=
202008310353 METAR KBLI 310353Z 18004KT 10SM -RA OVC055 14/12 A3007 RMK AO2 RAE20B39 SLP187 P0001 T01440117=
202008310253 METAR KBLI 310253Z 19003KT 7SM -RA OVC070 14/12 A3009 RMK AO2 PK WND 21030/0222 SLP195 P0004 60004 T01440122 55003=
202008310153 METAR KBLI 310153Z VRB03KT 9SM -RA OVC085 17/12 A3007 RMK AO2 RAE12B29 SLP188 P0000 T01670117=
202008310053 METAR KBLI 310053Z 19004KT 10SM -RA OVC095 18/11 A3007 RMK AO2 RAB46 SLP189 P0000 T01780111=
202008302353 METAR KBLI 302353Z 22003KT 10SM OVC100 18/10 A3009 RMK AO2 SLP197 T01830100 10206 20161 58016=
202008302253 METAR KBLI 302253Z 00000KT 10SM BKN120 19/09 A3011 RMK AO2 SLP203 T01940094=
202008302153 METAR KBLI 302153Z VRB05KT 10SM FEW110 20/09 A3013 RMK AO2 SLP207 T02000094=
202008302053 METAR KBLI 302053Z VRB04KT 10SM CLR 19/09 A3014 RMK AO2 SLP213 T01940094 58014=
202008301953 METAR KBLI 301953Z 21004KT 10SM FEW090 18/09 A3016 RMK AO2 SLP219 T01830089=
202008301853 METAR KBLI 301853Z 19004KT 10SM FEW040 FEW080 17/10 A3018 RMK AO2 SLP224 T01720100=
202008301753 METAR KBLI 301753Z 20007KT 10SM FEW040 FEW080 16/09 A3018 RMK AO2 SLP227 T01610094 10161 20122 50002=
202008301653 METAR KBLI 301653Z 19008KT 10SM R16/5500VP6000FT FEW040 FEW080 16/09 A3019 RMK AO2 SLP228 T01560094=
202008301553 METAR KBLI 301553Z 17008KT 10SM FEW030 15/09 A3019 RMK AO2 SLP227 T01500094=
202008301453 METAR KBLI 301453Z 19005KT 10SM FEW008 FEW120 13/09 A3018 RMK AO2 SLP225 T01330094 53014=
202008301353 METAR KBLI 301353Z 18004KT 10SM FEW120 12/09 A3017 RMK AO2 SLP221 T01220094=
202008301253 METAR KBLI 301253Z AUTO 20006KT 10SM CLR 13/10 A3014 RMK AO2 SLP212 T01280100=
202008301153 METAR KBLI 301153Z AUTO 20005KT 10SM CLR 13/09 A3014 RMK AO2 SLP211 T01330094 10144 20100 53012=
202008301053 METAR KBLI 301053Z AUTO 00000KT 10SM FEW055 11/08 A3012 RMK AO2 SLP206 T01060083 TSNO=
202008300953 METAR KBLI 300953Z AUTO 00000KT 10SM OVC055 12/09 A3012 RMK AO2 SLP204 T01170089=
202008300853 METAR KBLI 300853Z AUTO 00000KT 10SM CLR 12/09 A3010 RMK AO2 SLP199 T01170094 51014=
202008300753 METAR KBLI 300753Z AUTO 19005KT 10SM SCT060 14/09 A3010 RMK AO2 SLP197 T01440094 402110122=
202008300653 METAR KBLI 300653Z AUTO VRB03KT 10SM CLR 14/11 A3008 RMK AO2 SLP191 T01390106=
202008300553 METAR KBLI 300553Z AUTO 20003KT 10SM CLR 14/10 A3006 RMK AO2 SLP185 T01440100 10206 20139 51010=
202008300453 METAR KBLI 300453Z 19004KT 10SM CLR 14/10 A3006 RMK AO2 SLP183 T01440100=
202008300353 METAR KBLI 300353Z 21004KT 10SM CLR 14/09 A3005 RMK AO2 SLP181 T01390094=
202008300253 METAR KBLI 300253Z 21003KT 10SM CLR 15/08 A3003 RMK AO2 SLP175 T01500078 58002=
202008300153 METAR KBLI 300153Z 26003KT 10SM CLR 19/07 A3003 RMK AO2 SLP176 T01890067=
202008300053 METAR KBLI 300053Z 33004KT 10SM FEW090 21/04 A3004 RMK AO2 SLP178 T02060039=
202008292353 METAR KBLI 292353Z 32008KT 10SM CLR 21/03 A3004 RMK AO2 SLP177 T02060033 10211 20178 56006=
202008292253 METAR KBLI 292253Z 30007G15KT 270V330 10SM FEW090 21/03 A3004 RMK AO2 SLP178 T02060028=
202008292153 METAR KBLI 292153Z VRB06KT 10SM FEW090 21/04 A3005 RMK AO2 SLP180 T02060044=
202008292053 METAR KBLI 292053Z 31007KT 10SM SCT039 19/05 A3006 RMK AO2 SLP183 T01940050 53004=
202008291953 METAR KBLI 291953Z 32011G15KT 290V350 10SM SCT090 20/06 A3005 RMK AO2 SLP182 T02000056=
202008291853 METAR KBLI 291853Z 34008G16KT 10SM CLR 19/07 A3005 RMK AO2 SLP180 T01890067=
202008291753 METAR KBLI 291753Z 33008G18KT 310V010 10SM FEW060 SCT090 18/08 A3005 RMK AO2 SLP180 T01780078 10178 20122 51010=
202008291653 METAR KBLI 291653Z AUTO 36008G14KT 10SM CLR 17/09 A3004 RMK AO2 SLP177 T01720089=
202008291553 METAR KBLI 291553Z AUTO 33007KT 10SM FEW026 BKN055 16/09 A3003 RMK AO2 SLP175 T01560089=
202008291453 METAR KBLI 291453Z AUTO VRB03KT 10SM OVC055 15/09 A3002 RMK AO2 SLP170 T01500089 53009=
202008291353 METAR KBLI 291353Z AUTO 30005KT 10SM BKN055 14/09 A3000 RMK AO2 SLP165 T01390094=
202008291253 METAR KBLI 291253Z AUTO 00000KT 10SM FEW050 13/11 A2999 RMK AO2 SLP161 T01330106=
202008291153 METAR KBLI 291153Z AUTO 00000KT 10SM BKN047 OVC060 14/11 A2999 RMK AO2 SLP161 T01440106 10161 20144 53003=
202008291053 METAR KBLI 291053Z AUTO VRB03KT 10SM SCT042 BKN060 15/11 A2999 RMK AO2 SLP160 T01500111=
202008290953 METAR KBLI 290953Z AUTO 21004KT 10SM OVC055 14/13 A2998 RMK AO2 SLP157 T01440128=
202008290853 METAR KBLI 290853Z AUTO 19004KT 10SM BKN060 BKN075 15/13 A2998 RMK AO2 SLP158 T01500133 50003=
202008290753 METAR KBLI 290753Z AUTO 19003KT 10SM SCT055 SCT075 14/13 A2999 RMK AO2 SLP160 T01440128 402060094=
202008290653 METAR KBLI 290653Z AUTO VRB03KT 10SM CLR 15/13 A2999 RMK AO2 SLP160 T01500128=
202008290553 METAR KBLI 290553Z AUTO 20005KT 10SM FEW080 16/13 A2997 RMK AO2 SLP155 T01560128 10206 20156 50001=
202008290453 METAR KBLI 290453Z 21004KT 10SM SCT090 16/13 A2997 RMK AO2 SLP156 T01560128=
202008290353 METAR KBLI 290353Z 21005KT 10SM BKN090 17/12 A2997 RMK AO2 SLP156 T01670122=
202008290320 SPECI KBLI 290320Z 00000KT 10SM CLR 17/12 A2997 RMK AO2 T01670122=
202008290253 METAR KBLI 290253Z 20003KT 10SM CLR 17/12 A2997 RMK AO2 SLP154 T01670122 56006=
202008290153 METAR KBLI 290153Z 20005KT 10SM CLR 19/12 A2997 RMK AO2 SLP155 T01940117=
202008290053 METAR KBLI 290053Z VRB04KT 10SM CLR 20/12 A2998 RMK AO2 SLP159 T02000122=
202008282353 METAR KBLI 282353Z 19009KT 10SM CLR 20/12 A2999 RMK AO2 SLP160 T02000122 10206 20161 58013=
202008282253 METAR KBLI 282253Z 20008KT 10SM CLR 20/12 A3001 RMK AO2 SLP167 T02000117=
202008282153 METAR KBLI 282153Z 19007KT 10SM CLR 21/12 A3002 RMK AO2 SLP171 T02060122=
202008282053 METAR KBLI 282053Z VRB06G16KT 10SM CLR 20/13 A3003 RMK AO2 SLP173 T02000128 58010=
202008281953 METAR KBLI 281953Z 19009G15KT 10SM CLR 18/13 A3004 RMK AO2 SLP178 T01780128=
202008281853 METAR KBLI 281853Z VRB04KT 10SM FEW005 17/13 A3005 RMK AO2 SLP183 T01720133=
202008281753 METAR KBLI 281753Z 19008KT 10SM SCT006 16/13 A3006 RMK AO2 SLP184 T01610128 10167 20094 50003=
202008281653 METAR KBLI 281653Z 19007KT 10SM OVC005 15/13 A3006 RMK AO2 SLP186 T01500128=
202008281553 METAR KBLI 281553Z VRB04KT 10SM OVC005 15/13 A3006 RMK AO2 SLP185 T01500128=
202008281453 METAR KBLI 281453Z 20005KT 10SM OVC004 14/12 A3005 RMK AO2 SLP180 T01440122 51001 $=
202008281353 METAR KBLI 281353Z 00000KT 6SM BCFG SCT001 12/10 A3005 RMK AO2 SLP180 T01170100=
202008281350 SPECI KBLI 281350Z 00000KT 6SM BCFG SCT001 11/09 A3005 RMK AO2=
202008281253 METAR KBLI 281253Z AUTO 22005KT 10SM CLR 14/12 A3004 RMK AO2 SLP179 T01390122=
202008281153 METAR KBLI 281153Z AUTO 00000KT 10SM CLR 09/08 A3003 RMK AO2 SLP175 T00940078 10150 20094 53001=
202008281053 METAR KBLI 281053Z AUTO 20004KT 10SM CLR 14/12 A3003 RMK AO2 SLP173 T01390117=
202008280953 METAR KBLI 280953Z AUTO 22003KT 10SM CLR 12/10 A3003 RMK AO2 SLP173 T01170100=
202008280937 SPECI KBLI 280937Z AUTO 00000KT 3SM BR CLR 12/09 A3003 RMK AO2 T01170094=
202008280928 SPECI KBLI 280928Z AUTO 00000KT 1 3/4SM BR CLR 11/09 A3002 RMK AO2 T01060094=
202008280853 METAR KBLI 280853Z AUTO 00000KT 10SM CLR 12/10 A3003 RMK AO2 SLP174 T01170100 53004=
202008280753 METAR KBLI 280753Z AUTO 00000KT 10SM CLR 13/11 A3002 RMK AO2 SLP171 T01280111 402330128=
202008280653 METAR KBLI 280653Z AUTO 00000KT 10SM CLR 14/12 A3002 RMK AO2 SLP171 T01440122=
202008280553 METAR KBLI 280553Z AUTO 21004KT 10SM CLR 15/13 A3002 RMK AO2 SLP170 T01500128 10233 20150 51004=
202008280453 METAR KBLI 280453Z 21006KT 10SM CLR 16/12 A3002 RMK AO2 SLP170 T01610122=
202008280353 METAR KBLI 280353Z 18006KT 10SM CLR 17/12 A3002 RMK AO2 SLP170 T01670122=
202008280253 METAR KBLI 280253Z 19003KT 10SM CLR 17/13 A3000 RMK AO2 SLP166 T01720133 57002=
202008280153 METAR KBLI 280153Z 18003KT 10SM CLR 21/13 A3000 RMK AO2 SLP166 T02110128=
202008280053 METAR KBLI 280053Z 27005KT 10SM CLR 23/10 A3001 RMK AO2 SLP167 T02280100=
202008272353 METAR KBLI 272353Z 29004KT 10SM FEW090 23/09 A3001 RMK AO2 SLP168 T02280094 10233 20172 58008=
202008272253 METAR KBLI 272253Z VRB03KT 10SM CLR 23/12 A3002 RMK AO2 SLP170 T02280117=
202008272153 METAR KBLI 272153Z 21006KT 10SM CLR 21/13 A3003 RMK AO2 SLP173 T02110128=
202008272053 METAR KBLI 272053Z 19006KT 10SM CLR 21/13 A3003 RMK AO2 SLP176 T02110133 58005=
202008271953 METAR KBLI 271953Z 25005KT 10SM CLR 20/13 A3004 RMK AO2 SLP179 T02000128=
202008271853 METAR KBLI 271853Z VRB05KT 10SM CLR 19/12 A3004 RMK AO2 SLP179 T01890122=
202008271753 METAR KBLI 271753Z 19005KT 10SM CLR 18/12 A3005 RMK AO2 SLP181 T01780117 10178 20139 51008=
202008271653 METAR KBLI 271653Z 18007KT 10SM FEW008 16/12 A3004 RMK AO2 SLP178 T01610117=
202008271553 METAR KBLI 271553Z 19006KT 10SM FEW008 FEW025 16/12 A3004 RMK AO2 SLP178 T01560117=
202008271453 METAR KBLI 271453Z 19006KT 10SM CLR 15/12 A3002 RMK AO2 SLP173 T01500117 53014=
202008271353 METAR KBLI 271353Z 19007KT 10SM CLR 14/12 A3001 RMK AO2 SLP168 T01390117=
202008271253 METAR KBLI 271253Z AUTO 19008KT 10SM CLR 14/12 A2999 RMK AO2 SLP162 T01390117=
202008271153 METAR KBLI 271153Z AUTO 20005KT 10SM CLR 14/12 A2998 RMK AO2 SLP158 T01390117 10161 20139 51003=
202008271053 METAR KBLI 271053Z AUTO 20004KT 10SM CLR 14/12 A2998 RMK AO2 SLP157 T01440117=
202008270953 METAR KBLI 270953Z AUTO 21005KT 10SM CLR 14/12 A2998 RMK AO2 SLP157 T01440117=
202008270853 METAR KBLI 270853Z AUTO 21006KT 10SM CLR 14/11 A2997 RMK AO2 SLP155 T01440111 50004=
202008270753 METAR KBLI 270753Z AUTO 19005KT 10SM CLR 14/11 A2997 RMK AO2 SLP155 T01440111 402220106=
202008270653 METAR KBLI 270653Z AUTO 19006KT 10SM CLR 14/11 A2996 RMK AO2 SLP152 T01440111=
202008270553 METAR KBLI 270553Z AUTO 20007KT 10SM CLR 16/11 A2996 RMK AO2 SLP151 T01610111 10217 20139 53002=
202008270453 METAR KBLI 270453Z 21003KT 10SM CLR 14/12 A2996 RMK AO2 SLP151 T01440117=
202008270353 METAR KBLI 270353Z 18003KT 10SM CLR 14/11 A2995 RMK AO2 SLP149 T01390111=
202008270253 METAR KBLI 270253Z 00000KT 10SM CLR 16/12 A2996 RMK AO2 SLP149 T01610122 55004=
202008270153 METAR KBLI 270153Z 24003KT 10SM CLR 19/11 A2995 RMK AO2 SLP148 T01890111=
202008270053 METAR KBLI 270053Z VRB04KT 10SM CLR 20/13 A2996 RMK AO2 SLP150 T02000128=
202008262353 METAR KBLI 262353Z 27005KT 10SM CLR 21/13 A2997 RMK AO2 SLP154 T02060128 10222 20161 56013=
202008262253 METAR KBLI 262253Z VRB06KT 10SM CLR 22/12 A2998 RMK AO2 SLP157 T02170122=
202008262153 METAR KBLI 262153Z 29005KT 10SM CLR 21/13 A2999 RMK AO2 SLP161 T02060128=
202008262053 METAR KBLI 262053Z VRB05KT 10SM CLR 21/13 A3001 RMK AO2 SLP167 T02060133 58009=
202008261953 METAR KBLI 261953Z VRB03KT 10SM SCT017 19/13 A3002 RMK AO2 SLP171 T01890133=
202008261939 SPECI KBLI 261939Z VRB04KT 10SM SCT015 19/13 A3002 RMK AO2 T01890133=
202008261934 SPECI KBLI 261934Z 29005KT 10SM OVC015 19/13 A3002 RMK AO2 T01890133=
202008261853 METAR KBLI 261853Z 00000KT 10SM OVC010 18/14 A3003 RMK AO2 SLP175 CIG 008 V 011 T01780139=
202008261753 METAR KBLI 261753Z VRB03KT 10SM OVC010 16/13 A3004 RMK AO2 SLP177 T01610128 10167 20106 53002=
202008261653 METAR KBLI 261653Z 21005KT 10SM OVC010 16/12 A3003 RMK AO2 SLP175 T01610122=
202008261553 METAR KBLI 261553Z 19004KT 10SM OVC011 16/12 A3003 RMK AO2 SLP175 T01560117=
202008261517 SPECI KBLI 261517Z 18005KT 10SM FEW008 BKN013 14/12 A3003 RMK AO2 T01440117=
202008261453 METAR KBLI 261453Z 18006KT 10SM FEW015 14/12 A3003 RMK AO2 SLP175 T01390117 53008=
202008261353 METAR KBLI 261353Z VRB03KT 10SM CLR 12/11 A3002 RMK AO2 SLP172 T01220111=
202008261253 METAR KBLI 261253Z AUTO 20003KT 10SM CLR 12/11 A3001 RMK AO2 SLP169 T01220106=
202008261153 METAR KBLI 261153Z AUTO 00000KT 10SM CLR 12/10 A3001 RMK AO2 SLP167 T01170100 10156 20106 53006=
202008261053 METAR KBLI 261053Z AUTO 24003KT 10SM CLR 12/11 A2999 RMK AO2 SLP163 T01220106=
202008260953 METAR KBLI 260953Z AUTO 19005KT 10SM CLR 14/11 A2999 RMK AO2 SLP160 T01390111=
202008260853 METAR KBLI 260853Z AUTO 21003KT 10SM CLR 14/11 A2999 RMK AO2 SLP161 T01390111 51005=
202008260753 METAR KBLI 260753Z AUTO 21003KT 10SM CLR 14/11 A2999 RMK AO2 SLP160 T01390111 402220111=
202008260653 METAR KBLI 260653Z AUTO 20006KT 10SM CLR 14/11 A2998 RMK AO2 SLP158 T01440111=
202008260553 METAR KBLI 260553Z AUTO VRB03KT 10SM CLR 16/12 A2997 RMK AO2 SLP155 T01560122 10222 20144 51005=
202008260453 METAR KBLI 260453Z 20005KT 10SM CLR 15/12 A2997 RMK AO2 SLP155 T01500122=
202008260353 METAR KBLI 260353Z 00000KT 10SM CLR 15/12 A2997 RMK AO2 SLP153 T01500117=
202008260253 METAR KBLI 260253Z 00000KT 10SM CLR 17/12 A2996 RMK AO2 SLP150 T01720122 56001=
202008260153 METAR KBLI 260153Z 00000KT 10SM CLR 21/11 A2996 RMK AO2 SLP150 T02110111=
202008260053 METAR KBLI 260053Z 00000KT 10SM CLR 22/11 A2996 RMK AO2 SLP150 T02170111=
202008252353 METAR KBLI 252353Z 00000KT 10SM CLR 22/12 A2996 RMK AO2 SLP151 T02170117 10222 20167 56009=
202008252253 METAR KBLI 252253Z VRB04KT 10SM CLR 22/13 A2997 RMK AO2 SLP154 T02170128=
202008252153 METAR KBLI 252153Z VRB05KT 10SM CLR 21/13 A2998 RMK AO2 SLP157 T02060133=
202008252053 METAR KBLI 252053Z VRB05KT 10SM FEW018 20/14 A2999 RMK AO2 SLP160 T02000139 58006=
202008252013 SPECI KBLI 252013Z 00000KT 10SM SCT016 18/13 A2999 RMK AO2 T01830133=
202008251953 METAR KBLI 251953Z 19003KT 10SM OVC015 18/13 A3000 RMK AO2 SLP164 T01830133=
202008251853 METAR KBLI 251853Z 00000KT 10SM OVC012 17/13 A3000 RMK AO2 SLP166 T01720133=
202008251800 SPECI KBLI 251800Z VRB03KT 10SM OVC013 17/13 A3000 RMK AO2 T01670133=
202008251753 METAR KBLI 251753Z 00000KT 10SM FEW009 OVC015 17/13 A3000 RMK AO2 SLP166 T01670133 10167 20133 51008=
202008251653 METAR KBLI 251653Z VRB03KT 10SM SCT007 OVC015 16/14 A2999 RMK AO2 SLP163 T01610139=
202008251553 METAR KBLI 251553Z 23003KT 10SM FEW007 OVC015 16/14 A2999 RMK AO2 SLP161 T01610139=
202008251453 METAR KBLI 251453Z 21003KT 10SM OVC015 16/13 A2998 RMK AO2 SLP158 T01560133 51005=
202008251353 METAR KBLI 251353Z 19003KT 10SM OVC014 15/13 A2997 RMK AO2 SLP154 T01500128=
202008251253 METAR KBLI 251253Z AUTO 19004KT 10SM OVC012 14/12 A2997 RMK AO2 SLP153 T01440122=
202008251153 METAR KBLI 251153Z AUTO 20004KT 10SM BKN012 13/11 A2997 RMK AO2 SLP154 70002 T01280111 10139 20111 51002=
202008251148 SPECI KBLI 251148Z AUTO 21003KT 10SM BKN011 13/11 A2997 RMK AO2=
202008251053 METAR KBLI 251053Z AUTO 18003KT 10SM CLR 11/09 A2996 RMK AO2 SLP153 T01110094=
202008250953 METAR KBLI 250953Z AUTO 00000KT 10SM CLR 12/11 A2996 RMK AO2 SLP152 T01220106=
202008250853 METAR KBLI 250853Z AUTO 00000KT 10SM CLR 12/11 A2996 RMK AO2 SLP152 T01220106 51000=
202008250753 METAR KBLI 250753Z AUTO 00000KT 10SM CLR 13/11 A2996 RMK AO2 SLP152 T01280111 402220122=
202008250653 METAR KBLI 250653Z AUTO 00000KT 10SM CLR 13/11 A2996 RMK AO2 SLP153 T01280111=
202008250553 METAR KBLI 250553Z AUTO 00000KT 10SM CLR 13/11 A2996 RMK AO2 SLP152 T01330111 10217 20122 51004=
202008250453 METAR KBLI 250453Z 00000KT 10SM CLR 14/12 A2996 RMK AO2 SLP150 T01440122=
202008250353 METAR KBLI 250353Z 00000KT 10SM CLR 16/12 A2996 RMK AO2 SLP150 T01560122=
202008250253 METAR KBLI 250253Z 00000KT 10SM CLR 17/12 A2995 RMK AO2 SLP148 T01720122 56005=
202008250153 METAR KBLI 250153Z 29004KT 10SM CLR 20/11 A2995 RMK AO2 SLP149 T02000111=
202008250053 METAR KBLI 250053Z VRB04KT 10SM FEW080 21/11 A2996 RMK AO2 SLP150 T02110106=
202008242353 METAR KBLI 242353Z 30007KT 10SM CLR 22/11 A2996 RMK AO2 SLP153 T02170106 10222 20178 56008=
202008242253 METAR KBLI 242253Z 32006KT 10SM CLR 22/11 A2997 RMK AO2 SLP155 T02170106=
202008242153 METAR KBLI 242153Z 27006KT 10SM CLR 22/11 A2998 RMK AO2 SLP158 T02170111=
202008242053 METAR KBLI 242053Z 10SM FEW020 21/12 A2999 RMK AO2 SLP160 T02110122 58002=
202008241953 METAR KBLI 241953Z VRB04KT 10SM SCT030 SCT060 20/13 A2999 RMK AO2 SLP162 T02000128=
202008241853 METAR KBLI 241853Z VRB05KT 10SM SCT020 SCT035 19/13 A2999 RMK AO2 SLP162 T01890133=
202008241753 METAR KBLI 241753Z VRB03KT 10SM SCT017 SCT030 18/13 A2999 RMK AO2 SLP162 60002 T01780133 10183 20139 50004=
202008241655 SPECI KBLI 241655Z 16003KT 10SM FEW011 SCT017 BKN075 17/14 A3000 RMK AO2 T01720139=
202008241653 METAR KBLI 241653Z 16003KT 10SM SCT017 17/14 A3000 RMK AO2 SLP164 T01720139=
202008241553 METAR KBLI 241553Z 00000KT 10SM FEW029 BKN060 15/13 A2998 RMK AO2 RAE44 SLP159 P0001 T01500128=
202008241453 METAR KBLI 241453Z 00000KT 10SM -RA FEW060 SCT090 OVC110 14/13 A2998 RMK AO2 RAB1354E11B34 SLP158 P0000 60001 T01440128 53008=
202008241353 METAR KBLI 241353Z 00000KT 10SM SCT055 SCT080 OVC100 14/12 A2997 RMK AO2 RAE45 SLP155 P0001 T01440122=
202008241253 METAR KBLI 241253Z AUTO 22003KT 10SM -RA FEW055 BKN095 BKN110 14/12 A2997 RMK AO2 RAB43 SLP153 P0000 T01440117=
202008241153 METAR KBLI 241153Z AUTO 22004KT 10SM BKN060 OVC090 14/12 A2996 RMK AO2 SLP150 T01440117 10150 20128 53005=
202008241053 METAR KBLI 241053Z AUTO 19005KT 10SM OVC065 14/12 A2995 RMK AO2 SLP148 T01440117=
202008240953 METAR KBLI 240953Z AUTO 20003KT 10SM BKN070 14/12 A2994 RMK AO2 SLP146 T01440122=
202008240853 METAR KBLI 240853Z AUTO 00000KT 10SM CLR 14/12 A2994 RMK AO2 SLP145 T01390117 58002=
202008240753 METAR KBLI 240753Z AUTO 00000KT 10SM CLR 13/11 A2995 RMK AO2 SLP147 T01330111 402110089=
202008240653 METAR KBLI 240653Z AUTO 00000KT 10SM CLR 13/12 A2995 RMK AO2 SLP148 T01330117=
202008240553 METAR KBLI 240553Z AUTO 00000KT 10SM CLR 13/12 A2995 RMK AO2 SLP147 T01330117 10211 20133 50001=
202008240453 METAR KBLI 240453Z 00000KT 10SM CLR 14/12 A2995 RMK AO2 SLP149 T01390117=
202008240353 METAR KBLI 240353Z 26003KT 10SM CLR 15/13 A2996 RMK AO2 SLP150 T01500128=
202008240253 METAR KBLI 240253Z 00000KT 10SM CLR 17/14 A2995 RMK AO2 SLP147 T01720139 55006=
202008240153 METAR KBLI 240153Z 27004KT 10SM CLR 19/13 A2995 RMK AO2 SLP146 T01890133=
202008240053 METAR KBLI 240053Z 31005KT 10SM CLR 21/13 A2995 RMK AO2 SLP149 T02060133=
202008232353 METAR KBLI 232353Z 00000KT 10SM CLR 21/12 A2996 RMK AO2 SLP152 T02060122 10211 20189 58012=
202008232253 METAR KBLI 232253Z 29006KT 10SM FEW060 FEW110 21/12 A2998 RMK AO2 SLP158 T02060122=
202008232153 METAR KBLI 232153Z 30007KT 10SM FEW110 21/13 A2999 RMK AO2 SLP162 T02060133=
202008232053 METAR KBLI 232053Z 28006KT 10SM CLR 20/12 A3000 RMK AO2 SLP164 T02000122 56009=
202008231953 METAR KBLI 231953Z 27007KT 10SM CLR 19/13 A3001 RMK AO2 SLP166 T01940128=
202008231853 METAR KBLI 231853Z VRB06KT 10SM FEW025 FEW100 19/12 A3001 RMK AO2 SLP168 T01890122=
202008231753 METAR KBLI 231753Z 03005KT 10SM FEW020 FEW080 20/12 A3002 RMK AO2 SLP173 T02000117 10200 20089 58003=
202008231653 METAR KBLI 231653Z VRB03KT 10SM FEW020 FEW035 18/13 A3003 RMK AO2 SLP174 T01830128=
202008231553 METAR KBLI 231553Z 19003KT 10SM FEW008 SCT018 16/12 A3004 RMK AO2 SLP177 T01610122=
202008231453 METAR KBLI 231453Z 00000KT 10SM FEW010 FEW020 13/11 A3003 RMK AO2 SLP176 T01330111 53004=
202008231353 METAR KBLI 231353Z 00000KT 10SM FEW008 FEW015 SCT080 11/09 A3003 RMK AO2 SLP173 T01060089=
202008231338 SPECI KBLI 231338Z 00000KT 9SM CLR 09/08 A3002 RMK AO2 T00940083=
202008231330 SPECI KBLI 231330Z 01003KT 2SM BR CLR 09/08 A3002 RMK AO2 T00890078=
202008231253 METAR KBLI 231253Z AUTO 00000KT 7SM CLR 09/08 A3002 RMK AO2 SLP172 T00890078=
202008231153 METAR KBLI 231153Z AUTO 00000KT 10SM CLR 11/09 A3002 RMK AO2 SLP172 T01060089 10128 20106 58002=
202008231053 METAR KBLI 231053Z AUTO 00000KT 10SM CLR 11/10 A3002 RMK AO2 SLP172 T01110100=
202008230953 METAR KBLI 230953Z AUTO 00000KT 10SM CLR 12/10 A3003 RMK AO2 SLP174 T01220100=
202008230853 METAR KBLI 230853Z AUTO 00000KT 10SM CLR 12/11 A3003 RMK AO2 SLP174 T01220106 58008=
202008230753 METAR KBLI 230753Z AUTO 00000KT 10SM CLR 12/10 A3004 RMK AO2 SLP178 T01220100 402220117=
202008230653 METAR KBLI 230653Z AUTO 00000KT 10SM CLR 13/10 A3004 RMK AO2 SLP180 T01280100=
202008230553 METAR KBLI 230553Z AUTO 00000KT 10SM CLR 13/10 A3005 RMK AO2 SLP182 T01280100 10217 20122 58005=
202008230453 METAR KBLI 230453Z 00000KT 10SM CLR 13/10 A3006 RMK AO2 SLP184 T01330100=
202008230353 METAR KBLI 230353Z 00000KT 10SM CLR 15/11 A3006 RMK AO2 SLP186 T01500106=
202008230253 METAR KBLI 230253Z 31003KT 10SM CLR 17/11 A3007 RMK AO2 SLP187 T01720106 56009=
202008230153 METAR KBLI 230153Z 31005KT 10SM CLR 19/09 A3007 RMK AO2 SLP187 T01890094=
202008230053 METAR KBLI 230053Z 32003KT 10SM FEW080 22/09 A3007 RMK AO2 SLP189 T02170094=
202008222353 METAR KBLI 222353Z 30006KT 10SM CLR 22/09 A3009 RMK AO2 SLP196 T02170094 10222 20178 58014=
202008222253 METAR KBLI 222253Z VRB05KT 10SM FEW080 22/11 A3011 RMK AO2 SLP202 T02220106=
202008222153 METAR KBLI 222153Z 00000KT 10SM FEW090 22/07 A3012 RMK AO2 SLP206 T02170072=
202008222053 METAR KBLI 222053Z 19007KT 10SM CLR 21/09 A3013 RMK AO2 SLP210 T02060089 58003=
202008221953 METAR KBLI 221953Z VRB06KT 10SM FEW090 20/12 A3014 RMK AO2 SLP211 T02000117=
202008221853 METAR KBLI 221853Z 22006KT 10SM SCT090 19/12 A3014 RMK AO2 SLP213 T01890122=
202008221753 METAR KBLI 221753Z 23005KT 10SM SCT090 18/13 A3014 RMK AO2 SLP213 T01830128 10183 20117 51011=
202008221653 METAR KBLI 221653Z 24006KT 10SM CLR 17/13 A3014 RMK AO2 SLP211 T01670128=
202008221553 METAR KBLI 221553Z VRB04KT 10SM CLR 17/12 A3012 RMK AO2 SLP205 T01670122=
202008221453 METAR KBLI 221453Z 16004KT 10SM CLR 16/12 A3011 RMK AO2 SLP202 T01560122 53016=
202008221403 SPECI KBLI 221403Z 00000KT 10SM CLR 12/12 A3009 RMK AO2 T01220117=
202008221353 METAR KBLI 221353Z AUTO 00000KT 3/4SM R16/P6000FT BR CLR 12/11 A3009 RMK AO2 VIS 1/4V5 SLP196 T01170111=
202008221350 SPECI KBLI 221350Z AUTO 00000KT 1 1/4SM BR CLR 12/11 A3009 RMK AO2 VIS 1/4V5=
202008221253 METAR KBLI 221253Z AUTO 18003KT 10SM CLR 13/12 A3007 RMK AO2 SLP189 T01330117=
202008221153 METAR KBLI 221153Z AUTO 21003KT 10SM CLR 14/12 A3006 RMK AO2 SLP186 60002 70060 T01390122 10178 20133 51020=
202008221053 METAR KBLI 221053Z AUTO 19003KT 10SM CLR 14/13 A3004 RMK AO2 SLP179 T01440128=
202008220953 METAR KBLI 220953Z AUTO 19007KT 10SM CLR 15/13 A3003 RMK AO2 SLP174 T01500128=
202008220853 METAR KBLI 220853Z AUTO 19006KT 10SM CLR 16/13 A3000 RMK AO2 SLP166 60002 T01560133 53024=
202008220753 METAR KBLI 220753Z AUTO 20008KT 10SM OVC080 16/14 A2998 RMK AO2 RAE12 SLP159 P0000 T01610139 402170161=
202008220653 METAR KBLI 220653Z AUTO 20006KT 10SM -RA BKN075 OVC100 17/14 A2994 RMK AO2 RAB29 SLP142 P0002 T01670139=
202008220553 METAR KBLI 220553Z AUTO 20006KT 10SM FEW060 BKN120 17/14 A2993 RMK AO2 RAE0458 SLP141 P0000 60054 T01720139 10194 20172 51024=
202008220453 METAR KBLI 220453Z 19004KT 10SM -RA FEW030 SCT060 BKN070 18/14 A2991 RMK AO2 RAB45 SLP134 P0001 T01780144=
202008220353 METAR KBLI 220353Z 19006KT 10SM SCT030 BKN070 BKN090 18/15 A2989 RMK AO2 SLP126 T01830150=
202008220253 METAR KBLI 220253Z 20006KT 10SM FEW015 SCT035 BKN050 19/16 A2986 RMK AO2 SLP117 60053 T01890156 51008=
202008220153 METAR KBLI 220153Z 19006KT 10SM FEW005 SCT025 BKN050 19/16 A2985 RMK AO2 RAE09 SLP114 P0000 T01890156=
202008220126 SPECI KBLI 220126Z 18006KT 10SM SCT015 BKN025 BKN050 19/16 A2985 RMK AO2 RAE09 P0000 T01940161=
202008220123 SPECI KBLI 220123Z 19007KT 10SM FEW028 SCT034 OVC050 19/16 A2985 RMK AO2 RAE09 P0000 T01940161=
202008220100 SPECI KBLI 220100Z 20008G15KT 10SM -RA SCT018 BKN025 OVC048 19/16 A2985 RMK AO2 P0000 T01940161=
202008220053 METAR KBLI 220053Z 20008KT 170V240 1 3/4SM R16/4000VP6000FT -RA BKN019 OVC026 19/16 A2985 RMK AO2 VIS 3/4V5 SLP114 P0053 T01890161=
202008212353 METAR KBLI 212353Z 22007KT 190V260 10SM -RA SCT013 BKN025 BKN035 19/16 A2984 RMK AO2 RAB2255E03B41 SLP109 P0000 60003 T01940156 10217 20189 51013=
202008212300 SPECI KBLI 212300Z 18014G20KT 10SM -RA SCT010 BKN018 OVC045 21/16 A2983 RMK AO2 RAB2255 P0000 T02060161=
202008212253 METAR KBLI 212253Z 17015G20KT 10SM SCT032 BKN039 OVC070 22/16 A2983 RMK AO2 RAE05 SLP106 P0000 T02170156=
202008212153 METAR KBLI 212153Z 17014G22KT 10SM -RA SCT017 BKN023 OVC070 20/16 A2981 RMK AO2 RAB2059 SLP100 P0001 T02000161=
202008212053 METAR KBLI 212053Z 18009KT 10SM FEW021 SCT120 19/17 A2980 RMK AO2 RAE04B18E53 SLP096 P0000 60002 T01940167 51023=
202008212017 SPECI KBLI 212017Z 17013G20KT 10SM FEW022 SCT050 OVC090 19/16 A2979 RMK AO2 RAE04 P0000 T01940161=
202008212000 SPECI KBLI 212000Z 18011G20KT 10SM -RA SCT022 BKN043 OVC075 19/16 A2979 RMK AO2 P0000 T01940161=
202008211953 METAR KBLI 211953Z 19009G18KT 160V230 10SM -RA BKN022 BKN075 OVC090 19/16 A2979 RMK AO2 SLP092 P0002 T01940156=
202008211853 METAR KBLI 211853Z 20009G18KT 10SM -RA BKN022 BKN080 OVC090 21/15 A2976 RMK AO2 PK WND 18026/1842 RAB20 SLP083 P0000 T02110150=
202008211753 METAR KBLI 211753Z 17015G27KT 10SM FEW036 FEW090 BKN110 21/15 A2973 RMK AO2 PK WND 15035/1729 RAB14E38 PRESRR SLP073 P0001 60001 T02110150 10217 20194 53010=
202008211653 METAR KBLI 211653Z 17020G32KT 10SM FEW012 21/14 A2971 RMK AO2 PK WND 15034/1603 SLP064 T02110139=
202008211553 METAR KBLI 211553Z 17015G30KT 10SM FEW015 SCT055 22/14 A2971 RMK AO2 PK WND 16030/1547 SLP064 T02170139=
202008211453 METAR KBLI 211453Z 17017G24KT 10SM FEW028 SCT046 BKN065 22/14 A2970 RMK AO2 SLP063 60000 T02170144 56006=
202008211355 SPECI KBLI 211355Z 19010G16KT 10SM FEW028 21/16 A2971 RMK AO2 T02060156=
202008211353 METAR KBLI 211353Z 19010G16KT 10SM CLR 21/16 A2971 RMK AO2 SLP064 T02060156=
202008211332 SPECI KBLI 211332Z AUTO 19009G17KT 10SM SCT028 20/16 A2971 RMK AO2 T02000156=
202008211253 METAR KBLI 211253Z AUTO 18010KT 10SM BKN028 21/16 A2971 RMK AO2 RAB41E52 SLP066 P0000 T02060161=
202008211243 SPECI KBLI 211243Z AUTO 18009G24KT 10SM -RA SCT028 21/16 A2971 RMK AO2 RAB41 P0000 T02110156=
202008211233 SPECI KBLI 211233Z AUTO 16015KT 10SM BKN026 BKN038 21/16 A2971 RMK AO2 T02110156=
202008211224 SPECI KBLI 211224Z AUTO 17014G21KT 10SM SCT026 BKN038 21/16 A2971 RMK AO2 T02110156=
202008211153 METAR KBLI 211153Z AUTO 18010G24KT 10SM OVC029 22/16 A2972 RMK AO2 SLP069 60000 70010 T02170156 10217 20194 58006=
202008211145 SPECI KBLI 211145Z AUTO 17012G22KT 10SM OVC029 22/16 A2972 RMK AO2 T02170156=
202008211100 SPECI KBLI 211100Z AUTO 17013G19KT 10SM OVC030 22/16 A2973 RMK AO2 T02170156=
202008211053 METAR KBLI 211053Z AUTO 17012G19KT 10SM OVC029 22/16 A2973 RMK AO2 SLP071 T02170156=
202008211046 SPECI KBLI 211046Z AUTO 17009G19KT 10SM OVC029 22/16 A2973 RMK AO2 T02170156=
202008210953 METAR KBLI 210953Z AUTO 16007KT 10SM BKN030 OVC038 21/16 A2974 RMK AO2 RAB11E20 SLP075 P0000 T02110161=
202008210853 METAR KBLI 210853Z AUTO 21004KT 10SM BKN047 OVC055 21/16 A2974 RMK AO2 SLP075 60000 T02110161 56005=
202008210753 METAR KBLI 210753Z AUTO 12005KT 10SM OVC055 20/17 A2975 RMK AO2 SLP078 T02000167 402720167=
202008210653 METAR KBLI 210653Z AUTO 15009KT 10SM BKN060 BKN090 20/17 A2974 RMK AO2 RAE36 SLP077 P0000 T02000167=
202008210553 METAR KBLI 210553Z AUTO 16003KT 8SM -RA BKN065 BKN080 OVC110 19/17 A2976 RMK AO2 SLP081 P0007 60007 T01940172 10239 20194 56001=
202008210453 METAR KBLI 210453Z 00000KT 10SM -RA FEW055 SCT070 BKN110 20/17 A2976 RMK AO2 RAB41 SLP081 P0000 T02000172=
202008210353 METAR KBLI 210353Z 00000KT 10SM SCT060 BKN110 21/17 A2976 RMK AO2 SLP081 T02060167=
202008210253 METAR KBLI 210253Z 00000KT 10SM SCT055 BKN090 22/16 A2976 RMK AO2 RAE00 SLP082 P0000 60000 T02170161 56010=
202008210153 METAR KBLI 210153Z 00000KT 10SM -RA FEW050 SCT070 BKN085 22/17 A2977 RMK AO2 RAB00E09B48 SLP084 P0000 T02220167=
202008210053 METAR KBLI 210053Z 24003KT 10SM FEW060 SCT080 OVC110 23/15 A2978 RMK AO2 RAB2354E09B31E45 SLP089 P0000 T02330150=
202008202353 METAR KBLI 202353Z 19005KT 10SM SCT045 BKN060 OVC100 24/14 A2979 RMK AO2 RAE2254 SLP093 P0000 60000 T02390144 10272 20228 56014=
202008202253 METAR KBLI 202253Z 18007KT 160V220 10SM -RA SCT045 BKN070 BKN090 26/14 A2980 RMK AO2 RAB25 SLP096 P0000 T02560144=
202008202153 METAR KBLI 202153Z 19009G16KT 10SM BKN047 OVC070 26/14 A2982 RMK AO2 SLP102 T02610144=
202008202053 METAR KBLI 202053Z 18008KT 10SM BKN043 BKN075 OVC100 25/14 A2983 RMK AO2 SLP106 T02500144 56013=
202008201953 METAR KBLI 201953Z 15011KT 10SM BKN039 BKN110 26/15 A2984 RMK AO2 SLP109 T02560150=
202008201853 METAR KBLI 201853Z 16011G16KT 10SM BKN100 24/14 A2986 RMK AO2 SLP116 T02440144=
202008201753 METAR KBLI 201753Z 17011KT 10SM SCT032 BKN085 BKN110 22/14 A2987 RMK AO2 SLP120 60003 T02220144 10233 20167 55008=
202008201653 METAR KBLI 201653Z 17011G16KT 10SM FEW033 SCT075 22/14 A2986 RMK AO2 SLP117 T02220144=
202008201553 METAR KBLI 201553Z 17009KT 10SM FEW008 SCT033 OVC070 19/15 A2988 RMK AO2 SLP123 T01940150=
202008201453 METAR KBLI 201453Z 12006KT 10SM FEW008 SCT039 OVC060 17/16 A2989 RMK AO2 RAE10 SLP128 P0000 60003 T01720156 50008=
202008201353 METAR KBLI 201353Z 00000KT 9SM -RA FEW049 SCT060 OVC075 17/15 A2990 RMK AO2 SLP131 P0002 T01670150=
202008201253 METAR KBLI 201253Z AUTO 00000KT 10SM -RA BKN065 OVC085 17/15 A2988 RMK AO2 SLP124 P0001 T01670150=
202008201153 METAR KBLI 201153Z AUTO 00000KT 10SM -RA OVC100 17/15 A2987 RMK AO2 SLP119 P0003 60003 70003 T01720150 10194 20172 58002=
202008201053 METAR KBLI 201053Z AUTO 20006KT 10SM -RA OVC100 17/14 A2988 RMK AO2 RAE0959B29 SLP123 P0000 T01720144=
202008200953 METAR KBLI 200953Z AUTO 20007KT 10SM -RA OVC100 18/14 A2988 RMK AO2 RAB22 SLP122 P0000 T01780144=
202008200853 METAR KBLI 200853Z AUTO 21005KT 10SM FEW075 BKN100 BKN120 18/14 A2987 RMK AO2 SLP121 T01830139 51005=
202008200753 METAR KBLI 200753Z AUTO 20008KT 10SM CLR 18/15 A2987 RMK AO2 SLP121 T01780150 402440117=
202008200653 METAR KBLI 200653Z AUTO 20003KT 10SM CLR 19/14 A2986 RMK AO2 SLP116 T01890144=
202008200553 METAR KBLI 200553Z AUTO 18004KT 10SM CLR 19/14 A2986 RMK AO2 SLP115 T01940139 10244 20194 50001=
202008200453 METAR KBLI 200453Z 19005KT 10SM SCT050 19/14 A2986 RMK AO2 SLP116 T01940144=
202008200353 METAR KBLI 200353Z 20003KT 10SM CLR 20/16 A2986 RMK AO2 SLP116 T02000161=
202008200253 METAR KBLI 200253Z 00000KT 10SM CLR 21/16 A2986 RMK AO2 SLP115 T02110161 56010=
202008200153 METAR KBLI 200153Z 00000KT 10SM FEW120 23/16 A2986 RMK AO2 SLP117 T02280156=
202008200053 METAR KBLI 200053Z 20003KT 10SM CLR 23/16 A2987 RMK AO2 SLP122 T02330156=
202008192353 METAR KBLI 192353Z 28003KT 10SM CLR 24/15 A2989 RMK AO2 SLP124 T02390150 10244 20200 58021=
202008192253 METAR KBLI 192253Z 24004KT 10SM CLR 24/16 A2991 RMK AO2 SLP132 T02390156=
202008192153 METAR KBLI 192153Z 19005KT 10SM CLR 24/16 A2993 RMK AO2 SLP140 T02390156=
202008192053 METAR KBLI 192053Z VRB05KT 10SM CLR 24/15 A2995 RMK AO2 SLP146 T02390150 56014=
202008191953 METAR KBLI 191953Z 20004KT 10SM CLR 23/15 A2995 RMK AO2 SLP148 T02280150=
202008191853 METAR KBLI 191853Z VRB03KT 10SM CLR 22/14 A2997 RMK AO2 SLP155 T02220144=
202008191753 METAR KBLI 191753Z VRB03KT 10SM CLR 21/14 A2999 RMK AO2 SLP160 T02060144 10206 20117 56009=
202008191653 METAR KBLI 191653Z VRB03KT 10SM CLR 19/14 A3000 RMK AO2 SLP162 T01940139=
202008191553 METAR KBLI 191553Z 19006KT 10SM CLR 19/14 A3001 RMK AO2 SLP166 T01890144=
202008191453 METAR KBLI 191453Z 15006KT 10SM R16/3500VP6000FT CLR 18/14 A3002 RMK AO2 SLP169 T01830139 53003=
202008191353 METAR KBLI 191353Z 00000KT 10SM CLR 14/12 A3001 RMK AO2 SLP168 T01440122=
202008191253 METAR KBLI 191253Z AUTO 00000KT 10SM CLR 13/11 A3001 RMK AO2 SLP167 T01330111=
202008191153 METAR KBLI 191153Z AUTO 00000KT 10SM CLR 13/12 A3001 RMK AO2 SLP167 T01330117 10183 20128 50001=
202008191053 METAR KBLI 191053Z AUTO 00000KT 10SM CLR 13/12 A3001 RMK AO2 SLP168 T01330117=
202008190953 METAR KBLI 190953Z AUTO 00000KT 10SM CLR 13/12 A3001 RMK AO2 SLP167 T01330122=
202008190853 METAR KBLI 190853Z AUTO 00000KT 10SM CLR 14/12 A3000 RMK AO2 SLP166 T01440122 57009=
202008190753 METAR KBLI 190753Z AUTO 20004KT 10SM CLR 17/13 A3001 RMK AO2 SLP168 T01720128 402280150=
202008190653 METAR KBLI 190653Z AUTO 15006KT 10SM CLR 18/13 A3002 RMK AO2 SLP171 T01780128=
202008190553 METAR KBLI 190553Z AUTO 19005KT 10SM CLR 18/14 A3003 RMK AO2 SLP174 T01830139 10228 20183 56002=
202008190453 METAR KBLI 190453Z 18005KT 10SM CLR 19/14 A3003 RMK AO2 SLP174 T01890139=
202008190353 METAR KBLI 190353Z 18007KT 10SM CLR 19/14 A3003 RMK AO2 SLP175 T01940139=
202008190253 METAR KBLI 190253Z VRB06KT 10SM CLR 20/14 A3004 RMK AO2 SLP176 T02000139 56016=
202008190153 METAR KBLI 190153Z 19007KT 10SM CLR 22/14 A3005 RMK AO2 SLP179 T02170139=
202008190053 METAR KBLI 190053Z 19010KT 10SM FEW100 22/14 A3006 RMK AO2 SLP185 T02170139=
202008182353 METAR KBLI 182353Z VRB05KT 10SM CLR 22/14 A3008 RMK AO2 SLP192 T02220139 10222 20200 58012=
202008182253 METAR KBLI 182253Z 18012G16KT 10SM SCT060 SCT090 22/14 A3010 RMK AO2 SLP196 T02220139=
202008182153 METAR KBLI 182153Z 19010KT 10SM SCT040 BKN090 22/14 A3011 RMK AO2 SLP201 T02170139=
202008182053 METAR KBLI 182053Z 19013G18KT 10SM SCT043 22/14 A3012 RMK AO2 SLP204 T02220139 50002=
202008181953 METAR KBLI 181953Z 19013G19KT 10SM FEW040 22/14 A3013 RMK AO2 SLP206 T02170144=
202008181857 SPECI KBLI 181857Z 20009KT 10SM SCT040 21/14 A3012 RMK AO2 T02060144=
202008181853 METAR KBLI 181853Z 20010KT 10SM BKN040 21/14 A3012 RMK AO2 SLP206 T02060144=
202008181753 METAR KBLI 181753Z 19010G21KT 10SM SCT040 21/14 A3011 RMK AO2 SLP202 T02060144 10211 20156 51016=
202008181653 METAR KBLI 181653Z 19010G17KT 10SM CLR 20/14 A3011 RMK AO2 SLP201 T02000139=
202008181553 METAR KBLI 181553Z 18013G19KT 10SM CLR 19/13 A3009 RMK AO2 SLP193 T01940133=
202008181453 METAR KBLI 181453Z 13008KT 10SM CLR 18/14 A3006 RMK AO2 SLP185 T01830139 51016=
202008181353 METAR KBLI 181353Z 18004KT 10SM R16/4000VP6000FT CLR 18/14 A3005 RMK AO2 SLP182 T01780139=
202008181253 METAR KBLI 181253Z AUTO 19007KT 10SM CLR 17/14 A3004 RMK AO2 SLP176 T01720139=
202008181153 METAR KBLI 181153Z AUTO 19005KT 10SM CLR 17/14 A3002 RMK AO2 SLP170 T01720144 10200 20150 53001=
202008181053 METAR KBLI 181053Z AUTO 12005KT 10SM CLR 16/13 A3001 RMK AO2 SLP166 T01560133=
202008180953 METAR KBLI 180953Z AUTO 00000KT 10SM CLR 17/14 A3001 RMK AO2 SLP168 T01720144=
202008180853 METAR KBLI 180853Z AUTO 00000KT 10SM CLR 18/15 A3002 RMK AO2 SLP169 T01830150 53005=
202008180753 METAR KBLI 180753Z AUTO 22005KT 10SM CLR 18/15 A3001 RMK AO2 SLP166 T01780150 402610167=
202008180653 METAR KBLI 180653Z AUTO 00000KT 10SM CLR 19/15 A3000 RMK AO2 SLP163 T01890150=
202008180553 METAR KBLI 180553Z AUTO 18006KT 10SM CLR 19/16 A3000 RMK AO2 SLP163 T01940156 10250 20194 53003=
202008180453 METAR KBLI 180453Z 19005KT 10SM CLR 21/16 A2999 RMK AO2 SLP161 T02110156=
202008180353 METAR KBLI 180353Z 20005KT 10SM CLR 22/15 A3000 RMK AO2 SLP162 T02170150=
202008180253 METAR KBLI 180253Z 21007KT 10SM CLR 22/14 A2999 RMK AO2 SLP161 T02220144 58008=
202008180153 METAR KBLI 180153Z 19008KT 10SM CLR 23/16 A3000 RMK AO2 SLP165 T02330156=
202008180053 METAR KBLI 180053Z 20006KT 10SM CLR 24/15 A3001 RMK AO2 SLP168 T02390150=
202008172353 METAR KBLI 172353Z 20007KT 10SM CLR 25/14 A3002 RMK AO2 SLP169 T02500144 10261 20228 56013=
202008172253 METAR KBLI 172253Z 19010KT 10SM CLR 25/14 A3003 RMK AO2 SLP173 T02500139=
202008172153 METAR KBLI 172153Z 22007KT 10SM CLR 26/14 A3004 RMK AO2 SLP178 T02560144=
202008172053 METAR KBLI 172053Z 20007KT 10SM CLR 25/14 A3006 RMK AO2 SLP182 T02500139 58001=
202008171953 METAR KBLI 171953Z 20007KT 10SM CLR 26/14 A3006 RMK AO2 SLP183 T02560139=
202008171853 METAR KBLI 171853Z VRB06KT 10SM CLR 24/14 A3006 RMK AO2 SLP182 T02390144=
202008171753 METAR KBLI 171753Z 19007G17KT 10SM CLR 23/14 A3006 RMK AO2 SLP182 T02280139 10228 20183 51013=
202008171653 METAR KBLI 171653Z 19011G19KT 10SM CLR 22/14 A3005 RMK AO2 SLP182 T02170139=
202008171553 METAR KBLI 171553Z 19012G18KT 10SM CLR 21/13 A3003 RMK AO2 SLP174 T02060133=
202008171453 METAR KBLI 171453Z 20010KT 10SM FEW110 19/13 A3002 RMK AO2 SLP170 T01890128 51024=
202008171353 METAR KBLI 171353Z 19009KT 10SM FEW120 19/13 A2999 RMK AO2 SLP160 T01940128=
202008171253 METAR KBLI 171253Z AUTO 19009KT 10SM CLR 21/12 A2998 RMK AO2 SLP154 T02060122=
202008171153 METAR KBLI 171153Z AUTO 20007KT 10SM CLR 21/13 A2995 RMK AO2 SLP145 T02060128 10250 20200 53013=
202008171053 METAR KBLI 171053Z AUTO 19008KT 10SM CLR 21/14 A2993 RMK AO2 SLP139 T02060139=
202008170953 METAR KBLI 170953Z AUTO 20005KT 10SM CLR 21/15 A2992 RMK AO2 SLP134 T02060150=
202008170853 METAR KBLI 170853Z AUTO 00000KT 10SM CLR 21/16 A2991 RMK AO2 SLP132 T02060161 50006=
202008170753 METAR KBLI 170753Z AUTO 00000KT 10SM CLR 21/16 A2992 RMK AO2 LTG DSNT NW SLP136 T02110161 403220122=
202008170653 METAR KBLI 170653Z AUTO 31003KT 10SM CLR 24/16 A2991 RMK AO2 PRESRR SLP133 T02390156=
202008170553 METAR KBLI 170553Z AUTO 21005KT 10SM FEW120 24/16 A2989 RMK AO2 SLP126 T02440156 10322 20233 50011=
202008170453 METAR KBLI 170453Z 21006KT 10SM CLR 25/16 A2990 RMK AO2 SLP128 FRQ LTGCGICCC DSNT SW-NW T02500156=
202008170353 METAR KBLI 170353Z 20005KT 10SM CLR 23/16 A2988 RMK AO2 SLP122 T02330156=
202008170253 METAR KBLI 170253Z 00000KT 10SM CLR 26/17 A2986 RMK AO2 SLP116 T02560172 53006=
202008170153 METAR KBLI 170153Z 00000KT 10SM CLR 28/17 A2984 RMK AO2 SLP109 T02830172=
202008170053 METAR KBLI 170053Z 19003KT 10SM CLR 32/16 A2983 RMK AO2 SLP107 T03170161=
202008162353 METAR KBLI 162353Z 27004KT 10SM CLR 31/14 A2984 RMK AO2 SLP110 T03110144 10317 20272 56008=
202008162253 METAR KBLI 162253Z 26003KT 10SM CLR 32/17 A2985 RMK AO2 SLP111 T03170167=
202008162153 METAR KBLI 162153Z VRB04KT 10SM CLR 30/17 A2986 RMK AO2 SLP116 T03000167=
202008162053 METAR KBLI 162053Z VRB04KT 10SM CLR 28/17 A2987 RMK AO2 SLP118 T02830167 55004=
202008161953 METAR KBLI 161953Z VRB06KT 10SM CLR 29/17 A2987 RMK AO2 SLP118 T02890172=
202008161853 METAR KBLI 161853Z VRB03KT 10SM CLR 30/13 A2987 RMK AO2 SLP120 T03000133=
202008161753 METAR KBLI 161753Z 01005KT 10SM CLR 27/14 A2988 RMK AO2 SLP123 T02720139 10272 20122 56006=
202008161653 METAR KBLI 161653Z 06006KT 10SM CLR 24/14 A2988 RMK AO2 SLP124 T02440139=
202008161553 METAR KBLI 161553Z 04005KT 10SM CLR 21/14 A2989 RMK AO2 SLP126 T02110139=
202008161453 METAR KBLI 161453Z 00000KT 10SM CLR 17/14 A2990 RMK AO2 SLP129 T01720139 51006=
202008161353 METAR KBLI 161353Z 00000KT 10SM CLR 13/12 A2990 RMK AO2 SLP129 T01330117=
202008161305 SPECI KBLI 161305Z AUTO 00000KT 6SM BR CLR 13/12 A2989 RMK AO2 T01280117=
202008161258 SPECI KBLI 161258Z AUTO 00000KT 2SM BR FEW002 13/12 A2989 RMK AO2 T01330117=
202008161253 METAR KBLI 161253Z AUTO 00000KT 1SM R16/P6000FT BR VV002 13/12 A2989 RMK AO2 SLP126 T01280117=
202008161249 SPECI KBLI 161249Z AUTO 00000KT 1 1/2SM BR FEW001 13/12 A2989 RMK AO2=
202008161217 SPECI KBLI 161217Z AUTO 00000KT 8SM SCT001 13/12 A2988 RMK AO2 T01330122=
202008161205 SPECI KBLI 161205Z AUTO 00000KT 4SM BR BKN001 13/12 A2988 RMK AO2 T01330122=
202008161202 SPECI KBLI 161202Z AUTO 00000KT 2 1/2SM BR SCT001 14/12 A2988 RMK AO2 VIS 3/4V5 T01390122=
202008161153 METAR KBLI 161153Z AUTO 00000KT 8SM R16/3000VP6000FT SCT001 13/12 A2988 RMK AO2 SLP122 T01330122 10172 20133 56003=
202008161144 SPECI KBLI 161144Z AUTO 00000KT 8SM R16/2400VP6000FT SCT001 14/12 A2988 RMK AO2 T01390122=
202008161136 SPECI KBLI 161136Z AUTO 00000KT 4SM R16/1800VP6000FT BR BKN001 14/13 A2988 RMK AO2 T01390128=
202008161126 SPECI KBLI 161126Z AUTO 00000KT 1SM R16/1400VP6000FT BR VV001 14/12 A2988 RMK AO2 T01390122=
202008161123 SPECI KBLI 161123Z AUTO 00000KT 2 1/2SM R16/1600VP6000FT BR BKN002 13/12 A2988 RMK AO2 VIS 1/2V5 T01330117=
202008161109 SPECI KBLI 161109Z AUTO 00000KT 3SM R16/2000VP6000FT BR FEW002 13/13 A2988 RMK AO2 T01330128=
202008161057 SPECI KBLI 161057Z AUTO 00000KT 1 1/2SM R16/4500VP6000FT BR CLR 14/12 A2988 RMK AO2 T01390122=
202008161053 METAR KBLI 161053Z AUTO 00000KT 9SM CLR 14/12 A2988 RMK AO2 SLP123 T01390122=
202008161040 SPECI KBLI 161040Z AUTO 00000KT 4SM BR CLR 14/13 A2988 RMK AO2 T01440128=
202008161030 SPECI KBLI 161030Z AUTO 00000KT 1 3/4SM R16/4500VP6000FT BR CLR 14/12 A2988 RMK AO2 VIS 1/2V5 T01390122=
202008160953 METAR KBLI 160953Z AUTO 00000KT 10SM CLR 14/13 A2988 RMK AO2 SLP124 T01440133=
202008160853 METAR KBLI 160853Z AUTO 00000KT 10SM CLR 14/13 A2989 RMK AO2 SLP125 T01440133 50001=
202008160753 METAR KBLI 160753Z AUTO 00000KT 10SM CLR 16/14 A2989 RMK AO2 SLP127 T01610139 402830106=
202008160653 METAR KBLI 160653Z AUTO 00000KT 10SM CLR 16/14 A2989 RMK AO2 SLP125 T01610139=
202008160553 METAR KBLI 160553Z AUTO 00000KT 10SM CLR 16/14 A2988 RMK AO2 SLP124 T01610139 10272 20161 58003=
202008160453 METAR KBLI 160453Z 00000KT 10SM CLR 18/15 A2989 RMK AO2 SLP126 T01780150=
202008160353 METAR KBLI 160353Z 00000KT 10SM CLR 19/15 A2989 RMK AO2 SLP128 T01940150=
202008160253 METAR KBLI 160253Z 00000KT 10SM CLR 22/16 A2989 RMK AO2 SLP127 T02220156 56019=
202008160153 METAR KBLI 160153Z 31004KT 10SM CLR 26/15 A2991 RMK AO2 SLP131 T02560150=
202008160053 METAR KBLI 160053Z 29008KT 10SM CLR 26/14 A2993 RMK AO2 SLP140 T02610144=
202008152353 METAR KBLI 152353Z 29006KT 10SM CLR 27/15 A2995 RMK AO2 SLP147 T02720150 10283 20239 58021=
202008152253 METAR KBLI 152253Z VRB06KT 10SM CLR 27/15 A2997 RMK AO2 SLP154 T02720150=
202008152153 METAR KBLI 152153Z VRB06KT 10SM CLR 28/15 A2999 RMK AO2 SLP162 T02830150=
202008152053 METAR KBLI 152053Z 30009KT 10SM CLR 27/14 A3001 RMK AO2 SLP168 T02670144 58016=
202008151953 METAR KBLI 151953Z VRB04KT 10SM CLR 28/14 A3003 RMK AO2 SLP175 T02780144=
202008151853 METAR KBLI 151853Z VRB05KT 10SM CLR 25/13 A3005 RMK AO2 SLP181 T02500133=
202008151753 METAR KBLI 151753Z 04007KT 10SM CLR 24/14 A3006 RMK AO2 SLP184 T02390139 10239 20106 58012=
202008151653 METAR KBLI 151653Z 03009KT 10SM CLR 22/13 A3008 RMK AO2 SLP189 T02170133=
202008151553 METAR KBLI 151553Z 03006KT 10SM CLR 18/13 A3009 RMK AO2 SLP194 T01830128=
202008151453 METAR KBLI 151453Z 02004KT 9SM CLR 15/12 A3009 RMK AO2 SLP197 T01500117 56005=
202008151353 METAR KBLI 151353Z AUTO 36003KT 10SM CLR 12/11 A3010 RMK AO2 SLP199 T01220106=
202008151253 METAR KBLI 151253Z AUTO 00000KT 10SM CLR 11/09 A3010 RMK AO2 SLP199 T01110094=
202008151153 METAR KBLI 151153Z AUTO 00000KT 9SM CLR 11/10 A3011 RMK AO2 SLP202 T01110100 10156 20111 57009=
202008151053 METAR KBLI 151053Z AUTO 00000KT 10SM CLR 13/10 A3012 RMK AO2 SLP205 T01280100=
202008150953 METAR KBLI 150953Z AUTO 00000KT 10SM CLR 13/11 A3013 RMK AO2 SLP208 T01330106=
202008150853 METAR KBLI 150853Z AUTO 00000KT 10SM CLR 13/11 A3014 RMK AO2 SLP211 T01330106 58000=
202008150753 METAR KBLI 150753Z AUTO 00000KT 10SM CLR 14/11 A3014 RMK AO2 SLP211 T01390111 402440083=
202008150653 METAR KBLI 150653Z AUTO 00000KT 10SM CLR 14/11 A3014 RMK AO2 SLP213 T01440111=
202008150553 METAR KBLI 150553Z AUTO 00000KT 10SM CLR 16/11 A3014 RMK AO2 SLP211 T01560111 10244 20144 53000=
202008150453 METAR KBLI 150453Z 00000KT 10SM CLR 16/11 A3014 RMK AO2 SLP212 T01610111=
202008150353 METAR KBLI 150353Z 00000KT 10SM CLR 18/12 A3013 RMK AO2 SLP210 T01830117=
202008150253 METAR KBLI 150253Z 00000KT 10SM CLR 20/12 A3014 RMK AO2 SLP211 T02000117 56012=
202008150153 METAR KBLI 150153Z 27003KT 10SM CLR 23/09 A3015 RMK AO2 SLP214 T02330094=
202008150053 METAR KBLI 150053Z 31005KT 10SM CLR 24/09 A3016 RMK AO2 SLP218 T02440089=
202008142353 METAR KBLI 142353Z VRB04KT 10SM CLR 24/09 A3017 RMK AO2 SLP223 T02440094 10244 20189 58010=
202008142253 METAR KBLI 142253Z 29005KT 10SM CLR 24/08 A3019 RMK AO2 SLP229 T02390083=
202008142153 METAR KBLI 142153Z VRB04KT 10SM CLR 23/03 A3020 RMK AO2 SLP233 T02330033=
202008142053 METAR KBLI 142053Z 00000KT 10SM CLR 23/12 A3020 RMK AO2 SLP233 T02280117 58010=
202008141953 METAR KBLI 141953Z 20004KT 10SM CLR 21/09 A3022 RMK AO2 SLP239 T02060094=
202008141853 METAR KBLI 141853Z 24004KT 10SM CLR 19/11 A3022 RMK AO2 SLP240 T01940106=
202008141753 METAR KBLI 141753Z 24004KT 10SM CLR 19/11 A3023 RMK AO2 SLP243 T01890111 10194 20083 51005=
202008141653 METAR KBLI 141653Z 32004KT 10SM CLR 18/09 A3023 RMK AO2 SLP241 T01780094=
202008141553 METAR KBLI 141553Z 33003KT 10SM CLR 16/08 A3023 RMK AO2 SLP242 T01610083=
202008141453 METAR KBLI 141453Z 00000KT 10SM CLR 14/09 A3022 RMK AO2 SLP238 T01440089 52008=
202008141353 METAR KBLI 141353Z 00000KT 10SM CLR 10/08 A3021 RMK AO2 SLP235 T01000078=
202008141253 METAR KBLI 141253Z AUTO 00000KT 10SM CLR 08/07 A3020 RMK AO2 SLP233 T00830072=
202008141153 METAR KBLI 141153Z AUTO 00000KT 10SM CLR 09/07 A3019 RMK AO2 SLP230 T00940072 10167 20094 50002=
202008141053 METAR KBLI 141053Z AUTO 00000KT 10SM CLR 10/08 A3020 RMK AO2 SLP231 T01000078=
202008140953 METAR KBLI 140953Z AUTO 00000KT 10SM CLR 11/08 A3019 RMK AO2 SLP231 T01060083=
202008140853 METAR KBLI 140853Z AUTO 00000KT 10SM CLR 12/08 A3018 RMK AO2 SLP227 T01220083 53004=
202008140753 METAR KBLI 140753Z AUTO 00000KT 10SM CLR 12/07 A3018 RMK AO2 SLP225 T01220072 402110078=
202008140653 METAR KBLI 140653Z AUTO 18003KT 10SM CLR 16/08 A3018 RMK AO2 SLP225 T01560083=
202008140553 METAR KBLI 140553Z AUTO 18004KT 10SM CLR 17/09 A3017 RMK AO2 SLP224 T01670089 10206 20150 53008=
202008140453 METAR KBLI 140453Z 19005KT 10SM CLR 16/11 A3017 RMK AO2 SLP221 T01610106=
202008140353 METAR KBLI 140353Z 20003KT 10SM CLR 16/11 A3016 RMK AO2 SLP217 T01560106=
202008140253 METAR KBLI 140253Z 20004KT 10SM CLR 18/11 A3015 RMK AO2 SLP216 T01780106 53001=
202008140153 METAR KBLI 140153Z 19005KT 10SM FEW070 19/11 A3015 RMK AO2 SLP215 T01940106=
202008140053 METAR KBLI 140053Z 20007KT 10SM CLR 20/08 A3015 RMK AO2 SLP214 T02000083=
202008132353 METAR KBLI 132353Z VRB05KT 10SM FEW090 21/09 A3015 RMK AO2 SLP214 T02110089 10211 20161 58002=
202008132253 METAR KBLI 132253Z 19007KT 10SM FEW090 20/09 A3015 RMK AO2 SLP216 T02000094=
202008132153 METAR KBLI 132153Z VRB05KT 10SM CLR 19/11 A3016 RMK AO2 SLP220 T01940106=
202008132053 METAR KBLI 132053Z 20007KT 10SM CLR 19/10 A3015 RMK AO2 SLP217 T01890100 51004=
202008131953 METAR KBLI 131953Z 19007KT 10SM CLR 18/10 A3015 RMK AO2 SLP215 T01780100=
202008131853 METAR KBLI 131853Z 19008KT 10SM CLR 17/11 A3015 RMK AO2 SLP216 T01720106=
202008131753 METAR KBLI 131753Z 20008G16KT 160V240 10SM CLR 17/10 A3014 RMK AO2 SLP213 T01670100 10167 20078 52006=
202008131653 METAR KBLI 131653Z 18008KT 10SM CLR 16/09 A3014 RMK AO2 SLP211 T01560094=
202008131553 METAR KBLI 131553Z VRB04KT 10SM CLR 14/09 A3013 RMK AO2 SLP209 T01440094=
202008131453 METAR KBLI 131453Z 16004KT 10SM CLR 13/09 A3012 RMK AO2 SLP207 T01330089 53009=
202008131353 METAR KBLI 131353Z 00000KT 10SM CLR 09/08 A3012 RMK AO2 SLP204 T00940078=
202008131253 METAR KBLI 131253Z AUTO 00000KT 10SM CLR 08/06 A3010 RMK AO2 SLP201 T00830061=
202008131153 METAR KBLI 131153Z AUTO 00000KT 10SM CLR 09/07 A3010 RMK AO2 SLP198 T00890067 10128 20078 53005=
202008131053 METAR KBLI 131053Z AUTO 00000KT 10SM CLR 08/06 A3009 RMK AO2 SLP195 T00830061=
202008130953 METAR KBLI 130953Z AUTO 00000KT 10SM CLR 09/07 A3009 RMK AO2 SLP195 T00940072=
202008130853 METAR KBLI 130853Z AUTO 00000KT 10SM CLR 11/07 A3008 RMK AO2 SLP193 T01110072 50002=
202008130753 METAR KBLI 130753Z AUTO 00000KT 10SM CLR 12/08 A3009 RMK AO2 SLP195 T01220078 402000111=
202008130653 METAR KBLI 130653Z AUTO 00000KT 10SM CLR 12/08 A3008 RMK AO2 SLP193 T01220083=
202008130553 METAR KBLI 130553Z AUTO 00000KT 10SM CLR 13/08 A3008 RMK AO2 SLP191 T01280083 10194 20128 50002=
202008130453 METAR KBLI 130453Z 18004KT 10SM CLR 16/09 A3008 RMK AO2 SLP191 T01560094=
202008130353 METAR KBLI 130353Z 19004KT 10SM CLR 14/09 A3008 RMK AO2 SLP192 T01440094=
202008130253 METAR KBLI 130253Z 00000KT 10SM R16/4500VP6000FT CLR 17/10 A3007 RMK AO2 SLP189 T01670100 53002=
202008130153 METAR KBLI 130153Z 19005KT 10SM CLR 19/09 A3007 RMK AO2 SLP187 T01890089=
202008130053 METAR KBLI 130053Z 19007KT 10SM CLR 19/09 A3007 RMK AO2 SLP187 T01940089=
202008122353 METAR KBLI 122353Z 19006KT 10SM CLR 19/09 A3007 RMK AO2 SLP187 T01940089 10200 20161 50001=
202008122253 METAR KBLI 122253Z 19005KT 10SM CLR 19/09 A3007 RMK AO2 SLP188 T01940089=
202008122153 METAR KBLI 122153Z VRB06KT 10SM CLR 19/09 A3007 RMK AO2 SLP189 T01890089=
202008122053 METAR KBLI 122053Z 19010KT 10SM CLR 18/09 A3006 RMK AO2 SLP186 T01830089 51007=
202008121953 METAR KBLI 121953Z 17010KT 10SM SCT070 18/09 A3006 RMK AO2 SLP186 T01830089=
202008121853 METAR KBLI 121853Z 18009KT 10SM OVC070 17/10 A3006 RMK AO2 SLP184 T01720100=
202008121753 METAR KBLI 121753Z 19008KT 160V230 10SM BKN030 BKN050 16/10 A3004 RMK AO2 SLP180 T01610100 10161 20117 53012=
202008121653 METAR KBLI 121653Z 20007KT 170V230 10SM FEW012 SCT033 15/09 A3003 RMK AO2 SLP174 T01500094=
202008121553 METAR KBLI 121553Z 19006KT 10SM FEW010 SCT033 BKN065 14/09 A3001 RMK AO2 SLP169 T01440094=
202008121453 METAR KBLI 121453Z 17006KT 10SM FEW010 SCT043 BKN065 14/09 A3001 RMK AO2 SLP168 T01440094 53015=
202008121353 METAR KBLI 121353Z 17005KT 10SM SCT043 13/09 A2999 RMK AO2 SLP163 T01330089=
202008121253 METAR KBLI 121253Z AUTO 18004KT 10SM SCT065 12/08 A2997 RMK AO2 SLP156 T01220083 TSNO=
202008121153 METAR KBLI 121153Z AUTO 19003KT 10SM BKN060 13/09 A2997 RMK AO2 SLP153 T01280089 10150 20128 51013 TSNO=
202008121053 METAR KBLI 121053Z AUTO 18003KT 10SM SCT045 OVC050 13/09 A2996 RMK AO2 SLP150 T01280089 TSNO=
202008120953 METAR KBLI 120953Z AUTO 18005KT 10SM BKN049 OVC060 13/09 A2994 RMK AO2 SLP144 T01330089 TSNO=
202008120853 METAR KBLI 120853Z AUTO 18005KT 10SM BKN055 13/08 A2993 RMK AO2 SLP141 T01330083 51010=
202008120753 METAR KBLI 120753Z AUTO 18006KT 10SM SCT050 14/08 A2992 RMK AO2 SLP139 T01390083 402060100=
202008120653 METAR KBLI 120653Z AUTO 19007KT 10SM FEW024 14/08 A2991 RMK AO2 SLP135 T01440078=
202008120553 METAR KBLI 120553Z AUTO 20006KT 10SM FEW024 15/07 A2990 RMK AO2 SLP130 T01500072 10194 20150 51013=
202008120453 METAR KBLI 120453Z 20007KT 10SM SCT110 16/08 A2989 RMK AO2 SLP128 T01560078=
202008120353 METAR KBLI 120353Z 19011G17KT 10SM SCT110 16/09 A2987 RMK AO2 SLP121 T01610089=
202008120253 METAR KBLI 120253Z 20009KT 10SM CLR 17/09 A2986 RMK AO2 SLP117 T01670094 56010=
202008120153 METAR KBLI 120153Z 19009KT 10SM CLR 18/09 A2986 RMK AO2 SLP118 T01830094=
202008120053 METAR KBLI 120053Z 19009G15KT 10SM CLR 19/11 A2987 RMK AO2 SLP121 T01890111=
202008112353 METAR KBLI 112353Z 18006G14KT 10SM CLR 19/13 A2989 RMK AO2 SLP128 T01940133 10206 20161 57013=
202008112253 METAR KBLI 112253Z 18008KT 10SM CLR 19/13 A2990 RMK AO2 SLP132 T01940128=
202008112153 METAR KBLI 112153Z 22005KT 10SM CLR 19/12 A2992 RMK AO2 SLP136 T01940122=
202008112053 METAR KBLI 112053Z 18007KT 10SM CLR 18/12 A2993 RMK AO2 SLP140 T01830122 58004=
202008111953 METAR KBLI 111953Z 20007KT 170V230 10SM CLR 18/12 A2993 RMK AO2 SLP142 T01780122=
202008111853 METAR KBLI 111853Z 19009G16KT 10SM SCT011 17/12 A2994 RMK AO2 SLP145 T01720122=
202008111753 METAR KBLI 111753Z 19009KT 10SM FEW027 16/12 A2994 RMK AO2 SLP145 T01610122 10161 20117 50001=
202008111659 SPECI KBLI 111659Z 19009KT 10SM SCT004 BKN055 15/12 A2994 RMK AO2 T01500122=
202008111653 METAR KBLI 111653Z 18010KT 10SM BKN004 BKN055 15/12 A2994 RMK AO2 SLP145 T01500122=
202008111553 METAR KBLI 111553Z 19008KT 3SM BR BKN004 14/12 A2994 RMK AO2 SLP146 T01440122=
202008111540 SPECI KBLI 111540Z 22005KT 10SM BKN004 14/12 A2995 RMK AO2 T01440122=
202008111524 SPECI KBLI 111524Z 20009KT 10SM FEW004 15/12 A2994 RMK AO2 T01500122=
202008111453 METAR KBLI 111453Z 19008KT 10SM SCT046 16/13 A2994 RMK AO2 SLP144 T01560128 51001=
202008111353 METAR KBLI 111353Z 19004KT 10SM FEW046 14/12 A2994 RMK AO2 SLP143 T01440122=
202008111253 METAR KBLI 111253Z AUTO 20004KT 10SM CLR 14/12 A2994 RMK AO2 SLP144 T01390117=
202008111153 METAR KBLI 111153Z AUTO 00000KT 10SM CLR 11/10 A2994 RMK AO2 SLP143 T01110100 10144 20100 56003=
202008111053 METAR KBLI 111053Z AUTO 00000KT 10SM CLR 11/09 A2994 RMK AO2 SLP145 T01060089=
202008110953 METAR KBLI 110953Z AUTO 00000KT 10SM CLR 11/09 A2994 RMK AO2 SLP144 T01110094=
202008110853 METAR KBLI 110853Z AUTO 19003KT 10SM CLR 13/11 A2994 RMK AO2 SLP146 T01330111 56007=
202008110753 METAR KBLI 110753Z AUTO 18003KT 10SM CLR 14/12 A2995 RMK AO2 SLP149 T01390117 402330111=
202008110653 METAR KBLI 110653Z AUTO 17004KT 10SM CLR 14/11 A2996 RMK AO2 SLP150 T01390111=
202008110553 METAR KBLI 110553Z AUTO 00000KT 10SM CLR 14/12 A2997 RMK AO2 SLP154 T01440117 10222 20139 58003=
202008110453 METAR KBLI 110453Z 24004KT 10SM CLR 16/13 A2998 RMK AO2 SLP157 T01560128=
202008110353 METAR KBLI 110353Z 00000KT 10SM CLR 17/13 A2998 RMK AO2 SLP156 T01670133=
202008110253 METAR KBLI 110253Z 00000KT 10SM CLR 19/13 A2998 RMK AO2 SLP157 T01890133 58015=
202008110153 METAR KBLI 110153Z 00000KT 10SM CLR 22/12 A2999 RMK AO2 SLP162 T02170117=
202008110053 METAR KBLI 110053Z 28005KT 10SM FEW090 22/12 A3001 RMK AO2 SLP166 T02170122=
202008102353 METAR KBLI 102353Z VRB03KT 10SM CLR 22/14 A3002 RMK AO2 SLP171 T02220139 10233 20189 58016=
202008102253 METAR KBLI 102253Z 28006KT 10SM FEW080 22/14 A3004 RMK AO2 SLP178 T02220139=
202008102153 METAR KBLI 102153Z VRB05KT 10SM FEW080 23/14 A3005 RMK AO2 SLP182 T02280144=
202008102053 METAR KBLI 102053Z 29007KT 240V320 10SM FEW060 22/14 A3007 RMK AO2 SLP187 T02170139 58018=
202008101953 METAR KBLI 101953Z 17004KT 10SM FEW060 22/14 A3008 RMK AO2 SLP193 T02170144=
202008101853 METAR KBLI 101853Z 00000KT 10SM FEW030 FEW080 21/14 A3011 RMK AO2 SLP200 T02110144=
202008101753 METAR KBLI 101753Z VRB03KT 10SM CLR 19/13 A3012 RMK AO2 SLP205 T01890133 10189 20117 58009=
202008101653 METAR KBLI 101653Z 23003KT 10SM SCT060 17/13 A3013 RMK AO2 SLP210 T01720133=
202008101553 METAR KBLI 101553Z 19004KT 10SM FEW009 17/13 A3014 RMK AO2 SLP212 T01670128=
202008101453 METAR KBLI 101453Z VRB03KT 10SM FEW010 16/13 A3014 RMK AO2 SLP214 T01610128 56001=
202008101353 METAR KBLI 101353Z 00000KT 10SM FEW080 12/10 A3015 RMK AO2 SLP214 T01170100=
202008101253 METAR KBLI 101253Z AUTO 21003KT 10SM CLR 13/11 A3014 RMK AO2 SLP213 T01330106=
202008101153 METAR KBLI 101153Z AUTO 00000KT 10SM CLR 12/10 A3015 RMK AO2 SLP214 T01220100 10156 20111 58006=
202008101053 METAR KBLI 101053Z AUTO 00000KT 10SM CLR 12/10 A3016 RMK AO2 SLP218 T01170100=
202008100953 METAR KBLI 100953Z AUTO 00000KT 10SM CLR 12/10 A3016 RMK AO2 SLP219 T01220100=
202008100853 METAR KBLI 100853Z AUTO 00000KT 10SM CLR 14/10 A3016 RMK AO2 SLP221 T01390100 58013=
202008100753 METAR KBLI 100753Z AUTO 18003KT 10SM CLR 14/11 A3018 RMK AO2 SLP226 T01390106 402330122=
202008100653 METAR KBLI 100653Z AUTO 17005KT 10SM CLR 16/10 A3020 RMK AO2 SLP231 T01560100=
202008100553 METAR KBLI 100553Z AUTO 00000KT 10SM CLR 15/12 A3020 RMK AO2 SLP234 T01500122 10233 20144 58006=
202008100453 METAR KBLI 100453Z 00000KT 10SM CLR 16/12 A3022 RMK AO2 SLP240 T01560117=
202008100353 METAR KBLI 100353Z 00000KT 10SM CLR 16/11 A3022 RMK AO2 SLP238 T01610111=
202008100253 METAR KBLI 100253Z 00000KT 10SM CLR 19/11 A3022 RMK AO2 SLP240 T01890111 56010=
202008100153 METAR KBLI 100153Z VRB03KT 10SM CLR 21/11 A3023 RMK AO2 SLP242 T02110106=
202008100053 METAR KBLI 100053Z 29005KT 10SM CLR 22/09 A3024 RMK AO2 SLP247 T02170089=
202008092353 METAR KBLI 092353Z 00000KT 10SM CLR 23/10 A3025 RMK AO2 SLP250 T02280100 10228 20178 58011=
202008092253 METAR KBLI 092253Z 24004KT 10SM FEW090 22/12 A3026 RMK AO2 SLP254 T02220122=
202008092153 METAR KBLI 092153Z 24005KT 10SM FEW060 FEW100 22/13 A3028 RMK AO2 SLP258 T02170128=
202008092053 METAR KBLI 092053Z 30009KT 10SM CLR 21/13 A3028 RMK AO2 SLP261 T02110128 58002=
202008091953 METAR KBLI 091953Z 32005KT 10SM FEW029 21/13 A3029 RMK AO2 SLP262 T02060128=
202008091853 METAR KBLI 091853Z 18007KT 10SM FEW023 SCT080 20/13 A3029 RMK AO2 SLP264 T02000133=
202008091753 METAR KBLI 091753Z 22004KT 10SM FEW030 SCT080 18/12 A3029 RMK AO2 SLP263 T01830122 10183 20128 50004=
202008091653 METAR KBLI 091653Z 19006KT 10SM FEW025 SCT080 17/12 A3029 RMK AO2 SLP264 T01720122=
202008091553 METAR KBLI 091553Z 19006KT 10SM SCT090 16/12 A3029 RMK AO2 SLP264 T01610122=
202008091453 METAR KBLI 091453Z 16005KT 10SM CLR 15/12 A3028 RMK AO2 SLP259 T01500117 53009=
202008091353 METAR KBLI 091353Z 18003KT 10SM CLR 14/12 A3026 RMK AO2 SLP254 T01390117=
202008091253 METAR KBLI 091253Z AUTO 20004KT 10SM CLR 13/11 A3026 RMK AO2 SLP252 T01330111=
202008091153 METAR KBLI 091153Z AUTO 19005KT 10SM CLR 13/11 A3025 RMK AO2 SLP249 T01330111 10156 20122 51007=
202008091053 METAR KBLI 091053Z AUTO 00000KT 10SM CLR 13/11 A3025 RMK AO2 SLP249 T01280111=
202008090953 METAR KBLI 090953Z AUTO 20004KT 10SM CLR 14/12 A3023 RMK AO2 SLP244 T01390117=
202008090853 METAR KBLI 090853Z AUTO 00000KT 10SM CLR 13/11 A3023 RMK AO2 SLP242 T01280106 51005=
202008090753 METAR KBLI 090753Z AUTO 20004KT 10SM CLR 13/11 A3023 RMK AO2 SLP241 T01330106 402110122=
202008090653 METAR KBLI 090653Z AUTO 18004KT 10SM CLR 13/11 A3022 RMK AO2 SLP241 T01330106=
202008090553 METAR KBLI 090553Z AUTO 18005KT 10SM CLR 16/12 A3022 RMK AO2 SLP238 T01560117 10211 20144 51006=
202008090453 METAR KBLI 090453Z 20003KT 10SM CLR 16/12 A3021 RMK AO2 SLP237 T01560122=
202008090353 METAR KBLI 090353Z 00000KT 10SM CLR 15/11 A3021 RMK AO2 SLP234 T01500111=
202008090253 METAR KBLI 090253Z 00000KT 10SM CLR 18/11 A3020 RMK AO2 SLP231 T01830106 55001=
202008090153 METAR KBLI 090153Z 00000KT 10SM CLR 20/10 A3019 RMK AO2 SLP229 T02000100=
202008090053 METAR KBLI 090053Z 33006KT 10SM FEW040 FEW080 21/09 A3020 RMK AO2 SLP232 T02060094=
202008082353 METAR KBLI 082353Z 32005KT 10SM CLR 21/11 A3020 RMK AO2 SLP233 T02060111 10211 20161 50000=
202008082253 METAR KBLI 082253Z VRB05KT 10SM FEW040 SCT070 20/12 A3020 RMK AO2 SLP234 T02000122=
202008082153 METAR KBLI 082153Z VRB06KT 10SM SCT024 BKN070 20/13 A3020 RMK AO2 SLP233 T02000128=
202008082053 METAR KBLI 082053Z 33007KT 10SM BKN021 BKN029 OVC060 19/13 A3020 RMK AO2 SLP233 T01890128 51003=
202008081953 METAR KBLI 081953Z VRB04KT 10SM SCT013 BKN025 BKN070 18/13 A3020 RMK AO2 SLP233 T01830133=
202008081853 METAR KBLI 081853Z VRB03KT 10SM SCT013 BKN025 BKN050 17/13 A3020 RMK AO2 SLP233 T01720133=
202008081753 METAR KBLI 081753Z VRB05KT 10SM SCT010 BKN017 BKN050 17/13 A3019 RMK AO2 SLP230 T01720128 10172 20139 53005=
202008081653 METAR KBLI 081653Z 21006KT 10SM SCT010 BKN017 OVC050 16/13 A3018 RMK AO2 SLP225 T01610128=
202008081553 METAR KBLI 081553Z 17006KT 10SM FEW006 OVC023 16/13 A3018 RMK AO2 SLP225 T01560133=
202008081545 SPECI KBLI 081545Z 19005KT 10SM SCT006 OVC023 16/13 A3018 RMK AO2 T01560128=
202008081453 METAR KBLI 081453Z 00000KT 10SM BKN007 OVC021 15/13 A3018 RMK AO2 SLP224 T01500133 53010=
202008081353 METAR KBLI 081353Z AUTO 00000KT 10SM BKN004 OVC021 14/13 A3016 RMK AO2 CIG 003V007 SLP220 T01440133=
202008081323 SPECI KBLI 081323Z AUTO 00000KT 10SM OVC004 14/13 A3015 RMK AO2 T01440133=
202008081300 SPECI KBLI 081300Z AUTO 00000KT 6SM BR BKN008 BKN014 OVC020 14/13 A3015 RMK AO2 CIG 005V011 T01440128=
202008081253 METAR KBLI 081253Z AUTO 00000KT 6SM BR BKN010 BKN015 OVC019 14/13 A3015 RMK AO2 CIG 007V011 SLP214 T01440128=
202008081211 SPECI KBLI 081211Z AUTO 00000KT 4SM BR OVC014 14/13 A3015 RMK AO2 T01440128=
202008081153 METAR KBLI 081153Z AUTO 00000KT 10SM OVC016 14/13 A3014 RMK AO2 RAB03E14 SLP213 P0000 60000 70005 T01440128 10156 20144 51004=
202008081053 METAR KBLI 081053Z AUTO 00000KT 10SM BKN020 BKN025 OVC033 15/13 A3014 RMK AO2 SLP211 T01500128=
202008081049 SPECI KBLI 081049Z AUTO 00000KT 10SM BKN020 BKN025 OVC033 15/13 A3014 RMK AO2=
202008080953 METAR KBLI 080953Z AUTO 00000KT 9SM FEW017 OVC036 15/13 A3013 RMK AO2 SLP209 T01500133=
202008080853 METAR KBLI 080853Z AUTO 00000KT 6SM BR FEW032 SCT050 OVC075 15/14 A3013 RMK AO2 SLP210 T01500139 56003=
202008080753 METAR KBLI 080753Z AUTO 00000KT 7SM OVC038 16/14 A3014 RMK AO2 SLP211 T01560139 402060144=
202008080653 METAR KBLI 080653Z AUTO 00000KT 8SM SCT042 OVC060 16/14 A3014 RMK AO2 SLP211 T01560139=
202008080553 METAR KBLI 080553Z AUTO 00000KT 10SM OVC055 15/13 A3014 RMK AO2 RAE0459 SLP213 P0000 60004 T01500133 10183 20150 58003=
202008080453 METAR KBLI 080453Z 00000KT 10SM -RA OVC060 16/13 A3015 RMK AO2 RAE0354B10 SLP215 P0000 T01560133=
202008080353 METAR KBLI 080353Z 00000KT 10SM -RA BKN055 OVC080 16/13 A3015 RMK AO2 SLP214 P0000 T01560133=
202008080253 METAR KBLI 080253Z 04003KT 10SM -RA BKN065 OVC080 16/13 A3015 RMK AO2 SLP215 P0000 60004 T01610133 58007=
202008080153 METAR KBLI 080153Z 00000KT 8SM -RA BKN065 OVC080 17/14 A3016 RMK AO2 SLP218 P0002 T01670139=
202008080053 METAR KBLI 080053Z 00000KT 10SM -RA OVC085 17/14 A3017 RMK AO2 SLP221 P0002 T01720139=
202008072353 METAR KBLI 072353Z 00000KT 6SM -RA BKN065 OVC080 18/13 A3017 RMK AO2 RAB33 SLP223 P0001 60001 T01830128 10206 20178 58000=
202008072253 METAR KBLI 072253Z VRB03KT 10SM OVC085 19/11 A3017 RMK AO2 SLP223 T01940106=
202008072153 METAR KBLI 072153Z 18007KT 10SM SCT060 OVC085 19/10 A3017 RMK AO2 SLP224 T01940100=
202008072053 METAR KBLI 072053Z 20007G16KT 10SM SCT100 BKN120 21/11 A3017 RMK AO2 SLP223 T02060106 55002=
202008071953 METAR KBLI 071953Z 20007KT 10SM FEW100 SCT120 19/11 A3017 RMK AO2 SLP223 T01940106=
202008071853 METAR KBLI 071853Z 18008G15KT 10SM CLR 19/11 A3017 RMK AO2 SLP223 T01890111=
202008071753 METAR KBLI 071753Z 18012G17KT 10SM CLR 18/12 A3018 RMK AO2 SLP225 T01830117 10183 20144 53010=
202008071653 METAR KBLI 071653Z 19010G16KT 10SM SCT019 17/12 A3017 RMK AO2 SLP221 T01720117=
202008071628 SPECI KBLI 071628Z 18010G16KT 10SM SCT019 17/12 A3016 RMK AO2 T01720117=
202008071553 METAR KBLI 071553Z 19013G19KT 10SM BKN019 16/12 A3015 RMK AO2 SLP217 T01610117=
202008071545 SPECI KBLI 071545Z 18011KT 10SM BKN019 17/12 A3016 RMK AO2 T01670117=
202008071453 METAR KBLI 071453Z 19009G17KT 10SM SCT015 16/11 A3015 RMK AO2 SLP215 T01560111 53012=
202008071353 METAR KBLI 071353Z 19011G16KT 10SM FEW012 SCT055 14/11 A3014 RMK AO2 SLP211 T01440111=
202008071253 METAR KBLI 071253Z AUTO 18008G18KT 10SM FEW012 OVC055 15/11 A3011 RMK AO2 SLP203 T01500111=
202008071153 METAR KBLI 071153Z AUTO 18008G17KT 10SM FEW012 OVC050 15/12 A3011 RMK AO2 SLP203 60000 70043 T01500117 10161 20150 53013=
202008071053 METAR KBLI 071053Z AUTO 17008G15KT 10SM SCT050 BKN090 15/11 A3010 RMK AO2 SLP198 T01500111=
202008070953 METAR KBLI 070953Z AUTO 19010KT 10SM OVC055 16/12 A3009 RMK AO2 SLP195 T01560117=
202008070853 METAR KBLI 070853Z AUTO 18008KT 10SM FEW048 OVC065 16/12 A3008 RMK AO2 SLP191 60000 T01560117 51012=
202008070753 METAR KBLI 070753Z AUTO 18012KT 10SM OVC090 16/12 A3007 RMK AO2 RAE41 SLP188 P0000 T01560117 402110139=
202008070653 METAR KBLI 070653Z AUTO 18007KT 10SM -RA OVC080 16/11 A3006 RMK AO2 RAB19 SLP183 P0000 T01610111=
202008070553 METAR KBLI 070553Z AUTO 18008KT 10SM OVC075 17/11 A3004 RMK AO2 SLP178 60000 T01670106 10206 20161 51017=
202008070453 METAR KBLI 070453Z 17010G15KT 10SM BKN070 BKN085 17/10 A3003 RMK AO2 RAE02B19E47 SLP175 P0000 T01670100=
202008070353 METAR KBLI 070353Z 17010KT 10SM -RA SCT050 BKN070 17/11 A3001 RMK AO2 RAB51 SLP169 P0000 T01720106=
202008070253 METAR KBLI 070253Z 18010KT 10SM BKN055 18/10 A2999 RMK AO2 SLP161 T01780100 53010=
202008070153 METAR KBLI 070153Z 18008KT 10SM BKN060 OVC075 18/10 A2997 RMK AO2 SLP156 T01830100=
202008070053 METAR KBLI 070053Z 20007KT 10SM BKN065 OVC080 19/09 A2997 RMK AO2 SLP154 T01890094=
202008062353 METAR KBLI 062353Z VRB06KT 10SM BKN060 19/09 A2996 RMK AO2 SLP151 T01940094 10211 20150 51012=
202008062253 METAR KBLI 062253Z 18008KT 10SM FEW075 BKN085 21/09 A2995 RMK AO2 SLP146 T02060094=
202008062153 METAR KBLI 062153Z 17013G19KT 10SM OVC085 19/11 A2994 RMK AO2 SLP143 T01940106=
202008062053 METAR KBLI 062053Z 18012KT 10SM OVC080 19/11 A2992 RMK AO2 SLP139 T01890111 51018=
202008061953 METAR KBLI 061953Z 19012G18KT 10SM OVC075 18/12 A2991 RMK AO2 SLP135 T01830117=
202008061853 METAR KBLI 061853Z 18009KT 10SM BKN041 OVC070 17/12 A2990 RMK AO2 SLP129 T01670122=
202008061753 METAR KBLI 061753Z 19012G17KT 10SM FEW029 BKN075 OVC090 15/12 A2987 RMK AO2 RAE11B19E41 SLP121 P0002 60043 T01500122 10172 20139 53017=
202008061712 SPECI KBLI 061712Z 18011G21KT 10SM SCT007 SCT022 OVC065 14/12 A2985 RMK AO2 RAE11 P0001 T01440122=
202008061706 SPECI KBLI 061706Z 19011G21KT 6SM -RA BR SCT004 BKN010 OVC022 14/12 A2985 RMK AO2 P0001 T01390122=
202008061656 SPECI KBLI 061656Z 18010G18KT 2 1/2SM -RA BR SCT004 BKN010 OVC022 14/12 A2985 RMK AO2 P0001 T01390122=
202008061653 METAR KBLI 061653Z 19010G18KT 3SM -RA BR SCT004 BKN010 OVC014 14/12 A2985 RMK AO2 SLP114 P0011 T01390122=
202008061553 METAR KBLI 061553Z 18009KT 3SM RA BR SCT004 BKN010 OVC014 14/13 A2983 RMK AO2 SLP107 P0013 T01390128=
202008061455 SPECI KBLI 061455Z 19006KT 4SM RA BR SCT004 BKN010 OVC028 16/14 A2982 RMK AO2 P0000 T01560144=
202008061453 METAR KBLI 061453Z 20005KT 2 1/2SM RA BR SCT004 BKN010 OVC028 16/14 A2982 RMK AO2 SLP104 P0013 60017 T01560144 53010=
202008061354 SPECI KBLI 061354Z 19010KT 5SM -RA BR SCT008 OVC012 16/14 A2981 RMK AO2 P0000 T01610139=
202008061353 METAR KBLI 061353Z 19010KT 6SM -RA BR BKN008 OVC012 16/14 A2981 RMK AO2 RAB01 SLP100 P0004 T01610139=
202008061341 SPECI KBLI 061341Z AUTO 20007KT 7SM -RA BKN014 OVC026 16/14 A2981 RMK AO2 RAB01 P0002 T01610139=
202008061329 SPECI KBLI 061329Z AUTO 20006KT 9SM -RA BKN015 BKN026 OVC060 16/14 A2981 RMK AO2 RAB01 P0001 T01610139=
202008061253 METAR KBLI 061253Z AUTO 19012G21KT 10SM FEW031 OVC060 17/13 A2979 RMK AO2 SLP093 T01720133=
202008061153 METAR KBLI 061153Z AUTO 21008KT 10SM BKN055 OVC070 17/13 A2979 RMK AO2 SLP093 60000 T01670133 10189 20167 58008=
202008061053 METAR KBLI 061053Z AUTO 19010G17KT 10SM OVC055 18/13 A2980 RMK AO2 SLP096 T01780133=
202008060953 METAR KBLI 060953Z AUTO 19011G17KT 10SM SCT050 OVC070 17/13 A2981 RMK AO2 SLP100 T01720133=
202008060853 METAR KBLI 060853Z AUTO 19011KT 10SM OVC050 18/14 A2982 RMK AO2 RAB37E47 SLP101 P0000 60000 T01780139 55001=
202008060753 METAR KBLI 060753Z AUTO 23005KT 10SM SCT050 BKN070 BKN090 18/13 A2981 RMK AO2 SLP101 T01780133 402280150=
202008060653 METAR KBLI 060653Z AUTO 20006KT 10SM BKN090 19/13 A2982 RMK AO2 SLP101 T01890128=
202008060553 METAR KBLI 060553Z AUTO 19007G15KT 10SM OVC090 18/13 A2982 RMK AO2 SLP102 T01830128 10228 20183 51008=
202008060453 METAR KBLI 060453Z 20011G17KT 10SM BKN080 19/13 A2982 RMK AO2 SLP103 T01890128=
202008060353 METAR KBLI 060353Z 18009KT 10SM CLR 20/13 A2980 RMK AO2 SLP095 T02000133=
202008060253 METAR KBLI 060253Z 19010KT 10SM CLR 20/13 A2979 RMK AO2 SLP094 T02000133 56018=
202008060153 METAR KBLI 060153Z 19010KT 10SM CLR 21/13 A2980 RMK AO2 SLP096 T02110133=
202008060053 METAR KBLI 060053Z 19009KT 10SM CLR 22/12 A2982 RMK AO2 SLP103 T02220122=
202008052353 METAR KBLI 052353Z 18010G16KT 10SM CLR 22/12 A2985 RMK AO2 SLP112 T02220117 10222 20183 58019=
202008052253 METAR KBLI 052253Z 21009G18KT 10SM CLR 21/12 A2988 RMK AO2 SLP122 T02110117=
202008052153 METAR KBLI 052153Z 19014G19KT 10SM CLR 21/12 A2989 RMK AO2 SLP129 T02060117=
202008052053 METAR KBLI 052053Z 19014G21KT 10SM CLR 21/12 A2991 RMK AO2 SLP132 T02060117 58012=
202008051953 METAR KBLI 051953Z 19014G21KT 10SM CLR 20/12 A2992 RMK AO2 SLP137 T02000117=
202008051853 METAR KBLI 051853Z 19/12 A2993 RMK AO2 PK WND 18026/1755 SLP140 T01940117 $=
202008051753 METAR KBLI 051753Z 19016G22KT 10SM CLR 19/12 A2994 RMK AO2 SLP143 T01890117 10189 20156 58001=
202008051653 METAR KBLI 051653Z 19013G22KT 10SM CLR 18/12 A2994 RMK AO2 SLP145 T01780117=
202008051553 METAR KBLI 051553Z 19013G22KT 10SM CLR 18/11 A2994 RMK AO2 SLP145 T01780106=
202008051453 METAR KBLI 051453Z 19008G17KT 10SM CLR 17/11 A2994 RMK AO2 SLP144 T01720106 53005=
202008051353 METAR KBLI 051353Z 20010KT 10SM CLR 16/11 A2993 RMK AO2 SLP140 T01560111=
202008051253 METAR KBLI 051253Z AUTO 19009KT 10SM CLR 16/11 A2993 RMK AO2 SLP139 T01610106=
202008051153 METAR KBLI 051153Z AUTO 20007KT 10SM CLR 16/11 A2993 RMK AO2 SLP139 T01610111 10183 20150 50000=
202008051053 METAR KBLI 051053Z AUTO 19005KT 10SM CLR 17/12 A2993 RMK AO2 SLP140 T01670117=
202008050953 METAR KBLI 050953Z AUTO 21004KT 10SM CLR 16/13 A2993 RMK AO2 SLP141 T01560128=
202008050853 METAR KBLI 050853Z AUTO 19003KT 10SM CLR 17/13 A2993 RMK AO2 SLP140 T01670133 57006=
202008050753 METAR KBLI 050753Z AUTO 21006KT 10SM CLR 17/14 A2994 RMK AO2 SLP142 T01720139 402670144=
202008050653 METAR KBLI 050653Z AUTO 19006KT 10SM CLR 18/14 A2994 RMK AO2 SLP143 T01830144=
202008050553 METAR KBLI 050553Z AUTO 20006KT 10SM CLR 18/16 A2995 RMK AO2 SLP146 T01830156 10267 20161 58005=
202008050453 METAR KBLI 050453Z 00000KT 10SM CLR 17/14 A2995 RMK AO2 SLP149 T01670144=
202008050353 METAR KBLI 050353Z 22003KT 10SM CLR 19/14 A2996 RMK AO2 SLP149 T01940144=
202008050253 METAR KBLI 050253Z 00000KT 10SM CLR 22/15 A2996 RMK AO2 SLP150 T02220150 56017=
202008050153 METAR KBLI 050153Z 28003KT 10SM CLR 24/14 A2997 RMK AO2 SLP155 T02390144=
202008050053 METAR KBLI 050053Z 30004KT 10SM CLR 26/16 A2999 RMK AO2 SLP160 T02560156=
202008042353 METAR KBLI 042353Z 29006KT 10SM CLR 26/15 A3001 RMK AO2 SLP168 T02560150 10267 20200 58018=
202008042253 METAR KBLI 042253Z 34006KT 10SM CLR 26/15 A3003 RMK AO2 SLP173 T02610150=
202008042153 METAR KBLI 042153Z VRB05KT 10SM CLR 26/16 A3005 RMK AO2 SLP181 T02560156=
202008042053 METAR KBLI 042053Z VRB04KT 10SM FEW080 24/16 A3007 RMK AO2 SLP186 T02440161 58011=
202008041953 METAR KBLI 041953Z 26005KT 10SM FEW020 FEW100 23/16 A3008 RMK AO2 SLP192 T02280161=
202008041853 METAR KBLI 041853Z VRB06KT 10SM SCT015 22/17 A3009 RMK AO2 SLP195 T02220172=
202008041836 SPECI KBLI 041836Z 21004KT 10SM SCT015 22/17 A3009 RMK AO2 T02170167=
202008041753 METAR KBLI 041753Z 25003KT 10SM SCT008 BKN012 21/16 A3010 RMK AO2 SLP197 T02060161 10206 20167 56004=
202008041653 METAR KBLI 041653Z 20004KT 8SM SCT006 BKN012 19/16 A3010 RMK AO2 SLP198 VIS E-SE 3SM T01940161=
202008041553 METAR KBLI 041553Z 22003KT 6SM BR BKN006 BKN009 18/16 A3011 RMK AO2 SLP200 T01830161=
202008041539 SPECI KBLI 041539Z 00000KT 5SM BR BKN006 BKN009 18/16 A3011 RMK AO2 T01830161=
202008041527 SPECI KBLI 041527Z 00000KT 4SM BR BKN004 18/16 A3011 RMK AO2 T01780161=
202008041453 METAR KBLI 041453Z 00000KT 2SM BR OVC002 17/16 A3011 RMK AO2 SLP201 T01720161 53002=
202008041353 METAR KBLI 041353Z 00000KT 1 1/2SM R16/6000VP6000FT BR OVC003 17/16 A3010 RMK AO2 SLP199 T01670156=
202008041346 SPECI KBLI 041346Z 00000KT 1 3/4SM R16/5000VP6000FT BR OVC003 17/16 A3010 RMK AO2 T01670156=
202008041331 SPECI KBLI 041331Z 00000KT 2 1/2SM BR OVC004 17/16 A3010 RMK AO2 T01670156=
202008041253 METAR KBLI 041253Z AUTO 00000KT 9SM OVC004 17/16 A3010 RMK AO2 SLP198 T01720156=
202008041230 SPECI KBLI 041230Z AUTO 00000KT 10SM OVC004 17/16 A3010 RMK AO2 T01720156=
202008041153 METAR KBLI 041153Z AUTO 00000KT 10SM OVC007 17/15 A3010 RMK AO2 SLP199 T01670150 10167 20144 58002=
202008041100 SPECI KBLI 041100Z AUTO 00000KT 6SM BR BKN009 14/13 A3011 RMK AO2 T01440133=
202008041053 METAR KBLI 041053Z AUTO 00000KT 10SM SCT009 15/13 A3011 RMK AO2 SLP200 T01500133=
202008041050 SPECI KBLI 041050Z AUTO 00000KT 10SM SCT009 15/13 A3011 RMK AO2=
202008040953 METAR KBLI 040953Z AUTO 00000KT 10SM CLR 14/13 A3011 RMK AO2 SLP200 T01440133=
202008040853 METAR KBLI 040853Z AUTO 00000KT 10SM CLR 15/13 A3011 RMK AO2 SLP200 T01500133 58005=
202008040753 METAR KBLI 040753Z AUTO 00000KT 10SM CLR 15/13 A3012 RMK AO2 SLP204 T01500133 402440150=
202008040653 METAR KBLI 040653Z AUTO 33003KT 10SM CLR 16/14 A3012 RMK AO2 SLP206 T01560139=
202008040553 METAR KBLI 040553Z AUTO 00000KT 10SM CLR 17/14 A3012 RMK AO2 SLP206 T01670144 10244 20161 58002=
202008040453 METAR KBLI 040453Z 00000KT 10SM CLR 17/15 A3013 RMK AO2 SLP207 T01720150=
202008040353 METAR KBLI 040353Z 00000KT 10SM CLR 19/15 A3013 RMK AO2 SLP207 T01890150=
202008040253 METAR KBLI 040253Z 20004KT 10SM CLR 21/15 A3013 RMK AO2 SLP207 T02110150 58006=
202008040153 METAR KBLI 040153Z VRB04KT 10SM CLR 22/15 A3014 RMK AO2 SLP210 T02220150=
202008040053 METAR KBLI 040053Z 20006KT 10SM FEW090 23/14 A3014 RMK AO2 SLP211 T02330144=
202008032353 METAR KBLI 032353Z 19007KT 10SM CLR 24/14 A3015 RMK AO2 SLP213 T02440139 10244 20194 58009=
202008032253 METAR KBLI 032253Z 17008KT 10SM FEW090 24/14 A3016 RMK AO2 SLP218 T02440139=
202008032153 METAR KBLI 032153Z 17006KT 10SM FEW060 BKN085 23/15 A3017 RMK AO2 SLP222 T02330150=
202008032053 METAR KBLI 032053Z VRB06KT 10SM FEW025 SCT085 23/15 A3017 RMK AO2 SLP222 T02330150 55000=
202008031953 METAR KBLI 031953Z 20006KT 10SM SCT060 BKN085 22/15 A3017 RMK AO2 SLP221 T02170150=
202008031853 METAR KBLI 031853Z 18007KT 10SM SCT060 BKN080 21/14 A3017 RMK AO2 SLP222 T02060144=
202008031753 METAR KBLI 031753Z 18010KT 10SM OVC060 19/14 A3017 RMK AO2 SLP222 T01940139 10194 20156 53012=
202008031653 METAR KBLI 031653Z 19012KT 10SM BKN055 OVC085 19/14 A3016 RMK AO2 SLP219 T01890139=
202008031553 METAR KBLI 031553Z 20010G18KT 10SM SCT060 OVC085 18/14 A3015 RMK AO2 SLP214 T01780139=
202008031453 METAR KBLI 031453Z 19008KT 10SM SCT060 OVC090 17/13 A3014 RMK AO2 SLP210 T01670133 52010=
202008031353 METAR KBLI 031353Z 20004KT 10SM OVC060 17/14 A3013 RMK AO2 SLP207 T01670139=
202008031253 METAR KBLI 031253Z AUTO 20006KT 10SM BKN085 16/13 A3012 RMK AO2 SLP203 T01610133=
202008031153 METAR KBLI 031153Z AUTO 19005KT 10SM CLR 16/13 A3011 RMK AO2 SLP200 60000 T01610133 10189 20156 52008=
202008031053 METAR KBLI 031053Z AUTO 20005KT 10SM CLR 16/13 A3010 RMK AO2 SLP198 T01610133=
202008030953 METAR KBLI 030953Z AUTO 21006KT 10SM SCT080 17/14 A3009 RMK AO2 SLP194 T01670139=
202008030853 METAR KBLI 030853Z AUTO 22004KT 10SM FEW085 17/13 A3008 RMK AO2 SLP191 60000 T01670133 53004=
202008030753 METAR KBLI 030753Z AUTO 18003KT 10SM FEW080 18/14 A3008 RMK AO2 SLP191 T01780139 402330133=
202008030653 METAR KBLI 030653Z AUTO 00000KT 10SM FEW100 18/14 A3007 RMK AO2 RAB22E33 SLP186 P0000 T01780139=
202008030553 METAR KBLI 030553Z AUTO 20008KT 10SM OVC100 19/14 A3007 RMK AO2 SLP188 T01890139 10222 20189 51007=
202008030453 METAR KBLI 030453Z 20003KT 10SM BKN080 OVC110 20/13 A3007 RMK AO2 SLP188 T02000133=
202008030353 METAR KBLI 030353Z VRB04KT 10SM BKN080 OVC100 21/13 A3006 RMK AO2 SLP184 T02060133=
202008030253 METAR KBLI 030253Z 19007KT 10SM OVC100 21/13 A3005 RMK AO2 SLP181 T02060128 55002=
202008030153 METAR KBLI 030153Z 19006KT 10SM FEW080 BKN110 21/12 A3005 RMK AO2 SLP180 T02110122=
202008030053 METAR KBLI 030053Z 19009KT 10SM SCT080 21/12 A3005 RMK AO2 SLP181 T02110122=
202008022353 METAR KBLI 022353Z 21008KT 10SM SCT120 21/13 A3006 RMK AO2 SLP183 T02110133 10233 20194 56006=
202008022253 METAR KBLI 022253Z AUTO 20010KT 10SM SCT080 22/13 A3007 RMK AO2 SLP186 T02220128=
202008022153 METAR KBLI 022153Z 19010KT 10SM SCT080 23/14 A3006 RMK AO2 SLP185 T02280144=
202008022053 METAR KBLI 022053Z 19009KT 10SM CLR 22/14 A3007 RMK AO2 SLP188 T02220144 51006=
202008021953 METAR KBLI 021953Z 23009G16KT 10SM SCT080 22/14 A3007 RMK AO2 SLP187 T02170144=
202008021853 METAR KBLI 021853Z 19007KT 170V230 10SM FEW035 SCT070 21/14 A3006 RMK AO2 SLP185 T02060144=
202008021753 METAR KBLI 021753Z 20008G15KT 10SM CLR 19/14 A3005 RMK AO2 SLP182 T01940139 10200 20133 58001=
202008021653 METAR KBLI 021653Z 20006KT 10SM CLR 18/13 A3006 RMK AO2 SLP183 T01830133=
202008021553 METAR KBLI 021553Z 18007KT 10SM CLR 18/13 A3006 RMK AO2 SLP183 T01780128=
202008021453 METAR KBLI 021453Z 19006KT 10SM R16/2000VP6000FT CLR 17/13 A3006 RMK AO2 SLP183 T01720133 51004=
202008021353 METAR KBLI 021353Z 16005KT 10SM CLR 17/12 A3005 RMK AO2 SLP181 T01670122=
202008021253 METAR KBLI 021253Z AUTO 00000KT 10SM CLR 14/12 A3006 RMK AO2 SLP184 T01440117=
202008021153 METAR KBLI 021153Z AUTO 18004KT 10SM CLR 16/12 A3005 RMK AO2 SLP179 T01610117 10189 20161 51001=
202008021053 METAR KBLI 021053Z AUTO 18008KT 10SM CLR 18/12 A3005 RMK AO2 SLP179 T01780117=
202008020953 METAR KBLI 020953Z AUTO 18009KT 10SM CLR 17/12 A3005 RMK AO2 SLP180 T01720117=
202008020853 METAR KBLI 020853Z AUTO 17008KT 10SM CLR 17/12 A3004 RMK AO2 SLP179 T01720122 53000=
202008020753 METAR KBLI 020753Z AUTO 16006KT 10SM CLR 18/13 A3004 RMK AO2 SLP178 T01830128 402280156=
202008020653 METAR KBLI 020653Z AUTO 19006KT 10SM CLR 18/14 A3004 RMK AO2 SLP178 T01830139=
202008020553 METAR KBLI 020553Z AUTO 18004KT 10SM CLR 18/14 A3004 RMK AO2 SLP178 T01830139 10222 20178 58002=
202008020453 METAR KBLI 020453Z 19004KT 10SM CLR 19/15 A3005 RMK AO2 SLP181 T01890150=
202008020353 METAR KBLI 020353Z 18006KT 10SM CLR 20/14 A3005 RMK AO2 SLP180 T02000144=
202008020253 METAR KBLI 020253Z 19007KT 10SM CLR 21/14 A3005 RMK AO2 SLP180 T02060139 56010=
202008020153 METAR KBLI 020153Z 18008KT 10SM CLR 21/13 A3005 RMK AO2 SLP181 T02110133=
202008020053 METAR KBLI 020053Z 19009KT 10SM R16/5000VP6000FT FEW090 22/13 A3006 RMK AO2 SLP185 T02220133=
202008012353 METAR KBLI 012353Z 20008KT 10SM CLR 22/13 A3008 RMK AO2 SLP191 T02220133 10228 20189 56009=
202008012253 METAR KBLI 012253Z 20008KT 10SM FEW090 23/13 A3009 RMK AO2 SLP193 T02280133=
202008012153 METAR KBLI 012153Z VRB04KT 10SM CLR 22/14 A3009 RMK AO2 SLP195 T02220139=
202008012053 METAR KBLI 012053Z 20009KT 10SM CLR 22/14 A3011 RMK AO2 SLP200 T02170139 58006=
202008011953 METAR KBLI 011953Z 20008KT 10SM FEW030 FEW100 21/14 A3011 RMK AO2 SLP202 T02110139=
202008011853 METAR KBLI 011853Z 19007G15KT 10SM FEW025 SCT090 20/14 A3012 RMK AO2 SLP205 T02000139=
202008011753 METAR KBLI 011753Z 18011G16KT 10SM CLR 19/14 A3013 RMK AO2 SLP206 T01890139 10194 20156 51006=
202008011653 METAR KBLI 011653Z 18010KT 10SM CLR 18/13 A3012 RMK AO2 SLP206 T01830133=
202008011553 METAR KBLI 011553Z 18009KT 10SM CLR 18/13 A3011 RMK AO2 SLP202 T01830133=
202008011453 METAR KBLI 011453Z 18010KT 10SM CLR 17/13 A3011 RMK AO2 SLP200 T01720128 51013=
202008011353 METAR KBLI 011353Z 18005KT 10SM CLR 16/13 A3010 RMK AO2 SLP196 T01610128=
202008011253 METAR KBLI 011253Z AUTO 19005KT 10SM CLR 16/13 A3009 RMK AO2 SLP192 T01610128=
202008011153 METAR KBLI 011153Z AUTO 21004KT 10SM CLR 16/13 A3007 RMK AO2 SLP188 T01560128 10183 20156 53007=
202008011053 METAR KBLI 011053Z AUTO 20006KT 10SM CLR 16/13 A3006 RMK AO2 SLP184 T01560133=
202008010953 METAR KBLI 010953Z AUTO 19007KT 10SM CLR 16/13 A3006 RMK AO2 SLP183 T01610128=
202008010853 METAR KBLI 010853Z AUTO 19010G17KT 10SM CLR 17/13 A3005 RMK AO2 SLP180 T01670128 52003=
202008010753 METAR KBLI 010753Z AUTO VRB05KT 10SM CLR 17/13 A3004 RMK AO2 SLP179 T01670133 402280167=
202008010653 METAR KBLI 010653Z AUTO 20007KT 10SM CLR 18/13 A3004 RMK AO2 SLP179 T01780133=
202008010553 METAR KBLI 010553Z AUTO 19008KT 10SM CLR 18/13 A3004 RMK AO2 SLP177 T01830133 10228 20178 53012=
202008010453 METAR KBLI 010453Z 19009KT 10SM CLR 18/14 A3002 RMK AO2 SLP171 T01830139=
202008010353 METAR KBLI 010353Z 19010KT 10SM CLR 19/14 A3001 RMK AO2 SLP166 T01940139=
202008010253 METAR KBLI 010253Z 19011KT 10SM CLR 20/13 A3000 RMK AO2 SLP165 T02000133 51004=
202008010153 METAR KBLI 010153Z 18009KT 10SM CLR 21/13 A3000 RMK AO2 SLP164 T02110133=
202008010053 METAR KBLI 010053Z 18012G21KT 10SM CLR 23/13 A3000 RMK AO2 SLP162 T02280133=

# No short TAF reports from KBLI in databse.

###################################
#  large TAF from KBLI
###################################
202008312323 TAF KBLI 312323Z 0100/0124 18005KT P6SM SCT250 FM010700 17010KT
                       P6SM OVC050 FM011900 16010KT P6SM SCT250=
202008311720 TAF KBLI 311720Z 3118/0118 VRB03KT P6SM OVC035 FM311900 18006KT
                       P6SM BKN035 FM312200 18008KT P6SM SCT050
                       FM010000 18005KT P6SM SCT250 FM010700 17010KT
                       P6SM OVC050=
202008311126 TAF KBLI 311126Z 3112/0112 VRB03KT P6SM OVC035 FM311900 18006KT
                       P6SM BKN035 FM312200 18008KT P6SM SCT050
                       FM010000 18005KT P6SM SCT250 FM010700 17010KT
                       P6SM OVC050=
202008310902 KBLI 310902Z 3109/0106 VRB04KT P6SM OVC025 FM311100 18003KT P6SM
                       OVC015 FM311900 18006KT P6SM BKN035 FM312200
                       18008KT P6SM SCT050 FM010000 18005KT P6SM
                       SCT250=
202008310524 TAF KBLI 310524Z 3106/0106 20003KT P6SM OVC040 FM311100 18003KT
                       P6SM OVC015 FM311900 18006KT P6SM BKN035
                       FM312200 18008KT P6SM SCT050 FM010000 18005KT
                       P6SM SCT250=
202008310240 KBLI 310240Z 3103/3124 VRB03KT P6SM -SHRA OVC080 FM310400 18003KT
                       P6SM -SHRA OVC050 FM311100 18003KT P6SM
                       OVC015 FM311900 18006KT P6SM BKN035 FM312200
                       18008KT P6SM SCT050=
202008302320 TAF KBLI 302320Z 3100/3124 00000KT P6SM BKN120 BKN250 FM310400
                       18003KT P6SM -SHRA OVC050 FM311100 18003KT
                       P6SM OVC015 FM311900 18006KT P6SM BKN035
                       FM312200 18008KT P6SM SCT050=
202008301720 TAF KBLI 301720Z 3018/3118 19008KT P6SM SKC FM310000 17005KT P6SM
                       BKN090 OVC200 FM310400 18003KT P6SM -SHRA
                       OVC050 FM311100 18003KT P6SM OVC015=
202008301123 TAF KBLI 301123Z 3012/3112 VRB03KT P6SM SCT050 FM301800 17008KT
                       P6SM BKN250 FM302200 19005KT P6SM OVC060
                       FM310400 18003KT P6SM -SHRA OVC050=
202008300520 TAF KBLI 300520Z 3006/3106 18005KT P6SM SKC FM301800 17010KT P6SM
                       BKN250 FM302200 19005KT P6SM OVC100 FM310400
                       18003KT P6SM -SHRA OVC050=
202008292320 TAF KBLI 292320Z 3000/3024 30007KT P6SM FEW090 SCT250 FM300300
                       18005KT P6SM SCT250 FM301800 17010KT P6SM
                       BKN250=
202008291720 TAF KBLI 291720Z 2918/3018 31008G14KT P6SM SCT250 FM300300 18005KT
                       P6SM SCT250=
202008291120 TAF KBLI 291120Z 2912/3012 18005KT P6SM BKN050 FM291800 18008KT
                       P6SM FEW050 SCT250 FM300300 18005KT P6SM
                       SKC=
202008290520 TAF KBLI 290520Z 2906/3006 19006KT P6SM SCT090 FM291000 18005KT
                       P6SM BKN050 FM291800 18008KT P6SM FEW050
                       SCT250 FM300300 18005KT P6SM SKC=
202008282322 TAF KBLI 282322Z 2900/2924 19008KT P6SM SKC FM291000 18005KT P6SM
                       BKN050 FM291800 18008KT P6SM FEW050 SCT250=
202008281721 TAF KBLI 281721Z 2818/2918 19008KT P6SM SCT005
                      TEMPO 2818/2819 BKN005 FM282000 19008KT P6SM
                       SKC FM291000 18005KT P6SM BKN050 FM291500
                       18005KT P6SM BKN025=
202008281515 KBLI 281515Z 2815/2912 20005KT P6SM BKN005
                      TEMPO 2816/2818 SCT005 FM281800 20009KT P6SM
                       SKC FM290100 18006KT P6SM SCT250 FM291000
                       18007KT P6SM BKN100=
202008281120 TAF KBLI 281120Z 2812/2912 20006KT P6SM SKC FM281800 20009KT P6SM
                       SKC FM290100 18006KT P6SM SCT250 FM291000
                       18007KT P6SM BKN100=
202008280938 KBLI 280938Z 2810/2906 20006KT P6SM SKC
                      TEMPO 2810/2814 1 1/2SM BR FM281800 17009KT
                       P6SM SKC FM290100 18006KT P6SM SKC=
202008280520 TAF KBLI 280520Z 2806/2906 20006KT P6SM SKC FM281800 17009KT P6SM
                       SKC FM290100 18006KT P6SM SKC=
202008272320 TAF KBLI 272320Z 2800/2824 VRB03KT P6SM SKC FM280500 18008KT P6SM
                       FEW250 FM281800 17010G15KT P6SM SKC=
202008271729 TAF KBLI 271729Z 2718/2818 18007KT P6SM FEW008 FEW250 FM280200
                       VRB04KT P6SM SKC FM280500 18008KT P6SM FEW250=
202008271120 TAF KBLI 271120Z 2712/2812 17005KT P6SM FEW250 FM272000 20007KT
                       P6SM SKC FM280200 VRB04KT P6SM SKC FM280500
                       18008KT P6SM SKC=
202008270521 TAF KBLI 270521Z 2706/2806 VRB04KT P6SM SKC FM271200 17004KT P6SM
                       SCT250 FM272000 20007KT P6SM SKC FM280200
                       VRB04KT P6SM SKC=
202008262328 TAF KBLI 262328Z 2700/2724 VRB06KT P6SM SKC FM270300 17006KT P6SM
                       SKC FM271600 17004KT P6SM SCT250 FM272300
                       20007KT P6SM SKC=
202008261720 TAF KBLI 261720Z 2618/2718 20005KT P6SM OVC010 FM262000 20007KT
                       P6SM SKC FM270300 17006KT P6SM SKC FM271600
                       17004KT P6SM SCT250=
202008261120 TAF KBLI 261120Z 2612/2712 19006KT P6SM SKC FM261600 18005KT P6SM
                       SCT250 FM262000 20007KT P6SM SKC FM270300
                       17006KT P6SM SKC=
202008260520 TAF KBLI 260520Z 2606/2706 19006KT P6SM SKC FM261600 18005KT P6SM
                       BKN250 FM262000 20007KT P6SM SKC FM270300
                       17006KT P6SM SKC=
202008252320 TAF KBLI 252320Z 2600/2624 19006KT P6SM SKC FM261600 18005KT P6SM
                       BKN025 FM262000 20007KT P6SM SKC=
202008252057 KBLI 252057Z 2521/2618 VRB03KT P6SM FEW020 FM260000 19006KT P6SM
                       SKC FM261600 18005KT P6SM BKN025=
202008251720 TAF KBLI 251720Z 2518/2618 VRB03KT P6SM SCT007 OVC015 FM260000
                       19006KT P6SM SKC FM261600 18005KT P6SM BKN025=
202008251239 KBLI 251239Z 2513/2612 17004KT P6SM BKN012 FM251630 28005KT P6SM
                       SKC FM260700 18006KT P6SM SKC=
202008251126 TAF KBLI 251126Z 2512/2612 17004KT P6SM SCT010 SCT150 FM251900
                       28005KT P6SM SKC FM260700 18006KT P6SM SKC=
202008250526 TAF KBLI 250526Z 2506/2606 17004KT P6SM FEW250 FM251900 28005KT
                       P6SM FEW250=
202008242320 TAF KBLI 242320Z 2500/2524 32006KT P6SM FEW250 FM250300 17004KT
                       P6SM FEW250 FM251900 28005KT P6SM FEW250=
202008241725 TAF KBLI 241725Z 2418/2518 16003KT P6SM FEW020 SCT080 BKN150 FM242000
                       23005KT P6SM SCT250 FM250300 17004KT P6SM
                       FEW250=
202008241512 KBLI 241512Z 2415/2512 00000KT P6SM FEW060 BKN100
                      TEMPO 2415/2417 -SHRA SCT060 OVC100 FM241800
                       20004KT P6SM SCT100 BKN250=
202008241129 TAF KBLI 241129Z 2412/2512 00000KT P6SM VCSH OVC100 FM241500 17004KT
                       P6SM OVC015 FM241800 20004KT P6SM OVC250=
202008240522 TAF KBLI 240522Z 2406/2506 22003KT P6SM SCT120 FM241200 18003KT
                       P6SM OVC100 FM241500 17004KT P6SM OVC015
                       FM241800 20004KT P6SM OVC250=
202008232335 TAF KBLI 232335Z 2400/2424 29006KT P6SM FEW060 SCT110 FM240400
                       22003KT P6SM SCT120 FM241200 VRB05KT P6SM
                       BKN120=
202008231721 TAF KBLI 231721Z 2318/2418 VRB03KT P6SM FEW020 SCT035 FM231900
                       21005KT P6SM SCT120 FM241400 17005KT P6SM
                       BKN100=
202008231134 TAF KBLI 231134Z 2312/2412 00000KT P6SM SKC FM231300 VRB04KT P6SM
                       FEW150 FM231400 VRB03KT P6SM SCT150 FM231900
                       28008KT P6SM SCT120=
202008230535 TAF KBLI 230535Z 2306/2406 00000KT P6SM SKC FM231300 VRB04KT P6SM
                       FEW150 FM231400 VRB03KT P6SM SCT150 FM231900
                       28008KT P6SM SCT120=
202008222331 TAF KBLI 222331Z 2300/2324 VRB05KT P6SM FEW080 FM230500 VRB04KT
                       P6SM FEW250=
202008221729 TAF KBLI 221729Z 2218/2318 23006KT P6SM FEW050 SCT250 FM222100
                       23008KT P6SM SCT250 FM230400 18004KT P6SM
                       SCT250=
202008221120 TAF KBLI 221120Z 2212/2312 18006KT P6SM VCSH SCT025 SCT250 FM221500
                       18005KT P6SM BKN050 FM221900 18007KT P6SM
                       SCT050 SCT250 FM222100 23008KT P6SM SCT250
                       FM230300 18004KT P6SM SCT250=
202008220520 TAF KBLI 220520Z 2206/2306 18008KT P6SM VCSH SCT030 BKN060 OVC070
                       FM221200 18006KT P6SM VCSH OVC025 FM221900
                       18007KT P6SM BKN050 FM222100 23008KT P6SM
                       SCT250 FM230300 VRB03KT P6SM SCT250=
202008220200 KBLI 220200Z 2202/2224 18008KT P6SM VCSH SCT014 BKN035 OVC050 FM221200
                       18006KT P6SM VCSH OVC025 FM221900 18007KT
                       P6SM BKN050 FM222100 20008KT P6SM SCT250=
202008212339 TAF KBLI 212339Z 2200/2224 18012G20KT P6SM -SHRA SCT010 BKN018
                       OVC045 FM220200 17012KT P6SM VCSH OVC050
                       FM221500 18006KT P6SM OVC025 FM221900 18007KT
                       P6SM BKN050 FM222100 20008KT P6SM SCT250=
202008211733 TAF KBLI 211733Z 2118/2218 17020G30KT 4SM -RA BR OVC015 FM220000
                       17009KT P6SM OVC050 FM220900 17012KT P6SM
                       OVC025=
202008211130 TAF KBLI 211130Z 2112/2212 17012G20KT P6SM OVC030 FM211600 16009G15KT
                       4SM -RA BR OVC015 FM220000 17009KT P6SM
                       OVC050 FM220900 17012KT P6SM OVC025=
202008210523 TAF KBLI 210523Z 2106/2206 VRB03KT P6SM -RA SCT060 BKN100 FM211100
                       16010KT 6SM -SHRA OVC030 FM211600 16009G15KT
                       4SM -RA BR OVC015 FM220000 16007KT P6SM
                       -SHRA OVC050=
202008202336 TAF KBLI 202336Z 2100/2124 18007KT P6SM -RA SCT040 BKN070 OVC090
                       FM211100 16010KT 4SM -SHRA BR OVC030 FM211900
                       16007KT 4SM -RA BR OVC015=
202008201735 TAF KBLI 201735Z 2018/2118 17010KT P6SM FEW030 SCT070 FM202000
                       15010G15KT P6SM OVC050 FM210000 16006KT
                       P6SM OVC050 FM211300 17007KT 4SM -SHRA BR
                       OVC050 FM211700 16009G15KT 4SM -RA BR OVC025=
202008201139 TAF KBLI 201139Z 2012/2112 17005KT P6SM -RA OVC070 FM201800 15008KT
                       P6SM OVC035 FM202000 15010G15KT P6SM OVC050
                       FM210000 16006KT P6SM OVC050=
202008200523 TAF KBLI 200523Z 2006/2106 19005KT P6SM BKN050 BKN120 FM201100
                       17008KT P6SM -RA OVC050 FM201200 17005KT
                       4SM -RA BR OVC015 FM201800 15008KT P6SM
                       OVC025 FM202000 15010G15KT P6SM OVC050 FM210000
                       16006KT P6SM OVC050=
202008192320 TAF KBLI 192320Z 2000/2024 22005KT P6SM SCT250 FM201000 17008KT
                       6SM -RA BKN050 OVC100 FM201200 17005KT 4SM
                       -RA BR OVC015 FM201900 15008KT P6SM OVC025
                       FM202200 15010G15KT P6SM OVC050=
202008191720 TAF KBLI 191720Z 1918/2018 20006KT P6SM FEW250 FM192300 18007KT
                       P6SM OVC100 FM200900 17006KT 6SM -RA BKN050
                       OVC100 FM201200 17005KT 4SM -RA BR OVC015=
202008191126 TAF KBLI 191126Z 1912/2012 18004KT P6SM SCT250 FM191800 20006KT
                       P6SM BKN250 FM192300 18007KT P6SM OVC100
                       FM200900 17006KT 6SM -RA BKN050 OVC100=
202008190524 TAF KBLI 190524Z 1906/2006 18006KT P6SM BKN150 FM191800 20006KT
                       P6SM BKN250 FM192300 18007KT P6SM OVC100=
202008182320 TAF KBLI 182320Z 1900/1924 18006KT P6SM SCT060 SCT090 FM191500
                       18006KT P6SM OVC100 FM191800 21006KT P6SM
                       OVC250=
202008182107 KBLI 182107Z 1821/1918 18012G17KT P6SM SCT040 FM190000 18006KT
                       P6SM BKN250 FM191500 18006KT P6SM SCT025=
202008181738 TAF KBLI 181738Z 1818/1918 19012KT P6SM SCT030
                      TEMPO 1818/1820 BKN025 FM182000 18012G17KT
                       P6SM SKC FM190000 18006KT P6SM BKN250 FM191500
                       18006KT P6SM SCT025=
202008181133 TAF KBLI 181133Z 1812/1912 19010KT P6SM SKC FM181400 18008KT P6SM
                       SCT020 FM181800 19012KT P6SM SKC=
202008180526 TAF KBLI 180526Z 1806/1906 19010KT P6SM SKC FM181400 18008KT P6SM
                       SCT020 FM181800 19012KT P6SM SKC=
202008172322 TAF KBLI 172322Z 1800/1824 19010KT P6SM SKC FM181400 18008KT P6SM
                       SCT020 FM181800 19012KT P6SM SKC=
202008171724 TAF KBLI 171724Z 1718/1818 19010G18KT P6SM SKC FM180100 18008KT
                       P6SM SKC FM181400 18008KT P6SM SCT020=
202008171132 TAF KBLI 171132Z 1712/1812 19008KT P6SM SKC FM171700 19007G14KT
                       P6SM SKC FM180100 18005KT P6SM SKC FM180700
                       18010KT P6SM SKC=
202008170527 TAF KBLI 170527Z 1706/1806 18008KT P6SM VCSH SKC FM171700 19007G14KT
                       P6SM SKC FM180100 18005KT P6SM SKC=
202008162323 TAF KBLI 162323Z 1700/1724 18008KT P6SM SKC=
202008161729 TAF KBLI 161729Z 1618/1718 04006KT P6SM SKC FM162200 VRB03KT P6SM
                       SKC FM170600 18010KT P6SM SKC=
202008161150 KBLI 161150Z 1612/1712 00000KT P6SM SKC FM161400 16002KT P6SM SKC
                       FM162300 21006KT P6SM SKC FM171100 18012G18KT
                       P6SM FEW250=
202008161135 TAF KBLI 161135Z 1612/1712 00000KT 1SM BR VV001 FM161400 16002KT
                       P6SM SKC FM162300 21006KT P6SM SKC FM171100
                       18012G18KT P6SM FEW250=
202008160539 TAF KBLI 160539Z 1606/1706 VRB03KT P6SM SKC FM162300 21006KT P6SM
                       SKC=
202008152332 TAF KBLI 152332Z 1600/1624 29006KT P6SM SKC FM160400 VRB03KT P6SM
                       SKC FM162300 19006KT P6SM SKC=
202008151733 TAF KBLI 151733Z 1518/1618 03006KT P6SM SKC FM152100 29006KT P6SM
                       SKC FM160400 VRB03KT P6SM SKC=
202008151135 TAF KBLI 151135Z 1512/1612 00000KT P6SM SKC FM151800 35005KT P6SM
                       SKC FM160600 00000KT P6SM SKC=
202008150528 TAF KBLI 150528Z 1506/1606 00000KT P6SM SKC FM151200 36005KT P6SM
                       SKC FM151800 30007KT P6SM SKC=
202008142320 TAF KBLI 142320Z 1500/1524 31006KT P6SM SKC FM150500 VRB03KT P6SM
                       SKC FM152000 31006KT P6SM SKC=
202008141723 TAF KBLI 141723Z 1418/1518 31006KT P6SM SKC FM150500 VRB03KT P6SM
                       SKC=
202008141134 TAF KBLI 141134Z 1412/1512 00000KT P6SM SKC FM141400 15003KT P6SM
                       SKC FM142200 21007KT P6SM SKC=
202008140540 TAF KBLI 140540Z 1406/1506 19005KT P6SM SKC FM141400 15003KT P6SM
                       FEW250 FM141800 18007KT P6SM SKC=
202008132322 TAF KBLI 132322Z 1400/1424 18006KT P6SM FEW250 FM141400 15003KT
                       P6SM FEW250 FM141800 18007KT P6SM SKC=
202008131731 TAF KBLI 131731Z 1318/1418 18010KT P6SM FEW250 FM132300 21008KT
                       P6SM SKC FM140500 18006KT P6SM FEW250=
202008131127 TAF KBLI 131127Z 1312/1412 00000KT P6SM SCT050 SCT200 FM131500
                       17005KT P6SM FEW050 FM131800 18010KT P6SM
                       FEW200 FM132300 21008KT P6SM SKC=
202008130535 TAF KBLI 130535Z 1306/1406 17005KT P6SM FEW250 FM131200 18005KT
                       P6SM BKN050 FM131500 17005KT P6SM FEW050
                       FM131800 18010G15KT P6SM FEW250=
202008122320 TAF KBLI 122320Z 1300/1324 19006KT P6SM SKC FM130300 17005KT P6SM
                       FEW250 FM131200 18005KT P6SM BKN050 FM131500
                       17005KT P6SM FEW050 FM131800 18010G15KT
                       P6SM FEW250=
202008121726 TAF KBLI 121726Z 1218/1318 19010KT P6SM OVC035 FM130300 17005KT
                       P6SM FEW250 FM131200 18005KT P6SM BKN050
                       FM131500 17005KT P6SM FEW050=
202008121120 TAF KBLI 121120Z 1212/1312 17007KT P6SM OVC050 FM121700 17010KT
                       P6SM SCT250 FM130300 17005KT P6SM BKN250=
202008120609 TAF KBLI 120609Z 1206/1306 17010KT P6SM FEW250 FM121200 17010KT
                       P6SM OVC050 FM121700 17008G15KT P6SM SCT250=
202008112322 TAF KBLI 112322Z 1200/1224 20006KT P6SM BKN250 FM120400 17010KT
                       P6SM FEW250 FM121200 17010KT P6SM OVC050
                       FM121700 17008G15KT P6SM SCT250=
202008111740 TAF KBLI 111740Z 1118/1218 18010KT P6SM SCT005 BKN050 FM112000
                       18010G15KT P6SM BKN250 FM120400 17010KT
                       P6SM FEW250 FM121200 17010KT P6SM OVC050=
202008111127 TAF KBLI 111127Z 1112/1212 17009KT P6SM SCT250 FM111400 17010KT
                       P6SM BKN030 OVC250 FM111800 17010KT P6SM
                       SCT035 SCT250 FM120400 17006KT P6SM BKN250=
202008110521 TAF KBLI 110521Z 1106/1206 17009KT P6SM SCT250 FM111400 17010KT
                       P6SM BKN030 OVC250 FM111800 17010KT P6SM
                       SCT035 SCT250=
202008102320 TAF KBLI 102320Z 1100/1124 24008KT P6SM SCT250 FM110300 17009KT
                       P6SM SCT250 FM111400 17010KT P6SM BKN030
                       OVC250 FM111800 17010KT P6SM SCT035 SCT250=
202008101720 TAF KBLI 101720Z 1018/1118 VRB04KT P6SM FEW250 FM101900 21008KT
                       P6SM SCT250 FM110300 17009KT P6SM SCT250
                       FM111400 17010KT P6SM BKN030 OVC250=
202008101126 TAF KBLI 101126Z 1012/1112 18004KT P6SM FEW250 FM101900 25008KT
                       P6SM SCT250 FM110300 17005KT P6SM SCT250=
202008100524 TAF KBLI 100524Z 1006/1106 18004KT P6SM FEW250 FM101900 25008KT
                       P6SM SCT250 FM110300 17005KT P6SM SCT250=
202008092330 TAF KBLI 092330Z 1000/1024 24006KT P6SM SKC FM100300 18004KT P6SM
                       FEW250 FM101900 25008KT P6SM SCT250=
202008091721 TAF KBLI 091721Z 0918/1018 19006KT P6SM SKC FM092100 24010KT P6SM
                       SKC FM100300 18006KT P6SM FEW250=
202008091123 TAF KBLI 091123Z 0912/1012 VRB04KT P6SM FEW250 FM091700 17006KT
                       P6SM FEW250 FM092000 24010KT P6SM FEW250
                       FM100300 17006KT P6SM FEW250=
202008090520 TAF KBLI 090520Z 0906/1006 VRB04KT P6SM FEW250 FM091700 17006KT
                       P6SM FEW250 FM092000 24010KT P6SM FEW250
                       FM100300 17006KT P6SM FEW250=
202008082322 TAF KBLI 082322Z 0900/0924 VRB05KT P6SM SCT070 FM090300 VRB04KT
                       P6SM FEW250 FM091800 34007KT P6SM FEW250=
202008081953 KBLI 081953Z 0820/0918 22006KT P6SM VCSH BKN020 BKN050 FM082100
                       19007KT P6SM BKN050 FM090300 VRB04KT P6SM
                       FEW250=
202008081725 TAF KBLI 081725Z 0818/0918 22006KT P6SM VCSH BKN015 OVC040 FM082000
                       19007KT P6SM BKN050 FM090300 VRB04KT P6SM
                       FEW250=
202008081504 KBLI 081504Z 0815/0912 VRB03KT P6SM VCSH BKN005 OVC020 FM082000
                       19007KT P6SM OVC050 FM090300 17004KT P6SM
                       SCT050=
202008081325 KBLI 081325Z 0813/0912 19005KT P6SM OVC020
                      TEMPO 0813/0815 6SM BR BKN009 FM082000 19007KT
                       P6SM OVC050 FM090300 17004KT P6SM SCT050=
202008081120 TAF KBLI 081120Z 0812/0912 19005KT P6SM OVC020 FM082000 19007KT
                       P6SM OVC050 FM090300 17004KT P6SM SCT050=
202008080520 TAF KBLI 080520Z 0806/0906 18005KT P6SM VCSH SCT035 BKN080 FM080900
                       19005KT P6SM OVC020 FM082000 19007KT P6SM
                       OVC050 FM090300 17004KT P6SM SCT050=
202008072339 TAF KBLI 072339Z 0800/0824 18005KT P6SM VCSH SCT035 BKN080 FM080900
                       19005KT P6SM OVC020 FM082000 19007KT P6SM
                       OVC050=
202008072105 KBLI 072105Z 0721/0818 19008G15KT P6SM SCT050 BKN100 FM080200 18005KT
                       P6SM VCSH BKN025 OVC050 FM081500 19005KT
                       P6SM OVC030=
202008071737 TAF KBLI 071737Z 0718/0818 17012G18KT P6SM SCT020 OVC050 FM072100
                       22005KT P6SM BKN050 FM080300 18005KT P6SM
                       VCSH BKN025 OVC050=
202008071121 TAF KBLI 071121Z 0712/0812 17008G15KT P6SM SCT050 OVC100 FM071800
                       17012G18KT P6SM OVC050 FM072100 22005KT
                       P6SM BKN050 FM080300 18005KT P6SM VCSH BKN025
                       OVC050=
202008070520 TAF KBLI 070520Z 0706/0806 17010G15KT P6SM BKN070 BKN090 FM071200
                       17008KT P6SM OVC025 FM071800 17012G18KT
                       P6SM OVC050=
202008062336 TAF KBLI 062336Z 0700/0724 19009G18KT P6SM SCT070 BKN080 FM071200
                       17008KT P6SM OVC025 FM071800 17012G18KT
                       P6SM OVC050=
202008061735 TAF KBLI 061735Z 0618/0718 17012G22KT P6SM VCSH SCT007 SCT020 OVC070
                       TEMPO 0618/0621 OVC020 FM062100 19012G18KT
                       P6SM OVC050 FM071200 17008KT P6SM OVC025=
202008061303 KBLI 061303Z 0613/0712 17012G22KT P6SM -SHRA SCT007 OVC015
                      TEMPO 0613/0617 4SM -SHRA FM062100 19012G18KT
                       P6SM OVC050=
202008061120 TAF KBLI 061120Z 0612/0712 18010G17KT P6SM VCSH BKN050 BKN100 FM061300
                       17012G22KT 4SM -SHRA BR SCT007 OVC015 FM062100
                       19012G18KT P6SM OVC050=
202008060522 TAF KBLI 060522Z 0606/0706 19010KT P6SM FEW050 BKN080 FM060900
                       18010KT P6SM BKN050 BKN100 FM061300 17012G22KT
                       4SM -SHRA BR SCT007 OVC015 FM062100 19012G18KT
                       P6SM OVC050=
202008060302 KBLI 060302Z 0603/0624 19010KT P6SM FEW050 SCT150 FM060900 18010KT
                       P6SM BKN050 BKN100 FM061200 17012G22KT 4SM
                       -SHRA BR SCT007 OVC015 FM062100 19012G18KT
                       P6SM OVC050=
202008052323 TAF KBLI 052323Z 0600/0624 19010G20KT P6SM SCT250 FM060900 18010KT
                       P6SM BKN050 OVC100 FM061200 17012G22KT 4SM
                       -SHRA BR SCT007 OVC015 FM062100 19012G18KT
                       P6SM OVC050=
202008051723 TAF KBLI 051723Z 0518/0618 19012G22KT P6SM SKC FM060000 17010KT
                       P6SM SCT250 FM060900 18010KT P6SM BKN050
                       OVC100 FM061200 17012G22KT 4SM -SHRA BR
                       SCT007 OVC015=
202008051120 TAF KBLI 051120Z 0512/0612 18004KT P6SM SKC
                      TEMPO 0512/0516 SCT015 FM051900 17010G15KT
                       P6SM SKC FM060000 17010KT P6SM SCT250 FM060900
                       18010KT P6SM BKN050 OVC100=
202008050520 TAF KBLI 050520Z 0506/0606 18004KT P6SM SKC FM051200 18010G16KT
                       P6SM SCT015 FM051900 17010G15KT P6SM SKC=
202008042327 TAF KBLI 042327Z 0500/0524 34006KT P6SM SKC FM051200 18010G16KT
                       P6SM SCT015 FM051900 17010G15KT P6SM SKC=
202008041729 TAF KBLI 041729Z 0418/0518 20006KT P6SM SCT015 FM042000 19010KT
                       P6SM SKC FM051200 18010G16KT P6SM SCT015=
202008041510 KBLI 041510Z 0415/0512 18004KT 2SM BR OVC002 FM041800 22006KT P6SM
                       SCT004 FM042000 18010KT P6SM SKC=
202008041302 KBLI 041302Z 0413/0512 18004KT P6SM OVC004 FM041600 22006KT P6SM
                       SCT015 FM041900 18010KT P6SM SKC=
202008041120 TAF KBLI 041120Z 0412/0512 18004KT P6SM BKN009 FM041600 22006KT
                       P6SM SCT015 FM041900 18010KT P6SM SKC=
202008040520 TAF KBLI 040520Z 0406/0506 19006KT P6SM SKC=
202008032330 TAF KBLI 032330Z 0400/0424 19008KT P6SM SCT060=
202008031732 TAF KBLI 031732Z 0318/0418 19012KT P6SM BKN050 OVC080 FM040100
                       19008KT P6SM SCT080=
202008031120 TAF KBLI 031120Z 0312/0412 19006KT P6SM SCT040 BKN080
                      TEMPO 0315/0319 BKN040 OVC080 FM040100 18007KT
                       P6SM SCT080=
202008030522 TAF KBLI 030522Z 0306/0406 20003KT P6SM BKN080 OVC120 FM031000
                       18008KT P6SM SCT020 BKN040 FM031200 18008KT
                       P6SM SCT020 OVC040
                      TEMPO 0312/0316 -SHRA OVC020 FM032100 21007KT
                       P6SM SCT025 BKN040 FM040100 18007KT P6SM
                       SCT050=
202008022320 TAF KBLI 022320Z 0300/0324 20010KT P6SM BKN100 FM031000 18008KT
                       P6SM SCT020 BKN040 FM031200 18008KT P6SM
                       BKN020 BKN040
                      TEMPO 0312/0316 -SHRA OVC015 FM032100 21007KT
                       P6SM SCT025 BKN040=
202008021723 TAF KBLI 021723Z 0218/0318 20007KT P6SM FEW200 FM030000 20007KT
                       P6SM SCT050 BKN120 BKN200 FM031000 18007KT
                       P6SM BKN015 OVC030
                      TEMPO 0312/0316 3SM -DZ BR OVC010=
202008021124 TAF KBLI 021124Z 0212/0312 18008KT P6SM SKC FM022100 18010G16KT
                       P6SM BKN150 FM030200 18005KT P6SM BKN090
                       FM031000 17004KT P6SM BKN050=
202008020520 TAF KBLI 020520Z 0206/0306 18007KT P6SM FEW250 FM030000 19004KT
                       P6SM OVC090=
202008012320 TAF KBLI 012320Z 0200/0224 20008KT P6SM SCT120 SCT200 FM021200
                       18006KT P6SM SCT015
                      TEMPO 0213/0216 BKN012 FM022000 21007KT P6SM
                       SCT030 BKN120 BKN200=
202008011720 TAF KBLI 011720Z 0118/0218 18010KT P6SM SCT020 SCT120 FM020000
                       21007KT P6SM SCT150 FM021200 18005KT P6SM
                       SCT015
                      TEMPO 0213/0217 BKN015=
202008011509 KBLI 011509Z 0115/0212 18010KT P6SM SCT020 SCT120
                      TEMPO 0115/0119 BKN015 FM020000 21007KT P6SM
                       SCT250 FM021000 18010KT P6SM BKN015=
202008011120 TAF KBLI 011120Z 0112/0212 20006KT P6SM BKN250 FM011400 18010KT
                       P6SM OVC020 FM011900 17010G18KT P6SM SCT250=
202008010521 TAF KBLI 010521Z 0106/0206 19010KT P6SM BKN250 FM011400 18010KT
                       P6SM OVC025 FM011900 17010G18KT P6SM SCT250=
202008010208 KBLI 010208Z 0102/0124 18010KT P6SM SCT250 FM011400 18010KT P6SM
                       OVC050 FM011900 17010G18KT P6SM SCT250=