##########################################################
# Query made at 02/16/2025 22:58:44 UTC
# Time interval: from 06/01/2021 00:00  to 06/30/2021 23:59  UTC
##########################################################

##########################################################
# KBLI, Bellingham, Bellingham International Airport (United States)
# WMO index: -----. WIGOS ID: Unknown
# Latitude 48-47-58N. Longitude 122-32-21W. Altitude 48 m.
##########################################################

###################################
#  METAR/SPECI from KBLI
###################################
202106302353 METAR KBLI 302353Z 18011G18KT 10SM CLR 22/16 A2988 RMK AO2 SLP121 T02170161 10217 20194 55004=
202106302253 METAR KBLI 302253Z 19007G17KT 160V220 10SM CLR 22/17 A2987 RMK AO2 SLP121 T02170167=
202106302153 METAR KBLI 302153Z 18010G17KT 10SM CLR 21/16 A2988 RMK AO2 SLP122 T02060161=
202106302053 METAR KBLI 302053Z 18010G16KT 10SM SCT028 21/16 A2989 RMK AO2 SLP125 T02110156 51002=
202106301953 METAR KBLI 301953Z 19009G17KT 170V240 10SM SCT022 20/16 A2989 RMK AO2 SLP125 T02000156=
202106301853 METAR KBLI 301853Z 18008G16KT 10SM SCT020 19/16 A2989 RMK AO2 SLP126 T01940156=
202106301753 METAR KBLI 301753Z 16011G17KT 10SM OVC018 19/16 A2988 RMK AO2 SLP124 T01940156 10194 20167 51014=
202106301653 METAR KBLI 301653Z 18014G20KT 10SM BKN016 19/16 A2987 RMK AO2 SLP121 T01890156=
202106301600 SPECI KBLI 301600Z 17013G18KT 10SM BKN014 18/16 A2986 RMK AO2 T01830156=
202106301553 METAR KBLI 301553Z 18010G18KT 10SM SCT014 18/16 A2986 RMK AO2 SLP117 T01830156=
202106301453 METAR KBLI 301453Z 18010G25KT 10SM FEW014 18/15 A2984 RMK AO2 SLP110 T01780150 50003=
202106301353 METAR KBLI 301353Z 18010G17KT 10SM FEW014 17/15 A2984 RMK AO2 SLP111 T01720150=
202106301253 METAR KBLI 301253Z AUTO 18008KT 10SM CLR 17/15 A2984 RMK AO2 SLP110 T01670150=
202106301153 METAR KBLI 301153Z AUTO 19008KT 10SM CLR 17/15 A2983 RMK AO2 SLP107 T01670150 10206 20167 51012=
202106301053 METAR KBLI 301053Z AUTO 19008KT 10SM CLR 18/15 A2982 RMK AO2 SLP103 T01780150=
202106300953 METAR KBLI 300953Z AUTO 18007KT 10SM CLR 18/15 A2981 RMK AO2 SLP099 T01830150=
202106300853 METAR KBLI 300853Z AUTO 17010G18KT 10SM CLR 18/15 A2980 RMK AO2 SLP095 T01830150 51018=
202106300753 METAR KBLI 300753Z AUTO 18008G18KT 10SM CLR 18/15 A2979 RMK AO2 SLP093 T01830150 402610183=
202106300653 METAR KBLI 300653Z AUTO 17014G23KT 10SM CLR 19/14 A2977 RMK AO2 PK WND 18032/0611 SLP084 T01890144=
202106300553 METAR KBLI 300553Z AUTO 17016G28KT 10SM CLR 21/14 A2974 RMK AO2 PK WND 15033/0541 SLP077 T02060144 10261 20206 53019=
202106300453 METAR KBLI 300453Z 17018G31KT 10SM CLR 22/14 A2972 RMK AO2 PK WND 16032/0428 SLP067 T02220144=
202106300353 METAR KBLI 300353Z 17014G29KT 10SM CLR 23/15 A2969 RMK AO2 PK WND 15029/0349 SLP057 T02330150=
202106300253 METAR KBLI 300253Z 17013G25KT 10SM CLR 24/16 A2969 RMK AO2 SLP058 T02390156 55002=
202106300153 METAR KBLI 300153Z 19012G23KT 10SM CLR 24/18 A2969 RMK AO2 SLP057 T02390178=
202106300053 METAR KBLI 300053Z 19010G20KT 10SM CLR 23/18 A2969 RMK AO2 SLP058 T02330178=
202106292353 METAR KBLI 292353Z 18012G20KT 10SM CLR 26/18 A2969 RMK AO2 SLP060 T02560178 10256 20206 58012=
202106292253 METAR KBLI 292253Z 19008G20KT 10SM CLR 24/18 A2971 RMK AO2 SLP065 T02440178=
202106292153 METAR KBLI 292153Z 18009G18KT 160V230 10SM CLR 24/18 A2972 RMK AO2 SLP068 T02440178=
202106292053 METAR KBLI 292053Z 19010G16KT 10SM CLR 24/18 A2973 RMK AO2 SLP071 T02440178 58011=
202106291953 METAR KBLI 291953Z 18010G15KT 10SM CLR 24/17 A2975 RMK AO2 SLP076 T02440172=
202106291853 METAR KBLI 291853Z 18008KT 160V220 10SM CLR 23/17 A2975 RMK AO2 SLP079 T02280172=
202106291753 METAR KBLI 291753Z 20009G15KT 10SM CLR 21/17 A2976 RMK AO2 SLP082 T02110167 10211 20183 58006=
202106291653 METAR KBLI 291653Z 19010KT 10SM CLR 21/17 A2977 RMK AO2 SLP084 T02060167=
202106291553 METAR KBLI 291553Z 19012G22KT 10SM CLR 20/17 A2978 RMK AO2 SLP087 T02000167=
202106291453 METAR KBLI 291453Z 19013G19KT 10SM CLR 20/17 A2978 RMK AO2 SLP087 T02000167 51012=
202106291353 METAR KBLI 291353Z 19011G20KT 10SM CLR 19/16 A2977 RMK AO2 SLP085 T01890161=
202106291253 METAR KBLI 291253Z AUTO 19011G24KT 10SM CLR 20/16 A2976 RMK AO2 SLP079 T02000161=
202106291153 METAR KBLI 291153Z AUTO VRB06G16KT 10SM CLR 20/16 A2974 RMK AO2 SLP076 T02000161 10256 20200 53020=
202106291053 METAR KBLI 291053Z AUTO 00000KT 10SM CLR 20/19 A2971 RMK AO2 SLP063 T02000189=
202106290953 METAR KBLI 290953Z AUTO 00000KT 10SM CLR 22/19 A2969 RMK AO2 SLP057 T02170189=
202106290853 METAR KBLI 290853Z AUTO 00000KT 10SM CLR 22/19 A2969 RMK AO2 SLP055 T02170194 53006=
202106290753 METAR KBLI 290753Z AUTO 00000KT 10SM CLR 23/20 A2968 RMK AO2 SLP052 T02330200 403720189=
202106290653 METAR KBLI 290653Z AUTO 30003KT 10SM CLR 25/21 A2967 RMK AO2 SLP049 T02500211=
202106290553 METAR KBLI 290553Z AUTO 00000KT 10SM CLR 25/22 A2967 RMK AO2 SLP049 T02500217 10367 20250 51004=
202106290453 METAR KBLI 290453Z 00000KT 10SM CLR 27/21 A2967 RMK AO2 SLP049 T02670211=
202106290353 METAR KBLI 290353Z 00000KT 10SM CLR 28/24 A2966 RMK AO2 SLP045 T02780244=
202106290253 METAR KBLI 290253Z 00000KT 10SM CLR 31/26 A2965 RMK AO2 SLP044 T03110256 56011=
202106290153 METAR KBLI 290153Z 00000KT 10SM CLR 35/22 A2966 RMK AO2 SLP045 T03500222=
202106290053 METAR KBLI 290053Z 29003KT 10SM CLR 37/21 A2967 RMK AO2 SLP050 T03670211=
202106282353 METAR KBLI 282353Z 28005KT 8SM CLR 36/20 A2969 RMK AO2 SLP056 T03610200 10372 20311 58018=
202106282253 METAR KBLI 282253Z 31007KT 7SM CLR 37/21 A2971 RMK AO2 SLP062 T03720206=
202106282153 METAR KBLI 282153Z 30007KT 10SM CLR 37/21 A2972 RMK AO2 SLP067 T03670206=
202106282053 METAR KBLI 282053Z VRB05KT 10SM CLR 37/21 A2974 RMK AO2 SLP073 T03670211 58014=
202106281953 METAR KBLI 281953Z 29004KT 10SM CLR 34/21 A2976 RMK AO2 SLP082 T03440206=
202106281853 METAR KBLI 281853Z 28005KT 10SM CLR 33/20 A2978 RMK AO2 SLP088 T03330200=
202106281753 METAR KBLI 281753Z VRB03KT 10SM CLR 31/21 A2978 RMK AO2 SLP088 T03110211 10311 20189 58006=
202106281653 METAR KBLI 281653Z 18003KT 10SM CLR 29/21 A2979 RMK AO2 SLP093 T02890206=
202106281553 METAR KBLI 281553Z 00000KT 10SM CLR 29/20 A2980 RMK AO2 SLP094 T02940200=
202106281453 METAR KBLI 281453Z 00000KT 10SM CLR 27/19 A2980 RMK AO2 SLP094 T02670194 58001=
202106281353 METAR KBLI 281353Z 00000KT 10SM CLR 24/20 A2981 RMK AO2 SLP096 T02390200=
202106281253 METAR KBLI 281253Z AUTO 33003KT 10SM CLR 20/19 A2980 RMK AO2 SLP095 T02000189=
202106281153 METAR KBLI 281153Z AUTO 00000KT 10SM CLR 19/19 A2980 RMK AO2 SLP095 T01940189 10233 20194 51003=
202106281053 METAR KBLI 281053Z AUTO 00000KT 10SM CLR 21/19 A2980 RMK AO2 SLP094 T02060189=
202106280953 METAR KBLI 280953Z AUTO 00000KT 10SM CLR 21/19 A2980 RMK AO2 SLP094 T02060189=
202106280853 METAR KBLI 280853Z AUTO 00000KT 10SM CLR 22/19 A2979 RMK AO2 SLP092 T02170189 53006=
202106280753 METAR KBLI 280753Z AUTO 00000KT 10SM CLR 22/19 A2978 RMK AO2 SLP089 T02220194 403500189=
202106280653 METAR KBLI 280653Z AUTO 00000KT 10SM CLR 22/19 A2978 RMK AO2 SLP087 T02220189=
202106280553 METAR KBLI 280553Z AUTO 00000KT 10SM CLR 24/19 A2977 RMK AO2 SLP086 T02390189 10344 20228 55001=
202106280453 METAR KBLI 280453Z 00000KT 10SM CLR 24/20 A2977 RMK AO2 SLP085 T02440200=
202106280353 METAR KBLI 280353Z 00000KT 10SM CLR 27/22 A2977 RMK AO2 SLP083 T02670217=
202106280253 METAR KBLI 280253Z 00000KT 10SM CLR 29/23 A2978 RMK AO2 SLP087 T02940228 56014=
202106280153 METAR KBLI 280153Z 26003KT 10SM CLR 33/20 A2979 RMK AO2 SLP090 T03280200=
202106280053 METAR KBLI 280053Z 28005KT 10SM CLR 34/19 A2980 RMK AO2 SLP095 T03390194=
202106272353 METAR KBLI 272353Z 29006KT 10SM CLR 34/19 A2982 RMK AO2 SLP101 T03440194 10350 20311 56017=
202106272253 METAR KBLI 272253Z 28007KT 10SM CLR 34/21 A2983 RMK AO2 SLP105 T03440206=
202106272153 METAR KBLI 272153Z 30007KT 10SM CLR 35/21 A2985 RMK AO2 SLP112 T03500211=
202106272053 METAR KBLI 272053Z 27005KT 10SM CLR 34/21 A2987 RMK AO2 SLP118 T03440211 58020=
202106271953 METAR KBLI 271953Z 30007KT 10SM CLR 33/20 A2990 RMK AO2 SLP127 T03330200=
202106271853 METAR KBLI 271853Z 29008KT 10SM CLR 32/19 A2992 RMK AO2 SLP134 T03220194=
202106271753 METAR KBLI 271753Z 31006KT 10SM CLR 32/22 A2993 RMK AO2 SLP138 T03220217 10322 20189 58006=
202106271653 METAR KBLI 271653Z 30005KT 10SM CLR 31/22 A2994 RMK AO2 SLP141 T03060217=
202106271553 METAR KBLI 271553Z VRB04KT 10SM CLR 28/21 A2995 RMK AO2 SLP144 T02830211=
202106271453 METAR KBLI 271453Z 33004KT 10SM CLR 26/21 A2995 RMK AO2 SLP145 T02610206 51003=
202106271353 METAR KBLI 271353Z 00000KT 10SM CLR 23/19 A2995 RMK AO2 SLP144 T02330194=
202106271253 METAR KBLI 271253Z AUTO 00000KT 10SM CLR 20/18 A2994 RMK AO2 SLP143 T02000178=
202106271153 METAR KBLI 271153Z AUTO 00000KT 10SM CLR 19/18 A2994 RMK AO2 SLP142 T01940178 10239 20189 51005=
202106271053 METAR KBLI 271053Z AUTO 00000KT 10SM CLR 20/18 A2993 RMK AO2 SLP140 T02000178=
202106270953 METAR KBLI 270953Z AUTO 00000KT 10SM CLR 21/18 A2993 RMK AO2 SLP138 T02060183=
202106270853 METAR KBLI 270853Z AUTO 00000KT 10SM CLR 22/19 A2992 RMK AO2 SLP136 T02170189 53002=
202106270753 METAR KBLI 270753Z AUTO 00000KT 10SM CLR 22/19 A2992 RMK AO2 SLP135 T02170194 403500167=
202106270653 METAR KBLI 270653Z AUTO 00000KT 10SM CLR 22/19 A2991 RMK AO2 SLP131 T02220194=
202106270553 METAR KBLI 270553Z AUTO 00000KT 10SM CLR 23/22 A2992 RMK AO2 SLP134 T02280217 10344 20228 55000=
202106270453 METAR KBLI 270453Z 00000KT 10SM CLR 26/22 A2991 RMK AO2 SLP132 T02560222=
202106270353 METAR KBLI 270353Z 00000KT 10SM CLR 27/21 A2991 RMK AO2 SLP131 T02720211=
202106270253 METAR KBLI 270253Z 00000KT 10SM CLR 31/22 A2992 RMK AO2 SLP134 T03060217 56011=
202106270153 METAR KBLI 270153Z 00000KT 10SM CLR 33/19 A2992 RMK AO2 SLP135 T03280194=
202106270053 METAR KBLI 270053Z 30003KT 10SM CLR 34/20 A2993 RMK AO2 SLP139 T03390200=
202106262353 METAR KBLI 262353Z 28005KT 10SM CLR 33/19 A2995 RMK AO2 SLP145 T03330194 10350 20294 56012=
202106262253 METAR KBLI 262253Z VRB04KT 10SM CLR 34/20 A2996 RMK AO2 SLP149 T03390200=
202106262153 METAR KBLI 262153Z VRB03KT 10SM CLR 34/21 A2997 RMK AO2 SLP153 T03440206=
202106262053 METAR KBLI 262053Z 30005KT 10SM CLR 34/21 A2999 RMK AO2 SLP158 T03390206 58008=
202106261953 METAR KBLI 261953Z 30004KT 10SM CLR 32/21 A3000 RMK AO2 SLP161 T03220211=
202106261853 METAR KBLI 261853Z 30003KT 10SM CLR 32/21 A3001 RMK AO2 SLP165 T03220206=
202106261753 METAR KBLI 261753Z 28004KT 10SM CLR 29/19 A3001 RMK AO2 SLP166 T02940194 10294 20172 58005=
202106261653 METAR KBLI 261653Z 34003KT 10SM CLR 28/19 A3002 RMK AO2 SLP171 T02780189=
202106261553 METAR KBLI 261553Z 00000KT 10SM CLR 26/18 A3003 RMK AO2 SLP171 T02610183=
202106261453 METAR KBLI 261453Z 00000KT 10SM CLR 24/18 A3003 RMK AO2 SLP172 T02390183 51009=
202106261353 METAR KBLI 261353Z 00000KT 10SM CLR 21/18 A3003 RMK AO2 SLP171 T02110183=
202106261253 METAR KBLI 261253Z AUTO 00000KT 10SM CLR 19/17 A3002 RMK AO2 SLP168 T01890172=
202106261153 METAR KBLI 261153Z AUTO 00000KT 10SM CLR 17/17 A3000 RMK AO2 SLP163 T01720167 10206 20167 53012=
202106261053 METAR KBLI 261053Z AUTO 00000KT 10SM CLR 17/17 A2999 RMK AO2 SLP159 T01720167=
202106260953 METAR KBLI 260953Z AUTO 00000KT 10SM CLR 18/17 A2997 RMK AO2 SLP155 T01830167=
202106260853 METAR KBLI 260853Z AUTO 18003KT 10SM CLR 19/17 A2997 RMK AO2 SLP151 T01940167 51008=
202106260753 METAR KBLI 260753Z AUTO 00000KT 10SM CLR 19/17 A2996 RMK AO2 SLP149 T01890167 403000144=
202106260653 METAR KBLI 260653Z AUTO 00000KT 10SM CLR 19/17 A2995 RMK AO2 SLP147 T01940167=
202106260553 METAR KBLI 260553Z AUTO 00000KT 10SM CLR 20/17 A2994 RMK AO2 SLP144 T02000167 10300 20194 50002=
202106260453 METAR KBLI 260453Z 00000KT 10SM CLR 21/17 A2995 RMK AO2 SLP146 T02060172=
202106260353 METAR KBLI 260353Z 10SM CLR 22/18 A2993 RMK AO2 SLP141 T02220178=
202106260253 METAR KBLI 260253Z 21003KT 10SM CLR 25/17 A2994 RMK AO2 SLP142 T02500172 56013=
202106260153 METAR KBLI 260153Z 18004KT 10SM CLR 27/18 A2995 RMK AO2 SLP145 T02720183=
202106260053 METAR KBLI 260053Z 18006KT 10SM CLR 28/19 A2996 RMK AO2 SLP151 T02830189=
202106252353 METAR KBLI 252353Z VRB05KT 10SM CLR 29/17 A2997 RMK AO2 SLP155 T02890172 10294 20267 58015=
202106252253 METAR KBLI 252253Z 25005KT 10SM CLR 28/18 A2999 RMK AO2 SLP161 T02780178=
202106252153 METAR KBLI 252153Z 10SM CLR 28/18 A3001 RMK AO2 SLP165 T02830178=
202106252053 METAR KBLI 252053Z 29008KT 10SM CLR 29/16 A3002 RMK AO2 SLP169 T02890161 56013=
202106251953 METAR KBLI 251953Z 28008KT 10SM CLR 29/17 A3002 RMK AO2 SLP171 T02890172=
202106251853 METAR KBLI 251853Z 33008KT 10SM CLR 28/18 A3003 RMK AO2 SLP175 T02830178=
202106251753 METAR KBLI 251753Z 33007KT 10SM CLR 27/18 A3006 RMK AO2 SLP183 T02670178 10267 20144 58001=
202106251653 METAR KBLI 251653Z 32007KT 10SM CLR 26/19 A3006 RMK AO2 SLP183 T02610189=
202106251553 METAR KBLI 251553Z 32005KT 10SM CLR 23/18 A3006 RMK AO2 SLP185 T02280178=
202106251453 METAR KBLI 251453Z 33003KT 10SM CLR 21/17 A3006 RMK AO2 SLP184 T02060167 51004=
202106251353 METAR KBLI 251353Z 00000KT 10SM CLR 19/16 A3006 RMK AO2 SLP184 T01890161=
202106251253 METAR KBLI 251253Z AUTO 00000KT 10SM CLR 16/15 A3005 RMK AO2 SLP182 T01560150=
202106251153 METAR KBLI 251153Z AUTO 00000KT 10SM CLR 16/15 A3005 RMK AO2 SLP180 T01560150 10183 20150 51004=
202106251053 METAR KBLI 251053Z AUTO 00000KT 10SM CLR 16/15 A3005 RMK AO2 SLP180 T01560150=
202106250953 METAR KBLI 250953Z AUTO 00000KT 10SM CLR 16/15 A3004 RMK AO2 SLP179 T01560150=
202106250853 METAR KBLI 250853Z AUTO 00000KT 10SM CLR 16/16 A3004 RMK AO2 SLP176 T01610156 50004=
202106250753 METAR KBLI 250753Z AUTO 21003KT 10SM CLR 18/16 A3004 RMK AO2 SLP178 T01780156 402500139=
202106250653 METAR KBLI 250653Z AUTO 18004KT 10SM CLR 18/16 A3004 RMK AO2 SLP176 T01830156=
202106250553 METAR KBLI 250553Z AUTO 00000KT 10SM CLR 18/16 A3003 RMK AO2 SLP173 T01780161 10239 20172 50002=
202106250453 METAR KBLI 250453Z 00000KT 10SM CLR 19/16 A3003 RMK AO2 SLP174 T01890161=
202106250353 METAR KBLI 250353Z 19003KT 10SM CLR 21/16 A3002 RMK AO2 SLP172 T02060161=
202106250253 METAR KBLI 250253Z 00000KT 10SM CLR 22/16 A3002 RMK AO2 SLP170 T02220156 55004=
202106250153 METAR KBLI 250153Z 00000KT 10SM CLR 23/16 A3002 RMK AO2 SLP170 T02330156=
202106250053 METAR KBLI 250053Z 10SM CLR 24/16 A3002 RMK AO2 SLP171 T02390156=
202106242353 METAR KBLI 242353Z 28005KT 10SM CLR 24/15 A3003 RMK AO2 SLP175 T02390150 10250 20178 55007=
202106242253 METAR KBLI 242253Z VRB05KT 10SM CLR 25/16 A3003 RMK AO2 SLP174 T02500161=
202106242153 METAR KBLI 242153Z 32006KT 10SM CLR 24/15 A3005 RMK AO2 SLP179 T02440150=
202106242053 METAR KBLI 242053Z 30007KT 10SM CLR 23/14 A3005 RMK AO2 SLP181 T02330139 58004=
202106241953 METAR KBLI 241953Z 00000KT 10SM CLR 22/16 A3006 RMK AO2 SLP183 T02170156=
202106241853 METAR KBLI 241853Z 20005KT 10SM CLR 20/14 A3006 RMK AO2 SLP186 T02000139=
202106241753 METAR KBLI 241753Z 20008KT 10SM CLR 18/14 A3006 RMK AO2 SLP186 T01830139 10183 20139 53002=
202106241653 METAR KBLI 241653Z 19006KT 10SM CLR 17/14 A3006 RMK AO2 SLP185 T01670139=
202106241553 METAR KBLI 241553Z 18005KT 10SM CLR 16/13 A3006 RMK AO2 SLP184 T01560133=
202106241453 METAR KBLI 241453Z 17006KT 10SM CLR 15/13 A3006 RMK AO2 SLP184 T01500128 53009=
202106241353 METAR KBLI 241353Z 18005KT 10SM CLR 14/13 A3004 RMK AO2 SLP180 T01440128=
202106241253 METAR KBLI 241253Z AUTO 19006KT 10SM CLR 14/13 A3004 RMK AO2 SLP178 T01440128=
202106241153 METAR KBLI 241153Z AUTO 21004KT 10SM CLR 14/13 A3003 RMK AO2 SLP175 T01440128 10167 20144 51009=
202106241053 METAR KBLI 241053Z AUTO 20005KT 10SM CLR 15/13 A3003 RMK AO2 SLP174 T01500133=
202106240953 METAR KBLI 240953Z AUTO 19006KT 10SM CLR 15/13 A3001 RMK AO2 SLP169 T01500133=
202106240853 METAR KBLI 240853Z AUTO 19005KT 10SM CLR 15/13 A3000 RMK AO2 SLP165 T01500133 53010=
202106240753 METAR KBLI 240753Z AUTO 21006KT 10SM CLR 16/14 A2999 RMK AO2 SLP160 T01610139 402220128=
202106240653 METAR KBLI 240653Z AUTO 19005KT 10SM CLR 16/14 A2998 RMK AO2 SLP157 T01610139=
202106240553 METAR KBLI 240553Z AUTO 21006KT 10SM CLR 17/14 A2997 RMK AO2 SLP155 T01670144 10222 20167 53008=
202106240453 METAR KBLI 240453Z 20006KT 10SM CLR 17/14 A2996 RMK AO2 SLP151 T01720144=
202106240353 METAR KBLI 240353Z 18004KT 10SM CLR 18/14 A2995 RMK AO2 SLP147 T01780144=
202106240253 METAR KBLI 240253Z 18004KT 10SM CLR 19/14 A2995 RMK AO2 SLP146 T01890144 53001=
202106240153 METAR KBLI 240153Z 18006KT 10SM CLR 20/16 A2994 RMK AO2 SLP144 T02000156=
202106240053 METAR KBLI 240053Z 18004KT 10SM CLR 22/14 A2994 RMK AO2 SLP145 T02170139=
202106232353 METAR KBLI 232353Z 23007KT 10SM CLR 21/14 A2994 RMK AO2 SLP146 T02060144 10211 20156 56004=
202106232253 METAR KBLI 232253Z 18008KT 150V230 10SM CLR 21/14 A2995 RMK AO2 SLP147 T02060144=
202106232153 METAR KBLI 232153Z 20010G17KT 10SM CLR 19/14 A2995 RMK AO2 SLP148 T01940144=
202106232053 METAR KBLI 232053Z 19009G16KT 10SM CLR 18/14 A2996 RMK AO2 SLP150 T01780139 50006=
202106231953 METAR KBLI 231953Z 20011G17KT 160V230 10SM FEW008 17/14 A2996 RMK AO2 SLP150 T01720139=
202106231853 METAR KBLI 231853Z 20007G18KT 160V230 10SM FEW007 17/14 A2995 RMK AO2 SLP147 T01670139=
202106231753 METAR KBLI 231753Z 18010KT 10SM SCT007 16/13 A2994 RMK AO2 SLP144 T01560128 10161 20128 51008=
202106231722 SPECI KBLI 231722Z 20010G17KT 10SM SCT006 16/13 A2993 RMK AO2 T01560128=
202106231658 SPECI KBLI 231658Z 17010G16KT 10SM OVC006 14/13 A2994 RMK AO2 T01440128=
202106231653 METAR KBLI 231653Z 19007KT 10SM OVC004 14/13 A2994 RMK AO2 SLP144 T01440128=
202106231553 METAR KBLI 231553Z 18008KT 10SM OVC004 14/12 A2993 RMK AO2 SLP141 T01390122=
202106231511 SPECI KBLI 231511Z 19008KT 3SM BR OVC002 13/12 A2992 RMK AO2 T01330122=
202106231453 METAR KBLI 231453Z 18008G18KT 3/4SM R16/P6000FT BR OVC002 13/13 A2992 RMK AO2 SLP136 T01280128 53018=
202106231428 SPECI KBLI 231428Z 18008KT 3/4SM R16/6000VP6000FT BR OVC002 13/12 A2991 RMK AO2 T01280122=
202106231405 SPECI KBLI 231405Z VRB05G15KT 2SM BR OVC002 13/12 A2990 RMK AO2 T01280122=
202106231353 METAR KBLI 231353Z 19008KT 3SM BR OVC002 13/12 A2990 RMK AO2 SLP131 T01280122=
202106231253 METAR KBLI 231253Z AUTO 19010G21KT 10SM OVC004 13/12 A2988 RMK AO2 SLP122 T01280122=
202106231240 SPECI KBLI 231240Z AUTO 18011G20KT 10SM BKN004 13/12 A2987 RMK AO2 T01280122=
202106231226 SPECI KBLI 231226Z AUTO 18012G20KT 10SM FEW004 13/13 A2986 RMK AO2 T01330128=
202106231153 METAR KBLI 231153Z AUTO 19010G20KT 10SM CLR 13/12 A2986 RMK AO2 SLP118 T01330122 10172 20133 53017=
202106231053 METAR KBLI 231053Z AUTO 18011G20KT 10SM CLR 14/12 A2984 RMK AO2 SLP112 T01440117=
202106230953 METAR KBLI 230953Z AUTO 19009G20KT 10SM CLR 15/12 A2983 RMK AO2 SLP106 T01500122=
202106230853 METAR KBLI 230853Z AUTO 19011G17KT 10SM CLR 15/13 A2981 RMK AO2 SLP100 T01500128 51008=
202106230753 METAR KBLI 230753Z AUTO 19011G21KT 10SM CLR 16/13 A2981 RMK AO2 SLP098 T01560128 402330156=
202106230653 METAR KBLI 230653Z AUTO 19009G17KT 160V230 10SM CLR 16/13 A2980 RMK AO2 SLP097 T01610128=
202106230553 METAR KBLI 230553Z AUTO 19011G20KT 10SM CLR 17/13 A2979 RMK AO2 SLP093 T01720128 10222 20172 53007=
202106230453 METAR KBLI 230453Z 19009G17KT 10SM CLR 18/14 A2978 RMK AO2 SLP089 T01830139=
202106230353 METAR KBLI 230353Z 18010G16KT 10SM CLR 20/14 A2977 RMK AO2 SLP085 T02000144=
202106230253 METAR KBLI 230253Z 19009G16KT 10SM CLR 22/14 A2977 RMK AO2 SLP086 T02170144 56012=
202106230153 METAR KBLI 230153Z 18008KT 10SM CLR 22/14 A2978 RMK AO2 SLP089 T02170144=
202106230053 METAR KBLI 230053Z 18011KT 10SM CLR 22/14 A2979 RMK AO2 SLP093 T02170144=
202106222353 METAR KBLI 222353Z 18007KT 10SM CLR 22/15 A2980 RMK AO2 SLP097 T02170150 10233 20206 58014=
202106222253 METAR KBLI 222253Z 18008KT 10SM CLR 22/15 A2983 RMK AO2 SLP105 T02220150=
202106222153 METAR KBLI 222153Z 19008KT 10SM CLR 22/15 A2983 RMK AO2 SLP107 T02220150=
202106222053 METAR KBLI 222053Z 19009KT 10SM CLR 23/15 A2984 RMK AO2 SLP111 T02330150 58002=
202106221953 METAR KBLI 221953Z 20008G16KT 10SM CLR 22/14 A2985 RMK AO2 SLP113 T02170144=
202106221853 METAR KBLI 221853Z 19008G18KT 170V230 10SM CLR 21/15 A2985 RMK AO2 SLP112 T02110150=
202106221753 METAR KBLI 221753Z 18009G15KT 10SM CLR 21/14 A2985 RMK AO2 SLP113 T02110144 10217 20167 50002=
202106221653 METAR KBLI 221653Z 17009KT 10SM CLR 21/15 A2985 RMK AO2 SLP114 T02060150=
202106221553 METAR KBLI 221553Z 21005KT 10SM CLR 21/15 A2985 RMK AO2 SLP113 T02060150=
202106221453 METAR KBLI 221453Z 18007KT 10SM CLR 19/14 A2984 RMK AO2 SLP111 T01890139 53009=
202106221353 METAR KBLI 221353Z 19007KT 10SM CLR 18/14 A2984 RMK AO2 SLP109 T01780139=
202106221253 METAR KBLI 221253Z AUTO 18007KT 10SM CLR 18/14 A2982 RMK AO2 SLP104 T01780139=
202106221153 METAR KBLI 221153Z AUTO 18006KT 10SM CLR 17/14 A2982 RMK AO2 SLP102 7//// T01720144 10194 20161 53005=
202106221053 METAR KBLI 221053Z AUTO 19008KT 10SM CLR 18/14 A2981 RMK AO2 SLP099 T01780139=
202106220953 METAR KBLI 220953Z AUTO 22003KT 10SM CLR 17/15 A2981 RMK AO2 SLP098 T01720150=
202106220853 METAR KBLI 220853Z AUTO 18003KT 10SM CLR 17/15 A2980 RMK AO2 SLP097 T01720150 50000=
202106220753 METAR KBLI 220753Z AUTO 00000KT 10SM CLR 17/14 A2981 RMK AO2 SLP098 T01670144 402830128=
202106220653 METAR KBLI 220653Z AUTO 18005KT 10SM CLR 19/14 A2981 RMK AO2 SLP099 T01890144=
202106220553 METAR KBLI 220553Z AUTO 00000KT 10SM CLR 19/15 A2980 RMK AO2 SLP096 T01890150 10283 20178 53001=
202106220453 METAR KBLI 220453Z 18003KT 10SM CLR 19/16 A2980 RMK AO2 SLP095 T01890161=
202106220353 METAR KBLI 220353Z 00000KT 10SM CLR 21/17 A2980 RMK AO2 SLP094 T02110167=
202106220253 METAR KBLI 220253Z 18003KT 10SM CLR 24/16 A2980 RMK AO2 SLP095 T02440156 56009=
202106220153 METAR KBLI 220153Z 31005KT 10SM CLR 26/15 A2981 RMK AO2 SLP098 T02610150=
202106220053 METAR KBLI 220053Z 30006KT 10SM FEW100 28/14 A2982 RMK AO2 SLP101 T02780139=
202106212353 METAR KBLI 212353Z 30008KT 10SM CLR 28/14 A2983 RMK AO2 SLP105 T02830144 10283 20250 58015=
202106212253 METAR KBLI 212253Z 29007KT 10SM CLR 28/16 A2984 RMK AO2 SLP110 T02780156=
202106212153 METAR KBLI 212153Z 28006KT 10SM CLR 27/16 A2986 RMK AO2 SLP116 T02720156=
202106212053 METAR KBLI 212053Z 30007KT 10SM CLR 27/17 A2987 RMK AO2 SLP120 T02670172 58009=
202106211953 METAR KBLI 211953Z 28008KT 10SM CLR 26/17 A2988 RMK AO2 SLP124 T02560167=
202106211853 METAR KBLI 211853Z 20005KT 10SM CLR 27/17 A2989 RMK AO2 SLP126 T02720167 $=
202106211753 METAR KBLI 211753Z 00000KT 10SM CLR 26/16 A2990 RMK AO2 SLP129 6//// T02560156 10278 20128 58007 $=
202106211653 METAR KBLI 211653Z 00000KT 10SM CLR 23/12 A2991 RMK AO2 SLP132 T02330122 PNO $=
202106211553 METAR KBLI 211553Z 00000KT 10SM CLR 22/11 A2992 RMK AO2 SLP135 T02170106=
202106211453 METAR KBLI 211453Z 00000KT 10SM CLR 20/11 A2992 RMK AO2 SLP137 T02000106 51004=
202106211353 METAR KBLI 211353Z 00000KT 10SM CLR 17/09 A2992 RMK AO2 SLP137 T01720089=
202106211253 METAR KBLI 211253Z AUTO 00000KT 10SM CLR 14/05 A2991 RMK AO2 SLP134 T01390050=
202106211153 METAR KBLI 211153Z AUTO 00000KT 10SM CLR 14/05 A2991 RMK AO2 SLP133 T01390050 10172 20139 56003=
202106211053 METAR KBLI 211053Z AUTO 00000KT 10SM CLR 15/06 A2991 RMK AO2 SLP133 T01500056=
202106210953 METAR KBLI 210953Z AUTO 00000KT 10SM CLR 15/06 A2991 RMK AO2 SLP134 T01500056=
202106210853 METAR KBLI 210853Z AUTO 00000KT 10SM CLR 16/07 A2992 RMK AO2 SLP135 T01610072 58001=
202106210753 METAR KBLI 210753Z AUTO 00000KT 10SM CLR 16/07 A2992 RMK AO2 SLP137 T01610067 402830106=
202106210653 METAR KBLI 210653Z AUTO 00000KT 10SM CLR 17/06 A2992 RMK AO2 SLP137 T01670061=
202106210553 METAR KBLI 210553Z AUTO 00000KT 10SM CLR 17/07 A2992 RMK AO2 SLP136 T01720067 10272 20172 56003=
202106210453 METAR KBLI 210453Z 00000KT 10SM CLR 18/08 A2992 RMK AO2 SLP138 T01830083=
202106210353 METAR KBLI 210353Z 00000KT 10SM CLR 21/11 A2992 RMK AO2 SLP136 T02060106=
202106210253 METAR KBLI 210253Z 00000KT 10SM CLR 24/12 A2993 RMK AO2 SLP139 T02390117 56011=
202106210153 METAR KBLI 210153Z 32005KT 10SM CLR 26/12 A2994 RMK AO2 SLP142 T02560117=
202106210053 METAR KBLI 210053Z 31007KT 10SM CLR 27/13 A2995 RMK AO2 SLP147 T02670128=
202106202353 METAR KBLI 202353Z 30008KT 10SM CLR 27/14 A2996 RMK AO2 SLP150 T02670139 10283 20250 58014=
202106202253 METAR KBLI 202253Z 31009KT 10SM CLR 27/14 A2998 RMK AO2 SLP156 T02670139=
202106202153 METAR KBLI 202153Z 32011G18KT 10SM CLR 26/13 A3000 RMK AO2 SLP162 T02610128=
202106202053 METAR KBLI 202053Z 30010G18KT 10SM CLR 26/13 A3000 RMK AO2 SLP165 T02610128 58005=
202106201953 METAR KBLI 201953Z VRB05G16KT 10SM CLR 28/12 A3001 RMK AO2 SLP167 T02780117=
202106201853 METAR KBLI 201853Z 01010G18KT 10SM CLR 26/11 A3002 RMK AO2 SLP170 T02610111=
202106201753 METAR KBLI 201753Z 04015G20KT 10SM FEW050 25/11 A3002 RMK AO2 SLP170 T02500106 10250 20106 58008=
202106201653 METAR KBLI 201653Z 03015G25KT 10SM CLR 23/10 A3003 RMK AO2 SLP174 T02330100=
202106201553 METAR KBLI 201553Z 36010KT 10SM CLR 21/10 A3003 RMK AO2 SLP175 T02110100=
202106201453 METAR KBLI 201453Z 36004KT 10SM CLR 16/08 A3004 RMK AO2 SLP180 T01610083 58002=
202106201353 METAR KBLI 201353Z 35003KT 10SM CLR 14/06 A3005 RMK AO2 SLP181 T01440056=
202106201253 METAR KBLI 201253Z AUTO 00000KT 8SM CLR 12/03 A3005 RMK AO2 SLP181 T01220028=
202106201246 SPECI KBLI 201246Z AUTO 00000KT 3SM HZ CLR 12/02 A3005 RMK AO2 T01170022=
202106201237 SPECI KBLI 201237Z AUTO 00000KT 1 3/4SM R16/3500VP6000FT HZ CLR 11/01 A3004 RMK AO2 VIS 1/2V5 T01060011=
202106201153 METAR KBLI 201153Z AUTO 00000KT 10SM CLR 12/03 A3005 RMK AO2 SLP182 T01170028 10156 20117 53002=
202106201053 METAR KBLI 201053Z AUTO 00000KT 10SM CLR 12/03 A3005 RMK AO2 SLP181 T01220028=
202106200953 METAR KBLI 200953Z AUTO 00000KT 10SM CLR 13/04 A3004 RMK AO2 SLP180 T01330039=
202106200853 METAR KBLI 200853Z AUTO 00000KT 10SM CLR 13/04 A3004 RMK AO2 SLP180 T01330044 53004=
202106200753 METAR KBLI 200753Z AUTO 00000KT 10SM BKN050 16/06 A3004 RMK AO2 SLP179 T01560061 402000122=
202106200653 METAR KBLI 200653Z AUTO 00000KT 10SM OVC049 16/06 A3003 RMK AO2 SLP176 T01560061=
202106200553 METAR KBLI 200553Z AUTO 00000KT 10SM OVC045 16/06 A3003 RMK AO2 SLP176 T01560061 10189 20156 51004=
202106200453 METAR KBLI 200453Z 00000KT 10SM BKN045 17/08 A3003 RMK AO2 SLP175 T01720078=
202106200353 METAR KBLI 200353Z 20003KT 10SM BKN055 18/05 A3002 RMK AO2 SLP172 T01780050=
202106200253 METAR KBLI 200253Z 22003KT 10SM BKN055 18/05 A3002 RMK AO2 SLP171 T01780050 56010=
202106200153 METAR KBLI 200153Z VRB05KT 10SM BKN060 18/08 A3002 RMK AO2 SLP173 T01780078=
202106200053 METAR KBLI 200053Z 19007KT 10SM OVC060 18/07 A3004 RMK AO2 SLP177 T01780067=
202106192353 METAR KBLI 192353Z 20005KT 10SM OVC060 19/12 A3005 RMK AO2 SLP182 T01890117 10200 20150 58010=
202106192253 METAR KBLI 192253Z 20007KT 170V240 10SM OVC070 19/11 A3006 RMK AO2 SLP185 T01890111=
202106192153 METAR KBLI 192153Z 19008G16KT 10SM OVC065 19/11 A3007 RMK AO2 SLP188 T01890111=
202106192053 METAR KBLI 192053Z 18011G18KT 10SM BKN075 19/11 A3008 RMK AO2 SLP191 T01890106 58004=
202106191953 METAR KBLI 191953Z 18012G20KT 10SM CLR 17/08 A3009 RMK AO2 SLP197 T01670083=
202106191853 METAR KBLI 191853Z 19009G19KT 10SM OVC060 16/07 A3010 RMK AO2 SLP197 T01560067=
202106191753 METAR KBLI 191753Z 18009G17KT 10SM OVC060 15/07 A3009 RMK AO2 SLP196 T01500072 10150 20128 55001=
202106191653 METAR KBLI 191653Z 19009G18KT 10SM OVC070 14/07 A3008 RMK AO2 SLP193 T01440067=
202106191553 METAR KBLI 191553Z 18011G18KT 10SM OVC090 14/06 A3009 RMK AO2 SLP195 T01390061=
202106191453 METAR KBLI 191453Z 19011G18KT 10SM FEW006 BKN090 13/06 A3009 RMK AO2 SLP197 T01330061 51008=
202106191353 METAR KBLI 191353Z 19008G17KT 10SM CLR 13/06 A3009 RMK AO2 SLP197 T01280056=
202106191253 METAR KBLI 191253Z AUTO 19007KT 10SM CLR 13/06 A3008 RMK AO2 SLP191 T01280056=
202106191153 METAR KBLI 191153Z AUTO 19006KT 10SM CLR 13/06 A3007 RMK AO2 SLP188 T01280061 10150 20122 53001=
202106191053 METAR KBLI 191053Z AUTO 18005KT 10SM CLR 13/04 A3007 RMK AO2 SLP188 T01280044=
202106190953 METAR KBLI 190953Z AUTO 19005KT 10SM CLR 13/07 A3006 RMK AO2 SLP187 T01330072=
202106190853 METAR KBLI 190853Z AUTO 20005KT 10SM CLR 13/07 A3007 RMK AO2 SLP187 T01330067 56001=
202106190753 METAR KBLI 190753Z AUTO 20007KT 10SM CLR 14/04 A3007 RMK AO2 SLP187 T01390044 402110111=
202106190653 METAR KBLI 190653Z AUTO 19007KT 10SM CLR 14/04 A3007 RMK AO2 SLP187 T01390044=
202106190553 METAR KBLI 190553Z AUTO 19009KT 10SM CLR 15/07 A3007 RMK AO2 SLP188 T01500067 10200 20150 53007=
202106190453 METAR KBLI 190453Z 20008KT 10SM CLR 16/08 A3006 RMK AO2 SLP186 T01560083=
202106190353 METAR KBLI 190353Z 19009KT 10SM CLR 17/09 A3005 RMK AO2 SLP182 T01670094=
202106190253 METAR KBLI 190253Z 19004KT 10SM CLR 18/09 A3005 RMK AO2 SLP181 T01780089 56007=
202106190153 METAR KBLI 190153Z 19005KT 10SM CLR 19/11 A3005 RMK AO2 SLP182 T01940106=
202106190053 METAR KBLI 190053Z 18005KT 10SM CLR 20/11 A3006 RMK AO2 SLP185 T02000106=
202106182353 METAR KBLI 182353Z 20005KT 10SM CLR 20/08 A3007 RMK AO2 SLP188 T02000078 10211 20167 57009=
202106182253 METAR KBLI 182253Z 18007KT 10SM CLR 20/09 A3008 RMK AO2 SLP191 T02000089=
202106182153 METAR KBLI 182153Z 19007KT 160V220 10SM CLR 21/09 A3009 RMK AO2 SLP195 T02060089=
202106182053 METAR KBLI 182053Z VRB05KT 10SM CLR 20/08 A3010 RMK AO2 SLP198 T02000078 57004=
202106181953 METAR KBLI 181953Z 18008KT 10SM CLR 19/07 A3011 RMK AO2 SLP200 T01890072=
202106181853 METAR KBLI 181853Z 21007KT 180V260 10SM CLR 18/06 A3010 RMK AO2 SLP200 T01780061=
202106181753 METAR KBLI 181753Z 19009G18KT 10SM CLR 17/07 A3011 RMK AO2 SLP202 T01670067 10172 20111 50000=
202106181653 METAR KBLI 181653Z 18010G16KT 10SM CLR 16/06 A3011 RMK AO2 SLP203 T01560056=
202106181553 METAR KBLI 181553Z 20007KT 10SM CLR 15/04 A3012 RMK AO2 SLP205 T01500039=
202106181453 METAR KBLI 181453Z 26003KT 10SM CLR 14/04 A3011 RMK AO2 SLP202 T01440039 53007=
202106181353 METAR KBLI 181353Z 19005KT 10SM CLR 14/04 A3011 RMK AO2 SLP201 T01440039=
202106181253 METAR KBLI 181253Z AUTO 16006KT 10SM CLR 12/02 A3008 RMK AO2 SLP193 T01220017=
202106181153 METAR KBLI 181153Z AUTO 23003KT 10SM CLR 11/01 A3009 RMK AO2 SLP194 T01110011 10150 20111 53002=
202106181053 METAR KBLI 181053Z AUTO 17005KT 10SM CLR 12/02 A3008 RMK AO2 SLP191 T01170022=
202106180953 METAR KBLI 180953Z AUTO 20006KT 10SM CLR 13/02 A3008 RMK AO2 SLP192 T01280022=
202106180853 METAR KBLI 180853Z AUTO 18007KT 10SM CLR 14/04 A3008 RMK AO2 SLP191 T01440044 58006=
202106180753 METAR KBLI 180753Z AUTO 19004KT 10SM CLR 12/03 A3009 RMK AO2 SLP196 T01170033 402500089=
202106180653 METAR KBLI 180653Z AUTO 00000KT 10SM CLR 13/04 A3010 RMK AO2 SLP198 T01330039=
202106180553 METAR KBLI 180553Z AUTO 19005KT 10SM CLR 14/04 A3010 RMK AO2 SLP198 T01440044 10244 20144 53003=
202106180453 METAR KBLI 180453Z 19008KT 10SM CLR 17/04 A3009 RMK AO2 SLP196 T01720044=
202106180353 METAR KBLI 180353Z 19003KT 10SM CLR 17/06 A3008 RMK AO2 SLP192 T01720056=
202106180253 METAR KBLI 180253Z 18005KT 10SM CLR 21/09 A3009 RMK AO2 SLP195 T02060089 58015=
202106180153 METAR KBLI 180153Z 19005KT 10SM CLR 22/09 A3011 RMK AO2 SLP200 T02220089=
202106180053 METAR KBLI 180053Z 19006KT 10SM CLR 24/09 A3012 RMK AO2 SLP206 T02390094=
202106172353 METAR KBLI 172353Z 00000KT 10SM CLR 24/04 A3013 RMK AO2 SLP210 T02440039 10250 20189 56013=
202106172253 METAR KBLI 172253Z 24006KT 10SM CLR 24/06 A3015 RMK AO2 SLP214 T02390061=
202106172153 METAR KBLI 172153Z 33006KT 10SM CLR 24/09 A3015 RMK AO2 SLP217 T02390089=
202106172053 METAR KBLI 172053Z 32006KT 10SM CLR 23/09 A3017 RMK AO2 SLP222 T02280089 58009=
202106171953 METAR KBLI 171953Z VRB05KT 10SM CLR 22/10 A3019 RMK AO2 SLP229 T02170100=
202106171853 METAR KBLI 171853Z VRB04KT 10SM CLR 20/08 A3019 RMK AO2 SLP230 T02000083=
202106171753 METAR KBLI 171753Z VRB04KT 10SM CLR 19/08 A3020 RMK AO2 SLP232 T01940083 10194 20089 50000=
202106171653 METAR KBLI 171653Z 29003KT 10SM CLR 17/07 A3021 RMK AO2 SLP235 T01720072=
202106171553 METAR KBLI 171553Z VRB03KT 10SM CLR 16/06 A3021 RMK AO2 SLP235 T01560061=
202106171453 METAR KBLI 171453Z 14003KT 10SM CLR 16/07 A3020 RMK AO2 SLP231 T01560072 51006=
202106171353 METAR KBLI 171353Z 00000KT 10SM CLR 13/05 A3019 RMK AO2 SLP230 T01280050=
202106171253 METAR KBLI 171253Z AUTO 00000KT 10SM CLR 10/01 A3019 RMK AO2 SLP228 T01000011=
202106171153 METAR KBLI 171153Z AUTO 00000KT 10SM CLR 10/01 A3018 RMK AO2 SLP225 T01000006 10128 20094 58003=
202106171053 METAR KBLI 171053Z AUTO 00000KT 10SM CLR 11/02 A3019 RMK AO2 SLP228 T01060017=
202106170953 METAR KBLI 170953Z AUTO 00000KT 10SM CLR 10/02 A3019 RMK AO2 SLP229 T01000017=
202106170853 METAR KBLI 170853Z AUTO 00000KT 10SM CLR 11/03 A3019 RMK AO2 SLP229 T01110033 56008=
202106170753 METAR KBLI 170753Z AUTO 00000KT 10SM CLR 12/04 A3019 RMK AO2 SLP230 T01220044 402170117=
202106170653 METAR KBLI 170653Z AUTO 00000KT 10SM CLR 12/02 A3020 RMK AO2 SLP234 T01220022=
202106170553 METAR KBLI 170553Z AUTO 00000KT 10SM CLR 12/03 A3021 RMK AO2 SLP236 T01220033 10217 20122 56004=
202106170453 METAR KBLI 170453Z 17003KT 10SM CLR 14/05 A3022 RMK AO2 SLP238 T01390050=
202106170353 METAR KBLI 170353Z 28003KT 10SM CLR 17/06 A3022 RMK AO2 SLP238 T01670056=
202106170253 METAR KBLI 170253Z 28004KT 10SM CLR 20/07 A3022 RMK AO2 SLP240 T02000072 56017=
202106170153 METAR KBLI 170153Z 30005KT 10SM CLR 21/08 A3023 RMK AO2 SLP244 T02110078=
202106170053 METAR KBLI 170053Z 28005KT 10SM CLR 21/07 A3025 RMK AO2 SLP250 T02110072=
202106162353 METAR KBLI 162353Z 29007KT 10SM CLR 21/08 A3028 RMK AO2 SLP258 T02060083 10217 20167 58013=
202106162253 METAR KBLI 162253Z 33010G16KT 10SM CLR 22/11 A3029 RMK AO2 SLP262 T02170106=
202106162153 METAR KBLI 162153Z 28009G15KT 260V320 10SM CLR 21/10 A3031 RMK AO2 SLP268 T02060100=
202106162053 METAR KBLI 162053Z 30007KT 10SM CLR 21/10 A3032 RMK AO2 SLP271 T02060100 58015=
202106161953 METAR KBLI 161953Z VRB04KT 10SM FEW030 SCT040 19/10 A3033 RMK AO2 SLP276 T01940100=
202106161853 METAR KBLI 161853Z 17007KT 10SM SCT050 19/08 A3035 RMK AO2 SLP283 T01890083=
202106161753 METAR KBLI 161753Z 19005KT 10SM CLR 17/08 A3036 RMK AO2 SLP286 T01720083 10172 20139 58005=
202106161653 METAR KBLI 161653Z 21006KT 10SM FEW020 SCT055 16/07 A3037 RMK AO2 SLP290 T01610067=
202106161553 METAR KBLI 161553Z VRB06KT 10SM FEW020 SCT055 16/07 A3037 RMK AO2 SLP290 T01560067=
202106161453 METAR KBLI 161453Z 18008KT 10SM FEW010 BKN055 BKN075 15/06 A3037 RMK AO2 SLP291 T01500061 51008=
202106161353 METAR KBLI 161353Z 19009KT 10SM FEW010 BKN050 OVC070 14/05 A3037 RMK AO2 SLP290 T01440050=
202106161253 METAR KBLI 161253Z AUTO 19006KT 10SM FEW015 OVC065 14/04 A3036 RMK AO2 SLP287 T01440044=
202106161153 METAR KBLI 161153Z AUTO 18005KT 10SM OVC055 14/05 A3035 RMK AO2 SLP283 T01440050 10161 20144 53006=
202106161053 METAR KBLI 161053Z AUTO 18007KT 10SM OVC055 14/05 A3034 RMK AO2 SLP279 T01440050=
202106160953 METAR KBLI 160953Z AUTO 18007KT 10SM BKN044 OVC060 15/06 A3033 RMK AO2 SLP278 T01500061=
202106160853 METAR KBLI 160853Z AUTO 21004KT 10SM FEW055 BKN080 15/04 A3033 RMK AO2 SLP277 T01500044 51012=
202106160753 METAR KBLI 160753Z AUTO 19005KT 10SM BKN049 OVC065 16/07 A3032 RMK AO2 SLP274 T01560067 402110128=
202106160653 METAR KBLI 160653Z AUTO 22004KT 10SM BKN055 BKN070 OVC080 16/06 A3031 RMK AO2 SLP271 T01560056=
202106160553 METAR KBLI 160553Z AUTO 22004KT 10SM BKN060 16/04 A3030 RMK AO2 SLP265 60000 T01560044 10206 20150 51018=
202106160453 METAR KBLI 160453Z 21003KT 10SM FEW060 SCT085 16/05 A3028 RMK AO2 SLP260 T01560050=
202106160353 METAR KBLI 160353Z 20003KT 10SM BKN065 17/08 A3026 RMK AO2 SLP253 T01670078=
202106160253 METAR KBLI 160253Z 00000KT 10SM OVC085 18/08 A3024 RMK AO2 SLP247 60000 T01830083 53015=
202106160153 METAR KBLI 160153Z 22007KT 10SM SCT075 BKN085 OVC100 20/08 A3022 RMK AO2 SLP241 T02000083=
202106160053 METAR KBLI 160053Z 19006KT 10SM FEW090 20/08 A3021 RMK AO2 RAE04 SLP236 P0000 T02000083=
202106152353 METAR KBLI 152353Z 00000KT 10SM -RA OVC075 19/11 A3020 RMK AO2 RAB47 SLP231 P0000 60000 T01940111 10211 20167 53013=
202106152253 METAR KBLI 152253Z 18007KT 10SM BKN090 20/10 A3018 RMK AO2 SLP226 T02000100=
202106152153 METAR KBLI 152153Z 19010G16KT 10SM FEW095 20/11 A3017 RMK AO2 SLP221 T02000106=
202106152053 METAR KBLI 152053Z 23007G14KT 200V260 10SM CLR 19/11 A3016 RMK AO2 SLP219 T01940111 53012=
202106151953 METAR KBLI 151953Z VRB06G17KT 10SM CLR 19/12 A3015 RMK AO2 SLP214 T01890122=
202106151853 METAR KBLI 151853Z 18011G18KT 10SM CLR 18/12 A3013 RMK AO2 SLP210 T01780122=
202106151753 METAR KBLI 151753Z 19007KT 10SM CLR 17/12 A3012 RMK AO2 SLP206 T01670117 10172 20128 53010=
202106151653 METAR KBLI 151653Z 19010G15KT 10SM CLR 16/12 A3011 RMK AO2 SLP202 T01610117=
202106151553 METAR KBLI 151553Z 22005KT 10SM SCT015 BKN060 14/09 A3010 RMK AO2 SLP198 T01440089=
202106151453 METAR KBLI 151453Z 19006KT 10SM SCT015 BKN040 14/08 A3009 RMK AO2 SLP197 T01440083 53008=
202106151353 METAR KBLI 151353Z 21007KT 10SM SCT016 BKN050 13/07 A3008 RMK AO2 SLP192 T01330072=
202106151322 SPECI KBLI 151322Z AUTO VRB03KT 10SM BKN016 13/07 A3008 RMK AO2 T01330072=
202106151253 METAR KBLI 151253Z AUTO VRB06KT 10SM CLR 13/06 A3007 RMK AO2 SLP188 T01280061=
202106151153 METAR KBLI 151153Z AUTO 19006KT 10SM CLR 13/04 A3005 RMK AO2 SLP181 70025 T01330044 10150 20133 53005=
202106151053 METAR KBLI 151053Z AUTO 19006KT 10SM FEW040 SCT070 14/07 A3004 RMK AO2 SLP178 T01390072=
202106150953 METAR KBLI 150953Z AUTO 21006KT 10SM FEW049 SCT060 BKN070 14/07 A3003 RMK AO2 SLP174 T01390072=
202106150853 METAR KBLI 150853Z AUTO 19005KT 10SM SCT060 BKN085 14/08 A3003 RMK AO2 SLP176 T01390078 56001=
202106150753 METAR KBLI 150753Z AUTO 19005KT 10SM SCT048 SCT060 15/09 A3003 RMK AO2 SLP176 T01500089 401780144=
202106150653 METAR KBLI 150653Z AUTO 19007KT 10SM OVC055 15/08 A3003 RMK AO2 SLP175 T01500083=
202106150553 METAR KBLI 150553Z AUTO 20006KT 10SM CLR 14/09 A3004 RMK AO2 SLP177 T01440094 10178 20144 50002=
202106150453 METAR KBLI 150453Z 18004KT 10SM CLR 15/10 A3004 RMK AO2 SLP179 T01500100=
202106150353 METAR KBLI 150353Z 00000KT 10SM SCT029 SCT039 17/12 A3003 RMK AO2 SLP175 T01670117=
202106150351 SPECI KBLI 150351Z 00000KT 10SM SCT026 SCT033 17/12 A3003 RMK AO2=
202106150253 METAR KBLI 150253Z 00000KT 10SM SCT020 BKN028 OVC055 17/12 A3003 RMK AO2 SLP175 T01720122 55001=
202106150221 SPECI KBLI 150221Z 20003KT 10SM OVC019 18/13 A3003 RMK AO2 T01780128=
202106150153 METAR KBLI 150153Z 17003KT 10SM SCT018 OVC045 17/12 A3003 RMK AO2 SLP175 T01720122=
202106150053 METAR KBLI 150053Z 18003KT 10SM SCT040 BKN100 17/11 A3003 RMK AO2 SLP175 T01720111=
202106142353 METAR KBLI 142353Z 19005KT 10SM FEW060 BKN120 17/12 A3003 RMK AO2 SLP176 60004 T01670117 10172 20150 53002=
202106142253 METAR KBLI 142253Z 19006KT 10SM FEW019 16/12 A3003 RMK AO2 RAB2154E08 SLP175 P0000 T01610117=
202106142153 METAR KBLI 142153Z 10005KT 10SM SCT015 BKN030 BKN080 16/11 A3000 RMK AO2 RAE2054 PRESFR SLP164 P0000 T01610106=
202106142057 SPECI KBLI 142057Z 20006KT 10SM FEW013 BKN020 BKN055 16/12 A3003 RMK AO2 RAE54 P0000 T01560117=
202106142055 SPECI KBLI 142055Z 20007KT 180V240 10SM FEW005 BKN043 OVC080 16/12 A3003 RMK AO2 RAE54 P0000 T01560117=
202106142053 METAR KBLI 142053Z 19006KT 10SM -RA FEW013 BKN020 BKN055 16/12 A3003 RMK AO2 RAB13 SLP174 P0001 60004 T01560122 53013=
202106141953 METAR KBLI 141953Z 17009KT 10SM FEW006 BKN020 BKN048 16/13 A3001 RMK AO2 RAB1859E34 SLP168 P0003 T01610128=
202106141853 METAR KBLI 141853Z 18005KT 10SM SCT006 BKN018 OVC055 15/11 A3000 RMK AO2 SLP163 T01500111=
202106141753 METAR KBLI 141753Z VRB03KT 10SM SCT002 BKN017 OVC065 16/12 A2999 RMK AO2 SLP161 60021 T01560122 10156 20144 53002=
202106141742 SPECI KBLI 141742Z 18004KT 10SM SCT002 BKN017 OVC065 16/12 A2999 RMK AO2 T01560117=
202106141700 SPECI KBLI 141700Z 19004KT 5SM HZ BKN002 BKN027 OVC070 15/12 A2998 RMK AO2 T01500117=
202106141653 METAR KBLI 141653Z 19003KT 2SM HZ BKN002 OVC065 14/11 A2998 RMK AO2 RAE32 SLP159 P0001 T01440111=
202106141647 SPECI KBLI 141647Z 18005KT 1SM R16/P6000FT HZ SCT002 OVC065 15/12 A2998 RMK AO2 RAE32 P0001=
202106141553 METAR KBLI 141553Z 21005KT 3/4SM R16/6000VP6000FT -RA BKN002 OVC031 14/11 A2998 RMK AO2 SLP159 P0003 T01440111=
202106141551 SPECI KBLI 141551Z 21005KT 3/4SM R16/6000VP6000FT -RA BKN002 OVC031 14/11 A2998 RMK AO2 P0003=
202106141539 SPECI KBLI 141539Z 20006KT 3/4SM R16/P6000FT -RA SCT002 OVC033 14/11 A2998 RMK AO2 P0002 T01440111=
202106141528 SPECI KBLI 141528Z VRB04KT 2SM -RA FEW003 BKN034 OVC047 14/11 A2998 RMK AO2 P0002 T01440111=
202106141512 SPECI KBLI 141512Z 18004KT 1SM R16/P6000FT -RA BKN024 OVC039 14/11 A2997 RMK AO2 P0002 T01440111=
202106141453 METAR KBLI 141453Z 19007KT 3/4SM R16/5500VP6000FT RA FEW003 BKN024 OVC031 14/11 A2997 RMK AO2 RAB08 SLP153 P0014 60017 T01440111 53011=
202106141444 SPECI KBLI 141444Z 1SM R16/5000VP6000FT RA FEW003 OVC016 14/11 A2997 RMK AO2 RAB08 P0011 T01440106=
202106141425 SPECI KBLI 141425Z 2SM -RA FEW003 OVC019 14/11 A2997 RMK AO2 RAB08 P0002 T01440106=
202106141414 SPECI KBLI 141414Z 5SM -RA FEW003 OVC012 14/11 A2996 RMK AO2 RAB08 P0001 T01440106=
202106141353 METAR KBLI 141353Z 10SM OVC012 15/11 A2995 RMK AO2 RAE21 SLP148 P0003 T01500111=
202106141301 SPECI KBLI 141301Z AUTO 19005KT 6SM -RA OVC010 15/12 A2994 RMK AO2 P0001 T01500122=
202106141253 METAR KBLI 141253Z AUTO 20003KT 10SM -RA OVC009 15/12 A2994 RMK AO2 RAB53 CIG 007V012 SLP145 P0000 T01500122=
202106141153 METAR KBLI 141153Z AUTO 18004KT 10SM OVC006 15/12 A2993 RMK AO2 SLP142 70036 T01500122 10167 20150 53004=
202106141136 SPECI KBLI 141136Z AUTO 19003KT 10SM BKN006 OVC011 16/12 A2993 RMK AO2 CIG 006V009 T01560117=
202106141124 SPECI KBLI 141124Z AUTO VRB03KT 10SM OVC011 16/10 A2993 RMK AO2 T01560100=
202106141113 SPECI KBLI 141113Z AUTO 21003KT 10SM BKN009 OVC015 16/10 A2992 RMK AO2 CIG 005V012 T01560100=
202106141053 METAR KBLI 141053Z AUTO 19003KT 10SM SCT006 OVC015 16/12 A2992 RMK AO2 SLP139 T01560117=
202106140953 METAR KBLI 140953Z AUTO 16004KT 10SM OVC006 16/12 A2992 RMK AO2 SLP138 T01560122=
202106140853 METAR KBLI 140853Z AUTO 00000KT 9SM BKN006 BKN050 16/11 A2992 RMK AO2 SLP138 T01560111 58001=
202106140850 SPECI KBLI 140850Z AUTO 00000KT 9SM BKN004 BKN050 16/11 A2992 RMK AO2=
202106140843 SPECI KBLI 140843Z AUTO 00000KT 9SM SCT004 BKN031 BKN050 15/11 A2992 RMK AO2 T01500106=
202106140827 SPECI KBLI 140827Z AUTO 00000KT 9SM SCT004 BKN016 16/11 A2990 RMK AO2 T01560111=
202106140804 SPECI KBLI 140804Z AUTO 21004KT 8SM BKN004 BKN010 OVC015 16/12 A2992 RMK AO2 CIG 002V006 T01560117=
202106140753 METAR KBLI 140753Z AUTO 20004KT 8SM SCT004 OVC015 16/12 A2992 RMK AO2 SLP139 T01560117 402000144=
202106140748 SPECI KBLI 140748Z AUTO 20005KT 8SM SCT004 BKN013 OVC018 16/12 A2992 RMK AO2=
202106140736 SPECI KBLI 140736Z AUTO 20003KT 7SM BKN003 BKN015 OVC019 16/13 A2992 RMK AO2 T01610128=
202106140728 SPECI KBLI 140728Z AUTO 22004KT 7SM SCT003 BKN009 OVC019 16/12 A2991 RMK AO2 T01610122=
202106140719 SPECI KBLI 140719Z AUTO 00000KT 8SM FEW003 SCT009 OVC015 16/13 A2990 RMK AO2 PRESFR T01610128=
202106140653 METAR KBLI 140653Z AUTO 18003KT 10SM BKN008 BKN015 OVC020 17/13 A2992 RMK AO2 CIG 004V012 SLP137 T01670133=
202106140642 SPECI KBLI 140642Z AUTO 14003KT 10SM BKN008 OVC020 17/13 A2991 RMK AO2 CIG 006V012 T01670133=
202106140610 SPECI KBLI 140610Z AUTO 15003KT 10SM SCT004 OVC013 17/13 A2991 RMK AO2 T01670128=
202106140553 METAR KBLI 140553Z AUTO 00000KT 10SM BKN014 16/13 A2991 RMK AO2 SLP133 60008 T01610133 10178 20161 51007=
202106140453 METAR KBLI 140453Z 00000KT 9SM FEW014 BKN044 17/14 A2990 RMK AO2 RAE12 SLP132 CIGS LWR NW-NE P0000 T01670139=
202106140414 SPECI KBLI 140414Z 00000KT 5SM HZ SCT006 BKN014 OVC100 17/13 A2991 RMK AO2 RAE12 CIGS LWR NW-NE P0000 T01720133=
202106140353 METAR KBLI 140353Z 24003KT 3SM -RA BKN005 BKN070 OVC110 17/13 A2990 RMK AO2 SLP131 P0001 T01720128=
202106140337 SPECI KBLI 140337Z 00000KT 4SM -RA BKN003 BKN095 BKN110 17/13 A2991 RMK AO2 P0001 T01720128=
202106140317 SPECI KBLI 140317Z 35003KT 4SM -RA BKN005 BKN055 OVC110 17/13 A2989 RMK AO2 P0001 T01720128=
202106140304 SPECI KBLI 140304Z 00000KT 4SM -RA BKN003 OVC100 17/14 A2988 RMK AO2 P0000 T01720139=
202106140253 METAR KBLI 140253Z 01004KT 3SM -RA BKN005 OVC100 17/13 A2989 RMK AO2 SLP126 P0000 60007 T01720133 58005=
202106140153 METAR KBLI 140153Z 11004KT 6SM -RA FEW009 FEW080 OVC095 18/15 A2990 RMK AO2 SLP131 P0003 T01780150=
202106140141 SPECI KBLI 140141Z 14003KT 5SM -RA SCT008 OVC090 18/14 A2991 RMK AO2 P0002 T01780139=
202106140053 METAR KBLI 140053Z 00000KT 6SM -RA FEW010 SCT030 BKN070 17/14 A2990 RMK AO2 SLP131 P0004 T01720139=
202106132353 METAR KBLI 132353Z 00000KT 6SM -RA SCT020 BKN075 OVC090 17/08 A2989 RMK AO2 SLP128 P0005 60008 T01720078 10200 20156 50004=
202106132253 METAR KBLI 132253Z 05003KT 6SM -RA OVC090 18/09 A2989 RMK AO2 RAB23 SLP129 P0003 T01830089=
202106132153 METAR KBLI 132153Z 04004KT 10SM SCT015 SCT025 BKN070 19/09 A2988 RMK AO2 SLP125 T01940094=
202106132053 METAR KBLI 132053Z 05007KT 10SM SCT012 SCT025 BKN075 19/09 A2988 RMK AO2 RAE14 SLP124 P0000 60000 T01890094 58005=
202106132017 SPECI KBLI 132017Z 03006KT 10SM FEW006 SCT012 BKN017 18/09 A2988 RMK AO2 RAE14 P0000 T01780089=
202106132013 SPECI KBLI 132013Z 01009KT 10SM -RA SCT012 18/08 A2988 RMK AO2 P0000 T01780083=
202106131953 METAR KBLI 131953Z 01007KT 10SM -RA SCT006 BKN014 BKN018 18/08 A2988 RMK AO2 SLP125 P0000 T01780083=
202106131930 SPECI KBLI 131930Z 01005KT 10SM -RA SCT006 BKN013 BKN020 17/10 A2989 RMK AO2 P0000 T01720100=
202106131928 SPECI KBLI 131928Z 01005KT 10SM -RA OVC015 17/10 A2989 RMK AO2 P0000 T01720100=
202106131853 METAR KBLI 131853Z 02005KT 10SM -RA SCT006 BKN013 BKN020 17/08 A2990 RMK AO2 SLP130 P0000 T01670083=
202106131827 SPECI KBLI 131827Z 03006KT 6SM -RA SCT006 BKN013 BKN020 16/08 A2990 RMK AO2 P0000 T01610078=
202106131753 METAR KBLI 131753Z 04003KT 6SM -RA SCT008 BKN015 BKN022 16/07 A2989 RMK AO2 SLP129 P0006 60020 T01560067 10156 20144 50014=
202106131653 METAR KBLI 131653Z 00000KT 8SM -RA FEW019 OVC027 16/07 A2990 RMK AO2 SLP130 P0002 T01560067=
202106131629 SPECI KBLI 131629Z 00000KT 7SM -RA FEW023 BKN027 OVC036 15/06 A2989 RMK AO2 P0001 T01500056=
202106131553 METAR KBLI 131553Z 04004KT 8SM -RA OVC035 15/07 A2987 RMK AO2 SLP122 P0003 T01500067=
202106131453 METAR KBLI 131453Z 00000KT 7SM -RA OVC038 15/06 A2985 RMK AO2 SLP115 P0001 60009 T01500061 53017=
202106131353 METAR KBLI 131353Z 28004KT 8SM -RA OVC032 15/06 A2984 RMK AO2 SLP110 P0007 T01500056=
202106131344 SPECI KBLI 131344Z AUTO VRB03KT 3SM -RA OVC034 15/06 A2983 RMK AO2 P0007 T01500061=
202106131338 SPECI KBLI 131338Z AUTO VRB03KT 1 3/4SM R16/5000VP6000FT RA OVC034 15/06 A2983 RMK AO2 P0006 T01500056=
202106131253 METAR KBLI 131253Z AUTO 36004KT 10SM -RA FEW040 BKN050 OVC090 14/05 A2981 RMK AO2 SLP102 P0001 T01440050=
202106131153 METAR KBLI 131153Z AUTO 00000KT 10SM -RA BKN060 OVC100 14/06 A2980 RMK AO2 SLP098 P0000 60014 70014 T01440061 10156 20144 58006=
202106131053 METAR KBLI 131053Z AUTO 07003KT 10SM -RA SCT070 OVC090 15/06 A2981 RMK AO2 SLP098 P0001 T01500061=
202106130953 METAR KBLI 130953Z AUTO 00000KT 6SM -RA BKN060 BKN080 OVC100 14/06 A2983 RMK AO2 SLP106 P0005 T01440056=
202106130853 METAR KBLI 130853Z AUTO 06005KT 10SM -RA BKN065 OVC095 15/06 A2982 RMK AO2 SLP105 P0004 60008 T01500061 56000=
202106130753 METAR KBLI 130753Z AUTO 00000KT 6SM -RA OVC070 15/06 A2983 RMK AO2 SLP106 P0002 T01500061 402330122=
202106130653 METAR KBLI 130653Z AUTO 07005KT 9SM -RA OVC090 15/05 A2982 RMK AO2 SLP102 P0002 T01500050=
202106130553 METAR KBLI 130553Z AUTO 28006KT 10SM -RA OVC090 16/06 A2982 RMK AO2 RAB31 SLP105 P0000 60000 T01610056 10217 20161 55002=
202106130453 METAR KBLI 130453Z 32003KT 10SM SCT070 OVC100 18/07 A2981 RMK AO2 SLP100 T01830072=
202106130353 METAR KBLI 130353Z 36004KT 10SM FEW055 SCT070 BKN100 17/06 A2980 RMK AO2 SLP097 T01720061=
202106130253 METAR KBLI 130253Z 01003KT 10SM FEW050 SCT090 BKN120 19/08 A2983 RMK AO2 SLP107 T01940083 56030=
202106130153 METAR KBLI 130153Z 06003KT 10SM FEW050 SCT090 21/08 A2986 RMK AO2 SLP116 T02060083=
202106130053 METAR KBLI 130053Z 00000KT 10SM SCT090 21/09 A2989 RMK AO2 SLP128 T02060089=
202106122353 METAR KBLI 122353Z VRB05KT 10SM SCT090 22/14 A2992 RMK AO2 SLP138 T02170144 10233 20178 56019=
202106122253 METAR KBLI 122253Z 34005KT 10SM SCT090 23/09 A2992 RMK AO2 SLP139 T02330094=
202106122153 METAR KBLI 122153Z 17006KT 10SM CLR 23/08 A2995 RMK AO2 SLP148 T02280078=
202106122053 METAR KBLI 122053Z VRB04KT 10SM CLR 22/07 A2998 RMK AO2 SLP157 T02170072 56016=
202106121953 METAR KBLI 121953Z VRB05KT 10SM CLR 21/09 A2999 RMK AO2 SLP162 T02110094=
202106121853 METAR KBLI 121853Z 17006KT 10SM CLR 19/11 A3001 RMK AO2 SLP167 T01940106=
202106121753 METAR KBLI 121753Z AUTO 22005KT 10SM CLR 18/09 A3003 RMK AO2 SLP173 T01780089 10178 20122 50004=
202106121653 METAR KBLI 121653Z VRB05KT 10SM CLR 17/08 A3003 RMK AO2 SLP174 T01670083=
202106121553 METAR KBLI 121553Z 18009KT 10SM CLR 16/08 A3002 RMK AO2 SLP172 T01560078=
202106121453 METAR KBLI 121453Z 19007KT 10SM SCT014 BKN030 14/07 A3001 RMK AO2 SLP169 T01440072 51015=
202106121353 METAR KBLI 121353Z 13004KT 10SM BKN013 14/08 A3000 RMK AO2 SLP165 T01390078=
202106121253 METAR KBLI 121253Z AUTO 10003KT 10SM FEW013 BKN030 OVC045 12/06 A2999 RMK AO2 SLP161 T01220061=
202106121153 METAR KBLI 121153Z AUTO 21003KT 10SM BKN038 13/06 A2997 RMK AO2 SLP155 60000 70001 T01280061 10161 20128 53009=
202106121053 METAR KBLI 121053Z AUTO 19006KT 10SM SCT033 OVC070 13/06 A2996 RMK AO2 SLP150 T01330061=
202106120953 METAR KBLI 120953Z AUTO 00000KT 10SM FEW034 OVC070 13/04 A2995 RMK AO2 SLP149 T01280044=
202106120853 METAR KBLI 120853Z AUTO 00000KT 10SM OVC031 13/06 A2994 RMK AO2 SLP146 60000 T01330056 53005=
202106120753 METAR KBLI 120753Z AUTO 00000KT 10SM BKN038 BKN050 OVC065 14/06 A2993 RMK AO2 SLP142 T01390061 401780100=
202106120653 METAR KBLI 120653Z AUTO 00000KT 10SM OVC037 14/08 A2993 RMK AO2 RAE20 SLP142 P0000 T01440078=
202106120553 METAR KBLI 120553Z AUTO VRB03KT 10SM -RA OVC034 16/08 A2993 RMK AO2 RAB15 SLP141 P0000 60000 T01560083 10178 20156 53007=
202106120453 METAR KBLI 120453Z 16007KT 10SM BKN030 OVC037 17/08 A2992 RMK AO2 SLP139 T01670083=
202106120353 METAR KBLI 120353Z 14005KT 10SM BKN030 BKN040 16/08 A2991 RMK AO2 SLP135 T01610083=
202106120253 METAR KBLI 120253Z 16010G14KT 10SM BKN040 BKN060 17/09 A2991 RMK AO2 SLP134 60000 T01720089 53003=
202106120153 METAR KBLI 120153Z VRB06KT 10SM BKN045 BKN060 18/08 A2990 RMK AO2 RAE50 SLP131 P0000 T01780083=
202106120053 METAR KBLI 120053Z 16010G19KT 10SM -RA BKN055 OVC060 18/08 A2990 RMK AO2 SLP130 P0000 T01780078=
202106112353 METAR KBLI 112353Z 16007G16KT 10SM -RA SCT055 BKN080 BKN095 17/05 A2990 RMK AO2 SLP131 P0000 60001 T01720050 10178 20144 51001=
202106112253 METAR KBLI 112253Z 14010G20KT 10SM -RA OVC070 16/04 A2990 RMK AO2 SLP131 P0001 T01610039=
202106112153 METAR KBLI 112153Z 16008KT 10SM -RA OVC065 14/02 A2991 RMK AO2 SLP134 P0000 T01440017=
202106112053 METAR KBLI 112053Z 16012KT 10SM -RA OVC060 17/03 A2990 RMK AO2 PK WND 17026/2032 RAB08 SLP131 P0000 60000 T01670028 55001=
202106111953 METAR KBLI 111953Z 19012G20KT 10SM BKN065 BKN080 OVC095 16/03 A2989 RMK AO2 SLP128 T01610028=
202106111853 METAR KBLI 111853Z 19010KT 10SM OVC085 18/04 A2989 RMK AO2 SLP127 T01780044=
202106111753 METAR KBLI 111753Z 18009G18KT 10SM FEW090 17/04 A2990 RMK AO2 SLP131 T01720039 10178 20106 58002=
202106111653 METAR KBLI 111653Z 19007KT 10SM OVC110 16/02 A2991 RMK AO2 SLP136 T01560022=
202106111553 METAR KBLI 111553Z 04003KT 10SM OVC095 14/02 A2990 RMK AO2 SLP131 T01440017=
202106111453 METAR KBLI 111453Z 05005KT 10SM OVC110 13/00 A2990 RMK AO2 SLP132 T01330000 56014=
202106111353 METAR KBLI 111353Z AUTO 03005KT 10SM OVC110 12/M01 A2992 RMK AO2 SLP136 T01171011=
202106111253 METAR KBLI 111253Z AUTO 02004KT 10SM BKN120 11/M02 A2993 RMK AO2 SLP142 T01061022=
202106111153 METAR KBLI 111153Z AUTO 03004KT 10SM SCT110 11/M02 A2995 RMK AO2 SLP146 70001 T01061022 10117 20100 56023=
202106111053 METAR KBLI 111053Z AUTO 02003KT 10SM CLR 11/M02 A2996 RMK AO2 SLP152 T01061017=
202106110953 METAR KBLI 110953Z AUTO 01003KT 10SM FEW120 11/M02 A2999 RMK AO2 SLP164 T01061017=
202106110853 METAR KBLI 110853Z AUTO 02003KT 10SM CLR 11/00 A3001 RMK AO2 SLP171 T01060000 58020=
202106110753 METAR KBLI 110753Z AUTO 00000KT 10SM CLR 11/M01 A3004 RMK AO2 SLP178 T01111011 401830100=
202106110653 METAR KBLI 110653Z AUTO 00000KT 10SM CLR 11/00 A3006 RMK AO2 SLP184 T01110000=
202106110553 METAR KBLI 110553Z AUTO 00000KT 10SM CLR 11/00 A3007 RMK AO2 SLP190 T01110000 10183 20111 56009=
202106110453 METAR KBLI 110453Z 00000KT 10SM CLR 12/00 A3008 RMK AO2 SLP193 T01220000=
202106110353 METAR KBLI 110353Z 00000KT 10SM CLR 14/M01 A3009 RMK AO2 SLP196 T01391011=
202106110253 METAR KBLI 110253Z 00000KT 10SM FEW090 17/03 A3010 RMK AO2 SLP198 T01670028 56008=
202106110153 METAR KBLI 110153Z VRB03KT 10SM SCT100 17/03 A3010 RMK AO2 SLP200 T01720028=
202106110053 METAR KBLI 110053Z VRB05KT 10SM CLR 18/02 A3011 RMK AO2 SLP202 T01780022=
202106102353 METAR KBLI 102353Z 20004KT 10SM CLR 18/06 A3012 RMK AO2 SLP206 60001 T01780056 10183 20133 58009=
202106102253 METAR KBLI 102253Z 17007KT 10SM CLR 17/06 A3014 RMK AO2 RAE07 SLP210 P0000 T01720061=
202106102153 METAR KBLI 102153Z 20010G15KT 10SM -RA CLR 17/06 A3014 RMK AO2 SLP214 P0000 T01720061=
202106102053 METAR KBLI 102053Z VRB06KT 10SM -RA CLR 17/06 A3015 RMK AO2 RAB1955E15B38 SLP217 P0000 60001 T01670056 50002=
202106101953 METAR KBLI 101953Z 18007KT 150V260 10SM BKN055 OVC070 16/05 A3016 RMK AO2 RAE53 SLP218 P0000 T01610050=
202106101853 METAR KBLI 101853Z 18008KT 10SM -RA OVC055 13/02 A3015 RMK AO2 RAB43 SLP217 P0001 T01330022=
202106101753 METAR KBLI 101753Z 20008G16KT 10SM BKN050 OVC065 13/03 A3015 RMK AO2 SLP215 T01330033 10139 20100 52006=
202106101653 METAR KBLI 101653Z 17008KT 10SM OVC060 13/02 A3014 RMK AO2 SLP213 T01330022=
202106101553 METAR KBLI 101553Z 19007KT 10SM OVC065 12/02 A3013 RMK AO2 SLP211 T01220017=
202106101453 METAR KBLI 101453Z 19006KT 10SM FEW038 OVC070 12/02 A3013 RMK AO2 SLP208 T01220017 52008=
202106101353 METAR KBLI 101353Z 18006KT 10SM BKN070 OVC080 12/01 A3012 RMK AO2 SLP204 T01170011=
202106101253 METAR KBLI 101253Z AUTO 19003KT 10SM BKN080 11/01 A3011 RMK AO2 SLP202 T01060011=
202106101153 METAR KBLI 101153Z AUTO 21003KT 10SM FEW055 OVC075 11/02 A3010 RMK AO2 RAB13E47 SLP199 P0000 60000 T01110017 10117 20094 51007=
202106101053 METAR KBLI 101053Z AUTO 19003KT 10SM BKN055 OVC070 11/01 A3010 RMK AO2 SLP197 T01110011=
202106100953 METAR KBLI 100953Z AUTO 17004KT 10SM SCT050 OVC070 11/01 A3009 RMK AO2 SLP196 T01060011=
202106100853 METAR KBLI 100853Z AUTO 19004KT 10SM CLR 11/02 A3008 RMK AO2 SLP192 T01110017 55001=
202106100753 METAR KBLI 100753Z AUTO 20003KT 10SM CLR 11/01 A3007 RMK AO2 SLP190 T01110006 401890094=
202106100653 METAR KBLI 100653Z AUTO 00000KT 10SM CLR 10/M01 A3007 RMK AO2 SLP189 T01001006=
202106100553 METAR KBLI 100553Z AUTO 00000KT 10SM CLR 11/01 A3008 RMK AO2 SLP194 T01110011 10189 20111 58005=
202106100453 METAR KBLI 100453Z 19004KT 10SM CLR 12/02 A3010 RMK AO2 SLP199 T01170022=
202106100353 METAR KBLI 100353Z 00000KT 10SM CLR 13/03 A3010 RMK AO2 SLP200 T01330033=
202106100253 METAR KBLI 100253Z 20004KT 10SM CLR 16/05 A3010 RMK AO2 SLP197 T01610050 53001=
202106100153 METAR KBLI 100153Z VRB05KT 10SM CLR 17/05 A3009 RMK AO2 SLP196 T01720050=
202106100053 METAR KBLI 100053Z 30008KT 10SM CLR 18/04 A3010 RMK AO2 SLP197 T01780044=
202106092353 METAR KBLI 092353Z VRB06KT 10SM CLR 18/04 A3009 RMK AO2 SLP196 T01830044 10189 20150 55005=
202106092253 METAR KBLI 092253Z 23009KT 10SM CLR 18/06 A3009 RMK AO2 SLP196 T01780056=
202106092153 METAR KBLI 092153Z VRB05KT 10SM CLR 18/05 A3010 RMK AO2 SLP199 T01830050=
202106092053 METAR KBLI 092053Z 21007G15KT 170V240 10SM SCT060 17/06 A3011 RMK AO2 SLP202 T01720061 58007=
202106091953 METAR KBLI 091953Z 19008KT 150V220 10SM SCT060 17/07 A3012 RMK AO2 SLP205 T01670067=
202106091853 METAR KBLI 091853Z VRB06KT 10SM SCT050 16/06 A3012 RMK AO2 SLP207 T01610061=
202106091753 METAR KBLI 091753Z 17009G14KT 10SM CLR 15/06 A3013 RMK AO2 SLP209 T01500056 10156 20111 51005=
202106091653 METAR KBLI 091653Z 18010KT 10SM SCT050 14/05 A3013 RMK AO2 SLP209 T01440050=
202106091553 METAR KBLI 091553Z 19009KT 10SM OVC050 13/04 A3012 RMK AO2 SLP208 T01330039=
202106091453 METAR KBLI 091453Z 19007KT 10SM BKN050 13/03 A3012 RMK AO2 SLP204 T01280033 51010=
202106091353 METAR KBLI 091353Z 19004KT 10SM BKN047 12/02 A3011 RMK AO2 SLP201 T01220022=
202106091253 METAR KBLI 091253Z AUTO 18004KT 10SM FEW049 12/02 A3010 RMK AO2 SLP198 T01170017=
202106091153 METAR KBLI 091153Z AUTO 19005KT 10SM OVC048 12/03 A3008 RMK AO2 SLP194 60000 T01220028 10139 20122 52007=
202106091053 METAR KBLI 091053Z AUTO 18008KT 10SM SCT049 OVC085 13/03 A3008 RMK AO2 SLP191 T01280033=
202106090953 METAR KBLI 090953Z AUTO 19008KT 10SM FEW060 SCT080 BKN090 13/03 A3007 RMK AO2 RAB0859E39 SLP189 P0000 T01280028=
202106090853 METAR KBLI 090853Z AUTO 19005KT 10SM BKN060 OVC080 13/03 A3006 RMK AO2 RAB03E15B32E46 SLP186 P0000 60000 T01280033 51005=
202106090753 METAR KBLI 090753Z AUTO 19009KT 10SM OVC065 14/04 A3006 RMK AO2 SLP184 T01390039 401890050=
202106090653 METAR KBLI 090653Z AUTO 18007KT 10SM FEW060 OVC090 14/04 A3006 RMK AO2 SLP184 T01390039=
202106090553 METAR KBLI 090553Z AUTO 18006KT 10SM SCT070 OVC080 14/04 A3005 RMK AO2 SLP182 T01390039 10183 20128 51015=
202106090453 METAR KBLI 090453Z 17007KT 10SM OVC080 14/06 A3004 RMK AO2 SLP178 T01440056=
202106090353 METAR KBLI 090353Z 00000KT 10SM FEW090 13/04 A3002 RMK AO2 SLP173 T01330039=
202106090253 METAR KBLI 090253Z 22005KT 10SM CLR 16/05 A3001 RMK AO2 SLP168 T01610050 53011=
202106090153 METAR KBLI 090153Z VRB04KT 10SM CLR 18/06 A2999 RMK AO2 SLP161 T01780056=
202106090053 METAR KBLI 090053Z 29004KT 10SM CLR 18/06 A2998 RMK AO2 SLP160 T01780056=
202106082353 METAR KBLI 082353Z 27007KT 10SM CLR 18/06 A2997 RMK AO2 SLP157 T01780061 10189 20144 55000=
202106082253 METAR KBLI 082253Z VRB04KT 10SM CLR 18/07 A2997 RMK AO2 SLP155 T01830067=
202106082153 METAR KBLI 082153Z 22006KT 10SM CLR 18/06 A2997 RMK AO2 SLP155 T01780061=
202106082053 METAR KBLI 082053Z VRB05KT 10SM CLR 17/06 A2997 RMK AO2 SLP157 T01720056 53004=
202106081953 METAR KBLI 081953Z 10SM SCT100 18/08 A2997 RMK AO2 SLP155 T01780083=
202106081853 METAR KBLI 081853Z VRB05KT 10SM CLR 17/09 A2997 RMK AO2 SLP154 T01670089=
202106081753 METAR KBLI 081753Z 21006KT 10SM FEW026 14/08 A2996 RMK AO2 SLP153 T01440078 10156 20056 57001=
202106081653 METAR KBLI 081653Z 33005KT 10SM FEW050 SCT080 15/08 A2996 RMK AO2 SLP153 T01500078=
202106081553 METAR KBLI 081553Z 00000KT 10SM FEW050 SCT090 13/06 A2996 RMK AO2 SLP153 T01280061=
202106081453 METAR KBLI 081453Z 00000KT 10SM FEW050 SCT090 11/06 A2996 RMK AO2 SLP154 T01110056 53008=
202106081353 METAR KBLI 081353Z 00000KT 10SM SCT090 SCT120 09/02 A2995 RMK AO2 SLP150 T00890022=
202106081253 METAR KBLI 081253Z AUTO 00000KT 10SM BKN080 OVC110 07/00 A2995 RMK AO2 SLP148 T00720000=
202106081153 METAR KBLI 081153Z AUTO 00000KT 10SM BKN120 06/M01 A2994 RMK AO2 SLP146 T00561011 10089 20050 51001=
202106081053 METAR KBLI 081053Z AUTO 00000KT 7SM FEW120 07/00 A2994 RMK AO2 SLP146 T00670000=
202106080953 METAR KBLI 080953Z AUTO 00000KT 10SM CLR 07/00 A2995 RMK AO2 SLP147 T00670000=
202106080853 METAR KBLI 080853Z AUTO 00000KT 10SM FEW050 08/01 A2994 RMK AO2 SLP145 T00780011 50001=
202106080753 METAR KBLI 080753Z AUTO 00000KT 10SM FEW050 08/00 A2994 RMK AO2 SLP145 T00780000 401610072=
202106080653 METAR KBLI 080653Z AUTO 00000KT 10SM CLR 08/02 A2994 RMK AO2 SLP144 T00780017=
202106080553 METAR KBLI 080553Z AUTO 00000KT 10SM CLR 09/03 A2994 RMK AO2 SLP144 T00890028 10161 20083 53002=
202106080453 METAR KBLI 080453Z 00000KT 10SM CLR 10/04 A2993 RMK AO2 SLP143 T01000044=
202106080353 METAR KBLI 080353Z 00000KT 10SM CLR 12/04 A2993 RMK AO2 SLP141 T01170044=
202106080253 METAR KBLI 080253Z 00000KT 10SM CLR 14/05 A2993 RMK AO2 SLP142 T01440050 55006=
202106080153 METAR KBLI 080153Z VRB03KT 10SM CLR 16/03 A2993 RMK AO2 SLP141 T01610033=
202106080053 METAR KBLI 080053Z VRB04KT 10SM FEW060 16/03 A2994 RMK AO2 SLP144 T01560033=
202106072353 METAR KBLI 072353Z 21004KT 10SM FEW035 FEW060 16/04 A2995 RMK AO2 SLP148 T01560044 10161 20117 56005=
202106072253 METAR KBLI 072253Z 22004KT 10SM FEW030 SCT060 16/06 A2995 RMK AO2 SLP148 T01560061=
202106072153 METAR KBLI 072153Z 21004KT 10SM SCT035 SCT060 14/07 A2995 RMK AO2 SLP150 T01390067=
202106072053 METAR KBLI 072053Z 20007KT 170V240 10SM FEW055 14/08 A2996 RMK AO2 SLP152 T01390083 50004=
202106071953 METAR KBLI 071953Z 20008KT 160V230 10SM FEW020 SCT043 SCT055 13/08 A2996 RMK AO2 SLP153 T01330083=
202106071853 METAR KBLI 071853Z 19011G17KT 10SM SCT030 SCT046 13/08 A2996 RMK AO2 SLP153 T01280078=
202106071753 METAR KBLI 071753Z VRB06G16KT 10SM SCT030 12/08 A2995 RMK AO2 SLP148 60000 T01220078 10122 20072 50005=
202106071653 METAR KBLI 071653Z 20008KT 150V230 10SM FEW020 SCT030 11/07 A2995 RMK AO2 SLP149 T01060067=
202106071553 METAR KBLI 071553Z 21007KT 170V240 10SM SCT020 BKN040 OVC049 11/06 A2994 RMK AO2 SLP147 T01060056=
202106071453 METAR KBLI 071453Z 19003KT 10SM FEW020 BKN040 BKN050 10/05 A2993 RMK AO2 SLP143 60000 T01000050 53015=
202106071353 METAR KBLI 071353Z 16006KT 10SM BKN038 09/06 A2991 RMK AO2 SLP136 T00940056=
202106071153 METAR KBLI 071153Z AUTO 19003KT 10SM -RA FEW025 BKN035 OVC046 09/07 A2989 RMK AO2 RAB44 SLP128 P0000 60006 70012 T00940067 10100 20078 51015=
202106071053 METAR KBLI 071053Z AUTO 00000KT 10SM SCT047 SCT060 BKN090 09/06 A2988 RMK AO2 RAE0959 SLP126 P0000 T00890061=
202106070853 METAR KBLI 070853Z AUTO 19003KT 10SM FEW030 SCT050 BKN065 10/07 A2985 RMK AO2 RAE14 SLP113 P0001 60006 T01000072 53004=
202106070753 METAR KBLI 070753Z AUTO 00000KT 7SM -RA BKN030 OVC038 10/08 A2984 RMK AO2 RAB20 SLP110 P0004 T01000078 401280094=
202106070653 METAR KBLI 070653Z AUTO 10004KT 10SM FEW030 SCT039 OVC060 10/07 A2983 RMK AO2 RAE0557B31E50 SLP108 P0001 T01000067=
202106070553 METAR KBLI 070553Z AUTO 36003KT 10SM -RA OVC036 10/08 A2983 RMK AO2 RAB07 SLP109 P0002 60003 T01000078 10122 20100 53001=
202106070537 SPECI KBLI 070537Z AUTO 00000KT 10SM -RA BKN034 OVC045 10/07 A2983 RMK AO2 RAB07 P0002 T01000072=
202106070453 METAR KBLI 070453Z 00000KT 10SM BKN028 BKN036 OVC055 10/07 A2983 RMK AO2 RAE21 SLP108 P0000 T01000072=
202106070353 METAR KBLI 070353Z 00000KT 10SM -RA BKN027 BKN034 OVC090 11/08 A2982 RMK AO2 RAB44 SLP106 P0000 T01060078=
202106070253 METAR KBLI 070253Z 09005KT 10SM BKN027 OVC032 12/07 A2983 RMK AO2 SLP108 60001 T01170072 56009=
202106070153 METAR KBLI 070153Z 15005G15KT 10SM BKN025 BKN035 OVC044 11/07 A2984 RMK AO2 RAE48 SLP112 P0000 T01110072=
202106070053 METAR KBLI 070053Z 17006KT 10SM -RA FEW017 SCT023 BKN032 11/07 A2986 RMK AO2 SLP117 P0001 T01110072=
202106062353 METAR KBLI 062353Z 15007KT 10SM -RA SCT020 BKN032 OVC045 12/04 A2986 RMK AO2 SLP119 P0001 60003 T01170044 10128 20106 58010=
202106062253 METAR KBLI 062253Z 12008KT 10SM -RA SCT025 BKN045 OVC055 12/06 A2988 RMK AO2 SLP125 P0001 T01220056=
202106062153 METAR KBLI 062153Z 14011KT 10SM -RA SCT025 BKN040 OVC055 13/06 A2989 RMK AO2 RAB2057E23B43 SLP128 P0000 T01280056=
202106062053 METAR KBLI 062053Z 15010KT 10SM SCT025 BKN040 OVC060 12/05 A2989 RMK AO2 RAE48 SLP129 P0000 60001 T01220050 56015=
202106061953 METAR KBLI 061953Z 17009KT 10SM -RA SCT025 BKN050 OVC070 12/04 A2990 RMK AO2 SLP132 P0000 T01170039=
202106061853 METAR KBLI 061853Z 13008KT 10SM -RA OVC060 11/06 A2992 RMK AO2 SLP137 P0001 T01110056=
202106061753 METAR KBLI 061753Z 15006KT 10SM -RA SCT024 BKN035 OVC045 12/06 A2994 RMK AO2 SLP144 P0000 60000 T01170056 10117 20106 58013=
202106061653 METAR KBLI 061653Z 17006KT 10SM -RA SCT024 OVC060 12/06 A2995 RMK AO2 RAB09 SLP150 P0000 T01170056=
202106061553 METAR KBLI 061553Z 15007KT 10SM BKN024 OVC070 12/06 A2998 RMK AO2 SLP157 T01170056=
202106061548 SPECI KBLI 061548Z 15006KT 10SM BKN024 OVC070 12/06 A2998 RMK AO2=
202106061459 SPECI KBLI 061459Z 17007KT 10SM FEW015 BKN030 OVC070 11/06 A2999 RMK AO2 T01110056=
202106061453 METAR KBLI 061453Z 17007KT 10SM FEW015 BKN027 OVC075 11/05 A2999 RMK AO2 SLP161 T01110050 58006=
202106061353 METAR KBLI 061353Z AUTO 17006KT 10SM FEW029 OVC050 11/04 A3000 RMK AO2 SLP165 T01110044=
202106061253 METAR KBLI 061253Z AUTO 19005KT 10SM BKN070 11/02 A3000 RMK AO2 SLP165 T01110017=
202106061153 METAR KBLI 061153Z AUTO 18006KT 10SM FEW030 BKN043 OVC065 11/03 A3000 RMK AO2 SLP167 60000 70007 T01110033 10117 20100 58014=
202106061053 METAR KBLI 061053Z AUTO VRB03KT 10SM FEW026 BKN047 OVC070 11/02 A3002 RMK AO2 SLP171 T01060022=
202106060953 METAR KBLI 060953Z AUTO VRB04KT 10SM BKN045 BKN055 11/03 A3003 RMK AO2 SLP177 T01060033=
202106060853 METAR KBLI 060853Z AUTO 19006KT 10SM FEW050 SCT065 11/03 A3005 RMK AO2 RAB0756E30 SLP181 P0000 60000 T01060033 51002=
202106060753 METAR KBLI 060753Z AUTO 18006KT 10SM FEW021 11/03 A3005 RMK AO2 RAE47 SLP181 P0000 T01060033 401830106=
202106060653 METAR KBLI 060653Z AUTO 19007KT 10SM -RA BKN070 11/04 A3005 RMK AO2 SLP181 P0000 T01110044=
202106060553 METAR KBLI 060553Z AUTO 19007KT 10SM -RA BKN060 12/04 A3004 RMK AO2 RAB13 SLP180 P0000 60000 T01170039 10172 20117 53011=
202106060453 METAR KBLI 060453Z VRB04KT 10SM SCT060 12/04 A3003 RMK AO2 RAB31E46 SLP175 P0000 T01170044=
202106060353 METAR KBLI 060353Z VRB05KT 10SM BKN055 13/05 A3002 RMK AO2 SLP172 T01280050=
202106060253 METAR KBLI 060253Z 22009KT 10SM SCT060 14/04 A3001 RMK AO2 RAB50E53 SLP168 P0000 60000 T01390044 51011=
202106060153 METAR KBLI 060153Z 26007G18KT 230V300 10SM SCT055 15/05 A3000 RMK AO2 RAB34E44 SLP167 P0000 T01500050=
202106060053 METAR KBLI 060053Z 10SM SCT060 17/06 A2999 RMK AO2 SLP161 T01670056=
202106052353 METAR KBLI 052353Z 19008G18KT 10SM SCT060 16/07 A2998 RMK AO2 SLP157 60000 T01610067 10183 20133 53006=
202106052253 METAR KBLI 052253Z 25008G17KT 10SM FEW055 18/07 A2997 RMK AO2 RAE06 SLP154 P0000 T01780072=
202106052153 METAR KBLI 052153Z 19009G15KT 10SM -RA SCT041 17/09 A2996 RMK AO2 SLP151 P0000 T01670089=
202106052053 METAR KBLI 052053Z 17014G19KT 10SM -RA FEW026 SCT090 17/11 A2996 RMK AO2 SLP150 P0000 60000 T01670106 50008=
202106051953 METAR KBLI 051953Z 17011G17KT 10SM -RA FEW026 BKN090 15/11 A2996 RMK AO2 SLP152 P0000 T01500106=
202106051853 METAR KBLI 051853Z 20010G20KT 10SM -RA BKN070 OVC090 14/09 A2994 RMK AO2 RAB17 SLP147 P0000 T01440094=
202106051753 METAR KBLI 051753Z 19009KT 10SM BKN070 OVC090 13/09 A2993 RMK AO2 RAB02E53 SLP143 P0001 60007 T01330089 10144 20117 53005=
202106051727 SPECI KBLI 051727Z 21006KT 10SM -RA SCT020 BKN065 OVC100 13/09 A2994 RMK AO2 RAB02 P0000 T01330089=
202106051653 METAR KBLI 051653Z 18008G18KT 10SM FEW019 BKN023 BKN029 14/09 A2993 RMK AO2 SLP142 T01390094=
202106051601 SPECI KBLI 051601Z 19010G19KT 10SM FEW018 BKN075 OVC100 13/08 A2992 RMK AO2 T01280083=
202106051553 METAR KBLI 051553Z 19011KT 10SM SCT018 BKN023 OVC100 13/08 A2992 RMK AO2 SLP138 T01280083=
202106051453 METAR KBLI 051453Z 19009G17KT 10SM SCT014 OVC070 12/08 A2991 RMK AO2 SLP133 60006 T01220078 55001=
202106051353 METAR KBLI 051353Z 19008G17KT 10SM SCT016 OVC075 12/08 A2990 RMK AO2 RAE1255 SLP130 P0000 T01220078=
202106051253 METAR KBLI 051253Z AUTO 18008KT 10SM -RA BKN049 BKN065 OVC080 12/07 A2989 RMK AO2 SLP127 P0006 T01170072=
202106051210 SPECI KBLI 051210Z AUTO 18005KT 4SM RA FEW017 BKN048 OVC055 12/07 A2990 RMK AO2 P0005 T01170067=
202106051201 SPECI KBLI 051201Z AUTO 2SM RA SCT017 BKN033 OVC055 12/06 A2990 RMK AO2 P0003 T01170061=
202106051153 METAR KBLI 051153Z AUTO VRB03KT 1 3/4SM +RA SCT017 BKN023 OVC034 12/07 A2991 RMK AO2 RAE1055B09 SLP134 P0009 60025 70027 T01170067 10133 20117 53001=
202106051100 SPECI KBLI 051100Z AUTO 00000KT 10SM FEW024 OVC031 12/07 A2990 RMK AO2 RAE1055 P0000 T01220072=
202106051053 METAR KBLI 051053Z AUTO 00000KT 9SM -RA FEW024 BKN029 OVC055 12/07 A2990 RMK AO2 SLP131 P0004 T01170072=
202106051051 SPECI KBLI 051051Z AUTO 00000KT 7SM -RA SCT024 BKN030 OVC055 12/07 A2990 RMK AO2 P0004=
202106051038 SPECI KBLI 051038Z AUTO 14003KT 3SM -RA BKN027 OVC032 12/07 A2990 RMK AO2 P0003 T01220067=
202106050953 METAR KBLI 050953Z AUTO 00000KT 10SM -RA BKN034 OVC060 12/07 A2991 RMK AO2 SLP133 P0006 T01220072=
202106050853 METAR KBLI 050853Z AUTO 00000KT 7SM -RA SCT045 OVC060 12/06 A2991 RMK AO2 SLP134 P0003 60006 T01220061 58013=
202106050753 METAR KBLI 050753Z AUTO 00000KT 9SM -RA FEW048 SCT060 OVC075 13/08 A2993 RMK AO2 RAB11 SLP139 P0001 T01280078 401780122=
202106050653 METAR KBLI 050653Z AUTO 00000KT 10SM FEW060 OVC075 13/09 A2993 RMK AO2 RAE45 SLP142 P0002 T01280089=
202106050553 METAR KBLI 050553Z AUTO 33004KT 4SM -RA OVC048 13/09 A2995 RMK AO2 RAB37 SLP147 P0002 60002 T01330094 10172 20133 56014=
202106050453 METAR KBLI 050453Z 00000KT 10SM BKN050 OVC065 14/09 A2996 RMK AO2 RAB36E52 SLP151 P0000 T01390094=
202106050353 METAR KBLI 050353Z 00000KT 10SM SCT065 BKN110 14/09 A2996 RMK AO2 SLP151 T01440089=
202106050253 METAR KBLI 050253Z 00000KT 10SM FEW070 BKN100 16/10 A2999 RMK AO2 SLP161 T01610100 56019=
202106050153 METAR KBLI 050153Z 00000KT 10SM SCT070 BKN100 17/08 A3000 RMK AO2 SLP164 T01720083=
202106050053 METAR KBLI 050053Z 18006KT 10SM SCT080 BKN100 17/08 A3003 RMK AO2 SLP173 T01670078=
202106042353 METAR KBLI 042353Z 18007KT 10SM BKN075 OVC090 17/08 A3005 RMK AO2 RAE2254B28E39 SLP180 P0000 60000 T01670083 10178 20150 58008=
202106042253 METAR KBLI 042253Z 17006KT 10SM -RA BKN070 OVC085 17/08 A3006 RMK AO2 SLP185 P0000 T01670083=
202106042153 METAR KBLI 042153Z 18007G17KT 10SM -RA OVC095 17/08 A3007 RMK AO2 SLP187 P0000 T01720083=
202106042053 METAR KBLI 042053Z 18010G20KT 10SM -RA OVC100 17/08 A3007 RMK AO2 SLP189 P0000 60000 T01720083 50001=
202106041953 METAR KBLI 041953Z 19012G18KT 10SM -RA CLR 17/08 A3007 RMK AO2 SLP189 P0000 T01720078=
202106041853 METAR KBLI 041853Z 19007KT 10SM -RA OVC100 16/09 A3007 RMK AO2 SLP188 P0000 T01560089=
202106041753 METAR KBLI 041753Z 19010G20KT 10SM -RA CLR 15/08 A3007 RMK AO2 SLP188 P0000 60000 T01500078 10150 20122 53011=
202106041653 METAR KBLI 041653Z 19011G21KT 10SM -RA BKN120 14/08 A3006 RMK AO2 SLP185 P0000 T01390083=
202106041553 METAR KBLI 041553Z 18013G22KT 10SM -RA FEW120 14/08 A3004 RMK AO2 PK WND 17027/1514 SLP178 P0000 T01390083=
202106041453 METAR KBLI 041453Z 18011G23KT 10SM -RA CLR 13/08 A3004 RMK AO2 RAB00 SLP177 P0000 60000 T01330083 53014=
202106041353 METAR KBLI 041353Z 18012G21KT 10SM CLR 13/08 A3001 RMK AO2 SLP170 T01280078=
202106041253 METAR KBLI 041253Z AUTO 18013G21KT 10SM FEW055 12/08 A3000 RMK AO2 SLP166 T01220083=
202106041153 METAR KBLI 041153Z AUTO 18008G19KT 10SM SCT055 12/08 A3000 RMK AO2 SLP163 T01220083 10156 20122 53013=
202106041053 METAR KBLI 041053Z AUTO 19012KT 10SM FEW049 SCT065 13/09 A2998 RMK AO2 SLP157 T01280089=
202106040953 METAR KBLI 040953Z AUTO 20009G23KT 10SM BKN041 BKN050 13/09 A2997 RMK AO2 SLP154 T01330089=
202106040853 METAR KBLI 040853Z AUTO 18004KT 10SM BKN060 14/07 A2996 RMK AO2 SLP150 T01390072 51010=
202106040753 METAR KBLI 040753Z AUTO 19004KT 10SM CLR 13/07 A2995 RMK AO2 SLP148 T01280072 402110128=
202106040653 METAR KBLI 040653Z AUTO 19012G19KT 10SM CLR 15/08 A2995 RMK AO2 SLP147 T01500078=
202106040553 METAR KBLI 040553Z AUTO 19009G20KT 10SM CLR 14/09 A2993 RMK AO2 SLP140 T01440094 10206 20144 53008=
202106040453 METAR KBLI 040453Z 19011G19KT 10SM CLR 16/09 A2992 RMK AO2 SLP136 T01610089=
202106040353 METAR KBLI 040353Z 19010G17KT 10SM CLR 19/06 A2990 RMK AO2 SLP132 T01890061=
202106040253 METAR KBLI 040253Z 20011G20KT 10SM CLR 19/10 A2991 RMK AO2 SLP132 T01890100 56008=
202106040153 METAR KBLI 040153Z 18010KT 10SM CLR 19/11 A2991 RMK AO2 SLP135 T01940106=
202106040053 METAR KBLI 040053Z 19008G18KT 10SM CLR 21/13 A2992 RMK AO2 SLP138 T02060128=
202106032353 METAR KBLI 032353Z 19011KT 10SM CLR 21/13 A2993 RMK AO2 SLP140 T02060133 10211 20183 58012=
202106032253 METAR KBLI 032253Z 18009KT 10SM CLR 21/14 A2995 RMK AO2 SLP147 T02110144=
202106032153 METAR KBLI 032153Z 19009G16KT 10SM CLR 21/14 A2996 RMK AO2 SLP152 T02060144=
202106032053 METAR KBLI 032053Z 21007G18KT 10SM CLR 19/14 A2996 RMK AO2 SLP152 T01890139 58002=
202106031953 METAR KBLI 031953Z 20012G18KT 10SM CLR 18/14 A2997 RMK AO2 SLP154 T01830139=
202106031853 METAR KBLI 031853Z 19011G19KT 10SM CLR 19/14 A2997 RMK AO2 SLP154 T01890139=
202106031753 METAR KBLI 031753Z 19011G20KT 10SM CLR 19/14 A2997 RMK AO2 SLP154 T01890139 10189 20150 58001=
202106031653 METAR KBLI 031653Z 18011G17KT 10SM SCT110 18/13 A2997 RMK AO2 SLP153 T01780133=
202106031553 METAR KBLI 031553Z 18011KT 10SM BKN120 18/13 A2997 RMK AO2 SLP155 T01780128=
202106031453 METAR KBLI 031453Z 20009G17KT 10SM CLR 16/13 A2997 RMK AO2 SLP154 T01560128 53013=
202106031353 METAR KBLI 031353Z 24004KT 10SM CLR 17/13 A2995 RMK AO2 SLP147 T01670128=
202106031253 METAR KBLI 031253Z AUTO 20004KT 10SM CLR 15/12 A2994 RMK AO2 SLP144 T01500122=
202106031153 METAR KBLI 031153Z AUTO 19006KT 10SM FEW100 15/12 A2993 RMK AO2 SLP140 T01500122 10178 20144 53005=
202106031053 METAR KBLI 031053Z AUTO 20005KT 10SM CLR 15/12 A2992 RMK AO2 SLP135 T01500122=
202106030953 METAR KBLI 030953Z AUTO 20005KT 10SM SCT080 15/12 A2992 RMK AO2 SLP136 T01500122=
202106030853 METAR KBLI 030853Z AUTO 19008KT 10SM CLR 16/12 A2992 RMK AO2 SLP136 T01560122 52008=
202106030753 METAR KBLI 030753Z AUTO 20005KT 10SM CLR 16/12 A2991 RMK AO2 SLP132 T01610122 402440128=
202106030653 METAR KBLI 030653Z AUTO 19010G20KT 10SM CLR 16/12 A2990 RMK AO2 SLP129 T01610117=
202106030553 METAR KBLI 030553Z AUTO 19008KT 10SM CLR 18/12 A2989 RMK AO2 SLP127 T01780117 10244 20178 53005=
202106030453 METAR KBLI 030453Z 19012G21KT 10SM CLR 19/12 A2989 RMK AO2 SLP125 T01890117=
202106030353 METAR KBLI 030353Z 20008KT 10SM CLR 21/14 A2987 RMK AO2 SLP121 T02060139=
202106030253 METAR KBLI 030253Z 19008KT 10SM CLR 21/13 A2988 RMK AO2 SLP122 T02110133 55003=
202106030153 METAR KBLI 030153Z 19008KT 10SM CLR 23/13 A2987 RMK AO2 SLP121 T02330133=
202106030053 METAR KBLI 030053Z 19008KT 10SM CLR 24/13 A2987 RMK AO2 SLP120 T02390133=
202106022353 METAR KBLI 022353Z 19011KT 10SM CLR 24/13 A2988 RMK AO2 SLP124 T02440128 10244 20211 58015=
202106022253 METAR KBLI 022253Z 20011G18KT 10SM CLR 24/13 A2990 RMK AO2 SLP129 T02390133=
202106022153 METAR KBLI 022153Z 19010G23KT 10SM CLR 22/13 A2991 RMK AO2 SLP135 T02220133=
202106022053 METAR KBLI 022053Z 20013G22KT 10SM CLR 21/13 A2993 RMK AO2 SLP140 T02110133 57002=
202106021953 METAR KBLI 021953Z 20010G20KT 10SM CLR 22/14 A2993 RMK AO2 SLP140 T02170139=
202106021853 METAR KBLI 021853Z VRB06KT 10SM CLR 23/14 A2994 RMK AO2 SLP141 T02280139=
202106021753 METAR KBLI 021753Z 19006G16KT 10SM CLR 22/14 A2994 RMK AO2 SLP142 T02170139 10222 20128 53005=
202106021653 METAR KBLI 021653Z 18011G19KT 10SM CLR 20/13 A2993 RMK AO2 SLP139 T02000133=
202106021553 METAR KBLI 021553Z 20009KT 10SM CLR 19/13 A2993 RMK AO2 SLP138 T01890133=
202106021453 METAR KBLI 021453Z 18006KT 10SM CLR 17/13 A2992 RMK AO2 SLP136 T01720133 51015=
202106021353 METAR KBLI 021353Z 18003KT 10SM CLR 17/14 A2991 RMK AO2 SLP132 T01720144=
202106021253 METAR KBLI 021253Z AUTO 19003KT 10SM CLR 15/14 A2989 RMK AO2 SLP125 T01500139=
202106021153 METAR KBLI 021153Z AUTO 00000KT 10SM CLR 13/12 A2987 RMK AO2 SLP121 T01330122 10178 20128 56001=
202106021053 METAR KBLI 021053Z AUTO 00000KT 10SM CLR 14/13 A2987 RMK AO2 SLP121 T01390133=
202106020953 METAR KBLI 020953Z AUTO 00000KT 10SM CLR 14/13 A2986 RMK AO2 SLP117 T01390133=
202106020853 METAR KBLI 020853Z AUTO 00000KT 10SM CLR 14/13 A2988 RMK AO2 SLP122 T01440133 53003=
202106020753 METAR KBLI 020753Z AUTO 00000KT 10SM CLR 17/13 A2986 RMK AO2 SLP117 T01720133 402780111=
202106020653 METAR KBLI 020653Z AUTO 00000KT 10SM CLR 16/13 A2987 RMK AO2 SLP119 T01610133=
202106020553 METAR KBLI 020553Z AUTO 00000KT 10SM CLR 17/13 A2987 RMK AO2 SLP118 T01670133 10278 20161 56004=
202106020453 METAR KBLI 020453Z 00000KT 10SM CLR 18/15 A2987 RMK AO2 SLP119 T01830150=
202106020353 METAR KBLI 020353Z 26003KT 10SM CLR 22/17 A2987 RMK AO2 SLP119 T02170167=
202106020253 METAR KBLI 020253Z 00000KT 10SM CLR 25/17 A2988 RMK AO2 SLP122 T02500167 56022=
202106020153 METAR KBLI 020153Z 33003KT 10SM CLR 28/15 A2989 RMK AO2 SLP128 T02780150=
202106020053 METAR KBLI 020053Z 32004KT 10SM CLR 28/14 A2992 RMK AO2 SLP136 T02780139=
202106012353 METAR KBLI 012353Z 32005KT 10SM CLR 27/15 A2994 RMK AO2 SLP144 T02720150 10272 20233 56023=
202106012253 METAR KBLI 012253Z 28007KT 10SM CLR 26/14 A2997 RMK AO2 SLP152 T02610139=
202106012153 METAR KBLI 012153Z 29007KT 10SM CLR 26/15 A2999 RMK AO2 SLP159 T02610150=
202106012053 METAR KBLI 012053Z 30010KT 10SM CLR 26/15 A3001 RMK AO2 SLP168 T02560150 56021=
202106011953 METAR KBLI 011953Z 28005KT 10SM CLR 26/15 A3003 RMK AO2 SLP174 T02560150=
202106011853 METAR KBLI 011853Z 34007KT 10SM CLR 24/16 A3006 RMK AO2 SLP183 T02440156=
202106011753 METAR KBLI 011753Z 33007KT 10SM CLR 23/15 A3008 RMK AO2 SLP189 T02330150 10239 20111 58013=
202106011653 METAR KBLI 011653Z 05004KT 10SM CLR 23/15 A3009 RMK AO2 SLP194 T02280150=
202106011553 METAR KBLI 011553Z 36006KT 10SM CLR 20/14 A3010 RMK AO2 SLP198 T02000144=
202106011453 METAR KBLI 011453Z 02003KT 10SM CLR 17/14 A3011 RMK AO2 SLP202 T01670139 56002=
202106011355 SPECI KBLI 011355Z 01003KT 10SM CLR 14/13 A3012 RMK AO2 T01390128=
202106011353 METAR KBLI 011353Z 01003KT 5SM BR CLR 14/13 A3012 RMK AO2 SLP204 T01390133=
202106011253 METAR KBLI 011253Z AUTO 00000KT 10SM CLR 12/11 A3011 RMK AO2 SLP203 T01170111=
202106011153 METAR KBLI 011153Z AUTO 00000KT 10SM CLR 12/12 A3012 RMK AO2 SLP206 T01220117 10150 20117 58008=
202106011053 METAR KBLI 011053Z AUTO 00000KT 10SM CLR 12/12 A3013 RMK AO2 SLP209 T01220117=
202106010953 METAR KBLI 010953Z AUTO 00000KT 10SM CLR 13/12 A3014 RMK AO2 SLP211 T01330122=
202106010853 METAR KBLI 010853Z AUTO 00000KT 10SM CLR 13/13 A3015 RMK AO2 SLP214 T01330128 56008=
202106010753 METAR KBLI 010753Z AUTO 00000KT 10SM CLR 14/13 A3015 RMK AO2 SLP215 T01390128 402440106=
202106010653 METAR KBLI 010653Z AUTO 00000KT 10SM CLR 14/12 A3016 RMK AO2 SLP218 T01390122=
202106010553 METAR KBLI 010553Z AUTO 00000KT 10SM CLR 15/13 A3017 RMK AO2 SLP222 T01500128 10239 20144 51005=
202106010453 METAR KBLI 010453Z 00000KT 10SM CLR 16/13 A3017 RMK AO2 SLP222 T01560128=
202106010353 METAR KBLI 010353Z 30005KT 10SM CLR 19/12 A3016 RMK AO2 SLP219 T01890117=
202106010253 METAR KBLI 010253Z 29003KT 10SM CLR 21/12 A3016 RMK AO2 SLP217 T02110122 58005=
202106010153 METAR KBLI 010153Z 28004KT 10SM CLR 23/12 A3016 RMK AO2 SLP218 T02280117=
202106010053 METAR KBLI 010053Z VRB05KT 10SM CLR 23/09 A3017 RMK AO2 SLP223 T02330094=

# No short TAF reports from KBLI in databse.

###################################
#  large TAF from KBLI
###################################
202106302339 TAF KBLI 302339Z 0100/0124 18015G25KT P6SM SKC FM011100 17009KT
                       P6SM SCT030 FM011400 17010KT P6SM BKN025=
202106301724 TAF KBLI 301724Z 3018/0118 18012G20KT P6SM BKN015 FM302100 18015G25KT
                       P6SM SKC FM011100 17009KT P6SM SCT030 FM011400
                       17010KT P6SM BKN025=
202106301137 TAF KBLI 301137Z 3012/0112 18010KT P6SM SKC FM301900 18015G25KT
                       P6SM SKC FM011100 17009KT P6SM SCT030=
202106300905 KBLI 300905Z 3009/0106 17010G20KT P6SM SKC FM301200 18017G24KT
                       P6SM SCT015 FM301700 18015G25KT P6SM SKC=
202106300541 TAF KBLI 300541Z 3006/0106 17015G30KT P6SM SKC FM301200 18017G24KT
                       P6SM SCT015 FM301700 18015G25KT P6SM SKC=
202106292326 TAF KBLI 292326Z 3000/3024 19010G20KT P6SM SKC FM301200 18017G30KT
                       P6SM SCT015 FM301700 18015KT P6SM SKC=
202106291735 TAF KBLI 291735Z 2918/3018 19010KT P6SM SKC FM301200 18017G30KT
                       P6SM SCT015 FM301700 18015KT P6SM SKC=
202106291132 TAF KBLI 291132Z 2912/3012 VRB03KT P6SM SKC FM291900 19010KT P6SM
                       SKC=
202106290535 TAF KBLI 290535Z 2906/3006 VRB04KT P6SM SKC FM291300 19015KT P6SM
                       SKC=
202106282355 TAF KBLI 282355Z 2900/2924 30005KT P6SM SKC FM291000 19015KT P6SM
                       SKC=
202106281728 TAF KBLI 281728Z 2818/2918 18006KT P6SM SKC FM282000 30005KT P6SM
                       SKC FM291000 19015KT P6SM SKC=
202106281120 TAF KBLI 281120Z 2812/2912 18008KT P6SM SKC FM281800 30005KT P6SM
                       SKC FM291000 19015KT P6SM SKC=
202106280543 TAF KBLI 280543Z 2806/2906 18008KT P6SM SKC FM281800 30005KT P6SM
                       SKC=
202106272320 TAF KBLI 272320Z 2800/2824 28007KT P6SM SKC FM280600 18008KT P6SM
                       SKC FM281800 30005KT P6SM SKC=
202106271720 TAF KBLI 271720Z 2718/2818 30006KT P6SM SKC FM280600 VRB03KT P6SM
                       SKC=
202106271120 TAF KBLI 271120Z 2712/2812 00000KT P6SM SKC FM271800 32005KT P6SM
                       SKC FM280500 18010KT P6SM SKC=
202106270551 TAF KBLI 270551Z 2706/2806 18006KT P6SM SKC FM271700 32005KT P6SM
                       SKC=
202106262329 TAF KBLI 262329Z 2700/2724 VRB05KT P6SM SKC FM270300 18006KT P6SM
                       SKC FM271700 32005KT P6SM SKC=
202106261731 TAF KBLI 261731Z 2618/2718 33006KT P6SM SKC FM270600 VRB03KT P6SM
                       SKC=
202106261123 TAF KBLI 261123Z 2612/2712 18009KT P6SM SKC FM261700 29005KT P6SM
                       SKC FM270500 18010KT P6SM SKC=
202106260522 TAF KBLI 260522Z 2606/2706 18009KT P6SM SKC FM261700 29005KT P6SM
                       SKC=
202106252328 TAF KBLI 252328Z 2600/2624 27007KT P6SM SCT250 FM260500 18009KT
                       P6SM SKC FM261700 29005KT P6SM SKC=
202106251731 TAF KBLI 251731Z 2518/2618 31007KT P6SM SCT250 FM260500 18010KT
                       P6SM SKC FM261500 19002KT P6SM SKC=
202106251125 TAF KBLI 251125Z 2512/2612 00000KT P6SM SCT250 FM251800 29007KT
                       P6SM SCT250 FM260400 18010KT P6SM SKC=
202106250520 TAF KBLI 250520Z 2506/2606 00000KT P6SM SCT250 FM251800 29007KT
                       P6SM SCT250=
202106242328 TAF KBLI 242328Z 2500/2524 27005KT P6SM BKN250 FM250500 17005KT
                       P6SM SCT250 FM251900 31005KT P6SM SCT250=
202106241736 TAF KBLI 241736Z 2418/2518 19009KT P6SM BKN250 FM251200 17005KT
                       P6SM SCT250=
202106241133 TAF KBLI 241133Z 2412/2512 18010KT P6SM SKC FM241700 20010KT P6SM
                       BKN250=
202106240520 TAF KBLI 240520Z 2406/2506 18010KT P6SM SKC FM241700 20010KT P6SM
                       BKN250=
202106232320 TAF KBLI 232320Z 2400/2424 18010KT P6SM SKC FM241700 20010KT P6SM
                       BKN250=
202106231727 TAF KBLI 231727Z 2318/2418 19010G18KT P6SM FEW250 FM232000 18010G15KT
                       P6SM SCT250=
202106231505 KBLI 231505Z 2315/2412 18011G20KT 3/4SM BR OVC002 FM231600 18010G18KT
                       2SM BR OVC005 FM231800 19012KT P6SM SCT250=
202106231245 KBLI 231245Z 2313/2412 18011G20KT P6SM BKN004 FM231600 18010G18KT
                       P6SM OVC008 FM231800 19012KT P6SM SCT250=
202106231122 TAF KBLI 231122Z 2312/2412 18010G18KT P6SM SCT250 FM231300 17012KT
                       P6SM SCT008
                      TEMPO 2314/2316 BKN008 FM231800 19012KT P6SM
                       SCT250=
202106230520 TAF KBLI 230520Z 2306/2406 19010KT P6SM FEW250 FM231300 17012KT
                       P6SM SCT010
                      TEMPO 2314/2316 BKN010 FM231800 19012KT P6SM
                       SCT250=
202106222320 TAF KBLI 222320Z 2300/2324 18008KT P6SM SKC FM230600 18008KT P6SM
                       SCT200 FM231100 18008KT P6SM SCT012
                      TEMPO 2311/2314 BKN012 FM231400 18010KT P6SM
                       BKN015
                      TEMPO 2318/2320 SCT020 FM232000 23006KT P6SM
                       SKC=
202106221734 TAF KBLI 221734Z 2218/2318 18010KT P6SM SKC FM231400 18012KT P6SM
                       BKN015 FM231700 18012KT P6SM SCT020=
202106221125 TAF KBLI 221125Z 2212/2312 18006KT P6SM SKC FM222200 19012KT P6SM
                       SCT250=
202106220523 TAF KBLI 220523Z 2206/2306 18004KT P6SM SKC FM222200 19012KT P6SM
                       FEW250=
202106212320 TAF KBLI 212320Z 2200/2224 28007KT P6SM SKC FM220400 18009KT P6SM
                       SKC=
202106211720 TAF KBLI 211720Z 2118/2218 VRB03KT P6SM FEW250 FM211900 26007KT
                       P6SM SKC FM220400 18010KT P6SM SKC=
202106211121 TAF KBLI 211121Z 2112/2212 00000KT P6SM FEW250 FM211800 26007KT
                       P6SM SKC FM220400 18010KT P6SM SKC=
202106210522 TAF KBLI 210522Z 2106/2206 00000KT P6SM FEW250 FM211800 26007KT
                       P6SM SKC FM220400 VRB04KT P6SM SKC=
202106202320 TAF KBLI 202320Z 2100/2124 33010KT P6SM SKC FM210100 VRB04KT P6SM
                       SCT250 FM210500 18007KT P6SM SKC FM211200
                       VRB03KT P6SM SKC FM211800 26007KT P6SM SKC=
202106201720 TAF KBLI 201720Z 2018/2118 33010KT P6SM SKC FM210100 VRB04KT P6SM
                       SCT250 FM210500 18007KT P6SM SKC FM211200
                       VRB03KT P6SM SKC=
202106201128 TAF KBLI 201128Z 2012/2112 VRB03KT P6SM SKC FM201900 28007KT P6SM
                       SKC FM210500 18007KT P6SM SKC=
202106200521 TAF KBLI 200521Z 2006/2106 VRB03KT P6SM OVC050 FM201400 VRB03KT
                       P6SM SKC FM201900 28007KT P6SM SKC=
202106192320 TAF KBLI 192320Z 2000/2024 20010KT P6SM BKN070 FM200600 18005KT
                       P6SM SCT250 FM201200 VRB03KT P6SM SKC FM201800
                       28007KT P6SM SKC=
202106191720 TAF KBLI 191720Z 1918/2018 19013G18KT P6SM OVC070 FM200000 20010KT
                       P6SM BKN050 FM200600 18005KT P6SM SKC FM201200
                       VRB03KT P6SM SKC=
202106191123 TAF KBLI 191123Z 1912/2012 18005KT P6SM SKC FM191400 18009KT P6SM
                       BKN250 FM191700 19013G18KT P6SM OVC100 FM200000
                       20010KT P6SM BKN050 FM200600 18007KT P6SM
                       SKC=
202106190522 TAF KBLI 190522Z 1906/2006 20008KT P6SM SKC FM190800 18007KT P6SM
                       SCT200 FM191200 18010G18KT P6SM OVC120 FM192200
                       20010KT P6SM BKN050=
202106182339 TAF KBLI 182339Z 1900/1924 18008KT P6SM SCT200 FM190800 18007KT
                       P6SM SCT200 FM191400 17008KT P6SM OVC120
                       FM192200 20010KT P6SM BKN050=
202106181729 TAF KBLI 181729Z 1818/1918 30012G20KT P6SM SCT200 FM190800 29013KT
                       P6SM SCT250=
202106181504 KBLI 181504Z 1815/1912 26005KT P6SM SCT200 FM181800 21010KT P6SM
                       SCT200 FM182200 19013KT P6SM SCT200=
202106181120 TAF KBLI 181120Z 1812/1912 20006KT P6SM SCT200
                      TEMPO 1814/1816 SCT010 BKN015 FM181800 21010KT
                       P6SM SCT200 FM182200 19013KT P6SM SCT200=
202106180537 TAF KBLI 180537Z 1806/1906 19008KT P6SM SCT200 FM180900 18005KT
                       P6SM SCT200 FM181800 21010KT P6SM SCT200=
202106172327 TAF KBLI 172327Z 1800/1824 24008KT P6SM SKC FM180300 18007KT P6SM
                       SKC FM180900 18005KT P6SM FEW250 FM181800
                       21010KT P6SM SKC=
202106171727 TAF KBLI 171727Z 1718/1818 VRB03KT P6SM SKC FM172100 22008KT P6SM
                       SKC FM180200 18007KT P6SM SKC FM180900 18008KT
                       P6SM FEW250=
202106171120 TAF KBLI 171120Z 1712/1812 VRB03KT P6SM SKC FM171600 18010KT P6SM
                       SKC=
202106170532 TAF KBLI 170532Z 1706/1806 33010KT P6SM SKC FM170900 VRB03KT P6SM
                       SKC FM171600 18010KT P6SM SKC=
202106162327 TAF KBLI 162327Z 1700/1724 33010KT P6SM SKC FM170400 VRB03KT P6SM
                       SKC FM171600 18010KT P6SM SKC=
202106161721 TAF KBLI 161721Z 1618/1718 18006KT P6SM OVC050 FM162000 VRB04KT
                       P6SM SKC=
202106161126 TAF KBLI 161126Z 1612/1712 18006KT P6SM OVC050 FM162000 VRB04KT
                       P6SM SKC=
202106160537 TAF KBLI 160537Z 1606/1706 19004KT P6SM SCT050 FM162100 VRB04KT
                       P6SM SKC=
202106152320 TAF KBLI 152320Z 1600/1624 19008KT P6SM VCSH BKN050 BKN090 FM160600
                       19008KT P6SM SCT050 FM161200 VRB04KT P6SM
                       BKN018 FM161800 VRB04KT P6SM SCT030=
202106151720 TAF KBLI 151720Z 1518/1618 19012KT P6SM SCT040 FM152200 20010KT
                       P6SM VCSH BKN040 FM160200 20010KT P6SM BKN050
                       FM161100 18008KT P6SM BKN025 FM161700 VRB04KT
                       P6SM SCT030=
202106151133 TAF KBLI 151133Z 1512/1612 18006KT P6SM BKN060 BKN250=
202106150533 TAF KBLI 150533Z 1506/1606 17006KT P6SM SCT025 BKN050
                      TEMPO 1510/1514 BKN025 OVC050 FM160300 17006KT
                       P6SM BKN050=
202106142326 TAF KBLI 142326Z 1500/1524 17008KT P6SM -SHRA SCT015 BKN050 FM150200
                       17006KT P6SM VCSH OVC050 FM151200 17008KT
                       5SM BR SCT015 OVC025 FM151900 17009KT P6SM
                       BKN050=
202106141734 TAF KBLI 141734Z 1418/1518 18005KT P6SM SCT002 BKN025 OVC070 FM142000
                       17008KT P6SM -SHRA SCT015 OVC035 FM150200
                       17006KT P6SM VCSH OVC050 FM151500 17008KT
                       5SM BR OVC025=
202106141556 KBLI 141556Z 1416/1512 21005KT 3SM -SHRA BR SCT003 OVC020
                      TEMPO 1416/1418 1SM -RA BKN002 OVC030 FM141800
                       18005KT P6SM OVC020 FM142100 17008KT P6SM
                       -SHRA SCT015 OVC035 FM150200 17006KT P6SM
                       VCSH OVC050=
202106141450 KBLI 141450Z 1415/1512 VRB03KT 3SM -SHRA BR SCT003 OVC015 FM141700
                       18005KT P6SM OVC020 FM142100 17008KT P6SM
                       -SHRA SCT015 OVC035 FM150200 17006KT P6SM
                       VCSH OVC050=
202106141439 KBLI 141439Z 1415/1512 VRB03KT 5SM -SHRA BR SCT003 OVC015 FM141800
                       18005KT P6SM OVC020 FM142100 17008KT P6SM
                       OVC050=
202106141120 TAF KBLI 141120Z 1412/1512 VRB03KT 6SM BR OVC005 FM141800 18005KT
                       P6SM OVC020 FM142100 17008KT P6SM OVC050=
202106140835 KBLI 140835Z 1409/1506 21004KT P6SM VCSH BKN004 BKN010 OVC015 FM141200
                       VRB03KT 6SM -RA BR OVC005 FM141800 18005KT
                       P6SM -SHRA OVC020 FM142100 17008KT P6SM
                       -SHRA OVC040=
202106140543 TAF KBLI 140543Z 1406/1506 00000KT P6SM VCSH FEW014 BKN045 FM141200
                       VRB03KT 6SM -RA BR OVC005 FM141800 18005KT
                       P6SM -SHRA OVC020 FM142100 17008KT P6SM
                       -SHRA OVC040=
202106140300 KBLI 140300Z 1403/1424 VRB03KT 4SM -RA BKN005 OVC070 FM140500 VRB04KT
                       6SM -SHRA SCT015 OVC050 FM141200 VRB03KT
                       P6SM -SHRA OVC015 FM142100 17008KT P6SM
                       -SHRA OVC040=
202106132324 TAF KBLI 132324Z 1400/1424 VRB03KT 4SM -RA SCT015 OVC070 FM140500
                       VRB04KT 6SM -SHRA SCT015 OVC050 FM141200
                       VRB03KT P6SM -SHRA OVC025 FM142100 17008KT
                       P6SM -SHRA OVC040=
202106131733 TAF KBLI 131733Z 1318/1418 VRB03KT 6SM -RA SCT015 OVC025 FM140500
                       17004KT P6SM -SHRA BKN020 OVC040 FM141000
                       VRB03KT P6SM -SHRA OVC025=
202106131140 TAF KBLI 131140Z 1312/1412 VRB04KT P6SM -RA OVC060 FM131700 VRB04KT
                       P6SM -RA OVC040 FM132100 VRB04KT 5SM -RA
                       BR SCT010 BKN015 OVC025 FM140300 VRB04KT
                       P6SM -SHRA BKN020 OVC030=
202106130931 KBLI 130931Z 1310/1406 VRB04KT P6SM -RA OVC060 FM131400 VRB04KT
                       P6SM -RA OVC040 FM131900 VRB04KT 3SM -RA
                       BR SCT010 BKN015 OVC025 FM140000 VRB04KT
                       P6SM VCSH BKN020 OVC030 FM140500 VRB04KT
                       P6SM -SHRA SCT025 BKN045 OVC060=
202106130529 TAF KBLI 130529Z 1306/1406 VRB03KT P6SM -RA OVC080 FM131000 VRB04KT
                       P6SM -RA OVC045 FM131400 VRB04KT 5SM -RA
                       BR SCT015 OVC025 FM131700 VRB04KT 3SM -RA
                       BR SCT010 BKN015 OVC025 FM140000 VRB04KT
                       P6SM VCSH BKN020 OVC030 FM140500 VRB04KT
                       P6SM -SHRA SCT025 BKN045 OVC060=
202106122334 TAF KBLI 122334Z 1300/1324 VRB05KT P6SM SCT050 BKN200 FM130200
                       VRB03KT P6SM BKN090 OVC200 FM130600 VRB03KT
                       P6SM -RA BKN040 OVC070 FM131200 VRB04KT
                       6SM -RA OVC030 FM131600 12004KT 3SM -RA
                       BR OVC015 FM132200 28006KT 6SM -SHRA BR
                       OVC020=
202106121724 TAF KBLI 121724Z 1218/1318 17009KT P6SM SCT050 BKN200 FM130200
                       VRB03KT P6SM BKN100 OVC200 FM130600 VRB03KT
                       P6SM -RA BKN040 OVC070 FM131100 12004KT
                       4SM BR OVC030 FM131500 12004KT 3SM -RA BR
                       OVC015=
202106121139 TAF KBLI 121139Z 1212/1312 18006KT P6SM SCT035 BKN060 FM121800
                       VRB03KT P6SM SCT050 BKN200 FM130200 VRB03KT
                       P6SM BKN100 OVC200 FM130800 02006KT P6SM
                       -RA OVC040=
202106120532 TAF KBLI 120532Z 1206/1306 16006KT P6SM BKN030 BKN045 FM120900
                       16006KT P6SM SCT030 BKN045 FM121800 VRB03KT
                       P6SM SCT050 BKN200=
202106112337 TAF KBLI 112337Z 1200/1224 15010KT P6SM -SHRA BKN040 OVC060 FM120300
                       14007KT P6SM VCSH OVC040 FM121000 15006KT
                       P6SM OVC035 FM121900 17007KT P6SM SCT040
                       BKN200=
202106111720 TAF KBLI 111720Z 1118/1218 15010G18KT P6SM VCSH OVC070 FM112100
                       15010KT P6SM -SHRA BKN040 OVC060 FM120300
                       14007KT P6SM VCSH OVC040 FM121000 15004KT
                       P6SM OVC035=
202106111120 TAF KBLI 111120Z 1112/1212 02004KT P6SM OVC250 FM111400 05004KT
                       P6SM BKN070 OVC100 FM111800 15014G22KT P6SM
                       VCSH BKN045 OVC070 FM120000 14007KT P6SM
                       OVC050 FM120600 17004KT P6SM OVC050=
202106110525 TAF KBLI 110525Z 1106/1206 00000KT P6SM SKC FM111000 VRB04KT P6SM
                       BKN070 OVC100 FM111800 15014G22KT P6SM VCSH
                       BKN045 OVC070 FM120000 14007KT P6SM OVC050=
202106102327 TAF KBLI 102327Z 1100/1124 17010KT P6SM SCT050 BKN200 FM110400
                       17005KT P6SM SCT050 OVC200 FM111000 14004KT
                       P6SM BKN070 OVC100 FM111800 15014G22KT P6SM
                       VCSH BKN045 OVC070=
202106101734 TAF KBLI 101734Z 1018/1118 16010KT P6SM VCSH BKN050 OVC120 FM110200
                       17005KT P6SM BKN100 FM110900 14004KT P6SM
                       BKN070 OVC100=
202106101121 TAF KBLI 101121Z 1012/1112 19003KT P6SM BKN050 OVC070 FM101600
                       17009G15KT P6SM SCT030 BKN060 FM101800 16012G18KT
                       P6SM VCSH BKN050 OVC120 FM110200 17005KT
                       P6SM BKN100=
202106100522 TAF KBLI 100522Z 1006/1106 18008KT P6SM SKC FM101000 18007KT P6SM
                       SCT030 BKN120 FM101600 17009G15KT P6SM SCT030
                       BKN060 FM101800 16012G18KT P6SM VCSH BKN050
                       OVC120 FM110200 17005KT P6SM BKN100=
202106092322 TAF KBLI 092322Z 1000/1024 21010KT P6SM SCT050 FM100400 18008KT
                       P6SM SCT050 FM101200 18007KT P6SM SCT030
                       BKN120 FM101800 16012KT P6SM VCSH BKN050
                       OVC120=
202106091724 TAF KBLI 091724Z 0918/1018 18010KT P6SM SCT050 FM100000 17010KT
                       P6SM VCSH SCT050 BKN100 FM100300 18008KT
                       P6SM SCT050 SCT100 FM101300 18007KT P6SM
                       BKN020 BKN200=
202106091120 TAF KBLI 091120Z 0912/1012 18008KT P6SM SCT040 BKN080
                      TEMPO 0914/0918 BKN040 OVC080 FM091800 18007KT
                       P6SM BKN040 BKN100 FM100000 21006KT P6SM
                       VCSH BKN050 BKN100 FM100600 21006KT P6SM
                       SCT050 SCT100 FM101100 18006KT P6SM BKN020
                       BKN200=
202106090520 TAF KBLI 090520Z 0906/1006 17007KT P6SM BKN080 FM091200 16006KT
                       P6SM BKN050 FM091900 17010KT P6SM FEW050
                       SCT100=
202106082320 TAF KBLI 082320Z 0900/0924 23006KT P6SM SCT100 FM090600 17007KT
                       P6SM BKN100 FM091200 16006KT P6SM BKN050
                       FM091900 17010KT P6SM FEW050 SCT100=
202106081721 TAF KBLI 081721Z 0818/0918 VRB03KT P6SM SCT120 FM082300 23005KT
                       P6SM BKN120 FM090600 17007KT P6SM BKN100
                       FM091200 16006KT P6SM BKN050=
202106081120 TAF KBLI 081120Z 0812/0912 VRB03KT P6SM BKN150=
202106080538 TAF KBLI 080538Z 0806/0906 VRB03KT P6SM BKN150=
202106072338 TAF KBLI 072338Z 0800/0824 22005KT P6SM FEW030 BKN060 FM080200
                       VRB03KT P6SM SCT050 BKN100 FM081200 18003KT
                       P6SM BKN100 FM081900 20006KT P6SM BKN100=
202106071734 TAF KBLI 071734Z 0718/0818 17006KT P6SM VCSH FEW020 BKN040 FM072000
                       18007KT P6SM SCT030 BKN060 FM080100 VRB03KT
                       P6SM SCT050 BKN100 FM081200 15002KT P6SM
                       BKN100=
202106071137 TAF KBLI 071137Z 0712/0812 17006KT P6SM SCT030 BKN060 FM080100
                       VRB03KT P6SM SCT050 BKN100=
202106070540 TAF KBLI 070540Z 0706/0806 17006KT P6SM -SHRA BKN025 OVC040 FM071800
                       20008KT P6SM SCT025 BKN040 FM080100 VRB03KT
                       P6SM SCT050 BKN100=
202106062339 TAF KBLI 062339Z 0700/0724 12008KT P6SM -RA SCT025 BKN040 OVC050
                       FM070300 15007KT P6SM -RA OVC035 FM071300
                       20010KT P6SM -SHRA BKN022 OVC035 FM072000
                       15008KT P6SM BKN050=
202106061728 TAF KBLI 061728Z 0618/0718 17008KT P6SM -RA SCT025 OVC060 FM070300
                       15012KT P6SM -RA OVC030 FM070900 20010KT
                       P6SM BKN022 OVC035 FM071400 15005KT P6SM
                       OVC015=
202106061132 TAF KBLI 061132Z 0612/0712 VRB03KT P6SM SCT025 BKN040 OVC070 FM061700
                       15008KT P6SM SCT040 BKN070 OVC100 FM070300
                       15012KT P6SM -RA OVC035 FM070900 20010KT
                       P6SM BKN022 OVC035=
202106060541 TAF KBLI 060541Z 0606/0706 17006KT P6SM BKN050 FM060900 15008KT
                       P6SM SCT050 BKN100 FM061500 15008KT P6SM
                       OVC050 FM070300 15012KT P6SM -RA OVC035=
202106052339 TAF KBLI 052339Z 0600/0624 25008G20KT P6SM FEW050 OVC070 FM060600
                       17006KT P6SM OVC050 FM061500 15008G18KT
                       P6SM OVC050 FM062200 15010G18KT 5SM -RA
                       OVC030=
202106051724 TAF KBLI 051724Z 0518/0618 18008G18KT P6SM -SHRA FEW019 BKN020
                       BKN030 FM051900 18012G25KT P6SM -SHRA OVC050
                       FM052300 16010G20KT P6SM OVC050 FM060600
                       17007KT P6SM OVC050=
202106051121 TAF KBLI 051121Z 0512/0612 17005KT 5SM -SHRA BR SCT020 OVC030 FM051600
                       17007KT P6SM -SHRA OVC030 FM051900 18012G25KT
                       P6SM -SHRA OVC050 FM052300 16007KT P6SM
                       OVC050=
202106050522 TAF KBLI 050522Z 0506/0606 17003KT P6SM -SHRA OVC050 FM051200 17005KT
                       P6SM -SHRA OVC030 FM051600 17010KT P6SM
                       -SHRA OVC035 FM051900 17012G25KT P6SM -SHRA
                       BKN050=
202106042338 TAF KBLI 042338Z 0500/0524 17008KT P6SM -RA BKN070 OVC080 FM050600
                       16007KT P6SM -SHRA OVC050 FM051200 17005KT
                       P6SM -SHRA OVC030 FM051600 17010KT P6SM
                       -SHRA OVC035 FM051900 17012G25KT P6SM -SHRA
                       BKN050=
202106041738 TAF KBLI 041738Z 0418/0518 18010G20KT P6SM SCT070 BKN120 FM042000
                       18012G20KT P6SM BKN070 FM050600 16007KT
                       P6SM -SHRA OVC050 FM051200 17007KT P6SM
                       -SHRA OVC025=
202106041128 TAF KBLI 041128Z 0412/0512 17012KT P6SM BKN060 FM041800 18012G18KT
                       P6SM BKN060 FM050600 16005KT P6SM -SHRA
                       OVC050=
202106040524 TAF KBLI 040524Z 0406/0506 20012G20KT P6SM SKC FM040800 17012KT
                       P6SM SKC FM041800 18012G20KT P6SM BKN120=
202106032340 TAF KBLI 032340Z 0400/0424 18008KT P6SM SKC FM040200 20012G20KT
                       P6SM SKC FM040800 17012KT P6SM SKC FM041800
                       18012G20KT P6SM BKN120=
202106031738 TAF KBLI 031738Z 0318/0418 20008KT P6SM SKC FM040200 20012G20KT
                       P6SM SKC FM040800 20008KT P6SM SKC=
202106031135 TAF KBLI 031135Z 0312/0412 20008KT P6SM SKC FM040200 20012G20KT
                       P6SM SKC FM040800 20008KT P6SM SKC=
202106030534 TAF KBLI 030534Z 0306/0406 20010G18KT P6SM SKC FM030900 20010KT
                       P6SM SKC FM040400 20012G20KT P6SM SKC=
202106022320 TAF KBLI 022320Z 0300/0324 20011G18KT P6SM SKC FM030900 20010KT
                       P6SM SKC FM031800 18010G20KT P6SM SCT040=
202106021720 TAF KBLI 021720Z 0218/0318 20010KT P6SM SKC=
202106021126 TAF KBLI 021126Z 0212/0312 VRB03KT P6SM SKC FM021700 20008KT P6SM
                       SKC=
202106020539 TAF KBLI 020539Z 0206/0306 VRB03KT P6SM SKC FM021700 20008KT P6SM
                       SCT250=
202106012324 TAF KBLI 012324Z 0200/0224 28007KT P6SM SKC FM020600 18008KT P6SM
                       SKC FM021500 18011KT P6SM SKC FM022100 23008KT
                       P6SM SCT250=
202106011725 TAF KBLI 011725Z 0118/0218 VRB03KT P6SM SKC FM012100 26006KT P6SM
                       SKC FM020600 18006KT P6SM SKC=
202106011124 TAF KBLI 011124Z 0112/0212 VRB03KT P6SM SCT250 FM020400 18006KT
                       P6SM SCT250=
202106010522 TAF KBLI 010522Z 0106/0206 VRB03KT P6SM SCT250 FM020400 18006KT
                       P6SM SCT250=