##########################################################
# Query made at 02/16/2025 23:07:00 UTC
# Time interval: from 11/01/2021 00:00  to 11/30/2021 23:59  UTC
##########################################################

##########################################################
# KBLI, Bellingham, Bellingham International Airport (United States)
# WMO index: -----. WIGOS ID: Unknown
# Latitude 48-47-58N. Longitude 122-32-21W. Altitude 48 m.
##########################################################

###################################
#  METAR/SPECI from KBLI
###################################
202111302353 METAR KBLI 302353Z 17010G18KT 5SM -RA BR SCT020 OVC027 12/10 A3011 RMK AO2 SLP204 P0001 60044 T01170100 10117 20106 53005=
202111302253 METAR KBLI 302253Z 16015G24KT 8SM -RA BKN019 OVC023 12/10 A3011 RMK AO2 PK WND 14031/2158 SLP202 P0009 T01170100=
202111302153 METAR KBLI 302153Z 16017G28KT 7SM RA OVC021 12/10 A3010 RMK AO2 PK WND 17030/2122 SLP200 P0009 T01170100=
202111302053 METAR KBLI 302053Z 17015G29KT 3SM RA BR BKN019 BKN025 OVC049 12/10 A3010 RMK AO2 PK WND 16029/2049 SLP199 P0012 60025 T01170100 56010=
202111301953 METAR KBLI 301953Z 17014G23KT 3SM RA BR FEW023 OVC049 11/09 A3010 RMK AO2 PK WND 16028/1931 SLP200 P0008 T01110094=
202111301853 METAR KBLI 301853Z 17014G25KT 10SM -RA FEW009 OVC047 11/09 A3012 RMK AO2 PK WND 17028/1841 SLP207 P0005 T01110089=
202111301753 METAR KBLI 301753Z 17015G24KT 5SM -RA BR FEW009 SCT018 OVC049 11/09 A3013 RMK AO2 PK WND 16030/1725 SLP209 P0007 60046 T01060089 10117 20106 53017=
202111301653 METAR KBLI 301653Z 17014G20KT 1SM R16/P6000FT -RA BR FEW009 SCT018 SCT044 11/09 A3010 RMK AO2 SLP201 P0007 T01110094=
202111301553 METAR KBLI 301553Z 18009G18KT 1SM R16/P6000FT RA BR SCT009 OVC042 11/11 A3009 RMK AO2 SLP198 P0012 T01110111=
202111301453 METAR KBLI 301453Z 20004KT 4SM -RA BR OVC003 11/11 A3008 RMK AO2 CIG 002V009 SLP192 P0010 60020 T01060106 56007=
202111301421 SPECI KBLI 301421Z AUTO 00000KT 6SM -RA BR BKN007 BKN017 OVC044 11/11 A3007 RMK AO2 P0003 T01060106=
202111301413 SPECI KBLI 301413Z AUTO 19003KT 4SM RA BR FEW007 BKN013 OVC044 11/11 A3007 RMK AO2 P0003 T01060106=
202111301403 SPECI KBLI 301403Z AUTO 00000KT 4SM -RA BR SCT012 BKN020 OVC048 11/11 A3008 RMK AO2 P0001 T01060106=
202111301353 METAR KBLI 301353Z AUTO VRB03KT 4SM RA BR BKN012 BKN031 OVC048 11/11 A3008 RMK AO2 SLP192 P0007 T01060106=
202111301343 SPECI KBLI 301343Z AUTO 23003KT 4SM RA BR BKN014 BKN028 OVC050 11/11 A3008 RMK AO2 P0005 T01060106=
202111301311 SPECI KBLI 301311Z AUTO 24003KT 9SM -RA BKN020 BKN027 OVC038 11/11 A3008 RMK AO2 P0001 T01060106=
202111301253 METAR KBLI 301253Z AUTO 20005KT 10SM -RA FEW029 SCT037 OVC050 11/11 A3008 RMK AO2 SLP192 P0003 T01060106=
202111301203 SPECI KBLI 301203Z AUTO 19006KT 10SM -RA FEW002 BKN049 OVC080 11/11 A3009 RMK AO2 P0000 T01060106=
202111301153 METAR KBLI 301153Z AUTO 17006KT 5SM RA BR OVC049 11/11 A3010 RMK AO2 SLP199 P0006 60007 70008 T01060106 10128 20106 58009=
202111301053 METAR KBLI 301053Z AUTO 19007KT 5SM -RA BR FEW033 BKN050 OVC065 11/11 A3011 RMK AO2 RAB00 SLP202 P0001 T01060106=
202111301023 SPECI KBLI 301023Z AUTO 19007KT 10SM -RA SCT009 BKN030 OVC080 11/11 A3010 RMK AO2 RAB00 P0000 T01110106=
202111301014 SPECI KBLI 301014Z AUTO 19007KT 10SM -RA BKN009 BKN037 OVC080 11/11 A3009 RMK AO2 RAB00 CIG 009V014 PRESFR P0000 T01110106=
202111301000 SPECI KBLI 301000Z AUTO 20006KT 10SM -RA BKN010 BKN035 OVC095 12/11 A3012 RMK AO2 RAB00 P0000 T01170111=
202111300953 METAR KBLI 300953Z AUTO VRB05KT 10SM SCT012 BKN035 OVC095 12/11 A3012 RMK AO2 RAB43E53 PRESRR SLP205 P0000 T01220111=
202111300853 METAR KBLI 300853Z AUTO 19006KT 10SM FEW019 BKN039 OVC110 12/11 A3013 RMK AO2 SLP208 T01220106 57013=
202111300820 SPECI KBLI 300820Z AUTO 18009KT 10SM FEW018 SCT025 BKN120 12/11 A3013 RMK AO2 T01220106=
202111300753 METAR KBLI 300753Z AUTO 19007KT 10SM BKN016 OVC025 13/11 A3015 RMK AO2 SLP215 T01280106 401390111=
202111300653 METAR KBLI 300653Z AUTO 19008KT 10SM OVC016 13/11 A3014 RMK AO2 SLP215 T01280106=
202111300553 METAR KBLI 300553Z VRB04KT 10SM OVC019 13/11 A3016 RMK AO2 SLP221 T01280106 10139 20122 53001=
202111300453 METAR KBLI 300453Z 19010KT 160V220 10SM BKN020 13/11 A3014 RMK AO2 PK WND 15027/0416 SLP214 T01330106=
202111300444 SPECI KBLI 300444Z 18008G21KT 10SM BKN020 14/11 A3014 RMK AO2 PK WND 15027/0416 T01390106=
202111300353 METAR KBLI 300353Z 18011KT 10SM FEW023 13/10 A3015 RMK AO2 SLP215 T01330100=
202111300253 METAR KBLI 300253Z 17011G18KT 10SM CLR 13/10 A3016 RMK AO2 SLP220 T01330100 58007=
202111300153 METAR KBLI 300153Z 18009KT 10SM BKN070 13/10 A3018 RMK AO2 SLP228 T01330100=
202111300053 METAR KBLI 300053Z 16008KT 10SM OVC070 13/10 A3018 RMK AO2 SLP228 T01330100=
202111292353 METAR KBLI 292353Z 18008KT 10SM SCT075 13/11 A3018 RMK AO2 SLP228 T01280106 10133 20117 58007=
202111292253 METAR KBLI 292253Z 00000KT 10SM BKN080 12/11 A3019 RMK AO2 SLP232 T01220111=
202111292153 METAR KBLI 292153Z 18008KT 10SM SCT014 OVC041 12/11 A3019 RMK AO2 SLP231 T01220111=
202111292053 METAR KBLI 292053Z 19008KT 10SM SCT014 OVC041 12/11 A3020 RMK AO2 SLP235 T01220111 58003=
202111291953 METAR KBLI 291953Z 19008KT 10SM FEW013 OVC075 12/11 A3022 RMK AO2 SLP240 T01220111=
202111291853 METAR KBLI 291853Z 20006KT 10SM FEW016 BKN043 OVC050 12/11 A3022 RMK AO2 SLP239 T01170111=
202111291753 METAR KBLI 291753Z VRB06KT 10SM OVC055 12/11 A3021 RMK AO2 SLP238 60001 T01220111 10122 20111 53012=
202111291653 METAR KBLI 291653Z 18006KT 10SM FEW075 12/11 A3019 RMK AO2 SLP229 T01170106=
202111291553 METAR KBLI 291553Z 20005KT 10SM FEW012 SCT036 OVC095 11/11 A3019 RMK AO2 SLP229 T01110111=
202111291453 METAR KBLI 291453Z VRB05KT 10SM FEW012 BKN031 OVC038 12/11 A3018 RMK AO2 SLP226 60001 T01170111 53012=
202111291353 METAR KBLI 291353Z AUTO 20010G19KT 10SM FEW120 12/11 A3014 RMK AO2 SLP215 T01170111=
202111291331 SPECI KBLI 291331Z AUTO 19009G18KT 10SM SCT016 12/11 A3013 RMK AO2 T01170111=
202111291253 METAR KBLI 291253Z AUTO 19007KT 10SM FEW008 OVC016 11/11 A3015 RMK AO2 RAE20 SLP216 P0001 T01110111=
202111291153 METAR KBLI 291153Z AUTO 19006KT 10SM -RA SCT008 BKN017 OVC070 11/11 A3014 RMK AO2 RAE34B52 SLP214 P0001 60017 70128 T01110111 10117 20111 58005=
202111291130 SPECI KBLI 291130Z AUTO 18007KT 10SM -RA FEW004 BKN060 OVC075 11/11 A3015 RMK AO2 P0001 T01110111=
202111291117 SPECI KBLI 291117Z AUTO 18006KT 9SM -RA SCT002 BKN011 OVC016 11/11 A3015 RMK AO2 P0001 T01110111=
202111291108 SPECI KBLI 291108Z AUTO 17007KT 3SM -RA BR SCT002 BKN006 OVC015 11/11 A3015 RMK AO2 P0001 T01110111=
202111291053 METAR KBLI 291053Z AUTO 18008KT 2 1/2SM R16/4500VP6000FT -RA BR BKN002 OVC013 11/11 A3016 RMK AO2 RAB48 SLP219 P0000 T01110111=
202111291046 SPECI KBLI 291046Z AUTO 19006KT 4SM BR BKN002 BKN013 OVC046 11/11 A3016 RMK AO2 T01110111=
202111291032 SPECI KBLI 291032Z AUTO 21004KT 7SM FEW002 BKN013 OVC080 11/11 A3016 RMK AO2 T01110111=
202111291011 SPECI KBLI 291011Z AUTO 20006KT 9SM SCT027 BKN049 OVC080 11/11 A3016 RMK AO2 T01110111=
202111290953 METAR KBLI 290953Z AUTO 19005KT 7SM FEW003 BKN026 OVC049 11/11 A3015 RMK AO2 RAE47 SLP217 P0010 T01110111=
202111290933 SPECI KBLI 290933Z AUTO 19005KT 3SM RA BR FEW024 BKN045 OVC070 11/11 A3016 RMK AO2 P0010 T01110111=
202111290923 SPECI KBLI 290923Z AUTO 19004KT 2 1/2SM RA BR FEW012 SCT037 OVC048 11/11 A3016 RMK AO2 P0007 T01110111=
202111290913 SPECI KBLI 290913Z AUTO 18006KT 4SM -RA BR SCT013 BKN037 OVC049 11/11 A3015 RMK AO2 P0005 T01110111=
202111290853 METAR KBLI 290853Z AUTO 20003KT 7SM -RA BKN013 OVC049 11/11 A3016 RMK AO2 SLP219 P0004 60006 T01110111 53001=
202111290850 SPECI KBLI 290850Z AUTO 20003KT 6SM -RA BR BKN013 OVC046 11/11 A3015 RMK AO2 P0004=
202111290841 SPECI KBLI 290841Z AUTO 19005KT 7SM -RA SCT013 BKN028 OVC046 12/11 A3016 RMK AO2 P0004 T01170111=
202111290753 METAR KBLI 290753Z AUTO 18005KT 8SM -RA FEW015 BKN045 OVC055 12/11 A3015 RMK AO2 RAB29 SLP218 P0002 T01170111 401390111=
202111290750 SPECI KBLI 290750Z AUTO 18007KT 9SM -RA SCT015 BKN045 OVC055 12/11 A3016 RMK AO2 RAB29 P0002=
202111290733 SPECI KBLI 290733Z AUTO 18007KT 9SM -RA FEW012 BKN017 OVC070 12/11 A3015 RMK AO2 RAB29 P0001 T01170111=
202111290653 METAR KBLI 290653Z AUTO 17006KT 10SM FEW017 BKN075 OVC095 12/11 A3015 RMK AO2 SLP215 T01170106=
202111290553 METAR KBLI 290553Z 19007KT 10SM BKN080 OVC100 12/11 A3013 RMK AO2 SLP210 60002 T01220106 10122 20111 51012=
202111290453 METAR KBLI 290453Z 19008KT 10SM FEW041 BKN060 OVC075 12/11 A3013 RMK AO2 SLP208 T01170111=
202111290353 METAR KBLI 290353Z 18006KT 10SM BKN012 12/11 A3012 RMK AO2 SLP206 T01170111=
202111290313 SPECI KBLI 290313Z 17009KT 10SM FEW010 BKN050 OVC070 12/11 A3010 RMK AO2 T01170111=
202111290312 SPECI KBLI 290312Z 17008KT 10SM BKN010 BKN050 OVC070 12/11 A3010 RMK AO2 T01170111=
202111290253 METAR KBLI 290253Z 18008KT 10SM FEW010 OVC065 12/11 A3010 RMK AO2 RAE53 SLP199 P0001 60002 T01170111 51013=
202111290153 METAR KBLI 290153Z 17008KT 7SM -RA FEW012 OVC060 12/11 A3009 RMK AO2 RAE23B47 SLP196 P0001 T01170111=
202111290053 METAR KBLI 290053Z 17009KT 6SM -RA BR BKN012 OVC060 12/11 A3008 RMK AO2 RAB47 SLP194 P0000 T01170111=
202111282353 METAR KBLI 282353Z 18009KT 6SM BR BKN014 BKN038 OVC055 11/11 A3006 RMK AO2 RAE45 SLP186 P0002 60032 T01110111 10122 20111 53011=
202111282253 METAR KBLI 282253Z 17008KT 3SM -RA BR BKN014 BKN023 OVC038 12/12 A3005 RMK AO2 SLP181 P0005 T01170117=
202111282232 SPECI KBLI 282232Z 18008KT 3SM -RA BR BKN014 OVC023 12/12 A3004 RMK AO2 P0003 T01170117=
202111282213 SPECI KBLI 282213Z 18008KT 5SM -RA BR SCT014 BKN021 OVC050 12/12 A3003 RMK AO2 P0001 T01170117=
202111282153 METAR KBLI 282153Z 18009KT 5SM -RA BR SCT016 BKN049 OVC055 12/12 A3004 RMK AO2 RAE15B47 SLP178 P0000 T01170117=
202111282053 METAR KBLI 282053Z 18007KT 5SM -RA BR SCT005 SCT022 OVC070 12/12 A3003 RMK AO2 SLP175 P0007 60025 T01220122 50006=
202111282036 SPECI KBLI 282036Z 17008KT 4SM -RA BR SCT005 OVC070 12/12 A3003 RMK AO2 P0005 T01220122=
202111281953 METAR KBLI 281953Z 18009G17KT 4SM -RA BR SCT012 OVC060 12/12 A3003 RMK AO2 SLP175 P0011 T01220122=
202111281853 METAR KBLI 281853Z 17010G15KT 5SM RA BR SCT012 BKN060 OVC070 12/12 A3002 RMK AO2 SLP172 P0007 T01220122=
202111281817 SPECI KBLI 281817Z 18009G18KT 5SM -RA BR SCT005 BKN055 OVC070 12/12 A3002 RMK AO2 P0003 T01220117=
202111281800 SPECI KBLI 281800Z 18008G17KT 5SM -RA BR SCT005 BKN016 OVC070 12/12 A3001 RMK AO2 P0001 T01220122=
202111281753 METAR KBLI 281753Z 18009G19KT 5SM -RA BR SCT005 BKN046 OVC070 12/12 A3001 RMK AO2 SLP169 P0009 60077 T01220122 10128 20117 53020=
202111281736 SPECI KBLI 281736Z 18008G18KT 4SM -RA BR BKN005 OVC025 12/12 A3000 RMK AO2 P0006 T01220122=
202111281653 METAR KBLI 281653Z 20006G18KT 2SM -RA BR BKN006 OVC027 12/12 A2998 RMK AO2 SLP159 P0014 T01220122=
202111281638 SPECI KBLI 281638Z 18009G18KT 2SM RA BR FEW004 SCT020 OVC034 12/12 A2997 RMK AO2 P0011 T01220122=
202111281624 SPECI KBLI 281624Z 18010G19KT 2SM -RA BR FEW004 BKN032 12/12 A2996 RMK AO2 P0008 T01220122=
202111281614 SPECI KBLI 281614Z 18009G18KT 2SM RA BR BKN002 OVC039 12/12 A2996 RMK AO2 P0006 T01220122=
202111281606 SPECI KBLI 281606Z 18010KT 2SM RA BR SCT002 OVC039 12/12 A2995 RMK AO2 P0004 T01220122=
202111281553 METAR KBLI 281553Z 18009G19KT 1SM R16/P6000FT RA BR BKN002 OVC034 12/12 A2995 RMK AO2 SLP150 P0014 T01220122=
202111281532 SPECI KBLI 281532Z 18010KT 1SM R16/P6000FT RA BR BKN003 BKN008 OVC024 12/12 A2995 RMK AO2 P0009 T01220122=
202111281515 SPECI KBLI 281515Z 18010KT 2 1/2SM RA BR BKN003 BKN008 OVC014 12/12 A2995 RMK AO2 P0005 T01220122=
202111281453 METAR KBLI 281453Z VRB06G17KT 2 1/2SM RA BR SCT003 BKN009 OVC024 12/12 A2995 RMK AO2 SLP149 P0014 60040 T01220122 55002=
202111281431 SPECI KBLI 281431Z AUTO 18011G21KT 2 1/2SM RA BR FEW014 OVC027 13/13 A2995 RMK AO2 P0007 T01280128=
202111281353 METAR KBLI 281353Z AUTO 18009G19KT 4SM -RA BR FEW017 OVC029 13/13 A2994 RMK AO2 SLP144 P0010 T01280128=
202111281340 SPECI KBLI 281340Z AUTO 17011G17KT 3SM -RA BR FEW003 OVC027 12/12 A2994 RMK AO2 P0009 T01220122=
202111281331 SPECI KBLI 281331Z AUTO 18009G18KT 2 1/2SM -RA BR FEW003 OVC020 12/12 A2995 RMK AO2 P0007 T01220122=
202111281320 SPECI KBLI 281320Z AUTO 18010G14KT 2 1/2SM RA BR SCT003 BKN013 OVC022 12/12 A2995 RMK AO2 P0005 T01220122=
202111281311 SPECI KBLI 281311Z AUTO 18007KT 2 1/2SM -RA BR SCT003 BKN008 OVC014 12/12 A2994 RMK AO2 P0003 T01220122=
202111281253 METAR KBLI 281253Z AUTO 18010G17KT 2 1/2SM -RA BR BKN003 OVC019 12/12 A2996 RMK AO2 SLP151 P0016 T01220122=
202111281240 SPECI KBLI 281240Z AUTO 18006KT 2 1/2SM RA BR BKN002 BKN009 OVC019 12/12 A2996 RMK AO2 P0013 T01220122=
202111281233 SPECI KBLI 281233Z AUTO VRB06KT 2 1/2SM RA BR BKN005 BKN010 OVC024 12/12 A2995 RMK AO2 P0012 T01220122=
202111281221 SPECI KBLI 281221Z AUTO VRB06KT 2 1/2SM RA BR SCT003 BKN012 OVC026 12/12 A2996 RMK AO2 P0008 T01220122=
202111281216 SPECI KBLI 281216Z AUTO 18006KT 3SM RA BR FEW005 SCT010 OVC026 12/12 A2996 RMK AO2 P0006 T01220122=
202111281206 SPECI KBLI 281206Z AUTO 19007KT 3SM -RA BR SCT009 SCT019 OVC030 13/12 A2995 RMK AO2 P0004 T01280122=
202111281153 METAR KBLI 281153Z AUTO 19007KT 2 1/2SM RA BR FEW013 SCT018 OVC031 13/13 A2995 RMK AO2 SLP147 P0025 60058 70166 T01280128 10139 20128 51017=
202111281122 SPECI KBLI 281122Z AUTO 19009KT 2SM RA BR FEW025 OVC030 13/13 A2994 RMK AO2 P0013 T01280128=
202111281107 SPECI KBLI 281107Z AUTO 19009G17KT 2SM +RA BR FEW020 BKN028 OVC048 13/12 A2993 RMK AO2 P0006 T01330122=
202111281053 METAR KBLI 281053Z AUTO 19011G26KT 4SM -RA BR FEW014 BKN037 OVC048 13/12 A2994 RMK AO2 PK WND 18032/1043 SLP145 P0016 T01330122=
202111281019 SPECI KBLI 281019Z AUTO 18013G26KT 4SM -RA BR FEW015 SCT021 OVC033 13/12 A2991 RMK AO2 PK WND 19027/0956 P0006 T01330122=
202111280953 METAR KBLI 280953Z AUTO 18014G28KT 5SM -RA BR BKN018 OVC027 13/12 A2991 RMK AO2 PK WND 19029/0912 RAB17 SLP134 P0009 T01330122=
202111280853 METAR KBLI 280853Z AUTO 18012G25KT 10SM OVC015 13/12 A2990 RMK AO2 PK WND 18027/0839 SLP130 60008 T01330122 53014=
202111280839 SPECI KBLI 280839Z AUTO 18014G27KT 10SM OVC015 14/12 A2989 RMK AO2 PK WND 18027/0839 T01390122=
202111280753 METAR KBLI 280753Z AUTO 19009G22KT 160V220 10SM OVC014 13/13 A2986 RMK AO2 PK WND 19026/0726 RAE42 SLP119 P0001 T01330128 401390072=
202111280653 METAR KBLI 280653Z AUTO 19010G17KT 8SM -RA OVC013 13/13 A2986 RMK AO2 SLP119 P0007 T01280128=
202111280624 SPECI KBLI 280624Z AUTO 18011G20KT 10SM -RA SCT009 OVC014 13/13 A2985 RMK AO2 P0003 T01280128=
202111280553 METAR KBLI 280553Z 19011G21KT 170V240 2SM +RA BR SCT010 BKN014 OVC021 13/13 A2985 RMK AO2 PK WND 20026/0532 SLP116 P0022 60059 T01330128 10139 20083 53012=
202111280453 METAR KBLI 280453Z 18015G31KT 2SM RA BR BKN014 BKN018 OVC030 14/13 A2984 RMK AO2 PK WND 19031/0449 SLP112 P0010 T01390128=
202111280353 METAR KBLI 280353Z 17011G21KT 5SM RA BR BKN016 OVC034 14/13 A2983 RMK AO2 PK WND 16027/0338 SLP108 P0009 T01390128=
202111280253 METAR KBLI 280253Z 17013G23KT 10SM -RA OVC017 14/12 A2982 RMK AO2 SLP104 P0007 60018 T01390122 58009=
202111280153 METAR KBLI 280153Z 16010G19KT 5SM -RA BR OVC019 13/12 A2983 RMK AO2 SLP108 P0006 T01330117=
202111280053 METAR KBLI 280053Z 00000KT 5SM -RA BR BKN022 OVC027 09/09 A2984 RMK AO2 SLP112 P0005 T00890089=
202111272353 METAR KBLI 272353Z VRB04KT 4SM -RA BR OVC027 08/08 A2985 RMK AO2 SLP115 P0009 60041 T00830083 10083 20078 56033=
202111272253 METAR KBLI 272253Z 03007KT 5SM -RA BR OVC027 08/08 A2987 RMK AO2 SLP123 P0011 T00830083=
202111272153 METAR KBLI 272153Z 06008KT 3SM RA BR OVC026 08/08 A2991 RMK AO2 PRESFR SLP137 P0009 T00780078=
202111272053 METAR KBLI 272053Z 04009G15KT 4SM RA BR OVC029 08/08 A2994 RMK AO2 SLP147 P0006 60012 T00780078 56027=
202111271953 METAR KBLI 271953Z 03005KT 10SM -RA OVC024 08/08 A2996 RMK AO2 SLP153 P0003 T00830078=
202111271853 METAR KBLI 271853Z VRB06KT 10SM -RA OVC023 08/08 A3001 RMK AO2 SLP169 P0003 T00780078=
202111271753 METAR KBLI 271753Z 01004KT 6SM -RA BR OVC019 08/07 A3002 RMK AO2 SLP174 P0003 60008 T00780072 10078 20072 56012=
202111271711 SPECI KBLI 271711Z 01005KT 9SM -RA BKN025 OVC030 07/07 A3003 RMK AO2 P0000 T00720072=
202111271653 METAR KBLI 271653Z 01004KT 10SM -RA BKN030 OVC070 07/07 A3003 RMK AO2 SLP176 P0002 T00720072=
202111271553 METAR KBLI 271553Z 03003KT 10SM -RA BKN032 BKN050 OVC065 07/07 A3004 RMK AO2 SLP181 P0003 T00720067=
202111271453 METAR KBLI 271453Z 03005KT 10SM -RA OVC030 07/07 A3006 RMK AO2 RAB00E29B48 SLP186 P0000 60000 T00720067 58030=
202111271353 METAR KBLI 271353Z AUTO 01003KT 10SM OVC024 07/07 A3008 RMK AO2 SLP195 T00720067=
202111271253 METAR KBLI 271253Z AUTO 02004KT 10SM SCT020 OVC028 07/07 A3012 RMK AO2 SLP207 T00720072=
202111271153 METAR KBLI 271153Z AUTO 03003KT 10SM SCT019 OVC029 07/07 A3014 RMK AO2 RAE13 SLP216 P0001 60001 70006 T00720067 10078 20072 58015=
202111271144 SPECI KBLI 271144Z AUTO 02004KT 10SM SCT019 OVC030 07/07 A3015 RMK AO2 RAE13 P0001 T00720072=
202111271053 METAR KBLI 271053Z AUTO 02003KT 10SM -RA OVC020 07/07 A3017 RMK AO2 RAB16E26B42 SLP224 P0000 T00720072=
202111270953 METAR KBLI 270953Z AUTO 04004KT 9SM BKN026 OVC032 08/07 A3018 RMK AO2 SLP227 T00780072=
202111270940 SPECI KBLI 270940Z AUTO 01004KT 8SM OVC030 08/07 A3018 RMK AO2 T00780072=
202111270910 SPECI KBLI 270910Z AUTO 04006KT 10SM BKN028 OVC034 08/07 A3018 RMK AO2 T00780072=
202111270853 METAR KBLI 270853Z AUTO 03004KT 8SM FEW027 OVC034 07/07 A3019 RMK AO2 SLP231 60000 T00720072 58007=
202111270834 SPECI KBLI 270834Z AUTO 02003KT 7SM SCT022 OVC035 08/08 A3020 RMK AO2 T00780078=
202111270753 METAR KBLI 270753Z AUTO 00000KT 5SM BR OVC022 08/08 A3021 RMK AO2 SLP236 T00780078 401060067=
202111270703 SPECI KBLI 270703Z AUTO 00000KT 5SM BR FEW005 SCT009 OVC020 08/08 A3021 RMK AO2 T00780078=
202111270653 METAR KBLI 270653Z AUTO 00000KT 5SM BR SCT005 BKN009 OVC021 08/08 A3021 RMK AO2 RAE30 SLP237 P0000 T00780078=
202111270620 SPECI KBLI 270620Z 00000KT 3SM -RA BR BKN006 BKN025 OVC030 08/08 A3020 RMK AO2 P0000 T00780078=
202111270603 SPECI KBLI 270603Z 04003KT 4SM -RA BR BKN028 OVC039 08/08 A3020 RMK AO2 P0000 T00780078=
202111270553 METAR KBLI 270553Z 00000KT 8SM -RA SCT031 OVC039 08/08 A3021 RMK AO2 RAB53 SLP238 P0000 60000 T00780078 10094 20067 53007=
202111270528 SPECI KBLI 270528Z 00000KT 8SM SCT009 OVC042 07/07 A3021 RMK AO2 T00720072=
202111270517 SPECI KBLI 270517Z 00000KT 9SM BKN009 BKN042 07/07 A3021 RMK AO2 T00720072=
202111270453 METAR KBLI 270453Z 00000KT 8SM FEW041 SCT100 07/07 A3019 RMK AO2 SLP230 T00670067=
202111270353 METAR KBLI 270353Z 00000KT 10SM BKN120 07/07 A3019 RMK AO2 SLP230 T00720072=
202111270253 METAR KBLI 270253Z 00000KT 10SM FEW046 07/07 A3019 RMK AO2 SLP231 T00720072 58006=
202111270153 METAR KBLI 270153Z 18003KT 10SM CLR 08/08 A3021 RMK AO2 SLP238 T00830083=
202111270053 METAR KBLI 270053Z 00000KT 10SM CLR 08/08 A3021 RMK AO2 SLP238 T00830083=
202111262353 METAR KBLI 262353Z 19003KT 10SM CLR 09/08 A3021 RMK AO2 SLP238 T00940083 10106 20094 53004=
202111262253 METAR KBLI 262253Z 19006KT 10SM CLR 11/08 A3020 RMK AO2 SLP233 T01060083=
202111262153 METAR KBLI 262153Z 18007KT 10SM SCT020 11/09 A3020 RMK AO2 SLP233 T01060089=
202111262053 METAR KBLI 262053Z 18007KT 10SM CLR 11/09 A3020 RMK AO2 SLP233 T01060089 51013=
202111261953 METAR KBLI 261953Z 18007KT 10SM CLR 10/09 A3019 RMK AO2 SLP229 T01000094=
202111261853 METAR KBLI 261853Z 18009KT 10SM SCT010 10/09 A3018 RMK AO2 SLP228 T01000089=
202111261753 METAR KBLI 261753Z 19008KT 10SM SCT007 10/09 A3016 RMK AO2 SLP220 60005 T01000094 10100 20089 51019=
202111261653 METAR KBLI 261653Z 19008KT 10SM OVC008 09/09 A3015 RMK AO2 SLP217 T00940089=
202111261635 SPECI KBLI 261635Z 18008KT 10SM OVC008 09/09 A3014 RMK AO2 T00940089=
202111261553 METAR KBLI 261553Z 18009KT 10SM OVC011 09/09 A3012 RMK AO2 RAE09 SLP209 P0000 T00940089=
202111261453 METAR KBLI 261453Z 17009KT 10SM -RA OVC010 09/09 A3010 RMK AO2 RAB22 CIG 007V012 SLP202 P0001 60005 T00940089 51012=
202111261418 SPECI KBLI 261418Z AUTO 18007KT 10SM OVC011 09/09 A3010 RMK AO2 T00940089=
202111261406 SPECI KBLI 261406Z AUTO 17008KT 10SM BKN009 OVC013 09/09 A3009 RMK AO2 CIG 006V011 T00940089=
202111261353 METAR KBLI 261353Z AUTO 17011G16KT 10SM SCT007 OVC013 09/09 A3009 RMK AO2 RAB15E51 SLP197 P0000 T00890089=
202111261253 METAR KBLI 261253Z AUTO 18010KT 8SM FEW006 BKN017 OVC023 09/09 A3009 RMK AO2 RAE51 SLP196 P0004 T00890089=
202111261153 METAR KBLI 261153Z AUTO 17014G25KT 7SM -RA FEW008 BKN018 OVC025 09/08 A3007 RMK AO2 PK WND 18026/1101 RAE13B37 SLP190 P0001 60002 70137 T00890083 10106 20089 51007=
202111261127 SPECI KBLI 261127Z AUTO 19013G23KT 10SM FEW009 BKN027 OVC031 09/08 A3006 RMK AO2 PK WND 18026/1101 RAE13 P0000 T00940083=
202111261053 METAR KBLI 261053Z AUTO 20013G21KT 8SM -RA OVC029 09/08 A3006 RMK AO2 RAB29 SLP188 P0001 T00940083=
202111261035 SPECI KBLI 261035Z AUTO 19010G22KT 10SM -RA BKN029 OVC034 09/08 A3006 RMK AO2 RAB29 P0000 T00940083=
202111260953 METAR KBLI 260953Z AUTO 20011G22KT 10SM FEW017 OVC036 10/08 A3006 RMK AO2 SLP185 T01000083=
202111260853 METAR KBLI 260853Z AUTO 19005KT 10SM OVC060 10/08 A3005 RMK AO2 SLP182 T01000078 58008=
202111260753 METAR KBLI 260753Z AUTO 18004KT 10SM FEW022 BKN033 OVC080 10/07 A3007 RMK AO2 SLP188 T01000072 401060067=
202111260653 METAR KBLI 260653Z AUTO 17007KT 10SM FEW021 SCT026 OVC034 09/07 A3007 RMK AO2 SLP189 T00940072=
202111260650 SPECI KBLI 260650Z AUTO 17006KT 10SM FEW021 SCT026 OVC034 09/07 A3007 RMK AO2=
202111260553 METAR KBLI 260553Z 17010G17KT 6SM BR OVC021 09/07 A3008 RMK AO2 RAB0458E31 SLP196 P0000 60023 T00940072 10094 20089 53003=
202111260502 SPECI KBLI 260502Z 17010KT 6SM -RA BKN022 OVC041 09/07 A3008 RMK AO2 RAB0458 P0000 T00940067=
202111260453 METAR KBLI 260453Z 16010KT 6SM HZ SCT028 SCT045 OVC065 09/07 A3007 RMK AO2 PK WND 15027/0419 RAE28 SLP192 P0001 T00940067=
202111260434 SPECI KBLI 260434Z 17012G21KT 5SM HZ SCT028 SCT045 OVC065 09/07 A3007 RMK AO2 PK WND 15027/0419 RAE28 P0001 T00940067=
202111260353 METAR KBLI 260353Z 16014G23KT 5SM -RA BR BKN028 OVC036 09/07 A3006 RMK AO2 PK WND 15027/0319 SLP186 P0004 T00890067=
202111260336 SPECI KBLI 260336Z 17014G24KT 5SM -RA BR BKN028 OVC036 09/07 A3007 RMK AO2 PK WND 15027/0319 P0004 T00890067=
202111260253 METAR KBLI 260253Z 17013G21KT 6SM -RA BR OVC031 09/07 A3008 RMK AO2 PK WND 16026/0238 SLP193 P0010 60018 T00890067 53000=
202111260243 SPECI KBLI 260243Z 16013G26KT 5SM RA BR FEW024 OVC031 09/07 A3008 RMK AO2 PK WND 16026/0238 P0009 T00890067=
202111260236 SPECI KBLI 260236Z 16013G20KT 5SM RA BR BKN029 OVC035 09/07 A3007 RMK AO2 P0007 T00890067=
202111260153 METAR KBLI 260153Z 15008KT 5SM RA BR FEW025 OVC031 09/07 A3007 RMK AO2 PK WND 15026/0059 SLP192 P0008 T00890067=
202111260053 METAR KBLI 260053Z 16014G36KT 5SM -RA BKN033 OVC046 09/05 A3005 RMK AO2 PK WND 15036/0048 SLP185 P0000 T00940050=
202111252353 METAR KBLI 252353Z 16011KT 10SM -RA OVC035 09/06 A3007 RMK AO2 PK WND 16027/2312 SLP192 P0006 60064 T00890056 10106 20089 56007=
202111252253 METAR KBLI 252253Z 16012G29KT 6SM -RA OVC041 09/06 A3008 RMK AO2 PK WND 18031/2214 SLP194 P0010 T00940056=
202111252153 METAR KBLI 252153Z 16010G28KT 4SM RA OVC043 09/06 A3008 RMK AO2 PK WND 15028/2144 SLP193 P0020 T00940061=
202111252130 SPECI KBLI 252130Z 15018G27KT 3SM RA OVC043 09/06 A3007 RMK AO2 PK WND 16027/2111 P0013 T00940061=
202111252122 SPECI KBLI 252122Z 16015G21KT 2 1/2SM RA OVC043 09/06 A3009 RMK AO2 PK WND 16027/2111 P0011 T00940061=
202111252053 METAR KBLI 252053Z 16014G24KT 3SM RA OVC046 09/06 A3010 RMK AO2 PK WND 14031/2034 SLP199 P0017 60028 T00940061 56006=
202111251953 METAR KBLI 251953Z 14010G23KT 3SM RA OVC050 10/06 A3012 RMK AO2 PK WND 14035/1901 RAB06 SLP208 P0010 T01000056=
202111251853 METAR KBLI 251853Z 15023G35KT 10SM OVC055 11/04 A3007 RMK AO2 PK WND 14036/1836 RAE36 SLP192 P0001 T01060044=
202111251753 METAR KBLI 251753Z 16017G28KT 10SM -RA OVC049 09/06 A3011 RMK AO2 PK WND 13036/1741 SLP206 P0006 60048 T00940061 10100 20067 58013=
202111251653 METAR KBLI 251653Z 14014G28KT 5SM -RA FEW022 OVC035 09/06 A3013 RMK AO2 PK WND 16031/1641 RAB03 SLP212 P0002 T00940061=
202111251553 METAR KBLI 251553Z 15012G22KT 10SM OVC041 09/06 A3014 RMK AO2 PK WND 14032/1512 RAE37 SLP213 P0003 T00890056=
202111251453 METAR KBLI 251453Z 14015G21KT 6SM -RA BR FEW029 BKN034 OVC046 08/06 A3015 RMK AO2 SLP219 P0015 60037 T00780061 58021=
202111251438 SPECI KBLI 251438Z 15012KT 5SM RA BR FEW024 BKN031 OVC039 08/06 A3017 RMK AO2 PRESFR P0013 T00780061=
202111251353 METAR KBLI 251353Z AUTO 16011KT 3SM RA BR OVC027 07/06 A3019 RMK AO2 SLP230 P0012 T00720056=
202111251253 METAR KBLI 251253Z AUTO 14008G27KT 5SM RA BR OVC026 07/05 A3019 RMK AO2 PK WND 13027/1244 SLP232 P0010 T00720050=
202111251232 SPECI KBLI 251232Z AUTO 14013G19KT 4SM RA BR OVC028 07/05 A3021 RMK AO2 P0004 T00720050=
202111251153 METAR KBLI 251153Z AUTO 14011KT 4SM RA BR FEW018 OVC034 07/04 A3022 RMK AO2 SLP240 P0004 60008 70010 T00670044 10089 20067 58014=
202111251053 METAR KBLI 251053Z AUTO 14011G23KT 5SM -RA FEW021 SCT036 OVC045 07/04 A3025 RMK AO2 SLP251 P0003 T00720039=
202111250953 METAR KBLI 250953Z AUTO 15012G17KT 8SM -RA OVC046 08/02 A3027 RMK AO2 RAB46 SLP259 P0001 T00830022=
202111250853 METAR KBLI 250853Z AUTO 14010KT 10SM OVC050 09/01 A3026 RMK AO2 SLP254 T00890011 58021=
202111250753 METAR KBLI 250753Z AUTO 15009KT 10SM OVC055 09/01 A3029 RMK AO2 SLP264 T00890011 400890039=
202111250653 METAR KBLI 250653Z AUTO 16012KT 10SM OVC055 08/02 A3029 RMK AO2 SLP267 T00830017=
202111250553 METAR KBLI 250553Z 14012KT 10SM OVC060 08/02 A3032 RMK AO2 SLP275 60002 T00830017 10083 20061 58008=
202111250453 METAR KBLI 250453Z 12005KT 10SM FEW041 OVC065 08/03 A3033 RMK AO2 RAE48 SLP280 P0002 T00780028=
202111250353 METAR KBLI 250353Z 19007KT 10SM -RA OVC044 08/03 A3035 RMK AO2 RAB42 SLP285 P0000 T00780033=
202111250253 METAR KBLI 250253Z 00000KT 10SM OVC090 07/03 A3034 RMK AO2 SLP283 T00720033 55003=
202111250153 METAR KBLI 250153Z 10004KT 10SM OVC095 07/04 A3034 RMK AO2 SLP281 T00720044=
202111250053 METAR KBLI 250053Z 10004KT 10SM OVC095 07/03 A3035 RMK AO2 SLP285 T00720033=
202111242353 METAR KBLI 242353Z 15006KT 10SM OVC100 08/03 A3035 RMK AO2 SLP286 T00830028 10089 20072 50001=
202111242253 METAR KBLI 242253Z 16008KT 10SM OVC110 09/03 A3036 RMK AO2 SLP288 T00890033=
202111242153 METAR KBLI 242153Z 17005KT 10SM FEW031 OVC110 09/03 A3035 RMK AO2 SLP285 T00890033=
202111242053 METAR KBLI 242053Z 15011KT 10SM OVC100 09/03 A3035 RMK AO2 SLP285 T00890033 58024=
202111241953 METAR KBLI 241953Z 18009G18KT 10SM CLR 09/04 A3038 RMK AO2 SLP295 T00890039=
202111241853 METAR KBLI 241853Z 19007KT 160V250 10SM SCT065 SCT120 07/05 A3040 RMK AO2 SLP302 T00720050=
202111241753 METAR KBLI 241753Z 16006KT 10SM FEW055 07/05 A3042 RMK AO2 SLP309 T00720050 10072 20056 51013=
202111241653 METAR KBLI 241653Z 18005KT 10SM FEW050 07/04 A3042 RMK AO2 SLP308 T00720039=
202111241553 METAR KBLI 241553Z 20005KT 10SM SCT046 06/04 A3041 RMK AO2 SLP305 T00610044=
202111241455 SPECI KBLI 241455Z 18006KT 10SM FEW035 07/04 A3038 RMK AO2 T00670039=
202111241453 METAR KBLI 241453Z 18008KT 10SM CLR 07/04 A3038 RMK AO2 SLP296 T00670039 51007=
202111241353 METAR KBLI 241353Z AUTO 19005KT 10SM CLR 06/04 A3037 RMK AO2 SLP294 T00610044=
202111241253 METAR KBLI 241253Z AUTO 17005KT 10SM BKN032 06/04 A3037 RMK AO2 SLP291 T00610044=
202111241222 SPECI KBLI 241222Z AUTO 16003KT 10SM SCT026 OVC034 06/04 A3036 RMK AO2 T00610044=
202111241209 SPECI KBLI 241209Z AUTO 16004KT 10SM BKN026 BKN035 06/04 A3036 RMK AO2 T00560044=
202111241153 METAR KBLI 241153Z AUTO 15003KT 10SM FEW026 BKN036 06/04 A3036 RMK AO2 SLP289 70010 T00610044 10067 20039 50014=
202111241104 SPECI KBLI 241104Z AUTO 17004KT 10SM SCT024 07/04 A3036 RMK AO2 T00670044=
202111241053 METAR KBLI 241053Z AUTO 18007KT 10SM BKN024 07/05 A3036 RMK AO2 SLP289 T00670050=
202111240953 METAR KBLI 240953Z AUTO 19003KT 10SM BKN042 04/04 A3034 RMK AO2 SLP282 T00440039=
202111240853 METAR KBLI 240853Z AUTO 17004KT 10SM OVC038 05/04 A3032 RMK AO2 SLP275 T00500044 52018=
202111240753 METAR KBLI 240753Z AUTO 17004KT 10SM FEW044 BKN055 05/05 A3031 RMK AO2 SLP271 T00500050 401000050=
202111240653 METAR KBLI 240653Z AUTO 16003KT 10SM BKN044 OVC055 06/05 A3028 RMK AO2 SLP260 T00610050=
202111240553 METAR KBLI 240553Z 00000KT 10SM FEW037 SCT045 SCT060 06/05 A3026 RMK AO2 SLP257 60005 T00560050 10089 20050 51030=
202111240453 METAR KBLI 240453Z 17003KT 10SM SCT046 BKN060 06/06 A3023 RMK AO2 RAE02 SLP246 P0000 T00560056=
202111240353 METAR KBLI 240353Z 00000KT 6SM -RA BR FEW014 BKN037 OVC050 07/06 A3021 RMK AO2 RAB29 SLP239 P0005 T00670056=
202111240253 METAR KBLI 240253Z 15004KT 10SM FEW055 07/04 A3018 RMK AO2 SLP226 T00670044 51018=
202111240153 METAR KBLI 240153Z VRB03KT 10SM BKN038 BKN047 08/04 A3017 RMK AO2 SLP225 T00830044=
202111240053 METAR KBLI 240053Z 18005KT 10SM FEW031 SCT041 09/05 A3015 RMK AO2 SLP216 T00890050=
202111232353 METAR KBLI 232353Z VRB04KT 10SM FEW033 SCT047 09/04 A3012 RMK AO2 SLP208 T00890044 10100 20078 53026=
202111232253 METAR KBLI 232253Z 20006KT 10SM SCT040 BKN047 10/03 A3009 RMK AO2 SLP198 T01000033=
202111232153 METAR KBLI 232153Z 29010G15KT 250V330 10SM FEW039 09/02 A3007 RMK AO2 SLP192 T00940017=
202111232053 METAR KBLI 232053Z VRB06KT 10SM SCT035 SCT045 09/03 A3004 RMK AO2 SLP182 T00940033 51025=
202111231953 METAR KBLI 231953Z VRB03KT 10SM SCT035 SCT043 09/03 A3002 RMK AO2 SLP175 T00890033=
202111231853 METAR KBLI 231853Z VRB04KT 10SM FEW012 SCT033 BKN110 08/04 A3001 RMK AO2 SLP168 T00830039=
202111231753 METAR KBLI 231753Z VRB04KT 10SM SCT025 BKN080 08/04 A2997 RMK AO2 SLP156 60005 T00780039 10083 20072 51038=
202111231653 METAR KBLI 231653Z 25007G15KT 10SM BKN024 08/05 A2993 RMK AO2 SLP144 T00780050=
202111231553 METAR KBLI 231553Z VRB04KT 10SM BKN015 BKN022 OVC060 07/06 A2990 RMK AO2 SLP132 T00720056=
202111231453 METAR KBLI 231453Z 27006KT 10SM BKN015 BKN022 OVC045 08/07 A2986 RMK AO2 SLP118 60005 T00780067 51014=
202111231448 SPECI KBLI 231448Z 28005KT 10SM SCT015 BKN022 OVC045 08/07 A2985 RMK AO2=
202111231434 SPECI KBLI 231434Z AUTO VRB04KT 10SM SCT013 SCT022 OVC045 08/07 A2985 RMK AO2 T00780067=
202111231416 SPECI KBLI 231416Z AUTO VRB03KT 10SM OVC013 08/07 A2984 RMK AO2 T00780072=
202111231353 METAR KBLI 231353Z AUTO 31005KT 10SM FEW009 OVC018 08/07 A2983 RMK AO2 RAE39 SLP110 P0001 T00780072=
202111231345 SPECI KBLI 231345Z AUTO 30006KT 10SM SCT009 OVC018 08/07 A2983 RMK AO2 RAE39 P0001 T00780072=
202111231320 SPECI KBLI 231320Z AUTO VRB03KT 9SM -RA BKN008 OVC013 08/08 A2982 RMK AO2 P0001 T00780078=
202111231253 METAR KBLI 231253Z AUTO 23003KT 7SM -RA FEW006 BKN012 OVC018 08/08 A2981 RMK AO2 SLP104 P0004 T00780078=
202111231234 SPECI KBLI 231234Z AUTO 20004KT 6SM -RA BR SCT007 BKN024 OVC039 08/08 A2981 RMK AO2 P0002 T00780078=
202111231219 SPECI KBLI 231219Z AUTO 18005KT 6SM -RA BR FEW005 SCT010 OVC041 08/08 A2981 RMK AO2 P0001 T00780078=
202111231153 METAR KBLI 231153Z AUTO 18006KT 7SM -RA SCT012 OVC039 08/08 A2981 RMK AO2 RAB05 SLP101 P0003 60017 70018 T00830078 10094 20078 55005=
202111231053 METAR KBLI 231053Z AUTO 19005KT 10SM OVC065 08/08 A2980 RMK AO2 RAE42 SLP100 P0002 T00830078=
202111231012 SPECI KBLI 231012Z AUTO 19004KT 8SM -RA FEW008 SCT022 OVC055 08/08 A2981 RMK AO2 P0002 T00830078=
202111230953 METAR KBLI 230953Z AUTO 19005KT 5SM RA BR SCT008 BKN017 OVC035 08/08 A2982 RMK AO2 SLP106 P0010 T00830078=
202111230853 METAR KBLI 230853Z AUTO 18006KT 9SM -RA FEW019 FEW024 OVC040 08/08 A2982 RMK AO2 RAB00 SLP106 P0002 60002 T00830078 56014=
202111230844 SPECI KBLI 230844Z AUTO 19007KT 8SM -RA FEW019 SCT024 OVC042 09/07 A2983 RMK AO2 RAB00 P0001 T00890072=
202111230837 SPECI KBLI 230837Z AUTO 18007KT 6SM -RA BR SCT019 BKN024 OVC040 09/07 A2983 RMK AO2 RAB00 P0001 T00890072=
202111230753 METAR KBLI 230753Z AUTO 20007G15KT 10SM BKN047 OVC060 09/07 A2983 RMK AO2 SLP107 T00940067 401061011=
202111230653 METAR KBLI 230653Z AUTO 18007KT 10SM SCT021 OVC060 09/07 A2985 RMK AO2 SLP114 T00940067=
202111230643 SPECI KBLI 230643Z AUTO 18007KT 10SM SCT021 OVC060 09/07 A2985 RMK AO2 T00940067=
202111230553 METAR KBLI 230553Z 17008KT 10SM BKN020 BKN070 09/07 A2986 RMK AO2 SLP120 T00940067 10100 20089 56016=
202111230524 SPECI KBLI 230524Z 19005KT 10SM SCT016 09/07 A2986 RMK AO2 T00890067=
202111230453 METAR KBLI 230453Z 17008KT 10SM BKN016 09/07 A2987 RMK AO2 SLP122 T00890072=
202111230412 SPECI KBLI 230412Z 17011KT 10SM OVC015 09/07 A2988 RMK AO2 T00940072=
202111230353 METAR KBLI 230353Z 17010KT 10SM OVC014 09/07 A2989 RMK AO2 SLP131 T00890072=
202111230343 SPECI KBLI 230343Z 18009G20KT 10SM OVC014 09/07 A2990 RMK AO2 T00890072=
202111230253 METAR KBLI 230253Z 17011G20KT 10SM OVC016 09/07 A2991 RMK AO2 SLP137 T00940067 56017=
202111230231 SPECI KBLI 230231Z 17011G20KT 10SM BKN017 09/07 A2991 RMK AO2 T00940067=
202111230153 METAR KBLI 230153Z 18012G21KT 10SM CLR 09/07 A2991 RMK AO2 SLP138 T00890067=
202111230053 METAR KBLI 230053Z 18011G20KT 10SM SCT023 BKN043 OVC110 09/06 A2994 RMK AO2 PK WND 19026/0010 SLP148 T00940061=
202111222353 METAR KBLI 222353Z 19012G24KT 10SM FEW028 SCT042 10/06 A2996 RMK AO2 SLP154 60001 T01000061 10106 20089 55013=
202111222253 METAR KBLI 222253Z 18013G21KT 10SM CLR 10/05 A2995 RMK AO2 SLP151 T01000050=
202111222153 METAR KBLI 222153Z 16012G22KT 10SM CLR 11/05 A2998 RMK AO2 RAE2058 SLP160 P0000 T01060050=
202111222053 METAR KBLI 222053Z 17012KT 10SM -RA OVC055 09/05 A3000 RMK AO2 SLP167 P0001 60001 T00940050 58011=
202111221953 METAR KBLI 221953Z 18011G21KT 10SM -RA SCT050 OVC060 10/03 A3003 RMK AO2 RAB12 SLP179 P0000 T01000033=
202111221853 METAR KBLI 221853Z 16011G17KT 10SM SCT045 OVC060 11/01 A3001 RMK AO2 SLP172 T01060006=
202111221753 METAR KBLI 221753Z 16006KT 10SM SCT045 OVC060 09/02 A3003 RMK AO2 SLP178 I6001 T00890022 10089 21006 58005=
202111221653 METAR KBLI 221653Z 18010KT 10SM OVC090 08/03 A3005 RMK AO2 SLP186 T00780028=
202111221553 METAR KBLI 221553Z 16008KT 10SM OVC100 07/03 A3006 RMK AO2 SLP187 T00670033=
202111221453 METAR KBLI 221453Z 22005KT 10SM CLR 06/03 A3004 RMK AO2 SLP183 I3001 T00560033 56016=
202111221353 METAR KBLI 221353Z 00000KT 9SM CLR 01/01 A3005 RMK AO2 SLP187 T00110011=
202111221253 METAR KBLI 221253Z 00000KT 10SM CLR 02/02 A3006 RMK AO2 SLP190 I1001 T00170017=
202111221153 METAR KBLI 221153Z 00000KT 7SM CLR M01/M01 A3009 RMK AO2 SLP199 I1000 I6001 T10111011 10022 21011 50001=
202111221053 METAR KBLI 221053Z 12003KT 10SM CLR 01/01 A3011 RMK AO2 SLP205 I1000 T00060006=
202111220953 METAR KBLI 220953Z 00000KT 6SM BR FEW002 M01/M01 A3007 RMK AO2 SLP193 I1000 T10061006=
202111220946 SPECI KBLI 220946Z 00000KT 5SM BR CLR M01/M01 A3008 RMK AO2 I1000 T10061006=
202111220929 SPECI KBLI 220929Z 00000KT 2 1/2SM R16/6000VP6000FT BR FEW002 00/00 A3008 RMK AO2 VIS 1 1/4V4 T00000000=
202111220912 SPECI KBLI 220912Z 00000KT 1 3/4SM R16/4000VP6000FT BR FEW001 M01/M01 A3009 RMK AO2 VIS 3/4V5 T10061006=
202111220900 SPECI KBLI 220900Z 00000KT 7SM FEW001 M01/M01 A3008 RMK AO2 T10061006=
202111220853 METAR KBLI 220853Z 00000KT 2SM BR FEW001 M01/M01 A3009 RMK AO2 SLP198 I1000 I3001 T10061006 56026=
202111220848 SPECI KBLI 220848Z 00000KT 1 1/4SM BR SCT002 00/00 A3010 RMK AO2 I1000=
202111220840 SPECI KBLI 220840Z 00000KT 2SM R16/2000VP6000FT BR CLR M01/M01 A3010 RMK AO2 VIS 1 1/4V3 I1000 T10061006=
202111220824 SPECI KBLI 220824Z 00000KT 3SM BR CLR 00/00 A3011 RMK AO2 I1000 T00000000=
202111220819 SPECI KBLI 220819Z 00000KT 1SM R16/3500VP6000FT BR CLR 01/01 A3011 RMK AO2 I1000 T00060006=
202111220810 SPECI KBLI 220810Z 00000KT 1/2SM R16/3500VP6000FT FG CLR 01/01 A3012 RMK AO2 T00060006=
202111220806 SPECI KBLI 220806Z 00000KT 3/4SM R16/P6000FT BR VV001 00/00 A3012 RMK AO2 T00000000=
202111220800 SPECI KBLI 220800Z 00000KT 1 3/4SM BR FEW001 01/01 A3012 RMK AO2 T00060006=
202111220753 METAR KBLI 220753Z 00000KT 3SM R16/5500VP6000FT BR FEW001 01/01 A3013 RMK AO2 SLP213 I1001 T00110011 401001006=
202111220744 SPECI KBLI 220744Z 00000KT 5SM R16/3000VP6000FT BR SCT001 01/01 A3014 RMK AO2 I1001 T00060006=
202111220715 SPECI KBLI 220715Z 00000KT 3SM BR CLR 00/00 A3016 RMK AO2 T00000000=
202111220703 SPECI KBLI 220703Z 00000KT 1 3/4SM R16/4000VP6000FT BR CLR 01/01 A3017 RMK AO2 T00110011=
202111220653 METAR KBLI 220653Z 00000KT 4SM BR CLR 01/01 A3017 RMK AO2 SLP224 T00110011=
202111220648 SPECI KBLI 220648Z 00000KT 3SM BR CLR 01/01 A3017 RMK AO2=
202111220634 SPECI KBLI 220634Z 34003KT 1 3/4SM R16/3000VP6000FT BR CLR 02/02 A3017 RMK AO2 VIS 3/4V3 T00170017=
202111220553 METAR KBLI 220553Z 00000KT 10SM CLR 02/02 A3018 RMK AO2 SLP230 T00220022 10072 20011 58017=
202111220453 METAR KBLI 220453Z 00000KT 10SM CLR 02/02 A3020 RMK AO2 SLP236 T00220022=
202111220353 METAR KBLI 220353Z 00000KT 10SM CLR 03/02 A3022 RMK AO2 SLP242 T00280022=
202111220253 METAR KBLI 220253Z 00000KT 10SM CLR 03/03 A3023 RMK AO2 SLP247 T00280028 58022=
202111220153 METAR KBLI 220153Z 00000KT 10SM CLR 03/03 A3025 RMK AO2 SLP254 T00330028=
202111220053 METAR KBLI 220053Z 02003KT 10SM CLR 07/04 A3028 RMK AO2 SLP263 T00670039=
202111212353 METAR KBLI 212353Z 03003KT 10SM CLR 07/04 A3030 RMK AO2 SLP269 T00720039 10100 20050 58016=
202111212253 METAR KBLI 212253Z 04005KT 10SM CLR 09/04 A3032 RMK AO2 SLP275 T00890044=
202111212153 METAR KBLI 212153Z 00000KT 10SM CLR 09/05 A3033 RMK AO2 SLP280 T00940050=
202111212053 METAR KBLI 212053Z 10003KT 10SM CLR 08/04 A3035 RMK AO2 SLP285 T00780044 58024=
202111211953 METAR KBLI 211953Z 34003KT 10SM CLR 07/05 A3038 RMK AO2 SLP296 T00670050=
202111211853 METAR KBLI 211853Z 00000KT 10SM CLR 07/05 A3038 RMK AO2 SLP297 T00670050=
202111211753 METAR KBLI 211753Z 00000KT 10SM CLR 05/04 A3042 RMK AO2 SLP309 T00500044 10050 20006 58006=
202111211653 METAR KBLI 211653Z 00000KT 10SM CLR 02/02 A3043 RMK AO2 SLP312 T00220022=
202111211604 SPECI KBLI 211604Z 00000KT 10SM R16/3000VP6000FT SCT001 01/01 A3043 RMK AO2 T00110011=
202111211553 METAR KBLI 211553Z 00000KT 10SM R16/2000V3000FT BKN001 01/01 A3043 RMK AO2 SLP314 T00110011=
202111211550 SPECI KBLI 211550Z 00000KT 10SM R16/1200V2200FT BKN001 01/01 A3043 RMK AO2=
202111211511 SPECI KBLI 211511Z 00000KT 10SM BKN001 01/01 A3044 RMK AO2 T00110011=
202111211453 METAR KBLI 211453Z 00000KT 10SM CLR 01/01 A3043 RMK AO2 SLP315 T00060006 57017=
202111211417 SPECI KBLI 211417Z AUTO 00000KT 4SM BR CLR 01/01 A3044 RMK AO2 T00110011=
202111211404 SPECI KBLI 211404Z AUTO 00000KT 1 3/4SM R16/3500VP6000FT BR CLR 01/01 A3045 RMK AO2 T00110011=
202111211353 METAR KBLI 211353Z AUTO 00000KT 6SM BR CLR 01/01 A3045 RMK AO2 SLP321 T00060006=
202111211345 SPECI KBLI 211345Z AUTO 00000KT 3SM BR CLR 02/02 A3045 RMK AO2 T00170017=
202111211337 SPECI KBLI 211337Z AUTO 00000KT 1 3/4SM R16/4500VP6000FT BR CLR 01/01 A3045 RMK AO2 VIS 1V4 T00110011=
202111211253 METAR KBLI 211253Z AUTO 00000KT 5SM BR CLR 02/02 A3046 RMK AO2 SLP325 T00220022=
202111211237 SPECI KBLI 211237Z AUTO 00000KT 3SM BR CLR 02/02 A3046 RMK AO2 T00170017=
202111211232 SPECI KBLI 211232Z AUTO 00000KT 1SM R16/P6000FT BR CLR 01/01 A3046 RMK AO2 VIS 1/2V4 T00110011=
202111211226 SPECI KBLI 211226Z AUTO 00000KT 1/2SM R16/P6000FT FG CLR 02/02 A3046 RMK AO2 T00170017=
202111211220 SPECI KBLI 211220Z AUTO 00000KT 1 1/2SM BR CLR 01/01 A3047 RMK AO2 T00110011=
202111211153 METAR KBLI 211153Z AUTO 00000KT 10SM CLR 02/02 A3048 RMK AO2 SLP331 T00170017 10061 20017 56008=
202111211053 METAR KBLI 211053Z AUTO 00000KT 9SM CLR 03/03 A3048 RMK AO2 SLP332 T00330033=
202111210953 METAR KBLI 210953Z AUTO 00000KT 10SM CLR 04/04 A3047 RMK AO2 SLP327 T00440044=
202111210853 METAR KBLI 210853Z AUTO 00000KT 10SM FEW060 BKN120 05/04 A3051 RMK AO2 SLP339 T00500044 55014=
202111210753 METAR KBLI 210753Z AUTO 09004KT 10SM OVC090 06/04 A3050 RMK AO2 SLP338 T00610044 400830028=
202111210653 METAR KBLI 210653Z AUTO 00000KT 10SM BKN095 BKN120 05/04 A3054 RMK AO2 SLP350 T00500044=
202111210553 METAR KBLI 210553Z 00000KT 10SM OVC110 04/04 A3055 RMK AO2 SLP353 T00440044 10072 20028 51008=
202111210453 METAR KBLI 210453Z 00000KT 10SM FEW046 04/04 A3054 RMK AO2 SLP350 T00440039=
202111210353 METAR KBLI 210353Z 00000KT 10SM CLR 04/04 A3054 RMK AO2 SLP350 T00390039=
202111210253 METAR KBLI 210253Z 00000KT 10SM CLR 03/03 A3052 RMK AO2 SLP345 T00330033 53000=
202111210153 METAR KBLI 210153Z 00000KT 10SM CLR 04/04 A3052 RMK AO2 SLP343 T00390039=
202111210053 METAR KBLI 210053Z 00000KT 10SM CLR 06/05 A3051 RMK AO2 SLP340 T00610050=
202111202353 METAR KBLI 202353Z 00000KT 10SM CLR 07/05 A3052 RMK AO2 SLP344 60000 T00720050 10083 20072 55001=
202111202351 SPECI KBLI 202351Z 00000KT 10SM CLR 07/05 A3052 RMK AO2=
202111202253 METAR KBLI 202253Z 15005KT 10SM BKN026 OVC031 08/06 A3052 RMK AO2 SLP342 T00780056=
202111202153 METAR KBLI 202153Z 19004KT 10SM FEW016 BKN024 BKN031 08/05 A3052 RMK AO2 RAB10E19 SLP345 P0000 T00780050=
202111202053 METAR KBLI 202053Z 18005KT 10SM BKN024 07/05 A3052 RMK AO2 SLP344 T00720050 53008=
202111201953 METAR KBLI 201953Z 19008KT 10SM OVC018 08/06 A3052 RMK AO2 SLP342 T00830056=
202111201853 METAR KBLI 201853Z 20008KT 10SM BKN016 08/05 A3050 RMK AO2 SLP337 T00780050=
202111201753 METAR KBLI 201753Z 16008KT 10SM SCT016 08/05 A3050 RMK AO2 SLP336 T00780050 10078 20039 51012=
202111201653 METAR KBLI 201653Z 17003KT 10SM BKN019 07/04 A3049 RMK AO2 SLP334 T00720044=
202111201553 METAR KBLI 201553Z 18003KT 10SM BKN020 05/04 A3048 RMK AO2 SLP331 T00500039=
202111201453 METAR KBLI 201453Z 17004KT 10SM SCT022 BKN038 05/04 A3046 RMK AO2 SLP325 T00500039 51012=
202111201435 SPECI KBLI 201435Z 00000KT 10SM BKN021 BKN026 BKN036 05/04 A3047 RMK AO2 T00500044=
202111201353 METAR KBLI 201353Z AUTO 16004KT 10SM FEW022 OVC035 06/04 A3046 RMK AO2 SLP324 T00610044=
202111201310 SPECI KBLI 201310Z AUTO 18006KT 10SM SCT024 OVC035 06/04 A3044 RMK AO2 T00610044=
202111201253 METAR KBLI 201253Z AUTO 17003KT 10SM BKN022 OVC035 06/05 A3044 RMK AO2 SLP316 T00560050=
202111201153 METAR KBLI 201153Z AUTO 16004KT 10SM OVC022 06/04 A3043 RMK AO2 RAE20 SLP312 P0000 60004 70004 T00610044 10061 20050 51009=
202111201053 METAR KBLI 201053Z AUTO 00000KT 10SM -RA BKN026 OVC036 06/05 A3043 RMK AO2 SLP312 P0004 T00560050=
202111201036 SPECI KBLI 201036Z AUTO 19004KT 6SM -RA BR BKN026 OVC038 06/04 A3042 RMK AO2 P0003 T00560044=
202111201013 SPECI KBLI 201013Z AUTO 16006KT 10SM -RA BKN030 OVC041 06/04 A3042 RMK AO2 P0001 T00610044=
202111200953 METAR KBLI 200953Z AUTO 15003KT 10SM -RA BKN029 OVC041 06/04 A3041 RMK AO2 RAE23B47 SLP307 P0000 T00560039=
202111200934 SPECI KBLI 200934Z AUTO 15003KT 10SM BKN029 OVC036 06/04 A3040 RMK AO2 RAE23 P0000 T00560039=
202111200853 METAR KBLI 200853Z AUTO 18003KT 10SM -RA FEW032 SCT039 OVC050 06/03 A3040 RMK AO2 RAB53 SLP303 P0000 60000 T00610028 53007=
202111200753 METAR KBLI 200753Z AUTO 17005KT 10SM OVC050 06/03 A3039 RMK AO2 SLP301 T00610028 400780028=
202111200653 METAR KBLI 200653Z AUTO 16004KT 10SM FEW025 OVC055 06/03 A3038 RMK AO2 SLP297 T00610033=
202111200553 METAR KBLI 200553Z 15006KT 10SM BKN050 05/03 A3038 RMK AO2 SLP297 T00500028 10067 20033 51011=
202111200453 METAR KBLI 200453Z 16006KT 10SM OVC050 05/03 A3037 RMK AO2 SLP294 T00500028=
202111200353 METAR KBLI 200353Z 15008KT 10SM OVC049 06/03 A3036 RMK AO2 SLP290 T00560028=
202111200253 METAR KBLI 200253Z 15005KT 10SM OVC043 05/03 A3035 RMK AO2 SLP286 T00500033 51020=
202111200153 METAR KBLI 200153Z 11003KT 10SM SCT028 BKN039 03/03 A3033 RMK AO2 SLP280 T00330028=
202111200053 METAR KBLI 200053Z 00000KT 10SM FEW025 SCT032 04/03 A3031 RMK AO2 SLP274 T00390033=
202111200039 SPECI KBLI 200039Z 00000KT 10SM SCT025 04/03 A3031 RMK AO2 T00440033=
202111200032 SPECI KBLI 200032Z 00000KT 10SM BKN025 06/03 A3031 RMK AO2 T00560033=
202111192353 METAR KBLI 192353Z 20004KT 10SM SCT020 07/03 A3029 RMK AO2 SLP266 T00670028 10078 20061 53021=
202111192314 SPECI KBLI 192314Z VRB03KT 10SM SCT022 07/03 A3027 RMK AO2 T00720033=
202111192253 METAR KBLI 192253Z VRB05KT 10SM BKN020 OVC027 07/04 A3026 RMK AO2 SLP255 T00720039=
202111192153 METAR KBLI 192153Z VRB04KT 10SM OVC025 07/03 A3024 RMK AO2 SLP248 T00720033=
202111192107 SPECI KBLI 192107Z VRB05KT 10SM BKN024 OVC030 07/03 A3023 RMK AO2 T00670028=
202111192053 METAR KBLI 192053Z 10SM SCT022 BKN030 07/03 A3023 RMK AO2 SLP244 T00670028 51023=
202111192045 SPECI KBLI 192045Z 31006KT 10SM BKN021 BKN028 07/03 A3022 RMK AO2 T00720028=
202111191953 METAR KBLI 191953Z 30005KT 10SM SCT019 07/03 A3021 RMK AO2 SLP239 T00720028=
202111191853 METAR KBLI 191853Z 32005KT 10SM SCT044 07/03 A3019 RMK AO2 SLP233 T00720033=
202111191753 METAR KBLI 191753Z VRB03KT 10SM FEW030 FEW041 06/03 A3016 RMK AO2 SLP221 T00610028 10061 20028 51032=
202111191653 METAR KBLI 191653Z 00000KT 10SM OVC031 04/04 A3013 RMK AO2 SLP212 T00440039=
202111191646 SPECI KBLI 191646Z 00000KT 10SM SCT026 OVC033 04/04 A3013 RMK AO2 T00390039=
202111191631 SPECI KBLI 191631Z 00000KT 10SM BKN026 BKN033 03/03 A3012 RMK AO2 T00280028=
202111191553 METAR KBLI 191553Z 32003KT 10SM FEW024 SCT055 03/03 A3010 RMK AO2 SLP201 T00330028=
202111191518 SPECI KBLI 191518Z 32003KT 10SM FEW017 OVC055 03/03 A3007 RMK AO2 T00330033=
202111191453 METAR KBLI 191453Z 32003KT 10SM BKN017 OVC047 04/03 A3006 RMK AO2 SLP189 T00390033 53029=
202111191353 METAR KBLI 191353Z AUTO 34003KT 10SM OVC055 04/04 A3002 RMK AO2 SLP176 T00390039=
202111191253 METAR KBLI 191253Z AUTO 32005KT 10SM FEW041 OVC055 04/04 A3000 RMK AO2 SLP167 T00440039=
202111191216 SPECI KBLI 191216Z AUTO 31005KT 10SM SCT029 BKN037 OVC050 04/04 A2998 RMK AO2 T00440044=
202111191153 METAR KBLI 191153Z AUTO 32005KT 10SM OVC028 04/04 A2997 RMK AO2 RAE11 SLP159 P0000 60002 70028 T00440044 10044 20039 51013=
202111191053 METAR KBLI 191053Z AUTO 32005KT 10SM -RA OVC023 04/04 A2997 RMK AO2 SLP157 P0001 T00440044=
202111190953 METAR KBLI 190953Z AUTO 33003KT 10SM -RA OVC026 04/04 A2995 RMK AO2 RAB43 SLP149 P0001 T00440044=
202111190906 SPECI KBLI 190906Z AUTO 10SM FEW018 BKN026 OVC039 04/04 A2994 RMK AO2 T00440039=
202111190853 METAR KBLI 190853Z AUTO 33006KT 10SM SCT026 OVC038 04/04 A2994 RMK AO2 RAE0758B14E35 SLP146 P0000 60000 T00440039 52012=
202111190753 METAR KBLI 190753Z AUTO 32011KT 10SM -RA OVC036 04/04 A2993 RMK AO2 RAB36 SLP143 P0000 T00440039 400440022=
202111190653 METAR KBLI 190653Z AUTO 34009G17KT 10SM OVC041 04/04 A2991 RMK AO2 RAE31 SLP138 P0000 T00390039=
202111190553 METAR KBLI 190553Z 36010G18KT 10SM -RA OVC035 04/03 A2990 RMK AO2 SLP134 P0001 60006 T00440033 10044 20033 56002=
202111190453 METAR KBLI 190453Z 03010KT 10SM -RA OVC026 04/03 A2990 RMK AO2 RAB35 SLP134 P0000 T00390033=
202111190406 SPECI KBLI 190406Z 03008KT 10SM BKN026 OVC035 04/03 A2990 RMK AO2 T00390033=
202111190353 METAR KBLI 190353Z 02008G16KT 10SM FEW028 OVC035 04/03 A2990 RMK AO2 RAE08 SLP135 P0000 T00390033=
202111190253 METAR KBLI 190253Z 02008KT 10SM -RA BKN026 OVC033 04/03 A2991 RMK AO2 RAB45 SLP137 P0000 60005 T00390033 58003=
202111190153 METAR KBLI 190153Z 03006KT 10SM SCT003 OVC045 03/03 A2992 RMK AO2 RAE19 SLP140 P0000 T00330033=
202111190123 SPECI KBLI 190123Z 02006KT 10SM SCT003 OVC045 03/03 A2991 RMK AO2 RAE19 P0000 T00330033=
202111190053 METAR KBLI 190053Z 02006KT 7SM -RA FEW030 SCT036 OVC046 04/03 A2991 RMK AO2 SLP138 P0005 T00390033=
202111190030 SPECI KBLI 190030Z 02005KT 7SM -RA SCT028 OVC036 04/04 A2992 RMK AO2 P0003 T00390039=
202111190020 SPECI KBLI 190020Z 03004KT 6SM -RA BR BKN029 OVC036 04/04 A2992 RMK AO2 P0002 T00390039=
202111182353 METAR KBLI 182353Z 04006KT 5SM -RA BR OVC034 04/04 A2992 RMK AO2 SLP140 P0005 60020 T00390039 10044 20039 56008=
202111182253 METAR KBLI 182253Z 03007KT 7SM -RA FEW025 OVC040 04/04 A2992 RMK AO2 SLP142 P0005 T00390039=
202111182153 METAR KBLI 182153Z 04006KT 5SM -RA BR FEW007 BKN025 OVC048 04/04 A2993 RMK AO2 SLP145 P0002 T00440039=
202111182136 SPECI KBLI 182136Z 04009KT 10SM -RA FEW006 BKN042 OVC050 04/04 A2993 RMK AO2 P0001 T00440039=
202111182053 METAR KBLI 182053Z 36014KT 5SM -RA BR OVC032 04/04 A2994 RMK AO2 SLP149 P0007 60008 T00390039 58001=
202111181953 METAR KBLI 181953Z 02009KT 7SM -RA OVC037 04/03 A2996 RMK AO2 RAB16 SLP154 P0001 T00440033=
202111181853 METAR KBLI 181853Z 03011KT 10SM OVC060 04/02 A2995 RMK AO2 PK WND 03032/1834 SLP153 T00390022=
202111181753 METAR KBLI 181753Z 03016G27KT 10SM OVC100 04/02 A2995 RMK AO2 PK WND 35029/1733 SLP150 60000 T00390022 10044 20028 55006=
202111181653 METAR KBLI 181653Z 03012G20KT 10SM OVC110 04/02 A2994 RMK AO2 PK WND 05027/1640 SLP149 T00390022=
202111181553 METAR KBLI 181553Z 03012G19KT 10SM BKN065 OVC100 04/03 A2995 RMK AO2 RAE10 SLP152 P0000 T00440028=
202111181453 METAR KBLI 181453Z 01007KT 10SM -RA OVC042 04/02 A2996 RMK AO2 RAB24 SLP156 P0000 60000 T00390017 56009=
202111181353 METAR KBLI 181353Z AUTO 03005KT 10SM OVC065 03/02 A2997 RMK AO2 SLP156 T00330022=
202111181253 METAR KBLI 181253Z AUTO 00000KT 10SM OVC095 03/02 A2998 RMK AO2 SLP160 T00330022=
202111181153 METAR KBLI 181153Z AUTO 00000KT 10SM OVC110 03/02 A2999 RMK AO2 SLP165 T00330022 10039 20017 56008=
202111181053 METAR KBLI 181053Z AUTO 00000KT 10SM OVC110 03/02 A2999 RMK AO2 SLP166 T00330017=
202111180953 METAR KBLI 180953Z AUTO 02003KT 10SM BKN120 04/01 A3000 RMK AO2 SLP168 T00390011=
202111180853 METAR KBLI 180853Z AUTO 00000KT 10SM CLR 03/01 A3001 RMK AO2 SLP173 T00280011 58020=
202111180753 METAR KBLI 180753Z AUTO 00000KT 10SM CLR 02/01 A3005 RMK AO2 SLP184 T00220011 400781022=
202111180653 METAR KBLI 180653Z AUTO 00000KT 10SM CLR 02/01 A3005 RMK AO2 SLP186 T00170011=
202111180553 METAR KBLI 180553Z 00000KT 10SM CLR 03/02 A3007 RMK AO2 SLP193 T00280017 10056 20022 58015=
202111180453 METAR KBLI 180453Z 00000KT 10SM CLR 02/01 A3009 RMK AO2 SLP199 T00220011=
202111180353 METAR KBLI 180353Z 36003KT 10SM CLR 03/01 A3010 RMK AO2 SLP204 T00280011=
202111180253 METAR KBLI 180253Z 34003KT 10SM CLR 03/01 A3012 RMK AO2 SLP209 T00330006 56023=
202111180153 METAR KBLI 180153Z 02003KT 10SM CLR 04/00 A3013 RMK AO2 SLP213 T00390000=
202111180053 METAR KBLI 180053Z 03008KT 10SM CLR 04/01 A3015 RMK AO2 SLP219 T00440006=
202111172353 METAR KBLI 172353Z 01006KT 10SM CLR 06/00 A3018 RMK AO2 SLP231 T00560000 10078 20022 56038=
202111172253 METAR KBLI 172253Z 03008KT 10SM CLR 07/01 A3021 RMK AO2 SLP240 T00670006=
202111172153 METAR KBLI 172153Z 02005KT 10SM CLR 07/01 A3026 RMK AO2 SLP255 T00720011=
202111172053 METAR KBLI 172053Z 02005KT 10SM CLR 07/00 A3030 RMK AO2 SLP269 T00720000 58037=
202111171953 METAR KBLI 171953Z 05005KT 10SM CLR 07/01 A3034 RMK AO2 SLP282 T00670006=
202111171853 METAR KBLI 171853Z 04005KT 10SM CLR 05/01 A3037 RMK AO2 SLP294 T00500011=
202111171753 METAR KBLI 171753Z 00000KT 10SM CLR 02/01 A3041 RMK AO2 SLP305 I6001 T00220006 10022 21022 58006=
202111171653 METAR KBLI 171653Z 00000KT 6SM BCFG FEW001 00/00 A3042 RMK AO2 SLP310 I1001 T00000000=
202111171648 SPECI KBLI 171648Z 00000KT 6SM BCFG FEW001 00/00 A3042 RMK AO2 I1001=
202111171600 SPECI KBLI 171600Z 00000KT 3/4SM R16/P6000FT BR BKN001 M01/M01 A3042 RMK AO2 T10061011=
202111171553 METAR KBLI 171553Z 00000KT 1/2SM R16/P6000FT FZFG BKN003 M01/M02 A3042 RMK AO2 SLP313 I1000 T10111017=
202111171545 SPECI KBLI 171545Z 00000KT 1SM R16/P6000FT BR BKN003 M01/M01 A3043 RMK AO2 I1000 T10111011=
202111171453 METAR KBLI 171453Z 00000KT 10SM CLR M01/M02 A3043 RMK AO2 SLP314 I1000 I3000 T10111017 58018=
202111171353 METAR KBLI 171353Z AUTO 00000KT 10SM CLR M01/M01 A3045 RMK AO2 SLP322 I1000 T10061011=
202111171253 METAR KBLI 171253Z AUTO 00000KT 10SM CLR M01/M01 A3046 RMK AO2 SLP325 I1000 T10111011=
202111171153 METAR KBLI 171153Z AUTO 01003KT 10SM CLR M01/M01 A3048 RMK AO2 SLP331 I1000 I6000 T10061006 10033 21006 55007=
202111171053 METAR KBLI 171053Z AUTO 00000KT 10SM CLR 00/00 A3048 RMK AO2 SLP331 I1000 T00000000=
202111170953 METAR KBLI 170953Z AUTO 00000KT 5SM BR CLR 00/00 A3049 RMK AO2 SLP335 I1000 T00000000=
202111170853 METAR KBLI 170853Z AUTO 00000KT 6SM BR CLR 00/00 A3050 RMK AO2 SLP338 I1000 I3000 T00000000 50005=
202111170753 METAR KBLI 170753Z AUTO 00000KT 10SM CLR 01/01 A3050 RMK AO2 SLP339 T00060006 400890006=
202111170653 METAR KBLI 170653Z AUTO 00000KT 10SM FEW027 02/02 A3050 RMK AO2 SLP336 T00220017=
202111170643 SPECI KBLI 170643Z AUTO 00000KT 10SM FEW027 03/02 A3050 RMK AO2 T00280022=
202111170635 SPECI KBLI 170635Z AUTO 00000KT 10SM BKN027 03/02 A3050 RMK AO2 T00330022=
202111170628 SPECI KBLI 170628Z AUTO 17003KT 10SM SCT026 03/02 A3049 RMK AO2 T00330022=
202111170617 SPECI KBLI 170617Z 00000KT 10SM BKN026 03/02 A3049 RMK AO2 T00280022=
202111170610 SPECI KBLI 170610Z 00000KT 10SM SCT024 03/02 A3049 RMK AO2 T00330022=
202111170553 METAR KBLI 170553Z 00000KT 10SM BKN024 03/03 A3049 RMK AO2 SLP334 T00330028 10078 20017 51009=
202111170542 SPECI KBLI 170542Z 00000KT 10SM SCT024 SCT034 04/03 A3049 RMK AO2 T00390033=
202111170501 SPECI KBLI 170501Z 00000KT 10SM FEW022 BKN028 BKN039 03/03 A3048 RMK AO2 T00330028=
202111170453 METAR KBLI 170453Z 00000KT 10SM SCT024 BKN040 04/03 A3048 RMK AO2 SLP329 T00390028=
202111170451 SPECI KBLI 170451Z 00000KT 10SM SCT022 BKN040 04/03 A3048 RMK AO2=
202111170439 SPECI KBLI 170439Z 00000KT 10SM BKN024 BKN030 BKN038 04/03 A3047 RMK AO2 T00390028=
202111170353 METAR KBLI 170353Z 00000KT 10SM SCT025 BKN031 03/02 A3046 RMK AO2 SLP324 T00280022=
202111170253 METAR KBLI 170253Z 00000KT 10SM FEW029 03/02 A3045 RMK AO2 SLP319 T00280022 53015=
202111170153 METAR KBLI 170153Z 00000KT 10SM CLR 03/02 A3043 RMK AO2 SLP315 T00280022=
202111170053 METAR KBLI 170053Z 00000KT 10SM CLR 04/02 A3042 RMK AO2 SLP309 T00440022=
202111162353 METAR KBLI 162353Z 27003KT 10SM CLR 08/01 A3040 RMK AO2 SLP304 T00780011 10089 20072 52013=
202111162253 METAR KBLI 162253Z 29006KT 10SM FEW020 08/01 A3039 RMK AO2 SLP299 T00830011=
202111162153 METAR KBLI 162153Z 25007KT 10SM SCT060 08/02 A3038 RMK AO2 SLP295 T00830022=
202111162053 METAR KBLI 162053Z 30006KT 10SM FEW060 09/01 A3036 RMK AO2 SLP290 T00890011 51012=
202111161953 METAR KBLI 161953Z 30006KT 10SM FEW025 08/02 A3035 RMK AO2 SLP287 T00830022=
202111161853 METAR KBLI 161853Z VRB05KT 10SM FEW025 08/03 A3035 RMK AO2 SLP286 T00830028=
202111161753 METAR KBLI 161753Z 00000KT 10SM FEW060 08/03 A3033 RMK AO2 SLP278 T00780033 10078 20039 53027=
202111161653 METAR KBLI 161653Z 00000KT 10SM FEW070 07/03 A3030 RMK AO2 SLP270 T00670028=
202111161553 METAR KBLI 161553Z 18005KT 10SM CLR 06/03 A3027 RMK AO2 SLPNO T00560028=
202111161453 METAR KBLI 161453Z 19005KT 10SM CLR 06/03 A3025 RMK AO2 SLP251 T00610033 51020 $=
202111161353 METAR KBLI 161353Z AUTO 19003KT 10SM FEW110 06/03 A3023 RMK AO2 SLP244 T00610033 $=
202111161253 METAR KBLI 161253Z AUTO 20006KT 10SM SCT110 07/03 A3021 RMK AO2 SLP239 T00670033 $=
202111161153 METAR KBLI 161153Z AUTO 19005KT 10SM FEW120 07/03 A3019 RMK AO2 SLPNO 70107 T00670033 10067 20028 51015 $=
202111161053 METAR KBLI 161053Z AUTO 18007KT 10SM BKN100 BKN110 07/03 A3019 RMK AO2 SLP230 T00670028 $=
202111160953 METAR KBLI 160953Z AUTO 18006KT 10SM BKN100 06/02 A3017 RMK AO2 SLP224 T00560022 $=
202111160853 METAR KBLI 160853Z AUTO 19003KT 10SM CLR 04/02 A3014 RMK AO2 SLP216 T00390022 51038 $=
202111160753 METAR KBLI 160753Z AUTO 18003KT 10SM CLR 03/02 A3012 RMK AO2 SLP208 T00330022 401390033 $=
202111160653 METAR KBLI 160653Z VRB03KT 10SM CLR 06/01 A3008 RMK AO2 SLP194 T00560011 $=
202111160553 METAR KBLI 160553Z 20010KT 10SM CLR 06/02 A3003 RMK AO2 SLP177 T00610022 10078 20050 53052 $=
202111160453 METAR KBLI 160453Z 15008KT 10SM SCT030 05/04 A2998 RMK AO2 SLP161 T00500039 $=
202111160353 METAR KBLI 160353Z A2992 RMK AO2 SLPNO $=
202111160253 METAR KBLI 160253Z 29008G15KT 10SM BKN030 06/03 A2988 RMK AO2 SLP125 T00610028 51059 $=
202111160153 METAR KBLI 160153Z 29010G18KT 10SM BKN030 06/03 A2984 RMK AO2 PRESRR SLP111 T00610028 $=
202111160100 SPECI KBLI 160100Z 30006G14KT 10SM BKN030 06/03 A2978 RMK AO2 T00610028 $=
202111160053 METAR KBLI 160053Z 30010G15KT 10SM BKN020 06/03 A2978 RMK AO2 SLP091 T00610028 $=
202111152353 METAR KBLI 152353Z 24006KT 10SM BKN025 OVC034 A2970 RMK AO2 PRESRR SLPNO 60031 10139 20078 51085 $=
202111152253 METAR KBLI 152253Z 10SM BKN025 OVC034 08/05 A2962 RMK AO2 RAE18 PRESRR SLP038 P0000 T00830050=
202111152153 METAR KBLI 152153Z 24007G16KT 200V300 4SM -RA BR FEW006 BKN016 OVC030 08/07 A2954 RMK AO2 PK WND 29031/2129 PRESRR SLP010 P0002 T00780067=
202111152134 SPECI KBLI 152134Z 28012G31KT 250V320 5SM -RA BR FEW006 BKN016 OVC032 08/07 A2950 RMK AO2 PK WND 29031/2129 PRESRR P0002 T00780067=
202111152059 SPECI KBLI 152059Z 29013G26KT 2SM -RA BR SCT009 BKN013 OVC029 08/07 A2947 RMK AO2 PRESRR P0000 T00780072=
202111152053 METAR KBLI 152053Z 29011G33KT 1SM R16/P6000FT -RA BR BKN007 BKN015 OVC035 08/07 A2945 RMK AO2 PK WND 20035/1955 WSHFT 2012 SLP980 P0018 60029 T00780072 53016=
202111152032 SPECI KBLI 152032Z 30016G28KT 1SM R16/P6000FT RA BR BKN007 BKN015 OVC035 08/08 A2943 RMK AO2 PK WND 20035/1955 WSHFT 2012 P0014 T00830078=
202111152018 SPECI KBLI 152018Z 29016G30KT 1SM R16/4500VP6000FT +RA BR BKN007 BKN015 OVC035 09/09 A2941 RMK AO2 PK WND 20035/1955 PRESRR P0009 T00940089=
202111151953 METAR KBLI 151953Z 18019G36KT 2 1/2SM -RA BR OVC017 13/12 A2933 RMK AO2 PK WND 17045/1908 SLP938 P0004 T01330117=
202111151853 METAR KBLI 151853Z 17021G43KT 2 1/2SM -RA BR BKN017 BKN027 OVC070 13/12 A2936 RMK AO2 PK WND 16046/1804 SLP948 P0007 T01330122=
202111151830 SPECI KBLI 151830Z 17022G45KT 2SM -RA BR BKN019 BKN030 OVC070 13/12 A2937 RMK AO2 PK WND 16046/1804 P0004 T01330117=
202111151753 METAR KBLI 151753Z 17024G43KT 2SM RA BR FEW021 OVC070 14/12 A2940 RMK AO2 PK WND 17043/1748 SLP963 P0008 60076 T01390117 10139 20133 56035=
202111151700 SPECI KBLI 151700Z 17022G40KT 2SM RA BR SCT023 SCT055 OVC070 13/12 A2944 RMK AO2 PK WND 17040/1659 P0001 T01330117=
202111151653 METAR KBLI 151653Z 18024G40KT 2SM -RA BR BKN018 BKN043 OVC075 13/12 A2944 RMK AO2 PK WND 16047/1632 SLP976 P0016 T01330117=
202111151553 METAR KBLI 151553Z 17024G40KT 2SM RA BR BKN020 BKN025 OVC049 13/12 A2946 RMK AO2 PK WND 17043/1540 SLP982 P0018 T01330117=
202111151531 SPECI KBLI 151531Z 17024G37KT 2SM RA BR BKN020 BKN032 OVC042 14/12 A2948 RMK AO2 PK WND 17038/1510 P0009 T01390117=
202111151453 METAR KBLI 151453Z 17019G34KT 4SM RA BR BKN018 BKN025 OVC036 14/12 A2951 RMK AO2 PK WND 17042/1443 SLP998 P0018 60034 T01390122 58044=
202111151353 METAR KBLI 151353Z AUTO 18018G34KT 7SM -RA BKN017 OVC024 14/12 A2955 RMK AO2 PK WND 17037/1303 SLP013 P0007 T01390122=
202111151335 SPECI KBLI 151335Z AUTO 17019G34KT 8SM -RA BKN017 BKN025 OVC080 14/12 A2955 RMK AO2 PK WND 17037/1303 PRESFR P0004 T01390122=
202111151253 METAR KBLI 151253Z AUTO 17016G32KT 9SM -RA SCT017 BKN060 OVC075 14/13 A2961 RMK AO2 PK WND 14038/1218 SLP032 P0009 T01390128=
202111151230 SPECI KBLI 151230Z AUTO 17021G36KT 6SM RA BR SCT017 OVC060 14/13 A2962 RMK AO2 PK WND 14038/1218 P0005 T01390128=
202111151201 SPECI KBLI 151201Z AUTO 17015G29KT 8SM -RA BKN016 14/13 A2963 RMK AO2 PK WND 16029/1154 P0000 T01390128=
202111151153 METAR KBLI 151153Z AUTO 17019G30KT 8SM -RA OVC014 13/13 A2964 RMK AO2 PK WND 18030/1148 PRESFR SLP043 P0012 60115 70346 T01330128 10139 20100 56030=
202111151109 SPECI KBLI 151109Z AUTO 19011G22KT 160V250 4SM RA BR OVC014 13/13 A2967 RMK AO2 P0006 T01330128=
202111151053 METAR KBLI 151053Z AUTO 21012G25KT 170V280 5SM RA BR OVC015 14/13 A2967 RMK AO2 PK WND 17034/1030 SLP055 P0017 T01390128=
202111151030 SPECI KBLI 151030Z AUTO 18018G34KT 6SM RA BR BKN015 BKN032 OVC075 14/13 A2966 RMK AO2 PK WND 17034/1030 P0012 T01390133=
202111150953 METAR KBLI 150953Z AUTO 18013G25KT 4SM RA BR FEW003 OVC013 13/13 A2969 RMK AO2 PK WND 17027/0940 SLP061 P0024 T01330133=
202111150946 SPECI KBLI 150946Z AUTO 18014G27KT 5SM RA BR SCT003 SCT010 OVC016 13/13 A2969 RMK AO2 PK WND 17027/0940 P0021 T01330133=
202111150858 SPECI KBLI 150858Z AUTO 18009G16KT 3SM +RA BR OVC003 12/12 A2973 RMK AO2 P0002 T01220122=
202111150853 METAR KBLI 150853Z AUTO VRB06KT 2 1/2SM +RA BR OVC005 12/12 A2973 RMK AO2 SLP073 P0031 60062 T01220122 58014=
202111150840 SPECI KBLI 150840Z AUTO 23005KT 3SM RA BR OVC005 12/12 A2974 RMK AO2 P0024 T01170117=
202111150753 METAR KBLI 150753Z AUTO 27003KT 2 1/2SM RA BR OVC006 11/11 A2974 RMK AO2 SLP079 P0014 T01060106 401390061=
202111150653 METAR KBLI 150653Z AUTO 00000KT 5SM RA BR FEW003 BKN007 OVC012 10/10 A2977 RMK AO2 SLP089 P0017 T01000100=
202111150650 SPECI KBLI 150650Z AUTO 09003KT 6SM RA BR FEW003 BKN007 OVC026 10/10 A2977 RMK AO2 P0017=
202111150627 SPECI KBLI 150627Z AUTO 00000KT 3SM RA BR SCT009 BKN012 OVC017 10/10 A2979 RMK AO2 P0011 T01000100=
202111150553 METAR KBLI 150553Z 31003KT 2SM RA BR SCT005 OVC011 10/10 A2980 RMK AO2 SLP098 P0012 60109 T01000100 10106 20100 55007=
202111150453 METAR KBLI 150453Z 13003KT 2SM RA BR SCT005 BKN011 OVC026 10/10 A2979 RMK AO2 SLP096 P0023 T01000100=
202111150431 SPECI KBLI 150431Z 34003KT 2SM +RA BR SCT005 BKN011 OVC026 10/10 A2981 RMK AO2 P0015 T01000100=
202111150353 METAR KBLI 150353Z 00000KT 2SM RA BR BKN005 BKN011 OVC024 10/10 A2982 RMK AO2 SLP103 P0021 T01000100=
202111150300 SPECI KBLI 150300Z 00000KT 2SM +RA BR BKN005 BKN011 OVC024 10/10 A2982 RMK AO2 P0003 T01000100=
202111150253 METAR KBLI 150253Z 1 1/2SM +RA BR BKN005 BKN011 OVC024 10/10 A2982 RMK AO2 SLP105 P0026 60053 T01000100 58004=
202111150236 SPECI KBLI 150236Z 00000KT 1 1/2SM RA BR BKN005 BKN011 OVC020 10/10 A2982 RMK AO2 P0018 T01000100=
202111150153 METAR KBLI 150153Z 00000KT 3/4SM R16/P6000FT RA BR BKN005 BKN011 OVC020 10/10 A2983 RMK AO2 SLP107 P0012 T01000100=
202111150053 METAR KBLI 150053Z 17003KT 3/4SM R16/P6000FT RA BR BKN009 OVC024 10/10 A2983 RMK AO2 SLP109 P0015 T01000100=
202111142353 METAR KBLI 142353Z 32003KT 3/4SM R16/P6000FT -RA BR BKN005 OVC013 10/10 A2983 RMK AO2 SLP109 P0006 60073 T01000100 10133 20100 56005=
202111142253 METAR KBLI 142253Z 00000KT 3/4SM R16/P6000FT -RA BR BKN004 OVC013 11/11 A2983 RMK AO2 SLP109 P0010 T01060106=
202111142153 METAR KBLI 142153Z 00000KT 3/4SM R16/P6000FT RA BR BKN003 OVC033 11/11 A2983 RMK AO2 SLP109 P0010 T01110111=
202111142121 SPECI KBLI 142121Z VRB04KT 3/4SM R16/P6000FT RA BR SCT003 BKN008 OVC026 11/11 A2984 RMK AO2 P0005 T01110111=
202111142053 METAR KBLI 142053Z 32008KT 3/4SM R16/5500VP6000FT +RA BR BKN003 BKN008 OVC015 12/12 A2985 RMK AO2 SLP114 P0031 60047 T01170117 53000=
202111142020 SPECI KBLI 142020Z VRB05KT 3/4SM R16/P6000FT -RA BR BKN003 OVC010 13/13 A2983 RMK AO2 P0010 T01280128=
202111141953 METAR KBLI 141953Z 18010G17KT 1SM R16/P6000FT -RA BR BKN005 OVC019 13/13 A2981 RMK AO2 SLP102 P0014 T01330133=
202111141853 METAR KBLI 141853Z 18009G19KT 1SM R16/P6000FT -RA BR BKN002 OVC013 13/13 A2984 RMK AO2 SLP112 P0002 T01280128=
202111141753 METAR KBLI 141753Z 18013G19KT 1SM R16/P6000FT -RA BR SCT003 BKN013 OVC028 13/13 A2985 RMK AO2 SLP114 P0007 60049 T01330133 10139 20128 53006=
202111141653 METAR KBLI 141653Z 18013G23KT 1SM R16/P6000FT -RA BR OVC018 13/13 A2983 RMK AO2 SLP109 P0008 T01330133=
202111141553 METAR KBLI 141553Z 19013G22KT 1SM R16/P6000FT -RA BR OVC015 13/13 A2983 RMK AO2 SLP109 P0016 T01330133=
202111141455 SPECI KBLI 141455Z 18013G24KT 2SM RA BR OVC017 13/13 A2983 RMK AO2 P0001 T01330128=
202111141453 METAR KBLI 141453Z 21012G24KT 2 1/2SM RA BR OVC019 13/13 A2983 RMK AO2 PK WND 20029/1428 SLP107 P0014 60018 T01330133 53004=
202111141427 SPECI KBLI 141427Z AUTO 18012G23KT 3SM -RA BR FEW007 OVC019 13/13 A2981 RMK AO2 PK WND 16028/1357 P0007 T01330128=
202111141421 SPECI KBLI 141421Z AUTO 20011G20KT 2 1/2SM RA BR OVC021 13/13 A2981 RMK AO2 PK WND 16028/1357 P0006 T01330128=
202111141353 METAR KBLI 141353Z AUTO 17015G29KT 6SM -RA BR BKN022 OVC033 14/13 A2979 RMK AO2 PK WND 17029/1347 PRESFR SLP095 P0004 T01390133=
202111141253 METAR KBLI 141253Z AUTO 18012G28KT 7SM -RA SCT021 OVC029 14/13 A2981 RMK AO2 PK WND 17029/1237 SLP101 P0000 T01390128=
202111141244 SPECI KBLI 141244Z AUTO 18015G29KT 7SM -RA FEW019 SCT025 OVC031 14/13 A2982 RMK AO2 PK WND 17029/1237 P0000 T01390128=
202111141153 METAR KBLI 141153Z AUTO 17014G24KT 8SM -RA FEW015 OVC024 14/13 A2982 RMK AO2 PK WND 14026/1132 SLP103 P0002 60027 70104 T01390128 10139 20061 58013=
202111141053 METAR KBLI 141053Z AUTO 17009G17KT 7SM -RA OVC019 13/12 A2984 RMK AO2 PK WND 19027/0957 SLP111 P0003 T01330122=
202111140953 METAR KBLI 140953Z AUTO 19014G26KT 5SM -RA BR FEW012 OVC019 12/12 A2985 RMK AO2 PK WND 17026/0951 SLP114 P0007 T01220117=
202111140853 METAR KBLI 140853Z AUTO 14005KT 4SM -RA BR SCT017 BKN023 OVC027 08/08 A2985 RMK AO2 RAE19B26 SLP117 P0003 60015 T00780078 58015=
202111140828 SPECI KBLI 140828Z AUTO 33003KT 7SM -RA FEW009 OVC022 07/07 A2986 RMK AO2 RAE19B26 P0001 T00670067=
202111140820 SPECI KBLI 140820Z AUTO 04003KT 7SM FEW011 BKN022 OVC027 07/07 A2985 RMK AO2 RAE19 P0001 T00670067=
202111140753 METAR KBLI 140753Z AUTO 02003KT 4SM -RA BR FEW002 BKN014 OVC020 06/06 A2988 RMK AO2 SLP127 P0008 T00610061 401000061=
202111140653 METAR KBLI 140653Z AUTO 02005KT 3SM -RA BR FEW002 OVC014 06/06 A2988 RMK AO2 SLP127 P0004 T00610061=
202111140634 SPECI KBLI 140634Z AUTO 01008KT 3SM -RA BR FEW003 SCT007 OVC015 06/06 A2989 RMK AO2 P0003 T00610061=
202111140627 SPECI KBLI 140627Z AUTO 01006KT 4SM -RA BR SCT003 BKN009 OVC015 06/06 A2989 RMK AO2 P0002 T00610061=
202111140618 SPECI KBLI 140618Z 34012KT 4SM -RA BR BKN003 BKN009 OVC015 06/06 A2990 RMK AO2 P0002 T00610061=
202111140553 METAR KBLI 140553Z 01005KT 5SM -RA BR FEW003 BKN018 OVC023 06/06 A2990 RMK AO2 SLP132 P0005 60056 T00610061 10078 20061 56031=
202111140453 METAR KBLI 140453Z 05006KT 3SM RA BR SCT004 BKN018 OVC023 06/06 A2991 RMK AO2 SLP136 P0010 T00610061=
202111140353 METAR KBLI 140353Z 04007KT 3SM RA BR SCT005 SCT020 OVC028 06/06 A2994 RMK AO2 SLP147 P0013 T00610061=
202111140343 SPECI KBLI 140343Z 07007KT 4SM -RA BR SCT005 OVC030 06/06 A2995 RMK AO2 P0011 T00610061=
202111140340 SPECI KBLI 140340Z 4SM RA BR BKN005 OVC030 06/06 A2996 RMK AO2 P0011 T00610061=
202111140305 SPECI KBLI 140305Z 05010G15KT 5SM RA BR FEW006 OVC034 07/06 A2998 RMK AO2 P0003 T00670061=
202111140253 METAR KBLI 140253Z 04010G15KT 5SM RA BR FEW031 OVC037 07/07 A2999 RMK AO2 SLP164 P0014 60028 T00670067 56056=
202111140153 METAR KBLI 140153Z 10006KT 4SM RA BR FEW044 BKN050 OVC065 07/06 A3001 RMK AO2 PRESFR SLP170 P0006 T00720061=
202111140053 METAR KBLI 140053Z 07006KT 5SM -RA BR OVC037 07/07 A3010 RMK AO2 SLP201 P0008 T00720067=
202111132353 METAR KBLI 132353Z 05004KT 3SM RA BR OVC036 08/07 A3016 RMK AO2 SLP220 P0006 60021 T00780072 10100 20078 55029=
202111132351 SPECI KBLI 132351Z 06004KT 3SM -RA BR OVC036 08/07 A3015 RMK AO2 P0006=
202111132300 SPECI KBLI 132300Z 09005KT 2 1/2SM -RA BR OVC037 08/07 A3019 RMK AO2 P0001 T00780072=
202111132253 METAR KBLI 132253Z 06005KT 2 1/2SM -RA BR BKN015 OVC037 08/07 A3019 RMK AO2 SLP232 P0004 T00780072=
202111132153 METAR KBLI 132153Z 09003KT 2 1/2SM -RA BR BKN015 OVC045 09/09 A3024 RMK AO2 SLP249 P0008 T00890089=
202111132130 SPECI KBLI 132130Z 02004KT 2 1/2SM RA BR BKN015 OVC045 09/08 A3026 RMK AO2 P0006 T00890083=
202111132053 METAR KBLI 132053Z 00000KT 6SM -RA BR OVC041 09/09 A3027 RMK AO2 RAB1958 SLP258 P0003 60003 T00940089 58026=
202111131953 METAR KBLI 131953Z 00000KT 10SM SCT050 OVC060 10/09 A3031 RMK AO2 SLP270 T01000089=
202111131853 METAR KBLI 131853Z 19003KT 10SM SCT075 OVC095 09/08 A3033 RMK AO2 SLP278 T00890083=
202111131753 METAR KBLI 131753Z 00000KT 10SM OVC095 09/08 A3035 RMK AO2 SLP284 T00890078 10094 20072 50002=
202111131653 METAR KBLI 131653Z 00000KT 10SM BKN110 09/08 A3036 RMK AO2 SLP288 T00890083=
202111131621 SPECI KBLI 131621Z 00000KT 10SM SCT020 OVC110 08/07 A3034 RMK AO2 T00830072=
202111131553 METAR KBLI 131553Z 00000KT 10SM SCT020 BKN027 OVC110 08/07 A3034 RMK AO2 SLP284 T00780072=
202111131453 METAR KBLI 131453Z 00000KT 10SM BKN018 08/07 A3034 RMK AO2 SLP282 T00780067 55001=
202111131423 SPECI KBLI 131423Z 00000KT 10SM BKN017 09/07 A3033 RMK AO2 T00890072=
202111131353 METAR KBLI 131353Z 18005KT 10SM CLR 09/08 A3033 RMK AO2 SLP279 T00890078=
202111131253 METAR KBLI 131253Z 18005KT 10SM CLR 08/07 A3033 RMK AO2 SLP278 T00830067=
202111131153 METAR KBLI 131153Z 18004KT 10SM CLR 08/07 A3034 RMK AO2 SLP282 70018 T00830072 10100 20078 51009=
202111131053 METAR KBLI 131053Z VRB03KT 10SM CLR 08/07 A3034 RMK AO2 SLP281 T00830067=
202111130953 METAR KBLI 130953Z 17004KT 10SM CLR 08/07 A3032 RMK AO2 SLP276 T00830067=
202111130853 METAR KBLI 130853Z 18004KT 10SM CLR 09/07 A3032 RMK AO2 SLP273 T00890067 51018=
202111130753 METAR KBLI 130753Z 19006KT 10SM CLR 09/07 A3031 RMK AO2 SLP269 T00890067 401440078=
202111130653 METAR KBLI 130653Z 18003KT 10SM CLR 09/06 A3029 RMK AO2 SLP265 T00890061=
202111130553 METAR KBLI 130553Z 00000KT 10SM CLR 09/06 A3026 RMK AO2 SLP255 T00940056 10117 20083 53020=
202111130453 METAR KBLI 130453Z 18006KT 10SM CLR 10/06 A3023 RMK AO2 SLP245 T01000056=
202111130353 METAR KBLI 130353Z 18006KT 10SM CLR 11/08 A3023 RMK AO2 SLP243 T01060078=
202111130253 METAR KBLI 130253Z 18008G15KT 10SM CLR 11/10 A3020 RMK AO2 SLP235 T01110100 53018=
202111130153 METAR KBLI 130153Z 18007KT 10SM SCT014 11/10 A3018 RMK AO2 SLP228 T01110100=
202111130053 METAR KBLI 130053Z 18007KT 10SM FEW014 11/10 A3015 RMK AO2 SLP215 T01110100=
202111122353 METAR KBLI 122353Z 17007KT 10SM SCT060 11/10 A3015 RMK AO2 SLP216 60016 T01110100 10128 20111 53014=
202111122253 METAR KBLI 122253Z 23003KT 10SM BKN035 12/11 A3013 RMK AO2 RAB20E29 SLP211 P0000 T01170106=
202111122153 METAR KBLI 122153Z 10SM SCT060 BKN090 12/11 A3012 RMK AO2 RAE07 SLP206 P0000 T01220106=
202111122053 METAR KBLI 122053Z 15007KT 10SM -RA BKN055 BKN080 BKN110 12/11 A3011 RMK AO2 SLP202 P0006 60016 T01170106 50003=
202111121953 METAR KBLI 121953Z 15008KT 6SM -RA BR OVC055 12/11 A3011 RMK AO2 SLP204 P0005 T01170111=
202111121853 METAR KBLI 121853Z 14006KT 7SM -RA OVC060 12/11 A3012 RMK AO2 SLP206 P0005 T01170111=
202111121753 METAR KBLI 121753Z 15010KT 10SM -RA OVC065 12/11 A3010 RMK AO2 RAB06 SLP199 P0001 60002 T01220111 10139 20122 51018=
202111121653 METAR KBLI 121653Z 17005KT 10SM OVC080 13/11 A3009 RMK AO2 SLP198 T01330106=
202111121553 METAR KBLI 121553Z 17005KT 10SM BKN110 12/10 A3006 RMK AO2 SLP185 T01220100=
202111121453 METAR KBLI 121453Z AUTO 18006KT 10SM OVC080 14/12 A3004 RMK AO2 SLP181 60001 T01390117 51010=
202111121353 METAR KBLI 121353Z AUTO 18009KT 10SM OVC075 13/13 A3003 RMK AO2 RAB1259E13 SLP176 P0001 T01330128=
202111121303 SPECI KBLI 121303Z AUTO 18009G17KT 8SM -RA FEW004 BKN049 OVC060 13/13 A3004 RMK AO2 RAB1259 P0001 T01330128=
202111121253 METAR KBLI 121253Z AUTO 18010KT 10SM BKN004 BKN019 OVC047 13/13 A3003 RMK AO2 RAE36 SLP177 P0000 T01330133=
202111121233 SPECI KBLI 121233Z AUTO 18010G18KT 10SM -RA OVC004 13/13 A3002 RMK AO2 P0000 T01330133=
202111121153 METAR KBLI 121153Z AUTO 18010G21KT 5SM RA BR BKN009 OVC022 13/13 A3002 RMK AO2 SLP171 P0008 60010 70045 T01330133 10150 20094 50021=
202111121151 SPECI KBLI 121151Z AUTO 19009G21KT 5SM -RA BR BKN009 OVC022 13/13 A3002 RMK AO2 P0008=
202111121053 METAR KBLI 121053Z AUTO 18011G21KT 8SM -RA OVC013 14/13 A2998 RMK AO2 RAE0956B45 SLP158 P0000 T01440133=
202111121027 SPECI KBLI 121027Z AUTO 17011G20KT 10SM BKN016 OVC040 14/13 A2998 RMK AO2 RAE0956 P0000 T01440128=
202111120953 METAR KBLI 120953Z AUTO 15009KT 10SM -RA OVC013 14/13 A2995 RMK AO2 RAB0856E14B47 PRESFR SLP150 P0000 T01390133=
202111120853 METAR KBLI 120853Z AUTO 21004KT 10SM OVC014 13/12 A2998 RMK AO2 RAE0759B43E53 SLP159 P0000 60002 T01280122 55000=
202111120753 METAR KBLI 120753Z AUTO 18011G21KT 9SM -RA BKN017 BKN039 OVC046 14/13 A2997 RMK AO2 RAB00 SLP156 P0002 T01440133 401500067=
202111120653 METAR KBLI 120653Z AUTO 17010KT 10SM OVC016 14/13 A2998 RMK AO2 RAE32 SLP158 P0000 T01440128=
202111120553 METAR KBLI 120553Z 00000KT 7SM -RA OVC017 09/09 A2998 RMK AO2 SLP161 P0004 60030 T00890089 10133 20078 51001=
202111120517 SPECI KBLI 120517Z 35003KT 5SM -RA BR BKN005 OVC018 08/08 A2998 RMK AO2 P0003 T00830083=
202111120453 METAR KBLI 120453Z 01007KT 5SM RA BR FEW005 OVC018 08/08 A2998 RMK AO2 SLP160 P0008 T00830083=
202111120410 SPECI KBLI 120410Z 35006KT 9SM -RA FEW005 OVC018 09/09 A2998 RMK AO2 P0000 T00890089=
202111120353 METAR KBLI 120353Z 32009KT 10SM -RA OVC020 09/09 A2998 RMK AO2 RAB03 SLP161 P0000 T00890089=
202111120253 METAR KBLI 120253Z 00000KT 10SM BKN019 09/09 A2998 RMK AO2 RAE24 SLP159 P0001 60018 T00940094 56022=
202111120153 METAR KBLI 120153Z 33006KT 10SM -RA BKN022 OVC065 10/10 A2998 RMK AO2 SLP161 P0007 T01000100=
202111120053 METAR KBLI 120053Z 06003KT 5SM -RA BR BKN018 BKN027 OVC075 08/08 A3001 RMK AO2 SLP169 P0010 T00830083=
202111120000 SPECI KBLI 120000Z 35007KT 3SM -RA BR OVC014 08/07 A3005 RMK AO2 P0000 T00830072=
202111112353 METAR KBLI 112353Z 36005KT 7SM -RA OVC018 08/07 A3004 RMK AO2 SLP182 P0002 60005 T00830072 10100 20083 56021=
202111112253 METAR KBLI 112253Z 03005KT 5SM -RA BR OVC020 08/08 A3005 RMK AO2 SLP184 P0001 T00830078=
202111112153 METAR KBLI 112153Z 04005KT 6SM -RA BR OVC020 09/07 A3009 RMK AO2 RAB18 SLP198 P0002 T00890072=
202111112053 METAR KBLI 112053Z 04005KT 10SM BKN025 OVC030 09/05 A3011 RMK AO2 SLP203 T00940050 58021=
202111111953 METAR KBLI 111953Z 03007KT 10SM OVC028 09/05 A3013 RMK AO2 SLP212 T00940050=
202111111853 METAR KBLI 111853Z 04007KT 10SM OVC026 09/06 A3015 RMK AO2 SLP216 T00940056=
202111111753 METAR KBLI 111753Z 02006KT 10SM OVC024 08/05 A3017 RMK AO2 SLP224 T00830050 10083 20067 53002=
202111111653 METAR KBLI 111653Z 03007KT 10SM OVC019 08/04 A3016 RMK AO2 SLP222 T00780044=
202111111553 METAR KBLI 111553Z 03006KT 10SM OVC016 07/04 A3017 RMK AO2 SLP223 T00720039=
202111111453 METAR KBLI 111453Z 04007KT 5SM BR OVC016 07/05 A3016 RMK AO2 SLP222 T00670050 50008=
202111111353 METAR KBLI 111353Z AUTO 03004KT 10SM OVC019 07/04 A3016 RMK AO2 SLP222 T00670044=
202111111253 METAR KBLI 111253Z AUTO 04005KT 10SM OVC020 07/04 A3015 RMK AO2 SLP217 T00720044=
202111111153 METAR KBLI 111153Z AUTO 04008KT 10SM OVC025 07/04 A3014 RMK AO2 SLP214 60003 70014 T00720039 10072 20067 50007=
202111111141 SPECI KBLI 111141Z AUTO 03009KT 10SM BKN023 OVC029 07/04 A3014 RMK AO2 T00720039=
202111111053 METAR KBLI 111053Z AUTO 04007KT 10SM OVC032 07/04 A3014 RMK AO2 RAB0954E10 SLP215 P0001 T00670044=
202111110953 METAR KBLI 110953Z AUTO 02006KT 10SM OVC039 07/04 A3013 RMK AO2 RAE09 SLP212 P0000 T00670044=
202111110853 METAR KBLI 110853Z AUTO 05008KT 10SM -RA BKN044 OVC080 07/04 A3012 RMK AO2 SLP207 P0001 60002 T00670044 58008=
202111110753 METAR KBLI 110753Z AUTO 04008KT 10SM -RA OVC042 07/04 A3012 RMK AO2 RAB0654 SLP208 P0001 T00670044 401110061=
202111110653 METAR KBLI 110653Z AUTO 04007KT 10SM OVC050 07/04 A3015 RMK AO2 RAB37E50 SLP217 P0000 T00720039=
202111110553 METAR KBLI 110553Z 04008KT 10SM SCT049 BKN060 OVC080 07/04 A3014 RMK AO2 SLP216 60000 T00720039 10089 20061 58025=
202111110453 METAR KBLI 110453Z 04007KT 10SM SCT055 OVC100 07/04 A3017 RMK AO2 RAB23E42 SLP224 P0000 T00720044=
202111110353 METAR KBLI 110353Z 04006KT 10SM BKN090 OVC110 07/05 A3020 RMK AO2 SLP235 T00670050=
202111110253 METAR KBLI 110253Z 04005KT 10SM BKN090 07/05 A3022 RMK AO2 SLP241 T00670050 56020=
202111110153 METAR KBLI 110153Z 04005KT 10SM CLR 07/05 A3023 RMK AO2 SLP244 T00670050=
202111110053 METAR KBLI 110053Z 04005KT 10SM CLR 08/06 A3025 RMK AO2 SLP251 T00780056=
202111102353 METAR KBLI 102353Z 03007KT 10SM SCT041 09/06 A3028 RMK AO2 SLP260 T00940061 10111 20089 58004=
202111102253 METAR KBLI 102253Z 18005KT 10SM CLR 11/05 A3028 RMK AO2 SLP260 T01060050=
202111102153 METAR KBLI 102153Z 19006KT 10SM FEW025 11/06 A3030 RMK AO2 SLP269 T01060056=
202111102053 METAR KBLI 102053Z 18006KT 10SM CLR 10/05 A3029 RMK AO2 SLP265 T01000050 58004=
202111101953 METAR KBLI 101953Z 19006KT 10SM CLR 10/06 A3030 RMK AO2 SLP268 T01000056=
202111101853 METAR KBLI 101853Z 18005KT 10SM FEW050 09/06 A3031 RMK AO2 SLP272 T00940061=
202111101753 METAR KBLI 101753Z 16007KT 10SM FEW050 09/06 A3030 RMK AO2 SLP269 60011 T00890056 10089 20067 51009=
202111101653 METAR KBLI 101653Z 19004KT 10SM FEW017 SCT050 07/06 A3030 RMK AO2 SLP267 T00720056=
202111101553 METAR KBLI 101553Z 17006KT 10SM FEW017 SCT031 BKN070 07/06 A3028 RMK AO2 RAE32B41E51 SLP263 P0002 T00720061=
202111101532 SPECI KBLI 101532Z 16009KT 10SM FEW017 SCT031 BKN070 07/06 A3028 RMK AO2 RAE32 P0002 T00720061=
202111101453 METAR KBLI 101453Z 18010G15KT 5SM RA BR FEW016 BKN024 OVC031 07/06 A3027 RMK AO2 RAB19 SLP260 P0004 60009 T00720061 51019=
202111101353 METAR KBLI 101353Z AUTO 17007KT 10SM FEW038 OVC065 07/06 A3025 RMK AO2 RAE07 SLP253 P0001 T00720056=
202111101317 SPECI KBLI 101317Z AUTO 18007KT 10SM SCT029 BKN035 OVC080 07/06 A3024 RMK AO2 RAE07 P0001 T00720056=
202111101253 METAR KBLI 101253Z AUTO 17007G14KT 6SM -RA BR BKN029 OVC035 07/06 A3024 RMK AO2 SLP249 P0004 T00720061=
202111101153 METAR KBLI 101153Z AUTO 17005KT 10SM -RA BKN036 OVC095 07/06 A3022 RMK AO2 RAB11 SLP241 P0001 60001 70025 T00720056 10083 20072 51016=
202111101053 METAR KBLI 101053Z AUTO 17006KT 10SM FEW017 BKN033 OVC070 07/05 A3021 RMK AO2 SLP237 T00720050=
202111100953 METAR KBLI 100953Z AUTO 17008G20KT 10SM CLR 07/05 A3019 RMK AO2 SLP230 T00720050=
202111100853 METAR KBLI 100853Z AUTO 17011G18KT 10SM SCT016 SCT095 07/06 A3017 RMK AO2 RAB03E48 SLP225 P0000 60000 T00720056 51030=
202111100753 METAR KBLI 100753Z AUTO 18010G19KT 10SM FEW042 BKN065 08/05 A3014 RMK AO2 SLP215 T00780050 401280067=
202111100653 METAR KBLI 100653Z AUTO 18012G21KT 10SM FEW034 SCT070 BKN110 08/06 A3011 RMK AO2 SLP205 T00780056=
202111100553 METAR KBLI 100553Z 19007KT 160V240 10SM BKN035 BKN055 OVC100 08/05 A3008 RMK AO2 SLP194 60006 T00830050 10089 20078 51029=
202111100453 METAR KBLI 100453Z 18010G18KT 10SM BKN043 OVC050 08/04 A3006 RMK AO2 SLP186 T00830044=
202111100353 METAR KBLI 100353Z 17010G19KT 10SM FEW042 BKN070 OVC100 08/04 A3003 RMK AO2 SLP176 T00830044=
202111100253 METAR KBLI 100253Z 17013G21KT 10SM FEW031 SCT041 08/05 A2999 RMK AO2 RAE0154 SLP165 P0000 60006 T00780050 51034=
202111100153 METAR KBLI 100153Z 16014G25KT 10SM -RA FEW015 BKN026 OVC037 08/07 A2996 RMK AO2 RAB19 SLP152 P0005 T00780067=
202111100053 METAR KBLI 100053Z 17011G21KT 10SM SCT034 BKN046 OVC055 08/06 A2994 RMK AO2 RAB11E43 SLP146 P0001 T00830056=
202111100006 SPECI KBLI 100006Z 18010G17KT 10SM SCT016 OVC044 08/06 A2991 RMK AO2 T00780056=
202111092353 METAR KBLI 092353Z 17011G28KT 10SM SCT016 BKN022 OVC045 08/06 A2989 RMK AO2 PK WND 16028/2346 RAE26 SLP131 P0000 60006 T00780061 10106 20078 51035=
202111092253 METAR KBLI 092253Z 19012G28KT 7SM -RA BKN025 OVC034 08/06 A2987 RMK AO2 PK WND 18028/2213 RAB14 SLP122 P0006 T00780056=
202111092227 SPECI KBLI 092227Z 17015G27KT 10SM -RA BKN025 OVC050 08/06 A2985 RMK AO2 PK WND 18028/2213 RAB14 P0001 T00830056=
202111092153 METAR KBLI 092153Z 18015G27KT 10SM SCT043 BKN055 OVC070 10/04 A2983 RMK AO2 PK WND 17030/2140 RAB40E49 SLP107 P0000 T01000039=
202111092053 METAR KBLI 092053Z 18012G24KT 10SM FEW038 FEW070 11/04 A2979 RMK AO2 PK WND 15029/2022 SLP096 T01060044 51019=
202111091953 METAR KBLI 091953Z 16016G24KT 10SM FEW020 BKN090 BKN110 09/05 A2978 RMK AO2 SLP091 T00940050=
202111091853 METAR KBLI 091853Z 15009G17KT 10SM FEW120 09/04 A2977 RMK AO2 SLP088 T00940044=
202111091753 METAR KBLI 091753Z 16009KT 10SM FEW040 09/03 A2974 RMK AO2 SLP077 60012 T00940033 10117 20067 51077=
202111091653 METAR KBLI 091653Z 23008G18KT 180V310 10SM CLR 09/02 A2969 RMK AO2 PK WND 21027/1642 SLP063 T00890022=
202111091553 METAR KBLI 091553Z 19007KT 150V220 10SM OVC080 08/04 A2962 RMK AO2 PK WND 24026/1454 RAE10 SLP037 P0001 T00780044=
202111091515 SPECI KBLI 091515Z VRB06KT 10SM FEW029 FEW041 OVC049 07/05 A2955 RMK AO2 PK WND 24026/1454 RAE10 P0001 T00720050=
202111091453 METAR KBLI 091453Z 21012G35KT 160V240 3SM R16/4500VP6000FT +RA BR BKN026 OVC038 09/07 A2951 RMK AO2 PK WND 15043/1418 RAB34 PRESRR SLP000 P0011 60011 T00890072 53039=
202111091451 SPECI KBLI 091451Z 20017G38KT 2 1/2SM R16/4500VP6000FT RA BR BKN027 BKN032 OVC042 10/08 A2951 RMK AO2 PK WND 15043/1418 VIS 3/4V5 RAB34 P0010=
202111091353 METAR KBLI 091353Z AUTO 15018G30KT 10SM OVC038 12/06 A2936 RMK AO2 PK WND 12030/1348 SLP949 T01170061=
202111091253 METAR KBLI 091253Z AUTO 02007KT 10SM OVC042 07/05 A2938 RMK AO2 SLP958 T00670050=
202111091153 METAR KBLI 091153Z AUTO 10007KT 10SM OVC044 09/06 A2939 RMK AO2 RAE53 SLP961 P0003 60005 70005 T00890061 10128 20078 58014=
202111091053 METAR KBLI 091053Z AUTO 15010G20KT 8SM -RA BKN042 OVC050 09/06 A2942 RMK AO2 PK WND 15033/0956 SLP969 P0002 T00940056=
202111090953 METAR KBLI 090953Z AUTO 14018G39KT 7SM -RA FEW018 BKN042 OVC065 11/04 A2943 RMK AO2 PK WND 13039/0944 RAB25 SLP972 P0000 T01110044=
202111090853 METAR KBLI 090853Z AUTO 27003KT 10SM OVC080 08/02 A2943 RMK AO2 SLP974 T00780017 56045=
202111090753 METAR KBLI 090753Z AUTO 03009KT 10SM OVC110 08/01 A2945 RMK AO2 PRESFR SLP979 T00830011 401170067=
202111090653 METAR KBLI 090653Z AUTO 03009KT 10SM FEW120 08/02 A2951 RMK AO2 PRESFR SLP000 T00780017=
202111090553 METAR KBLI 090553Z 04007KT 10SM CLR 08/01 A2957 RMK AO2 PRESFR SLP020 T00780011 10094 20067 58055=
202111090453 METAR KBLI 090453Z 04009KT 10SM CLR 08/02 A2962 RMK AO2 PRESFR SLP038 T00780017=
202111090353 METAR KBLI 090353Z 03006KT 10SM CLR 07/02 A2969 RMK AO2 PRESFR SLP062 T00720017=
202111090253 METAR KBLI 090253Z 03006KT 10SM CLR 07/02 A2973 RMK AO2 SLP076 T00720022 56036=
202111090153 METAR KBLI 090153Z 03008KT 10SM CLR 08/02 A2975 RMK AO2 SLP082 T00780022=
202111090053 METAR KBLI 090053Z 03008KT 10SM CLR 08/03 A2978 RMK AO2 PRESFR SLP093 T00830028=
202111082353 METAR KBLI 082353Z 04008KT 10SM CLR 09/03 A2984 RMK AO2 SLP112 T00940033 10117 20094 58034=
202111082253 METAR KBLI 082253Z 05008KT 10SM FEW120 10/04 A2989 RMK AO2 SLP128 T01000039=
202111082153 METAR KBLI 082153Z 03008KT 10SM BKN110 11/04 A2991 RMK AO2 SLP135 T01060039=
202111082053 METAR KBLI 082053Z 03006KT 10SM FEW120 11/04 A2994 RMK AO2 SLP146 T01110044 58031=
202111081953 METAR KBLI 081953Z 01005KT 10SM FEW110 11/04 A2998 RMK AO2 SLP160 T01110044=
202111081853 METAR KBLI 081853Z 12010G17KT 10SM FEW060 12/02 A3001 RMK AO2 SLP171 T01170022=
202111081753 METAR KBLI 081753Z 13009KT 10SM FEW040 11/03 A3003 RMK AO2 SLP178 T01060028 10106 20072 58014=
202111081653 METAR KBLI 081653Z 13009KT 10SM FEW040 09/03 A3004 RMK AO2 SLP181 T00940028=
202111081553 METAR KBLI 081553Z 14008KT 10SM FEW090 08/03 A3007 RMK AO2 SLP189 T00780028=
202111081453 METAR KBLI 081453Z 16006KT 10SM FEW090 OVC110 08/03 A3007 RMK AO2 SLP191 T00780033 58003=
202111081353 METAR KBLI 081353Z AUTO 14008KT 10SM OVC100 08/04 A3008 RMK AO2 SLP193 T00780039 $=
202111081253 METAR KBLI 081253Z AUTO 14008KT 10SM OVC100 07/04 A3009 RMK AO2 SLP196 T00720039 $=
202111081153 METAR KBLI 081153Z AUTO 16009KT 10SM OVC100 08/04 A3008 RMK AO2 SLP195 70007 T00780044 10078 20072 58001 $=
202111081053 METAR KBLI 081053Z AUTO 16010KT 10SM OVC100 08/04 A3010 RMK AO2 SLP199 T00780044 $=
202111080953 METAR KBLI 080953Z AUTO 16010KT 10SM BKN060 BKN075 07/04 A3009 RMK AO2 SLP199 T00720044 $=
202111080921 SPECI KBLI 080921Z AUTO 17011G17KT 10SM FEW020 OVC060 07/05 A3009 RMK AO2 T00720050 $=
202111080914 SPECI KBLI 080914Z AUTO 17008KT 10SM BKN020 BKN050 OVC065 07/05 A3009 RMK AO2 T00720050 $=
202111080853 METAR KBLI 080853Z AUTO 18008G15KT 10SM SCT020 BKN050 OVC065 07/05 A3009 RMK AO2 SLP196 T00720050 51009 $=
202111080825 SPECI KBLI 080825Z AUTO 18008G16KT 10SM SCT019 OVC070 07/04 A3008 RMK AO2 T00720044 $=
202111080753 METAR KBLI 080753Z AUTO 17007KT 10SM OVC018 07/04 A3008 RMK AO2 SLP194 T00720044 400830061 $=
202111080653 METAR KBLI 080653Z AUTO 18009G16KT 10SM OVC020 07/04 A3007 RMK AO2 SLP191 T00720044 $=
202111080553 METAR KBLI 080553Z 17010G19KT 10SM BKN020 OVC028 07/04 A3006 RMK AO2 SLP187 60003 T00720044 10083 20067 51012 $=
202111080453 METAR KBLI 080453Z 17008KT 10SM BKN018 OVC023 07/04 A3005 RMK AO2 RAE10 SLP182 P0000 T00670044 $=
202111080449 SPECI KBLI 080449Z 16007KT 10SM OVC018 07/04 A3005 RMK AO2 RAE10 P0000 $=
202111080353 METAR KBLI 080353Z 17011G19KT 10SM -RA SCT017 BKN070 OVC110 07/04 A3002 RMK AO2 RAB51 SLP175 P0000 T00670039 $=
202111080253 METAR KBLI 080253Z 17011G20KT 10SM SCT017 BKN070 07/04 A3001 RMK AO2 SLP172 60003 T00720044 $=
202111080251 SPECI KBLI 080251Z 18009G20KT 10SM SCT017 BKN070 07/04 A3002 RMK AO2 $=
202111080153 METAR KBLI 080153Z 18010G21KT 10SM BKN017 BKN080 07/04 A3001 RMK AO2 PK WND 18026/0122 RAB0024B0055E11 SLP170 P0001 T00670044 $=
202111080131 SPECI KBLI 080131Z 17012G26KT 10SM BKN022 BKN055 OVC075 07/05 A3000 RMK AO2 PK WND 18026/0122 RAB0024B0055E11 P0001 T00720050 $=
202111080053 METAR KBLI 080053Z 160/16G24KT 10SM -RA BKN020 BKN032 OVC070 07/06 A3000=
202111072353 METAR KBLI 072353Z 17013G25KT 10SM BKN022 BKN032 OVC070 08/06 A2997 RMK AO2 PK WND 17033/2341 RAB06E45 SLP158 P0002 60005 T00780056 10083 20072 53008=
202111072253 METAR KBLI 072253Z 16019G32KT 10SM BKN022 OVC028 08/05 A2995 RMK AO2 PK WND 15038/2237 RAE2156 SLP149 P0000 T00780050=
202111072228 SPECI KBLI 072228Z 17017G34KT 10SM BKN024 OVC033 08/05 A2995 RMK AO2 PK WND 18034/2220 RAE2156 P0000 T00780050=
202111072153 METAR KBLI 072153Z 16018G28KT 10SM -RA FEW020 SCT041 BKN050 08/06 A2993 RMK AO2 PK WND 15033/2105 SLP143 P0002 T00830056=
202111072053 METAR KBLI 072053Z 17020G29KT 5SM -RA BR BKN025 OVC031 07/05 A2995 RMK AO2 PK WND 15031/2030 RAB38 SLP150 P0001 60001 T00720050 57008=
202111071953 METAR KBLI 071953Z 16020G27KT 10SM BKN025 BKN080 08/04 A2995 RMK AO2 PK WND 19034/1905 RAE26 SLP151 P0000 T00780044=
202111071853 METAR KBLI 071853Z 16016G30KT 10SM -RA OVC022 07/04 A2997 RMK AO2 PK WND 16034/1836 RAB39 SLP158 P0000 T00720044=
202111071753 METAR KBLI 071753Z 16016G26KT 10SM BKN019 OVC100 08/04 A2998 RMK AO2 PK WND 15029/1656 SLP159 60001 T00780039 10078 20061 56005=
202111071653 METAR KBLI 071653Z 17012G25KT 10SM BKN016 OVC029 08/04 A2998 RMK AO2 PK WND 17031/1616 SLP159 T00780039=
202111071553 METAR KBLI 071553Z 16014G22KT 10SM OVC029 07/04 A2999 RMK AO2 SLP162 T00720039=
202111071453 METAR KBLI 071453Z 16012KT 10SM OVC020 07/04 A2999 RMK AO2 SLP164 60001 T00670039 53003=
202111071353 METAR KBLI 071353Z AUTO 16011KT 10SM BKN020 OVC028 07/04 A2998 RMK AO2 SLP161 T00670039=
202111071253 METAR KBLI 071253Z AUTO 17010G22KT 10SM BKN018 OVC025 06/04 A2999 RMK AO2 RAE31 SLP162 P0001 T00610044=
202111071153 METAR KBLI 071153Z AUTO 18013G21KT 10SM -RA FEW019 BKN024 OVC036 07/04 A2998 RMK AO2 RAB12 SLP161 P0000 60000 70012 T00670044 10072 20067 51004=
202111071107 SPECI KBLI 071107Z AUTO 17011G24KT 10SM BKN017 BKN024 OVC080 07/04 A2997 RMK AO2 T00720039=
202111071053 METAR KBLI 071053Z AUTO 18010G21KT 10SM SCT019 OVC080 07/04 A2998 RMK AO2 SLP159 T00720039=
202111070953 METAR KBLI 070953Z AUTO 17011G20KT 10SM FEW016 BKN060 OVC070 07/04 A2997 RMK AO2 PK WND 14027/0908 SLP158 T00670044=
202111070853 METAR KBLI 070853Z AUTO 17015G24KT 10SM FEW016 BKN048 OVC070 07/04 A2997 RMK AO2 PK WND 16027/0831 SLP156 T00670044 51014=
202111070753 METAR KBLI 070753Z AUTO 17013G21KT 10SM FEW018 BKN070 OVC085 07/04 A2996 RMK AO2 SLP155 T00670044 401060061=
202111070653 METAR KBLI 070653Z AUTO 17014G25KT 10SM BKN070 BKN085 BKN110 07/04 A2995 RMK AO2 PK WND 13030/0634 SLP149 T00670039=
202111070553 METAR KBLI 070553Z AUTO 17013G23KT 10SM OVC075 07/04 A2993 RMK AO2 PK WND 17028/0520 SLP142 T00720039 10089 20072 53020=
202111070529 SPECI KBLI 070529Z AUTO 16015G28KT 10SM SCT019 OVC080 07/04 A2991 RMK AO2 PK WND 17028/0520 T00720039=
202111070453 METAR KBLI 070453Z 17011G21KT 10SM BKN020 OVC025 07/04 A2991 RMK AO2 PK WND 17027/0439 SLP136 T00720039=
202111070353 METAR KBLI 070353Z 16014G26KT 10SM BKN022 07/04 A2988 RMK AO2 PK WND 14029/0332 SLP125 T00720039=
202111070253 METAR KBLI 070253Z 17017G27KT 10SM OVC024 08/03 A2987 RMK AO2 PK WND 15029/0238 SLP122 T00780033 51008=
202111070153 METAR KBLI 070153Z 16017G27KT 10SM SCT033 08/04 A2985 RMK AO2 PK WND 14031/0141 SLP117 T00830039=
202111070053 METAR KBLI 070053Z 17013G26KT 10SM SCT033 08/04 A2985 RMK AO2 PK WND 15027/0029 SLP114 T00830044=
202111062355 SPECI KBLI 062355Z 17016G30KT 10SM SCT030 SCT080 09/05 A2984 RMK AO2 T00890050=
202111062353 METAR KBLI 062353Z 16018G30KT 10SM SCT028 BKN033 09/05 A2984 RMK AO2 PK WND 15030/2351 SLP114 60011 T00890050 10094 20061 51014=
202111062253 METAR KBLI 062253Z 17018G32KT 10SM SCT028 BKN033 09/04 A2984 RMK AO2 PK WND 15032/2248 SLP111 T00890044=
202111062153 METAR KBLI 062153Z 17016G30KT 10SM FEW022 BKN028 08/06 A2983 RMK AO2 PK WND 17032/2125 SLP109 T00830056=
202111062141 SPECI KBLI 062141Z 17015G28KT 10SM BKN021 OVC027 09/06 A2983 RMK AO2 PK WND 17032/2125 T00890056=
202111062053 METAR KBLI 062053Z 18013G26KT 10SM BKN012 OVC023 08/06 A2980 RMK AO2 PK WND 16028/2025 RAE08 SLP099 P0001 60011 T00830061 58007=
202111061953 METAR KBLI 061953Z 12008KT 10SM -RA BKN018 OVC026 06/05 A2982 RMK AO2 SLP104 P0007 T00610050=
202111061925 SPECI KBLI 061925Z 15009KT 8SM -RA BKN017 OVC028 06/05 A2983 RMK AO2 P0004 T00610050=
202111061853 METAR KBLI 061853Z 13006KT 10SM -RA SCT014 OVC030 07/05 A2983 RMK AO2 SLP110 P0003 T00670050=
202111061753 METAR KBLI 061753Z 14008KT 10SM -RA OVC036 08/05 A2982 RMK AO2 RAB00 SLP107 P0001 60001 T00780050 10100 20067 58004=
202111061653 METAR KBLI 061653Z 06005KT 10SM OVC032 07/05 A2983 RMK AO2 SLP108 T00720050=
202111061553 METAR KBLI 061553Z 14006KT 10SM OVC031 08/04 A2984 RMK AO2 SLP111 T00830039=
202111061453 METAR KBLI 061453Z 15008KT 10SM OVC031 09/04 A2983 RMK AO2 SLP111 60000 T00890039 51005=
202111061353 METAR KBLI 061353Z AUTO 15010KT 10SM OVC038 09/04 A2983 RMK AO2 RAB21E38 SLP110 P0000 T00890044=
202111061253 METAR KBLI 061253Z AUTO 17009G16KT 10SM OVC046 09/04 A2983 RMK AO2 PK WND 18026/1215 SLP110 T00890039=
202111061153 METAR KBLI 061153Z AUTO 18012G25KT 10SM OVC055 10/03 A2982 RMK AO2 SLP105 70012 T01000028 10106 20061 53000=
202111061053 METAR KBLI 061053Z AUTO 15012G18KT 10SM BKN060 OVC090 11/01 A2982 RMK AO2 SLP105 T01060011=
202111060953 METAR KBLI 060953Z AUTO 16013G19KT 10SM OVC085 11/02 A2982 RMK AO2 SLP103 T01060022=
202111060853 METAR KBLI 060853Z AUTO 06004KT 10SM BKN055 OVC110 07/04 A2982 RMK AO2 SLP105 T00670039 56014=
202111060753 METAR KBLI 060753Z AUTO 00000KT 10SM BKN065 BKN110 06/04 A2983 RMK AO2 SLP109 T00610039 401220061=
202111060653 METAR KBLI 060653Z AUTO 06005KT 10SM SCT100 BKN120 06/04 A2984 RMK AO2 SLP112 T00610044=
202111060553 METAR KBLI 060553Z AUTO 01004KT 10SM OVC100 06/04 A2986 RMK AO2 SLP119 T00610044 10106 20061 56017=
202111060453 METAR KBLI 060453Z 08003KT 10SM SCT055 BKN110 07/04 A2987 RMK AO2 SLP123 T00670039=
202111060353 METAR KBLI 060353Z 09005KT 10SM SCT055 SCT085 08/04 A2988 RMK AO2 SLP127 T00830039=
202111060253 METAR KBLI 060253Z 15009KT 10SM SCT039 10/04 A2991 RMK AO2 SLP135 T01000039 58007=
202111060153 METAR KBLI 060153Z 17009KT 10SM OVC041 10/04 A2991 RMK AO2 SLP136 T01000044=
202111060053 METAR KBLI 060053Z 16007KT 10SM SCT033 BKN043 10/06 A2993 RMK AO2 SLP142 T01000056=
202111052353 METAR KBLI 052353Z 17008KT 10SM FEW040 FEW048 BKN085 11/06 A2993 RMK AO2 SLP142 T01060056 10111 20094 56006=
202111052253 METAR KBLI 052253Z 17010G16KT 10SM SCT080 11/06 A2993 RMK AO2 SLP143 T01060061=
202111052153 METAR KBLI 052153Z 18010KT 10SM FEW026 OVC036 10/06 A2994 RMK AO2 SLP147 T01000061=
202111052053 METAR KBLI 052053Z 17008KT 10SM FEW016 SCT045 OVC100 10/06 A2995 RMK AO2 SLP148 T01000056 50013=
202111051953 METAR KBLI 051953Z 19007KT 10SM FEW016 SCT045 OVC100 10/06 A2996 RMK AO2 SLP152 T01000056=
202111051853 METAR KBLI 051853Z 15008KT 10SM CLR 10/06 A2994 RMK AO2 SLP146 T01000056=
202111051753 METAR KBLI 051753Z 18007KT 10SM CLR 09/04 A2991 RMK AO2 SLP135 60012 T00940044 10122 20083 51049=
202111051653 METAR KBLI 051653Z VRB06KT 10SM FEW012 SCT055 08/06 A2987 RMK AO2 RAE26 PRESRR SLP123 P0002 T00830056=
202111051553 METAR KBLI 051553Z 22004KT 3SM -RA BR FEW021 FEW027 OVC034 08/07 A2983 RMK AO2 PK WND 14032/1502 RAB1455 SLP109 P0008 T00830072=
202111051511 SPECI KBLI 051511Z 15015G32KT 3SM -RA FEW030 OVC043 10/07 A2978 RMK AO2 PK WND 14032/1502 RAB1455 P0000 T01000072=
202111051453 METAR KBLI 051453Z 15018G33KT 10SM OVC044 11/07 A2977 RMK AO2 PK WND 15034/1405 RAB1357E53 SLP086 P0002 60002 T01060067 55021=
202111051353 METAR KBLI 051353Z 14014G28KT 10SM FEW049 BKN090 OVC110 12/05 A2975 RMK AO2 PK WND 15028/1353 RAE00B36E49 SLP082 P0000 T01170050=
202111051253 METAR KBLI 051253Z AUTO 14013G22KT 10SM -RA SCT045 BKN055 OVC080 12/05 A2979 RMK AO2 RAB42 SLP095 P0000 T01170050=
202111051153 METAR KBLI 051153Z AUTO 14010KT 10SM SCT048 11/05 A2983 RMK AO2 SLP107 70010 T01110050 10111 20094 58029=
202111051053 METAR KBLI 051053Z AUTO 11007KT 10SM FEW042 BKN050 BKN065 11/06 A2987 RMK AO2 SLP121 T01060056=
202111050953 METAR KBLI 050953Z AUTO 17015G20KT 10SM OVC041 11/06 A2990 RMK AO2 SLP130 T01110056=
202111050853 METAR KBLI 050853Z AUTO 16010G18KT 10SM SCT037 BKN044 OVC055 11/06 A2991 RMK AO2 SLP136 T01110061 58008=
202111050753 METAR KBLI 050753Z AUTO 16014G18KT 10SM SCT030 BKN041 OVC065 10/07 A2992 RMK AO2 SLP138 T01000067 401610094=
202111050739 SPECI KBLI 050739Z AUTO 17008KT 10SM FEW023 BKN042 OVC060 10/08 A2991 RMK AO2 T01000078=
202111050653 METAR KBLI 050653Z AUTO 16007KT 9SM BKN021 OVC034 09/08 A2994 RMK AO2 SLP144 T00940083=
202111050650 SPECI KBLI 050650Z AUTO 16009KT 7SM BKN021 BKN029 OVC034 09/08 A2994 RMK AO2=
202111050553 METAR KBLI 050553Z AUTO 19005KT 10SM BKN044 OVC055 10/08 A2993 RMK AO2 SLP143 60000 T01000083 10128 20100 51008=
202111050453 METAR KBLI 050453Z 17007KT 10SM OVC042 11/08 A2992 RMK AO2 SLP140 T01110078=
202111050353 METAR KBLI 050353Z VRB03KT 10SM BKN035 OVC047 12/06 A2993 RMK AO2 SLP140 T01170061=
202111050253 METAR KBLI 050253Z 18003KT 10SM BKN034 OVC060 11/08 A2991 RMK AO2 SLP135 60000 T01060078 51060=
202111050153 METAR KBLI 050153Z VRB06G28KT 10SM CLR 12/07 A2986 RMK AO2 PK WND 28028/0146 SLP119 T01220067=
202111050053 METAR KBLI 050053Z VRB04KT 10SM OVC085 12/08 A2980 RMK AO2 RAE03 SLP098 P0000 T01220078=
202111042353 METAR KBLI 042353Z VRB03KT 10SM -RA FEW055 BKN070 OVC085 12/09 A2973 RMK AO2 SLP073 P0001 60010 T01220089 10156 20122 53042=
202111042253 METAR KBLI 042253Z 20005KT 8SM -RA OVC060 13/11 A2968 RMK AO2 RAE04B51 PRESRR SLP057 P0000 T01280106=
202111042211 SPECI KBLI 042211Z 18009KT 6SM BR SCT007 BKN048 OVC065 13/12 A2964 RMK AO2 RAE04 P0000 T01280122=
202111042153 METAR KBLI 042153Z 18008KT 5SM -RA BR SCT009 BKN014 OVC024 13/13 A2963 RMK AO2 SLP040 P0007 T01280128=
202111042142 SPECI KBLI 042142Z 18011G20KT 5SM -RA BR OVC013 13/13 A2962 RMK AO2 P0005 T01330128=
202111042053 METAR KBLI 042053Z 18008G19KT 5SM -RA BR OVC016 14/12 A2961 RMK AO2 PK WND 16028/2001 RAB33 SLP032 P0001 60002 T01390122 51033=
202111041953 METAR KBLI 041953Z 16016G25KT 10SM OVC018 14/12 A2959 RMK AO2 PK WND 17033/1906 SLP025 T01440117=
202111041918 SPECI KBLI 041918Z 16015G26KT 10SM BKN024 BKN031 BKN070 15/11 A2956 RMK AO2 PK WND 17033/1906 T01500111=
202111041853 METAR KBLI 041853Z 17016G31KT 10SM SCT023 BKN080 16/11 A2954 RMK AO2 PK WND 16032/1807 RAB1756E25 SLP009 P0001 T01560111=
202111041753 METAR KBLI 041753Z 16016G24KT 10SM BKN080 OVC095 14/11 A2951 RMK AO2 PK WND 17031/1707 RAE17 SLP999 P0000 60000 T01440106 10161 20144 53002=
202111041653 METAR KBLI 041653Z 16016G28KT 10SM -RA FEW070 BKN085 OVC120 14/11 A2951 RMK AO2 PK WND 15032/1624 RAE01B35 SLP998 P0000 T01440111=
202111041553 METAR KBLI 041553Z 16016G29KT 10SM -RA OVC080 16/11 A2950 RMK AO2 PK WND 15029/1550 SLP996 P0000 T01560106=
202111041453 METAR KBLI 041453Z 15012G20KT 10SM -RA OVC090 16/11 A2950 RMK AO2 PK WND 15026/1412 RAB37 SLP997 P0000 60000 T01560106 58012=
202111041353 METAR KBLI 041353Z 16019G27KT 10SM CLR 16/11 A2952 RMK AO2 PK WND 15034/1318 SLP004 T01560106=
202111041253 METAR KBLI 041253Z AUTO 16014G25KT 10SM FEW110 16/11 A2953 RMK AO2 PK WND 17038/1203 RAB01E11 SLP006 P0000 T01560111=
202111041153 METAR KBLI 041153Z AUTO 17014G26KT 10SM SCT042 BKN060 OVC120 16/11 A2954 RMK AO2 PK WND 15029/1113 SLP009 60029 70074 T01610111 10161 20111 56019=
202111041053 METAR KBLI 041053Z AUTO 13014G24KT 10SM SCT090 SCT110 16/12 A2955 RMK AO2 PK WND 12032/1041 RAE27 SLP013 P0001 T01560117=
202111040953 METAR KBLI 040953Z AUTO 12009G17KT 10SM -RA BKN080 OVC100 13/12 A2955 RMK AO2 SLP014 P0006 T01330122=
202111040853 METAR KBLI 040853Z AUTO 04005KT 10SM -RA BKN050 OVC060 12/12 A2959 RMK AO2 SLP028 P0005 60022 T01170117 56032=
202111040753 METAR KBLI 040753Z AUTO 02005KT 8SM -RA OVC085 12/11 A2961 RMK AO2 SLP034 P0005 T01170111 401280094=
202111040653 METAR KBLI 040653Z AUTO 35003KT 5SM -RA BR FEW030 BKN039 OVC055 11/11 A2966 RMK AO2 SLP050 P0012 T01110111=
202111040553 METAR KBLI 040553Z AUTO 05008KT 7SM RA FEW045 SCT065 OVC085 12/11 A2969 RMK AO2 SLP060 P0005 60024 T01170111 10117 20106 56032=
202111040453 METAR KBLI 040453Z 05009KT 8SM -RA OVC050 12/11 A2971 RMK AO2 SLP066 P0006 T01170111=
202111040353 METAR KBLI 040353Z 04006KT 10SM -RA BKN046 OVC085 12/11 A2976 RMK AO2 SLP084 P0005 T01170106=
202111040253 METAR KBLI 040253Z 03008KT 10SM -RA FEW047 OVC100 11/11 A2978 RMK AO2 RAB07 SLP093 P0002 60008 T01110106 58044=
202111040153 METAR KBLI 040153Z 03006KT 10SM OVC050 11/11 A2983 RMK AO2 RAE32 PRESFR SLP108 P0001 T01110111=
202111040053 METAR KBLI 040053Z 00000KT 6SM RA BR BKN080 OVC100 11/11 A2988 RMK AO2 RAB2359 SLP124 P0005 T01060106=
202111032353 METAR KBLI 032353Z 02003KT 10SM FEW060 OVC085 11/11 A2991 RMK AO2 RAB07E17 SLP137 P0000 60021 T01110106 10128 20106 58018=
202111032253 METAR KBLI 032253Z 04006KT 10SM SCT065 SCT085 BKN110 11/11 A2993 RMK AO2 RAE50 SLP143 P0001 T01110106=
202111032153 METAR KBLI 032153Z 02005KT 9SM -RA OVC090 11/11 A2995 RMK AO2 SLP149 P0008 T01110106=
202111032053 METAR KBLI 032053Z 35003KT 4SM -RA BR FEW055 OVC090 11/11 A2997 RMK AO2 SLP155 P0008 60012 T01110106 58012=
202111031953 METAR KBLI 031953Z 23004KT 10SM -RA FEW065 OVC080 12/11 A3000 RMK AO2 SLP165 P0002 T01170111=
202111031853 METAR KBLI 031853Z 00000KT 6SM -RA BR OVC090 12/10 A3000 RMK AO2 RAB33 SLP166 P0002 T01220100=
202111031753 METAR KBLI 031753Z 03008KT 10SM SCT090 12/09 A3000 RMK AO2 SLP166 60000 T01220094 10122 20094 58015=
202111031653 METAR KBLI 031653Z 02006KT 10SM CLR 11/09 A3002 RMK AO2 SLP171 T01110089=
202111031553 METAR KBLI 031553Z 04007KT 10SM CLR 10/09 A3003 RMK AO2 SLP176 T01000089=
202111031453 METAR KBLI 031453Z 03008KT 10SM FEW060 09/08 A3005 RMK AO2 SLP182 60000 T00940083 58007=
202111031353 METAR KBLI 031353Z AUTO 02005KT 10SM BKN060 BKN120 10/09 A3007 RMK AO2 RAE19 SLP188 P0000 T01000089=
202111031253 METAR KBLI 031253Z AUTO 01003KT 10SM -RA SCT075 OVC110 10/09 A3007 RMK AO2 RAB05 SLP189 P0000 T01000089=
202111031153 METAR KBLI 031153Z AUTO 36004KT 10SM OVC100 10/09 A3007 RMK AO2 SLP188 60008 70047 T01000089 10106 20094 58003=
202111031053 METAR KBLI 031053Z AUTO 03008KT 10SM SCT110 09/09 A3008 RMK AO2 SLP193 T00940089=
202111030953 METAR KBLI 030953Z AUTO 03006KT 10SM OVC100 10/09 A3008 RMK AO2 RAE07 SLP194 P0000 T01000094=
202111030853 METAR KBLI 030853Z AUTO 04008KT 10SM -RA SCT060 BKN075 OVC090 10/09 A3007 RMK AO2 RAE27B45 SLP191 P0001 60008 T01000094 58003=
202111030753 METAR KBLI 030753Z AUTO 05008KT 10SM -RA BKN060 OVC085 10/10 A3009 RMK AO2 SLP196 P0003 T01000100 401170056=
202111030653 METAR KBLI 030653Z AUTO 03007KT 8SM -RA BKN055 OVC075 10/09 A3009 RMK AO2 RAB14 SLP196 P0004 T01000094=
202111030553 METAR KBLI 030553Z AUTO VRB06KT 10SM OVC080 11/09 A3008 RMK AO2 RAB02E35 SLP194 P0001 60020 T01060094 10111 20094 58001=
202111030453 METAR KBLI 030453Z 06005KT 10SM FEW042 BKN060 OVC080 10/09 A3009 RMK AO2 RAE49 SLP197 P0001 T01000094=
202111030353 METAR KBLI 030353Z 08005KT 10SM -RA OVC044 11/09 A3008 RMK AO2 SLP195 P0003 T01060089=
202111030253 METAR KBLI 030253Z 05004KT 7SM -RA OVC042 09/09 A3009 RMK AO2 SLP196 P0002 60015 T00940089 56015=
202111030153 METAR KBLI 030153Z 07005KT 5SM -RA BR OVC050 09/09 A3009 RMK AO2 SLP196 P0006 T00940089=
202111030053 METAR KBLI 030053Z 09009KT 5SM -RA BR OVC060 10/08 A3011 RMK AO2 SLP203 P0007 T01000083=
202111022353 METAR KBLI 022353Z 10007KT 5SM -RA BR OVC041 11/09 A3013 RMK AO2 SLP211 P0009 60019 T01060089 10117 20100 56012=
202111022253 METAR KBLI 022253Z 09007KT 5SM -RA BR OVC055 11/09 A3013 RMK AO2 SLP212 P0007 T01060094=
202111022153 METAR KBLI 022153Z 12010KT 10SM -RA SCT049 OVC065 11/09 A3014 RMK AO2 SLP216 P0003 T01110089=
202111022053 METAR KBLI 022053Z 00000KT 10SM R16/4000VP6000FT -RA OVC055 11/10 A3017 RMK AO2 SLP222 P0000 60000 T01110100 51002=
202111021953 METAR KBLI 021953Z 00000KT 10SM -RA OVC060 11/09 A3016 RMK AO2 RAB30 SLP220 P0000 T01060089=
202111021853 METAR KBLI 021853Z 00000KT 10SM BKN110 11/09 A3017 RMK AO2 SLP223 T01060089=
202111021753 METAR KBLI 021753Z 00000KT 10SM FEW120 10/08 A3016 RMK AO2 SLP220 T01000083 10100 20056 53007=
202111021653 METAR KBLI 021653Z 03003KT 10SM FEW047 08/07 A3015 RMK AO2 SLP217 T00830072=
202111021553 METAR KBLI 021553Z 01003KT 10SM FEW050 07/07 A3014 RMK AO2 SLP214 T00670067=
202111021453 METAR KBLI 021453Z 35003KT 10SM FEW050 06/06 A3014 RMK AO2 SLP214 T00610061 58002=
202111021353 METAR KBLI 021353Z 02003KT 10SM FEW049 07/06 A3014 RMK AO2 SLP213 T00670061=
202111021253 METAR KBLI 021253Z AUTO 03003KT 6SM BR CLR 07/07 A3015 RMK AO2 SLP218 T00670067=
202111021202 SPECI KBLI 021202Z AUTO 01004KT 6SM BR FEW002 SCT029 OVC037 07/07 A3014 RMK AO2 T00720072=
202111021153 METAR KBLI 021153Z AUTO 02004KT 6SM BR FEW002 BKN029 OVC039 07/07 A3014 RMK AO2 SLP215 70009 T00720072 10111 20072 51002=
202111021145 SPECI KBLI 021145Z AUTO 01004KT 6SM BR FEW002 BKN032 OVC041 07/07 A3015 RMK AO2 T00720072=
202111021137 SPECI KBLI 021137Z AUTO 01003KT 6SM BR BKN028 OVC039 08/08 A3015 RMK AO2 T00780078=
202111021053 METAR KBLI 021053Z AUTO 00000KT 7SM BKN043 OVC060 07/07 A3014 RMK AO2 SLP216 T00720072=
202111020953 METAR KBLI 020953Z AUTO 00000KT 7SM FEW024 SCT040 BKN048 08/07 A3014 RMK AO2 SLP214 T00780072=
202111020853 METAR KBLI 020853Z AUTO 01003KT 10SM OVC048 09/08 A3013 RMK AO2 SLP209 T00890083 53017 TSNO=
202111020753 METAR KBLI 020753Z AUTO VRB04KT 10SM FEW037 OVC050 11/09 A3011 RMK AO2 SLP202 T01060089 401170000=
202111020653 METAR KBLI 020653Z AUTO 18004KT 10SM BKN038 OVC048 11/09 A3009 RMK AO2 SLP196 T01060089=
202111020553 METAR KBLI 020553Z AUTO 16008KT 10SM FEW026 BKN042 OVC060 11/08 A3008 RMK AO2 SLP192 60002 T01060083 10106 20078 51028=
202111020523 SPECI KBLI 020523Z 17005KT 10SM SCT024 OVC036 11/08 A3007 RMK AO2 T01060083=
202111020453 METAR KBLI 020453Z VRB06KT 10SM BKN025 OVC036 09/08 A3005 RMK AO2 SLP183 T00890078=
202111020353 METAR KBLI 020353Z 00000KT 10SM OVC028 08/07 A3002 RMK AO2 SLP174 T00780072=
202111020345 SPECI KBLI 020345Z 00000KT 10SM OVC028 08/07 A3002 RMK AO2 T00780072=
202111020253 METAR KBLI 020253Z 32003KT 10SM OVC032 08/07 A2999 RMK AO2 RAE18 SLP165 P0000 60002 T00780072 53021=
202111020153 METAR KBLI 020153Z 04006KT 10SM -RA OVC034 08/07 A2996 RMK AO2 SLP154 P0001 T00780067=
202111020053 METAR KBLI 020053Z 02004KT 9SM -RA SCT038 BKN047 OVC060 09/09 A2994 RMK AO2 SLP148 P0001 T00890089=
202111012353 METAR KBLI 012353Z 00000KT 8SM -RA OVC048 09/08 A2993 RMK AO2 SLP143 P0002 60007 T00890083 10117 20072 53023=
202111012253 METAR KBLI 012253Z 00000KT 10SM -RA OVC050 09/08 A2989 RMK AO2 SLP132 P0004 T00890083=
202111012153 METAR KBLI 012153Z 00000KT 8SM -RA OVC075 09/08 A2988 RMK AO2 RAB08 SLP127 P0001 T00940078=
202111012053 METAR KBLI 012053Z 15003KT 10SM BKN100 11/06 A2986 RMK AO2 SLP120 T01110056 58009=
202111011953 METAR KBLI 011953Z 00000KT 10SM CLR 11/03 A2987 RMK AO2 SLP123 T01110028=
202111011853 METAR KBLI 011853Z 00000KT 10SM CLR 10/01 A2989 RMK AO2 SLP128 T01000006=
202111011753 METAR KBLI 011753Z 17003KT 10SM CLR 07/02 A2989 RMK AO2 SLP130 T00720017 10094 20000 57007=
202111011653 METAR KBLI 011653Z 00000KT 10SM CLR 07/01 A2990 RMK AO2 SLP132 T00720006=
202111011553 METAR KBLI 011553Z 05003KT 10SM CLR 02/00 A2990 RMK AO2 SLP134 T00220000=
202111011453 METAR KBLI 011453Z 00000KT 10SM CLR 01/M01 A2991 RMK AO2 SLP137 T00111006 56005=
202111011353 METAR KBLI 011353Z 11004KT 10SM CLR 02/M01 A2991 RMK AO2 SLP139 T00221011=
202111011253 METAR KBLI 011253Z AUTO 00000KT 10SM CLR 01/M01 A2991 RMK AO2 SLP139 T00111006=
202111011153 METAR KBLI 011153Z AUTO 00000KT 10SM CLR 04/M01 A2993 RMK AO2 SLP142 T00391011 10050 20017 58017=
202111011053 METAR KBLI 011053Z AUTO 16003KT 10SM CLR 02/M01 A2995 RMK AO2 SLP151 T00221006=
202111010953 METAR KBLI 010953Z AUTO 01003KT 10SM CLR 03/M01 A2997 RMK AO2 SLP155 T00331006=
202111010853 METAR KBLI 010853Z AUTO 00000KT 10SM CLR 03/00 A2998 RMK AO2 SLP159 T00280000 58002=
202111010753 METAR KBLI 010753Z AUTO 03003KT 10SM CLR 02/01 A2999 RMK AO2 SLP162 T00220006 401440022=
202111010653 METAR KBLI 010653Z AUTO 08003KT 10SM CLR 03/01 A2999 RMK AO2 SLP162 T00280006=
202111010553 METAR KBLI 010553Z AUTO 00000KT 10SM CLR 03/01 A2998 RMK AO2 SLP161 T00330006 10128 20028 53001=
202111010453 METAR KBLI 010453Z 00000KT 10SM CLR 04/00 A2998 RMK AO2 SLP159 T00440000=
202111010353 METAR KBLI 010353Z 00000KT 10SM CLR 05/01 A2998 RMK AO2 SLP160 T00500006=
202111010253 METAR KBLI 010253Z 00000KT 10SM CLR 06/00 A2998 RMK AO2 SLP160 T00560000 55002=
202111010153 METAR KBLI 010153Z 04004KT 10SM CLR 08/M01 A2997 RMK AO2 SLP158 T00831011=
202111010053 METAR KBLI 010053Z 02007KT 10SM CLR 10/M01 A2998 RMK AO2 SLP159 T01001006=

# No short TAF reports from KBLI in databse.

###################################
#  large TAF from KBLI
###################################
202111302340 TAF KBLI 302340Z 0100/0124 16015G24KT P6SM -RA BKN019 OVC023 FM010600
                       15014G22KT 6SM -RA BR OVC016 FM011500 16012G20KT
                       P6SM VCSH OVC020 FM012100 16012G20KT P6SM
                       -SHRA BKN020 OVC050=
202111302104 KBLI 302104Z 3021/0118 17015G29KT 3SM RA BR BKN019 BKN025 OVC050
                       FM010300 15014G22KT 6SM -RA BR OVC016=
202111301720 TAF KBLI 301720Z 3018/0118 17014G20KT 2SM -RA BR FEW009 BKN018
                       OVC050
                      TEMPO 3018/3020 1SM RA BKN009 FM302100 18008G15KT
                       5SM -RA BR OVC014 FM010300 15014G22KT 6SM
                       -RA BR OVC016=
202111301601 KBLI 301601Z 3016/0112 16009G18KT 4SM -RA BR SCT009 OVC040
                      TEMPO 3016/3020 1SM RA BKN009 FM302100 18008G15KT
                       5SM -RA BR OVC014 FM010300 15014G22KT 6SM
                       -RA BR OVC016=
202111301120 TAF KBLI 301120Z 3012/0112 18008KT P6SM -RA SCT008 OVC025
                      TEMPO 3012/3016 5SM RA BR BKN008 OVC018 FM301600
                       16009KT 6SM RA BR OVC013 FM302100 18008G15KT
                       5SM -RA BR OVC014 FM010300 15014G22KT 6SM
                       -RA BR OVC016=
202111300520 TAF KBLI 300520Z 3006/0106 18010G20KT P6SM BKN020 FM300900 18006KT
                       P6SM VCSH OVC050 FM301200 18004KT P6SM -RA
                       OVC025 FM302100 18008G15KT 5SM -RA BR OVC015=
202111292325 TAF KBLI 292325Z 3000/3024 16005KT P6SM BKN080 FM300900 18006KT
                       P6SM VCSH OVC050 FM301200 18004KT P6SM -RA
                       OVC025 FM302100 18008G15KT 5SM -RA BR OVC015=
202111292106 KBLI 292106Z 2921/3018 19008KT P6SM SCT014 OVC040 FM300000 17006KT
                       P6SM OVC050 FM300900 18003KT P6SM -RA OVC050=
202111291720 TAF KBLI 291720Z 2918/3018 18006KT P6SM FEW020 BKN030 OVC100 FM300000
                       17006KT P6SM OVC050 FM300900 18003KT P6SM
                       -RA OVC050=
202111291132 TAF KBLI 291132Z 2912/3012 19008KT P6SM -SHRA SCT005 OVC012 FM291700
                       16008KT P6SM BKN025 OVC060 FM300000 17006KT
                       P6SM OVC050 FM300900 18003KT P6SM -RA OVC050=
202111290540 TAF KBLI 290540Z 2906/3006 19008KT P6SM VCSH SCT015 OVC060 FM292000
                       16008KT P6SM BKN025 OVC060 FM300000 17006KT
                       P6SM OVC050=
202111282322 TAF KBLI 282322Z 2900/2924 17008KT 4SM -RA BR BKN015 OVC040 FM290300
                       17005KT P6SM SCT020 BKN050 FM290600 VRB03KT
                       P6SM BKN015 OVC060 FM292000 16008KT P6SM
                       BKN025 OVC060=
202111281912 KBLI 281912Z 2819/2918 17010G15KT 5SM RA BR SCT010 OVC060
                      TEMPO 2819/2822 2SM RA BR OVC010 FM282200
                       18005KT 6SM -RA BR SCT015 OVC060 FM290000
                       17003KT P6SM SCT020 BKN070 OVC150 FM290500
                       VRB03KT P6SM BKN015 OVC070=
202111281721 TAF KBLI 281721Z 2818/2918 20006G18KT 3SM -RA BR SCT006 OVC025
                       TEMPO 2818/2822 1SM RA BR BKN003 OVC015
                       FM282200 18005KT 6SM -RA BR OVC015 FM290000
                       17003KT 6SM BR OVC025=
202111281605 KBLI 281605Z 2816/2912 19010G20KT 3SM -RA BR SCT003 OVC025
                      TEMPO 2816/2820 1SM RA BR BKN003 OVC015 FM282100
                       21006KT 4SM -RA BR OVC015 FM290400 18004KT
                       6SM BR OVC025=
202111281126 TAF KBLI 281126Z 2812/2912 19010G20KT 3SM RA BR BKN025 FM281600
                       19012KT 5SM -RA BR OVC015 FM282100 21006KT
                       P6SM OVC015 FM290400 18004KT 6SM BR OVC025=
202111280903 KBLI 280903Z 2809/2906 18017G32KT P6SM VCSH OVC015 FM281200 19015G25KT
                       4SM RA BR OVC012 FM281600 19012KT 5SM -RA
                       BR OVC015 FM282100 21006KT P6SM OVC015=
202111280520 TAF KBLI 280520Z 2806/2906 18017G32KT 5SM -RA BR BKN015 OVC030
                       TEMPO 2806/2810 2SM -RA BR OVC010 FM281000
                       19015G25KT 4SM RA BR OVC012 FM281600 19012KT
                       5SM -RA BR OVC015 FM282100 21006KT P6SM
                       OVC015=
202111280230 KBLI 280230Z 2803/2824 16012G20KT 5SM -RA BR OVC015 FM281800 17008KT
                       P6SM -RA OVC015=
202111272320 TAF KBLI 272320Z 2800/2824 03007KT 5SM -RA BR OVC025 FM280400 16012G20KT
                       5SM -RA BR OVC015 FM281800 17008KT P6SM
                       -RA OVC015=
202111271724 TAF KBLI 271724Z 2718/2818 01004KT P6SM -RA BKN030 OVC070 FM272100
                       12010KT 4SM -RA BR OVC020 FM280400 16015G25KT
                       5SM -RA BR OVC015=
202111271136 TAF KBLI 271136Z 2712/2812 00000KT 6SM -DZ BR SCT006 OVC025 FM271400
                       16008KT P6SM -RA OVC025 FM272000 16012G22KT
                       5SM -RA BR OVC020 FM280400 16015G25KT 5SM
                       -RA BR BKN015 BKN040 OVC100=
202111270630 KBLI 270630Z 2707/2806 00000KT 5SM -DZ BR SCT006 OVC025
                      TEMPO 2707/2710 3SM -DZ BR BKN006 OVC025
                       FM271400 16008KT P6SM -RA OVC025 FM272000
                       16012G22KT 5SM -RA BR OVC020 FM280400 16015G25KT
                       P6SM VCSH BKN015 BKN040 OVC100=
202111270520 TAF KBLI 270520Z 2706/2806 00000KT P6SM SCT030 OVC100 FM271400
                       16008KT P6SM -RA OVC025 FM272000 16012G22KT
                       5SM -RA BR OVC020 FM280400 16015G25KT P6SM
                       VCSH BKN015 BKN040 OVC100=
202111262320 TAF KBLI 262320Z 2700/2724 VRB04KT P6SM SCT025 BKN050 FM271400
                       12005KT P6SM -RA OVC025 FM271700 14007KT
                       4SM -RA BR OVC015=
202111261726 TAF KBLI 261726Z 2618/2718 19007KT P6SM OVC008 FM262000 20007KT
                       P6SM SCT010 OVC025 FM262300 VRB04KT P6SM
                       SCT025 BKN050 FM271400 12005KT P6SM -RA
                       OVC025=
202111261134 TAF KBLI 261134Z 2612/2712 20012G20KT 6SM -SHRA OVC025 FM261400
                       19007KT P6SM -SHRA BKN025 BKN050 FM261800
                       18007KT P6SM BKN025 FM262200 21005KT P6SM
                       SCT025 BKN050=
202111260532 TAF KBLI 260532Z 2606/2706 17010KT 6SM -SHRA BKN020 OVC040 FM261000
                       18010KT P6SM BKN025 BKN050 FM261800 18006KT
                       P6SM SCT025 BKN050=
202111252320 TAF KBLI 252320Z 2600/2624 17015G25KT 5SM -RA BR SCT020 OVC040
                       TEMPO 2600/2603 3SM RA BR BKN020 OVC040
                       FM260300 21008KT P6SM -SHRA BKN020 BKN040
                       FM261000 18006KT P6SM BKN025 BKN050 FM261800
                       18006KT P6SM SCT025 BKN050=
202111251720 TAF KBLI 251720Z 2518/2618 15017G27KT P6SM -RA OVC035
                      TEMPO 2520/2524 5SM -RA BR OVC025 FM260000
                       18012G22KT 5SM RA BR OVC022 FM260300 21008KT
                       P6SM -SHRA BKN020 BKN040 FM261000 18006KT
                       P6SM BKN025 BKN050 FM261700 18006KT P6SM
                       SCT025 BKN050=
202111251616 KBLI 251616Z 2516/2612 15015G25KT P6SM -RA OVC040 FM252000 15015G25KT
                       5SM -RA BR OVC035 FM260600 18012G18KT P6SM
                       -SHRA BKN025 OVC050=
202111251131 TAF KBLI 251131Z 2512/2612 14010G22KT P6SM -RA FEW020 SCT030 OVC045
                       FM251500 13012G20KT 5SM -RA BR OVC025 FM252000
                       16014G21KT 5SM -RA BR OVC035 FM260600 16012G18KT
                       6SM -RA OVC015=
202111250520 TAF KBLI 250520Z 2506/2606 19009KT P6SM -RA OVC050 FM251000 12010KT
                       P6SM -RA SCT025 OVC050 FM251500 13012G20KT
                       5SM -RA BR OVC025=
202111242321 TAF KBLI 242321Z 2500/2524 16008KT P6SM OVC120 FM250600 11006KT
                       P6SM OVC070 FM251000 12010KT P6SM -RA SCT025
                       OVC050 FM251500 13012KT 5SM -RA BR OVC025=
202111241721 TAF KBLI 241721Z 2418/2518 18005KT P6SM FEW050 BKN200 FM242100
                       16008KT P6SM BKN120 OVC200 FM250600 11006KT
                       P6SM OVC070 FM251000 12010KT P6SM -RA SCT020
                       OVC050 FM251500 13012KT 5SM -RA BR OVC020=
202111241123 TAF KBLI 241123Z 2412/2512 16003KT P6SM OVC035 FM241900 17007KT
                       P6SM OVC050 FM250600 15007KT P6SM -RA SCT025
                       OVC050=
202111240520 TAF KBLI 240520Z 2406/2506 00000KT P6SM VCSH FEW014 BKN035 OVC050
                       FM240900 16003KT P6SM OVC025 FM241900 17007KT
                       P6SM OVC050 FM250400 15007KT P6SM VCSH SCT025
                       BKN050=
202111232335 TAF KBLI 232335Z 2400/2424 20007KT P6SM SCT040 BKN050 FM241000
                       16003KT P6SM OVC025 FM241900 17007KT P6SM
                       OVC050=
202111231743 TAF KBLI 231743Z 2318/2418 25011KT P6SM VCSH BKN025 FM232100 21010KT
                       P6SM OVC050 FM241000 16003KT P6SM OVC025=
202111231120 TAF KBLI 231120Z 2312/2412 16006KT P6SM -RA OVC015 FM231300 17008KT
                       P6SM OVC025 FM232100 21010KT P6SM OVC050=
202111230520 TAF KBLI 230520Z 2306/2406 17011KT P6SM OVC015 FM230900 16006KT
                       P6SM -RA OVC015 FM231400 17008KT P6SM OVC020
                       FM232100 21010KT P6SM OVC050=
202111222323 TAF KBLI 222323Z 2300/2324 16012G20KT P6SM -RA OVC035 FM230100
                       16010KT P6SM -RA BKN015 OVC025 FM230900
                       16006KT P6SM -RA OVC025 FM232100 22007KT
                       P6SM BKN050=
202111222238 KBLI 222238Z 2223/2318 16012G20KT P6SM -RA OVC035 FM230100 16010KT
                       P6SM -RA BKN015 OVC025 FM230900 16006KT
                       P6SM -RA OVC025=
202111221729 TAF KBLI 221729Z 2218/2318 18010KT P6SM OVC090 FM222100 14008KT
                       P6SM -RA OVC035 FM230100 16010KT P6SM -RA
                       BKN015 OVC025 FM230900 16006KT P6SM -RA
                       OVC025=
202111221120 TAF KBLI 221120Z 2212/2312 00000KT 6SM BR FEW002 FM221400 14006KT
                       P6SM OVC120 FM222100 14008KT P6SM -RA OVC035
                       FM230100 16010KT P6SM -RA BKN015 OVC025=
202111221014 KBLI 221014Z 2210/2306 00000KT 6SM BR FEW002 FM221400 14006KT P6SM
                       OVC120 FM222100 14008KT P6SM -RA OVC035
                       FM230100 16010KT P6SM -RA BKN015 OVC025=
202111220811 KBLI 220811Z 2208/2306 00000KT 1/2SM FG VV001 FM221400 14006KT
                       P6SM OVC120 FM222100 14008KT P6SM -RA OVC035
                       FM230100 16010KT P6SM -RA BKN015 OVC025=
202111220522 TAF KBLI 220522Z 2206/2306 00000KT P6SM BKN200 FM220900 00000KT
                       5SM BR SCT001
                      TEMPO 2210/2214 1SM BR FM221400 14006KT P6SM
                       OVC120 FM222100 14008KT P6SM -RA OVC035
                       FM230100 16010KT P6SM -RA BKN015 OVC025=
202111212338 TAF KBLI 212338Z 2200/2224 VRB03KT P6SM BKN120 OVC200 FM221400
                       16005KT P6SM BKN090 OVC120 FM222100 14008KT
                       P6SM -RA OVC035=
202111211738 TAF KBLI 211738Z 2118/2218 VRB03KT P6SM SCT120 OVC200 FM221400
                       16005KT P6SM BKN090 OVC120=
202111211535 KBLI 211535Z 2116/2212 VRB03KT P6SM SCT002 BKN120 OVC200
                      TEMPO 2116/2118 2SM BR BKN001 FM211800 33003KT
                       P6SM SCT120 OVC200=
202111211446 KBLI 211446Z 2115/2212 VRB03KT P6SM BKN040 BKN120 OVC200
                      TEMPO 2115/2117 4SM BR FM211800 33003KT P6SM
                       SCT050 OVC200=
202111211120 TAF KBLI 211120Z 2112/2212 VRB03KT P6SM BKN040 BKN120 OVC200 FM211800
                       33003KT P6SM SCT050 OVC200=
202111210520 TAF KBLI 210520Z 2106/2206 00000KT P6SM SCT120 BKN200 FM211200
                       VRB03KT P6SM BKN040 BKN120 OVC200 FM211800
                       33003KT P6SM SCT050 OVC200=
202111210305 KBLI 210305Z 2103/2124 00000KT P6SM SCT120 BKN200 FM210900 VRB03KT
                       P6SM BKN040 BKN120 OVC200 FM211800 33003KT
                       P6SM SCT050 OVC200=
202111202320 TAF KBLI 202320Z 2100/2124 17005KT P6SM SCT030 SCT120 BKN200
                      TEMPO 2100/2104 BKN027 FM210900 VRB03KT P6SM
                       BKN040 BKN120 OVC200 FM211800 33003KT P6SM
                       SCT050 OVC200=
202111201722 TAF KBLI 201722Z 2018/2118 17004KT P6SM VCSH BKN022 OVC035 FM202100
                       17004KT P6SM BKN035 BKN200 FM202300 VRB03KT
                       P6SM SCT050 SCT120 BKN200 FM210900 VRB03KT
                       P6SM BKN060 OVC200=
202111201120 TAF KBLI 201120Z 2012/2112 17004KT P6SM VCSH BKN026 OVC035
                      TEMPO 2012/2014 -SHRA FM202000 17004KT P6SM
                       SCT040 FM202100 VRB03KT P6SM SCT120=
202111200520 TAF KBLI 200520Z 2006/2106 15007KT P6SM OVC045 FM201200 00000KT
                       P6SM SCT020 BKN040 FM202000 VRB04KT P6SM
                       SCT040=
202111192323 KBLI 192323Z 1923/2024 VRB04KT P6SM BKN020 BKN040
                      TEMPO 2000/2004 SCT025 FM200400 17004KT P6SM
                       BKN020 OVC030 FM200900 18003KT P6SM OVC022
                       FM202000 17004KT P6SM BKN035=
202111192322 TAF KBLI 192322Z 2000/2024 VRB04KT P6SM BKN020 BKN040 FM200300
                       17004KT P6SM BKN020 OVC030 FM200900 18003KT
                       P6SM OVC022 FM202000 17004KT P6SM BKN035=
202111191729 TAF KBLI 191729Z 1918/2018 32006KT P6SM SCT022 BKN035 FM192000
                       VRB04KT P6SM SCT025 BKN040 FM200200 17005KT
                       P6SM BKN040 FM200900 18003KT P6SM OVC030=
202111191329 KBLI 191329Z 1913/2012 32005KT P6SM SCT025 SCT040 OVC050 FM191500
                       33012KT P6SM SCT025 OVC050 FM192000 VRB04KT
                       P6SM SCT025 BKN050 FM200200 18003KT P6SM
                       OVC050 FM200700 18003KT P6SM OVC020=
202111191121 TAF KBLI 191121Z 1912/2012 32005KT P6SM OVC023 FM191500 33012KT
                       P6SM BKN025 OVC050 FM192000 VRB04KT P6SM
                       SCT025 BKN050 FM200200 18003KT P6SM OVC050
                       FM200700 18003KT P6SM OVC020=
202111190805 KBLI 190805Z 1908/2006 32011KT P6SM -RA OVC035 FM191500 33012KT
                       P6SM VCSH BKN020 OVC050 FM192000 33008KT
                       P6SM SCT025 BKN050=
202111190520 TAF KBLI 190520Z 1906/2006 03008KT P6SM BKN025 OVC035 FM190800
                       02012G22KT 5SM -RA BKN008 OVC015 FM191500
                       33012KT P6SM VCSH BKN020 OVC050 FM192000
                       33008KT P6SM SCT025 BKN050=
202111182320 TAF KBLI 182320Z 1900/1924 03010KT 6SM -RA BR OVC035
                      TEMPO 1900/1904 5SM RA BR OVC025 FM190400
                       02012G20KT 4SM RA BR OVC015 FM190800 02012G22KT
                       5SM -RA BKN008 OVC015 FM191500 33012KT P6SM
                       VCSH BKN020 OVC050 FM192000 33008KT P6SM
                       SCT025 BKN050=
202111182017 KBLI 182017Z 1820/1918 02012KT P6SM -RA OVC035 FM182300 02010KT
                       4SM -RA BR OVC025 FM190600 36004KT 2SM -RA
                       OVC015 FM191200 32010KT P6SM VCSH SCT020
                       BKN050=
202111181722 TAF KBLI 181722Z 1818/1918 03012G20KT P6SM OVC110 FM182100 03012G20KT
                       P6SM OVC050 FM182300 02010KT 4SM -RA BR
                       OVC025 FM190600 36004KT 2SM -RA OVC015 FM191200
                       32010KT P6SM VCSH SCT020 BKN050=
202111181120 TAF KBLI 181120Z 1812/1912 36003KT P6SM OVC110 FM182100 35006KT
                       P6SM OVC050 FM182300 36005KT 4SM -RA BR
                       OVC025 FM190600 36004KT 2SM -RA OVC015=
202111180520 TAF KBLI 180520Z 1806/1906 36003KT P6SM BKN200 FM181200 00000KT
                       P6SM OVC060 FM182100 05006KT P6SM VCSH OVC030
                       FM182230 36003KT 4SM -RA BR OVC015=
202111172320 TAF KBLI 172320Z 1800/1824 00000KT 6SM BCFG FEW001 FM180400 00000KT
                       P6SM BKN250 FM181200 00000KT P6SM OVC060
                       FM182100 05006KT P6SM VCSH OVC030=
202111171727 TAF KBLI 171727Z 1718/1818 00000KT 6SM BCFG FEW001 FM180400 00000KT
                       P6SM BKN250=
202111171438 KBLI 171438Z 1715/1812 00000KT 6SM BR SCT250
                      TEMPO 1715/1716 2SM BR SCT002 FM171800 01006KT
                       P6SM BKN250 FM180400 00000KT P6SM BKN250=
202111171135 TAF KBLI 171135Z 1712/1812 00000KT 6SM BR SCT250
                      TEMPO 1712/1715 2SM BR SCT002 FM171800 01006KT
                       P6SM BKN250 FM180400 00000KT P6SM BKN250=
202111170520 TAF KBLI 170520Z 1706/1806 VRB03KT P6SM SKC FM171800 01005KT P6SM
                       BKN250=
202111162334 TAF KBLI 162334Z 1700/1724 29006KT P6SM SCT050 FM170400 VRB03KT
                       P6SM SKC=
202111161724 TAF KBLI 161724Z 1618/1718 18007KT P6SM VCSH SCT040 BKN100 FM162000
                       33008KT P6SM SCT050 FM170400 VRB03KT P6SM
                       SKC=
202111161131 TAF KBLI 161131Z 1612/1712 18007KT P6SM VCSH SCT040 BKN100 FM162000
                       33008KT P6SM SCT050 FM170400 VRB03KT P6SM
                       SKC=
202111160520 TAF KBLI 160520Z 1606/1706 27011KT P6SM VCSH SCT015 BKN025 FM160800
                       20008KT P6SM VCSH BKN035 FM161200 16009KT
                       P6SM VCSH SCT035 BKN050 FM161900 33012KT
                       P6SM SCT050 SCT250=
202111160057 KBLI 160057Z 1601/1624 30010G18KT P6SM VCSH SCT015 BKN030 FM160500
                       27011KT P6SM -SHRA SCT015 BKN025 FM160800
                       20010KT P6SM -SHRA BKN035 FM161900 33010KT
                       P6SM VCSH BKN050=
202111160056 KBLI 160056Z 1601/1624 24010G18KT P6SM VCSH SCT015 BKN030 FM160300
                       22011KT P6SM -SHRA SCT015 BKN025 FM160800
                       19010KT P6SM -SHRA BKN035 FM161900 33010KT
                       P6SM VCSH BKN050=
202111152337 TAF KBLI 152337Z 1600/1624 24012G22KT P6SM VCSH SCT015 BKN030 FM160300
                       22015G25KT P6SM -SHRA SCT015 BKN025 FM160800
                       19014G20KT P6SM -SHRA BKN035 FM161900 33010KT
                       P6SM VCSH BKN050=
202111152038 KBLI 152038Z 1521/1618 30017G27KT 2SM -RA BR SCT007 OVC020 FM160300
                       22017G27KT P6SM -SHRA SCT015 BKN035 FM160600
                       19015G23KT P6SM VCSH BKN040=
202111151730 TAF KBLI 151730Z 1518/1618 18025G35KT 2SM RA BR SCT012 OVC026 FM152200
                       19023G35KT 5SM -RA BR SCT007 OVC025 FM160300
                       18017G27KT P6SM -SHRA SCT015 BKN035 FM160600
                       19015G23KT P6SM VCSH BKN040=
202111151120 TAF KBLI 151120Z 1512/1612 21010G25KT 5SM RA BR OVC015 FM151600
                       18020G30KT 2SM -RA BR SCT007 OVC015 FM152100
                       19020G35KT 3SM -RA BR SCT007 OVC015 FM160200
                       18016G25KT P6SM SCT015 OVC025 FM160600 19015G23KT
                       P6SM BKN050=
202111150520 TAF KBLI 150520Z 1506/1606 17011KT 2SM -RA BR SCT005 OVC010 FM150900
                       17010G20KT 2SM -RA BR OVC005 FM151600 18020G30KT
                       3SM -RA BR SCT007 OVC015 FM160200 18016G25KT
                       P6SM SCT015 OVC025=
202111142332 TAF KBLI 142332Z 1500/1524 18012G20KT 3/4SM -RA BR OVC005 FM150200
                       17011KT 1SM -RA BR OVC010 FM150900 17010G20KT
                       2SM -RA BR OVC015 FM151600 18020G30KT 3SM
                       -RA BR OVC017=
202111141910 KBLI 141910Z 1419/1518 18012G20KT 3SM -RA BR SCT005 OVC015
                      TEMPO 1419/1423 1SM -RA BR OVC003 FM150200
                       17011KT 4SM -RA BR OVC015 FM150900 17010G20KT
                       4SM -RA BR OVC015 FM151600 18020G30KT 4SM
                       -RA BR OVC017=
202111141740 TAF KBLI 141740Z 1418/1518 18014G24KT 2SM -RA BR OVC015 FM150200
                       17011KT 4SM -RA BR OVC015 FM150900 17010G20KT
                       4SM -RA BR OVC015 FM151600 18020G30KT 4SM
                       -RA BR OVC017=
202111141121 TAF KBLI 141121Z 1412/1512 16009G17KT 6SM -RA OVC020 FM141700 20010KT
                       2SM -RA BR OVC015 FM150200 17007KT 4SM -RA
                       BR OVC015 FM150900 17010G20KT 4SM -RA BR
                       OVC015=
202111140520 TAF KBLI 140520Z 1406/1506 06007KT 4SM RA BR SCT020 OVC030 FM140700
                       12012G22KT 3SM RA BR OVC015 FM141000 16017G26KT
                       5SM RA BR OVC012 FM141700 20010KT 2SM -RA
                       BR OVC015 FM150200 17007KT 4SM -RA BR OVC015=
202111132320 TAF KBLI 132320Z 1400/1424 VRB04KT 3SM -RA BR BKN015 OVC035 FM140100
                       12011KT 6SM RA OVC020 FM140500 12012G22KT
                       6SM RA BR OVC015 FM141400 16015G25KT 5SM
                       RA BR OVC012 FM141700 18010KT 4SM -RA BR
                       OVC015=
202111132241 KBLI 132241Z 1323/1418 VRB04KT 3SM -RA BR BKN015 OVC040 FM140100
                       12011KT 6SM RA OVC020 FM140500 12012G22KT
                       6SM RA BR OVC015 FM141400 16015G25KT 5SM
                       RA BR OVC012=
202111131739 TAF KBLI 131739Z 1318/1418 13005KT P6SM BKN060 OVC100 FM132200
                       15005KT P6SM -RA OVC040 FM140100 12011KT
                       6SM RA OVC020 FM140500 12012G22KT 6SM RA
                       BR OVC015 FM141400 16015G25KT 5SM RA BR
                       OVC012=
202111131120 TAF KBLI 131120Z 1312/1412 16004KT P6SM SKC FM131600 13002KT P6SM
                       BKN060 OVC100 FM132200 15005KT P6SM -RA
                       OVC040 FM140100 12011KT P6SM -RA OVC020
                       FM140500 12012G22KT 6SM -RA OVC015=
202111130520 TAF KBLI 130520Z 1306/1406 19005KT P6SM OVC040 FM131200 16004KT
                       P6SM BKN060 OVC100 FM132200 15005KT P6SM
                       -RA OVC040 FM140100 12011KT P6SM -RA OVC020=
202111122320 TAF KBLI 122320Z 1300/1324 19005KT P6SM VCSH OVC040 FM131200 16004KT
                       P6SM BKN060 OVC100 FM132200 15005KT P6SM
                       -RA OVC040=
202111121725 TAF KBLI 121725Z 1218/1318 17006KT P6SM VCSH SCT020 OVC050 FM130000
                       19005KT P6SM VCSH OVC050 FM131200 14004KT
                       P6SM BKN060 OVC100=
202111121120 TAF KBLI 121120Z 1212/1312 17011KT 5SM -RA BKN015 OVC040 FM121400
                       17011KT 5SM -RA BR OVC015 FM121800 17006KT
                       P6SM VCSH BKN020 OVC050 FM130000 19005KT
                       P6SM VCSH OVC050=
202111120520 TAF KBLI 120520Z 1206/1306 VRB06KT P6SM -RA FEW005 OVC018 FM120900
                       16008KT 5SM -RA BR OVC015 FM121800 17006KT
                       P6SM VCSH BKN020 OVC050=
202111112336 TAF KBLI 112336Z 1200/1224 03005KT 5SM -RA BR OVC020 FM120200 12012KT
                       4SM -RA BR OVC015 FM120700 16010G20KT 5SM
                       -RA BR OVC015 FM121400 17006KT 6SM -RA BR
                       OVC015=
202111111736 TAF KBLI 111736Z 1118/1218 03007KT P6SM -RA OVC019 FM112200 06010KT
                       2SM -RA OVC019 FM120200 12012KT 4SM -RA
                       BR OVC015 FM120700 16010KT 5SM -RA BR OVC015
                       FM121400 17005KT 6SM -RA BR OVC015=
202111111120 TAF KBLI 111120Z 1112/1212 05007KT P6SM OVC030 FM111400 04005KT
                       P6SM -RA OVC040 FM112200 12012G20KT P6SM
                       -RA OVC025 FM120200 15010G18KT 4SM -RA BR
                       OVC015 FM120700 16010KT 6SM -RA BR OVC015=
202111110520 TAF KBLI 110520Z 1106/1206 05005KT P6SM BKN050 OVC090 FM110700
                       05007KT P6SM -RA OVC050 FM111400 07012KT
                       P6SM -RA OVC040 FM112200 12012KT P6SM -RA
                       OVC025 FM120200 15010KT 4SM -RA BR OVC015=
202111102322 TAF KBLI 102322Z 1100/1124 18006KT P6SM SCT120 BKN200 FM110500
                       05005KT P6SM BKN050 OVC080 FM110700 05007KT
                       P6SM -RA OVC050 FM111400 07012KT P6SM -RA
                       OVC040 FM112200 12012KT P6SM -RA OVC025=
202111101720 TAF KBLI 101720Z 1018/1118 18010KT P6SM BKN040 FM102200 03006KT
                       P6SM SCT050 BKN150 FM110600 03007KT P6SM
                       -RA OVC050=
202111101134 TAF KBLI 101134Z 1012/1112 18010KT P6SM VCSH OVC035 FM101700 18010KT
                       P6SM BKN040 FM102200 03006KT P6SM SCT050
                       BKN150 FM110900 03007KT P6SM -RA OVC050=
202111100520 TAF KBLI 100520Z 1006/1106 18012G18KT P6SM -SHRA BKN040 OVC060
                       FM101000 18010KT P6SM VCSH OVC035 FM101700
                       18010KT P6SM BKN040 FM102200 03006KT P6SM
                       SCT050 BKN150=
202111092321 TAF KBLI 092321Z 1000/1024 19017G27KT P6SM SCT035 BKN050
                      TEMPO 1000/1003 4SM SHRA OVC035 FM100300
                       22012G22KT P6SM -SHRA BKN030 FM100900 18012KT
                       P6SM VCSH OVC030 FM101800 18010KT P6SM BKN040=
202111091737 TAF KBLI 091737Z 0918/1018 23008G20KT P6SM -SHRA SCT030 OVC050
                       FM092100 18020G31KT P6SM -RA OVC050 FM100300
                       17014G24KT P6SM -SHRA SCT028 OVC040 FM100900
                       18011KT P6SM VCSH OVC040 FM101300 19002KT
                       P6SM OVC025=
202111091140 TAF KBLI 091140Z 0912/1012 15012G22KT P6SM -RA OVC040 FM091500
                       16016G28KT P6SM -SHRA OVC035 FM092100 18020G31KT
                       P6SM -RA OVC050 FM100300 17014G24KT P6SM
                       -SHRA SCT028 OVC040 FM100900 18011KT P6SM
                       VCSH OVC040=
202111090523 TAF KBLI 090523Z 0906/1006 04008KT P6SM OVC150 FM091000 07010KT
                       P6SM -RA OVC050 FM091400 16015G25KT P6SM
                       -SHRA SCT025 BKN035 OVC050 FM100400 18010KT
                       P6SM SCT025 BKN040 OVC060=
202111090359 KBLI 090359Z 0904/0924 03008KT P6SM OVC150 FM090900 07010KT 6SM
                       -RA BKN060 OVC100 FM091200 14015G24KT P6SM
                       -SHRA BKN030 OVC050=
202111082321 TAF KBLI 082321Z 0900/0924 07014G20KT P6SM OVC200 FM090800 09015G25KT
                       6SM -RA BKN060 OVC100 FM091200 14015G24KT
                       P6SM -SHRA BKN030 OVC050=
202111081737 TAF KBLI 081737Z 0818/0918 13010G15KT P6SM SCT100 SCT250 FM082000
                       09012G18KT P6SM SCT100 SCT250 FM082300 07014G20KT
                       P6SM OVC200 FM090800 09015G25KT 6SM -RA
                       BKN060 OVC100 FM091200 14015G24KT P6SM -SHRA
                       BKN035 OVC100=
202111081133 TAF KBLI 081133Z 0812/0912 16010G15KT P6SM VCSH BKN070 OVC100 FM082000
                       09012G18KT P6SM SCT100 SCT250 FM082300 07014G20KT
                       P6SM OVC200 FM090800 09015G25KT P6SM -RA
                       BKN060 OVC080=
202111080903 KBLI 080903Z 0809/0906 18008G15KT P6SM VCSH SCT020 OVC070 FM081800
                       09009KT P6SM BKN060 OVC120 FM082200 06010G18KT
                       P6SM OVC200=
202111080520 TAF KBLI 080520Z 0806/0906 17010KT P6SM VCSH SCT017 BKN070 OVC110
                       TEMPO 0806/0810 -SHRA BKN017 FM081000 15009KT
                       P6SM VCSH BKN040 FM081800 09009KT P6SM BKN060
                       OVC120 FM082200 06010G18KT P6SM OVC200=
202111072338 TAF KBLI 072338Z 0800/0824 16017G27KT P6SM -SHRA BKN025 OVC040
                       FM080400 16012G18KT P6SM -SHRA BKN035 FM080900
                       15009KT P6SM VCSH BKN040 FM081800 09009KT
                       P6SM BKN060 OVC120 FM082200 06010G18KT P6SM
                       BKN100 OVC200=
202111071727 TAF KBLI 071727Z 0718/0818 17013G23KT P6SM -SHRA SCT015 OVC030
                       FM072100 16015G25KT P6SM -RA OVC020 FM080300
                       16012G18KT P6SM -SHRA BKN035 FM081000 15009KT
                       P6SM VCSH BKN040=
202111071120 TAF KBLI 071120Z 0712/0812 17012G20KT P6SM -SHRA SCT015 OVC060
                       FM072100 16015G25KT P6SM -RA OVC020 FM080200
                       16012G18KT P6SM -SHRA BKN035=
202111070526 TAF KBLI 070526Z 0706/0806 17012G20KT P6SM -SHRA BKN025 FM072100
                       16015G25KT P6SM -RA OVC020 FM080100 16012G18KT
                       P6SM -SHRA BKN035=
202111062328 TAF KBLI 062328Z 0700/0724 17018G32KT P6SM SCT028 BKN035 FM070500
                       17015G25KT P6SM -SHRA BKN025 OVC040 FM071100
                       17012KT P6SM -RA OVC025 FM071900 14014G22KT
                       P6SM -RA OVC025=
202111061723 TAF KBLI 061723Z 0618/0718 16009KT P6SM -RA OVC030 FM062100 17012G20KT
                       P6SM -SHRA BKN025 BKN040 FM070500 17011KT
                       P6SM -SHRA OVC030 FM071700 14014G22KT P6SM
                       -RA OVC025=
202111061136 TAF KBLI 061136Z 0612/0712 15010G18KT P6SM BKN060 OVC100 FM061400
                       14014G24KT P6SM -RA OVC027 FM062100 17012G20KT
                       P6SM -SHRA BKN025 BKN040 FM070800 17010KT
                       P6SM -SHRA OVC040=
202111060541 TAF KBLI 060541Z 0606/0706 17011KT P6SM SCT050 SCT200 FM060700
                       11011KT P6SM BKN060 OVC100 FM061400 14014G24KT
                       P6SM -RA OVC027 FM062100 17012G20KT P6SM
                       -SHRA BKN025 BKN040=
202111052340 TAF KBLI 052340Z 0600/0624 17011KT P6SM SCT050 SCT200 FM060700
                       11011KT P6SM BKN060 OVC100 FM061400 14014G24KT
                       P6SM -RA OVC027 FM062100 17012G20KT P6SM
                       -SHRA BKN025 BKN040=
202111051741 TAF KBLI 051741Z 0518/0618 17011KT P6SM VCSH BKN035 OVC050 FM060000
                       15009KT P6SM SCT050 SCT200 FM060700 11005KT
                       P6SM BKN060 OVC100 FM061400 14009KT P6SM
                       -RA OVC027=
202111051123 TAF KBLI 051123Z 0512/0612 12010KT P6SM -SHRA SCT030 BKN050 FM051400
                       15013G22KT P6SM -RA OVC030 FM051800 17011KT
                       P6SM -RA BKN030 OVC050 FM060000 17010KT
                       P6SM BKN050=
202111050537 TAF KBLI 050537Z 0506/0606 18011KT P6SM -SHRA BKN035 BKN050 FM051200
                       14014G24KT P6SM VCSH BKN040 FM051500 15013G22KT
                       P6SM -RA OVC027 FM051800 17011KT P6SM -RA
                       OVC022=
202111042336 TAF KBLI 042336Z 0500/0524 18009KT P6SM -SHRA BKN025 BKN050 FM050600
                       18011KT P6SM -SHRA BKN035 BKN050 FM051200
                       14014G24KT P6SM VCSH BKN040 FM051500 15013G22KT
                       P6SM -RA OVC027 FM051800 17011KT P6SM -RA
                       OVC022=
202111041727 TAF KBLI 041727Z 0418/0518 17015G25KT P6SM -RA OVC040 FM042100
                       17017G27KT P6SM -SHRA BKN025 BKN050 FM050600
                       18011KT P6SM -SHRA BKN035 BKN050 FM051200
                       14014G22KT P6SM VCSH BKN040 FM051500 15013G22KT
                       P6SM -RA OVC027=
202111041136 TAF KBLI 041136Z 0412/0512 13012G22KT P6SM VCSH SCT050 OVC100 FM041500
                       17015G25KT P6SM -RA OVC040 FM042100 20017G27KT
                       P6SM -SHRA BKN025 BKN050 FM050700 18006KT
                       P6SM OVC050=
202111040523 TAF KBLI 040523Z 0406/0506 04006KT P6SM BKN050 OVC090 FM041200
                       12012G22KT P6SM -RA OVC040 FM041700 17015G25KT
                       P6SM -RA OVC030 FM042100 20017G27KT P6SM
                       -SHRA BKN025 BKN050=
202111032320 TAF KBLI 032320Z 0400/0424 04006KT P6SM BKN050 OVC090 FM041200
                       12012G22KT P6SM -RA OVC040 FM041700 17015G25KT
                       P6SM -RA OVC030 FM042100 20017G27KT P6SM
                       -SHRA BKN025 BKN050=
202111031720 TAF KBLI 031720Z 0318/0418 02006KT P6SM SCT050 BKN120 FM032100
                       04006KT P6SM VCSH BKN050 OVC090 FM040400
                       14012G22KT P6SM -RA OVC040 FM041700 18015G25KT
                       P6SM -SHRA BKN030=
202111031132 TAF KBLI 031132Z 0312/0412 03006KT P6SM BKN100 OVC200 FM040900
                       14012KT P6SM -RA OVC045=
202111030536 TAF KBLI 030536Z 0306/0406 06006KT P6SM -RA OVC045 FM031100 06006KT
                       P6SM -RA SCT045 BKN070 OVC100 FM031800 03006KT
                       P6SM SCT060 BKN100 OVC200=
202111030302 KBLI 030302Z 0303/0324 06005KT 5SM -RA BR OVC040 FM030900 07006KT
                       P6SM -RA BKN050 OVC100 FM031500 03005KT
                       P6SM -RA SCT060 OVC120=
202111022321 TAF KBLI 022321Z 0300/0324 09007KT 5SM -RA BR SCT020 OVC060
                      TEMPO 0300/0304 2SM -RA BR OVC020 FM030900
                       07006KT P6SM -RA BKN050 OVC100 FM031500
                       03005KT P6SM -RA SCT060 OVC120=
202111021723 TAF KBLI 021723Z 0218/0318 04006KT P6SM FEW050 BKN120 OVC250 FM030100
                       13008KT P6SM -RA OVC035 FM030800 07006KT
                       P6SM -RA BKN050 OVC100 FM031500 03005KT
                       P6SM -RA SCT060 OVC120=
202111021130 TAF KBLI 021130Z 0212/0312 03006KT P6SM SCT035 BKN050 OVC100 FM021600
                       03006KT P6SM SCT050 BKN100 OVC200 FM030100
                       13008KT P6SM -RA OVC035=
202111020541 TAF KBLI 020541Z 0206/0306 17006KT P6SM SCT025 BKN035 OVC050 FM021100
                       03006KT P6SM SCT035 BKN050 OVC100 FM021600
                       03006KT P6SM SCT050 BKN100 OVC200 FM030100
                       13008KT P6SM -RA OVC035=
202111012320 TAF KBLI 012320Z 0200/0224 16006KT P6SM -RA BKN050 OVC100 FM020500
                       17007KT P6SM VCSH OVC050 FM021200 VRB03KT
                       P6SM OVC030 FM021600 11004KT P6SM OVC040=
202111011750 TAF KBLI 011750Z 0118/0218 00000KT P6SM SKC FM012300 13009KT P6SM
                       -RA BKN050 OVC100 FM020500 12007KT 5SM BR
                       VCSH OVC050 FM020900 15004KT P6SM OVC030
                       FM021600 VRB04KT P6SM OVC040=
202111011123 TAF KBLI 011123Z 0112/0212 VRB05KT P6SM SKC FM011800 07006KT P6SM
                       BKN200 FM012300 13009KT P6SM -RA BKN050
                       OVC100 FM020500 12007KT 5SM BR VCSH OVC020=
202111010530 TAF KBLI 010530Z 0106/0206 VRB05KT P6SM SKC FM011800 03006KT P6SM
                       BKN200 FM012300 13005KT P6SM -RA BKN050
                       OVC100 FM020300 12007KT P6SM -RA OVC025=
202111010325 KBLI 010325Z 0103/0124 04005KT P6SM SKC FM011800 03006KT P6SM BKN200
                       FM012300 VRB05KT P6SM -RA BKN050 OVC100=