##########################################################
# Query made at 02/16/2025 23:26:48 UTC
# Time interval: from 11/01/2022 00:00  to 11/30/2022 23:59  UTC
##########################################################

##########################################################
# KBLI, Bellingham, Bellingham International Airport (United States)
# WMO index: -----. WIGOS ID: Unknown
# Latitude 48-47-58N. Longitude 122-32-21W. Altitude 48 m.
##########################################################

###################################
#  METAR/SPECI from KBLI
###################################
202211302353 METAR KBLI 302353Z 00000KT 10SM CLR 03/00 A2952 RMK AO2 SLP006 T00280000 10056 20028 55000=
202211302253 METAR KBLI 302253Z 00000KT 10SM SCT120 04/M04 A2951 RMK AO2 SLP002 T00441039=
202211302153 METAR KBLI 302153Z 00000KT 10SM BKN110 05/M03 A2952 RMK AO2 SLP004 T00501033=
202211302053 METAR KBLI 302053Z 01005KT 10SM OVC100 06/M01 A2952 RMK AO2 SLP006 T00561011 50004=
202211301953 METAR KBLI 301953Z 31004KT 10SM FEW110 05/M02 A2953 RMK AO2 SLP009 T00501022=
202211301853 METAR KBLI 301853Z VRB05KT 10SM CLR 06/M03 A2953 RMK AO2 SLP007 T00561028=
202211301753 METAR KBLI 301753Z 18005KT 10SM CLR 05/M02 A2951 RMK AO2 SLP001 60000 T00501022 10050 20039 51034=
202211301653 METAR KBLI 301653Z 18005KT 10SM CLR 04/M01 A2948 RMK AO2 SLP992 T00441006=
202211301553 METAR KBLI 301553Z 20011G23KT 10SM SCT011 04/00 A2944 RMK AO2 SLP978 T00440000=
202211301544 SPECI KBLI 301544Z VRB03G16KT 10SM SCT011 04/01 A2944 RMK AO2 PRESRR T00440006=
202211301508 SPECI KBLI 301508Z 19007G17KT 10SM SCT011 BKN026 04/02 A2942 RMK AO2 T00440022=
202211301501 SPECI KBLI 301501Z 19008G21KT 10SM SCT011 SCT021 04/02 A2941 RMK AO2 T00440022=
202211301453 METAR KBLI 301453Z 18013G21KT 10SM BKN012 BKN022 04/03 A2941 RMK AO2 RAE00 SLP968 P0000 60000 T00440033 53012=
202211301353 METAR KBLI 301353Z AUTO 18009G18KT 10SM -RA BKN014 OVC027 04/03 A2938 RMK AO2 RAB02 SLP958 P0000 T00440028=
202211301253 METAR KBLI 301253Z AUTO 16010KT 10SM OVC018 04/03 A2937 RMK AO2 RAB08E39 SLP955 P0000 T00390028=
202211301153 METAR KBLI 301153Z AUTO 17009KT 10SM OVC018 04/02 A2937 RMK AO2 RAE19 SLP953 P0000 60003 70004 T00390022 10056 20039 50000=
202211301053 METAR KBLI 301053Z AUTO 16012G23KT 10SM -RA FEW018 BKN024 OVC060 04/02 A2937 RMK AO2 SLP956 P0000 T00390022=
202211301043 SPECI KBLI 301043Z AUTO 16014G19KT 10SM -RA FEW018 BKN028 OVC060 04/02 A2937 RMK AO2 P0000 T00390022=
202211301034 SPECI KBLI 301034Z AUTO 17010G21KT 10SM -RA SCT016 BKN037 OVC060 04/02 A2937 RMK AO2 P0000 T00390022=
202211300953 METAR KBLI 300953Z AUTO 17014G27KT 9SM -RA OVC020 04/03 A2938 RMK AO2 PK WND 17027/0951 SLP958 P0003 T00440028=
202211300853 METAR KBLI 300853Z AUTO 17018G31KT 9SM -RA BKN027 BKN035 OVC043 06/02 A2937 RMK AO2 PK WND 15031/0847 RAB37 SLP953 P0000 60000 T00560022 58020=
202211300846 SPECI KBLI 300846Z AUTO 16018G30KT 10SM -RA BKN027 BKN035 OVC045 06/02 A2937 RMK AO2 PK WND 17030/0846 RAB37 P0000 T00560022=
202211300753 METAR KBLI 300753Z AUTO 17020G33KT 10SM FEW050 BKN060 OVC085 05/02 A2938 RMK AO2 PK WND 17036/0657 SLP959 T00500022 400501044=
202211300653 METAR KBLI 300653Z AUTO 16020G31KT 10SM SCT025 BKN032 OVC045 05/02 A2942 RMK AO2 PK WND 15038/0601 RAB13E23B39E48 SLP971 P0000 T00500022=
202211300553 METAR KBLI 300553Z 16021G39KT 10SM FEW021 BKN043 OVC050 05/02 A2943 RMK AO2 PK WND 18039/0552 RAE01B19E29 SLP974 P0000 60001 T00500017 10050 21011 56023=
202211300453 METAR KBLI 300453Z 16019G31KT 10SM -RA FEW021 BKN043 OVC050 04/02 A2944 RMK AO2 PK WND 15034/0410 RAE09B36 SLP979 P0000 T00440022=
202211300419 SPECI KBLI 300419Z 16016G34KT 10SM SCT023 BKN034 OVC041 04/02 A2946 RMK AO2 PK WND 15034/0410 RAE09 P0000 T00440022=
202211300353 METAR KBLI 300353Z 15018G29KT 10SM -RA BKN023 BKN029 OVC043 04/03 A2947 RMK AO2 PK WND 15037/0342 SLP987 P0001 T00440028=
202211300253 METAR KBLI 300253Z 15018G31KT 10SM -RA OVC025 04/02 A2950 RMK AO2 PK WND 13037/0229 SLP998 P0000 60000 T00440017 58071=
202211300200 SPECI KBLI 300200Z 13012G25KT 10SM -RA OVC029 04/01 A2956 RMK AO2 PRESFR P0000 T00390011=
202211300153 METAR KBLI 300153Z 10SM -RA OVC031 02/00 A2957 RMK AO2 UPB20E46RAB46SNE17 PRESFR SLP022 P0000 T00170000=
202211300053 METAR KBLI 300053Z 04007KT 6SM -SN BR FEW022 OVC030 M01/M03 A2964 RMK AO2 SNB2356 PRESFR SLP046 P0000 T10061028=
202211292353 METAR KBLI 292353Z 04010KT 4SM BR FEW019 BKN028 OVC044 M01/M03 A2971 RMK AO2 SNE51 PRESFR SLP069 VSBY SSW 10SM P0000 60000 T10111033 11006 21017 58061=
202211292337 SPECI KBLI 292337Z 03008KT 2SM -SN BR BKN028 M02/M04 A2973 RMK AO2 P0000 T10171039=
202211292330 SPECI KBLI 292330Z 03005KT 4SM -SN BR BKN028 M02/M04 A2974 RMK AO2 P0000 T10171039=
202211292321 SPECI KBLI 292321Z 04005KT 2 1/2SM -SN BR BKN028 M02/M04 A2975 RMK AO2 PRESFR P0000 T10171039=
202211292253 METAR KBLI 292253Z 03008KT 1 1/4SM -SN OVC028 M02/M06 A2979 RMK AO2 SNB31 SLP098 P0000 T10171061=
202211292244 SPECI KBLI 292244Z 04008KT 1 3/4SM -SN OVC028 M01/M05 A2980 RMK AO2 SNB31 P0000 T10111050=
202211292239 SPECI KBLI 292239Z 04008KT 3SM -SN OVC028 M01/M06 A2980 RMK AO2 SNB31 P0000 T10111056=
202211292153 METAR KBLI 292153Z 04009KT 10SM BKN030 OVC036 M01/M07 A2984 RMK AO2 SLP115 T10061067=
202211292142 SPECI KBLI 292142Z 05008KT 10SM BKN030 OVC040 M01/M07 A2985 RMK AO2 T10061072=
202211292053 METAR KBLI 292053Z 05007KT 10SM OVC027 M01/M08 A2989 RMK AO2 SLP131 T10111078 58032=
202211292043 SPECI KBLI 292043Z 05007KT 10SM OVC027 M01/M08 A2990 RMK AO2 T10111078=
202211291953 METAR KBLI 291953Z 03007KT 10SM OVC032 M01/M08 A2994 RMK AO2 SLP148 T10111083=
202211291853 METAR KBLI 291853Z 03008KT 10SM SCT085 M01/M08 A2997 RMK AO2 SLP158 T10061083=
202211291753 METAR KBLI 291753Z 04007KT 10SM FEW075 OVC095 M02/M09 A2998 RMK AO2 SLP163 T10171094 11017 21039 58008=
202211291653 METAR KBLI 291653Z 03007KT 10SM SCT037 BKN060 OVC075 M02/M10 A3000 RMK AO2 SLP170 T10221100=
202211291553 METAR KBLI 291553Z 04006KT 10SM OVC070 M03/M09 A3001 RMK AO2 SLP172 T10281094=
202211291453 METAR KBLI 291453Z 04006KT 10SM OVC070 M03/M09 A3001 RMK AO2 SLP172 T10281094 56016=
202211291353 METAR KBLI 291353Z AUTO 03004KT 10SM BKN070 M03/M09 A3002 RMK AO2 SLP175 T10331089=
202211291253 METAR KBLI 291253Z AUTO 04005KT 10SM CLR M04/M09 A3004 RMK AO2 SLP182 T10391094=
202211291222 SPECI KBLI 291222Z AUTO 04006KT 10SM FEW029 M03/M09 A3005 RMK AO2 T10331094=
202211291153 METAR KBLI 291153Z AUTO 04005KT 10SM BKN029 M03/M10 A3005 RMK AO2 SLP188 T10331100 11022 21044 51007=
202211291053 METAR KBLI 291053Z AUTO 04004KT 10SM CLR M04/M09 A3006 RMK AO2 SLP188 T10391094=
202211290953 METAR KBLI 290953Z AUTO 05004KT 10SM CLR M04/M11 A3004 RMK AO2 SLP184 T10391111=
202211290853 METAR KBLI 290853Z AUTO 04010G16KT 10SM CLR M03/M11 A3003 RMK AO2 SLP180 T10281111 52006=
202211290753 METAR KBLI 290753Z AUTO 04010G19KT 10SM CLR M03/M12 A3003 RMK AO2 SLP178 T10281117 400281028=
202211290653 METAR KBLI 290653Z AUTO 04010G18KT 10SM CLR M03/M12 A3002 RMK AO2 SLP177 T10281122=
202211290553 METAR KBLI 290553Z 03013G21KT 10SM CLR M03/M12 A3002 RMK AO2 SLP174 T10281117 10000 21028 53010=
202211290453 METAR KBLI 290453Z 02013G22KT 10SM CLR M02/M12 A3000 RMK AO2 SLP169 T10221117=
202211290353 METAR KBLI 290353Z 02014G23KT 10SM CLR M02/M12 A2999 RMK AO2 SLP166 T10221122=
202211290253 METAR KBLI 290253Z 04014G23KT 10SM CLR M02/M12 A2999 RMK AO2 PK WND 04027/0241 SLP165 T10171117 53010=
202211290153 METAR KBLI 290153Z 04017G30KT 10SM CLR M01/M12 A2997 RMK AO2 PK WND 04033/0056 SLP161 T10111117=
202211290053 METAR KBLI 290053Z 04018G32KT 10SM CLR M01/M11 A2997 RMK AO2 PK WND 07037/0003 SLP157 T10061111=
202211282353 METAR KBLI 282353Z 05018G31KT 10SM CLR 00/M11 A2996 RMK AO2 PK WND 05034/2254 SLP154 T00001111 10017 20000 51010=
202211282253 METAR KBLI 282253Z 05018G33KT 10SM CLR 01/M13 A2994 RMK AO2 PK WND 06033/2253 SLP148 T00111133=
202211282153 METAR KBLI 282153Z 03013G30KT 10SM CLR 01/M11 A2994 RMK AO2 PK WND 04033/2132 SLP148 T00111106=
202211282053 METAR KBLI 282053Z 03019G31KT 10SM CLR 01/M09 A2992 RMK AO2 PK WND 36035/2000 SLP142 T00111094 50007=
202211281953 METAR KBLI 281953Z 03015G32KT 10SM CLR 01/M09 A2993 RMK AO2 PK WND 04036/1914 SLP145 T00111094=
202211281853 METAR KBLI 281853Z 03020G29KT 10SM CLR 01/M09 A2992 RMK AO2 PK WND 02035/1842 SLP141 T00111089=
202211281753 METAR KBLI 281753Z 04017G31KT 10SM CLR 01/M09 A2990 RMK AO2 PK WND 06036/1725 SLP135 T00111089 10017 20006 53016=
202211281653 METAR KBLI 281653Z 04016G28KT 10SM CLR 01/M08 A2988 RMK AO2 PK WND 05031/1629 SLP129 T00111083=
202211281553 METAR KBLI 281553Z 04014G22KT 10SM CLR 01/M05 A2986 RMK AO2 SLP122 T00061050=
202211281453 METAR KBLI 281453Z 02008KT 10SM OVC065 01/M02 A2986 RMK AO2 SLP119 T00111017 51010=
202211281353 METAR KBLI 281353Z AUTO 01007KT 10SM BKN055 01/01 A2985 RMK AO2 SLP116 T00110006=
202211281253 METAR KBLI 281253Z AUTO 02007KT 10SM BKN047 OVC060 02/01 A2984 RMK AO2 SLP112 T00170011=
202211281153 METAR KBLI 281153Z AUTO 03006KT 10SM OVC045 02/02 A2983 RMK AO2 SLP109 60002 70002 T00170017 10050 20011 50004=
202211281053 METAR KBLI 281053Z AUTO 35004KT 10SM SCT018 SCT023 OVC045 02/02 A2983 RMK AO2 SLP109 T00170017=
202211281019 SPECI KBLI 281019Z AUTO 00000KT 10SM OVC015 02/02 A2982 RMK AO2 T00170017=
202211280953 METAR KBLI 280953Z AUTO 03004KT 10SM OVC011 02/02 A2982 RMK AO2 SLP106 T00170017=
202211280908 SPECI KBLI 280908Z AUTO 36004KT 10SM OVC014 02/02 A2982 RMK AO2 T00170017=
202211280853 METAR KBLI 280853Z AUTO 00000KT 10SM BKN016 OVC026 02/02 A2982 RMK AO2 RAE27 SLP105 P0002 60002 T00220022 55003=
202211280827 SPECI KBLI 280827Z AUTO 00000KT 10SM FEW009 BKN021 OVC033 02/02 A2981 RMK AO2 RAE27 P0002 T00220022=
202211280814 SPECI KBLI 280814Z AUTO 29005KT 9SM -RA FEW006 BKN012 OVC034 02/02 A2982 RMK AO2 P0002 T00220022=
202211280753 METAR KBLI 280753Z AUTO 06005KT 10SM -RA SCT013 BKN023 OVC040 03/03 A2981 RMK AO2 RAB53 SLP105 P0000 T00330028 400780028=
202211280741 SPECI KBLI 280741Z AUTO 03004KT 10SM SCT013 BKN023 OVC060 03/03 A2981 RMK AO2 T00280028=
202211280733 SPECI KBLI 280733Z AUTO 04004KT 10SM BKN013 BKN019 OVC042 03/03 A2982 RMK AO2 T00280028=
202211280726 SPECI KBLI 280726Z AUTO 03004KT 10SM SCT012 BKN033 OVC070 03/02 A2982 RMK AO2 T00280022=
202211280705 SPECI KBLI 280705Z AUTO 13004KT 10SM SCT014 BKN020 OVC045 04/03 A2982 RMK AO2 T00390028=
202211280653 METAR KBLI 280653Z AUTO 16004KT 10SM BKN014 OVC022 04/03 A2982 RMK AO2 SLP107 T00440028=
202211280640 SPECI KBLI 280640Z AUTO 15004KT 10SM BKN014 OVC028 04/03 A2982 RMK AO2 T00440033=
202211280553 METAR KBLI 280553Z 00000KT 10SM FEW018 BKN027 BKN045 03/02 A2983 RMK AO2 SLP109 T00280022 10056 20028 56010=
202211280453 METAR KBLI 280453Z 16006KT 10SM FEW013 BKN048 04/03 A2983 RMK AO2 SLP111 T00440028=
202211280353 METAR KBLI 280353Z 18004KT 10SM SCT050 OVC060 06/03 A2984 RMK AO2 SLP114 T00560028=
202211280253 METAR KBLI 280253Z 14006KT 10SM FEW018 BKN043 OVC055 05/03 A2986 RMK AO2 SLP119 T00500028 58016=
202211280153 METAR KBLI 280153Z 14005KT 10SM FEW049 BKN060 04/02 A2987 RMK AO2 SLP125 T00440017=
202211280053 METAR KBLI 280053Z 17004KT 10SM OVC050 06/01 A2989 RMK AO2 SLP130 T00560006=
202211272353 METAR KBLI 272353Z 17003KT 10SM OVC050 06/01 A2990 RMK AO2 SLP135 T00560011 10072 20056 56014=
202211272253 METAR KBLI 272253Z 17004KT 10SM CLR 07/M01 A2991 RMK AO2 SLP137 T00671006=
202211272153 METAR KBLI 272153Z 16007KT 10SM CLR 07/00 A2992 RMK AO2 SLP141 T00720000=
202211272053 METAR KBLI 272053Z 17005KT 10SM FEW033 07/00 A2995 RMK AO2 SLP149 T00720000 58006=
202211271953 METAR KBLI 271953Z 19004KT 10SM CLR 07/01 A2996 RMK AO2 SLP153 T00670006=
202211271853 METAR KBLI 271853Z 20007KT 10SM CLR 07/01 A2997 RMK AO2 SLP157 T00670006=
202211271753 METAR KBLI 271753Z 20004KT 10SM SCT029 BKN036 06/02 A2996 RMK AO2 SLP155 T00610017 10061 20033 51008=
202211271653 METAR KBLI 271653Z VRB03KT 10SM FEW030 BKN060 05/02 A2996 RMK AO2 SLP154 T00500022=
202211271553 METAR KBLI 271553Z VRB03KT 10SM FEW029 SCT035 BKN042 04/02 A2995 RMK AO2 SLP151 T00440017=
202211271453 METAR KBLI 271453Z 21003KT 10SM FEW024 BKN033 BKN042 04/02 A2994 RMK AO2 SLP147 T00440022 51003=
202211271419 SPECI KBLI 271419Z AUTO VRB04KT 10SM FEW028 SCT039 BKN060 04/02 A2994 RMK AO2 T00440022=
202211271408 SPECI KBLI 271408Z AUTO VRB03KT 10SM BKN028 BKN039 BKN060 04/02 A2994 RMK AO2 T00440022=
202211271353 METAR KBLI 271353Z AUTO VRB04KT 10SM SCT027 SCT034 BKN041 05/02 A2994 RMK AO2 SLP147 T00500022=
202211271253 METAR KBLI 271253Z AUTO VRB03KT 10SM FEW045 05/03 A2993 RMK AO2 SLP144 T00500028=
202211271153 METAR KBLI 271153Z AUTO VRB03KT 10SM FEW024 SCT055 05/03 A2993 RMK AO2 SLP144 60028 70030 T00500033 10078 20050 50036=
202211271053 METAR KBLI 271053Z AUTO 28007KT 10SM FEW025 BKN042 OVC050 06/03 A2994 RMK AO2 SLP145 T00610033=
202211270953 METAR KBLI 270953Z AUTO 10SM FEW016 SCT044 BKN055 06/03 A2990 RMK AO2 RAE26 SLP134 P0011 T00560033=
202211270941 SPECI KBLI 270941Z AUTO 28009G18KT 10SM SCT014 BKN100 BKN120 06/04 A2989 RMK AO2 RAE26 P0011 T00560044=
202211270920 SPECI KBLI 270920Z AUTO 28009G15KT 230V300 9SM -RA FEW007 BKN011 OVC024 06/06 A2990 RMK AO2 P0010 T00610056=
202211270913 SPECI KBLI 270913Z AUTO 28007G18KT 2SM R16/5500VP6000FT -RA BR FEW007 BKN017 OVC033 06/06 A2989 RMK AO2 P0010 T00610061=
202211270905 SPECI KBLI 270905Z AUTO 1 3/4SM R16/5500VP6000FT RA BR SCT009 BKN014 OVC019 08/08 A2989 RMK AO2 PRESRR P0010 T00780078=
202211270903 SPECI KBLI 270903Z AUTO 2 1/2SM RA BR BKN010 BKN014 OVC019 08/08 A2987 RMK AO2 CIG 007V012 PRESRR P0004 T00780078=
202211270853 METAR KBLI 270853Z AUTO 18016G31KT 8SM -RA FEW008 BKN016 OVC021 08/08 A2983 RMK AO2 PK WND 16034/0804 SLP108 P0006 60017 T00780078 56043=
202211270753 METAR KBLI 270753Z AUTO 17023G37KT 3SM -RA BR FEW009 BKN023 OVC028 08/07 A2985 RMK AO2 PK WND 20037/0744 PRESFR SLP115 P0008 T00780072 400830033=
202211270735 SPECI KBLI 270735Z AUTO 17016G35KT 4SM -RA BR BKN029 OVC036 08/07 A2987 RMK AO2 PK WND 18035/0721 P0006 T00780072=
202211270723 SPECI KBLI 270723Z AUTO 17020G35KT 4SM -RA BR FEW015 OVC033 08/07 A2988 RMK AO2 PK WND 18035/0721 P0005 T00780072=
202211270713 SPECI KBLI 270713Z AUTO 17021G34KT 2 1/2SM RA BR FEW015 BKN037 OVC050 08/07 A2988 RMK AO2 PK WND 18034/0712 P0004 T00780072=
202211270653 METAR KBLI 270653Z AUTO 17020G33KT 4SM -RA BR FEW015 SCT030 OVC036 08/07 A2990 RMK AO2 PK WND 15036/0623 SLP132 P0003 T00780072=
202211270631 SPECI KBLI 270631Z AUTO 18020G36KT 5SM -RA BR SCT029 OVC042 08/07 A2992 RMK AO2 PK WND 15036/0623 P0002 T00780072=
202211270624 SPECI KBLI 270624Z AUTO 17022G36KT 5SM -RA BR BKN029 OVC039 08/07 A2993 RMK AO2 PK WND 15036/0623 P0001 T00780072=
202211270553 METAR KBLI 270553Z 18018G35KT 7SM -RA SCT015 BKN040 OVC050 08/07 A2996 RMK AO2 PK WND 17035/0550 SLP152 P0000 60002 T00780072 10083 20067 58052=
202211270453 METAR KBLI 270453Z 17016G29KT 7SM -RA SCT015 BKN030 OVC045 08/07 A3002 RMK AO2 PK WND 18036/0437 RAB04 SLP172 P0001 T00780072=
202211270353 METAR KBLI 270353Z 17014G31KT 10SM SCT015 BKN025 OVC040 08/06 A3007 RMK AO2 PK WND 16031/0349 SLP190 T00830061=
202211270313 SPECI KBLI 270313Z 17014G24KT 10SM SCT015 BKN025 OVC040 08/06 A3009 RMK AO2 PK WND 15026/0255 T00780061=
202211270311 SPECI KBLI 270311Z 17016G24KT 10SM SCT016 OVC037 08/06 A3009 RMK AO2 PK WND 15026/0255 T00780061=
202211270300 SPECI KBLI 270300Z 16016G26KT 10SM SCT015 OVC037 08/06 A3010 RMK AO2 PK WND 15026/0255 T00780061=
202211270253 METAR KBLI 270253Z 16014G24KT 10SM SCT015 BKN025 OVC040 08/06 A3011 RMK AO2 PK WND 16029/0202 SLP204 60001 T00780056 56041=
202211270153 METAR KBLI 270153Z 16017G25KT 10SM BKN015 BKN030 OVC040 07/06 A3015 RMK AO2 PK WND 16032/0101 SLP218 T00720056=
202211270053 METAR KBLI 270053Z 17012G22KT 10SM SCT015 BKN040 OVC050 07/04 A3019 RMK AO2 PK WND 17028/0002 RAB09E42 SLP231 P0001 T00670044=
202211262353 METAR KBLI 262353Z 17015G28KT 10SM SCT039 BKN046 OVC065 07/04 A3023 RMK AO2 PK WND 16028/2353 RAB20E36 SLP246 P0000 60000 T00670039 10072 20061 58028=
202211262253 METAR KBLI 262253Z 19014G25KT 10SM SCT015 BKN035 OVC050 07/04 A3026 RMK AO2 PK WND 16029/2239 SLP255 T00670039=
202211262153 METAR KBLI 262153Z 18013G24KT 10SM SCT015 BKN035 OVC045 07/04 A3029 RMK AO2 SLP266 T00670039=
202211262053 METAR KBLI 262053Z 18012G20KT 10SM BKN024 OVC035 06/04 A3031 RMK AO2 RAE43 SLP274 P0000 60000 T00610044 58023=
202211261953 METAR KBLI 261953Z 18009G21KT 10SM -RA OVC024 06/04 A3035 RMK AO2 RAB38 SLP286 P0000 T00610044=
202211261853 METAR KBLI 261853Z 18013G23KT 10SM OVC024 07/04 A3037 RMK AO2 SLP292 T00670044=
202211261824 SPECI KBLI 261824Z 19008G18KT 10SM OVC023 07/04 A3038 RMK AO2 T00670044=
202211261753 METAR KBLI 261753Z 17011G20KT 10SM SCT022 BKN045 OVC055 07/04 A3038 RMK AO2 SLP298 T00670044 10067 20033 56010=
202211261653 METAR KBLI 261653Z 16011KT 10SM SCT015 SCT030 OVC070 06/05 A3040 RMK AO2 SLP303 T00610050=
202211261614 SPECI KBLI 261614Z 17008KT 10SM BKN015 BKN060 OVC075 06/05 A3040 RMK AO2 T00610050=
202211261553 METAR KBLI 261553Z 16008KT 10SM OVC013 06/05 A3040 RMK AO2 SLP303 T00560050=
202211261453 METAR KBLI 261453Z 17005KT 10SM OVC013 06/05 A3042 RMK AO2 SLP309 T00560050 53006=
202211261410 SPECI KBLI 261410Z AUTO 16004KT 10SM OVC013 04/04 A3041 RMK AO2 T00440044=
202211261353 METAR KBLI 261353Z AUTO 00000KT 10SM BKN017 OVC022 04/04 A3041 RMK AO2 SLP307 T00390039=
202211261311 SPECI KBLI 261311Z AUTO 15006KT 10SM BKN021 04/03 A3039 RMK AO2 T00390033=
202211261253 METAR KBLI 261253Z AUTO 17006KT 10SM CLR 05/04 A3039 RMK AO2 SLP301 T00500039=
202211261153 METAR KBLI 261153Z AUTO 18005KT 10SM CLR 04/04 A3040 RMK AO2 SLP303 70079 T00390039 10061 20033 50004=
202211261053 METAR KBLI 261053Z AUTO 18006KT 10SM FEW014 04/04 A3040 RMK AO2 SLP304 T00390039=
202211260953 METAR KBLI 260953Z AUTO 18006KT 10SM CLR 06/04 A3038 RMK AO2 SLP297 T00560044=
202211260853 METAR KBLI 260853Z AUTO 17007KT 10SM BKN060 06/05 A3038 RMK AO2 SLP297 T00560050 52012=
202211260753 METAR KBLI 260753Z AUTO 18009KT 10SM OVC060 06/05 A3038 RMK AO2 SLP294 T00610050 401000033=
202211260653 METAR KBLI 260653Z AUTO 17006KT 10SM OVC060 06/04 A3036 RMK AO2 SLP289 T00560044=
202211260553 METAR KBLI 260553Z 18004KT 10SM FEW055 SCT110 04/04 A3035 RMK AO2 SLP286 T00390039 10072 20033 53019=
202211260453 METAR KBLI 260453Z 17004KT 10SM SCT060 04/04 A3033 RMK AO2 SLP280 T00440039=
202211260353 METAR KBLI 260353Z 17005KT 10SM OVC060 04/04 A3031 RMK AO2 SLP273 T00440039=
202211260253 METAR KBLI 260253Z 15003KT 10SM FEW070 04/04 A3030 RMK AO2 SLP267 T00440039 52016=
202211260153 METAR KBLI 260153Z 16003KT 10SM FEW070 04/04 A3028 RMK AO2 SLP262 T00390039=
202211260053 METAR KBLI 260053Z 18003KT 10SM SCT070 05/04 A3027 RMK AO2 SLP257 T00500044=
202211252353 METAR KBLI 252353Z 18007KT 10SM CLR 07/04 A3025 RMK AO2 SLP252 60009 T00720044 10083 20067 53006=
202211252253 METAR KBLI 252253Z 17003KT 10SM FEW030 BKN055 07/05 A3023 RMK AO2 SLP245 T00720050=
202211252153 METAR KBLI 252153Z 16005KT 10SM FEW025 SCT050 BKN065 07/06 A3023 RMK AO2 RAE02 SLP245 P0000 T00670061=
202211252053 METAR KBLI 252053Z 16006KT 10SM -RA FEW029 BKN080 OVC110 07/04 A3023 RMK AO2 RAE36B52 SLP245 P0000 60009 T00720044 51014=
202211251953 METAR KBLI 251953Z 19004KT 10SM -RA BKN044 OVC055 07/06 A3022 RMK AO2 SLP241 P0002 T00670056=
202211251853 METAR KBLI 251853Z VRB04KT 7SM -RA FEW028 BKN038 OVC047 07/06 A3022 RMK AO2 SLP242 P0007 T00720061=
202211251753 METAR KBLI 251753Z 2 1/2SM -RA BR FEW006 BKN017 OVC031 08/08 A3019 RMK AO2 SLP231 P0011 60070 T00830083 10100 20083 51018=
202211251748 SPECI KBLI 251748Z VRB04KT 2 1/2SM RA BR FEW006 BKN017 OVC029 08/08 A3018 RMK AO2 P0010=
202211251653 METAR KBLI 251653Z VRB03KT 2 1/2SM -RA BR OVC006 08/08 A3016 RMK AO2 CIG 004V010 SLP221 P0016 T00830083=
202211251633 SPECI KBLI 251633Z 18006KT 2SM RA BR BKN008 OVC012 08/08 A3015 RMK AO2 P0012 T00830083=
202211251624 SPECI KBLI 251624Z 18005KT 3SM RA BR BKN006 BKN010 OVC040 08/08 A3015 RMK AO2 P0009 T00830083=
202211251553 METAR KBLI 251553Z 20005KT 3SM RA BR BKN010 BKN017 OVC035 08/08 A3014 RMK AO2 SLP213 P0016 T00830083=
202211251537 SPECI KBLI 251537Z 18008KT 2SM RA BR BKN012 OVC033 08/08 A3013 RMK AO2 P0011 T00830083=
202211251453 METAR KBLI 251453Z 18009KT 2SM RA BR BKN007 OVC013 08/08 A3011 RMK AO2 CIG 004V010 SLP205 P0020 60027 T00830083 51011=
202211251450 SPECI KBLI 251450Z 18007KT 1 3/4SM RA BR BKN007 OVC013 08/08 A3011 RMK AO2 CIG 004V010 P0019=
202211251443 SPECI KBLI 251443Z 18011KT 1 3/4SM RA BR SCT009 OVC013 08/08 A3011 RMK AO2 P0016 T00830083=
202211251427 SPECI KBLI 251427Z 18008KT 1 3/4SM RA BR OVC013 08/08 A3010 RMK AO2 P0010 T00830078=
202211251417 SPECI KBLI 251417Z AUTO 18009KT 1 3/4SM RA BR OVC015 08/08 A3010 RMK AO2 P0006 T00830078=
202211251353 METAR KBLI 251353Z AUTO 18010G17KT 2 1/2SM -RA BR BKN017 OVC024 08/08 A3010 RMK AO2 SLP202 P0007 T00830078=
202211251319 SPECI KBLI 251319Z AUTO 19008G21KT 2 1/2SM -RA BR BKN029 OVC035 09/07 A3009 RMK AO2 P0002 T00890072=
202211251253 METAR KBLI 251253Z AUTO 18009G16KT 10SM -RA OVC037 10/06 A3008 RMK AO2 RAB17E29B47 SLP194 P0000 T01000056=
202211251153 METAR KBLI 251153Z AUTO 19006KT 10SM OVC042 10/05 A3009 RMK AO2 RAB04E27 SLP195 P0000 60000 T01000050 10100 20061 58014=
202211251053 METAR KBLI 251053Z AUTO 31006KT 10SM OVC042 08/07 A3011 RMK AO2 RAE46 SLP205 P0000 T00780072=
202211250953 METAR KBLI 250953Z AUTO 15005KT 9SM -RA BKN042 OVC050 08/07 A3011 RMK AO2 RAB22 SLP204 P0000 T00830067=
202211250853 METAR KBLI 250853Z AUTO 07003KT 10SM OVC070 07/06 A3013 RMK AO2 SLP210 T00720061 56010=
202211250753 METAR KBLI 250753Z AUTO 00000KT 10SM OVC065 07/06 A3014 RMK AO2 SLP213 T00720061 401281011=
202211250653 METAR KBLI 250653Z AUTO 31004KT 10SM FEW065 08/07 A3013 RMK AO2 SLP212 T00780067=
202211250553 METAR KBLI 250553Z 07003KT 10SM OVC080 06/05 A3016 RMK AO2 SLP221 T00610050 10094 20033 55004=
202211250453 METAR KBLI 250453Z 00000KT 10SM CLR 08/06 A3015 RMK AO2 SLP219 T00780056=
202211250353 METAR KBLI 250353Z 00000KT 10SM CLR 04/04 A3016 RMK AO2 SLP224 T00440039=
202211250253 METAR KBLI 250253Z 00000KT 10SM CLR 03/03 A3017 RMK AO2 SLP226 T00330033 56001=
202211250153 METAR KBLI 250153Z 00000KT 10SM CLR 04/04 A3017 RMK AO2 SLP227 T00440039=
202211250053 METAR KBLI 250053Z 00000KT 10SM CLR 06/05 A3017 RMK AO2 SLP224 T00560050=
202211242353 METAR KBLI 242353Z 00000KT 10SM SCT100 09/06 A3017 RMK AO2 SLP227 T00940061 10128 20061 56014=
202211242253 METAR KBLI 242253Z 24003KT 10SM CLR 11/04 A3018 RMK AO2 SLP228 T01060044=
202211242153 METAR KBLI 242153Z 00000KT 10SM CLR 12/05 A3020 RMK AO2 SLP234 T01220050=
202211242053 METAR KBLI 242053Z 00000KT 10SM CLR 11/05 A3022 RMK AO2 SLP240 T01110050 58021=
202211241953 METAR KBLI 241953Z 00000KT 10SM CLR 10/05 A3025 RMK AO2 SLP253 T01000050=
202211241853 METAR KBLI 241853Z 00000KT 10SM CLR 08/06 A3027 RMK AO2 SLP259 T00830061=
202211241753 METAR KBLI 241753Z 00000KT 10SM CLR 06/05 A3028 RMK AO2 SLP262 I6002 T00610050 10061 21011 56010=
202211241653 METAR KBLI 241653Z 00000KT 10SM CLR 02/02 A3028 RMK AO2 SLP263 T00220022=
202211241553 METAR KBLI 241553Z 00000KT 10SM R16/3000VP6000FT CLR 00/00 A3029 RMK AO2 SLP266 T00000000=
202211241453 METAR KBLI 241453Z 00000KT 10SM SCT085 00/00 A3031 RMK AO2 SLP272 I1002 I3002 T00000000 58006=
202211241450 SPECI KBLI 241450Z 00000KT 4SM BR BKN085 M01/M01 A3031 RMK AO2 I1002=
202211241448 SPECI KBLI 241448Z 00000KT 1 1/2SM R16/5000VP6000FT BR SCT085 M01/M01 A3031 RMK AO2 I1001=
202211241439 SPECI KBLI 241439Z 00000KT 3/4SM R16/4000VP6000FT BR FEW002 SCT085 00/00 A3031 RMK AO2 I1001 T00000000=
202211241411 SPECI KBLI 241411Z AUTO 00000KT 1 1/4SM BR CLR M01/M01 A3032 RMK AO2 VIS 1/2V5 I1001 T10111011=
202211241353 METAR KBLI 241353Z AUTO 00000KT 2 1/2SM BR FEW085 00/00 A3033 RMK AO2 VIS 1V5 SLP278 T00000000=
202211241350 SPECI KBLI 241350Z AUTO 00000KT 2 1/2SM BR FEW085 01/01 A3032 RMK AO2 VIS 3/4V5=
202211241325 SPECI KBLI 241325Z AUTO 34003KT 5SM BR FEW085 01/01 A3033 RMK AO2 T00060006=
202211241306 SPECI KBLI 241306Z AUTO 00000KT 2 1/2SM BR FEW085 01/01 A3033 RMK AO2 T00060006=
202211241253 METAR KBLI 241253Z AUTO 00000KT 9SM FEW085 01/01 A3033 RMK AO2 SLP279 T00110011=
202211241153 METAR KBLI 241153Z AUTO 00000KT 5SM BR BKN090 01/01 A3034 RMK AO2 SLP283 I6000 T00110011 10039 20011 58004=
202211241053 METAR KBLI 241053Z AUTO 00000KT 10SM BKN085 03/03 A3035 RMK AO2 SLP286 T00330033=
202211240953 METAR KBLI 240953Z AUTO 00000KT 10SM OVC090 04/04 A3035 RMK AO2 SLP285 T00390039=
202211240853 METAR KBLI 240853Z AUTO 00000KT 10SM FEW100 04/04 A3035 RMK AO2 SLP286 I1000 I3000 T00390039 53004=
202211240753 METAR KBLI 240753Z AUTO 01003KT 10SM CLR 04/04 A3035 RMK AO2 SLP285 T00390039 401170028=
202211240653 METAR KBLI 240653Z AUTO VRB03KT 10SM CLR 04/04 A3034 RMK AO2 SLP282 T00390039=
202211240553 METAR KBLI 240553Z 02005KT 10SM BCFG CLR 04/04 A3034 RMK AO2 SLP282 T00390039 10089 20028 56008=
202211240453 METAR KBLI 240453Z 00000KT 10SM BCFG CLR 03/03 A3034 RMK AO2 SLP283 T00330033=
202211240359 SPECI KBLI 240359Z 00000KT 10SM R16/1600VP6000FT BCFG CLR 03/03 A3036 RMK AO2 T00330033=
202211240356 SPECI KBLI 240356Z 00000KT 1/4SM R16/1800VP6000FT FG CLR 04/04 A3036 RMK AO2 T00440044=
202211240353 METAR KBLI 240353Z 00000KT 10SM R16/2000VP6000FT CLR 04/04 A3036 RMK AO2 SLP289 T00440044=
202211240253 METAR KBLI 240253Z 01003KT 10SM CLR 06/06 A3036 RMK AO2 SLP290 T00610061 50000=
202211240153 METAR KBLI 240153Z 04004KT 10SM CLR 07/07 A3037 RMK AO2 SLP291 T00670067=
202211240053 METAR KBLI 240053Z 02003KT 8SM CLR 08/08 A3037 RMK AO2 SLP292 T00780078=
202211232353 METAR KBLI 232353Z 05004KT 9SM CLR 09/08 A3036 RMK AO2 SLP290 T00890078 10117 20089 58003=
202211232253 METAR KBLI 232253Z 13004KT 10SM SCT028 BKN055 BKN090 11/07 A3037 RMK AO2 SLP292 T01060067=
202211232153 METAR KBLI 232153Z 15007KT 10SM SCT028 BKN055 BKN090 11/07 A3037 RMK AO2 SLP292 T01110072=
202211232053 METAR KBLI 232053Z 15008KT 10SM SCT028 BKN055 OVC090 12/07 A3037 RMK AO2 SLP292 T01170067 58002=
202211231953 METAR KBLI 231953Z 15006KT 10SM OVC050 11/07 A3038 RMK AO2 SLP296 T01060072=
202211231853 METAR KBLI 231853Z 16007KT 10SM BKN055 OVC110 10/08 A3039 RMK AO2 SLP298 T01000078=
202211231753 METAR KBLI 231753Z 16004KT 10SM OVC044 09/08 A3038 RMK AO2 SLP294 T00890083 10089 20067 51021=
202211231653 METAR KBLI 231653Z 18005KT 10SM BKN039 OVC047 08/08 A3036 RMK AO2 SLP288 T00830078=
202211231553 METAR KBLI 231553Z 20003KT 10SM OVC046 08/07 A3033 RMK AO2 SLP280 T00780072=
202211231453 METAR KBLI 231453Z 00000KT 10SM OVC047 07/07 A3031 RMK AO2 SLP273 T00720072 51016=
202211231353 METAR KBLI 231353Z AUTO 17005KT 10SM BKN050 08/07 A3030 RMK AO2 SLP268 T00830072=
202211231253 METAR KBLI 231253Z AUTO 19004KT 10SM FEW060 08/07 A3029 RMK AO2 SLP264 T00830072=
202211231209 SPECI KBLI 231209Z AUTO 18005KT 10SM FEW018 FEW027 OVC033 09/08 A3027 RMK AO2 T00890078=
202211231153 METAR KBLI 231153Z AUTO 18004KT 10SM BKN018 BKN027 OVC035 08/08 A3027 RMK AO2 SLP257 70063 T00830078 10083 20061 51022=
202211231144 SPECI KBLI 231144Z AUTO 17005KT 10SM BKN018 OVC060 08/08 A3027 RMK AO2 T00780078=
202211231053 METAR KBLI 231053Z AUTO 17004KT 10SM BKN041 BKN055 07/07 A3025 RMK AO2 SLP253 T00720072=
202211230953 METAR KBLI 230953Z AUTO 00000KT 10SM OVC040 07/07 A3023 RMK AO2 SLP243 T00720072=
202211230853 METAR KBLI 230853Z AUTO 18003KT 10SM SCT042 OVC055 07/07 A3020 RMK AO2 SLP234 T00720072 51036=
202211230753 METAR KBLI 230753Z AUTO 14003KT 10SM SCT043 OVC055 07/07 A3017 RMK AO2 SLP224 T00670067 401110056=
202211230653 METAR KBLI 230653Z AUTO 19004KT 10SM FEW044 OVC060 08/08 A3013 RMK AO2 SLP211 T00780078=
202211230628 SPECI KBLI 230628Z AUTO 20006KT 10SM FEW048 OVC055 08/08 A3012 RMK AO2 T00830078=
202211230553 METAR KBLI 230553Z 19004KT 10SM BKN022 BKN045 OVC055 08/08 A3009 RMK AO2 SLP198 60001 T00780078 10083 20067 52037=
202211230507 SPECI KBLI 230507Z 16003KT 10SM BKN022 BKN045 OVC055 07/07 A3007 RMK AO2 T00720072=
202211230453 METAR KBLI 230453Z 17003KT 10SM SCT022 BKN043 OVC060 07/07 A3006 RMK AO2 SLP186 T00720072=
202211230434 SPECI KBLI 230434Z 19004KT 10SM FEW013 OVC021 07/07 A3005 RMK AO2 T00720072=
202211230353 METAR KBLI 230353Z 19004KT 10SM SCT013 SCT019 07/07 A3002 RMK AO2 SLP173 T00720072=
202211230339 SPECI KBLI 230339Z 20004KT 6SM BR FEW010 FEW014 08/07 A3001 RMK AO2 T00780072=
202211230320 SPECI KBLI 230320Z 00000KT 5SM BR SCT008 BKN012 OVC024 08/08 A3000 RMK AO2 T00830078=
202211230253 METAR KBLI 230253Z VRB03KT 3SM BR BKN006 BKN014 OVC026 08/08 A2998 RMK AO2 SLP161 60001 T00780078 53042=
202211230231 SPECI KBLI 230231Z VRB03KT 3SM BR OVC006 08/08 A2996 RMK AO2 CIG 005V009 T00780078=
202211230200 SPECI KBLI 230200Z 30005KT 3SM BR SCT006 OVC012 08/08 A2993 RMK AO2 T00780078=
202211230153 METAR KBLI 230153Z 31006KT 2SM BR FEW004 BKN008 OVC012 08/08 A2992 RMK AO2 RAE0056 CIG 006V011 SLP140 P0000 T00780078=
202211230149 SPECI KBLI 230149Z 30007KT 2SM BR SCT004 BKN008 OVC012 08/08 A2992 RMK AO2 RAE0056 CIG 006V011 PRESRR P0000=
202211230100 SPECI KBLI 230100Z VRB04KT 2SM BR OVC004 08/08 A2987 RMK AO2 RAE0056 P0000 T00830083=
202211230053 METAR KBLI 230053Z 00000KT 1 1/2SM -RA BR OVC002 08/08 A2986 RMK AO2 CIG 002V005 SLP119 P0001 T00830083=
202211222353 METAR KBLI 222353Z 18005KT 1 1/2SM -RA BR BKN002 OVC021 08/08 A2982 RMK AO2 RAE18B36 SLP104 P0002 60043 T00830083 10089 20061 53019=
202211222346 SPECI KBLI 222346Z 19006KT 1 1/2SM -RA BR BKN004 OVC023 08/08 A2981 RMK AO2 RAE18B36 P0001 T00830083=
202211222306 SPECI KBLI 222306Z 18006KT 1 1/4SM -RA BR SCT009 BKN021 OVC036 08/08 A2978 RMK AO2 P0001 T00830083=
202211222253 METAR KBLI 222253Z 18008KT 2 1/2SM -RA BR SCT009 BKN021 OVC036 08/08 A2978 RMK AO2 SLP093 P0003 T00830083=
202211222251 SPECI KBLI 222251Z 19007KT 2 1/2SM -RA BR SCT011 BKN018 OVC055 08/08 A2978 RMK AO2 P0003=
202211222237 SPECI KBLI 222237Z 18004KT 1 3/4SM -RA BR SCT011 BKN018 OVC055 08/08 A2978 RMK AO2 P0002 T00830083=
202211222153 METAR KBLI 222153Z 00000KT 4SM -RA BR SCT011 BKN018 OVC055 08/08 A2976 RMK AO2 SLP085 P0009 T00780078=
202211222053 METAR KBLI 222053Z 17006KT 2 1/2SM -RA BR BKN009 OVC015 08/08 A2977 RMK AO2 CIG 007V012 SLP087 P0014 60029 T00830083 58021=
202211221957 SPECI KBLI 221957Z VRB04KT 3SM RA BR SCT007 BKN013 OVC016 08/08 A2978 RMK AO2 P0001 T00830083=
202211221953 METAR KBLI 221953Z 16004KT 2 1/2SM RA BR SCT007 BKN013 OVC016 08/08 A2979 RMK AO2 SLP094 P0010 T00830083=
202211221853 METAR KBLI 221853Z 17007KT 3SM -RA BR OVC018 08/08 A2981 RMK AO2 SLP102 P0005 T00830078=
202211221810 SPECI KBLI 221810Z 35003KT 6SM -RA BR FEW002 BKN015 OVC022 07/07 A2982 RMK AO2 P0000 T00670067=
202211221753 METAR KBLI 221753Z VRB03KT 5SM -RA BR SCT005 BKN013 OVC020 06/06 A2983 RMK AO2 SLP108 P0009 60019 T00610061 10111 20061 58029=
202211221653 METAR KBLI 221653Z 01004KT 6SM -RA BR FEW009 BKN013 OVC021 07/07 A2987 RMK AO2 SLP122 P0004 T00670067=
202211221553 METAR KBLI 221553Z 04007KT 5SM RA BR SCT009 BKN015 OVC022 06/06 A2989 RMK AO2 SLP130 P0006 T00610061=
202211221453 METAR KBLI 221453Z 02005KT 6SM -RA BR SCT015 OVC023 07/06 A2991 RMK AO2 RAB20 SLP138 P0000 60000 T00670061 56033=
202211221417 SPECI KBLI 221417Z AUTO VRB06KT 10SM OVC028 11/07 A2993 RMK AO2 T01060067=
202211221353 METAR KBLI 221353Z AUTO VRB03KT 10SM OVC035 07/04 A2993 RMK AO2 SLP144 T00670044=
202211221253 METAR KBLI 221253Z AUTO 00000KT 10SM OVC031 07/04 A2997 RMK AO2 SLP158 T00670044=
202211221153 METAR KBLI 221153Z AUTO 00000KT 10SM BKN031 07/04 A3001 RMK AO2 SLP170 T00670039 10072 20056 58024=
202211221053 METAR KBLI 221053Z AUTO 00000KT 10SM OVC035 07/04 A3005 RMK AO2 SLP183 T00720039=
202211220953 METAR KBLI 220953Z AUTO 00000KT 10SM OVC039 07/03 A3007 RMK AO2 SLP189 T00670033=
202211220853 METAR KBLI 220853Z AUTO 00000KT 10SM SCT049 BKN070 BKN090 07/03 A3008 RMK AO2 SLP195 T00670033 58020=
202211220753 METAR KBLI 220753Z AUTO 36004KT 10SM OVC050 07/03 A3011 RMK AO2 SLP204 T00670033 400940017=
202211220653 METAR KBLI 220653Z AUTO 01003KT 9SM OVC070 06/03 A3013 RMK AO2 SLP211 T00610028=
202211220553 METAR KBLI 220553Z 01003KT 10SM BKN070 OVC085 06/02 A3014 RMK AO2 RAB35E47 SLP216 P0000 60000 T00610022 10083 20061 55012=
202211220453 METAR KBLI 220453Z 33005KT 10SM BKN070 OVC085 07/04 A3014 RMK AO2 SLP216 T00670039=
202211220353 METAR KBLI 220353Z 07003KT 10SM OVC070 07/04 A3016 RMK AO2 SLP221 T00670039=
202211220253 METAR KBLI 220253Z 00000KT 10SM BKN070 OVC090 07/04 A3018 RMK AO2 SLP228 60000 T00670039 56018=
202211220153 METAR KBLI 220153Z 00000KT 10SM BKN080 OVC090 06/03 A3020 RMK AO2 SLP236 T00610033=
202211220053 METAR KBLI 220053Z 07003KT 10SM BKN075 OVC090 08/01 A3020 RMK AO2 RAB2358E13 SLP237 P0000 T00780011=
202211212353 METAR KBLI 212353Z 00000KT 10SM OVC080 08/03 A3023 RMK AO2 SLP246 T00830033 10094 20050 56007=
202211212253 METAR KBLI 212253Z 19003KT 10SM BKN085 OVC100 08/03 A3024 RMK AO2 SLP247 T00830033=
202211212153 METAR KBLI 212153Z 03003KT 10SM BKN055 OVC090 09/01 A3025 RMK AO2 SLP250 T00940006=
202211212053 METAR KBLI 212053Z 36004KT 10SM BKN060 OVC075 09/01 A3025 RMK AO2 SLP253 T00940011 58014=
202211211953 METAR KBLI 211953Z 07003KT 10SM FEW060 OVC075 08/02 A3027 RMK AO2 SLP258 T00830022=
202211211853 METAR KBLI 211853Z 00000KT 10SM BKN050 BKN075 07/03 A3028 RMK AO2 SLP263 T00720033=
202211211753 METAR KBLI 211753Z 00000KT 10SM OVC050 05/02 A3029 RMK AO2 SLP267 T00500017 10050 20017 53003=
202211211653 METAR KBLI 211653Z 01003KT 10SM OVC080 03/00 A3029 RMK AO2 SLP266 T00330000=
202211211553 METAR KBLI 211553Z 00000KT 9SM OVC065 02/00 A3028 RMK AO2 SLP264 T00220000=
202211211453 METAR KBLI 211453Z 36003KT 10SM OVC070 02/00 A3028 RMK AO2 SLP264 T00220000 58005=
202211211353 METAR KBLI 211353Z AUTO 03004KT 10SM OVC060 02/00 A3029 RMK AO2 SLP267 T00220000=
202211211253 METAR KBLI 211253Z AUTO 36003KT 10SM OVC065 02/00 A3030 RMK AO2 SLP271 T00220000=
202211211153 METAR KBLI 211153Z AUTO 00000KT 10SM FEW075 BKN100 03/01 A3030 RMK AO2 SLP269 60000 T00280006 10044 20028 58004=
202211211053 METAR KBLI 211053Z AUTO 00000KT 8SM BKN070 OVC085 03/02 A3032 RMK AO2 SLP277 T00330022=
202211210953 METAR KBLI 210953Z AUTO 00000KT 8SM OVC070 03/03 A3031 RMK AO2 RAB0854E24 SLP274 P0000 T00330028=
202211210853 METAR KBLI 210853Z AUTO 00000KT 9SM OVC070 03/02 A3031 RMK AO2 SLP273 60000 T00330022 58004=
202211210753 METAR KBLI 210753Z AUTO 13003KT 9SM OVC065 03/02 A3033 RMK AO2 RAE45 SLP279 P0000 T00330017 400781039=
202211210653 METAR KBLI 210653Z AUTO 36003KT 8SM -RA OVC070 04/M01 A3033 RMK AO2 RAB36 SLP279 P0000 T00441006=
202211210553 METAR KBLI 210553Z 00000KT 10SM OVC065 04/M02 A3032 RMK AO2 SLP277 T00441017 10061 20028 53011=
202211210453 METAR KBLI 210453Z 36003KT 10SM FEW050 OVC070 04/M02 A3031 RMK AO2 SLP274 T00441022=
202211210353 METAR KBLI 210353Z 36004KT 10SM OVC085 04/M03 A3029 RMK AO2 SLP269 T00391028=
202211210253 METAR KBLI 210253Z 35004KT 10SM SCT090 BKN110 03/M02 A3029 RMK AO2 SLP267 T00331017 53004=
202211210153 METAR KBLI 210153Z 00000KT 10SM FEW070 SCT095 BKN110 04/M03 A3028 RMK AO2 SLP265 T00391028=
202211210053 METAR KBLI 210053Z 02004KT 10SM FEW070 SCT095 BKN110 05/M03 A3028 RMK AO2 SLP263 T00501028=
202211202353 METAR KBLI 202353Z 03005KT 10SM BKN110 06/M03 A3028 RMK AO2 SLP262 T00611033 10078 20028 56009=
202211202253 METAR KBLI 202253Z 03005KT 10SM SCT120 07/M02 A3028 RMK AO2 SLP264 T00721022=
202211202153 METAR KBLI 202153Z 01005KT 10SM FEW075 SCT090 BKN110 08/M02 A3029 RMK AO2 SLP266 T00781022=
202211202053 METAR KBLI 202053Z VRB04KT 10SM FEW080 SCT120 07/M02 A3031 RMK AO2 SLP271 T00721022 58005=
202211201953 METAR KBLI 201953Z 05003KT 10SM OVC110 06/M01 A3031 RMK AO2 SLP274 T00611011=
202211201853 METAR KBLI 201853Z 02004KT 10SM OVC110 05/M01 A3032 RMK AO2 SLP276 T00501011=
202211201753 METAR KBLI 201753Z 00000KT 10SM BKN110 03/M02 A3032 RMK AO2 SLP278 T00281017 10028 21039 51008=
202211201653 METAR KBLI 201653Z 00000KT 10SM CLR 01/M02 A3032 RMK AO2 SLP277 T00061022=
202211201553 METAR KBLI 201553Z 35003KT 10SM CLR M03/M04 A3031 RMK AO2 SLP275 T10331044=
202211201453 METAR KBLI 201453Z 36003KT 10SM CLR M03/M04 A3030 RMK AO2 SLP270 T10331044 50005=
202211201353 METAR KBLI 201353Z AUTO 00000KT 10SM CLR M02/M04 A3030 RMK AO2 SLP271 T10221039=
202211201253 METAR KBLI 201253Z AUTO 01003KT 10SM CLR M02/M03 A3030 RMK AO2 SLP269 T10171033=
202211201153 METAR KBLI 201153Z AUTO 00000KT 10SM BKN110 M01/M03 A3028 RMK AO2 SLP263 T10061028 11006 21033 50000=
202211201053 METAR KBLI 201053Z AUTO 01003KT 9SM FEW120 M02/M03 A3029 RMK AO2 SLP267 T10171033=
202211200953 METAR KBLI 200953Z AUTO 00000KT 10SM CLR M02/M04 A3029 RMK AO2 SLP265 T10171039=
202211200853 METAR KBLI 200853Z AUTO 00000KT 10SM CLR M03/M04 A3028 RMK AO2 SLP263 T10281044 50001=
202211200753 METAR KBLI 200753Z AUTO 00000KT 9SM CLR M02/M05 A3028 RMK AO2 SLP264 T10221050 400781044=
202211200653 METAR KBLI 200653Z AUTO 01003KT 10SM CLR M02/M06 A3028 RMK AO2 SLP264 T10221056=
202211200553 METAR KBLI 200553Z 03004KT 10SM CLR M02/M06 A3028 RMK AO2 SLP263 60000 T10171056 10056 21022 52004=
202211200453 METAR KBLI 200453Z 36003KT 9SM CLR M01/M06 A3027 RMK AO2 SLP262 T10061056=
202211200353 METAR KBLI 200353Z 36004KT 10SM CLR M01/M05 A3027 RMK AO2 SLP260 T10111050=
202211200253 METAR KBLI 200253Z 00000KT 10SM CLR M01/M04 A3027 RMK AO2 SLP259 60000 T10111044 52003=
202211200153 METAR KBLI 200153Z 00000KT 10SM CLR 01/M04 A3026 RMK AO2 SLP258 T00061044=
202211200053 METAR KBLI 200053Z 00000KT 10SM CLR 01/M04 A3026 RMK AO2 RAB04E14 SLP258 P0000 T00061039=
202211192353 METAR KBLI 192353Z 03004KT 10SM CLR 06/M04 A3026 RMK AO2 SLP256 T00561044 10078 20028 56013=
202211192253 METAR KBLI 192253Z 03006KT 10SM CLR 07/M04 A3026 RMK AO2 SLP257 T00721044=
202211192153 METAR KBLI 192153Z 03008KT 10SM CLR 07/M05 A3028 RMK AO2 SLP263 T00721050=
202211192053 METAR KBLI 192053Z 03007KT 10SM CLR 07/M04 A3030 RMK AO2 SLP268 T00671044 58014=
202211191953 METAR KBLI 191953Z 01007KT 10SM CLR 06/M04 A3032 RMK AO2 SLP276 T00611044=
202211191853 METAR KBLI 191853Z 03008KT 10SM CLR 05/M04 A3033 RMK AO2 SLP280 T00501044=
202211191753 METAR KBLI 191753Z 02006KT 10SM CLR 02/M04 A3034 RMK AO2 SLP283 T00221039 10022 21039 58003=
202211191653 METAR KBLI 191653Z 03004KT 10SM CLR 00/M04 A3035 RMK AO2 SLP286 T00001044=
202211191553 METAR KBLI 191553Z 03004KT 10SM CLR M03/M06 A3034 RMK AO2 SLP285 T10281056=
202211191453 METAR KBLI 191453Z 02003KT 10SM CLR M03/M06 A3035 RMK AO2 SLP287 T10331061 56011=
202211191353 METAR KBLI 191353Z AUTO 01005KT 10SM CLR M03/M06 A3036 RMK AO2 SLP291 T10281061=
202211191253 METAR KBLI 191253Z AUTO 02005KT 10SM CLR M02/M06 A3037 RMK AO2 SLP293 T10221061=
202211191153 METAR KBLI 191153Z AUTO 05007KT 10SM CLR M02/M06 A3038 RMK AO2 SLP297 T10171056 11011 21044 58010=
202211191053 METAR KBLI 191053Z AUTO 01005KT 10SM CLR M03/M06 A3040 RMK AO2 SLP302 T10281061=
202211190953 METAR KBLI 190953Z AUTO 36004KT 10SM CLR M03/M06 A3040 RMK AO2 SLP305 T10281056=
202211190853 METAR KBLI 190853Z AUTO 35003KT 10SM CLR M03/M06 A3041 RMK AO2 SLP307 T10331056 50002=
202211190753 METAR KBLI 190753Z AUTO 00000KT 10SM CLR M03/M05 A3041 RMK AO2 SLP308 T10281050 400891044=
202211190653 METAR KBLI 190653Z AUTO 00000KT 10SM CLR M02/M05 A3040 RMK AO2 SLP305 T10221050=
202211190553 METAR KBLI 190553Z 00000KT 10SM CLR M02/M06 A3040 RMK AO2 SLP304 T10171056 10061 21017 55005=
202211190453 METAR KBLI 190453Z 01003KT 10SM CLR M01/M06 A3040 RMK AO2 SLP304 T10061056=
202211190353 METAR KBLI 190353Z 02003KT 10SM CLR 01/M06 A3041 RMK AO2 SLP309 T00061061=
202211190253 METAR KBLI 190253Z 02005KT 10SM CLR 02/M06 A3042 RMK AO2 SLP311 T00171056 56008=
202211190153 METAR KBLI 190153Z 33004KT 10SM CLR 02/M04 A3043 RMK AO2 SLP313 T00171044=
202211190053 METAR KBLI 190053Z 00000KT 10SM CLR 02/M04 A3043 RMK AO2 SLP314 T00171039=
202211182353 METAR KBLI 182353Z 05003KT 10SM CLR 06/M06 A3044 RMK AO2 SLP318 T00611061 10089 20044 58009=
202211182253 METAR KBLI 182253Z 03004KT 10SM CLR 08/M05 A3046 RMK AO2 SLP323 T00831050=
202211182153 METAR KBLI 182153Z 36005KT 10SM CLR 09/M06 A3047 RMK AO2 SLP326 T00891061=
202211182053 METAR KBLI 182053Z 02004KT 10SM CLR 08/M06 A3047 RMK AO2 SLP327 T00831061 58018=
202211181953 METAR KBLI 181953Z 07003KT 10SM CLR 07/M07 A3050 RMK AO2 SLP336 T00721067=
202211181853 METAR KBLI 181853Z 06007KT 10SM CLR 06/M06 A3052 RMK AO2 SLP344 T00611061=
202211181753 METAR KBLI 181753Z 04007KT 10SM CLR 04/M06 A3052 RMK AO2 SLP345 T00441061 10044 21028 50000=
202211181653 METAR KBLI 181653Z 02006KT 10SM CLR 03/M06 A3054 RMK AO2 SLP350 T00331061=
202211181553 METAR KBLI 181553Z 03008KT 10SM CLR 01/M06 A3053 RMK AO2 SLP347 T00111061=
202211181453 METAR KBLI 181453Z 02006KT 10SM CLR 00/M06 A3052 RMK AO2 SLP345 T00001056 51001=
202211181353 METAR KBLI 181353Z AUTO 00000KT 10SM CLR M01/M06 A3052 RMK AO2 SLP345 T10111056=
202211181253 METAR KBLI 181253Z AUTO 02005KT 10SM CLR M02/M06 A3052 RMK AO2 SLP344 T10221061=
202211181153 METAR KBLI 181153Z AUTO 05005KT 10SM CLR M01/M06 A3052 RMK AO2 SLP344 T10111056 10050 21017 56006=
202211181053 METAR KBLI 181053Z AUTO 05004KT 10SM CLR 01/M06 A3053 RMK AO2 SLP346 T00061061=
202211180953 METAR KBLI 180953Z AUTO 02006KT 10SM CLR 02/M07 A3052 RMK AO2 SLP345 T00171072=
202211180853 METAR KBLI 180853Z AUTO 04006KT 10SM CLR 03/M07 A3054 RMK AO2 SLP349 T00281072 53001=
202211180753 METAR KBLI 180753Z AUTO 03006KT 10SM CLR 04/M07 A3054 RMK AO2 SLP349 T00391067 401000028=
202211180653 METAR KBLI 180653Z AUTO 02008KT 10SM CLR 04/M08 A3053 RMK AO2 SLP346 T00441078=
202211180553 METAR KBLI 180553Z 04010KT 10SM CLR 05/M07 A3053 RMK AO2 SLP348 T00501067 10083 20044 55001=
202211180453 METAR KBLI 180453Z 05009G17KT 10SM CLR 06/M07 A3053 RMK AO2 SLP347 T00561067=
202211180353 METAR KBLI 180353Z 04011G20KT 10SM CLR 06/M07 A3054 RMK AO2 SLP349 T00611067=
202211180253 METAR KBLI 180253Z 04015G23KT 10SM CLR 07/M07 A3054 RMK AO2 SLP349 T00721067 53008=
202211180153 METAR KBLI 180153Z 05012G22KT 10SM CLR 07/M06 A3053 RMK AO2 SLP345 T00721056=
202211180053 METAR KBLI 180053Z 04012G18KT 10SM CLR 07/M05 A3052 RMK AO2 SLP342 T00721050=
202211172353 METAR KBLI 172353Z 03012G22KT 10SM CLR 08/M06 A3051 RMK AO2 PK WND 01026/2306 SLP341 T00831056 10100 20083 53002=
202211172253 METAR KBLI 172253Z 03013G29KT 10SM CLR 09/M04 A3051 RMK AO2 PK WND 04029/2249 SLP339 T00941039=
202211172153 METAR KBLI 172153Z 04013G26KT 10SM CLR 10/M04 A3050 RMK AO2 PK WND 03030/2135 SLP336 T01001044=
202211172053 METAR KBLI 172053Z 04014G32KT 10SM CLR 10/M04 A3051 RMK AO2 PK WND 05032/2047 SLP337 T01001039 50002=
202211171953 METAR KBLI 171953Z 04018G29KT 10SM CLR 09/M04 A3051 RMK AO2 PK WND 05032/1924 SLP338 T00941039=
202211171853 METAR KBLI 171853Z 04018G31KT 10SM CLR 09/M04 A3051 RMK AO2 PK WND 06032/1825 SLP341 T00891044=
202211171753 METAR KBLI 171753Z 05017G27KT 10SM CLR 08/M04 A3050 RMK AO2 PK WND 04035/1654 SLP338 T00831039 10083 20067 51024=
202211171653 METAR KBLI 171653Z 04017G28KT 10SM CLR 07/M04 A3048 RMK AO2 PK WND 06033/1557 SLP330 T00721044=
202211171553 METAR KBLI 171553Z 04015G38KT 10SM CLR 07/M04 A3045 RMK AO2 PK WND 04038/1458 SLP321 T00671044=
202211171453 METAR KBLI 171453Z 04024G46KT 10SM CLR 07/M04 A3043 RMK AO2 PK WND 04046/1449 SLP313 T00671044 53006=
202211171353 METAR KBLI 171353Z AUTO 04024G35KT 10SM CLR 07/M04 A3042 RMK AO2 PK WND 02043/1300 SLP309 T00721044=
202211171253 METAR KBLI 171253Z AUTO 04017G37KT 10SM CLR 08/M04 A3041 RMK AO2 PK WND 04042/1231 SLP307 T00831039=
202211171153 METAR KBLI 171153Z AUTO 04024G41KT 10SM CLR 08/M03 A3041 RMK AO2 PK WND 03041/1152 SLP306 I6001 T00831033 10100 21017 50000=
202211171053 METAR KBLI 171053Z AUTO 03021G35KT 10SM CLR 09/M02 A3041 RMK AO2 PK WND 03037/1035 SLP307 T00941022=
202211170953 METAR KBLI 170953Z AUTO 04019G34KT 10SM CLR 09/M01 A3042 RMK AO2 PK WND 03039/0921 SLP309 T00941011=
202211170853 METAR KBLI 170853Z AUTO 03018G34KT 10SM CLR 10/M01 A3041 RMK AO2 PK WND 04035/0806 SLP306 I3001 T01001006 55006=
202211170753 METAR KBLI 170753Z AUTO 03020G31KT 10SM CLR 10/00 A3041 RMK AO2 PK WND 04032/0738 SLP305 T01000000 401001039=
202211170705 SPECI KBLI 170705Z AUTO 05008KT 10SM FEW002 02/01 A3042 RMK AO2 T00220011=
202211170658 SPECI KBLI 170658Z AUTO 05005KT 2SM R16/3500VP6000FT BR SCT002 01/01 A3043 RMK AO2 T00110011=
202211170656 SPECI KBLI 170656Z AUTO 04005KT 1SM R16/3500VP6000FT BR VV002 01/01 A3043 RMK AO2 T00060006=
202211170653 METAR KBLI 170653Z AUTO 04006KT 1/2SM R16/2800VP6000FT FZFG VV002 M01/M01 A3043 RMK AO2 SLP314 I1001 T10061006=
202211170650 SPECI KBLI 170650Z AUTO VRB03KT 1/2SM R16/1400VP6000FT FZFG VV002 M01/M01 A3043 RMK AO2 I1000=
202211170643 SPECI KBLI 170643Z AUTO 00000KT 1/4SM R16/1400V2000FT FZFG VV002 M02/M02 A3043 RMK AO2 I1000 T10171017=
202211170553 METAR KBLI 170553Z 00000KT 1/4SM R16/1000V1600FT FZFG VV001 M01/M01 A3043 RMK AO2 SLP315 I1001 I6001 T10061006 10072 21022 56003=
202211170544 SPECI KBLI 170544Z 00000KT 1/4SM R16/1000V1800FT FZFG VV002 M02/M02 A3043 RMK AO2 I1000 T10171017=
202211170536 SPECI KBLI 170536Z 00000KT 10SM R16/0800V1800FT BCFG CLR M02/M02 A3044 RMK AO2 BCFG NW PORTION AFLD I1000 T10171017=
202211170525 SPECI KBLI 170525Z 00000KT 10SM R16/1000VP6000FT BCFG SCT005 M02/M02 A3044 RMK AO2 BCFG NW PORTION AFLD I1000 T10171017=
202211170453 METAR KBLI 170453Z 00000KT 10SM R16/1400VP6000FT CLR M01/M02 A3043 RMK AO2 SLP316 I1000 T10111017=
202211170422 SPECI KBLI 170422Z 00000KT 10SM R16/1400VP6000FT CLR M01/M02 A3043 RMK AO2 T10111017=
202211170412 SPECI KBLI 170412Z 00000KT 10SM R16/1400V2200FT FEW004 M01/M02 A3043 RMK AO2 T10111017=
202211170353 METAR KBLI 170353Z 00000KT 10SM R16/2600VP6000FT CLR M01/M01 A3044 RMK AO2 SLP317 T10061006=
202211170253 METAR KBLI 170253Z 00000KT 10SM CLR 00/00 A3044 RMK AO2 SLP318 T00000000 56006=
202211170153 METAR KBLI 170153Z 00000KT 10SM CLR 01/01 A3044 RMK AO2 SLP320 T00110011=
202211170053 METAR KBLI 170053Z 00000KT 10SM CLR 03/02 A3045 RMK AO2 SLP322 T00280022=
202211162353 METAR KBLI 162353Z 31003KT 10SM CLR 07/03 A3046 RMK AO2 SLP323 T00720033 10094 20000 56016=
202211162253 METAR KBLI 162253Z 33003KT 10SM CLR 09/01 A3047 RMK AO2 SLP328 T00940011=
202211162153 METAR KBLI 162153Z 02004KT 10SM CLR 09/01 A3049 RMK AO2 SLP333 T00940006=
202211162053 METAR KBLI 162053Z VRB03KT 10SM CLR 08/01 A3051 RMK AO2 SLP340 T00780006 58023=
202211161953 METAR KBLI 161953Z 03006KT 10SM CLR 06/01 A3054 RMK AO2 SLP350 T00560011=
202211161853 METAR KBLI 161853Z 03003KT 10SM CLR 02/01 A3056 RMK AO2 SLP359 T00220006 $=
202211161803 SPECI KBLI 161803Z 03003KT 7SM R16/2000VP6000FT CLR 01/01 A3057 RMK AO2 T00060006 $=
202211161753 METAR KBLI 161753Z 00000KT 1/4SM R16/1600V4500FT FG VV001 00/00 A3057 RMK AO2 SLP364 I6007 T00000000 10000 21039 57002 $=
202211161724 SPECI KBLI 161724Z 00000KT 1/4SM R16/0800V1000FT FG VV001 00/00 A3058 RMK AO2 T00000000 $=
202211161653 METAR KBLI 161653Z 00000KT 1/4SM R16/1200V1800FT FG VV002 00/00 A3058 RMK AO2 SLP366 I1006 T00000000 $=
202211161647 SPECI KBLI 161647Z 01003KT 1/4SM R16/1200V1800FT FG VV002 00/00 A3058 RMK AO2 I1006 $=
202211161553 METAR KBLI 161553Z 00000KT M1/4SM R16/0800V1000FT FZFG VV001 M01/M01 A3058 RMK AO2 SLP366 I1001 T10061006 $=
202211161453 METAR KBLI 161453Z 00000KT M1/4SM R16/1000FT FZFG VV001 M01/M01 A3058 RMK AO2 SLP367 I1000 I3000 T10111011 56001=
202211161416 SPECI KBLI 161416Z AUTO 03003KT M1/4SM R16/0800V1000FT FZFG VV001 M02/M02 A3058 RMK AO2 I1000 T10171017=
202211161408 SPECI KBLI 161408Z AUTO 00000KT 1/4SM R16/0800V1200FT FZFG VV001 M02/M02 A3058 RMK AO2 T10171017=
202211161353 METAR KBLI 161353Z AUTO 00000KT M1/4SM R16/0700V1000FT FZFG VV001 M02/M02 A3058 RMK AO2 SLP367 I1000 T10221022=
202211161316 SPECI KBLI 161316Z AUTO 00000KT M1/4SM R16/0800V1200FT FZFG VV001 M01/M01 A3058 RMK AO2 T10111011=
202211161304 SPECI KBLI 161304Z AUTO 35003KT 1/4SM R16/1200VP6000FT FZFG VV001 M02/M02 A3058 RMK AO2 T10221022=
202211161301 SPECI KBLI 161301Z AUTO 35003KT 3/4SM R16/2200VP6000FT BR VV001 M03/M03 A3058 RMK AO2 T10281028=
202211161259 SPECI KBLI 161259Z AUTO 35004KT 1 3/4SM R16/6000VP6000FT BR FEW001 M03/M03 A3058 RMK AO2 T10331033=
202211161253 METAR KBLI 161253Z AUTO 35004KT 7SM CLR M04/M04 A3058 RMK AO2 SLP367 I1000 T10391039=
202211161212 SPECI KBLI 161212Z AUTO 00000KT 4SM R16/2400VP6000FT BR SCT002 M03/M04 A3058 RMK AO2 T10331039=
202211161207 SPECI KBLI 161207Z AUTO 00000KT 2 1/2SM R16/2000VP6000FT BR BKN002 M03/M03 A3058 RMK AO2 T10281028=
202211161203 SPECI KBLI 161203Z AUTO 00000KT 1SM R16/2000V2600FT BR VV001 M03/M03 A3058 RMK AO2 T10281028=
202211161153 METAR KBLI 161153Z AUTO 00000KT 1/2SM R16/2600VP6000FT FZFG VV001 M03/M03 A3059 RMK AO2 SLP367 I6001 T10281028 10017 21033 56005=
202211161150 SPECI KBLI 161150Z AUTO 00000KT 1/2SM R16/2600VP6000FT FZFG VV001 M03/M03 A3059 RMK AO2=
202211161139 SPECI KBLI 161139Z AUTO 00000KT 1/4SM R16/2000VP6000FT FZFG VV001 M03/M03 A3059 RMK AO2 T10281028=
202211161115 SPECI KBLI 161115Z AUTO 00000KT 1/4SM R16/1400V2200FT FZFG VV001 M02/M02 A3059 RMK AO2 T10221022=
202211161108 SPECI KBLI 161108Z AUTO 02003KT 1/2SM R16/1600VP6000FT FZFG VV001 M02/M02 A3059 RMK AO2 T10221022=
202211161101 SPECI KBLI 161101Z AUTO 00000KT 1SM R16/3000VP6000FT BR VV001 M03/M03 A3059 RMK AO2 T10281028=
202211161053 METAR KBLI 161053Z AUTO 00000KT 1/2SM R16/2800V4000FT FZFG VV001 M02/M02 A3059 RMK AO2 SLP369 I1001 T10221022=
202211161030 SPECI KBLI 161030Z AUTO 00000KT 1/4SM R16/2400VP6000FT FZFG VV001 M02/M02 A3060 RMK AO2 I1000 T10171017=
202211161026 SPECI KBLI 161026Z AUTO 00000KT 3/4SM R16/3000VP6000FT BR VV001 M02/M02 A3060 RMK AO2 I1000 T10171017=
202211161024 SPECI KBLI 161024Z AUTO 00000KT 1 1/2SM R16/5500VP6000FT BR FEW002 M02/M02 A3060 RMK AO2 I1000 T10221022=
202211161017 SPECI KBLI 161017Z AUTO 00000KT 3SM R16/3000VP6000FT BR CLR M03/M03 A3060 RMK AO2 T10281028=
202211161009 SPECI KBLI 161009Z AUTO 00000KT 1SM R16/3000VP6000FT BR CLR M02/M02 A3060 RMK AO2 VIS 1/2V2 1/2 T10221022=
202211161002 SPECI KBLI 161002Z AUTO 35003KT 1/2SM R16/P6000FT FZFG CLR M02/M02 A3060 RMK AO2 T10221022=
202211160953 METAR KBLI 160953Z AUTO 00000KT 1/4SM R16/3500VP6000FT FZFG VV002 M03/M03 A3060 RMK AO2 SLP372 I1000 T10281028=
202211160947 SPECI KBLI 160947Z AUTO 00000KT 1/4SM R16/2600VP6000FT FZFG VV002 M02/M02 A3060 RMK AO2 I1000=
202211160942 SPECI KBLI 160942Z AUTO 00000KT 3/4SM R16/1200VP6000FT BR VV002 M02/M02 A3060 RMK AO2 I1000 T10221022=
202211160934 SPECI KBLI 160934Z AUTO 00000KT 1 1/2SM R16/1200V2000FT BR BKN002 M02/M02 A3060 RMK AO2 VIS 1V3 I1000 T10171017=
202211160924 SPECI KBLI 160924Z AUTO 00000KT 3/4SM R16/1400V2200FT BR VV002 M02/M02 A3060 RMK AO2 T10221022=
202211160921 SPECI KBLI 160921Z AUTO 00000KT 1SM R16/1400V3000FT BR VV002 M02/M02 A3060 RMK AO2 T10221022=
202211160917 SPECI KBLI 160917Z AUTO 00000KT 2SM R16/1400VP6000FT BR SCT002 M01/M01 A3060 RMK AO2 T10111011=
202211160853 METAR KBLI 160853Z AUTO 00000KT 7SM CLR M01/M02 A3061 RMK AO2 SLP373 I3000 T10111017 51005=
202211160753 METAR KBLI 160753Z AUTO 00000KT 10SM CLR 00/M01 A3060 RMK AO2 SLP373 T00001006 401061044=
202211160653 METAR KBLI 160653Z AUTO 34003KT 8SM CLR M01/M01 A3060 RMK AO2 SLP371 I1000 T10111011=
202211160553 METAR KBLI 160553Z 33003KT 10SM CLR M01/M01 A3059 RMK AO2 SLP369 T10061006 10078 21011 53008=
202211160453 METAR KBLI 160453Z 00000KT 10SM CLR 00/00 A3058 RMK AO2 SLP365 T00000000=
202211160353 METAR KBLI 160353Z 32003KT 10SM CLR 02/02 A3057 RMK AO2 SLP362 T00170017=
202211160253 METAR KBLI 160253Z 34003KT 10SM CLR 02/02 A3057 RMK AO2 SLP362 T00170017 52006=
202211160153 METAR KBLI 160153Z 00000KT 10SM CLR 02/01 A3056 RMK AO2 SLP359 T00170011=
202211160053 METAR KBLI 160053Z 00000KT 10SM CLR 03/02 A3056 RMK AO2 SLP358 T00330022=
202211152353 METAR KBLI 152353Z 35003KT 10SM CLR 08/04 A3055 RMK AO2 SLP354 T00780039 10106 20033 53004=
202211152253 METAR KBLI 152253Z 32005KT 10SM CLR 10/03 A3054 RMK AO2 SLP352 T01000033=
202211152153 METAR KBLI 152153Z VRB04KT 10SM CLR 10/03 A3054 RMK AO2 SLP352 T01000033=
202211152053 METAR KBLI 152053Z 01003KT 10SM CLR 10/02 A3054 RMK AO2 SLP351 T01000022 58004=
202211151953 METAR KBLI 151953Z 03004KT 10SM CLR 08/02 A3055 RMK AO2 SLP356 T00830022 $=
202211151853 METAR KBLI 151853Z 02004KT 10SM CLR 06/03 A3056 RMK AO2 SLP357 T00610028 $=
202211151753 METAR KBLI 151753Z 33003KT 10SM CLR 03/03 A3055 RMK AO2 SLP356 I6005 T00330028 10033 21044 51010 $=
202211151653 METAR KBLI 151653Z 00000KT 9SM CLR 00/00 A3055 RMK AO2 SLP354 I1001 T00000000=
202211151553 METAR KBLI 151553Z 00000KT 8SM CLR M03/M03 A3053 RMK AO2 SLP349 I1001 T10281028=
202211151453 METAR KBLI 151453Z 00000KT 8SM CLR M04/M04 A3052 RMK AO2 SLP346 I3003 T10391039 51006=
202211151353 METAR KBLI 151353Z AUTO 00000KT 8SM CLR M03/M03 A3052 RMK AO2 SLP344 I1002 T10281028=
202211151253 METAR KBLI 151253Z AUTO 00000KT 8SM CLR M03/M03 A3051 RMK AO2 SLP341 I1001 T10331033=
202211151153 METAR KBLI 151153Z AUTO 00000KT 8SM CLR M03/M03 A3050 RMK AO2 SLP338 I1001 I6002 T10281028 10000 21033 53005=
202211151053 METAR KBLI 151053Z AUTO 02003KT 7SM CLR M03/M03 A3050 RMK AO2 SLP337 I1000 T10331033=
202211151005 SPECI KBLI 151005Z AUTO 32003KT 3SM R16/3500VP6000FT BR FEW001 M02/M02 A3049 RMK AO2 T10171017=
202211151000 SPECI KBLI 151000Z AUTO 00000KT 1 1/4SM R16/3000VP6000FT BR SCT001 M02/M02 A3049 RMK AO2 T10221022=
202211150957 SPECI KBLI 150957Z AUTO 00000KT 3/4SM R16/2600V4000FT BR VV002 M02/M02 A3049 RMK AO2 T10171017=
202211150953 METAR KBLI 150953Z AUTO 00000KT 1/2SM R16/2600V4000FT FZFG VV001 M02/M02 A3049 RMK AO2 SLP334 T10221022=
202211150936 SPECI KBLI 150936Z AUTO 00000KT 1/2SM R16/1600V3500FT FZFG VV001 M02/M02 A3049 RMK AO2 T10171017=
202211150912 SPECI KBLI 150912Z AUTO 00000KT 1/4SM R16/1400V1600FT FZFG VV001 M02/M02 A3049 RMK AO2 T10171017=
202211150853 METAR KBLI 150853Z AUTO 00000KT 1/4SM R16/1400V1600FT FZFG VV002 M01/M01 A3049 RMK AO2 SLP333 I1001 I3001 T10111011 51007=
202211150842 SPECI KBLI 150842Z AUTO 02003KT 1/4SM R16/1400V2000FT FZFG VV002 M01/M01 A3048 RMK AO2 I1000 T10111011=
202211150834 SPECI KBLI 150834Z AUTO 35003KT 1/4SM R16/1600V2600FT FZFG VV001 M01/M01 A3048 RMK AO2 I1000 T10111011=
202211150823 SPECI KBLI 150823Z AUTO 00000KT 1/4SM R16/1400V1800FT FZFG VV001 M01/M01 A3048 RMK AO2 T10111011=
202211150801 SPECI KBLI 150801Z AUTO 00000KT M1/4SM R16/0800V1000FT FZFG VV001 M01/M01 A3048 RMK AO2 T10061006=
202211150753 METAR KBLI 150753Z AUTO 00000KT 1/4SM R16/1000FT FZFG VV001 M01/M01 A3048 RMK AO2 SLP330 I1000 T10061006 401001033=
202211150735 SPECI KBLI 150735Z AUTO 00000KT 1/4SM R16/0800V1800FT FZFG VV001 M01/M01 A3048 RMK AO2 I1000 T10061006=
202211150726 SPECI KBLI 150726Z AUTO 00000KT 1/4SM R16/1000V2200FT FZFG VV002 M01/M01 A3048 RMK AO2 I1000 T10111011=
202211150716 SPECI KBLI 150716Z AUTO 00000KT 1/4SM R16/1400V2200FT FZFG VV001 M02/M02 A3048 RMK AO2 T10171017=
202211150710 SPECI KBLI 150710Z AUTO 00000KT 1/4SM R16/1400V3000FT FZFG VV002 M02/M02 A3048 RMK AO2 T10171017=
202211150703 SPECI KBLI 150703Z AUTO 00000KT 1/4SM R16/0600V3000FT FZFG VV001 M01/M01 A3048 RMK AO2 T10111011=
202211150700 SPECI KBLI 150700Z AUTO 00000KT M1/4SM R16/0600V1800FT FZFG VV001 M01/M01 A3048 RMK AO2 T10111011=
202211150653 METAR KBLI 150653Z AUTO 00000KT 1/4SM R16/0600V1400FT FZFG VV001 M02/M02 A3048 RMK AO2 SLP330 I1000 T10171017=
202211150638 SPECI KBLI 150638Z AUTO 00000KT 1/2SM R16/1800VP6000FT FZFG VV001 M01/M01 A3048 RMK AO2 I1000 T10111011=
202211150635 SPECI KBLI 150635Z AUTO 00000KT 1 1/4SM R16/1800VP6000FT BR OVC001 M02/M02 A3048 RMK AO2 I1000 T10171017=
202211150553 METAR KBLI 150553Z 00000KT 10SM R16/1400V3500FT BCFG CLR M01/M01 A3047 RMK AO2 SLP327 I1000 I6000 T10111011 10072 21022 52009=
202211150503 SPECI KBLI 150503Z 00000KT 10SM BCFG CLR M01/M01 A3046 RMK AO2 T10061006=
202211150456 SPECI KBLI 150456Z 00000KT 1/2SM R16/P6000FT BCFG VV002 M02/M02 A3046 RMK AO2 T10171017=
202211150453 METAR KBLI 150453Z 00000KT 10SM BCFG CLR M02/M02 A3046 RMK AO2 SLP324 I1000 T10171017=
202211150353 METAR KBLI 150353Z 00000KT 10SM R16/2000VP6000FT CLR 00/00 A3045 RMK AO2 SLP321 T00000000=
202211150328 SPECI KBLI 150328Z 00000KT 10SM R16/1400VP6000FT FEW003 01/01 A3045 RMK AO2 T00060006=
202211150312 SPECI KBLI 150312Z 00000KT 10SM R16/3000VP6000FT CLR 00/00 A3044 RMK AO2 T00000000=
202211150257 SPECI KBLI 150257Z 00000KT 1 3/4SM BR CLR 01/00 A3044 RMK AO2 T00060000=
202211150253 METAR KBLI 150253Z 00000KT 10SM CLR 01/01 A3044 RMK AO2 SLP318 T00060006 53009=
202211150153 METAR KBLI 150153Z 00000KT 10SM FEW012 01/01 A3043 RMK AO2 SLP314 T00060006=
202211150053 METAR KBLI 150053Z 00000KT 10SM CLR 03/02 A3042 RMK AO2 SLP310 T00280022=
202211142353 METAR KBLI 142353Z 29003KT 10SM CLR 07/05 A3041 RMK AO2 SLP307 T00720050 10100 20033 55003=
202211142253 METAR KBLI 142253Z 22005KT 10SM FEW015 08/06 A3041 RMK AO2 SLP307 T00830061=
202211142153 METAR KBLI 142153Z 18005KT 10SM FEW010 09/04 A3040 RMK AO2 SLP305 T00890039=
202211142053 METAR KBLI 142053Z 00000KT 10SM FEW010 09/02 A3042 RMK AO2 SLP311 T00940022 58008=
202211141953 METAR KBLI 141953Z 03004KT 10SM FEW012 09/03 A3044 RMK AO2 SLP316 T00890028=
202211141853 METAR KBLI 141853Z 36003KT 10SM FEW012 07/03 A3044 RMK AO2 SLP316 T00670033=
202211141753 METAR KBLI 141753Z 00000KT 10SM CLR 03/02 A3044 RMK AO2 SLP320 I6002 T00330022 10033 21033 51005=
202211141653 METAR KBLI 141653Z 00000KT 10SM CLR 01/00 A3044 RMK AO2 SLP319 I1001 T00060000=
202211141553 METAR KBLI 141553Z 00000KT 10SM CLR M02/M02 A3043 RMK AO2 SLP316 I1001 T10221022=
202211141453 METAR KBLI 141453Z 00000KT 8SM CLR M02/M02 A3043 RMK AO2 SLP314 I3000 T10171022 53001=
202211141353 METAR KBLI 141353Z AUTO 00000KT 8SM CLR M02/M02 A3042 RMK AO2 SLP311 T10221022=
202211141253 METAR KBLI 141253Z AUTO 00000KT 7SM CLR M03/M03 A3042 RMK AO2 SLP313 I1000 T10281028=
202211141222 SPECI KBLI 141222Z AUTO 00000KT 3SM BR SCT002 M03/M03 A3042 RMK AO2 T10281028=
202211141218 SPECI KBLI 141218Z AUTO 00000KT 1SM R16/2200VP6000FT BR VV002 M03/M03 A3042 RMK AO2 T10281028=
202211141216 SPECI KBLI 141216Z AUTO 00000KT 3/4SM R16/1600VP6000FT BR VV001 M02/M02 A3042 RMK AO2 T10221022=
202211141207 SPECI KBLI 141207Z AUTO 00000KT 1/2SM R16/1600V2000FT FZFG VV001 M02/M02 A3042 RMK AO2 T10171017=
202211141156 SPECI KBLI 141156Z AUTO 00000KT 1SM R16/2800VP6000FT BR VV001 M02/M02 A3043 RMK AO2 T10221022=
202211141153 METAR KBLI 141153Z AUTO 00000KT 1/2SM R16/2000VP6000FT FZFG VV001 M02/M02 A3043 RMK AO2 SLP313 I1000 I6000 T10221022 10000 21028 52002=
202211141145 SPECI KBLI 141145Z AUTO 00000KT 1/2SM R16/1600V3000FT FZFG VV002 M03/M03 A3043 RMK AO2 T10281028=
202211141142 SPECI KBLI 141142Z AUTO 00000KT 1SM R16/1600V3000FT BR VV002 M02/M02 A3043 RMK AO2 VIS 1/2V2 T10171017=
202211141132 SPECI KBLI 141132Z AUTO 29003KT 3/4SM R16/2400V4000FT BR VV002 M02/M02 A3043 RMK AO2 T10171017=
202211141130 SPECI KBLI 141130Z AUTO 31003KT 1/2SM R16/2800V4000FT FZFG VV001 M02/M02 A3043 RMK AO2 T10171017=
202211141120 SPECI KBLI 141120Z AUTO 00000KT 1/4SM R16/1600V5000FT FZFG VV001 M02/M02 A3043 RMK AO2 T10171017=
202211141053 METAR KBLI 141053Z AUTO 00000KT 1/4SM R16/1000V1200FT FZFG VV001 M01/M01 A3042 RMK AO2 SLP312 I1000 T10061006=
202211141049 SPECI KBLI 141049Z AUTO 00000KT 1/4SM R16/1000V1800FT FZFG VV001 M01/M01 A3042 RMK AO2 I1000=
202211141040 SPECI KBLI 141040Z AUTO 00000KT 1/4SM R16/1600V4500FT FZFG VV001 M01/M01 A3043 RMK AO2 I1000 T10111011=
202211141036 SPECI KBLI 141036Z AUTO 00000KT 3/4SM R16/1800VP6000FT BR VV001 M01/M01 A3042 RMK AO2 VIS 1/4V4 T10111011=
202211141031 SPECI KBLI 141031Z AUTO 00000KT 2 1/2SM R16/4500VP6000FT BR OVC001 M02/M02 A3042 RMK AO2 VIS 1 1/4V4 T10171017=
202211141021 SPECI KBLI 141021Z AUTO 36003KT 1SM R16/P6000FT BR VV001 M02/M02 A3042 RMK AO2 T10221022=
202211141014 SPECI KBLI 141014Z AUTO 03003KT 1/2SM R16/3000VP6000FT FZFG VV001 M02/M02 A3042 RMK AO2 T10221022=
202211140953 METAR KBLI 140953Z AUTO 00000KT 1/4SM R16/1400V2800FT FZFG VV001 M02/M02 A3042 RMK AO2 SLP311 T10171017=
202211140911 SPECI KBLI 140911Z AUTO 00000KT 1/4SM R16/1800V2200FT FZFG VV001 M01/M01 A3042 RMK AO2 T10111011=
202211140902 SPECI KBLI 140902Z AUTO 00000KT 1/2SM R16/1400V1800FT FZFG VV001 M02/M02 A3042 RMK AO2 T10171017=
202211140853 METAR KBLI 140853Z AUTO 00000KT 1/4SM R16/1400VP6000FT FZFG VV001 M01/M01 A3042 RMK AO2 SLP312 I1000 I3000 T10111011 51002=
202211140849 SPECI KBLI 140849Z AUTO 00000KT 1/4SM R16/1600VP6000FT FZFG VV001 M01/M01 A3042 RMK AO2 I1000=
202211140825 SPECI KBLI 140825Z AUTO 00000KT 1/4SM R16/1600V2000FT FZFG VV001 M01/M01 A3042 RMK AO2 T10111011=
202211140818 SPECI KBLI 140818Z AUTO 00000KT 1/2SM R16/1800V2200FT FZFG VV001 M01/M01 A3042 RMK AO2 T10111011=
202211140803 SPECI KBLI 140803Z AUTO 00000KT 1/4SM R16/2000V3000FT FZFG VV001 M01/M01 A3042 RMK AO2 T10061006=
202211140753 METAR KBLI 140753Z AUTO 00000KT 1/4SM R16/1200V2000FT FZFG VV001 M01/M01 A3042 RMK AO2 SLP312 I1000 T10111011 400941017=
202211140709 SPECI KBLI 140709Z AUTO 00000KT 1/4SM R16/1200V1800FT FZFG VV001 M01/M01 A3042 RMK AO2 T10111011=
202211140652 METAR KBLI 140652Z AUTO 00000KT 1/4SM R16/1200V3000FT FZFG VV001 M01/M01 A3042 RMK AO2 SLP310 I1000 T10111011=
202211140651 SPECI KBLI 140651Z AUTO 00000KT 1/4SM R16/1200V3000FT FZFG VV001 M01/M01 A3042 RMK AO2 I1000=
202211140638 SPECI KBLI 140638Z AUTO 00000KT 1/4SM R16/1000V2200FT FG VV002 00/00 A3042 RMK AO2 I1000 T00000000=
202211140634 SPECI KBLI 140634Z AUTO 00000KT 1/2SM R16/1200VP6000FT FG VV002 00/00 A3042 RMK AO2 I1000 T00000000=
202211140624 SPECI KBLI 140624Z AUTO 00000KT 1/4SM R16/3000VP6000FT FG VV002 00/00 A3041 RMK AO2 I1000 T00000000=
202211140600 SPECI KBLI 140600Z 00000KT 10SM R16/2600VP6000FT FEW020 M01/M01 A3042 RMK AO2 T10111011=
202211140557 SPECI KBLI 140557Z 01003KT 3/4SM R16/2600VP6000FT BR CLR 00/00 A3042 RMK AO2 T00000000=
202211140553 METAR KBLI 140553Z 00000KT 10SM R16/2600V6000FT FEW020 M01/M01 A3042 RMK AO2 SLP311 I1000 I6000 T10111011 10072 21017 53003=
202211140453 METAR KBLI 140453Z 00000KT 10SM R16/3000VP6000FT FEW020 M01/M01 A3042 RMK AO2 SLP311 T10061006=
202211140353 METAR KBLI 140353Z 00000KT 10SM R16/1600V4000FT FEW020 01/01 A3041 RMK AO2 SLP309 T00060006=
202211140253 METAR KBLI 140253Z 00000KT 10SM FEW020 02/02 A3041 RMK AO2 SLP309 T00170017 51004=
202211140153 METAR KBLI 140153Z 30003KT 10SM FEW020 03/03 A3041 RMK AO2 SLP307 T00330033=
202211140053 METAR KBLI 140053Z 31003KT 10SM FEW020 04/04 A3041 RMK AO2 SLP307 T00440039=
202211132353 METAR KBLI 132353Z 29006KT 10SM CLR 07/04 A3040 RMK AO2 SLP304 T00720044 10094 20050 56002=
202211132253 METAR KBLI 132253Z 30006KT 10SM FEW024 08/04 A3040 RMK AO2 SLP304 T00830044=
202211132153 METAR KBLI 132153Z 31006KT 10SM CLR 08/04 A3040 RMK AO2 SLP302 T00830039=
202211132053 METAR KBLI 132053Z 30004KT 10SM CLR 09/02 A3041 RMK AO2 SLP305 T00890022 58005=
202211131953 METAR KBLI 131953Z 32004KT 10SM CLR 09/02 A3041 RMK AO2 SLP307 T00890022=
202211131853 METAR KBLI 131853Z 03005KT 10SM CLR 07/01 A3042 RMK AO2 SLP310 T00720011=
202211131753 METAR KBLI 131753Z 03006KT 10SM CLR 05/01 A3042 RMK AO2 SLP311 T00500006 10050 21006 51014=
202211131653 METAR KBLI 131653Z 02005KT 10SM CLR 02/00 A3042 RMK AO2 SLP311 T00220000=
202211131553 METAR KBLI 131553Z 36003KT 8SM CLR 00/00 A3040 RMK AO2 SLP306 T00000000=
202211131453 METAR KBLI 131453Z 35003KT 8SM CLR 00/00 A3038 RMK AO2 SLP298 T00000000 51007=
202211131416 SPECI KBLI 131416Z AUTO 00000KT 10SM SCT026 02/01 A3037 RMK AO2 T00170011=
202211131353 METAR KBLI 131353Z AUTO 00000KT 9SM OVC026 02/01 A3038 RMK AO2 SLP295 T00220011=
202211131253 METAR KBLI 131253Z AUTO 02003KT 7SM BKN024 OVC090 02/01 A3037 RMK AO2 SLP293 T00170011=
202211131153 METAR KBLI 131153Z AUTO 00000KT 6SM BR FEW023 OVC085 02/02 A3036 RMK AO2 SLP290 T00220022 10033 20022 51006=
202211131145 SPECI KBLI 131145Z AUTO 00000KT 6SM BR SCT022 OVC085 02/02 A3036 RMK AO2 T00220022=
202211131053 METAR KBLI 131053Z AUTO 00000KT 6SM BR BKN021 OVC085 03/02 A3036 RMK AO2 SLP289 T00280022=
202211130953 METAR KBLI 130953Z AUTO 00000KT 7SM OVC018 03/03 A3035 RMK AO2 SLP287 T00280028=
202211130943 SPECI KBLI 130943Z AUTO 00000KT 7SM BKN018 OVC090 02/02 A3035 RMK AO2 T00220022=
202211130853 METAR KBLI 130853Z AUTO 00000KT 7SM OVC090 03/02 A3034 RMK AO2 SLP283 T00280022 53007=
202211130753 METAR KBLI 130753Z AUTO 00000KT 9SM OVC085 03/03 A3033 RMK AO2 SLP279 T00330028 400941017=
202211130653 METAR KBLI 130653Z AUTO 00000KT 9SM OVC090 03/03 A3033 RMK AO2 SLP279 T00330028=
202211130553 METAR KBLI 130553Z 00000KT 10SM FEW020 BKN085 03/03 A3032 RMK AO2 SLP276 T00280028 10067 20000 53013=
202211130453 METAR KBLI 130453Z 00000KT 10SM FEW020 BKN085 03/02 A3030 RMK AO2 SLP270 T00280022=
202211130353 METAR KBLI 130353Z 00000KT 10SM OVC085 02/01 A3028 RMK AO2 SLP265 T00170011=
202211130253 METAR KBLI 130253Z 00000KT 10SM CLR 01/01 A3028 RMK AO2 SLP264 T00060006 53011=
202211130153 METAR KBLI 130153Z 00000KT 10SM CLR 01/00 A3026 RMK AO2 SLP258 T00110000=
202211130053 METAR KBLI 130053Z 30003KT 8SM CLR 04/02 A3026 RMK AO2 SLP255 T00390022=
202211122353 METAR KBLI 122353Z 28005KT 10SM CLR 07/03 A3025 RMK AO2 SLP252 T00670028 10094 20050 53002=
202211122253 METAR KBLI 122253Z 29003KT 10SM CLR 08/01 A3024 RMK AO2 SLP250 T00830011=
202211122153 METAR KBLI 122153Z 35005KT 10SM CLR 09/M01 A3024 RMK AO2 SLP248 T00941011=
202211122053 METAR KBLI 122053Z 04003KT 10SM CLR 09/M02 A3024 RMK AO2 SLP249 T00891017 58001=
202211121953 METAR KBLI 121953Z 36003KT 10SM CLR 08/M02 A3025 RMK AO2 SLP253 T00831017=
202211121853 METAR KBLI 121853Z 06006KT 10SM CLR 07/M02 A3025 RMK AO2 SLP253 T00671017=
202211121753 METAR KBLI 121753Z 02004KT 10SM CLR 05/M01 A3025 RMK AO2 SLP252 T00501011 10050 21017 50012=
202211121653 METAR KBLI 121653Z 03003KT 10SM CLR 02/M02 A3025 RMK AO2 SLP253 T00221022=
202211121553 METAR KBLI 121553Z 01003KT 10SM CLR 00/M03 A3023 RMK AO2 SLP247 T00001028=
202211121453 METAR KBLI 121453Z 00000KT 10SM CLR M01/M03 A3021 RMK AO2 SLP241 T10061028 53007=
202211121353 METAR KBLI 121353Z AUTO 36004KT 10SM CLR 01/M03 A3020 RMK AO2 SLP237 T00061033=
202211121253 METAR KBLI 121253Z AUTO 01005KT 10SM CLR 01/M03 A3019 RMK AO2 SLP234 T00111033=
202211121153 METAR KBLI 121153Z AUTO 03004KT 10SM CLR 03/M03 A3019 RMK AO2 SLP233 T00281028 10039 20022 51008=
202211121053 METAR KBLI 121053Z AUTO 00000KT 10SM CLR 03/M04 A3019 RMK AO2 SLP231 T00281044=
202211120953 METAR KBLI 120953Z AUTO 04005KT 10SM OVC110 04/M03 A3018 RMK AO2 SLP229 T00391033=
202211120853 METAR KBLI 120853Z AUTO 02005KT 10SM OVC110 03/M03 A3017 RMK AO2 SLP225 T00281028 51006=
202211120753 METAR KBLI 120753Z AUTO 00000KT 10SM OVC100 02/M02 A3017 RMK AO2 SLP225 T00221022 400671006=
202211120653 METAR KBLI 120653Z AUTO 00000KT 10SM OVC110 03/M02 A3016 RMK AO2 SLP222 T00281022=
202211120553 METAR KBLI 120553Z 00000KT 10SM OVC110 02/M02 A3015 RMK AO2 SLP219 T00221017 10061 20006 53005=
202211120453 METAR KBLI 120453Z 00000KT 10SM CLR 03/M02 A3014 RMK AO2 SLP217 T00281022=
202211120353 METAR KBLI 120353Z 34003KT 10SM BKN110 02/M01 A3014 RMK AO2 SLP214 T00221011=
202211120253 METAR KBLI 120253Z 32004KT 10SM BKN110 01/M02 A3014 RMK AO2 SLP214 T00111017 53005=
202211120153 METAR KBLI 120153Z 01005KT 10SM BKN100 03/M02 A3013 RMK AO2 SLP211 T00331022=
202211120053 METAR KBLI 120053Z 03006KT 10SM BKN090 BKN110 05/M04 A3013 RMK AO2 SLP211 T00501039=
202211112353 METAR KBLI 112353Z 35003KT 10SM OVC100 06/M03 A3012 RMK AO2 SLP209 T00611028 10067 20039 58002=
202211112253 METAR KBLI 112253Z 02009KT 10SM OVC110 07/M03 A3012 RMK AO2 SLP209 T00671033=
202211112153 METAR KBLI 112153Z 04007KT 10SM OVC095 06/M04 A3013 RMK AO2 SLP212 T00611039=
202211112053 METAR KBLI 112053Z 36007KT 10SM OVC085 06/M03 A3013 RMK AO2 SLP211 T00611033 56015=
202211111953 METAR KBLI 111953Z 02010KT 10SM BKN090 06/M03 A3014 RMK AO2 SLP214 T00561033=
202211111853 METAR KBLI 111853Z 01006KT 10SM FEW090 04/M03 A3016 RMK AO2 SLP222 T00441028=
202211111753 METAR KBLI 111753Z 03005KT 10SM OVC090 04/M03 A3017 RMK AO2 SLP226 T00391028 10039 20011 58003=
202211111653 METAR KBLI 111653Z 03004KT 10SM OVC100 03/M03 A3018 RMK AO2 SLP229 T00281028=
202211111553 METAR KBLI 111553Z 02005KT 10SM BKN100 02/M03 A3018 RMK AO2 SLP227 T00221028=
202211111453 METAR KBLI 111453Z 02006KT 10SM OVC085 02/M02 A3018 RMK AO2 SLP229 T00221022 58013=
202211111353 METAR KBLI 111353Z AUTO 01004KT 10SM OVC095 02/M02 A3020 RMK AO2 SLP236 T00171022=
202211111253 METAR KBLI 111253Z AUTO 02005KT 10SM BKN110 01/M02 A3021 RMK AO2 SLP240 T00111022=
202211111153 METAR KBLI 111153Z AUTO 03005KT 10SM CLR 01/M02 A3022 RMK AO2 SLP242 T00111022 10011 21006 58013=
202211111053 METAR KBLI 111053Z AUTO 02004KT 10SM CLR 01/M02 A3024 RMK AO2 SLP248 T00061022=
202211110953 METAR KBLI 110953Z AUTO 36004KT 10SM CLR M01/M03 A3024 RMK AO2 SLP250 T10061028=
202211110853 METAR KBLI 110853Z AUTO 02003KT 10SM CLR 00/M02 A3026 RMK AO2 SLP255 T00001022 58015=
202211110753 METAR KBLI 110753Z AUTO 01004KT 10SM CLR M01/M03 A3028 RMK AO2 SLP262 T10061028 400501006=
202211110653 METAR KBLI 110653Z AUTO 35003KT 10SM CLR 00/M02 A3029 RMK AO2 SLP267 T00001022=
202211110553 METAR KBLI 110553Z 36005KT 10SM BKN050 01/M02 A3030 RMK AO2 SLP270 T00061022 10039 20006 57010=
202211110453 METAR KBLI 110453Z 01006KT 10SM BKN050 02/M02 A3031 RMK AO2 SLP274 T00171022=
202211110353 METAR KBLI 110353Z 36006KT 10SM OVC050 02/M02 A3032 RMK AO2 SLP277 T00171022=
202211110253 METAR KBLI 110253Z 36004KT 10SM BKN055 01/M02 A3033 RMK AO2 SLP282 T00111022 58009=
202211110153 METAR KBLI 110153Z 02004KT 10SM OVC055 02/M02 A3034 RMK AO2 SLP284 T00171022=
202211110053 METAR KBLI 110053Z 02004KT 10SM BKN055 03/M02 A3036 RMK AO2 SLP288 T00281022=
202211102353 METAR KBLI 102353Z 03003KT 10SM BKN055 04/M02 A3036 RMK AO2 SLP290 T00391022 10050 20022 56010=
202211102253 METAR KBLI 102253Z 02005KT 10SM OVC055 04/M01 A3037 RMK AO2 SLP292 T00441006=
202211102153 METAR KBLI 102153Z 03006KT 10SM OVC055 04/M02 A3038 RMK AO2 SLP297 T00441017=
202211102053 METAR KBLI 102053Z 02004KT 10SM OVC055 04/M02 A3039 RMK AO2 SLP300 T00441022 58005=
202211101953 METAR KBLI 101953Z 03006KT 10SM OVC055 04/M02 A3040 RMK AO2 SLP303 T00391022=
202211101853 METAR KBLI 101853Z 03007KT 10SM OVC055 03/M02 A3041 RMK AO2 SLP306 T00331022=
202211101753 METAR KBLI 101753Z 35005KT 10SM OVC055 02/M02 A3040 RMK AO2 SLP306 T00221022 10022 20006 51010=
202211101653 METAR KBLI 101653Z 02004KT 10SM OVC055 02/M03 A3040 RMK AO2 SLP305 T00171028=
202211101553 METAR KBLI 101553Z 35004KT 10SM OVC055 01/M03 A3039 RMK AO2 SLP303 T00111028=
202211101453 METAR KBLI 101453Z 01004KT 10SM BKN041 OVC055 01/M03 A3038 RMK AO2 SLP296 T00111028 53006=
202211101353 METAR KBLI 101353Z AUTO 02003KT 10SM FEW043 OVC055 01/M03 A3036 RMK AO2 SLP292 T00061028=
202211101253 METAR KBLI 101253Z AUTO 02003KT 10SM OVC050 01/M03 A3036 RMK AO2 SLP291 T00061033=
202211101153 METAR KBLI 101153Z AUTO 02004KT 10SM BKN036 OVC055 01/M04 A3036 RMK AO2 SLP289 T00061044 10006 20000 50008=
202211101053 METAR KBLI 101053Z AUTO 01004KT 10SM SCT036 OVC050 01/M04 A3036 RMK AO2 SLP290 T00061039=
202211100953 METAR KBLI 100953Z AUTO 36004KT 10SM OVC046 00/M03 A3035 RMK AO2 SLP287 T00001033=
202211100853 METAR KBLI 100853Z AUTO 01003KT 10SM OVC043 01/M03 A3033 RMK AO2 SLP281 T00061028 53015=
202211100753 METAR KBLI 100753Z AUTO 02003KT 10SM OVC040 01/M02 A3031 RMK AO2 SLP274 T00061022 400611028=
202211100653 METAR KBLI 100653Z AUTO 01003KT 10SM OVC040 01/M01 A3030 RMK AO2 SLP270 T00061011=
202211100553 METAR KBLI 100553Z 36003KT 10SM OVC034 00/M02 A3029 RMK AO2 SLP267 T00001017 10033 21028 51022=
202211100453 METAR KBLI 100453Z 00000KT 10SM BKN037 M02/M03 A3027 RMK AO2 SLP260 T10171028=
202211100353 METAR KBLI 100353Z 00000KT 10SM CLR M02/M03 A3025 RMK AO2 SLP253 T10171028=
202211100253 METAR KBLI 100253Z 00000KT 10SM CLR M02/M03 A3022 RMK AO2 SLP245 T10171028 51023=
202211100153 METAR KBLI 100153Z 00000KT 10SM CLR M01/M03 A3021 RMK AO2 SLP239 T10111033=
202211100053 METAR KBLI 100053Z 00000KT 10SM CLR 01/M03 A3018 RMK AO2 SLP230 T00061028=
202211092353 METAR KBLI 092353Z 00000KT 10SM CLR 03/M05 A3016 RMK AO2 SLP221 T00331050 10061 20022 52016=
202211092253 METAR KBLI 092253Z 06003KT 10SM CLR 06/M06 A3014 RMK AO2 SLP216 T00561056=
202211092153 METAR KBLI 092153Z 05005KT 10SM CLR 06/M06 A3013 RMK AO2 SLP211 T00611061=
202211092053 METAR KBLI 092053Z 04006KT 10SM CLR 05/M06 A3011 RMK AO2 SLP205 T00501061 51012=
202211091953 METAR KBLI 091953Z 03008KT 10SM CLR 05/M06 A3010 RMK AO2 SLP202 T00501061=
202211091853 METAR KBLI 091853Z 04009KT 10SM CLR 04/M07 A3009 RMK AO2 SLP199 T00391067=
202211091753 METAR KBLI 091753Z 03010G21KT 10SM CLR 02/M07 A3007 RMK AO2 SLP193 T00221072 10022 21017 53019=
202211091653 METAR KBLI 091653Z 02010G19KT 10SM CLR 01/M08 A3005 RMK AO2 SLP188 T00061078=
202211091553 METAR KBLI 091553Z 03012KT 10SM CLR M01/M08 A3004 RMK AO2 SLP181 T10111078=
202211091453 METAR KBLI 091453Z 02012G19KT 10SM CLR M01/M08 A3002 RMK AO2 SLP176 T10111083 53010=
202211091353 METAR KBLI 091353Z AUTO 03011KT 10SM CLR M01/M08 A3001 RMK AO2 SLP171 T10111078=
202211091253 METAR KBLI 091253Z AUTO 03011G18KT 10SM CLR M01/M08 A2999 RMK AO2 SLP166 T10061078=
202211091153 METAR KBLI 091153Z AUTO 02013G19KT 10SM CLR 00/M08 A2999 RMK AO2 SLP164 T00001078 10011 20000 51006=
202211091053 METAR KBLI 091053Z AUTO 03012G19KT 10SM CLR 00/M07 A2999 RMK AO2 SLP163 T00001072=
202211090953 METAR KBLI 090953Z AUTO 01010KT 10SM CLR 00/M07 A2998 RMK AO2 SLP160 T00001072=
202211090853 METAR KBLI 090853Z AUTO 02014G20KT 10SM CLR 01/M07 A2997 RMK AO2 PK WND 02026/0818 SLP158 T00061072 53002=
202211090753 METAR KBLI 090753Z AUTO 03013G25KT 10SM CLR 01/M07 A2996 RMK AO2 SLP156 T00111072 400441006=
202211090653 METAR KBLI 090653Z AUTO 02012G19KT 10SM CLR 01/M07 A2996 RMK AO2 PK WND 02027/0555 SLP155 T00111072=
202211090553 METAR KBLI 090553Z 02016G25KT 10SM CLR 01/M07 A2996 RMK AO2 PK WND 03027/0522 SLP156 60000 T00111072 10033 20011 58002=
202211090453 METAR KBLI 090453Z 02014G21KT 10SM CLR 01/M07 A2997 RMK AO2 PK WND 03029/0404 SLP158 T00111072=
202211090353 METAR KBLI 090353Z 03015G27KT 10SM CLR 02/M07 A2997 RMK AO2 PK WND 02029/0336 SLP158 T00171072=
202211090253 METAR KBLI 090253Z 02014G25KT 10SM CLR 02/M07 A2997 RMK AO2 PK WND 02033/0228 SLP159 60000 T00171072 53008=
202211090153 METAR KBLI 090153Z 02017G29KT 10SM CLR 02/M07 A2996 RMK AO2 PK WND 04029/0100 SLP155 T00221072=
202211090053 METAR KBLI 090053Z 02015G28KT 10SM CLR 02/M07 A2995 RMK AO2 PK WND 03031/0003 RAB28E35 SLP152 P0000 T00221072=
202211082353 METAR KBLI 082353Z 03017G31KT 10SM CLR 03/M07 A2995 RMK AO2 PK WND 36036/2322 SLP150 T00331072 10044 20011 56011=
202211082253 METAR KBLI 082253Z 02019G32KT 10SM CLR 04/M07 A2995 RMK AO2 PK WND 02032/2250 SLPNO T00441072=
202211082153 METAR KBLI 082153Z 02019G33KT 10SM FEW100 04/M08 A2997 RMK AO2 PK WND 04040/2104 SLPNO T00441078=
202211082053 METAR KBLI 082053Z 03021G38KT 10SM FEW100 04/M08 A2998 RMK AO2 PK WND 03038/2053 SLPNO T00391078 58003=
202211081953 METAR KBLI 081953Z 03019G34KT 10SM FEW085 SCT100 03/M08 A2999 RMK AO2 PK WND 36036/1925 SLPNO T00331083=
202211081853 METAR KBLI 081853Z 03019G36KT 10SM BKN080 02/M09 A3000 RMK AO2 PK WND 04038/1815 SLPNO T00221089=
202211081753 METAR KBLI 081753Z 03021G34KT 10SM CLR 02/M09 A2999 RMK AO2 PK WND 04040/1731 SLPNO T00171094 10017 21006 51011=
202211081653 METAR KBLI 081653Z 04019G34KT 10SM FEW100 01/M10 A2999 RMK AO2 PK WND 03036/1610 SLP165 T00111100=
202211081553 METAR KBLI 081553Z 03017G33KT 10SM BKN075 00/M10 A2997 RMK AO2 PK WND 03037/1503 SLP158 T00001100=
202211081453 METAR KBLI 081453Z 03018G31KT 10SM BKN075 BKN100 M01/M10 A2995 RMK AO2 PK WND 05035/1410 SLP153 T10061100 51018=
202211081353 METAR KBLI 081353Z AUTO 04020G35KT 10SM OVC080 00/M10 A2994 RMK AO2 PK WND 03035/1348 SLP148 T00001100 $=
202211081253 METAR KBLI 081253Z AUTO 04022G34KT 10SM OVC075 00/M10 A2992 RMK AO2 PK WND 04034/1252 SLP142 T00001100 $=
202211081153 METAR KBLI 081153Z AUTO 04020G30KT 10SM OVC070 00/M10 A2990 RMK AO2 PK WND 04036/1128 SLP136 6//// 7//// T00001100 51009 $=
202211081053 METAR KBLI 081053Z AUTO A2989 RMK AO2 SLPNO PWINO FZRANO $=
202211080953 METAR KBLI 080953Z AUTO A2988 RMK AO2 SLPNO PWINO FZRANO $=
202211080853 METAR KBLI 080853Z AUTO A2987 RMK AO2 SLPNO 6//// 53017 PWINO FZRANO $=
202211080753 METAR KBLI 080753Z AUTO A2985 RMK AO2 SLPNO 400441006 PWINO FZRANO $=
202211080653 METAR KBLI 080653Z AUTO A2982 RMK AO2 SNE16 SLPNO PWINO FZRANO PNO $=
202211080605 SPECI KBLI 080605Z 03016G30KT 7SM -SN SCT016 BKN038 OVC047 M01/M08 A2982 RMK AO2 T10061083 PNO $=
202211080553 METAR KBLI 080553Z -SN A2982 RMK AO2 PK WND 04033/0455 SLPNO P0000 60000 53025 $=
202211080453 METAR KBLI 080453Z 04018G35KT 9SM -SN BKN038 OVC047 01/M11 A2978 RMK AO2 PK WND 05037/0435 SNB39 SLP095 P0000 T00061111 $=
202211080353 METAR KBLI 080353Z 04023G39KT 10SM OVC060 01/M09 A2976 RMK AO2 PK WND 05039/0352 SLP086 T00061094=
202211080253 METAR KBLI 080253Z 04021G32KT 10SM FEW043 BKN055 OVC070 01/M09 A2975 RMK AO2 PK WND 03036/0230 SNE22 SLP083 P0000 60000 T00111089 53016=
202211080153 METAR KBLI 080153Z 04017G30KT 9SM -SN BKN045 OVC070 01/M08 A2974 RMK AO2 PK WND 03038/0101 SLP080 P0000 T00111083=
202211080053 METAR KBLI 080053Z 03020G35KT 9SM -SN FEW060 01/M08 A2971 RMK AO2 PK WND 03036/0028 SNB41 SLP069 P0000 T00111078=
202211072353 METAR KBLI 072353Z 03016G29KT 10SM FEW040 OVC055 02/M07 A2970 RMK AO2 PK WND 05032/2340 SLP067 60000 T00171072 10028 20006 53009=
202211072253 METAR KBLI 072253Z 03017G31KT 10SM SCT035 BKN055 02/M07 A2970 RMK AO2 PK WND 04033/2209 SLP064 T00221067=
202211072153 METAR KBLI 072153Z 03017G29KT 10SM BKN050 OVC060 02/M06 A2968 RMK AO2 PK WND 04029/2143 SLP060 T00221061=
202211072111 SPECI KBLI 072111Z 04013G27KT 10SM SCT028 OVC050 03/M06 A2968 RMK AO2 PK WND 04027/2104 T00281061=
202211072053 METAR KBLI 072053Z 04018G27KT 10SM BKN028 OVC055 02/M06 A2968 RMK AO2 PK WND 04027/2020 SLP058 60000 T00221061 51015=
202211071953 METAR KBLI 071953Z 04013G23KT 10SM OVC022 02/M04 A2966 RMK AO2 PK WND 04026/1942 SNE44 SLP053 P0000 T00221044=
202211071853 METAR KBLI 071853Z 04014G25KT 5SM -SN OVC014 01/M04 A2966 RMK AO2 PK WND 05030/1802 SNB1754 SLP052 P0000 T00111039=
202211071753 METAR KBLI 071753Z 04013G23KT 5SM HZ OVC014 01/M04 A2963 RMK AO2 PK WND 05031/1720 SNE42 SLP043 P0000 60000 T00111044 10028 20006 51033=
202211071653 METAR KBLI 071653Z AUTO 04014G22KT 9SM -SN OVC029 01/M04 A2961 RMK AO2 PK WND 03031/1609 SNB27 SLP035 P0000 T00111039=
202211071553 METAR KBLI 071553Z AUTO 03016G23KT 10SM BKN039 OVC060 02/M03 A2957 RMK AO2 SLP022 T00171033=
202211071453 METAR KBLI 071453Z AUTO 03012G23KT 10SM OVC065 02/M03 A2954 RMK AO2 SLP010 T00171028 53022=
202211071353 METAR KBLI 071353Z AUTO 04012G21KT 10SM SCT090 02/M02 A2951 RMK AO2 SLP002 T00221022=
202211071253 METAR KBLI 071253Z AUTO 02008G16KT 10SM FEW080 03/M01 A2949 RMK AO2 SLP996 T00281006=
202211071153 METAR KBLI 071153Z AUTO 02006KT 10SM FEW033 OVC045 03/02 A2947 RMK AO2 RAE23 SLP988 P0000 60001 70038 T00280017 10044 20017 53007=
202211071128 SPECI KBLI 071128Z AUTO 02007KT 10SM FEW020 SCT029 OVC042 03/02 A2946 RMK AO2 RAE23 P0000 T00280022=
202211071053 METAR KBLI 071053Z AUTO 34005KT 10SM -RA BKN018 BKN028 OVC038 03/03 A2946 RMK AO2 SLP985 P0001 T00330033=
202211070953 METAR KBLI 070953Z AUTO 34006KT 10SM -RA BKN018 BKN031 OVC042 03/03 A2945 RMK AO2 RAB04 SLP981 P0000 T00330033=
202211070853 METAR KBLI 070853Z AUTO 02009KT 10SM FEW033 BKN060 OVC075 04/03 A2945 RMK AO2 SLP980 T00390028 55002=
202211070753 METAR KBLI 070753Z AUTO 01003KT 10SM OVC060 03/03 A2944 RMK AO2 SLP977 T00330028 400780017=
202211070653 METAR KBLI 070653Z AUTO 01004KT 10SM BKN090 BKN110 02/02 A2944 RMK AO2 SLP977 T00220022=
202211070553 METAR KBLI 070553Z 03003KT 10SM FEW025 SCT050 BKN080 02/02 A2945 RMK AO2 SLP982 T00170017 10056 20017 58017=
202211070453 METAR KBLI 070453Z 00000KT 10SM SCT020 BKN055 BKN100 03/02 A2947 RMK AO2 SLP990 T00280022=
202211070353 METAR KBLI 070353Z 01003KT 10SM SCT020 BKN050 03/03 A2949 RMK AO2 SLP994 T00280028=
202211070253 METAR KBLI 070253Z VRB03KT 10SM FEW010 BKN030 BKN040 03/03 A2950 RMK AO2 SLP998 T00330033 50001=
202211070153 METAR KBLI 070153Z 00000KT 10SM SCT015 BKN040 04/03 A2950 RMK AO2 SLP999 T00440033=
202211070053 METAR KBLI 070053Z 36005KT 10SM FEW015 SCT025 BKN035 05/04 A2950 RMK AO2 SLP999 T00500039=
202211062353 METAR KBLI 062353Z 03004KT 10SM BKN037 OVC047 06/05 A2950 RMK AO2 SLP997 60002 T00560050 10078 20033 55000=
202211062253 METAR KBLI 062253Z 20003KT 10SM FEW015 BKN040 BKN050 07/03 A2949 RMK AO2 SLP995 T00720033=
202211062153 METAR KBLI 062153Z 16011G17KT 10SM FEW012 BKN025 BKN070 07/04 A2948 RMK AO2 SLP990 T00720039=
202211062053 METAR KBLI 062053Z 16009G18KT 10SM OVC022 07/04 A2950 RMK AO2 SLP996 60002 T00670039 58005=
202211062020 SPECI KBLI 062020Z 07006KT 10SM BKN027 BKN032 OVC047 04/04 A2950 RMK AO2 T00440044=
202211062012 SPECI KBLI 062012Z 07006KT 10SM SCT029 BKN041 OVC047 04/04 A2950 RMK AO2 T00440044=
202211061953 METAR KBLI 061953Z 13007KT 10SM FEW016 BKN028 OVC034 06/04 A2951 RMK AO2 RAE28 SLP001 P0001 T00560044=
202211061858 SPECI KBLI 061858Z 20004KT 3SM -RA BR FEW006 SCT011 OVC019 04/04 A2952 RMK AO2 P0000 T00390039=
202211061853 METAR KBLI 061853Z VRB06KT 2SM -RA BR FEW006 BKN011 OVC022 04/04 A2951 RMK AO2 RAB27 SLP002 P0001 T00390039=
202211061849 SPECI KBLI 061849Z 22007KT 180V260 2SM -RA BR FEW006 BKN010 OVC022 03/03 A2951 RMK AO2 RAB27 P0001=
202211061841 SPECI KBLI 061841Z 2 1/2SM -RA BR FEW006 BKN015 OVC023 03/03 A2952 RMK AO2 RAB27 P0001 T00330033=
202211061834 SPECI KBLI 061834Z VRB04KT 2SM RA BR BKN013 BKN023 OVC031 03/03 A2952 RMK AO2 RAB27 P0001 T00330033=
202211061816 SPECI KBLI 061816Z 33005KT 10SM FEW023 BKN029 BKN036 03/03 A2950 RMK AO2 T00330033=
202211061753 METAR KBLI 061753Z 32006KT 10SM FEW033 FEW050 SCT110 03/03 A2948 RMK AO2 RAE16UPB16E22 PRESRR SLP991 P0002 60035 T00330033 10044 20022 58015=
202211061723 SPECI KBLI 061723Z 06007KT 10SM FEW017 SCT022 OVC032 03/03 A2949 RMK AO2 RAE16UPB16E22 P0001 T00280028=
202211061653 METAR KBLI 061653Z 05006KT 4SM -RA BR OVC019 03/03 A2952 RMK AO2 SLP005 P0011 T00280028=
202211061553 METAR KBLI 061553Z 36004KT 7SM -RA OVC019 02/02 A2953 RMK AO2 SLP008 P0014 T00220022=
202211061453 METAR KBLI 061453Z 04006KT 6SM RA BR OVC022 03/03 A2952 RMK AO2 SLP007 P0005 60008 T00330033 56021=
202211061353 METAR KBLI 061353Z AUTO 05006KT 9SM -RA OVC024 04/04 A2954 RMK AO2 SLP011 P0003 T00390039=
202211061253 METAR KBLI 061253Z AUTO 36004KT 10SM -RA OVC029 04/03 A2955 RMK AO2 RAB23 SLP016 P0000 T00390033=
202211061243 SPECI KBLI 061243Z AUTO 03007KT 10SM -RA OVC029 04/03 A2956 RMK AO2 RAB23 P0000 T00390033=
202211061153 METAR KBLI 061153Z AUTO 00000KT 10SM OVC033 04/03 A2959 RMK AO2 RAE38 SLP026 P0001 60001 70001 T00440033 10067 20044 58039=
202211061053 METAR KBLI 061053Z AUTO 11007KT 10SM -RA OVC037 05/03 A2964 RMK AO2 PRESFR SLP044 P0000 T00500028=
202211061011 SPECI KBLI 061011Z AUTO 12010KT 10SM -RA OVC033 04/03 A2968 RMK AO2 PRESFR P0000 T00440033=
202211060953 METAR KBLI 060953Z AUTO 13012G20KT 9SM -RA OVC029 05/03 A2970 RMK AO2 RAE15B32 SLP066 P0000 T00500028=
202211060951 SPECI KBLI 060951Z AUTO 13013G20KT 9SM -RA BKN029 OVC035 05/03 A2970 RMK AO2 RAE15B32 P0000=
202211060853 METAR KBLI 060853Z AUTO 15015G25KT 10SM -RA SCT065 OVC080 07/02 A2974 RMK AO2 RAB53 SLP078 P0000 60000 T00670017 58033=
202211060753 METAR KBLI 060753Z AUTO 12007KT 10SM FEW041 FEW070 OVC100 06/02 A2978 RMK AO2 SLP092 T00610017 401000044=
202211060653 METAR KBLI 060653Z AUTO 15008KT 10SM BKN110 06/02 A2981 RMK AO2 SLP103 T00610017=
202211060553 METAR KBLI 060553Z AUTO 14003KT 10SM FEW029 BKN110 06/03 A2984 RMK AO2 SLP112 T00560028 10078 20044 58008=
202211060453 METAR KBLI 060453Z 16006KT 10SM FEW050 06/03 A2985 RMK AO2 SLP116 T00610028=
202211060353 METAR KBLI 060353Z 18005KT 10SM FEW050 06/02 A2986 RMK AO2 SLP120 T00560022=
202211060253 METAR KBLI 060253Z 17005KT 10SM FEW050 06/02 A2986 RMK AO2 SLP120 T00560022 53008=
202211060153 METAR KBLI 060153Z 18006KT 10SM FEW030 SCT050 07/03 A2986 RMK AO2 SLP118 T00670033=
202211060053 METAR KBLI 060053Z 18005KT 10SM FEW030 SCT055 07/03 A2985 RMK AO2 SLP114 T00720033=
202211052353 METAR KBLI 052353Z 19007KT 10SM FEW040 SCT060 08/03 A2984 RMK AO2 SLP112 T00780033 10100 20078 53006=
202211052253 METAR KBLI 052253Z VRB06KT 10SM CLR 09/02 A2983 RMK AO2 SLP108 T00890022=
202211052153 METAR KBLI 052153Z 10SM FEW060 SCT120 10/M01 A2983 RMK AO2 SLP108 T01001011=
202211052053 METAR KBLI 052053Z 10SM SCT050 BKN120 09/M01 A2982 RMK AO2 SLP105 T00941006 51006=
202211051953 METAR KBLI 051953Z VRB03KT 10SM CLR 09/M01 A2982 RMK AO2 SLP106 T00891006=
202211051853 METAR KBLI 051853Z 10SM CLR 09/01 A2982 RMK AO2 SLP104 T00890006=
202211051753 METAR KBLI 051753Z 21005KT 10SM CLR 08/03 A2980 RMK AO2 SLP099 T00780028 10083 20044 51019=
202211051653 METAR KBLI 051653Z 22005KT 10SM CLR 08/03 A2978 RMK AO2 SLP092 T00780028=
202211051553 METAR KBLI 051553Z 20005KT 10SM SCT070 07/02 A2977 RMK AO2 SLP088 T00670017=
202211051453 METAR KBLI 051453Z 19004KT 10SM BKN110 06/02 A2975 RMK AO2 SLP080 T00610022 51021=
202211051353 METAR KBLI 051353Z 18004KT 10SM OVC110 07/03 A2973 RMK AO2 SLP073 T00670028=
202211051253 METAR KBLI 051253Z AUTO 19004KT 10SM FEW034 SCT043 BKN055 06/04 A2971 RMK AO2 SLP070 T00560039=
202211051153 METAR KBLI 051153Z AUTO 00000KT 10SM BKN045 06/04 A2968 RMK AO2 SLP060 70139 T00560044 10083 20056 51024=
202211051053 METAR KBLI 051053Z AUTO 19003KT 10SM SCT037 OVC045 07/04 A2967 RMK AO2 SLP053 T00720044=
202211050953 METAR KBLI 050953Z AUTO VRB03KT 10SM OVC047 07/04 A2964 RMK AO2 SLP044 T00720039=
202211050853 METAR KBLI 050853Z AUTO 26005KT 10SM SCT055 BKN070 08/03 A2961 RMK AO2 SLP034 T00780028 51038=
202211050753 METAR KBLI 050753Z AUTO VRB05KT 10SM OVC050 08/04 A2958 RMK AO2 SLP024 T00830039 401390039=
202211050653 METAR KBLI 050653Z AUTO 27008G16KT 240V310 10SM OVC055 08/04 A2954 RMK AO2 PK WND 30027/0603 SLP012 T00780044=
202211050553 METAR KBLI 050553Z AUTO 29011G32KT 10SM FEW044 08/04 A2950 RMK AO2 PK WND 28037/0510 RAB02E29 SLP997 P0001 60001 T00780044 10139 20078 53060=
202211050453 METAR KBLI 050453Z 25007G22KT 200V290 10SM FEW020 SCT060 13/08 A2937 RMK AO2 PRESRR SLP955 T01330083=
202211050353 METAR KBLI 050353Z 20009G22KT 10SM SCT020 BKN055 13/11 A2932 RMK AO2 PK WND 20029/0322 SLP935 T01330111=
202211050253 METAR KBLI 050253Z 20010G24KT 8SM BKN015 OVC022 13/12 A2932 RMK AO2 SLP937 60000 T01330117 58028=
202211050153 METAR KBLI 050153Z 19008G24KT 8SM BKN012 OVC024 13/12 A2936 RMK AO2 RAB14E32 SLP949 P0000 T01280122=
202211050053 METAR KBLI 050053Z 19011G22KT 10SM BKN010 OVC014 13/12 A2939 RMK AO2 SLP960 T01280117=
202211042353 METAR KBLI 042353Z 18011G19KT 10SM BKN010 OVC014 12/12 A2941 RMK AO2 RAE22 PRESFR SLP965 P0000 60052 T01220122 10122 20044 58030=
202211042253 METAR KBLI 042253Z 19010G18KT 8SM -RA BKN010 OVC012 12/12 A2945 RMK AO2 RAE37B41 SLP982 P0005 T01170117=
202211042237 SPECI KBLI 042237Z 19011G19KT 6SM BR BKN010 OVC014 12/12 A2946 RMK AO2 RAE37 CIG 008V012 P0005 T01220122=
202211042200 SPECI KBLI 042200Z 19009G22KT 5SM -RA BR OVC011 12/12 A2947 RMK AO2 P0001 T01170117=
202211042153 METAR KBLI 042153Z 18010G20KT 3SM -RA BR BKN005 OVC015 12/12 A2948 RMK AO2 SLP989 P0011 T01220117=
202211042146 SPECI KBLI 042146Z 18009G19KT 3SM -RA BR BKN005 OVC015 12/12 A2948 RMK AO2 P0009 T01220117=
202211042053 METAR KBLI 042053Z 18010G19KT 3SM -RA BR SCT004 OVC011 12/12 A2950 RMK AO2 SLP996 P0012 60036 T01170117 58031=
202211041953 METAR KBLI 041953Z 00000KT 2SM -RA BR BKN003 OVC013 06/06 A2953 RMK AO2 SLP008 P0013 T00560056=
202211041853 METAR KBLI 041853Z 33003KT 2SM RA BR BKN003 OVC013 05/05 A2957 RMK AO2 SLP019 P0011 T00500050=
202211041753 METAR KBLI 041753Z 01005KT 2SM -RA BR BKN003 OVC013 04/04 A2959 RMK AO2 SLP028 P0012 60086 T00440044 10044 20039 58017=
202211041729 SPECI KBLI 041729Z 01005KT 2SM RA BR BKN003 BKN009 OVC013 04/04 A2960 RMK AO2 P0008 T00440044=
202211041653 METAR KBLI 041653Z 01006KT 2SM RA BR FEW003 BKN010 OVC014 04/04 A2961 RMK AO2 CIG 008V012 SLP036 P0012 T00440044=
202211041553 METAR KBLI 041553Z 02004KT 2SM RA BR FEW003 OVC013 04/04 A2962 RMK AO2 SLP040 P0017 T00440044=
202211041549 SPECI KBLI 041549Z 02003KT 2SM RA BR FEW003 OVC013 04/04 A2962 RMK AO2 P0016=
202211041521 SPECI KBLI 041521Z 03005KT 3SM R16/6000VP6000FT RA BR BKN003 OVC015 04/04 A2963 RMK AO2 P0009 T00390039=
202211041509 SPECI KBLI 041509Z 01006KT 4SM RA BR SCT003 OVC015 04/04 A2963 RMK AO2 P0005 T00390039=
202211041453 METAR KBLI 041453Z 02005KT 3SM RA BR FEW003 BKN014 OVC019 04/04 A2964 RMK AO2 SLP045 P0019 60045 T00390039 56027=
202211041445 SPECI KBLI 041445Z 02005KT 3SM RA BR FEW004 OVC016 04/04 A2964 RMK AO2 P0017 T00390039=
202211041419 SPECI KBLI 041419Z 02004KT 3SM RA BR BKN016 OVC023 04/04 A2965 RMK AO2 P0009 T00390039=
202211041405 SPECI KBLI 041405Z AUTO 00000KT 2 1/2SM RA BR FEW003 OVC017 04/04 A2965 RMK AO2 P0004 T00390039=
202211041353 METAR KBLI 041353Z AUTO 03004KT 3SM RA BR OVC017 04/04 A2966 RMK AO2 SLP053 P0015 T00390039=
202211041253 METAR KBLI 041253Z AUTO 04005KT 4SM RA BR OVC018 04/04 A2968 RMK AO2 SLP059 P0011 T00390039=
202211041153 METAR KBLI 041153Z AUTO 03006KT 3SM RA BR OVC018 04/04 A2972 RMK AO2 SLP072 P0014 60062 70096 T00390039 10067 20039 56026=
202211041053 METAR KBLI 041053Z AUTO 04007KT 4SM RA BR OVC019 04/04 A2974 RMK AO2 SLP080 P0014 T00440044=
202211040953 METAR KBLI 040953Z AUTO 10003KT 5SM RA BR BKN020 OVC026 07/06 A2977 RMK AO2 SLP088 P0014 T00670061=
202211040853 METAR KBLI 040853Z AUTO 13006KT 5SM RA BR OVC021 07/06 A2980 RMK AO2 SLP097 P0011 60020 T00670061 58025=
202211040753 METAR KBLI 040753Z AUTO 11005KT 6SM RA BR OVC021 06/06 A2983 RMK AO2 SLP108 P0007 T00610056 400721011=
202211040653 METAR KBLI 040653Z AUTO 13007G19KT 090V160 9SM -RA OVC023 07/04 A2984 RMK AO2 SLP113 P0002 T00670044=
202211040553 METAR KBLI 040553Z AUTO 13015G22KT 10SM -RA FEW019 BKN026 OVC036 06/04 A2987 RMK AO2 SLP122 P0004 60014 T00610044 10061 20044 56026=
202211040453 METAR KBLI 040453Z 14016G24KT 6SM -RA BR OVC022 06/04 A2990 RMK AO2 PK WND 16026/0403 RAB02 SLP135 P0001 T00560044=
202211040353 METAR KBLI 040353Z 16012KT 6SM BR BKN019 BKN024 OVC036 06/04 A2991 RMK AO2 RAB20E49 SLP138 P0000 T00560039=
202211040253 METAR KBLI 040253Z 16009KT 120V190 6SM BR BKN015 OVC022 06/04 A2995 RMK AO2 RAE50 SLP150 P0000 60009 T00560039 58036=
202211040153 METAR KBLI 040153Z 14010KT 10SM -RA BKN019 OVC025 04/03 A2999 RMK AO2 SLP164 P0004 T00440033=
202211040053 METAR KBLI 040053Z 15008KT 9SM -RA BKN015 OVC024 04/04 A3003 RMK AO2 SLP180 P0005 T00440039=
202211032353 METAR KBLI 032353Z 16007KT 5SM -RA BR BKN016 OVC022 04/04 A3005 RMK AO2 SLP186 P0011 60020 T00440039 10072 20044 56026=
202211032253 METAR KBLI 032253Z VRB04KT 4SM RA BR OVC019 06/05 A3008 RMK AO2 SLP196 P0009 T00560050=
202211032153 METAR KBLI 032153Z 15007KT 8SM -RA BKN015 OVC022 06/05 A3009 RMK AO2 RAE2058B38 SLP199 P0000 T00610050=
202211032053 METAR KBLI 032053Z 16010KT 10SM -RA BKN022 BKN047 OVC060 07/05 A3013 RMK AO2 SLP213 P0000 60000 T00670050 58021=
202211031953 METAR KBLI 031953Z 17014G21KT 10SM -RA BKN022 BKN029 OVC050 07/04 A3016 RMK AO2 RAB52 SLP223 P0000 T00670044=
202211031853 METAR KBLI 031853Z 16011G19KT 10SM BKN022 BKN029 OVC050 07/04 A3017 RMK AO2 SLP226 T00720044=
202211031753 METAR KBLI 031753Z 16006KT 10SM BKN024 BKN029 OVC035 07/04 A3020 RMK AO2 SLP234 T00670039 10067 20000 58003=
202211031751 SPECI KBLI 031751Z 18005KT 10SM BKN024 BKN033 OVC095 07/04 A3019 RMK AO2=
202211031653 METAR KBLI 031653Z 02004KT 10SM FEW019 SCT033 BKN110 03/03 A3020 RMK AO2 SLP237 T00280028=
202211031553 METAR KBLI 031553Z 00000KT 10SM SCT041 OVC110 02/02 A3020 RMK AO2 SLP237 T00170017=
202211031453 METAR KBLI 031453Z 00000KT 10SM FEW017 SCT037 01/01 A3021 RMK AO2 SLP238 T00110011 51002=
202211031448 SPECI KBLI 031448Z 00000KT 10SM SCT017 BKN037 01/01 A3020 RMK AO2=
202211031353 METAR KBLI 031353Z 00000KT 10SM BKN015 01/01 A3020 RMK AO2 SLP237 T00110011=
202211031332 SPECI KBLI 031332Z AUTO 00000KT 10SM BKN015 01/01 A3021 RMK AO2 T00110011=
202211031253 METAR KBLI 031253Z AUTO 00000KT 10SM FEW015 00/00 A3020 RMK AO2 SLP236 T00000000=
202211031153 METAR KBLI 031153Z AUTO 00000KT 10SM FEW023 SCT032 01/01 A3020 RMK AO2 SLP236 I6000 T00060006 10011 21011 50007=
202211031134 SPECI KBLI 031134Z AUTO 00000KT 10SM BKN030 01/01 A3020 RMK AO2 T00060006=
202211031120 SPECI KBLI 031120Z AUTO 00000KT 10SM FEW014 BKN028 01/01 A3020 RMK AO2 T00060006=
202211031053 METAR KBLI 031053Z AUTO 00000KT 10SM OVC014 01/01 A3020 RMK AO2 SLP237 I1000 T00060006=
202211031042 SPECI KBLI 031042Z AUTO 00000KT 10SM BKN014 M01/M01 A3020 RMK AO2 I1000 T10061006=
202211030953 METAR KBLI 030953Z AUTO 00000KT 10SM CLR M01/M01 A3020 RMK AO2 SLP236 I1000 T10061006=
202211030853 METAR KBLI 030853Z AUTO 00000KT 10SM R16/5000VP6000FT CLR M01/M01 A3018 RMK AO2 SLP229 I1000 I3000 T10061006 51012=
202211030753 METAR KBLI 030753Z AUTO 00000KT 6SM BR CLR 00/00 A3017 RMK AO2 SLP226 T00000000 401000000=
202211030653 METAR KBLI 030653Z AUTO 00000KT 10SM CLR 00/00 A3016 RMK AO2 SLP224 T00000000=
202211030640 SPECI KBLI 030640Z AUTO 00000KT 8SM CLR 00/00 A3016 RMK AO2 T00000000=
202211030633 SPECI KBLI 030633Z AUTO 00000KT 2 1/2SM R16/4000VP6000FT BR CLR 01/01 A3015 RMK AO2 T00060006=
202211030627 SPECI KBLI 030627Z AUTO 00000KT 3/4SM R16/4000VP6000FT BR CLR 00/00 A3015 RMK AO2 T00000000=
202211030614 SPECI KBLI 030614Z AUTO 00000KT 1 1/2SM BR CLR 01/01 A3015 RMK AO2 VIS 1/2V5 T00060006=
202211030553 METAR KBLI 030553Z AUTO 00000KT 10SM CLR 01/01 A3014 RMK AO2 SLP217 T00060006 10083 20000 51014=
202211030453 METAR KBLI 030453Z 00000KT 10SM CLR 02/02 A3013 RMK AO2 SLP211 T00170017=
202211030353 METAR KBLI 030353Z 00000KT 10SM CLR 02/01 A3012 RMK AO2 SLP208 T00170011=
202211030253 METAR KBLI 030253Z 00000KT 10SM CLR 02/02 A3010 RMK AO2 SLP202 T00170017 52018=
202211030153 METAR KBLI 030153Z 00000KT 10SM CLR 03/03 A3008 RMK AO2 SLP196 T00330033=
202211030053 METAR KBLI 030053Z 28003KT 10SM CLR 06/04 A3007 RMK AO2 SLP191 T00610039=
202211022353 METAR KBLI 022353Z 28005KT 10SM CLR 08/03 A3005 RMK AO2 SLP184 T00830033 10100 20061 53016=
202211022253 METAR KBLI 022253Z 31007KT 10SM CLR 09/04 A3003 RMK AO2 SLP177 T00890039=
202211022153 METAR KBLI 022153Z 34003KT 10SM CLR 10/00 A3001 RMK AO2 SLP170 T01000000=
202211022053 METAR KBLI 022053Z 16008KT 10SM CLR 10/01 A3000 RMK AO2 SLP168 T01000011 51012=
202211021953 METAR KBLI 021953Z 22006KT 10SM CLR 09/03 A2999 RMK AO2 SLP165 T00890028=
202211021853 METAR KBLI 021853Z 06003KT 10SM CLR 08/03 A2999 RMK AO2 SLP163 T00830028=
202211021753 METAR KBLI 021753Z 05003KT 10SM SCT080 07/05 A2997 RMK AO2 SLP157 60000 I6000 T00670050 10067 20022 51028=
202211021653 METAR KBLI 021653Z 36003KT 10SM FEW080 04/04 A2994 RMK AO2 SLP148 T00440044=
202211021553 METAR KBLI 021553Z 00000KT 10SM BKN031 OVC047 03/03 A2991 RMK AO2 SLP139 T00280028=
202211021453 METAR KBLI 021453Z 00000KT 10SM BKN047 OVC060 03/03 A2988 RMK AO2 SLP128 60000 I3000 T00330033 51022=
202211021401 SPECI KBLI 021401Z 00000KT 10SM SCT030 OVC100 04/04 A2986 RMK AO2 T00390039=
202211021353 METAR KBLI 021353Z 00000KT 10SM BKN029 BKN041 OVC110 03/03 A2986 RMK AO2 RAB04E42 SLP120 P0000 T00330033=
202211021253 METAR KBLI 021253Z AUTO 00000KT 10SM OVC017 03/03 A2985 RMK AO2 RAB02E50 SLP115 P0000 I1000 T00280028=
202211021219 SPECI KBLI 021219Z AUTO 00000KT 10SM -RA BKN023 OVC039 03/03 A2983 RMK AO2 RAB02 P0000 T00330033=
202211021153 METAR KBLI 021153Z AUTO 00000KT 10SM OVC035 02/02 A2982 RMK AO2 SLP105 I6002 T00220022 10028 20000 53025=
202211021053 METAR KBLI 021053Z AUTO 00000KT 10SM BKN033 01/01 A2979 RMK AO2 SLP097 I1000 T00110011=
202211020953 METAR KBLI 020953Z AUTO 00000KT 10SM CLR 02/02 A2977 RMK AO2 SLP088 T00170017=
202211020853 METAR KBLI 020853Z AUTO 01004KT 10SM CLR 01/01 A2974 RMK AO2 SLP081 I1001 I3002 T00110011 53008=
202211020753 METAR KBLI 020753Z AUTO 00000KT 9SM CLR 00/00 A2973 RMK AO2 SLP077 I1001 T00000000 401060000=
202211020653 METAR KBLI 020653Z AUTO 00000KT 9SM CLR 01/01 A2972 RMK AO2 SLP074 T00110011=
202211020553 METAR KBLI 020553Z AUTO 00000KT 8SM CLR 01/01 A2972 RMK AO2 SLP072 T00110011 10094 20011 50001=
202211020453 METAR KBLI 020453Z 00000KT 10SM CLR 02/02 A2973 RMK AO2 SLP075 T00220022=
202211020353 METAR KBLI 020353Z 00000KT 10SM CLR 02/02 A2972 RMK AO2 SLP071 T00220022=
202211020253 METAR KBLI 020253Z 00000KT 10SM CLR 03/03 A2972 RMK AO2 SLP071 T00330033 51010=
202211020153 METAR KBLI 020153Z 00000KT 10SM CLR 03/03 A2971 RMK AO2 SLP070 T00330033=
202211020053 METAR KBLI 020053Z 00000KT 10SM CLR 06/05 A2970 RMK AO2 SLP065 T00560050=
202211012353 METAR KBLI 012353Z 30005KT 10SM CLR 09/04 A2969 RMK AO2 SLP060 T00940039 10106 20083 56004=
202211012253 METAR KBLI 012253Z 27003KT 10SM CLR 10/03 A2969 RMK AO2 SLP061 T01000033=
202211012153 METAR KBLI 012153Z 31003KT 10SM CLR 10/02 A2969 RMK AO2 SLP063 T01000022=
202211012053 METAR KBLI 012053Z 00000KT 8SM FEW030 SCT050 09/03 A2970 RMK AO2 SLP064 T00940033 58010=
202211011953 METAR KBLI 011953Z 00000KT 10SM CLR 10/04 A2971 RMK AO2 SLP070 T01000044=
202211011853 METAR KBLI 011853Z VRB04KT 10SM FEW015 SCT050 09/05 A2973 RMK AO2 SLP074 T00890050=
202211011753 METAR KBLI 011753Z 01003KT 10SM CLR 08/06 A2973 RMK AO2 SLP075 T00830061 10083 20022 58002=
202211011653 METAR KBLI 011653Z 00000KT 10SM FEW008 SCT120 07/06 A2973 RMK AO2 SLP077 T00670061=
202211011553 METAR KBLI 011553Z 00000KT 10SM FEW010 BKN120 04/04 A2974 RMK AO2 SLP079 T00390039=
202211011453 METAR KBLI 011453Z 00000KT 10SM FEW008 BKN100 03/03 A2973 RMK AO2 SLP077 T00280028 56005=
202211011353 METAR KBLI 011353Z 01003KT 8SM FEW050 02/02 A2973 RMK AO2 SLP078 T00220022=
202211011253 METAR KBLI 011253Z AUTO 00000KT 5SM BR CLR 03/03 A2974 RMK AO2 SLP080 T00330033 $=
202211011153 METAR KBLI 011153Z AUTO 00000KT 10SM CLR 03/03 A2975 RMK AO2 SLP082 70020 T00280028 10078 20028 56008 $=
202211011053 METAR KBLI 011053Z AUTO 00000KT 5SM BR CLR 03/03 A2975 RMK AO2 SLP083 T00330033 $=
202211010953 METAR KBLI 010953Z AUTO 00000KT 10SM CLR 04/04 A2976 RMK AO2 SLP085 T00440044 $=
202211010853 METAR KBLI 010853Z AUTO 17004KT 10SM CLR 06/05 A2978 RMK AO2 SLP091 T00610050 58007 $=
202211010753 METAR KBLI 010753Z AUTO 18004KT 10SM CLR 07/05 A2978 RMK AO2 SLP093 T00720050 401170050 $=
202211010653 METAR KBLI 010653Z AUTO 17004KT 10SM CLR 06/05 A2979 RMK AO2 SLP096 T00610050 $=
202211010553 METAR KBLI 010553Z AUTO 18004KT 10SM CLR 07/06 A2980 RMK AO2 SLP098 T00670056 10106 20067 58004 $=
202211010453 METAR KBLI 010453Z 18004KT 10SM CLR 07/06 A2980 RMK AO2 SLP100 T00720056 $=
202211010353 METAR KBLI 010353Z 18004KT 10SM CLR 07/06 A2981 RMK AO2 SLP103 T00720056 $=
202211010253 METAR KBLI 010253Z 20003KT 10SM CLR 08/06 A2981 RMK AO2 SLP102 T00780061 $=
202211010053 METAR KBLI 010053Z 00000KT 10SM FEW025 SCT050 BKN100 09/07 A2980 RMK AO2 SLP100 T00940072=

# No short TAF reports from KBLI in databse.

###################################
#  large TAF from KBLI
###################################
202211302329 TAF KBLI 302329Z 0100/0124 00000KT P6SM OVC070 FM010700 02012G20KT
                       P6SM OVC070 FM011000 01010G18KT P6SM OVC100
                       FM011500 01008G14KT P6SM OVC050 FM011900
                       36006KT P6SM FEW250=
202211301732 TAF KBLI 301732Z 3018/0118 16005KT P6SM SCT015 FM302100 35005KT
                       P6SM OVC040 FM010600 02012G20KT P6SM OVC070
                       FM011000 01010G18KT P6SM OVC070 FM011500
                       01006KT P6SM OVC050=
202211301130 TAF KBLI 301130Z 3012/0112 16012G20KT P6SM -RA BKN022 OVC040 FM301700
                       16011KT P6SM VCSH OVC035 FM302100 35005KT
                       P6SM OVC040 FM010600 02012G20KT P6SM OVC050=
202211300520 TAF KBLI 300520Z 3006/0106 15018G29KT P6SM -RA BKN023 BKN029 OVC045
                       FM300800 15027G36KT P6SM -RA OVC019 FM301400
                       16012G20KT P6SM -RA OVC035 FM302100 35005KT
                       P6SM OVC040 FM010400 02012G20KT P6SM OVC040=
202211292326 TAF KBLI 292326Z 3000/3024 05013G20KT 2SM -SN OVC025 FM300300 10025G35KT
                       P6SM -RASN OVC035 FM301800 17010KT P6SM
                       OVC050=
202211291734 TAF KBLI 291734Z 2918/3018 06008KT P6SM OVC035 FM292000 06013G20KT
                       P6SM -SN OVC025 FM300300 10025G35KT P6SM
                       -RASN OVC035 FM301500 13017G24KT P6SM -SN
                       OVC050=
202211291125 TAF KBLI 291125Z 2912/3012 04005KT P6SM OVC050 FM291600 06008KT
                       P6SM OVC035 FM292000 06013G20KT P6SM -SN
                       OVC025 FM300300 10025G35KT P6SM -RASN OVC035=
202211290520 TAF KBLI 290520Z 2906/3006 02014G23KT P6SM SKC FM291600 06008KT
                       P6SM OVC050 FM292000 06013G20KT P6SM -SN
                       OVC025 FM300300 10020G30KT P6SM -RA OVC050=
202211282341 TAF KBLI 282341Z 2900/2924 03015G25KT P6SM SKC FM290500 04009KT
                       P6SM FEW250 FM291600 06008KT P6SM OVC050
                       FM292000 06013G20KT P6SM -SN OVC025=
202211281727 TAF KBLI 281727Z 2818/2918 03015G25KT P6SM SKC FM282000 03015G25KT
                       P6SM SKC FM290500 04009KT P6SM FEW250 FM291600
                       06008KT P6SM OVC050=
202211281120 TAF KBLI 281120Z 2812/2912 02006KT P6SM SCT035 BKN050 FM281500
                       02012G20KT P6SM SCT050 FM282000 03015G25KT
                       P6SM SKC FM290500 04009KT P6SM FEW250=
202211280520 TAF KBLI 280520Z 2806/2906 16004KT P6SM VCSH BKN050 FM281000 02008KT
                       P6SM SCT035 BKN050 FM281400 02012G20KT P6SM
                       SCT040 FM282000 03015G25KT P6SM SKC FM290500
                       04009KT P6SM FEW250=
202211272323 TAF KBLI 272323Z 2800/2824 17004KT P6SM VCSH FEW050 BKN100 FM280600
                       VRB05KT P6SM -SHRASN BKN035 OVC050 FM281000
                       02008KT P6SM SCT035 BKN050 FM281200 02012G20KT
                       P6SM SCT040 FM282000 03015G25KT P6SM BKN250=
202211271733 TAF KBLI 271733Z 2718/2818 20006KT P6SM FEW030 BKN060 FM280300
                       VRB05KT P6SM -SHRASN BKN035 OVC050 FM280900
                       02008KT P6SM SCT035 BKN050 FM281200 02012G20KT
                       P6SM SCT040=
202211271120 TAF KBLI 271120Z 2712/2812 28009KT P6SM VCSH SCT035 BKN050 FM271800
                       29007KT P6SM VCSH BKN050 FM280200 VRB05KT
                       P6SM -SHRASN BKN035 OVC050 FM280900 02008KT
                       P6SM SCT035 BKN050=
202211271011 KBLI 271011Z 2710/2806 28009G19KT P6SM VCSH SCT035 BKN050 FM271800
                       29007KT P6SM VCSH BKN050 FM280500 02009KT
                       P6SM SCT050 SCT250=
202211270520 TAF KBLI 270520Z 2706/2806 16020G33KT 4SM -RA BR BKN015 OVC025
                       FM271100 17015G25KT P6SM VCSH BKN020 OVC040
                       FM271800 22012G18KT P6SM VCSH BKN050
                      PROB30 2723/2805 -SHRA=
202211270252 KBLI 270252Z 2703/2724 19014G25KT P6SM VCSH SCT015 OVC030 FM270600
                       16020G30KT 4SM -RA BR OVC020 FM271300 17010KT
                       P6SM BKN020 OVC050 FM271800 25008KT P6SM
                       BKN025 BKN050=
202211262325 TAF KBLI 262325Z 2700/2724 19014G25KT P6SM -RA SCT015 BKN035 OVC050
                       TEMPO 2700/2703 BKN025 FM270300 16020G30KT
                       4SM -RA BR OVC020 FM271300 17010KT P6SM
                       BKN020 OVC050 FM271800 25008KT P6SM BKN025
                       BKN050=
202211262030 KBLI 262030Z 2621/2718 18009G21KT P6SM -RA OVC025 FM270000 16012G25KT
                       P6SM -RA OVC025 FM270600 16020G30KT 4SM
                       -RA BR OVC020 FM271200 17010KT P6SM VCSH
                       BKN020 OVC050=
202211261911 KBLI 261911Z 2619/2718 18013G23KT P6SM OVC024 FM262100 16012G20KT
                       P6SM OVC020 FM270000 16012G25KT P6SM -RA
                       OVC025 FM270600 16020G30KT 4SM -RA BR OVC020
                       FM271200 17010KT P6SM VCSH BKN020 OVC050=
202211261734 TAF KBLI 261734Z 2618/2718 16011KT P6SM SCT015 SCT030 OVC070 FM262100
                       16012G20KT P6SM OVC020 FM270000 16012G25KT
                       P6SM -RA OVC025 FM270600 16020G30KT 4SM
                       -RA BR OVC020 FM271200 17010KT P6SM VCSH
                       BKN020 OVC050=
202211261139 TAF KBLI 261139Z 2612/2712 18006KT P6SM FEW014 OVC035 FM261500
                       17008KT P6SM OVC025 FM262100 16012G20KT
                       P6SM OVC020 FM270000 16012G28KT 4SM -RA
                       OVC020 FM271000 19010G22KT P6SM VCSH BKN035=
202211260520 TAF KBLI 260520Z 2606/2706 18005KT P6SM OVC050 FM261100 16003KT
                       P6SM OVC035 FM261400 17010G20KT P6SM OVC025
                       FM261800 17009G15KT P6SM OVC020 FM270000
                       16011G18KT 4SM -RA OVC020=
202211252339 TAF KBLI 252339Z 2600/2624 18005KT P6SM OVC050 FM261100 16003KT
                       P6SM OVC025 FM261400 17010G20KT P6SM OVC025
                       FM261800 17009G15KT P6SM OVC025=
202211251738 TAF KBLI 251738Z 2518/2618 21008G16KT 2SM -RA BR OVC010 FM252300
                       22009KT P6SM OVC050 FM260500 16006KT P6SM
                       OVC025 FM261400 17010G20KT P6SM OVC025=
202211251410 KBLI 251410Z 2514/2612 19010KT P6SM -RA BKN017 OVC025
                      TEMPO 2514/2518 2SM BR FM251800 20008G16KT
                       4SM -RA BR OVC015 FM260600 17004KT P6SM
                       OVC050 FM261000 17003KT 6SM BR OVC025=
202211251136 TAF KBLI 251136Z 2512/2612 VRB06KT P6SM -RA OVC040 FM251500 20004KT
                       6SM -RA BR OVC020 FM251800 20008G16KT 4SM
                       -RA BR OVC015 FM260600 17004KT P6SM OVC050
                       FM261000 17003KT 6SM BR OVC025=
202211250520 TAF KBLI 250520Z 2506/2606 00000KT P6SM BKN250 FM251000 16006KT
                       P6SM OVC050 FM251200 17005KT P6SM -RA OVC030
                       FM251500 20004KT 6SM -RA BR OVC025 FM251800
                       20008G15KT 4SM -RA BR OVC015=
202211242332 TAF KBLI 242332Z 2500/2524 17006KT P6SM BKN250 FM251000 16008KT
                       P6SM OVC050 FM251200 17005KT P6SM -RA OVC050
                       FM251500 20004KT 6SM -RA BR OVC025=
202211241820 TAF KBLI 241820Z 2418/2518 00000KT P6SM SKC FM241900 VRB04KT P6SM
                       SKC FM250000 17006KT P6SM SCT200 FM251000
                       16008KT P6SM OVC050 FM251200 17005KT P6SM
                       -RA OVC050 FM251500 20004KT 6SM -RA BR OVC025=
202211241259 KBLI 241259Z 2413/2512 00000KT P6SM BKN080
                      TEMPO 2413/2417 1SM BR FEW001 FM241900 VRB04KT
                       P6SM SKC FM250000 17006KT P6SM SCT200 FM251000
                       16008KT P6SM OVC050=
202211241126 TAF KBLI 241126Z 2412/2512 00000KT P6SM BKN080
                      TEMPO 2412/2416 1/2SM FG VV001 FM241900 VRB04KT
                       P6SM SKC FM250000 17006KT P6SM SCT200 FM251000
                       16008KT P6SM OVC050=
202211240520 TAF KBLI 240520Z 2406/2506 00000KT P6SM BCFG SCT200
                      TEMPO 2406/2410 1/2SM FG BKN001 FM241000
                       00000KT 1/2SM FG VV001 FM241900 VRB04KT
                       P6SM SKC FM250000 17006KT P6SM SCT200=
202211240401 KBLI 240401Z 2404/2424 00000KT 1/4SM FG FEW001 SCT200 FM240800
                       00000KT 1/4SM FG OVC001 FM241800 15003KT
                       P6SM BKN100 FM242000 17006KT P6SM FEW250=
202211232320 TAF KBLI 232320Z 2400/2424 16006KT P6SM BKN050 BKN100 FM240200
                       14006KT P6SM OVC100 FM240600 14004KT P6SM
                       BKN250 FM241200 15003KT P6SM BKN100 FM242000
                       17006KT P6SM FEW250=
202211231720 TAF KBLI 231720Z 2318/2418 17005KT P6SM BKN040 OVC050 FM231900
                       16006KT P6SM OVC050 FM240200 14004KT P6SM
                       OVC100 FM241200 15003KT P6SM BKN100=
202211231136 TAF KBLI 231136Z 2312/2412 17004KT P6SM BKN040
                      TEMPO 2312/2315 -SHRA OVC025 FM231900 16006KT
                       P6SM OVC050 FM240200 14004KT P6SM OVC100=
202211230520 TAF KBLI 230520Z 2306/2406 19004KT P6SM SCT013 OVC020 FM231200
                       17004KT P6SM OVC015 FM231900 20006KT P6SM
                       OVC050 FM240200 04004KT P6SM OVC100=
202211230106 KBLI 230106Z 2301/2324 VRB04KT 2SM BR VCSH BKN004 OVC020 FM230600
                       19006KT P6SM OVC025 FM232100 18006KT P6SM
                       OVC050=
202211222342 TAF KBLI 222342Z 2300/2324 19010KT 4SM -RA BR OVC020 FM230100 22008KT
                       P6SM VCSH OVC030 FM230600 19006KT P6SM OVC025
                       FM232100 18006KT P6SM OVC050=
202211221735 TAF KBLI 221735Z 2218/2318 14012G22KT 5SM -RA BR OVC020 FM230100
                       22008KT P6SM VCSH OVC030 FM230600 19006KT
                       P6SM OVC025=
202211221140 TAF KBLI 221140Z 2212/2312 18005KT P6SM VCSH OVC035 FM221700 14012G22KT
                       5SM -RA BR OVC020 FM230100 22008KT P6SM
                       VCSH OVC030 FM230600 19006KT P6SM OVC025=
202211220520 TAF KBLI 220520Z 2206/2306 VRB03KT P6SM OVC070 FM220800 15006KT
                       P6SM OVC050 FM221200 18008KT P6SM -RA OVC040
                       FM221800 14013G22KT 5SM -RA BR OVC020 FM230100
                       22008KT P6SM VCSH OVC030=
202211212320 TAF KBLI 212320Z 2200/2224 14004KT P6SM OVC080 FM220600 15006KT
                       P6SM OVC050 FM221000 15008KT P6SM -RA OVC040
                       FM221800 14013G22KT 5SM -RA BR OVC020=
202211211722 TAF KBLI 211722Z 2118/2218 VRB03KT P6SM OVC080 FM212000 35004KT
                       P6SM OVC100 FM220000 14004KT P6SM OVC050
                       FM220600 17006KT P6SM OVC050 FM221000 15008KT
                       P6SM -RA OVC040=
202211211139 TAF KBLI 211139Z 2112/2212 36004KT P6SM VCSH SCT040 OVC080 FM212000
                       00000KT P6SM OVC100 FM212300 14004KT P6SM
                       OVC050=
202211210520 TAF KBLI 210520Z 2106/2206 36004KT P6SM SCT040 OVC080 FM210900
                       VRB03KT P6SM VCSH BKN040 OVC080 FM212000
                       VRB03KT P6SM SCT040 BKN090=
202211202320 TAF KBLI 202320Z 2100/2124 01003KT P6SM BKN120 FM210400 VRB03KT
                       P6SM OVC050 FM212000 34004KT P6SM OVC050=
202211201720 TAF KBLI 201720Z 2018/2118 VRB03KT P6SM SCT250 FM202100 35006KT
                       P6SM BKN150 FM210000 VRB03KT P6SM BKN100
                       FM210600 00000KT P6SM OVC050=
202211201138 TAF KBLI 201138Z 2012/2112 VRB03KT P6SM SCT250 FM201800 16006KT
                       P6SM BKN150 FM210030 16008KT P6SM BKN100
                       FM210600 00000KT P6SM OVC050=
202211200520 TAF KBLI 200520Z 2006/2106 VRB03KT P6SM SCT250 FM201800 16006KT
                       P6SM BKN150 FM210030 16008KT P6SM BKN100=
202211192320 TAF KBLI 192320Z 2000/2024 03005KT P6SM SKC FM200600 VRB03KT P6SM
                       BKN250 FM201500 VRB03KT P6SM SCT250 FM202100
                       34004KT P6SM SCT100 BKN250=
202211191720 TAF KBLI 191720Z 1918/2018 01005KT P6SM SKC FM200600 VRB03KT P6SM
                       BKN250=
202211191133 TAF KBLI 191133Z 1912/2012 01005KT P6SM SKC FM200600 VRB03KT P6SM
                       BKN250=
202211190520 TAF KBLI 190520Z 1906/2006 04004KT P6SM SKC=
202211182320 TAF KBLI 182320Z 1900/1924 03005KT P6SM SKC FM190900 02003KT P6SM
                       SKC=
202211181720 TAF KBLI 181720Z 1818/1918 03007KT P6SM SKC FM190300 03004KT P6SM
                       SKC=
202211181129 TAF KBLI 181129Z 1812/1912 05004KT P6SM SKC FM181800 04010KT P6SM
                       SKC FM190300 02004KT P6SM SKC=
202211180855 KBLI 180855Z 1809/1906 03007KT P6SM SKC FM181800 04010KT P6SM SKC=
202211180520 TAF KBLI 180520Z 1806/1906 04008G18KT P6SM SKC FM181800 04010KT
                       P6SM SKC=
202211172320 TAF KBLI 172320Z 1800/1824 04014G21KT P6SM SKC FM180200 04012KT
                       P6SM SKC FM180600 03007KT P6SM SKC=
202211171721 TAF KBLI 171721Z 1718/1818 04016G32KT P6SM SCT200 FM172300 05014G20KT
                       P6SM SKC FM180200 03012KT P6SM SKC FM180600
                       05007KT P6SM SKC=
202211171213 KBLI 171213Z 1712/1812 04024G41KT P6SM SKC FM171600 03015G32KT
                       P6SM SCT200 FM172300 03014G20KT P6SM SKC
                       FM180200 03012KT P6SM SKC FM180600 05009KT
                       P6SM SKC=
202211171159 TAF KBLI 171159Z 1712/1812 04024G41KT P6SM SKC FM171600 03015G30KT
                       P6SM SCT200 FM172300 03012KT P6SM SKC=
202211170741 KBLI 170741Z 1708/1806 05006KT P6SM FEW002 FM171000 02009KT P6SM
                       SCT006 SCT200 FM171600 03015G25KT P6SM SCT200
                       FM172300 03012KT P6SM SKC=
202211170520 TAF KBLI 170520Z 1706/1806 36004KT P6SM SCT005 SCT200
                      TEMPO 1706/1710 BKN005 FM171000 02009KT P6SM
                       SCT006 SCT200 FM171600 03015G25KT P6SM SCT200
                       FM172300 03012KT P6SM SKC=
202211162320 TAF KBLI 162320Z 1700/1724 33005KT P6SM SKC FM170500 01008KT P6SM
                       FEW004 FM171000 02012KT P6SM SKC FM171600
                       03015G25KT P6SM SKC=
202211161840 KBLI 161840Z 1619/1718 35005KT P6SM SKC FM170500 01008KT P6SM FEW004
                       FM171000 02012KT P6SM SKC=
202211161737 TAF KBLI 161737Z 1618/1718 01003KT 2SM BR SCT002
                      TEMPO 1618/1619 1/4SM FG VV002 FM161900 35005KT
                       P6SM SKC FM170500 01008KT P6SM FEW004 FM171000
                       02012KT P6SM SKC=
202211161601 KBLI 161601Z 1616/1712 00000KT 1/4SM FZFG VV001 FM161700 03006KT
                       2SM BR SCT005 FM161900 35005KT P6SM SKC
                       FM170500 01008KT P6SM SKC FM171000 01012KT
                       P6SM SKC=
202211161226 KBLI 161226Z 1612/1712 VRB04KT 4SM BR BKN003
                      TEMPO 1613/1615 VRB02KT 1SM BR BKN002 FM161600
                       03006KT 2SM BR SCT005 FM161900 35005KT P6SM
                       SKC FM170500 01008KT P6SM SKC FM171000 01012KT
                       P6SM SKC=
202211161143 TAF KBLI 161143Z 1612/1712 VRB04KT 2SM BR BKN003
                      TEMPO 1612/1615 VRB02KT 1/4SM FG VV001 FM161600
                       03006KT 2SM BR SCT005 FM161900 35005KT P6SM
                       SKC FM170500 01008KT P6SM SKC FM171000 01012KT
                       P6SM SKC=
202211160520 TAF KBLI 160520Z 1606/1706 32003KT P6SM SKC FM161000 06005KT 2SM
                       BR BKN003 FM161600 03006KT 5SM BR SCT005
                       FM161900 35005KT P6SM SKC=
202211160445 KBLI 160445Z 1605/1624 32003KT P6SM SKC FM161000 06005KT 2SM BR
                       BKN003 FM161600 03006KT 5SM BR SCT005 FM161900
                       35005KT P6SM SKC=
202211152328 TAF KBLI 152328Z 1600/1624 01005KT P6SM SKC FM160400 03002KT 2SM
                       BR SKC FM161000 06005KT 1/4SM FG OVC001
                       FM161600 03006KT 5SM BR SCT005=
202211151747 TAF KBLI 151747Z 1518/1618 01005KT P6SM SKC FM160400 03002KT 2SM
                       BR SKC FM161000 06005KT 1/4SM FG OVC001
                       FM161600 03006KT 5SM BR SCT005=
202211151123 TAF KBLI 151123Z 1512/1612 02003KT P6SM VCFG SKC
                      TEMPO 1512/1515 2SM BR SCT001 FM151800 01005KT
                       P6SM SKC FM160400 34002KT 2SM BR SKC FM161000
                       00000KT 1/4SM FG OVC001=
202211150853 TAF AMD KBLI 150853Z 1509/1606 02003KT 1/4SM FZFG VV002 FM151800
                       01003KT P6SM SKC=
202211150520 TAF KBLI 150520Z 1506/1606 36002KT 2SM BR SKC FM150900 00000KT
                       1/4SM FG OVC001 FM151800 01003KT P6SM SKC=
202211142336 TAF KBLI 142336Z 1500/1524 VRB05KT P6SM SKC FM150600 36002KT 2SM
                       BR SKC FM150800 00000KT 1/4SM FG OVC001
                       FM151800 01003KT P6SM SKC=
202211141736 TAF KBLI 141736Z 1418/1518 02005KT P6SM SKC FM150300 36003KT P6SM
                       SKC FM150600 00000KT 1/4SM FG OVC003=
202211141421 KBLI 141421Z 1414/1512 00000KT P6SM SKC FM141800 02009KT P6SM SKC
                       FM150300 36003KT P6SM SKC FM150600 00000KT
                       1/4SM FG OVC003=
202211141132 TAF KBLI 141132Z 1412/1512 00000KT 1/4SM FZFG VV001 FM141800 02009KT
                       P6SM SKC FM150300 36003KT P6SM SKC FM150600
                       00000KT 1/4SM FG OVC003=
202211140640 KBLI 140640Z 1407/1506 00000KT 1/2SM FG VV002 FM141000 00000KT
                       2SM BR SKC FM141800 02009KT P6SM SKC=
202211140520 TAF KBLI 140520Z 1406/1506 01003KT P6SM SCT020 FM141000 00000KT
                       2SM BR SKC FM141800 02009KT P6SM SKC=
202211132320 TAF KBLI 132320Z 1400/1424 01004KT P6SM SKC FM141000 00000KT 6SM
                       BR SKC FM141800 02009KT P6SM SKC=
202211131726 TAF KBLI 131726Z 1318/1418 01004KT P6SM SKC FM141000 00000KT 6SM
                       BR SKC=
202211131122 TAF KBLI 131122Z 1312/1412 00000KT 6SM BR BKN021 OVC090 FM132100
                       01004KT P6SM SKC FM141000 00000KT P6SM VCFG
                       SKC=
202211130520 TAF KBLI 130520Z 1306/1406 VRB04KT P6SM SCT035 OVC070 FM131200
                       00000KT P6SM SCT010 OVC025 FM131900 01004KT
                       P6SM SKC=
202211122335 TAF KBLI 122335Z 1300/1324 04003KT P6SM BKN150 FM130600 VRB04KT
                       P6SM OVC050 FM131100 00000KT P6SM OVC025
                       FM131900 01004KT P6SM SKC=
202211121739 TAF KBLI 121739Z 1218/1318 04003KT P6SM BKN150 FM130600 VRB04KT
                       P6SM OVC050 FM131100 00000KT P6SM OVC025=
202211121126 TAF KBLI 121126Z 1212/1312 00000KT P6SM OVC200 FM121500 04003KT
                       P6SM SCT010 BKN090 BKN150 FM121800 33006KT
                       P6SM SCT015 SCT100 SCT200 FM130600 VRB04KT
                       P6SM OVC050=
202211120520 TAF KBLI 120520Z 1206/1306 36005KT P6SM BKN090 BKN150 FM121200
                       33006KT P6SM SCT010 BKN090 BKN150 FM121800
                       33006KT P6SM SCT015 SCT100 SCT200=
202211112323 TAF KBLI 112323Z 1200/1224 01009KT P6SM OVC120 FM120300 03005KT
                       P6SM OVC100 FM120900 03003KT P6SM SCT250
                       FM121400 03002KT P6SM FEW250 FM121700 02002KT
                       P6SM SKC=
202211111720 TAF KBLI 111720Z 1118/1218 02004KT P6SM OVC100 FM112200 01006KT
                       P6SM OVC120 FM120600 36003KT P6SM SCT250
                       FM121400 03002KT P6SM FEW250=
202211111125 TAF KBLI 111125Z 1112/1212 02004KT P6SM BKN150 FM111800 02006KT
                       P6SM BKN050 OVC120 FM120600 36003KT P6SM
                       SCT250=
202211110520 TAF KBLI 110520Z 1106/1206 02006KT P6SM BKN050 BKN200 FM111800
                       02006KT P6SM BKN050 OVC120=
202211102320 TAF KBLI 102320Z 1100/1124 02005KT P6SM OVC050 FM110500 15003KT
                       P6SM BKN120 BKN200 FM111000 02003KT P6SM
                       OVC100 FM111500 02004KT P6SM OVC050=
202211101720 TAF KBLI 101720Z 1018/1118 02004KT P6SM SCT035 OVC050 FM102200
                       15005KT P6SM SCT040 SCT150 FM110500 15003KT
                       P6SM BKN120 BKN200 FM111000 02003KT P6SM
                       OVC100 FM111500 02004KT P6SM OVC050=
202211101121 TAF KBLI 101121Z 1012/1112 01004KT P6SM SCT035 OVC050 FM102100
                       15005KT P6SM SCT040 SCT150 FM110500 15007KT
                       P6SM BKN120 BKN200=
202211100520 TAF KBLI 100520Z 1006/1106 00000KT P6SM BKN035
                      TEMPO 1006/1010 SCT035 FM102100 15005KT P6SM
                       SCT040 SCT150 FM110500 15007KT P6SM BKN120
                       BKN200=
202211092322 TAF KBLI 092322Z 1000/1024 03003KT P6SM SKC FM100600 VRB03KT P6SM
                       SKC FM101100 07005KT P6SM BKN050 FM101800
                       11005KT P6SM BKN050=
202211091720 TAF KBLI 091720Z 0918/1018 02010G18KT P6SM SKC FM092000 03010KT
                       P6SM SKC FM100000 03006KT P6SM SKC FM101100
                       07005KT P6SM BKN050=
202211091130 TAF KBLI 091130Z 0912/1012 03012G19KT P6SM SKC FM091800 02009KT
                       P6SM SKC FM100200 VRB04KT P6SM SCT250 FM101100
                       07005KT P6SM BKN050=
202211090520 TAF KBLI 090520Z 0906/1006 03015G30KT P6SM SKC FM091000 02011KT
                       P6SM SKC FM091800 02009KT P6SM SKC FM092300
                       02006KT P6SM SKC FM100200 VRB04KT P6SM SCT250=
202211082320 TAF KBLI 082320Z 0900/0924 02019G30KT P6SM SKC FM090500 02011G18KT
                       P6SM SKC FM091000 02011KT P6SM SKC FM091800
                       02009KT P6SM SKC FM092300 02006KT P6SM SKC=
202211081724 TAF KBLI 081724Z 0818/0918 04019G34KT P6SM FEW100 FM082200 01020G30KT
                       P6SM SKC FM090000 02019G25KT P6SM SKC FM090500
                       02011G19KT P6SM SKC FM091000 02014G22KT
                       P6SM SKC=
202211081133 TAF KBLI 081133Z 0812/0912 01018G28KT P6SM BKN070 FM082200 01020G30KT
                       P6SM SKC FM090000 02020G25KT P6SM SKC=
202211080520 TAF KBLI 080520Z 0806/0906 04023G39KT P6SM VCSH OVC060 FM081200
                       02025G35KT P6SM SCT070 FM082200 01020G30KT
                       P6SM SKC FM090000 02020G25KT P6SM SKC=
202211080255 KBLI 080255Z 0803/0824 04020G30KT P6SM -SN BKN045 OVC070 FM080600
                       03018G30KT P6SM VCSH BKN050 FM081200 02025G35KT
                       P6SM SCT070 FM082200 01020G30KT P6SM SKC=
202211072324 TAF KBLI 072324Z 0800/0824 03017G31KT P6SM VCSH SCT035 BKN060 FM080200
                       02028G38KT P6SM SCT050 FM081200 02025G35KT
                       P6SM SCT070 FM082200 01020G30KT P6SM SKC=
202211071739 TAF KBLI 071739Z 0718/0818 04014G22KT P6SM -SN OVC030 FM072200
                       02016G23KT P6SM VCSH BKN040 FM080200 02028G38KT
                       P6SM SCT050 FM081200 02025G35KT P6SM SCT070=
202211071357 KBLI 071357Z 0714/0812 04012G21KT P6SM SCT090 FM071800 02016G26KT
                       P6SM BKN050 FM080200 02028G38KT P6SM SCT050=
202211071123 TAF KBLI 071123Z 0712/0812 34005KT P6SM -RA BKN018 BKN028 OVC040
                       FM071800 02016G26KT P6SM BKN050 FM080200
                       02028G38KT P6SM SCT050=
202211070520 TAF KBLI 070520Z 0706/0806 02006KT P6SM SCT030 OVC050 FM071300
                       02012G18KT 6SM -SHRASN BR BKN030 OVC050
                       FM071900 02016G26KT P6SM BKN050 FM080200
                       02022G35KT P6SM SCT050=
202211062329 TAF KBLI 062329Z 0700/0724 VRB04KT P6SM BKN035 FM070500 02012KT
                       P6SM -SHRA OVC025 FM071300 02013G21KT 6SM
                       -SHRASN BR BKN030 OVC050 FM071900 01016G26KT
                       P6SM BKN050=
202211061725 TAF KBLI 061725Z 0618/0718 11007KT P6SM -SHRA SCT017 BKN030 OVC050
                       TEMPO 0618/0621 OVC017 FM062100 04012KT
                       P6SM VCSH BKN030 FM070500 02012KT P6SM -SHRA
                       OVC025 FM071300 02013G20KT 6SM -SHRASN BR
                       BKN027 OVC040=
202211061124 TAF KBLI 061124Z 0612/0712 11007KT P6SM -RA OVC030 FM062200 04012KT
                       P6SM VCSH BKN030 FM070500 02012KT P6SM -SHRA
                       OVC025=
202211060527 TAF KBLI 060527Z 0606/0706 16006KT P6SM FEW050 FM060800 13010KT
                       P6SM -RA BKN040 OVC070 FM061000 11013G22KT
                       P6SM -RA BKN020 OVC040 FM062200 04012KT
                       P6SM VCSH BKN030 FM070500 02012KT P6SM -SHRA
                       OVC025=
202211052324 TAF KBLI 052324Z 0600/0624 18005KT P6SM FEW050 BKN250 FM060500
                       14005KT P6SM SCT050 BKN100 FM060800 13010KT
                       P6SM -RA BKN040 OVC070 FM061000 11013G22KT
                       P6SM -RA BKN020 OVC040 FM062200 04012KT
                       P6SM VCSH BKN030=
202211051726 TAF KBLI 051726Z 0518/0618 20008KT P6SM SCT050 BKN100 FM060000
                       18005KT P6SM FEW050 BKN250 FM060500 14005KT
                       P6SM SCT050 BKN100 FM060800 13010KT P6SM
                       -RA BKN040 OVC070 FM061000 11013G22KT P6SM
                       -RA BKN020 OVC040=
202211051125 TAF KBLI 051125Z 0512/0612 19005KT P6SM SCT035 OVC050 FM051600
                       20010KT P6SM SCT050 BKN100 FM060000 18005KT
                       P6SM FEW050 BKN250 FM060500 14005KT P6SM
                       SCT050 BKN100 FM060800 15010KT P6SM -RA
                       BKN040 OVC070 FM061000 15013G22KT P6SM -RA
                       BKN020 OVC040=
202211050534 TAF KBLI 050534Z 0506/0606 25010G22KT P6SM VCSH FEW020 BKN060
                      TEMPO 0517/0521 -SHRA BKN020 OVC060=
202211042320 TAF KBLI 042320Z 0500/0524 19010G20KT 6SM -RA BKN010 OVC015 FM050300
                       18012G25KT 4SM -RA BR OVC020 FM050600 30015KT
                       P6SM VCSH BKN050 FM051200 29012KT P6SM BKN050=
202211041720 TAF KBLI 041720Z 0418/0518 01005KT 2SM RA BR FEW003 BKN010 OVC015
                       FM050300 18012G25KT 4SM -RA BR OVC020 FM050600
                       20014G25KT P6SM -RA BKN050 FM051200 18013G20KT
                       P6SM BKN050=
202211041130 TAF KBLI 041130Z 0412/0512 11009KT 4SM RA BR OVC015 FM041700 18010G25KT
                       2SM RA BR OVC010 FM050300 18012G25KT 4SM
                       -RA BR OVC020 FM050600 20014G25KT P6SM -RA
                       BKN050=
202211040536 TAF KBLI 040536Z 0406/0506 13016G25KT 5SM -RA BR OVC018 FM041000
                       15010G20KT 4SM -RA BR OVC015 FM041700 18010G22KT
                       2SM RA BR OVC010 FM050200 20012G22KT 4SM
                       -RA BR OVC015=
202211032345 TAF KBLI 032345Z 0400/0424 15007KT 4SM -RA BR OVC015 FM040300 13016G25KT
                       5SM -RA BR OVC018 FM041000 15008G16KT 4SM
                       -RA BR OVC015 FM041500 18015KT 5SM RA BR
                       OVC014 FM042100 18016KT P6SM RA OVC012=
202211031741 TAF KBLI 031741Z 0318/0418 02004KT P6SM FEW015 SCT030 FM032000
                       16008KT P6SM OVC040 FM032200 15010KT 5SM
                       -RA BR OVC020 FM040100 13012G25KT 5SM -RA
                       BR OVC018 FM041000 15008G15KT 4SM -RA BR
                       OVC015=
202211031136 TAF KBLI 031136Z 0312/0412 VRB05KT P6SM FEW015 BKN030 FM032000
                       16008KT P6SM OVC030 FM032300 15010KT 2SM
                       -RA BR OVC018 FM040100 13012G25KT 5SM -RA
                       BR OVC018=
202211030528 TAF KBLI 030528Z 0306/0406 VRB05KT P6SM SCT250 FM031300 16003KT
                       P6SM OVC060 FM032200 17008G16KT 6SM -RA
                       BR OVC025=
202211022320 TAF KBLI 022320Z 0300/0324 32005KT P6SM SCT250 FM031700 13003KT
                       P6SM OVC060 FM032200 17007KT P6SM -RA OVC025=
202211021720 TAF KBLI 021720Z 0218/0318 35003KT P6SM SCT080 FM022100 35003KT
                       P6SM SCT250 FM031200 13003KT P6SM BKN060=
202211021134 TAF KBLI 021134Z 0212/0312 02003KT P6SM BKN035 FM021400 02003KT
                       P6SM BKN070 FM021800 35003KT P6SM SCT250
                       FM031000 13003KT P6SM BKN250=
202211020525 TAF KBLI 020525Z 0206/0306 00000KT P6SM SCT250 FM021200 02007KT
                       P6SM BKN070 FM021800 33003KT P6SM SCT250=
202211012320 TAF KBLI 012320Z 0200/0224 00000KT P6SM SCT250 FM021200 02007KT
                       P6SM BKN070 FM021800 33003KT P6SM SCT250=
202211011720 TAF KBLI 011720Z 0118/0218 33004KT P6SM SCT120 BKN200 FM020000
                       00000KT P6SM SCT250 FM021200 02007KT P6SM
                       SCT060 BKN070=
202211011120 TAF KBLI 011120Z 0112/0212 00000KT P6SM FEW050 BKN200
                      TEMPO 0112/0116 4SM BR FM011800 33004KT P6SM
                       SCT120 BKN200 FM020000 00000KT P6SM SCT250=
202211010523 TAF KBLI 010523Z 0106/0206 18004KT P6SM FEW025 BKN200 FM011200
                       00000KT 5SM BR BKN025 FM011800 33004KT P6SM
                       SCT050 BKN120 FM020000 00000KT P6SM SCT250=