##########################################################
# Query made at 02/16/2025 23:13:39 UTC
# Time interval: from 03/01/2022 00:00  to 03/31/2022 23:59  UTC
##########################################################

##########################################################
# KBLI, Bellingham, Bellingham International Airport (United States)
# WMO index: -----. WIGOS ID: Unknown
# Latitude 48-47-58N. Longitude 122-32-21W. Altitude 48 m.
##########################################################

###################################
#  METAR/SPECI from KBLI
###################################
202203312353 METAR KBLI 312353Z VRB05KT 10SM FEW060 11/02 A3018 RMK AO2 SLP226 T01110017 10117 20078 58009=
202203312253 METAR KBLI 312253Z 18006KT 10SM FEW060 11/03 A3019 RMK AO2 SLP230 T01110028=
202203312153 METAR KBLI 312153Z 17006KT 10SM CLR 11/02 A3020 RMK AO2 SLP233 T01110022=
202203312053 METAR KBLI 312053Z VRB03KT 10SM SCT026 SCT030 10/01 A3020 RMK AO2 SLP236 T01000011 56003=
202203311953 METAR KBLI 311953Z 17009KT 10SM SCT026 SCT030 BKN060 10/04 A3020 RMK AO2 SLP236 T01000044=
202203311853 METAR KBLI 311853Z VRB03KT 10SM SCT018 BKN020 OVC060 09/04 A3021 RMK AO2 SLP238 T00890044=
202203311753 METAR KBLI 311753Z 21006KT 10SM SCT018 BKN020 OVC060 08/04 A3021 RMK AO2 SLP239 60000 T00780044 10078 20061 50004=
202203311733 SPECI KBLI 311733Z 18008KT 10SM SCT018 BKN020 OVC055 08/05 A3021 RMK AO2 T00780050=
202203311653 METAR KBLI 311653Z 18004KT 10SM FEW021 OVC055 07/04 A3021 RMK AO2 SLP239 T00720044=
202203311553 METAR KBLI 311553Z 20006KT 10SM FEW013 BKN046 OVC060 07/06 A3021 RMK AO2 SLP236 CIGS LWR NW-NE T00720056=
202203311529 SPECI KBLI 311529Z 18005KT 10SM FEW013 FEW028 OVC060 07/06 A3020 RMK AO2 CIGS LWR NW-NE T00720056=
202203311514 SPECI KBLI 311514Z 19004KT 10SM BKN028 OVC060 07/06 A3020 RMK AO2 T00670056=
202203311453 METAR KBLI 311453Z 18004KT 10SM FEW022 SCT028 OVC060 07/05 A3020 RMK AO2 SLP235 60000 T00670050 53000=
202203311353 METAR KBLI 311353Z 19003KT 10SM SCT018 OVC026 06/05 A3020 RMK AO2 RAE05B30E45 SLP233 P0000 T00610050=
202203311253 METAR KBLI 311253Z AUTO 16006KT 9SM -RA FEW015 BKN022 OVC028 07/06 A3019 RMK AO2 RAB1158 SLP233 P0000 T00670061=
202203311153 METAR KBLI 311153Z AUTO 17004KT 10SM BKN027 OVC033 07/06 A3020 RMK AO2 RAB17E29 SLP234 P0000 60007 70009 T00670056 10072 20061 51001=
202203311146 SPECI KBLI 311146Z AUTO 18004KT 10SM OVC029 07/05 A3020 RMK AO2 RAB17E29 P0000 T00670050=
202203311133 SPECI KBLI 311133Z AUTO 18004KT 10SM OVC030 06/06 A3020 RMK AO2 RAB17E29 P0000 T00610056=
202203311102 SPECI KBLI 311102Z AUTO 21003KT 10SM OVC028 06/06 A3020 RMK AO2 T00610056=
202203311053 METAR KBLI 311053Z AUTO 17005KT 10SM BKN030 OVC037 07/06 A3019 RMK AO2 RAE35 SLP233 P0007 T00670056=
202203311031 SPECI KBLI 311031Z AUTO 17006KT 10SM -RA FEW016 FEW024 OVC033 07/06 A3019 RMK AO2 P0007 T00670056=
202203311000 SPECI KBLI 311000Z AUTO 18005KT 4SM RA BR BKN020 BKN029 OVC036 07/06 A3020 RMK AO2 P0003 T00670056=
202203310953 METAR KBLI 310953Z AUTO 00000KT 6SM -RA BR SCT019 BKN035 OVC045 07/04 A3020 RMK AO2 RAB43 SLP236 P0000 T00670044=
202203310853 METAR KBLI 310853Z AUTO 14005KT 10SM SCT049 SCT065 06/04 A3019 RMK AO2 SLP233 T00610039 51005=
202203310753 METAR KBLI 310753Z AUTO 15005KT 10SM OVC070 07/04 A3019 RMK AO2 SLP231 T00670039 401220061=
202203310653 METAR KBLI 310653Z AUTO 16004KT 10SM BKN070 07/03 A3019 RMK AO2 SLP231 T00720033=
202203310553 METAR KBLI 310553Z AUTO VRB03KT 10SM SCT065 07/04 A3018 RMK AO2 SLP228 T00720039 10122 20067 51007=
202203310453 METAR KBLI 310453Z 18003KT 10SM SCT060 07/04 A3018 RMK AO2 SLP227 T00720044=
202203310353 METAR KBLI 310353Z 00000KT 10SM CLR 07/04 A3018 RMK AO2 SLP226 T00720044=
202203310253 METAR KBLI 310253Z VRB05KT 10SM SCT050 10/03 A3016 RMK AO2 SLP221 T01000033 51001=
202203310153 METAR KBLI 310153Z VRB03KT 10SM SCT100 11/03 A3016 RMK AO2 SLP220 T01110028=
202203310053 METAR KBLI 310053Z VRB05KT 10SM CLR 12/02 A3016 RMK AO2 SLP221 T01170017=
202203302353 METAR KBLI 302353Z 25007G15KT 200V300 10SM SCT045 BKN055 12/03 A3016 RMK AO2 SLP219 T01220028 10122 20094 50000=
202203302253 METAR KBLI 302253Z 18007KT 10SM FEW045 SCT055 12/04 A3016 RMK AO2 SLP218 T01170039=
202203302153 METAR KBLI 302153Z VRB06KT 10SM SCT050 BKN060 12/04 A3016 RMK AO2 SLP221 T01170039=
202203302053 METAR KBLI 302053Z 17009G16KT 10SM FEW043 12/04 A3016 RMK AO2 SLP219 T01220044 51007=
202203301953 METAR KBLI 301953Z 18011KT 10SM BKN037 BKN046 11/05 A3015 RMK AO2 SLP218 T01110050=
202203301853 METAR KBLI 301853Z 17007KT 10SM SCT030 BKN041 10/05 A3015 RMK AO2 SLP217 T01000050=
202203301809 SPECI KBLI 301809Z 17008KT 10SM SCT025 BKN043 10/06 A3014 RMK AO2 T01000061=
202203301753 METAR KBLI 301753Z 18009G17KT 10SM BKN016 09/07 A3014 RMK AO2 SLP212 60002 T00940067 10094 20072 53009=
202203301653 METAR KBLI 301653Z 18012G16KT 10SM OVC018 09/07 A3012 RMK AO2 SLP208 T00890067=
202203301553 METAR KBLI 301553Z 18009KT 10SM OVC019 08/07 A3011 RMK AO2 RAE27 SLP204 P0000 T00830067=
202203301528 SPECI KBLI 301528Z 18010G17KT 10SM FEW015 BKN020 OVC070 08/06 A3011 RMK AO2 RAE27 P0000 T00780061=
202203301453 METAR KBLI 301453Z 19008G15KT 10SM -RA SCT018 BKN040 OVC070 08/06 A3011 RMK AO2 RAB48 SLP203 P0000 60002 T00830061 53007=
202203301353 METAR KBLI 301353Z 17009G15KT 10SM BKN046 OVC055 08/06 A3010 RMK AO2 RAE12 SLP201 P0000 T00780061=
202203301253 METAR KBLI 301253Z AUTO 17008KT 10SM -RA FEW019 OVC036 08/07 A3009 RMK AO2 RAB04 SLP198 P0002 T00780067=
202203301153 METAR KBLI 301153Z AUTO 19004KT 10SM FEW055 BKN070 OVC110 08/06 A3009 RMK AO2 SLP196 60011 70011 T00830056 10100 20078 53005=
202203301053 METAR KBLI 301053Z AUTO 18004KT 10SM OVC050 08/06 A3008 RMK AO2 RAE18 SLP192 P0001 T00830061=
202203301014 SPECI KBLI 301014Z AUTO 19004KT 10SM -RA FEW021 FEW027 OVC049 08/07 A3007 RMK AO2 P0001 T00830067=
202203300953 METAR KBLI 300953Z AUTO 19006KT 10SM -RA SCT014 BKN025 OVC047 08/07 A3008 RMK AO2 RAE20B29 SLP191 P0001 T00830072=
202203300951 SPECI KBLI 300951Z AUTO 19007KT 10SM -RA SCT016 BKN029 OVC047 08/07 A3008 RMK AO2 RAE20B29 P0001=
202203300939 SPECI KBLI 300939Z AUTO VRB04G16KT 10SM -RA FEW010 SCT015 OVC046 08/08 A3007 RMK AO2 RAE20B29 P0001 T00830078=
202203300931 SPECI KBLI 300931Z AUTO 18009G16KT 10SM -RA FEW008 BKN017 OVC044 08/08 A3007 RMK AO2 RAE20B29 P0001 T00830083=
202203300924 SPECI KBLI 300924Z AUTO 19008G19KT 10SM SCT008 BKN013 OVC042 08/08 A3007 RMK AO2 RAE20 P0001 T00830083=
202203300904 SPECI KBLI 300904Z AUTO 20009G22KT 160V250 3SM -RA BR BKN007 OVC014 08/08 A3006 RMK AO2 P0001 T00830083=
202203300857 SPECI KBLI 300857Z AUTO 18012G22KT 150V210 3SM -RA BR SCT005 BKN010 OVC014 08/08 A3006 RMK AO2 P0000 T00830083=
202203300853 METAR KBLI 300853Z AUTO 18009G19KT 2 1/2SM -RA BR BKN005 OVC010 08/08 A3006 RMK AO2 SLP185 P0007 60009 T00830083 53009=
202203300834 SPECI KBLI 300834Z AUTO 18010G20KT 2 1/2SM -RA BR BKN003 OVC008 08/08 A3005 RMK AO2 P0003 T00830083=
202203300817 SPECI KBLI 300817Z AUTO 17010G18KT 4SM -RA BR BKN005 OVC010 09/09 A3004 RMK AO2 P0001 T00890089=
202203300809 SPECI KBLI 300809Z AUTO 17012G21KT 4SM -RA BR SCT005 BKN010 OVC018 09/09 A3004 RMK AO2 P0001 T00890089=
202203300753 METAR KBLI 300753Z AUTO 18011G18KT 4SM -RA BR FEW005 BKN017 OVC025 09/09 A3004 RMK AO2 SLP179 P0002 T00890089 401390033=
202203300653 METAR KBLI 300653Z AUTO 19005KT 10SM -RA FEW017 BKN025 OVC032 10/09 A3003 RMK AO2 RAB40 SLP176 P0000 T01000089=
202203300553 METAR KBLI 300553Z AUTO 18006KT 10SM BKN027 OVC038 10/09 A3003 RMK AO2 SLP176 T01000089 10139 20100 51004=
202203300543 SPECI KBLI 300543Z AUTO 18007KT 10SM BKN027 BKN032 OVC040 11/09 A3003 RMK AO2 T01060089=
202203300453 METAR KBLI 300453Z 19006KT 10SM OVC055 11/08 A3003 RMK AO2 SLP174 T01060083=
202203300353 METAR KBLI 300353Z 20004KT 10SM BKN040 OVC060 11/08 A3003 RMK AO2 SLP178 T01110083=
202203300253 METAR KBLI 300253Z 20005KT 10SM BKN065 OVC075 11/08 A3002 RMK AO2 SLP173 T01110083 56006=
202203300153 METAR KBLI 300153Z 19004KT 10SM OVC070 13/08 A3002 RMK AO2 SLP173 T01280078=
202203300053 METAR KBLI 300053Z 17007KT 10SM CLR 13/08 A3003 RMK AO2 SLP176 T01330078=
202203292353 METAR KBLI 292353Z 19007KT 10SM CLR 14/08 A3004 RMK AO2 SLP179 T01390078 10139 20100 58001=
202203292253 METAR KBLI 292253Z 20008KT 10SM BKN040 13/08 A3004 RMK AO2 SLP180 T01330083=
202203292153 METAR KBLI 292153Z VRB05KT 10SM OVC039 13/09 A3004 RMK AO2 SLP179 T01280089=
202203292053 METAR KBLI 292053Z 22007KT 180V240 10SM SCT038 12/08 A3004 RMK AO2 SLP179 T01220083 58001=
202203292026 SPECI KBLI 292026Z VRB04KT 10SM SCT038 12/09 A3004 RMK AO2 T01170089=
202203291953 METAR KBLI 291953Z 20007KT 10SM OVC039 11/09 A3005 RMK AO2 SLP182 T01110089=
202203291853 METAR KBLI 291853Z 18006KT 10SM SCT037 11/09 A3004 RMK AO2 SLP180 T01060089=
202203291753 METAR KBLI 291753Z 17006KT 10SM SCT037 10/08 A3004 RMK AO2 SLP180 T01000083 10100 20033 51007=
202203291653 METAR KBLI 291653Z 00000KT 10SM SCT014 09/09 A3004 RMK AO2 SLP179 T00940089=
202203291553 METAR KBLI 291553Z 00000KT 10SM FEW004 08/08 A3003 RMK AO2 SLP176 T00780078=
202203291528 SPECI KBLI 291528Z 00000KT 10SM R16/1200VP6000FT BCFG SCT002 07/07 A3003 RMK AO2 T00670067=
202203291513 SPECI KBLI 291513Z 00000KT 3/4SM R16/1000V1400FT BR BKN002 06/06 A3002 RMK AO2 T00610061=
202203291454 SPECI KBLI 291454Z 00000KT 3/4SM R16/1400VP6000FT BR BKN002 05/05 A3002 RMK AO2 T00500050=
202203291453 METAR KBLI 291453Z 00000KT 10SM R16/1400VP6000FT SCT002 05/05 A3002 RMK AO2 SLP174 T00500050 53010=
202203291353 METAR KBLI 291353Z 00000KT 10SM FEW010 SCT020 04/04 A3001 RMK AO2 SLP169 T00390039=
202203291323 SPECI KBLI 291323Z AUTO 00000KT 4SM BR SCT010 04/04 A2999 RMK AO2 T00390039=
202203291320 SPECI KBLI 291320Z AUTO 00000KT 2 1/2SM BR FEW002 BKN010 04/04 A2999 RMK AO2 VIS 1V5 T00390039=
202203291300 SPECI KBLI 291300Z AUTO 00000KT 1 1/2SM R16/4000VP6000FT BR BKN012 04/04 A3000 RMK AO2 T00390039=
202203291253 METAR KBLI 291253Z AUTO 00000KT 2 1/2SM R16/6000VP6000FT BR FEW012 04/04 A3000 RMK AO2 VIS 1 1/4V5 SLP167 T00440044=
202203291153 METAR KBLI 291153Z AUTO 00000KT 7SM CLR 05/05 A2999 RMK AO2 SLP163 70014 T00500050 10089 20039 53003=
202203291053 METAR KBLI 291053Z AUTO 00000KT 10SM CLR 06/06 A2998 RMK AO2 SLP161 T00560056=
202203290953 METAR KBLI 290953Z AUTO 00000KT 10SM CLR 07/07 A2997 RMK AO2 SLP156 T00670067=
202203290921 SPECI KBLI 290921Z AUTO 00000KT 10SM SCT020 07/07 A2997 RMK AO2 T00720072=
202203290853 METAR KBLI 290853Z AUTO 00000KT 10SM BKN021 BKN026 OVC036 08/08 A2998 RMK AO2 SLP160 T00830083 51013=
202203290753 METAR KBLI 290753Z AUTO 00000KT 10SM OVC031 08/08 A2998 RMK AO2 SLP160 T00830078 401280061=
202203290701 SPECI KBLI 290701Z AUTO 00000KT 10SM OVC030 07/07 A2996 RMK AO2 T00720072=
202203290653 METAR KBLI 290653Z AUTO 12003KT 10SM OVC029 07/07 A2996 RMK AO2 SLP153 T00720067=
202203290644 SPECI KBLI 290644Z AUTO 00000KT 10SM BKN029 06/06 A2996 RMK AO2 T00610061=
202203290553 METAR KBLI 290553Z AUTO 00000KT 10SM CLR 07/07 A2994 RMK AO2 SLP148 T00720072 10128 20072 51020=
202203290453 METAR KBLI 290453Z 00000KT 10SM OVC032 09/08 A2994 RMK AO2 SLP145 T00890078=
202203290353 METAR KBLI 290353Z 00000KT 10SM SCT034 08/08 A2991 RMK AO2 SLP138 T00830078=
202203290253 METAR KBLI 290253Z 00000KT 10SM CLR 09/08 A2988 RMK AO2 SLP128 T00890083 53014=
202203290153 METAR KBLI 290153Z VRB03KT 10SM CLR 12/08 A2987 RMK AO2 SLP121 T01170083=
202203290053 METAR KBLI 290053Z VRB03KT 10SM SCT022 12/08 A2985 RMK AO2 SLP115 T01220083=
202203282353 METAR KBLI 282353Z 20003KT 10SM FEW020 OVC075 12/09 A2984 RMK AO2 SLP113 60000 T01170089 10128 20094 52003=
202203282253 METAR KBLI 282253Z 16008KT 10SM SCT019 OVC070 12/09 A2984 RMK AO2 SLP110 T01220094=
202203282153 METAR KBLI 282153Z 18004KT 10SM BKN017 12/09 A2984 RMK AO2 SLP112 T01170094=
202203282109 SPECI KBLI 282109Z VRB03KT 10SM BKN012 11/09 A2983 RMK AO2 T01110094=
202203282053 METAR KBLI 282053Z VRB03KT 10SM BKN009 OVC030 11/09 A2983 RMK AO2 SLP109 60000 T01060094 53015=
202203282012 SPECI KBLI 282012Z 31006KT 10SM OVC009 11/09 A2983 RMK AO2 T01060089=
202203282009 SPECI KBLI 282009Z VRB05KT 10SM OVC090 11/09 A2983 RMK AO2 T01060094=
202203281953 METAR KBLI 281953Z 32005KT 10SM OVC008 11/09 A2982 RMK AO2 RAB02E15 CIG 005V012 SLP104 P0000 T01060094=
202203281853 METAR KBLI 281853Z 28003KT 10SM OVC006 10/09 A2980 RMK AO2 RAE20 CIG 005V009 SLP099 P0000 T01000094=
202203281753 METAR KBLI 281753Z 30003KT 7SM -RA OVC005 09/09 A2979 RMK AO2 CIG 004V008 SLP095 P0001 60014 T00940089 10094 20083 52018=
202203281653 METAR KBLI 281653Z 00000KT 4SM -RA BR OVC005 09/09 A2978 RMK AO2 SLP091 P0003 T00890089=
202203281624 SPECI KBLI 281624Z 31003KT 4SM -RA BR OVC006 09/09 A2976 RMK AO2 CIG 004V010 P0002 T00890089=
202203281553 METAR KBLI 281553Z 00000KT 4SM -RA BR OVC003 09/09 A2975 RMK AO2 SLP082 P0001 T00890089=
202203281453 METAR KBLI 281453Z 00000KT 2SM -RA BR BKN002 OVC012 09/09 A2974 RMK AO2 SLP077 P0002 60009 T00890089 53015=
202203281451 SPECI KBLI 281451Z 00000KT 2SM -RA BR BKN002 OVC012 09/09 A2974 RMK AO2 P0001=
202203281353 METAR KBLI 281353Z 00000KT 3SM -RA BR SCT003 OVC009 09/09 A2972 RMK AO2 SLP070 P0002 T00890089=
202203281306 SPECI KBLI 281306Z AUTO 00000KT 5SM -RA BR SCT003 OVC008 08/08 A2971 RMK AO2 P0001 T00830083=
202203281253 METAR KBLI 281253Z AUTO 00000KT 7SM -RA BKN003 OVC007 08/08 A2971 RMK AO2 SLP067 P0005 T00830083=
202203281225 SPECI KBLI 281225Z AUTO 29005KT 5SM -RA BR BKN006 OVC034 08/08 A2970 RMK AO2 CIG 003V009 P0003 T00830083=
202203281216 SPECI KBLI 281216Z AUTO 30004KT 4SM -RA BR FEW003 SCT006 OVC035 09/09 A2970 RMK AO2 P0002 T00890089=
202203281153 METAR KBLI 281153Z AUTO 00000KT 10SM -RA BKN037 BKN060 OVC075 09/09 A2969 RMK AO2 RAB33 SLP061 P0000 60000 T00890089 10094 20089 51004=
202203281053 METAR KBLI 281053Z AUTO 19003KT 10SM FEW012 BKN049 OVC085 09/09 A2969 RMK AO2 SLP061 T00890089=
202203280953 METAR KBLI 280953Z AUTO 00000KT 10SM FEW019 OVC031 09/09 A2969 RMK AO2 SLP060 T00940089=
202203280853 METAR KBLI 280853Z AUTO 00000KT 10SM BKN032 OVC090 09/09 A2968 RMK AO2 SLP057 T00940089 50003=
202203280809 SPECI KBLI 280809Z AUTO 18003KT 10SM SCT022 OVC033 09/09 A2969 RMK AO2 T00940089=
202203280753 METAR KBLI 280753Z AUTO 00000KT 10SM OVC023 09/09 A2969 RMK AO2 SLP062 T00940089 401560089=
202203280727 SPECI KBLI 280727Z AUTO 00000KT 10SM FEW004 BKN025 OVC110 09/09 A2969 RMK AO2 T00890089=
202203280715 SPECI KBLI 280715Z AUTO 25005KT 10SM FEW004 SCT030 BKN100 09/09 A2969 RMK AO2 T00890089=
202203280653 METAR KBLI 280653Z AUTO 26005KT 10SM FEW021 FEW036 OVC100 09/08 A2968 RMK AO2 SLP058 T00940083=
202203280553 METAR KBLI 280553Z AUTO 00000KT 10SM OVC110 09/08 A2967 RMK AO2 SLP054 60000 T00940083 10122 20089 58001=
202203280453 METAR KBLI 280453Z 00000KT 10SM OVC110 09/09 A2968 RMK AO2 SLP057 T00940089=
202203280353 METAR KBLI 280353Z 14004KT 10SM FEW026 BKN110 10/08 A2967 RMK AO2 RAB10E20 SLP055 P0000 T01000083=
202203280253 METAR KBLI 280253Z 23003KT 10SM BKN090 OVC120 10/08 A2967 RMK AO2 SLP055 T01000083 51010=
202203280153 METAR KBLI 280153Z 00000KT 10SM BKN075 OVC090 11/08 A2966 RMK AO2 SLP052 T01060083=
202203280053 METAR KBLI 280053Z VRB04KT 10SM FEW060 BKN080 OVC095 11/08 A2966 RMK AO2 SLP052 T01060083=
202203272353 METAR KBLI 272353Z 29004KT 10SM FEW075 OVC095 12/09 A2964 RMK AO2 SLP045 T01220094 10156 20117 56013=
202203272253 METAR KBLI 272253Z 26006KT 10SM FEW070 13/09 A2965 RMK AO2 SLP048 T01330094=
202203272153 METAR KBLI 272153Z 32004KT 10SM FEW080 16/11 A2966 RMK AO2 SLP050 T01560106=
202203272053 METAR KBLI 272053Z VRB04KT 10SM FEW070 14/10 A2968 RMK AO2 SLP058 T01390100 58010=
202203271953 METAR KBLI 271953Z VRB04KT 10SM FEW010 SCT090 14/10 A2970 RMK AO2 SLP062 T01440100=
202203271853 METAR KBLI 271853Z VRB03KT 10SM FEW010 SCT060 BKN120 13/09 A2971 RMK AO2 SLP066 T01330094=
202203271809 SPECI KBLI 271809Z 03005KT 10SM SCT010 BKN070 13/09 A2971 RMK AO2 T01280094=
202203271753 METAR KBLI 271753Z 04006KT 10SM BKN010 BKN060 12/10 A2971 RMK AO2 SLP069 60000 T01220100 10122 20089 56002=
202203271659 SPECI KBLI 271659Z 36003KT 10SM BKN010 BKN075 11/09 A2972 RMK AO2 T01110094=
202203271653 METAR KBLI 271653Z 01003KT 10SM SCT010 BKN075 11/09 A2972 RMK AO2 SLP071 T01110094=
202203271553 METAR KBLI 271553Z 32004KT 10SM SCT011 OVC120 10/09 A2971 RMK AO2 SLP069 T01000089=
202203271453 METAR KBLI 271453Z 32003KT 10SM SCT080 BKN090 OVC110 09/08 A2972 RMK AO2 SLP071 60000 T00940083 56007=
202203271353 METAR KBLI 271353Z 01003KT 10SM OVC080 09/08 A2973 RMK AO2 RAB19E34 SLP073 P0000 T00940083=
202203271253 METAR KBLI 271253Z AUTO 01005KT 10SM FEW075 BKN090 09/09 A2973 RMK AO2 RAE21 SLP075 P0000 T00940089=
202203271153 METAR KBLI 271153Z AUTO 02005KT 10SM -RA BKN080 OVC095 09/09 A2974 RMK AO2 RAB01 SLP078 P0000 60000 70001 T00940089 10106 20094 58016=
202203271053 METAR KBLI 271053Z AUTO 02005KT 10SM SCT065 BKN080 OVC100 09/09 A2976 RMK AO2 RAB06E33 SLP084 P0000 T00940089=
202203270953 METAR KBLI 270953Z AUTO 36005KT 10SM OVC060 10/09 A2977 RMK AO2 RAB41E52 SLP088 P0000 T01000089=
202203270853 METAR KBLI 270853Z AUTO 03007KT 10SM OVC070 10/09 A2979 RMK AO2 RAB15E40 SLP094 P0000 60000 T01000089 58012=
202203270753 METAR KBLI 270753Z AUTO 02006KT 10SM OVC070 10/08 A2980 RMK AO2 SLP098 T01000083 401280067=
202203270653 METAR KBLI 270653Z AUTO 02004KT 10SM BKN040 OVC075 11/08 A2981 RMK AO2 SLP102 T01060078=
202203270553 METAR KBLI 270553Z AUTO 02007KT 10SM OVC041 11/08 A2982 RMK AO2 SLP105 T01060078 10128 20106 58012=
202203270453 METAR KBLI 270453Z 02006KT 10SM OVC039 11/08 A2983 RMK AO2 SLP109 T01060078=
202203270353 METAR KBLI 270353Z 03008KT 10SM OVC042 11/07 A2985 RMK AO2 SLP114 T01060072=
202203270253 METAR KBLI 270253Z 03007KT 10SM OVC044 11/08 A2986 RMK AO2 SLP118 T01110083 58016=
202203270153 METAR KBLI 270153Z 04009KT 10SM OVC035 12/07 A2988 RMK AO2 SLP124 T01170072=
202203270053 METAR KBLI 270053Z 02007KT 10SM OVC035 12/08 A2989 RMK AO2 SLP128 T01220078=
202203262353 METAR KBLI 262353Z 04007KT 10SM OVC035 13/08 A2990 RMK AO2 SLP133 T01280078 10128 20100 56008=
202203262253 METAR KBLI 262253Z 03009KT 10SM OVC037 13/08 A2991 RMK AO2 SLP135 T01280083=
202203262153 METAR KBLI 262153Z 03007KT 10SM OVC038 13/08 A2992 RMK AO2 SLP138 T01280083=
202203262053 METAR KBLI 262053Z 02006KT 10SM OVC041 13/08 A2993 RMK AO2 SLP141 T01280083 58006=
202203261953 METAR KBLI 261953Z 02006KT 10SM OVC043 12/09 A2994 RMK AO2 SLP144 T01220089=
202203261853 METAR KBLI 261853Z 02007KT 10SM OVC070 11/09 A2995 RMK AO2 SLP149 T01110089=
202203261753 METAR KBLI 261753Z 03011KT 10SM BKN047 OVC060 10/08 A2995 RMK AO2 RAE29 SLP148 P0000 60001 T01000083 10100 20078 58011=
202203261653 METAR KBLI 261653Z 04007KT 9SM -RA OVC050 09/08 A2996 RMK AO2 RAB38 SLP155 P0001 T00890083=
202203261553 METAR KBLI 261553Z 03006KT 10SM OVC050 08/08 A2996 RMK AO2 RAE43 SLP154 P0000 T00830078=
202203261453 METAR KBLI 261453Z 00000KT 10SM -RA OVC060 08/07 A2998 RMK AO2 RAB23 SLP159 P0000 60000 T00780072 55008=
202203261353 METAR KBLI 261353Z 03006KT 10SM OVC070 08/07 A2997 RMK AO2 RAE10 SLP154 P0000 T00780072=
202203261253 METAR KBLI 261253Z AUTO 04004KT 10SM -RA OVC060 08/07 A2997 RMK AO2 SLP157 P0000 T00780067=
202203261153 METAR KBLI 261153Z AUTO 15004KT 10SM -RA OVC049 08/07 A3000 RMK AO2 SLP167 P0000 60000 T00830072 10089 20067 53005=
202203261053 METAR KBLI 261053Z AUTO 19004KT 10SM -RA OVC060 07/07 A2999 RMK AO2 RAB38 SLP164 P0000 T00720067=
202203260953 METAR KBLI 260953Z AUTO 00000KT 10SM OVC070 07/07 A2999 RMK AO2 SLP162 T00720067=
202203260853 METAR KBLI 260853Z 00000KT 10SM OVC090 08/07 A2999 RMK AO2 SLP161 T00780067 56013=
202203260753 METAR KBLI 260753Z 00000KT 10SM BKN110 07/06 A2999 RMK AO2 SLP163 T00720061 401330039=
202203260653 METAR KBLI 260653Z 00000KT 10SM FEW065 SCT090 07/06 A3001 RMK AO2 SLP171 T00720061=
202203260553 METAR KBLI 260553Z 00000KT 10SM SCT100 07/06 A3002 RMK AO2 SLP175 T00720061 10128 20072 58003=
202203260453 METAR KBLI 260453Z 00000KT 10SM FEW090 08/06 A3003 RMK AO2 SLP178 T00830061=
202203260353 METAR KBLI 260353Z 00000KT 10SM BKN100 09/07 A3004 RMK AO2 SLP179 T00890067=
202203260253 METAR KBLI 260253Z 26003KT 10SM FEW080 BKN100 10/06 A3003 RMK AO2 SLP178 T01000061 58008=
202203260153 METAR KBLI 260153Z 00000KT 10SM FEW080 BKN100 12/06 A3005 RMK AO2 SLP183 T01220061=
202203260053 METAR KBLI 260053Z 32003KT 10SM OVC090 13/06 A3006 RMK AO2 SLP188 T01280061=
202203252353 METAR KBLI 252353Z 25003KT 10SM SCT070 OVC090 13/05 A3006 RMK AO2 SLP186 T01280050 10133 20100 55005=
202203252253 METAR KBLI 252253Z 00000KT 10SM SCT080 OVC100 13/06 A3005 RMK AO2 SLP185 T01330056=
202203252153 METAR KBLI 252153Z VRB04KT 10SM SCT055 BKN090 13/05 A3006 RMK AO2 SLP187 T01280050=
202203252053 METAR KBLI 252053Z VRB03KT 10SM SCT060 OVC090 13/05 A3007 RMK AO2 SLP191 T01280050 58001=
202203251953 METAR KBLI 251953Z 15005KT 10SM BKN065 BKN075 OVC095 12/04 A3009 RMK AO2 SLP196 T01170044=
202203251853 METAR KBLI 251853Z 20003KT 10SM OVC075 11/03 A3008 RMK AO2 SLP194 T01110028=
202203251753 METAR KBLI 251753Z VRB04KT 10SM BKN070 OVC110 10/04 A3008 RMK AO2 SLP192 T01000044 10100 20044 53004=
202203251653 METAR KBLI 251653Z 00000KT 10SM BKN080 OVC095 09/07 A3006 RMK AO2 SLP188 T00890072=
202203251553 METAR KBLI 251553Z 00000KT 10SM OVC100 08/07 A3006 RMK AO2 SLP187 T00780072=
202203251453 METAR KBLI 251453Z 00000KT 10SM SCT110 06/06 A3006 RMK AO2 SLP188 T00560056 53007=
202203251353 METAR KBLI 251353Z 00000KT 10SM CLR 05/05 A3006 RMK AO2 SLP186 T00500050=
202203251253 METAR KBLI 251253Z AUTO 00000KT 7SM CLR 04/04 A3005 RMK AO2 SLP183 T00440044=
202203251153 METAR KBLI 251153Z AUTO 00000KT 10SM CLR 05/05 A3004 RMK AO2 SLP180 T00500050 10072 20039 55004=
202203251053 METAR KBLI 251053Z AUTO 00000KT 9SM CLR 04/04 A3004 RMK AO2 SLP181 T00440039=
202203250953 METAR KBLI 250953Z 00000KT 10SM CLR 06/06 A3005 RMK AO2 SLP182 T00560056=
202203250853 METAR KBLI 250853Z 15003KT 10SM CLR 06/06 A3005 RMK AO2 SLP185 T00610056 58003=
202203250753 METAR KBLI 250753Z 00000KT 10SM CLR 07/06 A3006 RMK AO2 SLP188 T00670061 401500011=
202203250653 METAR KBLI 250653Z 17003KT 10SM CLR 06/05 A3007 RMK AO2 SLP190 T00610050=
202203250553 METAR KBLI 250553Z 00000KT 10SM CLR 06/06 A3006 RMK AO2 SLP188 T00610056 10150 20061 55003=
202203250453 METAR KBLI 250453Z 00000KT 10SM CLR 06/06 A3006 RMK AO2 SLP188 T00610056=
202203250353 METAR KBLI 250353Z 00000KT 10SM CLR 07/06 A3007 RMK AO2 SLP192 T00670061=
202203250253 METAR KBLI 250253Z 00000KT 10SM CLR 09/06 A3007 RMK AO2 SLP192 T00890061 56019=
202203250153 METAR KBLI 250153Z 29005KT 10SM FEW090 11/07 A3009 RMK AO2 SLP196 T01060067=
202203250053 METAR KBLI 250053Z 02009KT 10SM CLR 14/03 A3010 RMK AO2 SLP201 T01390028=
202203242353 METAR KBLI 242353Z 03007KT 10SM FEW090 15/03 A3013 RMK AO2 SLP211 T01500028 10150 20083 56031=
202203242253 METAR KBLI 242253Z 03010KT 10SM SCT080 14/03 A3016 RMK AO2 SLP221 T01390033=
202203242153 METAR KBLI 242153Z 04009G16KT 340V070 10SM CLR 13/04 A3019 RMK AO2 SLP231 T01330039=
202203242053 METAR KBLI 242053Z 04008KT 10SM CLR 12/05 A3022 RMK AO2 SLP242 T01220050 58025=
202203241953 METAR KBLI 241953Z 03011G17KT 10SM CLR 11/05 A3025 RMK AO2 SLP252 T01110050=
202203241853 METAR KBLI 241853Z 04009KT 10SM CLR 10/06 A3028 RMK AO2 SLP261 T01000056=
202203241753 METAR KBLI 241753Z 01008KT 10SM CLR 08/06 A3030 RMK AO2 SLP267 T00830056 10083 20011 56015=
202203241653 METAR KBLI 241653Z 02005KT 10SM CLR 06/05 A3031 RMK AO2 SLP272 T00610050=
202203241553 METAR KBLI 241553Z 02004KT 10SM SCT001 04/04 A3032 RMK AO2 SLP278 T00390039=
202203241539 SPECI KBLI 241539Z 00000KT 10SM R16/1600VP6000FT CLR 03/03 A3033 RMK AO2 T00330033=
202203241522 SPECI KBLI 241522Z 00000KT 1/4SM R16/1800V2400FT FG VV001 02/02 A3033 RMK AO2 T00220022=
202203241511 SPECI KBLI 241511Z 00000KT 1/4SM R16/1400V2200FT FG VV001 02/02 A3033 RMK AO2 T00220022=
202203241453 METAR KBLI 241453Z 02003KT M1/4SM R16/0800V1600FT FG VV001 02/02 A3034 RMK AO2 SLP284 T00170017 53001=
202203241427 SPECI KBLI 241427Z 02004KT M1/4SM R16/1000V1800FT FG VV001 02/02 A3034 RMK AO2 T00220022=
202203241410 SPECI KBLI 241410Z 00000KT 1/4SM R16/4000VP6000FT FG BKN002 03/03 A3034 RMK AO2 T00280028=
202203241405 SPECI KBLI 241405Z 00000KT 10SM R16/4500VP6000FT SCT002 02/02 A3034 RMK AO2 T00220022=
202203241353 METAR KBLI 241353Z 00000KT 10SM R16/5500VP6000FT CLR 02/02 A3033 RMK AO2 SLP281 T00220022=
202203241253 METAR KBLI 241253Z AUTO 00000KT 10SM CLR 03/03 A3033 RMK AO2 SLP280 T00330033=
202203241203 SPECI KBLI 241203Z AUTO 00000KT 6SM BR CLR 02/02 A3033 RMK AO2 T00170017=
202203241153 METAR KBLI 241153Z AUTO 00000KT 2SM BR CLR 02/02 A3034 RMK AO2 SLP281 70020 T00220022 10078 20011 58003=
202203241143 SPECI KBLI 241143Z AUTO 00000KT 1 3/4SM BR CLR 02/02 A3034 RMK AO2 T00170017=
202203241053 METAR KBLI 241053Z AUTO 00000KT 10SM CLR 02/02 A3035 RMK AO2 SLP286 T00220022=
202203240953 METAR KBLI 240953Z AUTO 15006KT 10SM CLR 04/04 A3035 RMK AO2 SLP285 T00390039=
202203240853 METAR KBLI 240853Z AUTO 18004KT 10SM CLR 05/05 A3034 RMK AO2 SLP284 T00500050 53012=
202203240753 METAR KBLI 240753Z AUTO 21003KT 10SM CLR 05/04 A3033 RMK AO2 SLP278 T00500044 401060050=
202203240653 METAR KBLI 240653Z AUTO 18005KT 10SM CLR 07/04 A3032 RMK AO2 SLP275 T00670039=
202203240553 METAR KBLI 240553Z AUTO 19005KT 10SM CLR 08/06 A3031 RMK AO2 SLP272 T00780056 10094 20061 51027=
202203240453 METAR KBLI 240453Z 20008KT 10SM CLR 08/07 A3029 RMK AO2 SLP266 T00830067=
202203240353 METAR KBLI 240353Z VRB03KT 10SM CLR 07/07 A3026 RMK AO2 SLP254 T00720067=
202203240253 METAR KBLI 240253Z 18005KT 10SM SCT055 09/06 A3023 RMK AO2 SLP245 T00890061 53023=
202203240153 METAR KBLI 240153Z 19006KT 10SM BKN047 09/07 A3020 RMK AO2 SLP234 T00890072=
202203240112 SPECI KBLI 240112Z 19004KT 10SM BKN043 OVC055 09/08 A3018 RMK AO2 CIGS LWR NE-SE T00890078=
202203240053 METAR KBLI 240053Z 19006KT 10SM FEW007 BKN012 OVC038 09/08 A3018 RMK AO2 SLP226 T00940083=
202203232353 METAR KBLI 232353Z 17006KT 10SM FEW008 BKN014 OVC021 10/09 A3016 RMK AO2 SLP221 60020 T01000089 10106 20089 53011=
202203232253 METAR KBLI 232253Z 19008G16KT 10SM BKN012 OVC027 10/10 A3014 RMK AO2 RAE30 SLP213 P0001 T01000100=
202203232237 SPECI KBLI 232237Z 18010G17KT 10SM BKN009 BKN060 OVC075 11/10 A3013 RMK AO2 RAE30 P0001 T01060100=
202203232153 METAR KBLI 232153Z 17008KT 6SM -RA BR FEW045 OVC055 10/10 A3011 RMK AO2 SLP204 P0002 T01000100=
202203232053 METAR KBLI 232053Z 17008KT 4SM -RA BR FEW004 BKN025 BKN038 10/10 A3013 RMK AO2 SLP209 P0008 60017 T01000100 53005=
202203231953 METAR KBLI 231953Z 20004KT 4SM -RA BR FEW004 SCT007 OVC025 10/10 A3013 RMK AO2 SLP208 P0002 T01000100=
202203231853 METAR KBLI 231853Z 19005KT 3/4SM R16/P6000FT -RA BR OVC004 10/10 A3011 RMK AO2 SLP204 P0007 T01000100=
202203231753 METAR KBLI 231753Z 19006KT 3/4SM R16/P6000FT -RA BR OVC003 10/10 A3011 RMK AO2 RAB53 CIG 002V006 SLP204 P0000 60000 T01000100 10100 20094 53008=
202203231653 METAR KBLI 231653Z 18009KT 4SM BR OVC002 10/10 A3009 RMK AO2 SLP197 T01000100=
202203231628 SPECI KBLI 231628Z 19008KT 3SM BR OVC002 10/10 A3009 RMK AO2 T01000100=
202203231622 SPECI KBLI 231622Z 18007KT 1 3/4SM R16/5000VP6000FT BR OVC002 09/09 A3009 RMK AO2 T00940094=
202203231614 SPECI KBLI 231614Z 19007KT 2SM R16/5000VP6000FT BR BKN002 OVC007 09/09 A3009 RMK AO2 CIG 001V006 T00940094=
202203231558 SPECI KBLI 231558Z 22004KT 6SM BR BKN007 OVC012 10/10 A3009 RMK AO2 CIG 003V010 T01000100=
202203231553 METAR KBLI 231553Z 18005KT 6SM BR BKN010 OVC016 10/10 A3009 RMK AO2 RAB06E31 CIG 003V012 SLP196 P0000 T01000100=
202203231549 SPECI KBLI 231549Z 19005KT 6SM BR BKN012 OVC034 10/10 A3009 RMK AO2 RAB06E31 P0000=
202203231540 SPECI KBLI 231540Z 18004KT 1SM R16/P6000FT BR SCT008 BKN013 OVC034 10/10 A3009 RMK AO2 RAB06E31 P0000 T01000100=
202203231514 SPECI KBLI 231514Z 18005KT 1SM R16/P6000FT -RA BR OVC008 09/09 A3009 RMK AO2 RAB06 CIG 005V012 P0000 T00940094=
202203231453 METAR KBLI 231453Z 18005KT 3SM BR FEW004 OVC012 10/10 A3008 RMK AO2 SLP194 T01000100 58001=
202203231443 SPECI KBLI 231443Z 17006KT 3SM BR FEW004 BKN012 OVC023 10/10 A3008 RMK AO2 T01000100=
202203231436 SPECI KBLI 231436Z 17004KT 7SM FEW004 SCT014 OVC023 10/09 A3008 RMK AO2 T01000094=
202203231353 METAR KBLI 231353Z 19005KT 10SM OVC025 10/09 A3008 RMK AO2 SLP193 T01000094=
202203231313 SPECI KBLI 231313Z AUTO 18003KT 10SM OVC029 10/09 A3009 RMK AO2 T01000094=
202203231253 METAR KBLI 231253Z AUTO 00000KT 10SM OVC030 10/09 A3009 RMK AO2 SLP196 T01000094=
202203231153 METAR KBLI 231153Z AUTO 00000KT 10SM OVC031 09/09 A3008 RMK AO2 SLP195 70002 T00940094 10100 20089 56016=
202203231053 METAR KBLI 231053Z AUTO 00000KT 10SM OVC041 09/09 A3009 RMK AO2 SLP196 T00940094=
202203230953 METAR KBLI 230953Z AUTO 00000KT 10SM SCT035 OVC045 09/09 A3011 RMK AO2 SLP205 T00940094=
202203230853 METAR KBLI 230853Z AUTO 00000KT 10SM OVC030 10/09 A3013 RMK AO2 SLP211 T01000094 56002=
202203230851 SPECI KBLI 230851Z AUTO 00000KT 10SM OVC030 10/09 A3013 RMK AO2=
202203230815 SPECI KBLI 230815Z AUTO 00000KT 10SM BKN028 OVC048 10/09 A3013 RMK AO2 T01000094=
202203230753 METAR KBLI 230753Z AUTO 00000KT 10SM OVC048 09/09 A3013 RMK AO2 SLP211 T00940094 401330072=
202203230653 METAR KBLI 230653Z AUTO 00000KT 10SM BKN050 09/08 A3014 RMK AO2 SLP213 T00890083=
202203230553 METAR KBLI 230553Z AUTO 03005KT 10SM OVC048 10/09 A3016 RMK AO2 SLP223 T01000094 10133 20094 56020=
202203230453 METAR KBLI 230453Z 02005KT 10SM FEW050 09/09 A3017 RMK AO2 SLP225 T00940089=
202203230353 METAR KBLI 230353Z 04006KT 10SM CLR 11/09 A3020 RMK AO2 SLP233 T01060094=
202203230253 METAR KBLI 230253Z 04005KT 10SM OVC037 12/10 A3022 RMK AO2 SLP241 T01220100 56025=
202203230153 METAR KBLI 230153Z 04006KT 10SM OVC038 13/11 A3024 RMK AO2 SLP249 T01280106=
202203230053 METAR KBLI 230053Z 03007KT 10SM OVC036 13/11 A3027 RMK AO2 SLP259 T01330106=
202203222353 METAR KBLI 222353Z 04006KT 10SM SCT020 OVC030 13/11 A3030 RMK AO2 SLP267 T01330106 10133 20089 58022=
202203222253 METAR KBLI 222253Z 03007KT 10SM FEW027 SCT030 13/11 A3032 RMK AO2 SLP275 T01280106=
202203222225 SPECI KBLI 222225Z 01007KT 10SM OVC030 12/11 A3033 RMK AO2 T01220106=
202203222153 METAR KBLI 222153Z 03006KT 10SM OVC029 12/10 A3035 RMK AO2 SLP285 T01220100=
202203222053 METAR KBLI 222053Z 02008KT 10SM SCT010 OVC028 12/09 A3036 RMK AO2 SLP290 T01170094 56012=
202203221953 METAR KBLI 221953Z 02008KT 10SM BKN024 OVC050 11/09 A3038 RMK AO2 SLP295 T01060094=
202203221853 METAR KBLI 221853Z 03006KT 10SM SCT012 BKN020 10/09 A3038 RMK AO2 SLP296 T01000094=
202203221753 METAR KBLI 221753Z 03004KT 10SM FEW005 BKN011 OVC015 09/08 A3040 RMK AO2 SLP302 60002 T00890083 10089 20072 53002=
202203221653 METAR KBLI 221653Z 02004KT 10SM FEW005 BKN011 OVC015 08/08 A3040 RMK AO2 SLP302 T00830083=
202203221553 METAR KBLI 221553Z 02004KT 10SM FEW005 BKN010 OVC015 08/08 A3039 RMK AO2 SLP299 T00830083=
202203221527 SPECI KBLI 221527Z 03005KT 10SM FEW005 BKN011 OVC017 08/08 A3039 RMK AO2 T00780078=
202203221453 METAR KBLI 221453Z 36004KT 5SM BR FEW003 BKN009 OVC019 08/08 A3039 RMK AO2 CIG 007V013 SLP300 60002 T00780078 53003=
202203221355 SPECI KBLI 221355Z 00000KT 2SM BR OVC003 08/08 A3039 RMK AO2 T00780078=
202203221353 METAR KBLI 221353Z 01003KT 10SM OVC003 08/08 A3039 RMK AO2 RAE07 SLP299 P0001 T00780078=
202203221345 SPECI KBLI 221345Z AUTO 02003KT 9SM BKN003 OVC008 08/08 A3039 RMK AO2 RAE07 CIG 002V006 P0001 T00780078=
202203221336 SPECI KBLI 221336Z AUTO 00000KT 6SM BR BKN005 OVC009 08/08 A3039 RMK AO2 RAE07 CIG 002V007 P0001 T00780078=
202203221253 METAR KBLI 221253Z AUTO 03003KT 3SM -RA BR BKN002 OVC008 08/08 A3039 RMK AO2 SLP299 P0001 T00780078=
202203221227 SPECI KBLI 221227Z AUTO 00000KT 5SM -RA BR BKN003 OVC009 08/08 A3039 RMK AO2 P0001 T00780078=
202203221153 METAR KBLI 221153Z AUTO 03005KT 3SM -RA BR OVC009 07/07 A3038 RMK AO2 CIG 003V010 SLP297 P0001 60015 70039 T00720072 10078 20072 51001=
202203221053 METAR KBLI 221053Z AUTO 04004KT 3SM -RA BR FEW004 OVC012 08/08 A3038 RMK AO2 SLP297 P0004 T00780078=
202203221011 SPECI KBLI 221011Z AUTO 03004KT 2 1/2SM -RA BR SCT003 OVC011 08/08 A3038 RMK AO2 P0001 T00780078=
202203221007 SPECI KBLI 221007Z AUTO 03004KT 3SM -RA BR BKN003 OVC011 08/08 A3038 RMK AO2 P0000 T00780078=
202203220953 METAR KBLI 220953Z AUTO 04005KT 2 1/2SM -RA BR BKN004 OVC011 07/07 A3038 RMK AO2 SLP296 P0004 T00720072=
202203220932 SPECI KBLI 220932Z AUTO 04005KT 2 1/2SM -RA BR SCT004 BKN013 OVC018 07/07 A3038 RMK AO2 P0003 T00720072 TSNO=
202203220914 SPECI KBLI 220914Z AUTO 02005KT 2 1/2SM -RA BR FEW004 OVC016 07/07 A3037 RMK AO2 P0002 T00720072=
202203220853 METAR KBLI 220853Z AUTO 04005KT 3SM -RA BR OVC019 07/07 A3037 RMK AO2 SLP291 P0003 60006 T00720072 51007=
202203220753 METAR KBLI 220753Z AUTO 05004KT 5SM -RA BR OVC019 08/07 A3037 RMK AO2 SLP291 P0003 T00780072 400890050=
202203220653 METAR KBLI 220653Z AUTO 03004KT 9SM -RA OVC020 08/07 A3036 RMK AO2 RAB11E20B52 SLP288 P0000 T00780072=
202203220553 METAR KBLI 220553Z AUTO 00000KT 10SM OVC020 08/07 A3035 RMK AO2 SLP284 60001 T00780072 10089 20078 53003=
202203220453 METAR KBLI 220453Z 05003KT 10SM OVC022 08/07 A3033 RMK AO2 SLP279 T00780072=
202203220353 METAR KBLI 220353Z 06004KT 10SM OVC026 08/07 A3033 RMK AO2 RAE19 SLP279 P0000 T00780072=
202203220253 METAR KBLI 220253Z 04004KT 10SM -RA OVC025 08/07 A3034 RMK AO2 SLP281 P0000 60001 T00780072 56002=
202203220153 METAR KBLI 220153Z 05003KT 10SM -RA SCT012 OVC025 08/07 A3034 RMK AO2 SLP282 P0000 T00830072=
202203220053 METAR KBLI 220053Z 06004KT 10SM -RA OVC025 08/07 A3034 RMK AO2 SLP283 P0001 T00830072=
202203212353 METAR KBLI 212353Z 04005KT 10SM -RA SCT012 OVC025 09/07 A3034 RMK AO2 SLP284 P0000 60000 T00890072 10089 20067 53004=
202203212253 METAR KBLI 212253Z 06006KT 10SM -RA OVC029 09/07 A3033 RMK AO2 SLP278 P0000 T00890067=
202203212153 METAR KBLI 212153Z 05007KT 10SM -RA OVC026 08/06 A3033 RMK AO2 RAB50 SLP277 P0000 T00830061=
202203212053 METAR KBLI 212053Z 04005KT 10SM OVC027 08/07 A3033 RMK AO2 SLP279 60000 T00830067 52004=
202203211953 METAR KBLI 211953Z 05005KT 10SM FEW005 OVC027 08/07 A3032 RMK AO2 SLP277 T00780067=
202203211853 METAR KBLI 211853Z 05006KT 10SM SCT005 OVC029 07/06 A3033 RMK AO2 RAE50 SLP278 P0000 T00720061=
202203211753 METAR KBLI 211753Z 05005KT 10SM -RA SCT005 OVC029 06/06 A3032 RMK AO2 SLP275 P0001 60023 T00610061 10067 20050 51013=
202203211653 METAR KBLI 211653Z 05005KT 8SM -RA SCT005 OVC029 06/06 A3031 RMK AO2 SLP272 P0001 T00560056=
202203211553 METAR KBLI 211553Z 11006KT 9SM -RA OVC027 06/04 A3030 RMK AO2 SLP268 P0005 T00610044=
202203211453 METAR KBLI 211453Z 14007KT 7SM -RA SCT015 OVC028 06/04 A3028 RMK AO2 SLP263 P0006 60016 T00560044 53009=
202203211353 METAR KBLI 211353Z 14008KT 9SM -RA OVC029 06/04 A3027 RMK AO2 SLP259 P0007 T00560044=
202203211331 SPECI KBLI 211331Z AUTO 15007KT 9SM -RA OVC029 06/04 A3027 RMK AO2 P0004 T00560044=
202203211253 METAR KBLI 211253Z AUTO 16011KT 8SM -RA OVC037 06/04 A3026 RMK AO2 SLP256 P0003 T00560039=
202203211153 METAR KBLI 211153Z AUTO 16010G19KT 9SM -RA FEW028 OVC032 06/04 A3026 RMK AO2 SLP254 P0005 60026 70026 T00560039 10072 20056 55001=
202203211053 METAR KBLI 211053Z AUTO 16012G22KT 8SM -RA FEW027 OVC032 06/04 A3025 RMK AO2 SLP253 P0006 T00560044=
202203210953 METAR KBLI 210953Z AUTO 15012KT 8SM -RA FEW022 OVC032 06/04 A3025 RMK AO2 SLP253 P0004 T00560044=
202203210853 METAR KBLI 210853Z AUTO 15011KT 9SM -RA FEW024 OVC032 06/04 A3026 RMK AO2 SLP254 P0005 60011 T00610044 50004=
202203210753 METAR KBLI 210753Z AUTO 15012KT 7SM -RA OVC030 06/05 A3026 RMK AO2 SLP255 P0005 T00610050 400830039=
202203210707 SPECI KBLI 210707Z AUTO 16010G19KT 8SM -RA SCT026 OVC031 07/05 A3026 RMK AO2 P0001 T00670050=
202203210653 METAR KBLI 210653Z AUTO 16013G18KT 10SM -RA BKN027 OVC037 07/04 A3026 RMK AO2 SLP255 P0001 T00670039=
202203210627 SPECI KBLI 210627Z AUTO 16011G18KT 10SM -RA FEW023 SCT029 OVC039 07/05 A3025 RMK AO2 P0000 T00670050=
202203210553 METAR KBLI 210553Z AUTO 17013G20KT 10SM -RA OVC025 07/04 A3025 RMK AO2 PK WND 15027/0454 RAB32 SLP250 P0000 60000 T00720044 10078 20072 53006=
202203210453 METAR KBLI 210453Z 16012G22KT 10SM OVC025 08/04 A3022 RMK AO2 PK WND 18026/0359 SLP243 T00780039=
202203210353 METAR KBLI 210353Z 16014G24KT 10SM BKN025 OVC075 08/04 A3022 RMK AO2 PK WND 15027/0329 SLP241 T00780039=
202203210253 METAR KBLI 210253Z 16012G21KT 10SM BKN025 OVC070 08/04 A3023 RMK AO2 RAE0159 SLP244 P0000 60000 T00780039 58008=
202203210234 SPECI KBLI 210234Z 14010KT 10SM BKN025 OVC070 07/04 A3022 RMK AO2 RAE0159 P0000 T00720039=
202203210153 METAR KBLI 210153Z 15014G21KT 10SM -RA SCT015 OVC043 07/04 A3024 RMK AO2 SLP249 P0000 T00720044=
202203210053 METAR KBLI 210053Z 16010G18KT 10SM -RA FEW020 OVC048 07/04 A3025 RMK AO2 SLP251 P0000 T00720044=
202203202353 METAR KBLI 202353Z 17006KT 10SM -RA BKN021 BKN035 OVC049 08/05 A3025 RMK AO2 SLP252 P0000 60000 T00780050 10083 20067 58003=
202203202253 METAR KBLI 202253Z 16008KT 10SM -RA FEW021 BKN048 OVC060 08/05 A3025 RMK AO2 SLP253 P0000 T00780050=
202203202153 METAR KBLI 202153Z 17010KT 10SM -RA SCT024 BKN035 OVC044 07/04 A3027 RMK AO2 SLP257 P0000 T00720044=
202203202053 METAR KBLI 202053Z 19009G17KT 10SM -RA BKN047 OVC055 08/04 A3026 RMK AO2 RAB33 SLP254 P0000 60000 T00780039 53006=
202203201953 METAR KBLI 201953Z 18012G18KT 10SM OVC070 08/03 A3025 RMK AO2 SLP251 T00780028=
202203201853 METAR KBLI 201853Z 18009G20KT 10SM OVC060 07/03 A3025 RMK AO2 SLP251 T00720028=
202203201753 METAR KBLI 201753Z 19010G18KT 10SM OVC060 07/03 A3024 RMK AO2 RAE14 SLP248 P0000 60000 T00670033 10067 20039 51007=
202203201653 METAR KBLI 201653Z 18009G18KT 10SM -RA FEW010 BKN047 OVC060 06/02 A3024 RMK AO2 RAB25 SLP248 P0000 T00560022=
202203201553 METAR KBLI 201553Z 17009KT 10SM FEW010 SCT032 BKN050 06/03 A3023 RMK AO2 SLP244 T00560028=
202203201453 METAR KBLI 201453Z 16006KT 10SM FEW028 BKN055 04/03 A3022 RMK AO2 SLP241 T00440028 51012=
202203201353 METAR KBLI 201353Z 15005KT 10SM SCT025 OVC055 04/03 A3021 RMK AO2 SLP239 T00440028=
202203201253 METAR KBLI 201253Z AUTO 18009G16KT 10SM OVC060 06/03 A3020 RMK AO2 SLP234 T00560028=
202203201153 METAR KBLI 201153Z AUTO 18007KT 10SM SCT050 BKN070 06/03 A3019 RMK AO2 SLP230 60001 70010 T00560033 10061 20050 52013=
202203201053 METAR KBLI 201053Z AUTO 18010G16KT 10SM FEW023 FEW048 SCT060 06/03 A3017 RMK AO2 SLP225 T00560033=
202203201025 SPECI KBLI 201025Z AUTO 18006G16KT 10SM FEW016 BKN046 BKN055 06/04 A3016 RMK AO2 T00560039=
202203201017 SPECI KBLI 201017Z AUTO 19008KT 10SM FEW016 BKN025 OVC055 06/04 A3016 RMK AO2 T00610039=
202203200953 METAR KBLI 200953Z AUTO VRB06KT 10SM SCT023 SCT034 BKN070 06/03 A3016 RMK AO2 SLP222 T00560028=
202203200853 METAR KBLI 200853Z AUTO 20006KT 10SM BKN050 OVC060 06/03 A3015 RMK AO2 RAE23 SLP217 P0001 60001 T00610028 51015=
202203200753 METAR KBLI 200753Z AUTO VRB05KT 10SM -RA BKN048 OVC060 06/03 A3014 RMK AO2 RAB0655E19B53 SLP215 P0000 T00610028 401110056=
202203200653 METAR KBLI 200653Z AUTO 19005KT 10SM SCT060 BKN095 OVC110 06/02 A3012 RMK AO2 SLP209 T00610017=
202203200553 METAR KBLI 200553Z AUTO 19006KT 10SM SCT120 06/02 A3010 RMK AO2 SLP202 T00610017 10100 20056 51024=
202203200453 METAR KBLI 200453Z 20003KT 10SM CLR 06/M01 A3008 RMK AO2 SLP195 T00611006=
202203200353 METAR KBLI 200353Z 20005KT 10SM FEW055 06/01 A3006 RMK AO2 SLP187 T00610011=
202203200253 METAR KBLI 200253Z 21007KT 10SM CLR 08/01 A3003 RMK AO2 SLP178 T00780006 53017=
202203200153 METAR KBLI 200153Z VRB05G15KT 10SM CLR 08/01 A3001 RMK AO2 SLP171 T00830006=
202203200053 METAR KBLI 200053Z 22010KT 10SM FEW070 09/01 A3000 RMK AO2 SLP166 T00940006=
202203192353 METAR KBLI 192353Z VRB05KT 10SM FEW075 SCT090 10/03 A2998 RMK AO2 SLP161 T01000028 10111 20083 53011=
202203192253 METAR KBLI 192253Z 18007KT 10SM OVC090 10/04 A2996 RMK AO2 SLP153 T01000039=
202203192153 METAR KBLI 192153Z 22006KT 10SM SCT065 BKN095 11/00 A2996 RMK AO2 SLP151 T01060000=
202203192053 METAR KBLI 192053Z VRB05KT 10SM SCT036 11/01 A2995 RMK AO2 SLP149 T01060011 51023=
202203191953 METAR KBLI 191953Z 30003KT 10SM SCT032 10/03 A2993 RMK AO2 SLP145 T01000033=
202203191853 METAR KBLI 191853Z VRB05KT 10SM SCT034 BKN049 09/03 A2992 RMK AO2 SLP139 T00890028=
202203191753 METAR KBLI 191753Z 18005KT 10SM BKN043 OVC050 08/03 A2988 RMK AO2 SLP127 60009 T00830033 10094 20072 53036=
202203191653 METAR KBLI 191653Z 15003KT 10SM FEW020 SCT030 SCT036 08/06 A2985 RMK AO2 SLP115 T00780056=
202203191553 METAR KBLI 191553Z 16007KT 10SM FEW018 SCT025 OVC110 08/06 A2981 RMK AO2 RAE07 SLP101 CIGS LWR N-SE P0000 T00780056=
202203191522 SPECI KBLI 191522Z 19005KT 10SM FEW012 SCT022 OVC060 07/07 A2979 RMK AO2 RAE07 CIGS LWR NW-E P0000 T00720067=
202203191453 METAR KBLI 191453Z 18008KT 5SM RA BR FEW007 BKN016 OVC022 08/08 A2977 RMK AO2 RAE04B32 SLP090 P0002 60009 T00780078 53006=
202203191444 SPECI KBLI 191444Z 19010KT 5SM -RA BR BKN016 BKN021 OVC038 08/08 A2978 RMK AO2 RAE04B32 P0000 T00780078=
202203191353 METAR KBLI 191353Z 16010G18KT 5SM -RA BR OVC040 08/08 A2976 RMK AO2 SLP083 P0005 T00830078=
202203191330 SPECI KBLI 191330Z AUTO 18010G18KT 8SM -RA FEW014 SCT021 OVC043 08/08 A2976 RMK AO2 P0003 T00830078=
202203191253 METAR KBLI 191253Z AUTO 18008G18KT 150V210 7SM -RA BKN019 OVC028 09/08 A2976 RMK AO2 SLP084 P0002 T00890078=
202203191153 METAR KBLI 191153Z AUTO 14005KT 10SM -RA BKN027 BKN033 OVC050 09/07 A2976 RMK AO2 SLP083 P0000 60010 70012 T00890072 10100 20083 57012=
202203191053 METAR KBLI 191053Z AUTO 16007KT 10SM -RA BKN025 OVC032 09/07 A2976 RMK AO2 RAB46 SLP086 P0000 T00940067=
202203191008 SPECI KBLI 191008Z AUTO 12005KT 10SM BKN026 OVC034 09/06 A2978 RMK AO2 T00940061=
202203190953 METAR KBLI 190953Z AUTO 14005KT 10SM SCT027 OVC036 09/06 A2978 RMK AO2 SLP093 T00940061=
202203190853 METAR KBLI 190853Z AUTO 16013KT 10SM FEW026 BKN050 OVC085 09/07 A2979 RMK AO2 SLP095 60010 T00890067 56016=
202203190842 SPECI KBLI 190842Z AUTO 15012KT 10SM BKN028 BKN050 OVC090 09/07 A2979 RMK AO2 T00890067=
202203190753 METAR KBLI 190753Z AUTO 15012G19KT 10SM FEW023 BKN032 OVC049 09/07 A2982 RMK AO2 RAE38 SLP105 P0005 T00890072 401170056=
202203190653 METAR KBLI 190653Z AUTO 14009KT 5SM -RA BR OVC042 08/07 A2984 RMK AO2 SLP112 P0005 T00830067=
202203190553 METAR KBLI 190553Z AUTO 19005KT 10SM -RA BKN044 BKN055 OVC085 10/06 A2985 RMK AO2 RAB53 SLP117 P0000 60000 T01000061 10117 20083 56013=
202203190453 METAR KBLI 190453Z 00000KT 10SM BKN045 OVC055 09/07 A2986 RMK AO2 SLP119 T00890067=
202203190353 METAR KBLI 190353Z 06007KT 10SM BKN045 OVC060 09/07 A2987 RMK AO2 SLP124 T00940067=
202203190253 METAR KBLI 190253Z 36003KT 10SM BKN041 BKN110 10/06 A2989 RMK AO2 SLP130 T01000056 56025=
202203190153 METAR KBLI 190153Z 10005KT 10SM BKN042 11/05 A2991 RMK AO2 SLP136 T01110050=
202203190053 METAR KBLI 190053Z 13005KT 10SM BKN100 11/06 A2993 RMK AO2 SLP145 T01110056=
202203182353 METAR KBLI 182353Z 16007KT 10SM FEW035 SCT110 12/06 A2997 RMK AO2 SLP155 T01170061 10117 20089 58022=
202203182253 METAR KBLI 182253Z 17009G15KT 10SM FEW075 OVC100 11/06 A2999 RMK AO2 SLP165 T01110056=
202203182153 METAR KBLI 182153Z 18008KT 10SM FEW024 BKN040 OVC090 11/06 A3001 RMK AO2 SLP171 T01060056=
202203182058 SPECI KBLI 182058Z 19009KT 10SM FEW026 BKN035 OVC045 10/06 A3003 RMK AO2 T01000061=
202203182053 METAR KBLI 182053Z 17009KT 10SM SCT035 OVC046 11/06 A3003 RMK AO2 SLP177 T01060061 58013=
202203181953 METAR KBLI 181953Z 18009G20KT 10SM FEW026 OVC036 10/06 A3005 RMK AO2 SLP183 T01000061=
202203181853 METAR KBLI 181853Z 16010KT 10SM SCT025 OVC031 09/06 A3006 RMK AO2 SLP188 T00940061=
202203181753 METAR KBLI 181753Z 17008G16KT 10SM FEW010 OVC027 09/06 A3007 RMK AO2 SLP190 60002 T00890056 10089 20056 55002=
202203181653 METAR KBLI 181653Z 16007KT 10SM FEW010 OVC026 08/06 A3007 RMK AO2 SLP190 T00830061=
202203181553 METAR KBLI 181553Z 16011G15KT 7SM FEW005 SCT016 OVC032 08/07 A3007 RMK AO2 SLP191 T00780067=
202203181540 SPECI KBLI 181540Z 16007KT 7SM FEW005 SCT016 OVC032 08/07 A3007 RMK AO2 T00780067=
202203181453 METAR KBLI 181453Z 00000KT 3/4SM R16/P6000FT BR OVC005 06/06 A3007 RMK AO2 RAB21E53 SLP192 P0001 60002 T00610061 58004=
202203181355 SPECI KBLI 181355Z 04003KT 3/4SM R16/P6000FT BR BKN009 OVC016 06/06 A3009 RMK AO2 T00610061=
202203181353 METAR KBLI 181353Z 04003KT 1 1/2SM BR BKN009 OVC016 06/06 A3009 RMK AO2 RAE35 SLP197 P0000 T00560056=
202203181344 SPECI KBLI 181344Z 04004KT 1 3/4SM BR SCT004 BKN010 OVC017 06/06 A3009 RMK AO2 RAE35 P0000 T00560056=
202203181341 SPECI KBLI 181341Z AUTO 03003KT 2SM BR FEW004 SCT008 OVC017 06/06 A3009 RMK AO2 RAE35 P0000 T00560056=
202203181330 SPECI KBLI 181330Z AUTO 03003KT 1 3/4SM -RA BR SCT004 SCT008 OVC015 06/06 A3009 RMK AO2 P0000 T00610061=
202203181326 SPECI KBLI 181326Z AUTO 03003KT 2SM -RA BR BKN006 OVC015 06/06 A3009 RMK AO2 P0000 T00610061=
202203181320 SPECI KBLI 181320Z AUTO 04003KT 1 3/4SM -RA BR FEW004 OVC012 06/06 A3009 RMK AO2 P0000 T00560056=
202203181302 SPECI KBLI 181302Z AUTO 00000KT 2SM -RA BR FEW002 OVC012 06/06 A3009 RMK AO2 P0000 T00560056=
202203181253 METAR KBLI 181253Z AUTO 03003KT 1 1/2SM -RA BR OVC010 06/06 A3009 RMK AO2 RAB26 CIG 007V013 SLP196 P0001 T00560056=
202203181232 SPECI KBLI 181232Z AUTO 00000KT 2 1/2SM -RA BR OVC012 06/06 A3009 RMK AO2 RAB26 P0000 T00610061=
202203181153 METAR KBLI 181153Z AUTO 02003KT 3SM BR OVC014 06/06 A3009 RMK AO2 SLP196 60000 70078 T00610061 10061 20056 56009=
202203181053 METAR KBLI 181053Z AUTO 05003KT 4SM BR OVC018 06/06 A3009 RMK AO2 RAE00 SLP198 P0000 T00610061=
202203180953 METAR KBLI 180953Z AUTO 04005KT 3SM -RA BR OVC018 06/06 A3011 RMK AO2 RAB33 SLP203 P0000 T00560056=
202203180939 SPECI KBLI 180939Z AUTO 04004KT 2 1/2SM -RA BR FEW003 FEW010 OVC017 06/06 A3011 RMK AO2 RAB33 P0000 T00560056=
202203180932 SPECI KBLI 180932Z AUTO 04005KT 2SM BR FEW010 OVC016 06/06 A3011 RMK AO2 T00560056=
202203180924 SPECI KBLI 180924Z AUTO 05005KT 2 1/2SM BR FEW003 SCT009 OVC014 06/06 A3011 RMK AO2 T00560056=
202203180918 SPECI KBLI 180918Z AUTO 05005KT 3SM BR FEW003 OVC016 06/06 A3011 RMK AO2 T00560056=
202203180913 SPECI KBLI 180913Z AUTO 05004KT 2 1/2SM BR FEW003 OVC014 06/06 A3011 RMK AO2 T00560056=
202203180853 METAR KBLI 180853Z AUTO 03004KT 2 1/2SM BR BKN002 OVC014 06/06 A3011 RMK AO2 RAB08E24 SLP205 P0000 60000 T00560056 56003=
202203180849 SPECI KBLI 180849Z AUTO 02004KT 2SM BR BKN002 OVC014 06/06 A3011 RMK AO2 RAB08E24 P0000=
202203180827 SPECI KBLI 180827Z AUTO 02003KT 2SM BR FEW003 OVC014 06/06 A3011 RMK AO2 RAB08E24 P0000 T00610061=
202203180813 SPECI KBLI 180813Z AUTO 01004KT 1 3/4SM -RA BR FEW002 OVC014 06/06 A3011 RMK AO2 RAB08 P0000 T00610061=
202203180753 METAR KBLI 180753Z AUTO 02003KT 2 1/2SM BR FEW003 OVC015 06/06 A3011 RMK AO2 SLP206 T00610061 400830056=
202203180723 SPECI KBLI 180723Z AUTO 35003KT 2 1/2SM BR FEW002 BKN015 OVC031 06/06 A3012 RMK AO2 T00610061=
202203180653 METAR KBLI 180653Z AUTO 00000KT 4SM BR OVC016 06/06 A3012 RMK AO2 SLP209 T00610061=
202203180633 SPECI KBLI 180633Z AUTO 02003KT 3SM BR BKN015 BKN021 OVC028 06/06 A3013 RMK AO2 T00610061=
202203180553 METAR KBLI 180553Z AUTO 00000KT 5SM BR OVC013 06/06 A3013 RMK AO2 SLP211 60003 T00610061 10083 20061 51006=
202203180524 SPECI KBLI 180524Z AUTO 05003KT 5SM BR OVC012 06/06 A3013 RMK AO2 T00610061=
202203180453 METAR KBLI 180453Z 03003KT 2SM BR SCT005 OVC010 06/06 A3013 RMK AO2 RAE04 SLP210 P0000 T00610061=
202203180353 METAR KBLI 180353Z 03004KT 3SM -RA BR SCT005 OVC012 06/06 A3012 RMK AO2 RAB0259 SLP208 P0003 T00610061=
202203180324 SPECI KBLI 180324Z 03003KT 2SM -RA BR FEW005 OVC012 07/07 A3012 RMK AO2 RAB0259 P0002 T00670067=
202203180253 METAR KBLI 180253Z 04003KT 10SM OVC015 07/06 A3011 RMK AO2 RAE44 SLP205 P0000 60000 T00720061 53002=
202203180153 METAR KBLI 180153Z 14008KT 10SM -RA OVC019 08/06 A3010 RMK AO2 RAB0054 SLP201 P0000 T00780061=
202203180053 METAR KBLI 180053Z 15007KT 10SM BKN022 08/06 A3010 RMK AO2 RAE51 SLP200 P0000 T00780061=
202203172353 METAR KBLI 172353Z 12005KT 7SM -RA BKN027 OVC032 08/07 A3011 RMK AO2 SLP202 P0001 60052 T00780067 10078 20067 58009=
202203172253 METAR KBLI 172253Z 12005KT 6SM -RA BR BKN029 BKN037 OVC046 07/06 A3012 RMK AO2 SLP206 P0005 T00720061=
202203172153 METAR KBLI 172153Z 10004KT 3SM RA BR BKN027 OVC033 07/06 A3012 RMK AO2 SLP209 P0015 T00720061=
202203172053 METAR KBLI 172053Z 14004KT 3SM RA BR OVC025 07/06 A3013 RMK AO2 SLP211 P0013 60031 T00670061 51001=
202203171953 METAR KBLI 171953Z 12008KT 5SM -RA BR OVC028 07/06 A3013 RMK AO2 SLP211 P0010 T00670056=
202203171853 METAR KBLI 171853Z 13006KT 4SM RA BR FEW023 BKN028 OVC033 07/06 A3013 RMK AO2 SLP211 P0008 T00670056=
202203171753 METAR KBLI 171753Z 14007KT 4SM -RA BR FEW023 BKN028 OVC035 07/06 A3013 RMK AO2 SLP210 P0009 60023 T00670056 10067 20056 53004=
202203171653 METAR KBLI 171653Z 07003KT 4SM -RA BR OVC028 06/06 A3012 RMK AO2 SLP208 P0008 T00610061=
202203171553 METAR KBLI 171553Z 00000KT 5SM -RA BR OVC028 06/06 A3012 RMK AO2 SLP206 P0004 T00610056=
202203171551 SPECI KBLI 171551Z 06003KT 5SM -RA BR OVC028 06/06 A3012 RMK AO2 P0004=
202203171453 METAR KBLI 171453Z 04005KT 7SM -RA OVC039 06/06 A3011 RMK AO2 SLP205 P0002 60002 T00560056 56014=
202203171354 SPECI KBLI 171354Z 00000KT 10SM -RA SCT037 OVC048 06/06 A3011 RMK AO2 P0000 T00610056=
202203171353 METAR KBLI 171353Z 00000KT 10SM -RA BKN037 OVC048 06/06 A3011 RMK AO2 RAB14 SLP206 P0000 T00610056=
202203171253 METAR KBLI 171253Z 07004KT 10SM OVC041 06/05 A3013 RMK AO2 SLP212 T00610050=
202203171153 METAR KBLI 171153Z 02006KT 10SM FEW029 OVC036 06/05 A3015 RMK AO2 SLP219 T00610050 10067 20050 57020=
202203171053 METAR KBLI 171053Z 00000KT 10SM OVC042 06/05 A3017 RMK AO2 SLP225 T00610050=
202203170953 METAR KBLI 170953Z 00000KT 10SM SCT045 OVC100 06/05 A3019 RMK AO2 SLP232 T00610050=
202203170853 METAR KBLI 170853Z 00000KT 10SM OVC048 06/05 A3021 RMK AO2 SLP239 T00610050 56017=
202203170753 METAR KBLI 170753Z 00000KT 10SM FEW055 SCT080 06/04 A3022 RMK AO2 SLP243 T00610044 401110050=
202203170653 METAR KBLI 170653Z 00000KT 10SM BKN055 OVC065 06/05 A3024 RMK AO2 SLP248 T00610050=
202203170553 METAR KBLI 170553Z 00000KT 10SM FEW042 OVC060 06/04 A3026 RMK AO2 SLP255 T00610044 10106 20050 56005=
202203170453 METAR KBLI 170453Z 00000KT 10SM BKN065 BKN110 07/04 A3026 RMK AO2 SLP256 T00670044=
202203170353 METAR KBLI 170353Z 00000KT 10SM SCT065 07/04 A3027 RMK AO2 SLP259 T00670044=
202203170253 METAR KBLI 170253Z 00000KT 10SM CLR 08/04 A3028 RMK AO2 SLP261 T00780044 56011=
202203170153 METAR KBLI 170153Z 00000KT 10SM CLR 09/04 A3028 RMK AO2 SLP263 T00940039=
202203170053 METAR KBLI 170053Z 20007KT 10SM CLR 11/03 A3029 RMK AO2 SLP265 T01060033=
202203162353 METAR KBLI 162353Z 18006KT 10SM CLR 11/04 A3031 RMK AO2 SLP272 T01060039 10111 20083 56004=
202203162253 METAR KBLI 162253Z 20008KT 10SM CLR 11/04 A3031 RMK AO2 SLP274 T01060044=
202203162153 METAR KBLI 162153Z 19009G18KT 10SM SCT032 10/04 A3031 RMK AO2 SLP273 T01000044=
202203162053 METAR KBLI 162053Z 20011G18KT 10SM FEW025 SCT070 10/06 A3032 RMK AO2 SLP276 T01000056 58006=
202203161953 METAR KBLI 161953Z 18008G14KT 160V230 10SM CLR 09/06 A3034 RMK AO2 SLP282 T00940061=
202203161853 METAR KBLI 161853Z 20007KT 10SM BKN035 09/06 A3035 RMK AO2 SLP285 T00890061=
202203161753 METAR KBLI 161753Z 21007KT 10SM FEW036 FEW050 08/06 A3034 RMK AO2 SLP282 T00830061 10083 20067 51012=
202203161653 METAR KBLI 161653Z 19006KT 10SM FEW010 SCT029 07/06 A3033 RMK AO2 SLP280 T00720056=
202203161553 METAR KBLI 161553Z 18008KT 10SM FEW010 SCT026 07/06 A3032 RMK AO2 SLP274 T00720056=
202203161453 METAR KBLI 161453Z 18008KT 10SM FEW010 SCT026 SCT031 07/05 A3031 RMK AO2 SLP270 T00720050 51015=
202203161353 METAR KBLI 161353Z 18006KT 10SM BKN019 BKN036 07/05 A3029 RMK AO2 SLP265 T00720050=
202203161308 SPECI KBLI 161308Z AUTO 18006KT 10SM BKN016 BKN023 OVC037 07/06 A3028 RMK AO2 T00720056=
202203161253 METAR KBLI 161253Z AUTO 18007KT 10SM FEW018 OVC037 07/06 A3028 RMK AO2 SLP261 T00720056=
202203161153 METAR KBLI 161153Z AUTO 18006KT 10SM FEW017 FEW028 BKN036 07/06 A3026 RMK AO2 SLP255 70018 T00720056 10078 20067 51010=
202203161053 METAR KBLI 161053Z AUTO 18006KT 10SM BKN038 07/06 A3025 RMK AO2 SLP250 T00670056=
202203160953 METAR KBLI 160953Z AUTO 18007KT 10SM CLR 07/06 A3025 RMK AO2 SLP250 T00670056=
202203160853 METAR KBLI 160853Z AUTO 18006KT 10SM FEW019 FEW031 07/06 A3023 RMK AO2 SLP245 T00670056 51014=
202203160753 METAR KBLI 160753Z AUTO 19004KT 10SM FEW048 07/05 A3022 RMK AO2 SLP240 T00720050 401060072=
202203160653 METAR KBLI 160653Z AUTO 19004KT 10SM SCT070 07/05 A3020 RMK AO2 SLP236 T00720050=
202203160553 METAR KBLI 160553Z AUTO 17006KT 10SM OVC055 08/06 A3019 RMK AO2 RAE49 SLP230 P0003 60003 T00780056 10089 20072 51016=
202203160453 METAR KBLI 160453Z 20004KT 10SM -RA FEW033 OVC046 08/06 A3018 RMK AO2 RAB18 SLP227 P0000 T00830056=
202203160353 METAR KBLI 160353Z 17007KT 10SM OVC085 08/06 A3015 RMK AO2 RAB12E23 SLP219 P0000 T00830056=
202203160253 METAR KBLI 160253Z 18008KT 10SM SCT041 OVC065 08/06 A3014 RMK AO2 RAE01 SLP215 P0000 60000 T00830056 53014=
202203160153 METAR KBLI 160153Z 18008KT 10SM -RA SCT055 BKN070 OVC090 08/06 A3012 RMK AO2 RAB48 SLP208 P0000 T00830056=
202203160053 METAR KBLI 160053Z 21007KT 10SM BKN095 09/06 A3011 RMK AO2 SLP205 T00890056=
202203152353 METAR KBLI 152353Z VRB04KT 10SM FEW026 BKN050 BKN075 08/07 A3010 RMK AO2 RAE46 SLP200 CIGS LWR NE-SE. P0000 60012 T00830072 10106 20072 50010=
202203152253 METAR KBLI 152253Z 20003KT 5SM -RA BR BKN027 BKN033 OVC044 08/07 A3010 RMK AO2 SLP201 P0010 T00780067=
202203152209 SPECI KBLI 152209Z 27008KT 250V310 3SM -RA BR SCT022 BKN027 OVC035 08/07 A3010 RMK AO2 P0003 T00830067=
202203152153 METAR KBLI 152153Z 19004KT 4SM -RA BR FEW029 OVC037 09/07 A3008 RMK AO2 RAB32 SLP193 P0002 T00890067=
202203152053 METAR KBLI 152053Z 17005KT 10SM FEW025 OVC085 10/05 A3007 RMK AO2 SLP190 T01000050 51017=
202203151953 METAR KBLI 151953Z 17005KT 10SM BKN110 10/05 A3006 RMK AO2 SLP186 T01000050=
202203151853 METAR KBLI 151853Z 18006KT 10SM CLR 10/06 A3004 RMK AO2 SLP180 T01000061=
202203151753 METAR KBLI 151753Z 18007KT 10SM CLR 09/07 A3002 RMK AO2 SLP173 60003 T00940067 10094 20083 51027=
202203151653 METAR KBLI 151653Z 19007KT 10SM FEW010 FEW040 SCT070 09/07 A3000 RMK AO2 SLP168 T00890067=
202203151553 METAR KBLI 151553Z 19011KT 10SM FEW015 SCT040 BKN080 09/06 A2998 RMK AO2 SLP159 T00890061=
202203151453 METAR KBLI 151453Z 20007G16KT 10SM FEW012 SCT033 09/06 A2994 RMK AO2 SLP146 60003 T00890061 53017=
202203151353 METAR KBLI 151353Z 18010G18KT 10SM FEW019 SCT039 OVC055 08/08 A2992 RMK AO2 RAE43 SLP139 P0002 T00830078=
202203151253 METAR KBLI 151253Z AUTO 18011G19KT 10SM -RA SCT014 SCT019 OVC042 08/08 A2990 RMK AO2 SLP132 P0001 T00830078=
202203151229 SPECI KBLI 151229Z AUTO 18011G17KT 9SM -RA FEW016 SCT024 OVC040 08/07 A2989 RMK AO2 P0001 T00830072=
202203151153 METAR KBLI 151153Z AUTO 18006KT 10SM -RA BKN016 OVC075 09/07 A2989 RMK AO2 RAB40 SLP129 P0000 60002 70036 T00890072 10089 20072 55003=
202203151150 SPECI KBLI 151150Z AUTO 17008KT 10SM -RA BKN016 OVC075 09/07 A2989 RMK AO2 RAB40 P0000=
202203151137 SPECI KBLI 151137Z AUTO 16009KT 10SM SCT018 SCT022 OVC075 09/07 A2988 RMK AO2 T00890067=
202203151053 METAR KBLI 151053Z AUTO 16011KT 10SM OVC016 09/07 A2989 RMK AO2 SLP128 T00890072=
202203150953 METAR KBLI 150953Z AUTO 17007KT 10SM OVC018 09/07 A2990 RMK AO2 SLP132 T00890067=
202203150853 METAR KBLI 150853Z AUTO 16010KT 10SM OVC023 09/06 A2989 RMK AO2 SLP129 60002 T00890056 58011=
202203150753 METAR KBLI 150753Z AUTO 16008G16KT 10SM OVC024 08/06 A2991 RMK AO2 RAE10 SLP137 P0000 T00830056 401060067=
202203150653 METAR KBLI 150653Z AUTO 14010KT 10SM -RA OVC024 07/06 A2992 RMK AO2 PK WND 13026/0607 SLP140 P0002 T00720056=
202203150627 SPECI KBLI 150627Z AUTO 13012G20KT 10SM -RA BKN025 OVC049 07/06 A2992 RMK AO2 PK WND 13026/0607 P0001 T00720056=
202203150553 METAR KBLI 150553Z AUTO 14011G19KT 10SM -RA FEW023 OVC044 07/06 A2992 RMK AO2 PK WND 12028/0523 SLP141 P0009 60030 T00720056 10089 20067 56009=
202203150536 SPECI KBLI 150536Z AUTO 15014G20KT 6SM -RA BR SCT025 SCT029 OVC042 07/06 A2993 RMK AO2 PK WND 12028/0523 P0008 T00720056=
202203150453 METAR KBLI 150453Z 15013G23KT 8SM -RA BKN028 OVC035 07/06 A2993 RMK AO2 SLP144 P0002 T00720056=
202203150353 METAR KBLI 150353Z 13014G25KT 6SM -RA BR SCT015 BKN025 OVC038 07/06 A2992 RMK AO2 SLP140 P0004 T00670056=
202203150253 METAR KBLI 150253Z 16012KT 5SM -RA BR SCT015 BKN025 OVC044 07/06 A2995 RMK AO2 PK WND 15027/0154 SLP150 P0005 60015 T00720056 55013=
202203150153 METAR KBLI 150153Z 15015G34KT 5SM -RA BR SCT015 BKN025 OVC044 08/06 A2993 RMK AO2 PK WND 13036/0137 SLP145 P0004 T00780056=
202203150053 METAR KBLI 150053Z 15014G21KT 6SM -RA BR SCT015 BKN025 OVC035 08/07 A2997 RMK AO2 SLP155 P0006 T00830067=
202203142353 METAR KBLI 142353Z 16011G22KT 6SM -RA BR SCT015 BKN025 OVC037 09/07 A2999 RMK AO2 SLP163 P0003 60004 T00890067 10106 20089 58016=
202203142253 METAR KBLI 142253Z 17011KT 8SM -RA SCT020 BKN025 OVC035 09/07 A3002 RMK AO2 SLP173 P0001 T00940067=
202203142216 SPECI KBLI 142216Z 18010G19KT 6SM -RA SCT020 BKN025 OVC040 10/07 A3002 RMK AO2 P0000 T01000067=
202203142153 METAR KBLI 142153Z 17012G19KT 10SM -RA SCT026 BKN035 OVC060 10/06 A3002 RMK AO2 RAB33 SLP173 P0000 T01000061=
202203142053 METAR KBLI 142053Z 17012G19KT 10SM SCT026 BKN035 OVC060 11/06 A3004 RMK AO2 SLP179 T01060061 56010=
202203141953 METAR KBLI 141953Z 16015G24KT 10SM FEW025 BKN030 OVC060 11/06 A3005 RMK AO2 PK WND 17026/1918 SLP183 T01060056=
202203141853 METAR KBLI 141853Z 15011G19KT 10SM SCT025 BKN028 OVC060 10/06 A3006 RMK AO2 PK WND 17026/1804 SLP186 T01000056=
202203141753 METAR KBLI 141753Z 15015G23KT 10SM FEW025 SCT030 BKN065 10/05 A3007 RMK AO2 PK WND 16026/1711 RAE29 SLP190 P0000 60000 T01000050 10100 20083 53009=
202203141653 METAR KBLI 141653Z 16012G21KT 10SM -RA SCT032 OVC070 09/04 A3005 RMK AO2 PK WND 13033/1619 RAB1555 SLP185 P0000 T00940044=
202203141553 METAR KBLI 141553Z 16014G21KT 10SM SCT029 OVC060 09/04 A3006 RMK AO2 PK WND 17027/1454 RAB15E28 SLP186 P0000 T00890044=
202203141453 METAR KBLI 141453Z 16019G29KT 10SM FEW029 BKN060 09/04 A3004 RMK AO2 PK WND 16029/1445 RAE19 SLP180 P0000 60000 T00890044 58003=
202203141353 METAR KBLI 141353Z 16014G25KT 10SM -RA FEW029 FEW050 OVC060 09/05 A3005 RMK AO2 PK WND 15032/1315 RAB08 SLP185 P0000 T00890050=
202203141312 SPECI KBLI 141312Z AUTO 16015G32KT 10SM -RA SCT029 SCT041 OVC050 09/05 A3008 RMK AO2 PK WND 16032/1310 RAB08 P0000 T00890050=
202203141253 METAR KBLI 141253Z AUTO 16016G29KT 10SM BKN027 OVC060 09/04 A3008 RMK AO2 PK WND 17033/1224 RAB27E38 SLP192 P0000 T00890044=
202203141153 METAR KBLI 141153Z AUTO 16018G30KT 10SM OVC026 08/04 A3005 RMK AO2 PK WND 15030/1152 SLP183 60004 70009 T00830044 10089 20083 58010=
202203141053 METAR KBLI 141053Z AUTO 16018G30KT 10SM BKN026 BKN031 OVC065 08/05 A3007 RMK AO2 PK WND 16032/1003 RAB40E49 SLP189 P0000 T00830050=
202203141041 SPECI KBLI 141041Z AUTO 16018G29KT 10SM -RA BKN024 BKN031 OVC070 08/05 A3007 RMK AO2 PK WND 16032/1003 RAB40 P0000 T00830050=
202203141033 SPECI KBLI 141033Z AUTO 17016G27KT 10SM SCT025 BKN030 OVC070 08/05 A3008 RMK AO2 PK WND 16032/1003 T00830050=
202203141023 SPECI KBLI 141023Z AUTO 17020G29KT 10SM BKN027 OVC075 08/05 A3008 RMK AO2 PK WND 16032/1003 T00830050=
202203140953 METAR KBLI 140953Z AUTO 17018G28KT 10SM FEW027 SCT047 OVC065 08/06 A3007 RMK AO2 PK WND 17036/0859 SLP191 T00830056=
202203140853 METAR KBLI 140853Z AUTO 17018G31KT 10SM FEW027 BKN034 OVC070 08/05 A3008 RMK AO2 PK WND 16031/0849 RAE47 SLP194 P0000 60004 T00830050 51016=
202203140753 METAR KBLI 140753Z AUTO 17015G23KT 10SM -RA OVC024 08/06 A3008 RMK AO2 PK WND 15026/0743 SLP193 P0001 T00830056 401280050=
202203140653 METAR KBLI 140653Z AUTO 17013G22KT 7SM -RA BKN023 OVC029 08/07 A3007 RMK AO2 SLP192 P0003 T00830072=
202203140553 METAR KBLI 140553Z AUTO 18011G21KT 10SM -RA SCT015 BKN024 OVC036 09/08 A3003 RMK AO2 SLP178 P0002 60005 T00890078 10111 20089 51022=
202203140529 SPECI KBLI 140529Z AUTO 17010G18KT 9SM -RA FEW012 BKN022 OVC044 09/08 A3003 RMK AO2 P0001 T00890078=
202203140453 METAR KBLI 140453Z 17011G20KT 10SM -RA FEW026 BKN041 OVC048 09/08 A3002 RMK AO2 SLP172 P0002 T00940078=
202203140353 METAR KBLI 140353Z 18007G17KT 7SM -RA FEW032 OVC044 09/08 A3000 RMK AO2 RAB07 SLP168 P0001 T00940083=
202203140253 METAR KBLI 140253Z 18008KT 10SM FEW026 BKN090 OVC110 11/07 A2997 RMK AO2 SLP156 T01060072 51013=
202203140153 METAR KBLI 140153Z 17009G19KT 10SM BKN026 BKN036 OVC065 10/07 A2995 RMK AO2 SLP151 T01000072=
202203140150 SPECI KBLI 140150Z 18011G19KT 10SM BKN026 BKN036 OVC065 10/07 A2995 RMK AO2=
202203140053 METAR KBLI 140053Z 18010G22KT 10SM SCT036 BKN055 11/07 A2993 RMK AO2 SLP143 T01060067=
202203132353 METAR KBLI 132353Z 18010G18KT 10SM SCT040 BKN055 11/05 A2992 RMK AO2 SLP139 T01110050 10128 20094 53010=
202203132253 METAR KBLI 132253Z 19006G16KT 10SM SCT045 BKN055 12/05 A2991 RMK AO2 SLP135 T01170050=
202203132153 METAR KBLI 132153Z 19008KT 10SM SCT040 BKN055 12/04 A2990 RMK AO2 SLP132 T01220044=
202203132053 METAR KBLI 132053Z 19009G19KT 160V230 10SM SCT040 BKN055 12/05 A2989 RMK AO2 SLP129 T01170050 51019=
202203131953 METAR KBLI 131953Z 19007G14KT 160V230 10SM OVC044 12/06 A2988 RMK AO2 SLP127 T01170056=
202203131853 METAR KBLI 131853Z 20004KT 10SM BKN036 09/06 A2986 RMK AO2 SLP119 T00940056=
202203131753 METAR KBLI 131753Z 18010KT 10SM SCT025 BKN090 10/06 A2983 RMK AO2 SLP111 T01000056 10100 20050 51025=
202203131653 METAR KBLI 131653Z 17011G22KT 10SM SCT020 OVC060 10/05 A2981 RMK AO2 SLP103 CIGS LWR W-NE. T01000050=
202203131553 METAR KBLI 131553Z 17007KT 10SM BKN026 BKN046 OVC060 09/05 A2978 RMK AO2 SLP092 T00890050=
202203131453 METAR KBLI 131453Z 16009KT 10SM BKN024 OVC040 08/05 A2976 RMK AO2 SLP085 T00830050 51022=
202203131353 METAR KBLI 131353Z 18007KT 10SM OVC026 08/05 A2975 RMK AO2 SLP081 T00830050=
202203131253 METAR KBLI 131253Z AUTO 14008KT 10SM BKN029 OVC100 08/06 A2972 RMK AO2 SLP071 T00780056=
202203131235 SPECI KBLI 131235Z AUTO VRB04KT 10SM FEW020 FEW025 OVC100 06/06 A2971 RMK AO2 T00560056=
202203131153 METAR KBLI 131153Z AUTO 07003KT 10SM BKN024 OVC036 06/06 A2969 RMK AO2 RAB07E30 SLP063 P0000 60000 70015 T00610056 10067 20061 53008=
202203131145 SPECI KBLI 131145Z AUTO 06004KT 10SM BKN024 BKN030 OVC036 06/06 A2969 RMK AO2 RAB07E30 P0000 T00610056=
202203131118 SPECI KBLI 131118Z AUTO 03005KT 10SM -RA OVC030 06/06 A2969 RMK AO2 RAB07 P0000 T00610056=
202203131110 SPECI KBLI 131110Z AUTO 02004KT 9SM -RA BKN028 OVC036 06/05 A2969 RMK AO2 RAB07 P0000 T00610050=
202203131053 METAR KBLI 131053Z AUTO 03006KT 10SM OVC035 06/06 A2969 RMK AO2 RAB0958E50 SLP060 P0000 T00610056=
202203130953 METAR KBLI 130953Z AUTO 05005KT 10SM OVC039 06/06 A2967 RMK AO2 SLP055 T00610056=
202203130853 METAR KBLI 130853Z AUTO 04005KT 10SM OVC045 07/06 A2967 RMK AO2 SLP055 T00670056 58006=
202203130753 METAR KBLI 130753Z AUTO 03005KT 10SM OVC039 07/06 A2968 RMK AO2 SLP058 T00670056 401060039=
202203130653 METAR KBLI 130653Z AUTO 03006KT 10SM OVC038 07/06 A2969 RMK AO2 SLP060 T00670056=
202203130553 METAR KBLI 130553Z 04007KT 10SM OVC036 07/06 A2969 RMK AO2 SLP061 60015 T00670056 10106 20061 56010=
202203130453 METAR KBLI 130453Z 04008KT 10SM OVC035 06/06 A2969 RMK AO2 SLP064 T00610056=
202203130353 METAR KBLI 130353Z 05008KT 10SM OVC042 07/06 A2971 RMK AO2 SLP071 T00670056=
202203130253 METAR KBLI 130253Z 06003KT 10SM FEW040 BKN055 OVC080 07/06 A2972 RMK AO2 RAE52 SLP073 P0001 60015 T00670056 58013=
202203130153 METAR KBLI 130153Z 09004KT 9SM -RA BKN034 OVC100 07/06 A2974 RMK AO2 SLP080 P0008 T00670061=
202203130053 METAR KBLI 130053Z VRB05KT 6SM -RA OVC035 07/04 A2976 RMK AO2 PK WND 16038/2354 WSHFT 2353 SLP087 P0006 T00720044=
202203122353 METAR KBLI 122353Z 15014G30KT 110V190 10SM -RA BKN050 BKN100 10/04 A2976 RMK AO2 PK WND 16030/2353 RAB53 SLP085 P0000 60000 T01000039 10100 20067 55021=
202203122253 METAR KBLI 122253Z 03007KT 10SM CLR 10/05 A2974 RMK AO2 SLP078 T01000050=
202203122153 METAR KBLI 122153Z 04008KT 10SM CLR 10/05 A2976 RMK AO2 SLP085 T01000050=
202203122053 METAR KBLI 122053Z 02011KT 10SM SCT100 09/06 A2982 RMK AO2 SLP106 T00940056 58044=
202203121953 METAR KBLI 121953Z 03009KT 10SM SCT110 09/06 A2987 RMK AO2 SLP123 T00890056=
202203121853 METAR KBLI 121853Z 04009KT 10SM SCT100 08/06 A2991 RMK AO2 SLP136 T00780056=
202203121753 METAR KBLI 121753Z 03007KT 10SM SCT050 BKN070 07/04 A2995 RMK AO2 SLP151 T00670044 10067 20039 58022=
202203121653 METAR KBLI 121653Z 04007KT 10SM OVC041 05/04 A2998 RMK AO2 SLP160 T00500044=
202203121553 METAR KBLI 121553Z 03005KT 10SM OVC042 04/03 A3001 RMK AO2 SLP170 T00440033=
202203121453 METAR KBLI 121453Z 04007KT 9SM OVC041 04/03 A3002 RMK AO2 SLP174 T00390033 58015=
202203121353 METAR KBLI 121353Z AUTO 02007KT 6SM BR SCT005 OVC041 04/04 A3003 RMK AO2 SLP178 T00390039=
202203121343 SPECI KBLI 121343Z AUTO 02007KT 6SM BR SCT005 BKN041 OVC060 04/04 A3003 RMK AO2 T00390039=
202203121325 SPECI KBLI 121325Z AUTO 04006KT 7SM BKN005 BKN040 OVC060 04/04 A3004 RMK AO2 T00390039=
202203121314 SPECI KBLI 121314Z AUTO 04006KT 9SM SCT005 BKN048 OVC070 04/04 A3004 RMK AO2 T00390039=
202203121253 METAR KBLI 121253Z AUTO 03003KT 10SM BKN050 OVC070 04/04 A3005 RMK AO2 SLP186 T00440039=
202203121153 METAR KBLI 121153Z AUTO 04003KT 7SM OVC046 04/04 A3006 RMK AO2 RAE18 SLP189 P0000 60013 70013 T00440039 10044 20039 58024=
202203121053 METAR KBLI 121053Z AUTO 01005KT 8SM -RA OVC038 04/04 A3009 RMK AO2 SLP199 P0001 T00440039=
202203120953 METAR KBLI 120953Z AUTO 35003KT 7SM -RA OVC034 04/04 A3012 RMK AO2 SLP209 P0004 T00390039=
202203120853 METAR KBLI 120853Z AUTO 02004KT 7SM -RA OVC037 04/04 A3013 RMK AO2 SLP213 P0007 60008 T00390039 58015=
202203120753 METAR KBLI 120753Z AUTO 03007KT 6SM -RA BR OVC033 04/04 A3016 RMK AO2 RAB01 SLP221 P0001 T00440039 400720022=
202203120653 METAR KBLI 120653Z AUTO 02004KT 10SM OVC046 04/03 A3017 RMK AO2 RAB0559E39 SLP224 P0000 T00440033=
202203120553 METAR KBLI 120553Z 04005KT 10SM OVC050 04/03 A3018 RMK AO2 RAB26E49 SLP228 P0000 60000 T00440033 10061 20044 55002=
202203120453 METAR KBLI 120453Z 01005KT 10SM OVC075 05/03 A3017 RMK AO2 SLP226 T00500033=
202203120353 METAR KBLI 120353Z 04005KT 10SM OVC070 05/03 A3017 RMK AO2 SLP226 T00500033=
202203120253 METAR KBLI 120253Z 05005KT 10SM BKN100 05/03 A3018 RMK AO2 SLP230 T00500033 58019=
202203120153 METAR KBLI 120153Z 03004KT 10SM BKN120 06/03 A3020 RMK AO2 SLP237 T00560033=
202203120053 METAR KBLI 120053Z 03006KT 10SM BKN070 BKN100 06/04 A3022 RMK AO2 SLP242 T00610039=
202203112353 METAR KBLI 112353Z 03005KT 10SM BKN065 06/04 A3024 RMK AO2 SLP249 T00610039 10072 20039 56023=
202203112253 METAR KBLI 112253Z 03007KT 10SM BKN065 OVC100 06/04 A3026 RMK AO2 SLP255 T00610044=
202203112153 METAR KBLI 112153Z 02003KT 10SM FEW040 OVC060 07/04 A3028 RMK AO2 SLP264 T00720044=
202203112053 METAR KBLI 112053Z VRB04KT 10SM SCT048 OVC055 07/04 A3031 RMK AO2 SLP271 T00670039 58013=
202203111953 METAR KBLI 111953Z 02003KT 10SM OVC034 06/04 A3032 RMK AO2 SLP277 T00610039=
202203111853 METAR KBLI 111853Z 02003KT 10SM OVC040 05/04 A3033 RMK AO2 SLP281 T00500039=
202203111753 METAR KBLI 111753Z 02004KT 10SM FEW010 SCT039 OVC060 04/03 A3034 RMK AO2 RAE20 SLP284 P0000 60000 T00440033 10044 20028 50004=
202203111653 METAR KBLI 111653Z 05004KT 10SM -RA FEW028 SCT039 OVC060 04/03 A3034 RMK AO2 RAB24 SLP285 P0000 T00390028=
202203111553 METAR KBLI 111553Z 06003KT 10SM FEW028 SCT039 OVC060 03/02 A3034 RMK AO2 RAE10UPB00E09 SLP282 P0000 T00330022=
202203111453 METAR KBLI 111453Z 00000KT 10SM -RA FEW023 SCT034 OVC060 03/02 A3033 RMK AO2 RAB02 SLP280 P0000 60000 T00280022 56005=
202203111353 METAR KBLI 111353Z AUTO 05003KT 10SM BKN035 BKN048 OVC060 03/02 A3033 RMK AO2 SLP281 T00280022=
202203111317 SPECI KBLI 111317Z AUTO 04003KT 10SM SCT023 OVC060 03/02 A3034 RMK AO2 T00280017=
202203111253 METAR KBLI 111253Z AUTO 00000KT 10SM OVC024 03/02 A3034 RMK AO2 SLP283 T00280022=
202203111225 SPECI KBLI 111225Z AUTO 00000KT 10SM BKN024 BKN041 OVC070 03/02 A3034 RMK AO2 T00280017=
202203111153 METAR KBLI 111153Z AUTO 00000KT 10SM OVC044 03/01 A3035 RMK AO2 RAE06 SLP286 P0000 60000 T00280011 10056 20022 58007=
202203111053 METAR KBLI 111053Z AUTO 00000KT 10SM -RA OVC044 03/02 A3035 RMK AO2 RAE0959B44 SLP288 P0000 T00280022=
202203111019 SPECI KBLI 111019Z AUTO 00000KT 10SM SCT026 OVC043 03/02 A3036 RMK AO2 RAE0959 P0000 T00330022=
202203110953 METAR KBLI 110953Z AUTO 15004KT 10SM -RA OVC023 03/02 A3036 RMK AO2 SLP291 P0000 T00330022=
202203110853 METAR KBLI 110853Z AUTO 15006KT 10SM -RA BKN019 OVC026 03/02 A3037 RMK AO2 SLP293 P0000 60000 T00330017 50000=
202203110839 SPECI KBLI 110839Z AUTO 16003KT 10SM -RA BKN026 OVC035 03/02 A3037 RMK AO2 P0000 T00330017=
202203110753 METAR KBLI 110753Z AUTO 17004KT 10SM -RA OVC033 04/02 A3037 RMK AO2 RAB07E28B49 SLP295 P0000 T00390017 400721028=
202203110653 METAR KBLI 110653Z AUTO 18006KT 10SM FEW044 OVC055 05/02 A3037 RMK AO2 SLP295 T00500017=
202203110627 SPECI KBLI 110627Z AUTO 18004KT 10SM OVC060 05/00 A3037 RMK AO2 T00500000=
202203110614 SPECI KBLI 110614Z 19008KT 10SM OVC020 06/00 A3037 RMK AO2 T00560000=
202203110553 METAR KBLI 110553Z 18004KT 10SM OVC060 06/00 A3037 RMK AO2 SLP292 T00560000 10072 20050 51010=
202203110453 METAR KBLI 110453Z 19003KT 10SM OVC065 06/M01 A3036 RMK AO2 SLP289 T00561011=
202203110353 METAR KBLI 110353Z 00000KT 10SM BKN085 OVC100 06/M01 A3035 RMK AO2 SLP286 T00561011=
202203110253 METAR KBLI 110253Z 00000KT 10SM OVC090 06/M01 A3034 RMK AO2 SLP282 T00561006 55002=
202203110153 METAR KBLI 110153Z 00000KT 10SM OVC075 07/M02 A3033 RMK AO2 SLP281 T00671017=
202203110053 METAR KBLI 110053Z VRB04KT 10SM OVC090 07/M02 A3033 RMK AO2 SLP280 T00671022=
202203102353 METAR KBLI 102353Z 00000KT 10SM OVC090 07/M03 A3034 RMK AO2 SLP284 T00671028 10072 20044 58003=
202203102253 METAR KBLI 102253Z 20004KT 10SM OVC100 07/M04 A3036 RMK AO2 SLP289 T00671039=
202203102153 METAR KBLI 102153Z 20006KT 10SM FEW110 06/M03 A3035 RMK AO2 SLP286 T00611028=
202203102053 METAR KBLI 102053Z 20006KT 10SM CLR 06/M03 A3035 RMK AO2 SLP287 T00561033 58006=
202203101953 METAR KBLI 101953Z 18008KT 10SM CLR 06/M04 A3037 RMK AO2 SLP294 T00561044=
202203101853 METAR KBLI 101853Z 18007KT 150V220 10SM CLR 04/M05 A3038 RMK AO2 SLP296 T00441050=
202203101753 METAR KBLI 101753Z 19009KT 10SM CLR 04/M04 A3037 RMK AO2 SLP293 T00441044 10044 21028 51007=
202203101653 METAR KBLI 101653Z 00000KT 10SM CLR 03/M03 A3036 RMK AO2 SLP293 T00281033=
202203101553 METAR KBLI 101553Z 00000KT 10SM CLR 00/M06 A3036 RMK AO2 SLP289 T00001056=
202203101453 METAR KBLI 101453Z 00000KT 10SM CLR M02/M04 A3035 RMK AO2 SLP288 T10221044 53005=
202203101353 METAR KBLI 101353Z AUTO 00000KT 10SM CLR M02/M04 A3034 RMK AO2 SLP284 T10221039=
202203101253 METAR KBLI 101253Z AUTO 00000KT 10SM CLR M02/M04 A3034 RMK AO2 SLP282 T10171039=
202203101153 METAR KBLI 101153Z AUTO 00000KT 10SM CLR M01/M05 A3033 RMK AO2 SLP282 T10061050 10017 21028 51001=
202203101053 METAR KBLI 101053Z AUTO 16004KT 10SM CLR M01/M03 A3033 RMK AO2 SLP281 T10111033=
202203100953 METAR KBLI 100953Z AUTO 19004KT 10SM CLR M02/M04 A3034 RMK AO2 SLP282 T10171044=
202203100853 METAR KBLI 100853Z AUTO 00000KT 10SM CLR M02/M04 A3033 RMK AO2 SLP281 T10221044 52004=
202203100753 METAR KBLI 100753Z AUTO 00000KT 10SM CLR M02/M06 A3033 RMK AO2 SLP279 T10221056 400891028=
202203100653 METAR KBLI 100653Z AUTO 00000KT 10SM CLR M02/M05 A3032 RMK AO2 SLP278 T10171050=
202203100553 METAR KBLI 100553Z 00000KT 10SM CLR M01/M05 A3032 RMK AO2 SLP277 T10061050 10083 21011 53009=
202203100453 METAR KBLI 100453Z 00000KT 10SM CLR M01/M04 A3031 RMK AO2 SLP272 T10061044=
202203100353 METAR KBLI 100353Z 29004KT 10SM CLR 03/M08 A3030 RMK AO2 SLP268 T00331078=
202203100253 METAR KBLI 100253Z 32004KT 10SM CLR 03/M09 A3030 RMK AO2 SLP268 T00331089 50006=
202203100153 METAR KBLI 100153Z 33004KT 10SM CLR 06/M09 A3030 RMK AO2 SLP269 T00561094=
202203100053 METAR KBLI 100053Z 01010KT 10SM CLR 08/M14 A3029 RMK AO2 SLP265 T00781139=
202203092353 METAR KBLI 092353Z 02011G18KT 10SM CLR 08/M13 A3028 RMK AO2 PK WND 06026/2257 SLP261 T00831133 10089 20056 57002=
202203092253 METAR KBLI 092253Z 02012G19KT 10SM CLR 09/M12 A3028 RMK AO2 PK WND 06027/2156 SLP262 T00891117=
202203092153 METAR KBLI 092153Z 04013G26KT 10SM CLR 08/M12 A3028 RMK AO2 PK WND 06028/2116 SLP262 T00781122=
202203092053 METAR KBLI 092053Z 02014G26KT 10SM CLR 08/M12 A3028 RMK AO2 PK WND 04034/2024 SLP263 T00781122 58004=
202203091953 METAR KBLI 091953Z 03017G33KT 10SM CLR 07/M13 A3029 RMK AO2 PK WND 04034/1913 SLP266 T00671133=
202203091853 METAR KBLI 091853Z 04021G37KT 10SM CLR 06/M14 A3030 RMK AO2 PK WND 06037/1850 SLP268 T00611139=
202203091753 METAR KBLI 091753Z 04022G33KT 10SM CLR 06/M13 A3030 RMK AO2 PK WND 05036/1713 SLP267 T00561128 10056 20028 51012=
202203091653 METAR KBLI 091653Z 03015G38KT 10SM CLR 04/M12 A3029 RMK AO2 PK WND 05038/1650 SLP266 T00441122=
202203091553 METAR KBLI 091553Z 03015G30KT 10SM CLR 03/M12 A3027 RMK AO2 PK WND 04037/1521 SLP261 T00331122=
202203091453 METAR KBLI 091453Z 04018G35KT 10SM CLR 03/M13 A3026 RMK AO2 PK WND 04035/1449 SLP256 T00281133 53008=
202203091353 METAR KBLI 091353Z AUTO 04015G28KT 10SM CLR 03/M12 A3025 RMK AO2 PK WND 05033/1329 SLP250 T00281117=
202203091253 METAR KBLI 091253Z AUTO 03014G25KT 10SM CLR 03/M11 A3024 RMK AO2 PK WND 04028/1201 SLP250 T00281106=
202203091153 METAR KBLI 091153Z AUTO 04012G27KT 10SM CLR 03/M11 A3024 RMK AO2 PK WND 06031/1121 SLP247 T00331111 10067 20033 53012=
202203091053 METAR KBLI 091053Z AUTO 04012G28KT 10SM CLR 04/M11 A3022 RMK AO2 PK WND 05030/1006 SLP242 T00391111=
202203090953 METAR KBLI 090953Z AUTO 04013G25KT 10SM CLR 04/M11 A3022 RMK AO2 SLP240 T00391111=
202203090853 METAR KBLI 090853Z AUTO 04012G26KT 10SM CLR 04/M11 A3020 RMK AO2 PK WND 06027/0842 SLP235 T00441106 51005=
202203090753 METAR KBLI 090753Z AUTO 04012KT 10SM CLR 05/M09 A3020 RMK AO2 PK WND 05028/0657 SLP233 T00501094 401280044=
202203090653 METAR KBLI 090653Z AUTO 03016G28KT 10SM FEW090 06/M08 A3019 RMK AO2 PK WND 05028/0649 SLP232 T00611083=
202203090553 METAR KBLI 090553Z 02009KT 10SM SCT080 OVC095 07/M08 A3019 RMK AO2 SLP230 T00671078 10117 20044 53007=
202203090453 METAR KBLI 090453Z 02007KT 10SM CLR 06/M06 A3017 RMK AO2 SLP224 T00561056=
202203090353 METAR KBLI 090353Z 34004KT 10SM CLR 06/M02 A3016 RMK AO2 SLP222 T00561017=
202203090253 METAR KBLI 090253Z 33005KT 10SM FEW085 07/M03 A3016 RMK AO2 SLP223 T00721028 56004=
202203090153 METAR KBLI 090153Z 34006KT 10SM SCT080 SCT090 09/M04 A3017 RMK AO2 SLP223 T00891044=
202203090053 METAR KBLI 090053Z 02007KT 10SM SCT090 11/M07 A3017 RMK AO2 SLP226 T01111072=
202203082353 METAR KBLI 082353Z 03009KT 10SM CLR 12/M07 A3018 RMK AO2 SLP227 T01171067 10128 20083 56017=
202203082253 METAR KBLI 082253Z 04009G17KT 10SM CLR 12/M07 A3019 RMK AO2 SLP230 T01221067=
202203082153 METAR KBLI 082153Z 01013G19KT 10SM FEW090 12/M06 A3020 RMK AO2 PK WND 07030/2109 SLP234 T01221056=
202203082053 METAR KBLI 082053Z 04013G27KT 10SM FEW040 SCT090 12/M06 A3023 RMK AO2 PK WND 06034/2005 SLP243 T01221061 58013=
202203081953 METAR KBLI 081953Z 05017G32KT 10SM FEW020 SCT100 11/M05 A3025 RMK AO2 PK WND 07032/1946 SLP251 T01111050=
202203081853 METAR KBLI 081853Z 03012G26KT 10SM BKN100 09/M01 A3026 RMK AO2 PK WND 05028/1823 SLP256 T00941011=
202203081753 METAR KBLI 081753Z 03007KT 10SM FEW010 SCT060 BKN090 08/04 A3027 RMK AO2 SLP257 60000 T00830039 10083 20056 56003=
202203081653 METAR KBLI 081653Z 36003KT 8SM FEW006 SCT050 BKN075 07/06 A3027 RMK AO2 SLP258 T00670056=
202203081553 METAR KBLI 081553Z 04005KT 5SM BR FEW006 SCT040 BKN065 06/06 A3027 RMK AO2 SLP259 T00610056=
202203081453 METAR KBLI 081453Z 36004KT 5SM BR SCT030 OVC065 06/06 A3028 RMK AO2 RAE1354 SLP261 P0000 60000 T00560056 58014=
202203081353 METAR KBLI 081353Z AUTO 00000KT 6SM -RA BR SCT022 BKN040 OVC048 06/06 A3029 RMK AO2 SLP265 P0000 T00610056=
202203081253 METAR KBLI 081253Z AUTO 03005KT 5SM -RA BR OVC016 06/06 A3031 RMK AO2 RAB30 SLP271 P0000 T00610056=
202203081153 METAR KBLI 081153Z AUTO 00000KT 8SM BKN018 OVC035 06/05 A3032 RMK AO2 SLP274 T00610050 10078 20056 58009=
202203081053 METAR KBLI 081053Z AUTO 00000KT 10SM SCT018 OVC029 06/04 A3033 RMK AO2 SLP278 T00610044=
202203081042 SPECI KBLI 081042Z AUTO 00000KT 10SM BKN019 BKN029 OVC070 06/04 A3033 RMK AO2 T00560044=
202203080953 METAR KBLI 080953Z AUTO 16004KT 10SM OVC075 08/05 A3034 RMK AO2 SLP281 T00780050=
202203080853 METAR KBLI 080853Z AUTO 18008KT 10SM BKN070 08/05 A3034 RMK AO2 SLP283 T00780050 56009=
202203080753 METAR KBLI 080753Z AUTO 17008G16KT 10SM CLR 08/05 A3034 RMK AO2 SLP284 T00780050 400940022=
202203080653 METAR KBLI 080653Z AUTO 17005KT 10SM CLR 08/04 A3036 RMK AO2 SLP287 T00780044=
202203080553 METAR KBLI 080553Z 17006KT 10SM CLR 08/04 A3037 RMK AO2 SLP293 T00780044 10083 20067 56015=
202203080453 METAR KBLI 080453Z 17007KT 10SM CLR 07/05 A3039 RMK AO2 SLP298 T00720050=
202203080353 METAR KBLI 080353Z 18006KT 10SM CLR 07/05 A3039 RMK AO2 SLP301 T00720050=
202203080253 METAR KBLI 080253Z 19006KT 10SM CLR 07/06 A3042 RMK AO2 SLP308 T00720056 56006=
202203080153 METAR KBLI 080153Z 19005KT 10SM FEW015 SCT035 BKN070 07/06 A3042 RMK AO2 SLP308 T00720056=
202203080053 METAR KBLI 080053Z 19007KT 10SM FEW013 SCT030 BKN060 08/06 A3043 RMK AO2 SLP311 T00780056=
202203072353 METAR KBLI 072353Z 20007KT 10SM FEW012 SCT030 BKN055 08/06 A3043 RMK AO2 SLP314 T00780056 10094 20067 56019=
202203072253 METAR KBLI 072253Z 18009KT 10SM FEW012 SCT035 BKN050 08/06 A3045 RMK AO2 SLP319 T00830056=
202203072153 METAR KBLI 072153Z 20010KT 10SM FEW010 SCT025 SCT040 09/05 A3047 RMK AO2 SLP325 T00890050=
202203072053 METAR KBLI 072053Z 20005KT 10SM FEW010 SCT025 SCT040 08/05 A3049 RMK AO2 SLP334 T00830050 58006=
202203071953 METAR KBLI 071953Z 20009KT 10SM SCT010 BKN025 BKN040 07/05 A3050 RMK AO2 SLP339 T00720050=
202203071853 METAR KBLI 071853Z 19009KT 10SM BKN010 OVC040 07/05 A3050 RMK AO2 SLP339 T00720050=
202203071753 METAR KBLI 071753Z 18011KT 10SM SCT007 BKN010 07/04 A3051 RMK AO2 SLP340 T00670044 10067 20056 51002=
202203071653 METAR KBLI 071653Z 18009KT 10SM SCT007 BKN016 06/05 A3051 RMK AO2 SLP340 T00610050=
202203071621 SPECI KBLI 071621Z 19009KT 10SM SCT007 BKN016 06/05 A3050 RMK AO2 T00610050=
202203071553 METAR KBLI 071553Z 18009KT 10SM BKN008 BKN016 BKN021 06/05 A3051 RMK AO2 CIG 007V013 SLP340 T00560050=
202203071453 METAR KBLI 071453Z 17009KT 10SM OVC008 06/05 A3050 RMK AO2 CIG 007V012 SLP337 T00610050 58002=
202203071353 METAR KBLI 071353Z AUTO 18010G16KT 10SM BKN009 06/06 A3050 RMK AO2 SLP338 T00610056=
202203071253 METAR KBLI 071253Z AUTO 18006KT 10SM OVC007 06/06 A3051 RMK AO2 SLP340 T00610056=
202203071211 SPECI KBLI 071211Z AUTO 18006KT 10SM BKN005 06/06 A3051 RMK AO2 T00610056=
202203071204 SPECI KBLI 071204Z AUTO 17010KT 10SM SCT005 06/06 A3051 RMK AO2 T00610056=
202203071153 METAR KBLI 071153Z AUTO 19009KT 10SM BKN005 BKN040 06/06 A3051 RMK AO2 SLP339 T00610056 10061 20017 58002=
202203071127 SPECI KBLI 071127Z AUTO 19009KT 10SM BKN006 06/06 A3052 RMK AO2 T00610056=
202203071102 SPECI KBLI 071102Z AUTO 19008KT 10SM FEW006 06/06 A3052 RMK AO2 T00610056=
202203071053 METAR KBLI 071053Z AUTO 18008KT 10SM FEW040 06/05 A3051 RMK AO2 SLP341 T00610050=
202203070953 METAR KBLI 070953Z AUTO 16004KT 10SM CLR 04/03 A3052 RMK AO2 SLP343 T00440033=
202203070853 METAR KBLI 070853Z AUTO 17003KT 10SM CLR 03/03 A3051 RMK AO2 SLP341 T00280028 50001=
202203070753 METAR KBLI 070753Z AUTO 16005KT 10SM CLR 03/03 A3052 RMK AO2 SLP342 T00280028 401110011=
202203070653 METAR KBLI 070653Z AUTO 00000KT 10SM CLR 02/02 A3051 RMK AO2 SLP343 T00220022=
202203070553 METAR KBLI 070553Z 00000KT 10SM CLR 03/03 A3051 RMK AO2 SLP341 T00330028 10106 20022 51008=
202203070453 METAR KBLI 070453Z 00000KT 9SM CLR 04/04 A3051 RMK AO2 SLP339 T00390039=
202203070353 METAR KBLI 070353Z 00000KT 10SM CLR 05/04 A3050 RMK AO2 SLP337 T00500039=
202203070253 METAR KBLI 070253Z 00000KT 10SM CLR 07/05 A3049 RMK AO2 SLP333 T00670050 53000=
202203070153 METAR KBLI 070153Z 00000KT 10SM CLR 08/05 A3048 RMK AO2 SLP332 T00830050=
202203070053 METAR KBLI 070053Z 00000KT 10SM CLR 10/04 A3048 RMK AO2 SLP330 T01000044=
202203062353 METAR KBLI 062353Z 30004KT 10SM CLR 11/04 A3049 RMK AO2 SLP332 T01060044 10111 20078 51001=
202203062253 METAR KBLI 062253Z VRB04KT 10SM FEW100 11/04 A3048 RMK AO2 SLP331 T01060044=
202203062236 SPECI KBLI 062236Z 23004KT 10SM FEW100 10/04 A3048 RMK AO2 T01000044=
202203062153 METAR KBLI 062153Z 31006KT 10SM FEW080 11/05 A3049 RMK AO2 SLP333 T01060050=
202203062053 METAR KBLI 062053Z 32005KT 10SM FEW025 11/04 A3048 RMK AO2 SLP331 T01060044 50004=
202203061953 METAR KBLI 061953Z 32003KT 10SM CLR 10/04 A3049 RMK AO2 SLP332 T01000039=
202203061853 METAR KBLI 061853Z 00000KT 10SM FEW030 09/03 A3048 RMK AO2 SLP330 T00890033=
202203061753 METAR KBLI 061753Z 00000KT 10SM CLR 08/04 A3047 RMK AO2 SLP328 T00780039 10078 20011 51019=
202203061709 SPECI KBLI 061709Z 00000KT 7SM R16/2800VP6000FT BCFG CLR 04/04 A3047 RMK AO2 T00440044=
202203061708 SPECI KBLI 061708Z 00000KT 10SM R16/2800VP6000FT CLR 04/04 A3047 RMK AO2 T00390039=
202203061653 METAR KBLI 061653Z 00000KT 1/4SM R16/1000V2200FT FG VV001 03/03 A3046 RMK AO2 SLP325 VSBY HIGHER SE. T00330033=
202203061618 SPECI KBLI 061618Z 00000KT 1/4SM R16/1000V2000FT FG VV001 02/02 A3045 RMK AO2 T00220022=
202203061553 METAR KBLI 061553Z 00000KT 1/4SM R16/P6000FT FG VV001 02/01 A3045 RMK AO2 SLP320 T00170011=
202203061541 SPECI KBLI 061541Z 00000KT 1/4SM R16/5500VP6000FT FG VV001 02/01 A3044 RMK AO2 VSBY HIGHER SW-NW. T00170011=
202203061517 SPECI KBLI 061517Z 00000KT 3/4SM R16/P6000FT BCFG SCT010 02/01 A3043 RMK AO2 VSBY HIGHER SW-NW. T00220011=
202203061453 METAR KBLI 061453Z 03003KT 10SM BKN010 02/01 A3042 RMK AO2 SLP309 T00170011 51022=
202203061353 METAR KBLI 061353Z AUTO 00000KT 10SM OVC010 02/02 A3040 RMK AO2 SLP304 T00220017=
202203061312 SPECI KBLI 061312Z AUTO 00000KT 10SM SCT005 OVC010 02/02 A3039 RMK AO2 T00220022=
202203061253 METAR KBLI 061253Z AUTO 00000KT 9SM OVC005 02/02 A3038 RMK AO2 SLP296 T00170017=
202203061236 SPECI KBLI 061236Z AUTO 00000KT 10SM BKN005 01/01 A3037 RMK AO2 T00110011=
202203061225 SPECI KBLI 061225Z AUTO 00000KT 10SM SCT005 02/02 A3037 RMK AO2 T00220022=
202203061213 SPECI KBLI 061213Z AUTO 33003KT 10SM SCT011 02/02 A3036 RMK AO2 T00220022=
202203061153 METAR KBLI 061153Z AUTO 18003KT 10SM OVC010 05/05 A3035 RMK AO2 SLP286 T00500050 10050 20017 51007=
202203061139 SPECI KBLI 061139Z AUTO VRB03KT 10SM OVC010 04/04 A3035 RMK AO2 T00390039=
202203061053 METAR KBLI 061053Z AUTO 00000KT 10SM OVC009 03/03 A3035 RMK AO2 SLP285 T00330028=
202203061032 SPECI KBLI 061032Z AUTO 00000KT 10SM OVC009 03/03 A3034 RMK AO2 T00280028=
202203061014 SPECI KBLI 061014Z AUTO 00000KT 10SM SCT006 OVC010 02/02 A3034 RMK AO2 T00220022=
202203060953 METAR KBLI 060953Z AUTO 17003KT 10SM BKN006 BKN010 BKN014 03/03 A3034 RMK AO2 SLP281 T00330033=
202203060943 SPECI KBLI 060943Z AUTO 16003KT 10SM BKN008 BKN014 04/03 A3034 RMK AO2 CIG 006V011 T00390033=
202203060936 SPECI KBLI 060936Z AUTO 14005KT 10SM SCT010 BKN014 04/03 A3034 RMK AO2 T00390033=
202203060853 METAR KBLI 060853Z AUTO 15005KT 10SM CLR 04/03 A3033 RMK AO2 SLP278 T00390033 51005=
202203060753 METAR KBLI 060753Z AUTO 18003KT 10SM CLR 03/02 A3033 RMK AO2 SLP278 T00330022 401171006=
202203060653 METAR KBLI 060653Z AUTO 00000KT 10SM CLR 03/02 A3033 RMK AO2 SLP278 T00280022=
202203060553 METAR KBLI 060553Z 18003KT 10SM CLR 03/02 A3031 RMK AO2 SLP274 T00280022 10111 20022 53005=
202203060453 METAR KBLI 060453Z 00000KT 10SM CLR 03/03 A3031 RMK AO2 SLP273 T00280028=
202203060353 METAR KBLI 060353Z 15003KT 10SM CLR 03/03 A3030 RMK AO2 SLP269 T00330028=
202203060253 METAR KBLI 060253Z 00000KT 10SM CLR 05/04 A3030 RMK AO2 SLP269 T00500039 53005=
202203060153 METAR KBLI 060153Z 00000KT 10SM FEW080 08/04 A3029 RMK AO2 SLP265 T00780044=
202203060053 METAR KBLI 060053Z 26004KT 10SM FEW040 09/04 A3028 RMK AO2 SLP263 T00940044=
202203052353 METAR KBLI 052353Z VRB05KT 10SM FEW040 11/03 A3028 RMK AO2 SLP262 T01110033 10117 20061 56006=
202203052253 METAR KBLI 052253Z 31008KT 10SM CLR 11/04 A3028 RMK AO2 SLP263 T01110039=
202203052153 METAR KBLI 052153Z 33006KT 10SM FEW012 FEW030 11/03 A3029 RMK AO2 SLP266 T01110033=
202203052053 METAR KBLI 052053Z 31006KT 10SM FEW012 FEW040 10/04 A3030 RMK AO2 SLP268 T01000039 58003=
202203052021 SPECI KBLI 052021Z 31007KT 290V350 10SM FEW023 10/05 A3030 RMK AO2 T01000050=
202203051953 METAR KBLI 051953Z VRB06KT 10SM FEW010 SCT023 10/05 A3030 RMK AO2 SLP270 T01000050=
202203051853 METAR KBLI 051853Z 01004KT 10SM FEW015 SCT030 09/05 A3030 RMK AO2 SLP270 T00890050=
202203051753 METAR KBLI 051753Z 03003KT 6SM BCFG FEW020 06/06 A3031 RMK AO2 SLP271 VSBY LWR N-E. I6000 T00610056 10061 21006 51009=
202203051710 SPECI KBLI 051710Z 04004KT 3/4SM R16/P6000FT BCFG SCT020 04/04 A3030 RMK AO2 VSBY HIGHER S-W. T00440044=
202203051708 SPECI KBLI 051708Z 03004KT 3/4SM R16/P6000FT BR SCT020 04/04 A3030 RMK AO2 VSBY HIGHER S-W. T00440044=
202203051653 METAR KBLI 051653Z 00000KT 1/4SM R16/1800V5000FT FG VV001 04/04 A3030 RMK AO2 SLP270 T00390039=
202203051649 SPECI KBLI 051649Z 00000KT 1/4SM R16/1800V2400FT FG VV001 03/03 A3030 RMK AO2=
202203051642 SPECI KBLI 051642Z 04003KT 1/4SM R16/1600V2000FT FG VV001 03/03 A3030 RMK AO2 T00330033=
202203051630 SPECI KBLI 051630Z 00000KT 1/4SM R16/1600V5500FT FG VV001 03/03 A3029 RMK AO2 T00330033=
202203051553 METAR KBLI 051553Z 00000KT 1/2SM R16/2800V5500FT FG SCT020 02/02 A3028 RMK AO2 SLP263 VSBY LWR NW-NE. I1000 T00170017=
202203051536 SPECI KBLI 051536Z 00000KT 1/2SM R16/1800V2400FT FG SCT020 01/01 A3028 RMK AO2 VSBY LWR NW-NE. I1000 T00060006=
202203051509 SPECI KBLI 051509Z 00000KT 1/4SM R16/1600V1800FT FG VV001 00/00 A3027 RMK AO2 T00000000=
202203051453 METAR KBLI 051453Z 00000KT M1/4SM R16/0800V1400FT FZFG VV001 M01/M01 A3026 RMK AO2 SLP257 I1000 I3000 T10061006 51013=
202203051439 SPECI KBLI 051439Z AUTO 00000KT 1/4SM R16/1200V1600FT FG VV001 00/00 A3025 RMK AO2 I1000 T00000000=
202203051416 SPECI KBLI 051416Z AUTO 00000KT 1/4SM R16/2000V3000FT FG VV001 00/00 A3025 RMK AO2 I1000 T00000000=
202203051353 METAR KBLI 051353Z AUTO 00000KT 1/4SM R16/1000V1400FT FG VV001 01/01 A3024 RMK AO2 SLP250 T00060006=
202203051348 SPECI KBLI 051348Z AUTO 00000KT 1/4SM R16/1000V1400FT FG VV001 01/01 A3024 RMK AO2=
202203051334 SPECI KBLI 051334Z AUTO 00000KT 1/4SM R16/1200V1400FT FG VV003 01/01 A3023 RMK AO2 T00060006=
202203051327 SPECI KBLI 051327Z AUTO 00000KT 1/4SM R16/1200V2400FT FG VV003 01/01 A3023 RMK AO2 T00060006=
202203051316 SPECI KBLI 051316Z AUTO 34003KT 1/2SM R16/1600V3500FT FG FEW002 OVC008 00/00 A3023 RMK AO2 T00000000=
202203051306 SPECI KBLI 051306Z AUTO 33003KT 1/4SM R16/2000V2800FT FG FEW002 OVC008 01/01 A3023 RMK AO2 T00060006=
202203051253 METAR KBLI 051253Z AUTO 00000KT 1/2SM R16/1600V3000FT FG FEW002 OVC008 01/01 A3022 RMK AO2 SLP243 T00060006=
202203051153 METAR KBLI 051153Z AUTO 00000KT 1/4SM R16/1400V2400FT FG VV007 01/01 A3021 RMK AO2 SLP241 T00060006 10061 21006 52008=
202203051144 SPECI KBLI 051144Z AUTO 00000KT 1/4SM R16/1800V3500FT FG VV008 00/00 A3021 RMK AO2 T00000000=
202203051140 SPECI KBLI 051140Z AUTO 00000KT 1/2SM R16/2200V3500FT FG VV010 00/00 A3021 RMK AO2 T00000000=
202203051138 SPECI KBLI 051138Z AUTO 00000KT 1SM R16/2200V3500FT BR VV011 00/00 A3021 RMK AO2 T00000000=
202203051131 SPECI KBLI 051131Z AUTO 00000KT 2SM R16/2800V4000FT BR SCT012 M01/M01 A3021 RMK AO2 T10061006=
202203051116 SPECI KBLI 051116Z AUTO 00000KT 1 1/2SM R16/2000VP6000FT BR BKN013 01/01 A3021 RMK AO2 T00110011=
202203051053 METAR KBLI 051053Z AUTO 00000KT 10SM BKN013 01/01 A3021 RMK AO2 SLP237 T00110011=
202203051043 SPECI KBLI 051043Z AUTO 00000KT 10SM BKN012 01/01 A3020 RMK AO2 T00060006=
202203051036 SPECI KBLI 051036Z AUTO 00000KT 2 1/2SM BR BKN012 01/01 A3020 RMK AO2 T00110011=
202203051026 SPECI KBLI 051026Z AUTO 00000KT 3/4SM R16/5000VP6000FT BR VV011 01/01 A3020 RMK AO2 T00110011=
202203051022 SPECI KBLI 051022Z AUTO 00000KT 1 1/2SM R16/5000VP6000FT BR FEW012 01/01 A3020 RMK AO2 VIS 1/2V5 T00060006=
202203050953 METAR KBLI 050953Z AUTO 00000KT 10SM FEW085 02/02 A3020 RMK AO2 SLP234 T00220017=
202203050853 METAR KBLI 050853Z AUTO 00000KT 10SM BKN090 02/02 A3019 RMK AO2 SLP232 T00220022 53011=
202203050753 METAR KBLI 050753Z AUTO 00000KT 10SM SCT090 03/03 A3018 RMK AO2 SLP228 T00330033 401060022=
202203050653 METAR KBLI 050653Z AUTO 00000KT 10SM OVC090 05/04 A3017 RMK AO2 SLP224 T00500039=
202203050553 METAR KBLI 050553Z 28004KT 10SM CLR 06/04 A3016 RMK AO2 SLP221 T00610044 10100 20022 53010=
202203050453 METAR KBLI 050453Z 00000KT 10SM CLR 03/03 A3015 RMK AO2 SLP218 T00280028=
202203050353 METAR KBLI 050353Z 00000KT 10SM FEW090 03/03 A3014 RMK AO2 SLP214 T00330028=
202203050253 METAR KBLI 050253Z 00000KT 10SM FEW090 05/03 A3013 RMK AO2 SLP212 T00500033 53008=
202203050153 METAR KBLI 050153Z 00000KT 10SM FEW095 08/03 A3012 RMK AO2 SLP206 T00830033=
202203050053 METAR KBLI 050053Z 30004KT 10SM FEW090 09/05 A3011 RMK AO2 SLP203 T00940050=
202203042353 METAR KBLI 042353Z 31009KT 10SM FEW090 10/04 A3010 RMK AO2 SLP202 T01000044 10106 20083 55003=
202203042253 METAR KBLI 042253Z 32009G18KT 10SM CLR 11/06 A3010 RMK AO2 SLP201 T01060056=
202203042153 METAR KBLI 042153Z 32009KT 10SM SCT025 10/05 A3011 RMK AO2 SLP203 T01000050=
202203042053 METAR KBLI 042053Z 33010KT 10SM SCT020 SCT030 09/05 A3011 RMK AO2 SLP206 T00940050 58006=
202203041953 METAR KBLI 041953Z 33008KT 10SM FEW022 BKN030 09/05 A3013 RMK AO2 SLP210 T00890050=
202203041853 METAR KBLI 041853Z 34006KT 10SM SCT017 BKN030 09/05 A3013 RMK AO2 SLP211 T00890050=
202203041753 METAR KBLI 041753Z VRB05KT 10SM FEW013 SCT033 09/06 A3013 RMK AO2 SLP211 T00890056 10089 20022 53000=
202203041653 METAR KBLI 041653Z 00000KT 10SM FEW033 06/05 A3013 RMK AO2 SLP211 T00610050=
202203041553 METAR KBLI 041553Z 00000KT 10SM OVC014 05/04 A3013 RMK AO2 SLP212 T00500044=
202203041455 SPECI KBLI 041455Z 00000KT 10SM FEW012 SCT080 03/03 A3011 RMK AO2 T00280028 $=
202203041453 METAR KBLI 041453Z AUTO 00000KT 1/4SM R16/P6000FT FG CLR 03/03 A3011 RMK AO2 SLP206 T00280028 51003 $=
202203041449 SPECI KBLI 041449Z AUTO 00000KT 1/2SM R16/P6000FT FG FEW039 03/03 A3011 RMK AO2 $=
202203041445 SPECI KBLI 041445Z AUTO 00000KT 1SM R16/P6000FT BR FEW039 03/03 A3011 RMK AO2 T00330033=
202203041353 METAR KBLI 041353Z AUTO 00000KT 10SM OVC070 05/04 A3011 RMK AO2 SLP204 T00500044=
202203041253 METAR KBLI 041253Z AUTO 04003KT 10SM OVC065 05/04 A3011 RMK AO2 SLP203 T00500044=
202203041153 METAR KBLI 041153Z AUTO 16003KT 10SM OVC065 06/05 A3010 RMK AO2 SLP202 T00610050 10061 20039 58003=
202203041053 METAR KBLI 041053Z AUTO 00000KT 10SM SCT047 OVC060 06/05 A3011 RMK AO2 SLP204 T00610050=
202203040953 METAR KBLI 040953Z AUTO 00000KT 10SM BKN048 OVC060 06/05 A3011 RMK AO2 SLP205 T00560050=
202203040853 METAR KBLI 040853Z AUTO 00000KT 10SM OVC060 06/05 A3011 RMK AO2 SLP205 T00610050 51003=
202203040753 METAR KBLI 040753Z AUTO 17004KT 10SM OVC044 06/05 A3011 RMK AO2 SLP204 T00610050 401000039=
202203040653 METAR KBLI 040653Z AUTO 19003KT 10SM BKN041 OVC060 06/04 A3011 RMK AO2 SLP204 T00560044=
202203040553 METAR KBLI 040553Z 00000KT 10SM SCT060 04/04 A3010 RMK AO2 SLP202 T00440039 10100 20039 52002=
202203040453 METAR KBLI 040453Z 14003KT 10SM OVC060 06/04 A3010 RMK AO2 SLP202 T00610044=
202203040353 METAR KBLI 040353Z 00000KT 10SM OVC070 05/04 A3010 RMK AO2 SLP202 T00500044=
202203040253 METAR KBLI 040253Z 00000KT 10SM FEW065 06/04 A3010 RMK AO2 SLP201 T00560044 53001=
202203040153 METAR KBLI 040153Z 00000KT 10SM CLR 07/04 A3009 RMK AO2 SLP199 T00670044=
202203040053 METAR KBLI 040053Z 00000KT 10SM SCT060 08/04 A3010 RMK AO2 SLP199 T00830039=
202203032353 METAR KBLI 032353Z VRB05KT 10SM FEW014 SCT025 09/04 A3009 RMK AO2 SLP199 T00940044 10100 20072 55005=
202203032253 METAR KBLI 032253Z VRB04KT 10SM SCT023 10/04 A3009 RMK AO2 SLP198 T01000039=
202203032153 METAR KBLI 032153Z VRB05KT 10SM FEW024 SCT044 OVC055 09/04 A3010 RMK AO2 SLP202 T00940039=
202203032053 METAR KBLI 032053Z VRB05KT 10SM FEW015 SCT033 09/05 A3011 RMK AO2 SLP204 T00890050 50001=
202203031953 METAR KBLI 031953Z 19007KT 10SM SCT030 SCT055 08/05 A3011 RMK AO2 SLP205 T00830050=
202203031853 METAR KBLI 031853Z 20006KT 10SM FEW010 SCT030 08/05 A3011 RMK AO2 SLP204 T00780050=
202203031753 METAR KBLI 031753Z 18006KT 10SM SCT030 07/04 A3011 RMK AO2 SLP203 T00720044 10072 20044 53012=
202203031653 METAR KBLI 031653Z 16006KT 10SM SCT044 07/04 A3009 RMK AO2 SLP198 T00670044=
202203031553 METAR KBLI 031553Z 18003KT 10SM FEW039 04/04 A3008 RMK AO2 SLP195 T00440044=
202203031453 METAR KBLI 031453Z 19003KT 10SM FEW039 05/04 A3007 RMK AO2 SLP191 T00500044 52007=
202203031353 METAR KBLI 031353Z AUTO 17007KT 10SM OVC036 07/05 A3006 RMK AO2 SLP189 T00670050=
202203031253 METAR KBLI 031253Z AUTO 00000KT 9SM FEW014 BKN033 06/06 A3006 RMK AO2 SLP187 T00610061=
202203031242 SPECI KBLI 031242Z AUTO 00000KT 10SM FEW013 OVC031 07/07 A3006 RMK AO2 T00670067=
202203031153 METAR KBLI 031153Z AUTO 00000KT 10SM FEW011 OVC027 07/07 A3005 RMK AO2 SLP184 60008 70012 T00720067 10078 20067 51004=
202203031109 SPECI KBLI 031109Z AUTO 20005KT 10SM SCT005 OVC016 07/07 A3004 RMK AO2 T00720072=
202203031053 METAR KBLI 031053Z AUTO 18006KT 10SM BKN004 OVC015 07/07 A3004 RMK AO2 CIG 003V007 SLP182 T00720072=
202203031041 SPECI KBLI 031041Z AUTO 19006KT 10SM BKN004 OVC015 08/08 A3004 RMK AO2 T00780078=
202203031017 SPECI KBLI 031017Z AUTO 19005KT 9SM BKN005 BKN013 OVC047 07/07 A3005 RMK AO2 CIG 004V008 T00720072=
202203031009 SPECI KBLI 031009Z AUTO 18004KT 3SM BR SCT007 BKN013 OVC045 07/07 A3005 RMK AO2 T00720072=
202203031002 SPECI KBLI 031002Z AUTO 00000KT 2SM BR SCT007 BKN020 OVC045 07/07 A3005 RMK AO2 T00720072=
202203030953 METAR KBLI 030953Z AUTO 00000KT 2 1/2SM BR FEW005 SCT019 OVC045 07/07 A3005 RMK AO2 VIS 1 3/4V4 SLP185 T00720072=
202203030934 SPECI KBLI 030934Z AUTO 00000KT 4SM BR FEW005 BKN034 OVC042 07/07 A3005 RMK AO2 T00720072=
202203030927 SPECI KBLI 030927Z AUTO 00000KT 3SM BR SCT034 OVC042 07/07 A3005 RMK AO2 T00720072=
202203030910 SPECI KBLI 030910Z AUTO 00000KT 2 1/2SM BR OVC040 07/07 A3005 RMK AO2 VIS 1 1/2V3 T00720072=
202203030853 METAR KBLI 030853Z AUTO 00000KT 3SM BR FEW004 OVC039 07/07 A3004 RMK AO2 RAE17 SLP180 P0002 60008 T00720072 58002=
202203030830 SPECI KBLI 030830Z AUTO 09004KT 4SM BR FEW004 OVC039 07/07 A3004 RMK AO2 RAE17 P0002 T00720072=
202203030817 SPECI KBLI 030817Z AUTO 00000KT 3SM BR BKN041 OVC055 07/07 A3004 RMK AO2 RAE17 P0002 T00720072=
202203030802 SPECI KBLI 030802Z AUTO 00000KT 2 1/2SM -RA BR FEW011 BKN043 OVC055 07/07 A3004 RMK AO2 P0001 T00720072=
202203030753 METAR KBLI 030753Z AUTO 12004KT 2SM -RA BR FEW002 BKN025 OVC035 07/07 A3004 RMK AO2 RAB20 SLP182 P0005 T00720072 401110061=
202203030742 SPECI KBLI 030742Z AUTO 00000KT 1 3/4SM RA BR FEW006 BKN010 OVC026 07/07 A3004 RMK AO2 RAB20 CIG 007V012 P0003 T00720072=
202203030737 SPECI KBLI 030737Z AUTO 00000KT 2SM RA BR FEW006 BKN009 OVC023 07/07 A3005 RMK AO2 RAB20 P0002 T00720072=
202203030728 SPECI KBLI 030728Z AUTO 26003KT 2 1/2SM -RA BR FEW006 OVC011 07/07 A3004 RMK AO2 RAB20 P0000 T00720072=
202203030711 SPECI KBLI 030711Z AUTO 00000KT 4SM BR BKN012 BKN030 OVC036 07/07 A3005 RMK AO2 T00720072=
202203030653 METAR KBLI 030653Z AUTO 00000KT 5SM BR FEW010 BKN033 OVC048 07/07 A3004 RMK AO2 RAB18E50 SLP182 P0001 T00720072=
202203030625 SPECI KBLI 030625Z AUTO 00000KT 5SM -RA BR BKN012 BKN027 OVC035 07/07 A3005 RMK AO2 RAB18 P0000 T00720072=
202203030553 METAR KBLI 030553Z 00000KT 5SM BR FEW012 BKN027 OVC050 07/07 A3004 RMK AO2 SLP180 60000 T00720072 10083 20061 53006=
202203030453 METAR KBLI 030453Z 00000KT 6SM BR SCT017 BKN026 OVC055 07/07 A3003 RMK AO2 SLP177 T00670067=
202203030355 SPECI KBLI 030355Z 00000KT 10SM BKN015 BKN046 OVC060 07/07 A3002 RMK AO2 T00720072=
202203030353 METAR KBLI 030353Z 06003KT 7SM FEW015 BKN046 OVC060 07/07 A3002 RMK AO2 RAB0259E09 SLP174 P0000 T00720072=
202203030253 METAR KBLI 030253Z 35003KT 9SM OVC015 08/08 A3002 RMK AO2 RAE53 SLP174 VSBY HIGHER W. P0000 60000 T00780078 53001=
202203030153 METAR KBLI 030153Z 01004KT 10SM -RA OVC015 08/08 A3001 RMK AO2 RAB32 SLP171 P0000 T00780078=
202203030053 METAR KBLI 030053Z 01003KT 10SM FEW005 BKN018 OVC033 08/08 A3001 RMK AO2 SLP171 T00830083=
202203022353 METAR KBLI 022353Z 04007KT 10SM FEW005 BKN018 OVC031 08/08 A3002 RMK AO2 SLP173 60000 T00830083 10083 20078 56006=
202203022332 SPECI KBLI 022332Z 03006KT 10SM FEW004 BKN018 OVC024 08/08 A3002 RMK AO2 T00830083=
202203022253 METAR KBLI 022253Z 05009KT 5SM BR SCT004 OVC010 08/08 A3002 RMK AO2 RAE24 SLP173 VSBYW-N 2SM CIGS HIGHER S-SW P0000 T00830083=
202203022241 SPECI KBLI 022241Z 05008KT 4SM BR SCT004 OVC010 08/08 A3002 RMK AO2 RAE24 VSBYW-N 2SM CIGS HIGHER S-SW P0000 T00830083=
202203022230 SPECI KBLI 022230Z 04008KT 2 1/2SM BR OVC010 08/08 A3002 RMK AO2 RAE24 P0000 T00830083=
202203022220 SPECI KBLI 022220Z 04008KT 3SM -RA BR OVC010 08/08 A3002 RMK AO2 P0000 T00780078=
202203022214 SPECI KBLI 022214Z 05007KT 2SM -RA BR OVC015 08/08 A3002 RMK AO2 P0000 T00780078=
202203022153 METAR KBLI 022153Z 04005KT 4SM -RA BR OVC015 08/08 A3002 RMK AO2 RAB2056 SLP174 P0000 T00780078=
202203022053 METAR KBLI 022053Z 04009KT 10SM OVC016 08/07 A3004 RMK AO2 SLP179 60000 T00830072 58004=
202203021953 METAR KBLI 021953Z 04006KT 10SM OVC018 08/07 A3005 RMK AO2 RAB33E42 SLP184 P0000 T00780072=
202203021853 METAR KBLI 021853Z 04008KT 10SM OVC020 08/07 A3004 RMK AO2 SLP180 T00780067=
202203021753 METAR KBLI 021753Z 04007KT 10SM OVC018 08/07 A3005 RMK AO2 RAE1657 SLP182 P0000 60004 T00780067 10100 20072 53006=
202203021653 METAR KBLI 021653Z 02007KT 9SM -RA FEW006 OVC017 07/07 A3004 RMK AO2 SLP179 P0000 T00720072=
202203021639 SPECI KBLI 021639Z 03009KT 6SM -RA BR FEW006 OVC018 07/07 A3003 RMK AO2 P0000 T00720072=
202203021553 METAR KBLI 021553Z 03006KT 7SM -RA OVC019 08/07 A3003 RMK AO2 RAE1458B17 SLP175 P0004 T00780072=
202203021453 METAR KBLI 021453Z 04007KT 10SM -RA FEW007 OVC019 08/08 A3003 RMK AO2 RAB44 SLP176 P0000 60000 T00830078 51005=
202203021404 SPECI KBLI 021404Z AUTO 04005KT 10SM FEW005 SCT014 OVC021 08/08 A3003 RMK AO2 T00830083=
202203021353 METAR KBLI 021353Z AUTO 05005KT 10SM OVC021 09/08 A3003 RMK AO2 SLP175 T00890083=
202203021253 METAR KBLI 021253Z AUTO 00000KT 10SM OVC024 09/08 A3003 RMK AO2 RAE02 SLP176 P0000 T00940083=
202203021227 SPECI KBLI 021227Z AUTO 32004KT 10SM BKN028 OVC090 08/08 A3002 RMK AO2 RAE02 P0000 T00830083=
202203021153 METAR KBLI 021153Z AUTO VRB03KT 10SM -RA SCT055 BKN070 OVC110 10/08 A3001 RMK AO2 RAB32 SLP170 P0000 60000 70008 T01000083 10128 20094 58009=
202203021053 METAR KBLI 021053Z AUTO 13006KT 10SM OVC090 10/08 A3003 RMK AO2 RAE05B35E45 SLP176 P0000 T01000083=
202203020953 METAR KBLI 020953Z AUTO 14007KT 10SM -RA SCT060 OVC080 10/09 A3004 RMK AO2 RAB25 SLP180 P0000 T01000089=
202203020853 METAR KBLI 020853Z AUTO 15009KT 10SM SCT055 OVC075 11/08 A3004 RMK AO2 RAB04E51 SLP180 P0000 60000 T01060083 58000=
202203020753 METAR KBLI 020753Z AUTO 19006KT 10SM FEW043 BKN060 OVC070 12/07 A3005 RMK AO2 RAB05E37 SLP181 P0000 T01170072 401390067=
202203020653 METAR KBLI 020653Z AUTO 17008G18KT 10SM OVC080 12/08 A3004 RMK AO2 SLP178 T01220078=
202203020553 METAR KBLI 020553Z 17009KT 10SM BKN085 OVC110 13/07 A3004 RMK AO2 SLP180 T01280072 10139 20122 53004=
202203020453 METAR KBLI 020453Z 16015G20KT 10SM OVC090 12/07 A3003 RMK AO2 SLP176 T01220067=
202203020353 METAR KBLI 020353Z 17011G21KT 10SM FEW080 12/07 A3003 RMK AO2 SLP177 T01220067=
202203020253 METAR KBLI 020253Z 16012G20KT 10SM FEW090 SCT110 13/07 A3003 RMK AO2 SLP175 T01280067 53001=
202203020153 METAR KBLI 020153Z 16009KT 10SM SCT040 BKN090 13/08 A3002 RMK AO2 SLP172 T01330078=
202203020053 METAR KBLI 020053Z 16011KT 10SM OVC090 14/08 A3002 RMK AO2 SLP172 T01390083=
202203012353 METAR KBLI 012353Z 18006KT 10SM BKN090 13/10 A3003 RMK AO2 SLP175 T01330100 10139 20106 58002=
202203012253 METAR KBLI 012253Z 18009KT 10SM BKN085 13/10 A3003 RMK AO2 SLP176 T01330100=
202203012153 METAR KBLI 012153Z 19005KT 10SM FEW017 SCT090 13/10 A3003 RMK AO2 SLP176 T01330100=
202203012053 METAR KBLI 012053Z 18007KT 10SM FEW010 SCT017 BKN080 13/10 A3003 RMK AO2 SLP177 T01280100 50006=
202203011953 METAR KBLI 011953Z 18008KT 10SM SCT014 SCT030 BKN080 12/10 A3004 RMK AO2 SLP181 T01220100=
202203011853 METAR KBLI 011853Z 19008KT 10SM SCT014 OVC100 11/10 A3003 RMK AO2 SLP178 T01110100=
202203011753 METAR KBLI 011753Z 18007KT 10SM FEW010 SCT020 11/10 A3002 RMK AO2 SLP172 P0001 60008 T01060100 10106 20072 51014=
202203011653 METAR KBLI 011653Z 18014G21KT 10SM SCT016 BKN070 10/10 A3001 RMK AO2 RAB13E25 SLP170 P0000 T01000100=
202203011553 METAR KBLI 011553Z 18007KT 10SM FEW003 SCT011 BKN018 10/10 A2999 RMK AO2 RAE1455B19E38 SLP162 P0000 T01000100=
202203011544 SPECI KBLI 011544Z 18006KT 10SM SCT003 BKN013 OVC018 10/10 A2999 RMK AO2 RAE1455B19E38 P0000 T01000100=
202203011453 METAR KBLI 011453Z 15005KT 1SM R16/P6000FT -RA BR BKN005 OVC011 08/08 A2998 RMK AO2 RAB04 SLP159 P0005 60007 T00780078 50007=
202203011436 SPECI KBLI 011436Z AUTO 16005KT 3SM -RA BR BKN006 OVC011 09/09 A2998 RMK AO2 RAB04 P0005 T00890089=
202203011416 SPECI KBLI 011416Z AUTO 29004KT 2 1/2SM -RA BR OVC006 07/07 A2999 RMK AO2 RAB04 CIG 003V009 P0000 T00720072=
202203011357 SPECI KBLI 011357Z AUTO 00000KT 3SM BR BKN008 BKN016 OVC060 08/08 A2998 RMK AO2 T00780078=
202203011349 METAR KBLI 011349Z AUTO 33003KT 2 1/2SM BR SCT009 BKN035 OVC060 07/07 A2998 RMK AO2 VIS 1 1/2V4 RAB01E14 SLP160 P0000 T00720072=
202203011348 SPECI KBLI 011348Z AUTO 33003KT 2 1/2SM BR SCT009 BKN035 OVC060 07/07 A2998 RMK AO2 VIS 1 1/2V4 RAB01E14 P0000=
202203011253 METAR KBLI 011253Z AUTO 00000KT 10SM OVC070 08/08 A2996 RMK AO2 RAE31 SLP154 P0002 T00830083=
202203011201 SPECI KBLI 011201Z AUTO 22005KT 4SM -RA BR SCT009 SCT050 OVC060 07/07 A2997 RMK AO2 P0000 T00720072=
202203011153 METAR KBLI 011153Z AUTO 00000KT 3SM -RA BR BKN009 OVC060 07/07 A2996 RMK AO2 RAB36 SLP152 P0001 60001 70018 T00720072 10072 20067 53003=
202203011131 SPECI KBLI 011131Z AUTO 00000KT 3SM BR OVC008 07/07 A2997 RMK AO2 CIG 005V013 PRESRR T00670067=
202203011053 METAR KBLI 011053Z AUTO 00000KT 4SM BR FEW008 BKN011 OVC070 07/07 A2995 RMK AO2 RAE25 SLP148 P0000 T00670067=
202203010953 METAR KBLI 010953Z AUTO 00000KT 6SM -RA BR OVC009 07/07 A2996 RMK AO2 RAB08E17B36 SLP153 P0000 T00720072=
202203010930 SPECI KBLI 010930Z AUTO 00000KT 5SM BR OVC009 07/07 A2997 RMK AO2 RAB08E17 P0000 T00720072=
202203010853 METAR KBLI 010853Z AUTO 00000KT 5SM BR BKN011 OVC095 07/07 A2995 RMK AO2 SLP149 60000 T00670067 53008=
202203010753 METAR KBLI 010753Z AUTO 00000KT 4SM BR FEW002 OVC010 07/07 A2993 RMK AO2 SLP144 T00720072 401060056=
202203010750 SPECI KBLI 010750Z AUTO 04003KT 4SM BR FEW002 OVC010 07/07 A2993 RMK AO2=
202203010653 METAR KBLI 010653Z AUTO 02005KT 5SM BR FEW003 OVC009 07/07 A2993 RMK AO2 RAE27 SLP142 P0000 T00720072=
202203010553 METAR KBLI 010553Z 04003KT 4SM -RA BR BKN008 BKN033 OVC045 07/07 A2991 RMK AO2 RAB45 SLP135 P0000 60003 T00720072 10083 20072 53019=
202203010539 SPECI KBLI 010539Z 04003KT 5SM BR BKN012 BKN033 OVC045 07/07 A2990 RMK AO2 T00720072=
202203010453 METAR KBLI 010453Z 01003KT 4SM BR BKN008 BKN014 OVC047 07/07 A2988 RMK AO2 RAE0354 SLP127 P0000 T00720072=
202203010353 METAR KBLI 010353Z 00000KT 3SM -RA BR OVC008 08/08 A2987 RMK AO2 RAB16 CIG 006V012 SLP123 P0000 T00780078=
202203010253 METAR KBLI 010253Z 34005KT 4SM BR OVC008 07/07 A2985 RMK AO2 SLP116 60003 T00720072 53001=
202203010251 SPECI KBLI 010251Z 35005KT 4SM BR OVC008 08/08 A2984 RMK AO2=
202203010237 SPECI KBLI 010237Z 02004KT 2SM BR OVC009 08/08 A2983 RMK AO2 T00780078=
202203010153 METAR KBLI 010153Z 06005KT 1SM R16/P6000FT BR BKN008 OVC012 08/08 A2983 RMK AO2 RAB00E46 SLP110 P0001 T00780078=
202203010058 SPECI KBLI 010058Z 03004KT 3/4SM R16/6000VP6000FT BR OVC008 08/08 A2985 RMK AO2 T00780078=
202203010053 METAR KBLI 010053Z 03005KT 1SM R16/P6000FT BR FEW003 OVC008 08/08 A2985 RMK AO2 RAE46 SLP115 VSBY SE-SW 1SM P0002 T00780078=
202203010016 SPECI KBLI 010016Z 02003KT 5SM -RA BR BKN007 BKN013 OVC019 08/08 A2985 RMK AO2 CIG 003V011 VSBY SE-SW 1SM P0001 T00830083=
202203010003 SPECI KBLI 010003Z 02003KT 5SM R16/3500VP6000FT -RA BR SCT006 OVC019 08/08 A2985 RMK AO2 P0000 T00830083=

# No short TAF reports from KBLI in databse.

###################################
#  large TAF from KBLI
###################################
202203312320 TAF KBLI 312320Z 0100/0124 21005KT P6SM SCT030 SCT050 FM010100
                       VRB03KT P6SM SCT050 SCT250 FM010500 00000KT
                       P6SM OVC030 FM011100 VRB04KT P6SM OVC030
                       FM011800 16007KT P6SM SCT030 OVC060=
202203311720 TAF KBLI 311720Z 3118/0118 21005KT P6SM SCT030 BKN050 FM010100
                       VRB03KT P6SM SCT050 SCT250 FM010500 00000KT
                       P6SM OVC030 FM011100 13004KT P6SM OVC030=
202203311125 TAF KBLI 311125Z 3112/0112 21003KT P6SM OVC025 FM311900 22005KT
                       P6SM SCT030 BKN050 FM010900 00000KT P6SM
                       OVC030=
202203310520 TAF KBLI 310520Z 3106/0106 VRB04KT P6SM BKN060 FM311200 17003KT
                       P6SM OVC025 FM311900 22005KT P6SM SCT030
                       BKN050=
202203302322 TAF KBLI 302322Z 3100/3124 21008KT P6SM BKN050 FM310400 VRB04KT
                       P6SM BKN060 FM311200 17003KT P6SM OVC025
                       FM311900 22005KT P6SM SCT030 BKN050=
202203301727 TAF KBLI 301727Z 3018/3118 18011G18KT P6SM VCSH BKN020 FM301900
                       21011G16KT P6SM BKN050 FM310400 VRB04KT
                       P6SM BKN060 FM311200 17003KT P6SM OVC025=
202203301132 TAF KBLI 301132Z 3012/3112 17007KT P6SM -RA BKN025 OVC050 FM301800
                       20011KT P6SM VCSH SCT030 BKN050 FM302100
                       21009KT P6SM BKN060 FM310400 VRB04KT P6SM
                       BKN060=
202203300947 KBLI 300947Z 3010/3106 18010G18KT P6SM VCSH SCT008 BKN015 OVC040
                       TEMPO 3010/3012 4SM -RA BKN010 FM301200
                       17008KT P6SM -RA OVC025 FM301800 20008KT
                       P6SM SCT030 BKN050 FM302200 21009KT P6SM
                       BKN060=
202203300844 KBLI 300844Z 3009/3106 18010KT P6SM VCSH SCT004 BKN010 OVC025
                      TEMPO 3009/3010 3SM -RA BR BKN004 FM301200
                       17008KT P6SM -RA OVC025 FM301800 20008KT
                       P6SM SCT030 BKN050 FM302200 21009KT P6SM
                       BKN060=
202203300527 TAF KBLI 300527Z 3006/3106 20005KT P6SM VCSH SCT030 OVC050 FM301200
                       17008KT P6SM -RA OVC025 FM301800 20008KT
                       P6SM SCT030 BKN050 FM302200 21009KT P6SM
                       BKN060=
202203292342 TAF KBLI 292342Z 3000/3024 20008KT P6SM BKN040 FM300500 20008KT
                       P6SM SCT050 BKN100 FM301000 17008KT P6SM
                       SCT025 OVC050 FM301200 17008KT P6SM -RA
                       OVC025 FM301800 20008KT P6SM SCT030 BKN050=
202203291733 TAF KBLI 291733Z 2918/3018 00000KT P6SM SCT015 BKN035 FM292100
                       18007KT P6SM OVC040 FM300500 19004KT P6SM
                       VCSH OVC035 FM301200 17007KT P6SM -RA OVC025=
202203291505 KBLI 291505Z 2915/3012 00000KT 5SM BR SCT002
                      TEMPO 2915/2917 1SM BR BKN002 FM291700 00000KT
                       P6SM SCT015 BKN035 FM292200 18007KT P6SM
                       OVC040 FM300500 19004KT P6SM VCSH OVC050=
202203291132 TAF KBLI 291132Z 2912/3012 00000KT P6SM SCT020
                      TEMPO 2913/2917 OVC015 FM291900 17005KT P6SM
                       SCT015 OVC035 FM292200 18007KT P6SM OVC040
                       FM300500 19004KT P6SM VCSH OVC050=
202203290530 TAF KBLI 290530Z 2906/3006 00000KT P6SM SCT015 OVC030 FM291100
                       VRB03KT P6SM OVC020
                      TEMPO 2911/2913 BKN005 FM291900 17005KT P6SM
                       SCT015 BKN035 FM292200 18007KT P6SM OVC040
                       FM300500 19004KT P6SM VCSH OVC050=
202203282331 TAF KBLI 282331Z 2900/2924 16008KT P6SM SCT019 OVC070 FM290200
                       00000KT P6SM BKN030 FM291100 VRB03KT P6SM
                       OVC020
                      TEMPO 2911/2913 BKN005 FM291900 17005KT P6SM
                       BKN015=
202203282100 KBLI 282100Z 2821/2918 32004KT P6SM SCT009 OVC030
                      TEMPO 2821/2823 BKN009 OVC030 FM290200 00000KT
                       P6SM BKN030 FM291100 VRB03KT P6SM OVC020
                       TEMPO 2911/2913 BKN005=
202203281721 TAF KBLI 281721Z 2818/2918 00000KT 4SM -RA BR OVC005 FM282100 34006KT
                       P6SM VCSH BKN020 OVC040 FM290200 00000KT
                       P6SM BKN030 FM291100 VRB03KT P6SM OVC020
                       TEMPO 2911/2913 BKN005=
202203281248 KBLI 281248Z 2813/2912 30005KT 6SM -RA BR BKN007 OVC015 FM282100
                       34006KT P6SM VCSH BKN020 OVC040 FM290300
                       00000KT P6SM BKN030 FM291100 VRB03KT P6SM
                       OVC020=
202203281125 TAF KBLI 281125Z 2812/2912 VRB03KT P6SM VCSH SCT015 OVC080 FM281500
                       VRB03KT 6SM -RA BR SCT007 OVC015 FM282100
                       34006KT P6SM VCSH BKN020 OVC040 FM290300
                       00000KT P6SM BKN030 FM291100 VRB03KT P6SM
                       OVC020=
202203280527 TAF KBLI 280527Z 2806/2906 VRB03KT P6SM VCSH SCT030 BKN120 FM281300
                       00000KT P6SM VCSH OVC015
                      TEMPO 2817/2820 6SM -RA BKN007 FM282100 34004KT
                       P6SM BKN020 OVC040 FM290500 00000KT P6SM
                       OVC015=
202203272321 TAF KBLI 272321Z 2800/2824 28004KT P6SM FEW070 BKN200 FM280500
                       VRB03KT P6SM BKN060 BKN120 FM281300 00000KT
                       P6SM VCSH OVC015 FM282100 30004KT P6SM BKN020
                       OVC040=
202203271722 TAF KBLI 271722Z 2718/2818 01003KT P6SM SCT010 BKN080
                      TEMPO 2718/2720 BKN010 OVC080 FM272000 28004KT
                       P6SM FEW040 BKN120 FM280500 VRB03KT P6SM
                       BKN050 BKN120 FM281300 00000KT P6SM -RA
                       OVC015=
202203271127 TAF KBLI 271127Z 2712/2812 02005KT P6SM VCSH BKN060 OVC100 FM272000
                       30006KT P6SM BKN120 FM280500 VRB03KT P6SM
                       BKN050 BKN120=
202203270534 TAF KBLI 270534Z 2706/2806 03007KT P6SM VCSH OVC040 FM270800 VRB03KT
                       P6SM VCSH BKN035 OVC100 FM272000 30006KT
                       P6SM FEW020 BKN050 BKN120 FM280500 VRB03KT
                       P6SM BKN050 BKN120=
202203262325 TAF KBLI 262325Z 2700/2724 03007KT P6SM OVC035 FM270800 VRB03KT
                       P6SM -RA BKN025 OVC040 FM271500 VRB03KT
                       P6SM OVC015 FM272000 29003KT P6SM FEW020
                       BKN050 OVC120=
202203261720 TAF KBLI 261720Z 2618/2718 04006KT P6SM SCT030 OVC050
                      TEMPO 2618/2622 -RA OVC030 FM270800 VRB03KT
                       P6SM -RA BKN025 OVC040 FM271500 VRB03KT
                       P6SM OVC015=
202203261602 KBLI 261602Z 2616/2712 03006KT P6SM OVC050
                      TEMPO 2618/2622 -RA BKN025 OVC050=
202203261124 TAF KBLI 261124Z 2612/2712 19003KT P6SM -RA OVC060 FM261600 03004KT
                       P6SM VCSH BKN025 OVC040 FM261800 06006KT
                       P6SM BKN025 OVC040 FM262100 36006KT P6SM
                       BKN025 OVC040 FM270600 01002KT 6SM -RA BR
                       OVC025=
202203260520 TAF KBLI 260520Z 2606/2706 00000KT P6SM FEW090 FM261200 VRB03KT
                       P6SM -RA FEW030 OVC050 FM261600 03004KT
                       P6SM -RA BKN025 OVC040 FM261800 06006KT
                       P6SM BKN025 OVC040=
202203252320 TAF KBLI 252320Z 2600/2624 00000KT P6SM SCT050 OVC090 FM261200
                       VRB03KT P6SM -RA FEW030 OVC050 FM261600
                       03004KT P6SM -RA BKN025 OVC040=
202203251720 TAF KBLI 251720Z 2518/2618 21004KT P6SM BKN090 OVC150 FM260200
                       00000KT P6SM SCT050 OVC090 FM261200 VRB03KT
                       P6SM -RA FEW030 OVC050 FM261600 03004KT
                       P6SM -RA BKN025 OVC040=
202203251120 TAF KBLI 251120Z 2512/2612 VRB03KT P6SM BKN150 FM251800 15005KT
                       P6SM OVC100 FM260200 VRB03KT P6SM SCT050
                       OVC100=
202203250520 TAF KBLI 250520Z 2506/2606 VRB03KT P6SM BKN150 FM251800 15005KT
                       P6SM OVC100 FM260200 VRB03KT P6SM SCT050
                       OVC100=
202203242320 TAF KBLI 242320Z 2500/2524 03010KT P6SM BKN200 FM250100 VRB03KT
                       P6SM BKN150 FM251800 15005KT P6SM OVC100=
202203241720 TAF KBLI 241720Z 2418/2518 02005KT P6SM OVC200 FM250100 VRB03KT
                       P6SM BKN150=
202203241558 KBLI 241558Z 2416/2512 02004KT P6SM VCFG SCT001 BKN200
                      TEMPO 2416/2418 1SM BR BKN001 FM241800 02007KT
                       P6SM BKN200 FM250100 VRB03KT P6SM SCT200=
202203241528 KBLI 241528Z 2415/2512 00000KT 1/4SM FG VV001
                      TEMPO 2415/2417 2SM BR SCT001 FM241700 02007KT
                       P6SM BKN200 FM250100 VRB03KT P6SM SCT200=
202203241157 KBLI 241157Z 2412/2512 VRB03KT P6SM FEW015 BKN200
                      TEMPO 2412/2416 2SM BR FM241800 02007KT P6SM
                       BKN200 FM250100 VRB03KT P6SM SCT200=
202203241120 TAF KBLI 241120Z 2412/2512 VRB03KT P6SM FEW015 BKN200 FM241800
                       02007KT P6SM BKN200 FM250100 VRB03KT P6SM
                       SCT200=
202203240522 TAF KBLI 240522Z 2406/2506 18008KT P6SM SCT030 SCT060 FM240700
                       19003KT P6SM SCT050 SCT200 FM241200 VRB03KT
                       6SM BR FEW015 BKN200 FM241800 02007KT P6SM
                       BKN200=
202203232325 TAF KBLI 232325Z 2400/2424 19010KT P6SM SCT015 BKN040
                      TEMPO 2400/2403 BKN015 FM240300 18008KT P6SM
                       SCT030 BKN060 FM240700 19003KT P6SM SCT050
                       SCT200 FM241200 VRB03KT 6SM BR FEW015 BKN200
                       FM241800 02007KT P6SM BKN200=
202203232008 KBLI 232008Z 2320/2418 19008KT 4SM -RA BR SCT005 OVC015 FM232200
                       21009KT 6SM -SHRA BR BKN015 OVC025 FM240300
                       18008KT P6SM SCT030 OVC050 FM240700 19003KT
                       P6SM SCT050 SCT250=
202203231720 TAF KBLI 231720Z 2318/2418 19008KT 4SM -RA BR OVC005 FM232100 21009KT
                       6SM -SHRA BR BKN015 OVC025 FM240300 18008KT
                       P6SM SCT030 OVC050 FM240700 19003KT P6SM
                       SCT050 SCT250=
202203231640 KBLI 231640Z 2317/2412 18008KT 3SM BR OVC004 FM231800 19008KT 6SM
                       -RA BR OVC010 FM232100 21009KT 6SM -SHRA
                       BR BKN015 OVC025 FM240300 18008KT P6SM SCT030
                       OVC050 FM240700 19003KT P6SM SCT050 SCT250=
202203231121 TAF KBLI 231121Z 2312/2412 VRB04KT P6SM OVC040 FM231300 16006KT
                       P6SM OVC020 FM231800 17008KT 6SM -RA BR
                       OVC017 FM232100 21009KT 6SM -SHRA BR BKN015
                       OVC025 FM240300 18008KT P6SM SCT030 OVC050
                       FM240700 19003KT P6SM SCT050 SCT250=
202203230531 TAF KBLI 230531Z 2306/2406 03006KT P6SM SCT050 FM230800 VRB04KT
                       P6SM OVC040 FM231100 16006KT P6SM OVC020
                       FM231600 17008KT 6SM -RA BR OVC017 FM232100
                       21009KT 6SM -SHRA BR BKN015 OVC025 FM240300
                       18008KT P6SM SCT030 OVC050=
202203222322 TAF KBLI 222322Z 2300/2324 03006KT P6SM BKN030 BKN090
                      TEMPO 2300/2304 SCT030 BKN100 FM230400 VRB04KT
                       P6SM OVC025 FM231000 16006KT P6SM OVC020
                       FM231600 17008KT 6SM -RA BR OVC017 FM232100
                       21009KT 6SM -SHRA BR BKN015 OVC025=
202203221721 TAF KBLI 221721Z 2218/2318 02004KT P6SM VCSH BKN011 OVC020 FM222200
                       05004KT P6SM BKN020 OVC035 FM230600 17004KT
                       P6SM OVC020 FM231600 17008KT 6SM -RA BR
                       OVC017=
202203221434 KBLI 221434Z 2215/2312 02003KT 3SM BR OVC004 FM221800 VRB03KT 6SM
                       BR VCSH BKN011 OVC025 FM222200 05004KT P6SM
                       BKN025 OVC035 FM230300 17004KT P6SM OVC020=
202203221120 TAF KBLI 221120Z 2212/2312 02003KT 3SM -RA BR SCT005 OVC012 FM221800
                       VRB03KT 6SM -SHRA BR BKN013 OVC025 FM222200
                       05004KT P6SM BKN025 OVC035 FM230300 17004KT
                       P6SM OVC020=
202203220520 TAF KBLI 220520Z 2206/2306 04004KT P6SM VCSH OVC020 FM221100 02003KT
                       5SM BR VCSH OVC012 FM221800 VRB03KT 6SM
                       -SHRA BR BKN013 OVC025 FM222200 05004KT
                       P6SM BKN025 OVC035 FM230300 VRB03KT P6SM
                       OVC020=
202203212340 TAF KBLI 212340Z 2200/2224 04005KT P6SM -SHRA OVC025 FM220400 04004KT
                       6SM BR VCSH OVC015 FM221100 02003KT 5SM
                       BR VCSH OVC012 FM221800 VRB03KT 6SM -SHRA
                       BR BKN013 OVC025 FM222200 05004KT P6SM BKN025
                       OVC035=
202203211744 TAF KBLI 211744Z 2118/2218 05005KT 6SM -RA OVC029 FM212200 10008KT
                       6SM BR OVC020 FM220600 12004KT 6SM BR VCSH
                       OVC015=
202203211139 TAF KBLI 211139Z 2112/2212 16012KT P6SM -RA FEW025 OVC030 FM211400
                       14011KT 4SM -RA SCT007 OVC035 FM211800 12010KT
                       4SM -RA OVC020 FM212200 13008KT 6SM BR VCSH
                       OVC020 FM220600 12004KT 6SM BR VCSH OVC015=
202203210536 TAF KBLI 210536Z 2106/2206 16012G20KT P6SM VCSH OVC025 FM210900
                       16010KT 4SM -RA SCT007 OVC015 FM211800 12007KT
                       4SM -RA OVC012 FM212200 12008KT 6SM BR VCSH
                       OVC020=
202203210334 KBLI 210334Z 2104/2124 16015KT P6SM -RA BKN025 OVC060 FM210600
                       16009KT 4SM -RA OVC020 FM210900 14008KT
                       4SM -RA SCT007 OVC015 FM211800 12007KT 4SM
                       -RA OVC012=
202203202320 TAF KBLI 202320Z 2100/2124 17010KT P6SM -RA SCT025 OVC040 FM210400
                       16009KT 4SM -RA OVC020 FM210900 14008KT
                       4SM -RA SCT007 OVC015 FM211800 12007KT 4SM
                       -RA OVC012=
202203201734 TAF KBLI 201734Z 2018/2118 18010KT P6SM VCSH FEW010 OVC050 FM202100
                       17012KT P6SM -RA OVC035 FM210200 16010KT
                       4SM -RA OVC020 FM210900 14008KT 4SM -RA
                       SCT007 OVC015=
202203201139 TAF KBLI 201139Z 2012/2112 18010KT P6SM VCSH FEW025 BKN040 OVC050
                       FM201700 17008KT P6SM -SHRA OVC030 FM202300
                       17010KT 6SM -RA OVC025 FM210600 14009KT
                       5SM -RA OVC015=
202203200527 TAF KBLI 200527Z 2006/2106 20004KT P6SM BKN060 FM200900 17006KT
                       P6SM -SHRA BKN030 OVC050 FM201700 17008KT
                       P6SM -SHRA OVC030 FM202300 17010KT 6SM -RA
                       OVC025=
202203192326 TAF KBLI 192326Z 2000/2024 20007KT P6SM VCSH BKN050 BKN090
                      TEMPO 2000/2002 -SHRA FM200200 20006KT P6SM
                       BKN060 FM200900 17006KT P6SM -SHRA BKN030
                       OVC050 FM201700 17008KT P6SM -SHRA OVC030
                       FM202300 17010KT 6SM -RA OVC025=
202203191723 TAF KBLI 191723Z 1918/2018 17008KT P6SM VCSH SCT025 SCT040 FM192200
                       20012KT P6SM BKN050 FM200900 17006KT P6SM
                       -SHRA BKN030 OVC040=
202203191125 TAF KBLI 191125Z 1912/2012 12006KT P6SM -RA OVC025 FM191500 14012G20KT
                       P6SM -RA OVC025 FM192000 18010G18KT P6SM
                       -SHRA OVC050=
202203190526 TAF KBLI 190526Z 1906/2006 12006KT 6SM -RA OVC035 FM191500 14012G20KT
                       6SM -RA OVC025 FM192000 18010G18KT P6SM
                       -SHRA OVC050=
202203182320 TAF KBLI 182320Z 1900/1924 18010KT P6SM FEW070 FM190300 13006KT
                       P6SM OVC040 FM190600 12010G20KT 6SM -RA
                       OVC035 FM191200 14012G20KT 6SM -RA OVC025
                       FM192000 18010G18KT P6SM -SHRA OVC050=
202203181720 TAF KBLI 181720Z 1818/1918 16012KT P6SM FEW010 OVC025 FM182100
                       15007G15KT P6SM OVC040 FM190000 15010KT
                       P6SM OVC040 FM190600 12010G20KT 6SM -RA
                       OVC025=
202203181631 KBLI 181631Z 1817/1912 16010KT P6SM FEW005 SCT015 OVC030 FM182100
                       15007KT P6SM OVC040 FM190600 17007KT 6SM
                       -RA OVC025=
202203181130 TAF KBLI 181130Z 1812/1912 02003KT 2SM -RA BR SCT003 OVC010 FM182100
                       15007KT P6SM OVC040 FM190600 17007KT 6SM
                       -RA OVC025=
202203180840 KBLI 180840Z 1809/1906 02003KT 2SM BR SCT003 OVC010 FM181200 10003KT
                       6SM BR OVC015 FM182200 15007KT P6SM OVC050=
202203180523 TAF KBLI 180523Z 1806/1906 12005KT 3SM BR OVC010 FM181200 10003KT
                       6SM BR OVC015 FM182200 15007KT P6SM OVC050=
202203172341 TAF KBLI 172341Z 1800/1824 12005KT 4SM -RA BR BKN030 OVC045 FM180200
                       12005KT 5SM BR OVC020 FM182200 15007KT P6SM
                       OVC050=
202203171736 TAF KBLI 171736Z 1718/1818 07003KT 4SM -RA BR OVC028 FM180200 12005KT
                       5SM BR OVC020=
202203171130 TAF KBLI 171130Z 1712/1812 12005KT P6SM VCSH OVC040 FM171300 10005KT
                       P6SM -RA OVC022 FM171900 14008KT 5SM -RA
                       BR OVC015=
202203170522 TAF KBLI 170522Z 1706/1806 13005KT P6SM BKN060 OVC120 FM171000
                       12005KT P6SM VCSH OVC040 FM171400 10005KT
                       P6SM -RA OVC022 FM171900 14008KT 5SM -RA
                       BR OVC015=
202203170305 KBLI 170305Z 1703/1724 13005KT P6SM BKN060 OVC120 FM171000 12005KT
                       P6SM VCSH OVC040 FM171400 10005KT P6SM -RA
                       OVC022 FM171900 14008KT 5SM -RA BR OVC015=
202203162320 TAF KBLI 162320Z 1700/1724 17007KT P6SM FEW050 BKN200 FM170500
                       13005KT P6SM OVC120 FM171000 12005KT P6SM
                       VCSH OVC040 FM171400 10005KT P6SM -RA OVC022
                       FM171900 14008KT 5SM -RA BR OVC015=
202203161741 TAF KBLI 161741Z 1618/1718 17007KT P6SM SCT035 BKN050 FM162100
                       17007KT P6SM SCT050 BKN200 FM170500 13005KT
                       P6SM BKN080 OVC120 FM171400 10005KT 6SM
                       -RA BR OVC022=
202203161141 TAF KBLI 161141Z 1612/1712 18005KT P6SM OVC035 FM161800 17007KT
                       P6SM BKN035 BKN050=
202203160523 TAF KBLI 160523Z 1606/1706 19007KT P6SM -SHRA SCT020 BKN035 FM161000
                       18005KT P6SM BKN020 OVC035 FM161800 17007KT
                       P6SM BKN035 BKN050=
202203152324 TAF KBLI 152324Z 1600/1624 19007KT P6SM -SHRA SCT020 BKN035 FM161000
                       18005KT P6SM BKN020 OVC035 FM161800 17007KT
                       P6SM BKN035 BKN050=
202203151721 TAF KBLI 151721Z 1518/1618 19008KT P6SM VCSH SCT020 OVC040 FM152000
                       20010KT P6SM VCSH SCT025 BKN050 FM161000
                       20010KT P6SM BKN020 OVC035=
202203151139 TAF KBLI 151139Z 1512/1612 20010KT P6SM -SHRA BKN020 OVC040 FM152000
                       20010KT P6SM SCT025 BKN050 FM161000 20010KT
                       P6SM BKN020 OVC035=
202203150539 TAF KBLI 150539Z 1506/1606 16012G22KT 5SM -RA BR OVC025 FM151200
                       20010KT P6SM -SHRA BKN020 OVC040 FM151600
                       20010KT P6SM VCSH BKN025 BKN050 FM152000
                       20010KT P6SM SCT025 BKN050=
202203142321 TAF KBLI 142321Z 1500/1524 18012G22KT 5SM -RA BR OVC025 FM151200
                       20010KT P6SM -SHRA BKN020 OVC040 FM151600
                       20010KT P6SM VCSH BKN025 BKN050 FM152000
                       20010KT P6SM SCT025 BKN050=
202203141724 TAF KBLI 141724Z 1418/1518 16015G25KT P6SM -RA OVC040
                      TEMPO 1422/1424 5SM -RA BR OVC025 FM150000
                       16015G25KT 4SM -RA BR OVC020 FM151200 20010KT
                       P6SM -SHRA BKN015 OVC030 FM151600 20010KT
                       P6SM -SHRA BKN020 BKN050=
202203141139 TAF KBLI 141139Z 1412/1512 17016G26KT P6SM -RA SCT012 BKN022 OVC035
                       FM150300 17012G20KT P6SM -RA SCT020 OVC035
                       FM150600 17010KT P6SM SCT035 BKN050 OVC080=
202203140541 TAF KBLI 140541Z 1406/1506 17014G22KT P6SM -RA SCT012 BKN022 OVC035
                       FM141500 17012KT P6SM -RA SCT020 BKN035
                       OVC050 FM142100 17012KT P6SM -RA SCT012
                       BKN020 OVC035 FM150300 17012KT P6SM -RA
                       SCT020 OVC035=
202203132320 TAF KBLI 132320Z 1400/1424 18010KT P6SM -RA OVC040 FM141200 18012KT
                       P6SM -RA OVC030=
202203131720 TAF KBLI 131720Z 1318/1418 17012G20KT P6SM SCT020 BKN050 FM140300
                       17012KT P6SM -RA OVC045 FM140800 15014G20KT
                       P6SM -RA OVC025=
202203131135 TAF KBLI 131135Z 1312/1412 04006KT P6SM -SHRA OVC030 FM131400 VRB04KT
                       P6SM VCSH BKN040 FM131800 16008KT P6SM SCT050
                       FM140300 16008KT P6SM -RA OVC045 FM140800
                       15014G20KT P6SM -RA OVC035=
202203130906 KBLI 130906Z 1309/1406 04006KT P6SM -SHRA OVC040 FM131400 VRB04KT
                       P6SM VCSH BKN040 FM132100 16008KT P6SM SCT050
                       FM140500 17009KT P6SM -RA OVC045=
202203130520 TAF KBLI 130520Z 1306/1406 05008KT P6SM VCSH OVC040 FM130900 08007KT
                       P6SM VCSH BKN022 OVC030 FM131600 VRB04KT
                       P6SM VCSH SCT030 SCT050 FM132100 16008KT
                       P6SM SCT050 FM140500 17009KT P6SM -RA OVC045=
202203122320 TAF KBLI 122320Z 1300/1324 VRB04KT P6SM OVC100 FM130400 18012G22KT
                       P6SM -RA OVC040 FM130800 18012KT P6SM -SHRA
                       BKN025 OVC050 FM131600 VRB04KT P6SM VCSH
                       BKN030 BKN050 FM132100 VRB04KT P6SM BKN040
                       BKN080=
202203121720 TAF KBLI 121720Z 1218/1318 04006KT P6SM BKN040 OVC100 FM130000
                       16012KT P6SM -RA OVC040 FM131200 VRB04KT
                       P6SM -SHRA OVC020=
202203121129 TAF KBLI 121129Z 1212/1312 05003KT P6SM -RA OVC035 FM121600 07004KT
                       P6SM SCT050 BKN150 BKN250 FM130200 10008KT
                       P6SM -RA OVC040 FM130700 11008KT P6SM OVC020=
202203120520 TAF KBLI 120520Z 1206/1306 04005KT P6SM OVC070 FM121000 05003KT
                       P6SM BKN040 OVC090 FM121700 07004KT P6SM
                       SCT050 BKN150 BKN250 FM130200 10008KT P6SM
                       -RA OVC040 FM130500 11008KT P6SM -RA OVC020=
202203112320 TAF KBLI 112320Z 1200/1224 03006KT P6SM BKN060 OVC120 FM121000
                       VRB04KT P6SM BKN040 OVC090 FM122100 16012KT
                       P6SM -RA OVC040=
202203111720 TAF KBLI 111720Z 1118/1218 04004KT P6SM OVC050
                      TEMPO 1118/1122 -RA FM121000 15008KT P6SM
                       BKN050 OVC090=
202203111129 TAF KBLI 111129Z 1112/1212 14005KT P6SM VCSH OVC040 FM111700 11005KT
                       5SM -RA OVC025 FM120000 15004KT P6SM VCSH
                       OVC050 FM120600 12007KT 6SM -RA OVC025=
202203110520 TAF KBLI 110520Z 1106/1206 18005KT P6SM OVC080 FM110900 18007KT
                       P6SM VCSH OVC050 FM111700 11005KT 4SM -RA
                       OVC025 FM120000 15004KT P6SM OVC050=
202203102320 TAF KBLI 102320Z 1100/1124 18005KT P6SM OVC090 FM111200 18007KT
                       P6SM OVC070=
202203101720 TAF KBLI 101720Z 1018/1118 00000KT P6SM BKN200 FM110000 16006KT
                       P6SM BKN100 FM111200 16006KT P6SM BKN080
                       OVC120=
202203101130 TAF KBLI 101130Z 1012/1112 16004KT P6SM BKN200 FM102100 16005KT
                       P6SM BKN150 FM110100 19004KT P6SM BKN100
                       FM110800 VRB03KT P6SM OVC070=
202203100520 TAF KBLI 100520Z 1006/1106 32004KT P6SM SKC FM101000 02004KT P6SM
                       BKN200 FM102100 16005KT P6SM BKN150 FM110400
                       VRB03KT P6SM BKN070 OVC150=
202203092332 TAF KBLI 092332Z 1000/1024 03012G20KT P6SM SKC FM100400 03011KT
                       P6SM SKC FM100800 02005KT P6SM SKC FM101400
                       VRB04KT P6SM BKN200=
202203091738 TAF KBLI 091738Z 0918/1018 04015G30KT P6SM SKC FM100200 03011KT
                       P6SM SKC FM100800 02005KT P6SM SKC FM101400
                       VRB04KT P6SM BKN200=
202203091120 TAF KBLI 091120Z 0912/1012 04013G22KT P6SM SKC FM092300 03011KT
                       P6SM SKC FM100400 02005KT P6SM SKC=
202203090520 TAF KBLI 090520Z 0906/1006 02012KT P6SM SKC FM091500 03015G25KT
                       P6SM SCT250 FM092100 03008KT P6SM SKC FM100000
                       VRB04KT P6SM SKC=
202203082338 TAF KBLI 082338Z 0900/0924 02012G22KT P6SM SCT080 FM090500 02012KT
                       P6SM SCT250 FM091500 03015G25KT P6SM SCT250=
202203081738 TAF KBLI 081738Z 0818/0918 02006KT P6SM SCT040 BKN060 FM082300
                       36010KT P6SM SCT060 FM090800 03012G18KT
                       P6SM SCT250=
202203081134 TAF KBLI 081134Z 0812/0912 VRB03KT P6SM VCSH BKN022 OVC035 FM081800
                       02006KT P6SM SCT020 BKN035 FM090000 02006KT
                       P6SM BKN040 BKN120 FM090600 03010KT P6SM
                       SCT120 BKN200=
202203080520 TAF KBLI 080520Z 0806/0906 18008KT P6SM BKN035 OVC050 FM081200
                       VRB03KT P6SM VCSH BKN020 OVC035 FM081800
                       02006KT P6SM SCT020 BKN035 FM090000 02006KT
                       P6SM SCT250=
202203072325 TAF KBLI 072325Z 0800/0824 18009KT P6SM FEW012 SCT035 BKN050 FM080400
                       16006KT P6SM BKN040 OVC070 FM081200 04005KT
                       P6SM VCSH BKN020 OVC035 FM081500 03002KT
                       P6SM -RA OVC015 FM082200 35007KT P6SM SCT250=
202203071728 TAF KBLI 071728Z 0718/0818 18009KT P6SM SCT007 BKN016 FM071900
                       19006KT P6SM SCT030 BKN100 FM080400 16006KT
                       P6SM BKN040 OVC070 FM081000 04005KT P6SM
                       VCSH BKN020 OVC035 FM081500 03002KT P6SM
                       VCSH OVC015=
202203071131 TAF KBLI 071131Z 0712/0812 19007KT P6SM SCT006 BKN200
                      TEMPO 0713/0717 4SM BR BKN006 BKN200 FM071700
                       19006KT P6SM BKN010 FM071900 19006KT P6SM
                       SCT030 BKN100 FM080400 16006KT P6SM BKN040
                       OVC070 FM081000 04005KT P6SM VCSH BKN020
                       OVC035=
202203070520 TAF KBLI 070520Z 0706/0806 00000KT P6SM BKN250
                      TEMPO 0709/0713 4SM BR BKN250 FM071300 00000KT
                       5SM BR OVC006 FM071800 19006KT P6SM BKN011
                       FM071900 19006KT P6SM BKN100 FM080200 19006KT
                       P6SM BKN040 OVC070=
202203062338 TAF KBLI 062338Z 0700/0724 VRB03KT P6SM FEW100 FM071000 19008KT
                       3SM BR BKN035 FM071300 16001KT 2SM BR OVC002
                       FM071600 15003KT 1/4SM FG OVC001 FM071800
                       14004KT P6SM SCT050=
202203061737 TAF KBLI 061737Z 0618/0718 02003KT 6SM BR SCT001 FM062000 35003KT
                       P6SM SKC FM071000 19008KT 3SM BR BKN035
                       FM071300 16001KT 2SM BR OVC002 FM071600
                       15003KT 1/4SM FG OVC001=
202203061406 KBLI 061406Z 0614/0712 00000KT 5SM BR OVC010
                      TEMPO 0614/0616 1/2SM FG VV002 FM061800 02003KT
                       2SM BR SCT002 FM062000 29005KT P6SM SKC
                       FM071000 19008KT 3SM BR BKN035=
202203061156 TAF KBLI 061156Z 0612/0712 00000KT 1/2SM FG VV002 FM061800 02003KT
                       2SM BR SCT002 FM062000 29005KT P6SM SKC
                       FM071000 19008KT 3SM BR BKN035=
202203061002 KBLI 061002Z 0610/0706 VRB03KT P6SM BKN006
                      TEMPO 0610/0612 1/2SM FG VV002 FM061200 00000KT
                       1/2SM FG VV002 FM061800 02003KT 2SM BR SCT002
                       FM062000 35004KT P6SM SKC=
202203060520 TAF KBLI 060520Z 0606/0706 33002KT P6SM SCT250 FM061000 01002KT
                       1/2SM FG OVC002 FM061800 02003KT 2SM BR
                       SCT002 FM062000 35004KT P6SM SKC=
202203052335 TAF KBLI 052335Z 0600/0624 31008KT P6SM SKC FM060200 33002KT P6SM
                       SCT250 FM061000 01002KT 1/4SM FG OVC002
                       FM061800 02003KT 4SM BR SCT010 FM062000
                       01004KT P6SM SKC=
202203051739 TAF KBLI 051739Z 0518/0618 04004KT 2SM BR BKN015
                      TEMPO 0518/0519 3/4SM BR VV001 FM051900 01007KT
                       P6SM SKC FM060200 35002KT P6SM SCT250 FM061000
                       01002KT 1/4SM FG OVC002=
202203051412 KBLI 051412Z 0514/0612 00000KT 1/4SM FG VV001 FM051600 VRB03KT
                       1SM BR OVC008 FM051800 01004KT P6SM BKN015
                       FM051900 01007KT P6SM SKC FM060200 35002KT
                       P6SM SCT250=
202203051322 KBLI 051322Z 0513/0612 VRB03KT 1/2SM FG OVC008 FM051600 01004KT
                       P6SM BKN015 FM051800 01007KT P6SM SKC FM060200
                       35002KT P6SM SCT250=
202203051145 TAF KBLI 051145Z 0512/0612 00000KT 1SM BR OVC012 FM051600 01004KT
                       P6SM BKN020 FM051800 01007KT P6SM SKC FM060200
                       35002KT P6SM SCT250=
202203051034 KBLI 051034Z 0511/0606 00000KT 3/4SM BR OVC010 FM051600 01004KT
                       P6SM BKN020 FM051800 01007KT P6SM SKC FM060200
                       35002KT P6SM SCT250=
202203050520 TAF KBLI 050520Z 0506/0606 00000KT P6SM FEW070 FM051200 01004KT
                       P6SM BKN050 FM051800 01007KT P6SM SKC FM060200
                       35002KT P6SM SCT250=
202203042335 TAF KBLI 042335Z 0500/0524 33011KT P6SM SCT050 FM050400 00000KT
                       P6SM FEW060 FM051300 01004KT P6SM BKN050
                       FM051800 01005KT P6SM SKC=
202203041738 TAF KBLI 041738Z 0418/0518 36005KT P6SM SCT030 BKN050 FM042200
                       35010KT P6SM SCT050 FM050400 00000KT P6SM
                       FEW060 FM051300 01004KT P6SM BKN050=
202203041126 TAF KBLI 041126Z 0412/0512 VRB03KT P6SM BKN045 OVC060 FM041700
                       36005KT P6SM SCT025 BKN050 FM042200 35010KT
                       P6SM SCT050 FM050400 00000KT P6SM FEW060=
202203040521 TAF KBLI 040521Z 0406/0506 VRB03KT P6SM BKN050 FM041200 VRB03KT
                       P6SM BKN022 OVC040 FM041900 VRB03KT P6SM
                       SCT025 BKN045 FM042200 35006KT P6SM SCT050=
202203032329 TAF KBLI 032329Z 0400/0424 VRB05KT P6SM SCT025 OVC050 FM040500
                       15005KT P6SM BKN050 FM040900 05003KT P6SM
                       OVC030 FM041400 01004KT P6SM OVC015 FM042100
                       35008KT P6SM BKN050=
202203031737 TAF KBLI 031737Z 0318/0418 16006KT P6SM BKN035 FM032300 23007KT
                       P6SM SCT040 BKN050 FM040500 15005KT P6SM
                       SCT050 FM040900 05003KT P6SM OVC030 FM041200
                       01001KT P6SM OVC020=
202203031402 KBLI 031402Z 0314/0412 20007KT P6SM VCSH SCT015 OVC035 FM031800
                       25008KT P6SM BKN025 FM032300 23007KT P6SM
                       SCT040 FM040500 VRB05KT P6SM SCT050 FM041000
                       VRB03KT P6SM OVC030=
202203031134 TAF KBLI 031134Z 0312/0412 20006KT P6SM VCSH SCT005 OVC015
                      TEMPO 0312/0314 6SM -RA FM031800 25008KT
                       P6SM BKN025 FM032300 23007KT P6SM SCT040
                       FM040500 VRB05KT P6SM SCT050 FM041000 VRB03KT
                       P6SM OVC030=
202203030709 KBLI 030709Z 0307/0406 00000KT P6SM VCSH SCT010 OVC035
                      TEMPO 0307/0309 4SM -RA BKN010 FM031200 VRB03KT
                       6SM BR OVC015 FM032200 VRB03KT P6SM SCT025
                       BKN050=
202203030523 TAF KBLI 030523Z 0306/0406 00000KT P6SM SCT020 OVC050
                      TEMPO 0306/0307 6SM -RA FM031200 VRB03KT
                       6SM BR OVC015 FM032200 VRB03KT P6SM SCT025
                       BKN050=
202203030400 KBLI 030400Z 0304/0324 00000KT P6SM SCT020 BKN045 OVC060 FM031200
                       VRB03KT 6SM BR OVC015 FM032200 VRB03KT P6SM
                       SCT025 BKN050=
202203022335 TAF KBLI 022335Z 0300/0324 17008KT 5SM BR VCSH SCT004 OVC010 FM030200
                       04005KT P6SM VCSH OVC020 FM031600 35003KT
                       6SM BR OVC015=
202203021739 TAF KBLI 021739Z 0218/0318 15008KT P6SM -RA FEW006 OVC015 FM022200
                       17008KT P6SM VCSH OVC025 FM030500 14003KT
                       P6SM OVC020=
202203021133 TAF KBLI 021133Z 0212/0312 14007KT 6SM -RA OVC060 FM021400 15008KT
                       P6SM -RA SCT015 OVC025 FM022200 17008KT
                       P6SM VCSH OVC025 FM030500 VRB03KT P6SM OVC020=
202203020906 KBLI 020906Z 0209/0306 16008KT P6SM -RA SCT035 OVC050 FM021400
                       18012KT P6SM -RA SCT015 OVC025 FM022300
                       18008KT P6SM SCT025 BKN035 OVC050=
202203020543 TAF KBLI 020543Z 0206/0306 18012G20KT P6SM OVC080 FM021600 18012KT
                       P6SM -RA SCT015 OVC025 FM022300 18008KT
                       P6SM SCT025 BKN035 OVC050=
202203012320 TAF KBLI 012320Z 0200/0224 18010KT P6SM -SHRA SCT025 OVC035 FM021500
                       18008KT P6SM BKN010 OVC050=
202203011734 TAF KBLI 011734Z 0118/0218 17007KT P6SM SCT015 BKN070 FM012200
                       18006KT P6SM SCT025 OVC035=
202203011500 KBLI 011500Z 0115/0212 15005KT 4SM -SHRA FEW008 BKN011 OVC070
                      TEMPO 0115/0117 BKN005 FM011700 17007KT P6SM
                       VCSH SCT015 BKN070 FM012200 18006KT P6SM
                       SCT025 OVC035=
202203011124 TAF KBLI 011124Z 0112/0212 00000KT 4SM -SHRA FEW008 BKN011 OVC070
                       FM011400 17007KT P6SM VCSH SCT015 BKN070
                       FM012200 18006KT P6SM SCT025 OVC035=
202203010520 TAF KBLI 010520Z 0106/0206 17008KT 3SM -SHRA BKN007 OVC015 FM011500
                       18005KT 6SM -SHRA OVC015 FM012100 17006KT
                       P6SM SCT025 OVC035=
202203010214 KBLI 010214Z 0102/0124 05005KT 2SM -RA BR BKN007 OVC015 FM010600
                       17008KT P6SM -SHRA OVC020 FM011800 17006KT
                       P6SM SCT025 OVC035=