##########################################################
# Query made at 02/16/2025 23:25:08 UTC
# Time interval: from 10/01/2022 00:00  to 10/31/2022 23:59  UTC
##########################################################

##########################################################
# KBLI, Bellingham, Bellingham International Airport (United States)
# WMO index: -----. WIGOS ID: Unknown
# Latitude 48-47-58N. Longitude 122-32-21W. Altitude 48 m.
##########################################################

###################################
#  METAR/SPECI from KBLI
###################################
202210312353 METAR KBLI 312353Z 19008KT 10SM CLR 11/06 A2980 RMK AO2 SLP099 60000 T01060061 10111 20106 55001=
202210312253 METAR KBLI 312253Z 17005KT 10SM FEW025 SCT090 BKN110 11/08 A2980 RMK AO2 SLP098 T01060078=
202210312153 METAR KBLI 312153Z 19004KT 10SM FEW025 SCT040 BKN090 11/07 A2980 RMK AO2 SLP096 T01110072=
202210312053 METAR KBLI 312053Z 21006KT 10SM BKN090 11/07 A2981 RMK AO2 SLP100 60000 T01060072 51018=
202210311953 METAR KBLI 311953Z 16006KT 10SM CLR 11/08 A2980 RMK AO2 SLP099 T01060083=
202210311853 METAR KBLI 311853Z 17010KT 10SM FEW015 SCT030 SCT080 11/09 A2979 RMK AO2 RAB1756E15 SLP095 P0000 T01060094=
202210311753 METAR KBLI 311753Z 16012KT 10SM FEW005 SCT025 SCT080 11/10 A2975 RMK AO2 RAE15 SLP083 P0000 60020 T01060100 10117 20089 53017=
202210311734 SPECI KBLI 311734Z 19007KT 10SM FEW005 SCT017 11/11 A2975 RMK AO2 RAE15 P0000 T01060106=
202210311704 SPECI KBLI 311704Z 18009G16KT 140V220 10SM -RA BKN005 OVC018 11/11 A2972 RMK AO2 P0000 T01060106=
202210311653 METAR KBLI 311653Z 2 1/2SM -RA BR BKN003 OVC007 11/11 A2972 RMK AO2 SLP070 P0005 T01060106=
202210311640 SPECI KBLI 311640Z VRB06G18KT 2 1/2SM -RA BR BKN003 BKN010 OVC018 11/11 A2972 RMK AO2 P0005 T01060106=
202210311632 SPECI KBLI 311632Z 19009G22KT 2 1/2SM -RA BR SCT004 BKN014 OVC028 11/11 A2972 RMK AO2 P0004 T01110111=
202210311623 SPECI KBLI 311623Z 19010G20KT 2 1/2SM R16/6000VP6000FT RA BR FEW008 BKN021 OVC026 11/11 A2971 RMK AO2 P0004 T01110111=
202210311620 SPECI KBLI 311620Z 18011G20KT 3SM R16/6000VP6000FT -RA BR FEW010 BKN018 OVC031 11/11 A2971 RMK AO2 P0003 T01110111=
202210311553 METAR KBLI 311553Z 18012G21KT 10SM -RA BKN032 OVC044 12/11 A2971 RMK AO2 SLP066 P0003 T01170111=
202210311453 METAR KBLI 311453Z 17011G23KT 10SM -RA FEW021 BKN032 OVC070 12/10 A2971 RMK AO2 SLP066 P0001 60012 T01170100 56027=
202210311444 SPECI KBLI 311444Z 18010G18KT 10SM -RA FEW019 BKN031 OVC049 12/10 A2971 RMK AO2 P0001 T01170100=
202210311353 METAR KBLI 311353Z VRB04KT 8SM -RA BKN020 BKN028 OVC048 09/09 A2973 RMK AO2 SLP075 P0007 T00940094=
202210311346 SPECI KBLI 311346Z 00000KT 6SM -RA BR BKN023 BKN027 OVC048 09/09 A2974 RMK AO2 P0006 T00940094=
202210311253 METAR KBLI 311253Z AUTO 19009KT 6SM RA BR BKN038 OVC046 09/09 A2976 RMK AO2 SLP083 P0004 T00940094=
202210311153 METAR KBLI 311153Z AUTO 19005KT 10SM -RA FEW007 BKN045 OVC055 09/09 A2978 RMK AO2 RAB41 SLP093 P0000 60026 70169 T00940094 10106 20089 56015=
202210311053 METAR KBLI 311053Z AUTO 00000KT 10SM BKN055 OVC075 09/09 A2979 RMK AO2 RAE03 SLP095 P0000 T00890089=
202210310953 METAR KBLI 310953Z AUTO 03003KT 10SM -RA BKN065 OVC075 09/09 A2981 RMK AO2 RAE07B40 SLP101 P0000 T00940094=
202210310853 METAR KBLI 310853Z AUTO 17003KT 10SM -RA FEW003 OVC060 10/10 A2983 RMK AO2 SLP108 P0002 60026 T01000100 58015=
202210310828 SPECI KBLI 310828Z AUTO 17003KT 9SM -RA SCT004 SCT050 OVC060 10/10 A2983 RMK AO2 P0001 T01000100=
202210310753 METAR KBLI 310753Z AUTO VRB04KT 7SM -RA OVC060 10/10 A2984 RMK AO2 SLP111 P0014 T01000100 401220100=
202210310653 METAR KBLI 310653Z AUTO 19004KT 5SM RA BR SCT002 BKN040 OVC050 10/10 A2987 RMK AO2 SLP123 P0010 T01000100=
202210310651 SPECI KBLI 310651Z AUTO 18005KT 5SM RA BR SCT002 BKN042 OVC050 10/10 A2987 RMK AO2 P0010=
202210310641 SPECI KBLI 310641Z AUTO 19004KT 5SM -RA BR BKN002 BKN006 OVC040 10/10 A2988 RMK AO2 P0007 T01000100=
202210310615 SPECI KBLI 310615Z AUTO 19005KT 7SM -RA FEW002 FEW011 OVC050 10/10 A2988 RMK AO2 P0003 T01000100=
202210310553 METAR KBLI 310553Z AUTO 19005KT 9SM -RA OVC050 11/11 A2988 RMK AO2 SLP125 P0004 60059 T01060106 10111 20106 58016=
202210310453 METAR KBLI 310453Z 16007KT 7SM -RA FEW015 SCT020 OVC050 11/11 A2990 RMK AO2 SLP130 P0011 T01060106=
202210310353 METAR KBLI 310353Z 00000KT 5SM RA BR FEW005 SCT012 BKN040 11/11 A2992 RMK AO2 SLP138 P0009 T01060106=
202210310331 SPECI KBLI 310331Z 00000KT 6SM -RA BR SCT012 BKN030 OVC060 11/11 A2993 RMK AO2 P0005 T01060106=
202210310253 METAR KBLI 310253Z 00000KT 6SM -RA BR SCT015 BKN030 OVC055 11/11 A2993 RMK AO2 SLP141 P0009 60035 T01060106 55013=
202210310153 METAR KBLI 310153Z 16005KT 5SM -RA BR SCT015 BKN030 OVC060 11/11 A2992 RMK AO2 SLP140 P0009 T01060106=
202210310053 METAR KBLI 310053Z 17006KT 4SM RA BR SCT015 BKN030 OVC055 11/11 A2994 RMK AO2 SLP146 P0017 T01110111=
202210302353 METAR KBLI 302353Z 16006KT 3SM RA BR SCT015 BKN030 OVC060 11/11 A2996 RMK AO2 SLP154 P0021 60054 T01110111 10117 20106 57013=
202210302321 SPECI KBLI 302321Z 17005KT 2 1/2SM RA BR SCT022 BKN029 OVC035 11/11 A2998 RMK AO2 P0009 T01110106=
202210302253 METAR KBLI 302253Z 17009KT 4SM RA BR SCT032 BKN039 OVC049 11/11 A2998 RMK AO2 SLP158 P0015 T01110106=
202210302153 METAR KBLI 302153Z 17011G20KT 6SM RA BR SCT015 BKN030 OVC060 11/11 A2999 RMK AO2 SLP163 P0007 T01110106=
202210302053 METAR KBLI 302053Z 16011G21KT 8SM -RA SCT015 BKN030 OVC060 12/10 A3000 RMK AO2 SLP167 P0002 60011 T01170100 58018=
202210302033 SPECI KBLI 302033Z 16013KT 8SM -RA SCT015 BKN030 OVC060 12/10 A3001 RMK AO2 P0002 T01170100=
202210301953 METAR KBLI 301953Z 16016G26KT 10SM -RA BKN028 OVC032 11/10 A3004 RMK AO2 PK WND 16028/1943 SLP178 P0003 T01110100=
202210301853 METAR KBLI 301853Z 17014G21KT 9SM -RA FEW020 OVC031 11/10 A3004 RMK AO2 PK WND 16026/1828 SLP181 P0006 T01110100=
202210301753 METAR KBLI 301753Z 17012G24KT 4SM RA BR FEW021 SCT028 OVC043 11/09 A3005 RMK AO2 PK WND 17030/1741 SLP184 P0010 60030 T01060094 10122 20106 53008=
202210301653 METAR KBLI 301653Z 16018G27KT 6SM -RA BR FEW038 OVC048 11/09 A3003 RMK AO2 PK WND 16032/1606 SLP175 P0009 T01060094=
202210301553 METAR KBLI 301553Z 17013G26KT 5SM RA BR OVC050 11/09 A3003 RMK AO2 PK WND 17030/1518 SLP176 P0007 T01060094=
202210301453 METAR KBLI 301453Z 17015G23KT 10SM -RA OVC055 11/09 A3003 RMK AO2 PK WND 16027/1419 SLP176 P0003 60004 T01110089 56016=
202210301353 METAR KBLI 301353Z 17013G25KT 10SM -RA OVC055 11/09 A3006 RMK AO2 PK WND 15029/1335 RAB39 SLP185 P0001 T01110089=
202210301253 METAR KBLI 301253Z AUTO 17013G26KT 10SM OVC060 12/07 A3005 RMK AO2 PK WND 15026/1244 SLP182 T01220072=
202210301153 METAR KBLI 301153Z AUTO 17012G24KT 10SM OVC060 12/07 A3008 RMK AO2 PK WND 16026/1138 SLP192 60000 T01220072 10122 20117 56020=
202210301053 METAR KBLI 301053Z AUTO 15017G25KT 10SM OVC060 12/08 A3009 RMK AO2 PK WND 16026/1016 SLP197 T01220078=
202210300953 METAR KBLI 300953Z AUTO 16013KT 10SM BKN060 BKN075 OVC095 12/07 A3011 RMK AO2 SLP204 T01220072=
202210300853 METAR KBLI 300853Z AUTO 17012G20KT 10SM BKN065 OVC090 12/07 A3014 RMK AO2 RAB36E47 SLP212 P0000 60000 T01220072 58011=
202210300753 METAR KBLI 300753Z AUTO 18012G21KT 10SM OVC060 12/07 A3015 RMK AO2 SLP216 T01220072 401280072=
202210300653 METAR KBLI 300653Z AUTO 18007KT 10SM OVC065 12/07 A3016 RMK AO2 SLP220 T01170072=
202210300553 METAR KBLI 300553Z AUTO 19006G15KT 10SM OVC055 12/08 A3017 RMK AO2 SLP224 T01170078 10128 20111 56010=
202210300453 METAR KBLI 300453Z 17011G21KT 10SM SCT040 OVC060 13/06 A3017 RMK AO2 SLP225 T01280061=
202210300353 METAR KBLI 300353Z 19008KT 10SM FEW040 BKN060 OVC080 12/07 A3018 RMK AO2 SLP228 T01220072=
202210300253 METAR KBLI 300253Z 18007KT 10SM FEW030 SCT050 BKN065 12/08 A3020 RMK AO2 SLP234 T01170083 56010=
202210300153 METAR KBLI 300153Z 18008KT 10SM FEW040 SCT070 BKN090 12/09 A3020 RMK AO2 SLP235 T01170089=
202210300053 METAR KBLI 300053Z 18005KT 10SM SCT070 BKN120 12/09 A3022 RMK AO2 SLP240 T01170089=
202210292353 METAR KBLI 292353Z 19005KT 10SM FEW040 SCT060 BKN120 12/09 A3023 RMK AO2 SLP244 T01170089 10122 20106 57011=
202210292253 METAR KBLI 292253Z 20007KT 10SM CLR 12/09 A3024 RMK AO2 SLP248 T01220089=
202210292153 METAR KBLI 292153Z 18007KT 10SM FEW030 SCT060 BKN120 12/09 A3025 RMK AO2 SLP251 T01220094=
202210292053 METAR KBLI 292053Z 18010KT 10SM CLR 12/09 A3026 RMK AO2 SLP255 T01220094 58002=
202210291953 METAR KBLI 291953Z 20008G14KT 160V220 10SM BKN085 12/09 A3028 RMK AO2 SLP262 T01170094=
202210291853 METAR KBLI 291853Z 18011G18KT 10SM OVC070 11/09 A3028 RMK AO2 SLP261 T01110094=
202210291753 METAR KBLI 291753Z 19007G14KT 160V230 10SM OVC065 11/09 A3027 RMK AO2 SLP257 T01060094 10106 20100 51007=
202210291653 METAR KBLI 291653Z 19007KT 10SM OVC070 11/09 A3027 RMK AO2 SLP256 T01060089=
202210291553 METAR KBLI 291553Z 18008KT 10SM OVC060 10/09 A3026 RMK AO2 SLP255 T01000089=
202210291453 METAR KBLI 291453Z 19008G16KT 10SM OVC065 10/09 A3025 RMK AO2 SLP250 T01000094 53005=
202210291353 METAR KBLI 291353Z 19009KT 10SM OVC065 10/09 A3024 RMK AO2 SLP247 T01000094=
202210291253 METAR KBLI 291253Z AUTO 18008G15KT 10SM FEW070 10/09 A3024 RMK AO2 SLP246 T01000089=
202210291153 METAR KBLI 291153Z AUTO 19008G17KT 10SM FEW065 11/09 A3023 RMK AO2 SLP244 70001 T01060094 10111 20067 58004=
202210291053 METAR KBLI 291053Z AUTO 18004KT 10SM CLR 10/09 A3026 RMK AO2 SLP253 T01000094=
202210290953 METAR KBLI 290953Z AUTO 17006KT 10SM CLR 10/09 A3025 RMK AO2 SLP251 T01000094=
202210290853 METAR KBLI 290853Z AUTO 19004KT 10SM CLR 08/08 A3024 RMK AO2 SLP248 T00830083 51003=
202210290807 SPECI KBLI 290807Z AUTO 19004KT 9SM SCT019 08/08 A3024 RMK AO2 T00830083=
202210290753 METAR KBLI 290753Z AUTO 00000KT 10SM BKN018 07/07 A3024 RMK AO2 SLP247 T00720072 401330072=
202210290748 SPECI KBLI 290748Z AUTO 00000KT 10SM BKN018 08/08 A3024 RMK AO2=
202210290653 METAR KBLI 290653Z AUTO 20004KT 10SM CLR 10/09 A3023 RMK AO2 SLP245 T01000094=
202210290553 METAR KBLI 290553Z AUTO VRB04KT 10SM CLR 11/10 A3023 RMK AO2 SLP243 T01060100 10128 20094 53009=
202210290453 METAR KBLI 290453Z 18005KT 10SM FEW080 11/10 A3022 RMK AO2 SLP239 T01060100=
202210290353 METAR KBLI 290353Z 16004KT 10SM FEW040 SCT075 09/09 A3021 RMK AO2 SLP236 T00940089=
202210290253 METAR KBLI 290253Z 18004KT 10SM FEW080 11/09 A3020 RMK AO2 SLP234 T01060089 53012=
202210290153 METAR KBLI 290153Z 18004KT 10SM FEW040 SCT065 BKN080 10/09 A3019 RMK AO2 SLP231 T01000089=
202210290053 METAR KBLI 290053Z 19004KT 10SM BKN080 11/09 A3017 RMK AO2 SLP224 T01110089=
202210282353 METAR KBLI 282353Z 18004KT 10SM FEW040 SCT075 13/08 A3017 RMK AO2 SLP222 T01280083 10133 20106 51003=
202210282253 METAR KBLI 282253Z 19007KT 10SM FEW040 SCT080 13/08 A3017 RMK AO2 SLP222 T01330083=
202210282153 METAR KBLI 282153Z 17008KT 10SM FEW080 13/09 A3016 RMK AO2 SLP221 T01330089=
202210282053 METAR KBLI 282053Z 17008KT 10SM CLR 13/09 A3016 RMK AO2 SLP219 T01330089 51009=
202210281953 METAR KBLI 281953Z 18006KT 10SM CLR 13/10 A3015 RMK AO2 SLP217 T01280100=
202210281853 METAR KBLI 281853Z 18006KT 10SM SCT035 12/11 A3014 RMK AO2 SLP215 T01170106=
202210281753 METAR KBLI 281753Z 19005KT 10SM CLR 11/10 A3013 RMK AO2 SLP209 60001 T01060100 10106 20094 51026=
202210281653 METAR KBLI 281653Z 17006KT 10SM SCT010 11/10 A3011 RMK AO2 SLP202 T01060100=
202210281553 METAR KBLI 281553Z 19006KT 10SM CLR 10/09 A3008 RMK AO2 SLP193 T01000094=
202210281453 METAR KBLI 281453Z VRB05KT 10SM CLR 10/09 A3005 RMK AO2 SLP183 60001 T01000094 51017=
202210281407 SPECI KBLI 281407Z 18006KT 10SM SCT005 OVC055 10/10 A3004 RMK AO2 T01000100=
202210281353 METAR KBLI 281353Z VRB05KT 10SM BKN004 OVC065 10/10 A3003 RMK AO2 SLP175 T01000100=
202210281350 SPECI KBLI 281350Z 18006KT 10SM BKN004 OVC065 10/10 A3003 RMK AO2 CIG 003V008=
202210281305 SPECI KBLI 281305Z AUTO 18007KT 160V220 10SM BKN005 OVC075 09/09 A3000 RMK AO2 T00940094=
202210281253 METAR KBLI 281253Z AUTO 19005KT 10SM FEW006 OVC075 09/09 A3000 RMK AO2 RAE28 SLP166 P0001 T00940094=
202210281203 SPECI KBLI 281203Z AUTO 19007KT 10SM -RA SCT005 BKN060 OVC080 10/10 A2998 RMK AO2 P0001 T01000100=
202210281153 METAR KBLI 281153Z AUTO 19008KT 10SM -RA BKN003 OVC060 10/10 A2998 RMK AO2 SLP159 P0004 60042 70080 T01000100 10117 20094 53013=
202210281132 SPECI KBLI 281132Z AUTO 18009KT 6SM -RA BR BKN003 OVC048 10/10 A2997 RMK AO2 P0004 T01000100=
202210281125 SPECI KBLI 281125Z AUTO 18007KT 7SM -RA BKN005 OVC048 10/10 A2998 RMK AO2 P0003 T01000100=
202210281114 SPECI KBLI 281114Z AUTO 19007KT 160V220 8SM -RA SCT006 OVC048 10/10 A2997 RMK AO2 P0002 T01000100=
202210281053 METAR KBLI 281053Z AUTO 18005KT 10SM -RA OVC050 10/09 A2996 RMK AO2 SLP154 P0002 T01000094=
202210280953 METAR KBLI 280953Z AUTO 16008KT 10SM -RA OVC055 10/10 A2995 RMK AO2 SLP150 P0004 T01000100=
202210280853 METAR KBLI 280853Z AUTO 17005KT 8SM -RA OVC055 11/10 A2994 RMK AO2 SLP146 P0006 60032 T01060100 51003=
202210280753 METAR KBLI 280753Z AUTO 18007KT 10SM -RA OVC060 11/11 A2993 RMK AO2 SLP142 P0003 T01060106 401440094=
202210280653 METAR KBLI 280653Z AUTO 17005KT 7SM -RA FEW016 SCT042 OVC050 11/11 A2995 RMK AO2 SLP148 P0023 T01060106=
202210280609 SPECI KBLI 280609Z AUTO 20008KT 160V240 3SM +RA FEW010 BKN033 OVC055 12/08 A2994 RMK AO2 P0012 T01170083=
202210280553 METAR KBLI 280553Z AUTO VRB05KT 2 1/2SM +RA BR FEW008 BKN025 OVC040 11/11 A2993 RMK AO2 SLP143 P0013 60037 T01110111 10144 20111 53014=
202210280543 SPECI KBLI 280543Z AUTO VRB04KT 5SM RA BR FEW008 BKN025 OVC055 11/11 A2992 RMK AO2 PRESRR P0006 T01110106=
202210280453 METAR KBLI 280453Z 16014G24KT 6SM -RA BR SCT020 BKN030 OVC060 12/11 A2989 RMK AO2 SLP130 P0007 T01170106=
202210280359 SPECI KBLI 280359Z 18005KT 5SM -RA BR BKN030 OVC050 11/11 A2990 RMK AO2 P0001 T01110106=
202210280353 METAR KBLI 280353Z VRB05G16KT 6SM -RA BR SCT031 SCT036 OVC055 12/10 A2990 RMK AO2 SLP131 P0006 T01170100=
202210280253 METAR KBLI 280253Z 17009G16KT 6SM -RA BR SCT020 OVC030 12/10 A2989 RMK AO2 PK WND 17028/0203 SLP129 P0009 60011 T01170100 53022=
202210280236 SPECI KBLI 280236Z 20007KT 5SM RA BR SCT020 BKN030 OVC040 12/10 A2989 RMK AO2 PK WND 17028/0203 P0006 T01170100=
202210280153 METAR KBLI 280153Z 18012G22KT 10SM -RA FEW039 SCT047 OVC055 13/09 A2987 RMK AO2 PK WND 16031/0055 SLP123 P0002 T01280094=
202210280053 METAR KBLI 280053Z 17015G30KT 10SM -RA OVC065 13/09 A2984 RMK AO2 PK WND 15036/0005 SLP111 P0000 T01330089=
202210272353 METAR KBLI 272353Z 17022G40KT 10SM -RA FEW030 SCT050 OVC070 14/08 A2983 RMK AO2 PK WND 15040/2350 RAB2255 SLP107 P0000 60000 T01390083 10144 20122 58010=
202210272253 METAR KBLI 272253Z 18024G38KT 10SM FEW040 OVC075 14/08 A2984 RMK AO2 PK WND 19039/2224 RAB16E51 SLP112 P0000 T01440078=
202210272153 METAR KBLI 272153Z 17018G42KT 10SM OVC075 14/08 A2985 RMK AO2 PK WND 16044/2107 RAE05 SLP114 P0000 T01390078=
202210272053 METAR KBLI 272053Z 17019G35KT 10SM -RA OVC070 13/08 A2986 RMK AO2 PK WND 19041/2040 SLP118 P0000 60000 T01330078 58014=
202210271953 METAR KBLI 271953Z 17018G35KT 10SM -RA SCT026 OVC070 13/08 A2987 RMK AO2 PK WND 16038/1918 SLP123 P0000 T01280083=
202210271853 METAR KBLI 271853Z 17015G33KT 10SM -RA BKN027 OVC075 12/08 A2989 RMK AO2 PK WND 18035/1831 SLP129 P0000 T01220083=
202210271753 METAR KBLI 271753Z 17018G33KT 10SM -RA OVC023 12/09 A2990 RMK AO2 PK WND 16033/1751 SLP132 P0000 60001 T01220089 10122 20100 56010=
202210271714 SPECI KBLI 271714Z 16017G27KT 10SM -RA BKN023 BKN085 12/09 A2990 RMK AO2 PK WND 15028/1702 P0000 T01170089=
202210271653 METAR KBLI 271653Z 16016G29KT 10SM -RA SCT023 BKN037 BKN080 12/09 A2991 RMK AO2 PK WND 15032/1625 SLP134 P0000 T01170089=
202210271642 SPECI KBLI 271642Z 16017G28KT 10SM -RA SCT021 BKN037 BKN075 12/09 A2991 RMK AO2 PK WND 15032/1625 P0000 T01170089=
202210271553 METAR KBLI 271553Z 16013G28KT 10SM -RA BKN020 BKN090 OVC100 11/09 A2992 RMK AO2 PK WND 17032/1511 SLP138 P0001 T01110089=
202210271453 METAR KBLI 271453Z 16018G32KT 10SM -RA OVC018 11/08 A2993 RMK AO2 PK WND 18032/1444 SLP143 P0000 60000 T01110083 58022=
202210271353 METAR KBLI 271353Z 16015G25KT 10SM -RA OVC018 11/08 A2997 RMK AO2 PK WND 16031/1315 SLP154 P0000 T01060083=
202210271253 METAR KBLI 271253Z AUTO 17015G25KT 10SM -RA OVC018 11/08 A2998 RMK AO2 PK WND 16026/1243 RAB46 SLP158 P0000 T01060083=
202210271237 SPECI KBLI 271237Z AUTO 15012KT 10SM BKN018 OVC060 10/08 A2998 RMK AO2 T01000083=
202210271153 METAR KBLI 271153Z AUTO 16013G22KT 10SM FEW017 OVC055 10/08 A3000 RMK AO2 RAB20E53 SLP165 P0000 60001 70004 T01000083 10106 20094 58015=
202210271053 METAR KBLI 271053Z AUTO 17013KT 10SM SCT016 BKN055 OVC090 10/08 A3002 RMK AO2 PK WND 15026/0958 RAB33E49 SLP174 P0001 T01000083=
202210270953 METAR KBLI 270953Z AUTO 17014G26KT 10SM OVC017 10/08 A3004 RMK AO2 PK WND 18026/0950 SLP178 T01000078=
202210270853 METAR KBLI 270853Z AUTO 16014G26KT 10SM OVC020 10/08 A3004 RMK AO2 PK WND 15026/0845 RAE0756 SLP180 P0000 60000 T01000078 55009=
202210270840 SPECI KBLI 270840Z AUTO 16014G20KT 10SM BKN020 OVC041 10/07 A3004 RMK AO2 RAE0756 P0000 T01000072=
202210270753 METAR KBLI 270753Z AUTO 16013G22KT 10SM -RA SCT038 BKN060 BKN070 10/07 A3004 RMK AO2 RAB11 SLP179 P0000 T01000072 401060072=
202210270653 METAR KBLI 270653Z AUTO 16015KT 10SM OVC038 10/08 A3005 RMK AO2 SLP182 T01000078=
202210270553 METAR KBLI 270553Z AUTO 16013G19KT 10SM OVC044 10/07 A3007 RMK AO2 RAB0455E09 SLP189 P0000 60003 T01000072 10100 20089 55004=
202210270453 METAR KBLI 270453Z 16011G20KT 10SM SCT023 OVC050 09/07 A3006 RMK AO2 RAE46 SLP187 P0000 T00940067=
202210270353 METAR KBLI 270353Z 16010KT 10SM -RA BKN050 OVC060 09/07 A3007 RMK AO2 SLP189 P0001 T00890067=
202210270310 SPECI KBLI 270310Z 16009KT 10SM -RA OVC050 09/07 A3008 RMK AO2 P0000 T00890067=
202210270253 METAR KBLI 270253Z 16009KT 10SM -RA BKN024 OVC050 09/07 A3008 RMK AO2 SLP194 P0001 60002 T00890072 58004=
202210270153 METAR KBLI 270153Z 16008KT 10SM -RA SCT013 BKN024 OVC035 09/08 A3009 RMK AO2 RAE0059B34 SLP196 P0000 T00940083=
202210270053 METAR KBLI 270053Z 17009KT 9SM -RA FEW011 BKN024 OVC040 09/09 A3009 RMK AO2 SLP197 P0001 T00940089=
202210270007 SPECI KBLI 270007Z 18009KT 10SM -RA BKN026 BKN036 OVC050 10/08 A3009 RMK AO2 P0000 T01000083=
202210270000 SPECI KBLI 270000Z 17010KT 10SM -RA FEW026 BKN034 OVC050 10/08 A3009 RMK AO2 P0000 T01000078=
202210262353 METAR KBLI 262353Z 18007KT 10SM -RA BKN026 BKN048 OVC055 10/08 A3009 RMK AO2 RAB52 SLP198 P0000 60000 T01000078 10106 20094 53001=
202210262253 METAR KBLI 262253Z 17009G16KT 10SM BKN026 BKN030 OVC045 10/07 A3009 RMK AO2 SLP196 T01000072=
202210262218 SPECI KBLI 262218Z 18007KT 10SM BKN025 BKN031 OVC048 10/07 A3008 RMK AO2 T01000072=
202210262153 METAR KBLI 262153Z 18009G15KT 10SM FEW026 BKN047 BKN110 11/07 A3008 RMK AO2 SLP194 T01060067=
202210262053 METAR KBLI 262053Z 17010G16KT 10SM BKN024 BKN034 10/07 A3009 RMK AO2 SLP197 T01000072 50007=
202210262030 SPECI KBLI 262030Z 18008KT 10SM BKN024 BKN034 10/08 A3009 RMK AO2 T01000078=
202210261953 METAR KBLI 261953Z 17010G18KT 10SM FEW014 SCT022 BKN042 10/08 A3009 RMK AO2 SLP198 T01000078=
202210261923 SPECI KBLI 261923Z 17009G17KT 10SM FEW016 SCT028 BKN034 10/08 A3009 RMK AO2 T01000078=
202210261853 METAR KBLI 261853Z 18009KT 10SM BKN015 BKN022 OVC027 09/07 A3008 RMK AO2 SLP194 T00940072=
202210261818 SPECI KBLI 261818Z 18004KT 10SM FEW019 BKN028 09/07 A3007 RMK AO2 T00940067=
202210261753 METAR KBLI 261753Z 17006KT 10SM BKN030 09/07 A3007 RMK AO2 SLP190 T00940072 10100 20072 51022=
202210261653 METAR KBLI 261653Z 18006KT 10SM FEW020 BKN034 OVC060 09/07 A3006 RMK AO2 SLP186 T00890072=
202210261644 SPECI KBLI 261644Z 19004KT 10SM SCT020 BKN035 BKN060 09/07 A3006 RMK AO2 T00890072=
202210261620 SPECI KBLI 261620Z 18005KT 10SM BKN020 OVC036 08/07 A3004 RMK AO2 T00830072=
202210261553 METAR KBLI 261553Z 19005KT 10SM FEW020 BKN036 OVC055 08/07 A3004 RMK AO2 SLP179 T00830072=
202210261453 METAR KBLI 261453Z 00000KT 10SM FEW038 OVC055 07/06 A3000 RMK AO2 SLP168 T00720061 51024=
202210261353 METAR KBLI 261353Z 00000KT 10SM FEW026 SCT043 OVC050 08/06 A2998 RMK AO2 SLP161 T00830061=
202210261253 METAR KBLI 261253Z AUTO VRB03KT 10SM FEW028 BKN039 OVC047 08/06 A2996 RMK AO2 SLP154 T00830056=
202210261153 METAR KBLI 261153Z AUTO 10SM OVC039 08/06 A2993 RMK AO2 SLP143 60008 70018 T00830061 10089 20072 53011=
202210261053 METAR KBLI 261053Z AUTO 19003KT 10SM SCT026 BKN034 OVC041 08/07 A2992 RMK AO2 RAB36E45 SLP138 P0000 T00830067=
202210261010 SPECI KBLI 261010Z AUTO VRB04KT 10SM FEW023 OVC034 08/07 A2991 RMK AO2 T00780072=
202210261002 SPECI KBLI 261002Z AUTO 00000KT 10SM FEW023 BKN029 OVC036 08/07 A2991 RMK AO2 T00780072=
202210260953 METAR KBLI 260953Z AUTO 00000KT 10SM FEW024 SCT029 OVC036 08/07 A2990 RMK AO2 RAB0858E10 SLP133 P0000 T00780067=
202210260949 SPECI KBLI 260949Z AUTO 00000KT 10SM FEW024 BKN036 OVC050 08/07 A2990 RMK AO2 RAB0858E10 P0000=
202210260853 METAR KBLI 260853Z AUTO 00000KT 10SM FEW012 BKN017 OVC042 08/08 A2988 RMK AO2 RAB0756E07B13E43 SLP124 P0002 60008 T00830078 53019=
202210260841 SPECI KBLI 260841Z AUTO 00000KT 10SM -RA BKN012 BKN024 OVC030 08/08 A2987 RMK AO2 RAB0756E07B13 P0002 T00830078=
202210260833 SPECI KBLI 260833Z AUTO VRB03KT 4SM -RA BR FEW016 BKN030 OVC035 08/08 A2987 RMK AO2 RAB0756E07B13 P0002 T00830078=
202210260821 SPECI KBLI 260821Z AUTO 28004KT 5SM -RA BR BKN026 OVC039 08/08 A2986 RMK AO2 RAB0756E07B13 P0000 T00830078=
202210260809 SPECI KBLI 260809Z AUTO VRB03KT 10SM FEW015 SCT021 OVC039 08/08 A2986 RMK AO2 RAB0756E07 P0000 T00830078=
202210260753 METAR KBLI 260753Z AUTO 28004KT 10SM BKN015 BKN021 OVC033 08/08 A2985 RMK AO2 RAE14 SLP116 P0004 T00830078 401110083=
202210260653 METAR KBLI 260653Z AUTO 32005KT 6SM -RA BR FEW015 BKN022 OVC032 09/09 A2984 RMK AO2 RAB48 SLP111 P0002 T00890089=
202210260642 SPECI KBLI 260642Z AUTO 19005KT 10SM FEW010 BKN025 OVC039 09/09 A2983 RMK AO2 T00890089=
202210260553 METAR KBLI 260553Z AUTO VRB05KT 10SM BKN012 OVC016 09/08 A2982 RMK AO2 RAE49 SLP107 P0000 60010 T00890083 10106 20083 53014=
202210260538 SPECI KBLI 260538Z AUTO 20007KT 10SM -RA BKN012 OVC019 09/08 A2982 RMK AO2 P0000 T00890083=
202210260453 METAR KBLI 260453Z 18007KT 6SM -RA BR BKN016 OVC025 09/08 A2981 RMK AO2 SLP101 P0001 T00890078=
202210260400 SPECI KBLI 260400Z 20007KT 6SM -RA BR SCT013 BKN022 OVC041 09/08 A2979 RMK AO2 P0000 T00890083=
202210260353 METAR KBLI 260353Z 18008KT 6SM -RA BR FEW016 BKN031 OVC041 09/08 A2978 RMK AO2 SLP093 P0003 T00890083=
202210260343 SPECI KBLI 260343Z 18007KT 6SM -RA BR FEW016 BKN031 OVC041 09/08 A2978 RMK AO2 P0003 T00890083=
202210260253 METAR KBLI 260253Z 17008G16KT 6SM -RA BR SCT014 BKN022 OVC041 09/09 A2978 RMK AO2 SLP092 P0004 60006 T00890089 55001=
202210260234 SPECI KBLI 260234Z 18009KT 9SM -RA FEW009 BKN020 OVC039 09/09 A2978 RMK AO2 P0002 T00890089=
202210260231 SPECI KBLI 260231Z 17008KT 9SM -RA SCT010 BKN014 OVC039 09/09 A2978 RMK AO2 P0002 T00890089=
202210260153 METAR KBLI 260153Z 18012G30KT 10SM -RA OVC015 09/08 A2977 RMK AO2 PK WND 15033/0124 SLP088 P0000 T00940083=
202210260053 METAR KBLI 260053Z 18014G24KT 8SM -RA BKN029 OVC036 10/08 A2977 RMK AO2 PK WND 15042/0018 SLP087 P0002 T01000078=
202210252353 METAR KBLI 252353Z 16016G25KT 10SM -RA BKN029 OVC036 11/07 A2978 RMK AO2 PK WND 17034/2318 RAB53 SLP093 P0000 60000 T01060067 10111 20094 56044=
202210252327 SPECI KBLI 252327Z 15022G34KT 10SM BKN029 OVC036 11/06 A2979 RMK AO2 PK WND 17034/2318 T01060061=
202210252253 METAR KBLI 252253Z 14021G36KT 10SM FEW020 BKN035 OVC080 11/06 A2981 RMK AO2 PK WND 15036/2250 SLP103 T01060061=
202210252153 METAR KBLI 252153Z 15021G31KT 10SM FEW020 SCT035 BKN040 11/07 A2986 RMK AO2 PK WND 15031/2152 SLP119 T01110067=
202210252053 METAR KBLI 252053Z 16014G24KT 10SM FEW020 SCT035 BKN055 11/07 A2991 RMK AO2 PK WND 15026/2020 RAB1955E11 PRESFR SLP137 P0000 60000 T01110072 58048=
202210251953 METAR KBLI 251953Z 16013G24KT 10SM FEW020 SCT050 BKN075 11/07 A2998 RMK AO2 SLP159 T01060072=
202210251853 METAR KBLI 251853Z 16014G21KT 10SM FEW015 SCT040 BKN065 11/08 A3001 RMK AO2 RAE29 SLP171 P0000 T01060078=
202210251753 METAR KBLI 251753Z 16009KT 8SM -RA FEW012 SCT020 BKN045 09/08 A3006 RMK AO2 RAE00B22 SLP187 P0000 60000 T00940078 10100 20094 58017=
202210251653 METAR KBLI 251653Z 17007KT 10SM -RA SCT038 BKN048 OVC085 10/08 A3009 RMK AO2 RAB25 SLP196 P0000 T01000083=
202210251553 METAR KBLI 251553Z 19008G17KT 10SM SCT039 OVC095 10/08 A3010 RMK AO2 SLP200 T01000078=
202210251453 METAR KBLI 251453Z 15008KT 10SM FEW060 09/07 A3011 RMK AO2 SLP202 T00940072 58005=
202210251415 SPECI KBLI 251415Z 18007G18KT 10SM FEW020 SCT026 OVC060 10/07 A3012 RMK AO2 T01000072=
202210251406 SPECI KBLI 251406Z 18011G18KT 10SM FEW020 BKN026 OVC060 10/08 A3012 RMK AO2 T01000078=
202210251353 METAR KBLI 251353Z 17008KT 10SM FEW019 SCT028 OVC050 10/08 A3012 RMK AO2 SLP207 T01000078=
202210251253 METAR KBLI 251253Z AUTO 18009KT 10SM FEW024 BKN060 10/07 A3012 RMK AO2 SLP208 T01000072=
202210251153 METAR KBLI 251153Z AUTO 19004KT 10SM CLR 10/07 A3012 RMK AO2 SLP207 70026 T01000072 10100 20083 50000=
202210251053 METAR KBLI 251053Z AUTO VRB05KT 10SM OVC049 10/08 A3013 RMK AO2 SLP209 T01000078=
202210250953 METAR KBLI 250953Z AUTO VRB04KT 10SM SCT046 BKN065 10/08 A3012 RMK AO2 SLP207 T01000083=
202210250853 METAR KBLI 250853Z AUTO 18005KT 10SM OVC060 09/08 A3012 RMK AO2 SLP207 T00890083 51014=
202210250753 METAR KBLI 250753Z AUTO 17006KT 10SM FEW049 OVC060 08/08 A3011 RMK AO2 SLP204 T00830078 401330078=
202210250653 METAR KBLI 250653Z AUTO 17006KT 10SM OVC049 09/08 A3010 RMK AO2 SLP199 T00940078=
202210250553 METAR KBLI 250553Z AUTO 20005KT 10SM BKN070 08/08 A3008 RMK AO2 SLP194 60014 T00830078 10128 20078 51020=
202210250453 METAR KBLI 250453Z 18004KT 10SM FEW050 FEW100 SCT120 09/08 A3006 RMK AO2 RAE38 SLP188 P0003 T00890083=
202210250353 METAR KBLI 250353Z 18005KT 6SM -RA BR FEW021 BKN030 OVC046 08/08 A3004 RMK AO2 SLP180 P0010 T00830083=
202210250301 SPECI KBLI 250301Z VRB05KT 5SM -RA BR BKN030 OVC070 09/08 A3003 RMK AO2 P0002 T00940083=
202210250253 METAR KBLI 250253Z 33007KT 9SM -RA BKN028 BKN035 OVC046 10/08 A3002 RMK AO2 RAB49 SLP174 P0001 60001 T01000078 53028=
202210250234 SPECI KBLI 250234Z VRB03KT 10SM SCT047 BKN055 OVC070 11/08 A2999 RMK AO2 LTG DSNT N AND NE T01110083=
202210250219 SPECI KBLI 250219Z VRB04KT 10SM VCTS OVC050 11/09 A2998 RMK AO2 LTG DSNT N AND NE T01110089=
202210250153 METAR KBLI 250153Z 18004KT 10SM BKN050 11/09 A2997 RMK AO2 LTG DSNT NW SLP157 T01110089=
202210250053 METAR KBLI 250053Z 19006KT 10SM BKN050 12/09 A2995 RMK AO2 RAB2359E02 SLP150 P0000 T01170089=
202210242353 METAR KBLI 242353Z 19007KT 10SM SCT047 OVC060 12/09 A2994 RMK AO2 SLP144 60004 T01220089 10133 20100 53008=
202210242253 METAR KBLI 242253Z VRB06KT 10SM FEW040 OVC050 13/09 A2993 RMK AO2 RAE24 SLP141 P0000 T01280094=
202210242153 METAR KBLI 242153Z 18005KT 6SM -RA BR SCT028 BKN045 OVC055 12/10 A2992 RMK AO2 RAB30 SLP138 P0004 T01170100=
202210242053 METAR KBLI 242053Z 19010G19KT 10SM FEW016 SCT022 13/09 A2991 RMK AO2 SLP136 T01280094 51006=
202210241953 METAR KBLI 241953Z 17008KT 10SM CLR 12/09 A2991 RMK AO2 SLP136 T01170094=
202210241853 METAR KBLI 241853Z 17009KT 10SM SCT016 12/09 A2990 RMK AO2 SLP133 T01170094=
202210241823 SPECI KBLI 241823Z 18009G19KT 10SM OVC016 11/09 A2990 RMK AO2 T01060089=
202210241753 METAR KBLI 241753Z 18010G17KT 10SM OVC014 10/09 A2990 RMK AO2 SLP130 60008 T01000089 10100 20083 53008=
202210241736 SPECI KBLI 241736Z 18009G19KT 10SM OVC014 10/09 A2989 RMK AO2 T01000089=
202210241712 SPECI KBLI 241712Z 18007KT 150V220 10SM OVC015 09/08 A2989 RMK AO2 T00940083=
202210241653 METAR KBLI 241653Z 17011G19KT 10SM OVC014 09/08 A2988 RMK AO2 SLP125 T00940083=
202210241639 SPECI KBLI 241639Z 17013G20KT 10SM OVC014 09/08 A2987 RMK AO2 T00940078=
202210241553 METAR KBLI 241553Z 16009G16KT 10SM OVC017 09/08 A2988 RMK AO2 RAE28 SLP124 P0002 T00890078=
202210241453 METAR KBLI 241453Z 15011G21KT 5SM -RA BR FEW016 SCT023 OVC029 09/08 A2987 RMK AO2 PK WND 16027/1427 SLP122 P0004 60006 T00890078 55001=
202210241353 METAR KBLI 241353Z 16014G22KT 10SM -RA SCT020 BKN026 OVC035 09/07 A2987 RMK AO2 PK WND 16033/1314 SLP122 P0001 T00890072=
202210241253 METAR KBLI 241253Z AUTO 17018G33KT 10SM -RA FEW026 BKN041 OVC048 09/07 A2987 RMK AO2 PK WND 16033/1249 SLP123 P0001 T00890067=
202210241153 METAR KBLI 241153Z AUTO 17016G26KT 10SM -RA FEW033 SCT043 OVC050 08/07 A2989 RMK AO2 PK WND 16040/1106 SLP127 P0000 60016 70020 T00830067 10094 20083 55028=
202210241053 METAR KBLI 241053Z AUTO 16021G35KT 10SM -RA OVC060 09/06 A2988 RMK AO2 PK WND 14038/1027 SLP126 P0002 T00890056=
202210240953 METAR KBLI 240953Z AUTO 16019G31KT 10SM -RA OVC060 08/06 A2991 RMK AO2 PK WND 15031/0947 SLP135 P0005 T00830061=
202210240853 METAR KBLI 240853Z AUTO 16012G19KT 9SM -RA BKN055 OVC070 08/07 A2997 RMK AO2 PK WND 15027/0805 SLP157 P0003 60009 T00830067 56040=
202210240753 METAR KBLI 240753Z AUTO 16015G23KT 10SM -RA OVC047 08/06 A3001 RMK AO2 PK WND 16032/0732 SLP171 P0003 T00830056 401170011=
202210240653 METAR KBLI 240653Z AUTO 15008KT 10SM -RA OVC040 09/07 A3004 RMK AO2 SLP179 P0003 T00940067=
202210240553 METAR KBLI 240553Z AUTO 18006KT 9SM -RA BKN039 OVC045 09/08 A3009 RMK AO2 SLP198 P0004 60004 T00940078 10117 20094 55010=
202210240453 METAR KBLI 240453Z 16007KT 8SM -RA SCT035 OVC050 11/08 A3009 RMK AO2 RAB10 SLP197 P0000 T01060078=
202210240353 METAR KBLI 240353Z 16008KT 10SM FEW030 BKN075 BKN095 11/06 A3009 RMK AO2 SLP196 T01110056=
202210240253 METAR KBLI 240253Z 17006KT 10SM SCT060 BKN110 11/06 A3012 RMK AO2 SLP208 T01060056 58006=
202210240153 METAR KBLI 240153Z 16004KT 10SM SCT060 BKN100 11/07 A3013 RMK AO2 SLP211 T01060067=
202210240053 METAR KBLI 240053Z 18004KT 10SM FEW050 BKN110 11/07 A3014 RMK AO2 SLP214 T01110072=
202210232353 METAR KBLI 232353Z 18005KT 10SM FEW030 SCT055 BKN120 12/07 A3014 RMK AO2 SLP213 T01170072 10117 20089 56001=
202210232253 METAR KBLI 232253Z VRB05KT 10SM FEW021 BKN055 11/08 A3014 RMK AO2 SLP215 T01110078=
202210232153 METAR KBLI 232153Z 17006KT 10SM FEW025 SCT050 11/08 A3013 RMK AO2 SLP211 T01110083=
202210232053 METAR KBLI 232053Z 18007KT 10SM FEW020 SCT050 11/08 A3014 RMK AO2 SLP214 T01060078 50004=
202210231953 METAR KBLI 231953Z 18006KT 10SM CLR 10/08 A3015 RMK AO2 SLP216 T01000078=
202210231853 METAR KBLI 231853Z VRB04KT 10SM SCT012 BKN044 10/08 A3015 RMK AO2 SLP217 T01000083=
202210231753 METAR KBLI 231753Z 00000KT 10SM OVC042 09/09 A3013 RMK AO2 SLP209 T00890089 10089 20011 53018=
202210231653 METAR KBLI 231653Z 00000KT 10SM FEW007 OVC042 06/06 A3009 RMK AO2 SLP200 T00610061=
202210231553 METAR KBLI 231553Z 00000KT 8SM FEW007 OVC035 04/04 A3008 RMK AO2 SLP196 T00440044=
202210231518 SPECI KBLI 231518Z 00000KT 8SM BKN006 BKN034 02/02 A3008 RMK AO2 CIG 005V009 T00220022=
202210231509 SPECI KBLI 231509Z 00000KT 8SM SCT006 BKN031 02/02 A3008 RMK AO2 T00220022=
202210231501 SPECI KBLI 231501Z 00000KT 8SM SCT031 02/02 A3008 RMK AO2 T00170017=
202210231453 METAR KBLI 231453Z 35004KT 2SM BR FEW005 BKN031 02/02 A3007 RMK AO2 SLP193 T00170017 51026=
202210231421 SPECI KBLI 231421Z 00000KT 7SM SCT005 BKN038 03/03 A3006 RMK AO2 T00280028=
202210231411 SPECI KBLI 231411Z 00000KT 7SM BKN005 BKN038 03/03 A3006 RMK AO2 T00280028=
202210231403 SPECI KBLI 231403Z 00000KT 3SM BR SCT005 BKN038 03/03 A3006 RMK AO2 T00280028=
202210231353 METAR KBLI 231353Z 00000KT 10SM SCT038 03/03 A3005 RMK AO2 SLP186 T00280028=
202210231253 METAR KBLI 231253Z AUTO 00000KT 10SM BKN031 OVC040 03/03 A3002 RMK AO2 SLP176 T00330033=
202210231229 SPECI KBLI 231229Z AUTO 00000KT 10SM SCT017 BKN032 OVC042 03/03 A3001 RMK AO2 T00330033=
202210231214 SPECI KBLI 231214Z AUTO 00000KT 8SM BKN016 OVC041 03/03 A3001 RMK AO2 T00330033=
202210231153 METAR KBLI 231153Z AUTO 00000KT 10SM OVC014 03/03 A3000 RMK AO2 SLP165 70009 T00330033 10044 20011 51021=
202210231118 SPECI KBLI 231118Z AUTO 00000KT 10SM BKN013 OVC034 03/03 A2998 RMK AO2 T00280028=
202210231053 METAR KBLI 231053Z AUTO 00000KT 10SM OVC036 03/03 A2998 RMK AO2 SLP159 T00280028=
202210231045 SPECI KBLI 231045Z AUTO 00000KT 9SM SCT018 OVC038 02/02 A2997 RMK AO2 T00220022=
202210231014 SPECI KBLI 231014Z AUTO 03003KT 10SM BKN017 01/01 A2996 RMK AO2 T00110011=
202210231007 SPECI KBLI 231007Z AUTO 01003KT 2 1/2SM BR BKN017 01/01 A2996 RMK AO2 T00110011=
202210230953 METAR KBLI 230953Z AUTO 00000KT 3/4SM R16/3500VP6000FT BR VV017 01/01 A2995 RMK AO2 SLP152 T00110011=
202210230949 SPECI KBLI 230949Z AUTO 00000KT 1 3/4SM R16/3500VP6000FT BR SCT017 02/02 A2995 RMK AO2=
202210230936 SPECI KBLI 230936Z AUTO 00000KT 4SM BR CLR 02/02 A2995 RMK AO2 T00220022=
202210230925 SPECI KBLI 230925Z AUTO 00000KT 2SM R16/2600VP6000FT BR CLR 02/02 A2994 RMK AO2 T00220022=
202210230914 SPECI KBLI 230914Z AUTO 00000KT 1SM R16/6000VP6000FT BR VV002 01/01 A2994 RMK AO2 T00110011=
202210230910 SPECI KBLI 230910Z AUTO 00000KT 2SM R16/6000VP6000FT BR SCT002 02/02 A2993 RMK AO2 VIS 3/4V4 T00170017=
202210230906 SPECI KBLI 230906Z AUTO 00000KT 3SM R16/3500VP6000FT BR BKN002 02/02 A2993 RMK AO2 T00220022=
202210230902 SPECI KBLI 230902Z AUTO 00000KT 1SM R16/3500VP6000FT BR VV002 03/03 A2993 RMK AO2 T00280028=
202210230853 METAR KBLI 230853Z AUTO 00000KT 1/2SM R16/4000VP6000FT FG VV002 03/03 A2993 RMK AO2 SLP144 T00280028 53017=
202210230850 SPECI KBLI 230850Z AUTO 00000KT 1/2SM R16/2400VP6000FT FG VV002 03/03 A2993 RMK AO2=
202210230842 SPECI KBLI 230842Z AUTO 00000KT 1 1/2SM R16/2400VP6000FT BR BKN002 02/02 A2993 RMK AO2 T00220022=
202210230831 SPECI KBLI 230831Z AUTO 00000KT 3/4SM R16/P6000FT BR VV002 02/02 A2993 RMK AO2 T00220022=
202210230825 SPECI KBLI 230825Z AUTO 02003KT 1 3/4SM BR FEW001 02/02 A2993 RMK AO2 T00170017=
202210230819 SPECI KBLI 230819Z AUTO 01004KT 4SM BR FEW001 02/02 A2993 RMK AO2 T00170017=
202210230817 SPECI KBLI 230817Z AUTO 02003KT 1 1/4SM BR FEW001 01/01 A2993 RMK AO2 T00110011=
202210230813 SPECI KBLI 230813Z AUTO 04004KT 3/4SM R16/P6000FT BR VV002 02/02 A2993 RMK AO2 T00170017=
202210230803 SPECI KBLI 230803Z AUTO 00000KT 1/2SM R16/5500VP6000FT FG CLR 02/02 A2992 RMK AO2 T00220022=
202210230756 SPECI KBLI 230756Z AUTO 00000KT 1 3/4SM BR CLR 03/03 A2992 RMK AO2 T00280028=
202210230753 METAR KBLI 230753Z AUTO 00000KT 4SM BR CLR 03/03 A2992 RMK AO2 SLP139 T00280028 401060022=
202210230745 SPECI KBLI 230745Z AUTO 00000KT 8SM FEW002 03/03 A2991 RMK AO2 T00280028=
202210230738 SPECI KBLI 230738Z AUTO 00000KT 2SM BR FEW002 02/02 A2991 RMK AO2 T00220022=
202210230734 SPECI KBLI 230734Z AUTO 03003KT 1SM R16/P6000FT BR VV002 03/03 A2991 RMK AO2 T00280028=
202210230729 SPECI KBLI 230729Z AUTO 00000KT 1/2SM R16/2400VP6000FT FG VV002 03/03 A2991 RMK AO2 T00330033=
202210230716 SPECI KBLI 230716Z AUTO 00000KT 1/2SM R16/5000VP6000FT FG CLR 03/03 A2991 RMK AO2 T00330033=
202210230708 SPECI KBLI 230708Z AUTO 00000KT 1 3/4SM BR CLR 04/04 A2991 RMK AO2 VIS 1V5 T00390039=
202210230700 SPECI KBLI 230700Z AUTO 00000KT 3SM BR CLR 03/03 A2990 RMK AO2 T00330033=
202210230653 METAR KBLI 230653Z AUTO 00000KT 1 1/2SM BR CLR 04/04 A2990 RMK AO2 VIS 1V4 SLP133 T00390039=
202210230618 SPECI KBLI 230618Z AUTO 00000KT 1 3/4SM BR FEW022 03/03 A2989 RMK AO2 T00330033=
202210230610 SPECI KBLI 230610Z AUTO 00000KT 3SM BR FEW022 04/04 A2989 RMK AO2 T00440044=
202210230553 METAR KBLI 230553Z AUTO 00000KT 1 1/2SM BR FEW022 SCT029 04/04 A2988 RMK AO2 SLP128 T00390039 10094 20033 53021=
202210230532 SPECI KBLI 230532Z AUTO 00000KT 1 1/4SM BR CLR 04/04 A2988 RMK AO2 T00390039=
202210230453 METAR KBLI 230453Z 00000KT 10SM SCT019 05/04 A2986 RMK AO2 SLP120 T00500044=
202210230414 SPECI KBLI 230414Z 00000KT 10SM SCT019 04/04 A2985 RMK AO2 T00440044=
202210230356 SPECI KBLI 230356Z 00000KT 2 1/2SM BR BKN020 04/04 A2984 RMK AO2 VIS 1 3/4V5 T00390039=
202210230353 METAR KBLI 230353Z 00000KT 10SM SCT020 04/04 A2984 RMK AO2 SLP115 T00390039=
202210230253 METAR KBLI 230253Z 00000KT 10SM R16/3500VP6000FT FEW060 04/04 A2982 RMK AO2 SLP108 T00440044 53016=
202210230153 METAR KBLI 230153Z 00000KT 10SM R16/5000VP6000FT FEW020 FEW060 06/06 A2981 RMK AO2 SLP102 T00610061=
202210230053 METAR KBLI 230053Z 22003KT 10SM SCT060 08/08 A2979 RMK AO2 SLP096 T00780078=
202210222353 METAR KBLI 222353Z 00000KT 10SM BKN060 09/09 A2978 RMK AO2 SLP092 60009 T00940089 10106 20089 53007=
202210222253 METAR KBLI 222253Z VRB03KT 10SM SCT020 BKN048 11/08 A2977 RMK AO2 RAE04 SLP089 P0000 T01060083=
202210222153 METAR KBLI 222153Z 18003KT 10SM -RA FEW010 SCT025 BKN040 09/09 A2976 RMK AO2 SLP085 P0007 T00940089=
202210222053 METAR KBLI 222053Z 18003KT 6SM -RA BR SCT010 BKN025 OVC040 09/09 A2976 RMK AO2 RAB1956 SLP084 P0002 60002 T00890089 51003=
202210222032 SPECI KBLI 222032Z 00000KT 9SM -RA SCT015 BKN025 OVC050 09/09 A2976 RMK AO2 RAB1956 P0000 T00890089=
202210221953 METAR KBLI 221953Z 18004KT 10SM BKN010 OVC050 09/09 A2976 RMK AO2 SLP084 T00940089=
202210221853 METAR KBLI 221853Z 18006KT 10SM OVC010 09/08 A2975 RMK AO2 SLP082 T00940083=
202210221753 METAR KBLI 221753Z 00000KT 7SM FEW008 BKN012 OVC050 09/08 A2975 RMK AO2 SLP081 T00940083 10094 20044 51012=
202210221700 SPECI KBLI 221700Z 12003KT 10SM FEW009 OVC014 08/08 A2973 RMK AO2 T00830083=
202210221653 METAR KBLI 221653Z 09003KT 7SM BKN012 OVC021 08/08 A2974 RMK AO2 SLP077 T00830083=
202210221600 SPECI KBLI 221600Z 00000KT 5SM BR SCT001 BKN010 OVC050 07/07 A2973 RMK AO2 T00670067=
202210221553 METAR KBLI 221553Z 00000KT 2SM BR SCT001 BKN010 OVC050 06/06 A2973 RMK AO2 SLP074 T00610061=
202210221539 SPECI KBLI 221539Z 00000KT 2SM BR SCT001 BKN010 OVC050 06/06 A2972 RMK AO2 T00610061=
202210221532 SPECI KBLI 221532Z 00000KT 4SM BR SCT001 BKN016 OVC050 06/06 A2972 RMK AO2 T00560056=
202210221529 SPECI KBLI 221529Z 04003KT 2SM R16/5000VP6000FT BR SCT001 BKN007 OVC050 06/06 A2972 RMK AO2 T00560056=
202210221520 SPECI KBLI 221520Z 03003KT 1/2SM R16/3000V5500FT FG FEW001 BKN007 OVC050 06/06 A2972 RMK AO2 T00560056=
202210221505 SPECI KBLI 221505Z 02003KT 1/4SM R16/2200V3500FT FG VV003 05/05 A2971 RMK AO2 T00500050=
202210221458 SPECI KBLI 221458Z 00000KT 1/4SM R16/1800V2400FT FG VV005 05/05 A2971 RMK AO2 T00500050=
202210221453 METAR KBLI 221453Z 00000KT 1/4SM R16/1600V2000FT FG VV004 05/05 A2971 RMK AO2 SLP069 T00500050 51010=
202210221448 SPECI KBLI 221448Z 00000KT 1/4SM R16/1400V1600FT FG VV003 05/05 A2971 RMK AO2=
202210221436 SPECI KBLI 221436Z 00000KT 1/4SM R16/1400V1600FT FG VV001 05/05 A2970 RMK AO2 T00500050=
202210221425 SPECI KBLI 221425Z 00000KT 1/4SM R16/1600V3500FT FG BKN002 OVC050 04/04 A2970 RMK AO2 T00440044=
202210221415 SPECI KBLI 221415Z 00000KT 1/2SM R16/3000V4000FT FG BKN001 OVC050 05/05 A2970 RMK AO2 T00500050=
202210221403 SPECI KBLI 221403Z 00000KT 4SM R16/2000V3500FT BR SCT001 OVC050 06/06 A2970 RMK AO2 T00560056=
202210221356 SPECI KBLI 221356Z 00000KT 1 3/4SM R16/2600VP6000FT BR FEW001 OVC050 06/06 A2970 RMK AO2 T00560056=
202210221353 METAR KBLI 221353Z 00000KT 4SM R16/3500VP6000FT BR FEW001 OVC050 06/06 A2970 RMK AO2 SLP063 DRFG VSBY NW-NE 1/2SM T00560056=
202210221345 SPECI KBLI 221345Z 00000KT 4SM R16/5500VP6000FT BR SCT001 OVC050 05/05 A2969 RMK AO2 T00500050=
202210221339 SPECI KBLI 221339Z 04003KT 1SM R16/4000VP6000FT BR FEW001 OVC050 05/05 A2969 RMK AO2 T00500050=
202210221333 SPECI KBLI 221333Z 00000KT 3/4SM R16/3000VP6000FT BR OVC050 06/06 A2969 RMK AO2 T00560056=
202210221303 SPECI KBLI 221303Z AUTO 00000KT 1/2SM R16/4000VP6000FT FG BKN050 06/06 A2968 RMK AO2 T00610061=
202210221256 SPECI KBLI 221256Z AUTO 00000KT 1 1/2SM R16/4500VP6000FT BR OVC050 06/06 A2968 RMK AO2 T00610061=
202210221253 METAR KBLI 221253Z AUTO 00000KT 4SM R16/5000VP6000FT BR OVC050 06/06 A2968 RMK AO2 SLP058 T00610061=
202210221202 SPECI KBLI 221202Z AUTO 00000KT 10SM SCT005 OVC050 06/06 A2967 RMK AO2 T00610061=
202210221153 METAR KBLI 221153Z AUTO 00000KT 10SM BKN005 OVC050 06/06 A2967 RMK AO2 SLP056 60000 70038 T00610061 10078 20050 51004=
202210221140 SPECI KBLI 221140Z AUTO 00000KT 10SM BKN005 OVC049 06/06 A2967 RMK AO2 T00610061=
202210221131 SPECI KBLI 221131Z AUTO 00000KT 9SM SCT005 OVC049 06/06 A2967 RMK AO2 T00610061=
202210221107 SPECI KBLI 221107Z AUTO 00000KT 3SM BR OVC050 06/06 A2967 RMK AO2 T00560056=
202210221053 METAR KBLI 221053Z AUTO 00000KT 1 1/4SM BR OVC050 06/06 A2967 RMK AO2 SLP055 T00560056=
202210221024 SPECI KBLI 221024Z AUTO 00000KT 1 3/4SM BR OVC050 06/06 A2967 RMK AO2 T00560056=
202210221018 SPECI KBLI 221018Z AUTO 00000KT 3SM R16/4500VP6000FT BR OVC055 06/06 A2967 RMK AO2 T00610061=
202210220957 SPECI KBLI 220957Z AUTO 02003KT 1 3/4SM R16/3500VP6000FT BR OVC050 06/06 A2967 RMK AO2 VIS 3/4V5 T00560056=
202210220953 METAR KBLI 220953Z AUTO 00000KT 4SM BR OVC050 06/06 A2967 RMK AO2 SLP054 T00610061=
202210220940 SPECI KBLI 220940Z AUTO 00000KT 3SM BR FEW018 OVC050 06/06 A2966 RMK AO2 T00610061=
202210220931 SPECI KBLI 220931Z AUTO 00000KT 1SM R16/3000VP6000FT BR FEW002 SCT019 OVC050 06/06 A2966 RMK AO2 T00560056=
202210220922 SPECI KBLI 220922Z AUTO 00000KT 1/2SM R16/3000V5500FT FG SCT002 OVC050 06/06 A2966 RMK AO2 T00560056=
202210220917 SPECI KBLI 220917Z AUTO 00000KT 3/4SM R16/2400V5500FT BR BKN002 OVC050 06/06 A2966 RMK AO2 T00560056=
202210220909 SPECI KBLI 220909Z AUTO 00000KT 1/2SM R16/2000V4000FT FG VV002 06/06 A2966 RMK AO2 T00610061=
202210220855 SPECI KBLI 220855Z AUTO 00000KT 1/2SM R16/2200VP6000FT FG BKN001 BKN055 06/06 A2966 RMK AO2 T00560056=
202210220853 METAR KBLI 220853Z AUTO 00000KT 1/4SM R16/2200VP6000FT FG BKN002 BKN055 06/06 A2966 RMK AO2 SLP051 60000 T00560056 52002=
202210220844 SPECI KBLI 220844Z AUTO 00000KT 1/4SM R16/5500VP6000FT FG SCT002 BKN055 07/07 A2966 RMK AO2 T00670067=
202210220839 SPECI KBLI 220839Z AUTO 00000KT 3/4SM R16/P6000FT BR FEW002 BKN055 07/07 A2966 RMK AO2 T00670067=
202210220836 SPECI KBLI 220836Z AUTO 00000KT 1 3/4SM BR BKN055 07/07 A2965 RMK AO2 T00720072=
202210220817 SPECI KBLI 220817Z AUTO 00000KT 7SM SCT015 OVC055 07/07 A2966 RMK AO2 T00720072=
202210220800 SPECI KBLI 220800Z AUTO 00000KT 8SM OVC012 07/07 A2966 RMK AO2 T00720072=
202210220753 METAR KBLI 220753Z AUTO 00000KT 2 1/2SM BR BKN010 OVC016 07/07 A2966 RMK AO2 SLP050 T00720072 401110067=
202210220741 SPECI KBLI 220741Z AUTO 00000KT 1 3/4SM BR BKN010 OVC060 07/07 A2966 RMK AO2 T00720072=
202210220703 SPECI KBLI 220703Z AUTO 00000KT 7SM BKN011 BKN036 OVC043 07/07 A2966 RMK AO2 T00720072=
202210220653 METAR KBLI 220653Z AUTO 00000KT 4SM BR SCT011 BKN027 OVC043 08/08 A2966 RMK AO2 RAE03 SLP051 P0000 T00780078=
202210220628 SPECI KBLI 220628Z AUTO 03003KT 6SM BR FEW002 BKN027 OVC047 07/07 A2966 RMK AO2 RAE03 P0000 T00720072=
202210220553 METAR KBLI 220553Z AUTO 00000KT 4SM -RA BR OVC033 08/08 A2965 RMK AO2 RAB22 SLP050 P0001 60003 T00830083 10094 20067 56007=
202210220532 SPECI KBLI 220532Z AUTO 00000KT 5SM -RA BR OVC035 08/08 A2966 RMK AO2 RAB22 P0000 T00830083=
202210220453 METAR KBLI 220453Z 00000KT 6SM BR SCT016 BKN022 OVC030 08/08 A2966 RMK AO2 SLP052 T00780078=
202210220418 SPECI KBLI 220418Z 00000KT 3SM BR BKN016 OVC040 08/08 A2966 RMK AO2 T00780078=
202210220408 SPECI KBLI 220408Z 00000KT 3SM BR SCT015 BKN040 OVC047 07/07 A2966 RMK AO2 T00670067=
202210220401 SPECI KBLI 220401Z 00000KT 1 1/2SM BR FEW010 BKN040 OVC047 08/08 A2966 RMK AO2 T00780078=
202210220353 METAR KBLI 220353Z 00000KT 10SM BKN040 08/08 A2966 RMK AO2 SLP052 T00780078=
202210220337 SPECI KBLI 220337Z 00000KT 10SM OVC040 08/08 A2967 RMK AO2 T00830083=
202210220258 SPECI KBLI 220258Z 18003KT 10SM SCT009 BKN015 OVC040 09/09 A2967 RMK AO2 T00890089=
202210220253 METAR KBLI 220253Z 00000KT 10SM BKN009 BKN015 OVC055 09/09 A2968 RMK AO2 RAE45 SLP057 P0000 60002 T00890089 58014=
202210220153 METAR KBLI 220153Z 17004KT 10SM -RA BKN009 BKN015 OVC055 09/09 A2969 RMK AO2 SLP060 P0000 T00890089=
202210220053 METAR KBLI 220053Z 18005KT 5SM -RA BR BKN009 OVC013 09/09 A2971 RMK AO2 SLP066 P0002 T00940094=
202210220044 SPECI KBLI 220044Z 18005KT 10SM -RA OVC009 09/09 A2971 RMK AO2 CIG 007V013 P0001 T00940094=
202210212353 METAR KBLI 212353Z 5SM -RA BR FEW007 BKN012 OVC050 09/09 A2972 RMK AO2 SLP070 P0000 60005 T00940094 10100 20089 56015=
202210212319 SPECI KBLI 212319Z 19005KT 10SM -RA BKN012 BKN021 OVC060 10/09 A2973 RMK AO2 P0000 T01000094=
202210212253 METAR KBLI 212253Z VRB05KT 10SM -RA SCT012 BKN039 OVC060 10/09 A2973 RMK AO2 RAB20 SLP075 P0000 T01000094=
202210212250 SPECI KBLI 212250Z 17005KT 10SM -RA SCT010 BKN039 OVC060 10/09 A2974 RMK AO2 RAB20 P0000=
202210212241 SPECI KBLI 212241Z 18006KT 10SM -RA SCT010 BKN015 OVC050 10/09 A2974 RMK AO2 RAB20 P0000 T01000094=
202210212206 SPECI KBLI 212206Z 17005KT 10SM FEW007 BKN013 BKN018 10/09 A2976 RMK AO2 T01000094=
202210212153 METAR KBLI 212153Z 18004KT 8SM FEW007 BKN017 BKN035 10/09 A2976 RMK AO2 SLP085 T01000089=
202210212148 SPECI KBLI 212148Z 17004KT 10SM BKN017 BKN037 OVC055 10/09 A2976 RMK AO2=
202210212053 METAR KBLI 212053Z 16003KT 8SM FEW007 SCT015 BKN030 09/09 A2979 RMK AO2 RAE05B34E50 SLP095 P0000 60005 T00940089 58022=
202210212043 SPECI KBLI 212043Z 18003KT 6SM -RA BR SCT007 BKN015 OVC055 09/09 A2979 RMK AO2 RAE05B34 P0000 T00890089=
202210211953 METAR KBLI 211953Z 09003KT 10SM -RA OVC060 09/08 A2981 RMK AO2 SLP103 P0002 T00940078=
202210211853 METAR KBLI 211853Z 00000KT 8SM -RA FEW013 OVC038 09/09 A2985 RMK AO2 SLP113 P0003 T00890089=
202210211828 SPECI KBLI 211828Z 00000KT 7SM -RA FEW011 SCT023 OVC031 09/09 A2985 RMK AO2 P0002 T00890089=
202210211756 SPECI KBLI 211756Z 29003KT 4SM -RA BR FEW008 BKN016 OVC038 09/08 A2986 RMK AO2 P0000 T00890083=
202210211753 METAR KBLI 211753Z 32004KT 2 1/2SM -RA BR FEW008 BKN012 OVC038 09/09 A2985 RMK AO2 SLP116 P0023 60030 T00890089 10106 20089 58012=
202210211747 SPECI KBLI 211747Z 33005KT 1SM R16/5000VP6000FT RA BR SCT008 BKN012 OVC017 09/09 A2985 RMK AO2 P0022=
202210211739 SPECI KBLI 211739Z 34004KT 3/4SM R16/5000VP6000FT +RA BR OVC013 09/09 A2985 RMK AO2 P0016 T00940094=
202210211729 SPECI KBLI 211729Z VRB03KT 2 1/2SM RA BR BKN013 OVC018 09/09 A2986 RMK AO2 P0007 T00940094=
202210211653 METAR KBLI 211653Z VRB05KT 4SM -RA BR SCT020 BKN025 OVC042 10/09 A2987 RMK AO2 SLP123 P0007 T01000089=
202210211553 METAR KBLI 211553Z 17006KT 10SM -RA SCT021 BKN026 OVC049 11/08 A2988 RMK AO2 SLP124 P0000 T01060083=
202210211545 SPECI KBLI 211545Z 15007KT 10SM -RA BKN023 BKN042 OVC050 10/09 A2988 RMK AO2 P0000 T01000089=
202210211453 METAR KBLI 211453Z 14007KT 10SM -RA OVC055 10/08 A2989 RMK AO2 RAB44 SLP128 P0000 60000 T01000083 58007=
202210211353 METAR KBLI 211353Z 16004KT 10SM OVC100 11/08 A2992 RMK AO2 SLP138 T01060078=
202210211253 METAR KBLI 211253Z AUTO 17005KT 10SM BKN100 OVC120 11/08 A2992 RMK AO2 SLP137 T01060083=
202210211153 METAR KBLI 211153Z AUTO 17006KT 10SM BKN100 11/08 A2991 RMK AO2 SLP136 T01060078 10122 20078 58014=
202210211053 METAR KBLI 211053Z AUTO 16005KT 10SM SCT120 11/08 A2993 RMK AO2 SLP143 T01060078=
202210210953 METAR KBLI 210953Z AUTO VRB04KT 10SM CLR 11/08 A2995 RMK AO2 SLP150 T01110083=
202210210853 METAR KBLI 210853Z AUTO 18005KT 10SM CLR 09/07 A2995 RMK AO2 SLP149 T00890072 58002=
202210210753 METAR KBLI 210753Z AUTO 19003KT 10SM CLR 11/07 A2997 RMK AO2 SLP155 T01060072 401560072=
202210210653 METAR KBLI 210653Z AUTO 18005KT 10SM OVC070 12/08 A2995 RMK AO2 SLP150 T01220078=
202210210553 METAR KBLI 210553Z AUTO 18008KT 10SM BKN070 12/08 A2996 RMK AO2 PRESFR SLP151 T01220078 10150 20122 55008=
202210210453 METAR KBLI 210453Z VRB04KT 10SM FEW070 13/09 A2995 RMK AO2 SLP149 T01280094=
202210210353 METAR KBLI 210353Z 17007KT 10SM SCT070 13/08 A2997 RMK AO2 SLP154 T01280078=
202210210253 METAR KBLI 210253Z 19006KT 10SM SCT060 BKN075 14/11 A2998 RMK AO2 SLP159 T01390106 58008=
202210210153 METAR KBLI 210153Z 18005KT 6SM FU SCT060 BKN075 14/12 A2999 RMK AO2 SLP163 T01440122=
202210210053 METAR KBLI 210053Z 18005KT 6SM FU BKN055 OVC070 14/13 A3000 RMK AO2 SLP164 T01440128=
202210202353 METAR KBLI 202353Z VRB06KT 4SM FU BKN065 15/12 A3000 RMK AO2 SLP167 T01500122 10156 20122 58015=
202210202253 METAR KBLI 202253Z 19006KT 3SM FU OVC050 16/13 A3003 RMK AO2 SLP177 T01560128=
202210202153 METAR KBLI 202153Z 18008KT 3SM FU OVC060 15/13 A3004 RMK AO2 SLP178 T01500128=
202210202053 METAR KBLI 202053Z 18009KT 3SM FU OVC060 15/13 A3005 RMK AO2 SLP182 T01500128 58018=
202210202021 SPECI KBLI 202021Z 19007KT 3SM FU BKN060 15/13 A3006 RMK AO2 T01500133=
202210201953 METAR KBLI 201953Z VRB05KT 2SM BR OVC060 14/13 A3008 RMK AO2 SLP194 T01440133=
202210201921 SPECI KBLI 201921Z 18007KT 1 1/2SM BR FEW002 BKN060 13/13 A3009 RMK AO2 T01330128=
202210201855 SPECI KBLI 201855Z 19007KT 1SM R16/3000V4500FT BR OVC002 12/12 A3010 RMK AO2 T01220122=
202210201853 METAR KBLI 201853Z 20007KT 1/2SM R16/3000V4500FT FG OVC002 12/12 A3010 RMK AO2 SLP199 T01220122=
202210201845 SPECI KBLI 201845Z 19008KT 1/2SM R16/3500V6000FT FG OVC002 12/12 A3010 RMK AO2 T01220122=
202210201815 SPECI KBLI 201815Z 19007KT 1SM R16/P6000FT BR BKN002 OVC050 13/13 A3011 RMK AO2 T01280128=
202210201802 SPECI KBLI 201802Z 19007G16KT 3SM BR SCT002 13/13 A3010 RMK AO2 T01280128=
202210201753 METAR KBLI 201753Z 19007KT 1 1/2SM R16/5500VP6000FT BR OVC002 13/13 A3010 RMK AO2 SLP199 60000 T01280128 10128 20106 50003=
202210201705 SPECI KBLI 201705Z 19006KT 1 1/4SM BR OVC003 12/12 A3012 RMK AO2 T01220122=
202210201653 METAR KBLI 201653Z 20005KT 1 1/2SM BR OVC005 12/12 A3012 RMK AO2 CIG 003V007 SLP206 T01220122=
202210201553 METAR KBLI 201553Z 18003KT 1 1/2SM BR OVC006 12/12 A3012 RMK AO2 RAE03 SLP207 P0000 T01170117=
202210201523 SPECI KBLI 201523Z VRB03KT 1 1/4SM BR BKN007 OVC050 12/11 A3013 RMK AO2 RAE03 PRESRR P0000 T01170111=
202210201515 SPECI KBLI 201515Z 22003KT 1 1/4SM BR SCT007 BKN040 BKN050 12/11 A3012 RMK AO2 RAE03 P0000 T01170111=
202210201453 METAR KBLI 201453Z 21006KT 1 3/4SM -RA BR FEW042 SCT090 BKN110 11/11 A3009 RMK AO2 RAB26 SLP196 P0000 60000 T01110106 58013=
202210201353 METAR KBLI 201353Z VRB04KT 2SM BR FEW110 12/11 A3011 RMK AO2 SLP203 T01170111=
202210201253 METAR KBLI 201253Z AUTO 19004KT 2 1/2SM BR SCT055 11/11 A3011 RMK AO2 SLP204 T01110111=
202210201153 METAR KBLI 201153Z AUTO 19007KT 2 1/2SM BR CLR 11/11 A3013 RMK AO2 SLP208 T01110111 10117 20072 56015=
202210201053 METAR KBLI 201053Z AUTO 18006KT 2SM BR CLR 11/11 A3014 RMK AO2 SLP212 T01110111=
202210201006 SPECI KBLI 201006Z AUTO 18003KT 1 1/4SM BR FEW007 09/09 A3015 RMK AO2 T00940094=
202210201002 SPECI KBLI 201002Z AUTO 18005KT 3/4SM R16/P6000FT BR VV007 09/09 A3015 RMK AO2 PRESFR T00940094=
202210200953 METAR KBLI 200953Z AUTO 15004KT 1/4SM R16/P6000FT FG VV007 08/08 A3016 RMK AO2 SLP221 T00780078=
202210200951 SPECI KBLI 200951Z AUTO 14003KT 1/4SM R16/P6000FT FG VV008 08/08 A3016 RMK AO2=
202210200944 SPECI KBLI 200944Z AUTO 00000KT 3/4SM R16/P6000FT BR VV008 08/08 A3017 RMK AO2 T00780078=
202210200912 SPECI KBLI 200912Z AUTO 00000KT 1 1/2SM BR CLR 08/08 A3017 RMK AO2 T00830078=
202210200902 SPECI KBLI 200902Z AUTO 00000KT 2SM BR CLR 08/08 A3018 RMK AO2 T00830083=
202210200853 METAR KBLI 200853Z AUTO 00000KT 1 1/2SM BR CLR 08/08 A3017 RMK AO2 SLP224 T00830083 58008=
202210200753 METAR KBLI 200753Z AUTO 16003KT 1 1/4SM BR CLR 09/09 A3018 RMK AO2 SLP226 T00890089 401890044=
202210200719 SPECI KBLI 200719Z AUTO 15003KT 1 3/4SM BR CLR 09/09 A3020 RMK AO2 T00940094=
202210200653 METAR KBLI 200653Z AUTO 00000KT 2 1/2SM BR CLR 11/11 A3020 RMK AO2 SLP233 T01060106=
202210200641 SPECI KBLI 200641Z AUTO 00000KT 2 1/2SM BR CLR 10/10 A3020 RMK AO2 T01000100=
202210200553 METAR KBLI 200553Z AUTO 18005KT 3SM BR CLR 11/11 A3020 RMK AO2 SLP233 T01110106 10172 20089 56011=
202210200550 SPECI KBLI 200550Z AUTO 19004KT 3SM BR CLR 11/10 A3020 RMK AO2=
202210200540 SPECI KBLI 200540Z AUTO 18004KT 2 1/2SM BR CLR 11/11 A3020 RMK AO2 T01060106=
202210200453 METAR KBLI 200453Z 00000KT 3SM FU FEW090 09/09 A3022 RMK AO2 SLP240 T00940094=
202210200353 METAR KBLI 200353Z 00000KT 4SM BR FEW090 11/10 A3023 RMK AO2 SLP245 T01060100=
202210200253 METAR KBLI 200253Z 00000KT 4SM BR FEW090 11/11 A3023 RMK AO2 SLP244 T01110106 56008=
202210200153 METAR KBLI 200153Z 00000KT 5SM BR CLR 12/11 A3024 RMK AO2 SLP248 T01220106=
202210200053 METAR KBLI 200053Z 29003KT 3SM HZ FEW090 15/12 A3024 RMK AO2 SLP247 T01500117=
202210200018 SPECI KBLI 200018Z 00000KT 3SM HZ FEW090 16/12 A3024 RMK AO2 T01610122=
202210192355 SPECI KBLI 192355Z 29003KT 2 1/2SM FU CLR 17/12 A3025 RMK AO2 T01720117=
202210192353 METAR KBLI 192353Z 29004KT 1 1/2SM FU CLR 17/12 A3025 RMK AO2 SLP252 T01720117 10189 20122 56014=
202210192300 SPECI KBLI 192300Z 00000KT 1 1/2SM FU CLR 18/12 A3026 RMK AO2 T01830117=
202210192253 METAR KBLI 192253Z 00000KT 1 1/2SM FU VV017 18/12 A3026 RMK AO2 SLP255 T01830117=
202210192153 METAR KBLI 192153Z 00000KT 1SM R16/P6000FT FU VV017 18/11 A3028 RMK AO2 SLP260 T01830111=
202210192053 METAR KBLI 192053Z 00000KT 1SM R16/P6000FT FU SCT020 18/11 A3030 RMK AO2 SLP266 T01780106 58016=
202210191953 METAR KBLI 191953Z 31004KT 1SM R16/P6000FT FU CLR 16/10 A3032 RMK AO2 SLP275 T01610100=
202210191853 METAR KBLI 191853Z 05003KT 1SM R16/P6000FT FU CLR 14/09 A3033 RMK AO2 SLP278 T01390089=
202210191753 METAR KBLI 191753Z 35004KT 1SM R16/P6000FT FU CLR 12/09 A3034 RMK AO2 SLP281 T01220089 10122 20044 53006=
202210191653 METAR KBLI 191653Z 00000KT 1SM R16/5500VP6000FT FU CLR 10/09 A3033 RMK AO2 SLP279 T01000094=
202210191553 METAR KBLI 191553Z 00000KT 3/4SM R16/5000V5500FT BR OVC021 07/07 A3032 RMK AO2 SLP276 T00670067=
202210191514 SPECI KBLI 191514Z 00000KT 3/4SM R16/4000V5500FT BR VV020 06/06 A3032 RMK AO2 T00560056=
202210191506 SPECI KBLI 191506Z 00000KT 1/2SM R16/4000V5500FT FG OVC021 06/06 A3032 RMK AO2 T00560056=
202210191453 METAR KBLI 191453Z 00000KT 3/4SM R16/3500V5500FT BR OVC021 05/05 A3032 RMK AO2 SLP276 T00500050 53008=
202210191353 METAR KBLI 191353Z 00000KT 3/4SM R16/P6000FT BR VV020 06/06 A3031 RMK AO2 SLP272 T00610061=
202210191337 SPECI KBLI 191337Z AUTO 00000KT 3/4SM R16/5000VP6000FT BR VV019 06/06 A3031 RMK AO2 T00560056=
202210191322 SPECI KBLI 191322Z AUTO 00000KT 1/2SM R16/2800V6000FT FG VV019 06/06 A3031 RMK AO2 T00560056=
202210191253 METAR KBLI 191253Z AUTO 00000KT 1SM R16/P6000FT BR VV018 06/06 A3030 RMK AO2 SLP268 T00610061=
202210191243 SPECI KBLI 191243Z AUTO 00000KT 1SM R16/P6000FT BR VV018 06/06 A3030 RMK AO2 T00610061=
202210191234 SPECI KBLI 191234Z AUTO 00000KT 3/4SM R16/4000VP6000FT BR VV018 06/06 A3030 RMK AO2 T00610061=
202210191220 SPECI KBLI 191220Z AUTO 00000KT 1SM R16/3000VP6000FT BR VV018 06/06 A3030 RMK AO2 T00610061=
202210191206 SPECI KBLI 191206Z AUTO 00000KT 3/4SM R16/P6000FT BR VV018 07/07 A3030 RMK AO2 T00670067=
202210191153 METAR KBLI 191153Z AUTO 36003KT 1SM R16/5500VP6000FT BR VV018 07/07 A3030 RMK AO2 SLP267 T00670067 10089 20061 50002=
202210191115 SPECI KBLI 191115Z AUTO 00000KT 1SM R16/1800VP6000FT BR VV019 06/06 A3030 RMK AO2 T00610061=
202210191106 SPECI KBLI 191106Z AUTO 36003KT 3/4SM R16/P6000FT BR VV019 06/06 A3030 RMK AO2 T00610061=
202210191053 METAR KBLI 191053Z AUTO 35003KT 1 1/4SM R16/3500VP6000FT BR OVC019 07/07 A3030 RMK AO2 SLP269 T00670067=
202210191011 SPECI KBLI 191011Z AUTO 00000KT 1SM R16/P6000FT BR VV018 06/06 A3030 RMK AO2 T00610061=
202210191002 SPECI KBLI 191002Z AUTO 00000KT 3/4SM R16/P6000FT BR VV018 06/06 A3030 RMK AO2 T00610061=
202210190953 METAR KBLI 190953Z AUTO 03003KT 1SM R16/P6000FT BR VV018 07/07 A3030 RMK AO2 SLP268 T00670067=
202210190945 SPECI KBLI 190945Z AUTO 00000KT 3/4SM R16/4500VP6000FT BR VV018 07/07 A3030 RMK AO2 T00670067=
202210190920 SPECI KBLI 190920Z AUTO 00000KT 1SM R16/3500VP6000FT BR VV018 08/08 A3030 RMK AO2 T00780078=
202210190853 METAR KBLI 190853Z AUTO 00000KT 1/2SM R16/5000VP6000FT FG VV018 07/07 A3029 RMK AO2 SLP266 T00670067 50005=
202210190849 SPECI KBLI 190849Z AUTO 00000KT 3/4SM R16/6000VP6000FT BR VV018 07/07 A3029 RMK AO2=
202210190845 SPECI KBLI 190845Z AUTO 00000KT 1SM R16/P6000FT BR CLR 08/08 A3029 RMK AO2 T00780078=
202210190840 SPECI KBLI 190840Z AUTO 00000KT 3/4SM R16/P6000FT BR VV019 08/08 A3029 RMK AO2 T00780078=
202210190806 SPECI KBLI 190806Z AUTO 00000KT 1 1/4SM BR OVC019 08/08 A3030 RMK AO2 T00780078=
202210190758 SPECI KBLI 190758Z AUTO 00000KT 3/4SM R16/P6000FT BR VV019 08/08 A3030 RMK AO2 T00780078=
202210190753 METAR KBLI 190753Z AUTO 00000KT 1/4SM R16/P6000FT FG VV019 07/07 A3030 RMK AO2 SLP267 T00720072 401830044=
202210190741 SPECI KBLI 190741Z AUTO 00000KT 1/2SM R16/P6000FT FG VV019 08/08 A3030 RMK AO2 T00780078=
202210190733 SPECI KBLI 190733Z AUTO 00000KT 3/4SM R16/P6000FT BR VV020 08/08 A3029 RMK AO2 T00780078=
202210190717 SPECI KBLI 190717Z AUTO 00000KT 1 1/4SM BR SCT020 08/08 A3028 RMK AO2 T00780078=
202210190711 SPECI KBLI 190711Z AUTO 00000KT 3/4SM R16/6000VP6000FT BR VV020 08/08 A3028 RMK AO2 T00780078=
202210190704 SPECI KBLI 190704Z AUTO 00000KT 1/2SM R16/P6000FT FG SCT022 08/08 A3028 RMK AO2 T00780078=
202210190700 SPECI KBLI 190700Z AUTO 00000KT 1 1/4SM BR SCT022 08/08 A3028 RMK AO2 T00830078=
202210190653 METAR KBLI 190653Z AUTO 00000KT 1SM R16/P6000FT BR BKN022 08/08 A3028 RMK AO2 SLP260 T00780078=
202210190553 METAR KBLI 190553Z AUTO 00000KT 1 1/4SM BR OVC023 09/08 A3027 RMK AO2 SLP259 T00890083 10167 20078 51013=
202210190529 SPECI KBLI 190529Z AUTO 00000KT 1 1/2SM BR OVC022 08/08 A3028 RMK AO2 T00780078=
202210190453 METAR KBLI 190453Z 00000KT 2SM FU OVC021 09/09 A3027 RMK AO2 SLP258 T00890089=
202210190353 METAR KBLI 190353Z 00000KT 2SM FU OVC022 09/08 A3026 RMK AO2 SLP253 T00890083=
202210190253 METAR KBLI 190253Z 00000KT 1 3/4SM FU BKN018 10/09 A3024 RMK AO2 SLP247 T01000094 53006=
202210190153 METAR KBLI 190153Z 00000KT 2SM FU OVC022 12/10 A3022 RMK AO2 SLP243 T01170100=
202210190053 METAR KBLI 190053Z 00000KT 1SM R16/P6000FT FU OVC025 14/11 A3022 RMK AO2 SLP243 T01390111=
202210182353 METAR KBLI 182353Z 00000KT 1SM R16/P6000FT FU OVC027 17/12 A3022 RMK AO2 SLP240 T01670117 10183 20122 55003=
202210182253 METAR KBLI 182253Z VRB03KT 1SM R16/P6000FT FU OVC025 18/09 A3022 RMK AO2 SLP239 T01830094=
202210182153 METAR KBLI 182153Z VRB04KT 1SM R16/P6000FT FU OVC024 18/09 A3021 RMK AO2 SLP238 T01830089=
202210182053 METAR KBLI 182053Z VRB04KT 2SM HZ BKN027 OVC034 17/10 A3023 RMK AO2 SLP243 T01720100 58005=
202210181953 METAR KBLI 181953Z 00000KT 2 1/2SM HZ OVC028 16/11 A3024 RMK AO2 SLP246 T01560106=
202210181942 SPECI KBLI 181942Z 31003KT 2 1/2SM HZ OVC027 15/11 A3024 RMK AO2 T01500106=
202210181853 METAR KBLI 181853Z 00000KT 5SM HZ OVC028 14/12 A3024 RMK AO2 SLP248 T01440117=
202210181801 SPECI KBLI 181801Z 00000KT 3SM BR OVC014 13/12 A3024 RMK AO2 T01280117=
202210181753 METAR KBLI 181753Z 00000KT 3SM BR OVC032 12/11 A3024 RMK AO2 SLP248 T01220111 10122 20044 51005=
202210181726 SPECI KBLI 181726Z 00000KT 3SM BR OVC034 11/11 A3024 RMK AO2 T01110111=
202210181719 SPECI KBLI 181719Z 00000KT 2SM BR BKN034 11/11 A3024 RMK AO2 T01060106=
202210181653 METAR KBLI 181653Z 00000KT 3SM BR FEW002 SCT032 10/10 A3024 RMK AO2 SLP247 T01000100=
202210181648 SPECI KBLI 181648Z 00000KT 3SM BR FEW002 09/09 A3024 RMK AO2=
202210181631 SPECI KBLI 181631Z 00000KT 2 1/2SM BR SCT001 SCT021 09/09 A3024 RMK AO2 T00890089=
202210181616 SPECI KBLI 181616Z 00000KT 2SM BR OVC001 08/08 A3023 RMK AO2 T00780078=
202210181612 SPECI KBLI 181612Z 00000KT 3/4SM R16/5500VP6000FT BR OVC001 08/08 A3023 RMK AO2 T00780078=
202210181605 SPECI KBLI 181605Z 00000KT 1/4SM R16/1000VP6000FT FG VV001 08/08 A3023 RMK AO2 T00780078=
202210181553 METAR KBLI 181553Z 00000KT M1/4SM R16/0600V1400FT FG VV001 07/07 A3023 RMK AO2 SLP244 T00720072=
202210181538 SPECI KBLI 181538Z 00000KT M1/4SM R16/0500V0700FT FG VV001 07/07 A3022 RMK AO2 T00670067=
202210181530 SPECI KBLI 181530Z 00000KT 1/4SM R16/0700V1000FT FG VV001 06/06 A3022 RMK AO2 T00610061=
202210181510 SPECI KBLI 181510Z 00000KT M1/4SM R16/0800V2000FT FG VV001 06/06 A3021 RMK AO2 T00560056=
202210181500 SPECI KBLI 181500Z 00000KT 1/4SM R16/2400VP6000FT FG VV001 06/06 A3020 RMK AO2 T00560056=
202210181453 METAR KBLI 181453Z 00000KT 1/2SM R16/1200VP6000FT FG VV002 05/05 A3020 RMK AO2 SLP235 T00500050 51009=
202210181446 SPECI KBLI 181446Z 00000KT 2 1/2SM R16/1400VP6000FT BR BKN003 06/06 A3020 RMK AO2 T00560056=
202210181427 SPECI KBLI 181427Z 00000KT 5SM R16/1400VP6000FT BR SCT008 06/06 A3020 RMK AO2 T00560056=
202210181353 METAR KBLI 181353Z 00000KT 2SM BR FEW006 06/06 A3019 RMK AO2 SLP233 T00560056=
202210181346 SPECI KBLI 181346Z AUTO 00000KT 2 1/2SM BR FEW006 05/05 A3019 RMK AO2 T00500050=
202210181334 SPECI KBLI 181334Z AUTO 00000KT 3/4SM R16/1200VP6000FT BR VV006 05/05 A3019 RMK AO2 T00500050=
202210181322 SPECI KBLI 181322Z AUTO 00000KT 1 3/4SM R16/3500VP6000FT BR SCT004 06/06 A3019 RMK AO2 T00560056=
202210181315 SPECI KBLI 181315Z AUTO 00000KT 1SM R16/3500VP6000FT BR VV004 06/06 A3019 RMK AO2 VIS 1/2V4 T00560056=
202210181311 SPECI KBLI 181311Z AUTO 00000KT 1/2SM R16/P6000FT FG VV003 06/06 A3019 RMK AO2 T00560056=
202210181304 SPECI KBLI 181304Z AUTO 00000KT 3/4SM R16/3000VP6000FT BR VV004 05/05 A3018 RMK AO2 VIS 1/4V3 T00500050=
202210181301 SPECI KBLI 181301Z AUTO 00000KT 1 3/4SM R16/3000VP6000FT BR SCT004 05/05 A3018 RMK AO2 T00500050=
202210181253 METAR KBLI 181253Z AUTO 00000KT 3SM BR SCT004 05/05 A3018 RMK AO2 SLP229 T00500050=
202210181250 SPECI KBLI 181250Z AUTO 00000KT 3SM BR SCT004 06/06 A3018 RMK AO2=
202210181242 SPECI KBLI 181242Z AUTO 00000KT 2SM BR BKN004 06/06 A3018 RMK AO2 T00560056=
202210181237 SPECI KBLI 181237Z AUTO 00000KT 3/4SM R16/5500VP6000FT BR VV004 06/06 A3018 RMK AO2 T00560056=
202210181233 SPECI KBLI 181233Z AUTO 00000KT 1/4SM R16/1400VP6000FT FG VV004 06/06 A3018 RMK AO2 T00560056=
202210181225 SPECI KBLI 181225Z AUTO 00000KT 1/2SM R16/1200V3000FT FG VV004 05/05 A3018 RMK AO2 VIS M1/4V4 T00500050=
202210181223 SPECI KBLI 181223Z AUTO 00000KT 1SM R16/1200V3000FT BR VV004 06/06 A3018 RMK AO2 VIS 1/2V5 T00560056=
202210181218 SPECI KBLI 181218Z AUTO 00000KT 1 3/4SM R16/1600V2600FT BR SCT005 05/05 A3018 RMK AO2 T00500050=
202210181216 SPECI KBLI 181216Z AUTO 00000KT 5SM R16/1600V2600FT BR SCT005 06/06 A3017 RMK AO2 T00560056=
202210181153 METAR KBLI 181153Z AUTO 00000KT 5SM R16/5500VP6000FT BR BKN005 06/06 A3017 RMK AO2 SLP224 T00560056 10094 20056 51008=
202210181148 SPECI KBLI 181148Z AUTO 00000KT 3SM BR BKN005 06/06 A3017 RMK AO2=
202210181146 SPECI KBLI 181146Z AUTO 00000KT 1 1/4SM BR BKN005 06/06 A3017 RMK AO2 T00610061=
202210181137 SPECI KBLI 181137Z AUTO 00000KT 1/2SM R16/P6000FT FG VV005 06/06 A3017 RMK AO2 T00610061=
202210181126 SPECI KBLI 181126Z AUTO 00000KT 1SM R16/P6000FT BR VV005 06/06 A3017 RMK AO2 VIS 1/2V3 T00610061=
202210181118 SPECI KBLI 181118Z AUTO 00000KT 1/2SM R16/P6000FT FG VV005 06/06 A3017 RMK AO2 T00560056=
202210181109 SPECI KBLI 181109Z AUTO 00000KT 1/4SM R16/3500VP6000FT FG VV006 07/07 A3017 RMK AO2 T00670067=
202210181103 SPECI KBLI 181103Z AUTO 00000KT 3/4SM R16/1600VP6000FT BR VV006 06/06 A3016 RMK AO2 T00610061=
202210181100 SPECI KBLI 181100Z AUTO 00000KT 1SM R16/1600VP6000FT BR CLR 06/06 A3016 RMK AO2 T00610061=
202210181053 METAR KBLI 181053Z AUTO 00000KT 2SM R16/3500VP6000FT BR CLR 07/07 A3016 RMK AO2 SLP222 T00670067=
202210181037 SPECI KBLI 181037Z AUTO 00000KT 4SM R16/1800VP6000FT BR SCT003 07/07 A3016 RMK AO2 T00720072=
202210181034 SPECI KBLI 181034Z AUTO 33003KT 2SM R16/1400VP6000FT BR BKN003 07/07 A3016 RMK AO2 VIS 1/2V5 T00670067=
202210181030 SPECI KBLI 181030Z AUTO 33003KT 3/4SM R16/1200VP6000FT BR VV003 07/07 A3016 RMK AO2 T00670067=
202210181028 SPECI KBLI 181028Z AUTO 00000KT 1/2SM R16/1200V1800FT FG VV003 07/07 A3016 RMK AO2 T00670067=
202210181020 SPECI KBLI 181020Z AUTO 00000KT 1/2SM R16/1000VP6000FT FG VV002 06/06 A3016 RMK AO2 VIS 1/4V5 T00610061=
202210181011 SPECI KBLI 181011Z AUTO 00000KT 1SM R16/2800VP6000FT BR VV003 07/07 A3016 RMK AO2 T00670067=
202210181004 SPECI KBLI 181004Z AUTO 00000KT 1/2SM R16/1800VP6000FT FG VV004 07/07 A3016 RMK AO2 T00670067=
202210180953 METAR KBLI 180953Z AUTO 00000KT 3/4SM R16/1200V4000FT BR VV008 07/07 A3016 RMK AO2 SLP220 T00670067=
202210180951 SPECI KBLI 180951Z AUTO 00000KT 3/4SM R16/1400V4000FT BR VV008 06/06 A3016 RMK AO2=
202210180947 SPECI KBLI 180947Z AUTO 00000KT 1 1/4SM R16/1600V3000FT BR FEW009 07/06 A3016 RMK AO2=
202210180916 SPECI KBLI 180916Z AUTO 00000KT 6SM BR SCT009 07/07 A3015 RMK AO2 T00720072=
202210180912 SPECI KBLI 180912Z AUTO 00000KT 2SM BR BKN009 07/07 A3015 RMK AO2 T00720072=
202210180906 SPECI KBLI 180906Z AUTO 00000KT 3/4SM R16/1800VP6000FT BR VV009 07/07 A3015 RMK AO2 T00720072=
202210180853 METAR KBLI 180853Z AUTO 00000KT 1/2SM R16/2000VP6000FT FG VV010 07/07 A3015 RMK AO2 SLP217 T00720072 51003=
202210180844 SPECI KBLI 180844Z AUTO 00000KT 1/2SM R16/1800VP6000FT FG VV010 07/07 A3015 RMK AO2 T00720072=
202210180840 SPECI KBLI 180840Z AUTO 00000KT 1 3/4SM R16/6000VP6000FT BR CLR 07/07 A3015 RMK AO2 VIS 1/2V5 T00720072=
202210180753 METAR KBLI 180753Z AUTO 00000KT 6SM BR CLR 09/09 A3015 RMK AO2 SLP215 T00890089 401780078=
202210180730 SPECI KBLI 180730Z AUTO 00000KT 7SM CLR 08/08 A3015 RMK AO2 T00830083=
202210180723 SPECI KBLI 180723Z AUTO 00000KT 2 1/2SM BR CLR 08/08 A3015 RMK AO2 VIS 1V5 T00830078=
202210180714 SPECI KBLI 180714Z AUTO 00000KT 1SM R16/P6000FT BR VV007 08/08 A3014 RMK AO2 T00780078=
202210180708 SPECI KBLI 180708Z AUTO 00000KT 3SM BR CLR 08/08 A3014 RMK AO2 T00830083=
202210180659 SPECI KBLI 180659Z AUTO 00000KT 1 3/4SM BR CLR 08/08 A3015 RMK AO2 T00830083=
202210180653 METAR KBLI 180653Z AUTO 00000KT 8SM CLR 08/08 A3015 RMK AO2 SLP216 T00830083=
202210180553 METAR KBLI 180553Z AUTO 00000KT 8SM CLR 09/09 A3014 RMK AO2 SLP214 T00940089 10178 20089 51007=
202210180453 METAR KBLI 180453Z 00000KT 8SM CLR 10/10 A3014 RMK AO2 SLP212 T01000100=
202210180353 METAR KBLI 180353Z 00000KT 10SM CLR 10/09 A3014 RMK AO2 SLP212 T01000089=
202210180253 METAR KBLI 180253Z 00000KT 10SM CLR 12/11 A3012 RMK AO2 SLP206 T01170111 53006=
202210180153 METAR KBLI 180153Z 00000KT 10SM CLR 12/11 A3010 RMK AO2 SLP201 T01220111=
202210180053 METAR KBLI 180053Z 00000KT 10SM CLR 14/12 A3010 RMK AO2 SLP199 T01390117=
202210172353 METAR KBLI 172353Z 18004KT 10SM CLR 18/12 A3010 RMK AO2 SLP199 T01780122 10178 20156 56007=
202210172253 METAR KBLI 172253Z AUTO 22005KT 10SM CLR 18/12 A3010 RMK AO2 SLP199 T01780117=
202210172153 METAR KBLI 172153Z 20006KT 10SM CLR 17/12 A3010 RMK AO2 SLP199 T01720117=
202210172053 METAR KBLI 172053Z VRB05KT 10SM CLR 17/12 A3012 RMK AO2 SLP206 T01720122 58007=
202210171953 METAR KBLI 171953Z 22006KT 10SM CLR 17/12 A3013 RMK AO2 SLP209 T01670122=
202210171853 METAR KBLI 171853Z 17006KT 10SM FEW021 16/12 A3013 RMK AO2 SLP210 T01610122=
202210171753 METAR KBLI 171753Z 18006KT 10SM FEW020 16/12 A3014 RMK AO2 SLP213 T01560122 10156 20083 51004=
202210171653 METAR KBLI 171653Z 18004KT 10SM BKN019 14/12 A3014 RMK AO2 SLP213 T01390122=
202210171553 METAR KBLI 171553Z 15003KT 7SM CLR 11/11 A3013 RMK AO2 SLP210 T01110111=
202210171453 METAR KBLI 171453Z 00000KT 7SM CLR 09/09 A3012 RMK AO2 SLP205 T00890089 53012=
202210171353 METAR KBLI 171353Z 00000KT 9SM CLR 10/10 A3010 RMK AO2 SLP199 T01000100=
202210171253 METAR KBLI 171253Z AUTO 15009KT 10SM CLR 13/12 A3009 RMK AO2 SLP194 T01280117=
202210171153 METAR KBLI 171153Z AUTO 18004KT 9SM CLR 12/11 A3008 RMK AO2 SLP192 T01220111 10144 20122 51007=
202210171053 METAR KBLI 171053Z AUTO 18005KT 10SM CLR 13/11 A3007 RMK AO2 SLP189 T01280111=
202210170953 METAR KBLI 170953Z AUTO VRB03KT 10SM CLR 12/11 A3007 RMK AO2 SLP187 T01220111=
202210170853 METAR KBLI 170853Z AUTO 18003KT 10SM CLR 13/12 A3006 RMK AO2 SLP185 T01330117 53023=
202210170753 METAR KBLI 170753Z AUTO 18007G16KT 10SM CLR 14/11 A3003 RMK AO2 SLP175 T01390111 402670056=
202210170653 METAR KBLI 170653Z AUTO 18011G20KT 10SM CLR 14/11 A3001 RMK AO2 SLP169 T01390111=
202210170553 METAR KBLI 170553Z AUTO 18012G24KT 9SM CLR 14/11 A2999 RMK AO2 SLP162 T01440106 10244 20122 53019=
202210170453 METAR KBLI 170453Z 19006KT 6SM HZ CLR 14/11 A2996 RMK AO2 SLP152 T01390106=
202210170353 METAR KBLI 170353Z 19004KT 8SM FEW050 14/09 A2995 RMK AO2 SLP149 T01390094=
202210170321 SPECI KBLI 170321Z 20005KT 5SM FU FEW050 13/10 A2994 RMK AO2 T01330100=
202210170253 METAR KBLI 170253Z 17003KT 5SM FU FEW050 12/10 A2993 RMK AO2 SLP144 T01220100 53006=
202210170153 METAR KBLI 170153Z 00000KT 5SM FU FEW030 14/10 A2991 RMK AO2 SLP136 T01390100=
202210170053 METAR KBLI 170053Z 33003KT 3SM FU FEW030 18/12 A2991 RMK AO2 SLP134 T01830117=
202210162353 METAR KBLI 162353Z 04005KT 3SM FU SCT050 24/06 A2992 RMK AO2 SLP137 T02440061 10267 20200 56008=
202210162253 METAR KBLI 162253Z 03007KT 3SM FU FEW043 26/06 A2992 RMK AO2 SLP138 T02610061=
202210162153 METAR KBLI 162153Z 02006KT 3SM FU SCT043 26/06 A2993 RMK AO2 SLP142 T02610056=
202210162053 METAR KBLI 162053Z 18003KT 3SM FU CLR 23/12 A2994 RMK AO2 SLP145 T02280117 58010=
202210161953 METAR KBLI 161953Z VRB03KT 3SM FU CLR 21/11 A2996 RMK AO2 SLP151 T02110106=
202210161905 SPECI KBLI 161905Z 18004KT 4SM FU CLR 21/12 A2997 RMK AO2 T02110117=
202210161853 METAR KBLI 161853Z 00000KT 2 1/2SM FU CLR 23/07 A2997 RMK AO2 SLP155 T02280067=
202210161830 SPECI KBLI 161830Z 00000KT 2 1/2SM FU CLR 21/08 A2997 RMK AO2 T02110078=
202210161753 METAR KBLI 161753Z 03003KT 3SM FU CLR 20/08 A2997 RMK AO2 SLP155 T02000078 10200 20056 51004=
202210161653 METAR KBLI 161653Z 00000KT 4SM HZ CLR 16/09 A2997 RMK AO2 SLP156 T01560089=
202210161553 METAR KBLI 161553Z 00000KT 7SM CLR 09/08 A2996 RMK AO2 SLP153 T00940083=
202210161453 METAR KBLI 161453Z 00000KT 6SM BR CLR 07/06 A2996 RMK AO2 SLP153 T00670061 53003=
202210161353 METAR KBLI 161353Z 00000KT 8SM CLR 07/06 A2995 RMK AO2 SLP147 T00670061=
202210161253 METAR KBLI 161253Z AUTO 00000KT 9SM CLR 07/06 A2995 RMK AO2 SLP148 T00720061=
202210161153 METAR KBLI 161153Z AUTO 00000KT 9SM CLR 07/07 A2995 RMK AO2 SLP149 T00720072 10100 20067 58003=
202210161123 SPECI KBLI 161123Z AUTO 00000KT 3SM BR BKN039 07/07 A2996 RMK AO2 T00670067=
202210161118 SPECI KBLI 161118Z AUTO 00000KT 1SM R16/P6000FT BR BKN039 07/07 A2996 RMK AO2 T00670067=
202210161053 METAR KBLI 161053Z AUTO 00000KT 1/2SM R16/5000VP6000FT FG BKN039 07/06 A2996 RMK AO2 SLP151 T00720061=
202210161048 SPECI KBLI 161048Z AUTO 00000KT 3/4SM R16/5500VP6000FT BR BKN039 07/07 A2996 RMK AO2=
202210161040 SPECI KBLI 161040Z AUTO 00000KT 2 1/2SM R16/2000VP6000FT BR BKN041 07/06 A2996 RMK AO2 T00670061=
202210161036 SPECI KBLI 161036Z AUTO 00000KT 3/4SM R16/2000VP6000FT BR BKN041 07/07 A2996 RMK AO2 T00720067=
202210161013 SPECI KBLI 161013Z AUTO 00000KT 1 1/4SM R16/2800VP6000FT BR SCT050 07/07 A2997 RMK AO2 T00720067=
202210161010 SPECI KBLI 161010Z AUTO 00000KT 3SM R16/5500VP6000FT BR FEW055 08/07 A2997 RMK AO2 T00780067=
202210161002 SPECI KBLI 161002Z AUTO 00000KT 1 3/4SM BR FEW055 07/07 A2996 RMK AO2 T00720067=
202210160953 METAR KBLI 160953Z AUTO 00000KT 5SM R16/5000VP6000FT BR FEW055 08/08 A2996 RMK AO2 SLP152 T00830078=
202210160902 SPECI KBLI 160902Z AUTO 00000KT 3SM BR BKN050 08/07 A2996 RMK AO2 T00830072=
202210160853 METAR KBLI 160853Z AUTO 00000KT 1 3/4SM BR BKN055 08/07 A2996 RMK AO2 VIS 3/4V5 SLP152 T00780072 53002=
202210160753 METAR KBLI 160753Z AUTO 00000KT 10SM OVC055 09/09 A2996 RMK AO2 SLP151 T00890089 402220056=
202210160653 METAR KBLI 160653Z AUTO 00000KT 10SM BKN060 09/08 A2995 RMK AO2 SLP150 T00890078=
202210160553 METAR KBLI 160553Z AUTO 00000KT 10SM BKN060 10/09 A2995 RMK AO2 SLP150 T01000089 10189 20089 50003=
202210160453 METAR KBLI 160453Z 00000KT 8SM BKN060 09/09 A2995 RMK AO2 SLP150 T00890089=
202210160353 METAR KBLI 160353Z 00000KT 8SM SCT060 11/10 A2995 RMK AO2 SLP149 T01060100=
202210160253 METAR KBLI 160253Z 00000KT 8SM FEW070 12/12 A2994 RMK AO2 SLP147 T01220117 55000=
202210160153 METAR KBLI 160153Z 00000KT 8SM FEW065 13/12 A2994 RMK AO2 SLP147 T01280117=
202210160053 METAR KBLI 160053Z 00000KT 8SM CLR 16/13 A2994 RMK AO2 SLP146 T01610133=
202210152353 METAR KBLI 152353Z 18003KT 8SM CLR 19/13 A2994 RMK AO2 SLP146 T01890133 10222 20156 56012=
202210152253 METAR KBLI 152253Z 00000KT 10SM CLR 22/13 A2995 RMK AO2 SLP146 T02220133=
202210152153 METAR KBLI 152153Z 23003KT 8SM CLR 21/13 A2996 RMK AO2 SLP150 T02110128=
202210152053 METAR KBLI 152053Z 19004KT 8SM CLR 19/12 A2998 RMK AO2 SLP158 T01940117 58012=
202210151953 METAR KBLI 151953Z 24004KT 10SM FU CLR 19/13 A2999 RMK AO2 SLP164 T01890128=
202210151853 METAR KBLI 151853Z 28003KT 10SM FU CLR 18/13 A3001 RMK AO2 SLP168 T01780128=
202210151753 METAR KBLI 151753Z 00000KT 8SM FU CLR 16/12 A3001 RMK AO2 SLP170 T01610122 10161 20056 51004=
202210151653 METAR KBLI 151653Z 00000KT 8SM FU CLR 13/11 A3001 RMK AO2 SLP169 T01280111=
202210151553 METAR KBLI 151553Z 00000KT 6SM FU CLR 09/08 A3001 RMK AO2 SLP171 T00890083=
202210151453 METAR KBLI 151453Z 00000KT 5SM FU CLR 06/06 A3000 RMK AO2 SLP167 T00610061 52003=
202210151353 METAR KBLI 151353Z 00000KT 4SM FU CLR 06/06 A2999 RMK AO2 SLP164 T00610061=
202210151330 SPECI KBLI 151330Z AUTO 31003KT 3SM BR FEW009 07/07 A3000 RMK AO2 T00720072=
202210151319 SPECI KBLI 151319Z AUTO 00000KT 1 1/4SM R16/3000VP6000FT BR FEW009 07/07 A3000 RMK AO2 VIS 1/2V4 T00670067=
202210151301 SPECI KBLI 151301Z AUTO 00000KT 2SM R16/5500VP6000FT BR CLR 07/07 A3000 RMK AO2 T00670067=
202210151253 METAR KBLI 151253Z AUTO 00000KT 3SM R16/2600VP6000FT BR CLR 07/07 A3000 RMK AO2 SLP166 T00670067=
202210151235 SPECI KBLI 151235Z AUTO 00000KT 5SM BR FEW005 07/07 A3000 RMK AO2 T00670067=
202210151228 SPECI KBLI 151228Z AUTO 00000KT 1 3/4SM BR FEW005 07/07 A3000 RMK AO2 T00720072=
202210151219 SPECI KBLI 151219Z AUTO 00000KT 3/4SM R16/2000VP6000FT BR VV005 07/07 A3000 RMK AO2 T00670067=
202210151209 SPECI KBLI 151209Z AUTO 00000KT 1 1/4SM R16/1800VP6000FT BR FEW008 07/07 A3000 RMK AO2 VIS 1/2V2 1/2 T00670067=
202210151201 SPECI KBLI 151201Z AUTO 00000KT 3/4SM R16/1400V3000FT BR VV007 08/08 A3000 RMK AO2 VIS 1/4V5 T00780078=
202210151153 METAR KBLI 151153Z AUTO 00000KT 1 3/4SM R16/1200V1600FT BR BKN007 07/07 A2999 RMK AO2 VIS 3/4V5 SLP164 T00720067 10094 20061 50000=
202210151143 SPECI KBLI 151143Z AUTO 00000KT 1SM R16/1000V1600FT BR VV007 07/07 A3000 RMK AO2 T00720072=
202210151140 SPECI KBLI 151140Z AUTO 00000KT 1 1/4SM R16/1000VP6000FT BR SCT007 07/07 A3000 RMK AO2 T00670067=
202210151133 SPECI KBLI 151133Z AUTO 00000KT 3SM R16/2200VP6000FT BR FEW007 06/06 A3000 RMK AO2 T00610061=
202210151130 SPECI KBLI 151130Z AUTO 00000KT 2 1/2SM R16/2200VP6000FT BR CLR 07/07 A3000 RMK AO2 VIS 1 3/4V5 T00720067=
202210151053 METAR KBLI 151053Z AUTO 00000KT 5SM BR SCT009 07/07 A3000 RMK AO2 SLP165 T00720072=
202210151051 SPECI KBLI 151051Z AUTO 00000KT 2SM BR SCT009 07/07 A3000 RMK AO2=
202210151049 SPECI KBLI 151049Z AUTO 00000KT 1SM R16/P6000FT BR VV009 07/07 A3000 RMK AO2=
202210151045 SPECI KBLI 151045Z AUTO 00000KT 1/2SM R16/1600VP6000FT FG VV009 07/07 A3000 RMK AO2 T00720072=
202210151034 SPECI KBLI 151034Z AUTO 00000KT 1/2SM R16/1400VP6000FT FG VV010 08/08 A3000 RMK AO2 T00780078=
202210151030 SPECI KBLI 151030Z AUTO 00000KT 1 1/4SM R16/2800VP6000FT BR FEW012 07/07 A3000 RMK AO2 VIS 1/4V5 T00720072=
202210151015 SPECI KBLI 151015Z AUTO 00000KT 4SM BR FEW015 08/08 A3000 RMK AO2 T00780078=
202210151005 SPECI KBLI 151005Z AUTO 00000KT 1 3/4SM BR FEW016 07/07 A2999 RMK AO2 VIS 1/2V5 T00720072=
202210150953 METAR KBLI 150953Z AUTO 00000KT 8SM CLR 07/07 A3000 RMK AO2 SLP165 T00720072=
202210150853 METAR KBLI 150853Z AUTO 00000KT 6SM R16/4500VP6000FT BR CLR 08/08 A2999 RMK AO2 SLP163 T00780078 56002=
202210150842 SPECI KBLI 150842Z AUTO 31003KT 9SM R16/1600VP6000FT CLR 08/08 A2999 RMK AO2 T00780078=
202210150835 SPECI KBLI 150835Z AUTO 00000KT 2 1/2SM R16/4000VP6000FT BR CLR 08/08 A2998 RMK AO2 T00830078=
202210150753 METAR KBLI 150753Z AUTO 00000KT 5SM BR CLR 08/08 A3000 RMK AO2 SLP163 T00830083 402170056=
202210150653 METAR KBLI 150653Z AUTO 00000KT 8SM CLR 09/09 A2999 RMK AO2 SLP163 T00940089=
202210150553 METAR KBLI 150553Z AUTO 00000KT 8SM CLR 09/09 A3000 RMK AO2 SLP166 T00890089 10178 20089 51007=
202210150453 METAR KBLI 150453Z 00000KT 8SM CLR 09/09 A2999 RMK AO2 SLP163 T00890089=
202210150353 METAR KBLI 150353Z 00000KT 8SM CLR 10/10 A2999 RMK AO2 SLP161 T01000100=
202210150253 METAR KBLI 150253Z 00000KT 8SM CLR 11/10 A2998 RMK AO2 SLP159 T01110100 58000=
202210150153 METAR KBLI 150153Z 00000KT 6SM FU CLR 13/11 A2999 RMK AO2 SLP162 T01330111=
202210150053 METAR KBLI 150053Z 00000KT 7SM FU CLR 16/11 A2999 RMK AO2 SLP161 T01560111=
202210142353 METAR KBLI 142353Z 00000KT 6SM FU CLR 17/11 A2998 RMK AO2 SLP158 T01720111 10217 20156 58014=
202210142253 METAR KBLI 142253Z 30005KT 6SM FU CLR 19/12 A3000 RMK AO2 SLP165 T01890122=
202210142153 METAR KBLI 142153Z 32004KT 6SM FU CLR 20/11 A3000 RMK AO2 SLP167 T02000106=
202210142053 METAR KBLI 142053Z 33005KT 5SM FU CLR 21/11 A3002 RMK AO2 SLP172 T02060111 57018=
202210141953 METAR KBLI 141953Z 36003KT 6SM FU CLR 20/09 A3004 RMK AO2 SLP179 T02000094=
202210141853 METAR KBLI 141853Z 00000KT 10SM CLR 18/11 A3005 RMK AO2 SLP184 T01780111=
202210141753 METAR KBLI 141753Z VRB03KT 10SM CLR 16/12 A3007 RMK AO2 SLP191 T01560117 10156 20056 50004=
202210141653 METAR KBLI 141653Z 36003KT 10SM CLR 13/11 A3008 RMK AO2 SLP191 T01330111=
202210141553 METAR KBLI 141553Z 00000KT 10SM CLR 11/10 A3007 RMK AO2 SLP189 T01110100=
202210141503 SPECI KBLI 141503Z 00000KT 10SM R16/6000VP6000FT SCT002 08/08 A3007 RMK AO2 T00780078=
202210141453 METAR KBLI 141453Z 00000KT 10SM R16/1800V5500FT CLR 07/06 A3006 RMK AO2 SLP187 T00670061 56004=
202210141353 METAR KBLI 141353Z 00000KT 4SM R16/3000VP6000FT FEW002 06/06 A3007 RMK AO2 SLP188 T00610061=
202210141318 SPECI KBLI 141318Z AUTO 00000KT 3SM BR FEW002 06/06 A3007 RMK AO2 T00610061=
202210141310 SPECI KBLI 141310Z AUTO 00000KT 1 3/4SM BR FEW002 07/07 A3007 RMK AO2 VIS 1/2V5 T00720072=
202210141253 METAR KBLI 141253Z AUTO 00000KT 10SM CLR 07/06 A3007 RMK AO2 SLP188 T00670061=
202210141200 SPECI KBLI 141200Z AUTO 00000KT 9SM R16/4000VP6000FT CLR 07/07 A3007 RMK AO2 T00720072=
202210141153 METAR KBLI 141153Z AUTO 00000KT 2SM BR CLR 08/08 A3007 RMK AO2 SLP191 T00780078 10100 20067 56002=
202210141143 SPECI KBLI 141143Z AUTO 00000KT 1 1/2SM BR CLR 07/07 A3007 RMK AO2 T00720072=
202210141131 SPECI KBLI 141131Z AUTO 00000KT 3SM BR CLR 07/07 A3007 RMK AO2 T00670067=
202210141114 SPECI KBLI 141114Z AUTO 00000KT 1SM R16/5000VP6000FT BR CLR 07/06 A3007 RMK AO2 VIS 1/4V2 1/2 T00670061=
202210141110 SPECI KBLI 141110Z AUTO 00000KT 1/2SM R16/P6000FT FG CLR 07/07 A3008 RMK AO2 VIS 1/4V4 T00720072=
202210141104 SPECI KBLI 141104Z AUTO 00000KT 1 1/4SM BR CLR 08/08 A3007 RMK AO2 T00780078=
202210141053 METAR KBLI 141053Z AUTO 00000KT 10SM CLR 08/07 A3008 RMK AO2 SLP191 T00780072=
202210140953 METAR KBLI 140953Z AUTO 00000KT 10SM CLR 07/07 A3008 RMK AO2 SLP191 T00720072=
202210140938 SPECI KBLI 140938Z AUTO 00000KT 4SM BR CLR 08/08 A3008 RMK AO2 T00780078=
202210140926 SPECI KBLI 140926Z AUTO 00000KT 1 1/2SM BR CLR 08/08 A3008 RMK AO2 VIS 1/2V5 T00780078=
202210140853 METAR KBLI 140853Z AUTO 00000KT 10SM CLR 09/07 A3008 RMK AO2 SLP192 T00890072 56004=
202210140753 METAR KBLI 140753Z AUTO 00000KT 4SM BR CLR 08/08 A3008 RMK AO2 SLP192 T00830078 402330050=
202210140653 METAR KBLI 140653Z AUTO 00000KT 10SM CLR 09/08 A3008 RMK AO2 SLP194 T00890083=
202210140553 METAR KBLI 140553Z AUTO 00000KT 10SM CLR 10/09 A3009 RMK AO2 SLP197 T01000089 10189 20089 53002=
202210140453 METAR KBLI 140453Z 00000KT 10SM CLR 10/09 A3009 RMK AO2 SLP195 T01000089=
202210140353 METAR KBLI 140353Z 00000KT 8SM FEW025 10/09 A3008 RMK AO2 SLP194 T01000094=
202210140253 METAR KBLI 140253Z 00000KT 8SM FEW025 12/10 A3009 RMK AO2 SLP196 T01170100 56007=
202210140153 METAR KBLI 140153Z 00000KT 8SM FEW025 14/12 A3009 RMK AO2 SLP196 T01390117=
202210140053 METAR KBLI 140053Z 00000KT 8SM FU FEW025 17/12 A3009 RMK AO2 SLP198 T01670117=
202210132353 METAR KBLI 132353Z VRB04KT 8SM FEW025 19/11 A3011 RMK AO2 SLP202 T01890111 10233 20156 56017=
202210132253 METAR KBLI 132253Z 30007KT 8SM FEW025 21/11 A3012 RMK AO2 SLP206 T02060111=
202210132153 METAR KBLI 132153Z 30005KT 10SM FU CLR 23/12 A3013 RMK AO2 SLP209 T02280117=
202210132053 METAR KBLI 132053Z 00000KT 10SM FU CLR 23/11 A3016 RMK AO2 SLP218 T02280106 58016=
202210131953 METAR KBLI 131953Z 04004KT 8SM FU CLR 21/10 A3018 RMK AO2 SLP226 T02110100=
202210131853 METAR KBLI 131853Z 01005KT 7SM FU CLR 19/10 A3019 RMK AO2 SLP230 T01890100=
202210131753 METAR KBLI 131753Z 02004KT 7SM FU CLR 16/10 A3021 RMK AO2 SLP236 T01560100 10156 20050 50003=
202210131653 METAR KBLI 131653Z 02003KT 9SM CLR 12/11 A3021 RMK AO2 SLP238 T01220106=
202210131553 METAR KBLI 131553Z 00000KT 10SM CLR 09/09 A3021 RMK AO2 SLP236 T00940094=
202210131458 SPECI KBLI 131458Z 00000KT 3SM R16/1400VP6000FT BR CLR 06/06 A3020 RMK AO2 T00560056=
202210131455 SPECI KBLI 131455Z 00000KT 3/4SM R16/1400V5500FT BR BKN024 06/06 A3020 RMK AO2 VIS 1/4V5 T00560056=
202210131453 METAR KBLI 131453Z 00000KT 3SM R16/1400V4500FT BR OVC024 06/06 A3020 RMK AO2 SLP234 T00560056 55001=
202210131443 SPECI KBLI 131443Z 00000KT 3SM R16/2000VP6000FT BR FEW001 OVC020 06/06 A3020 RMK AO2 T00560056=
202210131436 SPECI KBLI 131436Z 00000KT 3/4SM R16/2400VP6000FT BR FEW001 OVC018 06/06 A3019 RMK AO2 T00560056=
202210131434 SPECI KBLI 131434Z 00000KT 2 1/2SM R16/2400VP6000FT BR FEW001 OVC018 06/06 A3020 RMK AO2 T00560056=
202210131429 SPECI KBLI 131429Z 00000KT 4SM R16/3500VP6000FT BR FEW001 OVC013 06/06 A3019 RMK AO2 T00610061=
202210131425 SPECI KBLI 131425Z 00000KT 3/4SM R16/P6000FT BR FEW001 OVC008 06/06 A3019 RMK AO2 T00610061=
202210131418 SPECI KBLI 131418Z 00000KT 2SM BR FEW001 OVC008 06/06 A3019 RMK AO2 T00610061=
202210131414 SPECI KBLI 131414Z 00000KT 3/4SM R16/P6000FT BR VV008 06/06 A3020 RMK AO2 T00560056=
202210131410 SPECI KBLI 131410Z 00000KT 1/4SM R16/P6000FT FG VV009 06/06 A3020 RMK AO2 T00560056=
202210131403 SPECI KBLI 131403Z 00000KT 1/2SM R16/P6000FT FG CLR 06/06 A3020 RMK AO2 T00610061=
202210131400 SPECI KBLI 131400Z 00000KT 1 1/2SM BR CLR 06/06 A3020 RMK AO2 VIS 1/4V5 T00610061=
202210131357 SPECI KBLI 131357Z 00000KT 3SM BR CLR 06/06 A3020 RMK AO2 T00560056=
202210131353 METAR KBLI 131353Z 00000KT 2 1/2SM BR BKN020 06/06 A3020 RMK AO2 VIS 1 1/4V5 SLP234 T00610061=
202210131348 SPECI KBLI 131348Z 00000KT 1SM R16/P6000FT BR BKN024 06/06 A3020 RMK AO2=
202210131338 SPECI KBLI 131338Z AUTO 00000KT 1/2SM R16/2400VP6000FT FG BKN022 06/06 A3020 RMK AO2 T00560056=
202210131328 SPECI KBLI 131328Z AUTO 00000KT 1SM R16/2800VP6000FT BR BKN021 06/06 A3020 RMK AO2 T00560056=
202210131319 SPECI KBLI 131319Z AUTO 00000KT 2SM BR OVC017 06/06 A3019 RMK AO2 T00610061=
202210131315 SPECI KBLI 131315Z AUTO 00000KT 3/4SM R16/P6000FT BR VV015 06/06 A3019 RMK AO2 T00610061=
202210131307 SPECI KBLI 131307Z AUTO 00000KT 1/2SM R16/P6000FT FG VV006 06/06 A3019 RMK AO2 T00560056=
202210131258 SPECI KBLI 131258Z AUTO 00000KT 3/4SM R16/P6000FT BR VV003 06/06 A3019 RMK AO2 T00610061=
202210131253 METAR KBLI 131253Z AUTO 00000KT 10SM OVC003 06/06 A3019 RMK AO2 SLP232 T00560056=
202210131245 SPECI KBLI 131245Z AUTO 00000KT 8SM OVC003 05/05 A3020 RMK AO2 T00500050=
202210131232 SPECI KBLI 131232Z AUTO 00000KT 3SM R16/1600V3500FT BR BKN005 06/06 A3020 RMK AO2 T00610061=
202210131221 SPECI KBLI 131221Z AUTO 00000KT 1SM R16/P6000FT BR VV008 06/06 A3020 RMK AO2 T00610061=
202210131215 SPECI KBLI 131215Z AUTO 00000KT 1 3/4SM R16/3500VP6000FT BR SCT017 07/07 A3020 RMK AO2 T00670067=
202210131159 SPECI KBLI 131159Z AUTO 00000KT 4SM R16/2200VP6000FT BR FEW003 06/06 A3020 RMK AO2 T00610061=
202210131153 METAR KBLI 131153Z AUTO 00000KT 1 1/2SM R16/2000V6000FT BR SCT003 06/06 A3020 RMK AO2 VIS 3/4V5 SLP234 T00610061 10089 20061 58002=
202210131140 SPECI KBLI 131140Z AUTO 00000KT 3/4SM R16/2200V3000FT BR VV003 07/07 A3020 RMK AO2 T00670067=
202210131136 SPECI KBLI 131136Z AUTO 00000KT 1 1/2SM R16/2200V3000FT BR CLR 06/06 A3020 RMK AO2 T00610061=
202210131106 SPECI KBLI 131106Z AUTO 00000KT 10SM SCT004 07/07 A3020 RMK AO2 T00720072=
202210131053 METAR KBLI 131053Z AUTO 00000KT 10SM SCT011 07/07 A3020 RMK AO2 SLP235 T00720072=
202210131046 SPECI KBLI 131046Z AUTO 00000KT 2 1/2SM BR BKN013 07/07 A3020 RMK AO2 T00670067=
202210131037 SPECI KBLI 131037Z AUTO 00000KT 1 1/2SM R16/2800VP6000FT BR SCT020 07/07 A3021 RMK AO2 T00670067=
202210131004 SPECI KBLI 131004Z AUTO 00000KT 3SM R16/3500VP6000FT BR SCT002 07/07 A3021 RMK AO2 T00720072=
202210130953 METAR KBLI 130953Z AUTO 00000KT 1 3/4SM BR FEW002 07/07 A3021 RMK AO2 VIS 3/4V5 SLP237 T00720072=
202210130943 SPECI KBLI 130943Z AUTO 00000KT 1 3/4SM R16/2600VP6000FT BR FEW002 07/07 A3021 RMK AO2 VIS 1/2V5 T00670067=
202210130901 SPECI KBLI 130901Z AUTO 00000KT 3SM BR FEW002 08/08 A3020 RMK AO2 T00830083=
202210130858 SPECI KBLI 130858Z AUTO 00000KT 1SM R16/P6000FT BR VV002 08/08 A3020 RMK AO2 T00780078=
202210130853 METAR KBLI 130853Z AUTO 00000KT 1/2SM R16/P6000FT FG VV002 07/07 A3020 RMK AO2 SLP235 T00720072 50002=
202210130847 SPECI KBLI 130847Z AUTO 00000KT 3/4SM R16/4500VP6000FT BR VV002 07/07 A3021 RMK AO2 VIS 1/4V5=
202210130753 METAR KBLI 130753Z AUTO 00000KT 10SM R16/5000VP6000FT CLR 07/07 A3021 RMK AO2 SLP236 T00720067 401940039=
202210130732 SPECI KBLI 130732Z AUTO 00000KT 9SM FEW002 08/07 A3021 RMK AO2 T00780072=
202210130725 SPECI KBLI 130725Z AUTO 00000KT 2 1/2SM BR FEW002 08/08 A3020 RMK AO2 T00780078=
202210130718 SPECI KBLI 130718Z AUTO 16003KT 1SM R16/3000VP6000FT BR VV002 08/08 A3020 RMK AO2 T00830083=
202210130714 SPECI KBLI 130714Z AUTO 00000KT 2SM R16/3000VP6000FT BR FEW002 08/07 A3020 RMK AO2 T00780072=
202210130653 METAR KBLI 130653Z AUTO 00000KT 10SM CLR 08/08 A3020 RMK AO2 SLP235 T00780078=
202210130553 METAR KBLI 130553Z AUTO 00000KT 9SM CLR 09/09 A3020 RMK AO2 SLP233 T00890089 10183 20078 56001=
202210130453 METAR KBLI 130453Z 00000KT 10SM CLR 09/09 A3020 RMK AO2 SLP233 T00890089=
202210130353 METAR KBLI 130353Z 00000KT 10SM CLR 10/09 A3020 RMK AO2 SLP233 T01000094=
202210130253 METAR KBLI 130253Z 00000KT 10SM CLR 11/10 A3020 RMK AO2 SLP235 T01060100 56002=
202210130153 METAR KBLI 130153Z 00000KT 10SM CLR 12/11 A3020 RMK AO2 SLP235 T01220111=
202210130053 METAR KBLI 130053Z 29004KT 10SM CLR 16/11 A3020 RMK AO2 SLP234 T01560111=
202210122353 METAR KBLI 122353Z 29004KT 10SM CLR 18/11 A3021 RMK AO2 SLP236 T01830111 10194 20144 57010=
202210122253 METAR KBLI 122253Z VRB04KT 10SM CLR 18/11 A3022 RMK AO2 SLP240 T01780111=
202210122153 METAR KBLI 122153Z 28007KT 10SM CLR 19/12 A3023 RMK AO2 SLP243 T01890117=
202210122053 METAR KBLI 122053Z 28006KT 10SM CLR 18/11 A3024 RMK AO2 SLP247 T01830111 58017=
202210121953 METAR KBLI 121953Z 33004KT 10SM CLR 19/11 A3026 RMK AO2 SLP253 T01890106=
202210121853 METAR KBLI 121853Z VRB04KT 10SM CLR 17/10 A3027 RMK AO2 SLP258 T01670100=
202210121753 METAR KBLI 121753Z VRB04KT 10SM CLR 14/10 A3029 RMK AO2 SLP263 T01440100 10144 20039 51006=
202210121653 METAR KBLI 121653Z 02003KT 10SM CLR 12/09 A3029 RMK AO2 SLP263 T01170094=
202210121553 METAR KBLI 121553Z 36003KT 10SM CLR 09/09 A3028 RMK AO2 SLP262 T00940089=
202210121453 METAR KBLI 121453Z 35003KT 8SM CLR 05/05 A3027 RMK AO2 SLP259 T00500050 53006=
202210121353 METAR KBLI 121353Z 00000KT 10SM CLR 05/05 A3026 RMK AO2 SLP254 T00500050=
202210121253 METAR KBLI 121253Z AUTO 00000KT 10SM CLR 05/05 A3025 RMK AO2 SLP252 T00500050=
202210121153 METAR KBLI 121153Z AUTO 00000KT 10SM CLR 06/06 A3025 RMK AO2 SLP251 T00610056 10083 20044 53001=
202210121053 METAR KBLI 121053Z AUTO 00000KT 10SM CLR 04/04 A3025 RMK AO2 SLP251 T00440044=
202210120953 METAR KBLI 120953Z AUTO 00000KT 10SM CLR 06/06 A3024 RMK AO2 SLP249 T00560056=
202210120853 METAR KBLI 120853Z AUTO 00000KT 10SM CLR 06/06 A3025 RMK AO2 SLP250 T00610061 50008=
202210120753 METAR KBLI 120753Z AUTO 00000KT 10SM CLR 07/07 A3025 RMK AO2 SLP250 T00670067 401670061=
202210120653 METAR KBLI 120653Z AUTO 00000KT 10SM CLR 08/07 A3024 RMK AO2 SLP248 T00780067=
202210120553 METAR KBLI 120553Z AUTO 00000KT 10SM CLR 07/07 A3022 RMK AO2 SLP241 T00720067 10161 20072 50007=
202210120453 METAR KBLI 120453Z 00000KT 10SM CLR 09/08 A3022 RMK AO2 SLP242 T00890078=
202210120353 METAR KBLI 120353Z 00000KT 10SM CLR 09/08 A3020 RMK AO2 SLP235 T00890083=
202210120253 METAR KBLI 120253Z 00000KT 10SM CLR 10/09 A3020 RMK AO2 SLP235 T01000089 53001=
202210120153 METAR KBLI 120153Z 00000KT 10SM CLR 12/10 A3020 RMK AO2 SLP233 T01170100=
202210120053 METAR KBLI 120053Z 00000KT 10SM CLR 14/10 A3019 RMK AO2 SLP231 T01440100=
202210112353 METAR KBLI 112353Z 00000KT 10SM CLR 16/10 A3020 RMK AO2 SLP233 T01610100 10167 20139 56009=
202210112253 METAR KBLI 112253Z 22005KT 10SM CLR 15/10 A3021 RMK AO2 SLP235 T01500100=
202210112153 METAR KBLI 112153Z 00000KT 10SM CLR 16/09 A3021 RMK AO2 SLP237 T01560089=
202210112053 METAR KBLI 112053Z 24008KT 10SM CLR 16/08 A3022 RMK AO2 SLP242 T01610083 58006=
202210111953 METAR KBLI 111953Z 30004KT 10SM CLR 16/07 A3023 RMK AO2 SLP244 T01610072=
202210111853 METAR KBLI 111853Z VRB05KT 10SM CLR 16/08 A3024 RMK AO2 SLP245 T01560083=
202210111753 METAR KBLI 111753Z 10SM CLR 15/09 A3024 RMK AO2 SLP247 T01500089 10150 20072 51011=
202210111653 METAR KBLI 111653Z 00000KT 10SM SCT017 13/09 A3024 RMK AO2 SLP246 T01330094=
202210111553 METAR KBLI 111553Z 17004KT 10SM CLR 12/10 A3022 RMK AO2 SLP241 T01220100=
202210111453 METAR KBLI 111453Z 17004KT 10SM CLR 09/08 A3021 RMK AO2 SLP237 T00890083 53013=
202210111353 METAR KBLI 111353Z 00000KT 10SM CLR 08/08 A3017 RMK AO2 SLP225 T00830083=
202210111253 METAR KBLI 111253Z AUTO 16003KT 10SM CLR 09/08 A3018 RMK AO2 SLP225 T00890083 $=
202210111153 METAR KBLI 111153Z AUTO 17004KT 10SM CLR 08/08 A3017 RMK AO2 SLP224 T00830078 10150 20083 53019 $=
202210111053 METAR KBLI 111053Z AUTO 00000KT 10SM CLR 11/08 A3014 RMK AO2 SLP214 T01060083 $=
202210110953 METAR KBLI 110953Z AUTO VRB04KT 10SM CLR 11/08 A3013 RMK AO2 SLP211 T01060083 $=
202210110853 METAR KBLI 110853Z AUTO 00000KT 10SM CLR 09/08 A3011 RMK AO2 SLP205 T00940083 51018 $=
202210110753 METAR KBLI 110753Z AUTO 00000KT 10SM CLR 11/08 A3009 RMK AO2 SLP197 T01060083 401830078 $=
202210110653 METAR KBLI 110653Z AUTO VRB03KT 10SM CLR 13/09 A3009 RMK AO2 SLP194 T01330089 $=
202210110553 METAR KBLI 110553Z AUTO VRB04KT 10SM OVC049 15/11 A3006 RMK AO2 SLP185 T01500106 10178 20144 53019 $=
202210110453 METAR KBLI 110453Z 18003KT 10SM OVC050 15/09 A3004 RMK AO2 SLP178 T01500089 $=
202210110353 METAR KBLI 110353Z 18005KT 10SM SCT048 BKN070 15/08 A3002 RMK AO2 SLP171 T01500078 $=
202210110253 METAR KBLI 110253Z 00000KT 10SM BKN048 16/12 A3000 RMK AO2 SLP167 T01560117 53013 $=
202210110153 METAR KBLI 110153Z 00000KT 10SM OVC047 17/13 A2999 RMK AO2 SLP163 T01670128 $=
202210110053 METAR KBLI 110053Z 22004KT 10SM SCT050 18/13 A2998 RMK AO2 SLP158 T01780133 $=
202210102353 METAR KBLI 102353Z 20005KT 10SM CLR 18/14 A2997 RMK AO2 SLP154 T01780139 10183 20161 56007 $=
202210102253 METAR KBLI 102253Z 20008KT 10SM CLR 17/13 A2997 RMK AO2 SLP154 T01720133 $=
202210102153 METAR KBLI 102153Z 20010G15KT 10SM CLR 17/13 A2996 RMK AO2 SLP152 T01720133 $=
202210102053 METAR KBLI 102053Z 19009G19KT 10SM CLR 17/13 A2999 RMK AO2 SLP160 T01670133 58012 $=
202210101953 METAR KBLI 101953Z 18010G18KT 6SM HZ FEW100 18/12 A3000 RMK AO2 SLP165 T01780122 $=
202210101853 METAR KBLI 101853Z 18011G20KT 4SM HZ CLR 17/13 A3001 RMK AO2 SLP170 T01720128 $=
202210101753 METAR KBLI 101753Z 18009G18KT 6SM HZ CLR 16/12 A3002 RMK AO2 SLP174 T01560122 10156 20078 56007 $=
202210101653 METAR KBLI 101653Z 19007KT 8SM BKN110 15/12 A3003 RMK AO2 SLP175 T01500122 $=
202210101553 METAR KBLI 101553Z 00000KT 5SM BR CLR 13/12 A3004 RMK AO2 SLP178 T01280122 $=
202210101453 METAR KBLI 101453Z 00000KT 8SM CLR 10/10 A3005 RMK AO2 SLP181 T01000100 58006 $=
202210101353 METAR KBLI 101353Z 00000KT 6SM BR CLR 08/08 A3006 RMK AO2 SLP185 T00830083 $=
202210101318 SPECI KBLI 101318Z AUTO 00000KT 3SM BR CLR 08/08 A3005 RMK AO2 T00830083 $=
202210101304 SPECI KBLI 101304Z AUTO 00000KT 1 3/4SM BR CLR 09/09 A3005 RMK AO2 T00890089 $=
202210101253 METAR KBLI 101253Z AUTO 00000KT 7SM CLR 09/09 A3005 RMK AO2 SLP184 T00890089 $=
202210101227 SPECI KBLI 101227Z AUTO 16003KT 3SM BR CLR 09/09 A3005 RMK AO2 T00890089 $=
202210101222 SPECI KBLI 101222Z AUTO 14003KT 1SM R16/P6000FT BR CLR 08/08 A3005 RMK AO2 VIS 1/2V5 T00830083 $=
202210101216 SPECI KBLI 101216Z AUTO 00000KT 1/2SM R16/6000VP6000FT FG CLR 08/08 A3005 RMK AO2 T00830083 $=
202210101210 SPECI KBLI 101210Z AUTO 00000KT 1 1/2SM R16/2800VP6000FT BR CLR 09/09 A3005 RMK AO2 T00890089 $=
202210101153 METAR KBLI 101153Z AUTO 00000KT 7SM R16/5000VP6000FT CLR 08/08 A3006 RMK AO2 SLP187 T00830078 10117 20078 58004 $=
202210101118 SPECI KBLI 101118Z AUTO 00000KT 5SM BR CLR 08/08 A3006 RMK AO2 T00830083 $=
202210101115 SPECI KBLI 101115Z AUTO 00000KT 1 1/4SM BR CLR 08/08 A3006 RMK AO2 T00830083 $=
202210101103 SPECI KBLI 101103Z AUTO 00000KT 1/2SM R16/P6000FT FG CLR 08/08 A3007 RMK AO2 T00780078 $=
202210101100 SPECI KBLI 101100Z AUTO 00000KT 1 1/2SM BR CLR 08/08 A3007 RMK AO2 T00780078 $=
202210101053 METAR KBLI 101053Z AUTO 00000KT 5SM R16/4000VP6000FT BR CLR 09/09 A3007 RMK AO2 SLP187 T00940094 $=
202210100953 METAR KBLI 100953Z AUTO 00000KT 7SM CLR 10/10 A3007 RMK AO2 SLP190 T01000100 $=
202210100853 METAR KBLI 100853Z AUTO 00000KT 10SM CLR 12/12 A3007 RMK AO2 SLP190 T01170117 58003 $=
202210100827 SPECI KBLI 100827Z AUTO 18004KT 4SM BR CLR 11/11 A3008 RMK AO2 T01110111 $=
202210100817 SPECI KBLI 100817Z AUTO 00000KT 1 3/4SM BR CLR 09/09 A3008 RMK AO2 T00940094 $=
202210100753 METAR KBLI 100753Z AUTO 00000KT 5SM BR CLR 10/10 A3008 RMK AO2 SLP192 T01000100 402060067 $=
202210100653 METAR KBLI 100653Z AUTO 00000KT 8SM CLR 10/10 A3008 RMK AO2 SLP193 T01000100 $=
202210100553 METAR KBLI 100553Z AUTO 00000KT 9SM CLR 11/10 A3008 RMK AO2 SLP194 T01060100 10194 20100 58001 $=
202210100453 METAR KBLI 100453Z 00000KT 10SM CLR 11/11 A3009 RMK AO2 SLP195 T01110111 $=
202210100353 METAR KBLI 100353Z 00000KT 10SM CLR 11/11 A3009 RMK AO2 SLP195 T01110111 $=
202210100253 METAR KBLI 100253Z 00000KT 10SM CLR 12/12 A3009 RMK AO2 SLP196 T01220117 55004 $=
202210100153 METAR KBLI 100153Z 00000KT 10SM CLR 14/13 A3009 RMK AO2 SLP195 T01390133 $=
202210100053 METAR KBLI 100053Z 00000KT 10SM CLR 17/14 A3009 RMK AO2 SLP196 T01720139 $=
202210092353 METAR KBLI 092353Z 30003KT 10SM CLR 19/13 A3010 RMK AO2 SLP199 T01890133 10206 20156 56015 $=
202210092253 METAR KBLI 092253Z 28005KT 10SM CLR 19/13 A3011 RMK AO2 SLP201 T01940128 $=
202210092153 METAR KBLI 092153Z VRB03KT 10SM CLR 21/14 A3012 RMK AO2 SLP205 T02060139 $=
202210092053 METAR KBLI 092053Z 22004KT 8SM CLR 20/13 A3014 RMK AO2 SLP213 T02000133 58013 $=
202210091953 METAR KBLI 091953Z VRB04KT 10SM CLR 20/14 A3016 RMK AO2 SLP220 T02000144 $=
202210091853 METAR KBLI 091853Z 31003KT 10SM CLR 18/14 A3018 RMK AO2 SLP225 T01830139 $=
202210091753 METAR KBLI 091753Z 00000KT 9SM FEW003 16/14 A3018 RMK AO2 SLP228 T01560144 10156 20067 51007 $=
202210091743 SPECI KBLI 091743Z 00000KT 8SM SCT002 14/14 A3018 RMK AO2 T01440144 $=
202210091735 SPECI KBLI 091735Z 00000KT 7SM BKN002 14/14 A3018 RMK AO2 T01390139 $=
202210091728 SPECI KBLI 091728Z 00000KT 2SM R16/3500VP6000FT BR BKN002 14/14 A3018 RMK AO2 T01390139 $=
202210091724 SPECI KBLI 091724Z 00000KT 3/4SM R16/2400VP6000FT BR OVC001 13/13 A3018 RMK AO2 T01330133 $=
202210091716 SPECI KBLI 091716Z 00000KT 1/4SM R16/1600V2800FT FG OVC001 13/13 A3018 RMK AO2 T01330133 $=
202210091700 SPECI KBLI 091700Z 00000KT 1/4SM R16/1200V2000FT FG VV002 13/13 A3018 RMK AO2 T01280128 $=
202210091653 METAR KBLI 091653Z 00000KT 1/4SM R16/1200V3500FT FG OVC002 12/12 A3018 RMK AO2 SLP225 T01220122 $=
202210091651 SPECI KBLI 091651Z 00000KT 1/4SM R16/1200V4500FT FG OVC002 12/12 A3017 RMK AO2 $=
202210091643 SPECI KBLI 091643Z 00000KT 1/2SM R16/3000VP6000FT FG OVC003 12/12 A3017 RMK AO2 VIS M1/4V5 T01220122 $=
202210091632 SPECI KBLI 091632Z 00000KT 7SM BKN003 12/12 A3017 RMK AO2 T01220122 $=
202210091553 METAR KBLI 091553Z 00000KT 5SM BR FEW003 10/10 A3016 RMK AO2 SLP220 T01000100 $=
202210091511 SPECI KBLI 091511Z 00000KT 3SM R16/1800VP6000FT BR CLR 08/08 A3016 RMK AO2 T00780078 $=
202210091501 SPECI KBLI 091501Z 00000KT 3SM R16/1200V1800FT BR CLR 07/07 A3016 RMK AO2 T00720072 $=
202210091453 METAR KBLI 091453Z 00000KT 3SM R16/1600VP6000FT BR CLR 08/08 A3016 RMK AO2 SLP219 T00780078 53003 $=
202210091401 SPECI KBLI 091401Z 00000KT 5SM R16/2200V3000FT BR CLR 08/08 A3016 RMK AO2 T00780078 $=
202210091353 METAR KBLI 091353Z AUTO 00000KT 2 1/2SM R16/2200V3500FT BR BKN002 08/08 A3016 RMK AO2 VIS 1 1/2V5 SLP218 T00780078 $=
202210091345 SPECI KBLI 091345Z AUTO 00000KT 1SM R16/2800V4500FT BR VV002 08/08 A3016 RMK AO2 T00780078 $=
202210091342 SPECI KBLI 091342Z AUTO 00000KT 3/4SM R16/2400V4500FT BR VV001 08/08 A3015 RMK AO2 T00780078 $=
202210091334 SPECI KBLI 091334Z AUTO 00000KT 1/4SM R16/2000V2400FT FG VV001 08/08 A3015 RMK AO2 T00830083 $=
202210091331 SPECI KBLI 091331Z AUTO 00000KT 1/2SM R16/1800V2200FT FG VV001 08/08 A3015 RMK AO2 T00830083 $=
202210091325 SPECI KBLI 091325Z AUTO 00000KT 3/4SM R16/1800VP6000FT BR VV001 08/08 A3015 RMK AO2 T00780078 $=
202210091311 SPECI KBLI 091311Z AUTO 00000KT 1/4SM R16/2000V2600FT FG VV001 08/08 A3015 RMK AO2 T00780078 $=
202210091303 SPECI KBLI 091303Z AUTO 00000KT 1/4SM R16/1600V2200FT FG VV001 08/08 A3015 RMK AO2 T00830083 $=
202210091253 METAR KBLI 091253Z AUTO 00000KT 1/4SM R16/1400VP6000FT FG VV001 08/08 A3015 RMK AO2 SLP216 T00830083 $=
202210091250 SPECI KBLI 091250Z AUTO 00000KT 3/4SM R16/1600VP6000FT BR VV001 08/08 A3015 RMK AO2 $=
202210091230 SPECI KBLI 091230Z AUTO 34003KT 1/2SM R16/1400VP6000FT FG VV001 07/07 A3015 RMK AO2 T00720072 $=
202210091221 SPECI KBLI 091221Z AUTO 00000KT 3/4SM R16/2000VP6000FT BR VV002 08/08 A3014 RMK AO2 VIS 1/4V5 T00780078 $=
202210091212 SPECI KBLI 091212Z AUTO 00000KT 1 3/4SM R16/1000VP6000FT BR SCT002 09/09 A3014 RMK AO2 T00890089 $=
202210091210 SPECI KBLI 091210Z AUTO 00000KT 3/4SM R16/1000VP6000FT BR VV002 08/08 A3014 RMK AO2 T00830083 $=
202210091200 SPECI KBLI 091200Z AUTO 00000KT 1/4SM R16/2600VP6000FT FG VV002 09/09 A3014 RMK AO2 T00890089 $=
202210091153 METAR KBLI 091153Z AUTO 00000KT 1/2SM R16/1600VP6000FT FG VV002 09/09 A3014 RMK AO2 SLP213 T00890089 10117 20083 51002 $=
202210091147 SPECI KBLI 091147Z AUTO 00000KT 1 1/2SM R16/1400VP6000FT BR CLR 09/09 A3014 RMK AO2 $=
202210091053 METAR KBLI 091053Z AUTO 00000KT 4SM BR CLR 09/09 A3014 RMK AO2 SLP212 T00940089 $=
202210091050 SPECI KBLI 091050Z AUTO 00000KT 1SM R16/P6000FT BR VV002 09/09 A3014 RMK AO2 $=
202210091043 SPECI KBLI 091043Z AUTO 00000KT 1/2SM R16/P6000FT FG VV002 09/09 A3014 RMK AO2 T00940094 $=
202210091041 SPECI KBLI 091041Z AUTO 00000KT 3/4SM R16/P6000FT BR CLR 09/09 A3014 RMK AO2 T00890089 $=
202210091036 SPECI KBLI 091036Z AUTO 00000KT 2 1/2SM BR CLR 08/08 A3014 RMK AO2 T00830083 $=
202210091029 SPECI KBLI 091029Z AUTO 00000KT 3SM BR CLR 09/09 A3014 RMK AO2 T00940094 $=
202210091026 SPECI KBLI 091026Z AUTO 00000KT 1 1/4SM BR CLR 09/09 A3014 RMK AO2 T00940094 $=
202210091022 SPECI KBLI 091022Z AUTO 00000KT 3/4SM R16/P6000FT BR VV002 09/09 A3014 RMK AO2 T00940094 $=
202210091009 SPECI KBLI 091009Z AUTO 00000KT 1 3/4SM R16/1800VP6000FT BR CLR 09/09 A3014 RMK AO2 T00940089 $=
202210090953 METAR KBLI 090953Z AUTO 00000KT 3SM BR CLR 10/09 A3014 RMK AO2 SLP212 T01000094 $=
202210090917 SPECI KBLI 090917Z AUTO 00000KT 3SM BR CLR 10/10 A3013 RMK AO2 T01000100 $=
202210090914 SPECI KBLI 090914Z AUTO 00000KT 1 1/2SM BR CLR 10/10 A3013 RMK AO2 T01000100 $=
202210090903 SPECI KBLI 090903Z AUTO 00000KT 3/4SM R16/P6000FT BR CLR 09/09 A3013 RMK AO2 VIS 1/4V5 T00940094 $=
202210090853 METAR KBLI 090853Z AUTO 00000KT 8SM CLR 09/09 A3014 RMK AO2 SLP211 T00940094 53002 $=
202210090842 SPECI KBLI 090842Z AUTO 00000KT 2SM R16/2800VP6000FT BR CLR 10/10 A3014 RMK AO2 VIS 3/4V5 T01000100 $=
202210090835 SPECI KBLI 090835Z AUTO 00000KT 3SM R16/5000VP6000FT BR CLR 09/09 A3014 RMK AO2 T00940094 $=
202210090826 SPECI KBLI 090826Z AUTO 00000KT 2SM R16/1400VP6000FT BR FEW002 11/10 A3013 RMK AO2 VIS 3/4V5 T01060100 $=
202210090816 SPECI KBLI 090816Z AUTO 00000KT 1SM R16/P6000FT BR VV002 11/11 A3013 RMK AO2 VIS 1/2V4 T01060106 $=
202210090810 SPECI KBLI 090810Z AUTO 00000KT 1/2SM R16/P6000FT FG VV002 11/09 A3013 RMK AO2 T01060094 $=
202210090802 SPECI KBLI 090802Z AUTO 00000KT 3/4SM R16/2200VP6000FT BR VV002 10/09 A3013 RMK AO2 T01000094 $=
202210090759 SPECI KBLI 090759Z AUTO 00000KT 2 1/2SM R16/1600VP6000FT BR FEW002 10/09 A3013 RMK AO2 T01000094 $=
202210090753 METAR KBLI 090753Z AUTO 00000KT 2SM R16/1600VP6000FT BR CLR 11/10 A3013 RMK AO2 SLP209 T01060100 402280078 $=
202210090751 SPECI KBLI 090751Z AUTO 00000KT 2SM R16/2000VP6000FT BR CLR 11/11 A3013 RMK AO2 $=
202210090703 SPECI KBLI 090703Z AUTO 00000KT 3SM BR CLR 10/10 A3013 RMK AO2 T01000100 $=
202210090657 SPECI KBLI 090657Z AUTO 00000KT 1 3/4SM BR CLR 09/09 A3013 RMK AO2 T00940094 $=
202210090653 METAR KBLI 090653Z AUTO 00000KT 3SM BR CLR 11/10 A3013 RMK AO2 SLP209 T01060100 $=
202210090553 METAR KBLI 090553Z AUTO 00000KT 8SM CLR 11/11 A3013 RMK AO2 SLP210 T01110111 10211 20100 51007 $=
202210090453 METAR KBLI 090453Z 00000KT 10SM CLR 12/11 A3013 RMK AO2 SLP210 T01170111 $=
202210090353 METAR KBLI 090353Z 00000KT 10SM CLR 12/12 A3012 RMK AO2 SLP206 T01170117 $=
202210090253 METAR KBLI 090253Z 00000KT 10SM CLR 12/12 A3011 RMK AO2 SLP203 T01170117 55001 $=
202210090153 METAR KBLI 090153Z 00000KT 10SM CLR 15/13 A3011 RMK AO2 SLP202 T01500133 $=
202210090053 METAR KBLI 090053Z 00000KT 10SM CLR 18/13 A3011 RMK AO2 SLP202 T01830133 $=
202210082353 METAR KBLI 082353Z 27003KT 8SM CLR 21/12 A3012 RMK AO2 SLP204 T02110122 10228 20178 56016 $=
202210082253 METAR KBLI 082253Z 28005KT 10SM CLR 22/13 A3013 RMK AO2 SLP208 T02170128 $=
202210082153 METAR KBLI 082153Z 28005KT 8SM CLR 22/13 A3015 RMK AO2 SLP214 T02220133 $=
202210082053 METAR KBLI 082053Z 27006KT 10SM FU CLR 22/13 A3016 RMK AO2 SLP219 T02170133 58015 $=
202210081953 METAR KBLI 081953Z 29006KT 6SM HZ FU CLR 22/13 A3018 RMK AO2 SLP225 T02170133 $=
202210081853 METAR KBLI 081853Z VRB04KT 6SM HZ FU CLR 21/12 A3019 RMK AO2 SLP230 T02060122 $=
202210081753 METAR KBLI 081753Z 00000KT 6SM HZ FU CLR 18/12 A3021 RMK AO2 SLP234 T01780122 10178 20078 50001 $=
202210081653 METAR KBLI 081653Z 00000KT 8SM FU CLR 14/13 A3022 RMK AO2 SLP240 T01440128 $=
202210081553 METAR KBLI 081553Z 00000KT 8SM FU CLR 12/12 A3021 RMK AO2 SLP238 T01220117 $=
202210081453 METAR KBLI 081453Z 00000KT 8SM R16/1600VP6000FT FU FEW002 09/09 A3020 RMK AO2 SLP234 BCFG T00890089 51005 $=
202210081423 SPECI KBLI 081423Z 00000KT 8SM R16/4500VP6000FT FU FEW002 08/08 A3020 RMK AO2 BCFG T00830083 $=
202210081353 METAR KBLI 081353Z 00000KT 5SM BR CLR 09/09 A3020 RMK AO2 SLP233 T00890089 $=
202210081328 SPECI KBLI 081328Z AUTO 00000KT 4SM BR SCT002 09/09 A3020 RMK AO2 T00890089 $=
202210081325 SPECI KBLI 081325Z AUTO 00000KT 1SM R16/5500VP6000FT BR VV002 09/09 A3020 RMK AO2 T00890089 $=
202210081317 SPECI KBLI 081317Z AUTO 00000KT 1/2SM R16/1400VP6000FT FG VV002 08/08 A3019 RMK AO2 T00830083 $=
202210081313 SPECI KBLI 081313Z AUTO 00000KT 1SM R16/1800V4000FT BR VV002 08/08 A3019 RMK AO2 T00830083 $=
202210081308 SPECI KBLI 081308Z AUTO 00000KT 10SM R16/2200VP6000FT CLR 09/09 A3019 RMK AO2 T00890089=
202210081301 SPECI KBLI 081301Z AUTO 00000KT 2 1/2SM R16/2200VP6000FT BR FEW002 09/09 A3019 RMK AO2 T00890089=
202210081258 SPECI KBLI 081258Z AUTO 00000KT 1SM R16/P6000FT BR VV002 09/09 A3019 RMK AO2 T00890089=
202210081253 METAR KBLI 081253Z AUTO 00000KT 1/2SM R16/P6000FT FG VV002 09/09 A3019 RMK AO2 SLP230 T00940094=
202210081233 SPECI KBLI 081233Z AUTO 00000KT 1/2SM R16/2200VP6000FT FG VV002 09/09 A3019 RMK AO2 VIS M1/4V4 T00890089=
202210081230 SPECI KBLI 081230Z AUTO 00000KT 1 1/2SM R16/2200VP6000FT BR CLR 09/09 A3019 RMK AO2 VIS 1/4V5 T00940094=
202210081204 SPECI KBLI 081204Z AUTO 00000KT 3SM R16/4000VP6000FT BR CLR 10/10 A3019 RMK AO2 T01000100=
202210081200 SPECI KBLI 081200Z AUTO 00000KT 1 3/4SM R16/4000VP6000FT BR CLR 09/09 A3019 RMK AO2 VIS 1/2V5 T00940094=
202210081153 METAR KBLI 081153Z AUTO 00000KT 4SM BR CLR 10/09 A3019 RMK AO2 SLP228 T01000094 10128 20089 58001=
202210081109 SPECI KBLI 081109Z AUTO 00000KT 9SM CLR 09/09 A3019 RMK AO2 T00940094=
202210081102 SPECI KBLI 081102Z AUTO 00000KT 2SM BR CLR 09/09 A3019 RMK AO2 T00940094=
202210081053 METAR KBLI 081053Z AUTO 00000KT 3/4SM R16/1800VP6000FT BR CLR 09/09 A3019 RMK AO2 VIS 1/4V5 SLP231 T00940094=
202210081049 SPECI KBLI 081049Z AUTO 00000KT 1 1/2SM R16/1800VP6000FT BR CLR 09/09 A3019 RMK AO2=
202210081030 SPECI KBLI 081030Z AUTO 00000KT 5SM BR CLR 10/10 A3019 RMK AO2 T01000100=
202210081012 SPECI KBLI 081012Z AUTO 00000KT 2SM BR CLR 09/09 A3019 RMK AO2 VIS 3/4V5 T00940094=
202210080953 METAR KBLI 080953Z AUTO 00000KT 5SM R16/3000VP6000FT BR CLR 10/10 A3019 RMK AO2 SLP230 T01000100=
202210080951 SPECI KBLI 080951Z AUTO 00000KT 3SM R16/3000VP6000FT BR CLR 10/10 A3019 RMK AO2=
202210080946 SPECI KBLI 080946Z AUTO 00000KT 1SM R16/2400VP6000FT BR CLR 11/11 A3019 RMK AO2 T01060106=
202210080940 SPECI KBLI 080940Z AUTO 00000KT 3/4SM R16/2000VP6000FT BR VV002 09/09 A3019 RMK AO2 VIS 1/2V5 T00890089=
202210080937 SPECI KBLI 080937Z AUTO 00000KT 1 3/4SM R16/2000VP6000FT BR FEW002 09/09 A3019 RMK AO2 VIS 3/4V5 T00940094=
202210080929 SPECI KBLI 080929Z AUTO 00000KT 4SM R16/2600VP6000FT BR FEW002 11/11 A3019 RMK AO2 T01060106=
202210080927 SPECI KBLI 080927Z AUTO 00000KT 1 1/2SM R16/6000VP6000FT BR FEW002 11/11 A3019 RMK AO2 VIS 1/2V5 T01060106=
202210080925 SPECI KBLI 080925Z AUTO 00000KT 3/4SM R16/P6000FT BR VV002 11/11 A3019 RMK AO2 T01060106=
202210080915 SPECI KBLI 080915Z AUTO 00000KT 1/4SM R16/3500VP6000FT FG VV002 10/10 A3019 RMK AO2 T01000100=
202210080911 SPECI KBLI 080911Z AUTO 00000KT 1/2SM R16/2000VP6000FT FG CLR 11/11 A3019 RMK AO2 T01060106=
202210080907 SPECI KBLI 080907Z AUTO 00000KT 1 3/4SM R16/2000VP6000FT BR CLR 09/09 A3019 RMK AO2 VIS 1/2V5 T00940094=
202210080853 METAR KBLI 080853Z AUTO 00000KT 9SM CLR 10/09 A3019 RMK AO2 SLP229 T01000094 53001=
202210080753 METAR KBLI 080753Z AUTO 00000KT 10SM CLR 11/11 A3018 RMK AO2 SLP227 T01060106 402390094=
202210080653 METAR KBLI 080653Z AUTO 00000KT 10SM CLR 12/12 A3018 RMK AO2 SLP227 T01220122=
202210080553 METAR KBLI 080553Z AUTO 00000KT 10SM CLR 12/12 A3019 RMK AO2 SLP228 T01220117 10222 20117 51009=
202210080453 METAR KBLI 080453Z 00000KT 10SM CLR 13/13 A3018 RMK AO2 SLP225 T01280128=
202210080353 METAR KBLI 080353Z 00000KT 10SM SCT080 14/13 A3017 RMK AO2 SLP222 T01440128=
202210080253 METAR KBLI 080253Z 00000KT 10SM SCT060 14/12 A3016=
202210080153 METAR KBLI 080153Z 00000KT 8SM FEW015 SCT060 16/13 A3015 RMK AO2 SLP215 T01610128=
202210080053 METAR KBLI 080053Z 00000KT 10SM CLR 19/13 A3014 RMK AO2 SLP212 T01940133=
202210072353 METAR KBLI 072353Z 00000KT 10SM CLR 22/12 A3015 RMK AO2 SLP216 T02220122 10239 20178 56012=
202210072253 METAR KBLI 072253Z 00000KT 8SM CLR 22/13 A3016 RMK AO2 SLP220 T02220128=
202210072153 METAR KBLI 072153Z 29007KT 10SM CLR 22/14 A3017 RMK AO2 SLP222 T02170144=
202210072053 METAR KBLI 072053Z VRB03KT 10SM CLR 22/16 A3019 RMK AO2 SLP228 T02170161 58012=
202210071953 METAR KBLI 071953Z 00000KT 10SM CLR 22/14 A3020 RMK AO2 SLP233 T02220144=
202210071853 METAR KBLI 071853Z 00000KT 10SM CLR 20/16 A3022 RMK AO2 SLP238 T02000156=
202210071753 METAR KBLI 071753Z 00000KT 10SM CLR 18/15 A3022 RMK AO2 SLP240 T01780150 10183 20094 51006=
202210071653 METAR KBLI 071653Z 00000KT 10SM CLR 16/14 A3022 RMK AO2 SLP239 T01610144=
202210071553 METAR KBLI 071553Z 00000KT 8SM CLR 14/14 A3021 RMK AO2 SLP237 T01440139=
202210071453 METAR KBLI 071453Z 00000KT 6SM BR CLR 10/10 A3020 RMK AO2 SLP234 T01000100 51009=
202210071401 SPECI KBLI 071401Z 00000KT 7SM FEW002 10/10 A3019 RMK AO2 T01000100=
202210071353 METAR KBLI 071353Z 00000KT 1 1/2SM BR FEW002 10/09 A3019 RMK AO2 SLP230 T01000094=
202210071345 SPECI KBLI 071345Z 00000KT 1 3/4SM BR CLR 10/10 A3019 RMK AO2 T01000100=
202210071253 METAR KBLI 071253Z AUTO 00000KT 5SM BR CLR 11/11 A3018 RMK AO2 SLP224 T01060106=
202210071153 METAR KBLI 071153Z AUTO 00000KT 10SM CLR 11/11 A3017 RMK AO2 SLP222 T01060106 10128 20100 51007=
202210071142 SPECI KBLI 071142Z AUTO 00000KT 8SM CLR 11/11 A3017 RMK AO2 T01060106=
202210071134 SPECI KBLI 071134Z AUTO 00000KT 2 1/2SM BR FEW002 11/11 A3017 RMK AO2 T01060106=
202210071057 SPECI KBLI 071057Z AUTO 00000KT 4SM BR FEW002 11/11 A3016 RMK AO2 T01110111=
202210071053 METAR KBLI 071053Z AUTO 00000KT 1 1/4SM BR FEW002 11/11 A3016 RMK AO2 SLP220 T01110106=
202210071051 SPECI KBLI 071051Z AUTO 00000KT 1SM R16/P6000FT BR VV002 11/11 A3016 RMK AO2=
202210071037 SPECI KBLI 071037Z AUTO 00000KT 1/2SM R16/1800VP6000FT FG VV002 11/11 A3016 RMK AO2 T01060106=
202210071030 SPECI KBLI 071030Z AUTO 00000KT 1SM R16/1800VP6000FT BR CLR 11/11 A3016 RMK AO2 VIS 1/2V5 T01110106=
202210071019 SPECI KBLI 071019Z AUTO 00000KT 1/2SM R16/1400V3500FT FG CLR 11/11 A3016 RMK AO2 T01060106=
202210071011 SPECI KBLI 071011Z AUTO 00000KT 1 3/4SM R16/1400V3500FT BR CLR 11/11 A3016 RMK AO2 VIS 1/2V5 T01110106=
202210071006 SPECI KBLI 071006Z AUTO 00000KT 3SM R16/1400VP6000FT BR CLR 11/11 A3016 RMK AO2 T01110111=
202210071002 SPECI KBLI 071002Z AUTO 00000KT 1 1/4SM R16/1400VP6000FT BR CLR 11/11 A3016 RMK AO2 T01060106=
202210070953 METAR KBLI 070953Z AUTO 00000KT 1/2SM R16/P6000FT FG CLR 11/11 A3016 RMK AO2 SLP218 T01110111=
202210070950 SPECI KBLI 070950Z AUTO 00000KT 1/2SM R16/P6000FT FG CLR 11/11 A3016 RMK AO2=
202210070942 SPECI KBLI 070942Z AUTO 00000KT 1/4SM R16/P6000FT FG VV002 11/11 A3016 RMK AO2 T01110111=
202210070932 SPECI KBLI 070932Z AUTO 00000KT 1/2SM R16/P6000FT FG CLR 12/12 A3015 RMK AO2 T01170117=
202210070922 SPECI KBLI 070922Z AUTO 00000KT 1/2SM R16/5000VP6000FT FG VV002 12/11 A3015 RMK AO2 T01170111=
202210070916 SPECI KBLI 070916Z AUTO 00000KT 1 1/4SM R16/5000VP6000FT BR CLR 11/11 A3015 RMK AO2 VIS 1/4V5 T01060106=
202210070907 SPECI KBLI 070907Z AUTO 00000KT 3SM R16/3000VP6000FT BR CLR 12/12 A3015 RMK AO2 T01170117=
202210070853 METAR KBLI 070853Z AUTO 00000KT 1 3/4SM BR CLR 12/11 A3015 RMK AO2 SLP215 T01170111 51006=
202210070848 SPECI KBLI 070848Z AUTO 00000KT 3/4SM R16/P6000FT BR CLR 12/11 A3015 RMK AO2 VIS 1/4V5=
202210070839 SPECI KBLI 070839Z AUTO 00000KT 3/4SM R16/1400VP6000FT BR VV002 12/12 A3015 RMK AO2 T01170117=
202210070837 SPECI KBLI 070837Z AUTO 00000KT 1 1/4SM R16/1400VP6000FT BR FEW002 11/11 A3014 RMK AO2 VIS 1/4V5 T01110111=
202210070828 SPECI KBLI 070828Z AUTO 00000KT 1 3/4SM BR CLR 12/12 A3014 RMK AO2 VIS 3/4V5 T01170117=
202210070753 METAR KBLI 070753Z AUTO 00000KT 4SM R16/4000VP6000FT BR CLR 12/12 A3014 RMK AO2 SLP214 T01220122 402170067=
202210070653 METAR KBLI 070653Z AUTO 00000KT 6SM BR CLR 12/12 A3014 RMK AO2 SLP211 T01220122=
202210070553 METAR KBLI 070553Z AUTO 00000KT 10SM CLR 13/13 A3013 RMK AO2 SLP209 T01280128 10211 20122 53009=
202210070453 METAR KBLI 070453Z 00000KT 8SM CLR 13/13 A3012 RMK AO2 SLP206 T01280128=
202210070353 METAR KBLI 070353Z 00000KT 8SM CLR 13/13 A3011 RMK AO2 SLP203 T01280128=
202210070253 METAR KBLI 070253Z 00000KT 10SM CLR 13/13 A3010 RMK AO2 SLP200 T01330128 55001=
202210070153 METAR KBLI 070153Z 19003KT 8SM CLR 16/14 A3009 RMK AO2 SLP197 T01560144=
202210070053 METAR KBLI 070053Z 00000KT 10SM CLR 19/15 A3010 RMK AO2 SLP198 T01890150=
202210062353 METAR KBLI 062353Z 28004KT 8SM CLR 21/14 A3010 RMK AO2 SLP200 T02110144 10217 20172 56013=
202210062253 METAR KBLI 062253Z 00000KT 8SM CLR 21/15 A3011 RMK AO2 SLP203 T02110150=
202210062153 METAR KBLI 062153Z 27005KT 10SM CLR 21/14 A3013 RMK AO2 SLP209 T02110144=
202210062053 METAR KBLI 062053Z VRB03KT 10SM CLR 20/14 A3014 RMK AO2 SLP213 T02000144 58013=
202210061953 METAR KBLI 061953Z VRB03KT 9SM CLR 21/14 A3016 RMK AO2 SLP218 T02110144=
202210061853 METAR KBLI 061853Z 00000KT 8SM CLR 19/14 A3017 RMK AO2 SLP222 T01890144=
202210061753 METAR KBLI 061753Z 00000KT 6SM HZ CLR 17/14 A3018 RMK AO2 SLP227 T01720139 10172 20067 58002=
202210061653 METAR KBLI 061653Z 00000KT 6SM BR CLR 13/13 A3019 RMK AO2 SLP230 T01330133=
202210061630 SPECI KBLI 061630Z 00000KT 4SM R16/0400V5500FT BR FEW001 SCT006 12/12 A3019 RMK AO2 T01220122=
202210061625 SPECI KBLI 061625Z 00000KT 3SM R16/0400V5500FT BR FEW001 BKN004 12/12 A3019 RMK AO2 T01170117=
202210061616 SPECI KBLI 061616Z 00000KT 1SM R16/1600V4000FT BR VV003 11/11 A3019 RMK AO2 T01110111=
202210061613 SPECI KBLI 061613Z 00000KT 1/2SM R16/0800V4000FT FG VV003 11/11 A3019 RMK AO2 T01110111=
202210061607 SPECI KBLI 061607Z 00000KT 1/4SM R16/0300V2800FT FG VV001 11/11 A3019 RMK AO2 T01060106=
202210061553 METAR KBLI 061553Z 00000KT M1/4SM R16/0200V0600FT FG VV001 11/11 A3019 RMK AO2 SLP231 T01060106=
202210061453 METAR KBLI 061453Z 00000KT M1/4SM R16/0800V1400FT FG VV001 08/08 A3018 RMK AO2 SLP229 T00830083 53003=
202210061439 SPECI KBLI 061439Z 00000KT M1/4SM R16/1000V2200FT FG VV001 07/07 A3018 RMK AO2 T00720072=
202210061425 SPECI KBLI 061425Z 00000KT 1/4SM R16/1000V1400FT FG VV001 07/07 A3018 RMK AO2 T00720072=
202210061411 SPECI KBLI 061411Z 00000KT 1/2SM R16/1400V3500FT FG VV001 07/07 A3018 RMK AO2 T00720072=
202210061353 METAR KBLI 061353Z 00000KT 1/4SM R16/1400V4000FT FG VV001 07/07 A3017 RMK AO2 SLP225 T00720072=
202210061312 SPECI KBLI 061312Z AUTO 00000KT 1/4SM R16/1600VP6000FT FG VV001 07/07 A3017 RMK AO2 T00720072=
202210061253 METAR KBLI 061253Z AUTO 00000KT 1/4SM R16/1200V1400FT FG VV001 07/07 A3017 RMK AO2 SLP223 T00720072=
202210061247 SPECI KBLI 061247Z AUTO 00000KT 1/2SM R16/1200V1800FT FG VV001 08/08 A3017 RMK AO2=
202210061239 SPECI KBLI 061239Z AUTO 00000KT 3/4SM R16/1800V3000FT BR VV001 07/07 A3017 RMK AO2 T00720072=
202210061233 SPECI KBLI 061233Z AUTO 00000KT 1/2SM R16/1600V2400FT FG VV002 08/08 A3017 RMK AO2 T00780078=
202210061228 SPECI KBLI 061228Z AUTO 00000KT 1/4SM R16/1600V2200FT FG VV002 08/08 A3017 RMK AO2 T00780078=
202210061220 SPECI KBLI 061220Z AUTO 00000KT 1/2SM R16/1600V4500FT FG VV002 08/08 A3017 RMK AO2 T00780078=
202210061153 METAR KBLI 061153Z AUTO 00000KT 1/4SM R16/1600V3000FT FG VV001 07/07 A3017 RMK AO2 SLP225 T00720072 10117 20072 58001=
202210061105 SPECI KBLI 061105Z AUTO 00000KT 1/4SM R16/0700V1000FT FG VV001 09/09 A3018 RMK AO2 T00890089=
202210061053 METAR KBLI 061053Z AUTO 00000KT 1/4SM R16/1000VP6000FT FG VV001 09/09 A3018 RMK AO2 SLP225 T00890089=
202210061017 SPECI KBLI 061017Z AUTO 00000KT 1/4SM R16/1600V5000FT FG VV001 08/08 A3018 RMK AO2 T00830083=
202210060953 METAR KBLI 060953Z AUTO 00000KT 1/4SM R16/0600V1200FT FG VV001 08/08 A3018 RMK AO2 SLP228 T00830083=
202210060951 SPECI KBLI 060951Z AUTO 00000KT 1/4SM R16/0600V1200FT FG VV001 08/08 A3018 RMK AO2=
202210060949 SPECI KBLI 060949Z AUTO 00000KT 1/2SM R16/0600VP6000FT FG VV001 09/09 A3018 RMK AO2=
202210060946 SPECI KBLI 060946Z AUTO 00000KT 1 1/4SM R16/0700VP6000FT BR OVC001 09/09 A3018 RMK AO2 T00940094=
202210060944 SPECI KBLI 060944Z AUTO 00000KT 3SM R16/0700VP6000FT BR OVC001 09/09 A3018 RMK AO2 T00940094=
202210060911 SPECI KBLI 060911Z AUTO 00000KT 3SM BR BKN002 09/09 A3018 RMK AO2 T00940094=
202210060907 SPECI KBLI 060907Z AUTO 00000KT 1 1/4SM BR OVC002 09/09 A3018 RMK AO2 T00940094=
202210060903 SPECI KBLI 060903Z AUTO 00000KT 1/2SM R16/1000VP6000FT FG VV001 09/09 A3018 RMK AO2 T00890089=
202210060853 METAR KBLI 060853Z AUTO 00000KT 1/4SM R16/0800V3500FT FG VV002 09/09 A3018 RMK AO2 SLP226 T00940094 53002=
202210060847 SPECI KBLI 060847Z AUTO 00000KT 1/2SM R16/0800V2400FT FG VV002 09/09 A3018 RMK AO2=
202210060843 SPECI KBLI 060843Z AUTO 00000KT 3/4SM R16/0800V1800FT BR VV002 09/09 A3018 RMK AO2 VIS 1/4V5 T00940094=
202210060838 SPECI KBLI 060838Z AUTO 00000KT 1 1/4SM R16/0800VP6000FT BR FEW002 09/09 A3018 RMK AO2 VIS 1/4V5 T00940094=
202210060830 SPECI KBLI 060830Z AUTO 00000KT 3/4SM R16/1200VP6000FT BR CLR 10/10 A3018 RMK AO2 T01000100=
202210060810 SPECI KBLI 060810Z AUTO 00000KT 3SM R16/2000VP6000FT BR FEW002 10/10 A3018 RMK AO2 T01000100=
202210060803 SPECI KBLI 060803Z AUTO 00000KT 1 1/4SM R16/2000VP6000FT BR SCT002 10/10 A3018 RMK AO2 VIS 1/2V5 T01000100=
202210060753 METAR KBLI 060753Z AUTO 00000KT 3/4SM R16/0800VP6000FT BR VV002 10/10 A3017 RMK AO2 SLP225 T01000100 402110094=
202210060750 SPECI KBLI 060750Z AUTO 00000KT 1SM R16/0800VP6000FT BR VV002 09/09 A3017 RMK AO2=
202210060740 SPECI KBLI 060740Z AUTO 00000KT 2SM R16/2400VP6000FT BR FEW003 11/11 A3018 RMK AO2 T01060106=
202210060729 SPECI KBLI 060729Z AUTO 00000KT 1SM R16/P6000FT BR VV003 11/11 A3018 RMK AO2 T01060106=
202210060723 SPECI KBLI 060723Z AUTO 00000KT 7SM R16/2600VP6000FT SCT003 10/10 A3018 RMK AO2 T01000100=
202210060653 METAR KBLI 060653Z AUTO 00000KT 5SM BR CLR 11/11 A3018 RMK AO2 SLP225 T01060106=
202210060553 METAR KBLI 060553Z AUTO 00000KT 7SM CLR 11/11 A3017 RMK AO2 SLP225 T01060106 10200 20106 52004=
202210060453 METAR KBLI 060453Z 00000KT 8SM CLR 12/12 A3017 RMK AO2 SLP224 T01170117=
202210060353 METAR KBLI 060353Z 00000KT 9SM CLR 12/12 A3016 RMK AO2 SLP222 T01220117=
202210060253 METAR KBLI 060253Z 00000KT 10SM CLR 14/13 A3016 RMK AO2 SLP221 T01390128 53003=
202210060153 METAR KBLI 060153Z 27003KT 10SM CLR 16/13 A3015 RMK AO2 SLP217 T01560133=
202210060053 METAR KBLI 060053Z 29004KT 10SM CLR 18/14 A3015 RMK AO2 SLP216 T01780139=
202210052353 METAR KBLI 052353Z 29005KT 10SM CLR 20/14 A3015 RMK AO2 SLP217 T02000139 10211 20161 56011=
202210052253 METAR KBLI 052253Z VRB03KT 10SM CLR 20/14 A3016 RMK AO2 SLP219 T02000139=
202210052153 METAR KBLI 052153Z 28005KT 10SM CLR 19/14 A3018 RMK AO2 SLP225 T01890139=
202210052053 METAR KBLI 052053Z VRB03KT 10SM SCT016 19/14 A3019 RMK AO2 SLP228 T01890139 58007=
202210051953 METAR KBLI 051953Z VRB05KT 10SM SCT017 18/14 A3020 RMK AO2 SLP232 T01780139=
202210051853 METAR KBLI 051853Z VRB04KT 10SM SCT017 17/14 A3020 RMK AO2 SLP234 T01720139=
202210051753 METAR KBLI 051753Z 10SM CLR 16/13 A3021 RMK AO2 SLP236 T01610133 10167 20111 51010=
202210051716 SPECI KBLI 051716Z 00000KT 10SM SCT017 16/13 A3021 RMK AO2 T01610133=
202210051653 METAR KBLI 051653Z 00000KT 10SM OVC017 15/13 A3021 RMK AO2 SLP235 T01500128=
202210051553 METAR KBLI 051553Z 00000KT 8SM OVC017 12/12 A3020 RMK AO2 SLP233 T01220117=
202210051453 METAR KBLI 051453Z 00000KT 7SM OVC017 13/13 A3018 RMK AO2 SLP225 T01280128 52007=
202210051353 METAR KBLI 051353Z 00000KT 7SM OVC018 12/12 A3017 RMK AO2 SLP224 T01220122=
202210051253 METAR KBLI 051253Z AUTO 17005KT 9SM OVC020 13/13 A3016 RMK AO2 SLP221 T01280128=
202210051153 METAR KBLI 051153Z AUTO 00000KT 10SM BKN024 11/11 A3016 RMK AO2 SLP219 T01110111 10150 20100 53008=
202210051145 SPECI KBLI 051145Z AUTO 00000KT 8SM BKN024 11/11 A3015 RMK AO2 T01110111=
202210051053 METAR KBLI 051053Z AUTO 00000KT 10SM BKN100 12/12 A3015 RMK AO2 SLP215 T01220117=
202210050953 METAR KBLI 050953Z AUTO 00000KT 10SM BKN100 13/12 A3013 RMK AO2 SLP210 T01330122=
202210050853 METAR KBLI 050853Z AUTO 00000KT 8SM CLR 10/10 A3013 RMK AO2 SLP211 T01000100 53014=
202210050753 METAR KBLI 050753Z AUTO 00000KT 10SM CLR 12/12 A3011 RMK AO2 SLP203 T01170117 401610106=
202210050653 METAR KBLI 050653Z AUTO 00000KT 10SM CLR 13/12 A3010 RMK AO2 SLP199 T01330122=
202210050553 METAR KBLI 050553Z AUTO 16006KT 10SM CLR 15/13 A3009 RMK AO2 SLP197 T01500128 10161 20150 53014=
202210050453 METAR KBLI 050453Z 17006KT 10SM CLR 16/13 A3007 RMK AO2 SLP191 T01560128=
202210050353 METAR KBLI 050353Z 18005KT 10SM CLR 16/13 A3006 RMK AO2 SLP185 T01560133=
202210050253 METAR KBLI 050253Z 19005KT 10SM CLR 16/13 A3005 RMK AO2 SLP183 T01560133 53007=
202210050153 METAR KBLI 050153Z 18006KT 10SM CLR 16/13 A3003 RMK AO2 SLP176 T01560133=
202210050053 METAR KBLI 050053Z 19008KT 10SM CLR 15/13 A3002 RMK AO2 SLP173 T01500133=
202210042353 METAR KBLI 042353Z 19010G18KT 9SM CLR 15/13 A3003 RMK AO2 SLP176 T01500128 10156 20122 56003=
202210042253 METAR KBLI 042253Z 19008KT 9SM CLR 15/13 A3003 RMK AO2 SLP176 T01500133=
202210042153 METAR KBLI 042153Z 18008KT 150V220 9SM CLR 15/13 A3003 RMK AO2 SLP177 T01500133=
202210042053 METAR KBLI 042053Z 18009G16KT 7SM FEW005 SCT015 BKN060 15/13 A3004 RMK AO2 SLP179 T01500133 58008=
202210041953 METAR KBLI 041953Z 18009KT 8SM SCT005 BKN060 15/13 A3005 RMK AO2 SLP183 T01500133=
202210041930 SPECI KBLI 041930Z 18009KT 5SM BR SCT005 BKN060 14/13 A3006 RMK AO2 T01440133=
202210041915 SPECI KBLI 041915Z 21007G14KT 180V250 5SM BR BKN004 14/13 A3007 RMK AO2 T01390133=
202210041853 METAR KBLI 041853Z 17008KT 2SM BR OVC003 14/13 A3006 RMK AO2 SLP187 T01390133=
202210041823 SPECI KBLI 041823Z 18008KT 3/4SM R16/P6000FT BR OVC002 13/13 A3007 RMK AO2 T01280128=
202210041804 SPECI KBLI 041804Z 18007G16KT 1/4SM R16/3500VP6000FT FG OVC002 13/13 A3007 RMK AO2 T01280128=
202210041757 SPECI KBLI 041757Z 17008G16KT 1SM R16/3000VP6000FT BR OVC002 12/12 A3007 RMK AO2 T01220122=
202210041753 METAR KBLI 041753Z 18009KT 1/4SM R16/2800V5500FT FG OVC001 12/12 A3006 RMK AO2 SLP187 T01220122 10122 20106 51003=
202210041653 METAR KBLI 041653Z 18009KT 1/4SM R16/2000V3000FT FG OVC001 12/12 A3006 RMK AO2 SLP187 T01170117=
202210041645 SPECI KBLI 041645Z 18008KT 1/4SM R16/2400V2600FT FG OVC001 12/12 A3006 RMK AO2 T01170117=
202210041624 SPECI KBLI 041624Z 18010G18KT 1/4SM R16/1600V3500FT FG VV002 12/12 A3007 RMK AO2 T01170117=
202210041553 METAR KBLI 041553Z 18011G17KT 1/4SM R16/1200V1800FT FG VV002 12/12 A3006 RMK AO2 SLP186 T01170117=
202210041505 SPECI KBLI 041505Z 17009KT 1/4SM R16/1200V2200FT FG VV001 11/11 A3006 RMK AO2 T01110111=
202210041453 METAR KBLI 041453Z 19007KT 1/4SM R16/4500VP6000FT FG OVC001 11/11 A3005 RMK AO2 SLP184 T01110111 53008=
202210041449 SPECI KBLI 041449Z 19007KT 3/4SM R16/5000VP6000FT BR OVC001 11/11 A3005 RMK AO2=
202210041446 SPECI KBLI 041446Z 19006KT 3SM BR OVC001 11/11 A3005 RMK AO2 T01110111=
202210041433 SPECI KBLI 041433Z 18006KT 1SM R16/P6000FT BR OVC001 11/11 A3005 RMK AO2 T01110111=
202210041423 SPECI KBLI 041423Z 19006KT 3/4SM R16/1200VP6000FT BR VV001 11/11 A3005 RMK AO2 T01110111=
202210041412 SPECI KBLI 041412Z 19007KT 1/2SM R16/1400V2400FT FG VV001 11/11 A3005 RMK AO2 T01110111=
202210041406 SPECI KBLI 041406Z 20008KT 1/4SM R16/1400V2000FT FG VV001 11/11 A3005 RMK AO2 T01110111=
202210041353 METAR KBLI 041353Z 18010KT 1/8SM R16/1400V1800FT FG VV001 11/11 A3004 RMK AO2 SLP180 T01110111=
202210041324 SPECI KBLI 041324Z AUTO 18009KT 1/4SM R16/1400V2000FT FG VV001 11/11 A3004 RMK AO2 T01060106=
202210041315 SPECI KBLI 041315Z AUTO 18009G16KT 1/4SM R16/1400V1800FT FG VV002 11/11 A3004 RMK AO2 T01110111=
202210041305 SPECI KBLI 041305Z AUTO 19009KT 1/2SM R16/1600V2200FT FG VV002 11/11 A3004 RMK AO2 T01110111=
202210041253 METAR KBLI 041253Z AUTO 19007KT 1/2SM R16/1600V2400FT FG VV002 11/11 A3004 RMK AO2 SLP177 T01110111=
202210041238 SPECI KBLI 041238Z AUTO 19006KT 1/2SM R16/1600V3000FT FG VV002 11/11 A3003 RMK AO2 T01110111=
202210041229 SPECI KBLI 041229Z AUTO 19005KT 1SM R16/2600V4500FT BR OVC002 11/11 A3003 RMK AO2 T01110111=
202210041223 SPECI KBLI 041223Z AUTO 18006KT 3/4SM R16/2000V5500FT BR OVC001 11/11 A3003 RMK AO2 T01110111=
202210041214 SPECI KBLI 041214Z AUTO 18007KT 2 1/2SM R16/5500VP6000FT BR BKN001 11/11 A3003 RMK AO2 T01110111=
202210041207 SPECI KBLI 041207Z AUTO 19009KT 4SM BR BKN003 12/12 A3004 RMK AO2 T01170117=
202210041153 METAR KBLI 041153Z AUTO 18005KT 6SM BR FEW003 12/12 A3003 RMK AO2 SLP175 T01170117 10139 20117 51002=
202210041053 METAR KBLI 041053Z AUTO 19005KT 6SM BR CLR 12/12 A3003 RMK AO2 SLP175 T01220122=
202210040953 METAR KBLI 040953Z AUTO 18004KT 8SM CLR 13/12 A3003 RMK AO2 SLP175 T01280122=
202210040853 METAR KBLI 040853Z AUTO 20005KT 7SM CLR 13/13 A3003 RMK AO2 SLP173 T01280128 57003=
202210040753 METAR KBLI 040753Z AUTO 00000KT 8SM CLR 12/12 A3003 RMK AO2 SLP174 T01220122 402440083=
202210040653 METAR KBLI 040653Z AUTO 18004KT 10SM CLR 14/13 A3003 RMK AO2 SLP176 T01390133=
202210040553 METAR KBLI 040553Z AUTO 00000KT 10SM CLR 12/12 A3004 RMK AO2 SLP177 T01220117 10233 20117 51007=
202210040453 METAR KBLI 040453Z 18004KT 10SM CLR 14/13 A3003 RMK AO2 SLP176 T01390128=
202210040353 METAR KBLI 040353Z 00000KT 10SM CLR 14/13 A3002 RMK AO2 SLP173 T01390128=
202210040253 METAR KBLI 040253Z 00000KT 10SM CLR 15/13 A3001 RMK AO2 SLP171 T01500133 55000=
202210040153 METAR KBLI 040153Z 00000KT 9SM CLR 17/14 A3001 RMK AO2 SLP168 T01720139=
202210040053 METAR KBLI 040053Z 00000KT 8SM CLR 21/16 A3000 RMK AO2 SLP166 T02060156=
202210032353 METAR KBLI 032353Z 00000KT 10SM CLR 23/14 A3002 RMK AO2 SLP170 T02330139 10244 20194 58014=
202210032253 METAR KBLI 032253Z 31003KT 10SM CLR 24/14 A3003 RMK AO2 SLP175 T02440144=
202210032153 METAR KBLI 032153Z 29005KT 8SM CLR 24/13 A3004 RMK AO2 SLP179 T02390133=
202210032053 METAR KBLI 032053Z 23004KT 10SM CLR 23/14 A3006 RMK AO2 SLP184 T02330144 58010=
202210031953 METAR KBLI 031953Z VRB04KT 9SM CLR 23/12 A3007 RMK AO2 SLP189 T02330122=
202210031853 METAR KBLI 031853Z 00000KT 10SM CLR 22/12 A3008 RMK AO2 SLP191 T02220122=
202210031753 METAR KBLI 031753Z 00000KT 10SM CLR 19/13 A3009 RMK AO2 SLP194 T01940133 10194 20083 50003=
202210031653 METAR KBLI 031653Z 00000KT 10SM CLR 16/13 A3009 RMK AO2 SLP195 T01610133=
202210031553 METAR KBLI 031553Z 00000KT 7SM CLR 13/12 A3008 RMK AO2 SLP194 T01330122=
202210031453 METAR KBLI 031453Z 00000KT 10SM CLR 09/09 A3008 RMK AO2 SLP192 T00940094 53007=
202210031353 METAR KBLI 031353Z 00000KT 10SM CLR 09/09 A3006 RMK AO2 SLP188 T00890089=
202210031253 METAR KBLI 031253Z AUTO 00000KT 8SM CLR 09/09 A3006 RMK AO2 SLP184 T00890089=
202210031241 SPECI KBLI 031241Z AUTO 00000KT 5SM R16/5000VP6000FT BR CLR 09/09 A3006 RMK AO2 T00890089=
202210031238 SPECI KBLI 031238Z AUTO 00000KT 1SM R16/5000VP6000FT BR CLR 09/09 A3006 RMK AO2 T00940094=
202210031223 SPECI KBLI 031223Z AUTO 00000KT 1/2SM R16/3500VP6000FT FG CLR 09/09 A3005 RMK AO2 T00890089=
202210031216 SPECI KBLI 031216Z AUTO 00000KT 1SM R16/3500VP6000FT BR CLR 09/09 A3005 RMK AO2 T00890089=
202210031204 SPECI KBLI 031204Z AUTO 00000KT 1/2SM R16/2400VP6000FT FG CLR 09/09 A3006 RMK AO2 T00940094=
202210031153 METAR KBLI 031153Z AUTO 00000KT 3/4SM R16/2600VP6000FT BR CLR 09/09 A3006 RMK AO2 VIS 1/4V5 SLP184 T00940094 10133 20094 52005=
202210031151 SPECI KBLI 031151Z AUTO 00000KT 1 1/4SM R16/2200VP6000FT BR CLR 09/09 A3006 RMK AO2 VIS 1/4V5=
202210031125 SPECI KBLI 031125Z AUTO 00000KT 3SM R16/1800VP6000FT BR CLR 10/09 A3005 RMK AO2 T01000094=
202210031114 SPECI KBLI 031114Z AUTO 00000KT 1 3/4SM BR CLR 09/09 A3005 RMK AO2 T00940094=
202210031112 SPECI KBLI 031112Z AUTO 00000KT 5SM BR CLR 09/09 A3005 RMK AO2 T00940094=
202210031102 SPECI KBLI 031102Z AUTO 00000KT 2SM R16/4500VP6000FT BR CLR 10/10 A3005 RMK AO2 VIS 1/2V5 T01000100=
202210031053 METAR KBLI 031053Z AUTO 00000KT 6SM R16/2200VP6000FT BR CLR 09/09 A3005 RMK AO2 SLP182 T00940094=
202210030953 METAR KBLI 030953Z AUTO 00000KT 10SM CLR 10/10 A3004 RMK AO2 SLP180 T01000100=
202210030853 METAR KBLI 030853Z AUTO 00000KT 10SM CLR 11/11 A3004 RMK AO2 SLP178 T01110106 53010=
202210030753 METAR KBLI 030753Z AUTO 00000KT 10SM CLR 12/12 A3003 RMK AO2 SLP174 T01220122 402390078=
202210030653 METAR KBLI 030653Z AUTO 00000KT 10SM CLR 12/12 A3002 RMK AO2 SLP171 T01170117=
202210030553 METAR KBLI 030553Z AUTO 00000KT 10SM CLR 12/12 A3001 RMK AO2 SLP168 T01220117 10222 20111 53013=
202210030453 METAR KBLI 030453Z 00000KT 10SM CLR 13/11 A2999 RMK AO2 SLP163 T01280111=
202210030353 METAR KBLI 030353Z 00000KT 10SM CLR 14/12 A2998 RMK AO2 SLP160 T01390117=
202210030253 METAR KBLI 030253Z 00000KT 10SM CLR 14/13 A2997 RMK AO2 SLP156 T01440128 53002=
202210030153 METAR KBLI 030153Z 00000KT 10SM CLR 17/13 A2997 RMK AO2 SLP155 T01670133=
202210030053 METAR KBLI 030053Z 00000KT 10SM CLR 21/13 A2996 RMK AO2 SLP152 T02110133=
202210022353 METAR KBLI 022353Z 28003KT 10SM CLR 23/14 A2996 RMK AO2 SLP152 T02280139 10239 20200 56009=
202210022253 METAR KBLI 022253Z 28004KT 10SM CLR 23/14 A2997 RMK AO2 SLP154 T02330139=
202210022153 METAR KBLI 022153Z 29006KT 10SM CLR 23/14 A2998 RMK AO2 SLP157 T02280139=
202210022053 METAR KBLI 022053Z VRB04KT 10SM CLR 22/14 A2999 RMK AO2 SLP161 T02220139 57005=
202210021953 METAR KBLI 021953Z 27006KT 10SM CLR 22/14 A3000 RMK AO2 SLP163 T02220139=
202210021853 METAR KBLI 021853Z 31004KT 10SM CLR 22/13 A3000 RMK AO2 SLP164 T02220128=
202210021753 METAR KBLI 021753Z 34005KT 10SM CLR 20/13 A3001 RMK AO2 SLP166 T02000128 10200 20078 50007=
202210021653 METAR KBLI 021653Z VRB03KT 10SM CLR 17/14 A3001 RMK AO2 SLP167 T01720144=
202210021553 METAR KBLI 021553Z 00000KT 6SM BR CLR 14/13 A3000 RMK AO2 SLP165 T01390133=
202210021453 METAR KBLI 021453Z 00000KT 6SM BR CLR 09/09 A2999 RMK AO2 SLP161 T00890089 53011=
202210021421 SPECI KBLI 021421Z 00000KT 6SM R16/2800VP6000FT BR CLR 09/09 A2998 RMK AO2 T00890089=
202210021416 SPECI KBLI 021416Z 00000KT 1SM R16/2800VP6000FT BR VV001 09/09 A2998 RMK AO2 VIS 1/2V3 T00890089=
202210021353 METAR KBLI 021353Z 00000KT 1/2SM R16/2000VP6000FT FG VV001 08/08 A2997 RMK AO2 SLP155 T00780078=
202210021348 SPECI KBLI 021348Z 36003KT 1 1/2SM R16/2400VP6000FT BR SCT002 08/08 A2997 RMK AO2 VIS 1/2V5=
202210021339 SPECI KBLI 021339Z 00000KT 7SM R16/3000VP6000FT FEW002 08/08 A2997 RMK AO2 T00830083=
202210021332 SPECI KBLI 021332Z AUTO 00000KT 2 1/2SM R16/3000VP6000FT BR SCT002 09/09 A2997 RMK AO2 T00890089=
202210021253 METAR KBLI 021253Z AUTO 00000KT 3SM BR FEW002 09/09 A2996 RMK AO2 SLP151 T00890089=
202210021251 SPECI KBLI 021251Z AUTO 00000KT 1SM R16/P6000FT BR VV002 09/09 A2996 RMK AO2=
202210021224 SPECI KBLI 021224Z AUTO 00000KT 1/2SM R16/3000VP6000FT FG VV002 09/09 A2995 RMK AO2 T00940094=
202210021216 SPECI KBLI 021216Z AUTO 00000KT 3/4SM R16/1000VP6000FT BR VV002 09/09 A2995 RMK AO2 T00940094=
202210021213 SPECI KBLI 021213Z AUTO 00000KT 1 3/4SM R16/1200VP6000FT BR FEW002 09/09 A2995 RMK AO2 T00890089=
202210021153 METAR KBLI 021153Z AUTO 00000KT 5SM R16/2400VP6000FT BR CLR 09/09 A2995 RMK AO2 SLP149 T00940094 10128 20094 52002=
202210021151 SPECI KBLI 021151Z AUTO 00000KT 2 1/2SM BR CLR 10/10 A2995 RMK AO2 VIS 1/2V5=
202210021140 SPECI KBLI 021140Z AUTO 00000KT 3/4SM R16/P6000FT BR CLR 09/09 A2995 RMK AO2 T00940094=
202210021138 SPECI KBLI 021138Z AUTO 00000KT 1 1/2SM BR FEW002 09/09 A2995 RMK AO2 T00940094=
202210021121 SPECI KBLI 021121Z AUTO 00000KT 3SM BR FEW002 10/10 A2995 RMK AO2 T01000100=
202210021115 SPECI KBLI 021115Z AUTO 00000KT 1 1/4SM BR SCT002 10/10 A2995 RMK AO2 VIS 1/2V4 T01000100=
202210021106 SPECI KBLI 021106Z AUTO 00000KT 3/4SM R16/P6000FT BR VV002 09/09 A2995 RMK AO2 T00940094=
202210021103 SPECI KBLI 021103Z AUTO 00000KT 1 1/2SM BR FEW001 09/09 A2995 RMK AO2 T00940094=
202210021101 SPECI KBLI 021101Z AUTO 00000KT 3SM BR FEW001 10/10 A2995 RMK AO2 T01000100=
202210021057 SPECI KBLI 021057Z AUTO 00000KT 1 1/4SM R16/5500VP6000FT BR FEW001 10/10 A2995 RMK AO2 VIS 1/2V4 T01000100=
202210021053 METAR KBLI 021053Z AUTO 00000KT 1/2SM R16/1000VP6000FT FG VV001 10/10 A2995 RMK AO2 SLP148 T01000100=
202210021047 SPECI KBLI 021047Z AUTO 00000KT 3/4SM R16/1000V3500FT BR VV001 10/10 A2995 RMK AO2=
202210021045 SPECI KBLI 021045Z AUTO 00000KT 1 1/4SM R16/1000V5000FT BR FEW001 10/10 A2995 RMK AO2 T01000100=
202210021012 SPECI KBLI 021012Z AUTO 00000KT 9SM CLR 11/11 A2995 RMK AO2 T01110106=
202210021005 SPECI KBLI 021005Z AUTO 00000KT 2 1/2SM BR CLR 11/11 A2995 RMK AO2 T01110111=
202210020953 METAR KBLI 020953Z AUTO 00000KT 5SM R16/5000VP6000FT BR CLR 11/11 A2995 RMK AO2 SLP147 T01060106=
202210020934 SPECI KBLI 020934Z AUTO 00000KT 3SM BR CLR 11/10 A2995 RMK AO2 T01060100=
202210020931 SPECI KBLI 020931Z AUTO 00000KT 3/4SM R16/P6000FT BR CLR 10/10 A2995 RMK AO2 T01000100=
202210020923 SPECI KBLI 020923Z AUTO 00000KT 1 1/4SM BR CLR 11/10 A2995 RMK AO2 T01060100=
202210020853 METAR KBLI 020853Z AUTO 00000KT 7SM R16/2600VP6000FT CLR 12/12 A2995 RMK AO2 SLP146 T01170117 50000=
202210020753 METAR KBLI 020753Z AUTO 00000KT 10SM CLR 12/12 A2995 RMK AO2 SLP147 T01220122 402220072=
202210020653 METAR KBLI 020653Z AUTO 00000KT 10SM CLR 12/12 A2995 RMK AO2 SLP147 T01220117=
202210020553 METAR KBLI 020553Z AUTO 00000KT 10SM CLR 12/12 A2995 RMK AO2 SLP146 T01220122 10222 20117 55000=
202210020453 METAR KBLI 020453Z 00000KT 10SM CLR 13/12 A2994 RMK AO2 SLP147 T01280117=
202210020353 METAR KBLI 020353Z 00000KT 10SM CLR 13/13 A2994 RMK AO2 SLP147 T01280128=
202210020253 METAR KBLI 020253Z 00000KT 10SM CLR 15/13 A2995 RMK AO2 SLP147 T01500133 56004=
202210020153 METAR KBLI 020153Z 00000KT 10SM CLR 17/15 A2995 RMK AO2 SLP148 T01670150=
202210020053 METAR KBLI 020053Z 29003KT 10SM CLR 21/14 A2995 RMK AO2 SLP148 T02060144=
202210012353 METAR KBLI 012353Z 29004KT 10SM CLR 22/14 A2996 RMK AO2 SLP151 T02220144 10222 20189 56019=
202210012253 METAR KBLI 012253Z 27004KT 10SM CLR 22/14 A2997 RMK AO2 SLP156 T02220144=
202210012153 METAR KBLI 012153Z 26005KT 10SM CLR 22/14 A2999 RMK AO2 SLP162 T02170144=
202210012053 METAR KBLI 012053Z 25007KT 10SM CLR 20/14 A3002 RMK AO2 SLP170 T02000144 56017=
202210011953 METAR KBLI 011953Z VRB06KT 10SM CLR 20/15 A3003 RMK AO2 SLP175 T02000150=
202210011853 METAR KBLI 011853Z 32004KT 10SM CLR 22/14 A3005 RMK AO2 SLP180 T02170139=
202210011753 METAR KBLI 011753Z 03003KT 10SM CLR 19/14 A3007 RMK AO2 SLP187 T01890139 10189 20072 58009=
202210011653 METAR KBLI 011653Z 04003KT 8SM CLR 14/14 A3008 RMK AO2 SLP193 T01440139=
202210011627 SPECI KBLI 011627Z 02003KT 5SM BR SCT001 13/13 A3009 RMK AO2 VSBY CIGS LWR NW-NE T01330133=
202210011605 SPECI KBLI 011605Z 02003KT 1/2SM R16/1200VP6000FT FG VV001 12/12 A3009 RMK AO2 T01220122=
202210011553 METAR KBLI 011553Z 00000KT 1/4SM R16/0700V1800FT FG VV001 11/11 A3009 RMK AO2 SLP197 T01110111=
202210011524 SPECI KBLI 011524Z 00000KT 1/4SM R16/0600V0800FT FG VV001 09/09 A3009 RMK AO2 T00940094=
202210011517 SPECI KBLI 011517Z 00000KT 1/2SM R16/0700V1600FT FG VV001 09/09 A3009 RMK AO2 T00940094=
202210011508 SPECI KBLI 011508Z 00000KT 1/2SM R16/1600VP6000FT FG VV002 09/09 A3009 RMK AO2 T00890089=
202210011453 METAR KBLI 011453Z 00000KT 3/4SM R16/6000VP6000FT BR VV002 08/08 A3009 RMK AO2 SLP198 T00830083 53001=
202210011436 SPECI KBLI 011436Z 00000KT 3/4SM R16/1400V4500FT BR VV002 08/08 A3010 RMK AO2 T00780078=
202210011426 SPECI KBLI 011426Z 00000KT 1/2SM R16/1400V2200FT FG VV002 08/08 A3009 RMK AO2 T00780078=
202210011412 SPECI KBLI 011412Z 00000KT 1/2SM R16/1600V3500FT FG VV001 08/08 A3009 RMK AO2 T00780078=
202210011355 SPECI KBLI 011355Z 00000KT 1/2SM R16/1400V1600FT FG VV001 07/07 A3009 RMK AO2 T00720072=
202210011353 METAR KBLI 011353Z 00000KT 1/2SM R16/1400V2400FT FG VV002 07/07 A3009 RMK AO2 SLP197 T00720072=
202210011346 SPECI KBLI 011346Z 00000KT 3/4SM R16/1400VP6000FT BR VV001 08/08 A3009 RMK AO2 VSBY E-SE 10SM T00780078=
202210011339 SPECI KBLI 011339Z 00000KT 7SM R16/2200VP6000FT CLR 08/08 A3009 RMK AO2 T00780078=
202210011331 SPECI KBLI 011331Z 00000KT 2 1/2SM R16/2200VP6000FT BR CLR 08/08 A3009 RMK AO2 VIS 1 1/4V5 T00780078=
202210011314 SPECI KBLI 011314Z AUTO 00000KT 1 3/4SM BR CLR 08/08 A3009 RMK AO2 T00780078=
202210011259 SPECI KBLI 011259Z AUTO 00000KT 4SM R16/3000VP6000FT BR CLR 08/08 A3009 RMK AO2 T00830083=
202210011257 SPECI KBLI 011257Z AUTO 00000KT 1 1/4SM R16/3000VP6000FT BR FEW002 08/08 A3009 RMK AO2 VIS 1/4V5 T00830083=
202210011253 METAR KBLI 011253Z AUTO 00000KT 3/4SM R16/P6000FT BR VV002 08/08 A3009 RMK AO2 SLP196 T00830083=
202210011243 SPECI KBLI 011243Z AUTO 36003KT 3/4SM R16/2600VP6000FT BR VV002 08/08 A3009 RMK AO2 T00830083=
202210011239 SPECI KBLI 011239Z AUTO 00000KT 1 1/4SM R16/2600VP6000FT BR FEW002 08/08 A3009 RMK AO2 T00830083=
202210011234 SPECI KBLI 011234Z AUTO 00000KT 10SM R16/1800V4000FT FEW002 08/08 A3009 RMK AO2 T00780078=
202210011227 SPECI KBLI 011227Z AUTO 00000KT 2SM R16/1800VP6000FT BR SCT002 08/08 A3009 RMK AO2 T00830083=
202210011224 SPECI KBLI 011224Z AUTO 00000KT 1SM R16/5000VP6000FT BR VV002 08/08 A3009 RMK AO2 T00830083=
202210011216 SPECI KBLI 011216Z AUTO 00000KT 1/2SM R16/3500VP6000FT FG VV002 09/09 A3009 RMK AO2 T00890089=
202210011209 SPECI KBLI 011209Z AUTO 00000KT 1 1/2SM R16/5000VP6000FT BR BKN002 09/09 A3009 RMK AO2 T00940094=
202210011207 SPECI KBLI 011207Z AUTO 00000KT 3SM BR BKN002 09/09 A3009 RMK AO2 T00940094=
202210011153 METAR KBLI 011153Z AUTO 00000KT 7SM BKN001 09/09 A3009 RMK AO2 SLP195 T00940094 10122 20083 55001=
202210011144 SPECI KBLI 011144Z AUTO 00000KT 3SM BR SCT001 09/09 A3009 RMK AO2 T00940094=
202210011142 SPECI KBLI 011142Z AUTO 00000KT 2SM BR BKN001 09/09 A3009 RMK AO2 T00890089=
202210011138 SPECI KBLI 011138Z AUTO 00000KT 3/4SM R16/P6000FT BR VV001 09/09 A3009 RMK AO2 VIS 1/4V5 T00940094=
202210011114 SPECI KBLI 011114Z AUTO 00000KT 1/4SM R16/2000VP6000FT FG VV001 08/08 A3009 RMK AO2 T00830083=
202210011110 SPECI KBLI 011110Z AUTO 00000KT 3/4SM R16/2000V3000FT BR VV001 09/09 A3009 RMK AO2 T00890089=
202210011105 SPECI KBLI 011105Z AUTO 00000KT 2SM R16/2200VP6000FT BR SCT001 09/09 A3009 RMK AO2 T00940094=
202210011102 SPECI KBLI 011102Z AUTO 00000KT 1SM R16/2800VP6000FT BR VV001 09/09 A3009 RMK AO2 T00940094=
202210011053 METAR KBLI 011053Z AUTO 00000KT 1/2SM R16/1800VP6000FT FG VV001 09/09 A3009 RMK AO2 VIS 1/4V2 SLP195 T00890089=
202210011042 SPECI KBLI 011042Z AUTO 00000KT 1 3/4SM R16/2600VP6000FT BR FEW002 09/09 A3009 RMK AO2 T00890089=
202210011016 SPECI KBLI 011016Z AUTO 00000KT 4SM R16/1800V3000FT BR FEW002 09/09 A3009 RMK AO2 T00940094=
202210011012 SPECI KBLI 011012Z AUTO 00000KT 1 1/4SM R16/1800VP6000FT BR FEW001 10/10 A3009 RMK AO2 T01000100=
202210011005 SPECI KBLI 011005Z AUTO 00000KT 2SM BR FEW001 10/10 A3009 RMK AO2 T01000100=
202210010953 METAR KBLI 010953Z AUTO 00000KT 10SM CLR 10/10 A3009 RMK AO2 SLP196 T01000100=
202210010942 SPECI KBLI 010942Z AUTO 00000KT 4SM BR FEW002 10/10 A3010 RMK AO2 T01000100=
202210010934 SPECI KBLI 010934Z AUTO 00000KT 2SM BR FEW002 10/10 A3010 RMK AO2 T01000100=
202210010932 SPECI KBLI 010932Z AUTO 00000KT 1SM R16/P6000FT BR VV002 10/10 A3010 RMK AO2 T01000100=
202210010924 SPECI KBLI 010924Z AUTO 00000KT 1/2SM R16/1600VP6000FT FG VV002 11/11 A3010 RMK AO2 T01060106=
202210010921 SPECI KBLI 010921Z AUTO 00000KT 1SM R16/1800V3000FT BR VV002 11/11 A3010 RMK AO2 T01060106=
202210010919 SPECI KBLI 010919Z AUTO 00000KT 2 1/2SM R16/1800V3000FT BR FEW002 11/11 A3010 RMK AO2 T01060106=
202210010853 METAR KBLI 010853Z AUTO 00000KT 4SM R16/2400VP6000FT BR CLR 11/11 A3009 RMK AO2 SLP197 T01060106 58001=
202210010846 SPECI KBLI 010846Z AUTO 00000KT 5SM R16/4000VP6000FT BR CLR 11/10 A3009 RMK AO2 T01060100=
202210010839 SPECI KBLI 010839Z AUTO 00000KT 2SM BR CLR 11/10 A3010 RMK AO2 T01060100=
202210010829 SPECI KBLI 010829Z AUTO 00000KT 3/4SM R16/P6000FT BR CLR 11/11 A3010 RMK AO2 T01110111=
202210010811 SPECI KBLI 010811Z AUTO 00000KT 3SM BR CLR 11/11 A3009 RMK AO2 T01110106=
202210010805 SPECI KBLI 010805Z AUTO 00000KT 1SM R16/P6000FT BR CLR 11/11 A3010 RMK AO2 T01110111=
202210010800 SPECI KBLI 010800Z AUTO 00000KT 1SM R16/P6000FT BR VV001 11/11 A3009 RMK AO2 VIS 1/2V5 T01110111=
202210010753 METAR KBLI 010753Z AUTO 00000KT 2 1/2SM BR FEW001 11/11 A3010 RMK AO2 VIS 1 1/4V5 SLP198 T01110111 402060100=
202210010741 SPECI KBLI 010741Z AUTO 00000KT 4SM R16/2200VP6000FT BR FEW002 11/11 A3010 RMK AO2 T01110111=
202210010653 METAR KBLI 010653Z AUTO 00000KT 8SM CLR 12/12 A3010 RMK AO2 SLP200 T01170117=
202210010553 METAR KBLI 010553Z AUTO 00000KT 10SM CLR 11/11 A3010 RMK AO2 SLP199 T01110111 10200 20106 53004=
202210010453 METAR KBLI 010453Z 00000KT 10SM CLR 11/11 A3009 RMK AO2 SLP196 T01110111=
202210010353 METAR KBLI 010353Z 00000KT 10SM CLR 13/13 A3009 RMK AO2 SLP196 T01280128=
202210010253 METAR KBLI 010253Z 00000KT 10SM CLR 14/13 A3009 RMK AO2 SLP195 T01390133 55006=
202210010153 METAR KBLI 010153Z 00000KT 10SM CLR 16/13 A3008 RMK AO2 SLP193 T01560133=
202210010053 METAR KBLI 010053Z 29003KT 10SM CLR 19/14 A3009 RMK AO2 SLP195 T01890139=

# No short TAF reports from KBLI in databse.

###################################
#  large TAF from KBLI
###################################
202210312325 TAF KBLI 312325Z 0100/0124 17005KT P6SM SCT070 BKN200 FM011200
                       VRB02KT 5SM BR BKN025 FM011800 01002KT P6SM
                       OVC050=
202210311720 TAF KBLI 311720Z 3118/0118 19010G15KT P6SM SCT025 BKN060 FM010000
                       19004KT P6SM SCT070 BKN200 FM011200 VRB02KT
                       5SM BR BKN025=
202210311122 TAF KBLI 311122Z 3112/0112 00000KT P6SM SCT025 BKN060 OVC080
                      TEMPO 3112/3115 -SHRA BKN025 OVC060 FM311500
                       18005KT P6SM BKN020 OVC050 FM311800 19010G15KT
                       P6SM SCT025 BKN070 FM010000 19004KT P6SM
                       SCT070 BKN200=
202210310524 TAF KBLI 310524Z 3106/0106 16007KT P6SM -RA BKN015 OVC050 FM311500
                       18005KT P6SM BKN020 OVC050 FM311800 19010G15KT
                       P6SM SCT025 BKN070 FM010000 19004KT P6SM
                       SCT070 BKN200=
202210310311 KBLI 310311Z 3103/3124 17004KT 6SM -RA BR BKN030 FM311500 18008KT
                       6SM -SHRA BR OVC015 FM311800 19010G15KT
                       P6SM BKN020 OVC040=
202210302325 TAF KBLI 302325Z 3100/3124 17009KT 4SM RA BR SCT030 BKN040 OVC050
                       FM310300 17004KT 2SM -RA BR OVC005 FM311500
                       18008KT 6SM -SHRA BR OVC015 FM311800 19010G15KT
                       P6SM BKN020 OVC040=
202210301730 TAF KBLI 301730Z 3018/3118 16018G27KT 6SM -RA BR FEW040 OVC050
                       FM302200 17008KT 2SM -RA BR OVC010 FM310800
                       17004KT 2SM -RA BR OVC007 FM311500 18008KT
                       6SM -SHRA BR OVC015=
202210301121 TAF KBLI 301121Z 3012/3112 15015G25KT P6SM OVC060 FM301400 15015G25KT
                       P6SM -RA OVC040 FM301800 17013G20KT 3SM
                       -RA BR OVC020 FM302200 17008KT 2SM -RA BR
                       OVC010=
202210300524 TAF KBLI 300524Z 3006/3106 17012G20KT P6SM SCT040 OVC060 FM300900
                       17014G22KT P6SM -RA SCT025 OVC040 FM301200
                       16015G25KT 6SM -RA BR BKN025 OVC040 FM301800
                       17012G20KT 3SM -RA BR OVC013 FM302200 17006KT
                       2SM -RA BR OVC007=
202210292320 TAF KBLI 292320Z 3000/3024 19007KT P6SM OVC070 FM300400 16008KT
                       P6SM -RA BKN050 OVC090 FM300900 16012G18KT
                       6SM -RA BR BKN025 OVC050 FM301400 17015G25KT
                       4SM -RA BR OVC025 FM301800 18020G32KT 2SM
                       RA BR OVC015=
202210291725 TAF KBLI 291725Z 2918/3018 19007KT P6SM OVC070 FM300400 16008KT
                       P6SM -RA BKN050 OVC090 FM300900 16012G18KT
                       P6SM -RA BKN025 OVC050 FM301400 17015G25KT
                       4SM -RA OVC025=
202210291120 TAF KBLI 291120Z 2912/3012 18004KT P6SM BKN200 FM300400 16008KT
                       P6SM -RA BKN050 OVC090 FM300900 16012G18KT
                       P6SM -RA BKN025 OVC050=
202210290526 TAF KBLI 290526Z 2906/3006 18005KT P6SM FEW080 BKN250 FM291200
                       16008KT P6SM BKN060 OVC150 FM300300 16008KT
                       P6SM -RA OVC050=
202210282320 TAF KBLI 282320Z 2900/2924 19007KT P6SM FEW040 SCT080 FM290500
                       VRB04KT P6SM SCT250 FM291200 17005KT P6SM
                       OVC050 FM291800 17009KT P6SM OVC040=
202210281720 TAF KBLI 281720Z 2818/2918 17006KT P6SM SCT010 FM282300 18007KT
                       P6SM BKN050 FM290100 VRB04KT P6SM SCT250
                       FM291200 17005KT P6SM OVC050=
202210281227 KBLI 281227Z 2812/2912 19007KT P6SM -RA SCT005 OVC050 FM281400
                       17006KT P6SM -RA OVC050 FM281800 18010KT
                       P6SM BKN050 FM282300 18007KT P6SM BKN050
                       FM290100 VRB04KT P6SM SCT250=
202210281141 TAF KBLI 281141Z 2812/2912 18007KT P6SM -RA BKN005 OVC050 FM281400
                       17006KT P6SM -RA OVC050 FM281800 18010KT
                       P6SM BKN050 FM282300 18007KT P6SM BKN050
                       FM290100 VRB04KT P6SM SCT250=
202210280606 KBLI 280606Z 2806/2906 16014G24KT 5SM -RA BR SCT020 OVC040
                      TEMPO 2806/2809 3SM +RA FM281200 17005KT
                       P6SM RA OVC030 FM281800 17010KT P6SM BKN050
                       FM282300 VRB04KT P6SM BKN050=
202210280541 TAF KBLI 280541Z 2806/2906 16014G24KT 5SM -RA BR SCT020 OVC040
                       FM281200 17005KT P6SM RA OVC030 FM281800
                       17010KT P6SM BKN050 FM282300 VRB04KT P6SM
                       BKN050=
202210272320 TAF KBLI 272320Z 2800/2824 17030G40KT P6SM FEW040 OVC070 FM280300
                       18012G25KT P6SM RA OVC025 FM280600 18011KT
                       P6SM RA OVC015 FM281800 17010KT P6SM BKN050=
202210271720 TAF KBLI 271720Z 2718/2818 16016G30KT P6SM -RA SCT023 BKN035 FM271900
                       17028G45KT P6SM -RA OVC040 FM280000 17030G40KT
                       4SM RA OVC025 FM280300 18012G25KT P6SM RA
                       OVC025 FM280600 18011KT P6SM RA OVC015=
202210271139 TAF KBLI 271139Z 2712/2812 17013KT P6SM BKN050 OVC090 FM271600
                       16028G35KT P6SM BKN025 FM271900 17028G45KT
                       P6SM -RA OVC040 FM280000 17030G40KT P6SM
                       RA OVC035 FM280300 18012G25KT P6SM RA OVC025
                       FM280600 18011KT P6SM RA OVC015=
202210270539 TAF KBLI 270539Z 2706/2806 16010G20KT P6SM VCSH SCT025 OVC050 FM270800
                       17012G20KT P6SM OVC050 FM271600 16028G37KT
                       P6SM BKN018 FM272100 17037G45KT P6SM -RA
                       OVC030 FM280000 17030G40KT P6SM RA OVC035
                       FM280300 18023KT P6SM RA OVC028=
202210262320 TAF KBLI 262320Z 2700/2724 18011KT P6SM BKN025 OVC045 FM270300
                       16008G15KT P6SM -RA BKN030 FM270700 17012G20KT
                       P6SM OVC020 FM271200 17012G22KT P6SM OVC020=
202210261720 TAF KBLI 261720Z 2618/2718 18006KT P6SM FEW020 BKN035 OVC060 FM261900
                       18008KT P6SM OVC040 FM270000 18011KT P6SM
                       VCSH BKN035 FM270300 18008G15KT P6SM -RA
                       BKN030 FM270700 17012G20KT P6SM OVC020=
202210261139 TAF KBLI 261139Z 2612/2712 19004KT P6SM OVC025 FM261900 18010KT
                       P6SM OVC040 FM270000 18011KT P6SM VCSH BKN035
                       FM270300 18012KT P6SM -RA BKN030 FM270700
                       17012G20KT P6SM OVC040=
202210260540 TAF KBLI 260540Z 2606/2706 18007KT P6SM -RA BKN015 OVC025 FM261000
                       23003KT P6SM OVC025 FM261900 18008KT P6SM
                       OVC050 FM270000 18011KT P6SM VCSH BKN035
                       FM270400 18011KT P6SM -RA BKN030=
202210252338 TAF KBLI 252338Z 2600/2624 16015G28KT P6SM -SHRA BKN035 OVC080
                       FM260500 24007KT P6SM -SHRA OVC025 FM261000
                       20003KT P6SM OVC025 FM262000 18008KT P6SM
                       OVC050=
202210251737 TAF KBLI 251737Z 2518/2618 17006KT P6SM VCSH BKN050 FM252100 16017G25KT
                       P6SM -RA OVC050 FM252300 16015G22KT 4SM
                       -RA OVC025 FM260600 24009KT P6SM OVC016
                       FM261000 20003KT P6SM OVC025=
202210251139 TAF KBLI 251139Z 2512/2612 17005KT P6SM OVC050 FM252100 15015G22KT
                       6SM -RA OVC025 FM260000 16012G20KT 4SM -RA
                       BR OVC020 FM260600 24009KT P6SM OVC016=
202210250536 TAF KBLI 250536Z 2506/2606 18005KT P6SM VCSH SCT030 BKN050 FM250900
                       17005KT 4SM BR SCT005 SCT030 FM252100 15015G25KT
                       6SM -RA OVC025 FM260000 16012G20KT 4SM -RA
                       BR OVC020=
202210250301 TAF AMD KBLI 250301Z 2503/2524 33008KT P6SM -SHRA BKN025 OVC035
                       FM250800 18005KT P6SM OVC035 FM251700 16012G18KT
                       P6SM OVC050
                      TEMPO 2517/2518 P6SM -SHRA OVC050 FM252300
                       15014G21KT 6SM -RA OVC025=
202210242347 TAF KBLI 242347Z 2500/2524 21005KT P6SM BKN050 FM250200 17012KT
                       4SM -SHRA OVC035 FM251700 16012G18KT P6SM
                       OVC050
                      TEMPO 2517/2518 P6SM -SHRA OVC050 FM252300
                       15014G21KT 6SM -RA OVC025=
202210241744 TAF KBLI 241744Z 2418/2518 18010G20KT P6SM BKN020 OVC030 FM250200
                       17012KT 4SM -SHRA OVC035 FM250600 18008KT
                       P6SM OVC030=
202210241126 TAF KBLI 241126Z 2412/2512 16020G30KT P6SM -RA OVC050 FM241500
                       16015G25KT 6SM -SHRA BKN020 OVC030 FM241900
                       18012G18KT 6SM -SHRA BR OVC030 FM250200
                       17012KT 4SM -RA OVC035=
202210240526 TAF KBLI 240526Z 2406/2506 16008KT P6SM -RA OVC035 FM241100 15014G22KT
                       6SM -RA BR OVC020 FM241500 16011G18KT 6SM
                       BR VCSH OVC015 FM241900 18012KT 6SM -SHRA
                       BR OVC030=
202210240314 KBLI 240314Z 2403/2424 16006KT P6SM OVC080 FM240600 15011G18KT
                       P6SM -RA OVC035 FM241100 15014G22KT 6SM
                       -RA BR OVC020 FM241900 18010KT P6SM VCSH
                       OVC015=
202210232341 TAF KBLI 232341Z 2400/2424 16006KT P6SM SCT050 BKN200 FM240600
                       15011G18KT P6SM -RA OVC045 FM241100 15009G16KT
                       P6SM -RA OVC030 FM241900 18006KT P6SM OVC015=
202210231740 TAF KBLI 231740Z 2318/2418 VRB02KT P6SM BKN040 BKN250 FM231900
                       16006KT P6SM SCT050 OVC250 FM240600 15011G18KT
                       P6SM -RA OVC045 FM241100 15009G16KT P6SM
                       -RA OVC030=
202210231127 TAF KBLI 231127Z 2312/2412 VRB03KT 6SM BR BKN015 OVC035
                      TEMPO 2312/2315 1 1/2SM BR FM231700 VRB04KT
                       P6SM BKN040 BKN250 FM232000 16006KT P6SM
                       SCT050 OVC250 FM240600 15011G18KT P6SM -RA
                       OVC045=
202210230525 TAF KBLI 230525Z 2306/2406 00000KT 3SM BR SCT020 BKN040
                      TEMPO 2306/2310 3/4SM BR BKN005 FM231100
                       00000KT 1 1/2SM BR BKN005 FM231800 17006KT
                       6SM BR BKN050 BKN250 FM232000 18006KT P6SM
                       SCT050 OVC250=
202210222340 TAF KBLI 222340Z 2300/2324 VRB03KT P6SM SCT020 BKN050 FM230800
                       00000KT 3SM BR SCT030 BKN040 FM231100 00000KT
                       1 1/2SM BR FEW005 BKN010 FM231800 17006KT
                       6SM BR BKN050=
202210221728 TAF KBLI 221728Z 2218/2318 VRB03KT P6SM VCSH FEW010 OVC015 FM222000
                       29002KT P6SM OVC020 FM222300 29002KT P6SM
                       BKN050 FM230800 00000KT 3SM BR BKN010 FM231100
                       00000KT 1 1/2SM BR FEW005 BKN010=
202210221513 KBLI 221513Z 2215/2312 VRB03KT 1SM BR VCSH FEW010 OVC050
                      TEMPO 2215/2218 1/4SM FG VV003 FM221900 33005KT
                       P6SM BKN050 FM230800 00000KT 1 1/2SM BR
                       BKN003=
202210221124 TAF KBLI 221124Z 2212/2312 VRB03KT 3SM BR VCSH SCT004 OVC050
                      TEMPO 2212/2215 1SM BR FM221500 VRB03KT P6SM
                       VCSH FEW010 OVC050 FM221900 33005KT P6SM
                       BKN050 FM230800 00000KT 1 1/2SM BR BKN003=
202210220852 KBLI 220852Z 2209/2306 VRB03KT 6SM BR VCSH SCT002 BKN015 BKN050
                       TEMPO 2209/2213 1/2SM -SHRA FG BKN002 FM221400
                       01003KT P6SM VCSH SCT015 OVC030 FM221900
                       33005KT P6SM BKN040=
202210220527 TAF KBLI 220527Z 2206/2306 VRB03KT P6SM VCSH BKN015 OVC030
                      TEMPO 2206/2210 -SHRA FM221400 01003KT P6SM
                       VCSH SCT015 OVC030 FM221900 33005KT P6SM
                       BKN040=
202210220354 KBLI 220354Z 2204/2224 VRB04KT P6SM VCSH BKN035 FM221400 01003KT
                       P6SM VCSH OVC015 FM221800 33005KT P6SM VCSH
                       SCT015 OVC025=
202210220100 KBLI 220100Z 2201/2224 19006KT 6SM -RA BR BKN009 OVC015 FM220400
                       VRB04KT 6SM -SHRA BR OVC015 FM221400 01003KT
                       P6SM VCSH OVC015 FM221800 33005KT P6SM VCSH
                       SCT015 OVC025=
202210212320 TAF KBLI 212320Z 2200/2224 19006KT P6SM -RA SCT010 OVC035 FM220400
                       VRB04KT 6SM -SHRA BR OVC020 FM221400 01003KT
                       P6SM VCSH OVC015 FM221800 33005KT P6SM VCSH
                       SCT015 OVC025=
202210211743 KBLI 211743Z 2118/2218 18005KT 4SM -RA BR SCT015 OVC025
                      TEMPO 2118/2121 1SM RA BR OVC015 FM212100
                       19006KT 4SM -RA BR OVC018 FM220400 VRB04KT
                       6SM -SHRA BR OVC020 FM221400 01003KT P6SM
                       VCSH OVC025=
202210211724 TAF KBLI 211724Z 2118/2218 18005KT 4SM -RA BR SCT015 OVC025 FM212100
                       19006KT 4SM -RA BR OVC018 FM220400 VRB04KT
                       6SM -SHRA BR OVC020 FM221400 01003KT P6SM
                       VCSH OVC025=
202210211122 TAF KBLI 211122Z 2112/2212 19005KT P6SM BKN070 OVC120 FM211700
                       18005KT P6SM -RA OVC025 FM212100 19006KT
                       4SM -RA BR OVC018 FM220400 VRB04KT 6SM -SHRA
                       BR OVC020=
202210210523 TAF KBLI 210523Z 2106/2206 19005KT P6SM BKN070 FM211700 18005KT
                       6SM -RA BR BKN025 FM212100 19006KT 4SM -RA
                       BR OVC018=
202210210303 KBLI 210303Z 2103/2124 19007KT 6SM FU BKN050 FM211500 18005KT 4SM
                       -RA BR BKN025=
202210202320 TAF KBLI 202320Z 2100/2124 20006KT 3SM HZ FU SCT010 BKN060 FM210500
                       19004KT 4SM BR OVC040 FM211500 18005KT 4SM
                       -RA BR BKN025=
202210202024 KBLI 202024Z 2020/2118 18006KT 1 1/2SM BR SCT003 BKN060
                      TEMPO 2020/2021 3SM FU FM202100 23006KT P6SM
                       SCT010 BKN060 FM210500 19004KT 4SM BR OVC040
                       FM211000 18005KT 5SM -SHRA BR BKN025=
202210201925 KBLI 201925Z 2019/2118 18006KT 1 1/2SM BR SCT003 BKN060
                      TEMPO 2019/2021 1SM BR OVC003 FM202100 23006KT
                       P6SM SCT010 BKN060 FM210500 19004KT 4SM
                       BR OVC040 FM211000 18005KT 5SM -SHRA BR
                       BKN025=
202210201902 KBLI 201902Z 2019/2118 18006KT 1SM BR OVC003 FM202000 23006KT P6SM
                       SCT010 BKN040 FM210500 19004KT 4SM BR OVC040
                       FM211000 18005KT 5SM -SHRA BR BKN025=
202210201809 KBLI 201809Z 2018/2118 18006KT 3SM BR SCT003 BKN050
                      TEMPO 2018/2019 1SM BR OVC003 FM202000 23006KT
                       P6SM SCT010 BKN040 FM210500 19004KT 4SM
                       BR OVC040 FM211000 18005KT 5SM -SHRA BR
                       BKN025=
202210201720 TAF KBLI 201720Z 2018/2118 18006KT 1SM BR OVC003 FM202000 23006KT
                       P6SM SCT010 BKN040 FM210500 19004KT 4SM
                       BR OVC040 FM211000 18005KT 5SM -SHRA BR
                       BKN025=
202210201609 KBLI 201609Z 2016/2112 18006KT 4SM HZ SCT015 BKN050
                      TEMPO 2016/2018 1 1/2SM BR OVC006 FM201900
                       23006KT P6SM SCT040 FM211000 18005KT P6SM
                       BKN025=
202210201505 KBLI 201505Z 2015/2112 18006KT 4SM HZ SCT015 BKN050
                      TEMPO 2015/2018 1 1/2SM BR FM201900 23006KT
                       P6SM SCT040 FM211000 18005KT P6SM BKN025=
202210201120 TAF KBLI 201120Z 2012/2112 18003KT 1SM BR FU FEW007 FM201500 18006KT
                       4SM HZ SCT015 BKN050 FM201900 23006KT P6SM
                       SCT040 FM211000 18005KT P6SM BKN025=
202210200955 KBLI 200955Z 2010/2106 00000KT 1SM BR FU FEW250
                      TEMPO 2010/2014 1/4SM FG BKN004 FM201500
                       18006KT 4SM HZ SCT015 BKN050 FM201900 25006KT
                       P6SM SCT040=
202210200824 KBLI 200824Z 2008/2106 00000KT 1SM BR FU FEW250
                      TEMPO 2011/2015 1/4SM FG BKN004 FM201500
                       18006KT 4SM HZ SCT015 BKN050 FM201900 25006KT
                       P6SM SCT040=
202210200521 TAF KBLI 200521Z 2006/2106 00000KT 3SM FU FEW090 FM200800 00000KT
                       2SM BR FU FEW250 FM201500 18006KT 4SM HZ
                       SCT015 BKN050 FM201900 25006KT P6SM SCT040=
202210192334 TAF KBLI 192334Z 2000/2024 VRB03KT 2SM FU SKC FM200100 VRB02KT
                       3SM FU BKN250 FM200800 VRB03KT 2SM BR FU
                       FEW250 FM201500 21008KT P6SM BKN019 FM201900
                       25006KT P6SM SCT040=
202210192016 KBLI 192016Z 1920/2018 31004KT 1SM FU SKC FM192200 25005KT 2SM
                       FU SCT250 FM200100 00000KT 5SM FU BKN250
                       FM200800 21002KT 2SM BR FU FEW250 FM201500
                       20008KT 6SM FU BKN019=
202210191741 TAF KBLI 191741Z 1918/2018 34002KT 1SM FU SKC FM192000 25005KT
                       4SM FU SCT250 FM200100 00000KT 6SM FU BKN250
                       FM200800 21002KT 2SM BR FU FEW250 FM201500
                       20008KT 6SM FU BKN019=
202210191431 KBLI 191431Z 1915/2012 00000KT 2SM BR OVC015
                      TEMPO 1915/1917 1/2SM FG VV018 FM191700 VRB03KT
                       4SM FU FEW005 FM192100 25005KT 4SM FU SCT250
                       FM200100 00000KT 6SM FU BKN250 FM200800
                       21002KT 2SM BR FEW250=
202210191326 KBLI 191326Z 1913/2012 00000KT 2SM BR OVC015
                      TEMPO 1915/1917 1/4SM FG VV018 FM191700 VRB03KT
                       4SM FU FEW005 FM192100 25005KT 4SM FU SCT250
                       FM200100 00000KT 6SM FU BKN250 FM200800
                       21002KT 2SM BR FEW250=
202210191120 TAF KBLI 191120Z 1912/2012 00000KT 2SM BR OVC015
                      TEMPO 1915/1917 1/4SM FG VV001 FM191700 VRB03KT
                       4SM FU FEW005 FM192100 25005KT 4SM FU SCT250
                       FM200100 00000KT 6SM FU BKN250 FM200800
                       21002KT 2SM BR FEW250=
202210190520 TAF KBLI 190520Z 1906/2006 00000KT 2SM FU OVC020 FM191100 00000KT
                       2SM BR BKN003
                      TEMPO 1915/1917 1/4SM FG VV001 FM191700 VRB03KT
                       6SM FU FEW005 FM192100 25005KT 4SM FU SCT250
                       FM200100 00000KT 6SM FU BKN250=
202210190306 KBLI 190306Z 1903/1924 00000KT 2SM FU BKN020 FM191200 00000KT 2SM
                       BR BKN003
                      TEMPO 1915/1917 1/4SM FG VV001 FM191700 VRB03KT
                       6SM FU FEW005 FM192100 25005KT 4SM FU SCT250=
202210182320 TAF KBLI 182320Z 1900/1924 VRB04KT 3SM FU SKC FM190100 00000KT
                       5SM FU SKC FM191200 00000KT 2SM BR BKN003
                       TEMPO 1915/1917 1/4SM FG VV001 FM191700
                       VRB03KT 6SM HZ FEW005 FM192100 25005KT 4SM
                       FU SKC=
202210182203 KBLI 182203Z 1822/1918 VRB04KT 1SM FU BKN025 FM182300 24005KT 4SM
                       FU FEW250 FM190100 00000KT 5SM FU FEW250
                       FM191200 00000KT 2SM BR BKN003
                      TEMPO 1915/1917 1/4SM FG VV001 FM191700 23004KT
                       6SM HZ SCT030=
202210181757 TAF KBLI 181757Z 1818/1918 00000KT 3SM BR BKN030 FM182100 24005KT
                       6SM FU FEW250 FM190100 00000KT 6SM FU FEW250
                       FM191200 00000KT 2SM BR BKN003
                      TEMPO 1915/1917 1/4SM FG VV001 FM191700 23004KT
                       6SM HZ SCT030=
202210181520 KBLI 181520Z 1815/1912 00000KT 2SM BR BKN003
                      TEMPO 1815/1818 1/4SM FG VV001 FM181800 23004KT
                       6SM HZ SCT030 FM182100 24005KT 6SM HZ FEW250
                       FM190100 00000KT 6SM HZ FEW250=
202210181352 KBLI 181352Z 1814/1912 00000KT 2SM BR BKN005
                      TEMPO 1814/1815 1/2SM FG VV005 FM181600 23004KT
                       6SM HZ SCT030 FM182100 24005KT 6SM HZ FEW250
                       FM190100 00000KT 6SM HZ FEW250=
202210181159 KBLI 181159Z 1812/1912 00000KT 5SM BR BKN005
                      TEMPO 1812/1815 1/2SM FG VV005 FM181600 23004KT
                       6SM HZ SCT030 FM182100 24005KT 6SM HZ FEW250
                       FM190100 00000KT 6SM HZ FEW250=
202210181125 TAF KBLI 181125Z 1812/1912 00000KT 1/2SM FG VV003 FM181600 23004KT
                       6SM HZ SCT030 FM182100 24005KT 6SM HZ FEW250
                       FM190100 00000KT 6SM HZ FEW250=
202210180914 KBLI 180914Z 1809/1906 VRB03KT 1/2SM FG VV009 FM181100 00000KT
                       1/2SM FG BKN003 FM181600 23004KT 6SM HZ
                       SCT030 FM182100 24005KT 6SM HZ FEW250=
202210180703 KBLI 180703Z 1807/1906 00000KT P6SM SKC FM180800 VRB03KT 2SM BR
                       BKN020 FM181100 00000KT 1/2SM FG BKN003
                       FM181600 23004KT 6SM HZ SCT030 FM182100
                       24005KT 6SM HZ FEW250=
202210180520 TAF KBLI 180520Z 1806/1906 00000KT P6SM SKC FM180900 VRB03KT 4SM
                       BR BKN020 FM181100 00000KT 1/2SM FG BKN003
                       FM181600 23004KT 6SM HZ SCT030 FM182100
                       24005KT 6SM HZ FEW250=
202210180256 KBLI 180256Z 1803/1824 VRB03KT P6SM SCT250 FM180900 VRB03KT 1/2SM
                       FG BKN020 FM181600 23004KT 6SM HZ SCT030
                       FM182100 24005KT 6SM HZ FEW250=
202210172320 TAF KBLI 172320Z 1800/1824 20006KT P6SM SKC FM180400 16005KT P6SM
                       SKC FM180900 VRB03KT 1/2SM FG BKN020 FM181800
                       23004KT P6SM SCT030 FM182100 24005KT P6SM
                       SKC=
202210171742 TAF KBLI 171742Z 1718/1818 18004KT P6SM BKN018 FM171900 22004KT
                       P6SM SCT025 FM180000 00000KT P6SM FEW250
                       FM180400 00000KT P6SM SKC FM180900 00000KT
                       1/2SM FG BKN020=
202210171121 TAF KBLI 171121Z 1712/1812 00000KT 6SM BR HZ SKC FM171900 22004KT
                       P6SM SCT250 FM180000 00000KT P6SM FEW250
                       FM180400 00000KT P6SM SKC FM180900 00000KT
                       1/2SM FG SKC=
202210170819 KBLI 170819Z 1708/1806 19007G16KT 5SM HZ SKC FM170900 00000KT 1/2SM
                       FG SKC FM171200 00000KT 6SM BR HZ SKC FM171900
                       22004KT P6SM SCT250 FM180000 00000KT P6SM
                       FEW250=
202210170521 TAF KBLI 170521Z 1706/1806 19006KT 5SM HZ SKC FM170900 00000KT
                       1/2SM FG SKC FM171200 00000KT 6SM BR HZ
                       SKC FM171900 22004KT P6SM SCT250 FM180000
                       00000KT P6SM FEW250=
202210162323 TAF KBLI 162323Z 1700/1724 VRB04KT 3SM FU SCT040 FM170500 VRB03KT
                       5SM HZ SKC FM170900 00000KT 1/2SM FG SKC
                       FM171200 00000KT 6SM BR HZ SKC FM171900
                       22004KT P6SM SCT250=
202210161738 TAF KBLI 161738Z 1618/1718 VRB03KT 4SM HZ SKC FM170500 20002KT
                       P6SM SKC FM170900 VRB02KT 1/2SM FG SKC FM171200
                       19002KT 6SM BR HZ SKC=
202210161254 KBLI 161254Z 1613/1712 VRB03KT 6SM HZ SKC FM161900 15006KT 6SM
                       HZ SKC FM162200 30006KT 6SM HZ SKC FM170300
                       19003KT P6SM SKC FM170900 VRB02KT 1/2SM
                       FG SKC=
202210161120 TAF KBLI 161120Z 1612/1712 VRB03KT 2SM HZ BR SKC
                      TEMPO 1612/1613 1/2SM FG SCT007 FM161500
                       VRB03KT 6SM HZ SKC FM162200 30006KT 6SM
                       HZ SKC FM170300 19003KT P6SM SKC FM170900
                       VRB02KT 1/2SM FG SKC=
202210160520 TAF KBLI 160520Z 1606/1706 VRB03KT 6SM HZ SKC FM160900 VRB03KT
                       2SM HZ BR SKC
                      TEMPO 1609/1613 1/2SM FG SCT007 FM161500
                       VRB03KT 6SM HZ SKC FM162200 30006KT 6SM
                       HZ SKC FM170300 19003KT P6SM SKC=
202210152321 TAF KBLI 152321Z 1600/1624 VRB04KT 6SM HZ SKC FM160900 VRB03KT
                       2SM HZ BR SKC
                      TEMPO 1609/1613 1/2SM FG SCT007 FM161500
                       VRB03KT 6SM HZ SKC FM162200 30005KT 6SM
                       HZ SKC=
202210152052 KBLI 152052Z 1521/1618 28006KT 6SM HZ SKC FM160200 32006KT 6SM
                       HZ SKC FM160900 VRB03KT 2SM HZ BR SKC FM161500
                       VRB03KT 6SM HZ SKC=
202210151724 TAF KBLI 151724Z 1518/1618 36003KT 6SM HZ SKC FM152000 34008G15KT
                       6SM HZ SKC FM160200 32006KT 6SM HZ SKC FM160900
                       VRB03KT 2SM HZ BR SKC FM161500 VRB03KT 6SM
                       HZ SKC=
202210151332 KBLI 151332Z 1514/1612 02002KT 5SM HZ BR SCT009
                      TEMPO 1514/1515 2SM BR BKN007 FM151600 36003KT
                       6SM HZ SKC FM152300 32007KT P6SM SKC FM160200
                       32003KT P6SM SKC=
202210151129 TAF KBLI 151129Z 1512/1612 02002KT 5SM HZ BR SCT009 FM151600 36003KT
                       6SM HZ SKC FM152300 32007KT P6SM SKC FM160200
                       32003KT P6SM SKC=
202210150520 TAF KBLI 150520Z 1506/1606 32003KT 6SM HZ SKC FM150900 00000KT
                       5SM HZ BR SCT001 FM151200 02002KT 3SM HZ
                       BR SCT001 FM151800 02004KT 3SM HZ SKC FM152300
                       32005KT P6SM SKC=
202210142320 TAF KBLI 142320Z 1500/1524 32003KT 6SM HZ SKC FM150900 00000KT
                       5SM HZ BR SCT001 FM151200 02002KT 3SM HZ
                       BR SCT001 FM151800 02004KT 3SM HZ SKC=
202210141721 TAF KBLI 141721Z 1418/1518 32002KT 6SM HZ SKC FM150900 00000KT
                       4SM HZ BR SCT001 FM151200 02002KT 3SM HZ
                       BR SCT001=
202210141127 TAF KBLI 141127Z 1412/1512 00000KT 3SM BR SCT001
                      TEMPO 1412/1415 1/2SM FG SCT001 FM141500
                       00000KT 6SM HZ SKC FM150800 00000KT 4SM
                       BR SCT001=
202210140527 TAF KBLI 140527Z 1406/1506 00000KT P6SM SKC FM141000 00000KT 3SM
                       BR SCT001 FM141500 00000KT 6SM HZ SKC=
202210132321 TAF KBLI 132321Z 1400/1424 29003KT 6SM HZ SKC FM140300 00000KT
                       P6SM SKC FM141200 00000KT 3SM BR SCT001
                       FM141800 35005KT 5SM HZ SKC=
202210131720 TAF KBLI 131720Z 1318/1418 35002KT P6SM SKC FM132000 29005KT 6SM
                       HZ SKC FM140300 00000KT P6SM SKC FM140800
                       00000KT 3SM BR SCT001=
202210131422 KBLI 131422Z 1314/1412 00000KT 2SM BR BKN008 FM131600 00000KT P6SM
                       SKC FM132000 29006KT 6SM HZ SKC FM140300
                       00000KT P6SM SKC FM140800 00000KT 5SM BR
                       SCT001=
202210131359 KBLI 131359Z 1314/1412 00000KT 2SM BR BKN022 FM131500 00000KT P6SM
                       SKC FM132000 29006KT 6SM HZ SKC FM140300
                       00000KT P6SM SKC FM140800 00000KT 5SM BR
                       SCT001=
202210131120 TAF KBLI 131120Z 1312/1412 00000KT P6SM SCT001
                      TEMPO 1312/1314 5SM BR FM131500 00000KT P6SM
                       SKC FM132000 29006KT 6SM HZ SKC FM140300
                       00000KT P6SM SKC FM140800 00000KT 5SM BR
                       SCT001=
202210130536 TAF KBLI 130536Z 1306/1406 00000KT P6SM SKC FM130900 00000KT 5SM
                       BR SCT001
                      TEMPO 1310/1314 1SM BR BKN001 FM131500 00000KT
                       P6SM SKC FM132000 29006KT 6SM HZ SKC=
202210122321 TAF KBLI 122321Z 1300/1324 VRB03KT 6SM HZ SKC FM130900 00000KT
                       6SM HZ BR FEW250 FM131700 29005KT 6SM HZ
                       SKC=
202210121720 TAF KBLI 121720Z 1218/1318 35004KT 6SM BR HZ SKC FM130600 00000KT
                       P6SM FEW250=
202210121120 TAF KBLI 121120Z 1212/1312 00000KT P6SM SKC FM121800 36004KT 6SM
                       BR HZ SKC FM130600 00000KT P6SM FEW250=
202210120520 TAF KBLI 120520Z 1206/1306 00000KT P6SM SKC FM121200 02003KT P6SM
                       SKC FM121800 36004KT 6SM BR HZ SKC=
202210112320 TAF KBLI 112320Z 1200/1224 22005KT P6SM SKC FM120400 00000KT P6SM
                       SKC FM121200 02003KT P6SM SKC FM121800 36004KT
                       6SM BR HZ SKC=
202210111720 TAF KBLI 111720Z 1118/1218 00000KT P6SM FEW250 FM112100 20006KT
                       P6SM SKC FM120400 00000KT P6SM SKC FM121200
                       02003KT P6SM SKC=
202210111120 TAF KBLI 111120Z 1112/1212 00000KT P6SM SKC FM111300 04002KT 5SM
                       BR BKN035 FM111800 01005KT P6SM SKC=
202210110520 TAF KBLI 110520Z 1106/1206 18006KT P6SM OVC050 FM110900 00000KT
                       5SM BR FEW250 FM111300 04002KT 5SM BR BKN035
                       FM111800 01005KT P6SM SKC=
202210102320 TAF KBLI 102320Z 1100/1124 23010KT P6SM BKN250 FM110300 18006KT
                       P6SM FEW250 FM110900 00000KT 5SM BR FEW250
                       FM111300 04002KT 5SM BR BKN035 FM111800
                       01005KT P6SM SKC=
202210102056 KBLI 102056Z 1021/1118 18009G18KT P6SM BKN110 FM102200 23010KT
                       P6SM BKN250 FM110100 18009KT P6SM BKN045
                       OVC070 FM110300 18006KT P6SM SCT050 BKN200
                       FM110900 00000KT 5SM BR OVC006=
202210101727 TAF KBLI 101727Z 1018/1118 18007KT P6SM BKN110 FM102200 23010KT
                       P6SM BKN250 FM110100 18009KT P6SM BKN045
                       OVC070 FM110300 18006KT P6SM SCT050 BKN200
                       FM110900 00000KT 5SM BR OVC006=
202210101128 TAF KBLI 101128Z 1012/1112 00000KT 5SM BR SCT001 FM101400 18006KT
                       P6SM SCT100 BKN200 FM102100 18012KT P6SM
                       BKN045 OVC070 FM110300 18006KT P6SM SCT050
                       BKN200 FM110900 00000KT 5SM BR OVC006=
202210100541 TAF KBLI 100541Z 1006/1106 00000KT P6SM SKC FM100800 00000KT 5SM
                       BR SCT001
                      TEMPO 1008/1012 1SM BR BKN001 FM101400 18006KT
                       P6SM SCT100 BKN200 FM102100 18012KT P6SM
                       BKN045 OVC070 FM110300 18006KT P6SM SCT050
                       BKN200=
202210092320 TAF KBLI 092320Z 1000/1024 29005KT P6SM SKC FM100400 00000KT P6SM
                       SKC FM101200 18003KT 6SM BR FEW250 FM101900
                       18007KT P6SM BKN250 FM102200 20010G16KT
                       P6SM BKN100=
202210091723 TAF KBLI 091723Z 0918/1018 00000KT 6SM HZ SKC FM092000 29006KT
                       P6SM SKC FM100400 00000KT P6SM SKC FM101200
                       18003KT 6SM BR FEW250=
202210091135 TAF KBLI 091135Z 0912/1012 00000KT 5SM BR SKC
                      TEMPO 0912/0914 1SM BR SKC FM091400 00000KT
                       6SM HZ SKC FM092000 29006KT P6SM SKC FM100400
                       00000KT P6SM SKC FM101000 18006KT P6SM SKC=
202210090526 TAF KBLI 090526Z 0906/1006 00000KT P6SM SKC FM090900 00000KT 5SM
                       BR SKC
                      TEMPO 0909/0913 1SM BR SKC FM091300 00000KT
                       6SM HZ BR SKC FM092000 29006KT P6SM SKC=
202210082320 TAF KBLI 082320Z 0900/0924 27005KT P6SM SKC FM090400 00000KT P6SM
                       SKC FM091200 00000KT 6SM HZ BR FEW250 FM091600
                       33003KT P6SM SKC=
202210081720 TAF KBLI 081720Z 0818/0918 00000KT P6SM SKC FM082200 27005KT P6SM
                       SKC FM090400 00000KT P6SM SKC FM091200 00000KT
                       6SM HZ BR FEW250=
202210081318 KBLI 081318Z 0813/0912 00000KT 5SM BR SKC
                      TEMPO 0813/0815 1SM BR VV002 FM081600 VRB03KT
                       P6SM SKC=
202210081121 TAF KBLI 081121Z 0812/0912 00000KT 5SM BR SKC
                      TEMPO 0812/0815 2SM BR SCT001 FM081600 VRB03KT
                       P6SM SKC=
202210080520 TAF KBLI 080520Z 0806/0906 00000KT P6SM SKC
                      TEMPO 0806/0809 3SM BR FM080900 00000KT 3SM
                       BR FEW002
                      TEMPO 0811/0815 1SM BR BKN002 FM081600 VRB03KT
                       P6SM SKC=
202210072340 TAF KBLI 072340Z 0800/0824 VRB04KT P6SM SKC FM080800 00000KT 3SM
                       BR FEW002 FM081500 VRB03KT P6SM SKC=
202210071723 TAF KBLI 071723Z 0718/0818 VRB04KT P6SM BKN250 FM072100 27005KT
                       P6SM SCT250 FM080400 VRB02KT P6SM SKC FM080800
                       00000KT 5SM BR FEW002=
202210071128 TAF KBLI 071128Z 0712/0812 00000KT 4SM BR SCT002 BKN250
                      TEMPO 0712/0716 1SM BR BKN002 FM071600 00000KT
                       5SM BR SCT004 BKN250 FM071800 30005KT P6SM
                       SCT250 FM080400 VRB02KT P6SM SKC FM080800
                       00000KT 5SM BR FEW002=
202210070844 KBLI 070844Z 0709/0806 00000KT 3SM BR SCT002 BKN250
                      TEMPO 0709/0713 1SM BR BKN002 FM071600 00000KT
                       3SM BR SCT004 BKN250 FM071800 27005KT P6SM
                       SCT250=
202210070528 TAF KBLI 070528Z 0706/0806 00000KT P6SM BKN250
                      TEMPO 0709/0713 3SM BR SCT002 BKN250 FM071600
                       00000KT 3SM BR SCT004 BKN250 FM071800 27005KT
                       P6SM SCT250=
202210062320 TAF KBLI 062320Z 0700/0724 00000KT P6SM BKN250 FM070600 00000KT
                       3SM BR SCT005 SCT250 FM070900 00000KT 1/2SM
                       FG VV001 FM071600 00000KT 4SM BR BKN004
                       FM071800 27005KT P6SM SCT250=
202210061720 TAF KBLI 061720Z 0618/0718 00000KT P6SM SCT250 FM062000 32005KT
                       P6SM SCT250 FM070600 00000KT 3SM BR SCT005
                       FM070900 00000KT 1/2SM FG VV001 FM071600
                       00000KT 4SM BR BKN004=
202210061131 TAF KBLI 061131Z 0612/0712 00000KT 1/4SM FG VV001 FM061700 00000KT
                       3SM BR SCT002 FM061900 35004KT P6SM FEW250
                       FM070600 00000KT 3SM BR SCT005=
202210061020 KBLI 061020Z 0610/0706 00000KT 1/4SM FG VV001 FM061600 00000KT
                       3SM BR SCT002 FM061800 35004KT P6SM FEW250=
202210060733 KBLI 060733Z 0608/0706 00000KT 6SM BR FEW004 SCT200
                      TEMPO 0608/0612 1SM BR VV002 FM061200 00000KT
                       3SM BR SCT002 FM061800 35004KT P6SM FEW250=
202210060538 TAF KBLI 060538Z 0606/0706 00000KT P6SM SCT200 FM060900 VRB02KT
                       6SM BR FEW007 SCT200
                      TEMPO 0612/0616 BKN006 FM061800 35004KT P6SM
                       FEW250=
202210052331 TAF KBLI 052331Z 0600/0624 VRB03KT P6SM FEW250 FM060300 00000KT
                       P6SM SCT200 FM060900 VRB02KT 6SM BR FEW003
                       SCT200 FM061300 00000KT 2SM BCFG BKN005
                       FM061600 35002KT 6SM BR FEW250=
202210051733 TAF KBLI 051733Z 0518/0618 VRB03KT P6SM SCT015 FM051900 30004KT
                       P6SM FEW020 SCT200 FM060300 00000KT P6SM
                       SCT200 FM060900 VRB02KT 6SM BR FEW003 SCT200=
202210051121 TAF KBLI 051121Z 0512/0612 00000KT P6SM FEW003 SCT018
                      TEMPO 0512/0516 6SM BR BKN015 FM051800 VRB03KT
                       P6SM SCT018 SCT200 FM052000 30004KT P6SM
                       FEW020 SCT200 FM060900 VRB02KT 6SM BR FEW003
                       SCT200=
202210050520 TAF KBLI 050520Z 0506/0606 17006KT P6SM SCT200
                      TEMPO 0508/0511 5SM BR BKN006 FM051100 00000KT
                       4SM BR OVC005 FM051700 VRB03KT 5SM BR OVC008
                       FM052000 34004KT P6SM FEW012 SCT200=
202210042328 TAF KBLI 042328Z 0500/0524 17005KT P6SM BKN200 FM050900 00000KT
                       4SM BR BKN050 FM051200 00000KT 2SM BR OVC004
                       FM051500 28003KT 2SM BR BKN003=
202210041725 TAF KBLI 041725Z 0418/0518 18003KT 1/4SM BCFG OVC002 FM041900 18008KT
                       3SM BR BKN008 FM042000 17005KT P6SM BKN200
                       FM050900 19003KT 5SM BR OVC006=
202210041604 KBLI 041604Z 0416/0512 17007KT 1/4SM BCFG OVC001 FM041800 18003KT
                       6SM BR FEW007 SCT200 FM042000 17004KT P6SM
                       BKN200 FM050900 19003KT 5SM BR OVC006=
202210041459 KBLI 041459Z 0415/0512 17003KT 4SM BR BKN003
                      TEMPO 0415/0416 1/4SM FG OVC001 FM041800
                       18003KT 6SM BR FEW007 SCT200 FM042000 17004KT
                       P6SM BKN200 FM050900 19003KT 5SM BR OVC006=
202210041242 KBLI 041242Z 0413/0512 17003KT 4SM BR BKN003
                      TEMPO 0413/0416 1/2SM FG VV002 FM041800 18003KT
                       6SM BR FEW007 SCT200 FM042000 17004KT P6SM
                       BKN200 FM050900 19003KT 5SM BR OVC006=
202210041120 TAF KBLI 041120Z 0412/0512 17003KT 6SM BR FEW005 SCT200
                      TEMPO 0413/0417 3SM BR BKN004 FM041800 18003KT
                       6SM BR FEW007 SCT200 FM042000 17004KT P6SM
                       BKN200 FM050900 19003KT 5SM BR OVC006=
202210040520 TAF KBLI 040520Z 0406/0506 18004KT P6SM SKC FM040900 17003KT 6SM
                       BR FEW005 SCT200
                      TEMPO 0411/0415 3SM BR FM041800 18003KT 6SM
                       BR FEW007 SCT200 FM042000 17004KT P6SM BKN200=
202210032320 TAF KBLI 032320Z 0400/0424 31003KT P6SM SKC FM041000 00000KT 1/2SM
                       FG SKC FM041500 19003KT 1/2SM FG OVC002
                       FM041800 18003KT 4SM BR SCT020 FM042200
                       22004KT P6SM FEW050=
202210031727 TAF KBLI 031727Z 0318/0418 00000KT P6SM SKC FM032100 24003KT P6SM
                       SKC FM041000 00000KT 1/2SM FG SKC FM041500
                       19003KT 1/2SM FG OVC002=
202210031456 KBLI 031456Z 0315/0412 00000KT P6SM SKC
                      TEMPO 0315/0316 6SM BR FM031800 22001KT P6SM
                       SKC FM041000 00000KT 1/2SM FG SKC=
202210031137 TAF KBLI 031137Z 0312/0412 00000KT 2SM BR SKC FM031500 00000KT
                       1/4SM FG FEW001 FM031800 22001KT P6SM SKC
                       FM041000 00000KT 1/2SM FG SKC=
202210030540 TAF KBLI 030540Z 0306/0406 00000KT P6SM SKC FM030900 00000KT 2SM
                       BR SKC FM031500 00000KT 1/4SM FG FEW001
                       FM031800 22001KT P6SM SKC=
202210022320 TAF KBLI 022320Z 0300/0324 28004KT P6SM SKC FM030300 00000KT P6SM
                       SKC FM030900 00000KT 2SM BR SKC FM031500
                       00000KT 1/4SM FG FEW001 FM031800 22001KT
                       P6SM SKC=
202210021726 TAF KBLI 021726Z 0218/0318 VRB03KT P6SM SKC FM022100 25005KT P6SM
                       SKC FM030300 00000KT P6SM SKC FM030900 00000KT
                       2SM BR SKC FM031500 00000KT 1/4SM FG FEW001=
202210021555 KBLI 021555Z 0216/0312 00000KT 6SM BR SKC FM021800 35003KT P6SM
                       SKC=
202210021124 TAF KBLI 021124Z 0212/0312 00000KT 1SM BR VV002 FM021400 24001KT
                       1/4SM FG SKC FM021700 28002KT 1SM BR SKC
                       FM021800 35003KT P6SM SKC=
202210020527 TAF KBLI 020527Z 0206/0306 VRB01KT P6SM SKC FM020800 00000KT 4SM
                       BR SKC FM021200 00000KT 1SM BR SKC FM021800
                       35003KT P6SM SKC=
202210012326 TAF KBLI 012326Z 0200/0224 27004KT P6SM SKC FM020300 VRB03KT P6SM
                       SKC FM020800 00000KT 4SM BR SKC FM021200
                       00000KT 1SM BR SKC FM021800 35003KT 6SM
                       BR SKC=
202210011720 TAF KBLI 011720Z 0118/0218 04003KT P6SM SKC FM011900 30006KT P6SM
                       SKC FM020300 VRB03KT P6SM SKC FM020800 00000KT
                       4SM BR SKC FM021200 00000KT 1SM BR SKC=
202210011142 TAF KBLI 011142Z 0112/0212 00000KT 1/2SM FG VV001 FM011700 33003KT
                       4SM BR BKN007 FM011900 30003KT P6SM SKC=
202210010536 TAF KBLI 010536Z 0106/0206 00000KT P6SM SKC FM010900 18006KT P6SM
                       SKC FM011200 19003KT 6SM BCFG FEW250=