##########################################################
# Query made at 02/16/2025 23:16:55 UTC
# Time interval: from 05/01/2022 00:00  to 05/31/2022 23:59  UTC
##########################################################

##########################################################
# KBLI, Bellingham, Bellingham International Airport (United States)
# WMO index: -----. WIGOS ID: Unknown
# Latitude 48-47-58N. Longitude 122-32-21W. Altitude 48 m.
##########################################################

###################################
#  METAR/SPECI from KBLI
###################################
202205312353 METAR KBLI 312353Z 31008KT 10SM CLR 19/13 A3012 RMK AO2 SLP204 T01940128 10206 20161 58016=
202205312253 METAR KBLI 312253Z 32007KT 10SM CLR 18/13 A3014 RMK AO2 SLP211 T01830128=
202205312153 METAR KBLI 312153Z 27004KT 10SM CLR 18/13 A3015 RMK AO2 SLP215 T01830133=
202205312053 METAR KBLI 312053Z 28009KT 10SM SCT090 SCT100 18/13 A3016 RMK AO2 SLP220 T01780133 58012=
202205311953 METAR KBLI 311953Z 01005KT 10SM FEW026 18/13 A3018 RMK AO2 SLP225 T01780128=
202205311853 METAR KBLI 311853Z 33009KT 10SM CLR 17/12 A3019 RMK AO2 SLP229 T01720122=
202205311753 METAR KBLI 311753Z 36009KT 10SM FEW100 16/12 A3020 RMK AO2 SLP233 T01610122 10161 20111 58006=
202205311746 SPECI KBLI 311746Z 36009KT 10SM FEW100 16/12 A3020 RMK AO2 T01610117=
202205311653 METAR KBLI 311653Z 00000KT 10SM SCT110 15/11 A3021 RMK AO2 SLP236 T01500111=
202205311553 METAR KBLI 311553Z 00000KT 10SM SCT033 15/11 A3021 RMK AO2 SLP237 T01500111=
202205311453 METAR KBLI 311453Z 00000KT 10SM OVC032 13/11 A3022 RMK AO2 SLP239 T01280111 53003=
202205311353 METAR KBLI 311353Z 00000KT 10SM OVC034 12/11 A3021 RMK AO2 SLP236 T01170111=
202205311253 METAR KBLI 311253Z AUTO 00000KT 10SM OVC036 11/11 A3021 RMK AO2 SLP236 T01110106 $=
202205311153 METAR KBLI 311153Z AUTO 00000KT 10SM OVC037 11/11 A3021 RMK AO2 SLP236 70009 T01110111 10111 20094 50000 $=
202205311053 METAR KBLI 311053Z AUTO 00000KT 10SM OVC039 11/11 A3021 RMK AO2 SLP236 T01110111 $=
202205310953 METAR KBLI 310953Z AUTO 00000KT 10SM OVC039 11/11 A3021 RMK AO2 SLP238 T01110111 $=
202205310853 METAR KBLI 310853Z AUTO 00000KT 10SM OVC040 11/11 A3021 RMK AO2 SLP236 T01110111 58005 $=
202205310753 METAR KBLI 310753Z AUTO 00000KT 10SM OVC040 11/11 A3022 RMK AO2 SLP239 T01060106 401610094 $=
202205310653 METAR KBLI 310653Z AUTO 00000KT 10SM OVC041 09/09 A3022 RMK AO2 SLP239 T00940094 $=
202205310553 METAR KBLI 310553Z AUTO 00000KT 10SM CLR 10/10 A3022 RMK AO2 SLP241 T01000100 10161 20100 51008 $=
202205310453 METAR KBLI 310453Z 00000KT 10SM CLR 11/10 A3022 RMK AO2 SLP240 T01060100 $=
202205310353 METAR KBLI 310353Z 00000KT 10SM SCT041 12/11 A3020 RMK AO2 SLP234 T01220111 $=
202205310253 METAR KBLI 310253Z 00000KT 10SM CLR 14/09 A3020 RMK AO2 SLP233 T01390094 53000 $=
202205310153 METAR KBLI 310153Z VRB04KT 10SM BKN044 15/09 A3019 RMK AO2 SLP230 T01500089 $=
202205310053 METAR KBLI 310053Z 00000KT 10SM SCT025 OVC044 15/10 A3020 RMK AO2 SLP232 T01500100 $=
202205302353 METAR KBLI 302353Z VRB03KT 10SM OVC044 16/09 A3020 RMK AO2 SLP232 60000 T01560094 10156 20106 53001 $=
202205302253 METAR KBLI 302253Z 19005KT 10SM OVC044 14/09 A3019 RMK AO2 SLP231 T01440094 $=
202205302153 METAR KBLI 302153Z 17006KT 10SM FEW023 SCT031 OVC045 14/09 A3020 RMK AO2 SLP232 T01390094 $=
202205302053 METAR KBLI 302053Z VRB05KT 10SM SCT025 BKN035 13/09 A3019 RMK AO2 SLP231 60000 T01280094 53006 $=
202205301953 METAR KBLI 301953Z 18005KT 10SM SCT012 BKN025 BKN055 13/10 A3019 RMK AO2 SLP229 T01330100 $=
202205301853 METAR KBLI 301853Z 18006KT 10SM SCT012 BKN025 BKN065 12/11 A3018 RMK AO2 RAE12 SLP226 P0000 T01220106=
202205301753 METAR KBLI 301753Z 19003KT 10SM -RA FEW012 BKN020 OVC039 11/10 A3017 RMK AO2 SLP225 P0001 60009 T01060100 10111 20094 51012=
202205301653 METAR KBLI 301653Z 17005KT 10SM -RA BKN012 BKN030 OVC070 11/10 A3017 RMK AO2 RAB13 SLP222 P0001 T01060100=
202205301553 METAR KBLI 301553Z 17006KT 10SM SCT014 BKN027 OVC060 10/10 A3016 RMK AO2 RAE24 SLP219 P0000 T01000100=
202205301453 METAR KBLI 301453Z 17007KT 10SM -RA SCT014 BKN027 OVC060 10/10 A3014 RMK AO2 SLP213 P0000 60007 T01000100 53008=
202205301353 METAR KBLI 301353Z 17005KT 10SM -RA SCT010 BKN025 OVC050 10/10 A3013 RMK AO2 SLP209 P0003 T01000100=
202205301253 METAR KBLI 301253Z AUTO 17007KT 8SM -RA SCT014 OVC049 09/09 A3012 RMK AO2 SLP205 P0004 T00940094=
202205301249 SPECI KBLI 301249Z AUTO 17007KT 8SM -RA FEW011 SCT014 OVC049 10/10 A3012 RMK AO2 P0004=
202205301221 SPECI KBLI 301221Z AUTO 16007KT 9SM -RA SCT012 BKN017 OVC055 10/10 A3011 RMK AO2 P0002 T01000100=
202205301153 METAR KBLI 301153Z AUTO 15006KT 9SM -RA FEW015 BKN044 OVC050 10/10 A3011 RMK AO2 SLP203 P0002 60005 70005 T01000100 10117 20094 53011=
202205301053 METAR KBLI 301053Z AUTO 16006KT 10SM -RA OVC044 10/09 A3010 RMK AO2 SLP199 P0003 T01000094=
202205300953 METAR KBLI 300953Z AUTO 13006KT 10SM -RA FEW049 OVC055 10/09 A3009 RMK AO2 RAB38 SLP195 P0000 T01000089=
202205300853 METAR KBLI 300853Z AUTO 16008KT 10SM OVC085 11/08 A3008 RMK AO2 SLP192 T01060083 51008=
202205300753 METAR KBLI 300753Z AUTO 17006KT 10SM OVC100 11/08 A3007 RMK AO2 SLP190 T01110083 401670100=
202205300653 METAR KBLI 300653Z AUTO 17003KT 10SM BKN120 11/08 A3006 RMK AO2 SLP187 T01110078=
202205300553 METAR KBLI 300553Z AUTO 18006KT 10SM CLR 12/09 A3005 RMK AO2 SLP183 T01170089 10167 20117 51021=
202205300453 METAR KBLI 300453Z 20005KT 10SM CLR 12/08 A3004 RMK AO2 SLP179 T01220078=
202205300353 METAR KBLI 300353Z 18006KT 10SM CLR 13/08 A3002 RMK AO2 SLP171 T01330078=
202205300253 METAR KBLI 300253Z 19004KT 10SM CLR 15/08 A2999 RMK AO2 SLP163 T01500078 53012=
202205300153 METAR KBLI 300153Z 00000KT 10SM FEW050 16/08 A2997 RMK AO2 SLP157 T01560078=
202205300053 METAR KBLI 300053Z 18012KT 10SM FEW050 16/07 A2996 RMK AO2 SLP152 T01560072=
202205292353 METAR KBLI 292353Z VRB06KT 10SM CLR 16/07 A2996 RMK AO2 SLP151 60000 T01560072 10167 20128 53006=
202205292253 METAR KBLI 292253Z 17007KT 10SM FEW039 FEW050 16/08 A2995 RMK AO2 SLP148 T01610083=
202205292153 METAR KBLI 292153Z 19007KT 10SM SCT018 BKN037 16/09 A2994 RMK AO2 SLP146 T01560089=
202205292053 METAR KBLI 292053Z 19005KT 10SM SCT020 BKN030 BKN048 13/10 A2994 RMK AO2 RAB25E46 SLP145 P0000 60000 T01330100 52015=
202205291953 METAR KBLI 291953Z VRB05KT 10SM SCT020 BKN027 BKN060 14/10 A2992 RMK AO2 SLP140 T01440100=
202205291853 METAR KBLI 291853Z 17007KT 10SM SCT025 BKN050 14/11 A2991 RMK AO2 SLP135 T01390106=
202205291753 METAR KBLI 291753Z 18010KT 10SM SCT015 BKN020 BKN048 13/11 A2989 RMK AO2 SLP130 60000 T01280106 10133 20100 51014=
202205291653 METAR KBLI 291653Z 18006KT 10SM SCT012 BKN027 12/11 A2989 RMK AO2 SLP127 T01220111=
202205291553 METAR KBLI 291553Z 18006KT 10SM BKN025 12/12 A2987 RMK AO2 SLP122 T01220117=
202205291453 METAR KBLI 291453Z 19004G14KT 10SM FEW005 BKN023 11/11 A2985 RMK AO2 SLP116 60000 T01110106 53018=
202205291353 METAR KBLI 291353Z 19006KT 10SM FEW005 BKN023 11/11 A2983 RMK AO2 SLP109 T01110106=
202205291253 METAR KBLI 291253Z AUTO 00000KT 10SM OVC024 11/11 A2982 RMK AO2 RAE1154 SLP104 P0000 T01060106=
202205291231 SPECI KBLI 291231Z AUTO 00000KT 10SM BKN024 BKN049 OVC085 11/11 A2981 RMK AO2 RAE1154 P0000 T01060106=
202205291153 METAR KBLI 291153Z AUTO 17003KT 10SM -RA OVC070 11/11 A2980 RMK AO2 SLP098 P0002 60006 70007 T01060106 10117 20106 53012=
202205291053 METAR KBLI 291053Z AUTO 18003KT 10SM -RA OVC055 11/11 A2979 RMK AO2 SLP094 P0002 T01060106=
202205290953 METAR KBLI 290953Z AUTO 18003KT 10SM -RA OVC060 11/11 A2978 RMK AO2 SLP090 P0000 T01060106=
202205290853 METAR KBLI 290853Z AUTO 19004KT 10SM -RA FEW006 OVC055 11/11 A2976 RMK AO2 SLP086 P0002 60002 T01060106 53010=
202205290835 SPECI KBLI 290835Z AUTO 16006KT 9SM -RA FEW006 OVC055 11/11 A2976 RMK AO2 P0001 T01110111=
202205290753 METAR KBLI 290753Z AUTO 19004KT 10SM -RA OVC055 11/11 A2975 RMK AO2 SLP082 P0000 T01110106 401610100=
202205290653 METAR KBLI 290653Z AUTO 19004KT 10SM -RA OVC055 12/11 A2974 RMK AO2 RAB0559 SLP079 P0000 T01170111=
202205290553 METAR KBLI 290553Z AUTO 20003KT 10SM FEW049 OVC060 11/11 A2973 RMK AO2 SLP076 60001 T01110111 10150 20111 53006=
202205290453 METAR KBLI 290453Z 00000KT 10SM OVC060 11/11 A2973 RMK AO2 RAE47 SLP073 P0000 T01110111=
202205290353 METAR KBLI 290353Z 00000KT 10SM -RA FEW037 SCT050 OVC085 12/11 A2972 RMK AO2 SLP070 P0001 T01170111=
202205290253 METAR KBLI 290253Z 00000KT 10SM -RA BKN060 OVC075 13/10 A2972 RMK AO2 RAB0155 SLP070 P0000 60000 T01280100 53004=
202205290153 METAR KBLI 290153Z 27004KT 10SM OVC060 13/08 A2971 RMK AO2 RAE05 SLP067 P0000 T01330083=
202205290053 METAR KBLI 290053Z 28008KT 10SM -RA FEW055 BKN075 14/09 A2971 RMK AO2 RAB40 SLP066 P0000 T01440094=
202205282353 METAR KBLI 282353Z 29009KT 10SM SCT045 OVC070 15/10 A2971 RMK AO2 SLP066 T01500100 10161 20139 58017=
202205282253 METAR KBLI 282253Z 29006KT 10SM FEW043 SCT085 15/10 A2972 RMK AO2 SLP072 T01500100=
202205282153 METAR KBLI 282153Z VRB05G14KT 10SM FEW030 SCT040 BKN055 15/09 A2974 RMK AO2 SLP078 T01500094=
202205282053 METAR KBLI 282053Z 10SM FEW025 SCT035 16/10 A2976 RMK AO2 SLP083 T01560100 56016=
202205281953 METAR KBLI 281953Z 27004KT 10SM FEW025 SCT035 15/08 A2977 RMK AO2 SLP088 T01500083=
202205281853 METAR KBLI 281853Z 00000KT 10SM SCT025 BKN050 15/09 A2979 RMK AO2 SLP094 T01500089=
202205281753 METAR KBLI 281753Z VRB05KT 10SM SCT025 BKN050 14/09 A2980 RMK AO2 SLP099 T01440094 10144 20100 58013=
202205281653 METAR KBLI 281653Z 03006KT 10SM SCT024 BKN034 OVC047 12/09 A2982 RMK AO2 SLP106 T01220094=
202205281553 METAR KBLI 281553Z VRB04KT 10SM SCT024 BKN032 OVC047 12/09 A2983 RMK AO2 SLP108 T01220094=
202205281544 SPECI KBLI 281544Z 03004KT 10SM SCT024 BKN032 OVC047 12/10 A2983 RMK AO2 T01220100=
202205281530 SPECI KBLI 281530Z 06006KT 10SM BKN024 BKN032 OVC047 12/10 A2983 RMK AO2 T01220100=
202205281523 SPECI KBLI 281523Z 04005KT 10SM FEW024 BKN032 OVC049 12/10 A2983 RMK AO2 T01220100=
202205281453 METAR KBLI 281453Z 03003KT 10SM OVC026 11/10 A2984 RMK AO2 SLP112 T01110100 56006=
202205281449 SPECI KBLI 281449Z 01003KT 10SM OVC027 12/11 A2984 RMK AO2=
202205281353 METAR KBLI 281353Z 10004KT 10SM OVC038 11/11 A2985 RMK AO2 SLP116 T01060106=
202205281253 METAR KBLI 281253Z AUTO 00000KT 10SM OVC041 10/10 A2986 RMK AO2 SLP118 T01000100=
202205281153 METAR KBLI 281153Z AUTO 00000KT 10SM OVC040 11/10 A2986 RMK AO2 SLP120 70015 T01060100 10117 20100 56017=
202205281053 METAR KBLI 281053Z AUTO 00000KT 10SM OVC045 11/09 A2988 RMK AO2 SLP125 T01060089=
202205280953 METAR KBLI 280953Z AUTO 00000KT 10SM BKN055 OVC095 10/09 A2989 RMK AO2 SLP129 T01000089=
202205280853 METAR KBLI 280853Z AUTO 00000KT 10SM OVC047 11/10 A2991 RMK AO2 SLP137 T01060100 58005=
202205280753 METAR KBLI 280753Z AUTO 00000KT 10SM OVC048 11/10 A2993 RMK AO2 SLP141 T01060100 401610106=
202205280653 METAR KBLI 280653Z AUTO 00000KT 10SM OVC048 11/09 A2993 RMK AO2 SLP143 T01110094=
202205280553 METAR KBLI 280553Z AUTO 00000KT 10SM BKN047 OVC100 12/09 A2993 RMK AO2 SLP142 T01170089 10161 20117 53001=
202205280453 METAR KBLI 280453Z 32003KT 10SM BKN045 12/08 A2993 RMK AO2 SLP142 T01220078=
202205280353 METAR KBLI 280353Z 00000KT 10SM FEW047 OVC110 13/08 A2992 RMK AO2 SLP140 T01280083=
202205280253 METAR KBLI 280253Z 00000KT 10SM BKN047 15/08 A2993 RMK AO2 SLP141 T01500083 55001=
202205280153 METAR KBLI 280153Z VRB05KT 10SM BKN085 16/09 A2992 RMK AO2 SLP140 T01560094=
202205280053 METAR KBLI 280053Z 24008KT 10SM FEW050 SCT070 OVC085 15/10 A2993 RMK AO2 SLP142 T01500100=
202205272353 METAR KBLI 272353Z VRB03KT 10SM OVC080 14/10 A2993 RMK AO2 SLP142 T01440100 10156 20128 58001=
202205272253 METAR KBLI 272253Z 18005KT 10SM FEW025 SCT040 BKN075 15/10 A2994 RMK AO2 SLP145 T01500100=
202205272153 METAR KBLI 272153Z VRB04KT 10SM SCT026 BKN080 14/10 A2994 RMK AO2 SLP145 T01440100=
202205272053 METAR KBLI 272053Z 19009G17KT 10SM SCT028 BKN080 16/11 A2993 RMK AO2 SLP142 T01560106 50004=
202205272025 SPECI KBLI 272025Z 19008G16KT 160V230 10SM SCT028 OVC080 14/10 A2994 RMK AO2 T01440100=
202205271953 METAR KBLI 271953Z 17010G18KT 10SM BKN025 BKN040 OVC085 14/10 A2994 RMK AO2 SLP144 T01440100=
202205271853 METAR KBLI 271853Z 19009G19KT 160V220 10SM BKN024 BKN048 BKN090 14/09 A2994 RMK AO2 SLP144 T01390094=
202205271753 METAR KBLI 271753Z 18011G18KT 10SM BKN021 OVC028 13/10 A2992 RMK AO2 SLP139 60015 T01280100 10128 20117 51017=
202205271653 METAR KBLI 271653Z 17009G15KT 10SM SCT013 BKN023 OVC030 12/10 A2991 RMK AO2 SLP134 T01220100=
202205271553 METAR KBLI 271553Z 17007KT 10SM BKN011 BKN021 OVC026 12/11 A2989 RMK AO2 RAB07E24 SLP128 P0000 T01220111=
202205271516 SPECI KBLI 271516Z 20004KT 10SM -RA FEW007 BKN011 OVC021 12/12 A2988 RMK AO2 RAB07 P0000 T01170117=
202205271500 SPECI KBLI 271500Z 21003KT 10SM SCT009 BKN016 OVC039 12/12 A2987 RMK AO2 T01170117=
202205271453 METAR KBLI 271453Z 20003KT 10SM SCT006 BKN030 OVC047 12/12 A2987 RMK AO2 RAB37E49 SLP122 P0000 60015 T01170117 51028=
202205271419 SPECI KBLI 271419Z 19003KT 10SM SCT016 OVC039 12/12 A2986 RMK AO2 CIGS LWR E-S T01220117=
202205271353 METAR KBLI 271353Z 00000KT 10SM BKN019 OVC037 12/11 A2985 RMK AO2 RAE40 SLP114 P0002 T01170111=
202205271319 SPECI KBLI 271319Z AUTO VRB03KT 10SM -RA FEW005 FEW014 OVC031 12/12 A2984 RMK AO2 P0002 T01220122=
202205271301 SPECI KBLI 271301Z AUTO 00000KT 3SM RA BR SCT003 BKN015 OVC031 12/12 A2983 RMK AO2 P0002 T01220122=
202205271253 METAR KBLI 271253Z AUTO VRB03KT 3SM -RA BR BKN005 BKN016 OVC022 12/12 A2982 RMK AO2 RAB1155 CIG 003V007 SLP105 P0013 T01220122=
202205271230 SPECI KBLI 271230Z AUTO 00000KT 4SM -RA BR BKN005 BKN018 OVC030 13/13 A2980 RMK AO2 RAB1155 P0006 T01280128=
202205271221 SPECI KBLI 271221Z AUTO 00000KT 4SM RA BR SCT006 BKN018 OVC032 13/13 A2980 RMK AO2 RAB1155 P0004 T01280128=
202205271214 SPECI KBLI 271214Z AUTO 29003KT 6SM -RA BR SCT019 BKN027 OVC033 13/13 A2979 RMK AO2 RAB1155 P0002 T01280128=
202205271153 METAR KBLI 271153Z AUTO 00000KT 10SM FEW018 BKN033 OVC045 13/13 A2979 RMK AO2 SLP093 60005 70034 T01280128 10156 20122 53015=
202205271139 SPECI KBLI 271139Z AUTO 00000KT 10SM SCT010 BKN023 OVC044 13/13 A2978 RMK AO2 T01280128=
202205271122 SPECI KBLI 271122Z AUTO 00000KT 10SM BKN010 OVC042 13/13 A2978 RMK AO2 T01280128=
202205271103 SPECI KBLI 271103Z AUTO 00000KT 10SM SCT013 OVC041 13/13 A2977 RMK AO2 T01280128=
202205271053 METAR KBLI 271053Z AUTO 09005KT 8SM BKN013 OVC041 13/13 A2977 RMK AO2 RAB01E31 SLP086 P0002 T01280128=
202205271006 SPECI KBLI 271006Z AUTO 00000KT 6SM -RA BR FEW006 BKN010 OVC018 13/13 A2977 RMK AO2 RAB01 CIG 009V013 P0001 T01280128=
202205270953 METAR KBLI 270953Z AUTO 26005KT 10SM FEW005 BKN020 OVC025 13/13 A2976 RMK AO2 RAB07E17 SLP085 P0000 T01330133=
202205270853 METAR KBLI 270853Z AUTO 18008KT 10SM FEW022 BKN029 OVC070 15/14 A2974 RMK AO2 RAB14E52 SLP078 P0003 60003 T01500144 55007=
202205270830 SPECI KBLI 270830Z AUTO 17009KT 8SM -RA SCT026 OVC070 16/14 A2974 RMK AO2 RAB14 P0002 T01560144=
202205270753 METAR KBLI 270753Z AUTO 15006KT 10SM OVC023 16/14 A2974 RMK AO2 SLP078 T01560144 401830089=
202205270724 SPECI KBLI 270724Z AUTO 20003KT 9SM OVC024 14/14 A2975 RMK AO2 T01440144=
202205270653 METAR KBLI 270653Z AUTO 00000KT 2 1/2SM BR FEW008 BKN019 OVC032 14/14 A2975 RMK AO2 RAE16 SLP080 P0000 T01390139=
202205270646 SPECI KBLI 270646Z AUTO 00000KT 2 1/2SM BR FEW008 BKN018 OVC110 14/14 A2975 RMK AO2 RAE16 CIG 012V025 P0000 T01390139=
202205270553 METAR KBLI 270553Z AUTO 00000KT 3SM -RA BR SCT003 BKN018 OVC024 14/14 A2977 RMK AO2 SLP086 P0006 60028 T01390139 10156 20139 56009=
202205270543 SPECI KBLI 270543Z AUTO 00000KT 2 1/2SM -RA BR SCT003 BKN022 OVC037 14/14 A2977 RMK AO2 P0006 T01390139=
202205270453 METAR KBLI 270453Z 00000KT 3SM -RA BR SCT008 BKN028 OVC040 14/14 A2978 RMK AO2 SLP089 P0005 T01390139=
202205270353 METAR KBLI 270353Z 00000KT 3SM -RA BR SCT008 BKN028 OVC040 14/14 A2978 RMK AO2 SLP091 P0003 T01390139=
202205270253 METAR KBLI 270253Z 00000KT 5SM -RA BR BKN023 BKN029 OVC038 14/14 A2979 RMK AO2 SLP096 P0007 60014 T01390139 57015=
202205270153 METAR KBLI 270153Z 00000KT 5SM -RA BR BKN029 BKN034 OVC043 14/14 A2981 RMK AO2 SLP100 P0005 T01390139=
202205270053 METAR KBLI 270053Z 00000KT 7SM -RA BKN041 OVC050 15/14 A2983 RMK AO2 SLP106 P0002 T01500144=
202205262353 METAR KBLI 262353Z 00000KT 10SM -RA SCT050 BKN060 OVC085 16/14 A2984 RMK AO2 RAB2254 SLP111 P0001 60001 T01560139 10183 20150 56006=
202205262253 METAR KBLI 262253Z 29003KT 10SM OVC080 16/12 A2984 RMK AO2 SLP111 T01560117=
202205262153 METAR KBLI 262153Z 00000KT 10SM BKN050 OVC080 17/12 A2985 RMK AO2 SLP115 T01720117=
202205262053 METAR KBLI 262053Z 18004KT 10SM OVC085 17/12 A2986 RMK AO2 SLP117 T01720117 58011 $=
202205261953 METAR KBLI 261953Z VRB05KT 10SM OVC100 17/11 A2987 RMK AO2 SLP122 T01670111 $=
202205261853 METAR KBLI 261853Z 23004KT 10SM FEW100 17/12 A2988 RMK AO2 SLP123 T01720122 $=
202205261753 METAR KBLI 261753Z VRB03KT 10SM CLR 17/13 A2989 RMK AO2 SLP127 T01670128 10167 20089 58007 $=
202205261653 METAR KBLI 261653Z 00000KT 10SM SCT110 15/12 A2990 RMK AO2 SLP132 T01500117 $=
202205261553 METAR KBLI 261553Z 04004KT 10SM FEW055 OVC110 14/12 A2990 RMK AO2 SLP133 T01390122 $=
202205261453 METAR KBLI 261453Z 00000KT 10SM OVC110 13/12 A2991 RMK AO2 SLP134 T01280122 56005 $=
202205261353 METAR KBLI 261353Z AUTO 00000KT 10SM OVC120 11/11 A2992 RMK AO2 SLP137 T01060106 $=
202205261253 METAR KBLI 261253Z AUTO 00000KT 10SM FEW050 09/09 A2991 RMK AO2 SLP137 T00890089 $=
202205261153 METAR KBLI 261153Z AUTO 00000KT 10SM CLR 10/10 A2992 RMK AO2 SLP140 70002 T01000100 10122 20094 58009=
202205261053 METAR KBLI 261053Z AUTO 00000KT 10SM CLR 11/11 A2993 RMK AO2 SLP144 T01060106=
202205260953 METAR KBLI 260953Z AUTO 00000KT 10SM CLR 10/10 A2995 RMK AO2 SLP147 T01000100=
202205260853 METAR KBLI 260853Z AUTO 00000KT 10SM CLR 11/11 A2995 RMK AO2 SLP149 T01060106 58006=
202205260753 METAR KBLI 260753Z AUTO 00000KT 10SM CLR 11/11 A2996 RMK AO2 SLP152 T01110111 401830106=
202205260653 METAR KBLI 260653Z AUTO 20003KT 10SM CLR 11/11 A2997 RMK AO2 SLP155 T01110111=
202205260553 METAR KBLI 260553Z AUTO 00000KT 10SM CLR 12/12 A2997 RMK AO2 SLP155 T01220117 10178 20122 53000=
202205260453 METAR KBLI 260453Z 00000KT 10SM CLR 12/12 A2997 RMK AO2 SLP155 T01220117=
202205260353 METAR KBLI 260353Z 20005KT 10SM CLR 14/12 A2997 RMK AO2 SLP155 T01390117=
202205260253 METAR KBLI 260253Z 18006KT 10SM CLR 16/12 A2997 RMK AO2 SLP155 T01560122 56012=
202205260153 METAR KBLI 260153Z 19004KT 10SM CLR 17/12 A2998 RMK AO2 SLP156 T01720122=
202205260053 METAR KBLI 260053Z 19005KT 10SM CLR 18/12 A2999 RMK AO2 SLP162 T01780122=
202205252353 METAR KBLI 252353Z 18006KT 10SM FEW070 18/11 A3000 RMK AO2 SLP166 T01780111 10183 20133 58005=
202205252253 METAR KBLI 252253Z 19007KT 10SM CLR 17/12 A3001 RMK AO2 SLP170 T01720117=
202205252153 METAR KBLI 252153Z 20006KT 10SM SCT026 17/12 A3002 RMK AO2 SLP172 T01720117=
202205252053 METAR KBLI 252053Z 20010KT 10SM BKN020 17/12 A3002 RMK AO2 SLP171 CIGS HIGHER S. T01670122 51005=
202205251953 METAR KBLI 251953Z 20007KT 10SM SCT014 BKN019 BKN043 14/12 A3002 RMK AO2 SLP171 T01440122=
202205251853 METAR KBLI 251853Z 20008KT 10SM BKN019 BKN027 OVC037 14/13 A3001 RMK AO2 SLP169 T01440128=
202205251753 METAR KBLI 251753Z 18008KT 10SM BKN020 OVC024 13/13 A3000 RMK AO2 SLP167 60002 T01330128 10139 20106 51010=
202205251653 METAR KBLI 251653Z 18008KT 10SM OVC023 14/13 A2999 RMK AO2 SLP163 T01390128=
202205251553 METAR KBLI 251553Z 15005KT 10SM OVC018 13/12 A2999 RMK AO2 SLP161 T01280122=
202205251453 METAR KBLI 251453Z 00000KT 10SM SCT015 OVC021 12/12 A2997 RMK AO2 SLP157 60002 T01220122 53007=
202205251353 METAR KBLI 251353Z 33003KT 7SM OVC022 11/11 A2997 RMK AO2 RAE1259 SLP154 P0000 T01110111=
202205251253 METAR KBLI 251253Z AUTO 01003KT 4SM -RA BR SCT013 BKN018 OVC024 11/11 A2996 RMK AO2 RAE27B44 SLP152 P0002 T01060106=
202205251242 SPECI KBLI 251242Z AUTO 04003KT 5SM BR FEW010 BKN014 OVC026 11/11 A2995 RMK AO2 RAE27 P0002 T01060106=
202205251153 METAR KBLI 251153Z AUTO 00000KT 6SM -RA BR OVC020 11/11 A2995 RMK AO2 SLP150 P0001 60009 70009 T01110111 10139 20106 58001=
202205251053 METAR KBLI 251053Z AUTO 00000KT 5SM -RA BR OVC025 11/11 A2996 RMK AO2 SLP152 P0008 T01060106=
202205251025 SPECI KBLI 251025Z AUTO 00000KT 4SM -RA BR OVC029 11/11 A2997 RMK AO2 P0004 T01110111=
202205250953 METAR KBLI 250953Z AUTO 34003KT 8SM -RA OVC033 12/11 A2996 RMK AO2 RAB24 SLP151 P0000 T01170111=
202205250853 METAR KBLI 250853Z AUTO 00000KT 10SM OVC034 13/09 A2996 RMK AO2 SLP151 T01280094 56004=
202205250753 METAR KBLI 250753Z AUTO 00000KT 10SM OVC036 12/10 A2996 RMK AO2 SLP152 T01220100 401560089=
202205250653 METAR KBLI 250653Z AUTO 00000KT 10SM BKN038 OVC060 13/08 A2996 RMK AO2 SLP152 T01330083=
202205250553 METAR KBLI 250553Z AUTO 00000KT 10SM FEW041 OVC060 14/08 A2997 RMK AO2 SLP155 60000 T01390078 10156 20133 56008=
202205250453 METAR KBLI 250453Z 14005KT 10SM OVC075 14/07 A2998 RMK AO2 SLP159 T01390072=
202205250353 METAR KBLI 250353Z 17009KT 10SM OVC080 14/07 A2998 RMK AO2 SLP158 T01440067=
202205250253 METAR KBLI 250253Z VRB05KT 10SM OVC090 14/09 A2999 RMK AO2 SLP163 60000 T01440089 58006=
202205250153 METAR KBLI 250153Z 14010KT 10SM OVC080 15/09 A3000 RMK AO2 RAB0059E08 SLP166 P0000 T01500089=
202205250053 METAR KBLI 250053Z 20003KT 10SM FEW048 BKN065 OVC080 14/12 A3002 RMK AO2 RAB27E51 SLP171 P0000 T01440117=
202205242353 METAR KBLI 242353Z 00000KT 10SM BKN085 16/11 A3001 RMK AO2 SLP169 T01560111 10156 20133 58013=
202205242253 METAR KBLI 242253Z 21007KT 10SM BKN100 15/10 A3002 RMK AO2 SLP174 T01500100=
202205242153 METAR KBLI 242153Z VRB04KT 10SM SCT110 14/11 A3004 RMK AO2 SLP180 T01440106=
202205242053 METAR KBLI 242053Z 22006KT 10SM SCT110 14/11 A3005 RMK AO2 SLP182 T01440106 57019 $=
202205241953 METAR KBLI 241953Z 18004KT 10SM CLR 15/11 A3006 RMK AO2 SLP187 T01500106 $=
202205241853 METAR KBLI 241853Z VRB03KT 10SM CLR 14/11 A3009 RMK AO2 SLP196 T01440106=
202205241753 METAR KBLI 241753Z 00000KT 10SM CLR 13/10 A3010 RMK AO2 SLP201 T01330100 10133 20100 50001=
202205241653 METAR KBLI 241653Z 00000KT 10SM FEW025 12/09 A3011 RMK AO2 SLP202 T01220094=
202205241553 METAR KBLI 241553Z 21004KT 10SM CLR 11/09 A3011 RMK AO2 SLP201 T01110094=
202205241453 METAR KBLI 241453Z 17010KT 10SM CLR 11/09 A3010 RMK AO2 SLP200 T01110094 55010=
202205241353 METAR KBLI 241353Z 17006KT 10SM CLR 11/09 A3010 RMK AO2 SLP199 T01110089=
202205241253 METAR KBLI 241253Z AUTO 17006KT 10SM CLR 11/09 A3012 RMK AO2 SLP207 T01060089=
202205241153 METAR KBLI 241153Z AUTO 16005KT 10SM CLR 10/08 A3013 RMK AO2 SLP210 T01000083 10122 20089 52003=
202205241053 METAR KBLI 241053Z AUTO 19004KT 10SM CLR 11/08 A3012 RMK AO2 SLP207 T01060083=
202205240953 METAR KBLI 240953Z AUTO 18003KT 10SM CLR 09/09 A3013 RMK AO2 SLP210 T00940089=
202205240853 METAR KBLI 240853Z AUTO 16004KT 10SM CLR 11/09 A3012 RMK AO2 SLP207 T01060089 58004=
202205240753 METAR KBLI 240753Z AUTO 16005KT 10SM CLR 11/09 A3013 RMK AO2 SLP210 T01110094 401670111=
202205240653 METAR KBLI 240653Z AUTO 18005KT 10SM CLR 12/10 A3013 RMK AO2 SLP211 T01170100=
202205240553 METAR KBLI 240553Z AUTO 18004KT 10SM CLR 12/11 A3013 RMK AO2 SLP211 T01170106 10167 20117 58002=
202205240453 METAR KBLI 240453Z 19004KT 10SM CLR 13/11 A3014 RMK AO2 SLP213 T01280106=
202205240353 METAR KBLI 240353Z 19004KT 10SM CLR 13/11 A3014 RMK AO2 SLP214 T01330106=
202205240253 METAR KBLI 240253Z 19004KT 10SM SCT080 15/11 A3014 RMK AO2 SLP213 T01500106 56010=
202205240153 METAR KBLI 240153Z 19006KT 10SM SCT080 17/10 A3014 RMK AO2 SLP212 T01670100=
202205240053 METAR KBLI 240053Z 19012KT 10SM CLR 16/10 A3015 RMK AO2 SLP218 T01610100=
202205232353 METAR KBLI 232353Z 18008KT 10SM CLR 16/10 A3017 RMK AO2 SLP223 60000 T01610100 10167 20133 58007=
202205232253 METAR KBLI 232253Z 18009G16KT 10SM BKN090 16/09 A3018 RMK AO2 SLP226 T01610094=
202205232153 METAR KBLI 232153Z 17009KT 10SM SCT050 OVC065 16/09 A3019 RMK AO2 SLP229 T01560089=
202205232053 METAR KBLI 232053Z 17009KT 10SM SCT045 BKN060 15/10 A3019 RMK AO2 RAE1955 SLP230 P0000 60000 T01500100 50001=
202205231953 METAR KBLI 231953Z 18008KT 10SM -RA FEW040 BKN055 OVC065 15/09 A3019 RMK AO2 RAE01B37 SLP231 P0000 T01500094=
202205231853 METAR KBLI 231853Z 18006KT 10SM -RA BKN065 BKN080 OVC100 14/09 A3019 RMK AO2 RAB49 SLP230 P0000 T01390094=
202205231753 METAR KBLI 231753Z 20007G15KT 160V230 10SM FEW060 BKN070 OVC090 13/09 A3019 RMK AO2 SLP230 60000 T01330089 10133 20111 53007=
202205231653 METAR KBLI 231653Z 18010G20KT 10SM SCT070 OVC085 12/09 A3018 RMK AO2 SLP226 T01220089=
202205231553 METAR KBLI 231553Z 18007KT 10SM BKN080 OVC090 12/09 A3018 RMK AO2 RAB23E42 SLP226 P0000 T01220089=
202205231453 METAR KBLI 231453Z 19011G19KT 10SM FEW060 SCT070 OVC080 11/09 A3017 RMK AO2 RAB00E25 SLP223 P0000 60000 T01110089 53005=
202205231353 METAR KBLI 231353Z 19010G19KT 10SM FEW060 OVC085 12/09 A3016 RMK AO2 SLP220 T01170094=
202205231253 METAR KBLI 231253Z AUTO 19008KT 10SM OVC080 12/10 A3015 RMK AO2 RAE1157 SLP216 P0000 T01170100 $=
202205231153 METAR KBLI 231153Z AUTO 19009G16KT 160V230 10SM -RA OVC075 12/10 A3015 RMK AO2 RAB17E27B48 SLP217 P0000 60000 T01170100 10133 20117 58001 $=
202205231053 METAR KBLI 231053Z AUTO 21004KT 10SM BKN075 OVC090 12/11 A3016 RMK AO2 SLP218 T01220106 $=
202205230953 METAR KBLI 230953Z AUTO 18008KT 10SM OVC080 12/10 A3016 RMK AO2 SLP219 T01170100 $=
202205230853 METAR KBLI 230853Z AUTO VRB06KT 10SM BKN090 OVC110 12/10 A3016 RMK AO2 SLP218 T01220100 53002 $=
202205230753 METAR KBLI 230753Z AUTO 19006KT 10SM BKN090 12/10 A3015 RMK AO2 SLP217 T01220100 402060056 $=
202205230653 METAR KBLI 230653Z AUTO 19005KT 10SM BKN095 13/11 A3015 RMK AO2 SLP214 T01330106 $=
202205230553 METAR KBLI 230553Z AUTO 18007KT 10SM BKN100 13/11 A3015 RMK AO2 SLP217 T01330111 10206 20133 53000 $=
202205230453 METAR KBLI 230453Z 17005KT 10SM CLR 14/10 A3015 RMK AO2 SLP216 T01440100 $=
202205230353 METAR KBLI 230353Z 19003KT 10SM CLR 14/11 A3014 RMK AO2 SLP214 T01440106 $=
202205230253 METAR KBLI 230253Z 18004KT 10SM CLR 16/10 A3015 RMK AO2 SLP216 T01610100 56009 $=
202205230153 METAR KBLI 230153Z VRB03KT 10SM CLR 18/07 A3015 RMK AO2 SLP217 T01830067 $=
202205230053 METAR KBLI 230053Z 17007KT 10SM CLR 20/07 A3016 RMK AO2 SLP221 T02000067 $=
202205222353 METAR KBLI 222353Z VRB04KT 10SM CLR 20/11 A3018 RMK AO2 SLP226 T02000111 10206 20144 58014 $=
202205222253 METAR KBLI 222253Z VRB03KT 10SM CLR 21/06 A3019 RMK AO2 SLP230 T02060061 $=
202205222153 METAR KBLI 222153Z VRB06KT 10SM CLR 19/07 A3021 RMK AO2 SLP236 T01940072 $=
202205222053 METAR KBLI 222053Z VRB04KT 10SM FEW090 19/08 A3022 RMK AO2 SLP240 T01890083 58012 $=
202205221953 METAR KBLI 221953Z 17005KT 10SM FEW090 18/08 A3023 RMK AO2 SLP243 T01780083 $=
202205221853 METAR KBLI 221853Z 18006KT 10SM FEW090 17/08 A3025 RMK AO2 SLP250 T01670083 $=
202205221753 METAR KBLI 221753Z VRB04KT 10SM CLR 14/09 A3025 RMK AO2 SLP252 T01440089 10150 20056 56003 $=
202205221653 METAR KBLI 221653Z 22005KT 10SM CLR 13/09 A3025 RMK AO2 SLP252 T01330094 $=
202205221553 METAR KBLI 221553Z 00000KT 10SM CLR 12/09 A3026 RMK AO2 SLP252 T01220089 $=
202205221453 METAR KBLI 221453Z VRB04KT 10SM CLR 12/09 A3026 RMK AO2 SLP254 T01170094 53007 $=
202205221353 METAR KBLI 221353Z 00000KT 10SM CLR 09/08 A3026 RMK AO2 SLP252 T00890078 $=
202205221253 METAR KBLI 221253Z AUTO 00000KT 10SM CLR 06/06 A3025 RMK AO2 SLP250 T00610061 $=
202205221153 METAR KBLI 221153Z AUTO 00000KT 10SM CLR 06/06 A3024 RMK AO2 SLP248 T00560056 10122 20056 53002 $=
202205221053 METAR KBLI 221053Z AUTO 00000KT 10SM CLR 07/07 A3024 RMK AO2 SLP247 T00720072 $=
202205220953 METAR KBLI 220953Z AUTO 00000KT 10SM CLR 07/07 A3023 RMK AO2 SLP245 T00720072 $=
202205220853 METAR KBLI 220853Z AUTO 00000KT 10SM CLR 08/08 A3023 RMK AO2 SLP245 T00780078 53005 $=
202205220753 METAR KBLI 220753Z AUTO 00000KT 10SM CLR 09/08 A3023 RMK AO2 SLP244 T00890078 401890044 $=
202205220653 METAR KBLI 220653Z AUTO 00000KT 10SM CLR 10/08 A3022 RMK AO2 SLP240 T01000078 $=
202205220553 METAR KBLI 220553Z AUTO 16003KT 10SM CLR 12/09 A3022 RMK AO2 SLP241 T01220089 10189 20117 53012 $=
202205220453 METAR KBLI 220453Z 17004KT 10SM CLR 12/09 A3021 RMK AO2 SLP238 T01170089 $=
202205220353 METAR KBLI 220353Z 18004KT 10SM CLR 13/09 A3019 RMK AO2 SLP231 T01330089 $=
202205220253 METAR KBLI 220253Z 19003KT 10SM CLR 18/05 A3019 RMK AO2 LTG DSNT SE SLP229 T01780050 53002 $=
202205220153 METAR KBLI 220153Z 30007KT 10SM CLR 18/04 A3017 RMK AO2 SLP223 T01830039 $=
202205220053 METAR KBLI 220053Z 29008KT 10SM FEW090 18/05 A3018 RMK AO2 SLP226 T01830050 $=
202205212353 METAR KBLI 212353Z 28010KT 10SM CLR 19/07 A3018 RMK AO2 SLP227 T01890072 10189 20144 58009 $=
202205212253 METAR KBLI 212253Z 28010KT 10SM CLR 18/08 A3019 RMK AO2 SLP230 T01780083 $=
202205212153 METAR KBLI 212153Z VRB06KT 10SM CLR 18/09 A3020 RMK AO2 SLP234 T01780094 $=
202205212053 METAR KBLI 212053Z 30007KT 270V350 10SM SCT080 17/09 A3021 RMK AO2 SLP237 T01670094 58005 $=
202205211953 METAR KBLI 211953Z 26006KT 10SM FEW030 SCT080 17/09 A3022 RMK AO2 SLP241 T01670089 $=
202205211853 METAR KBLI 211853Z VRB06KT 10SM FEW030 FEW080 16/09 A3022 RMK AO2 SLP241 T01560089 $=
202205211753 METAR KBLI 211753Z VRB04KT 10SM FEW080 14/09 A3023 RMK AO2 SLP242 T01440089 10150 20044 58003 $=
202205211653 METAR KBLI 211653Z 00000KT 10SM CLR 14/08 A3023 RMK AO2 SLP245 T01390078 $=
202205211553 METAR KBLI 211553Z VRB03KT 10SM CLR 12/07 A3023 RMK AO2 SLP245 T01220072 $=
202205211453 METAR KBLI 211453Z 00000KT 10SM BKN100 09/07 A3023 RMK AO2 SLP245 T00890072 52010 $=
202205211353 METAR KBLI 211353Z 00000KT 10SM OVC100 07/07 A3022 RMK AO2 SLP242 T00670067=
202205211253 METAR KBLI 211253Z AUTO 00000KT 10SM CLR 04/04 A3021 RMK AO2 SLP237 T00440044=
202205211153 METAR KBLI 211153Z AUTO 00000KT 10SM CLR 05/05 A3020 RMK AO2 SLP234 T00500050 10111 20044 53002=
202205211053 METAR KBLI 211053Z AUTO 00000KT 10SM CLR 06/06 A3020 RMK AO2 SLP232 T00610061=
202205210953 METAR KBLI 210953Z AUTO 00000KT 10SM CLR 07/07 A3020 RMK AO2 SLP232 T00670067=
202205210853 METAR KBLI 210853Z AUTO 00000KT 10SM CLR 08/08 A3019 RMK AO2 SLP232 T00780078 53000=
202205210753 METAR KBLI 210753Z AUTO 00000KT 10SM CLR 08/07 A3020 RMK AO2 SLP232 T00830067 401670033=
202205210653 METAR KBLI 210653Z AUTO 00000KT 10SM BKN095 09/08 A3019 RMK AO2 SLP230 T00940078=
202205210553 METAR KBLI 210553Z AUTO 02004KT 10SM BKN090 11/07 A3019 RMK AO2 SLP232 T01060067 10167 20106 53003=
202205210453 METAR KBLI 210453Z 08003KT 10SM SCT070 BKN100 12/07 A3018 RMK AO2 SLP227 T01220067=
202205210353 METAR KBLI 210353Z 35003KT 10SM SCT070 13/07 A3018 RMK AO2 SLP225 T01280067=
202205210311 SPECI KBLI 210311Z 05008KT 10SM FEW060 SCT070 BKN110 14/10 A3019 RMK AO2 T01440100=
202205210253 METAR KBLI 210253Z 00000KT 10SM FEW065 SCT080 15/09 A3019 RMK AO2 SLP229 T01500094 53001=
202205210153 METAR KBLI 210153Z VRB04KT 10SM FEW080 15/08 A3018 RMK AO2 SLP227 T01500083=
202205210053 METAR KBLI 210053Z 30005KT 10SM CLR 16/07 A3019 RMK AO2 SLP229 T01610067=
202205202353 METAR KBLI 202353Z VRB04KT 10SM CLR 16/06 A3018 RMK AO2 SLP228 T01610061 10161 20117 58014=
202205202253 METAR KBLI 202253Z VRB05KT 10SM CLR 16/06 A3020 RMK AO2 SLP235 T01560061=
202205202153 METAR KBLI 202153Z VRB06KT 10SM CLR 16/09 A3021 RMK AO2 SLP238 T01560089=
202205202053 METAR KBLI 202053Z 19009KT 10SM FEW024 14/08 A3023 RMK AO2 SLP242 T01440078 58012 $=
202205202009 SPECI KBLI 202009Z 19009KT 10SM FEW024 14/08 A3023 RMK AO2 T01390083 $=
202205201953 METAR KBLI 201953Z VRB05KT 10SM BKN024 13/08 A3024 RMK AO2 SLP247 T01330083 $=
202205201853 METAR KBLI 201853Z VRB03KT 10SM CLR 13/09 A3025 RMK AO2 SLP251 T01280089 $=
202205201753 METAR KBLI 201753Z VRB04KT 10SM FEW025 12/08 A3026 RMK AO2 SLP255 T01220083 10122 20044 58007 $=
202205201653 METAR KBLI 201653Z 18009KT 10SM FEW030 11/08 A3027 RMK AO2 SLP259 T01110083 $=
202205201553 METAR KBLI 201553Z VRB04KT 10SM CLR 11/07 A3028 RMK AO2 SLP262 T01060072=
202205201453 METAR KBLI 201453Z 00000KT 10SM CLR 11/06 A3028 RMK AO2 SLP261 T01060056 53006=
202205201353 METAR KBLI 201353Z 00000KT 10SM CLR 08/07 A3027 RMK AO2 SLP257 T00780067=
202205201253 METAR KBLI 201253Z AUTO 00000KT 10SM CLR 06/05 A3027 RMK AO2 SLP257 T00560050=
202205201153 METAR KBLI 201153Z AUTO 00000KT 10SM FEW100 04/04 A3026 RMK AO2 SLP256 T00440044 10089 20044 51002=
202205201053 METAR KBLI 201053Z AUTO 00000KT 10SM SCT100 05/05 A3026 RMK AO2 SLP255 T00500050=
202205200953 METAR KBLI 200953Z AUTO 00000KT 10SM OVC100 07/06 A3026 RMK AO2 SLP255 T00670056=
202205200853 METAR KBLI 200853Z AUTO 00000KT 10SM OVC095 07/06 A3026 RMK AO2 SLP254 T00720056 53004=
202205200753 METAR KBLI 200753Z AUTO 16004KT 10SM BKN095 08/05 A3025 RMK AO2 SLP251 T00830050 401440067=
202205200653 METAR KBLI 200653Z AUTO 16003KT 10SM CLR 07/06 A3025 RMK AO2 SLP253 T00670056=
202205200553 METAR KBLI 200553Z AUTO 00000KT 10SM BKN100 08/06 A3025 RMK AO2 SLP250 T00780061 10139 20078 51008=
202205200453 METAR KBLI 200453Z 00000KT 10SM CLR 08/06 A3025 RMK AO2 SLP249 T00830061=
202205200353 METAR KBLI 200353Z 00000KT 10SM FEW080 11/06 A3023 RMK AO2 SLP242 T01060061=
202205200253 METAR KBLI 200253Z 19003KT 10SM CLR 12/04 A3022 RMK AO2 SLP242 T01220044 53004=
202205200153 METAR KBLI 200153Z VRB03KT 10SM SCT080 13/02 A3022 RMK AO2 SLP240 T01330022=
202205200053 METAR KBLI 200053Z VRB06KT 10SM CLR 13/02 A3022 RMK AO2 SLP239 T01330022=
202205192353 METAR KBLI 192353Z VRB04KT 10SM SCT070 13/03 A3021 RMK AO2 SLP238 T01330033 10144 20111 52002=
202205192253 METAR KBLI 192253Z VRB05G19KT 10SM SCT070 13/03 A3021 RMK AO2 SLP238 T01330028=
202205192153 METAR KBLI 192153Z VRB06KT 10SM OVC070 14/04 A3021 RMK AO2 SLP237 T01390044=
202205192053 METAR KBLI 192053Z 31009G16KT 10SM CLR 13/03 A3021 RMK AO2 SLP236 T01330033 52010=
202205191953 METAR KBLI 191953Z 33011G17KT 10SM FEW038 12/04 A3020 RMK AO2 SLP233 T01220044=
202205191853 METAR KBLI 191853Z VRB06KT 10SM FEW033 FEW070 12/05 A3019 RMK AO2 SLP230 T01220050=
202205191753 METAR KBLI 191753Z 28006KT 10SM BKN034 BKN065 12/05 A3018 RMK AO2 SLP226 T01170050 10117 20072 53012=
202205191702 SPECI KBLI 191702Z 18005KT 10SM FEW027 SCT034 11/06 A3016 RMK AO2 T01110061=
202205191653 METAR KBLI 191653Z 17007KT 10SM BKN027 BKN034 11/06 A3016 RMK AO2 SLP221 T01110061=
202205191553 METAR KBLI 191553Z 17008KT 10SM SCT070 09/06 A3015 RMK AO2 SLP218 T00940056=
202205191453 METAR KBLI 191453Z 19003KT 10SM BKN065 BKN080 09/06 A3014 RMK AO2 SLP214 T00890056 53012=
202205191353 METAR KBLI 191353Z 17004KT 10SM OVC070 08/06 A3013 RMK AO2 SLP210 T00830061=
202205191253 METAR KBLI 191253Z AUTO 18005KT 10SM OVC070 08/05 A3012 RMK AO2 SLP205 T00780050=
202205191153 METAR KBLI 191153Z AUTO 19005KT 10SM SCT110 08/06 A3011 RMK AO2 SLP202 70004 T00780061 10094 20067 51001=
202205191053 METAR KBLI 191053Z AUTO 18004KT 10SM CLR 07/05 A3011 RMK AO2 SLP202 T00720050=
202205190953 METAR KBLI 190953Z AUTO 19005KT 10SM BKN060 08/06 A3010 RMK AO2 SLP201 T00830056=
202205190853 METAR KBLI 190853Z AUTO 19004KT 10SM BKN060 07/05 A3010 RMK AO2 SLP201 T00720050 52005=
202205190753 METAR KBLI 190753Z AUTO 18003KT 10SM CLR 08/04 A3010 RMK AO2 SLP199 T00830039 401500083=
202205190653 METAR KBLI 190653Z AUTO 19005KT 10SM FEW065 BKN110 09/03 A3009 RMK AO2 SLP197 T00890033=
202205190553 METAR KBLI 190553Z AUTO VRB03KT 10SM BKN070 BKN095 09/04 A3009 RMK AO2 SLP195 T00940044 10128 20094 51011=
202205190453 METAR KBLI 190453Z 21006KT 10SM BKN048 BKN060 10/03 A3009 RMK AO2 SLP195 T01000028=
202205190353 METAR KBLI 190353Z 21007G17KT 10SM BKN043 11/03 A3006 RMK AO2 SLP185 T01060033=
202205190253 METAR KBLI 190253Z 20006G17KT 10SM FEW040 11/04 A3005 RMK AO2 SLP184 T01110039 53005=
202205190153 METAR KBLI 190153Z 21007G19KT 170V250 10SM CLR 12/05 A3004 RMK AO2 SLP180 T01170050=
202205190053 METAR KBLI 190053Z 22012G24KT 10SM FEW039 12/05 A3005 RMK AO2 SLP182 T01220050=
202205182353 METAR KBLI 182353Z 26008G19KT 220V310 10SM SCT049 BKN075 13/05 A3004 RMK AO2 PK WND 22027/2308 SLP179 T01280050 10150 20117 53009=
202205182253 METAR KBLI 182253Z 20009G22KT 170V240 10SM FEW044 FEW075 13/06 A3002 RMK AO2 SLP174 T01330056=
202205182153 METAR KBLI 182153Z 21010G21KT 10SM FEW110 14/06 A3002 RMK AO2 PK WND 23027/2143 SLP173 T01390056=
202205182053 METAR KBLI 182053Z 21011G26KT 10SM FEW049 SCT065 BKN120 14/06 A3001 RMK AO2 PK WND 22031/2026 SLP169 T01390056 53027=
202205181953 METAR KBLI 181953Z 22012G21KT 180V290 10SM FEW049 BKN060 OVC075 13/06 A2999 RMK AO2 PK WND 20027/1908 SLP161 T01330056=
202205181853 METAR KBLI 181853Z 18012G28KT 10SM FEW039 BKN055 OVC070 12/08 A2995 RMK AO2 PK WND 19028/1846 SLP149 T01220078=
202205181804 SPECI KBLI 181804Z 18010G26KT 160V240 10SM BKN025 OVC048 12/09 A2994 RMK AO2 PK WND 19026/1801 T01170089=
202205181753 METAR KBLI 181753Z 18015G24KT 10SM BKN036 OVC048 12/08 A2993 RMK AO2 PK WND 16029/1728 RAE03 SLP142 P0000 60004 T01170083 10122 20094 51022=
202205181653 METAR KBLI 181653Z 18019G31KT 10SM -RA BKN026 BKN030 OVC043 10/09 A2990 RMK AO2 PK WND 19033/1555 RAB06 SLP133 P0002 T01000094=
202205181553 METAR KBLI 181553Z 18016G28KT 10SM BKN022 BKN049 OVC060 11/08 A2989 RMK AO2 PK WND 16043/1502 SLP129 T01060078=
202205181453 METAR KBLI 181453Z 18017G38KT 10SM BKN024 OVC060 11/07 A2986 RMK AO2 PK WND 17047/1402 RAE16 SLP120 P0000 60002 T01060072 55009=
202205181353 METAR KBLI 181353Z 17024G48KT 10SM -RA BKN026 OVC080 10/07 A2984 RMK AO2 PK WND 16048/1347 SLP110 P0001 T01000067=
202205181253 METAR KBLI 181253Z AUTO 17024G38KT 10SM -RA FEW030 FEW043 OVC060 10/08 A2984 RMK AO2 PK WND 17040/1234 SLP111 P0001 T01000078=
202205181153 METAR KBLI 181153Z AUTO 17015G24KT 9SM -RA SCT043 BKN050 OVC060 09/07 A2989 RMK AO2 PK WND 14030/1121 SLP128 P0001 60004 70004 T00940072 10111 20094 58038=
202205181053 METAR KBLI 181053Z AUTO 14010KT 9SM -RA FEW036 OVC047 09/08 A2995 RMK AO2 PRESFR SLP148 P0002 T00940078=
202205180953 METAR KBLI 180953Z AUTO 16011G17KT 10SM -RA OVC050 11/07 A2998 RMK AO2 SLP158 P0001 T01110072=
202205180853 METAR KBLI 180853Z AUTO 00000KT 10SM -RA OVC060 10/08 A3000 RMK AO2 RAB48 SLP167 P0000 60000 T01000083 58042=
202205180753 METAR KBLI 180753Z AUTO 00000KT 10SM OVC065 10/07 A3005 RMK AO2 SLP182 T01000072 401500072=
202205180653 METAR KBLI 180653Z AUTO 00000KT 10SM SCT120 09/08 A3009 RMK AO2 SLP195 T00940078=
202205180553 METAR KBLI 180553Z AUTO 00000KT 10SM BKN065 11/08 A3013 RMK AO2 SLP209 T01060078 10150 20100 58026=
202205180453 METAR KBLI 180453Z 00000KT 10SM OVC065 11/08 A3016 RMK AO2 SLP221 T01110078=
202205180353 METAR KBLI 180353Z 00000KT 10SM BKN065 11/07 A3018 RMK AO2 SLP227 T01110072=
202205180253 METAR KBLI 180253Z 00000KT 10SM CLR 12/07 A3021 RMK AO2 SLP236 T01220067 56019=
202205180153 METAR KBLI 180153Z 00000KT 10SM CLR 14/04 A3022 RMK AO2 SLP242 T01440044=
202205180053 METAR KBLI 180053Z 20004KT 10SM CLR 14/04 A3024 RMK AO2 SLP248 T01440039=
202205172353 METAR KBLI 172353Z VRB05KT 10SM SCT080 BKN120 14/05 A3026 RMK AO2 SLP255 T01440050 10144 20106 58007=
202205172253 METAR KBLI 172253Z VRB05KT 10SM CLR 14/04 A3027 RMK AO2 SLP258 T01390044=
202205172153 METAR KBLI 172153Z VRB05KT 10SM CLR 14/05 A3028 RMK AO2 SLP261 T01390050=
202205172053 METAR KBLI 172053Z 20006KT 10SM BKN120 13/04 A3028 RMK AO2 SLP261 T01280044 50001=
202205171953 METAR KBLI 171953Z 21005KT 10SM BKN060 12/04 A3029 RMK AO2 SLP264 T01170039=
202205171853 METAR KBLI 171853Z 18008KT 10SM SCT047 OVC060 12/06 A3029 RMK AO2 SLP265 T01170056=
202205171753 METAR KBLI 171753Z 19005KT 10SM OVC049 11/06 A3028 RMK AO2 RAE00 SLP261 P0000 60000 T01060056 10106 20072 51015=
202205171653 METAR KBLI 171653Z 20004KT 10SM -RA FEW025 SCT047 10/06 A3027 RMK AO2 RAB43 SLP257 P0000 T01000061=
202205171553 METAR KBLI 171553Z 19010KT 10SM BKN047 10/07 A3026 RMK AO2 RAB17E47 SLP252 P0000 T01000067=
202205171453 METAR KBLI 171453Z 19006KT 10SM OVC055 10/04 A3024 RMK AO2 SLP246 T01000044 53004=
202205171353 METAR KBLI 171353Z 00000KT 10SM FEW048 OVC070 09/06 A3023 RMK AO2 SLP243 T00890056=
202205171253 METAR KBLI 171253Z AUTO 00000KT 10SM FEW065 07/07 A3023 RMK AO2 SLP244 T00720067=
202205171153 METAR KBLI 171153Z AUTO 21003KT 10SM OVC060 09/05 A3022 RMK AO2 RAE44 SLP242 P0000 60000 70005 T00890050 10100 20072 52004=
202205171053 METAR KBLI 171053Z AUTO 17007KT 10SM -RA OVC050 09/06 A3022 RMK AO2 RAB39 SLP241 P0000 T00940056=
202205170953 METAR KBLI 170953Z AUTO 00000KT 10SM BKN050 OVC055 09/04 A3021 RMK AO2 RAB25E37 SLP238 P0000 T00940039=
202205170853 METAR KBLI 170853Z AUTO 19004KT 10SM BKN055 OVC070 09/06 A3021 RMK AO2 SLP238 T00940061 52008=
202205170753 METAR KBLI 170753Z AUTO 18004KT 10SM BKN060 BKN080 09/07 A3020 RMK AO2 SLP234 T00890067 401390072=
202205170653 METAR KBLI 170653Z AUTO 19003KT 10SM FEW070 08/07 A3020 RMK AO2 SLP233 T00780072=
202205170553 METAR KBLI 170553Z AUTO 18003KT 10SM FEW060 09/07 A3019 RMK AO2 SLP230 T00890072 10139 20083 51009=
202205170453 METAR KBLI 170453Z 00000KT 10SM BKN060 10/08 A3019 RMK AO2 SLP229 T01000078=
202205170353 METAR KBLI 170353Z 20005KT 10SM FEW065 11/06 A3017 RMK AO2 SLP225 T01110061=
202205170253 METAR KBLI 170253Z 19005KT 10SM FEW060 13/06 A3016 RMK AO2 SLP221 T01280061 53004=
202205170153 METAR KBLI 170153Z 18008KT 10SM CLR 13/06 A3015 RMK AO2 SLP218 T01280056=
202205170053 METAR KBLI 170053Z 18013KT 10SM SCT070 13/07 A3015 RMK AO2 SLP216 T01280072=
202205162353 METAR KBLI 162353Z 18010KT 10SM OVC060 13/06 A3015 RMK AO2 SLP217 60002 T01330061 10139 20117 50004=
202205162253 METAR KBLI 162253Z 17011G17KT 10SM FEW050 SCT060 BKN080 13/08 A3015 RMK AO2 RAB2154E12 SLP218 P0000 T01280083=
202205162153 METAR KBLI 162153Z 18007KT 10SM OVC060 13/09 A3015 RMK AO2 SLP217 T01280094=
202205162053 METAR KBLI 162053Z 18007KT 10SM SCT030 BKN060 12/08 A3014 RMK AO2 RAB1955E31 SLP212 P0001 60002 T01220083 51017=
202205161953 METAR KBLI 161953Z 18006KT 10SM SCT025 BKN050 BKN060 12/08 A3013 RMK AO2 RAB22E53 SLP210 P0001 T01220083=
202205161853 METAR KBLI 161853Z 17007KT 10SM FEW015 SCT025 BKN055 13/09 A3010 RMK AO2 RAB14E38 SLP201 P0000 T01280089=
202205161753 METAR KBLI 161753Z 19008KT 10SM SCT022 BKN035 BKN050 12/09 A3009 RMK AO2 RAB39E49 SLP195 P0000 60003 T01170094 10133 20106 53030=
202205161734 SPECI KBLI 161734Z 18010KT 10SM SCT020 BKN030 BKN060 12/10 A3008 RMK AO2 T01220100=
202205161653 METAR KBLI 161653Z VRB04KT 10SM SCT010 BKN016 OVC049 12/11 A3006 RMK AO2 RAE19 SLP185 P0000 T01170106=
202205161602 SPECI KBLI 161602Z 19005KT 4SM -RA BR SCT013 BKN022 BKN035 11/11 A3003 RMK AO2 P0000 T01060106=
202205161553 METAR KBLI 161553Z VRB03KT 2 1/2SM -RA BR BKN017 BKN036 OVC046 11/11 A3002 RMK AO2 RAE03B13 SLP174 P0001 T01060106=
202205161551 SPECI KBLI 161551Z VRB03KT 3SM -RA BR BKN017 BKN036 OVC046 11/11 A3002 RMK AO2 RAE03B13 P0001=
202205161544 SPECI KBLI 161544Z 19004KT 2 1/2SM RA BR BKN020 BKN034 OVC046 11/10 A3002 RMK AO2 RAE03B13 P0001 T01060100=
202205161506 SPECI KBLI 161506Z VRB03KT 10SM SCT015 BKN022 BKN030 11/10 A3001 RMK AO2 RAE03 P0000 T01110100=
202205161453 METAR KBLI 161453Z VRB04KT 5SM -RA BR SCT008 BKN015 OVC030 11/11 A3000 RMK AO2 RAB1356E37B40 SLP164 P0002 60002 T01110111 53023=
202205161450 SPECI KBLI 161450Z 00000KT 4SM -RA BR SCT002 BKN015 OVC030 11/11 A2999 RMK AO2 RAB1356E37B40 P0002=
202205161438 SPECI KBLI 161438Z 22003KT 2SM BR SCT002 BKN010 OVC026 11/11 A2998 RMK AO2 RAB1356E37 P0001 T01110111=
202205161425 SPECI KBLI 161425Z 18006KT 3/4SM R16/5500VP6000FT -RA BR BKN003 OVC010 12/12 A2997 RMK AO2 RAB1356 P0001 T01170117=
202205161421 SPECI KBLI 161421Z VRB06KT 2 1/2SM -RA BR SCT004 BKN007 OVC012 12/12 A2997 RMK AO2 RAB1356 P0001 T01170117=
202205161400 SPECI KBLI 161400Z 19008G18KT 2 1/2SM -RA BR BKN013 OVC019 12/12 A2996 RMK AO2 RAB1356 P0000 T01220117=
202205161353 METAR KBLI 161353Z 19009G18KT 4SM BR SCT010 BKN019 OVC040 13/12 A2995 RMK AO2 SLP150 T01280117=
202205161253 METAR KBLI 161253Z AUTO 18009G18KT 10SM OVC021 13/11 A2994 RMK AO2 SLP145 T01330106=
202205161153 METAR KBLI 161153Z AUTO 17009G21KT 10SM OVC020 13/11 A2993 RMK AO2 SLP140 60000 70063 T01330111 10144 20133 53005=
202205161053 METAR KBLI 161053Z AUTO 18011G17KT 10SM BKN023 OVC031 13/11 A2992 RMK AO2 RAB20E32 SLP139 P0000 T01330111=
202205161042 SPECI KBLI 161042Z AUTO 18009G21KT 10SM BKN023 OVC031 13/11 A2992 RMK AO2 RAB20E32 P0000 T01330111=
202205161012 SPECI KBLI 161012Z AUTO 17013G19KT 10SM FEW021 SCT030 OVC080 14/11 A2992 RMK AO2 T01390111=
202205160953 METAR KBLI 160953Z AUTO 17011G22KT 10SM FEW020 BKN029 OVC080 14/11 A2991 RMK AO2 SLP137 T01390111=
202205160853 METAR KBLI 160853Z AUTO 18009G19KT 10SM OVC017 13/12 A2991 RMK AO2 SLP136 60000 T01330117 53012=
202205160753 METAR KBLI 160753Z AUTO 18008G19KT 10SM OVC017 13/12 A2990 RMK AO2 SLP132 T01330117 401610100=
202205160653 METAR KBLI 160653Z AUTO 17011G20KT 10SM BKN026 OVC060 14/12 A2988 RMK AO2 RAB0556E27 SLP125 P0000 T01390117=
202205160641 SPECI KBLI 160641Z AUTO 17011G18KT 10SM BKN025 BKN030 OVC075 14/12 A2988 RMK AO2 RAB0556E27 P0000 T01390122=
202205160632 SPECI KBLI 160632Z AUTO 18009G18KT 10SM SCT027 BKN060 OVC075 14/12 A2988 RMK AO2 RAB0556E27 P0000 T01390122=
202205160553 METAR KBLI 160553Z AUTO 18007KT 160V220 10SM BKN026 OVC032 14/13 A2988 RMK AO2 RAE00 SLP125 P0000 60032 T01440128 10150 20128 51010=
202205160541 SPECI KBLI 160541Z AUTO 19006KT 10SM BKN026 OVC075 14/13 A2988 RMK AO2 RAE00 P0000 T01440128=
202205160530 SPECI KBLI 160530Z AUTO 18007KT 10SM SCT027 BKN070 OVC080 14/13 A2987 RMK AO2 RAE00 P0000 T01440128=
202205160453 METAR KBLI 160453Z 18005KT 10SM -RA OVC027 15/13 A2987 RMK AO2 RAB30 SLP122 P0000 T01500128=
202205160439 SPECI KBLI 160439Z VRB04KT 10SM -RA BKN025 OVC030 13/13 A2987 RMK AO2 RAB30 P0000 T01330133=
202205160353 METAR KBLI 160353Z 02003KT 10SM OVC031 13/13 A2986 RMK AO2 SLP118 T01330133=
202205160253 METAR KBLI 160253Z 00000KT 10SM BKN035 OVC043 13/13 A2985 RMK AO2 SLP114 60032 T01330133 51007=
202205160153 METAR KBLI 160153Z 36003KT 10SM BKN030 BKN090 14/14 A2984 RMK AO2 RAE25 SLP111 VSBY LWR N-E P0008 T01390139=
202205160139 SPECI KBLI 160139Z 07003KT 10SM FEW021 BKN030 BKN090 14/14 A2983 RMK AO2 RAE25 VSBY LWR N-E P0008 T01390139=
202205160114 SPECI KBLI 160114Z 08008KT 7SM -RA FEW017 BKN023 OVC028 13/13 A2985 RMK AO2 VSBY LWR N-E P0008 T01330133=
202205160053 METAR KBLI 160053Z 01006KT 1 1/2SM R16/5000VP6000FT +RA BR BKN017 OVC025 13/13 A2985 RMK AO2 SLP116 P0024 T01280128=
202205160036 SPECI KBLI 160036Z 32004KT 3SM +RA BR SCT017 BKN023 OVC033 14/14 A2986 RMK AO2 P0008 T01390139=
202205160034 SPECI KBLI 160034Z 33004KT 2 1/2SM RA BR SCT016 BKN023 OVC033 14/14 A2986 RMK AO2 P0007 T01390139=
202205152353 METAR KBLI 152353Z 04008KT 10SM -RA FEW008 BKN037 OVC085 15/13 A2983 RMK AO2 RAB48 SLP107 P0000 60022 T01500133 10161 20117 56025=
202205152253 METAR KBLI 152253Z 04009KT 10SM FEW008 OVC035 15/13 A2984 RMK AO2 SLP111 T01500133=
202205152153 METAR KBLI 152153Z 03007KT 10SM BKN008 OVC035 14/14 A2988 RMK AO2 RAE14 SLP123 P0000 T01390139=
202205152053 METAR KBLI 152053Z 04006KT 5SM -RA BR BKN005 BKN013 OVC039 13/13 A2990 RMK AO2 SLP132 P0006 60022 T01280128 58008=
202205152051 SPECI KBLI 152051Z 04005KT 5SM -RA BR BKN005 BKN013 OVC039 13/13 A2990 RMK AO2 P0006=
202205151953 METAR KBLI 151953Z 03007KT 5SM -RA BR SCT007 BKN027 OVC048 12/12 A2992 RMK AO2 SLP138 P0007 T01220122=
202205151853 METAR KBLI 151853Z 02007KT 4SM -RA BR SCT020 BKN026 OVC031 12/12 A2993 RMK AO2 SLP140 P0009 T01170117=
202205151821 SPECI KBLI 151821Z 02010KT 4SM RA BR BKN020 OVC031 12/12 A2993 RMK AO2 P0003 T01170117=
202205151759 SPECI KBLI 151759Z 03008KT 7SM -RA FEW010 BKN031 BKN080 12/12 A2993 RMK AO2 P0000 T01170117=
202205151753 METAR KBLI 151753Z 03008KT 7SM -RA FEW010 BKN080 12/12 A2993 RMK AO2 SLP140 P0004 60009 T01170117 10117 20100 56020=
202205151653 METAR KBLI 151653Z 04006KT 10SM -RA FEW012 BKN035 OVC080 11/11 A2994 RMK AO2 SLP147 P0002 T01110111=
202205151553 METAR KBLI 151553Z 03007KT 10SM -RA FEW010 BKN032 BKN040 11/11 A2997 RMK AO2 SLP154 P0001 T01110111=
202205151453 METAR KBLI 151453Z 04006KT 10SM -RA FEW010 BKN035 BKN045 11/11 A2999 RMK AO2 RAE24B46 SLP161 P0000 60002 T01060106 58013=
202205151353 METAR KBLI 151353Z 03006KT 8SM -RA FEW010 BKN033 OVC050 10/10 A3000 RMK AO2 RAB1255 SLP166 P0002 T01000100=
202205151253 METAR KBLI 151253Z AUTO 01003KT 10SM FEW055 OVC085 10/10 A3001 RMK AO2 RAE06 SLP170 P0000 T01000100=
202205151153 METAR KBLI 151153Z AUTO 00000KT 10SM -RA FEW043 FEW050 OVC060 11/11 A3002 RMK AO2 RAB1059 SLP174 P0000 60000 70003 T01060106 10144 20106 58017=
202205151053 METAR KBLI 151053Z AUTO 05004KT 10SM BKN070 OVC110 11/10 A3004 RMK AO2 SLP180 T01110100=
202205150953 METAR KBLI 150953Z AUTO 00000KT 10SM OVC095 12/10 A3006 RMK AO2 SLP186 T01220100=
202205150853 METAR KBLI 150853Z AUTO 18008KT 10SM SCT120 12/09 A3007 RMK AO2 SLP191 T01220094 55001=
202205150753 METAR KBLI 150753Z AUTO 18007KT 10SM CLR 13/09 A3007 RMK AO2 SLP191 T01330089 401670072=
202205150653 METAR KBLI 150653Z AUTO 17009G17KT 10SM CLR 14/08 A3007 RMK AO2 SLP190 T01440078=
202205150553 METAR KBLI 150553Z AUTO VRB05KT 10SM CLR 13/09 A3008 RMK AO2 SLP192 T01280094 10167 20111 52011=
202205150453 METAR KBLI 150453Z 00000KT 10SM CLR 12/10 A3007 RMK AO2 SLP190 T01170100=
202205150353 METAR KBLI 150353Z 19007KT 10SM CLR 13/09 A3005 RMK AO2 SLP183 T01330094=
202205150253 METAR KBLI 150253Z 16003KT 10SM CLR 14/10 A3004 RMK AO2 SLP181 T01390100 53004=
202205150153 METAR KBLI 150153Z 18008KT 10SM OVC095 16/08 A3004 RMK AO2 SLP179 T01610083=
202205150053 METAR KBLI 150053Z 00000KT 10SM BKN100 17/12 A3003 RMK AO2 SLP176 T01670122=
202205142353 METAR KBLI 142353Z 03005KT 10SM SCT050 BKN085 16/12 A3003 RMK AO2 SLP177 60000 T01560117 10156 20089 50001=
202205142253 METAR KBLI 142253Z 02006KT 10SM SCT030 BKN060 BKN080 14/12 A3004 RMK AO2 SLP179 T01440117=
202205142153 METAR KBLI 142153Z 03008KT 10SM BKN025 BKN050 OVC060 13/10 A3003 RMK AO2 SLP177 T01280100=
202205142053 METAR KBLI 142053Z 02007KT 10SM FEW007 BKN022 OVC031 11/09 A3003 RMK AO2 SLP176 60000 T01110094 51012=
202205141953 METAR KBLI 141953Z 01007KT 10SM FEW005 BKN016 OVC025 10/09 A3003 RMK AO2 SLP176 T01000089=
202205141853 METAR KBLI 141853Z 03005KT 7SM FEW005 BKN009 OVC013 09/09 A3001 RMK AO2 RAE05B15E29 SLP169 P0000 T00940089=
202205141813 SPECI KBLI 141813Z 04007KT 5SM BR BKN009 OVC013 09/09 A3000 RMK AO2 RAE05 P0000 T00890089=
202205141753 METAR KBLI 141753Z 02006KT 2SM -RA BR OVC015 09/09 A3000 RMK AO2 RAB33 SLP165 P0002 60003 T00890089 10089 20072 51011=
202205141715 SPECI KBLI 141715Z 04008KT 2SM BR OVC013 08/08 A2999 RMK AO2 T00830083=
202205141653 METAR KBLI 141653Z 03005KT 5SM BR OVC014 09/08 A2999 RMK AO2 RAB16E39 SLP164 P0000 T00890083=
202205141553 METAR KBLI 141553Z 04008KT 10SM BKN022 OVC026 08/08 A2997 RMK AO2 RAE37 SLP157 P0001 T00830078=
202205141453 METAR KBLI 141453Z 04008KT 10SM -RA OVC028 08/07 A2996 RMK AO2 RAB13 SLP153 P0000 60000 T00780067 55003=
202205141434 SPECI KBLI 141434Z 03008KT 10SM -RA OVC028 08/07 A2996 RMK AO2 RAB13 P0000 T00780067=
202205141353 METAR KBLI 141353Z 04009KT 10SM OVC033 08/07 A2996 RMK AO2 RAE00 SLP152 P0000 T00780067=
202205141253 METAR KBLI 141253Z AUTO 04007KT 10SM -RA OVC033 07/07 A2996 RMK AO2 RAE16B43 SLP152 P0000 T00720067=
202205141153 METAR KBLI 141153Z AUTO 04007KT 10SM -RA OVC037 07/07 A2997 RMK AO2 SLP156 P0001 60003 70003 T00720072 10100 20072 58014=
202205141053 METAR KBLI 141053Z AUTO 36004KT 8SM -RA OVC038 07/07 A2999 RMK AO2 RAE03B37 SLP162 P0000 T00720072=
202205140953 METAR KBLI 140953Z AUTO 06006KT 10SM -RA OVC040 08/07 A3000 RMK AO2 SLP166 P0002 T00780072=
202205140853 METAR KBLI 140853Z AUTO 00000KT 10SM -RA BKN038 OVC047 08/07 A3001 RMK AO2 SLP171 P0000 60000 T00830072 56008=
202205140753 METAR KBLI 140753Z AUTO 02003KT 10SM -RA OVC044 08/08 A3002 RMK AO2 RAE16B42 SLP172 P0000 T00830078 401390067=
202205140653 METAR KBLI 140653Z AUTO 00000KT 10SM -RA OVC050 09/08 A3003 RMK AO2 RAB20 SLP176 P0000 T00940078=
202205140553 METAR KBLI 140553Z AUTO 00000KT 10SM BKN085 OVC120 09/06 A3004 RMK AO2 SLP179 T00940056 10139 20094 58015=
202205140453 METAR KBLI 140453Z 00000KT 10SM BKN060 BKN090 OVC110 10/06 A3006 RMK AO2 SLP186 T01000061=
202205140353 METAR KBLI 140353Z 02003KT 10SM SCT120 11/04 A3006 RMK AO2 SLP189 T01060044=
202205140253 METAR KBLI 140253Z 04005KT 10SM FEW060 12/04 A3008 RMK AO2 SLP193 T01170044 56025=
202205140153 METAR KBLI 140153Z 03005KT 10SM FEW060 12/04 A3010 RMK AO2 SLP199 T01220039=
202205140131 SPECI KBLI 140131Z 04004KT 10SM FEW065 13/03 A3011 RMK AO2 T01280033=
202205140053 METAR KBLI 140053Z 03006KT 10SM SCT050 BKN060 14/04 A3013 RMK AO2 SLP210 T01390039=
202205132353 METAR KBLI 132353Z 24004KT 10SM CLR 13/03 A3016 RMK AO2 SLP219 T01330028 10139 20100 56018=
202205132253 METAR KBLI 132253Z 16005KT 10SM CLR 14/03 A3017 RMK AO2 SLP224 T01390028=
202205132153 METAR KBLI 132153Z 17008KT 10SM CLR 13/03 A3019 RMK AO2 SLP231 T01330033=
202205132053 METAR KBLI 132053Z VRB04KT 10SM CLR 13/03 A3021 RMK AO2 SLP236 T01280033 58012=
202205131953 METAR KBLI 131953Z VRB04KT 10SM FEW055 12/03 A3022 RMK AO2 SLP240 T01170028=
202205131853 METAR KBLI 131853Z 16005KT 10SM CLR 11/03 A3023 RMK AO2 SLP246 T01110028=
202205131753 METAR KBLI 131753Z 18008KT 10SM FEW047 BKN055 10/04 A3024 RMK AO2 SLP249 T01000039 10106 20067 50003=
202205131653 METAR KBLI 131653Z 17007G16KT 10SM BKN060 09/05 A3025 RMK AO2 SLP251 T00890050=
202205131553 METAR KBLI 131553Z 16012G18KT 10SM FEW030 FEW050 08/04 A3025 RMK AO2 SLP251 T00830044=
202205131517 SPECI KBLI 131517Z 18008G18KT 10SM BKN030 BKN040 07/05 A3024 RMK AO2 T00720050=
202205131453 METAR KBLI 131453Z 18007KT 10SM BKN029 08/04 A3023 RMK AO2 SLP246 T00780044 53012=
202205131353 METAR KBLI 131353Z 18009G19KT 10SM FEW013 BKN038 OVC060 07/04 A3022 RMK AO2 SLP240 T00720044=
202205131349 SPECI KBLI 131349Z 18011G19KT 10SM FEW013 BKN038 OVC060 07/04 A3022 RMK AO2=
202205131253 METAR KBLI 131253Z AUTO 17011G18KT 10SM BKN022 BKN026 OVC033 07/04 A3020 RMK AO2 SLP234 T00670039=
202205131153 METAR KBLI 131153Z AUTO 19008KT 10SM SCT021 BKN027 BKN037 07/04 A3018 RMK AO2 SLP228 70026 T00720044 10078 20067 51018=
202205131133 SPECI KBLI 131133Z AUTO 18006KT 10SM FEW017 BKN025 OVC055 07/05 A3018 RMK AO2 T00670050=
202205131053 METAR KBLI 131053Z AUTO 21007KT 180V240 10SM SCT050 07/04 A3017 RMK AO2 SLP223 T00720039=
202205130953 METAR KBLI 130953Z AUTO VRB04KT 10SM CLR 07/04 A3015 RMK AO2 SLP217 T00720044=
202205130853 METAR KBLI 130853Z AUTO VRB05KT 10SM SCT042 BKN065 OVC080 07/04 A3013 RMK AO2 SLP210 T00720044 53019=
202205130753 METAR KBLI 130753Z AUTO VRB06KT 10SM BKN047 OVC060 08/04 A3011 RMK AO2 SLP202 T00780039 401440072=
202205130653 METAR KBLI 130653Z AUTO 19004KT 10SM SCT050 BKN080 07/04 A3008 RMK AO2 SLP194 T00720039=
202205130553 METAR KBLI 130553Z AUTO 19004KT 10SM BKN044 OVC070 07/04 A3007 RMK AO2 SLP190 60009 T00720044 10100 20072 51020=
202205130453 METAR KBLI 130453Z 20006KT 10SM BKN043 OVC055 08/06 A3006 RMK AO2 SLP186 T00780056=
202205130353 METAR KBLI 130353Z 18007KT 10SM SCT030 BKN050 08/06 A3004 RMK AO2 RAE08 SLP180 P0000 T00780056=
202205130253 METAR KBLI 130253Z 19008KT 160V250 10SM -RA FEW030 SCT070 BKN090 08/06 A3001 RMK AO2 RAB44 SLP171 P0000 60009 T00830056 51027=
202205130153 METAR KBLI 130153Z 19008KT 10SM FEW015 SCT035 BKN060 08/07 A2999 RMK AO2 RAE30 SLP164 P0000 T00830067=
202205130133 SPECI KBLI 130133Z 20004KT 10SM FEW010 SCT035 BKN050 08/07 A2998 RMK AO2 RAE30 P0000 T00830067=
202205130053 METAR KBLI 130053Z VRB04KT 5SM -RA BR FEW014 BKN028 OVC035 08/08 A2996 RMK AO2 PK WND 16027/0004 SLP153 P0009 T00780078=
202205130038 SPECI KBLI 130038Z 24007G22KT 210V280 5SM -RA BR BKN028 OVC070 08/07 A2996 RMK AO2 PK WND 16027/0004 P0008 T00780072=
202205130029 SPECI KBLI 130029Z 22011G23KT 190V260 1 3/4SM +RA BR BKN028 OVC070 08/08 A2996 RMK AO2 PK WND 16027/0004 PRESRR P0006 T00830078=
202205122353 METAR KBLI 122353Z 18008G16KT 8SM -RA FEW014 BKN028 OVC070 10/08 A2993 RMK AO2 RAE30B51 SLP143 P0001 60017 T01000083 10144 20089 50001=
202205122253 METAR KBLI 122253Z 18011G19KT 6SM -RA BR SCT014 BKN025 OVC040 09/09 A2994 RMK AO2 SLP147 P0009 T00940089=
202205122153 METAR KBLI 122153Z 17013G25KT 5SM -RA BR SCT016 BKN026 OVC039 09/09 A2994 RMK AO2 PK WND 17027/2129 SLP144 P0007 T00940089=
202205122124 SPECI KBLI 122124Z 18015G25KT 4SM -RA BR SCT013 BKN026 OVC039 10/09 A2993 RMK AO2 P0004 T01000094=
202205122053 METAR KBLI 122053Z 16011KT 10SM -RA FEW028 SCT037 OVC046 11/08 A2993 RMK AO2 PK WND 16027/2003 SLP142 P0000 60000 T01110078 56010=
202205121953 METAR KBLI 121953Z 15016G26KT 10SM -RA BKN041 OVC050 12/07 A2993 RMK AO2 PK WND 15029/1914 RAE1857B36 SLP143 P0000 T01220072=
202205121853 METAR KBLI 121853Z 15016G25KT 10SM -RA SCT043 BKN060 13/06 A2994 RMK AO2 PK WND 15034/1826 RAB45 SLP145 P0000 T01330056=
202205121753 METAR KBLI 121753Z 15018G33KT 10SM BKN040 BKN090 12/05 A2996 RMK AO2 PK WND 13037/1719 SLP152 T01220050 10128 20100 58015=
202205121653 METAR KBLI 121653Z 15016G26KT 10SM BKN036 12/04 A2997 RMK AO2 PK WND 15026/1651 SLP157 T01170044=
202205121553 METAR KBLI 121553Z 15009G23KT 10SM BKN037 BKN110 11/05 A2999 RMK AO2 PK WND 15029/1524 SLP164 T01110050=
202205121453 METAR KBLI 121453Z 15015G25KT 10SM OVC037 11/04 A3000 RMK AO2 PK WND 14027/1410 SLP166 T01060044 56009=
202205121353 METAR KBLI 121353Z 14016G23KT 10SM OVC035 10/04 A3001 RMK AO2 PK WND 14033/1318 SLP169 T01000044=
202205121253 METAR KBLI 121253Z AUTO 14014G21KT 10SM BKN035 10/04 A3001 RMK AO2 PK WND 12028/1238 SLP170 T01000039=
202205121153 METAR KBLI 121153Z AUTO 15014G27KT 10SM FEW036 BKN090 OVC120 10/04 A3003 RMK AO2 PK WND 13027/1152 SLP176 T01000039 10117 20100 58010=
202205121053 METAR KBLI 121053Z AUTO 16015G26KT 10SM SCT036 BKN095 10/04 A3004 RMK AO2 PK WND 16026/1037 SLP181 T01000039=
202205120953 METAR KBLI 120953Z AUTO 16016G27KT 10SM BKN036 OVC110 11/04 A3005 RMK AO2 PK WND 13027/0945 SLP184 T01060039=
202205120853 METAR KBLI 120853Z AUTO 16012G25KT 10SM BKN120 10/04 A3006 RMK AO2 PK WND 18027/0817 SLP186 T01000039 58007=
202205120753 METAR KBLI 120753Z AUTO 15014G21KT 10SM FEW120 10/04 A3008 RMK AO2 PK WND 17027/0724 SLP192 T01000044 401440067=
202205120653 METAR KBLI 120653Z AUTO 17009G19KT 10SM OVC110 11/04 A3008 RMK AO2 SLP192 T01060044=
202205120553 METAR KBLI 120553Z AUTO 16013G19KT 10SM FEW120 12/03 A3008 RMK AO2 SLP193 T01170033 10144 20111 58008=
202205120453 METAR KBLI 120453Z 17007KT 10SM FEW110 12/04 A3010 RMK AO2 SLP200 T01170044=
202205120353 METAR KBLI 120353Z 18006KT 10SM OVC085 12/05 A3011 RMK AO2 SLP204 T01170050=
202205120253 METAR KBLI 120253Z VRB05KT 10SM OVC100 12/04 A3010 RMK AO2 SLP201 T01170044 53001=
202205120153 METAR KBLI 120153Z 17012G22KT 10SM BKN110 14/03 A3009 RMK AO2 SLP195 T01390033=
202205120053 METAR KBLI 120053Z 18010G19KT 10SM FEW100 14/05 A3009 RMK AO2 SLP198 T01390050=
202205112353 METAR KBLI 112353Z 18008G16KT 10SM CLR 14/04 A3010 RMK AO2 SLP201 T01390044 10144 20117 56014=
202205112253 METAR KBLI 112253Z 18010G15KT 10SM CLR 14/04 A3011 RMK AO2 SLP204 T01390044=
202205112153 METAR KBLI 112153Z 20007G16KT 170V240 10SM CLR 14/03 A3013 RMK AO2 SLP209 T01390033=
202205112053 METAR KBLI 112053Z 19010G18KT 10SM FEW026 14/03 A3014 RMK AO2 SLP215 T01390033 58020=
202205111953 METAR KBLI 111953Z 19013G22KT 10SM FEW024 14/02 A3017 RMK AO2 SLP222 T01390022=
202205111853 METAR KBLI 111853Z 17013KT 10SM SCT024 12/06 A3018 RMK AO2 SLP228 T01220056=
202205111753 METAR KBLI 111753Z 19007G19KT 170V240 10SM SCT024 12/07 A3020 RMK AO2 SLP234 T01170067 10117 20067 58004=
202205111653 METAR KBLI 111653Z 19015KT 10SM SCT030 11/07 A3021 RMK AO2 SLP236 T01060067=
202205111553 METAR KBLI 111553Z 17007KT 10SM FEW025 11/07 A3021 RMK AO2 SLP237 T01110067=
202205111453 METAR KBLI 111453Z 19006KT 10SM FEW046 BKN070 10/06 A3021 RMK AO2 SLP239 T01000061 50001=
202205111353 METAR KBLI 111353Z 17007KT 10SM SCT047 OVC070 09/07 A3022 RMK AO2 SLP240 T00890067=
202205111253 METAR KBLI 111253Z AUTO 18005KT 10SM OVC060 08/06 A3022 RMK AO2 SLP239 T00830061=
202205111153 METAR KBLI 111153Z AUTO 14005KT 10SM FEW050 SCT070 08/06 A3021 RMK AO2 SLP238 T00780056 10111 20072 58006=
202205111053 METAR KBLI 111053Z AUTO 00000KT 10SM SCT050 BKN080 07/06 A3022 RMK AO2 SLP241 T00720061=
202205110953 METAR KBLI 110953Z AUTO 00000KT 10SM BKN055 BKN090 08/06 A3023 RMK AO2 SLP242 T00830056=
202205110853 METAR KBLI 110853Z AUTO 00000KT 10SM OVC060 09/06 A3023 RMK AO2 SLP244 T00890056 53001=
202205110753 METAR KBLI 110753Z AUTO 00000KT 10SM OVC065 09/06 A3023 RMK AO2 SLP245 T00940061 401440078=
202205110653 METAR KBLI 110653Z AUTO 00000KT 10SM BKN070 OVC085 10/06 A3022 RMK AO2 SLP242 T01000061=
202205110553 METAR KBLI 110553Z AUTO 00000KT 10SM OVC080 11/07 A3023 RMK AO2 SLP243 T01060067 10139 20100 53007=
202205110453 METAR KBLI 110453Z 18004KT 10SM BKN070 11/05 A3022 RMK AO2 SLP242 T01060050=
202205110353 METAR KBLI 110353Z 20006KT 10SM FEW065 12/04 A3021 RMK AO2 SLP237 T01170044=
202205110253 METAR KBLI 110253Z 20003KT 10SM CLR 13/04 A3021 RMK AO2 SLP236 T01280044 53002=
202205110153 METAR KBLI 110153Z VRB05KT 10SM CLR 13/04 A3020 RMK AO2 SLP233 T01330039=
202205110053 METAR KBLI 110053Z 19008KT 10SM CLR 14/03 A3020 RMK AO2 SLP234 T01390028=
202205102353 METAR KBLI 102353Z 19006KT 10SM CLR 14/02 A3020 RMK AO2 SLP234 T01390022 10144 20111 50001=
202205102253 METAR KBLI 102253Z 17009KT 10SM CLR 14/02 A3020 RMK AO2 SLP235 T01390022=
202205102153 METAR KBLI 102153Z 16009KT 10SM CLR 14/03 A3020 RMK AO2 SLP235 T01390033=
202205102053 METAR KBLI 102053Z 17010G17KT 10SM SCT025 13/03 A3020 RMK AO2 SLP233 T01280033 51007=
202205101953 METAR KBLI 101953Z 18010KT 10SM SCT025 12/05 A3019 RMK AO2 SLP231 T01220050=
202205101853 METAR KBLI 101853Z 17011G18KT 10SM SCT025 12/06 A3019 RMK AO2 SLP229 T01170056=
202205101753 METAR KBLI 101753Z 19012G18KT 10SM CLR 11/06 A3018 RMK AO2 SLP226 T01110061 10111 20083 51014=
202205101653 METAR KBLI 101653Z 18009G18KT 10SM SCT023 SCT050 11/07 A3016 RMK AO2 SLP220 T01110067=
202205101553 METAR KBLI 101553Z 17010KT 10SM FEW019 SCT027 10/07 A3015 RMK AO2 SLP218 T01000067=
202205101453 METAR KBLI 101453Z 17011KT 10SM FEW016 09/07 A3014 RMK AO2 SLP212 T00940067 53021=
202205101353 METAR KBLI 101353Z 19007KT 10SM CLR 09/06 A3011 RMK AO2 SLP203 T00890061=
202205101253 METAR KBLI 101253Z AUTO 18007KT 10SM CLR 08/05 A3009 RMK AO2 SLP196 T00830050=
202205101153 METAR KBLI 101153Z AUTO 19005KT 10SM CLR 08/05 A3008 RMK AO2 SLP191 T00830050 10100 20078 53012=
202205101053 METAR KBLI 101053Z AUTO 18007KT 10SM CLR 08/06 A3006 RMK AO2 SLP186 T00830056=
202205100953 METAR KBLI 100953Z AUTO 19004KT 10SM SCT060 08/04 A3005 RMK AO2 SLP183 T00830044=
202205100853 METAR KBLI 100853Z AUTO 17004KT 10SM SCT060 08/05 A3004 RMK AO2 SLP180 T00830050 53013=
202205100753 METAR KBLI 100753Z AUTO 16005KT 10SM CLR 09/06 A3003 RMK AO2 SLP175 T00890056 401280061=
202205100653 METAR KBLI 100653Z AUTO VRB04KT 10SM FEW090 09/05 A3001 RMK AO2 SLP171 T00890050=
202205100553 METAR KBLI 100553Z AUTO 17008KT 10SM BKN050 10/06 A3000 RMK AO2 SLP168 60000 T01000056 10128 20094 51018=
202205100453 METAR KBLI 100453Z 17006KT 10SM BKN044 OVC090 10/06 A2999 RMK AO2 SLP163 T01000061=
202205100353 METAR KBLI 100353Z 15007KT 10SM BKN060 BKN090 10/07 A2996 RMK AO2 SLP155 T01000067=
202205100253 METAR KBLI 100253Z 17007KT 10SM FEW095 11/07 A2995 RMK AO2 RAE03 SLP150 P0000 60000 T01060067 53008=
202205100153 METAR KBLI 100153Z 18008KT 10SM -RA BKN043 OVC055 11/07 A2994 RMK AO2 RAB52 SLP146 P0000 T01110067=
202205100053 METAR KBLI 100053Z 18012KT 10SM SCT080 12/06 A2993 RMK AO2 SLP143 T01220056=
202205092353 METAR KBLI 092353Z 17015KT 10SM BKN080 12/06 A2993 RMK AO2 SLP141 60000 T01220056 10128 20089 53003=
202205092253 METAR KBLI 092253Z 18010KT 10SM SCT037 12/05 A2992 RMK AO2 SLP138 T01220050=
202205092153 METAR KBLI 092153Z 17009KT 10SM SCT035 12/05 A2992 RMK AO2 SLP139 T01220050=
202205092053 METAR KBLI 092053Z 19015KT 10SM SCT020 SCT070 12/06 A2992 RMK AO2 SLP138 60000 T01170061 51006=
202205091953 METAR KBLI 091953Z VRB06G18KT 10SM SCT020 BKN065 11/07 A2991 RMK AO2 SLP137 T01060067=
202205091853 METAR KBLI 091853Z 16012KT 10SM SCT020 BKN050 OVC065 09/07 A2991 RMK AO2 RAB10E42 SLP135 P0000 T00890072=
202205091756 SPECI KBLI 091756Z 18007KT 10SM BKN020 OVC030 09/06 A2990 RMK AO2 T00890061=
202205091753 METAR KBLI 091753Z 18008G15KT 10SM OVC030 09/06 A2990 RMK AO2 RAE03 SLP133 P0000 60000 T00890061 10089 20072 53015=
202205091653 METAR KBLI 091653Z 18009KT 10SM -RA SCT017 BKN021 BKN032 08/06 A2988 RMK AO2 RAB50 SLP126 P0000 T00830061=
202205091553 METAR KBLI 091553Z 18009KT 10SM SCT024 BKN040 OVC095 09/06 A2987 RMK AO2 SLP122 T00890061=
202205091453 METAR KBLI 091453Z 18010G18KT 10SM SCT025 BKN035 BKN090 08/06 A2985 RMK AO2 SLP117 T00830056 53016=
202205091353 METAR KBLI 091353Z 18007G16KT 10SM SCT017 BKN030 BKN100 08/06 A2984 RMK AO2 SLP110 T00830056=
202205091253 METAR KBLI 091253Z AUTO 18007KT 10SM BKN017 OVC095 08/06 A2982 RMK AO2 SLP104 T00830061=
202205091242 SPECI KBLI 091242Z AUTO 17009G18KT 10SM BKN016 OVC100 08/06 A2982 RMK AO2 T00780056=
202205091153 METAR KBLI 091153Z AUTO 16008KT 10SM SCT016 SCT070 OVC090 07/06 A2981 RMK AO2 SLP101 T00720056 10078 20061 51010=
202205091053 METAR KBLI 091053Z AUTO 16008KT 10SM OVC090 07/05 A2980 RMK AO2 SLP098 T00720050=
202205090953 METAR KBLI 090953Z AUTO VRB03KT 10SM OVC090 07/04 A2979 RMK AO2 SLP096 T00670044=
202205090853 METAR KBLI 090853Z AUTO 17003KT 10SM FEW110 06/04 A2978 RMK AO2 SLP091 T00610044 53009=
202205090753 METAR KBLI 090753Z AUTO 17003KT 10SM OVC120 07/05 A2977 RMK AO2 SLP088 T00720050 401220050=
202205090653 METAR KBLI 090653Z AUTO 16003KT 10SM CLR 07/06 A2976 RMK AO2 SLP084 T00670056=
202205090553 METAR KBLI 090553Z AUTO 17004KT 10SM CLR 07/04 A2975 RMK AO2 SLP082 T00720044 10122 20067 53009=
202205090453 METAR KBLI 090453Z 18003KT 10SM CLR 08/05 A2974 RMK AO2 SLP079 T00780050=
202205090353 METAR KBLI 090353Z 00000KT 10SM CLR 08/05 A2973 RMK AO2 SLP076 T00780050=
202205090253 METAR KBLI 090253Z 18005KT 10SM CLR 11/04 A2972 RMK AO2 SLP073 T01060044 56003=
202205090153 METAR KBLI 090153Z 25007KT 190V290 10SM CLR 12/02 A2972 RMK AO2 SLP073 T01170017=
202205090053 METAR KBLI 090053Z 22008KT 190V290 10SM CLR 12/02 A2973 RMK AO2 SLP074 T01170022=
202205082353 METAR KBLI 082353Z 29006KT 10SM CLR 12/02 A2973 RMK AO2 SLP076 60000 T01170022 10122 20089 56002=
202205082253 METAR KBLI 082253Z VRB06KT 10SM CLR 12/02 A2974 RMK AO2 SLP077 T01170017=
202205082153 METAR KBLI 082153Z 22011KT 190V310 10SM CLR 12/02 A2973 RMK AO2 SLP076 T01170017=
202205082053 METAR KBLI 082053Z 29007KT 10SM SCT037 11/03 A2974 RMK AO2 SLP078 60000 T01110033 58006=
202205081953 METAR KBLI 081953Z 17004KT 10SM SCT025 BKN035 11/06 A2975 RMK AO2 RAB1857E20 SLP080 P0000 T01060061=
202205081853 METAR KBLI 081853Z 17008KT 10SM FEW027 SCT045 BKN055 10/05 A2975 RMK AO2 SLP082 T01000050=
202205081753 METAR KBLI 081753Z 17007KT 10SM SCT020 SCT032 BKN049 09/04 A2976 RMK AO2 SLP084 T00940044 10094 20050 58003=
202205081653 METAR KBLI 081653Z 17008KT 150V210 10SM FEW013 SCT025 BKN035 09/05 A2976 RMK AO2 SLP085 T00890050=
202205081553 METAR KBLI 081553Z 18007KT 10SM FEW013 BKN018 BKN030 08/05 A2976 RMK AO2 SLP086 T00780050=
202205081453 METAR KBLI 081453Z 16007KT 10SM FEW013 BKN018 BKN029 07/05 A2977 RMK AO2 SLP087 T00720050 58003=
202205081353 METAR KBLI 081353Z 15005KT 10SM BKN019 06/04 A2977 RMK AO2 SLP090 T00610044=
202205081347 SPECI KBLI 081347Z 15005KT 10SM BKN019 06/04 A2977 RMK AO2=
202205081253 METAR KBLI 081253Z AUTO 15003KT 10SM CLR 05/04 A2977 RMK AO2 SLP090 T00500039=
202205081227 SPECI KBLI 081227Z AUTO 17003KT 10SM FEW015 SCT026 05/04 A2978 RMK AO2 T00500044=
202205081209 SPECI KBLI 081209Z AUTO 15006KT 10SM FEW015 BKN026 06/04 A2978 RMK AO2 T00560044=
202205081153 METAR KBLI 081153Z AUTO 16005KT 10SM SCT016 SCT026 06/04 A2979 RMK AO2 SLP094 T00610044 10083 20061 57002=
202205081103 SPECI KBLI 081103Z AUTO 18008KT 10SM FEW020 SCT027 07/05 A2979 RMK AO2 T00670050=
202205081053 METAR KBLI 081053Z AUTO 18009G17KT 10SM FEW018 BKN027 07/05 A2979 RMK AO2 SLP094 T00670050=
202205081049 SPECI KBLI 081049Z AUTO 18009KT 10SM FEW018 BKN026 07/05 A2979 RMK AO2=
202205080953 METAR KBLI 080953Z AUTO 18006KT 10SM FEW014 SCT027 SCT050 07/05 A2979 RMK AO2 SLP095 T00670050=
202205080940 SPECI KBLI 080940Z AUTO 17009KT 10SM FEW019 SCT025 SCT055 07/06 A2979 RMK AO2 T00720056=
202205080853 METAR KBLI 080853Z AUTO 18010G16KT 10SM SCT018 BKN025 OVC050 08/06 A2980 RMK AO2 SLP097 T00780056 56005=
202205080830 SPECI KBLI 080830Z AUTO 18008KT 10SM FEW015 BKN027 OVC050 08/06 A2980 RMK AO2 T00780056=
202205080753 METAR KBLI 080753Z AUTO 19005KT 10SM BKN060 08/04 A2980 RMK AO2 SLP098 T00780044 401390050=
202205080653 METAR KBLI 080653Z AUTO 17007KT 10SM BKN065 OVC075 08/04 A2981 RMK AO2 SLP100 T00830039=
202205080553 METAR KBLI 080553Z AUTO VRB03KT 10SM CLR 08/04 A2981 RMK AO2 SLP103 T00780039 10128 20078 58002=
202205080453 METAR KBLI 080453Z 22007KT 10SM FEW055 FEW070 08/04 A2982 RMK AO2 SLP106 T00830039=
202205080353 METAR KBLI 080353Z 20009KT 10SM FEW050 09/04 A2982 RMK AO2 SLP104 T00940039=
202205080253 METAR KBLI 080253Z 19008KT 10SM FEW049 10/04 A2982 RMK AO2 SLP105 T01000044 56004=
202205080153 METAR KBLI 080153Z 19012KT 10SM BKN075 11/04 A2982 RMK AO2 SLP106 T01110039=
202205080053 METAR KBLI 080053Z 10SM FEW045 BKN080 12/03 A2982 RMK AO2 SLP107 T01220028=
202205072353 METAR KBLI 072353Z 19012G19KT 10SM FEW050 12/04 A2983 RMK AO2 SLP109 T01220044 10139 20100 50003=
202205072253 METAR KBLI 072253Z 20010G17KT 10SM FEW050 SCT060 13/04 A2983 RMK AO2 SLP109 T01280044=
202205072153 METAR KBLI 072153Z 20007G24KT 10SM SCT047 OVC065 14/04 A2982 RMK AO2 SLP106 T01390039=
202205072053 METAR KBLI 072053Z 20008KT 10SM BKN060 12/05 A2982 RMK AO2 SLP105 T01220050 51004=
202205071953 METAR KBLI 071953Z 20005G15KT 10SM FEW035 SCT050 13/05 A2982 RMK AO2 SLP104 T01280050=
202205071853 METAR KBLI 071853Z VRB05KT 10SM SCT045 BKN070 11/05 A2982 RMK AO2 SLP104 T01110050=
202205071753 METAR KBLI 071753Z 21007KT 180V240 10SM FEW020 SCT045 BKN055 11/07 A2981 RMK AO2 SLP101 60000 T01110067 10111 20050 51009=
202205071653 METAR KBLI 071653Z 19006KT 10SM FEW032 BKN060 OVC075 11/04 A2981 RMK AO2 SLP101 T01060044=
202205071553 METAR KBLI 071553Z 18005KT 10SM SCT025 OVC060 09/08 A2980 RMK AO2 RAB30E40 SLP098 P0000 T00940083=
202205071544 SPECI KBLI 071544Z 17006KT 10SM SCT025 OVC060 09/08 A2980 RMK AO2 RAB30E40 P0000 T00940078=
202205071453 METAR KBLI 071453Z 19003KT 10SM OVC025 09/07 A2978 RMK AO2 SLP093 T00890067 51017=
202205071353 METAR KBLI 071353Z 16003KT 10SM FEW022 06/06 A2975 RMK AO2 SLP083 T00610061=
202205071253 METAR KBLI 071253Z AUTO 00000KT 10SM CLR 06/06 A2973 RMK AO2 SLP076 T00560056=
202205071153 METAR KBLI 071153Z AUTO 00000KT 10SM CLR 06/06 A2971 RMK AO2 SLP070 70002 T00560056 10083 20056 51019=
202205071053 METAR KBLI 071053Z AUTO 00000KT 10SM CLR 06/06 A2970 RMK AO2 SLP065 T00610061=
202205070953 METAR KBLI 070953Z AUTO 20003KT 10SM FEW075 07/07 A2968 RMK AO2 SLP058 T00720072=
202205070853 METAR KBLI 070853Z AUTO 00000KT 10SM OVC060 08/08 A2966 RMK AO2 SLP050 T00830083 53007=
202205070753 METAR KBLI 070753Z AUTO 00000KT 10SM OVC060 08/08 A2965 RMK AO2 SLP046 T00780078 401330067=
202205070653 METAR KBLI 070653Z AUTO 00000KT 10SM BKN049 OVC060 08/08 A2964 RMK AO2 SLP043 T00830083=
202205070553 METAR KBLI 070553Z AUTO 00000KT 10SM OVC060 08/08 A2964 RMK AO2 SLP043 60001 T00830083 10106 20083 53003=
202205070453 METAR KBLI 070453Z 00000KT 10SM OVC050 09/09 A2963 RMK AO2 SLP042 T00890089=
202205070353 METAR KBLI 070353Z 00000KT 10SM BKN045 09/09 A2962 RMK AO2 SLP038 T00940089=
202205070253 METAR KBLI 070253Z 00000KT 10SM SCT040 BKN055 OVC070 10/08 A2963 RMK AO2 SLP041 60001 T01000083 58009=
202205070153 METAR KBLI 070153Z 00000KT 10SM FEW020 BKN050 OVC070 10/08 A2964 RMK AO2 RAE09 SLP045 P0000 T01000083=
202205070053 METAR KBLI 070053Z 00000KT 10SM -RA OVC048 11/08 A2965 RMK AO2 SLP047 P0001 T01060083=
202205062353 METAR KBLI 062353Z 20003KT 10SM -RA FEW020 SCT040 BKN060 10/09 A2966 RMK AO2 SLP050 P0000 60001 T01000089 10133 20100 58009=
202205062253 METAR KBLI 062253Z 22004KT 10SM -RA FEW015 SCT025 BKN055 11/08 A2967 RMK AO2 SLP055 P0001 T01060083=
202205062153 METAR KBLI 062153Z 00000KT 10SM -RA FEW034 OVC044 11/08 A2968 RMK AO2 SLP059 P0000 T01110083=
202205062053 METAR KBLI 062053Z 27004KT 10SM -RA BKN055 OVC070 11/07 A2968 RMK AO2 RAB27 SLP058 P0000 60000 T01110072 55009=
202205061953 METAR KBLI 061953Z 32003KT 10SM FEW035 OVC095 13/06 A2967 RMK AO2 SLP055 T01280061=
202205061853 METAR KBLI 061853Z 10SM FEW032 13/07 A2969 RMK AO2 SLP059 T01280067=
202205061753 METAR KBLI 061753Z VRB05KT 10SM SCT029 BKN035 BKN110 12/07 A2971 RMK AO2 SLP067 T01170067 10122 20067 56019=
202205061744 SPECI KBLI 061744Z 03006KT 10SM BKN029 BKN035 BKN110 12/07 A2971 RMK AO2 T01170067=
202205061653 METAR KBLI 061653Z 00000KT 10SM FEW025 BKN045 BKN095 11/06 A2973 RMK AO2 SLP074 T01110061=
202205061553 METAR KBLI 061553Z 03004KT 10SM OVC046 11/08 A2974 RMK AO2 SLP079 T01060078=
202205061453 METAR KBLI 061453Z 00000KT 10SM OVC046 09/07 A2977 RMK AO2 SLP087 T00890067 57017=
202205061353 METAR KBLI 061353Z 11004KT 10SM OVC046 08/07 A2979 RMK AO2 SLP094 T00780067=
202205061253 METAR KBLI 061253Z AUTO 00000KT 10SM SCT046 07/06 A2979 RMK AO2 SLP097 T00670061=
202205061153 METAR KBLI 061153Z AUTO 16004KT 10SM OVC047 08/06 A2982 RMK AO2 SLP104 70037 T00830061 10089 20083 51005=
202205061053 METAR KBLI 061053Z AUTO 18006KT 10SM OVC047 09/05 A2981 RMK AO2 SLP103 T00890050=
202205060953 METAR KBLI 060953Z AUTO 17005KT 10SM SCT050 08/06 A2981 RMK AO2 SLP102 T00830056=
202205060853 METAR KBLI 060853Z AUTO 18008KT 10SM CLR 09/05 A2980 RMK AO2 SLP098 T00890050 51016=
202205060753 METAR KBLI 060753Z AUTO VRB05KT 10SM OVC110 09/05 A2979 RMK AO2 SLP094 T00890050 401110083=
202205060653 METAR KBLI 060653Z AUTO 17005KT 10SM OVC036 09/07 A2977 RMK AO2 SLP090 T00890067=
202205060553 METAR KBLI 060553Z AUTO 16007KT 10SM CLR 09/07 A2975 RMK AO2 SLP083 60006 T00890067 10106 20083 53033=
202205060519 SPECI KBLI 060519Z 18005KT 10SM SCT016 SCT022 BKN034 09/07 A2974 RMK AO2 T00940072=
202205060453 METAR KBLI 060453Z 18012G21KT 10SM SCT013 BKN020 OVC026 11/09 A2971 RMK AO2 RAE00 SLP068 P0000 T01060094=
202205060353 METAR KBLI 060353Z 18010G19KT 10SM -RA FEW013 BKN023 BKN045 11/09 A2968 RMK AO2 RAB51 SLP056 P0000 T01060089=
202205060253 METAR KBLI 060253Z 15006KT 10SM FEW015 BKN025 BKN055 10/09 A2966 RMK AO2 RAE36 SLP049 P0001 60006 T01000089 53001=
202205060153 METAR KBLI 060153Z 14007KT 10SM -RA FEW015 BKN030 OVC060 09/08 A2965 RMK AO2 SLP047 P0002 T00940083=
202205060146 SPECI KBLI 060146Z 14008KT 10SM -RA BKN030 OVC047 09/08 A2965 RMK AO2 P0002 T00940083=
202205060137 SPECI KBLI 060137Z 13007KT 9SM -RA BKN028 BKN034 OVC047 09/08 A2965 RMK AO2 P0002 T00940083=
202205060053 METAR KBLI 060053Z 15008KT 10SM -RA SCT024 BKN040 OVC049 09/08 A2966 RMK AO2 SLP049 P0003 T00940083=
202205052353 METAR KBLI 052353Z 15011KT 8SM -RA FEW015 SCT025 OVC060 09/08 A2965 RMK AO2 SLP048 P0004 60027 T00940083 10094 20083 58006=
202205052253 METAR KBLI 052253Z 16007KT 8SM -RA FEW015 SCT025 OVC055 09/08 A2966 RMK AO2 SLP051 P0002 T00940083=
202205052153 METAR KBLI 052153Z 17009KT 8SM -RA BKN022 OVC047 09/07 A2967 RMK AO2 SLP056 P0003 T00890072=
202205052117 SPECI KBLI 052117Z 17012G24KT 7SM -RA BKN022 OVC047 08/08 A2967 RMK AO2 P0001 T00830078=
202205052100 SPECI KBLI 052100Z 17013G20KT 7SM -RA BKN045 OVC055 09/08 A2967 RMK AO2 P0000 T00890078=
202205052053 METAR KBLI 052053Z 17013G21KT 7SM -RA FEW010 BKN022 OVC039 09/08 A2967 RMK AO2 PK WND 16026/2010 SLP055 P0004 60018 T00890078 55000=
202205051953 METAR KBLI 051953Z 17014G24KT 5SM -RA BR FEW010 BKN022 OVC039 09/08 A2966 RMK AO2 SLP052 P0008 T00890083=
202205051853 METAR KBLI 051853Z 17011G18KT 6SM -RA BR OVC022 09/08 A2966 RMK AO2 SLP050 P0006 T00890083=
202205051753 METAR KBLI 051753Z 18010G18KT 8SM -RA OVC026 09/08 A2967 RMK AO2 SLP054 P0002 60004 T00940078 10111 20094 56011=
202205051729 SPECI KBLI 051729Z 16012G19KT 10SM -RA BKN028 OVC033 10/08 A2967 RMK AO2 P0001 T01000078=
202205051653 METAR KBLI 051653Z 17010G18KT 10SM -RA SCT030 BKN039 OVC065 11/09 A2968 RMK AO2 RAB42 SLP058 P0000 T01060089=
202205051553 METAR KBLI 051553Z 08003KT 10SM FEW004 OVC060 11/11 A2969 RMK AO2 SLP060 T01060106=
202205051510 SPECI KBLI 051510Z 09003KT 3SM BR BKN003 OVC055 11/11 A2970 RMK AO2 T01060106=
202205051453 METAR KBLI 051453Z 00000KT 7SM OVC005 11/11 A2970 RMK AO2 CIG 002V008 SLP065 60002 T01060106 58013=
202205051443 SPECI KBLI 051443Z 05004KT 7SM OVC005 10/10 A2971 RMK AO2 CIG 003V008 T01000100=
202205051403 SPECI KBLI 051403Z 04003KT 4SM BR BKN002 OVC008 10/10 A2972 RMK AO2 CIG 002V007 T01000100=
202205051353 METAR KBLI 051353Z 06003KT 2 1/2SM BR BKN002 BKN008 OVC046 10/10 A2972 RMK AO2 RAE04 CIG 002V007 SLP071 P0000 T01000100=
202205051343 SPECI KBLI 051343Z 00000KT 6SM BR FEW002 BKN008 OVC046 10/10 A2972 RMK AO2 RAE04 CIG 005V010 P0000 T01000100=
202205051324 SPECI KBLI 051324Z AUTO 00000KT 4SM BR SCT006 SCT023 OVC043 10/10 A2973 RMK AO2 RAE04 P0000 T01000100=
202205051311 SPECI KBLI 051311Z AUTO 00000KT 2 1/2SM BR FEW005 SCT031 OVC043 10/10 A2973 RMK AO2 RAE04 P0000 T01000100=
202205051253 METAR KBLI 051253Z AUTO 00000KT 5SM -RA BR SCT023 BKN034 OVC055 10/10 A2974 RMK AO2 SLP077 P0002 T01000100=
202205051249 SPECI KBLI 051249Z AUTO 00000KT 5SM -RA BR FEW023 BKN032 OVC055 10/10 A2974 RMK AO2 P0002=
202205051228 SPECI KBLI 051228Z AUTO 00000KT 5SM -RA BR SCT002 BKN025 OVC030 10/10 A2974 RMK AO2 P0002 T01000100=
202205051153 METAR KBLI 051153Z AUTO 17005KT 5SM -RA BR OVC003 10/10 A2976 RMK AO2 SLP084 P0010 60026 70027 T01000100 10106 20100 56018=
202205051112 SPECI KBLI 051112Z AUTO 18005KT 3SM RA BR BKN002 OVC008 11/11 A2978 RMK AO2 CIG 002V007 P0003 T01060106=
202205051053 METAR KBLI 051053Z AUTO 00000KT 2 1/2SM -RA BR OVC002 11/11 A2978 RMK AO2 SLP091 P0006 T01060106=
202205051012 SPECI KBLI 051012Z AUTO 00000KT 2SM -RA BR BKN002 OVC050 10/10 A2979 RMK AO2 P0001 T01000100=
202205050953 METAR KBLI 050953Z AUTO 00000KT 2 1/2SM -RA BR FEW002 OVC050 10/10 A2979 RMK AO2 SLP095 P0006 T01000100=
202205050923 SPECI KBLI 050923Z AUTO 00000KT 2 1/2SM -RA BR FEW004 OVC055 10/10 A2980 RMK AO2 P0003 T01000100=
202205050916 SPECI KBLI 050916Z AUTO 00000KT 3SM -RA BR SCT003 SCT009 OVC055 10/10 A2980 RMK AO2 P0002 T01000100=
202205050853 METAR KBLI 050853Z AUTO 32003KT 3SM -RA BR FEW003 BKN014 OVC050 10/10 A2981 RMK AO2 SLP102 P0004 60004 T01000100 56009=
202205050843 SPECI KBLI 050843Z AUTO 33003KT 3SM -RA BR BKN014 BKN039 OVC060 11/11 A2982 RMK AO2 P0003 T01060106=
202205050832 SPECI KBLI 050832Z AUTO 00000KT 2 1/2SM -RA BR FEW004 BKN014 OVC060 11/11 A2982 RMK AO2 P0003 T01060106=
202205050821 SPECI KBLI 050821Z AUTO 00000KT 4SM -RA BR FEW004 SCT040 OVC060 11/11 A2982 RMK AO2 P0002 T01060106=
202205050753 METAR KBLI 050753Z AUTO 00000KT 5SM -RA BR BKN004 OVC065 11/11 A2982 RMK AO2 SLP106 P0000 T01060106 401330078=
202205050750 SPECI KBLI 050750Z AUTO 00000KT 5SM -RA BR BKN004 OVC065 11/11 A2982 RMK AO2 P0000=
202205050726 SPECI KBLI 050726Z AUTO 00000KT 7SM -RA SCT006 OVC065 11/11 A2983 RMK AO2 P0000 T01060106=
202205050701 SPECI KBLI 050701Z AUTO 00000KT 8SM -RA BKN007 BKN080 OVC090 11/11 A2983 RMK AO2 P0000 T01060106=
202205050653 METAR KBLI 050653Z AUTO 29003KT 9SM -RA SCT007 BKN038 OVC085 11/11 A2984 RMK AO2 RAB05E16B53 SLP111 P0000 T01060106=
202205050635 SPECI KBLI 050635Z AUTO 00000KT 9SM FEW008 BKN090 OVC110 10/10 A2984 RMK AO2 RAB05E16 P0000 T01000100=
202205050553 METAR KBLI 050553Z AUTO 00000KT 10SM FEW065 OVC085 10/10 A2986 RMK AO2 SLP119 60000 T01000100 10128 20100 58008=
202205050453 METAR KBLI 050453Z 00000KT 10SM OVC060 11/11 A2987 RMK AO2 SLP123 T01110106=
202205050353 METAR KBLI 050353Z 00000KT 10SM SCT065 SCT100 11/11 A2988 RMK AO2 SLP125 T01110106=
202205050253 METAR KBLI 050253Z 04003KT 10SM OVC070 12/11 A2989 RMK AO2 SLP127 60000 T01170111 56022=
202205050153 METAR KBLI 050153Z 03004KT 10SM BKN120 12/11 A2990 RMK AO2 SLP131 T01220111=
202205050053 METAR KBLI 050053Z 03005KT 10SM SCT021 OVC065 13/11 A2992 RMK AO2 RAE03 SLP139 P0000 T01280111=
202205042353 METAR KBLI 042353Z 32003KT 8SM -RA SCT021 OVC065 12/11 A2995 RMK AO2 RAB03 SLP149 P0000 60000 T01220106 10133 20106 58017=
202205042253 METAR KBLI 042253Z 00000KT 10SM SCT021 BKN029 OVC075 13/09 A2997 RMK AO2 SLP156 T01330094=
202205042153 METAR KBLI 042153Z 05005KT 10SM OVC023 13/10 A2998 RMK AO2 SLP159 T01330100=
202205042053 METAR KBLI 042053Z 03006KT 10SM BKN019 BKN100 13/10 A3000 RMK AO2 SLP166 60000 T01330100 58021=
202205042019 SPECI KBLI 042019Z 04005KT 10SM BKN016 BKN090 OVC110 13/10 A3001 RMK AO2 T01280100=
202205041953 METAR KBLI 041953Z 07006KT 10SM FEW009 BKN075 OVC090 13/10 A3002 RMK AO2 SLP172 T01330100=
202205041900 SPECI KBLI 041900Z 03004KT 10SM FEW009 SCT060 OVC075 11/09 A3005 RMK AO2 T01110094=
202205041853 METAR KBLI 041853Z 05006KT 10SM FEW014 SCT060 OVC075 11/10 A3005 RMK AO2 RAB10E49 SLP181 P0000 T01110100=
202205041753 METAR KBLI 041753Z 01007KT 7SM SCT007 BKN024 OVC060 11/10 A3006 RMK AO2 RAE47 SLP187 P0000 60001 T01060100 10106 20078 58019=
202205041655 SPECI KBLI 041655Z 35004KT 7SM -RA FEW007 OVC065 10/09 A3008 RMK AO2 P0000 T01000094=
202205041653 METAR KBLI 041653Z 01004KT 7SM -RA OVC065 10/09 A3008 RMK AO2 SLP194 P0000 T01000094=
202205041553 METAR KBLI 041553Z 01004KT 10SM -RA FEW007 SCT026 OVC070 09/09 A3011 RMK AO2 SLP202 P0001 T00890089=
202205041453 METAR KBLI 041453Z 02003KT 10SM -RA FEW008 SCT034 OVC070 09/08 A3012 RMK AO2 RAB08 SLP208 P0000 60000 T00890083 56009=
202205041353 METAR KBLI 041353Z 00000KT 10SM BKN029 BKN038 OVC080 08/08 A3013 RMK AO2 SLP210 T00830083=
202205041253 METAR KBLI 041253Z AUTO 00000KT 10SM OVC027 08/08 A3014 RMK AO2 RAE1155 SLP214 P0000 T00830083=
202205041153 METAR KBLI 041153Z AUTO 00000KT 10SM -RA OVC025 08/08 A3015 RMK AO2 RAE18B44 SLP216 P0000 60000 70006 T00830083 10094 20078 56016=
202205041053 METAR KBLI 041053Z AUTO 00000KT 10SM -RA OVC025 08/08 A3016 RMK AO2 RAB46 SLP219 P0000 T00830078=
202205040953 METAR KBLI 040953Z AUTO 00000KT 10SM OVC026 09/07 A3017 RMK AO2 SLP225 T00890072=
202205040853 METAR KBLI 040853Z AUTO 00000KT 10SM OVC026 09/07 A3019 RMK AO2 SLP231 60000 T00890072 56009=
202205040837 SPECI KBLI 040837Z AUTO 00000KT 10SM BKN027 OVC060 09/07 A3020 RMK AO2 T00890067=
202205040753 METAR KBLI 040753Z AUTO 17004KT 10SM BKN030 OVC049 09/07 A3020 RMK AO2 RAE41 SLP234 P0000 T00890067 401220089=
202205040653 METAR KBLI 040653Z AUTO 19004KT 10SM -RA OVC031 09/06 A3021 RMK AO2 RAB53 SLP237 P0000 T00940061=
202205040553 METAR KBLI 040553Z AUTO 18005KT 10SM OVC037 09/07 A3022 RMK AO2 SLP241 60000 T00940067 10117 20089 58006=
202205040453 METAR KBLI 040453Z VRB04KT 10SM FEW014 OVC043 09/08 A3024 RMK AO2 SLP246 T00940078=
202205040439 SPECI KBLI 040439Z 18004KT 10SM FEW014 OVC044 09/08 A3024 RMK AO2 T00940078=
202205040353 METAR KBLI 040353Z 17008KT 10SM BKN020 OVC049 09/08 A3023 RMK AO2 RAE13 SLP245 P0000 T00940083=
202205040253 METAR KBLI 040253Z 17007KT 10SM -RA BKN020 OVC049 09/08 A3024 RMK AO2 SLP247 P0000 60000 T00940083 58006=
202205040208 SPECI KBLI 040208Z 18006KT 10SM -RA BKN026 OVC049 10/08 A3025 RMK AO2 P0000 T01000078=
202205040153 METAR KBLI 040153Z 17007KT 10SM -RA SCT028 OVC047 10/08 A3025 RMK AO2 SLP251 P0000 T01000078=
202205040053 METAR KBLI 040053Z 18006KT 10SM -RA OVC039 11/08 A3026 RMK AO2 RAB08 SLP253 P0000 T01060078=
202205032353 METAR KBLI 032353Z 18010G19KT 10SM OVC060 12/06 A3026 RMK AO2 SLP254 T01170061 10122 20111 58000=
202205032253 METAR KBLI 032253Z 17011G18KT 10SM OVC060 12/07 A3026 RMK AO2 SLP254 T01170067=
202205032153 METAR KBLI 032153Z 16010G18KT 10SM SCT019 OVC075 12/08 A3026 RMK AO2 SLP255 T01170078=
202205032053 METAR KBLI 032053Z 19011G21KT 160V220 10SM SCT019 OVC075 12/08 A3026 RMK AO2 SLP254 T01170078 51007=
202205031953 METAR KBLI 031953Z 19008G16KT 10SM FEW010 BKN037 OVC100 12/08 A3026 RMK AO2 SLP253 T01170083=
202205031853 METAR KBLI 031853Z 18008G18KT 10SM FEW010 BKN042 BKN110 12/08 A3025 RMK AO2 SLP252 T01170083=
202205031753 METAR KBLI 031753Z 18011KT 10SM FEW010 BKN030 OVC046 11/08 A3024 RMK AO2 SLP246 60006 T01110083 10117 20094 51005=
202205031653 METAR KBLI 031653Z 16009G17KT 10SM SCT012 OVC046 11/09 A3024 RMK AO2 SLP246 T01110094=
202205031553 METAR KBLI 031553Z 18013KT 10SM SCT010 OVC046 10/09 A3024 RMK AO2 SLP246 T01000089=
202205031453 METAR KBLI 031453Z 18006KT 10SM FEW010 OVC029 10/09 A3022 RMK AO2 RAE18 SLP241 P0000 60006 T01000094 51015=
202205031353 METAR KBLI 031353Z 17009KT 6SM -RA BR BKN027 BKN038 OVC049 09/09 A3021 RMK AO2 SLP236 P0001 T00940094=
202205031328 SPECI KBLI 031328Z AUTO 18007KT 10SM -RA BKN027 OVC049 09/09 A3020 RMK AO2 P0000 T00940094=
202205031253 METAR KBLI 031253Z AUTO 18009KT 5SM RA BR FEW010 BKN031 OVC038 09/09 A3020 RMK AO2 RAE17B31 SLP233 P0005 T00940089=
202205031221 SPECI KBLI 031221Z AUTO 18009G17KT 10SM FEW011 BKN027 OVC050 09/09 A3019 RMK AO2 RAE17 P0002 T00940094=
202205031153 METAR KBLI 031153Z AUTO 18009G17KT 7SM -RA FEW011 OVC055 09/09 A3018 RMK AO2 SLP227 P0002 60002 70030 T00940094 10111 20094 51019=
202205031146 SPECI KBLI 031146Z AUTO 17010KT 10SM -RA FEW011 SCT027 OVC060 09/09 A3018 RMK AO2 P0001 T00940094=
202205031053 METAR KBLI 031053Z AUTO 17011KT 10SM -RA OVC012 10/09 A3017 RMK AO2 RAB53 SLP223 P0000 T01000089=
202205031038 SPECI KBLI 031038Z AUTO 18009G16KT 10SM BKN012 OVC050 10/09 A3017 RMK AO2 T01000089=
202205030953 METAR KBLI 030953Z AUTO 17007G15KT 10SM OVC050 11/09 A3015 RMK AO2 SLP216 T01060089=
202205030853 METAR KBLI 030853Z AUTO 17006KT 10SM BKN040 OVC050 11/09 A3012 RMK AO2 SLP208 T01060089 51013=
202205030753 METAR KBLI 030753Z AUTO VRB06KT 10SM BKN042 OVC080 11/09 A3011 RMK AO2 SLP205 T01060094 401220100=
202205030653 METAR KBLI 030653Z AUTO 18005KT 10SM OVC080 11/10 A3010 RMK AO2 SLP199 T01110100=
202205030553 METAR KBLI 030553Z AUTO 18005KT 10SM OVC070 11/10 A3009 RMK AO2 SLP195 T01110100 10117 20111 53017=
202205030453 METAR KBLI 030453Z 18008KT 10SM OVC070 11/11 A3007 RMK AO2 SLP190 T01110106=
202205030353 METAR KBLI 030353Z 18008KT 10SM FEW044 FEW055 OVC070 11/10 A3005 RMK AO2 SLP182 T01110100=
202205030253 METAR KBLI 030253Z 00000KT 10SM BKN021 OVC027 12/10 A3004 RMK AO2 SLP178 T01170100 53021=
202205030153 METAR KBLI 030153Z 19003KT 10SM BKN016 BKN034 OVC060 12/10 A3001 RMK AO2 SLP170 T01170100=
202205030053 METAR KBLI 030053Z 18004KT 10SM SCT010 BKN016 BKN035 12/10 A2999 RMK AO2 SLP162 T01170100=
202205022353 METAR KBLI 022353Z VRB04KT 10SM SCT010 BKN020 OVC040 11/10 A2997 RMK AO2 SLP157 60000 T01110100 10122 20106 53028=
202205022256 SPECI KBLI 022256Z VRB06KT 10SM BKN012 BKN030 OVC050 12/10 A2994 RMK AO2 T01220100=
202205022253 METAR KBLI 022253Z VRB04KT 10SM FEW020 BKN027 OVC050 12/10 A2994 RMK AO2 SLP147 T01220100=
202205022236 SPECI KBLI 022236Z 19006KT 10SM BKN022 BKN032 OVC049 12/10 A2994 RMK AO2 T01220100=
202205022153 METAR KBLI 022153Z 20007KT 10SM FEW010 SCT020 BKN045 11/10 A2991 RMK AO2 SLP136 T01110100=
202205022053 METAR KBLI 022053Z 19006KT 10SM SCT020 BKN045 12/09 A2989 RMK AO2 SLP129 60000 T01170094 51019=
202205021953 METAR KBLI 021953Z 18010G16KT 10SM FEW015 SCT020 BKN050 12/09 A2988 RMK AO2 SLP123 T01170094=
202205021853 METAR KBLI 021853Z 18007KT 10SM SCT015 BKN035 BKN055 11/09 A2986 RMK AO2 RAE01B21E35 SLP117 P0000 T01110089=
202205021753 METAR KBLI 021753Z 18007KT 10SM -RA SCT012 BKN030 BKN070 11/09 A2984 RMK AO2 SLP110 P0000 60028 T01060094 10111 20100 52026=
202205021653 METAR KBLI 021653Z 17008KT 10SM -RA FEW004 BKN045 OVC075 11/10 A2981 RMK AO2 SLP101 P0002 T01110100=
202205021553 METAR KBLI 021553Z 18009KT 5SM -RA BR SCT004 BKN012 OVC049 10/10 A2979 RMK AO2 SLP093 P0008 T01000100=
202205021453 METAR KBLI 021453Z 15006KT 5SM -RA BR FEW004 BKN008 OVC047 11/11 A2976 RMK AO2 SLP084 P0007 60018 T01060106 53015=
202205021423 SPECI KBLI 021423Z 16009KT 5SM -RA BR SCT010 BKN045 OVC055 10/10 A2974 RMK AO2 PRESRR P0002 T01000100=
202205021353 METAR KBLI 021353Z 01011KT 5SM -RA BR OVC060 10/10 A2971 RMK AO2 SLP068 P0004 T01000100=
202205021253 METAR KBLI 021253Z AUTO 06006KT 6SM -RA BR FEW031 BKN046 OVC055 11/11 A2971 RMK AO2 SLP069 P0007 T01060106=
202205021153 METAR KBLI 021153Z AUTO 08004KT 6SM -RA BR FEW040 OVC060 11/11 A2972 RMK AO2 SLP069 P0006 60012 70012 T01060106 10117 20100 58004=
202205021053 METAR KBLI 021053Z AUTO 07005KT 7SM -RA OVC065 11/10 A2971 RMK AO2 SLP069 P0002 T01060100=
202205020953 METAR KBLI 020953Z AUTO 00000KT 5SM -RA BR BKN047 OVC060 10/10 A2973 RMK AO2 RAB30 SLP074 P0004 T01000100=
202205020853 METAR KBLI 020853Z AUTO 03004KT 10SM OVC110 11/09 A2973 RMK AO2 SLP073 T01060094 56025=
202205020753 METAR KBLI 020753Z AUTO 01003KT 10SM CLR 10/09 A2974 RMK AO2 SLP079 T01000094 401610044=
202205020653 METAR KBLI 020653Z AUTO 00000KT 10SM CLR 11/09 A2976 RMK AO2 SLP085 T01110094=
202205020553 METAR KBLI 020553Z AUTO 00000KT 10SM CLR 11/10 A2980 RMK AO2 SLP098 T01110100 10150 20111 58024=
202205020453 METAR KBLI 020453Z 00000KT 10SM CLR 12/09 A2983 RMK AO2 SLP108 T01220089=
202205020353 METAR KBLI 020353Z 05003KT 10SM CLR 13/09 A2985 RMK AO2 SLP115 T01280094=
202205020253 METAR KBLI 020253Z 04004KT 10SM BKN044 13/10 A2987 RMK AO2 SLP123 T01330100 58033=
202205020153 METAR KBLI 020153Z 03004KT 10SM OVC047 14/09 A2991 RMK AO2 SLP134 T01440094=
202205020053 METAR KBLI 020053Z 35003KT 10SM OVC043 15/08 A2994 RMK AO2 SLP146 T01500083=
202205012353 METAR KBLI 012353Z 33005KT 10SM OVC042 15/08 A2997 RMK AO2 SLP156 T01500083 10161 20128 58024=
202205012253 METAR KBLI 012253Z VRB04KT 10SM FEW050 16/07 A3000 RMK AO2 SLP164 T01560072=
202205012153 METAR KBLI 012153Z 21007KT 10SM FEW043 16/07 A3002 RMK AO2 SLP172 T01560072=
202205012053 METAR KBLI 012053Z VRB06KT 10SM SCT040 BKN055 15/07 A3004 RMK AO2 SLP180 T01500072 58018=
202205011953 METAR KBLI 011953Z 20008KT 10SM FEW030 SCT060 15/08 A3007 RMK AO2 SLP188 T01500078=
202205011853 METAR KBLI 011853Z 19008KT 10SM SCT030 SCT060 14/08 A3008 RMK AO2 SLP194 T01390083=
202205011753 METAR KBLI 011753Z 18008KT 10SM CLR 13/08 A3009 RMK AO2 SLP198 T01280078 10133 20044 58004=
202205011653 METAR KBLI 011653Z 18004KT 10SM FEW007 SCT040 BKN050 11/09 A3011 RMK AO2 SLP203 T01060094=
202205011553 METAR KBLI 011553Z 17006KT 10SM FEW005 SCT040 10/09 A3011 RMK AO2 SLP204 T01000094=
202205011517 SPECI KBLI 011517Z VRB04KT 6SM BR SCT004 BKN050 09/09 A3011 RMK AO2 T00940094=
202205011453 METAR KBLI 011453Z 18006KT 5SM BR BKN003 09/09 A3011 RMK AO2 SLP202 T00890089 53002=
202205011353 METAR KBLI 011353Z 19004KT 5SM BR BKN003 BKN050 09/09 A3010 RMK AO2 SLP201 T00890089=
202205011253 METAR KBLI 011253Z AUTO 16004KT 10SM BKN004 BKN036 07/07 A3010 RMK AO2 SLP199 T00670067=
202205011248 SPECI KBLI 011248Z AUTO 16004KT 9SM SCT004 SCT036 06/06 A3010 RMK AO2=
202205011153 METAR KBLI 011153Z AUTO 00000KT 9SM CLR 06/06 A3010 RMK AO2 SLP198 70008 T00560056 10078 20050 55000=
202205011053 METAR KBLI 011053Z AUTO 16003KT 10SM FEW035 07/07 A3009 RMK AO2 SLP197 T00720072=
202205010953 METAR KBLI 010953Z AUTO 00000KT 10SM SCT037 07/07 A3010 RMK AO2 SLP198 T00670067=
202205010934 SPECI KBLI 010934Z AUTO 00000KT 10SM BKN037 07/07 A3010 RMK AO2 T00670067=
202205010925 SPECI KBLI 010925Z AUTO 00000KT 2 1/2SM BR SCT037 06/06 A3009 RMK AO2 VIS 1/2V5 T00610061=
202205010853 METAR KBLI 010853Z AUTO 00000KT 10SM CLR 07/07 A3010 RMK AO2 SLP200 T00670067 53007=
202205010753 METAR KBLI 010753Z AUTO 00000KT 10SM CLR 07/07 A3009 RMK AO2 SLP198 T00670067 401560061=
202205010653 METAR KBLI 010653Z AUTO 00000KT 10SM CLR 07/07 A3008 RMK AO2 SLP193 T00670067=
202205010553 METAR KBLI 010553Z AUTO 00000KT 10SM CLR 08/08 A3008 RMK AO2 SLP192 T00780078 10156 20072 51013=
202205010453 METAR KBLI 010453Z 00000KT 10SM CLR 08/08 A3007 RMK AO2 SLP190 T00830083=
202205010353 METAR KBLI 010353Z 00000KT 10SM CLR 10/09 A3006 RMK AO2 SLP185 T01000089=
202205010253 METAR KBLI 010253Z 29004KT 10SM CLR 13/10 A3004 RMK AO2 SLP178 T01280100 51013=
202205010153 METAR KBLI 010153Z 25007KT 220V300 10SM FEW070 14/09 A3003 RMK AO2 SLP175 T01390089=
202205010053 METAR KBLI 010053Z 29006KT 10SM SCT070 14/09 A3001 RMK AO2 SLP169 T01440089=

# No short TAF reports from KBLI in databse.

###################################
#  large TAF from KBLI
###################################
202205312327 TAF KBLI 312327Z 0100/0124 32005KT P6SM FEW150 SCT250 FM010500
                       31004KT P6SM BKN250 FM011000 30003KT P6SM
                       BKN250 FM011700 24004KT P6SM OVC100=
202205311721 TAF KBLI 311721Z 3118/0118 30005KT P6SM FEW020 BKN150 FM010100
                       31005KT P6SM OVC100 FM011000 30003KT P6SM
                       BKN250=
202205311207 TAF KBLI 311207Z 3112/0112 00000KT P6SM OVC035 FM311800 24005KT
                       P6SM SCT070 OVC100=
202205310520 TAF KBLI 310520Z 3106/0106 00000KT P6SM SCT040 OVC150 FM310900
                       18003KT P6SM OVC100 FM311800 24005KT P6SM
                       SCT070 OVC100=
202205302320 TAF KBLI 302320Z 3100/3124 19005KT P6SM OVC045 FM310600 17005KT
                       P6SM OVC150 FM311800 24005KT P6SM SCT070
                       OVC100=
202205301901 KBLI 301901Z 3019/3118 17005KT P6SM SCT012 BKN025 BKN070 FM302100
                       20004KT P6SM BKN050 OVC100 FM310600 19005KT
                       P6SM OVC100=
202205301724 TAF KBLI 301724Z 3018/3118 17005KT P6SM -SHRA BKN012 BKN030 OVC070
                       FM301900 17005KT P6SM SCT025 BKN040 OVC070
                       FM302100 20004KT P6SM BKN050 OVC100 FM310600
                       19005KT P6SM OVC100=
202205301524 KBLI 301524Z 3015/3112 17007KT P6SM -RA SCT014 BKN027 OVC060 FM301800
                       16006KT P6SM OVC050 FM302100 20004KT P6SM
                       BKN050 FM310500 19007KT P6SM OVC050=
202205301122 TAF KBLI 301122Z 3012/3112 16006KT P6SM -SHRA OVC045 FM301800 16006KT
                       P6SM OVC050 FM302100 20004KT P6SM BKN050
                       FM310500 19007KT P6SM OVC050=
202205300526 TAF KBLI 300526Z 3006/3106 20005KT P6SM OVC200 FM300900 17007KT
                       P6SM -SHRA SCT020 OVC050 FM301200 17005KT
                       P6SM -SHRA OVC015 FM301800 16006KT P6SM
                       OVC020 FM302100 20004KT P6SM OVC025 FM310500
                       19007KT P6SM OVC050=
202205292326 TAF KBLI 292326Z 3000/3024 17007KT P6SM FEW040 FEW050 FM300900
                       17007KT P6SM -SHRA SCT020 OVC050 FM301200
                       17005KT P6SM -SHRA OVC015 FM301800 16006KT
                       P6SM OVC020 FM302100 20004KT P6SM OVC025=
202205291726 TAF KBLI 291726Z 2918/3018 18006KT P6SM SCT012 BKN027 FM292000
                       18007G13KT P6SM FEW025 OVC050 FM300000 18007KT
                       P6SM OVC050 FM300900 17007KT P6SM -SHRA
                       SCT020 OVC050 FM301200 17005KT P6SM -SHRA
                       OVC015=
202205291503 KBLI 291503Z 2915/3012 19004G14KT P6SM FEW005 BKN023 FM291900 20008KT
                       P6SM BKN030 FM300200 20005KT P6SM SCT050
                       FM301100 18005KT P6SM SCT030=
202205291128 TAF KBLI 291128Z 2912/3012 18003KT P6SM -RA VCSH OVC060 FM291900
                       20008KT P6SM BKN030 FM300200 20005KT P6SM
                       SCT050 FM301100 18005KT P6SM SCT030=
202205290531 TAF KBLI 290531Z 2906/3006 00000KT P6SM VCSH OVC060 FM290800 15004KT
                       P6SM -RA OVC050 FM291200 16005KT P6SM VCSH
                       OVC025 FM291900 20008KT P6SM BKN030 FM300200
                       20005KT P6SM SCT050=
202205282322 TAF KBLI 282322Z 2900/2924 29006KT P6SM VCSH FEW045 SCT090 FM290800
                       15004KT P6SM -RA OVC050 FM291200 16005KT
                       P6SM -RA OVC025 FM291900 20008KT P6SM BKN030=
202205281731 TAF KBLI 281731Z 2818/2918 03006KT P6SM SCT024 BKN035 OVC045 FM290000
                       28006KT P6SM OVC060 FM290800 15004KT P6SM
                       -RA OVC050 FM291200 16003KT P6SM -RA OVC025=
202205281121 TAF KBLI 281121Z 2812/2912 00000KT P6SM OVC045 FM281800 VRB05KT
                       P6SM OVC050 FM290000 30005KT P6SM OVC070
                       FM290200 VRB04KT P6SM OVC050 FM290800 20005KT
                       P6SM -SHRA OVC050=
202205280522 TAF KBLI 280522Z 2806/2906 32003KT P6SM BKN045 FM281800 16005KT
                       P6SM OVC050 FM290000 30005KT P6SM OVC070
                       FM290200 VRB04KT P6SM OVC100=
202205272332 TAF KBLI 272332Z 2800/2824 18005KT P6SM VCSH FEW025 SCT040 BKN080
                       FM280300 18003KT P6SM OVC050 FM281800 16005KT
                       P6SM OVC050=
202205271735 TAF KBLI 271735Z 2718/2818 17009G15KT P6SM SCT013 BKN023 OVC030
                       FM272000 19007KT P6SM OVC040 FM280200 VRB03KT
                       P6SM OVC050=
202205271302 KBLI 271302Z 2713/2812 18007KT P6SM SCT010 OVC035
                      TEMPO 2713/2716 3SM -RA BR OVC005 FM272000
                       19007KT P6SM OVC040 FM280200 VRB03KT P6SM
                       OVC050=
202205271120 TAF KBLI 271120Z 2712/2812 VRB04KT P6SM SCT010 OVC035 FM271400
                       17013KT P6SM OVC030
                      TEMPO 2714/2716 OVC020 FM272000 19007KT P6SM
                       OVC040 FM280200 VRB03KT P6SM OVC050=
202205270528 TAF KBLI 270528Z 2706/2806 00000KT 4SM -RA BR SCT010 OVC030 FM270700
                       17006KT 5SM -RA BR SCT010 OVC025 FM271200
                       17013KT P6SM -RA OVC030
                      TEMPO 2712/2716 4SM -RA BR OVC020 FM272000
                       19007KT P6SM OVC040=
202205270300 KBLI 270300Z 2703/2724 00000KT P6SM -RA SCT020 OVC045
                      TEMPO 2703/2705 4SM -RA BR BKN020 OVC040
                       FM270700 17006KT 5SM -RA BR OVC030 FM271200
                       17013KT P6SM -RA OVC030=
202205262321 TAF KBLI 262321Z 2700/2724 29003KT P6SM OVC080 FM270200 23004KT
                       P6SM -RA OVC035 FM270700 17006KT 5SM -RA
                       BR OVC030 FM271200 17013KT P6SM -RA OVC030=
202205261725 TAF KBLI 261725Z 2618/2718 VRB03KT P6SM SCT100 FM270200 23004KT
                       P6SM -RA OVC035 FM270600 17006KT 5SM -RA
                       BR OVC030 FM271200 17009KT P6SM -RA OVC050=
202205261120 TAF KBLI 261120Z 2612/2712 VRB03KT P6SM SCT100 BKN250 FM261400
                       16004KT P6SM OVC100 FM261800 18005KT P6SM
                       OVC050 FM270000 19004KT P6SM -RA OVC035
                       FM270400 17007KT 5SM -RA BR OVC030=
202205260523 TAF KBLI 260523Z 2606/2706 VRB03KT P6SM SCT100 BKN250 FM261200
                       16004KT P6SM OVC100 FM261800 18005KT P6SM
                       OVC050 FM270000 19004KT P6SM -RA OVC035=
202205252320 TAF KBLI 252320Z 2600/2624 20006KT P6SM SCT025 FM260100 18004KT
                       P6SM SCT050 OVC100 FM260600 15004KT P6SM
                       SCT050 FM261200 VRB03KT P6SM OVC050=
202205251720 TAF KBLI 251720Z 2518/2618 18007KT P6SM OVC020 FM252100 18010KT
                       P6SM OVC025 FM260100 18004KT P6SM SCT050
                       OVC100 FM261200 VRB03KT P6SM OVC050=
202205251454 KBLI 251454Z 2515/2612 VRB04KT P6SM OVC020 FM251600 17007KT P6SM
                       OVC020 FM252100 18010KT P6SM BKN025 OVC050
                       FM260100 18004KT P6SM SCT050 OVC100=
202205251120 TAF KBLI 251120Z 2512/2612 VRB04KT P6SM OVC030
                      TEMPO 2512/2516 4SM -RA BR OVC020 FM251600
                       17007KT P6SM OVC020 FM252100 18010KT P6SM
                       SCT025 OVC050 FM260100 18004KT P6SM SCT050
                       OVC100=
202205250526 TAF KBLI 250526Z 2506/2606 16005KT P6SM BKN070 OVC200 FM251200
                       15004KT P6SM OVC050 FM251600 17007KT P6SM
                       OVC020 FM252100 18010KT P6SM SCT025 OVC050
                       FM260100 18004KT P6SM SCT050 OVC100=
202205242328 TAF KBLI 242328Z 2500/2524 21008KT P6SM BKN100 FM250400 16003KT
                       P6SM BKN050 OVC200 FM251200 15004KT P6SM
                       OVC050 FM251800 16009KT P6SM OVC040=
202205241720 TAF KBLI 241720Z 2418/2518 VRB03KT P6SM FEW030 FM242000 16008KT
                       P6SM BKN050 OVC200 FM251200 15004KT P6SM
                       OVC050=
202205241134 TAF KBLI 241134Z 2412/2512 19006KT P6SM SCT050 BKN200 FM241900
                       16008KT P6SM BKN050 OVC200=
202205240540 TAF KBLI 240540Z 2406/2506 19006KT P6SM SCT050 BKN200 FM241700
                       19010KT P6SM BKN050 OVC200=
202205240307 KBLI 240307Z 2403/2424 19005KT P6SM SCT080 SCT250 FM240900 18004KT
                       P6SM SCT080 BKN250 FM241500 17008KT P6SM
                       FEW030 BKN050 OVC200 FM242000 18012G18KT
                       P6SM BKN050 OVC200=
202205232339 TAF KBLI 232339Z 2400/2424 18010KT P6SM BKN060 BKN090 FM240900
                       19006KT P6SM OVC040 FM241700 17010G16KT
                       P6SM OVC050=
202205231740 TAF KBLI 231740Z 2318/2418 19010G20KT P6SM VCSH BKN060 OVC090 FM240400
                       19006KT P6SM SCT040 BKN060 FM240900 19006KT
                       P6SM OVC040 FM241700 17010G16KT P6SM OVC050=
202205231134 TAF KBLI 231134Z 2312/2412 19006KT P6SM OVC050 FM231700 19010KT
                       P6SM VCSH BKN035 OVC050 FM240100 19006KT
                       P6SM SCT040 BKN060 FM240900 19006KT P6SM
                       OVC022=
202205230541 TAF KBLI 230541Z 2306/2406 17006KT P6SM BKN200 FM230700 17006KT
                       P6SM BKN100 OVC200 FM231200 17006KT P6SM
                       OVC050 FM231700 17010KT P6SM VCSH OVC035=
202205222325 TAF KBLI 222325Z 2300/2324 VRB05KT P6SM BKN200 FM230700 17006KT
                       P6SM BKN100 OVC200 FM231200 17004KT P6SM
                       OVC050 FM231700 16009KT P6SM VCSH OVC030=
202205221732 TAF KBLI 221732Z 2218/2318 22005KT P6SM SKC FM222000 21005KT P6SM
                       BKN200 FM230700 17006KT P6SM BKN100 OVC200
                       FM231200 17004KT P6SM OVC050=
202205221123 TAF KBLI 221123Z 2212/2312 17004KT P6SM SKC FM221800 17006KT P6SM
                       BKN200 FM230700 17006KT P6SM BKN100 OVC200=
202205220535 TAF KBLI 220535Z 2206/2306 17004KT P6SM SKC FM221800 17006KT P6SM
                       BKN200=
202205220100 KBLI 220100Z 2201/2224 29009KT P6SM VCSH SCT080 FM220500 17004KT
                       P6SM SKC FM221800 17006KT P6SM BKN250=
202205212320 TAF KBLI 212320Z 2200/2224 VRB06KT P6SM FEW030
                      TEMPO 2200/2202 -SHRA BKN030 FM220500 17004KT
                       P6SM SKC FM221800 17006KT P6SM BKN250=
202205211727 TAF KBLI 211727Z 2118/2218 00000KT P6SM SCT150 FM212000 26006KT
                       P6SM SCT150 FM220300 21002KT P6SM SKC FM221700
                       17006KT P6SM SCT250=
202205211139 TAF KBLI 211139Z 2112/2212 00000KT P6SM SCT150 FM212000 31006KT
                       P6SM SCT150 FM220300 21002KT P6SM SKC=
202205210539 TAF KBLI 210539Z 2106/2206 08003KT P6SM SKC FM211200 35003KT P6SM
                       SCT150 FM212000 31006KT P6SM SCT150 FM220300
                       21002KT P6SM SKC=
202205202330 TAF KBLI 202330Z 2100/2124 VRB05KT P6SM SKC FM210500 17004KT P6SM
                       SKC FM211200 32003KT P6SM BKN250=
202205201735 TAF KBLI 201735Z 2018/2118 18006KT P6SM FEW030 FM201900 22006KT
                       P6SM SCT250 FM202200 26007KT P6SM FEW250
                       FM210500 00000KT P6SM SKC FM211200 19003KT
                       P6SM BKN250=
202205201506 KBLI 201506Z 2015/2112 15003KT P6SM SKC FM201900 25006KT P6SM SCT250
                       FM202200 28007KT P6SM FEW250 FM210500 00000KT
                       P6SM SKC=
202205201139 TAF KBLI 201139Z 2012/2112 16004KT P6SM BKN080 FM201500 15003KT
                       P6SM BKN025 FM201900 25006KT P6SM SCT250
                       FM202200 28007KT P6SM FEW250 FM210500 00000KT
                       P6SM SKC=
202205200907 KBLI 200907Z 2009/2106 16004KT P6SM BKN080 FM201500 15003KT P6SM
                       BKN025 FM201900 25006KT P6SM SCT250 FM202200
                       28007KT P6SM FEW250 FM210500 00000KT P6SM
                       SKC=
202205200528 TAF KBLI 200528Z 2006/2106 18006KT P6SM BKN100 FM200900 16004KT
                       P6SM BKN030 FM201900 25006KT P6SM SCT250=
202205192332 TAF KBLI 192332Z 2000/2024 26010KT P6SM SCT070 FM200300 18006KT
                       P6SM BKN100 FM200900 16004KT P6SM BKN030
                       FM201900 25006KT P6SM SCT250=
202205191739 TAF KBLI 191739Z 1918/2018 18009KT P6SM SCT030 BKN100 FM191900
                       28010KT P6SM SCT030 BKN150 FM200200 18006KT
                       P6SM BKN100 FM201000 17004KT P6SM BKN050=
202205191139 TAF KBLI 191139Z 1912/2012 18005KT P6SM VCSH SCT030 BKN060 FM191800
                       18012KT P6SM BKN050 FM200700 18008KT P6SM
                       BKN100=
202205190539 TAF KBLI 190539Z 1906/2006 21008KT P6SM VCSH OVC050 FM191300 17005KT
                       P6SM VCSH OVC025 FM191800 30007KT P6SM BKN050=
202205182321 TAF KBLI 182321Z 1900/1924 21010G20KT P6SM SCT040 SCT080 FM190600
                       17008KT P6SM VCSH OVC050 FM191300 17005KT
                       P6SM VCSH OVC025 FM191800 30007KT P6SM BKN050=
202205181742 TAF KBLI 181742Z 1818/1918 18019G31KT P6SM VCSH BKN026 BKN030 OVC045
                       FM182100 21015G25KT P6SM SCT030 BKN050 FM190800
                       17008KT P6SM VCSH OVC050 FM191400 17005KT
                       P6SM VCSH OVC025=
202205181137 TAF KBLI 181137Z 1812/1912 14012KT P6SM -RA SCT030 OVC050 FM181500
                       19025G35KT 5SM -RA BR OVC030 FM182000 18020G30KT
                       6SM -RA BR OVC050 FM190800 17008KT P6SM
                       OVC050=
202205180530 TAF KBLI 180530Z 1806/1906 20005KT P6SM OVC060 FM181100 14007G14KT
                       P6SM -RA OVC050 FM181500 19025G35KT 5SM
                       -RA BR OVC030 FM182000 18020G30KT 6SM -RA
                       BR OVC050=
202205172322 TAF KBLI 172322Z 1800/1824 20005KT P6SM FEW100 FM181100 14007G14KT
                       P6SM -RA OVC050 FM181500 19025G35KT 5SM
                       -RA BR OVC030 FM182000 18020G30KT 6SM -RA
                       BR OVC050=
202205171720 TAF KBLI 171720Z 1718/1818 20004KT P6SM FEW025 SCT045 FM180300
                       16004KT P6SM OVC100 FM181100 14007G14KT
                       P6SM -RA OVC050 FM181500 19025G35KT 5SM
                       -RA BR OVC030=
202205171136 TAF KBLI 171136Z 1712/1812 18008KT P6SM SCT025 OVC050 FM180300
                       16004KT P6SM OVC100 FM181100 14007G14KT
                       P6SM -RA OVC050=
202205170532 TAF KBLI 170532Z 1706/1806 18005KT P6SM SCT025 BKN050 FM171000
                       18003KT P6SM BKN050 FM171700 17011KT P6SM
                       OVC050=
202205162320 TAF KBLI 162320Z 1700/1724 16011KT P6SM FEW050 SCT060 BKN080 FM170400
                       18005KT P6SM SCT025 BKN050 FM171000 18003KT
                       P6SM BKN050 FM171700 17011KT P6SM OVC050=
202205161737 TAF KBLI 161737Z 1618/1718 18005KT P6SM SCT010 BKN015 OVC050 FM170000
                       16005KT P6SM SCT025 BKN250 FM171000 18003KT
                       P6SM BKN050=
202205161500 KBLI 161500Z 1615/1712 VRB04KT 5SM -RA BR SCT008 BKN015 OVC030
                       FM161600 18006KT P6SM VCSH SCT006 BKN020
                       FM161700 17008KT P6SM SCT025 OVC050 FM170000
                       16005KT P6SM SCT060 BKN250=
202205161435 KBLI 161435Z 1615/1712 18006KT 3/4SM -RA BR BKN003 OVC010 FM161600
                       18006KT P6SM VCSH SCT006 BKN020 FM161700
                       17008KT P6SM SCT025 OVC050 FM170000 16005KT
                       P6SM SCT060 BKN250=
202205161120 TAF KBLI 161120Z 1612/1712 18010G18KT P6SM BKN025 OVC050 FM161700
                       17008KT P6SM SCT025 OVC050 FM170000 16005KT
                       P6SM SCT060 BKN250=
202205160523 TAF KBLI 160523Z 1606/1706 18005KT P6SM SCT030 BKN080
                      TEMPO 1606/1610 5SM -SHRA BR BKN025 OVC040
                       FM161000 16006KT P6SM BKN015 OVC025 FM161700
                       17008KT P6SM BKN025 OVC050 FM162100 17008KT
                       P6SM BKN050 FM170000 16005KT P6SM SCT060
                       BKN250=
202205160058 KBLI 160058Z 1601/1624 01006KT 2SM RA BR OVC015 FM160200 18008KT
                       P6SM VCSH BKN015 OVC025 FM161200 17010G17KT
                       P6SM VCSH OVC010 FM161500 18012KT P6SM VCSH
                       OVC020 FM162000 19011G17KT P6SM BKN050=
202205152320 TAF KBLI 152320Z 1600/1624 04009KT P6SM VCSH FEW008 OVC035 FM160600
                       16008KT P6SM VCSH BKN015 OVC025 FM161200
                       17010G17KT P6SM VCSH OVC010 FM161500 18012KT
                       P6SM VCSH OVC020 FM162000 19011G17KT P6SM
                       BKN050=
202205151907 KBLI 151907Z 1519/1618 02007KT 4SM -RA BR SCT020 BKN026 OVC030
                       FM152200 16008KT P6SM -SHRA BKN030 BKN050
                       FM161000 16008KT P6SM VCSH BKN015 OVC025
                       FM161400 17009G16KT P6SM VCSH OVC050=
202205151727 TAF KBLI 151727Z 1518/1618 04006KT P6SM -RA FEW012 BKN035 OVC080
                       FM160100 16008KT P6SM -SHRA BKN030 BKN050
                       FM161000 16008KT P6SM VCSH BKN015 OVC025
                       FM161400 17009G16KT P6SM VCSH OVC050=
202205151613 KBLI 151613Z 1516/1612 03007KT P6SM -RA FEW010 BKN030 BKN040 FM151800
                       07004KT 5SM -RA BR OVC015 FM160100 16008KT
                       P6SM -SHRA BKN030 BKN050 FM161000 16008KT
                       P6SM BKN015 OVC025=
202205151123 TAF KBLI 151123Z 1512/1612 05004KT P6SM -RA BKN060 OVC100 FM151500
                       04004KT P6SM -RA BKN025 OVC040 FM151800
                       07004KT 5SM -RA BR OVC015 FM160100 16008KT
                       P6SM -SHRA BKN030 BKN050 FM161000 16008KT
                       P6SM BKN015 OVC025=
202205150528 TAF KBLI 150528Z 1506/1606 00000KT P6SM SCT060 BKN250 FM150900
                       VRB03KT P6SM BKN060 OVC100 FM151500 04004KT
                       P6SM -RA BKN025 OVC040 FM151800 07004KT
                       5SM -RA BR OVC015 FM160100 16008KT P6SM
                       -SHRA BKN030 BKN050=
202205142320 TAF KBLI 142320Z 1500/1524 VRB05KT P6SM BKN050 BKN250 FM150300
                       17008KT P6SM BKN040 OVC200 FM151600 16006KT
                       P6SM -RA BKN025 OVC040=
202205141754 TAF KBLI 141754Z 1418/1518 04008KT 2SM BR VCSH OVC015 FM142000
                       16008KT P6SM VCSH BKN030 OVC040 FM142300
                       18010KT P6SM BKN030 OVC040 FM150300 17008KT
                       P6SM BKN040 FM151600 16006KT P6SM -RA BKN025
                       OVC040=
202205141121 TAF KBLI 141121Z 1412/1512 01004KT P6SM -RA BKN030 OVC040 FM142100
                       18010KT P6SM BKN030 OVC040 FM150300 16005KT
                       P6SM BKN040=
202205140520 TAF KBLI 140520Z 1406/1506 00000KT P6SM BKN060 OVC100 FM140900
                       VRB04KT P6SM -RA OVC040 FM141300 07003KT
                       P6SM -RA OVC025 FM142100 18010KT P6SM VCSH
                       OVC025 FM150100 16005KT P6SM BKN040=
202205132320 TAF KBLI 132320Z 1400/1424 16005KT P6SM BKN100 FM140900 VRB04KT
                       P6SM -RA OVC040 FM141100 07003KT 6SM -SHRA
                       OVC025 FM142100 18010KT 6SM -RA OVC025=
202205131720 TAF KBLI 131720Z 1318/1418 17007G16KT P6SM BKN060 FM131900 16013KT
                       P6SM SCT050 SCT150 FM140000 18011KT P6SM
                       BKN050 OVC100 FM140600 VRB04KT P6SM -RA
                       OVC040 FM141100 07003KT 6SM -SHRA OVC025
                       FM141700 07004KT 6SM -RA OVC025=
202205131458 KBLI 131458Z 1315/1412 18007KT P6SM BKN030 FM131900 16013KT P6SM
                       SCT050 SCT150 FM140000 18011KT P6SM BKN050
                       OVC100 FM140600 VRB04KT P6SM -RA OVC040
                       FM141100 VRB03KT 6SM -SHRA OVC025=
202205131309 KBLI 131309Z 1313/1412 19008KT P6SM VCSH SCT020 BKN040
                      TEMPO 1313/1316 -SHRA FM131900 16013KT P6SM
                       SCT050 SCT150 FM140000 18011KT P6SM BKN050
                       OVC100 FM140600 VRB04KT P6SM -RA OVC040
                       FM141100 VRB03KT 6SM -SHRA OVC025=
202205131124 TAF KBLI 131124Z 1312/1412 20006KT P6SM VCSH BKN050
                      TEMPO 1312/1315 -SHRA FM131900 16013KT P6SM
                       SCT050 SCT150 FM140000 18011KT P6SM BKN050
                       OVC100 FM140600 VRB04KT P6SM -RA OVC040
                       FM141100 VRB03KT 6SM -SHRA OVC025=
202205130526 TAF KBLI 130526Z 1306/1406 18007KT P6SM VCSH OVC050 FM130900 17010KT
                       P6SM BKN050 FM131900 16013KT P6SM SCT050
                       SCT150 FM140000 18011KT P6SM BKN050 OVC100=
202205130241 KBLI 130241Z 1303/1324 19008KT P6SM FEW015 SCT035 BKN060 FM130700
                       16010KT P6SM SCT020 OVC040 FM131200 17010KT
                       P6SM BKN050 FM131700 16015KT P6SM BKN050=
202205130038 KBLI 130038Z 1301/1324 22011G22KT 2SM +RA BR BKN030 OVC070
                      TEMPO 1301/1302 +RA BR FM130400 15012KT 6SM
                       -SHRA OVC030 FM130700 16010KT P6SM SCT020
                       OVC040 FM131200 17010KT P6SM BKN050 FM131700
                       16015KT P6SM BKN050=
202205122337 TAF KBLI 122337Z 1300/1324 14012G22KT 4SM -RA BR SCT020 BKN025
                       OVC040 FM130400 15012KT 6SM -SHRA OVC030
                       FM130700 16010KT P6SM SCT020 OVC040 FM131200
                       17010KT P6SM BKN050 FM131700 16015KT P6SM
                       BKN050=
202205121739 TAF KBLI 121739Z 1218/1318 14015G25KT P6SM -RA BKN040 FM122200
                       14012G22KT 4SM -RA SCT008 OVC015 FM130400
                       15014KT 6SM -SHRA OVC030 FM130700 16008KT
                       P6SM SCT020 BKN030 FM131200 17008KT P6SM
                       BKN050=
202205121128 TAF KBLI 121128Z 1212/1312 16015G25KT P6SM VCSH OVC035 FM121400
                       14015G25KT P6SM -RA OVC025 FM122200 13012G22KT
                       4SM -RA SCT008 OVC015 FM130400 15012KT 6SM
                       -SHRA OVC012 FM130700 16008KT P6SM SCT020
                       BKN030=
202205120524 TAF KBLI 120524Z 1206/1306 17007KT P6SM VCSH OVC060 FM120900 15011KT
                       P6SM VCSH OVC050 FM121600 14015G25KT P6SM
                       -RA OVC025 FM122200 13012G22KT 4SM -RA SCT008
                       OVC015 FM130400 15012KT 6SM -SHRA OVC012=
202205112335 TAF KBLI 112335Z 1200/1224 18010G15KT P6SM BKN080 BKN250 FM120500
                       17004KT P6SM OVC060 FM120900 15011KT P6SM
                       VCSH OVC050 FM121700 14017G23KT P6SM -RA
                       OVC030 FM122200 13012G19KT P6SM -RA OVC050=
202205111735 TAF KBLI 111735Z 1118/1218 19015KT P6SM SCT030 FM120100 17012KT
                       P6SM OVC080 FM120900 15011KT P6SM VCSH OVC050
                       FM121700 14017G23KT P6SM -RA OVC050=
202205111121 TAF KBLI 111121Z 1112/1212 16005KT P6SM BKN060 FM111800 16012G20KT
                       P6SM BKN060 FM120100 17012KT P6SM OVC080
                       FM120900 15011KT P6SM BKN030 OVC050=
202205110525 TAF KBLI 110525Z 1106/1206 16005KT P6SM BKN060 FM111500 15007KT
                       P6SM BKN070 BKN150 FM111800 16011G17KT P6SM
                       BKN070 BKN150 FM120100 17012KT P6SM OVC070=
202205102333 TAF KBLI 102333Z 1100/1124 17009KT P6SM SCT250 FM110500 16005KT
                       P6SM BKN060 FM111500 15008KT P6SM OVC035
                       FM111800 16011G17KT P6SM BKN050=
202205101733 TAF KBLI 101733Z 1018/1118 18009G18KT P6SM SCT023 SCT050 BKN250
                       FM102000 17011G20KT P6SM BKN050 BKN250 FM110000
                       18008KT P6SM SCT060 FM111500 15008KT P6SM
                       OVC025=
202205101124 TAF KBLI 101124Z 1012/1112 18007KT P6SM VCSH SCT030 BKN060 FM101500
                       16010KT P6SM BKN030 FM101900 17010G18KT
                       P6SM BKN050 FM110000 18008KT P6SM SCT060=
202205100918 KBLI 100918Z 1009/1106 17005KT P6SM VCSH BKN050
                      TEMPO 1010/1013 -SHRA FM101300 16010KT P6SM
                       OVC025 FM101900 17010G18KT P6SM BKN050=
202205100522 TAF KBLI 100522Z 1006/1106 17007KT P6SM VCSH BKN040 BKN080
                      TEMPO 1006/1009 -SHRA FM100900 16010KT P6SM
                       OVC025 FM101900 17010G18KT P6SM BKN050=
202205092320 TAF KBLI 092320Z 1000/1024 18010KT P6SM SCT040 FM100300 18010KT
                       P6SM BKN050 FM100900 16010KT P6SM OVC050
                       FM101700 17010G18KT P6SM BKN050=
202205091720 TAF KBLI 091720Z 0918/1018 16008KT P6SM VCSH SCT017 BKN020 BKN030
                       FM092000 17010KT P6SM BKN050 FM100000 18015KT
                       P6SM BKN050 FM100300 18010KT P6SM BKN050
                       FM100900 18010KT P6SM OVC050=
202205091120 TAF KBLI 091120Z 0912/1012 16008KT P6SM OVC090 FM092000 17008KT
                       P6SM BKN050 FM100000 18015KT P6SM BKN050
                       FM100300 18010KT P6SM BKN050 FM100900 18010KT
                       P6SM OVC050=
202205090520 TAF KBLI 090520Z 0906/1006 18003KT P6SM SKC FM091200 16003KT P6SM
                       OVC015 FM092000 17008KT P6SM BKN050 FM100000
                       18015KT P6SM BKN050 FM100300 18010KT P6SM
                       BKN050=
202205082320 TAF KBLI 082320Z 0900/0924 22011KT P6SM SCT040 FM090300 25007KT
                       P6SM SCT050 FM090600 18004KT P6SM VCSH OVC050
                       FM091200 16003KT P6SM OVC015 FM092000 17008KT
                       P6SM BKN050=
202205081720 TAF KBLI 081720Z 0818/0918 18007KT P6SM FEW013 SCT025 BKN035 FM082000
                       18007KT P6SM BKN030 OVC050 FM090300 18007KT
                       P6SM BKN050 FM090600 18004KT P6SM VCSH OVC050
                       FM091200 16003KT P6SM OVC015=
202205081120 TAF KBLI 081120Z 0812/0912 18010KT P6SM FEW018 BKN027 FM082000
                       18007KT P6SM BKN030 OVC050 FM090300 18007KT
                       P6SM BKN050 FM090600 18004KT P6SM VCSH OVC050=
202205080520 TAF KBLI 080520Z 0806/0906 22007KT P6SM FEW060 FEW070 FM081000
                       17007KT P6SM OVC030 FM082000 VRB05KT P6SM
                       OVC050 FM090300 18007KT P6SM BKN050=
202205072320 TAF KBLI 072320Z 0800/0824 20010G16KT P6SM FEW050 SCT060 FM080200
                       18012KT P6SM OVC050 FM081000 17007KT P6SM
                       OVC030 FM082000 VRB05KT P6SM OVC050=
202205071720 TAF KBLI 071720Z 0718/0818 18005KT P6SM FEW030 BKN060 OVC070 FM072100
                       20010G16KT P6SM VCSH BKN035 OVC040 FM080200
                       18012KT P6SM OVC050 FM081000 17007KT P6SM
                       OVC030=
202205071122 TAF KBLI 071122Z 0712/0812 00000KT P6SM VCSH FEW050 FM071800 18010G20KT
                       P6SM VCSH OVC025 FM080200 18012KT P6SM OVC050
                       FM081000 17007KT P6SM OVC030=
202205070520 TAF KBLI 070520Z 0706/0806 VRB03KT P6SM -RA OVC050 FM070800 00000KT
                       6SM -SHRA OVC025 FM071800 18010G18KT P6SM
                       VCSH OVC025 FM080200 18012KT P6SM OVC050=
202205062320 TAF KBLI 062320Z 0700/0724 27004KT P6SM -RA BKN050 OVC070 FM070300
                       VRB03KT P6SM -RA OVC050 FM070800 00000KT
                       6SM -SHRA OVC025 FM071800 18010G18KT P6SM
                       VCSH OVC025=
202205061720 TAF KBLI 061720Z 0618/0718 VRB03KT P6SM FEW025 BKN045 FM062100
                       27007KT P6SM OVC050 FM070300 VRB03KT P6SM
                       -RA OVC050 FM070800 06002KT 6SM -RA BR OVC025=
202205061120 TAF KBLI 061120Z 0612/0712 18006KT P6SM OVC045 FM062000 20007KT
                       P6SM OVC050 FM070300 18003KT P6SM -RA OVC050
                       FM070600 06002KT 6SM -RA BR OVC025=
202205060522 TAF KBLI 060522Z 0606/0706 18015G20KT P6SM VCSH SCT013 BKN020 OVC026
                       FM061400 VRB03KT P6SM OVC050 FM062000 20007KT
                       P6SM OVC050 FM070300 18003KT P6SM -RA OVC050=
202205052335 TAF KBLI 052335Z 0600/0624 17007KT P6SM -RA FEW015 SCT025 OVC050
                       FM060500 17009KT P6SM VCSH OVC030 FM061400
                       VRB03KT P6SM OVC050=
202205051720 TAF KBLI 051720Z 0518/0618 17015KT 5SM -RA SCT030 BKN040 OVC060
                       FM060500 17009KT P6SM VCSH OVC030 FM061400
                       13002KT P6SM OVC050=
202205051509 KBLI 051509Z 0515/0612 00000KT P6SM OVC005
                      TEMPO 0515/0517 VRB03KT OVC005 FM051800 16011G16KT
                       5SM -RA BKN015 OVC025 FM060500 17010KT P6SM
                       VCSH OVC040 FM060900 17005KT 6SM BR OVC020=
202205051303 KBLI 051303Z 0513/0612 00000KT 5SM -RA BR SCT023 BKN035 OVC060
                       FM051600 16011G18KT 4SM -RA BKN015 OVC025
                       FM060500 17010KT P6SM VCSH OVC040 FM060900
                       17005KT 6SM BR OVC020=
202205051123 TAF KBLI 051123Z 0512/0612 00000KT 2SM -RA BR BKN005 OVC035 FM051600
                       16011G18KT 4SM -RA BKN015 OVC025 FM060500
                       17010KT P6SM VCSH OVC040 FM060900 17005KT
                       6SM BR OVC020=
202205050902 KBLI 050902Z 0509/0606 22005KT 2SM -RA BR FEW005 BKN015 OVC050
                       FM051000 15007KT P6SM -RA BKN025 OVC035
                       FM051600 16011G18KT 4SM -RA BKN015 OVC025
                       FM060500 17010KT P6SM VCSH OVC040=
202205050520 TAF KBLI 050520Z 0506/0606 22005KT P6SM -RA OVC060 FM051000 15007KT
                       P6SM -RA BKN025 OVC035 FM051600 16011G18KT
                       4SM -RA BKN015 OVC025 FM060500 17010KT P6SM
                       VCSH OVC040=
202205042329 TAF KBLI 042329Z 0500/0524 04005KT P6SM SCT030 OVC070
                      TEMPO 0500/0502 -SHRA FM050600 28005KT P6SM
                       -RA OVC060 FM051000 15007KT P6SM -RA BKN025
                       OVC035 FM051600 16011G18KT 4SM -RA BKN015
                       OVC025=
202205041731 TAF KBLI 041731Z 0418/0518 35004KT P6SM -RA SCT010 OVC070 FM042100
                       30003KT P6SM SCT030 OVC100 FM050600 28005KT
                       P6SM -RA OVC060 FM051000 15007KT P6SM -RA
                       SCT025 OVC035 FM051600 16011KT 4SM -RA BKN015
                       OVC025=
202205041135 TAF KBLI 041135Z 0412/0512 VRB03KT P6SM -RA BKN025 OVC040 FM041800
                       VRB03KT P6SM BKN035 OVC050 FM042300 VRB03KT
                       P6SM SCT050 OVC100 FM051000 15008KT P6SM
                       -RA OVC040=
202205040535 TAF KBLI 040535Z 0406/0506 17006KT P6SM -RA BKN035 OVC050 FM041400
                       VRB03KT P6SM SCT035 OVC050 FM042300 VRB03KT
                       P6SM SCT050 OVC100=
202205040307 KBLI 040307Z 0403/0424 17007KT P6SM -RA BKN020 OVC050 FM041200
                       17006KT P6SM VCSH OVC030 FM042100 27005KT
                       P6SM OVC050=
202205032338 TAF KBLI 032338Z 0400/0424 17011G18KT P6SM OVC060 FM040400 17008KT
                       P6SM BKN050 OVC100 FM041000 17006KT P6SM
                       VCSH OVC030 FM042100 27005KT P6SM OVC050=
202205031743 TAF KBLI 031743Z 0318/0418 16010KT P6SM SCT012 OVC045 FM031900
                       17008KT P6SM BKN040 FM040500 17008KT P6SM
                       SCT050 OVC100 FM041000 17006KT P6SM VCSH
                       OVC030=
202205031143 TAF KBLI 031143Z 0312/0412 17008KT P6SM OVC012 FM031600 17008KT
                       P6SM OVC020 FM031900 17008KT P6SM BKN040
                       FM040500 17008KT P6SM SCT050 OVC100=
202205030532 TAF KBLI 030532Z 0306/0406 17006KT P6SM OVC050 FM031200 17008KT
                       P6SM OVC020 FM031900 17008KT P6SM BKN040=
202205030131 KBLI 030131Z 0302/0324 18004KT P6SM BKN020 BKN035 FM030300 17006KT
                       P6SM SCT025 BKN040
                      TEMPO 0303/0305 BKN025 OVC040 FM030900 17010KT
                       P6SM OVC020 FM031900 17011G17KT P6SM BKN040=
202205022343 TAF KBLI 022343Z 0300/0324 VRB05KT P6SM BKN035 OVC050 FM030900
                       17010KT P6SM OVC020 FM031900 17011G17KT
                       P6SM BKN040=
202205021741 TAF KBLI 021741Z 0218/0318 17008KT P6SM -RA FEW004 BKN045 OVC080
                       FM022100 16007KT P6SM SCT030 BKN060 FM030900
                       17010KT P6SM OVC020=
202205021120 TAF KBLI 021120Z 0212/0312 05005KT P6SM -RA SCT025 OVC050
                      TEMPO 0214/0218 5SM -RA FM022000 32007KT
                       P6SM -SHRA SCT025 OVC050 FM022100 32007KT
                       P6SM VCSH SCT030 BKN060 FM031100 VRB03KT
                       P6SM OVC020=
202205020520 TAF KBLI 020520Z 0206/0306 00000KT P6SM SCT050 OVC100 FM020900
                       VRB04KT P6SM BKN050 OVC100 FM021300 VRB04KT
                       P6SM -RA OVC050 FM021500 16004KT 6SM -RA
                       BR OVC015 FM022000 20005KT P6SM OVC025=
202205012325 TAF KBLI 012325Z 0200/0224 VRB04KT P6SM FEW050 OVC150 FM020800
                       VRB04KT P6SM BKN050 OVC100 FM021300 VRB04KT
                       P6SM -RA OVC050 FM021500 16004KT 6SM -RA
                       BR OVC015 FM022000 20005KT P6SM OVC025=
202205011726 TAF KBLI 011726Z 0118/0218 18004KT P6SM FEW007 SCT040 BKN050 FM012000
                       18005KT P6SM SCT050 BKN200 FM020600 VRB04KT
                       P6SM OVC050 FM021200 00000KT P6SM -RA OVC050
                       FM021500 18005KT P6SM -RA OVC025=
202205011502 KBLI 011502Z 0115/0212 18005KT P6SM SCT003 BKN050
                      TEMPO 0115/0118 5SM BR BKN003 FM011800 18005KT
                       P6SM SCT050 SCT200 FM012200 22005KT P6SM
                       BKN200 FM020500 22007KT P6SM BKN040 OVC090
                       FM021000 18007KT P6SM -RA SCT025 OVC040=
202205011259 KBLI 011259Z 0113/0212 16004KT P6SM SCT004 SCT035
                      TEMPO 0113/0115 4SM BR BKN004 BKN035 FM011800
                       18005KT P6SM SCT040 SCT200 FM012200 22005KT
                       P6SM BKN200 FM020500 22007KT P6SM BKN040
                       OVC090 FM021000 18007KT P6SM -RA SCT025
                       OVC040=
202205011120 TAF KBLI 011120Z 0112/0212 VRB03KT P6SM SCT035 FM011800 18005KT
                       P6SM SCT040 SCT200 FM012200 22005KT P6SM
                       BKN200 FM020500 22007KT P6SM BKN040 OVC090
                       FM021000 18007KT P6SM -RA SCT025 OVC040=
202205010524 TAF KBLI 010524Z 0106/0206 00000KT P6SM FEW070 FM011100 00000KT
                       P6SM SCT020
                      TEMPO 0112/0116 BKN020 FM011800 16006KT P6SM
                       SCT040 BKN200 FM012200 16008KT P6SM OVC150
                       FM020500 16014KT P6SM BKN040 OVC090=