##########################################################
# Query made at 02/16/2025 23:12:01 UTC
# Time interval: from 02/01/2022 00:00  to 02/28/2022 23:59  UTC
##########################################################

##########################################################
# KBLI, Bellingham, Bellingham International Airport (United States)
# WMO index: -----. WIGOS ID: Unknown
# Latitude 48-47-58N. Longitude 122-32-21W. Altitude 48 m.
##########################################################

###################################
#  METAR/SPECI from KBLI
###################################
202202282353 METAR KBLI 282353Z 35003KT 5SM R16/3500VP6000FT -RA BR SCT010 BKN020 OVC025 08/08 A2985 RMK AO2 SLP116 P0003 60013 T00830083 10100 20067 55007=
202202282253 METAR KBLI 282253Z 04005KT 5SM -RA BR FEW010 SCT025 OVC040 08/08 A2985 RMK AO2 SLP115 P0002 T00830078=
202202282153 METAR KBLI 282153Z 02005KT 9SM -RA SCT046 OVC060 09/09 A2986 RMK AO2 SLP118 P0002 T00890089=
202202282053 METAR KBLI 282053Z 05003KT 5SM -RA BR SCT030 OVC050 09/09 A2987 RMK AO2 SLP124 P0004 60006 T00890089 58003=
202202281957 SPECI KBLI 281957Z 03003KT 5SM -RA BR BKN045 OVC055 08/08 A2989 RMK AO2 P0000 T00780078=
202202281953 METAR KBLI 281953Z 04004KT 6SM -RA BR SCT045 OVC055 08/08 A2989 RMK AO2 SLP129 P0002 T00830078=
202202281853 METAR KBLI 281853Z 12006KT 10SM -RA BKN049 OVC065 10/08 A2988 RMK AO2 SLP127 P0000 T01000083=
202202281753 METAR KBLI 281753Z 00000KT 7SM -RA SCT048 OVC055 07/07 A2988 RMK AO2 SLP127 P0001 60001 T00670067 10106 20056 53006=
202202281653 METAR KBLI 281653Z 10004KT 10SM -RA OVC060 06/06 A2987 RMK AO2 RAB33 SLP123 P0000 T00610061=
202202281553 METAR KBLI 281553Z VRB04KT 10SM FEW070 OVC095 06/06 A2987 RMK AO2 SLP121 T00560056=
202202281453 METAR KBLI 281453Z 04003KT 10SM OVC100 06/06 A2986 RMK AO2 SLP121 T00560056 50003=
202202281353 METAR KBLI 281353Z AUTO 00000KT 10SM FEW029 OVC110 07/07 A2987 RMK AO2 SLP122 T00670067=
202202281322 SPECI KBLI 281322Z AUTO 36004KT 10SM SCT023 OVC050 07/07 A2986 RMK AO2 T00720067=
202202281310 SPECI KBLI 281310Z AUTO VRB03KT 10SM BKN023 OVC050 07/07 A2986 RMK AO2 T00720067=
202202281300 SPECI KBLI 281300Z AUTO 01006KT 10SM SCT021 OVC050 08/07 A2986 RMK AO2 T00780072=
202202281253 METAR KBLI 281253Z AUTO 01005KT 10SM BKN021 OVC050 09/08 A2986 RMK AO2 SLP118 T00890078=
202202281235 SPECI KBLI 281235Z AUTO 13003KT 10SM BKN021 OVC050 10/08 A2985 RMK AO2 T01000083=
202202281203 SPECI KBLI 281203Z AUTO 15007KT 10SM SCT018 BKN048 OVC055 11/09 A2986 RMK AO2 T01060089=
202202281153 METAR KBLI 281153Z AUTO 15008KT 10SM BKN018 OVC046 11/09 A2985 RMK AO2 SLP116 60032 70040 T01060089 10106 20089 58017=
202202281102 SPECI KBLI 281102Z AUTO 15008KT 10SM BKN017 OVC060 10/09 A2986 RMK AO2 T01000089=
202202281053 METAR KBLI 281053Z AUTO 16008KT 10SM SCT017 OVC060 10/09 A2987 RMK AO2 RAE38 SLP120 P0001 T01000089=
202202280953 METAR KBLI 280953Z AUTO 18010G22KT 5SM RA BR FEW037 OVC050 10/09 A2990 RMK AO2 SLP130 P0014 T01000089=
202202280853 METAR KBLI 280853Z AUTO 17012G26KT 6SM -RA BR FEW021 SCT028 OVC045 10/08 A2990 RMK AO2 PK WND 13029/0813 SLP133 P0007 60017 T01000083 55011=
202202280753 METAR KBLI 280753Z AUTO 16015G24KT 7SM -RA FEW029 OVC050 09/07 A2988 RMK AO2 PK WND 15028/0654 SLP125 P0007 T00940072 401170083=
202202280653 METAR KBLI 280653Z AUTO 14016G25KT 7SM -RA OVC048 09/07 A2992 RMK AO2 PK WND 13034/0630 SLP138 P0003 T00890072=
202202280627 SPECI KBLI 280627Z AUTO 14017G29KT 8SM -RA OVC046 09/07 A2992 RMK AO2 PK WND 13029/0626 P0001 T00890072=
202202280553 METAR KBLI 280553Z 15015G26KT 8SM -RA BKN025 OVC049 09/07 A2994 RMK AO2 PK WND 15031/0504 SLP145 P0003 60005 T00890072 10111 20089 57026=
202202280453 METAR KBLI 280453Z 14015G28KT 10SM -RA BKN028 BKN046 OVC055 09/07 A2996 RMK AO2 PK WND 15028/0444 SLP154 P0000 T00890067=
202202280353 METAR KBLI 280353Z 13011KT 10SM -RA BKN028 BKN044 OVC055 09/07 A2999 RMK AO2 SLP163 P0001 T00890067=
202202280253 METAR KBLI 280253Z 13012KT 10SM -RA BKN029 BKN036 OVC055 09/07 A3001 RMK AO2 SLP170 P0001 60001 T00890072 56024=
202202280153 METAR KBLI 280153Z 14010KT 10SM -RA BKN029 BKN036 OVC050 09/08 A3003 RMK AO2 RAB0055 SLP175 P0000 T00940078=
202202280053 METAR KBLI 280053Z 15011KT 10SM BKN027 BKN050 OVC070 11/07 A3006 RMK AO2 SLP184 T01060072=
202202272353 METAR KBLI 272353Z 16007KT 10SM BKN025 OVC035 11/07 A3009 RMK AO2 SLP195 T01110072 10117 20083 56016=
202202272253 METAR KBLI 272253Z 16009KT 10SM BKN027 OVC050 11/07 A3009 RMK AO2 SLP197 T01110067=
202202272153 METAR KBLI 272153Z 14007KT 10SM SCT029 BKN037 OVC050 11/07 A3012 RMK AO2 SLP207 T01110072=
202202272053 METAR KBLI 272053Z 16009KT 10SM SCT030 BKN050 OVC070 11/07 A3013 RMK AO2 SLP211 T01110072 50011=
202202271953 METAR KBLI 271953Z 17009KT 10SM SCT026 BKN030 OVC070 11/07 A3014 RMK AO2 SLP214 T01060067=
202202271853 METAR KBLI 271853Z 18011G15KT 10SM FEW030 SCT070 BKN095 11/07 A3013 RMK AO2 SLP210 T01060067=
202202271753 METAR KBLI 271753Z 18008KT 10SM SCT025 OVC065 08/07 A3010 RMK AO2 RAE1655 SLP201 P0000 60003 T00830067 10111 20083 53055=
202202271708 SPECI KBLI 271708Z 17012G20KT 10SM FEW011 SCT018 OVC044 08/07 A3007 RMK AO2 RAE1655 P0000 T00830072=
202202271653 METAR KBLI 271653Z 18010G27KT 9SM -RA BKN013 OVC018 08/08 A3006 RMK AO2 PK WND 19039/1611 RAB07 PRESRR SLP186 VSBY HIGHER S-W. P0003 T00830078=
202202271650 SPECI KBLI 271650Z 19013G28KT 6SM -RA BR BKN013 OVC018 08/08 A3005 RMK AO2 PK WND 19039/1611 RAB07 VSBY HIGHER S-W. P0003=
202202271553 METAR KBLI 271553Z 18022G38KT 10SM BKN022 10/07 A2997 RMK AO2 PK WND 14041/1503 SLP156 T01000067=
202202271453 METAR KBLI 271453Z 17021G35KT 10SM OVC025 11/07 A2994 RMK AO2 PK WND 18038/1417 SLP146 60000 T01060067 56001=
202202271353 METAR KBLI 271353Z AUTO 16016G32KT 10SM BKN028 OVC035 11/07 A2994 RMK AO2 PK WND 15032/1348 RAE11 SLP146 P0000 T01060067=
202202271253 METAR KBLI 271253Z AUTO 17020G35KT 10SM -RA FEW030 BKN060 OVC080 11/07 A2994 RMK AO2 PK WND 16039/1224 RAB29 SLP145 P0000 T01060067=
202202271233 SPECI KBLI 271233Z AUTO 16024G39KT 10SM -RA FEW028 BKN075 OVC090 11/06 A2992 RMK AO2 PK WND 16039/1224 RAB29 P0000 T01060061=
202202271153 METAR KBLI 271153Z AUTO 17018G31KT 10SM OVC027 11/06 A2994 RMK AO2 PK WND 16039/1106 SLP147 60000 70004 T01060061 10106 20039 58016=
202202271129 SPECI KBLI 271129Z AUTO 17020G31KT 10SM OVC028 11/06 A2996 RMK AO2 PK WND 16039/1106 T01060061=
202202271053 METAR KBLI 271053Z AUTO 17017G26KT 10SM BKN031 OVC075 11/06 A2998 RMK AO2 PK WND 15042/1002 SLP159 T01060056=
202202270953 METAR KBLI 270953Z AUTO 17017G34KT 10SM FEW030 BKN075 OVC095 11/06 A2998 RMK AO2 PK WND 16037/0913 SLP160 T01060061=
202202270853 METAR KBLI 270853Z AUTO 16019G34KT 10SM OVC031 11/06 A2999 RMK AO2 PK WND 16034/0844 SLP164 60000 T01060056 55008=
202202270753 METAR KBLI 270753Z AUTO 17014G30KT 10SM OVC033 11/06 A2999 RMK AO2 PK WND 17035/0740 RAE02 SLP162 P0000 T01060056 401061039=
202202270653 METAR KBLI 270653Z AUTO 00000KT 8SM -RA FEW037 BKN060 OVC095 04/04 A3000 RMK AO2 RAB26 SLP170 P0000 T00440039=
202202270553 METAR KBLI 270553Z 00000KT 10SM BKN040 OVC070 04/04 A3002 RMK AO2 RAE28 SLP173 P0000 60004 T00390039 10067 20033 55014=
202202270453 METAR KBLI 270453Z 00000KT 6SM -RA BR BKN037 OVC055 03/03 A3001 RMK AO2 SLP172 P0001 T00330033=
202202270353 METAR KBLI 270353Z VRB03KT 10SM -RA BKN045 OVC055 04/03 A3002 RMK AO2 SLP175 P0001 T00440033=
202202270253 METAR KBLI 270253Z 36004KT 9SM -RA OVC043 04/03 A3006 RMK AO2 SLP189 P0001 60002 T00390033 56015=
202202270153 METAR KBLI 270153Z 11004KT 10SM -RA OVC044 05/03 A3006 RMK AO2 SLP191 P0001 T00500033=
202202270053 METAR KBLI 270053Z 09004KT 10SM -RA OVC050 04/03 A3009 RMK AO2 SLP199 P0000 T00390033=
202202262353 METAR KBLI 262353Z 35003KT 10SM -RA OVC055 04/02 A3010 RMK AO2 SLP202 P0000 60000 T00390022 10067 20028 53003=
202202262253 METAR KBLI 262253Z 24004KT 10SM -RA OVC060 06/M02 A3009 RMK AO2 RAB20E33B48 SLP197 P0000 T00611022=
202202262236 SPECI KBLI 262236Z 29004KT 10SM BKN070 OVC085 06/M02 A3008 RMK AO2 RAB20E33 P0000 T00561022=
202202262153 METAR KBLI 262153Z 01005KT 10SM BKN070 OVC085 06/M02 A3007 RMK AO2 SLP191 T00561022=
202202262053 METAR KBLI 262053Z 01006KT 10SM BKN070 OVC085 04/M01 A3009 RMK AO2 SLP199 T00441011 58020=
202202262029 SPECI KBLI 262029Z 10SM BKN070 OVC085 04/M01 A3011 RMK AO2 T00391011=
202202261953 METAR KBLI 261953Z 02003KT 10SM OVC080 04/M01 A3013 RMK AO2 SLP211 T00391011=
202202261853 METAR KBLI 261853Z 00000KT 10SM BKN090 OVC120 03/M01 A3016 RMK AO2 SLP224 T00281011=
202202261753 METAR KBLI 261753Z 16004KT 10SM OVC120 03/M01 A3015 RMK AO2 SLP220 T00281011 10028 21039 56009=
202202261653 METAR KBLI 261653Z 00000KT 10SM CLR 01/M01 A3016 RMK AO2 SLP223 T00111011=
202202261553 METAR KBLI 261553Z 00000KT 10SM CLR M01/M02 A3017 RMK AO2 SLP226 T10061017=
202202261453 METAR KBLI 261453Z 00000KT 10SM CLR M03/M03 A3018 RMK AO2 SLP229 T10281033 56009=
202202261353 METAR KBLI 261353Z AUTO 00000KT 10SM CLR M03/M04 A3018 RMK AO2 SLP229 T10281039=
202202261253 METAR KBLI 261253Z AUTO 00000KT 10SM CLR M03/M04 A3019 RMK AO2 SLP232 T10281039=
202202261153 METAR KBLI 261153Z AUTO 00000KT 10SM CLR M01/M04 A3020 RMK AO2 SLP238 T10111044 10006 21022 56022=
202202261053 METAR KBLI 261053Z AUTO 00000KT 10SM CLR 01/M04 A3022 RMK AO2 SLP241 T00061039=
202202260953 METAR KBLI 260953Z AUTO 02003KT 10SM CLR M01/M04 A3024 RMK AO2 SLP251 T10061039=
202202260853 METAR KBLI 260853Z AUTO 00000KT 10SM CLR M01/M04 A3027 RMK AO2 SLP260 T10111039 55012=
202202260753 METAR KBLI 260753Z AUTO 05004KT 10SM CLR M01/M04 A3025 RMK AO2 SLP253 T10061039 400721061=
202202260653 METAR KBLI 260653Z AUTO 04004KT 10SM CLR M02/M03 A3029 RMK AO2 SLP266 T10171033=
202202260553 METAR KBLI 260553Z 00000KT 10SM CLR M02/M04 A3031 RMK AO2 SLP273 T10171039 10072 21022 55005=
202202260453 METAR KBLI 260453Z 36003KT 10SM CLR M01/M03 A3029 RMK AO2 SLP269 T10061033=
202202260353 METAR KBLI 260353Z 00000KT 10SM CLR M01/M04 A3029 RMK AO2 SLP268 T10061039=
202202260253 METAR KBLI 260253Z 00000KT 10SM CLR 00/M03 A3032 RMK AO2 SLP277 T00001028 58019=
202202260153 METAR KBLI 260153Z 00000KT 10SM CLR 02/M02 A3034 RMK AO2 SLP286 T00221022=
202202260053 METAR KBLI 260053Z 36003KT 10SM CLR 06/M04 A3037 RMK AO2 SLP294 T00611039=
202202252353 METAR KBLI 252353Z 02006KT 10SM CLR 07/M03 A3038 RMK AO2 SLP296 T00721033 10072 20017 58013=
202202252253 METAR KBLI 252253Z 02005KT 10SM CLR 07/M03 A3039 RMK AO2 SLP303 T00671033=
202202252153 METAR KBLI 252153Z 06003KT 10SM CLR 07/M03 A3041 RMK AO2 SLP305 T00671028=
202202252053 METAR KBLI 252053Z VRB04KT 10SM CLR 06/M03 A3042 RMK AO2 SLP310 T00611028 56019=
202202251953 METAR KBLI 251953Z 36005KT 10SM CLR 05/M03 A3043 RMK AO2 SLP316 T00501028=
202202251853 METAR KBLI 251853Z 05005KT 10SM CLR 04/M02 A3045 RMK AO2 SLP322 T00391017=
202202251753 METAR KBLI 251753Z 01004KT 10SM CLR 02/M02 A3047 RMK AO2 SLP329 I6000 T00171022 10017 21061 58003=
202202251653 METAR KBLI 251653Z 00000KT 10SM CLR M01/M03 A3048 RMK AO2 SLP331 T10061028=
202202251553 METAR KBLI 251553Z 00000KT 10SM CLR M04/M04 A3048 RMK AO2 SLP334 T10391044=
202202251453 METAR KBLI 251453Z 00000KT 10SM CLR M05/M06 A3048 RMK AO2 SLP333 I1000 I3000 T10501056 56001=
202202251353 METAR KBLI 251353Z AUTO 00000KT 10SM CLR M06/M06 A3048 RMK AO2 SLP334 I1000 T10561056=
202202251253 METAR KBLI 251253Z AUTO 00000KT 10SM CLR M05/M06 A3048 RMK AO2 SLP331 I1000 T10501056=
202202251153 METAR KBLI 251153Z AUTO 00000KT 10SM CLR M04/M04 A3048 RMK AO2 SLP333 I1000 I6000 T10441044 11022 21056 58001=
202202251053 METAR KBLI 251053Z AUTO 00000KT 10SM CLR M04/M06 A3049 RMK AO2 SLP334 I1000 T10441056=
202202250953 METAR KBLI 250953Z AUTO 00000KT 10SM CLR M04/M06 A3049 RMK AO2 SLP336 I1000 T10391056=
202202250853 METAR KBLI 250853Z AUTO 00000KT 10SM CLR M04/M06 A3049 RMK AO2 SLP335 I1000 I3000 T10441061 53007=
202202250753 METAR KBLI 250753Z AUTO 00000KT 10SM CLR M03/M05 A3047 RMK AO2 SLP330 I1000 T10331050 400501056=
202202250653 METAR KBLI 250653Z AUTO 00000KT 10SM CLR M02/M03 A3047 RMK AO2 SLP329 I1000 T10221033=
202202250553 METAR KBLI 250553Z 00000KT 10SM CLR M03/M04 A3047 RMK AO2 SLP327 T10281039 10044 21033 53003=
202202250453 METAR KBLI 250453Z 00000KT 10SM CLR M03/M04 A3046 RMK AO2 SLP327 T10281039=
202202250353 METAR KBLI 250353Z 00000KT 10SM CLR M02/M03 A3046 RMK AO2 SLP325 T10221033=
202202250253 METAR KBLI 250253Z 00000KT 10SM CLR M01/M04 A3046 RMK AO2 SLP326 T10111039 53003=
202202250153 METAR KBLI 250153Z 00000KT 10SM CLR 01/M04 A3045 RMK AO2 SLP322 T00061039=
202202250053 METAR KBLI 250053Z 00000KT 10SM CLR 03/M04 A3045 RMK AO2 SLP321 T00331039=
202202242353 METAR KBLI 242353Z 29006KT 10SM CLR 04/M04 A3045 RMK AO2 SLP322 T00441044 10050 21011 55003=
202202242253 METAR KBLI 242253Z 25003KT 10SM CLR 04/M06 A3045 RMK AO2 SLP321 T00441061=
202202242153 METAR KBLI 242153Z 01004KT 10SM CLR 04/M05 A3045 RMK AO2 SLP321 T00441050=
202202242053 METAR KBLI 242053Z 35006KT 10SM CLR 03/M06 A3046 RMK AO2 SLP325 T00331056 58001=
202202241953 METAR KBLI 241953Z 01006KT 10SM CLR 02/M06 A3047 RMK AO2 SLP328 T00221056=
202202241853 METAR KBLI 241853Z 02006KT 10SM CLR 01/M05 A3048 RMK AO2 SLP331 T00111050=
202202241753 METAR KBLI 241753Z 03007KT 10SM CLR M01/M06 A3046 RMK AO2 SLP326 I6000 T10111056 11011 21056 51018=
202202241653 METAR KBLI 241653Z 02005KT 10SM CLR M03/M06 A3045 RMK AO2 SLP323 T10281056=
202202241553 METAR KBLI 241553Z 03006KT 9SM CLR M05/M06 A3042 RMK AO2 SLP313 T10501061=
202202241453 METAR KBLI 241453Z AUTO 34006KT 9SM CLR M06/M06 A3041 RMK AO2 SLP308 I3000 T10561061 51009=
202202241353 METAR KBLI 241353Z AUTO 02005KT 8SM CLR M06/M06 A3040 RMK AO2 SLP306 I1000 T10561056=
202202241253 METAR KBLI 241253Z AUTO 01005KT 6SM BR CLR M05/M05 A3039 RMK AO2 SLP303 T10501050=
202202241153 METAR KBLI 241153Z AUTO 02005KT 10SM OVC041 M03/M04 A3038 RMK AO2 SLP298 60003 70003 T10331044 11011 21039 51009=
202202241053 METAR KBLI 241053Z AUTO 03004KT 10SM BKN044 M03/M04 A3038 RMK AO2 SNE0958 SLP296 P0000 T10331039=
202202241010 SPECI KBLI 241010Z AUTO 04005KT 6SM BR SCT023 BKN046 M03/M04 A3037 RMK AO2 SNE0958 P0000 T10331039=
202202240953 METAR KBLI 240953Z AUTO 04006KT 3SM -SN BR BKN027 OVC049 M03/M03 A3037 RMK AO2 SLP293 P0000 T10281033=
202202240944 SPECI KBLI 240944Z AUTO 03005KT 3SM -SN BR OVC029 M03/M03 A3036 RMK AO2 P0000 T10281028=
202202240908 SPECI KBLI 240908Z AUTO 03006KT 2 1/2SM -SN BR OVC045 M02/M03 A3036 RMK AO2 P0000 T10221028=
202202240853 METAR KBLI 240853Z AUTO 03006KT 3SM -SN BR OVC041 M02/M03 A3035 RMK AO2 SLP289 P0000 60003 T10221028 51003=
202202240813 SPECI KBLI 240813Z AUTO 06005KT 2 1/2SM -SN BR FEW006 OVC033 M02/M03 A3035 RMK AO2 P0000 T10221028=
202202240804 SPECI KBLI 240804Z AUTO 05006KT 2 1/2SM -SN BR FEW006 OVC027 M02/M03 A3035 RMK AO2 P0000 T10171028=
202202240753 METAR KBLI 240753Z AUTO 05006KT 1 1/2SM -SN BR FEW006 OVC020 M02/M02 A3035 RMK AO2 SLP287 P0002 T10171022 400171067=
202202240744 SPECI KBLI 240744Z AUTO 05005KT 1SM R16/P6000FT -SN BR VV016 M02/M02 A3035 RMK AO2 P0002 T10171022=
202202240716 SPECI KBLI 240716Z AUTO 10005KT 1SM R16/P6000FT -SN BR VV014 M02/M02 A3035 RMK AO2 P0001 T10171022=
202202240709 SPECI KBLI 240709Z AUTO 09005KT 3/4SM R16/P6000FT -SN BR VV013 M02/M02 A3035 RMK AO2 P0001 T10171022=
202202240653 METAR KBLI 240653Z AUTO 07005KT 1SM R16/P6000FT -SN BR VV013 M02/M02 A3035 RMK AO2 SLP289 P0001 T10171017=
202202240646 SPECI KBLI 240646Z AUTO 09005KT 1SM R16/P6000FT -SN BR VV013 M02/M02 A3035 RMK AO2 P0001 T10171017=
202202240631 SPECI KBLI 240631Z AUTO 09005KT 3/4SM R16/P6000FT -SN BR VV012 M02/M02 A3035 RMK AO2 P0000 T10171017=
202202240553 METAR KBLI 240553Z 10006KT 2 1/2SM -SN BR OVC028 M01/M02 A3034 RMK AO2 SNB02 SLP286 P0000 60000 T10111022 10017 21011 53004=
202202240453 METAR KBLI 240453Z 18006KT 10SM OVC042 01/M06 A3033 RMK AO2 SLP281 T00061061=
202202240353 METAR KBLI 240353Z 13003KT 10SM OVC065 01/M09 A3033 RMK AO2 SLP280 T00111089=
202202240253 METAR KBLI 240253Z 00000KT 10SM OVC070 01/M08 A3033 RMK AO2 SLP283 T00061083 56014=
202202240153 METAR KBLI 240153Z 17003KT 10SM OVC070 01/M09 A3034 RMK AO2 SLP286 T00111089=
202202240053 METAR KBLI 240053Z 19003KT 10SM FEW095 02/M09 A3036 RMK AO2 SLP291 T00171089=
202202232353 METAR KBLI 232353Z 00000KT 10SM OVC085 01/M08 A3037 RMK AO2 SLP296 T00111083 10017 21011 56015=
202202232253 METAR KBLI 232253Z VRB03KT 10SM OVC095 01/M09 A3039 RMK AO2 SLP300 T00111094=
202202232153 METAR KBLI 232153Z 23003KT 10SM FEW100 FEW120 01/M11 A3039 RMK AO2 SLP303 T00111111=
202202232053 METAR KBLI 232053Z VRB05KT 10SM FEW090 SCT110 01/M10 A3042 RMK AO2 SLP310 T00061100 57015=
202202231953 METAR KBLI 231953Z 25005KT 10SM CLR 00/M10 A3043 RMK AO2 SLP316 T00001100=
202202231853 METAR KBLI 231853Z 17006KT 10SM BKN110 00/M08 A3044 RMK AO2 SLP320 T00001083=
202202231753 METAR KBLI 231753Z 00000KT 10SM CLR M01/M10 A3046 RMK AO2 SLP325 T10111100 11011 21067 51005=
202202231653 METAR KBLI 231653Z 00000KT 10SM CLR M04/M11 A3046 RMK AO2 SLP325 T10391111=
202202231553 METAR KBLI 231553Z 03004KT 10SM CLR M06/M12 A3046 RMK AO2 SLP327 T10611117=
202202231453 METAR KBLI 231453Z 00000KT 10SM CLR M06/M13 A3045 RMK AO2 SLP322 T10611128 58002=
202202231353 METAR KBLI 231353Z AUTO 04005KT 10SM CLR M06/M13 A3045 RMK AO2 SLP324 T10611133=
202202231253 METAR KBLI 231253Z AUTO 05007KT 10SM CLR M04/M14 A3045 RMK AO2 SLP323 T10441139=
202202231153 METAR KBLI 231153Z AUTO 03008KT 10SM CLR M05/M15 A3045 RMK AO2 SLP324 T10501150 11028 21050 58002=
202202231053 METAR KBLI 231053Z AUTO 03009KT 10SM CLR M05/M16 A3046 RMK AO2 SLP328 T10501156=
202202230953 METAR KBLI 230953Z AUTO 03010G19KT 10SM CLR M04/M16 A3047 RMK AO2 SLP328 T10441156=
202202230853 METAR KBLI 230853Z AUTO 03013KT 10SM CLR M04/M16 A3046 RMK AO2 PK WND 03028/0814 SLP325 T10391161 53004=
202202230753 METAR KBLI 230753Z AUTO 05011G30KT 10SM CLR M03/M17 A3044 RMK AO2 PK WND 05033/0654 SLP319 T10331167 400001039=
202202230653 METAR KBLI 230653Z AUTO 04015G29KT 10SM CLR M03/M17 A3044 RMK AO2 PK WND 04038/0603 SLP320 T10331172=
202202230553 METAR KBLI 230553Z 05016G34KT 10SM CLR M03/M17 A3045 RMK AO2 PK WND 05038/0512 SLP322 T10281167 11006 21033 53012=
202202230453 METAR KBLI 230453Z 04017G35KT 10SM CLR M03/M17 A3043 RMK AO2 PK WND 05040/0438 SLP315 T10281167=
202202230353 METAR KBLI 230353Z 03019G38KT 10SM CLR M03/M16 A3041 RMK AO2 PK WND 05038/0353 SLP310 T10281161=
202202230253 METAR KBLI 230253Z 03022G38KT 10SM CLR M02/M16 A3041 RMK AO2 PK WND 06040/0155 SLP310 T10221161 51017=
202202230153 METAR KBLI 230153Z 04021G36KT 10SM CLR M02/M16 A3041 RMK AO2 PK WND 04043/0108 SLP308 T10171161=
202202230053 METAR KBLI 230053Z 05025G42KT 10SM FEW090 M01/M16 A3038 RMK AO2 PK WND 06045/2355 SLP299 T10111161=
202202222353 METAR KBLI 222353Z 05021G43KT 10SM CLR M01/M16 A3036 RMK AO2 PK WND 05043/2317 SLP292 T10061156 10000 21033 53004=
202202222253 METAR KBLI 222253Z 04023G40KT 10SM FEW090 M01/M16 A3036 RMK AO2 PK WND 04045/2156 SLP290 T10061156=
202202222153 METAR KBLI 222153Z 03026G41KT 10SM FEW100 M01/M16 A3034 RMK AO2 PK WND 04046/2058 SLP286 T10061156=
202202222053 METAR KBLI 222053Z 04024G45KT 10SM FEW100 M01/M16 A3035 RMK AO2 PK WND 03046/2042 SLP287 T10111161 50009=
202202221953 METAR KBLI 221953Z 03027G46KT 10SM FEW060 BKN095 M02/M17 A3036 RMK AO2 PK WND 03048/1926 SLP291 T10171167=
202202221853 METAR KBLI 221853Z 04023G48KT 10SM FEW040 SCT070 BKN090 M03/M17 A3034 RMK AO2 PK WND 06048/1849 SLP286 T10281167=
202202221753 METAR KBLI 221753Z 04031G44KT 10SM BKN070 OVC090 M03/M17 A3032 RMK AO2 PK WND 05050/1656 SLP280 T10331167 11033 21039 51021=
202202221653 METAR KBLI 221653Z 04026G43KT 10SM OVC060 M04/M17 A3031 RMK AO2 PK WND 04050/1630 SLP274 T10391167=
202202221553 METAR KBLI 221553Z 04031G48KT 10SM BKN065 M04/M17 A3029 RMK AO2 PK WND 06050/1540 SLP267 T10391167=
202202221453 METAR KBLI 221453Z 04027G46KT 10SM OVC055 M04/M16 A3026 RMK AO2 PK WND 07052/1415 SLP257 T10391161 51023=
202202221353 METAR KBLI 221353Z AUTO 05024G47KT 10SM OVC080 M04/M16 A3025 RMK AO2 PK WND 05049/1311 SLP253 T10391161=
202202221253 METAR KBLI 221253Z AUTO 04024G44KT 10SM BKN040 OVC060 M04/M16 A3022 RMK AO2 PK WND 04048/1159 SLP245 T10391156=
202202221153 METAR KBLI 221153Z AUTO 04026G52KT 10SM OVC060 M03/M16 A3019 RMK AO2 PK WND 05058/1120 SLP234 70007 T10331161 11028 21033 53015=
202202221053 METAR KBLI 221053Z AUTO 04027G44KT 10SM OVC060 M03/M16 A3018 RMK AO2 PK WND 06050/1012 SLP229 T10331156=
202202220953 METAR KBLI 220953Z AUTO 04026G50KT 360V060 10SM OVC060 M03/M16 A3016 RMK AO2 PK WND 03051/0934 SLP223 T10331156=
202202220853 METAR KBLI 220853Z AUTO 04030G56KT 10SM BKN065 M03/M15 A3015 RMK AO2 PK WND 03056/0845 SLP219 T10331150 53022=
202202220753 METAR KBLI 220753Z AUTO 04024G45KT 10SM BKN060 M03/M15 A3012 RMK AO2 PK WND 04051/0721 SLP210 T10331150 400331033=
202202220653 METAR KBLI 220653Z AUTO 03027G46KT 10SM SCT046 M03/M14 A3010 RMK AO2 PK WND 05052/0608 SLP204 T10281139=
202202220553 METAR KBLI 220553Z 04031G47KT 10SM CLR M03/M14 A3008 RMK AO2 PK WND 04053/0523 SLP197 T10281139 10017 21028 53024=
202202220453 METAR KBLI 220453Z 04031G52KT 10SM CLR M02/M13 A3005 RMK AO2 PK WND 04054/0438 SLP185 T10221133=
202202220353 METAR KBLI 220353Z 04028G48KT 10SM CLR M02/M13 A3004 RMK AO2 PK WND 04054/0257 SLP182 T10171128=
202202220253 METAR KBLI 220253Z 04028G51KT 10SM CLR M01/M12 A3001 RMK AO2 PK WND 07051/0248 SLP173 T10111122 53013=
202202220153 METAR KBLI 220153Z 04029G45KT 10SM FEW080 M01/M11 A2999 RMK AO2 PK WND 07048/0108 SLP165 T10061111=
202202220053 METAR KBLI 220053Z 03023G40KT 10SM FEW080 01/M10 A2998 RMK AO2 PK WND 04047/0009 SLP162 T00061100=
202202212353 METAR KBLI 212353Z 03024G44KT 10SM CLR 02/M09 A2997 RMK AO2 PK WND 05051/2327 SLP158 T00171094 10033 20017 51015=
202202212253 METAR KBLI 212253Z 04026G46KT 10SM FEW090 02/M09 A2995 RMK AO2 PK WND 05049/2221 SLP153 T00221094=
202202212153 METAR KBLI 212153Z 03024G42KT 10SM FEW090 02/M09 A2995 RMK AO2 PK WND 06050/2057 SLP151 T00221089=
202202212053 METAR KBLI 212053Z 02023G45KT 10SM FEW100 03/M08 A2993 RMK AO2 PK WND 01050/1958 SLP144 T00281083 50004=
202202211953 METAR KBLI 211953Z 02029G44KT 10SM SCT110 03/M08 A2993 RMK AO2 PK WND 02044/1953 SLP145 T00281083=
202202211853 METAR KBLI 211853Z 02029G47KT 10SM SCT120 03/M07 A2992 RMK AO2 PK WND 05047/1844 SLP142 T00281072=
202202211753 METAR KBLI 211753Z 01023G37KT 10SM BKN090 03/M07 A2992 RMK AO2 PK WND 05043/1709 SLP140 60007 T00281072 10033 20017 51017=
202202211653 METAR KBLI 211653Z 04020G41KT 10SM OVC100 02/M08 A2990 RMK AO2 PK WND 04043/1641 SLP135 T00221078=
202202211553 METAR KBLI 211553Z 03019G35KT 10SM BKN095 02/M08 A2988 RMK AO2 PK WND 06045/1531 SLP129 T00221078=
202202211453 METAR KBLI 211453Z 03013G29KT 10SM OVC100 02/M03 A2987 RMK AO2 PK WND 05029/1450 SLP123 60007 T00221028 58000=
202202211353 METAR KBLI 211353Z AUTO 08004KT 10SM FEW031 BKN050 OVC060 03/02 A2987 RMK AO2 RAE08 SLP123 P0000 T00280017=
202202211325 SPECI KBLI 211325Z AUTO 09004KT 10SM FEW009 OVC031 02/02 A2987 RMK AO2 RAE08 P0000 T00220022=
202202211316 SPECI KBLI 211316Z AUTO 04007KT 10SM FEW007 BKN029 OVC033 02/02 A2987 RMK AO2 RAE08 P0000 T00220022=
202202211253 METAR KBLI 211253Z AUTO 00000KT 8SM -RA SCT010 OVC017 02/02 A2987 RMK AO2 SLP125 P0007 T00170017=
202202211215 SPECI KBLI 211215Z AUTO 05004KT 5SM RA BR BKN012 OVC021 02/02 A2987 RMK AO2 P0003 T00170017=
202202211153 METAR KBLI 211153Z AUTO 05004KT 8SM -RA BKN025 OVC033 02/02 A2987 RMK AO2 SLP123 P0007 60012 70012 T00220022 10044 20022 56002=
202202211053 METAR KBLI 211053Z AUTO 11006KT 5SM -RA BR OVC020 03/02 A2987 RMK AO2 RAB0957 SLP124 P0003 T00280022=
202202211038 SPECI KBLI 211038Z AUTO 16003KT 7SM RA BKN018 BKN023 OVC029 03/02 A2987 RMK AO2 RAB0957 P0001 T00280022=
202202210953 METAR KBLI 210953Z AUTO 13004KT 10SM BKN045 OVC050 03/02 A2987 RMK AO2 SLP124 T00280017=
202202210853 METAR KBLI 210853Z AUTO 20003KT 10SM FEW080 03/02 A2988 RMK AO2 SLP126 60002 T00280022 58004=
202202210753 METAR KBLI 210753Z AUTO 18003KT 10SM BKN046 BKN080 03/03 A2988 RMK AO2 RAE12 SLP127 P0001 T00330028 400780028=
202202210711 SPECI KBLI 210711Z AUTO 21005KT 10SM -RA FEW017 BKN060 OVC080 04/03 A2989 RMK AO2 P0001 T00440028=
202202210702 SPECI KBLI 210702Z AUTO 20005KT 4SM -RA BR FEW017 BKN028 OVC070 04/03 A2989 RMK AO2 P0001 T00440028=
202202210653 METAR KBLI 210653Z AUTO 21006KT 6SM RA BR SCT021 BKN038 OVC060 04/02 A2989 RMK AO2 RAB50 SLP131 P0001 T00390022=
202202210553 METAR KBLI 210553Z 16004KT 10SM BKN047 BKN080 04/01 A2989 RMK AO2 SLP130 T00390011 10072 20028 55003=
202202210453 METAR KBLI 210453Z 00000KT 10SM FEW050 04/02 A2988 RMK AO2 SLP127 T00390017=
202202210353 METAR KBLI 210353Z 19003KT 10SM CLR 03/02 A2989 RMK AO2 SLP130 T00330017=
202202210253 METAR KBLI 210253Z 00000KT 10SM SCT036 04/02 A2989 RMK AO2 SLP132 T00390022 56003=
202202210153 METAR KBLI 210153Z 00000KT 10SM BKN060 04/02 A2989 RMK AO2 SLP132 T00390022=
202202210053 METAR KBLI 210053Z 23003KT 10SM BKN060 06/01 A2990 RMK AO2 SLP134 T00610011=
202202202353 METAR KBLI 202353Z 29006KT 10SM SCT028 BKN055 07/02 A2990 RMK AO2 SLP134 60000 T00720017 10078 20056 56005=
202202202253 METAR KBLI 202253Z 30007G15KT 10SM SCT025 BKN040 07/02 A2990 RMK AO2 SLP134 T00720017=
202202202153 METAR KBLI 202153Z 27008G14KT 10SM SCT021 BKN027 BKN034 07/02 A2991 RMK AO2 SLP136 T00720017=
202202202053 METAR KBLI 202053Z 30010G18KT 10SM SCT021 BKN026 OVC039 07/04 A2992 RMK AO2 RAE44 SLP139 P0000 60000 T00670039 50001=
202202201953 METAR KBLI 201953Z 27007G17KT 230V300 8SM -RA SCT022 BKN028 OVC045 07/03 A2994 RMK AO2 RAB22 SLP145 P0000 T00670033=
202202201853 METAR KBLI 201853Z 29008KT 10SM SCT018 BKN027 BKN035 07/02 A2993 RMK AO2 SLP142 T00670022=
202202201753 METAR KBLI 201753Z 29008G15KT 10SM FEW017 BKN029 07/03 A2992 RMK AO2 SLP139 T00670028 10067 20044 51010=
202202201653 METAR KBLI 201653Z 31005KT 10SM SCT021 BKN026 BKN041 07/04 A2991 RMK AO2 SLP138 T00670039=
202202201553 METAR KBLI 201553Z 30004KT 10SM FEW015 BKN026 OVC060 06/04 A2990 RMK AO2 SLP134 T00560039=
202202201453 METAR KBLI 201453Z 00000KT 10SM FEW016 BKN026 OVC033 05/04 A2989 RMK AO2 SLP128 T00500044 53001=
202202201436 SPECI KBLI 201436Z AUTO 00000KT 10SM SCT016 BKN028 OVC039 04/04 A2989 RMK AO2 T00440044=
202202201353 METAR KBLI 201353Z AUTO 00000KT 10SM OVC036 04/04 A2988 RMK AO2 SLP128 T00440044=
202202201253 METAR KBLI 201253Z AUTO 00000KT 10SM FEW021 OVC039 04/04 A2988 RMK AO2 SLP126 T00440044=
202202201153 METAR KBLI 201153Z AUTO 00000KT 9SM SCT041 BKN050 OVC075 04/04 A2988 RMK AO2 SLP128 60001 70020 T00440044 10067 20044 58007=
202202201118 SPECI KBLI 201118Z AUTO 00000KT 10SM SCT026 BKN037 OVC075 05/05 A2989 RMK AO2 T00500050=
202202201053 METAR KBLI 201053Z AUTO 00000KT 10SM BKN026 BKN031 OVC070 04/04 A2989 RMK AO2 RAB09E45 SLP131 P0001 T00440044=
202202201046 SPECI KBLI 201046Z AUTO 00000KT 10SM BKN028 OVC070 05/05 A2989 RMK AO2 RAB09E45 P0001 T00500050=
202202200953 METAR KBLI 200953Z AUTO 00000KT 10SM FEW023 OVC035 05/05 A2990 RMK AO2 RAB30E37 SLP134 P0000 T00500050=
202202200921 SPECI KBLI 200921Z AUTO 00000KT 10SM FEW015 SCT023 OVC041 05/04 A2990 RMK AO2 T00500044=
202202200913 SPECI KBLI 200913Z AUTO 00000KT 10SM BKN017 BKN025 OVC041 06/04 A2990 RMK AO2 T00560044=
202202200904 SPECI KBLI 200904Z AUTO 18003KT 10SM SCT017 SCT025 OVC040 06/04 A2991 RMK AO2 T00560044=
202202200853 METAR KBLI 200853Z AUTO 18003KT 10SM SCT017 BKN027 OVC038 06/04 A2991 RMK AO2 SLP136 T00560044 56004=
202202200753 METAR KBLI 200753Z AUTO 18003KT 10SM BKN043 06/04 A2991 RMK AO2 SLP136 T00560044 400830050=
202202200717 SPECI KBLI 200717Z AUTO 00000KT 10SM FEW016 SCT023 BKN046 06/04 A2991 RMK AO2 T00560044=
202202200653 METAR KBLI 200653Z AUTO 20004KT 10SM OVC018 07/04 A2991 RMK AO2 SLP137 T00670039=
202202200553 METAR KBLI 200553Z 00000KT 10SM BKN025 OVC050 07/03 A2992 RMK AO2 SLP139 60000 T00670033 10083 20067 51005=
202202200453 METAR KBLI 200453Z VRB03KT 10SM BKN024 OVC060 07/03 A2992 RMK AO2 SLP138 T00720028=
202202200353 METAR KBLI 200353Z 20006KT 10SM BKN024 OVC044 08/03 A2991 RMK AO2 SLP136 T00780033=
202202200253 METAR KBLI 200253Z VRB03KT 10SM BKN024 OVC046 08/04 A2990 RMK AO2 SLP134 60000 T00780044 55010=
202202200153 METAR KBLI 200153Z 19013G26KT 10SM SCT013 BKN026 BKN050 08/06 A2989 RMK AO2 PK WND 23027/0119 RAE31 SLP128 P0000 T00780061=
202202200053 METAR KBLI 200053Z 18014G25KT 10SM -RA SCT010 BKN017 OVC025 07/06 A2991 RMK AO2 RAB47 SLP137 P0000 T00720061=
202202192353 METAR KBLI 192353Z 18013G28KT 10SM BKN018 OVC022 08/06 A2994 RMK AO2 PK WND 17028/2344 SLP145 60007 T00780056 10078 20056 56029=
202202192253 METAR KBLI 192253Z 18015G23KT 10SM SCT010 BKN020 OVC040 07/05 A2996 RMK AO2 SLP153 T00720050=
202202192153 METAR KBLI 192153Z 18013G24KT 10SM SCT010 BKN017 OVC030 06/05 A2998 RMK AO2 RAB14E27 SLP161 P0000 T00610050=
202202192053 METAR KBLI 192053Z 18011G22KT 8SM SCT010 BKN020 OVC025 06/04 A3002 RMK AO2 PK WND 16026/2032 RAE32 SLP175 P0002 60007 T00560044 56014=
202202191953 METAR KBLI 191953Z 17014G26KT 4SM -RA BR SCT009 BKN015 OVC025 06/04 A3004 RMK AO2 PK WND 18030/1936 RAB1857 SLP182 P0005 T00560044=
202202191853 METAR KBLI 191853Z 19011G23KT 10SM SCT009 BKN026 OVC040 06/05 A3004 RMK AO2 RAE04 SLP181 P0000 T00610050=
202202191823 SPECI KBLI 191823Z 17008KT 10SM BKN027 OVC048 06/05 A3005 RMK AO2 RAE04 P0000 T00610050=
202202191753 METAR KBLI 191753Z 18011KT 7SM -RA SCT027 BKN036 OVC055 06/05 A3006 RMK AO2 SLP189 CIGS LWR SE-NE. P0004 60012 T00610050 10067 20056 58012=
202202191723 SPECI KBLI 191723Z 17012KT 10SM -RA SCT022 SCT034 OVC045 06/06 A3007 RMK AO2 CIGS LWR SE-NE. P0002 T00560056=
202202191653 METAR KBLI 191653Z 18011G19KT 5SM -RA BR FEW012 BKN022 OVC029 06/05 A3008 RMK AO2 PRESFR SLP194 P0004 T00610050=
202202191553 METAR KBLI 191553Z 19009G18KT 4SM -RA BR FEW021 OVC028 06/04 A3011 RMK AO2 RAB03 SLP205 P0004 T00560044=
202202191453 METAR KBLI 191453Z 18009G17KT 10SM SCT014 OVC019 07/05 A3010 RMK AO2 SLP200 T00670050 58019=
202202191445 SPECI KBLI 191445Z AUTO 18008G18KT 10SM OVC016 07/05 A3010 RMK AO2 T00670050=
202202191353 METAR KBLI 191353Z AUTO 19008G16KT 10SM OVC010 07/06 A3011 RMK AO2 CIG 009V014 SLP204 T00670056=
202202191313 SPECI KBLI 191313Z AUTO 18006KT 10SM BKN011 OVC017 07/06 A3014 RMK AO2 T00670056=
202202191253 METAR KBLI 191253Z AUTO 19004KT 10SM SCT011 OVC017 07/06 A3015 RMK AO2 SLP217 T00670056=
202202191250 SPECI KBLI 191250Z AUTO 20004KT 10SM FEW007 SCT011 OVC017 07/06 A3015 RMK AO2=
202202191235 SPECI KBLI 191235Z AUTO 00000KT 10SM OVC010 07/06 A3017 RMK AO2 T00670056=
202202191224 SPECI KBLI 191224Z AUTO VRB04KT 10SM BKN008 OVC014 07/06 A3017 RMK AO2 CIG 006V010 T00670061=
202202191153 METAR KBLI 191153Z AUTO 17007KT 10SM SCT006 BKN014 OVC022 07/06 A3016 RMK AO2 SLP223 T00670061 10067 20039 56024=
202202191137 SPECI KBLI 191137Z AUTO 18006KT 10SM SCT006 BKN013 OVC022 07/06 A3017 RMK AO2 T00670061=
202202191125 SPECI KBLI 191125Z AUTO 19004KT 10SM BKN007 OVC023 07/06 A3017 RMK AO2 T00670061=
202202191116 SPECI KBLI 191116Z AUTO 19005KT 10SM SCT008 BKN022 OVC037 07/06 A3018 RMK AO2 T00670056=
202202191053 METAR KBLI 191053Z AUTO 20006KT 10SM OVC036 07/06 A3018 RMK AO2 SLP228 T00670056=
202202191012 SPECI KBLI 191012Z AUTO 20005KT 10SM FEW005 OVC037 06/06 A3019 RMK AO2 T00610056=
202202190953 METAR KBLI 190953Z AUTO 18004KT 10SM OVC037 06/05 A3020 RMK AO2 SLP236 T00560050=
202202190853 METAR KBLI 190853Z AUTO 11004KT 10SM OVC032 06/05 A3023 RMK AO2 PRESFR SLP246 T00560050 58022=
202202190822 SPECI KBLI 190822Z AUTO 00000KT 10SM FEW025 OVC036 06/04 A3026 RMK AO2 T00560044=
202202190753 METAR KBLI 190753Z AUTO 00000KT 10SM OVC027 06/04 A3027 RMK AO2 SLP258 T00560044 401060028=
202202190700 SPECI KBLI 190700Z AUTO 00000KT 10SM OVC027 04/04 A3028 RMK AO2 T00440044=
202202190653 METAR KBLI 190653Z AUTO 00000KT 10SM SCT027 05/04 A3028 RMK AO2 SLP262 T00500044=
202202190553 METAR KBLI 190553Z 16003KT 10SM SCT027 04/03 A3030 RMK AO2 SLP269 T00390033 10094 20028 58012=
202202190453 METAR KBLI 190453Z 00000KT 10SM FEW050 03/03 A3031 RMK AO2 SLP274 T00330028=
202202190353 METAR KBLI 190353Z 00000KT 10SM SCT030 04/03 A3033 RMK AO2 SLP279 T00390033=
202202190253 METAR KBLI 190253Z 00000KT 10SM SCT030 BKN100 07/05 A3034 RMK AO2 SLP281 T00720050 58018=
202202190153 METAR KBLI 190153Z 00000KT 10SM OVC030 08/05 A3036 RMK AO2 SLP288 T00830050=
202202190053 METAR KBLI 190053Z 00000KT 10SM BKN032 BKN100 09/06 A3038 RMK AO2 SLP295 T00890056=
202202182353 METAR KBLI 182353Z 18003KT 10SM OVC034 09/05 A3039 RMK AO2 SLP299 T00940050 10106 20083 56018=
202202182253 METAR KBLI 182253Z 00000KT 10SM BKN034 10/04 A3041 RMK AO2 SLP305 T01000039=
202202182153 METAR KBLI 182153Z VRB03KT 10SM FEW015 SCT024 SCT034 10/04 A3042 RMK AO2 SLP310 T01000039=
202202182053 METAR KBLI 182053Z 00000KT 10SM BKN034 09/05 A3044 RMK AO2 SLP317 T00890050 58009=
202202181953 METAR KBLI 181953Z 19004KT 10SM BKN037 08/06 A3046 RMK AO2 SLP324 T00830056=
202202181853 METAR KBLI 181853Z 18006KT 10SM OVC037 08/06 A3047 RMK AO2 SLP325 T00830056=
202202181753 METAR KBLI 181753Z 17006KT 10SM FEW012 SCT034 08/06 A3047 RMK AO2 SLP326 T00830056 10083 20072 50003=
202202181653 METAR KBLI 181653Z 00000KT 10SM FEW020 SCT034 08/06 A3048 RMK AO2 SLP328 T00780056=
202202181553 METAR KBLI 181553Z 18003KT 10SM FEW020 BKN036 07/06 A3047 RMK AO2 SLP326 T00720061=
202202181453 METAR KBLI 181453Z 19003KT 10SM FEW015 SCT020 OVC034 07/06 A3046 RMK AO2 SLP323 T00720061 53001=
202202181353 METAR KBLI 181353Z AUTO 18005KT 10SM BKN021 OVC028 07/06 A3045 RMK AO2 SLP318 T00720061=
202202181253 METAR KBLI 181253Z AUTO 18006KT 10SM BKN017 OVC023 07/06 A3045 RMK AO2 SLP320 T00720061=
202202181237 SPECI KBLI 181237Z AUTO 19005KT 10SM BKN019 07/06 A3045 RMK AO2 T00720061=
202202181153 METAR KBLI 181153Z AUTO 18008KT 10SM SCT015 OVC042 08/06 A3046 RMK AO2 SLP321 T00780056 10078 20078 50000=
202202181150 SPECI KBLI 181150Z AUTO 18007KT 10SM SCT015 OVC042 08/06 A3046 RMK AO2=
202202181053 METAR KBLI 181053Z AUTO 18006KT 10SM OVC016 08/06 A3046 RMK AO2 SLP322 T00780061=
202202181049 SPECI KBLI 181049Z AUTO 18008KT 10SM OVC014 08/06 A3046 RMK AO2=
202202180953 METAR KBLI 180953Z AUTO 18007KT 10SM FEW014 BKN026 OVC032 08/07 A3046 RMK AO2 SLP322 T00780067=
202202180903 SPECI KBLI 180903Z AUTO 18009KT 10SM SCT013 BKN039 OVC047 08/07 A3046 RMK AO2 T00780067=
202202180853 METAR KBLI 180853Z AUTO 17007KT 10SM BKN013 OVC037 08/07 A3047 RMK AO2 SLP325 T00780067 51008=
202202180753 METAR KBLI 180753Z AUTO 18007KT 10SM BKN011 OVC017 08/07 A3045 RMK AO2 SLP321 T00780067 400780050=
202202180653 METAR KBLI 180653Z AUTO 17007KT 10SM OVC010 08/07 A3046 RMK AO2 SLP323 T00780072=
202202180641 SPECI KBLI 180641Z AUTO 17006KT 10SM OVC013 08/06 A3046 RMK AO2 T00780061=
202202180553 METAR KBLI 180553Z 17008KT 10SM OVC015 07/06 A3044 RMK AO2 SLP316 T00720061 10078 20067 51008=
202202180453 METAR KBLI 180453Z 17009KT 6SM BR FEW021 BKN027 OVC035 07/07 A3043 RMK AO2 SLP313 T00720067=
202202180411 SPECI KBLI 180411Z 18008KT 2SM BR FEW019 OVC029 07/07 A3044 RMK AO2 T00670067=
202202180353 METAR KBLI 180353Z 19008KT 5SM BR BKN019 OVC026 07/07 A3043 RMK AO2 SLP314 T00720067=
202202180253 METAR KBLI 180253Z 18008KT 10SM OVC014 07/06 A3042 RMK AO2 SLP308 T00720061 56003=
202202180153 METAR KBLI 180153Z 19009KT 10SM BKN017 OVC033 07/06 A3042 RMK AO2 SLP309 T00720061=
202202180053 METAR KBLI 180053Z 18007KT 10SM OVC017 08/06 A3042 RMK AO2 SLP308 T00780061=
202202172353 METAR KBLI 172353Z 18009KT 10SM OVC017 08/06 A3043 RMK AO2 SLP311 T00780056 10078 20072 55004=
202202172253 METAR KBLI 172253Z 19006KT 10SM OVC016 08/06 A3042 RMK AO2 SLP311 T00780056=
202202172153 METAR KBLI 172153Z 18009KT 10SM OVC018 08/06 A3043 RMK AO2 SLP311 T00780056=
202202172053 METAR KBLI 172053Z 18010G18KT 10SM SCT014 OVC023 08/06 A3044 RMK AO2 SLP315 T00780056 50000=
202202171953 METAR KBLI 171953Z 18011G18KT 10SM BKN020 OVC024 07/06 A3044 RMK AO2 SLP317 T00720056=
202202171853 METAR KBLI 171853Z 18009G18KT 10SM OVC020 07/05 A3044 RMK AO2 SLP317 T00720050=
202202171753 METAR KBLI 171753Z 18011G18KT 10SM BKN011 OVC041 07/06 A3043 RMK AO2 SLP314 T00720056 10072 20067 51007=
202202171653 METAR KBLI 171653Z 18013G21KT 10SM OVC011 07/05 A3043 RMK AO2 SLP315 T00670050=
202202171553 METAR KBLI 171553Z 18010KT 10SM OVC010 07/06 A3042 RMK AO2 SLP311 T00670056=
202202171521 SPECI KBLI 171521Z 18011G19KT 10SM BKN010 OVC015 07/05 A3043 RMK AO2 T00670050=
202202171453 METAR KBLI 171453Z 19011G18KT 10SM SCT017 BKN070 OVC090 07/05 A3041 RMK AO2 SLP308 T00670050 58002=
202202171408 SPECI KBLI 171408Z AUTO 18008G16KT 10SM FEW026 BKN044 OVC085 07/05 A3041 RMK AO2 T00670050=
202202171353 METAR KBLI 171353Z AUTO 19006KT 10SM SCT018 BKN026 OVC044 07/05 A3042 RMK AO2 SLP311 T00670050=
202202171253 METAR KBLI 171253Z AUTO 22005KT 10SM BKN027 BKN034 OVC045 07/05 A3042 RMK AO2 SLP311 T00720050=
202202171153 METAR KBLI 171153Z AUTO 19006KT 10SM OVC045 07/04 A3042 RMK AO2 SLP309 T00720044 10078 20044 58004=
202202171053 METAR KBLI 171053Z AUTO 18004KT 10SM OVC040 07/06 A3044 RMK AO2 SLP315 T00720056=
202202170953 METAR KBLI 170953Z AUTO 18003KT 10SM OVC041 07/05 A3044 RMK AO2 SLP317 T00720050=
202202170853 METAR KBLI 170853Z AUTO 00000KT 10SM OVC045 06/05 A3043 RMK AO2 SLP313 T00560050 58004=
202202170753 METAR KBLI 170753Z AUTO 00000KT 10SM OVC033 06/04 A3044 RMK AO2 SLP317 T00560044 400940022=
202202170653 METAR KBLI 170653Z AUTO 00000KT 10SM OVC043 05/04 A3045 RMK AO2 SLP318 T00500044=
202202170553 METAR KBLI 170553Z 00000KT 10SM OVC050 04/04 A3044 RMK AO2 SLP317 T00440044 10094 20022 53008=
202202170453 METAR KBLI 170453Z 00000KT 10SM OVC050 04/04 A3044 RMK AO2 SLP316 T00390039=
202202170353 METAR KBLI 170353Z 00000KT 10SM FEW050 02/02 A3042 RMK AO2 SLP311 T00220022=
202202170253 METAR KBLI 170253Z 00000KT 10SM CLR 04/03 A3042 RMK AO2 SLP310 T00390033 53014=
202202170153 METAR KBLI 170153Z 00000KT 10SM SCT033 06/03 A3040 RMK AO2 SLP304 T00610033=
202202170053 METAR KBLI 170053Z 19003KT 10SM SCT035 08/03 A3038 RMK AO2 SLP296 T00830033=
202202162353 METAR KBLI 162353Z 00000KT 10SM OVC035 08/04 A3038 RMK AO2 SLP296 T00830039 10089 20072 53004=
202202162253 METAR KBLI 162253Z 19004KT 10SM FEW021 OVC033 09/03 A3037 RMK AO2 SLP294 T00890033=
202202162153 METAR KBLI 162153Z 00000KT 10SM OVC033 08/04 A3036 RMK AO2 SLP289 T00830044=
202202162053 METAR KBLI 162053Z 31004KT 10SM SCT018 OVC033 08/05 A3037 RMK AO2 SLP291 T00830050 51015=
202202161953 METAR KBLI 161953Z 28003KT 10SM FEW012 SCT018 OVC033 08/05 A3036 RMK AO2 SLP289 T00830050=
202202161853 METAR KBLI 161853Z 01003KT 10SM SCT032 08/06 A3034 RMK AO2 SLP284 T00780056=
202202161753 METAR KBLI 161753Z 00000KT 10SM SCT030 07/05 A3032 RMK AO2 SLP277 T00720050 10078 20022 51021=
202202161653 METAR KBLI 161653Z 36003KT 10SM FEW010 SCT030 07/05 A3031 RMK AO2 SLP271 T00670050=
202202161553 METAR KBLI 161553Z 00000KT 10SM FEW010 SCT030 OVC055 04/04 A3028 RMK AO2 SLP262 T00390039=
202202161453 METAR KBLI 161453Z 00000KT 10SM BKN027 03/03 A3026 RMK AO2 SLP256 T00280028 53024=
202202161428 SPECI KBLI 161428Z AUTO 00000KT 10SM BKN028 03/03 A3024 RMK AO2 T00280028=
202202161353 METAR KBLI 161353Z AUTO 00000KT 10SM CLR 04/04 A3023 RMK AO2 SLP245 T00440039=
202202161318 SPECI KBLI 161318Z AUTO 00000KT 10SM SCT025 OVC044 06/04 A3022 RMK AO2 T00560039=
202202161253 METAR KBLI 161253Z AUTO 00000KT 10SM OVC023 07/04 A3021 RMK AO2 SLP239 T00670039=
202202161153 METAR KBLI 161153Z AUTO 00000KT 10SM OVC027 07/03 A3019 RMK AO2 SLP231 T00720033 10078 20067 53011=
202202161142 SPECI KBLI 161142Z AUTO 00000KT 10SM BKN029 OVC046 07/03 A3019 RMK AO2 T00720033=
202202161053 METAR KBLI 161053Z AUTO 00000KT 10SM BKN033 OVC047 07/04 A3018 RMK AO2 SLP227 T00720044=
202202160953 METAR KBLI 160953Z AUTO 17004KT 10SM OVC047 07/05 A3016 RMK AO2 SLP222 T00720050=
202202160853 METAR KBLI 160853Z AUTO 21003KT 10SM OVC050 07/06 A3016 RMK AO2 SLP219 T00720056 53009=
202202160753 METAR KBLI 160753Z AUTO 18005KT 10SM OVC050 08/06 A3014 RMK AO2 SLP213 T00780056 400890056=
202202160653 METAR KBLI 160653Z AUTO 18007KT 160V220 10SM OVC055 08/06 A3012 RMK AO2 SLP206 T00780056=
202202160553 METAR KBLI 160553Z 18010G16KT 10SM OVC060 08/06 A3013 RMK AO2 SLP210 T00780056 10083 20078 58009=
202202160453 METAR KBLI 160453Z 19007KT 10SM FEW024 SCT048 OVC060 08/06 A3014 RMK AO2 SLP214 T00780056=
202202160353 METAR KBLI 160353Z 19008G18KT 10SM BKN024 BKN050 OVC060 08/05 A3015 RMK AO2 SLP217 T00780050=
202202160314 SPECI KBLI 160314Z 18010KT 10SM BKN024 BKN050 OVC060 08/05 A3015 RMK AO2 T00830050=
202202160307 SPECI KBLI 160307Z 18009G16KT 10SM SCT024 SCT041 OVC050 08/05 A3015 RMK AO2 T00830050=
202202160253 METAR KBLI 160253Z 18008KT 10SM BKN025 BKN043 OVC050 08/05 A3015 RMK AO2 SLP219 T00830050 58009=
202202160153 METAR KBLI 160153Z 19005KT 10SM BKN028 BKN049 OVC055 08/06 A3017 RMK AO2 SLP223 T00780061=
202202160053 METAR KBLI 160053Z 19005KT 10SM BKN025 BKN045 OVC065 08/06 A3017 RMK AO2 SLP226 T00780056=
202202152353 METAR KBLI 152353Z 19003KT 10SM BKN023 OVC035 08/06 A3018 RMK AO2 SLP229 T00830056 10089 20072 56011=
202202152253 METAR KBLI 152253Z VRB05KT 10SM BKN017 BKN030 BKN045 08/05 A3018 RMK AO2 SLP229 T00830050=
202202152153 METAR KBLI 152153Z 20003KT 10SM BKN010 BKN033 OVC042 08/06 A3019 RMK AO2 SLP231 T00830061=
202202152053 METAR KBLI 152053Z VRB03KT 8SM BKN010 BKN020 OVC045 08/06 A3021 RMK AO2 SLP240 T00830061 50002=
202202151953 METAR KBLI 151953Z 00000KT 4SM BR BKN006 BKN015 OVC020 08/07 A3023 RMK AO2 SLP244 T00780072=
202202151853 METAR KBLI 151853Z 29003KT 3SM BR BKN006 OVC011 07/07 A3023 RMK AO2 SLP245 T00720067=
202202151753 METAR KBLI 151753Z 00000KT 3SM BR BKN009 OVC011 07/07 A3021 RMK AO2 SLP238 T00720072 10072 20056 50012=
202202151653 METAR KBLI 151653Z 00000KT 3SM BR OVC008 07/07 A3022 RMK AO2 CIG 005V011 SLP242 T00670067=
202202151553 METAR KBLI 151553Z 00000KT 4SM BR SCT009 BKN012 OVC045 06/06 A3020 RMK AO2 SLP236 T00610061=
202202151453 METAR KBLI 151453Z 00000KT 6SM BR BKN009 BKN012 OVC039 06/06 A3017 RMK AO2 CIG 006V010 SLP226 T00610061 51014=
202202151353 METAR KBLI 151353Z AUTO 00000KT 7SM BKN007 OVC012 06/06 A3017 RMK AO2 CIG 007V010 SLP224 T00610061=
202202151307 SPECI KBLI 151307Z AUTO 00000KT 9SM OVC008 06/06 A3016 RMK AO2 T00610061=
202202151253 METAR KBLI 151253Z AUTO 00000KT 8SM OVC010 06/06 A3016 RMK AO2 CIG 008V015 SLP220 T00610061=
202202151238 SPECI KBLI 151238Z AUTO 00000KT 8SM OVC013 06/06 A3015 RMK AO2 T00610061=
202202151153 METAR KBLI 151153Z AUTO 04003KT 10SM OVC017 06/06 A3013 RMK AO2 SLP211 7//// T00610061 10072 20056 53012=
202202151053 METAR KBLI 151053Z AUTO 17003KT 10SM FEW022 OVC029 07/06 A3011 RMK AO2 SLP206 T00720061=
202202150953 METAR KBLI 150953Z AUTO 00000KT 10SM OVC027 07/06 A3010 RMK AO2 SLP201 T00670061=
202202150853 METAR KBLI 150853Z AUTO 00000KT 10SM OVC028 07/06 A3009 RMK AO2 SLP199 T00670061 51010=
202202150753 METAR KBLI 150753Z AUTO 17003KT 10SM OVC024 07/06 A3009 RMK AO2 SLP197 T00670061 401000039=
202202150653 METAR KBLI 150653Z AUTO 18003KT 10SM OVC025 07/06 A3007 RMK AO2 SLP192 T00670061=
202202150553 METAR KBLI 150553Z 00000KT 5SM BR OVC026 06/06 A3006 RMK AO2 SLP189 60000 T00560056 10078 20039 53022=
202202150453 METAR KBLI 150453Z 00000KT 10SM BKN026 04/04 A3004 RMK AO2 SLP180 T00440044=
202202150353 METAR KBLI 150353Z 00000KT 10SM OVC024 05/05 A3001 RMK AO2 SLP171 T00500050=
202202150342 SPECI KBLI 150342Z 00000KT 10SM BKN024 OVC110 06/06 A3001 RMK AO2 T00560056=
202202150253 METAR KBLI 150253Z 00000KT 10SM OVC110 05/05 A3000 RMK AO2 SLP167 60000 T00500050 51020=
202202150153 METAR KBLI 150153Z 00000KT 10SM FEW008 SCT020 SCT037 06/06 A2999 RMK AO2 SLP162 T00610061=
202202150053 METAR KBLI 150053Z VRB03KT 10SM FEW010 SCT025 BKN035 08/07 A2997 RMK AO2 RAE2356B12E22 SLP155 P0000 T00780067=
202202142353 METAR KBLI 142353Z 30003KT 10SM -RA FEW009 BKN034 OVC047 08/07 A2994 RMK AO2 SLP147 P0000 6//// T00780072 10094 20072 51019=
202202142351 SPECI KBLI 142351Z 29004KT 10SM -RA FEW009 BKN034 OVC047 08/07 A2994 RMK AO2 P0000=
202202142253 METAR KBLI 142253Z 32006KT 6SM -RA FEW015 SCT022 OVC035 08/07 A2992 RMK AO2 RAB15 SLP138 P0000 T00780072=
202202142153 METAR KBLI 142153Z 20005KT 10SM FEW010 SCT020 BKN040 09/07 A2988 RMK AO2 SLP128 T00890067=
202202142108 SPECI KBLI 142108Z 21004KT 10SM FEW010 SCT020 BKN035 09/07 A2988 RMK AO2 T00890067=
202202142053 METAR KBLI 142053Z VRB06KT 10SM BKN035 08/07 A2988 RMK AO2 SLP126 6//// T00830067 51009=
202202141953 METAR KBLI 141953Z 17004KT 10SM FEW010 SCT020 BKN030 08/07 A2988 RMK AO2 SLP125 T00830067=
202202141853 METAR KBLI 141853Z 13005KT 10SM FEW010 SCT025 BKN035 08/06 A2987 RMK AO2 SLP123 T00830061 PNO $=
202202141753 METAR KBLI 141753Z 16004KT 10SM SCT014 SCT042 OVC075 07/07 A2985 RMK AO2 RAE43 SLP116 6//// T00720067 10089 20067 53018 PNO $=
202202141653 METAR KBLI 141653Z 17007KT 5SM -RA BR SCT025 OVC032 07/07 A2983 RMK AO2 SLP109 T00720067 PNO $=
202202141553 METAR KBLI 141553Z 19009G17KT 3SM RA BR FEW017 SCT022 OVC030 07/06 A2981 RMK AO2 SLP103 T00720061 PNO $=
202202141453 METAR KBLI 141453Z AUTO 18007KT 10SM -RA BKN023 BKN029 OVC039 08/06 A2980 RMK AO2 SLP099 P0000 60000 T00830061 55010=
202202141450 SPECI KBLI 141450Z AUTO 18008KT 10SM -RA BKN025 BKN029 OVC037 08/06 A2980 RMK AO2 P0000=
202202141353 METAR KBLI 141353Z AUTO 17008KT 10SM -RA SCT035 BKN044 OVC050 08/06 A2981 RMK AO2 SLP104 P0000 T00780061=
202202141303 SPECI KBLI 141303Z AUTO 17011G20KT 10SM -RA SCT029 OVC037 09/05 A2983 RMK AO2 P0000 T00890050=
202202141253 METAR KBLI 141253Z AUTO 18009G21KT 10SM -RA BKN029 OVC037 09/05 A2983 RMK AO2 RAB44 SLP109 P0000 T00890050=
202202141235 SPECI KBLI 141235Z AUTO 19008KT 10SM BKN029 BKN035 OVC065 09/05 A2984 RMK AO2 T00890050=
202202141153 METAR KBLI 141153Z AUTO 18009KT 10SM OVC100 09/05 A2984 RMK AO2 SLP111 T00890050 10100 20039 55017=
202202141053 METAR KBLI 141053Z AUTO 00000KT 10SM FEW120 07/03 A2984 RMK AO2 SLP111 T00670033=
202202140953 METAR KBLI 140953Z AUTO 18005KT 10SM CLR 10/04 A2984 RMK AO2 SLP110 T01000044=
202202140853 METAR KBLI 140853Z AUTO 25004KT 10SM CLR 08/03 A2989 RMK AO2 SLP129 T00830033 56026=
202202140753 METAR KBLI 140753Z AUTO VRB03KT 10SM CLR 05/03 A2990 RMK AO2 SLP133 T00500028 401331022=
202202140653 METAR KBLI 140653Z AUTO 00000KT 10SM CLR 04/03 A2992 RMK AO2 SLP142 T00390028=
202202140553 METAR KBLI 140553Z 00000KT 10SM CLR 06/02 A2997 RMK AO2 SLP157 T00560022 10111 20044 56021=
202202140453 METAR KBLI 140453Z 12003KT 10SM CLR 06/02 A2998 RMK AO2 SLP163 T00560022=
202202140353 METAR KBLI 140353Z 00000KT 10SM CLR 05/02 A3000 RMK AO2 SLP168 T00500022=
202202140253 METAR KBLI 140253Z 00000KT 10SM CLR 07/02 A3003 RMK AO2 SLP177 T00670022 56016=
202202140153 METAR KBLI 140153Z 00000KT 10SM FEW090 BKN120 07/03 A3005 RMK AO2 SLP184 T00720028=
202202140053 METAR KBLI 140053Z 00000KT 10SM CLR 09/04 A3006 RMK AO2 SLP187 T00890039=
202202132353 METAR KBLI 132353Z 00000KT 10SM FEW090 11/03 A3008 RMK AO2 SLP193 T01110033 10133 20056 56028=
202202132253 METAR KBLI 132253Z 00000KT 10SM FEW090 13/02 A3010 RMK AO2 SLP199 T01280017=
202202132153 METAR KBLI 132153Z 00000KT 10SM CLR 13/02 A3013 RMK AO2 SLP212 T01280017=
202202132053 METAR KBLI 132053Z 00000KT 10SM CLR 11/04 A3016 RMK AO2 SLP222 T01060044 58016=
202202131953 METAR KBLI 131953Z 00000KT 10SM CLR 09/04 A3018 RMK AO2 SLP230 T00940039=
202202131853 METAR KBLI 131853Z 14003KT 10SM CLR 07/04 A3021 RMK AO2 SLP239 T00720044=
202202131753 METAR KBLI 131753Z 00000KT 10SM CLR 05/04 A3021 RMK AO2 SLP238 I6000 T00500039 10050 21022 50003=
202202131653 METAR KBLI 131653Z 00000KT 10SM CLR 01/01 A3022 RMK AO2 SLP243 I1000 T00060006=
202202131553 METAR KBLI 131553Z 00000KT 10SM CLR M02/M02 A3021 RMK AO2 SLP239 I1000 T10171017=
202202131453 METAR KBLI 131453Z 30003KT 7SM CLR M01/M01 A3020 RMK AO2 SLP236 I1000 I3000 T10111011 58007=
202202131353 METAR KBLI 131353Z AUTO 00000KT 7SM CLR M02/M02 A3022 RMK AO2 SLP242 I1000 T10221022=
202202131334 SPECI KBLI 131334Z AUTO 00000KT 3SM R16/2600VP6000FT BR FEW001 M02/M02 A3022 RMK AO2 T10221022=
202202131331 SPECI KBLI 131331Z AUTO 03003KT 1 1/4SM R16/2600VP6000FT BR FEW001 M02/M02 A3022 RMK AO2 T10221022=
202202131326 SPECI KBLI 131326Z AUTO 35003KT 3/4SM R16/1600V5000FT BR VV001 M02/M02 A3022 RMK AO2 T10221022=
202202131308 SPECI KBLI 131308Z AUTO 00000KT 1/2SM R16/2000VP6000FT FZFG VV001 M02/M02 A3022 RMK AO2 T10171017=
202202131257 SPECI KBLI 131257Z AUTO 00000KT 1 1/4SM R16/2600VP6000FT BR FEW002 M02/M02 A3022 RMK AO2 T10171017=
202202131253 METAR KBLI 131253Z AUTO 00000KT 3/4SM R16/3000VP6000FT BR VV002 M01/M01 A3022 RMK AO2 SLP243 I1000 T10111011=
202202131250 SPECI KBLI 131250Z AUTO 00000KT 3/4SM R16/P6000FT BR VV001 M01/M01 A3022 RMK AO2 I1000=
202202131244 SPECI KBLI 131244Z AUTO 00000KT 1 3/4SM BR BKN002 M01/M01 A3022 RMK AO2 I1000 T10111011=
202202131235 SPECI KBLI 131235Z AUTO 00000KT 6SM BR BKN002 M02/M02 A3022 RMK AO2 I1000 T10171017=
202202131227 SPECI KBLI 131227Z AUTO 00000KT 2SM BR OVC002 M02/M02 A3022 RMK AO2 I1000 T10171017=
202202131222 SPECI KBLI 131222Z AUTO 02003KT 3/4SM R16/2800VP6000FT BR VV002 M02/M02 A3022 RMK AO2 I1000 T10171017=
202202131214 SPECI KBLI 131214Z AUTO 01003KT 1/4SM R16/2400V4500FT FZFG VV001 M01/M01 A3022 RMK AO2 T10111011=
202202131153 METAR KBLI 131153Z AUTO 00000KT 1/2SM R16/4000VP6000FT FZFG VV001 M02/M02 A3022 RMK AO2 SLP242 I1000 I6001 T10171017 10011 21022 56007=
202202131131 SPECI KBLI 131131Z AUTO 00000KT 1/4SM R16/2000V5000FT FZFG VV001 M01/M01 A3022 RMK AO2 I1000 T10061006=
202202131123 SPECI KBLI 131123Z AUTO 00000KT 1/2SM R16/2000VP6000FT FZFG VV001 M01/M01 A3022 RMK AO2 T10111011=
202202131115 SPECI KBLI 131115Z AUTO 00000KT 2SM R16/3500VP6000FT BR OVC001 M01/M01 A3022 RMK AO2 T10111011=
202202131113 SPECI KBLI 131113Z AUTO 00000KT 3/4SM R16/P6000FT BR VV001 M02/M02 A3022 RMK AO2 T10171017=
202202131058 SPECI KBLI 131058Z AUTO 00000KT 1/4SM R16/3500VP6000FT FZFG VV001 M01/M01 A3022 RMK AO2 T10111011=
202202131053 METAR KBLI 131053Z AUTO 00000KT 3/4SM R16/4000VP6000FT BR VV001 M01/M01 A3022 RMK AO2 SLP244 I1000 T10061006=
202202131039 SPECI KBLI 131039Z AUTO 04003KT 1SM R16/1800VP6000FT BR VV001 M02/M02 A3022 RMK AO2 I1000 T10171017=
202202131036 SPECI KBLI 131036Z AUTO 1 1/4SM R16/1800VP6000FT BR SCT002 M02/M02 A3022 RMK AO2 I1000 T10221022=
202202131027 SPECI KBLI 131027Z AUTO 32003KT 2 1/2SM R16/2400VP6000FT BR CLR M01/M01 A3022 RMK AO2 I1000 T10061006=
202202131006 SPECI KBLI 131006Z AUTO 00000KT 1 1/2SM R16/3500VP6000FT BR CLR M01/M01 A3022 RMK AO2 T10061006=
202202130953 METAR KBLI 130953Z AUTO 00000KT 9SM CLR 00/M01 A3022 RMK AO2 SLP244 I1000 T00001006=
202202130937 SPECI KBLI 130937Z AUTO 00000KT 4SM BR CLR M01/M01 A3023 RMK AO2 T10061006=
202202130926 SPECI KBLI 130926Z AUTO 14003KT 1 1/2SM R16/3500VP6000FT BR CLR M01/M01 A3023 RMK AO2 T10061011=
202202130853 METAR KBLI 130853Z AUTO 00000KT 7SM FEW002 00/00 A3024 RMK AO2 SLP249 I3001 T00000000 56000=
202202130849 SPECI KBLI 130849Z AUTO 00000KT 7SM FEW002 00/M01 A3024 RMK AO2=
202202130842 SPECI KBLI 130842Z AUTO 00000KT 2 1/2SM BR SCT002 01/01 A3024 RMK AO2 T00060006=
202202130840 SPECI KBLI 130840Z AUTO 00000KT 3/4SM R16/P6000FT BR VV002 00/00 A3024 RMK AO2 T00000000=
202202130832 SPECI KBLI 130832Z AUTO 00000KT 1/4SM R16/2800VP6000FT FZFG VV002 M01/M01 A3024 RMK AO2 T10061006=
202202130828 SPECI KBLI 130828Z AUTO 00000KT 1/2SM R16/2800VP6000FT FG CLR 00/M01 A3024 RMK AO2 VIS 1/4V4 T00001006=
202202130824 SPECI KBLI 130824Z AUTO 00000KT 1 1/2SM R16/2800VP6000FT BR CLR M01/M01 A3024 RMK AO2 VIS 1/2V4 T10061006=
202202130819 SPECI KBLI 130819Z AUTO 00000KT 3SM R16/4000VP6000FT BR CLR 00/00 A3024 RMK AO2 T00000000=
202202130816 SPECI KBLI 130816Z AUTO 00000KT 1SM R16/P6000FT BR CLR 01/01 A3024 RMK AO2 T00060006=
202202130806 SPECI KBLI 130806Z AUTO 00000KT 1/2SM R16/P6000FT FZFG CLR M01/M01 A3024 RMK AO2 T10061006=
202202130758 SPECI KBLI 130758Z AUTO 00000KT 3/4SM R16/P6000FT BR CLR M01/M01 A3024 RMK AO2 T10111011=
202202130753 METAR KBLI 130753Z AUTO 00000KT 2SM BR CLR M01/M01 A3024 RMK AO2 SLP249 I1001 T10061006 401111022=
202202130747 SPECI KBLI 130747Z AUTO 00000KT 2SM BR CLR 01/01 A3024 RMK AO2 I1001=
202202130744 SPECI KBLI 130744Z AUTO 00000KT 3/4SM R16/P6000FT BR CLR 01/01 A3024 RMK AO2 I1001 T00060006=
202202130728 SPECI KBLI 130728Z AUTO 00000KT 1/4SM R16/P6000FT FG CLR 01/01 A3024 RMK AO2 I1000 T00060006=
202202130719 SPECI KBLI 130719Z AUTO 00000KT 1/2SM R16/3000VP6000FT FG VV003 00/00 A3024 RMK AO2 I1000 T00000000=
202202130717 SPECI KBLI 130717Z AUTO 00000KT 3/4SM R16/3000VP6000FT BR CLR 00/00 A3024 RMK AO2 I1000 T00000000=
202202130710 SPECI KBLI 130710Z AUTO 00000KT 2SM BR CLR 00/00 A3024 RMK AO2 I1000 T00000000=
202202130653 METAR KBLI 130653Z AUTO 00000KT 7SM CLR 01/01 A3024 RMK AO2 SLP250 T00110011=
202202130638 SPECI KBLI 130638Z AUTO 00000KT 1SM R16/P6000FT BR CLR 01/00 A3024 RMK AO2 T00060000=
202202130635 SPECI KBLI 130635Z AUTO 00000KT 1/2SM R16/P6000FT FG CLR 01/00 A3024 RMK AO2 T00060000=
202202130553 METAR KBLI 130553Z 00000KT 10SM CLR 00/00 A3025 RMK AO2 SLP252 T00000000 10100 20000 56003=
202202130453 METAR KBLI 130453Z 00000KT 10SM CLR 01/01 A3025 RMK AO2 SLP252 T00110011=
202202130353 METAR KBLI 130353Z 00000KT 10SM CLR 02/02 A3025 RMK AO2 SLP253 T00170017=
202202130253 METAR KBLI 130253Z 00000KT 10SM CLR 03/02 A3026 RMK AO2 SLP255 T00280017 58008=
202202130153 METAR KBLI 130153Z 00000KT 10SM CLR 05/03 A3027 RMK AO2 SLP258 T00500028=
202202130053 METAR KBLI 130053Z 00000KT 10SM CLR 09/03 A3028 RMK AO2 SLP261 T00890033=
202202122353 METAR KBLI 122353Z 00000KT 10SM CLR 10/04 A3028 RMK AO2 SLP263 T01000044 10111 20050 56018=
202202122253 METAR KBLI 122253Z 28004KT 10SM CLR 09/04 A3029 RMK AO2 SLP268 T00940044=
202202122153 METAR KBLI 122153Z 28004KT 10SM CLR 08/04 A3031 RMK AO2 SLP274 T00830039=
202202122053 METAR KBLI 122053Z VRB05KT 10SM FEW005 09/05 A3033 RMK AO2 SLP281 T00890050 58010=
202202122032 SPECI KBLI 122032Z 14003KT 10SM CLR 10/04 A3033 RMK AO2 T01000039=
202202121953 METAR KBLI 121953Z VRB03KT 10SM CLR 11/00 A3035 RMK AO2 SLP286 T01060000=
202202121853 METAR KBLI 121853Z 34005KT 10SM CLR 08/01 A3037 RMK AO2 SLP292 T00830011=
202202121753 METAR KBLI 121753Z 36008KT 10SM CLR 05/00 A3036 RMK AO2 SLP291 I6000 T00500000 10056 21022 58003=
202202121653 METAR KBLI 121653Z 01007KT 10SM CLR 03/01 A3038 RMK AO2 SLP297 T00330006=
202202121553 METAR KBLI 121553Z 35005G15KT 10SM CLR 02/M02 A3038 RMK AO2 SLP295 T00221017=
202202121453 METAR KBLI 121453Z 34007KT 10SM CLR 02/M02 A3037 RMK AO2 SLP294 I3000 T00221017 56008=
202202121353 METAR KBLI 121353Z AUTO 32012KT 10SM CLR 02/00 A3038 RMK AO2 SLP298 T00220000=
202202121253 METAR KBLI 121253Z AUTO 33008KT 10SM CLR M01/M01 A3038 RMK AO2 SLP298 I1000 T10061006=
202202121153 METAR KBLI 121153Z AUTO 36003KT 8SM R16/6000VP6000FT FEW001 M02/M02 A3040 RMK AO2 SLP302 I1000 I6003 T10171017 10028 21017 58004=
202202121147 SPECI KBLI 121147Z AUTO 33003KT 2SM R16/2600VP6000FT BR FEW001 M01/M01 A3040 RMK AO2 I1000=
202202121144 SPECI KBLI 121144Z AUTO 32003KT 1SM R16/2000VP6000FT BR VV001 M02/M02 A3040 RMK AO2 I1000 T10171017=
202202121141 SPECI KBLI 121141Z AUTO 1/2SM R16/2000VP6000FT FZFG VV001 M02/M02 A3039 RMK AO2 I1000 T10171017=
202202121125 SPECI KBLI 121125Z AUTO 3/4SM R16/P6000FT BR VV001 M01/M01 A3040 RMK AO2 I1000 T10111011=
202202121117 SPECI KBLI 121117Z AUTO 33004KT 1/2SM R16/2000VP6000FT FZFG VV001 M01/M01 A3040 RMK AO2 T10111011=
202202121110 SPECI KBLI 121110Z AUTO 3/4SM R16/2000VP6000FT BR VV001 00/00 A3040 RMK AO2 T00000000=
202202121108 SPECI KBLI 121108Z AUTO 32003KT 1 1/4SM R16/2000VP6000FT BR FEW001 M01/M01 A3041 RMK AO2 T10061006=
202202121053 METAR KBLI 121053Z AUTO 29004KT 10SM CLR M01/M01 A3041 RMK AO2 SLP307 I1000 T10061006=
202202120953 METAR KBLI 120953Z AUTO 35004KT 10SM CLR 01/01 A3041 RMK AO2 SLP306 T00060006=
202202120853 METAR KBLI 120853Z AUTO 34009G15KT 10SM CLR 02/01 A3041 RMK AO2 SLP305 I1001 I3003 T00170011 58007=
202202120810 SPECI KBLI 120810Z AUTO 00000KT 5SM BR FEW001 00/00 A3041 RMK AO2 T00000000=
202202120753 METAR KBLI 120753Z AUTO 00000KT 7SM CLR 01/01 A3042 RMK AO2 SLP311 I1002 T00060006 401170000=
202202120746 SPECI KBLI 120746Z AUTO 6SM BR CLR 01/01 A3042 RMK AO2 I1002 T00060006=
202202120737 SPECI KBLI 120737Z AUTO 32003KT 1SM R16/6000VP6000FT BR CLR 00/00 A3042 RMK AO2 VIS 1/2V5 I1002 T00000000=
202202120728 SPECI KBLI 120728Z AUTO 36003KT 1/2SM R16/P6000FT FG CLR 01/01 A3042 RMK AO2 I1001 T00060006=
202202120718 SPECI KBLI 120718Z AUTO 00000KT 1 3/4SM BR CLR 00/00 A3042 RMK AO2 I1001 T00000000=
202202120653 METAR KBLI 120653Z AUTO 00000KT 4SM R16/4500VP6000FT BR CLR 01/01 A3042 RMK AO2 SLP312 T00060006=
202202120604 SPECI KBLI 120604Z 00000KT 10SM R16/6000VP6000FT CLR 01/01 A3042 RMK AO2 T00060006=
202202120602 SPECI KBLI 120602Z 00000KT 4SM R16/6000VP6000FT BR CLR 01/01 A3042 RMK AO2 T00060006=
202202120600 SPECI KBLI 120600Z 00000KT 1 3/4SM R16/6000VP6000FT BR CLR 00/00 A3042 RMK AO2 T00000000=
202202120553 METAR KBLI 120553Z 00000KT 10SM CLR 00/00 A3043 RMK AO2 SLP313 T00000000 10106 20000 56003=
202202120453 METAR KBLI 120453Z 00000KT 6SM BR CLR 02/02 A3043 RMK AO2 SLP314 T00170017=
202202120353 METAR KBLI 120353Z 00000KT 10SM CLR 03/03 A3043 RMK AO2 SLP312 T00330033=
202202120253 METAR KBLI 120253Z 00000KT 10SM CLR 04/03 A3044 RMK AO2 SLP317 T00390033 56004=
202202120153 METAR KBLI 120153Z 27003KT 10SM CLR 07/06 A3044 RMK AO2 SLP317 T00720056=
202202120053 METAR KBLI 120053Z 29004KT 10SM CLR 09/06 A3045 RMK AO2 SLP318 T00940061=
202202112353 METAR KBLI 112353Z 31006KT 10SM CLR 11/07 A3045 RMK AO2 SLP320 T01060067 10117 20078 56014=
202202112253 METAR KBLI 112253Z 32007KT 10SM CLR 12/05 A3046 RMK AO2 SLP324 T01170050=
202202112153 METAR KBLI 112153Z 35007KT 10SM CLR 12/05 A3048 RMK AO2 SLP328 T01170050=
202202112053 METAR KBLI 112053Z 32008KT 10SM CLR 10/05 A3049 RMK AO2 SLP333 T01000050 58001=
202202111953 METAR KBLI 111953Z 32008KT 10SM CLR 11/03 A3050 RMK AO2 SLP335 T01060028=
202202111853 METAR KBLI 111853Z 35006KT 10SM CLR 09/04 A3050 RMK AO2 SLP336 T00940039=
202202111753 METAR KBLI 111753Z 35004KT 10SM CLR 08/04 A3049 RMK AO2 SLP334 T00780044 10078 20022 53002=
202202111653 METAR KBLI 111653Z 36007KT 10SM CLR 05/04 A3048 RMK AO2 SLP331 T00500039=
202202111642 SPECI KBLI 111642Z 36008KT 10SM CLR 04/04 A3049 RMK AO2 T00440039=
202202111553 METAR KBLI 111553Z 34006KT 10SM FEW002 03/03 A3048 RMK AO2 SLP332 T00280028=
202202111534 SPECI KBLI 111534Z 34010KT 2SM BR SCT002 03/03 A3049 RMK AO2 T00280028=
202202111527 SPECI KBLI 111527Z 34009KT 1SM R16/P6000FT BR VV001 03/03 A3049 RMK AO2 T00280028=
202202111513 SPECI KBLI 111513Z 34009KT 1/2SM R16/2000V4000FT FG VV001 03/03 A3048 RMK AO2 T00280028=
202202111506 SPECI KBLI 111506Z 33008KT 1/4SM R16/2000V2200FT FG VV001 03/03 A3048 RMK AO2 T00280028=
202202111500 SPECI KBLI 111500Z 33007KT 1/4SM R16/2000V2400FT FG VV001 03/03 A3049 RMK AO2 T00280028=
202202111453 METAR KBLI 111453Z 33005KT 1/4SM R16/1800V2000FT FG VV001 03/03 A3049 RMK AO2 SLP333 T00280028 58003=
202202111444 SPECI KBLI 111444Z AUTO 35003KT 1/4SM R16/1600V1800FT FG VV001 03/03 A3049 RMK AO2 T00280028=
202202111434 SPECI KBLI 111434Z AUTO 35004KT 1/4SM R16/1600VP6000FT FG VV001 03/03 A3049 RMK AO2 T00280028=
202202111431 SPECI KBLI 111431Z AUTO 36005KT 1/2SM R16/1600VP6000FT FG BKN002 03/03 A3049 RMK AO2 T00280028=
202202111418 SPECI KBLI 111418Z AUTO 01003KT 1SM R16/P6000FT BR VV003 02/02 A3050 RMK AO2 T00220022=
202202111405 SPECI KBLI 111405Z AUTO 01004KT 1 3/4SM BR CLR 03/03 A3049 RMK AO2 VIS 3/4V4 T00330033=
202202111353 METAR KBLI 111353Z AUTO 36005KT 4SM BR CLR 03/03 A3049 RMK AO2 SLP336 T00330033=
202202111345 SPECI KBLI 111345Z AUTO 36005KT 3SM BR CLR 04/04 A3050 RMK AO2 T00390039=
202202111340 SPECI KBLI 111340Z AUTO 36004KT 1 3/4SM BR CLR 04/04 A3050 RMK AO2 T00390039=
202202111321 SPECI KBLI 111321Z AUTO 04004KT 2 1/2SM BR CLR 03/03 A3050 RMK AO2 VIS 1 1/2V4 T00330033=
202202111305 SPECI KBLI 111305Z AUTO 35003KT 3SM BR CLR 04/04 A3049 RMK AO2 T00390039=
202202111253 METAR KBLI 111253Z AUTO 35003KT 1SM R16/P6000FT BR CLR 04/04 A3049 RMK AO2 SLP335 T00390039=
202202111245 SPECI KBLI 111245Z AUTO 35003KT 1 1/2SM BR CLR 04/04 A3049 RMK AO2 VIS 1/2V4 T00390039=
202202111234 SPECI KBLI 111234Z AUTO 34003KT 4SM BR CLR 05/05 A3050 RMK AO2 T00500050=
202202111223 SPECI KBLI 111223Z AUTO 00000KT 2SM BR CLR 04/04 A3050 RMK AO2 T00440044=
202202111153 METAR KBLI 111153Z AUTO 34004KT 5SM BR FEW007 06/06 A3050 RMK AO2 SLP335 T00560056 10072 20056 50000=
202202111151 SPECI KBLI 111151Z AUTO 34004KT 5SM BR FEW007 06/06 A3050 RMK AO2=
202202111139 SPECI KBLI 111139Z AUTO 34003KT 6SM BR SCT005 BKN012 06/06 A3050 RMK AO2 T00610061=
202202111100 SPECI KBLI 111100Z AUTO 36004KT 4SM BR BKN004 OVC011 07/07 A3050 RMK AO2 T00670067=
202202111053 METAR KBLI 111053Z AUTO 34005KT 5SM BR SCT004 BKN012 OVC033 07/07 A3050 RMK AO2 SLP336 T00670067=
202202111049 SPECI KBLI 111049Z AUTO 33004KT 5SM BR BKN004 BKN012 OVC033 07/07 A3049 RMK AO2=
202202111008 SPECI KBLI 111008Z AUTO 01004KT 6SM BR BKN008 OVC012 07/07 A3049 RMK AO2 CIG 006V010 T00720072=
202202111001 SPECI KBLI 111001Z AUTO 36004KT 6SM BR OVC010 07/07 A3050 RMK AO2 CIG 006V016 T00720067=
202202110953 METAR KBLI 110953Z AUTO 36004KT 6SM BR BKN008 OVC013 07/07 A3050 RMK AO2 CIG 007V010 SLP336 T00720067=
202202110951 SPECI KBLI 110951Z AUTO 35003KT 6SM BR BKN010 OVC013 07/07 A3050 RMK AO2 CIG 007V010=
202202110853 METAR KBLI 110853Z AUTO 35004KT 5SM BR BKN007 OVC012 07/07 A3050 RMK AO2 SLP336 T00720067 53004=
202202110845 SPECI KBLI 110845Z AUTO 35004KT 6SM BR BKN009 OVC012 07/07 A3050 RMK AO2 CIG 007V012 T00720067=
202202110826 SPECI KBLI 110826Z AUTO 00000KT 6SM BR OVC014 07/07 A3049 RMK AO2 T00720067=
202202110753 METAR KBLI 110753Z AUTO 00000KT 6SM BR OVC016 07/07 A3049 RMK AO2 SLP333 T00720067 400890061=
202202110653 METAR KBLI 110653Z AUTO 00000KT 7SM BKN019 OVC033 07/07 A3049 RMK AO2 SLP331 T00720067=
202202110553 METAR KBLI 110553Z 00000KT 8SM BKN020 OVC030 07/07 A3049 RMK AO2 SLP332 T00720067 10089 20072 51009=
202202110453 METAR KBLI 110453Z 00000KT 8SM BKN017 OVC027 07/07 A3048 RMK AO2 SLP329 T00720067=
202202110353 METAR KBLI 110353Z 00000KT 8SM SCT006 BKN028 07/07 A3047 RMK AO2 SLP327 T00720067=
202202110253 METAR KBLI 110253Z 16003KT 10SM SCT006 BKN024 07/07 A3046 RMK AO2 SLP323 T00720067 53001=
202202110153 METAR KBLI 110153Z 00000KT 10SM FEW006 OVC022 07/07 A3046 RMK AO2 SLP324 T00720067=
202202110053 METAR KBLI 110053Z 28005KT 10SM FEW005 SCT017 BKN027 08/07 A3046 RMK AO2 SLP321 T00780067=
202202102353 METAR KBLI 102353Z 26004KT 10SM SCT013 BKN020 09/07 A3046 RMK AO2 SLP322 T00890072 10089 20067 56011=
202202102253 METAR KBLI 102253Z VRB03KT 10SM OVC012 08/07 A3047 RMK AO2 SLP325 T00830072=
202202102153 METAR KBLI 102153Z 31004KT 10SM OVC012 09/07 A3047 RMK AO2 SLP327 T00890072=
202202102053 METAR KBLI 102053Z 35003KT 10SM OVC011 09/07 A3049 RMK AO2 SLP333 CIGS HIGHER S-SW. T00890067 58005=
202202101953 METAR KBLI 101953Z 00000KT 6SM BR FEW007 BKN018 OVC039 08/07 A3050 RMK AO2 SLP337 CIGS AND VSBY HIGHER SE-SW. T00830072=
202202101933 SPECI KBLI 101933Z 00000KT 6SM BR SCT005 OVC018 08/08 A3051 RMK AO2 VSBY HIGHER S. T00830078=
202202101856 SPECI KBLI 101856Z 00000KT 2SM BR BKN005 OVC016 07/07 A3050 RMK AO2 CIG 003V008 VSBY HIGHER S. T00720072=
202202101853 METAR KBLI 101853Z 00000KT 1/4SM R16/P6000FT FG BKN005 OVC016 07/07 A3050 RMK AO2 CIG 003V008 SLP337 T00670067=
202202101753 METAR KBLI 101753Z 00000KT 1/4SM R16/2400V4500FT FG OVC002 07/07 A3051 RMK AO2 SLP338 T00670067 10072 20061 53006=
202202101653 METAR KBLI 101653Z 00000KT 1/4SM R16/2400V3000FT FG VV002 07/07 A3050 RMK AO2 SLP337 T00670067=
202202101636 SPECI KBLI 101636Z VRB03KT 1/4SM R16/1800V3500FT FG VV002 06/06 A3049 RMK AO2 T00610061=
202202101553 METAR KBLI 101553Z 28003KT 1/4SM R16/1200V2000FT FG VV002 07/07 A3049 RMK AO2 SLP332 T00670067=
202202101540 SPECI KBLI 101540Z 00000KT 1/2SM R16/1400V1800FT FG VV002 07/07 A3048 RMK AO2 T00670067=
202202101518 SPECI KBLI 101518Z 00000KT 3/4SM R16/6000VP6000FT BR OVC002 07/07 A3048 RMK AO2 T00670067=
202202101453 METAR KBLI 101453Z 00000KT 1SM R16/P6000FT BR OVC002 07/07 A3048 RMK AO2 SLP329 T00670067 58014=
202202101443 SPECI KBLI 101443Z AUTO 00000KT 3SM BR OVC002 07/07 A3048 RMK AO2 T00670067=
202202101429 SPECI KBLI 101429Z AUTO 00000KT 2 1/2SM BR OVC002 07/07 A3048 RMK AO2 T00670067=
202202101353 METAR KBLI 101353Z AUTO 30003KT 1 3/4SM BR OVC002 07/07 A3050 RMK AO2 SLP337 T00720072=
202202101253 METAR KBLI 101253Z AUTO 00000KT 1 1/4SM BR OVC002 07/07 A3051 RMK AO2 SLP340 T00720072=
202202101223 SPECI KBLI 101223Z AUTO 00000KT 1SM R16/4500VP6000FT BR OVC002 07/07 A3051 RMK AO2 T00720072=
202202101205 SPECI KBLI 101205Z AUTO 00000KT 3/4SM R16/3500V5500FT BR VV002 07/07 A3052 RMK AO2 T00720072=
202202101153 METAR KBLI 101153Z AUTO 00000KT 1/2SM R16/2400V4000FT FG VV002 07/07 A3052 RMK AO2 SLP343 T00720072 10078 20072 56006=
202202101140 SPECI KBLI 101140Z AUTO 00000KT 1/4SM R16/1800V2800FT FG VV002 07/07 A3052 RMK AO2 T00720072=
202202101122 SPECI KBLI 101122Z AUTO 00000KT 1/2SM R16/2200V4000FT FG VV003 07/07 A3052 RMK AO2 T00720072=
202202101109 SPECI KBLI 101109Z AUTO 31003KT 1/2SM R16/2000V3000FT FG FEW002 BKN007 OVC014 07/07 A3052 RMK AO2 T00720072=
202202101059 SPECI KBLI 101059Z AUTO 31003KT 3/4SM R16/3000VP6000FT BR FEW002 BKN009 OVC015 07/07 A3052 RMK AO2 T00720072=
202202101053 METAR KBLI 101053Z AUTO 31003KT 1SM R16/5000VP6000FT BR FEW002 SCT008 OVC012 07/07 A3052 RMK AO2 SLP343 T00720072=
202202101042 SPECI KBLI 101042Z AUTO 33003KT 1SM R16/5500VP6000FT BR SCT002 OVC010 07/07 A3052 RMK AO2 T00720072=
202202101013 SPECI KBLI 101013Z AUTO 00000KT 1SM R16/4000V5500FT BR BKN002 OVC010 07/07 A3052 RMK AO2 T00720072=
202202101002 SPECI KBLI 101002Z AUTO 00000KT 3/4SM R16/4000V6000FT BR BKN003 OVC006 07/07 A3053 RMK AO2 T00720072=
202202100953 METAR KBLI 100953Z AUTO 00000KT 1SM R16/3500V5000FT BR OVC003 08/08 A3053 RMK AO2 SLP347 T00780078=
202202100929 SPECI KBLI 100929Z AUTO 00000KT 3/4SM R16/4500V5500FT BR OVC002 07/07 A3053 RMK AO2 T00720072=
202202100853 METAR KBLI 100853Z AUTO 00000KT 1SM R16/P6000FT BR OVC002 07/07 A3054 RMK AO2 SLP349 T00720072 57004=
202202100821 SPECI KBLI 100821Z AUTO 03003KT 1 1/2SM BR BKN002 OVC010 08/08 A3055 RMK AO2 T00780078=
202202100753 METAR KBLI 100753Z AUTO 36003KT 2 1/2SM BR BKN002 OVC013 08/08 A3054 RMK AO2 SLP351 T00780078 401000061=
202202100737 SPECI KBLI 100737Z AUTO 00000KT 2 1/2SM BR BKN003 OVC013 08/08 A3054 RMK AO2 T00780078=
202202100653 METAR KBLI 100653Z AUTO 00000KT 4SM BR SCT008 OVC012 08/08 A3054 RMK AO2 SLP352 T00780078=
202202100646 SPECI KBLI 100646Z AUTO 03004KT 4SM BR OVC010 08/08 A3055 RMK AO2 CIG 006V013 T00780078=
202202100639 SPECI KBLI 100639Z AUTO 02003KT 4SM BR OVC008 08/08 A3055 RMK AO2 CIG 006V012 T00780078=
202202100627 SPECI KBLI 100627Z AUTO 01003KT 7SM BKN010 OVC018 08/07 A3055 RMK AO2 T00830072=
202202100553 METAR KBLI 100553Z 00000KT 10SM OVC017 08/07 A3055 RMK AO2 SLP354 T00830072 10100 20078 56002=
202202100453 METAR KBLI 100453Z 00000KT 10SM OVC018 08/07 A3055 RMK AO2 SLP354 T00830072=
202202100353 METAR KBLI 100353Z 00000KT 10SM OVC022 09/07 A3056 RMK AO2 SLP355 T00890067=
202202100253 METAR KBLI 100253Z 00000KT 10SM OVC038 09/07 A3056 RMK AO2 SLP356 T00890067 58008=
202202100153 METAR KBLI 100153Z 00000KT 10SM SCT027 OVC035 09/07 A3057 RMK AO2 SLP362 T00890067=
202202100053 METAR KBLI 100053Z 00000KT 10SM SCT029 OVC039 10/06 A3058 RMK AO2 SLP364 T01000061=
202202092353 METAR KBLI 092353Z 28003KT 10SM SCT032 OVC040 10/06 A3058 RMK AO2 SLP365 T01000056 10100 20078 58006=
202202092253 METAR KBLI 092253Z 00000KT 10SM SCT024 OVC031 10/05 A3060 RMK AO2 SLP369 T01000050=
202202092242 SPECI KBLI 092242Z 00000KT 10SM SCT024 OVC031 10/06 A3060 RMK AO2 T01000056=
202202092153 METAR KBLI 092153Z 00000KT 10SM OVC028 10/06 A3061 RMK AO2 SLP375 T01000061=
202202092053 METAR KBLI 092053Z 00000KT 10SM SCT025 OVC031 10/06 A3060 RMK AO2 SLP370 T01000061 58010=
202202092034 SPECI KBLI 092034Z 00000KT 10SM SCT025 OVC031 10/07 A3060 RMK AO2 T01000067=
202202092027 SPECI KBLI 092027Z 02003KT 10SM BKN025 OVC031 10/07 A3061 RMK AO2 T01000067=
202202091953 METAR KBLI 091953Z 03004KT 10SM OVC033 10/07 A3061 RMK AO2 SLP375 T01000067=
202202091853 METAR KBLI 091853Z 00000KT 5SM BR FEW003 OVC034 09/08 A3062 RMK AO2 SLP378 T00890078=
202202091753 METAR KBLI 091753Z 03004KT 3SM BR SCT003 OVC036 07/07 A3063 RMK AO2 SLP381 T00720072 10078 20061 53006=
202202091709 SPECI KBLI 091709Z 00000KT 3SM BR FEW003 OVC036 07/07 A3062 RMK AO2 T00670067=
202202091653 METAR KBLI 091653Z 34003KT 3SM BR FEW010 OVC039 07/07 A3062 RMK AO2 SLP377 T00670067=
202202091553 METAR KBLI 091553Z 00000KT 3SM BR OVC035 06/06 A3060 RMK AO2 SLP371 T00610061=
202202091551 SPECI KBLI 091551Z 00000KT 3SM BR OVC035 06/06 A3060 RMK AO2=
202202091453 METAR KBLI 091453Z 00000KT 1SM R16/P6000FT BR OVC043 06/06 A3061 RMK AO2 SLP374 T00610061 53007=
202202091434 SPECI KBLI 091434Z AUTO 03003KT 2 1/2SM BR SCT003 OVC043 06/06 A3061 RMK AO2 T00610061=
202202091402 SPECI KBLI 091402Z AUTO 03003KT 2 1/2SM BR OVC003 06/06 A3061 RMK AO2 T00610061=
202202091353 METAR KBLI 091353Z AUTO 01003KT 3SM BR BKN003 OVC041 06/06 A3061 RMK AO2 SLP373 T00610061=
202202091305 SPECI KBLI 091305Z AUTO 00000KT 3SM BR BKN002 OVC039 06/06 A3059 RMK AO2 T00610061=
202202091253 METAR KBLI 091253Z AUTO 03003KT 3SM BR SCT002 BKN039 OVC050 06/06 A3059 RMK AO2 SLP366 T00610061=
202202091241 SPECI KBLI 091241Z AUTO 04004KT 3SM BR SCT002 BKN039 OVC050 06/06 A3059 RMK AO2 T00610061=
202202091153 METAR KBLI 091153Z AUTO 00000KT 6SM BR OVC039 06/06 A3059 RMK AO2 SLP367 60000 T00610061 10067 20061 58001=
202202091130 SPECI KBLI 091130Z AUTO 00000KT 6SM BR FEW026 OVC039 06/06 A3059 RMK AO2 T00610061=
202202091102 SPECI KBLI 091102Z AUTO 03003KT 3SM BR OVC026 06/06 A3061 RMK AO2 T00610061=
202202091053 METAR KBLI 091053Z AUTO 00000KT 1 1/4SM BR OVC025 06/06 A3060 RMK AO2 SLP371 T00610061=
202202090953 METAR KBLI 090953Z AUTO 00000KT 1 1/2SM BR OVC018 06/06 A3061 RMK AO2 SLP374 T00610061=
202202090938 SPECI KBLI 090938Z AUTO 00000KT 1SM R16/P6000FT BR FEW001 BKN018 OVC040 06/06 A3061 RMK AO2 T00610061=
202202090931 SPECI KBLI 090931Z AUTO 00000KT 1SM R16/P6000FT BR FEW019 BKN026 OVC044 06/06 A3061 RMK AO2 T00610061=
202202090919 SPECI KBLI 090919Z AUTO 04003KT 1 1/2SM BR SCT025 OVC041 06/06 A3060 RMK AO2 T00610061=
202202090900 SPECI KBLI 090900Z AUTO 00000KT 1 1/4SM BR BKN024 OVC038 06/06 A3059 RMK AO2 T00610061=
202202090853 METAR KBLI 090853Z AUTO 00000KT 1 1/2SM BR SCT024 BKN030 OVC038 06/06 A3059 RMK AO2 SLP368 60000 T00610061 53000=
202202090803 SPECI KBLI 090803Z AUTO 00000KT 1 1/2SM BR FEW017 OVC037 07/07 A3060 RMK AO2 T00670067=
202202090753 METAR KBLI 090753Z AUTO 00000KT 2SM BR OVC037 07/07 A3059 RMK AO2 RAB0659E44 SLP368 P0000 T00670067 400830061=
202202090744 SPECI KBLI 090744Z AUTO 00000KT 1 3/4SM BR SCT035 OVC042 07/07 A3059 RMK AO2 RAB0659E44 P0000 T00670067=
202202090733 SPECI KBLI 090733Z AUTO 00000KT 2SM -RA BR OVC042 07/07 A3059 RMK AO2 RAB0659 P0000 T00670067=
202202090653 METAR KBLI 090653Z AUTO 00000KT 5SM BR SCT043 BKN055 OVC075 07/07 A3059 RMK AO2 SLP367 T00670067=
202202090553 METAR KBLI 090553Z 00000KT 7SM FEW008 OVC046 07/07 A3059 RMK AO2 SLP368 60000 T00670067 10083 20061 53007=
202202090545 SPECI KBLI 090545Z 00000KT 7SM SCT008 OVC046 07/07 A3059 RMK AO2 T00670067=
202202090453 METAR KBLI 090453Z 00000KT 10SM OVC045 07/07 A3059 RMK AO2 RAB11E51 SLP366 P0000 T00670067=
202202090353 METAR KBLI 090353Z 18003KT 10SM OVC049 08/07 A3057 RMK AO2 SLP360 T00780067=
202202090253 METAR KBLI 090253Z 17005KT 10SM OVC070 07/07 A3057 RMK AO2 RAB05E25 SLP361 P0000 60000 T00720067 58006=
202202090153 METAR KBLI 090153Z 20003KT 10SM OVC065 08/07 A3059 RMK AO2 RAB18E38 SLP367 P0000 T00780067=
202202090053 METAR KBLI 090053Z 19003KT 10SM OVC055 08/07 A3059 RMK AO2 SLP367 T00780067=
202202082353 METAR KBLI 082353Z 20003KT 10SM OVC060 08/07 A3059 RMK AO2 SLP366 60000 T00830072 10083 20072 58003=
202202082253 METAR KBLI 082253Z 15005KT 10SM FEW015 SCT046 BKN065 08/07 A3061 RMK AO2 RAE41 SLP372 P0000 T00780067=
202202082153 METAR KBLI 082153Z 19005KT 7SM -RA SCT015 BKN045 OVC055 08/07 A3060 RMK AO2 RAB23 SLP371 P0000 T00780067=
202202082053 METAR KBLI 082053Z VRB05KT 10SM FEW015 SCT025 BKN070 08/06 A3060 RMK AO2 SLP369 T00830061 58000=
202202081953 METAR KBLI 081953Z 20007KT 10SM FEW015 SCT025 BKN060 08/06 A3061 RMK AO2 SLP372 T00780061=
202202081853 METAR KBLI 081853Z 18008KT 10SM SCT020 BKN032 OVC080 08/06 A3060 RMK AO2 SLP371 T00780061=
202202081753 METAR KBLI 081753Z 19004KT 10SM SCT020 BKN032 BKN036 08/06 A3060 RMK AO2 SLP369 T00780061 10078 20061 50004=
202202081653 METAR KBLI 081653Z 18006KT 10SM BKN026 BKN031 07/06 A3060 RMK AO2 SLP373 T00720061=
202202081553 METAR KBLI 081553Z 19006KT 10SM SCT016 BKN026 07/06 A3060 RMK AO2 SLP370 T00720061=
202202081453 METAR KBLI 081453Z 18005KT 10SM FEW016 SCT026 BKN035 07/06 A3059 RMK AO2 SLP365 T00720061 51007=
202202081443 SPECI KBLI 081443Z 18004KT 10SM FEW016 BKN026 OVC035 07/06 A3058 RMK AO2 T00670056=
202202081353 METAR KBLI 081353Z AUTO 18005KT 10SM FEW032 BKN095 07/05 A3058 RMK AO2 SLP362 T00670050=
202202081253 METAR KBLI 081253Z AUTO 19006KT 10SM FEW017 OVC090 07/06 A3058 RMK AO2 SLP365 T00720056=
202202081153 METAR KBLI 081153Z AUTO 18007KT 10SM FEW013 OVC100 07/06 A3056 RMK AO2 SLP358 70001 T00720056 10078 20044 56010=
202202081131 SPECI KBLI 081131Z AUTO 17011KT 10SM SCT013 SCT100 07/06 A3057 RMK AO2 T00720056=
202202081104 SPECI KBLI 081104Z AUTO 18008KT 10SM BKN014 07/06 A3057 RMK AO2 T00720056=
202202081053 METAR KBLI 081053Z AUTO 19007KT 10SM BKN015 07/06 A3057 RMK AO2 SLP361 T00720056=
202202080953 METAR KBLI 080953Z AUTO 19007KT 10SM CLR 07/06 A3056 RMK AO2 SLP357 T00720056=
202202080853 METAR KBLI 080853Z AUTO 17007KT 10SM FEW035 OVC046 08/06 A3059 RMK AO2 SLP368 T00780056 53022=
202202080753 METAR KBLI 080753Z AUTO 18004KT 10SM FEW031 OVC049 07/05 A3055 RMK AO2 SLP352 T00670050 401000017=
202202080653 METAR KBLI 080653Z AUTO 17003KT 10SM FEW036 BKN048 05/04 A3054 RMK AO2 SLP349 T00500044=
202202080553 METAR KBLI 080553Z 16004KT 10SM CLR 05/04 A3053 RMK AO2 SLP346 T00500044 10089 20028 53015=
202202080453 METAR KBLI 080453Z 00000KT 10SM CLR 04/04 A3051 RMK AO2 SLP339 T00390039=
202202080353 METAR KBLI 080353Z 17005KT 10SM CLR 07/05 A3049 RMK AO2 SLP332 T00670050=
202202080253 METAR KBLI 080253Z 17007KT 10SM CLR 07/06 A3048 RMK AO2 SLP331 T00670056 51016=
202202080153 METAR KBLI 080153Z 18007KT 10SM FEW015 SCT035 08/06 A3047 RMK AO2 SLP327 T00830056=
202202080053 METAR KBLI 080053Z 17009KT 10SM FEW015 SCT035 08/06 A3045 RMK AO2 SLP321 T00830061=
202202072353 METAR KBLI 072353Z 18010G16KT 10SM FEW015 SCT035 09/07 A3043 RMK AO2 SLP314 T00890067 10100 20089 53019=
202202072253 METAR KBLI 072253Z 17009G20KT 10SM FEW044 09/06 A3042 RMK AO2 SLP308 T00940061=
202202072153 METAR KBLI 072153Z 18011G21KT 10SM FEW024 SCT040 10/06 A3039 RMK AO2 SLP301 T01000061=
202202072053 METAR KBLI 072053Z 17013G25KT 10SM FEW024 SCT042 10/06 A3038 RMK AO2 SLP295 T01000061 51014=
202202071953 METAR KBLI 071953Z 18013G23KT 10SM FEW016 SCT035 10/06 A3037 RMK AO2 SLP294 T01000061=
202202071853 METAR KBLI 071853Z 19013G23KT 10SM SCT023 SCT035 09/06 A3035 RMK AO2 PK WND 21026/1820 SLP288 T00940061=
202202071756 SPECI KBLI 071756Z 18012G23KT 10SM SCT023 09/06 A3034 RMK AO2 T00940056=
202202071753 METAR KBLI 071753Z 18012G21KT 10SM CLR 09/06 A3034 RMK AO2 SLP281 60001 T00890056 10089 20067 53024=
202202071653 METAR KBLI 071653Z 18009G19KT 10SM SCT020 08/06 A3031 RMK AO2 SLP273 T00830061=
202202071553 METAR KBLI 071553Z 18010G18KT 10SM FEW012 SCT022 07/06 A3028 RMK AO2 SLP260 T00720061=
202202071453 METAR KBLI 071453Z 18009G14KT 10SM OVC021 07/07 A3026 RMK AO2 SLP257 60001 T00720067 53016=
202202071353 METAR KBLI 071353Z AUTO 18011G23KT 10SM OVC026 07/06 A3024 RMK AO2 RAE28 SLP248 P0000 T00720061=
202202071315 SPECI KBLI 071315Z AUTO 19010G21KT 4SM -RA BR OVC029 07/06 A3024 RMK AO2 P0000 T00670061=
202202071302 SPECI KBLI 071302Z AUTO 18012G19KT 2 1/2SM -RA BR FEW014 BKN029 OVC035 07/06 A3023 RMK AO2 P0000 T00670061=
202202071253 METAR KBLI 071253Z AUTO 18012G22KT 3SM -RA BR FEW014 OVC032 07/06 A3023 RMK AO2 SLP245 P0001 T00720056=
202202071153 METAR KBLI 071153Z AUTO 21007G19KT 10SM -RA SCT036 BKN050 OVC060 07/05 A3022 RMK AO2 RAB44 SLP241 P0000 60000 T00720050 10083 20011 55001=
202202071053 METAR KBLI 071053Z AUTO 21005KT 10SM OVC090 07/05 A3020 RMK AO2 SLP234 T00720050=
202202070953 METAR KBLI 070953Z AUTO 18008KT 10SM CLR 06/06 A3021 RMK AO2 SLP240 T00610056=
202202070853 METAR KBLI 070853Z AUTO 30003KT 6SM BR CLR 03/03 A3022 RMK AO2 SLP242 T00280028 58002=
202202070753 METAR KBLI 070753Z AUTO 00000KT 6SM BR CLR 02/02 A3023 RMK AO2 SLP245 T00220022 401110006=
202202070747 SPECI KBLI 070747Z AUTO 06003KT 3SM BR CLR 03/03 A3022 RMK AO2=
202202070736 SPECI KBLI 070736Z AUTO 00000KT 1 1/2SM BR CLR 02/02 A3022 RMK AO2 VIS 3/4V5 T00170017=
202202070653 METAR KBLI 070653Z AUTO 00000KT 3SM BR CLR 02/02 A3024 RMK AO2 SLP248 T00170017=
202202070553 METAR KBLI 070553Z 00000KT 10SM CLR 03/03 A3023 RMK AO2 SLP244 T00280028 10111 20011 58005=
202202070453 METAR KBLI 070453Z 00000KT 10SM CLR 02/02 A3024 RMK AO2 SLP251 T00170017=
202202070353 METAR KBLI 070353Z 00000KT 10SM CLR 04/04 A3024 RMK AO2 SLP251 T00440044=
202202070253 METAR KBLI 070253Z 29006KT 10SM CLR 06/06 A3024 RMK AO2 SLP250 T00560056 55017=
202202070153 METAR KBLI 070153Z 29005KT 10SM CLR 06/05 A3024 RMK AO2 SLP249 T00560050=
202202070053 METAR KBLI 070053Z 02005KT 10SM CLR 09/04 A3026 RMK AO2 SLP255 T00890039=
202202062353 METAR KBLI 062353Z 04004KT 10SM CLR 11/05 A3029 RMK AO2 SLP265 T01110050 10111 20033 56032=
202202062253 METAR KBLI 062253Z 02008KT 10SM CLR 11/04 A3032 RMK AO2 SLP274 T01060044=
202202062153 METAR KBLI 062153Z 36005KT 10SM CLR 10/05 A3034 RMK AO2 SLP284 T01000050=
202202062053 METAR KBLI 062053Z 02005KT 10SM CLR 10/05 A3039 RMK AO2 SLP298 T01000050 58025=
202202061953 METAR KBLI 061953Z 03004KT 10SM CLR 08/05 A3043 RMK AO2 SLP312 T00830050=
202202061853 METAR KBLI 061853Z 06003KT 10SM SCT004 05/05 A3045 RMK AO2 SLP320 CIGS LWR E-SE. T00500050=
202202061833 SPECI KBLI 061833Z 06004KT 2SM BR BKN004 04/04 A3045 RMK AO2 T00440044=
202202061822 SPECI KBLI 061822Z 05003KT 3/4SM R16/P6000FT BR BKN002 04/04 A3046 RMK AO2 CIG 002V006 T00390039=
202202061754 SPECI KBLI 061754Z 04005KT 1/2SM R16/4500VP6000FT FG OVC002 03/03 A3046 RMK AO2 T00330033=
202202061753 METAR KBLI 061753Z 03005KT 1/4SM R16/4500VP6000FT FG OVC002 03/03 A3046 RMK AO2 SLP324 T00330033 10033 20006 58006=
202202061711 SPECI KBLI 061711Z 05005KT 1/4SM R16/2000V4000FT FG OVC002 02/02 A3047 RMK AO2 T00220022=
202202061653 METAR KBLI 061653Z 03004KT 1/4SM R16/1200V1600FT FG VV002 02/02 A3047 RMK AO2 SLP329 T00170017=
202202061551 METAR KBLI 061551Z 04003KT M1/4SM R16/0800V1000FT FG VV001 02/02 A3047 RMK AO2 SLP327 T00220022=
202202061550 SPECI KBLI 061550Z 05003KT M1/4SM R16/0800V1000FT FG VV001 02/02 A3047 RMK AO2=
202202061453 METAR KBLI 061453Z 08003KT 1/4SM R16/1400V1800FT FG VV002 02/02 A3048 RMK AO2 SLP330 T00220022 58003=
202202061417 SPECI KBLI 061417Z AUTO 00000KT 1/4SM R16/1200V1600FT FG VV002 02/02 A3049 RMK AO2 T00170017=
202202061353 METAR KBLI 061353Z AUTO 00000KT 1/4SM R16/0800V1800FT FG VV001 01/01 A3048 RMK AO2 SLP332 T00110011=
202202061331 SPECI KBLI 061331Z AUTO 00000KT 1/4SM R16/1400V1800FT FG VV002 01/01 A3048 RMK AO2 T00110011=
202202061325 SPECI KBLI 061325Z AUTO 00000KT 1/4SM R16/1600V3000FT FG VV001 01/01 A3048 RMK AO2 T00060006=
202202061303 SPECI KBLI 061303Z AUTO 00000KT 1/4SM R16/1200V2200FT FG VV001 01/01 A3048 RMK AO2 T00110011=
202202061253 METAR KBLI 061253Z AUTO 00000KT 1/4SM R16/1000V2800FT FG VV001 01/01 A3049 RMK AO2 SLP333 T00060006=
202202061250 SPECI KBLI 061250Z AUTO 00000KT 1/4SM R16/1200V5000FT FG VV002 01/01 A3049 RMK AO2=
202202061247 SPECI KBLI 061247Z AUTO 00000KT 1/2SM R16/2200VP6000FT FG FEW001 BKN005 01/01 A3049 RMK AO2=
202202061244 SPECI KBLI 061244Z AUTO 00000KT 3/4SM R16/2200VP6000FT BR FEW001 SCT005 01/01 A3049 RMK AO2 T00110011=
202202061239 SPECI KBLI 061239Z AUTO 00000KT 1SM R16/3000VP6000FT BR VV004 02/02 A3049 RMK AO2 T00170017=
202202061228 SPECI KBLI 061228Z AUTO 00000KT 1/2SM R16/1800V3500FT FG VV004 02/02 A3049 RMK AO2 T00170017=
202202061221 SPECI KBLI 061221Z AUTO 00000KT 1/4SM R16/1400V2200FT FG VV003 03/03 A3048 RMK AO2 PRESRR T00280028=
202202061203 SPECI KBLI 061203Z AUTO 10005KT 1/4SM R16/2200VP6000FT FG VV003 02/02 A3046 RMK AO2 PRESFR T00220022=
202202061157 SPECI KBLI 061157Z AUTO 00000KT 3/4SM R16/2800VP6000FT BR VV002 02/02 A3047 RMK AO2 T00220022=
202202061153 METAR KBLI 061153Z AUTO 00000KT 1 3/4SM R16/3000VP6000FT BR FEW002 03/03 A3049 RMK AO2 SLP333 T00280028 10056 20022 58010=
202202061141 SPECI KBLI 061141Z AUTO 01003KT 1 1/4SM R16/3500VP6000FT BR SCT002 03/03 A3049 RMK AO2 T00280028=
202202061137 SPECI KBLI 061137Z AUTO 35003KT 3/4SM R16/2000VP6000FT BR VV002 03/03 A3049 RMK AO2 T00280028=
202202061125 SPECI KBLI 061125Z AUTO 00000KT 1/4SM R16/1600V2600FT FG VV002 03/03 A3048 RMK AO2 T00280028=
202202061119 SPECI KBLI 061119Z AUTO 00000KT 1/4SM R16/1600V2000FT FG VV001 03/03 A3048 RMK AO2 T00330033=
202202061101 SPECI KBLI 061101Z AUTO 00000KT 1/4SM R16/2000V3500FT FG OVC002 03/03 A3049 RMK AO2 T00330033=
202202061053 METAR KBLI 061053Z AUTO 00000KT 3/4SM R16/3000VP6000FT BR OVC002 04/04 A3049 RMK AO2 SLP332 T00390039=
202202061034 SPECI KBLI 061034Z AUTO 00000KT 3/4SM R16/4000VP6000FT BR VV002 03/03 A3051 RMK AO2 T00330033=
202202061026 SPECI KBLI 061026Z AUTO 05003KT 1SM R16/P6000FT BR VV004 03/03 A3051 RMK AO2 T00330033=
202202061006 SPECI KBLI 061006Z AUTO 00000KT 3/4SM R16/4500VP6000FT BR VV004 03/03 A3052 RMK AO2 T00330033=
202202060956 SPECI KBLI 060956Z AUTO 01004KT 1 1/4SM BR FEW003 03/03 A3052 RMK AO2 T00330033=
202202060953 METAR KBLI 060953Z AUTO 01004KT 3/4SM R16/2600VP6000FT BR VV003 03/03 A3052 RMK AO2 SLP344 T00330033=
202202060944 SPECI KBLI 060944Z AUTO 34003KT 1/2SM R16/2600VP6000FT FG VV003 03/03 A3052 RMK AO2 T00330033=
202202060915 SPECI KBLI 060915Z AUTO 00000KT 3/4SM R16/3000VP6000FT BR VV002 04/04 A3052 RMK AO2 T00390039=
202202060907 SPECI KBLI 060907Z AUTO 01003KT 1SM R16/3500VP6000FT BR FEW001 SCT006 03/03 A3051 RMK AO2 T00330033=
202202060858 SPECI KBLI 060858Z AUTO 35003KT 3/4SM R16/3500VP6000FT BR FEW001 SCT007 04/04 A3052 RMK AO2 T00390039=
202202060853 METAR KBLI 060853Z AUTO 01003KT 1/2SM R16/P6000FT FG FEW001 BKN007 03/03 A3052 RMK AO2 SLP343 T00280028 58014=
202202060846 SPECI KBLI 060846Z AUTO 03004KT 3/4SM R16/P6000FT BR VV007 03/03 A3051 RMK AO2 T00330033=
202202060836 SPECI KBLI 060836Z AUTO 05003KT 1/4SM R16/P6000FT FG VV008 03/03 A3052 RMK AO2 T00280028=
202202060828 SPECI KBLI 060828Z AUTO 03003KT 1/2SM R16/4000VP6000FT FG VV009 03/03 A3052 RMK AO2 T00280028=
202202060805 SPECI KBLI 060805Z AUTO 00000KT 1/2SM R16/3000VP6000FT FG CLR 03/03 A3054 RMK AO2 T00330033=
202202060800 SPECI KBLI 060800Z AUTO 00000KT 1 1/4SM BR CLR 03/03 A3054 RMK AO2 T00330033=
202202060753 METAR KBLI 060753Z AUTO 00000KT 2SM BR CLR 03/03 A3054 RMK AO2 SLP350 T00280028 400890028=
202202060750 SPECI KBLI 060750Z AUTO 00000KT 2SM BR CLR 03/03 A3054 RMK AO2=
202202060733 SPECI KBLI 060733Z AUTO 00000KT 1SM R16/P6000FT BR CLR 03/03 A3054 RMK AO2 T00280028=
202202060722 SPECI KBLI 060722Z AUTO 00000KT 1/2SM R16/P6000FT FG CLR 03/03 A3054 RMK AO2 T00330033=
202202060717 SPECI KBLI 060717Z AUTO 00000KT 1 1/2SM BR CLR 03/03 A3055 RMK AO2 T00330033=
202202060710 SPECI KBLI 060710Z AUTO 00000KT 3SM BR CLR 04/04 A3055 RMK AO2 T00390039=
202202060705 SPECI KBLI 060705Z AUTO 00000KT 1 1/2SM BR CLR 04/04 A3055 RMK AO2 T00440044=
202202060653 METAR KBLI 060653Z AUTO 00000KT 2 1/2SM BR CLR 04/04 A3056 RMK AO2 VIS 1 3/4V4 SLP356 T00390039=
202202060651 SPECI KBLI 060651Z AUTO 00000KT 2 1/2SM BR CLR 04/04 A3056 RMK AO2=
202202060632 SPECI KBLI 060632Z AUTO 00000KT 4SM BR CLR 04/04 A3056 RMK AO2 T00440044=
202202060624 SPECI KBLI 060624Z AUTO 00000KT 2 1/2SM BR CLR 04/04 A3056 RMK AO2 VIS 1 1/4V5 T00390039=
202202060553 METAR KBLI 060553Z 00000KT 10SM CLR 06/06 A3057 RMK AO2 SLP360 T00560056 10083 20050 57010=
202202060453 METAR KBLI 060453Z 00000KT 10SM BKN027 06/06 A3058 RMK AO2 SLP364 T00610056=
202202060353 METAR KBLI 060353Z 00000KT 10SM OVC028 06/06 A3059 RMK AO2 SLP365 T00610056=
202202060253 METAR KBLI 060253Z 00000KT 10SM SCT023 OVC028 06/06 A3060 RMK AO2 SLP369 T00560056 58001=
202202060153 METAR KBLI 060153Z 00000KT 10SM BKN022 07/06 A3060 RMK AO2 SLP372 T00670061=
202202060053 METAR KBLI 060053Z 00000KT 10SM SCT022 08/06 A3060 RMK AO2 SLP370 T00780061=
202202052353 METAR KBLI 052353Z 23003KT 10SM FEW020 08/06 A3060 RMK AO2 SLP371 T00780061 10089 20072 53001=
202202052253 METAR KBLI 052253Z 23003KT 10SM CLR 08/06 A3059 RMK AO2 SLP368 T00830056=
202202052153 METAR KBLI 052153Z 17003KT 10SM CLR 09/06 A3059 RMK AO2 SLP366 T00890056=
202202052053 METAR KBLI 052053Z 17003KT 10SM CLR 08/06 A3060 RMK AO2 SLP369 T00830061 50005=
202202051953 METAR KBLI 051953Z VRB03KT 10SM CLR 08/06 A3060 RMK AO2 SLP371 T00780061=
202202051853 METAR KBLI 051853Z 19005KT 10SM CLR 07/06 A3061 RMK AO2 SLP373 T00720061=
202202051753 METAR KBLI 051753Z 21004KT 10SM SCT055 07/06 A3058 RMK AO2 SLP364 T00720056 10072 20056 51008=
202202051653 METAR KBLI 051653Z 17003KT 10SM BKN055 07/06 A3058 RMK AO2 SLP363 T00670056=
202202051553 METAR KBLI 051553Z 17003KT 10SM OVC065 06/05 A3056 RMK AO2 SLP357 T00610050=
202202051453 METAR KBLI 051453Z 20004KT 10SM BKN050 OVC065 07/06 A3056 RMK AO2 SLP356 T00670056 53016=
202202051353 METAR KBLI 051353Z AUTO 00000KT 10SM OVC060 06/06 A3053 RMK AO2 SLP345 T00610056=
202202051253 METAR KBLI 051253Z AUTO 17003KT 10SM FEW060 OVC070 07/06 A3051 RMK AO2 SLP341 T00670056=
202202051153 METAR KBLI 051153Z AUTO 17003KT 10SM OVC043 06/06 A3051 RMK AO2 SLP340 70005 T00610056 10078 20056 53018=
202202051053 METAR KBLI 051053Z AUTO 00000KT 10SM SCT035 BKN050 OVC075 07/06 A3048 RMK AO2 SLP331 T00670056=
202202050953 METAR KBLI 050953Z AUTO 19004KT 10SM BKN034 OVC043 07/06 A3047 RMK AO2 SLP327 T00720056=
202202050853 METAR KBLI 050853Z AUTO 18008KT 10SM OVC080 07/06 A3046 RMK AO2 SLP322 T00720056 53028=
202202050753 METAR KBLI 050753Z AUTO 18007KT 10SM OVC085 07/06 A3043 RMK AO2 SLP313 T00720056 400890033=
202202050653 METAR KBLI 050653Z AUTO 18008KT 10SM BKN050 BKN095 07/06 A3040 RMK AO2 SLP301 T00720056=
202202050553 METAR KBLI 050553Z 18006G14KT 10SM BKN055 08/06 A3037 RMK AO2 SLP294 T00780056 10089 20078 53036=
202202050453 METAR KBLI 050453Z 19008KT 10SM SCT055 08/06 A3033 RMK AO2 SLP280 T00780056=
202202050353 METAR KBLI 050353Z 20007G19KT 10SM BKN090 09/05 A3031 RMK AO2 SLP271 T00890050=
202202050253 METAR KBLI 050253Z 19011G21KT 10SM FEW025 SCT070 OVC090 09/06 A3027 RMK AO2 SLP257 T00890061 53013=
202202050153 METAR KBLI 050153Z 17015G23KT 10SM SCT021 BKN026 OVC033 08/07 A3025 RMK AO2 PK WND 16026/0055 SLP251 T00830067=
202202050053 METAR KBLI 050053Z 17014G25KT 10SM OVC024 09/06 A3024 RMK AO2 SLP248 T00890061=
202202042353 METAR KBLI 042353Z 19012G26KT 10SM BKN027 OVC035 08/06 A3023 RMK AO2 PK WND 19026/2352 SLP244 60000 T00830056 10083 20072 56007=
202202042253 METAR KBLI 042253Z 16011G19KT 10SM SCT020 BKN027 OVC037 08/06 A3024 RMK AO2 RAE00 SLP248 P0000 T00830061=
202202042153 METAR KBLI 042153Z 17015G27KT 8SM -RA BKN025 OVC046 08/06 A3024 RMK AO2 PK WND 14028/2119 RAB16 SLP248 P0000 T00780061=
202202042127 SPECI KBLI 042127Z 17015G28KT 6SM -RA BKN021 BKN027 OVC050 08/06 A3025 RMK AO2 PK WND 14028/2119 RAB16 P0000 T00830056=
202202042053 METAR KBLI 042053Z 16016G27KT 10SM SCT021 OVC055 08/05 A3025 RMK AO2 PK WND 16030/2026 RAE45 SLP252 P0000 60000 T00830050 56011=
202202041953 METAR KBLI 041953Z 18012G21KT 10SM -RA SCT022 OVC055 08/05 A3026 RMK AO2 PK WND 17028/1906 RAB1858E09B41 SLP256 P0000 T00780050=
202202041853 METAR KBLI 041853Z 16017G25KT 10SM SCT025 SCT049 OVC070 08/05 A3026 RMK AO2 PK WND 15026/1833 SLP254 T00780050=
202202041753 METAR KBLI 041753Z 16014G22KT 10SM FEW010 SCT020 BKN055 07/05 A3028 RMK AO2 SLP264 60005 T00720050 10072 20033 58013=
202202041653 METAR KBLI 041653Z 18010G20KT 10SM FEW008 BKN017 OVC041 07/05 A3032 RMK AO2 SLP275 T00720050=
202202041553 METAR KBLI 041553Z 17009G17KT 10SM BKN015 OVC030 07/06 A3032 RMK AO2 RAE33 SLP277 P0002 T00670056=
202202041453 METAR KBLI 041453Z 17006KT 8SM -RA SCT018 OVC036 07/06 A3032 RMK AO2 RAB06 SLP276 P0003 60003 T00720056 56016=
202202041404 SPECI KBLI 041404Z AUTO 19005KT 9SM SCT016 BKN039 OVC050 06/06 A3033 RMK AO2 T00610056=
202202041353 METAR KBLI 041353Z AUTO 00000KT 5SM BR BKN016 BKN039 OVC060 04/04 A3033 RMK AO2 SLP280 T00390039=
202202041338 SPECI KBLI 041338Z AUTO 00000KT 4SM BR BKN017 OVC037 04/04 A3033 RMK AO2 T00390039=
202202041326 SPECI KBLI 041326Z AUTO 00000KT 3SM BR SCT017 OVC037 04/04 A3033 RMK AO2 T00390039=
202202041253 METAR KBLI 041253Z AUTO 00000KT 4SM BR OVC018 04/04 A3035 RMK AO2 SLP288 T00390039=
202202041201 SPECI KBLI 041201Z AUTO 04003KT 3SM BR BKN021 OVC037 03/03 A3037 RMK AO2 T00330033=
202202041153 METAR KBLI 041153Z AUTO 03003KT 3SM BR SCT022 OVC037 03/03 A3037 RMK AO2 SLP293 70026 T00330033 10044 20033 57013=
202202041139 SPECI KBLI 041139Z AUTO 04003KT 3SM BR FEW022 OVC037 03/03 A3037 RMK AO2 T00330033=
202202041053 METAR KBLI 041053Z AUTO 32003KT 6SM BR OVC022 04/04 A3039 RMK AO2 SLP301 T00390039=
202202041002 SPECI KBLI 041002Z AUTO 00000KT 3SM BR OVC023 04/04 A3038 RMK AO2 T00390039=
202202040953 METAR KBLI 040953Z AUTO 36003KT 2SM BR OVC020 04/04 A3038 RMK AO2 SLP298 T00390039=
202202040939 SPECI KBLI 040939Z AUTO 00000KT 1SM R16/P6000FT BR OVC020 04/04 A3039 RMK AO2 T00390039=
202202040921 SPECI KBLI 040921Z AUTO 31003KT 2 1/2SM BR OVC018 04/04 A3040 RMK AO2 T00440044=
202202040853 METAR KBLI 040853Z AUTO 00000KT 3SM BR OVC020 04/04 A3041 RMK AO2 SLP306 T00440044 58016=
202202040838 SPECI KBLI 040838Z AUTO 00000KT 3SM BR SCT014 OVC020 04/04 A3042 RMK AO2 T00440044=
202202040820 SPECI KBLI 040820Z AUTO 00000KT 2 1/2SM BR OVC013 04/04 A3043 RMK AO2 T00440044=
202202040801 SPECI KBLI 040801Z AUTO 00000KT 3SM BR OVC012 04/04 A3044 RMK AO2 T00440044=
202202040753 METAR KBLI 040753Z AUTO 00000KT 2 1/2SM BR OVC012 04/04 A3044 RMK AO2 SLP318 T00440044 400500006=
202202040737 SPECI KBLI 040737Z AUTO 00000KT 1 1/2SM BR OVC012 04/04 A3044 RMK AO2 T00440044=
202202040726 SPECI KBLI 040726Z AUTO 00000KT 2SM BR FEW006 OVC011 04/04 A3044 RMK AO2 T00440044=
202202040712 SPECI KBLI 040712Z AUTO 00000KT 1 1/2SM BR SCT006 OVC011 04/04 A3045 RMK AO2 T00440044=
202202040653 METAR KBLI 040653Z AUTO 00000KT 1 1/2SM BR BKN006 OVC013 04/04 A3045 RMK AO2 SLP321 T00390039=
202202040630 SPECI KBLI 040630Z AUTO 00000KT 1 3/4SM BR SCT008 OVC014 04/04 A3046 RMK AO2 T00390039=
202202040625 SPECI KBLI 040625Z AUTO 00000KT 2SM BR SCT010 OVC014 04/04 A3045 RMK AO2 T00390039=
202202040553 METAR KBLI 040553Z 00000KT 5SM BCFG BR OVC016 04/04 A3045 RMK AO2 SLP322 60001 T00390039 10050 20039 53005=
202202040539 SPECI KBLI 040539Z 00000KT 5SM BR OVC016 04/04 A3045 RMK AO2 T00390039=
202202040453 METAR KBLI 040453Z 00000KT 2SM BR SCT003 BKN018 OVC026 04/04 A3044 RMK AO2 SLP318 T00390039=
202202040353 METAR KBLI 040353Z 36003KT 2SM BR SCT002 BKN015 OVC033 04/04 A3044 RMK AO2 SLP316 T00390039=
202202040253 METAR KBLI 040253Z 00000KT 2SM BR SCT002 BKN018 OVC029 04/04 A3044 RMK AO2 SLP317 CIGS & VSBY LWR NW-NE. 60001 T00440044 53008=
202202040153 METAR KBLI 040153Z 00000KT 3/4SM R16/P6000FT BR BKN001 BKN013 OVC021 04/04 A3043 RMK AO2 SLP314 T00440044=
202202040053 METAR KBLI 040053Z 00000KT 3/4SM R16/P6000FT BR BKN001 BKN013 OVC021 05/05 A3042 RMK AO2 RAE39 SLP310 VSBY HIGHER SE-SW. P0001 T00500050=
202202032353 METAR KBLI 032353Z 01003KT 1/2SM R16/5500VP6000FT -RA FG OVC003 05/05 A3042 RMK AO2 SLP309 P0002 60014 T00500050 10050 20022 50001=
202202032253 METAR KBLI 032253Z 01004KT 1/2SM R16/5000V6000FT -RA FG OVC003 04/04 A3042 RMK AO2 RAB2156 SLP310 P0004 T00440044=
202202032153 METAR KBLI 032153Z 03006KT 1/2SM R16/P6000FT FG OVC003 04/04 A3042 RMK AO2 RAE20 CIG 002V006 SLP310 P0001 T00440044=
202202032053 METAR KBLI 032053Z 03003KT 1/2SM R16/6000VP6000FT -RA FG OVC003 04/04 A3041 RMK AO2 SLP308 P0002 60007 T00440044 50007=
202202032011 SPECI KBLI 032011Z 03005KT 1/2SM R16/5000V5500FT -RA FG OVC002 03/03 A3042 RMK AO2 P0001 T00330033=
202202031953 METAR KBLI 031953Z 34004KT 3/4SM R16/P6000FT -RA BR OVC003 03/03 A3042 RMK AO2 SLP310 P0002 T00330033=
202202031934 SPECI KBLI 031934Z 34004KT 3/4SM R16/P6000FT -RA BR OVC003 03/03 A3042 RMK AO2 P0002 T00330033=
202202031853 METAR KBLI 031853Z 36003KT 1SM R16/P6000FT -RA BR OVC003 03/03 A3040 RMK AO2 SLP304 P0003 T00330033=
202202031829 SPECI KBLI 031829Z 05003KT 3/4SM R16/P6000FT -RA BR OVC003 03/03 A3040 RMK AO2 P0002 T00280028=
202202031753 METAR KBLI 031753Z 03003KT 3/4SM R16/P6000FT -RA BR OVC006 02/02 A3039 RMK AO2 SLP300 P0003 60011 T00220022 10022 20011 53018=
202202031653 METAR KBLI 031653Z 02004KT 3/4SM R16/P6000FT -RA BR OVC004 02/02 A3037 RMK AO2 CIG 002V008 SLP294 P0002 T00170017=
202202031553 METAR KBLI 031553Z 35005KT 3/4SM R16/P6000FT -RA BR OVC003 02/02 A3035 RMK AO2 CIG 002V006 SLP287 P0004 T00170017=
202202031453 METAR KBLI 031453Z 02003KT 1SM R16/P6000FT -RA BR OVC003 02/02 A3034 RMK AO2 UPB06E10RAB10 SLP284 P0001 60002 T00170017 51008=
202202031353 METAR KBLI 031353Z AUTO 00000KT 1 1/2SM BR OVC002 02/02 A3033 RMK AO2 SLP280 T00170017=
202202031253 METAR KBLI 031253Z AUTO 01003KT 1 3/4SM BR OVC003 01/01 A3033 RMK AO2 UPB34E52RAB38E53 SLP280 P0001 T00110011=
202202031153 METAR KBLI 031153Z AUTO 00000KT 1 1/2SM BR OVC003 01/01 A3031 RMK AO2 SLP276 60000 70001 T00110011 10011 20006 53003=
202202031053 METAR KBLI 031053Z AUTO 03003KT 1 1/2SM BR OVC003 01/01 A3031 RMK AO2 CIG 002V006 SLP275 T00110011=
202202030953 METAR KBLI 030953Z AUTO 03003KT 1 1/4SM BR OVC003 01/01 A3031 RMK AO2 UPB13E26 SLP273 P0000 T00060006=
202202030936 SPECI KBLI 030936Z AUTO 02003KT 1 1/2SM BR BKN004 OVC009 01/01 A3030 RMK AO2 UPB13E26 P0000 T00060006=
202202030919 SPECI KBLI 030919Z AUTO 1 1/4SM UP BR OVC008 01/01 A3031 RMK AO2 UPB13 CIG 004V011 P0000 T00060006=
202202030912 SPECI KBLI 030912Z AUTO 01003KT 2SM BR OVC010 01/01 A3031 RMK AO2 CIG 004V011 T00110011=
202202030853 METAR KBLI 030853Z AUTO 02004KT 3SM BR OVC010 01/01 A3031 RMK AO2 SLP273 60000 T00060006 51002=
202202030833 SPECI KBLI 030833Z AUTO 02005KT 2 1/2SM BR SCT005 OVC010 01/01 A3031 RMK AO2 T00060006=
202202030822 SPECI KBLI 030822Z AUTO 02004KT 2SM BR BKN004 OVC009 01/01 A3031 RMK AO2 CIG 002V006 T00060006=
202202030815 SPECI KBLI 030815Z AUTO 02004KT 1 3/4SM BR BKN003 OVC009 01/01 A3031 RMK AO2 CIG 002V006 T00060006=
202202030753 METAR KBLI 030753Z AUTO 02003KT 1 3/4SM BR OVC008 01/01 A3031 RMK AO2 RAB31E49 SLP274 P0000 T00060006 400221022=
202202030653 METAR KBLI 030653Z AUTO 1 3/4SM BR OVC007 01/01 A3030 RMK AO2 CIG 005V010 SLP271 T00060006=
202202030643 SPECI KBLI 030643Z AUTO 01003KT 1 3/4SM BR BKN007 OVC011 01/01 A3030 RMK AO2 CIG 005V009 T00060006=
202202030633 SPECI KBLI 030633Z AUTO 2SM BR OVC007 01/01 A3030 RMK AO2 CIG 003V010 T00060006=
202202030626 SPECI KBLI 030626Z AUTO 02003KT 1 3/4SM BR OVC008 01/01 A3030 RMK AO2 CIG 006V011 T00060006=
202202030553 METAR KBLI 030553Z 04004KT 3/4SM R16/P6000FT BR BKN004 OVC008 01/01 A3029 RMK AO2 SLP268 60001 I6003 T00060006 10006 20000 51007=
202202030523 SPECI KBLI 030523Z 01005KT 3/4SM R16/P6000FT BR SCT004 OVC010 01/01 A3030 RMK AO2 T00060006=
202202030453 METAR KBLI 030453Z 02004KT 1SM R16/P6000FT BR SCT004 OVC010 01/01 A3029 RMK AO2 FZRAB00E33 SLP267 P0000 I1002 T00060006=
202202030439 SPECI KBLI 030439Z 02003KT 1SM R16/P6000FT BR FEW003 OVC010 01/01 A3029 RMK AO2 FZRAB00E33 P0000 I1002 T00060006=
202202030401 SPECI KBLI 030401Z 04005KT 1SM R16/P6000FT -FZRA BR FEW003 OVC012 01/01 A3029 RMK AO2 FZRAB00 P0000 I1000 T00060006=
202202030400 SPECI KBLI 030400Z 04006KT 2 1/2SM -FZRA BR FEW003 OVC012 01/01 A3029 RMK AO2 FZRAB00 P0000 I1000 T00060006=
202202030353 METAR KBLI 030353Z 02005KT 1SM R16/P6000FT BR FEW003 OVC012 00/00 A3029 RMK AO2 SLP267 I1001 T00000000=
202202030253 METAR KBLI 030253Z 36004KT 3/4SM R16/P6000FT BR SCT002 OVC012 00/00 A3027 RMK AO2 SNE50 SLP262 P0000 60001 I3000 T00000000 56010=
202202030153 METAR KBLI 030153Z 03003KT 1 1/2SM -SN BR FEW004 BKN016 OVC025 00/00 A3029 RMK AO2 UPB32E37SNE04B37 SLP266 P0000 I1000 T00000000=
202202030138 SPECI KBLI 030138Z 03004KT 1 1/2SM -SN BR BKN016 OVC036 00/00 A3029 RMK AO2 UPB32E37SNE04B37 P0000 I1000 T00000000=
202202030053 METAR KBLI 030053Z 04005KT 3/4SM R16/P6000FT -SN BR FEW006 BKN014 OVC030 00/00 A3029 RMK AO2 SNE25B42 SLP267 P0001 T00000000=
202202030023 SPECI KBLI 030023Z 02003KT 3/4SM R16/P6000FT -SN BR FEW006 BKN010 OVC030 00/00 A3030 RMK AO2 P0001 T00000000=
202202022353 METAR KBLI 022353Z 01003KT 3/4SM R16/P6000FT -SN BR BKN017 OVC022 00/M01 A3030 RMK AO2 SLP272 P0000 60000 T00001006 10022 20000 56014=
202202022341 SPECI KBLI 022341Z 36004KT 1 1/2SM -SN BR OVC021 00/M01 A3030 RMK AO2 P0000 T00001011=
202202022338 SPECI KBLI 022338Z 02004KT 2SM -SN BR OVC021 00/M01 A3031 RMK AO2 P0000 T00001011=
202202022253 METAR KBLI 022253Z 35006KT 5SM -SN OVC032 01/M02 A3031 RMK AO2 UPB40E41SNB01E15B41 SLP274 P0000 T00061022=
202202022153 METAR KBLI 022153Z 02006KT 10SM FEW010 OVC070 02/M02 A3032 RMK AO2 SLP276 T00171017=
202202022053 METAR KBLI 022053Z 03004KT 10SM SCT027 SCT040 OVC065 02/M02 A3034 RMK AO2 SLP285 T00171022 58009=
202202021958 SPECI KBLI 021958Z 03005KT 10SM FEW027 SCT040 BKN060 01/M02 A3036 RMK AO2 T00111022=
202202021953 METAR KBLI 021953Z 04004KT 10SM OVC027 01/M02 A3035 RMK AO2 SLP289 T00111022=
202202021853 METAR KBLI 021853Z 04004KT 10SM SCT027 BKN039 OVC046 01/M01 A3037 RMK AO2 SLP294 T00111006=
202202021847 SPECI KBLI 021847Z 00000KT 10SM SCT027 BKN039 OVC046 01/M01 A3037 RMK AO2=
202202021753 METAR KBLI 021753Z 00000KT 10SM SCT038 OVC055 01/M02 A3037 RMK AO2 SLP295 T00061022 10006 21011 58009=
202202021653 METAR KBLI 021653Z 00000KT 10SM SCT030 BKN060 BKN090 00/M02 A3038 RMK AO2 SLP297 T00001017=
202202021553 METAR KBLI 021553Z 00000KT 10SM SCT035 OVC090 00/M03 A3039 RMK AO2 SLP302 T00001033=
202202021453 METAR KBLI 021453Z 10SM SCT027 BKN095 00/M03 A3040 RMK AO2 SLP303 T00001028 55004=
202202021353 METAR KBLI 021353Z AUTO 03004KT 10SM OVC100 00/M01 A3039 RMK AO2 SLP300 T00001011=
202202021253 METAR KBLI 021253Z AUTO 06003KT 10SM OVC100 M01/M01 A3040 RMK AO2 SLP304 T10061011=
202202021225 SPECI KBLI 021225Z AUTO 03003KT 10SM SCT009 OVC120 M01/M01 A3040 RMK AO2 T10061011=
202202021210 SPECI KBLI 021210Z AUTO 02003KT 10SM BKN009 OVC120 M01/M01 A3041 RMK AO2 T10061011=
202202021203 SPECI KBLI 021203Z AUTO 00000KT 10SM BKN010 OVC120 M01/M01 A3041 RMK AO2 T10061011=
202202021153 METAR KBLI 021153Z AUTO 00000KT 10SM SCT010 OVC120 M01/M02 A3041 RMK AO2 SLP306 70003 T10111017 10006 21022 51007=
202202021053 METAR KBLI 021053Z AUTO 02003KT 10SM CLR M01/M02 A3040 RMK AO2 SLP305 T10111022=
202202020953 METAR KBLI 020953Z AUTO 00000KT 10SM CLR M02/M03 A3040 RMK AO2 SLP302 T10171028=
202202020853 METAR KBLI 020853Z AUTO 00000KT 10SM CLR 00/M02 A3038 RMK AO2 SLP299 T00001022 53002=
202202020753 METAR KBLI 020753Z AUTO 02005KT 10SM CLR 00/M02 A3038 RMK AO2 SLP297 T00001022 400671011=
202202020653 METAR KBLI 020653Z AUTO 05006KT 10SM CLR 01/M01 A3038 RMK AO2 SLP297 T00061011=
202202020553 METAR KBLI 020553Z 04008KT 10SM SCT022 BKN030 BKN034 01/00 A3038 RMK AO2 SLP297 T00060000 10050 21011 53014=
202202020542 SPECI KBLI 020542Z 01006KT 10SM BKN022 BKN027 BKN034 M01/M01 A3037 RMK AO2 T10061006=
202202020453 METAR KBLI 020453Z 00000KT 10SM CLR 00/00 A3036 RMK AO2 SLP290 T00000000=
202202020353 METAR KBLI 020353Z 00000KT 10SM SCT029 SCT034 M01/M01 A3034 RMK AO2 SLP284 T10061006=
202202020253 METAR KBLI 020253Z 00000KT 10SM SCT033 M01/M01 A3034 RMK AO2 SLP283 T10061006 53008=
202202020153 METAR KBLI 020153Z 00000KT 10SM SCT035 01/01 A3033 RMK AO2 SLP279 T00110006=
202202020053 METAR KBLI 020053Z 00000KT 10SM FEW038 03/01 A3032 RMK AO2 SLP275 T00280006=
202202012353 METAR KBLI 012353Z 28003KT 10SM FEW045 05/00 A3032 RMK AO2 SLP275 T00500000 10067 20044 55001=
202202012253 METAR KBLI 012253Z 30004KT 10SM FEW039 06/00 A3031 RMK AO2 SLP274 T00560000=
202202012153 METAR KBLI 012153Z 28005KT 10SM SCT030 BKN060 06/01 A3032 RMK AO2 SLP275 T00610006=
202202012053 METAR KBLI 012053Z 32007KT 10SM FEW023 06/02 A3032 RMK AO2 SLP276 T00560017 58001=
202202011953 METAR KBLI 011953Z 29006KT 10SM FEW040 05/01 A3033 RMK AO2 SLP279 T00500006=
202202011853 METAR KBLI 011853Z 31005KT 10SM SCT022 BKN060 05/02 A3033 RMK AO2 SLP280 T00500017=
202202011753 METAR KBLI 011753Z 29005KT 10SM FEW050 04/01 A3032 RMK AO2 SLP277 60003 T00440011 10044 20011 53005=
202202011653 METAR KBLI 011653Z 00000KT 10SM FEW046 SCT055 03/01 A3031 RMK AO2 RAE30 SLP274 P0003 T00280011=
202202011557 SPECI KBLI 011557Z 00000KT 10SM -RA FEW025 SCT033 BKN055 03/02 A3031 RMK AO2 P0000 T00330017=
202202011553 METAR KBLI 011553Z 00000KT 6SM -RA BR FEW025 SCT033 BKN055 03/02 A3031 RMK AO2 RAB36 SLP273 P0000 T00330017=
202202011453 METAR KBLI 011453Z 00000KT 10SM FEW026 SCT044 BKN055 03/01 A3031 RMK AO2 SLP272 T00330011 56000=
202202011353 METAR KBLI 011353Z AUTO VRB03KT 10SM FEW021 BKN060 03/02 A3031 RMK AO2 SLP272 T00330022=
202202011253 METAR KBLI 011253Z AUTO 19003KT 10SM OVC065 02/02 A3030 RMK AO2 SLP271 T00170017=
202202011153 METAR KBLI 011153Z AUTO 18003KT 10SM BKN036 BKN050 OVC065 02/02 A3031 RMK AO2 SLP272 60009 70009 T00220022 10044 20011 55000=
202202011053 METAR KBLI 011053Z AUTO 00000KT 10SM BKN038 02/02 A3031 RMK AO2 RAE39 SLP272 P0008 T00170017=
202202011045 SPECI KBLI 011045Z AUTO 16003KT 10SM FEW029 BKN038 02/02 A3030 RMK AO2 RAE39 P0008 T00220022=
202202011038 SPECI KBLI 011038Z AUTO 16004KT 10SM -RA FEW014 BKN027 OVC039 03/03 A3030 RMK AO2 P0008 T00280028=
202202011031 SPECI KBLI 011031Z AUTO 17004KT 8SM -RA FEW014 SCT021 OVC037 03/03 A3031 RMK AO2 P0008 T00330028=
202202011022 SPECI KBLI 011022Z AUTO VRB05KT 2SM RA BR SCT014 BKN018 OVC035 03/03 A3031 RMK AO2 P0008 T00330028=
202202011019 SPECI KBLI 011019Z AUTO VRB06KT 2SM RA BR OVC014 03/03 A3031 RMK AO2 P0007 T00330028=
202202011003 SPECI KBLI 011003Z AUTO 31003KT 8SM -RA BKN012 BKN021 OVC034 02/02 A3031 RMK AO2 P0001 T00220022=
202202010953 METAR KBLI 010953Z AUTO 00000KT 10SM -RA FEW016 SCT027 OVC032 02/02 A3031 RMK AO2 RAB28UPB29E31 SLP272 P0001 T00170017=
202202010853 METAR KBLI 010853Z AUTO 17003KT 10SM FEW038 SCT045 OVC075 03/01 A3031 RMK AO2 SLP272 T00280011 50002=
202202010753 METAR KBLI 010753Z AUTO 15003KT 10SM FEW031 BKN037 OVC075 04/02 A3033 RMK AO2 SLP279 T00390017 400780006=
202202010653 METAR KBLI 010653Z AUTO 20003KT 10SM FEW032 OVC060 04/02 A3032 RMK AO2 SLP277 T00440022=
202202010553 METAR KBLI 010553Z 19004KT 10SM BKN060 01/01 A3030 RMK AO2 SLP271 T00110006 10072 20006 50001=
202202010453 METAR KBLI 010453Z 00000KT 10SM FEW060 01/00 A3031 RMK AO2 SLP273 T00110000=
202202010353 METAR KBLI 010353Z 15004KT 10SM FEW060 02/01 A3030 RMK AO2 SLP271 T00170006=
202202010253 METAR KBLI 010253Z 00000KT 10SM SCT055 02/01 A3030 RMK AO2 SLP270 T00170011 51014=
202202010153 METAR KBLI 010153Z 18003KT 10SM SCT065 02/01 A3030 RMK AO2 SLP268 T00170006=
202202010053 METAR KBLI 010053Z 00000KT 10SM CLR 06/01 A3028 RMK AO2 SLP262 T00560006=

# No short TAF reports from KBLI in databse.

###################################
#  large TAF from KBLI
###################################
202202282326 TAF KBLI 282326Z 0100/0124 05005KT 5SM -RA BR OVC025 FM010600 17008KT
                       P6SM -SHRA OVC020 FM011800 17006KT P6SM
                       SCT025 OVC035=
202202281734 TAF KBLI 281734Z 2818/0118 12005KT 5SM -RA BKN030 OVC040 FM282000
                       15008KT 2SM -RA BR OVC015 FM010600 17008KT
                       P6SM -SHRA OVC015=
202202281120 TAF KBLI 281120Z 2812/0112 15008KT P6SM BKN017 OVC060 FM281300
                       17009G17KT 6SM -RA OVC040 FM281700 16008G16KT
                       2SM -RA BKN025 OVC040=
202202280520 TAF KBLI 280520Z 2806/0106 15012G22KT P6SM -RA BKN025 OVC040 FM281800
                       18010KT P6SM SCT025 OVC040 FM010400 15012KT
                       P6SM -RA BKN025 OVC040=
202202272322 TAF KBLI 272322Z 2800/2824 17010KT P6SM OVC025 FM280100 14013G22KT
                       P6SM -RA OVC025 FM280400 18015G25KT P6SM
                       -RA OVC020 FM281000 12013G22KT 5SM -RA BR
                       OVC015 FM281600 VRB04KT 4SM -RA BR OVC015=
202202271724 TAF KBLI 271724Z 2718/2818 18012G21KT P6SM VCSH SCT010 BKN020 OVC040
                       FM272000 17010KT P6SM OVC025 FM280000 14013G22KT
                       P6SM -RA OVC025 FM280400 18015G25KT P6SM
                       -RA OVC020 FM281000 12013G22KT 5SM -RA BR
                       OVC015=
202202271127 TAF KBLI 271127Z 2712/2812 17015G25KT P6SM -SHRA BKN030 OVC080
                       FM271500 21012KT P6SM VCSH OVC030 FM271800
                       17008KT P6SM OVC035 FM280400 18012G25KT
                       P6SM -RA OVC020=
202202270908 KBLI 270908Z 2709/2806 16020G35KT P6SM -SHRA OVC030 FM271500 21012KT
                       P6SM -SHRA OVC030 FM271800 17008KT P6SM
                       OVC035 FM280000 18012G25KT P6SM OVC040=
202202270520 TAF KBLI 270520Z 2706/2806 VRB04KT P6SM -RA OVC040 FM270900 17017G30KT
                       5SM -RA BR OVC020 FM271500 21012KT P6SM
                       -RA OVC030 FM271800 17008KT P6SM OVC035
                       FM280000 18012G25KT P6SM OVC040=
202202270313 KBLI 270313Z 2703/2724 VRB04KT P6SM VCSH BKN060 OVC100 FM270400
                       16010G20KT P6SM -RA OVC050 FM270600 18017G30KT
                       5SM -RA BR OVC020 FM271500 16010KT P6SM
                       -RA OVC030=
202202262320 TAF KBLI 262320Z 2700/2724 VRB03KT P6SM VCSH BKN060 OVC100 FM270100
                       16013G22KT P6SM -RA OVC050 FM270500 18017G30KT
                       5SM -RA BR OVC020 FM271500 16010KT P6SM
                       -RA OVC030=
202202261720 TAF KBLI 261720Z 2618/2718 VRB03KT P6SM SCT150 BKN200 FM261900
                       14012KT P6SM BKN120 OVC200 FM262200 14015G25KT
                       P6SM VCSH BKN070 OVC100 FM270000 16017G30KT
                       P6SM -RA OVC050 FM270500 18017G30KT 5SM
                       -RA BR OVC020 FM271500 16010KT P6SM -RA
                       OVC030=
202202261126 TAF KBLI 261126Z 2612/2712 14012KT P6SM BKN120 OVC200 FM262200
                       14015G25KT P6SM VCSH BKN070 OVC100 FM270000
                       16017G30KT P6SM -RA OVC050 FM270500 18017G30KT
                       5SM -RA BR OVC020=
202202260520 TAF KBLI 260520Z 2606/2706 00000KT P6SM SCT250 FM261200 14012KT
                       P6SM BKN120 OVC200 FM262200 14015G25KT P6SM
                       BKN050 OVC100 FM270000 16017G27KT P6SM -RA
                       OVC035 FM270500 18017G27KT 5SM -RA BR OVC020=
202202252320 TAF KBLI 252320Z 2600/2624 04004KT P6SM SKC FM260800 VRB03KT P6SM
                       SCT250 FM261500 07006KT P6SM OVC100 FM262200
                       10008KT P6SM -RA OVC050=
202202251735 TAF KBLI 251735Z 2518/2618 VRB03KT P6SM SKC FM260800 VRB03KT P6SM
                       SCT250 FM261500 07006KT P6SM OVC100=
202202251129 TAF KBLI 251129Z 2512/2612 VRB03KT P6SM SKC FM260800 VRB03KT P6SM
                       SCT250=
202202250520 TAF KBLI 250520Z 2506/2606 VRB03KT P6SM SKC=
202202242326 TAF KBLI 242326Z 2500/2524 VRB03KT P6SM SKC=
202202241738 TAF KBLI 241738Z 2418/2518 02006KT P6SM SKC=
202202241121 TAF KBLI 241121Z 2412/2512 03005KT P6SM BKN040 FM241500 02006KT
                       P6SM SKC=
202202240644 KBLI 240644Z 2407/2506 02006KT 3SM -SN BKN012 OVC025 FM241100 02006KT
                       P6SM SCT030 BKN050 FM241600 02006KT P6SM
                       SKC=
202202240520 TAF KBLI 240520Z 2406/2506 VRB03KT P6SM OVC040 FM240800 02006KT
                       P6SM -SHSN OVC030 FM241100 02006KT P6SM
                       SCT030 BKN050 FM241600 02006KT P6SM SKC=
202202232339 TAF KBLI 232339Z 2400/2424 VRB03KT P6SM OVC090 FM240400 15006KT
                       P6SM OVC060 FM240700 02006KT P6SM -SHSN
                       BKN030 OVC050 FM241100 02006KT P6SM SCT030
                       BKN050 FM241500 02006KT P6SM SKC=
202202231737 TAF KBLI 231737Z 2318/2418 VRB03KT P6SM SKC FM240000 VRB03KT P6SM
                       BKN200 FM240400 14006KT P6SM BKN100 FM240900
                       02006KT P6SM -SHSN SCT025 OVC040=
202202231126 TAF KBLI 231126Z 2312/2412 03010G15KT P6SM SKC FM232100 04008KT
                       P6SM BKN100 FM240900 02004KT P6SM BKN050=
202202230520 TAF KBLI 230520Z 2306/2406 03020G40KT P6SM SKC FM231200 03008KT
                       P6SM SKC FM232100 04008KT P6SM BKN100=
202202222337 TAF KBLI 222337Z 2300/2324 03025G35KT P6SM SCT060 FM230500 03015G25KT
                       P6SM SKC FM230900 03008KT P6SM SKC FM232100
                       VRB03KT P6SM BKN100=
202202221740 TAF KBLI 221740Z 2218/2318 04025G45KT P6SM OVC060 FM222200 03025G35KT
                       P6SM BKN060 FM230200 03015G25KT P6SM SKC
                       FM230900 03008KT P6SM SKC=
202202221120 TAF KBLI 221120Z 2212/2312 04030G50KT P6SM OVC060 FM221900 03025G35KT
                       P6SM SKC FM230200 03015G25KT P6SM SKC FM230900
                       03015KT P6SM SKC=
202202220520 TAF KBLI 220520Z 2206/2306 04030G45KT P6SM SKC FM222100 03025G35KT
                       P6SM SKC FM230200 03015G25KT P6SM SKC=
202202212326 TAF KBLI 212326Z 2200/2224 02025G40KT P6SM SKC FM220300 02020G35KT
                       P6SM SKC=
202202211720 TAF KBLI 211720Z 2118/2218 02020G40KT P6SM BKN100 FM212200 02025G40KT
                       P6SM SCT250 FM220300 02020G35KT P6SM SKC=
202202211127 TAF KBLI 211127Z 2112/2212 05007KT 5SM -SHRA BR OVC020 FM211500
                       02012G20KT P6SM BKN050 FM212200 02021G30KT
                       P6SM SCT250=
202202210520 TAF KBLI 210520Z 2106/2206 VRB04KT P6SM VCSH SCT030 FM211300 02004KT
                       6SM -RA OVC020 FM211500 02015G25KT P6SM
                       BKN050 FM212200 02021G30KT P6SM SCT250=
202202202320 TAF KBLI 202320Z 2100/2124 30007G15KT P6SM SCT025 BKN040 FM210700
                       VRB04KT P6SM SCT021 BKN025 OVC040 FM211200
                       02004KT P6SM VCSH OVC025 FM211300 02007KT
                       P6SM OVC035 FM211800 02015G25KT P6SM FEW250=
202202202136 KBLI 202136Z 2022/2118 30010G18KT P6SM SCT021 BKN026 OVC040 FM210900
                       VRB05KT P6SM OVC025=
202202201725 TAF KBLI 201725Z 2018/2118 31005KT P6SM SCT021 BKN026 BKN040 FM202100
                       31008KT P6SM BKN040 FM210900 VRB05KT P6SM
                       OVC025=
202202201128 TAF KBLI 201128Z 2012/2112 27005KT P6SM VCSH OVC050 FM202100 31008KT
                       P6SM VCSH BKN040 FM210900 VRB05KT P6SM OVC025=
202202200520 TAF KBLI 200520Z 2006/2106 20006KT P6SM VCSH BKN025 OVC040 FM201100
                       15005KT P6SM -SHRA OVC020 FM201600 VRB05KT
                       P6SM BKN025 FM202100 33008KT P6SM BKN040
                       FM210500 VRB04KT P6SM BKN050=
202202192320 TAF KBLI 192320Z 2000/2024 18015G23KT P6SM -SHRA SCT010 BKN020
                       OVC040 FM200600 16006KT P6SM -SHRA OVC020
                       FM201200 11005KT P6SM -SHRA OVC020 FM201800
                       VRB05KT P6SM OVC025=
202202191726 TAF KBLI 191726Z 1918/2018 18011G19KT 5SM -SHRA BR FEW012 BKN022
                       OVC029 FM191900 19012G22KT 6SM -RA BR OVC020
                       FM200100 19009KT 6SM -SHRA BR SCT020 OVC035
                       FM200600 17005KT P6SM -SHRA OVC025 FM201200
                       12004KT 6SM -SHRA OVC015=
202202191123 TAF KBLI 191123Z 1912/2012 19006KT P6SM OVC030 FM191600 18010G18KT
                       P6SM -RA OVC020 FM191900 19012G22KT 6SM
                       -RA BR OVC020 FM200100 19009KT 6SM -SHRA
                       BR SCT020 OVC035 FM200600 17005KT P6SM -SHRA
                       OVC025=
202202190520 TAF KBLI 190520Z 1906/2006 VRB03KT P6SM SCT030 BKN200 FM190700
                       18006KT P6SM OVC022 FM191600 18010G18KT
                       P6SM -RA OVC018 FM191900 16014G22KT 6SM
                       RA BR OVC014 FM200000 24015G25KT 6SM -SHRA
                       BR OVC015=
202202182332 TAF KBLI 182332Z 1900/1924 18006KT P6SM BKN040 BKN200 FM190700
                       18006KT P6SM OVC022 FM191600 18010G18KT
                       P6SM -RA OVC018 FM191900 16014G22KT 6SM
                       -RA BR OVC014=
202202181729 TAF KBLI 181729Z 1818/1918 18006KT P6SM BKN035 BKN200 FM182100
                       18006KT P6SM SCT040 BKN200 FM190500 18006KT
                       P6SM OVC022 FM191600 18010G18KT P6SM -RA
                       OVC018=
202202181421 KBLI 181421Z 1814/1912 18006KT P6SM OVC022 FM182200 18006KT P6SM
                       SCT025 BKN040 FM190500 18006KT P6SM OVC015=
202202181142 TAF KBLI 181142Z 1812/1912 18006KT P6SM OVC015 FM181900 18006KT
                       P6SM OVC025 FM182200 18006KT P6SM SCT025
                       BKN040 FM190500 18006KT P6SM OVC015=
202202180520 TAF KBLI 180520Z 1806/1906 18008KT 2SM BR FEW019 OVC028 FM180700
                       17004KT 6SM BR OVC015 FM181200 18004KT P6SM
                       VCSH OVC009 FM181700 19003KT P6SM VCSH OVC015
                       FM182100 19005KT P6SM BKN020 OVC040 FM190400
                       18003KT P6SM OVC015=
202202172323 TAF KBLI 172323Z 1800/1824 18008KT P6SM OVC016 FM180700 17004KT
                       P6SM VCSH OVC015 FM182100 19005KT P6SM BKN025
                       BKN040=
202202171739 TAF KBLI 171739Z 1718/1818 18008G16KT P6SM OVC015 FM172200 18009KT
                       P6SM VCSH BKN020 FM180700 17005KT P6SM VCSH
                       OVC015=
202202171130 TAF KBLI 171130Z 1712/1812 18006KT P6SM OVC035 FM171800 18006KT
                       P6SM OVC020=
202202170520 TAF KBLI 170520Z 1706/1806 25002KT P6SM BKN050 FM171000 17003KT
                       P6SM OVC035 FM171500 17003KT P6SM OVC020
                       FM171800 18003KT 5SM BR OVC008 FM172300
                       20004KT P6SM OVC015=
202202162320 TAF KBLI 162320Z 1700/1724 VRB04KT P6SM FEW020 OVC030 FM170300
                       25002KT P6SM BKN045 FM170900 VRB03KT P6SM
                       OVC025 FM171200 18002KT P6SM OVC025 FM171800
                       18003KT P6SM OVC015=
202202161720 TAF KBLI 161720Z 1618/1718 00000KT P6SM FEW010 SCT030 FM162000
                       33005KT P6SM BKN045 FM170300 18002KT P6SM
                       BKN045 FM170900 VRB03KT P6SM OVC025=
202202161120 TAF KBLI 161120Z 1612/1712 00000KT P6SM BKN035 OVC045
                      TEMPO 1612/1616 BKN020 OVC035 FM162000 33005KT
                       P6SM BKN045 FM170900 VRB03KT P6SM OVC025=
202202160520 TAF KBLI 160520Z 1606/1706 19008G18KT P6SM SCT025 BKN050 OVC060
                       FM160900 VRB05KT P6SM OVC020 FM161700 35007KT
                       P6SM BKN035 FM170000 VRB03KT P6SM OVC050=
202202152320 TAF KBLI 152320Z 1600/1624 20003KT P6SM BKN017 BKN030 OVC040 FM160500
                       31003KT P6SM OVC015 FM161500 30003KT P6SM
                       OVC010=
202202151732 TAF KBLI 151732Z 1518/1618 00000KT 3SM BR OVC008 FM152300 28003KT
                       P6SM BKN030 OVC040 FM160500 VRB03KT P6SM
                       OVC015 FM161500 30003KT P6SM OVC010=
202202151404 KBLI 151404Z 1514/1612 00000KT P6SM BKN007 OVC020 FM151800 VRB03KT
                       P6SM SCT010 OVC025 FM152300 28003KT P6SM
                       BKN030 OVC040 FM160500 VRB03KT P6SM OVC015=
202202151122 TAF KBLI 151122Z 1512/1612 17003KT P6SM OVC025 FM152300 28003KT
                       P6SM BKN030 OVC040 FM160500 VRB03KT P6SM
                       OVC015=
202202150520 TAF KBLI 150520Z 1506/1606 00000KT P6SM OVC025 FM151200 00000KT
                       P6SM OVC020 FM160000 VRB03KT P6SM OVC015=
202202142320 TAF KBLI 142320Z 1500/1524 30005KT P6SM -RA FEW015 SCT020 OVC035
                       FM150300 00000KT P6SM BKN035 FM151200 VRB03KT
                       6SM BR OVC025=
202202141723 TAF KBLI 141723Z 1418/1518 17007KT 5SM -RA BR SCT025 OVC030 FM142000
                       30005KT P6SM OVC025 FM150100 00000KT P6SM
                       OVC025 FM151200 VRB03KT 6SM BR OVC025=
202202141128 TAF KBLI 141128Z 1412/1512 00000KT P6SM SCT050 OVC120 FM141400
                       15004KT P6SM -RA BKN025 OVC050 FM142000
                       26005KT P6SM OVC025 FM150100 00000KT P6SM
                       OVC025=
202202140520 TAF KBLI 140520Z 1406/1506 VRB03KT P6SM BKN250 FM140900 16008KT
                       P6SM BKN050 OVC150 FM141200 18010KT P6SM
                       -RA BKN025 OVC040 FM141800 19006KT P6SM
                       BKN040 FM150000 VRB03KT P6SM OVC025=
202202132320 TAF KBLI 132320Z 1400/1424 18004KT P6SM BKN250 FM140900 16008KT
                       P6SM BKN050 OVC150 FM141200 18010KT P6SM
                       -RA BKN025 OVC040 FM141800 19006KT P6SM
                       BKN040=
202202131749 TAF KBLI 131749Z 1318/1418 00000KT P6SM SKC FM132000 VRB03KT P6SM
                       SCT250 FM132200 18004KT P6SM BKN250 FM140900
                       16008KT P6SM BKN050 OVC150 FM141200 18010KT
                       P6SM -RA BKN025 OVC040=
202202131408 KBLI 131408Z 1314/1412 00000KT P6SM SCT250
                      TEMPO 1314/1316 1 1/2SM BR BKN002 FM131800
                       VRB03KT P6SM SCT250 FM132200 18004KT P6SM
                       BKN250 FM140900 16008KT P6SM BKN050 OVC150=
202202131127 TAF KBLI 131127Z 1312/1412 00000KT 2SM BR SCT002
                      TEMPO 1312/1316 1/2SM FZFG VV001 FM131800
                       VRB03KT P6SM SCT250 FM132200 18004KT P6SM
                       BKN250 FM140900 16008KT P6SM BKN050 OVC150=
202202130821 KBLI 130821Z 1308/1406 00000KT 4SM BR FEW002
                      TEMPO 1308/1312 1/2SM FG VV002 FM132000 18004KT
                       P6SM BKN250=
202202130520 TAF KBLI 130520Z 1306/1406 00000KT P6SM SCT250 FM132000 18004KT
                       P6SM BKN250=
202202122320 TAF KBLI 122320Z 1300/1324 01007KT P6SM SKC FM130400 00000KT P6SM
                       SKC FM132000 18004KT P6SM FEW250=
202202121720 TAF KBLI 121720Z 1218/1318 01007KT P6SM SKC FM130400 00000KT P6SM
                       SKC=
202202121526 KBLI 121526Z 1215/1312 33007KT P6SM FEW002 FM121700 01007KT P6SM
                       SKC FM130400 00000KT P6SM SKC=
202202121128 TAF KBLI 121128Z 1212/1312 33004KT 5SM BR SCT002
                      TEMPO 1212/1216 1/2SM FZFG VV002 FM121700
                       01007KT P6SM SKC FM130400 00000KT P6SM SKC=
202202120747 KBLI 120747Z 1208/1306 32003KT 4SM BR SCT002
                      TEMPO 1208/1212 1SM BR BKN002 FM121200 VRB03KT
                       1 1/2SM BR SCT002 FM121700 01007KT P6SM
                       SKC FM130400 00000KT P6SM SKC=
202202120520 TAF KBLI 120520Z 1206/1306 00000KT P6SM FEW250
                      TEMPO 1212/1216 2SM BR FM121700 01007KT P6SM
                       SKC FM130400 00000KT P6SM SKC=
202202112320 TAF KBLI 112320Z 1200/1224 32007KT P6SM BKN250 FM120400 35006KT
                       P6SM SKC=
202202111725 TAF KBLI 111725Z 1118/1218 36007KT P6SM SKC FM112100 01012KT P6SM
                       SKC FM120400 35006KT P6SM SKC=
202202111514 KBLI 111514Z 1115/1212 33008KT 1/4SM FG VV001 FM111800 36006KT
                       4SM BR BKN007 BKN012 FM112100 01012KT P6SM
                       SKC FM120400 35006KT P6SM SKC=
202202111325 KBLI 111325Z 1113/1212 35005KT 1SM BR SCT004 FM111800 36006KT 4SM
                       BR BKN007 BKN012 FM112100 01012KT P6SM SKC
                       FM120400 35006KT P6SM SKC=
202202111120 TAF KBLI 111120Z 1112/1212 35005KT 5SM BR SCT004 OVC030 FM111800
                       36006KT 4SM BR BKN007 BKN012 FM112100 01012KT
                       P6SM SKC FM120400 35006KT P6SM SKC=
202202110836 KBLI 110836Z 1109/1206 00000KT 6SM BR OVC015 FM111800 36006KT 4SM
                       BR BKN007 BKN012 FM112100 01012KT P6SM SKC
                       FM120400 35006KT P6SM SKC=
202202110520 TAF KBLI 110520Z 1106/1206 VRB03KT 6SM BR SCT006 OVC020 FM110800
                       01005KT 1 1/2SM BR OVC003 FM111800 36006KT
                       4SM BR BKN007 BKN012 FM112100 01012KT P6SM
                       SKC FM120400 35006KT P6SM SKC=
202202102338 TAF KBLI 102338Z 1100/1124 VRB03KT P6SM OVC012 FM110200 00000KT
                       P6SM OVC015 FM110500 35004KT 2SM BR OVC010
                       FM110900 01003KT 1 1/2SM BR OVC004 FM111900
                       01004KT 2SM BR OVC010=
202202101728 TAF KBLI 101728Z 1018/1118 00000KT 1/4SM FG VV002 FM101900 29004KT
                       1SM BR OVC002 FM102100 29003KT 6SM BR OVC007
                       FM110000 31003KT 6SM BR OVC020 FM110200
                       00000KT 4SM BR OVC015 FM110500 35002KT 2SM
                       BR OVC010=
202202101435 KBLI 101435Z 1015/1112 00000KT 2SM BR OVC002 FM102100 27003KT 6SM
                       BR OVC007 FM110200 00000KT 4SM BR OVC015=
202202101120 TAF KBLI 101120Z 1012/1112 33003KT 1SM BR SCT002 OVC010 FM101300
                       00000KT 1/4SM FG OVC004 FM102100 27003KT
                       6SM BR OVC007 FM110200 00000KT 4SM BR OVC015=
202202100801 KBLI 100801Z 1008/1106 00000KT 2SM BR BKN002 OVC010
                      TEMPO 1009/1013 2SM BR BKN007 FM101300 00000KT
                       1/4SM FG OVC004 FM101800 VRB03KT 3SM BR
                       OVC009 FM102100 34005KT P6SM OVC015=
202202100520 TAF KBLI 100520Z 1006/1106 00000KT P6SM OVC020
                      TEMPO 1009/1013 2SM BR BKN007 FM101300 00000KT
                       1/4SM FG OVC004 FM101800 VRB03KT 3SM BR
                       OVC009 FM102100 34005KT P6SM OVC015=
202202092320 TAF KBLI 092320Z 1000/1024 00000KT P6SM SCT024 OVC030 FM100400
                       00000KT 4SM BR OVC020 FM101400 00000KT 1/4SM
                       FG OVC004 FM101700 25002KT 3SM BR OVC009
                       FM101800 00000KT P6SM OVC015=
202202092107 KBLI 092107Z 0921/1018 00000KT P6SM SCT025 OVC030 FM100400 00000KT
                       4SM BR OVC015 FM100900 00000KT 2SM BR OVC015=
202202091722 TAF KBLI 091722Z 0918/1018 34003KT 3SM BR FEW010 OVC035 FM092000
                       00000KT P6SM OVC025 FM100400 00000KT 4SM
                       BR OVC015 FM100900 00000KT 2SM BR OVC015=
202202091517 KBLI 091517Z 0915/1012 00000KT 1SM BR SCT002 OVC040 FM091700 19002KT
                       2SM BR OVC015 FM092000 26003KT 5SM BR OVC015
                       FM100500 34002KT 5SM BR OVC015=
202202091346 KBLI 091346Z 0914/1012 00000KT 3SM BR BKN002 OVC040 FM091700 19002KT
                       2SM BR OVC015 FM092000 26003KT 5SM BR OVC015
                       FM100500 34002KT 5SM BR OVC015=
202202091153 KBLI 091153Z 0912/1012 00000KT 6SM BR FEW025 OVC040 FM091700 19002KT
                       2SM BR OVC015 FM092000 26003KT 5SM BR OVC015
                       FM100500 34002KT 5SM BR OVC015=
202202091121 TAF KBLI 091121Z 0912/1012 00000KT 1 1/2SM BR OVC025 FM091700 19002KT
                       2SM BR OVC015 FM092000 26003KT 5SM BR OVC015
                       FM100500 34002KT 5SM BR OVC015=
202202090520 TAF KBLI 090520Z 0906/1006 16005KT P6SM VCSH OVC050 FM090800 18002KT
                       6SM BR OVC015 FM092100 35002KT P6SM OVC015=
202202082329 TAF KBLI 082329Z 0900/0924 17006KT P6SM VCSH SCT015 OVC050 FM090200
                       16005KT P6SM VCSH OVC050 FM090800 18002KT
                       6SM BR OVC015 FM092100 35002KT P6SM OVC015=
202202081725 TAF KBLI 081725Z 0818/0918 18005KT P6SM OVC025 FM082300 17006KT
                       P6SM OVC040 FM090200 16005KT P6SM OVC050
                       FM090800 18005KT 6SM BR OVC015=
202202081120 TAF KBLI 081120Z 0812/0912 19007KT P6SM BKN015 FM081400 18005KT
                       P6SM OVC035 FM081900 17006KT P6SM OVC025
                       FM082300 17006KT P6SM OVC040 FM090600 16004KT
                       6SM BR OVC015=
202202080520 TAF KBLI 080520Z 0806/0906 17005KT P6SM SCT020 FM081000 18003KT
                       P6SM OVC025 FM082100 17006KT P6SM OVC040=
202202072326 TAF KBLI 072326Z 0800/0824 18012G17KT P6SM SCT025 BKN040 FM080500
                       19005KT P6SM SCT025 BKN050 FM081000 18003KT
                       P6SM OVC025=
202202071720 TAF KBLI 071720Z 0718/0818 18012KT P6SM VCSH SCT020 FM071900 18011KT
                       P6SM BKN035 FM072300 18008KT P6SM SCT025
                       BKN040 FM081000 18003KT P6SM OVC025=
202202071129 TAF KBLI 071129Z 0712/0812 21007KT P6SM OVC090 FM071400 18012KT
                       P6SM VCSH OVC022 FM071900 18011KT P6SM BKN035
                       FM072300 18008KT P6SM SCT025 BKN040 FM081000
                       18003KT P6SM OVC025=
202202070520 TAF KBLI 070520Z 0706/0806 00000KT P6SM BKN200
                      TEMPO 0707/0710 3SM BR SCT001 BKN200 FM071000
                       16006KT P6SM BKN100 OVC200 FM071400 18008KT
                       P6SM VCSH OVC022 FM072300 18008KT P6SM SCT025
                       BKN040=
202202062325 TAF KBLI 062325Z 0700/0724 VRB03KT P6SM SCT200 FM070600 18002KT
                       P6SM BKN100 OVC200 FM071500 17007KT P6SM
                       VCSH OVC025=
202202061727 TAF KBLI 061727Z 0618/0718 00000KT 1/4SM FG VV002 FM061900 35001KT
                       5SM BR OVC004 FM062000 35001KT P6SM SCT200
                       FM070600 18002KT P6SM BKN100 OVC200 FM071600
                       16009G15KT P6SM OVC050=
202202061139 TAF KBLI 061139Z 0612/0712 00000KT 1/4SM FG VV002 FM061900 35001KT
                       5SM BR OVC004 FM062000 35001KT P6SM SCT200
                       FM070600 18002KT P6SM BKN100 OVC200=
202202060730 KBLI 060730Z 0608/0706 00000KT 1/2SM FG FEW001 BKN030 FM060900
                       00000KT P6SM SCT030 BKN200
                      TEMPO 0611/0615 4SM BR FM061800 00000KT P6SM
                       SCT200=
202202060520 TAF KBLI 060520Z 0606/0706 00000KT P6SM BKN030 FM060900 00000KT
                       P6SM SCT030 BKN200
                      TEMPO 0611/0615 4SM BR FM061800 00000KT P6SM
                       SCT200=
202202060416 KBLI 060416Z 0604/0624 00000KT P6SM BKN030 FM060900 00000KT P6SM
                       SCT030 BKN200 FM061800 00000KT P6SM SCT030=
202202052324 TAF KBLI 052324Z 0600/0624 23003KT P6SM BKN050 FM060100 00000KT
                       P6SM BKN050 FM060700 00000KT P6SM OVC025
                       FM061800 00000KT P6SM SCT030=
202202051720 TAF KBLI 051720Z 0518/0618 17004KT P6SM BKN050 FM060100 00000KT
                       P6SM BKN050 FM060600 00000KT P6SM OVC050
                       FM060900 00000KT P6SM OVC025=
202202051120 TAF KBLI 051120Z 0512/0612 17004KT P6SM SCT035 BKN050 OVC080 FM052100
                       VRB04KT P6SM BKN030 FM060100 00000KT P6SM
                       BKN050 FM060600 00000KT P6SM OVC050 FM060900
                       00000KT P6SM OVC025=
202202050520 TAF KBLI 050520Z 0506/0606 22008KT P6SM BKN050 FM051300 19004KT
                       P6SM OVC020 FM052100 VRB03KT P6SM SCT025
                       BKN050 FM060100 VRB03KT P6SM SCT050=
202202042320 TAF KBLI 042320Z 0500/0524 17012G19KT P6SM -RA BKN025 OVC035 FM050300
                       17008G18KT P6SM OVC025 FM051100 19002KT
                       P6SM OVC020 FM052100 33002KT P6SM OVC025=
202202041723 TAF KBLI 041723Z 0418/0518 18010G19KT 5SM BR SCT010 BKN015 OVC035
                       FM041900 18012G26KT 5SM -RA BR OVC015 FM050300
                       17007KT P6SM OVC025 FM051100 19002KT P6SM
                       OVC015=
202202041448 KBLI 041448Z 0415/0512 19005KT P6SM SCT016 BKN040 OVC050 FM041700
                       15010KT 5SM BR BKN025 OVC050 FM042000 15012G18KT
                       5SM -RA BR OVC020 FM050300 17007KT P6SM
                       OVC020=
202202041134 TAF KBLI 041134Z 0412/0512 32003KT 6SM BR OVC022 FM041700 15010KT
                       5SM BR BKN025 OVC050 FM042000 15012G18KT
                       5SM -RA BR OVC020 FM050300 17007KT P6SM
                       OVC020=
202202040903 KBLI 040903Z 0409/0506 00000KT 3SM BR OVC020 FM041700 15010KT 5SM
                       BR BKN025 OVC050 FM042100 15012G18KT 5SM
                       -RA BR OVC020 FM050300 17007KT P6SM OVC020=
202202040520 TAF KBLI 040520Z 0406/0506 36003KT 2SM BR SCT002 BKN015 OVC035
                       FM041700 15010KT 5SM BR BKN025 OVC050 FM042100
                       15012G18KT 5SM -RA BR OVC020 FM050300 17007KT
                       P6SM OVC020=
202202040312 KBLI 040312Z 0403/0424 00000KT 3SM BR SCT002 BKN018 OVC030
                      TEMPO 0403/0405 1SM -RA BR BKN002 OVC018
                       FM040500 VRB04KT 2SM BR OVC007 FM041600
                       16005KT 5SM -RA BR SCT005 OVC015=
202202032328 TAF KBLI 032328Z 0400/0424 13004KT 1/2SM -RA FG OVC005 FM040500
                       VRB04KT 2SM BR OVC007 FM041600 16005KT 5SM
                       -RA BR SCT005 OVC015=
202202031723 TAF KBLI 031723Z 0318/0418 10007KT 2SM -RA BR OVC005 FM032300 13004KT
                       4SM BR OVC015 FM040900 VRB04KT 2SM BR OVC007
                       FM041600 16005KT 5SM -RA BR OVC015=
202202031121 TAF KBLI 031121Z 0312/0412 03003KT 1 1/2SM BR OVC003 FM031500 10007KT
                       2SM -RA BR OVC007 FM040000 13004KT 4SM BR
                       OVC015 FM040500 VRB04KT 2SM BR OVC007=
202202031006 KBLI 031006Z 0310/0406 03003KT 1SM BR OVC003 FM031900 02005KT 6SM
                       -SHRA BR OVC007=
202202030902 KBLI 030902Z 0309/0406 02004KT 3SM BR OVC010 FM031000 06005KT 4SM
                       BR OVC015 FM031900 02005KT 6SM -SHRA BR
                       OVC007=
202202030520 TAF KBLI 030520Z 0306/0406 04005KT 1SM -FZRA BR FEW003 OVC010
                      TEMPO 0306/0307 -FZRA FM030700 02005KT 1
                       1/2SM BR OVC015 FM031000 06005KT 4SM BR
                       OVC015 FM031900 02005KT 6SM -SHRA BR OVC007=
202202030024 KBLI 030024Z 0300/0324 03007KT 2SM -RASN BR OVC015 FM030700 02005KT
                       6SM -RA BR OVC015 FM031900 02005KT 6SM -SHRA
                       BR OVC007=
202202022330 TAF KBLI 022330Z 0300/0324 03008KT P6SM -RASN OVC030 FM030700 02005KT
                       6SM -RA BR OVC015 FM031900 02005KT 6SM -SHRA
                       BR OVC007=
202202021725 TAF KBLI 021725Z 0218/0318 07004KT P6SM SCT030 BKN050 OVC100 FM022000
                       15006KT P6SM -RASN OVC030 FM030000 17008KT
                       P6SM -RA OVC020 FM030700 12005KT 6SM -RA
                       BR OVC015=
202202021223 KBLI 021223Z 0212/0312 03003KT P6SM SCT009 BKN120
                      TEMPO 0212/0216 BKN009 BKN120 FM021600 07004KT
                       P6SM BKN050 OVC100 FM022000 15006KT P6SM
                       -RASN OVC035 FM030000 17008KT 5SM -RA BR
                       OVC020=
202202021120 TAF KBLI 021120Z 0212/0312 03003KT P6SM SCT050 BKN120 FM021600
                       07004KT P6SM BKN050 OVC100 FM022000 15006KT
                       P6SM -RASN OVC035 FM030000 17008KT 5SM -RA
                       BR OVC020=
202202021000 KBLI 021000Z 0210/0306 03004KT P6SM SCT040 BKN250 FM021300 07004KT
                       P6SM BKN050 BKN250 FM021800 15003KT P6SM
                       -RASN OVC050 FM022100 15005KT 5SM -RASN
                       BR OVC025=
202202020621 KBLI 020621Z 0206/0306 03008KT P6SM SCT022 BKN035
                      TEMPO 0206/0209 BKN022 BKN035 FM020900 04012G20KT
                       P6SM SCT035 BKN060 FM021300 11008KT P6SM
                       BKN050 FM021800 15003KT P6SM -RASN OVC050
                       FM022100 15005KT 5SM -RASN BR OVC025=
202202020520 TAF KBLI 020520Z 0206/0306 02003KT P6SM SCT030 FM021300 11008KT
                       P6SM BKN050 FM021800 15003KT P6SM -RASN
                       OVC050 FM022100 15005KT 5SM -RASN BR OVC025=
202202012326 TAF KBLI 012326Z 0200/0224 29004KT P6SM SCT050 FM020200 02003KT
                       P6SM SCT050 FM021800 15003KT P6SM -RASN
                       OVC050 FM022100 15005KT 5SM -RASN BR OVC025=
202202011720 TAF KBLI 011720Z 0118/0218 00000KT P6SM SCT025 OVC050 FM012100
                       33004KT P6SM SCT025 BKN050 FM020200 02003KT
                       P6SM SCT050 FM021600 15003KT P6SM OVC050=
202202011530 KBLI 011530Z 0116/0212 00000KT P6SM SCT025 OVC050 FM012100 33004KT
                       P6SM SCT025 BKN050 FM020200 02003KT P6SM
                       SCT050=
202202011120 TAF KBLI 011120Z 0112/0212 00000KT P6SM BKN040 FM011500 00000KT
                       P6SM OVC025 FM012100 33004KT P6SM SCT025
                       BKN050 FM020200 02003KT P6SM SCT050=
202202010520 TAF KBLI 010520Z 0106/0206 VRB04KT P6SM FEW030 BKN070 FM010900
                       31003KT P6SM OVC035 FM011700 35002KT P6SM
                       OVC025=