##########################################################
# Query made at 02/16/2025 23:23:31 UTC
# Time interval: from 09/01/2022 00:00  to 09/30/2022 23:59  UTC
##########################################################

##########################################################
# KBLI, Bellingham, Bellingham International Airport (United States)
# WMO index: -----. WIGOS ID: Unknown
# Latitude 48-47-58N. Longitude 122-32-21W. Altitude 48 m.
##########################################################

###################################
#  METAR/SPECI from KBLI
###################################
202209302353 METAR KBLI 302353Z 24003KT 10SM FEW120 19/14 A3010 RMK AO2 SLP200 T01940139 10206 20128 56017=
202209302253 METAR KBLI 302253Z 28006KT 10SM CLR 19/14 A3012 RMK AO2 SLP205 T01940139=
202209302153 METAR KBLI 302153Z 30006KT 10SM CLR 20/13 A3013 RMK AO2 SLP209 T02000133=
202209302053 METAR KBLI 302053Z 27007KT 250V310 10SM FEW050 19/13 A3015 RMK AO2 SLP217 T01890133 58022=
202209301953 METAR KBLI 301953Z 00000KT 10SM CLR 18/13 A3018 RMK AO2 SLP226 CIGS VSBY LWR SE-SW T01780133=
202209301914 SPECI KBLI 301914Z 00000KT 5SM HZ SCT006 17/13 A3020 RMK AO2 CIGS VSBY LWR SE-SW T01670133=
202209301904 SPECI KBLI 301904Z 32003KT 1SM R16/P6000FT HZ BKN006 16/13 A3020 RMK AO2 T01560128=
202209301853 METAR KBLI 301853Z 00000KT 1SM R16/P6000FT BR OVC003 15/13 A3021 RMK AO2 SLP236 T01500128=
202209301753 METAR KBLI 301753Z 15004KT 1/2SM R16/P6000FT FG OVC002 13/13 A3022 RMK AO2 SLP240 T01280128 10128 20117 58001=
202209301653 METAR KBLI 301653Z VRB03KT 1/2SM R16/4000VP6000FT FG OVC002 12/12 A3022 RMK AO2 SLP242 T01220122=
202209301553 METAR KBLI 301553Z 18003KT 1/2SM R16/4000VP6000FT FG OVC002 12/12 A3023 RMK AO2 SLP243 T01220122=
202209301546 SPECI KBLI 301546Z 18003KT 1/2SM R16/4000VP6000FT FG OVC002 12/12 A3023 RMK AO2 T01220122=
202209301524 SPECI KBLI 301524Z 16003KT 3/4SM R16/3500VP6000FT BR OVC002 12/12 A3023 RMK AO2 T01220122=
202209301453 METAR KBLI 301453Z 18004KT 2SM BR OVC002 12/12 A3022 RMK AO2 SLP241 T01220122 50002=
202209301353 METAR KBLI 301353Z 00000KT 2SM BR OVC002 13/13 A3023 RMK AO2 SLP242 T01280128 $=
202209301253 METAR KBLI 301253Z AUTO 19003KT 8SM OVC003 12/12 A3023 RMK AO2 SLP242 T01220122 $=
202209301212 SPECI KBLI 301212Z AUTO 21003KT 10SM BKN003 12/12 A3022 RMK AO2 T01220122 $=
202209301153 METAR KBLI 301153Z AUTO 20003KT 10SM FEW004 12/12 A3022 RMK AO2 SLP238 T01220122 10139 20122 54000 $=
202209301053 METAR KBLI 301053Z AUTO 21004KT 10SM FEW055 13/13 A3022 RMK AO2 SLP238 T01280128 $=
202209300953 METAR KBLI 300953Z AUTO 19004KT 10SM SCT003 OVC055 13/13 A3022 RMK AO2 SLP239 T01280128 $=
202209300853 METAR KBLI 300853Z AUTO 21004KT 10SM OVC055 13/13 A3022 RMK AO2 SLP238 T01280128 53004 $=
202209300753 METAR KBLI 300753Z AUTO 21005KT 10SM FEW055 13/13 A3021 RMK AO2 SLP235 T01280128 402060089 $=
202209300653 METAR KBLI 300653Z AUTO 20007KT 10SM OVC055 13/13 A3021 RMK AO2 SLP235 T01330128 $=
202209300553 METAR KBLI 300553Z AUTO 19005KT 10SM BKN060 13/13 A3020 RMK AO2 SLP234 T01330128 10194 20128 53008 $=
202209300453 METAR KBLI 300453Z 18007KT 10SM SCT055 13/13 A3019 RMK AO2 SLP231 T01330128 $=
202209300353 METAR KBLI 300353Z 18005KT 10SM OVC055 14/13 A3018 RMK AO2 SLP228 T01440128 $=
202209300253 METAR KBLI 300253Z 18004KT 10SM SCT055 16/13 A3018 RMK AO2 SLP225 T01610128 51004 $=
202209300153 METAR KBLI 300153Z 19003KT 10SM BKN055 16/13 A3018 RMK AO2 SLP226 T01610133 $=
202209300053 METAR KBLI 300053Z 17004KT 10SM CLR 18/13 A3017 RMK AO2 SLP224 T01780133 $=
202209292353 METAR KBLI 292353Z VRB03KT 10SM SCT055 19/12 A3017 RMK AO2 SLP222 T01940122 10206 20161 53003 $=
202209292253 METAR KBLI 292253Z 26006KT 10SM BKN100 19/13 A3016 RMK AO2 SLP219 T01940128 $=
202209292153 METAR KBLI 292153Z 00000KT 10SM FEW027 SCT043 BKN100 20/13 A3016 RMK AO2 SLP219 T02000128 $=
202209292053 METAR KBLI 292053Z 10SM FEW020 BKN038 20/13 A3016 RMK AO2 SLP219 T02000133 50003=
202209292013 SPECI KBLI 292013Z VRB04KT 10SM FEW019 SCT028 OVC037 18/14 A3016 RMK AO2 T01830139=
202209291953 METAR KBLI 291953Z VRB03KT 10SM BKN019 OVC026 18/14 A3016 RMK AO2 SLP219 T01780144=
202209291853 METAR KBLI 291853Z VRB03KT 10SM BKN015 BKN043 18/14 A3016 RMK AO2 SLP218 T01780139=
202209291753 METAR KBLI 291753Z 00000KT 10SM SCT009 BKN022 17/14 A3015 RMK AO2 SLP216 T01720144 10172 20094 53013=
202209291726 SPECI KBLI 291726Z 00000KT 10SM SCT009 BKN022 16/15 A3015 RMK AO2 T01610150=
202209291713 SPECI KBLI 291713Z 27004KT 9SM BKN021 16/14 A3014 RMK AO2 T01610144=
202209291653 METAR KBLI 291653Z 00000KT 9SM FEW044 16/14 A3014 RMK AO2 SLP212 T01560144=
202209291553 METAR KBLI 291553Z 00000KT 6SM BR OVC038 13/13 A3012 RMK AO2 SLP207 T01330133=
202209291453 METAR KBLI 291453Z 00000KT 5SM BR OVC030 12/12 A3011 RMK AO2 SLP204 T01220122 51017=
202209291439 SPECI KBLI 291439Z 00000KT 3SM BR SCT014 OVC030 12/12 A3011 RMK AO2 T01220122=
202209291353 METAR KBLI 291353Z 00000KT 6SM BR OVC013 12/12 A3010 RMK AO2 SLP197 T01170117=
202209291340 SPECI KBLI 291340Z 00000KT 3SM BR FEW002 OVC013 12/12 A3009 RMK AO2 T01170117=
202209291335 SPECI KBLI 291335Z AUTO 00000KT 1SM R16/P6000FT BR SCT002 OVC013 11/11 A3009 RMK AO2 T01110111=
202209291331 SPECI KBLI 291331Z AUTO 00000KT 1/2SM R16/6000VP6000FT FG SCT002 OVC013 11/11 A3009 RMK AO2 T01110111=
202209291325 SPECI KBLI 291325Z AUTO 00000KT 1/4SM R16/2000VP6000FT FG BKN002 OVC013 11/11 A3009 RMK AO2 T01110111=
202209291306 SPECI KBLI 291306Z AUTO 00000KT 1/4SM R16/1400VP6000FT FG VV001 11/11 A3008 RMK AO2 T01110111=
202209291257 SPECI KBLI 291257Z AUTO 15003KT 1/2SM R16/1200VP6000FT FG BKN001 OVC027 11/11 A3009 RMK AO2 VIS 1/4V5 T01060106=
202209291253 METAR KBLI 291253Z AUTO 00000KT 1 1/2SM R16/1200VP6000FT BR BKN001 OVC027 10/10 A3008 RMK AO2 VIS 1/2V5 SLP194 T01000100=
202209291240 SPECI KBLI 291240Z AUTO 00000KT 1SM R16/1200VP6000FT BR BKN001 BKN027 11/11 A3008 RMK AO2 VIS 1/2V5 T01060106=
202209291230 SPECI KBLI 291230Z AUTO 00000KT 1/2SM R16/1200VP6000FT FG VV001 11/11 A3007 RMK AO2 T01060106=
202209291223 SPECI KBLI 291223Z AUTO 00000KT 1 1/4SM R16/2600VP6000FT BR BKN001 OVC025 11/11 A3007 RMK AO2 T01060106=
202209291215 SPECI KBLI 291215Z AUTO 00000KT 1 3/4SM R16/4000VP6000FT BR BKN002 OVC025 11/11 A3007 RMK AO2 T01110111=
202209291213 SPECI KBLI 291213Z AUTO 00000KT 3SM R16/4000VP6000FT BR BKN002 OVC025 11/11 A3007 RMK AO2 T01060106=
202209291204 SPECI KBLI 291204Z AUTO 00000KT 8SM SCT002 OVC025 10/10 A3007 RMK AO2 T01000100=
202209291153 METAR KBLI 291153Z AUTO 00000KT 8SM BKN025 11/11 A3006 RMK AO2 SLP186 T01060106 10139 20089 51007=
202209291126 SPECI KBLI 291126Z AUTO 00000KT 6SM R16/1600VP6000FT BR BKN023 10/10 A3006 RMK AO2 T01000100=
202209291112 SPECI KBLI 291112Z AUTO 00000KT 3SM R16/1200V2200FT BR FEW002 BKN023 09/09 A3006 RMK AO2 T00940094=
202209291110 SPECI KBLI 291110Z AUTO 00000KT 1 3/4SM R16/1400V2200FT BR FEW002 BKN023 09/09 A3006 RMK AO2 T00940094=
202209291103 SPECI KBLI 291103Z AUTO 00000KT 1 1/2SM R16/1600V5500FT BR FEW002 SCT023 09/09 A3006 RMK AO2 T00940094=
202209291059 SPECI KBLI 291059Z AUTO 00000KT 3SM R16/2000V5500FT BR FEW002 09/09 A3006 RMK AO2 T00940094=
202209291057 SPECI KBLI 291057Z AUTO 00000KT 1 1/4SM R16/1400V4500FT BR FEW002 09/09 A3006 RMK AO2 T00940094=
202209291053 METAR KBLI 291053Z AUTO 00000KT 3/4SM R16/1000V4000FT BR VV002 10/10 A3006 RMK AO2 VIS 1/4V5 SLP184 T01000100=
202209291050 SPECI KBLI 291050Z AUTO 00000KT 1/2SM R16/1000V2000FT FG VV002 10/10 A3006 RMK AO2=
202209291043 SPECI KBLI 291043Z AUTO 00000KT 1/2SM R16/1200V2000FT FG VV001 09/09 A3005 RMK AO2 T00940094=
202209291039 SPECI KBLI 291039Z AUTO 00000KT 1/2SM R16/1200VP6000FT FG VV002 09/09 A3005 RMK AO2 T00940094=
202209291030 SPECI KBLI 291030Z AUTO 00000KT 1SM R16/2800VP6000FT BR VV001 11/11 A3005 RMK AO2 T01060106=
202209291024 SPECI KBLI 291024Z AUTO 00000KT 1/2SM R16/P6000FT FG VV001 11/11 A3005 RMK AO2 T01060106=
202209291017 SPECI KBLI 291017Z AUTO 00000KT 3/4SM R16/2400VP6000FT BR VV001 10/10 A3005 RMK AO2 T01000100=
202209291014 SPECI KBLI 291014Z AUTO 00000KT 1SM R16/2400VP6000FT BR VV002 10/10 A3005 RMK AO2 T01000100=
202209291012 SPECI KBLI 291012Z AUTO 00000KT 1 3/4SM R16/2400VP6000FT BR CLR 10/10 A3005 RMK AO2 T01000100=
202209290953 METAR KBLI 290953Z AUTO 00000KT 6SM BR FEW001 11/11 A3004 RMK AO2 SLP179 T01110111=
202209290949 SPECI KBLI 290949Z AUTO 00000KT 1 1/4SM BR FEW001 11/11 A3004 RMK AO2=
202209290943 SPECI KBLI 290943Z AUTO 00000KT 1/2SM R16/1200VP6000FT FG VV001 10/10 A3004 RMK AO2 T01000100=
202209290935 SPECI KBLI 290935Z AUTO 00000KT 1/2SM R16/1600V4500FT FG VV002 11/11 A3004 RMK AO2 T01060106=
202209290927 SPECI KBLI 290927Z AUTO 00000KT 1 1/2SM R16/2600VP6000FT BR CLR 11/11 A3004 RMK AO2 T01110111=
202209290906 SPECI KBLI 290906Z AUTO 00000KT 9SM FEW023 12/12 A3004 RMK AO2 T01220122=
202209290853 METAR KBLI 290853Z AUTO 00000KT 10SM BKN023 13/13 A3004 RMK AO2 SLP178 T01280128 53002=
202209290753 METAR KBLI 290753Z AUTO 00000KT 10SM BKN020 12/12 A3003 RMK AO2 SLP175 T01220122 401890122=
202209290653 METAR KBLI 290653Z AUTO 00000KT 10SM BKN022 OVC027 13/13 A3003 RMK AO2 SLP175 T01280128=
202209290603 SPECI KBLI 290603Z AUTO 00000KT 7SM BKN022 12/12 A3004 RMK AO2 T01220122=
202209290553 METAR KBLI 290553Z AUTO 00000KT 10SM SCT022 12/12 A3003 RMK AO2 SLP177 60000 T01220122 10183 20122 51008=
202209290453 METAR KBLI 290453Z 00000KT 10SM FEW039 14/14 A3003 RMK AO2 SLP175 T01390139=
202209290427 SPECI KBLI 290427Z 00000KT 10SM SCT027 OVC035 14/14 A3003 RMK AO2 T01440144=
202209290405 SPECI KBLI 290405Z 00000KT 10SM BKN025 14/14 A3003 RMK AO2 T01390139=
202209290353 METAR KBLI 290353Z 00000KT 6SM BR FEW029 13/13 A3002 RMK AO2 SLP174 T01330133=
202209290253 METAR KBLI 290253Z 00000KT 10SM OVC060 17/14 A3001 RMK AO2 RAE19 SLP168 P0000 60000 T01670144 53012=
202209290153 METAR KBLI 290153Z 21003KT 9SM -RA BKN050 OVC080 17/14 A3000 RMK AO2 RAE28B49 SLP163 P0000 T01670144=
202209290053 METAR KBLI 290053Z VRB04KT 10SM -RA SCT036 BKN044 OVC080 17/14 A2998 RMK AO2 RAB52 SLP158 P0000 T01720139=
202209282353 METAR KBLI 282353Z 17006KT 10SM SCT050 OVC090 18/13 A2998 RMK AO2 SLP156 60000 T01830133 10189 20156 53005=
202209282253 METAR KBLI 282253Z VRB04KT 10SM BKN110 18/14 A2996 RMK AO2 RAB2159E36 SLP153 P0000 T01830139=
202209282153 METAR KBLI 282153Z VRB06KT 10SM FEW065 BKN110 18/13 A2997 RMK AO2 SLP153 T01780133=
202209282053 METAR KBLI 282053Z VRB04KT 10SM OVC110 18/13 A2996 RMK AO2 SLP151 T01830128 56003=
202209281953 METAR KBLI 281953Z 00000KT 10SM FEW080 BKN110 18/13 A2996 RMK AO2 SLP152 T01830133=
202209281853 METAR KBLI 281853Z 00000KT 10SM CLR 17/13 A2996 RMK AO2 SLP150 T01670128=
202209281753 METAR KBLI 281753Z 12003KT 10SM CLR 15/13 A2997 RMK AO2 SLP154 T01500133 10156 20139 51008=
202209281653 METAR KBLI 281653Z VRB05KT 10SM SCT110 14/13 A2996 RMK AO2 SLP151 T01440128=
202209281553 METAR KBLI 281553Z 18006KT 10SM SCT070 14/13 A2997 RMK AO2 SLP153 T01440128=
202209281453 METAR KBLI 281453Z 19005KT 10SM CLR 14/13 A2994 RMK AO2 SLP146 T01390128 51016=
202209281401 SPECI KBLI 281401Z 18008KT 10SM SCT009 14/13 A2994 RMK AO2 T01390128=
202209281353 METAR KBLI 281353Z 20008KT 10SM CLR 14/13 A2994 RMK AO2 SLP145 T01390128=
202209281314 SPECI KBLI 281314Z AUTO 19007KT 10SM FEW009 14/13 A2993 RMK AO2 T01390128=
202209281253 METAR KBLI 281253Z AUTO 18009KT 10SM CLR 14/13 A2992 RMK AO2 SLP136 T01390128=
202209281153 METAR KBLI 281153Z AUTO 18007KT 10SM CLR 14/13 A2990 RMK AO2 SLP130 T01390133 10161 20139 50000=
202209281053 METAR KBLI 281053Z AUTO 19009G19KT 10SM CLR 14/13 A2990 RMK AO2 SLP131 T01390128=
202209280953 METAR KBLI 280953Z AUTO 18006KT 10SM CLR 14/13 A2989 RMK AO2 SLP128 T01440128=
202209280853 METAR KBLI 280853Z AUTO 19005KT 10SM CLR 15/13 A2990 RMK AO2 SLP129 T01500128 50003=
202209280753 METAR KBLI 280753Z AUTO 19004KT 10SM CLR 15/12 A2990 RMK AO2 SLP131 T01500122 402170094=
202209280653 METAR KBLI 280653Z AUTO 19007G16KT 10SM CLR 15/12 A2989 RMK AO2 SLP128 T01500122=
202209280553 METAR KBLI 280553Z AUTO 18007KT 10SM CLR 16/12 A2989 RMK AO2 SLP126 T01610122 10206 20156 51012=
202209280453 METAR KBLI 280453Z 19007KT 10SM CLR 16/13 A2988 RMK AO2 SLP123 T01610128=
202209280353 METAR KBLI 280353Z 17005KT 10SM CLR 16/13 A2986 RMK AO2 SLP118 T01610133=
202209280253 METAR KBLI 280253Z 18005KT 10SM CLR 18/12 A2985 RMK AO2 SLP114 T01830117 53008=
202209280153 METAR KBLI 280153Z 19004KT 10SM CLR 17/13 A2984 RMK AO2 SLP112 T01720128=
202209280053 METAR KBLI 280053Z 19006KT 10SM CLR 19/12 A2983 RMK AO2 SLP107 T01940117=
202209272353 METAR KBLI 272353Z 19006KT 10SM CLR 21/12 A2983 RMK AO2 SLP106 T02060122 10217 20183 58007=
202209272253 METAR KBLI 272253Z 21005KT 10SM CLR 21/12 A2984 RMK AO2 SLP109 T02110122=
202209272153 METAR KBLI 272153Z 19006KT 10SM CLR 21/12 A2985 RMK AO2 SLP112 T02110122=
202209272053 METAR KBLI 272053Z 19005KT 10SM CLR 21/11 A2985 RMK AO2 SLP113 T02110111 58007=
202209271953 METAR KBLI 271953Z 19004KT 10SM CLR 20/12 A2986 RMK AO2 SLP118 T02000122=
202209271853 METAR KBLI 271853Z 18005KT 10SM CLR 18/13 A2987 RMK AO2 SLP119 T01830133=
202209271753 METAR KBLI 271753Z 28003KT 10SM CLR 19/13 A2987 RMK AO2 SLP121 T01890128 10189 20094 58003=
202209271653 METAR KBLI 271653Z 00000KT 10SM CLR 17/13 A2987 RMK AO2 SLP121 T01670133=
202209271553 METAR KBLI 271553Z 00000KT 10SM CLR 14/13 A2989 RMK AO2 SLP127 T01390133=
202209271453 METAR KBLI 271453Z 00000KT 10SM CLR 11/11 A2988 RMK AO2 SLP125 T01060106 56008=
202209271356 SPECI KBLI 271356Z 00000KT 10SM R16/2400VP6000FT CLR 10/10 A2988 RMK AO2 T01000100=
202209271353 METAR KBLI 271353Z 00000KT 1 1/4SM R16/2400VP6000FT BR FEW003 09/09 A2988 RMK AO2 VIS 1/4V5 SLP125 T00940094=
202209271350 SPECI KBLI 271350Z 00000KT 1 1/2SM R16/2400VP6000FT BR CLR 09/09 A2988 RMK AO2 VIS 1/4V5=
202209271328 SPECI KBLI 271328Z AUTO 00000KT 3SM BR CLR 10/10 A2989 RMK AO2 T01000100=
202209271320 SPECI KBLI 271320Z AUTO 00000KT 1 3/4SM BR CLR 10/10 A2989 RMK AO2 T01000100=
202209271253 METAR KBLI 271253Z AUTO 00000KT 8SM CLR 11/11 A2990 RMK AO2 SLP130 T01110111=
202209271153 METAR KBLI 271153Z AUTO 20003KT 10SM CLR 13/12 A2990 RMK AO2 SLP131 T01280122 10172 20100 53001=
202209271053 METAR KBLI 271053Z AUTO 00000KT 7SM CLR 11/11 A2989 RMK AO2 SLP128 T01060106=
202209270953 METAR KBLI 270953Z AUTO 00000KT 10SM CLR 12/12 A2990 RMK AO2 SLP129 T01220117=
202209270853 METAR KBLI 270853Z AUTO 00000KT 10SM CLR 12/12 A2990 RMK AO2 SLP130 T01220117 58002=
202209270753 METAR KBLI 270753Z AUTO 00000KT 10SM CLR 12/12 A2990 RMK AO2 SLP131 T01220117 402610083=
202209270653 METAR KBLI 270653Z AUTO 00000KT 10SM CLR 14/13 A2991 RMK AO2 SLP133 T01440128=
202209270553 METAR KBLI 270553Z AUTO 16005KT 10SM CLR 17/13 A2991 RMK AO2 SLP133 T01720128 10239 20139 51004=
202209270453 METAR KBLI 270453Z 18005KT 10SM CLR 16/13 A2990 RMK AO2 SLP132 T01610133=
202209270353 METAR KBLI 270353Z 00000KT 10SM CLR 14/13 A2990 RMK AO2 SLP132 T01390128=
202209270253 METAR KBLI 270253Z 00000KT 10SM CLR 15/13 A2989 RMK AO2 SLP130 T01500133 55003=
202209270153 METAR KBLI 270153Z 00000KT 10SM CLR 18/14 A2989 RMK AO2 SLP129 T01780139=
202209270053 METAR KBLI 270053Z 23004KT 10SM CLR 22/14 A2990 RMK AO2 SLP130 T02220139=
202209262353 METAR KBLI 262353Z 25005KT 8SM CLR 24/14 A2990 RMK AO2 SLP132 T02390139 10261 20194 58015=
202209262253 METAR KBLI 262253Z VRB03KT 10SM CLR 25/14 A2992 RMK AO2 SLP136 T02500139=
202209262153 METAR KBLI 262153Z VRB05KT 10SM CLR 23/14 A2993 RMK AO2 SLP142 T02330139=
202209262053 METAR KBLI 262053Z 30005KT 8SM CLR 25/14 A2995 RMK AO2 SLP146 T02500144 58018=
202209261953 METAR KBLI 261953Z 04005KT 8SM CLR 25/13 A2997 RMK AO2 SLP153 T02500128=
202209261853 METAR KBLI 261853Z 00000KT 8SM CLR 22/12 A2999 RMK AO2 SLP160 T02170122=
202209261753 METAR KBLI 261753Z 36003KT 10SM CLR 19/13 A3000 RMK AO2 SLP164 T01940128 10194 20083 58005=
202209261653 METAR KBLI 261653Z 02004KT 10SM CLR 17/14 A3000 RMK AO2 SLP166 T01670144=
202209261553 METAR KBLI 261553Z 00000KT 8SM CLR 13/13 A3001 RMK AO2 SLP169 T01330133=
202209261453 METAR KBLI 261453Z 00000KT 10SM CLR 12/11 A3001 RMK AO2 SLP170 T01170111 53004=
202209261353 METAR KBLI 261353Z 00000KT 9SM CLR 09/09 A3001 RMK AO2 SLP168 T00940094=
202209261253 METAR KBLI 261253Z AUTO 00000KT 5SM BR FEW002 08/08 A3000 RMK AO2 SLP165 T00830083=
202209261240 SPECI KBLI 261240Z AUTO 00000KT 3SM BR SCT002 09/09 A3001 RMK AO2 T00940094=
202209261238 SPECI KBLI 261238Z AUTO 00000KT 1SM R16/P6000FT BR VV002 09/09 A3001 RMK AO2 T00890089=
202209261230 SPECI KBLI 261230Z AUTO 00000KT 1/2SM R16/6000VP6000FT FG VV002 09/09 A3001 RMK AO2 T00890089=
202209261223 SPECI KBLI 261223Z AUTO 00000KT 1 1/2SM BR CLR 09/09 A3001 RMK AO2 T00890089=
202209261210 SPECI KBLI 261210Z AUTO 00000KT 9SM R16/3500VP6000FT CLR 09/09 A3001 RMK AO2 T00940094=
202209261156 SPECI KBLI 261156Z AUTO 00000KT 2SM R16/3500VP6000FT BR FEW002 08/08 A3000 RMK AO2 T00830083=
202209261153 METAR KBLI 261153Z AUTO 33003KT 5SM R16/3500VP6000FT BR CLR 08/08 A3000 RMK AO2 SLP165 T00830083 10128 20083 56009=
202209261138 SPECI KBLI 261138Z AUTO 00000KT 4SM R16/1200VP6000FT BR FEW001 10/10 A3000 RMK AO2 T01000100=
202209261131 SPECI KBLI 261131Z AUTO 00000KT 5SM R16/1000V2200FT BR SCT001 09/09 A3000 RMK AO2 T00940094=
202209261126 SPECI KBLI 261126Z AUTO 00000KT 2SM R16/1400V2800FT BR SCT001 09/09 A3000 RMK AO2 VIS 3/4V5 T00890089=
202209261121 SPECI KBLI 261121Z AUTO 00000KT 1 1/4SM R16/1800V3000FT BR BKN001 10/10 A3000 RMK AO2 VIS 1/2V5 T01000100=
202209261110 SPECI KBLI 261110Z AUTO 00000KT 2SM R16/1200VP6000FT BR BKN001 10/10 A3000 RMK AO2 T01000100=
202209261100 SPECI KBLI 261100Z AUTO 00000KT 1 3/4SM R16/1800VP6000FT BR FEW002 09/09 A3000 RMK AO2 T00890089=
202209261053 METAR KBLI 261053Z AUTO 00000KT 4SM R16/1800VP6000FT BR FEW002 09/09 A3000 RMK AO2 SLP166 T00940094=
202209261039 SPECI KBLI 261039Z AUTO 00000KT 1 1/2SM BR CLR 10/10 A3000 RMK AO2 T01000100=
202209261024 SPECI KBLI 261024Z AUTO 00000KT 10SM CLR 10/10 A3001 RMK AO2 T01000100=
202209261016 SPECI KBLI 261016Z AUTO 00000KT 1SM R16/P6000FT BR CLR 10/10 A3001 RMK AO2 T01000100=
202209261006 SPECI KBLI 261006Z AUTO 00000KT 1/2SM R16/3500VP6000FT FG VV002 10/10 A3001 RMK AO2 T01000100=
202209261003 SPECI KBLI 261003Z AUTO 00000KT 1 1/2SM R16/2400VP6000FT BR CLR 10/10 A3001 RMK AO2 T01000100=
202209260953 METAR KBLI 260953Z AUTO 00000KT 3SM R16/4000VP6000FT BR CLR 11/11 A3001 RMK AO2 SLP169 T01060106=
202209260853 METAR KBLI 260853Z AUTO 00000KT 6SM R16/5500VP6000FT BR CLR 11/10 A3003 RMK AO2 SLP174 T01110100 56006=
202209260834 SPECI KBLI 260834Z AUTO 00000KT 3SM R16/2200VP6000FT BR CLR 11/11 A3003 RMK AO2 T01110111=
202209260826 SPECI KBLI 260826Z AUTO 00000KT 2SM R16/3000VP6000FT BR CLR 11/11 A3003 RMK AO2 T01110111=
202209260753 METAR KBLI 260753Z AUTO 00000KT 10SM CLR 11/11 A3003 RMK AO2 SLP175 T01110111 402330083=
202209260653 METAR KBLI 260653Z AUTO 00000KT 10SM R16/4500VP6000FT CLR 12/11 A3004 RMK AO2 SLP177 T01170111=
202209260553 METAR KBLI 260553Z AUTO 00000KT 10SM CLR 12/12 A3005 RMK AO2 SLP180 T01220122 10222 20117 56002=
202209260453 METAR KBLI 260453Z 00000KT 10SM CLR 13/13 A3005 RMK AO2 SLP181 T01330128=
202209260353 METAR KBLI 260353Z 00000KT 10SM CLR 14/13 A3005 RMK AO2 SLP180 T01390128=
202209260253 METAR KBLI 260253Z 00000KT 10SM CLR 15/14 A3005 RMK AO2 SLP183 T01500139 56010=
202209260153 METAR KBLI 260153Z 00000KT 10SM FEW120 17/15 A3006 RMK AO2 SLP185 T01720150=
202209260053 METAR KBLI 260053Z 28003KT 10SM CLR 21/14 A3006 RMK AO2 SLP186 T02110144=
202209252353 METAR KBLI 252353Z 29007KT 10SM CLR 23/14 A3008 RMK AO2 SLP193 T02280144 10233 20200 56021=
202209252253 METAR KBLI 252253Z 30008KT 10SM CLR 23/14 A3010 RMK AO2 SLP199 T02280144=
202209252153 METAR KBLI 252153Z 30005KT 10SM CLR 23/14 A3012 RMK AO2 SLP206 T02280139=
202209252053 METAR KBLI 252053Z 29007KT 10SM CLR 22/14 A3014 RMK AO2 SLP213 T02220139 58015=
202209251953 METAR KBLI 251953Z 28005KT 10SM CLR 21/14 A3016 RMK AO2 SLP220 T02110139=
202209251853 METAR KBLI 251853Z VRB04KT 10SM CLR 20/14 A3018 RMK AO2 SLP225 T02000139=
202209251753 METAR KBLI 251753Z VRB03KT 10SM CLR 21/13 A3019 RMK AO2 SLP228 T02060128 10206 20083 58006=
202209251653 METAR KBLI 251653Z VRB03KT 10SM CLR 17/13 A3019 RMK AO2 SLP230 T01720128=
202209251553 METAR KBLI 251553Z 00000KT 10SM CLR 15/13 A3020 RMK AO2 SLP234 T01500128=
202209251453 METAR KBLI 251453Z 00000KT 10SM CLR 10/10 A3021 RMK AO2 SLP235 T01000100 53007=
202209251416 SPECI KBLI 251416Z 00000KT 8SM R16/5000FT CLR 09/09 A3020 RMK AO2 T00940094=
202209251412 SPECI KBLI 251412Z 32003KT 1/4SM R16/0800V1600FT FG VV001 09/09 A3020 RMK AO2 T00940094=
202209251353 METAR KBLI 251353Z 00000KT M1/4SM R16/0500V0600FT FG VV001 09/09 A3020 RMK AO2 SLP232 T00890089=
202209251342 SPECI KBLI 251342Z 00000KT 1/4SM R16/0700V1600FT FG VV001 09/09 A3019 RMK AO2 T00940094=
202209251339 SPECI KBLI 251339Z 00000KT 3/4SM R16/1000VP6000FT BR VV001 09/09 A3019 RMK AO2 VIS 1/4V5 T00890089=
202209251334 SPECI KBLI 251334Z AUTO 00000KT 2 1/2SM R16/1200VP6000FT BR BKN002 09/09 A3019 RMK AO2 T00890089=
202209251328 SPECI KBLI 251328Z AUTO 00000KT 7SM SCT002 09/09 A3019 RMK AO2 T00890089=
202209251319 SPECI KBLI 251319Z AUTO 00000KT 8SM CLR 09/09 A3019 RMK AO2 T00890089=
202209251312 SPECI KBLI 251312Z AUTO 00000KT 2SM BR CLR 09/09 A3019 RMK AO2 T00890089=
202209251309 SPECI KBLI 251309Z AUTO 00000KT 1SM R16/P6000FT BR VV002 09/09 A3019 RMK AO2 T00940094=
202209251301 SPECI KBLI 251301Z AUTO 00000KT 1 1/4SM R16/3500VP6000FT BR FEW002 09/09 A3019 RMK AO2 VIS 1/4V5 T00890089=
202209251253 METAR KBLI 251253Z AUTO 00000KT 6SM R16/3500VP6000FT BR CLR 09/09 A3019 RMK AO2 SLP230 T00890089=
202209251238 SPECI KBLI 251238Z AUTO 00000KT 6SM BR FEW002 09/09 A3019 RMK AO2 T00940094=
202209251231 SPECI KBLI 251231Z AUTO 00000KT 2SM BR FEW002 09/09 A3019 RMK AO2 VIS 3/4V5 T00890089=
202209251229 SPECI KBLI 251229Z AUTO 00000KT 1SM R16/P6000FT BR VV002 09/09 A3019 RMK AO2 T00890089=
202209251225 SPECI KBLI 251225Z AUTO 00000KT 1/2SM R16/P6000FT FG VV002 09/09 A3019 RMK AO2 T00890089=
202209251218 SPECI KBLI 251218Z AUTO 00000KT 3/4SM R16/2000VP6000FT BR VV002 08/08 A3018 RMK AO2 T00830083=
202209251216 SPECI KBLI 251216Z AUTO 00000KT 1 1/2SM R16/2000VP6000FT BR FEW002 08/08 A3018 RMK AO2 T00830083=
202209251202 SPECI KBLI 251202Z AUTO 00000KT 3SM BR FEW002 09/09 A3018 RMK AO2 T00940094=
202209251200 SPECI KBLI 251200Z AUTO 00000KT 1 1/4SM BR FEW002 09/09 A3018 RMK AO2 T00940094=
202209251153 METAR KBLI 251153Z AUTO 00000KT 3/4SM R16/P6000FT BR VV002 09/09 A3018 RMK AO2 SLP227 T00940094 10122 20089 58005=
202209251147 SPECI KBLI 251147Z AUTO 00000KT 1 1/2SM BR SCT002 09/09 A3018 RMK AO2=
202209251145 SPECI KBLI 251145Z AUTO 00000KT 3/4SM R16/P6000FT BR VV002 09/09 A3018 RMK AO2 T00940094=
202209251139 SPECI KBLI 251139Z AUTO 00000KT 1/4SM R16/P6000FT FG VV002 09/09 A3019 RMK AO2 T00940094=
202209251135 SPECI KBLI 251135Z AUTO 00000KT 3/4SM R16/4000VP6000FT BR VV002 09/09 A3019 RMK AO2 T00940094=
202209251129 SPECI KBLI 251129Z AUTO 00000KT 6SM R16/2200VP6000FT BR BKN002 09/09 A3019 RMK AO2 T00940094=
202209251113 SPECI KBLI 251113Z AUTO 00000KT 4SM BR BKN001 10/10 A3019 RMK AO2 T01000100=
202209251102 SPECI KBLI 251102Z AUTO 00000KT 1SM R16/1400VP6000FT BR VV001 10/10 A3019 RMK AO2 T01000100=
202209251057 SPECI KBLI 251057Z AUTO 00000KT 2 1/2SM R16/1400VP6000FT BR FEW002 09/09 A3019 RMK AO2 VIS 1V5 T00940094=
202209251053 METAR KBLI 251053Z AUTO 00000KT 4SM R16/3500VP6000FT BR CLR 09/09 A3019 RMK AO2 SLP230 T00890089=
202209251039 SPECI KBLI 251039Z AUTO 00000KT 3SM R16/1600VP6000FT BR SCT002 10/10 A3020 RMK AO2 T01000100=
202209251037 SPECI KBLI 251037Z AUTO 00000KT 1 1/2SM R16/1600VP6000FT BR SCT002 10/10 A3019 RMK AO2 T01000100=
202209251029 SPECI KBLI 251029Z AUTO 00000KT 1 1/2SM BR BKN002 10/10 A3020 RMK AO2 T01000100=
202209251025 SPECI KBLI 251025Z AUTO 00000KT 5SM BR BKN002 10/10 A3020 RMK AO2 T01000100=
202209251007 SPECI KBLI 251007Z AUTO 00000KT 2SM R16/4000VP6000FT BR BKN002 11/11 A3020 RMK AO2 VIS 1/2V5 T01060106=
202209251001 SPECI KBLI 251001Z AUTO 00000KT 3/4SM R16/0800VP6000FT BR VV002 10/10 A3020 RMK AO2 T01000100=
202209250953 METAR KBLI 250953Z AUTO 00000KT 1 1/4SM R16/0800V2800FT BR CLR 11/11 A3020 RMK AO2 VIS 1/2V3 SLP232 T01060106=
202209250942 SPECI KBLI 250942Z AUTO 00000KT 1 3/4SM R16/2200VP6000FT BR CLR 11/11 A3020 RMK AO2 T01060106=
202209250858 SPECI KBLI 250858Z AUTO 00000KT 4SM R16/1600VP6000FT BR CLR 11/11 A3020 RMK AO2 T01110111=
202209250853 METAR KBLI 250853Z AUTO 00000KT 1SM R16/1800VP6000FT BR CLR 11/11 A3020 RMK AO2 SLP232 T01060106 58007=
202209250847 SPECI KBLI 250847Z AUTO 00000KT 1 1/4SM R16/2200VP6000FT BR CLR 11/11 A3020 RMK AO2=
202209250753 METAR KBLI 250753Z AUTO 00000KT 5SM BR CLR 12/12 A3021 RMK AO2 SLP236 T01170117 402280100=
202209250653 METAR KBLI 250653Z AUTO 00000KT 10SM CLR 12/12 A3022 RMK AO2 SLP239 T01220117=
202209250553 METAR KBLI 250553Z AUTO 00000KT 10SM CLR 12/12 A3022 RMK AO2 SLP239 T01220122 10206 20117 50003=
202209250453 METAR KBLI 250453Z 00000KT 10SM CLR 13/12 A3022 RMK AO2 SLP240 T01280117=
202209250353 METAR KBLI 250353Z 00000KT 10SM CLR 13/12 A3021 RMK AO2 SLP239 T01330122=
202209250253 METAR KBLI 250253Z 00000KT 10SM CLR 15/13 A3021 RMK AO2 SLP237 T01500133 55001=
202209250153 METAR KBLI 250153Z 00000KT 10SM CLR 18/13 A3020 RMK AO2 SLP234 T01780133=
202209250053 METAR KBLI 250053Z 28005KT 10SM CLR 19/13 A3020 RMK AO2 SLP234 T01940128=
202209242353 METAR KBLI 242353Z 28006KT 10SM CLR 21/13 A3021 RMK AO2 SLP237 T02060128 10228 20189 58011=
202209242253 METAR KBLI 242253Z 28007KT 10SM CLR 21/13 A3023 RMK AO2 SLP242 T02060133=
202209242153 METAR KBLI 242153Z VRB04KT 10SM FEW040 23/13 A3024 RMK AO2 SLP246 T02280133=
202209242053 METAR KBLI 242053Z VRB05KT 10SM FEW038 21/13 A3025 RMK AO2 SLP248 T02110133 58007=
202209241953 METAR KBLI 241953Z VRB05KT 10SM FEW120 23/12 A3025 RMK AO2 SLP250 T02280122=
202209241853 METAR KBLI 241853Z 34006KT 10SM CLR 21/12 A3026 RMK AO2 SLP254 T02060122=
202209241753 METAR KBLI 241753Z 36008KT 10SM CLR 19/12 A3027 RMK AO2 SLP255 T01890122 10189 20100 51010=
202209241653 METAR KBLI 241653Z 05004KT 10SM CLR 17/12 A3026 RMK AO2 SLP254 T01670122=
202209241553 METAR KBLI 241553Z 02003KT 10SM CLR 14/12 A3025 RMK AO2 SLP251 T01390117=
202209241453 METAR KBLI 241453Z 00000KT 10SM FEW055 11/11 A3024 RMK AO2 SLP246 T01110111 53012=
202209241353 METAR KBLI 241353Z 00000KT 10SM FEW055 10/10 A3022 RMK AO2 SLP241 T01000100=
202209241253 METAR KBLI 241253Z AUTO 00000KT 8SM BKN055 11/11 A3020 RMK AO2 SLP234 T01110111=
202209241153 METAR KBLI 241153Z AUTO 00000KT 7SM BKN055 11/11 A3020 RMK AO2 SLP232 T01110111 10128 20106 50004=
202209241053 METAR KBLI 241053Z AUTO 00000KT 10SM OVC046 12/12 A3020 RMK AO2 SLP233 T01170117=
202209240953 METAR KBLI 240953Z AUTO 00000KT 8SM OVC046 12/12 A3019 RMK AO2 SLP230 T01220117=
202209240853 METAR KBLI 240853Z AUTO 00000KT 9SM BKN049 OVC055 12/12 A3019 RMK AO2 SLP228 T01170117 53003=
202209240753 METAR KBLI 240753Z AUTO 00000KT 9SM BKN060 12/12 A3018 RMK AO2 SLP225 T01170117 401890106=
202209240653 METAR KBLI 240653Z AUTO 00000KT 10SM BKN060 11/11 A3018 RMK AO2 SLP227 T01110111=
202209240553 METAR KBLI 240553Z AUTO 00000KT 10SM CLR 11/11 A3018 RMK AO2 SLP226 T01110111 10183 20111 53009=
202209240453 METAR KBLI 240453Z 00000KT 10SM SCT055 13/12 A3017 RMK AO2 SLP222 T01280117=
202209240353 METAR KBLI 240353Z 00000KT 10SM SCT080 14/12 A3016 RMK AO2 SLP218 T01390122=
202209240253 METAR KBLI 240253Z 00000KT 10SM SCT045 BKN080 16/12 A3015 RMK AO2 SLP215 T01560122 50000=
202209240153 METAR KBLI 240153Z 06003KT 10SM BKN044 BKN065 17/12 A3015 RMK AO2 SLP216 T01670122=
202209240053 METAR KBLI 240053Z 16006KT 10SM OVC044 17/12 A3015 RMK AO2 SLP216 T01720122=
202209232353 METAR KBLI 232353Z 00000KT 10SM BKN045 OVC090 18/12 A3015 RMK AO2 SLP215 60000 T01830117 10189 20161 55003=
202209232253 METAR KBLI 232253Z 20003KT 10SM BKN050 OVC090 18/12 A3015 RMK AO2 SLP214 T01830117=
202209232153 METAR KBLI 232153Z VRB04KT 10SM OVC050 18/12 A3015 RMK AO2 RAB32E42 SLP217 P0000 T01830122=
202209232053 METAR KBLI 232053Z 18006KT 10SM OVC050 17/13 A3016 RMK AO2 SLP218 T01720128 58002=
202209231953 METAR KBLI 231953Z 17005KT 10SM FEW042 OVC055 17/13 A3017 RMK AO2 SLP221 T01720128=
202209231853 METAR KBLI 231853Z 22003KT 10SM OVC055 16/13 A3017 RMK AO2 SLP223 T01610128=
202209231753 METAR KBLI 231753Z 19005KT 10SM OVC060 16/13 A3016 RMK AO2 SLP220 60000 T01610133 10161 20144 51009=
202209231653 METAR KBLI 231653Z 18003KT 10SM SCT032 OVC060 15/13 A3016 RMK AO2 RAE17 SLP218 P0000 T01500133=
202209231553 METAR KBLI 231553Z 20004KT 10SM -RA FEW033 SCT050 OVC065 14/13 A3015 RMK AO2 RAB19 SLP215 P0000 T01440133=
202209231453 METAR KBLI 231453Z 18004KT 10SM BKN045 BKN055 OVC075 15/13 A3014 RMK AO2 RAB30E49 SLP211 P0000 60000 T01500133 53010=
202209231353 METAR KBLI 231353Z 18006KT 10SM OVC050 15/13 A3012 RMK AO2 SLP206 T01500128=
202209231253 METAR KBLI 231253Z AUTO 19006KT 10SM OVC049 15/12 A3012 RMK AO2 SLP204 T01500122=
202209231153 METAR KBLI 231153Z AUTO 19007KT 10SM OVC047 15/12 A3011 RMK AO2 SLP200 T01500122 10156 20117 51004=
202209231053 METAR KBLI 231053Z AUTO 18004KT 10SM BKN043 BKN050 OVC060 15/12 A3010 RMK AO2 SLP200 T01500122=
202209230953 METAR KBLI 230953Z AUTO 19006KT 10SM OVC043 15/12 A3011 RMK AO2 SLP200 T01500117=
202209230853 METAR KBLI 230853Z AUTO 19004KT 10SM BKN043 OVC050 15/12 A3009 RMK AO2 SLP197 T01500122 50006=
202209230753 METAR KBLI 230753Z AUTO 18005KT 10SM BKN041 OVC055 15/12 A3010 RMK AO2 SLP197 T01500122 401940117=
202209230653 METAR KBLI 230653Z AUTO 00000KT 10SM FEW041 BKN050 12/11 A3009 RMK AO2 SLP195 T01170106=
202209230553 METAR KBLI 230553Z AUTO 00000KT 10SM SCT055 12/11 A3008 RMK AO2 SLP190 T01220111 10189 20122 51007=
202209230453 METAR KBLI 230453Z 24003KT 10SM SCT050 14/12 A3007 RMK AO2 SLP189 T01440122=
202209230353 METAR KBLI 230353Z 20003KT 10SM BKN050 16/12 A3006 RMK AO2 SLP186 T01610122=
202209230253 METAR KBLI 230253Z 17005KT 10SM BKN050 17/12 A3005 RMK AO2 SLP183 T01720122 53007=
202209230153 METAR KBLI 230153Z 17005KT 10SM FEW060 SCT090 17/12 A3004 RMK AO2 SLP180 T01670122=
202209230053 METAR KBLI 230053Z 18008KT 10SM CLR 18/12 A3003 RMK AO2 SLP176 T01780122=
202209222353 METAR KBLI 222353Z 18009KT 10SM CLR 19/12 A3003 RMK AO2 SLP176 T01890117 10194 20167 58002=
202209222253 METAR KBLI 222253Z 17009G17KT 10SM FEW080 19/12 A3004 RMK AO2 SLP179 T01890117=
202209222153 METAR KBLI 222153Z 18012G20KT 10SM CLR 19/12 A3004 RMK AO2 SLP179 T01890117=
202209222053 METAR KBLI 222053Z 19011G20KT 10SM CLR 18/12 A3004 RMK AO2 SLP178 T01830117 58001=
202209221953 METAR KBLI 221953Z 19009G21KT 10SM FEW070 18/12 A3004 RMK AO2 SLP178 T01780122=
202209221853 METAR KBLI 221853Z 18012G21KT 10SM CLR 18/12 A3004 RMK AO2 SLP180 T01780117=
202209221753 METAR KBLI 221753Z 18014G23KT 10SM CLR 17/12 A3004 RMK AO2 PK WND 17026/1732 SLP179 T01670117 10167 20128 51011=
202209221653 METAR KBLI 221653Z 18013G26KT 10SM CLR 16/11 A3003 RMK AO2 PK WND 18026/1650 SLP176 T01610111=
202209221553 METAR KBLI 221553Z 18013G24KT 10SM FEW020 15/11 A3002 RMK AO2 SLP172 T01500111=
202209221453 METAR KBLI 221453Z 18012G23KT 10SM CLR 14/12 A3001 RMK AO2 SLP169 T01390117 51018=
202209221353 METAR KBLI 221353Z 18012G20KT 10SM CLR 13/12 A2999 RMK AO2 SLP162 T01330117=
202209221253 METAR KBLI 221253Z AUTO 17015G26KT 10SM CLR 13/11 A2998 RMK AO2 PK WND 18028/1158 SLP156 T01330111=
202209221153 METAR KBLI 221153Z AUTO 18014G27KT 10SM CLR 14/10 A2995 RMK AO2 PK WND 19028/1131 SLP148 7//// T01390100 10167 20133 51014=
202209221053 METAR KBLI 221053Z AUTO 18010G18KT 10SM CLR 16/08 A2994 RMK AO2 SLP144 T01560078=
202209220953 METAR KBLI 220953Z AUTO 18011G21KT 10SM CLR 16/08 A2993 RMK AO2 SLP139 T01560083=
202209220853 METAR KBLI 220853Z AUTO 19007KT 10SM CLR 17/07 A2991 RMK AO2 SLP134 T01670067 51007=
202209220753 METAR KBLI 220753Z AUTO 18006KT 10SM CLR 14/05 A2991 RMK AO2 SLP132 T01440050 402440056=
202209220653 METAR KBLI 220653Z AUTO 18005KT 10SM CLR 16/04 A2990 RMK AO2 SLP131 T01560044=
202209220553 METAR KBLI 220553Z AUTO 16006KT 10SM CLR 15/05 A2989 RMK AO2 SLP127 T01500050 10233 20117 51008=
202209220453 METAR KBLI 220453Z 17004KT 10SM CLR 15/06 A2988 RMK AO2 SLP124 T01500061=
202209220353 METAR KBLI 220353Z 18005KT 10SM CLR 14/08 A2988 RMK AO2 SLP124 T01440078=
202209220253 METAR KBLI 220253Z 00000KT 10SM CLR 13/07 A2987 RMK AO2 SLP120 T01280067 55002=
202209220153 METAR KBLI 220153Z 18003KT 10SM CLR 16/09 A2986 RMK AO2 SLP117 T01560089=
202209220053 METAR KBLI 220053Z 17003KT 10SM CLR 21/07 A2986 RMK AO2 SLP120 T02060067=
202209212353 METAR KBLI 212353Z VRB03KT 10SM CLR 23/04 A2987 RMK AO2 SLP121 T02330044 10244 20194 56011=
202209212253 METAR KBLI 212253Z 00000KT 10SM CLR 23/06 A2988 RMK AO2 SLP124 T02330061=
202209212153 METAR KBLI 212153Z 28008KT 10SM CLR 23/05 A2989 RMK AO2 SLP128 T02330050=
202209212053 METAR KBLI 212053Z 29005KT 10SM CLR 23/07 A2991 RMK AO2 SLP132 T02280072 56015=
202209211953 METAR KBLI 211953Z 19005KT 10SM CLR 24/09 A2992 RMK AO2 SLP136 T02440089=
202209211853 METAR KBLI 211853Z 15005KT 10SM CLR 21/10 A2994 RMK AO2 SLP143 T02110100=
202209211753 METAR KBLI 211753Z 00000KT 10SM CLR 22/04 A2995 RMK AO2 SLP148 6//// T02220044 10222 20056 58011=
202209211653 METAR KBLI 211653Z 00000KT 10SM CLR 18/06 A2997 RMK AO2 SLP153 T01780056 $=
202209211553 METAR KBLI 211553Z 00000KT 10SM CLR 13/09 A2998 RMK AO2 SLP158 T01330089=
202209211453 METAR KBLI 211453Z 00000KT 10SM CLR 08/06 A2998 RMK AO2 SLP160 T00780061 53002=
202209211353 METAR KBLI 211353Z 00000KT 9SM CLR 06/04 A2998 RMK AO2 SLP158 T00560044=
202209211253 METAR KBLI 211253Z AUTO 00000KT 10SM CLR 07/06 A2998 RMK AO2 SLP156 T00720061=
202209211153 METAR KBLI 211153Z AUTO 00000KT 10SM CLR 07/05 A2998 RMK AO2 SLP157 T00670050 10139 20061 58005=
202209211053 METAR KBLI 211053Z AUTO 00000KT 10SM CLR 07/05 A2999 RMK AO2 SLP160 T00720050=
202209210953 METAR KBLI 210953Z AUTO 00000KT 10SM CLR 08/06 A2999 RMK AO2 SLP162 T00830056=
202209210853 METAR KBLI 210853Z AUTO 00000KT 10SM CLR 08/06 A2999 RMK AO2 SLP162 T00830056 53006=
202209210753 METAR KBLI 210753Z AUTO 00000KT 10SM CLR 09/06 A2999 RMK AO2 SLP160 T00940056 402720089=
202209210653 METAR KBLI 210653Z AUTO 00000KT 10SM CLR 13/04 A2998 RMK AO2 SLP156 T01280044=
202209210553 METAR KBLI 210553Z AUTO 00000KT 10SM CLR 11/06 A2997 RMK AO2 SLP156 T01110056 10250 20100 50000=
202209210453 METAR KBLI 210453Z 00000KT 10SM CLR 12/07 A2998 RMK AO2 SLP158 T01170067=
202209210353 METAR KBLI 210353Z 00000KT 10SM CLR 12/07 A2998 RMK AO2 SLP158 T01220067=
202209210253 METAR KBLI 210253Z 00000KT 10SM CLR 16/07 A2997 RMK AO2 SLP156 T01610072 53003=
202209210153 METAR KBLI 210153Z 29006KT 10SM CLR 21/05 A2996 RMK AO2 SLP151 T02060050=
202209210053 METAR KBLI 210053Z 30006KT 10SM CLR 24/04 A2996 RMK AO2 SLP151 T02390039=
202209202353 METAR KBLI 202353Z 28007KT 10SM CLR 24/06 A2996 RMK AO2 SLP151 T02440056 10272 20222 56009=
202209202253 METAR KBLI 202253Z 03012G19KT 10SM CLR 27/03 A2997 RMK AO2 SLP151 T02720028=
202209202153 METAR KBLI 202153Z 02012G23KT 10SM CLR 27/03 A2997 RMK AO2 SLP154 T02670033=
202209202053 METAR KBLI 202053Z 03013G22KT 10SM CLR 26/03 A2999 RMK AO2 SLP160 T02560033 58010=
202209201953 METAR KBLI 201953Z 03014G24KT 10SM CLR 25/03 A3001 RMK AO2 PK WND 05029/1928 SLP166 T02500033=
202209201853 METAR KBLI 201853Z 04011G25KT 10SM CLR 24/04 A3002 RMK AO2 PK WND 04026/1820 SLP169 T02390039=
202209201753 METAR KBLI 201753Z 04017G27KT 10SM CLR 22/03 A3002 RMK AO2 PK WND 03030/1712 SLP171 T02220033 10222 20167 51006=
202209201653 METAR KBLI 201653Z 04018G30KT 10SM CLR 21/03 A3002 RMK AO2 PK WND 05030/1650 SLP170 T02110033=
202209201553 METAR KBLI 201553Z 04014G24KT 10SM CLR 20/03 A3001 RMK AO2 SLP167 T02000033=
202209201453 METAR KBLI 201453Z 03012G22KT 10SM CLR 18/03 A3000 RMK AO2 SLP165 T01780033 53007=
202209201353 METAR KBLI 201353Z 02011G20KT 10SM CLR 17/03 A2999 RMK AO2 SLP162 T01720033=
202209201253 METAR KBLI 201253Z AUTO 03012KT 10SM CLR 18/03 A2998 RMK AO2 PK WND 04026/1154 SLP158 T01780033=
202209201153 METAR KBLI 201153Z AUTO 03013G22KT 10SM CLR 18/03 A2998 RMK AO2 SLP157 T01780028 10189 20100 52005=
202209201053 METAR KBLI 201053Z AUTO 02010G20KT 10SM CLR 18/02 A2997 RMK AO2 SLP154 T01830022=
202209200953 METAR KBLI 200953Z AUTO 03011G17KT 10SM CLR 18/02 A2997 RMK AO2 SLP154 T01830022=
202209200853 METAR KBLI 200853Z AUTO 03010G18KT 10SM CLR 18/02 A2997 RMK AO2 SLP152 T01830022 53009=
202209200753 METAR KBLI 200753Z AUTO 03011G20KT 10SM CLR 18/03 A2995 RMK AO2 SLP147 T01830028 402220056=
202209200653 METAR KBLI 200653Z AUTO 03005KT 10SM CLR 14/07 A2995 RMK AO2 SLP146 T01390067=
202209200553 METAR KBLI 200553Z AUTO 36005KT 10SM CLR 10/09 A2994 RMK AO2 SLP145 T01000094 10217 20094 51009=
202209200453 METAR KBLI 200453Z 00000KT 10SM CLR 11/09 A2993 RMK AO2 SLP143 T01060094=
202209200353 METAR KBLI 200353Z 00000KT 10SM CLR 12/10 A2993 RMK AO2 SLP141 T01170100=
202209200253 METAR KBLI 200253Z 00000KT 10SM CLR 13/10 A2991 RMK AO2 SLP136 T01280100 53014=
202209200153 METAR KBLI 200153Z 00000KT 10SM CLR 17/11 A2989 RMK AO2 SLP129 T01670111=
202209200053 METAR KBLI 200053Z 25004KT 10SM CLR 21/09 A2988 RMK AO2 SLP125 T02060089=
202209192353 METAR KBLI 192353Z VRB03KT 10SM CLR 22/09 A2987 RMK AO2 SLP121 T02170089 10222 20178 55001=
202209192253 METAR KBLI 192253Z 30006KT 10SM CLR 22/09 A2987 RMK AO2 SLP119 T02220094=
202209192153 METAR KBLI 192153Z 27009KT 10SM CLR 21/09 A2987 RMK AO2 SLP119 T02060094=
202209192053 METAR KBLI 192053Z VRB06KT 10SM CLR 21/11 A2988 RMK AO2 SLP123 T02110106 55001=
202209191953 METAR KBLI 191953Z 28008KT 210V320 10SM CLR 20/10 A2987 RMK AO2 SLP122 T02000100=
202209191853 METAR KBLI 191853Z 03005KT 10SM CLR 21/08 A2988 RMK AO2 SLP124 T02060078=
202209191753 METAR KBLI 191753Z VRB03KT 10SM CLR 18/11 A2988 RMK AO2 SLP125 T01780106 10178 20056 51012=
202209191653 METAR KBLI 191653Z 03003KT 10SM CLR 16/11 A2988 RMK AO2 SLP124 T01610111=
202209191553 METAR KBLI 191553Z 00000KT 10SM CLR 13/10 A2986 RMK AO2 SLP119 T01280100=
202209191453 METAR KBLI 191453Z 00000KT 10SM CLR 09/08 A2984 RMK AO2 SLP112 T00890083 51009=
202209191353 METAR KBLI 191353Z 00000KT 10SM CLR 07/07 A2983 RMK AO2 SLP109 T00670067=
202209191253 METAR KBLI 191253Z AUTO 00000KT 10SM CLR 07/07 A2983 RMK AO2 SLP107 T00720072=
202209191153 METAR KBLI 191153Z AUTO 00000KT 10SM CLR 08/08 A2982 RMK AO2 SLP102 T00830078 10111 20078 51008=
202209191053 METAR KBLI 191053Z AUTO 00000KT 10SM CLR 08/08 A2982 RMK AO2 SLP102 T00830083=
202209190953 METAR KBLI 190953Z AUTO 21003KT 10SM CLR 10/09 A2981 RMK AO2 SLP100 T01000089=
202209190853 METAR KBLI 190853Z AUTO 00000KT 10SM CLR 09/08 A2979 RMK AO2 SLP094 T00940083 53004=
202209190753 METAR KBLI 190753Z AUTO 16003KT 10SM CLR 10/09 A2978 RMK AO2 SLP091 T01000089 402440072=
202209190653 METAR KBLI 190653Z AUTO 00000KT 10SM CLR 10/09 A2979 RMK AO2 SLP092 T01000094=
202209190553 METAR KBLI 190553Z AUTO 00000KT 10SM CLR 10/09 A2978 RMK AO2 SLP090 T01000094 10211 20100 51006=
202209190453 METAR KBLI 190453Z 00000KT 10SM CLR 11/09 A2978 RMK AO2 SLP089 T01110094=
202209190353 METAR KBLI 190353Z 00000KT 10SM CLR 12/10 A2977 RMK AO2 SLP086 T01170100=
202209190253 METAR KBLI 190253Z 00000KT 10SM CLR 13/09 A2976 RMK AO2 SLP083 T01330094 53002=
202209190153 METAR KBLI 190153Z 00000KT 10SM CLR 17/09 A2975 RMK AO2 SLP080 T01720094=
202209190053 METAR KBLI 190053Z 29006KT 10SM CLR 21/07 A2974 RMK AO2 SLP077 T02060072=
202209182353 METAR KBLI 182353Z 28006KT 10SM CLR 21/08 A2976 RMK AO2 SLP081 T02110078 10244 20211 57011=
202209182253 METAR KBLI 182253Z 32005KT 10SM CLR 23/05 A2976 RMK AO2 SLP083 T02330050=
202209182153 METAR KBLI 182153Z 31009G17KT 10SM CLR 23/07 A2978 RMK AO2 SLP091 T02280067=
202209182053 METAR KBLI 182053Z 32008G15KT 280V340 10SM CLR 22/08 A2979 RMK AO2 SLP092 T02220083 55008=
202209181953 METAR KBLI 181953Z 03009G17KT 10SM CLR 24/04 A2979 RMK AO2 SLP092 T02390039=
202209181853 METAR KBLI 181853Z 03012G21KT 10SM CLR 23/04 A2981 RMK AO2 SLP098 T02280039=
202209181753 METAR KBLI 181753Z 03015G21KT 10SM CLR 21/04 A2981 RMK AO2 SLP101 T02110039 10211 20072 51008=
202209181653 METAR KBLI 181653Z 03009G18KT 10SM CLR 20/04 A2981 RMK AO2 SLP099 T02000044=
202209181553 METAR KBLI 181553Z 01011G20KT 10SM CLR 18/04 A2980 RMK AO2 SLP096 T01780039=
202209181453 METAR KBLI 181453Z 01010G22KT 10SM CLR 16/04 A2979 RMK AO2 SLP093 T01610039 53001=
202209181353 METAR KBLI 181353Z 01010KT 10SM CLR 13/06 A2978 RMK AO2 SLP089 T01330056=
202209181253 METAR KBLI 181253Z AUTO 00000KT 10SM CLR 08/07 A2978 RMK AO2 SLP092 T00830072=
202209181153 METAR KBLI 181153Z AUTO 00000KT 10SM CLR 08/08 A2978 RMK AO2 SLP093 T00830083 10106 20072 58003=
202209181053 METAR KBLI 181053Z AUTO 00000KT 10SM CLR 08/08 A2979 RMK AO2 SLP096 T00780078=
202209180953 METAR KBLI 180953Z AUTO 00000KT 10SM CLR 08/08 A2980 RMK AO2 SLP098 T00780078=
202209180853 METAR KBLI 180853Z AUTO 00000KT 10SM CLR 07/07 A2979 RMK AO2 SLP096 T00720072 53005=
202209180753 METAR KBLI 180753Z AUTO 00000KT 10SM CLR 08/08 A2979 RMK AO2 SLP094 T00830083 401940072=
202209180653 METAR KBLI 180653Z AUTO 00000KT 10SM CLR 09/09 A2979 RMK AO2 SLP093 T00940089=
202209180553 METAR KBLI 180553Z AUTO 00000KT 10SM CLR 09/08 A2978 RMK AO2 SLP091 T00940083 10183 20094 58005=
202209180453 METAR KBLI 180453Z 00000KT 10SM CLR 10/09 A2978 RMK AO2 SLP093 T01000089=
202209180353 METAR KBLI 180353Z 00000KT 10SM CLR 12/11 A2979 RMK AO2 SLP095 T01220106=
202209180253 METAR KBLI 180253Z 00000KT 10SM FEW100 13/11 A2980 RMK AO2 SLP096 T01280106 55005=
202209180153 METAR KBLI 180153Z 34004KT 10SM FEW100 16/11 A2979 RMK AO2 SLP095 T01610111=
202209180053 METAR KBLI 180053Z 32006KT 10SM CLR 17/11 A2980 RMK AO2 SLP097 T01720106=
202209172353 METAR KBLI 172353Z 30006KT 10SM FEW100 18/11 A2981 RMK AO2 SLP101 T01780111 10194 20167 58015=
202209172253 METAR KBLI 172253Z 31006KT 10SM CLR 18/11 A2983 RMK AO2 SLP107 T01780111=
202209172153 METAR KBLI 172153Z 30008KT 10SM CLR 18/11 A2984 RMK AO2 SLP111 T01780111=
202209172053 METAR KBLI 172053Z 31007KT 10SM SCT120 18/10 A2986 RMK AO2 SLP116 T01830100 56011=
202209171953 METAR KBLI 171953Z VRB06KT 10SM CLR 19/09 A2987 RMK AO2 SLP119 T01890089=
202209171853 METAR KBLI 171853Z 34006KT 10SM CLR 18/09 A2987 RMK AO2 SLP122 T01780094=
202209171753 METAR KBLI 171753Z 04009KT 10SM CLR 17/09 A2989 RMK AO2 SLP126 T01670089 10167 20072 58013=
202209171653 METAR KBLI 171653Z 03007KT 10SM FEW120 14/09 A2990 RMK AO2 SLP133 T01390089=
202209171553 METAR KBLI 171553Z 00000KT 10SM CLR 13/09 A2992 RMK AO2 SLP137 T01280089=
202209171453 METAR KBLI 171453Z 00000KT 10SM CLR 08/08 A2993 RMK AO2 SLP141 T00830078 56001=
202209171353 METAR KBLI 171353Z 00000KT 10SM CLR 08/08 A2993 RMK AO2 SLP141 T00830078=
202209171253 METAR KBLI 171253Z AUTO 00000KT 10SM CLR 09/08 A2993 RMK AO2 SLP141 T00890083=
202209171153 METAR KBLI 171153Z AUTO 00000KT 10SM FEW060 09/08 A2993 RMK AO2 SLP142 T00940083 10133 20094 58008=
202209171053 METAR KBLI 171053Z AUTO 00000KT 10SM FEW070 10/08 A2994 RMK AO2 SLP145 T01000083=
202209170953 METAR KBLI 170953Z AUTO 00000KT 10SM SCT070 11/09 A2995 RMK AO2 SLP149 T01060089=
202209170853 METAR KBLI 170853Z AUTO 00000KT 10SM CLR 10/08 A2995 RMK AO2 SLP150 T01000083 58010=
202209170753 METAR KBLI 170753Z AUTO 00000KT 10SM CLR 12/09 A2996 RMK AO2 SLP153 T01220089 401830100=
202209170653 METAR KBLI 170653Z AUTO 00000KT 10SM CLR 11/08 A2998 RMK AO2 SLP158 T01110083=
202209170553 METAR KBLI 170553Z AUTO 18003KT 10SM CLR 12/09 A2999 RMK AO2 SLP161 T01220089 10183 20117 58006=
202209170453 METAR KBLI 170453Z 18004KT 10SM SCT050 13/08 A3000 RMK AO2 SLP163 T01330083=
202209170353 METAR KBLI 170353Z 17004KT 10SM SCT050 14/08 A3000 RMK AO2 SLP166 T01390083=
202209170253 METAR KBLI 170253Z 18006KT 10SM SCT050 15/08 A3001 RMK AO2 SLP167 T01500078 56008=
202209170153 METAR KBLI 170153Z 18006KT 10SM CLR 16/09 A3001 RMK AO2 SLP167 T01560089=
202209170053 METAR KBLI 170053Z 17008KT 10SM FEW050 17/08 A3002 RMK AO2 SLP170 T01720083=
202209162353 METAR KBLI 162353Z 19007KT 10SM FEW050 18/09 A3003 RMK AO2 SLP175 T01780089 10178 20139 58011=
202209162253 METAR KBLI 162253Z 19010KT 10SM CLR 18/09 A3004 RMK AO2 SLP178 T01780089=
202209162153 METAR KBLI 162153Z 17007G16KT 10SM FEW050 17/10 A3005 RMK AO2 SLP183 T01720100=
202209162053 METAR KBLI 162053Z 18012G20KT 10SM SCT030 16/11 A3006 RMK AO2 SLP186 T01610106 53001=
202209161953 METAR KBLI 161953Z 19011G20KT 10SM FEW012 16/12 A3006 RMK AO2 SLP186 CIGS LWR NW-NE T01560117=
202209161928 SPECI KBLI 161928Z 18010G20KT 10SM FEW008 SCT012 BKN038 15/12 A3006 RMK AO2 CIGS LWR NW-NE T01500117=
202209161853 METAR KBLI 161853Z 18011G22KT 10SM FEW008 BKN012 OVC025 15/12 A3006 RMK AO2 SLP184 T01500122=
202209161822 SPECI KBLI 161822Z 18013G19KT 10SM SCT008 BKN012 OVC018 14/12 A3006 RMK AO2 T01390122=
202209161814 SPECI KBLI 161814Z 18012G20KT 10SM BKN008 BKN012 OVC018 14/12 A3006 RMK AO2 CIG 006V010 T01390122=
202209161802 SPECI KBLI 161802Z 17011G21KT 10SM FEW008 OVC019 14/12 A3006 RMK AO2 T01390122=
202209161753 METAR KBLI 161753Z 19012G18KT 10SM BKN019 OVC050 15/12 A3006 RMK AO2 SLP185 T01500117 10156 20139 53004=
202209161712 SPECI KBLI 161712Z 18008G18KT 10SM BKN019 OVC070 15/11 A3006 RMK AO2 T01500111=
202209161653 SPECI KBLI 161653Z 18009G20KT 10SM SCT024 OVC070 15/11 A3006 RMK AO2 SLP183 T01500111=
202209161653 METAR KBLI 161653Z 18009G20KT 10SM SCT024 OVC070 15/11 A3006 RMK AO2 SLP183 T01500111=
202209161553 METAR KBLI 161553Z 18009KT 10SM OVC060 14/12 A3005 RMK AO2 SLP182 T01440117=
202209161453 METAR KBLI 161453Z 18010G17KT 10SM FEW012 OVC055 14/12 A3005 RMK AO2 SLP181 T01390117 53004=
202209161353 METAR KBLI 161353Z AUTO 18009G15KT 10SM SCT048 OVC065 14/11 A3004 RMK AO2 SLP178 T01440111=
202209161253 METAR KBLI 161253Z AUTO 18007KT 10SM OVC049 14/11 A3004 RMK AO2 SLP179 T01440106=
202209161153 METAR KBLI 161153Z AUTO 19008KT 10SM OVC050 14/11 A3004 RMK AO2 SLP177 T01440106 10150 20139 58002=
202209161053 METAR KBLI 161053Z AUTO 18006KT 10SM OVC050 14/11 A3004 RMK AO2 SLP179 T01440106=
202209160953 METAR KBLI 160953Z AUTO 18008KT 10SM OVC048 14/11 A3005 RMK AO2 SLP181 T01440111=
202209160853 METAR KBLI 160853Z AUTO 19008KT 10SM BKN055 OVC075 14/11 A3004 RMK AO2 SLP180 T01440106 50000=
202209160753 METAR KBLI 160753Z AUTO 19005KT 10SM FEW043 OVC055 15/11 A3005 RMK AO2 SLP180 T01500106 401830139=
202209160653 METAR KBLI 160653Z AUTO 17004KT 10SM OVC085 15/11 A3004 RMK AO2 SLP180 T01500111=
202209160553 METAR KBLI 160553Z AUTO 19007KT 10SM OVC075 15/12 A3004 RMK AO2 SLP179 T01500117 10178 20150 50000=
202209160453 METAR KBLI 160453Z 18007KT 10SM BKN085 16/12 A3005 RMK AO2 SLP181 T01560117=
202209160353 METAR KBLI 160353Z 18007KT 10SM BKN080 16/12 A3005 RMK AO2 SLP183 T01610117=
202209160253 METAR KBLI 160253Z 18005KT 10SM OVC080 17/12 A3004 RMK AO2 SLP179 T01670117 53000=
202209160153 METAR KBLI 160153Z 18007KT 10SM SCT070 BKN110 17/12 A3004 RMK AO2 SLP178 T01720117=
202209160053 METAR KBLI 160053Z 18007KT 10SM BKN120 17/12 A3004 RMK AO2 SLP178 T01720117=
202209152353 METAR KBLI 152353Z 18006KT 10SM SCT070 BKN090 BKN120 17/12 A3004 RMK AO2 SLP179 T01720117 10183 20167 58002=
202209152253 METAR KBLI 152253Z 18009G15KT 10SM BKN075 18/12 A3004 RMK AO2 SLP180 T01780117=
202209152153 METAR KBLI 152153Z 19007G15KT 10SM BKN075 OVC110 18/12 A3005 RMK AO2 SLP182 T01780117=
202209152053 METAR KBLI 152053Z 18010G19KT 150V210 10SM BKN070 18/12 A3005 RMK AO2 SLP181 T01780117 53001=
202209151953 METAR KBLI 151953Z 19008G21KT 10SM CLR 18/12 A3004 RMK AO2 SLP180 T01780117=
202209151853 METAR KBLI 151853Z 19008G14KT 160V220 10SM BKN110 18/12 A3005 RMK AO2 SLP180 T01780122=
202209151753 METAR KBLI 151753Z 19009KT 10SM BKN110 17/13 A3004 RMK AO2 SLP179 T01670128 10167 20139 51008=
202209151653 METAR KBLI 151653Z 19008KT 10SM OVC110 16/12 A3004 RMK AO2 SLP178 T01610122=
202209151553 METAR KBLI 151553Z 20009G16KT 10SM BKN070 BKN110 15/12 A3003 RMK AO2 SLP174 T01500122=
202209151453 METAR KBLI 151453Z 19008G19KT 10SM OVC075 14/12 A3002 RMK AO2 SLP171 T01440122 53014=
202209151353 METAR KBLI 151353Z 18010KT 10SM SCT075 14/12 A3000 RMK AO2 SLP165 T01390122=
202209151253 METAR KBLI 151253Z AUTO 18009G18KT 10SM BKN070 14/12 A2999 RMK AO2 SLP161 T01440122=
202209151153 METAR KBLI 151153Z AUTO 19006KT 10SM OVC070 16/12 A2998 RMK AO2 SLP157 T01560117 10156 20139 51006=
202209151053 METAR KBLI 151053Z AUTO 19007G16KT 10SM BKN055 15/12 A2997 RMK AO2 SLP156 T01500122=
202209150953 METAR KBLI 150953Z AUTO 17005KT 10SM SCT055 SCT100 14/12 A2997 RMK AO2 SLP155 T01440117=
202209150853 METAR KBLI 150853Z AUTO 17005KT 10SM CLR 14/12 A2996 RMK AO2 SLP151 T01440122 51007=
202209150753 METAR KBLI 150753Z AUTO 21003KT 10SM OVC100 14/12 A2996 RMK AO2 SLP149 T01440122 401890128=
202209150653 METAR KBLI 150653Z AUTO 19005KT 10SM FEW075 SCT100 15/12 A2995 RMK AO2 SLP147 T01500122=
202209150553 METAR KBLI 150553Z AUTO 19006KT 10SM OVC070 16/12 A2994 RMK AO2 SLP144 T01560122 10183 20144 51008=
202209150453 METAR KBLI 150453Z 19007KT 10SM SCT070 15/12 A2994 RMK AO2 SLP143 T01500122=
202209150353 METAR KBLI 150353Z 19007KT 150V220 10SM FEW070 14/13 A2993 RMK AO2 SLP140 T01440133=
202209150253 METAR KBLI 150253Z 19008KT 10SM CLR 16/13 A2991 RMK AO2 SLP136 T01560128 53004=
202209150153 METAR KBLI 150153Z 20007KT 10SM CLR 16/13 A2991 RMK AO2 SLP134 T01610133=
202209150053 METAR KBLI 150053Z 18007KT 10SM CLR 17/13 A2990 RMK AO2 SLP131 T01720133=
202209142353 METAR KBLI 142353Z 20005KT 10SM CLR 18/13 A2990 RMK AO2 SLP131 T01830133 10189 20144 55004=
202209142253 METAR KBLI 142253Z VRB06KT 10SM CLR 19/13 A2990 RMK AO2 SLP131 T01890133=
202209142153 METAR KBLI 142153Z 18007KT 10SM CLR 19/13 A2991 RMK AO2 SLP134 T01890133=
202209142053 METAR KBLI 142053Z 21006KT 10SM FEW070 18/13 A2991 RMK AO2 SLP136 T01780133 58001=
202209141953 METAR KBLI 141953Z 17009KT 10SM BKN070 17/13 A2992 RMK AO2 SLP137 T01670133=
202209141853 METAR KBLI 141853Z 20005KT 10SM OVC075 16/13 A2992 RMK AO2 SLP137 T01560133=
202209141753 METAR KBLI 141753Z 21007KT 10SM OVC060 15/13 A2992 RMK AO2 SLP137 T01500133 10150 20133 53008=
202209141653 METAR KBLI 141653Z 20005KT 10SM OVC050 14/13 A2991 RMK AO2 SLP135 T01390128=
202209141553 METAR KBLI 141553Z 19006KT 10SM BKN055 OVC070 14/13 A2990 RMK AO2 SLP131 T01390133=
202209141453 METAR KBLI 141453Z 21005KT 10SM FEW055 OVC120 13/13 A2989 RMK AO2 SLP129 T01330128 53006=
202209141353 METAR KBLI 141353Z VRB03KT 10SM OVC055 13/13 A2988 RMK AO2 SLP125 T01330128=
202209141253 METAR KBLI 141253Z AUTO VRB05KT 10SM FEW055 OVC110 14/13 A2988 RMK AO2 SLP123 T01390133=
202209141153 METAR KBLI 141153Z AUTO 20005KT 10SM OVC060 14/13 A2988 RMK AO2 SLP122 T01390133 10156 20128 53004=
202209141053 METAR KBLI 141053Z AUTO 18003KT 10SM SCT055 BKN110 14/13 A2987 RMK AO2 SLP120 T01390133=
202209140953 METAR KBLI 140953Z AUTO 00000KT 10SM FEW060 OVC100 14/14 A2986 RMK AO2 SLP117 T01440139=
202209140853 METAR KBLI 140853Z AUTO 00000KT 9SM BKN110 13/13 A2986 RMK AO2 SLP119 T01330133 50003=
202209140753 METAR KBLI 140753Z AUTO 00000KT 9SM CLR 14/13 A2987 RMK AO2 SLP119 T01390133 402060106=
202209140653 METAR KBLI 140653Z AUTO 00000KT 10SM SCT075 BKN110 15/14 A2986 RMK AO2 SLP119 T01500139=
202209140553 METAR KBLI 140553Z AUTO 17005KT 10SM FEW080 SCT110 16/14 A2986 RMK AO2 SLP116 T01560139 10189 20150 58002=
202209140453 METAR KBLI 140453Z 19005KT 10SM OVC085 17/14 A2986 RMK AO2 SLP117 T01670144=
202209140353 METAR KBLI 140353Z 00000KT 10SM OVC090 16/14 A2987 RMK AO2 SLP122 T01610139=
202209140253 METAR KBLI 140253Z 00000KT 9SM BKN070 BKN085 16/14 A2986 RMK AO2 SLP118 T01560144 51004=
202209140153 METAR KBLI 140153Z 19003KT 10SM SCT070 BKN090 17/14 A2986 RMK AO2 SLP116 T01720144=
202209140053 METAR KBLI 140053Z 22003KT 10SM BKN070 18/15 A2986 RMK AO2 SLP117 T01780150=
202209132353 METAR KBLI 132353Z VRB03KT 10SM BKN070 18/14 A2985 RMK AO2 SLP114 T01830139 10206 20172 56013=
202209132253 METAR KBLI 132253Z 22003KT 10SM OVC085 18/13 A2986 RMK AO2 SLP116 T01830133=
202209132153 METAR KBLI 132153Z 21007KT 8SM BKN070 OVC080 19/13 A2987 RMK AO2 SLP122 T01940128=
202209132053 METAR KBLI 132053Z VRB06KT 8SM FEW040 BKN070 19/13 A2989 RMK AO2 SLP126 T01940133 58004=
202209131953 METAR KBLI 131953Z VRB04KT 8SM FEW040 BKN070 18/13 A2989 RMK AO2 SLP128 T01780133=
202209131853 METAR KBLI 131853Z VRB04KT 8SM FEW040 BKN070 18/14 A2990 RMK AO2 SLP129 T01780139=
202209131753 METAR KBLI 131753Z 22006KT 10SM FEW075 17/14 A2990 RMK AO2 SLP130 T01720139 10178 20111 56003=
202209131653 METAR KBLI 131653Z 24003KT 10SM CLR 17/14 A2990 RMK AO2 SLP132 T01720139=
202209131553 METAR KBLI 131553Z VRB03KT 8SM BKN070 15/13 A2990 RMK AO2 SLP132 T01500133=
202209131453 METAR KBLI 131453Z 00000KT 8SM BKN060 14/13 A2991 RMK AO2 SLP133 T01440133 53002=
202209131353 METAR KBLI 131353Z VRB03KT 8SM BKN060 14/13 A2990 RMK AO2 SLP130 T01390133=
202209131253 METAR KBLI 131253Z AUTO 21003KT 9SM BKN055 12/12 A2990 RMK AO2 SLP130 T01220122=
202209131153 METAR KBLI 131153Z AUTO 00000KT 5SM BR FEW075 11/11 A2990 RMK AO2 SLP131 T01110111 10156 20106 56001=
202209131053 METAR KBLI 131053Z AUTO 19003KT 10SM CLR 14/13 A2990 RMK AO2 SLP131 T01390128=
202209130953 METAR KBLI 130953Z AUTO 00000KT 10SM CLR 14/13 A2990 RMK AO2 SLP131 T01390128=
202209130853 METAR KBLI 130853Z AUTO 19006KT 10SM CLR 15/13 A2990 RMK AO2 SLP132 T01500128 55002=
202209130753 METAR KBLI 130753Z AUTO 18003KT 10SM CLR 13/12 A2990 RMK AO2 SLP131 T01280122 402170128=
202209130653 METAR KBLI 130653Z AUTO 15006KT 10SM CLR 16/13 A2990 RMK AO2 SLP131 T01560128=
202209130553 METAR KBLI 130553Z AUTO 00000KT 10SM CLR 13/12 A2991 RMK AO2 SLP134 T01330122 10206 20133 58000=
202209130453 METAR KBLI 130453Z 00000KT 10SM FEW039 15/12 A2991 RMK AO2 SLP136 T01500122=
202209130353 METAR KBLI 130353Z 18004KT 10SM CLR 16/13 A2991 RMK AO2 SLP135 T01610128=
202209130253 METAR KBLI 130253Z 18005KT 10SM CLR 17/13 A2991 RMK AO2 SLP134 T01670133 56008=
202209130153 METAR KBLI 130153Z 20005KT 10SM CLR 18/14 A2991 RMK AO2 SLP136 T01830139=
202209130053 METAR KBLI 130053Z VRB03KT 10SM CLR 20/14 A2992 RMK AO2 SLP138 T02000139=
202209122353 METAR KBLI 122353Z VRB04KT 10SM CLR 21/14 A2994 RMK AO2 SLP143 T02060139 10217 20183 58013=
202209122253 METAR KBLI 122253Z 19007KT 7SM FEW100 21/13 A2995 RMK AO2 SLP147 T02060133=
202209122153 METAR KBLI 122153Z 23005KT 10SM FEW110 21/13 A2996 RMK AO2 SLP152 T02060133=
202209122053 METAR KBLI 122053Z 22008G15KT 170V260 10SM SCT100 21/13 A2997 RMK AO2 SLP155 T02060133 58014=
202209121953 METAR KBLI 121953Z 18009KT 10SM CLR 19/14 A2999 RMK AO2 SLP162 T01940139=
202209121853 METAR KBLI 121853Z 19007KT 7SM SCT050 19/13 A3001 RMK AO2 SLP167 T01890133=
202209121753 METAR KBLI 121753Z 19007KT 7SM FEW040 SCT080 19/13 A3002 RMK AO2 SLP170 T01940133 10194 20150 58002=
202209121653 METAR KBLI 121653Z 18005KT 7SM FEW040 SCT080 18/14 A3002 RMK AO2 SLP172 T01830139=
202209121553 METAR KBLI 121553Z VRB03KT 7SM FEW060 17/14 A3002 RMK AO2 SLP172 T01720139=
202209121453 METAR KBLI 121453Z 18004KT 7SM CLR 16/14 A3002 RMK AO2 SLP172 T01610139 51003=
202209121353 METAR KBLI 121353Z 00000KT 7SM FU CLR 16/14 A3002 RMK AO2 SLP171 T01560139=
202209121253 METAR KBLI 121253Z AUTO 17006KT 9SM FU SCT120 16/14 A3002 RMK AO2 SLP170 T01610139 $=
202209121153 METAR KBLI 121153Z AUTO 18005KT 9SM FU SCT120 16/14 A3001 RMK AO2 SLP168 T01610144 10172 20150 56005 $=
202209121053 METAR KBLI 121053Z AUTO 19007KT 9SM FU FEW120 16/14 A3001 RMK AO2 SLP169 T01610139 $=
202209120953 METAR KBLI 120953Z AUTO 19005KT 9SM FU CLR 16/14 A3002 RMK AO2 SLP169 T01610144 $=
202209120853 METAR KBLI 120853Z AUTO 19004KT 9SM FU CLR 17/14 A3003 RMK AO2 SLP173 T01670144 55001 $=
202209120753 METAR KBLI 120753Z AUTO 22003KT 9SM FU CLR 15/14 A3002 RMK AO2 SLP172 T01500139 402500106 $=
202209120653 METAR KBLI 120653Z AUTO 19003KT 10SM FU CLR 17/14 A3003 RMK AO2 SLP174 T01670144 $=
202209120553 METAR KBLI 120553Z AUTO 19007KT 10SM FU CLR 17/14 A3003 RMK AO2 SLP174 T01720144 10233 20161 51014 $=
202209120453 METAR KBLI 120453Z 19004KT 10SM FU CLR 17/14 A3003 RMK AO2 SLP172 T01670139 $=
202209120353 METAR KBLI 120353Z 18005KT 10SM FU CLR 18/14 A3002 RMK AO2 SLP171 T01830139 $=
202209120253 METAR KBLI 120253Z 18007KT 10SM FU CLR 19/13 A2999 RMK AO2 SLP161 T01940133 52008 $=
202209120153 METAR KBLI 120153Z 19007G15KT 10SM FU CLR 20/13 A2998 RMK AO2 SLP157 T02000133 $=
202209120053 METAR KBLI 120053Z 20006KT 8SM FU CLR 22/13 A2998 RMK AO2 SLP157 T02170128 $=
202209112353 METAR KBLI 112353Z 20008G18KT 7SM CLR 23/12 A2997 RMK AO2 SLP153 T02330117 10250 20211 58008 $=
202209112253 METAR KBLI 112253Z 20007KT 5SM HZ FEW040 24/12 A2998 RMK AO2 SLP156 T02390122 $=
202209112153 METAR KBLI 112153Z 21007KT 180V240 5SM HZ FEW040 24/13 A2998 RMK AO2 SLP158 T02440133 $=
202209112133 SPECI KBLI 112133Z VRB05KT 4SM HZ CLR 25/13 A2998 RMK AO2 T02500128 $=
202209112053 METAR KBLI 112053Z 20004KT 2 1/2SM HZ BKN040 24/13 A2999 RMK AO2 SLP161 T02440133 58001 $=
202209111953 METAR KBLI 111953Z 19004KT 2 1/2SM HZ SCT044 23/11 A2999 RMK AO2 SLP161 T02330111 $=
202209111920 SPECI KBLI 111920Z VRB06KT 2 1/2SM HZ FU SCT038 23/11 A3000 RMK AO2 T02330106 $=
202209111857 SPECI KBLI 111857Z 18006KT 3SM HZ FU SCT034 23/10 A3000 RMK AO2 T02280100 $=
202209111853 METAR KBLI 111853Z 18006KT 2 1/2SM HZ FU SCT034 23/10 A3000 RMK AO2 SLP164 T02280100 $=
202209111753 METAR KBLI 111753Z 00000KT 3SM HZ FU SCT034 21/10 A2999 RMK AO2 SLP162 60000 T02110100 10211 20111 52004 $=
202209111653 METAR KBLI 111653Z 00000KT 3SM HZ BKN034 OVC043 21/11 A2999 RMK AO2 SLP162 T02060111 $=
202209111553 METAR KBLI 111553Z 00000KT 3SM HZ FU SCT032 17/12 A2998 RMK AO2 SLP158 T01720122 $=
202209111453 METAR KBLI 111453Z 17003KT 5SM BR FEW035 FEW080 SCT110 14/13 A2998 RMK AO2 RAB1356E06B38E49 SLP158 P0000 60000 T01390128 53016 $=
202209111353 METAR KBLI 111353Z 00000KT 5SM BR FU FEW050 SCT080 13/12 A2993 RMK AO2 SLP142 T01330117 $=
202209111253 METAR KBLI 111253Z AUTO 00000KT 6SM FU SCT030 14/12 A2996 RMK AO2 SLP152 T01390117 $=
202209111153 METAR KBLI 111153Z AUTO 00000KT 7SM FU OVC035 12/11 A2993 RMK AO2 SLP142 T01170111 10139 20106 53013 $=
202209111053 METAR KBLI 111053Z AUTO 00000KT 7SM FU OVC038 11/11 A2992 RMK AO2 SLP136 T01110106 $=
202209110953 METAR KBLI 110953Z AUTO 00000KT 8SM FU OVC035 12/11 A2990 RMK AO2 SLP132 T01170111 $=
202209110853 METAR KBLI 110853Z AUTO 00000KT 8SM FU OVC038 12/11 A2989 RMK AO2 SLP128 T01170111 52009 $=
202209110753 METAR KBLI 110753Z AUTO 00000KT 10SM FU OVC036 12/12 A2988 RMK AO2 SLP123 T01220117 402610083 $=
202209110653 METAR KBLI 110653Z AUTO 00000KT 10SM FU OVC038 12/12 A2988 RMK AO2 SLP123 T01220122 $=
202209110553 METAR KBLI 110553Z AUTO 00000KT 10SM FU OVC042 13/12 A2987 RMK AO2 SLP119 T01280117 10211 20128 53017 $=
202209110453 METAR KBLI 110453Z 00000KT 10SM FU OVC046 14/12 A2985 RMK AO2 SLP113 T01390122 $=
202209110353 METAR KBLI 110353Z 00000KT 5SM FU OVC050 16/12 A2983 RMK AO2 SLP108 T01560122 $=
202209110253 METAR KBLI 110253Z 00000KT 5SM FU OVC060 16/12 A2982 RMK AO2 SLP103 T01560122 53001 $=
202209110153 METAR KBLI 110153Z 00000KT 5SM FU BKN060 OVC075 18/13 A2981 RMK AO2 SLP100 T01830128 $=
202209110053 METAR KBLI 110053Z 00000KT 5SM FU FEW030 SCT070 21/13 A2981 RMK AO2 SLP098 T02060133 $=
202209102353 METAR KBLI 102353Z 17003KT 3SM FU SCT025 21/12 A2981 RMK AO2 SLP101 T02110117 10261 20211 56014 $=
202209102253 METAR KBLI 102253Z 00000KT 3SM FU SCT025 23/11 A2982 RMK AO2 SLP104 T02330111 $=
202209102153 METAR KBLI 102153Z 23003KT 3SM FU SCT025 24/11 A2984 RMK AO2 SLP111 T02390111 $=
202209102053 METAR KBLI 102053Z VRB05KT 3SM FU SCT030 26/14 A2985 RMK AO2 SLP115 T02560144 56015 $=
202209101953 METAR KBLI 101953Z 22005KT 3SM FU FEW040 26/15 A2987 RMK AO2 SLP119 T02560150 $=
202209101853 METAR KBLI 101853Z 19003KT 3SM FU FEW040 23/14 A2989 RMK AO2 SLP126 T02330139 $=
202209101753 METAR KBLI 101753Z 00000KT 3SM FU SCT040 21/11 A2990 RMK AO2 SLP130 T02110106 10217 20083 50000 $=
202209101653 METAR KBLI 101653Z 00000KT 4SM FU OVC032 19/09 A2991 RMK AO2 SLP132 T01890094 $=
202209101553 METAR KBLI 101553Z 00000KT 6SM FU CLR 15/11 A2990 RMK AO2 SLP132 T01500106 $=
202209101453 METAR KBLI 101453Z 00000KT 6SM FU OVC046 11/09 A2990 RMK AO2 SLP131 T01060089 53002 $=
202209101353 METAR KBLI 101353Z 00000KT 6SM BR FU OVC047 08/07 A2989 RMK AO2 SLP127 T00830072 $=
202209101253 METAR KBLI 101253Z AUTO 00000KT 10SM OVC047 09/08 A2989 RMK AO2 SLP127 T00940083 $=
202209101153 METAR KBLI 101153Z AUTO 00000KT 10SM OVC050 10/09 A2989 RMK AO2 SLP128 T01000094 10128 20083 56005 $=
202209101053 METAR KBLI 101053Z AUTO 00000KT 7SM OVC055 10/10 A2990 RMK AO2 SLP128 T01000100 $=
202209100953 METAR KBLI 100953Z AUTO 00000KT 10SM OVC048 11/10 A2990 RMK AO2 SLP130 T01060100 $=
202209100853 METAR KBLI 100853Z AUTO 00000KT 10SM OVC046 11/10 A2991 RMK AO2 SLP132 T01060100 57002 $=
202209100753 METAR KBLI 100753Z AUTO 00000KT 10SM OVC045 11/10 A2991 RMK AO2 SLP134 T01110100 402830078 $=
202209100653 METAR KBLI 100653Z AUTO 00000KT 10SM OVC043 12/11 A2991 RMK AO2 SLP134 T01170106 $=
202209100553 METAR KBLI 100553Z AUTO 00000KT 10SM CLR 13/11 A2991 RMK AO2 SLP135 T01280106 10239 20117 52002 $=
202209100453 METAR KBLI 100453Z 00000KT 10SM FEW040 12/10 A2991 RMK AO2 SLP134 T01220100 $=
202209100353 METAR KBLI 100353Z 00000KT 10SM SCT060 14/11 A2991 RMK AO2 SLP133 T01390111 $=
202209100253 METAR KBLI 100253Z 00000KT 8SM FEW060 16/12 A2991 RMK AO2 SLP132 T01610122 56011 $=
202209100153 METAR KBLI 100153Z 29006KT 8SM FEW040 21/11 A2991 RMK AO2 SLP133 T02060111 $=
202209100053 METAR KBLI 100053Z 29008KT 8SM FEW065 23/12 A2992 RMK AO2 SLP138 T02280122 $=
202209092353 METAR KBLI 092353Z 29008KT 8SM FEW065 24/12 A2994 RMK AO2 SLP143 T02390122 10283 20239 56018 $=
202209092253 METAR KBLI 092253Z VRB06KT 8SM FEW085 28/05 A2995 RMK AO2 SLP148 T02830050 $=
202209092153 METAR KBLI 092153Z 01011G17KT 8SM SCT065 28/04 A2997 RMK AO2 SLP156 T02780044 $=
202209092053 METAR KBLI 092053Z 04013G24KT 8SM BKN065 27/04 A2999 RMK AO2 SLP162 T02670044 56018 $=
202209091953 METAR KBLI 091953Z 05015G25KT 10SM OVC055 26/05 A3001 RMK AO2 SLP165 T02610050 $=
202209091853 METAR KBLI 091853Z 03013G26KT 10SM BKN060 25/05 A3003 RMK AO2 PK WND 06026/1817 SLP174 T02500050=
202209091753 METAR KBLI 091753Z 03014G25KT 10SM BKN060 24/06 A3004 RMK AO2 PK WND 04030/1729 SLP179 T02390056 10239 20111 58008=
202209091653 METAR KBLI 091653Z 04015G25KT 010V080 10SM CLR 22/05 A3005 RMK AO2 SLP182 T02170050=
202209091553 METAR KBLI 091553Z 04010G19KT 10SM CLR 19/06 A3006 RMK AO2 SLP185 T01940061=
202209091453 METAR KBLI 091453Z 01011G20KT 10SM CLR 17/07 A3007 RMK AO2 SLP187 T01670072 56008=
202209091353 METAR KBLI 091353Z 36008KT 10SM CLR 13/08 A3007 RMK AO2 SLP188 T01280083=
202209091253 METAR KBLI 091253Z AUTO 33006KT 10SM CLR 12/11 A3009 RMK AO2 SLP194 T01220106=
202209091153 METAR KBLI 091153Z AUTO 33008KT 10SM CLR 11/11 A3009 RMK AO2 SLP195 T01110111 10122 20078 56010=
202209091144 SPECI KBLI 091144Z AUTO 33006KT 3SM BR CLR 09/09 A3009 RMK AO2 T00890089=
202209091138 SPECI KBLI 091138Z AUTO 36004KT 1 3/4SM BR CLR 08/08 A3009 RMK AO2 T00830083=
202209091053 METAR KBLI 091053Z AUTO 35003KT 10SM CLR 09/09 A3010 RMK AO2 SLP200 T00940094=
202209090853 METAR KBLI 090853Z AUTO 00000KT 5SM BR CLR 10/10 A3012 RMK AO2 SLP206 T01000100 53001=
202209090832 SPECI KBLI 090832Z AUTO 00000KT 10SM CLR 10/10 A3012 RMK AO2 T01000100=
202209090824 SPECI KBLI 090824Z AUTO 00000KT 2SM BR CLR 09/09 A3012 RMK AO2 T00890089=
202209090753 METAR KBLI 090753Z AUTO 00000KT 10SM CLR 11/11 A3012 RMK AO2 SLP205 T01110111 402280094=
202209090653 METAR KBLI 090653Z AUTO 00000KT 10SM CLR 11/11 A3011 RMK AO2 SLP203 T01110111=
202209090553 METAR KBLI 090553Z AUTO 00000KT 10SM CLR 12/12 A3012 RMK AO2 SLP205 T01220117 10222 20106 58004=
202209090453 METAR KBLI 090453Z 00000KT 10SM CLR 12/11 A3012 RMK AO2 SLP207 T01170111=
202209090353 METAR KBLI 090353Z 00000KT 10SM CLR 13/12 A3013 RMK AO2 SLP209 T01330122=
202209090253 METAR KBLI 090253Z 00000KT 10SM CLR 15/13 A3013 RMK AO2 SLP209 T01500128 56010=
202209090153 METAR KBLI 090153Z 00000KT 10SM CLR 18/12 A3014 RMK AO2 SLP211 T01830122=
202209090053 METAR KBLI 090053Z VRB03KT 10SM CLR 21/12 A3015 RMK AO2 SLP215 T02060117=
202209082353 METAR KBLI 082353Z VRB06KT 10SM CLR 22/08 A3016 RMK AO2 SLP219 T02220083 10228 20172 58021=
202209082253 METAR KBLI 082253Z 29007KT 10SM CLR 22/09 A3019 RMK AO2 SLP228 T02170089=
202209082153 METAR KBLI 082153Z 29007KT 10SM CLR 21/09 A3021 RMK AO2 SLP237 T02060094=
202209082053 METAR KBLI 082053Z 30009KT 10SM CLR 20/12 A3022 RMK AO2 SLP240 T02000117 58011=
202209081953 METAR KBLI 081953Z VRB06KT 10SM CLR 19/11 A3024 RMK AO2 SLP246 T01890106=
202209081853 METAR KBLI 081853Z VRB05KT 10SM CLR 18/12 A3025 RMK AO2 SLP250 T01830122=
202209081753 METAR KBLI 081753Z 23005KT 10SM CLR 18/12 A3026 RMK AO2 SLP252 T01780122 10183 20094 50001=
202209081653 METAR KBLI 081653Z 16003KT 10SM FEW019 17/12 A3026 RMK AO2 SLP254 T01670117=
202209081453 METAR KBLI 081453Z 19003KT 10SM CLR 13/12 A3025 RMK AO2 SLP251 T01330117 53009=
202209081353 METAR KBLI 081353Z 00000KT 10SM CLR 11/11 A3024 RMK AO2 SLP246 T01060106=
202209081253 METAR KBLI 081253Z AUTO 17003KT 10SM CLR 11/11 A3023 RMK AO2 SLP243 T01110111=
202209081153 METAR KBLI 081153Z AUTO 20003KT 10SM CLR 12/11 A3023 RMK AO2 SLP242 T01170111 10167 20117 55000=
202209081053 METAR KBLI 081053Z AUTO 18004KT 10SM CLR 12/11 A3022 RMK AO2 SLP239 T01220111=
202209080953 METAR KBLI 080953Z AUTO 18003KT 10SM CLR 14/11 A3022 RMK AO2 SLP241 T01440111=
202209080853 METAR KBLI 080853Z AUTO VRB03KT 10SM CLR 16/11 A3023 RMK AO2 SLP241 T01560111 51008=
202209080753 METAR KBLI 080753Z AUTO 00000KT 10SM CLR 14/11 A3022 RMK AO2 SLP240 T01390106 402330133=
202209080653 METAR KBLI 080653Z AUTO 05003KT 10SM CLR 15/10 A3022 RMK AO2 SLP238 T01500100=
202209080553 METAR KBLI 080553Z AUTO 00000KT 10SM CLR 16/11 A3020 RMK AO2 SLP234 T01560106 10222 20133 51010=
202209080453 METAR KBLI 080453Z 00000KT 10SM CLR 14/11 A3019 RMK AO2 SLP231 T01440106=
202209080353 METAR KBLI 080353Z 15006KT 10SM CLR 16/09 A3018 RMK AO2 SLP227 T01560094=
202209080253 METAR KBLI 080253Z 00000KT 10SM CLR 17/08 A3017 RMK AO2 SLP223 T01720078 55003=
202209080153 METAR KBLI 080153Z 33004KT 10SM CLR 19/08 A3017 RMK AO2 SLP221 T01890083=
202209080053 METAR KBLI 080053Z 26007KT 230V290 10SM CLR 21/07 A3018 RMK AO2 SLP225 T02110067=
202209072353 METAR KBLI 072353Z 29007KT 260V340 10SM CLR 22/06 A3018 RMK AO2 SLP226 T02170056 10233 20194 58002=
202209072253 METAR KBLI 072253Z AUTO 28007G15KT 220V320 10SM CLR 22/06 A3019 RMK AO2 SLP229 T02170061=
202209072153 METAR KBLI 072153Z VRB04KT 10SM CLR 22/10 A3019 RMK AO2 SLP227 T02220100=
202209072053 METAR KBLI 072053Z 31009G17KT 10SM CLR 23/09 A3019 RMK AO2 SLP227 T02280089 51011=
202209071953 METAR KBLI 071953Z 29008KT 10SM CLR 22/10 A3018 RMK AO2 SLP225 T02170100=
202209071853 METAR KBLI 071853Z VRB03KT 10SM CLR 21/13 A3017 RMK AO2 SLP221 T02060133=
202209071753 METAR KBLI 071753Z 10SM CLR 19/13 A3015 RMK AO2 SLP217 T01940128 10194 20139 51016=
202209071653 METAR KBLI 071653Z 20004KT 10SM CLR 17/13 A3014 RMK AO2 SLP212 T01670128=
202209071553 METAR KBLI 071553Z 18004KT 10SM CLR 17/13 A3012 RMK AO2 SLP207 T01670128=
202209071453 METAR KBLI 071453Z 20005KT 10SM CLR 15/12 A3011 RMK AO2 SLP201 T01500122 53025=
202209071353 METAR KBLI 071353Z 18005KT 10SM SCT110 14/12 A3008 RMK AO2 SLP192 T01440122=
202209071253 METAR KBLI 071253Z AUTO 19007KT 10SM CLR 14/12 A3006 RMK AO2 SLP183 T01440117=
202209071153 METAR KBLI 071153Z AUTO VRB05KT 10SM BKN120 14/12 A3003 RMK AO2 SLP176 T01390117 10156 20128 53012=
202209071053 METAR KBLI 071053Z AUTO 20006KT 10SM CLR 14/12 A3001 RMK AO2 SLP169 T01390117=
202209070953 METAR KBLI 070953Z AUTO 22003KT 10SM CLR 14/12 A3001 RMK AO2 SLP166 T01390122=
202209070853 METAR KBLI 070853Z AUTO 20005KT 10SM BKN110 15/12 A3000 RMK AO2 SLP162 T01500122 55000=
202209070753 METAR KBLI 070753Z AUTO 20004KT 10SM CLR 16/13 A2999 RMK AO2 SLP162 T01560128 402390078=
202209070653 METAR KBLI 070653Z AUTO 18004KT 10SM CLR 16/12 A2999 RMK AO2 SLP161 T01560122=
202209070553 METAR KBLI 070553Z AUTO 00000KT 10SM CLR 14/12 A3000 RMK AO2 SLP163 T01390117 10228 20139 51006=
202209070453 METAR KBLI 070453Z 00000KT 10SM CLR 14/12 A2999 RMK AO2 SLP162 T01390117=
202209070353 METAR KBLI 070353Z 00000KT 10SM CLR 14/11 A2999 RMK AO2 SLP163 T01440111=
202209070253 METAR KBLI 070253Z 00000KT 10SM CLR 17/12 A2998 RMK AO2 SLP158 T01720122 56007=
202209070153 METAR KBLI 070153Z 28004KT 10SM CLR 21/12 A2998 RMK AO2 SLP158 T02110117=
202209070053 METAR KBLI 070053Z 29003KT 10SM CLR 23/11 A2999 RMK AO2 SLP161 T02280111=
202209062353 METAR KBLI 062353Z 28005KT 10SM CLR 22/13 A3000 RMK AO2 SLP164 T02220133 10239 20206 56007=
202209062253 METAR KBLI 062253Z 28007KT 10SM CLR 24/13 A3000 RMK AO2 SLP165 T02390133=
202209062153 METAR KBLI 062153Z 29006KT 10SM CLR 23/13 A3001 RMK AO2 SLP167 T02330128=
202209062053 METAR KBLI 062053Z 28007KT 10SM CLR 23/13 A3002 RMK AO2 SLP172 T02280133 56015=
202209061953 METAR KBLI 061953Z 00000KT 10SM CLR 23/13 A3003 RMK AO2 SLP176 T02330133=
202209061853 METAR KBLI 061853Z VRB04KT 10SM CLR 22/11 A3005 RMK AO2 SLP182 T02220106=
202209061753 METAR KBLI 061753Z 03003KT 10SM CLR 21/11 A3007 RMK AO2 SLP187 T02060111 10206 20083 55003=
202209061653 METAR KBLI 061653Z 01007KT 10SM CLR 18/11 A3006 RMK AO2 SLP186 T01830106=
202209061553 METAR KBLI 061553Z 01004KT 10SM CLR 16/11 A3007 RMK AO2 SLP188 T01560111=
202209061453 METAR KBLI 061453Z 00000KT 10SM CLR 13/12 A3007 RMK AO2 SLP190 T01280117 52004=
202209061353 METAR KBLI 061353Z 00000KT 10SM CLR 10/09 A3007 RMK AO2 SLP187 T01000094=
202209061253 METAR KBLI 061253Z AUTO 00000KT 10SM CLR 09/09 A3007 RMK AO2 SLP188 T00890089=
202209061153 METAR KBLI 061153Z AUTO 00000KT 10SM CLR 09/09 A3006 RMK AO2 SLP185 T00890089 10117 20078 55004=
202209061053 METAR KBLI 061053Z AUTO 00000KT 10SM CLR 09/09 A3006 RMK AO2 SLP184 T00890089=
202209060953 METAR KBLI 060953Z AUTO 00000KT 10SM CLR 09/09 A3006 RMK AO2 SLP184 T00940094=
202209060853 METAR KBLI 060853Z AUTO 00000KT 10SM CLR 10/09 A3007 RMK AO2 SLP189 T01000094 57013=
202209060753 METAR KBLI 060753Z AUTO 00000KT 10SM CLR 11/10 A3008 RMK AO2 SLP193 T01060100 402220100=
202209060653 METAR KBLI 060653Z AUTO 00000KT 10SM CLR 11/10 A3010 RMK AO2 SLP197 T01110100=
202209060553 METAR KBLI 060553Z AUTO 00000KT 10SM CLR 12/10 A3011 RMK AO2 SLP201 T01170100 10217 20117 58006=
202209060453 METAR KBLI 060453Z 00000KT 10SM CLR 13/11 A3012 RMK AO2 SLP205 T01280106=
202209060253 METAR KBLI 060253Z 00000KT 10SM CLR 16/11 A3013 RMK AO2 SLP208 T01610106 58014=
202209060153 METAR KBLI 060153Z 34003KT 10SM CLR 20/08 A3014 RMK AO2 SLP213 T02000078=
202209060053 METAR KBLI 060053Z 31006KT 10SM FEW090 22/08 A3016 RMK AO2 SLP217 T02170078=
202209052353 METAR KBLI 052353Z 26006KT 10SM CLR 22/09 A3017 RMK AO2 SLP222 T02170094 10222 20172 58006=
202209052253 METAR KBLI 052253Z 30006KT 10SM CLR 22/10 A3017 RMK AO2 SLP223 T02170100=
202209052053 METAR KBLI 052053Z 00000KT 10SM CLR 22/12 A3019 RMK AO2 SLP228 T02170117 58004=
202209051953 METAR KBLI 051953Z 19004KT 10SM CLR 19/12 A3021 RMK AO2 SLP235 T01940122=
202209051853 METAR KBLI 051853Z 19004KT 10SM CLR 19/12 A3020 RMK AO2 SLP233 T01940122=
202209051753 METAR KBLI 051753Z VRB05KT 10SM CLR 17/13 A3020 RMK AO2 SLP232 T01720128 10172 20117 50007 $=
202209051653 METAR KBLI 051653Z 18005KT 10SM CLR 17/13 A3020 RMK AO2 SLP234 T01670133 $=
202209051553 METAR KBLI 051553Z 17005KT 10SM SCT065 16/13 A3017 RMK AO2 SLP224 T01560133 $=
202209051453 METAR KBLI 051453Z 19003KT 10SM BKN039 BKN065 13/12 A3018 RMK AO2 SLP225 T01280122 53020 $=
202209051353 METAR KBLI 051353Z 18004KT 10SM OVC070 12/12 A3015 RMK AO2 SLP217 T01220117 $=
202209051253 METAR KBLI 051253Z AUTO 18004KT 10SM FEW085 13/11 A3013 RMK AO2 SLP209 T01280111 $=
202209051153 METAR KBLI 051153Z AUTO 17004KT 10SM CLR 12/11 A3012 RMK AO2 SLP205 T01220111 10161 20117 53009 $=
202209051053 METAR KBLI 051053Z AUTO 18005KT 10SM CLR 12/11 A3011 RMK AO2 SLP203 T01220111 $=
202209050953 METAR KBLI 050953Z AUTO 18004KT 10SM CLR 13/11 A3009 RMK AO2 SLP197 T01280111 $=
202209050853 METAR KBLI 050853Z AUTO 17003KT 10SM CLR 13/12 A3009 RMK AO2 SLP196 T01330117 53012 $=
202209050753 METAR KBLI 050753Z AUTO 18006KT 10SM CLR 15/12 A3008 RMK AO2 SLP191 T01500117 402170133 $=
202209050653 METAR KBLI 050653Z AUTO 18006KT 10SM CLR 16/13 A3007 RMK AO2 SLP188 T01560128 $=
202209050553 METAR KBLI 050553Z AUTO 18007KT 10SM CLR 16/13 A3006 RMK AO2 SLP184 60000 T01610133 10200 20156 51012 $=
202209050453 METAR KBLI 050453Z 23003KT 10SM FEW035 SCT055 16/15 A3005 RMK AO2 SLP180 T01560150 $=
202209050353 METAR KBLI 050353Z VRB03KT 10SM BKN055 17/15 A3004 RMK AO2 SLP177 T01720150 $=
202209050253 METAR KBLI 050253Z 19007KT 10SM SCT050 BKN065 18/16 A3002 RMK AO2 RAE16 SLP172 P0000 60000 T01780156 55001 $=
202209050153 METAR KBLI 050153Z 19005KT 10SM -RA SCT035 BKN055 18/17 A3002 RMK AO2 SLP171 P0000 T01830172 $=
202209050053 METAR KBLI 050053Z 10005KT 10SM -RA BKN050 19/17 A3002 RMK AO2 RAB46 SLP172 P0000 T01940167 $=
202209042353 METAR KBLI 042353Z 31005KT 10SM SCT040 BKN055 OVC080 20/16 A3003 RMK AO2 SLP173 60000 T02000156 10217 20194 51007 $=
202209042253 METAR KBLI 042253Z 26005KT 10SM OVC040 21/15 A3002 RMK AO2 SLP172 T02060150 $=
202209042153 METAR KBLI 042153Z COR VRB05KT 10SM SCT040 BKN055 OVC080 21/15 A3001 RMK AO2 RAB04E19B38E49 SLP168 P0000 T02110150 $=
202209042053 METAR KBLI 042053Z 18008KT 10SM SCT040 BKN060 BKN085 22/15 A3000 RMK AO2 SLP166 60000 T02170150 58006 $=
202209041953 METAR KBLI 041953Z 10SM BKN047 OVC085 22/15 A3002 RMK AO2 SLP171 T02170150 $=
202209041853 METAR KBLI 041853Z 05003KT 10SM OVC075 21/16 A3002 RMK AO2 RAE19 SLP170 P0000 T02060156 $=
202209041753 METAR KBLI 041753Z 19007KT 150V220 10SM -RA OVC080 19/15 A3002 RMK AO2 RAB32 SLP172 P0000 60000 T01940150 10200 20150 55002 $=
202209041653 METAR KBLI 041653Z 00000KT 10SM OVC085 19/14 A3001 RMK AO2 SLP167 T01940139 $=
202209041553 METAR KBLI 041553Z 34003KT 10SM OVC100 17/15 A3002 RMK AO2 SLP171 T01670150 $=
202209041453 METAR KBLI 041453Z 20006KT 10SM BKN080 OVC110 17/14 A3003 RMK AO2 SLP174 T01720144 55004 $=
202209041353 METAR KBLI 041353Z 00000KT 10SM SCT075 16/14 A3002 RMK AO2 SLP172 T01560144 $=
202209041253 METAR KBLI 041253Z AUTO 16003KT 10SM OVC080 16/14 A3002 RMK AO2 SLP170 T01610144 $=
202209041153 METAR KBLI 041153Z AUTO 00000KT 10SM CLR 16/14 A3004 RMK AO2 SLP177 T01560144 10156 20133 53001 $=
202209041053 METAR KBLI 041053Z AUTO 00000KT 10SM CLR 14/14 A3004 RMK AO2 SLP177 T01390139 $=
202209040953 METAR KBLI 040953Z AUTO 00000KT 10SM BKN050 16/14 A3003 RMK AO2 SLP175 T01560139 $=
202209040853 METAR KBLI 040853Z AUTO 00000KT 10SM BKN050 14/14 A3004 RMK AO2 SLP177 T01440144 56010 $=
202209040753 METAR KBLI 040753Z AUTO 00000KT 10SM FEW048 14/14 A3004 RMK AO2 SLP178 T01440144 402220133 $=
202209040653 METAR KBLI 040653Z AUTO 00000KT 10SM CLR 14/14 A3005 RMK AO2 SLP181 T01440139 $=
202209040553 METAR KBLI 040553Z AUTO 00000KT 10SM CLR 16/14 A3007 RMK AO2 SLP187 T01560144 10211 20156 53002 $=
202209040453 METAR KBLI 040453Z AUTO 17004KT 10SM FEW070 18/15 A3006 RMK AO2 SLP184 T01780150 $=
202209040253 METAR KBLI 040253Z 18009KT 10SM CLR 19/16 A3006 RMK AO2 SLP185 T01890156 53003 $=
202209040153 METAR KBLI 040153Z 19008KT 160V220 10SM FEW070 19/15 A3006 RMK AO2 SLP183 T01940150 $=
202209040053 METAR KBLI 040053Z 19009G17KT 10SM FEW070 21/15 A3005 RMK AO2 SLP181 T02060150 $=
202209032353 METAR KBLI 032353Z 18010G21KT 10SM FEW070 21/16 A3005 RMK AO2 SLP182 T02110156 10222 20194 56002 $=
202209032153 METAR KBLI 032153Z 19008G16KT 10SM CLR 22/14 A3005 RMK AO2 SLP181 T02170139=
202209032053 METAR KBLI 032053Z 19008G18KT 10SM FEW070 22/14 A3006 RMK AO2 SLP183 T02170144 51001=
202209031953 METAR KBLI 031953Z 20009G19KT 10SM CLR 21/14 A3006 RMK AO2 SLP184 T02060139=
202209031853 METAR KBLI 031853Z 17013G21KT 10SM CLR 21/14 A3006 RMK AO2 SLP183 T02060139=
202209031653 METAR KBLI 031653Z 17013G20KT 10SM CLR 19/14 A3004 RMK AO2 SLP176 T01890139=
202209031617 SPECI KBLI 031617Z 17012G19KT 10SM SCT018 18/14 A3003 RMK AO2 T01830139=
202209031553 METAR KBLI 031553Z 17014G20KT 10SM BKN018 17/14 A3003 RMK AO2 SLP174 T01720139=
202209031453 METAR KBLI 031453Z 17010KT 10SM OVC018 17/14 A3001 RMK AO2 SLP169 T01720139 53011=
202209031353 METAR KBLI 031353Z 17010G23KT 10SM BKN015 17/14 A3000 RMK AO2 SLP162 T01670144=
202209031349 SPECI KBLI 031349Z 17011G23KT 10SM BKN015 17/14 A2999 RMK AO2=
202209031326 SPECI KBLI 031326Z AUTO 17013G23KT 10SM SCT014 17/14 A2998 RMK AO2 T01670144=
202209031302 SPECI KBLI 031302Z AUTO 17013G25KT 10SM BKN014 17/14 A2998 RMK AO2 T01670144=
202209031253 METAR KBLI 031253Z AUTO 16015G24KT 10SM SCT014 17/14 A2998 RMK AO2 SLP157 T01670144=
202209031153 METAR KBLI 031153Z AUTO 17015G31KT 10SM CLR 17/14 A2996 RMK AO2 PK WND 17031/1150 SLP151 T01670144 10178 20156 51013=
202209031121 SPECI KBLI 031121Z AUTO 18013G22KT 10SM FEW011 16/14 A2996 RMK AO2 T01610144=
202209031053 METAR KBLI 031053Z AUTO 18014G29KT 10SM BKN010 16/14 A2996 RMK AO2 PK WND 18029/1022 SLP149 T01610144=
202209030953 METAR KBLI 030953Z AUTO 18016G30KT 10SM CLR 16/14 A2993 RMK AO2 PK WND 18031/0943 SLP139 T01560144=
202209030853 METAR KBLI 030853Z AUTO 19014G26KT 10SM CLR 16/14 A2990 RMK AO2 PK WND 19026/0851 SLP130 T01560144 51012=
202209030753 METAR KBLI 030753Z AUTO 19012G21KT 10SM CLR 16/14 A2989 RMK AO2 SLP128 T01610144 402500122=
202209030653 METAR KBLI 030653Z AUTO 19012G22KT 10SM CLR 17/14 A2988 RMK AO2 SLP123 T01720139=
202209030553 METAR KBLI 030553Z AUTO 19013G25KT 10SM CLR 17/14 A2987 RMK AO2 SLP119 T01670139 10217 20167 51026=
202209030453 METAR KBLI 030453Z 18008KT 8SM CLR 19/13 A2984 RMK AO2 SLP111 T01940133=
202209030353 METAR KBLI 030353Z 18008KT 8SM CLR 19/15 A2982 RMK AO2 SLP103 T01940150=
202209030253 METAR KBLI 030253Z 18010G17KT 10SM CLR 19/16 A2979 RMK AO2 SLP093 T01940156 53001=
202209030153 METAR KBLI 030153Z 20006KT 8SM CLR 21/16 A2977 RMK AO2 SLP088 T02110156=
202209022353 METAR KBLI 022353Z 17006KT 8SM CLR 22/16 A2979 RMK AO2 SLP092 T02170156 10250 20172 56017=
202209022253 METAR KBLI 022253Z 20006KT 8SM CLR 24/17 A2980 RMK AO2 SLP095 T02390172=
202209022153 METAR KBLI 022153Z 22005KT 10SM CLR 23/17 A2982 RMK AO2 SLP101 T02330172=
202209022053 METAR KBLI 022053Z 24005KT 10SM CLR 23/17 A2984 RMK AO2 SLP109 T02330167 58013=
202209021953 METAR KBLI 021953Z 22004KT 10SM CLR 23/16 A2985 RMK AO2 SLP112 T02280161=
202209021853 METAR KBLI 021853Z 24003KT 10SM CLR 20/16 A2987 RMK AO2 SLP120 T02000156=
202209021753 METAR KBLI 021753Z 22005KT 10SM CLR 17/15 A2988 RMK AO2 SLP123 T01720150 10172 20122 58005=
202209021728 SPECI KBLI 021728Z 18003KT 10SM CLR 16/14 A2988 RMK AO2 T01610144=
202209021653 METAR KBLI 021653Z 00000KT 8SM OVC002 14/14 A2988 RMK AO2 SLP125 T01440144=
202209021636 SPECI KBLI 021636Z 19003KT 3/4SM R16/1200VP6000FT BR OVC002 14/14 A2988 RMK AO2 T01390139=
202209021627 SPECI KBLI 021627Z 18005KT 1 1/2SM R16/1400VP6000FT BR OVC002 14/14 A2989 RMK AO2 VIS 1/2V5 T01390139=
202209021609 SPECI KBLI 021609Z VRB03KT 3SM R16/5500VP6000FT BR OVC002 14/14 A2989 RMK AO2 T01390139=
202209021605 SPECI KBLI 021605Z VRB03KT 1SM R16/2600VP6000FT BR OVC002 14/14 A2989 RMK AO2 VIS 1/4V5 T01390139=
202209021549 SPECI KBLI 021549Z VRB03KT 1/2SM R16/1000V2800FT FG OVC002 14/14 A2989 RMK AO2=
202209021540 SPECI KBLI 021540Z 19004KT 3/4SM R16/2400VP6000FT BR OVC003 14/14 A2989 RMK AO2 T01390139=
202209021500 SPECI KBLI 021500Z 19005KT 2SM BR OVC003 14/14 A2990 RMK AO2 T01390139=
202209021453 METAR KBLI 021453Z 19005KT 1SM R16/P6000FT BR OVC003 14/14 A2990 RMK AO2 SLP129 T01390139 53004=
202209021402 SPECI KBLI 021402Z VRB03KT 1SM R16/P6000FT BR OVC002 14/14 A2989 RMK AO2 T01390139=
202209021353 METAR KBLI 021353Z 18003KT 10SM BKN003 14/14 A2989 RMK AO2 SLP126 T01390139=
202209021343 SPECI KBLI 021343Z 00000KT 10SM SCT003 12/12 A2989 RMK AO2 T01220122=
202209021253 METAR KBLI 021253Z AUTO 00000KT 7SM CLR 13/13 A2988 RMK AO2 SLP125 T01330133=
202209021153 METAR KBLI 021153Z AUTO 00000KT 10SM CLR 14/14 A2989 RMK AO2 SLP128 T01390139 10167 20122 55001=
202209021053 METAR KBLI 021053Z AUTO 00000KT 10SM CLR 13/13 A2989 RMK AO2 SLP127 T01280128=
202209020953 METAR KBLI 020953Z AUTO 00000KT 10SM CLR 14/14 A2989 RMK AO2 SLP129 T01390139=
202209020853 METAR KBLI 020853Z AUTO 00000KT 10SM CLR 14/14 A2990 RMK AO2 SLP129 T01390139 58005=
202209020753 METAR KBLI 020753Z AUTO 00000KT 10SM CLR 15/15 A2990 RMK AO2 SLP131 T01500150 402220144=
202209020653 METAR KBLI 020653Z AUTO 00000KT 10SM CLR 16/16 A2991 RMK AO2 SLP133 T01610156=
202209020553 METAR KBLI 020553Z AUTO 20007KT 10SM CLR 17/16 A2991 RMK AO2 SLP134 T01670156 10222 20167 55001=
202209020453 METAR KBLI 020453Z 19006KT 10SM CLR 17/16 A2991 RMK AO2 SLP133 T01720156=
202209020253 METAR KBLI 020253Z 19004KT 10SM CLR 19/16 A2991 RMK AO2 SLP135 T01890161 56014=
202209020153 METAR KBLI 020153Z 16004KT 10SM CLR 21/17 A2992 RMK AO2 SLP136 T02060167=
202209020053 METAR KBLI 020053Z 18004KT 10SM CLR 22/16 A2993 RMK AO2 SLP141 T02220161=
202209012353 METAR KBLI 012353Z 18007KT 10SM CLR 22/17 A2995 RMK AO2 SLP148 T02170167 10222 20178 57021=
202209012253 METAR KBLI 012253Z VRB06KT 10SM CLR 22/17 A2997 RMK AO2 SLP155 T02220167=
202209012153 METAR KBLI 012153Z VRB06KT 10SM CLR 21/16 A3000 RMK AO2 SLP162 T02110161=
202209012053 METAR KBLI 012053Z 21005KT 10SM CLR 19/16 A3002 RMK AO2 SLP169 T01940161 56010=
202209011953 METAR KBLI 011953Z 21009G15KT 10SM CLR 19/16 A3002 RMK AO2 SLP171 VSBY CIGS LWR SW-NW T01890161=
202209011913 SPECI KBLI 011913Z VRB06G16KT 10SM SCT006 19/16 A3003 RMK AO2 VSBY CIGS LWR SW-NW T01890161=
202209011853 METAR KBLI 011853Z VRB06G15KT 10SM BKN006 18/16 A3003 RMK AO2 SLP176 T01830161=
202209011753 METAR KBLI 011753Z 20010G15KT 10SM BKN006 18/16 A3005 RMK AO2 SLP179 T01780161 10178 20156 51006=
202209011653 METAR KBLI 011653Z 19009G15KT 10SM BKN006 17/16 A3004 RMK AO2 SLP177 T01720156=
202209011553 METAR KBLI 011553Z VRB06KT 10SM OVC005 17/16 A3004 RMK AO2 SLP178 T01670156=
202209011453 METAR KBLI 011453Z 19006KT 10SM OVC006 17/16 A3003 RMK AO2 SLP174 T01670156 53012=
202209011417 SPECI KBLI 011417Z 18007KT 10SM BKN006 16/16 A3002 RMK AO2 T01610156=
202209011353 METAR KBLI 011353Z 18006KT 10SM FEW006 16/16 A3002 RMK AO2 SLP169 T01560156=
202209011253 METAR KBLI 011253Z AUTO 19005KT 10SM CLR 16/16 A3000 RMK AO2 SLP163 T01610156=
202209011153 METAR KBLI 011153Z AUTO 19008KT 10SM CLR 17/16 A2999 RMK AO2 SLP161 70001 T01670156 10206 20167 51005=
202209011053 METAR KBLI 011053Z AUTO 18007KT 10SM CLR 17/16 A2999 RMK AO2 SLP161 T01720161=
202209010853 METAR KBLI 010853Z AUTO 18009G15KT 10SM CLR 18/16 A2998 RMK AO2 SLP156 T01830156 53014=
202209010753 METAR KBLI 010753Z AUTO 18013G21KT 10SM CLR 18/16 A2996 RMK AO2 SLP151 T01830156 402610144=
202209010653 METAR KBLI 010653Z AUTO 18012G21KT 10SM CLR 18/16 A2994 RMK AO2 SLP143 T01830161=
202209010553 METAR KBLI 010553Z AUTO 19007KT 10SM CLR 21/16 A2994 RMK AO2 SLP142 T02110161 10256 20211 51014=
202209010453 METAR KBLI 010453Z 18010G18KT 10SM CLR 22/17 A2992 RMK AO2 SLP138 T02170167=
202209010353 METAR KBLI 010353Z 18010G18KT 10SM CLR 22/16 A2991 RMK AO2 SLP134 T02220161=
202209010253 METAR KBLI 010253Z 18011G22KT 10SM CLR 23/16 A2989 RMK AO2 SLP128 T02330161 55001=
202209010153 METAR KBLI 010153Z 18011G20KT 10SM CLR 23/16 A2989 RMK AO2 SLP126 T02280156=
202209010053 METAR KBLI 010053Z VRB05KT 10SM CLR 23/17 A2989 RMK AO2 SLP125 T02330167=

# No short TAF reports from KBLI in databse.

###################################
#  large TAF from KBLI
###################################
202209302322 TAF KBLI 302322Z 0100/0124 24006KT P6SM SKC FM010400 18003KT P6SM
                       SKC FM010900 18006KT P6SM SKC FM011200 19003KT
                       6SM BCFG FEW250=
202209302057 KBLI 302057Z 3021/0118 28007KT P6SM FEW050 FM302200 24006KT P6SM
                       FEW250 FM010400 VRB04KT P6SM SKC FM011200
                       17003KT P6SM BKN007=
202209301729 TAF KBLI 301729Z 3018/0118 20004KT 1/2SM FG OVC004 FM301900 28005KT
                       P6SM BKN020 FM302200 24006KT P6SM FEW250
                       FM010400 VRB04KT P6SM SKC FM011200 17003KT
                       P6SM BKN007=
202209301124 TAF KBLI 301124Z 3012/0112 20004KT 6SM BR BKN003 BKN050
                      TEMPO 3013/3016 1/2SM FG VV001 FM301900 28005KT
                       P6SM SKC FM010400 VRB04KT P6SM FEW250=
202209300525 TAF KBLI 300525Z 3006/0106 17007KT P6SM SCT050 FM301000 17004KT
                       6SM BR BKN003
                      TEMPO 3012/3016 1/2SM FG VV001 FM301900 28005KT
                       P6SM SKC=
202209292320 TAF KBLI 292320Z 3000/3024 19005KT P6SM SCT025 BKN035 FM300100
                       17004KT P6SM SCT050 FM300400 17007KT P6SM
                       SCT200 FM301000 17004KT P6SM FEW008 SCT200
                       TEMPO 3012/3016 5SM BR FM301900 30005KT
                       P6SM BKN250=
202209291732 TAF KBLI 291732Z 2918/3018 19005KT P6SM SCT025 BKN035
                      TEMPO 2918/2920 BKN022 FM300100 17004KT P6SM
                       SCT050 FM300400 17007KT P6SM SCT200 FM301000
                       17004KT P6SM FEW008 SCT200
                      TEMPO 3012/3016 5SM BR=
202209291334 KBLI 291334Z 2914/3012 00000KT 6SM BR OVC022
                      TEMPO 2914/2915 1/2SM FG BKN002 FM291800
                       19007KT P6SM BKN035 FM300300 17004KT P6SM
                       SCT050=
202209291123 TAF KBLI 291123Z 2912/3012 00000KT 6SM BR OVC022
                      TEMPO 2912/2914 2SM BR SCT002 FM291800 19007KT
                       P6SM BKN035 FM300300 17004KT P6SM SCT050=
202209291023 KBLI 291023Z 2910/3006 00000KT 6SM BR OVC022
                      TEMPO 2910/2913 1/2SM FG VV002 FM292000 19007KT
                       P6SM BKN035 FM300300 17004KT P6SM SCT050=
202209290523 TAF KBLI 290523Z 2906/3006 VRB03KT P6SM SCT025 BKN040 BKN090 FM291100
                       17004KT P6SM OVC022 FM292000 19007KT P6SM
                       BKN035 FM300300 17004KT P6SM SCT050=
202209282320 TAF KBLI 282320Z 2900/2924 VRB04KT P6SM SCT040 OVC080 FM290300
                       VRB03KT P6SM VCSH BKN045 FM291200 17004KT
                       P6SM OVC022 FM292000 19007KT P6SM BKN035
                       BKN070=
202209281720 TAF KBLI 281720Z 2818/2918 17006KT P6SM SCT020 BKN080 FM282100
                       19008KT P6SM VCSH SCT040 OVC060 FM290300
                       VRB03KT P6SM VCSH BKN045 FM291200 17004KT
                       P6SM VCSH OVC020=
202209281126 TAF KBLI 281126Z 2812/2912 18007KT P6SM BKN150 FM281400 17006KT
                       P6SM SCT020 BKN080 FM282100 19008KT P6SM
                       VCSH BKN040 OVC060
                      TEMPO 2822/2902 6SM -SHRA FM290300 VRB03KT
                       P6SM VCSH BKN045=
202209280531 TAF KBLI 280531Z 2806/2906 18007KT P6SM BKN200 FM281400 17010KT
                       P6SM SCT020 OVC050 FM281900 17008KT P6SM
                       VCSH BKN040 OVC060=
202209272320 TAF KBLI 272320Z 2800/2824 18008KT P6SM BKN200 FM280900 16010KT
                       P6SM SCT100 OVC200 FM281400 17010KT P6SM
                       BKN020 OVC050 FM281900 17008KT P6SM SCT030
                       OVC060=
202209271724 TAF KBLI 271724Z 2718/2818 17003KT P6SM SKC FM272100 20005KT P6SM
                       SKC FM280000 18009KT P6SM FEW120 SCT200
                       FM280900 16010KT P6SM BKN080 OVC120 FM281400
                       17006KT P6SM BKN025 OVC050=
202209271122 TAF KBLI 271122Z 2712/2812 17003KT P6SM SKC
                      TEMPO 2712/2716 2SM BR BKN002 FM272100 21005KT
                       P6SM SKC FM280000 18010KT P6SM SKC FM280900
                       16010KT P6SM OVC050=
202209270533 TAF KBLI 270533Z 2706/2806 18005KT P6SM SKC FM272100 21005KT P6SM
                       SKC=
202209262320 TAF KBLI 262320Z 2700/2724 VRB03KT P6SM SKC FM270300 18007KT P6SM
                       FEW200 FM272100 21005KT P6SM SKC=
202209261725 TAF KBLI 261725Z 2618/2718 02004KT P6SM FEW200 FM262100 25004KT
                       P6SM FEW200 FM270300 18007KT P6SM FEW200=
202209261120 TAF KBLI 261120Z 2612/2712 00000KT 2SM BR FEW001 SCT250
                      TEMPO 2612/2616 1/2SM FG BKN001 FM261600
                       18004KT P6SM SCT200=
202209260833 KBLI 260833Z 2609/2706 00000KT 2SM BR FEW001 SCT200
                      TEMPO 2611/2615 1/2SM FG BKN001 FM261500
                       18004KT P6SM SCT200=
202209260520 TAF KBLI 260520Z 2606/2706 18004KT P6SM SCT200=
202209252334 TAF KBLI 252334Z 2600/2624 30008KT P6SM SKC FM260400 17003KT P6SM
                       SKC=
202209251732 TAF KBLI 251732Z 2518/2618 VRB05KT P6SM SCT200 FM252000 28005KT
                       P6SM SKC FM260400 18003KT P6SM SKC=
202209251650 KBLI 251650Z 2517/2612 VRB05KT P6SM SCT200 FM252000 28005KT P6SM
                       SKC=
202209251120 TAF KBLI 251120Z 2512/2612 00000KT 4SM BR BKN001
                      TEMPO 2512/2516 1SM BR FM251700 18004KT P6SM
                       SCT200 FM252000 28005KT P6SM SKC=
202209251012 KBLI 251012Z 2510/2606 00000KT 2SM BR BKN002
                      TEMPO 2512/2516 1/2SM FG FM251700 18004KT
                       P6SM SCT200 FM252000 28005KT P6SM SKC=
202209250901 KBLI 250901Z 2509/2606 00000KT 1SM BR FEW001 SCT200 FM251700 18004KT
                       P6SM SCT200 FM252000 28005KT P6SM SKC=
202209250524 TAF KBLI 250524Z 2506/2606 18004KT P6SM SCT200 FM252000 28005KT
                       P6SM SKC=
202209242320 TAF KBLI 242320Z 2500/2524 29006KT P6SM SCT200 FM250200 VRB03KT
                       P6SM SCT200=
202209241735 TAF KBLI 241735Z 2418/2518 VRB03KT P6SM SCT200 FM242200 29006KT
                       P6SM SCT200 FM250200 VRB03KT P6SM SCT200=
202209241513 KBLI 241513Z 2415/2512 00000KT P6SM SCT050 SCT200 FM242200 29006KT
                       P6SM SCT200 FM250200 VRB03KT P6SM SCT200=
202209241120 TAF KBLI 241120Z 2412/2512 VRB04KT P6SM OVC045
                      TEMPO 2412/2416 OVC025 FM242000 26006KT P6SM
                       SCT030 BKN050 FM250200 VRB03KT P6SM BKN250=
202209240520 TAF KBLI 240520Z 2406/2506 VRB04KT P6SM OVC050 FM241600 VRB03KT
                       P6SM OVC025 FM242000 26006KT P6SM SCT030
                       BKN250 FM250200 VRB03KT P6SM SCT050 BKN250=
202209232320 TAF KBLI 232320Z 2400/2424 17007KT P6SM VCSH BKN050 OVC080 FM240300
                       16005KT P6SM OVC050 FM241600 17003KT P6SM
                       OVC025=
202209231737 TAF KBLI 231737Z 2318/2418 17007KT P6SM VCSH SCT030 OVC060 FM240300
                       16005KT P6SM OVC050 FM241600 17003KT P6SM
                       OVC025=
202209231128 TAF KBLI 231128Z 2312/2412 17007KT P6SM BKN040 OVC050 FM231600
                       17007KT P6SM OVC035 FM232100 17008KT P6SM
                       SCT025 OVC060 FM240300 16005KT P6SM OVC050=
202209230901 KBLI 230901Z 2309/2406 17007KT P6SM BKN040 OVC050 FM231600 17007KT
                       P6SM OVC040 FM232000 17008KT P6SM SCT025
                       OVC060=
202209230523 TAF KBLI 230523Z 2306/2406 24003KT P6SM SCT050 FM230900 17007KT
                       P6SM OVC030 FM231600 17007KT P6SM OVC025
                       FM232000 17008KT P6SM SCT025 OVC060=
202209222340 TAF KBLI 222340Z 2300/2324 19010KT P6SM FEW080 FM231000 17007KT
                       P6SM OVC025 FM232000 17008KT P6SM SCT025=
202209221739 TAF KBLI 221739Z 2218/2318 18012G25KT P6SM SKC FM230000 19010KT
                       P6SM SKC FM231400 17009G16KT P6SM OVC025=
202209221120 TAF KBLI 221120Z 2212/2312 18010G20KT P6SM SKC FM230400 17012KT
                       P6SM BKN250 FM230900 18010KT P6SM OVC050=
202209220531 TAF KBLI 220531Z 2206/2306 17004KT P6SM SKC FM221000 19012G18KT
                       P6SM SCT200 FM230400 17012KT P6SM BKN250=
202209212334 TAF KBLI 212334Z 2200/2224 VRB03KT P6SM SKC FM220300 19006KT P6SM
                       SKC FM221000 19012G18KT P6SM SCT200=
202209211740 TAF KBLI 211740Z 2118/2218 VRB03KT P6SM SKC FM220300 19006KT P6SM
                       SKC FM221000 19012G18KT P6SM SKC=
202209211124 TAF KBLI 211124Z 2112/2212 00000KT P6SM SKC FM212100 29006KT P6SM
                       SKC FM220300 20006KT P6SM SKC FM220900 19010G18KT
                       P6SM SKC=
202209210528 TAF KBLI 210528Z 2106/2206 00000KT P6SM SKC FM211200 VRB03KT P6SM
                       SKC FM212100 29006KT P6SM SKC FM220300 20006KT
                       P6SM SKC=
202209210305 KBLI 210305Z 2103/2124 03004KT P6SM SKC FM211200 VRB03KT P6SM SKC
                       FM212100 29006KT P6SM SKC=
202209202322 TAF KBLI 202322Z 2100/2124 03010G16KT P6SM SKC FM210600 03006KT
                       P6SM SKC FM212100 29006KT P6SM SKC=
202209201956 KBLI 201956Z 2020/2118 04010G25KT P6SM SKC FM210300 33010KT P6SM
                       SKC FM210900 36004KT P6SM SKC=
202209201734 TAF KBLI 201734Z 2018/2118 04010G25KT P6SM SKC FM201900 34010G18KT
                       P6SM SKC FM210300 33010KT P6SM SKC FM210900
                       36004KT P6SM SKC=
202209201123 TAF KBLI 201123Z 2012/2112 02010G20KT P6SM SKC FM201900 34010G18KT
                       P6SM SKC FM210300 33010KT P6SM SKC FM210900
                       36004KT P6SM SKC=
202209200520 TAF KBLI 200520Z 2006/2106 00000KT P6SM SKC FM200900 03012G20KT
                       P6SM FEW100 FM201900 34010KT P6SM SKC FM210300
                       33005KT P6SM SKC=
202209200305 KBLI 200305Z 2003/2024 VRB03KT P6SM SKC FM200900 03012G20KT P6SM
                       FEW100 FM201900 34010KT P6SM SKC=
202209192332 TAF KBLI 192332Z 2000/2024 27006KT P6SM SKC FM200400 VRB03KT P6SM
                       SKC FM201900 34010KT P6SM SKC=
202209191722 TAF KBLI 191722Z 1918/2018 31005KT P6SM SKC FM200200 VRB03KT P6SM
                       SKC=
202209191120 TAF KBLI 191120Z 1912/2012 VRB03KT P6SM SKC FM191800 31005KT P6SM
                       SKC FM200200 VRB03KT P6SM SKC=
202209190520 TAF KBLI 190520Z 1906/2006 VRB03KT P6SM SKC FM191000 17004KT P6SM
                       SKC FM191800 30005KT P6SM SKC FM200300 VRB03KT
                       P6SM SKC=
202209182324 TAF KBLI 182324Z 1900/1924 32005KT P6SM SKC FM190300 18004KT P6SM
                       SKC FM191800 34005KT P6SM SKC=
202209182100 KBLI 182100Z 1821/1918 32008G15KT P6SM SKC FM182200 26005KT P6SM
                       SKC FM190300 18004KT P6SM SKC=
202209181721 TAF KBLI 181721Z 1818/1918 03009G18KT P6SM SCT150 FM182200 26005KT
                       P6SM SKC FM190300 18004KT P6SM SKC=
202209181120 TAF KBLI 181120Z 1812/1912 VRB03KT P6SM SCT150 OVC200 FM181800
                       33007KT P6SM SCT250 FM182200 26005KT P6SM
                       SCT250 FM190300 18004KT P6SM SKC=
202209180525 TAF KBLI 180525Z 1806/1906 VRB04KT P6SM SCT150 BKN200 FM181200
                       VRB03KT P6SM SCT150 OVC200 FM181800 33007KT
                       P6SM SCT250=
202209172324 TAF KBLI 172324Z 1800/1824 31006KT P6SM FEW150 OVC200 FM180400
                       03004KT P6SM SCT150 OVC200 FM181200 34005KT
                       P6SM SCT150 OVC200=
202209171720 TAF KBLI 171720Z 1718/1818 03007KT P6SM BKN250 FM172100 29008KT
                       P6SM BKN250 FM180400 03004KT P6SM SCT250=
202209171120 TAF KBLI 171120Z 1712/1812 VRB03KT P6SM SCT050 BKN200 FM172100
                       29008KT P6SM BKN200 FM180400 03004KT P6SM
                       SCT200=
202209170538 TAF KBLI 170538Z 1706/1806 18008KT P6SM SCT045 BKN150 FM172100
                       29008KT P6SM BKN200=
202209162339 TAF KBLI 162339Z 1700/1724 19010KT P6SM SCT025 BKN045 FM170200
                       18008KT P6SM SCT045 BKN150 FM171200 VRB03KT
                       P6SM SCT035 BKN100 FM172100 31008KT P6SM
                       BKN250=
202209161737 TAF KBLI 161737Z 1618/1718 18009G20KT P6SM VCSH SCT024 OVC070 FM162000
                       18008KT P6SM SCT025 BKN045 FM170200 18008KT
                       P6SM SCT045 BKN150 FM171200 VRB03KT P6SM
                       SCT035 BKN100=
202209161134 TAF KBLI 161134Z 1612/1712 18008KT P6SM OVC050 FM161600 18012KT
                       P6SM -SHRA BKN025 OVC045 FM162000 18008KT
                       P6SM SCT025 BKN045 FM170200 18008KT P6SM
                       SCT045 BKN150=
202209160541 TAF KBLI 160541Z 1606/1706 18008KT P6SM OVC070 FM161400 18012KT
                       P6SM -RA OVC025 FM161800 18008KT P6SM SCT025
                       BKN045 FM170200 18008KT P6SM SCT045 BKN150=
202209152320 TAF KBLI 152320Z 1600/1624 18006KT P6SM BKN070 FM160300 17010KT
                       P6SM BKN100 FM161300 17012KT P6SM -RA OVC050
                       FM161600 17012KT P6SM OVC020=
202209151723 TAF KBLI 151723Z 1518/1618 19008KT P6SM OVC100 FM152200 18006KT
                       P6SM BKN070 FM160300 17005KT P6SM BKN060
                       FM161300 17010KT P6SM OVC025=
202209151133 TAF KBLI 151133Z 1512/1612 19008KT P6SM BKN060=
202209150532 TAF KBLI 150532Z 1506/1606 19006KT P6SM BKN060=
202209142320 TAF KBLI 142320Z 1500/1524 VRB04KT P6SM SCT070 FM150700 17008KT
                       P6SM BKN100 FM151100 18004KT P6SM OVC050=
202209141727 TAF KBLI 141727Z 1418/1518 18003KT P6SM BKN060 OVC070 FM142100
                       20005KT P6SM BKN050 FM150700 17008KT P6SM
                       BKN100 FM151100 18004KT P6SM OVC050=
202209141134 TAF KBLI 141134Z 1412/1512 18003KT P6SM SCT050 BKN100 FM142100
                       20005KT P6SM BKN050 FM150700 17008KT P6SM
                       BKN100=
202209140539 TAF KBLI 140539Z 1406/1506 19005KT P6SM OVC080 FM140800 17008KT
                       P6SM OVC035 FM141200 16005KT P6SM OVC020=
202209132320 TAF KBLI 132320Z 1400/1424 20005KT P6SM OVC080 FM140800 17008KT
                       P6SM OVC035 FM141200 16005KT P6SM OVC020=
202209131727 TAF KBLI 131727Z 1318/1418 24004KT P6SM SCT035 BKN070 FM132000
                       17005KT P6SM BKN050 FM140800 17008KT P6SM
                       OVC035 FM141200 16005KT P6SM OVC020=
202209131133 TAF KBLI 131133Z 1312/1412 19003KT 6SM HZ SCT040 FM131400 18004KT
                       6SM HZ OVC020 FM131900 17005KT P6SM BKN050
                       FM140800 17008KT P6SM OVC030=
202209130528 TAF KBLI 130528Z 1306/1406 18004KT P6SM SCT040 FM131100 17009KT
                       6SM HZ OVC025 FM131400 18004KT 6SM HZ OVC019
                       FM132000 17005KT P6SM BKN050=
202209122323 TAF KBLI 122323Z 1300/1324 19007KT 6SM HZ FEW100 FM130500 18004KT
                       6SM HZ BKN150 FM131100 17009KT 6SM HZ OVC025
                       FM131400 18004KT 6SM HZ OVC019=
202209121736 TAF KBLI 121736Z 1218/1318 17007KT 6SM HZ FEW050 BKN150 FM122100
                       20006KT 6SM HZ BKN100 FM130500 18007KT 6SM
                       HZ BKN150 FM131100 17009KT 6SM HZ OVC025=
202209121139 TAF KBLI 121139Z 1212/1312 19006KT 6SM FU BKN050 FM121500 17007KT
                       5SM HZ SCT025 BKN150 FM122100 20006KT 6SM
                       HZ BKN100 FM131100 17009KT 6SM HZ OVC025=
202209120530 TAF KBLI 120530Z 1206/1306 19006KT 6SM FU BKN050 FM121500 17007KT
                       5SM HZ SCT025 BKN150 FM122100 20006KT P6SM
                       BKN100=
202209112320 TAF KBLI 112320Z 1200/1224 19006KT 5SM FU BKN050 FM120500 18008KT
                       6SM HZ SCT035 BKN150 FM121500 17007KT 5SM
                       HZ SCT025 BKN250=
202209112128 KBLI 112128Z 1121/1218 18006KT 3SM FU BKN035 OVC040 FM120500 17008KT
                       6SM HZ SCT020 SCT100 FM121300 17007KT 6SM
                       HZ SCT035 BKN150=
202209111725 TAF KBLI 111725Z 1118/1218 18006KT 4SM FU BKN035 OVC040 FM120500
                       17008KT 6SM HZ SCT020 SCT100 FM121300 17007KT
                       6SM HZ SCT035 BKN150=
202209111140 TAF KBLI 111140Z 1112/1212 VRB03KT 6SM FU OVC035 FM111500 17004KT
                       4SM FU BKN035 BKN100 FM111800 20006KT 4SM
                       FU SCT035 BKN100 FM120500 17010KT 6SM HZ
                       SCT020 SCT100=
202209110539 TAF KBLI 110539Z 1106/1206 VRB03KT 5SM FU OVC045 FM111200 19007KT
                       5SM FU SCT250=
202209110300 KBLI 110300Z 1103/1124 VRB03KT 5SM FU BKN030 OVC070 FM111200 19007KT
                       5SM FU SCT250=
202209102325 TAF KBLI 102325Z 1100/1124 29005KT 3SM FU SCT025 FM110500 17008KT
                       5SM FU SCT030 FM111200 19007KT 5SM FU SCT250=
202209101720 TAF KBLI 101720Z 1018/1118 VRB05KT 4SM FU OVC035 FM102100 31005KT
                       3SM FU OVC030 FM110500 15004KT 5SM FU SCT030
                       FM111200 17009G15KT 6SM HZ SKC=
202209101128 TAF KBLI 101128Z 1012/1112 00000KT 5SM FU BKN045 FM102300 31005KT
                       6SM FU SCT030 FM110500 15004KT 6SM FU SCT030=
202209100528 TAF KBLI 100528Z 1006/1106 29005KT 5SM FU BKN035 FM101500 05008KT
                       3SM FU SCT025 FM102300 31005KT 6SM FU SCT030
                       FM110500 15004KT P6SM SKC=
202209100253 KBLI 100253Z 1003/1024 29005KT 5SM FU BKN035 FM101500 02005KT 3SM
                       FU BKN030=
202209092320 TAF KBLI 092320Z 1000/1024 32012KT 6SM FU BKN050 FM100500 08005KT
                       5SM FU BKN035 FM101500 02005KT 3SM FU BKN030=
202209091732 TAF KBLI 091732Z 0918/1018 04015G23KT P6SM BKN050 FM092200 32012KT
                       6SM FU BKN035 FM100500 02003KT 3SM FU BKN035=
202209091146 TAF KBLI 091146Z 0912/1012 35003KT P6SM SKC FM091800 03015G20KT
                       P6SM SKC FM100000 31008KT P6SM SKC FM100600
                       18003KT P6SM SKC=
202209090552 TAF KBLI 090552Z 0906/1006 VRB03KT P6SM SKC FM091100 01003KT P6SM
                       SKC FM092100 32010KT P6SM SKC=
202209082329 TAF KBLI 082329Z 0900/0924 29007KT P6SM SKC FM090300 VRB03KT P6SM
                       SKC FM091100 01003KT P6SM SKC FM092100 32010KT
                       P6SM SKC=
202209081726 TAF KBLI 081726Z 0818/0918 16003KT P6SM FEW020 FM081900 29006KT
                       P6SM SKC FM090300 VRB03KT P6SM SKC FM091300
                       02003KT P6SM SKC=
202209081123 TAF KBLI 081123Z 0812/0912 18004KT P6SM SKC FM081900 31008KT P6SM
                       SKC FM090300 VRB03KT P6SM SKC=
202209080538 TAF KBLI 080538Z 0806/0906 VRB03KT P6SM SKC FM081900 31008KT P6SM
                       SKC FM090300 VRB03KT P6SM SKC=
202209072325 TAF KBLI 072325Z 0800/0824 29009G18KT P6SM SKC FM080300 20004KT
                       P6SM SKC FM081400 VRB03KT P6SM SKC FM081900
                       31008KT P6SM SKC=
202209071720 TAF KBLI 071720Z 0718/0818 20005KT P6SM SCT200 FM072000 23008KT
                       P6SM SKC FM080300 18005KT P6SM SKC=
202209071120 TAF KBLI 071120Z 0712/0812 19005KT P6SM SCT200 FM072000 29007KT
                       P6SM SKC FM080300 21004KT P6SM SKC=
202209070527 TAF KBLI 070527Z 0706/0806 00000KT P6SM SCT250 FM072000 29007KT
                       P6SM SKC FM080300 21004KT P6SM SKC=
202209062320 TAF KBLI 062320Z 0700/0724 29006KT P6SM SKC FM070300 19003KT P6SM
                       SKC FM070900 19008KT P6SM FEW120 BKN200
                       FM071800 21011G19KT P6SM SCT250=
202209061740 TAF KBLI 061740Z 0618/0718 02007KT P6SM SKC FM062100 29006KT P6SM
                       SKC FM070200 VRB03KT P6SM SKC FM070900 19008KT
                       P6SM FEW120 BKN200=
202209061125 TAF KBLI 061125Z 0612/0712 00000KT P6SM SKC FM062100 29006KT P6SM
                       SKC FM070200 VRB03KT P6SM SKC FM070900 19004KT
                       P6SM FEW120 BKN200=
202209060527 TAF KBLI 060527Z 0606/0706 00000KT P6SM SKC FM062100 29006KT P6SM
                       SKC FM070200 VRB03KT P6SM SKC=
202209052337 TAF KBLI 052337Z 0600/0624 25005KT P6SM SKC FM060500 04004KT P6SM
                       SKC FM061800 35005KT P6SM SKC=
202209051720 TAF KBLI 051720Z 0518/0618 18005KT P6SM SKC FM052000 25005KT P6SM
                       SKC FM060500 04004KT P6SM SKC=
202209051122 TAF KBLI 051122Z 0512/0612 18005KT P6SM SCT030 BKN050 FM052200
                       32005KT P6SM SCT050 SCT120 FM060500 04004KT
                       P6SM SKC=
202209050520 TAF KBLI 050520Z 0506/0606 VRB04KT P6SM SCT030 BKN050 FM052200
                       32005KT P6SM SCT050 SCT120 FM060500 04004KT
                       P6SM SKC=
202209042333 TAF KBLI 042333Z 0500/0524 23007KT P6SM VCSH SCT020 BKN050 FM050700
                       18009KT P6SM BKN100 FM051600 18006KT P6SM
                       BKN025 FM052000 19008KT P6SM BKN050=
202209041740 TAF KBLI 041740Z 0418/0518 18005KT P6SM SCT040 BKN120 FM041900
                       18010KT P6SM VCSH OVC060 FM042200 23007KT
                       P6SM VCSH SCT020 BKN050 FM050700 18009KT
                       P6SM BKN100 FM051600 18006KT P6SM BKN025=
202209041120 TAF KBLI 041120Z 0412/0512 16007KT P6SM SCT040 BKN120 FM041700
                       18010KT P6SM VCSH BKN040 OVC090 FM042200
                       23007KT P6SM SCT020 BKN050 FM050800 VRB03KT
                       P6SM SCT015=
202209040520 TAF KBLI 040520Z 0406/0506 18008KT P6SM SCT040 FM041100 18012KT
                       P6SM SCT040 BKN100 FM042200 18012KT P6SM
                       -RA BKN040 OVC080=
202209032339 TAF KBLI 032339Z 0400/0424 18008KT P6SM SCT040 FM041100 17010G16KT
                       P6SM BKN100=
202209031740 TAF KBLI 031740Z 0318/0418 18014G25KT P6SM SCT040 FM032000 18010KT
                       P6SM BKN025 FM032200 18008KT P6SM SCT040
                       FM041100 17010G16KT P6SM BKN100=
202209031120 TAF KBLI 031120Z 0312/0412 18014G25KT P6SM BKN010 FM031500 18014KT
                       P6SM OVC015 FM032000 18010KT P6SM BKN025
                       FM032200 18008KT P6SM SCT040=
202209030523 TAF KBLI 030523Z 0306/0406 18008KT P6SM SKC FM031100 18010KT P6SM
                       BKN015 FM031500 18014KT P6SM OVC015 FM032000
                       18010KT P6SM BKN025 FM032200 18008KT P6SM
                       SCT040=
202209022324 TAF KBLI 022324Z 0300/0324 VRB03KT P6SM SKC FM031100 19010KT P6SM
                       OVC020 FM031500 18015KT P6SM OVC015 FM032000
                       17010KT P6SM BKN050=
202209021732 TAF KBLI 021732Z 0218/0318 VRB03KT P6SM SKC FM022100 23005KT P6SM
                       SCT200 FM031100 19010KT P6SM OVC020 FM031500
                       18010KT P6SM OVC015=
202209021401 KBLI 021401Z 0214/0312 19004KT P6SM BKN003 FM021600 19004KT P6SM
                       SCT003 FM021700 19006KT P6SM SKC FM031100
                       19008KT P6SM OVC011=
202209021137 TAF KBLI 021137Z 0212/0312 19008KT P6SM SKC FM031100 19008KT P6SM
                       OVC011=
202209020537 TAF KBLI 020537Z 0206/0306 19008KT P6SM SKC=
202209012320 TAF KBLI 012320Z 0200/0224 VRB04KT P6SM SKC FM020500 17008KT P6SM
                       SKC FM021000 18010KT P6SM SKC=
202209011735 TAF KBLI 011735Z 0118/0218 20008KT P6SM BKN006 FM011900 19008KT
                       P6SM SKC FM020400 17007KT P6SM SKC=
202209011125 TAF KBLI 011125Z 0112/0212 18007KT P6SM SKC FM011400 17008KT P6SM
                       FEW250 FM011800 20008KT P6SM SKC=
202209010537 TAF KBLI 010537Z 0106/0206 17010G20KT P6SM SKC FM011400 17008KT
                       P6SM FEW250 FM011800 20008KT P6SM SKC=