##########################################################
# Query made at 02/16/2025 23:41:32 UTC
# Time interval: from 08/01/2023 00:00  to 08/31/2023 23:59  UTC
##########################################################

##########################################################
# KBLI, Bellingham, Bellingham International Airport (United States)
# WMO index: -----. WIGOS ID: Unknown
# Latitude 48-47-58N. Longitude 122-32-21W. Altitude 48 m.
##########################################################

###################################
#  METAR/SPECI from KBLI
###################################
202308312353 METAR KBLI 312353Z 28005KT 3SM RA FEW060 BKN080 OVC100 19/16 A2985 RMK AO2 RAB00E10B46 SLP113 P0001 60001 T01890161 10211 20172 56009=
202308312253 METAR KBLI 312253Z 26006KT 10SM SCT055 OVC070 19/16 A2985 RMK AO2 SLP114 T01940161=
202308312153 METAR KBLI 312153Z 30005KT 10SM SCT018 SCT025 OVC070 20/17 A2986 RMK AO2 SLP118 T02000167=
202308312053 METAR KBLI 312053Z VRB06KT 10SM SCT018 SCT025 OVC070 18/17 A2987 RMK AO2 SLP122 T01830167 56013=
202308312003 SPECI KBLI 312003Z 26005KT 10SM SCT018 SCT025 OVC070 18/17 A2989 RMK AO2 T01830172=
202308311953 METAR KBLI 311953Z VRB03KT 10SM BKN016 BKN034 OVC090 18/17 A2989 RMK AO2 SLP126 T01830167=
202308311938 SPECI KBLI 311938Z VRB03KT 10SM BKN016 BKN034 OVC090 19/17 A2989 RMK AO2 T01890167=
202308311853 METAR KBLI 311853Z VRB03KT 6SM HZ BKN013 BKN022 19/17 A2990 RMK AO2 SLP130 T01940167=
202308311828 SPECI KBLI 311828Z 00000KT 6SM BR BKN011 OVC018 17/17 A2991 RMK AO2 T01720167=
202308311820 SPECI KBLI 311820Z 29003KT 6SM BR OVC015 18/16 A2991 RMK AO2 T01780161=
202308311753 METAR KBLI 311753Z 00000KT 6SM BR BKN007 BKN013 OVC095 17/16 A2991 RMK AO2 SLP135 T01720161 10172 20122 58001=
202308311653 METAR KBLI 311653Z 30003KT 7SM BKN007 OVC043 17/16 A2992 RMK AO2 SLP136 T01670161=
202308311621 SPECI KBLI 311621Z 00000KT 3SM BR BKN007 OVC043 17/16 A2991 RMK AO2 CIG 004V009 T01670161=
202308311553 METAR KBLI 311553Z 00000KT 3SM BR BKN004 OVC042 16/16 A2992 RMK AO2 SLP137 T01560156=
202308311517 SPECI KBLI 311517Z 00000KT 8SM BKN002 OVC040 15/15 A2991 RMK AO2 T01500150=
202308311510 SPECI KBLI 311510Z 00000KT 2SM R16/2000VP6000FT BR BKN002 OVC039 15/15 A2991 RMK AO2 T01500150=
202308311505 SPECI KBLI 311505Z 00000KT 3/4SM R16/1800V2800FT BR BKN002 OVC039 15/15 A2991 RMK AO2 T01500150=
202308311457 SPECI KBLI 311457Z 00000KT 1/4SM R16/1200V2400FT FG BKN002 OVC110 14/14 A2991 RMK AO2 T01440144=
202308311453 METAR KBLI 311453Z 00000KT M1/4SM R16/1000V1800FT FG BKN002 OVC120 14/14 A2991 RMK AO2 SLP136 T01440144 53002=
202308311437 SPECI KBLI 311437Z 01003KT M1/4SM R16/1000V1200FT FG VV002 14/14 A2991 RMK AO2 T01440144=
202308311429 SPECI KBLI 311429Z 00000KT 1/4SM R16/1200V1600FT FG VV002 14/14 A2991 RMK AO2 T01440144=
202308311418 SPECI KBLI 311418Z 00000KT 1/2SM R16/1600V4000FT FG VV002 14/14 A2991 RMK AO2 T01440144 $=
202308311404 SPECI KBLI 311404Z 00000KT 1/4SM R16/1600V1800FT FG VV002 14/14 A2991 RMK AO2 T01390139=
202308311353 METAR KBLI 311353Z 00000KT 1/4SM R16/1800V5000FT FG OVC002 13/13 A2991 RMK AO2 SLP133 T01330133 $=
202308311343 SPECI KBLI 311343Z 03003KT 1/4SM R16/2800VP6000FT FG VV002 13/13 A2990 RMK AO2 T01330133 $=
202308311333 SPECI KBLI 311333Z AUTO 00000KT 1/2SM R16/1400V5500FT FG VV001 13/13 A2990 RMK AO2 T01330133 $=
202308311321 SPECI KBLI 311321Z AUTO 00000KT 1/4SM R16/1400V4000FT FG VV001 13/13 A2991 RMK AO2 T01330133=
202308311305 SPECI KBLI 311305Z AUTO 00000KT 1/4SM R16/1800V2000FT FG VV001 13/13 A2991 RMK AO2 T01330133=
202308311253 METAR KBLI 311253Z AUTO 00000KT 1/4SM R16/1400V2600FT FG BKN001 BKN110 13/13 A2991 RMK AO2 SLP133 T01330133=
202308311248 SPECI KBLI 311248Z AUTO 00000KT 1/4SM R16/1400V2600FT FG BKN001 BKN110 13/13 A2991 RMK AO2=
202308311239 SPECI KBLI 311239Z AUTO 00000KT 1/2SM R16/1600V5500FT FG SCT001 BKN120 14/14 A2991 RMK AO2 T01390139=
202308311235 SPECI KBLI 311235Z AUTO 00000KT 1SM R16/2400V6000FT BR FEW001 SCT120 14/14 A2991 RMK AO2 T01390139=
202308311215 SPECI KBLI 311215Z AUTO 00000KT 1/2SM R16/2800VP6000FT FG FEW002 SCT085 SCT120 14/14 A2992 RMK AO2 T01390139=
202308311153 METAR KBLI 311153Z AUTO 00000KT 1 1/2SM R16/4000VP6000FT BR BKN090 OVC110 14/14 A2992 RMK AO2 VIS 1/2V4 RAE33 SLP138 P0001 60008 70008 T01440144 10172 20144 58018=
202308311132 SPECI KBLI 311132Z AUTO 00000KT 1 3/4SM R16/5000VP6000FT -RA BR OVC100 14/14 A2993 RMK AO2 VIS 1V5 P0001 T01440144=
202308311053 METAR KBLI 311053Z AUTO 00000KT 6SM -RA BR OVC100 15/15 A2994 RMK AO2 SLP144 P0001 T01500150=
202308310953 METAR KBLI 310953Z AUTO 00000KT 7SM -RA FEW032 SCT050 OVC080 15/15 A2996 RMK AO2 SLP151 P0001 T01500150=
202308310853 METAR KBLI 310853Z AUTO 00000KT 7SM -RA OVC090 15/15 A2998 RMK AO2 SLP156 P0001 60005 T01500150 58004=
202308310753 METAR KBLI 310753Z AUTO 00000KT 9SM -RA OVC080 16/16 A2998 RMK AO2 SLP159 P0002 T01560156 402000144=
202308310653 METAR KBLI 310653Z AUTO 00000KT 8SM -RA OVC080 16/16 A2999 RMK AO2 RAB0555 SLP160 P0002 T01610161=
202308310553 METAR KBLI 310553Z AUTO 20005KT 10SM BKN065 OVC090 17/16 A2999 RMK AO2 SLP161 T01720156 10194 20172 58013=
202308310453 METAR KBLI 310453Z 20004KT 10SM BKN060 OVC080 17/16 A3001 RMK AO2 SLP167 T01720156=
202308310353 METAR KBLI 310353Z 18005KT 10SM OVC075 18/16 A3002 RMK AO2 SLP172 T01780156=
202308310253 METAR KBLI 310253Z 18009KT 10SM OVC070 18/16 A3003 RMK AO2 SLP174 T01830156 56014=
202308310153 METAR KBLI 310153Z 18006KT 10SM OVC075 19/16 A3004 RMK AO2 SLP178 T01890156=
202308310053 METAR KBLI 310053Z 18006KT 10SM OVC075 19/16 A3005 RMK AO2 SLP183 T01940156=
202308302353 METAR KBLI 302353Z AUTO 20007KT 10SM OVC070 19/16 A3007 RMK AO2 SLP188 T01940156 10200 20167 56012=
202308302253 METAR KBLI 302253Z AUTO 18007KT 10SM OVC070 20/16 A3007 RMK AO2 SLP190 T02000161=
202308302153 METAR KBLI 302153Z 20007KT 10SM BKN065 20/16 A3009 RMK AO2 SLP196 T02000161=
202308302053 METAR KBLI 302053Z 18008KT 10SM OVC060 19/16 A3010 RMK AO2 SLP200 T01940161 58001=
202308301953 METAR KBLI 301953Z 18008G16KT 10SM OVC065 18/16 A3011 RMK AO2 SLP201 T01830161=
202308301853 METAR KBLI 301853Z 18008G18KT 10SM SCT048 OVC060 18/16 A3011 RMK AO2 SLP202 T01780156=
202308301753 METAR KBLI 301753Z 19008KT 10SM FEW045 OVC060 17/16 A3011 RMK AO2 SLP201 T01670156 10167 20144 50001=
202308301653 METAR KBLI 301653Z 19006KT 10SM OVC060 16/16 A3011 RMK AO2 SLP201 T01610156=
202308301553 METAR KBLI 301553Z 18005KT 10SM OVC060 16/16 A3011 RMK AO2 SLP200 T01610156=
202308301453 METAR KBLI 301453Z 20006KT 10SM BKN048 OVC065 15/15 A3010 RMK AO2 SLP200 T01500150 53009=
202308301353 METAR KBLI 301353Z 19005KT 9SM FEW046 OVC060 14/14 A3009 RMK AO2 SLP194 T01440144=
202308301328 SPECI KBLI 301328Z AUTO 19006KT 8SM SCT003 BKN046 OVC060 14/14 A3008 RMK AO2 T01440144=
202308301253 METAR KBLI 301253Z AUTO 18006KT 8SM BKN003 OVC049 14/14 A3008 RMK AO2 SLP191 T01440144=
202308301153 METAR KBLI 301153Z AUTO 19007KT 8SM BKN003 BKN018 OVC047 14/14 A3008 RMK AO2 SLP191 70025 T01440144 10161 20144 53002=
202308301139 SPECI KBLI 301139Z AUTO 18007KT 8SM BKN004 BKN044 OVC055 14/14 A3008 RMK AO2 T01440144=
202308301107 SPECI KBLI 301107Z AUTO 19005KT 9SM FEW004 BKN019 OVC070 15/15 A3008 RMK AO2 CIG 014V028 T01500150=
202308301053 METAR KBLI 301053Z AUTO 10SM BKN014 OVC050 16/16 A3008 RMK AO2 SLP191 T01560156=
202308300953 METAR KBLI 300953Z AUTO 18007KT 10SM FEW010 BKN043 OVC050 16/16 A3007 RMK AO2 SLP188 T01560156=
202308300934 SPECI KBLI 300934Z AUTO 18008KT 10SM SCT010 OVC055 16/16 A3007 RMK AO2 T01560156=
202308300853 METAR KBLI 300853Z AUTO 19009G18KT 10SM BKN010 OVC039 16/16 A3007 RMK AO2 SLP189 T01560156 56004=
202308300753 METAR KBLI 300753Z AUTO 19009G16KT 10SM BKN012 BKN040 OVC050 16/16 A3007 RMK AO2 SLP189 T01610156 401670144=
202308300700 SPECI KBLI 300700Z AUTO 18008KT 10SM BKN013 OVC055 16/16 A3008 RMK AO2 T01610156=
202308300653 METAR KBLI 300653Z AUTO 18008G16KT 10SM SCT013 BKN034 OVC055 16/16 A3008 RMK AO2 SLP191 T01610156=
202308300553 METAR KBLI 300553Z AUTO 18006KT 10SM OVC050 16/16 A3008 RMK AO2 SLP193 60019 T01560156 10156 20156 58001=
202308300533 SPECI KBLI 300533Z AUTO 17005KT 10SM OVC050 16/16 A3009 RMK AO2 T01560156=
202308300453 METAR KBLI 300453Z 19003KT 5SM BR FEW010 BKN013 OVC048 16/16 A3010 RMK AO2 RAE53 SLP197 P0004 T01560156=
202308300418 SPECI KBLI 300418Z 18007KT 4SM -RA BR FEW009 BKN013 OVC048 16/16 A3010 RMK AO2 P0001 T01560156=
202308300353 METAR KBLI 300353Z 18005KT 4SM -RA BR OVC013 16/16 A3011 RMK AO2 SLP201 P0006 T01560156=
202308300351 SPECI KBLI 300351Z 18007KT 4SM -RA BR FEW009 BKN013 OVC023 16/16 A3011 RMK AO2 P0005=
202308300341 SPECI KBLI 300341Z 18006KT 2 1/2SM -RA BR BKN011 BKN022 OVC028 16/16 A3011 RMK AO2 P0005 T01560156=
202308300334 SPECI KBLI 300334Z 19006KT 2 1/2SM -RA BR BKN009 BKN022 OVC030 16/16 A3010 RMK AO2 P0005 T01560156=
202308300326 SPECI KBLI 300326Z 18007KT 3SM -RA BR FEW009 BKN022 OVC030 16/16 A3010 RMK AO2 P0004 T01560156=
202308300315 SPECI KBLI 300315Z 18006KT 2 1/2SM -RA BR BKN022 OVC030 16/16 A3010 RMK AO2 P0003 T01560156=
202308300253 METAR KBLI 300253Z 18007KT 5SM -RA BR BKN015 OVC024 16/16 A3009 RMK AO2 SLP194 P0001 60009 T01560156 56002=
202308300248 SPECI KBLI 300248Z 18007KT 5SM -RA BR FEW008 BKN015 OVC024 16/16 A3009 RMK AO2 P0001=
202308300202 SPECI KBLI 300202Z 19005KT 5SM -RA BR SCT008 BKN013 OVC040 16/16 A3009 RMK AO2 P0000 T01560156=
202308300153 METAR KBLI 300153Z 20006KT 5SM -RA BR BKN010 BKN024 OVC040 16/16 A3009 RMK AO2 RAE31B46 CIG 008V014 SLP195 P0003 T01560156=
202308300139 SPECI KBLI 300139Z 17005KT 10SM FEW008 BKN013 OVC021 16/16 A3010 RMK AO2 RAE31 P0002 T01560156=
202308300053 METAR KBLI 300053Z 18006KT 5SM -RA BR BKN021 BKN041 OVC090 16/16 A3009 RMK AO2 SLP196 P0005 T01560156=
202308300012 SPECI KBLI 300012Z 19004KT 4SM -RA BR SCT013 BKN018 OVC025 16/16 A3009 RMK AO2 LTG DSNT SE P0001 T01560156=
202308300002 SPECI KBLI 300002Z 18006KT 4SM VCTS -RA BR SCT013 BKN018 OVC025 16/16 A3010 RMK AO2 LTG DSNT SE AND S P0000 T01560156=
202308292353 METAR KBLI 292353Z 20004KT 5SM VCTS RA BR BKN013 OVC018 16/16 A3010 RMK AO2 LTG DSNT SE AND S RAB32 SLP198 P0006 60006 T01560156 10167 20150 51002=
202308292351 SPECI KBLI 292351Z 18005KT 5SM VCTS +RA BR BKN013 OVC018 16/16 A3010 RMK AO2 LTG DSNT SE AND S RAB32 P0005=
202308292253 METAR KBLI 292253Z AUTO 19005KT 10SM OVC015 16/16 A3009 RMK AO2 LTG DSNT S SLP196 T01610156=
202308292217 SPECI KBLI 292217Z 18006KT 10SM OVC015 16/16 A3009 RMK AO2 LTG DSNT W T01610156=
202308292210 SPECI KBLI 292210Z 18007KT 10SM OVC013 16/16 A3010 RMK AO2 T01560156=
202308292153 METAR KBLI 292153Z 18008KT 10SM OVC015 16/15 A3010 RMK AO2 LTG DSNT SW SLP199 T01560150=
202308292053 METAR KBLI 292053Z 17006KT 10SM OVC015 15/15 A3009 RMK AO2 LTG DSNT W AND NW SLP195 T01500150 53006=
202308291953 METAR KBLI 291953Z 18007G16KT 10SM OVC015 16/15 A3008 RMK AO2 LTG DSNT SW AND W SLP192 T01560150=
202308291853 METAR KBLI 291853Z 18007G15KT 160V220 10SM OVC015 16/15 A3008 RMK AO2 LTG DSNT SW AND W SLP191 T01610150=
202308291753 METAR KBLI 291753Z 18008KT 10SM OVC018 16/15 A3007 RMK AO2 LTG DSNT W SLP189 60000 T01560150 10161 20144 53002=
202308291653 METAR KBLI 291653Z 20006KT 10SM OVC023 16/15 A3007 RMK AO2 LTG DSNT SW AND W SLP189 T01560150=
202308291626 SPECI KBLI 291626Z 18007KT 10SM BKN021 16/15 A3007 RMK AO2 LTG DSNT S AND SW T01560150=
202308291553 METAR KBLI 291553Z 20005KT 10SM FEW016 SCT045 BKN095 16/15 A3006 RMK AO2 LTG DSNT SW RAB24E36 SLP184 P0000 T01560150=
202308291453 METAR KBLI 291453Z 12006KT 10SM SCT021 16/15 A3007 RMK AO2 LTG DSNT S AND SW SLP187 60000 T01560150 53002=
202308291418 SPECI KBLI 291418Z 00000KT 6SM BR SCT021 15/15 A3006 RMK AO2 LTG DSNT SW T01500150=
202308291408 SPECI KBLI 291408Z 00000KT 6SM BR BKN021 14/14 A3006 RMK AO2 T01440144=
202308291353 METAR KBLI 291353Z 00000KT 7SM SCT020 14/14 A3006 RMK AO2 LTG DSNT W SLP183 T01440144=
202308291253 METAR KBLI 291253Z AUTO 14005KT 10SM BKN017 OVC090 15/15 A3006 RMK AO2 LTG DSNT W RAB14E53 SLP184 P0000 T01500150=
202308291202 SPECI KBLI 291202Z AUTO 17005KT 10SM BKN018 BKN050 BKN120 15/15 A3007 RMK AO2 T01500150=
202308291153 METAR KBLI 291153Z AUTO VRB03KT 10SM SCT020 BKN050 BKN070 14/14 A3006 RMK AO2 RAB32E47 SLP185 P0000 60006 70006 T01440144 10167 20144 57001=
202308291151 SPECI KBLI 291151Z AUTO 00000KT 10SM SCT020 SCT050 BKN110 14/14 A3006 RMK AO2 RAB32E47 P0000=
202308291116 SPECI KBLI 291116Z AUTO 14004KT 10SM VCTS CLR 15/14 A3005 RMK AO2 LTG DSNT SE-SW T01500144=
202308291053 METAR KBLI 291053Z AUTO 15007KT 10SM FEW016 15/14 A3006 RMK AO2 LTG DSNT N AND S AND SW RAE25 TSB0957E28 SLP186 P0006 T01500144=
202308291038 SPECI KBLI 291038Z AUTO 16006KT 10SM FEW017 SCT029 15/14 A3007 RMK AO2 LTG DSNT S AND NW RAE25 TSB0957E28 P0006 T01500144=
202308291034 SPECI KBLI 291034Z AUTO 15007KT 10SM VCTS SCT017 BKN029 15/14 A3007 RMK AO2 LTG DSNT NW RAE25 TSB0957E28 P0006 T01500144=
202308291015 SPECI KBLI 291015Z AUTO 15008KT 5SM -TSRA BR BKN027 BKN120 16/14 A3007 RMK AO2 LTG DSNT W AND NW TSB0957 P0006 T01560144=
202308290959 SPECI KBLI 290959Z AUTO 15006KT 10SM -TSRA SCT025 BKN035 16/14 A3006 RMK AO2 LTG DSNT S-NW TSB57 P0000 T01560144=
202308290953 METAR KBLI 290953Z AUTO 16006KT 10SM VCTS -RA BKN026 BKN035 OVC100 16/15 A3006 RMK AO2 LTG DSNT S-NW RAB27 TSB33E48 SLP185 P0000 T01560150=
202308290939 SPECI KBLI 290939Z AUTO 17008KT 9SM -TSRA BKN024 16/15 A3007 RMK AO2 LTG DSNT S-NW RAB27 TSB33 P0000 T01610150=
202308290915 SPECI KBLI 290915Z AUTO 16009KT 10SM VCTS OVC024 17/14 A3007 RMK AO2 LTG DSNT SE-SW T01670144=
202308290853 METAR KBLI 290853Z AUTO 16007KT 10SM OVC022 16/14 A3007 RMK AO2 LTG DSNT S SLP187 T01610144 58003=
202308290753 METAR KBLI 290753Z AUTO 18007KT 10SM OVC020 17/15 A3007 RMK AO2 SLP190 T01670150 401940156=
202308290653 METAR KBLI 290653Z AUTO 18006KT 10SM OVC018 17/15 A3007 RMK AO2 SLP188 T01670150=
202308290553 METAR KBLI 290553Z AUTO 17007KT 10SM OVC018 17/15 A3008 RMK AO2 SLP190 60000 T01670150 10178 20167 51005=
202308290453 METAR KBLI 290453Z 17009G17KT 10SM OVC018 17/16 A3007 RMK AO2 SLP190 T01670156=
202308290353 METAR KBLI 290353Z 17011KT 10SM BKN019 BKN024 17/16 A3007 RMK AO2 SLP189 T01670156=
202308290253 METAR KBLI 290253Z 18010G21KT 10SM OVC020 17/16 A3006 RMK AO2 LTG DSNT NE SLP185 60000 T01720161 53004=
202308290153 METAR KBLI 290153Z 17011G21KT 10SM BKN016 17/16 A3005 RMK AO2 LTG DSNT NE AND E RAE0057 SLP182 P0000 T01720161=
202308290134 SPECI KBLI 290134Z 17012G20KT 10SM BKN016 18/16 A3005 RMK AO2 LTG DSNT NE AND E RAE0057 P0000 T01780161=
202308290053 METAR KBLI 290053Z 17009KT 9SM VCTS -RA BKN016 17/17 A3005 RMK AO2 LTG DSNT ALQDS RAB33 TSB25E41 SLP180 P0000 T01720167=
202308290044 SPECI KBLI 290044Z 17010G17KT 9SM -RA BKN016 18/16 A3005 RMK AO2 LTG DSNT ALQDS RAB33 TSB25E41 P0000 T01780161=
202308290028 SPECI KBLI 290028Z 17009G19KT 9SM TS BKN016 18/16 A3005 RMK AO2 LTG DSNT ALQDS TSB25 T01780161=
202308290023 SPECI KBLI 290023Z 17010KT 9SM VCTS FU BKN016 18/16 A3005 RMK AO2 LTG DSNT ALQDS T01780161=
202308282353 METAR KBLI 282353Z 18008G17KT 7SM FU BKN020 BKN090 OVC110 17/16 A3005 RMK AO2 LTG DSNT SE-SW RAB09E49 SLP180 P0000 60000 T01720161 10194 20167 55008=
202308282331 SPECI KBLI 282331Z 19007G18KT 8SM -RA FU BKN020 BKN090 OVC110 17/16 A3005 RMK AO2 LTG DSNT SW AND W RAB09 P0000 T01670161=
202308282323 SPECI KBLI 282323Z 18010G19KT 9SM -RA FU SCT014 SCT090 SCT110 17/16 A3005 RMK AO2 RAB09 P0000 T01720161=
202308282307 SPECI KBLI 282307Z 19011G18KT 10SM FU BKN020 18/16 A3004 RMK AO2 LTG DSNT S AND SW T01780156=
202308282300 SPECI KBLI 282300Z 18007KT 10SM FU CLR 18/16 A3005 RMK AO2 LTG DSNT S AND SW T01780156=
202308282253 METAR KBLI 282253Z 17008G17KT 10SM FU BKN020 18/16 A3004 RMK AO2 LTG DSNT S AND SW SLP179 T01780156=
202308282153 METAR KBLI 282153Z 19010G21KT 9SM FU BKN016 19/16 A3006 RMK AO2 LTG DSNT S AND SW RAB10E19 SLP185 P0000 T01890161=
202308282100 SPECI KBLI 282100Z 18010G18KT 160V220 9SM FU BKN016 18/16 A3007 RMK AO2 T01780156=
202308282053 METAR KBLI 282053Z 18009G16KT 9SM FU SCT016 18/16 A3007 RMK AO2 SLP189 T01780161 57004=
202308281953 METAR KBLI 281953Z 18013G20KT 150V210 6SM HZ FU BKN016 19/16 A3008 RMK AO2 SLP190 T01940161=
202308281853 METAR KBLI 281853Z 17011G18KT 8SM FU BKN014 18/16 A3008 RMK AO2 SLP191 T01780156=
202308281753 METAR KBLI 281753Z 18011KT 7SM FU BKN014 18/16 A3008 RMK AO2 SLP193 T01830161 10183 20156 50002=
202308281724 SPECI KBLI 281724Z 18009KT 7SM FU BKN014 18/16 A3009 RMK AO2 T01780161=
202308281715 SPECI KBLI 281715Z 18011KT 7SM FU SCT014 18/16 A3009 RMK AO2 T01780161=
202308281653 METAR KBLI 281653Z 17009G15KT 7SM FU BKN014 18/16 A3009 RMK AO2 SLP194 T01780161=
202308281553 METAR KBLI 281553Z 18008KT 7SM FU OVC013 17/16 A3008 RMK AO2 SLP193 T01670156=
202308281528 SPECI KBLI 281528Z 18009G15KT 6SM BR FU BKN013 17/16 A3008 RMK AO2 T01670156=
202308281453 METAR KBLI 281453Z 17008KT 6SM BR FU CLR 16/16 A3008 RMK AO2 SLP192 T01610156 53004=
202308281353 METAR KBLI 281353Z 18010KT 6SM BR FU CLR 16/15 A3007 RMK AO2 SLP188 T01560150=
202308281253 METAR KBLI 281253Z AUTO 18008KT 7SM CLR 16/16 A3007 RMK AO2 SLP186 T01610156=
202308281153 METAR KBLI 281153Z AUTO 18008KT 8SM CLR 17/15 A3007 RMK AO2 SLP186 T01670150 10194 20167 51008=
202308281053 METAR KBLI 281053Z AUTO 17007KT 8SM CLR 17/15 A3006 RMK AO2 SLP185 T01720150=
202308280953 METAR KBLI 280953Z AUTO 17008G17KT 9SM CLR 18/15 A3005 RMK AO2 SLP181 T01780150=
202308280853 METAR KBLI 280853Z AUTO 16014G20KT 9SM CLR 18/15 A3004 RMK AO2 SLP178 T01780150 51011=
202308280753 METAR KBLI 280753Z AUTO 18008KT 9SM CLR 18/15 A3004 RMK AO2 SLP177 T01830150 402830128=
202308280653 METAR KBLI 280653Z AUTO 18007KT 9SM CLR 18/16 A3003 RMK AO2 SLP172 T01780156=
202308280553 METAR KBLI 280553Z AUTO 18009KT 9SM CLR 18/16 A3001 RMK AO2 SLP167 T01830156 10272 20178 51014=
202308280453 METAR KBLI 280453Z 19008G17KT 10SM CLR 19/16 A3000 RMK AO2 SLP162 T01890156=
202308280353 METAR KBLI 280353Z 19007KT 10SM CLR 19/16 A2998 RMK AO2 SLP158 T01940161=
202308280253 METAR KBLI 280253Z 17005KT 8SM FU CLR 21/16 A2997 RMK AO2 SLP154 T02060156 55003=
202308280153 METAR KBLI 280153Z 19003KT 7SM FU CLR 24/14 A2997 RMK AO2 SLP152 T02390144=
202308280053 METAR KBLI 280053Z 00000KT 8SM FU CLR 27/13 A2997 RMK AO2 SLP155 T02720128=
202308272353 METAR KBLI 272353Z VRB04KT 7SM FU CLR 27/13 A2998 RMK AO2 SLP156 T02720133 10283 20233 56012=
202308272253 METAR KBLI 272253Z 29005KT 6SM FU CLR 28/14 A2998 RMK AO2 SLP157 T02780139=
202308272153 METAR KBLI 272153Z 25007KT 6SM FU CLR 27/15 A3000 RMK AO2 SLP165 T02720150=
202308272053 METAR KBLI 272053Z VRB06KT 6SM FU CLR 27/16 A3002 RMK AO2 SLP169 T02720161 58013=
202308271953 METAR KBLI 271953Z 23005KT 7SM FU CLR 26/17 A3003 RMK AO2 SLP173 T02560172=
202308271853 METAR KBLI 271853Z 30005KT 6SM HZ FU OVC031 26/15 A3004 RMK AO2 SLP177 T02560150=
202308271753 METAR KBLI 271753Z 00000KT 7SM FU CLR 24/14 A3005 RMK AO2 SLP181 T02390144 10239 20128 58002=
202308271653 METAR KBLI 271653Z 23003KT 7SM FU CLR 21/15 A3006 RMK AO2 SLP184 T02110150=
202308271553 METAR KBLI 271553Z 00000KT 6SM HZ FU CLR 19/16 A3006 RMK AO2 SLP184 T01940156=
202308271453 METAR KBLI 271453Z 00000KT 6SM BR FU CLR 16/16 A3006 RMK AO2 SLP183 T01610156 51012=
202308271353 METAR KBLI 271353Z 35003KT 5SM BR FU CLR 13/13 A3005 RMK AO2 SLP180 T01330133=
202308271253 METAR KBLI 271253Z AUTO 00000KT 6SM BR CLR 14/14 A3004 RMK AO2 SLP176 T01390139=
202308271153 METAR KBLI 271153Z AUTO 00000KT 7SM CLR 14/14 A3002 RMK AO2 SLP172 T01390139 10172 20139 53006=
202308271053 METAR KBLI 271053Z AUTO 00000KT 7SM CLR 15/14 A3002 RMK AO2 SLP169 T01500144=
202308270953 METAR KBLI 270953Z AUTO 00000KT 7SM FEW120 16/15 A3001 RMK AO2 SLP167 T01610150=
202308270853 METAR KBLI 270853Z AUTO 00000KT 8SM CLR 16/14 A3001 RMK AO2 SLP166 T01560144 53012=
202308270753 METAR KBLI 270753Z AUTO 00000KT 7SM CLR 16/14 A2999 RMK AO2 SLP162 T01560144 402890106=
202308270653 METAR KBLI 270653Z AUTO 00000KT 8SM CLR 16/14 A2998 RMK AO2 SLP156 T01560144=
202308270553 METAR KBLI 270553Z AUTO 00000KT 8SM CLR 16/15 A2997 RMK AO2 SLP154 T01610150 10272 20156 51006=
202308270453 METAR KBLI 270453Z 00000KT 8SM CLR 17/16 A2997 RMK AO2 SLP152 T01720156=
202308270353 METAR KBLI 270353Z 00000KT 9SM FU CLR 18/15 A2996 RMK AO2 SLP152 T01830150=
202308270253 METAR KBLI 270253Z 00000KT 7SM FU CLR 22/16 A2995 RMK AO2 SLP149 T02170156 55003=
202308270153 METAR KBLI 270153Z 32003KT 8SM FU CLR 26/14 A2995 RMK AO2 SLP147 T02610144=
202308270053 METAR KBLI 270053Z VRB03KT 7SM FU CLR 27/14 A2996 RMK AO2 SLP149 T02670144=
202308262353 METAR KBLI 262353Z 29005KT 6SM FU CLR 27/14 A2996 RMK AO2 SLP151 T02670144 10289 20256 56011=
202308262253 METAR KBLI 262253Z 29009KT 6SM FU CLR 26/15 A2997 RMK AO2 SLP153 T02610150=
202308262153 METAR KBLI 262153Z 28007KT 7SM FU CLR 27/16 A2998 RMK AO2 SLP156 T02670161=
202308262053 METAR KBLI 262053Z VRB06KT 7SM FU CLR 27/16 A3000 RMK AO2 SLP162 T02670161 58015=
202308261953 METAR KBLI 261953Z 27008KT 6SM FU CLR 27/17 A3001 RMK AO2 SLP168 T02670167=
202308261853 METAR KBLI 261853Z 31008KT 4SM FU CLR 27/14 A3003 RMK AO2 SLP173 T02670139=
202308261753 METAR KBLI 261753Z 35007KT 5SM FU CLR 25/14 A3004 RMK AO2 SLP177 T02500139 10256 20106 58007=
202308261653 METAR KBLI 261653Z 02007KT 4SM FU CLR 22/15 A3005 RMK AO2 SLP181 T02220150=
202308261553 METAR KBLI 261553Z 36003KT 5SM FU CLR 18/15 A3006 RMK AO2 SLP185 T01830150=
202308261453 METAR KBLI 261453Z 35003KT 5SM FU CLR 15/14 A3006 RMK AO2 SLP186 T01500144 53008=
202308261353 METAR KBLI 261353Z 00000KT 5SM FU CLR 11/11 A3005 RMK AO2 SLP183 T01110111=
202308261347 SPECI KBLI 261347Z AUTO 31003KT 2SM BR CLR 11/11 A3005 RMK AO2=
202308261343 SPECI KBLI 261343Z AUTO 32003KT 3/4SM R16/P6000FT BR CLR 11/11 A3005 RMK AO2 T01110111=
202308261337 SPECI KBLI 261337Z AUTO 00000KT 1/4SM R16/P6000FT FG CLR 12/12 A3005 RMK AO2 T01170117=
202308261332 SPECI KBLI 261332Z AUTO 00000KT 3/4SM R16/P6000FT BR CLR 11/11 A3005 RMK AO2 VIS 1/4V2 1/2 T01110111=
202308261327 SPECI KBLI 261327Z AUTO 00000KT 2 1/2SM BR CLR 11/11 A3005 RMK AO2 VIS 1 3/4V3 T01110111=
202308261253 METAR KBLI 261253Z AUTO 00000KT 4SM BR CLR 11/11 A3005 RMK AO2 SLP181 T01110111=
202308261153 METAR KBLI 261153Z AUTO 00000KT 5SM BR CLR 12/12 A3004 RMK AO2 SLP178 T01170117 10144 20111 51001=
202308261053 METAR KBLI 261053Z AUTO 00000KT 5SM BR CLR 12/12 A3004 RMK AO2 SLP177 T01170117=
202308261048 SPECI KBLI 261048Z AUTO 00000KT 3SM BR CLR 12/12 A3004 RMK AO2=
202308261039 SPECI KBLI 261039Z AUTO 00000KT 1 3/4SM BR CLR 12/12 A3004 RMK AO2 T01170117=
202308260953 METAR KBLI 260953Z AUTO 00000KT 6SM BR CLR 12/12 A3004 RMK AO2 SLP177 T01220122=
202308260853 METAR KBLI 260853Z AUTO 00000KT 7SM CLR 13/13 A3003 RMK AO2 SLP176 T01280128 52005=
202308260753 METAR KBLI 260753Z AUTO 00000KT 7SM CLR 13/13 A3003 RMK AO2 SLP175 T01280128 402500111=
202308260653 METAR KBLI 260653Z AUTO 00000KT 8SM CLR 14/13 A3002 RMK AO2 SLP173 T01390133=
202308260553 METAR KBLI 260553Z AUTO 00000KT 8SM CLR 14/14 A3002 RMK AO2 SLP172 60000 T01440139 10250 20139 51009=
202308260453 METAR KBLI 260453Z 00000KT 8SM FU CLR 16/14 A3001 RMK AO2 SLP169 T01560144=
202308260353 METAR KBLI 260353Z 00000KT 8SM FU CLR 16/15 A3001 RMK AO2 RAB19E28 SLP165 P0000 T01610150=
202308260253 METAR KBLI 260253Z 00000KT 7SM FU CLR 19/15 A2999 RMK AO2 SLP162 T01890150 57010=
202308260153 METAR KBLI 260153Z 29004KT 7SM FU CLR 22/14 A3000 RMK AO2 SLP164 T02220139=
202308260053 METAR KBLI 260053Z 00000KT 7SM BKN110 24/14 A3002 RMK AO2 SLP169 T02440139=
202308252353 METAR KBLI 252353Z 00000KT 7SM FU BKN120 24/13 A3002 RMK AO2 SLP172 T02390133 10239 20189 50002=
202308252253 METAR KBLI 252253Z 00000KT 8SM FU CLR 23/14 A3003 RMK AO2 SLP173 T02280139=
202308252153 METAR KBLI 252153Z 00000KT 8SM FU FEW050 BKN100 BKN120 20/14 A3002 RMK AO2 SLP171 T02000144=
202308252053 METAR KBLI 252053Z 00000KT 4SM FU CLR 20/14 A3002 RMK AO2 SLP170 T02000139 50000=
202308251953 METAR KBLI 251953Z 19004KT 5SM HZ FU CLR 20/14 A3002 RMK AO2 SLP173 T02000139=
202308251853 METAR KBLI 251853Z 19009G17KT 5SM HZ FU CLR 19/16 A3003 RMK AO2 SLP176 T01940156=
202308251753 METAR KBLI 251753Z 19009KT 5SM HZ FU CLR 19/16 A3002 RMK AO2 SLP170 T01940156 10233 20139 53019=
202308251653 METAR KBLI 251653Z 04003KT 5SM HZ FU CLR 23/12 A2998 RMK AO2 SLP158 T02280122=
202308251553 METAR KBLI 251553Z 01008KT 5SM HZ FU CLR 21/12 A2996 RMK AO2 SLP151 T02110122=
202308251453 METAR KBLI 251453Z 36005KT 5SM HZ FU CLR 19/12 A2996 RMK AO2 SLP151 T01940117 55002=
202308251353 METAR KBLI 251353Z 03006KT 6SM HZ FU CLR 18/11 A2996 RMK AO2 SLP149 T01780111=
202308251253 METAR KBLI 251253Z AUTO 01006KT 8SM CLR 16/12 A2995 RMK AO2 SLP148 T01610117=
202308251153 METAR KBLI 251153Z AUTO 00000KT 10SM CLR 14/13 A2997 RMK AO2 SLP152 T01440133 10156 20111 56006=
202308251053 METAR KBLI 251053Z AUTO 00000KT 9SM CLR 13/13 A2997 RMK AO2 SLP153 T01330133=
202308250953 METAR KBLI 250953Z AUTO 00000KT 10SM CLR 13/13 A2998 RMK AO2 SLP158 T01330133=
202308250853 METAR KBLI 250853Z AUTO 16003KT 8SM CLR 13/13 A2998 RMK AO2 SLP159 T01280128 53007=
202308250753 METAR KBLI 250753Z AUTO 00000KT 9SM CLR 12/12 A2997 RMK AO2 SLP154 T01170117 402390089=
202308250653 METAR KBLI 250653Z AUTO 00000KT 10SM CLR 13/13 A2997 RMK AO2 SLP154 T01330133=
202308250553 METAR KBLI 250553Z AUTO 00000KT 10SM CLR 14/14 A2996 RMK AO2 SLP152 T01390139 10239 20133 57001=
202308250453 METAR KBLI 250453Z 00000KT 10SM CLR 14/14 A2996 RMK AO2 SLP151 T01440139=
202308250353 METAR KBLI 250353Z 00000KT 10SM CLR 16/15 A2997 RMK AO2 SLP153 T01610150=
202308250253 METAR KBLI 250253Z 00000KT 10SM CLR 19/16 A2997 RMK AO2 SLP153 T01940156 56012=
202308250153 METAR KBLI 250153Z VRB03KT 10SM FU CLR 23/13 A2998 RMK AO2 SLP156 T02280133=
202308250053 METAR KBLI 250053Z 29006KT 10SM FU CLR 23/13 A2999 RMK AO2 SLP161 T02280128=
202308242353 METAR KBLI 242353Z 32008KT 10SM FU CLR 23/14 A3000 RMK AO2 SLP165 T02330139 10233 20194 56019=
202308242253 METAR KBLI 242253Z 29006KT 10SM FU CLR 23/14 A3002 RMK AO2 SLP171 T02280144=
202308242153 METAR KBLI 242153Z 31007KT 10SM FU CLR 23/14 A3004 RMK AO2 SLP177 T02330144=
202308242053 METAR KBLI 242053Z 29007KT 250V310 10SM FU CLR 22/14 A3006 RMK AO2 SLP184 T02220144 58016=
202308241953 METAR KBLI 241953Z VRB03KT 10SM FU CLR 21/14 A3008 RMK AO2 SLP191 T02110139=
202308241853 METAR KBLI 241853Z 30006KT 10SM FU CLR 21/12 A3009 RMK AO2 SLP196 T02110122=
202308241753 METAR KBLI 241753Z VRB04KT 10SM FU CLR 20/12 A3011 RMK AO2 SLP201 T02000122 10200 20089 58004=
202308241653 METAR KBLI 241653Z 02006KT 10SM FU CLR 18/12 A3012 RMK AO2 SLP204 T01780122=
202308241553 METAR KBLI 241553Z 01005KT 10SM FU CLR 14/12 A3012 RMK AO2 SLP204 T01440122=
202308241453 METAR KBLI 241453Z 36004KT 10SM FU CLR 12/11 A3012 RMK AO2 SLP205 T01170111 53001=
202308241353 METAR KBLI 241353Z 03003KT 7SM CLR 09/09 A3012 RMK AO2 SLP206 T00940094=
202308241253 METAR KBLI 241253Z AUTO 36004KT 6SM BR CLR 09/09 A3011 RMK AO2 SLP202 T00890089=
202308241153 METAR KBLI 241153Z AUTO 00000KT 10SM CLR 09/09 A3011 RMK AO2 SLP204 T00940094 10128 20089 58002=
202308241053 METAR KBLI 241053Z AUTO 00000KT 8SM CLR 10/10 A3012 RMK AO2 SLP206 T01000100=
202308240953 METAR KBLI 240953Z AUTO 00000KT 10SM CLR 10/10 A3012 RMK AO2 SLP205 T01000100=
202308240853 METAR KBLI 240853Z AUTO 00000KT 10SM CLR 11/11 A3012 RMK AO2 SLP206 T01060106 58001=
202308240753 METAR KBLI 240753Z AUTO 00000KT 10SM CLR 12/12 A3012 RMK AO2 SLP207 T01170117 402060111=
202308240653 METAR KBLI 240653Z AUTO 00000KT 10SM CLR 12/12 A3012 RMK AO2 SLP207 T01220117=
202308240553 METAR KBLI 240553Z AUTO 00000KT 10SM CLR 13/12 A3012 RMK AO2 SLP206 T01280122 10206 20128 50002=
202308240453 METAR KBLI 240453Z 00000KT 10SM CLR 13/13 A3013 RMK AO2 SLP207 T01330128=
202308240353 METAR KBLI 240353Z 20003KT 10SM CLR 16/13 A3013 RMK AO2 SLP208 T01560133=
202308240253 METAR KBLI 240253Z 19003KT 10SM CLR 17/13 A3012 RMK AO2 SLP205 T01720133 58001=
202308240153 METAR KBLI 240153Z 19003KT 10SM FEW070 18/13 A3012 RMK AO2 SLP207 T01830133=
202308240053 METAR KBLI 240053Z 20004KT 10SM BKN080 19/12 A3013 RMK AO2 SLP207 T01940117=
202308232353 METAR KBLI 232353Z 19005KT 10SM SCT085 21/12 A3012 RMK AO2 SLP206 T02060117 10206 20172 58005=
202308232253 METAR KBLI 232253Z AUTO 17008KT 10SM SCT085 20/12 A3013 RMK AO2 SLP207 T02000117=
202308232153 METAR KBLI 232153Z 18009G15KT 10SM FEW110 19/12 A3014 RMK AO2 SLP210 T01940117=
202308232053 METAR KBLI 232053Z 18009G16KT 10SM OVC090 19/13 A3014 RMK AO2 SLP211 T01890128 52003=
202308231953 METAR KBLI 231953Z 18009G16KT 10SM OVC090 19/12 A3013 RMK AO2 SLP209 T01890122=
202308231853 METAR KBLI 231853Z 18009G16KT 10SM OVC110 17/13 A3013 RMK AO2 SLP209 T01720128=
202308231753 METAR KBLI 231753Z 18012G18KT 10SM CLR 18/13 A3013 RMK AO2 SLP207 60000 T01780133 10178 20144 53007=
202308231653 METAR KBLI 231653Z 17012G17KT 10SM CLR 17/13 A3011 RMK AO2 SLP201 T01720133=
202308231553 METAR KBLI 231553Z 17009G16KT 10SM FEW070 16/13 A3010 RMK AO2 SLP199 T01610128=
202308231453 METAR KBLI 231453Z 18007KT 10SM OVC070 15/13 A3010 RMK AO2 SLP200 60000 T01500128 53015=
202308231353 METAR KBLI 231353Z 18008G16KT 10SM BKN075 BKN090 15/13 A3008 RMK AO2 RAB25E38 SLP193 P0000 T01500133=
202308231253 METAR KBLI 231253Z AUTO 18005KT 10SM BKN070 OVC090 15/13 A3008 RMK AO2 SLP190 T01500133=
202308231153 METAR KBLI 231153Z AUTO 17006KT 10SM OVC070 15/14 A3006 RMK AO2 SLP185 60006 70006 T01500139 10156 20139 52005=
202308231053 METAR KBLI 231053Z AUTO 18007KT 10SM BKN070 OVC090 15/14 A3005 RMK AO2 SLP183 T01500139=
202308230953 METAR KBLI 230953Z AUTO 18004KT 10SM FEW050 SCT060 OVC080 14/14 A3005 RMK AO2 RAE05 SLP183 P0000 T01440139=
202308230853 METAR KBLI 230853Z AUTO 19004KT 10SM -RA OVC045 14/14 A3005 RMK AO2 RAB14E32B52 SLP180 P0001 60006 T01390139 51007=
202308230753 METAR KBLI 230753Z AUTO 00000KT 10SM R16/0300VP6000FT BKN050 OVC060 14/14 A3004 RMK AO2 RAE53 SLP178 P0005 T01390139 402170122=
202308230653 METAR KBLI 230653Z AUTO 18003KT 10SM -RA FEW050 BKN070 OVC090 15/13 A3004 RMK AO2 RAB52 SLP177 P0000 T01500128=
202308230553 METAR KBLI 230553Z AUTO 00000KT 10SM FEW075 BKN090 14/12 A3003 RMK AO2 SLP174 T01390117 10217 20122 51011=
202308230453 METAR KBLI 230453Z 00000KT 10SM FEW100 13/11 A3002 RMK AO2 SLP171 T01330106=
202308230353 METAR KBLI 230353Z 00000KT 10SM CLR 14/11 A3001 RMK AO2 SLP169 T01440111=
202308230253 METAR KBLI 230253Z VRB03KT 10SM CLR 18/12 A2999 RMK AO2 SLP163 T01780117 55003=
202308230153 METAR KBLI 230153Z 23004KT 10SM CLR 21/09 A2999 RMK AO2 SLP160 T02060094=
202308230053 METAR KBLI 230053Z VRB04KT 10SM CLR 21/10 A2999 RMK AO2 SLP162 T02110100=
202308222353 METAR KBLI 222353Z 00000KT 10SM CLR 21/08 A3000 RMK AO2 SLP165 T02110078 10217 20156 58008=
202308222253 METAR KBLI 222253Z 20007KT 10SM CLR 21/09 A3001 RMK AO2 SLP169 T02110089=
202308222153 METAR KBLI 222153Z 23008KT 10SM CLR 19/11 A3002 RMK AO2 SLP172 T01940111=
202308222053 METAR KBLI 222053Z 17007KT 10SM CLR 19/12 A3003 RMK AO2 SLP173 T01940117 58001=
202308221953 METAR KBLI 221953Z 20010G17KT 10SM FU CLR 18/12 A3003 RMK AO2 SLP175 T01780122=
202308221853 METAR KBLI 221853Z 19011KT 10SM FU BKN030 OVC036 16/12 A3003 RMK AO2 SLP174 T01560122=
202308221753 METAR KBLI 221753Z 16010G15KT 10SM FU OVC035 16/12 A3003 RMK AO2 SLP175 T01560117 10156 20133 53005=
202308221653 METAR KBLI 221653Z 19008KT 10SM FU OVC033 16/12 A3002 RMK AO2 SLP171 T01560117=
202308221553 METAR KBLI 221553Z 18006KT 10SM FU BKN035 BKN080 16/12 A3002 RMK AO2 SLP171 T01560117=
202308221453 METAR KBLI 221453Z 18006KT 10SM FU SCT075 14/12 A3001 RMK AO2 SLP169 T01440117 51013=
202308221353 METAR KBLI 221353Z 18006KT 10SM FU BKN070 14/12 A3001 RMK AO2 SLP167 T01390117=
202308221253 METAR KBLI 221253Z AUTO 18007KT 10SM FU OVC070 14/12 A2999 RMK AO2 SLP161 T01390117=
202308221153 METAR KBLI 221153Z AUTO 17006KT 10SM FU CLR 13/11 A2998 RMK AO2 SLP156 T01330111 10167 20133 53012=
202308221053 METAR KBLI 221053Z AUTO 18007KT 10SM FU CLR 13/11 A2996 RMK AO2 SLP152 T01330106=
202308220953 METAR KBLI 220953Z AUTO 19005KT 10SM FU CLR 14/11 A2995 RMK AO2 SLP147 T01390111=
202308220853 METAR KBLI 220853Z AUTO 18006KT 10SM FU CLR 14/11 A2994 RMK AO2 SLP145 T01440111 51014=
202308220753 METAR KBLI 220753Z AUTO 18006KT 10SM FU CLR 15/11 A2993 RMK AO2 SLP141 T01500106 402110111=
202308220653 METAR KBLI 220653Z AUTO 19004KT 10SM FU CLR 16/11 A2992 RMK AO2 SLP137 T01560111=
202308220553 METAR KBLI 220553Z AUTO 18006KT 10SM FU CLR 17/11 A2990 RMK AO2 SLP131 T01670106 10206 20167 51018=
202308220453 METAR KBLI 220453Z 18007KT 10SM FU CLR 17/11 A2989 RMK AO2 SLP127 T01720106=
202308220353 METAR KBLI 220353Z 18007KT 10SM FU CLR 18/11 A2987 RMK AO2 SLP121 T01830106=
202308220253 METAR KBLI 220253Z 18008KT 10SM FU CLR 18/12 A2985 RMK AO2 SLP113 T01830117 53009=
202308220232 SPECI KBLI 220232Z 18010G19KT 10SM FU CLR 19/11 A2984 RMK AO2 T01890111=
202308220153 METAR KBLI 220153Z 18010G18KT 10SM FU CLR 19/11 A2983 RMK AO2 SLP108 T01940106=
202308220053 METAR KBLI 220053Z 18012G19KT 10SM FU CLR 20/12 A2982 RMK AO2 SLP104 T02000117=
202308212353 METAR KBLI 212353Z 19009G17KT 10SM FU CLR 20/13 A2982 RMK AO2 SLP104 T02000128 10211 20161 50000=
202308212253 METAR KBLI 212253Z VRB06G16KT 10SM FU CLR 21/13 A2982 RMK AO2 SLP104 T02060128=
202308212153 METAR KBLI 212153Z 19009G16KT 10SM FU CLR 19/13 A2983 RMK AO2 SLP106 T01940128=
202308212053 METAR KBLI 212053Z 19009G15KT 170V230 10SM FU CLR 19/12 A2982 RMK AO2 SLP104 T01890122 57004=
202308211953 METAR KBLI 211953Z VRB05KT 10SM FU CLR 19/12 A2982 RMK AO2 SLP105 T01890117=
202308211853 METAR KBLI 211853Z 23006KT 10SM FU CLR 17/13 A2983 RMK AO2 SLP107 T01720128=
202308211753 METAR KBLI 211753Z 23006KT 10SM FU CLR 16/13 A2983 RMK AO2 SLP108 T01610128 10161 20133 50001=
202308211653 METAR KBLI 211653Z 22006KT 10SM FU CLR 16/13 A2984 RMK AO2 SLP109 T01560133=
202308211553 METAR KBLI 211553Z 19007KT 9SM FU CLR 14/13 A2983 RMK AO2 SLP108 T01440133=
202308211453 METAR KBLI 211453Z 18004KT 10SM FU CLR 14/13 A2983 RMK AO2 SLP107 T01440133 53005=
202308211353 METAR KBLI 211353Z 20004KT 8SM FU CLR 14/13 A2982 RMK AO2 SLP105 T01390133=
202308211253 METAR KBLI 211253Z AUTO 19003KT 9SM FU CLR 14/13 A2981 RMK AO2 SLP101 T01390133=
202308211153 METAR KBLI 211153Z AUTO 19005KT 8SM FU BKN065 14/14 A2981 RMK AO2 SLP102 T01390139 10150 20111 57001=
202308211053 METAR KBLI 211053Z AUTO 19005KT 8SM FU BKN065 14/13 A2981 RMK AO2 SLP102 T01390133=
202308210953 METAR KBLI 210953Z AUTO 19004KT 9SM FU BKN065 14/14 A2982 RMK AO2 SLP103 T01440139=
202308210853 METAR KBLI 210853Z AUTO VRB03KT 10SM FU OVC065 14/14 A2982 RMK AO2 SLP102 T01440139 55004=
202308210753 METAR KBLI 210753Z AUTO 00000KT 10SM FU OVC065 12/12 A2981 RMK AO2 SLP102 T01220122 402330094=
202308210653 METAR KBLI 210653Z AUTO 00000KT 10SM FU BKN060 13/12 A2983 RMK AO2 SLP105 T01280122=
202308210553 METAR KBLI 210553Z AUTO 00000KT 10SM FU OVC060 13/13 A2983 RMK AO2 SLP106 60000 T01330133 10206 20128 50004=
202308210453 METAR KBLI 210453Z 18003KT 8SM FU OVC055 13/13 A2983 RMK AO2 SLP107 T01330133=
202308210353 METAR KBLI 210353Z 00000KT 8SM FU OVC050 14/14 A2983 RMK AO2 RAB43E50 SLP106 P0000 T01440139=
202308210253 METAR KBLI 210253Z 22003KT 10SM FU OVC041 17/14 A2982 RMK AO2 SLP103 T01670144 56006=
202308210153 METAR KBLI 210153Z 19003KT 10SM FU OVC044 19/14 A2982 RMK AO2 SLP104 T01890144=
202308210053 METAR KBLI 210053Z VRB03KT 7SM FU OVC040 20/14 A2983 RMK AO2 SLP107 T02000139=
202308202353 METAR KBLI 202353Z VRB03KT 5SM HZ FU OVC035 21/14 A2984 RMK AO2 SLP109 T02060144 10233 20200 56014=
202308202253 METAR KBLI 202253Z 27006KT 5SM HZ FU OVC034 22/14 A2985 RMK AO2 SLP113 T02170139=
202308202153 METAR KBLI 202153Z VRB05KT 3SM HZ FU OVC034 22/14 A2986 RMK AO2 SLP118 T02170144=
202308202053 METAR KBLI 202053Z 28006KT 3SM HZ FU OVC032 23/12 A2988 RMK AO2 SLP123 T02280122 57017=
202308202006 SPECI KBLI 202006Z 31008KT 260V330 3SM HZ FU OVC034 22/13 A2989 RMK AO2 T02220128=
202308201953 METAR KBLI 201953Z 29005KT 2SM HZ FU OVC035 23/13 A2990 RMK AO2 SLP129 T02280133=
202308201928 SPECI KBLI 201928Z 28005KT 1 1/2SM HZ FU OVC033 22/14 A2990 RMK AO2 T02170139=
202308201853 METAR KBLI 201853Z VRB03KT 1 1/2SM HZ FU BKN027 OVC034 23/11 A2991 RMK AO2 SLP134 T02330111=
202308201839 SPECI KBLI 201839Z 35005KT 1 3/4SM HZ FU BKN028 OVC036 22/11 A2992 RMK AO2 T02220111=
202308201823 SPECI KBLI 201823Z 35004KT 2 1/2SM HZ FU OVC033 21/12 A2992 RMK AO2 T02110122=
202308201753 METAR KBLI 201753Z VRB03KT 3SM HZ FU OVC033 19/14 A2993 RMK AO2 SLP141 T01940139 10200 20094 58006=
202308201653 METAR KBLI 201653Z 34003KT 5SM HZ FU OVC037 18/13 A2994 RMK AO2 SLP145 T01780133=
202308201553 METAR KBLI 201553Z 00000KT 5SM BR FU OVC037 16/14 A2995 RMK AO2 SLP147 T01560139=
202308201453 METAR KBLI 201453Z 00000KT 6SM FU OVC040 12/12 A2995 RMK AO2 SLP147 T01220122 53005=
202308201400 SPECI KBLI 201400Z 00000KT 6SM BR FU OVC042 10/10 A2994 RMK AO2 T01000100=
202308201353 METAR KBLI 201353Z 00000KT 2 1/2SM BR FU OVC043 10/10 A2994 RMK AO2 SLP144 T01000100=
202308201253 METAR KBLI 201253Z AUTO 00000KT 9SM FU OVC049 10/10 A2994 RMK AO2 SLP143 T01000100=
202308201153 METAR KBLI 201153Z AUTO 00000KT 10SM FU OVC055 11/11 A2993 RMK AO2 SLP142 T01060106 10139 20100 56001=
202308201053 METAR KBLI 201053Z AUTO 00000KT 10SM FU OVC055 11/11 A2993 RMK AO2 SLP142 T01110111=
202308200953 METAR KBLI 200953Z AUTO 00000KT 10SM FU OVC055 12/12 A2993 RMK AO2 SLP141 T01220122=
202308200853 METAR KBLI 200853Z AUTO 00000KT 10SM FU OVC055 12/12 A2993 RMK AO2 SLP142 T01220122 51007=
202308200753 METAR KBLI 200753Z AUTO 00000KT 10SM FU OVC055 13/13 A2993 RMK AO2 SLP142 T01280128 402500072=
202308200653 METAR KBLI 200653Z AUTO 00000KT 10SM FU OVC048 13/13 A2992 RMK AO2 SLP138 T01330128=
202308200553 METAR KBLI 200553Z AUTO 00000KT 10SM FU OVC049 14/13 A2991 RMK AO2 SLP135 T01390133 10239 20133 51002=
202308200453 METAR KBLI 200453Z 00000KT 10SM FU OVC050 15/14 A2991 RMK AO2 SLP135 T01500139=
202308200353 METAR KBLI 200353Z 00000KT 10SM FU SCT055 17/14 A2991 RMK AO2 SLP135 T01670144=
202308200253 METAR KBLI 200253Z 17003KT 10SM FU CLR 19/14 A2991 RMK AO2 SLP133 T01890144 55005=
202308200153 METAR KBLI 200153Z 27004KT 10SM FU CLR 22/14 A2991 RMK AO2 SLP132 T02170139=
202308200053 METAR KBLI 200053Z 31006KT 10SM FU CLR 23/12 A2991 RMK AO2 SLP135 T02330122=
202308192353 METAR KBLI 192353Z 30007G16KT 10SM FU CLR 24/11 A2992 RMK AO2 SLP139 T02390111 10250 20194 58016=
202308192253 METAR KBLI 192253Z AUTO 29010KT 10SM FU CLR 24/12 A2994 RMK AO2 SLP143 T02440117=
202308192153 METAR KBLI 192153Z 28007KT 250V320 10SM FU CLR 24/11 A2996 RMK AO2 SLP151 T02390111=
202308191953 METAR KBLI 191953Z 30008KT 10SM CLR 22/13 A2998 RMK AO2 SLP159 T02220133=
202308191853 METAR KBLI 191853Z 00000KT 10SM CLR 22/11 A3000 RMK AO2 SLP165 T02220111=
202308191753 METAR KBLI 191753Z 30006KT 10SM CLR 20/12 A3002 RMK AO2 SLP170 T02000117 10200 20072 58012=
202308191653 METAR KBLI 191653Z 32005KT 10SM CLR 18/12 A3004 RMK AO2 SLP177 T01780117=
202308191553 METAR KBLI 191553Z 02004KT 10SM CLR 16/13 A3005 RMK AO2 SLP181 T01560128=
202308191453 METAR KBLI 191453Z 00000KT 10SM CLR 13/11 A3005 RMK AO2 SLP182 T01330106 51013=
202308191353 METAR KBLI 191353Z 00000KT 10SM CLR 08/08 A3004 RMK AO2 SLP179 T00830083=
202308191253 METAR KBLI 191253Z AUTO 00000KT 10SM CLR 08/07 A3003 RMK AO2 SLP174 T00780072=
202308191153 METAR KBLI 191153Z AUTO 34004KT 10SM CLR 09/08 A3001 RMK AO2 SLP169 T00890078 10133 20089 53001=
202308191053 METAR KBLI 191053Z AUTO 00000KT 10SM CLR 11/08 A3001 RMK AO2 SLP168 T01060083=
202308190953 METAR KBLI 190953Z AUTO 34003KT 10SM CLR 11/09 A3001 RMK AO2 SLP168 T01110089=
202308190853 METAR KBLI 190853Z AUTO 00000KT 10SM CLR 11/10 A3001 RMK AO2 SLP168 T01110100 50006=
202308190753 METAR KBLI 190753Z AUTO 00000KT 10SM CLR 12/10 A3001 RMK AO2 SLP169 T01170100 402440111=
202308190653 METAR KBLI 190653Z AUTO 00000KT 10SM CLR 12/09 A3000 RMK AO2 SLP166 T01170094=
202308190553 METAR KBLI 190553Z AUTO 00000KT 10SM CLR 13/11 A2999 RMK AO2 SLP162 T01330106 10239 20128 51012=
202308190453 METAR KBLI 190453Z 00000KT 10SM CLR 14/10 A2999 RMK AO2 SLP162 T01440100=
202308190353 METAR KBLI 190353Z 00000KT 10SM CLR 15/11 A2998 RMK AO2 SLP156 T01500106=
202308190253 METAR KBLI 190253Z 28003KT 10SM CLR 19/12 A2996 RMK AO2 SLP150 T01940117 53002=
202308190153 METAR KBLI 190153Z 29005KT 10SM CLR 23/09 A2995 RMK AO2 SLP146 T02280094=
202308190053 METAR KBLI 190053Z 35004KT 10SM CLR 24/08 A2995 RMK AO2 SLP145 T02390078=
202308182353 METAR KBLI 182353Z VRB05KT 10SM CLR 24/08 A2995 RMK AO2 SLP146 T02390078 10244 20178 58001=
202308182253 METAR KBLI 182253Z 34005KT 10SM CLR 24/08 A2995 RMK AO2 SLP147 T02440078=
202308182153 METAR KBLI 182153Z 00000KT 10SM CLR 23/07 A2995 RMK AO2 SLP148 T02280072=
202308182053 METAR KBLI 182053Z 28004KT 10SM FEW080 22/08 A2995 RMK AO2 SLP147 T02220078 50005=
202308181953 METAR KBLI 181953Z 10SM FEW050 22/07 A2995 RMK AO2 SLP147 T02170072=
202308181853 METAR KBLI 181853Z VRB03KT 10SM CLR 21/08 A2995 RMK AO2 SLP145 T02060083=
202308181753 METAR KBLI 181753Z 19006KT 10SM CLR 18/12 A2994 RMK AO2 SLP143 T01780117 10183 20117 53018=
202308181653 METAR KBLI 181653Z 19007KT 10SM CLR 17/12 A2992 RMK AO2 SLP136 T01720117=
202308181553 METAR KBLI 181553Z 17004KT 10SM CLR 17/11 A2990 RMK AO2 SLP131 T01720111=
202308181453 METAR KBLI 181453Z 21003KT 10SM CLR 16/11 A2988 RMK AO2 SLP124 T01610111 51019=
202308181353 METAR KBLI 181353Z 00000KT 10SM CLR 13/12 A2987 RMK AO2 SLP119 T01330122=
202308181253 METAR KBLI 181253Z AUTO 00000KT 10SM CLR 14/12 A2985 RMK AO2 SLP111 T01390122=
202308181153 METAR KBLI 181153Z AUTO 19005KT 10SM CLR 14/13 A2983 RMK AO2 SLP105 T01440133 10189 20144 53018=
202308181053 METAR KBLI 181053Z AUTO 19005KT 10SM CLR 16/14 A2981 RMK AO2 SLP098 T01560139=
202308180953 METAR KBLI 180953Z AUTO 20003KT 10SM CLR 16/12 A2979 RMK AO2 SLP093 T01560122=
202308180853 METAR KBLI 180853Z AUTO VRB04KT 10SM CLR 18/09 A2977 RMK AO2 SLP087 T01780089 53013=
202308180753 METAR KBLI 180753Z AUTO VRB03KT 10SM CLR 18/11 A2976 RMK AO2 SLP082 T01780111 402830161=
202308180653 METAR KBLI 180653Z AUTO 00000KT 10SM CLR 18/13 A2974 RMK AO2 SLP075 T01830133=
202308180553 METAR KBLI 180553Z AUTO 20004KT 10SM CLR 18/17 A2973 RMK AO2 SLP074 T01830167 10278 20183 53008=
202308180453 METAR KBLI 180453Z 21004KT 10SM CLR 19/17 A2973 RMK AO2 SLP071 T01890167=
202308180353 METAR KBLI 180353Z 00000KT 10SM CLR 19/18 A2971 RMK AO2 SLP066 T01890178=
202308180253 METAR KBLI 180253Z 20003KT 10SM CLR 23/18 A2971 RMK AO2 SLP065 T02330183 57012=
202308180153 METAR KBLI 180153Z 25003KT 10SM CLR 26/17 A2972 RMK AO2 SLP069 T02560172=
202308180053 METAR KBLI 180053Z 28004KT 10SM CLR 27/17 A2974 RMK AO2 SLP074 T02670172=
202308172353 METAR KBLI 172353Z 28005KT 10SM CLR 27/16 A2975 RMK AO2 SLP077 T02720161 10283 20239 56018=
202308172253 METAR KBLI 172253Z VRB04KT 10SM CLR 28/16 A2976 RMK AO2 SLP081 T02830161=
202308172153 METAR KBLI 172153Z 32006KT 10SM CLR 27/17 A2978 RMK AO2 SLP089 T02720167=
202308172053 METAR KBLI 172053Z 25007KT 10SM CLR 26/17 A2980 RMK AO2 SLP095 T02610172 56012=
202308171953 METAR KBLI 171953Z 28007KT 10SM CLR 26/17 A2981 RMK AO2 SLP098 T02560172=
202308171853 METAR KBLI 171853Z 00000KT 10SM CLR 25/17 A2982 RMK AO2 SLP103 T02500167=
202308171753 METAR KBLI 171753Z 21005KT 10SM CLR 24/16 A2983 RMK AO2 SLP107 T02390161 10239 20161 58002=
202308171653 METAR KBLI 171653Z VRB03KT 10SM CLR 23/16 A2984 RMK AO2 SLP108 T02280161=
202308171553 METAR KBLI 171553Z VRB04KT 10SM CLR 22/16 A2984 RMK AO2 SLP110 T02170156=
202308171453 METAR KBLI 171453Z 19003KT 10SM CLR 21/16 A2984 RMK AO2 SLP109 T02110161 55003=
202308171353 METAR KBLI 171353Z 00000KT 10SM CLR 17/16 A2984 RMK AO2 SLP109 T01720161=
202308171253 METAR KBLI 171253Z AUTO 00000KT 10SM CLR 16/16 A2985 RMK AO2 SLP112 T01610156=
202308171153 METAR KBLI 171153Z AUTO 20003KT 10SM CLR 17/16 A2985 RMK AO2 SLP113 T01720156 10189 20161 58007=
202308171053 METAR KBLI 171053Z AUTO 00000KT 10SM CLR 17/16 A2986 RMK AO2 SLP116 T01670156=
202308170953 METAR KBLI 170953Z AUTO 00000KT 10SM CLR 17/16 A2987 RMK AO2 SLP119 T01720161=
202308170853 METAR KBLI 170853Z AUTO 00000KT 10SM CLR 18/17 A2987 RMK AO2 SLP120 T01780167 58005=
202308170753 METAR KBLI 170753Z AUTO 00000KT 10SM CLR 18/17 A2988 RMK AO2 SLP122 T01830167 402830172=
202308170653 METAR KBLI 170653Z AUTO 00000KT 10SM CLR 18/17 A2989 RMK AO2 SLP126 T01830172=
202308170553 METAR KBLI 170553Z AUTO 00000KT 10SM CLR 18/17 A2989 RMK AO2 SLP125 T01830172 10283 20178 50001=
202308170453 METAR KBLI 170453Z 20003KT 10SM CLR 19/17 A2989 RMK AO2 SLP127 T01890172=
202308170353 METAR KBLI 170353Z 00000KT 10SM CLR 21/18 A2989 RMK AO2 SLP125 T02060178=
202308170253 METAR KBLI 170253Z 00000KT 10SM CLR 24/19 A2988 RMK AO2 SLP124 T02390189 56013=
202308170153 METAR KBLI 170153Z 24003KT 10SM CLR 26/18 A2989 RMK AO2 SLP126 T02610183=
202308170053 METAR KBLI 170053Z 29005KT 10SM CLR 28/18 A2991 RMK AO2 SLP133 T02780183=
202308162353 METAR KBLI 162353Z 22004KT 10SM CLR 28/18 A2992 RMK AO2 SLP137 T02780183 10283 20244 58018=
202308162253 METAR KBLI 162253Z 22004KT 10SM CLR 27/18 A2994 RMK AO2 SLP144 T02720183=
202308162153 METAR KBLI 162153Z 29006KT 10SM CLR 27/18 A2996 RMK AO2 SLP150 T02670183=
202308162053 METAR KBLI 162053Z VRB05KT 10SM CLR 26/18 A2998 RMK AO2 SLP156 T02560183 58014=
202308161953 METAR KBLI 161953Z 23005KT 10SM CLR 26/18 A2999 RMK AO2 SLP160 T02610183=
202308161853 METAR KBLI 161853Z VRB04KT 10SM CLR 26/18 A3001 RMK AO2 SLP166 T02610183=
202308161753 METAR KBLI 161753Z VRB03KT 10SM CLR 25/19 A3002 RMK AO2 SLP170 T02500189 10250 20172 58002=
202308161653 METAR KBLI 161653Z VRB03KT 10SM CLR 23/18 A3002 RMK AO2 SLP172 T02280183=
202308161553 METAR KBLI 161553Z 21004KT 10SM CLR 21/18 A3002 RMK AO2 SLP171 T02110178=
202308161453 METAR KBLI 161453Z 00000KT 10SM CLR 19/18 A3002 RMK AO2 SLP171 T01940178 53009=
202308161353 METAR KBLI 161353Z 23004KT 10SM CLR 18/17 A3001 RMK AO2 SLP169 T01830172=
202308161253 METAR KBLI 161253Z AUTO 18003KT 10SM CLR 18/17 A3000 RMK AO2 SLP163 T01830172=
202308161153 METAR KBLI 161153Z AUTO 18004KT 10SM CLR 18/17 A3000 RMK AO2 SLP162 T01830172 10217 20178 53000=
202308161053 METAR KBLI 161053Z AUTO 20003KT 10SM CLR 19/17 A2999 RMK AO2 SLP161 T01940172=
202308160953 METAR KBLI 160953Z AUTO 28004KT 10SM CLR 21/17 A2999 RMK AO2 SLP160 T02110172=
202308160853 METAR KBLI 160853Z AUTO 00000KT 10SM CLR 18/16 A2999 RMK AO2 SLP162 T01830161 53007=
202308160753 METAR KBLI 160753Z AUTO 00000KT 10SM CLR 19/17 A2998 RMK AO2 SLP158 T01940167 402830144=
202308160653 METAR KBLI 160653Z AUTO 00000KT 10SM CLR 20/17 A2997 RMK AO2 SLP155 T02000167=
202308160553 METAR KBLI 160553Z AUTO 00000KT 10SM CLR 21/17 A2997 RMK AO2 SLP154 T02060167 10272 20200 51010=
202308160453 METAR KBLI 160453Z 00000KT 10SM CLR 22/16 A2996 RMK AO2 SLP150 T02170161=
202308160353 METAR KBLI 160353Z 17004KT 10SM CLR 22/17 A2996 RMK AO2 SLP149 T02170167=
202308160253 METAR KBLI 160253Z 16005KT 10SM CLR 25/16 A2994 RMK AO2 SLP144 T02500161 56003=
202308160153 METAR KBLI 160153Z 19003KT 10SM CLR 27/17 A2995 RMK AO2 SLP145 T02670167=
202308160053 METAR KBLI 160053Z 18005KT 10SM CLR 27/17 A2994 RMK AO2 SLP145 T02720172=
202308152353 METAR KBLI 152353Z 20005KT 10SM CLR 27/18 A2995 RMK AO2 SLP147 T02670178 10283 20250 58014=
202308152253 METAR KBLI 152253Z VRB04KT 10SM CLR 28/17 A2997 RMK AO2 SLP153 T02780172=
202308152153 METAR KBLI 152153Z 21004KT 10SM CLR 27/17 A2998 RMK AO2 SLP158 T02670172=
202308152053 METAR KBLI 152053Z VRB04KT 10SM CLR 27/17 A2999 RMK AO2 SLP161 T02720172 58006=
202308151953 METAR KBLI 151953Z 26006KT 10SM CLR 26/17 A3000 RMK AO2 SLP165 T02610167=
202308151853 METAR KBLI 151853Z VRB06KT 10SM CLR 26/18 A3001 RMK AO2 SLP167 T02610178=
202308151753 METAR KBLI 151753Z 21004KT 10SM CLR 25/18 A3001 RMK AO2 SLP167 T02500178 10256 20144 50002=
202308151653 METAR KBLI 151653Z 24003KT 10SM CLR 23/18 A3001 RMK AO2 SLP168 T02330178=
202308151553 METAR KBLI 151553Z 34003KT 10SM CLR 22/18 A3001 RMK AO2 SLP165 T02220178=
202308151453 METAR KBLI 151453Z 00000KT 10SM CLR 20/17 A3000 RMK AO2 SLP165 T02000172 53011=
202308151353 METAR KBLI 151353Z 00000KT 10SM CLR 17/17 A2999 RMK AO2 SLP160 T01670167=
202308151253 METAR KBLI 151253Z AUTO 00000KT 10SM CLR 16/16 A2998 RMK AO2 SLP156 T01560156=
202308151153 METAR KBLI 151153Z AUTO 00000KT 10SM CLR 16/16 A2997 RMK AO2 SLP154 T01610161 10206 20150 50003=
202308151053 METAR KBLI 151053Z AUTO 00000KT 10SM CLR 16/16 A2998 RMK AO2 SLP156 T01560156=
202308150953 METAR KBLI 150953Z AUTO 00000KT 10SM CLR 17/17 A2997 RMK AO2 SLP153 T01670167=
202308150853 METAR KBLI 150853Z AUTO 00000KT 10SM CLR 17/17 A2996 RMK AO2 SLP151 T01720167 51006=
202308150753 METAR KBLI 150753Z AUTO 00000KT 10SM CLR 18/17 A2996 RMK AO2 SLP150 T01830172 403060150=
202308150653 METAR KBLI 150653Z AUTO 19003KT 10SM CLR 19/18 A2995 RMK AO2 SLP147 T01940178=
202308150553 METAR KBLI 150553Z AUTO 18003KT 10SM CLR 20/18 A2995 RMK AO2 SLP145 60000 T02000183 10306 20189 51008=
202308150453 METAR KBLI 150453Z 00000KT 10SM CLR 21/18 A2994 RMK AO2 RAB0354E04 SLP143 P0000 T02060183=
202308150353 METAR KBLI 150353Z 00000KT 10SM CLR 22/18 A2993 RMK AO2 SLP139 T02170183=
202308150253 METAR KBLI 150253Z 00000KT 10SM CLR 24/19 A2992 RMK AO2 SLP137 T02440189 56014=
202308150153 METAR KBLI 150153Z 00000KT 10SM CLR 28/17 A2993 RMK AO2 SLP138 T02780172=
202308150053 METAR KBLI 150053Z VRB03KT 10SM CLR 30/17 A2994 RMK AO2 SLP143 T03000167=
202308142353 METAR KBLI 142353Z 28004KT 10SM CLR 30/17 A2996 RMK AO2 SLP151 T03000172 10306 20261 57016=
202308142253 METAR KBLI 142253Z 22005KT 10SM CLR 30/19 A2998 RMK AO2 SLP155 T03000189=
202308142153 METAR KBLI 142153Z 30008KT 10SM CLR 29/18 A3000 RMK AO2 SLP162 T02940183=
202308142053 METAR KBLI 142053Z VRB05KT 10SM CLR 28/17 A3001 RMK AO2 SLP167 T02780172 58011=
202308141953 METAR KBLI 141953Z 29007KT 10SM CLR 27/18 A3003 RMK AO2 SLP173 T02720178=
202308141853 METAR KBLI 141853Z 28004KT 10SM CLR 27/19 A3003 RMK AO2 SLP174 T02720189=
202308141753 METAR KBLI 141753Z VRB03KT 10SM CLR 27/19 A3004 RMK AO2 SLP177 T02670194 10267 20150 58006=
202308141653 METAR KBLI 141653Z 34005KT 10SM CLR 24/19 A3006 RMK AO2 SLP183 T02440189=
202308141553 METAR KBLI 141553Z 00000KT 10SM CLR 22/18 A3006 RMK AO2 SLP185 T02220183=
202308141453 METAR KBLI 141453Z 00000KT 10SM CLR 20/18 A3006 RMK AO2 SLP184 T02000183 53007=
202308141353 METAR KBLI 141353Z 00000KT 10SM CLR 17/17 A3005 RMK AO2 SLP181 T01720172=
202308141253 METAR KBLI 141253Z AUTO 00000KT 9SM CLR 16/16 A3004 RMK AO2 SLP178 T01610161=
202308141153 METAR KBLI 141153Z AUTO 00000KT 10SM CLR 17/17 A3004 RMK AO2 SLP177 T01670167 10239 20167 50003=
202308141053 METAR KBLI 141053Z AUTO 00000KT 10SM CLR 17/17 A3004 RMK AO2 SLP177 T01720172=
202308140953 METAR KBLI 140953Z AUTO 00000KT 10SM CLR 17/17 A3003 RMK AO2 SLP175 T01720167=
202308140853 METAR KBLI 140853Z AUTO 00000KT 10SM CLR 18/17 A3003 RMK AO2 SLP173 T01780172 58001=
202308140753 METAR KBLI 140753Z AUTO 23003KT 10SM CLR 19/17 A3003 RMK AO2 SLP173 T01940172 402830133=
202308140653 METAR KBLI 140653Z AUTO VRB03KT 10SM CLR 21/17 A3003 RMK AO2 SLP174 T02060167=
202308140553 METAR KBLI 140553Z AUTO VRB03KT 10SM CLR 23/17 A3003 RMK AO2 SLP173 T02280167 10272 20194 50000=
202308140453 METAR KBLI 140453Z 26003KT 10SM CLR 21/17 A3004 RMK AO2 SLP176 T02060172=
202308140353 METAR KBLI 140353Z 20003KT 10SM CLR 21/18 A3003 RMK AO2 SLP174 T02060178=
202308140253 METAR KBLI 140253Z 00000KT 10SM CLR 23/18 A3003 RMK AO2 SLP174 T02330178 56013=
202308140153 METAR KBLI 140153Z 18005KT 10SM CLR 24/18 A3004 RMK AO2 SLP176 T02440183=
202308140053 METAR KBLI 140053Z 18004KT 10SM CLR 26/19 A3005 RMK AO2 SLP181 T02560189=
202308132353 METAR KBLI 132353Z 21004KT 10SM CLR 27/18 A3007 RMK AO2 SLP187 T02720183 10283 20250 58017=
202308132253 METAR KBLI 132253Z AUTO 29005KT 10SM CLR 28/19 A3009 RMK AO2 SLP194 T02780189=
202308132153 METAR KBLI 132153Z 28008KT 10SM CLR 26/19 A3011 RMK AO2 SLP201 T02610189=
202308132053 METAR KBLI 132053Z 30008KT 10SM CLR 27/18 A3012 RMK AO2 SLP205 T02720183 58011=
202308131953 METAR KBLI 131953Z 30010KT 10SM CLR 26/19 A3013 RMK AO2 SLP209 T02560189=
202308131853 METAR KBLI 131853Z 28006KT 10SM CLR 27/19 A3014 RMK AO2 SLP212 T02670189=
202308131753 METAR KBLI 131753Z 03005KT 10SM CLR 27/18 A3015 RMK AO2 SLP216 T02670178 10267 20133 58009=
202308131653 METAR KBLI 131653Z VRB04KT 10SM CLR 24/18 A3017 RMK AO2 SLP221 T02390183=
202308131553 METAR KBLI 131553Z 00000KT 10SM CLR 21/18 A3018 RMK AO2 SLP226 T02110183=
202308131453 METAR KBLI 131453Z 33004KT 10SM CLR 19/17 A3018 RMK AO2 SLP225 T01940172 53001=
202308131353 METAR KBLI 131353Z 32003KT 10SM CLR 16/16 A3018 RMK AO2 SLP224 T01560156=
202308131253 METAR KBLI 131253Z AUTO 00000KT 10SM CLR 14/14 A3017 RMK AO2 SLP221 T01390139=
202308131153 METAR KBLI 131153Z AUTO 00000KT 10SM CLR 14/14 A3018 RMK AO2 SLP224 T01390139 10172 20133 50000=
202308131053 METAR KBLI 131053Z AUTO 00000KT 10SM CLR 15/15 A3018 RMK AO2 SLP226 T01500150=
202308130953 METAR KBLI 130953Z AUTO 00000KT 10SM CLR 15/15 A3017 RMK AO2 SLP223 T01500150=
202308130853 METAR KBLI 130853Z AUTO 00000KT 10SM CLR 16/16 A3018 RMK AO2 SLP224 T01610156 51004=
202308130753 METAR KBLI 130753Z AUTO 00000KT 10SM CLR 16/16 A3017 RMK AO2 SLP223 T01610156 402610144=
202308130653 METAR KBLI 130653Z AUTO 00000KT 10SM CLR 17/15 A3017 RMK AO2 SLP222 T01670150=
202308130553 METAR KBLI 130553Z AUTO 00000KT 10SM CLR 17/16 A3016 RMK AO2 SLP219 T01720156 10261 20172 51004=
202308130453 METAR KBLI 130453Z 00000KT 10SM CLR 18/16 A3016 RMK AO2 SLP219 T01780161=
202308130353 METAR KBLI 130353Z 00000KT 10SM CLR 19/17 A3016 RMK AO2 SLP219 T01890167=
202308130253 METAR KBLI 130253Z 00000KT 10SM CLR 22/17 A3015 RMK AO2 SLP215 T02220167 56010=
202308130153 METAR KBLI 130153Z 29004KT 10SM CLR 24/17 A3016 RMK AO2 SLP217 T02390167=
202308130053 METAR KBLI 130053Z 24004KT 10SM CLR 25/17 A3017 RMK AO2 SLP221 T02500167=
202308122353 METAR KBLI 122353Z VRB04KT 10SM CLR 25/17 A3018 RMK AO2 SLP225 T02500167 10250 20206 58004=
202308122253 METAR KBLI 122253Z 25007KT 210V290 10SM CLR 24/16 A3019 RMK AO2 SLP228 T02440161=
202308122153 METAR KBLI 122153Z 23006KT 10SM CLR 24/17 A3020 RMK AO2 SLP230 T02440172=
202308122053 METAR KBLI 122053Z VRB05KT 10SM CLR 24/17 A3019 RMK AO2 SLP229 T02390167 58001=
202308121953 METAR KBLI 121953Z VRB04KT 10SM CLR 23/17 A3020 RMK AO2 SLP231 T02330172=
202308121853 METAR KBLI 121853Z 18006KT 10SM FEW021 22/17 A3020 RMK AO2 SLP230 T02220172=
202308121753 METAR KBLI 121753Z 00000KT 10SM SCT018 21/17 A3020 RMK AO2 SLP231 T02110167 10217 20150 50006=
202308121653 METAR KBLI 121653Z 20004KT 10SM BKN018 19/15 A3020 RMK AO2 SLP232 T01890150=
202308121553 METAR KBLI 121553Z 17006KT 10SM OVC013 17/15 A3019 RMK AO2 SLP228 T01720150=
202308121509 SPECI KBLI 121509Z 18005KT 10SM BKN014 17/15 A3018 RMK AO2 T01670150=
202308121453 METAR KBLI 121453Z 17005KT 10SM SCT012 17/15 A3018 RMK AO2 SLP224 T01670150 53012=
202308121353 METAR KBLI 121353Z 19005KT 10SM FEW065 16/15 A3016 RMK AO2 SLP219 T01560150=
202308121253 METAR KBLI 121253Z AUTO 00000KT 10SM BKN065 15/15 A3015 RMK AO2 SLP214 T01500150=
202308121153 METAR KBLI 121153Z AUTO 00000KT 10SM BKN065 16/16 A3014 RMK AO2 SLP212 T01560156 10178 20144 51007=
202308121053 METAR KBLI 121053Z AUTO 23003KT 10SM CLR 15/15 A3014 RMK AO2 SLP212 T01500150=
202308120953 METAR KBLI 120953Z AUTO 00000KT 10SM CLR 16/15 A3013 RMK AO2 SLP208 T01560150=
202308120853 METAR KBLI 120853Z AUTO 19004KT 10SM CLR 16/15 A3012 RMK AO2 SLP205 T01610150 51009=
202308120753 METAR KBLI 120753Z AUTO 18006KT 10SM CLR 17/15 A3011 RMK AO2 SLP202 T01670150 402390111=
202308120653 METAR KBLI 120653Z AUTO 19005KT 10SM SCT060 17/14 A3010 RMK AO2 SLP198 T01720144=
202308120553 METAR KBLI 120553Z AUTO 18007KT 10SM BKN060 18/16 A3009 RMK AO2 SLP195 T01780156 10233 20178 51010=
202308120453 METAR KBLI 120453Z 19008KT 10SM CLR 18/14 A3008 RMK AO2 SLP192 T01830144=
202308120353 METAR KBLI 120353Z 18006KT 10SM CLR 20/14 A3008 RMK AO2 SLP189 T02000144=
202308120253 METAR KBLI 120253Z 18004KT 10SM CLR 21/14 A3006 RMK AO2 SLP186 T02060139 52001=
202308120153 METAR KBLI 120153Z 18006KT 10SM CLR 22/13 A3006 RMK AO2 SLP186 T02170133=
202308120053 METAR KBLI 120053Z 18006KT 10SM CLR 23/13 A3006 RMK AO2 SLP185 T02280133=
202308112353 METAR KBLI 112353Z 18006KT 10SM CLR 23/13 A3006 RMK AO2 SLP184 T02330133 10239 20189 58006=
202308112253 METAR KBLI 112253Z 17006KT 10SM CLR 23/13 A3007 RMK AO2 SLP186 T02330128=
202308112153 METAR KBLI 112153Z 17006KT 10SM CLR 23/13 A3007 RMK AO2 SLP189 T02280133=
202308112053 METAR KBLI 112053Z 17008KT 10SM CLR 22/14 A3008 RMK AO2 SLP190 T02220144 53006=
202308111953 METAR KBLI 111953Z 20007G15KT 10SM CLR 22/14 A3007 RMK AO2 SLP187 T02170144=
202308111853 METAR KBLI 111853Z VRB05KT 10SM CLR 21/15 A3006 RMK AO2 SLP186 T02060150=
202308111753 METAR KBLI 111753Z 20007KT 160V230 10SM CLR 19/16 A3006 RMK AO2 SLP184 T01940156 10194 20111 53006=
202308111653 METAR KBLI 111653Z 17004KT 10SM FEW065 18/16 A3005 RMK AO2 SLP182 T01830156=
202308111553 METAR KBLI 111553Z 00000KT 10SM CLR 18/15 A3005 RMK AO2 SLP180 T01830150=
202308111453 METAR KBLI 111453Z 00000KT 10SM CLR 16/14 A3004 RMK AO2 SLP178 T01560144 51009=
202308111353 METAR KBLI 111353Z 00000KT 10SM CLR 12/12 A3003 RMK AO2 SLP176 T01170117=
202308111253 METAR KBLI 111253Z AUTO 00000KT 10SM CLR 13/13 A3002 RMK AO2 SLP171 T01330133=
202308111153 METAR KBLI 111153Z AUTO 19004KT 10SM CLR 15/14 A3001 RMK AO2 SLP169 T01500139 10167 20117 53004=
202308111053 METAR KBLI 111053Z AUTO 20003KT 10SM CLR 14/14 A3000 RMK AO2 SLP166 T01440139=
202308110953 METAR KBLI 110953Z AUTO VRB04KT 10SM CLR 14/14 A3000 RMK AO2 SLP166 T01440139=
202308110853 METAR KBLI 110853Z AUTO 00000KT 10SM CLR 12/12 A3000 RMK AO2 SLP165 T01220122 58001=
202308110753 METAR KBLI 110753Z AUTO 00000KT 10SM CLR 13/13 A3000 RMK AO2 SLP166 T01330128 402220128=
202308110653 METAR KBLI 110653Z AUTO 00000KT 10SM CLR 14/13 A3001 RMK AO2 SLP167 T01440128=
202308110553 METAR KBLI 110553Z AUTO 17004KT 10SM CLR 17/14 A3000 RMK AO2 SLP166 T01670144 10217 20156 51001=
202308110453 METAR KBLI 110453Z 18003KT 10SM CLR 17/14 A3000 RMK AO2 SLP165 T01720139=
202308110353 METAR KBLI 110353Z 19004KT 10SM FEW070 18/14 A3000 RMK AO2 SLP166 T01830144=
202308110253 METAR KBLI 110253Z 18006KT 10SM FEW070 19/14 A3000 RMK AO2 SLP164 T01890144 57004=
202308110153 METAR KBLI 110153Z 18007KT 10SM SCT070 20/14 A3000 RMK AO2 SLP165 T02000139=
202308110053 METAR KBLI 110053Z 18008KT 10SM SCT070 21/14 A3001 RMK AO2 SLP167 T02060139=
202308102353 METAR KBLI 102353Z 18007KT 10SM SCT060 21/14 A3001 RMK AO2 SLP167 T02110144 10222 20178 58004=
202308102253 METAR KBLI 102253Z 18008KT 10SM SCT060 22/14 A3002 RMK AO2 SLP169 T02220139=
202308102153 METAR KBLI 102153Z 18009KT 10SM CLR 22/13 A3002 RMK AO2 SLP170 T02170133=
202308102053 METAR KBLI 102053Z 18008KT 10SM SCT065 21/14 A3002 RMK AO2 SLP171 T02110144 51003=
202308101953 METAR KBLI 101953Z 20008G15KT 10SM SCT065 21/14 A3002 RMK AO2 SLP170 T02060144=
202308101853 METAR KBLI 101853Z 18010KT 10SM FEW070 19/15 A3001 RMK AO2 SLP168 T01940150=
202308101753 METAR KBLI 101753Z 18008KT 10SM OVC060 18/14 A3001 RMK AO2 RAB14E24 SLP168 P0000 60000 T01830144 10183 20156 51009=
202308101653 METAR KBLI 101653Z 18008KT 10SM FEW032 OVC043 17/14 A3001 RMK AO2 SLP167 T01720144=
202308101553 METAR KBLI 101553Z 19004KT 10SM OVC040 17/14 A3000 RMK AO2 SLP165 T01670144=
202308101453 METAR KBLI 101453Z 19007G14KT 10SM OVC034 16/15 A2998 RMK AO2 SLP159 T01610150 53010=
202308101353 METAR KBLI 101353Z VRB05KT 10SM SCT037 OVC047 16/15 A2996 RMK AO2 SLP152 T01610150=
202308101253 METAR KBLI 101253Z AUTO 19007KT 10SM OVC035 16/15 A2996 RMK AO2 SLP150 T01610150=
202308101153 METAR KBLI 101153Z AUTO 17007KT 10SM OVC030 16/15 A2995 RMK AO2 RAE1055 SLP148 P0000 60001 70005 T01610150 10183 20156 51007=
202308101053 METAR KBLI 101053Z AUTO 18008G16KT 10SM -RA BKN030 OVC037 16/15 A2995 RMK AO2 SLP148 P0001 T01560150=
202308100953 METAR KBLI 100953Z AUTO 19008KT 10SM -RA OVC055 16/15 A2994 RMK AO2 RAB48 SLP143 P0000 T01610150=
202308100853 METAR KBLI 100853Z AUTO 19005KT 10SM BKN065 17/13 A2993 RMK AO2 SLP141 T01670133 53010=
202308100753 METAR KBLI 100753Z AUTO 18009KT 10SM OVC050 17/13 A2992 RMK AO2 SLP138 T01720133 402170156=
202308100653 METAR KBLI 100653Z AUTO 18004KT 10SM BKN047 18/13 A2991 RMK AO2 SLP132 T01780128=
202308100553 METAR KBLI 100553Z AUTO 19005KT 10SM OVC049 18/14 A2990 RMK AO2 SLP131 T01780139 10206 20178 53005=
202308100453 METAR KBLI 100453Z 19006KT 10SM OVC044 18/14 A2989 RMK AO2 SLP128 T01830139=
202308100353 METAR KBLI 100353Z 19005KT 10SM OVC041 19/14 A2989 RMK AO2 SLP128 T01890144=
202308100253 METAR KBLI 100253Z 18004KT 10SM BKN037 BKN045 OVC080 19/14 A2989 RMK AO2 SLP126 T01890144 53001=
202308100153 METAR KBLI 100153Z 19008KT 10SM SCT048 OVC060 19/16 A2988 RMK AO2 SLP125 T01890156=
202308100053 METAR KBLI 100053Z 18010KT 10SM BKN047 OVC060 19/17 A2988 RMK AO2 SLP124 T01890167=
202308092353 METAR KBLI 092353Z 20011G22KT 10SM SCT060 BKN080 21/18 A2988 RMK AO2 SLP125 60000 T02060178 10217 20178 58003=
202308092253 METAR KBLI 092253Z 19009G20KT 10SM FEW060 SCT080 21/18 A2989 RMK AO2 SLP125 T02110178=
202308092153 METAR KBLI 092153Z 18010G22KT 150V220 10SM SCT060 BKN075 21/17 A2989 RMK AO2 RAB2056E07 SLP128 P0000 T02060172=
202308092053 METAR KBLI 092053Z 18009G19KT 10SM BKN060 OVC075 19/17 A2989 RMK AO2 SLP128 T01940172 50002=
202308091953 METAR KBLI 091953Z 18012G20KT 10SM OVC036 19/17 A2989 RMK AO2 SLP128 T01940167=
202308091853 METAR KBLI 091853Z 17013G21KT 10SM SCT050 BKN065 20/17 A2989 RMK AO2 SLP125 T02000167=
202308091753 METAR KBLI 091753Z 19009G17KT 10SM OVC034 18/17 A2989 RMK AO2 RAE1654 SLP126 P0000 60004 T01830167 10183 20161 58002=
202308091653 METAR KBLI 091653Z 17009KT 7SM -RA FEW005 BKN038 OVC065 17/17 A2989 RMK AO2 RAE03B45 SLP126 P0000 T01720172=
202308091622 SPECI KBLI 091622Z 18012G17KT 7SM FEW005 BKN041 OVC055 17/17 A2988 RMK AO2 RAE03 P0000 T01670167=
202308091553 METAR KBLI 091553Z 18007KT 2 1/2SM -RA BR FEW024 BKN047 OVC055 17/17 A2989 RMK AO2 SLP127 P0004 T01670167=
202308091551 SPECI KBLI 091551Z 19007KT 2SM -RA BR FEW026 BKN047 OVC070 17/17 A2989 RMK AO2 P0004=
202308091453 METAR KBLI 091453Z 20009G15KT 9SM -RA OVC050 17/16 A2988 RMK AO2 RAB38 SLP124 P0000 60000 T01670156 53007=
202308091353 METAR KBLI 091353Z 19007KT 10SM OVC065 17/16 A2987 RMK AO2 SLP120 T01670156=
202308091253 METAR KBLI 091253Z AUTO 19004KT 10SM BKN065 OVC075 16/16 A2986 RMK AO2 SLP119 T01610156=
202308091153 METAR KBLI 091153Z AUTO 18004KT 10SM BKN070 OVC095 16/16 A2986 RMK AO2 SLP116 60000 T01610156 10183 20156 58006=
202308091053 METAR KBLI 091053Z AUTO 20003KT 10SM OVC065 16/15 A2986 RMK AO2 SLP118 T01610150=
202308090953 METAR KBLI 090953Z AUTO 19004KT 10SM OVC110 16/15 A2988 RMK AO2 RAB0854E23 SLP123 P0000 T01610150=
202308090853 METAR KBLI 090853Z AUTO 20003KT 10SM FEW090 BKN110 16/15 A2988 RMK AO2 RAB19E49 SLP123 P0000 60000 T01610150 56009=
202308090753 METAR KBLI 090753Z AUTO 17004KT 10SM BKN080 BKN090 OVC110 17/14 A2988 RMK AO2 SLP123 T01720139 402280167=
202308090653 METAR KBLI 090653Z AUTO 19005KT 10SM OVC080 17/14 A2990 RMK AO2 SLP128 T01720139=
202308090553 METAR KBLI 090553Z AUTO 21003KT 10SM OVC080 18/15 A2990 RMK AO2 SLP132 T01830150 10222 20183 57007=
202308090453 METAR KBLI 090453Z 21003KT 10SM OVC085 19/16 A2991 RMK AO2 SLP132 T01940161=
202308090353 METAR KBLI 090353Z 00000KT 10SM OVC080 19/16 A2992 RMK AO2 SLP136 T01940161=
202308090253 METAR KBLI 090253Z 00000KT 10SM OVC080 19/17 A2992 RMK AO2 SLP137 T01940167 56010=
202308090153 METAR KBLI 090153Z 19004KT 10SM BKN120 21/16 A2993 RMK AO2 SLP139 T02060161=
202308090053 METAR KBLI 090053Z 18005KT 10SM FEW095 BKN120 21/17 A2993 RMK AO2 SLP141 T02060167=
202308082353 METAR KBLI 082353Z 18005KT 10SM OVC090 22/17 A2995 RMK AO2 SLP147 T02220167 10228 20183 56018=
202308082253 METAR KBLI 082253Z 23006KT 10SM BKN085 23/17 A2997 RMK AO2 SLP152 T02280172=
202308082153 METAR KBLI 082153Z VRB06KT 10SM SCT060 22/17 A2999 RMK AO2 SLP159 T02170167=
202308082053 METAR KBLI 082053Z 21006G17KT 10SM BKN090 21/17 A3000 RMK AO2 SLP165 T02060167 56009=
202308081953 METAR KBLI 081953Z 20008G16KT 170V230 10SM FEW030 SCT100 20/16 A3001 RMK AO2 SLP167 T02000161=
202308081853 METAR KBLI 081853Z 19012G17KT 10SM SCT025 SCT100 20/16 A3002 RMK AO2 SLP171 T02000161 $=
202308081753 METAR KBLI 081753Z 18010G15KT 10SM FEW010 SCT020 BKN100 18/16 A3003 RMK AO2 SLP175 T01830161 10183 20167 56001 $=
202308081653 METAR KBLI 081653Z 17012G20KT 10SM FEW010 SCT020 BKN090 18/16 A3003 RMK AO2 SLP174 T01830156=
202308081553 METAR KBLI 081553Z 17009G19KT 10SM FEW010 SCT020 BKN100 18/16 A3003 RMK AO2 SLP176 T01780156=
202308081453 METAR KBLI 081453Z 18010G19KT 10SM FEW010 FEW025 SCT120 18/15 A3004 RMK AO2 SLP176 T01780150 53001=
202308081353 METAR KBLI 081353Z 19010KT 10SM FEW015 17/15 A3004 RMK AO2 SLP176 T01720150=
202308081253 METAR KBLI 081253Z AUTO 17010KT 10SM CLR 17/14 A3002 RMK AO2 SLP172 T01720144=
202308081153 METAR KBLI 081153Z AUTO 16009KT 10SM BKN060 OVC070 17/16 A3003 RMK AO2 SLP175 T01720156 10189 20167 58004=
202308081053 METAR KBLI 081053Z AUTO 16007KT 10SM CLR 17/16 A3004 RMK AO2 SLP176 T01670156=
202308080953 METAR KBLI 080953Z AUTO 18005KT 10SM CLR 17/16 A3004 RMK AO2 SLP178 T01720156=
202308080853 METAR KBLI 080853Z AUTO 18003KT 10SM SCT050 17/16 A3004 RMK AO2 SLP179 T01720156 56002=
202308080753 METAR KBLI 080753Z AUTO 18006KT 10SM SCT060 17/16 A3005 RMK AO2 SLP180 T01720161 402220167=
202308080653 METAR KBLI 080653Z AUTO 18008KT 10SM CLR 18/16 A3004 RMK AO2 SLP179 T01830161=
202308080553 METAR KBLI 080553Z AUTO 18007KT 10SM CLR 19/16 A3005 RMK AO2 SLP181 T01890156 10222 20183 50000=
202308080453 METAR KBLI 080453Z 18009KT 10SM CLR 19/16 A3005 RMK AO2 SLP181 T01890161=
202308080353 METAR KBLI 080353Z 18007KT 10SM CLR 19/17 A3005 RMK AO2 SLP182 T01890167=
202308080253 METAR KBLI 080253Z 18006KT 10SM CLR 21/16 A3005 RMK AO2 SLP181 T02060161 56007=
202308080153 METAR KBLI 080153Z 18008KT 10SM CLR 21/16 A3005 RMK AO2 SLP182 T02110161=
202308080053 METAR KBLI 080053Z 18008KT 10SM FEW080 22/16 A3007 RMK AO2 SLP186 T02220161=
202308072353 METAR KBLI 072353Z 18009G16KT 10SM CLR 22/16 A3007 RMK AO2 SLP188 T02220161 10222 20183 58014=
202308072253 METAR KBLI 072253Z 18007KT 10SM CLR 22/17 A3009 RMK AO2 SLP193 T02220167=
202308072153 METAR KBLI 072153Z 18009G19KT 10SM FEW080 22/17 A3010 RMK AO2 SLP198 T02220167=
202308072053 METAR KBLI 072053Z 19007G19KT 160V230 10SM CLR 21/17 A3011 RMK AO2 SLP202 T02110167 58004=
202308071953 METAR KBLI 071953Z 18006KT 10SM FEW027 BKN110 21/17 A3012 RMK AO2 SLP206 T02060167=
202308071902 SPECI KBLI 071902Z 18008KT 10SM FEW027 BKN110 20/17 A3013 RMK AO2 T02000172=
202308071853 METAR KBLI 071853Z 20007KT 160V220 10SM BKN027 BKN110 19/17 A3013 RMK AO2 SLP209 T01890167=
202308071753 METAR KBLI 071753Z 20006KT 10SM BKN025 BKN110 18/17 A3013 RMK AO2 SLP207 60000 T01830172 10183 20167 55000=
202308071653 METAR KBLI 071653Z VRB04KT 10SM CLR 18/18 A3012 RMK AO2 SLP205 T01830178=
202308071553 METAR KBLI 071553Z 19007KT 10SM CLR 17/17 A3012 RMK AO2 RAE10 SLP205 P0000 T01720172=
202308071453 METAR KBLI 071453Z 17006KT 10SM -RA SCT110 17/17 A3013 RMK AO2 RAB31 SLP207 P0000 60000 T01720172 53004=
202308071353 METAR KBLI 071353Z 18007KT 10SM FEW090 17/17 A3012 RMK AO2 SLP205 T01720167=
202308071253 METAR KBLI 071253Z AUTO 17007KT 10SM OVC120 17/17 A3012 RMK AO2 SLP203 T01720172 $=
202308071153 METAR KBLI 071153Z AUTO 19006KT 10SM FEW120 17/17 A3012 RMK AO2 SLP203 T01670167 10194 20167 57005 $=
202308071053 METAR KBLI 071053Z AUTO 18009KT 10SM OVC110 17/17 A3012 RMK AO2 SLP204 T01720172 $=
202308070953 METAR KBLI 070953Z AUTO 20006KT 10SM OVC110 17/17 A3013 RMK AO2 SLP206 T01720172 $=
202308070853 METAR KBLI 070853Z AUTO 18007KT 10SM CLR 17/17 A3013 RMK AO2 SLP208 T01720167 55001 $=
202308070753 METAR KBLI 070753Z AUTO 19005KT 10SM CLR 19/17 A3013 RMK AO2 SLP206 T01890172 402220150 $=
202308070653 METAR KBLI 070653Z AUTO 18008KT 10SM CLR 19/17 A3013 RMK AO2 SLP206 T01890172 $=
202308070553 METAR KBLI 070553Z AUTO 19010KT 10SM CLR 18/17 A3013 RMK AO2 SLP208 T01830167 10222 20178 50000 $=
202308070453 METAR KBLI 070453Z 18010KT 10SM CLR 18/17 A3013 RMK AO2 SLP210 T01830167 $=
202308070353 METAR KBLI 070353Z 18009KT 10SM CLR 18/16 A3013 RMK AO2 SLP210 T01830161 $=
202308070253 METAR KBLI 070253Z 18011G19KT 10SM CLR 18/17 A3013 RMK AO2 SLP209 T01830167 55003 $=
202308070153 METAR KBLI 070153Z 19010G19KT 10SM CLR 19/17 A3013 RMK AO2 SLP208 T01940172 $=
202308070053 METAR KBLI 070053Z 19010G21KT 10SM CLR 22/17 A3013 RMK AO2 SLP208 T02170172 $=
202308062353 METAR KBLI 062353Z 18014G23KT 10SM CLR 22/17 A3014 RMK AO2 SLP212 T02170172 10222 20178 58013 $=
202308062253 METAR KBLI 062253Z 18013G23KT 10SM CLR 22/17 A3016 RMK AO2 SLP217 T02170172 $=
202308062153 METAR KBLI 062153Z 18014G21KT 10SM FEW080 22/17 A3017 RMK AO2 SLP221 T02170167 $=
202308062053 METAR KBLI 062053Z 18011G21KT 10SM FEW080 21/17 A3018 RMK AO2 SLP224 T02110167 51003 $=
202308061953 METAR KBLI 061953Z 18012G20KT 10SM CLR 20/17 A3018 RMK AO2 SLP224 T02000167 $=
202308061853 METAR KBLI 061853Z 18013G23KT 10SM CLR 18/16 A3018 RMK AO2 SLP225 T01830161 $=
202308061753 METAR KBLI 061753Z 20009G19KT 10SM CLR 19/16 A3017 RMK AO2 SLP222 T01890161 10189 20150 51006 $=
202308061653 METAR KBLI 061653Z 18008KT 10SM CLR 18/16 A3016 RMK AO2 SLP220 T01780161=
202308061553 METAR KBLI 061553Z 18009G16KT 10SM CLR 17/16 A3016 RMK AO2 SLP219 T01670161=
202308061453 METAR KBLI 061453Z 19007KT 10SM CLR 17/16 A3015 RMK AO2 SLP216 T01670161 51013=
202308061353 METAR KBLI 061353Z 19006KT 10SM CLR 16/16 A3014 RMK AO2 SLP212 T01610156=
202308061300 SPECI KBLI 061300Z AUTO 19006KT 10SM FEW003 15/15 A3013 RMK AO2 T01500150=
202308061253 METAR KBLI 061253Z AUTO 20006KT 10SM CLR 16/16 A3013 RMK AO2 SLP207 T01560156=
202308061153 METAR KBLI 061153Z AUTO 20005KT 10SM CLR 19/16 A3011 RMK AO2 SLP202 T01940161 10194 20172 53001=
202308061053 METAR KBLI 061053Z AUTO 18008KT 10SM CLR 19/17 A3011 RMK AO2 SLP200 T01890167=
202308060953 METAR KBLI 060953Z AUTO 18008KT 10SM CLR 18/17 A3011 RMK AO2 SLP200 T01830167=
202308060853 METAR KBLI 060853Z AUTO 18009G21KT 10SM CLR 19/16 A3011 RMK AO2 SLP201 T01940161 50000=
202308060753 METAR KBLI 060753Z AUTO 18006KT 10SM CLR 18/16 A3012 RMK AO2 SLP203 T01780161 402280150=
202308060653 METAR KBLI 060653Z AUTO 20006KT 10SM CLR 18/17 A3011 RMK AO2 SLP201 T01830167=
202308060553 METAR KBLI 060553Z AUTO 19008KT 10SM CLR 18/17 A3011 RMK AO2 SLP202 T01780167 10228 20178 51004=
202308060453 METAR KBLI 060453Z 18010KT 10SM CLR 19/16 A3011 RMK AO2 SLP201 T01890161=
202308060353 METAR KBLI 060353Z 17008KT 10SM CLR 18/16 A3010 RMK AO2 SLP199 T01830156=
202308060253 METAR KBLI 060253Z 19005KT 10SM CLR 20/16 A3010 RMK AO2 SLP198 T02000161 56005=
202308060153 METAR KBLI 060153Z 17006KT 10SM CLR 21/16 A3010 RMK AO2 SLP199 T02060161=
202308060053 METAR KBLI 060053Z 20005KT 10SM CLR 22/17 A3010 RMK AO2 SLP199 T02170167=
202308052353 METAR KBLI 052353Z VRB04KT 10SM CLR 22/16 A3011 RMK AO2 SLP202 T02220161 10222 20183 56007=
202308052253 METAR KBLI 052253Z 20004KT 10SM CLR 22/17 A3011 RMK AO2 SLP202 T02170167=
202308052153 METAR KBLI 052153Z 20006KT 10SM CLR 22/16 A3013 RMK AO2 SLP207 T02220161=
202308052053 METAR KBLI 052053Z 22005KT 10SM CLR 22/16 A3014 RMK AO2 SLP210 T02220161 58009=
202308051953 METAR KBLI 051953Z 21006KT 10SM CLR 21/17 A3015 RMK AO2 SLP215 T02060167=
202308051853 METAR KBLI 051853Z 18005KT 10SM CLR 19/16 A3016 RMK AO2 SLP217 T01890161=
202308051753 METAR KBLI 051753Z VRB05KT 10SM CLR 19/16 A3016 RMK AO2 SLP219 T01890161 10189 20150 51007=
202308051653 METAR KBLI 051653Z VRB05KT 10SM CLR 17/16 A3016 RMK AO2 SLP219 T01720161=
202308051553 METAR KBLI 051553Z 20005KT 10SM CLR 17/16 A3015 RMK AO2 SLP216 T01720161=
202308051453 METAR KBLI 051453Z 21004KT 10SM CLR 16/16 A3014 RMK AO2 SLP211 T01610156 53007=
202308051353 METAR KBLI 051353Z VRB04KT 10SM FEW003 16/16 A3013 RMK AO2 SLP208 T01560156=
202308051325 SPECI KBLI 051325Z AUTO VRB04KT 10SM SCT003 15/15 A3013 RMK AO2 T01500150=
202308051253 METAR KBLI 051253Z AUTO 19008KT 10SM BKN003 15/15 A3012 RMK AO2 SLP204 T01500150=
202308051153 METAR KBLI 051153Z AUTO 19006KT 10SM FEW003 15/15 A3012 RMK AO2 SLP204 T01500150 10183 20150 53002=
202308051053 METAR KBLI 051053Z AUTO 20006KT 10SM CLR 16/16 A3012 RMK AO2 SLP203 T01610156=
202308050953 METAR KBLI 050953Z AUTO VRB06KT 10SM CLR 17/16 A3011 RMK AO2 SLP201 T01720156=
202308050853 METAR KBLI 050853Z AUTO 18006KT 10SM SCT120 17/16 A3011 RMK AO2 SLP201 T01720156 52004=
202308050753 METAR KBLI 050753Z AUTO 18007KT 10SM CLR 18/16 A3011 RMK AO2 SLP201 T01780156 402610122=
202308050653 METAR KBLI 050653Z AUTO 19005KT 10SM CLR 18/16 A3010 RMK AO2 SLP199 T01830156=
202308050553 METAR KBLI 050553Z AUTO 19007KT 10SM CLR 18/16 A3010 RMK AO2 SLP198 T01830156 10250 20183 53007=
202308050453 METAR KBLI 050453Z 20008KT 10SM CLR 18/15 A3009 RMK AO2 SLP196 T01830150=
202308050353 METAR KBLI 050353Z 20007KT 10SM CLR 19/15 A3008 RMK AO2 SLP193 T01940150=
202308050253 METAR KBLI 050253Z 18007KT 10SM CLR 21/14 A3008 RMK AO2 SLP190 T02110139 56008=
202308050153 METAR KBLI 050153Z 19004KT 10SM CLR 23/15 A3008 RMK AO2 SLP191 T02330150=
202308050053 METAR KBLI 050053Z 17006KT 10SM CLR 24/15 A3010 RMK AO2 SLP196 T02440150=
202308042353 METAR KBLI 042353Z 18006KT 10SM CLR 25/14 A3010 RMK AO2 SLP199 T02500144 10261 20189 56009=
202308042253 METAR KBLI 042253Z 19004KT 10SM CLR 26/15 A3010 RMK AO2 SLP199 T02560150=
202308042153 METAR KBLI 042153Z 21005KT 10SM CLR 24/16 A3012 RMK AO2 SLP205 T02440161=
202308042053 METAR KBLI 042053Z VRB04KT 10SM CLR 24/16 A3013 RMK AO2 SLP208 T02390161 56009=
202308041953 METAR KBLI 041953Z 21007G14KT 10SM CLR 22/14 A3014 RMK AO2 SLP211 T02170144=
202308041853 METAR KBLI 041853Z 21008KT 170V240 10SM CLR 20/16 A3015 RMK AO2 SLP213 T02000156=
202308041753 METAR KBLI 041753Z 20007KT 10SM CLR 19/16 A3016 RMK AO2 SLP218 T01890156 10189 20144 50001=
202308041653 METAR KBLI 041653Z VRB05KT 10SM CLR 17/15 A3016 RMK AO2 SLP220 T01670150=
202308041553 METAR KBLI 041553Z VRB04KT 10SM CLR 17/15 A3016 RMK AO2 SLP219 T01670150=
202308041453 METAR KBLI 041453Z 19004KT 10SM CLR 16/14 A3015 RMK AO2 SLP216 T01610144 53013=
202308041353 METAR KBLI 041353Z 20004KT 10SM CLR 16/14 A3014 RMK AO2 SLP210 T01560144=
202308041253 METAR KBLI 041253Z AUTO 21003KT 10SM CLR 15/14 A3012 RMK AO2 SLP205 T01500139=
202308041153 METAR KBLI 041153Z AUTO 20003KT 10SM CLR 15/14 A3012 RMK AO2 SLP203 T01500139 10183 20122 51004=
202308041053 METAR KBLI 041053Z AUTO 00000KT 10SM CLR 14/14 A3011 RMK AO2 SLP201 T01440139=
202308040953 METAR KBLI 040953Z AUTO 20004KT 10SM CLR 16/14 A3011 RMK AO2 SLP201 T01560139=
202308040853 METAR KBLI 040853Z AUTO 20003KT 10SM CLR 16/14 A3010 RMK AO2 SLP198 T01610144 51006=
202308040753 METAR KBLI 040753Z AUTO 19005KT 10SM CLR 17/14 A3010 RMK AO2 SLP197 T01670144 402720133=
202308040653 METAR KBLI 040653Z AUTO 20005KT 10SM CLR 18/15 A3009 RMK AO2 SLP194 T01780150=
202308040553 METAR KBLI 040553Z AUTO 19007KT 10SM CLR 18/16 A3008 RMK AO2 SLP192 T01780156 10272 20178 53008=
202308040453 METAR KBLI 040453Z 18006KT 10SM CLR 19/15 A3008 RMK AO2 SLP189 T01890150=
202308040353 METAR KBLI 040353Z 19004KT 10SM CLR 19/16 A3007 RMK AO2 SLP187 T01940156=
202308040253 METAR KBLI 040253Z 00000KT 10SM CLR 23/14 A3006 RMK AO2 SLP184 T02280144 55004=
202308040153 METAR KBLI 040153Z 26004KT 10SM CLR 24/12 A3006 RMK AO2 SLP184 T02440122=
202308040053 METAR KBLI 040053Z VRB03KT 10SM CLR 26/14 A3006 RMK AO2 SLP185 T02560139=
202308032353 METAR KBLI 032353Z 28007KT 10SM CLR 26/12 A3007 RMK AO2 SLP188 T02610122 10272 20200 58009=
202308032253 METAR KBLI 032253Z VRB03KT 10SM CLR 26/13 A3008 RMK AO2 SLP192 T02560128=
202308032153 METAR KBLI 032153Z 21007KT 10SM CLR 24/16 A3010 RMK AO2 SLP196 T02440156=
202308032053 METAR KBLI 032053Z 22005KT 10SM CLR 24/16 A3010 RMK AO2 SLP197 T02390161 56005=
202308031953 METAR KBLI 031953Z VRB06KT 10SM CLR 23/16 A3010 RMK AO2 SLP199 T02330161=
202308031853 METAR KBLI 031853Z VRB03KT 10SM CLR 22/17 A3011 RMK AO2 SLP201 T02170167=
202308031753 METAR KBLI 031753Z 10SM CLR 21/16 A3012 RMK AO2 SLP204 T02060161 10206 20150 50001=
202308031653 METAR KBLI 031653Z 17006KT 10SM CLR 18/16 A3012 RMK AO2 SLP204 T01830156=
202308031553 METAR KBLI 031553Z 19006KT 10SM CLR 16/15 A3012 RMK AO2 SLP206 T01610150=
202308031453 METAR KBLI 031453Z 18003KT 10SM FEW014 16/15 A3011 RMK AO2 SLP202 T01560150 53010=
202308031353 METAR KBLI 031353Z 20003KT 10SM R16/0800VP6000FT FEW015 16/15 A3010 RMK AO2 SLP197 T01560150=
202308031253 METAR KBLI 031253Z AUTO 18005KT 10SM CLR 15/14 A3009 RMK AO2 SLP194 T01500144=
202308031153 METAR KBLI 031153Z AUTO 19006KT 10SM CLR 15/15 A3008 RMK AO2 SLP191 T01500150 10161 20133 53007=
202308031053 METAR KBLI 031053Z AUTO 21004KT 10SM CLR 14/14 A3007 RMK AO2 SLP188 T01440144=
202308030953 METAR KBLI 030953Z AUTO 00000KT 10SM CLR 13/13 A3006 RMK AO2 SLP185 T01330133=
202308030853 METAR KBLI 030853Z AUTO 00000KT 10SM CLR 15/14 A3006 RMK AO2 SLP184 T01500144 53003=
202308030753 METAR KBLI 030753Z AUTO 00000KT 10SM CLR 14/14 A3006 RMK AO2 SLP184 T01440139 402440100=
202308030653 METAR KBLI 030653Z AUTO 00000KT 10SM CLR 15/15 A3005 RMK AO2 SLP183 T01500150=
202308030553 METAR KBLI 030553Z AUTO 00000KT 10SM CLR 16/16 A3005 RMK AO2 SLP183 T01610156 10239 20150 53005=
202308030453 METAR KBLI 030453Z 00000KT 10SM CLR 16/16 A3005 RMK AO2 SLP181 T01610156=
202308030353 METAR KBLI 030353Z 00000KT 10SM CLR 18/17 A3004 RMK AO2 SLP178 T01830167=
202308030253 METAR KBLI 030253Z 26003KT 10SM FEW100 21/17 A3004 RMK AO2 SLP177 T02110167 56006=
202308030153 METAR KBLI 030153Z 00000KT 10SM CLR 23/17 A3004 RMK AO2 SLP178 T02330167=
202308030053 METAR KBLI 030053Z VRB04KT 10SM CLR 23/16 A3005 RMK AO2 SLP182 T02330156=
202308022353 METAR KBLI 022353Z 27007KT 10SM CLR 23/14 A3006 RMK AO2 SLP184 T02330139 10244 20194 50002=
202308022253 METAR KBLI 022253Z AUTO 27008KT 220V300 10SM CLR 23/12 A3006 RMK AO2 SLP185 T02280122=
202308022153 METAR KBLI 022153Z VRB05KT 10SM CLR 24/14 A3006 RMK AO2 SLP184 T02390139=
202308022053 METAR KBLI 022053Z 19006KT 10SM CLR 23/12 A3005 RMK AO2 SLP181 T02330122 55000=
202308021953 METAR KBLI 021953Z 22006G15KT 10SM CLR 22/14 A3005 RMK AO2 SLP179 T02170139=
202308021853 METAR KBLI 021853Z 20009G19KT 170V240 10SM CLR 21/13 A3005 RMK AO2 SLP180 T02110133=
202308021753 METAR KBLI 021753Z 18009KT 10SM CLR 19/14 A3005 RMK AO2 SLP182 T01940139 10194 20100 58003=
202308021653 METAR KBLI 021653Z 19007KT 10SM CLR 18/13 A3006 RMK AO2 SLP186 T01830133=
202308021553 METAR KBLI 021553Z 22004KT 10SM CLR 17/13 A3007 RMK AO2 SLP189 T01720133=
202308021453 METAR KBLI 021453Z 00000KT 10SM CLR 16/13 A3006 RMK AO2 SLP184 T01610133 53011=
202308021353 METAR KBLI 021353Z 00000KT 10SM CLR 13/13 A3005 RMK AO2 SLP181 T01280128=
202308021253 METAR KBLI 021253Z AUTO 00000KT 4SM BR CLR 11/11 A3004 RMK AO2 SLP177 T01110111=
202308021153 METAR KBLI 021153Z AUTO 00000KT 10SM CLR 12/12 A3003 RMK AO2 SLP174 T01170117 10167 20106 58002=
202308021053 METAR KBLI 021053Z AUTO 00000KT 10SM CLR 12/12 A3003 RMK AO2 SLP174 T01170117=
202308020953 METAR KBLI 020953Z AUTO 00000KT 10SM CLR 12/12 A3003 RMK AO2 SLP175 T01170117=
202308020853 METAR KBLI 020853Z AUTO 20003KT 10SM CLR 14/13 A3003 RMK AO2 SLP176 T01390133 56003=
202308020753 METAR KBLI 020753Z AUTO 19003KT 10SM CLR 16/13 A3004 RMK AO2 SLP176 T01560133 402610100=
202308020653 METAR KBLI 020653Z AUTO 20004KT 10SM CLR 16/13 A3004 RMK AO2 SLP177 T01610133=
202308020553 METAR KBLI 020553Z AUTO 20004KT 10SM CLR 17/14 A3004 RMK AO2 SLP178 T01670144 10256 20156 51005=
202308020453 METAR KBLI 020453Z 21003KT 10SM CLR 17/14 A3004 RMK AO2 SLP178 T01720139=
202308020353 METAR KBLI 020353Z 20003KT 10SM CLR 18/14 A3003 RMK AO2 SLP175 T01780144=
202308020253 METAR KBLI 020253Z 18004KT 10SM CLR 21/15 A3003 RMK AO2 SLP174 T02110150 56007=
202308020153 METAR KBLI 020153Z 19004KT 10SM CLR 22/15 A3003 RMK AO2 SLP175 T02220150=
202308020053 METAR KBLI 020053Z VRB04KT 10SM CLR 24/13 A3004 RMK AO2 SLP177 T02440133=
202308012353 METAR KBLI 012353Z VRB04KT 10SM CLR 25/12 A3005 RMK AO2 SLP181 T02500117 10261 20172 57014=
202308012253 METAR KBLI 012253Z 21005KT 10SM CLR 26/12 A3006 RMK AO2 SLP184 T02560122=
202308012153 METAR KBLI 012153Z 29006KT 10SM CLR 24/11 A3008 RMK AO2 SLP191 T02440111=
202308012053 METAR KBLI 012053Z VRB04KT 10SM CLR 23/16 A3009 RMK AO2 SLP194 T02280161 56010=
202308011953 METAR KBLI 011953Z VRB05KT 10SM CLR 22/15 A3010 RMK AO2 SLP196 T02170150=
202308011853 METAR KBLI 011853Z VRB03KT 10SM CLR 21/14 A3011 RMK AO2 SLP201 T02060144=
202308011753 METAR KBLI 011753Z VRB05KT 10SM CLR 17/14 A3012 RMK AO2 SLP205 T01720144 10178 20100 58001=
202308011653 METAR KBLI 011653Z 24005KT 10SM CLR 17/14 A3013 RMK AO2 SLP208 T01670144=
202308011553 METAR KBLI 011553Z 18005KT 10SM SCT005 14/14 A3013 RMK AO2 SLP208 T01440139=
202308011541 SPECI KBLI 011541Z 20007KT 10SM FEW005 15/14 A3013 RMK AO2 T01500144=
202308011453 METAR KBLI 011453Z 00000KT 10SM CLR 16/14 A3012 RMK AO2 SLP206 T01560139 53005=
202308011353 METAR KBLI 011353Z 00000KT 9SM CLR 12/12 A3011 RMK AO2 SLP203 T01220122=
202308011253 METAR KBLI 011253Z AUTO 00000KT 10SM CLR 11/11 A3011 RMK AO2 SLP202 T01060106=
202308011153 METAR KBLI 011153Z AUTO 00000KT 10SM CLR 12/12 A3011 RMK AO2 SLP201 T01170117 10167 20106 51004=
202308011053 METAR KBLI 011053Z AUTO 00000KT 10SM CLR 12/12 A3010 RMK AO2 SLP200 T01170117=
202308010953 METAR KBLI 010953Z AUTO 00000KT 10SM CLR 12/12 A3010 RMK AO2 SLP198 T01220122=
202308010853 METAR KBLI 010853Z AUTO 20003KT 10SM CLR 14/14 A3009 RMK AO2 SLP196 T01440139 53001=
202308010753 METAR KBLI 010753Z AUTO 00000KT 10SM CLR 16/14 A3009 RMK AO2 SLP195 T01560139 402390094=
202308010653 METAR KBLI 010653Z AUTO 20004KT 10SM CLR 16/14 A3009 RMK AO2 SLP195 T01610139=
202308010553 METAR KBLI 010553Z AUTO 19005KT 10SM CLR 17/14 A3009 RMK AO2 SLP196 T01670139 10239 20150 52001=
202308010453 METAR KBLI 010453Z 19005KT 10SM CLR 17/15 A3009 RMK AO2 SLP196 T01670150=
202308010353 METAR KBLI 010353Z 00000KT 10SM CLR 18/14 A3009 RMK AO2 SLP195 T01780139=
202308010253 METAR KBLI 010253Z 18005KT 10SM CLR 20/13 A3009 RMK AO2 SLP195 T02000133 56002=
202308010153 METAR KBLI 010153Z 19005KT 10SM CLR 21/13 A3009 RMK AO2 SLP195 T02110133=
202308010053 METAR KBLI 010053Z VRB05KT 10SM CLR 23/13 A3009 RMK AO2 SLP195 T02280128=

# No short TAF reports from KBLI in databse.

###################################
#  large TAF from KBLI
###################################
202308312335 TAF KBLI 312335Z 0100/0124 30007KT P6SM SCT050 BKN070 FM010500
                       35002KT P6SM BKN080 FM011300 36001KT P6SM
                       SCT030 FM011700 34008KT P6SM FEW100=
202308311737 TAF KBLI 311737Z 3118/0118 31005KT 5SM BR BKN007 OVC045 FM311900
                       30005KT P6SM SCT015 BKN025 OVC050 FM312100
                       30007KT P6SM SCT030 BKN070 FM010500 35002KT
                       P6SM SCT040 BKN080 FM011000 36001KT 3SM
                       BR BKN008 OVC050 FM011500 34004KT P6SM BKN025
                       OVC050=
202308311503 KBLI 311503Z 3115/0112 VRB03KT 1/2SM FG OVC002 FM311700 34004KT
                       P6SM SCT002 BKN012 FM311900 30005KT P6SM
                       SCT015 BKN035 OVC060 FM010200 VRB03KT P6SM
                       SCT040 BKN070=
202308311326 KBLI 311326Z 3113/0112 VRB03KT P6SM -SHRA SCT001 SCT035 OVC080
                       TEMPO 3113/3115 1/4SM FG VV001 FM311900
                       30005KT P6SM BKN035 OVC060 FM010200 VRB03KT
                       P6SM SCT040 BKN070=
202308311137 TAF KBLI 311137Z 3112/0112 VRB03KT P6SM -SHRA SCT035 OVC080
                      TEMPO 3112/3114 2SM -SHRA OVC035 FM311900
                       30005KT P6SM BKN035 OVC060 FM010200 VRB03KT
                       P6SM SCT040 BKN070=
202308311016 KBLI 311016Z 3110/0106 VRB03KT P6SM -SHRA SCT035 OVC050 FM312100
                       30005KT P6SM OVC035 FM010200 VRB03KT P6SM
                       SCT040 OVC070=
202308310526 TAF KBLI 310526Z 3106/0106 19005KT P6SM OVC060 FM310900 VRB03KT
                       P6SM -SHRA OVC020 FM311600 01004KT P6SM
                       -SHRA OVC030 FM312200 30005KT P6SM OVC035
                       FM010200 VRB03KT P6SM SCT040 OVC070=
202308302338 TAF KBLI 302338Z 3100/3124 19010KT P6SM OVC070 FM310700 18002KT
                       P6SM SCT025 OVC040 FM310900 VRB02KT P6SM
                       -SHRA OVC020 FM311600 34005KT P6SM -SHRA
                       OVC009 FM312200 VRB04KT P6SM -SHRA SCT020
                       OVC030=
202308301720 TAF KBLI 301720Z 3018/3118 19010KT P6SM SCT015 BKN045 OVC060 FM310300
                       17006KT P6SM SCT025 OVC040 FM310900 VRB02KT
                       P6SM -SHRA OVC020 FM311600 34005KT P6SM
                       -SHRA OVC009=
202308301459 KBLI 301459Z 3015/3112 19006KT P6SM SCT008 BKN045 OVC060 FM301700
                       19010G16KT P6SM SCT015 BKN045 OVC060 FM310300
                       17006KT P6SM SCT025 OVC040 FM311100 17006KT
                       P6SM OVC015=
202308301141 TAF KBLI 301141Z 3012/3112 19006KT P6SM SCT006 BKN015 OVC030
                      TEMPO 3014/3017 BKN006 OVC015 FM301700 19006KT
                       P6SM SCT015 BKN025 OVC040 FM302000 19006KT
                       P6SM SCT025 OVC040 FM310700 17006KT P6SM
                       OVC015=
202308300527 TAF KBLI 300527Z 3006/3106 17009KT 6SM -SHRA BR BKN015 OVC035 FM300800
                       19006KT P6SM OVC030 FM301200 18008KT P6SM
                       OVC025 FM301700 18010G18KT P6SM BKN035=
202308292331 TAF KBLI 292331Z 3000/3024 17012G19KT P6SM SHRA OVC015
                      TEMPO 3000/3003 2SM TSRA OVC015CB FM300400
                       17009KT P6SM SHRA OVC020 FM301200 18008KT
                       P6SM OVC010 FM301600 18010G18KT P6SM OVC015=
202308292107 KBLI 292107Z 2921/3018 17012G19KT P6SM SHRA OVC020 FM300000 17011G19KT
                       P6SM RA OVC015
                      PROB30 2922/3001 6SM TSRA OVC015CB FM300400
                       17009KT P6SM SHRA OVC030=
202308291954 KBLI 291954Z 2920/3018 17012G19KT P6SM SHRA OVC020 FM292100 17011G19KT
                       P6SM RA OVC015
                      PROB30 2922/3001 6SM TSRA OVC015CB FM300400
                       17009KT P6SM SHRA OVC030=
202308291737 TAF KBLI 291737Z 2918/3018 17012G19KT P6SM SHRA OVC020 FM292100
                       17011G19KT P6SM RA OVC015
                      PROB30 2922/3004 6SM TSRA OVC015CB FM300400
                       17009KT P6SM SHRA OVC030=
202308291459 KBLI 291459Z 2915/3012 17007KT P6SM SHRA SCT020
                      TEMPO 2915/2918 TSRA BKN020CB FM291800 17012G19KT
                       P6SM SHRA OVC015 FM292300 17011KT P6SM RA
                       OVC015 FM300400 17008KT P6SM SHRA OVC020=
202308291144 TAF KBLI 291144Z 2912/3012 15007KT P6SM VCTS SCT015 BKN030CB FM291400
                       17007KT P6SM SHRA OVC015 FM291800 17012G19KT
                       P6SM SHRA OVC015 FM292300 17011KT P6SM RA
                       OVC015 FM300400 17008KT P6SM SHRA OVC020=
202308290815 KBLI 290815Z 2908/3006 18007KT P6SM OVC020 FM291000 17011KT P6SM
                       SHRA OVC015 FM292300 17011KT P6SM SHRA OVC015=
202308290534 TAF KBLI 290534Z 2906/3006 21015G22KT P6SM OVC015 FM291100 18009KT
                       P6SM OVC020 FM291700 17011KT P6SM SHRA OVC010
                       FM292300 17011KT P6SM SHRA OVC015=
202308290212 KBLI 290212Z 2902/2924 21015G22KT P6SM BKN015 FM290900 18009KT
                       P6SM SHRA OVC020 FM291700 17011KT P6SM SHRA
                       OVC010 FM292000 17011KT P6SM SHRA OVC015=
202308290008 KBLI 290008Z 2900/2924 21015G22KT P6SM SCT020
                      TEMPO 2900/2902 TSRA BKN020CB FM290900 18009KT
                       P6SM SHRA OVC020 FM291700 17011KT P6SM SHRA
                       OVC010 FM292000 17011KT P6SM SHRA OVC015=
202308282325 TAF KBLI 282325Z 2900/2924 21015G22KT P6SM VCSH SCT020
                      TEMPO 2900/2903 BKN020 FM290900 18009KT P6SM
                       SHRA OVC020 FM291700 17011KT P6SM SHRA OVC010
                       FM292000 17011KT P6SM SHRA OVC015=
202308282055 KBLI 282055Z 2821/2918 18008G15KT P6SM VCSH BKN015 FM282300 21015G22KT
                       P6SM VCSH BKN050 FM291000 18010KT P6SM SHRA
                       OVC025 FM291700 17011KT P6SM SHRA OVC010=
202308281729 TAF KBLI 281729Z 2818/2918 17008G15KT P6SM SCT015
                      TEMPO 2818/2821 BKN015 FM282100 21015G22KT
                       P6SM VCSH BKN050 FM291000 18010KT P6SM SHRA
                       OVC025 FM291700 17011KT P6SM SHRA OVC010=
202308281610 KBLI 281610Z 2816/2912 17008KT P6SM BKN015 FM281800 18010G18KT
                       P6SM BKN050 FM282100 21015G22KT P6SM SCT050
                       FM290100 17012G20KT P6SM SCT050 FM291000
                       18012KT P6SM OVC025=
202308281510 KBLI 281510Z 2815/2912 17008KT P6SM SKC FM281800 18010G18KT P6SM
                       BKN050 FM282100 21015G22KT P6SM SCT050 FM290100
                       17012G20KT P6SM SCT050 FM291000 18012KT
                       P6SM OVC025=
202308281123 TAF KBLI 281123Z 2812/2912 17008KT P6SM SKC
                      TEMPO 2814/2816 BKN010 FM281800 18010G18KT
                       P6SM BKN050 FM282100 21015G22KT P6SM SCT050
                       FM290100 17012G20KT P6SM SCT050 FM291000
                       18012KT P6SM OVC025=
202308280533 TAF KBLI 280533Z 2806/2906 17010KT P6SM SKC FM281200 19009KT P6SM
                       BKN100 FM281800 18010G20KT P6SM BKN050 FM282100
                       21015KT P6SM SCT050=
202308272323 TAF KBLI 272323Z 2800/2824 26006KT 6SM HZ SKC FM280500 17010KT
                       P6SM SKC FM281200 19009KT 6SM BR OVC015
                       FM282100 21015KT P6SM SCT050=
202308271734 TAF KBLI 271734Z 2718/2818 19004KT 6SM HZ SKC FM272000 26006KT
                       6SM HZ SKC FM280500 17010KT P6SM SKC FM281200
                       19009KT 6SM BR OVC015=
202308271128 TAF KBLI 271128Z 2712/2812 19004KT 6SM HZ SKC FM272000 26006KT
                       6SM HZ SKC FM280500 17006KT P6SM SKC=
202308270535 TAF KBLI 270535Z 2706/2806 VRB03KT 6SM HZ FU FEW100 FM271200 19004KT
                       6SM HZ SKC FM272000 24006KT 6SM HZ SKC=
202308262320 TAF KBLI 262320Z 2700/2724 29007KT 6SM HZ SKC FM270500 VRB03KT
                       6SM HZ SKC FM271200 19004KT 6SM HZ SKC FM272000
                       26006KT 6SM HZ SKC=
202308261755 KBLI 261755Z 2618/2718 02006KT 4SM HZ SKC FM262200 29007KT 6SM
                       HZ SKC FM270500 VRB04KT 6SM HZ SKC FM271200
                       19004KT 6SM HZ SKC=
202308261751 TAF KBLI 261751Z 2618/2718 36005KT 6SM HZ SKC FM262200 29007KT
                       6SM HZ SKC FM270500 VRB04KT 6SM HZ SKC=
202308261125 TAF KBLI 261125Z 2612/2712 VRB03KT 6SM HZ SKC
                      TEMPO 2612/2616 3SM BR FM261700 36005KT 6SM
                       HZ SKC FM262200 29007KT 6SM HZ SKC FM270500
                       VRB04KT 6SM HZ SKC=
202308260525 TAF KBLI 260525Z 2606/2706 VRB03KT P6SM SKC FM261200 VRB03KT 6SM
                       HZ SKC FM261700 01005KT 6SM HZ SKC FM262200
                       29007KT 6SM HZ SKC=
202308252339 TAF KBLI 252339Z 2600/2624 VRB03KT P6SM SCT200 FM260700 VRB03KT
                       6SM HZ SKC FM261700 26005KT P6SM FEW200=
202308251738 TAF KBLI 251738Z 2518/2618 VRB04KT P6SM SCT120 BKN200 FM252200
                       25006KT P6SM SCT200 FM260400 VRB03KT P6SM
                       SKC FM261700 26005KT P6SM FEW200=
202308251135 TAF KBLI 251135Z 2512/2612 VRB03KT P6SM SCT120 BKN200 FM251800
                       VRB04KT P6SM SCT120 BKN200 FM252200 25006KT
                       P6SM SCT200 FM260400 VRB03KT P6SM SKC=
202308250520 TAF KBLI 250520Z 2506/2606 VRB03KT P6SM FEW250 FM251700 VRB04KT
                       P6SM BKN250=
202308242337 TAF KBLI 242337Z 2500/2524 31010KT P6SM FEW200 FM250300 VRB03KT
                       P6SM FEW200 FM251700 23003KT P6SM FEW250
                       FM252300 19006KT P6SM OVC250=
202308241727 TAF KBLI 241727Z 2418/2518 33008KT P6SM FEW200 FM242200 31010KT
                       P6SM FEW200 FM250300 VRB03KT P6SM FEW200
                       FM251700 23003KT P6SM FEW250=
202308241129 TAF KBLI 241129Z 2412/2512 VRB03KT P6SM FEW200 FM241800 33008KT
                       P6SM FEW200 FM242200 31010KT P6SM FEW200
                       FM250300 VRB03KT P6SM FEW200=
202308240521 TAF KBLI 240521Z 2406/2506 VRB02KT P6SM SCT250 FM241800 33010G15KT
                       P6SM SCT250 FM250300 VRB03KT P6SM SCT250=
202308232326 TAF KBLI 232326Z 2400/2424 18006KT P6SM SCT080 SCT250 FM240300
                       VRB02KT P6SM SCT250 FM241800 34009KT P6SM
                       SCT250=
202308231720 TAF KBLI 231720Z 2318/2418 18010G16KT P6SM FEW070 FM240000 18004KT
                       P6SM SCT250 FM241200 00000KT P6SM SKC=
202308231137 TAF KBLI 231137Z 2312/2412 18006KT P6SM BKN050 OVC080 FM231800
                       18010KT P6SM BKN050 FM240000 18004KT P6SM
                       SCT250=
202308230520 TAF KBLI 230520Z 2306/2406 VRB03KT P6SM VCSH SCT050 BKN100 FM231500
                       18010KT P6SM BKN050 FM232200 20006KT P6SM
                       SCT100 SCT250 FM240300 VRB03KT P6SM SCT250=
202308222328 TAF KBLI 222328Z 2300/2324 17010G18KT P6SM SCT100 FM230600 18005KT
                       P6SM VCSH SCT050 BKN100 FM231500 18009KT
                       P6SM BKN050 FM232200 20006KT P6SM SCT100=
202308221733 TAF KBLI 221733Z 2218/2318 17010G18KT P6SM BKN035 OVC080 FM230200
                       18005KT P6SM VCSH SCT050 BKN100 FM231500
                       18008KT P6SM OVC050=
202308221135 TAF KBLI 221135Z 2212/2312 18007KT P6SM SCT250 FM221500 17010KT
                       P6SM SCT030 OVC050 FM222200 19008KT P6SM
                       SCT050 SCT250 FM230200 18006KT P6SM SCT050
                       BKN100 FM231100 18004KT P6SM OVC050=
202308220523 TAF KBLI 220523Z 2206/2306 18007KT P6SM SCT250 FM221500 17010KT
                       P6SM SCT030 OVC050 FM222200 19008KT P6SM
                       SCT050 SCT250 FM230200 18006KT P6SM SCT050
                       BKN100=
202308212325 TAF KBLI 212325Z 2200/2224 18011G16KT 6SM HZ FEW250 FM220600 18010KT
                       P6SM SCT250 FM221500 17012G18KT P6SM SCT030
                       OVC050=
202308211732 TAF KBLI 211732Z 2118/2218 21006KT 6SM HZ FEW250 FM220000 18011KT
                       6SM HZ FEW250 FM220600 18010KT P6SM SCT250
                       FM221500 17012G18KT P6SM SCT030 OVC050=
202308211140 TAF KBLI 211140Z 2112/2212 19003KT 6SM FU BKN060 FM211700 21006KT
                       6SM HZ FEW250 FM220200 18010KT P6SM FEW250
                       FM220900 18010G20KT P6SM SCT250=
202308210529 TAF KBLI 210529Z 2106/2206 20003KT P6SM OVC060
                      TEMPO 2106/2110 4SM HZ FM211100 19003KT 6SM
                       HZ SCT250 FM211700 21006KT 6SM HZ FEW250
                       FM220200 18010KT P6SM FEW250=
202308202331 TAF KBLI 202331Z 2100/2124 28006KT 3SM FU OVC040 FM210600 21003KT
                       4SM HZ SKC FM211100 19003KT 6SM HZ SKC FM211700
                       19006KT 6SM HZ FEW250=
202308201900 KBLI 201900Z 2019/2118 03003KT 3SM HZ FU OVC035
                      TEMPO 2019/2021 1SM HZ FU BKN025 FM202100
                       28006KT 3SM FU OVC040 FM210600 21003KT 4SM
                       HZ SKC FM211100 19003KT 6SM HZ SKC=
202308201758 KBLI 201758Z 2018/2118 03003KT 3SM HZ FU OVC035 FM202100 28006KT
                       3SM FU OVC040 FM210600 21003KT 4SM HZ SKC
                       FM211100 19003KT 6SM HZ SKC=
202308201720 TAF KBLI 201720Z 2018/2118 03003KT 5SM HZ FU OVC035 FM202100 28006KT
                       4SM FU OVC040 FM210600 21003KT 6SM HZ SKC
                       FM211100 19003KT 6SM HZ SKC=
202308201139 TAF KBLI 201139Z 2012/2112 VRB02KT 6SM FU OVC050 FM201500 03003KT
                       5SM FU OVC040 FM202100 28006KT 5SM FU OVC040
                       FM210600 21003KT P6SM SKC=
202308200520 TAF KBLI 200520Z 2006/2106 VRB03KT 6SM FU OVC050 FM201000 VRB02KT
                       5SM FU OVC040 FM201500 03003KT 5SM FU SCT040
                       FM201800 33005KT 6SM FU SCT050 FM202100
                       27005KT 6SM FU SKC FM210300 19003KT P6SM
                       SKC=
202308192320 TAF KBLI 192320Z 2000/2024 33006KT 6SM FU SKC FM200500 VRB03KT
                       6SM FU SKC FM201000 VRB02KT 5SM FU SKC FM201500
                       03003KT 5SM FU SKC=
202308191723 TAF KBLI 191723Z 1918/2018 32006KT 6SM HZ SKC FM192200 33006KT
                       5SM FU SKC FM200400 VRB03KT 4SM FU SKC FM201000
                       VRB02KT 4SM FU SKC=
202308191134 TAF KBLI 191134Z 1912/2012 VRB03KT P6SM SKC FM191700 20006KT 6SM
                       HZ SKC FM192200 33006KT 6SM HZ SKC FM200400
                       VRB03KT 6SM HZ SKC=
202308190523 TAF KBLI 190523Z 1906/2006 VRB03KT P6SM SCT250 FM191700 33005KT
                       6SM HZ SKC FM192100 31009KT 5SM HZ SKC FM200200
                       22004KT P6SM SKC=
202308182320 TAF KBLI 182320Z 1900/1924 25005KT P6SM SCT250 FM190600 VRB03KT
                       P6SM SCT250 FM191700 01005KT 6SM HZ SKC
                       FM192100 31009KT 5SM HZ SKC=
202308181720 TAF KBLI 181720Z 1818/1918 22006KT P6SM SCT250 FM190600 VRB03KT
                       P6SM SCT250 FM191500 01005KT 6SM HZ SKC=
202308181138 TAF KBLI 181138Z 1812/1912 19006KT P6SM SCT250 FM190300 VRB03KT
                       P6SM SCT250=
202308180533 TAF KBLI 180533Z 1806/1906 20006KT P6SM FEW250 FM181200 20007KT
                       P6SM FEW010 FM181700 21006KT P6SM SKC FM190300
                       18004KT P6SM SKC=
202308172320 TAF KBLI 172320Z 1800/1824 25005KT P6SM FEW250 FM180300 20006KT
                       P6SM FEW250 FM181200 20007KT P6SM FEW010
                       FM181700 21006KT P6SM SKC=
202308171721 TAF KBLI 171721Z 1718/1818 24007KT P6SM SCT250 FM180300 20006KT
                       P6SM FEW250 FM181100 20007KT P6SM FEW010=
202308171128 TAF KBLI 171128Z 1712/1812 VRB03KT P6SM SCT250 FM171800 22008KT
                       P6SM SCT250=
202308170532 TAF KBLI 170532Z 1706/1806 20003KT P6SM SKC FM171800 24007KT P6SM
                       SKC=
202308162320 TAF KBLI 162320Z 1700/1724 23006KT P6SM FEW250 FM170300 20003KT
                       P6SM SKC FM171800 24007KT P6SM SKC=
202308161720 TAF KBLI 161720Z 1618/1718 25006KT P6SM FEW250 FM170300 20003KT
                       P6SM SKC=
202308161129 TAF KBLI 161129Z 1612/1712 20003KT P6SM SKC FM161700 26006KT P6SM
                       FEW250 FM170300 VRB03KT P6SM SKC=
202308160520 TAF KBLI 160520Z 1606/1706 VRB03KT P6SM SKC FM161700 22006KT P6SM
                       FEW250 FM170300 VRB03KT P6SM SKC=
202308152328 TAF KBLI 152328Z 1600/1624 20005KT P6SM SKC=
202308151732 TAF KBLI 151732Z 1518/1618 26006KT P6SM SKC FM152300 20005KT P6SM
                       SKC=
202308151120 TAF KBLI 151120Z 1512/1612 00000KT P6SM SKC FM151700 26006KT P6SM
                       SKC FM160200 VRB03KT P6SM SKC=
202308150520 TAF KBLI 150520Z 1506/1606 VRB03KT P6SM FEW250 FM151700 23006KT
                       P6SM FEW250 FM160200 VRB03KT P6SM SKC=
202308142320 TAF KBLI 142320Z 1500/1524 23008KT P6SM FEW250 FM150300 VRB03KT
                       P6SM FEW250 FM151700 23008KT P6SM FEW250=
202308141734 TAF KBLI 141734Z 1418/1518 35006KT P6SM FEW250 FM142000 28008KT
                       P6SM FEW250 FM150300 VRB03KT P6SM FEW250
                       FM151700 24008KT P6SM FEW250=
202308141135 TAF KBLI 141135Z 1412/1512 00000KT P6SM SKC FM141600 35006KT P6SM
                       SKC FM141900 28008KT P6SM SKC FM150300 VRB03KT
                       P6SM SKC=
202308140520 TAF KBLI 140520Z 1406/1506 VRB03KT P6SM SKC FM141600 35005KT P6SM
                       SKC FM142000 29008KT P6SM SKC FM150300 VRB03KT
                       P6SM SKC=
202308132320 TAF KBLI 132320Z 1400/1424 29007KT P6SM SKC FM140300 VRB03KT P6SM
                       SKC FM141600 35005KT P6SM SKC FM142000 29008KT
                       P6SM SKC=
202308131720 TAF KBLI 131720Z 1318/1418 31008KT P6SM SKC FM132200 29007KT P6SM
                       SKC FM140300 VRB03KT P6SM SKC FM141000 VRB03KT
                       P6SM SKC=
202308131142 TAF KBLI 131142Z 1312/1412 00000KT P6SM SCT250 FM131800 29008KT
                       P6SM FEW250 FM140300 VRB03KT P6SM SKC=
202308130520 TAF KBLI 130520Z 1306/1406 VRB03KT P6SM SCT250 FM131800 30007KT
                       P6SM FEW250 FM140300 VRB03KT P6SM SKC=
202308122324 TAF KBLI 122324Z 1300/1324 24007KT P6SM SCT250 FM130300 VRB03KT
                       P6SM SCT250 FM131800 29007KT P6SM FEW250=
202308121735 TAF KBLI 121735Z 1218/1318 20006KT P6SM SCT250
                      TEMPO 1218/1220 BKN018 FM122100 24007KT P6SM
                       SCT250 FM130600 00000KT P6SM SCT250=
202308121120 TAF KBLI 121120Z 1212/1312 23003KT P6SM SKC FM121800 18008KT P6SM
                       SCT250 FM122100 24007KT P6SM SCT250 FM130600
                       00000KT P6SM SCT250=
202308120535 TAF KBLI 120535Z 1206/1306 19008KT P6SM BKN150 FM121800 18008KT
                       P6SM SCT250=
202308112332 TAF KBLI 112332Z 1200/1224 17007KT P6SM SCT250 FM120600 18004KT
                       P6SM BKN150 FM121300 18004KT P6SM BKN050
                       FM121900 19006KT P6SM BKN100=
202308111735 TAF KBLI 111735Z 1118/1218 21007KT P6SM SKC FM120600 18004KT P6SM
                       BKN150 FM121300 18004KT P6SM BKN050=
202308111139 TAF KBLI 111139Z 1112/1212 18005KT P6SM SCT050 FM111800 21007G17KT
                       P6SM SCT050 FM120600 18004KT P6SM BKN150=
202308110539 TAF KBLI 110539Z 1106/1206 18008KT P6SM SCT050=
202308102339 TAF KBLI 102339Z 1100/1124 18008KT P6SM SCT060 FM111000 18003KT
                       P6SM BKN050 FM111800 19008KT P6SM BKN070=
202308101732 TAF KBLI 101732Z 1018/1118 18008KT P6SM FEW030 BKN045 FM110200
                       18008KT P6SM SCT050 FM111200 18003KT P6SM
                       BKN050=
202308101459 KBLI 101459Z 1015/1112 18008KT P6SM BKN035 FM101800 19008KT P6SM
                       BKN040 FM110200 18008KT P6SM SCT050=
202308101125 TAF KBLI 101125Z 1012/1112 18008KT P6SM VCSH BKN040
                      TEMPO 1012/1015 P6SM -SHRA BKN030 FM101800
                       19008KT P6SM BKN040 FM110200 18008KT P6SM
                       SCT050=
202308100541 TAF KBLI 100541Z 1006/1106 18008KT P6SM BKN040 FM110200 18008KT
                       P6SM SCT050=
202308092351 TAF KBLI 092351Z 1000/1024 20010G16KT P6SM SCT050 SCT100 FM100300
                       18010KT P6SM BKN050 FM101000 18006KT P6SM
                       OVC050 FM101500 19010KT P6SM OVC050=
202308091729 TAF KBLI 091729Z 0918/1018 18008KT P6SM -SHRA SCT015 OVC030 FM092100
                       20010G16KT P6SM SCT030 BKN045 FM100300 18010KT
                       P6SM BKN050 FM101000 18006KT P6SM OVC050=
202308091140 TAF KBLI 091140Z 0912/1012 20003KT P6SM OVC060 FM091600 18008KT
                       5SM -SHRA SCT015 OVC030 FM092100 20010G16KT
                       P6SM SCT030 BKN045 FM100300 18010KT P6SM
                       BKN050=
202308090535 TAF KBLI 090535Z 0906/1006 VRB03KT P6SM OVC080 FM091300 18008KT
                       P6SM -RA SCT015 OVC040 FM092100 20010G16KT
                       P6SM SCT030 BKN045 FM100300 18010KT P6SM
                       BKN050=
202308082341 TAF KBLI 082341Z 0900/0924 18008KT P6SM BKN100 FM091300 18008KT
                       P6SM -RA SCT015 BKN025 OVC040 FM092200 21010KT
                       P6SM SCT030 BKN045=
202308081725 TAF KBLI 081725Z 0818/0918 18012G20KT P6SM SCT025 BKN100 FM082300
                       18008KT P6SM BKN100 FM091300 18008KT P6SM
                       -RA SCT015 BKN025 OVC040=
202308081138 TAF KBLI 081138Z 0812/0912 17008KT P6SM BKN200 FM082100 20009KT
                       P6SM OVC100=
202308080542 TAF KBLI 080542Z 0806/0906 18008KT P6SM SCT200 FM081100 17012KT
                       P6SM OVC040 FM082100 19009G16KT P6SM OVC100
                       FM090200 19004KT P6SM OVC100=
202308072329 TAF KBLI 072329Z 0800/0824 20008KT P6SM SCT050 BKN080 FM081100
                       17015KT P6SM OVC040 FM082100 19009KT P6SM
                       OVC100=
202308071732 TAF KBLI 071732Z 0718/0818 18005KT P6SM BKN100 FM072000 20008KT
                       P6SM SCT050 BKN080 FM081100 17015KT P6SM
                       OVC040=
202308071357 KBLI 071357Z 0714/0812 18008KT P6SM SCT025 BKN080
                      TEMPO 0715/0718 BKN025 BKN080 FM072000 20008KT
                       P6SM SCT050 BKN080=
202308071132 TAF KBLI 071132Z 0712/0812 18010KT P6SM OVC100 FM071400 18008KT
                       P6SM -SHRA OVC008 FM071700 18008KT P6SM
                       VCSH SCT008 OVC015 FM072000 20008KT P6SM
                       OVC050=
202308070520 TAF KBLI 070520Z 0706/0806 18010KT P6SM FEW100 BKN150 FM071400
                       18008KT P6SM SHRA OVC025 FM071600 18009G21KT
                       P6SM VCSH OVC015 FM072100 20009KT P6SM OVC050=
202308062330 TAF KBLI 062330Z 0700/0724 18014G24KT P6SM SCT250 FM070600 18010KT
                       P6SM SCT050 OVC080 FM071000 19013KT P6SM
                       VCSH OVC025 FM071200 18008KT P6SM SHRA OVC025
                       FM071600 18009G21KT P6SM OVC015 FM072100
                       20009KT P6SM OVC050=
202308061733 TAF KBLI 061733Z 0618/0718 19014KT P6SM SCT250 FM070500 18010KT
                       P6SM SCT040 OVC080 FM071000 19013KT P6SM
                       VCSH OVC025 FM071600 18009G21KT P6SM OVC015=
202308061138 TAF KBLI 061138Z 0612/0712 18009KT P6SM OVC150 FM061700 19014KT
                       P6SM OVC100 FM070500 18007KT P6SM SCT040
                       OVC080 FM071000 19015KT P6SM VCSH OVC025=
202308060527 TAF KBLI 060527Z 0606/0706 18010KT P6SM OVC120 FM061700 19010G20KT
                       P6SM OVC100=
202308052344 TAF KBLI 052344Z 0600/0624 21005KT P6SM SCT150 FM060300 19005KT
                       P6SM OVC150 FM061300 18008G16KT P6SM OVC090
                       FM061700 19010G20KT P6SM OVC100=
202308051739 TAF KBLI 051739Z 0518/0618 21005KT P6SM OVC180 FM060300 19005KT
                       P6SM OVC150 FM061300 18008G16KT P6SM OVC090=
202308051328 KBLI 051328Z 0513/0612 19005KT P6SM SCT003 FM051700 21006KT P6SM
                       OVC100 FM060500 18005KT P6SM OVC100=
202308051258 KBLI 051258Z 0513/0612 19008KT P6SM BKN003 FM051700 21006KT P6SM
                       OVC100 FM060500 18005KT P6SM OVC100=
202308051139 TAF KBLI 051139Z 0512/0612 20004KT P6SM BKN150 BKN250 FM051800
                       23008KT P6SM BKN120 BKN250=
202308050520 TAF KBLI 050520Z 0506/0606 20008KT P6SM BKN250 FM051200 20004KT
                       P6SM BKN150 BKN250 FM051800 23008KT P6SM
                       BKN120 BKN250=
202308042320 TAF KBLI 042320Z 0500/0524 21006KT P6SM SKC FM050200 19006KT P6SM
                       SCT150 SCT250 FM051200 VRB03KT P6SM SCT100
                       BKN250 FM051800 23006KT P6SM SCT100 BKN250=
202308041720 TAF KBLI 041720Z 0418/0518 VRB04KT P6SM SKC FM042000 21008KT P6SM
                       SKC FM050200 19006KT P6SM SCT150 FM051200
                       VRB03KT P6SM SCT200=
202308041136 TAF KBLI 041136Z 0412/0512 19005KT P6SM SCT010 FM041800 21008KT
                       P6SM SKC FM050200 19006KT P6SM SCT150=
202308040520 TAF KBLI 040520Z 0406/0506 18006KT P6SM SKC=
202308032324 TAF KBLI 032324Z 0400/0424 19005KT P6SM FEW250=
202308031734 TAF KBLI 031734Z 0318/0418 18007KT P6SM SKC FM032000 24010KT P6SM
                       SKC FM040100 19005KT P6SM FEW200 FM040600
                       VRB04KT P6SM FEW200=
202308031139 TAF KBLI 031139Z 0312/0412 21004KT P6SM SKC FM032000 23010KT P6SM
                       SKC FM040100 19005KT P6SM SKC=
202308030522 TAF KBLI 030522Z 0306/0406 18004KT P6SM SKC FM032000 23007KT P6SM
                       SKC=
202308022322 TAF KBLI 022322Z 0300/0324 27008KT P6SM SKC FM030200 18004KT P6SM
                       SKC FM032000 22007KT P6SM SKC=
202308021742 TAF KBLI 021742Z 0218/0318 20006KT P6SM SKC=
202308021138 TAF KBLI 021138Z 0212/0312 18003KT P6SM SKC FM021700 21007KT P6SM
                       SKC FM030400 19004KT P6SM SKC=
202308020521 TAF KBLI 020521Z 0206/0306 18003KT P6SM SKC FM021700 21007KT P6SM
                       FEW250=
202308012336 TAF KBLI 012336Z 0200/0224 21007KT P6SM SKC FM021600 18006KT P6SM
                       FEW250=
202308011750 TAF KBLI 011750Z 0118/0218 24007KT P6SM SKC FM020500 18004KT P6SM
                       SKC FM021600 18006KT P6SM FEW250=
202308011122 TAF KBLI 011122Z 0112/0212 00000KT P6SM FEW008 FM011700 20007KT
                       P6SM SKC FM020500 18003KT P6SM SKC=
202308010521 TAF KBLI 010521Z 0106/0206 18003KT P6SM SKC FM011900 21007KT P6SM
                       SKC=