##########################################################
# Query made at 02/16/2025 23:44:52 UTC
# Time interval: from 10/01/2023 00:00  to 10/31/2023 23:59  UTC
##########################################################

##########################################################
# KBLI, Bellingham, Bellingham International Airport (United States)
# WMO index: -----. WIGOS ID: Unknown
# Latitude 48-47-58N. Longitude 122-32-21W. Altitude 48 m.
##########################################################

###################################
#  METAR/SPECI from KBLI
###################################
202310312353 METAR KBLI 312353Z 00000KT 10SM CLR 11/03 A3013 RMK AO2 SLP212 T01060028 10128 20056 56013=
202310312253 METAR KBLI 312253Z 01003KT 10SM CLR 12/01 A3014 RMK AO2 SLP214 T01220011=
202310312153 METAR KBLI 312153Z 04003KT 10SM CLR 12/01 A3014 RMK AO2 SLP216 T01170011=
202310312053 METAR KBLI 312053Z 00000KT 10SM CLR 11/01 A3017 RMK AO2 SLP225 T01110006 58011=
202310311953 METAR KBLI 311953Z 01005KT 10SM CLR 11/01 A3019 RMK AO2 SLP232 T01060011=
202310311853 METAR KBLI 311853Z 02004KT 10SM CLR 09/01 A3020 RMK AO2 SLP235 T00890011=
202310311753 METAR KBLI 311753Z 02004KT 10SM CLR 06/01 A3020 RMK AO2 SLP236 I6000 T00610011 10061 21033 50000=
202310311653 METAR KBLI 311653Z 36004KT 10SM CLR 03/01 A3020 RMK AO2 SLP237 T00330011=
202310311553 METAR KBLI 311553Z 36003KT 10SM CLR M01/M01 A3021 RMK AO2 SLP239 I1000 T10061011=
202310311453 METAR KBLI 311453Z 00000KT 10SM CLR M02/M03 A3020 RMK AO2 SLP237 I1000 I3000 T10221033 56006=
202310311353 METAR KBLI 311353Z 00000KT 10SM CLR M02/M03 A3021 RMK AO2 SLP240 I1000 T10221033=
202310311253 METAR KBLI 311253Z AUTO 00000KT 9SM CLR M02/M03 A3021 RMK AO2 SLP239 I1000 T10221028=
202310311153 METAR KBLI 311153Z AUTO 00000KT 8SM CLR M02/M03 A3022 RMK AO2 SLP243 I1000 I6001 T10221028 10006 21022 58005=
202310311053 METAR KBLI 311053Z AUTO 00000KT 9SM CLR M02/M03 A3023 RMK AO2 SLP246 I1000 T10221033=
202310310953 METAR KBLI 310953Z AUTO 00000KT 7SM CLR M02/M03 A3023 RMK AO2 SLP245 T10171028=
202310310853 METAR KBLI 310853Z AUTO 00000KT 5SM BR CLR M01/M02 A3024 RMK AO2 SLP248 I1001 I3001 T10111017 55003=
202310310817 SPECI KBLI 310817Z AUTO 00000KT 3SM BR CLR M01/M02 A3024 RMK AO2 I1000 T10111022=
202310310807 SPECI KBLI 310807Z AUTO 00000KT 1 3/4SM BR CLR M02/M02 A3023 RMK AO2 I1000 T10171017=
202310310753 METAR KBLI 310753Z AUTO 00000KT 6SM BR CLR M01/M01 A3023 RMK AO2 SLP247 I1000 T10061011 401281028=
202310310721 SPECI KBLI 310721Z AUTO 00000KT 5SM BR CLR M01/M02 A3023 RMK AO2 I1000 T10111017=
202310310711 SPECI KBLI 310711Z AUTO 02003KT 2SM BR CLR M01/M01 A3023 RMK AO2 T10111011=
202310310701 SPECI KBLI 310701Z AUTO 00000KT 3SM R16/3500VP6000FT BR CLR M01/M01 A3024 RMK AO2 T10061011=
202310310653 METAR KBLI 310653Z AUTO 00000KT 1 1/2SM R16/5500VP6000FT BR CLR 00/M01 A3024 RMK AO2 VIS 3/4V4 SLP249 T00001011=
202310310604 SPECI KBLI 310604Z AUTO 00000KT 3SM BR CLR 01/00 A3025 RMK AO2 T00060000=
202310310556 SPECI KBLI 310556Z AUTO 00000KT 1 3/4SM BR CLR M01/M01 A3025 RMK AO2 T10061011=
202310310553 METAR KBLI 310553Z AUTO 00000KT 3SM BR CLR M01/M01 A3025 RMK AO2 SLP251 T10111011 10094 21011 56002=
202310310551 SPECI KBLI 310551Z AUTO 36003KT 7SM CLR M01/M01 A3025 RMK AO2=
202310310542 SPECI KBLI 310542Z AUTO 00000KT 2SM BR CLR 00/M01 A3024 RMK AO2 T00001006=
202310310532 SPECI KBLI 310532Z AUTO 00000KT 3/4SM R16/P6000FT BR CLR 01/00 A3025 RMK AO2 T00060000=
202310310453 METAR KBLI 310453Z 00000KT 10SM FEW003 01/00 A3025 RMK AO2 SLP252 T00060000=
202310310353 METAR KBLI 310353Z 00000KT 10SM CLR 02/00 A3025 RMK AO2 SLP255 T00170000=
202310310253 METAR KBLI 310253Z 00000KT 10SM CLR 02/00 A3025 RMK AO2 SLP254 T00220000 56008=
202310310153 METAR KBLI 310153Z 00000KT 10SM CLR 03/02 A3025 RMK AO2 SLP255 T00330017=
202310310053 METAR KBLI 310053Z 00000KT 10SM CLR 06/03 A3027 RMK AO2 SLP258 T00560028=
202310302353 METAR KBLI 302353Z 28004KT 10SM CLR 09/03 A3028 RMK AO2 SLP261 T00940033 10128 20056 56016=
202310302253 METAR KBLI 302253Z 28006KT 10SM CLR 11/02 A3029 RMK AO2 SLP267 T01060022=
202310302153 METAR KBLI 302153Z 33003KT 10SM CLR 13/00 A3030 RMK AO2 SLP270 T01280000=
202310302053 METAR KBLI 302053Z 05004KT 10SM CLR 12/01 A3032 RMK AO2 SLP277 T01220006 58012=
202310301953 METAR KBLI 301953Z 36005KT 10SM CLR 11/01 A3035 RMK AO2 SLP285 T01060006=
202310301853 METAR KBLI 301853Z 04006KT 10SM CLR 09/01 A3035 RMK AO2 SLP287 T00890006=
202310301753 METAR KBLI 301753Z 02005KT 10SM CLR 06/00 A3036 RMK AO2 SLP289 I6000 T00560000 10056 21028 58004=
202310301653 METAR KBLI 301653Z 00000KT 10SM CLR 03/00 A3037 RMK AO2 SLP294 T00330000=
202310301553 METAR KBLI 301553Z 36003KT 10SM CLR M01/M01 A3038 RMK AO2 SLP296 T10061011=
202310301453 METAR KBLI 301453Z 36004KT 10SM CLR M02/M03 A3037 RMK AO2 SLP294 I1000 I3000 T10171028 55001=
202310301353 METAR KBLI 301353Z 00000KT 10SM CLR M02/M03 A3037 RMK AO2 SLP294 I1000 T10221028=
202310301253 METAR KBLI 301253Z AUTO 00000KT 10SM CLR M01/M02 A3037 RMK AO2 SLP294 I1000 T10061022=
202310301153 METAR KBLI 301153Z AUTO 00000KT 9SM CLR M02/M03 A3037 RMK AO2 SLP294 I1000 I6000 T10221028 10000 21028 58006=
202310301053 METAR KBLI 301053Z AUTO 00000KT 6SM BR CLR M02/M02 A3038 RMK AO2 SLP296 I1000 T10171022=
202310300953 METAR KBLI 300953Z AUTO 00000KT 6SM BR CLR M02/M02 A3039 RMK AO2 SLP300 I1000 T10171022=
202310300853 METAR KBLI 300853Z AUTO 00000KT 3SM BR CLR M01/M02 A3039 RMK AO2 SLP300 I1000 I3000 T10111022 58003=
202310300835 SPECI KBLI 300835Z AUTO 00000KT 3SM R16/2800VP6000FT BR CLR M01/M02 A3039 RMK AO2 I1000 T10111022=
202310300825 SPECI KBLI 300825Z AUTO 00000KT 1 1/2SM R16/3500VP6000FT BR CLR M01/M02 A3040 RMK AO2 I1000 T10111022=
202310300815 SPECI KBLI 300815Z AUTO 00000KT 4SM BR CLR M02/M02 A3040 RMK AO2 I1000 T10171017=
202310300806 SPECI KBLI 300806Z AUTO 00000KT 2 1/2SM BR CLR M01/M02 A3040 RMK AO2 T10061017=
202310300753 METAR KBLI 300753Z AUTO 05004KT 4SM BR CLR M02/M02 A3040 RMK AO2 SLP305 I1000 T10171022 401171044=
202310300742 SPECI KBLI 300742Z AUTO 00000KT 4SM BR CLR M02/M02 A3040 RMK AO2 I1000 T10171022=
202310300736 SPECI KBLI 300736Z AUTO 00000KT 1SM R16/P6000FT BR CLR M01/M02 A3040 RMK AO2 I1000 T10111017=
202310300653 METAR KBLI 300653Z AUTO 35003KT 6SM R16/4000VP6000FT BR CLR M01/M02 A3040 RMK AO2 SLP305 I1000 T10111022=
202310300616 SPECI KBLI 300616Z AUTO 00000KT 6SM BR CLR M01/M02 A3040 RMK AO2 T10111017=
202310300558 SPECI KBLI 300558Z AUTO 01003KT 2SM R16/5500VP6000FT BR CLR 01/M01 A3040 RMK AO2 T00061006=
202310300550 METAR KBLI 300550Z AUTO 34003KT 1 3/4SM BR CLR 01/M01 A3040 RMK AO2 SLP304 T00061006 10056 21006 51001=
202310300549 SPECI KBLI 300549Z AUTO 34003KT 1 3/4SM BR CLR 01/M01 A3040 RMK AO2=
202310300453 METAR KBLI 300453Z 00000KT 10SM CLR 01/M01 A3040 RMK AO2 SLP305 T00061006=
202310300440 SPECI KBLI 300440Z 00000KT 1/2SM R16/P6000FT CLR 01/M01 A3041 RMK AO2 T00061011=
202310300353 METAR KBLI 300353Z 00000KT 4SM BR CLR 01/00 A3040 RMK AO2 SLP305 T00110000=
202310300253 METAR KBLI 300253Z 00000KT 8SM CLR 02/01 A3040 RMK AO2 SLP304 T00170006 58005=
202310300153 METAR KBLI 300153Z 00000KT 10SM CLR 03/01 A3041 RMK AO2 SLP308 T00330011=
202310300053 METAR KBLI 300053Z 32003KT 10SM CLR 06/02 A3041 RMK AO2 SLP308 T00560022=
202310292353 METAR KBLI 292353Z 29004KT 10SM CLR 09/03 A3041 RMK AO2 SLP308 T00940028 10117 20050 56014=
202310292253 METAR KBLI 292253Z 35004KT 10SM CLR 11/M02 A3042 RMK AO2 SLP311 T01111017=
202310292153 METAR KBLI 292153Z 05004KT 10SM CLR 11/M01 A3044 RMK AO2 SLP315 T01111011=
202310292053 METAR KBLI 292053Z 31004KT 10SM CLR 10/M01 A3046 RMK AO2 SLP322 T01001011 58015=
202310291953 METAR KBLI 291953Z 36007KT 10SM CLR 09/M01 A3048 RMK AO2 SLP329 T00891006=
202310291853 METAR KBLI 291853Z 01006KT 10SM CLR 07/M01 A3048 RMK AO2 SLP332 T00721006=
202310291753 METAR KBLI 291753Z 02005KT 10SM CLR 05/M01 A3050 RMK AO2 SLP338 I6000 T00501006 10050 21044 50001=
202310291653 METAR KBLI 291653Z 04006KT 10SM CLR 02/M01 A3051 RMK AO2 SLP342 T00171011=
202310291553 METAR KBLI 291553Z 00000KT 10SM CLR M02/M02 A3052 RMK AO2 SLP345 I1000 T10171022=
202310291453 METAR KBLI 291453Z 36003KT 10SM CLR M04/M05 A3050 RMK AO2 SLP337 I3000 T10391050 58005=
202310291353 METAR KBLI 291353Z 00000KT 10SM CLR M04/M05 A3050 RMK AO2 SLP339 I1000 T10441050=
202310291253 METAR KBLI 291253Z AUTO 00000KT 10SM CLR M03/M04 A3051 RMK AO2 SLP343 I1000 T10331044=
202310291153 METAR KBLI 291153Z AUTO 00000KT 8SM CLR M03/M04 A3051 RMK AO2 SLP342 I1000 I6000 T10331044 11006 21039 58007=
202310291053 METAR KBLI 291053Z AUTO 00000KT 8SM CLR M03/M04 A3052 RMK AO2 SLP344 I1000 T10331039=
202310290953 METAR KBLI 290953Z AUTO 00000KT 7SM CLR M03/M04 A3053 RMK AO2 SLP347 I1000 T10281039=
202310290853 METAR KBLI 290853Z AUTO 00000KT 7SM CLR M03/M04 A3053 RMK AO2 SLP348 I1000 I3000 T10281039 51004=
202310290753 METAR KBLI 290753Z AUTO 00000KT 6SM BR CLR M02/M03 A3053 RMK AO2 SLP347 T10221033 401001050=
202310290702 SPECI KBLI 290702Z AUTO 00000KT 4SM BR CLR M02/M03 A3053 RMK AO2 T10221028=
202310290653 METAR KBLI 290653Z AUTO 00000KT 2 1/2SM BR CLR M02/M03 A3053 RMK AO2 SLP347 T10171028=
202310290553 METAR KBLI 290553Z AUTO 00000KT 8SM CLR M01/M02 A3052 RMK AO2 SLP345 T10061022 10078 21011 50001=
202310290453 METAR KBLI 290453Z 00000KT 8SM CLR 00/M02 A3052 RMK AO2 SLP347 T00001017=
202310290353 METAR KBLI 290353Z 00000KT 9SM CLR 01/M01 A3052 RMK AO2 SLP346 T00061011=
202310290253 METAR KBLI 290253Z 00000KT 10SM CLR 01/M01 A3052 RMK AO2 SLP344 T00111011 53002=
202310290153 METAR KBLI 290153Z 00000KT 10SM CLR 02/M01 A3051 RMK AO2 SLP342 T00171006=
202310290053 METAR KBLI 290053Z 29004KT 10SM CLR 06/01 A3050 RMK AO2 SLP339 T00560006=
202310282353 METAR KBLI 282353Z 28006KT 10SM CLR 08/00 A3051 RMK AO2 SLP342 T00830000 10100 20044 55013=
202310282253 METAR KBLI 282253Z 03003KT 10SM CLR 10/M03 A3051 RMK AO2 SLP341 T01001033=
202310282153 METAR KBLI 282153Z VRB03KT 10SM CLR 09/M04 A3053 RMK AO2 SLP346 T00941044=
202310282053 METAR KBLI 282053Z 02007KT 10SM CLR 09/M03 A3055 RMK AO2 SLP355 T00891033 58006=
202310281953 METAR KBLI 281953Z 01008KT 10SM CLR 08/M04 A3056 RMK AO2 SLP359 T00831044=
202310281853 METAR KBLI 281853Z 04008KT 10SM CLR 07/M04 A3057 RMK AO2 SLP361 T00671039=
202310281753 METAR KBLI 281753Z 02005KT 10SM CLR 04/M03 A3057 RMK AO2 SLP360 I6000 T00441033 10044 21050 51009=
202310281653 METAR KBLI 281653Z 00000KT 10SM CLR 02/M03 A3056 RMK AO2 SLP359 T00171028=
202310281553 METAR KBLI 281553Z 00000KT 10SM CLR M02/M03 A3055 RMK AO2 SLP356 T10171033=
202310281453 METAR KBLI 281453Z 35003KT 10SM CLR M03/M05 A3054 RMK AO2 SLP352 I1000 I3000 T10331050 51003=
202310281353 METAR KBLI 281353Z 00000KT 10SM CLR M04/M06 A3053 RMK AO2 SLP350 I1000 T10441056=
202310281253 METAR KBLI 281253Z AUTO 00000KT 10SM CLR M04/M06 A3054 RMK AO2 SLP352 I1000 T10391056=
202310281153 METAR KBLI 281153Z AUTO 00000KT 10SM CLR M04/M06 A3053 RMK AO2 SLP348 T10441056 10011 21044 51008=
202310281053 METAR KBLI 281053Z AUTO 00000KT 10SM CLR M03/M05 A3052 RMK AO2 SLP345 T10331050=
202310280953 METAR KBLI 280953Z AUTO 00000KT 10SM CLR M02/M04 A3052 RMK AO2 SLP343 T10221044=
202310280853 METAR KBLI 280853Z AUTO 00000KT 10SM CLR M02/M04 A3050 RMK AO2 SLP339 T10221039 53007=
202310280753 METAR KBLI 280753Z AUTO 00000KT 10SM CLR M01/M04 A3049 RMK AO2 SLP335 T10111044 401001011=
202310280653 METAR KBLI 280653Z AUTO 03005KT 10SM CLR M01/M04 A3049 RMK AO2 SLP335 T10061044=
202310280553 METAR KBLI 280553Z AUTO 35004KT 10SM CLR 01/M05 A3048 RMK AO2 SLP332 T00111050 10089 21006 53012=
202310280453 METAR KBLI 280453Z 00000KT 10SM CLR 01/M03 A3047 RMK AO2 SLP328 T00061033=
202310280353 METAR KBLI 280353Z 34004KT 10SM CLR 02/M03 A3046 RMK AO2 SLP324 T00171033=
202310280253 METAR KBLI 280253Z 34003KT 10SM CLR 03/M03 A3045 RMK AO2 SLP321 T00281033 53010=
202310280153 METAR KBLI 280153Z 33005KT 10SM CLR 04/M06 A3044 RMK AO2 SLP316 T00441061=
202310280053 METAR KBLI 280053Z 35005KT 10SM CLR 07/M08 A3043 RMK AO2 SLP313 T00671078=
202310272353 METAR KBLI 272353Z 02008KT 10SM CLR 09/M08 A3042 RMK AO2 SLP310 T00891078 10100 20072 56001=
202310272253 METAR KBLI 272253Z 03011KT 10SM CLR 10/M08 A3042 RMK AO2 SLP310 T01001083=
202310272153 METAR KBLI 272153Z 02011G23KT 10SM CLR 09/M08 A3042 RMK AO2 SLP309 T00941083=
202310272053 METAR KBLI 272053Z 03012G25KT 10SM CLR 09/M09 A3042 RMK AO2 SLP310 T00941089 58002=
202310271953 METAR KBLI 271953Z 03013G22KT 10SM CLR 09/M09 A3043 RMK AO2 SLP313 T00891089=
202310271853 METAR KBLI 271853Z 04010G24KT 10SM CLR 08/M08 A3044 RMK AO2 SLP315 T00781078=
202310271753 METAR KBLI 271753Z 03014G23KT 10SM CLR 07/M07 A3043 RMK AO2 SLP312 T00721072 10072 20006 51010=
202310271653 METAR KBLI 271653Z 03012G20KT 10SM CLR 06/M07 A3042 RMK AO2 SLP312 T00561067=
202310271553 METAR KBLI 271553Z 03010KT 10SM CLR 03/M06 A3042 RMK AO2 SLP309 T00331061=
202310271453 METAR KBLI 271453Z 02005KT 10SM CLR 01/M06 A3040 RMK AO2 SLP303 T00061056 53015=
202310271353 METAR KBLI 271353Z 02007KT 10SM CLR 02/M06 A3038 RMK AO2 SLP297 T00221061=
202310271253 METAR KBLI 271253Z AUTO 02011G19KT 10SM CLR 03/M06 A3037 RMK AO2 SLP293 T00281061=
202310271153 METAR KBLI 271153Z AUTO 02010KT 10SM CLR 03/M06 A3035 RMK AO2 SLP287 T00281061 10044 20017 50004=
202310271053 METAR KBLI 271053Z AUTO 04008KT 10SM CLR 03/M07 A3036 RMK AO2 SLP289 T00281067=
202310270953 METAR KBLI 270953Z AUTO 02011KT 10SM CLR 03/M07 A3035 RMK AO2 SLP287 T00331067=
202310270853 METAR KBLI 270853Z AUTO 01010G18KT 10SM CLR 04/M07 A3034 RMK AO2 SLP283 T00391067 53007=
202310270753 METAR KBLI 270753Z AUTO 03010KT 10SM CLR 04/M06 A3033 RMK AO2 SLP279 T00391061 401061022=
202310270653 METAR KBLI 270653Z AUTO 02008KT 10SM CLR 04/M06 A3032 RMK AO2 SLP277 T00391056=
202310270553 METAR KBLI 270553Z AUTO 03008G16KT 10SM CLR 04/M04 A3032 RMK AO2 SLP276 T00441044 10094 20039 53013=
202310270453 METAR KBLI 270453Z 02008KT 340V040 10SM CLR 04/M04 A3031 RMK AO2 SLP272 T00441044=
202310270353 METAR KBLI 270353Z 01008KT 10SM CLR 05/M04 A3029 RMK AO2 SLP266 T00501044=
202310270253 METAR KBLI 270253Z 02008KT 10SM CLR 06/M04 A3028 RMK AO2 SLP263 T00561044 53009=
202310270153 METAR KBLI 270153Z 36004KT 10SM CLR 06/M05 A3027 RMK AO2 SLP261 T00561050=
202310270053 METAR KBLI 270053Z 02004KT 10SM CLR 07/M05 A3026 RMK AO2 SLP256 T00671050=
202310262353 METAR KBLI 262353Z 03008KT 10SM CLR 09/M06 A3025 RMK AO2 SLP253 T00941061 10106 20061 53002=
202310262253 METAR KBLI 262253Z VRB05KT 10SM CLR 10/M06 A3024 RMK AO2 SLP251 T01001061=
202310262153 METAR KBLI 262153Z 04005KT 10SM CLR 10/M05 A3024 RMK AO2 SLP248 T01001050=
202310262053 METAR KBLI 262053Z 09005KT 10SM FEW060 09/M02 A3025 RMK AO2 SLP252 T00941022 58001=
202310261953 METAR KBLI 261953Z 35007KT 10SM CLR 09/M04 A3026 RMK AO2 SLP255 T00941039=
202310261853 METAR KBLI 261853Z 10SM CLR 09/M02 A3026 RMK AO2 SLP255 T00891017=
202310261753 METAR KBLI 261753Z VRB03KT 10SM CLR 06/M01 A3025 RMK AO2 SLP253 T00611011 10061 21022 51014=
202310261653 METAR KBLI 261653Z 03005KT 10SM CLR 03/M02 A3024 RMK AO2 SLP250 T00331022=
202310261553 METAR KBLI 261553Z 00000KT 10SM CLR 01/M02 A3023 RMK AO2 SLP246 T00111017=
202310261453 METAR KBLI 261453Z 00000KT 10SM CLR M01/M02 A3021 RMK AO2 SLP239 T10111022 51017=
202310261353 METAR KBLI 261353Z 00000KT 10SM CLR 00/M02 A3019 RMK AO2 SLP234 T00001022=
202310261253 METAR KBLI 261253Z AUTO 01004KT 10SM CLR M01/M02 A3018 RMK AO2 SLP228 T10061022=
202310261153 METAR KBLI 261153Z AUTO 00000KT 10SM CLR 00/M03 A3016 RMK AO2 SLP222 T00001033 10044 20000 51013=
202310261053 METAR KBLI 261053Z AUTO 04004KT 10SM CLR 01/M04 A3015 RMK AO2 SLP220 T00111039=
202310260953 METAR KBLI 260953Z AUTO 03007KT 10SM CLR 02/M04 A3014 RMK AO2 SLP217 T00171044=
202310260853 METAR KBLI 260853Z AUTO 03005KT 10SM CLR 01/M04 A3012 RMK AO2 SLP208 T00111039 53018=
202310260753 METAR KBLI 260753Z AUTO 01006KT 10SM CLR 02/M03 A3010 RMK AO2 SLP201 T00221033 400940022=
202310260653 METAR KBLI 260653Z AUTO 06006KT 10SM CLR 03/M04 A3008 RMK AO2 SLP195 T00331044=
202310260553 METAR KBLI 260553Z AUTO 03007KT 10SM CLR 04/M04 A3007 RMK AO2 SLP191 T00391044 10083 20039 51015=
202310260453 METAR KBLI 260453Z 01010KT 10SM CLR 04/M04 A3007 RMK AO2 SLP191 T00441044=
202310260353 METAR KBLI 260353Z 04008G18KT 10SM CLR 06/M04 A3004 RMK AO2 SLP182 T00561044=
202310260253 METAR KBLI 260253Z 03010G18KT 10SM CLR 06/M04 A3002 RMK AO2 SLP175 T00561044 53017=
202310260153 METAR KBLI 260153Z 04013KT 10SM CLR 06/M04 A2999 RMK AO2 SLP164 T00611044=
202310260053 METAR KBLI 260053Z 03011G20KT 10SM FEW060 07/M04 A2999 RMK AO2 PK WND 01027/0022 SLP163 T00671039=
202310252353 METAR KBLI 252353Z 03013G26KT 10SM FEW060 08/M04 A2997 RMK AO2 PK WND 02035/2314 SLP157 T00831039 10094 20067 53016=
202310252253 METAR KBLI 252253Z 04018G28KT 10SM CLR 09/M04 A2995 RMK AO2 PK WND 03032/2209 SLP149 T00891039=
202310252153 METAR KBLI 252153Z 04016G29KT 10SM FEW040 09/M04 A2994 RMK AO2 PK WND 04029/2111 SLP146 T00941039=
202310252053 METAR KBLI 252053Z 03013G31KT 10SM FEW035 SCT100 09/M04 A2992 RMK AO2 PK WND 06031/2047 SLP141 T00891039 51016=
202310251953 METAR KBLI 251953Z 04016G26KT 10SM CLR 08/M04 A2991 RMK AO2 PK WND 03032/1922 SLP137 T00781044=
202310251853 METAR KBLI 251853Z 04017G32KT 10SM OVC090 07/M04 A2990 RMK AO2 PK WND 04035/1838 SLP134 T00721044=
202310251753 METAR KBLI 251753Z 04021G31KT 10SM BKN080 OVC100 07/M04 A2988 RMK AO2 PK WND 03031/1746 SLP126 60000 T00671039 10067 20050 51025=
202310251653 METAR KBLI 251653Z 04016G30KT 10SM BKN080 BKN090 07/M03 A2985 RMK AO2 PK WND 04030/1612 SLP118 T00671033=
202310251553 METAR KBLI 251553Z 04016G28KT 10SM SCT090 06/M03 A2983 RMK AO2 PK WND 05028/1547 SLP110 T00611033=
202310251453 METAR KBLI 251453Z 04012G29KT 10SM BKN075 OVC110 06/M02 A2980 RMK AO2 PK WND 03030/1429 SLP100 60000 T00561022 53020=
202310251353 METAR KBLI 251353Z 05011G25KT 10SM OVC065 06/M02 A2977 RMK AO2 PK WND 05026/1343 RAE04 SLP091 P0000 T00561022=
202310251253 METAR KBLI 251253Z AUTO 06013G21KT 10SM -RA OVC037 05/M01 A2977 RMK AO2 RAB10E23B39 SLP089 P0000 T00501011=
202310251153 METAR KBLI 251153Z AUTO 05014G25KT 10SM BKN037 BKN050 OVC080 06/M01 A2974 RMK AO2 PK WND 04028/1101 RAE08B28E44 SLP080 P0000 60023 70170 T00561006 10056 20039 51015=
202310251053 METAR KBLI 251053Z AUTO 05012G26KT 10SM -RA OVC037 05/00 A2972 RMK AO2 PK WND 04026/1044 SLP074 P0004 T00500000=
202310251020 SPECI KBLI 251020Z AUTO 05013G22KT 8SM -RA OVC030 05/00 A2973 RMK AO2 P0003 T00500000=
202310251013 SPECI KBLI 251013Z AUTO 06012G23KT 8SM -RA OVC028 05/00 A2973 RMK AO2 P0002 T00500000=
202310250953 METAR KBLI 250953Z AUTO 06013G24KT 10SM -RA OVC034 05/01 A2972 RMK AO2 PK WND 05028/0915 SLP074 P0001 T00500006=
202310250853 METAR KBLI 250853Z AUTO 05015G23KT 10SM -RA BKN030 OVC034 04/01 A2970 RMK AO2 SLP065 P0007 60018 T00440011 51019=
202310250753 METAR KBLI 250753Z AUTO 05014G25KT 10SM -RA OVC029 04/01 A2969 RMK AO2 PK WND 06030/0700 SLP061 P0005 T00440011 400890039=
202310250712 SPECI KBLI 250712Z AUTO 06013G26KT 9SM -RA OVC029 04/02 A2967 RMK AO2 PK WND 06030/0700 P0002 T00440017=
202310250653 METAR KBLI 250653Z AUTO 06015G28KT 8SM -RA OVC031 04/02 A2966 RMK AO2 PK WND 04033/0555 SLP052 P0006 T00440017=
202310250553 METAR KBLI 250553Z AUTO 05013G29KT 8SM -RA OVC031 04/02 A2964 RMK AO2 PK WND 07030/0526 SLP044 P0011 60073 T00440022 10056 20039 56014=
202310250526 SPECI KBLI 250526Z AUTO 05018G30KT 8SM -RA OVC032 04/02 A2964 RMK AO2 PK WND 07030/0526 P0005 T00440022=
202310250453 METAR KBLI 250453Z 05016G28KT 8SM -RA FEW015 BKN025 OVC035 04/02 A2964 RMK AO2 PK WND 06031/0441 SLP046 P0004 T00440022=
202310250353 METAR KBLI 250353Z 05016G30KT 6SM RA BR SCT015 BKN025 OVC030 04/02 A2965 RMK AO2 PK WND 03032/0326 SLP048 P0012 T00390022=
202310250304 SPECI KBLI 250304Z 04015G21KT 6SM RA BR SCT015 BKN025 OVC030 04/03 A2968 RMK AO2 P0002 T00390028=
202310250300 SPECI KBLI 250300Z 05012G21KT 8SM -RA OVC030 04/03 A2968 RMK AO2 P0001 T00390028=
202310250253 METAR KBLI 250253Z 05011G20KT 7SM RA SCT020 BKN025 OVC030 04/03 A2968 RMK AO2 PK WND 04026/0214 SLP059 P0017 60046 T00390028 56014=
202310250153 METAR KBLI 250153Z 04014G21KT 6SM RA BR SCT015 BKN025 OVC030 04/03 A2969 RMK AO2 SLP062 P0012 T00440028=
202310250053 METAR KBLI 250053Z 04011KT 4SM RA BR SCT015 BKN020 OVC030 05/04 A2970 RMK AO2 SLP064 P0017 T00500039=
202310250028 SPECI KBLI 250028Z 05011G20KT 4SM RA BR SCT015 BKN020 OVC030 05/04 A2971 RMK AO2 P0009 T00500039=
202310250000 SPECI KBLI 250000Z 05011KT 2 1/2SM RA BR OVC031 05/04 A2972 RMK AO2 P0001 T00500044=
202310242353 METAR KBLI 242353Z 06010G19KT 2 1/2SM RA BR FEW025 OVC032 06/04 A2972 RMK AO2 SLP072 P0020 60059 T00560044 10072 20056 56031=
202310242253 METAR KBLI 242253Z 05012KT 2SM RA BR OVC031 06/04 A2975 RMK AO2 SLP080 P0021 T00560044=
202310242219 SPECI KBLI 242219Z 06010KT 2SM RA BR OVC034 06/05 A2976 RMK AO2 P0008 T00560050=
202310242153 METAR KBLI 242153Z 05010KT 4SM RA BR FEW016 OVC036 06/05 A2977 RMK AO2 SLP089 P0010 T00610050=
202310242053 METAR KBLI 242053Z 04006KT 8SM -RA FEW015 SCT023 OVC032 07/06 A2981 RMK AO2 SLP104 P0005 60008 T00670061 56029=
202310241953 METAR KBLI 241953Z 07005KT 10SM -RA OVC035 07/05 A2984 RMK AO2 SLP113 P0003 T00720050=
202310241853 METAR KBLI 241853Z 06005KT 10SM -RA BKN037 OVC055 07/06 A2987 RMK AO2 RAB29 SLP123 P0000 T00720056=
202310241753 METAR KBLI 241753Z 06005KT 10SM FEW040 BKN075 OVC090 07/06 A2990 RMK AO2 SLP133 60015 T00720056 10089 20061 58013=
202310241653 METAR KBLI 241653Z 05004KT 10SM SCT024 BKN042 OVC055 06/05 A2992 RMK AO2 RAE19 SLP141 P0000 T00610050=
202310241553 METAR KBLI 241553Z 33005KT 10SM -RA SCT026 BKN042 OVC055 06/05 A2994 RMK AO2 TSB24E39 SLP146 P0004 T00610050=
202310241545 SPECI KBLI 241545Z 33006KT 10SM -RA BKN026 BKN042 OVC055 06/05 A2994 RMK AO2 TSB24E39 P0004 T00610050=
202310241527 SPECI KBLI 241527Z 31005KT 10SM -TSRA BKN026 OVC031 07/06 A2995 RMK AO2 TSB24 P0004 T00670056=
202310241453 METAR KBLI 241453Z 00000KT 7SM -RA BKN033 OVC045 07/06 A2995 RMK AO2 SLP151 P0009 60011 T00670056 58006=
202310241353 METAR KBLI 241353Z 18007KT 7SM RA SCT029 BKN036 OVC045 08/05 A2996 RMK AO2 RAB40 SLP154 P0002 T00780050=
202310241303 SPECI KBLI 241303Z AUTO 21005G15KT 10SM FEW022 BKN027 OVC046 08/05 A2996 RMK AO2 T00830050=
202310241253 METAR KBLI 241253Z AUTO 18008G16KT 160V220 10SM SCT023 BKN032 OVC110 08/05 A2996 RMK AO2 SLP154 T00830050=
202310241153 METAR KBLI 241153Z AUTO VRB05KT 10SM FEW120 09/04 A2997 RMK AO2 SLP157 T00890039 10089 20072 58017=
202310241053 METAR KBLI 241053Z AUTO 00000KT 10SM BKN043 08/04 A3000 RMK AO2 SLP166 T00830044=
202310240953 METAR KBLI 240953Z AUTO 18003KT 10SM OVC042 08/06 A3001 RMK AO2 SLP170 T00780056=
202310240853 METAR KBLI 240853Z AUTO 00000KT 10SM BKN050 OVC065 08/06 A3002 RMK AO2 SLP174 T00830056 53005=
202310240753 METAR KBLI 240753Z AUTO 00000KT 10SM OVC048 08/06 A3000 RMK AO2 SLP168 T00780061 401060050=
202310240653 METAR KBLI 240653Z AUTO 00000KT 10SM OVC048 07/06 A3000 RMK AO2 SLP167 T00720061=
202310240553 METAR KBLI 240553Z AUTO 00000KT 10SM FEW025 OVC031 08/06 A3001 RMK AO2 SLP170 T00780061 10100 20050 55004=
202310240540 SPECI KBLI 240540Z AUTO 00000KT 10SM FEW026 OVC033 08/06 A3000 RMK AO2 T00780061=
202310240504 SPECI KBLI 240504Z 00000KT 10SM BKN028 OVC036 08/06 A3001 RMK AO2 T00780061=
202310240453 METAR KBLI 240453Z 00000KT 10SM SCT030 OVC036 07/06 A3001 RMK AO2 SLP169 T00720056=
202310240353 METAR KBLI 240353Z 16003KT 10SM BKN060 OVC080 07/06 A3001 RMK AO2 SLP170 T00720056=
202310240253 METAR KBLI 240253Z 00000KT 10SM FEW075 06/04 A3002 RMK AO2 SLP174 T00560044 53007=
202310240153 METAR KBLI 240153Z 00000KT 10SM SCT075 07/05 A3001 RMK AO2 SLP170 T00670050=
202310240053 METAR KBLI 240053Z 00000KT 10SM SCT070 08/06 A2999 RMK AO2 SLP164 T00830056=
202310232353 METAR KBLI 232353Z 27003KT 10SM OVC070 10/04 A3000 RMK AO2 SLP166 T01000044 10106 20100 53002=
202310232300 SPECI KBLI 232300Z 20003KT 10SM BKN065 10/05 A2999 RMK AO2 T01000050=
202310232253 METAR KBLI 232253Z 00000KT 10SM BKN026 BKN033 OVC041 11/05 A2999 RMK AO2 SLP162 T01060050=
202310232202 SPECI KBLI 232202Z VRB04KT 10SM BKN026 BKN033 OVC041 11/05 A2999 RMK AO2 T01060050=
202310232153 METAR KBLI 232153Z 00000KT 10SM SCT025 BKN033 OVC041 10/04 A2999 RMK AO2 SLP165 T01000044=
202310232144 SPECI KBLI 232144Z VRB03KT 10SM BKN026 OVC033 10/04 A2999 RMK AO2 T01000044=
202310232053 METAR KBLI 232053Z 30007KT 10SM FEW024 BKN038 OVC065 10/05 A2999 RMK AO2 SLP164 T01000050 50003=
202310231953 METAR KBLI 231953Z 30005KT 10SM FEW037 OVC060 11/06 A3000 RMK AO2 SLP165 T01060056=
202310231936 SPECI KBLI 231936Z 28003KT 10SM FEW026 SCT031 OVC060 10/06 A2999 RMK AO2 T01000056=
202310231853 METAR KBLI 231853Z VRB04KT 10SM FEW020 OVC027 10/06 A3000 RMK AO2 SLP165 T01000061=
202310231753 METAR KBLI 231753Z 23003KT 10SM SCT014 OVC025 10/07 A2999 RMK AO2 SLP162 T01000072 10100 20083 51005=
202310231653 METAR KBLI 231653Z 00000KT 10SM BKN021 OVC065 09/08 A2998 RMK AO2 SLP161 T00940078=
202310231553 METAR KBLI 231553Z 00000KT 10SM SCT021 OVC060 09/08 A2999 RMK AO2 SLP163 T00890078=
202310231453 METAR KBLI 231453Z 00000KT 10SM SCT021 OVC055 08/08 A2997 RMK AO2 SLP157 T00830083 55000=
202310231441 SPECI KBLI 231441Z 00000KT 10SM BKN021 BKN060 08/08 A2997 RMK AO2 T00830078=
202310231353 METAR KBLI 231353Z 00000KT 10SM BKN046 OVC060 09/08 A2997 RMK AO2 SLP156 T00890083=
202310231319 SPECI KBLI 231319Z AUTO 00000KT 10SM FEW016 SCT027 OVC039 09/08 A2998 RMK AO2 T00890083=
202310231253 METAR KBLI 231253Z AUTO 00000KT 10SM FEW016 BKN024 OVC031 09/08 A2997 RMK AO2 SLP156 T00890083=
202310231153 METAR KBLI 231153Z AUTO 00000KT 10SM FEW024 BKN045 OVC055 08/08 A2997 RMK AO2 SLP157 T00830078 10094 20083 55000=
202310231053 METAR KBLI 231053Z AUTO 00000KT 10SM SCT029 BKN042 BKN049 08/08 A2996 RMK AO2 SLP154 T00830078=
202310231019 SPECI KBLI 231019Z AUTO 00000KT 10SM BKN029 BKN034 OVC043 08/08 A2997 RMK AO2 T00830083=
202310230953 METAR KBLI 230953Z AUTO 00000KT 10SM OVC030 09/08 A2998 RMK AO2 SLP158 T00890083=
202310230853 METAR KBLI 230853Z AUTO 00000KT 10SM OVC031 09/09 A2997 RMK AO2 SLP157 T00940089 53004=
202310230753 METAR KBLI 230753Z AUTO 00000KT 10SM BKN032 OVC045 09/09 A2997 RMK AO2 SLP154 T00940089 401170061=
202310230653 METAR KBLI 230653Z AUTO 18003KT 10SM OVC032 09/09 A2996 RMK AO2 SLP153 T00940089=
202310230553 METAR KBLI 230553Z AUTO 18003KT 10SM OVC034 09/08 A2996 RMK AO2 SLP152 T00890078 10111 20061 51002=
202310230453 METAR KBLI 230453Z 18004KT 10SM BKN030 08/07 A2996 RMK AO2 SLP152 T00780072=
202310230353 METAR KBLI 230353Z 00000KT 9SM SCT025 06/06 A2996 RMK AO2 SLP153 T00610061=
202310230253 METAR KBLI 230253Z 23003KT 10SM FEW013 07/07 A2995 RMK AO2 SLP151 T00720067 53014=
202310230153 METAR KBLI 230153Z 00000KT 10SM SCT013 08/07 A2993 RMK AO2 SLP142 T00780072=
202310230139 SPECI KBLI 230139Z 00000KT 10SM SCT013 08/08 A2992 RMK AO2 T00830078=
202310230053 METAR KBLI 230053Z 19003KT 10SM SCT010 BKN015 11/08 A2992 RMK AO2 SLP137 T01060083=
202310222353 METAR KBLI 222353Z 00000KT 10SM BKN013 11/08 A2991 RMK AO2 SLP136 T01060083 10117 20106 53002=
202310222253 METAR KBLI 222253Z 30005KT 10SM OVC014 11/09 A2991 RMK AO2 SLP135 T01110089=
202310222243 SPECI KBLI 222243Z VRB04KT 10SM SCT009 OVC014 11/09 A2991 RMK AO2 T01060089=
202310222153 METAR KBLI 222153Z 23005KT 10SM OVC008 11/09 A2990 RMK AO2 SLP133 T01060094=
202310222053 METAR KBLI 222053Z 31006KT 10SM SCT007 OVC012 12/09 A2991 RMK AO2 SLP134 T01170094 58001=
202310222019 SPECI KBLI 222019Z 30005KT 10SM SCT008 OVC010 11/09 A2991 RMK AO2 T01110094=
202310221953 METAR KBLI 221953Z 31006KT 10SM OVC007 11/09 A2991 RMK AO2 SLP135 T01110094=
202310221853 METAR KBLI 221853Z 29006KT 10SM BKN006 OVC013 11/10 A2992 RMK AO2 SLP137 T01110100=
202310221753 METAR KBLI 221753Z VRB03KT 7SM OVC006 11/10 A2991 RMK AO2 SLP136 T01110100 10117 20106 52010=
202310221653 METAR KBLI 221653Z 32003KT 7SM OVC004 11/10 A2990 RMK AO2 SLP132 T01110100=
202310221553 METAR KBLI 221553Z 00000KT 7SM OVC004 11/10 A2989 RMK AO2 SLP130 T01110100=
202310221453 METAR KBLI 221453Z 00000KT 6SM BR OVC003 11/10 A2988 RMK AO2 SLP126 T01060100 58000=
202310221418 SPECI KBLI 221418Z 00000KT 5SM BR OVC004 11/10 A2988 RMK AO2 T01060100=
202310221353 METAR KBLI 221353Z 00000KT 10SM OVC005 11/10 A2988 RMK AO2 SLP126 T01060100=
202310221253 METAR KBLI 221253Z AUTO 00000KT 9SM OVC005 11/11 A2988 RMK AO2 SLP126 T01060106=
202310221153 METAR KBLI 221153Z AUTO 00000KT 8SM OVC006 11/10 A2988 RMK AO2 SLP126 T01060100 10111 20106 58002=
202310221141 SPECI KBLI 221141Z AUTO 00000KT 7SM BKN006 OVC013 11/10 A2988 RMK AO2 T01060100=
202310221053 METAR KBLI 221053Z AUTO 00000KT 10SM SCT005 BKN010 OVC016 11/10 A2989 RMK AO2 SLP127 T01060100=
202310220953 METAR KBLI 220953Z AUTO 00000KT 10SM OVC006 11/10 A2989 RMK AO2 SLP129 T01060100=
202310220853 METAR KBLI 220853Z AUTO 00000KT 10SM OVC008 11/10 A2989 RMK AO2 SLP128 T01060100 53002=
202310220831 SPECI KBLI 220831Z AUTO 00000KT 10SM BKN009 OVC013 11/10 A2989 RMK AO2 T01060100=
202310220811 SPECI KBLI 220811Z AUTO 00000KT 10SM FEW006 OVC011 11/10 A2989 RMK AO2 T01060100=
202310220753 METAR KBLI 220753Z AUTO 00000KT 10SM OVC011 11/10 A2988 RMK AO2 SLP126 T01060100 401390106=
202310220741 SPECI KBLI 220741Z AUTO 00000KT 10SM FEW006 OVC010 11/10 A2988 RMK AO2 T01110100=
202310220653 METAR KBLI 220653Z AUTO 00000KT 10SM BKN005 OVC009 11/10 A2988 RMK AO2 SLP127 T01060100=
202310220553 METAR KBLI 220553Z AUTO 27003KT 9SM OVC008 11/10 A2988 RMK AO2 SLP126 T01060100 10122 20106 55001=
202310220453 METAR KBLI 220453Z 00000KT 9SM OVC007 11/10 A2988 RMK AO2 CIG 004V008 SLP124 T01060100=
202310220353 METAR KBLI 220353Z 00000KT 10SM OVC005 11/10 A2987 RMK AO2 SLP123 T01110100=
202310220253 METAR KBLI 220253Z 00000KT 10SM OVC005 11/10 A2989 RMK AO2 SLP127 T01060100 53004=
202310220153 METAR KBLI 220153Z 00000KT 10SM OVC007 11/10 A2988 RMK AO2 CIG 007V010 SLP123 T01110100=
202310220053 METAR KBLI 220053Z 34005KT 10SM OVC008 12/11 A2986 RMK AO2 SLP117 T01170106=
202310212353 METAR KBLI 212353Z 32004KT 8SM BKN010 OVC016 12/11 A2987 RMK AO2 SLP122 T01220106 10139 20117 56006=
202310212253 METAR KBLI 212253Z 31006KT 10SM OVC011 13/11 A2988 RMK AO2 SLP124 T01280106=
202310212153 METAR KBLI 212153Z 28004KT 10SM FEW008 BKN012 OVC022 13/11 A2988 RMK AO2 SLP126 T01280106=
202310212053 METAR KBLI 212053Z 28005KT 10SM FEW007 BKN012 OVC022 13/11 A2989 RMK AO2 SLP128 T01330106 58008=
202310211953 METAR KBLI 211953Z 30006KT 5SM BR BKN011 OVC020 13/11 A2990 RMK AO2 SLP132 T01280106=
202310211916 SPECI KBLI 211916Z VRB04KT 5SM BR BKN010 OVC016 13/11 A2991 RMK AO2 T01280106=
202310211903 SPECI KBLI 211903Z 28003KT 5SM BR BKN007 OVC016 13/11 A2991 RMK AO2 T01280111=
202310211856 SPECI KBLI 211856Z 24003KT 10SM FEW006 SCT010 OVC016 12/11 A2991 RMK AO2 T01220111=
202310211853 METAR KBLI 211853Z VRB03KT 5SM BR OVC007 12/11 A2992 RMK AO2 SLP137 T01220111=
202310211833 SPECI KBLI 211833Z 00000KT 4SM BR OVC007 12/11 A2991 RMK AO2 T01220111=
202310211800 SPECI KBLI 211800Z 00000KT 2SM BR OVC007 12/11 A2991 RMK AO2 CIG 004V009 T01220111=
202310211753 METAR KBLI 211753Z 00000KT 1 1/2SM BR OVC005 12/11 A2992 RMK AO2 CIG 003V009 SLP137 T01170111 10117 20106 51000=
202310211750 SPECI KBLI 211750Z 02003KT 1 1/2SM BR OVC005 12/11 A2991 RMK AO2 CIG 003V008=
202310211720 SPECI KBLI 211720Z 01004KT 1SM R16/P6000FT BR OVC004 12/11 A2992 RMK AO2 T01170111=
202310211653 METAR KBLI 211653Z 00000KT 3/4SM R16/P6000FT BR OVC003 11/11 A2992 RMK AO2 SLP139 T01110111=
202310211633 SPECI KBLI 211633Z 33004KT 3/4SM R16/P6000FT BR OVC002 11/11 A2992 RMK AO2 T01110111=
202310211602 SPECI KBLI 211602Z 01003KT 1/4SM R16/1800V3500FT FG VV002 11/11 A2992 RMK AO2 T01110111=
202310211553 METAR KBLI 211553Z 36003KT 1/4SM R16/1800V2200FT FG VV002 11/11 A2991 RMK AO2 SLP136 T01110111=
202310211453 METAR KBLI 211453Z 00000KT 1/4SM R16/1400V1600FT FG VV002 11/11 A2991 RMK AO2 SLP135 T01110111 58003=
202310211353 METAR KBLI 211353Z 00000KT 1/4SM R16/1400V1800FT FG VV002 11/11 A2991 RMK AO2 SLP137 T01110111=
202310211253 METAR KBLI 211253Z AUTO 00000KT 1/4SM R16/1200V1400FT FG VV002 11/11 A2991 RMK AO2 SLP136 T01110111=
202310211153 METAR KBLI 211153Z AUTO 00000KT 1/4SM R16/1400V1600FT FG VV002 11/11 A2992 RMK AO2 SLP138 T01060106 10111 20106 58006=
202310211119 SPECI KBLI 211119Z AUTO 00000KT 1/4SM R16/1800V2200FT FG VV002 11/11 A2992 RMK AO2 T01060106=
202310211105 SPECI KBLI 211105Z AUTO 00000KT 1/2SM R16/2200V2800FT FG VV002 11/11 A2992 RMK AO2 T01060106=
202310211053 METAR KBLI 211053Z AUTO 00000KT 3/4SM R16/3500V4500FT BR VV003 11/11 A2993 RMK AO2 SLP141 T01060106=
202310211017 SPECI KBLI 211017Z AUTO 00000KT 1/2SM R16/2800V3000FT FG VV003 11/11 A2994 RMK AO2 T01060106=
202310210953 METAR KBLI 210953Z AUTO 00000KT 3/4SM R16/3500VP6000FT BR OVC003 11/11 A2994 RMK AO2 SLP144 T01060106=
202310210948 SPECI KBLI 210948Z AUTO 00000KT 1/2SM R16/3500VP6000FT FG OVC003 11/11 A2994 RMK AO2=
202310210937 SPECI KBLI 210937Z AUTO 00000KT 1 3/4SM R16/5500VP6000FT BR OVC003 11/11 A2994 RMK AO2 VIS 1V5 T01110106=
202310210922 SPECI KBLI 210922Z AUTO 00000KT 8SM OVC004 11/11 A2994 RMK AO2 T01110106=
202310210902 SPECI KBLI 210902Z AUTO 00000KT 8SM OVC005 11/11 A2994 RMK AO2 T01110106=
202310210853 METAR KBLI 210853Z AUTO 00000KT 7SM OVC004 11/11 A2994 RMK AO2 SLP147 T01110106 56006=
202310210753 METAR KBLI 210753Z AUTO 18003KT 6SM BR OVC003 11/11 A2994 RMK AO2 SLP147 T01060106 401500100=
202310210653 METAR KBLI 210653Z AUTO 00000KT 10SM OVC003 11/10 A2995 RMK AO2 SLP150 T01060100=
202310210645 SPECI KBLI 210645Z AUTO 00000KT 10SM OVC003 11/10 A2995 RMK AO2 CIG 003V006 T01060100=
202310210553 METAR KBLI 210553Z AUTO 00000KT 10SM BKN007 BKN012 OVC021 11/10 A2996 RMK AO2 SLP153 T01060100 10139 20100 56008=
202310210544 SPECI KBLI 210544Z AUTO 00000KT 10SM BKN007 BKN012 OVC021 11/10 A2996 RMK AO2 T01060100=
202310210453 METAR KBLI 210453Z 00000KT 10SM FEW007 OVC022 10/10 A2997 RMK AO2 SLP155 T01000100=
202310210353 METAR KBLI 210353Z 00000KT 10SM OVC022 11/10 A2998 RMK AO2 SLP157 T01110100=
202310210253 METAR KBLI 210253Z 00000KT 10SM BKN012 OVC020 12/11 A2999 RMK AO2 SLP161 T01170106 55007=
202310210153 METAR KBLI 210153Z 33004KT 10SM OVC018 13/11 A2998 RMK AO2 SLP159 T01280111=
202310210053 METAR KBLI 210053Z 32004KT 10SM BKN012 OVC020 13/11 A2999 RMK AO2 SLP162 T01280111=
202310202353 METAR KBLI 202353Z 31006KT 10SM FEW008 BKN012 OVC020 14/12 A3001 RMK AO2 SLP168 T01390117 10150 20122 56016=
202310202253 METAR KBLI 202253Z 30007KT 10SM SCT008 BKN012 OVC020 14/12 A3002 RMK AO2 SLP174 T01390117=
202310202153 METAR KBLI 202153Z 32005KT 10SM SCT007 OVC012 14/12 A3003 RMK AO2 SLP177 CIGS LWR SE-SW T01440122=
202310202053 METAR KBLI 202053Z 31003KT 10SM BKN007 14/12 A3005 RMK AO2 SLP184 T01440117 58015=
202310201953 METAR KBLI 201953Z 01004KT 10SM OVC006 13/12 A3007 RMK AO2 SLP190 T01330117=
202310201853 METAR KBLI 201853Z 00000KT 5SM BR OVC006 13/12 A3009 RMK AO2 SLP195 T01280117=
202310201753 METAR KBLI 201753Z 00000KT 10SM OVC006 12/11 A3010 RMK AO2 SLP199 T01170111 10122 20111 51009=
202310201653 METAR KBLI 201653Z VRB04KT 10SM OVC007 12/11 A3010 RMK AO2 CIG 006V011 SLP199 T01170106=
202310201553 METAR KBLI 201553Z 00000KT 10SM OVC010 12/11 A3008 RMK AO2 SLP194 T01170106=
202310201453 METAR KBLI 201453Z 00000KT 10SM OVC010 12/11 A3007 RMK AO2 SLP190 T01170111 53001=
202310201353 METAR KBLI 201353Z 28005KT 9SM SCT004 OVC010 12/11 A3007 RMK AO2 CIG 008V013 SLP189 T01170111=
202310201324 SPECI KBLI 201324Z AUTO 00000KT 4SM BR OVC002 12/12 A3006 RMK AO2 T01220122=
202310201314 SPECI KBLI 201314Z AUTO 00000KT 2SM R16/5000VP6000FT BR OVC002 12/12 A3006 RMK AO2 T01220122=
202310201253 METAR KBLI 201253Z AUTO 00000KT 3/4SM R16/2800V3000FT BR VV003 12/12 A3006 RMK AO2 SLP187 T01220122=
202310201225 SPECI KBLI 201225Z AUTO 20003KT 1/2SM R16/2400V4000FT FG VV002 12/12 A3007 RMK AO2 T01220122=
202310201201 SPECI KBLI 201201Z AUTO 00000KT 3/4SM R16/3500V5500FT BR VV003 12/12 A3006 RMK AO2 T01220122=
202310201153 METAR KBLI 201153Z AUTO 00000KT 1/2SM R16/2400V3500FT FG VV003 12/12 A3007 RMK AO2 SLP189 70009 T01170117 10139 20117 51007=
202310201143 SPECI KBLI 201143Z AUTO 00000KT 1/2SM R16/2200V2800FT FG VV002 12/12 A3006 RMK AO2 T01170117=
202310201134 SPECI KBLI 201134Z AUTO 00000KT 1/4SM R16/1600V2600FT FG VV002 12/12 A3006 RMK AO2 T01170117=
202310201053 METAR KBLI 201053Z AUTO 00000KT 1/4SM R16/1400V1600FT FG VV002 12/12 A3006 RMK AO2 SLP185 T01170117=
202310201045 SPECI KBLI 201045Z AUTO 00000KT 1/4SM R16/1400V2000FT FG VV002 12/12 A3005 RMK AO2 T01170117=
202310201027 SPECI KBLI 201027Z AUTO VRB03KT 1/2SM R16/2600V3000FT FG VV002 12/12 A3006 RMK AO2 T01170117=
202310201016 SPECI KBLI 201016Z AUTO 24003KT 1/2SM R16/2800V3500FT FG OVC001 12/12 A3006 RMK AO2 T01220122=
202310201004 SPECI KBLI 201004Z AUTO 24003KT 3/4SM R16/3500V4500FT BR OVC001 12/12 A3006 RMK AO2 T01220122=
202310200953 METAR KBLI 200953Z AUTO 22003KT 3/4SM R16/3500VP6000FT BR BKN002 OVC007 12/12 A3006 RMK AO2 SLP187 T01220122=
202310200941 SPECI KBLI 200941Z AUTO 00000KT 1 3/4SM BR BKN002 OVC008 12/12 A3006 RMK AO2 T01220122=
202310200931 SPECI KBLI 200931Z AUTO 28004KT 2 1/2SM BR BKN003 BKN008 12/12 A3005 RMK AO2 T01220122=
202310200903 SPECI KBLI 200903Z AUTO 00000KT 9SM BKN005 BKN016 BKN065 13/13 A3005 RMK AO2 CIG 004V009 T01280128=
202310200901 SPECI KBLI 200901Z AUTO 25003KT 9SM SCT007 SCT016 BKN065 13/13 A3005 RMK AO2 T01280128=
202310200853 METAR KBLI 200853Z AUTO 22003KT 10SM FEW016 SCT055 SCT070 13/12 A3005 RMK AO2 SLP181 T01280122 51005=
202310200814 SPECI KBLI 200814Z AUTO 22005KT 10SM FEW004 BKN060 13/12 A3005 RMK AO2 T01280122=
202310200800 SPECI KBLI 200800Z AUTO 20004KT 10SM BKN004 BKN120 13/13 A3005 RMK AO2 T01330128=
202310200753 METAR KBLI 200753Z AUTO 19004KT 10SM SCT005 BKN120 13/13 A3005 RMK AO2 SLP181 T01330128 401560094=
202310200743 SPECI KBLI 200743Z AUTO 20005KT 10SM SCT005 SCT070 13/13 A3005 RMK AO2 T01330128=
202310200653 METAR KBLI 200653Z AUTO 18005KT 10SM BKN050 13/13 A3005 RMK AO2 SLP181 T01330128=
202310200553 METAR KBLI 200553Z AUTO 20004KT 10SM FEW004 SCT055 13/13 A3003 RMK AO2 SLP176 60000 T01330128 10156 20133 51001=
202310200535 SPECI KBLI 200535Z AUTO 00000KT 10SM FEW004 OVC060 13/13 A3004 RMK AO2 T01330133=
202310200453 METAR KBLI 200453Z 18008KT 10SM BKN055 OVC070 13/13 A3003 RMK AO2 SLP176 T01330128=
202310200353 METAR KBLI 200353Z 19008KT 10SM BKN050 14/13 A3003 RMK AO2 SLP177 T01440133=
202310200253 METAR KBLI 200253Z 18007G16KT 10SM FEW025 BKN045 OVC060 15/14 A3003 RMK AO2 RAE01 SLP176 P0000 60000 T01500139 58001=
202310200153 METAR KBLI 200153Z 19006KT 8SM -RA SCT015 BKN040 OVC060 16/14 A3003 RMK AO2 RAB32 SLP176 P0000 T01560144=
202310200053 METAR KBLI 200053Z 19006KT 10SM OVC043 16/14 A3003 RMK AO2 SLP175 T01560139=
202310192353 METAR KBLI 192353Z 18007KT 10SM FEW020 SCT040 BKN060 16/14 A3003 RMK AO2 SLP177 60004 T01560139 10156 20133 57010=
202310192253 METAR KBLI 192253Z 18006KT 10SM FEW010 SCT025 BKN055 15/14 A3005 RMK AO2 RAE12B21E44 SLP181 P0001 T01500139=
202310192220 SPECI KBLI 192220Z 20005KT 7SM SCT010 BKN025 OVC060 14/14 A3005 RMK AO2 RAE12 P0000 T01440139=
202310192153 METAR KBLI 192153Z 20007KT 7SM -RA FEW031 BKN038 OVC048 14/14 A3005 RMK AO2 RAE2058B36 SLP181 P0001 T01440139=
202310192053 METAR KBLI 192053Z 20007KT 9SM -RA OVC039 14/14 A3006 RMK AO2 SLP186 P0001 60002 T01440139 50003=
202310192003 SPECI KBLI 192003Z 19008KT 10SM -RA FEW009 OVC037 14/13 A3007 RMK AO2 P0000 T01390133=
202310191953 METAR KBLI 191953Z 17006KT 6SM -RA BR OVC037 14/13 A3007 RMK AO2 RAE10B32 SLP190 P0001 T01390133=
202310191853 METAR KBLI 191853Z 19005KT 5SM -RA BR OVC038 14/13 A3006 RMK AO2 SLP187 P0000 T01390128=
202310191753 METAR KBLI 191753Z 16006KT 9SM -RA BKN041 OVC050 13/12 A3005 RMK AO2 RAE01B21 SLP183 P0001 60005 T01330122 10139 20117 51013=
202310191653 METAR KBLI 191653Z 00000KT 4SM -RA BR SCT035 BKN042 OVC055 13/13 A3004 RMK AO2 SLP181 P0003 T01330128=
202310191553 METAR KBLI 191553Z 00000KT 8SM -RA BKN048 OVC060 12/12 A3003 RMK AO2 RAB03E28B49 SLP175 P0001 T01220122=
202310191453 METAR KBLI 191453Z 00000KT 10SM OVC040 13/12 A3001 RMK AO2 RAB02E31 SLP170 P0000 60000 T01280117 51012=
202310191353 METAR KBLI 191353Z 15006KT 10SM OVC046 13/12 A3001 RMK AO2 RAB16E34 SLP168 P0000 T01280117=
202310191253 METAR KBLI 191253Z AUTO 00000KT 10SM FEW047 OVC060 13/11 A3000 RMK AO2 SLP167 T01280111=
202310191153 METAR KBLI 191153Z AUTO 18007G15KT 10SM SCT075 BKN110 12/12 A2998 RMK AO2 SLP158 70002 T01170117 10133 20094 58009=
202310191053 METAR KBLI 191053Z AUTO 18007KT 10SM SCT001 12/12 A2998 RMK AO2 SLP159 T01170117=
202310191047 SPECI KBLI 191047Z AUTO 17007KT 7SM SCT001 12/11 A2998 RMK AO2=
202310191044 SPECI KBLI 191044Z AUTO 16008KT 2 1/2SM BR BKN001 11/11 A2998 RMK AO2 T01110111=
202310191039 SPECI KBLI 191039Z AUTO 16005KT 3/4SM R16/3500VP6000FT BR VV001 10/10 A2999 RMK AO2 T01000100=
202310191029 SPECI KBLI 191029Z AUTO 09003KT 1/4SM R16/1800V3500FT FG VV001 09/09 A2999 RMK AO2 T00940094=
202310191008 SPECI KBLI 191008Z AUTO 00000KT 1/4SM R16/1400V1800FT FG VV001 11/11 A3000 RMK AO2 T01060106=
202310190953 METAR KBLI 190953Z AUTO 00000KT 1/4SM R16/2200V3500FT FG OVC002 11/11 A3001 RMK AO2 SLP168 T01060106=
202310190949 SPECI KBLI 190949Z AUTO 00000KT 1/2SM R16/2200V3000FT FG OVC002 11/11 A3001 RMK AO2=
202310190944 SPECI KBLI 190944Z AUTO 00000KT 1 3/4SM R16/2200VP6000FT BR OVC002 11/11 A3001 RMK AO2 T01060106=
202310190926 SPECI KBLI 190926Z AUTO 00000KT 3SM BR BKN002 BKN049 11/11 A3001 RMK AO2 T01060106=
202310190916 SPECI KBLI 190916Z AUTO 00000KT 2 1/2SM BR SCT002 BKN050 11/11 A3000 RMK AO2 VIS 1 1/4V5 T01060106=
202310190853 METAR KBLI 190853Z AUTO 00000KT 3SM R16/4000VP6000FT BR BKN050 11/10 A3000 RMK AO2 SLP167 T01060100 55005=
202310190825 SPECI KBLI 190825Z AUTO 00000KT 2 1/2SM R16/3500VP6000FT BR FEW055 11/10 A3000 RMK AO2 T01060100=
202310190753 METAR KBLI 190753Z AUTO 00000KT 7SM FEW055 12/11 A2999 RMK AO2 SLP164 T01170111 401440106=
202310190653 METAR KBLI 190653Z AUTO 03003KT 10SM BKN060 12/12 A3000 RMK AO2 SLP166 T01220117=
202310190553 METAR KBLI 190553Z AUTO 04004KT 10SM OVC070 13/12 A3002 RMK AO2 SLP172 T01330122 10139 20128 53008=
202310190453 METAR KBLI 190453Z 00000KT 10SM OVC065 13/13 A3001 RMK AO2 SLP169 T01330128=
202310190353 METAR KBLI 190353Z 03006KT 10SM OVC065 13/13 A2999 RMK AO2 SLP163 T01330128=
202310190253 METAR KBLI 190253Z 02004KT 10SM OVC047 13/13 A2999 RMK AO2 SLP163 T01330128 58010=
202310190153 METAR KBLI 190153Z 03006KT 10SM OVC047 14/12 A3001 RMK AO2 SLP168 T01390122=
202310190053 METAR KBLI 190053Z 03008KT 10SM OVC045 14/12 A3002 RMK AO2 SLP171 T01390122=
202310182353 METAR KBLI 182353Z 05007KT 10SM OVC046 14/12 A3002 RMK AO2 SLP173 60000 T01390122 10144 20128 58006=
202310182253 METAR KBLI 182253Z 04008KT 10SM OVC048 14/12 A3003 RMK AO2 SLP176 T01440122=
202310182153 METAR KBLI 182153Z 02009KT 10SM OVC050 14/12 A3003 RMK AO2 SLP177 T01390117=
202310182053 METAR KBLI 182053Z 02008KT 10SM OVC060 14/12 A3004 RMK AO2 SLP179 60000 T01390117 58005=
202310181953 METAR KBLI 181953Z 03009KT 10SM OVC065 14/12 A3005 RMK AO2 RAB00E09 SLP181 P0000 T01390117=
202310181853 METAR KBLI 181853Z 02008KT 10SM FEW048 OVC060 13/12 A3005 RMK AO2 SLP183 T01330122=
202310181753 METAR KBLI 181753Z 03005KT 10SM BKN050 OVC060 13/12 A3005 RMK AO2 RAB13E47 SLP184 P0000 60002 T01280117 10128 20106 56007=
202310181653 METAR KBLI 181653Z 04005KT 10SM OVC055 12/11 A3006 RMK AO2 RAE50 SLP187 P0001 T01170111=
202310181553 METAR KBLI 181553Z 05007KT 9SM -RA OVC065 11/11 A3007 RMK AO2 RAB1457 SLP189 P0001 T01110106=
202310181453 METAR KBLI 181453Z 34007KT 10SM BKN049 OVC065 11/11 A3008 RMK AO2 RAB25E34 PRESRR SLP192 P0000 60000 T01110106 53011=
202310181353 METAR KBLI 181353Z 01007KT 10SM OVC065 11/11 A3002 RMK AO2 RAB10E25 SLP173 P0000 T01110106=
202310181253 METAR KBLI 181253Z AUTO 05006KT 10SM OVC060 11/11 A3002 RMK AO2 RAE47 SLP172 P0000 T01110106=
202310181153 METAR KBLI 181153Z AUTO 01005KT 10SM -RA FEW055 OVC070 11/10 A3004 RMK AO2 RAB24 SLP180 P0000 60011 70045 T01060100 10106 20106 56007=
202310181053 METAR KBLI 181053Z AUTO 02005KT 10SM OVC070 11/10 A3004 RMK AO2 RAE09 SLP180 P0001 T01060100=
202310180953 METAR KBLI 180953Z AUTO 04005KT 9SM -RA BKN060 OVC070 11/10 A3006 RMK AO2 RAB06 SLP186 P0001 T01060100=
202310180853 METAR KBLI 180853Z AUTO 36009KT 9SM FEW005 OVC080 11/11 A3007 RMK AO2 RAE14 SLP188 P0000 60009 T01060106 55006=
202310180753 METAR KBLI 180753Z AUTO 02007KT 5SM -RA BR OVC065 11/11 A3006 RMK AO2 SLP187 P0005 T01060106 401440100=
202310180653 METAR KBLI 180653Z AUTO 05006KT 6SM -RA BR SCT003 BKN065 OVC080 11/11 A3008 RMK AO2 SLP194 P0004 T01060106=
202310180553 METAR KBLI 180553Z AUTO 01004KT 4SM RA BR OVC060 11/11 A3009 RMK AO2 RAB0458 SLP195 P0004 60024 T01060106 10128 20106 58012=
202310180453 METAR KBLI 180453Z 00000KT 10SM BKN070 OVC095 11/10 A3009 RMK AO2 RAE52 SLP197 P0001 T01110100=
202310180353 METAR KBLI 180353Z 07004KT 10SM -RA OVC050 11/09 A3012 RMK AO2 SLP208 P0002 T01110094=
202310180253 METAR KBLI 180253Z 08004KT 10SM -RA FEW065 OVC090 11/11 A3012 RMK AO2 SLP207 P0006 60017 T01110106 58006=
202310180153 METAR KBLI 180153Z 08006KT 8SM -RA BKN060 OVC085 11/10 A3016 RMK AO2 SLP221 P0008 T01110100=
202310180053 METAR KBLI 180053Z 00000KT 4SM -RA BR OVC060 12/09 A3017 RMK AO2 RAB28 SLP223 P0003 T01170094=
202310172353 METAR KBLI 172353Z 17009G16KT 10SM OVC070 13/09 A3014 RMK AO2 RAE42 SLP213 P0001 60010 T01280089 10144 20122 58027=
202310172253 METAR KBLI 172253Z 13006KT 10SM -RA FEW060 BKN080 OVC100 12/11 A3016 RMK AO2 PRESFR SLP220 P0002 T01220106=
202310172153 METAR KBLI 172153Z 00000KT 3SM -RA BR BKN080 OVC100 13/12 A3021 RMK AO2 RAB11 SLP236 P0006 T01280117=
202310172053 METAR KBLI 172053Z 00000KT 10SM OVC070 14/09 A3022 RMK AO2 RAB1955E05 SLP240 P0000 60001 T01390094 53013=
202310171953 METAR KBLI 171953Z 14004KT 10SM OVC080 14/10 A3018 RMK AO2 RAE25 SLP228 P0000 T01390100=
202310171853 METAR KBLI 171853Z 00000KT 10SM -RA OVC110 13/09 A3017 RMK AO2 RAB1757 SLP225 P0001 T01280094=
202310171753 METAR KBLI 171753Z 00000KT 10SM BKN100 12/09 A3018 RMK AO2 SLP227 T01220094 10128 20100 50004=
202310171653 METAR KBLI 171653Z 00000KT 10SM CLR 12/09 A3019 RMK AO2 SLP230 T01170094=
202310171553 METAR KBLI 171553Z 00000KT 10SM SCT060 BKN120 11/09 A3018 RMK AO2 SLP226 T01110094=
202310171453 METAR KBLI 171453Z 17003KT 10SM BKN055 11/09 A3017 RMK AO2 SLP223 T01060094 50008=
202310171353 METAR KBLI 171353Z 20004KT 10SM SCT050 BKN060 11/09 A3017 RMK AO2 SLP224 T01060094=
202310171253 METAR KBLI 171253Z AUTO 19005KT 10SM FEW055 SCT065 11/09 A3015 RMK AO2 SLP218 T01110094=
202310171153 METAR KBLI 171153Z AUTO 18005KT 10SM FEW030 11/09 A3014 RMK AO2 SLP215 70027 T01110094 10122 20106 51015=
202310171053 METAR KBLI 171053Z AUTO 18005KT 10SM OVC060 11/10 A3014 RMK AO2 SLP215 T01110100=
202310170953 METAR KBLI 170953Z AUTO 18006KT 10SM BKN070 11/09 A3013 RMK AO2 SLP209 T01110094=
202310170853 METAR KBLI 170853Z AUTO 19006KT 10SM FEW070 12/09 A3010 RMK AO2 SLP199 T01170089 53023=
202310170753 METAR KBLI 170753Z AUTO 18006KT 10SM CLR 12/08 A3007 RMK AO2 SLP190 T01170083 401670106=
202310170653 METAR KBLI 170653Z AUTO VRB06KT 10SM CLR 12/08 A3005 RMK AO2 SLP181 T01220083=
202310170553 METAR KBLI 170553Z AUTO 18008KT 10SM FEW100 12/09 A3003 RMK AO2 SLP177 60000 T01220089 10139 20117 51020=
202310170453 METAR KBLI 170453Z 18005KT 10SM BKN090 BKN110 13/10 A3002 RMK AO2 SLP172 T01280100=
202310170353 METAR KBLI 170353Z 18005KT 10SM FEW120 13/09 A3000 RMK AO2 SLP164 T01330094=
202310170253 METAR KBLI 170253Z 18005KT 10SM FEW070 13/09 A2998 RMK AO2 SLP157 60000 T01280094 51037=
202310170153 METAR KBLI 170153Z 15007KT 10SM FEW041 SCT110 12/09 A2995 RMK AO2 SLP149 T01220094=
202310170053 METAR KBLI 170053Z 18007KT 10SM FEW024 SCT065 OVC080 13/09 A2990 RMK AO2 RAE12 SLP130 P0000 T01330094=
202310170020 SPECI KBLI 170020Z 23008G14KT 10SM SCT027 OVC065 13/10 A2987 RMK AO2 RAE12 P0000 T01330100=
202310162353 METAR KBLI 162353Z 24012G24KT 7SM -RA SCT014 BKN027 OVC040 14/11 A2987 RMK AO2 LTG DSNT SE RAE02B27 SLP121 P0001 60002 T01390111 10167 20139 53017=
202310162342 SPECI KBLI 162342Z 5SM -RA BR BKN014 BKN027 OVC040 14/12 A2987 RMK AO2 RAE02B27 P0001 T01440122=
202310162325 SPECI KBLI 162325Z VRB06KT 10SM VCTS BKN014 BKN027 OVC040 16/13 A2984 RMK AO2 LTG DSNT SE AND S RAE02 P0000 T01560133=
202310162301 SPECI KBLI 162301Z 21007G16KT 10SM -RA BKN014 OVC024 14/13 A2984 RMK AO2 P0000 T01440133=
202310162253 METAR KBLI 162253Z 20009G19KT 10SM -RA BKN016 OVC024 15/13 A2983 RMK AO2 RAB00E12B47 SLP108 P0000 T01500133=
202310162153 METAR KBLI 162153Z 17009G20KT 10SM OVC019 16/13 A2981 RMK AO2 SLP102 T01610133=
202310162053 METAR KBLI 162053Z 17013G25KT 10SM OVC019 17/13 A2982 RMK AO2 PK WND 18029/2000 SLP103 60001 T01670133 58003=
202310161953 METAR KBLI 161953Z 17011G19KT 10SM SCT013 BKN018 OVC022 16/13 A2982 RMK AO2 PK WND 16030/1921 SLP104 T01610133=
202310161853 METAR KBLI 161853Z 18014G26KT 10SM SCT013 BKN018 OVC028 16/13 A2983 RMK AO2 PK WND 16031/1802 RAE12 SLP105 P0001 T01610133=
202310161753 METAR KBLI 161753Z 17013G25KT 10SM -RA BKN018 BKN070 OVC095 16/14 A2983 RMK AO2 PK WND 16042/1706 SLP105 P0007 60025 T01560139 10156 20106 51024=
202310161653 METAR KBLI 161653Z 17016G33KT 5SM RA BR FEW022 SCT042 OVC060 15/13 A2982 RMK AO2 PK WND 15033/1651 SLP104 P0013 T01500133=
202310161553 METAR KBLI 161553Z 17011G23KT 6SM -RA OVC065 14/12 A2979 RMK AO2 RAB19 SLP094 P0005 T01440117=
202310161453 METAR KBLI 161453Z 00000KT 10SM CLR 11/11 A2975 RMK AO2 SLP082 T01110111 56024=
202310161353 METAR KBLI 161353Z 00000KT 10SM CLR 11/11 A2977 RMK AO2 SLP086 T01110111=
202310161253 METAR KBLI 161253Z AUTO 00000KT 9SM BKN100 11/11 A2980 RMK AO2 SLP096 T01110111=
202310161153 METAR KBLI 161153Z AUTO 00000KT 10SM FEW100 11/11 A2982 RMK AO2 SLP106 70015 T01110111 10133 20111 56021=
202310161053 METAR KBLI 161053Z AUTO 00000KT 10SM CLR 12/12 A2984 RMK AO2 SLP110 T01170117=
202310160953 METAR KBLI 160953Z AUTO 00000KT 10SM CLR 12/12 A2986 RMK AO2 SLP119 T01170117=
202310160853 METAR KBLI 160853Z AUTO 00000KT 6SM BR CLR 11/11 A2989 RMK AO2 SLP126 T01110111 56024=
202310160753 METAR KBLI 160753Z AUTO 00000KT 10SM CLR 12/12 A2991 RMK AO2 SLP134 T01220122 401890117=
202310160653 METAR KBLI 160653Z AUTO 00000KT 10SM CLR 13/12 A2993 RMK AO2 SLP142 T01330122=
202310160553 METAR KBLI 160553Z AUTO 03006KT 10SM CLR 13/12 A2996 RMK AO2 SLP150 60015 T01330122 10144 20133 58020=
202310160453 METAR KBLI 160453Z 03009KT 10SM BKN120 13/13 A2998 RMK AO2 RAE05 SLP158 P0000 T01330128=
202310160353 METAR KBLI 160353Z 03007KT 10SM -RA OVC110 14/13 A3000 RMK AO2 SLP166 P0002 T01390128=
202310160311 SPECI KBLI 160311Z 04007KT 8SM -RA SCT050 OVC090 14/13 A3001 RMK AO2 P0001 T01390128=
202310160253 METAR KBLI 160253Z 04004KT 9SM -RA OVC080 14/13 A3002 RMK AO2 SLP171 P0006 60013 T01390128 58011=
202310160153 METAR KBLI 160153Z 00000KT 8SM RA SCT040 OVC070 14/13 A3004 RMK AO2 SLP179 P0005 T01390128=
202310160053 METAR KBLI 160053Z 25003KT 10SM -RA OVC100 14/13 A3004 RMK AO2 SLP179 P0002 T01440133=
202310152353 METAR KBLI 152353Z 00000KT 10SM -RA OVC095 14/13 A3005 RMK AO2 RAB07 SLP181 P0000 60000 T01440128 10189 20144 56012=
202310152253 METAR KBLI 152253Z 00000KT 10SM FEW080 OVC110 17/11 A3006 RMK AO2 SLP186 T01670111=
202310152153 METAR KBLI 152153Z 04007KT 10SM CLR 17/11 A3006 RMK AO2 SLP185 T01720111=
202310152053 METAR KBLI 152053Z 03010G15KT 10SM CLR 18/11 A3009 RMK AO2 SLP193 T01780106 58025=
202310151953 METAR KBLI 151953Z 02009KT 10SM CLR 18/11 A3011 RMK AO2 SLP201 T01830106=
202310151853 METAR KBLI 151853Z 03009KT 10SM CLR 17/11 A3014 RMK AO2 SLP211 T01720111=
202310151753 METAR KBLI 151753Z 03009KT 10SM CLR 16/11 A3016 RMK AO2 SLP219 60000 T01610111 10161 20117 50000=
202310151653 METAR KBLI 151653Z 03007KT 10SM BKN044 15/11 A3016 RMK AO2 SLP219 T01500106=
202310151553 METAR KBLI 151553Z 02006KT 10SM OVC043 13/11 A3017 RMK AO2 SLP222 T01330106=
202310151453 METAR KBLI 151453Z 04004KT 10SM OVC039 13/11 A3016 RMK AO2 SLP219 60000 T01280106 50004=
202310151353 METAR KBLI 151353Z 05004KT 10SM OVC040 12/11 A3016 RMK AO2 SLP220 T01220106=
202310151253 METAR KBLI 151253Z AUTO 04004KT 10SM OVC037 12/11 A3015 RMK AO2 RAB18E29 SLP216 P0000 T01220106=
202310151153 METAR KBLI 151153Z AUTO 14008KT 10SM SCT095 15/09 A3015 RMK AO2 SLP215 60000 70002 T01500089 10161 20144 53010=
202310151053 METAR KBLI 151053Z AUTO 15014G19KT 10SM SCT036 15/09 A3013 RMK AO2 SLP209 T01500089=
202310150953 METAR KBLI 150953Z AUTO 16011G17KT 10SM SCT080 SCT095 16/09 A3013 RMK AO2 SLP209 T01560089=
202310150853 METAR KBLI 150853Z AUTO 16009G20KT 10SM OVC080 16/08 A3012 RMK AO2 SLP204 60000 T01560083 53013=
202310150753 METAR KBLI 150753Z AUTO VRB05KT 10SM SCT085 15/09 A3010 RMK AO2 SLP199 T01500094 401720111=
202310150653 METAR KBLI 150653Z AUTO 16008KT 10SM OVC085 16/09 A3008 RMK AO2 RAE07 SLP193 P0000 T01560094=
202310150553 METAR KBLI 150553Z AUTO 14009KT 10SM -RA BKN060 OVC075 14/11 A3008 RMK AO2 RAB17 SLP191 P0002 60002 T01440106 10172 20144 51017=
202310150453 METAR KBLI 150453Z 16010G20KT 10SM OVC100 16/09 A3006 RMK AO2 PK WND 15026/0358 SLP186 T01560094=
202310150353 METAR KBLI 150353Z 16012G20KT 10SM SCT060 OVC100 16/10 A3004 RMK AO2 SLP180 T01560100=
202310150253 METAR KBLI 150253Z 15013G20KT 10SM FEW070 OVC100 16/09 A3003 RMK AO2 SLP175 60000 T01560094 53008=
202310150153 METAR KBLI 150153Z 16012G18KT 10SM FEW050 BKN090 OVC120 16/09 A3001 RMK AO2 RAB0057E06 SLP168 P0000 T01610089=
202310150053 METAR KBLI 150053Z 17011G19KT 10SM FEW060 BKN090 17/09 A3000 RMK AO2 SLP166 T01670089=
202310142353 METAR KBLI 142353Z 14009KT 10SM SCT060 BKN110 17/09 A3000 RMK AO2 SLP165 T01720089 10172 20156 50001=
202310142253 METAR KBLI 142253Z VRB03KT 10SM SCT040 BKN085 16/11 A3001 RMK AO2 SLP167 T01610106=
202310142239 SPECI KBLI 142239Z 19003KT 10SM SCT040 BKN085 16/11 A3001 RMK AO2 T01610106=
202310142153 METAR KBLI 142153Z 17004KT 10SM SCT040 BKN085 17/11 A3000 RMK AO2 SLP166 T01670106=
202310142053 METAR KBLI 142053Z VRB04KT 10SM SCT040 BKN060 16/11 A3000 RMK AO2 SLP165 T01610106 50002=
202310141953 METAR KBLI 141953Z 00000KT 10SM BKN040 BKN055 17/11 A3000 RMK AO2 SLP165 T01670106=
202310141853 METAR KBLI 141853Z 32003KT 10SM BKN038 BKN048 17/13 A3001 RMK AO2 SLP168 T01670128=
202310141753 METAR KBLI 141753Z 06003KT 10SM CLR 16/12 A2999 RMK AO2 SLP163 60000 T01610122 10161 20111 51011=
202310141653 METAR KBLI 141653Z 03005KT 10SM CLR 13/12 A2999 RMK AO2 SLP162 T01330117=
202310141553 METAR KBLI 141553Z 02004KT 10SM FEW034 BKN044 OVC100 13/12 A2998 RMK AO2 SLP158 T01280117=
202310141453 METAR KBLI 141453Z 00000KT 10SM FEW055 BKN080 BKN095 12/11 A2996 RMK AO2 RAB1354E03 SLP153 P0000 60000 T01170111 53011=
202310141353 METAR KBLI 141353Z 00000KT 10SM SCT032 BKN038 OVC080 12/11 A2995 RMK AO2 SLP148 T01220111=
202310141314 SPECI KBLI 141314Z AUTO 01004KT 10SM FEW024 SCT030 OVC043 13/11 A2994 RMK AO2 T01280111=
202310141253 METAR KBLI 141253Z AUTO 00000KT 10SM BKN028 OVC036 13/11 A2994 RMK AO2 SLP145 T01330111=
202310141235 SPECI KBLI 141235Z AUTO 19003KT 10SM BKN025 OVC036 13/11 A2994 RMK AO2 T01280111=
202310141153 METAR KBLI 141153Z AUTO 11004KT 10SM SCT026 BKN034 OVC040 13/11 A2993 RMK AO2 RAB1058E36 SLP141 P0000 60004 70010 T01330111 10139 20133 51012=
202310141053 METAR KBLI 141053Z AUTO 14010KT 10SM SCT026 BKN032 OVC043 13/11 A2992 RMK AO2 RAB37E52 SLP138 P0000 T01330111=
202310140953 METAR KBLI 140953Z AUTO 12004KT 10SM OVC060 14/11 A2991 RMK AO2 RAE21 SLP134 P0000 T01390106=
202310140853 METAR KBLI 140853Z AUTO 14011G18KT 10SM -RA SCT075 OVC100 14/11 A2989 RMK AO2 SLP129 P0001 60004 T01390106 51004=
202310140753 METAR KBLI 140753Z AUTO 14011KT 10SM -RA BKN075 OVC095 13/11 A2989 RMK AO2 SLP128 P0001 T01330111 402170028=
202310140653 METAR KBLI 140653Z AUTO 15012G20KT 10SM -RA OVC075 13/11 A2989 RMK AO2 SLP128 P0002 T01330111=
202310140553 METAR KBLI 140553Z AUTO 15014G22KT 10SM -RA OVC070 14/11 A2988 RMK AO2 SLP125 P0003 60006 T01390106 10183 20133 51031=
202310140453 METAR KBLI 140453Z 15013KT 10SM -RA OVC070 14/11 A2987 RMK AO2 SLP121 P0003 T01390106=
202310140353 METAR KBLI 140353Z 16003KT 10SM -RA OVC070 14/12 A2983 RMK AO2 SLP108 P0000 T01390117=
202310140253 METAR KBLI 140253Z 24003KT 10SM -RA BKN080 OVC100 14/11 A2979 RMK AO2 RAB41 SLP095 P0000 60000 T01440111 53013=
202310140153 METAR KBLI 140153Z 00000KT 10SM SCT090 OVC110 16/10 A2976 RMK AO2 RAB39E48 SLP087 P0000 T01560100=
202310140053 METAR KBLI 140053Z 00000KT 10SM SCT100 BKN120 17/09 A2976 RMK AO2 SLP084 T01720094=
202310132353 METAR KBLI 132353Z 00000KT 10SM CLR 18/10 A2975 RMK AO2 SLP082 T01830100 10217 20167 56004=
202310132253 METAR KBLI 132253Z VRB03KT 10SM CLR 21/08 A2975 RMK AO2 SLP082 T02060083=
202310132153 METAR KBLI 132153Z 00000KT 10SM CLR 20/10 A2976 RMK AO2 SLP083 T02000100=
202310132053 METAR KBLI 132053Z 00000KT 10SM CLR 17/09 A2976 RMK AO2 SLP085 T01720094 56010=
202310131953 METAR KBLI 131953Z 04005KT 10SM CLR 21/07 A2977 RMK AO2 SLP086 T02110067=
202310131853 METAR KBLI 131853Z 02007KT 10SM CLR 19/08 A2978 RMK AO2 SLP092 T01890083=
202310131753 METAR KBLI 131753Z 02006KT 10SM CLR 17/09 A2979 RMK AO2 SLP095 T01670089 10167 20028 58010=
202310131653 METAR KBLI 131653Z 03003KT 10SM CLR 13/09 A2980 RMK AO2 SLP098 T01280089=
202310131553 METAR KBLI 131553Z 01003KT 10SM CLR 08/08 A2982 RMK AO2 SLP105 T00830078=
202310131453 METAR KBLI 131453Z 00000KT 10SM FEW001 05/04 A2982 RMK AO2 SLP107 PRFG T00500039 58003=
202310131424 SPECI KBLI 131424Z 00000KT 10SM FEW002 04/03 A2983 RMK AO2 PRFG VSBY SE-SW 1SM T00440033=
202310131353 METAR KBLI 131353Z 00000KT 10SM CLR 03/03 A2983 RMK AO2 SLP109 T00330028=
202310131346 SPECI KBLI 131346Z 00000KT 1 1/4SM BR CLR 04/03 A2983 RMK AO2 VIS 3/4V5 T00390028=
202310131327 SPECI KBLI 131327Z AUTO 00000KT 3/4SM R16/P6000FT BR CLR 04/03 A2983 RMK AO2 T00440033=
202310131322 SPECI KBLI 131322Z AUTO 00000KT 1SM R16/P6000FT BR VV002 04/03 A2983 RMK AO2 VIS 1/2V5 T00390033=
202310131318 SPECI KBLI 131318Z AUTO 00000KT 2 1/2SM R16/4500VP6000FT BR FEW002 04/03 A2983 RMK AO2 VIS 1/2V5 T00390033=
202310131253 METAR KBLI 131253Z AUTO 00000KT 8SM CLR 05/04 A2983 RMK AO2 SLP108 T00500039=
202310131155 SPECI KBLI 131155Z AUTO 00000KT 4SM BR CLR 04/04 A2983 RMK AO2 T00440039=
202310131153 METAR KBLI 131153Z AUTO 00000KT 1 1/2SM BR CLR 04/04 A2983 RMK AO2 SLP109 T00390039 10089 20039 58019=
202310131140 SPECI KBLI 131140Z AUTO 32003KT 1 3/4SM R16/2400VP6000FT BR CLR 04/04 A2983 RMK AO2 VIS 1V5 T00390039=
202310131058 SPECI KBLI 131058Z AUTO 00000KT 3SM R16/5000VP6000FT BR CLR 05/05 A2985 RMK AO2 T00500050=
202310131053 METAR KBLI 131053Z AUTO 00000KT 1 1/4SM R16/4000VP6000FT BR CLR 05/05 A2985 RMK AO2 SLP115 T00500050=
202310131039 SPECI KBLI 131039Z AUTO 00000KT 1/2SM R16/P6000FT FG CLR 06/05 A2985 RMK AO2 T00560050=
202310131033 SPECI KBLI 131033Z AUTO 00000KT 1 3/4SM R16/5000VP6000FT BR CLR 06/05 A2985 RMK AO2 VIS 1/2V5 T00560050=
202310130953 METAR KBLI 130953Z AUTO 00000KT 10SM FEW001 05/05 A2987 RMK AO2 SLP122 T00500050=
202310130946 SPECI KBLI 130946Z AUTO 00000KT 10SM FEW001 06/05 A2987 RMK AO2 T00610050=
202310130938 SPECI KBLI 130938Z AUTO 00000KT 1 1/4SM R16/5500VP6000FT BR SCT001 06/05 A2987 RMK AO2 T00560050=
202310130925 SPECI KBLI 130925Z AUTO 00000KT 3/4SM R16/2400VP6000FT BR VV001 05/04 A2988 RMK AO2 T00500044=
202310130917 SPECI KBLI 130917Z AUTO 00000KT 1SM R16/P6000FT BR VV001 06/05 A2988 RMK AO2 VIS 1/4V5 T00560050=
202310130853 METAR KBLI 130853Z AUTO 00000KT 10SM CLR 07/06 A2989 RMK AO2 SLP128 T00670056 58014=
202310130826 SPECI KBLI 130826Z AUTO 00000KT 4SM BR CLR 06/06 A2989 RMK AO2 T00610056=
202310130821 SPECI KBLI 130821Z AUTO 00000KT 1 1/4SM BR CLR 07/06 A2990 RMK AO2 T00670061=
202310130753 METAR KBLI 130753Z AUTO 00000KT 3SM BR CLR 07/07 A2990 RMK AO2 SLP133 T00670067 401940033=
202310130742 SPECI KBLI 130742Z AUTO 00000KT 1 1/2SM R16/2400VP6000FT BR CLR 06/06 A2990 RMK AO2 VIS 1/2V5 T00610061=
202310130653 METAR KBLI 130653Z AUTO 00000KT 9SM CLR 07/07 A2991 RMK AO2 SLP136 T00720072=
202310130627 SPECI KBLI 130627Z AUTO 00000KT 3SM BR CLR 08/07 A2992 RMK AO2 T00780072=
202310130620 SPECI KBLI 130620Z AUTO 00000KT 1 3/4SM BR CLR 07/07 A2993 RMK AO2 T00720072=
202310130553 METAR KBLI 130553Z AUTO 01003KT 10SM CLR 09/08 A2993 RMK AO2 SLP141 T00890083 10189 20083 57013=
202310130453 METAR KBLI 130453Z 00000KT 10SM CLR 09/08 A2994 RMK AO2 SLP146 T00940083=
202310130353 METAR KBLI 130353Z 00000KT 10SM CLR 10/08 A2995 RMK AO2 SLP150 T01000083=
202310130253 METAR KBLI 130253Z 00000KT 10SM CLR 10/09 A2997 RMK AO2 SLP155 T01000089 56012=
202310130153 METAR KBLI 130153Z 00000KT 10SM CLR 11/09 A2998 RMK AO2 SLP159 T01110094=
202310130053 METAR KBLI 130053Z 00000KT 10SM CLR 15/11 A2998 RMK AO2 SLP160 T01500106=
202310122353 METAR KBLI 122353Z 00000KT 10SM FEW060 18/08 A3000 RMK AO2 SLP166 T01830083 10194 20111 56014=
202310122253 METAR KBLI 122253Z 00000KT 10SM FEW070 19/09 A3001 RMK AO2 SLP170 T01890089=
202310122153 METAR KBLI 122153Z 00000KT 10SM CLR 18/09 A3003 RMK AO2 SLP174 T01780094=
202310122053 METAR KBLI 122053Z 00000KT 10SM CLR 18/09 A3004 RMK AO2 SLP180 T01780094 58015=
202310121953 METAR KBLI 121953Z 00000KT 10SM CLR 16/09 A3007 RMK AO2 SLP188 T01610094=
202310121853 METAR KBLI 121853Z 02004KT 10SM CLR 14/10 A3008 RMK AO2 SLP192 T01440100=
202310121753 METAR KBLI 121753Z 00000KT 10SM FEW001 11/10 A3009 RMK AO2 SLP197 T01110100 10117 20033 50002=
202310121728 SPECI KBLI 121728Z 00000KT 10SM FEW001 11/11 A3009 RMK AO2 T01060106=
202310121719 SPECI KBLI 121719Z 00000KT 10SM BKN001 11/11 A3009 RMK AO2 T01060106=
202310121653 METAR KBLI 121653Z 00000KT 3/4SM R16/1400V2400FT BR VV002 10/10 A3009 RMK AO2 SLP197 T01000100=
202310121553 METAR KBLI 121553Z 00000KT 3/4SM R16/1200V2800FT BR VV002 08/08 A3009 RMK AO2 SLP197 T00830083=
202310121550 SPECI KBLI 121550Z 00000KT 1/4SM R16/0800V2200FT FG VV002 08/08 A3009 RMK AO2=
202310121453 METAR KBLI 121453Z 00000KT M1/4SM R16/0600FT FG VV001 07/07 A3008 RMK AO2 SLP194 T00670067 53016=
202310121446 SPECI KBLI 121446Z 00000KT M1/4SM R16/0600V1600FT FG VV001 07/07 A3008 RMK AO2 T00670067=
202310121438 SPECI KBLI 121438Z 00000KT 1/4SM R16/1400VP6000FT FG VV001 06/06 A3007 RMK AO2 T00610061=
202310121427 SPECI KBLI 121427Z 00000KT 3/4SM R16/P6000FT BR OVC002 06/06 A3007 RMK AO2 T00610056=
202310121404 SPECI KBLI 121404Z 00000KT 1 1/2SM BR BKN003 04/04 A3006 RMK AO2 VIS 3/4V5 T00440039=
202310121353 METAR KBLI 121353Z 00000KT 5SM BR BKN002 04/04 A3006 RMK AO2 SLP188 T00440039=
202310121351 SPECI KBLI 121351Z 00000KT 1 3/4SM BR BKN002 04/04 A3006 RMK AO2 VIS 1/2V4=
202310121335 SPECI KBLI 121335Z 00000KT 3SM R16/2600VP6000FT BR OVC002 03/03 A3005 RMK AO2 T00330033=
202310121323 SPECI KBLI 121323Z AUTO 00000KT 1 1/2SM R16/1200V4000FT BR BKN002 04/04 A3005 RMK AO2 T00440044=
202310121318 SPECI KBLI 121318Z AUTO 00000KT 3SM R16/2600VP6000FT BR BKN002 04/04 A3005 RMK AO2 T00440039=
202310121313 SPECI KBLI 121313Z AUTO 00000KT 2 1/2SM BR SCT002 04/04 A3005 RMK AO2 VIS 3/4V5 T00440039=
202310121253 METAR KBLI 121253Z AUTO 00000KT 10SM CLR 05/04 A3004 RMK AO2 SLP180 T00500039=
202310121232 SPECI KBLI 121232Z AUTO 00000KT 1 3/4SM R16/5500VP6000FT BR FEW002 04/04 A3004 RMK AO2 VIS 1/2V5 T00440044=
202310121220 SPECI KBLI 121220Z AUTO 00000KT 6SM R16/3500VP6000FT BR FEW002 06/05 A3004 RMK AO2 T00560050=
202310121212 SPECI KBLI 121212Z AUTO 00000KT 2 1/2SM R16/3000VP6000FT BR SCT002 06/05 A3004 RMK AO2 T00560050=
202310121153 METAR KBLI 121153Z AUTO 00000KT 10SM FEW001 05/04 A3003 RMK AO2 SLP177 T00500044 10083 20044 53012=
202310121139 SPECI KBLI 121139Z AUTO 00000KT 10SM SCT001 05/04 A3003 RMK AO2 T00500044=
202310121129 SPECI KBLI 121129Z AUTO 00000KT 4SM BR BKN001 05/04 A3003 RMK AO2 T00500044=
202310121113 SPECI KBLI 121113Z AUTO 00000KT 2 1/2SM BR BKN001 05/04 A3003 RMK AO2 VIS 1V5 T00500044=
202310121108 SPECI KBLI 121108Z AUTO 00000KT 6SM BR BKN002 04/04 A3002 RMK AO2 T00440044=
202310121103 SPECI KBLI 121103Z AUTO 00000KT 2SM BR SCT002 06/06 A3002 RMK AO2 T00560056=
202310121056 SPECI KBLI 121056Z AUTO 00000KT 1 3/4SM BR CLR 04/04 A3002 RMK AO2 T00440044=
202310121053 METAR KBLI 121053Z AUTO 00000KT 4SM BR CLR 06/05 A3002 RMK AO2 SLP172 T00560050=
202310121005 SPECI KBLI 121005Z AUTO 00000KT 4SM BR CLR 06/06 A3000 RMK AO2 T00560056=
202310121000 SPECI KBLI 121000Z AUTO 00000KT 1 1/4SM R16/6000VP6000FT BR FEW001 06/05 A3000 RMK AO2 T00560050=
202310120953 METAR KBLI 120953Z AUTO 00000KT 3SM R16/6000VP6000FT BR FEW001 06/05 A3000 RMK AO2 SLP165 T00560050=
202310120945 SPECI KBLI 120945Z AUTO 00000KT 2SM BR FEW001 06/05 A2999 RMK AO2 T00560050=
202310120943 SPECI KBLI 120943Z AUTO 00000KT 1SM R16/P6000FT BR VV001 06/06 A2999 RMK AO2 T00560056=
202310120934 SPECI KBLI 120934Z AUTO 00000KT 1/2SM R16/1800VP6000FT FG VV001 06/06 A2999 RMK AO2 T00610056=
202310120932 SPECI KBLI 120932Z AUTO 00000KT 1SM R16/1800VP6000FT BR VV001 06/06 A2999 RMK AO2 T00610056=
202310120930 SPECI KBLI 120930Z AUTO 00000KT 2 1/2SM R16/1800VP6000FT BR FEW001 06/06 A2999 RMK AO2 T00560056=
202310120853 METAR KBLI 120853Z AUTO 00000KT 8SM CLR 06/06 A2998 RMK AO2 SLP159 T00610061 51021=
202310120815 SPECI KBLI 120815Z AUTO 00000KT 10SM SCT001 06/06 A2998 RMK AO2 T00610056=
202310120800 SPECI KBLI 120800Z AUTO 00000KT 4SM BR BKN001 06/06 A2997 RMK AO2 T00610061=
202310120757 SPECI KBLI 120757Z AUTO 00000KT 1SM R16/5500VP6000FT BR VV001 06/06 A2997 RMK AO2 T00610061=
202310120753 METAR KBLI 120753Z AUTO 00000KT 1/2SM R16/3500VP6000FT FG VV001 06/06 A2997 RMK AO2 SLP155 T00610056 401780061=
202310120745 SPECI KBLI 120745Z AUTO 00000KT 1/2SM R16/1400V5000FT FG VV002 06/06 A2997 RMK AO2 T00610061=
202310120742 SPECI KBLI 120742Z AUTO 00000KT 3/4SM R16/1400V4000FT BR VV001 06/06 A2997 RMK AO2 T00610061=
202310120736 SPECI KBLI 120736Z AUTO 00000KT 1 1/2SM R16/1600VP6000FT BR CLR 07/06 A2996 RMK AO2 T00670061=
202310120721 SPECI KBLI 120721Z AUTO 00000KT 10SM R16/2800VP6000FT CLR 06/06 A2995 RMK AO2 T00610056=
202310120713 SPECI KBLI 120713Z AUTO 00000KT 2 1/2SM BR CLR 07/06 A2995 RMK AO2 T00720061=
202310120653 METAR KBLI 120653Z AUTO 00000KT 10SM CLR 08/07 A2994 RMK AO2 SLP147 T00780067=
202310120553 METAR KBLI 120553Z AUTO 00000KT 10SM CLR 08/07 A2992 RMK AO2 SLP138 T00780072 10150 20072 51017=
202310120453 METAR KBLI 120453Z 00000KT 10SM CLR 08/07 A2991 RMK AO2 SLP134 T00830067=
202310120353 METAR KBLI 120353Z 00000KT 10SM CLR 09/08 A2989 RMK AO2 SLP130 T00890078=
202310120253 METAR KBLI 120253Z 00000KT 10SM CLR 09/08 A2987 RMK AO2 SLP120 T00940083 51027=
202310120153 METAR KBLI 120153Z 00000KT 10SM BKN046 11/10 A2985 RMK AO2 SLP113 T01110100=
202310120053 METAR KBLI 120053Z VRB04KT 10SM BKN043 14/09 A2982 RMK AO2 SLP104 T01390094=
202310112353 METAR KBLI 112353Z 29007KT 10SM CLR 16/09 A2979 RMK AO2 SLP092 T01560089 10178 20150 53024=
202310112253 METAR KBLI 112253Z 32007KT 10SM SCT035 16/09 A2975 RMK AO2 SLP081 T01610089=
202310112153 METAR KBLI 112153Z 31008KT 10SM FEW027 16/10 A2974 RMK AO2 SLP076 T01610100=
202310112053 METAR KBLI 112053Z 31007KT 10SM SCT031 SCT046 OVC070 16/09 A2972 RMK AO2 SLP069 T01560089 53024=
202310111953 METAR KBLI 111953Z 10SM CLR 17/09 A2968 RMK AO2 SLP057 T01670094=
202310111853 METAR KBLI 111853Z 36006KT 10SM SCT060 16/09 A2966 RMK AO2 SLP050 T01610089=
202310111753 METAR KBLI 111753Z VRB04KT 10SM SCT060 16/11 A2965 RMK AO2 SLP045 60000 T01560106 10156 20106 51025=
202310111653 METAR KBLI 111653Z 29003KT 10SM OVC060 12/10 A2963 RMK AO2 RAE24 SLP039 P0000 T01220100=
202310111553 METAR KBLI 111553Z VRB03KT 10SM -RA BKN060 OVC070 11/10 A2960 RMK AO2 RAB40 SLP028 P0000 T01110100=
202310111453 METAR KBLI 111453Z 36004KT 10SM OVC046 11/09 A2957 RMK AO2 SLP021 T01060089 53019=
202310111353 METAR KBLI 111353Z 35003KT 10SM OVC039 11/09 A2954 RMK AO2 SLP011 T01110089=
202310111253 METAR KBLI 111253Z AUTO 09005KT 10SM OVC039 12/08 A2953 RMK AO2 SLP006 T01220078=
202310111153 METAR KBLI 111153Z AUTO 14012KT 10SM SCT035 OVC045 13/07 A2952 RMK AO2 SLP002 70009 T01280072 10133 20117 51017=
202310111053 METAR KBLI 111053Z AUTO 13008KT 10SM SCT039 12/07 A2950 RMK AO2 SLP997 T01220072=
202310110953 METAR KBLI 110953Z AUTO 15008G17KT 10SM CLR 12/08 A2949 RMK AO2 SLP991 T01220078=
202310110853 METAR KBLI 110853Z AUTO 14011G15KT 10SM SCT100 BKN110 12/08 A2947 RMK AO2 SLP985 T01220083 51008=
202310110812 SPECI KBLI 110812Z AUTO 14013G18KT 10SM FEW026 BKN080 OVC110 12/09 A2946 RMK AO2 T01220089=
202310110753 METAR KBLI 110753Z AUTO 13011G19KT 10SM BKN025 OVC080 12/09 A2946 RMK AO2 SLP984 T01220089 401500111=
202310110728 SPECI KBLI 110728Z AUTO 14012KT 10SM BKN025 BKN031 OVC042 12/09 A2946 RMK AO2 T01220094=
202310110653 METAR KBLI 110653Z AUTO 14012G17KT 10SM FEW026 BKN075 OVC095 13/09 A2946 RMK AO2 SLP982 T01280094=
202310110613 SPECI KBLI 110613Z AUTO 13009KT 10SM SCT028 BKN085 BKN100 13/10 A2945 RMK AO2 T01280100=
202310110553 METAR KBLI 110553Z AUTO 10005KT 10SM BKN026 OVC033 12/11 A2944 RMK AO2 RAE02 SLP977 P0000 60004 T01220106 10150 20117 53004=
202310110532 SPECI KBLI 110532Z AUTO 11007KT 080V140 10SM BKN026 OVC034 13/10 A2944 RMK AO2 RAE02 P0000 T01280100=
202310110453 METAR KBLI 110453Z 09005KT 10SM -RA FEW031 FEW047 OVC070 12/11 A2944 RMK AO2 SLP974 P0002 T01170106=
202310110353 METAR KBLI 110353Z 13007KT 8SM -RA FEW023 FEW046 OVC060 13/11 A2943 RMK AO2 RAB30 SLP974 P0001 T01280106=
202310110253 METAR KBLI 110253Z 10005KT 10SM OVC070 13/10 A2943 RMK AO2 RAB05E40 SLP972 P0001 60001 T01330100 53006=
202310110153 METAR KBLI 110153Z 13010G15KT 10SM SCT038 OVC110 15/09 A2941 RMK AO2 SLP967 T01500089=
202310110053 METAR KBLI 110053Z 15012G20KT 10SM OVC038 15/09 A2941 RMK AO2 SLP966 T01500089=
202310102353 METAR KBLI 102353Z 15013G23KT 10SM OVC035 15/09 A2941 RMK AO2 SLP966 60001 T01500089 10150 20111 56004=
202310102253 METAR KBLI 102253Z 15007KT 10SM OVC030 15/09 A2942 RMK AO2 SLP968 T01500089=
202310102153 METAR KBLI 102153Z 15010G16KT 10SM OVC033 15/09 A2942 RMK AO2 SLP969 T01500089=
202310102053 METAR KBLI 102053Z VRB04KT 10SM OVC036 14/09 A2943 RMK AO2 SLP971 60001 T01390094 56014=
202310101953 METAR KBLI 101953Z 04006KT 10SM BKN040 13/10 A2944 RMK AO2 RAE14 SLP975 P0000 T01280100=
202310101853 METAR KBLI 101853Z 09006KT 10SM -RA SCT040 OVC055 12/08 A2945 RMK AO2 SLP978 P0001 T01170083=
202310101753 METAR KBLI 101753Z 10006KT 10SM -RA BKN070 OVC080 11/09 A2947 RMK AO2 SLP985 P0003 60004 T01110089 10139 20111 56015=
202310101653 METAR KBLI 101653Z 14008KT 8SM -RA SCT030 BKN060 OVC080 12/08 A2948 RMK AO2 RAB20 SLP991 P0001 T01220078=
202310101553 METAR KBLI 101553Z 13009KT 10SM OVC085 12/08 A2949 RMK AO2 RAE45 SLP992 P0000 T01170083=
202310101453 METAR KBLI 101453Z 15011KT 8SM -RA SCT025 OVC065 12/09 A2951 RMK AO2 PK WND 16026/1407 SLP001 P0000 60000 T01170089 56011=
202310101353 METAR KBLI 101353Z 16012G20KT 8SM -RA SCT030 BKN050 OVC060 13/09 A2952 RMK AO2 RAB48 SLP001 P0000 T01280089=
202310101253 METAR KBLI 101253Z AUTO 16012G21KT 10SM SCT080 BKN120 13/08 A2953 RMK AO2 SLP004 T01330078=
202310101153 METAR KBLI 101153Z AUTO 11005KT 10SM FEW035 12/08 A2955 RMK AO2 SLP011 60001 70010 T01220078 10133 20117 58023=
202310101053 METAR KBLI 101053Z AUTO 13007G17KT 10SM CLR 12/08 A2957 RMK AO2 SLP020 T01220083=
202310101011 SPECI KBLI 101011Z AUTO 16008KT 10SM BKN031 BKN035 13/09 A2959 RMK AO2 T01280094=
202310100953 METAR KBLI 100953Z AUTO 16008KT 10SM OVC029 13/10 A2960 RMK AO2 SLP029 P0001 T01280100=
202310100933 SPECI KBLI 100933Z AUTO 16007KT 10SM OVC029 13/10 A2961 RMK AO2 P0001 T01280100=
202310100853 METAR KBLI 100853Z AUTO 15005KT 10SM SCT030 BKN037 OVC050 13/11 A2962 RMK AO2 RAB22E53 SLP035 P0000 60000 T01280111 58006=
202310100753 METAR KBLI 100753Z AUTO 13004KT 10SM BKN041 OVC050 12/11 A2963 RMK AO2 SLP039 T01220111 402000111=
202310100653 METAR KBLI 100653Z AUTO 00000KT 10SM OVC045 12/12 A2963 RMK AO2 RAE0554 SLP041 P0000 T01220117=
202310100603 SPECI KBLI 100603Z AUTO 17004KT 10SM FEW006 SCT013 OVC039 12/12 A2963 RMK AO2 RAE0554 P0000 T01220122=
202310100553 METAR KBLI 100553Z AUTO 18006KT 10SM -RA FEW006 BKN015 OVC039 12/12 A2963 RMK AO2 SLP040 P0005 60009 T01220122 10167 20122 53011=
202310100519 SPECI KBLI 100519Z 20005KT 4SM -RA SCT002 BKN028 OVC036 13/13 A2962 RMK AO2 P0003 T01280128=
202310100453 METAR KBLI 100453Z 19006KT 3/4SM R16/P6000FT -RA OVC002 13/13 A2961 RMK AO2 RAB02 SLP033 P0004 T01280128=
202310100442 SPECI KBLI 100442Z 18006KT 1SM R16/P6000FT -RA BR BKN003 OVC027 13/13 A2961 RMK AO2 RAB02 P0003 T01330128=
202310100420 SPECI KBLI 100420Z VRB05KT 2 1/2SM -RA BR BKN004 OVC013 13/13 A2960 RMK AO2 RAB02 CIG 002V007 P0002 T01330133=
202310100401 SPECI KBLI 100401Z 19006KT 4SM BR BKN005 BKN012 OVC050 14/13 A2960 RMK AO2 CIG 002V009 T01390133=
202310100353 METAR KBLI 100353Z 18008KT 7SM SCT006 BKN027 OVC055 14/14 A2960 RMK AO2 SLP029 T01390139=
202310100351 SPECI KBLI 100351Z 19007KT 160V220 7SM FEW006 BKN027 OVC055 14/14 A2960 RMK AO2=
202310100253 METAR KBLI 100253Z 17011KT 10SM OVC021 16/13 A2960 RMK AO2 SLP029 60000 T01610128 55000=
202310100153 METAR KBLI 100153Z 16012G18KT 10SM BKN028 OVC035 16/13 A2960 RMK AO2 SLP028 T01610128=
202310100149 SPECI KBLI 100149Z 16010G18KT 10SM BKN028 OVC035 16/12 A2960 RMK AO2=
202310100053 METAR KBLI 100053Z 16009KT 10SM FEW025 SCT040 BKN055 16/12 A2960 RMK AO2 RAE48 SLP029 P0000 T01610122=
202310092353 METAR KBLI 092353Z 17010G20KT 10SM -RA SCT035 OVC075 17/12 A2960 RMK AO2 SLP028 P0000 60000 T01670122 10200 20167 56003=
202310092253 METAR KBLI 092253Z 17009G20KT 10SM -RA BKN035 BKN044 OVC095 17/12 A2960 RMK AO2 RAB17 SLP029 P0000 T01720117=
202310092153 METAR KBLI 092153Z 15014G21KT 10SM SCT048 BKN060 OVC080 19/11 A2960 RMK AO2 RAB30E40 SLP029 P0000 T01940111=
202310092053 METAR KBLI 092053Z 17009G19KT 10SM FEW075 OVC090 19/11 A2961 RMK AO2 RAE00 SLP031 P0000 60000 T01940111 58002=
202310091953 METAR KBLI 091953Z 14011KT 10SM -RA OVC090 19/11 A2962 RMK AO2 RAB47 SLP034 P0000 T01940111=
202310091853 METAR KBLI 091853Z 16011G18KT 10SM FEW055 SCT070 OVC090 19/10 A2962 RMK AO2 RAB06E21 SLP036 P0000 T01940100=
202310091753 METAR KBLI 091753Z 17009G16KT 10SM FEW030 SCT050 BKN075 19/10 A2961 RMK AO2 RAB22E46 SLP032 P0000 60000 T01940100 10194 20117 53005=
202310091653 METAR KBLI 091653Z 15012KT 10SM BKN110 19/10 A2959 RMK AO2 SLP025 T01890100=
202310091553 METAR KBLI 091553Z 15014G23KT 10SM SCT110 19/09 A2959 RMK AO2 SLP024 T01890094=
202310091453 METAR KBLI 091453Z 16012G22KT 10SM CLR 18/11 A2960 RMK AO2 SLP027 T01780106 56010=
202310091353 METAR KBLI 091353Z 18009G21KT 10SM CLR 17/11 A2961 RMK AO2 SLP031 T01670106=
202310091253 METAR KBLI 091253Z AUTO 36004KT 10SM CLR 12/11 A2960 RMK AO2 SLP032 T01170106=
202310091153 METAR KBLI 091153Z AUTO 19003KT 10SM CLR 12/11 A2963 RMK AO2 SLP038 T01220111 10133 20111 50001=
202310091053 METAR KBLI 091053Z AUTO 22004KT 10SM CLR 13/11 A2963 RMK AO2 SLP040 T01280111=
202310090953 METAR KBLI 090953Z AUTO 00000KT 10SM CLR 13/11 A2966 RMK AO2 SLP048 T01280111=
202310090853 METAR KBLI 090853Z AUTO 29003KT 10SM CLR 12/12 A2962 RMK AO2 SLP037 T01220117 55006=
202310090753 METAR KBLI 090753Z AUTO 00000KT 7SM CLR 11/11 A2961 RMK AO2 SLP034 T01110106 402060100=
202310090653 METAR KBLI 090653Z AUTO 00000KT 8SM CLR 12/12 A2962 RMK AO2 SLP037 T01220117=
202310090553 METAR KBLI 090553Z AUTO 00000KT 10SM CLR 11/11 A2964 RMK AO2 SLP044 T01110106 10189 20111 58002=
202310090453 METAR KBLI 090453Z 00000KT 10SM CLR 12/11 A2964 RMK AO2 SLP044 T01170106=
202310090353 METAR KBLI 090353Z 00000KT 10SM CLR 12/12 A2965 RMK AO2 SLP046 T01220117=
202310090317 SPECI KBLI 090317Z 00000KT 9SM CLR 12/11 A2965 RMK AO2 T01170106=
202310090253 METAR KBLI 090253Z 00000KT 9SM CLR 12/12 A2965 RMK AO2 SLP046 T01220117 56017=
202310090153 METAR KBLI 090153Z 00000KT 10SM CLR 12/11 A2966 RMK AO2 SLP050 T01220111=
202310090053 METAR KBLI 090053Z 00000KT 10SM CLR 16/13 A2968 RMK AO2 SLP058 T01610133=
202310082353 METAR KBLI 082353Z 24003KT 10SM CLR 19/14 A2970 RMK AO2 SLP062 T01940139 10206 20156 58021=
202310082253 METAR KBLI 082253Z VRB03KT 10SM CLR 19/13 A2973 RMK AO2 SLP071 T01940133=
202310082153 METAR KBLI 082153Z 23003KT 10SM CLR 19/14 A2975 RMK AO2 SLP078 T01940139=
202310082053 METAR KBLI 082053Z 21004KT 10SM CLR 18/13 A2976 RMK AO2 SLP083 T01830133 58023=
202310081953 METAR KBLI 081953Z 00000KT 10SM CLR 18/13 A2979 RMK AO2 SLP093 T01780133=
202310081853 METAR KBLI 081853Z 00000KT 10SM CLR 17/13 A2981 RMK AO2 SLP100 T01720128=
202310081753 METAR KBLI 081753Z 16004KT 10SM CLR 16/12 A2983 RMK AO2 SLP108 T01610122 10161 20100 58008=
202310081653 METAR KBLI 081653Z VRB04KT 10SM CLR 15/12 A2984 RMK AO2 SLP111 T01500122=
202310081553 METAR KBLI 081553Z 18004KT 10SM CLR 14/12 A2985 RMK AO2 SLP115 T01390117=
202310081453 METAR KBLI 081453Z 18005KT 10SM CLR 13/12 A2985 RMK AO2 SLP116 T01330117 58002=
202310081353 METAR KBLI 081353Z 18006KT 10SM CLR 12/11 A2985 RMK AO2 SLP116 T01220111=
202310081253 METAR KBLI 081253Z AUTO 00000KT 10SM CLR 13/12 A2986 RMK AO2 SLP119 T01280117=
202310081153 METAR KBLI 081153Z AUTO 18005KT 10SM CLR 13/12 A2986 RMK AO2 SLP117 T01330117 10139 20106 58003=
202310081053 METAR KBLI 081053Z AUTO 00000KT 10SM FEW120 11/10 A2987 RMK AO2 SLP119 T01110100=
202310080953 METAR KBLI 080953Z AUTO 18004KT 10SM CLR 13/11 A2987 RMK AO2 SLP119 T01330106=
202310080853 METAR KBLI 080853Z AUTO 17005KT 10SM CLR 13/11 A2987 RMK AO2 SLP120 T01330106 51007=
202310080753 METAR KBLI 080753Z AUTO 00000KT 10SM CLR 11/11 A2986 RMK AO2 SLP118 T01110106 402500061=
202310080653 METAR KBLI 080653Z AUTO 00000KT 10SM CLR 12/11 A2986 RMK AO2 SLP116 T01170106=
202310080553 METAR KBLI 080553Z AUTO 00000KT 10SM CLR 12/11 A2985 RMK AO2 SLP113 T01170106 10233 20111 50006=
202310080453 METAR KBLI 080453Z 00000KT 10SM CLR 13/11 A2985 RMK AO2 SLP113 T01280111=
202310080353 METAR KBLI 080353Z 20003KT 10SM CLR 14/12 A2984 RMK AO2 SLP112 T01390117=
202310080253 METAR KBLI 080253Z 00000KT 10SM CLR 14/12 A2983 RMK AO2 SLP107 T01390117 55006=
202310080153 METAR KBLI 080153Z 00000KT 10SM CLR 16/13 A2983 RMK AO2 SLP107 T01560128=
202310080053 METAR KBLI 080053Z 00000KT 10SM CLR 19/14 A2983 RMK AO2 SLP109 T01890139=
202310072353 METAR KBLI 072353Z 00000KT 10SM CLR 23/12 A2985 RMK AO2 SLP112 T02330122 10250 20183 56016=
202310072253 METAR KBLI 072253Z 27003KT 10SM CLR 25/12 A2986 RMK AO2 SLP116 T02500122=
202310072153 METAR KBLI 072153Z 00000KT 10SM CLR 24/12 A2987 RMK AO2 SLP122 T02390122=
202310072053 METAR KBLI 072053Z VRB03KT 10SM CLR 22/13 A2989 RMK AO2 SLP129 T02170133 58016=
202310071953 METAR KBLI 071953Z 15005KT 10SM CLR 21/13 A2992 RMK AO2 SLP137 T02060128=
202310071853 METAR KBLI 071853Z 21004KT 10SM CLR 19/13 A2993 RMK AO2 SLP141 T01940128=
202310071753 METAR KBLI 071753Z 02004KT 10SM CLR 20/12 A2994 RMK AO2 SLP144 T02000117 10200 20061 58002=
202310071653 METAR KBLI 071653Z 03003KT 10SM CLR 16/11 A2995 RMK AO2 SLP147 T01610111=
202310071553 METAR KBLI 071553Z 00000KT 10SM CLR 12/11 A2995 RMK AO2 SLP148 T01220106=
202310071453 METAR KBLI 071453Z 00000KT 10SM R16/1600VP6000FT CLR 07/07 A2995 RMK AO2 SLP147 BCFG NW AFLD T00720072 57001=
202310071442 SPECI KBLI 071442Z 36003KT 10SM R16/1400V1800FT SCT001 07/07 A2994 RMK AO2 BCFG NW AFLD T00670067=
202310071353 METAR KBLI 071353Z 00000KT 1/2SM R16/1600VP6000FT FG VV001 07/07 A2995 RMK AO2 SLP148 T00670067=
202310071348 SPECI KBLI 071348Z 00000KT 1SM R16/2600VP6000FT BR VV001 07/07 A2995 RMK AO2=
202310071338 SPECI KBLI 071338Z AUTO 00000KT 1/2SM R16/1800VP6000FT FG VV001 07/07 A2995 RMK AO2 T00670067=
202310071327 SPECI KBLI 071327Z AUTO 00000KT 3/4SM R16/P6000FT BR VV001 07/07 A2995 RMK AO2 VIS 1/2V5 T00720072=
202310071316 SPECI KBLI 071316Z AUTO 00000KT 2 1/2SM R16/2400VP6000FT BR BKN001 07/07 A2995 RMK AO2 VIS 1V5 T00670067=
202310071308 SPECI KBLI 071308Z AUTO 00000KT 1SM R16/2400VP6000FT BR VV001 07/07 A2996 RMK AO2 VIS 1/4V4 T00720067=
202310071304 SPECI KBLI 071304Z AUTO 00000KT 1/2SM R16/2200VP6000FT FG VV001 07/07 A2996 RMK AO2 VIS 1/4V3 T00670067=
202310071256 SPECI KBLI 071256Z AUTO 00000KT 3/4SM R16/2200V3500FT BR VV002 07/07 A2996 RMK AO2 VIS 1/4V3 T00670067=
202310071253 METAR KBLI 071253Z AUTO 00000KT 2SM R16/2400V4500FT BR BKN002 07/07 A2996 RMK AO2 VIS 1 1/4V4 SLP152 T00720067=
202310071241 SPECI KBLI 071241Z AUTO 00000KT 3/4SM R16/1200V3000FT BR VV002 08/07 A2996 RMK AO2 T00780072=
202310071233 SPECI KBLI 071233Z AUTO 00000KT 2SM R16/1200VP6000FT BR OVC001 07/07 A2996 RMK AO2 T00720067=
202310071230 SPECI KBLI 071230Z AUTO 00000KT 3/4SM R16/1600VP6000FT BR VV001 07/07 A2996 RMK AO2 T00720067=
202310071224 SPECI KBLI 071224Z AUTO 00000KT 1/4SM R16/P6000FT FG VV001 07/07 A2996 RMK AO2 T00720067=
202310071209 SPECI KBLI 071209Z AUTO 00000KT 1/4SM R16/2200V3500FT FG VV002 07/07 A2996 RMK AO2 T00720072=
202310071205 SPECI KBLI 071205Z AUTO 00000KT 3/4SM R16/1800VP6000FT BR VV002 07/07 A2996 RMK AO2 T00670067=
202310071200 SPECI KBLI 071200Z AUTO 00000KT 2 1/2SM R16/1600VP6000FT BR BKN003 07/07 A2996 RMK AO2 VIS 3/4V5 T00720072=
202310071153 METAR KBLI 071153Z AUTO 00000KT 3SM R16/1800VP6000FT BR BKN003 08/07 A2996 RMK AO2 SLP154 T00780072 10106 20067 58005=
202310071148 SPECI KBLI 071148Z AUTO 00000KT 10SM BKN002 08/07 A2997 RMK AO2=
202310071134 SPECI KBLI 071134Z AUTO 00000KT 2 1/2SM BR BKN002 07/07 A2997 RMK AO2 VIS 1V5 T00720072=
202310071130 SPECI KBLI 071130Z AUTO 00000KT 10SM BKN001 07/07 A2997 RMK AO2 T00720072=
202310071123 SPECI KBLI 071123Z AUTO 00000KT 1 3/4SM R16/3500VP6000FT BR SCT001 08/07 A2997 RMK AO2 T00780072=
202310071121 SPECI KBLI 071121Z AUTO 00000KT 3/4SM R16/2800VP6000FT BR VV001 08/07 A2997 RMK AO2 T00780072=
202310071115 SPECI KBLI 071115Z AUTO 00000KT 1/4SM R16/2800VP6000FT FG VV001 08/07 A2997 RMK AO2 T00780072=
202310071110 SPECI KBLI 071110Z AUTO 00000KT 1/2SM R16/2000VP6000FT FG VV002 07/07 A2998 RMK AO2 T00720067=
202310071103 SPECI KBLI 071103Z AUTO 00000KT 1SM R16/1200V2800FT BR VV002 07/07 A2998 RMK AO2 VIS 1/4V4 T00720072=
202310071100 SPECI KBLI 071100Z AUTO 00000KT 1/2SM R16/1200V2800FT FG VV002 07/07 A2998 RMK AO2 T00670067=
202310071053 METAR KBLI 071053Z AUTO 00000KT 3/4SM R16/1200VP6000FT BR VV002 08/07 A2998 RMK AO2 SLP157 T00780072=
202310071051 SPECI KBLI 071051Z AUTO 00000KT 1 3/4SM R16/1200VP6000FT BR BKN002 08/07 A2998 RMK AO2=
202310071043 SPECI KBLI 071043Z AUTO 00000KT 3SM R16/2200VP6000FT BR SCT002 07/07 A2998 RMK AO2 T00720067=
202310071023 SPECI KBLI 071023Z AUTO 00000KT 6SM R16/5500VP6000FT BR CLR 08/07 A2998 RMK AO2 T00780072=
202310071016 SPECI KBLI 071016Z AUTO 00000KT 2 1/2SM R16/3000VP6000FT BR FEW002 08/07 A2998 RMK AO2 T00780072=
202310071012 SPECI KBLI 071012Z AUTO 00000KT 1SM R16/3000VP6000FT BR VV002 08/07 A2998 RMK AO2 T00780072=
202310071005 SPECI KBLI 071005Z AUTO 00000KT 1 1/2SM R16/1800VP6000FT BR FEW002 07/07 A2998 RMK AO2 VIS 1/2V5 T00720067=
202310070953 METAR KBLI 070953Z AUTO 00000KT 10SM R16/2600VP6000FT FEW001 07/07 A2998 RMK AO2 SLP160 T00720067=
202310070944 SPECI KBLI 070944Z AUTO 00000KT 5SM R16/3000VP6000FT BR FEW001 08/08 A2999 RMK AO2 T00830078=
202310070933 SPECI KBLI 070933Z AUTO 00000KT 7SM BKN001 08/08 A2999 RMK AO2 T00830078=
202310070926 SPECI KBLI 070926Z AUTO 00000KT 2 1/2SM BR BKN001 08/08 A2999 RMK AO2 T00830083=
202310070924 SPECI KBLI 070924Z AUTO 00000KT 3/4SM R16/P6000FT BR VV001 08/08 A2999 RMK AO2 T00830083=
202310070915 SPECI KBLI 070915Z AUTO 00000KT 1/4SM R16/1600VP6000FT FG VV001 08/08 A2999 RMK AO2 T00830078=
202310070908 SPECI KBLI 070908Z AUTO 00000KT 3/4SM R16/2200V5000FT BR VV001 08/08 A2999 RMK AO2 T00780078=
202310070853 METAR KBLI 070853Z AUTO 00000KT 1 1/4SM R16/2000VP6000FT BR BKN002 08/08 A2999 RMK AO2 SLP163 T00830078 58006=
202310070841 SPECI KBLI 070841Z AUTO 00000KT 2 1/2SM R16/2400VP6000FT BR BKN002 08/08 A2999 RMK AO2 T00830078=
202310070832 SPECI KBLI 070832Z AUTO 00000KT 8SM R16/2400VP6000FT SCT002 08/08 A3000 RMK AO2 T00830083=
202310070822 SPECI KBLI 070822Z AUTO 00000KT 10SM R16/3000VP6000FT CLR 08/08 A3000 RMK AO2 T00830078=
202310070813 SPECI KBLI 070813Z AUTO 00000KT 2 1/2SM R16/4000VP6000FT BR CLR 09/08 A2999 RMK AO2 T00890078=
202310070803 SPECI KBLI 070803Z AUTO 00000KT 3SM R16/4500VP6000FT BR FEW002 08/08 A3000 RMK AO2 T00830083=
202310070753 METAR KBLI 070753Z AUTO 00000KT 1 1/2SM BR FEW002 09/09 A3000 RMK AO2 SLP166 T00890089 402110067=
202310070750 SPECI KBLI 070750Z AUTO 00000KT 1SM R16/P6000FT BR VV002 09/08 A3000 RMK AO2=
202310070744 SPECI KBLI 070744Z AUTO 00000KT 1/2SM R16/P6000FT FG VV002 09/08 A3000 RMK AO2 T00890083=
202310070736 SPECI KBLI 070736Z AUTO 00000KT 3/4SM R16/3000VP6000FT BR VV002 09/08 A3001 RMK AO2 VIS 1/4V5 T00890083=
202310070734 SPECI KBLI 070734Z AUTO 00000KT 1 1/2SM R16/3000VP6000FT BR FEW002 09/08 A3001 RMK AO2 VIS 1/4V5 T00890083=
202310070711 SPECI KBLI 070711Z AUTO 00000KT 3SM R16/1800VP6000FT BR SCT002 09/09 A3001 RMK AO2 T00940089=
202310070653 METAR KBLI 070653Z AUTO 00000KT 4SM BR CLR 09/09 A3001 RMK AO2 SLP169 T00940089=
202310070649 SPECI KBLI 070649Z AUTO 00000KT 1 3/4SM BR FEW002 10/09 A3001 RMK AO2 VIS 3/4V5=
202310070638 SPECI KBLI 070638Z AUTO 00000KT 1 3/4SM R16/5000VP6000FT BR CLR 09/09 A3001 RMK AO2 T00940094=
202310070553 METAR KBLI 070553Z AUTO 00000KT 10SM CLR 11/09 A3002 RMK AO2 SLP173 T01060094 10206 20094 56006=
202310070453 METAR KBLI 070453Z 00000KT 10SM CLR 11/10 A3003 RMK AO2 SLP176 T01110100=
202310070353 METAR KBLI 070353Z 00000KT 10SM CLR 12/11 A3003 RMK AO2 SLP176 T01170106=
202310070253 METAR KBLI 070253Z 00000KT 10SM CLR 13/12 A3004 RMK AO2 SLP179 T01280117 56014=
202310070153 METAR KBLI 070153Z 00000KT 10SM CLR 14/12 A3005 RMK AO2 SLP183 T01440122=
202310070053 METAR KBLI 070053Z 00000KT 10SM CLR 18/13 A3007 RMK AO2 SLP189 T01830128=
202310062353 METAR KBLI 062353Z 29003KT 10SM CLR 20/12 A3008 RMK AO2 SLP194 T02000122 10211 20172 56024=
202310062253 METAR KBLI 062253Z 00000KT 10SM CLR 21/13 A3010 RMK AO2 SLP200 T02110128=
202310062153 METAR KBLI 062153Z 30003KT 10SM CLR 21/13 A3012 RMK AO2 SLP207 T02110128=
202310062053 METAR KBLI 062053Z 28004KT 10SM CLR 20/13 A3016 RMK AO2 SLP217 T02000128 58021=
202310061953 METAR KBLI 061953Z VRB04KT 10SM CLR 19/13 A3019 RMK AO2 SLP228 T01890128=
202310061853 METAR KBLI 061853Z 28005KT 10SM CLR 19/13 A3020 RMK AO2 SLP233 T01890128=
202310061753 METAR KBLI 061753Z 36005KT 10SM CLR 18/12 A3022 RMK AO2 SLP239 T01780117 10178 20067 58006=
202310061653 METAR KBLI 061653Z 35003KT 10SM CLR 14/12 A3023 RMK AO2 SLP243 T01440117=
202310061553 METAR KBLI 061553Z 00000KT 10SM CLR 11/11 A3025 RMK AO2 SLP249 T01060106=
202310061453 METAR KBLI 061453Z 00000KT 10SM R16/2800V5000FT CLR 07/07 A3024 RMK AO2 SLP247 T00720072 56012=
202310061432 SPECI KBLI 061432Z 00000KT 8SM R16/2800VP6000FT CLR 07/07 A3024 RMK AO2 T00720072=
202310061427 SPECI KBLI 061427Z 00000KT 1/4SM R16/3500VP6000FT FG VV002 07/07 A3024 RMK AO2 T00670067=
202310061419 SPECI KBLI 061419Z 00000KT 1/4SM R16/2000V5500FT FG VV001 07/07 A3024 RMK AO2 T00670067=
202310061353 METAR KBLI 061353Z 00000KT 1/4SM R16/0800V1600FT FG VV001 07/07 A3024 RMK AO2 SLP249 T00720072=
202310061351 SPECI KBLI 061351Z 00000KT 1/4SM R16/0800V2000FT FG VV001 07/07 A3025 RMK AO2=
202310061329 SPECI KBLI 061329Z AUTO 00000KT 1/2SM R16/1800V2800FT FG VV001 08/08 A3025 RMK AO2 T00780078=
202310061324 SPECI KBLI 061324Z AUTO 00000KT 1/4SM R16/1600V2200FT FG VV001 08/08 A3025 RMK AO2 T00780078=
202310061314 SPECI KBLI 061314Z AUTO 00000KT 1/4SM R16/1200V2800FT FG VV001 08/08 A3025 RMK AO2 T00780078=
202310061305 SPECI KBLI 061305Z AUTO 00000KT 1/4SM R16/1200V2000FT FG VV001 08/08 A3025 RMK AO2 T00780078=
202310061253 METAR KBLI 061253Z AUTO 00000KT 1/2SM R16/1200V1600FT FG VV001 08/08 A3026 RMK AO2 SLP253 T00780078=
202310061243 SPECI KBLI 061243Z AUTO 00000KT 1/2SM R16/1200V1800FT FG VV001 08/08 A3026 RMK AO2 T00780078=
202310061230 SPECI KBLI 061230Z AUTO 00000KT 1/2SM R16/2000V2600FT FG VV001 08/08 A3026 RMK AO2 T00780078=
202310061223 SPECI KBLI 061223Z AUTO 00000KT 1/4SM R16/1400V2200FT FG VV001 07/07 A3026 RMK AO2 T00720072=
202310061153 METAR KBLI 061153Z AUTO 00000KT 1/2SM R16/2000V4500FT FG VV001 07/07 A3027 RMK AO2 SLP258 T00720072 10106 20067 58007=
202310061117 SPECI KBLI 061117Z AUTO 00000KT 1/4SM R16/1400VP6000FT FG VV001 07/07 A3028 RMK AO2 T00720072=
202310061110 SPECI KBLI 061110Z AUTO 00000KT 1/2SM R16/2600VP6000FT FG VV002 08/08 A3028 RMK AO2 T00780078=
202310061101 SPECI KBLI 061101Z AUTO 00000KT 3/4SM R16/2600VP6000FT BR VV002 08/07 A3028 RMK AO2 T00780072=
202310061059 SPECI KBLI 061059Z AUTO 00000KT 1 1/2SM R16/2200VP6000FT BR SCT002 08/07 A3029 RMK AO2 T00780072=
202310061053 METAR KBLI 061053Z AUTO 00000KT 10SM R16/2200VP6000FT SCT002 07/07 A3029 RMK AO2 SLP263 T00720067=
202310061044 SPECI KBLI 061044Z AUTO 00000KT 2SM BR BKN002 08/07 A3029 RMK AO2 T00780067=
202310061036 SPECI KBLI 061036Z AUTO 00000KT 1 3/4SM R16/3500VP6000FT BR SCT002 07/07 A3029 RMK AO2 VIS 3/4V5 T00720067=
202310061027 SPECI KBLI 061027Z AUTO 00000KT 4SM BR SCT003 08/07 A3029 RMK AO2 T00780072=
202310061019 SPECI KBLI 061019Z AUTO 00000KT 1 3/4SM BR FEW003 08/07 A3029 RMK AO2 T00780072=
202310061011 SPECI KBLI 061011Z AUTO 00000KT 4SM R16/3000VP6000FT BR CLR 08/07 A3029 RMK AO2 T00780072=
202310061002 SPECI KBLI 061002Z AUTO 00000KT 1 3/4SM R16/4500VP6000FT BR FEW002 08/08 A3029 RMK AO2 T00830078=
202310060955 SPECI KBLI 060955Z AUTO 00000KT 3SM R16/2200VP6000FT BR SCT002 08/08 A3029 RMK AO2 T00830078=
202310060953 METAR KBLI 060953Z AUTO 00000KT 2SM R16/2200VP6000FT BR BKN002 08/08 A3029 RMK AO2 VIS 1V5 SLP265 T00830078=
202310060938 SPECI KBLI 060938Z AUTO 00000KT 3/4SM R16/1600VP6000FT BR VV002 08/08 A3029 RMK AO2 T00830078=
202310060917 SPECI KBLI 060917Z AUTO 00000KT 1/4SM R16/1600VP6000FT FG VV002 08/08 A3030 RMK AO2 T00830078=
202310060912 SPECI KBLI 060912Z AUTO 00000KT 3/4SM R16/1600VP6000FT BR VV002 08/08 A3030 RMK AO2 T00830078=
202310060905 SPECI KBLI 060905Z AUTO 00000KT 1 3/4SM R16/1400V2400FT BR FEW002 09/08 A3030 RMK AO2 T00890078=
202310060858 SPECI KBLI 060858Z AUTO 00000KT 2SM R16/1600V3500FT BR FEW002 08/08 A3030 RMK AO2 T00830078=
202310060853 METAR KBLI 060853Z AUTO 00000KT 10SM R16/2600V4500FT CLR 08/08 A3030 RMK AO2 SLP267 T00830078 58005=
202310060753 METAR KBLI 060753Z AUTO 00000KT 4SM BR CLR 09/09 A3030 RMK AO2 SLP268 T00940089 402060083=
202310060745 SPECI KBLI 060745Z AUTO 00000KT 3/4SM R16/P6000FT BR CLR 09/08 A3030 RMK AO2 T00890078=
202310060707 SPECI KBLI 060707Z AUTO 00000KT 9SM CLR 09/09 A3031 RMK AO2 T00890089=
202310060700 SPECI KBLI 060700Z AUTO 00000KT 2SM BR CLR 09/09 A3031 RMK AO2 T00940089=
202310060653 METAR KBLI 060653Z AUTO 00000KT 3/4SM R16/3000VP6000FT BR CLR 09/08 A3031 RMK AO2 SLP271 T00890083=
202310060648 SPECI KBLI 060648Z AUTO 00000KT 1 1/2SM R16/3000VP6000FT BR CLR 09/08 A3031 RMK AO2=
202310060553 METAR KBLI 060553Z AUTO 00000KT 10SM CLR 11/09 A3031 RMK AO2 SLP272 T01060094 10183 20089 51003=
202310060453 METAR KBLI 060453Z 00000KT 10SM CLR 11/10 A3031 RMK AO2 SLP271 T01060100=
202310060353 METAR KBLI 060353Z 00000KT 10SM CLR 11/10 A3031 RMK AO2 SLP270 T01110100=
202310060253 METAR KBLI 060253Z 00000KT 10SM CLR 12/11 A3030 RMK AO2 SLP268 T01170111 56005=
202310060205 SPECI KBLI 060205Z 00000KT 10SM CLR 13/11 A3030 RMK AO2 T01330111=
202310060153 METAR KBLI 060153Z 00000KT 10SM CLR 14/12 A3031 RMK AO2 SLP269 T01440117=
202310060053 METAR KBLI 060053Z 31004KT 10SM CLR 17/11 A3031 RMK AO2 SLP269 T01720111=
202310052353 METAR KBLI 052353Z 30008KT 10SM FEW025 18/12 A3032 RMK AO2 SLP273 T01830117 10206 20161 56012=
202310052253 METAR KBLI 052253Z 32009KT 10SM CLR 19/12 A3032 RMK AO2 SLP274 T01940122=
202310052153 METAR KBLI 052153Z 29009KT 250V320 10SM CLR 19/13 A3034 RMK AO2 SLP279 T01890128=
202310052104 SPECI KBLI 052104Z 36005KT 10SM SCT029 20/12 A3035 RMK AO2 T02000122=
202310052053 METAR KBLI 052053Z 30007KT 10SM BKN029 19/12 A3035 RMK AO2 SLP285 T01890122 58013=
202310051953 METAR KBLI 051953Z 33007KT 10SM SCT025 BKN032 18/12 A3037 RMK AO2 SLP291 T01780122=
202310051853 METAR KBLI 051853Z 33007KT 6SM HZ BKN019 BKN024 17/13 A3038 RMK AO2 SLP295 T01720128=
202310051824 SPECI KBLI 051824Z 35006KT 6SM HZ BKN016 17/13 A3039 RMK AO2 T01720128=
202310051753 METAR KBLI 051753Z 36007KT 4SM HZ OVC010 16/13 A3039 RMK AO2 SLP298 T01610133 10161 20122 50002=
202310051742 SPECI KBLI 051742Z 35005KT 4SM BR OVC010 16/13 A3040 RMK AO2 T01560133=
202310051653 METAR KBLI 051653Z 34004KT 2SM BR OVC006 14/13 A3040 RMK AO2 SLP301 T01390133=
202310051632 SPECI KBLI 051632Z 34005KT 2SM BR OVC005 13/13 A3040 RMK AO2 T01330133=
202310051553 METAR KBLI 051553Z 35004KT 2SM BR OVC002 13/13 A3039 RMK AO2 CIG 001V005 SLP299 T01330133=
202310051546 SPECI KBLI 051546Z 35004KT 2 1/2SM BR OVC002 13/13 A3039 RMK AO2 T01330133=
202310051530 SPECI KBLI 051530Z 36003KT 1 1/4SM BR OVC002 13/13 A3039 RMK AO2 T01280128=
202310051521 SPECI KBLI 051521Z 36004KT 3/4SM R16/2800VP6000FT BR VV002 13/13 A3039 RMK AO2 T01280128=
202310051516 SPECI KBLI 051516Z 01004KT 1/4SM R16/1800V4000FT FG VV002 13/13 A3039 RMK AO2 T01280128=
202310051453 METAR KBLI 051453Z 02004KT 1/4SM R16/1200V1400FT FG VV002 13/13 A3039 RMK AO2 SLP297 T01280128 53002=
202310051353 METAR KBLI 051353Z 01003KT 1/4SM R16/1600V1800FT FG VV002 12/12 A3038 RMK AO2 SLP295 T01220122=
202310051325 SPECI KBLI 051325Z AUTO 00000KT 1/4SM R16/1200V2200FT FG BKN001 OVC042 12/12 A3038 RMK AO2 T01220122=
202310051318 SPECI KBLI 051318Z AUTO 01003KT 1/2SM R16/2000VP6000FT FG BKN001 OVC042 12/12 A3038 RMK AO2 T01220122=
202310051313 SPECI KBLI 051313Z AUTO 36003KT 1 1/2SM R16/4000VP6000FT BR BKN001 OVC042 12/12 A3038 RMK AO2 T01220122=
202310051300 SPECI KBLI 051300Z AUTO 35003KT 2 1/2SM BR FEW002 FEW031 OVC042 12/12 A3038 RMK AO2 T01220122=
202310051253 METAR KBLI 051253Z AUTO 35003KT 3SM BR SCT031 OVC042 12/12 A3038 RMK AO2 SLP295 T01220122=
202310051153 METAR KBLI 051153Z AUTO 00000KT 5SM BR OVC032 13/13 A3038 RMK AO2 SLP294 T01330128 10139 20128 51001=
202310051053 METAR KBLI 051053Z AUTO 00000KT 5SM BR OVC031 13/13 A3038 RMK AO2 SLP295 T01330128=
202310050953 METAR KBLI 050953Z AUTO 00000KT 6SM BR SCT025 OVC030 13/13 A3038 RMK AO2 SLP296 T01330128=
202310050853 METAR KBLI 050853Z AUTO 00000KT 7SM OVC032 13/13 A3038 RMK AO2 SLP294 T01330128 51003=
202310050824 SPECI KBLI 050824Z AUTO 00000KT 7SM SCT026 OVC032 13/13 A3038 RMK AO2 T01330128=
202310050803 SPECI KBLI 050803Z AUTO 00000KT 7SM BKN025 OVC033 13/13 A3038 RMK AO2 T01330128=
202310050753 METAR KBLI 050753Z AUTO 00000KT 8SM SCT025 OVC033 13/13 A3038 RMK AO2 SLP293 T01330128 401500122=
202310050653 METAR KBLI 050653Z AUTO 00000KT 8SM SCT013 OVC032 13/13 A3037 RMK AO2 SLP292 T01330128=
202310050644 SPECI KBLI 050644Z AUTO 00000KT 9SM BKN013 OVC026 14/13 A3037 RMK AO2 T01390128=
202310050633 SPECI KBLI 050633Z AUTO 00000KT 10SM BKN015 OVC030 13/13 A3037 RMK AO2 T01330128=
202310050625 SPECI KBLI 050625Z AUTO 00000KT 10SM BKN014 OVC030 13/13 A3037 RMK AO2 T01330128=
202310050614 SPECI KBLI 050614Z AUTO 00000KT 10SM SCT014 OVC031 13/13 A3037 RMK AO2 T01330128=
202310050553 METAR KBLI 050553Z AUTO 00000KT 10SM BKN014 OVC032 13/13 A3037 RMK AO2 SLP291 T01330128 10150 20128 53008=
202310050527 SPECI KBLI 050527Z AUTO 00000KT 10SM BKN011 OVC033 13/13 A3037 RMK AO2 T01330128=
202310050453 METAR KBLI 050453Z 00000KT 10SM OVC032 13/12 A3036 RMK AO2 SLP288 T01330122=
202310050353 METAR KBLI 050353Z 00000KT 10SM FEW032 OVC042 13/12 A3035 RMK AO2 SLP285 T01280122=
202310050253 METAR KBLI 050253Z 00000KT 10SM FEW013 OVC046 13/12 A3034 RMK AO2 SLP283 T01330122 55000=
202310050153 METAR KBLI 050153Z 00000KT 10SM BKN048 OVC055 14/13 A3034 RMK AO2 SLP280 T01440128=
202310050053 METAR KBLI 050053Z VRB03KT 10SM SCT014 OVC050 14/13 A3034 RMK AO2 SLP281 CIGS LWR NW-NE T01440128=
202310042353 METAR KBLI 042353Z 19005KT 10SM SCT014 OVC050 15/13 A3035 RMK AO2 SLP283 T01500128 10150 20128 56005=
202310042314 SPECI KBLI 042314Z 19006KT 10SM SCT014 BKN030 OVC055 14/13 A3035 RMK AO2 T01440128=
202310042253 METAR KBLI 042253Z 19005KT 10SM SCT008 OVC013 14/13 A3035 RMK AO2 SLP284 T01440128=
202310042153 METAR KBLI 042153Z 17006KT 6SM BR SCT003 OVC008 14/13 A3035 RMK AO2 SLP285 T01440128=
202310042133 SPECI KBLI 042133Z 18007KT 6SM BR OVC008 14/13 A3035 RMK AO2 CIG 004V009 T01440128=
202310042053 METAR KBLI 042053Z VRB05KT 4SM BR BKN003 OVC015 14/13 A3036 RMK AO2 SLP288 T01390128 53004=
202310042028 SPECI KBLI 042028Z 19006KT 4SM BR BKN003 BKN015 OVC020 14/13 A3036 RMK AO2 T01390128=
202310041953 METAR KBLI 041953Z VRB04KT 2SM BR OVC003 13/13 A3035 RMK AO2 SLP286 T01330128=
202310041853 METAR KBLI 041853Z VRB03KT 2SM BR OVC003 13/13 A3035 RMK AO2 SLP284 T01280128=
202310041753 METAR KBLI 041753Z 18005KT 2SM BR OVC003 13/12 A3034 RMK AO2 SLP281 T01280122 10128 20122 51012=
202310041702 SPECI KBLI 041702Z 19005KT 2SM BR OVC003 13/12 A3034 RMK AO2 T01280122=
202310041653 METAR KBLI 041653Z 19005KT 7SM OVC002 13/12 A3034 RMK AO2 SLP281 T01280122=
202310041633 SPECI KBLI 041633Z 19005KT 4SM BR OVC002 12/12 A3034 RMK AO2 T01220122=
202310041625 SPECI KBLI 041625Z 2 1/2SM BR OVC002 12/12 A3034 RMK AO2 T01220122=
202310041553 METAR KBLI 041553Z VRB03KT 3SM BR OVC002 12/12 A3033 RMK AO2 SLP279 T01220122=
202310041453 METAR KBLI 041453Z 18007KT 3SM BR OVC003 12/12 A3030 RMK AO2 SLP269 T01220117 50003=
202310041419 SPECI KBLI 041419Z VRB04KT 3SM BR OVC004 12/12 A3030 RMK AO2 CIG 004V009 T01220117=
202310041353 METAR KBLI 041353Z 19005KT 10SM BKN008 OVC018 12/12 A3030 RMK AO2 CIG 004V013 SLP269 T01220117=
202310041349 SPECI KBLI 041349Z 19005KT 10SM BKN008 BKN012 OVC018 12/12 A3030 RMK AO2 CIG 005V010=
202310041253 METAR KBLI 041253Z AUTO 18006KT 10SM SCT003 OVC012 12/12 A3030 RMK AO2 SLP266 T01220117=
202310041238 SPECI KBLI 041238Z AUTO 18007KT 10SM BKN004 OVC012 12/12 A3029 RMK AO2 T01220117=
202310041210 SPECI KBLI 041210Z AUTO 18009G14KT 10SM BKN008 OVC015 12/12 A3029 RMK AO2 CIG 005V010 T01220117=
202310041153 METAR KBLI 041153Z AUTO 18009KT 10SM BKN010 OVC015 12/11 A3029 RMK AO2 CIG 007V013 SLP264 T01220111 10133 20122 53005=
202310041053 METAR KBLI 041053Z AUTO 18009G18KT 10SM OVC013 13/11 A3028 RMK AO2 SLP261 T01280106=
202310041043 SPECI KBLI 041043Z AUTO 18008G18KT 10SM BKN013 BKN060 13/11 A3028 RMK AO2 T01280106=
202310040953 METAR KBLI 040953Z AUTO 19009G17KT 10SM FEW012 BKN060 OVC070 13/11 A3028 RMK AO2 SLP261 T01280106=
202310040853 METAR KBLI 040853Z AUTO 19007G15KT 10SM OVC065 12/10 A3028 RMK AO2 SLP259 T01220100 53002=
202310040753 METAR KBLI 040753Z AUTO 18007G15KT 10SM OVC060 13/10 A3027 RMK AO2 SLP258 T01330100 401500106=
202310040653 METAR KBLI 040653Z AUTO 18007KT 10SM FEW022 BKN060 OVC075 13/11 A3026 RMK AO2 SLP255 T01330106=
202310040637 SPECI KBLI 040637Z AUTO 17008KT 10SM FEW021 BKN027 OVC065 13/11 A3027 RMK AO2 T01330106=
202310040553 METAR KBLI 040553Z AUTO 17005KT 10SM OVC060 13/11 A3027 RMK AO2 SLP257 T01330111 10150 20106 53006=
202310040453 METAR KBLI 040453Z 18004KT 10SM FEW060 OVC075 13/10 A3025 RMK AO2 SLP252 T01330100=
202310040353 METAR KBLI 040353Z 16004KT 10SM OVC065 12/11 A3025 RMK AO2 SLP252 T01220106=
202310040253 METAR KBLI 040253Z 00000KT 10SM FEW029 OVC065 12/10 A3025 RMK AO2 SLP251 T01170100 53008=
202310040153 METAR KBLI 040153Z 00000KT 10SM FEW090 11/10 A3023 RMK AO2 SLP242 T01110100=
202310040053 METAR KBLI 040053Z 19003KT 10SM SCT090 14/09 A3023 RMK AO2 SLP243 T01440094=
202310032353 METAR KBLI 032353Z 20003KT 10SM CLR 15/09 A3023 RMK AO2 SLP242 T01500089 10150 20122 50002=
202310032253 METAR KBLI 032253Z 19007KT 10SM SCT035 14/09 A3023 RMK AO2 SLP244 T01440089=
202310032155 SPECI KBLI 032155Z 17007KT 10SM SCT020 14/10 A3023 RMK AO2 T01440100=
202310032153 METAR KBLI 032153Z 19007KT 10SM BKN016 14/11 A3022 RMK AO2 SLP242 T01440106=
202310032053 METAR KBLI 032053Z VRB04KT 10SM BKN016 14/11 A3022 RMK AO2 SLP240 T01440106 51009=
202310031953 METAR KBLI 031953Z 23004KT 10SM SCT012 BKN020 OVC030 13/11 A3021 RMK AO2 SLP238 T01330106=
202310031853 METAR KBLI 031853Z 00000KT 10SM OVC012 13/11 A3020 RMK AO2 SLP234 T01280106=
202310031753 METAR KBLI 031753Z 24003KT 10SM BKN010 OVC016 12/11 A3019 RMK AO2 CIG 007V013 SLP231 60000 T01220111 10128 20111 51021=
202310031721 SPECI KBLI 031721Z 00000KT 10SM BKN013 OVC025 12/11 A3018 RMK AO2 T01220106=
202310031653 METAR KBLI 031653Z 00000KT 10SM FEW016 OVC025 12/11 A3017 RMK AO2 SLP222 T01220106=
202310031615 SPECI KBLI 031615Z 27003KT 10SM FEW009 OVC024 12/11 A3016 RMK AO2 T01170106=
202310031553 METAR KBLI 031553Z 29003KT 10SM FEW012 OVC023 12/11 A3016 RMK AO2 SLP219 T01170106=
202310031546 SPECI KBLI 031546Z 31003KT 10SM SCT010 OVC021 12/11 A3016 RMK AO2 T01170111=
202310031537 SPECI KBLI 031537Z 29003KT 9SM BKN010 OVC022 12/11 A3016 RMK AO2 CIG 008V015 T01170106=
202310031453 METAR KBLI 031453Z 29003KT 2SM BR FEW005 OVC010 11/11 A3013 RMK AO2 SLP210 60000 T01110111 51018=
202310031425 SPECI KBLI 031425Z 00000KT 2SM BR SCT006 OVC011 11/11 A3011 RMK AO2 T01110111=
202310031353 METAR KBLI 031353Z 32003KT 2SM BR OVC010 11/11 A3011 RMK AO2 RAB25E34 SLP202 P0000 T01110111=
202310031350 SPECI KBLI 031350Z 32004KT 2 1/2SM BR OVC010 11/11 A3010 RMK AO2 RAB25E34 P0000=
202310031324 SPECI KBLI 031324Z AUTO 30003KT 2SM BR FEW002 OVC009 11/11 A3009 RMK AO2 CIG 005V011 T01110111=
202310031313 SPECI KBLI 031313Z AUTO 30003KT 3SM BR SCT002 OVC009 11/11 A3009 RMK AO2 CIG 007V011 T01110111=
202310031253 METAR KBLI 031253Z AUTO 29003KT 2 1/2SM BR OVC002 11/11 A3008 RMK AO2 SLP192 T01110111=
202310031246 SPECI KBLI 031246Z AUTO 00000KT 2 1/2SM BR OVC002 11/11 A3007 RMK AO2 T01110111=
202310031215 SPECI KBLI 031215Z AUTO 31003KT 7SM BKN004 OVC014 11/11 A3006 RMK AO2 T01110111=
202310031208 SPECI KBLI 031208Z AUTO 32003KT 8SM SCT005 OVC014 11/11 A3006 RMK AO2 T01110111=
202310031153 METAR KBLI 031153Z AUTO 00000KT 9SM SCT005 OVC015 12/11 A3005 RMK AO2 SLP182 60003 70026 T01170111 10117 20117 51016=
202310031053 METAR KBLI 031053Z AUTO 34003KT 10SM OVC015 12/11 A3004 RMK AO2 SLP178 T01170106=
202310030953 METAR KBLI 030953Z AUTO 32003KT 8SM BKN016 OVC029 12/11 A3002 RMK AO2 SLP171 T01170111=
202310030853 METAR KBLI 030853Z AUTO 33004KT 9SM FEW015 OVC027 12/11 A3000 RMK AO2 SLP166 60003 T01170111 51004=
202310030835 SPECI KBLI 030835Z AUTO 31005KT 9SM SCT007 BKN015 OVC028 12/11 A3000 RMK AO2 T01170111=
202310030807 SPECI KBLI 030807Z AUTO 30004KT 8SM BKN008 OVC013 12/11 A3000 RMK AO2 CIG 006V011 T01170111=
202310030753 METAR KBLI 030753Z AUTO 31005KT 8SM SCT007 OVC013 12/11 A3000 RMK AO2 RAE0657 SLP166 P0000 T01170111 401440111=
202310030749 SPECI KBLI 030749Z AUTO 31004KT 8SM SCT007 OVC015 12/11 A3000 RMK AO2 RAE0657 P0000=
202310030715 SPECI KBLI 030715Z AUTO 31005KT 3SM BR BKN006 OVC015 12/12 A2999 RMK AO2 RAE0657 CIG 003V009 P0000 T01170117=
202310030653 METAR KBLI 030653Z AUTO 33005KT 2SM -RA BR BKN002 OVC013 12/12 A2999 RMK AO2 RAE0556B19 CIG 002V006 SLP162 P0003 T01170117=
202310030620 SPECI KBLI 030620Z AUTO 32005KT 1 3/4SM -RA BR BKN003 OVC007 12/12 A2998 RMK AO2 RAE0556B19 P0001 T01170117=
202310030553 METAR KBLI 030553Z AUTO 34003KT 2 1/2SM -RA BR OVC003 12/12 A2996 RMK AO2 RAB20 SLP153 P0001 60010 T01170117 10117 20117 51014=
202310030542 SPECI KBLI 030542Z AUTO 35003KT 2SM -RA BR OVC003 12/12 A2996 RMK AO2 RAB20 P0001 T01170117=
202310030500 SPECI KBLI 030500Z 34005KT 4SM BR OVC003 12/12 A2995 RMK AO2 T01170117=
202310030453 METAR KBLI 030453Z 35003KT 2SM BR OVC003 12/12 A2995 RMK AO2 RAB03E31 SLP149 P0000 T01170117=
202310030353 METAR KBLI 030353Z 01005KT 2SM BR BKN003 BKN012 OVC045 12/12 A2994 RMK AO2 RAE36 SLP146 P0001 T01170117=
202310030337 SPECI KBLI 030337Z 02004KT 2SM BR BKN003 BKN012 OVC036 12/12 A2994 RMK AO2 RAE36 P0000 T01170117=
202310030322 SPECI KBLI 030322Z 03005KT 2SM -RA BR SCT003 BKN012 OVC036 12/12 A2993 RMK AO2 P0000 T01170117=
202310030253 METAR KBLI 030253Z 02006KT 2SM -RA BR OVC003 12/12 A2992 RMK AO2 SLP140 P0002 60008 T01170117 53001=
202310030239 SPECI KBLI 030239Z 03007KT 1 3/4SM -RA BR BKN003 OVC022 12/12 A2992 RMK AO2 P0002 T01170117=
202310030226 SPECI KBLI 030226Z 04005KT 2 1/2SM -RA BR BKN003 OVC023 12/12 A2992 RMK AO2 P0001 T01170117=
202310030211 SPECI KBLI 030211Z 03007KT 3SM -RA BR BKN003 OVC021 12/12 A2992 RMK AO2 P0000 T01170117=
202310030153 METAR KBLI 030153Z 03007KT 2 1/2SM -RA BR BKN004 OVC019 12/11 A2992 RMK AO2 CIG 003V007 SLP139 P0001 T01170111=
202310030053 METAR KBLI 030053Z 04006KT 2SM -RA BR BKN004 BKN021 OVC026 12/11 A2992 RMK AO2 SLP139 P0005 T01170111=
202310030051 SPECI KBLI 030051Z 04007KT 2SM -RA BR BKN004 BKN021 OVC026 12/11 A2992 RMK AO2 P0005=
202310030020 SPECI KBLI 030020Z 03005KT 1 3/4SM -RA BR BKN004 BKN016 OVC021 12/12 A2993 RMK AO2 P0003 T01170117=
202310030000 SPECI KBLI 030000Z 04005KT 2SM -RA BR BKN004 BKN016 OVC022 12/12 A2993 RMK AO2 P0001 T01220117=
202310022353 METAR KBLI 022353Z 04005KT 2SM -RA BR BKN006 BKN011 OVC027 12/12 A2994 RMK AO2 SLP144 P0005 60012 T01220117 10139 20122 56013=
202310022343 SPECI KBLI 022343Z 04004KT 2SM -RA BR BKN006 BKN011 OVC027 12/12 A2994 RMK AO2 P0004 T01220117=
202310022300 SPECI KBLI 022300Z 05006KT 1 1/4SM -RA BR BKN006 BKN011 OVC027 12/12 A2995 RMK AO2 P0001 T01220117=
202310022253 METAR KBLI 022253Z 05005KT 2SM -RA BR BKN006 BKN015 OVC027 12/12 A2995 RMK AO2 RAB03 SLP148 P0002 T01220117=
202310022224 SPECI KBLI 022224Z 03004KT 2SM -RA BR BKN006 BKN014 OVC038 13/12 A2996 RMK AO2 RAB03 CIG 004V011 P0001 T01280117=
202310022222 SPECI KBLI 022222Z 03004KT 2 1/2SM -RA BR BKN006 BKN014 OVC038 12/12 A2996 RMK AO2 RAB03 CIG 004V011 P0001 T01220117=
202310022212 SPECI KBLI 022212Z 01004KT 4SM -RA BR BKN006 BKN014 OVC038 13/12 A2996 RMK AO2 RAB03 P0001 T01280117=
202310022153 METAR KBLI 022153Z 02004KT 8SM SCT006 SCT012 OVC040 13/12 A2996 RMK AO2 SLP151 T01330117=
202310022132 SPECI KBLI 022132Z 01005KT 10SM SCT007 SCT020 BKN035 14/12 A2996 RMK AO2 T01390122=
202310022053 METAR KBLI 022053Z 00000KT 10SM SCT007 SCT020 BKN035 13/11 A2997 RMK AO2 RAE40 SLP157 P0000 60005 T01330111 58014=
202310021953 METAR KBLI 021953Z 00000KT 3SM -RA BR FEW007 BKN015 OVC060 13/11 A3000 RMK AO2 SLP165 P0004 T01280106=
202310021853 METAR KBLI 021853Z 17006KT 7SM -RA BKN037 BKN044 OVC050 13/11 A3001 RMK AO2 RAE26B47 SLP167 P0001 T01280106=
202310021817 SPECI KBLI 021817Z VRB03KT 5SM -RA BR FEW008 SCT012 OVC034 12/11 A3001 RMK AO2 P0000 T01220111=
202310021753 METAR KBLI 021753Z 17007KT 10SM -RA OVC030 12/10 A3002 RMK AO2 SLP171 P0001 60001 T01220100 10128 20111 58000=
202310021653 METAR KBLI 021653Z 19005KT 7SM -RA OVC030 12/10 A3002 RMK AO2 RAB28 SLP172 P0000 T01170100=
202310021553 METAR KBLI 021553Z 20003KT 10SM OVC030 12/10 A3002 RMK AO2 SLP171 T01220100=
202310021550 SPECI KBLI 021550Z 00000KT 10SM OVC030 12/10 A3002 RMK AO2=
202310021453 METAR KBLI 021453Z 14005KT 10SM OVC020 12/09 A3001 RMK AO2 SLP171 T01220094 58006=
202310021353 METAR KBLI 021353Z 18003KT 10SM OVC018 12/09 A3002 RMK AO2 SLP171 T01170094=
202310021253 METAR KBLI 021253Z AUTO 19005KT 10SM OVC025 11/08 A3003 RMK AO2 SLP176 T01110083 $=
202310021153 METAR KBLI 021153Z AUTO 18005KT 10SM OVC028 11/08 A3003 RMK AO2 SLP177 60000 T01110083 10144 20106 56010 $=
202310021121 SPECI KBLI 021121Z AUTO 18010KT 10SM OVC029 11/09 A3003 RMK AO2 T01110089 $=
202310021053 METAR KBLI 021053Z AUTO 18011G18KT 10SM BKN034 OVC041 12/09 A3004 RMK AO2 SLP179 T01170094 $=
202310020953 METAR KBLI 020953Z AUTO 18007G14KT 150V220 10SM OVC046 13/09 A3004 RMK AO2 RAB0858E29 SLP179 P0000 T01280094 $=
202310020853 METAR KBLI 020853Z AUTO 19008KT 10SM OVC055 13/09 A3006 RMK AO2 SLP186 T01330089 53004 $=
202310020753 METAR KBLI 020753Z AUTO 19007KT 10SM OVC070 14/08 A3006 RMK AO2 SLP184 T01440078 401720028 $=
202310020653 METAR KBLI 020653Z AUTO 18006KT 10SM BKN075 OVC100 14/08 A3005 RMK AO2 SLP181 T01390083 $=
202310020553 METAR KBLI 020553Z AUTO 10SM OVC085 11/09 A3005 RMK AO2 SLP183 T01060089 10161 20078 58002 $=
202310020453 METAR KBLI 020453Z 00000KT 10SM CLR 08/08 A3007 RMK AO2 SLP190 T00830078 $=
202310020353 METAR KBLI 020353Z 20003KT 10SM CLR 09/09 A3006 RMK AO2 SLP188 T00940089 $=
202310020253 METAR KBLI 020253Z 00000KT 10SM CLR 10/00 A3006 RMK AO2 SLP186 T01000000 58003 $=
202310020153 METAR KBLI 020153Z 00000KT 10SM CLR 11/09 A3007 RMK AO2 SLP190 T01110089 $=
202310020053 METAR KBLI 020053Z 22003KT 10SM CLR 14/09 A3007 RMK AO2 SLP189 T01390089 $=
202310012353 METAR KBLI 012353Z 18004KT 10SM CLR 16/08 A3006 RMK AO2 SLP187 T01610078 10172 20128 56012 $=
202310012253 METAR KBLI 012253Z VRB03KT 10SM CLR 16/11 A3007 RMK AO2 SLP191 T01610106 $=
202310012153 METAR KBLI 012153Z VRB04KT 10SM CLR 16/08 A3008 RMK AO2 SLP194 T01610083=
202310012053 METAR KBLI 012053Z 31006KT 10SM CLR 16/09 A3010 RMK AO2 SLP199 T01560094 58015=
202310011953 METAR KBLI 011953Z 30007KT 10SM CLR 14/09 A3012 RMK AO2 SLP205 T01440094=
202310011853 METAR KBLI 011853Z 33005KT 10SM CLR 15/08 A3013 RMK AO2 SLP209 T01500078=
202310011753 METAR KBLI 011753Z 00000KT 10SM CLR 13/08 A3014 RMK AO2 SLP214 T01280078 10128 20028 58002=
202310011653 METAR KBLI 011653Z 01004KT 10SM CLR 11/07 A3014 RMK AO2 SLP215 T01060072=
202310011553 METAR KBLI 011553Z 35003KT 10SM CLR 09/08 A3015 RMK AO2 SLP219 T00890078=
202310011453 METAR KBLI 011453Z 00000KT 10SM CLR 04/04 A3015 RMK AO2 SLP217 T00390039 53005=
202310011422 SPECI KBLI 011422Z 00000KT 10SM R16/2600VP6000FT FEW002 04/04 A3015 RMK AO2 T00390039=
202310011353 METAR KBLI 011353Z 00000KT 10SM R16/2600VP6000FT CLR 04/04 A3015 RMK AO2 SLP216 T00390039=
202310011350 SPECI KBLI 011350Z 00000KT 10SM R16/5500VP6000FT CLR 04/04 A3014 RMK AO2=
202310011337 SPECI KBLI 011337Z 00000KT 1 3/4SM R16/2200VP6000FT BR CLR 04/04 A3014 RMK AO2 VIS 3/4V5 T00390039=
202310011327 SPECI KBLI 011327Z AUTO 00000KT 4SM BR CLR 06/06 A3014 RMK AO2 T00560056=
202310011314 SPECI KBLI 011314Z AUTO 00000KT 2 1/2SM BR CLR 05/05 A3014 RMK AO2 VIS 1 3/4V4 T00500050=
202310011300 SPECI KBLI 011300Z AUTO 00000KT 3SM R16/3500VP6000FT BR CLR 03/03 A3014 RMK AO2 T00330033=
202310011253 METAR KBLI 011253Z AUTO 00000KT 1SM R16/3500VP6000FT BR CLR 04/04 A3013 RMK AO2 VIS 1/2V2 1/2 SLP212 T00440044=
202310011251 SPECI KBLI 011251Z AUTO 00000KT 3/4SM R16/P6000FT BR CLR 04/04 A3013 RMK AO2=
202310011250 SPECI KBLI 011250Z AUTO 00000KT 3/4SM R16/P6000FT BR VV002 04/04 A3013 RMK AO2=
202310011244 SPECI KBLI 011244Z AUTO 00000KT 1 1/4SM BR FEW002 04/04 A3013 RMK AO2 VIS 1/2V4 T00390039=
202310011236 SPECI KBLI 011236Z AUTO 00000KT 1SM R16/P6000FT BR VV002 04/04 A3013 RMK AO2 T00390039=
202310011219 SPECI KBLI 011219Z AUTO 00000KT 1/4SM R16/1600V4000FT FG VV002 04/04 A3014 RMK AO2 T00390039=
202310011215 SPECI KBLI 011215Z AUTO 00000KT 1/2SM R16/1600VP6000FT FG CLR 04/04 A3014 RMK AO2 T00390039=
202310011213 SPECI KBLI 011213Z AUTO 00000KT 1 1/4SM R16/2200VP6000FT BR CLR 04/04 A3014 RMK AO2 T00390039=
202310011153 METAR KBLI 011153Z AUTO 00000KT 3SM R16/3000VP6000FT BR CLR 04/04 A3014 RMK AO2 SLP214 T00440044 10072 20039 51004=
202310011053 METAR KBLI 011053Z AUTO 00000KT 5SM R16/5500VP6000FT BR FEW003 04/04 A3014 RMK AO2 SLP213 T00390039=
202310011045 SPECI KBLI 011045Z AUTO 00000KT 2SM R16/2000VP6000FT BR FEW003 04/04 A3014 RMK AO2 T00390039=
202310011041 SPECI KBLI 011041Z AUTO 00000KT 1SM R16/2000VP6000FT BR VV003 04/04 A3014 RMK AO2 T00440044=
202310011034 SPECI KBLI 011034Z AUTO 00000KT 1/2SM R16/3500VP6000FT FG VV002 04/04 A3014 RMK AO2 T00390039=
202310011022 SPECI KBLI 011022Z AUTO 00000KT 1 1/4SM BR SCT002 05/05 A3013 RMK AO2 VIS 1/2V4 T00500050=
202310011019 SPECI KBLI 011019Z AUTO 00000KT 3/4SM R16/P6000FT BR VV002 05/05 A3013 RMK AO2 T00500050=
202310010953 METAR KBLI 010953Z AUTO 00000KT 1/4SM R16/2400V3500FT FG VV001 06/06 A3013 RMK AO2 SLP211 T00560056=
202310010943 SPECI KBLI 010943Z AUTO 00000KT 1/4SM R16/2200V2600FT FG VV001 05/05 A3013 RMK AO2 T00500050=
202310010929 SPECI KBLI 010929Z AUTO 00000KT 1/4SM R16/1200V2000FT FG VV001 05/05 A3013 RMK AO2 T00500050=
202310010910 SPECI KBLI 010910Z AUTO 03003KT M1/4SM R16/0700V3500FT FG VV001 06/06 A3013 RMK AO2 T00560056=
202310010903 SPECI KBLI 010903Z AUTO 00000KT 1/4SM R16/0800V1800FT FG VV001 06/06 A3012 RMK AO2 T00560056=
202310010858 SPECI KBLI 010858Z AUTO 02003KT 1/2SM R16/0800VP6000FT FG VV001 04/04 A3012 RMK AO2 T00440044=
202310010853 METAR KBLI 010853Z AUTO 01003KT 4SM R16/4000VP6000FT BR SCT002 05/05 A3012 RMK AO2 SLP207 T00500050 53006=
202310010849 SPECI KBLI 010849Z AUTO 00000KT 1 1/4SM BR SCT002 05/05 A3012 RMK AO2=
202310010842 SPECI KBLI 010842Z AUTO 00000KT 3/4SM R16/5500VP6000FT BR VV003 04/04 A3012 RMK AO2 T00440044=
202310010839 SPECI KBLI 010839Z AUTO 00000KT 1 3/4SM R16/5500VP6000FT BR FEW002 05/05 A3012 RMK AO2 T00500050=
202310010832 SPECI KBLI 010832Z AUTO 00000KT 7SM R16/4000VP6000FT SCT002 06/06 A3012 RMK AO2 T00610061=
202310010817 SPECI KBLI 010817Z AUTO 00000KT 4SM BR BKN002 06/06 A3012 RMK AO2 T00610061=
202310010815 SPECI KBLI 010815Z AUTO 00000KT 1SM R16/P6000FT BR VV002 06/06 A3012 RMK AO2 T00560056=
202310010803 SPECI KBLI 010803Z AUTO 00000KT 1/4SM R16/1600VP6000FT FG VV002 05/05 A3012 RMK AO2 T00500050=
202310010755 SPECI KBLI 010755Z AUTO 00000KT 1/2SM R16/4500VP6000FT FG VV002 06/06 A3012 RMK AO2 T00560056=
202310010753 METAR KBLI 010753Z AUTO 00000KT 1 1/4SM R16/3500VP6000FT BR CLR 06/06 A3011 RMK AO2 SLP205 T00560056 401670028=
202310010733 SPECI KBLI 010733Z AUTO 00000KT 6SM R16/4000VP6000FT BR CLR 07/06 A3011 RMK AO2 T00670056=
202310010724 SPECI KBLI 010724Z AUTO 00000KT 2SM R16/2600VP6000FT BR CLR 06/06 A3011 RMK AO2 VIS 1V5 T00610056=
202310010653 METAR KBLI 010653Z AUTO 00000KT 3SM BR CLR 07/07 A3011 RMK AO2 SLP203 T00670067=
202310010606 SPECI KBLI 010606Z AUTO 00000KT 8SM CLR 07/07 A3011 RMK AO2 T00720072=
202310010559 SPECI KBLI 010559Z AUTO 00000KT 2SM BR CLR 07/07 A3011 RMK AO2 T00720072=
202310010553 METAR KBLI 010553Z AUTO 00000KT 3/4SM R16/2600VP6000FT BR VV002 07/07 A3010 RMK AO2 VIS 1/4V5 SLP201 T00720072 10150 20061 53010=
202310010551 SPECI KBLI 010551Z AUTO 00000KT 3/4SM R16/1800VP6000FT BR VV002 07/07 A3010 RMK AO2 VIS 1/4V5=
202310010549 SPECI KBLI 010549Z AUTO 00000KT 1 1/4SM R16/1800VP6000FT BR FEW002 06/06 A3010 RMK AO2 VIS 1/4V5=
202310010544 SPECI KBLI 010544Z AUTO 00000KT 3SM R16/1800V4000FT BR CLR 07/07 A3010 RMK AO2 T00670067=
202310010538 SPECI KBLI 010538Z AUTO 00000KT 1 1/4SM R16/2200VP6000FT BR CLR 07/07 A3010 RMK AO2 VIS 1/2V5 T00720072=
202310010526 SPECI KBLI 010526Z AUTO 00000KT 1/2SM R16/5000VP6000FT FG CLR 07/07 A3010 RMK AO2 T00670067=
202310010519 SPECI KBLI 010519Z 00000KT 1 3/4SM BR CLR 07/07 A3010 RMK AO2 VIS 1/2V5 T00670067=
202310010453 METAR KBLI 010453Z 00000KT 10SM CLR 08/07 A3009 RMK AO2 SLP198 T00780072=
202310010448 SPECI KBLI 010448Z 00000KT 10SM CLR 08/08 A3009 RMK AO2=
202310010442 SPECI KBLI 010442Z 00000KT 1 3/4SM BR CLR 07/07 A3009 RMK AO2 VIS 1/2V5 T00720072=
202310010353 METAR KBLI 010353Z 00000KT 9SM CLR 09/09 A3008 RMK AO2 SLP195 T00890089=
202310010253 METAR KBLI 010253Z 00000KT 10SM CLR 09/09 A3007 RMK AO2 SLP192 T00890089 53009=
202310010153 METAR KBLI 010153Z 00000KT 10SM CLR 11/10 A3006 RMK AO2 SLP189 T01110100=
202310010053 METAR KBLI 010053Z 28004KT 10SM FEW080 14/10 A3005 RMK AO2 SLP185 T01390100=

# No short TAF reports from KBLI in databse.

###################################
#  large TAF from KBLI
###################################
202310312326 TAF KBLI 312326Z 0100/0124 VRB02KT P6SM BKN180 FM011000 08005KT
                       6SM BR FEW250 FM011800 01002KT P6SM OVC100=
202310311745 TAF KBLI 311745Z 3118/0118 00000KT P6SM SKC FM312000 VRB02KT P6SM
                       SCT180 FM010600 08002KT 6SM BR FEW250=
202310311136 TAF KBLI 311136Z 3112/0112 00000KT P6SM FEW250
                      TEMPO 3112/3115 3SM BR FEW003 FM311600 VRB02KT
                       P6SM SCT250 FM010600 08002KT 6SM BR FEW250=
202310310524 TAF KBLI 310524Z 3106/0106 00000KT 6SM BR FEW003 FM310900 VRB02KT
                       6SM BCFG SCT002 FM311600 00000KT P6SM SKC=
202310302337 TAF KBLI 302337Z 3100/3124 28006KT P6SM SKC FM310500 VRB03KT P6SM
                       SKC FM310900 VRB02KT 6SM BCFG SCT002 FM311600
                       00000KT P6SM SKC=
202310301720 TAF KBLI 301720Z 3018/3118 00000KT P6SM SKC FM301900 35004KT P6SM
                       SKC FM310400 VRB03KT P6SM SKC FM311000 VRB02KT
                       6SM BCFG SCT002=
202310301127 TAF KBLI 301127Z 3012/3112 00000KT P6SM SKC
                      TEMPO 3012/3016 3SM BR FM301900 35004KT P6SM
                       SKC FM310400 VRB03KT P6SM SKC=
202310300521 TAF KBLI 300521Z 3006/3106 00000KT P6SM SKC FM301200 00000KT P6SM
                       SKC FM301900 01005KT P6SM SKC=
202310292320 TAF KBLI 292320Z 3000/3024 35004KT P6SM SKC FM300300 00000KT P6SM
                       SKC FM301200 00000KT P6SM SKC=
202310291720 TAF KBLI 291720Z 2918/3018 04006KT P6SM SKC FM292000 34006KT P6SM
                       SKC FM300300 00000KT P6SM SKC=
202310291123 TAF KBLI 291123Z 2912/3012 00000KT P6SM SKC FM292000 34006KT P6SM
                       SKC FM300300 00000KT P6SM SKC=
202310290525 TAF KBLI 290525Z 2906/3006 VRB03KT P6SM SKC FM291200 00000KT P6SM
                       SKC=
202310282320 TAF KBLI 282320Z 2900/2924 03004KT P6SM SKC FM290600 VRB03KT P6SM
                       SKC FM291200 00000KT P6SM SKC=
202310281721 TAF KBLI 281721Z 2818/2918 VRB03KT P6SM SKC FM282000 34006KT P6SM
                       SKC FM290100 VRB03KT P6SM SKC=
202310281122 TAF KBLI 281122Z 2812/2912 VRB03KT P6SM SKC FM282000 34006KT P6SM
                       SKC FM290100 VRB03KT P6SM SKC=
202310280520 TAF KBLI 280520Z 2806/2906 VRB03KT P6SM SKC FM282000 36006KT P6SM
                       SKC FM290100 VRB03KT P6SM SKC=
202310280300 KBLI 280300Z 2803/2824 VRB03KT P6SM SKC FM282000 36006KT P6SM SKC=
202310272320 TAF KBLI 272320Z 2800/2824 03015KT P6SM SKC FM280400 VRB03KT P6SM
                       SKC FM281200 00000KT P6SM SKC=
202310271720 TAF KBLI 271720Z 2718/2818 03010G20KT P6SM SKC FM280000 35007KT
                       P6SM SKC FM280400 VRB03KT P6SM SKC=
202310271133 TAF KBLI 271133Z 2712/2812 02008KT P6SM SKC FM280400 VRB03KT P6SM
                       SKC=
202310270540 TAF KBLI 270540Z 2706/2806 02008KT P6SM SKC FM280400 VRB03KT P6SM
                       SKC=
202310262323 TAF KBLI 262323Z 2700/2724 VRB04KT P6SM SKC FM270300 02004KT P6SM
                       SKC FM270900 03006KT P6SM SKC FM271200 02010KT
                       P6SM SKC=
202310261720 TAF KBLI 261720Z 2618/2718 02003KT P6SM SCT060 FM270200 02008KT
                       P6SM SCT250 FM270900 03009KT P6SM SCT250
                       FM271200 02007KT P6SM SKC=
202310261132 TAF KBLI 261132Z 2612/2712 04005KT P6SM SCT200 FM261600 02003KT
                       P6SM SCT060 FM270200 02008KT P6SM SCT250
                       FM270900 03011G18KT P6SM SCT250=
202310260524 TAF KBLI 260524Z 2606/2706 02009KT P6SM SKC FM261000 04005KT P6SM
                       SCT009 FM261600 02003KT P6SM SCT010 SCT060
                       FM262000 36006KT P6SM SCT060 SCT250 FM270200
                       02008KT P6SM SCT250=
202310252320 TAF KBLI 252320Z 2600/2624 04016G24KT P6SM SCT050 BKN200 FM260300
                       02009KT P6SM SKC FM261000 04005KT 6SM BR
                       SCT009 FM261600 05003KT P6SM SCT010=
202310251724 TAF KBLI 251724Z 2518/2618 03015G28KT P6SM BKN050 BKN100 FM252100
                       04014G21KT P6SM BKN090 FM260000 02007KT
                       P6SM SCT050 BKN200 FM260600 02009KT P6SM
                       SCT200 FM261200 04005KT 6SM BR SCT009=
202310251134 TAF KBLI 251134Z 2512/2612 05013G25KT 6SM -RA BR OVC030 FM251400
                       03012G25KT P6SM VCSH SCT020 OVC040 FM251800
                       03014G23KT P6SM BKN050 OVC100 FM260000 36007KT
                       P6SM SCT050 BKN200 FM260600 02005KT P6SM
                       SCT200=
202310250537 TAF KBLI 250537Z 2506/2606 05015G24KT P6SM -RA SCT015 OVC025 FM250900
                       03013G22KT 4SM -RA BR OVC020 FM251400 02012G21KT
                       P6SM VCSH SCT020 OVC040 FM251800 02014G23KT
                       P6SM BKN050 OVC100 FM260000 36007KT P6SM
                       SCT050 BKN200=
202310242324 TAF KBLI 242324Z 2500/2524 06012KT 2SM RA BR OVC030 FM250200 05014G23KT
                       P6SM -RA OVC025 FM250900 03009G20KT P6SM
                       VCSH OVC020 FM251400 02009G18KT P6SM OVC040=
202310241729 TAF KBLI 241729Z 2418/2518 05004KT P6SM -RA OVC050 FM242100 06013G22KT
                       6SM -RA BR OVC035 FM250200 05014G23KT P6SM
                       -RA OVC030 FM251000 03009G20KT P6SM VCSH
                       OVC040=
202310241135 TAF KBLI 241135Z 2412/2512 VRB02KT P6SM VCSH OVC050 FM241600 10009KT
                       P6SM -RA OVC025 FM242100 06013G22KT 6SM
                       -RA BR OVC030 FM250100 05019G28KT P6SM -RA
                       OVC030=
202310240522 TAF KBLI 240522Z 2406/2506 VRB03KT P6SM OVC025 FM241200 VRB03KT
                       P6SM -RA OVC050 FM241800 10009KT P6SM -RA
                       OVC025 FM242100 06013G22KT 6SM -RA BR OVC030
                       FM250100 05019G28KT P6SM -RA OVC030=
202310232330 TAF KBLI 232330Z 2400/2424 20005KT P6SM BKN060 FM240600 20003KT
                       P6SM VCSH OVC025 FM241400 16002KT P6SM -SHRA
                       OVC050 FM241800 15009KT P6SM -RA OVC025=
202310231743 TAF KBLI 231743Z 2318/2418 VRB02KT P6SM BKN025 FM232200 25008KT
                       P6SM VCSH SCT040 BKN100 FM240600 20003KT
                       P6SM VCSH OVC025 FM241400 16002KT P6SM -SHRA
                       OVC050=
202310231133 TAF KBLI 231133Z 2312/2412 00000KT P6SM SCT030 BKN045
                      TEMPO 2314/2316 BKN015 FM231800 21005KT P6SM
                       VCSH BKN030 OVC040 FM232200 25008KT P6SM
                       SCT040 BKN100 FM240600 20003KT P6SM VCSH
                       OVC025=
202310230910 KBLI 230910Z 2309/2406 17004KT P6SM OVC035 FM231200 18004KT P6SM
                       OVC011 FM231800 21006KT P6SM VCSH BKN022
                       OVC040 FM232200 25008KT P6SM SCT040 BKN100=
202310230530 TAF KBLI 230530Z 2306/2406 17003KT P6SM BKN030 FM230900 17004KT
                       P6SM BKN018 FM231200 18004KT P6SM OVC011
                       FM231800 21006KT P6SM VCSH BKN022 OVC040
                       FM232200 25008KT P6SM SCT040 BKN100=
202310222336 TAF KBLI 222336Z 2300/2324 VRB04KT P6SM BKN015
                      TEMPO 2300/2303 SCT020 FM230300 VRB03KT P6SM
                       SCT025 FM230500 17003KT P6SM BKN018 FM230900
                       17004KT P6SM OVC011 FM231800 21006KT P6SM
                       VCSH BKN022 OVC040=
202310221730 TAF KBLI 221730Z 2218/2318 32003KT P6SM OVC008
                      TEMPO 2218/2219 6SM BR OVC005 FM222100 34006KT
                       P6SM BKN025 BKN100 FM222300 VRB04KT P6SM
                       SCT030 SCT200 FM230800 17003KT P6SM BKN015=
202310221134 TAF KBLI 221134Z 2212/2312 00000KT P6SM OVC006 FM221600 VRB03KT
                       P6SM OVC010 FM221800 32003KT P6SM BKN020
                       FM222200 34006KT P6SM SCT025 BKN100 FM230000
                       00000KT P6SM SCT250 FM230900 VRB02KT P6SM
                       SCT025=
202310220906 KBLI 220906Z 2209/2306 00000KT P6SM OVC008 FM221600 VRB03KT P6SM
                       OVC010 FM221800 32003KT P6SM BKN020 FM222200
                       34006KT P6SM SCT025 BKN100=
202310220526 TAF KBLI 220526Z 2206/2306 00000KT P6SM OVC007 FM220800 00000KT
                       6SM BR OVC003 FM221600 VRB03KT P6SM OVC010
                       FM221800 32003KT P6SM BKN020 FM222200 34006KT
                       P6SM SCT025 BKN100=
202310220340 KBLI 220340Z 2204/2224 00000KT P6SM OVC005 FM220800 00000KT 6SM
                       BR OVC003 FM221600 VRB03KT P6SM OVC010 FM221800
                       32003KT P6SM BKN020 FM222200 34006KT P6SM
                       SCT025 BKN100=
202310212332 TAF KBLI 212332Z 2200/2224 32005KT P6SM OVC012 FM220400 00000KT
                       P6SM BKN015 FM220800 00000KT 6SM BR OVC008
                       FM221800 32003KT P6SM BKN020 FM222200 34006KT
                       P6SM SCT025 BKN100=
202310212104 KBLI 212104Z 2121/2218 28005KT P6SM BKN014 BKN200 FM220000 32005KT
                       P6SM BKN017 OVC200 FM220400 00000KT 6SM
                       BR OVC010 FM220800 00000KT 3SM BR OVC005=
202310211729 TAF KBLI 211729Z 2118/2218 00000KT 3SM BR OVC006
                      TEMPO 2118/2120 1SM BR OVC004 FM212000 32004KT
                       P6SM BKN010 BKN200 FM212100 31003KT P6SM
                       SCT014 BKN200 FM220000 32005KT P6SM SCT020
                       BKN120 OVC200 FM220400 00000KT 6SM BR OVC010
                       FM220800 00000KT 3SM BR OVC005=
202310211150 KBLI 211150Z 2112/2212 00000KT 1/4SM FG VV002 FM212100 32004KT
                       P6SM BKN010 FM220000 32005KT P6SM SCT014
                       BKN200 FM220300 00000KT 6SM BR OVC010=
202310211124 TAF KBLI 211124Z 2112/2212 00000KT 1/2SM FG VV002 FM212100 32004KT
                       P6SM BKN010 FM220000 32005KT P6SM SCT014
                       BKN200 FM220300 00000KT 6SM BR OVC010=
202310210941 KBLI 210941Z 2110/2206 00000KT 2SM BR OVC003 FM211800 32004KT P6SM
                       BKN010 FM212000 32005KT P6SM SCT014 BKN200=
202310210650 KBLI 210650Z 2107/2206 VRB03KT P6SM OVC003 FM210900 00000KT 5SM
                       BR OVC003 FM211800 32004KT P6SM BKN010 FM212000
                       32005KT P6SM SCT014 BKN200=
202310210558 KBLI 210558Z 2106/2206 VRB03KT P6SM BKN007 OVC020 FM210900 00000KT
                       5SM BR OVC006 FM211800 32004KT P6SM BKN010
                       FM212000 32005KT P6SM SCT014 BKN200=
202310210520 TAF KBLI 210520Z 2106/2206 VRB03KT P6SM BKN010 OVC020 FM210900
                       00000KT 5SM BR OVC006 FM211800 32004KT P6SM
                       BKN010 FM212000 32005KT P6SM SCT014 BKN200=
202310202326 TAF KBLI 202326Z 2100/2124 30007KT P6SM BKN015 BKN200
                      TEMPO 2101/2105 SCT020 BKN200 FM210500 VRB03KT
                       P6SM BKN010 FM210900 00000KT 5SM BR OVC006
                       FM211800 32004KT P6SM BKN010 FM212000 32005KT
                       P6SM SCT014 BKN200=
202310202116 KBLI 202116Z 2021/2118 31005KT P6SM BKN010 BKN050 FM210000 VRB03KT
                       P6SM SCT020 BKN200 FM211100 VRB03KT 4SM
                       BR BKN006=
202310201720 TAF KBLI 201720Z 2018/2118 VRB04KT P6SM OVC009 FM201900 35004KT
                       P6SM BKN012 BKN040 FM202100 33005KT P6SM
                       SCT020 BKN050 FM210100 VRB03KT P6SM SCT040
                       BKN200 FM211100 VRB03KT 4SM BR BKN006=
202310201422 KBLI 201422Z 2014/2112 VRB05KT P6SM SCT005 OVC010
                      TEMPO 2014/2017 3SM BR BKN005 FM201900 35004KT
                       P6SM BKN015 BKN040 FM210100 VRB03KT P6SM
                       SCT040 BKN250=
202310201120 TAF KBLI 201120Z 2012/2112 VRB03KT 1/2SM FG VV002 FM201400 01007KT
                       1/2SM FG OVC003 FM201900 35004KT P6SM BKN015
                       BKN040 FM210100 VRB03KT P6SM SCT040 BKN250=
202310201011 KBLI 201011Z 2010/2106 VRB03KT 1SM BR OVC001 FM201200 VRB03KT 3SM
                       BR OVC010 FM201900 35004KT P6SM BKN017 BKN040
                       FM210100 VRB03KT P6SM SCT040 BKN250=
202310200520 TAF KBLI 200520Z 2006/2106 18006KT P6SM VCSH BKN050 OVC070 FM200800
                       VRB03KT 5SM BR VCSH OVC015
                      TEMPO 2008/2011 1SM BR OVC005 FM201100 VRB03KT
                       5SM BR VCSH OVC010 FM201900 35004KT P6SM
                       BKN017 BKN040 FM210100 VRB03KT P6SM SCT040
                       BKN250=
202310192324 TAF KBLI 192324Z 2000/2024 18006KT P6SM SCT022 BKN050
                      TEMPO 2000/2003 BKN022 OVC040 FM200300 VRB03KT
                       P6SM VCSH OVC022 FM200700 VRB03KT 5SM BR
                       VCSH OVC015 FM201100 VRB03KT 5SM BR VCSH
                       OVC010 FM201900 35004KT P6SM BKN017 BKN040=
202310191735 TAF KBLI 191735Z 1918/2018 VRB03KT P6SM VCSH BKN035 OVC050
                      TEMPO 1918/1922 5SM -RA BR FM192200 18006KT
                       6SM BR VCSH BKN030 FM200300 VRB03KT 5SM
                       BR VCSH OVC020 FM200700 VRB03KT 5SM BR VCSH
                       OVC012=
202310191120 TAF KBLI 191120Z 1912/2012 18007KT P6SM SCT001 FM191500 18005KT
                       6SM BR SCT015 OVC025 FM191900 18007KT P6SM
                       OVC020 FM200000 19005KT P6SM OVC025 FM200400
                       20003KT 5SM BR OVC025=
202310190523 TAF KBLI 190523Z 1906/2006 VRB03KT P6SM BKN050 OVC070 FM191500
                       18005KT 6SM BR VCSH SCT015 OVC025 FM191900
                       18007KT P6SM VCSH OVC020 FM200000 19005KT
                       P6SM OVC025 FM200400 20003KT 5SM BR OVC025=
202310182330 TAF KBLI 182330Z 1900/1924 03003KT P6SM BKN035 OVC050 FM190500
                       VRB03KT P6SM BKN050 OVC070 FM191500 18005KT
                       6SM BR VCSH SCT015 OVC025 FM191900 18007KT
                       P6SM VCSH OVC020=
202310181723 TAF KBLI 181723Z 1818/1918 04006KT P6SM SCT025 OVC050 FM182200
                       23003KT P6SM BKN035 OVC050 FM190500 VRB03KT
                       P6SM BKN050 OVC070 FM191500 18005KT 6SM
                       BR VCSH SCT015 OVC025=
202310181120 TAF KBLI 181120Z 1812/1912 02005KT P6SM OVC070 FM181500 07009KT
                       P6SM VCSH OVC050 FM181800 18007KT P6SM SCT025
                       OVC040 FM182200 23003KT P6SM BKN025 OVC040
                       FM190300 VRB03KT 6SM BR OVC025=
202310180521 TAF KBLI 180521Z 1806/1906 VRB03KT P6SM VCSH OVC050 FM181100 16008KT
                       P6SM -RA OVC050 FM181800 18007KT P6SM SCT025
                       OVC040 FM182200 23003KT P6SM BKN025 OVC040
                       FM190300 VRB03KT 6SM BR OVC025=
202310172330 TAF KBLI 172330Z 1800/1824 11006KT P6SM -RA BKN050 OVC080 FM180600
                       07006KT P6SM VCSH OVC050 FM181100 16008KT
                       P6SM OVC050 FM181800 18006KT P6SM SCT025
                       OVC040 FM182200 05003KT P6SM BKN025 OVC040=
202310171720 TAF KBLI 171720Z 1718/1818 15005KT P6SM VCSH BKN060 BKN250 FM172200
                       05006KT P6SM -RA BKN040 OVC050 FM180600
                       09006KT P6SM VCSH OVC050 FM181100 15008KT
                       P6SM VCSH OVC050=
202310171120 TAF KBLI 171120Z 1712/1812 17005KT P6SM BKN030 OVC050 FM171800
                       18006KT P6SM VCSH OVC050 FM180100 09006KT
                       P6SM VCSH OVC040
                      PROB30 1801/1806 6SM -RA OVC030 FM180900
                       10004KT P6SM VCSH OVC025=
202310170528 TAF KBLI 170528Z 1706/1806 19005KT P6SM BKN080 OVC100 FM171200
                       17005KT P6SM BKN030 OVC050 FM171800 15005KT
                       P6SM VCSH OVC050 FM180100 VRB04KT P6SM VCSH
                       OVC040
                      PROB30 1801/1806 6SM -RA OVC030=
202310162332 TAF KBLI 162332Z 1700/1724 20009G18KT P6SM VCTS BKN015 OVC030CB
                       FM170100 19007KT P6SM VCSH BKN050 OVC070
                       FM171200 17005KT P6SM VCSH BKN025 OVC050
                       FM171800 15005KT P6SM VCSH OVC050=
202310161737 TAF KBLI 161737Z 1618/1718 18014G30KT P6SM -SHRA SCT020 OVC040
                       FM162000 19011G22KT P6SM -SHRA BKN020 OVC030
                       FM170100 21009KT P6SM BKN050 OVC070 FM171200
                       17005KT P6SM VCSH OVC035=
202310161121 TAF KBLI 161121Z 1612/1712 15004KT P6SM OVC070 FM161600 16008KT
                       P6SM -RA OVC050 FM161800 18014G21KT P6SM
                       -RA OVC020 FM162200 18008KT P6SM -SHRA OVC050
                       FM171000 19003KT P6SM OVC030=
202310160522 TAF KBLI 160522Z 1606/1706 03009KT P6SM BKN120 OVC150 FM161100
                       09003KT P6SM OVC070 FM161600 14005KT P6SM
                       -RA OVC050 FM161800 18012G20KT P6SM -RA
                       OVC020 FM162200 18010KT P6SM -SHRA OVC050=
202310160212 KBLI 160212Z 1602/1624 03005KT P6SM -RA SCT040 OVC070 FM160500
                       03009KT P6SM -SHRA OVC070 FM161100 09003KT
                       P6SM OVC070 FM161700 14013KT P6SM -RA OVC050=
202310152320 TAF KBLI 152320Z 1600/1624 03007KT P6SM -RA OVC090 FM160300 03009KT
                       P6SM -SHRA OVC070 FM161100 09003KT P6SM
                       OVC070 FM161700 14013KT P6SM -RA OVC050=
202310151724 TAF KBLI 151724Z 1518/1618 03007KT P6SM OVC090 FM160300 03009KT
                       P6SM -SHRA OVC070 FM161100 11003KT P6SM
                       OVC070 FM161700 14010KT P6SM -RA OVC050=
202310151120 TAF KBLI 151120Z 1512/1612 16010G20KT P6SM SCT040 OVC100 FM151800
                       01004KT P6SM OVC100 FM161100 11003KT P6SM
                       OVC015=
202310150523 TAF KBLI 150523Z 1506/1606 16010G20KT P6SM VCSH SCT070 OVC100 FM150900
                       15006KT P6SM OVC050 FM151200 05005KT P6SM
                       OVC050 FM151800 01004KT P6SM OVC100=
202310142320 TAF KBLI 142320Z 1500/1524 VRB05KT P6SM SCT030 OVC070 FM150200
                       14010KT P6SM -SHRA OVC060 FM150500 15013KT
                       P6SM -SHRA OVC050 FM150900 15006KT P6SM
                       OVC040 FM151200 08005KT P6SM OVC050=
202310141722 TAF KBLI 141722Z 1418/1518 03005KT P6SM OVC070 FM150100 14010KT
                       P6SM -SHRA OVC060 FM150500 15013KT P6SM
                       -SHRA OVC050 FM150900 15006KT P6SM OVC040
                       FM151200 08005KT P6SM OVC050=
202310141130 TAF KBLI 141130Z 1412/1512 14009KT P6SM -SHRA OVC045 FM141500 16006KT
                       P6SM OVC050 FM150100 14010KT P6SM SHRA OVC050
                       FM150900 15006KT P6SM SHRA OVC040=
202310140528 TAF KBLI 140528Z 1406/1506 15013KT P6SM -RA OVC070 FM141000 22004KT
                       P6SM -RA OVC050 FM141500 16006KT P6SM OVC050
                       FM150100 14010KT P6SM VCSH OVC050=
202310132322 TAF KBLI 132322Z 1400/1424 05003KT P6SM BKN250 FM140300 17005KT
                       P6SM OVC100 FM140600 16005KT P6SM -RA OVC045
                       FM140900 14004KT P6SM -SHRA OVC035 FM141500
                       16006KT P6SM OVC050=
202310131722 TAF KBLI 131722Z 1318/1418 03005KT P6SM SCT250 FM132100 05006KT
                       P6SM BKN250 FM140300 17005KT P6SM OVC100
                       FM140600 16005KT P6SM -RA OVC045 FM141100
                       14004KT P6SM OVC030=
202310131339 KBLI 131339Z 1314/1412 00000KT 4SM BR SCT003
                      TEMPO 1314/1316 1SM BR VV002 FM131800 03005KT
                       P6SM SCT250 FM132100 18006KT P6SM BKN250
                       FM140300 17005KT P6SM OVC100 FM140600 16005KT
                       P6SM -RA OVC045=
202310131206 KBLI 131206Z 1312/1412 00000KT 4SM BR SCT003 FM131800 03005KT P6SM
                       SCT250 FM132100 18006KT P6SM BKN250 FM140300
                       17005KT P6SM OVC100 FM140600 16005KT P6SM
                       -RA OVC045=
202310131123 KBLI 131123Z 1311/1412 00000KT 2SM BR SCT003 FM131800 03005KT P6SM
                       SCT250 FM132100 18006KT P6SM BKN250 FM140300
                       17005KT P6SM OVC100 FM140600 16005KT P6SM
                       -RA OVC045=
202310131120 TAF KBLI 131120Z 1312/1412 00000KT 2SM BR BKN003 FM131800 03005KT
                       P6SM SCT250 FM132100 18006KT P6SM BKN250
                       FM140300 17005KT P6SM OVC100 FM140600 16005KT
                       P6SM -RA OVC045=
202310131030 KBLI 131030Z 1311/1406 00000KT P6SM FEW001 FM131200 00000KT 1/2SM
                       FG BKN003 FM131800 03005KT P6SM SCT250 FM132100
                       18006KT P6SM BKN250 FM140300 17005KT P6SM
                       OVC100=
202310130920 KBLI 130920Z 1309/1406 00000KT P6SM FEW250
                      TEMPO 1309/1311 1SM BR VV001 FM131100 00000KT
                       1/2SM FG BKN003 FM131800 03005KT P6SM SCT250
                       FM132100 18006KT P6SM BKN250 FM140300 17005KT
                       P6SM OVC100=
202310130901 KBLI 130901Z 1309/1406 00000KT P6SM FEW250
                      TEMPO 1309/1310 2SM BR FM131000 00000KT 1/2SM
                       FG BKN003 FM131800 03005KT P6SM SCT250 FM132100
                       18006KT P6SM BKN250 FM140300 17005KT P6SM
                       OVC100=
202310130523 TAF KBLI 130523Z 1306/1406 00000KT P6SM FEW250 FM131000 00000KT
                       1/2SM FG BKN003 FM131800 03005KT P6SM SCT250
                       FM132100 18006KT P6SM BKN250 FM140300 17005KT
                       P6SM OVC100=
202310122321 TAF KBLI 122321Z 1300/1324 00000KT P6SM SKC FM130300 03004KT P6SM
                       SKC FM130900 VRB02KT 6SM BR SKC FM131200
                       00000KT 1/2SM FG BKN003 FM131800 03005KT
                       P6SM FEW250=
202310121732 TAF KBLI 121732Z 1218/1318 VRB03KT 6SM BR SCT005 FM121900 02005KT
                       P6SM SKC FM130300 03004KT P6SM SKC FM130900
                       VRB02KT 6SM BR SKC FM131200 00000KT 1/2SM
                       FG BKN003=
202310121600 KBLI 121600Z 1216/1312 00000KT 6SM BR SCT002
                      TEMPO 1216/1217 1SM BR BKN002 FM121700 VRB03KT
                       6SM BR SCT005 FM121900 02005KT P6SM SKC
                       FM130400 03004KT P6SM SKC=
202310121132 TAF KBLI 121132Z 1212/1312 00000KT 6SM BR SCT002
                      TEMPO 1212/1216 2SM BR BKN002 FM121700 VRB03KT
                       6SM BR SCT005 FM121900 02005KT P6SM SKC
                       FM130400 03004KT P6SM SKC=
202310120750 KBLI 120750Z 1208/1306 00000KT 5SM BR SCT002
                      TEMPO 1208/1212 1/2SM FG VV001 FM121200 00000KT
                       1SM BR BKN001 FM121700 00000KT 5SM BR SCT010
                       FM121900 35005KT P6SM SKC=
202310120529 TAF KBLI 120529Z 1206/1306 00000KT P6SM SKC FM121000 00000KT 2SM
                       BR BKN007 FM121700 00000KT 5SM BR SCT010
                       FM121900 35005KT P6SM SKC=
202310112336 TAF KBLI 112336Z 1200/1224 32008KT P6SM SCT035 FM121000 VRB04KT
                       2SM BR SCT004 FM121500 VRB04KT 6SM BR SCT015
                       FM122000 35006KT P6SM SKC=
202310111743 TAF KBLI 111743Z 1118/1218 VRB04KT P6SM OVC060 FM112200 35006KT
                       P6SM SCT050 FM121000 VRB04KT 1SM BR BKN004
                       FM121500 07004KT 6SM BR SCT015=
202310111134 TAF KBLI 111134Z 1112/1212 14010KT P6SM -SHRA BKN050 BKN080 FM111800
                       01006KT P6SM SCT050 SCT100 FM121000 VRB03KT
                       1SM BR BKN002=
202310110533 TAF KBLI 110533Z 1106/1206 11008KT P6SM -SHRA SCT040 OVC050 FM110900
                       09006KT P6SM VCSH SCT030 OVC040 FM112000
                       29003KT P6SM SCT250=
202310102340 TAF KBLI 102340Z 1100/1124 15010G18KT P6SM -SHRA BKN030 OVC050
                       FM110700 13010KT P6SM -SHRA BKN025 OVC040
                       FM111300 10006KT P6SM -SHRA OVC040 FM112000
                       VRB05KT P6SM BKN050=
202310101739 TAF KBLI 101739Z 1018/1118 14008G20KT P6SM -RA SCT025 BKN040 OVC080
                       FM102200 15012G22KT P6SM -SHRA BKN035 OVC050
                       FM110500 14010KT P6SM -SHRA BKN035 OVC050
                       FM111000 13010KT P6SM -SHRA BKN025 OVC040=
202310101125 TAF KBLI 101125Z 1012/1112 15012KT P6SM -RA OVC060 FM101600 15016G26KT
                       P6SM -RA SCT025 OVC040 FM102200 15012KT
                       P6SM -SHRA BKN035 OVC050 FM111000 13010KT
                       P6SM -SHRA BKN025 OVC040=
202310100520 TAF KBLI 100520Z 1006/1106 16008KT P6SM BKN030 OVC050 FM101100
                       14012KT P6SM BKN040 OVC050 FM101600 15014G22KT
                       P6SM -RA FEW025 OVC035 FM102100 15014G23KT
                       P6SM -SHRA BKN035 OVC050=
202310092320 TAF KBLI 092320Z 1000/1024 16010KT P6SM -SHRA SCT025 BKN045 OVC070
                       FM100600 16008KT P6SM SCT045 OVC070 FM101500
                       16008KT P6SM -RA SCT020 OVC035 FM102100
                       14012G20KT P6SM -SHRA OVC050=
202310091728 TAF KBLI 091728Z 0918/1018 16012KT P6SM BKN120 OVC200 FM092000
                       16012KT P6SM -RA OVC040 FM100000 16010KT
                       P6SM -SHRA SCT025 BKN045 OVC070 FM100600
                       16008KT P6SM SCT045 OVC070 FM101400 16008KT
                       P6SM -RA SCT020 OVC035=
202310091140 TAF KBLI 091140Z 0912/1012 18006KT P6SM SCT120 BKN200 FM091600
                       16012KT P6SM BKN120 OVC200 FM092000 16012KT
                       P6SM -RA OVC040 FM100000 16010KT P6SM SCT025
                       BKN045 OVC070 FM100800 16008KT P6SM SCT045
                       OVC070 FM101100 16008KT P6SM -RA SCT020
                       OVC035=
202310090521 TAF KBLI 090521Z 0906/1006 00000KT P6SM BKN200 FM091100 16005KT
                       P6SM BKN100 FM091700 16007KT P6SM -RA OVC050
                       FM092100 16008KT P6SM -RA OVC025 FM100000
                       17005KT P6SM OVC050=
202310082320 TAF KBLI 082320Z 0900/0924 18006KT P6SM SKC FM091100 16008KT P6SM
                       BKN100 FM091700 16007KT P6SM -RA OVC050=
202310081731 TAF KBLI 081731Z 0818/0918 18006KT P6SM SKC FM091100 16008KT P6SM
                       BKN100=
202310081136 TAF KBLI 081136Z 0812/0912 00000KT P6SM SKC FM081800 18006KT P6SM
                       SKC FM091100 16008KT P6SM BKN100 OVC200=
202310080520 TAF KBLI 080520Z 0806/0906 00000KT P6SM SKC
                      TEMPO 0812/0816 1/2SM FG BKN002 FM081800
                       18003KT P6SM SCT250=
202310072342 TAF KBLI 072342Z 0800/0824 24004KT P6SM SCT200 FM080800 00000KT
                       2SM BR FEW002 FM081000 00000KT 1/2SM FG
                       BKN002 FM081500 18003KT P6SM FEW002=
202310071736 TAF KBLI 071736Z 0718/0818 VRB03KT P6SM FEW005 FM072100 24004KT
                       P6SM SCT200 FM080900 18003KT 6SM BR SCT003=
202310071215 KBLI 071215Z 0712/0812 00000KT 4SM BR SCT002
                      TEMPO 0712/0716 1/4SM FG VV001 FM071700 VRB03KT
                       P6SM FEW005 FM072100 24004KT P6SM SCT200
                       FM080900 18003KT 6SM BR SCT003=
202310071127 TAF KBLI 071127Z 0712/0812 00000KT 4SM BR SCT002
                      TEMPO 0712/0716 1/2SM FG VV001 FM071700 VRB03KT
                       P6SM FEW005 FM072100 24004KT P6SM SCT200
                       FM080900 18003KT 6SM BR SCT003=
202310070821 KBLI 070821Z 0708/0806 00000KT 6SM BR FEW002
                      TEMPO 0709/0713 1/2SM FG VV001 FM071700 VRB03KT
                       P6SM SKC=
202310070520 TAF KBLI 070520Z 0706/0806 VRB03KT P6SM SKC=
202310062320 TAF KBLI 062320Z 0700/0724 VRB03KT P6SM SKC=
202310061720 TAF KBLI 061720Z 0618/0718 35003KT P6SM SKC FM062000 32005KT P6SM
                       SKC FM070300 VRB02KT P6SM SKC FM071200 VRB02KT
                       6SM BCFG FEW002 FM071700 27004KT P6SM SKC=
202310061458 KBLI 061458Z 0615/0712 00000KT P6SM SCT001 FM061600 VRB03KT P6SM
                       SKC FM062000 34005KT P6SM SKC FM070300 VRB02KT
                       P6SM SKC=
202310061120 TAF KBLI 061120Z 0612/0712 00000KT 6SM BR SCT001
                      TEMPO 0612/0615 1/4SM FG VV001 FM061600 VRB03KT
                       P6SM SKC FM062000 34005KT P6SM SKC FM070300
                       VRB02KT P6SM SKC=
202310061056 KBLI 061056Z 0611/0706 00000KT 6SM BR SCT001
                      TEMPO 0611/0614 1 1/2SM BR BKN001 FM061600
                       35004KT P6SM SKC FM070200 VRB02KT P6SM SKC=
202310060914 KBLI 060914Z 0609/0706 00000KT 6SM BR SKC
                      TEMPO 0609/0613 1 1/2SM BR SCT001 FM061600
                       35004KT P6SM SKC FM070200 VRB02KT P6SM SKC=
202310060522 TAF KBLI 060522Z 0606/0706 00000KT P6SM SKC FM061000 00000KT 6SM
                       BR SCT002 FM061600 35004KT P6SM SKC FM070200
                       VRB02KT P6SM SKC=
202310052320 TAF KBLI 052320Z 0600/0624 31009KT P6SM SKC FM060300 VRB02KT P6SM
                       SKC FM060500 VRB03KT 6SM BCFG SCT002 FM061700
                       30004KT P6SM SKC=
202310051752 KBLI 051752Z 0518/0618 VRB02KT 4SM BR OVC010 FM051900 36004KT P6SM
                       SCT035 FM052100 35007KT P6SM SKC FM060500
                       VRB03KT 6SM BCFG SCT002 FM061700 30004KT
                       P6SM SKC=
202310051720 TAF KBLI 051720Z 0518/0618 VRB02KT 2SM BR OVC006 FM051900 36004KT
                       P6SM SCT035 FM052100 35007KT P6SM SKC FM060500
                       VRB03KT 6SM BCFG SCT002 FM061700 30004KT
                       P6SM SKC=
202310051632 KBLI 051632Z 0517/0612 VRB02KT 2SM BR OVC002 FM051800 36004KT P6SM
                       SCT035 FM052100 35007KT P6SM SKC FM060400
                       VRB03KT P6SM SKC=
202310051613 KBLI 051613Z 0516/0612 VRB02KT 6SM BR FEW002 OVC035
                      TEMPO 0516/0517 2SM BR OVC002 FM051700 36004KT
                       P6SM SCT035 FM052100 35007KT P6SM SKC FM060400
                       VRB03KT P6SM SKC=
202310051524 KBLI 051524Z 0515/0612 VRB02KT 6SM BR FEW002 OVC035
                      TEMPO 0515/0517 3/4SM BR VV002 FM051700 36004KT
                       P6SM SCT035 FM052100 35007KT P6SM SKC FM060400
                       VRB03KT P6SM SKC=
202310051455 KBLI 051455Z 0515/0612 VRB02KT 6SM BR FEW002 OVC035
                      TEMPO 0515/0517 1/4SM FG VV002 FM051700 36004KT
                       P6SM SCT035 FM052100 35007KT P6SM SKC FM060400
                       VRB03KT P6SM SKC=
202310051453 KBLI 051453Z 0515/0612 VRB02KT 6SM BR FEW002 OVC035
                      TEMPO 0515/0517 1/4SM FG BKN001 FM051700
                       36004KT P6SM SCT035 FM052100 35007KT P6SM
                       SKC FM060400 VRB03KT P6SM SKC=
202310051325 KBLI 051325Z 0513/0612 VRB02KT 6SM BR FEW002 OVC035
                      TEMPO 0513/0515 1/2SM FG BKN001 FM051700
                       36004KT P6SM SCT035 FM052100 35007KT P6SM
                       SKC FM060400 VRB03KT P6SM SKC=
202310051124 TAF KBLI 051124Z 0512/0612 VRB02KT 6SM BR FEW013 OVC030 FM051700
                       36004KT P6SM SCT035 FM052100 35007KT P6SM
                       SKC FM060400 VRB03KT P6SM SKC=
202310050534 TAF KBLI 050534Z 0506/0606 00000KT P6SM SCT015 OVC035 FM050800
                       00000KT 3SM BR BKN010 FM051200 VRB02KT 2SM
                       BR OVC002 FM051600 VRB03KT 6SM BR BKN007
                       FM052100 34005KT P6SM SCT040 FM060000 31003KT
                       P6SM FEW250=
202310042320 TAF KBLI 042320Z 0500/0524 18004KT P6SM SCT008 OVC013 FM050400
                       05002KT 5SM BR OVC009 FM050900 VRB03KT 5SM
                       BCFG SCT010 SCT200 FM051200 35002KT 4SM
                       BCFG OVC003 FM051600 35003KT 6SM BR BKN007
                       FM052100 34004KT P6SM FEW250=
202310042100 KBLI 042100Z 0421/0518 27004KT 4SM BR BKN003 OVC020 FM042200 18004KT
                       P6SM SCT040 SCT200 FM050900 VRB03KT 5SM
                       BCFG SCT010 SCT200 FM051200 35002KT 4SM
                       BCFG OVC003 FM051600 35003KT 6SM BR BKN007=
202310041726 TAF KBLI 041726Z 0418/0518 VRB04KT 2SM BR OVC003 FM042000 27004KT
                       P6SM OVC020 FM042200 18004KT P6SM SCT040
                       SCT200 FM050900 VRB03KT 5SM BCFG SCT010
                       SCT200 FM051200 35002KT 4SM BCFG OVC003
                       FM051600 35003KT 6SM BR BKN007=
202310041142 TAF KBLI 041142Z 0412/0512 18010G16KT P6SM OVC012 FM041500 18007KT
                       P6SM OVC015 FM041800 VRB04KT P6SM BKN022
                       FM042000 27004KT P6SM BKN035 FM042300 31004KT
                       P6SM SCT040 SCT200 FM050900 VRB03KT 5SM
                       BR SCT010 SCT200=
202310040535 TAF KBLI 040535Z 0406/0506 18004KT P6SM FEW060 OVC080 FM041100
                       18005KT 6SM BR OVC020 FM041400 18004KT 2SM
                       BR OVC015 FM041900 17005KT 4SM BR SCT007
                       OVC025 FM050000 20003KT P6SM OVC050=
202310032327 TAF KBLI 032327Z 0400/0424 18006KT P6SM OVC035 FM040600 18003KT
                       P6SM OVC020 FM041100 VRB03KT 6SM BR OVC009
                       FM041400 VRB02KT 2SM BR OVC003 FM041900
                       17003KT 4SM BR SCT007 OVC015=
202310031724 TAF KBLI 031724Z 0318/0418 23003KT P6SM OVC025 FM032300 18005KT
                       P6SM OVC035 FM040600 18003KT P6SM OVC020
                       FM041100 VRB03KT 6SM BR OVC010 FM041400
                       VRB02KT 2SM BR OVC003=
202310031309 KBLI 031309Z 0313/0412 33003KT P6SM SCT005 BKN015
                      TEMPO 0313/0316 3SM BR BKN003 FM031700 23003KT
                       P6SM OVC025 FM032300 18005KT P6SM OVC035
                       FM040600 18003KT P6SM OVC020 FM041100 VRB03KT
                       6SM BR OVC011=
202310031125 TAF KBLI 031125Z 0312/0412 33003KT P6SM OVC015 FM031700 23003KT
                       P6SM OVC025 FM032300 18005KT P6SM OVC035
                       FM040600 18003KT P6SM OVC020 FM041100 VRB03KT
                       6SM BR OVC011=
202310030524 TAF KBLI 030524Z 0306/0406 35004KT 4SM BR OVC003 FM030800 VRB02KT
                       5SM BR OVC005 FM031200 00000KT 1/2SM FG
                       OVC004 FM031700 23003KT 2SM BR OVC006 FM032300
                       18005KT P6SM OVC035=
202310030114 KBLI 030114Z 0301/0324 04006KT 2SM -RA BR BKN004 OVC020 FM030500
                       VRB03KT 4SM BR VCSH OVC010 FM031000 VRB02KT
                       5SM BR OVC009 FM031300 00000KT 1/2SM BCFG
                       OVC004 FM031700 23003KT 2SM BR OVC006=
202310022328 TAF KBLI 022328Z 0300/0324 05004KT 2SM -RA BR BKN006 BKN015 OVC030
                       FM030300 VRB03KT 4SM BR VCSH OVC009 FM031000
                       VRB02KT 5SM BR OVC010 FM031300 00000KT 1/2SM
                       BCFG OVC004 FM031700 23003KT 2SM BR OVC006=
202310021721 TAF KBLI 021721Z 0218/0318 18010KT P6SM -RA OVC030 FM021900 18008KT
                       P6SM VCSH BKN020 OVC030 FM030300 VRB03KT
                       P6SM BKN011 OVC020 FM031000 VRB02KT 6SM
                       BR OVC010 FM031300 00000KT 2SM BR OVC006=
202310021131 TAF KBLI 021131Z 0212/0312 18010KT P6SM -RA BKN020 OVC035 FM021900
                       18008KT P6SM VCSH SCT020 OVC030 FM030300
                       VRB03KT P6SM BKN011 OVC020=
202310020520 TAF KBLI 020520Z 0206/0306 20003KT P6SM BKN150 FM021000 18006KT
                       P6SM BKN030 FM021200 17006KT 4SM BR OVC015
                       FM022100 18007KT P6SM VCSH BKN015 OVC030=
202310012340 TAF KBLI 012340Z 0200/0224 VRB03KT P6SM SKC FM020300 18006KT P6SM
                       SKC FM021200 18006KT P6SM BKN030 FM021330
                       17006KT P6SM -RA OVC030 FM022100 18007KT
                       P6SM VCSH OVC015=
202310011739 TAF KBLI 011739Z 0118/0218 VRB03KT P6SM SKC FM020300 18006KT P6SM
                       SKC FM021200 18006KT P6SM BKN030 FM021330
                       17006KT P6SM -RA OVC030=
202310011458 KBLI 011458Z 0115/0212 00000KT P6SM FEW002
                      TEMPO 0115/0117 2SM BR FM011700 VRB03KT P6SM
                       SKC FM020300 18006KT P6SM SKC FM021000 18006KT
                       P6SM BKN100=
202310011134 TAF KBLI 011134Z 0112/0212 00000KT 5SM BR SCT001 FM011400 00000KT
                       1/2SM FG VV001
                      TEMPO 0116/0117 4SM BR SCT001 FM011700 VRB03KT
                       P6SM SKC FM020300 18006KT P6SM SKC FM021000
                       18006KT P6SM BKN100=
202310010913 KBLI 010913Z 0109/0206 VRB03KT 5SM BR SCT001
                      TEMPO 0109/0113 1/2SM FG BKN001 FM011800
                       31003KT P6SM SCT250=
202310010524 TAF KBLI 010524Z 0106/0206 25003KT P6SM SKC FM010700 01001KT 1SM
                       BR SCT003 FM011800 31003KT P6SM SCT250=