##########################################################
# Query made at 02/16/2025 23:38:18 UTC
# Time interval: from 06/01/2023 00:00  to 06/30/2023 23:59  UTC
##########################################################

##########################################################
# KBLI, Bellingham, Bellingham International Airport (United States)
# WMO index: -----. WIGOS ID: Unknown
# Latitude 48-47-58N. Longitude 122-32-21W. Altitude 48 m.
##########################################################

###################################
#  METAR/SPECI from KBLI
###################################
202306302353 METAR KBLI 302353Z 19006G18KT 10SM CLR 21/14 A3005 RMK AO2 SLP182 T02110144 10233 20183 56012=
202306302253 METAR KBLI 302253Z 19007KT 10SM CLR 22/15 A3006 RMK AO2 SLP185 T02170150=
202306302153 METAR KBLI 302153Z 19007KT 10SM FEW080 22/16 A3007 RMK AO2 SLP187 T02220156=
202306302053 METAR KBLI 302053Z 20005KT 10SM FEW090 22/15 A3009 RMK AO2 SLP193 T02170150 58005=
202306301953 METAR KBLI 301953Z 20007KT 10SM CLR 21/16 A3009 RMK AO2 SLP195 T02110161=
202306301853 METAR KBLI 301853Z 19006KT 10SM CLR 19/16 A3010 RMK AO2 SLP198 T01940161=
202306301753 METAR KBLI 301753Z VRB06KT 10SM CLR 19/15 A3010 RMK AO2 SLP200 T01890150 10189 20139 50001=
202306301653 METAR KBLI 301653Z 20008G15KT 10SM CLR 17/14 A3011 RMK AO2 SLP201 T01670144=
202306301553 METAR KBLI 301553Z 19007KT 10SM CLR 16/14 A3010 RMK AO2 SLP200 T01560139=
202306301453 METAR KBLI 301453Z 19009KT 10SM CLR 15/14 A3010 RMK AO2 SLP199 T01500139 51011=
202306301353 METAR KBLI 301353Z 19005KT 10SM CLR 15/14 A3009 RMK AO2 SLP196 T01500139=
202306301253 METAR KBLI 301253Z AUTO 19007KT 10SM CLR 14/14 A3008 RMK AO2 SLP193 T01440139=
202306301153 METAR KBLI 301153Z AUTO 20007KT 10SM CLR 14/14 A3007 RMK AO2 SLP188 T01440139 10178 20144 51007=
202306301053 METAR KBLI 301053Z AUTO 19005KT 10SM CLR 15/14 A3006 RMK AO2 SLP185 T01500144=
202306300953 METAR KBLI 300953Z AUTO 19007KT 10SM CLR 15/14 A3006 RMK AO2 SLP184 T01500144=
202306300853 METAR KBLI 300853Z AUTO 20007KT 10SM CLR 16/14 A3005 RMK AO2 SLP181 T01560144 53006=
202306300753 METAR KBLI 300753Z AUTO 19008KT 10SM CLR 16/14 A3004 RMK AO2 SLP178 T01610144 402280150=
202306300653 METAR KBLI 300653Z AUTO 19009KT 10SM CLR 17/14 A3004 RMK AO2 SLP177 T01670144=
202306300553 METAR KBLI 300553Z AUTO 18008KT 10SM CLR 18/14 A3003 RMK AO2 SLP175 T01780144 10228 20178 53003=
202306300453 METAR KBLI 300453Z 19008KT 10SM CLR 19/14 A3002 RMK AO2 SLP172 T01890144=
202306300353 METAR KBLI 300353Z 19007KT 10SM CLR 19/15 A3002 RMK AO2 SLP170 T01890150=
202306300253 METAR KBLI 300253Z 20006KT 10SM CLR 21/14 A3002 RMK AO2 SLP172 T02060139 56006=
202306300153 METAR KBLI 300153Z 18005KT 10SM CLR 23/13 A3002 RMK AO2 SLP171 T02280133=
202306300053 METAR KBLI 300053Z 18006KT 10SM CLR 21/13 A3004 RMK AO2 SLP176 T02110128=
202306292353 METAR KBLI 292353Z 19006KT 10SM CLR 22/13 A3004 RMK AO2 SLP177 T02170128 10222 20183 56006=
202306292253 METAR KBLI 292253Z AUTO 19007KT 10SM CLR 22/13 A3004 RMK AO2 SLP178 T02220133=
202306292153 METAR KBLI 292153Z 18009G15KT 10SM CLR 22/14 A3005 RMK AO2 SLP180 T02170144=
202306292053 METAR KBLI 292053Z 20009G16KT 10SM CLR 21/14 A3006 RMK AO2 SLP183 T02110139 56001=
202306291953 METAR KBLI 291953Z 19010G16KT 10SM CLR 21/14 A3006 RMK AO2 SLP183 T02060139=
202306291853 METAR KBLI 291853Z 19010G18KT 150V230 10SM CLR 20/14 A3006 RMK AO2 SLP185 T02000139=
202306291753 METAR KBLI 291753Z 18009G19KT 160V220 10SM CLR 19/14 A3006 RMK AO2 SLP185 T01890139 10189 20150 51005=
202306291653 METAR KBLI 291653Z 19008G16KT 10SM CLR 18/14 A3006 RMK AO2 SLP184 T01780139=
202306291553 METAR KBLI 291553Z 18014G22KT 10SM CLR 16/13 A3005 RMK AO2 SLP182 T01610133=
202306291453 METAR KBLI 291453Z 18011G20KT 10SM FEW070 16/13 A3005 RMK AO2 SLP180 T01560133 53013=
202306291353 METAR KBLI 291353Z 18012G22KT 10SM FEW075 15/13 A3003 RMK AO2 SLP176 T01500133=
202306291253 METAR KBLI 291253Z AUTO 19010G23KT 10SM BKN080 16/13 A3002 RMK AO2 SLP170 T01610133=
202306291153 METAR KBLI 291153Z AUTO 19008G18KT 10SM CLR 17/13 A3001 RMK AO2 SLP166 7//// T01670133 10178 20161 53005=
202306291053 METAR KBLI 291053Z AUTO 18010G17KT 10SM CLR 17/13 A3000 RMK AO2 SLP165 T01670128=
202306290953 METAR KBLI 290953Z AUTO 18005KT 10SM CLR 17/13 A3000 RMK AO2 SLP162 T01670128=
202306290853 METAR KBLI 290853Z AUTO 20008KT 170V230 10SM CLR 17/13 A2999 RMK AO2 SLP161 T01670133 51010=
202306290753 METAR KBLI 290753Z AUTO 19007KT 10SM CLR 17/13 A2999 RMK AO2 SLP161 T01670133 402110133=
202306290653 METAR KBLI 290653Z AUTO 19010KT 10SM CLR 17/13 A2997 RMK AO2 SLP154 T01670133=
202306290553 METAR KBLI 290553Z AUTO 18008KT 10SM CLR 18/13 A2996 RMK AO2 SLP152 T01780133 10211 20178 53004=
202306290453 METAR KBLI 290453Z 18011G20KT 10SM CLR 18/14 A2996 RMK AO2 SLP151 T01780139=
202306290353 METAR KBLI 290353Z 18011G18KT 10SM CLR 18/14 A2995 RMK AO2 SLP146 T01830144=
202306290253 METAR KBLI 290253Z 18010G18KT 10SM CLR 21/16 A2995 RMK AO2 SLP149 T02060156 58002=
202306290153 METAR KBLI 290153Z 18008KT 10SM CLR 21/15 A2996 RMK AO2 SLP152 T02110150=
202306290053 METAR KBLI 290053Z 18010G17KT 10SM CLR 21/14 A2996 RMK AO2 SLP150 T02110139=
202306282353 METAR KBLI 282353Z 20008G17KT 10SM CLR 21/14 A2996 RMK AO2 SLP151 T02060139 10211 20172 56009=
202306282253 METAR KBLI 282253Z 20008KT 160V230 10SM CLR 20/14 A2996 RMK AO2 SLP152 T02000144=
202306282153 METAR KBLI 282153Z 18010KT 10SM CLR 21/15 A2997 RMK AO2 SLP155 T02060150=
202306282053 METAR KBLI 282053Z 19010G15KT 10SM CLR 21/15 A2999 RMK AO2 SLP160 T02060150 58005=
202306281953 METAR KBLI 281953Z 19011KT 10SM CLR 20/15 A3000 RMK AO2 SLP163 T02000150=
202306281853 METAR KBLI 281853Z 19011KT 10SM CLR 18/14 A3000 RMK AO2 SLP165 T01830144 $=
202306281753 METAR KBLI 281753Z 10SM 18/14 A3000 RMK AO2 SLP165 6//// T01780144 10178 20133 53002 $=
202306281653 METAR KBLI 281653Z 18010KT 10SM CLR 17/14 A3000 RMK AO2 SLP164 T01670139 $=
202306281553 METAR KBLI 281553Z 20006KT 10SM CLR 16/13 A3000 RMK AO2 SLP164 T01560133=
202306281453 METAR KBLI 281453Z 18009KT 10SM FEW004 14/13 A2999 RMK AO2 SLP163 T01390128 53014=
202306281424 SPECI KBLI 281424Z 18007KT 10SM FEW004 14/13 A2999 RMK AO2 T01390133=
202306281353 METAR KBLI 281353Z 18009G15KT 10SM CLR 14/13 A2998 RMK AO2 SLP157 T01390133=
202306281253 METAR KBLI 281253Z AUTO 19005KT 10SM CLR 14/13 A2997 RMK AO2 SLP153 T01440133=
202306281153 METAR KBLI 281153Z AUTO 17007KT 10SM CLR 14/13 A2995 RMK AO2 SLP149 7//// T01440133 10167 20144 51011=
202306281053 METAR KBLI 281053Z AUTO 18008KT 10SM CLR 15/13 A2994 RMK AO2 SLP145 T01500133=
202306280953 METAR KBLI 280953Z AUTO 20005KT 10SM CLR 15/14 A2993 RMK AO2 SLP142 T01500139=
202306280853 METAR KBLI 280853Z AUTO 18006KT 10SM CLR 16/13 A2992 RMK AO2 SLP138 T01610133 53001=
202306280753 METAR KBLI 280753Z AUTO 19006KT 10SM CLR 16/13 A2992 RMK AO2 SLP138 T01610133 402060117=
202306280653 METAR KBLI 280653Z AUTO 19004KT 10SM CLR 16/14 A2992 RMK AO2 SLP136 T01610139=
202306280553 METAR KBLI 280553Z AUTO 19006KT 10SM CLR 17/14 A2992 RMK AO2 SLP137 T01670139 10206 20167 53007=
202306280453 METAR KBLI 280453Z 18007KT 10SM CLR 17/14 A2991 RMK AO2 SLP134 T01670139=
202306280353 METAR KBLI 280353Z 20004KT 10SM CLR 18/14 A2989 RMK AO2 SLP129 T01780139=
202306280253 METAR KBLI 280253Z 19007KT 10SM CLR 19/14 A2990 RMK AO2 SLP129 T01940139 55003=
202306280153 METAR KBLI 280153Z 18007KT 10SM CLR 20/13 A2989 RMK AO2 SLP128 T02000133=
202306280053 METAR KBLI 280053Z 19006KT 10SM CLR 20/13 A2990 RMK AO2 SLP129 T02000133=
202306272353 METAR KBLI 272353Z VRB06KT 10SM CLR 20/14 A2990 RMK AO2 SLP132 T02000144 10206 20144 55006=
202306272253 METAR KBLI 272253Z 18008G17KT 10SM CLR 20/14 A2990 RMK AO2 SLP131 T02000144=
202306272153 METAR KBLI 272153Z 21009G17KT 10SM CLR 18/13 A2991 RMK AO2 SLP135 T01830133=
202306272053 METAR KBLI 272053Z 19008G16KT 10SM FEW100 18/14 A2992 RMK AO2 SLP139 T01830139 58010=
202306271953 METAR KBLI 271953Z 19008G17KT 10SM SCT009 17/14 A2994 RMK AO2 SLP143 T01670139=
202306271917 SPECI KBLI 271917Z 19010G17KT 170V240 10SM SCT006 BKN011 16/13 A2995 RMK AO2 T01610133=
202306271911 SPECI KBLI 271911Z 20007G17KT 180V250 10SM BKN006 BKN011 16/13 A2995 RMK AO2 CIG 005V009 T01560133=
202306271853 METAR KBLI 271853Z 20009G15KT 8SM BKN004 OVC008 16/14 A2995 RMK AO2 SLP147 T01610144 $=
202306271753 METAR KBLI 271753Z 18009G15KT 5SM BR OVC004 15/13 A2995 RMK AO2 SLP149 6//// T01500133 10150 20117 $=
202306271653 METAR KBLI 271653Z 19008KT 160V220 5SM BR OVC003 14/13 A2995 RMK AO2 SLP149 T01390128=
202306271553 METAR KBLI 271553Z 18009G17KT 4SM BR OVC003 13/12 A2996 RMK AO2 SLP151 T01280122=
202306271518 SPECI KBLI 271518Z 19006KT 3SM BR OVC002 12/12 A2996 RMK AO2 T01220122=
202306271453 METAR KBLI 271453Z 18010G16KT 1 1/2SM BR OVC002 12/12 A2996 RMK AO2 SLP151 T01220122 53004=
202306271423 SPECI KBLI 271423Z 18007G16KT 3/4SM R16/P6000FT BR OVC002 12/12 A2996 RMK AO2 T01220122=
202306271410 SPECI KBLI 271410Z 18009KT 2SM BR OVC002 12/12 A2996 RMK AO2 T01220122=
202306271353 METAR KBLI 271353Z 18009G15KT 4SM BR OVC002 12/12 A2996 RMK AO2 SLP149 T01220122=
202306271302 SPECI KBLI 271302Z AUTO 18008KT 10SM BKN004 12/12 A2995 RMK AO2 T01220122=
202306271253 METAR KBLI 271253Z AUTO 18007KT 10SM SCT004 12/12 A2995 RMK AO2 SLP146 T01220122=
202306271248 SPECI KBLI 271248Z AUTO 18008KT 10SM FEW004 12/12 A2995 RMK AO2=
202306271153 METAR KBLI 271153Z AUTO 18008KT 10SM CLR 13/12 A2994 RMK AO2 SLP143 T01280122 10167 20128 53005=
202306271053 METAR KBLI 271053Z AUTO 17010G20KT 10SM CLR 13/12 A2993 RMK AO2 SLP140 T01330117=
202306270953 METAR KBLI 270953Z AUTO 18010G19KT 10SM CLR 13/12 A2992 RMK AO2 SLP138 T01330122=
202306270853 METAR KBLI 270853Z AUTO 18012G20KT 10SM CLR 14/12 A2992 RMK AO2 SLP138 T01440122 56001=
202306270753 METAR KBLI 270753Z AUTO 18010G18KT 10SM CLR 16/11 A2992 RMK AO2 SLP139 T01610111 402060128=
202306270653 METAR KBLI 270653Z AUTO 18012G21KT 10SM CLR 16/12 A2992 RMK AO2 SLP138 T01610117=
202306270553 METAR KBLI 270553Z AUTO 18010KT 10SM CLR 17/12 A2992 RMK AO2 SLP139 T01670122 10200 20167 55000=
202306270453 METAR KBLI 270453Z 18008G16KT 10SM CLR 18/13 A2993 RMK AO2 SLP139 T01780128=
202306270353 METAR KBLI 270353Z 18009KT 10SM CLR 18/14 A2992 RMK AO2 SLP138 T01780139=
202306270253 METAR KBLI 270253Z 18009G16KT 10SM CLR 19/13 A2992 RMK AO2 SLP139 T01890133 58013=
202306270153 METAR KBLI 270153Z 18009G16KT 10SM CLR 19/13 A2994 RMK AO2 SLP146 T01890133=
202306270053 METAR KBLI 270053Z 19009KT 10SM CLR 19/12 A2995 RMK AO2 SLP149 T01890122=
202306262353 METAR KBLI 262353Z 18010G17KT 10SM CLR 20/12 A2996 RMK AO2 LTG DSNT E SLP152 T02000122 10206 20144 56015=
202306262253 METAR KBLI 262253Z 19008G17KT 150V220 10SM CLR 20/12 A2997 RMK AO2 SLP155 T02000122=
202306262153 METAR KBLI 262153Z 18009G16KT 10SM CLR 19/12 A2999 RMK AO2 SLP160 T01890122=
202306262053 METAR KBLI 262053Z 19009G16KT 10SM CLR 18/12 A3001 RMK AO2 SLP167 T01780122 57011=
202306261953 METAR KBLI 261953Z 19009G16KT 10SM CLR 17/12 A3002 RMK AO2 SLP171 T01720122=
202306261853 METAR KBLI 261853Z 19011G18KT 10SM CLR 16/12 A3003 RMK AO2 SLP174 T01560122=
202306261753 METAR KBLI 261753Z 20010G19KT 10SM FEW100 15/12 A3004 RMK AO2 SLP178 T01500117 10150 20128 58003=
202306261653 METAR KBLI 261653Z 20011G21KT 10SM SCT100 14/12 A3005 RMK AO2 SLP180 T01440122=
202306261553 METAR KBLI 261553Z 18013G21KT 10SM BKN100 14/12 A3005 RMK AO2 SLP181 T01390122=
202306261453 METAR KBLI 261453Z 18010G17KT 10SM BKN100 14/12 A3005 RMK AO2 SLP181 T01390117 52006=
202306261353 METAR KBLI 261353Z 18009KT 10SM OVC100 13/12 A3004 RMK AO2 SLP179 T01280117=
202306261253 METAR KBLI 261253Z AUTO 19006KT 10SM OVC100 13/12 A3004 RMK AO2 SLP177 T01330117=
202306261153 METAR KBLI 261153Z AUTO 19006KT 10SM SCT100 13/12 A3003 RMK AO2 SLP175 T01280117 10144 20128 53002=
202306261053 METAR KBLI 261053Z AUTO 20006KT 10SM OVC100 13/12 A3002 RMK AO2 SLP173 T01330117=
202306260953 METAR KBLI 260953Z AUTO 18009KT 10SM OVC110 14/12 A3002 RMK AO2 SLP172 T01390117=
202306260853 METAR KBLI 260853Z AUTO 19008KT 10SM CLR 14/12 A3002 RMK AO2 SLP173 T01390117 50001=
202306260753 METAR KBLI 260753Z AUTO 20006KT 10SM CLR 14/12 A3003 RMK AO2 SLP174 T01390122 402330111=
202306260653 METAR KBLI 260653Z AUTO 19006KT 10SM CLR 14/13 A3002 RMK AO2 SLP173 T01440128=
202306260553 METAR KBLI 260553Z AUTO 19006KT 10SM CLR 14/13 A3002 RMK AO2 SLP172 T01440128 10233 20144 53000=
202306260453 METAR KBLI 260453Z 20006KT 10SM CLR 16/13 A3002 RMK AO2 SLP170 T01560128=
202306260353 METAR KBLI 260353Z 18008KT 10SM CLR 17/13 A3001 RMK AO2 SLP168 T01720133=
202306260253 METAR KBLI 260253Z 18005KT 10SM CLR 19/14 A3002 RMK AO2 SLP171 T01940144 55007=
202306260153 METAR KBLI 260153Z 20004KT 10SM FEW080 21/13 A3002 RMK AO2 SLP171 T02060133=
202306260053 METAR KBLI 260053Z 00000KT 10SM FEW080 23/12 A3003 RMK AO2 SLP174 T02330122=
202306252353 METAR KBLI 252353Z VRB03KT 10SM FEW080 23/13 A3004 RMK AO2 SLP178 T02280128 10233 20161 56014=
202306252253 METAR KBLI 252253Z 21005KT 10SM CLR 23/13 A3005 RMK AO2 SLP182 T02280133=
202306252153 METAR KBLI 252153Z VRB03KT 10SM FEW090 22/14 A3006 RMK AO2 SLP186 T02170144=
202306252053 METAR KBLI 252053Z VRB03KT 10SM FEW090 21/14 A3008 RMK AO2 SLP192 T02110144 58012=
202306251953 METAR KBLI 251953Z VRB04KT 10SM CLR 19/14 A3009 RMK AO2 SLP196 T01940144=
202306251853 METAR KBLI 251853Z VRB04KT 10SM CLR 18/14 A3011 RMK AO2 SLP201 T01780139=
202306251753 METAR KBLI 251753Z 17006KT 10SM CLR 17/13 A3012 RMK AO2 SLP204 T01670133 10167 20117 58002=
202306251653 METAR KBLI 251653Z VRB06KT 10SM SCT005 14/13 A3012 RMK AO2 SLP206 T01440128=
202306251553 METAR KBLI 251553Z VRB04KT 9SM BKN005 13/12 A3013 RMK AO2 SLP207 T01330122=
202306251539 SPECI KBLI 251539Z VRB05KT 9SM OVC005 13/12 A3013 RMK AO2 T01330122=
202306251453 METAR KBLI 251453Z 18005KT 9SM OVC004 12/12 A3012 RMK AO2 SLP207 T01220117 53006=
202306251353 METAR KBLI 251353Z 21004KT 9SM BKN004 OVC120 12/12 A3011 RMK AO2 SLP202 T01220122=
202306251308 SPECI KBLI 251308Z AUTO 19005KT 8SM BKN004 OVC120 12/12 A3011 RMK AO2 T01170117=
202306251253 METAR KBLI 251253Z AUTO 19004KT 9SM FEW004 OVC110 12/12 A3011 RMK AO2 SLP202 T01170117=
202306251153 METAR KBLI 251153Z AUTO 19004KT 9SM SCT120 12/12 A3010 RMK AO2 SLP201 T01170117 10139 20111 53003=
202306251053 METAR KBLI 251053Z AUTO 19004KT 10SM BKN120 12/12 A3010 RMK AO2 SLP200 T01170117=
202306250953 METAR KBLI 250953Z AUTO 21003KT 10SM CLR 12/12 A3009 RMK AO2 SLP197 T01220122=
202306250853 METAR KBLI 250853Z AUTO 23004KT 10SM CLR 12/12 A3009 RMK AO2 SLP198 T01170117 52004=
202306250753 METAR KBLI 250753Z AUTO 20003KT 10SM CLR 12/12 A3009 RMK AO2 SLP196 T01220117 401720117=
202306250653 METAR KBLI 250653Z AUTO 00000KT 10SM CLR 12/12 A3009 RMK AO2 SLP195 T01220122=
202306250553 METAR KBLI 250553Z AUTO 19006KT 10SM CLR 14/12 A3008 RMK AO2 SLP193 T01390117 10172 20139 50000=
202306250453 METAR KBLI 250453Z 18005KT 10SM FEW090 14/12 A3009 RMK AO2 SLP194 T01390117=
202306250353 METAR KBLI 250353Z 18003KT 10SM SCT100 15/12 A3008 RMK AO2 SLP192 T01500117=
202306250253 METAR KBLI 250253Z 20005KT 10SM SCT100 16/12 A3008 RMK AO2 SLP192 T01560122 56008=
202306250153 METAR KBLI 250153Z 18004KT 10SM BKN100 16/12 A3008 RMK AO2 SLP193 T01610122=
202306250053 METAR KBLI 250053Z 18006KT 10SM BKN100 16/12 A3009 RMK AO2 SLP196 T01610122=
202306242353 METAR KBLI 242353Z 17005KT 10SM BKN100 16/12 A3011 RMK AO2 SLP201 T01610122 10172 20139 56007=
202306242253 METAR KBLI 242253Z 17008KT 10SM OVC100 16/12 A3011 RMK AO2 SLP202 T01610117=
202306242153 METAR KBLI 242153Z 17007KT 10SM BKN120 17/12 A3011 RMK AO2 SLP203 T01720122=
202306242053 METAR KBLI 242053Z VRB04KT 10SM FEW030 BKN100 16/12 A3013 RMK AO2 SLP208 T01610117 58001=
202306241953 METAR KBLI 241953Z 19007KT 160V230 10SM CLR 16/12 A3013 RMK AO2 SLP210 T01610117=
202306241853 METAR KBLI 241853Z 19008KT 10SM CLR 14/12 A3014 RMK AO2 SLP211 T01440117=
202306241753 METAR KBLI 241753Z VRB06KT 10SM CLR 14/12 A3013 RMK AO2 SLP209 T01440117 10150 20122 53006=
202306241653 METAR KBLI 241653Z 19006KT 10SM CLR 14/12 A3012 RMK AO2 SLP206 T01440117=
202306241553 METAR KBLI 241553Z 18007G15KT 140V210 10SM CLR 14/11 A3011 RMK AO2 SLP203 T01390111=
202306241453 METAR KBLI 241453Z 18007G16KT 160V230 10SM SCT015 13/11 A3011 RMK AO2 SLP202 T01280111 51014=
202306241405 SPECI KBLI 241405Z 18007G16KT 10SM FEW008 12/11 A3010 RMK AO2 T01220111=
202306241353 METAR KBLI 241353Z 18008G15KT 10SM CLR 12/11 A3010 RMK AO2 SLP199 T01220111=
202306241253 METAR KBLI 241253Z AUTO 17010G19KT 10SM FEW095 BKN120 12/11 A3009 RMK AO2 PK WND 15026/1210 SLP194 T01220111=
202306241153 METAR KBLI 241153Z AUTO 17013G22KT 10SM CLR 12/11 A3007 RMK AO2 SLP188 T01220106 10172 20122 51022=
202306241053 METAR KBLI 241053Z AUTO 18016G25KT 10SM CLR 13/11 A3005 RMK AO2 SLP183 T01330106=
202306240953 METAR KBLI 240953Z AUTO 18012G22KT 10SM CLR 15/11 A3004 RMK AO2 PK WND 16026/0856 SLP176 T01500106=
202306240853 METAR KBLI 240853Z AUTO 18014G24KT 10SM CLR 16/09 A3001 RMK AO2 SLP166 T01560094 51010=
202306240753 METAR KBLI 240753Z AUTO 18012KT 10SM CLR 16/09 A3000 RMK AO2 SLP163 T01560089 402330100=
202306240653 METAR KBLI 240653Z AUTO 19006KT 10SM CLR 16/10 A2999 RMK AO2 SLP162 T01610100=
202306240553 METAR KBLI 240553Z AUTO 18008KT 10SM CLR 17/11 A2998 RMK AO2 SLP156 T01720106 10217 20172 51017=
202306240453 METAR KBLI 240453Z 19009KT 10SM CLR 18/11 A2996 RMK AO2 SLP152 T01780106=
202306240353 METAR KBLI 240353Z 19010G19KT 10SM CLR 19/14 A2994 RMK AO2 SLP145 T01890139=
202306240253 METAR KBLI 240253Z 19006KT 10SM FEW100 21/13 A2993 RMK AO2 SLP139 T02110128 53004=
202306240153 METAR KBLI 240153Z 18008KT 10SM FEW100 21/13 A2992 RMK AO2 SLP137 T02110133=
202306240053 METAR KBLI 240053Z 18007G14KT 10SM CLR 22/13 A2991 RMK AO2 SLP135 T02170133=
202306232353 METAR KBLI 232353Z 18008KT 10SM CLR 21/14 A2991 RMK AO2 SLP135 T02060144 10233 20194 57002=
202306232253 METAR KBLI 232253Z 20006KT 10SM CLR 23/15 A2992 RMK AO2 SLP136 T02280150=
202306232153 METAR KBLI 232153Z 17005KT 10SM CLR 23/16 A2992 RMK AO2 SLP137 T02280156=
202306232053 METAR KBLI 232053Z 19005KT 10SM CLR 22/16 A2992 RMK AO2 SLP137 T02220161 50000=
202306231953 METAR KBLI 231953Z 21004KT 10SM CLR 22/15 A2992 RMK AO2 SLP137 T02170150=
202306231853 METAR KBLI 231853Z VRB04KT 10SM CLR 21/14 A2993 RMK AO2 SLP139 T02060144=
202306231753 METAR KBLI 231753Z 20003KT 10SM CLR 21/16 A2992 RMK AO2 SLP137 T02060156 10206 20100 51001=
202306231653 METAR KBLI 231653Z AUTO 00000KT 10SM CLR 20/14 A2992 RMK AO2 SLP136 T02000139=
202306231553 METAR KBLI 231553Z AUTO 15004KT 10SM CLR 17/14 A2992 RMK AO2 SLP137 T01720144=
202306231453 METAR KBLI 231453Z AUTO 16004KT 10SM CLR 16/14 A2992 RMK AO2 SLP135 T01610144 53006=
202306231353 METAR KBLI 231353Z AUTO 00000KT 10SM CLR 14/13 A2991 RMK AO2 SLP133 T01390133=
202306231305 SPECI KBLI 231305Z AUTO 00000KT 10SM CLR 11/11 A2990 RMK AO2 T01110111=
202306231258 SPECI KBLI 231258Z AUTO 00000KT 2SM BR CLR 11/11 A2990 RMK AO2 T01110111=
202306231256 SPECI KBLI 231256Z AUTO 00000KT 3/4SM R16/P6000FT BR CLR 11/11 A2990 RMK AO2 T01110111=
202306231253 METAR KBLI 231253Z AUTO 00000KT 1/4SM R16/P6000FT FG CLR 11/11 A2990 RMK AO2 SLP130 T01060106=
202306231244 SPECI KBLI 231244Z AUTO 00000KT 1/2SM R16/P6000FT FG CLR 11/11 A2990 RMK AO2 T01060106=
202306231242 SPECI KBLI 231242Z AUTO 36003KT 1SM R16/P6000FT BR CLR 10/10 A2990 RMK AO2 VIS 1/4V5 T01000100=
202306231153 METAR KBLI 231153Z AUTO 00000KT 7SM CLR 11/11 A2990 RMK AO2 SLP130 T01060106 10144 20106 56002=
202306231145 SPECI KBLI 231145Z AUTO 00000KT 2 1/2SM BR CLR 11/11 A2990 RMK AO2 T01060106=
202306231141 SPECI KBLI 231141Z AUTO 00000KT 3/4SM R16/3500VP6000FT BR CLR 11/11 A2990 RMK AO2 T01060106=
202306231133 SPECI KBLI 231133Z AUTO 00000KT 1 1/2SM BR CLR 11/11 A2990 RMK AO2 T01110111=
202306231119 SPECI KBLI 231119Z AUTO 00000KT 9SM CLR 12/12 A2990 RMK AO2 T01170117=
202306231109 SPECI KBLI 231109Z AUTO 00000KT 2SM BR CLR 12/12 A2990 RMK AO2 T01170117=
202306231053 METAR KBLI 231053Z AUTO 00000KT 8SM CLR 12/12 A2990 RMK AO2 SLP131 T01170117=
202306231019 SPECI KBLI 231019Z AUTO 00000KT 7SM CLR 12/12 A2990 RMK AO2 T01170117=
202306231012 SPECI KBLI 231012Z AUTO 00000KT 1 1/2SM BR FEW002 11/11 A2990 RMK AO2 T01110111=
202306231004 SPECI KBLI 231004Z AUTO 00000KT 3/4SM R16/P6000FT BR VV002 12/12 A2990 RMK AO2 VIS 1/4V5 T01170117=
202306231002 SPECI KBLI 231002Z AUTO 00000KT 1 1/4SM BR CLR 11/11 A2990 RMK AO2 VIS 1/4V5 T01110111=
202306230953 METAR KBLI 230953Z AUTO 00000KT 9SM CLR 12/12 A2990 RMK AO2 SLP132 T01170117=
202306230853 METAR KBLI 230853Z AUTO 00000KT 8SM CLR 12/12 A2991 RMK AO2 SLP134 T01170117 56004=
202306230753 METAR KBLI 230753Z AUTO 00000KT 10SM CLR 13/13 A2991 RMK AO2 SLP135 T01280128 402330078=
202306230653 METAR KBLI 230653Z AUTO 00000KT 10SM CLR 13/13 A2992 RMK AO2 SLP136 T01330133=
202306230553 METAR KBLI 230553Z AUTO 18003KT 10SM CLR 14/13 A2992 RMK AO2 SLP138 T01440133 10233 20144 53005=
202306230453 METAR KBLI 230453Z 00000KT 10SM FEW100 15/14 A2991 RMK AO2 SLP134 T01500139=
202306230353 METAR KBLI 230353Z 00000KT 10SM FEW100 18/15 A2991 RMK AO2 LTG DSNT E SLP133 T01780150=
202306230338 SPECI KBLI 230338Z 00000KT 10SM FEW100 18/16 A2990 RMK AO2 LTG DSNT E T01830156=
202306230253 METAR KBLI 230253Z 31003KT 10SM FEW100 21/14 A2991 RMK AO2 SLP132 T02110139 56009=
202306230153 METAR KBLI 230153Z 31005KT 10SM FEW090 22/14 A2991 RMK AO2 SLP133 T02170139=
202306230053 METAR KBLI 230053Z 28006KT 10SM CLR 22/13 A2992 RMK AO2 SLP138 T02220128=
202306222353 METAR KBLI 222353Z 30007KT 10SM FEW090 23/14 A2993 RMK AO2 SLP142 T02330139 10233 20194 58020=
202306222253 METAR KBLI 222253Z 30008KT 10SM CLR 22/14 A2996 RMK AO2 SLP150 T02220139=
202306222153 METAR KBLI 222153Z 27007KT 10SM CLR 22/14 A2998 RMK AO2 SLP157 T02220144=
202306222053 METAR KBLI 222053Z 32008G15KT 10SM FEW035 22/15 A2999 RMK AO2 SLP162 T02220150 56019=
202306221953 METAR KBLI 221953Z 30004KT 10SM CLR 22/15 A3001 RMK AO2 SLP168 T02170150=
202306221853 METAR KBLI 221853Z 36005KT 10SM FEW033 21/14 A3003 RMK AO2 SLP174 T02110139=
202306221753 METAR KBLI 221753Z 01005KT 10SM CLR 19/13 A3005 RMK AO2 SLP181 T01940133 10194 20078 58011=
202306221653 METAR KBLI 221653Z 03006KT 10SM CLR 18/13 A3006 RMK AO2 SLP186 T01830133=
202306221553 METAR KBLI 221553Z 02007KT 10SM CLR 16/13 A3007 RMK AO2 SLP189 T01610128=
202306221453 METAR KBLI 221453Z 03006KT 10SM CLR 13/13 A3008 RMK AO2 SLP192 T01280128 57008=
202306221353 METAR KBLI 221353Z 00000KT 7SM CLR 11/11 A3009 RMK AO2 SLP195 T01110111=
202306221341 SPECI KBLI 221341Z 03003KT 5SM BR FEW002 11/11 A3009 RMK AO2 T01060106=
202306221333 SPECI KBLI 221333Z AUTO 36003KT 2SM BR SCT002 10/10 A3009 RMK AO2 T01000100=
202306221327 SPECI KBLI 221327Z AUTO 00000KT 1SM R16/P6000FT BR VV002 10/10 A3009 RMK AO2 T01000100=
202306221323 SPECI KBLI 221323Z AUTO 00000KT 1/2SM R16/2200VP6000FT FG VV002 09/09 A3009 RMK AO2 T00940094=
202306221301 SPECI KBLI 221301Z AUTO 00000KT 1/4SM R16/1400V2400FT FG VV001 09/09 A3010 RMK AO2 T00940094=
202306221253 METAR KBLI 221253Z AUTO 00000KT M1/4SM R16/1000V1400FT FG VV001 09/09 A3010 RMK AO2 SLP198 T00940094=
202306221246 SPECI KBLI 221246Z AUTO 36003KT M1/4SM R16/1000V1400FT FG VV001 09/09 A3010 RMK AO2 T00940094=
202306221228 SPECI KBLI 221228Z AUTO 00000KT 1/4SM R16/1200V2800FT FG VV001 08/08 A3010 RMK AO2 T00830083=
202306221219 SPECI KBLI 221219Z AUTO 00000KT M1/4SM R16/1000V1400FT FG VV001 09/09 A3010 RMK AO2 T00890089=
202306221153 METAR KBLI 221153Z AUTO 00000KT 1/4SM R16/1200V4000FT FG VV001 09/09 A3010 RMK AO2 SLP201 T00890089 10122 20083 58005=
202306221144 SPECI KBLI 221144Z AUTO 00000KT M1/4SM R16/0700V1200FT FG VV001 08/08 A3011 RMK AO2 T00830083=
202306221134 SPECI KBLI 221134Z AUTO 00000KT M1/4SM R16/0500V5500FT FG VV001 09/09 A3011 RMK AO2 T00890089=
202306221123 SPECI KBLI 221123Z AUTO 00000KT 1/2SM R16/2200VP6000FT FG VV001 09/09 A3011 RMK AO2 T00890089=
202306221116 SPECI KBLI 221116Z AUTO 00000KT 1/4SM R16/2000VP6000FT FG VV002 09/09 A3011 RMK AO2 T00890089=
202306221109 SPECI KBLI 221109Z AUTO 00000KT 1/2SM R16/2000VP6000FT FG VV005 09/09 A3011 RMK AO2 T00890089=
202306221104 SPECI KBLI 221104Z AUTO 00000KT 3/4SM R16/2400VP6000FT BR VV004 09/09 A3011 RMK AO2 T00890089=
202306221101 SPECI KBLI 221101Z AUTO 00000KT 1 3/4SM R16/2800VP6000FT BR FEW004 09/09 A3011 RMK AO2 VIS 3/4V5 T00940094=
202306221053 METAR KBLI 221053Z AUTO 00000KT 5SM R16/3000VP6000FT BR SCT004 09/09 A3011 RMK AO2 SLP204 T00940094=
202306221050 SPECI KBLI 221050Z AUTO 00000KT 3SM BR BKN004 09/09 A3011 RMK AO2=
202306221047 SPECI KBLI 221047Z AUTO 00000KT 1SM R16/P6000FT BR VV003 09/09 A3011 RMK AO2=
202306221010 SPECI KBLI 221010Z AUTO 00000KT 1/4SM R16/1200VP6000FT FG VV002 09/09 A3012 RMK AO2 T00940094=
202306221007 SPECI KBLI 221007Z AUTO 00000KT 1/2SM R16/1200VP6000FT FG CLR 09/09 A3012 RMK AO2 T00940094=
202306221002 SPECI KBLI 221002Z AUTO 00000KT 1 1/2SM BR CLR 09/09 A3012 RMK AO2 T00940094=
202306220953 METAR KBLI 220953Z AUTO 00000KT 3SM R16/4500VP6000FT BR FEW002 10/10 A3012 RMK AO2 SLP206 T01000100=
202306220949 SPECI KBLI 220949Z AUTO 00000KT 2 1/2SM R16/1800VP6000FT BR FEW003 10/10 A3012 RMK AO2 VIS 1 1/4V4=
202306220942 SPECI KBLI 220942Z AUTO 00000KT 1 1/2SM R16/1800V5500FT BR FEW003 09/09 A3012 RMK AO2 VIS 1/2V5 T00940094=
202306220933 SPECI KBLI 220933Z AUTO 00000KT 3/4SM R16/2400VP6000FT BR VV002 09/09 A3012 RMK AO2 T00940094=
202306220931 SPECI KBLI 220931Z AUTO 00000KT 1 1/4SM R16/2400VP6000FT BR FEW003 10/10 A3012 RMK AO2 T01000100=
202306220853 METAR KBLI 220853Z AUTO 00000KT 3SM R16/5500VP6000FT BR CLR 10/10 A3012 RMK AO2 SLP207 T01000100 58009=
202306220757 SPECI KBLI 220757Z AUTO 00000KT 4SM BR CLR 12/12 A3013 RMK AO2 T01170117=
202306220753 METAR KBLI 220753Z AUTO 00000KT 1 1/2SM BR CLR 12/12 A3013 RMK AO2 SLP211 T01170117 401890111=
202306220746 SPECI KBLI 220746Z AUTO 00000KT 1 1/2SM BR CLR 11/11 A3013 RMK AO2 T01110111=
202306220653 METAR KBLI 220653Z AUTO 00000KT 10SM CLR 12/12 A3014 RMK AO2 SLP214 T01220122=
202306220553 METAR KBLI 220553Z AUTO 00000KT 10SM CLR 12/11 A3015 RMK AO2 SLP216 T01220111 10189 20117 58001=
202306220453 METAR KBLI 220453Z 00000KT 10SM CLR 13/12 A3016 RMK AO2 SLP219 T01280117=
202306220353 METAR KBLI 220353Z 00000KT 10SM CLR 15/12 A3015 RMK AO2 SLP215 T01500117=
202306220253 METAR KBLI 220253Z 00000KT 10SM CLR 17/11 A3015 RMK AO2 SLP216 T01720111 56013=
202306220153 METAR KBLI 220153Z VRB03KT 10SM CLR 18/11 A3016 RMK AO2 SLP219 T01830111=
202306220053 METAR KBLI 220053Z 19003KT 10SM CLR 18/12 A3018 RMK AO2 SLP224 T01830117=
202306212353 METAR KBLI 212353Z VRB04KT 10SM CLR 18/10 A3019 RMK AO2 SLP229 60000 T01830100 10183 20139 58012=
202306212253 METAR KBLI 212253Z 21003KT 10SM FEW060 17/13 A3021 RMK AO2 RAE2158 SLP235 P0000 T01670128=
202306212153 METAR KBLI 212153Z 17005KT 10SM -RA SCT037 BKN065 OVC120 16/13 A3022 RMK AO2 SLP240 P0000 T01560133=
202306212053 METAR KBLI 212053Z 17004KT 8SM -RA FEW070 OVC090 14/13 A3022 RMK AO2 RAB07 SLP241 P0000 60000 T01440128 56003=
202306211953 METAR KBLI 211953Z VRB05KT 10SM OVC065 16/12 A3023 RMK AO2 SLP242 T01560117=
202306211853 METAR KBLI 211853Z 22005KT 10SM OVC065 14/12 A3022 RMK AO2 SLP241 T01440117=
202306211753 METAR KBLI 211753Z 18003KT 10SM FEW020 OVC060 14/12 A3023 RMK AO2 SLP244 T01440117 10144 20133 53004=
202306211653 METAR KBLI 211653Z 17007KT 10SM SCT020 OVC060 14/12 A3022 RMK AO2 SLP241 T01390122=
202306211600 SPECI KBLI 211600Z 17010KT 10SM SCT020 OVC060 14/12 A3022 RMK AO2 T01440122=
202306211553 METAR KBLI 211553Z 17008KT 10SM BKN020 OVC060 14/12 A3022 RMK AO2 SLP240 T01390122=
202306211453 METAR KBLI 211453Z 18007KT 10SM FEW020 OVC060 14/12 A3022 RMK AO2 SLP240 T01390122 53003=
202306211353 METAR KBLI 211353Z 17006KT 10SM OVC060 14/11 A3021 RMK AO2 SLP236 T01390111=
202306211318 SPECI KBLI 211318Z AUTO 17007KT 10SM SCT027 OVC055 14/12 A3021 RMK AO2 T01390117=
202306211253 METAR KBLI 211253Z AUTO 18006KT 10SM BKN025 OVC055 13/12 A3022 RMK AO2 SLP238 T01330117=
202306211153 METAR KBLI 211153Z AUTO 18005KT 10SM BKN034 OVC049 14/12 A3021 RMK AO2 SLP237 70003 T01390117 10144 20139 58001=
202306211053 METAR KBLI 211053Z AUTO 18008KT 10SM SCT034 OVC045 14/12 A3022 RMK AO2 SLP238 T01390122=
202306210953 METAR KBLI 210953Z AUTO 18008G16KT 10SM FEW015 OVC039 14/12 A3022 RMK AO2 SLP238 T01390122=
202306210853 METAR KBLI 210853Z AUTO 17005KT 10SM OVC055 14/12 A3021 RMK AO2 SLP239 T01390117 56002=
202306210753 METAR KBLI 210753Z AUTO 17006KT 10SM OVC043 14/12 A3022 RMK AO2 SLP239 T01390117 401500106=
202306210704 SPECI KBLI 210704Z AUTO 17006KT 10SM FEW027 BKN043 OVC060 14/12 A3022 RMK AO2 T01440122=
202306210653 METAR KBLI 210653Z AUTO 17005KT 10SM FEW016 BKN027 OVC060 14/12 A3022 RMK AO2 SLP239 T01440122=
202306210633 SPECI KBLI 210633Z AUTO 17004KT 10SM BKN027 BKN045 OVC060 14/12 A3022 RMK AO2 T01440122=
202306210553 METAR KBLI 210553Z AUTO 18003KT 10SM OVC043 14/12 A3022 RMK AO2 SLP241 T01390117 10150 20139 53009=
202306210453 METAR KBLI 210453Z 17005KT 10SM OVC049 14/12 A3021 RMK AO2 SLP238 T01440122=
202306210353 METAR KBLI 210353Z 18005KT 10SM BKN048 14/13 A3020 RMK AO2 SLP232 T01440128=
202306210253 METAR KBLI 210253Z 17005KT 10SM BKN048 OVC110 14/12 A3019 RMK AO2 SLP232 T01440122 53002=
202306210153 METAR KBLI 210153Z 20003KT 10SM SCT050 OVC100 14/12 A3019 RMK AO2 SLP229 T01440122=
202306210053 METAR KBLI 210053Z 18007KT 10SM SCT100 BKN120 15/12 A3018 RMK AO2 SLP228 T01500122=
202306202353 METAR KBLI 202353Z 18005KT 10SM OVC100 15/12 A3019 RMK AO2 SLP230 60001 T01500122 10150 20122 51006=
202306202253 METAR KBLI 202253Z 18005KT 10SM OVC050 15/12 A3018 RMK AO2 SLP228 T01500117=
202306202153 METAR KBLI 202153Z 19005KT 10SM BKN050 OVC090 14/12 A3018 RMK AO2 SLP226 T01440117=
202306202100 SPECI KBLI 202100Z 26003KT 10SM FEW013 OVC080 14/12 A3017 RMK AO2 T01390117=
202306202053 METAR KBLI 202053Z 21004KT 10SM SCT013 BKN025 BKN060 14/12 A3017 RMK AO2 SLP224 60001 T01390117 51013=
202306201953 METAR KBLI 201953Z VRB03KT 10SM BKN013 BKN035 BKN055 14/12 A3016 RMK AO2 SLP220 T01390117=
202306201856 SPECI KBLI 201856Z 16005KT 10SM SCT010 BKN020 BKN050 13/12 A3015 RMK AO2 T01330122=
202306201855 SPECI KBLI 201855Z VRB04KT 10SM SCT012 BKN055 OVC100 13/12 A3015 RMK AO2 T01330122=
202306201853 METAR KBLI 201853Z VRB03KT 10SM BKN012 OVC055 13/12 A3015 RMK AO2 RAE1754B27E41 SLP215 P0001 T01330122=
202306201753 METAR KBLI 201753Z 20005KT 10SM -RA BKN012 BKN022 OVC055 13/12 A3013 RMK AO2 SLP210 P0000 60002 T01280122 10128 20106 51009=
202306201700 METAR KBLI 141653Z 18008G16KT 10SM OVC050 13/09 A3010 RMK AO2 SLP198 T01280089=
202306201653 METAR KBLI 201653Z 22003KT 8SM -RA SCT006 BKN012 BKN017 12/12 A3013 RMK AO2 SLP209 P0001 T01220122=
202306201553 METAR KBLI 201553Z 00000KT 6SM -RA BR BKN005 BKN008 OVC015 12/12 A3012 RMK AO2 SLP205 P0000 T01170117=
202306201455 SPECI KBLI 201455Z 00000KT 5SM -RA BR BKN004 OVC011 12/12 A3010 RMK AO2 P0000 T01170117=
202306201453 METAR KBLI 201453Z 00000KT 6SM -RA BR SCT009 BKN011 OVC015 12/12 A3010 RMK AO2 SLP201 P0001 60001 T01170117 53009=
202306201353 METAR KBLI 201353Z 00000KT 8SM -RA BKN015 OVC025 11/11 A3009 RMK AO2 SLP196 P0000 T01110111=
202306201253 METAR KBLI 201253Z AUTO 00000KT 10SM -RA FEW015 BKN027 OVC041 11/11 A3008 RMK AO2 RAB09 SLP191 P0000 T01060106 $=
202306201251 SPECI KBLI 201251Z AUTO 00000KT 10SM -RA FEW015 BKN027 OVC041 11/11 A3008 RMK AO2 RAB09 P0000 $=
202306201218 SPECI KBLI 201218Z AUTO 00000KT 10SM -RA SCT016 OVC034 11/11 A3007 RMK AO2 RAB09 P0000 T01060106 $=
202306201153 METAR KBLI 201153Z AUTO 00000KT 10SM BKN017 BKN023 OVC027 11/11 A3006 RMK AO2 SLP187 70006 T01060106 10117 20106 51010 $=
202306201053 METAR KBLI 201053Z AUTO 00000KT 10SM BKN022 OVC029 11/11 A3005 RMK AO2 SLP184 T01060106 $=
202306201023 SPECI KBLI 201023Z AUTO 00000KT 10SM BKN031 OVC046 11/11 A3005 RMK AO2 T01110111 $=
202306200953 METAR KBLI 200953Z AUTO 00000KT 10SM OVC028 11/11 A3005 RMK AO2 SLP181 T01110106 $=
202306200853 METAR KBLI 200853Z AUTO 15004KT 10SM OVC028 11/10 A3003 RMK AO2 SLP177 T01110100 51012 $=
202306200823 SPECI KBLI 200823Z AUTO 11003KT 10SM OVC029 11/11 A3003 RMK AO2 T01110106 $=
202306200753 METAR KBLI 200753Z AUTO 00000KT 10SM OVC030 11/11 A3003 RMK AO2 SLP174 T01110106 401330094 $=
202306200653 METAR KBLI 200653Z AUTO 18003KT 10SM FEW018 BKN032 OVC065 12/11 A3001 RMK AO2 SLP169 T01170106 $=
202306200553 METAR KBLI 200553Z AUTO 17007KT 10SM FEW023 BKN034 OVC065 11/10 A3000 RMK AO2 RAE11 SLP166 P0001 60004 T01110100 10128 20111 51014 $=
202306200453 METAR KBLI 200453Z 17005KT 10SM -RA OVC035 12/11 A2999 RMK AO2 SLP163 P0001 T01170111 $=
202306200353 METAR KBLI 200353Z 18005KT 6SM -RA BR SCT018 BKN044 OVC055 12/11 A2997 RMK AO2 SLP155 P0001 T01170106 $=
202306200253 METAR KBLI 200253Z 17006KT 10SM -RA SCT026 BKN044 OVC065 12/11 A2996 RMK AO2 SLP152 P0000 60001 T01220106 53013 $=
202306200153 METAR KBLI 200153Z 17007G14KT 10SM -RA BKN065 OVC075 13/10 A2994 RMK AO2 RAB04E25B48 SLP146 P0000 T01280100 $=
202306200053 METAR KBLI 200053Z 17005KT 8SM SCT020 BKN035 OVC060 13/11 A2993 RMK AO2 RAE51 SLP143 P0001 T01280106 $=
202306192353 METAR KBLI 192353Z 17007KT 7SM -RA BKN033 OVC049 13/11 A2992 RMK AO2 SLP139 P0002 60002 T01280106 10133 20122 53013 $=
202306192253 METAR KBLI 192253Z 18010G16KT 10SM -RA OVC055 13/11 A2991 RMK AO2 SLP134 P0000 T01330106 $=
202306192153 METAR KBLI 192153Z 17013G20KT 10SM -RA OVC055 13/10 A2989 RMK AO2 SLP129 P0000 T01330100 $=
202306192053 METAR KBLI 192053Z 18009G17KT 10SM -RA OVC050 13/09 A2988 RMK AO2 RAE16B39 SLP126 P0000 60000 T01330089 53006 $=
202306191953 METAR KBLI 191953Z 18011G21KT 10SM -RA BKN060 OVC075 13/07 A2987 RMK AO2 RAB50 SLP123 P0000 T01280072 $=
202306191853 METAR KBLI 191853Z 18010G17KT 10SM FEW022 OVC055 12/08 A2987 RMK AO2 SLP122 T01220078 $=
202306191753 METAR KBLI 191753Z 18010G19KT 10SM SCT022 BKN055 OVC075 13/08 A2987 RMK AO2 SLP120 T01280083 10128 20100 52000 $=
202306191653 METAR KBLI 191653Z 17012G19KT 10SM OVC060 12/08 A2986 RMK AO2 SLP118 T01170078 $=
202306191553 METAR KBLI 191553Z 18008G22KT 140V210 10SM SCT017 BKN055 OVC080 11/08 A2987 RMK AO2 SLP121 T01110078 $=
202306191453 METAR KBLI 191453Z 18012KT 10SM SCT017 OVC050 11/08 A2986 RMK AO2 SLP120 T01060078 53007 $=
202306191404 SPECI KBLI 191404Z 19008KT 10SM BKN016 OVC060 11/08 A2986 RMK AO2 T01060078 $=
202306191353 METAR KBLI 191353Z 17009G16KT 10SM SCT017 OVC060 11/08 A2985 RMK AO2 SLP116 T01060083 $=
202306191323 SPECI KBLI 191323Z AUTO 17008G16KT 10SM BKN016 OVC060 11/08 A2985 RMK AO2 T01060083 $=
202306191315 SPECI KBLI 191315Z AUTO 17009KT 10SM SCT016 OVC060 11/08 A2985 RMK AO2 T01060078 $=
202306191304 SPECI KBLI 191304Z AUTO 17009KT 10SM BKN016 OVC060 11/08 A2985 RMK AO2 T01060078 $=
202306191253 METAR KBLI 191253Z AUTO 16008KT 10SM SCT016 BKN060 OVC090 11/08 A2984 RMK AO2 SLP113 T01060078 $=
202306191153 METAR KBLI 191153Z AUTO 16008KT 10SM OVC090 10/07 A2984 RMK AO2 SLP113 7//// T01000072 10106 20094 55001 $=
202306191053 METAR KBLI 191053Z AUTO 17007KT 10SM OVC085 10/07 A2984 RMK AO2 SLP110 T01000072 $=
202306190953 METAR KBLI 190953Z AUTO 16006KT 10SM OVC085 10/07 A2984 RMK AO2 SLP112 T01000072 $=
202306190853 METAR KBLI 190853Z AUTO 17004KT 10SM OVC085 10/07 A2984 RMK AO2 SLP113 T01000072 53000 $=
202306190753 METAR KBLI 190753Z AUTO 15003KT 10SM BKN090 09/07 A2984 RMK AO2 SLP113 T00940067 401610094 $=
202306190653 METAR KBLI 190653Z AUTO 18003KT 10SM FEW044 SCT050 09/07 A2984 RMK AO2 SLP113 T00940067 $=
202306190553 METAR KBLI 190553Z AUTO 17004KT 10SM CLR 11/07 A2984 RMK AO2 SLP113 T01060067 10150 20106 51004 $=
202306190453 METAR KBLI 190453Z 17005KT 10SM CLR 12/07 A2984 RMK AO2 SLP112 T01170072 $=
202306190353 METAR KBLI 190353Z 18005KT 10SM SCT060 12/08 A2984 RMK AO2 SLP110 T01220083 $=
202306190253 METAR KBLI 190253Z 18007KT 10SM SCT060 13/07 A2983 RMK AO2 SLP108 T01330072 53002 $=
202306190153 METAR KBLI 190153Z 18008KT 10SM SCT060 14/08 A2983 RMK AO2 SLP106 T01390083 $=
202306190053 METAR KBLI 190053Z 18009KT 10SM SCT060 14/08 A2983 RMK AO2 SLP107 T01390078 $=
202306182353 METAR KBLI 182353Z 19011G19KT 10SM SCT060 14/08 A2983 RMK AO2 SLP107 60000 T01440078 10161 20128 58003 $=
202306182253 METAR KBLI 182253Z 17010G17KT 10SM CLR 14/07 A2983 RMK AO2 SLP109 T01440067 $=
202306182153 METAR KBLI 182153Z 17009G18KT 10SM SCT060 15/08 A2983 RMK AO2 SLP109 T01500078 $=
202306182053 METAR KBLI 182053Z 18011KT 10SM BKN060 15/08 A2984 RMK AO2 RAE00 SLP110 P0000 60000 T01500078 58001 $=
202306181953 METAR KBLI 181953Z VRB06KT 10SM -RA OVC060 13/09 A2984 RMK AO2 RAB34 SLP112 P0000 T01280089 $=
202306181853 METAR KBLI 181853Z 18007KT 10SM BKN055 BKN075 14/09 A2984 RMK AO2 SLP112 T01440089 $=
202306181753 METAR KBLI 181753Z 17007KT 10SM SCT049 14/09 A2984 RMK AO2 SLP111 6//// T01390094 10139 20100 58003 $=
202306181653 METAR KBLI 181653Z 19008G17KT 10SM FEW019 BKN050 OVC070 12/10 A2985 RMK AO2 SLP113 P0008 T01220100 $=
202306181553 METAR KBLI 181553Z 14004KT 10SM FEW024 BKN043 OVC055 11/10 A2985 RMK AO2 RAE43 SLP115 T01110100 $=
202306181453 METAR KBLI 181453Z 19005KT 10SM RA FEW015 BKN034 OVC045 11/09 A2985 RMK AO2 RAB20 SLP114 P0003 60003 T01060089 53002=
202306181450 SPECI KBLI 181450Z VRB05KT 10SM RA FEW015 BKN034 OVC048 11/09 A2985 RMK AO2 RAB20 P0002=
202306181441 SPECI KBLI 181441Z 17004KT 1 3/4SM +RA BR BKN031 BKN039 OVC050 11/09 A2984 RMK AO2 RAB20 P0001 T01060089=
202306181353 METAR KBLI 181353Z 16006KT 10SM OVC030 11/09 A2984 RMK AO2 SLP113 T01110089=
202306181253 METAR KBLI 181253Z AUTO 19004KT 10SM BKN030 OVC037 11/08 A2984 RMK AO2 SLP112 T01060083=
202306181221 SPECI KBLI 181221Z AUTO 23003KT 10SM OVC030 11/09 A2984 RMK AO2 T01110089=
202306181153 METAR KBLI 181153Z AUTO 18005KT 10SM OVC027 11/09 A2984 RMK AO2 SLP112 60002 70002 T01060094 10111 20106 58002=
202306181053 METAR KBLI 181053Z AUTO 18005KT 10SM OVC024 11/09 A2984 RMK AO2 RAB0958E23 SLP113 P0001 T01060094=
202306181000 SPECI KBLI 181000Z AUTO VRB04KT 10SM -RA BKN029 OVC060 11/10 A2985 RMK AO2 RAB0958 P0000 T01060100=
202306180953 METAR KBLI 180953Z AUTO 18007KT 10SM BKN030 BKN060 OVC090 11/10 A2985 RMK AO2 RAB12E22B29E41 SLP114 P0000 T01060100=
202306180923 SPECI KBLI 180923Z AUTO 18009G16KT 10SM BKN030 OVC038 11/09 A2985 RMK AO2 RAB12E22 P0000 T01060094=
202306180903 SPECI KBLI 180903Z AUTO 17007G17KT 10SM OVC029 11/09 A2985 RMK AO2 T01060094=
202306180853 METAR KBLI 180853Z AUTO 17009KT 10SM BKN031 OVC040 11/09 A2985 RMK AO2 RAB23E52 SLP114 P0001 60001 T01060094 58011=
202306180753 METAR KBLI 180753Z AUTO 16010KT 10SM OVC050 11/08 A2987 RMK AO2 SLP122 T01110078 401720106=
202306180653 METAR KBLI 180653Z AUTO 16009KT 10SM CLR 11/07 A2987 RMK AO2 LTG DSNT NW SLP120 T01060072=
202306180553 METAR KBLI 180553Z AUTO 16008KT 10SM CLR 11/08 A2988 RMK AO2 SLP125 T01110078 10156 20111 56006=
202306180453 METAR KBLI 180453Z 16010KT 10SM FEW060 12/07 A2988 RMK AO2 SLP126 T01170067=
202306180353 METAR KBLI 180353Z 17010G18KT 10SM SCT060 13/07 A2989 RMK AO2 SLP129 T01280067=
202306180253 METAR KBLI 180253Z 17007G17KT 10SM SCT060 13/08 A2990 RMK AO2 SLP132 T01330078 56015=
202306180153 METAR KBLI 180153Z 17015G23KT 10SM SCT060 14/07 A2990 RMK AO2 SLP133 T01390067=
202306180053 METAR KBLI 180053Z 17013G22KT 10SM SCT060 15/08 A2993 RMK AO2 PK WND 16026/0030 SLP141 T01500078=
202306172353 METAR KBLI 172353Z 16015G22KT 10SM SCT050 BKN090 15/08 A2994 RMK AO2 SLP147 T01500078 10172 20144 58011=
202306172253 METAR KBLI 172253Z 17011G23KT 10SM CLR 16/08 A2996 RMK AO2 SLP153 T01560083=
202306172153 METAR KBLI 172153Z 18012G22KT 10SM SCT050 BKN090 17/08 A2996 RMK AO2 SLP151 T01670078=
202306172053 METAR KBLI 172053Z 18015G23KT 10SM BKN090 17/09 A2998 RMK AO2 SLP157 T01670089 58010=
202306171953 METAR KBLI 171953Z 18012G24KT 10SM CLR 17/11 A2999 RMK AO2 SLP161 T01670106=
202306171853 METAR KBLI 171853Z 20012G20KT 10SM SCT065 16/11 A3000 RMK AO2 SLP164 T01560106=
202306171753 METAR KBLI 171753Z 19010G16KT 10SM OVC060 14/11 A3001 RMK AO2 SLP167 T01440106 10144 20122 58006=
202306171653 METAR KBLI 171653Z 19007KT 10SM OVC032 13/10 A3001 RMK AO2 SLP169 T01330100=
202306171553 METAR KBLI 171553Z 18007KT 10SM OVC038 13/10 A3002 RMK AO2 SLP173 T01280100=
202306171517 SPECI KBLI 171517Z 19004KT 10SM OVC038 13/10 A3003 RMK AO2 T01330100=
202306171453 METAR KBLI 171453Z 18005KT 10SM BKN027 OVC038 13/10 A3002 RMK AO2 SLP173 T01330100 58004=
202306171353 METAR KBLI 171353Z 19008KT 10SM OVC027 12/09 A3003 RMK AO2 SLP175 T01220094=
202306171314 SPECI KBLI 171314Z AUTO 18006KT 10SM BKN026 OVC050 12/09 A3003 RMK AO2 T01220094=
202306171253 METAR KBLI 171253Z AUTO 18004KT 10SM OVC050 12/09 A3004 RMK AO2 SLP177 T01220094=
202306171153 METAR KBLI 171153Z AUTO 17004KT 10SM SCT022 OVC047 12/09 A3004 RMK AO2 SLP177 70002 T01220094 10144 20117 58005=
202306171114 SPECI KBLI 171114Z AUTO 17006KT 10SM BKN025 OVC035 12/09 A3005 RMK AO2 T01220094=
202306171053 METAR KBLI 171053Z AUTO 17006KT 10SM SCT034 12/09 A3005 RMK AO2 SLP182 T01220094=
202306170953 METAR KBLI 170953Z AUTO 18005KT 10SM CLR 12/10 A3005 RMK AO2 SLP183 T01220100=
202306170853 METAR KBLI 170853Z AUTO 19005KT 10SM BKN060 13/11 A3005 RMK AO2 SLP183 T01280106 58003=
202306170753 METAR KBLI 170753Z AUTO 16004KT 10SM BKN050 12/11 A3006 RMK AO2 SLP184 T01220111 401830117=
202306170653 METAR KBLI 170653Z AUTO 17003KT 10SM CLR 13/12 A3007 RMK AO2 SLP188 T01330117=
202306170553 METAR KBLI 170553Z AUTO 19006KT 10SM CLR 14/13 A3006 RMK AO2 SLP186 T01440128 10183 20144 58003=
202306170453 METAR KBLI 170453Z 20007KT 10SM CLR 15/13 A3007 RMK AO2 SLP189 T01500133=
202306170353 METAR KBLI 170353Z 19007KT 10SM FEW060 BKN090 16/13 A3007 RMK AO2 SLP187 T01560133=
202306170253 METAR KBLI 170253Z 19009G15KT 10SM FEW040 BKN090 16/13 A3007 RMK AO2 SLP189 T01610133 56013=
202306170153 METAR KBLI 170153Z 19009G16KT 10SM SCT040 BKN070 17/13 A3008 RMK AO2 SLP192 T01720133=
202306170053 METAR KBLI 170053Z 18010G17KT 10SM OVC065 18/13 A3010 RMK AO2 SLP199 T01830128=
202306162353 METAR KBLI 162353Z 18008KT 10SM SCT050 BKN080 18/14 A3011 RMK AO2 SLP202 60002 T01780139 10183 20156 58007=
202306162253 METAR KBLI 162253Z 18009KT 10SM OVC060 17/14 A3012 RMK AO2 RAB04E17 SLP204 P0000 T01720144=
202306162153 METAR KBLI 162153Z 18006KT 8SM FEW043 BKN055 OVC070 17/14 A3013 RMK AO2 RAE09 SLP209 P0001 T01670144=
202306162053 METAR KBLI 162053Z 18004KT 7SM -RA FEW043 OVC055 16/14 A3013 RMK AO2 RAB13 SLP209 P0000 60001 T01610139 56005=
202306161953 METAR KBLI 161953Z 18009KT 10SM FEW039 OVC046 16/13 A3013 RMK AO2 SLP209 P0001 T01610128=
202306161853 SPECI KBLI 161853Z 18005KT 6SM BR FEW012 BKN030 OVC036 16/14 A3014 RMK AO2 RAE36 SLP211 P0000 T01610144=
202306161853 METAR KBLI 161853Z 18005KT 6SM BR FEW012 BKN030 OVC036 16/14 A3014 RMK AO2 RAE36 SLP211 P0000 T01610144=
202306161753 METAR KBLI 161753Z 18007KT 10SM -RA OVC037 16/13 A3015 RMK AO2 RAB31 SLP214 P0000 60000 T01560133 10156 20133 56004=
202306161653 METAR KBLI 161653Z 17010G17KT 10SM OVC035 16/13 A3015 RMK AO2 SLP215 T01560133=
202306161553 METAR KBLI 161553Z 17007KT 10SM BKN032 OVC039 15/13 A3015 RMK AO2 SLP216 T01500133=
202306161453 METAR KBLI 161453Z 18010G16KT 10SM OVC031 14/13 A3016 RMK AO2 SLP218 60000 T01440128 53002=
202306161353 METAR KBLI 161353Z 18008KT 10SM BKN034 OVC042 14/13 A3015 RMK AO2 RAB13E46 SLP216 P0000 T01390133=
202306161340 SPECI KBLI 161340Z 18006KT 3SM -RA BR OVC032 14/13 A3015 RMK AO2 RAB13 P0000 T01390133=
202306161327 SPECI KBLI 161327Z AUTO 18009KT 1 3/4SM -RA BR OVC031 14/13 A3016 RMK AO2 RAB13 P0000 T01390133=
202306161253 METAR KBLI 161253Z AUTO 20007KT 10SM OVC033 14/12 A3015 RMK AO2 SLP216 T01390122=
202306161153 METAR KBLI 161153Z AUTO 19009G17KT 10SM OVC040 14/12 A3015 RMK AO2 SLP216 T01390117 10167 20133 57006=
202306161053 METAR KBLI 161053Z AUTO 18009G17KT 10SM OVC048 14/12 A3016 RMK AO2 SLP218 T01440117=
202306160953 METAR KBLI 160953Z AUTO VRB05KT 10SM OVC055 14/11 A3016 RMK AO2 SLP220 T01440111=
202306160853 METAR KBLI 160853Z AUTO 19010KT 10SM OVC055 14/11 A3017 RMK AO2 SLP222 T01440106 58002=
202306160753 METAR KBLI 160753Z AUTO 19005KT 10SM OVC065 16/11 A3017 RMK AO2 SLP223 T01560106 402000100=
202306160653 METAR KBLI 160653Z AUTO 18007KT 10SM OVC070 17/09 A3018 RMK AO2 SLP225 T01670094=
202306160553 METAR KBLI 160553Z AUTO 18008G20KT 10SM OVC080 17/08 A3018 RMK AO2 SLP224 T01670083 10200 20167 50001=
202306160453 METAR KBLI 160453Z 18009KT 10SM BKN060 OVC085 17/08 A3018 RMK AO2 SLP227 T01670078=
202306160353 METAR KBLI 160353Z 18008G15KT 10SM BKN065 17/09 A3018 RMK AO2 SLP224 T01720094=
202306160253 METAR KBLI 160253Z 18007KT 10SM BKN080 17/11 A3017 RMK AO2 SLP223 T01670106 53003=
202306160153 METAR KBLI 160153Z VRB04KT 10SM BKN100 18/11 A3016 RMK AO2 SLP219 T01830111=
202306160053 METAR KBLI 160053Z VRB05KT 10SM BKN100 BKN120 19/11 A3016 RMK AO2 SLP219 T01940106=
202306152353 METAR KBLI 152353Z VRB05KT 10SM FEW090 19/12 A3016 RMK AO2 SLP220 T01940117 10200 20150 56009=
202306152253 METAR KBLI 152253Z 19007KT 10SM FEW090 19/11 A3017 RMK AO2 SLP222 T01940106=
202306152153 METAR KBLI 152153Z 18010KT 10SM CLR 18/11 A3018 RMK AO2 SLP226 T01830111=
202306152053 METAR KBLI 152053Z 19008KT 170V230 10SM CLR 18/11 A3019 RMK AO2 SLP229 T01830111 51006=
202306151953 METAR KBLI 151953Z 17008KT 10SM CLR 18/11 A3019 RMK AO2 SLP228 T01780111=
202306151853 METAR KBLI 151853Z 19009KT 10SM CLR 16/12 A3018 RMK AO2 SLP226 T01610117=
202306151753 METAR KBLI 151753Z 17009KT 10SM CLR 15/11 A3017 RMK AO2 SLP222 T01500111 10150 20117 50003=
202306151653 METAR KBLI 151653Z 19010G18KT 10SM CLR 14/11 A3018 RMK AO2 SLP226 T01390106=
202306151553 METAR KBLI 151553Z 19009KT 10SM SCT050 13/11 A3018 RMK AO2 SLP227 T01280106=
202306151453 METAR KBLI 151453Z 19009G15KT 10SM SCT060 13/10 A3016 RMK AO2 SLP219 T01280100 53012=
202306151353 METAR KBLI 151353Z 17006KT 10SM FEW060 13/10 A3014 RMK AO2 SLP213 T01280100=
202306151253 METAR KBLI 151253Z AUTO 18007KT 10SM FEW060 12/11 A3013 RMK AO2 SLP210 T01220106=
202306151153 METAR KBLI 151153Z AUTO 19003KT 10SM BKN065 12/10 A3013 RMK AO2 SLP208 T01220100 10139 20100 53005=
202306151053 METAR KBLI 151053Z AUTO 17004KT 10SM CLR 13/10 A3012 RMK AO2 SLP206 T01330100=
202306150953 METAR KBLI 150953Z AUTO 00000KT 10SM SCT065 11/11 A3012 RMK AO2 SLP205 T01110106=
202306150853 METAR KBLI 150853Z AUTO 17003KT 10SM FEW060 13/11 A3011 RMK AO2 SLP203 T01330111 53007=
202306150753 METAR KBLI 150753Z AUTO 00000KT 10SM BKN060 12/11 A3010 RMK AO2 SLP201 T01170106 401830117=
202306150653 METAR KBLI 150653Z AUTO 00000KT 10SM OVC060 14/10 A3009 RMK AO2 SLP197 T01390100=
202306150553 METAR KBLI 150553Z AUTO 00000KT 10SM OVC060 13/11 A3009 RMK AO2 SLP197 T01330106 10183 20133 52007=
202306150453 METAR KBLI 150453Z 18004KT 10SM BKN055 14/11 A3009 RMK AO2 SLP195 T01440106=
202306150353 METAR KBLI 150353Z 18003KT 10SM CLR 14/11 A3008 RMK AO2 SLP192 T01440106=
202306150253 METAR KBLI 150253Z 21003KT 10SM CLR 17/09 A3007 RMK AO2 SLP189 T01670089 55000=
202306150153 METAR KBLI 150153Z 20003KT 10SM CLR 18/08 A3007 RMK AO2 SLP187 T01780083=
202306150053 METAR KBLI 150053Z 16006KT 10SM CLR 18/08 A3007 RMK AO2 SLP189 T01780078=
202306142353 METAR KBLI 142353Z VRB04KT 10SM CLR 18/08 A3007 RMK AO2 SLP188 T01780078 10178 20128 58010=
202306142253 METAR KBLI 142253Z 19007KT 10SM BKN060 17/08 A3009 RMK AO2 SLP194 T01720083=
202306142153 METAR KBLI 142153Z 17005KT 10SM OVC060 16/10 A3010 RMK AO2 SLP200 T01560100=
202306142053 METAR KBLI 142053Z 21007G15KT 10SM OVC055 15/10 A3010 RMK AO2 SLP200 T01500100 58001=
202306141953 METAR KBLI 141953Z 18007KT 160V220 10SM FEW049 OVC060 16/11 A3011 RMK AO2 SLP204 T01560106=
202306141853 METAR KBLI 141853Z VRB05KT 10SM SCT035 OVC042 14/10 A3012 RMK AO2 SLP205 T01390100=
202306141753 METAR KBLI 141753Z 21007KT 180V250 10SM OVC044 13/09 A3010 RMK AO2 SLP200 T01330094 10133 20122 51010=
202306141653 METAR KBLI 141653Z 18008G16KT 10SM OVC050 13/09 A3010 RMK AO2 SLP198 T01280089=
202306141553 METAR KBLI 141553Z 18009G17KT 10SM OVC049 13/08 A3008 RMK AO2 SLP194 T01280083=
202306141453 METAR KBLI 141453Z 18006KT 10SM OVC049 12/08 A3007 RMK AO2 SLP190 T01220083 51010=
202306141353 METAR KBLI 141353Z 17009KT 10SM OVC055 12/08 A3006 RMK AO2 SLP186 T01220083=
202306141253 METAR KBLI 141253Z AUTO 20007KT 10SM FEW029 OVC041 12/09 A3005 RMK AO2 SLP183 T01220094=
202306141153 METAR KBLI 141153Z AUTO 19008KT 10SM BKN049 OVC065 12/09 A3004 RMK AO2 SLP179 70002 T01220094 10133 20111 51009=
202306141053 METAR KBLI 141053Z AUTO 19007KT 10SM BKN042 OVC060 13/10 A3003 RMK AO2 SLP174 T01280100=
202306140953 METAR KBLI 140953Z AUTO 20005KT 10SM FEW036 OVC055 13/10 A3003 RMK AO2 SLP175 T01280100=
202306140853 METAR KBLI 140853Z AUTO 21004KT 10SM FEW034 OVC055 13/10 A3001 RMK AO2 SLP170 T01280100 51013=
202306140753 METAR KBLI 140753Z AUTO 19004KT 10SM FEW034 SCT075 BKN090 12/09 A3000 RMK AO2 SLP167 T01170094 401780111=
202306140653 METAR KBLI 140653Z AUTO 18005KT 10SM SCT075 13/09 A2999 RMK AO2 SLP160 T01280094=
202306140553 METAR KBLI 140553Z AUTO 18006KT 10SM BKN080 13/11 A2997 RMK AO2 SLP157 60001 T01280106 10178 20128 53009=
202306140453 METAR KBLI 140453Z 17005KT 10SM SCT070 BKN090 14/10 A2996 RMK AO2 SLP152 T01390100=
202306140353 METAR KBLI 140353Z 18007KT 10SM OVC055 14/11 A2994 RMK AO2 SLP146 T01440106=
202306140253 METAR KBLI 140253Z 18005KT 10SM BKN055 OVC100 15/12 A2994 RMK AO2 RAB27E43 SLP146 P0001 60001 T01500117 55001=
202306140153 METAR KBLI 140153Z 17011KT 10SM BKN060 16/12 A2993 RMK AO2 SLP142 T01610117=
202306140053 METAR KBLI 140053Z 18011G21KT 10SM SCT060 BKN075 BKN100 16/12 A2994 RMK AO2 SLP145 T01560117=
202306132353 METAR KBLI 132353Z 17012G25KT 10SM FEW060 18/13 A2995 RMK AO2 SLP147 60001 T01780128 10178 20139 55001=
202306132253 METAR KBLI 132253Z 18009KT 10SM BKN065 16/13 A2994 RMK AO2 SLP145 T01610133=
202306132153 METAR KBLI 132153Z 17014G23KT 10SM OVC050 14/13 A2995 RMK AO2 RAB2054E32 SLP148 P0001 T01440128=
202306132151 SPECI KBLI 132151Z 18012G22KT 10SM OVC050 14/13 A2995 RMK AO2 RAB2054E32 P0001=
202306132053 METAR KBLI 132053Z 19009G19KT 170V230 10SM BKN015 BKN040 OVC100 15/12 A2995 RMK AO2 SLP147 T01500122 51002=
202306131953 METAR KBLI 131953Z 17010G21KT 10SM BKN015 BKN040 OVC100 16/13 A2995 RMK AO2 PK WND 16026/1913 SLP147 T01560133=
202306131853 METAR KBLI 131853Z 17012G20KT 10SM SCT016 BKN032 16/13 A2994 RMK AO2 SLP146 T01610128=
202306131753 METAR KBLI 131753Z VRB06G17KT 10SM BKN012 OVC022 15/13 A2994 RMK AO2 SLP145 T01500128 10161 20139 55001=
202306131751 SPECI KBLI 131751Z 19007G17KT 10SM BKN012 OVC022 15/13 A2994 RMK AO2=
202306131743 SPECI KBLI 131743Z 19010G18KT 10SM SCT012 BKN021 15/13 A2993 RMK AO2 T01500128=
202306131653 METAR KBLI 131653Z 18011G18KT 10SM CLR 16/13 A2993 RMK AO2 SLP142 T01610133=
202306131553 METAR KBLI 131553Z 19007G15KT 10SM CLR 15/13 A2994 RMK AO2 SLP145 T01500133=
202306131453 METAR KBLI 131453Z 18010G18KT 10SM CLR 15/13 A2994 RMK AO2 SLP142 T01500128 53012=
202306131353 METAR KBLI 131353Z 19009G17KT 10SM CLR 15/13 A2992 RMK AO2 SLP137 T01500128=
202306131253 METAR KBLI 131253Z AUTO 19008G16KT 10SM CLR 14/13 A2991 RMK AO2 SLP132 T01390128=
202306131153 METAR KBLI 131153Z AUTO 18007G16KT 10SM CLR 14/12 A2990 RMK AO2 SLP130 T01440122 10178 20139 58002=
202306131053 METAR KBLI 131053Z AUTO VRB06KT 10SM CLR 15/12 A2991 RMK AO2 SLP133 T01500122=
202306130953 METAR KBLI 130953Z AUTO 18004KT 10SM CLR 16/12 A2991 RMK AO2 SLP133 T01560122=
202306130853 METAR KBLI 130853Z AUTO 19007KT 10SM CLR 14/13 A2991 RMK AO2 SLP134 T01440128 53004=
202306130753 METAR KBLI 130753Z AUTO 19006KT 10SM CLR 16/13 A2990 RMK AO2 SLP131 T01560133 402500111=
202306130653 METAR KBLI 130653Z AUTO 19006KT 10SM CLR 17/14 A2990 RMK AO2 SLP129 T01720144=
202306130553 METAR KBLI 130553Z AUTO 19004KT 10SM CLR 17/16 A2990 RMK AO2 SLP129 T01720156 10250 20172 56001=
202306130453 METAR KBLI 130453Z 19006KT 10SM CLR 19/14 A2990 RMK AO2 SLP129 T01890144=
202306130353 METAR KBLI 130353Z 18006KT 10SM CLR 20/14 A2990 RMK AO2 SLP128 T02000144=
202306130253 METAR KBLI 130253Z 18004KT 10SM CLR 23/15 A2990 RMK AO2 SLP130 T02280150 56009=
202306130153 METAR KBLI 130153Z 23003KT 10SM CLR 24/15 A2990 RMK AO2 SLP131 T02390150=
202306130053 METAR KBLI 130053Z 00000KT 10SM FEW080 25/14 A2992 RMK AO2 SLP137 T02500144=
202306122353 METAR KBLI 122353Z 28005KT 10SM CLR 24/14 A2993 RMK AO2 SLP140 T02440144 10244 20206 57013=
202306122253 METAR KBLI 122253Z 18006KT 10SM CLR 23/14 A2994 RMK AO2 SLP143 T02280144=
202306122153 METAR KBLI 122153Z 17007KT 10SM CLR 23/16 A2996 RMK AO2 SLP150 T02280161=
202306122053 METAR KBLI 122053Z VRB05KT 10SM CLR 22/16 A2997 RMK AO2 SLP153 T02220156 58011=
202306121953 METAR KBLI 121953Z 22006KT 10SM CLR 22/16 A2998 RMK AO2 SLP159 T02220161=
202306121853 METAR KBLI 121853Z 17010KT 10SM CLR 22/16 A2999 RMK AO2 SLP160 T02220161=
202306121753 METAR KBLI 121753Z VRB05KT 10SM FEW010 21/16 A3000 RMK AO2 SLP164 T02110156 10211 20111 58004=
202306121653 METAR KBLI 121653Z 21004KT 10SM CLR 19/16 A3000 RMK AO2 SLP166 T01940156=
202306121553 METAR KBLI 121553Z 00000KT 10SM CLR 18/15 A3001 RMK AO2 SLP168 T01830150=
202306121453 METAR KBLI 121453Z 17003KT 10SM CLR 17/15 A3001 RMK AO2 SLP168 T01670150 50004=
202306121353 METAR KBLI 121353Z 00000KT 10SM CLR 15/15 A3001 RMK AO2 SLP169 T01500150=
202306121253 METAR KBLI 121253Z AUTO 00000KT 8SM CLR 12/12 A3000 RMK AO2 SLP165 T01170117=
202306121236 SPECI KBLI 121236Z AUTO 00000KT 4SM R16/3500VP6000FT BR CLR 12/12 A3000 RMK AO2 T01170117=
202306121234 SPECI KBLI 121234Z AUTO 00000KT 1SM R16/3500VP6000FT BR VV003 12/12 A3000 RMK AO2 T01170117=
202306121232 SPECI KBLI 121232Z AUTO 00000KT 1/2SM R16/3500VP6000FT FG VV003 12/12 A3000 RMK AO2 T01170117=
202306121219 SPECI KBLI 121219Z AUTO 00000KT 1/4SM R16/2600VP6000FT FG CLR 11/11 A3000 RMK AO2 T01110111=
202306121217 SPECI KBLI 121217Z AUTO 00000KT 3/4SM R16/2600VP6000FT BR CLR 11/11 A3000 RMK AO2 T01110111=
202306121201 SPECI KBLI 121201Z AUTO 00000KT 10SM CLR 12/12 A3000 RMK AO2 T01170117=
202306121153 METAR KBLI 121153Z AUTO 00000KT 2SM BR CLR 12/12 A3000 RMK AO2 SLP164 T01220122 10156 20117 51004=
202306121053 METAR KBLI 121053Z AUTO 17003KT 10SM CLR 12/12 A2999 RMK AO2 SLP161 T01220122=
202306120953 METAR KBLI 120953Z AUTO 00000KT 10SM CLR 13/13 A2999 RMK AO2 SLP160 T01280128=
202306120853 METAR KBLI 120853Z AUTO 20003KT 10SM CLR 13/13 A2999 RMK AO2 SLP161 T01330133 50003=
202306120753 METAR KBLI 120753Z AUTO 19003KT 10SM CLR 14/13 A2999 RMK AO2 SLP162 T01390133 402110111=
202306120653 METAR KBLI 120653Z AUTO 17005KT 10SM CLR 15/13 A2998 RMK AO2 SLP159 T01500133=
202306120553 METAR KBLI 120553Z AUTO 19005KT 10SM CLR 16/14 A2998 RMK AO2 SLP158 T01560139 10206 20144 53004=
202306120453 METAR KBLI 120453Z 20003KT 10SM CLR 16/14 A2997 RMK AO2 SLP156 T01560144=
202306120353 METAR KBLI 120353Z 21003KT 10SM CLR 17/15 A2997 RMK AO2 SLP154 T01670150=
202306120253 METAR KBLI 120253Z 18003KT 10SM FEW080 19/15 A2997 RMK AO2 SLP154 T01940150 56010=
202306120153 METAR KBLI 120153Z 23003KT 10SM FEW080 20/14 A2998 RMK AO2 SLP156 T02000144=
202306120053 METAR KBLI 120053Z VRB04KT 10SM FEW040 21/14 A2998 RMK AO2 SLP159 T02060144=
202306112353 METAR KBLI 112353Z VRB03KT 10SM FEW040 20/14 A3000 RMK AO2 SLP164 T02000144 10211 20156 56013=
202306112253 METAR KBLI 112253Z 28005KT 10SM CLR 20/14 A3001 RMK AO2 SLP167 T02000144=
202306112153 METAR KBLI 112153Z VRB04KT 10SM FEW030 20/14 A3002 RMK AO2 SLP173 T02000144=
202306112145 SPECI KBLI 112145Z 22006KT 10SM FEW030 20/14 A3003 RMK AO2 T02000144=
202306112053 METAR KBLI 112053Z VRB06KT 10SM FEW020 SCT028 19/15 A3004 RMK AO2 SLP177 T01940150 58006=
202306112028 SPECI KBLI 112028Z VRB05KT 10SM SCT028 19/14 A3004 RMK AO2 T01890144=
202306111953 METAR KBLI 111953Z 29005KT 10SM BKN024 OVC029 18/14 A3005 RMK AO2 SLP181 T01830144=
202306111853 METAR KBLI 111853Z 29005KT 10SM SCT015 OVC021 16/14 A3005 RMK AO2 SLP181 T01610139=
202306111753 METAR KBLI 111753Z 29006KT 10SM BKN013 OVC023 16/14 A3005 RMK AO2 SLP184 T01610144 10161 20111 55002=
202306111653 METAR KBLI 111653Z 31005KT 10SM FEW007 FEW011 OVC019 16/14 A3006 RMK AO2 SLP183 T01560144=
202306111553 METAR KBLI 111553Z 30004KT 5SM BR SCT007 OVC019 15/14 A3006 RMK AO2 SLP185 T01500139=
202306111504 SPECI KBLI 111504Z 00000KT 4SM BR SCT006 OVC017 14/14 A3007 RMK AO2 T01440139=
202306111453 METAR KBLI 111453Z 00000KT 4SM BR OVC017 14/14 A3007 RMK AO2 SLP188 T01390139 57003=
202306111353 METAR KBLI 111353Z 00000KT 5SM BR OVC018 13/13 A3007 RMK AO2 SLP191 T01330133=
202306111344 SPECI KBLI 111344Z 00000KT 4SM BR BKN019 BKN030 OVC055 13/13 A3007 RMK AO2 T01280128=
202306111253 METAR KBLI 111253Z AUTO 00000KT 3SM BR OVC055 12/12 A3007 RMK AO2 SLP190 T01170117=
202306111227 SPECI KBLI 111227Z AUTO 00000KT 3SM R16/3000VP6000FT BR OVC050 12/12 A3008 RMK AO2 T01170117=
202306111222 SPECI KBLI 111222Z AUTO 00000KT 1 3/4SM R16/3000VP6000FT BR OVC055 12/12 A3007 RMK AO2 T01170117=
202306111215 SPECI KBLI 111215Z AUTO 00000KT 3/4SM R16/2000VP6000FT BR OVC055 12/12 A3008 RMK AO2 T01170117=
202306111209 SPECI KBLI 111209Z AUTO 00000KT 1/4SM R16/2000VP6000FT FG OVC060 12/12 A3007 RMK AO2 T01170117=
202306111157 SPECI KBLI 111157Z AUTO 00000KT 1/2SM R16/2400VP6000FT FG BKN060 12/12 A3008 RMK AO2 T01170117=
202306111153 METAR KBLI 111153Z AUTO 00000KT 1 1/4SM R16/2400VP6000FT BR BKN060 11/11 A3008 RMK AO2 SLP192 70011 T01110111 10128 20111 50000=
202306111141 SPECI KBLI 111141Z AUTO 00000KT 5SM R16/6000VP6000FT BR OVC065 12/12 A3008 RMK AO2 T01170117=
202306111132 SPECI KBLI 111132Z AUTO 00000KT 2SM BR OVC065 12/12 A3008 RMK AO2 T01220122=
202306111126 SPECI KBLI 111126Z AUTO 00000KT 3/4SM R16/P6000FT BR OVC065 12/12 A3008 RMK AO2 T01170117=
202306111117 SPECI KBLI 111117Z AUTO 00000KT 1 1/2SM BR OVC065 12/12 A3008 RMK AO2 T01170117=
202306111114 SPECI KBLI 111114Z AUTO 00000KT 3SM BR OVC065 12/12 A3008 RMK AO2 T01220122=
202306111104 SPECI KBLI 111104Z AUTO 00000KT 1 3/4SM BR OVC065 12/12 A3008 RMK AO2 T01220122=
202306111053 METAR KBLI 111053Z AUTO 00000KT 4SM BR OVC065 12/12 A3008 RMK AO2 SLP192 T01220122=
202306110953 METAR KBLI 110953Z AUTO 00000KT 7SM OVC070 12/12 A3008 RMK AO2 SLP193 T01220122=
202306110853 METAR KBLI 110853Z AUTO 00000KT 9SM OVC070 12/12 A3008 RMK AO2 SLP192 T01220122 56003=
202306110753 METAR KBLI 110753Z 00000KT 6SM BR FEW040 OVC075 12/12 A3008 RMK AO2 SLP192 T01170117 401500111=
202306110718 SPECI KBLI 110718Z 00000KT 10SM SCT025 OVC075 12/12 A3008 RMK AO2 T01170117=
202306110653 METAR KBLI 110653Z 00000KT 10SM BKN025 OVC080 12/12 A3008 RMK AO2 SLP193 T01220122=
202306110616 SPECI KBLI 110616Z 00000KT 10SM BKN025 BKN040 12/12 A3008 RMK AO2 T01170117=
202306110607 SPECI KBLI 110607Z 00000KT 4SM BR SCT025 BKN040 BKN080 12/12 A3009 RMK AO2 T01170117=
202306110556 SPECI KBLI 110556Z 00000KT 1 1/2SM BR SCT040 12/12 A3009 RMK AO2 VIS 1/2V5 T01170117=
202306110553 METAR KBLI 110553Z 00000KT 4SM BR FEW040 12/12 A3009 RMK AO2 SLP195 T01170117 10150 20117 53003=
202306110453 METAR KBLI 110453Z 00000KT 10SM BKN035 13/13 A3008 RMK AO2 SLP193 T01330133=
202306110353 METAR KBLI 110353Z 00000KT 10SM SCT025 BKN035 14/13 A3008 RMK AO2 SLP192 T01440133=
202306110253 METAR KBLI 110253Z 00000KT 10SM SCT025 BKN035 14/13 A3008 RMK AO2 SLP192 T01440128 56003=
202306110156 SPECI KBLI 110156Z 00000KT 10SM SCT025 BKN035 14/13 A3008 RMK AO2 T01440128=
202306110153 METAR KBLI 110153Z 00000KT 10SM OVC032 14/13 A3008 RMK AO2 SLP192 T01440128=
202306110053 METAR KBLI 110053Z 00000KT 10SM FEW008 SCT020 BKN035 14/13 A3008 RMK AO2 SLP194 T01390128=
202306102353 METAR KBLI 102353Z 19004KT 10SM SCT008 BKN024 OVC035 14/13 A3009 RMK AO2 SLP195 60002 T01390133 10139 20128 53002=
202306102253 METAR KBLI 102253Z 20005KT 10SM SCT006 OVC024 13/13 A3008 RMK AO2 SLP194 T01330133=
202306102153 METAR KBLI 102153Z 18005KT 6SM BR SCT006 BKN022 OVC030 13/13 A3008 RMK AO2 RAE01 SLP193 P0000 T01330133=
202306102129 SPECI KBLI 102129Z 19006KT 7SM SCT006 BKN020 OVC030 13/13 A3008 RMK AO2 RAE01 P0000 T01330133=
202306102117 SPECI KBLI 102117Z 18006KT 6SM BR BKN006 BKN022 OVC030 13/13 A3008 RMK AO2 RAE01 P0000 T01330133=
202306102053 METAR KBLI 102053Z 18007KT 2 1/2SM -RA BR BKN006 BKN020 OVC028 13/13 A3008 RMK AO2 RAE15B46 SLP193 P0001 60002 T01280128 51009=
202306102029 SPECI KBLI 102029Z 18007KT 2 1/2SM BR BKN006 BKN020 OVC028 13/13 A3008 RMK AO2 RAE15 P0001 T01280128=
202306101953 METAR KBLI 101953Z 18005KT 3SM -RA BR BKN008 OVC024 13/13 A3008 RMK AO2 RAB02E34B52 SLP192 P0001 T01280128=
202306101923 SPECI KBLI 101923Z 17007KT 2 1/2SM -RA BR BKN008 OVC024 13/13 A3007 RMK AO2 RAB02 P0001 T01330128=
202306101900 SPECI KBLI 101900Z 18006KT 9SM BKN011 BKN028 OVC035 13/13 A3007 RMK AO2 T01280128=
202306101853 METAR KBLI 101853Z 18006KT 5SM BR SCT011 BKN016 OVC033 13/13 A3007 RMK AO2 SLP189 T01330128=
202306101753 METAR KBLI 101753Z 19007KT 5SM BR SCT006 BKN016 OVC038 13/13 A3005 RMK AO2 RAB12E25 SLP184 P0000 60009 T01280128 10128 20117 51006=
202306101719 SPECI KBLI 101719Z 18006KT 5SM -RA BR SCT006 BKN018 OVC038 13/13 A3005 RMK AO2 RAB12 P0000 T01280128=
202306101653 METAR KBLI 101653Z 18006KT 4SM BR BKN006 BKN023 OVC038 13/13 A3005 RMK AO2 RAE21 SLP183 P0001 T01280128=
202306101647 SPECI KBLI 101647Z 18008KT 3SM BR SCT006 BKN023 OVC038 13/13 A3005 RMK AO2 RAE21 P0001=
202306101636 SPECI KBLI 101636Z 18007KT 2SM BR BKN006 BKN023 OVC038 12/12 A3005 RMK AO2 RAE21 P0001 T01220122=
202306101553 METAR KBLI 101553Z 18006KT 1 3/4SM -RA BR OVC006 12/12 A3005 RMK AO2 CIG 004V011 SLP182 P0001 T01220122=
202306101453 METAR KBLI 101453Z 18005KT 3SM -RA BR OVC005 12/12 A3004 RMK AO2 SLP178 P0003 60007 T01220122 51007=
202306101410 SPECI KBLI 101410Z 17006KT 2 1/2SM -RA BR OVC006 12/12 A3003 RMK AO2 P0001 T01220122=
202306101353 METAR KBLI 101353Z 17007KT 3SM -RA BR OVC006 12/12 A3003 RMK AO2 CIG 004V012 SLP175 P0002 T01220122=
202306101335 SPECI KBLI 101335Z 18006KT 3SM -RA BR OVC006 12/12 A3002 RMK AO2 CIG 004V010 P0002 T01170117=
202306101309 SPECI KBLI 101309Z AUTO 17007KT 2SM -RA BR OVC006 12/12 A3002 RMK AO2 CIG 004V010 P0001 T01220122=
202306101253 METAR KBLI 101253Z AUTO 17007KT 5SM -RA BR OVC006 12/12 A3002 RMK AO2 CIG 005V009 SLP173 P0002 T01170117=
202306101153 METAR KBLI 101153Z AUTO 18006KT 3SM -RA BR OVC008 12/12 A3001 RMK AO2 RAE08B43 SLP170 P0001 60009 70036 T01220122 10122 20117 58003=
202306101103 SPECI KBLI 101103Z AUTO 17007KT 10SM -RA OVC009 12/12 A3002 RMK AO2 CIG 008V012 P0000 T01220122=
202306101053 METAR KBLI 101053Z AUTO 17006KT 8SM -RA OVC010 12/12 A3002 RMK AO2 RAB04E13B48 SLP173 P0000 T01220117=
202306101039 SPECI KBLI 101039Z AUTO 18008KT 9SM BKN010 OVC024 12/12 A3002 RMK AO2 RAB04E13 P0000 T01220117=
202306100953 METAR KBLI 100953Z AUTO 16007KT 8SM SCT010 OVC020 12/12 A3002 RMK AO2 SLP174 T01220122=
202306100927 SPECI KBLI 100927Z AUTO 17004KT 10SM FEW010 BKN022 OVC033 12/12 A3002 RMK AO2 T01220117=
202306100853 METAR KBLI 100853Z AUTO 18005KT 10SM SCT010 OVC034 12/12 A3002 RMK AO2 RAE15 SLP173 P0000 60008 T01220117 56002=
202306100846 SPECI KBLI 100846Z AUTO 18007KT 10SM BKN010 OVC036 12/12 A3002 RMK AO2 RAE15 P0000 T01220117=
202306100835 SPECI KBLI 100835Z AUTO 17005KT 10SM BKN009 OVC036 12/12 A3002 RMK AO2 RAE15 P0000 T01220117=
202306100816 SPECI KBLI 100816Z AUTO 18006KT 10SM SCT009 OVC038 12/12 A3002 RMK AO2 RAE15 P0000 T01170117=
202306100753 METAR KBLI 100753Z AUTO 17005KT 5SM -RA BR FEW008 BKN029 OVC040 12/12 A3003 RMK AO2 RAB12 SLP174 P0006 T01170117 401330117=
202306100750 SPECI KBLI 100750Z AUTO 18005KT 5SM -RA BR FEW008 BKN029 OVC038 12/12 A3002 RMK AO2 RAB12 P0006=
202306100653 METAR KBLI 100653Z AUTO 16005KT 10SM OVC025 12/12 A3003 RMK AO2 RAE44 SLP175 P0002 T01170117=
202306100640 SPECI KBLI 100640Z AUTO 16007KT 6SM -RA BR BKN025 BKN037 OVC045 12/12 A3003 RMK AO2 P0002 T01170117=
202306100631 SPECI KBLI 100631Z AUTO 17005KT 4SM -RA BR SCT025 BKN032 OVC045 12/12 A3003 RMK AO2 P0002 T01170117=
202306100553 METAR KBLI 100553Z AUTO 17006KT 4SM -RA BR FEW022 OVC027 12/12 A3004 RMK AO2 SLP178 P0007 60024 T01170117 10133 20117 51006=
202306100500 SPECI KBLI 100500Z 18006KT 7SM -RA FEW007 BKN022 OVC029 12/12 A3003 RMK AO2 P0001 T01170117=
202306100453 METAR KBLI 100453Z 18007KT 6SM -RA BR FEW010 BKN028 OVC040 12/12 A3003 RMK AO2 SLP176 P0007 T01170117=
202306100353 METAR KBLI 100353Z 18008KT 5SM -RA BR FEW010 BKN028 OVC040 12/12 A3003 RMK AO2 SLP175 P0003 T01170117=
202306100253 METAR KBLI 100253Z 17009KT 5SM -RA BR SCT025 BKN045 OVC055 12/12 A3002 RMK AO2 SLP172 P0001 60007 T01170117 58001=
202306100153 METAR KBLI 100153Z 17009KT 5SM -RA BR SCT023 BKN070 OVC090 12/12 A3002 RMK AO2 SLP173 P0004 T01220117=
202306100053 METAR KBLI 100053Z 18008G16KT 6SM -RA BR OVC110 12/12 A3002 RMK AO2 RAB19 SLP174 P0002 T01220117=
202306092353 METAR KBLI 092353Z 17010G20KT 10SM FEW012 SCT025 BKN065 13/11 A3002 RMK AO2 RAE2255 SLP173 P0000 60003 T01330111 10133 20122 50001=
202306092253 METAR KBLI 092253Z 17009G19KT 10SM -RA FEW010 SCT022 BKN070 12/12 A3003 RMK AO2 SLP175 P0000 T01220117=
202306092153 METAR KBLI 092153Z 19010G20KT 10SM -RA FEW022 FEW075 OVC100 13/11 A3002 RMK AO2 RAE08B41 SLP174 P0000 T01280111=
202306092053 METAR KBLI 092053Z 18008G18KT 8SM -RA FEW013 BKN090 OVC110 12/11 A3002 RMK AO2 SLP172 P0002 60003 T01220111 51002=
202306092019 SPECI KBLI 092019Z 18011G18KT 8SM -RA FEW012 SCT021 OVC100 13/12 A3002 RMK AO2 P0000 T01280117=
202306091953 METAR KBLI 091953Z 18008KT 9SM -RA BKN012 OVC100 13/12 A3002 RMK AO2 RAB1859 SLP171 P0001 T01280122=
202306091853 METAR KBLI 091853Z 18010G16KT 10SM OVC013 12/12 A3002 RMK AO2 RAE49 SLP172 P0000 T01220117=
202306091753 METAR KBLI 091753Z 18007KT 9SM -RA BKN013 OVC100 12/12 A3001 RMK AO2 RAB36 SLP170 P0000 60000 T01220117 10133 20122 53007=
202306091748 SPECI KBLI 091748Z 17009G16KT 10SM -RA BKN013 OVC100 13/11 A3001 RMK AO2 RAB36 P0000=
202306091653 METAR KBLI 091653Z 19008KT 10SM BKN120 13/11 A2999 RMK AO2 SLP160 T01280106=
202306091553 METAR KBLI 091553Z 17009G16KT 10SM FEW010 SCT120 13/11 A2999 RMK AO2 SLP162 T01280106=
202306091453 METAR KBLI 091453Z 18010G21KT 10SM FEW100 BKN120 13/11 A2998 RMK AO2 SLP158 T01280106 53006=
202306091353 METAR KBLI 091353Z 17011G18KT 10SM SCT110 13/11 A2997 RMK AO2 SLP154 T01330106=
202306091253 METAR KBLI 091253Z AUTO 18011G16KT 10SM CLR 13/11 A2996 RMK AO2 SLP151 T01330111=
202306091153 METAR KBLI 091153Z AUTO 17009G16KT 10SM CLR 13/12 A2996 RMK AO2 SLP151 T01280117 10156 20128 50006=
202306091053 METAR KBLI 091053Z AUTO 18010KT 10SM CLR 13/11 A2996 RMK AO2 SLP152 T01330106=
202306090953 METAR KBLI 090953Z AUTO 17008G16KT 10SM FEW110 13/11 A2996 RMK AO2 PK WND 19026/0859 SLP149 T01330111=
202306090853 METAR KBLI 090853Z AUTO 18013G24KT 10SM FEW110 13/11 A2994 RMK AO2 PK WND 18027/0827 SLP145 T01330111 51011=
202306090753 METAR KBLI 090753Z AUTO 18016G26KT 10SM CLR 13/11 A2994 RMK AO2 PK WND 16029/0703 SLP143 T01330106 402000133=
202306090653 METAR KBLI 090653Z AUTO 18016G26KT 10SM CLR 14/11 A2992 RMK AO2 PK WND 19029/0558 SLP139 T01440111=
202306090553 METAR KBLI 090553Z AUTO 18011G19KT 10SM CLR 16/11 A2991 RMK AO2 PK WND 17026/0517 SLP134 T01560111 10189 20156 53003=
202306090453 METAR KBLI 090453Z 19008G19KT 10SM FEW080 BKN110 17/11 A2989 RMK AO2 SLP126 T01670111=
202306090353 METAR KBLI 090353Z 18011KT 10SM CLR 16/11 A2990 RMK AO2 SLP132 T01610111=
202306090253 METAR KBLI 090253Z 18011G20KT 10SM CLR 17/12 A2990 RMK AO2 SLP131 T01720117 53001=
202306090153 METAR KBLI 090153Z 19010G18KT 10SM CLR 18/12 A2988 RMK AO2 SLP124 T01830117=
202306090053 METAR KBLI 090053Z 19010G19KT 10SM CLR 18/12 A2989 RMK AO2 SLP126 T01830117=
202306082353 METAR KBLI 082353Z 18011G20KT 10SM CLR 18/12 A2990 RMK AO2 SLP130 T01830122 10200 20156 56014=
202306082253 METAR KBLI 082253Z 20010G19KT 10SM CLR 19/13 A2991 RMK AO2 SLP133 T01890128=
202306082153 METAR KBLI 082153Z 20010G17KT 10SM CLR 19/13 A2992 RMK AO2 SLP139 T01940133=
202306082053 METAR KBLI 082053Z 21009KT 10SM CLR 19/13 A2994 RMK AO2 SLP144 T01890128 58006=
202306081953 METAR KBLI 081953Z 18009G18KT 10SM CLR 17/12 A2995 RMK AO2 SLP147 T01670122=
202306081853 METAR KBLI 081853Z 19008G18KT 10SM CLR 17/12 A2996 RMK AO2 SLP150 T01670122=
202306081753 METAR KBLI 081753Z 20008G18KT 160V220 10SM CLR 16/12 A2996 RMK AO2 SLP150 T01560122 10161 20133 58001=
202306081653 METAR KBLI 081653Z 18010G16KT 10SM CLR 15/12 A2997 RMK AO2 SLP153 T01500117=
202306081553 METAR KBLI 081553Z 19008G18KT 10SM CLR 14/12 A2997 RMK AO2 SLP154 T01440117=
202306081453 METAR KBLI 081453Z 19009G19KT 10SM CLR 14/12 A2996 RMK AO2 SLP151 T01390117 51020=
202306081353 METAR KBLI 081353Z 18010G20KT 10SM CLR 13/12 A2994 RMK AO2 SLP144 T01330117=
202306081253 METAR KBLI 081253Z AUTO 18013G22KT 10SM CLR 14/11 A2993 RMK AO2 PK WND 17026/1204 SLP140 T01390111=
202306081153 METAR KBLI 081153Z AUTO 18012G22KT 10SM CLR 16/11 A2990 RMK AO2 PK WND 18026/1111 SLP129 T01560106 10172 20156 51008=
202306081053 METAR KBLI 081053Z AUTO 18013G23KT 10SM CLR 17/10 A2990 RMK AO2 SLP129 T01670100=
202306080953 METAR KBLI 080953Z AUTO 18008KT 10SM CLR 17/09 A2989 RMK AO2 SLP125 T01670094=
202306080853 METAR KBLI 080853Z AUTO 19009G17KT 10SM CLR 16/11 A2988 RMK AO2 SLP121 T01610111 53014=
202306080753 METAR KBLI 080753Z AUTO 19009G17KT 10SM CLR 16/11 A2986 RMK AO2 SLP117 T01610111 402780094=
202306080653 METAR KBLI 080653Z AUTO 19008KT 10SM CLR 17/12 A2984 RMK AO2 SLP109 T01720117=
202306080553 METAR KBLI 080553Z AUTO 19007KT 10SM CLR 16/12 A2983 RMK AO2 SLP107 T01610117 10272 20161 53014=
202306080453 METAR KBLI 080453Z 19008KT 10SM CLR 18/11 A2982 RMK AO2 SLP101 T01780106=
202306080353 METAR KBLI 080353Z 19006KT 10SM CLR 19/09 A2980 RMK AO2 SLP095 T01940089=
202306080253 METAR KBLI 080253Z 18004KT 10SM CLR 22/11 A2979 RMK AO2 SLP093 T02220111 56007=
202306080153 METAR KBLI 080153Z 19003KT 10SM CLR 25/12 A2979 RMK AO2 SLP093 T02500117=
202306080053 METAR KBLI 080053Z 00000KT 10SM CLR 26/13 A2980 RMK AO2 SLP096 T02560128=
202306072353 METAR KBLI 072353Z 18005KT 10SM CLR 27/15 A2981 RMK AO2 SLP102 T02720150 10278 20239 56004=
202306072253 METAR KBLI 072253Z 00000KT 10SM CLR 27/11 A2982 RMK AO2 SLP101 T02720111=
202306072153 METAR KBLI 072153Z 19007KT 10SM CLR 27/13 A2982 RMK AO2 SLP103 T02670133=
202306072053 METAR KBLI 072053Z 25005KT 10SM CLR 25/11 A2983 RMK AO2 SLP105 T02500106 58002=
202306071953 METAR KBLI 071953Z 29005KT 10SM CLR 24/12 A2983 RMK AO2 SLP106 T02440122=
202306071853 METAR KBLI 071853Z VRB03KT 10SM CLR 24/13 A2983 RMK AO2 SLP107 T02440128=
202306071753 METAR KBLI 071753Z VRB03KT 10SM CLR 24/11 A2983 RMK AO2 SLP107 T02440106 10244 20094 58001=
202306071653 METAR KBLI 071653Z AUTO 00000KT 10SM CLR 22/12 A2984 RMK AO2 SLP108 T02170122=
202306071553 METAR KBLI 071553Z AUTO 00000KT 10SM CLR 20/12 A2984 RMK AO2 SLP110 T02000117=
202306071453 METAR KBLI 071453Z AUTO 00000KT 10SM CLR 17/13 A2984 RMK AO2 SLP108 T01720128 53008=
202306071353 METAR KBLI 071353Z AUTO 00000KT 10SM CLR 14/12 A2982 RMK AO2 SLP104 T01390117=
202306071253 METAR KBLI 071253Z AUTO 00000KT 10SM CLR 10/09 A2982 RMK AO2 SLP103 T01000094=
202306071153 METAR KBLI 071153Z AUTO 00000KT 10SM CLR 09/09 A2981 RMK AO2 SLP100 T00940094 10144 20094 53004=
202306071053 METAR KBLI 071053Z AUTO 00000KT 10SM CLR 11/09 A2980 RMK AO2 SLP097 T01060094=
202306070953 METAR KBLI 070953Z AUTO 00000KT 10SM CLR 12/10 A2980 RMK AO2 SLP095 T01170100=
202306070853 METAR KBLI 070853Z AUTO 00000KT 10SM CLR 12/10 A2980 RMK AO2 SLP095 T01220100 51002=
202306070753 METAR KBLI 070753Z AUTO 00000KT 10SM CLR 13/11 A2979 RMK AO2 SLP094 T01280106 402670072=
202306070653 METAR KBLI 070653Z AUTO 00000KT 10SM CLR 13/11 A2980 RMK AO2 SLP096 T01280106=
202306070553 METAR KBLI 070553Z AUTO 00000KT 10SM CLR 14/11 A2979 RMK AO2 SLP093 T01390106 10261 20139 53001=
202306070453 METAR KBLI 070453Z 00000KT 10SM CLR 16/11 A2979 RMK AO2 SLP092 T01560111=
202306070353 METAR KBLI 070353Z 00000KT 10SM CLR 18/13 A2978 RMK AO2 SLP090 T01780133=
202306070253 METAR KBLI 070253Z 19003KT 10SM CLR 22/13 A2979 RMK AO2 SLP093 T02170133 56015=
202306070153 METAR KBLI 070153Z VRB03KT 10SM CLR 25/08 A2980 RMK AO2 SLP095 T02500078=
202306070053 METAR KBLI 070053Z 30004KT 10SM CLR 26/08 A2982 RMK AO2 SLP102 T02560083=
202306062353 METAR KBLI 062353Z VRB03KT 10SM CLR 26/10 A2983 RMK AO2 SLP108 T02610100 10267 20211 58017=
202306062253 METAR KBLI 062253Z 28009KT 10SM CLR 26/09 A2985 RMK AO2 SLP114 T02610094=
202306062153 METAR KBLI 062153Z 29007KT 260V320 10SM CLR 26/08 A2987 RMK AO2 SLP120 T02560078=
202306062053 METAR KBLI 062053Z 31008KT 10SM CLR 24/09 A2988 RMK AO2 SLP125 T02440089 58017=
202306061953 METAR KBLI 061953Z 32008KT 10SM CLR 23/12 A2991 RMK AO2 SLP132 T02330117=
202306061853 METAR KBLI 061853Z 27007KT 10SM CLR 22/11 A2992 RMK AO2 SLP138 T02220106=
202306061753 METAR KBLI 061753Z 33006KT 10SM CLR 22/12 A2993 RMK AO2 SLP142 T02170122 10217 20072 58014=
202306061653 METAR KBLI 061653Z 20005KT 10SM CLR 19/12 A2995 RMK AO2 SLP148 T01890122=
202306061553 METAR KBLI 061553Z 33003KT 10SM CLR 17/12 A2996 RMK AO2 SLP152 T01720117=
202306061453 METAR KBLI 061453Z 00000KT 10SM CLR 15/11 A2998 RMK AO2 SLP157 T01500106 58008=
202306061353 METAR KBLI 061353Z 00000KT 10SM CLR 13/11 A2999 RMK AO2 SLP160 T01330111=
202306061253 METAR KBLI 061253Z AUTO 00000KT 10SM CLR 08/07 A2999 RMK AO2 SLP162 T00830072=
202306061153 METAR KBLI 061153Z AUTO 00000KT 10SM CLR 08/07 A3000 RMK AO2 SLP165 T00780072 10128 20072 58001=
202306061053 METAR KBLI 061053Z AUTO 00000KT 10SM CLR 08/08 A3000 RMK AO2 SLP166 T00830078=
202306060953 METAR KBLI 060953Z AUTO 00000KT 10SM CLR 09/08 A3000 RMK AO2 SLP165 T00890083=
202306060853 METAR KBLI 060853Z AUTO 00000KT 10SM CLR 09/09 A3000 RMK AO2 SLP166 T00940089 56013=
202306060753 METAR KBLI 060753Z AUTO 00000KT 10SM CLR 11/09 A3001 RMK AO2 SLP170 T01110089 402170094=
202306060653 METAR KBLI 060653Z AUTO 00000KT 10SM CLR 12/09 A3003 RMK AO2 SLP175 T01170089=
202306060553 METAR KBLI 060553Z AUTO 00000KT 10SM CLR 12/08 A3004 RMK AO2 SLP179 T01220083 10217 20117 57005=
202306060453 METAR KBLI 060453Z 00000KT 10SM CLR 14/07 A3005 RMK AO2 SLP181 T01390067=
202306060353 METAR KBLI 060353Z 00000KT 10SM CLR 16/06 A3005 RMK AO2 SLP181 T01560061=
202306060253 METAR KBLI 060253Z 31007KT 10SM CLR 19/04 A3006 RMK AO2 SLP184 T01940039 56016=
202306060153 METAR KBLI 060153Z 31005KT 10SM CLR 21/06 A3007 RMK AO2 SLP187 T02060056=
202306060053 METAR KBLI 060053Z 29006KT 10SM CLR 21/04 A3009 RMK AO2 SLP194 T02110044=
202306052353 METAR KBLI 052353Z 30010KT 10SM CLR 21/04 A3010 RMK AO2 SLP199 T02110039 10217 20167 58016=
202306052253 METAR KBLI 052253Z 31012G17KT 10SM FEW100 21/06 A3013 RMK AO2 SLP207 T02110056=
202306052153 METAR KBLI 052153Z 30008G15KT 250V330 10SM CLR 21/07 A3014 RMK AO2 SLP212 T02110072=
202306052053 METAR KBLI 052053Z VRB06KT 10SM CLR 20/09 A3015 RMK AO2 SLP215 T02000094 56014=
202306051953 METAR KBLI 051953Z 33008KT 10SM FEW060 19/11 A3016 RMK AO2 SLP219 T01940106=
202306051853 METAR KBLI 051853Z 25006KT 10SM FEW050 18/10 A3017 RMK AO2 SLP223 T01780100=
202306051753 METAR KBLI 051753Z VRB05KT 10SM FEW040 17/09 A3019 RMK AO2 SLP230 T01670094 10167 20094 58004=
202306051653 METAR KBLI 051653Z VRB04KT 10SM FEW030 16/09 A3020 RMK AO2 SLP233 T01560094=
202306051643 SPECI KBLI 051643Z 26004KT 10SM FEW030 16/09 A3020 RMK AO2 T01610094=
202306051553 METAR KBLI 051553Z VRB03KT 10SM FEW030 14/08 A3020 RMK AO2 SLP234 T01440083=
202306051453 METAR KBLI 051453Z VRB03KT 10SM FEW050 14/09 A3020 RMK AO2 SLP234 T01390089 50000=
202306051353 METAR KBLI 051353Z 00000KT 10SM FEW050 13/09 A3021 RMK AO2 SLP234 T01330089=
202306051253 METAR KBLI 051253Z AUTO 00000KT 10SM CLR 10/09 A3020 RMK AO2 SLP234 T01000089=
202306051153 METAR KBLI 051153Z AUTO 00000KT 10SM CLR 10/08 A3020 RMK AO2 SLP233 T01000083 10122 20089 51007=
202306051053 METAR KBLI 051053Z AUTO 27005KT 10SM CLR 12/08 A3019 RMK AO2 SLP231 T01220083=
202306050953 METAR KBLI 050953Z AUTO 00000KT 10SM CLR 11/09 A3019 RMK AO2 SLP229 T01060089=
202306050853 METAR KBLI 050853Z AUTO 00000KT 10SM CLR 10/09 A3018 RMK AO2 SLP226 T01000089 53007=
202306050753 METAR KBLI 050753Z AUTO VRB03KT 10SM CLR 09/08 A3017 RMK AO2 SLP222 T00940078 401940089=
202306050653 METAR KBLI 050653Z AUTO VRB03KT 10SM CLR 11/08 A3016 RMK AO2 SLP218 T01060078=
202306050553 METAR KBLI 050553Z AUTO 00000KT 10SM CLR 10/09 A3016 RMK AO2 SLP220 T01000089 10194 20100 55000=
202306050453 METAR KBLI 050453Z 00000KT 10SM CLR 12/08 A3016 RMK AO2 SLP219 T01170083=
202306050353 METAR KBLI 050353Z 00000KT 10SM CLR 14/09 A3016 RMK AO2 SLP219 T01390089=
202306050253 METAR KBLI 050253Z 00000KT 10SM CLR 17/07 A3016 RMK AO2 SLP219 T01720067 56016=
202306050153 METAR KBLI 050153Z 29005KT 10SM CLR 19/01 A3017 RMK AO2 SLP221 T01940011=
202306050053 METAR KBLI 050053Z 30006KT 10SM CLR 19/03 A3019 RMK AO2 SLP229 T01940028=
202306042353 METAR KBLI 042353Z 29008KT 260V320 10SM CLR 19/04 A3021 RMK AO2 SLP235 T01940039 10194 20167 58012=
202306042253 METAR KBLI 042253Z 31009G18KT 10SM CLR 19/03 A3023 RMK AO2 SLP241 T01940033=
202306042153 METAR KBLI 042153Z 31005G16KT 10SM FEW100 19/01 A3023 RMK AO2 SLP243 T01940006=
202306042053 METAR KBLI 042053Z 30008KT 10SM CLR 19/02 A3024 RMK AO2 SLP247 T01940022 58007=
202306041953 METAR KBLI 041953Z 30007G15KT 260V340 10SM FEW090 18/04 A3025 RMK AO2 SLP251 T01780044=
202306041853 METAR KBLI 041853Z 27008KT 240V310 10SM FEW090 18/08 A3026 RMK AO2 SLP253 T01780083=
202306041817 SPECI KBLI 041817Z 29006KT 10SM FEW090 17/08 A3026 RMK AO2 T01720083=
202306041753 METAR KBLI 041753Z 28005KT 10SM FEW090 17/08 A3027 RMK AO2 SLP255 T01670083 10167 20100 50000=
202306041653 METAR KBLI 041653Z VRB04KT 10SM CLR 15/09 A3027 RMK AO2 SLP256 T01500089=
202306041553 METAR KBLI 041553Z 17005KT 10SM FEW090 14/09 A3028 RMK AO2 SLP259 T01390089=
202306041453 METAR KBLI 041453Z 17007KT 10SM FEW100 13/09 A3027 RMK AO2 SLP255 T01280089 51018=
202306041353 METAR KBLI 041353Z 17006KT 10SM CLR 12/09 A3025 RMK AO2 SLP251 T01170089=
202306041253 METAR KBLI 041253Z AUTO 19004KT 10SM CLR 11/08 A3024 RMK AO2 SLP246 T01110078=
202306041153 METAR KBLI 041153Z AUTO 18004KT 10SM CLR 11/07 A3021 RMK AO2 SLP237 T01060072 10144 20106 51015=
202306041053 METAR KBLI 041053Z AUTO 18004KT 10SM BKN070 12/07 A3020 RMK AO2 SLP234 T01170072=
202306040953 METAR KBLI 040953Z AUTO 18010G18KT 10SM BKN065 OVC080 12/08 A3019 RMK AO2 SLP230 T01220078=
202306040853 METAR KBLI 040853Z AUTO 19004KT 10SM OVC075 13/06 A3017 RMK AO2 SLP222 T01330061 51016=
202306040753 METAR KBLI 040753Z AUTO 19005KT 10SM FEW075 13/07 A3015 RMK AO2 SLP217 T01330072 402000072=
202306040653 METAR KBLI 040653Z AUTO 20004KT 10SM SCT080 14/06 A3014 RMK AO2 SLP212 T01390061=
202306040553 METAR KBLI 040553Z AUTO 18007KT 10SM CLR 14/08 A3012 RMK AO2 SLP205 T01440083 10200 20144 53015=
202306040453 METAR KBLI 040453Z 19008KT 10SM CLR 16/10 A3010 RMK AO2 SLP200 T01560100=
202306040353 METAR KBLI 040353Z 19007KT 10SM CLR 17/10 A3008 RMK AO2 SLP191 T01670100=
202306040253 METAR KBLI 040253Z 18009G18KT 10SM CLR 17/11 A3008 RMK AO2 SLP190 T01720106 55004=
202306040153 METAR KBLI 040153Z 19008G16KT 10SM CLR 19/11 A3007 RMK AO2 SLP187 T01890111=
202306040053 METAR KBLI 040053Z 19009KT 10SM CLR 19/10 A3007 RMK AO2 SLP189 T01940100=
202306032353 METAR KBLI 032353Z 18007KT 10SM CLR 19/11 A3009 RMK AO2 SLP194 T01940106 10200 20161 56009=
202306032253 METAR KBLI 032253Z 19007G15KT 10SM CLR 19/10 A3009 RMK AO2 SLP197 T01940100=
202306032153 METAR KBLI 032153Z 20007KT 10SM CLR 19/09 A3010 RMK AO2 SLP198 T01890094=
202306032053 METAR KBLI 032053Z 17009KT 10SM CLR 19/09 A3011 RMK AO2 SLP203 T01890094 58008=
202306031953 METAR KBLI 031953Z VRB06KT 10SM CLR 19/11 A3012 RMK AO2 SLP205 T01890106=
202306031853 METAR KBLI 031853Z 19007KT 10SM CLR 17/10 A3013 RMK AO2 SLP209 T01720100=
202306031753 METAR KBLI 031753Z 20008KT 10SM CLR 16/10 A3014 RMK AO2 SLP211 T01610100 10167 20072 58006=
202306031653 METAR KBLI 031653Z 18008KT 150V210 10SM CLR 15/10 A3015 RMK AO2 SLP215 T01500100=
202306031553 METAR KBLI 031553Z 18007KT 10SM CLR 14/10 A3015 RMK AO2 SLP216 T01440100=
202306031453 METAR KBLI 031453Z 19007KT 10SM FEW010 13/10 A3015 RMK AO2 SLP217 T01330100 51006=
202306031353 METAR KBLI 031353Z 18004KT 10SM CLR 13/08 A3015 RMK AO2 SLP216 T01280078=
202306031253 METAR KBLI 031253Z AUTO 00000KT 10SM CLR 09/07 A3015 RMK AO2 SLP216 T00890072=
202306031153 METAR KBLI 031153Z AUTO 00000KT 10SM CLR 09/07 A3014 RMK AO2 SLP212 T00890072 10144 20089 53008=
202306031053 METAR KBLI 031053Z AUTO 19003KT 10SM CLR 10/08 A3013 RMK AO2 SLP208 T01000078=
202306030953 METAR KBLI 030953Z AUTO 18005KT 10SM CLR 12/09 A3012 RMK AO2 SLP204 T01170089=
202306030853 METAR KBLI 030853Z AUTO 19005KT 10SM CLR 12/09 A3011 RMK AO2 SLP203 T01170089 53004=
202306030753 METAR KBLI 030753Z AUTO 19003KT 10SM CLR 13/09 A3011 RMK AO2 SLP202 T01280094 401940083=
202306030653 METAR KBLI 030653Z AUTO 19005KT 10SM CLR 13/09 A3010 RMK AO2 SLP200 T01330094=
202306030553 METAR KBLI 030553Z AUTO 18005KT 10SM CLR 14/10 A3010 RMK AO2 SLP199 T01390100 10194 20133 51010=
202306030453 METAR KBLI 030453Z 19005KT 10SM CLR 16/11 A3010 RMK AO2 SLP197 T01560111=
202306030353 METAR KBLI 030353Z 19009KT 10SM CLR 16/09 A3008 RMK AO2 SLP192 T01610094=
202306030253 METAR KBLI 030253Z 19008KT 10SM CLR 17/09 A3007 RMK AO2 SLP189 T01670094 55002=
202306030153 METAR KBLI 030153Z 18007KT 10SM CLR 18/09 A3007 RMK AO2 SLP188 T01830094=
202306030053 METAR KBLI 030053Z 18009KT 10SM CLR 18/08 A3008 RMK AO2 SLP190 T01830083=
202306022353 METAR KBLI 022353Z 18006KT 10SM CLR 19/09 A3008 RMK AO2 SLP192 T01890089 10194 20144 56006=
202306022253 METAR KBLI 022253Z 21005KT 10SM FEW060 19/09 A3008 RMK AO2 SLP192 T01890089=
202306022153 METAR KBLI 022153Z 18008KT 10SM FEW060 18/08 A3009 RMK AO2 SLP195 T01830083=
202306022053 METAR KBLI 022053Z 19007KT 10SM CLR 18/08 A3010 RMK AO2 SLP198 T01780083 58005=
202306021953 METAR KBLI 021953Z VRB06KT 10SM FEW060 17/09 A3011 RMK AO2 SLP202 T01720089=
202306021853 METAR KBLI 021853Z 19008KT 10SM FEW050 16/09 A3011 RMK AO2 SLP202 T01610094=
202306021753 METAR KBLI 021753Z 20007G16KT 170V240 10SM FEW050 16/09 A3011 RMK AO2 SLP202 T01560094 10156 20083 51004=
202306021655 SPECI KBLI 021655Z 18012G19KT 10SM FEW050 14/10 A3011 RMK AO2 T01440100=
202306021653 METAR KBLI 021653Z 19009KT 10SM CLR 14/10 A3011 RMK AO2 SLP202 T01440100=
202306021553 METAR KBLI 021553Z 18010G19KT 10SM FEW012 FEW040 13/09 A3011 RMK AO2 SLP202 T01330094=
202306021453 METAR KBLI 021453Z 18011G18KT 10SM FEW010 13/09 A3010 RMK AO2 SLP199 T01280089 51011=
202306021353 METAR KBLI 021353Z 18007KT 10SM FEW012 12/08 A3009 RMK AO2 SLP195 T01220083=
202306021253 METAR KBLI 021253Z AUTO 00000KT 10SM CLR 10/07 A3008 RMK AO2 SLP191 T01000067=
202306021153 METAR KBLI 021153Z AUTO 17003KT 10SM CLR 09/06 A3007 RMK AO2 SLP189 T00890061 10139 20089 53008=
202306021053 METAR KBLI 021053Z AUTO 18007KT 10SM CLR 11/08 A3006 RMK AO2 SLP185 T01110078=
202306020953 METAR KBLI 020953Z AUTO 19007G16KT 10SM CLR 12/08 A3005 RMK AO2 SLP182 T01170078=
202306020853 METAR KBLI 020853Z AUTO 17004KT 10SM CLR 12/08 A3004 RMK AO2 SLP180 T01170078 53003=
202306020753 METAR KBLI 020753Z AUTO 17004KT 10SM CLR 12/08 A3004 RMK AO2 SLP177 T01170078 401940083=
202306020653 METAR KBLI 020653Z AUTO 18003KT 10SM CLR 12/09 A3003 RMK AO2 SLP177 T01220089=
202306020553 METAR KBLI 020553Z AUTO 17004KT 10SM CLR 14/10 A3004 RMK AO2 SLP177 T01390100 10194 20139 51006=
202306020453 METAR KBLI 020453Z 18005KT 10SM CLR 14/11 A3004 RMK AO2 SLP177 T01440106=
202306020353 METAR KBLI 020353Z 18005KT 10SM CLR 15/11 A3002 RMK AO2 SLP174 T01500106=
202306020253 METAR KBLI 020253Z 18006KT 10SM CLR 16/10 A3002 RMK AO2 SLP170 T01610100 55003=
202306020153 METAR KBLI 020153Z 18008KT 10SM CLR 17/09 A3002 RMK AO2 SLP171 T01720094=
202306020053 METAR KBLI 020053Z 17006KT 10SM CLR 18/09 A3002 RMK AO2 SLP172 T01830089=
202306012353 METAR KBLI 012353Z VRB05KT 10SM CLR 19/06 A3003 RMK AO2 SLP173 T01890061 10194 20150 56011=
202306012253 METAR KBLI 012253Z VRB04KT 10SM FEW070 19/07 A3003 RMK AO2 SLP176 T01890067=
202306012153 METAR KBLI 012153Z 18009KT 10SM CLR 18/08 A3004 RMK AO2 SLP180 T01830078=
202306012053 METAR KBLI 012053Z 22007KT 10SM SCT028 18/08 A3006 RMK AO2 SLP184 T01830083 58009=
202306011953 METAR KBLI 011953Z 20006KT 10SM SCT030 17/11 A3007 RMK AO2 SLP189 T01670106=
202306011853 METAR KBLI 011853Z 18007KT 10SM SCT035 16/11 A3008 RMK AO2 SLP192 T01610111=
202306011753 METAR KBLI 011753Z 17007KT 140V230 10SM SCT035 15/10 A3008 RMK AO2 SLP194 T01500100 10150 20094 58004=
202306011653 METAR KBLI 011653Z 18007KT 10SM FEW020 SCT030 14/09 A3009 RMK AO2 SLP197 T01390094=
202306011559 SPECI KBLI 011559Z 19003KT 10SM FEW020 SCT040 13/09 A3010 RMK AO2 T01330094=
202306011553 METAR KBLI 011553Z 18005KT 10SM SCT022 BKN040 13/09 A3010 RMK AO2 SLP198 T01280094=
202306011453 METAR KBLI 011453Z 17006KT 10SM FEW010 SCT025 SCT040 12/09 A3009 RMK AO2 SLP198 T01220089 51008=
202306011353 METAR KBLI 011353Z 00000KT 10SM FEW010 SCT035 BKN055 11/09 A3009 RMK AO2 SLP196 T01060089=
202306011253 METAR KBLI 011253Z AUTO 00000KT 10SM FEW034 BKN055 10/08 A3008 RMK AO2 SLP193 T01000083=
202306011153 METAR KBLI 011153Z AUTO 18003KT 10SM BKN031 09/08 A3007 RMK AO2 SLP190 T00940083 10122 20083 51004=
202306011149 SPECI KBLI 011149Z AUTO 16003KT 10SM BKN031 09/08 A3007 RMK AO2=
202306011139 SPECI KBLI 011139Z AUTO 17003KT 10SM BKN029 10/08 A3007 RMK AO2 T01000083=
202306011053 METAR KBLI 011053Z AUTO 18006KT 10SM CLR 11/08 A3006 RMK AO2 SLP187 T01060083=
202306010953 METAR KBLI 010953Z AUTO 19004KT 10SM CLR 09/08 A3006 RMK AO2 SLP185 T00890078=
202306010853 METAR KBLI 010853Z AUTO 18004KT 10SM CLR 10/07 A3005 RMK AO2 SLP183 T01000072 58001=
202306010753 METAR KBLI 010753Z AUTO 21003KT 10SM CLR 10/08 A3006 RMK AO2 SLP185 T01000078 401720089=
202306010653 METAR KBLI 010653Z AUTO 00000KT 10SM CLR 10/08 A3006 RMK AO2 SLP185 T01000083=
202306010553 METAR KBLI 010553Z AUTO 20004KT 10SM CLR 13/08 A3005 RMK AO2 SLP184 T01280083 10172 20128 52007=
202306010453 METAR KBLI 010453Z 19006KT 10SM SCT080 13/08 A3005 RMK AO2 SLP182 T01330083=
202306010353 METAR KBLI 010353Z 19005KT 10SM OVC080 14/06 A3004 RMK AO2 SLP179 T01440061=
202306010153 METAR KBLI 010153Z 19005KT 10SM CLR 16/05 A3004 RMK AO2 SLP178 T01560050=
202306010053 METAR KBLI 010053Z 18007KT 10SM CLR 17/06 A3004 RMK AO2 SLP180 T01670056=

# No short TAF reports from KBLI in databse.

###################################
#  large TAF from KBLI
###################################
202306302324 TAF KBLI 302324Z 0100/0124 19009KT P6SM SKC FM010300 18010KT P6SM
                       SKC FM011000 19007KT P6SM SKC FM011600 19009KT
                       P6SM SKC=
202306301726 TAF KBLI 301726Z 3018/0118 19008KT P6SM SKC FM302200 19010KT P6SM
                       SKC FM010200 18012KT P6SM SKC FM011000 19007KT
                       P6SM SKC=
202306301140 TAF KBLI 301140Z 3012/0112 19008KT P6SM SKC=
202306300520 TAF KBLI 300520Z 3006/0106 18008KT P6SM SKC FM301400 20008KT P6SM
                       BKN020 FM301800 19009KT P6SM BKN150=
202306292321 TAF KBLI 292321Z 3000/3024 19007KT P6SM SKC FM300600 18011KT P6SM
                       SKC FM301400 20008KT P6SM BKN100=
202306291720 TAF KBLI 291720Z 2918/3018 18009G17KT P6SM SKC FM292200 19012G21KT
                       P6SM SKC FM300600 18011KT P6SM SKC=
202306291124 TAF KBLI 291124Z 2912/3012 18010KT P6SM SKC=
202306290525 TAF KBLI 290525Z 2906/3006 18011G20KT P6SM SKC FM290900 17010KT
                       P6SM SKC FM291800 17012KT P6SM SCT150 FM300100
                       17005KT P6SM SKC=
202306282320 TAF KBLI 282320Z 2900/2924 18008KT P6SM SKC FM291200 18009G18KT
                       P6SM BKN250=
202306281743 TAF KBLI 281743Z 2818/2918 18008KT P6SM SKC FM281900 18008KT P6SM
                       SCT150 FM291200 18009KT P6SM BKN250=
202306281136 TAF KBLI 281136Z 2812/2912 18008KT P6SM SKC
                      TEMPO 2814/2816 6SM BR SCT004 FM281900 18008KT
                       P6SM SCT150=
202306280520 TAF KBLI 280520Z 2806/2906 18008KT P6SM BKN250 FM281300 18008KT
                       P6SM BKN008 FM281800 20010KT P6SM FEW150=
202306272334 TAF KBLI 272334Z 2800/2824 18008G17KT P6SM BKN150 FM281300 18008KT
                       P6SM BKN008 FM281800 20010KT P6SM FEW150=
202306271753 TAF KBLI 271753Z 2718/2818 19010KT 5SM BR OVC003
                      TEMPO 2718/2720 SCT010 FM272000 20010G20KT
                       P6SM SCT150 FM280000 19007KT P6SM SKC FM280600
                       18008KT P6SM SKC FM281300 18008KT P6SM BKN005
                       TEMPO 2813/2817 1SM BR OVC003=
202306271500 KBLI 271500Z 2715/2812 18010G16KT 1SM BR OVC002
                      TEMPO 2715/2717 4SM BR BKN005 FM271700 18010KT
                       P6SM SCT150=
202306271120 TAF KBLI 271120Z 2712/2812 18010G16KT P6SM SCT250 FM271400 18010G16KT
                       P6SM SCT008
                      TEMPO 2714/2716 BKN008 FM271800 18010KT P6SM
                       SCT150=
202306270520 TAF KBLI 270520Z 2706/2806 18008G16KT P6SM SCT250 FM271400 18010G20KT
                       P6SM SCT010 FM271800 19009KT P6SM SCT150=
202306262320 TAF KBLI 262320Z 2700/2724 20008G16KT P6SM SKC FM270300 18010KT
                       P6SM SCT100 SCT250 FM271400 18010G20KT P6SM
                       BKN060 FM271800 19009KT P6SM SKC=
202306261720 TAF KBLI 261720Z 2618/2718 20010G20KT P6SM SCT100 FM262000 20008G16KT
                       P6SM SCT200 FM270100 18007KT P6SM SCT100
                       SCT250=
202306261120 TAF KBLI 261120Z 2612/2712 20006KT P6SM OVC100 FM261400 17010KT
                       P6SM BKN015 FM262000 20008KT P6SM SCT015
                       BKN100 FM270100 18007KT P6SM SCT100 SCT250=
202306260520 TAF KBLI 260520Z 2606/2706 20006KT P6SM FEW250 FM261200 17010KT
                       P6SM OVC050 FM261500 17008KT P6SM BKN015
                       FM262000 30006KT P6SM BKN100=
202306252320 TAF KBLI 252320Z 2600/2624 21007KT P6SM SKC FM260300 18007KT P6SM
                       SCT200 FM261500 18010KT P6SM SCT200=
202306251720 TAF KBLI 251720Z 2518/2618 VRB05KT P6SM SCT005 FM252000 21007KT
                       P6SM SCT070 BKN150 FM260300 18007KT P6SM
                       SCT200=
202306251314 KBLI 251314Z 2513/2612 18005KT P6SM BKN100
                      TEMPO 2513/2516 BKN004 FM252000 21007KT P6SM
                       SCT070 BKN150 FM260300 18007KT P6SM SCT200=
202306251120 TAF KBLI 251120Z 2512/2612 18005KT P6SM BKN100 FM252000 21007KT
                       P6SM SCT070 BKN150 FM260300 18007KT P6SM
                       SCT200=
202306250520 TAF KBLI 250520Z 2506/2606 18005KT P6SM FEW090 SCT250 FM252000
                       21007KT P6SM SCT070 BKN150=
202306242337 TAF KBLI 242337Z 2500/2524 19008KT P6SM SCT150 FM250600 18004KT
                       P6SM SCT030 BKN150 FM251700 21005KT P6SM
                       SCT030=
202306242103 KBLI 242103Z 2421/2518 19006KT P6SM VCSH SCT030 BKN100 FM242300
                       19010KT P6SM SCT150 FM250300 18005KT P6SM
                       BKN150=
202306241737 TAF KBLI 241737Z 2418/2518 19006KT P6SM SCT150 FM242100 19010KT
                       P6SM SCT150 FM250300 18005KT P6SM BKN150=
202306241140 TAF KBLI 241140Z 2412/2512 18012G20KT P6SM BKN150 FM241500 18012KT
                       P6SM BKN015 FM241800 18008KT P6SM SCT150=
202306240520 TAF KBLI 240520Z 2406/2506 19009KT P6SM BKN250 FM241500 17012KT
                       P6SM SCT015 FM241800 18010KT P6SM SKC=
202306232338 TAF KBLI 232338Z 2400/2424 20006KT P6SM SKC FM240400 17010KT P6SM
                       SKC FM241300 17012KT P6SM BKN050 FM241800
                       18010KT P6SM SKC=
202306231726 TAF KBLI 231726Z 2318/2418 15005KT P6SM SKC FM240400 17010KT P6SM
                       SKC FM241300 17012G22KT P6SM BKN030=
202306231140 TAF KBLI 231140Z 2312/2412 00000KT P6SM SKC
                      TEMPO 2312/2314 2SM BR SKC FM231700 18008KT
                       P6SM SKC=
202306230520 TAF KBLI 230520Z 2306/2406 00000KT P6SM FEW100 FM231700 21007KT
                       P6SM SCT250 FM240300 18006KT P6SM SKC=
202306222320 TAF KBLI 222320Z 2300/2324 31010KT P6SM SCT250 FM230300 00000KT
                       P6SM SCT250 FM231700 21007KT P6SM SCT250=
202306221726 TAF KBLI 221726Z 2218/2318 31010KT P6SM SCT250 FM230300 00000KT
                       P6SM SCT250 FM231700 21007KT P6SM SCT250=
202306221133 TAF KBLI 221133Z 2212/2312 00000KT 3SM BR SCT001
                      TEMPO 2212/2214 1/2SM FG VV001 FM221500 VRB03KT
                       P6SM SCT250=
202306221031 KBLI 221031Z 2211/2306 00000KT 3SM BR SCT001
                      TEMPO 2211/2214 1/2SM FG VV001 FM221500 00000KT
                       P6SM SCT070 FM221800 32006KT P6SM SCT070=
202306220520 TAF KBLI 220520Z 2206/2306 00000KT P6SM SKC FM220900 VRB02KT P6SM
                       BKN050 FM221800 32006KT P6SM SCT070=
202306212337 TAF KBLI 212337Z 2200/2224 21008KT P6SM SCT070 OVC100 FM220900
                       VRB02KT P6SM BKN050 FM221800 32006KT P6SM
                       SCT070=
202306211742 TAF KBLI 211742Z 2118/2218 18008KT P6SM SCT020 OVC060 FM212200
                       21008KT P6SM BKN060 FM220900 VRB02KT P6SM
                       BKN060=
202306211137 TAF KBLI 211137Z 2112/2212 18008KT P6SM BKN040 FM212200 18008KT
                       P6SM BKN120=
202306210526 TAF KBLI 210526Z 2106/2206 17005KT P6SM OVC050 FM211200 17006KT
                       P6SM OVC025 FM211800 18008KT P6SM OVC050
                       FM220300 VRB04KT P6SM OVC100=
202306202342 TAF KBLI 202342Z 2100/2124 18006KT P6SM OVC050 FM210200 17008KT
                       P6SM OVC040 FM211200 17006KT P6SM OVC025
                       FM211800 18008KT P6SM OVC050=
202306201745 TAF KBLI 201745Z 2018/2118 22004KT P6SM -RA SCT006 OVC015 FM202100
                       18011KT P6SM OVC030 FM210200 16012G18KT
                       P6SM OVC040 FM211200 17006KT P6SM OVC015=
202306201657 KBLI 201657Z 2017/2112 00000KT P6SM -RA SCT005 OVC020 FM202100
                       17011KT P6SM OVC030 FM210200 16012G18KT
                       P6SM OVC040=
202306201139 TAF KBLI 201139Z 2012/2112 00000KT P6SM -SHRA BKN025 OVC030 FM202100
                       17011KT P6SM OVC030 FM210200 16012G18KT
                       P6SM OVC040=
202306200535 TAF KBLI 200535Z 2006/2106 17005KT P6SM -SHRA OVC035 FM201000 17007KT
                       P6SM -SHRA OVC020 FM202100 17011KT P6SM
                       OVC030 FM210200 16012G18KT P6SM OVC050=
202306192320 TAF KBLI 192320Z 2000/2024 17010G15KT P6SM -RA OVC050 FM200500
                       16005KT P6SM -SHRA OVC035 FM201000 17007KT
                       P6SM -RA OVC020=
202306191722 TAF KBLI 191722Z 1918/2018 18012G21KT P6SM VCSH SCT015 OVC050 FM192200
                       18012G21KT P6SM -SHRA OVC050 FM200000 17007KT
                       P6SM -SHRA OVC030 FM200500 16005KT P6SM
                       -SHRA OVC025=
202306191138 TAF KBLI 191138Z 1912/2012 17007KT P6SM OVC040 FM191500 17013G22KT
                       P6SM OVC035 FM191700 18012G21KT P6SM -SHRA
                       OVC025 FM200000 17007KT P6SM -SHRA OVC030=
202306190521 TAF KBLI 190521Z 1906/2006 18006KT P6SM OVC060 FM191000 18010KT
                       P6SM OVC040 FM191500 17013G22KT P6SM OVC035
                       FM191700 18012G21KT P6SM -SHRA OVC025 FM200000
                       17007KT P6SM -SHRA OVC030=
202306182336 TAF KBLI 182336Z 1900/1924 17010KT P6SM VCSH BKN060 FM190400 18006KT
                       P6SM VCSH OVC040 FM191500 17010G20KT P6SM
                       OVC035 FM191700 18011G20KT P6SM -SHRA OVC025=
202306181725 TAF KBLI 181725Z 1818/1918 19008KT P6SM VCSH FEW020 BKN050 OVC070
                       FM190200 18006KT P6SM VCSH OVC040 FM191500
                       17010G20KT P6SM -SHRA OVC025=
202306181125 TAF KBLI 181125Z 1812/1912 18007KT P6SM VCSH OVC025 FM181800 18008KT
                       P6SM -SHRA OVC035 FM190200 18006KT P6SM
                       VCSH OVC040=
202306180520 TAF KBLI 180520Z 1806/1906 18008KT P6SM BKN060 FM181100 18008KT
                       P6SM VCSH OVC030 FM190300 20005KT P6SM OVC040=
202306172320 TAF KBLI 172320Z 1800/1824 18013G22KT P6SM SCT050 FM180500 18008KT
                       P6SM BKN050 FM181100 18007KT 6SM -RA BR
                       OVC030=
202306171739 TAF KBLI 171739Z 1718/1818 19007KT P6SM OVC030 FM171900 19010G18KT
                       P6SM SCT030 BKN040 FM172300 18014G22KT P6SM
                       BKN050 FM180500 18008KT P6SM BKN050 FM181100
                       18007KT 6SM -RA BR OVC030=
202306171130 TAF KBLI 171130Z 1712/1812 18006KT P6SM OVC027 FM171900 19010G16KT
                       P6SM SCT030 BKN050 FM172300 18014G22KT P6SM
                       SCT050 BKN080 FM180500 18008KT P6SM BKN050
                       FM181100 18007KT 6SM -RA BR OVC030=
202306170520 TAF KBLI 170520Z 1706/1806 18006KT P6SM OVC080 FM171400 18008KT
                       P6SM OVC025 FM171900 19013G22KT P6SM SCT030
                       BKN050 FM180000 18015G24KT P6SM SCT050 BKN080
                       FM180300 18008KT P6SM BKN050=
202306162337 TAF KBLI 162337Z 1700/1724 18008KT P6SM BKN035 OVC060 FM170200
                       18006KT P6SM OVC040 FM171600 18008KT P6SM
                       OVC025 FM171900 19010G20KT P6SM BKN050=
202306161723 TAF KBLI 161723Z 1618/1718 17008KT P6SM BKN035 OVC040 FM170200
                       18006KT P6SM OVC040 FM171400 18008KT P6SM
                       OVC025=
202306161130 TAF KBLI 161130Z 1612/1712 18010KT P6SM OVC050 FM161400 18012G22KT
                       P6SM OVC050 FM162000 18008KT P6SM OVC050
                       FM170200 18006KT P6SM OVC040=
202306160520 TAF KBLI 160520Z 1606/1706 18010KT P6SM SCT060 BKN090 FM161400
                       18012G22KT P6SM OVC050 FM161900 18008KT
                       P6SM OVC050 FM170100 18006KT P6SM OVC050=
202306152338 TAF KBLI 152338Z 1600/1624 19007KT P6SM FEW090 SCT250 FM160300
                       18010KT P6SM BKN120 FM161400 18010G20KT
                       P6SM OVC050 FM161900 18011KT P6SM OVC050=
202306151734 TAF KBLI 151734Z 1518/1618 19008KT P6SM SCT050 FM152000 18009KT
                       P6SM SCT050 SCT250 FM160300 18010KT P6SM
                       BKN120 FM161400 18010KT P6SM OVC050=
202306151120 TAF KBLI 151120Z 1512/1612 18004KT P6SM SCT060 FM151400 18004KT
                       P6SM SCT050 FM152000 18007KT P6SM SCT050
                       BKN250 FM160200 18010KT P6SM BKN250=
202306150535 TAF KBLI 150535Z 1506/1606 18004KT P6SM SCT060 FM151300 18004KT
                       P6SM BKN040 FM151800 18007KT P6SM BKN050=
202306142337 TAF KBLI 142337Z 1500/1524 19008KT P6SM BKN060 FM150300 18004KT
                       P6SM SCT060 FM151300 18004KT P6SM BKN040
                       FM151800 18007KT P6SM BKN050=
202306141739 TAF KBLI 141739Z 1418/1518 18009G17KT P6SM OVC050 FM142000 19008KT
                       P6SM BKN050 FM150300 18004KT P6SM SCT250
                       FM151300 18004KT P6SM BKN040=
202306141345 KBLI 141345Z 1414/1512 19007KT P6SM BKN045 OVC060 FM142000 17008KT
                       P6SM BKN050 FM150300 18004KT P6SM SCT250=
202306141121 KBLI 141121Z 1412/1512 19007KT P6SM BKN035 OVC060 FM142000 17008KT
                       P6SM BKN050 FM150300 18004KT P6SM SCT250=
202306140524 TAF KBLI 140524Z 1406/1506 18007KT P6SM OVC050 FM141100 19011KT
                       P6SM BKN030 FM142000 17008KT P6SM BKN050=
202306132328 TAF KBLI 132328Z 1400/1424 17014G23KT P6SM OVC050 FM140200 21007KT
                       P6SM OVC050 FM141000 19011KT P6SM BKN030
                       FM142200 17008KT P6SM BKN050=
202306131748 TAF KBLI 131748Z 1318/1418 19011G20KT P6SM BKN070 FM132100 19012G19KT
                       P6SM BKN050 FM140200 21007KT P6SM OVC050
                       FM141300 19010KT P6SM OVC035=
202306131301 KBLI 131301Z 1313/1412 19008G14KT P6SM SCT250 FM131600 20011G20KT
                       P6SM BKN070 FM132100 19012G19KT P6SM BKN050
                       FM140200 21007KT P6SM OVC050=
202306131131 TAF KBLI 131131Z 1312/1412 VRB05KT P6SM SCT250 FM131600 20011G20KT
                       P6SM BKN070 FM132100 19012G19KT P6SM BKN050
                       FM140200 21007KT P6SM OVC050=
202306130520 TAF KBLI 130520Z 1306/1406 19008KT P6SM SKC FM131100 18010G18KT
                       P6SM SCT020 FM131600 20011G20KT P6SM BKN030
                       FM132100 19012G19KT P6SM BKN050=
202306122336 TAF KBLI 122336Z 1300/1324 23006KT P6SM SKC FM130500 19008KT P6SM
                       SKC FM131100 18010G18KT P6SM SCT020=
202306121740 TAF KBLI 121740Z 1218/1318 23006KT P6SM SKC FM130500 19008KT P6SM
                       SKC FM131100 18010G18KT P6SM SCT020=
202306121226 KBLI 121226Z 1212/1312 19003KT 6SM BR FEW001
                      TEMPO 1212/1215 1/2SM FG VV001 FM121800 23006KT
                       P6SM SKC FM130500 19008KT P6SM SKC FM131100
                       18010G18KT P6SM SCT020=
202306121128 TAF KBLI 121128Z 1212/1312 19004KT P6SM SKC FM121800 23006KT P6SM
                       SKC FM130500 19008KT P6SM SKC FM131100 18010G18KT
                       P6SM SCT020=
202306120525 TAF KBLI 120525Z 1206/1306 19004KT P6SM SKC FM121300 VRB03KT P6SM
                       SKC FM121800 23007KT P6SM SKC FM130500 19008KT
                       P6SM SKC=
202306112320 TAF KBLI 112320Z 1200/1224 28005KT P6SM SCT040 FM120500 19004KT
                       P6SM SKC FM121400 00000KT P6SM SCT015=
202306111739 TAF KBLI 111739Z 1118/1218 31005KT P6SM SCT010 OVC019 FM111900
                       31005KT P6SM SCT015 BKN025 FM112100 28007KT
                       P6SM SCT040 FM120500 19004KT P6SM SKC FM121400
                       00000KT P6SM SCT015=
202306111355 KBLI 111355Z 1114/1212 VRB03KT P6SM SCT020 OVC050
                      TEMPO 1114/1116 4SM BR BKN018 FM111700 35006KT
                       P6SM BKN070 FM112100 28008KT P6SM SCT060
                       FM120500 19004KT P6SM SCT200=
202306111120 TAF KBLI 111120Z 1112/1212 VRB03KT P6SM OVC050
                      TEMPO 1112/1116 4SM BR FM111700 35006KT P6SM
                       BKN070 FM112100 28008KT P6SM SCT060 FM120500
                       19004KT P6SM SCT200=
202306110523 TAF KBLI 110523Z 1106/1206 VRB03KT P6SM OVC035 FM111700 34005KT
                       P6SM SCT020 OVC060 FM112100 28008KT P6SM
                       SCT060 FM120400 19004KT P6SM SCT200=
202306102334 TAF KBLI 102334Z 1100/1124 20005KT P6SM VCSH SCT008 OVC025 FM110600
                       01003KT P6SM OVC025 FM110900 00000KT 3SM
                       BR OVC006 FM111900 30005KT P6SM SCT020 OVC060=
202306102048 KBLI 102048Z 1021/1118 18006KT 3SM -RA BR BKN006 OVC020 FM102230
                       17008KT 6SM BR VCSH BKN015 OVC025 FM110000
                       20005KT P6SM BKN045 FM110600 01003KT P6SM
                       OVC025=
202306101729 TAF KBLI 101729Z 1018/1118 18006KT 5SM -RA BR SCT006 OVC018 FM101930
                       17008KT 6SM BR VCSH BKN015 OVC025 FM102200
                       20005KT P6SM BKN045 FM110600 01003KT P6SM
                       OVC025=
202306101459 KBLI 101459Z 1015/1112 18005KT 3SM -RA BR OVC005 FM101800 17008KT
                       6SM BR VCSH BKN015 OVC027 FM102200 17008KT
                       P6SM BKN027 BKN045 FM110300 VRB03KT P6SM
                       BKN045=
202306101345 KBLI 101345Z 1014/1112 17006KT 6SM BR VCSH SCT006 OVC010
                      TEMPO 1014/1017 3SM -SHRA BR BKN006 FM101800
                       17008KT 6SM BR VCSH BKN015 OVC027 FM102200
                       17008KT P6SM BKN027 BKN045 FM110300 VRB03KT
                       P6SM BKN045=
202306101120 TAF KBLI 101120Z 1012/1112 17009KT 6SM BR VCSH OVC010 FM101700
                       17008KT 6SM BR VCSH BKN015 OVC027 FM102200
                       17008KT P6SM BKN027 BKN045 FM110300 VRB03KT
                       P6SM BKN045=
202306100532 TAF KBLI 100532Z 1006/1106 18008KT 6SM -SHRA BR SCT006 OVC022 FM100900
                       17009KT 5SM BR VCSH OVC015 FM101700 17008KT
                       6SM BR VCSH BKN015 OVC027 FM102200 17008KT
                       P6SM BKN030 BKN050 FM110300 VRB03KT P6SM
                       BKN045=
202306092329 TAF KBLI 092329Z 1000/1024 18008KT P6SM -SHRA SCT025 BKN120 FM100800
                       17008G19KT P6SM VCSH OVC025=
202306091725 TAF KBLI 091725Z 0918/1018 18008KT P6SM -SHRA SCT015 BKN120 FM092000
                       18008KT P6SM -SHRA OVC022 FM100800 17008G19KT
                       P6SM VCSH OVC025=
202306091128 TAF KBLI 091128Z 0912/1012 18008KT P6SM SCT070 OVC120 FM091700
                       18008KT P6SM -RA OVC060 FM092000 18008KT
                       P6SM -RA OVC022=
202306090520 TAF KBLI 090520Z 0906/1006 19010G20KT P6SM FEW080 BKN110 FM091200
                       18010G20KT P6SM VCSH BKN080 OVC100 FM091500
                       18012G22KT P6SM VCSH OVC060 FM091800 18012KT
                       P6SM VCSH OVC030=
202306082320 TAF KBLI 082320Z 0900/0924 19013G23KT P6SM SKC FM090600 17014G21KT
                       P6SM OVC250 FM091200 18010G20KT P6SM VCSH
                       BKN080 OVC100=
202306081748 TAF KBLI 081748Z 0818/0918 19013G23KT P6SM FEW250 FM090600 17014G21KT
                       P6SM OVC120 FM091200 18010KT P6SM VCSH BKN080
                       OVC100=
202306081132 TAF KBLI 081132Z 0812/0912 19013G23KT P6SM FEW250 FM090600 18014G21KT
                       P6SM OVC120=
202306080536 TAF KBLI 080536Z 0806/0906 19006KT P6SM FEW250 FM080900 18011G17KT
                       P6SM FEW250=
202306072325 TAF KBLI 072325Z 0800/0824 19006KT P6SM FEW250 FM080900 18011G17KT
                       P6SM FEW250=
202306071722 TAF KBLI 071722Z 0718/0818 24006KT P6SM FEW250 FM080300 18007KT
                       P6SM FEW250=
202306071143 TAF KBLI 071143Z 0712/0812 VRB03KT P6SM SKC FM071800 24007KT P6SM
                       FEW250 FM080300 19008KT P6SM SKC=
202306070538 TAF KBLI 070538Z 0706/0806 00000KT P6SM SKC FM071800 25007KT P6SM
                       SKC FM080400 20008KT P6SM SKC=
202306062324 TAF KBLI 062324Z 0700/0724 29009KT P6SM SKC FM070200 26005KT P6SM
                       SKC FM070600 VRB02KT P6SM SKC FM071800 25005KT
                       P6SM SKC=
202306061720 TAF KBLI 061720Z 0618/0718 33007KT P6SM SKC FM062000 30009KT P6SM
                       SKC FM070200 26005KT P6SM SKC FM070600 VRB02KT
                       P6SM SKC=
202306061128 TAF KBLI 061128Z 0612/0712 VRB03KT P6SM SKC FM061600 36007KT P6SM
                       SKC FM062000 29009KT P6SM SKC FM070100 26006KT
                       P6SM SKC FM070500 19005KT P6SM SKC=
202306060522 TAF KBLI 060522Z 0606/0706 VRB03KT P6SM SKC FM061400 01007KT P6SM
                       SKC FM061900 31009KT P6SM SKC=
202306052320 TAF KBLI 052320Z 0600/0624 30009G15KT P6SM SKC FM060400 VRB04KT
                       P6SM SKC FM061400 01007KT P6SM SKC FM061900
                       31009KT P6SM SKC=
202306051726 TAF KBLI 051726Z 0518/0618 31007KT P6SM SKC FM052300 29008KT P6SM
                       SKC FM060500 VRB04KT P6SM SKC FM061100 01007KT
                       P6SM SKC=
202306051138 TAF KBLI 051138Z 0512/0612 VRB04KT P6SM SKC FM051500 32009KT P6SM
                       SKC FM052300 29008KT P6SM SKC FM060300 VRB04KT
                       P6SM SKC=
202306050543 TAF KBLI 050543Z 0506/0606 VRB05KT P6SM SKC FM051500 33007KT P6SM
                       SKC FM060300 VRB04KT P6SM SKC=
202306042320 TAF KBLI 042320Z 0500/0524 31011KT P6SM SKC FM050400 VRB05KT P6SM
                       SKC FM050800 18004KT P6SM SKC FM051500 34007KT
                       P6SM SKC=
202306041723 TAF KBLI 041723Z 0418/0518 18005KT P6SM BKN070 FM042100 23010KT
                       P6SM SKC FM050300 19006KT P6SM SKC FM051500
                       34007KT P6SM SKC=
202306041135 TAF KBLI 041135Z 0412/0512 18005KT P6SM BKN070 FM041900 28009KT
                       P6SM SKC FM050000 27007KT P6SM SKC=
202306040531 TAF KBLI 040531Z 0406/0506 19008KT P6SM SKC FM042100 23008KT P6SM
                       SKC=
202306032325 TAF KBLI 032325Z 0400/0424 18009KT P6SM SCT200 FM040400 17010G16KT
                       P6SM SCT200 FM041100 17009KT P6SM SCT200
                       FM042100 23009KT P6SM SKC=
202306031730 TAF KBLI 031730Z 0318/0418 18008KT P6SM SCT200 FM040400 17010G16KT
                       P6SM SCT200 FM041100 17009KT P6SM SCT200=
202306031120 TAF KBLI 031120Z 0312/0412 18005KT P6SM SKC FM032100 21008G16KT
                       P6SM SKC FM040400 17008KT P6SM SKC=
202306030537 TAF KBLI 030537Z 0306/0406 18008KT P6SM SKC=
202306022324 TAF KBLI 022324Z 0300/0324 21007KT P6SM FEW050 SCT200 FM030500
                       17010KT P6SM SCT200 FM032000 20008KT P6SM
                       SCT200=
202306021903 KBLI 021903Z 0219/0318 19010KT P6SM FEW050 SCT200 FM030400 17010KT
                       P6SM SCT200=
202306021720 TAF KBLI 021720Z 0218/0318 19011G18KT P6SM FEW050 SCT200 FM030400
                       17010KT P6SM SCT200=
202306021141 TAF KBLI 021141Z 0212/0312 17007KT P6SM FEW250 FM021700 19011G18KT
                       P6SM SCT250 FM030400 17010KT P6SM SCT250=
202306020602 KBLI 020602Z 0206/0306 17007KT P6SM FEW250 FM021700 19011KT P6SM
                       SCT250=
202306012331 TAF KBLI 012331Z 0200/0224 20007KT P6SM SKC FM020500 17007KT P6SM
                       FEW250 FM021700 19011G19KT P6SM SCT250=
202306011734 TAF KBLI 011734Z 0118/0218 18008KT P6SM SCT030 FM012000 20009G15KT
                       P6SM SKC FM020500 17008KT P6SM SKC=
202306011138 TAF KBLI 011138Z 0112/0212 18005KT P6SM BKN035 FM011500 18007KT
                       P6SM BKN030 FM011700 18008KT P6SM SCT030
                       FM012000 20009G15KT P6SM SKC FM020300 17008KT
                       P6SM SKC=
202306010522 TAF KBLI 010522Z 0106/0206 19006KT P6SM SCT080 FM011200 16005KT
                       P6SM BKN060 FM012000 20009G15KT P6SM SKC=