##########################################################
# Query made at 02/16/2025 23:30:05 UTC
# Time interval: from 01/01/2023 00:00  to 01/31/2023 23:59  UTC
##########################################################

##########################################################
# KBLI, Bellingham, Bellingham International Airport (United States)
# WMO index: -----. WIGOS ID: Unknown
# Latitude 48-47-58N. Longitude 122-32-21W. Altitude 48 m.
##########################################################

###################################
#  METAR/SPECI from KBLI
###################################
202301312353 METAR KBLI 312353Z 03004KT 10SM OVC045 01/01 A3020 RMK AO2 SLP237 60000 T00110006 10011 21006 58017=
202301312253 METAR KBLI 312253Z 03004KT 10SM SCT035 OVC044 01/01 A3022 RMK AO2 SLP244 T00110006=
202301312153 METAR KBLI 312153Z 04006KT 10SM FEW010 OVC050 01/00 A3024 RMK AO2 SLP249 T00110000=
202301312053 METAR KBLI 312053Z 04006KT 10SM OVC049 01/00 A3025 RMK AO2 SLP254 60000 T00060000 58014=
202301311953 METAR KBLI 311953Z 05004KT 10SM OVC046 01/00 A3028 RMK AO2 SNE05 SLP263 P0000 T00060000=
202301311921 SPECI KBLI 311921Z 05005KT 5SM BR SCT011 BKN031 OVC045 00/00 A3028 RMK AO2 SNE05 P0000 T00000000=
202301311853 METAR KBLI 311853Z 04005KT 2SM -SN BR OVC010 00/00 A3029 RMK AO2 SLP266 P0000 T00000000=
202301311753 METAR KBLI 311753Z 01005KT 1 3/4SM -SN BR SCT005 OVC012 M01/M01 A3029 RMK AO2 SLP268 P0000 60003 T10061006 10006 21011 53001=
202301311750 SPECI KBLI 311750Z 01004KT 1 3/4SM -SN BR SCT005 OVC012 M01/M01 A3029 RMK AO2 P0000=
202301311735 SPECI KBLI 311735Z 36005KT 3SM -SN BR OVC012 M01/M01 A3028 RMK AO2 P0000 T10061006=
202301311718 SPECI KBLI 311718Z 05003KT 2SM -SN BR SCT008 OVC014 M01/M01 A3027 RMK AO2 P0000 T10061006=
202301311653 METAR KBLI 311653Z 01004KT 1SM R16/5500VP6000FT -SN BR BKN008 BKN017 OVC030 M01/M01 A3028 RMK AO2 SLP264 P0001 T10061006=
202301311608 SPECI KBLI 311608Z 11004KT 1 1/4SM -SN BR BKN005 OVC012 M01/M01 A3027 RMK AO2 P0000 T10061006=
202301311606 SPECI KBLI 311606Z 11005KT 2 1/2SM -SN BR BKN005 OVC012 00/00 A3027 RMK AO2 P0000 T00000000=
202301311600 SPECI KBLI 311600Z 19006KT 2SM -SN BR OVC004 00/M01 A3027 RMK AO2 CIG 003V008 P0000 T00001006=
202301311553 METAR KBLI 311553Z 00000KT 1 1/4SM -SN BR BKN005 OVC012 M01/M01 A3028 RMK AO2 SLP264 P0002 T10111011=
202301311453 METAR KBLI 311453Z 00000KT 1 1/2SM -SN BR BKN015 OVC027 M01/M02 A3029 RMK AO2 SLP267 P0000 60000 T10111017 56004=
202301311434 SPECI KBLI 311434Z AUTO 04003KT 2SM -SN BR OVC029 M01/M02 A3029 RMK AO2 P0000 T10111022=
202301311418 SPECI KBLI 311418Z AUTO 04005KT 2 1/2SM -SN BR OVC031 M01/M03 A3029 RMK AO2 P0000 T10111028=
202301311353 METAR KBLI 311353Z AUTO 04006KT 6SM -SN OVC035 M01/M04 A3030 RMK AO2 SNB50 SLP269 P0000 T10061039=
202301311253 METAR KBLI 311253Z AUTO 35005KT 10SM BKN030 OVC041 00/M04 A3030 RMK AO2 SLP271 T00001039=
202301311153 METAR KBLI 311153Z AUTO 00000KT 10SM OVC038 M01/M04 A3029 RMK AO2 SLP267 T10061039 10000 21011 58010=
202301311053 METAR KBLI 311053Z AUTO 00000KT 10SM OVC045 M01/M04 A3031 RMK AO2 SLP275 T10061039=
202301310953 METAR KBLI 310953Z AUTO 00000KT 10SM OVC047 M01/M04 A3031 RMK AO2 SLP275 T10061039=
202301310853 METAR KBLI 310853Z AUTO 00000KT 10SM OVC050 M01/M04 A3032 RMK AO2 SLP277 T10061039 58008=
202301310753 METAR KBLI 310753Z AUTO 01003KT 10SM BKN050 BKN080 OVC100 M01/M04 A3033 RMK AO2 SLP281 T10061044 400281072=
202301310653 METAR KBLI 310653Z AUTO 35003KT 10SM OVC110 M01/M04 A3034 RMK AO2 SLP283 T10061044=
202301310553 METAR KBLI 310553Z 00000KT 10SM CLR M01/M04 A3034 RMK AO2 SLP286 T10111044 10022 21011 55006=
202301310453 METAR KBLI 310453Z 00000KT 10SM OVC110 01/M06 A3034 RMK AO2 SLP284 T00061061=
202301310353 METAR KBLI 310353Z 05003KT 10SM FEW120 00/M06 A3035 RMK AO2 SLP288 T00001061=
202301310253 METAR KBLI 310253Z 00000KT 10SM FEW050 M01/M06 A3036 RMK AO2 SLP294 T10061061 56010=
202301310153 METAR KBLI 310153Z 05003KT 10SM CLR 00/M07 A3037 RMK AO2 SLP295 T00001067=
202301310053 METAR KBLI 310053Z 02004KT 10SM CLR 01/M06 A3038 RMK AO2 SLP297 T00061056=
202301302353 METAR KBLI 302353Z 00000KT 10SM CLR 02/M05 A3039 RMK AO2 SLP303 T00221050 10028 21017 56017=
202301302253 METAR KBLI 302253Z 00000KT 10SM CLR 02/M04 A3040 RMK AO2 SLP306 T00221044=
202301302153 METAR KBLI 302153Z 18003KT 10SM CLR 02/M06 A3042 RMK AO2 SLP311 T00171061=
202301302053 METAR KBLI 302053Z 00000KT 10SM CLR 02/M06 A3045 RMK AO2 SLP320 T00221061 58008=
202301301953 METAR KBLI 301953Z 00000KT 10SM CLR 02/M06 A3046 RMK AO2 SLP326 T00221061=
202301301853 METAR KBLI 301853Z 02003KT 10SM CLR 01/M06 A3048 RMK AO2 SLP330 T00061056=
202301301753 METAR KBLI 301753Z 01004KT 10SM CLR M02/M06 A3047 RMK AO2 SLP329 T10171061 11017 21072 53002=
202301301653 METAR KBLI 301653Z 00000KT 10SM CLR M03/M07 A3046 RMK AO2 SLP327 T10331072=
202301301553 METAR KBLI 301553Z 00000KT 10SM CLR M06/M08 A3046 RMK AO2 SLP326 T10611078=
202301301453 METAR KBLI 301453Z 00000KT 10SM CLR M06/M08 A3046 RMK AO2 SLP328 T10561078 58007=
202301301353 METAR KBLI 301353Z AUTO 00000KT 10SM CLR M06/M08 A3048 RMK AO2 SLP332 T10611078=
202301301253 METAR KBLI 301253Z AUTO 00000KT 10SM CLR M05/M09 A3048 RMK AO2 SLP332 T10501089=
202301301153 METAR KBLI 301153Z AUTO 00000KT 10SM CLR M06/M07 A3048 RMK AO2 SLP334 T10611072 11028 21067 50003=
202301301053 METAR KBLI 301053Z AUTO 00000KT 10SM CLR M06/M08 A3050 RMK AO2 SLP337 T10561078=
202301300953 METAR KBLI 300953Z AUTO 00000KT 10SM CLR M05/M08 A3047 RMK AO2 SLP329 T10501078=
202301300853 METAR KBLI 300853Z AUTO 00000KT 10SM CLR M04/M08 A3048 RMK AO2 SLP331 T10391083 50000=
202301300753 METAR KBLI 300753Z AUTO 01003KT 10SM CLR M05/M08 A3048 RMK AO2 SLP332 T10501083 400331050=
202301300653 METAR KBLI 300653Z AUTO 35004KT 10SM CLR M03/M10 A3048 RMK AO2 SLP332 T10331100=
202301300553 METAR KBLI 300553Z 03003KT 10SM CLR M03/M09 A3048 RMK AO2 SLP331 T10331094 10028 21033 51003=
202301300453 METAR KBLI 300453Z 01004KT 10SM CLR M03/M10 A3048 RMK AO2 SLP331 T10331100=
202301300353 METAR KBLI 300353Z 03005KT 10SM CLR M03/M09 A3047 RMK AO2 SLP328 T10281094=
202301300253 METAR KBLI 300253Z 02003KT 10SM CLR M02/M11 A3047 RMK AO2 SLP327 T10221106 56005=
202301300153 METAR KBLI 300153Z 02003KT 10SM CLR M01/M12 A3047 RMK AO2 SLP329 T10111117=
202301300053 METAR KBLI 300053Z 00000KT 10SM CLR 01/M12 A3047 RMK AO2 SLP329 T00061117=
202301292353 METAR KBLI 292353Z 02006KT 10SM CLR 03/M12 A3048 RMK AO2 SLP333 T00281117 10033 20006 56008=
202301292253 METAR KBLI 292253Z 02008G16KT 10SM CLR 03/M13 A3048 RMK AO2 SLP333 T00281133=
202301292153 METAR KBLI 292153Z 04011KT 10SM CLR 03/M14 A3048 RMK AO2 SLP331 T00281139=
202301292053 METAR KBLI 292053Z 03013KT 10SM CLR 02/M14 A3051 RMK AO2 SLP341 T00221144 58004=
202301291953 METAR KBLI 291953Z 04008KT 10SM CLR 03/M14 A3051 RMK AO2 SLP342 T00281144=
202301291853 METAR KBLI 291853Z 04013G21KT 10SM CLR 02/M16 A3054 RMK AO2 PK WND 03030/1843 SLP351 T00171156=
202301291753 METAR KBLI 291753Z 04015G29KT 10SM CLR 01/M16 A3052 RMK AO2 PK WND 05029/1746 SLP345 T00061161 10006 21017 51008=
202301291653 METAR KBLI 291653Z 05014G22KT 10SM CLR 00/M17 A3052 RMK AO2 PK WND 05034/1600 SLP344 T00001167=
202301291553 METAR KBLI 291553Z 04022G35KT 10SM CLR M01/M17 A3051 RMK AO2 PK WND 04035/1553 SLP342 T10111167=
202301291453 METAR KBLI 291453Z 04018G32KT 10SM CLR M01/M16 A3049 RMK AO2 PK WND 04033/1443 SLP336 T10111156 51011=
202301291353 METAR KBLI 291353Z AUTO 05014G28KT 10SM CLR M01/M14 A3047 RMK AO2 PK WND 04033/1259 SLP329 T10111139=
202301291253 METAR KBLI 291253Z AUTO 04014G22KT 10SM CLR M01/M14 A3048 RMK AO2 PK WND 03030/1218 SLP332 T10111139=
202301291153 METAR KBLI 291153Z AUTO 03017G32KT 10SM CLR M01/M13 A3046 RMK AO2 PK WND 05035/1109 SLP324 T10061133 10011 21006 51015=
202301291053 METAR KBLI 291053Z AUTO 04020G31KT 10SM CLR M01/M13 A3046 RMK AO2 PK WND 04032/1027 SLP323 T10061133=
202301290953 METAR KBLI 290953Z AUTO 04018G31KT 10SM CLR 00/M12 A3044 RMK AO2 PK WND 05033/0927 SLP318 T00001122=
202301290853 METAR KBLI 290853Z AUTO 04015G30KT 10SM CLR 00/M12 A3041 RMK AO2 PK WND 04034/0807 SLP309 T00001117 51025=
202301290753 METAR KBLI 290753Z AUTO 04017G32KT 10SM CLR 01/M11 A3040 RMK AO2 PK WND 04034/0723 SLP305 T00061111 400830006=
202301290653 METAR KBLI 290653Z AUTO 04019G42KT 10SM CLR 01/M11 A3037 RMK AO2 PK WND 04042/0648 SLP294 T00111106=
202301290553 METAR KBLI 290553Z 04020G38KT 10SM CLR 01/M11 A3034 RMK AO2 PK WND 02038/0538 SLP283 T00111106 10061 20011 53027=
202301290453 METAR KBLI 290453Z 04024G36KT 10SM CLR 02/M10 A3031 RMK AO2 PK WND 04040/0403 SLP274 T00171100=
202301290353 METAR KBLI 290353Z 04021G34KT 10SM CLR 02/M10 A3028 RMK AO2 PK WND 03046/0332 SLP264 T00221100=
202301290253 METAR KBLI 290253Z 04021G35KT 10SM CLR 03/M09 A3026 RMK AO2 PK WND 04035/0219 SLP256 T00281094 53027=
202301290153 METAR KBLI 290153Z 03021G38KT 10SM FEW010 04/M09 A3023 RMK AO2 PK WND 02038/0148 SLP245 T00391089=
202301290053 METAR KBLI 290053Z 04022G34KT 10SM FEW100 05/M08 A3020 RMK AO2 PK WND 05037/0040 SLP236 T00501083=
202301282353 METAR KBLI 282353Z 04019G38KT 10SM CLR 06/M08 A3018 RMK AO2 PK WND 01038/2344 SLP228 T00611078 10083 20033 53014=
202301282253 METAR KBLI 282253Z 03019G31KT 10SM FEW080 07/M07 A3016 RMK AO2 PK WND 05035/2158 SLP221 T00721072=
202301282153 METAR KBLI 282153Z 04020G32KT 10SM FEW080 08/M06 A3014 RMK AO2 PK WND 03042/2109 SLP215 T00831061=
202301282053 METAR KBLI 282053Z 05016G28KT 10SM FEW060 SCT110 08/M04 A3014 RMK AO2 PK WND 04036/2031 SLP213 T00831039 58010=
202301281953 METAR KBLI 281953Z 03013G21KT 10SM CLR 07/01 A3015 RMK AO2 SLP217 T00720011=
202301281853 METAR KBLI 281853Z 01009G16KT 10SM CLR 06/04 A3016 RMK AO2 SLP222 T00560039=
202301281753 METAR KBLI 281753Z 34007KT 10SM CLR 03/03 A3016 RMK AO2 SLP224 T00330033 10056 20028 51007=
202301281707 SPECI KBLI 281707Z 34005KT 10SM CLR 03/03 A3016 RMK AO2 T00280028=
202301281653 METAR KBLI 281653Z 35004KT 1/2SM R16/P6000FT FG VV002 03/03 A3016 RMK AO2 SLP222 T00280028=
202301281648 SPECI KBLI 281648Z 34004KT 1/2SM R16/P6000FT FG VV001 03/03 A3016 RMK AO2=
202301281627 SPECI KBLI 281627Z 35004KT 3/4SM R16/2200V4000FT BCFG VV001 03/03 A3015 RMK AO2 T00280028=
202301281621 SPECI KBLI 281621Z 36005KT 1/4SM R16/2200V3000FT FG VV001 03/03 A3015 RMK AO2 T00280028=
202301281553 METAR KBLI 281553Z 01004KT 1/4SM R16/2200V2800FT FG VV002 03/03 A3014 RMK AO2 SLP217 T00280028=
202301281453 METAR KBLI 281453Z 36004KT 1/4SM R16/2800V3000FT FG VV002 03/03 A3014 RMK AO2 SLP216 T00330033 53001=
202301281443 SPECI KBLI 281443Z 01004KT 1/4SM R16/2000V3500FT FG VV003 03/03 A3014 RMK AO2 T00330033=
202301281410 SPECI KBLI 281410Z AUTO 01004KT 1/4SM R16/1600V2200FT FG VV002 04/04 A3014 RMK AO2 T00390039=
202301281400 SPECI KBLI 281400Z AUTO 35004KT 1/2SM R16/2400V3000FT FG VV002 04/04 A3014 RMK AO2 T00390039=
202301281353 METAR KBLI 281353Z AUTO 35004KT 1/4SM R16/1800V2400FT FG VV002 04/04 A3014 RMK AO2 SLP215 T00390039=
202301281350 SPECI KBLI 281350Z AUTO 35005KT 1/4SM R16/1800V2200FT FG VV002 04/04 A3014 RMK AO2=
202301281333 SPECI KBLI 281333Z AUTO 33004KT 1/2SM R16/2200V5000FT FG OVC002 04/04 A3014 RMK AO2 T00440044=
202301281315 SPECI KBLI 281315Z AUTO 35004KT 1SM R16/3000VP6000FT BR OVC002 05/05 A3014 RMK AO2 T00500050=
202301281259 SPECI KBLI 281259Z AUTO 00000KT 1/2SM R16/4000VP6000FT FG BKN002 OVC031 04/04 A3014 RMK AO2 T00440044=
202301281253 METAR KBLI 281253Z AUTO 00000KT 1SM R16/4500VP6000FT BR BKN002 BKN022 OVC031 04/04 A3014 RMK AO2 SLP215 T00440044=
202301281245 SPECI KBLI 281245Z AUTO 00000KT 2 1/2SM BR BKN002 BKN018 OVC031 05/05 A3014 RMK AO2 T00500050=
202301281238 SPECI KBLI 281238Z AUTO 08003KT 2 1/2SM BR FEW002 SCT020 OVC031 04/04 A3014 RMK AO2 T00440044=
202301281207 SPECI KBLI 281207Z AUTO 00000KT 4SM BR OVC032 05/05 A3015 RMK AO2 T00500050=
202301281153 METAR KBLI 281153Z AUTO 01003KT 2 1/2SM BR FEW003 OVC033 05/05 A3016 RMK AO2 SLP220 T00500050 10061 20044 50000=
202301281134 SPECI KBLI 281134Z AUTO 36004KT 2 1/2SM BR SCT003 SCT012 OVC035 05/05 A3016 RMK AO2 T00500050=
202301281053 METAR KBLI 281053Z AUTO 01003KT 2 1/2SM BR OVC002 05/05 A3016 RMK AO2 SLP222 T00500050=
202301280953 METAR KBLI 280953Z AUTO 00000KT 5SM BR BKN002 OVC036 06/06 A3015 RMK AO2 SLP219 T00560056=
202301280926 SPECI KBLI 280926Z AUTO 01003KT 5SM BR FEW002 OVC034 06/06 A3015 RMK AO2 T00560056=
202301280853 METAR KBLI 280853Z AUTO 01003KT 6SM BR OVC034 06/06 A3016 RMK AO2 SLP219 T00560056 56008=
202301280839 SPECI KBLI 280839Z AUTO 00000KT 7SM FEW004 OVC033 06/06 A3015 RMK AO2 T00560056=
202301280814 SPECI KBLI 280814Z AUTO 00000KT 8SM SCT026 OVC031 06/06 A3016 RMK AO2 T00560056=
202301280753 METAR KBLI 280753Z AUTO 00000KT 7SM OVC027 06/06 A3016 RMK AO2 SLP220 T00560056 400720056=
202301280739 SPECI KBLI 280739Z AUTO 00000KT 9SM FEW011 OVC029 06/06 A3016 RMK AO2 T00560056=
202301280727 SPECI KBLI 280727Z AUTO 00000KT 10SM FEW011 OVC030 06/06 A3017 RMK AO2 T00560056=
202301280707 SPECI KBLI 280707Z AUTO 32003KT 10SM SCT007 OVC029 06/06 A3017 RMK AO2 T00560056=
202301280653 METAR KBLI 280653Z AUTO 00000KT 10SM BKN006 OVC027 06/06 A3017 RMK AO2 CIG 005V008 SLP224 T00610061=
202301280604 SPECI KBLI 280604Z 00000KT 10SM BKN006 OVC025 06/06 A3018 RMK AO2 CIG 005V009 T00610061=
202301280553 METAR KBLI 280553Z 00000KT 10SM SCT008 OVC024 06/06 A3018 RMK AO2 SLP228 T00560056 10072 20056 57001=
202301280453 METAR KBLI 280453Z 00000KT 10SM SCT014 OVC022 06/06 A3018 RMK AO2 SLP227 T00610061=
202301280353 METAR KBLI 280353Z 00000KT 10SM SCT015 BKN023 OVC028 06/06 A3018 RMK AO2 SLP229 T00610061=
202301280253 METAR KBLI 280253Z 00000KT 10SM SCT012 OVC025 07/06 A3018 RMK AO2 SLP229 T00670061 58006=
202301280153 METAR KBLI 280153Z 00000KT 10SM OVC012 07/06 A3019 RMK AO2 SLP231 T00670061=
202301280122 SPECI KBLI 280122Z 00000KT 10SM BKN013 OVC029 07/06 A3020 RMK AO2 T00670061=
202301280053 METAR KBLI 280053Z 19003KT 10SM OVC017 07/06 A3020 RMK AO2 SLP235 T00670061=
202301272353 METAR KBLI 272353Z 00000KT 8SM SCT007 BKN011 OVC022 07/06 A3020 RMK AO2 SLP235 T00720061 10072 20067 56009=
202301272253 METAR KBLI 272253Z 22003KT 6SM BR SCT007 BKN011 OVC019 07/07 A3020 RMK AO2 SLP236 T00720067=
202301272153 METAR KBLI 272153Z 16004KT 6SM BR SCT007 BKN011 OVC019 07/07 A3020 RMK AO2 SLP236 T00720067=
202301272053 METAR KBLI 272053Z 18004KT 6SM BR SCT005 BKN012 OVC019 07/07 A3023 RMK AO2 SLP243 T00670067 58006=
202301272000 SPECI KBLI 272000Z 00000KT 6SM BR SCT005 OVC012 07/07 A3023 RMK AO2 T00720067=
202301271953 METAR KBLI 271953Z 00000KT 4SM BR BKN005 OVC018 07/07 A3024 RMK AO2 SLP247 T00720067=
202301271853 METAR KBLI 271853Z 29004KT 4SM BR BKN005 OVC018 07/07 A3024 RMK AO2 SLP250 T00670067=
202301271753 METAR KBLI 271753Z 00000KT 4SM BR BKN007 OVC012 07/07 A3024 RMK AO2 SLP249 60000 T00670067 10067 20061 51014=
202301271653 METAR KBLI 271653Z 36004KT 3SM BR BKN005 BKN010 OVC021 07/07 A3024 RMK AO2 SLP248 T00670067=
202301271553 METAR KBLI 271553Z 00000KT 3SM BR OVC007 07/07 A3022 RMK AO2 CIG 003V011 SLP240 T00670067=
202301271453 METAR KBLI 271453Z 33003KT 8SM BKN008 OVC034 06/06 A3020 RMK AO2 CIG 005V010 SLP236 60000 T00610061 50001=
202301271436 SPECI KBLI 271436Z 00000KT 9SM BKN008 OVC034 07/07 A3019 RMK AO2 PRESFR T00670067=
202301271353 METAR KBLI 271353Z AUTO 27003KT 10SM OVC004 07/07 A3022 RMK AO2 RAE22 SLP241 P0000 T00670067=
202301271317 SPECI KBLI 271317Z AUTO 20004KT 6SM -RA BR BKN004 OVC010 07/07 A3022 RMK AO2 CIG 003V006 P0000 T00670067=
202301271303 SPECI KBLI 271303Z AUTO 22003KT 4SM -RA BR SCT004 OVC010 07/07 A3022 RMK AO2 CIG 008V013 P0000 T00670067=
202301271253 METAR KBLI 271253Z AUTO VRB03KT 4SM -RA BR BKN006 OVC012 07/07 A3022 RMK AO2 RAB05 CIG 003V008 SLP241 P0000 T00670067=
202301271228 SPECI KBLI 271228Z AUTO 00000KT 6SM -RA BR FEW006 SCT010 OVC014 07/07 A3021 RMK AO2 RAB05 P0000 T00670067=
202301271153 METAR KBLI 271153Z AUTO 15005KT 10SM BKN018 OVC023 07/07 A3020 RMK AO2 RAE1056 SLP234 P0000 60012 70020 T00670067 10072 20061 58007=
202301271127 SPECI KBLI 271127Z AUTO 17006KT 10SM SCT015 OVC025 06/06 A3019 RMK AO2 RAE1056 P0000 T00610061=
202301271116 SPECI KBLI 271116Z AUTO 18004KT 7SM BKN014 BKN020 OVC031 06/06 A3020 RMK AO2 RAE1056 P0000 T00610061=
202301271053 METAR KBLI 271053Z AUTO 16007KT 7SM -RA BKN015 OVC022 06/06 A3021 RMK AO2 SLP237 P0001 T00610061=
202301271032 SPECI KBLI 271032Z AUTO 18004KT 8SM -RA OVC016 07/06 A3021 RMK AO2 P0000 T00670061=
202301270953 METAR KBLI 270953Z AUTO 16006KT 6SM -RA BR OVC011 07/07 A3022 RMK AO2 SLP240 P0004 T00670067=
202301270853 METAR KBLI 270853Z AUTO 17010G19KT 7SM -RA OVC013 07/06 A3022 RMK AO2 SLP241 P0006 60007 T00670061 56042=
202301270839 SPECI KBLI 270839Z AUTO 18009G19KT 7SM -RA OVC011 07/06 A3023 RMK AO2 P0005 T00670061=
202301270753 METAR KBLI 270753Z AUTO 18011G21KT 9SM -RA OVC008 07/07 A3025 RMK AO2 RAB38 SLP251 P0000 T00720067 400780056=
202301270653 METAR KBLI 270653Z AUTO 18012G20KT 10SM OVC009 07/07 A3029 RMK AO2 RAE30 CIG 008V013 SLP266 P0001 T00670067=
202301270553 METAR KBLI 270553Z 17010KT 6SM -RA BR OVC009 07/07 A3034 RMK AO2 CIG 006V011 SLP283 P0005 60007 T00670067 10078 20061 56037=
202301270453 METAR KBLI 270453Z 18013G22KT 8SM -RA FEW006 OVC013 07/06 A3036 RMK AO2 PK WND 19026/0409 RAB14 SLP288 P0002 T00670061=
202301270449 SPECI KBLI 270449Z 18011G22KT 7SM -RA FEW006 OVC013 07/06 A3036 RMK AO2 PK WND 19026/0409 RAB14 P0001=
202301270359 SPECI KBLI 270359Z 18011G19KT 10SM OVC015 07/06 A3040 RMK AO2 T00670061=
202301270353 METAR KBLI 270353Z 18011G19KT 10SM OVC005 07/06 A3040 RMK AO2 RAE42 SLP302 P0000 T00670061=
202301270253 METAR KBLI 270253Z 18009G18KT 4SM -RA BR OVC005 07/07 A3045 RMK AO2 RAB48 CIG 003V008 SLP320 P0000 60000 T00670067 55018=
202301270153 METAR KBLI 270153Z 17010KT 10SM BKN012 OVC018 07/06 A3045 RMK AO2 SLP319 T00720061=
202301270053 METAR KBLI 270053Z 18008KT 10SM BKN012 OVC018 08/06 A3049 RMK AO2 SLP334 T00780056=
202301262353 METAR KBLI 262353Z 18007KT 10SM FEW005 BKN018 BKN023 08/06 A3051 RMK AO2 SLP339 T00780061 10078 20061 58022=
202301262311 SPECI KBLI 262311Z 17007KT 10SM FEW005 BKN020 BKN030 07/06 A3053 RMK AO2 T00720061=
202301262253 METAR KBLI 262253Z 17008KT 8SM FEW005 BKN012 BKN028 07/07 A3053 RMK AO2 SLP348 T00720067=
202301262221 SPECI KBLI 262221Z 17009KT 4SM BR FEW007 OVC012 07/07 A3055 RMK AO2 T00670067=
202301262213 SPECI KBLI 262213Z 18009KT 4SM BR OVC012 07/07 A3055 RMK AO2 T00670067=
202301262153 METAR KBLI 262153Z 18010KT 4SM BR BKN008 OVC015 07/07 A3056 RMK AO2 CIG 003V011 SLP355 T00670067=
202301262114 SPECI KBLI 262114Z 18009KT 3SM BR OVC004 07/07 A3056 RMK AO2 T00670067=
202301262059 SPECI KBLI 262059Z 18009KT 2 1/2SM BR OVC004 07/07 A3056 RMK AO2 CIG 003V008 T00670067=
202301262053 METAR KBLI 262053Z 17010KT 4SM BR OVC005 07/07 A3057 RMK AO2 SLP360 T00670067 58024=
202301262041 SPECI KBLI 262041Z 17008KT 4SM BR OVC005 07/07 A3058 RMK AO2 T00670067=
202301262000 SPECI KBLI 262000Z 19007KT 4SM BR SCT005 OVC010 07/07 A3060 RMK AO2 T00670067=
202301261953 METAR KBLI 261953Z 18008KT 1 1/2SM BR SCT005 OVC010 07/07 A3060 RMK AO2 SLP369 T00670067=
202301261853 METAR KBLI 261853Z 17005KT 1 1/2SM BR OVC003 06/06 A3062 RMK AO2 SLP376 T00610061=
202301261753 METAR KBLI 261753Z 15004KT 1SM R16/5500VP6000FT BR OVC003 06/06 A3064 RMK AO2 SLP385 60001 T00610061 10061 20056 58001=
202301261700 SPECI KBLI 261700Z 16004KT 1 1/2SM BR OVC003 06/06 A3064 RMK AO2 T00560056=
202301261653 METAR KBLI 261653Z 16003KT 1 1/4SM BR OVC005 06/06 A3065 RMK AO2 SLP386 T00560056=
202301261619 SPECI KBLI 261619Z 16003KT 1 3/4SM BR BKN005 BKN008 OVC018 06/06 A3065 RMK AO2 T00560056=
202301261553 METAR KBLI 261553Z 00000KT 3SM BR BKN008 OVC016 06/06 A3064 RMK AO2 SLP385 T00560056=
202301261507 SPECI KBLI 261507Z 00000KT 5SM BR FEW004 SCT008 OVC014 06/06 A3065 RMK AO2 T00610061=
202301261453 METAR KBLI 261453Z 00000KT 3SM BR FEW004 SCT008 OVC015 06/06 A3065 RMK AO2 RAB21E45 SLP387 P0001 60001 T00610061 58005=
202301261445 SPECI KBLI 261445Z 00000KT 3SM BR FEW004 BKN008 OVC015 06/06 A3065 RMK AO2 RAB21E45 CIG 006V011 P0001 T00610061=
202301261440 SPECI KBLI 261440Z 00000KT 2SM -RA BR SCT004 BKN010 OVC015 06/06 A3065 RMK AO2 RAB21 CIG 006V012 P0001 T00610061=
202301261434 SPECI KBLI 261434Z 00000KT 1 3/4SM -RA BR BKN007 OVC012 06/06 A3065 RMK AO2 RAB21 CIG 003V009 P0001 T00560056=
202301261426 SPECI KBLI 261426Z AUTO 00000KT 2 1/2SM -RA BR BKN010 OVC014 06/06 A3065 RMK AO2 RAB21 CIG 007V012 P0000 T00610061=
202301261410 SPECI KBLI 261410Z AUTO 00000KT 4SM BR OVC013 06/06 A3066 RMK AO2 T00610061=
202301261353 METAR KBLI 261353Z AUTO 00000KT 5SM BR OVC015 06/06 A3066 RMK AO2 SLP390 T00560056=
202301261253 METAR KBLI 261253Z AUTO 00000KT 8SM OVC018 06/06 A3066 RMK AO2 SLP392 T00560056=
202301261153 METAR KBLI 261153Z AUTO 00000KT 8SM OVC025 06/06 A3066 RMK AO2 SLP392 70003 T00560056 10061 20056 56008=
202301261053 METAR KBLI 261053Z AUTO 17003KT 10SM FEW010 OVC025 06/06 A3067 RMK AO2 SLP393 T00560056=
202301261032 SPECI KBLI 261032Z AUTO 00000KT 9SM SCT010 OVC026 06/06 A3067 RMK AO2 T00560056=
202301261007 SPECI KBLI 261007Z AUTO 00000KT 8SM BKN007 OVC028 06/06 A3068 RMK AO2 T00560056=
202301260953 METAR KBLI 260953Z AUTO 00000KT 9SM FEW007 SCT012 OVC028 06/06 A3068 RMK AO2 SLP398 T00610061=
202301260859 SPECI KBLI 260859Z AUTO 00000KT 8SM SCT007 SCT013 OVC028 06/06 A3069 RMK AO2 T00610061=
202301260853 METAR KBLI 260853Z AUTO 00000KT 7SM BKN007 BKN013 OVC028 06/06 A3069 RMK AO2 SLP400 T00610061 58004=
202301260819 SPECI KBLI 260819Z AUTO 00000KT 7SM BKN008 OVC028 06/06 A3069 RMK AO2 CIG 007V010 T00560056=
202301260812 SPECI KBLI 260812Z AUTO 00000KT 6SM BR SCT008 OVC028 06/06 A3069 RMK AO2 T00560056=
202301260753 METAR KBLI 260753Z AUTO 00000KT 6SM BR FEW010 OVC028 06/06 A3069 RMK AO2 SLP399 T00560056 400830056=
202301260653 METAR KBLI 260653Z AUTO 00000KT 7SM OVC029 06/06 A3071 RMK AO2 SLP406 T00610061=
202301260553 METAR KBLI 260553Z 00000KT 7SM SCT007 OVC027 06/06 A3070 RMK AO2 SLP404 T00610061 10083 20061 58004=
202301260546 SPECI KBLI 260546Z 00000KT 7SM SCT007 SCT015 OVC027 06/06 A3070 RMK AO2 T00610061=
202301260453 METAR KBLI 260453Z 00000KT 7SM SCT025 OVC030 06/06 A3070 RMK AO2 SLP406 T00610061=
202301260353 METAR KBLI 260353Z 00000KT 10SM SCT025 OVC030 07/06 A3072 RMK AO2 SLP410 T00670061=
202301260318 SPECI KBLI 260318Z 00000KT 9SM OVC030 07/07 A3071 RMK AO2 T00670067=
202301260253 METAR KBLI 260253Z 00000KT 10SM BKN025 OVC031 07/07 A3071 RMK AO2 SLP408 T00670067 53003=
202301260153 METAR KBLI 260153Z 29003KT 10SM SCT013 BKN025 OVC031 07/07 A3071 RMK AO2 SLP407 T00720067=
202301260115 SPECI KBLI 260115Z 00000KT 10SM SCT013 BKN025 OVC031 07/07 A3071 RMK AO2 T00720072=
202301260053 METAR KBLI 260053Z 00000KT 10SM BKN013 08/07 A3070 RMK AO2 SLP406 T00780067=
202301252353 METAR KBLI 252353Z 00000KT 10SM OVC013 08/07 A3070 RMK AO2 SLP405 T00830067 10083 20061 55010=
202301252300 SPECI KBLI 252300Z 00000KT 10SM OVC013 08/07 A3070 RMK AO2 T00830072=
202301252253 METAR KBLI 252253Z 34003KT 10SM OVC009 08/07 A3070 RMK AO2 SLP403 T00780067=
202301252153 METAR KBLI 252153Z 30003KT 10SM OVC009 08/07 A3070 RMK AO2 CIG 006V013 SLP406 T00780072=
202301252053 METAR KBLI 252053Z 32004KT 7SM OVC008 07/07 A3073 RMK AO2 CIG 005V011 SLP415 T00720067 58001=
202301251953 METAR KBLI 251953Z 00000KT 4SM BR OVC003 07/07 A3074 RMK AO2 SLP417 T00720067=
202301251853 METAR KBLI 251853Z 05003KT 1 1/2SM BR OVC002 07/07 A3074 RMK AO2 SLP418 T00670067=
202301251753 METAR KBLI 251753Z 36004KT 1 1/2SM BR OVC002 06/06 A3074 RMK AO2 SLP417 60003 T00610061 10067 20056 50005=
202301251750 SPECI KBLI 251750Z 02004KT 1 1/2SM BR OVC002 06/06 A3074 RMK AO2=
202301251742 SPECI KBLI 251742Z 01003KT 2 1/2SM R16/4500VP6000FT BR OVC002 06/06 A3074 RMK AO2 VIS 1V4 T00610061=
202301251705 SPECI KBLI 251705Z 03003KT 1/2SM R16/4000VP6000FT FG BKN002 06/06 A3073 RMK AO2 T00610061=
202301251653 METAR KBLI 251653Z 00000KT 3/4SM R16/2800VP6000FT BR OVC002 06/06 A3073 RMK AO2 SLP415 T00610061=
202301251610 SPECI KBLI 251610Z 00000KT 1/2SM R16/3000V4000FT FG OVC005 06/06 A3072 RMK AO2 T00610061=
202301251553 METAR KBLI 251553Z 00000KT 1 3/4SM R16/4500VP6000FT BR OVC005 06/06 A3072 RMK AO2 SLP412 T00610061=
202301251518 SPECI KBLI 251518Z 00000KT 1 3/4SM R16/5000VP6000FT BR OVC005 06/06 A3071 RMK AO2 T00610061=
202301251453 METAR KBLI 251453Z 00000KT 1SM R16/4500VP6000FT BR OVC002 06/06 A3071 RMK AO2 SLP407 60003 T00610061 53004=
202301251425 SPECI KBLI 251425Z AUTO 03003KT 1 1/4SM R16/4500VP6000FT BR BKN002 OVC008 06/06 A3070 RMK AO2 T00610061=
202301251402 SPECI KBLI 251402Z AUTO 00000KT 2 1/2SM R16/5500VP6000FT BR BKN004 OVC008 06/06 A3070 RMK AO2 CIG 002V006 T00610061=
202301251353 METAR KBLI 251353Z AUTO 00000KT 3SM BR OVC005 06/06 A3070 RMK AO2 RAB1256E31 SLP404 P0002 T00610061=
202301251348 SPECI KBLI 251348Z AUTO 00000KT 3SM BR OVC005 06/06 A3070 RMK AO2 RAB1256E31 P0002=
202301251315 SPECI KBLI 251315Z AUTO 30003KT 2SM -RA BR OVC005 06/06 A3069 RMK AO2 RAB1256 P0002 T00610061=
202301251303 SPECI KBLI 251303Z AUTO 00000KT 1 3/4SM -RA BR OVC003 06/06 A3069 RMK AO2 RAB1256 P0001 T00610061=
202301251253 METAR KBLI 251253Z AUTO 32003KT 2SM BR OVC003 06/06 A3069 RMK AO2 RAE43 SLP403 P0001 T00610061=
202301251205 SPECI KBLI 251205Z AUTO 00000KT 2SM -RA BR OVC002 06/06 A3069 RMK AO2 P0000 T00610061=
202301251153 METAR KBLI 251153Z AUTO 00000KT 1 1/2SM -RA BR OVC002 06/06 A3068 RMK AO2 RAB53 SLP398 P0000 60000 70007 T00610061 10067 20061 51006=
202301251150 SPECI KBLI 251150Z AUTO 00000KT 1 1/2SM BR OVC002 06/06 A3068 RMK AO2=
202301251123 SPECI KBLI 251123Z AUTO 23003KT 2 1/2SM BR OVC002 06/06 A3067 RMK AO2 T00610061=
202301251053 METAR KBLI 251053Z AUTO 00000KT 5SM BR OVC002 07/07 A3067 RMK AO2 SLP395 T00670067=
202301251022 SPECI KBLI 251022Z AUTO 00000KT 4SM BR OVC002 07/07 A3067 RMK AO2 T00670067=
202301251000 SPECI KBLI 251000Z AUTO 23003KT 2SM BR OVC002 07/07 A3066 RMK AO2 T00670067=
202301250953 METAR KBLI 250953Z AUTO 00000KT 3SM BR OVC002 07/07 A3066 RMK AO2 SLP392 T00670067=
202301250853 METAR KBLI 250853Z AUTO 00000KT 4SM BR OVC002 07/07 A3065 RMK AO2 RAE04 SLP387 P0000 60000 T00670067 50000=
202301250801 SPECI KBLI 250801Z AUTO 00000KT 3SM -RA BR OVC003 07/07 A3066 RMK AO2 P0000 T00670067=
202301250753 METAR KBLI 250753Z AUTO 00000KT 2 1/2SM -RA BR OVC003 06/06 A3066 RMK AO2 RAB51 SLP391 P0000 T00610061 400720039=
202301250706 SPECI KBLI 250706Z AUTO 00000KT 3SM BR OVC004 07/07 A3065 RMK AO2 T00670067=
202301250653 METAR KBLI 250653Z AUTO 19003KT 3SM BR BKN006 OVC009 06/06 A3065 RMK AO2 SLP387 T00610061=
202301250553 METAR KBLI 250553Z 00000KT 3SM BR BKN008 OVC012 06/06 A3064 RMK AO2 SLP382 60001 T00610061 10067 20061 53012=
202301250453 METAR KBLI 250453Z 18003KT 3SM BR BKN008 OVC015 06/06 A3062 RMK AO2 RAB21E32 SLP376 P0001 T00610061=
202301250353 METAR KBLI 250353Z 17004KT 3SM BR BKN008 BKN015 OVC019 06/06 A3061 RMK AO2 RAB18E47 SLP374 P0000 T00610061=
202301250348 SPECI KBLI 250348Z 17003KT 3SM BR SCT008 BKN015 OVC019 06/06 A3061 RMK AO2 RAB18E47 P0000=
202301250305 SPECI KBLI 250305Z 00000KT 2 1/2SM BR BKN008 OVC013 06/06 A3060 RMK AO2 T00610061=
202301250253 METAR KBLI 250253Z 00000KT 3SM BR OVC008 06/06 A3060 RMK AO2 SLP371 60000 T00610061 53008=
202301250153 METAR KBLI 250153Z 18003KT 4SM BR OVC006 06/06 A3059 RMK AO2 SLP367 T00610061=
202301250053 METAR KBLI 250053Z AUTO 17005KT 3SM BR OVC006 06/06 A3058 RMK AO2 RAE11B29E36 SLP365 P0000 T00610061=
202301242359 SPECI KBLI 242359Z 18007KT 3SM -RA BR OVC006 06/06 A3058 RMK AO2 P0000 T00610061=
202301242358 SPECI KBLI 242358Z 18007KT 3SM -RA BR OVC006 06/06 A3058 RMK AO2 P0000 T00610056=
202301242353 METAR KBLI 242353Z 18008KT 8SM -RA OVC006 07/06 A3058 RMK AO2 RAB52 SLP363 P0000 60000 T00670056 10072 20061 53007=
202301242253 METAR KBLI 242253Z 17007KT 10SM OVC013 07/06 A3056 RMK AO2 SLP358 T00670056=
202301242153 METAR KBLI 242153Z 18007KT 10SM OVC014 07/06 A3055 RMK AO2 SLP356 T00670056=
202301242149 SPECI KBLI 242149Z 18006KT 10SM OVC014 07/06 A3056 RMK AO2=
202301242053 METAR KBLI 242053Z 19006KT 10SM SCT016 OVC028 07/06 A3057 RMK AO2 SLP359 60000 T00670056 51006=
202301241953 METAR KBLI 241953Z 18007KT 10SM SCT012 OVC017 07/05 A3056 RMK AO2 SLP356 T00670050=
202301241853 METAR KBLI 241853Z 18010G18KT 10SM OVC021 06/05 A3056 RMK AO2 RAB1759E15 SLP359 P0000 T00610050=
202301241753 METAR KBLI 241753Z 19009G18KT 5SM BR SCT013 OVC020 06/05 A3055 RMK AO2 RAB1657E17 SLP353 P0000 60006 T00610050 10061 20039 51008=
202301241653 METAR KBLI 241653Z 18008KT 5SM BR SCT013 OVC019 06/05 A3054 RMK AO2 RAE24 SLP352 P0000 T00610050=
202301241553 METAR KBLI 241553Z 16005KT 8SM -RA OVC024 06/05 A3053 RMK AO2 SLP348 P0001 T00560050=
202301241453 METAR KBLI 241453Z 14007KT 7SM -RA OVC026 06/05 A3052 RMK AO2 SLP345 P0001 60005 T00560050 55001=
202301241418 SPECI KBLI 241418Z AUTO 16007KT 10SM -RA OVC028 05/04 A3051 RMK AO2 P0000 T00500044=
202301241353 METAR KBLI 241353Z AUTO 15006KT 9SM -RA OVC033 05/05 A3052 RMK AO2 SLP344 P0003 T00500050=
202301241253 METAR KBLI 241253Z AUTO 00000KT 4SM -RA BR OVC033 04/04 A3052 RMK AO2 SLP344 P0001 T00390039=
202301241153 METAR KBLI 241153Z AUTO 00000KT 10SM -RA SCT030 OVC036 04/04 A3053 RMK AO2 RAB16 SLP346 P0000 60000 T00440044 10050 20033 51003=
202301241151 SPECI KBLI 241151Z AUTO 00000KT 10SM -RA SCT029 OVC036 04/04 A3052 RMK AO2 RAB16 P0000=
202301241141 SPECI KBLI 241141Z AUTO 00000KT 10SM -RA BKN029 OVC036 04/04 A3052 RMK AO2 RAB16 P0000 T00440044=
202301241053 METAR KBLI 241053Z AUTO 00000KT 10SM FEW033 BKN040 OVC049 04/04 A3053 RMK AO2 SLP347 T00440044=
202301240953 METAR KBLI 240953Z AUTO 00000KT 10SM OVC036 04/04 A3052 RMK AO2 SLP343 T00440044=
202301240853 METAR KBLI 240853Z AUTO 00000KT 10SM OVC036 05/04 A3051 RMK AO2 SLP341 T00500039 58003=
202301240753 METAR KBLI 240753Z AUTO 00000KT 10SM OVC037 04/04 A3053 RMK AO2 SLP347 T00440044 400670017=
202301240653 METAR KBLI 240653Z AUTO 00000KT 10SM OVC039 04/04 A3052 RMK AO2 SLP344 T00440044=
202301240633 SPECI KBLI 240633Z AUTO 00000KT 10SM OVC040 04/04 A3053 RMK AO2 T00440044=
202301240553 METAR KBLI 240553Z 00000KT 10SM BKN028 OVC038 04/04 A3052 RMK AO2 SLP343 T00440044 10061 20044 53002=
202301240453 METAR KBLI 240453Z 00000KT 10SM BKN028 OVC040 05/04 A3051 RMK AO2 SLP340 T00500044=
202301240353 METAR KBLI 240353Z 00000KT 10SM BKN028 OVC040 06/04 A3051 RMK AO2 SLP342 T00560044=
202301240327 SPECI KBLI 240327Z 00000KT 10SM BKN028 OVC034 05/04 A3051 RMK AO2 T00500044=
202301240253 METAR KBLI 240253Z 00000KT 10SM OVC033 05/04 A3051 RMK AO2 SLP342 T00500044 51007=
202301240153 METAR KBLI 240153Z AUTO 18003KT 10SM OVC031 06/04 A3051 RMK AO2 SLP340 T00610044=
202301240140 SPECI KBLI 240140Z AUTO 20003KT 10SM OVC030 06/04 A3051 RMK AO2 T00560044=
202301240053 METAR KBLI 240053Z AUTO 00000KT 10SM OVC027 06/04 A3050 RMK AO2 SLP337 T00610044=
202301232353 METAR KBLI 232353Z 19003KT 10SM OVC027 06/04 A3049 RMK AO2 SLP334 T00610039 10067 20044 58008=
202301232253 METAR KBLI 232253Z 15006KT 10SM OVC026 06/04 A3049 RMK AO2 SLP335 T00610039=
202301232153 METAR KBLI 232153Z 00000KT 10SM OVC020 06/03 A3052 RMK AO2 SLP345 T00610033=
202301232053 METAR KBLI 232053Z 00000KT 10SM OVC031 06/03 A3052 RMK AO2 SLP343 T00610033 51004=
202301231953 METAR KBLI 231953Z 14005KT 10SM OVC031 06/03 A3050 RMK AO2 SLP339 T00610033=
202301231853 METAR KBLI 231853Z 00000KT 10SM OVC031 05/04 A3053 RMK AO2 SLP349 T00500039=
202301231753 METAR KBLI 231753Z 07003KT 10SM OVC036 04/03 A3050 RMK AO2 SLP338 60000 T00440033 10044 20017 55000=
202301231653 METAR KBLI 231653Z 00000KT 9SM BKN040 OVC055 03/03 A3048 RMK AO2 SLP332 T00280028=
202301231553 METAR KBLI 231553Z 00000KT 10SM BKN060 02/02 A3048 RMK AO2 SLP332 T00220022=
202301231453 METAR KBLI 231453Z 00000KT 8SM OVC050 03/03 A3050 RMK AO2 RAB1354E27 SLP339 P0000 60000 T00280028 53002=
202301231353 METAR KBLI 231353Z AUTO 00000KT 8SM BKN050 OVC065 02/02 A3049 RMK AO2 SLP334 T00220022=
202301231253 METAR KBLI 231253Z AUTO 00000KT 10SM FEW040 BKN055 OVC075 02/02 A3049 RMK AO2 RAE1159 SLP333 P0000 T00220022=
202301231153 METAR KBLI 231153Z AUTO 00000KT 10SM -RA BKN070 OVC100 02/02 A3050 RMK AO2 UPB46E48RAB48 SLP337 P0000 60000 70009 T00220022 10033 20017 50012=
202301231053 METAR KBLI 231053Z AUTO 00000KT 10SM OVC080 02/02 A3050 RMK AO2 SLP339 T00220022=
202301230953 METAR KBLI 230953Z AUTO 00000KT 5SM BR OVC075 02/02 A3048 RMK AO2 SLP329 T00170017=
202301230853 METAR KBLI 230853Z AUTO 00000KT 3SM BR OVC075 02/02 A3046 RMK AO2 SLP325 T00220022 55002=
202301230753 METAR KBLI 230753Z AUTO 00000KT 10SM OVC085 02/02 A3046 RMK AO2 SLP324 T00220022 400560000=
202301230653 METAR KBLI 230653Z AUTO 00000KT 10SM FEW080 OVC095 02/02 A3047 RMK AO2 SLP327 T00170017=
202301230553 METAR KBLI 230553Z 00000KT 10SM SCT100 02/02 A3047 RMK AO2 SLP327 T00170017 10050 20000 58006=
202301230453 METAR KBLI 230453Z 00000KT 10SM FEW030 SCT110 01/01 A3048 RMK AO2 SLP331 T00110011=
202301230403 SPECI KBLI 230403Z 00000KT 10SM SCT030 01/01 A3049 RMK AO2 T00060006=
202301230400 SPECI KBLI 230400Z 00000KT 1/2SM R16/4500VP6000FT FG CLR 01/01 A3049 RMK AO2 T00060006=
202301230353 METAR KBLI 230353Z 00000KT 10SM R16/4500VP6000FT SCT030 01/01 A3049 RMK AO2 SLP333 T00060006=
202301230253 METAR KBLI 230253Z 00000KT 10SM SCT030 01/01 A3049 RMK AO2 SLP333 T00110011 53001=
202301230153 METAR KBLI 230153Z 00000KT 10SM FEW002 SCT030 BKN060 02/02 A3048 RMK AO2 SLP332 T00220022=
202301230053 METAR KBLI 230053Z 20003KT 10SM FEW020 SCT035 BKN060 04/04 A3047 RMK AO2 SLP328 T00440039=
202301230002 SPECI KBLI 230002Z 18003KT 10SM SCT028 OVC035 05/04 A3048 RMK AO2 T00500039=
202301222353 METAR KBLI 222353Z 22003KT 8SM BKN016 BKN022 OVC032 05/04 A3048 RMK AO2 RAE46 SLP332 P0000 60006 T00500039 10056 20044 51012=
202301222253 METAR KBLI 222253Z 26003KT 8SM -RA SCT012 BKN020 OVC025 05/04 A3047 RMK AO2 SLP328 P0003 T00500044=
202301222153 METAR KBLI 222153Z 21003KT 9SM -RA FEW014 SCT020 BKN025 06/04 A3046 RMK AO2 SLP324 P0000 T00560039=
202301222053 METAR KBLI 222053Z 19005KT 9SM -RA BKN022 BKN029 OVC039 05/04 A3045 RMK AO2 SLP320 P0000 60003 T00500044 58001=
202301221953 METAR KBLI 221953Z 20004KT 4SM -RA BR OVC023 05/04 A3045 RMK AO2 SLP321 P0002 T00500039=
202301221853 METAR KBLI 221853Z VRB03KT 5SM -RA BR SCT018 OVC025 05/04 A3046 RMK AO2 RAB01 SLP323 P0001 T00500039=
202301221753 METAR KBLI 221753Z 18004KT 10SM BKN022 OVC028 05/03 A3045 RMK AO2 SLP321 60003 T00500033 10056 20039 53018=
202301221653 METAR KBLI 221653Z 18006KT 10SM BKN024 OVC032 06/04 A3043 RMK AO2 SLP314 T00560039=
202301221553 METAR KBLI 221553Z 20003KT 10SM BKN021 OVC032 05/03 A3041 RMK AO2 SLP306 T00500033=
202301221453 METAR KBLI 221453Z 00000KT 10SM SCT024 OVC030 04/04 A3040 RMK AO2 RAE46 SLP302 P0000 60003 T00390039 51010=
202301221440 SPECI KBLI 221440Z 00000KT 10SM -RA FEW018 BKN030 OVC037 04/04 A3039 RMK AO2 P0000 T00440039=
202301221353 METAR KBLI 221353Z AUTO 22004KT 7SM -RA SCT012 OVC019 05/04 A3038 RMK AO2 RAB00 SLP296 P0003 T00500039=
202301221329 SPECI KBLI 221329Z AUTO 00000KT 7SM -RA BKN016 OVC021 05/04 A3037 RMK AO2 RAB00 P0002 T00500039=
202301221322 SPECI KBLI 221322Z AUTO VRB04KT 7SM -RA BKN014 OVC022 05/04 A3037 RMK AO2 RAB00 P0002 T00500039=
202301221253 METAR KBLI 221253Z AUTO 19006KT 10SM BKN022 OVC028 05/04 A3036 RMK AO2 RAB1154E13B36E47 SLP291 P0000 T00500039=
202301221153 METAR KBLI 221153Z AUTO 00000KT 10SM BKN024 OVC033 04/04 A3034 RMK AO2 RAB1056E52 SLP285 P0000 60001 70020 T00440044 10056 20028 51019=
202301221053 METAR KBLI 221053Z AUTO VRB04KT 10SM OVC023 05/04 A3033 RMK AO2 RAB0956E52 SLP280 P0000 T00500044=
202301221017 SPECI KBLI 221017Z AUTO 18004KT 8SM -RA BKN021 OVC031 04/04 A3032 RMK AO2 RAB0956 P0000 T00440044=
202301220953 METAR KBLI 220953Z AUTO 18003KT 10SM FEW024 OVC034 05/04 A3031 RMK AO2 RAE21 SLP273 P0000 T00500044=
202301220943 SPECI KBLI 220943Z AUTO 18006KT 10SM FEW020 SCT027 OVC034 04/04 A3031 RMK AO2 RAE21 P0000 T00440044=
202301220853 METAR KBLI 220853Z AUTO 16003KT 7SM -RA BKN017 OVC022 04/04 A3029 RMK AO2 SLP266 P0001 60001 T00390039 51021=
202301220753 METAR KBLI 220753Z AUTO 19004KT 6SM -RA BR BKN018 OVC027 04/04 A3027 RMK AO2 RAB47 SLP261 P0000 T00390039 400611022=
202301220653 METAR KBLI 220653Z AUTO 00000KT 5SM BR BKN023 OVC028 03/03 A3026 RMK AO2 SLP257 T00330033=
202301220605 SPECI KBLI 220605Z 00000KT 5SM BR SCT009 OVC020 03/03 A3024 RMK AO2 T00280028=
202301220553 METAR KBLI 220553Z 16003KT 3SM BR BKN009 OVC022 03/03 A3023 RMK AO2 RAE21 SLP245 P0000 60011 T00280028 10056 20028 51025=
202301220453 METAR KBLI 220453Z 00000KT 2 1/2SM -RA BR OVC012 03/03 A3021 RMK AO2 RAB43 SLP238 P0000 T00280028=
202301220353 METAR KBLI 220353Z 00000KT 6SM BR FEW005 OVC012 03/03 A3019 RMK AO2 RAE0257B15E39 SLP233 P0000 T00280028=
202301220253 METAR KBLI 220253Z 36005KT 6SM -RA BR SCT004 OVC017 03/03 A3016 RMK AO2 SLP222 P0001 60011 T00280028 53021=
202301220153 METAR KBLI 220153Z 01005KT 6SM -RA BR SCT005 BKN015 OVC020 03/03 A3013 RMK AO2 SLP212 P0005 T00280028=
202301220056 SPECI KBLI 220056Z 02006KT 6SM RA BR FEW003 BKN015 OVC025 03/03 A3011 RMK AO2 P0001 T00280028=
202301220053 METAR KBLI 220053Z 01005KT 8SM RA BKN015 BKN020 OVC030 03/03 A3011 RMK AO2 SLP206 P0005 T00280028=
202301220038 SPECI KBLI 220038Z 01007KT 8SM -RA BKN015 BKN020 OVC030 03/03 A3011 RMK AO2 P0002 T00330033=
202301212353 METAR KBLI 212353Z 13005KT 7SM -RA BKN015 BKN025 OVC030 06/04 A3009 RMK AO2 RAE2256B15 SLP200 P0002 60008 T00560039 10061 20011 53001=
202301212253 METAR KBLI 212253Z 12007KT 10SM -RA BKN015 BKN020 OVC030 05/04 A3009 RMK AO2 PK WND 16031/2155 SLP197 P0000 T00500039=
202301212153 METAR KBLI 212153Z 17014G24KT 8SM -RA BKN016 OVC020 04/03 A3009 RMK AO2 PK WND 15026/2100 SLP198 P0001 T00440033=
202301212053 METAR KBLI 212053Z 16018G27KT 8SM -RA BKN018 OVC026 05/03 A3009 RMK AO2 PK WND 17034/2018 SLP199 P0005 60005 T00500033 58020=
202301212020 SPECI KBLI 212020Z 15019G34KT 6SM -RA BR BKN021 BKN025 OVC029 05/03 A3012 RMK AO2 PK WND 17034/2018 P0001 T00500028=
202301211953 METAR KBLI 211953Z 17022G30KT 9SM -RA FEW033 BKN050 OVC065 04/02 A3013 RMK AO2 PK WND 18028/1953 RAB10E25B53 SLP213 P0000 T00440022=
202301211853 METAR KBLI 211853Z 00000KT 10SM BKN070 OVC080 02/02 A3016 RMK AO2 SLP222 T00170017=
202301211753 METAR KBLI 211753Z 00000KT 10SM BKN060 BKN075 OVC100 01/01 A3015 RMK AO2 SLP219 I6001 T00110011 10011 21022 56019=
202301211653 METAR KBLI 211653Z 00000KT 10SM BKN070 OVC090 01/01 A3017 RMK AO2 SLP228 I1001 T00060006=
202301211553 METAR KBLI 211553Z 00000KT 10SM CLR M02/M02 A3017 RMK AO2 SLP228 T10171017=
202301211453 METAR KBLI 211453Z 03005KT 10SM CLR M02/M02 A3020 RMK AO2 SLP238 I1000 I3000 T10221022 56044=
202301211353 METAR KBLI 211353Z AUTO 00000KT 10SM CLR M01/M01 A3024 RMK AO2 SLP251 I1000 T10061006=
202301211253 METAR KBLI 211253Z AUTO 32003KT 10SM CLR M01/M01 A3028 RMK AO2 SLP263 I1000 T10061006=
202301211153 METAR KBLI 211153Z AUTO 00000KT 6SM BR FEW045 00/00 A3033 RMK AO2 SLP281 I6001 T00000000 10006 21017 58018=
202301211053 METAR KBLI 211053Z AUTO 01003KT 9SM BKN044 M01/M01 A3037 RMK AO2 SLP294 T10111011=
202301210953 METAR KBLI 210953Z AUTO 00000KT 5SM BR CLR M02/M02 A3038 RMK AO2 SLP297 I1001 T10171017=
202301210853 METAR KBLI 210853Z AUTO 00000KT 3SM BR CLR M01/M01 A3039 RMK AO2 SLP300 T10111011 58012=
202301210847 SPECI KBLI 210847Z AUTO 32003KT 3SM BR CLR M01/M01 A3039 RMK AO2=
202301210838 SPECI KBLI 210838Z AUTO 00000KT 1 3/4SM BR CLR M01/M01 A3039 RMK AO2 T10111011=
202301210753 METAR KBLI 210753Z AUTO 00000KT 4SM BR CLR M01/M01 A3041 RMK AO2 SLP307 T10111011 400891017=
202301210748 SPECI KBLI 210748Z AUTO 00000KT 1 1/4SM BR CLR M01/M01 A3041 RMK AO2=
202301210741 SPECI KBLI 210741Z AUTO 00000KT 3/4SM R16/3500VP6000FT BR VV002 M01/M01 A3041 RMK AO2 T10061006=
202301210738 SPECI KBLI 210738Z AUTO 00000KT 1 1/4SM R16/3500VP6000FT BR FEW002 M01/M02 A3041 RMK AO2 VIS 1/2V5 T10111017=
202301210733 SPECI KBLI 210733Z AUTO 00000KT 3SM R16/5000VP6000FT BR CLR M01/M01 A3041 RMK AO2 T10111011=
202301210724 SPECI KBLI 210724Z AUTO 00000KT 1 3/4SM BR CLR M01/M01 A3041 RMK AO2 T10111011=
202301210653 METAR KBLI 210653Z AUTO 00000KT 5SM BR CLR M01/M01 A3041 RMK AO2 SLP307 T10061006=
202301210651 SPECI KBLI 210651Z AUTO 00000KT 4SM BR CLR M01/M01 A3041 RMK AO2=
202301210640 SPECI KBLI 210640Z AUTO 00000KT 1 3/4SM BR CLR M01/M01 A3041 RMK AO2 T10111011=
202301210553 METAR KBLI 210553Z 00000KT 10SM CLR 00/00 A3042 RMK AO2 SLP312 T00000000 10078 21006 56014=
202301210453 METAR KBLI 210453Z 00000KT 10SM CLR 01/00 A3043 RMK AO2 SLP316 T00060000=
202301210353 METAR KBLI 210353Z 00000KT 10SM CLR 01/01 A3045 RMK AO2 SLP321 T00060006=
202301210253 METAR KBLI 210253Z 00000KT 10SM CLR 02/02 A3046 RMK AO2 SLP327 T00170017 58007=
202301210153 METAR KBLI 210153Z 00000KT 10SM CLR 02/02 A3047 RMK AO2 SLP328 T00170017=
202301210053 METAR KBLI 210053Z 00000KT 10SM FEW100 04/03 A3048 RMK AO2 SLP332 T00390028=
202301202353 METAR KBLI 202353Z 00000KT 10SM CLR 08/03 A3049 RMK AO2 SLP332 T00780028 10089 20022 58007=
202301202253 METAR KBLI 202253Z VRB03KT 10SM FEW040 08/03 A3050 RMK AO2 SLP336 T00830028=
202301202153 METAR KBLI 202153Z 03003KT 10SM FEW040 08/02 A3050 RMK AO2 SLP337 T00830022=
202301202053 METAR KBLI 202053Z 04003KT 10SM CLR 08/03 A3051 RMK AO2 SLP339 T00780028 58009=
202301201953 METAR KBLI 201953Z 36003KT 10SM CLR 06/04 A3053 RMK AO2 SLP347 T00610039=
202301201853 METAR KBLI 201853Z 00000KT 10SM CLR 04/03 A3054 RMK AO2 SLP351 T00440033=
202301201753 METAR KBLI 201753Z 00000KT 10SM CLR 02/02 A3053 RMK AO2 SLP349 I6001 T00220022 10022 21011 53009=
202301201653 METAR KBLI 201653Z 00000KT 10SM R16/2200VP6000FT BCFG CLR 00/00 A3052 RMK AO2 SLP344 I1001 T00000000=
202301201553 METAR KBLI 201553Z 00000KT 10SM R16/2200VP6000FT BCFG CLR 00/00 A3050 RMK AO2 SLP339 T00000000=
202301201453 METAR KBLI 201453Z 00000KT 10SM CLR M01/M01 A3050 RMK AO2 SLP339 T10061006 53001=
202301201438 SPECI KBLI 201438Z 00000KT 7SM CLR 01/01 A3051 RMK AO2 T00060006=
202301201429 SPECI KBLI 201429Z AUTO 00000KT 2 1/2SM R16/4500VP6000FT BR CLR 00/00 A3050 RMK AO2 T00000000=
202301201415 SPECI KBLI 201415Z AUTO 00000KT 3SM R16/3500VP6000FT BR CLR 00/00 A3050 RMK AO2 T00000000=
202301201406 SPECI KBLI 201406Z AUTO 00000KT 2 1/2SM R16/5000VP6000FT BR CLR 00/00 A3050 RMK AO2 T00000000=
202301201353 METAR KBLI 201353Z AUTO 00000KT 7SM FEW065 00/00 A3050 RMK AO2 SLP338 T00000000=
202301201323 SPECI KBLI 201323Z AUTO 00000KT 4SM BR BKN060 BKN080 01/01 A3050 RMK AO2 T00060006=
202301201307 SPECI KBLI 201307Z AUTO 00000KT 1 3/4SM R16/4500VP6000FT BR SCT040 BKN060 01/01 A3050 RMK AO2 VIS 1V5 T00110011=
202301201258 SPECI KBLI 201258Z AUTO 00000KT 3SM BR BKN040 01/01 A3050 RMK AO2 T00110011=
202301201253 METAR KBLI 201253Z AUTO 00000KT 1 3/4SM BR OVC040 01/01 A3050 RMK AO2 VIS 3/4V3 SLP336 T00110011=
202301201153 METAR KBLI 201153Z AUTO 00000KT 8SM FEW040 BKN065 02/02 A3050 RMK AO2 SLP338 T00170017 10044 20017 50004=
202301201053 METAR KBLI 201053Z AUTO 00000KT 9SM OVC038 02/02 A3051 RMK AO2 SLP340 T00220022=
202301200953 METAR KBLI 200953Z AUTO 00000KT 10SM BKN039 BKN070 04/03 A3050 RMK AO2 SLP337 T00390033=
202301200853 METAR KBLI 200853Z AUTO 22003KT 10SM BKN041 OVC100 04/03 A3049 RMK AO2 SLP333 T00390033 53005=
202301200753 METAR KBLI 200753Z AUTO 00000KT 10SM BKN044 OVC120 03/03 A3048 RMK AO2 SLP331 T00280028 400720000=
202301200653 METAR KBLI 200653Z AUTO 00000KT 10SM SCT039 BKN049 OVC120 04/03 A3047 RMK AO2 SLP328 T00390033=
202301200553 METAR KBLI 200553Z 00000KT 10SM BKN040 OVC110 04/03 A3047 RMK AO2 SLP329 T00440033 10067 20033 53016=
202301200453 METAR KBLI 200453Z 00000KT 10SM FEW025 BKN040 04/03 A3046 RMK AO2 SLP323 T00390033=
202301200353 METAR KBLI 200353Z 18003KT 10SM FEW025 BKN055 04/03 A3044 RMK AO2 SLP318 T00390033=
202301200253 METAR KBLI 200253Z 15004KT 10SM FEW025 SCT045 05/03 A3043 RMK AO2 SLP313 T00500033 51007=
202301200153 METAR KBLI 200153Z 16003KT 10SM BKN050 06/03 A3042 RMK AO2 SLP310 T00560033=
202301200053 METAR KBLI 200053Z 18004KT 10SM FEW025 SCT060 05/04 A3041 RMK AO2 SLP308 T00500039=
202301192353 METAR KBLI 192353Z 19005KT 10SM CLR 07/04 A3040 RMK AO2 SLP305 T00670044 10072 20044 53011=
202301192253 METAR KBLI 192253Z VRB04KT 10SM CLR 07/05 A3039 RMK AO2 SLP302 T00720050=
202301192153 METAR KBLI 192153Z 18007KT 10SM SCT020 07/04 A3038 RMK AO2 SLP296 T00720039=
202301192053 METAR KBLI 192053Z VRB06KT 10SM CLR 07/05 A3037 RMK AO2 SLP293 T00720050 51010=
202301191953 METAR KBLI 191953Z 17006KT 10SM SCT016 07/04 A3037 RMK AO2 SLP294 T00670044=
202301191917 SPECI KBLI 191917Z 19006KT 10SM SCT016 06/04 A3037 RMK AO2 T00610044=
202301191853 METAR KBLI 191853Z VRB04KT 10SM BKN023 06/04 A3037 RMK AO2 SLP292 T00610044=
202301191753 METAR KBLI 191753Z 00000KT 10SM BKN019 04/04 A3034 RMK AO2 SLP284 T00440044 10044 20000 53028=
202301191713 SPECI KBLI 191713Z 00000KT 10SM BKN016 02/02 A3033 RMK AO2 T00220022=
202301191653 METAR KBLI 191653Z 00000KT 9SM BKN013 01/01 A3032 RMK AO2 SLP276 T00110011=
202301191553 METAR KBLI 191553Z 00000KT 10SM FEW045 02/02 A3028 RMK AO2 SLP263 T00170017=
202301191453 METAR KBLI 191453Z 16003KT 10SM CLR 02/02 A3026 RMK AO2 SLP256 T00170017 51019=
202301191353 METAR KBLI 191353Z AUTO 15003KT 10SM CLR 03/03 A3024 RMK AO2 SLP251 T00280028=
202301191253 METAR KBLI 191253Z AUTO 00000KT 10SM CLR 02/02 A3022 RMK AO2 SLP242 T00170017=
202301191218 SPECI KBLI 191218Z AUTO 17003KT 3SM BR CLR 02/02 A3021 RMK AO2 T00170017=
202301191207 SPECI KBLI 191207Z AUTO 16003KT 1 1/2SM BR CLR 01/01 A3020 RMK AO2 T00110011=
202301191153 METAR KBLI 191153Z AUTO 00000KT 8SM CLR 01/01 A3020 RMK AO2 SLP236 60000 70008 I1000 I6000 T00060006 10050 20000 51027=
202301191150 SPECI KBLI 191150Z AUTO 00000KT 3SM BR CLR 01/01 A3020 RMK AO2 I1000=
202301191138 SPECI KBLI 191138Z AUTO 15003KT 1 3/4SM BR CLR 01/01 A3019 RMK AO2 VIS 1V5 I1000 T00110011=
202301191053 METAR KBLI 191053Z AUTO 17003KT 10SM CLR 02/02 A3018 RMK AO2 SLP228 T00170017=
202301190953 METAR KBLI 190953Z AUTO 00000KT 10SM BKN060 03/03 A3015 RMK AO2 SLP219 T00330033=
202301190853 METAR KBLI 190853Z AUTO 00000KT 10SM OVC050 04/04 A3012 RMK AO2 SLP208 60000 T00440044 51027=
202301190753 METAR KBLI 190753Z AUTO 19004KT 10SM SCT043 BKN050 04/04 A3010 RMK AO2 RAB37E46 SLP200 P0000 T00390039 401000028=
202301190653 METAR KBLI 190653Z AUTO 00000KT 7SM SCT020 SCT026 BKN050 03/03 A3007 RMK AO2 RAE0556 SLP192 P0000 T00330033=
202301190553 METAR KBLI 190553Z 13003KT 10SM -RA FEW023 BKN038 OVC060 05/04 A3004 RMK AO2 RAB16 SLP180 P0000 60000 T00500044 10072 20039 53029=
202301190453 METAR KBLI 190453Z 00000KT 10SM SCT029 BKN035 BKN060 05/05 A3001 RMK AO2 RAB15E35 TSB0355E10 SLP169 P0000 T00500050=
202301190420 SPECI KBLI 190420Z 31004KT 10SM -RA SCT026 BKN039 OVC060 06/05 A2999 RMK AO2 RAB15 TSB0355E10 OCNL LGTCG W P0000 T00610050=
202301190412 SPECI KBLI 190412Z 18006KT 10SM BKN026 BKN039 OVC060 06/05 A2998 RMK AO2 TSB0355E10 OCNL LGTCG W T00560050=
202301190401 SPECI KBLI 190401Z 17006KT 10SM TS SCT027 BKN060 OVC100 06/04 A2998 RMK AO2 TSB0355 T00560044=
202301190353 METAR KBLI 190353Z 17004KT 10SM SCT027 BKN055 OVC100 05/04 A2998 RMK AO2 SLP160 T00500044=
202301190253 METAR KBLI 190253Z 17005KT 10SM SCT044 05/04 A2995 RMK AO2 SLP151 T00500044 51021=
202301190153 METAR KBLI 190153Z 18004KT 10SM FEW039 BKN070 06/05 A2994 RMK AO2 SLP147 T00560050=
202301190053 METAR KBLI 190053Z 18005KT 10SM CLR 07/06 A2992 RMK AO2 SLP138 T00670056=
202301190000 SPECI KBLI 190000Z 17005KT 10SM SCT045 BKN055 07/06 A2989 RMK AO2 T00720056=
202301182353 METAR KBLI 182353Z 18006KT 10SM BKN023 BKN031 BKN048 07/06 A2989 RMK AO2 SLP130 60004 T00720056 10078 20067 53027=
202301182253 METAR KBLI 182253Z 15006KT 10SM BKN023 BKN028 OVC044 07/06 A2987 RMK AO2 SLP121 T00670056=
202301182214 SPECI KBLI 182214Z 16007KT 10SM BKN029 OVC034 07/06 A2984 RMK AO2 T00670056=
202301182200 SPECI KBLI 182200Z 15007KT 10SM BKN030 BKN035 OVC041 07/06 A2984 RMK AO2 T00670056=
202301182153 METAR KBLI 182153Z 15007KT 10SM BKN023 BKN040 OVC050 07/06 A2983 RMK AO2 RAE53 SLP109 P0001 T00670061=
202301182053 METAR KBLI 182053Z 17006KT 10SM -RA BKN019 OVC026 07/06 A2981 RMK AO2 RAE15B38 SLP103 P0000 60003 T00720056 53009=
202301182003 SPECI KBLI 182003Z 17008KT 10SM -RA BKN023 OVC046 07/05 A2979 RMK AO2 P0000 T00720050=
202301181953 METAR KBLI 181953Z 18006KT 10SM -RA SCT023 BKN046 OVC055 07/06 A2979 RMK AO2 RAE18B42 SLP096 P0001 T00720056=
202301181853 METAR KBLI 181853Z 16009KT 10SM -RA FEW030 OVC036 07/06 A2978 RMK AO2 SLP093 P0002 T00670061=
202301181811 SPECI KBLI 181811Z 21004KT 8SM -RA SCT014 BKN019 OVC026 07/07 A2977 RMK AO2 PRESRR P0001 T00720067=
202301181802 SPECI KBLI 181802Z 22005G18KT 5SM -RA BR BKN014 BKN021 OVC034 08/07 A2976 RMK AO2 PRESRR P0001 T00780067=
202301181753 METAR KBLI 181753Z 19011G27KT 5SM -RA BR SCT014 BKN019 OVC026 08/07 A2975 RMK AO2 PK WND 16032/1657 RAB1656 SLP081 P0004 60004 T00780067 10100 20078 53022=
202301181653 METAR KBLI 181653Z 17019G35KT 10SM OVC028 09/05 A2972 RMK AO2 PK WND 17035/1651 SLP073 T00940050=
202301181553 METAR KBLI 181553Z 16012G25KT 10SM BKN032 OVC070 09/04 A2970 RMK AO2 PK WND 16029/1520 SLP064 T00940044=
202301181453 METAR KBLI 181453Z 15015G23KT 10SM OVC035 09/04 A2968 RMK AO2 PK WND 16030/1354 SLP059 T00940044 56017=
202301181353 METAR KBLI 181353Z AUTO 16019G30KT 10SM SCT036 BKN044 OVC090 10/04 A2968 RMK AO2 PK WND 14036/1301 SLP058 T01000039=
202301181253 METAR KBLI 181253Z AUTO 15020G37KT 10SM BKN037 OVC100 10/04 A2970 RMK AO2 PK WND 15037/1248 SLP065 T01000039=
202301181153 METAR KBLI 181153Z AUTO 15023G36KT 10SM FEW034 BKN080 OVC090 10/04 A2973 RMK AO2 PK WND 14036/1149 SLP075 70002 T01000044 10100 20078 58020=
202301181053 METAR KBLI 181053Z AUTO 15022G33KT 10SM OVC090 09/04 A2975 RMK AO2 PK WND 15033/1048 SLP084 T00940044=
202301180953 METAR KBLI 180953Z AUTO 16019G30KT 10SM SCT028 BKN100 09/05 A2977 RMK AO2 PK WND 16032/0935 SLP089 T00940050=
202301180853 METAR KBLI 180853Z AUTO 14014G21KT 10SM OVC025 09/05 A2979 RMK AO2 SLP096 T00890050 58017=
202301180753 METAR KBLI 180753Z AUTO 16011G21KT 10SM OVC026 09/05 A2982 RMK AO2 PK WND 16026/0718 SLP105 T00890050 400940072=
202301180653 METAR KBLI 180653Z AUTO 16016G29KT 10SM OVC027 08/04 A2984 RMK AO2 PK WND 17034/0630 SLP112 T00830044=
202301180619 SPECI KBLI 180619Z 15022G31KT 10SM OVC029 08/05 A2984 RMK AO2 PK WND 16032/0607 T00830050=
202301180553 METAR KBLI 180553Z 14021G26KT 10SM BKN033 OVC075 08/05 A2984 RMK AO2 PK WND 15028/0521 RAE03 SLP113 P0000 60002 T00780050 10094 20072 58011=
202301180453 METAR KBLI 180453Z 14014G27KT 10SM -RA OVC046 07/06 A2986 RMK AO2 PK WND 15028/0441 SLP118 P0002 T00720056=
202301180353 METAR KBLI 180353Z 15016G29KT 10SM -RA OVC044 08/06 A2986 RMK AO2 PK WND 15029/0344 SLP120 P0000 T00780056=
202301180253 METAR KBLI 180253Z 15014G22KT 10SM -RA SCT028 OVC036 08/06 A2987 RMK AO2 PK WND 15026/0230 RAB0154 SLP124 P0000 60000 T00830056 56004=
202301180153 METAR KBLI 180153Z 16018G23KT 10SM BKN033 BKN040 OVC049 09/04 A2987 RMK AO2 SLP124 T00940044=
202301180053 METAR KBLI 180053Z 16010G18KT 10SM BKN034 BKN050 OVC060 09/04 A2988 RMK AO2 SLP125 T00940039=
202301172353 METAR KBLI 172353Z 15013G18KT 10SM OVC033 09/04 A2989 RMK AO2 SLP128 T00940044 10094 20078 56007=
202301172305 SPECI KBLI 172305Z 17009G18KT 10SM BKN030 OVC037 09/04 A2989 RMK AO2 T00940044=
202301172253 METAR KBLI 172253Z 15010KT 10SM BKN028 09/05 A2989 RMK AO2 PK WND 18026/2234 SLP131 T00940050=
202301172153 METAR KBLI 172153Z 16009G18KT 10SM SCT025 BKN028 OVC045 09/04 A2990 RMK AO2 SLP132 T00940044=
202301172053 METAR KBLI 172053Z 16013G19KT 10SM OVC024 09/05 A2991 RMK AO2 SLP135 T00890050 58003=
202301171953 METAR KBLI 171953Z 16010G17KT 10SM SCT010 BKN020 OVC024 08/06 A2992 RMK AO2 SLP140 T00830056=
202301171853 METAR KBLI 171853Z 18008KT 10SM SCT010 BKN020 OVC024 08/06 A2992 RMK AO2 SLP141 T00830056=
202301171757 SPECI KBLI 171757Z 18008KT 10SM FEW015 SCT024 BKN028 08/06 A2992 RMK AO2 T00780056=
202301171753 METAR KBLI 171753Z 18010G16KT 10SM SCT015 BKN024 BKN045 08/06 A2992 RMK AO2 SLP139 60000 T00780056 10083 20072 51011=
202301171653 METAR KBLI 171653Z 19007G14KT 10SM FEW015 SCT025 BKN040 07/06 A2991 RMK AO2 SLP136 T00720056=
202301171553 METAR KBLI 171553Z 19007KT 10SM FEW015 SCT035 BKN045 07/06 A2989 RMK AO2 RAE44 SLP131 P0000 T00720056=
202301171453 METAR KBLI 171453Z 17008KT 8SM -RA SCT035 BKN045 OVC050 07/06 A2988 RMK AO2 RAB32 SLP127 P0000 60000 T00720056 53005=
202301171353 METAR KBLI 171353Z AUTO 17006KT 10SM FEW023 SCT070 OVC095 08/04 A2987 RMK AO2 SLP123 T00780044=
202301171253 METAR KBLI 171253Z AUTO 17008G18KT 10SM OVC090 08/04 A2987 RMK AO2 SLP122 T00780044=
202301171153 METAR KBLI 171153Z AUTO 17010G19KT 10SM FEW022 FEW038 OVC090 08/04 A2987 RMK AO2 SLP122 T00830044 10089 20078 53012=
202301171053 METAR KBLI 171053Z AUTO 16009KT 10SM BKN070 OVC090 08/04 A2985 RMK AO2 SLP117 T00830039=
202301170953 METAR KBLI 170953Z AUTO 17007KT 10SM OVC090 08/04 A2984 RMK AO2 SLP114 T00830039=
202301170853 METAR KBLI 170853Z AUTO 10SM FEW027 OVC080 08/04 A2983 RMK AO2 SLP110 T00830039 51010=
202301170753 METAR KBLI 170753Z AUTO 15011KT 10SM OVC075 08/04 A2982 RMK AO2 SLP107 T00830044 401000061=
202301170653 METAR KBLI 170653Z AUTO 15007KT 10SM OVC070 08/04 A2982 RMK AO2 SLP105 T00830039=
202301170553 METAR KBLI 170553Z 15010KT 10SM FEW070 08/04 A2980 RMK AO2 SLP100 T00830039 10094 20061 51008=
202301170453 METAR KBLI 170453Z 16006KT 10SM CLR 08/04 A2980 RMK AO2 SLP097 T00830039=
202301170353 METAR KBLI 170353Z 14004KT 10SM CLR 08/04 A2979 RMK AO2 SLP095 T00830039=
202301170253 METAR KBLI 170253Z 16004KT 10SM SCT037 OVC049 08/06 A2978 RMK AO2 SLP092 T00830061 51014=
202301170153 METAR KBLI 170153Z 36003KT 10SM SCT030 BKN040 BKN045 08/06 A2977 RMK AO2 SLP088 T00830061=
202301170053 METAR KBLI 170053Z 17004KT 10SM OVC040 09/05 A2975 RMK AO2 SLP082 T00940050=
202301162353 METAR KBLI 162353Z 19004KT 10SM BKN032 OVC039 09/06 A2974 RMK AO2 SLP077 T00940056 10100 20089 53009=
202301162253 METAR KBLI 162253Z 18007KT 10SM SCT034 BKN075 10/04 A2972 RMK AO2 SLP073 T01000039=
202301162153 METAR KBLI 162153Z 16006KT 10SM BKN032 BKN080 10/04 A2971 RMK AO2 SLP067 T01000044=
202301162053 METAR KBLI 162053Z 17010G20KT 10SM SCT029 BKN060 09/04 A2971 RMK AO2 SLP068 T00940039 51007=
202301161953 METAR KBLI 161953Z 16010KT 10SM SCT031 09/04 A2970 RMK AO2 SLP066 T00940044=
202301161853 METAR KBLI 161853Z 16008KT 10SM SCT030 SCT044 09/04 A2971 RMK AO2 SLP067 T00940044=
202301161753 METAR KBLI 161753Z 16011KT 10SM FEW030 BKN040 BKN070 09/04 A2969 RMK AO2 SLP061 60000 T00890044 10089 20089 51018=
202301161653 METAR KBLI 161653Z 16012G18KT 10SM OVC031 09/04 A2967 RMK AO2 SLP056 T00890044=
202301161553 METAR KBLI 161553Z 17010G22KT 10SM OVC031 09/04 A2965 RMK AO2 PK WND 16026/1456 RAB1457E1459 SLP048 P0000 T00890044=
202301161453 METAR KBLI 161453Z 17014G21KT 10SM SCT033 BKN040 OVC055 09/04 A2963 RMK AO2 PK WND 15026/1356 SLP043 T00890044 53019=
202301161407 SPECI KBLI 161407Z AUTO 16015G22KT 10SM SCT030 BKN048 OVC075 09/05 A2962 RMK AO2 PK WND 15026/1356 T00890050=
202301161353 METAR KBLI 161353Z AUTO 16015G24KT 10SM BKN028 BKN050 OVC070 09/04 A2961 RMK AO2 PK WND 16030/1255 SLP035 T00890044=
202301161253 METAR KBLI 161253Z AUTO 15017G28KT 10SM OVC026 09/05 A2960 RMK AO2 PK WND 18028/1246 SLP030 T00890050=
202301161153 METAR KBLI 161153Z AUTO 17018G27KT 10SM OVC027 09/06 A2958 RMK AO2 PK WND 17027/1107 SLP024 60002 70004 T00890056 10089 20072 51023=
202301161053 METAR KBLI 161053Z AUTO 16012G25KT 10SM BKN023 BKN042 OVC060 08/06 A2956 RMK AO2 PK WND 15032/0955 RAB30E51 SLP019 P0000 T00830061=
202301161035 SPECI KBLI 161035Z AUTO 16017G24KT 10SM -RA SCT023 BKN043 OVC060 08/06 A2955 RMK AO2 PK WND 15032/0955 RAB30 P0000 T00830061=
202301160953 METAR KBLI 160953Z AUTO 16016G28KT 10SM OVC021 08/06 A2953 RMK AO2 PK WND 15029/0916 SLP008 T00830061=
202301160853 METAR KBLI 160853Z AUTO 16013G26KT 10SM OVC017 08/07 A2951 RMK AO2 PK WND 15026/0850 RAE30 SLP001 P0000 60002 T00830067 51016=
202301160753 METAR KBLI 160753Z AUTO 15008KT 10SM -RA OVC019 08/07 A2950 RMK AO2 SLP998 P0001 T00780067 401060039=
202301160653 METAR KBLI 160653Z AUTO 15012KT 10SM -RA OVC025 08/06 A2948 RMK AO2 SLP991 P0001 T00780061=
202301160553 METAR KBLI 160553Z 14014G22KT 10SM -RA BKN021 BKN035 OVC043 07/06 A2946 RMK AO2 SLP985 P0001 60002 T00720061 10094 20072 51018=
202301160453 METAR KBLI 160453Z 13014G23KT 10SM -RA OVC025 08/07 A2945 RMK AO2 SLP980 P0001 T00780067=
202301160422 SPECI KBLI 160422Z 13011KT 10SM -RA OVC029 08/06 A2944 RMK AO2 P0001 T00830061=
202301160353 METAR KBLI 160353Z 13011KT 10SM -RA BKN036 OVC042 08/07 A2943 RMK AO2 RAE08B26 SLP974 P0000 T00830067=
202301160253 METAR KBLI 160253Z 14008KT 10SM -RA BKN045 08/08 A2941 RMK AO2 SLP967 P0000 60000 T00830078 53018=
202301160153 METAR KBLI 160153Z 16005KT 10SM -RA FEW015 SCT045 BKN055 08/07 A2939 RMK AO2 RAB34 SLP960 P0000 T00830072=
202301160053 METAR KBLI 160053Z 18010KT 10SM FEW015 SCT060 BKN075 09/07 A2937 RMK AO2 RAE17B41E50 SLP954 P0000 T00890072=
202301152353 METAR KBLI 152353Z 19005KT 10SM -RA BKN042 BKN065 OVC075 09/07 A2936 RMK AO2 SLP949 P0000 60000 T00940072 10106 20067 53012=
202301152253 METAR KBLI 152253Z 20004KT 10SM -RA BKN075 10/07 A2934 RMK AO2 RAB53 SLP943 P0000 T01000072=
202301152153 METAR KBLI 152153Z 04004KT 10SM BKN070 10/07 A2931 RMK AO2 RAB2058E46 SLP934 P0000 T01000072=
202301152053 METAR KBLI 152053Z 00000KT 10SM OVC075 10/07 A2932 RMK AO2 SLP937 T01000067 53001=
202301151953 METAR KBLI 151953Z 02004KT 10SM OVC085 09/07 A2932 RMK AO2 SLP935 T00940067=
202301151853 METAR KBLI 151853Z 00000KT 10SM OVC085 09/07 A2932 RMK AO2 SLP938 T00890067=
202301151753 METAR KBLI 151753Z 00000KT 10SM OVC085 07/06 A2932 RMK AO2 SLP936 T00670061 10078 20039 51017=
202301151653 METAR KBLI 151653Z 04003KT 10SM OVC100 04/04 A2931 RMK AO2 SLP932 T00440044=
202301151553 METAR KBLI 151553Z 00000KT 10SM BKN090 05/04 A2929 RMK AO2 SLP926 T00500044=
202301151453 METAR KBLI 151453Z 03006KT 10SM BKN085 06/04 A2927 RMK AO2 SLP920 T00610044 56008=
202301151353 METAR KBLI 151353Z AUTO 03006KT 10SM BKN085 07/05 A2927 RMK AO2 SLP921 T00670050=
202301151253 METAR KBLI 151253Z AUTO 04007KT 10SM FEW060 OVC075 07/06 A2929 RMK AO2 SLP924 T00720056=
202301151153 METAR KBLI 151153Z AUTO 02008KT 10SM OVC055 08/06 A2930 RMK AO2 SLP928 60000 T00780061 10089 20072 56013=
202301151053 METAR KBLI 151053Z AUTO 05006KT 10SM OVC060 08/07 A2931 RMK AO2 SLP932 T00830067=
202301150953 METAR KBLI 150953Z AUTO 04006KT 10SM OVC060 07/07 A2932 RMK AO2 RAE47 SLP934 P0000 T00720072=
202301150853 METAR KBLI 150853Z AUTO 00000KT 10SM -RA SCT060 OVC080 07/07 A2933 RMK AO2 RAB07 SLP941 P0000 60000 T00720072 51009=
202301150753 METAR KBLI 150753Z AUTO 00000KT 10SM FEW050 BKN070 OVC095 08/06 A2933 RMK AO2 SLP939 T00780056 401220072=
202301150653 METAR KBLI 150653Z AUTO 00000KT 10SM SCT075 OVC090 08/06 A2932 RMK AO2 SLP935 T00830056=
202301150553 METAR KBLI 150553Z 03006KT 10SM OVC085 09/06 A2931 RMK AO2 SLP932 T00890056 10106 20072 56003=
202301150453 METAR KBLI 150453Z 03005KT 10SM OVC090 08/06 A2931 RMK AO2 SLP932 T00830061=
202301150353 METAR KBLI 150353Z 02007KT 10SM OVC100 08/06 A2931 RMK AO2 SLP933 T00780061=
202301150253 METAR KBLI 150253Z 01004KT 10SM CLR 08/06 A2932 RMK AO2 SLP936 T00780056 56006=
202301150153 METAR KBLI 150153Z 03007KT 10SM CLR 08/06 A2932 RMK AO2 SLP935 T00830061=
202301150053 METAR KBLI 150053Z 02008KT 10SM CLR 09/07 A2933 RMK AO2 SLP938 T00940067=
202301142353 METAR KBLI 142353Z 02008KT 10SM CLR 11/07 A2934 RMK AO2 SLP941 T01060072 10122 20100 56022=
202301142253 METAR KBLI 142253Z 04009KT 10SM CLR 12/08 A2935 RMK AO2 SLP946 T01170078=
202301142153 METAR KBLI 142153Z 03011KT 10SM CLR 12/08 A2938 RMK AO2 SLP955 T01220078=
202301142053 METAR KBLI 142053Z 03009KT 10SM CLR 12/08 A2940 RMK AO2 SLP964 T01170078 58040=
202301141953 METAR KBLI 141953Z 03009KT 10SM CLR 12/08 A2945 RMK AO2 SLP978 T01170078=
202301141853 METAR KBLI 141853Z 03010KT 10SM CLR 11/08 A2949 RMK AO2 SLP993 T01060078=
202301141753 METAR KBLI 141753Z 05008KT 10SM CLR 10/08 A2952 RMK AO2 SLP004 T01000078 10117 20078 58019=
202301141653 METAR KBLI 141653Z 02006KT 10SM BKN038 BKN050 08/08 A2955 RMK AO2 SLP014 T00830078=
202301141553 METAR KBLI 141553Z 04006KT 10SM OVC036 08/08 A2956 RMK AO2 SLP018 T00780078=
202301141453 METAR KBLI 141453Z 11006KT 10SM SCT028 BKN037 BKN120 10/08 A2958 RMK AO2 SLP023 T01000078 56014=
202301141433 SPECI KBLI 141433Z 13007KT 10SM SCT028 BKN120 10/08 A2958 RMK AO2 T01000078=
202301141421 SPECI KBLI 141421Z AUTO 14008KT 10SM BKN028 10/08 A2959 RMK AO2 T01000078=
202301141353 METAR KBLI 141353Z AUTO 15007KT 10SM BKN033 11/08 A2959 RMK AO2 SLP027 T01110083=
202301141253 METAR KBLI 141253Z AUTO 16008KT 10SM SCT024 OVC033 12/08 A2961 RMK AO2 SLP032 T01170083=
202301141153 METAR KBLI 141153Z AUTO 17007G16KT 10SM OVC025 12/08 A2962 RMK AO2 SLP037 60002 70009 T01170083 10128 20111 51003=
202301141053 METAR KBLI 141053Z AUTO 16012KT 10SM OVC022 12/09 A2962 RMK AO2 SLP037 T01170089=
202301140953 METAR KBLI 140953Z AUTO 17013G23KT 10SM OVC020 11/09 A2962 RMK AO2 RAE05 SLP035 P0000 T01110089=
202301140853 METAR KBLI 140853Z AUTO 16012G21KT 10SM -RA BKN021 OVC055 11/09 A2961 RMK AO2 SLP035 P0000 60002 T01110089 51001=
202301140753 METAR KBLI 140753Z AUTO 17015G26KT 10SM -RA OVC070 11/09 A2961 RMK AO2 PK WND 18026/0750 SLP034 P0002 T01110094 401560089=
202301140653 METAR KBLI 140653Z AUTO 17012G22KT 9SM -RA BKN032 OVC049 12/09 A2962 RMK AO2 SLP035 P0000 T01170089=
202301140553 METAR KBLI 140553Z 16012G19KT 10SM -RA OVC034 13/08 A2961 RMK AO2 RAB41 SLP033 P0000 60001 T01280083 10128 20111 55007=
202301140453 METAR KBLI 140453Z 16014G24KT 10SM SCT024 OVC110 13/09 A2960 RMK AO2 SLP032 T01280089=
202301140353 METAR KBLI 140353Z 14011KT 10SM SCT024 BKN040 BKN110 12/09 A2962 RMK AO2 SLP036 T01220094=
202301140318 SPECI KBLI 140318Z 14008KT 10SM SCT025 BKN060 BKN110 12/09 A2962 RMK AO2 T01170094=
202301140253 METAR KBLI 140253Z 13006KT 10SM BKN025 BKN035 OVC060 12/09 A2963 RMK AO2 SLP041 60001 T01220094 58010=
202301140201 SPECI KBLI 140201Z 16010KT 10SM FEW026 BKN030 OVC080 12/10 A2964 RMK AO2 T01170100=
202301140153 METAR KBLI 140153Z 15009KT 10SM BKN028 OVC080 12/10 A2964 RMK AO2 RAE27 SLP044 P0001 T01170100=
202301140129 SPECI KBLI 140129Z 15012KT 10SM BKN026 OVC100 12/10 A2965 RMK AO2 RAE27 P0001 T01170100=
202301140053 METAR KBLI 140053Z 14008KT 10SM -RA BKN080 OVC095 11/11 A2965 RMK AO2 SLP049 P0000 T01110106=
202301132353 METAR KBLI 132353Z 14007KT 9SM -RA BKN060 OVC075 12/11 A2966 RMK AO2 SLP051 P0001 60006 T01170106 10128 20100 56014=
202301132253 METAR KBLI 132253Z 17004KT 10SM -RA FEW022 BKN060 OVC075 12/11 A2967 RMK AO2 RAB06 SLP054 P0001 T01220106=
202301132204 SPECI KBLI 132204Z 17006KT 10SM SCT021 BKN055 OVC075 12/10 A2967 RMK AO2 T01220100=
202301132153 METAR KBLI 132153Z 18006KT 10SM BKN021 BKN050 OVC065 12/11 A2968 RMK AO2 RAE2056 SLP056 P0000 T01220106=
202301132053 METAR KBLI 132053Z 18005KT 10SM -RA OVC018 11/11 A2970 RMK AO2 SLP065 P0002 60004 T01060106 58005=
202301131953 METAR KBLI 131953Z 18009G18KT 5SM -RA BR OVC021 12/10 A2971 RMK AO2 RAB34 SLP066 P0001 T01170100=
202301131910 SPECI KBLI 131910Z VRB05KT 10SM OVC028 11/10 A2972 RMK AO2 T01110100=
202301131853 METAR KBLI 131853Z 19007KT 10SM BKN030 OVC033 11/10 A2972 RMK AO2 RAE38 SLP072 P0001 T01110100=
202301131753 METAR KBLI 131753Z 20006G15KT 9SM -RA OVC033 13/09 A2972 RMK AO2 RAB25 SLP069 P0000 60000 T01280094 10156 20089 53017=
202301131653 METAR KBLI 131653Z 16012G23KT 10SM SCT038 BKN065 OVC090 14/09 A2970 RMK AO2 PK WND 16034/1557 SLP061 T01440094=
202301131553 METAR KBLI 131553Z 16019G33KT 10SM OVC095 15/10 A2967 RMK AO2 PK WND 17038/1515 SLP053 T01500100=
202301131453 METAR KBLI 131453Z 15012G21KT 10SM OVC044 15/09 A2967 RMK AO2 SLP053 60000 T01500089 58017=
202301131353 METAR KBLI 131353Z AUTO 35004KT 10SM OVC060 09/09 A2970 RMK AO2 SLP063 T00940089=
202301131253 METAR KBLI 131253Z AUTO 32004KT 10SM BKN055 OVC070 09/09 A2971 RMK AO2 RAB00E23 SLP066 P0000 T00890089=
202301131153 METAR KBLI 131153Z AUTO 29003KT 10SM OVC090 09/09 A2972 RMK AO2 RAE32 SLP072 P0000 60000 70007 T00890089 10156 20089 56015=
202301131053 METAR KBLI 131053Z AUTO 00000KT 10SM -RA FEW055 SCT080 OVC090 09/09 A2974 RMK AO2 RAB52 SLP078 P0000 T00890089=
202301130953 METAR KBLI 130953Z AUTO 04004KT 10SM OVC065 10/09 A2974 RMK AO2 SLP078 T01000094=
202301130853 METAR KBLI 130853Z AUTO 01006KT 10SM OVC075 11/09 A2977 RMK AO2 RAE52 SLP086 P0000 60000 T01060094 58006=
202301130753 METAR KBLI 130753Z AUTO 00000KT 10SM -RA OVC075 10/09 A2979 RMK AO2 SLP093 P0000 T01000089 401560067=
202301130653 METAR KBLI 130653Z AUTO VRB03KT 10SM -RA OVC070 10/09 A2979 RMK AO2 RAB20 SLP093 P0000 T01000089=
202301130553 METAR KBLI 130553Z 15011G20KT 10SM SCT045 BKN070 16/09 A2978 RMK AO2 SLP092 60000 T01560094 10156 20100 58004=
202301130453 METAR KBLI 130453Z 16014G23KT 10SM SCT040 BKN065 15/09 A2979 RMK AO2 PK WND 14026/0355 RAE07 SLP095 P0000 T01500094=
202301130353 METAR KBLI 130353Z 14009G16KT 110V170 10SM -RA SCT045 BKN065 BKN080 14/09 A2980 RMK AO2 RAB0255 SLP097 P0000 T01440094=
202301130253 METAR KBLI 130253Z VRB06KT 10SM SCT045 OVC080 15/09 A2980 RMK AO2 SLP097 T01500089 55005=
202301130153 METAR KBLI 130153Z 15013G26KT 10SM FEW050 OVC080 16/09 A2980 RMK AO2 PK WND 14026/0150 SLP096 T01560089=
202301130053 METAR KBLI 130053Z 12009KT 10SM FEW050 OVC080 13/09 A2981 RMK AO2 PK WND 15027/0019 SLP100 T01330089=
202301122353 METAR KBLI 122353Z 05006KT 10SM FEW047 OVC080 10/09 A2981 RMK AO2 SLP102 60001 T01000089 10144 20089 56009=
202301122253 METAR KBLI 122253Z 05008KT 10SM FEW045 OVC075 09/09 A2982 RMK AO2 RAE23 SLP105 P0000 T00890089=
202301122153 METAR KBLI 122153Z 03007KT 10SM -RA OVC070 09/09 A2983 RMK AO2 PK WND 15027/2114 SLP108 P0001 T00940094=
202301122053 METAR KBLI 122053Z 15015G26KT 9SM -RA BKN032 OVC070 13/10 A2984 RMK AO2 PK WND 14026/2047 RAB20 SLP111 P0000 60000 T01330100 58005=
202301121953 METAR KBLI 121953Z VRB03KT 10SM OVC034 13/09 A2985 RMK AO2 SLP114 T01330089=
202301121853 METAR KBLI 121853Z 11009G24KT 10SM BKN031 OVC075 13/09 A2986 RMK AO2 SLP118 T01280089=
202301121753 METAR KBLI 121753Z VRB04KT 10SM OVC030 11/08 A2985 RMK AO2 SLP117 60006 T01060083 10128 20078 53019=
202301121653 METAR KBLI 121653Z 01006KT 10SM OVC034 08/08 A2984 RMK AO2 RAE14B31E41 SLP111 P0001 T00830078=
202301121553 METAR KBLI 121553Z 03007KT 10SM -RA OVC036 08/07 A2981 RMK AO2 SLP104 P0000 T00780072=
202301121453 METAR KBLI 121453Z 01005KT 10SM -RA OVC037 08/07 A2980 RMK AO2 SLP098 P0003 60005 T00780072 53003=
202301121353 METAR KBLI 121353Z AUTO 03009KT 10SM -RA OVC043 08/07 A2978 RMK AO2 SLP091 P0000 T00780072=
202301121253 METAR KBLI 121253Z AUTO 04009KT 10SM -RA OVC040 08/07 A2977 RMK AO2 SLP090 P0002 T00780072=
202301121153 METAR KBLI 121153Z AUTO 05009KT 10SM -RA OVC044 08/08 A2979 RMK AO2 SLP095 P0002 60010 70010 T00830078 10089 20067 56012=
202301121053 METAR KBLI 121053Z AUTO 05008KT 10SM -RA BKN045 BKN055 OVC075 08/07 A2980 RMK AO2 SLP098 P0000 T00780067=
202301120953 METAR KBLI 120953Z AUTO 03007KT 10SM -RA OVC043 07/07 A2981 RMK AO2 SLP103 P0002 T00720067=
202301120853 METAR KBLI 120853Z AUTO 05005KT 10SM -RA BKN049 OVC055 07/07 A2982 RMK AO2 SLP105 P0005 60006 T00720067 56001=
202301120753 METAR KBLI 120753Z AUTO 07004KT 10SM -RA OVC055 08/04 A2982 RMK AO2 RAB02 SLP106 P0001 T00830039 401391011=
202301120653 METAR KBLI 120653Z AUTO 05005KT 10SM OVC055 09/02 A2982 RMK AO2 SLP106 T00890022=
202301120553 METAR KBLI 120553Z 01003KT 10SM BKN070 OVC110 08/02 A2983 RMK AO2 SLP108 T00830022 10089 20083 55003=
202301120453 METAR KBLI 120453Z 04006KT 10SM SCT090 BKN120 09/02 A2982 RMK AO2 SLP105 T00890022=
202301120353 METAR KBLI 120353Z 05003KT 10SM OVC085 08/02 A2984 RMK AO2 SLP112 T00830022=
202301120253 METAR KBLI 120253Z 05008KT 10SM OVC090 08/02 A2983 RMK AO2 SLP110 T00830022 58004=
202301120153 METAR KBLI 120153Z 04007KT 10SM OVC100 09/02 A2984 RMK AO2 SLP114 T00890017=
202301120053 METAR KBLI 120053Z 04007KT 10SM FEW100 08/02 A2984 RMK AO2 SLP115 T00830017=
202301112353 METAR KBLI 112353Z 04007KT 10SM CLR 08/03 A2984 RMK AO2 SLP115 T00830028 10139 20072 56012=
202301112253 METAR KBLI 112253Z 02007KT 10SM BKN075 09/03 A2985 RMK AO2 SLP118 T00940028=
202301112153 METAR KBLI 112153Z 03009KT 10SM CLR 11/04 A2986 RMK AO2 SLP121 T01110039=
202301112053 METAR KBLI 112053Z 12009G15KT 10SM CLR 13/04 A2988 RMK AO2 SLP126 T01330044 58004=
202301111953 METAR KBLI 111953Z 16007KT 10SM FEW045 SCT055 OVC095 14/05 A2990 RMK AO2 SLP132 T01390050=
202301111853 METAR KBLI 111853Z 05006KT 10SM BKN042 OVC095 09/04 A2991 RMK AO2 SLP135 T00890039=
202301111753 METAR KBLI 111753Z 05007KT 10SM OVC038 08/04 A2989 RMK AO2 SLP131 T00780039 10078 20006 53018=
202301111653 METAR KBLI 111653Z 03007KT 10SM OVC044 05/03 A2987 RMK AO2 SLP122 T00500028=
202301111553 METAR KBLI 111553Z 01003KT 10SM BKN042 OVC095 04/02 A2985 RMK AO2 SLP118 T00440022=
202301111453 METAR KBLI 111453Z 00000KT 10SM OVC048 04/02 A2984 RMK AO2 SLP113 T00440017 53016=
202301111353 METAR KBLI 111353Z AUTO 03004KT 10SM BKN060 02/01 A2982 RMK AO2 SLP108 T00170011 $=
202301111253 METAR KBLI 111253Z AUTO 36003KT 10SM BKN110 02/02 A2980 RMK AO2 SLP101 T00170017 $=
202301111153 METAR KBLI 111153Z AUTO 00000KT 10SM BKN080 OVC110 02/02 A2979 RMK AO2 SLP096 I6001 T00220022 10033 21011 53023 $=
202301111053 METAR KBLI 111053Z AUTO 00000KT 10SM OVC110 01/01 A2977 RMK AO2 SLP088 I1001 T00110011 $=
202301110953 METAR KBLI 110953Z AUTO 36003KT 10SM CLR M01/M01 A2973 RMK AO2 SLP078 I1000 T10061006 $=
202301110853 METAR KBLI 110853Z AUTO 00000KT 10SM CLR 00/00 A2972 RMK AO2 SLP074 I1000 I3000 T00000000 51017 $=
202301110753 METAR KBLI 110753Z AUTO 00000KT 10SM CLR 00/00 A2972 RMK AO2 SLP072 T00000000 401170000 $=
202301110653 METAR KBLI 110653Z AUTO 00000KT 10SM CLR 03/03 A2970 RMK AO2 SLP066 T00330028 $=
202301110553 METAR KBLI 110553Z 00000KT 10SM CLR 03/03 A2967 RMK AO2 SLP056 T00330028 10100 20022 53019 $=
202301110453 METAR KBLI 110453Z 00000KT 10SM CLR 04/03 A2965 RMK AO2 SLP050 T00440033 $=
202301110353 METAR KBLI 110353Z 35003KT 10SM CLR 03/03 A2963 RMK AO2 SLP042 T00330033 $=
202301110253 METAR KBLI 110253Z 00000KT 10SM CLR 04/04 A2962 RMK AO2 SLP038 T00440039 51005 $=
202301110153 METAR KBLI 110153Z 00000KT 10SM CLR 06/04 A2961 RMK AO2 SLP035 T00610044 $=
202301110053 METAR KBLI 110053Z 03009KT 10SM CLR 08/05 A2961 RMK AO2 SLP034 T00830050 $=
202301102353 METAR KBLI 102353Z 02009KT 10SM CLR 10/06 A2960 RMK AO2 SLP031 T01000056 10117 20083 56008 $=
202301102253 METAR KBLI 102253Z 03010KT 10SM CLR 11/06 A2961 RMK AO2 SLP033 T01110056 $=
202301102153 METAR KBLI 102153Z 03010KT 10SM CLR 11/05 A2961 RMK AO2 SLP034 T01060050 $=
202301102053 METAR KBLI 102053Z 02013KT 10SM CLR 10/06 A2962 RMK AO2 SLP039 T01000056 56013=
202301101953 METAR KBLI 101953Z 03011KT 10SM CLR 09/06 A2963 RMK AO2 SLP041 T00940061=
202301101853 METAR KBLI 101853Z 03010KT 10SM CLR 09/06 A2965 RMK AO2 SLP049 T00940061=
202301101753 METAR KBLI 101753Z 02008KT 10SM SCT043 09/06 A2966 RMK AO2 SLP052 60000 T00890061 10100 20061 58007=
202301101653 METAR KBLI 101653Z 03005KT 10SM BKN045 07/06 A2967 RMK AO2 SLP055 T00670056=
202301101553 METAR KBLI 101553Z 01006KT 10SM BKN040 07/06 A2968 RMK AO2 SLP057 T00670061=
202301101453 METAR KBLI 101453Z 36005KT 10SM OVC040 07/06 A2968 RMK AO2 SLP059 60000 T00670061 50002=
202301101353 METAR KBLI 101353Z AUTO 03004KT 10SM OVC037 07/06 A2968 RMK AO2 RAE06 SLP059 P0000 T00670061=
202301101253 METAR KBLI 101253Z AUTO 02006KT 10SM -RA OVC034 07/06 A2968 RMK AO2 RAB06 SLP058 P0000 T00670061=
202301101153 METAR KBLI 101153Z AUTO 15004KT 10SM OVC031 10/06 A2968 RMK AO2 RAE00 SLP056 P0000 60007 70007 T01000061 10100 20067 52005=
202301101053 METAR KBLI 101053Z AUTO 15012KT 10SM -RA BKN031 OVC060 09/06 A2967 RMK AO2 RAB47 SLP055 P0000 T00940061=
202301100953 METAR KBLI 100953Z AUTO 12007KT 090V160 10SM SCT035 OVC065 09/06 A2966 RMK AO2 SLP052 T00890061=
202301100853 METAR KBLI 100853Z AUTO 21003KT 10SM SCT038 OVC060 07/07 A2966 RMK AO2 RAB03E29 SLP052 P0001 60007 T00720067 51008=
202301100753 METAR KBLI 100753Z AUTO 09004KT 10SM SCT036 BKN044 OVC085 07/07 A2966 RMK AO2 RAE44 SLP051 P0001 T00720067 401330044=
202301100653 METAR KBLI 100653Z AUTO 15008KT 7SM -RA OVC042 08/07 A2965 RMK AO2 PK WND 16028/0601 SLP049 P0005 T00780067=
202301100632 SPECI KBLI 100632Z AUTO 17009KT 6SM -RA BR OVC040 08/07 A2965 RMK AO2 PK WND 16028/0601 P0004 T00830072=
202301100553 METAR KBLI 100553Z 17011G28KT 10SM -RA BKN028 OVC040 09/06 A2964 RMK AO2 PK WND 15029/0520 RAB43 SLP044 P0000 60000 T00940061 10117 20094 53031=
202301100453 METAR KBLI 100453Z 15011G20KT 10SM FEW043 10/04 A2960 RMK AO2 SLP030 T01000039=
202301100353 METAR KBLI 100353Z 15016G22KT 10SM CLR 10/04 A2957 RMK AO2 PK WND 17035/0257 SLP019 T01000044=
202301100253 METAR KBLI 100253Z 15020G34KT 10SM FEW100 SCT120 10/05 A2954 RMK AO2 PK WND 14034/0243 SLP012 T01000050 51019=
202301100153 METAR KBLI 100153Z 17017G35KT 10SM SCT090 SCT120 10/05 A2953 RMK AO2 PK WND 16036/0135 SLP006 T01000050=
202301100053 METAR KBLI 100053Z 16017G29KT 10SM BKN035 10/04 A2951 RMK AO2 PK WND 16031/0002 SLP001 T01000044=
202301092353 METAR KBLI 092353Z 15021G31KT 10SM BKN044 BKN060 12/04 A2949 RMK AO2 PK WND 14031/2351 SLP992 60000 T01170044 10133 20061 53023=
202301092253 METAR KBLI 092253Z 15020G29KT 10SM BKN100 12/04 A2945 RMK AO2 PK WND 15032/2229 SLP981 T01170044=
202301092153 METAR KBLI 092153Z 15017G28KT 10SM OVC055 13/03 A2943 RMK AO2 PK WND 14029/2132 SLP972 T01280033=
202301092053 METAR KBLI 092053Z 08007KT 10SM OVC065 11/03 A2942 RMK AO2 RAB38E47 SLP969 P0000 60000 T01060028 53003=
202301091953 METAR KBLI 091953Z 06010KT 10SM SCT060 BKN080 10/04 A2937 RMK AO2 RAE17 SLP955 P0000 T01000044=
202301091915 SPECI KBLI 091915Z 06006KT 10SM -RA SCT060 BKN080 09/03 A2940 RMK AO2 P0000 T00890028=
202301091853 METAR KBLI 091853Z 10010G20KT 10SM -RA BKN060 OVC075 09/03 A2942 RMK AO2 RAB49 SLP969 P0000 T00940028=
202301091753 METAR KBLI 091753Z 03008KT 10SM CLR 06/03 A2941 RMK AO2 SLP966 T00610028 10061 20044 56033=
202301091653 METAR KBLI 091653Z 03009KT 10SM CLR 06/03 A2941 RMK AO2 SLP967 T00560028=
202301091553 METAR KBLI 091553Z 02010KT 10SM CLR 04/02 A2944 RMK AO2 SLP977 T00440022=
202301091453 METAR KBLI 091453Z 03010KT 10SM CLR 04/03 A2951 RMK AO2 SLP999 T00440028 56063=
202301091353 METAR KBLI 091353Z AUTO 04010KT 10SM CLR 06/03 A2956 RMK AO2 PRESFR SLP018 T00560033=
202301091253 METAR KBLI 091253Z AUTO 05009KT 10SM SCT075 06/04 A2963 RMK AO2 SLP041 T00610039=
202301091153 METAR KBLI 091153Z AUTO 04008KT 10SM SCT050 06/04 A2969 RMK AO2 SLP063 70012 T00560044 10100 20056 58022=
202301091053 METAR KBLI 091053Z AUTO 04006KT 10SM OVC100 06/05 A2972 RMK AO2 SLP072 T00610050=
202301090953 METAR KBLI 090953Z AUTO 13006KT 10SM OVC110 09/04 A2974 RMK AO2 SLP078 T00940039=
202301090853 METAR KBLI 090853Z AUTO 16006KT 10SM FEW032 09/04 A2976 RMK AO2 SLP085 T00890044 58003=
202301090753 METAR KBLI 090753Z AUTO 16013G19KT 10SM CLR 08/04 A2978 RMK AO2 SLP092 T00830044 401000050=
202301090653 METAR KBLI 090653Z AUTO 16013G17KT 10SM CLR 09/05 A2978 RMK AO2 PK WND 18033/0603 SLP094 T00890050=
202301090553 METAR KBLI 090553Z 17018G31KT 10SM FEW028 BKN035 10/04 A2977 RMK AO2 PK WND 19031/0552 SLP088 T01000044 10100 20094 51021=
202301090453 METAR KBLI 090453Z 17010G21KT 10SM FEW036 SCT044 BKN095 09/05 A2975 RMK AO2 PK WND 16030/0357 SLP083 T00940050=
202301090353 METAR KBLI 090353Z 17017G29KT 10SM SCT025 BKN095 10/05 A2973 RMK AO2 PK WND 16034/0318 SLP076 T01000050=
202301090253 METAR KBLI 090253Z 17014G28KT 10SM BKN027 10/06 A2970 RMK AO2 PK WND 16034/0240 SLP066 T01000061 51018=
202301090153 METAR KBLI 090153Z 16018G28KT 10SM BKN028 BKN039 10/06 A2969 RMK AO2 PK WND 16030/0122 SLP063 T01000061=
202301090053 METAR KBLI 090053Z 16013G21KT 10SM BKN027 BKN038 10/07 A2967 RMK AO2 PK WND 16033/0012 SLP056 T01000067=
202301082353 METAR KBLI 082353Z 16014G29KT 10SM BKN028 OVC038 10/07 A2965 RMK AO2 PK WND 19038/2312 RAE01B19E37 SLP049 P0000 60011 T01000067 10100 20061 53024=
202301082253 METAR KBLI 082253Z 16018G26KT 10SM -RA OVC028 09/07 A2961 RMK AO2 PK WND 15031/2239 SLP035 P0000 T00940072=
202301082153 METAR KBLI 082153Z 16011G22KT 10SM -RA BKN032 OVC060 09/07 A2959 RMK AO2 SLP028 P0001 T00940072=
202301082053 METAR KBLI 082053Z 10003KT 9SM -RA BKN038 OVC045 08/08 A2958 RMK AO2 SLP025 P0004 60010 T00830078 51005=
202301081953 METAR KBLI 081953Z 00000KT 6SM -RA BR OVC039 07/07 A2958 RMK AO2 SLP024 P0003 T00720072=
202301081853 METAR KBLI 081853Z 07004KT 9SM -RA OVC047 07/07 A2958 RMK AO2 SLP024 P0003 T00670067=
202301081753 METAR KBLI 081753Z 00000KT 7SM -RA OVC050 07/06 A2957 RMK AO2 SLP020 P0001 60001 T00670061 10067 20050 53008=
202301081653 METAR KBLI 081653Z 00000KT 10SM -RA OVC055 06/06 A2955 RMK AO2 RAE23B41 SLP014 P0000 T00610056=
202301081553 METAR KBLI 081553Z 00000KT 10SM -RA OVC070 05/05 A2955 RMK AO2 RAB13E22B43 SLP014 P0000 T00500050=
202301081453 METAR KBLI 081453Z 00000KT 10SM OVC070 06/05 A2954 RMK AO2 SLP012 T00560050 55007=
202301081353 METAR KBLI 081353Z AUTO 00000KT 10SM OVC090 07/04 A2954 RMK AO2 SLP009 T00670039=
202301081253 METAR KBLI 081253Z AUTO 03008KT 10SM CLR 06/04 A2955 RMK AO2 SLP013 T00560039=
202301081153 METAR KBLI 081153Z AUTO 03008KT 10SM BKN075 06/04 A2957 RMK AO2 SLP019 70022 T00560039 10089 20050 58025=
202301081053 METAR KBLI 081053Z AUTO 03008KT 10SM CLR 06/04 A2960 RMK AO2 SLP031 T00560044=
202301080953 METAR KBLI 080953Z AUTO 03007KT 10SM CLR 06/04 A2962 RMK AO2 SLP037 T00560044=
202301080853 METAR KBLI 080853Z AUTO 03007KT 10SM BKN070 07/06 A2964 RMK AO2 SLP044 T00670056 58019=
202301080753 METAR KBLI 080753Z AUTO 04006KT 10SM BKN070 06/05 A2966 RMK AO2 SLP053 T00610050 401060056=
202301080653 METAR KBLI 080653Z AUTO 03008KT 10SM SCT065 OVC075 07/06 A2969 RMK AO2 SLP060 T00720061=
202301080553 METAR KBLI 080553Z 10005KT 10SM FEW055 OVC110 08/07 A2970 RMK AO2 SLP063 60002 T00830067 10094 20067 58014=
202301080453 METAR KBLI 080453Z 00000KT 10SM SCT045 BKN070 OVC085 07/07 A2971 RMK AO2 SLP070 T00720072=
202301080353 METAR KBLI 080353Z 03005KT 10SM OVC050 07/07 A2973 RMK AO2 RAB04E35 SLP074 P0000 T00720072=
202301080253 METAR KBLI 080253Z 03006KT 10SM OVC050 07/07 A2973 RMK AO2 RAE38 SLP077 P0000 60002 T00720072 56015=
202301080153 METAR KBLI 080153Z 02005KT 7SM -RA BKN047 OVC060 07/07 A2975 RMK AO2 SLP082 P0001 T00720072=
202301080053 METAR KBLI 080053Z 04005KT 10SM -RA SCT047 OVC060 07/07 A2976 RMK AO2 SLP086 P0001 T00720072=
202301072353 METAR KBLI 072353Z 00000KT 8SM -RA OVC050 08/08 A2978 RMK AO2 RAE12B29 SLP092 P0000 60016 T00780078 10083 20067 56011=
202301072253 METAR KBLI 072253Z 08003KT 8SM -RA SCT048 OVC060 08/07 A2979 RMK AO2 SLP097 P0000 T00830072=
202301072153 METAR KBLI 072153Z 03005KT 8SM -RA BKN048 OVC060 08/07 A2979 RMK AO2 SLP096 P0003 T00780072=
202301072053 METAR KBLI 072053Z 04004KT 5SM -RA BR OVC044 08/08 A2981 RMK AO2 SLP103 P0004 60013 T00780078 58022=
202301071953 METAR KBLI 071953Z 02006KT 4SM -RA BR OVC041 08/08 A2983 RMK AO2 SLP109 P0006 T00780078=
202301071853 METAR KBLI 071853Z 04006KT 4SM -RA BR OVC047 07/07 A2986 RMK AO2 SLP120 P0003 T00720072=
202301071753 METAR KBLI 071753Z 00000KT 4SM -RA BR OVC046 07/07 A2988 RMK AO2 SLP125 P0004 60004 T00670067 10106 20061 58004=
202301071653 METAR KBLI 071653Z 00000KT 10SM -RA FEW041 BKN060 OVC075 07/06 A2989 RMK AO2 SLP129 P0000 T00670061=
202301071553 METAR KBLI 071553Z 01004KT 10SM -RA OVC046 07/05 A2988 RMK AO2 RAB50 SLP126 P0000 T00720050=
202301071453 METAR KBLI 071453Z 02004KT 10SM BKN050 BKN090 07/04 A2989 RMK AO2 SLP129 T00720044 58011=
202301071353 METAR KBLI 071353Z AUTO 16010KT 10SM FEW090 10/05 A2990 RMK AO2 SLP133 T01000050=
202301071253 METAR KBLI 071253Z AUTO 13012KT 10SM OVC055 11/06 A2991 RMK AO2 SLP137 T01060056=
202301071153 METAR KBLI 071153Z AUTO 12008KT 10SM FEW048 FEW070 SCT095 10/05 A2992 RMK AO2 SLP140 60000 T01000050 10106 20094 58003=
202301071053 METAR KBLI 071053Z AUTO 15010G18KT 10SM OVC044 11/05 A2993 RMK AO2 SLP143 T01060050=
202301070953 METAR KBLI 070953Z AUTO 13010KT 10SM BKN050 OVC110 09/06 A2993 RMK AO2 SLP142 T00940056=
202301070853 METAR KBLI 070853Z AUTO 14008KT 10SM OVC050 09/06 A2993 RMK AO2 SLP143 60000 T00940061 50001=
202301070840 SPECI KBLI 070840Z AUTO 14005KT 10SM SCT028 OVC055 10/06 A2993 RMK AO2 T01000061=
202301070753 METAR KBLI 070753Z AUTO 13006G15KT 10SM BKN028 BKN050 OVC080 10/06 A2994 RMK AO2 SLP146 T01000061 401280089=
202301070653 METAR KBLI 070653Z AUTO 13011KT 10SM FEW060 OVC080 10/07 A2994 RMK AO2 RAE25 SLP145 P0000 T01000067=
202301070553 METAR KBLI 070553Z 18007G17KT 10SM -RA OVC050 09/07 A2993 RMK AO2 RAB45 SLP142 P0000 60000 T00940067 10128 20089 53010=
202301070453 METAR KBLI 070453Z 23004KT 10SM BKN050 OVC090 10/06 A2992 RMK AO2 RAB10E41 SLP140 P0000 T01000056=
202301070353 METAR KBLI 070353Z 15008KT 10SM OVC065 13/04 A2990 RMK AO2 SLP131 T01280039=
202301070253 METAR KBLI 070253Z 00000KT 10SM SCT060 BKN080 11/03 A2990 RMK AO2 RAB19E29 SLP132 P0000 60000 T01060033 55001=
202301070228 SPECI KBLI 070228Z VRB03KT 10SM -RA OVC065 10/04 A2988 RMK AO2 RAB19 P0000 T01000039=
202301070153 METAR KBLI 070153Z 04007KT 10SM BKN100 BKN120 11/03 A2986 RMK AO2 SLP120 T01060028=
202301070053 METAR KBLI 070053Z 04008KT 10SM SCT060 BKN095 10/04 A2989 RMK AO2 SLP128 T01000039=
202301062353 METAR KBLI 062353Z 04008KT 10SM FEW055 FEW110 11/03 A2990 RMK AO2 SLP133 T01060033 10128 20106 58017=
202301062253 METAR KBLI 062253Z 05007KT 10SM BKN060 OVC075 11/04 A2992 RMK AO2 SLP140 T01110044=
202301062153 METAR KBLI 062153Z 05005KT 10SM OVC060 11/04 A2994 RMK AO2 SLP144 T01110044=
202301062053 METAR KBLI 062053Z 14008KT 10SM OVC060 13/01 A2995 RMK AO2 SLP150 T01280006 58006=
202301061953 METAR KBLI 061953Z 15009G16KT 10SM BKN080 BKN110 13/02 A2996 RMK AO2 SLP151 T01280017=
202301061853 METAR KBLI 061853Z 14008KT 10SM BKN090 OVC110 12/02 A2997 RMK AO2 SLP157 T01170022=
202301061753 METAR KBLI 061753Z 15010KT 10SM BKN090 OVC110 11/04 A2997 RMK AO2 PK WND 13028/1708 SLP156 T01110039 10111 20094 50006=
202301061653 METAR KBLI 061653Z 15014G24KT 10SM OVC120 11/04 A2997 RMK AO2 SLP156 T01060044=
202301061553 METAR KBLI 061553Z 17011G23KT 10SM FEW030 10/06 A2996 RMK AO2 SLP152 T01000056=
202301061453 METAR KBLI 061453Z 17011G18KT 10SM OVC032 10/06 A2995 RMK AO2 SLP150 T01000056 52014=
202301061400 SPECI KBLI 061400Z AUTO 17012G24KT 10SM BKN031 OVC110 10/06 A2994 RMK AO2 T01000056=
202301061353 METAR KBLI 061353Z AUTO 17013G20KT 10SM BKN028 BKN033 OVC110 10/06 A2994 RMK AO2 SLP145 T01000056=
202301061333 SPECI KBLI 061333Z AUTO 17013G20KT 10SM OVC029 10/06 A2993 RMK AO2 T01000061=
202301061326 SPECI KBLI 061326Z AUTO 17010G19KT 10SM SCT027 OVC032 10/06 A2993 RMK AO2 T01000061=
202301061253 METAR KBLI 061253Z AUTO 17013G20KT 10SM OVC028 10/06 A2993 RMK AO2 SLP141 T01000061=
202301061228 SPECI KBLI 061228Z AUTO 18011G23KT 10SM OVC029 11/06 A2992 RMK AO2 T01060056=
202301061207 SPECI KBLI 061207Z AUTO 18008G19KT 10SM OVC030 11/06 A2992 RMK AO2 T01060061=
202301061153 METAR KBLI 061153Z AUTO 18010G19KT 10SM BKN028 OVC034 11/06 A2991 RMK AO2 SLP136 T01060061 10122 20100 51026=
202301061132 SPECI KBLI 061132Z AUTO 17010G18KT 10SM BKN027 OVC033 11/07 A2991 RMK AO2 T01060067=
202301061053 METAR KBLI 061053Z AUTO 18012G21KT 10SM BKN030 OVC037 11/07 A2990 RMK AO2 SLP131 T01060067=
202301061003 SPECI KBLI 061003Z AUTO 17012G21KT 10SM OVC031 10/07 A2987 RMK AO2 T01000067=
202301060953 METAR KBLI 060953Z AUTO 17012G20KT 10SM OVC029 10/07 A2987 RMK AO2 SLP122 T01000067=
202301060935 SPECI KBLI 060935Z AUTO 19009G18KT 10SM OVC028 10/07 A2987 RMK AO2 T01000072=
202301060921 SPECI KBLI 060921Z AUTO 19009G18KT 10SM OVC030 11/07 A2985 RMK AO2 T01060067=
202301060853 METAR KBLI 060853Z AUTO 18010G24KT 10SM BKN028 OVC033 11/07 A2984 RMK AO2 PK WND 17031/0804 SLP110 T01110067 51045=
202301060753 METAR KBLI 060753Z AUTO 18016G30KT 10SM BKN028 OVC037 11/07 A2980 RMK AO2 PK WND 16032/0734 SLP098 T01110067 401610078=
202301060653 METAR KBLI 060653Z AUTO 16020G39KT 10SM FEW034 12/07 A2976 RMK AO2 PK WND 17041/0617 PRESRR SLP083 T01170067=
202301060553 METAR KBLI 060553Z 18017G32KT 10SM FEW033 BKN085 12/07 A2970 RMK AO2 PK WND 16040/0511 SLP065 T01220067 10156 20122 53045=
202301060453 METAR KBLI 060453Z 16018G37KT 10SM FEW038 SCT090 OVC110 13/06 A2966 RMK AO2 PK WND 16048/0400 SLP051 T01280061=
202301060353 METAR KBLI 060353Z 15021G40KT 10SM FEW065 BKN100 13/07 A2961 RMK AO2 PK WND 16045/0336 SLP032 T01330067=
202301060253 METAR KBLI 060253Z 17014G29KT 10SM BKN055 BKN100 14/04 A2957 RMK AO2 PK WND 16029/0245 SLP019 T01440044 53028=
202301060153 METAR KBLI 060153Z 15013G22KT 10SM OVC060 14/04 A2954 RMK AO2 PK WND 14028/0105 SLP009 T01440039=
202301060053 METAR KBLI 060053Z 14015G24KT 10SM BKN065 BKN090 OVC110 14/04 A2951 RMK AO2 PK WND 14030/0014 SLP000 T01440039=
202301052353 METAR KBLI 052353Z 15012G31KT 10SM OVC065 16/03 A2948 RMK AO2 PK WND 17031/2345 SLP990 T01560028 10161 20100 53017=
202301052253 METAR KBLI 052253Z 03008KT 10SM BKN070 11/03 A2946 RMK AO2 SLP981 T01110033=
202301052153 METAR KBLI 052153Z 10012KT 10SM BKN070 BKN120 14/04 A2944 RMK AO2 SLP975 T01440039=
202301052053 METAR KBLI 052053Z 11015G26KT 10SM SCT070 BKN120 16/04 A2943 RMK AO2 PK WND 13028/2033 SLP974 T01560039 50001=
202301051953 METAR KBLI 051953Z 10SM BKN070 14/03 A2945 RMK AO2 SLP979 T01390033=
202301051853 METAR KBLI 051853Z 03010KT 10SM BKN075 BKN120 12/03 A2944 RMK AO2 SLP977 T01170028=
202301051753 METAR KBLI 051753Z 04008KT 10SM SCT095 BKN120 10/02 A2943 RMK AO2 SLP973 60000 T01000022 10100 20078 53003=
202301051653 METAR KBLI 051653Z 04010KT 10SM CLR 08/02 A2942 RMK AO2 SLP971 T00780017=
202301051553 METAR KBLI 051553Z 04011KT 10SM FEW070 08/02 A2941 RMK AO2 SLP968 T00830017=
202301051453 METAR KBLI 051453Z 03013KT 10SM BKN075 08/02 A2942 RMK AO2 SLP970 60000 T00830017 58015=
202301051353 METAR KBLI 051353Z AUTO 04010KT 10SM OVC080 09/02 A2945 RMK AO2 SLP979 T00890017 $=
202301051253 METAR KBLI 051253Z AUTO 05009KT 10SM BKN070 OVC110 08/02 A2945 RMK AO2 RAB1155E15 SLP980 P0000 T00830017 $=
202301051153 METAR KBLI 051153Z AUTO 04012KT 10SM OVC060 09/02 A2947 RMK AO2 RAB38E48 SLP985 P0000 60000 T00890017 10094 20083 58004 $=
202301051053 METAR KBLI 051053Z AUTO 04012KT 10SM SCT060 OVC080 09/01 A2947 RMK AO2 SLP988 T00890011 $=
202301050953 METAR KBLI 050953Z AUTO 04010KT 10SM OVC070 09/01 A2947 RMK AO2 RAB06E39 SLP987 P0000 T00890006 $=
202301050853 METAR KBLI 050853Z AUTO 04012G22KT 10SM BKN075 OVC100 09/00 A2948 RMK AO2 RAE12 SLP990 P0000 60000 T00890000 58023 $=
202301050753 METAR KBLI 050753Z AUTO 05011G22KT 10SM -RA BKN070 OVC090 08/M01 A2951 RMK AO2 RAB42 SLP001 P0000 T00831006 400830011 $=
202301050653 METAR KBLI 050653Z AUTO 04013G20KT 10SM BKN080 OVC095 08/M01 A2955 RMK AO2 SLP013 T00831011 $=
202301050553 METAR KBLI 050553Z 05013G20KT 10SM OVC070 08/M02 A2955 RMK AO2 SLP013 T00831017 10083 20067 58026 $=
202301050453 METAR KBLI 050453Z 04015G20KT 10SM FEW065 OVC090 08/M02 A2956 RMK AO2 PK WND 04027/0427 SLP019 T00781017 $=
202301050353 METAR KBLI 050353Z 05016G23KT 10SM BKN090 OVC110 08/M02 A2961 RMK AO2 SLP034 T00781022 $=
202301050253 METAR KBLI 050253Z 04012G24KT 10SM SCT100 BKN120 08/M03 A2962 RMK AO2 PK WND 04026/0158 SLP040 T00781028 56023 $=
202301050153 METAR KBLI 050153Z 05015G28KT 10SM FEW090 07/M03 A2964 RMK AO2 PK WND 04028/0144 SLP046 T00721028 $=
202301050053 METAR KBLI 050053Z 04013G24KT 10SM CLR 07/M03 A2967 RMK AO2 SLP056 T00721028=
202301042353 METAR KBLI 042353Z 05014G21KT 10SM CLR 07/M03 A2969 RMK AO2 SLP063 T00721028 10072 20033 56025=
202301042253 METAR KBLI 042253Z 04012G20KT 10SM CLR 07/M02 A2971 RMK AO2 SLP070 T00721022=
202301042153 METAR KBLI 042153Z 04013KT 10SM CLR 07/M02 A2973 RMK AO2 SLP078 T00671022=
202301042053 METAR KBLI 042053Z 03009KT 10SM CLR 07/M01 A2977 RMK AO2 SLP088 T00671011 56041=
202301041953 METAR KBLI 041953Z 03009KT 10SM CLR 06/M01 A2981 RMK AO2 SLP102 T00611011=
202301041853 METAR KBLI 041853Z 04011KT 10SM CLR 06/M01 A2984 RMK AO2 PRESFR SLP114 T00561011=
202301041753 METAR KBLI 041753Z 03009KT 10SM CLR 03/M01 A2989 RMK AO2 SLP129 T00331006 10039 20022 58006=
202301041653 METAR KBLI 041653Z 03008KT 10SM CLR 03/M01 A2990 RMK AO2 SLP135 T00281011=
202301041553 METAR KBLI 041553Z 03007KT 10SM SCT050 02/M01 A2990 RMK AO2 SLP136 T00221006=
202301041453 METAR KBLI 041453Z 01007KT 10SM BKN045 OVC050 03/00 A2990 RMK AO2 SLP135 T00330000 55010=
202301041353 METAR KBLI 041353Z AUTO 03008KT 10SM OVC042 04/01 A2988 RMK AO2 SLP126 T00390006=
202301041253 METAR KBLI 041253Z AUTO 02005KT 10SM OVC046 03/01 A2994 RMK AO2 SLP146 T00330011=
202301041153 METAR KBLI 041153Z AUTO 03004KT 10SM OVC050 03/01 A2993 RMK AO2 SLP145 70003 T00280011 10028 20011 50004=
202301041053 METAR KBLI 041053Z AUTO 05003KT 10SM OVC060 02/01 A2994 RMK AO2 SLP148 T00170011=
202301040953 METAR KBLI 040953Z AUTO 00000KT 10SM OVC065 01/01 A2993 RMK AO2 SLP144 T00110011=
202301040853 METAR KBLI 040853Z AUTO 00000KT 10SM FEW060 OVC080 02/01 A2992 RMK AO2 SLP141 T00170011 53011=
202301040753 METAR KBLI 040753Z AUTO 03006KT 10SM CLR 02/01 A2990 RMK AO2 SLP135 T00220006 400561011=
202301040653 METAR KBLI 040653Z AUTO 02007KT 10SM CLR 02/01 A2989 RMK AO2 SLP132 T00220011=
202301040553 METAR KBLI 040553Z 03005KT 10SM CLR 02/01 A2989 RMK AO2 SLP130 T00170011 10039 20017 53013=
202301040453 METAR KBLI 040453Z 03007KT 10SM CLR 02/01 A2987 RMK AO2 SLP123 T00220011=
202301040353 METAR KBLI 040353Z 03008KT 10SM CLR 02/01 A2986 RMK AO2 SLP120 T00220011=
202301040253 METAR KBLI 040253Z 03008KT 10SM CLR 02/01 A2985 RMK AO2 SLP117 T00220011 58002=
202301040153 METAR KBLI 040153Z 03007KT 10SM SCT038 02/01 A2985 RMK AO2 SLP119 T00220011=
202301040053 METAR KBLI 040053Z 02006KT 10SM OVC036 03/02 A2986 RMK AO2 SLP122 T00330017=
202301032353 METAR KBLI 032353Z 04007KT 10SM OVC036 04/02 A2986 RMK AO2 SLP120 T00390022 10056 20028 58002=
202301032253 METAR KBLI 032253Z 03007KT 10SM OVC030 04/03 A2986 RMK AO2 SLP121 T00440028=
202301032153 METAR KBLI 032153Z 02005KT 10SM OVC027 06/04 A2986 RMK AO2 SLP122 T00560039=
202301032053 METAR KBLI 032053Z 02006KT 10SM BKN024 OVC029 05/03 A2986 RMK AO2 SLP122 T00500033 50001=
202301031953 METAR KBLI 031953Z 02005KT 10SM BKN024 BKN028 OVC039 04/03 A2987 RMK AO2 SLP123 T00390033=
202301031853 METAR KBLI 031853Z 01004KT 10SM OVC024 03/03 A2987 RMK AO2 SLP124 T00330028=
202301031753 METAR KBLI 031753Z 02004KT 10SM OVC021 03/02 A2986 RMK AO2 SLP121 60003 T00280022 10044 20011 53013=
202301031653 METAR KBLI 031653Z 00000KT 10SM OVC021 02/02 A2985 RMK AO2 RAE10UPB10E14 SLP117 P0000 T00220022=
202301031600 SPECI KBLI 031600Z 08006KT 8SM -RA BKN027 OVC060 02/02 A2983 RMK AO2 P0000 T00170017=
202301031553 METAR KBLI 031553Z 07006KT 8SM -RA OVC030 02/01 A2983 RMK AO2 SLP111 P0003 T00170011=
202301031453 METAR KBLI 031453Z 03005KT 5SM -RA BR OVC030 02/01 A2982 RMK AO2 UPE03RAB1354 SLP108 P0000 60000 T00220011 53015=
202301031353 METAR KBLI 031353Z AUTO 04004KT 10SM UP OVC033 02/01 A2980 RMK AO2 RAB50E51UPB51 SLP100 P0000 T00220006=
202301031253 METAR KBLI 031253Z AUTO 11005KT 10SM OVC031 04/01 A2978 RMK AO2 RAB00E19 SLP094 P0000 T00390006=
202301031153 METAR KBLI 031153Z AUTO 06003KT 10SM FEW043 OVC055 02/00 A2978 RMK AO2 SLP092 I6002 T00170000 10022 21028 53019=
202301031053 METAR KBLI 031053Z AUTO 00000KT 10SM OVC050 02/00 A2976 RMK AO2 SLP085 T00170000=
202301030953 METAR KBLI 030953Z AUTO 33003KT 10SM FEW055 SCT075 OVC095 01/01 A2973 RMK AO2 SLP078 I1001 T00110006=
202301030853 METAR KBLI 030853Z AUTO 33003KT 10SM OVC070 01/01 A2972 RMK AO2 SLP073 I3001 T00060006 51008=
202301030753 METAR KBLI 030753Z AUTO 00000KT 10SM OVC070 M01/M01 A2972 RMK AO2 SLP072 T10061006 400671028=
202301030653 METAR KBLI 030653Z AUTO 00000KT 10SM CLR M02/M02 A2971 RMK AO2 SLP071 I1001 T10221022=
202301030553 METAR KBLI 030553Z 00000KT 10SM CLR M02/M02 A2970 RMK AO2 SLP066 I1000 I6000 T10221022 10033 21028 51004=
202301030453 METAR KBLI 030453Z 00000KT 10SM CLR M01/M01 A2970 RMK AO2 SLP066 I1000 T10111011=
202301030353 METAR KBLI 030353Z 00000KT 10SM CLR M01/M02 A2969 RMK AO2 SLP062 T10111017=
202301030253 METAR KBLI 030253Z 00000KT 10SM CLR M01/M01 A2968 RMK AO2 SLP062 T10061006 53005=
202301030153 METAR KBLI 030153Z 00000KT 10SM CLR 01/01 A2968 RMK AO2 SLP059 T00060006=
202301030053 METAR KBLI 030053Z 00000KT 10SM CLR 02/02 A2967 RMK AO2 SLP058 T00170017=
202301022353 METAR KBLI 022353Z 00000KT 10SM CLR 03/03 A2967 RMK AO2 SLP056 T00330033 10067 20011 55002=
202301022253 METAR KBLI 022253Z 00000KT 10SM CLR 06/03 A2966 RMK AO2 SLP053 T00560028=
202301022153 METAR KBLI 022153Z VRB04KT 10SM CLR 06/02 A2967 RMK AO2 SLP055 T00610022=
202301022053 METAR KBLI 022053Z 06004KT 10SM CLR 06/03 A2967 RMK AO2 SLP057 T00610033 58022=
202301021953 METAR KBLI 021953Z 00000KT 10SM CLR 04/03 A2971 RMK AO2 SLP069 T00440033=
202301021853 METAR KBLI 021853Z 00000KT 10SM CLR 03/03 A2973 RMK AO2 SLP076 T00330033=
202301021753 METAR KBLI 021753Z 00000KT 10SM CLR 01/01 A2974 RMK AO2 SLP080 I1001 I6002 T00110011 10011 21017 58017=
202301021653 METAR KBLI 021653Z 09003KT 10SM CLR 00/00 A2976 RMK AO2 SLP087 T00000000=
202301021553 METAR KBLI 021553Z 01006KT 10SM CLR M01/M01 A2978 RMK AO2 SLP094 I1000 T10111011=
202301021453 METAR KBLI 021453Z 06004KT 10SM CLR 00/00 A2979 RMK AO2 SLP097 I1001 I3001 T00000000 58021=
202301021353 METAR KBLI 021353Z AUTO 35003KT 10SM SCT001 M01/M01 A2982 RMK AO2 SLP109 I1000 T10061006=
202301021345 SPECI KBLI 021345Z AUTO 08004KT 3SM BR BKN001 M01/M01 A2982 RMK AO2 I1000 T10061006=
202301021339 SPECI KBLI 021339Z AUTO 11006KT 1 1/4SM R16/4500VP6000FT BR BKN001 M01/M01 A2983 RMK AO2 I1000 T10061006=
202301021331 SPECI KBLI 021331Z AUTO 08004KT 2 1/2SM R16/4500VP6000FT BR BKN001 M01/M01 A2983 RMK AO2 T10111011=
202301021312 SPECI KBLI 021312Z AUTO 00000KT 7SM FEW001 M01/M01 A2985 RMK AO2 T10111011=
202301021304 SPECI KBLI 021304Z AUTO 00000KT 2SM BR SCT001 M01/M01 A2985 RMK AO2 T10111011=
202301021253 METAR KBLI 021253Z AUTO 00000KT 1SM R16/6000VP6000FT BR VV001 M01/M01 A2985 RMK AO2 SLP117 T10061006=
202301021240 SPECI KBLI 021240Z AUTO 13003KT 3/4SM R16/3500VP6000FT BR VV001 M02/M02 A2985 RMK AO2 T10171017=
202301021235 SPECI KBLI 021235Z AUTO 14003KT 1 3/4SM R16/4000VP6000FT BR SCT001 M01/M01 A2986 RMK AO2 T10111011=
202301021153 METAR KBLI 021153Z AUTO 00000KT 10SM FEW001 M01/M01 A2986 RMK AO2 SLP121 I1000 I6000 T10111011 10011 21017 56015=
202301021148 SPECI KBLI 021148Z AUTO 25003KT 4SM BR FEW001 M01/M01 A2986 RMK AO2 I1000=
202301021142 SPECI KBLI 021142Z AUTO 00000KT 1 3/4SM BR FEW001 M01/M01 A2986 RMK AO2 VIS 3/4V5 I1000 T10061006=
202301021129 SPECI KBLI 021129Z AUTO 00000KT 1 3/4SM BR CLR M01/M01 A2986 RMK AO2 VIS 3/4V5 T10111011=
202301021053 METAR KBLI 021053Z AUTO 00000KT 10SM CLR 00/00 A2988 RMK AO2 SLP128 I1000 T00000000=
202301021049 SPECI KBLI 021049Z AUTO 00000KT 8SM CLR M01/M01 A2988 RMK AO2 I1000=
202301021041 SPECI KBLI 021041Z AUTO 00000KT 2SM BR FEW001 M01/M01 A2989 RMK AO2 I1000 T10061006=
202301021038 SPECI KBLI 021038Z AUTO 00000KT 1SM R16/P6000FT BR VV001 M01/M01 A2989 RMK AO2 I1000 T10111011=
202301021030 SPECI KBLI 021030Z AUTO 00000KT 1SM R16/P6000FT BR VV002 M01/M01 A2990 RMK AO2 T10111011=
202301021028 SPECI KBLI 021028Z AUTO 00000KT 1 3/4SM BR CLR M01/M01 A2990 RMK AO2 T10111011=
202301020953 METAR KBLI 020953Z AUTO 00000KT 3SM BR CLR M01/M01 A2991 RMK AO2 SLP137 I1000 T10061006=
202301020853 METAR KBLI 020853Z AUTO 00000KT 10SM CLR 00/00 A2995 RMK AO2 SLP150 I1000 I3000 T00000000 58023=
202301020829 SPECI KBLI 020829Z AUTO 36005KT 4SM BR CLR 00/00 A2996 RMK AO2 I1000 T00000000=
202301020818 SPECI KBLI 020818Z AUTO 36003KT 1 3/4SM BR CLR 01/01 A2996 RMK AO2 T00060006=
202301020753 METAR KBLI 020753Z AUTO 36004KT 5SM BR CLR 00/00 A2997 RMK AO2 SLP159 I1000 T00000000 400831006=
202301020739 SPECI KBLI 020739Z AUTO 00000KT 3SM BR FEW001 01/01 A2998 RMK AO2 I1000 T00060006=
202301020731 SPECI KBLI 020731Z AUTO 03004KT 1 3/4SM BR FEW001 00/00 A2998 RMK AO2 T00000000=
202301020723 SPECI KBLI 020723Z AUTO 02003KT 4SM R16/5500VP6000FT BR SCT001 00/00 A2998 RMK AO2 T00000000=
202301020715 SPECI KBLI 020715Z AUTO 05004KT 5SM BR CLR 01/01 A2999 RMK AO2 T00060006=
202301020653 METAR KBLI 020653Z AUTO 04003KT 2SM BR CLR M01/M01 A2999 RMK AO2 SLP166 T10061006=
202301020635 SPECI KBLI 020635Z AUTO 00000KT 2SM R16/4500VP6000FT BR FEW001 00/00 A3000 RMK AO2 T00000000=
202301020631 SPECI KBLI 020631Z AUTO 00000KT 1SM R16/4500VP6000FT BR VV001 00/00 A3000 RMK AO2 T00000000=
202301020559 SPECI KBLI 020559Z 00000KT 1/2SM R16/4000VP6000FT FG VV001 01/01 A3001 RMK AO2 T00060006=
202301020555 SPECI KBLI 020555Z 00000KT 3/4SM R16/4000VP6000FT BR CLR 01/01 A3002 RMK AO2 T00060006=
202301020553 METAR KBLI 020553Z 00000KT 3/4SM R16/4000VP6000FT BR VV001 01/01 A3002 RMK AO2 SLP173 I6000 T00110011 10061 20000 56012=
202301020453 METAR KBLI 020453Z 00000KT 3/4SM R16/P6000FT BR VV001 02/02 A3002 RMK AO2 SLP176 T00220022=
202301020426 SPECI KBLI 020426Z 35003KT 3/4SM R16/2000VP6000FT BR VV001 00/00 A3002 RMK AO2 T00000000=
202301020410 SPECI KBLI 020410Z 35003KT 3/4SM R16/1600V1800FT BR VV001 02/02 A3002 RMK AO2 T00170017=
202301020353 METAR KBLI 020353Z 00000KT 3SM R16/5000VP6000FT BR FEW003 02/02 A3002 RMK AO2 SLP176 I1000 T00170017=
202301020315 SPECI KBLI 020315Z 00000KT 10SM R16/1400VP6000FT FEW003 02/02 A3004 RMK AO2 I1000 T00170017=
202301020253 METAR KBLI 020253Z 00000KT 10SM FEW010 02/02 A3005 RMK AO2 SLP185 T00220022 56012=
202301020219 SPECI KBLI 020219Z 00000KT 10SM CLR 02/02 A3006 RMK AO2 T00220022=
202301020212 SPECI KBLI 020212Z 00000KT 1 1/2SM CLR 03/03 A3006 RMK AO2 T00280028=
202301020153 METAR KBLI 020153Z 00000KT 10SM FEW020 SCT100 02/02 A3006 RMK AO2 SLP189 T00220022=
202301020053 METAR KBLI 020053Z 00000KT 10SM FEW010 FEW020 SCT100 04/04 A3007 RMK AO2 SLP191 T00440044=
202301012353 METAR KBLI 012353Z 00000KT 10SM FEW018 06/06 A3009 RMK AO2 SLP196 T00610056 10083 20061 56019=
202301012253 METAR KBLI 012253Z 00000KT 10SM FEW008 BKN015 08/06 A3010 RMK AO2 SLP202 T00780061=
202301012153 METAR KBLI 012153Z 00000KT 10SM FEW008 SCT013 BKN018 08/06 A3012 RMK AO2 SLP207 T00780061=
202301012053 METAR KBLI 012053Z VRB03KT 10SM OVC013 07/06 A3014 RMK AO2 SLP215 T00720061 56012=
202301012036 SPECI KBLI 012036Z 29003KT 10SM OVC014 07/06 A3015 RMK AO2 T00720061=
202301011953 METAR KBLI 011953Z 22004KT 10SM FEW006 BKN017 OVC041 07/06 A3014 RMK AO2 SLP215 T00670061=
202301011902 SPECI KBLI 011902Z 00000KT 10SM BKN017 07/07 A3015 RMK AO2 T00720067=
202301011853 METAR KBLI 011853Z 15003KT 10SM SCT017 08/07 A3015 RMK AO2 SLP218 T00780067=
202301011753 METAR KBLI 011753Z 00000KT 10SM OVC015 07/06 A3018 RMK AO2 RAE01 SLP227 P0000 60000 T00670061 10067 20067 51014=
202301011751 SPECI KBLI 011751Z 00000KT 10SM OVC015 07/06 A3018 RMK AO2 RAE01 P0000=
202301011653 METAR KBLI 011653Z 20003KT 10SM -RA OVC010 07/07 A3016 RMK AO2 RAB48 CIG 008V012 SLP221 P0000 T00670067=
202301011553 METAR KBLI 011553Z 20003KT 10SM OVC010 07/07 A3014 RMK AO2 SLP213 T00670067=
202301011453 METAR KBLI 011453Z 00000KT 10SM OVC012 07/07 A3012 RMK AO2 SLP209 60000 T00670067 51006=
202301011353 METAR KBLI 011353Z AUTO 20004KT 10SM OVC010 07/07 A3012 RMK AO2 CIG 006V013 SLP209 T00670067=
202301011350 SPECI KBLI 011350Z AUTO VRB04KT 10SM BKN010 OVC017 07/07 A3012 RMK AO2 CIG 006V013=
202301011335 SPECI KBLI 011335Z AUTO VRB03KT 10SM OVC007 07/07 A3012 RMK AO2 CIG 004V011 T00670067=
202301011312 SPECI KBLI 011312Z AUTO 00000KT 10SM BKN004 OVC021 07/07 A3011 RMK AO2 CIG 004V008 T00670067=
202301011301 SPECI KBLI 011301Z AUTO 00000KT 10SM SCT008 OVC019 07/07 A3011 RMK AO2 T00670067=
202301011253 METAR KBLI 011253Z AUTO 20004KT 10SM BKN008 OVC019 07/07 A3011 RMK AO2 RAE1156 SLP203 P0000 T00670067=
202301011153 METAR KBLI 011153Z AUTO 21004KT 8SM -RA OVC007 07/07 A3010 RMK AO2 RAB41 CIG 003V009 SLP200 P0000 60000 70006 T00670067 10072 20056 51019=
202301011125 SPECI KBLI 011125Z AUTO 21003KT 7SM OVC009 07/07 A3009 RMK AO2 CIG 007V013 T00670067=
202301011105 SPECI KBLI 011105Z AUTO 19004KT 7SM BKN010 OVC014 07/07 A3009 RMK AO2 CIG 008V012 T00670067=
202301011053 METAR KBLI 011053Z AUTO 20004KT 10SM OVC016 07/07 A3009 RMK AO2 SLP197 T00720067=
202301011000 SPECI KBLI 011000Z AUTO VRB04KT 10SM BKN019 OVC047 07/07 A3006 RMK AO2 T00720067=
202301010953 METAR KBLI 010953Z AUTO 19005KT 10SM SCT019 OVC047 07/07 A3006 RMK AO2 SLP187 T00720067=
202301010903 SPECI KBLI 010903Z AUTO 20005KT 10SM SCT024 OVC045 07/07 A3004 RMK AO2 T00720067=
202301010853 METAR KBLI 010853Z AUTO 20005KT 10SM BKN024 OVC045 07/07 A3004 RMK AO2 SLP180 T00720067 51018=
202301010822 SPECI KBLI 010822Z AUTO 21004KT 10SM BKN023 OVC047 06/06 A3003 RMK AO2 T00610061=
202301010753 METAR KBLI 010753Z AUTO 18003KT 10SM OVC046 06/06 A3003 RMK AO2 SLP176 T00560056 400940056=
202301010653 METAR KBLI 010653Z AUTO 17004KT 10SM OVC045 07/06 A3001 RMK AO2 SLP171 T00720061=
202301010553 METAR KBLI 010553Z 19003KT 10SM BKN045 07/06 A2999 RMK AO2 SLP163 60000 T00720061 10083 20061 51021=
202301010453 METAR KBLI 010453Z 19004KT 10SM OVC046 07/06 A2997 RMK AO2 SLP158 T00720061=
202301010353 METAR KBLI 010353Z 00000KT 10SM BKN050 07/06 A2995 RMK AO2 SLP149 T00670061=
202301010253 METAR KBLI 010253Z 17005KT 10SM OVC050 07/07 A2993 RMK AO2 RAB27E37 SLP142 P0000 60000 T00720067 51018=
202301010153 METAR KBLI 010153Z 18004KT 10SM FEW020 SCT050 BKN070 08/06 A2991 RMK AO2 SLP136 T00780061=
202301010053 METAR KBLI 010053Z 18005KT 10SM FEW015 SCT030 BKN060 08/07 A2990 RMK AO2 SLP132 T00780067=
202301010000 SPECI KBLI 010000Z 18006KT 10SM SCT019 BKN080 08/07 A2988 RMK AO2 T00830067=

# No short TAF reports from KBLI in databse.

###################################
#  large TAF from KBLI
###################################
202301312320 TAF KBLI 312320Z 0100/0124 04006KT P6SM OVC050 FM010400 11003KT
                       P6SM OVC050 FM010700 10004KT 4SM -RA BR
                       OVC020 FM011300 11004KT P6SM VCSH OVC035
                       FM011800 14004KT P6SM OVC050=
202301312056 KBLI 312056Z 3121/0118 04006KT P6SM OVC050 FM010400 11003KT P6SM
                       OVC050 FM010700 10004KT 4SM -RA BR OVC007=
202301311723 TAF KBLI 311723Z 3118/0118 01004KT 1SM -SN BR BKN008 BKN015 OVC030
                       FM311900 13005KT 5SM BR VCSH OVC020 FM312100
                       14004KT P6SM OVC040 FM010400 11003KT P6SM
                       OVC050 FM010700 10004KT 4SM -RA BR OVC007=
202301311523 KBLI 311523Z 3115/0112 04005KT 1 1/2SM -SN BR BKN015 OVC030 FM311700
                       00000KT P6SM VCSH OVC025 FM312100 14004KT
                       P6SM OVC050 FM010400 11003KT P6SM OVC050=
202301311459 KBLI 311459Z 3115/0112 04005KT 2SM -SN BR BKN015 OVC030 FM311700
                       00000KT P6SM VCSH OVC025 FM312100 14004KT
                       P6SM OVC050 FM010400 11003KT P6SM OVC050=
202301311422 KBLI 311422Z 3114/0112 04005KT 2SM -SN BR OVC030 FM311700 00000KT
                       P6SM VCSH OVC025 FM312100 14004KT P6SM OVC050
                       FM010400 11003KT P6SM OVC050=
202301311139 TAF KBLI 311139Z 3112/0112 00000KT P6SM OVC040 FM311500 00000KT
                       P6SM VCSH OVC025 FM312000 14004KT P6SM OVC050
                       FM010400 11003KT P6SM OVC050=
202301310520 TAF KBLI 310520Z 3106/0106 00000KT P6SM OVC110 FM311200 00000KT
                       P6SM OVC050 FM311500 00000KT P6SM VCSH OVC025
                       FM312000 14004KT P6SM OVC050=
202301302320 TAF KBLI 302320Z 3100/3124 18003KT P6SM BKN150 OVC250 FM311000
                       08003KT P6SM OVC120 FM311400 05003KT P6SM
                       OVC060 FM311800 14004KT P6SM OVC050=
202301301720 TAF KBLI 301720Z 3018/3118 00000KT P6SM SCT250 FM302100 12005KT
                       P6SM SCT250 FM310000 13004KT P6SM BKN150
                       OVC250 FM311000 08003KT P6SM OVC120=
202301301135 TAF KBLI 301135Z 3012/3112 03005KT P6SM SKC FM301800 05004KT P6SM
                       SCT250 FM310000 13004KT P6SM BKN150 OVC250=
202301300525 TAF KBLI 300525Z 3006/3106 03005KT P6SM SKC FM301800 05004KT P6SM
                       SCT250 FM310000 13004KT P6SM BKN150 OVC250=
202301292320 TAF KBLI 292320Z 3000/3024 03009KT P6SM SKC FM300400 04005KT P6SM
                       SKC FM301800 16004KT P6SM BKN250=
202301291720 TAF KBLI 291720Z 2918/3018 04012G25KT P6SM SKC FM292200 03009KT
                       P6SM SKC FM300400 04005KT P6SM SKC=
202301291133 TAF KBLI 291133Z 2912/3012 04020G30KT P6SM SKC FM292200 03011KT
                       P6SM SKC FM300400 02006KT P6SM SKC=
202301290521 TAF KBLI 290521Z 2906/3006 03020G32KT P6SM SKC FM291600 03015G25KT
                       P6SM SKC FM292200 03011KT P6SM SKC FM300400
                       02006KT P6SM SCT250=
202301282320 TAF KBLI 282320Z 2900/2924 03017G32KT P6SM SKC FM291600 03012G20KT
                       P6SM SKC FM292100 03008KT P6SM SKC=
202301281727 TAF KBLI 281727Z 2818/2918 01006KT P6SM SCT050 FM282000 02011G18KT
                       P6SM SKC FM290000 03017G30KT P6SM SKC FM291600
                       03012G20KT P6SM SKC=
202301281427 KBLI 281427Z 2814/2912 VRB03KT 4SM BR SCT005 OVC020
                      TEMPO 2814/2817 1/2SM FG VV002 FM281700 04006KT
                       P6SM SCT022 OVC040 FM281900 02017G27KT P6SM
                       SCT050 FM290000 04018G30KT P6SM SKC FM290800
                       04016G26KT P6SM SKC=
202301281122 TAF KBLI 281122Z 2812/2912 VRB03KT 6SM BR SCT005 OVC020
                      TEMPO 2812/2816 3SM BR BKN003 OVC015 FM281600
                       04006KT P6SM BKN022 OVC040 FM281900 02017G27KT
                       P6SM SCT050 FM290000 04018G30KT P6SM SKC
                       FM290800 04016G26KT P6SM SKC=
202301280957 KBLI 280957Z 2810/2906 VRB03KT P6SM SCT012 OVC020
                      TEMPO 2810/2814 5SM BR BKN005 OVC015 FM281400
                       04006KT P6SM BKN020 OVC040 FM282000 02017G27KT
                       P6SM SCT050 FM290000 04022G33KT P6SM SKC=
202301280525 TAF KBLI 280525Z 2806/2906 VRB03KT P6SM SCT012 OVC020 FM280800
                       00000KT P6SM OVC015 FM281300 04006KT P6SM
                       BKN022 OVC050 FM282000 02017G27KT P6SM SCT050
                       FM290000 04022G33KT P6SM SKC=
202301272337 TAF KBLI 272337Z 2800/2824 20004KT P6SM SCT005 OVC015 FM281300
                       01002KT 6SM BR OVC050 FM282000 02012G18KT
                       P6SM FEW250=
202301271725 TAF KBLI 271725Z 2718/2818 VRB03KT 4SM BR BKN005 OVC025 FM272200
                       35004KT P6SM OVC015 FM280200 00000KT P6SM
                       SCT015 BKN040 FM280900 00000KT 6SM BR OVC007
                       FM281300 01003KT P6SM OVC015=
202301271403 KBLI 271403Z 2714/2812 VRB03KT P6SM SCT004 OVC015
                      TEMPO 2714/2717 OVC004 FM271700 VRB03KT P6SM
                       BKN015 OVC025 FM280200 00000KT P6SM SCT015
                       BKN040=
202301271126 TAF KBLI 271126Z 2712/2812 16007KT P6SM BKN015 OVC025 FM271600
                       VRB03KT P6SM BKN015 OVC025 FM280200 00000KT
                       P6SM SCT015 BKN040=
202301270520 TAF KBLI 270520Z 2706/2806 18010G20KT P6SM OVC015 FM270800 17010KT
                       5SM -RA BR OVC009 FM271500 VRB03KT 3SM BR
                       OVC005 FM272000 35005KT P6SM OVC015=
202301262321 TAF KBLI 262321Z 2700/2724 17008KT P6SM SCT005 OVC020 FM270600
                       16008KT 5SM -RA BR OVC015 FM271500 VRB03KT
                       3SM BR OVC010 FM272000 35005KT P6SM OVC015=
202301262106 KBLI 262106Z 2621/2718 17008KT P6SM OVC015
                      TEMPO 2621/2623 2SM BR OVC004 FM270600 16008KT
                       5SM -RA BR OVC015 FM271500 35004KT 3SM BR
                       OVC010=
202301261723 TAF KBLI 261723Z 2618/2718 20003KT P6SM BKN010 OVC025
                      TEMPO 2618/2620 1SM BR OVC003 FM262100 17005KT
                       P6SM OVC015 FM270600 16008KT 5SM -RA BR
                       OVC015 FM271500 35004KT 3SM BR OVC010=
202301261627 KBLI 261627Z 2616/2712 00000KT 4SM BR FEW004 BKN008 OVC015
                      TEMPO 2616/2618 2SM BR OVC004 FM261800 20003KT
                       P6SM BKN013 OVC028 FM270300 16006KT P6SM
                       -RA OVC010 FM270600 16008KT 5SM -RA BR OVC006=
202301261450 KBLI 261450Z 2615/2712 00000KT 4SM BR FEW004 BKN008 OVC015 FM261800
                       20003KT P6SM BKN013 OVC028 FM270300 16006KT
                       P6SM -RA OVC010 FM270600 16008KT 5SM -RA
                       BR OVC006=
202301261120 TAF KBLI 261120Z 2612/2712 17003KT P6SM SCT010 OVC025 FM261800
                       20003KT P6SM OVC010 FM270300 16006KT P6SM
                       -RA OVC010 FM270600 16008KT 5SM -RA BR OVC006=
202301260520 TAF KBLI 260520Z 2606/2706 00000KT P6SM SCT025 OVC030 FM260800
                       00000KT 4SM BR OVC010 FM261200 14004KT 4SM
                       BR OVC003 FM261800 20003KT P6SM OVC010=
202301252330 TAF KBLI 252330Z 2600/2624 00000KT P6SM OVC013 FM260300 00000KT
                       P6SM OVC007 FM260800 00000KT 4SM BR OVC003
                       FM261800 18003KT P6SM OVC015=
202301251724 TAF KBLI 251724Z 2518/2618 00000KT 2SM BR OVC002
                      TEMPO 2518/2520 1/2SM FG FM252000 35003KT
                       P6SM OVC012 FM260300 00000KT P6SM OVC007
                       FM260800 00000KT 4SM BR OVC003=
202301251120 TAF KBLI 251120Z 2512/2612 00000KT 4SM BR OVC002 FM251700 00000KT
                       6SM BR OVC005 FM252000 35003KT P6SM OVC013
                       FM260300 00000KT P6SM OVC007 FM260800 00000KT
                       4SM BR OVC003=
202301250520 TAF KBLI 250520Z 2506/2606 18003KT 3SM BR BKN008 OVC015 FM251200
                       02003KT 6SM BR OVC007 FM251400 00000KT 6SM
                       BR OVC007 FM251900 35003KT P6SM OVC020=
202301250014 KBLI 250014Z 2500/2524 17007KT 3SM -RA BR OVC006 FM250400 00000KT
                       6SM BR OVC013 FM251200 02003KT 6SM BR OVC015
                       FM251400 00000KT 6SM BR OVC007 FM251900
                       35003KT P6SM OVC020=
202301242322 TAF KBLI 242322Z 2500/2524 17007KT P6SM OVC013 FM250400 00000KT
                       6SM BR OVC013 FM251200 02003KT 6SM BR OVC015
                       FM251400 00000KT 6SM BR OVC007 FM251900
                       35003KT P6SM OVC020=
202301241722 TAF KBLI 241722Z 2418/2518 16005KT P6SM VCSH OVC025 FM242200 VRB04KT
                       P6SM OVC020 FM250100 00000KT P6SM OVC015
                       FM250600 VRB02KT P6SM OVC015 FM251200 02003KT
                       6SM BR OVC015=
202301241123 TAF KBLI 241123Z 2412/2512 00000KT P6SM BKN035 OVC050 FM241500
                       16003KT P6SM OVC018 FM250100 00000KT P6SM
                       OVC013=
202301240520 TAF KBLI 240520Z 2406/2506 00000KT P6SM BKN030 OVC040 FM241100
                       00000KT 6SM BR OVC025 FM241700 VRB02KT 6SM
                       BR OVC020=
202301232325 TAF KBLI 232325Z 2400/2424 15006KT P6SM OVC025 FM240300 VRB02KT
                       P6SM BKN025 FM240600 17004KT P6SM BKN022
                       OVC035 FM241100 00000KT 6SM BR OVC025 FM241700
                       VRB02KT 6SM BR OVC020=
202301231720 TAF KBLI 231720Z 2318/2418 00000KT P6SM BKN040 OVC050 FM232100
                       VRB03KT P6SM SCT025 OVC035 FM240000 18006KT
                       P6SM SCT025 BKN040 FM240600 17004KT P6SM
                       BKN022 OVC035 FM241100 00000KT 6SM BR OVC025=
202301231359 KBLI 231359Z 2314/2412 16004KT P6SM VCSH SCT020 BKN040 OVC080
                      TEMPO 2314/2317 BKN020 OVC035 FM231800 18006KT
                       P6SM SCT020 OVC030 FM240000 18006KT P6SM
                       SCT025 BKN040 FM240600 17004KT P6SM BKN022
                       OVC035=
202301231120 TAF KBLI 231120Z 2312/2412 16004KT P6SM VCSH SCT020 BKN040 OVC080
                       TEMPO 2312/2315 BKN020 OVC035 FM231500 15004KT
                       P6SM -RA OVC020 FM232000 18006KT P6SM SCT015
                       OVC025 FM240000 18006KT P6SM SCT025 BKN040
                       FM240600 17004KT P6SM BKN022 OVC035=
202301230541 TAF KBLI 230541Z 2306/2406 00000KT P6SM BKN100 FM231000 13004KT
                       P6SM BKN040 OVC080 FM231300 15004KT P6SM
                       OVC015 FM232000 18006KT P6SM SCT015 OVC025
                       FM240000 18006KT P6SM SCT025 BKN040=
202301222331 TAF KBLI 222331Z 2300/2324 VRB03KT P6SM OVC027 FM230100 VRB03KT
                       P6SM BKN040 FM230900 14004KT P6SM OVC025
                       FM231400 15004KT P6SM OVC015 FM232000 19005KT
                       P6SM OVC015=
202301221739 TAF KBLI 221739Z 2218/2318 18006KT P6SM VCSH OVC025 FM222000 VRB03KT
                       P6SM OVC027 FM230100 VRB03KT P6SM BKN040
                       FM230900 14004KT P6SM OVC025 FM231400 15004KT
                       P6SM OVC015=
202301221127 TAF KBLI 221127Z 2212/2312 VRB03KT P6SM VCSH OVC022 FM222000 VRB03KT
                       P6SM OVC027 FM230100 VRB03KT P6SM BKN040
                       FM230900 14004KT P6SM OVC025=
202301220540 TAF KBLI 220540Z 2206/2306 33006KT P6SM SCT006 OVC012
                      TEMPO 2206/2210 3SM -SHRA BKN006 OVC012 FM221200
                       VRB03KT P6SM OVC015 FM222000 VRB03KT P6SM
                       OVC022=
202301212331 TAF KBLI 212331Z 2200/2224 14014KT P6SM -RA BKN015 OVC025 FM220200
                       31008KT P6SM VCSH SCT015 BKN025 OVC040 FM221100
                       34003KT 6SM BR OVC015 FM222300 30003KT P6SM
                       OVC050=
202301211735 TAF KBLI 211735Z 2118/2218 14008KT P6SM -RA OVC035 FM212100 14014G20KT
                       P6SM -RA BKN015 OVC025 FM220200 31008KT
                       P6SM VCSH SCT015 BKN025 OVC040=
202301211130 TAF KBLI 211130Z 2112/2212 VRB03KT P6SM BKN040 FM211800 14008KT
                       P6SM -RA OVC035 FM212100 14014G20KT P6SM
                       -RA BKN015 OVC025 FM220200 31008KT P6SM
                       VCSH SCT015 BKN025 OVC040=
202301210749 KBLI 210749Z 2108/2206 VRB03KT P6SM BCFG SCT002 BKN060
                      TEMPO 2108/2111 2SM BR BKN002 FM211700 16008KT
                       P6SM -RA OVC045 FM212100 16014G20KT P6SM
                       -RA BKN015 OVC025 FM220100 30008KT P6SM
                       SCT015 BKN025 OVC040=
202301210536 TAF KBLI 210536Z 2106/2206 00000KT P6SM SCT200 FM210900 VRB03KT
                       P6SM OVC050 FM211700 16008KT P6SM -RA OVC045
                       FM212100 16014G20KT P6SM -RA BKN015 OVC025
                       FM220100 30008KT P6SM SCT015 BKN025 OVC040=
202301202320 TAF KBLI 202320Z 2100/2124 03003KT P6SM FEW050 SCT250 FM210600
                       00000KT P6SM FEW250 FM211100 15004KT P6SM
                       BKN050 FM211700 15009KT 6SM -RA OVC025=
202301201720 TAF KBLI 201720Z 2018/2118 00000KT P6SM SCT250 FM202100 00000KT
                       P6SM BKN250 FM210000 VRB02KT P6SM BKN050
                       FM210600 00000KT P6SM BKN070=
202301201318 KBLI 201318Z 2013/2112 00000KT P6SM OVC040
                      TEMPO 2013/2017 2SM BR FM201900 00000KT P6SM
                       BKN040 FM210600 00000KT P6SM OVC050=
202301201130 TAF KBLI 201130Z 2012/2112 00000KT P6SM OVC040 FM201900 00000KT
                       P6SM BKN040 FM210600 00000KT P6SM OVC050=
202301200530 TAF KBLI 200530Z 2006/2106 00000KT P6SM SCT025 BKN040 FM201100
                       00000KT P6SM OVC025 FM201900 00000KT P6SM
                       BKN035 FM202100 00000KT P6SM SCT200=
202301192320 TAF KBLI 192320Z 2000/2024 VRB03KT P6SM SCT050 FM200400 00000KT
                       P6SM BKN035 FM200600 00000KT P6SM OVC035
                       FM201600 VRB02KT P6SM OVC025=
202301191720 TAF KBLI 191720Z 1918/2018 00000KT P6SM OVC020 FM192100 VRB03KT
                       P6SM SCT025 BKN060 FM200400 00000KT P6SM
                       BKN035 FM200600 00000KT P6SM OVC035 FM201400
                       VRB02KT P6SM OVC025=
202301191302 KBLI 191302Z 1913/2012 16003KT P6SM SCT050
                      TEMPO 1913/1916 2SM BR SCT020 FM191600 00000KT
                       P6SM OVC020 FM192100 VRB03KT P6SM SCT025
                       BKN060 FM200400 00000KT P6SM BKN025 FM200600
                       00000KT P6SM OVC025=
202301191213 KBLI 191213Z 1912/2012 16003KT 1 1/2SM BR FEW004 SCT050 FM191600
                       00000KT P6SM OVC020 FM192100 VRB03KT P6SM
                       SCT025 BKN060 FM200400 00000KT P6SM BKN025
                       FM200600 00000KT P6SM OVC025=
202301191122 TAF KBLI 191122Z 1912/2012 00000KT P6SM OVC050 FM191400 00000KT
                       P6SM OVC020 FM192100 VRB03KT P6SM SCT025
                       BKN060 FM200400 00000KT P6SM BKN025 FM200600
                       00000KT P6SM OVC025=
202301190522 TAF KBLI 190522Z 1906/2006 00000KT P6SM SCT025 BKN060
                      TEMPO 1906/1908 -SHRA BKN025 OVC035=
202301190354 KBLI 190354Z 1904/1924 17005KT P6SM SCT040 BKN060
                      TEMPO 1910/1914 BKN020 OVC040=
202301182332 TAF KBLI 182332Z 1900/1924 15006KT P6SM BKN025 OVC040 FM190300
                       17006KT P6SM OVC030 FM190700 26004KT P6SM
                       BKN035 FM191200 VRB03KT P6SM BKN050 FM192000
                       19003KT P6SM OVC050=
202301181724 TAF KBLI 181724Z 1818/1918 16019G27KT P6SM -RA OVC025 FM182200
                       18008KT P6SM -RA OVC035 FM190000 21005KT
                       P6SM SCT025 BKN040 FM190300 17006KT P6SM
                       OVC050 FM190700 16005KT P6SM BKN035=
202301181424 KBLI 181424Z 1814/1912 16019G30KT P6SM SCT035 BKN045 OVC090 FM181500
                       16012KT P6SM -RA OVC020 FM190000 21005KT
                       P6SM SCT025 BKN040 FM190300 17006KT P6SM
                       OVC050 FM190700 16005KT P6SM OVC025=
202301181133 TAF KBLI 181133Z 1812/1912 15022G33KT P6SM OVC090 FM181500 16012KT
                       P6SM -RA OVC020 FM190000 21005KT P6SM SCT025
                       BKN040 FM190300 17006KT P6SM OVC050 FM190700
                       16005KT P6SM OVC025=
202301180520 TAF KBLI 180520Z 1806/1906 15015G30KT P6SM -RA OVC040
                      TEMPO 1806/1810 -RA OVC025 FM181700 16012KT
                       P6SM -RA OVC020 FM190300 21005KT P6SM SCT025
                       BKN040=
202301172326 TAF KBLI 172326Z 1800/1824 15011G17KT P6SM -RA BKN025 OVC030 FM180400
                       14010G18KT P6SM -RA OVC030 FM180900 14014G21KT
                       P6SM OVC025 FM181300 15015G23KT P6SM OVC020=
202301172128 KBLI 172128Z 1721/1818 15011G19KT P6SM OVC025 FM180000 15011G17KT
                       P6SM -RA OVC025 FM180400 14010G18KT P6SM
                       -RA OVC030 FM180900 14014G21KT P6SM OVC020=
202301171730 TAF KBLI 171730Z 1718/1818 16007KT P6SM SCT025 BKN040 FM172100
                       15011KT P6SM OVC035 FM180000 15011G17KT
                       P6SM -RA OVC050 FM180400 14010G18KT P6SM
                       -RA OVC030 FM180900 14014G21KT P6SM OVC020=
202301171140 TAF KBLI 171140Z 1712/1812 16009KT P6SM BKN070 OVC090 FM171500
                       16005KT P6SM OVC020 FM172100 15011KT P6SM
                       OVC035 FM180000 15011G17KT P6SM OVC030 FM180400
                       14010G18KT P6SM -RA OVC020 FM180900 14014G21KT
                       P6SM OVC015=
202301170526 TAF KBLI 170526Z 1706/1806 16006KT P6SM SCT050 BKN150 FM170800
                       16006KT P6SM OVC060 FM171200 15005KT P6SM
                       OVC020 FM172100 15012KT P6SM OVC035 FM180400
                       13010KT P6SM -RA OVC020=
202301162320 TAF KBLI 162320Z 1700/1724 18007KT P6SM SCT035 BKN050 FM170300
                       15005KT P6SM SCT025 OVC035 FM170700 15005KT
                       P6SM OVC030 FM171200 16005KT P6SM OVC020
                       FM171600 16004KT P6SM OVC015=
202301161858 KBLI 161858Z 1619/1718 15008KT P6SM SCT035 FM162200 14004KT P6SM
                       SCT025 OVC035 FM170700 15005KT P6SM OVC020
                       FM171200 16005KT P6SM OVC015=
202301161729 TAF KBLI 161729Z 1618/1718 15012G18KT P6SM OVC030 FM162200 14004KT
                       P6SM SCT025 OVC035 FM170700 15005KT P6SM
                       OVC020 FM171200 16005KT P6SM OVC015=
202301161137 TAF KBLI 161137Z 1612/1712 16012G25KT P6SM BKN020 OVC050 FM161500
                       15008G18KT P6SM SCT015 OVC025 FM162200 14004KT
                       P6SM SCT025 OVC035 FM170700 15005KT P6SM
                       OVC015=
202301160520 TAF KBLI 160520Z 1606/1706 13012G22KT P6SM -RA BKN015 OVC025 FM161500
                       15008KT P6SM SCT015 OVC025 FM162200 14004KT
                       P6SM SCT025 OVC035=
202301152329 TAF KBLI 152329Z 1600/1624 VRB05KT 6SM -RA SCT045 OVC060 FM160400
                       15008KT 4SM -RA OVC030 FM160700 16012G20KT
                       4SM -RA OVC022 FM161700 16012KT 6SM -SHRA
                       OVC015 FM162200 17008KT P6SM VCSH OVC028=
202301151740 TAF KBLI 151740Z 1518/1618 05005KT P6SM OVC090 FM152300 10006KT
                       P6SM -RA SCT045 OVC060 FM160300 15008KT
                       6SM -RA BKN030 OVC040 FM160700 15012KT 4SM
                       -RA OVC018 FM161700 16012KT 6SM -SHRA OVC015=
202301151145 TAF KBLI 151145Z 1512/1612 05006KT P6SM OVC060 FM152100 04005KT
                       P6SM BKN070 FM160000 12005KT P6SM SCT050
                       OVC070 FM160300 15006KT P6SM -RA BKN025
                       OVC040 FM160700 15010KT P6SM -RA OVC018=
202301150524 TAF KBLI 150524Z 1506/1606 03005KT P6SM FEW060 BKN100 OVC150
                      TEMPO 1507/1511 -RA OVC060 FM160000 11005KT
                       P6SM BKN050 OVC090 FM160300 14006KT P6SM
                       -RA BKN025 OVC040=
202301142351 TAF KBLI 142351Z 1500/1524 04009KT P6SM SKC FM150600 04007KT P6SM
                       OVC050 FM152200 03006KT P6SM -RA OVC040=
202301141801 TAF KBLI 141801Z 1418/1518 02005KT P6SM BKN035 FM142000 04007KT
                       P6SM OVC050 FM142200 03006KT P6SM BKN100=
202301141439 KBLI 141439Z 1415/1512 16005KT P6SM BKN035
                      TEMPO 1415/1416 BKN030 FM141900 12006KT P6SM
                       OVC050 FM142000 03006KT P6SM BKN100=
202301141138 TAF KBLI 141138Z 1412/1512 16012KT P6SM OVC022 FM141900 12006KT
                       P6SM OVC050 FM142000 03006KT P6SM BKN100=
202301140520 TAF KBLI 140520Z 1406/1506 16015KT P6SM SCT025 OVC100 FM141000
                       15010KT P6SM -RA OVC050 FM141500 12006KT
                       P6SM OVC050 FM142000 03006KT P6SM SCT100=
202301132339 TAF KBLI 132339Z 1400/1424 17008KT P6SM -RA SCT025 OVC050 FM141000
                       VRB03KT P6SM SCT050 BKN100 FM142000 03006KT
                       P6SM SCT100=
202301132114 KBLI 132114Z 1321/1418 17008KT P6SM -RA OVC022 FM140200 15008KT
                       P6SM -RA OVC050 FM141000 VRB03KT P6SM SCT050
                       BKN100=
202301131741 TAF KBLI 131741Z 1318/1418 15012G22KT P6SM -RA OVC050 FM140200
                       15008KT P6SM -RA OVC050 FM141000 VRB03KT
                       P6SM SCT050 BKN100=
202301131123 KBLI 131123Z 1311/1412 12010KT P6SM -RA FEW050 OVC070 FM131500
                       13009KT P6SM -RA OVC050 FM131900 15010G20KT
                       P6SM -RA OVC030 FM140000 15008KT 6SM -RA
                       BR OVC025=
202301131121 TAF KBLI 131121Z 1312/1412 12010KT 6SM -RA FEW050 OVC070 FM131500
                       13009KT P6SM -RA OVC050 FM131900 15010G20KT
                       P6SM -RA OVC030 FM140000 15008KT 6SM -RA
                       BR OVC025=
202301130520 TAF KBLI 130520Z 1306/1406 13014G22KT P6SM VCSH SCT040 BKN060 FM130900
                       12010KT 6SM -RA OVC040 FM131800 15010G20KT
                       P6SM -RA OVC030=
202301122320 TAF KBLI 122320Z 1300/1324 04006KT P6SM OVC060 FM130500 13014G22KT
                       P6SM -RA OVC040=
202301121728 TAF KBLI 121728Z 1218/1318 12010KT P6SM OVC040 FM130200 13014G22KT
                       P6SM -RA OVC035=
202301121121 TAF KBLI 121121Z 1212/1312 05008KT P6SM -RA BKN045 OVC070 FM121500
                       12013KT P6SM -RA OVC050 FM121900 08015G27KT
                       6SM -RA BR OVC040 FM130000 11014G23KT 6SM
                       -RA BR OVC030=
202301120520 TAF KBLI 120520Z 1206/1306 05007KT P6SM OVC080 FM120700 08007KT
                       P6SM VCSH OVC050 FM121200 10015KT P6SM -RA
                       OVC025 FM121900 08015G27KT 6SM -RA BR OVC025=
202301112330 TAF KBLI 112330Z 1200/1224 03007KT P6SM OVC050 FM120700 08007KT
                       P6SM VCSH OVC050 FM121500 10015KT P6SM -RA
                       OVC025 FM121900 08015G27KT 6SM -RA BR OVC025=
202301111736 TAF KBLI 111736Z 1118/1218 03007KT P6SM OVC040 FM112200 06008KT
                       P6SM OVC070 FM120000 03007KT P6SM OVC050
                       FM120700 08007KT P6SM OVC050=
202301111120 TAF KBLI 111120Z 1112/1212 00000KT P6SM OVC100 FM111300 06005KT
                       P6SM BKN050 FM112200 06008KT P6SM OVC070
                       FM120000 03007KT P6SM OVC050 FM120700 08007KT
                       P6SM OVC050=
202301110520 TAF KBLI 110520Z 1106/1206 00000KT P6SM SKC FM111300 06005KT P6SM
                       BKN050 FM112200 06008KT P6SM BKN050 FM120000
                       03007KT P6SM OVC100=
202301102327 TAF KBLI 102327Z 1100/1124 03008KT P6SM SCT060 SCT150 FM111300
                       06005KT P6SM BKN050 FM112200 06008KT P6SM
                       BKN050=
202301101720 TAF KBLI 101720Z 1018/1118 05004KT P6SM BKN050 FM101900 03008KT
                       P6SM SCT060 SCT150 FM111300 06005KT P6SM
                       BKN050=
202301101123 TAF KBLI 101123Z 1012/1112 13010KT P6SM VCSH BKN035 OVC060 FM101400
                       11004KT P6SM OVC035 FM101600 05004KT P6SM
                       SCT040 BKN090 FM101900 03008KT P6SM FEW090
                       BKN250 FM110000 36005KT P6SM BKN250=
202301100524 TAF KBLI 100524Z 1006/1106 15012G20KT P6SM -RA SCT030 OVC050
                      TEMPO 1006/1009 4SM RA BR OVC030 FM100900
                       13010KT P6SM -RA OVC025 FM101400 11004KT
                       P6SM OVC030 FM101600 05004KT P6SM SCT040
                       BKN090 FM101900 03008KT P6SM FEW090 BKN250=
202301092346 TAF KBLI 092346Z 1000/1024 15020G30KT P6SM BKN090 FM100200 15012G20KT
                       P6SM VCSH OVC050 FM101200 11008KT P6SM OVC040
                       FM101500 08006KT P6SM OVC025 FM101800 04007KT
                       P6SM SCT120=
202301091745 TAF KBLI 091745Z 0918/1018 03009KT P6SM FEW080 FM092000 10010G20KT
                       P6SM -SHRA OVC050 FM100200 15012G18KT P6SM
                       VCSH OVC050 FM101200 11008KT P6SM OVC040
                       FM101500 08006KT P6SM OVC025=
202301091139 TAF KBLI 091139Z 0912/1012 03009KT P6SM BKN100 FM092100 10010G20KT
                       P6SM -SHRA OVC050 FM100400 13012G18KT P6SM
                       VCSH OVC050=
202301090530 TAF KBLI 090530Z 0906/1006 17010G21KT P6SM -SHRA FEW035 SCT045
                       BKN100 FM091000 14010KT P6SM BKN050 FM091200
                       03009KT P6SM BKN100 FM092100 10010G18KT
                       P6SM -SHRA OVC050 FM100400 15012G18KT P6SM
                       VCSH OVC050=
202301082343 TAF KBLI 082343Z 0900/0924 16018G26KT P6SM -RA OVC025 FM090200
                       16012G20KT P6SM -RA OVC050 FM090900 14010KT
                       P6SM BKN060 FM091200 08005KT P6SM BKN090
                       FM091500 04010KT P6SM BKN130 FM092100 10010G18KT
                       P6SM -RA OVC050=
202301081746 TAF KBLI 081746Z 0818/0918 00000KT P6SM -RA OVC050 FM082000 14009KT
                       P6SM VCSH OVC040 FM082100 15010G18KT P6SM
                       -RA OVC025 FM090200 16012G20KT P6SM -RA
                       OVC050 FM090800 16012KT P6SM OVC025 FM091200
                       08005KT P6SM BKN090 FM091500 04010KT P6SM
                       BKN130=
202301081122 TAF KBLI 081122Z 0812/0912 03008KT P6SM SKC FM081800 06008KT P6SM
                       -RA OVC050 FM082100 07010G20KT P6SM -RA
                       OVC025 FM090200 15012G20KT P6SM -RA OVC050
                       FM090800 16012KT P6SM OVC025=
202301080528 TAF KBLI 080528Z 0806/0906 03005KT P6SM SCT045 BKN070 OVC090 FM080900
                       04003KT P6SM SCT070 FM081800 06008KT P6SM
                       -RA OVC050 FM082100 07010KT P6SM -RA OVC025
                       FM090200 15012KT P6SM -RA OVC050=
202301072342 TAF KBLI 072342Z 0800/0824 08005KT P6SM -RA SCT045 OVC060 FM080500
                       09006KT P6SM BKN060 FM080900 04003KT P6SM
                       OVC050 FM081800 10011KT P6SM -RA OVC030
                       FM082100 13018KT P6SM -RA OVC025=
202301071743 TAF KBLI 071743Z 0718/0818 02004KT P6SM -RA FEW040 OVC070 FM080000
                       08006KT P6SM -RA OVC040 FM080600 06005KT
                       P6SM OVC050 FM081000 04009KT P6SM SCT100=
202301071127 TAF KBLI 071127Z 0712/0812 15010G18KT P6SM VCSH OVC045 FM071700
                       06005KT P6SM -RA OVC025 FM080500 06007KT
                       P6SM OVC035=
202301070530 TAF KBLI 070530Z 0706/0806 14004KT P6SM -RA BKN050 OVC090 FM071000
                       08008KT P6SM BKN030 FM072100 06007KT P6SM
                       -RA OVC025=
202301062329 TAF KBLI 062329Z 0700/0724 05008KT P6SM SCT030 OVC050 FM070300
                       12009KT P6SM -RA OVC050 FM071200 08008KT
                       P6SM VCSH BKN030 FM072100 06007KT P6SM -RA
                       OVC025=
202301061734 TAF KBLI 061734Z 0618/0718 14013G22KT P6SM SCT030 BKN090 FM062000
                       12011KT P6SM SCT030 OVC050 FM070300 12012KT
                       P6SM -RA OVC050 FM071200 10007KT P6SM VCSH
                       BKN035=
202301061130 TAF KBLI 061130Z 0612/0712 17012G21KT P6SM VCSH OVC030 FM061500
                       14010KT P6SM SCT030 BKN050 FM062000 08012KT
                       P6SM SCT030 OVC050 FM070200 12012KT P6SM
                       -RA OVC050=
202301060520 TAF KBLI 060520Z 0606/0706 15020G40KT P6SM VCSH FEW035 FEW070 BKN100
                       FM061000 17009KT P6SM VCSH OVC030 FM061500
                       14010KT P6SM SCT030 BKN050 FM062000 08012KT
                       P6SM SCT030 OVC050 FM070200 12012KT P6SM
                       -RA OVC050=
202301052321 TAF KBLI 052321Z 0600/0624 04011KT P6SM VCSH OVC070 FM060200 14017G27KT
                       P6SM -RA OVC035 FM061000 17009KT P6SM VCSH
                       OVC030 FM061500 14010KT P6SM SCT030 BKN050
                       FM062000 08012KT P6SM SCT030 OVC050=
202301051720 TAF KBLI 051720Z 0518/0618 04011KT P6SM VCSH OVC050 FM052000 08013G23KT
                       P6SM OVC050 FM060000 14017G27KT P6SM -RA
                       OVC035 FM061000 17009KT P6SM VCSH OVC030=
202301051139 TAF KBLI 051139Z 0512/0612 04015KT P6SM VCSH OVC040 FM051500 04011KT
                       P6SM VCSH OVC050 FM051900 05012G21KT P6SM
                       OVC050 FM060000 11012G23KT P6SM -RA OVC080=
202301050539 TAF KBLI 050539Z 0506/0606 04015G20KT P6SM VCSH FEW060 OVC090
                      TEMPO 0509/0512 4SM -RA BR OVC020 FM051200
                       04015G23KT P6SM VCSH OVC040 FM051500 04011KT
                       P6SM VCSH OVC050 FM051900 05012G21KT P6SM
                       OVC050 FM060000 11012G23KT P6SM -RA OVC080=
202301042320 TAF KBLI 042320Z 0500/0524 03013G22KT P6SM SCT040 OVC250 FM050700
                       03008KT P6SM VCSH OVC040 FM051800 05012G21KT
                       P6SM OVC050=
202301041720 TAF KBLI 041720Z 0418/0518 03008KT P6SM SCT040 SCT250 FM042000
                       03013G22KT P6SM SCT040 SCT250 FM050200 03011KT
                       P6SM SCT040 OVC250 FM050700 03008KT P6SM
                       VCSH OVC040 FM051200 02008KT P6SM OVC030=
202301041127 TAF KBLI 041127Z 0412/0512 05005KT P6SM VCSH OVC060 FM041400 03008KT
                       P6SM SCT040 SCT250 FM042000 03010G16KT P6SM
                       SCT040 SCT250 FM050200 03011KT P6SM OVC250=
202301040548 TAF KBLI 040548Z 0406/0506 04008KT P6SM SCT040 FM041100 04006KT
                       P6SM VCSH OVC030 FM041400 03008KT P6SM SCT040
                       SCT250 FM042000 03010G16KT P6SM SCT040 SCT250
                       FM050200 03011KT P6SM OVC250=
202301032320 TAF KBLI 032320Z 0400/0424 08008KT P6SM OVC030 FM041100 04006KT
                       P6SM VCSH OVC030 FM041700 02008KT P6SM SCT040
                       SCT250=
202301031720 TAF KBLI 031720Z 0318/0418 VRB04KT P6SM VCSH OVC022 FM032000 11006KT
                       P6SM VCSH OVC025 FM032300 08008KT P6SM SCT035
                       BKN050 FM041100 04009KT P6SM VCSH BKN030=
202301031127 TAF KBLI 031127Z 0312/0412 VRB04KT P6SM -RA SCT025 OVC040 FM031500
                       05006KT P6SM VCSH OVC022
                      TEMPO 0315/0318 -SHRA FM032000 08006KT P6SM
                       VCSH OVC025 FM032300 11008KT P6SM SCT035
                       BKN050 FM041100 13009KT P6SM VCSH BKN030=
202301030525 TAF KBLI 030525Z 0306/0406 VRB04KT P6SM BKN060 OVC100 FM031100
                       12010KT P6SM OVC060 FM031500 13008KT P6SM
                       VCSH OVC035 FM032100 14008KT P6SM VCSH OVC025=
202301022321 TAF KBLI 022321Z 0300/0324 00000KT P6SM BKN250 FM030400 06006KT
                       P6SM BKN060 OVC100 FM031100 12010KT P6SM
                       OVC060 FM031500 13008KT P6SM OVC025=
202301021724 TAF KBLI 021724Z 0218/0318 09003KT P6SM BKN250 FM022000 04005KT
                       P6SM OVC150 FM030400 06006KT P6SM BKN060
                       OVC100 FM031100 12011KT P6SM OVC060 FM031500
                       13008KT P6SM OVC025=
202301021130 TAF KBLI 021130Z 0212/0312 00000KT 6SM BR SCT002 OVC200
                      TEMPO 0212/0215 2SM BR BKN002 FM021700 05004KT
                       P6SM FEW005 OVC150 FM022000 04005KT P6SM
                       OVC150 FM030400 06006KT P6SM BKN060 OVC100
                       FM031100 12011KT P6SM OVC060=
202301020528 TAF KBLI 020528Z 0206/0306 02004KT 3SM BR FEW003 SCT200
                      TEMPO 0206/0209 1/2SM FG VV001 FM020900 04003KT
                       2SM BR OVC003 FM021700 05005KT P6SM FEW005
                       SCT200 FM022000 04007KT P6SM BKN200 FM030400
                       06007KT P6SM BKN100 BKN200=
202301020433 KBLI 020433Z 0205/0224 02004KT 3SM BR FEW003 SCT200
                      TEMPO 0205/0209 1/2SM FG VV001 FM020900 04003KT
                       2SM BR OVC003 FM021700 05005KT P6SM FEW005
                       SCT200 FM022000 04007KT P6SM BKN200=
202301012338 TAF KBLI 012338Z 0200/0224 06004KT P6SM SCT025 BKN050 FM020800
                       08008KT P6SM OVC022 FM021500 05005KT P6SM
                       SCT250=
202301011739 TAF KBLI 011739Z 0118/0218 19004KT P6SM OVC010 FM011900 VRB03KT
                       P6SM BKN018 BKN040 FM012300 06004KT P6SM
                       SCT025 BKN050 FM021000 08008KT P6SM OVC022=
202301011425 KBLI 011425Z 0114/0212 19004KT P6SM VCSH OVC010
                      TEMPO 0114/0116 5SM -SHRA BR FM011900 VRB03KT
                       P6SM BKN018 BKN040 FM012300 06004KT P6SM
                       SCT025 BKN050 FM021000 08008KT P6SM OVC022=
202301011128 TAF KBLI 011128Z 0112/0212 19004KT P6SM VCSH OVC012
                      TEMPO 0112/0113 5SM -SHRA BR FM011400 VRB03KT
                       P6SM OVC010 FM011900 VRB03KT P6SM BKN018
                       BKN040 FM012300 06004KT P6SM SCT025 BKN050
                       FM021000 08008KT P6SM OVC022=
202301010534 TAF KBLI 010534Z 0106/0206 18003KT P6SM OVC035 FM011000 VRB03KT
                       P6SM OVC025 FM011400 VRB03KT P6SM OVC015
                       FM011900 VRB03KT P6SM BKN022 BKN040 FM012300
                       04004KT P6SM SCT025 BKN050=