##########################################################
# Query made at 02/16/2025 23:33:23 UTC
# Time interval: from 03/01/2023 00:00  to 03/31/2023 23:59  UTC
##########################################################

##########################################################
# KBLI, Bellingham, Bellingham International Airport (United States)
# WMO index: -----. WIGOS ID: Unknown
# Latitude 48-47-58N. Longitude 122-32-21W. Altitude 48 m.
##########################################################

###################################
#  METAR/SPECI from KBLI
###################################
202303312353 METAR KBLI 312353Z 16014G25KT 10SM -RA SCT024 BKN029 BKN038 08/06 A2984 RMK AO2 PK WND 15030/2337 RAB23 SLP112 P0000 60001 T00830056 10083 20078 58008=
202303312253 METAR KBLI 312253Z 16014G23KT 10SM BKN025 BKN035 OVC060 08/06 A2985 RMK AO2 PK WND 16026/2215 SLP115 T00830056=
202303312153 METAR KBLI 312153Z 16016G23KT 10SM BKN021 BKN060 OVC075 08/05 A2986 RMK AO2 PK WND 15026/2134 RAE31 SLP120 P0000 T00830050=
202303312148 SPECI KBLI 312148Z 16013G21KT 10SM BKN021 BKN060 OVC075 08/06 A2986 RMK AO2 PK WND 15026/2134 RAE31 P0000=
202303312053 METAR KBLI 312053Z 17012G24KT 8SM -RA SCT028 BKN032 OVC045 08/06 A2987 RMK AO2 SLP124 P0001 60001 T00830061 56005=
202303311953 METAR KBLI 311953Z 16013G19KT 6SM -RA BR SCT031 BKN049 OVC055 08/06 A2988 RMK AO2 RAB19 SLP127 P0000 T00780061=
202303311853 METAR KBLI 311853Z 16015G26KT 10SM BKN021 BKN070 OVC090 08/06 A2989 RMK AO2 PK WND 16026/1845 SLP128 T00830056=
202303311753 METAR KBLI 311753Z 16010G20KT 10SM BKN021 OVC026 08/06 A2988 RMK AO2 SLP128 60003 T00780056 10078 20056 58002=
202303311653 METAR KBLI 311653Z 15011KT 8SM BKN020 OVC028 07/06 A2989 RMK AO2 RAE09B30E53 SLP128 P0000 T00670056=
202303311553 METAR KBLI 311553Z 17007KT 4SM -RA BR OVC019 06/06 A2989 RMK AO2 SLP129 P0001 T00610056=
202303311453 METAR KBLI 311453Z 12006KT 4SM -RA BR BKN020 OVC027 06/06 A2989 RMK AO2 SLP129 P0002 60002 T00560056 53001=
202303311401 SPECI KBLI 311401Z 16010KT 10SM -RA BKN023 OVC075 07/04 A2988 RMK AO2 P0000 T00670044=
202303311353 METAR KBLI 311353Z 18008KT 10SM -RA FEW023 OVC075 07/04 A2988 RMK AO2 RAB52 SLP127 P0000 T00670039=
202303311253 METAR KBLI 311253Z AUTO 16009KT 10SM FEW026 BKN032 OVC039 07/04 A2989 RMK AO2 SLP129 T00720039=
202303311153 METAR KBLI 311153Z AUTO 18008KT 10SM SCT024 OVC032 07/04 A2989 RMK AO2 RAE1055 SLP128 P0000 60003 70003 T00720044 10089 20061 57003=
202303311141 SPECI KBLI 311141Z AUTO 18008G16KT 10SM FEW024 OVC032 07/04 A2989 RMK AO2 RAE1055 P0000 T00720039=
202303311053 METAR KBLI 311053Z AUTO 18009G16KT 10SM -RA OVC022 07/05 A2989 RMK AO2 RAB48 SLP130 P0000 T00720050=
202303310953 METAR KBLI 310953Z AUTO 17009G16KT 10SM OVC029 07/05 A2989 RMK AO2 SLP131 T00720050=
202303310935 SPECI KBLI 310935Z AUTO 19008KT 10SM OVC029 07/05 A2989 RMK AO2 T00720050=
202303310921 SPECI KBLI 310921Z AUTO 18005KT 10SM OVC030 07/05 A2990 RMK AO2 T00670050=
202303310853 METAR KBLI 310853Z AUTO 19004KT 10SM FEW021 OVC028 07/06 A2990 RMK AO2 RAE46 SLP132 P0003 60003 T00670061 51008=
202303310836 SPECI KBLI 310836Z AUTO VRB03KT 4SM -RA BR SCT021 OVC028 06/06 A2990 RMK AO2 P0003 T00610056=
202303310826 SPECI KBLI 310826Z AUTO VRB05KT 2 1/2SM RA BR BKN026 OVC030 07/06 A2990 RMK AO2 P0002 T00670056=
202303310753 METAR KBLI 310753Z AUTO 19005KT 10SM -RA OVC033 08/05 A2989 RMK AO2 RAB10 SLP130 P0000 T00780050 401110022=
202303310653 METAR KBLI 310653Z AUTO 19003KT 10SM OVC040 08/02 A2988 RMK AO2 SLP127 T00830022=
202303310553 METAR KBLI 310553Z AUTO VRB06KT 10SM OVC044 09/01 A2987 RMK AO2 SLP124 T00890011 10111 20083 51014=
202303310453 METAR KBLI 310453Z 19003KT 10SM OVC044 09/01 A2987 RMK AO2 SLP122 T00890011=
202303310353 METAR KBLI 310353Z 16004KT 10SM SCT045 BKN065 09/01 A2985 RMK AO2 SLP116 T00940011=
202303310253 METAR KBLI 310253Z 18006KT 10SM BKN060 08/01 A2983 RMK AO2 SLP110 T00830011 53004=
202303310153 METAR KBLI 310153Z 18006G16KT 10SM SCT060 09/01 A2983 RMK AO2 SLP108 T00940011=
202303310053 METAR KBLI 310053Z 19007KT 10SM CLR 11/01 A2982 RMK AO2 SLP106 T01060011=
202303302353 METAR KBLI 302353Z 18009G19KT 10SM CLR 11/01 A2982 RMK AO2 SLP106 T01060011 10111 20089 53001=
202303302253 METAR KBLI 302253Z 17010G20KT 10SM CLR 11/01 A2982 RMK AO2 SLP105 T01060011=
202303302153 METAR KBLI 302153Z 17013G22KT 10SM CLR 11/02 A2982 RMK AO2 SLP105 T01060017=
202303302053 METAR KBLI 302053Z 18011G21KT 10SM CLR 11/02 A2982 RMK AO2 SLP105 T01060017 51007=
202303301953 METAR KBLI 301953Z 20009G21KT 170V230 10SM FEW030 09/01 A2981 RMK AO2 SLP104 T00940011=
202303301853 METAR KBLI 301853Z 19009G19KT 10SM SCT026 09/02 A2981 RMK AO2 SLP103 T00940017=
202303301753 METAR KBLI 301753Z 17009G18KT 10SM CLR 09/02 A2980 RMK AO2 SLP098 T00940017 10094 20072 53005=
202303301653 METAR KBLI 301653Z 18010G15KT 10SM CLR 09/02 A2979 RMK AO2 SLP096 T00890017=
202303301553 METAR KBLI 301553Z 18009KT 10SM CLR 08/02 A2978 RMK AO2 SLP093 T00830017=
202303301453 METAR KBLI 301453Z 18009KT 10SM CLR 08/02 A2978 RMK AO2 SLP092 T00780017 53008=
202303301353 METAR KBLI 301353Z 17008G16KT 10SM CLR 07/02 A2976 RMK AO2 SLP086 T00720017=
202303301253 METAR KBLI 301253Z AUTO 18012G20KT 10SM CLR 08/02 A2976 RMK AO2 SLP085 T00780017=
202303301153 METAR KBLI 301153Z AUTO 17007KT 10SM FEW095 08/02 A2976 RMK AO2 SLP083 T00780017 10100 20022 56001=
202303301053 METAR KBLI 301053Z AUTO 17005KT 10SM CLR 06/M01 A2976 RMK AO2 SLP083 T00611011=
202303300953 METAR KBLI 300953Z AUTO 16003KT 10SM CLR 04/00 A2976 RMK AO2 SLP084 T00390000=
202303300853 METAR KBLI 300853Z AUTO 18003KT 10SM CLR 04/M01 A2976 RMK AO2 SLP084 T00441006 53002=
202303300753 METAR KBLI 300753Z AUTO 16004KT 10SM CLR 06/M02 A2976 RMK AO2 SLP083 T00561022 401670056=
202303300653 METAR KBLI 300653Z AUTO 17004KT 10SM CLR 08/M02 A2975 RMK AO2 SLP083 T00781022=
202303300553 METAR KBLI 300553Z AUTO 16005KT 10SM CLR 08/M02 A2975 RMK AO2 SLP083 T00831022 10144 20078 50003=
202303300453 METAR KBLI 300453Z 17004KT 10SM CLR 09/01 A2976 RMK AO2 SLP085 T00890006=
202303300353 METAR KBLI 300353Z 17004KT 10SM CLR 08/01 A2976 RMK AO2 SLP083 T00830006=
202303300253 METAR KBLI 300253Z 22003KT 10SM CLR 10/01 A2975 RMK AO2 SLP080 T01000006 56008=
202303300153 METAR KBLI 300153Z 16003KT 10SM CLR 13/M06 A2975 RMK AO2 SLP080 T01331061=
202303300053 METAR KBLI 300053Z 27004KT 10SM CLR 14/M03 A2976 RMK AO2 SLP084 T01391028=
202303292353 METAR KBLI 292353Z 26005KT 10SM CLR 14/M02 A2977 RMK AO2 SLP088 T01441017 10167 20139 58011=
202303292253 METAR KBLI 292253Z AUTO 28008KT 10SM CLR 15/M04 A2978 RMK AO2 SLP093 T01501044=
202303292153 METAR KBLI 292153Z 28007KT 10SM CLR 15/M01 A2979 RMK AO2 SLP095 T01501011=
202303292053 METAR KBLI 292053Z 30009KT 10SM CLR 15/M02 A2980 RMK AO2 SLP099 T01501017 56007=
202303291953 METAR KBLI 291953Z 36005KT 10SM CLR 16/M04 A2981 RMK AO2 SLP101 T01611039=
202303291853 METAR KBLI 291853Z 01009KT 10SM CLR 15/M04 A2982 RMK AO2 SLP105 T01501044=
202303291753 METAR KBLI 291753Z 03010G20KT 10SM CLR 14/M03 A2983 RMK AO2 SLP108 T01391033 10139 20072 58003=
202303291653 METAR KBLI 291653Z 01007KT 10SM CLR 13/M03 A2984 RMK AO2 SLP112 T01281028=
202303291553 METAR KBLI 291553Z 01009KT 10SM CLR 11/M04 A2983 RMK AO2 SLP109 T01111039=
202303291453 METAR KBLI 291453Z 36010G17KT 10SM CLR 09/M06 A2984 RMK AO2 SLP110 T00941056 51007=
202303291353 METAR KBLI 291353Z 36008KT 10SM CLR 08/M05 A2983 RMK AO2 SLP107 T00781050=
202303291253 METAR KBLI 291253Z AUTO 36008KT 10SM CLR 08/M04 A2983 RMK AO2 SLP107 T00831044=
202303291153 METAR KBLI 291153Z AUTO 02007KT 10SM CLR 07/M04 A2981 RMK AO2 SLP103 T00721039 10089 20033 56005=
202303291053 METAR KBLI 291053Z AUTO 03009KT 10SM CLR 08/M04 A2982 RMK AO2 SLP103 T00781039=
202303290953 METAR KBLI 290953Z AUTO 02007KT 10SM CLR 08/M04 A2982 RMK AO2 SLP104 T00831039=
202303290853 METAR KBLI 290853Z AUTO 03007KT 10SM CLR 08/M03 A2983 RMK AO2 SLP108 T00831033 58007=
202303290753 METAR KBLI 290753Z AUTO 03007KT 10SM CLR 08/M02 A2984 RMK AO2 SLP111 T00781022 401780017=
202303290653 METAR KBLI 290653Z AUTO 35003KT 10SM CLR 06/00 A2985 RMK AO2 SLP115 T00610000=
202303290553 METAR KBLI 290553Z AUTO 00000KT 10SM CLR 05/02 A2985 RMK AO2 SLP117 T00500017 10178 20044 51014=
202303290453 METAR KBLI 290453Z 00000KT 10SM CLR 07/02 A2985 RMK AO2 SLP116 T00670017=
202303290353 METAR KBLI 290353Z 17004KT 10SM CLR 08/02 A2983 RMK AO2 SLP109 T00830017=
202303290253 METAR KBLI 290253Z 19005KT 10SM CLR 13/00 A2981 RMK AO2 SLP102 T01280000 53013=
202303290153 METAR KBLI 290153Z 05010KT 10SM CLR 16/M06 A2979 RMK AO2 SLP095 T01561056=
202303290053 METAR KBLI 290053Z 04008G20KT 350V060 10SM CLR 17/M04 A2978 RMK AO2 SLP092 T01721044=
202303282353 METAR KBLI 282353Z 03013G21KT 10SM CLR 18/M04 A2977 RMK AO2 PK WND 01027/2259 SLP089 T01781039 10178 20128 56013=
202303282253 METAR KBLI 282253Z 04015G27KT 10SM CLR 17/M03 A2978 RMK AO2 PK WND 03028/2211 SLP089 T01721033=
202303282153 METAR KBLI 282153Z 05020G29KT 10SM CLR 17/M03 A2979 RMK AO2 PK WND 02031/2113 SLP096 T01671028=
202303282053 METAR KBLI 282053Z 03021G33KT 10SM CLR 16/M02 A2981 RMK AO2 PK WND 04033/2053 SLP103 T01611022 58020=
202303281953 METAR KBLI 281953Z 05019G30KT 10SM CLR 15/M03 A2983 RMK AO2 PK WND 04033/1920 SLP111 T01501028=
202303281853 METAR KBLI 281853Z 03018G32KT 10SM CLR 14/M02 A2986 RMK AO2 PK WND 04032/1830 SLP119 T01391022=
202303281753 METAR KBLI 281753Z 05018G31KT 10SM CLR 13/M03 A2987 RMK AO2 PK WND 04036/1656 SLP123 T01281028 10128 20050 56013=
202303281653 METAR KBLI 281653Z 04018G34KT 10SM CLR 12/M03 A2988 RMK AO2 PK WND 05034/1649 SLP125 T01171028=
202303281553 METAR KBLI 281553Z 04015G23KT 10SM CLR 11/M02 A2990 RMK AO2 SLP132 T01061022=
202303281453 METAR KBLI 281453Z 03010KT 10SM CLR 08/M03 A2991 RMK AO2 SLP135 T00831028 55009=
202303281353 METAR KBLI 281353Z 03010G18KT 10SM CLR 07/M03 A2990 RMK AO2 SLP133 T00671028=
202303281253 METAR KBLI 281253Z AUTO 03012G19KT 10SM CLR 07/M04 A2991 RMK AO2 SLP136 T00721039=
202303281153 METAR KBLI 281153Z AUTO 03008KT 10SM CLR 05/M03 A2993 RMK AO2 SLP144 T00501028 10056 20017 57017=
202303281053 METAR KBLI 281053Z AUTO 03010KT 10SM CLR 05/M02 A2995 RMK AO2 SLP151 T00501022=
202303280953 METAR KBLI 280953Z AUTO 02008KT 10SM CLR 04/M02 A2997 RMK AO2 SLP156 T00391022=
202303280853 METAR KBLI 280853Z AUTO 02007KT 10SM CLR 03/M03 A2998 RMK AO2 SLP162 T00281028 58016=
202303280753 METAR KBLI 280753Z AUTO 01006KT 10SM CLR 02/M02 A3001 RMK AO2 SLP169 T00221017 401501011=
202303280653 METAR KBLI 280653Z AUTO 03004KT 10SM CLR 02/00 A3002 RMK AO2 SLP174 T00220000=
202303280553 METAR KBLI 280553Z AUTO 00000KT 10SM CLR 02/02 A3003 RMK AO2 SLP179 T00220017 10150 20022 58009=
202303280453 METAR KBLI 280453Z 00000KT 10SM CLR 04/04 A3004 RMK AO2 SLP181 T00390039=
202303280353 METAR KBLI 280353Z 00000KT 10SM CLR 04/03 A3005 RMK AO2 SLP186 T00440033=
202303280253 METAR KBLI 280253Z 00000KT 10SM CLR 07/04 A3006 RMK AO2 SLP188 T00720044 56015=
202303280153 METAR KBLI 280153Z 00000KT 10SM CLR 12/M04 A3007 RMK AO2 SLP192 T01171044=
202303280053 METAR KBLI 280053Z 05007KT 10SM CLR 13/M03 A3008 RMK AO2 SLP195 T01331028=
202303272353 METAR KBLI 272353Z 02007KT 340V050 10SM BKN100 15/M02 A3010 RMK AO2 SLP202 T01501017 10150 20078 58033=
202303272253 METAR KBLI 272253Z 01007KT 340V040 10SM CLR 14/M01 A3014 RMK AO2 SLP214 T01391011=
202303272153 METAR KBLI 272153Z 03010KT 10SM CLR 14/00 A3017 RMK AO2 SLP225 T01390000=
202303272053 METAR KBLI 272053Z 36011KT 10SM CLR 13/M01 A3020 RMK AO2 SLP235 T01281006 58022=
202303271953 METAR KBLI 271953Z 04008KT 360V070 10SM CLR 11/01 A3023 RMK AO2 SLP244 T01110006=
202303271853 METAR KBLI 271853Z 06006KT 10SM CLR 09/01 A3025 RMK AO2 SLP251 T00940011=
202303271753 METAR KBLI 271753Z 05008KT 10SM CLR 08/01 A3026 RMK AO2 SLP258 T00780006 10078 21011 58012=
202303271653 METAR KBLI 271653Z 03008KT 10SM CLR 06/01 A3028 RMK AO2 SLP263 T00560011=
202303271553 METAR KBLI 271553Z 03007KT 10SM CLR 03/01 A3029 RMK AO2 SLP266 T00330006=
202303271453 METAR KBLI 271453Z 01004KT 10SM CLR 01/00 A3030 RMK AO2 SLP269 T00060000 56008=
202303271353 METAR KBLI 271353Z 00000KT 10SM CLR M01/M01 A3031 RMK AO2 SLP272 T10061006=
202303271253 METAR KBLI 271253Z AUTO 01003KT 10SM CLR M01/M01 A3031 RMK AO2 SLP275 T10111011=
202303271153 METAR KBLI 271153Z AUTO 00000KT 10SM FEW040 00/00 A3032 RMK AO2 SLP278 T00000000 10050 21006 53000=
202303271053 METAR KBLI 271053Z AUTO 00000KT 10SM BKN030 BKN037 01/01 A3032 RMK AO2 SLP277 T00060006=
202303270953 METAR KBLI 270953Z AUTO 00000KT 10SM FEW070 01/01 A3032 RMK AO2 SLP277 T00060006=
202303270853 METAR KBLI 270853Z AUTO 00000KT 10SM OVC070 02/02 A3032 RMK AO2 SLP277 T00170017 51010=
202303270753 METAR KBLI 270753Z AUTO 00000KT 10SM FEW065 03/02 A3032 RMK AO2 SLP276 T00330017 401061006=
202303270653 METAR KBLI 270653Z AUTO 00000KT 10SM CLR 02/01 A3031 RMK AO2 SLP273 T00220011=
202303270553 METAR KBLI 270553Z AUTO 00000KT 10SM CLR 02/02 A3029 RMK AO2 SLP267 60000 T00220017 10106 20022 51006=
202303270453 METAR KBLI 270453Z 00000KT 10SM CLR 04/02 A3029 RMK AO2 SLP266 T00390017=
202303270353 METAR KBLI 270353Z 00000KT 10SM BKN070 04/02 A3028 RMK AO2 SLP263 T00440022=
202303270253 METAR KBLI 270253Z 00000KT 10SM SCT040 BKN075 07/01 A3027 RMK AO2 SLP261 60000 T00720011 55001=
202303270153 METAR KBLI 270153Z 02004KT 10SM SCT045 BKN060 09/02 A3027 RMK AO2 SLP260 T00890017=
202303270053 METAR KBLI 270053Z 02004KT 10SM SCT040 BKN060 08/02 A3027 RMK AO2 RAB37E53 SLP261 P0000 T00830022=
202303262353 METAR KBLI 262353Z 07005KT 10SM SCT035 BKN060 09/01 A3028 RMK AO2 SLP262 T00940011 10106 20067 56006=
202303262253 METAR KBLI 262253Z 00000KT 10SM OVC065 09/02 A3029 RMK AO2 SLP265 T00940017=
202303262153 METAR KBLI 262153Z 20003KT 10SM OVC065 08/02 A3029 RMK AO2 SLP265 T00830017=
202303262053 METAR KBLI 262053Z 20004KT 10SM SCT035 BKN050 07/02 A3030 RMK AO2 SLP268 T00720022 58003=
202303261953 METAR KBLI 261953Z VRB05KT 10SM FEW036 OVC060 07/02 A3030 RMK AO2 SLP268 T00720022=
202303261853 METAR KBLI 261853Z VRB05KT 10SM CLR 08/02 A3031 RMK AO2 SLP271 T00780022=
202303261753 METAR KBLI 261753Z 20007KT 170V230 10SM FEW026 OVC070 07/02 A3031 RMK AO2 SLP271 I6001 T00720017 10078 20000 53005=
202303261653 METAR KBLI 261653Z 16004KT 10SM OVC065 06/02 A3030 RMK AO2 SLP269 T00610022=
202303261553 METAR KBLI 261553Z 00000KT 10SM OVC065 05/03 A3029 RMK AO2 SLP267 T00500033=
202303261521 SPECI KBLI 261521Z 00000KT 10SM SCT030 OVC065 03/03 A3029 RMK AO2 T00330033=
202303261453 METAR KBLI 261453Z 00000KT 10SM OVC024 02/02 A3029 RMK AO2 SLP266 I3001 T00220022 53006=
202303261353 METAR KBLI 261353Z 00000KT 10SM BKN022 OVC029 02/02 A3028 RMK AO2 SLP263 T00170017=
202303261336 SPECI KBLI 261336Z AUTO 00000KT 10SM BKN024 BKN029 OVC065 01/01 A3028 RMK AO2 T00110011=
202303261253 METAR KBLI 261253Z AUTO 00000KT 10SM BKN049 OVC070 01/01 A3028 RMK AO2 SLP262 I1001 T00110011=
202303261153 METAR KBLI 261153Z AUTO 00000KT 9SM OVC070 00/00 A3027 RMK AO2 SLP260 I1000 I6000 T00000000 10017 21006 53004=
202303261053 METAR KBLI 261053Z AUTO 00000KT 10SM FEW070 00/00 A3026 RMK AO2 SLP258 T00000000=
202303260953 METAR KBLI 260953Z AUTO 00000KT 10SM BKN065 01/01 A3026 RMK AO2 SLP257 T00060006=
202303260853 METAR KBLI 260853Z AUTO 00000KT 10SM BKN060 01/01 A3026 RMK AO2 SLP256 T00060006 51002=
202303260753 METAR KBLI 260753Z AUTO 00000KT 10SM CLR 00/00 A3026 RMK AO2 SLP256 T00000000 400890000=
202303260653 METAR KBLI 260653Z AUTO 04003KT 10SM CLR 01/01 A3026 RMK AO2 SLP255 T00060006=
202303260553 METAR KBLI 260553Z AUTO 00000KT 10SM CLR 02/02 A3025 RMK AO2 SLP254 T00220022 10089 20011 51006=
202303260453 METAR KBLI 260453Z 00000KT 10SM FEW035 02/02 A3025 RMK AO2 SLP253 T00220022=
202303260353 METAR KBLI 260353Z 00000KT 10SM CLR 03/02 A3024 RMK AO2 SLP250 T00330022=
202303260253 METAR KBLI 260253Z 00000KT 10SM SCT035 04/03 A3023 RMK AO2 SLP247 T00440028 53001=
202303260153 METAR KBLI 260153Z 19004KT 10SM SCT030 07/02 A3023 RMK AO2 SLP245 T00720017=
202303260053 METAR KBLI 260053Z 17008KT 10SM SCT025 08/01 A3023 RMK AO2 SLP244 T00780011=
202303252353 METAR KBLI 252353Z 16008KT 10SM SCT025 08/02 A3023 RMK AO2 SLP245 T00830022 10089 20056 58005=
202303252253 METAR KBLI 252253Z 17007KT 140V210 10SM CLR 08/02 A3024 RMK AO2 SLP247 T00830022=
202303252153 METAR KBLI 252153Z VRB06KT 10SM SCT021 08/02 A3024 RMK AO2 SLP249 T00780022=
202303252053 METAR KBLI 252053Z 17011G19KT 10SM FEW020 SCT030 BKN090 07/03 A3025 RMK AO2 SLP250 T00720033 58002=
202303251953 METAR KBLI 251953Z 18012G17KT 10SM SCT014 OVC065 07/03 A3025 RMK AO2 SLP253 T00670033=
202303251853 METAR KBLI 251853Z 18010KT 10SM SCT014 OVC065 06/04 A3026 RMK AO2 SLP255 T00610039=
202303251843 SPECI KBLI 251843Z 18010KT 10SM SCT014 OVC065 06/04 A3025 RMK AO2 T00610039=
202303251753 METAR KBLI 251753Z 16010KT 10SM BKN014 OVC110 06/04 A3025 RMK AO2 SLP254 60000 T00560039 10056 20028 51007=
202303251653 METAR KBLI 251653Z 17012G17KT 10SM BKN014 OVC070 04/03 A3025 RMK AO2 SLP252 T00440033=
202303251641 SPECI KBLI 251641Z 16009KT 10SM BKN014 OVC110 04/03 A3025 RMK AO2 T00440033=
202303251553 METAR KBLI 251553Z 17010KT 10SM BKN015 BKN050 OVC070 04/03 A3024 RMK AO2 SLP249 T00390033=
202303251530 SPECI KBLI 251530Z 16010KT 10SM BKN015 BKN050 OVC070 04/03 A3024 RMK AO2 T00390033=
202303251453 METAR KBLI 251453Z 17007KT 10SM BKN014 BKN050 OVC100 03/03 A3023 RMK AO2 SLP247 60000 T00330033 53006=
202303251353 METAR KBLI 251353Z 16007KT 10SM BKN014 OVC070 03/03 A3022 RMK AO2 RAE04 SLP243 P0000 T00280028=
202303251338 SPECI KBLI 251338Z AUTO 17005KT 10SM BKN014 OVC060 03/03 A3022 RMK AO2 RAE04 P0000 T00280028=
202303251253 METAR KBLI 251253Z AUTO 13008KT 10SM -RA SCT013 BKN040 OVC050 03/03 A3021 RMK AO2 RAE47B53 SLP241 P0000 T00330033=
202303251249 SPECI KBLI 251249Z AUTO 13008KT 10SM BKN015 BKN040 OVC050 03/03 A3022 RMK AO2 RAE47 P0000=
202303251240 SPECI KBLI 251240Z AUTO 16005KT 10SM -RA BKN013 OVC042 03/03 A3022 RMK AO2 P0000 T00330033=
202303251229 SPECI KBLI 251229Z AUTO 15007KT 10SM -RA SCT013 BKN018 OVC050 03/03 A3021 RMK AO2 P0000 T00330033=
202303251153 METAR KBLI 251153Z AUTO 00000KT 9SM -RA SCT015 SCT042 OVC060 04/04 A3021 RMK AO2 RAB45 SLP238 P0000 60001 70043 T00390039 10050 20033 53006=
202303251053 METAR KBLI 251053Z AUTO 16004KT 10SM OVC065 03/03 A3019 RMK AO2 RAE06 SLP233 P0000 T00330033=
202303251001 SPECI KBLI 251001Z AUTO 16007KT 10SM -RA FEW011 BKN050 OVC060 04/04 A3019 RMK AO2 P0000 T00390039=
202303250953 METAR KBLI 250953Z AUTO 17006KT 10SM -RA SCT011 BKN026 OVC060 04/04 A3019 RMK AO2 RAB00E24B44 SLP233 P0000 T00440044=
202303250911 SPECI KBLI 250911Z AUTO 18007KT 7SM -RA BKN010 OVC028 04/04 A3019 RMK AO2 RAB00 P0000 T00440044=
202303250853 METAR KBLI 250853Z AUTO 17007KT 10SM SCT015 OVC026 04/04 A3019 RMK AO2 SLP231 60001 T00440044 53005=
202303250839 SPECI KBLI 250839Z AUTO 17005KT 10SM BKN015 OVC030 04/04 A3019 RMK AO2 T00440044=
202303250807 SPECI KBLI 250807Z AUTO 17003KT 10SM BKN013 OVC043 04/04 A3018 RMK AO2 T00440044=
202303250753 METAR KBLI 250753Z AUTO 17007KT 10SM FEW011 BKN024 OVC043 04/04 A3018 RMK AO2 RAE28 SLP230 P0001 T00440044 400560028=
202303250726 SPECI KBLI 250726Z AUTO 00000KT 10SM -RA SCT014 OVC024 04/04 A3018 RMK AO2 P0001 T00440044=
202303250714 SPECI KBLI 250714Z AUTO 18003KT 10SM -RA BKN014 OVC026 04/04 A3017 RMK AO2 P0001 T00440044=
202303250653 METAR KBLI 250653Z AUTO 00000KT 7SM -RA OVC015 04/04 A3017 RMK AO2 RAB14 SLP226 P0000 T00440044=
202303250553 METAR KBLI 250553Z AUTO 00000KT 10SM SCT016 OVC023 04/04 A3017 RMK AO2 SLP227 60002 T00440044 10056 20039 51015=
202303250453 METAR KBLI 250453Z 17003KT 10SM FEW010 BKN025 04/04 A3016 RMK AO2 SLP222 T00440044=
202303250409 SPECI KBLI 250409Z 00000KT 10SM SCT010 BKN024 OVC042 04/04 A3015 RMK AO2 T00440044=
202303250353 METAR KBLI 250353Z 00000KT 10SM SCT010 BKN014 BKN029 04/04 A3014 RMK AO2 RAB22E48 SLP217 P0002 T00440044=
202303250253 METAR KBLI 250253Z 00000KT 10SM SCT014 BKN025 BKN070 04/04 A3013 RMK AO2 SLP212 60000 T00390039 53002=
202303250153 METAR KBLI 250153Z 16006KT 10SM SCT014 BKN027 05/05 A3012 RMK AO2 SLP208 T00500050=
202303250053 METAR KBLI 250053Z 16008KT 10SM BKN012 BKN016 OVC020 06/06 A3012 RMK AO2 RAE2354 SLP207 P0000 T00560056=
202303242353 METAR KBLI 242353Z 13006KT 8SM -RA BKN010 BKN015 OVC020 04/04 A3012 RMK AO2 SLP210 P0000 60022 T00440044 10050 20033 50002=
202303242253 METAR KBLI 242253Z 12008KT 6SM -RA BR BKN010 BKN015 OVC021 04/04 A3012 RMK AO2 RAE2155B27 SLP210 P0000 T00390039=
202303242153 METAR KBLI 242153Z 17009KT 8SM -RA OVC012 04/04 A3012 RMK AO2 SLP209 P0002 T00440044=
202303242053 METAR KBLI 242053Z 19007KT 3SM -RA BR OVC012 05/04 A3012 RMK AO2 SLP207 P0002 60020 T00500044 50008=
202303242032 SPECI KBLI 242032Z 15007KT 3SM -RA BR OVC013 04/04 A3012 RMK AO2 P0002 T00390039=
202303242000 SPECI KBLI 242000Z 16006KT 3SM RA BR OVC015 03/03 A3012 RMK AO2 P0001 T00330033=
202303241953 METAR KBLI 241953Z 16006KT 2SM RA BR OVC015 03/03 A3012 RMK AO2 SLP208 P0013 T00330033=
202303241853 METAR KBLI 241853Z 17006KT 6SM -RA BR BKN012 OVC022 04/04 A3011 RMK AO2 SLP205 P0005 T00440039=
202303241802 SPECI KBLI 241802Z 17011KT 8SM -RA BKN012 BKN022 OVC035 04/04 A3010 RMK AO2 P0000 T00440044=
202303241753 METAR KBLI 241753Z 17008G16KT 7SM -RA SCT014 BKN022 OVC035 04/04 A3009 RMK AO2 SLP200 P0000 60018 T00440044 10044 20028 53010=
202303241653 METAR KBLI 241653Z 16009KT 7SM -RA OVC014 04/04 A3008 RMK AO2 SLP196 P0002 T00440039=
202303241553 METAR KBLI 241553Z 16009KT 5SM -RA BR BKN011 OVC018 04/04 A3007 RMK AO2 SLP192 P0004 T00390039=
202303241453 METAR KBLI 241453Z 17006KT 3SM -RA BR BKN011 OVC018 03/03 A3006 RMK AO2 SLP189 P0007 60012 T00330033 53007=
202303241443 SPECI KBLI 241443Z 16009KT 3SM -RA BR BKN011 OVC018 03/03 A3006 RMK AO2 P0006 T00330033=
202303241435 SPECI KBLI 241435Z 15008KT 3SM -RA BR SCT011 OVC018 04/03 A3006 RMK AO2 P0006 T00390033=
202303241406 SPECI KBLI 241406Z 20005KT 3SM RA BR SCT009 OVC014 03/03 A3006 RMK AO2 P0005 T00280028=
202303241353 METAR KBLI 241353Z 20006KT 3SM RA BR BKN012 OVC017 03/03 A3006 RMK AO2 SLP187 P0005 T00330033=
202303241332 SPECI KBLI 241332Z AUTO 18009G16KT 8SM -RA SCT016 OVC028 04/03 A3005 RMK AO2 P0001 T00390033=
202303241312 SPECI KBLI 241312Z AUTO 17005KT 9SM -RA FEW016 SCT023 OVC031 04/03 A3005 RMK AO2 P0000 T00390033=
202303241253 METAR KBLI 241253Z AUTO 16005KT 6SM -RA BR BKN020 OVC025 04/04 A3005 RMK AO2 RAB38 SLP183 P0000 T00390039=
202303241230 SPECI KBLI 241230Z AUTO 16006KT 10SM FEW011 BKN019 OVC029 04/03 A3004 RMK AO2 T00440033=
202303241219 SPECI KBLI 241219Z AUTO 18006KT 10SM SCT011 BKN030 OVC055 04/03 A3004 RMK AO2 T00440033=
202303241153 METAR KBLI 241153Z AUTO 19007G15KT 10SM BKN011 OVC030 04/04 A3004 RMK AO2 RAE15 SLP181 P0000 60000 70049 T00390039 10061 20039 53005=
202303241129 SPECI KBLI 241129Z AUTO 17009KT 10SM BKN011 OVC031 04/03 A3004 RMK AO2 RAE15 P0000 T00390033=
202303241053 METAR KBLI 241053Z AUTO 17012G19KT 9SM -RA FEW014 SCT024 OVC032 04/03 A3003 RMK AO2 RAE01B51 SLP178 P0000 T00440033=
202303241000 SPECI KBLI 241000Z AUTO 16008KT 10SM -RA SCT028 SCT034 OVC085 04/03 A3003 RMK AO2 P0000 T00440033=
202303240953 METAR KBLI 240953Z AUTO 15007KT 10SM -RA BKN029 BKN037 OVC085 04/03 A3003 RMK AO2 RAB08E19B45 SLP177 P0000 T00440033=
202303240949 SPECI KBLI 240949Z AUTO 15009G19KT 10SM -RA SCT026 OVC036 04/03 A3003 RMK AO2 RAB08E19B45 P0000=
202303240942 SPECI KBLI 240942Z AUTO 18012G19KT 10SM BKN028 BKN036 OVC044 04/03 A3003 RMK AO2 RAB08E19 P0000 T00440033=
202303240853 METAR KBLI 240853Z AUTO 18005KT 10SM FEW025 FEW043 SCT110 05/03 A3003 RMK AO2 SLP176 T00500033 51011=
202303240753 METAR KBLI 240753Z AUTO 19007KT 10SM FEW021 SCT027 SCT120 05/03 A3002 RMK AO2 SLP173 T00500033 401110050=
202303240653 METAR KBLI 240653Z AUTO 19008KT 160V230 10SM FEW120 06/03 A3000 RMK AO2 SLP168 T00610028=
202303240553 METAR KBLI 240553Z AUTO 18007KT 10SM FEW055 BKN080 OVC100 06/04 A2999 RMK AO2 SLP165 60032 T00560039 10083 20050 51020=
202303240453 METAR KBLI 240453Z 18007KT 10SM SCT020 BKN040 OVC070 06/04 A2998 RMK AO2 RAB0357E31 SLP160 P0001 T00610039=
202303240353 METAR KBLI 240353Z 18010G17KT 10SM BKN022 BKN033 OVC050 06/04 A2996 RMK AO2 RAE32 SLP154 P0000 T00560044=
202303240306 SPECI KBLI 240306Z 16011KT 10SM -RA SCT015 BKN026 BKN060 05/04 A2994 RMK AO2 P0000 T00500044=
202303240300 SPECI KBLI 240300Z 15012KT 10SM -RA SCT026 OVC060 05/04 A2994 RMK AO2 P0000 T00500044=
202303240253 METAR KBLI 240253Z 16011KT 10SM -RA FEW015 BKN026 BKN060 06/04 A2994 RMK AO2 RAB44 SLP145 P0000 60031 T00560044 51031=
202303240153 METAR KBLI 240153Z 19005KT 8SM SCT017 BKN022 OVC040 06/04 A2992 RMK AO2 RAE53 SLP140 P0004 T00560044=
202303240137 SPECI KBLI 240137Z VRB03G16KT 5SM -RA BR SCT014 BKN020 OVC025 06/06 A2992 RMK AO2 P0004 T00560056=
202303240053 METAR KBLI 240053Z 16008KT 2SM RA BR BKN020 OVC025 06/06 A2989 RMK AO2 SLP128 P0027 T00610056=
202303240006 SPECI KBLI 240006Z 22008G16KT 2SM R16/5000VP6000FT +RA BR BKN020 BKN025 OVC035 06/05 A2987 RMK AO2 PRESRR P0010 T00610050=
202303240004 SPECI KBLI 240004Z VRB06G17KT 3SM R16/6000VP6000FT +RA BR BKN025 BKN030 OVC047 06/05 A2987 RMK AO2 P0008 T00610050=
202303240001 SPECI KBLI 240001Z 23007G28KT 190V270 1 1/2SM R16/6000VP6000FT +RA BR BKN025 BKN030 OVC047 07/05 A2986 RMK AO2 PRESRR P0005 T00670050=
202303232353 METAR KBLI 232353Z 19017G28KT 6SM -RA BKN025 BKN035 OVC055 08/06 A2984 RMK AO2 PK WND 16029/2343 RAB34 SLP113 P0002 60002 T00830056 10111 20083 53003=
202303232253 METAR KBLI 232253Z 16014G22KT 10SM SCT025 BKN040 OVC100 11/04 A2981 RMK AO2 SLP103 T01060039=
202303232153 METAR KBLI 232153Z 14013G21KT 10SM BKN036 10/04 A2981 RMK AO2 SLP104 T01000044=
202303232053 METAR KBLI 232053Z 16010KT 10SM BKN039 OVC065 10/03 A2983 RMK AO2 RAB23E32 SLP110 P0000 60000 T01000033 57013=
202303231953 METAR KBLI 231953Z 19012G22KT 10SM SCT034 BKN100 09/05 A2985 RMK AO2 SLP115 T00940050=
202303231853 METAR KBLI 231853Z 18008G23KT 10SM BKN025 OVC040 10/05 A2986 RMK AO2 SLP117 T01000050=
202303231753 METAR KBLI 231753Z 17008G17KT 10SM BKN025 BKN030 OVC040 09/06 A2987 RMK AO2 SLP123 60015 T00890061 10089 20061 58001=
202303231714 SPECI KBLI 231714Z 19006KT 10SM BKN027 OVC036 08/06 A2987 RMK AO2 T00780061=
202303231706 SPECI KBLI 231706Z 18008KT 10SM SCT025 BKN032 OVC039 08/06 A2987 RMK AO2 T00780061=
202303231653 METAR KBLI 231653Z 18008KT 10SM BKN025 OVC032 07/06 A2987 RMK AO2 RAE06 SLP124 P0000 T00720056=
202303231611 SPECI KBLI 231611Z 19005KT 10SM FEW009 BKN019 OVC026 07/07 A2988 RMK AO2 RAE06 P0000 T00720067=
202303231553 METAR KBLI 231553Z 18007G17KT 10SM -RA SCT009 BKN014 OVC026 07/07 A2988 RMK AO2 RAB00 SLP125 P0001 T00670067=
202303231500 SPECI KBLI 231500Z 16007KT 3SM -RA BR BKN007 OVC016 07/07 A2987 RMK AO2 RAB00 P0000 T00720072=
202303231453 METAR KBLI 231453Z 14005KT 2SM BR BKN007 OVC013 07/07 A2987 RMK AO2 RAE41 SLP124 P0004 60014 T00670067 50000=
202303231448 SPECI KBLI 231448Z 12004KT 2SM BR BKN007 OVC013 07/07 A2988 RMK AO2 RAE41 P0004=
202303231439 SPECI KBLI 231439Z 00000KT 2SM -RA BR SCT009 OVC015 06/06 A2988 RMK AO2 P0004 T00610061=
202303231412 SPECI KBLI 231412Z 00000KT 2SM -RA BR BKN013 OVC020 07/07 A2988 RMK AO2 P0003 T00670067=
202303231353 METAR KBLI 231353Z 00000KT 2SM R16/5500VP6000FT RA BR OVC019 07/07 A2987 RMK AO2 SLP124 P0009 T00670067=
202303231348 SPECI KBLI 231348Z 17003KT 2 1/2SM R16/5500VP6000FT RA BR FEW005 BKN019 OVC026 07/07 A2987 RMK AO2 P0007=
202303231338 SPECI KBLI 231338Z 00000KT 1 3/4SM -RA BR FEW005 OVC016 07/07 A2987 RMK AO2 P0005 T00670067=
202303231328 SPECI KBLI 231328Z AUTO 17003KT 2SM -RA BR SCT005 OVC016 07/07 A2987 RMK AO2 P0003 T00670067=
202303231303 SPECI KBLI 231303Z AUTO 18004KT 1 3/4SM -RA BR BKN005 BKN008 OVC018 07/07 A2987 RMK AO2 CIG 002V006 P0001 T00670067=
202303231253 METAR KBLI 231253Z AUTO 17005KT 2SM -RA BR BKN005 OVC020 07/07 A2987 RMK AO2 RAB17E37B50 CIG 002V009 SLP122 P0001 T00670067=
202303231251 SPECI KBLI 231251Z AUTO 17005KT 2SM -RA BR BKN005 BKN010 OVC023 07/07 A2987 RMK AO2 RAB17E37B50 CIG 002V007 P0001=
202303231240 SPECI KBLI 231240Z AUTO 17006KT 3SM BR BKN005 OVC024 07/07 A2987 RMK AO2 RAB17E37 P0001 T00670067=
202303231221 SPECI KBLI 231221Z AUTO 18008KT 2 1/2SM -RA BR BKN006 BKN010 OVC025 07/07 A2987 RMK AO2 RAB17 P0000 T00670067=
202303231214 SPECI KBLI 231214Z AUTO 16007KT 2 1/2SM BR SCT007 OVC025 07/07 A2987 RMK AO2 T00670067=
202303231209 SPECI KBLI 231209Z AUTO 17006KT 3SM BR SCT007 BKN012 OVC025 07/07 A2987 RMK AO2 T00670067=
202303231153 METAR KBLI 231153Z AUTO 17007KT 4SM BR FEW009 SCT013 OVC026 07/07 A2987 RMK AO2 SLP120 60002 70002 T00720072 10100 20072 53001=
202303231150 SPECI KBLI 231150Z AUTO 18009KT 5SM BR FEW009 FEW013 OVC026 07/07 A2987 RMK AO2=
202303231140 SPECI KBLI 231140Z AUTO 18008KT 10SM OVC028 07/07 A2986 RMK AO2 T00720067=
202303231053 METAR KBLI 231053Z AUTO 17008KT 10SM OVC032 08/07 A2986 RMK AO2 RAE33 SLP119 P0001 T00780067=
202303230953 METAR KBLI 230953Z AUTO 19008KT 7SM -RA OVC038 08/07 A2986 RMK AO2 RAB30 SLP119 P0001 T00780072=
202303230853 METAR KBLI 230853Z AUTO 17010G19KT 10SM BKN080 OVC100 08/07 A2985 RMK AO2 SLP115 T00830067 53015=
202303230753 METAR KBLI 230753Z AUTO 18008KT 10SM BKN085 09/07 A2982 RMK AO2 SLP105 T00940067 401500006=
202303230653 METAR KBLI 230653Z AUTO 18005KT 10SM BKN085 OVC110 10/07 A2981 RMK AO2 SLP102 T01000067=
202303230553 METAR KBLI 230553Z AUTO 19008KT 160V220 10SM SCT090 OVC120 09/08 A2981 RMK AO2 SLP100 T00940078 10144 20072 53007=
202303230453 METAR KBLI 230453Z 17005KT 10SM OVC110 09/06 A2980 RMK AO2 SLP099 T00940061=
202303230353 METAR KBLI 230353Z 16004KT 10SM FEW110 08/07 A2979 RMK AO2 SLP096 T00830067=
202303230253 METAR KBLI 230253Z 00000KT 10SM BKN110 09/06 A2979 RMK AO2 SLP094 T00890061 53002=
202303230153 METAR KBLI 230153Z 00000KT 10SM OVC110 11/06 A2978 RMK AO2 SLP091 T01110056=
202303230053 METAR KBLI 230053Z 00000KT 10SM CLR 14/04 A2977 RMK AO2 SLP090 T01440044=
202303222353 METAR KBLI 222353Z 31005KT 10SM CLR 14/06 A2978 RMK AO2 SLP092 T01390061 10150 20078 56009=
202303222253 METAR KBLI 222253Z VRB04KT 10SM CLR 15/07 A2978 RMK AO2 SLP093 T01500072=
202303222153 METAR KBLI 222153Z VRB05KT 10SM CLR 14/07 A2980 RMK AO2 SLP098 T01440072=
202303222053 METAR KBLI 222053Z VRB05KT 10SM CLR 13/07 A2981 RMK AO2 SLP102 T01280067 58006 $=
202303221953 METAR KBLI 221953Z 22005KT 10SM CLR 12/07 A2981 RMK AO2 SLP104 T01170067 $=
202303221853 METAR KBLI 221853Z 24003KT 10SM CLR 11/07 A2982 RMK AO2 SLP107 T01060067 $=
202303221753 METAR KBLI 221753Z 00000KT 10SM CLR 10/04 A2983 RMK AO2 SLP108 T01000044 10106 20006 51007 $=
202303221653 METAR KBLI 221653Z 13003KT 3SM BR SCT002 07/07 A2983 RMK AO2 SLP108 T00720067 $=
202303221553 METAR KBLI 221553Z 00000KT 8SM CLR 04/04 A2982 RMK AO2 SLP106 T00440044 $=
202303221523 SPECI KBLI 221523Z 01005KT 7SM FEW002 04/04 A2982 RMK AO2 T00390039 $=
202303221502 SPECI KBLI 221502Z 00000KT 1/4SM R16/1400VP6000FT FG OVC002 03/03 A2981 RMK AO2 T00330033 $=
202303221453 METAR KBLI 221453Z 00000KT 1/4SM R16/1000V1400FT FG VV002 03/03 A2981 RMK AO2 SLP101 T00330033 53008 $=
202303221445 SPECI KBLI 221445Z 00000KT 1/4SM R16/1000V1200FT FG VV002 03/03 A2980 RMK AO2 T00280028 $=
202303221434 SPECI KBLI 221434Z 33003KT 1/4SM R16/1000V2600FT FG VV003 03/03 A2980 RMK AO2 T00280028 $=
202303221353 METAR KBLI 221353Z 00000KT 1/4SM R16/1600V2200FT FG VV002 03/03 A2980 RMK AO2 SLP098 T00280028=
202303221338 SPECI KBLI 221338Z AUTO 00000KT 1/4SM R16/2600V3500FT FG VV003 03/03 A2979 RMK AO2 T00280028=
202303221324 SPECI KBLI 221324Z AUTO 00000KT 1/2SM R16/2400V5000FT FG OVC002 02/02 A2979 RMK AO2 T00220022=
202303221317 SPECI KBLI 221317Z AUTO 00000KT 1 3/4SM R16/3500VP6000FT BR OVC002 02/02 A2979 RMK AO2 T00220022=
202303221253 METAR KBLI 221253Z AUTO 00000KT 4SM BR OVC002 02/02 A2979 RMK AO2 SLP095 T00170017 $=
202303221240 SPECI KBLI 221240Z AUTO 00000KT 3SM BR OVC004 02/02 A2978 RMK AO2 T00220022 $=
202303221235 SPECI KBLI 221235Z AUTO 00000KT 1SM R16/6000VP6000FT BR OVC004 02/02 A2978 RMK AO2 T00170017 $=
202303221222 SPECI KBLI 221222Z AUTO 00000KT 3/4SM R16/3000VP6000FT BR OVC005 02/02 A2978 RMK AO2 VIS 1/2V5 T00170017 $=
202303221215 SPECI KBLI 221215Z AUTO 00000KT 6SM BR BKN007 02/02 A2978 RMK AO2 T00170017 $=
202303221153 METAR KBLI 221153Z AUTO 00000KT 7SM FEW003 01/01 A2978 RMK AO2 SLP093 T00060006 10056 20006 51003 $=
202303221146 SPECI KBLI 221146Z AUTO 00000KT 6SM BR FEW003 02/02 A2978 RMK AO2 T00170017 $=
202303221139 SPECI KBLI 221139Z AUTO 00000KT 2 1/2SM BR FEW003 02/02 A2978 RMK AO2 T00170017 $=
202303221137 SPECI KBLI 221137Z AUTO 00000KT 3/4SM R16/P6000FT BR VV003 02/02 A2978 RMK AO2 T00170017 $=
202303221055 SPECI KBLI 221055Z AUTO 00000KT 1/4SM R16/P6000FT FG VV002 02/02 A2978 RMK AO2 T00170017=
202303221053 METAR KBLI 221053Z AUTO 00000KT 1/2SM R16/P6000FT FG CLR 02/02 A2978 RMK AO2 SLP092 T00220022=
202303221048 SPECI KBLI 221048Z AUTO 00000KT 1 1/2SM BR CLR 02/02 A2978 RMK AO2 VIS 1/4V5=
202303221045 SPECI KBLI 221045Z AUTO 00000KT 3SM BR CLR 02/02 A2978 RMK AO2 T00220022=
202303221041 SPECI KBLI 221041Z AUTO 00000KT 1SM R16/5500VP6000FT BR CLR 03/03 A2978 RMK AO2 T00280028=
202303221035 SPECI KBLI 221035Z AUTO 00000KT 1/2SM R16/5500VP6000FT FG CLR 02/02 A2978 RMK AO2 T00170017=
202303221021 SPECI KBLI 221021Z AUTO 00000KT 1 3/4SM BR CLR 02/02 A2978 RMK AO2 VIS 3/4V5 T00170017=
202303221014 SPECI KBLI 221014Z AUTO 00000KT 6SM BR CLR 02/02 A2978 RMK AO2 T00220022=
202303221006 SPECI KBLI 221006Z AUTO 00000KT 2 1/2SM BR CLR 02/02 A2978 RMK AO2 T00220022=
202303220953 METAR KBLI 220953Z AUTO 00000KT 4SM BR CLR 03/03 A2978 RMK AO2 SLP092 T00280028=
202303220951 SPECI KBLI 220951Z AUTO 00000KT 3SM BR CLR 03/03 A2978 RMK AO2=
202303220940 SPECI KBLI 220940Z AUTO 00000KT 1 3/4SM BR CLR 03/03 A2978 RMK AO2 VIS 3/4V5 T00280028=
202303220935 SPECI KBLI 220935Z AUTO 00000KT 3SM BR CLR 02/02 A2978 RMK AO2 T00220022=
202303220932 SPECI KBLI 220932Z AUTO 00000KT 1SM R16/P6000FT BR CLR 03/03 A2978 RMK AO2 T00280028=
202303220927 SPECI KBLI 220927Z AUTO 00000KT 1/2SM R16/P6000FT FG CLR 03/03 A2978 RMK AO2 T00330033=
202303220920 SPECI KBLI 220920Z AUTO 00000KT 3/4SM R16/P6000FT BR CLR 02/02 A2978 RMK AO2 VIS 1/4V5 T00220022=
202303220910 SPECI KBLI 220910Z AUTO 00000KT 2SM BR CLR 02/02 A2978 RMK AO2 VIS 1 1/4V4 T00220022=
202303220900 SPECI KBLI 220900Z AUTO 00000KT 3/4SM R16/P6000FT BR CLR 03/03 A2978 RMK AO2 T00280028=
202303220853 METAR KBLI 220853Z AUTO 00000KT 2 1/2SM BR CLR 02/02 A2977 RMK AO2 VIS 1 3/4V5 SLP090 T00220022 51003=
202303220829 SPECI KBLI 220829Z AUTO 00000KT 3SM BR CLR 02/02 A2977 RMK AO2 T00220022=
202303220821 SPECI KBLI 220821Z AUTO 00000KT 1 3/4SM BR CLR 03/03 A2977 RMK AO2 T00330033=
202303220811 SPECI KBLI 220811Z AUTO 00000KT 3SM BR CLR 03/03 A2977 RMK AO2 T00280028=
202303220802 SPECI KBLI 220802Z AUTO 00000KT 1 3/4SM BR CLR 03/03 A2977 RMK AO2 VIS 1V5 T00330033=
202303220753 METAR KBLI 220753Z AUTO 00000KT 6SM BR CLR 03/03 A2977 RMK AO2 SLP090 T00330033 401330028=
202303220738 SPECI KBLI 220738Z AUTO 00000KT 4SM BR CLR 04/04 A2977 RMK AO2 T00390039=
202303220728 SPECI KBLI 220728Z AUTO 00000KT 1 1/2SM BR CLR 04/04 A2977 RMK AO2 VIS 1/2V5 T00390039=
202303220653 METAR KBLI 220653Z AUTO 00000KT 7SM CLR 05/05 A2977 RMK AO2 SLP088 T00500050=
202303220553 METAR KBLI 220553Z AUTO 00000KT 10SM CLR 06/06 A2976 RMK AO2 SLP087 T00560056 10133 20039 51002=
202303220453 METAR KBLI 220453Z 00000KT 10SM CLR 05/05 A2976 RMK AO2 SLP086 T00500050=
202303220353 METAR KBLI 220353Z 00000KT 10SM CLR 07/06 A2976 RMK AO2 SLP086 T00720061=
202303220253 METAR KBLI 220253Z 32004KT 10SM CLR 09/07 A2976 RMK AO2 SLP085 T00940067 55004=
202303220153 METAR KBLI 220153Z 31007KT 10SM CLR 11/07 A2976 RMK AO2 SLP084 T01110067=
202303220053 METAR KBLI 220053Z 29008KT 10SM CLR 13/07 A2976 RMK AO2 SLP084 T01280072=
202303212353 METAR KBLI 212353Z 29009KT 10SM CLR 13/08 A2977 RMK AO2 SLP087 T01280083 10128 20094 56018=
202303212253 METAR KBLI 212253Z 30008KT 10SM CLR 13/08 A2979 RMK AO2 SLP093 T01280083=
202303212153 METAR KBLI 212153Z VRB05KT 10SM SCT021 13/09 A2980 RMK AO2 SLP099 T01280094=
202303212053 METAR KBLI 212053Z 31005KT 10SM FEW015 BKN021 OVC034 11/09 A2982 RMK AO2 SLP105 T01110094 58009=
202303212012 SPECI KBLI 212012Z 30005KT 10SM SCT015 BKN023 OVC032 11/09 A2983 RMK AO2 T01110094=
202303211953 METAR KBLI 211953Z 29006KT 10SM SCT013 BKN032 11/09 A2984 RMK AO2 SLP111 T01110094=
202303211853 METAR KBLI 211853Z 28005KT 8SM SCT008 BKN013 OVC029 10/10 A2985 RMK AO2 SLP114 T01000100=
202303211851 SPECI KBLI 211851Z 28005KT 8SM SCT008 BKN022 OVC029 11/10 A2985 RMK AO2=
202303211753 METAR KBLI 211753Z 25003KT 5SM BR BKN004 OVC008 09/09 A2986 RMK AO2 CIG 003V007 SLP119 T00940094 10094 20072 51003=
202303211653 METAR KBLI 211653Z 00000KT 2SM BR OVC004 08/08 A2986 RMK AO2 SLP119 T00830083=
202303211600 SPECI KBLI 211600Z 02003KT 1SM R16/P6000FT BR OVC003 08/08 A2985 RMK AO2 CIG 001V007 T00830083=
202303211553 METAR KBLI 211553Z 02004KT 1SM R16/P6000FT BR BKN008 BKN018 OVC046 08/08 A2985 RMK AO2 SLP117 T00830083=
202303211453 METAR KBLI 211453Z 00000KT 1SM R16/P6000FT BR BKN008 BKN018 OVC046 08/08 A2985 RMK AO2 SLP116 T00830083 51003=
202303211445 SPECI KBLI 211445Z 00000KT 1 1/4SM BR BKN008 BKN018 OVC046 08/08 A2985 RMK AO2 T00830083=
202303211441 SPECI KBLI 211441Z 00000KT 4SM R16/6000VP6000FT BR FEW008 BKN012 OVC046 08/08 A2985 RMK AO2 T00780078=
202303211353 METAR KBLI 211353Z 00000KT 4SM BR OVC010 08/08 A2985 RMK AO2 CIG 005V012 SLP115 T00780078=
202303211337 SPECI KBLI 211337Z AUTO 00000KT 3/4SM R16/P6000FT BR FEW006 OVC010 08/08 A2985 RMK AO2 T00780078=
202303211325 SPECI KBLI 211325Z AUTO 00000KT 1 1/2SM BR FEW006 BKN011 OVC047 08/08 A2985 RMK AO2 T00780078=
202303211313 SPECI KBLI 211313Z AUTO 00000KT 1SM R16/4000VP6000FT BR FEW011 BKN047 OVC060 08/08 A2985 RMK AO2 T00780078=
202303211259 SPECI KBLI 211259Z AUTO 00000KT 1/2SM R16/2200VP6000FT FG FEW003 SCT048 OVC060 08/08 A2985 RMK AO2 T00780078=
202303211253 METAR KBLI 211253Z AUTO 00000KT 1 1/2SM BR FEW003 BKN048 OVC060 08/08 A2984 RMK AO2 SLP114 T00780078=
202303211251 SPECI KBLI 211251Z AUTO 00000KT 1 3/4SM BR SCT003 BKN048 OVC060 08/08 A2984 RMK AO2=
202303211238 SPECI KBLI 211238Z AUTO VRB03KT 3SM BR SCT003 BKN031 OVC060 08/08 A2984 RMK AO2 T00830083=
202303211232 SPECI KBLI 211232Z AUTO 20003KT 2 1/2SM BR BKN002 OVC031 08/08 A2984 RMK AO2 T00830083=
202303211153 METAR KBLI 211153Z AUTO 00000KT 5SM BR OVC003 08/08 A2984 RMK AO2 RAE22 SLP113 P0000 60004 70010 T00830083 10094 20083 53001=
202303211127 SPECI KBLI 211127Z AUTO 00000KT 5SM BR BKN004 OVC020 08/08 A2984 RMK AO2 RAE22 P0000 T00830083=
202303211117 SPECI KBLI 211117Z AUTO 00000KT 5SM -RA BR SCT005 OVC020 08/08 A2984 RMK AO2 P0000 T00830083=
202303211106 SPECI KBLI 211106Z AUTO 00000KT 4SM -RA BR BKN019 OVC037 08/08 A2984 RMK AO2 P0000 T00830083=
202303211053 METAR KBLI 211053Z AUTO 00000KT 4SM -RA BR FEW017 FEW022 OVC035 08/08 A2984 RMK AO2 SLP112 P0000 T00830083=
202303211025 SPECI KBLI 211025Z AUTO 00000KT 4SM -RA BR SCT005 SCT018 OVC032 08/08 A2984 RMK AO2 P0000 T00830083=
202303211018 SPECI KBLI 211018Z AUTO 00000KT 5SM -RA BR BKN005 BKN018 OVC032 08/08 A2984 RMK AO2 P0000 T00830083=
202303211009 SPECI KBLI 211009Z AUTO 00000KT 5SM -RA BR SCT005 OVC034 08/08 A2984 RMK AO2 P0000 T00830083=
202303210953 METAR KBLI 210953Z AUTO 00000KT 4SM -RA BR OVC036 08/08 A2984 RMK AO2 SLP111 P0002 T00830083=
202303210950 SPECI KBLI 210950Z AUTO 00000KT 5SM -RA BR OVC036 08/08 A2984 RMK AO2 P0002=
202303210941 SPECI KBLI 210941Z AUTO 00000KT 2 1/2SM -RA BR BKN036 OVC044 08/08 A2984 RMK AO2 P0002 T00830083=
202303210853 METAR KBLI 210853Z AUTO 00000KT 5SM -RA BR FEW011 OVC030 09/09 A2983 RMK AO2 RAB21 SLP109 P0002 60002 T00890089 53010=
202303210834 SPECI KBLI 210834Z AUTO 00000KT 10SM -RA FEW010 FEW025 OVC030 09/09 A2983 RMK AO2 RAB21 P0000 T00890089=
202303210753 METAR KBLI 210753Z AUTO 00000KT 10SM SCT017 OVC023 09/09 A2982 RMK AO2 SLP105 T00940094 401110067=
202303210700 SPECI KBLI 210700Z AUTO VRB03KT 10SM FEW011 OVC017 09/09 A2982 RMK AO2 T00940094=
202303210653 METAR KBLI 210653Z AUTO 22003KT 9SM FEW009 BKN014 OVC023 09/09 A2982 RMK AO2 SLP103 T00940094=
202303210651 SPECI KBLI 210651Z AUTO 00000KT 9SM BKN014 OVC022 09/09 A2981 RMK AO2=
202303210553 METAR KBLI 210553Z AUTO 00000KT 6SM BR BKN017 OVC025 09/09 A2981 RMK AO2 SLP101 60000 T00890089 10111 20083 51014=
202303210453 METAR KBLI 210453Z 00000KT 9SM OVC026 09/09 A2979 RMK AO2 SLP096 T00890089=
202303210353 METAR KBLI 210353Z 00000KT 10SM BKN028 OVC050 09/09 A2978 RMK AO2 SLP092 T00890089=
202303210310 SPECI KBLI 210310Z 00000KT 10SM BKN026 OVC046 09/09 A2977 RMK AO2 T00940094=
202303210303 SPECI KBLI 210303Z 00000KT 10SM SCT026 OVC046 10/09 A2977 RMK AO2 T01000094=
202303210253 METAR KBLI 210253Z 07003KT 10SM BKN028 OVC044 10/09 A2976 RMK AO2 SLP087 60000 T01000094 53007=
202303210153 METAR KBLI 210153Z 00000KT 10SM BKN027 OVC050 11/09 A2975 RMK AO2 SLP083 T01060089=
202303210132 SPECI KBLI 210132Z 00000KT 10SM BKN028 OVC039 11/09 A2975 RMK AO2 T01110089=
202303210053 METAR KBLI 210053Z 00000KT 10SM SCT015 BKN035 11/09 A2975 RMK AO2 RAB26E36 SLP081 P0000 T01060089=
202303210000 METAR KBLI 182353Z 28007KT 10SM CLR 16/03 A2995 RMK AO2 SLP151 T01610028 10183 20122 56017=
202303202353 METAR KBLI 202353Z 17003KT 10SM SCT020 BKN040 BKN050 11/09 A2974 RMK AO2 RAB18E31 SLP080 P0000 60005 T01060089 10111 20094 53005=
202303202253 METAR KBLI 202253Z 00000KT 10SM SCT015 BKN021 BKN040 11/09 A2974 RMK AO2 SLP078 T01060094=
202303202153 METAR KBLI 202153Z VRB03KT 8SM SCT010 BKN030 OVC045 11/10 A2973 RMK AO2 RAB2056E46 SLP076 P0003 T01110100=
202303202053 METAR KBLI 202053Z 00000KT 6SM BR SCT010 BKN020 BKN030 11/10 A2973 RMK AO2 RAE30 SLP073 P0001 60002 T01110100 51007=
202303201953 METAR KBLI 201953Z 00000KT 4SM -RA BR SCT010 BKN030 OVC040 10/09 A2973 RMK AO2 SLP074 P0001 T01000094=
202303201853 METAR KBLI 201853Z 06003KT 5SM -RA BR FEW020 BKN040 OVC060 10/10 A2972 RMK AO2 SLP071 P0000 T01000100=
202303201753 METAR KBLI 201753Z 04003KT 8SM -RA FEW020 BKN040 OVC060 09/09 A2971 RMK AO2 SLP068 P0001 60001 T00940094 10094 20067 53016=
202303201653 METAR KBLI 201653Z 00000KT 6SM -RA BR BKN047 OVC055 09/08 A2969 RMK AO2 RAB06 SLP061 P0000 T00890083=
202303201553 METAR KBLI 201553Z 00000KT 6SM BR SCT019 OVC070 08/08 A2967 RMK AO2 SLP055 T00830083=
202303201528 SPECI KBLI 201528Z 00000KT 5SM BR SCT021 OVC085 08/08 A2967 RMK AO2 T00780078=
202303201521 SPECI KBLI 201521Z 00000KT 4SM BR BKN021 OVC085 08/08 A2966 RMK AO2 T00780078=
202303201453 METAR KBLI 201453Z 04004KT 4SM BR OVC090 07/07 A2966 RMK AO2 SLP051 60000 T00720072 53012=
202303201353 METAR KBLI 201353Z 20003KT 6SM BR OVC060 07/07 A2964 RMK AO2 RAE51 SLP045 P0000 T00720072=
202303201253 METAR KBLI 201253Z AUTO 00000KT 8SM -RA OVC050 07/07 A2964 RMK AO2 RAB42 SLP044 P0000 T00720072=
202303201153 METAR KBLI 201153Z AUTO 00000KT 10SM SCT070 OVC090 07/07 A2962 RMK AO2 SLP038 60000 T00720072 10094 20072 53003=
202303201053 METAR KBLI 201053Z AUTO 00000KT 9SM OVC065 08/08 A2961 RMK AO2 RAB08E35 SLP033 P0000 T00780078=
202303200953 METAR KBLI 200953Z AUTO 21004KT 9SM OVC070 08/08 A2962 RMK AO2 RAE29 SLP037 P0000 T00780078=
202303200853 METAR KBLI 200853Z AUTO VRB04KT 7SM -RA OVC060 08/07 A2962 RMK AO2 RAB06E15B37 SLP036 P0000 60000 T00830072 50007=
202303200753 METAR KBLI 200753Z AUTO 17003KT 10SM OVC070 08/07 A2962 RMK AO2 SLP036 T00830072 401720022=
202303200653 METAR KBLI 200653Z AUTO VRB05KT 10SM OVC080 09/07 A2960 RMK AO2 SLP031 T00890072=
202303200553 METAR KBLI 200553Z AUTO 13006KT 10SM OVC085 09/07 A2960 RMK AO2 SLP029 T00890067 10161 20089 58002=
202303200453 METAR KBLI 200453Z 00000KT 10SM OVC080 09/07 A2960 RMK AO2 SLP033 T00940067=
202303200353 METAR KBLI 200353Z 00000KT 10SM OVC095 09/07 A2961 RMK AO2 SLP033 T00940067=
202303200253 METAR KBLI 200253Z 28006KT 10SM FEW065 OVC095 11/07 A2960 RMK AO2 SLP031 T01060067 56012=
202303200153 METAR KBLI 200153Z 00000KT 10SM OVC095 11/07 A2961 RMK AO2 SLP033 T01110072=
202303200053 METAR KBLI 200053Z 18003KT 10SM BKN100 12/07 A2962 RMK AO2 SLP038 T01220067=
202303192353 METAR KBLI 192353Z 36005KT 10SM BKN110 16/03 A2964 RMK AO2 SLP042 T01610028 10172 20111 56028=
202303192253 METAR KBLI 192253Z 36005KT 10SM BKN120 17/03 A2966 RMK AO2 SLP049 T01670033=
202303192153 METAR KBLI 192153Z 03005KT 10SM FEW110 16/03 A2968 RMK AO2 SLP059 T01560033=
202303192053 METAR KBLI 192053Z 01004KT 10SM SCT120 15/03 A2972 RMK AO2 SLP070 T01500033 58023=
202303191953 METAR KBLI 191953Z 01004KT 10SM CLR 14/03 A2974 RMK AO2 SLP078 T01440033=
202303191853 METAR KBLI 191853Z 03005KT 10SM CLR 13/04 A2976 RMK AO2 SLP086 T01330039=
202303191753 METAR KBLI 191753Z 00000KT 10SM CLR 11/03 A2978 RMK AO2 SLP094 T01110033 10111 20022 58012=
202303191653 METAR KBLI 191653Z 00000KT 10SM CLR 09/03 A2981 RMK AO2 SLP101 T00890028=
202303191553 METAR KBLI 191553Z 00000KT 10SM CLR 07/04 A2981 RMK AO2 SLP103 T00670044=
202303191453 METAR KBLI 191453Z 00000KT 10SM CLR 04/02 A2982 RMK AO2 SLP106 T00440022 58015=
202303191353 METAR KBLI 191353Z 36003KT 10SM CLR 06/02 A2984 RMK AO2 SLP113 T00610017=
202303191253 METAR KBLI 191253Z AUTO 03003KT 10SM CLR 03/02 A2985 RMK AO2 SLP117 T00280017=
202303191153 METAR KBLI 191153Z AUTO 00000KT 10SM CLR 04/02 A2987 RMK AO2 SLP120 T00390022 10061 20028 58010=
202303191053 METAR KBLI 191053Z AUTO 00000KT 10SM CLR 04/02 A2988 RMK AO2 SLP124 T00440022=
202303190953 METAR KBLI 190953Z AUTO 00000KT 10SM CLR 04/02 A2989 RMK AO2 SLP128 T00390022=
202303190853 METAR KBLI 190853Z AUTO 00000KT 9SM CLR 04/04 A2989 RMK AO2 SLP130 T00440039 58008=
202303190753 METAR KBLI 190753Z AUTO 00000KT 10SM CLR 05/03 A2991 RMK AO2 SLP136 T00500033 401830000=
202303190653 METAR KBLI 190653Z AUTO 00000KT 9SM CLR 04/04 A2992 RMK AO2 SLP139 T00440039=
202303190553 METAR KBLI 190553Z AUTO 00000KT 10SM CLR 06/05 A2992 RMK AO2 SLP140 T00610050 10167 20044 55003=
202303190453 METAR KBLI 190453Z 00000KT 10SM CLR 06/05 A2992 RMK AO2 SLP139 T00610050=
202303190353 METAR KBLI 190353Z 00000KT 10SM CLR 07/05 A2992 RMK AO2 SLP141 T00720050=
202303190253 METAR KBLI 190253Z 00000KT 10SM CLR 09/05 A2993 RMK AO2 SLP144 T00890050 56008=
202303190153 METAR KBLI 190153Z 00000KT 10SM CLR 13/04 A2993 RMK AO2 SLP143 T01280044=
202303190053 METAR KBLI 190053Z 29004KT 10SM CLR 16/04 A2994 RMK AO2 SLP146 T01560039=
202303182353 METAR KBLI 182353Z 28007KT 10SM CLR 16/03 A2995 RMK AO2 SLP151 T01610028 10183 20122 56017=
202303182253 METAR KBLI 182253Z VRB05KT 10SM CLR 18/03 A2996 RMK AO2 SLP152 T01780028=
202303182153 METAR KBLI 182153Z VRB04KT 10SM CLR 18/01 A2998 RMK AO2 SLP159 T01780006=
202303182053 METAR KBLI 182053Z 36006KT 10SM CLR 17/01 A3000 RMK AO2 SLP167 T01720006 58025=
202303182015 SPECI KBLI 182015Z VRB05KT 10SM CLR 17/01 A3002 RMK AO2 T01670011=
202303181953 METAR KBLI 181953Z 00000KT 10SM CLR 16/01 A3003 RMK AO2 SLP174 T01610006=
202303181853 METAR KBLI 181853Z 36006KT 10SM CLR 14/02 A3006 RMK AO2 SLP186 T01440017=
202303181753 METAR KBLI 181753Z VRB04KT 10SM CLR 12/02 A3008 RMK AO2 SLP193 T01170017 10117 20000 55003=
202303181653 METAR KBLI 181653Z 36003KT 10SM CLR 09/03 A3007 RMK AO2 SLP190 T00890028=
202303181553 METAR KBLI 181553Z 06003KT 10SM CLR 06/03 A3008 RMK AO2 SLP194 T00560028=
202303181453 METAR KBLI 181453Z 00000KT 10SM CLR 01/01 A3009 RMK AO2 SLP197 T00110006 58003=
202303181353 METAR KBLI 181353Z 00000KT 10SM CLR 02/01 A3009 RMK AO2 SLP197 T00220011=
202303181253 METAR KBLI 181253Z AUTO 00000KT 10SM FEW120 02/01 A3009 RMK AO2 SLP199 T00170011=
202303181153 METAR KBLI 181153Z AUTO 00000KT 10SM CLR 02/02 A3010 RMK AO2 SLP199 T00220022 10061 20017 58004=
202303181053 METAR KBLI 181053Z AUTO 00000KT 10SM CLR 03/02 A3010 RMK AO2 SLP200 T00280022=
202303180953 METAR KBLI 180953Z AUTO 00000KT 7SM SCT080 04/03 A3011 RMK AO2 SLP202 T00390033=
202303180853 METAR KBLI 180853Z AUTO 00000KT 8SM BKN085 04/04 A3011 RMK AO2 SLP204 T00440044 50000=
202303180753 METAR KBLI 180753Z AUTO 00000KT 9SM CLR 06/04 A3011 RMK AO2 SLP203 T00560044 401611022=
202303180653 METAR KBLI 180653Z AUTO 00000KT 10SM FEW090 04/04 A3011 RMK AO2 SLP204 T00440039=
202303180553 METAR KBLI 180553Z AUTO 00000KT 10SM CLR 06/04 A3011 RMK AO2 SLP203 T00560044 10150 20050 53003=
202303180453 METAR KBLI 180453Z 00000KT 10SM CLR 06/04 A3010 RMK AO2 SLP201 T00610044=
202303180353 METAR KBLI 180353Z 00000KT 10SM CLR 07/04 A3010 RMK AO2 SLP202 T00670044=
202303180253 METAR KBLI 180253Z 00000KT 10SM CLR 08/05 A3010 RMK AO2 SLP201 T00830050 55000=
202303180153 METAR KBLI 180153Z 00000KT 10SM CLR 11/06 A3009 RMK AO2 SLP200 T01060056=
202303180053 METAR KBLI 180053Z AUTO 29005KT 10SM CLR 12/04 A3010 RMK AO2 SLP201 T01170044=
202303172353 METAR KBLI 172353Z 03006KT 10SM CLR 15/M02 A3010 RMK AO2 SLP200 T01501022 10161 20100 56015=
202303172253 METAR KBLI 172253Z 03009KT 10SM CLR 16/M03 A3011 RMK AO2 SLP205 T01561028=
202303172153 METAR KBLI 172153Z 01011KT 10SM CLR 16/M02 A3013 RMK AO2 SLP210 T01561017=
202303172053 METAR KBLI 172053Z 02007KT 10SM CLR 14/M01 A3014 RMK AO2 SLP215 T01441006 58010=
202303171953 METAR KBLI 171953Z 03007KT 10SM CLR 14/00 A3016 RMK AO2 SLP220 T01390000=
202303171853 METAR KBLI 171853Z 05008KT 10SM CLR 12/M01 A3016 RMK AO2 SLP222 T01221006=
202303171753 METAR KBLI 171753Z 04007KT 10SM CLR 10/M01 A3017 RMK AO2 SLP225 I6000 T01001006 10100 21022 56003=
202303171653 METAR KBLI 171653Z 04007KT 10SM CLR 07/00 A3018 RMK AO2 SLP227 T00720000=
202303171553 METAR KBLI 171553Z 00000KT 10SM CLR 04/01 A3017 RMK AO2 SLP227 T00390006=
202303171453 METAR KBLI 171453Z 00000KT 10SM CLR 00/M02 A3018 RMK AO2 SLP229 I3000 T00001017 53007=
202303171353 METAR KBLI 171353Z 00000KT 10SM CLR M02/M02 A3017 RMK AO2 SLP227 T10171022=
202303171253 METAR KBLI 171253Z AUTO 00000KT 10SM CLR M01/M01 A3016 RMK AO2 SLP224 I1000 T10061011=
202303171153 METAR KBLI 171153Z AUTO 00000KT 6SM BR CLR M02/M02 A3016 RMK AO2 SLP221 I6001 T10171017 10022 21017 58008=
202303171053 METAR KBLI 171053Z AUTO 00000KT 6SM BR CLR M01/M01 A3017 RMK AO2 SLP224 I1001 T10111011=
202303170956 SPECI KBLI 170956Z AUTO 00000KT 3SM BR CLR M01/M01 A3018 RMK AO2 T10061006=
202303170953 METAR KBLI 170953Z AUTO 00000KT 1 1/2SM BR CLR M01/M01 A3018 RMK AO2 SLP229 T10061006=
202303170946 SPECI KBLI 170946Z AUTO 00000KT 1 1/2SM BR CLR M01/M01 A3018 RMK AO2 VIS 1/2V5 T10061006=
202303170853 METAR KBLI 170853Z AUTO 00000KT 3SM BR CLR 01/01 A3018 RMK AO2 SLP230 T00060006 51006=
202303170846 SPECI KBLI 170846Z AUTO 00000KT 1 3/4SM BR CLR 01/01 A3018 RMK AO2 VIS 3/4V5 T00060006=
202303170753 METAR KBLI 170753Z AUTO 00000KT 9SM CLR 01/01 A3018 RMK AO2 SLP228 T00110011 401441011=
202303170736 SPECI KBLI 170736Z AUTO 00000KT 3SM BR CLR 01/01 A3018 RMK AO2 T00110006=
202303170727 SPECI KBLI 170727Z AUTO 00000KT 1 3/4SM BR CLR 01/01 A3018 RMK AO2 VIS 3/4V5 T00060006=
202303170653 METAR KBLI 170653Z AUTO 00000KT 10SM CLR 01/01 A3017 RMK AO2 SLP226 T00110011=
202303170553 METAR KBLI 170553Z AUTO 00000KT 10SM CLR 02/02 A3017 RMK AO2 SLP224 T00170017 10144 20017 53001=
202303170453 METAR KBLI 170453Z 00000KT 10SM CLR 03/02 A3016 RMK AO2 SLP223 T00330022=
202303170353 METAR KBLI 170353Z 00000KT 10SM CLR 04/03 A3016 RMK AO2 SLP224 T00440028=
202303170253 METAR KBLI 170253Z 00000KT 10SM CLR 06/03 A3016 RMK AO2 SLP223 T00610033 55010=
202303170153 METAR KBLI 170153Z 29006KT 10SM CLR 09/04 A3016 RMK AO2 SLP223 T00890039=
202303170053 METAR KBLI 170053Z 32003KT 10SM CLR 11/04 A3017 RMK AO2 SLP226 T01110039=
202303162353 METAR KBLI 162353Z 02006KT 10SM CLR 14/M02 A3019 RMK AO2 SLP232 T01391017 10144 20072 56023=
202303162253 METAR KBLI 162253Z 03009KT 10SM CLR 13/M02 A3021 RMK AO2 SLP239 T01331017=
202303162153 METAR KBLI 162153Z 01008KT 10SM CLR 13/M02 A3023 RMK AO2 SLP245 T01331022=
202303162053 METAR KBLI 162053Z 03011G20KT 10SM CLR 12/M02 A3026 RMK AO2 SLP256 T01221022 58016=
202303161953 METAR KBLI 161953Z 03006KT 10SM CLR 11/00 A3028 RMK AO2 SLP263 T01110000=
202303161853 METAR KBLI 161853Z 01007KT 10SM CLR 11/01 A3029 RMK AO2 SLP267 T01060006=
202303161753 METAR KBLI 161753Z VRB03KT 10SM CLR 07/00 A3031 RMK AO2 SLP272 T00720000 10072 21011 56003=
202303161653 METAR KBLI 161653Z 04008KT 10SM CLR 05/01 A3031 RMK AO2 SLP272 T00500011=
202303161553 METAR KBLI 161553Z 01005KT 10SM CLR 02/01 A3031 RMK AO2 SLP272 T00220006=
202303161453 METAR KBLI 161453Z 01003KT 10SM CLR 00/M01 A3031 RMK AO2 SLP275 T00001011 55001=
202303161353 METAR KBLI 161353Z 01003KT 10SM CLR M01/M01 A3031 RMK AO2 SLP273 T10061011=
202303161253 METAR KBLI 161253Z AUTO 02005KT 10SM CLR M01/M01 A3031 RMK AO2 SLP274 T10061011=
202303161153 METAR KBLI 161153Z AUTO 03005KT 10SM CLR M01/M01 A3032 RMK AO2 SLP275 T10061011 10022 21011 58001=
202303161053 METAR KBLI 161053Z AUTO 01003KT 10SM CLR M01/M01 A3032 RMK AO2 SLP276 T10061006=
202303160953 METAR KBLI 160953Z AUTO 35003KT 10SM CLR 01/00 A3032 RMK AO2 SLP278 T00060000=
202303160853 METAR KBLI 160853Z AUTO 00000KT 10SM CLR M01/M01 A3032 RMK AO2 SLP276 T10111011 53006=
202303160753 METAR KBLI 160753Z AUTO 00000KT 10SM CLR 00/00 A3031 RMK AO2 SLP274 T00000000 401060000=
202303160653 METAR KBLI 160653Z AUTO 00000KT 10SM CLR 01/00 A3031 RMK AO2 SLP272 T00060000=
202303160553 METAR KBLI 160553Z AUTO 00000KT 10SM CLR 02/01 A3030 RMK AO2 SLP270 T00220011 10100 20017 51010=
202303160453 METAR KBLI 160453Z 14003KT 10SM CLR 03/02 A3030 RMK AO2 SLP268 T00330017=
202303160353 METAR KBLI 160353Z 17004KT 10SM FEW080 06/04 A3029 RMK AO2 SLP264 T00610039=
202303160253 METAR KBLI 160253Z 18005KT 10SM CLR 07/03 A3027 RMK AO2 SLP260 T00670028 53013=
202303160153 METAR KBLI 160153Z 18003KT 10SM CLR 08/03 A3025 RMK AO2 SLP254 T00830033=
202303160053 METAR KBLI 160053Z 20004KT 10SM CLR 09/02 A3024 RMK AO2 SLP250 T00940017=
202303152353 METAR KBLI 152353Z 20005KT 10SM CLR 10/01 A3023 RMK AO2 SLP246 T01000011 10106 20072 53010=
202303152253 METAR KBLI 152253Z 18008KT 140V250 10SM CLR 10/02 A3022 RMK AO2 SLP242 T01000017=
202303152153 METAR KBLI 152153Z 18006KT 10SM CLR 09/01 A3021 RMK AO2 SLP237 T00940006=
202303152053 METAR KBLI 152053Z 19007KT 10SM FEW060 09/00 A3020 RMK AO2 SLP235 T00940000 51018=
202303151953 METAR KBLI 151953Z 18008KT 10SM CLR 09/02 A3019 RMK AO2 SLP231 T00890017=
202303151853 METAR KBLI 151853Z 16009KT 10SM CLR 08/01 A3017 RMK AO2 SLP225 T00830011=
202303151753 METAR KBLI 151753Z VRB06KT 10SM CLR 07/02 A3015 RMK AO2 SLP218 T00720017 10072 20017 51037=
202303151653 METAR KBLI 151653Z 18007KT 10SM CLR 07/03 A3012 RMK AO2 SLP207 T00670028=
202303151553 METAR KBLI 151553Z 16005KT 10SM CLR 06/03 A3008 RMK AO2 SLP195 T00560033=
202303151453 METAR KBLI 151453Z 20003KT 10SM CLR 02/01 A3004 RMK AO2 SLP182 T00220011 52040=
202303151353 METAR KBLI 151353Z VRB03KT 10SM FEW050 02/02 A3000 RMK AO2 SLP169 T00220017=
202303151253 METAR KBLI 151253Z AUTO 22003KT 10SM CLR 04/02 A2996 RMK AO2 SLP154 T00390022=
202303151153 METAR KBLI 151153Z AUTO 19005KT 10SM FEW048 05/03 A2992 RMK AO2 SLP140 60001 70001 T00500033 10061 20028 52033=
202303151053 METAR KBLI 151053Z AUTO 18005KT 10SM FEW029 BKN070 OVC100 06/03 A2988 RMK AO2 RAE52 SLP127 P0001 T00560028=
202303151015 SPECI KBLI 151015Z AUTO 20007G18KT 10SM -RA FEW025 OVC031 06/03 A2987 RMK AO2 P0001 T00560033=
202303150953 METAR KBLI 150953Z AUTO 6SM -RA OVC026 06/03 A2987 RMK AO2 RAB24 SLP121 P0000 T00610033=
202303150853 METAR KBLI 150853Z AUTO 00000KT 10SM BKN060 OVC075 05/04 A2982 RMK AO2 RAB0759E22 SLP107 P0000 60000 T00500039 53026=
202303150753 METAR KBLI 150753Z AUTO 00000KT 10SM FEW049 OVC070 05/03 A2980 RMK AO2 SLP098 T00500033 401060028=
202303150653 METAR KBLI 150653Z AUTO 00000KT 10SM BKN070 OVC090 04/03 A2977 RMK AO2 SLP089 T00390028=
202303150553 METAR KBLI 150553Z AUTO 00000KT 10SM SCT080 SCT100 BKN120 06/03 A2975 RMK AO2 SLP081 T00610033 10106 20033 51019=
202303150453 METAR KBLI 150453Z 28004KT 10SM FEW100 SCT120 07/03 A2973 RMK AO2 SLP076 T00670033=
202303150353 METAR KBLI 150353Z 00000KT 10SM FEW120 05/02 A2971 RMK AO2 SLP068 T00500017=
202303150253 METAR KBLI 150253Z 29003KT 10SM CLR 06/01 A2969 RMK AO2 SLP063 T00610011 55003=
202303150153 METAR KBLI 150153Z 00000KT 10SM SCT110 08/01 A2968 RMK AO2 SLP057 T00780006=
202303150053 METAR KBLI 150053Z 00000KT 10SM CLR 10/M01 A2968 RMK AO2 SLP058 T01001006=
202303142353 METAR KBLI 142353Z 00000KT 10SM FEW110 10/M01 A2970 RMK AO2 SLP065 T01001006 10106 20072 56026=
202303142253 METAR KBLI 142253Z 20007KT 160V230 10SM OVC120 10/01 A2972 RMK AO2 SLP073 T01000006=
202303142153 METAR KBLI 142153Z 19006KT 10SM SCT045 BKN100 09/01 A2975 RMK AO2 SLP081 T00940011=
202303142057 SPECI KBLI 142057Z 17006G15KT 10SM SCT045 BKN100 10/01 A2977 RMK AO2 T01000006=
202303142053 METAR KBLI 142053Z 18008KT 10SM OVC047 10/01 A2978 RMK AO2 SLP091 T01000006 58019=
202303141953 METAR KBLI 141953Z 18010KT 10SM SCT040 09/02 A2980 RMK AO2 SLP100 T00940017=
202303141853 METAR KBLI 141853Z 17010KT 10SM SCT035 08/01 A2982 RMK AO2 SLP105 T00830006=
202303141753 METAR KBLI 141753Z 17011G17KT 10SM FEW025 07/02 A2983 RMK AO2 SLP111 T00720017 10072 20044 58008=
202303141653 METAR KBLI 141653Z 15011KT 10SM FEW025 SCT040 BKN100 07/03 A2985 RMK AO2 SLP116 T00720028=
202303141553 METAR KBLI 141553Z 16010KT 10SM FEW015 SCT040 BKN100 06/02 A2985 RMK AO2 SLP118 T00560022=
202303141453 METAR KBLI 141453Z 15006KT 10SM FEW020 BKN080 04/01 A2986 RMK AO2 SLP120 T00440011 56007=
202303141353 METAR KBLI 141353Z 16008KT 10SM SCT020 BKN070 04/02 A2986 RMK AO2 SLP119 T00440017=
202303141253 METAR KBLI 141253Z AUTO 16006KT 10SM BKN070 OVC100 04/02 A2987 RMK AO2 SLP122 T00440022=
202303141153 METAR KBLI 141153Z AUTO 15007KT 10SM FEW027 SCT034 OVC055 04/03 A2988 RMK AO2 RAB24E49 SLP126 P0000 60000 70005 T00440028 10061 20044 50006=
202303141053 METAR KBLI 141053Z AUTO 17007KT 10SM FEW027 BKN034 OVC060 05/03 A2988 RMK AO2 SLP127 T00500028=
202303141040 SPECI KBLI 141040Z AUTO 17008KT 10SM SCT026 BKN031 BKN045 05/03 A2988 RMK AO2 T00500028=
202303140953 METAR KBLI 140953Z AUTO 18006KT 10SM BKN023 BKN030 05/03 A2988 RMK AO2 SLP126 T00500028=
202303140853 METAR KBLI 140853Z AUTO 18006KT 10SM SCT032 BKN065 OVC080 05/03 A2986 RMK AO2 RAB35E45 SLP121 P0000 60000 T00500033 53023=
202303140753 METAR KBLI 140753Z AUTO 17011KT 10SM FEW023 OVC032 06/02 A2983 RMK AO2 SLP111 T00560022 401000044=
202303140653 METAR KBLI 140653Z AUTO 19007KT 10SM FEW070 BKN100 06/01 A2982 RMK AO2 SLP105 T00610011=
202303140553 METAR KBLI 140553Z AUTO 21006KT 10SM FEW090 BKN120 06/00 A2979 RMK AO2 SLP097 T00560000 10083 20044 53023=
202303140453 METAR KBLI 140453Z 18004KT 10SM CLR 06/00 A2977 RMK AO2 SLP088 T00560000=
202303140353 METAR KBLI 140353Z VRB04KT 10SM FEW040 SCT110 06/03 A2975 RMK AO2 SLP081 T00610033=
202303140253 METAR KBLI 140253Z 20007KT 10SM SCT027 BKN048 OVC060 07/04 A2973 RMK AO2 SLP074 T00670039 53011=
202303140153 METAR KBLI 140153Z 18005KT 10SM SCT070 07/03 A2971 RMK AO2 SLP067 T00720033=
202303140053 METAR KBLI 140053Z 18007KT 10SM FEW020 SCT060 08/03 A2969 RMK AO2 SLP063 T00780033=
202303132353 METAR KBLI 132353Z 17008KT 10SM BKN030 BKN041 08/03 A2969 RMK AO2 SLP062 60002 T00780033 10083 20061 52004=
202303132253 METAR KBLI 132253Z 18008KT 10SM BKN038 07/04 A2969 RMK AO2 SLP062 T00720039=
202303132153 METAR KBLI 132153Z 18011KT 10SM OVC080 07/04 A2968 RMK AO2 SLP059 T00720044=
202303132053 METAR KBLI 132053Z 17009KT 10SM FEW045 SCT055 OVC070 06/04 A2968 RMK AO2 RAE45 SLP059 P0002 60002 T00610044 51008=
202303131953 METAR KBLI 131953Z 18006KT 7SM -RA FEW029 BKN043 OVC050 06/06 A2968 RMK AO2 SLP058 P0000 T00610056=
202303131853 METAR KBLI 131853Z 17004KT 10SM -RA FEW025 BKN034 OVC055 06/04 A2968 RMK AO2 RAE1756B33 SLP058 P0000 T00610039=
202303131755 SPECI KBLI 131755Z 19007KT 10SM -RA SCT020 BKN050 OVC060 07/04 A2966 RMK AO2 P0000 T00670044=
202303131753 METAR KBLI 131753Z 18005KT 10SM -RA SCT050 OVC060 07/04 A2966 RMK AO2 RAE23B45 SLP051 P0000 60003 T00670044 10072 20056 51008=
202303131653 METAR KBLI 131653Z 18008KT 6SM -RA BR BKN038 OVC050 07/06 A2965 RMK AO2 RAB41 SLP050 P0000 T00670056=
202303131553 METAR KBLI 131553Z 17007KT 10SM FEW050 BKN085 OVC100 07/06 A2964 RMK AO2 RAE1454B31E40 SLP045 P0000 T00670061=
202303131453 METAR KBLI 131453Z 18004KT 10SM -RA FEW024 OVC095 06/06 A2963 RMK AO2 RAB41 SLP044 P0000 60003 T00560056 53010=
202303131353 METAR KBLI 131353Z 23003KT 10SM OVC070 07/07 A2961 RMK AO2 RAE19 SLP036 P0001 T00670067=
202303131253 METAR KBLI 131253Z AUTO 17003KT 10SM -RA FEW046 BKN055 OVC075 07/07 A2961 RMK AO2 SLP035 P0002 T00670067=
202303131153 METAR KBLI 131153Z AUTO 00000KT 8SM -RA OVC031 07/07 A2960 RMK AO2 SLP032 P0004 60014 70034 T00720072 10106 20056 53006=
202303131146 SPECI KBLI 131146Z AUTO 00000KT 9SM -RA OVC031 07/07 A2960 RMK AO2 P0004 T00720072=
202303131114 SPECI KBLI 131114Z AUTO VRB04KT 4SM -RA BR FEW004 OVC027 07/07 A2960 RMK AO2 P0003 T00720072=
202303131107 SPECI KBLI 131107Z AUTO VRB03KT 2 1/2SM -RA BR FEW004 BKN022 OVC027 07/07 A2959 RMK AO2 P0002 T00720072=
202303131053 METAR KBLI 131053Z AUTO 00000KT 1 1/2SM -RA BR SCT004 BKN016 OVC021 08/08 A2959 RMK AO2 SLP029 P0010 T00780078=
202303131040 SPECI KBLI 131040Z AUTO VRB05KT 1 3/4SM -RA BR SCT004 BKN016 OVC022 08/08 A2959 RMK AO2 P0007 T00780078=
202303131019 SPECI KBLI 131019Z AUTO VRB03KT 1 3/4SM -RA BR BKN004 BKN009 OVC014 08/08 A2959 RMK AO2 P0004 T00780078=
202303131010 SPECI KBLI 131010Z AUTO 20004KT 2SM -RA BR BKN004 OVC014 08/08 A2959 RMK AO2 P0002 T00780078=
202303131001 SPECI KBLI 131001Z AUTO 20006G16KT 2 1/2SM -RA BR FEW007 BKN014 OVC019 08/08 A2959 RMK AO2 P0001 T00780078=
202303130953 METAR KBLI 130953Z AUTO 21007G16KT 2 1/2SM -RA BR OVC016 08/08 A2959 RMK AO2 VIS 2V5 RAB10 SLP027 P0000 T00830078=
202303130853 METAR KBLI 130853Z AUTO VRB04KT 10SM OVC021 07/07 A2958 RMK AO2 RAE01B17E39 SLP026 P0000 60000 T00720067 56010=
202303130753 METAR KBLI 130753Z AUTO 17010G20KT 10SM -RA OVC025 10/07 A2959 RMK AO2 RAE0657B23 SLP027 P0000 T01000072 401060000=
202303130653 METAR KBLI 130653Z AUTO 17010G23KT 10SM -RA OVC022 10/08 A2961 RMK AO2 RAE0557B36 SLP034 P0000 T01000078=
202303130553 METAR KBLI 130553Z AUTO VRB03KT 10SM -RA OVC021 07/07 A2961 RMK AO2 RAB0459 SLP036 P0001 60007 T00720067 10094 20056 58011=
202303130500 SPECI KBLI 130500Z 01003KT 10SM -RA OVC024 06/06 A2962 RMK AO2 RAB0459 P0000 T00560056=
202303130453 METAR KBLI 130453Z 34003KT 10SM BKN032 06/06 A2963 RMK AO2 RAB06E40 SLP040 P0001 T00560056=
202303130353 METAR KBLI 130353Z 35003KT 10SM SCT025 BKN030 OVC040 06/06 A2964 RMK AO2 SLP045 T00560056=
202303130253 METAR KBLI 130253Z 03005KT 10SM FEW025 BKN030 06/05 A2965 RMK AO2 RAE01 SLP048 P0000 60005 T00560050 56022=
202303130156 SPECI KBLI 130156Z 04008KT 10SM -RA FEW020 BKN032 06/05 A2966 RMK AO2 P0000 T00560050=
202303130153 METAR KBLI 130153Z 04007KT 10SM -RA BKN027 OVC032 06/05 A2966 RMK AO2 SLP053 P0001 T00560050=
202303130053 METAR KBLI 130053Z 04008KT 10SM -RA FEW010 SCT028 BKN035 06/05 A2968 RMK AO2 SLP060 P0004 T00560050=
202303130024 SPECI KBLI 130024Z 04010KT 6SM -RA BR BKN030 OVC038 06/05 A2970 RMK AO2 P0003 T00560050=
202303130000 SPECI KBLI 130000Z 04010KT 4SM -RA BR OVC028 06/05 A2971 RMK AO2 P0001 T00560050=
202303122353 METAR KBLI 122353Z 04010KT 6SM -RA BR BKN030 OVC045 06/05 A2971 RMK AO2 SLP070 P0006 60013 T00560050 10094 20056 56029=
202303122253 METAR KBLI 122253Z 05009KT 7SM -RA OVC035 06/05 A2974 RMK AO2 SLP078 P0004 T00610050=
202303122153 METAR KBLI 122153Z 05006KT 8SM -RA SCT025 BKN035 BKN045 07/06 A2976 RMK AO2 SLP086 P0003 T00720056=
202303122053 METAR KBLI 122053Z 14005KT 8SM -RA SCT020 BKN030 BKN035 08/05 A2980 RMK AO2 RAB09 SLP100 P0000 60000 T00780050 56002=
202303121953 METAR KBLI 121953Z 19003KT 10SM OVC065 08/02 A2980 RMK AO2 SLP100 T00830022=
202303121853 METAR KBLI 121853Z 04008KT 10SM OVC075 09/01 A2979 RMK AO2 SLP096 T00890006=
202303121753 METAR KBLI 121753Z 05010KT 10SM FEW120 09/01 A2980 RMK AO2 SLP101 T00890006 10089 20006 58019=
202303121653 METAR KBLI 121653Z 04008KT 10SM CLR 07/02 A2983 RMK AO2 SLP107 T00720017=
202303121553 METAR KBLI 121553Z 04007KT 10SM SCT080 04/01 A2985 RMK AO2 SLP116 T00440011=
202303121453 METAR KBLI 121453Z 04005KT 10SM CLR 02/M01 A2986 RMK AO2 SLP120 T00171006 58013=
202303121353 METAR KBLI 121353Z 04005KT 10SM SCT065 02/00 A2988 RMK AO2 SLP126 T00220000=
202303121253 METAR KBLI 121253Z AUTO 01005KT 10SM BKN075 02/00 A2989 RMK AO2 SLP129 T00170000=
202303121153 METAR KBLI 121153Z AUTO 35003KT 10SM CLR 01/01 A2990 RMK AO2 SLP133 T00110006 10050 20000 58010=
202303121053 METAR KBLI 121053Z AUTO 00000KT 10SM CLR 01/00 A2992 RMK AO2 SLP140 T00060000=
202303120953 METAR KBLI 120953Z AUTO 00000KT 10SM BKN100 01/00 A2992 RMK AO2 SLP142 T00060000=
202303120853 METAR KBLI 120853Z AUTO 00000KT 10SM CLR 03/02 A2993 RMK AO2 SLP143 T00330022 58002=
202303120753 METAR KBLI 120753Z AUTO 02003KT 10SM FEW055 03/02 A2993 RMK AO2 SLP143 T00330022 401060028=
202303120653 METAR KBLI 120653Z AUTO 00000KT 10SM FEW055 BKN110 04/02 A2994 RMK AO2 SLP145 T00390017=
202303120553 METAR KBLI 120553Z 02004KT 10SM OVC110 04/02 A2993 RMK AO2 SLP145 T00440022 10100 20044 53004=
202303120453 METAR KBLI 120453Z 00000KT 10SM OVC110 06/02 A2993 RMK AO2 SLP142 T00610017=
202303120353 METAR KBLI 120353Z 02003KT 10SM FEW065 OVC120 06/03 A2992 RMK AO2 SLP140 T00610028=
202303120253 METAR KBLI 120253Z 10003KT 10SM FEW040 BKN110 08/02 A2992 RMK AO2 SLP140 T00780017 53003=
202303120153 METAR KBLI 120153Z 11004KT 10SM BKN045 BKN120 09/02 A2991 RMK AO2 SLP138 T00890017=
202303120053 METAR KBLI 120053Z 14009KT 10SM BKN045 BKN110 10/02 A2991 RMK AO2 SLP135 T01000017=
202303112353 METAR KBLI 112353Z 14010G16KT 10SM BKN041 BKN048 OVC110 10/02 A2991 RMK AO2 SLP136 T01000017 10106 20067 56004=
202303112253 METAR KBLI 112253Z 17007KT 10SM BKN040 BKN100 10/02 A2991 RMK AO2 SLP137 T01000017=
202303112153 METAR KBLI 112153Z 17010G17KT 10SM BKN034 BKN110 09/02 A2992 RMK AO2 SLP139 T00940022=
202303112053 METAR KBLI 112053Z 16011G18KT 10SM SCT031 OVC120 09/03 A2992 RMK AO2 SLP141 T00940033 51004=
202303111953 METAR KBLI 111953Z 15015G20KT 10SM FEW029 FEW100 09/03 A2992 RMK AO2 SLP139 T00890033=
202303111853 METAR KBLI 111853Z 17009KT 10SM BKN024 OVC034 08/03 A2991 RMK AO2 SLP137 T00780033=
202303111753 METAR KBLI 111753Z 13008KT 10SM BKN024 BKN040 OVC047 07/03 A2991 RMK AO2 SLP136 60000 T00670033 10072 20050 53011=
202303111653 METAR KBLI 111653Z 15010G17KT 10SM BKN022 BKN037 OVC060 07/03 A2990 RMK AO2 SLP131 T00670033=
202303111553 METAR KBLI 111553Z 16014G20KT 10SM BKN022 OVC032 06/03 A2988 RMK AO2 SLP127 T00610033=
202303111453 METAR KBLI 111453Z 16008KT 10SM OVC022 06/04 A2988 RMK AO2 SLP126 60000 T00560039 53012=
202303111428 SPECI KBLI 111428Z AUTO 15008KT 10SM BKN022 OVC033 06/04 A2987 RMK AO2 T00560039=
202303111401 SPECI KBLI 111401Z AUTO 15007KT 10SM SCT024 OVC033 05/04 A2986 RMK AO2 T00500044=
202303111353 METAR KBLI 111353Z AUTO 13006KT 10SM SCT021 BKN027 OVC031 05/04 A2986 RMK AO2 RAB30E39 SLP119 P0000 T00500044=
202303111340 SPECI KBLI 111340Z AUTO 15007KT 10SM BKN022 OVC031 06/04 A2986 RMK AO2 RAB30E39 P0000 T00560044=
202303111329 SPECI KBLI 111329Z AUTO 15007KT 10SM SCT022 OVC031 06/04 A2986 RMK AO2 T00560044=
202303111253 METAR KBLI 111253Z AUTO 16006KT 10SM SCT014 OVC021 06/05 A2985 RMK AO2 RAB29E53 SLP116 P0000 T00560050=
202303111153 METAR KBLI 111153Z AUTO 00000KT 10SM BKN012 BKN017 OVC032 05/04 A2984 RMK AO2 RAE49 SLP114 P0000 60001 70002 T00500044 10056 20033 51011=
202303111111 SPECI KBLI 111111Z AUTO 16003KT 10SM -RA BKN015 OVC043 04/04 A2984 RMK AO2 P0000 T00390039=
202303111053 METAR KBLI 111053Z AUTO 00000KT 10SM -RA BKN046 BKN055 OVC085 04/04 A2984 RMK AO2 RAB46 SLP113 P0000 T00390039=
202303110953 METAR KBLI 110953Z AUTO 11005KT 10SM FEW015 SCT030 BKN085 04/03 A2982 RMK AO2 SLP108 T00390033=
202303110853 METAR KBLI 110853Z AUTO 00000KT 10SM SCT026 SCT035 04/04 A2981 RMK AO2 SLP103 60001 T00390039 51014=
202303110851 SPECI KBLI 110851Z AUTO 16003KT 10SM SCT024 SCT035 SCT042 04/04 A2981 RMK AO2=
202303110803 SPECI KBLI 110803Z AUTO 15005KT 10SM BKN021 BKN028 OVC035 05/04 A2979 RMK AO2 T00500044=
202303110753 METAR KBLI 110753Z AUTO 15006KT 9SM SCT024 BKN030 OVC036 05/04 A2979 RMK AO2 RAE45 SLP095 P0000 T00500044 400830044=
202303110707 SPECI KBLI 110707Z AUTO 16005KT 9SM -RA SCT019 BKN038 OVC048 05/04 A2977 RMK AO2 P0000 T00500044=
202303110653 METAR KBLI 110653Z AUTO 17007KT 10SM -RA BKN019 BKN029 OVC035 06/04 A2977 RMK AO2 RAB06 SLP089 P0001 T00560044=
202303110614 SPECI KBLI 110614Z AUTO 17006KT 10SM -RA BKN021 OVC075 06/03 A2975 RMK AO2 RAB06 P0000 T00610033=
202303110604 SPECI KBLI 110604Z 18006KT 10SM FEW021 SCT026 OVC070 06/03 A2975 RMK AO2 T00610033=
202303110553 METAR KBLI 110553Z 17006KT 10SM SCT015 BKN026 OVC080 06/03 A2974 RMK AO2 SLP081 T00560033 10061 20056 51022=
202303110453 METAR KBLI 110453Z 17004KT 10SM FEW020 SCT050 BKN075 06/04 A2972 RMK AO2 SLP074 T00560039=
202303110353 METAR KBLI 110353Z 17006KT 10SM FEW020 BKN110 06/04 A2970 RMK AO2 SLP066 T00560039=
202303110253 METAR KBLI 110253Z 18006KT 10SM FEW020 SCT040 BKN100 06/03 A2968 RMK AO2 SLP059 T00560033 52027=
202303110153 METAR KBLI 110153Z 18006KT 10SM OVC100 06/04 A2965 RMK AO2 SLP049 T00610039=
202303110053 METAR KBLI 110053Z 19006KT 10SM FEW020 SCT030 BKN100 06/04 A2962 RMK AO2 SLP039 T00610039=
202303102353 METAR KBLI 102353Z 16007KT 10SM FEW018 SCT023 BKN030 06/04 A2960 RMK AO2 SLP031 60000 T00610039 10067 20050 53029=
202303102253 METAR KBLI 102253Z 18005KT 10SM OVC019 06/03 A2957 RMK AO2 SLP022 T00610033=
202303102153 METAR KBLI 102153Z 29004KT 10SM BKN024 BKN029 OVC034 07/03 A2954 RMK AO2 RAE12 SLP010 P0000 T00670028=
202303102053 METAR KBLI 102053Z 07005KT 10SM -RA BKN026 06/02 A2951 RMK AO2 RAE00B36 SLP001 P0000 60000 T00610022 53027=
202303101953 METAR KBLI 101953Z 05005KT 10SM -RA BKN023 OVC031 06/02 A2948 RMK AO2 RAE24B51 SLP991 P0000 T00610022=
202303101853 METAR KBLI 101853Z 03005KT 10SM -RA BKN023 OVC035 05/03 A2946 RMK AO2 SLP982 P0000 T00500028=
202303101753 METAR KBLI 101753Z 04005KT 10SM -RA BKN022 OVC035 05/02 A2943 RMK AO2 SLP975 P0000 60001 T00500022 10083 20044 53016=
202303101725 SPECI KBLI 101725Z 04007KT 10SM -RA BKN020 OVC040 05/02 A2942 RMK AO2 P0000 T00500022=
202303101653 METAR KBLI 101653Z 03008KT 10SM -RA OVC043 05/03 A2941 RMK AO2 SLP967 P0001 T00500028=
202303101607 SPECI KBLI 101607Z 04007G17KT 9SM -RA OVC030 04/02 A2940 RMK AO2 P0001 T00440022=
202303101553 METAR KBLI 101553Z 04008KT 10SM -RA OVC029 04/03 A2940 RMK AO2 SLP963 P0000 T00440028=
202303101536 SPECI KBLI 101536Z 04007KT 10SM -RA OVC029 04/02 A2939 RMK AO2 P0000 T00440022=
202303101529 SPECI KBLI 101529Z 04008KT 10SM -RA OVC031 04/03 A2939 RMK AO2 P0000 T00440028=
202303101453 METAR KBLI 101453Z 05009KT 10SM -RA OVC029 04/02 A2939 RMK AO2 RAB14 SLP959 P0000 60000 T00440022 51012=
202303101353 METAR KBLI 101353Z AUTO 07007KT 10SM FEW030 BKN055 OVC070 06/01 A2938 RMK AO2 RAE18 SLP957 P0000 T00560011=
202303101253 METAR KBLI 101253Z AUTO 13007KT 10SM -RA OVC037 07/01 A2937 RMK AO2 RAB1155E04B27 SLP952 P0000 T00670006=
202303101153 METAR KBLI 101153Z AUTO 05012G19KT 10SM OVC048 08/M03 A2935 RMK AO2 SLP946 T00831033 10083 20078 55014=
202303101053 METAR KBLI 101053Z AUTO 03011G21KT 10SM OVC070 08/M03 A2934 RMK AO2 PK WND 06026/1009 SLP943 T00781028=
202303100953 METAR KBLI 100953Z AUTO 05012G19KT 10SM OVC080 08/M03 A2937 RMK AO2 SLP954 T00781033=
202303100853 METAR KBLI 100853Z AUTO 03014G23KT 10SM OVC090 08/M03 A2939 RMK AO2 PK WND 03028/0813 SLP961 T00781033 56038=
202303100753 METAR KBLI 100753Z AUTO 04014G26KT 10SM OVC090 08/M04 A2941 RMK AO2 PK WND 03026/0753 SLP968 T00781044 401281006=
202303100653 METAR KBLI 100653Z AUTO 04012G19KT 10SM OVC100 08/M05 A2946 RMK AO2 SLP983 T00831050=
202303100553 METAR KBLI 100553Z 05012G19KT 10SM BKN095 08/M04 A2951 RMK AO2 SLP999 T00831039 10117 20072 58040=
202303100453 METAR KBLI 100453Z 04004KT 10SM BKN085 08/M03 A2955 RMK AO2 SLP015 T00831028=
202303100353 METAR KBLI 100353Z 03006KT 10SM BKN085 07/M02 A2959 RMK AO2 SLP028 T00721017=
202303100253 METAR KBLI 100253Z 00000KT 10SM BKN100 09/M02 A2963 RMK AO2 SLP041 T00891022 56025=
202303100153 METAR KBLI 100153Z 17003KT 10SM OVC100 09/01 A2964 RMK AO2 SLP047 T00890011=
202303100053 METAR KBLI 100053Z 00000KT 10SM FEW095 10/01 A2967 RMK AO2 SLP055 T01000006=
202303092353 METAR KBLI 092353Z 17005KT 10SM BKN090 11/01 A2970 RMK AO2 SLP065 T01110011 10128 20056 58037=
202303092253 METAR KBLI 092253Z 21004KT 10SM BKN085 11/01 A2975 RMK AO2 SLP082 T01060011=
202303092153 METAR KBLI 092153Z 00000KT 10SM FEW080 11/01 A2977 RMK AO2 SLP089 T01060006=
202303092053 METAR KBLI 092053Z 00000KT 10SM CLR 11/01 A2981 RMK AO2 PRESFR SLP102 T01060006 58034=
202303091953 METAR KBLI 091953Z 16005KT 10SM CLR 08/02 A2986 RMK AO2 SLP119 T00830022=
202303091853 METAR KBLI 091853Z VRB04KT 10SM BKN110 08/01 A2989 RMK AO2 SLP130 T00780011=
202303091753 METAR KBLI 091753Z 18003KT 10SM SCT110 06/02 A2991 RMK AO2 SLP137 T00560017 10056 20000 56009=
202303091653 METAR KBLI 091653Z 03005KT 10SM FEW120 03/01 A2991 RMK AO2 SLP139 T00280011=
202303091553 METAR KBLI 091553Z 02004KT 10SM CLR 02/01 A2993 RMK AO2 SLP143 T00170006=
202303091453 METAR KBLI 091453Z 00000KT 10SM CLR 01/01 A2994 RMK AO2 SLP146 T00110006 56011=
202303091353 METAR KBLI 091353Z AUTO 04004KT 10SM OVC070 01/01 A2995 RMK AO2 SLP150 T00060006=
202303091253 METAR KBLI 091253Z AUTO 00000KT 10SM OVC085 01/01 A2996 RMK AO2 SLP153 T00110006=
202303091153 METAR KBLI 091153Z AUTO 00000KT 10SM BKN085 01/01 A2997 RMK AO2 SLP157 70003 T00060006 10044 21006 58007=
202303091053 METAR KBLI 091053Z AUTO 00000KT 10SM BKN075 01/01 A2998 RMK AO2 SLP160 T00060006=
202303090953 METAR KBLI 090953Z AUTO 00000KT 10SM FEW075 BKN095 01/01 A2999 RMK AO2 SLP165 T00110011=
202303090853 METAR KBLI 090853Z AUTO 00000KT 10SM FEW065 BKN100 02/01 A2999 RMK AO2 SLP164 T00170011 50001=
202303090753 METAR KBLI 090753Z AUTO 15004KT 10SM BKN080 BKN095 03/02 A2999 RMK AO2 SLP165 T00330017 401061017=
202303090653 METAR KBLI 090653Z AUTO 00000KT 10SM CLR 02/02 A2999 RMK AO2 SLP166 T00220022=
202303090553 METAR KBLI 090553Z 00000KT 10SM FEW085 FEW110 04/02 A2999 RMK AO2 SLP164 60003 T00390022 10089 20028 51010=
202303090453 METAR KBLI 090453Z 00000KT 10SM OVC090 04/04 A2998 RMK AO2 SLP162 T00440039=
202303090353 METAR KBLI 090353Z 00000KT 10SM BKN085 OVC100 04/04 A2997 RMK AO2 SLP157 T00390039=
202303090253 METAR KBLI 090253Z 00000KT 10SM OVC095 04/04 A2996 RMK AO2 SLP154 60003 T00440044 51009=
202303090153 METAR KBLI 090153Z 00000KT 10SM OVC090 06/04 A2995 RMK AO2 RAE34 SLP152 P0001 T00560044=
202303090053 METAR KBLI 090053Z 14007KT 10SM -RA OVC042 07/02 A2997 RMK AO2 RAB02 TSB07E22 SLP157 P0002 T00670022=
202303090028 SPECI KBLI 090028Z 19004KT 6SM -RA BKN034 OVC065 07/03 A2996 RMK AO2 RAB02 TSB07E22 P0002 T00670028=
202303090013 SPECI KBLI 090013Z 16014G23KT 9SM -TSRA FEW050 BKN065 OVC080 09/02 A2995 RMK AO2 RAB02 TSB07 P0000 T00890022=
202303082353 METAR KBLI 082353Z 18010G15KT 10SM BKN080 09/01 A2993 RMK AO2 SLP145 T00890011 10106 20050 55002=
202303082253 METAR KBLI 082253Z VRB04KT 10SM CLR 10/01 A2993 RMK AO2 SLP142 T01000011=
202303082153 METAR KBLI 082153Z 19006KT 10SM FEW095 09/01 A2993 RMK AO2 SLP145 T00890011=
202303082053 METAR KBLI 082053Z 09003KT 10SM SCT050 BKN080 OVC090 09/01 A2994 RMK AO2 SLP147 T00890006 50002=
202303081953 METAR KBLI 081953Z 20006KT 10SM SCT120 07/02 A2995 RMK AO2 SLP151 T00720017=
202303081853 METAR KBLI 081853Z 19007KT 10SM SCT100 07/M01 A2995 RMK AO2 SLP150 T00671011=
202303081753 METAR KBLI 081753Z 17008KT 10SM CLR 06/01 A2993 RMK AO2 SLP145 T00560011 10078 21017 53002=
202303081653 METAR KBLI 081653Z 03004KT 10SM BKN100 04/M01 A2992 RMK AO2 SLP142 T00441006=
202303081553 METAR KBLI 081553Z 03005KT 10SM CLR 01/M02 A2992 RMK AO2 SLP142 T00111022=
202303081453 METAR KBLI 081453Z 01004KT 10SM SCT090 M01/M02 A2993 RMK AO2 SLP143 T10061022 58003=
202303081353 METAR KBLI 081353Z AUTO 00000KT 10SM OVC085 M01/M02 A2993 RMK AO2 SLP145 T10061022=
202303081253 METAR KBLI 081253Z AUTO 23003KT 10SM CLR 00/M02 A2994 RMK AO2 SLP146 T00001017=
202303081153 METAR KBLI 081153Z AUTO 00000KT 10SM CLR 01/M02 A2993 RMK AO2 SLP146 T00061017 10050 21017 56008=
202303081053 METAR KBLI 081053Z AUTO 00000KT 10SM FEW100 01/M01 A2994 RMK AO2 SLP147 T00061006=
202303080953 METAR KBLI 080953Z AUTO 01003KT 10SM BKN100 02/M01 A2995 RMK AO2 SLP151 T00171006=
202303080853 METAR KBLI 080853Z AUTO 00000KT 10SM FEW080 OVC100 02/M01 A2996 RMK AO2 SLP153 T00171006 58008=
202303080753 METAR KBLI 080753Z AUTO 00000KT 10SM OVC080 02/00 A2997 RMK AO2 SLP158 T00170000 401220006=
202303080653 METAR KBLI 080653Z AUTO 00000KT 10SM FEW080 01/M01 A2997 RMK AO2 SLP159 T00111006=
202303080553 METAR KBLI 080553Z 00000KT 10SM SCT090 05/00 A2998 RMK AO2 SLP161 T00500000 10106 20033 53004=
202303080453 METAR KBLI 080453Z 00000KT 10SM BKN075 BKN095 04/M01 A2997 RMK AO2 SLP159 T00391006=
202303080353 METAR KBLI 080353Z 00000KT 10SM FEW075 SCT100 04/M01 A2997 RMK AO2 SLP159 T00441006=
202303080253 METAR KBLI 080253Z 00000KT 10SM OVC090 07/M01 A2997 RMK AO2 SLP158 T00721006 56007=
202303080153 METAR KBLI 080153Z 08004KT 10SM SCT070 OVC090 09/M01 A2997 RMK AO2 SLP158 T00891011=
202303080053 METAR KBLI 080053Z 09006KT 10SM BKN085 09/00 A2998 RMK AO2 SLP160 T00890000=
202303072353 METAR KBLI 072353Z 08008KT 10SM OVC085 11/M01 A2999 RMK AO2 SLP164 T01061006 10122 20061 56010=
202303072253 METAR KBLI 072253Z 14004KT 10SM FEW040 BKN090 11/M02 A3000 RMK AO2 SLP167 T01061017=
202303072153 METAR KBLI 072153Z 14007KT 10SM OVC085 12/M02 A3001 RMK AO2 SLP170 T01171017 $=
202303072053 METAR KBLI 072053Z 00000KT 10SM BKN080 11/M01 A3002 RMK AO2 SLP175 T01061011 58012 $=
202303071953 METAR KBLI 071953Z 28004KT 10SM FEW090 09/M01 A3004 RMK AO2 SLP181 T00941011 $=
202303071853 METAR KBLI 071853Z 33006KT 10SM SCT100 09/M01 A3005 RMK AO2 SLP184 T00891006 $=
202303071753 METAR KBLI 071753Z 00000KT 10SM BKN075 07/M01 A3006 RMK AO2 SLP186 T00671006 10067 20011 50001=
202303071653 METAR KBLI 071653Z 36004KT 10SM FEW040 BKN080 04/00 A3006 RMK AO2 SLP186 T00390000=
202303071553 METAR KBLI 071553Z 00000KT 10SM BKN070 02/M01 A3005 RMK AO2 SLP186 T00221006=
202303071453 METAR KBLI 071453Z 00000KT 10SM FEW025 SCT070 BKN085 03/M01 A3005 RMK AO2 SLP186 T00281006 50007=
202303071353 METAR KBLI 071353Z AUTO 00000KT 10SM OVC075 03/M01 A3006 RMK AO2 SLP186 T00281011=
202303071253 METAR KBLI 071253Z AUTO 36003KT 10SM FEW044 SCT110 02/M01 A3004 RMK AO2 SLP180 T00171006=
202303071153 METAR KBLI 071153Z AUTO 02004KT 10SM FEW047 SCT060 01/M01 A3003 RMK AO2 SLP178 T00111006 10067 20006 58002=
202303071053 METAR KBLI 071053Z AUTO 08003KT 10SM SCT070 OVC080 02/M01 A3004 RMK AO2 SLP179 T00221006=
202303070953 METAR KBLI 070953Z AUTO 00000KT 10SM BKN110 02/M01 A3005 RMK AO2 SLP185 T00221006=
202303070853 METAR KBLI 070853Z AUTO 03003KT 10SM FEW120 02/00 A3004 RMK AO2 SLP181 T00220000 53009=
202303070753 METAR KBLI 070753Z AUTO 01005KT 10SM CLR 03/M01 A3003 RMK AO2 SLP177 T00331006 401110017=
202303070653 METAR KBLI 070653Z AUTO 13006KT 10SM CLR 06/M01 A3001 RMK AO2 SLP172 T00611006=
202303070353 METAR KBLI 070353Z 12007KT 10SM CLR 07/00 A2999 RMK AO2 SLP163 T00720000=
202303070253 METAR KBLI 070253Z 14010KT 10SM BKN060 08/00 A2999 RMK AO2 SLP163 T00830000 53005=
202303070153 METAR KBLI 070153Z 13004KT 10SM BKN060 09/M01 A2997 RMK AO2 SLP157 T00941011=
202303070053 METAR KBLI 070053Z 16008KT 120V180 10SM FEW060 SCT100 10/M01 A2996 RMK AO2 SLP154 T01001011=
202303062353 METAR KBLI 062353Z 13009KT 10SM BKN055 BKN100 11/M01 A2997 RMK AO2 SLP157 T01061006 10111 20078 56007=
202303062253 METAR KBLI 062253Z 18007KT 10SM SCT060 09/02 A2997 RMK AO2 SLP158 T00940022=
202303062153 METAR KBLI 062153Z 19007KT 10SM SCT050 BKN080 09/02 A2998 RMK AO2 SLP159 T00890022=
202303062053 METAR KBLI 062053Z 00000KT 10SM FEW030 BKN060 08/02 A2999 RMK AO2 SLP164 T00830017 53003=
202303061953 METAR KBLI 061953Z 00000KT 10SM SCT050 BKN070 09/M01 A2999 RMK AO2 SLP163 T00891011=
202303061853 METAR KBLI 061853Z 02007KT 10SM CLR 09/00 A2998 RMK AO2 SLP160 T00890000=
202303061753 METAR KBLI 061753Z 03006KT 10SM CLR 08/00 A2998 RMK AO2 SLP160 T00830000 10083 20017 51008=
202303061653 METAR KBLI 061653Z 04007KT 10SM CLR 06/01 A2997 RMK AO2 SLP159 T00610011=
202303061553 METAR KBLI 061553Z 04006KT 10SM CLR 03/00 A2997 RMK AO2 SLP156 T00330000=
202303061453 METAR KBLI 061453Z 01005KT 10SM CLR 02/01 A2996 RMK AO2 SLP153 T00170006 53005=
202303061353 METAR KBLI 061353Z AUTO 08006KT 10SM OVC070 03/02 A2995 RMK AO2 SLP150 T00330022=
202303061253 METAR KBLI 061253Z AUTO 05004KT 10SM SCT045 OVC070 04/01 A2995 RMK AO2 SLP149 T00440011=
202303061153 METAR KBLI 061153Z AUTO 12006KT 10SM OVC050 05/02 A2994 RMK AO2 RAB24E30 SLP147 P0000 60000 T00500022 10061 20033 53005=
202303061053 METAR KBLI 061053Z AUTO 00000KT 10SM FEW023 OVC050 03/02 A2993 RMK AO2 SLP144 T00330022=
202303061049 SPECI KBLI 061049Z AUTO 00000KT 10SM SCT023 OVC048 04/02 A2993 RMK AO2=
202303061024 SPECI KBLI 061024Z AUTO 00000KT 10SM BKN024 BKN029 OVC085 03/02 A2993 RMK AO2 T00330022=
202303060953 METAR KBLI 060953Z AUTO 00000KT 10SM FEW046 OVC085 03/02 A2993 RMK AO2 SLP143 T00330022=
202303060853 METAR KBLI 060853Z AUTO 00000KT 10SM FEW019 OVC100 04/03 A2991 RMK AO2 SLP136 T00390028 51020=
202303060813 SPECI KBLI 060813Z AUTO 18006KT 10SM FEW013 SCT023 BKN110 04/03 A2990 RMK AO2 T00440028=
202303060753 METAR KBLI 060753Z AUTO 17007KT 10SM SCT013 BKN025 04/03 A2990 RMK AO2 SLP133 T00440028 401061011=
202303060707 SPECI KBLI 060707Z AUTO 18007KT 10SM FEW012 BKN026 BKN120 05/04 A2988 RMK AO2 T00500039=
202303060653 METAR KBLI 060653Z AUTO 18009KT 10SM FEW012 SCT060 BKN120 05/04 A2988 RMK AO2 SLP127 T00500039=
202303060553 METAR KBLI 060553Z 18009KT 10SM BKN060 BKN085 OVC110 06/03 A2985 RMK AO2 SLP117 T00610028 10094 20039 53017=
202303060453 METAR KBLI 060453Z 00000KT 10SM CLR 05/00 A2982 RMK AO2 SLP107 T00500000=
202303060353 METAR KBLI 060353Z 36003KT 10SM FEW070 BKN110 06/00 A2981 RMK AO2 SLP104 T00560000=
202303060253 METAR KBLI 060253Z 33004KT 10SM SCT080 BKN110 06/01 A2980 RMK AO2 SLP101 T00610006 53014=
202303060153 METAR KBLI 060153Z 36004KT 10SM FEW060 BKN100 08/00 A2979 RMK AO2 SLP096 T00780000=
202303060053 METAR KBLI 060053Z 03006KT 10SM SCT060 BKN100 08/00 A2977 RMK AO2 SLP091 T00830000=
202303052353 METAR KBLI 052353Z 03005KT 10SM CLR 09/00 A2976 RMK AO2 SLP087 T00940000 10106 20061 53008=
202303052253 METAR KBLI 052253Z 36007KT 10SM CLR 10/01 A2975 RMK AO2 SLP083 T01000006=
202303052153 METAR KBLI 052153Z 01009KT 10SM SCT060 11/00 A2974 RMK AO2 SLP077 T01060000=
202303052053 METAR KBLI 052053Z 03008KT 10SM CLR 09/01 A2974 RMK AO2 SLP078 T00940006 50002=
202303051953 METAR KBLI 051953Z 02008KT 10SM FEW036 09/01 A2974 RMK AO2 SLP079 T00890011=
202303051853 METAR KBLI 051853Z 03008KT 10SM CLR 09/02 A2974 RMK AO2 SLP078 T00890017=
202303051753 METAR KBLI 051753Z VRB03KT 10SM CLR 07/02 A2973 RMK AO2 SLP076 T00670017 10067 21011 51017=
202303051653 METAR KBLI 051653Z 04004KT 10SM BKN110 03/01 A2972 RMK AO2 SLP073 T00330006=
202303051553 METAR KBLI 051553Z 00000KT 10SM BKN060 01/00 A2971 RMK AO2 SLP069 T00110000=
202303051453 METAR KBLI 051453Z 01003KT 10SM CLR 01/M01 A2968 RMK AO2 SLP060 T00061006 53006=
202303051353 METAR KBLI 051353Z AUTO 01003KT 10SM CLR M01/M01 A2967 RMK AO2 SLP056 T10061011=
202303051253 METAR KBLI 051253Z AUTO 00000KT 10SM SCT065 00/M01 A2967 RMK AO2 SLP057 T00001006=
202303051153 METAR KBLI 051153Z AUTO 08003KT 10SM CLR 01/00 A2966 RMK AO2 SLP054 70004 T00110000 10061 21006 52005=
202303051053 METAR KBLI 051053Z AUTO 00000KT 10SM CLR 01/00 A2966 RMK AO2 SLP051 T00110000=
202303050953 METAR KBLI 050953Z AUTO 00000KT 10SM CLR 02/00 A2966 RMK AO2 SLP052 T00220000=
202303050853 METAR KBLI 050853Z AUTO 04004KT 10SM SCT055 04/00 A2965 RMK AO2 SLP050 T00440000 51018=
202303050753 METAR KBLI 050753Z AUTO 14008KT 10SM CLR 04/00 A2964 RMK AO2 SLP044 T00440000 400720028=
202303050653 METAR KBLI 050653Z AUTO 13007KT 10SM CLR 05/01 A2962 RMK AO2 SLP038 T00500006=
202303050553 METAR KBLI 050553Z 17009KT 10SM SCT050 BKN100 06/02 A2960 RMK AO2 SLP032 T00610017 10072 20056 53026=
202303050453 METAR KBLI 050453Z 10006KT 10SM OVC055 06/00 A2956 RMK AO2 SLP020 T00610000=
202303050353 METAR KBLI 050353Z 09005KT 10SM BKN055 06/00 A2954 RMK AO2 SLP012 T00610000=
202303050253 METAR KBLI 050253Z 06003KT 10SM FEW030 BKN060 06/01 A2952 RMK AO2 SLP006 T00610011 53014=
202303050153 METAR KBLI 050153Z 05007KT 10SM FEW030 BKN065 06/01 A2950 RMK AO2 SLP997 T00610011=
202303050053 METAR KBLI 050053Z 11007KT 10SM FEW030 BKN070 07/01 A2949 RMK AO2 SLP995 T00670011=
202303042353 METAR KBLI 042353Z 08008KT 10SM BKN044 OVC055 07/01 A2948 RMK AO2 RAB29E51 SLP991 P0000 60004 T00670011 10067 20033 55000=
202303042253 METAR KBLI 042253Z 03010KT 10SM FEW020 SCT040 OVC060 06/00 A2947 RMK AO2 SLP989 T00610000=
202303042153 METAR KBLI 042153Z 04009KT 10SM FEW010 SCT040 OVC070 05/02 A2946 RMK AO2 RAE05 SLP986 P0000 T00500022=
202303042130 SPECI KBLI 042130Z 05011KT 10SM FEW010 SCT030 BKN070 04/03 A2947 RMK AO2 RAE05 P0000 T00440033=
202303042053 METAR KBLI 042053Z 03007KT 7SM -RA BKN016 OVC021 04/03 A2948 RMK AO2 SLP992 P0002 60004 T00390028 58009=
202303041953 METAR KBLI 041953Z 05007KT 7SM -RA BKN016 BKN025 OVC036 04/03 A2950 RMK AO2 SLP999 P0002 T00390033=
202303041853 METAR KBLI 041853Z 08008KT 5SM -RA BKN011 BKN040 OVC050 04/01 A2951 RMK AO2 RAB34 SLP001 P0000 T00440011=
202303041848 SPECI KBLI 041848Z 10006KT 5SM -RA BKN011 BKN040 OVC050 05/01 A2951 RMK AO2 RAB34 P0000=
202303041753 METAR KBLI 041753Z 03008KT 10SM OVC070 04/M01 A2950 RMK AO2 SLP997 T00391011 10044 20028 58014=
202303041653 METAR KBLI 041653Z 04009KT 10SM OVC065 04/M01 A2951 RMK AO2 SLP002 T00391011=
202303041553 METAR KBLI 041553Z 04005KT 10SM OVC045 03/M01 A2953 RMK AO2 SLP007 T00331006=
202303041453 METAR KBLI 041453Z 04007KT 10SM OVC037 03/01 A2954 RMK AO2 SLP011 T00280006 58017=
202303041353 METAR KBLI 041353Z AUTO 04006KT 10SM OVC036 03/02 A2956 RMK AO2 SLP019 T00330017=
202303041253 METAR KBLI 041253Z AUTO 06005KT 10SM OVC032 03/02 A2958 RMK AO2 SLP024 T00280022=
202303041153 METAR KBLI 041153Z AUTO 04003KT 10SM OVC032 03/02 A2959 RMK AO2 RAB29E41UPB41E49 SLP028 P0000 60000 70003 T00280022 10050 20028 56023=
202303041053 METAR KBLI 041053Z AUTO 05004KT 10SM OVC031 03/02 A2961 RMK AO2 RAE03B37E46 SLP035 P0000 T00280022=
202303040953 METAR KBLI 040953Z AUTO 06004KT 10SM -RA OVC031 03/02 A2963 RMK AO2 RAB03 SLP044 P0000 T00330022=
202303040925 SPECI KBLI 040925Z AUTO 07004KT 8SM -RA BKN023 OVC033 03/02 A2964 RMK AO2 RAB03 P0000 T00330017=
202303040853 METAR KBLI 040853Z AUTO 05004KT 10SM FEW025 OVC035 03/02 A2966 RMK AO2 SLP051 T00330017 58018=
202303040753 METAR KBLI 040753Z AUTO 08004KT 10SM SCT025 OVC030 04/02 A2968 RMK AO2 SLP059 T00390017 400670033=
202303040714 SPECI KBLI 040714Z AUTO 02004KT 10SM OVC031 04/01 A2969 RMK AO2 T00390011=
202303040653 METAR KBLI 040653Z AUTO 12004KT 10SM OVC026 04/01 A2969 RMK AO2 SLP064 T00440011=
202303040624 SPECI KBLI 040624Z AUTO 13008KT 10SM BKN024 BKN042 OVC080 05/01 A2971 RMK AO2 T00500011=
202303040553 METAR KBLI 040553Z 13008KT 10SM FEW020 BKN030 OVC075 04/02 A2971 RMK AO2 SLP069 T00440017 10067 20044 58016=
202303040453 METAR KBLI 040453Z 15012G18KT 10SM BKN024 OVC035 05/02 A2973 RMK AO2 SLP075 T00500017=
202303040353 METAR KBLI 040353Z 14009G17KT 10SM BKN024 OVC035 05/02 A2974 RMK AO2 SLP079 T00500017=
202303040253 METAR KBLI 040253Z 15011KT 10SM SCT023 BKN028 OVC040 05/02 A2975 RMK AO2 SLP085 T00500017 56022=
202303040153 METAR KBLI 040153Z 14012KT 10SM FEW010 SCT016 BKN035 05/02 A2977 RMK AO2 SLP091 T00500022=
202303040053 METAR KBLI 040053Z 16008KT 10SM FEW020 BKN060 BKN080 06/02 A2979 RMK AO2 SLP098 T00610022=
202303032353 METAR KBLI 032353Z 15009G15KT 10SM FEW020 SCT055 BKN095 07/02 A2982 RMK AO2 SLP107 60003 T00670022 10067 20033 57022=
202303032314 SPECI KBLI 032314Z 16007KT 10SM FEW020 SCT055 BKN095 07/02 A2984 RMK AO2 T00670022=
202303032312 SPECI KBLI 032312Z 18006KT 10SM BKN025 BKN080 OVC090 07/02 A2984 RMK AO2 T00670022=
202303032253 METAR KBLI 032253Z 17008KT 10SM FEW020 SCT055 BKN095 07/02 A2984 RMK AO2 SLP114 T00670022=
202303032153 METAR KBLI 032153Z 17007KT 10SM FEW020 SCT040 BKN090 06/03 A2986 RMK AO2 SLP121 T00610028=
202303032053 METAR KBLI 032053Z 17011KT 10SM SCT016 BKN023 OVC037 06/03 A2988 RMK AO2 RAE20 SLP129 P0000 60003 T00610033 58017=
202303031953 METAR KBLI 031953Z 16012G18KT 8SM -RA SCT012 BKN016 OVC034 05/04 A2991 RMK AO2 RAE08B44 SLP138 P0000 T00500039=
202303031853 METAR KBLI 031853Z 16011KT 6SM -RA BR BKN016 BKN026 OVC045 04/03 A2993 RMK AO2 RAB06 SLP144 P0003 T00390028=
202303031753 METAR KBLI 031753Z 17011G19KT 10SM BKN016 BKN042 OVC070 04/02 A2994 RMK AO2 SLP146 60000 T00440022 10050 20033 58000=
202303031653 METAR KBLI 031653Z 17011G20KT 10SM OVC021 04/02 A2994 RMK AO2 SLP148 T00390022=
202303031553 METAR KBLI 031553Z 18010G19KT 10SM OVC017 04/02 A2994 RMK AO2 SLP148 T00390022=
202303031453 METAR KBLI 031453Z 18008KT 10SM SCT016 BKN023 OVC055 03/02 A2994 RMK AO2 SLP146 60000 T00330022 58007=
202303031402 SPECI KBLI 031402Z AUTO 17013G21KT 10SM SCT018 BKN026 OVC055 03/02 A2995 RMK AO2 T00330022=
202303031353 METAR KBLI 031353Z AUTO 17010G18KT 10SM FEW018 BKN034 OVC070 03/02 A2995 RMK AO2 RAB24E43 SLP150 P0000 T00330022=
202303031322 SPECI KBLI 031322Z AUTO 18011G16KT 10SM SCT017 BKN023 OVC044 04/02 A2995 RMK AO2 T00390022=
202303031253 METAR KBLI 031253Z AUTO 18009KT 10SM FEW020 BKN044 OVC065 04/02 A2996 RMK AO2 SLP153 T00390022=
202303031227 SPECI KBLI 031227Z AUTO 18006KT 10SM SCT025 BKN060 OVC080 04/02 A2995 RMK AO2 T00440017=
202303031153 METAR KBLI 031153Z AUTO 19005KT 10SM FEW013 BKN026 OVC035 04/02 A2996 RMK AO2 RAB00E51 SLP153 P0000 60000 70003 T00390022 10050 20039 58000=
202303031101 SPECI KBLI 031101Z AUTO 20011G19KT 160V260 10SM -RA SCT017 BKN024 OVC095 04/02 A2997 RMK AO2 RAB00 P0000 T00440022=
202303031053 METAR KBLI 031053Z AUTO VRB05G16KT 10SM SCT022 BKN043 OVC095 04/02 A2996 RMK AO2 SLP153 T00440022=
202303030953 METAR KBLI 030953Z AUTO 19008KT 160V230 10SM SCT110 04/02 A2996 RMK AO2 SLP155 T00440017=
202303030853 METAR KBLI 030853Z AUTO 20007G16KT 180V240 10SM FEW070 BKN090 04/01 A2996 RMK AO2 SLP153 T00440011 51001=
202303030753 METAR KBLI 030753Z AUTO 19008KT 10SM FEW070 BKN110 04/01 A2996 RMK AO2 SLP153 T00440011 400940033=
202303030653 METAR KBLI 030653Z AUTO 19005KT 10SM OVC100 04/01 A2996 RMK AO2 SLP154 T00440006=
202303030553 METAR KBLI 030553Z 18005KT 10SM CLR 04/M01 A2996 RMK AO2 SLP153 T00441011 10078 20044 51014=
202303030453 METAR KBLI 030453Z VRB05KT 10SM FEW020 SCT100 05/M02 A2995 RMK AO2 SLP151 T00501022=
202303030353 METAR KBLI 030353Z VRB05KT 10SM FEW020 SCT120 05/00 A2994 RMK AO2 SLP147 T00500000=
202303030253 METAR KBLI 030253Z 20005KT 10SM FEW025 SCT070 06/01 A2992 RMK AO2 SLP140 T00560011 53007=
202303030153 METAR KBLI 030153Z 19007G16KT 10SM CLR 06/02 A2990 RMK AO2 SLP135 T00560017=
202303030053 METAR KBLI 030053Z 20007G18KT 10SM FEW025 SCT045 BKN060 06/02 A2990 RMK AO2 SLP135 T00610017=
202303022353 METAR KBLI 022353Z 23009G17KT 10SM SCT110 08/M01 A2990 RMK AO2 SLP131 T00781011 10094 20056 53007=
202303022253 METAR KBLI 022253Z 18005KT 10SM BKN080 BKN110 09/01 A2987 RMK AO2 SLP124 T00890011=
202303022153 METAR KBLI 022153Z VRB06KT 10SM CLR 09/01 A2988 RMK AO2 SLP125 T00890011=
202303022053 METAR KBLI 022053Z 10SM SCT034 08/01 A2988 RMK AO2 SLP125 T00830011 50023=
202303021953 METAR KBLI 021953Z 27009G18KT 10SM FEW040 BKN055 09/02 A2988 RMK AO2 SLP125 T00890017=
202303021853 METAR KBLI 021853Z VRB04KT 10SM BKN070 08/03 A2985 RMK AO2 SLP116 T00780033=
202303021753 METAR KBLI 021753Z 20010G20KT 170V230 10SM FEW027 BKN033 OVC100 06/04 A2981 RMK AO2 PK WND 19027/1707 SLP103 60003 T00560039 10056 20033 51013=
202303021713 SPECI KBLI 021713Z 18011G27KT 10SM SCT014 OVC021 05/03 A2980 RMK AO2 PK WND 19027/1707 T00500033=
202303021653 METAR KBLI 021653Z 17013G24KT 10SM BKN013 OVC021 04/03 A2979 RMK AO2 PK WND 16032/1605 SLP096 T00440033=
202303021637 SPECI KBLI 021637Z 18012G24KT 10SM BKN013 OVC018 04/03 A2978 RMK AO2 PK WND 16032/1605 T00440033=
202303021607 SPECI KBLI 021607Z 17017G32KT 10SM FEW011 BKN020 BKN080 04/03 A2978 RMK AO2 PK WND 16032/1605 T00440033=
202303021600 SPECI KBLI 021600Z 18015G30KT 10SM FEW013 SCT020 BKN070 04/03 A2978 RMK AO2 PK WND 16027/1554 T00390033=
202303021553 METAR KBLI 021553Z 17017G30KT 10SM SCT015 BKN026 OVC046 04/03 A2977 RMK AO2 PK WND 19035/1532 RAE44 SLP090 P0000 T00390033=
202303021509 SPECI KBLI 021509Z 18017G30KT 6SM -RA BR SCT015 BKN026 OVC046 04/03 A2977 RMK AO2 PK WND 17032/1454 P0000 T00390028=
202303021453 METAR KBLI 021453Z 17020G31KT 8SM -RA FEW014 OVC037 04/03 A2978 RMK AO2 PK WND 20036/1439 SLP093 P0001 60003 T00390028 56010=
202303021353 METAR KBLI 021353Z AUTO 17021G37KT 9SM -RA FEW016 FEW028 OVC032 04/01 A2978 RMK AO2 PK WND 16037/1346 SLP094 P0001 T00440011=
202303021328 SPECI KBLI 021328Z AUTO 17021G35KT 9SM -RA FEW018 OVC030 04/01 A2979 RMK AO2 PK WND 17035/1327 P0000 T00440011=
202303021253 METAR KBLI 021253Z AUTO 17019G32KT 10SM -RA BKN019 OVC028 04/01 A2979 RMK AO2 PK WND 17036/1159 SLP095 P0001 T00440011=
202303021153 METAR KBLI 021153Z AUTO 16019G34KT 9SM -RA BKN020 OVC035 04/01 A2981 RMK AO2 PK WND 16041/1131 RAE03B32 SLP103 P0000 60000 T00440011 10050 20044 58029=
202303021053 METAR KBLI 021053Z AUTO 16020G35KT 10SM -RA OVC021 04/01 A2984 RMK AO2 PK WND 16035/1052 RAB50 SLP113 P0000 T00440011=
202303020953 METAR KBLI 020953Z AUTO 16022G33KT 10SM BKN023 BKN030 OVC060 04/01 A2989 RMK AO2 PK WND 16036/0923 SLP129 T00440011=
202303020853 METAR KBLI 020853Z AUTO 17020G36KT 10SM OVC022 04/01 A2990 RMK AO2 PK WND 16036/0846 RAE22 SLP132 P0000 60000 T00440011 58036=
202303020753 METAR KBLI 020753Z AUTO 17011G22KT 10SM -RA OVC024 04/01 A2994 RMK AO2 RAB47 SLP148 P0000 T00440011 400501039=
202303020745 SPECI KBLI 020745Z AUTO 16015G23KT 10SM BKN026 OVC060 04/01 A2995 RMK AO2 T00440011=
202303020653 METAR KBLI 020653Z AUTO 16013KT 10SM FEW021 FEW027 OVC065 04/01 A2998 RMK AO2 RAE02 SLP161 P0000 T00440011=
202303020553 METAR KBLI 020553Z 16010KT 10SM -RA FEW026 SCT036 OVC050 05/01 A3000 RMK AO2 RAB20 SLP169 P0000 60000 T00500011 10050 20028 58022=
202303020453 METAR KBLI 020453Z 00000KT 10SM SCT030 SCT049 OVC065 04/01 A3003 RMK AO2 SLP177 T00440006=
202303020353 METAR KBLI 020353Z 18004KT 10SM OVC060 04/00 A3005 RMK AO2 SLP184 T00440000=
202303020253 METAR KBLI 020253Z 15008KT 10SM OVC055 04/01 A3007 RMK AO2 SLP192 T00440011 56005=
202303020153 METAR KBLI 020153Z 17006KT 10SM BKN065 OVC085 05/01 A3007 RMK AO2 SLP192 T00500011=
202303020053 METAR KBLI 020053Z 17009KT 10SM FEW060 OVC085 05/01 A3008 RMK AO2 SLP195 T00500011=
202303012353 METAR KBLI 012353Z 18011KT 10SM FEW060 OVC075 05/01 A3008 RMK AO2 SLP197 T00500011 10050 20028 58002=
202303012253 METAR KBLI 012253Z 18011G18KT 10SM BKN033 OVC044 04/01 A3010 RMK AO2 SLP204 T00440011=
202303012153 METAR KBLI 012153Z 18010G18KT 10SM BKN085 OVC100 04/01 A3008 RMK AO2 SLP197 T00440011=
202303012053 METAR KBLI 012053Z 20008KT 10SM BKN045 OVC100 04/01 A3009 RMK AO2 SLP200 T00390011 53015=
202303011953 METAR KBLI 011953Z 19009G18KT 10SM SCT037 04/01 A3008 RMK AO2 SLP195 T00390011=
202303011853 METAR KBLI 011853Z 18009KT 10SM FEW021 SCT034 04/01 A3005 RMK AO2 SLP185 T00390006=
202303011753 METAR KBLI 011753Z 19010KT 10SM SCT018 OVC060 03/01 A3004 RMK AO2 SLP184 I1000 I6002 T00280011 10028 21033 53010=
202303011709 SPECI KBLI 011709Z 18008KT 10SM FEW015 BKN060 02/01 A3004 RMK AO2 I1000 T00170011=
202303011653 METAR KBLI 011653Z 18006KT 10SM BKN017 BKN027 01/01 A3003 RMK AO2 SLP179 I1001 T00110011=
202303011623 SPECI KBLI 011623Z 18003KT 10SM BKN016 BKN030 OVC035 00/00 A3002 RMK AO2 I1001 T00000000=
202303011553 METAR KBLI 011553Z 00000KT 9SM BKN030 OVC039 M01/M01 A3001 RMK AO2 SLP174 I1001 T10111011=
202303011549 SPECI KBLI 011549Z 00000KT 8SM BKN030 OVC039 M01/M01 A3001 RMK AO2 I1001=
202303011542 SPECI KBLI 011542Z 00000KT 8SM BKN029 OVC039 M02/M02 A3001 RMK AO2 I1001 T10171017=
202303011453 METAR KBLI 011453Z 00000KT 7SM BKN037 M03/M03 A3001 RMK AO2 SLP171 I3000 T10281028 51020=
202303011353 METAR KBLI 011353Z AUTO 00000KT 9SM FEW030 SCT055 M02/M02 A3000 RMK AO2 SLP168 I1000 T10221022=
202303011253 METAR KBLI 011253Z AUTO 00000KT 7SM OVC031 M03/M03 A2997 RMK AO2 SLP160 I1000 T10331033=
202303011153 METAR KBLI 011153Z AUTO 00000KT 3SM BR BKN030 M03/M03 A2995 RMK AO2 SLP151 70032 I6000 T10331033 11011 21039 51014=
202303011151 SPECI KBLI 011151Z AUTO 00000KT 5SM BR BKN030 M03/M03 A2995 RMK AO2=
202303011140 SPECI KBLI 011140Z AUTO 00000KT 4SM BR BKN028 M03/M03 A2995 RMK AO2 T10331033=
202303011138 SPECI KBLI 011138Z AUTO 00000KT 2 1/2SM BR SCT028 M03/M03 A2995 RMK AO2 PRESRR T10331033=
202303011119 SPECI KBLI 011119Z AUTO 00000KT 5SM BR SCT028 M03/M03 A2992 RMK AO2 T10331033=
202303011110 SPECI KBLI 011110Z AUTO 00000KT 4SM BR BKN028 M03/M03 A2992 RMK AO2 T10281028=
202303011102 SPECI KBLI 011102Z AUTO 00000KT 2 1/2SM BR BKN028 M03/M03 A2991 RMK AO2 T10331033=
202303011053 METAR KBLI 011053Z AUTO 00000KT 1 1/4SM BR BKN028 M03/M03 A2992 RMK AO2 SLP140 I1000 T10331033=
202303011042 SPECI KBLI 011042Z AUTO 00000KT 1 1/4SM BR BKN029 M03/M03 A2992 RMK AO2 I1000 T10331033=
202303011036 SPECI KBLI 011036Z AUTO 00000KT 3SM BR BKN029 M03/M03 A2992 RMK AO2 T10331033=
202303011027 SPECI KBLI 011027Z AUTO 00000KT 3SM BR SCT029 M03/M03 A2992 RMK AO2 T10281028=
202303011021 SPECI KBLI 011021Z AUTO 00000KT 1 1/4SM BR FEW001 FEW029 M04/M04 A2992 RMK AO2 T10391039=
202303011019 SPECI KBLI 011019Z AUTO 35003KT 3/4SM R16/1800VP6000FT BR VV001 M03/M03 A2992 RMK AO2 T10331033=
202303011010 SPECI KBLI 011010Z AUTO 00000KT 1/4SM R16/1600V6000FT FZFG VV001 M04/M04 A2991 RMK AO2 T10391039=
202303011003 SPECI KBLI 011003Z AUTO 00000KT 1/2SM R16/1600V2800FT FZFG VV001 M03/M03 A2991 RMK AO2 T10331033=
202303010953 METAR KBLI 010953Z AUTO 00000KT 1/4SM R16/1400V5000FT FZFG VV001 M03/M03 A2991 RMK AO2 SLP137 T10281028=
202303010940 SPECI KBLI 010940Z AUTO 00000KT 1/4SM R16/1600V2400FT FZFG VV001 M03/M03 A2989 RMK AO2 T10281028=
202303010920 SPECI KBLI 010920Z AUTO 05003KT M1/4SM R16/0800V1200FT FZFG VV001 M03/M03 A2988 RMK AO2 T10331033=
202303010853 METAR KBLI 010853Z AUTO 00000KT 1/4SM R16/1600VP6000FT FZFG VV001 M03/M03 A2987 RMK AO2 SLP125 I1000 I3000 T10281028 50007=
202303010848 SPECI KBLI 010848Z AUTO 00000KT 1/4SM R16/1600VP6000FT FZFG VV001 M03/M03 A2987 RMK AO2=
202303010837 SPECI KBLI 010837Z AUTO 00000KT 1/2SM R16/2600VP6000FT FZFG VV001 M03/M03 A2986 RMK AO2 T10281028=
202303010835 SPECI KBLI 010835Z AUTO 00000KT 1SM R16/3000VP6000FT BR VV001 M02/M02 A2986 RMK AO2 T10221022=
202303010832 SPECI KBLI 010832Z AUTO 34003KT 2 1/2SM BR FEW001 M02/M02 A2986 RMK AO2 T10221022=
202303010830 SPECI KBLI 010830Z AUTO 34003KT 4SM BR CLR M02/M02 A2986 RMK AO2 T10221022=
202303010820 SPECI KBLI 010820Z AUTO 00000KT 2SM BR CLR M03/M03 A2986 RMK AO2 T10281028=
202303010753 METAR KBLI 010753Z AUTO 00000KT 4SM BR CLR M02/M02 A2985 RMK AO2 SLP118 I1000 T10221022 400441028=
202303010653 METAR KBLI 010653Z AUTO 35003KT 8SM BKN050 M01/M01 A2985 RMK AO2 SLP118 I1000 T10111011=
202303010553 METAR KBLI 010553Z 36003KT 10SM OVC043 M01/M01 A2980 RMK AO2 SLP101 I1000 I6001 T10111011 10039 21028 51023=
202303010453 METAR KBLI 010453Z 00000KT 10SM R16/3500VP6000FT CLR M03/M03 A2978 RMK AO2 SLP094 I1000 T10281028=
202303010353 METAR KBLI 010353Z 00000KT 10SM CLR M02/M02 A2975 RMK AO2 SLP085 I1001 T10221022=
202303010253 METAR KBLI 010253Z 00000KT 10SM CLR M01/M01 A2973 RMK AO2 SLP078 T10061006 51028=
202303010153 METAR KBLI 010153Z 00000KT 10SM R16/4500VP6000FT CLR 01/01 A2971 RMK AO2 SLP069 T00060006=
202303010147 SPECI KBLI 010147Z 00000KT 1 3/4SM BR CLR 01/01 A2970 RMK AO2 VIS 1V5=
202303010053 METAR KBLI 010053Z 00000KT 10SM SCT024 03/01 A2967 RMK AO2 SLP057 T00330011=

# No short TAF reports from KBLI in databse.

###################################
#  large TAF from KBLI
###################################
202303312346 TAF KBLI 312346Z 0100/0124 16017G28KT 6SM -RA BR SCT020 OVC025
                       FM010600 18010KT P6SM -SHRA OVC030 FM011700
                       16010KT P6SM OVC050=
202303311737 TAF KBLI 311737Z 3118/0118 18009G16KT P6SM VCSH OVC022 FM311900
                       16017G28KT 6SM -RA BR SCT020 OVC025 FM010600
                       18010KT P6SM -SHRA OVC030=
202303311136 TAF KBLI 311136Z 3112/0112 18009G16KT P6SM VCSH OVC022 FM311900
                       16017G28KT 6SM -RA BR SCT020 OVC025 FM010600
                       18010KT P6SM -SHRA OVC030=
202303310840 KBLI 310840Z 3109/0106 VRB05KT P6SM VCSH BKN025 OVC030
                      TEMPO 3109/3113 2SM -SHRA FM311900 16017G28KT
                       6SM -RA BR SCT020 OVC025=
202303310531 TAF KBLI 310531Z 3106/0106 18011KT P6SM SCT060 FM310800 19007KT
                       P6SM BKN040 OVC050 FM310900 16012G19KT P6SM
                       -RA BKN020 OVC025 FM311900 16017G28KT 6SM
                       -RA BR SCT020 OVC025=
202303302331 TAF KBLI 302331Z 3100/3124 18011KT P6SM SCT060 FM310300 19007KT
                       P6SM BKN040 OVC050 FM310900 16012G19KT P6SM
                       -RA BKN020 OVC025 FM311900 16017G28KT 6SM
                       -RA BR SCT020 OVC025=
202303301721 TAF KBLI 301721Z 3018/3118 19009KT P6SM FEW040 BKN250 FM301900
                       18009KT P6SM SCT060 FM310300 17008KT P6SM
                       BKN040 OVC050 FM310900 16011KT P6SM -RA
                       OVC025=
202303301352 KBLI 301352Z 3014/3112 17009KT P6SM BKN080 FM301900 18009KT P6SM
                       BKN060 FM302200 18010KT P6SM OVC050=
202303301139 TAF KBLI 301139Z 3012/3112 17005KT P6SM BKN080 FM301900 18009KT
                       P6SM BKN060 FM302200 18010KT P6SM OVC050=
202303300525 TAF KBLI 300525Z 3006/3106 VRB04KT P6SM BKN120 BKN200 FM301300
                       17007KT P6SM SCT250 FM301900 18009KT P6SM
                       BKN060 FM302200 18010KT P6SM OVC080=
202303292323 TAF KBLI 292323Z 3000/3024 28008KT P6SM BKN200 FM300400 VRB04KT
                       P6SM BKN120 BKN200 FM301300 17007KT P6SM
                       SCT250 FM301900 18009KT P6SM BKN060=
202303291720 TAF KBLI 291720Z 2918/3018 01009KT P6SM FEW200 FM292100 30006KT
                       P6SM SCT200 FM300000 VRB04KT P6SM OVC200
                       FM300700 VRB04KT P6SM BKN100 BKN200 FM301600
                       17007KT P6SM FEW030 SCT250=
202303291120 TAF KBLI 291120Z 2912/3012 03009KT P6SM FEW110 FM292100 27005KT
                       P6SM SCT200 FM300000 VRB04KT P6SM SCT200=
202303290521 TAF KBLI 290521Z 2906/3006 VRB03KT P6SM OVC090 FM290900 01006KT
                       P6SM SCT200 FM292100 27005KT P6SM SCT200=
202303282320 TAF KBLI 282320Z 2900/2924 03017G26KT P6SM SCT200 FM290300 02011KT
                       P6SM SCT200 FM290900 01006KT P6SM SCT200
                       FM292100 27005KT P6SM SCT200=
202303281723 TAF KBLI 281723Z 2818/2918 03017G26KT P6SM SCT200 FM290200 02008KT
                       P6SM SKC=
202303281120 TAF KBLI 281120Z 2812/2912 03010KT P6SM FEW120 FM281800 03017G26KT
                       P6SM FEW120 FM290200 02008KT P6SM SKC=
202303280521 TAF KBLI 280521Z 2806/2906 03007KT P6SM SCT200 FM281200 03010G18KT
                       P6SM SKC FM281800 03017G26KT P6SM SKC FM290200
                       02008KT P6SM SKC=
202303272338 TAF KBLI 272338Z 2800/2824 34008KT P6SM FEW080 SCT200 FM280600
                       03010KT P6SM SCT200 FM281300 03010G18KT
                       P6SM SKC FM281800 03014G22KT P6SM SKC=
202303271740 TAF KBLI 271740Z 2718/2818 03008KT P6SM SCT200 FM272200 34008KT
                       P6SM SCT200 FM280500 03006KT P6SM SCT200
                       FM281300 03013G20KT P6SM SKC=
202303271149 TAF KBLI 271149Z 2712/2812 00000KT P6SM BKN030 FM271500 04003KT
                       P6SM SCT250 FM272200 34007KT P6SM SCT250
                       FM280500 03005KT P6SM SCT250 FM281100 02009KT
                       P6SM SKC=
202303270549 TAF KBLI 270549Z 2706/2806 00000KT P6SM BKN060 FM271000 00000KT
                       6SM BR SCT060 FM271500 03003KT P6SM SCT250
                       FM272100 03010KT P6SM SCT250=
202303262320 TAF KBLI 262320Z 2700/2724 19004KT P6SM BKN050 FM270300 14005KT
                       P6SM BKN050 BKN150 FM270900 11005KT 6SM
                       BR SCT050 FM271500 03003KT P6SM SCT250=
202303261720 TAF KBLI 261720Z 2618/2718 18004KT P6SM SCT030 BKN060 FM270000
                       15004KT P6SM SCT050 FM271200 03003KT P6SM
                       SCT250=
202303261136 TAF KBLI 261136Z 2612/2712 00000KT P6SM SCT070 FM261600 16004KT
                       P6SM SCT030 BKN050 FM270000 17004KT P6SM
                       SCT050=
202303260538 TAF KBLI 260538Z 2606/2706 00000KT P6SM SCT035 FM261200 18004KT
                       P6SM BKN025 FM261700 15004KT P6SM SCT030
                       BKN050 FM270000 15004KT P6SM SCT050=
202303252338 TAF KBLI 252338Z 2600/2624 18006KT P6SM SCT035 BKN050 FM261200
                       18006KT P6SM BKN025 OVC040 FM261800 15006KT
                       P6SM SCT030 BKN050=
202303251737 TAF KBLI 251737Z 2518/2618 17005KT P6SM BKN020 OVC070 FM252100
                       18006KT P6SM SCT035 BKN050 FM260400 12003KT
                       P6SM SCT030 BKN050 FM260900 13003KT P6SM
                       VCSH OVC025=
202303251148 TAF KBLI 251148Z 2512/2612 16005KT P6SM OVC060 FM251500 17005KT
                       P6SM BKN020 FM252000 18006KT P6SM SCT030
                       BKN050 FM260400 13002KT P6SM SCT030 BKN050=
202303250535 TAF KBLI 250535Z 2506/2606 18006KT P6SM -SHRA SCT015 BKN025 FM251900
                       18006KT P6SM SCT030 BKN050=
202303242336 TAF KBLI 242336Z 2500/2524 17007KT P6SM VCSH SCT010 BKN022 OVC040
                       TEMPO 2500/2504 5SM -SHRASN BR BKN010 OVC020
                       FM250400 18005KT P6SM VCSH OVC020 FM251700
                       17005KT P6SM BKN025 OVC040 FM252200 18006KT
                       P6SM VCSH BKN035 BKN050=
202303242004 KBLI 242004Z 2420/2518 17010KT 6SM -SHRA BR BKN017 OVC030
                      TEMPO 2420/2421 2SM SHRA BR OVC015 FM242100
                       17007KT P6SM VCSH BKN030 BKN050 FM250500
                       18005KT P6SM VCSH OVC025=
202303241720 TAF KBLI 241720Z 2418/2518 17010KT 6SM -SHRA BR BKN017 OVC030 FM242100
                       17007KT P6SM VCSH BKN030 BKN050 FM250500
                       18005KT P6SM VCSH OVC025=
202303241141 TAF KBLI 241141Z 2412/2512 17010KT P6SM VCSH BKN010 OVC030 FM241500
                       18010KT P6SM -SHRA BKN030 OVC050 FM242300
                       18006KT P6SM SCT035 BKN050 FM250800 18003KT
                       P6SM OVC025=
202303240538 TAF KBLI 240538Z 2406/2506 18010KT P6SM SCT020 BKN035 OVC050 FM240900
                       18010KT P6SM SCT035 BKN050 FM241500 18010KT
                       P6SM -SHRA BKN030 OVC050 FM242300 18006KT
                       P6SM SCT035 BKN050=
202303232320 TAF KBLI 232320Z 2400/2424 17015G24KT P6SM -SHRA BKN030 FM240900
                       16008KT P6SM VCSH OVC025 FM241900 18010KT
                       P6SM -SHRA BKN035 OVC050=
202303231736 TAF KBLI 231736Z 2318/2418 17011KT P6SM VCSH OVC025 FM232100 15014G22KT
                       P6SM -RA OVC020 FM240000 17015G24KT P6SM
                       -SHRA BKN030 FM240900 16008KT P6SM -SHRA
                       OVC025=
202303231346 KBLI 231346Z 2314/2412 17008KT 2SM -RA BR FEW005 OVC015 FM231500
                       17010G20KT 6SM BR VCSH OVC025 FM232100 15015G22KT
                       P6SM -RA OVC020 FM240000 17015G24KT P6SM
                       -SHRA OVC035 FM240900 16008KT P6SM -SHRA
                       OVC050=
202303231140 TAF KBLI 231140Z 2312/2412 17008KT P6SM OVC030 FM231500 17010G20KT
                       6SM BR OVC025 FM232100 15015G22KT P6SM -RA
                       OVC020 FM240000 17015G24KT P6SM -SHRA OVC035
                       FM240900 16008KT P6SM -SHRA OVC050=
202303230539 TAF KBLI 230539Z 2306/2406 17005KT P6SM OVC100 FM231100 17008KT
                       6SM -SHRA BR OVC025 FM232100 15015G22KT
                       P6SM -SHRA OVC035=
202303222334 TAF KBLI 222334Z 2300/2324 22005KT P6SM SCT250 FM230500 17003KT
                       P6SM OVC100 FM231100 17008KT 6SM SHRA BR
                       OVC025 FM232100 15015G22KT P6SM -SHRA OVC025=
202303221731 TAF KBLI 221731Z 2218/2318 VRB03KT 3SM BR SCT002 FM221900 VRB03KT
                       P6SM SCT100 FM222200 22005KT P6SM SCT250
                       FM230500 17003KT P6SM OVC100 FM231100 17005KT
                       6SM SHRA BR OVC025=
202303221508 KBLI 221508Z 2215/2312 00000KT 1/4SM FG BKN002 FM221800 35003KT
                       P6SM SCT250 FM222200 22005KT P6SM SCT250=
202303221126 TAF KBLI 221126Z 2212/2312 00000KT 1/4SM FG BKN002 FM221400 01002KT
                       3/4SM BR BKN002 FM221800 35003KT P6SM SCT250
                       FM222200 22005KT P6SM SCT250=
202303220523 TAF KBLI 220523Z 2206/2306 VRB03KT P6SM SCT150 FM220900 02002KT
                       P6SM SKC FM221400 01002KT 3/4SM BR SKC FM221800
                       34003KT P6SM SCT250=
202303212336 TAF KBLI 212336Z 2200/2224 30008KT P6SM SCT150 FM220900 02002KT
                       P6SM SKC FM221800 34003KT P6SM SCT250=
202303211735 TAF KBLI 211735Z 2118/2218 34003KT 6SM BR OVC004 FM212100 33004KT
                       P6SM OVC050 FM220000 31004KT P6SM SCT150=
202303211347 KBLI 211347Z 2114/2212 00000KT 1 1/2SM BR FEW006 OVC010 FM211700
                       33003KT 4SM BR OVC009 FM211800 34003KT 6SM
                       BR OVC015 FM212100 33004KT P6SM OVC050 FM220000
                       31004KT P6SM FEW250=
202303211137 TAF KBLI 211137Z 2112/2212 18003KT 5SM -RA BR SCT005 OVC020 FM211400
                       00000KT 5SM BR OVC004 FM211700 33003KT 5SM
                       BR OVC009 FM211800 34003KT 6SM BR OVC015
                       FM212100 33004KT P6SM OVC050 FM220000 31004KT
                       P6SM FEW250=
202303210529 TAF KBLI 210529Z 2106/2206 17005KT 6SM -SHRA OVC020 FM211000 18003KT
                       P6SM OVC015 FM212100 31004KT P6SM OVC050=
202303202323 TAF KBLI 202323Z 2100/2124 18006KT P6SM -SHRA OVC020 FM210200 17005KT
                       6SM -RA BR OVC018 FM211000 18003KT 6SM -RA
                       BR OVC015 FM212100 31004KT P6SM OVC050=
202303201740 TAF KBLI 201740Z 2018/2118 15004KT P6SM -RA OVC035 FM202100 18006KT
                       P6SM -SHRA OVC020 FM210200 17005KT 6SM -RA
                       BR OVC018 FM211000 18003KT 6SM -RA BR OVC015=
202303201131 TAF KBLI 201131Z 2012/2112 VRB03KT 6SM -RA SCT040 OVC060 FM201600
                       15004KT P6SM -RA OVC030 FM202100 18006KT
                       P6SM -SHRA OVC020 FM210200 17005KT 6SM -RA
                       BR OVC018=
202303200520 TAF KBLI 200520Z 2006/2106 VRB03KT P6SM OVC080 FM201200 14005KT
                       P6SM -RA OVC040 FM201600 13004KT P6SM -RA
                       OVC015 FM202100 17006KT P6SM VCSH OVC025
                       FM210200 17005KT 6SM -RA BR OVC025=
202303192324 TAF KBLI 192324Z 2000/2024 36005KT P6SM OVC120 FM200400 01004KT
                       P6SM OVC050 FM200700 03004KT P6SM -RA OVC040
                       FM201200 14005KT P6SM -RA OVC015 FM202100
                       18006KT P6SM VCSH OVC025=
202303191735 TAF KBLI 191735Z 1918/2018 01005KT P6SM OVC100 FM200400 15006KT
                       P6SM OVC050 FM200700 16004KT P6SM -RA OVC040
                       FM201200 14005KT P6SM -RA OVC015=
202303191125 TAF KBLI 191125Z 1912/2012 VRB03KT P6SM BKN100 OVC250 FM192100
                       02006KT P6SM OVC100 FM200300 15006KT P6SM
                       OVC050 FM200700 16004KT P6SM -RA OVC040=
202303190520 TAF KBLI 190520Z 1906/2006 VRB03KT P6SM SCT250 FM191400 04005KT
                       P6SM BKN100 OVC250 FM192200 36007KT P6SM
                       OVC100 FM200300 06003KT P6SM OVC050=
202303182320 TAF KBLI 182320Z 1900/1924 VRB05KT P6SM FEW250 FM190300 01003KT
                       P6SM SCT250 FM191400 02004KT P6SM BKN100
                       OVC250 FM192200 02007KT P6SM OVC100=
202303181727 TAF KBLI 181727Z 1818/1918 36005KT P6SM SKC FM190200 04003KT P6SM
                       BKN250=
202303181120 TAF KBLI 181120Z 1812/1912 05003KT P6SM SKC FM181800 01004KT P6SM
                       SKC FM182100 33005KT P6SM SKC FM190200 04003KT
                       P6SM BKN250=
202303180520 TAF KBLI 180520Z 1806/1906 VRB03KT P6SM SCT150 OVC200 FM181200
                       36003KT P6SM OVC100 FM181800 01004KT P6SM
                       SCT250 FM182100 28005KT P6SM FEW250 FM190200
                       VRB03KT P6SM SKC=
202303172320 TAF KBLI 172320Z 1800/1824 03009KT P6SM BKN250 FM180300 36004KT
                       P6SM SCT150 OVC200 FM181200 36003KT P6SM
                       OVC100 FM181800 01004KT P6SM SCT250=
202303171720 TAF KBLI 171720Z 1718/1818 04007KT P6SM SCT250 FM180300 04002KT
                       P6SM SCT150 OVC200=
202303171120 TAF KBLI 171120Z 1712/1812 03003KT 5SM BR SKC FM171500 03004KT
                       P6SM SKC FM172100 35004KT P6SM BKN200 FM180200
                       04002KT P6SM SCT150 OVC200=
202303170734 KBLI 170734Z 1708/1806 03003KT P6SM SCT250
                      TEMPO 1708/1711 1SM BR BKN002 FM171100 03004KT
                       P6SM SKC FM172100 35004KT P6SM BKN200=
202303170530 TAF KBLI 170530Z 1706/1806 03003KT P6SM SCT250 FM172100 35004KT
                       P6SM BKN200=
202303162321 TAF KBLI 162321Z 1700/1724 03009KT P6SM SCT200 FM170500 VRB04KT
                       P6SM SCT200 FM171900 02005KT P6SM BKN200=
202303162112 KBLI 162112Z 1621/1718 03010KT P6SM SCT200 FM170500 VRB04KT P6SM
                       SCT200=
202303161720 TAF KBLI 161720Z 1618/1718 35007KT P6SM SCT200 FM170500 VRB04KT
                       P6SM SCT200=
202303161120 TAF KBLI 161120Z 1612/1712 VRB03KT P6SM SCT030 BKN250 FM161800
                       36007KT P6SM BKN250 FM170500 VRB04KT P6SM
                       SCT250=
202303160521 TAF KBLI 160521Z 1606/1706 14003KT P6SM FEW050 FEW250 FM161200
                       03005KT P6SM BKN250 FM161700 04008KT P6SM
                       SKC FM162200 35006KT P6SM SKC=
202303152320 TAF KBLI 152320Z 1600/1624 18008KT P6SM FEW250 FM160300 VRB03KT
                       P6SM FEW050 FEW250 FM160800 03006KT P6SM
                       SCT060 BKN250 FM161500 04008KT P6SM FEW250=
202303151745 TAF KBLI 151745Z 1518/1618 18007KT P6SM FEW030 FM152000 23005KT
                       P6SM SKC FM160100 VRB03KT P6SM FEW050 FEW250
                       FM160800 03006KT P6SM SCT060 BKN250 FM161500
                       04008KT P6SM OVC250=
202303151125 TAF KBLI 151125Z 1512/1612 18005KT P6SM VCSH SCT030 BKN040 FM151400
                       23006KT P6SM SCT050 FM160100 VRB03KT P6SM
                       FEW070 FEW250=
202303150948 KBLI 150948Z 1510/1606 VRB03KT P6SM -RA BKN040 OVC060 FM151300
                       17006KT P6SM BKN050 FM152000 26006KT P6SM
                       BKN050 FM160100 VRB03KT P6SM FEW250=
202303150538 TAF KBLI 150538Z 1506/1606 VRB03KT P6SM SCT100 FM150900 18004KT
                       P6SM VCSH BKN040 BKN100 FM151200 17006KT
                       P6SM BKN050 FM152000 26006KT P6SM BKN050
                       FM160100 VRB03KT P6SM FEW250=
202303142330 TAF KBLI 142330Z 1500/1524 18009KT P6SM SCT045 SCT150 FM150900
                       VRB04KT P6SM VCSH BKN040 BKN100 FM151200
                       17007KT P6SM BKN050 FM152000 22006KT P6SM
                       BKN050=
202303141743 TAF KBLI 141743Z 1418/1518 16009KT P6SM BKN070 FM150300 25006KT
                       P6SM BKN070 BKN100 FM150900 VRB04KT P6SM
                       -SHRA BKN040 BKN100 FM151200 17007KT P6SM
                       BKN050=
202303141125 TAF KBLI 141125Z 1412/1512 17008KT P6SM VCSH BKN030 BKN060 FM141800
                       16009KT P6SM BKN070 FM150300 25006KT P6SM
                       BKN070 BKN100 FM150700 VRB04KT P6SM -RA
                       BKN040 BKN100=
202303140544 TAF KBLI 140544Z 1406/1506 18004KT P6SM SKC FM141000 16005KT P6SM
                       BKN070 FM142100 19008KT P6SM SCT250 FM150000
                       VRB03KT P6SM OVC100=
202303132327 TAF KBLI 132327Z 1400/1424 18010KT P6SM VCSH BKN035 OVC080 FM140600
                       17007KT P6SM VCSH BKN050 FM141200 17005KT
                       P6SM OVC060 FM142100 15008KT P6SM SCT250=
202303131723 TAF KBLI 131723Z 1318/1418 18010KT 6SM -RA BR BKN040 FM132200 20010KT
                       P6SM -SHRA BKN030 OVC050 FM140200 17007KT
                       P6SM -SHRA BKN035 BKN050 FM140600 17007KT
                       P6SM VCSH BKN050 FM141200 17005KT P6SM OVC100=
202303131124 TAF KBLI 131124Z 1312/1412 16007KT 2SM -RA BKN004 OVC020 FM131500
                       18010KT 6SM -RA BR SCT004 OVC020 FM132200
                       20010KT P6SM -SHRA BKN030 OVC050 FM140200
                       17007KT P6SM -SHRA BKN035 BKN050 FM140600
                       17007KT P6SM VCSH BKN050=
202303130524 TAF KBLI 130524Z 1306/1406 VRB04KT P6SM -RA OVC025 FM131000 16007KT
                       P6SM -RA OVC022 FM131400 18010KT 6SM -RA
                       BR OVC020 FM132200 17010KT P6SM -SHRA BKN030
                       OVC050 FM140200 17007KT P6SM -SHRA BKN035
                       BKN050=
202303130255 KBLI 130255Z 1303/1324 04007KT P6SM -RA OVC030 FM130600 12010KT
                       P6SM -RA OVC025 FM131000 14007KT P6SM -RA
                       OVC019 FM131500 15004KT 6SM -SHRA OVC035=
202303122330 TAF KBLI 122330Z 1300/1324 09007KT P6SM -RA OVC040 FM130100 14010G18KT
                       P6SM -RA OVC025 FM131000 14007KT P6SM -RA
                       OVC019 FM131500 15004KT 6SM -SHRA OVC035=
202303121731 TAF KBLI 121731Z 1218/1318 06006KT P6SM BKN080 FM122300 09007KT
                       P6SM -RA OVC040 FM130300 14010G18KT P6SM
                       -RA OVC025 FM131000 14007KT P6SM -RA OVC019
                       FM131500 15004KT 6SM -SHRA OVC015=
202303121122 TAF KBLI 121122Z 1212/1312 VRB03KT P6SM SCT050 SCT090 FM121800
                       06006KT P6SM BKN080 FM122300 09007KT P6SM
                       -RA OVC040 FM130300 14010G18KT P6SM -RA
                       OVC025=
202303120522 TAF KBLI 120522Z 1206/1306 09003KT P6SM BKN100 FM121000 09005KT
                       P6SM SCT050 BKN090 FM122000 07008KT P6SM
                       OVC070 FM122300 09007KT P6SM VCSH OVC040
                       FM130300 06010G18KT P6SM -RA OVC025=
202303112339 TAF KBLI 112339Z 1200/1224 16008KT P6SM BKN050 FM120800 09005KT
                       P6SM BKN050 FM122300 09007KT P6SM -RA OVC050=
202303111733 TAF KBLI 111733Z 1118/1218 14011G20KT P6SM VCSH BKN025 OVC040 FM112300
                       16008KT P6SM BKN035 OVC050 FM120500 08004KT
                       P6SM BKN050=
202303111121 TAF KBLI 111121Z 1112/1212 00000KT P6SM -SHRA BKN040 OVC070 FM111800
                       14011KT P6SM VCSH BKN025 OVC040 FM112100
                       16008KT P6SM BKN035 OVC050 FM120500 06004KT
                       P6SM BKN050 FM121000 11004KT P6SM OVC050=
202303110526 TAF KBLI 110526Z 1106/1206 18005KT P6SM VCSH SCT022 BKN050
                      TEMPO 1107/1111 -SHRA BKN025 OVC040 FM111100
                       16005KT P6SM -SHRA OVC025 FM111800 14011KT
                       P6SM VCSH BKN025 OVC040 FM112100 16008KT
                       P6SM BKN035 OVC050 FM120500 06004KT P6SM
                       BKN050=
202303110422 KBLI 110422Z 1104/1124 18005KT P6SM OVC020
                      TEMPO 1104/1107 SCT020 OVC040 FM110700 16005KT
                       P6SM OVC020 FM111800 14008KT P6SM BKN025
                       OVC040 FM112100 16010G18KT P6SM BKN035 OVC050=
202303102321 TAF KBLI 102321Z 1100/1124 18005KT P6SM OVC020
                      TEMPO 1100/1104 SCT020 OVC040 FM110600 16005KT
                       P6SM OVC013 FM111800 14008KT P6SM BKN025
                       OVC040 FM112100 16010G18KT P6SM BKN035 OVC050=
202303102202 KBLI 102202Z 1022/1118 29004KT P6SM BKN025 OVC035 FM110000 18005KT
                       P6SM SCT035 BKN050 FM110800 17007KT P6SM
                       OVC025=
202303101721 TAF KBLI 101721Z 1018/1118 03008KT P6SM SCT030 OVC045
                      TEMPO 1018/1021 -SHRA OVC030 FM102100 18005KT
                       P6SM SCT035 BKN050 FM110800 17007KT P6SM
                       OVC025=
202303101120 TAF KBLI 101120Z 1012/1112 04008KT P6SM OVC070 FM101500 03005KT
                       6SM -RA BR SCT015 OVC020 FM101900 VRB05KT
                       P6SM VCSH BKN020 OVC025 FM102300 18005KT
                       P6SM VCSH BKN035 OVC040 FM110800 17007KT
                       P6SM OVC025=
202303100659 KBLI 100659Z 1007/1106 04012G18KT P6SM BKN080 OVC120 FM101500 03007KT
                       P6SM -RA BKN030 OVC080 FM101800 02004KT
                       6SM -RA OVC025 FM102300 17005KT P6SM VCSH
                       BKN025 OVC040 FM110500 14007KT P6SM OVC025=
202303100520 TAF KBLI 100520Z 1006/1106 04006KT P6SM BKN080 OVC120 FM101500
                       03007KT P6SM -RA BKN040 OVC080 FM101800
                       02004KT 6SM -RA OVC025 FM102300 17005KT
                       P6SM VCSH BKN025 OVC040 FM110500 14007KT
                       P6SM OVC025=
202303092327 TAF KBLI 092327Z 1000/1024 02005KT P6SM BKN100 OVC200 FM100600
                       03012KT P6SM BKN080 OVC120 FM101500 03007KT
                       P6SM -RA BKN040 OVC080 FM101800 02004KT
                       6SM -RA OVC025 FM102300 17005KT P6SM -SHRA
                       BKN025 OVC040=
202303091722 TAF KBLI 091722Z 0918/1018 03005KT P6SM FEW120 BKN200 FM092300
                       03008KT P6SM SCT120 BKN200 FM101100 03012KT
                       P6SM BKN090 FM101500 03007KT P6SM -RA BKN040
                       OVC080=
202303091123 TAF KBLI 091123Z 0912/1012 07005KT P6SM SCT070 FM091700 05009KT
                       P6SM SCT100 FM092300 03008KT P6SM SCT250
                       FM101100 03012KT P6SM BKN090=
202303090542 TAF KBLI 090542Z 0906/1006 00000KT P6SM SCT070 OVC090 FM091500
                       03006KT P6SM SCT100 BKN200 FM091800 04012KT
                       P6SM SCT100 BKN200 FM092100 01006KT P6SM
                       BKN100 OVC200=
202303082320 TAF KBLI 082320Z 0900/0924 19004KT P6SM BKN100 BKN200 FM090400
                       12005KT P6SM SCT070 BKN100 BKN200 FM091500
                       03006KT P6SM SCT100 BKN200 FM092100 03012KT
                       P6SM SCT100 BKN200=
202303081724 TAF KBLI 081724Z 0818/0918 03004KT P6SM BKN100 FM082100 VRB05KT
                       P6SM VCSH SCT070 BKN100 FM090300 12007KT
                       P6SM SCT070 BKN100 FM091500 03010KT P6SM
                       SCT100 BKN200=
202303081120 TAF KBLI 081120Z 0812/0912 05004KT P6SM SCT100 FM082100 VRB05KT
                       P6SM VCSH SCT070 BKN100 FM090300 12007KT
                       P6SM SCT070 BKN100=
202303080520 TAF KBLI 080520Z 0806/0906 VRB04KT P6SM BKN070 OVC100 FM081600
                       07006KT P6SM SCT070 OVC100 FM082100 14007KT
                       P6SM BKN100=
202303072320 TAF KBLI 072320Z 0800/0824 14004KT P6SM SCT040 BKN100
                      TEMPO 0800/0804 -SHRA BKN040 OVC100 FM080400
                       06004KT P6SM SCT050 BKN100=
202303071733 TAF KBLI 071733Z 0718/0818 02004KT P6SM FEW040 BKN080=
202303071120 TAF KBLI 071120Z 0712/0812 06007KT P6SM SCT050 OVC080 FM071900
                       16008KT P6SM VCSH BKN060 BKN100 FM080200
                       08004KT P6SM VCSH BKN050 OVC080=
202303070523 TAF KBLI 070523Z 0706/0806 12007KT P6SM SCT050 BKN100 FM071900
                       16008KT P6SM VCSH BKN060 BKN100 FM080200
                       14004KT P6SM -SHRA BKN050 OVC080=
202303062322 TAF KBLI 062322Z 0700/0724 18007KT P6SM SCT060 BKN250 FM070600
                       05006KT P6SM SCT050 BKN100 FM071900 16008KT
                       P6SM SCT050 BKN100=
202303061725 TAF KBLI 061725Z 0618/0718 04007KT P6SM SCT050 BKN200 FM062200
                       21006KT P6SM SCT050 BKN200 FM070600 05006KT
                       P6SM SCT050 BKN100=
202303061127 TAF KBLI 061127Z 0612/0712 00000KT P6SM FEW020 OVC050 FM061600
                       12009KT P6SM BKN100 FM062100 15010KT P6SM
                       OVC050 FM070400 12008KT P6SM OVC050=
202303060530 TAF KBLI 060530Z 0606/0706 02007KT P6SM VCSH SCT060 BKN100 FM060700
                       VRB04KT P6SM -SHRA SCT040 BKN100 FM061200
                       05008KT P6SM BKN100 FM061600 04009KT P6SM
                       BKN100=
202303052331 TAF KBLI 052331Z 0600/0624 02007KT P6SM VCSH SCT060 BKN100
                      TEMPO 0603/0607 -SHRA BKN050 FM060700 VRB04KT
                       P6SM -SHRA SCT040 BKN100 FM061200 05008KT
                       P6SM BKN100 FM061600 04009KT P6SM BKN100=
202303051724 TAF KBLI 051724Z 0518/0618 02005KT P6SM SCT060 BKN100 FM060400
                       VRB04KT P6SM OVC100 FM060900 VRB03KT P6SM
                       BKN050 OVC100 FM061600 06005KT P6SM VCSH
                       OVC050=
202303051129 TAF KBLI 051129Z 0512/0612 05011KT P6SM SCT250 FM051500 13006KT
                       P6SM VCSH OVC070 FM051900 36004KT P6SM OVC050
                       FM060000 32006KT P6SM FEW250=
202303050536 TAF KBLI 050536Z 0506/0606 05011KT P6SM VCSH OVC060 FM051300 13006KT
                       P6SM VCSH OVC040 FM051900 04007KT P6SM -RA
                       OVC040=
202303042328 TAF KBLI 042328Z 0500/0524 04009KT P6SM VCSH SCT020 OVC060
                      TEMPO 0500/0503 6SM -RA BKN020 FM050400 05011KT
                       P6SM VCSH OVC060 FM051300 13006KT P6SM VCSH
                       OVC040 FM051900 04007KT P6SM -RA OVC040=
202303042054 KBLI 042054Z 0421/0518 04009KT P6SM VCSH SCT015 OVC030 FM050200
                       05011KT P6SM VCSH OVC060 FM050900 05005KT
                       P6SM VCSH OVC040=
202303041728 TAF KBLI 041728Z 0418/0518 04009KT P6SM -RA OVC050 FM042100 06011G18KT
                       P6SM VCSH OVC060
                      TEMPO 0421/0424 -RA FM050200 05011KT P6SM
                       VCSH OVC060 FM050900 05005KT P6SM VCSH OVC040=
202303041125 TAF KBLI 041125Z 0412/0512 05006KT P6SM VCSH BKN030 OVC045 FM041700
                       04010G16KT P6SM OVC050 FM042200 06011KT
                       P6SM BKN080 OVC120 FM050900 05005KT P6SM
                       OVC045=
202303040521 TAF KBLI 040521Z 0406/0506 15015KT P6SM -SHRA BKN025 OVC040 FM041200
                       06009KT P6SM -SHRA BKN030 OVC040 FM041700
                       04014KT P6SM OVC050=
202303032323 TAF KBLI 032323Z 0400/0424 16009KT P6SM -SHRA SCT025 OVC040 FM040300
                       12008KT P6SM -SHRA BKN022 OVC035 FM041200
                       06009KT P6SM -SHRA BKN030 OVC040=
202303031728 KBLI 031728Z 0317/0418 17012G20KT P6SM -SHRA OVC020 FM032200 16012G18KT
                       P6SM -SHRA SCT025 OVC040 FM040300 13010KT
                       P6SM -SHRA BKN022 OVC035=
202303031727 TAF KBLI 031727Z 0318/0418 17012G20KT P6SM -SHRA OVC070 FM032200
                       16012G18KT P6SM -SHRA SCT025 OVC040 FM040300
                       13010KT P6SM -SHRA BKN022 OVC035 FM041600
                       05009KT 6SM -SHRASN BKN035 OVC050=
202303031448 KBLI 031448Z 0315/0412 17012G20KT P6SM VCSH BKN025 OVC040 FM032000
                       16012G18KT P6SM -SHRA SCT025 OVC040 FM040400
                       13010KT P6SM -SHRA BKN022 OVC035=
202303031128 TAF KBLI 031128Z 0312/0412 20010KT P6SM VCSH SCT025 OVC050
                      TEMPO 0312/0316 -SHRA BKN022 OVC040 FM031600
                       17010KT P6SM VCSH BKN025 OVC040 FM032000
                       16012G18KT P6SM -SHRA SCT025 OVC040 FM040400
                       13010KT P6SM -SHRA BKN022 OVC035=
202303030526 TAF KBLI 030526Z 0306/0406 19009KT P6SM VCSH BKN080 FM030900 18007KT
                       P6SM -SHRA BKN035 OVC050 FM031500 17006KT
                       P6SM -RASN BKN025 OVC040 FM031900 16012G20KT
                       P6SM -SHRA SCT025 OVC040=
202303022320 TAF KBLI 022320Z 0300/0324 19009KT P6SM VCSH BKN080 FM030900 18007KT
                       P6SM -SHRA BKN035 OVC050 FM031500 17006KT
                       P6SM -RASN BKN025 OVC040 FM031900 16012G20KT
                       P6SM -SHRA SCT025 OVC040=
202303021732 TAF KBLI 021732Z 0218/0318 19017G27KT P6SM VCSH BKN020 OVC035 FM021900
                       23012G22KT P6SM VCSH SCT025 BKN050 FM030000
                       21011KT P6SM VCSH BKN050 FM030900 18007KT
                       P6SM -SHRA BKN035 OVC050=
202303021129 TAF KBLI 021129Z 0212/0312 15021G35KT 6SM -RA BR SCT008 OVC020
                       FM021700 19017G27KT P6SM VCSH BKN022 OVC035
                       FM021900 20015G25KT P6SM VCSH SCT025 BKN050
                       FM030000 21011KT P6SM VCSH BKN060 FM030600
                       18007KT P6SM VCSH BKN040=
202303020526 TAF KBLI 020526Z 0206/0306 17008KT 6SM -RA BKN030 OVC050 FM021000
                       15021G35KT 5SM -RA BR BKN008 OVC012 FM021600
                       21017G27KT P6SM VCSH BKN015 OVC030 FM021900
                       24011G25KT P6SM VCSH SCT025 BKN050 FM030000
                       21010KT P6SM VCSH BKN060=
202303012324 TAF KBLI 012324Z 0200/0224 18011G18KT P6SM BKN035 OVC040 FM020300
                       15010KT 6SM -RA SCT015 OVC020 FM021000 15019G33KT
                       5SM -RA BR SCT010 OVC015 FM021600 21012G22KT
                       P6SM VCSH BKN025 OVC050 FM021900 24011G19KT
                       P6SM VCSH SCT025 BKN050=
202303011734 TAF KBLI 011734Z 0118/0218 17007KT P6SM SCT015 BKN060 FM012000
                       17008KT P6SM OVC050 FM020300 15010KT 6SM
                       -RA OVC025 FM020900 15015G35KT 5SM -RA BR
                       OVC015 FM021500 19012G25KT P6SM VCSH BKN025
                       OVC050=
202303011131 TAF KBLI 011131Z 0112/0212 VRB02KT P6SM SCT030 BKN120 OVC200
                      TEMPO 0112/0115 4SM BR BKN025 FM011600 17007KT
                       P6SM SCT010 BKN060 FM012000 17008KT P6SM
                       OVC050 FM020500 15010KT P6SM -RA OVC035
                       FM020900 15015G25KT 6SM -RA BR OVC020=
202303010834 KBLI 010834Z 0109/0206 VRB03KT 3SM BR FEW002 BKN200
                      TEMPO 0109/0112 1/2SM FG VV002 FM011200 VRB02KT
                       P6SM SCT040 SCT120 OVC200 FM011700 16007KT
                       P6SM SCT010 BKN060 FM012000 17008KT P6SM
                       OVC060 FM020500 15010KT P6SM -RA OVC035=
202303010528 TAF KBLI 010528Z 0106/0206 00000KT 6SM BR FEW009 SCT030
                      TEMPO 0106/0109 3SM BR BKN009 FM010900 VRB05KT
                       1/2SM FZFG BKN004 FM011700 16007KT P6SM
                       SCT010 BKN060 FM012000 17008KT P6SM OVC060=