##########################################################
# Query made at 02/16/2025 23:49:54 UTC
# Time interval: from 01/01/2024 00:00  to 01/31/2024 23:59  UTC
##########################################################

##########################################################
# KBLI, Bellingham, Bellingham International Airport (United States)
# WMO index: -----. WIGOS ID: Unknown
# Latitude 48-47-58N. Longitude 122-32-21W. Altitude 48 m.
##########################################################

###################################
#  METAR/SPECI from KBLI
###################################
202401312353 METAR KBLI 312353Z 32004KT 10SM OVC060 11/10 A2944 RMK AO2 SLP977 60001 T01110100 10128 20111 55001=
202401312253 METAR KBLI 312253Z 30003KT 10SM BKN060 OVC090 11/10 A2944 RMK AO2 RAE01 SLP976 P0000 T01110100=
202401312153 METAR KBLI 312153Z 27004KT 10SM -RA OVC065 12/11 A2944 RMK AO2 RAB35 SLP976 P0000 T01170111=
202401312053 METAR KBLI 312053Z 34003KT 10SM BKN065 OVC090 12/11 A2945 RMK AO2 RAB02E39 SLP978 P0001 60001 T01170111 58003=
202401311953 METAR KBLI 311953Z 01003KT 10SM SCT080 SCT100 OVC110 12/11 A2946 RMK AO2 RAE40 SLP982 P0000 T01220106=
202401311853 METAR KBLI 311853Z 00000KT 10SM -RA FEW060 BKN090 OVC110 12/11 A2947 RMK AO2 RAB52 SLP984 P0000 T01220106=
202401311753 METAR KBLI 311753Z 04006KT 10SM FEW060 BKN110 12/11 A2946 RMK AO2 SLP981 60009 T01220106 10122 20106 58006=
202401311653 METAR KBLI 311653Z 03005KT 10SM SCT070 OVC095 11/11 A2946 RMK AO2 RAB27E42 SLP983 P0000 T01110106=
202401311553 METAR KBLI 311553Z 02007KT 10SM SCT055 BKN075 OVC090 11/10 A2947 RMK AO2 RAE36 SLP986 P0001 T01060100=
202401311453 METAR KBLI 311453Z 05009KT 10SM -RA OVC085 11/10 A2947 RMK AO2 SLP988 P0002 60008 T01060100 56014=
202401311353 METAR KBLI 311353Z AUTO 02008KT 10SM -RA FEW060 OVC075 11/10 A2949 RMK AO2 SLP993 P0004 T01060100=
202401311253 METAR KBLI 311253Z AUTO 05008KT 10SM -RA FEW060 OVC075 12/10 A2950 RMK AO2 SLP995 P0002 T01170100=
202401311153 METAR KBLI 311153Z AUTO 06007KT 8SM -RA SCT070 OVC085 11/09 A2952 RMK AO2 PRESFR SLP002 P0004 60012 70012 T01060094 10128 20100 56018=
202401311053 METAR KBLI 311053Z AUTO 03006KT 10SM -RA OVC080 10/09 A2954 RMK AO2 SLP009 P0003 T01000089=
202401310953 METAR KBLI 310953Z AUTO 02008KT 7SM -RA OVC080 10/08 A2954 RMK AO2 SLP010 P0003 T01000083=
202401310853 METAR KBLI 310853Z AUTO 00000KT 7SM -RA OVC085 10/09 A2957 RMK AO2 RAB02 SLP020 P0002 60002 T01000089 56005=
202401310753 METAR KBLI 310753Z AUTO 00000KT 10SM OVC090 12/07 A2957 RMK AO2 SLP021 T01220072 401500106=
202401310653 METAR KBLI 310653Z AUTO 02006KT 10SM FEW080 BKN090 BKN110 13/07 A2955 RMK AO2 SLP014 T01280072=
202401310553 METAR KBLI 310553Z 04009KT 10SM FEW095 13/07 A2958 RMK AO2 SLP025 T01280072 10139 20122 58033=
202401310453 METAR KBLI 310453Z 06004KT 10SM SCT080 OVC110 13/08 A2964 RMK AO2 SLP042 T01330078=
202401310353 METAR KBLI 310353Z 05008KT 10SM OVC080 13/08 A2965 RMK AO2 SLP048 T01330078=
202401310253 METAR KBLI 310253Z 04008KT 10SM OVC080 13/08 A2968 RMK AO2 SLP058 T01330078 58029=
202401310153 METAR KBLI 310153Z 04007KT 10SM BKN080 13/08 A2973 RMK AO2 SLP072 T01330083=
202401310053 METAR KBLI 310053Z 03008KT 10SM OVC080 12/09 A2975 RMK AO2 SLP081 T01220089=
202401302353 METAR KBLI 302353Z 04009KT 10SM SCT110 13/09 A2977 RMK AO2 SLP087 60000 T01330089 10133 20117 58040=
202401302253 METAR KBLI 302253Z 01006KT 10SM OVC085 12/09 A2983 RMK AO2 RAB2156E09 SLP109 P0000 T01220089=
202401302153 METAR KBLI 302153Z 02005KT 10SM BKN070 12/09 A2985 RMK AO2 SLP114 T01170094=
202401302053 METAR KBLI 302053Z 00000KT 10SM BKN080 12/10 A2988 RMK AO2 RAB22E39 SLP127 P0000 60000 T01220100 58024=
202401302036 SPECI KBLI 302036Z 04003KT 10SM -RA BKN085 12/10 A2989 RMK AO2 RAB22 P0000 T01220100=
202401301953 METAR KBLI 301953Z 00000KT 10SM SCT080 OVC100 12/10 A2992 RMK AO2 SLP137 T01220100=
202401301853 METAR KBLI 301853Z 02005KT 10SM SCT060 OVC110 12/10 A2994 RMK AO2 SLP146 T01220100=
202401301753 METAR KBLI 301753Z 03005KT 10SM BKN110 12/09 A2996 RMK AO2 SLP150 60000 T01170094 10144 20106 56012=
202401301653 METAR KBLI 301653Z 04005KT 10SM OVC110 12/09 A2997 RMK AO2 SLP156 T01170094=
202401301553 METAR KBLI 301553Z 03007KT 10SM SCT085 11/09 A2998 RMK AO2 SLP156 T01110089=
202401301453 METAR KBLI 301453Z 03004KT 10SM SCT044 BKN095 12/09 A2999 RMK AO2 SLP162 60000 T01170089 58000=
202401301353 METAR KBLI 301353Z AUTO 03006KT 10SM SCT080 OVC100 12/09 A2999 RMK AO2 RAB34E52 SLP161 P0000 T01170089=
202401301253 METAR KBLI 301253Z AUTO 18003KT 10SM OVC065 14/09 A2999 RMK AO2 SLP164 T01390089=
202401301153 METAR KBLI 301153Z AUTO VRB04KT 10SM BKN070 OVC090 14/08 A2999 RMK AO2 SLP163 60000 T01440083 10183 20133 53012=
202401301053 METAR KBLI 301053Z AUTO VRB05KT 10SM OVC085 13/08 A2998 RMK AO2 SLP158 T01330078=
202401300953 METAR KBLI 300953Z AUTO 20006KT 10SM FEW075 OVC090 14/08 A2996 RMK AO2 RAB28E42 SLP151 P0000 T01390078=
202401300853 METAR KBLI 300853Z AUTO 19010G18KT 10SM OVC085 15/07 A2996 RMK AO2 PK WND 19027/0821 RAE08 SLP151 P0000 60000 T01500072 51038=
202401300753 METAR KBLI 300753Z AUTO 19014G24KT 10SM -RA OVC080 15/07 A2994 RMK AO2 PK WND 18036/0709 RAB53 SLP144 P0000 T01500072 402060089=
202401300653 METAR KBLI 300653Z AUTO 18016G37KT 10SM BKN095 16/07 A2989 RMK AO2 PK WND 16050/0633 RAB09E27 PRESRR SLP128 P0000 T01560072=
202401300553 METAR KBLI 300553Z 17025G43KT 10SM OVC100 18/07 A2985 RMK AO2 PK WND 16043/0545 SLP112 T01830067 10206 20106 51019=
202401300453 METAR KBLI 300453Z 21015G26KT 180V240 10SM SCT120 16/08 A2984 RMK AO2 PK WND 17031/0400 SLP112 T01610078=
202401300353 METAR KBLI 300353Z 17019G30KT 10SM SCT120 20/07 A2982 RMK AO2 PK WND 16034/0341 SLP103 T02000067=
202401300253 METAR KBLI 300253Z 17011G23KT 10SM CLR 20/07 A2979 RMK AO2 SLP093 T02000067 56020=
202401300153 METAR KBLI 300153Z 13007G16KT 10SM SCT100 17/08 A2980 RMK AO2 SLP099 T01720083=
202401300053 METAR KBLI 300053Z 00000KT 10SM SCT100 11/09 A2982 RMK AO2 SLP105 T01110089=
202401300048 SPECI KBLI 300048Z 03004KT 10SM SCT100 11/09 A2982 RMK AO2=
202401292353 METAR KBLI 292353Z 04004KT 10SM FEW120 12/09 A2985 RMK AO2 SLP114 T01220094 10122 20106 56021=
202401292253 METAR KBLI 292253Z 03004KT 10SM FEW120 12/09 A2987 RMK AO2 SLP122 T01220094=
202401292153 METAR KBLI 292153Z 02005KT 10SM BKN100 12/09 A2989 RMK AO2 SLP128 T01220094=
202401292053 METAR KBLI 292053Z 02004KT 10SM FEW100 12/09 A2991 RMK AO2 SLP136 T01220094 58023=
202401291953 METAR KBLI 291953Z 03003KT 10SM CLR 11/09 A2994 RMK AO2 SLP145 T01110089=
202401291853 METAR KBLI 291853Z 02004KT 10SM CLR 11/09 A2997 RMK AO2 SLP156 T01060089=
202401291753 METAR KBLI 291753Z 03005KT 10SM CLR 11/08 A2998 RMK AO2 SLP158 T01060083 10106 20089 58003=
202401291653 METAR KBLI 291653Z 36003KT 10SM CLR 10/08 A2999 RMK AO2 SLP162 T01000083=
202401291553 METAR KBLI 291553Z 00000KT 10SM CLR 09/09 A2998 RMK AO2 SLP160 T00940089=
202401291453 METAR KBLI 291453Z 00000KT 10SM CLR 09/09 A2999 RMK AO2 SLP161 T00940089 58002=
202401291353 METAR KBLI 291353Z AUTO 02004KT 10SM CLR 10/09 A3000 RMK AO2 SLP165 T01000089=
202401291253 METAR KBLI 291253Z AUTO 33006KT 10SM FEW085 11/09 A3000 RMK AO2 SLP164 T01060089=
202401291153 METAR KBLI 291153Z AUTO 30003KT 10SM SCT095 09/08 A2999 RMK AO2 SLP163 70039 T00890083 10133 20089 56008=
202401291053 METAR KBLI 291053Z AUTO 00000KT 10SM CLR 10/08 A3000 RMK AO2 SLP164 T01000083=
202401290953 METAR KBLI 290953Z AUTO 03005KT 10SM BKN120 10/09 A3001 RMK AO2 SLP169 T01000089=
202401290853 METAR KBLI 290853Z AUTO 33005KT 10SM FEW110 11/09 A3002 RMK AO2 SLP171 T01060089 58002=
202401290753 METAR KBLI 290753Z AUTO VRB04KT 10SM FEW120 11/09 A3002 RMK AO2 SLP174 T01060089 401670094=
202401290653 METAR KBLI 290653Z AUTO 02005KT 10SM BKN085 BKN120 11/09 A3003 RMK AO2 SLP174 T01110094=
202401290553 METAR KBLI 290553Z 05006KT 10SM FEW090 BKN110 14/10 A3002 RMK AO2 RAE26 SLP174 P0000 60003 T01390100 10167 20106 55007=
202401290453 METAR KBLI 290453Z 13015G21KT 10SM -RA OVC095 16/11 A3002 RMK AO2 RAB06 SLP173 P0001 T01610111=
202401290353 METAR KBLI 290353Z 13010G17KT 10SM SCT040 OVC090 15/12 A3003 RMK AO2 SLP176 T01500117=
202401290253 METAR KBLI 290253Z 01003KT 10SM FEW036 OVC100 12/11 A3004 RMK AO2 RAE46 SLP181 P0000 60002 T01170106 56015=
202401290153 METAR KBLI 290153Z 02004KT 10SM -RA BKN032 BKN070 OVC090 11/10 A3006 RMK AO2 SLP185 P0001 T01060100=
202401290112 SPECI KBLI 290112Z 03007KT 10SM -RA BKN030 OVC038 11/10 A3007 RMK AO2 P0000 T01060100=
202401290053 METAR KBLI 290053Z 03006KT 7SM -RA SCT020 BKN028 OVC035 11/10 A3007 RMK AO2 RAB08 SLP190 P0001 T01060100=
202401282353 METAR KBLI 282353Z 03005KT 10SM OVC024 11/10 A3009 RMK AO2 SLP195 60000 T01110100 10117 20106 56011=
202401282253 METAR KBLI 282253Z 03006KT 10SM FEW012 BKN019 OVC025 11/10 A3010 RMK AO2 RAB26E48 SLP198 P0000 T01110100=
202401282153 METAR KBLI 282153Z 05008KT 10SM FEW012 BKN020 OVC024 12/11 A3011 RMK AO2 SLP202 T01170106=
202401282053 METAR KBLI 282053Z 03006KT 10SM OVC029 12/11 A3012 RMK AO2 SLP207 T01170111 50005=
202401281953 METAR KBLI 281953Z 36005KT 10SM FEW002 BKN019 OVC026 11/11 A3014 RMK AO2 SLP212 T01110106=
202401281917 SPECI KBLI 281917Z 02005KT 7SM SCT004 OVC015 11/11 A3013 RMK AO2 T01110106=
202401281900 SPECI KBLI 281900Z 03004KT 7SM BKN004 OVC013 11/11 A3013 RMK AO2 T01060106=
202401281853 METAR KBLI 281853Z 03005KT 3SM BR FEW002 OVC008 11/11 A3012 RMK AO2 SLP207 T01110111=
202401281811 SPECI KBLI 281811Z 18007KT 1/4SM R16/1800V2400FT FG VV002 11/11 A3011 RMK AO2 T01110111=
202401281804 SPECI KBLI 281804Z 18007KT 1/2SM R16/1800V2200FT FG VV002 11/11 A3011 RMK AO2 T01110111=
202401281753 METAR KBLI 281753Z 18010KT 1/4SM R16/2000V3000FT FG VV002 11/11 A3011 RMK AO2 SLP201 60036 T01110111 10122 20094 51025=
202401281747 SPECI KBLI 281747Z 17009KT 1/4SM R16/2000VP6000FT FG BKN002 OVC008 11/11 A3010 RMK AO2=
202401281744 SPECI KBLI 281744Z 17010KT 3/4SM R16/2400VP6000FT BR BKN002 OVC008 11/11 A3010 RMK AO2 T01110111=
202401281735 SPECI KBLI 281735Z 2SM BR BKN005 BKN010 OVC023 11/11 A3010 RMK AO2 T01110106=
202401281653 METAR KBLI 281653Z 00000KT 4SM BR BKN005 OVC010 09/09 A3009 RMK AO2 SLP195 T00940094=
202401281643 SPECI KBLI 281643Z 00000KT 10SM OVC005 09/09 A3009 RMK AO2 T00940094=
202401281553 METAR KBLI 281553Z 01003KT 3SM BR OVC003 09/09 A3006 RMK AO2 RAE1455 SLP186 P0000 T00940094=
202401281539 SPECI KBLI 281539Z 00000KT 2SM BR OVC003 09/09 A3006 RMK AO2 RAE1455 P0000 T00940094=
202401281453 METAR KBLI 281453Z 00000KT 10SM -RA OVC003 10/10 A3003 RMK AO2 SLP176 P0004 60036 T01000100 53010=
202401281353 METAR KBLI 281353Z AUTO 14005KT 5SM -RA BR BKN003 BKN008 OVC020 11/11 A3001 RMK AO2 SLP169 P0009 T01110111=
202401281344 SPECI KBLI 281344Z AUTO 15004KT 4SM -RA BR BKN003 BKN008 OVC020 12/11 A3001 RMK AO2 P0009 T01170111=
202401281330 SPECI KBLI 281330Z AUTO 17003KT 4SM -RA BR FEW009 BKN014 OVC023 11/11 A3001 RMK AO2 P0007 T01110111=
202401281322 SPECI KBLI 281322Z AUTO 15004KT 3SM -RA BR OVC014 12/12 A3001 RMK AO2 P0006 T01170117=
202401281316 SPECI KBLI 281316Z AUTO 00000KT 2SM RA BR OVC014 12/12 A3001 RMK AO2 P0005 T01170117=
202401281253 METAR KBLI 281253Z AUTO 21005KT 1 1/4SM RA BR FEW010 OVC016 12/12 A3001 RMK AO2 SLP168 P0023 T01170117=
202401281202 SPECI KBLI 281202Z AUTO VRB04KT 1 1/4SM RA BR SCT004 OVC014 12/12 A3000 RMK AO2 P0004 T01170117=
202401281153 METAR KBLI 281153Z AUTO VRB04KT 1 1/2SM RA BR BKN003 OVC014 12/12 A3000 RMK AO2 SLP166 P0010 60046 70090 T01170117 10133 20117 53007=
202401281145 SPECI KBLI 281145Z AUTO 23004KT 1 1/2SM RA BR BKN003 OVC009 12/12 A3000 RMK AO2 P0007 T01170117=
202401281117 SPECI KBLI 281117Z AUTO VRB04KT 2SM -RA BR OVC003 12/12 A2999 RMK AO2 P0002 T01170117=
202401281103 SPECI KBLI 281103Z AUTO 21006KT 1 3/4SM -RA BR OVC004 12/12 A2999 RMK AO2 CIG 002V008 P0000 T01220117=
202401281053 METAR KBLI 281053Z AUTO 21005KT 2 1/2SM -RA BR BKN005 OVC012 12/12 A2999 RMK AO2 SLP162 P0009 T01220122=
202401281049 SPECI KBLI 281049Z AUTO VRB03KT 2 1/2SM -RA BR BKN005 OVC014 12/12 A2999 RMK AO2 P0008=
202401281038 SPECI KBLI 281038Z AUTO 20005KT 2SM -RA BR SCT007 BKN014 OVC020 12/12 A2999 RMK AO2 P0007 T01220117=
202401281025 SPECI KBLI 281025Z AUTO VRB06KT 2 1/2SM -RA BR OVC018 12/12 A2999 RMK AO2 P0005 T01220117=
202401280953 METAR KBLI 280953Z AUTO VRB05KT 3SM RA BR BKN019 OVC025 12/12 A2998 RMK AO2 SLP159 P0011 T01170117=
202401280950 SPECI KBLI 280950Z AUTO 19005KT 2 1/2SM RA BR OVC019 12/11 A2998 RMK AO2 P0010=
202401280853 METAR KBLI 280853Z AUTO 19006KT 5SM -RA BR OVC018 13/12 A2998 RMK AO2 SLP160 P0008 60016 T01280117 50000=
202401280753 METAR KBLI 280753Z AUTO 19007KT 10SM -RA OVC016 13/12 A3000 RMK AO2 SLP164 P0005 T01280117 401440072=
202401280653 METAR KBLI 280653Z AUTO 19008KT 150V210 8SM -RA OVC016 13/12 A2999 RMK AO2 RAB13 SLP161 P0003 T01280117=
202401280600 SPECI KBLI 280600Z 18009G16KT 10SM OVC016 13/12 A2999 RMK AO2 T01330122=
202401280553 METAR KBLI 280553Z 18009G16KT 10SM OVC014 13/12 A2998 RMK AO2 RAE48 SLP160 P0004 60014 T01280117 10144 20122 50003=
202401280541 SPECI KBLI 280541Z 18007KT 10SM -RA OVC014 13/12 A2998 RMK AO2 P0004 T01280117=
202401280453 METAR KBLI 280453Z 19008KT 7SM -RA OVC018 13/12 A2999 RMK AO2 SLP163 P0005 T01280117=
202401280353 METAR KBLI 280353Z 17011G21KT 6SM -RA BR OVC021 14/12 A2998 RMK AO2 SLP160 P0004 T01390122=
202401280253 METAR KBLI 280253Z 17011G23KT 10SM -RA SCT015 BKN022 OVC075 14/12 A2998 RMK AO2 PK WND 15027/0200 RAB08 SLP157 P0001 60001 T01440117 55003=
202401280153 METAR KBLI 280153Z 16012G22KT 10SM SCT015 BKN025 OVC060 14/11 A2995 RMK AO2 PK WND 16030/0056 RAE17 SLP150 P0000 T01440111=
202401280053 METAR KBLI 280053Z 16016G26KT 10SM -RA SCT015 BKN021 OVC035 14/11 A2997 RMK AO2 PK WND 16026/0048 RAB41 SLP156 P0000 T01390111=
202401272353 METAR KBLI 272353Z 16011KT 10SM OVC021 13/11 A2998 RMK AO2 SLP160 60019 T01330106 10133 20078 50001=
202401272253 METAR KBLI 272253Z 16011KT 10SM BKN015 BKN040 OVC055 13/11 A2999 RMK AO2 PK WND 16028/2200 RAB02E34 SLP163 P0000 T01280106=
202401272153 METAR KBLI 272153Z 16017G33KT 10SM OVC015 13/11 A2998 RMK AO2 PK WND 15033/2149 RAE17 SLP158 P0000 T01280106=
202401272109 SPECI KBLI 272109Z 15008KT 8SM -RA BKN012 OVC020 09/09 A2998 RMK AO2 P0000 T00940094=
202401272053 METAR KBLI 272053Z 01004KT 3SM -RA BR BKN012 OVC020 08/08 A2998 RMK AO2 SLP161 P0005 60019 T00830083 53006=
202401271953 METAR KBLI 271953Z 36004KT 4SM -RA BR BKN013 OVC020 08/08 A2997 RMK AO2 SLP158 P0006 T00830083=
202401271944 SPECI KBLI 271944Z 36004KT 4SM -RA BR BKN013 OVC020 08/08 A2997 RMK AO2 P0004 T00830078=
202401271853 METAR KBLI 271853Z 02005KT 4SM -RA BR BKN027 BKN042 OVC050 08/08 A2997 RMK AO2 SLP157 P0008 T00830078=
202401271753 METAR KBLI 271753Z 04008KT 5SM -RA BR OVC026 08/07 A2996 RMK AO2 SLP154 P0006 60011 T00780072 10083 20072 57007=
202401271653 METAR KBLI 271653Z 03004KT 4SM -RA BR OVC026 08/07 A2997 RMK AO2 SLP156 P0002 T00830072=
202401271553 METAR KBLI 271553Z 04007KT 7SM -RA OVC027 08/07 A2998 RMK AO2 RAB02 SLP159 P0003 T00780072=
202401271453 METAR KBLI 271453Z 04006KT 10SM OVC026 07/07 A2998 RMK AO2 RAB31E41 SLP161 P0000 60000 T00720067 56009=
202401271353 METAR KBLI 271353Z AUTO 04007KT 10SM OVC027 07/07 A2999 RMK AO2 SLP164 T00720067=
202401271253 METAR KBLI 271253Z AUTO 05006KT 10SM OVC024 07/07 A3000 RMK AO2 RAB1156E23 SLP166 P0000 T00720067=
202401271153 METAR KBLI 271153Z AUTO 04005KT 10SM OVC024 07/07 A3001 RMK AO2 RAE50 SLP171 P0006 60024 70055 T00720072 10117 20072 58004=
202401271053 METAR KBLI 271053Z AUTO 02003KT 4SM -RA BR OVC022 07/07 A3004 RMK AO2 SLP180 P0009 T00720067=
202401270953 METAR KBLI 270953Z AUTO 11005KT 5SM -RA BR OVC020 11/09 A3003 RMK AO2 SLP175 P0004 T01110094=
202401270853 METAR KBLI 270853Z AUTO 8SM -RA OVC021 09/08 A3003 RMK AO2 RAB47 SLP175 P0000 60005 T00890083 58002=
202401270753 METAR KBLI 270753Z AUTO 00000KT 7SM OVC018 07/07 A3004 RMK AO2 RAE0654B22E52 SLP180 P0002 T00720072 401110050=
202401270712 SPECI KBLI 270712Z AUTO 03003KT 4SM BR SCT003 SCT009 OVC015 07/07 A3004 RMK AO2 RAE0654 P0000 T00720072=
202401270653 METAR KBLI 270653Z AUTO 01003KT 3SM -RA BR BKN002 BKN010 OVC015 07/07 A3004 RMK AO2 SLP181 P0003 T00720072=
202401270638 SPECI KBLI 270638Z AUTO 02003KT 2SM -RA BR BKN003 OVC013 07/07 A3004 RMK AO2 P0003 T00720072=
202401270623 SPECI KBLI 270623Z AUTO 00000KT 1 3/4SM -RA BR BKN003 OVC010 07/07 A3004 RMK AO2 P0002 T00720072=
202401270610 SPECI KBLI 270610Z AUTO 03004KT 1 3/4SM -RA BR SCT003 BKN008 OVC013 07/07 A3004 RMK AO2 CIG 006V010 P0001 T00720067=
202401270605 SPECI KBLI 270605Z AUTO 03005KT 1 3/4SM -RA BR BKN003 OVC008 07/07 A3003 RMK AO2 CIG 002V006 P0001 T00720072=
202401270553 METAR KBLI 270553Z AUTO 02005KT 2 1/2SM -RA BR BKN003 OVC012 07/07 A3003 RMK AO2 SLP177 P0004 60031 T00720072 10094 20072 53022=
202401270535 SPECI KBLI 270535Z 01004KT 2 1/2SM -RA BR BKN002 BKN014 OVC021 07/07 A3002 RMK AO2 P0003 T00720067=
202401270455 SPECI KBLI 270455Z 34005KT 2 1/2SM -RA BR FEW003 BKN025 OVC030 07/07 A3000 RMK AO2 P0000 T00720072=
202401270453 METAR KBLI 270453Z 32004KT 3SM -RA BR FEW003 SCT025 OVC030 07/07 A3000 RMK AO2 SLP167 P0006 T00720072=
202401270353 METAR KBLI 270353Z 03006KT 4SM RA BR OVC038 07/07 A2999 RMK AO2 SLP162 P0011 T00720067=
202401270253 METAR KBLI 270253Z 02004KT 5SM -RA BR OVC044 08/07 A2997 RMK AO2 SLP155 P0007 60010 T00780072 56013=
202401270153 METAR KBLI 270153Z 03003KT 4SM RA BR FEW049 OVC070 07/07 A2997 RMK AO2 RAB12 SLP157 P0003 T00720067=
202401270053 METAR KBLI 270053Z 01004KT 10SM OVC050 09/06 A2998 RMK AO2 SLP160 T00890056=
202401262353 METAR KBLI 262353Z 00000KT 10SM BKN055 OVC080 09/06 A3000 RMK AO2 SLP168 T00940061 10111 20072 56017=
202401262253 METAR KBLI 262253Z 02004KT 10SM BKN055 BKN080 10/06 A3002 RMK AO2 SLP172 T01000061=
202401262153 METAR KBLI 262153Z 02006KT 10SM OVC055 10/06 A3003 RMK AO2 SLP174 T01000056=
202401262053 METAR KBLI 262053Z 36005KT 10SM FEW060 OVC110 10/06 A3005 RMK AO2 SLP184 T01000061 58013=
202401261953 METAR KBLI 261953Z 07004KT 10SM SCT080 BKN110 10/06 A3007 RMK AO2 PRESFR SLP190 T01000056=
202401261853 METAR KBLI 261853Z 03005KT 10SM OVC080 08/05 A3011 RMK AO2 SLP203 T00780050=
202401261753 METAR KBLI 261753Z 02006KT 10SM OVC070 07/05 A3009 RMK AO2 SLP198 T00720050 10078 20050 56009=
202401261653 METAR KBLI 261653Z 04006KT 10SM BKN075 OVC110 06/05 A3010 RMK AO2 SLP200 T00610050=
202401261553 METAR KBLI 261553Z 02006KT 10SM OVC046 06/04 A3011 RMK AO2 SLP203 T00560044=
202401261453 METAR KBLI 261453Z 02005KT 10SM BKN045 OVC055 06/04 A3012 RMK AO2 SLP207 T00560044 56004=
202401261353 METAR KBLI 261353Z AUTO 05006KT 10SM BKN042 BKN049 05/04 A3012 RMK AO2 SLP207 T00500044=
202401261253 METAR KBLI 261253Z AUTO 35003KT 10SM OVC031 06/04 A3012 RMK AO2 SLP209 T00610044=
202401261238 SPECI KBLI 261238Z AUTO 00000KT 10SM OVC030 06/05 A3012 RMK AO2 T00610050=
202401261153 METAR KBLI 261153Z AUTO 01003KT 10SM BKN028 OVC033 08/05 A3013 RMK AO2 SLP211 70010 T00830050 10100 20083 55003=
202401261128 SPECI KBLI 261128Z AUTO 14006KT 10SM BKN029 OVC036 09/06 A3013 RMK AO2 T00940056=
202401261053 METAR KBLI 261053Z AUTO 12006KT 10SM BKN030 OVC041 09/06 A3012 RMK AO2 SLP208 T00940056=
202401261014 SPECI KBLI 261014Z AUTO 13008KT 10SM OVC031 09/06 A3013 RMK AO2 T00940061=
202401260953 METAR KBLI 260953Z AUTO 16009KT 10SM BKN027 OVC032 09/06 A3014 RMK AO2 SLP214 T00940061=
202401260853 METAR KBLI 260853Z AUTO 16009G19KT 10SM OVC021 09/07 A3014 RMK AO2 SLP214 T00940067 53001=
202401260753 METAR KBLI 260753Z AUTO 15010KT 10SM BKN022 OVC028 09/07 A3014 RMK AO2 SLP214 T00940067 401060028=
202401260653 METAR KBLI 260653Z AUTO VRB05KT 10SM OVC017 09/07 A3013 RMK AO2 SLP212 T00940067=
202401260553 METAR KBLI 260553Z 17010KT 10SM OVC018 10/07 A3013 RMK AO2 SLP213 60000 T01000067 10100 20089 53013=
202401260453 METAR KBLI 260453Z 15006KT 10SM OVC017 09/07 A3011 RMK AO2 SLP205 T00940067=
202401260353 METAR KBLI 260353Z 17006KT 10SM OVC017 09/07 A3010 RMK AO2 RAE30 SLP202 P0000 T00940067=
202401260253 METAR KBLI 260253Z 15007KT 10SM -RA BKN019 OVC025 09/07 A3010 RMK AO2 RAB46 SLP200 P0000 60000 T00890067 51012=
202401260153 METAR KBLI 260153Z 15008KT 10SM OVC020 09/07 A3009 RMK AO2 SLP197 T00890067=
202401260053 METAR KBLI 260053Z 15010KT 10SM OVC021 09/07 A3008 RMK AO2 RAE19 SLP193 P0000 T00890067=
202401252353 METAR KBLI 252353Z 15012KT 10SM -RA OVC020 09/06 A3006 RMK AO2 SLP188 P0001 60005 T00940061 10100 20083 53009=
202401252253 METAR KBLI 252253Z 16009G17KT 10SM -RA OVC022 09/06 A3004 RMK AO2 RAE04B26 SLP182 P0000 T00940061=
202401252153 METAR KBLI 252153Z 16009KT 10SM -RA OVC022 09/06 A3004 RMK AO2 SLP178 P0002 T00940061=
202401252053 METAR KBLI 252053Z 16010KT 10SM -RA OVC021 09/06 A3004 RMK AO2 SLP179 P0002 60002 T00940061 51010=
202401251953 METAR KBLI 251953Z 15012G23KT 10SM -RA OVC021 09/06 A3003 RMK AO2 RAB39 SLP176 P0000 T00890056=
202401251853 METAR KBLI 251853Z 15009G20KT 10SM OVC021 09/06 A3002 RMK AO2 SLP175 T00890056=
202401251753 METAR KBLI 251753Z 15009KT 10SM OVC022 08/06 A3001 RMK AO2 SLP169 60005 T00830056 10094 20078 53026=
202401251653 METAR KBLI 251653Z 15011KT 10SM OVC021 08/06 A2997 RMK AO2 RAE20 SLP158 P0001 T00780056=
202401251553 METAR KBLI 251553Z 15012G20KT 5SM RA OVC023 08/05 A2995 RMK AO2 SLP149 P0004 T00830050=
202401251453 METAR KBLI 251453Z 14010G23KT 10SM -RA OVC024 08/05 A2993 RMK AO2 RAB1355 SLP143 P0000 60000 T00830050 51019=
202401251353 METAR KBLI 251353Z AUTO 15010KT 10SM BKN029 BKN039 OVC050 08/05 A2991 RMK AO2 RAB14E41 SLP138 P0000 T00830050 $=
202401251253 METAR KBLI 251253Z AUTO 15012G20KT 10SM OVC070 09/05 A2990 RMK AO2 SLP131 T00890050 $=
202401251153 METAR KBLI 251153Z AUTO 15012G20KT 10SM FEW030 SCT060 OVC075 09/04 A2988 RMK AO2 SLP124 6//// 7//// T00940044 10100 20067 $=
202401251053 METAR KBLI 251053Z AUTO 11006KT 10SM 09/04 A2987 RMK AO2 SLP124 T00890044 $=
202401250653 METAR KBLI 250653Z AUTO 15009G17KT 10SM BKN031 OVC038 09/05 A2982 RMK AO2 SLP107 T00940050 $=
202401250645 SPECI KBLI 250645Z AUTO 16010G19KT 10SM OVC031 10/05 A2982 RMK AO2 T01000050 $=
202401250553 METAR KBLI 250553Z 15015G20KT 10SM BKN029 OVC036 09/06 A2980 RMK AO2 SLP100 60001 T00940056 10100 20050 51016 $=
202401250527 SPECI KBLI 250527Z 15008G17KT 10SM BKN028 OVC037 09/06 A2980 RMK AO2 T00940056 $=
202401250453 METAR KBLI 250453Z 16011G23KT 10SM SCT037 BKN050 BKN100 09/06 A2979 RMK AO2 SLP094 T00940056 $=
202401250353 METAR KBLI 250353Z 16008KT 10SM OVC027 09/06 A2978 RMK AO2 SLP092 T00940061 $=
202401250337 SPECI KBLI 250337Z 10SM OVC028 09/06 A2977 RMK AO2 T00890056 $=
202401250329 SPECI KBLI 250329Z 15006KT 10SM OVC030 09/06 A2977 RMK AO2 T00890056 $=
202401250253 METAR KBLI 250253Z 00000KT 10SM OVC024 06/06 A2976 RMK AO2 SLP086 60001 T00610056 53011 $=
202401250153 METAR KBLI 250153Z 35003KT 10SM BKN023 BKN060 OVC090 06/05 A2974 RMK AO2 RAE35 SLP080 P0001 T00560050 $=
202401250053 METAR KBLI 250053Z 35003KT 10SM -RA OVC025 07/05 A2973 RMK AO2 RAB2356E06B50 SLP077 P0000 T00670050 $=
202401242353 METAR KBLI 242353Z 13009KT 10SM OVC024 10/06 A2973 RMK AO2 SLP074 60002 T01000061 10106 20050 51010 $=
202401242253 METAR KBLI 242253Z 15007KT 10SM OVC023 10/07 A2972 RMK AO2 SLP073 T01000067 $=
202401242153 METAR KBLI 242153Z 15011KT 10SM OVC025 10/06 A2971 RMK AO2 SLP067 T01000061 $=
202401242145 SPECI KBLI 242145Z 15011KT 10SM OVC025 10/06 A2971 RMK AO2 T01000061 $=
202401242122 SPECI KBLI 242122Z 15011KT 10SM OVC030 09/07 A2970 RMK AO2 T00940067 $=
202401242053 METAR KBLI 242053Z 00000KT 10SM OVC029 06/06 A2970 RMK AO2 RAE1957 SLP064 P0000 60002 T00610056 51004 $=
202401242027 SPECI KBLI 242027Z 02004KT 10SM BKN029 OVC050 06/05 A2969 RMK AO2 RAE1957 P0000 T00560050 $=
202401241953 METAR KBLI 241953Z 01004KT 9SM -RA SCT033 OVC047 05/05 A2969 RMK AO2 SLP064 P0002 T00500050 $=
202401241853 METAR KBLI 241853Z 00000KT 10SM -RA BKN036 OVC045 06/04 A2970 RMK AO2 SLP067 P0000 T00560044 $=
202401241753 METAR KBLI 241753Z 05005KT 10SM -RA OVC040 05/04 A2968 RMK AO2 SLP059 P0006 60011 T00500044 10050 20039 56010 $=
202401241653 METAR KBLI 241653Z 00000KT 7SM -RA OVC040 04/04 A2970 RMK AO2 SLP065 P0001 T00390039 $=
202401241553 METAR KBLI 241553Z 05006KT 10SM -RA OVC046 04/03 A2969 RMK AO2 RAE17B38 SLP062 P0001 T00390033 $=
202401241453 METAR KBLI 241453Z 00000KT 10SM -RA OVC047 04/04 A2971 RMK AO2 SLP070 P0002 60003 T00390039 56021 $=
202401241353 METAR KBLI 241353Z AUTO 00000KT 9SM -RA OVC049 04/03 A2972 RMK AO2 SLP073 P0001 T00390033 $=
202401241253 METAR KBLI 241253Z AUTO 02005KT 10SM -RA OVC050 04/03 A2975 RMK AO2 RAB1156 SLP081 P0000 T00390033 $=
202401241153 METAR KBLI 241153Z AUTO 03007KT 10SM SCT055 OVC070 04/03 A2978 RMK AO2 SLP091 70030 T00440033 10083 20028 56017 $=
202401241053 METAR KBLI 241053Z AUTO 02003KT 10SM CLR 04/03 A2979 RMK AO2 SLP095 T00390033 $=
202401240953 METAR KBLI 240953Z AUTO 02003KT 10SM CLR 04/03 A2981 RMK AO2 SLP103 T00390033 $=
202401240853 METAR KBLI 240853Z AUTO 01004KT 10SM CLR 03/03 A2983 RMK AO2 SLP108 T00330028 58021 $=
202401240753 METAR KBLI 240753Z AUTO 01004KT 8SM CLR 03/03 A2986 RMK AO2 SLP119 T00330028 401000028 $=
202401240653 METAR KBLI 240653Z AUTO 36004KT 10SM SCT031 04/03 A2988 RMK AO2 SLP126 T00390028 $=
202401240553 METAR KBLI 240553Z 14010KT 10SM SCT060 08/04 A2989 RMK AO2 SLP129 T00830044 10089 20056 56007 $=
202401240453 METAR KBLI 240453Z 13007KT 10SM CLR 07/04 A2989 RMK AO2 SLP130 T00720044 $=
202401240353 METAR KBLI 240353Z 15007KT 10SM BKN044 BKN055 09/05 A2990 RMK AO2 SLP134 T00890050 $=
202401240253 METAR KBLI 240253Z 24003KT 10SM FEW032 BKN042 OVC070 07/06 A2991 RMK AO2 SLP136 T00720061 50002 $=
202401240153 METAR KBLI 240153Z 00000KT 10SM FEW026 BKN048 OVC055 08/07 A2991 RMK AO2 SLP137 T00780067 $=
202401240144 SPECI KBLI 240144Z 14004KT 10SM SCT029 BKN039 OVC046 08/07 A2991 RMK AO2 T00830067 $=
202401240053 METAR KBLI 240053Z 16007KT 10SM BKN023 OVC040 09/07 A2991 RMK AO2 SLP137 T00890067 $=
202401232353 METAR KBLI 232353Z 23004KT 10SM OVC027 08/07 A2990 RMK AO2 SLP134 60000 T00830067 10100 20083 53006 $=
202401232253 METAR KBLI 232253Z 18003KT 10SM OVC027 09/07 A2989 RMK AO2 SLP128 T00940067 $=
202401232153 METAR KBLI 232153Z 17006KT 10SM SCT015 BKN025 BKN030 09/07 A2988 RMK AO2 SLP127 T00940067 $=
202401232120 SPECI KBLI 232120Z 18003KT 10SM BKN015 OVC030 09/07 A2989 RMK AO2 T00890072 $=
202401232055 SPECI KBLI 232055Z 16009KT 10SM FEW008 BKN012 OVC016 09/07 A2988 RMK AO2 T00940072 $=
202401232054 SPECI KBLI 232054Z 17009KT 10SM 09/07 A2988 RMK AO2 T00940072 $=
202401232053 METAR KBLI 232053Z 17007KT FEW008 BKN011 OVC016 09/07 A2989 RMK AO2 SLP128 60000 T00940072 50006 $=
202401231953 METAR KBLI 231953Z 17007KT 10SM FEW008 BKN011 OVC016 09/08 A2989 RMK AO2 SLP128 T00940078=
202401231853 METAR KBLI 231853Z 00000KT 10SM BKN015 OVC032 09/09 A2987 RMK AO2 RAB31E42 SLP122 P0000 T00940089=
202401231849 SPECI KBLI 231849Z 00000KT 9SM BKN015 OVC032 09/08 A2987 RMK AO2 RAB31E42 P0000=
202401231753 METAR KBLI 231753Z 17004KT 10SM BKN012 OVC040 09/08 A2985 RMK AO2 SLP116 60030 T00890078 10089 20039 53018=
202401231653 METAR KBLI 231653Z 00000KT 10SM FEW008 SCT013 BKN035 06/06 A2983 RMK AO2 RAB20E34 SLP110 P0000 T00610061=
202401231553 METAR KBLI 231553Z 17005KT 10SM SCT014 BKN040 08/08 A2981 RMK AO2 RAE40 SLP102 P0006 T00830078=
202401231532 SPECI KBLI 231532Z 19006KT 8SM -RA SCT014 BKN040 OVC050 08/08 A2980 RMK AO2 P0006 T00830083=
202401231453 METAR KBLI 231453Z 17008KT 4SM RA BR BKN014 OVC049 08/08 A2980 RMK AO2 SLP098 P0015 60024 T00780078 53014=
202401231420 SPECI KBLI 231420Z AUTO 17007KT 3SM RA BR SCT014 OVC039 08/08 A2979 RMK AO2 P0009 T00780078=
202401231353 METAR KBLI 231353Z AUTO 00000KT 2SM RA BR OVC014 04/04 A2979 RMK AO2 RAE1256B03 SLP094 P0008 T00440044 $=
202401231302 SPECI KBLI 231302Z AUTO 00000KT 1SM R16/4500VP6000FT BR OVC014 04/04 A2977 RMK AO2 RAE1256 P0000 T00390039 $=
202401231253 METAR KBLI 231253Z AUTO 00000KT 3/4SM R16/6000VP6000FT -RA BR OVC015 04/04 A2977 RMK AO2 SLP088 P0001 T00390039 $=
202401231228 SPECI KBLI 231228Z AUTO 00000KT 1SM R16/4500VP6000FT -RA BR BKN017 OVC050 03/03 A2976 RMK AO2 P0000 T00330033 $=
202401231222 SPECI KBLI 231222Z AUTO 00000KT 3/4SM R16/4500VP6000FT -RA BR FEW014 SCT019 OVC050 03/03 A2976 RMK AO2 P0000 T00330028 $=
202401231215 SPECI KBLI 231215Z AUTO 00000KT 1SM R16/4000VP6000FT -RA BR FEW018 FEW043 OVC050 03/03 A2976 RMK AO2 P0000 T00330033 $=
202401231153 METAR KBLI 231153Z AUTO 00000KT 3/4SM R16/4500VP6000FT -RA BR FEW018 BKN048 OVC060 04/04 A2976 RMK AO2 SLP085 P0001 60018 70072 T00390039 10050 20039 51009 $=
202401231139 SPECI KBLI 231139Z AUTO 00000KT 3/4SM R16/4000V5500FT -RA BR OVC055 04/04 A2975 RMK AO2 P0001 T00440039 $=
202401231103 SPECI KBLI 231103Z AUTO 00000KT 1 1/2SM -RA BR SCT014 OVC049 04/04 A2975 RMK AO2 P0000 T00440044 $=
202401231053 METAR KBLI 231053Z AUTO 06003KT 1 1/4SM -RA BR BKN014 OVC045 04/04 A2975 RMK AO2 SLP082 P0008 T00440044 $=
202401231045 SPECI KBLI 231045Z AUTO 05003KT 1 1/4SM R16/6000VP6000FT -RA BR BKN014 OVC025 04/04 A2975 RMK AO2 P0007 T00440044 $=
202401231034 SPECI KBLI 231034Z AUTO 00000KT 2SM -RA BR OVC014 04/04 A2976 RMK AO2 P0005 T00440044 $=
202401231022 SPECI KBLI 231022Z AUTO 00000KT 1 3/4SM RA BR OVC016 04/04 A2976 RMK AO2 P0003 T00390039 $=
202401231008 SPECI KBLI 231008Z AUTO 32003KT 2 1/2SM -RA BR OVC014 04/04 A2975 RMK AO2 P0000 T00390039 $=
202401230953 METAR KBLI 230953Z AUTO 34003KT 3SM -RA BR OVC016 04/04 A2975 RMK AO2 SLP082 P0005 T00390039 $=
202401230934 SPECI KBLI 230934Z AUTO 00000KT 3SM -RA BR OVC016 04/04 A2974 RMK AO2 P0003 T00440044 $=
202401230927 SPECI KBLI 230927Z AUTO 00000KT 2 1/2SM -RA BR OVC016 04/04 A2974 RMK AO2 P0003 T00440044 $=
202401230918 SPECI KBLI 230918Z AUTO 00000KT 3SM -RA BR OVC016 04/04 A2974 RMK AO2 P0003 T00440044 $=
202401230911 SPECI KBLI 230911Z AUTO 36003KT 2 1/2SM -RA BR OVC016 04/04 A2974 RMK AO2 P0002 T00440044 $=
202401230900 SPECI KBLI 230900Z AUTO 00000KT 1 1/2SM -RA BR OVC017 04/04 A2973 RMK AO2 P0001 T00440044 $=
202401230853 METAR KBLI 230853Z AUTO 00000KT 2SM -RA BR OVC017 04/04 A2973 RMK AO2 SLP077 P0002 60004 T00440044 51007 $=
202401230848 SPECI KBLI 230848Z AUTO 01003KT 2 1/2SM -RA BR OVC017 04/04 A2973 RMK AO2 P0001 $=
202401230753 METAR KBLI 230753Z AUTO 00000KT 1 1/2SM R16/5000VP6000FT -RA BR OVC016 04/04 A2972 RMK AO2 SLP073 P0002 T00440044 400890039 $=
202401230744 SPECI KBLI 230744Z AUTO 03003KT 2SM -RA BR OVC016 04/04 A2972 RMK AO2 P0001 T00440044 $=
202401230732 SPECI KBLI 230732Z AUTO 35003KT 1SM R16/P6000FT -RA BR OVC018 04/04 A2972 RMK AO2 P0001 T00440044 $=
202401230712 SPECI KBLI 230712Z AUTO 00000KT 1/2SM R16/P6000FT -RA FG OVC022 04/04 A2972 RMK AO2 P0000 T00440044 $=
202401230702 SPECI KBLI 230702Z AUTO 00000KT 1 3/4SM -RA BR OVC020 05/05 A2971 RMK AO2 P0000 T00500050 $=
202401230653 METAR KBLI 230653Z AUTO 00000KT 3/4SM R16/P6000FT -RA BR OVC020 04/04 A2971 RMK AO2 RAB34 SLP069 P0000 T00440044 $=
202401230640 SPECI KBLI 230640Z AUTO 00000KT 3/4SM R16/4000VP6000FT -RA BR OVC020 05/05 A2971 RMK AO2 RAB34 P0000 T00500050 $=
202401230629 SPECI KBLI 230629Z 00000KT 1 1/2SM R16/5500VP6000FT BR OVC018 05/05 A2970 RMK AO2 T00500050 $=
202401230553 METAR KBLI 230553Z 02003KT 4SM R16/3500VP6000FT BR BKN014 OVC021 04/04 A2971 RMK AO2 RAE06 SLP068 P0001 60027 T00440044 10089 20044 51018 $=
202401230546 SPECI KBLI 230546Z 36003KT 4SM R16/5500VP6000FT BR BKN014 OVC021 05/05 A2970 RMK AO2 RAE06 P0001 T00500050 $=
202401230501 SPECI KBLI 230501Z 00000KT 3SM R16/3000VP6000FT -RA BR SCT014 BKN023 OVC055 05/05 A2969 RMK AO2 P0001 T00500050 $=
202401230453 METAR KBLI 230453Z 00000KT 2SM R16/4000VP6000FT -RA BR BKN014 BKN027 OVC060 05/05 A2969 RMK AO2 SLP062 P0005 T00500050 $=
202401230426 SPECI KBLI 230426Z 00000KT 2SM -RA BR BKN014 BKN032 OVC042 06/06 A2968 RMK AO2 P0005 T00610061 $=
202401230353 METAR KBLI 230353Z 00000KT 1 1/2SM RA BR OVC013 06/06 A2967 RMK AO2 SLP057 P0015 T00560056 $=
202401230339 SPECI KBLI 230339Z 07003KT 1 1/2SM R16/5500VP6000FT RA BR OVC013 06/06 A2967 RMK AO2 P0010 T00560056 $=
202401230311 SPECI KBLI 230311Z 00000KT 1 1/2SM R16/1400VP6000FT -RA BR OVC015 06/06 A2966 RMK AO2 P0004 T00560056 $=
202401230253 METAR KBLI 230253Z 00000KT 1 1/2SM R16/4500VP6000FT -RA BR OVC013 05/05 A2965 RMK AO2 RAB0157 SLP050 P0006 60006 T00500050 51024 $=
202401230236 SPECI KBLI 230236Z 00000KT 2SM R16/2200VP6000FT -RA BR OVC013 06/06 A2965 RMK AO2 RAB0157 P0005 T00560056 $=
202401230228 SPECI KBLI 230228Z 00000KT 3SM R16/2200VP6000FT -RA BR OVC013 06/05 A2964 RMK AO2 RAB0157 P0005 T00560050 $=
202401230155 SPECI KBLI 230155Z 16005KT 10SM OVC017 08/07 A2963 RMK AO2 T00780072 $=
202401230153 METAR KBLI 230153Z 12004KT 8SM OVC014 08/08 A2963 RMK AO2 SLP042 T00830078 $=
202401230053 METAR KBLI 230053Z 16004KT 10SM OVC014 08/07 A2961 RMK AO2 SLP034 T00830072=
202401230032 SPECI KBLI 230032Z 17006KT 10SM OVC014 09/08 A2960 RMK AO2 T00890078=
202401222353 METAR KBLI 222353Z 13006KT 8SM OVC016 09/07 A2958 RMK AO2 RAE51 SLP025 P0000 60009 T00890072 10089 20050 53023=
202401222253 METAR KBLI 222253Z 36003KT 8SM R16/5000VP6000FT -RA OVC016 06/05 A2956 RMK AO2 SLP017 P0003 T00560050=
202401222153 METAR KBLI 222153Z 00000KT 7SM -RA OVC018 06/06 A2953 RMK AO2 RAB2055 SLP009 P0001 T00610056=
202401222134 SPECI KBLI 222134Z 00000KT 7SM -RA OVC020 06/06 A2953 RMK AO2 RAB2055 P0000 T00610061=
202401222132 SPECI KBLI 222132Z 00000KT 1 3/4SM -RA BR OVC020 07/06 A2952 RMK AO2 RAB2055 P0000 T00670061=
202401222053 METAR KBLI 222053Z 00000KT 10SM OVC027 07/06 A2951 RMK AO2 RAE28 SLP002 P0000 60005 T00670061 51014=
202401222044 SPECI KBLI 222044Z 01003KT 10SM BKN029 BKN036 OVC050 07/06 A2951 RMK AO2 RAE28 P0000 T00670061=
202401221956 SPECI KBLI 221956Z 00000KT 10SM -RA FEW025 BKN055 OVC090 06/06 A2950 RMK AO2 P0000 T00610061 $=
202401221953 METAR KBLI 221953Z 00000KT 4SM -RA BR OVC055 06/06 A2950 RMK AO2 SLP000 P0002 T00560056 $=
202401221853 METAR KBLI 221853Z 02004KT 10SM -RA OVC055 06/05 A2950 RMK AO2 SLP997 P0003 T00560050=
202401221753 METAR KBLI 221753Z 04008KT 5SM -RA BR BKN039 OVC055 05/04 A2947 RMK AO2 RAB34 SLP989 P0001 60018 T00500044 10050 20039 53015=
202401221653 METAR KBLI 221653Z 02007KT 10SM OVC031 04/04 A2945 RMK AO2 RAE27 SLP981 P0000 T00440044=
202401221553 METAR KBLI 221553Z 02006KT 10SM -RA OVC031 04/04 A2943 RMK AO2 SLP976 P0001 T00440039=
202401221453 METAR KBLI 221453Z AUTO 02006KT 10SM -RA BKN036 OVC045 04/04 A2943 RMK AO2 SLP973 P0008 60016 T00440039 55003=
202401221353 METAR KBLI 221353Z AUTO 03004KT 6SM -RA BR FEW036 OVC048 04/04 A2942 RMK AO2 SLP972 P0004 T00440044=
202401221253 METAR KBLI 221253Z AUTO 02006KT 8SM -RA OVC048 04/04 A2943 RMK AO2 SLP973 P0004 T00390039=
202401221153 METAR KBLI 221153Z AUTO 03007KT 5SM -RA BR OVC047 04/04 A2944 RMK AO2 SLP976 P0008 60020 70040 T00440039 10044 20033 56006=
202401221053 METAR KBLI 221053Z AUTO 04007KT 9SM -RA OVC050 04/04 A2944 RMK AO2 SLP979 P0002 T00440039=
202401220953 METAR KBLI 220953Z AUTO 02006KT 10SM -RA OVC060 04/04 A2944 RMK AO2 SLP979 P0002 T00440039=
202401220853 METAR KBLI 220853Z AUTO 02005KT 7SM -RA OVC060 04/04 A2945 RMK AO2 RAB0759 SLP982 P0005 60008 T00440039 58005=
202401220839 SPECI KBLI 220839Z AUTO 02004KT 5SM -RA BR OVC060 04/04 A2946 RMK AO2 RAB0759 P0004 T00440044=
202401220830 SPECI KBLI 220830Z AUTO 34003KT 2 1/2SM -RA BR OVC060 04/04 A2946 RMK AO2 RAB0759 P0003 T00390039=
202401220753 METAR KBLI 220753Z AUTO 03006KT 10SM FEW046 BKN080 OVC100 04/03 A2946 RMK AO2 RAB04E53SNE04 SLP986 P0000 T00390033 400830017=
202401220653 METAR KBLI 220653Z AUTO 03006KT 10SM -SN SCT041 OVC050 03/03 A2946 RMK AO2 RAE53SNB53 SLP986 P0003 T00330033=
202401220553 METAR KBLI 220553Z 03005KT 7SM -RA FEW042 OVC055 04/04 A2947 RMK AO2 SLP987 P0002 60003 T00440039 10044 20033 58003=
202401220453 METAR KBLI 220453Z 04004KT 8SM -RA FEW034 OVC065 04/04 A2947 RMK AO2 RAB37 SLP990 P0001 T00390039=
202401220353 METAR KBLI 220353Z 36003KT 10SM OVC033 04/04 A2948 RMK AO2 RAE04 SLP990 P0000 T00440039=
202401220253 METAR KBLI 220253Z 03006KT 10SM -RA OVC033 04/04 A2948 RMK AO2 RAB08E31B51 SLP991 P0000 60000 T00390039 50002=
202401220153 METAR KBLI 220153Z 04007KT 10SM OVC038 04/03 A2948 RMK AO2 RAB36E47 SLP991 P0000 T00390033=
202401220053 METAR KBLI 220053Z 04006KT 10SM OVC033 04/03 A2948 RMK AO2 SLP991 T00390033=
202401212353 METAR KBLI 212353Z 01004KT 10SM OVC036 04/04 A2947 RMK AO2 SLP989 60007 T00440039 10056 20033 55003=
202401212253 METAR KBLI 212253Z 01003KT 10SM SCT046 OVC070 05/05 A2947 RMK AO2 RAE44 SLP988 P0000 T00500050=
202401212153 METAR KBLI 212153Z 02004KT 8SM -RA SCT025 BKN040 BKN050 05/04 A2948 RMK AO2 SLP990 P0007 T00500044=
202401212053 METAR KBLI 212053Z 04006KT 10SM -RA OVC039 05/04 A2948 RMK AO2 RAB47 SLP991 P0000 60000 T00500039 58008=
202401211953 METAR KBLI 211953Z 02007KT 10SM OVC039 05/04 A2949 RMK AO2 SLP994 T00500039=
202401211853 METAR KBLI 211853Z 02007KT 10SM OVC037 04/03 A2950 RMK AO2 SLP998 T00390033=
202401211753 METAR KBLI 211753Z 02007KT 10SM OVC030 03/03 A2950 RMK AO2 RAE30 SLP999 P0002 60010 T00330028 10083 20022 53010=
202401211653 METAR KBLI 211653Z 04008KT 020V100 5SM -RA BR OVC032 04/03 A2949 RMK AO2 SLP996 P0005 T00390028=
202401211553 METAR KBLI 211553Z 14009G22KT 10SM -RA OVC030 08/05 A2948 RMK AO2 RAB11 SLP992 P0000 T00780050=
202401211453 METAR KBLI 211453Z VRB03KT 10SM OVC026 03/03 A2947 RMK AO2 RAE13UPB13E16 SLP990 P0000 60003 T00330028 58005=
202401211353 METAR KBLI 211353Z AUTO 36003KT 9SM -RA OVC027 03/02 A2948 RMK AO2 SLP993 P0001 T00280022=
202401211332 SPECI KBLI 211332Z AUTO 00000KT 9SM -RA OVC029 03/02 A2948 RMK AO2 P0000 T00280022=
202401211253 METAR KBLI 211253Z AUTO 00000KT 9SM -RA OVC032 02/02 A2948 RMK AO2 SLP993 P0002 T00220017=
202401211229 SPECI KBLI 211229Z AUTO 01003KT 8SM -RA BKN033 OVC041 03/02 A2948 RMK AO2 P0002 T00280022=
202401211220 SPECI KBLI 211220Z AUTO 36003KT 2SM -RA BR BKN033 OVC041 02/02 A2948 RMK AO2 VIS 1 1/4V5 P0001 T00220022=
202401211153 METAR KBLI 211153Z AUTO 00000KT 9SM -RA OVC037 03/03 A2949 RMK AO2 RAB09UPB34E43 SLP994 P0000 60001 70001 T00280028 10033 20017 55000=
202401211053 METAR KBLI 211053Z AUTO 01005KT 6SM BR OVC039 03/02 A2948 RMK AO2 RAB06E47UPB47E50 SLP992 P0001 T00280022=
202401210953 METAR KBLI 210953Z AUTO 35004KT 8SM FEW043 BKN060 OVC100 02/02 A2948 RMK AO2 RAB0859E47 SLP990 P0000 T00220022=
202401210853 METAR KBLI 210853Z AUTO 00000KT 7SM FEW041 BKN065 OVC090 02/02 A2949 RMK AO2 RAB0754E45UPB0755E0756 SLP995 P0000 60000 T00220017 50001=
202401210753 METAR KBLI 210753Z AUTO 03004KT 9SM BKN038 OVC049 02/02 A2950 RMK AO2 RAE0654UPB30E39 SLP997 P0000 T00220017 400441011=
202401210653 METAR KBLI 210653Z AUTO 00000KT 10SM -RA BKN060 OVC080 02/01 A2950 RMK AO2 RAB28 SLP997 P0000 T00220011=
202401210553 METAR KBLI 210553Z 35003KT 10SM SCT055 BKN080 OVC110 02/01 A2949 RMK AO2 SLP994 T00220006 10033 20017 50003=
202401210453 METAR KBLI 210453Z 02003KT 10SM BKN095 02/00 A2949 RMK AO2 SLP995 T00170000=
202401210353 METAR KBLI 210353Z 05003KT 10SM SCT080 BKN100 02/01 A2948 RMK AO2 SLP992 T00220006=
202401210253 METAR KBLI 210253Z 02004KT 10SM FEW010 BKN100 02/00 A2948 RMK AO2 SLP991 T00220000 56008=
202401210153 METAR KBLI 210153Z 03004KT 10SM FEW010 BKN100 03/00 A2949 RMK AO2 SLP994 T00280000=
202401210053 METAR KBLI 210053Z 02004KT 10SM FEW005 SCT080 BKN110 03/00 A2949 RMK AO2 SLP997 T00280000=
202401202353 METAR KBLI 202353Z 02005KT 10SM OVC100 03/00 A2950 RMK AO2 SLP999 T00330000 10044 20022 56017=
202401202253 METAR KBLI 202253Z 02007KT 10SM FEW008 BKN100 04/01 A2950 RMK AO2 SLP999 T00440006=
202401202153 METAR KBLI 202153Z 02006KT 10SM FEW005 BKN100 04/01 A2953 RMK AO2 SLP007 T00440006=
202401202053 METAR KBLI 202053Z 01006KT 10SM OVC110 03/01 A2955 RMK AO2 SLP017 T00330006 58027=
202401201953 METAR KBLI 201953Z 02005KT 10SM BKN100 OVC120 03/01 A2959 RMK AO2 SLP030 T00280011=
202401201853 METAR KBLI 201853Z 02004KT 10SM FEW003 FEW110 03/01 A2962 RMK AO2 SLP038 T00280006=
202401201817 SPECI KBLI 201817Z 04003KT 10SM SCT004 BKN110 02/01 A2962 RMK AO2 T00220006=
202401201753 METAR KBLI 201753Z 00000KT 10SM BKN003 02/01 A2963 RMK AO2 SLP045 T00220011 10022 21011 55005=
202401201733 SPECI KBLI 201733Z 00000KT 10SM OVC003 02/01 A2963 RMK AO2 T00170006=
202401201713 SPECI KBLI 201713Z 00000KT 10SM SCT005 01/00 A2963 RMK AO2 T00110000=
202401201653 METAR KBLI 201653Z 03003KT 10SM FEW100 01/01 A2963 RMK AO2 SLP043 T00110006=
202401201553 METAR KBLI 201553Z 00000KT 10SM BKN120 01/01 A2963 RMK AO2 SLP043 T00110006=
202401201453 METAR KBLI 201453Z 00000KT 10SM SCT008 BKN013 BKN120 01/01 A2965 RMK AO2 SLP050 T00110006 56015=
202401201447 SPECI KBLI 201447Z 00000KT 10SM SCT008 SCT013 BKN120 01/01 A2965 RMK AO2=
202401201436 SPECI KBLI 201436Z AUTO 07005KT 10SM BKN007 01/M01 A2965 RMK AO2 CIG 007V010 T00061006=
202401201407 SPECI KBLI 201407Z AUTO 07003KT 10SM SCT006 01/M01 A2966 RMK AO2 T00061006=
202401201353 METAR KBLI 201353Z AUTO 02003KT 10SM CLR M01/M01 A2966 RMK AO2 SLP053 T10061006=
202401201253 METAR KBLI 201253Z AUTO 00000KT 10SM CLR M01/M01 A2968 RMK AO2 SLP059 T10061011=
202401201153 METAR KBLI 201153Z AUTO 00000KT 10SM CLR 02/00 A2969 RMK AO2 SLP064 70015 T00170000 10022 21006 56021=
202401201053 METAR KBLI 201053Z AUTO 02005KT 10SM CLR 02/00 A2971 RMK AO2 SLP070 T00170000=
202401200953 METAR KBLI 200953Z AUTO 02004KT 10SM FEW090 OVC110 01/00 A2973 RMK AO2 SLP079 T00110000=
202401200853 METAR KBLI 200853Z AUTO 00000KT 10SM FEW120 01/00 A2976 RMK AO2 SLP087 T00110000 58009=
202401200753 METAR KBLI 200753Z AUTO 04005KT 9SM CLR 01/00 A2976 RMK AO2 SLP089 T00060000 400111006=
202401200653 METAR KBLI 200653Z AUTO 00000KT 10SM SCT005 00/M01 A2978 RMK AO2 SLP095 T00001006=
202401200649 SPECI KBLI 200649Z AUTO 00000KT 10SM SCT005 00/M01 A2978 RMK AO2=
202401200553 METAR KBLI 200553Z 00000KT 10SM FEW080 SCT120 00/M01 A2980 RMK AO2 SLP102 60000 T00001006 10011 20000 55009=
202401200453 METAR KBLI 200453Z 34003KT 10SM SCT005 01/M01 A2980 RMK AO2 SLP102 T00061006=
202401200353 METAR KBLI 200353Z 00000KT 10SM FEW006 00/M01 A2982 RMK AO2 SLP108 T00001011=
202401200253 METAR KBLI 200253Z 01005KT 10SM FEW008 BKN080 01/00 A2983 RMK AO2 SLP111 60000 T00110000 58017=
202401200153 METAR KBLI 200153Z 02005KT 10SM FEW005 BKN060 01/M01 A2984 RMK AO2 SLP116 T00111006=
202401200053 METAR KBLI 200053Z 01005KT 10SM FEW005 FEW030 BKN065 01/00 A2986 RMK AO2 RAE01B35E44UPB32E35 SLP123 P0000 T00110000=
202401192353 METAR KBLI 192353Z 02005KT 10SM -RA OVC065 01/01 A2988 RMK AO2 SLP128 P0000 60007 T00110006 10011 20000 58017=
202401192253 METAR KBLI 192253Z 02005KT 10SM -RA FEW008 SCT060 BKN090 01/00 A2990 RMK AO2 RAE20B42UPB17E19B39E42 SLP134 P0000 T00110000=
202401192153 METAR KBLI 192153Z 01004KT 10SM -RA FEW005 FEW015 BKN080 01/00 A2991 RMK AO2 SLP139 P0003 T00110000=
202401192053 METAR KBLI 192053Z 01006KT 7SM -RA OVC080 01/M01 A2993 RMK AO2 SLP144 P0002 60004 T00061006 58011=
202401191953 METAR KBLI 191953Z 36006KT 9SM -RA OVC080 01/00 A2995 RMK AO2 SLP151 P0002 T00110000=
202401191853 METAR KBLI 191853Z 36004KT 10SM -RA OVC085 01/00 A2997 RMK AO2 UPB02E11 SLP159 P0000 T00110000=
202401191753 METAR KBLI 191753Z 00000KT 10SM -RA FEW075 OVC095 01/00 A2996 RMK AO2 RAB00E22B45UPB22E45 SLP155 P0000 60008 I6001 T00060000 10011 20000 53002=
202401191653 METAR KBLI 191653Z 03003KT 10SM OVC090 01/M01 A2995 RMK AO2 RAE43 SLP153 P0001 T00111006=
202401191553 METAR KBLI 191553Z 03011KT 7SM -RA OVC075 01/M02 A2995 RMK AO2 SLP152 P0000 T00061017=
202401191453 METAR KBLI 191453Z 03010KT 5SM -RA BKN075 OVC085 01/M02 A2995 RMK AO2 UPE48RAB49FZRAB48E49 SLP154 P0002 60007 I1000 I3001 T00061017 58026=
202401191353 METAR KBLI 191353Z AUTO 04011KT 10SM UP OVC075 00/M01 A2999 RMK AO2 UPE20B39RAB20E39 SLP164 P0002 T00001011=
202401191253 METAR KBLI 191253Z AUTO 04011KT 7SM UP FEW043 OVC070 00/M01 A3001 RMK AO2 RAB13E27UPB27FZRAE13 SLP173 P0003 I1001 T00001011=
202401191219 SPECI KBLI 191219Z AUTO 04010KT 7SM -RA OVC041 01/M02 A3003 RMK AO2 RAB13FZRAE13 P0001 I1001 T00061017=
202401191153 METAR KBLI 191153Z AUTO 03009KT 6SM -FZRA BR FEW042 FEW055 OVC070 01/M02 A3003 RMK AO2 SLP180 P0003 60009 70020 I1007 I6008 T00061017 10011 20006 58007=
202401191053 METAR KBLI 191053Z AUTO 04011KT 8SM -FZRA BKN043 OVC055 01/M02 A3004 RMK AO2 RAE09FZRAB09 SLP183 P0003 I1001 T00061022=
202401191015 SPECI KBLI 191015Z AUTO 04012KT 9SM -FZRA OVC037 01/M03 A3004 RMK AO2 RAE09FZRAB09 P0001 I1001 T00061033=
202401190953 METAR KBLI 190953Z AUTO 04011KT 10SM -RA OVC038 01/M03 A3005 RMK AO2 SLP185 P0003 T00061033=
202401190853 METAR KBLI 190853Z AUTO 03012KT 10SM -RA OVC038 01/M04 A3005 RMK AO2 RAE01B45 SLP187 P0000 60000 T00111044 56012=
202401190753 METAR KBLI 190753Z AUTO 04012KT 10SM -RA OVC039 01/M04 A3006 RMK AO2 RAB38 SLP189 P0000 T00111044 400111017=
202401190653 METAR KBLI 190653Z AUTO 04013KT 10SM BKN050 OVC070 01/M05 A3006 RMK AO2 SLP191 T00111050=
202401190553 METAR KBLI 190553Z 04010G18KT 10SM OVC060 01/M05 A3009 RMK AO2 FZRAE49 SLP199 P0000 60010 I1000 I6002 T00061050 10006 20000 58008=
202401190453 METAR KBLI 190453Z 05009G18KT 9SM -FZRA OVC065 00/M04 A3010 RMK AO2 SLP204 P0001 I1000 T00001044=
202401190427 SPECI KBLI 190427Z 05011KT 8SM -FZRA BKN050 OVC060 00/M04 A3011 RMK AO2 P0001 I1000 T00001039=
202401190353 METAR KBLI 190353Z 05011G23KT 8SM -FZRA BKN040 OVC055 00/M04 A3011 RMK AO2 UPB22E49FZRAE22B49 SLP205 P0001 I1000 T00001039=
202401190328 SPECI KBLI 190328Z 04014G23KT 8SM UP OVC050 00/M04 A3011 RMK AO2 UPB22FZRAE22 P0001 I1000 T00001039=
202401190253 METAR KBLI 190253Z 05013G21KT 6SM -FZRA BKN035 OVC050 00/M04 A3011 RMK AO2 SLP207 P0003 60008 I1001 I3002 T00001039 56006=
202401190153 METAR KBLI 190153Z 04013G22KT 4SM -FZRA BKN028 OVC043 00/M04 A3012 RMK AO2 UPB0054E0055FZRAE0054B0055 SLP208 P0003 I1001 T00001044=
202401190053 METAR KBLI 190053Z 04014G22KT 6SM -FZRA BKN028 OVC047 00/M05 A3013 RMK AO2 UPB07E41FZRAB2355E07B41SNE2355 SLP212 P0002 I1000 T00001050=
202401190042 SPECI KBLI 190042Z 04015G23KT 6SM FZRA BKN025 OVC030 00/M06 A3012 RMK AO2 UPB07E41FZRAB2355E07B41SNE2355 P0001 I1000 T00001056=
202401190008 SPECI KBLI 190008Z 04017G25KT 6SM UP BKN025 OVC030 00/M06 A3013 RMK AO2 UPB07FZRAB2355E07SNE2355 P0001 I1000 T00001056=
202401182355 SPECI KBLI 182355Z 03016G23KT 6SM FZRA BKN025 OVC030 00/M06 A3013 RMK AO2 FZRAB55SNE55 P0000 I1000 T00001056=
202401182353 METAR KBLI 182353Z 04016G23KT 6SM -SN BKN025 OVC030 00/M06 A3013 RMK AO2 PK WND 04028/2300 UPE2256B50E52SNB2256E50B52 SLP214 P0001 60001 T00001056 10000 21017 56011=
202401182300 SPECI KBLI 182300Z 05018G28KT 6SM -SN OVC024 M01/M06 A3013 RMK AO2 PK WND 04028/2300 UPE2256SNB2256 P0001 T10061061=
202401182253 METAR KBLI 182253Z 04016G26KT 1 1/2SM UP SCT015 BKN024 OVC032 M01/M06 A3014 RMK AO2 PK WND 06029/2224 UPB53SNE53 SLP216 P0000 T10061061=
202401182153 METAR KBLI 182153Z 04016G26KT 1 1/2SM -SN SCT015 BKN024 OVC032 M01/M06 A3015 RMK AO2 PK WND 03028/2138 SLP220 P0000 T10111061=
202401182053 METAR KBLI 182053Z 05016G24KT 1SM R16/P6000FT -SN OVC024 M01/M06 A3016 RMK AO2 PK WND 05027/2042 SLP225 P0000 60000 T10111061 58005=
202401182000 SPECI KBLI 182000Z 04014G24KT 1 3/4SM -SN OVC024 M01/M07 A3017 RMK AO2 P0000 T10111072=
202401181953 METAR KBLI 181953Z 04014G22KT 2SM -SN BKN024 OVC035 M01/M07 A3017 RMK AO2 SLP228 P0000 T10111072=
202401181928 SPECI KBLI 181928Z 05015G22KT 2SM -SN BKN024 OVC045 M01/M07 A3017 RMK AO2 P0000 T10111072=
202401181911 SPECI KBLI 181911Z 05012G22KT 2 1/2SM -SN BKN030 OVC045 M01/M08 A3018 RMK AO2 P0000 T10111078=
202401181900 SPECI KBLI 181900Z 04015G21KT 1 3/4SM -SN OVC024 M01/M08 A3018 RMK AO2 P0000 T10111083=
202401181853 METAR KBLI 181853Z 05012KT 4SM -SN OVC024 M01/M09 A3018 RMK AO2 SNB43 SLP229 P0000 T10061089=
202401181849 SPECI KBLI 181849Z 04012G21KT 5SM -SN OVC026 M01/M09 A3018 RMK AO2 SNB43 P0000=
202401181753 METAR KBLI 181753Z 06012G22KT 10SM BKN049 BKN060 OVC075 M01/M09 A3017 RMK AO2 PK WND 04030/1707 SLP225 T10111094 11011 21017 53022=
202401181653 METAR KBLI 181653Z 04018G25KT 10SM BKN041 OVC048 M01/M09 A3014 RMK AO2 PK WND 03028/1607 SLP216 T10111094=
202401181553 METAR KBLI 181553Z 03020G31KT 10SM CLR M02/M09 A3011 RMK AO2 PK WND 03031/1549 SLP208 T10171094=
202401181453 METAR KBLI 181453Z 03014G25KT 10SM CLR M02/M09 A3010 RMK AO2 PK WND 05027/1443 SLP203 T10171094 53001=
202401181353 METAR KBLI 181353Z AUTO 04016G25KT 10SM CLR M02/M09 A3010 RMK AO2 PK WND 04028/1339 SLP202 T10171094=
202401181253 METAR KBLI 181253Z AUTO 04015G23KT 10SM CLR M02/M09 A3008 RMK AO2 SLP196 T10171089=
202401181153 METAR KBLI 181153Z AUTO 04011G21KT 10SM BKN065 M01/M09 A3010 RMK AO2 SLP202 70057 T10111089 11011 21011 53011=
202401181053 METAR KBLI 181053Z AUTO 04012G20KT 10SM OVC035 M01/M09 A3008 RMK AO2 SLP197 T10111089=
202401180953 METAR KBLI 180953Z AUTO 04011KT 10SM SCT028 OVC035 M01/M09 A3007 RMK AO2 SLP194 T10111089=
202401180927 SPECI KBLI 180927Z AUTO 03011G18KT 10SM BKN029 BKN043 OVC065 M01/M09 A3007 RMK AO2 T10111089=
202401180853 METAR KBLI 180853Z AUTO 04012KT 10SM SCT022 SCT044 OVC065 M01/M09 A3006 RMK AO2 SLP191 T10111089 51027=
202401180753 METAR KBLI 180753Z AUTO 02010G18KT 10SM OVC023 M01/M09 A3005 RMK AO2 SLP188 T10111089 410111028=
202401180729 SPECI KBLI 180729Z AUTO 04010KT 10SM BKN025 OVC065 M01/M09 A3004 RMK AO2 T10111089=
202401180653 METAR KBLI 180653Z AUTO 03009KT 10SM OVC065 M01/M09 A3001 RMK AO2 SLP174 T10111089=
202401180553 METAR KBLI 180553Z 04009KT 10SM OVC060 M01/M08 A2998 RMK AO2 SLP164 T10111083 11011 21022 51047=
202401180453 METAR KBLI 180453Z 03006KT 10SM OVC065 M02/M06 A2994 RMK AO2 SLP148 T10171061=
202401180353 METAR KBLI 180353Z 05009KT 10SM OVC070 M01/M09 A2989 RMK AO2 SLP133 T10111089=
202401180253 METAR KBLI 180253Z 05010KT 10SM OVC070 M02/M09 A2985 RMK AO2 SLP117 T10171089 53042=
202401180153 METAR KBLI 180153Z 04012G21KT 10SM BKN045 OVC065 M02/M09 A2980 RMK AO2 SLP102 T10171089=
202401180053 METAR KBLI 180053Z 04012G23KT 10SM OVC047 M02/M08 A2976 RMK AO2 SLP087 T10171083=
202401172353 METAR KBLI 172353Z 03013G21KT 9SM OVC039 M02/M08 A2972 RMK AO2 SNE51 SLP074 P0000 60010 T10221078 11022 21028 53054=
202401172253 METAR KBLI 172253Z 04015G22KT 9SM -SN OVC039 M02/M07 A2966 RMK AO2 PK WND 04027/2159 SLP055 P0000 T10221072=
202401172153 METAR KBLI 172153Z 04014G24KT 8SM -SN SCT024 OVC046 M03/M06 A2960 RMK AO2 PK WND 03028/2055 UPB36E40SNE36B40 SLP034 P0000 T10281061=
202401172053 METAR KBLI 172053Z 04015G27KT 7SM -SN OVC030 M02/M05 A2956 RMK AO2 PK WND 03028/2027 UPB37E52SNE37B52 SLP019 P0000 60010 T10221050 52047=
202401172005 SPECI KBLI 172005Z 03014G27KT 1/4SM R16/2800VP6000FT SN FZFG FEW008 OVC012 M03/M04 A2952 RMK AO2 PK WND 03027/2001 P0000 T10281039=
202401171953 METAR KBLI 171953Z 04017G34KT 1/4SM R16/2000V2800FT SN FZFG VV010 M03/M04 A2952 RMK AO2 PK WND 01034/1944 SLP005 P0004 T10281039=
202401171853 METAR KBLI 171853Z 03010KT 1/4SM R16/2200V3000FT SN FZFG VV008 M03/M03 A2946 RMK AO2 SLP986 P0006 T10281033=
202401171753 METAR KBLI 171753Z 03010KT 1/4SM R16/2200V2800FT +SN FZFG VV007 M02/M03 A2942 RMK AO2 SLP972 P0007 60047 T10221028 11011 21022 56009=
202401171719 SPECI KBLI 171719Z 04011KT 1/4SM R16/2200V3000FT +SN FZFG VV008 M02/M03 A2942 RMK AO2 P0003 T10221028=
202401171707 SPECI KBLI 171707Z 04012G19KT 1/4SM R16/2800V4500FT SN FZFG FEW005 OVC010 M02/M03 A2942 RMK AO2 P0001 T10171028=
202401171653 METAR KBLI 171653Z 04009KT 3/4SM R16/3000V4500FT -SN BR SCT006 OVC014 M02/M03 A2942 RMK AO2 SLP973 P0008 T10171028=
202401171553 METAR KBLI 171553Z 02007G16KT 3/4SM R16/5500VP6000FT -SN BR SCT006 OVC014 M02/M02 A2942 RMK AO2 SLP974 P0008 T10171022=
202401171453 METAR KBLI 171453Z 03008KT 1 1/4SM -SN BR OVC014 M01/M02 A2945 RMK AO2 SLP981 P0009 60024 T10111022 56020=
202401171417 SPECI KBLI 171417Z AUTO 02007KT 1 1/4SM -SN BR FEW005 OVC012 M01/M02 A2947 RMK AO2 P0003 T10111022=
202401171353 METAR KBLI 171353Z AUTO 04005KT 1SM R16/P6000FT -SN BR FEW010 OVC014 M02/M02 A2947 RMK AO2 SLP990 P0009 T10171022=
202401171350 SPECI KBLI 171350Z AUTO 04005KT 1SM R16/P6000FT -SN BR FEW010 OVC014 M02/M02 A2947 RMK AO2 P0009=
202401171334 SPECI KBLI 171334Z AUTO 02004KT 3/4SM R16/P6000FT -SN BR SCT007 OVC012 M02/M02 A2949 RMK AO2 P0006 T10171022=
202401171253 METAR KBLI 171253Z AUTO 36004KT 1SM R16/P6000FT -SN BR BKN007 OVC023 M02/M02 A2951 RMK AO2 SLP002 P0006 T10171022=
202401171245 SPECI KBLI 171245Z AUTO 01004KT 1 1/2SM -SN BR BKN009 OVC023 M02/M02 A2951 RMK AO2 P0005 T10171022=
202401171220 SPECI KBLI 171220Z AUTO 01005KT 1 3/4SM -SN BR SCT011 OVC025 M02/M03 A2952 RMK AO2 P0002 T10171028=
202401171215 SPECI KBLI 171215Z AUTO 01004KT 2 1/2SM -SN BR BKN011 OVC027 M02/M03 A2953 RMK AO2 P0002 T10171028=
202401171204 SPECI KBLI 171204Z AUTO 01005KT 2 1/2SM -SN BR SCT011 OVC027 M02/M02 A2953 RMK AO2 P0001 T10171022=
202401171153 METAR KBLI 171153Z AUTO 02004KT 3SM -SN BR BKN011 BKN025 OVC029 M02/M02 A2954 RMK AO2 UPE04SNB04 SLP012 P0003 60017 70017 I6001 T10171022 11006 21022 58019=
202401171127 SPECI KBLI 171127Z AUTO 02006KT 1 3/4SM -SN BR SCT005 OVC011 M02/M02 A2955 RMK AO2 UPE04SNB04 P0001 T10171022=
202401171117 SPECI KBLI 171117Z AUTO 02007KT 3SM -SN BR BKN005 OVC011 M02/M02 A2956 RMK AO2 UPE04SNB04 CIG 004V008 P0001 T10171022=
202401171053 METAR KBLI 171053Z AUTO 36004KT 10SM UP SCT005 BKN011 OVC035 M02/M02 A2956 RMK AO2 UPB01SNE01 SLP021 P0003 I1001 T10171022=
202401171039 SPECI KBLI 171039Z AUTO 02006KT 6SM UP BR SCT005 OVC033 M02/M02 A2956 RMK AO2 UPB01SNE01 P0003 I1000 T10171022=
202401171013 SPECI KBLI 171013Z AUTO 02007KT 6SM UP BR BKN006 BKN011 OVC033 M02/M03 A2958 RMK AO2 UPB01SNE01 P0001 T10171028=
202401170956 SPECI KBLI 170956Z AUTO 01007KT 5SM -SN BR FEW006 OVC031 M02/M03 A2959 RMK AO2 P0000 T10171028=
202401170953 METAR KBLI 170953Z AUTO 02007KT 4SM -SN BR OVC029 M02/M03 A2959 RMK AO2 SLP031 P0006 T10171028=
202401170950 SPECI KBLI 170950Z AUTO 01007KT 4SM -SN BR OVC029 M02/M03 A2959 RMK AO2 P0005=
202401170934 SPECI KBLI 170934Z AUTO 03009KT 2SM -SN BR FEW007 FEW020 OVC027 M02/M03 A2960 RMK AO2 P0003 T10221028=
202401170922 SPECI KBLI 170922Z AUTO 02008KT 1 1/4SM -SN BR SCT007 SCT020 OVC025 M02/M03 A2961 RMK AO2 P0003 T10221033=
202401170904 SPECI KBLI 170904Z AUTO 02006KT 1 3/4SM -SN BR BKN007 OVC021 M02/M03 A2962 RMK AO2 P0001 T10171028=
202401170902 SPECI KBLI 170902Z AUTO 02006KT 2SM -SN BR SCT009 OVC021 M02/M03 A2962 RMK AO2 P0001 T10171028=
202401170853 METAR KBLI 170853Z AUTO 04006KT 1 3/4SM -SN BR FEW009 OVC021 M02/M03 A2962 RMK AO2 SLP041 P0004 60005 T10171028 56026=
202401170828 SPECI KBLI 170828Z AUTO 36005KT 1 1/2SM -SN BR OVC021 M02/M04 A2963 RMK AO2 P0002 T10221039=
202401170815 SPECI KBLI 170815Z AUTO 01005KT 2 1/2SM -SN BR BKN021 OVC037 M02/M04 A2964 RMK AO2 P0001 T10171039=
202401170753 METAR KBLI 170753Z AUTO 02007KT 3SM -SN BR FEW025 OVC038 M02/M04 A2964 RMK AO2 UPE13SNB13 SLP048 P0001 T10171039 400171078=
202401170747 SPECI KBLI 170747Z AUTO 02006KT 2 1/2SM -SN FEW025 OVC036 M02/M04 A2965 RMK AO2 UPE13SNB13 P0001=
202401170715 SPECI KBLI 170715Z AUTO 01007KT 7SM -SN BKN029 OVC037 M02/M05 A2966 RMK AO2 UPE13SNB13 P0000 T10171050=
202401170653 METAR KBLI 170653Z AUTO 02006KT 8SM UP OVC045 M01/M06 A2967 RMK AO2 UPB46SNB37E46 SLP056 P0000 T10111061=
202401170553 METAR KBLI 170553Z 03004KT 10SM OVC050 M01/M08 A2970 RMK AO2 SLP067 T10061078 10000 21017 56020=
202401170453 METAR KBLI 170453Z 02004KT 10SM SCT045 OVC060 M01/M08 A2971 RMK AO2 SLP071 T10111083=
202401170353 METAR KBLI 170353Z 02005KT 10SM OVC048 M01/M08 A2973 RMK AO2 SLP080 T10111083=
202401170253 METAR KBLI 170253Z 02007KT 10SM CLR M02/M08 A2976 RMK AO2 SLP088 T10171083 56029=
202401170153 METAR KBLI 170153Z 01005KT 10SM CLR M02/M09 A2978 RMK AO2 SLP096 T10171089=
202401170053 METAR KBLI 170053Z 03007KT 10SM CLR M01/M08 A2981 RMK AO2 SLP106 T10111083=
202401162353 METAR KBLI 162353Z 03008KT 10SM CLR 00/M08 A2984 RMK AO2 SLP117 T00001078 10017 21039 56036=
202401162253 METAR KBLI 162253Z 02006KT 10SM CLR 01/M08 A2987 RMK AO2 SLP126 T00111078=
202401162153 METAR KBLI 162153Z 01005KT 10SM CLR 01/M08 A2990 RMK AO2 SLP136 T00111078=
202401162053 METAR KBLI 162053Z 02005KT 10SM CLR 00/M08 A2995 RMK AO2 SLP153 T00001083 58032=
202401161953 METAR KBLI 161953Z 03004KT 10SM CLR 01/M07 A2999 RMK AO2 SLP165 T00061072=
202401161853 METAR KBLI 161853Z VRB03KT 10SM CLR M01/M07 A3002 RMK AO2 SLP177 T10111072=
202401161753 METAR KBLI 161753Z 03005KT 10SM CLR M03/M08 A3004 RMK AO2 SLP184 T10331083 11033 21078 56018=
202401161653 METAR KBLI 161653Z 01004KT 10SM CLR M05/M08 A3006 RMK AO2 SLP190 T10501083=
202401161553 METAR KBLI 161553Z 03003KT 10SM CLR M06/M09 A3007 RMK AO2 SLP194 T10611094=
202401161453 METAR KBLI 161453Z 00000KT 10SM CLR M06/M09 A3009 RMK AO2 SLP202 T10611094 56026=
202401161353 METAR KBLI 161353Z AUTO 00000KT 10SM CLR M07/M09 A3012 RMK AO2 SLP211 T10721094=
202401161253 METAR KBLI 161253Z AUTO 00000KT 10SM CLR M07/M11 A3013 RMK AO2 SLP215 T10721111=
202401161153 METAR KBLI 161153Z AUTO 02003KT 10SM CLR M08/M11 A3017 RMK AO2 SLP229 T10781111 11050 21078 58023=
202401161053 METAR KBLI 161053Z AUTO 00000KT 10SM CLR M07/M11 A3019 RMK AO2 SLP236 T10671111=
202401160953 METAR KBLI 160953Z AUTO 01004KT 10SM CLR M07/M12 A3022 RMK AO2 SLP245 T10721117=
202401160853 METAR KBLI 160853Z AUTO 01005KT 10SM CLR M07/M12 A3024 RMK AO2 SLP252 T10671117 56016=
202401160753 METAR KBLI 160753Z AUTO 03004KT 10SM CLR M06/M12 A3026 RMK AO2 SLP258 T10611117 400001089=
202401160653 METAR KBLI 160653Z AUTO 01004KT 10SM CLR M06/M12 A3027 RMK AO2 SLP262 T10611117=
202401160553 METAR KBLI 160553Z 02004KT 10SM CLR M05/M11 A3029 RMK AO2 SLP269 T10501111 11011 21056 58012=
202401160453 METAR KBLI 160453Z 02006KT 10SM CLR M04/M12 A3030 RMK AO2 SLP272 T10441117=
202401160353 METAR KBLI 160353Z 03007KT 10SM CLR M04/M12 A3032 RMK AO2 SLP278 T10441117=
202401160253 METAR KBLI 160253Z 03007KT 10SM CLR M03/M11 A3032 RMK AO2 SLP280 T10331111 57012=
202401160153 METAR KBLI 160153Z 02007KT 10SM CLR M03/M12 A3034 RMK AO2 SLP285 T10281117=
202401160053 METAR KBLI 160053Z 03008KT 10SM CLR M02/M12 A3035 RMK AO2 SLP288 T10221117=
202401152353 METAR KBLI 152353Z 03006KT 10SM CLR M01/M11 A3036 RMK AO2 SLP293 T10111111 10000 21044 58016=
202401152253 METAR KBLI 152253Z 04006KT 10SM CLR M01/M11 A3038 RMK AO2 SLP299 T10061111=
202401152153 METAR KBLI 152153Z 03009KT 10SM CLR 00/M12 A3039 RMK AO2 SLP302 T00001117=
202401152053 METAR KBLI 152053Z 03009KT 10SM CLR 00/M12 A3041 RMK AO2 SLP309 T00001122 58008=
202401151953 METAR KBLI 151953Z 03007KT 10SM CLR M01/M13 A3043 RMK AO2 SLP316 T10111128=
202401151853 METAR KBLI 151853Z 01007KT 10SM CLR M03/M13 A3043 RMK AO2 SLP316 T10281133=
202401151753 METAR KBLI 151753Z 02007KT 10SM CLR M04/M13 A3043 RMK AO2 SLP317 T10441128 11044 21089 53004=
202401151653 METAR KBLI 151653Z 03006KT 10SM CLR M07/M13 A3041 RMK AO2 SLP311 T10671128=
202401151553 METAR KBLI 151553Z 04003KT 10SM CLR M08/M13 A3042 RMK AO2 SLP312 T10831133=
202401151453 METAR KBLI 151453Z 03003KT 10SM CLR M08/M14 A3042 RMK AO2 SLP313 T10781139 55000=
202401151353 METAR KBLI 151353Z AUTO 04004KT 10SM CLR M08/M14 A3041 RMK AO2 SLP311 T10831139=
202401151253 METAR KBLI 151253Z AUTO 03005KT 10SM CLR M08/M14 A3040 RMK AO2 SLP307 T10781139=
202401151153 METAR KBLI 151153Z AUTO 03007KT 10SM CLR M07/M14 A3042 RMK AO2 SLP313 T10721139 11067 21078 51009=
202401151053 METAR KBLI 151053Z AUTO 01006KT 10SM CLR M07/M14 A3042 RMK AO2 SLP312 T10721144=
202401150953 METAR KBLI 150953Z AUTO 01005KT 10SM CLR M07/M14 A3040 RMK AO2 SLP306 T10671144=
202401150853 METAR KBLI 150853Z AUTO 04005KT 10SM CLR M07/M14 A3039 RMK AO2 SLP304 T10721144 53011=
202401150753 METAR KBLI 150753Z AUTO 02007KT 10SM CLR M07/M14 A3038 RMK AO2 SLP298 T10721144 410281111=
202401150653 METAR KBLI 150653Z AUTO 03006KT 10SM CLR M07/M14 A3037 RMK AO2 SLP297 T10721144=
202401150553 METAR KBLI 150553Z 02008KT 10SM CLR M07/M14 A3036 RMK AO2 SLP294 T10721144 11044 21083 53009=
202401150453 METAR KBLI 150453Z 04003KT 10SM CLR M07/M15 A3034 RMK AO2 SLP288 T10721150=
202401150353 METAR KBLI 150353Z 05008KT 10SM CLR M07/M15 A3034 RMK AO2 SLP287 T10671150=
202401150253 METAR KBLI 150253Z 02007KT 10SM CLR M06/M15 A3033 RMK AO2 SLP285 T10611150 53019=
202401150153 METAR KBLI 150153Z 03009KT 10SM CLR M06/M15 A3031 RMK AO2 SLP276 T10561150=
202401150053 METAR KBLI 150053Z 05007KT 10SM CLR M05/M15 A3029 RMK AO2 SLP269 T10501150=
202401142353 METAR KBLI 142353Z 02009KT 10SM CLR M04/M16 A3028 RMK AO2 SLP266 T10441156 11028 21072 53008=
202401142253 METAR KBLI 142253Z 04008KT 10SM CLR M03/M16 A3026 RMK AO2 SLP261 T10331156=
202401142153 METAR KBLI 142153Z 02007KT 10SM CLR M04/M16 A3026 RMK AO2 SLP258 T10391161=
202401142053 METAR KBLI 142053Z 36005KT 10SM CLR M04/M17 A3025 RMK AO2 SLP256 T10391167 50006=
202401141953 METAR KBLI 141953Z 04008KT 10SM CLR M04/M17 A3026 RMK AO2 SLP258 T10441167=
202401141853 METAR KBLI 141853Z 05008KT 10SM CLR M06/M17 A3026 RMK AO2 SLP259 T10561167=
202401141753 METAR KBLI 141753Z 04006KT 10SM CLR M07/M17 A3024 RMK AO2 SLP252 T10721167 11072 21106 53027=
202401141653 METAR KBLI 141653Z 03005KT 10SM CLR M09/M17 A3020 RMK AO2 SLP238 T10891172=
202401141553 METAR KBLI 141553Z 05007KT 10SM CLR M11/M18 A3016 RMK AO2 SLP227 T11061183=
202401141453 METAR KBLI 141453Z 36005KT 10SM CLR M11/M18 A3016 RMK AO2 SLP224 T11061178 53026=
202401141353 METAR KBLI 141353Z AUTO 36004KT 10SM CLR M11/M18 A3013 RMK AO2 SLP214 T11061178=
202401141253 METAR KBLI 141253Z AUTO 01004KT 10SM CLR M11/M18 A3010 RMK AO2 SLP205 T11061178=
202401141153 METAR KBLI 141153Z AUTO 36004KT 10SM CLR M10/M17 A3008 RMK AO2 SLP198 T11001172 11089 21111 51025=
202401141053 METAR KBLI 141053Z AUTO 03004KT 10SM CLR M11/M17 A3006 RMK AO2 SLP190 T11061172=
202401140953 METAR KBLI 140953Z AUTO 03005KT 10SM CLR M09/M18 A3003 RMK AO2 SLP182 T10941183=
202401140853 METAR KBLI 140853Z AUTO 04006KT 10SM CLR M09/M19 A3000 RMK AO2 SLP172 T10891189 51022=
202401140753 METAR KBLI 140753Z AUTO 02006KT 10SM CLR M09/M19 A3000 RMK AO2 SLP170 T10941189 410721139=
202401140653 METAR KBLI 140653Z AUTO 04008KT 10SM CLR M09/M19 A2996 RMK AO2 SLP157 T10941189=
202401140553 METAR KBLI 140553Z 03009KT 10SM CLR M09/M19 A2994 RMK AO2 SLP149 T10941189 11078 21100 51010=
202401140453 METAR KBLI 140453Z 03010KT 10SM CLR M09/M19 A2993 RMK AO2 SLP148 T10941189=
202401140353 METAR KBLI 140353Z 02009G17KT 10SM CLR M09/M19 A2992 RMK AO2 SLP145 T10941189=
202401140253 METAR KBLI 140253Z 03012KT 10SM CLR M09/M19 A2991 RMK AO2 SLP141 T10941194 51016=
202401140153 METAR KBLI 140153Z 03012KT 10SM CLR M09/M19 A2990 RMK AO2 SLP138 T10891189=
202401140053 METAR KBLI 140053Z 01009KT 10SM CLR M08/M19 A2988 RMK AO2 SLP131 T10831189=
202401132353 METAR KBLI 132353Z 03013G22KT 10SM CLR M08/M19 A2986 RMK AO2 PK WND 03026/2305 SLP124 T10781189 11072 21111 55013=
202401132253 METAR KBLI 132253Z 03015G23KT 10SM CLR M07/M19 A2985 RMK AO2 PK WND 04027/2217 SLP119 T10721194=
202401132153 METAR KBLI 132153Z 04014G24KT 10SM CLR M07/M19 A2986 RMK AO2 SLP123 T10721194=
202401132053 METAR KBLI 132053Z 02012G23KT 10SM CLR M08/M20 A2990 RMK AO2 SLP136 T10781200 56041=
202401131953 METAR KBLI 131953Z 04013G24KT 10SM CLR M08/M21 A2992 RMK AO2 SLP146 T10831206=
202401131853 METAR KBLI 131853Z 03011G19KT 10SM CLR M09/M21 A2998 RMK AO2 SLP165 T10941211=
202401131753 METAR KBLI 131753Z 03015G19KT 10SM CLR M11/M21 A3002 RMK AO2 SLP179 T11111211 11111 21139 56031=
202401131653 METAR KBLI 131653Z 03011KT 10SM CLR M13/M22 A3005 RMK AO2 SLP191 T11281217=
202401131553 METAR KBLI 131553Z 02008KT 10SM CLR M13/M21 A3007 RMK AO2 SLP198 T11331211=
202401131453 METAR KBLI 131453Z 02007KT 10SM CLR M13/M21 A3011 RMK AO2 SLP210 T11281211 56030=
202401131353 METAR KBLI 131353Z AUTO 03006KT 10SM CLR M13/M21 A3013 RMK AO2 SLP217 T11331211=
202401131253 METAR KBLI 131253Z AUTO 02008KT 10SM CLR M14/M22 A3016 RMK AO2 SLP227 T11391222=
202401131153 METAR KBLI 131153Z AUTO 02009G18KT 10SM CLR M13/M22 A3020 RMK AO2 SLP240 T11331222 11128 21133 56021=
202401131053 METAR KBLI 131053Z AUTO 04011KT 10SM CLR M13/M23 A3022 RMK AO2 SLP248 T11281233=
202401130953 METAR KBLI 130953Z AUTO 05010KT 10SM CLR M13/M23 A3024 RMK AO2 SLP253 T11281233=
202401130853 METAR KBLI 130853Z AUTO 04010KT 10SM CLR M13/M24 A3026 RMK AO2 SLP261 T11281239 58023=
202401130753 METAR KBLI 130753Z AUTO 04013G22KT 10SM CLR M13/M23 A3029 RMK AO2 SLP272 T11281233 411221161=
202401130653 METAR KBLI 130653Z AUTO 04013KT 10SM CLR M13/M24 A3032 RMK AO2 SLP280 T11281244=
202401130553 METAR KBLI 130553Z 04014G23KT 10SM CLR M13/M24 A3033 RMK AO2 SLP285 T11331244 11128 21133 58008=
202401130453 METAR KBLI 130453Z 03013G23KT 10SM CLR M13/M24 A3035 RMK AO2 SLP291 T11331244=
202401130353 METAR KBLI 130353Z 05015G21KT 10SM CLR M13/M25 A3035 RMK AO2 SLP292 T11331250=
202401130253 METAR KBLI 130253Z 04015G25KT 10SM CLR M13/M26 A3035 RMK AO2 PK WND 05028/0217 SLP294 T11331261 53001=
202401130153 METAR KBLI 130153Z 04017G33KT 10SM CLR M13/M26 A3035 RMK AO2 PK WND 04037/0102 SLP291 T11331261=
202401130053 METAR KBLI 130053Z 04017G29KT 10SM CLR M13/M26 A3034 RMK AO2 PK WND 03038/0032 SLP289 T11331261=
202401122353 METAR KBLI 122353Z 04022G37KT 10SM CLR M13/M26 A3035 RMK AO2 PK WND 04037/2346 SLP292 T11281261 11122 21150 53007=
202401122253 METAR KBLI 122253Z 03020G35KT 10SM CLR M13/M26 A3033 RMK AO2 PK WND 05045/2236 SLP285 T11281261=
202401122153 METAR KBLI 122153Z 04023G39KT 10SM CLR M13/M26 A3033 RMK AO2 PK WND 04040/2130 SLP286 T11281261=
202401122053 METAR KBLI 122053Z 04025G40KT 10SM CLR M13/M27 A3033 RMK AO2 PK WND 06043/2027 SLP285 T11331267 51005=
202401121953 METAR KBLI 121953Z 04030G41KT 10SM CLR M14/M27 A3033 RMK AO2 PK WND 03046/1854 SLP285 T11391267=
202401121853 METAR KBLI 121853Z 04026G41KT 10SM CLR M14/M27 A3032 RMK AO2 PK WND 06047/1833 SLP281 T11391272=
202401121753 METAR KBLI 121753Z 03026G47KT 10SM CLR M15/M27 A3032 RMK AO2 PK WND 03047/1737 SLP280 T11501272 11144 21161 53016=
202401121653 METAR KBLI 121653Z 03019G36KT 10SM CLR M16/M27 A3030 RMK AO2 PK WND 05043/1613 SLP273 T11561272=
202401121553 METAR KBLI 121553Z 03026G39KT 10SM CLR M16/M27 A3028 RMK AO2 PK WND 04040/1507 SLP266 T11561272=
202401121453 METAR KBLI 121453Z 04021G41KT 10SM CLR M16/M27 A3027 RMK AO2 PK WND 03044/1409 SLP264 T11561272 51028=
202401121353 METAR KBLI 121353Z AUTO 04023G43KT 10SM CLR M15/M27 A3024 RMK AO2 PK WND 04043/1350 SLP255 T11501272=
202401121253 METAR KBLI 121253Z AUTO 03020G40KT 10SM CLR M14/M27 A3022 RMK AO2 PK WND 05045/1225 SLP247 T11441267=
202401121153 METAR KBLI 121153Z AUTO 03024G45KT 10SM CLR M14/M26 A3019 RMK AO2 PK WND 05048/1125 SLP236 T11441261 11111 21144 51032=
202401121053 METAR KBLI 121053Z AUTO 04021G43KT 10SM CLR M14/M26 A3016 RMK AO2 PK WND 03053/1027 SLP225 T11441256=
202401120953 METAR KBLI 120953Z AUTO 03026G44KT 10SM CLR M14/M26 A3014 RMK AO2 PK WND 05050/0940 PRESRR SLP218 T11391256=
202401120853 METAR KBLI 120853Z AUTO 04020G41KT 10SM CLR M13/M25 A3009 RMK AO2 PK WND 05049/0804 SLP203 T11331250 51027=
202401120753 METAR KBLI 120753Z AUTO 03026G54KT 10SM BKN085 M13/M24 A3007 RMK AO2 PK WND 04054/0749 SLP196 T11281244 400391128=
202401120653 METAR KBLI 120653Z AUTO 04024G43KT 10SM BKN090 M12/M23 A3005 RMK AO2 PK WND 03044/0638 SLP187 T11221233=
202401120553 METAR KBLI 120553Z 03024G39KT 10SM OVC095 M11/M23 A3001 RMK AO2 PK WND 04050/0532 SLP174 T11111228 11067 21111 51031=
202401120453 METAR KBLI 120453Z 04027G42KT 10SM SCT095 M10/M22 A2999 RMK AO2 PK WND 03045/0429 SLP167 T11001217=
202401120353 METAR KBLI 120353Z 04026G48KT 10SM FEW080 M09/M22 A2996 RMK AO2 PK WND 03048/0348 SLP157 T10941217=
202401120253 METAR KBLI 120253Z 04027G49KT 10SM SCT100 M09/M20 A2992 RMK AO2 PK WND 05049/0248 SLP143 T10891200 53023=
202401120153 METAR KBLI 120153Z 03025G46KT 10SM FEW095 M08/M19 A2987 RMK AO2 PK WND 05048/0117 SLP124 T10831189=
202401120053 METAR KBLI 120053Z 03028G48KT 10SM BKN060 M07/M17 A2986 RMK AO2 PK WND 03050/0031 SLP121 T10721172=
202401112353 METAR KBLI 112353Z 03023G39KT 10SM BKN060 M07/M16 A2985 RMK AO2 PK WND 05047/2326 SLP119 60000 T10671161 10028 21067 53014=
202401112253 METAR KBLI 112253Z 03028G46KT 10SM BKN050 OVC065 M06/M14 A2982 RMK AO2 PK WND 03046/2251 UPB07E17 SLP109 P0000 T10561144=
202401112153 METAR KBLI 112153Z 04017G31KT 10SM SCT055 BKN070 OVC085 M04/M12 A2981 RMK AO2 PK WND 04032/2116 SNE23 SLP105 P0000 T10441117=
202401112053 METAR KBLI 112053Z 04015G29KT 5SM -SN BKN055 BKN065 OVC080 M04/M10 A2981 RMK AO2 PK WND 03031/2027 SNB48 SLP105 P0000 60000 T10441100 53012=
202401111953 METAR KBLI 111953Z 04014G24KT 10SM FEW050 BKN070 OVC085 M03/M09 A2979 RMK AO2 SLP099 T10331089=
202401111853 METAR KBLI 111853Z 03012KT 10SM FEW049 BKN070 M01/M06 A2978 RMK AO2 SLP094 T10111061=
202401111753 METAR KBLI 111753Z 32006KT 10SM FEW044 BKN055 BKN075 03/M04 A2977 RMK AO2 SLP091 T00281044 10039 20028 53005=
202401111653 METAR KBLI 111653Z 29013G24KT 10SM SCT055 04/M06 A2976 RMK AO2 SLP088 T00391061=
202401111553 METAR KBLI 111553Z 28011G22KT 10SM FEW045 03/M06 A2976 RMK AO2 SLP086 T00331056=
202401111453 METAR KBLI 111453Z 28010G16KT 10SM BKN045 BKN055 03/M04 A2976 RMK AO2 SLP086 T00331044 58001=
202401111353 METAR KBLI 111353Z AUTO 29012G20KT 10SM FEW045 03/M04 A2977 RMK AO2 PK WND 28032/1308 SLP089 T00331044=
202401111253 METAR KBLI 111253Z AUTO 29009G20KT 240V310 10SM SCT043 SCT050 03/M04 A2977 RMK AO2 SLP088 T00331044=
202401111153 METAR KBLI 111153Z AUTO 29007G21KT 10SM FEW047 BKN060 04/M04 A2976 RMK AO2 SLP087 60005 70028 T00391044 10039 20011 53005=
202401111053 METAR KBLI 111053Z AUTO 24003KT 10SM SCT031 BKN065 02/M01 A2976 RMK AO2 SLP087 T00171011=
202401110953 METAR KBLI 110953Z AUTO 29006KT 10SM FEW029 BKN060 OVC075 03/00 A2975 RMK AO2 RAE44 SLP082 P0002 T00330000=
202401110950 SPECI KBLI 110950Z AUTO 29005KT 10SM FEW029 BKN060 OVC070 03/00 A2975 RMK AO2 RAE44 P0002=
202401110921 SPECI KBLI 110921Z AUTO 32007KT 10SM -RA OVC016 03/02 A2975 RMK AO2 P0002 T00330022=
202401110853 METAR KBLI 110853Z AUTO 22007G15KT 180V250 6SM -RA BR BKN014 BKN021 OVC026 04/03 A2974 RMK AO2 RAB02 SLP081 P0003 60003 T00390028 58011=
202401110753 METAR KBLI 110753Z AUTO 19007KT 10SM FEW010 BKN025 OVC065 04/03 A2975 RMK AO2 RAB37E49 SLP084 P0000 T00390028 400440011=
202401110719 SPECI KBLI 110719Z AUTO 17007KT 10SM SCT008 BKN026 OVC035 04/03 A2976 RMK AO2 T00390028=
202401110708 SPECI KBLI 110708Z AUTO 19006G15KT 10SM BKN008 BKN024 OVC036 04/03 A2977 RMK AO2 CIG 007V011 T00390028=
202401110701 SPECI KBLI 110701Z AUTO 18007G16KT 10SM SCT008 BKN021 OVC039 04/02 A2977 RMK AO2 T00390022=
202401110653 METAR KBLI 110653Z AUTO 18009KT 10SM FEW008 BKN037 OVC060 03/02 A2977 RMK AO2 SLP090 T00330022=
202401110650 SPECI KBLI 110650Z AUTO 17009KT 10SM FEW008 BKN027 OVC060 03/02 A2977 RMK AO2 CIG 019V034=
202401110640 SPECI KBLI 110640Z AUTO 18007G15KT 10SM FEW010 BKN029 OVC041 03/02 A2977 RMK AO2 T00330022=
202401110553 METAR KBLI 110553Z 17005KT 10SM BKN036 BKN046 OVC060 03/02 A2978 RMK AO2 SLP092 60000 T00330017 10039 20017 50004=
202401110453 METAR KBLI 110453Z 00000KT 10SM SCT018 OVC034 03/02 A2978 RMK AO2 SLP093 T00280017=
202401110353 METAR KBLI 110353Z 18003KT 10SM FEW022 BKN042 OVC050 02/02 A2977 RMK AO2 RAE00 SLP091 P0000 T00170017=
202401110253 METAR KBLI 110253Z 16006KT 8SM -RA SCT022 BKN039 OVC047 03/02 A2976 RMK AO2 RAE05B45 SLP088 P0000 60000 T00280022 52005=
202401110153 METAR KBLI 110153Z 00000KT 8SM -RA FEW011 BKN022 OVC034 03/02 A2976 RMK AO2 RAB51 SLP086 P0000 T00280022=
202401110149 SPECI KBLI 110149Z 00000KT 10SM FEW011 BKN022 OVC034 03/02 A2976 RMK AO2=
202401110132 SPECI KBLI 110132Z 00000KT 10SM FEW011 OVC032 03/02 A2976 RMK AO2 T00280022=
202401110053 METAR KBLI 110053Z 00000KT 10SM SCT007 BKN014 OVC032 03/03 A2975 RMK AO2 SLP083 T00330028=
202401102353 METAR KBLI 102353Z 00000KT 10SM SCT007 BKN014 OVC022 04/03 A2973 RMK AO2 RAB2259E11 SLP078 P0000 60002 T00390028 10044 20028 51014=
202401102351 SPECI KBLI 102351Z 01003KT 10SM SCT007 BKN014 OVC022 04/03 A2973 RMK AO2 RAB2259E11 P0000=
202401102253 METAR KBLI 102253Z 00000KT 10SM BKN009 BKN023 OVC030 04/03 A2971 RMK AO2 SLP069 T00440028=
202401102153 METAR KBLI 102153Z 19005KT 10SM SCT009 OVC025 04/03 A2969 RMK AO2 RAB24E46 SLP063 P0000 T00440028=
202401102119 SPECI KBLI 102119Z 19005KT 10SM SCT009 OVC025 04/03 A2968 RMK AO2 T00390028=
202401102053 METAR KBLI 102053Z 19006KT 9SM SCT011 OVC025 03/03 A2968 RMK AO2 RAB01E50 SLP060 P0002 60002 T00330028 51011=
202401102004 SPECI KBLI 102004Z VRB06KT 7SM -RA FEW009 BKN027 OVC050 04/02 A2968 RMK AO2 RAB01 P0000 T00390022=
202401101953 METAR KBLI 101953Z 18007KT 10SM SCT025 BKN033 OVC050 04/02 A2968 RMK AO2 RAB18E34 SLP058 P0000 T00390022=
202401101853 METAR KBLI 101853Z 18005KT 10SM OVC021 03/02 A2967 RMK AO2 RAB13E33 SLP056 P0000 T00330022=
202401101805 SPECI KBLI 101805Z VRB03KT 10SM BKN021 BKN050 OVC090 03/02 A2965 RMK AO2 T00280017=
202401101753 METAR KBLI 101753Z 16005KT 10SM FEW019 BKN043 OVC090 03/02 A2965 RMK AO2 RAB22E41 SLP049 P0000 60021 T00280022 10033 20011 53022=
202401101653 METAR KBLI 101653Z 17005KT 10SM FEW036 BKN050 01/01 A2962 RMK AO2 RAE1557B33E42 SLP040 P0000 T00110006=
202401101553 METAR KBLI 101553Z 16008KT 10SM -RA FEW009 BKN022 OVC070 02/01 A2960 RMK AO2 SLP033 P0017 T00170006=
202401101453 METAR KBLI 101453Z AUTO 17006KT 8SM RA SCT020 BKN026 OVC033 03/02 A2958 RMK AO2 RAB10 SLP027 P0002 60004 T00280017 53012=
202401101353 METAR KBLI 101353Z AUTO 17005KT 10SM FEW015 SCT041 OVC070 03/02 A2957 RMK AO2 RAB04E51 SLP021 P0002 T00280017 $=
202401101332 SPECI KBLI 101332Z AUTO 17007KT 8SM -RA SCT015 BKN035 OVC049 03/01 A2956 RMK AO2 RAB04 P0001 T00280011 $=
202401101319 SPECI KBLI 101319Z AUTO 17007KT 9SM -RA BKN017 OVC027 03/01 A2956 RMK AO2 RAB04 P0000 T00330011 $=
202401101253 METAR KBLI 101253Z AUTO 17007KT 10SM OVC014 03/01 A2956 RMK AO2 SLP020 T00330011 $=
202401101153 METAR KBLI 101153Z AUTO 17006KT 10SM OVC015 03/01 A2955 RMK AO2 SLP014 70024 T00330011 10050 20033 53010 $=
202401101121 SPECI KBLI 101121Z AUTO 16006KT 10SM BKN011 BKN016 OVC022 03/02 A2955 RMK AO2 T00330017 $=
202401101053 METAR KBLI 101053Z AUTO 17009KT 10SM BKN015 OVC022 04/02 A2954 RMK AO2 SLP011 T00390022 $=
202401101020 SPECI KBLI 101020Z AUTO 19004KT 10SM BKN015 BKN019 OVC055 04/02 A2953 RMK AO2 T00390022 $=
202401100953 METAR KBLI 100953Z AUTO 16004KT 10SM OVC055 04/02 A2952 RMK AO2 SLP005 T00390017 $=
202401100853 METAR KBLI 100853Z AUTO VRB05KT 10SM SCT034 BKN046 04/02 A2952 RMK AO2 SLP004 T00390017 55002 $=
202401100753 METAR KBLI 100753Z AUTO 21006KT 10SM OVC060 04/02 A2952 RMK AO2 SLP003 T00440017 400780039=
202401100653 METAR KBLI 100653Z AUTO 18008KT 10SM FEW070 SCT100 04/02 A2952 RMK AO2 SLP004 T00440017=
202401100553 METAR KBLI 100553Z 20007G19KT 10SM BKN040 05/02 A2953 RMK AO2 SLP007 T00500022 10078 20050 58011=
202401100453 METAR KBLI 100453Z 19006KT 10SM CLR 06/02 A2955 RMK AO2 SLP015 T00560017=
202401100353 METAR KBLI 100353Z VRB06KT 10SM FEW085 BKN120 06/02 A2956 RMK AO2 SLP018 T00610017=
202401100253 METAR KBLI 100253Z VRB05KT 10SM OVC100 07/02 A2956 RMK AO2 SLP017 T00670017 51013=
202401100153 METAR KBLI 100153Z VRB05G17KT 10SM FEW020 SCT050 BKN090 07/01 A2955 RMK AO2 SLP013 T00720006=
202401100053 METAR KBLI 100053Z 21006KT 10SM FEW020 SCT040 BKN090 07/02 A2953 RMK AO2 SLP008 T00720017=
202401092353 METAR KBLI 092353Z 22007G16KT 10SM FEW015 SCT040 BKN080 08/02 A2952 RMK AO2 SLP003 T00780022 10078 20056 51019=
202401092253 METAR KBLI 092253Z 19005KT 10SM FEW020 BKN040 07/04 A2950 RMK AO2 SLP998 T00720039=
202401092153 METAR KBLI 092153Z VRB06KT 10SM SCT018 BKN037 08/04 A2948 RMK AO2 SLP992 T00780039=
202401092053 METAR KBLI 092053Z VRB06KT 10SM FEW025 SCT040 BKN070 08/04 A2946 RMK AO2 SLP985 T00780044 53024=
202401091953 METAR KBLI 091953Z 20007G17KT 10SM FEW025 SCT040 BKN070 08/04 A2944 RMK AO2 SLP975 T00780044=
202401091853 METAR KBLI 091853Z 20009G21KT 170V240 10SM SCT024 SCT030 BKN036 07/04 A2941 RMK AO2 PK WND 18034/1756 SLP968 T00720039=
202401091829 SPECI KBLI 091829Z 17013G29KT 10SM SCT012 BKN017 OVC024 06/04 A2940 RMK AO2 PK WND 18034/1756 T00610044=
202401091753 METAR KBLI 091753Z 18019G38KT 10SM BKN012 OVC019 06/04 A2939 RMK AO2 PK WND 17040/1654 RAE50 SLP961 P0002 60024 T00560039 10072 20050 55005=
202401091708 SPECI KBLI 091708Z 19020G38KT 4SM -RA BR FEW009 BKN013 OVC026 05/03 A2937 RMK AO2 PK WND 17040/1654 P0001 T00500033=
202401091653 METAR KBLI 091653Z 18020G40KT 3SM -RA BR BKN013 OVC020 05/04 A2938 RMK AO2 PK WND 18040/1644 SLP956 P0008 T00500039=
202401091649 SPECI KBLI 091649Z 18022G40KT 3SM -RA BR SCT010 BKN015 OVC020 05/04 A2938 RMK AO2 PK WND 18040/1644 P0008=
202401091622 SPECI KBLI 091622Z 18016G31KT 3SM -RA BR BKN013 OVC023 05/03 A2940 RMK AO2 PK WND 17035/1605 P0005 T00500033=
202401091553 METAR KBLI 091553Z 17016G35KT 6SM -RA BR BKN021 OVC026 06/03 A2940 RMK AO2 PK WND 16035/1549 SLP963 P0009 T00560033=
202401091453 METAR KBLI 091453Z 18011G31KT 10SM -RA SCT023 BKN028 OVC033 06/03 A2941 RMK AO2 PK WND 17034/1437 SLP966 P0001 60005 T00610033 58013=
202401091353 METAR KBLI 091353Z AUTO 19013G27KT 6SM -RA BR FEW013 BKN027 OVC032 06/04 A2942 RMK AO2 PK WND 17031/1343 SLP971 P0002 T00610039=
202401091253 METAR KBLI 091253Z AUTO 21007G23KT 6SM -RA SCT027 OVC033 06/03 A2945 RMK AO2 PK WND 19030/1157 RAB19 SLP980 P0002 T00560028=
202401091153 METAR KBLI 091153Z AUTO 20014G35KT 10SM FEW110 07/02 A2945 RMK AO2 PK WND 20035/1148 RAE20 SLP980 P0001 60034 70106 T00720017 10089 20067 58002=
202401091053 METAR KBLI 091053Z AUTO 23012G27KT 190V250 10SM -RA FEW032 BKN042 BKN070 07/03 A2948 RMK AO2 PK WND 23027/1051 RAB42 SLP993 P0000 T00720033=
202401090953 METAR KBLI 090953Z AUTO 21008G17KT 170V230 10SM FEW047 SCT120 07/03 A2947 RMK AO2 SLP989 T00720028=
202401090853 METAR KBLI 090853Z AUTO VRB06KT 10SM FEW033 SCT044 BKN120 08/04 A2945 RMK AO2 RAE15 SLP982 P0008 60033 T00780044 56010=
202401090806 SPECI KBLI 090806Z AUTO 3SM -RA BR FEW011 SCT015 OVC035 07/06 A2944 RMK AO2 P0007 T00720061=
202401090753 METAR KBLI 090753Z AUTO 1 3/4SM +RA BR BKN015 OVC022 08/07 A2947 RMK AO2 PK WND 17035/0659 PRESRR SLP987 P0018 T00780072 400891017=
202401090712 SPECI KBLI 090712Z AUTO 17018G33KT 5SM -RA BR BKN015 OVC027 09/07 A2939 RMK AO2 PK WND 17035/0659 P0003 T00890072=
202401090653 METAR KBLI 090653Z AUTO 17015G29KT 7SM -RA BKN014 OVC018 09/07 A2941 RMK AO2 PK WND 16037/0605 SLP968 P0007 T00890072=
202401090553 METAR KBLI 090553Z 18016G32KT 10SM -RA OVC014 09/07 A2948 RMK AO2 PK WND 17035/0533 RAB08 SLP992 P0001 60040 T00890067 10089 20011 56078=
202401090505 SPECI KBLI 090505Z 16013G23KT 10SM OVC015 08/06 A2955 RMK AO2 P0001 T00830061=
202401090453 METAR KBLI 090453Z 16008G15KT 130V200 8SM OVC014 07/06 A2955 RMK AO2 RAE43 SLP016 P0001 T00720056=
202401090436 SPECI KBLI 090436Z 13010KT 8SM -RA OVC014 06/05 A2957 RMK AO2 PRESFR P0001 T00610050=
202401090424 SPECI KBLI 090424Z 09006KT 6SM -RA BR OVC014 03/03 A2959 RMK AO2 P0001 T00330028=
202401090353 METAR KBLI 090353Z 02006KT 5SM -RA BR OVC016 02/02 A2964 RMK AO2 SLP046 P0011 T00170017=
202401090255 SPECI KBLI 090255Z 06007KT 2SM RA BR BKN018 OVC025 02/02 A2971 RMK AO2 P0001 T00220017=
202401090253 METAR KBLI 090253Z 06008KT 3SM RA BR BKN018 OVC025 02/02 A2971 RMK AO2 SLP071 P0014 60027 T00220017 58056=
202401090153 METAR KBLI 090153Z 06007KT 2 1/2SM RA BR BKN018 OVC023 01/01 A2979 RMK AO2 SLP097 P0009 T00110011=
202401090053 METAR KBLI 090053Z 04005KT 5SM -RA BR BKN020 OVC024 01/01 A2984 RMK AO2 SLP114 P0004 T00110011=
202401082353 METAR KBLI 082353Z 03007KT 3SM -RA BR OVC024 01/01 A2988 RMK AO2 SLP127 P0007 60026 T00110011 10017 20000 56021=
202401082350 SPECI KBLI 082350Z 03006KT 3SM -RA BR FEW003 OVC024 01/01 A2988 RMK AO2 P0007=
202401082253 METAR KBLI 082253Z 03007KT 5SM -RA BR BKN018 OVC022 02/01 A2991 RMK AO2 SLP140 P0004 T00170011=
202401082206 SPECI KBLI 082206Z 03006KT 5SM -RA BR BKN018 OVC022 02/01 A2993 RMK AO2 P0001 T00170011=
202401082153 METAR KBLI 082153Z 03006KT 5SM -RA BR OVC023 02/01 A2994 RMK AO2 SLP149 P0005 T00170011=
202401082053 METAR KBLI 082053Z 02007KT 7SM -RA OVC026 01/01 A2997 RMK AO2 SLP160 P0003 60010 T00110006 58035=
202401081953 METAR KBLI 081953Z 03007KT 7SM -RA FEW023 OVC029 01/01 A3001 RMK AO2 SLP171 P0002 T00110006=
202401081905 SPECI KBLI 081905Z 03006KT 5SM -RA BR FEW005 OVC027 01/00 A3005 RMK AO2 P0001 T00060000=
202401081853 METAR KBLI 081853Z 03007KT 3SM -RA BR FEW018 OVC027 01/00 A3005 RMK AO2 RAB34SNE34 SLP187 P0005 T00060000=
202401081753 METAR KBLI 081753Z 04005KT 2SM -SN BR OVC025 00/M01 A3007 RMK AO2 RAE10SNB10 SLP194 P0004 60006 T00001006 10006 20000 58004=
202401081738 SPECI KBLI 081738Z 03005KT 2 1/2SM -SN BR OVC025 00/M01 A3008 RMK AO2 RAE10SNB10 P0003 T00001006=
202401081653 METAR KBLI 081653Z 02003KT 6SM -RA BR OVC025 01/M01 A3008 RMK AO2 UPE22RAB22 SLP197 P0001 T00061006=
202401081650 SPECI KBLI 081650Z 02004KT 5SM -RA BR BKN025 OVC030 01/M01 A3008 RMK AO2 UPE22RAB22 P0000=
202401081626 SPECI KBLI 081626Z 03004KT 7SM -RA SCT024 OVC030 01/M01 A3008 RMK AO2 UPE22RAB22 P0000 T00061006=
202401081553 METAR KBLI 081553Z 04005KT 10SM UP BKN022 OVC041 00/M01 A3009 RMK AO2 UPB1457 SLP199 P0001 T00001006=
202401081453 METAR KBLI 081453Z 04005KT 10SM BKN020 OVC060 00/M01 A3010 RMK AO2 UPE00B16E24 SLP204 P0000 60000 T00001006 58012=
202401081353 METAR KBLI 081353Z AUTO 03005KT 10SM UP OVC017 00/M01 A3012 RMK AO2 RAE37UPB37 SLP210 P0000 T00001006=
202401081253 METAR KBLI 081253Z AUTO 03004KT 10SM -RA BKN022 OVC037 01/M01 A3012 RMK AO2 UPB20E47RAB47 SLP211 P0000 T00061011=
202401081153 METAR KBLI 081153Z AUTO 03003KT 10SM OVC050 01/M01 A3014 RMK AO2 SLP215 I6000 T00061006 10006 21017 50004=
202401081131 SPECI KBLI 081131Z AUTO 04003KT 10SM SCT025 OVC060 00/M01 A3014 RMK AO2 T00001011=
202401081053 METAR KBLI 081053Z AUTO 00000KT 10SM BKN026 BKN031 OVC044 00/M01 A3014 RMK AO2 SLP216 T00001006=
202401080953 METAR KBLI 080953Z AUTO 02003KT 10SM CLR M01/M01 A3014 RMK AO2 SLP215 T10061011=
202401080853 METAR KBLI 080853Z AUTO 01003KT 10SM CLR M01/M02 A3013 RMK AO2 SLP211 I3000 T10111017 56004=
202401080753 METAR KBLI 080753Z AUTO 00000KT 7SM FEW026 M01/M02 A3013 RMK AO2 SLP212 I1000 T10111017 400501017=
202401080653 METAR KBLI 080653Z AUTO 00000KT 9SM CLR M01/M02 A3013 RMK AO2 SLP212 I1000 T10111017=
202401080553 METAR KBLI 080553Z 00000KT 9SM CLR M01/M02 A3014 RMK AO2 SLP215 T10111022 10028 21017 53001=
202401080453 METAR KBLI 080453Z 00000KT 10SM CLR M01/M02 A3011 RMK AO2 SLP208 T10111022=
202401080353 METAR KBLI 080353Z 00000KT 10SM FEW020 00/M01 A3011 RMK AO2 SLP208 T00001006=
202401080253 METAR KBLI 080253Z 00000KT 10SM FEW020 SCT040 00/M01 A3013 RMK AO2 SLP214 T00001006 51015=
202401080153 METAR KBLI 080153Z 00000KT 10SM FEW020 01/M01 A3012 RMK AO2 SLP210 T00061006=
202401080053 METAR KBLI 080053Z 00000KT 10SM FEW012 SCT050 02/01 A3011 RMK AO2 SLP205 T00170006=
202401072353 METAR KBLI 072353Z 00000KT 10SM FEW015 SCT047 03/01 A3009 RMK AO2 SLP198 T00280011 10050 20011 53003=
202401072253 METAR KBLI 072253Z 00000KT 10SM FEW015 SCT047 04/01 A3008 RMK AO2 SLP195 T00390011=
202401072153 METAR KBLI 072153Z 01003KT 10SM FEW008 SCT012 BKN045 04/02 A3008 RMK AO2 SLP194 T00440017=
202401072107 SPECI KBLI 072107Z 00000KT 10SM SCT009 OVC050 04/02 A3008 RMK AO2 T00390017=
202401072053 METAR KBLI 072053Z 00000KT 10SM FEW010 OVC050 04/02 A3008 RMK AO2 SLP195 T00390017 53008=
202401072027 SPECI KBLI 072027Z 00000KT 10SM FEW010 OVC049 03/02 A3008 RMK AO2 T00330017=
202401071953 METAR KBLI 071953Z 06003KT 10SM FEW005 BKN015 OVC047 03/01 A3007 RMK AO2 SLP192 T00280011=
202401071950 SPECI KBLI 071950Z 05004KT 10SM FEW005 BKN015 OVC047 03/01 A3007 RMK AO2=
202401071853 METAR KBLI 071853Z 02003KT 10SM SCT013 03/02 A3006 RMK AO2 SLP190 T00280017=
202401071822 SPECI KBLI 071822Z 00000KT 8SM FEW006 BKN012 OVC043 01/01 A3006 RMK AO2 T00110011=
202401071815 SPECI KBLI 071815Z 02003KT 8SM SCT006 SCT012 OVC043 01/01 A3006 RMK AO2 T00110011=
202401071753 METAR KBLI 071753Z 02003KT 8SM OVC006 01/01 A3006 RMK AO2 SLP188 I6001 T00110011 10011 21006 51010=
202401071737 SPECI KBLI 071737Z 02003KT 8SM BKN007 OVC044 01/01 A3005 RMK AO2 CIG 005V010 T00110006=
202401071653 METAR KBLI 071653Z 00000KT 7SM FEW008 OVC044 00/00 A3004 RMK AO2 SLP183 I1001 T00000000=
202401071649 SPECI KBLI 071649Z 00000KT 7SM SCT008 OVC044 00/00 A3004 RMK AO2 I1001=
202401071640 SPECI KBLI 071640Z 03003KT 4SM BR BKN008 OVC044 00/00 A3004 RMK AO2 I1001 T00000000=
202401071630 SPECI KBLI 071630Z 00000KT 2SM BR OVC007 M01/M01 A3004 RMK AO2 I1001 T10061006=
202401071622 SPECI KBLI 071622Z 00000KT 3/4SM R16/P6000FT BR BKN007 OVC043 M01/M01 A3004 RMK AO2 I1000 T10061006=
202401071613 SPECI KBLI 071613Z 01003KT 1/4SM R16/3000VP6000FT FZFG BKN006 OVC043 M01/M01 A3003 RMK AO2 T10061006=
202401071605 SPECI KBLI 071605Z 36003KT 1/2SM R16/2800V3500FT FZFG BKN006 OVC043 M01/M01 A3003 RMK AO2 T10061006=
202401071553 METAR KBLI 071553Z 01003KT 1/4SM R16/2000V3000FT FZFG FEW001 OVC043 M01/M01 A3002 RMK AO2 SLP177 T10061006=
202401071544 SPECI KBLI 071544Z 00000KT 1/4SM R16/1600V2400FT FZFG SCT001 OVC042 M01/M01 A3002 RMK AO2 T10061006=
202401071453 METAR KBLI 071453Z 01003KT 1/4SM R16/1000V1200FT FZFG VV001 M01/M01 A3001 RMK AO2 SLP173 T10061006 52013=
202401071435 SPECI KBLI 071435Z 34003KT 1/4SM R16/1200V1400FT FG VV001 00/00 A3001 RMK AO2 T00000000=
202401071413 SPECI KBLI 071413Z AUTO 01003KT 1/4SM R16/1600V2400FT FG BKN001 OVC042 00/00 A3001 RMK AO2 T00000000=
202401071353 METAR KBLI 071353Z AUTO 00000KT 1/4SM R16/1600V2000FT FG BKN001 OVC042 01/00 A3000 RMK AO2 SLP168 T00060000=
202401071351 SPECI KBLI 071351Z AUTO 00000KT 1/4SM R16/1600V2000FT FG OVC001 01/01 A3000 RMK AO2=
202401071344 SPECI KBLI 071344Z AUTO 00000KT 1/2SM R16/2000VP6000FT FG OVC001 01/01 A3000 RMK AO2 T00060006=
202401071336 SPECI KBLI 071336Z AUTO 00000KT 1 3/4SM R16/3500VP6000FT BR OVC001 01/01 A3000 RMK AO2 T00060006=
202401071323 SPECI KBLI 071323Z AUTO 05003KT 2 1/2SM BR BKN002 OVC043 01/00 A3000 RMK AO2 T00060000=
202401071302 SPECI KBLI 071302Z AUTO 04003KT 2SM BR FEW004 OVC043 01/00 A2999 RMK AO2 T00060000=
202401071253 METAR KBLI 071253Z AUTO 00000KT 4SM BR FEW004 BKN042 01/01 A2999 RMK AO2 SLP165 T00110006=
202401071241 SPECI KBLI 071241Z AUTO 00000KT 5SM BR FEW004 OVC042 01/01 A2999 RMK AO2 T00110006=
202401071153 METAR KBLI 071153Z AUTO 00000KT 6SM BR OVC041 01/01 A2998 RMK AO2 SLP160 70001 T00110006 10017 21006 51019=
202401071053 METAR KBLI 071053Z AUTO 29003KT 6SM BR FEW002 OVC040 01/01 A2997 RMK AO2 SLP157 T00110006=
202401071010 SPECI KBLI 071010Z AUTO 00000KT 3SM BR BKN042 00/M01 A2995 RMK AO2 T00001006=
202401070953 METAR KBLI 070953Z AUTO 00000KT 2 1/2SM BR FEW039 00/M01 A2994 RMK AO2 SLP148 T00001006=
202401070853 METAR KBLI 070853Z AUTO 00000KT 9SM BKN040 01/01 A2992 RMK AO2 SLP141 T00110006 51016=
202401070753 METAR KBLI 070753Z AUTO 00000KT 9SM OVC034 01/01 A2991 RMK AO2 SLP139 T00110006 400721006=
202401070653 METAR KBLI 070653Z AUTO 00000KT 10SM OVC033 01/01 A2990 RMK AO2 SLP134 T00060006=
202401070553 METAR KBLI 070553Z 00000KT 10SM SCT025 00/M01 A2987 RMK AO2 SLP126 60000 T00001006 10056 21006 53022=
202401070531 SPECI KBLI 070531Z 00000KT 10SM SCT025 01/00 A2986 RMK AO2 T00060000=
202401070529 SPECI KBLI 070529Z 00000KT 2 1/2SM BR SCT025 01/00 A2986 RMK AO2 T00060000=
202401070454 SPECI KBLI 070454Z 00000KT 10SM SCT025 01/01 A2985 RMK AO2 T00110006=
202401070453 METAR KBLI 070453Z 00000KT 10SM BKN025 01/01 A2985 RMK AO2 SLP118 T00110006=
202401070353 METAR KBLI 070353Z 00000KT 10SM FEW020 SCT028 03/02 A2983 RMK AO2 SLP110 T00280017=
202401070253 METAR KBLI 070253Z 00000KT 10SM SCT034 03/02 A2981 RMK AO2 RAE0155 SLP104 P0000 60000 T00330017 51011=
202401070246 SPECI KBLI 070246Z 00000KT 10SM BKN034 04/02 A2981 RMK AO2 RAE0155 P0000 T00390022=
202401070153 METAR KBLI 070153Z 00000KT 8SM -RA BKN023 OVC030 05/02 A2980 RMK AO2 RAB30 SLP101 P0000 T00500022=
202401070053 METAR KBLI 070053Z 00000KT 10SM SCT025 BKN032 BKN040 05/02 A2979 RMK AO2 SLP098 T00500017=
202401062353 METAR KBLI 062353Z VRB03KT 10SM SCT026 BKN032 OVC041 06/02 A2978 RMK AO2 RAB36E47 SLP093 P0000 60000 T00560017 10072 20050 53013=
202401062253 METAR KBLI 062253Z 28004KT 10SM BKN035 BKN040 06/00 A2976 RMK AO2 SLP085 T00610000=
202401062153 METAR KBLI 062153Z VRB05KT 10SM SCT025 BKN035 BKN045 07/M01 A2974 RMK AO2 SLP080 T00671006=
202401062125 SPECI KBLI 062125Z VRB04KT 10SM SCT025 BKN035 07/00 A2974 RMK AO2 T00670000=
202401062053 METAR KBLI 062053Z 29007KT 260V320 10SM BKN022 OVC042 07/00 A2974 RMK AO2 SLP078 T00720000 53005=
202401061953 METAR KBLI 061953Z 24007KT 10SM BKN026 OVC040 07/01 A2974 RMK AO2 SLP077 T00670006=
202401061853 METAR KBLI 061853Z 18007KT 10SM BKN026 BKN040 06/03 A2972 RMK AO2 SLP074 T00610028=
202401061753 METAR KBLI 061753Z VRB03KT 10SM BKN026 OVC042 06/00 A2972 RMK AO2 SLP073 60001 T00560000 10056 20039 51010=
202401061653 METAR KBLI 061653Z 18003KT 10SM BKN026 OVC033 05/02 A2971 RMK AO2 SLP069 T00500022=
202401061553 METAR KBLI 061553Z VRB05KT 10SM BKN027 05/01 A2971 RMK AO2 SLP067 T00500011=
202401061453 METAR KBLI 061453Z 10SM BKN027 OVC033 05/02 A2969 RMK AO2 SLP062 60001 T00500022 51008=
202401061450 SPECI KBLI 061450Z VRB03KT 10SM BKN027 OVC033 05/02 A2969 RMK AO2=
202401061421 SPECI KBLI 061421Z AUTO VRB05KT 10SM FEW025 BKN032 OVC038 05/03 A2969 RMK AO2 T00500028=
202401061353 METAR KBLI 061353Z AUTO 10SM BKN026 OVC030 05/03 A2968 RMK AO2 RAB1254E11 SLP059 P0000 T00500028=
202401061253 METAR KBLI 061253Z AUTO 00000KT 9SM BKN016 OVC021 04/03 A2967 RMK AO2 RAE49 SLP054 P0001 T00390033=
202401061249 SPECI KBLI 061249Z AUTO 00000KT 9SM OVC016 04/03 A2967 RMK AO2 RAE49 P0001=
202401061153 METAR KBLI 061153Z AUTO 00000KT 9SM -RA BKN013 OVC018 04/03 A2967 RMK AO2 SLP057 P0003 60028 70030 T00390033 10083 20039 56001=
202401061102 SPECI KBLI 061102Z AUTO 29003KT 8SM -RA BKN011 BKN018 OVC025 04/03 A2968 RMK AO2 P0001 T00390033=
202401061053 METAR KBLI 061053Z AUTO 30004KT 6SM -RA BR SCT011 BKN016 OVC025 04/03 A2968 RMK AO2 SLP060 P0013 T00390033=
202401061046 SPECI KBLI 061046Z AUTO 30005KT 2 1/2SM RA BR FEW008 BKN014 OVC025 04/03 A2968 RMK AO2 P0012 T00390033=
202401061036 SPECI KBLI 061036Z AUTO 28007G17KT 2 1/2SM +RA BR FEW009 BKN015 OVC021 05/04 A2969 RMK AO2 PRESRR P0009 T00500039=
202401060953 METAR KBLI 060953Z AUTO 18012G22KT 6SM -RA BR FEW013 BKN025 OVC030 06/05 A2967 RMK AO2 PK WND 16033/0854 SLP054 P0005 T00610050=
202401060853 METAR KBLI 060853Z AUTO 17015G33KT 5SM -RA BR SCT019 OVC037 07/04 A2968 RMK AO2 PK WND 17037/0811 SLP058 P0005 60007 T00670044 56033=
202401060753 METAR KBLI 060753Z AUTO 17018G36KT 6SM -RA BR FEW018 SCT029 OVC040 07/05 A2970 RMK AO2 PK WND 16037/0701 RAB13 SLP067 P0002 T00720050 400830056=
202401060742 SPECI KBLI 060742Z AUTO 18016G34KT 6SM -RA BR FEW018 SCT023 OVC045 07/05 A2971 RMK AO2 PK WND 16037/0701 RAB13 P0001 T00720050=
202401060653 METAR KBLI 060653Z AUTO 17021G41KT 10SM OVC023 08/04 A2973 RMK AO2 PK WND 16041/0645 SLP076 T00830044=
202401060553 METAR KBLI 060553Z 17019G27KT 10SM BKN020 BKN028 08/04 A2978 RMK AO2 PK WND 16033/0507 SLP091 60000 T00780044 10083 20078 58046=
202401060453 METAR KBLI 060453Z 17017G28KT 10SM SCT021 OVC026 08/04 A2982 RMK AO2 PK WND 19032/0432 RAB01E30 PRESFR SLP107 P0000 T00780044=
202401060353 METAR KBLI 060353Z 17016G29KT 10SM SCT019 BKN028 OVC055 08/04 A2988 RMK AO2 PK WND 15035/0329 SLP126 T00830044=
202401060329 SPECI KBLI 060329Z 17018G35KT 10SM SCT020 BKN025 OVC085 08/04 A2989 RMK AO2 PK WND 15035/0329 T00830044=
202401060253 METAR KBLI 060253Z 17018G37KT 10SM SCT020 BKN030 OVC090 08/04 A2991 RMK AO2 PK WND 16037/0253 SLP137 T00830044 58035=
202401060153 METAR KBLI 060153Z 16011G20KT 10SM OVC021 08/04 A2995 RMK AO2 SLP151 T00780039=
202401060053 METAR KBLI 060053Z 16013G24KT 10SM SCT018 BKN024 OVC065 08/04 A2999 RMK AO2 PK WND 16031/0018 SLP163 T00780039=
202401052353 METAR KBLI 052353Z 16016G27KT 10SM SCT020 BKN060 OVC090 08/03 A3002 RMK AO2 PK WND 16034/2333 SLP172 60002 T00780033 10083 20067 58039=
202401052253 METAR KBLI 052253Z 17016G23KT 10SM SCT060 OVC085 08/04 A3006 RMK AO2 PK WND 17032/2226 RAE02 SLP186 P0000 T00780039=
202401052210 SPECI KBLI 052210Z 17016G25KT 10SM SCT026 BKN040 OVC095 08/04 A3009 RMK AO2 PK WND 15030/2154 RAE02 P0000 T00780039=
202401052153 METAR KBLI 052153Z 17019G32KT 10SM -RA BKN026 OVC035 08/03 A3011 RMK AO2 PK WND 16035/2120 RAB40 SLP203 P0000 T00780033=
202401052136 SPECI KBLI 052136Z 17017G33KT 10SM BKN030 BKN048 OVC070 08/03 A3011 RMK AO2 PK WND 16035/2120 T00780033=
202401052125 SPECI KBLI 052125Z 16019G35KT 10SM BKN029 OVC075 08/03 A3011 RMK AO2 PK WND 16035/2120 T00780033=
202401052053 METAR KBLI 052053Z 16015G26KT 10SM SCT026 SCT060 OVC080 07/03 A3013 RMK AO2 PK WND 14028/2032 RAB37E49 SLP212 P0000 60002 T00720033 58031=
202401051953 METAR KBLI 051953Z 16014G23KT 10SM FEW023 BKN090 OVC110 07/03 A3018 RMK AO2 RAE1856 PRESFR SLP226 P0001 T00720033=
202401051853 METAR KBLI 051853Z 18007KT 10SM -RA SCT016 OVC040 07/04 A3022 RMK AO2 RAB02 SLP243 P0001 T00670039=
202401051753 METAR KBLI 051753Z 13010G14KT 10SM SCT060 BKN070 OVC080 07/03 A3022 RMK AO2 RAB1654E11 SLP243 P0000 60000 T00670033 10072 20056 58004=
202401051706 SPECI KBLI 051706Z 17012G19KT 7SM -RA SCT029 BKN040 OVC075 07/04 A3024 RMK AO2 RAB1654 P0000 T00670039=
202401051653 METAR KBLI 051653Z 18008KT 10SM BKN027 BKN070 OVC095 07/04 A3024 RMK AO2 SLP249 T00670039=
202401051553 METAR KBLI 051553Z 17010KT 10SM BKN027 OVC036 07/04 A3024 RMK AO2 SLP247 T00670039=
202401051549 SPECI KBLI 051549Z 18009KT 10SM BKN027 OVC036 07/04 A3024 RMK AO2=
202401051528 SPECI KBLI 051528Z 18011G19KT 10SM SCT026 BKN033 BKN041 07/04 A3023 RMK AO2 T00670039=
202401051453 METAR KBLI 051453Z 18010KT 10SM BKN026 BKN032 BKN070 07/04 A3023 RMK AO2 SLP246 T00670039 53004=
202401051353 METAR KBLI 051353Z AUTO 18008G19KT 10SM BKN024 BKN032 07/03 A3022 RMK AO2 SLP243 T00670033=
202401051315 SPECI KBLI 051315Z AUTO 18013G19KT 10SM BKN025 BKN034 OVC043 07/04 A3022 RMK AO2 T00670039=
202401051253 METAR KBLI 051253Z AUTO 17008KT 10SM FEW022 BKN030 OVC065 06/04 A3022 RMK AO2 SLP240 T00610039=
202401051221 SPECI KBLI 051221Z AUTO 17008KT 10SM SCT022 SCT028 BKN035 06/04 A3021 RMK AO2 T00560044=
202401051153 METAR KBLI 051153Z AUTO 17009G19KT 10SM BKN022 OVC029 06/04 A3022 RMK AO2 RAE1058 SLP242 P0000 60003 70011 T00560044 10072 20056 53013=
202401051056 SPECI KBLI 051056Z AUTO 18012G23KT 10SM -RA FEW009 BKN024 OVC060 06/05 A3020 RMK AO2 P0000 T00610050=
202401051053 METAR KBLI 051053Z AUTO 18012G23KT 8SM -RA FEW011 BKN031 OVC065 06/05 A3020 RMK AO2 RAB21 SLP236 P0002 T00610050=
202401051046 SPECI KBLI 051046Z AUTO 18012G21KT 5SM -RA BR SCT011 BKN018 OVC042 06/04 A3020 RMK AO2 RAB21 P0002 T00610044=
202401051034 SPECI KBLI 051034Z AUTO 19009G20KT 6SM -RA BR BKN011 BKN018 OVC042 06/05 A3020 RMK AO2 RAB21 P0001 T00610050=
202401050953 METAR KBLI 050953Z AUTO 19010G20KT 10SM SCT060 BKN075 BKN100 07/05 A3018 RMK AO2 RAB0857E37 SLP227 P0001 T00720050=
202401050853 METAR KBLI 050853Z AUTO 18009G17KT 10SM FEW041 BKN055 OVC110 07/06 A3018 RMK AO2 RAE23 SLP229 P0000 60000 T00720056 50004=
202401050753 METAR KBLI 050753Z AUTO 19007KT 10SM -RA FEW031 OVC047 07/04 A3019 RMK AO2 RAB37 SLP230 P0000 T00670044 400890044=
202401050653 METAR KBLI 050653Z AUTO 19005KT 10SM BKN060 07/03 A3019 RMK AO2 SLP231 T00720033=
202401050553 METAR KBLI 050553Z 17006KT 10SM BKN055 06/03 A3017 RMK AO2 SLP225 T00610033 10078 20044 50004=
202401050453 METAR KBLI 050453Z 18004KT 10SM SCT060 04/03 A3017 RMK AO2 SLP226 T00440028=
202401050353 METAR KBLI 050353Z 18003KT 10SM CLR 06/03 A3016 RMK AO2 SLP222 T00610033=
202401050253 METAR KBLI 050253Z 15003KT 10SM SCT060 06/03 A3016 RMK AO2 SLP221 T00610033 51016=
202401050153 METAR KBLI 050153Z 18005KT 10SM SCT065 07/04 A3015 RMK AO2 SLP218 T00670039=
202401050053 METAR KBLI 050053Z 17005KT 10SM FEW040 07/04 A3014 RMK AO2 SLP213 T00720039=
202401042353 METAR KBLI 042353Z 18007KT 10SM FEW050 08/04 A3011 RMK AO2 SLP205 T00780044 10089 20072 53012=
202401042321 SPECI KBLI 042321Z 17009KT 10SM CLR 08/04 A3010 RMK AO2 T00830044=
202401042253 METAR KBLI 042253Z 17009G18KT 10SM FEW021 09/05 A3009 RMK AO2 SLP197 T00890050=
202401042248 SPECI KBLI 042248Z 17009G19KT 10SM SCT021 09/05 A3009 RMK AO2=
202401042153 METAR KBLI 042153Z 17011G21KT 10SM BKN021 BKN027 09/06 A3008 RMK AO2 SLP193 T00890056=
202401042053 METAR KBLI 042053Z 17011G21KT 10SM OVC018 08/06 A3007 RMK AO2 SLP189 T00830056 51002=
202401041953 METAR KBLI 041953Z 18009G20KT 10SM BKN024 OVC032 08/05 A3006 RMK AO2 PK WND 20027/1916 SLP188 T00780050=
202401041853 METAR KBLI 041853Z 18013G25KT 10SM BKN024 OVC034 07/04 A3007 RMK AO2 PK WND 16027/1818 SLP192 T00720044=
202401041753 METAR KBLI 041753Z 18014G24KT 10SM BKN025 OVC043 08/04 A3006 RMK AO2 PK WND 16027/1715 RAE1654 SLP187 P0000 60008 T00780039 10083 20067 53006=
202401041653 METAR KBLI 041653Z 15013G21KT 10SM -RA BKN024 BKN040 OVC050 07/04 A3004 RMK AO2 RAB03 SLP181 P0000 T00720039=
202401041608 SPECI KBLI 041608Z 14012KT 10SM -RA BKN026 BKN038 OVC055 07/04 A3004 RMK AO2 RAB03 P0000 T00670039=
202401041553 METAR KBLI 041553Z 14014KT 10SM SCT027 BKN050 OVC060 07/04 A3004 RMK AO2 RAE03 SLP180 P0000 T00670039=
202401041453 METAR KBLI 041453Z 15016G25KT 10SM -RA OVC060 07/04 A3004 RMK AO2 SLP182 P0002 60008 T00670039 58002=
202401041353 METAR KBLI 041353Z AUTO 15013KT 10SM -RA FEW030 OVC041 07/04 A3005 RMK AO2 SLP185 P0002 T00720044=
202401041253 METAR KBLI 041253Z AUTO 16017G24KT 6SM -RA BR FEW019 OVC041 07/05 A3005 RMK AO2 SLP183 P0004 T00720050=
202401041246 SPECI KBLI 041246Z AUTO 16013G23KT 6SM -RA FEW019 SCT025 OVC041 08/05 A3005 RMK AO2 P0004 T00780050=
202401041153 METAR KBLI 041153Z AUTO 16011KT 10SM -RA OVC020 08/06 A3005 RMK AO2 RAE15B49 SLP183 P0000 60002 70005 T00780056 10083 20078 56002=
202401041053 METAR KBLI 041053Z AUTO 16010KT 10SM -RA OVC022 08/06 A3005 RMK AO2 RAB40 SLP185 P0000 T00780056=
202401040953 METAR KBLI 040953Z AUTO 15010G17KT 10SM OVC021 08/06 A3005 RMK AO2 RAB29E52 SLP183 P0000 T00830056=
202401040853 METAR KBLI 040853Z AUTO 16009KT 10SM OVC022 08/06 A3005 RMK AO2 SLP185 P0001 60002 T00830056 51003=
202401040753 METAR KBLI 040753Z AUTO 15009G16KT 10SM BKN027 OVC060 08/06 A3005 RMK AO2 RAE20 SLP185 P0000 T00830056 401060011=
202401040740 SPECI KBLI 040740Z AUTO 16008KT 10SM BKN025 OVC075 08/06 A3006 RMK AO2 RAE20 P0000 T00830056=
202401040653 METAR KBLI 040653Z AUTO 16009KT 10SM -RA FEW017 OVC050 08/06 A3005 RMK AO2 SLP183 P0001 T00830061=
202401040650 SPECI KBLI 040650Z AUTO 16009KT 10SM -RA SCT017 OVC050 08/06 A3005 RMK AO2 P0001=
202401040553 METAR KBLI 040553Z 17007KT 10SM -RA OVC015 08/07 A3004 RMK AO2 SLP181 P0001 60003 T00830067 10089 20078 51008=
202401040521 SPECI KBLI 040521Z 17007KT 10SM -RA BKN016 BKN033 OVC045 08/07 A3004 RMK AO2 P0000 T00830067=
202401040504 SPECI KBLI 040504Z 17007KT 9SM -RA BKN014 BKN033 OVC044 08/07 A3004 RMK AO2 P0000 T00830067=
202401040453 METAR KBLI 040453Z 16011KT 10SM -RA BKN015 OVC033 08/07 A3003 RMK AO2 RAB21 SLP178 P0001 T00830067=
202401040400 SPECI KBLI 040400Z 17008G15KT 10SM BKN015 OVC033 08/06 A3003 RMK AO2 T00830061=
202401040353 METAR KBLI 040353Z 17009G15KT 10SM BKN014 OVC033 08/06 A3003 RMK AO2 RAE30 SLP176 P0001 T00830061=
202401040253 METAR KBLI 040253Z 16007KT 10SM -RA OVC014 08/06 A3002 RMK AO2 RAB22 SLP174 P0000 60000 T00780061 53005=
202401040241 SPECI KBLI 040241Z 14005KT 10SM -RA OVC014 08/06 A3002 RMK AO2 RAB22 P0000 T00780061=
202401040153 METAR KBLI 040153Z 15008KT 10SM BKN021 BKN027 OVC044 08/06 A3001 RMK AO2 RAB01E53 SLP169 P0000 T00830056=
202401040151 SPECI KBLI 040151Z 16008KT 10SM -RA BKN021 BKN027 OVC044 08/06 A3001 RMK AO2 RAB01 P0000=
202401040053 METAR KBLI 040053Z 18007KT 10SM SCT030 OVC043 09/06 A3000 RMK AO2 SLP168 T00890056=
202401032353 METAR KBLI 032353Z 19009G14KT 10SM OVC050 09/06 A2998 RMK AO2 SLP161 T00890056 10106 20056 53009=
202401032253 METAR KBLI 032253Z 00000KT 10SM OVC050 09/06 A2997 RMK AO2 SLP158 T00940056=
202401032153 METAR KBLI 032153Z 00000KT 10SM OVC045 09/06 A2996 RMK AO2 SLP153 T00890056=
202401032053 METAR KBLI 032053Z 01005KT 10SM FEW045 SCT110 09/06 A2996 RMK AO2 SLP152 T00940061 58003 $=
202401031953 METAR KBLI 031953Z 01004KT 10SM FEW049 OVC110 08/06 A2996 RMK AO2 SLP155 T00830061 $=
202401031853 METAR KBLI 031853Z 04003KT 10SM BKN085 BKN110 06/05 A2996 RMK AO2 SLP154 T00610050 $=
202401031753 METAR KBLI 031753Z 00000KT 10SM OVC050 06/05 A2997 RMK AO2 SLP155 T00560050 10056 20022 53012 $=
202401031653 METAR KBLI 031653Z 00000KT 10SM SCT049 OVC100 04/04 A2996 RMK AO2 SLP153 T00390039=
202401031553 METAR KBLI 031553Z 00000KT 10SM FEW055 OVC095 04/03 A2993 RMK AO2 SLP144 T00390033=
202401031453 METAR KBLI 031453Z 00000KT 10SM OVC095 03/03 A2993 RMK AO2 SLP145 T00330028 53009=
202401031353 METAR KBLI 031353Z AUTO 00000KT 10SM OVC100 03/03 A2992 RMK AO2 SLP141 T00330028=
202401031253 METAR KBLI 031253Z AUTO 00000KT 10SM OVC048 04/03 A2991 RMK AO2 SLP137 T00390033=
202401031153 METAR KBLI 031153Z AUTO 36005KT 8SM FEW095 SCT120 03/02 A2990 RMK AO2 SLP135 60000 70009 T00280022 10061 20011 58004=
202401031148 SPECI KBLI 031148Z AUTO 36005KT 3SM BR SCT110 03/03 A2990 RMK AO2=
202401031119 SPECI KBLI 031119Z AUTO 00000KT 1SM R16/P6000FT BR SCT090 BKN110 03/03 A2990 RMK AO2 T00280028=
202401031107 SPECI KBLI 031107Z AUTO 03003KT 3/4SM R16/P6000FT BR BKN090 03/02 A2990 RMK AO2 T00280022=
202401031053 METAR KBLI 031053Z AUTO 03004KT 1 3/4SM R16/2600VP6000FT BR FEW090 02/02 A2991 RMK AO2 VIS 3/4V5 SLP138 T00220017=
202401031039 SPECI KBLI 031039Z AUTO 36003KT 1 1/4SM R16/6000VP6000FT BR CLR 02/02 A2992 RMK AO2 VIS 3/4V4 T00170017=
202401031032 SPECI KBLI 031032Z AUTO 00000KT 2SM BR CLR 02/02 A2992 RMK AO2 T00170017=
202401031012 SPECI KBLI 031012Z AUTO 00000KT 1 1/2SM BR FEW001 02/02 A2992 RMK AO2 VIS 3/4V5 T00170017=
202401031003 SPECI KBLI 031003Z AUTO 00000KT 1SM R16/5000VP6000FT BR VV001 02/02 A2991 RMK AO2 T00220022=
202401030956 SPECI KBLI 030956Z AUTO 00000KT 1/2SM R16/5000VP6000FT FG VV001 02/02 A2991 RMK AO2 T00220022=
202401030953 METAR KBLI 030953Z AUTO 00000KT 3/4SM R16/P6000FT BR VV002 02/02 A2991 RMK AO2 SLP139 T00220022=
202401030944 SPECI KBLI 030944Z AUTO 00000KT 1/2SM R16/P6000FT FG FEW002 SCT080 02/02 A2991 RMK AO2 T00220022=
202401030940 SPECI KBLI 030940Z AUTO 00000KT 1SM R16/4500VP6000FT BR FEW002 SCT080 02/02 A2991 RMK AO2 T00170017=
202401030936 SPECI KBLI 030936Z AUTO 00000KT 3/4SM R16/3000VP6000FT BR FEW080 03/03 A2991 RMK AO2 T00280028=
202401030903 SPECI KBLI 030903Z AUTO 00000KT 1 3/4SM BR BKN080 03/03 A2991 RMK AO2 T00330033=
202401030853 METAR KBLI 030853Z AUTO 00000KT 10SM BKN085 04/04 A2991 RMK AO2 SLP139 60000 T00390039 51009=
202401030753 METAR KBLI 030753Z AUTO 00000KT 10SM FEW055 06/04 A2991 RMK AO2 SLP137 T00560044 400720022=
202401030653 METAR KBLI 030653Z AUTO 02006KT 10SM FEW050 SCT065 06/05 A2990 RMK AO2 RAB07E25 SLP133 P0000 T00560050=
202401030553 METAR KBLI 030553Z 02006KT 10SM SCT075 OVC100 06/05 A2989 RMK AO2 RAE30 SLP129 P0000 60008 T00610050 10061 20056 55004=
202401030453 METAR KBLI 030453Z 02007KT 10SM -RA BKN042 OVC085 06/05 A2988 RMK AO2 SLP129 P0002 T00610050=
202401030353 METAR KBLI 030353Z 03007KT 10SM -RA OVC050 06/05 A2989 RMK AO2 SLP129 P0001 T00610050=
202401030253 METAR KBLI 030253Z 02005KT 8SM -RA OVC044 06/05 A2990 RMK AO2 SLP133 P0004 60005 T00610050 57004=
202401030153 METAR KBLI 030153Z 04006KT 10SM -RA SCT046 OVC090 06/04 A2990 RMK AO2 RAB04 SLP134 P0000 T00610044=
202401030053 METAR KBLI 030053Z 03006KT 10SM SCT046 OVC090 06/04 A2990 RMK AO2 RAE36 SLP135 P0001 T00560044=
202401022353 METAR KBLI 022353Z 33003KT 9SM -RA OVC047 06/06 A2991 RMK AO2 RAB2254 SLP137 P0001 60001 T00610056 10072 20050 56009=
202401022253 METAR KBLI 022253Z 00000KT 10SM BKN048 OVC060 07/05 A2992 RMK AO2 RAE12 SLP140 P0000 T00670050=
202401022153 METAR KBLI 022153Z 03005KT 10SM -RA OVC055 07/04 A2992 RMK AO2 RAE16B47 SLP141 P0000 T00670039=
202401022053 METAR KBLI 022053Z 04006KT 10SM -RA OVC070 07/05 A2994 RMK AO2 SLP147 P0000 60000 T00670050 58022=
202401021953 METAR KBLI 021953Z 35003KT 10SM -RA OVC050 07/04 A2997 RMK AO2 RAB04E14B44 SLP158 P0000 T00670044=
202401021853 METAR KBLI 021853Z 00000KT 10SM BKN060 OVC070 06/04 A2999 RMK AO2 RAB19E43 SLP165 P0000 T00560044=
202401021753 METAR KBLI 021753Z 06004KT 10SM FEW040 BKN060 OVC080 05/04 A3000 RMK AO2 SLP169 T00500039 10050 20028 53006=
202401021653 METAR KBLI 021653Z 00000KT 10SM FEW040 OVC090 04/03 A3000 RMK AO2 SLP167 T00390033=
202401021553 METAR KBLI 021553Z 05004KT 10SM OVC100 03/02 A2997 RMK AO2 SLP159 T00330022=
202401021453 METAR KBLI 021453Z 00000KT 10SM OVC120 03/03 A2998 RMK AO2 SLP162 T00330028 56022=
202401021353 METAR KBLI 021353Z AUTO 21006KT 10SM BKN100 OVC110 04/02 A2999 RMK AO2 SLP166 T00390022=
202401021253 METAR KBLI 021253Z AUTO 00000KT 10SM BKN090 OVC110 03/03 A3001 RMK AO2 SLP173 T00280028=
202401021153 METAR KBLI 021153Z AUTO 00000KT 10SM OVC100 03/02 A3005 RMK AO2 SLP184 T00280022 10033 20017 58016=
202401021053 METAR KBLI 021053Z AUTO 00000KT 10SM SCT110 03/02 A3007 RMK AO2 SLP192 T00280022=
202401020953 METAR KBLI 020953Z AUTO 00000KT 10SM SCT120 03/02 A3009 RMK AO2 SLP198 T00280022=
202401020853 METAR KBLI 020853Z AUTO 00000KT 10SM CLR 03/02 A3009 RMK AO2 SLP200 T00280022 58009=
202401020753 METAR KBLI 020753Z AUTO 36003KT 10SM CLR 03/02 A3011 RMK AO2 SLP205 T00280022 400670000=
202401020653 METAR KBLI 020653Z AUTO 00000KT 10SM CLR 02/02 A3012 RMK AO2 SLP209 T00220022=
202401020553 METAR KBLI 020553Z 36003KT 10SM R16/6000VP6000FT CLR 02/02 A3012 RMK AO2 SLP209 T00220022 10061 20017 58016=
202401020453 METAR KBLI 020453Z 00000KT 10SM CLR 02/02 A3014 RMK AO2 SLP218 T00220022=
202401020353 METAR KBLI 020353Z 00000KT 10SM R16/2600VP6000FT FEW055 03/03 A3016 RMK AO2 SLP221 T00330033=
202401020253 METAR KBLI 020253Z 00000KT 10SM BKN060 03/03 A3017 RMK AO2 SLP225 T00330033 58007=
202401020153 METAR KBLI 020153Z 00000KT 8SM BKN060 04/04 A3018 RMK AO2 SLP229 T00440039=
202401020053 METAR KBLI 020053Z 00000KT 10SM BKN060 06/05 A3019 RMK AO2 SLP232 T00560050=
202401012353 METAR KBLI 012353Z 00000KT 10SM BKN065 06/06 A3019 RMK AO2 SLP232 T00610056 10067 20011 58007=
202401012253 METAR KBLI 012253Z 00000KT 10SM FEW003 BKN065 06/04 A3019 RMK AO2 SLP233 T00610044=
202401012153 METAR KBLI 012153Z 00000KT 10SM FEW003 BKN060 06/06 A3021 RMK AO2 SLP240 T00560056=
202401012129 SPECI KBLI 012129Z 00000KT 10SM SCT003 OVC060 05/05 A3021 RMK AO2 T00500050=
202401012053 METAR KBLI 012053Z 00000KT 1 1/2SM BR OVC003 04/04 A3021 RMK AO2 SLP239 T00440044 58009=
202401012033 SPECI KBLI 012033Z 00000KT 3/4SM R16/2000VP6000FT BR VV002 05/05 A3021 RMK AO2 T00500050=
202401011953 METAR KBLI 011953Z 00000KT 1/4SM R16/1400V2200FT FG VV002 04/04 A3023 RMK AO2 SLP244 T00440044=
202401011910 SPECI KBLI 011910Z 18005KT 1/4SM R16/1200V4000FT FG VV002 03/03 A3024 RMK AO2 T00330033=
202401011853 METAR KBLI 011853Z 15004KT 3/4SM R16/1400VP6000FT BR VV002 03/03 A3024 RMK AO2 SLP248 T00280028=
202401011838 SPECI KBLI 011838Z 19004KT 1/4SM R16/2600VP6000FT FG VV002 03/02 A3024 RMK AO2 T00280022=
202401011836 SPECI KBLI 011836Z 18005KT 2 1/2SM R16/3000VP6000FT BR FEW002 OVC060 03/02 A3025 RMK AO2 T00280022=
202401011753 METAR KBLI 011753Z 00000KT 9SM OVC055 01/01 A3024 RMK AO2 SLP248 T00110011 10039 20000 53008=
202401011745 SPECI KBLI 011745Z 00000KT 3SM R16/3000VP6000FT BR FEW001 OVC055 01/01 A3023 RMK AO2 T00110011=
202401011736 SPECI KBLI 011736Z 36003KT 1SM R16/2400V4500FT BR FEW001 BKN055 01/01 A3023 RMK AO2 T00110011=
202401011732 SPECI KBLI 011732Z 36003KT 1/2SM R16/1600V4000FT FG SCT001 BKN055 01/01 A3022 RMK AO2 T00110011=
202401011725 SPECI KBLI 011725Z 00000KT 1/4SM R16/1400VP6000FT FG BKN001 BKN055 01/01 A3022 RMK AO2 T00110011=
202401011714 SPECI KBLI 011714Z 00000KT 3/4SM R16/2000VP6000FT BR VV001 01/00 A3022 RMK AO2 T00060000=
202401011702 SPECI KBLI 011702Z 00000KT 1/4SM R16/1000VP6000FT FG VV001 00/00 A3022 RMK AO2 T00000000=
202401011653 METAR KBLI 011653Z 00000KT M1/4SM R16/0700V1000FT FG VV001 00/00 A3022 RMK AO2 SLP242 T00000000=
202401011553 METAR KBLI 011553Z 01003KT 1/4SM R16/1200V1400FT FG VV002 02/02 A3021 RMK AO2 SLP239 T00170017=
202401011453 METAR KBLI 011453Z 00000KT 1/4SM R16/1200V1600FT FG VV002 02/02 A3021 RMK AO2 SLP240 T00220022 52001=
202401011353 METAR KBLI 011353Z AUTO 00000KT 1/4SM R16/1200FT FG VV002 03/03 A3021 RMK AO2 SLP240 T00280028=
202401011333 SPECI KBLI 011333Z AUTO 00000KT 1/4SM R16/1000FT FG VV002 03/03 A3021 RMK AO2 T00280028=
202401011253 METAR KBLI 011253Z AUTO 00000KT 1/4SM R16/1200FT FG VV001 03/03 A3021 RMK AO2 SLP239 T00280028=
202401011248 SPECI KBLI 011248Z AUTO 02003KT 1/4SM R16/1200V1400FT FG VV001 03/03 A3021 RMK AO2=
202401011153 METAR KBLI 011153Z AUTO 00000KT 1/4SM R16/1400FT FG VV002 04/03 A3022 RMK AO2 SLP243 T00390033 10039 20006 50002=
202401011053 METAR KBLI 011053Z AUTO 00000KT 1/4SM R16/1200V1400FT FG VV002 02/02 A3024 RMK AO2 SLP250 T00220022=
202401010953 METAR KBLI 010953Z AUTO 00000KT 1/4SM R16/1400V1600FT FG VV002 01/01 A3024 RMK AO2 SLP249 T00110011=
202401010941 SPECI KBLI 010941Z AUTO 00000KT 1/4SM R16/1400V2200FT FG VV002 02/02 A3023 RMK AO2 T00170017=
202401010933 SPECI KBLI 010933Z AUTO 00000KT 1/4SM R16/1400V2600FT FG VV002 02/02 A3023 RMK AO2 T00170017=
202401010924 SPECI KBLI 010924Z AUTO 00000KT 1/2SM R16/2600VP6000FT FG VV002 01/01 A3022 RMK AO2 T00110011=
202401010919 SPECI KBLI 010919Z AUTO 00000KT 1SM R16/6000VP6000FT BR OVC002 01/01 A3022 RMK AO2 T00110006=
202401010913 SPECI KBLI 010913Z AUTO 00000KT 1/2SM R16/3500VP6000FT FG OVC002 01/00 A3021 RMK AO2 T00060000=
202401010906 SPECI KBLI 010906Z AUTO 00000KT 3/4SM R16/3500VP6000FT BR OVC002 01/01 A3022 RMK AO2 T00060006=
202401010853 METAR KBLI 010853Z AUTO 00000KT 1/4SM R16/1600V2800FT FG VV003 01/01 A3021 RMK AO2 SLP241 T00060006 53001=
202401010846 SPECI KBLI 010846Z AUTO 00000KT 1/2SM R16/1600VP6000FT FG VV002 01/01 A3021 RMK AO2 T00110011=
202401010836 SPECI KBLI 010836Z AUTO 00000KT 1SM R16/P6000FT BR VV002 01/01 A3021 RMK AO2 T00060006=
202401010819 SPECI KBLI 010819Z AUTO 00000KT 1/2SM R16/2600VP6000FT FG VV002 01/01 A3021 RMK AO2 T00110011=
202401010813 SPECI KBLI 010813Z AUTO 00000KT 1SM R16/3500VP6000FT BR CLR 01/01 A3021 RMK AO2 T00110011=
202401010807 SPECI KBLI 010807Z AUTO 00000KT 1/2SM R16/2000V6000FT FG CLR 01/01 A3021 RMK AO2 T00110011=
202401010759 SPECI KBLI 010759Z AUTO 00000KT 1/4SM R16/1600VP6000FT FG VV002 01/01 A3021 RMK AO2 T00110006=
202401010753 METAR KBLI 010753Z AUTO 00000KT 1/2SM R16/1600V3000FT FG VV001 01/00 A3021 RMK AO2 SLP238 T00110000 400890006=
202401010747 SPECI KBLI 010747Z AUTO 00000KT 1/2SM R16/1600V6000FT FG VV001 01/01 A3021 RMK AO2=
202401010720 SPECI KBLI 010720Z AUTO 00000KT 1/4SM R16/1800V2600FT FG VV001 02/02 A3021 RMK AO2 T00170017=
202401010712 SPECI KBLI 010712Z AUTO 00000KT 1/2SM R16/2200V2800FT FG VV001 01/01 A3021 RMK AO2 T00110011=
202401010703 SPECI KBLI 010703Z AUTO 08003KT 1SM R16/2400VP6000FT BR VV001 01/01 A3021 RMK AO2 T00060006=
202401010656 SPECI KBLI 010656Z AUTO 06005KT 3/4SM R16/P6000FT BR VV002 01/01 A3022 RMK AO2 T00060006=
202401010653 METAR KBLI 010653Z AUTO 05005KT 1 1/4SM BR FEW002 01/01 A3022 RMK AO2 SLP241 T00060006=
202401010643 SPECI KBLI 010643Z AUTO 04004KT 2SM BR FEW002 01/01 A3022 RMK AO2 T00110006=
202401010640 SPECI KBLI 010640Z AUTO 05003KT 1SM R16/P6000FT BR VV002 01/01 A3022 RMK AO2 T00110011=
202401010637 SPECI KBLI 010637Z 04003KT 1/2SM R16/P6000FT FG VV002 01/01 A3022 RMK AO2 T00110011=
202401010630 SPECI KBLI 010630Z 00000KT 3/4SM R16/P6000FT BR VV002 02/02 A3022 RMK AO2 T00170017=
202401010553 METAR KBLI 010553Z 00000KT 10SM CLR 02/02 A3021 RMK AO2 SLP239 T00220017 10072 20011 53001=
202401010453 METAR KBLI 010453Z 00000KT 10SM R16/1600V3500FT CLR 02/02 A3021 RMK AO2 SLP239 T00220017=
202401010431 SPECI KBLI 010431Z 00000KT 10SM R16/1800V2800FT FEW002 02/02 A3021 RMK AO2 T00220022=
202401010353 METAR KBLI 010353Z 00000KT 10SM CLR 02/02 A3021 RMK AO2 SLP238 T00220022=
202401010253 METAR KBLI 010253Z 00000KT 10SM R16/4500VP6000FT CLR 02/02 A3021 RMK AO2 SLP239 T00220022 51009=
202401010153 METAR KBLI 010153Z 00000KT 10SM R16/3000VP6000FT CLR 03/03 A3021 RMK AO2 SLP238 T00280028=
202401010127 SPECI KBLI 010127Z 00000KT 10SM CLR 04/03 A3020 RMK AO2 T00390033=
202401010124 SPECI KBLI 010124Z 00000KT 2 1/2SM CLR 04/04 A3020 RMK AO2 VIS 3/4V5 T00390039=
202401010053 METAR KBLI 010053Z 00000KT 10SM FEW015 04/04 A3020 RMK AO2 SLP234 T00440039=

# No short TAF reports from KBLI in databse.

###################################
#  large TAF from KBLI
###################################
202401312321 TAF KBLI 312321Z 0100/0124 11011KT P6SM -SHRA BKN060 OVC090 FM010300
                       13008KT P6SM -SHRA OVC040 FM011200 13005KT
                       P6SM VCSH OVC025 FM011800 14009KT P6SM OVC050=
202401311721 TAF KBLI 311721Z 3118/0118 03005KT P6SM -RA SCT070 OVC100 FM312000
                       11011KT 6SM -RA OVC050 FM010300 13008KT
                       P6SM -SHRA OVC030 FM011200 13005KT P6SM
                       VCSH OVC025=
202401311135 TAF KBLI 311135Z 3112/0112 03006KT P6SM -RA OVC050 FM311500 11010KT
                       P6SM -RA OVC040 FM312000 11011KT 6SM -RA
                       OVC030 FM010500 13008KT P6SM -RA OVC025=
202401310520 TAF KBLI 310520Z 3106/0106 06005KT P6SM SCT080 OVC110 FM311000
                       05004KT P6SM -RA OVC050 FM311500 11010G20KT
                       P6SM -RA OVC040 FM311800 11010G20KT 6SM
                       -RA OVC030 FM010300 13008KT P6SM -RA OVC050=
202401302331 TAF KBLI 302331Z 3100/3124 02005KT P6SM OVC100 FM311000 05004KT
                       P6SM -RA OVC050 FM311500 11010G20KT P6SM
                       -RA OVC040 FM311800 11010G20KT 6SM -RA OVC030=
202401301733 TAF KBLI 301733Z 3018/3118 03005KT P6SM OVC100 FM311000 05004KT
                       P6SM -RA OVC050 FM311500 11010KT P6SM -RA
                       OVC040=
202401301411 KBLI 301411Z 3014/3112 03006KT P6SM VCSH SCT080 OVC100 FM301700
                       02006KT P6SM BKN060 OVC100 FM311000 05004KT
                       P6SM -RA OVC050=
202401301123 TAF KBLI 301123Z 3012/3112 VRB05KT P6SM OVC090 FM301700 02006KT
                       P6SM BKN060 OVC100 FM311000 05004KT P6SM
                       -RA OVC050=
202401300737 KBLI 300737Z 3008/3106 18016G32KT P6SM VCSH BKN100 FM300900 18010KT
                       P6SM -SHRA BKN060 OVC100 FM301700 04006KT
                       P6SM BKN060 OVC100=
202401300539 TAF KBLI 300539Z 3006/3106 18012G22KT P6SM SCT100 BKN200 FM300900
                       18010KT P6SM -SHRA BKN060 OVC100 FM301700
                       04006KT P6SM BKN060 OVC100=
202401292320 TAF KBLI 292320Z 3000/3024 18004KT P6SM VCSH OVC100 FM300100 17015KT
                       P6SM -RA OVC040
                      TEMPO 3004/3008 07020G30KT FM301000 17008KT
                       P6SM OVC025 FM301800 06006KT P6SM -SHRA
                       BKN040=
202401291736 TAF KBLI 291736Z 2918/3018 VRB03KT P6SM BKN150 FM292100 08004KT
                       P6SM VCSH OVC100 FM300100 07017G30KT P6SM
                       -RA OVC040 FM301000 17008KT P6SM OVC025=
202401291135 TAF KBLI 291135Z 2912/3012 00000KT P6SM BKN120 OVC250 FM291800
                       15008KT P6SM SCT040 BKN060 OVC100 FM300300
                       15008KT P6SM -RA OVC040 FM301000 17008KT
                       P6SM OVC025=
202401290535 TAF KBLI 290535Z 2906/3006 13012G20KT P6SM OVC080 FM291800 15008KT
                       P6SM SCT040 BKN060 OVC100 FM300200 15008KT
                       P6SM -RA OVC040=
202401282341 TAF KBLI 282341Z 2900/2924 03006KT P6SM BKN020 OVC035 FM290500
                       12008KT P6SM SCT020 BKN040 OVC070 FM292000
                       15006KT P6SM SCT040 BKN070 OVC120=
202401281720 TAF KBLI 281720Z 2818/2918 00000KT 4SM BR BKN005 OVC010 FM282100
                       14007KT 4SM BR OVC015 FM290000 15008KT P6SM
                       VCSH SCT015 BKN025 OVC040 FM290500 12008KT
                       P6SM VCSH SCT015 OVC040=
202401281404 KBLI 281404Z 2814/2912 14005KT 5SM -RA BR BKN003 BKN008 OVC020
                       FM281500 18008KT 4SM BR OVC015 FM290000
                       15008KT P6SM VCSH SCT015 BKN025 OVC040=
202401281303 KBLI 281303Z 2813/2912 21005KT 1SM -RA BR FEW010 OVC016 FM281500
                       18008KT 4SM BR OVC015 FM290000 15008KT P6SM
                       VCSH SCT015 BKN025 OVC040=
202401281120 TAF KBLI 281120Z 2812/2912 21005KT 2SM -RA BR BKN004 OVC012 FM281400
                       18008KT 4SM BR OVC015 FM290000 15008KT P6SM
                       VCSH SCT015 BKN025 OVC040=
202401280542 TAF KBLI 280542Z 2806/2906 18012KT P6SM -RA OVC015
                      TEMPO 2810/2814 4SM -RA FM281400 18008KT
                       4SM -RA OVC015 FM290000 15008KT P6SM SCT015
                       BKN025 OVC040=
202401272320 TAF KBLI 272320Z 2800/2824 16011KT P6SM BKN015 BKN040 OVC060 FM280200
                       16010G20KT 4SM -RA OVC020 FM280700 16008KT
                       P6SM OVC010 FM281800 15005KT 6SM BR OVC015=
202401271720 TAF KBLI 271720Z 2718/2818 03004KT 4SM -RA BR OVC025 FM272200 14010G20KT
                       4SM -RA OVC020 FM280700 16008KT P6SM OVC010=
202401271131 TAF KBLI 271131Z 2712/2812 03006KT 5SM -RA BR OVC020 FM271600 06005KT
                       P6SM -RA SCT012 BKN020 OVC035 FM272200 14010KT
                       4SM -RA OVC012 FM280700 16008KT P6SM OVC010=
202401270540 TAF KBLI 270540Z 2706/2806 34006KT 3SM -RA SCT003 BKN022 OVC035
                       TEMPO 2706/2708 1SM -RA BKN003 OVC025 FM270800
                       03006KT P6SM SCT008 BKN015 OVC030 FM271600
                       VRB03KT P6SM -RA SCT012 BKN020 OVC035 FM272200
                       14010KT 4SM -RA OVC012=
202401270421 KBLI 270421Z 2704/2724 03008KT 5SM -RA OVC035 FM270900 12007KT
                       5SM BR OVC015 FM271300 05005KT P6SM -SHRA
                       OVC020 FM272200 13010KT 4SM BR OVC013=
202401262331 TAF KBLI 262331Z 2700/2724 04008KT P6SM BKN050 BKN080 FM270300
                       08008KT P6SM -SHRA OVC025 FM270800 12007KT
                       5SM BR OVC015 FM271300 05005KT P6SM -SHRA
                       OVC020 FM272200 13010KT 4SM BR OVC013=
202401261739 TAF KBLI 261739Z 2618/2718 04008KT P6SM BKN070 OVC110 FM270200
                       08008KT P6SM -SHRA OVC025 FM270600 12007KT
                       5SM BR OVC015 FM271300 08005KT P6SM -SHRA
                       OVC020=
202401261556 KBLI 261556Z 2616/2712 02007KT P6SM OVC045 FM261800 09005KT P6SM
                       OVC040 FM270000 08005KT P6SM -SHRA OVC035
                       FM270300 10006KT P6SM -RA OVC025 FM270600
                       12007KT 4SM -RA BR OVC015=
202401261120 TAF KBLI 261120Z 2612/2712 13007KT P6SM OVC030 FM261800 09005KT
                       P6SM OVC040 FM270000 08005KT P6SM -SHRA
                       OVC035 FM270300 10006KT P6SM -RA OVC025
                       FM270600 12007KT 4SM -RA BR OVC015=
202401260521 TAF KBLI 260521Z 2606/2706 13009KT P6SM OVC020 FM261500 07005KT
                       P6SM OVC045 FM262200 05005KT P6SM -SHRA
                       OVC045 FM270400 07008KT 6SM -RA BR OVC015=
202401252326 TAF KBLI 252326Z 2600/2624 16010G18KT P6SM -RA OVC020 FM260600
                       13009KT P6SM OVC020 FM261500 07005KT P6SM
                       OVC045 FM262200 05005KT P6SM -SHRA OVC045=
202401251729 TAF KBLI 251729Z 2518/2618 15011G20KT 6SM -RA BR OVC020 FM260000
                       14010G18KT P6SM VCSH OVC025 FM260600 13009KT
                       P6SM OVC020 FM261500 07005KT P6SM OVC035=
202401251439 KBLI 251439Z 2515/2612 15011G20KT P6SM -RA OVC025 FM260200 15009KT
                       P6SM VCSH OVC015 FM260600 14010G20KT 6SM
                       BR OVC015=
202401251120 TAF KBLI 251120Z 2512/2612 11006KT P6SM SHRA OVC050 FM251500 15011G21KT
                       P6SM -RA OVC025 FM260200 15009KT P6SM VCSH
                       OVC015 FM260600 14010G20KT 6SM BR OVC015=
202401250539 TAF KBLI 250539Z 2506/2606 14010KT P6SM VCSH BKN025 OVC050 FM251000
                       15012KT P6SM SHRA OVC050 FM251500 15011G21KT
                       P6SM -RA OVC025 FM260200 14007KT P6SM OVC015=
202401242331 TAF KBLI 242331Z 2500/2524 15010KT P6SM -SHRA OVC025 FM250300 14010KT
                       P6SM BKN025 OVC050 FM251100 15012KT P6SM
                       VCSH OVC050 FM251700 13011G28KT P6SM -RA
                       OVC030=
202401242037 KBLI 242037Z 2421/2518 15010KT P6SM -SHRA BKN025 OVC050 FM250500
                       14010KT P6SM OVC040 FM251100 15012KT P6SM
                       -SHRA OVC050=
202401241725 TAF KBLI 241725Z 2418/2518 14007KT P6SM -RA OVC040 FM242000 15010KT
                       P6SM -SHRA OVC050 FM250500 14010KT P6SM
                       OVC040 FM251100 15012KT P6SM -SHRA OVC050=
202401241120 TAF KBLI 241120Z 2412/2512 02003KT P6SM OVC040 FM241400 14010KT
                       P6SM -RA OVC035 FM241700 14007KT P6SM -RA
                       OVC025 FM242000 15010KT P6SM -SHRA OVC025
                       FM250500 14010KT P6SM OVC020=
202401240521 TAF KBLI 240521Z 2406/2506 13007KT P6SM SCT050 BKN200 FM241000
                       12007KT P6SM OVC040 FM241400 14010KT P6SM
                       -RA OVC025 FM242000 13010KT P6SM -SHRA OVC025=
202401232324 TAF KBLI 232324Z 2400/2424 16004KT P6SM OVC030 FM240300 13004KT
                       P6SM OVC050 FM241000 07006KT P6SM OVC040
                       FM241700 09009KT 5SM -RA BR OVC025=
202401231729 TAF KBLI 231729Z 2318/2418 17005KT P6SM SCT015 BKN030 FM232100
                       16008KT P6SM BKN035 OVC050 FM240300 13004KT
                       P6SM OVC050 FM241000 07006KT P6SM OVC040=
202401231134 TAF KBLI 231134Z 2312/2412 VRB03KT 1SM -RA BR BKN015 OVC025 FM231800
                       17005KT 3SM -RA BR BKN010 OVC015 FM232100
                       16008KT 5SM -RA BR OVC020 FM240300 13004KT
                       6SM BR OVC025=
202401230521 TAF KBLI 230521Z 2306/2406 15005KT 2SM -RA BR OVC015 FM231200 16006KT
                       3SM -RA BR BKN010 OVC015 FM232100 16008KT
                       5SM -RA BR OVC020=
202401222333 TAF KBLI 222333Z 2300/2324 15010KT P6SM -RA OVC015 FM230400 13005KT
                       P6SM VCSH SCT010 OVC015 FM230800 15004KT
                       P6SM VCSH OVC025 FM231500 16007KT P6SM VCSH
                       OVC019=
202401221722 TAF KBLI 221722Z 2218/2318 01007KT 6SM -RA BR OVC030 FM222100 15010KT
                       5SM -RA BR FEW010 OVC015 FM230200 13005KT
                       6SM -RA BR SCT010 OVC015 FM230800 15004KT
                       6SM -RA BR OVC025=
202401221123 TAF KBLI 221123Z 2212/2312 05006KT P6SM -RA BKN035 OVC050 FM221600
                       06007KT 6SM -RA BR OVC030 FM222100 15010KT
                       5SM -RA BR FEW010 OVC015 FM230200 13005KT
                       6SM -RA BR SCT010 OVC015=
202401220528 TAF KBLI 220528Z 2206/2306 05003KT P6SM -RA BKN035 OVC050 FM220900
                       05005KT 6SM -RA BR OVC035 FM221400 06007KT
                       6SM -RA BR OVC030 FM222100 15010G19KT 5SM
                       -RA BR FEW010 OVC015=
202401212320 TAF KBLI 212320Z 2200/2224 01003KT P6SM -RA SCT045 OVC070 FM220700
                       05005KT P6SM -RA OVC035 FM221100 05006KT
                       P6SM -RA OVC020 FM222100 13010G19KT 4SM
                       -RA BR OVC015=
202401211727 TAF KBLI 211727Z 2118/2218 04008KT P6SM VCSH OVC030
                      TEMPO 2118/2119 -RA FM212200 08007KT P6SM
                       -RA OVC025 FM220700 04004KT P6SM -RA OVC020=
202401211226 KBLI 211226Z 2112/2212 01004KT 4SM BR VCSH OVC035 FM211600 05006KT
                       P6SM -RA OVC025 FM212200 08007KT 6SM -RA
                       OVC020 FM220700 04004KT P6SM -RA OVC025=
202401211122 TAF KBLI 211122Z 2112/2212 01004KT 6SM BR VCSH OVC035 FM211600
                       05006KT P6SM -RA OVC025 FM212200 08007KT
                       6SM -RA OVC020 FM220700 04004KT P6SM -RA
                       OVC025=
202401210524 TAF KBLI 210524Z 2106/2206 07004KT P6SM -RA BKN040 OVC060 FM211200
                       12007KT P6SM -RA OVC020 FM211700 11006KT
                       P6SM VCSH BKN020 OVC030 FM212200 12005KT
                       P6SM -RA OVC015=
202401202320 TAF KBLI 202320Z 2100/2124 02006KT P6SM FEW008 BKN100 FM210600
                       16004KT P6SM BKN025 OVC060 FM210900 14008KT
                       P6SM -RA OVC015=
202401201809 KBLI 201809Z 2018/2118 03003KT P6SM SCT005 BKN120
                      TEMPO 2018/2020 BKN003 FM202000 36003KT P6SM
                       OVC120 FM210600 16004KT P6SM BKN030 OVC070
                       FM210900 14008KT P6SM -RA OVC015=
202401201720 TAF KBLI 201720Z 2018/2118 03003KT P6SM SCT005 BKN120 FM202000
                       36003KT P6SM OVC120 FM210600 16004KT P6SM
                       BKN030 OVC070 FM210900 14008KT P6SM -RA
                       OVC015=
202401201120 TAF KBLI 201120Z 2012/2112 03004KT P6SM BKN100 FM201500 03004KT
                       P6SM OVC060 FM201800 05004KT P6SM OVC040
                       FM202200 04005KT P6SM OVC030 FM210400 10004KT
                       P6SM OVC025 FM210800 12007KT P6SM -RA OVC025=
202401200534 TAF KBLI 200534Z 2006/2106 VRB03KT P6SM VCSH SCT005 BKN150 FM201200
                       03004KT P6SM BKN100 FM201500 03004KT P6SM
                       OVC030 FM201800 05004KT P6SM OVC050 FM202200
                       04005KT P6SM OVC025=
202401192321 TAF KBLI 192321Z 2000/2024 04006KT P6SM -SHRA BKN070 OVC100 FM200600
                       VRB03KT P6SM VCSH OVC070 FM201100 01003KT
                       P6SM VCSH OVC050 FM201600 36003KT P6SM OVC040=
202401191725 TAF KBLI 191725Z 1918/2018 03004KT P6SM OVC080 FM192200 04006KT
                       4SM -SHRA BR OVC040 FM200600 VRB03KT P6SM
                       VCSH OVC035 FM201100 01003KT P6SM VCSH OVC050=
202401191120 TAF KBLI 191120Z 1912/2012 05011KT 6SM -FZRA OVC040 FM191500 03007KT
                       6SM -SHRA BR OVC035 FM192200 04006KT 4SM
                       -SHRA BR OVC030 FM200600 VRB03KT P6SM VCSH
                       OVC025=
202401190539 TAF KBLI 190539Z 1906/2006 05009G18KT 6SM -FZRA OVC050 FM190900
                       02015G18KT 6SM -RA BR OVC030 FM191500 03009KT
                       6SM BR VCSH OVC020 FM192200 04006KT 4SM
                       -RA BR OVC025=
202401190306 KBLI 190306Z 1903/1924 04010G20KT 6SM -FZRA BKN030 OVC050 FM190800
                       02015G21KT 4SM -RA BR OVC015 FM191000 04011KT
                       4SM -RA BR OVC010 FM191500 03009KT 6SM -RA
                       BR OVC015=
202401190048 KBLI 190048Z 1901/1924 03010G18KT 6SM -RASN OVC024
                      TEMPO 1901/1902 -FZRA FM190200 04015G26KT
                       5SM -RA BR OVC020 FM190400 02015G21KT 4SM
                       -RA BR OVC015 FM191000 04011KT 4SM -RA BR
                       OVC010 FM191500 03009KT 6SM -RA BR OVC015=
202401190000 KBLI 190000Z 1900/1924 03010G18KT 6SM -RASN OVC024
                      TEMPO 1900/1901 -FZRA FM190100 04015G26KT
                       5SM -RA BR OVC020 FM190400 02015G21KT 4SM
                       -RA BR OVC015 FM191000 04011KT 4SM -RA BR
                       OVC010 FM191500 03009KT 6SM -RA BR OVC015=
202401182336 TAF KBLI 182336Z 1900/1924 03010G18KT 6SM -RASN OVC024 FM190100
                       04015G26KT 5SM -RA BR OVC020 FM190400 02015G21KT
                       4SM -RA BR OVC015 FM191000 04011KT 4SM -RA
                       BR OVC010 FM191500 03009KT 6SM -RA BR OVC015=
202401181907 KBLI 181907Z 1819/1918 03012G23KT 2SM -SN OVC020 FM190000 03010G18KT
                       P6SM -RASN OVC020 FM190400 02015G21KT 4SM
                       -RA BR OVC015 FM191000 04011KT 4SM -RA BR
                       OVC010=
202401181737 TAF KBLI 181737Z 1818/1918 03017G25KT P6SM OVC040 FM181900 03012G23KT
                       P6SM -SN OVC030 FM190000 03010G18KT P6SM
                       -RASN OVC020 FM190400 02015G21KT 4SM -RA
                       BR OVC015 FM191000 04011KT 4SM -RA BR OVC010=
202401181125 TAF KBLI 181125Z 1812/1912 03013G22KT P6SM OVC035 FM182000 03012KT
                       P6SM -SN OVC050 FM190000 03010G18KT P6SM
                       -RASN OVC030 FM190400 02007KT 4SM -RA BR
                       OVC020=
202401180534 TAF KBLI 180534Z 1806/1906 03010KT P6SM OVC070 FM181200 03012KT
                       P6SM OVC060 FM182000 03010G18KT P6SM -SN
                       OVC050 FM190000 03010G18KT P6SM -RASN OVC030=
202401172329 TAF KBLI 172329Z 1800/1824 02014G22KT P6SM -SN OVC040 FM180300
                       04008KT P6SM OVC050 FM181000 02007KT P6SM
                       OVC060 FM181700 03010G18KT P6SM OVC100=
202401171903 KBLI 171903Z 1719/1818 03011KT 1SM -SN BR SCT006 OVC015
                      TEMPO 1719/1720 1/4SM +SN FZFG VV008 FM172200
                       02007KT P6SM VCSH OVC020 FM180300 04008KT
                       6SM BR BKN030 BKN050 FM181000 02007KT P6SM
                       BKN015=
202401171735 TAF KBLI 171735Z 1718/1818 03011KT 1SM -SN BR SCT006 OVC015
                      TEMPO 1718/1719 1/4SM +SN FZFG VV008 FM172200
                       02007KT P6SM VCSH OVC020 FM180300 04008KT
                       6SM BR BKN030 BKN050 FM181000 02007KT P6SM
                       BKN015=
202401171358 KBLI 171358Z 1714/1812 03005KT 3SM -SN BR SCT005 OVC012
                      TEMPO 1714/1717 1SM -SN BR FM171700 02008G16KT
                       2SM -SN BR OVC010 FM172200 02010KT P6SM
                       VCSH OVC020 FM180500 04008KT 6SM BR BKN030
                       BKN050=
202401171235 KBLI 171235Z 1713/1812 03005KT 4SM -SN BR SCT005 OVC012
                      TEMPO 1713/1717 2SM -SN BR FM171700 02008G16KT
                       2SM -SN BR OVC010 FM172200 02010KT P6SM
                       VCSH OVC020 FM180500 04008KT 6SM BR BKN030
                       BKN050=
202401171132 TAF KBLI 171132Z 1712/1812 03005KT 4SM -SN BR SCT005 OVC012 FM171700
                       02008G16KT 2SM -SN BR OVC010 FM172200 02010KT
                       P6SM VCSH OVC020 FM180500 04008KT 6SM BR
                       BKN030 BKN050=
202401170835 KBLI 170835Z 1709/1806 05004KT 2SM -SN BR OVC020 FM171100 03005KT
                       3SM -SN BR OVC012 FM171700 02008G17KT 2SM
                       -SN BR OVC007 FM172200 02010KT P6SM OVC020=
202401170530 TAF KBLI 170530Z 1706/1806 02004KT P6SM SCT045 OVC060 FM170800
                       05004KT 4SM -SN BR OVC025 FM170900 03005KT
                       3SM -SN BR OVC012 FM171700 02008G17KT 2SM
                       -SN BR OVC007 FM172200 02010KT P6SM OVC020=
202401162340 TAF KBLI 162340Z 1700/1724 03006KT P6SM OVC120 FM170300 03005KT
                       P6SM OVC050 FM170700 05004KT 4SM -SN BR
                       OVC027 FM170900 03005KT 2SM -SN BR OVC012
                       FM171400 04006KT 4SM -SN BR OVC009 FM171700
                       02008G17KT 2SM -SN BR OVC007=
202401161735 TAF KBLI 161735Z 1618/1718 03005KT P6SM BKN200 FM162000 03006KT
                       P6SM OVC120 FM170300 03005KT P6SM OVC050
                       FM170700 05004KT 6SM -SN BR OVC027 FM170900
                       03005KT 5SM -SN BR OVC012 FM171400 04006KT
                       4SM -SN BR OVC009=
202401161133 TAF KBLI 161133Z 1612/1712 03005KT P6SM BKN200 FM162000 03006KT
                       P6SM OVC120 FM170300 03005KT P6SM OVC050
                       FM170700 05004KT 6SM -SN BR OVC027 FM170900
                       03005KT 5SM -SN BR OVC012=
202401160531 TAF KBLI 160531Z 1606/1706 02006KT P6SM BKN200 FM160900 05005KT
                       P6SM BKN200 FM162000 03006KT P6SM OVC150
                       FM170400 03005KT 6SM RASN OVC050=
202401152322 TAF KBLI 152322Z 1600/1624 04005KT P6SM BKN200=
202401151727 TAF KBLI 151727Z 1518/1618 03006KT P6SM SCT200 FM160000 03004KT
                       P6SM BKN200=
202401151132 TAF KBLI 151132Z 1512/1612 03006KT P6SM SCT200=
202401150536 TAF KBLI 150536Z 1506/1606 04006KT P6SM BKN250=
202401142334 TAF KBLI 142334Z 1500/1524 04007KT P6SM BKN200=
202401141730 TAF KBLI 141730Z 1418/1518 04007KT P6SM BKN200=
202401141126 TAF KBLI 141126Z 1412/1512 03006KT P6SM BKN200=
202401140520 TAF KBLI 140520Z 1406/1506 03008KT P6SM SCT250
                      TEMPO 1406/1409 03010G18KT=
202401140311 KBLI 140311Z 1403/1424 03012KT P6SM FEW200 FM141200 04010KT P6SM
                       SCT200 FM142000 03010KT P6SM SKC=
202401132320 TAF KBLI 132320Z 1400/1424 02010G22KT P6SM SKC FM141200 04010KT
                       P6SM SCT200 FM142000 03010KT P6SM SKC=
202401132103 KBLI 132103Z 1321/1418 02010G22KT P6SM SKC FM141200 04010KT P6SM
                       SCT200=
202401131730 TAF KBLI 131730Z 1318/1418 04010KT P6SM SKC FM140500 04010KT P6SM
                       SCT200=
202401131137 TAF KBLI 131137Z 1312/1412 04010G16KT P6SM SCT200 FM140500 04010KT
                       P6SM SCT200=
202401130542 TAF KBLI 130542Z 1306/1406 03013G24KT P6SM SCT250 FM131100 03013KT
                       P6SM BKN250 FM131600 03015G24KT P6SM SCT250=
202401122320 TAF KBLI 122320Z 1300/1324 04022G30KT P6SM SCT060 SCT250 FM130400
                       03016G28KT P6SM SCT150 SCT250 FM130700 03013KT
                       P6SM BKN250 FM131600 03015G24KT P6SM SCT250=
202401121727 TAF KBLI 121727Z 1218/1318 04022G30KT P6SM SCT060 SCT250 FM130400
                       03016G28KT P6SM SCT150 SCT250 FM130700 03013KT
                       P6SM BKN250=
202401121121 TAF KBLI 121121Z 1212/1312 03023G40KT P6SM FEW060 FM121600 04024G30KT
                       P6SM BKN060 FM130200 03016G28KT P6SM BKN150
                       FM130700 03017G23KT P6SM BKN250=
202401120541 TAF KBLI 120541Z 1206/1306 04026G45KT P6SM SCT090 FM121200 03020G35KT
                       P6SM FEW060 FM121800 04024G30KT P6SM SKC
                       FM130400 03016G28KT P6SM BKN150=
202401112337 TAF KBLI 112337Z 1200/1224 04020G35KT P6SM BKN040 OVC060
                      TEMPO 1200/1202 03015G45KT FM121200 03020G33KT
                       P6SM FEW070 FM121800 04024G30KT P6SM SKC=
202401111940 KBLI 111940Z 1120/1218 03012G20KT P6SM OVC040 FM112100 03015G25KT
                       P6SM BKN040 FM120400 03018G35KT P6SM SCT050
                       FM121200 03020G33KT P6SM FEW070=
202401111759 TAF KBLI 111759Z 1118/1218 29010G20KT P6SM SCT040 OVC050 FM111900
                       03016G28KT P6SM OVC040 FM112100 03025G33KT
                       P6SM BKN040 FM120400 03021G35KT P6SM SCT050
                       FM121200 03020G33KT P6SM FEW070=
202401111135 TAF KBLI 111135Z 1112/1212 30014G22KT P6SM SCT030 BKN045 FM111700
                       03016G28KT P6SM OVC040 FM112100 03025G33KT
                       P6SM BKN040 FM120400 03021G35KT P6SM BKN050=
202401110536 TAF KBLI 110536Z 1106/1206 21006KT P6SM BKN025 OVC030 FM110700
                       23007KT P6SM -RASN OVC020 FM111200 30014G22KT
                       P6SM VCSH OVC035 FM111700 03016G28KT P6SM
                       BKN040 FM120200 03021G35KT P6SM BKN050=
202401102340 TAF KBLI 102340Z 1100/1124 25003KT P6SM BKN009 BKN025 OVC030 FM110600
                       17008KT P6SM -SNRA OVC025 FM111200 02012KT
                       P6SM VCSH OVC035 FM111700 02016G22KT P6SM
                       VCSH OVC040 FM112200 02021G28KT P6SM OVC025=
202401102100 KBLI 102100Z 1021/1118 VRB05KT P6SM VCSH SCT011 OVC025 FM110600
                       17008KT P6SM OVC025 FM111200 02010KT P6SM
                       VCSH OVC035 FM111700 02016G22KT P6SM VCSH
                       OVC040=
202401101742 TAF KBLI 101742Z 1018/1118 03007KT P6SM VCSH FEW035 BKN050 FM102100
                       35006KT P6SM VCSH SCT025 BKN050 FM110600
                       17008KT P6SM OVC025 FM111200 02010KT P6SM
                       VCSH OVC035 FM111700 02016G22KT P6SM VCSH
                       OVC040=
202401101540 KBLI 101540Z 1016/1112 03007KT P6SM -RA SCT020 BKN025 OVC035 FM102100
                       02005KT P6SM VCSH BKN025 OVC035 FM110300
                       24004KT P6SM OVC025=
202401101435 KBLI 101435Z 1015/1112 03007KT P6SM VCSH SCT035 OVC050 FM102100
                       02005KT P6SM VCSH BKN025 OVC035 FM110300
                       24004KT P6SM OVC025=
202401101129 TAF KBLI 101129Z 1012/1112 17009KT P6SM -SHRA BKN015 OVC020 FM101500
                       03007KT P6SM -SHRA OVC015 FM102100 02005KT
                       P6SM VCSH BKN025 OVC035 FM110300 24004KT
                       P6SM OVC025=
202401100527 TAF KBLI 100527Z 1006/1106 20009KT P6SM -SHRA BKN035 OVC050 FM100900
                       21008KT P6SM -RA OVC020 FM101500 03007KT
                       P6SM -SHRA OVC015 FM102100 02005KT P6SM
                       VCSH BKN025 OVC035=
202401092328 TAF KBLI 092328Z 1000/1024 21010G20KT P6SM FEW020 BKN040 FM100300
                       24010KT P6SM -SHRA OVC035 FM100700 19010KT
                       P6SM -RA OVC020 FM101400 03007KT P6SM -RA
                       OVC020 FM102100 36005KT P6SM -SHRA OVC020=
202401092226 KBLI 092226Z 0922/1018 21017G26KT P6SM -SHRA SCT020 BKN040 FM100300
                       24015G24KT P6SM -SHRA OVC035 FM100700 19010KT
                       P6SM -RA OVC020 FM101400 03007KT P6SM -RA
                       OVC020=
202401091725 TAF KBLI 091725Z 0918/1018 18020G40KT 5SM -RA BR BKN015 OVC020
                       FM092000 21017G26KT P6SM -SHRA OVC020 FM100300
                       24015G24KT P6SM -SHRA OVC035 FM100700 19010KT
                       P6SM -RA OVC020 FM101400 03007KT P6SM -RA
                       OVC020=
202401091141 TAF KBLI 091141Z 0912/1012 22021G32KT P6SM -SHRA OVC040 FM091500
                       23025G35KT 5SM -SHRA BR BKN015 OVC020 FM092000
                       21017G26KT P6SM -SHRA OVC020 FM100300 24015G24KT
                       6SM -SHRA BR OVC035 FM100700 19010KT P6SM
                       -RA OVC020=
202401090533 TAF KBLI 090533Z 0906/1006 18018G30KT 5SM RA BR OVC015 FM090900
                       22021G32KT 6SM -SHRA BR OVC020
                      TEMPO 0909/0912 SCT020 BKN040 FM091500 23025G35KT
                       5SM -SHRA BR BKN015 OVC020 FM100300 24015G29KT
                       6SM -SHRA BR OVC025=
202401082320 TAF KBLI 082320Z 0900/0924 03007KT 5SM -RA BR BKN018 OVC022 FM090400
                       13012G20KT 5SM -RA BR OVC015 FM090900 15018G28KT
                       6SM -RA BR OVC018 FM091700 19025G35KT 4SM
                       -SHRA BR OVC015=
202401081722 TAF KBLI 081722Z 0818/0918 02003KT 6SM -RA BR OVC025 FM081900 08006KT
                       6SM -RA BR OVC015 FM090400 13012G20KT 5SM
                       -RA BR OVC015 FM090900 15018G28KT 6SM -RA
                       BR OVC018 FM091700 19025G35KT 4SM -SHRA
                       BR OVC015=
202401081138 TAF KBLI 081138Z 0812/0912 VRB03KT P6SM -RASN BKN022 OVC040 FM081400
                       05006KT P6SM -RASN BKN020 OVC025 FM081900
                       08006KT 6SM -RA BR OVC015 FM090400 13012G20KT
                       5SM -RA BR OVC015 FM090900 15018G28KT 6SM
                       -RA BR OVC018=
202401080525 TAF KBLI 080525Z 0806/0906 VRB03KT P6SM BKN090 BKN250 FM080800
                       08003KT P6SM OVC050 FM081400 08006KT P6SM
                       -RASN BKN020 OVC025 FM081900 09006KT 6SM
                       -RA BR OVC015 FM090400 13012KT 5SM -RA BR
                       OVC015=
202401072334 TAF KBLI 072334Z 0800/0824 VRB03KT P6SM BKN050 FM080800 08005KT
                       P6SM OVC030 FM081400 10008KT P6SM -RA BKN020
                       OVC030 FM082000 18005KT 6SM -RA BR OVC018
                       FM082200 26005KT 5SM -RA BR OVC020=
202401071732 TAF KBLI 071732Z 0718/0818 01004KT P6SM SCT008 OVC045 FM072300
                       VRB03KT P6SM BKN050 FM080800 08005KT P6SM
                       OVC030 FM081400 10008KT P6SM -RA BKN020
                       OVC030=
202401071402 KBLI 071402Z 0714/0812 VRB03KT 6SM BR FEW004 BKN035
                      TEMPO 0714/0716 1/2SM FG VV002 FM071800 01004KT
                       P6SM BKN040 BKN060 FM072300 VRB03KT P6SM
                       BKN050 FM080800 08005KT P6SM OVC030=
202401071343 KBLI 071343Z 0714/0812 VRB03KT 6SM BR FEW004 BKN035
                      TEMPO 0714/0716 1SM BR BKN002 FM071800 01004KT
                       P6SM BKN040 BKN060 FM072300 VRB03KT P6SM
                       BKN050 FM080800 08005KT P6SM OVC030=
202401071327 KBLI 071327Z 0713/0812 VRB03KT 6SM BR FEW004 BKN035
                      TEMPO 0713/0716 3SM BR BKN002 FM071800 01004KT
                       P6SM BKN040 BKN060 FM072300 VRB03KT P6SM
                       BKN050 FM080800 08005KT P6SM OVC030=
202401071121 TAF KBLI 071121Z 0712/0812 VRB03KT 6SM BR FEW004 BKN035
                      TEMPO 0712/0716 3SM BR FM071800 01004KT P6SM
                       BKN040 BKN060 FM072300 VRB03KT P6SM BKN050
                       FM080800 08005KT P6SM OVC030=
202401070526 TAF KBLI 070526Z 0706/0806 03002KT P6SM SCT025 BKN035 FM071100
                       VRB03KT P6SM BKN035 FM072300 VRB03KT P6SM
                       OVC035=
202401062336 TAF KBLI 062336Z 0700/0724 20005KT P6SM VCSH BKN035 OVC050 FM070300
                       34004KT P6SM BKN035 BKN050 FM070900 02003KT
                       P6SM OVC020=
202401061729 TAF KBLI 061729Z 0618/0718 20005KT P6SM VCSH BKN025 OVC040 FM070300
                       34004KT P6SM BKN035 BKN050 FM070900 02003KT
                       P6SM OVC020=
202401061134 TAF KBLI 061134Z 0612/0712 19009KT P6SM -SHRA SCT010 OVC018 FM061800
                       22009KT P6SM VCSH BKN025 OVC040 FM070300
                       34004KT P6SM BKN035 BKN050=
202401060520 TAF KBLI 060520Z 0606/0706 16017G27KT P6SM -RA SCT015 OVC025 FM061200
                       19007KT P6SM VCSH OVC020 FM061800 22009KT
                       P6SM SCT025 OVC040 FM070300 VRB04KT P6SM
                       OVC030=
202401052330 TAF KBLI 052330Z 0600/0624 18015G24KT P6SM VCSH SCT025 OVC050 FM060300
                       16020G30KT P6SM -RA SCT010 OVC025 FM061200
                       19007KT P6SM OVC020 FM061800 25009KT P6SM
                       SCT025 OVC040=
202401051725 TAF KBLI 051725Z 0518/0618 18012G20KT P6SM -RA SCT030 BKN040 OVC070
                       FM052300 18015G24KT P6SM -RA OVC025 FM060300
                       16020G30KT P6SM -RA SCT010 OVC020 FM061200
                       19007KT P6SM OVC020=
202401051135 TAF KBLI 051135Z 0512/0612 18012G20KT P6SM VCSH BKN035 OVC050
                      TEMPO 0512/0514 -SHRA BKN022 OVC040 FM051800
                       18012KT P6SM VCSH BKN030 FM052300 16015G24KT
                       P6SM -RA OVC025 FM060300 16017G26KT P6SM
                       -RA OVC020=
202401050539 TAF KBLI 050539Z 0506/0606 18005KT P6SM SCT035 BKN060 FM050900
                       17007KT P6SM OVC030 FM051800 18012KT P6SM
                       -RA OVC020 FM052300 16015G24KT P6SM -RA
                       OVC015 FM060300 16017G26KT P6SM -RA OVC020=
202401042336 TAF KBLI 042336Z 0500/0524 17009G20KT P6SM VCSH SCT022 BKN035 FM050400
                       18006KT P6SM BKN035 BKN050 FM050900 17009KT
                       P6SM -RA OVC022 FM051800 18011G20KT P6SM
                       OVC020 FM052300 16020G30KT P6SM SCT006 OVC025=
202401042031 KBLI 042031Z 0421/0518 18014G20KT P6SM BKN025 OVC030 FM042300 17009KT
                       P6SM VCSH BKN022 OVC040 FM050400 18006KT
                       P6SM BKN035 BKN050 FM050900 17009KT P6SM
                       -RA OVC022=
202401041728 TAF KBLI 041728Z 0418/0518 15014G30KT P6SM -RA BKN025 BKN040 OVC050
                       FM042300 17009KT P6SM VCSH BKN022 OVC040
                       FM050400 18006KT P6SM BKN035 BKN050 FM050900
                       17009KT P6SM -RA OVC022=
202401041134 TAF KBLI 041134Z 0412/0512 16010G16KT P6SM -RA BKN022 OVC035 FM041700
                       16011KT 6SM -RA BR SCT010 OVC020 FM042300
                       17009KT P6SM VCSH BKN022 OVC040 FM050400
                       18006KT P6SM BKN030 BKN050 FM050900 17009KT
                       P6SM OVC022=
202401040523 TAF KBLI 040523Z 0406/0506 16010KT P6SM -RA BKN015 OVC040 FM040700
                       18010KT P6SM SCT025 OVC035 FM041100 16010KT
                       P6SM -RA SCT030 OVC050 FM041700 16011KT
                       5SM BR SCT006 OVC015 FM042300 16008KT P6SM
                       OVC015=
202401032332 TAF KBLI 032332Z 0400/0424 16008KT P6SM -RA OVC040 FM040300 16010KT
                       P6SM -RA OVC020 FM040700 18010KT P6SM SCT025
                       OVC035 FM041100 16010KT P6SM -RA SCT030
                       OVC050 FM041700 16011KT 5SM BR SCT006 OVC015
                       FM042300 16008KT P6SM OVC015=
202401031738 TAF KBLI 031738Z 0318/0418 14004KT P6SM SCT050 OVC100 FM040000
                       16008KT P6SM -RA OVC040 FM040700 18010KT
                       P6SM SCT025 OVC035 FM041100 16010KT P6SM
                       -RA SCT030 OVC050 FM041700 16011KT 5SM BR
                       SCT006 OVC015=
202401031140 TAF KBLI 031140Z 0312/0412 00000KT 1SM BR OVC100 FM031400 14004KT
                       P6SM SCT005 BKN080 FM031600 14004KT P6SM
                       SCT030 BKN080 FM032100 14010KT P6SM -RA
                       OVC040 FM040300 18010KT P6SM SCT025 OVC035=
202401031013 KBLI 031013Z 0310/0406 00000KT 3/4SM BR OVC001 FM031300 14004KT
                       P6SM SCT005 BKN080 FM031500 14004KT P6SM
                       SCT030 BKN080
                      TEMPO 0317/0321 BKN030 OVC080 FM032100 14008KT
                       P6SM -RA OVC030=
202401030532 TAF KBLI 030532Z 0306/0406 05007KT P6SM -RA BKN050 OVC060 FM030700
                       13006KT P6SM -SHRA BKN025 OVC040 FM031700
                       15005KT 5SM BR OVC013 FM032000 14007KT P6SM
                       OVC020=
202401022336 TAF KBLI 022336Z 0300/0324 05007KT P6SM -RA BKN050 OVC060 FM030600
                       13006KT P6SM -SHRA BKN025 OVC040 FM031700
                       15005KT 5SM BR OVC013 FM032000 14007KT P6SM
                       OVC020=
202401021729 TAF KBLI 021729Z 0218/0318 07005KT P6SM FEW040 OVC090 FM022000
                       07007KT P6SM OVC045 FM030000 05006KT P6SM
                       -RA OVC040 FM030600 05006KT P6SM -SHRA BKN025
                       OVC040=
202401021135 TAF KBLI 021135Z 0212/0312 00000KT P6SM BKN150
                      TEMPO 0214/0217 4SM BR FM022000 05006KT P6SM
                       OVC060 FM030000 05006KT P6SM -RA OVC040
                       FM030600 05006KT P6SM BKN025 OVC040=
202401020529 TAF KBLI 020529Z 0206/0306 VRB02KT P6SM SKC FM021000 VRB02KT P6SM
                       OVC070 FM022200 05005KT P6SM -SHRA OVC040
                       FM030000 02004KT P6SM OVC050=
202401012329 TAF KBLI 012329Z 0200/0224 VRB02KT P6SM FEW003 BKN060 FM020300
                       VRB02KT 6SM BR BKN240 FM021000 VRB02KT P6SM
                       OVC070 FM022200 05005KT P6SM -SHRA OVC040=
202401012158 KBLI 012158Z 0122/0218 VRB02KT P6SM FEW003 BKN060 FM020000 05004KT
                       P6SM BKN250 FM020500 VRB02KT 5SM BR OVC120
                       FM021000 VRB02KT P6SM OVC070=
202401012039 KBLI 012039Z 0121/0218 VRB02KT 1/2SM FG VV002 FM020000 05004KT
                       P6SM BKN250 FM020500 VRB02KT 5SM BR OVC120
                       FM021000 VRB02KT P6SM OVC070=
202401011842 KBLI 011842Z 0119/0218 VRB02KT 5SM BR FEW001 BKN050
                      TEMPO 0119/0121 1/4SM FG VV002 FM012100 05004KT
                       P6SM BKN250 FM020500 VRB02KT 5SM BR OVC120
                       FM021000 VRB02KT P6SM OVC070=
202401011749 KBLI 011749Z 0118/0218 VRB02KT 5SM BR FEW001 BKN050 FM012000 05004KT
                       P6SM BKN250 FM020500 VRB02KT 5SM BR OVC120
                       FM021000 VRB02KT P6SM OVC070=
202401011741 KBLI 011741Z 0118/0218 VRB02KT 1SM BR FEW001 BKN050 FM012000 05004KT
                       P6SM BKN250 FM020500 VRB02KT 5SM BR OVC120
                       FM021000 VRB02KT P6SM OVC070=
202401011739 KBLI 011739Z 0118/0218 VRB02KT 1/2SM FG SCT001 BKN050 FM012000
                       05004KT P6SM BKN250 FM020500 VRB02KT 5SM
                       BR OVC120 FM021000 VRB02KT P6SM OVC070=
202401011729 TAF KBLI 011729Z 0118/0218 VRB02KT 1/4SM FG BKN001 BKN050 FM012000
                       05004KT P6SM BKN250 FM020500 VRB02KT 5SM
                       BR OVC120 FM021000 VRB02KT P6SM OVC070=
202401011143 TAF KBLI 011143Z 0112/0212 00000KT 1/4SM FG VV002 FM011800 VRB02KT
                       1SM BR BKN004 FM012000 05004KT P6SM BKN250
                       FM020100 02004KT P6SM OVC150 FM020500 VRB02KT
                       5SM BR OVC120=
202401011048 KBLI 011048Z 0111/0206 00000KT 1/4SM FG VV002 FM011600 00000KT
                       2SM BR BKN004 FM011900 00000KT P6SM BKN250
                       FM012100 01003KT P6SM SCT250=
202401010758 KBLI 010758Z 0108/0206 00000KT 1/2SM FG VV001 FM011000 00000KT
                       2SM BR BKN005 FM011200 00000KT 6SM BR SCT250
                       FM011800 00000KT P6SM BKN250 FM012100 01003KT
                       P6SM SCT250=
202401010520 TAF KBLI 010520Z 0106/0206 00000KT P6SM SKC FM010900 00000KT P6SM
                       SCT005 FM011200 00000KT P6SM SCT250 FM011800
                       00000KT P6SM BKN250 FM012100 01003KT P6SM
                       SCT250=