##########################################################
# Query made at 02/17/2025 00:07:52 UTC
# Time interval: from 12/01/2024 00:00  to 12/31/2024 23:59  UTC
##########################################################

##########################################################
# KBLI, Bellingham, Bellingham International Airport (United States)
# WMO index: -----. WIGOS ID: Unknown
# Latitude 48-47-58N. Longitude 122-32-21W. Altitude 48 m.
##########################################################

###################################
#  METAR/SPECI from KBLI
###################################
202412312353 METAR KBLI 312353Z 04004KT 10SM CLR 04/02 A3011 RMK AO2 SLP205 T00390017 10061 20028 56028=
202412312253 METAR KBLI 312253Z 03004KT 10SM CLR 06/03 A3013 RMK AO2 SLP213 T00560028=
202412312153 METAR KBLI 312153Z 02006KT 10SM CLR 06/03 A3016 RMK AO2 SLP222 T00560028=
202412312053 METAR KBLI 312053Z 03005KT 10SM CLR 06/03 A3019 RMK AO2 SLP233 T00610033 58027=
202412311953 METAR KBLI 311953Z 05005KT 10SM CLR 06/03 A3022 RMK AO2 SLP244 T00560028=
202412311853 METAR KBLI 311853Z 04004KT 10SM CLR 04/03 A3026 RMK AO2 SLP257 T00390028=
202412311753 METAR KBLI 311753Z 00000KT 10SM FEW012 SCT040 03/02 A3027 RMK AO2 SLP261 T00330022 10033 20011 56003=
202412311653 METAR KBLI 311653Z 03004KT 10SM OVC042 02/02 A3028 RMK AO2 SLP262 T00220017=
202412311553 METAR KBLI 311553Z 03003KT 10SM OVC043 01/01 A3028 RMK AO2 SLP261 T00110011=
202412311453 METAR KBLI 311453Z 02003KT 8SM OVC043 02/02 A3028 RMK AO2 SLP265 T00170017 58009=
202412311353 METAR KBLI 311353Z AUTO 00000KT 9SM OVC044 03/03 A3029 RMK AO2 SLP268 T00280028=
202412311253 METAR KBLI 311253Z AUTO 00000KT 10SM OVC045 03/03 A3031 RMK AO2 SLP272 T00280028=
202412311153 METAR KBLI 311153Z AUTO 03004KT 10SM SCT031 OVC040 03/03 A3031 RMK AO2 SLP273 60005 70017 T00280028 10044 20028 56008=
202412311053 METAR KBLI 311053Z AUTO 00000KT 10SM SCT033 BKN041 03/03 A3031 RMK AO2 RAE46 SLP275 P0001 T00330033=
202412311036 SPECI KBLI 311036Z AUTO 02004KT 9SM -RA SCT022 BKN038 OVC046 04/04 A3032 RMK AO2 P0001 T00390039=
202412311021 SPECI KBLI 311021Z AUTO 00000KT 9SM -RA BKN023 BKN027 OVC034 04/04 A3032 RMK AO2 P0000 T00390039=
202412311014 SPECI KBLI 311014Z AUTO 00000KT 10SM -RA SCT026 OVC034 04/04 A3032 RMK AO2 P0000 T00390039=
202412310953 METAR KBLI 310953Z AUTO 06003KT 8SM -RA BKN027 OVC037 04/04 A3033 RMK AO2 RAE12B28 SLP278 P0002 T00390039=
202412310913 SPECI KBLI 310913Z AUTO 00000KT 10SM SCT023 OVC029 04/04 A3034 RMK AO2 RAE12 P0000 T00390039=
202412310853 METAR KBLI 310853Z AUTO 00000KT 6SM -RA BR SCT020 OVC030 04/04 A3034 RMK AO2 RAB07 SLP282 P0002 60002 T00390039 58002=
202412310753 METAR KBLI 310753Z AUTO 00000KT 9SM BKN017 BKN024 OVC029 04/04 A3034 RMK AO2 SLP284 T00390039 400720039=
202412310722 SPECI KBLI 310722Z AUTO 00000KT 9SM BKN017 OVC038 04/04 A3035 RMK AO2 T00390039=
202412310653 METAR KBLI 310653Z AUTO 00000KT 10SM OVC037 04/04 A3035 RMK AO2 SLP285 T00440044=
202412310553 METAR KBLI 310553Z AUTO 00000KT 10SM OVC037 04/04 A3034 RMK AO2 SLP283 60001 T00440044 10061 20044 53003=
202412310453 METAR KBLI 310453Z AUTO 00000KT 10SM OVC036 04/04 A3034 RMK AO2 SLP282 T00440044=
202412310353 METAR KBLI 310353Z AUTO 00000KT 10SM FEW015 OVC038 04/04 A3033 RMK AO2 SLP279 T00440044=
202412310253 METAR KBLI 310253Z AUTO 00000KT 10SM FEW019 FEW033 OVC041 04/04 A3033 RMK AO2 SLP280 60001 T00440044 53004=
202412310153 METAR KBLI 310153Z 07003KT 10SM OVC043 05/05 A3032 RMK AO2 RAE0057 SLP277 P0000 T00500050=
202412310053 METAR KBLI 310053Z 08003KT 10SM -RA OVC032 06/06 A3032 RMK AO2 SLP278 P0001 T00560056=
202412302353 METAR KBLI 302353Z 00000KT 4SM -RA BR SCT015 BKN024 OVC031 06/06 A3032 RMK AO2 SLP275 P0002 60008 T00610056 10072 20061 53011=
202412302253 METAR KBLI 302253Z 15005KT 6SM -RA BR BKN018 BKN029 OVC035 06/06 A3030 RMK AO2 SLP271 P0003 T00610056=
202412302153 METAR KBLI 302153Z 16005KT 10SM -RA BKN020 BKN024 OVC029 07/05 A3029 RMK AO2 SLP265 P0002 T00670050=
202412302053 METAR KBLI 302053Z 16006KT 8SM -RA FEW015 BKN020 BKN030 07/05 A3029 RMK AO2 RAE1957B37 SLP264 P0001 60001 T00670050 53002=
202412301953 METAR KBLI 301953Z 14009KT 10SM -RA SCT022 BKN028 BKN047 07/05 A3028 RMK AO2 RAB42 SLP261 P0000 T00720050=
202412301853 METAR KBLI 301853Z 15008KT 10SM SCT021 BKN027 OVC044 07/05 A3028 RMK AO2 RAB16E34 SLP262 P0000 T00670050=
202412301851 SPECI KBLI 301851Z 14006KT 10SM SCT020 BKN027 OVC044 07/05 A3028 RMK AO2 RAB16E34 P0000=
202412301753 METAR KBLI 301753Z 16006KT 10SM FEW022 SCT032 OVC055 06/04 A3028 RMK AO2 RAE35 SLP262 P0002 60003 T00610044 10061 20044 51019=
202412301653 METAR KBLI 301653Z 16007KT 7SM -RA FEW015 SCT025 OVC040 06/04 A3026 RMK AO2 RAB13 SLP256 P0001 T00560039=
202412301554 SPECI KBLI 301554Z 17007KT 10SM FEW015 FEW025 BKN060 06/02 A3024 RMK AO2 T00610022=
202412301553 METAR KBLI 301553Z 17009KT 10SM OVC060 06/02 A3024 RMK AO2 SLP250 T00610022=
202412301453 METAR KBLI 301453Z 17011KT 10SM FEW020 BKN055 06/02 A3022 RMK AO2 SLP243 T00610022 53015=
202412301353 METAR KBLI 301353Z AUTO 17008KT 10SM SCT024 BKN055 OVC090 06/03 A3020 RMK AO2 SLP236 T00560028=
202412301253 METAR KBLI 301253Z AUTO 18005KT 10SM OVC085 06/03 A3019 RMK AO2 SLP231 T00560033=
202412301153 METAR KBLI 301153Z AUTO 17007KT 10SM FEW060 BKN075 05/03 A3018 RMK AO2 SLP228 60006 70037 T00500033 10067 20044 51017=
202412301053 METAR KBLI 301053Z AUTO 17006KT 10SM FEW060 SCT110 05/04 A3017 RMK AO2 RAE39 SLP225 P0004 T00500039=
202412300953 METAR KBLI 300953Z AUTO 18011G17KT 10SM -RA FEW049 BKN060 OVC075 06/04 A3015 RMK AO2 RAE02B52 SLP218 P0001 T00610044=
202412300935 SPECI KBLI 300935Z AUTO 19006KT 10SM FEW019 SCT028 BKN075 06/04 A3014 RMK AO2 RAE02 P0000 T00610039=
202412300920 SPECI KBLI 300920Z AUTO 19007KT 10SM FEW016 SCT022 BKN029 06/04 A3013 RMK AO2 RAE02 P0000 T00610044=
202412300853 METAR KBLI 300853Z AUTO 22006KT 10SM -RA FEW028 BKN035 OVC046 06/05 A3013 RMK AO2 SLP210 P0000 60001 T00610050 51025=
202412300753 METAR KBLI 300753Z AUTO 19006KT 10SM -RA FEW019 BKN050 OVC065 06/05 A3011 RMK AO2 RAB0654E06B40 SLP203 P0001 T00610050 400670033=
202412300653 METAR KBLI 300653Z AUTO 19003KT 10SM BKN055 BKN070 OVC080 06/04 A3008 RMK AO2 SLP196 T00610039=
202412300553 METAR KBLI 300553Z 19006KT 10SM CLR 07/04 A3005 RMK AO2 SLP186 T00670039 10067 20056 51031=
202412300453 METAR KBLI 300453Z 18006KT 10SM CLR 06/04 A3002 RMK AO2 SLP175 T00610039=
202412300353 METAR KBLI 300353Z 21004KT 10SM CLR 07/03 A2999 RMK AO2 SLP165 T00670033=
202412300253 METAR KBLI 300253Z 18005KT 10SM CLR 07/04 A2996 RMK AO2 SLP155 T00670044 51039=
202412300153 METAR KBLI 300153Z 17005KT 10SM CLR 07/05 A2993 RMK AO2 SLP143 T00670050=
202412300053 METAR KBLI 300053Z 19008KT 10SM OVC110 07/05 A2989 RMK AO2 SLP128 T00670050=
202412292353 METAR KBLI 292353Z 19005KT 10SM FEW015 BKN030 BKN040 06/05 A2985 RMK AO2 RAE20 SLP116 P0000 60031 T00610050 10067 20044 53023=
202412292253 METAR KBLI 292253Z 17004KT 10SM -RA SCT015 BKN030 BKN055 07/06 A2981 RMK AO2 SLP101 P0007 T00670061=
202412292153 METAR KBLI 292153Z 20005KT 4SM RA BR SCT005 BKN011 OVC033 07/07 A2978 RMK AO2 SLP093 P0009 T00670067=
202412292148 SPECI KBLI 292148Z 19004KT 5SM -RA BR SCT005 BKN011 OVC033 07/07 A2978 RMK AO2 P0008=
202412292053 METAR KBLI 292053Z 00000KT 3SM -RA BR SCT005 BKN015 OVC028 06/06 A2976 RMK AO2 SLP085 P0011 60015 T00610061 53011=
202412292009 SPECI KBLI 292009Z 00000KT 3SM R16/0700VP6000FT -RA BR SCT010 BKN025 OVC037 06/06 A2975 RMK AO2 P0004 T00610061=
202412292008 SPECI KBLI 292008Z 00000KT 3SM R16/1200VP6000FT -RA BR FEW008 BKN030 OVC037 06/06 A2975 RMK AO2 P0003 T00610061=
202412291953 METAR KBLI 291953Z 00000KT 5SM -RA BR SCT010 BKN015 BKN035 06/06 A2974 RMK AO2 RAE1859B21 SLP080 P0003 T00610061=
202412291856 SPECI KBLI 291856Z 00000KT 8SM -RA FEW010 SCT025 BKN055 05/05 A2974 RMK AO2 P0000 T00500050=
202412291853 METAR KBLI 291853Z 00000KT 7SM -RA BKN055 BKN070 OVC085 05/05 A2974 RMK AO2 RAB1754 SLP078 P0001 T00500050=
202412291753 METAR KBLI 291753Z 00000KT 10SM FEW010 BKN060 OVC110 04/04 A2973 RMK AO2 SLP075 T00440044 10056 20033 53016=
202412291654 SPECI KBLI 291654Z 05003KT 10SM FEW005 SCT060 BKN100 04/04 A2970 RMK AO2 T00390039=
202412291653 METAR KBLI 291653Z 05003KT 6SM BR FEW060 04/04 A2970 RMK AO2 SLP065 T00390039=
202412291553 METAR KBLI 291553Z 00000KT 10SM SCT060 04/04 A2969 RMK AO2 SLP060 T00390039=
202412291453 METAR KBLI 291453Z 00000KT 10SM FEW020 04/04 A2968 RMK AO2 SLP058 T00440044 55007=
202412291353 METAR KBLI 291353Z AUTO 01004KT 10SM CLR 04/04 A2968 RMK AO2 SLP058 T00440044=
202412291253 METAR KBLI 291253Z AUTO 02007KT 10SM FEW055 05/05 A2968 RMK AO2 SLP058 T00500050=
202412291153 METAR KBLI 291153Z AUTO 02006KT 10SM CLR 05/05 A2970 RMK AO2 SLP066 70013 T00500050 10083 20050 58019=
202412291053 METAR KBLI 291053Z AUTO 02005KT 10SM FEW060 06/05 A2973 RMK AO2 SLP076 T00560050=
202412290953 METAR KBLI 290953Z AUTO 00000KT 10SM OVC055 06/06 A2975 RMK AO2 SLP083 T00560056=
202412290853 METAR KBLI 290853Z AUTO 00000KT 10SM OVC050 06/06 A2976 RMK AO2 SLP085 T00560056 56017=
202412290753 METAR KBLI 290753Z AUTO 00000KT 10SM FEW043 06/05 A2977 RMK AO2 SLP089 T00560050 401060050=
202412290653 METAR KBLI 290653Z AUTO 17005KT 10SM CLR 08/06 A2980 RMK AO2 SLP098 T00780061=
202412290553 METAR KBLI 290553Z 17005KT 10SM SCT018 SCT024 08/07 A2981 RMK AO2 SLP103 T00830067 10094 20078 58009=
202412290453 METAR KBLI 290453Z 19007KT 10SM SCT027 08/07 A2983 RMK AO2 SLP108 T00830072=
202412290353 METAR KBLI 290353Z 18005KT 10SM SCT030 OVC055 09/07 A2983 RMK AO2 SLP109 T00890067=
202412290255 SPECI KBLI 290255Z 18006KT 10SM SCT030 OVC055 09/07 A2984 RMK AO2 T00890067=
202412290253 METAR KBLI 290253Z 18006KT 10SM BKN030 OVC055 09/07 A2984 RMK AO2 SLP112 T00890067 51017=
202412290153 METAR KBLI 290153Z 19006KT 10SM SCT033 OVC055 09/06 A2984 RMK AO2 SLP111 T00890061=
202412290053 METAR KBLI 290053Z 19006KT 10SM OVC055 09/06 A2981 RMK AO2 SLP103 T00940061=
202412282353 METAR KBLI 282353Z 19006KT 10SM FEW015 BKN060 09/06 A2979 RMK AO2 SLP095 60002 T00940061 10106 20089 51026=
202412282253 METAR KBLI 282253Z 19005KT 10SM FEW025 SCT040 OVC070 11/07 A2978 RMK AO2 SLP092 T01060067=
202412282153 METAR KBLI 282153Z 17010KT 10SM SCT029 OVC065 10/08 A2975 RMK AO2 SLP081 T01000078=
202412282053 METAR KBLI 282053Z 18011G18KT 10SM FEW010 SCT025 BKN040 09/08 A2971 RMK AO2 RAB1958E41 SLP069 P0002 60002 T00940083 51031=
202412282041 SPECI KBLI 282041Z 18011KT 10SM FEW010 SCT020 BKN040 09/08 A2971 RMK AO2 RAB1958E41 P0002 T00940083=
202412282014 SPECI KBLI 282014Z VRB06G21KT 5SM -RA BR SCT010 BKN025 OVC035 09/08 A2970 RMK AO2 RAB1958 P0001 T00940083=
202412281953 METAR KBLI 281953Z 18012G20KT 10SM FEW010 SCT020 BKN030 10/08 A2968 RMK AO2 SLP059 T01000078=
202412281853 METAR KBLI 281853Z 18013G22KT 10SM FEW015 SCT020 BKN030 09/08 A2965 RMK AO2 RAE02 SLP047 P0000 T00940078=
202412281753 METAR KBLI 281753Z 18014G25KT 10SM -RA SCT015 BKN025 OVC050 09/08 A2962 RMK AO2 PK WND 18026/1732 SLP038 P0000 60011 T00940078 10094 20083 51028=
202412281653 METAR KBLI 281653Z 18013G25KT 8SM -RA SCT015 BKN025 OVC040 09/08 A2959 RMK AO2 SLP028 P0003 T00890078=
202412281553 METAR KBLI 281553Z 17015G25KT 4SM RA BR BKN019 BKN029 OVC036 09/08 A2957 RMK AO2 PK WND 16028/1454 RAB01 SLP019 P0007 T00890078=
202412281453 METAR KBLI 281453Z 16019G28KT 10SM OVC020 09/07 A2953 RMK AO2 PK WND 16028/1451 RAB02E38 SLP009 P0000 60001 T00890067 55003=
202412281353 METAR KBLI 281353Z AUTO 16012G18KT 10SM OVC022 09/07 A2952 RMK AO2 RAE06 SLP005 P0000 T00890067=
202412281312 SPECI KBLI 281312Z AUTO 12007KT 10SM SCT022 BKN026 OVC080 08/07 A2952 RMK AO2 RAE06 P0000 T00830072=
202412281253 METAR KBLI 281253Z AUTO 14008KT 10SM -RA SCT026 BKN070 OVC085 08/07 A2953 RMK AO2 SLP008 P0001 T00830067=
202412281242 SPECI KBLI 281242Z AUTO 13007KT 10SM -RA SCT025 BKN055 OVC085 08/07 A2953 RMK AO2 P0001 T00830067=
202412281153 METAR KBLI 281153Z AUTO 15007KT 10SM -RA OVC024 09/06 A2954 RMK AO2 RAB48 SLP012 P0000 60001 70018 T00890061 10089 20050 51008=
202412281053 METAR KBLI 281053Z AUTO 17012G18KT 10SM BKN022 OVC031 08/06 A2954 RMK AO2 SLP010 T00830056=
202412281009 SPECI KBLI 281009Z AUTO VRB04KT 10SM OVC027 05/05 A2953 RMK AO2 T00500050=
202412280953 METAR KBLI 280953Z AUTO 00000KT 10SM OVC031 05/05 A2952 RMK AO2 SLP006 T00500050=
202412280853 METAR KBLI 280853Z AUTO 04006KT 10SM OVC036 05/05 A2952 RMK AO2 SLP003 60001 T00500050 58009=
202412280753 METAR KBLI 280753Z AUTO 10005KT 10SM OVC033 07/05 A2953 RMK AO2 RAB0654E26 SLP007 P0000 T00720050 400780033=
202412280733 SPECI KBLI 280733Z AUTO 12006KT 10SM OVC031 07/06 A2954 RMK AO2 RAB0654E26 P0000 T00720056=
202412280653 METAR KBLI 280653Z AUTO 09005KT 10SM BKN027 OVC034 07/06 A2954 RMK AO2 RAE50 SLP012 P0001 T00670056=
202412280650 SPECI KBLI 280650Z AUTO 09006KT 10SM BKN027 OVC034 07/06 A2955 RMK AO2 RAE50 P0001=
202412280553 METAR KBLI 280553Z VRB06KT 10SM -RA FEW021 SCT025 OVC036 07/06 A2955 RMK AO2 SLP013 P0001 60016 T00720061 10078 20056 58027=
202412280453 METAR KBLI 280453Z 00000KT 10SM -RA SCT025 OVC043 06/06 A2958 RMK AO2 SLP026 P0003 T00610061=
202412280443 SPECI KBLI 280443Z 00000KT 10SM -RA SCT025 OVC041 06/06 A2958 RMK AO2 P0002 T00610061=
202412280353 METAR KBLI 280353Z 01004KT 5SM -RA BR SCT002 OVC025 06/06 A2960 RMK AO2 SLP033 P0007 T00560056=
202412280257 SPECI KBLI 280257Z 02004KT 4SM -RA BR FEW007 OVC013 06/06 A2963 RMK AO2 P0001 T00560056=
202412280253 METAR KBLI 280253Z 03006KT 5SM -RA BR BKN015 OVC021 06/06 A2963 RMK AO2 RAB05 SLP041 P0000 60005 T00560056 56009=
202412280153 METAR KBLI 280153Z 03004KT 6SM BR BKN015 OVC020 06/06 A2964 RMK AO2 RAE11 SLP046 P0001 T00560056=
202412280139 SPECI KBLI 280139Z 04004KT 6SM BR BKN015 OVC020 06/06 A2964 RMK AO2 RAE11 P0001 T00560056=
202412280053 METAR KBLI 280053Z 01005KT 2SM -RA BR BKN004 BKN011 OVC015 06/06 A2963 RMK AO2 RAB14 SLP044 P0004 T00560056=
202412280030 SPECI KBLI 280030Z 01003KT 2SM -RA BR OVC008 06/06 A2965 RMK AO2 RAB14 CIG 005V012 P0002 T00560056=
202412272357 SPECI KBLI 272357Z 00000KT 4SM BR FEW003 OVC009 06/06 A2966 RMK AO2 CIG 007V012 T00610061=
202412272353 METAR KBLI 272353Z 00000KT 3SM BR FEW008 OVC018 06/06 A2965 RMK AO2 RAB05E41 SLP050 P0001 60001 T00610061 10078 20056 55000=
202412272253 METAR KBLI 272253Z 00000KT 6SM BR FEW008 SCT015 OVC020 06/06 A2965 RMK AO2 SLP050 T00610061=
202412272153 METAR KBLI 272153Z 00000KT 6SM BR SCT010 BKN020 OVC030 07/05 A2964 RMK AO2 SLP045 T00720050=
202412272135 SPECI KBLI 272135Z 00000KT 10SM SCT015 BKN030 OVC040 08/05 A2964 RMK AO2 T00780050=
202412272131 SPECI KBLI 272131Z 00000KT 10SM BKN026 OVC031 08/05 A2965 RMK AO2 T00780050=
202412272053 METAR KBLI 272053Z 00000KT 10SM FEW015 BKN035 OVC050 08/05 A2965 RMK AO2 SLP049 T00780050 53008=
202412271953 METAR KBLI 271953Z 00000KT 10SM FEW025 BKN040 08/04 A2963 RMK AO2 SLP040 T00780044=
202412271930 SPECI KBLI 271930Z 00000KT 10SM FEW025 BKN040 07/05 A2963 RMK AO2 T00720050=
202412271853 METAR KBLI 271853Z 04005KT 10SM BKN040 06/04 A2962 RMK AO2 SLP037 T00610044=
202412271753 METAR KBLI 271753Z 01003KT 10SM OVC050 06/04 A2963 RMK AO2 SLP041 T00560039 10056 20033 53022=
202412271653 METAR KBLI 271653Z 00000KT 10SM SCT055 OVC075 04/03 A2960 RMK AO2 SLP031 T00440033=
202412271553 METAR KBLI 271553Z 00000KT 10SM OVC090 04/03 A2958 RMK AO2 SLP025 T00390033=
202412271453 METAR KBLI 271453Z 00000KT 10SM OVC100 04/03 A2956 RMK AO2 SLP020 T00390028 53017=
202412271353 METAR KBLI 271353Z AUTO 00000KT 10SM FEW120 04/03 A2953 RMK AO2 SLP009 T00390028=
202412271253 METAR KBLI 271253Z AUTO 05004KT 10SM FEW120 04/03 A2951 RMK AO2 SLP001 T00440028=
202412271153 METAR KBLI 271153Z AUTO 03006KT 10SM FEW046 05/03 A2951 RMK AO2 SLP002 70012 T00500033 10083 20050 57015=
202412271053 METAR KBLI 271053Z AUTO 04008KT 10SM OVC045 06/04 A2953 RMK AO2 SLP008 T00610039=
202412270953 METAR KBLI 270953Z AUTO 03006KT 10SM OVC042 06/04 A2954 RMK AO2 SLP011 T00560044=
202412270853 METAR KBLI 270853Z AUTO 02005KT 10SM OVC038 06/04 A2956 RMK AO2 SLP017 T00560044 56027=
202412270753 METAR KBLI 270753Z AUTO 00000KT 10SM OVC037 06/05 A2958 RMK AO2 SLP026 T00560050 401000050=
202412270653 METAR KBLI 270653Z AUTO 15007KT 10SM OVC038 08/04 A2961 RMK AO2 SLP036 T00830044=
202412270553 METAR KBLI 270553Z 14008KT 10SM BKN037 08/06 A2964 RMK AO2 SLP045 T00780056 10094 20056 58009=
202412270453 METAR KBLI 270453Z 15007KT 10SM OVC038 07/06 A2965 RMK AO2 SLP050 T00720056=
202412270353 METAR KBLI 270353Z 17005KT 10SM SCT070 06/05 A2967 RMK AO2 SLP054 T00610050=
202412270253 METAR KBLI 270253Z 15003KT 10SM SCT060 SCT100 07/05 A2967 RMK AO2 SLP054 T00670050 50009=
202412270153 METAR KBLI 270153Z 18005KT 10SM FEW085 BKN110 08/05 A2967 RMK AO2 SLP055 T00780050=
202412270053 METAR KBLI 270053Z 18005KT 10SM SCT120 08/05 A2966 RMK AO2 SLP051 T00830050=
202412262353 METAR KBLI 262353Z 19004KT 10SM CLR 09/06 A2964 RMK AO2 SLP045 60007 T00940056 10094 20061 51022=
202412262253 METAR KBLI 262253Z 18006KT 10SM FEW039 BKN047 09/07 A2962 RMK AO2 SLP038 T00940067=
202412262153 METAR KBLI 262153Z 18008KT 10SM SCT015 BKN070 08/07 A2960 RMK AO2 SLP031 T00830067=
202412262053 METAR KBLI 262053Z 18006KT 10SM SCT010 BKN020 OVC031 07/06 A2958 RMK AO2 RAE15 SLP024 P0000 60007 T00670061 51070=
202412262002 SPECI KBLI 262002Z 18004KT 10SM -RA SCT010 BKN020 OVC031 06/06 A2954 RMK AO2 P0000 T00610061=
202412261955 SPECI KBLI 261955Z 18004KT 9SM -RA SCT009 BKN013 OVC033 06/06 A2954 RMK AO2 P0000 T00610061=
202412261953 METAR KBLI 261953Z 18004KT 9SM -RA SCT010 BKN020 OVC031 06/06 A2953 RMK AO2 SLP010 P0002 T00610061=
202412261853 METAR KBLI 261853Z 00000KT 4SM -RA BR SCT010 BKN016 OVC021 06/06 A2948 RMK AO2 SLP991 P0005 T00610056=
202412261817 SPECI KBLI 261817Z VRB06G15KT 4SM -RA BR SCT010 BKN016 OVC021 07/06 A2943 RMK AO2 PRESRR P0004 T00670061=
202412261805 SPECI KBLI 261805Z 22008G22KT 180V290 2 1/2SM R16/6000VP6000FT -RA BR FEW009 BKN021 OVC026 07/07 A2941 RMK AO2 PRESRR P0003 T00720067=
202412261753 METAR KBLI 261753Z 18011G22KT 5SM -RA BR FEW015 BKN023 OVC029 07/06 A2937 RMK AO2 SLP953 P0004 60005 T00720061 10100 20061 53054=
202412261724 SPECI KBLI 261724Z 17013G21KT 10SM -RA BKN029 OVC037 07/06 A2934 RMK AO2 P0000 T00720056=
202412261653 METAR KBLI 261653Z 19012G21KT 10SM -RA FEW034 OVC043 07/06 A2931 RMK AO2 RAB05 PRESRR SLP933 P0001 T00720056=
202412261553 METAR KBLI 261553Z 17009G21KT 10SM FEW042 BKN050 OVC075 09/04 A2924 RMK AO2 SLP908 T00940044=
202412261453 METAR KBLI 261453Z 13009KT 10SM BKN045 BKN060 OVC080 08/06 A2921 RMK AO2 SLP898 T00830056 53005=
202412261353 METAR KBLI 261353Z AUTO 01005KT 10SM OVC039 07/06 A2918 RMK AO2 SLP889 T00670056=
202412261253 METAR KBLI 261253Z AUTO 14015G22KT 10SM FEW035 BKN044 OVC070 10/05 A2917 RMK AO2 SLP885 T01000050=
202412261153 METAR KBLI 261153Z AUTO VRB04KT 10SM OVC039 08/06 A2919 RMK AO2 RAB1056E10 SLP894 P0000 60020 7//// T00780056 10094 20044 55028=
202412261053 METAR KBLI 261053Z AUTO 11009KT 10SM OVC041 07/06 A2919 RMK AO2 RAE0957 SLP893 P0000 T00720056=
202412260953 METAR KBLI 260953Z AUTO 06007KT 10SM -RA OVC044 06/06 A2922 RMK AO2 SLP902 P0008 T00560056=
202412260853 METAR KBLI 260853Z AUTO 03008KT 8SM -RA OVC042 05/05 A2928 RMK AO2 SLP922 P0006 60012 T00500050 56056=
202412260753 METAR KBLI 260753Z AUTO 04009KT 10SM -RA OVC046 05/05 A2932 RMK AO2 PRESFR SLP938 P0001 T00500050 400940044=
202412260653 METAR KBLI 260653Z AUTO 04009KT 10SM -RA OVC042 05/05 A2939 RMK AO2 SLP959 P0005 T00500050=
202412260553 METAR KBLI 260553Z 03009KT 9SM -RA SCT037 OVC044 05/05 A2944 RMK AO2 PRESFR SLP978 P0004 60005 T00500050 10094 20050 58044=
202412260453 METAR KBLI 260453Z 02007KT 10SM -RA OVC034 06/05 A2950 RMK AO2 RAB24 SLP996 P0001 T00560050=
202412260353 METAR KBLI 260353Z 15009G22KT 10SM OVC034 09/04 A2954 RMK AO2 RAB37E46 SLP011 P0000 T00890039=
202412260253 METAR KBLI 260253Z 13010G24KT 10SM OVC038 09/03 A2957 RMK AO2 SLP022 T00890033 58019 $=
202412260153 METAR KBLI 260153Z 13011G20KT 10SM BKN036 BKN044 OVC070 08/03 A2961 RMK AO2 PK WND 16031/0112 SLP034 T00830033 $=
202412260053 METAR KBLI 260053Z 15018G29KT 10SM BKN038 OVC075 08/03 A2963 RMK AO2 PK WND 16036/0019 SLP043 T00830028 $=
202412252353 METAR KBLI 252353Z 16018G34KT 10SM SCT080 OVC095 08/03 A2963 RMK AO2 PK WND 15054/2335 RAB00E14 SLP041 P0000 6//// T00780028 10078 20067 56029 $=
202412252253 METAR KBLI 252253Z 15011G25KT 10SM FEW029 BKN075 OVC090 07/03 A2966 RMK AO2 PK WND 15033/2236 SLP051 T00720033 $=
202412252153 METAR KBLI 252153Z 10SM 07/04 A2967 RMK AO2 PK WND 16030/2141 RAE51 SLP056 P0002 T00670039 $=
202412252053 METAR KBLI 252053Z 16018G33KT 6SM -RA OVC033 07/04 A2972 RMK AO2 PK WND 15034/2025 RAB1958 SLP071 P0001 60002 T00670039 56045=
202412251953 METAR KBLI 251953Z 16019G31KT 10SM FEW031 SCT040 OVC070 07/03 A2976 RMK AO2 PK WND 15037/1919 RAB31E42 SLP085 P0000 T00720033=
202412251853 METAR KBLI 251853Z 15021G31KT 10SM OVC080 07/03 A2980 RMK AO2 PK WND 15034/1839 RAE33 SLP099 P0001 T00670033=
202412251753 METAR KBLI 251753Z 15017G25KT 10SM -RA SCT035 BKN050 OVC070 07/04 A2985 RMK AO2 PK WND 15035/1715 SLP116 P0000 60001 T00670039 10083 20067 56018=
202412251653 METAR KBLI 251653Z 15019G28KT 10SM -RA FEW035 OVC048 07/03 A2986 RMK AO2 PK WND 16028/1638 RAB24 SLP120 P0001 T00720033=
202412251553 METAR KBLI 251553Z 16012G21KT 10SM BKN090 08/02 A2988 RMK AO2 PK WND 15028/1516 SLP126 T00830022=
202412251453 METAR KBLI 251453Z 17014G27KT 10SM CLR 08/02 A2990 RMK AO2 PK WND 15027/1447 SLP134 T00830022 56024=
202412251353 METAR KBLI 251353Z AUTO 16013G27KT 10SM SCT095 08/03 A2993 RMK AO2 PK WND 16027/1351 SLP142 T00830028=
202412251253 METAR KBLI 251253Z AUTO 17015G25KT 10SM FEW031 08/03 A2995 RMK AO2 PK WND 15026/1236 SLP150 T00780028=
202412251153 METAR KBLI 251153Z AUTO 17010G18KT 10SM FEW100 08/03 A2998 RMK AO2 SLP159 70002 T00780033 10078 20072 58016=
202412251102 SPECI KBLI 251102Z AUTO 17013G19KT 10SM SCT026 BKN100 08/04 A3000 RMK AO2 T00780039=
202412251053 METAR KBLI 251053Z AUTO 17010G19KT 10SM BKN026 08/04 A3000 RMK AO2 SLP168 T00780039=
202412250953 METAR KBLI 250953Z AUTO 15008KT 10SM OVC023 07/04 A3001 RMK AO2 SLP171 T00720044=
202412250853 METAR KBLI 250853Z AUTO 16012KT 10SM BKN025 07/04 A3003 RMK AO2 SLP175 T00720044 50004=
202412250839 SPECI KBLI 250839Z AUTO 16010KT 10SM BKN025 08/04 A3004 RMK AO2 T00780044=
202412250753 METAR KBLI 250753Z AUTO 17009KT 10SM FEW026 08/05 A3005 RMK AO2 SLP184 T00780050 401330072=
202412250653 METAR KBLI 250653Z AUTO 17008KT 10SM OVC030 08/05 A3003 RMK AO2 SLP178 T00780050=
202412250633 SPECI KBLI 250633Z AUTO 17007KT 10SM OVC029 08/05 A3003 RMK AO2 T00780050=
202412250553 METAR KBLI 250553Z 17009KT 10SM SCT028 OVC038 08/06 A3001 RMK AO2 SLP171 T00780061 10094 20072 53011=
202412250453 METAR KBLI 250453Z 17010G17KT 10SM CLR 07/06 A2999 RMK AO2 SLP165 T00720056=
202412250353 METAR KBLI 250353Z 18006KT 10SM BKN041 BKN050 OVC085 08/05 A2999 RMK AO2 SLP163 T00780050=
202412250253 METAR KBLI 250253Z VRB04KT 10SM FEW055 OVC090 08/04 A2998 RMK AO2 SLP160 T00830039 51019=
202412250153 METAR KBLI 250153Z 18005KT 10SM BKN065 BKN090 09/05 A2996 RMK AO2 SLP154 T00890050=
202412250053 METAR KBLI 250053Z 18005KT 10SM BKN065 OVC075 09/04 A2995 RMK AO2 SLP148 T00890044=
202412242353 METAR KBLI 242353Z 20003KT 10SM CLR 09/03 A2992 RMK AO2 SLP141 T00940028 10111 20083 51017=
202412242253 METAR KBLI 242253Z 25007KT 200V300 10SM SCT060 11/02 A2991 RMK AO2 SLP134 T01060017=
202412242153 METAR KBLI 242153Z VRB05G15KT 10SM CLR 11/02 A2989 RMK AO2 SLP129 T01110017=
202412242053 METAR KBLI 242053Z 18005KT 10SM CLR 11/04 A2987 RMK AO2 SLP123 T01060044 50006=
202412241953 METAR KBLI 241953Z VRB05KT 10SM CLR 11/06 A2988 RMK AO2 SLP124 T01060061=
202412241853 METAR KBLI 241853Z 18007KT 10SM SCT020 08/08 A2986 RMK AO2 SLP118 T00830078=
202412241807 SPECI KBLI 241807Z 21005KT 10SM FEW015 SCT030 BKN050 09/07 A2986 RMK AO2 T00940072=
202412241753 METAR KBLI 241753Z 20005KT 10SM BKN028 BKN048 09/07 A2985 RMK AO2 RAE26 SLP117 P0000 60002 T00940072 10100 20089 53037=
202412241719 SPECI KBLI 241719Z 19007G15KT 140V240 8SM -RA SCT021 BKN026 OVC041 09/08 A2983 RMK AO2 P0000 T00940078=
202412241653 METAR KBLI 241653Z 20006KT 5SM -RA BR SCT031 BKN039 OVC050 09/07 A2982 RMK AO2 RAB33 SLP104 P0002 T00940072=
202412241553 METAR KBLI 241553Z 17009G17KT 10SM FEW015 SCT025 BKN035 10/07 A2978 RMK AO2 SLP091 T01000067=
202412241453 METAR KBLI 241453Z 17009G18KT 10SM SCT020 BKN030 OVC040 10/07 A2975 RMK AO2 SLP081 T01000072 53011=
202412241413 SPECI KBLI 241413Z AUTO 17008KT 10SM BKN021 10/08 A2973 RMK AO2 T01000083=
202412241353 METAR KBLI 241353Z AUTO 17009KT 10SM FEW018 09/08 A2971 RMK AO2 SLP068 T00940083=
202412241253 METAR KBLI 241253Z AUTO 18007KT 10SM BKN030 09/08 A2973 RMK AO2 SLP075 T00940083=
202412241242 SPECI KBLI 241242Z AUTO 17005KT 10SM FEW021 BKN030 09/08 A2973 RMK AO2 T00940083=
202412241153 METAR KBLI 241153Z AUTO 17009G16KT 10SM BKN023 OVC031 09/08 A2971 RMK AO2 RAB1055E32 SLP070 P0001 60001 70001 T00940083 10133 20089 51044=
202412241053 METAR KBLI 241053Z AUTO 20008G19KT 10SM OVC028 10/07 A2969 RMK AO2 PK WND 20030/1003 SLP061 T01000072=
202412240953 METAR KBLI 240953Z AUTO 19010G28KT 170V230 10SM BKN039 BKN110 12/06 A2961 RMK AO2 PK WND 17040/0935 PRESRR SLP035 T01170061=
202412240853 METAR KBLI 240853Z AUTO 17008KT 10SM OVC048 13/06 A2958 RMK AO2 SLP024 60000 T01330061 56015=
202412240753 METAR KBLI 240753Z AUTO 18008G17KT 10SM OVC050 12/06 A2959 RMK AO2 SLP025 T01170061 401390072=
202412240653 METAR KBLI 240653Z AUTO 11007KT 10SM BKN065 OVC090 12/06 A2961 RMK AO2 RAE26 SLP032 P0000 T01220056=
202412240553 METAR KBLI 240553Z 14015G25KT 10SM -RA BKN060 OVC080 13/06 A2963 RMK AO2 PK WND 14033/0535 RAB39 SLP039 P0000 60000 T01280056 10139 20078 56046=
202412240453 METAR KBLI 240453Z 03003KT 10SM BKN090 OVC100 10/03 A2965 RMK AO2 SLP048 T01000033=
202412240353 METAR KBLI 240353Z 05008KT 10SM SCT110 09/04 A2966 RMK AO2 SLP052 T00940039=
202412240253 METAR KBLI 240253Z 06007KT 10SM BKN095 OVC110 09/05 A2976 RMK AO2 PRESFR SLP086 T00890050 56059=
202412240153 METAR KBLI 240153Z 05007KT 10SM FEW060 09/05 A2983 RMK AO2 SLP108 T00890050=
202412240053 METAR KBLI 240053Z 04008KT 10SM CLR 08/06 A2986 RMK AO2 PRESFR SLP120 T00830061=
202412232353 METAR KBLI 232353Z 03006KT 10SM CLR 09/07 A2994 RMK AO2 PRESFR SLP146 T00890067 10117 20083 58045=
202412232253 METAR KBLI 232253Z 05006KT 10SM CLR 10/07 A2999 RMK AO2 SLP163 T01000067=
202412232153 METAR KBLI 232153Z 04006KT 10SM CLR 11/07 A3005 RMK AO2 SLP181 T01060072=
202412232053 METAR KBLI 232053Z 05006KT 10SM FEW033 11/07 A3007 RMK AO2 SLP190 T01060072 58011=
202412231953 METAR KBLI 231953Z 06003KT 10SM SCT039 12/07 A3009 RMK AO2 SLP198 T01170067=
202412231853 METAR KBLI 231853Z 15005KT 10SM SCT034 11/07 A3011 RMK AO2 SLP202 T01110067=
202412231753 METAR KBLI 231753Z 13006KT 10SM BKN027 09/07 A3011 RMK AO2 SLP202 T00940072 10094 20072 50002=
202412231736 SPECI KBLI 231736Z 12004KT 10SM BKN026 BKN031 09/07 A3009 RMK AO2 T00890072=
202412231653 METAR KBLI 231653Z 14009KT 10SM BKN040 09/07 A3011 RMK AO2 SLP204 T00890072=
202412231553 METAR KBLI 231553Z 20006KT 10SM BKN055 08/07 A3012 RMK AO2 SLP206 T00830072=
202412231453 METAR KBLI 231453Z 18005KT 10SM CLR 08/06 A3010 RMK AO2 SLP200 T00830061 53017=
202412231353 METAR KBLI 231353Z AUTO 18005KT 10SM BKN060 09/07 A3008 RMK AO2 SLP193 T00890067=
202412231253 METAR KBLI 231253Z AUTO 17006KT 10SM CLR 09/07 A3006 RMK AO2 SLP185 T00890067=
202412231153 METAR KBLI 231153Z AUTO 17006KT 10SM CLR 08/07 A3005 RMK AO2 SLP183 60014 70020 T00830072 10106 20083 53034=
202412231053 METAR KBLI 231053Z AUTO 17009KT 10SM CLR 09/07 A2999 RMK AO2 RAE0956 SLP162 P0000 T00940072=
202412230953 METAR KBLI 230953Z AUTO 18008G18KT 8SM -RA FEW009 BKN049 OVC085 09/08 A2995 RMK AO2 SLP150 P0007 T00940083=
202412230950 SPECI KBLI 230950Z AUTO 18009G18KT 8SM -RA SCT009 BKN049 OVC070 09/08 A2995 RMK AO2 P0007=
202412230938 SPECI KBLI 230938Z AUTO 18010G16KT 3SM -RA BR FEW006 BKN010 OVC049 09/09 A2995 RMK AO2 P0006 T00890089=
202412230932 SPECI KBLI 230932Z AUTO 19008KT 2 1/2SM RA BR BKN010 OVC016 09/09 A2996 RMK AO2 P0006 T00890089=
202412230903 SPECI KBLI 230903Z AUTO 22005KT 6SM -RA BR OVC014 09/09 A2994 RMK AO2 P0000 T00940089=
202412230853 METAR KBLI 230853Z AUTO VRB03KT 2SM RA BR OVC014 09/09 A2993 RMK AO2 SLP144 P0007 60007 T00940089 53035=
202412230848 SPECI KBLI 230848Z AUTO VRB04KT 2SM RA BR BKN014 OVC020 09/09 A2993 RMK AO2 P0006=
202412230753 METAR KBLI 230753Z AUTO 18011G20KT 10SM -RA OVC017 11/09 A2989 RMK AO2 RAB00 SLP129 P0000 T01060089 401220061=
202412230653 METAR KBLI 230653Z AUTO 17018G31KT 10SM BKN016 OVC060 11/09 A2986 RMK AO2 PK WND 17031/0646 RAE0559 SLP119 P0000 T01060089=
202412230641 SPECI KBLI 230641Z AUTO 17015G26KT 10SM BKN017 BKN060 OVC080 11/08 A2986 RMK AO2 PK WND 17029/0602 RAE0559 P0000 T01060083=
202412230553 METAR KBLI 230553Z 17012G23KT 10SM -RA BKN065 OVC100 11/09 A2983 RMK AO2 PK WND 19029/0509 SLP109 P0002 60003 T01060089 10122 20106 53026=
202412230453 METAR KBLI 230453Z 19018G31KT 6SM -RA BR SCT025 BKN035 OVC055 11/09 A2979 RMK AO2 PK WND 20031/0451 RAB32 SLP095 P0001 T01110089=
202412230353 METAR KBLI 230353Z 17017G28KT 10SM FEW033 OVC075 12/07 A2975 RMK AO2 PK WND 15030/0333 SLP081 T01220072=
202412230253 METAR KBLI 230253Z 15016G28KT 10SM FEW030 SCT050 BKN080 12/07 A2975 RMK AO2 PK WND 15037/0205 SLP082 T01220072 55001=
202412230153 METAR KBLI 230153Z 16014G26KT 10SM FEW040 SCT060 BKN080 12/07 A2975 RMK AO2 PK WND 13028/0137 SLP080 T01220067=
202412230053 METAR KBLI 230053Z 15014G25KT 10SM BKN040 BKN075 OVC090 12/07 A2975 RMK AO2 PK WND 13028/0037 SLP081 T01170067=
202412222353 METAR KBLI 222353Z 09004KT 10SM OVC043 12/06 A2975 RMK AO2 SLP082 60003 T01170061 10117 20072 56018=
202412222326 SPECI KBLI 222326Z VRB05KT 10SM SCT040 BKN055 11/06 A2975 RMK AO2 T01060061=
202412222253 METAR KBLI 222253Z 05003KT 10SM SCT045 BKN060 OVC080 08/06 A2976 RMK AO2 RAB11E44 SLP087 P0001 T00780061=
202412222219 SPECI KBLI 222219Z 05008KT 10SM -RA SCT030 BKN055 OVC080 08/06 A2977 RMK AO2 RAB11 P0000 T00780056=
202412222153 METAR KBLI 222153Z 07005KT 10SM SCT045 OVC055 08/06 A2977 RMK AO2 SLP089 T00830061=
202412222053 METAR KBLI 222053Z 08006KT 10SM BKN049 BKN070 OVC095 09/06 A2981 RMK AO2 RAE01B32E52 SLP102 P0000 60002 T00940061 58030=
202412221953 METAR KBLI 221953Z 13010KT 10SM -RA BKN048 BKN065 OVC080 09/06 A2986 RMK AO2 RAB1856 SLP119 P0002 T00940056=
202412221853 METAR KBLI 221853Z 06006KT 10SM BKN055 OVC080 08/05 A2988 RMK AO2 RAB06E17 SLP127 P0000 T00780050=
202412221753 METAR KBLI 221753Z 09007KT 10SM BKN065 OVC075 08/04 A2990 RMK AO2 SLP133 T00780044 10094 20061 56019=
202412221653 METAR KBLI 221653Z 05007KT 10SM OVC100 07/04 A2992 RMK AO2 SLP138 T00720044=
202412221553 METAR KBLI 221553Z 06004KT 10SM FEW100 07/04 A2992 RMK AO2 SLP140 T00720044=
202412221453 METAR KBLI 221453Z 03005KT 10SM BKN047 BKN120 07/05 A2995 RMK AO2 SLP151 T00670050 58023=
202412221353 METAR KBLI 221353Z AUTO 09006KT 10SM SCT036 08/05 A2998 RMK AO2 SLP159 T00780050=
202412221253 METAR KBLI 221253Z AUTO 13006KT 10SM BKN032 BKN045 09/05 A3001 RMK AO2 SLP169 T00890050=
202412221153 METAR KBLI 221153Z AUTO 13008KT 10SM OVC032 09/06 A3002 RMK AO2 SLP175 70009 T00890056 10089 20061 58004=
202412221053 METAR KBLI 221053Z AUTO 10005KT 10SM BKN030 OVC037 08/06 A3004 RMK AO2 SLP180 T00830056=
202412220953 METAR KBLI 220953Z AUTO 11005KT 10SM OVC035 09/06 A3003 RMK AO2 SLP178 T00890056=
202412220853 METAR KBLI 220853Z AUTO 14008KT 10SM SCT030 BKN041 08/06 A3004 RMK AO2 SLP178 T00830056 50000=
202412220753 METAR KBLI 220753Z AUTO 12005KT 10SM CLR 07/06 A3003 RMK AO2 SLP179 T00670056 401330061=
202412220653 METAR KBLI 220653Z AUTO 14007KT 10SM SCT049 08/06 A3005 RMK AO2 SLP182 T00780061=
202412220553 METAR KBLI 220553Z 13007KT 10SM FEW040 08/07 A3004 RMK AO2 SLP178 T00780067 10100 20061 51021=
202412220453 METAR KBLI 220453Z 15003KT 10SM FEW015 SCT050 06/06 A3002 RMK AO2 SLP174 T00610061=
202412220353 METAR KBLI 220353Z 00000KT 10SM FEW015 FEW030 SCT060 07/06 A2999 RMK AO2 SLP164 T00670061=
202412220253 METAR KBLI 220253Z 18005KT 10SM FEW015 FEW030 SCT080 07/07 A2997 RMK AO2 SLP157 T00670067 51017=
202412220153 METAR KBLI 220153Z 17004KT 10SM FEW055 08/07 A2996 RMK AO2 SLP152 T00830072=
202412220053 METAR KBLI 220053Z 18006KT 10SM FEW034 BKN060 09/08 A2994 RMK AO2 SLP146 T00940078=
202412212353 METAR KBLI 212353Z 17009G17KT 10SM SCT024 BKN033 OVC050 10/07 A2992 RMK AO2 SLP140 60009 T01000072 10133 20100 53043=
202412212305 SPECI KBLI 212305Z 17010G17KT 10SM FEW015 BKN022 BKN030 10/08 A2989 RMK AO2 T01000078=
202412212303 SPECI KBLI 212303Z 18008G19KT 10SM SCT022 BKN031 BKN038 10/08 A2989 RMK AO2 T01000078=
202412212253 METAR KBLI 212253Z 17013G23KT 10SM BKN020 BKN031 OVC050 10/08 A2988 RMK AO2 RAE26 SLP127 P0003 T01000078=
202412212153 METAR KBLI 212153Z 18012G26KT 5SM -RA BR FEW015 BKN025 OVC045 10/08 A2983 RMK AO2 PK WND 18031/2122 SLP111 P0004 T01000083=
202412212133 SPECI KBLI 212133Z 18017G31KT 6SM -RA BKN025 OVC060 11/08 A2982 RMK AO2 PK WND 18031/2122 P0002 T01060078=
202412212053 METAR KBLI 212053Z 17015G29KT 10SM -RA OVC065 11/08 A2980 RMK AO2 PK WND 17032/2016 SLP098 P0000 60002 T01110078 51017=
202412211953 METAR KBLI 211953Z 15014G24KT 7SM -RA FEW025 OVC070 11/09 A2978 RMK AO2 PK WND 15031/1938 SLP090 P0002 T01110089=
202412211853 METAR KBLI 211853Z 16016G29KT 8SM -RA OVC055 12/08 A2978 RMK AO2 PK WND 17029/1847 RAB16 SLP092 P0000 T01220078=
202412211753 METAR KBLI 211753Z 14013G17KT 10SM BKN075 OVC090 13/05 A2975 RMK AO2 RAB19E36 SLP080 P0000 60000 T01280050 10128 20083 53019=
202412211653 METAR KBLI 211653Z 06006KT 10SM OVC100 08/07 A2971 RMK AO2 SLP068 T00830067=
202412211553 METAR KBLI 211553Z 22004KT 10SM OVC095 09/07 A2970 RMK AO2 PRESRR SLP066 T00890067=
202412211453 METAR KBLI 211453Z 21004KT 10SM BKN110 10/06 A2969 RMK AO2 SLP062 T01000061 55013=
202412211353 METAR KBLI 211353Z AUTO 03010G19KT 10SM CLR 10/06 A2966 RMK AO2 SLP053 T01000061=
202412211253 METAR KBLI 211253Z AUTO 03008KT 10SM CLR 10/06 A2969 RMK AO2 PRESFR SLP063 T01000061=
202412211153 METAR KBLI 211153Z AUTO 03013G21KT 10SM CLR 10/07 A2973 RMK AO2 SLP074 70005 T01000067 10100 20067 58053=
202412211053 METAR KBLI 211053Z AUTO 03007KT 10SM CLR 08/06 A2981 RMK AO2 SLP103 T00830061=
202412210953 METAR KBLI 210953Z AUTO 04009KT 10SM CLR 08/07 A2985 RMK AO2 SLP115 T00830067=
202412210853 METAR KBLI 210853Z AUTO 03010KT 10SM CLR 08/07 A2988 RMK AO2 SLP128 T00780067 58030=
202412210753 METAR KBLI 210753Z AUTO 03008KT 10SM CLR 07/07 A2993 RMK AO2 SLP145 T00720067 401220061=
202412210653 METAR KBLI 210653Z AUTO 03006KT 10SM CLR 07/07 A2996 RMK AO2 SLP153 T00720067=
202412210553 METAR KBLI 210553Z 02004KT 10SM CLR 07/06 A2997 RMK AO2 SLP158 T00670061 10111 20061 58010=
202412210453 METAR KBLI 210453Z 03005KT 10SM CLR 07/06 A2999 RMK AO2 SLP162 T00670061=
202412210353 METAR KBLI 210353Z 02007KT 10SM CLR 07/06 A3001 RMK AO2 SLP171 T00670061=
202412210253 METAR KBLI 210253Z 01004KT 10SM CLR 07/06 A3000 RMK AO2 SLP168 T00720061 55001=
202412210153 METAR KBLI 210153Z 00000KT 10SM CLR 09/07 A2998 RMK AO2 SLP159 T00890067=
202412210053 METAR KBLI 210053Z 00000KT 10SM SCT085 08/08 A3000 RMK AO2 SLP167 T00830078=
202412202353 METAR KBLI 202353Z VRB03KT 10SM BKN090 OVC110 09/08 A3001 RMK AO2 RAE2254 SLP169 P0000 60005 T00890083 10100 20083 51024=
202412202253 METAR KBLI 202253Z 03003KT 10SM -RA SCT060 BKN070 OVC090 08/08 A3000 RMK AO2 SLP168 P0005 T00830083=
202412202153 METAR KBLI 202153Z 14006KT 10SM -RA FEW060 BKN085 OVC110 09/08 A2999 RMK AO2 RAB43 SLP163 P0000 T00890078=
202412202053 METAR KBLI 202053Z 03008KT 10SM BKN110 08/07 A2993 RMK AO2 SLP144 60000 T00830072 57014=
202412201953 METAR KBLI 201953Z 02007KT 10SM BKN075 BKN100 OVC120 09/07 A2995 RMK AO2 SLP148 T00890072=
202412201853 METAR KBLI 201853Z 04005KT 10SM BKN080 OVC095 09/08 A2996 RMK AO2 RAE47 SLP153 P0000 T00940083=
202412201753 METAR KBLI 201753Z 03008KT 10SM -RA FEW065 OVC090 09/07 A2998 RMK AO2 RAB15 SLP157 P0000 60000 T00890072 10100 20072 55005=
202412201653 METAR KBLI 201653Z 04009KT 10SM BKN055 BKN070 OVC100 09/07 A2997 RMK AO2 SLP156 T00890067=
202412201553 METAR KBLI 201553Z 03007KT 10SM OVC050 08/07 A2999 RMK AO2 SLP162 T00830067=
202412201453 METAR KBLI 201453Z 03007KT 10SM CLR 08/07 A2999 RMK AO2 SLP163 T00780067 56013=
202412201353 METAR KBLI 201353Z AUTO 03007KT 10SM CLR 08/07 A3001 RMK AO2 SLP168 T00780067=
202412201253 METAR KBLI 201253Z AUTO 02005KT 10SM CLR 07/07 A3001 RMK AO2 SLP171 T00720067=
202412201153 METAR KBLI 201153Z AUTO 03004KT 10SM FEW040 08/07 A3003 RMK AO2 SLP177 70013 T00780067 10128 20078 50003=
202412201053 METAR KBLI 201053Z AUTO 04009KT 10SM CLR 09/08 A3004 RMK AO2 SLP179 T00890078=
202412200953 METAR KBLI 200953Z AUTO 00000KT 10SM CLR 09/08 A3003 RMK AO2 SLP176 T00890078=
202412200915 SPECI KBLI 200915Z AUTO 18005KT 10SM SCT026 12/09 A3001 RMK AO2 T01170089=
202412200853 METAR KBLI 200853Z AUTO 19008KT 10SM BKN024 12/09 A3002 RMK AO2 SLP173 T01170089 51009=
202412200753 METAR KBLI 200753Z AUTO 19011G24KT 10SM OVC026 12/09 A3001 RMK AO2 SLP170 T01220089 401330028=
202412200653 METAR KBLI 200653Z AUTO 20007G15KT 10SM OVC027 12/09 A3001 RMK AO2 SLP170 T01220089=
202412200553 METAR KBLI 200553Z 18010G21KT 10SM OVC020 12/09 A2999 RMK AO2 PK WND 17032/0504 SLP164 60002 T01220094 10133 20078 51024=
202412200453 METAR KBLI 200453Z 17013G23KT 10SM OVC019 12/09 A2999 RMK AO2 PK WND 16035/0421 SLP162 T01220094=
202412200412 SPECI KBLI 200412Z 17020G34KT 10SM BKN024 BKN070 BKN090 13/09 A2995 RMK AO2 PK WND 16034/0410 T01280094=
202412200353 METAR KBLI 200353Z 17020G35KT 10SM FEW026 BKN075 BKN085 13/09 A2994 RMK AO2 PK WND 17035/0345 SLP147 T01280089=
202412200253 METAR KBLI 200253Z 16015G26KT 10SM FEW024 SCT055 OVC075 12/09 A2992 RMK AO2 PK WND 18043/0216 RAE45 SLP140 P0001 60002 T01220094 51012=
202412200153 METAR KBLI 200153Z 17023G38KT 10SM -RA OVC060 12/09 A2991 RMK AO2 PK WND 18038/0133 SLP138 P0001 T01220094=
202412200053 METAR KBLI 200053Z VRB03KT 10SM -RA SCT043 BKN065 OVC075 08/06 A2990 RMK AO2 RAB00 SLP133 P0000 T00830056=
202412192353 METAR KBLI 192353Z 31003KT 10SM BKN110 08/06 A2989 RMK AO2 SLP128 T00830056 10089 20078 56028=
202412192253 METAR KBLI 192253Z 02005KT 10SM FEW020 SCT030 OVC110 08/05 A2989 RMK AO2 SLP130 T00830050=
202412192153 METAR KBLI 192153Z 03005KT 10SM SCT020 OVC047 09/05 A2993 RMK AO2 SLP141 T00890050=
202412192053 METAR KBLI 192053Z 05009KT 10SM SCT045 BKN055 09/05 A2997 RMK AO2 SLP157 T00890050 58031=
202412191953 METAR KBLI 191953Z 05006KT 10SM BKN048 BKN085 08/05 A3001 RMK AO2 SLP170 T00830050=
202412191853 METAR KBLI 191853Z 33003KT 10SM OVC048 08/06 A3006 RMK AO2 SLP187 T00780061=
202412191753 METAR KBLI 191753Z 07004KT 10SM BKN055 OVC070 07/04 A3006 RMK AO2 RAB1655E04B14E31 SLP190 P0000 60011 T00720044 10072 20056 56014=
202412191653 METAR KBLI 191653Z 04010KT 10SM OVC065 07/04 A3007 RMK AO2 RAE04 SLP189 P0000 T00720044=
202412191553 METAR KBLI 191553Z 04009KT 10SM -RA OVC070 06/04 A3008 RMK AO2 SLP194 P0001 T00560044=
202412191153 METAR KBLI 191153Z AUTO 03007KT 10SM BKN045 OVC055 06/03 A3019 RMK AO2 SLP231 70030 T00610033 10061 20022 58013=
202412191053 METAR KBLI 191053Z AUTO 04008KT 10SM FEW039 SCT055 SCT120 06/03 A3020 RMK AO2 SLP236 T00560033=
202412190953 METAR KBLI 190953Z AUTO 03006KT 10SM BKN039 05/03 A3022 RMK AO2 SLP242 T00500033=
202412190853 METAR KBLI 190853Z AUTO 01004KT 10SM CLR 04/03 A3022 RMK AO2 SLP243 T00390028 58010=
202412190753 METAR KBLI 190753Z AUTO 06004KT 10SM CLR 02/02 A3024 RMK AO2 SLP248 T00220022 401330022=
202412190653 METAR KBLI 190653Z AUTO 35003KT 10SM CLR 03/03 A3025 RMK AO2 SLP250 T00280028=
202412190553 METAR KBLI 190553Z 00000KT 10SM CLR 03/03 A3025 RMK AO2 SLP253 T00330033 10094 20028 58001=
202412190453 METAR KBLI 190453Z 00000KT 10SM CLR 04/04 A3027 RMK AO2 SLP258 T00440039=
202412190353 METAR KBLI 190353Z 00000KT 10SM CLR 06/04 A3027 RMK AO2 SLP259 T00560044=
202412190253 METAR KBLI 190253Z 16004KT 10SM CLR 08/05 A3026 RMK AO2 SLP254 T00780050 53005=
202412190153 METAR KBLI 190153Z 16007KT 10SM BKN044 BKN055 09/06 A3025 RMK AO2 SLP252 T00940056=
202412190053 METAR KBLI 190053Z 16007KT 10SM BKN039 BKN055 09/06 A3024 RMK AO2 SLP250 T00890061=
202412182353 METAR KBLI 182353Z 10SM BKN024 BKN050 BKN060 09/07 A3024 RMK AO2 SLP248 60000 T00890072 10111 20089 53022=
202412182253 METAR KBLI 182253Z 20005KT 10SM SCT018 BKN024 OVC055 09/07 A3022 RMK AO2 RAB15E24 SLP241 P0000 T00940072=
202412182231 SPECI KBLI 182231Z 18005KT 10SM BKN022 BKN031 OVC039 09/07 A3022 RMK AO2 RAB15E24 P0000 T00940072=
202412182153 METAR KBLI 182153Z 18008KT 10SM BKN042 OVC055 09/07 A3019 RMK AO2 SLP231 T00940072=
202412182053 METAR KBLI 182053Z 18008KT 10SM FEW015 SCT040 10/06 A3018 RMK AO2 SLP226 T01000061 51034=
202412181953 METAR KBLI 181953Z 19007KT 10SM FEW020 09/07 A3015 RMK AO2 SLP216 T00940067=
202412181853 METAR KBLI 181853Z 19006KT 10SM FEW015 09/06 A3012 RMK AO2 SLP206 T00940061=
202412181753 METAR KBLI 181753Z 18007KT 10SM FEW012 BKN030 09/06 A3008 RMK AO2 SLP192 60030 T00890061 10122 20061 51068=
202412181653 METAR KBLI 181653Z 18003KT 10SM FEW010 SCT020 BKN030 08/07 A3002 RMK AO2 PRESRR SLP174 T00780072=
202412181553 METAR KBLI 181553Z 00000KT 10SM FEW010 FEW025 SCT060 07/07 A2995 RMK AO2 PRESRR SLP149 T00720067=
202412181453 METAR KBLI 181453Z VRB03KT 10SM FEW010 SCT030 BKN070 08/07 A2988 RMK AO2 SLP124 60030 T00830072 53093=
202412181441 SPECI KBLI 181441Z 00000KT 10SM FEW009 SCT013 BKN025 08/07 A2987 RMK AO2 T00830072=
202412181353 METAR KBLI 181353Z AUTO 27009G20KT 220V300 10SM OVC008 08/08 A2980 RMK AO2 RAE40 SLP098 P0011 T00780078=
202412181310 SPECI KBLI 181310Z AUTO 28009G18KT 3SM RA BR BKN006 BKN012 OVC020 08/08 A2971 RMK AO2 P0007 T00780078=
202412181256 SPECI KBLI 181256Z AUTO 29009G21KT 270V330 3SM RA BR FEW006 BKN010 OVC026 08/08 A2968 RMK AO2 PRESRR P0001 T00830078=
202412181253 METAR KBLI 181253Z AUTO 31013G21KT 2SM RA BR BKN010 BKN016 OVC028 09/08 A2967 RMK AO2 PK WND 16040/1156 PRESRR SLP054 P0019 T00890083=
202412181245 SPECI KBLI 181245Z AUTO 19010G27KT 2 1/2SM RA BR BKN012 BKN020 OVC027 10/10 A2962 RMK AO2 PK WND 16040/1156 P0015 T01000100=
202412181234 SPECI KBLI 181234Z AUTO 18017G34KT 3SM RA BR OVC012 11/10 A2961 RMK AO2 PK WND 16040/1156 P0008 T01060100=
202412181153 METAR KBLI 181153Z AUTO 18024G41KT 5SM -RA BR OVC019 12/10 A2960 RMK AO2 PK WND 16047/1139 RAB38 SLP031 P0000 60028 70120 T01220100 10133 20122 56023=
202412181053 METAR KBLI 181053Z AUTO 17020G39KT 10SM OVC022 13/10 A2962 RMK AO2 PK WND 19044/1019 SLP036 T01280100=
202412180953 METAR KBLI 180953Z AUTO 17022G38KT 10SM BKN021 OVC080 13/11 A2963 RMK AO2 PK WND 17042/0918 RAE37 SLP041 P0004 T01280106=
202412180853 METAR KBLI 180853Z AUTO 17020G45KT 3SM RA BR OVC060 12/11 A2967 RMK AO2 PK WND 16045/0849 SLP055 P0016 60024 T01220111 56011=
202412180753 METAR KBLI 180753Z AUTO 17024G39KT 5SM -RA BR SCT022 BKN055 OVC070 13/11 A2968 RMK AO2 PK WND 19042/0719 RAB0659 SLP058 P0008 T01280106 401280028=
202412180653 METAR KBLI 180653Z AUTO 16019G35KT 10SM BKN025 OVC070 13/09 A2970 RMK AO2 PK WND 18035/0646 RAB03E42 SLP065 P0000 T01280094=
202412180553 METAR KBLI 180553Z 16020G34KT 10SM BKN022 BKN055 OVC080 12/09 A2975 RMK AO2 PK WND 17034/0541 RAE39 SLP081 P0003 60065 T01220094 10122 20050 58029=
202412180453 METAR KBLI 180453Z 36007KT 3SM -RA BR OVC019 06/06 A2979 RMK AO2 SLP098 P0010 T00610061=
202412180353 METAR KBLI 180353Z 07006KT 4SM -RA BR OVC021 06/06 A2981 RMK AO2 SLP102 P0015 T00610061=
202412180253 METAR KBLI 180253Z 06008KT 3SM RA BR OVC023 06/06 A2983 RMK AO2 SLP111 P0015 60037 T00560056 58020=
202412180153 METAR KBLI 180153Z 04010KT 4SM RA BR OVC025 06/06 A2985 RMK AO2 SLP119 P0012 T00560056=
202412180053 METAR KBLI 180053Z 05009KT 4SM -RA BR OVC026 05/05 A2988 RMK AO2 SLP126 P0010 T00500050=
202412172353 METAR KBLI 172353Z 03009KT 3SM -RA BR OVC029 05/05 A2989 RMK AO2 SLP131 P0006 60027 T00500050 10072 20044 56023=
202412172253 METAR KBLI 172253Z 04008KT 7SM -RA OVC032 05/05 A2990 RMK AO2 SLP135 P0004 T00500050=
202412172153 METAR KBLI 172153Z 03007KT 7SM -RA OVC030 05/04 A2992 RMK AO2 SLP142 P0004 T00500044=
202412172053 METAR KBLI 172053Z 04009G17KT 5SM -RA BR BKN030 OVC060 05/04 A2996 RMK AO2 SLP155 P0007 60013 T00500039 58031=
202412171953 METAR KBLI 171953Z 04010KT 10SM -RA BKN030 OVC060 04/04 A3001 RMK AO2 SLP171 P0004 T00440044=
202412171853 METAR KBLI 171853Z 12008G17KT 9SM -RA SCT020 BKN030 OVC040 07/06 A3004 RMK AO2 SLP181 P0002 T00720056=
202412171829 SPECI KBLI 171829Z 11009KT 10SM -RA SCT020 BKN030 OVC040 06/04 A3005 RMK AO2 P0001 T00560044=
202412171753 METAR KBLI 171753Z 03006KT 10SM -RA BKN028 OVC035 04/03 A3005 RMK AO2 RAB36 SLP186 P0000 60000 T00440033 10050 20033 50002=
202412171653 METAR KBLI 171653Z 03005KT 10SM FEW025 OVC030 04/02 A3006 RMK AO2 SLP187 T00440022=
202412171553 METAR KBLI 171553Z 03005KT 10SM OVC031 04/02 A3006 RMK AO2 SLP188 T00440022=
202412171453 METAR KBLI 171453Z 05006KT 10SM OVC035 04/02 A3005 RMK AO2 SLP184 T00440022 50001=
202412171353 METAR KBLI 171353Z AUTO 04007KT 10SM OVC037 04/02 A3006 RMK AO2 SLP187 T00440022=
202412171253 METAR KBLI 171253Z AUTO 03004KT 10SM OVC041 04/02 A3005 RMK AO2 SLP186 T00390017=
202412171153 METAR KBLI 171153Z AUTO 05006KT 10SM OVC043 03/03 A3004 RMK AO2 SLP183 60000 70030 T00330028 10033 20022 50012=
202412171053 METAR KBLI 171053Z AUTO 02005KT 10SM OVC060 03/02 A3005 RMK AO2 SLP185 T00280017=
202412170953 METAR KBLI 170953Z AUTO 00000KT 10SM OVC070 03/02 A3004 RMK AO2 RAB03E13 SLP182 P0000 T00280017=
202412170853 METAR KBLI 170853Z AUTO 00000KT 10SM SCT008 BKN055 OVC090 03/02 A3001 RMK AO2 SLP171 T00330017 53020=
202412170753 METAR KBLI 170753Z AUTO 03004KT 10SM SCT055 BKN110 02/01 A2999 RMK AO2 SLP163 T00220006 400500022=
202412170653 METAR KBLI 170653Z AUTO 03009KT 10SM CLR 03/01 A2997 RMK AO2 SLP157 T00280006=
202412170553 METAR KBLI 170553Z 03008KT 10SM CLR 03/01 A2995 RMK AO2 SLP151 T00280011 10039 20028 53005=
202412170453 METAR KBLI 170453Z 03008KT 10SM OVC038 04/02 A2994 RMK AO2 SLP147 T00390017=
202412170353 METAR KBLI 170353Z 03007KT 10SM OVC039 04/02 A2994 RMK AO2 SLP147 T00390017=
202412170253 METAR KBLI 170253Z 03006KT 10SM OVC034 04/02 A2993 RMK AO2 SLP146 T00390017 51007=
202412170153 METAR KBLI 170153Z 04007KT 10SM OVC032 04/02 A2993 RMK AO2 SLP145 T00390017=
202412170053 METAR KBLI 170053Z 03008KT 10SM OVC030 03/02 A2992 RMK AO2 SLP142 T00330017=
202412162353 METAR KBLI 162353Z 03009KT 10SM OVC030 03/02 A2991 RMK AO2 SLP139 60001 T00330022 10039 20022 53005=
202412162253 METAR KBLI 162253Z 02006KT 10SM OVC030 04/03 A2990 RMK AO2 SLP134 T00390028=
202412162217 SPECI KBLI 162217Z 04006KT 10SM OVC030 04/03 A2989 RMK AO2 T00390028=
202412162153 METAR KBLI 162153Z 03009KT 9SM OVC027 04/03 A2989 RMK AO2 SLP131 T00390028=
202412162053 METAR KBLI 162053Z 04007KT 10SM OVC027 03/03 A2990 RMK AO2 SLP134 60001 T00330028 55003 $=
202412161953 METAR KBLI 161953Z 03010KT 10SM OVC027 03/03 A2990 RMK AO2 SLP133 T00330028 $=
202412161853 METAR KBLI 161853Z 02006KT 10SM OVC024 03/02 A2990 RMK AO2 RAE05 SLP135 P0001 T00280022 $=
202412161753 METAR KBLI 161753Z 04006KT 3SM -RA BR BKN020 02/02 A2991 RMK AO2 SLP136 P0004 60029 T00220022 10050 20022 53014 $=
202412161724 SPECI KBLI 161724Z 05008KT 2SM -RA BR BKN022 OVC027 02/02 A2990 RMK AO2 P0003 T00220022 $=
202412161653 METAR KBLI 161653Z 04009KT 6SM -RA BR FEW010 OVC025 02/02 A2989 RMK AO2 SLP131 P0007 T00220017 $=
202412161553 METAR KBLI 161553Z 04009KT 6SM -RA BR FEW010 OVC025 02/02 A2988 RMK AO2 SLP126 P0004 T00220017 $=
202412161453 METAR KBLI 161453Z 05012G20KT 8SM -RA FEW010 SCT020 OVC030 03/02 A2986 RMK AO2 SLP122 P0006 60014 T00280017 58005 $=
202412161446 SPECI KBLI 161446Z 04013KT 8SM -RA OVC030 03/02 A2987 RMK AO2 P0006 T00280017 $=
202412161353 METAR KBLI 161353Z 05009KT 6SM -RA BR OVC027 03/02 A2988 RMK AO2 SLP127 P0008 T00280017 $=
202412161308 SPECI KBLI 161308Z 07004KT 8SM -RA OVC027 04/M01 A2989 RMK AO2 P0001 T00391006 $=
202412161253 METAR KBLI 161253Z 08006KT 10SM -RA OVC035 04/M01 A2990 RMK AO2 RAB28 SLP134 P0000 T00391006 $=
202412161153 METAR KBLI 161153Z 04008G19KT 10SM OVC055 04/M02 A2988 RMK AO2 SLP127 70001 T00441017 10044 20022 58032 $=
202412161053 METAR KBLI 161053Z 05010KT 10SM FEW075 OVC090 04/M02 A2992 RMK AO2 SLP141 T00441017 $=
202412160953 METAR KBLI 160953Z 04010KT 10SM BKN090 BKN110 04/M01 A2993 RMK AO2 SLP145 T00391011 $=
202412160853 METAR KBLI 160853Z 04009KT 10SM BKN055 OVC090 04/M01 A2997 RMK AO2 SLP159 T00391006 58033 $=
202412160753 METAR KBLI 160753Z 04006KT 10SM OVC110 03/00 A3003 RMK AO2 SLP177 T00330000 400720000 $=
202412160653 METAR KBLI 160653Z 04008KT 10SM OVC100 03/01 A3004 RMK AO2 SLP183 T00280006 $=
202412160553 METAR KBLI 160553Z 03007KT 10SM OVC110 02/01 A3007 RMK AO2 SLP192 T00220011 10061 20000 $=
202412160453 METAR KBLI 160453Z 03007KT 10SM OVC110 02/01 A3009 RMK AO2 SLP200 T00170006 $=
202412160353 METAR KBLI 160353Z 05005KT 10SM CLR 02/00 A3012 RMK AO2 SLP208 T00170000 $=
202412160253 METAR KBLI 160253Z 06005KT 10SM FEW042 02/00 A3013 RMK AO2 SLP213 T00170000 58014 $=
202412160153 METAR KBLI 160153Z 06003KT 10SM FEW039 01/00 A3016 RMK AO2 SLP221 T00110000 $=
202412160053 METAR KBLI 160053Z 12005KT 10SM CLR 04/01 A3017 RMK AO2 SLP224 T00390006 $=
202412152353 METAR KBLI 152353Z 18004KT 10SM FEW025 06/02 A3017 RMK AO2 SLP227 T00610022 10072 20056 55003 $=
202412152253 METAR KBLI 152253Z 18006KT 10SM FEW025 07/02 A3016 RMK AO2 SLP220 T00670017 $=
202412152153 METAR KBLI 152153Z 18007KT 10SM CLR 07/02 A3017 RMK AO2 SLP225 T00670022 $=
202412152053 METAR KBLI 152053Z 18009G17KT 10SM FEW020 SCT065 06/03 A3019 RMK AO2 SLP230 T00610028 51003 $=
202412151953 METAR KBLI 151953Z 19008KT 10SM FEW015 SCT030 SCT070 07/03 A3018 RMK AO2 SLP229 T00670028 $=
202412151853 METAR KBLI 151853Z 19009KT 10SM FEW010 SCT020 BKN030 06/03 A3019 RMK AO2 SLP231 T00560033 $=
202412151753 METAR KBLI 151753Z 17009KT 10SM SCT023 BKN030 BKN033 06/03 A3018 RMK AO2 SLP227 60001 T00560033 10056 20050 51025 $=
202412151653 METAR KBLI 151653Z 19007G20KT 10SM FEW010 SCT020 BKN030 06/03 A3016 RMK AO2 SLP219 T00560033 $=
202412151553 METAR KBLI 151553Z 19009G19KT 10SM FEW010 SCT020 BKN040 06/03 A3012 RMK AO2 SLP209 T00560033 $=
202412151453 METAR KBLI 151453Z 18010G22KT 10SM SCT025 BKN050 06/03 A3010 RMK AO2 SLP202 60001 T00560033 53022 $=
202412151353 METAR KBLI 151353Z AUTO 19006G17KT 10SM FEW018 BKN027 BKN050 05/03 A3008 RMK AO2 RAE04 SLP192 P0000 T00500033 $=
202412151328 SPECI KBLI 151328Z AUTO 17011KT 10SM FEW022 BKN027 OVC075 05/03 A3006 RMK AO2 RAE04 P0000 T00500033 $=
202412151253 METAR KBLI 151253Z AUTO 18010G19KT 10SM -RA FEW023 BKN042 OVC080 05/04 A3005 RMK AO2 RAB15 SLP185 P0001 T00500039 $=
202412151153 METAR KBLI 151153Z AUTO 18006KT 10SM SCT037 05/03 A3004 RMK AO2 RAE10 SLP179 P0000 60002 70006 T00500033 10072 20050 53025 $=
202412151053 METAR KBLI 151053Z AUTO 18011G21KT 7SM -RA SCT023 BKN042 OVC070 06/04 A3001 RMK AO2 RAE04B41 SLP171 P0001 T00560039 $=
202412151019 SPECI KBLI 151019Z AUTO 17008G18KT 10SM FEW017 SCT027 OVC042 06/04 A2999 RMK AO2 RAE04 P0001 T00560039 $=
202412151011 SPECI KBLI 151011Z AUTO 18010G18KT 10SM FEW017 BKN028 OVC042 06/04 A2999 RMK AO2 RAE04 P0001 T00560039 $=
202412150953 METAR KBLI 150953Z AUTO 17007G17KT 8SM -RA FEW017 BKN032 OVC043 06/04 A2998 RMK AO2 RAB26 SLP160 P0001 T00560039 $=
202412150853 METAR KBLI 150853Z AUTO 18006KT 10SM FEW065 06/03 A2996 RMK AO2 SLP154 T00610033 51032 $=
202412150753 METAR KBLI 150753Z AUTO 19006KT 10SM FEW040 SCT065 06/03 A2994 RMK AO2 SLP147 T00610033 401110061 $=
202412150653 METAR KBLI 150653Z AUTO 19007G16KT 10SM CLR 07/03 A2990 RMK AO2 SLP134 T00670033 $=
202412150553 METAR KBLI 150553Z 18007G18KT 10SM FEW023 FEW040 07/05 A2987 RMK AO2 SLP122 60003 T00670050 10083 20067 53024 $=
202412150453 METAR KBLI 150453Z 21005KT 10SM FEW080 07/03 A2984 RMK AO2 SLPNO T00720028 $=
202412150353 METAR KBLI 150353Z 18006KT 10SM FEW043 BKN075 OVC090 07/03 A2981 RMK AO2 RAB42E51 SLP104 P0000 T00720033 $=
202412150253 METAR KBLI 150253Z 18010G16KT 10SM SCT023 BKN034 BKN050 08/05 A2980 RMK AO2 SLP098 60003 T00780050 51050 $=
202412150153 METAR KBLI 150153Z 20007G18KT 10SM SCT023 BKN034 08/06 A2975 RMK AO2 RAB05E43 SLP081 P0003 T00780056 $=
202412150130 SPECI KBLI 150130Z 24005G15KT 5SM -RA BR BKN023 OVC031 08/06 A2973 RMK AO2 RAB05 P0002 T00780061 $=
202412150053 METAR KBLI 150053Z 18010G18KT 10SM FEW040 BKN049 BKN075 08/06 A2970 RMK AO2 SLP064 T00830056 $=
202412142353 METAR KBLI 142353Z 18013G29KT 10SM FEW025 SCT035 BKN060 08/06 A2965 RMK AO2 PK WND 19036/2259 RAB00E51 SLP047 P0001 60001 T00830056 10106 20083 53056 $=
202412142253 METAR KBLI 142253Z 18018G40KT 10SM FEW031 BKN040 OVC055 09/05 A2959 RMK AO2 PK WND 18046/2217 RAB33E50 PRESRR SLP027 P0000 T00890050 $=
202412142153 METAR KBLI 142153Z 18028G45KT 10SM BKN028 OVC075 09/04 A2952 RMK AO2 PK WND 17049/2115 SLP005 T00940044 $=
202412142146 SPECI KBLI 142146Z 18021G42KT 10SM BKN028 OVC075 09/04 A2952 RMK AO2 PK WND 17049/2115 T00940044 $=
202412142053 METAR KBLI 142053Z 17024G42KT 10SM SCT025 BKN035 10/04 A2948 RMK AO2 PK WND 15052/2013 SLP990 T01000039 53015 $=
202412141953 METAR KBLI 141953Z 17030G50KT 10SM BKN035 10/04 A2946 RMK AO2 PK WND 16051/1911 SLP983 T01000044 $=
202412141853 METAR KBLI 141853Z 17029G48KT 10SM BKN037 OVC047 11/04 A2944 RMK AO2 PK WND 16051/1817 SLP978 T01060039 $=
202412141753 METAR KBLI 141753Z 14027G50KT 10SM SCT030 BKN050 11/04 A2943 RMK AO2 SLP975 60000 T01110039 53014 $=
202412141654 SPECI KBLI 141654Z 15020G40KT 10SM FEW010 SCT030 BKN050 10/04 A2942 RMK AO2 T01000039 $=
202412141653 METAR KBLI 141653Z A2941 RMK AO2 PK WND 18051/1614 SLPNO $=
202412141553 METAR KBLI 141553Z 16022G39KT 10SM FEW010 SCT030 BKN050 10/03 A2941 RMK AO2 PK WND 15046/1456 RAE17 SLP967 P0000 T01000033 $=
202412141453 METAR KBLI 141453Z 16023G48KT 10SM -RA FEW030 SCT040 BKN050 11/03 A2939 RMK AO2 PK WND 15048/1446 RAB34 SLP961 P0000 60000 T01060028 55020 $=
202412141353 METAR KBLI 141353Z AUTO 15027G37KT 10SM BKN060 10/03 A2939 RMK AO2 PK WND 14037/1352 SLP960 T01000028 $=
202412141253 METAR KBLI 141253Z AUTO 15016G28KT 10SM FEW048 SCT060 BKN110 09/04 A2943 RMK AO2 PK WND 17032/1227 SLP974 T00940039 $=
202412141153 METAR KBLI 141153Z AUTO 16015G21KT 10SM FEW065 09/03 A2945 RMK AO2 PK WND 15027/1057 RAE03 SLP981 P0000 60000 70020 T00940033 10100 20061 58003 $=
202412141053 METAR KBLI 141053Z AUTO 15015G29KT 10SM -RA SCT046 SCT065 10/03 A2946 RMK AO2 PK WND 15029/1050 RAB53 SLP984 P0000 T01000033 $=
202412140953 METAR KBLI 140953Z AUTO 14016G27KT 10SM BKN040 09/04 A2945 RMK AO2 PK WND 15029/0915 SLP982 T00940039 $=
202412140853 METAR KBLI 140853Z AUTO 11009KT 10SM BKN043 08/04 A2946 RMK AO2 PK WND 12027/0812 SLP984 60000 T00830044 58018=
202412140753 METAR KBLI 140753Z AUTO 14013G23KT 10SM SCT080 BKN100 08/04 A2949 RMK AO2 RAE0654 SLP994 P0000 T00830044 400890039=
202412140653 METAR KBLI 140653Z AUTO 05004KT 10SM -RA SCT042 BKN055 OVC085 07/05 A2949 RMK AO2 RAB15 SLP995 P0000 T00670050=
202412140553 METAR KBLI 140553Z 35004KT 10SM SCT040 BKN048 OVC060 06/06 A2951 RMK AO2 RAE32 SLP002 P0001 60017 T00610061 10061 20056 58006=
202412140453 METAR KBLI 140453Z 08004KT 10SM -RA SCT041 OVC048 06/06 A2952 RMK AO2 SLP007 P0003 T00610061=
202412140353 METAR KBLI 140353Z 06005KT 10SM -RA OVC038 06/06 A2953 RMK AO2 SLP009 P0004 T00610061=
202412140253 METAR KBLI 140253Z 05006KT 10SM -RA OVC042 06/06 A2953 RMK AO2 SLP009 P0004 60009 T00610056 56017=
202412140153 METAR KBLI 140153Z 03005KT 10SM -RA OVC050 06/05 A2954 RMK AO2 SLP010 P0002 T00560050=
202412140053 METAR KBLI 140053Z 04008KT 10SM -RA OVC046 06/05 A2956 RMK AO2 SLP019 P0003 T00560050=
202412132353 METAR KBLI 132353Z 04004KT 10SM -RA OVC046 06/05 A2958 RMK AO2 SLP026 P0002 60003 T00610050 10089 20056 56026=
202412132253 METAR KBLI 132253Z 05007KT 10SM -RA BKN046 OVC055 07/05 A2960 RMK AO2 RAB33 SLP031 P0001 T00670050=
202412132153 METAR KBLI 132153Z 06006KT 10SM SCT047 BKN060 OVC075 07/05 A2963 RMK AO2 RAB29E40 SLP041 P0000 T00670050=
202412132053 METAR KBLI 132053Z 11004KT 10SM SCT042 BKN060 OVC080 08/04 A2966 RMK AO2 RAB09E18 SLP052 P0000 60000 T00830044 58021=
202412131953 METAR KBLI 131953Z 12010G20KT 10SM SCT040 SCT060 OVC080 08/04 A2970 RMK AO2 RAE23 SLP063 P0000 T00830039=
202412131853 METAR KBLI 131853Z 00000KT 10SM -RA OVC044 06/04 A2971 RMK AO2 SLP071 P0000 T00560044=
202412131753 METAR KBLI 131753Z 03005KT 10SM -RA BKN047 OVC055 06/04 A2972 RMK AO2 RAB47 SLP074 P0000 60000 T00560039 10056 20039 55001=
202412131653 METAR KBLI 131653Z 06008KT 10SM BKN065 OVC080 05/04 A2971 RMK AO2 SLP071 T00500039=
202412131553 METAR KBLI 131553Z 06008KT 10SM SCT050 OVC060 04/03 A2971 RMK AO2 SLP071 T00440033=
202412131453 METAR KBLI 131453Z 06007KT 10SM SCT047 OVC060 04/04 A2973 RMK AO2 SLP075 T00440039 58013=
202412131353 METAR KBLI 131353Z AUTO 03007KT 10SM FEW030 OVC040 04/03 A2974 RMK AO2 SLP078 T00390033=
202412131343 SPECI KBLI 131343Z AUTO 04007KT 10SM SCT028 OVC040 04/03 A2974 RMK AO2 T00390033=
202412131253 METAR KBLI 131253Z AUTO 04004KT 10SM BKN026 OVC044 04/04 A2976 RMK AO2 SLP085 T00440039=
202412131153 METAR KBLI 131153Z AUTO 04007KT 10SM OVC025 04/04 A2976 RMK AO2 SLP087 60002 70005 T00440039 10044 20039 58008=
202412131053 METAR KBLI 131053Z AUTO 04005KT 10SM OVC018 04/04 A2977 RMK AO2 SLP091 T00440044=
202412130953 METAR KBLI 130953Z AUTO 02004KT 10SM OVC015 04/04 A2979 RMK AO2 RAB01E42 SLP096 P0002 T00390039=
202412130853 METAR KBLI 130853Z AUTO 00000KT 8SM OVC018 04/04 A2979 RMK AO2 SLP096 T00440044 55004=
202412130753 METAR KBLI 130753Z AUTO 03003KT 10SM OVC020 04/04 A2978 RMK AO2 SLP095 T00440044 400561028=
202412130653 METAR KBLI 130653Z AUTO 36003KT 10SM OVC020 04/04 A2979 RMK AO2 SLP098 T00390039=
202412130601 SPECI KBLI 130601Z 00000KT 4SM BR BKN015 OVC020 04/04 A2980 RMK AO2 T00440044=
202412130553 METAR KBLI 130553Z 00000KT 5SM BR BKN013 OVC020 04/04 A2980 RMK AO2 SLP100 60003 T00440044 10050 20039 58003=
202412130453 METAR KBLI 130453Z 00000KT 10SM OVC013 04/04 A2981 RMK AO2 SLP104 T00440044=
202412130353 METAR KBLI 130353Z 03003KT 5SM BR BKN015 OVC021 04/04 A2980 RMK AO2 RAE37 SLP102 P0001 T00440044=
202412130253 METAR KBLI 130253Z 05003KT 6SM -RA BR OVC020 04/04 A2981 RMK AO2 RAB08 SLP103 P0001 60002 T00440039 50000=
202412130153 METAR KBLI 130153Z 00000KT 10SM OVC029 04/04 A2981 RMK AO2 RAE17 SLP102 P0001 T00440039=
202412130053 METAR KBLI 130053Z 00000KT 10SM -RA BKN035 OVC043 05/03 A2981 RMK AO2 RAB09 SLP103 P0000 T00500033=
202412122353 METAR KBLI 122353Z 00000KT 10SM OVC033 05/04 A2981 RMK AO2 RAB42E49 SLP103 P0000 60000 T00500039 10056 20028 53001=
202412122253 METAR KBLI 122253Z 00000KT 10SM FEW037 OVC050 06/03 A2980 RMK AO2 SLP101 T00560028=
202412122153 METAR KBLI 122153Z 02004KT 10SM OVC046 05/03 A2980 RMK AO2 RAB19E33 SLP100 P0000 T00500028=
202412122053 METAR KBLI 122053Z 03004KT 10SM FEW043 OVC060 06/03 A2981 RMK AO2 SLP102 T00560028 58006=
202412121953 METAR KBLI 121953Z 04004KT 10SM FEW039 OVC065 06/03 A2982 RMK AO2 SLP107 T00560028=
202412121853 METAR KBLI 121853Z 03003KT 10SM OVC075 04/02 A2983 RMK AO2 SLP109 T00390022=
202412121753 METAR KBLI 121753Z 00000KT 10SM FEW080 BKN100 03/01 A2982 RMK AO2 SLP108 I6002 T00280011 10028 21011 53010=
202412121653 METAR KBLI 121653Z 00000KT 10SM BKN110 01/01 A2981 RMK AO2 SLP106 I1001 T00110006=
202412121553 METAR KBLI 121553Z 00000KT 10SM FEW080 BKN100 00/00 A2980 RMK AO2 SLP101 T00000000=
202412121453 METAR KBLI 121453Z 00000KT 10SM FEW040 BKN120 00/00 A2979 RMK AO2 SLP099 I1001 I3001 T00000000 53001=
202412121353 METAR KBLI 121353Z AUTO 00000KT 6SM BR CLR M01/M01 A2978 RMK AO2 SLP095 I1000 T10061006=
202412121253 METAR KBLI 121253Z AUTO 00000KT 9SM CLR M01/M01 A2978 RMK AO2 SLP095 T10061006=
202412121153 METAR KBLI 121153Z AUTO 00000KT 10SM CLR M01/M01 A2979 RMK AO2 SLP097 I1000 I6001 T10061006 10000 21033 58003=
202412121053 METAR KBLI 121053Z AUTO 00000KT 10SM CLR M01/M01 A2979 RMK AO2 SLP097 I1000 T10061011=
202412120953 METAR KBLI 120953Z AUTO 00000KT 4SM R16/6000VP6000FT BR CLR M02/M02 A2980 RMK AO2 SLP099 I1000 T10171022=
202412120949 SPECI KBLI 120949Z AUTO 00000KT 2 1/2SM R16/4500VP6000FT BR CLR M02/M02 A2980 RMK AO2 I1000=
202412120900 SPECI KBLI 120900Z AUTO 00000KT 9SM FEW001 M02/M03 A2979 RMK AO2 T10221028=
202412120853 METAR KBLI 120853Z AUTO 01003KT 2SM R16/4000VP6000FT BR FEW001 M02/M02 A2979 RMK AO2 SLP098 I1000 I3001 T10171017 58013=
202412120850 SPECI KBLI 120850Z AUTO 00000KT 1SM R16/3000VP6000FT BR VV001 M02/M02 A2979 RMK AO2 I1000=
202412120844 SPECI KBLI 120844Z AUTO 00000KT 1/2SM R16/3000VP6000FT FZFG VV001 M02/M02 A2980 RMK AO2 I1000 T10171017=
202412120838 SPECI KBLI 120838Z AUTO 00000KT 1/2SM R16/P6000FT FZFG CLR M02/M02 A2980 RMK AO2 I1000 T10171017=
202412120826 SPECI KBLI 120826Z AUTO 00000KT 1 3/4SM BR CLR M02/M02 A2980 RMK AO2 VIS 3/4V5 I1000 T10221022=
202412120812 SPECI KBLI 120812Z AUTO 00000KT 8SM CLR M01/M01 A2981 RMK AO2 T10111011=
202412120804 SPECI KBLI 120804Z AUTO 00000KT 2SM BR CLR M02/M02 A2981 RMK AO2 T10221022=
202412120753 METAR KBLI 120753Z AUTO 00000KT 4SM BR CLR M02/M02 A2981 RMK AO2 SLP104 I1000 T10171017 401001022=
202412120742 SPECI KBLI 120742Z AUTO 00000KT 1 1/2SM BR CLR M02/M02 A2981 RMK AO2 I1000 T10221022=
202412120653 METAR KBLI 120653Z AUTO 00000KT 10SM CLR M01/M01 A2982 RMK AO2 SLP106 I1001 T10111011=
202412120553 METAR KBLI 120553Z 00000KT 10SM CLR 00/00 A2983 RMK AO2 SLP111 I1000 I6000 T00000000 10044 21017 58013=
202412120453 METAR KBLI 120453Z 00000KT 9SM CLR M01/M01 A2985 RMK AO2 SLP118 T10111011=
202412120353 METAR KBLI 120353Z 00000KT 10SM CLR 00/00 A2986 RMK AO2 SLP121 T00000000=
202412120253 METAR KBLI 120253Z 00000KT 10SM CLR 00/00 A2987 RMK AO2 SLP125 T00000000 56014=
202412120153 METAR KBLI 120153Z 00000KT 10SM CLR 01/01 A2988 RMK AO2 SLP128 T00060006=
202412120053 METAR KBLI 120053Z 00000KT 10SM CLR 02/02 A2990 RMK AO2 SLP134 T00170017=
202412112353 METAR KBLI 112353Z 00000KT 10SM CLR 05/03 A2991 RMK AO2 SLP138 T00500028 10100 20033 58024=
202412112253 METAR KBLI 112253Z 00000KT 10SM CLR 08/04 A2994 RMK AO2 SLP148 T00830039=
202412112153 METAR KBLI 112153Z 00000KT 10SM CLR 09/03 A2996 RMK AO2 SLP156 T00940028=
202412112053 METAR KBLI 112053Z 05006KT 10SM CLR 08/04 A2999 RMK AO2 SLP163 T00830039 58029=
202412111953 METAR KBLI 111953Z 05006KT 10SM CLR 06/04 A3002 RMK AO2 SLP174 T00610039=
202412111853 METAR KBLI 111853Z 00000KT 10SM CLR 05/04 A3006 RMK AO2 SLP189 T00500039=
202412111753 METAR KBLI 111753Z 00000KT 10SM CLR 03/03 A3007 RMK AO2 SLP193 T00330028 10033 20006 56012=
202412111653 METAR KBLI 111653Z 00000KT 9SM SCT110 01/01 A3008 RMK AO2 SLP197 T00110011=
202412111553 METAR KBLI 111553Z 00000KT 10SM CLR 02/01 A3009 RMK AO2 SLP198 T00170011=
202412111453 METAR KBLI 111453Z 00000KT 10SM BKN120 01/01 A3011 RMK AO2 SLP205 T00110011 56018=
202412111353 METAR KBLI 111353Z AUTO 00000KT 10SM CLR 01/01 A3013 RMK AO2 SLP212 T00060006=
202412111253 METAR KBLI 111253Z AUTO 00000KT 9SM CLR 01/01 A3014 RMK AO2 SLP217 T00060006=
202412111153 METAR KBLI 111153Z AUTO 00000KT 10SM CLR 01/01 A3016 RMK AO2 SLP223 T00110011 10028 20006 58013=
202412111053 METAR KBLI 111053Z AUTO 00000KT 10SM CLR 01/01 A3019 RMK AO2 SLP232 T00110011=
202412110953 METAR KBLI 110953Z AUTO 00000KT 10SM CLR 01/01 A3019 RMK AO2 SLP232 T00110011=
202412110853 METAR KBLI 110853Z AUTO 00000KT 10SM CLR 01/01 A3020 RMK AO2 SLP236 T00110011 56014=
202412110753 METAR KBLI 110753Z AUTO 00000KT 10SM CLR 01/01 A3022 RMK AO2 SLP242 T00060006 400611022=
202412110653 METAR KBLI 110653Z AUTO 00000KT 10SM CLR 01/01 A3022 RMK AO2 SLP244 T00110011=
202412110553 METAR KBLI 110553Z 10003KT 10SM CLR 02/02 A3024 RMK AO2 SLP250 T00220017 10044 20000 56012=
202412110453 METAR KBLI 110453Z 03004KT 10SM CLR 02/02 A3025 RMK AO2 SLP255 T00170017=
202412110353 METAR KBLI 110353Z 00000KT 10SM CLR 02/02 A3026 RMK AO2 SLP258 T00170017=
202412110253 METAR KBLI 110253Z 34004KT 10SM CLR 02/01 A3028 RMK AO2 SLP263 T00170011 56019=
202412110153 METAR KBLI 110153Z 00000KT 10SM CLR 01/01 A3029 RMK AO2 SLP267 T00060006=
202412110053 METAR KBLI 110053Z 00000KT 10SM CLR 02/02 A3031 RMK AO2 SLP275 T00220017=
202412102353 METAR KBLI 102353Z 35003KT 10SM CLR 04/02 A3033 RMK AO2 SLP281 T00440017 10061 20011 56020=
202412102253 METAR KBLI 102253Z 35005KT 10SM CLR 06/02 A3035 RMK AO2 SLP287 T00560022=
202412102153 METAR KBLI 102153Z 36005KT 10SM CLR 06/02 A3037 RMK AO2 SLP294 T00560022=
202412102053 METAR KBLI 102053Z 05007KT 10SM CLR 06/01 A3039 RMK AO2 SLP301 T00560011 58020=
202412101953 METAR KBLI 101953Z 04006KT 10SM CLR 05/02 A3041 RMK AO2 SLP308 T00500017=
202412101853 METAR KBLI 101853Z 03004KT 10SM CLR 03/02 A3044 RMK AO2 SLP317 T00330017=
202412101753 METAR KBLI 101753Z 00000KT 10SM FEW005 01/01 A3045 RMK AO2 SLP322 I6002 T00110011 10011 21022 56006=
202412101653 METAR KBLI 101653Z 36004KT 10SM CLR M01/M01 A3046 RMK AO2 SLP324 I1002 T10061006=
202412101553 METAR KBLI 101553Z 01004KT 10SM FEW005 M02/M02 A3046 RMK AO2 SLP324 I1000 T10171017=
202412101455 SPECI KBLI 101455Z 00000KT 10SM CLR M02/M02 A3047 RMK AO2 T10171017=
202412101453 METAR KBLI 101453Z 00000KT 2 1/2SM BR CLR M02/M02 A3047 RMK AO2 SLP328 I1000 I3000 T10171017 58005=
202412101410 SPECI KBLI 101410Z AUTO 36003KT 4SM BR CLR M02/M02 A3047 RMK AO2 T10171017 $=
202412101358 SPECI KBLI 101358Z AUTO 00000KT 1 1/2SM BR CLR M02/M02 A3048 RMK AO2 VIS 1/2V5 T10221022 $=
202412101353 METAR KBLI 101353Z AUTO 00000KT 4SM BR CLR M02/M02 A3048 RMK AO2 SLP330 I1000 T10221022 $=
202412101253 METAR KBLI 101253Z AUTO 02003KT 10SM CLR M01/M01 A3048 RMK AO2 SLP333 I1000 T10111011 $=
202412101239 SPECI KBLI 101239Z AUTO 07003KT 6SM BR CLR M01/M01 A3048 RMK AO2 T10111011 $=
202412101232 SPECI KBLI 101232Z AUTO 00000KT 2 1/2SM BR CLR M02/M02 A3049 RMK AO2 T10171017 $=
202412101225 SPECI KBLI 101225Z AUTO 00000KT 1 3/4SM BR CLR M02/M02 A3049 RMK AO2 VIS 3/4V5 T10221022 $=
202412101200 SPECI KBLI 101200Z AUTO 00000KT 6SM BR CLR M02/M02 A3049 RMK AO2 T10171017 $=
202412101153 METAR KBLI 101153Z AUTO 00000KT 2 1/2SM BR CLR M01/M01 A3048 RMK AO2 SLP332 I1000 I6002 T10061006 10017 21022 58008 $=
202412101121 SPECI KBLI 101121Z AUTO 36003KT 1 1/4SM R16/4000VP6000FT BR CLR M01/M01 A3049 RMK AO2 T10111011 $=
202412101105 SPECI KBLI 101105Z AUTO 00000KT 2SM BR CLR M02/M02 A3050 RMK AO2 T10171017 $=
202412101053 METAR KBLI 101053Z AUTO 00000KT 3/4SM R16/P6000FT BR CLR M02/M02 A3050 RMK AO2 SLP337 I1000 T10171017 $=
202412101040 SPECI KBLI 101040Z AUTO 00000KT 3/4SM R16/P6000FT BR CLR M01/M01 A3050 RMK AO2 I1000 T10111011 $=
202412101028 SPECI KBLI 101028Z AUTO 00000KT 1SM R16/P6000FT BR CLR M01/M01 A3051 RMK AO2 I1000 T10111011 $=
202412101017 SPECI KBLI 101017Z AUTO 00000KT 1/2SM R16/3500VP6000FT FZFG CLR M01/M01 A3051 RMK AO2 T10061006 $=
202412101012 SPECI KBLI 101012Z AUTO 00000KT 1 1/2SM R16/4000VP6000FT BR CLR M01/M01 A3051 RMK AO2 T10061006 $=
202412100953 METAR KBLI 100953Z AUTO 00000KT 6SM BR CLR M01/M01 A3050 RMK AO2 SLP339 I1000 T10061006 $=
202412100853 METAR KBLI 100853Z AUTO 01003KT 3SM BR CLR M01/M01 A3051 RMK AO2 SLP341 I1002 I3002 T10061006 55001 $=
202412100851 SPECI KBLI 100851Z AUTO 01003KT 2SM BR CLR M01/M01 A3051 RMK AO2 I1002 $=
202412100824 SPECI KBLI 100824Z AUTO 00000KT 3/4SM R16/P6000FT BR CLR M01/M01 A3051 RMK AO2 I1002 T10111011 $=
202412100815 SPECI KBLI 100815Z AUTO 00000KT 1/2SM R16/P6000FT FZFG CLR M01/M01 A3050 RMK AO2 I1002 T10061006 $=
202412100757 SPECI KBLI 100757Z AUTO 00000KT 1 3/4SM R16/4000VP6000FT BR CLR 00/00 A3051 RMK AO2 T00000000 $=
202412100753 METAR KBLI 100753Z AUTO 00000KT 3SM BR CLR 00/00 A3051 RMK AO2 SLP340 T00000000 400831006 $=
202412100743 SPECI KBLI 100743Z AUTO 00000KT 1 3/4SM BR CLR M01/M01 A3051 RMK AO2 T10061006 $=
202412100728 SPECI KBLI 100728Z AUTO 04003KT 6SM BR FEW001 00/00 A3051 RMK AO2 T00000000 $=
202412100720 SPECI KBLI 100720Z AUTO 02003KT 2SM BR SCT001 00/00 A3051 RMK AO2 T00000000 $=
202412100715 SPECI KBLI 100715Z AUTO 03005KT 1SM R16/P6000FT BR VV001 00/00 A3051 RMK AO2 T00000000 $=
202412100711 SPECI KBLI 100711Z AUTO 03004KT 1/2SM R16/4500VP6000FT FG VV001 00/00 A3051 RMK AO2 T00000000 $=
202412100703 SPECI KBLI 100703Z AUTO 04005KT 1/4SM R16/2200V5000FT FG VV001 00/00 A3051 RMK AO2 T00000000 $=
202412100653 METAR KBLI 100653Z AUTO 04003KT 1/2SM R16/2000VP6000FT FG VV001 01/01 A3051 RMK AO2 SLP341 T00060006 $=
202412100634 SPECI KBLI 100634Z AUTO 01003KT 1/2SM R16/6000VP6000FT FG VV001 01/01 A3052 RMK AO2 T00060006 $=
202412100629 SPECI KBLI 100629Z AUTO 36003KT 1SM R16/P6000FT BR VV001 01/01 A3052 RMK AO2 T00060006 $=
202412100623 SPECI KBLI 100623Z AUTO 36003KT 1 3/4SM BR CLR 01/01 A3052 RMK AO2 VIS 3/4V5 T00110011 $=
202412100618 SPECI KBLI 100618Z AUTO 01003KT 3SM BR CLR 01/01 A3052 RMK AO2 T00110011 $=
202412100615 SPECI KBLI 100615Z AUTO 01003KT 1 3/4SM BR FEW002 01/01 A3052 RMK AO2 T00110011 $=
202412100603 SPECI KBLI 100603Z 34003KT 2SM BR VV001 01/01 A3052 RMK AO2 VIS 1 1/4V4 T00110011 $=
202412100558 SPECI KBLI 100558Z AUTO 35003KT 1SM R16/4500VP6000FT BR VV001 02/02 A3051 RMK AO2 T00170017 $=
202412100553 METAR KBLI 100553Z 36003KT 1/2SM R16/3000VP6000FT FG VV001 01/01 A3051 RMK AO2 SLP342 I6000 T00110011 10044 20006 50000 $=
202412100500 SPECI KBLI 100500Z 00000KT 7SM FEW001 02/02 A3052 RMK AO2 T00170017 $=
202412100453 METAR KBLI 100453Z 00000KT 7SM FEW001 01/01 A3052 RMK AO2 SLP345 T00110011 $=
202412100436 SPECI KBLI 100436Z 00000KT 8SM BKN050 01/01 A3052 RMK AO2 T00060006 $=
202412100353 METAR KBLI 100353Z 00000KT 8SM R16/4500VP6000FT BKN050 02/02 A3052 RMK AO2 SLP345 I1000 T00170017 $=
202412100253 METAR KBLI 100253Z 00000KT 8SM R16/5000VP6000FT FEW025 SCT042 02/02 A3051 RMK AO2 SLP342 T00220022 58002 $=
202412100240 SPECI KBLI 100240Z 00000KT 2 1/2SM BR SCT026 BKN043 03/03 A3052 RMK AO2 T00280028 $=
202412100153 METAR KBLI 100153Z 00000KT 8SM BKN021 OVC029 04/04 A3052 RMK AO2 SLP345 T00390039 $=
202412100137 SPECI KBLI 100137Z 05003KT 10SM BKN021 BKN031 03/03 A3052 RMK AO2 T00280028 $=
202412100053 METAR KBLI 100053Z 00000KT 10SM CLR 03/03 A3051 RMK AO2 SLP342 T00330033 $=
202412092353 METAR KBLI 092353Z 00000KT 10SM FEW020 05/05 A3052 RMK AO2 SLP344 T00500050 10083 20050 53001 $=
202412092253 METAR KBLI 092253Z 00000KT 10SM FEW048 07/06 A3051 RMK AO2 SLP341 T00670061 $=
202412092153 METAR KBLI 092153Z 00000KT 10SM SCT047 07/05 A3052 RMK AO2 SLP342 T00670050 $=
202412092053 METAR KBLI 092053Z 34003KT 10SM SCT010 BKN049 07/06 A3052 RMK AO2 SLP342 T00720056 53002 $=
202412091953 METAR KBLI 091953Z 01004KT 10SM FEW012 OVC047 07/06 A3051 RMK AO2 SLP339 T00720061=
202412091853 METAR KBLI 091853Z 00000KT 10SM OVC048 07/06 A3051 RMK AO2 SLP341 T00670061 $=
202412091753 METAR KBLI 091753Z 00000KT 8SM OVC048 06/06 A3051 RMK AO2 SLP341 T00610056 10061 20039 53011=
202412091743 SPECI KBLI 091743Z 02003KT 8SM FEW002 OVC048 06/06 A3051 RMK AO2 T00610056=
202412091722 SPECI KBLI 091722Z 03003KT 7SM BKN002 OVC048 06/06 A3050 RMK AO2 VSBY SW-NW 2SM CIGS LWR T00560056=
202412091709 SPECI KBLI 091709Z 36003KT 2SM BR OVC002 06/06 A3050 RMK AO2 T00560056=
202412091700 SPECI KBLI 091700Z 02003KT 1/2SM R16/P6000FT FG OVC002 05/05 A3050 RMK AO2 T00500050=
202412091653 METAR KBLI 091653Z 02003KT 1/4SM R16/2800VP6000FT FG OVC001 05/05 A3050 RMK AO2 SLP337 T00500050=
202412091642 SPECI KBLI 091642Z 02003KT 1/4SM R16/2200V2600FT FG BKN001 OVC049 05/05 A3049 RMK AO2 T00500050=
202412091633 SPECI KBLI 091633Z 02003KT 1/4SM R16/2200V5500FT FG SCT001 OVC050 05/05 A3049 RMK AO2 T00500050=
202412091553 METAR KBLI 091553Z 00000KT 10SM BKN017 OVC050 04/04 A3049 RMK AO2 SLP334 T00440044=
202412091531 SPECI KBLI 091531Z 00000KT 5SM BR BKN017 OVC050 04/04 A3049 RMK AO2 T00440044=
202412091453 METAR KBLI 091453Z 00000KT 4SM BR OVC050 04/04 A3048 RMK AO2 SLP330 T00440044 51007=
202412091353 METAR KBLI 091353Z AUTO 21003KT 10SM FEW017 OVC042 05/05 A3047 RMK AO2 SLP328 T00500050=
202412091340 SPECI KBLI 091340Z AUTO 00000KT 10SM SCT017 OVC040 05/05 A3047 RMK AO2 T00500050=
202412091332 SPECI KBLI 091332Z AUTO 18003KT 10SM BKN017 OVC040 05/05 A3047 RMK AO2 T00500050=
202412091253 METAR KBLI 091253Z AUTO 18003KT 10SM OVC038 05/05 A3047 RMK AO2 SLP325 T00500050=
202412091215 SPECI KBLI 091215Z AUTO 20003KT 10SM SCT019 SCT025 OVC041 06/06 A3046 RMK AO2 T00560056=
202412091153 METAR KBLI 091153Z AUTO 20003KT 10SM BKN017 BKN023 OVC040 05/05 A3046 RMK AO2 RAE37 SLP322 P0001 60005 70012 T00500050 10056 20050 51015=
202412091127 SPECI KBLI 091127Z AUTO 20003KT 6SM -RA BR SCT017 BKN024 OVC033 05/05 A3046 RMK AO2 P0001 T00500050=
202412091053 METAR KBLI 091053Z AUTO 17004KT 5SM -RA BR OVC032 06/06 A3046 RMK AO2 SLP322 P0001 T00560056=
202412091043 SPECI KBLI 091043Z AUTO 19003KT 6SM -RA BR FEW017 OVC031 06/06 A3045 RMK AO2 P0000 T00560056=
202412090953 METAR KBLI 090953Z AUTO 23004KT 6SM -RA BR FEW016 BKN027 OVC032 06/06 A3043 RMK AO2 RAB09E21B38 SLP314 P0001 T00560056=
202412090914 SPECI KBLI 090914Z AUTO 21003KT 10SM -RA BKN026 OVC032 06/06 A3042 RMK AO2 RAB09 P0000 T00560056=
202412090853 METAR KBLI 090853Z AUTO 19004KT 10SM OVC031 06/06 A3041 RMK AO2 RAB0755E36 SLP306 P0002 60002 T00560056 51007=
202412090753 METAR KBLI 090753Z AUTO 00000KT 5SM BR OVC040 06/06 A3040 RMK AO2 SLP304 T00560056 400890011=
202412090653 METAR KBLI 090653Z AUTO 19003KT 10SM OVC044 06/06 A3040 RMK AO2 SLP302 T00560056=
202412090553 METAR KBLI 090553Z 19005KT 10SM FEW020 BKN045 05/05 A3039 RMK AO2 SLP299 I6000 T00500050 10072 20011 53019=
202412090453 METAR KBLI 090453Z 00000KT 10SM FEW020 BKN045 02/02 A3037 RMK AO2 SLP293 I1000 T00220017=
202412090353 METAR KBLI 090353Z 00000KT 10SM R16/4500VP6000FT CLR 03/03 A3035 RMK AO2 SLP285 T00330033=
202412090253 METAR KBLI 090253Z 00000KT 10SM FEW010 SCT020 BKN045 03/03 A3033 RMK AO2 SLP281 T00280028 51015=
202412090153 METAR KBLI 090153Z 00000KT 10SM FEW010 SCT020 BKN045 05/05 A3033 RMK AO2 SLP278 T00500050=
202412090053 METAR KBLI 090053Z 00000KT 10SM FEW010 SCT020 BKN045 07/06 A3031 RMK AO2 SLP271 T00670061=
202412082353 METAR KBLI 082353Z 00000KT 10SM OVC042 07/07 A3029 RMK AO2 SLP265 T00720067 10089 20072 53024=
202412082253 METAR KBLI 082253Z VRB04KT 10SM FEW010 SCT025 BKN040 08/07 A3026 RMK AO2 SLP256 T00780067=
202412082153 METAR KBLI 082153Z VRB03KT 10SM FEW010 SCT025 BKN040 08/07 A3024 RMK AO2 SLP247 T00780067=
202412082053 METAR KBLI 082053Z 18005KT 10SM BKN021 OVC041 08/07 A3022 RMK AO2 SLP241 T00830067 51014=
202412081953 METAR KBLI 081953Z 18006KT 10SM BKN021 BKN044 08/07 A3020 RMK AO2 SLP234 T00830067=
202412081951 SPECI KBLI 081951Z VRB06KT 10SM BKN021 BKN044 08/07 A3020 RMK AO2=
202412081853 METAR KBLI 081853Z 18006KT 10SM FEW021 BKN045 08/06 A3018 RMK AO2 SLP227 T00780061=
202412081753 METAR KBLI 081753Z 20004KT 10SM SCT046 OVC090 08/06 A3016 RMK AO2 SLP220 60007 T00780056 10078 20061 53019=
202412081653 METAR KBLI 081653Z 19004KT 10SM FEW048 BKN095 07/06 A3013 RMK AO2 SLP210 T00670061=
202412081619 SPECI KBLI 081619Z 19004KT 10SM SCT014 BKN048 OVC095 07/06 A3011 RMK AO2 T00720061=
202412081553 METAR KBLI 081553Z 18005KT 10SM BKN014 OVC040 07/06 A3011 RMK AO2 SLP202 T00720061=
202412081549 SPECI KBLI 081549Z 18005KT 10SM BKN014 OVC045 07/06 A3010 RMK AO2=
202412081500 SPECI KBLI 081500Z 18008G17KT 10SM BKN017 OVC048 07/06 A3009 RMK AO2 T00720061=
202412081453 METAR KBLI 081453Z 18008G17KT 10SM SCT017 OVC048 07/06 A3008 RMK AO2 RAE09 SLP195 P0000 60007 T00720056 53005=
202412081353 METAR KBLI 081353Z AUTO 18010G20KT 10SM -RA SCT019 BKN025 OVC055 07/05 A3007 RMK AO2 RAE23B47 SLP190 P0000 T00670050=
202412081253 METAR KBLI 081253Z AUTO 17010KT 9SM -RA BKN017 BKN022 OVC036 07/06 A3007 RMK AO2 SLP191 P0007 T00670056=
202412081153 METAR KBLI 081153Z AUTO 20010G19KT 7SM -RA OVC016 07/05 A3007 RMK AO2 SLP190 P0005 60024 70042 T00670050 10089 20061 53007=
202412081053 METAR KBLI 081053Z AUTO 18011G23KT 10SM -RA BKN020 OVC050 07/04 A3006 RMK AO2 RAB11 SLP188 P0001 T00670044=
202412081044 SPECI KBLI 081044Z AUTO 18010G23KT 10SM -RA BKN020 OVC055 07/05 A3006 RMK AO2 RAB11 P0000 T00670050=
202412080953 METAR KBLI 080953Z AUTO 18012G24KT 10SM FEW020 OVC055 07/06 A3005 RMK AO2 PK WND 19029/0925 RAE50 SLP184 P0012 T00670056=
202412080945 SPECI KBLI 080945Z AUTO 18013G25KT 10SM -RA FEW011 SCT024 OVC049 07/06 A3004 RMK AO2 PK WND 19029/0925 P0012 T00670056=
202412080905 SPECI KBLI 080905Z AUTO 18014G24KT 3SM RA BR FEW014 BKN022 OVC030 07/06 A3005 RMK AO2 P0003 T00720061=
202412080853 METAR KBLI 080853Z AUTO 18016G29KT 7SM -RA FEW018 SCT026 OVC034 07/06 A3005 RMK AO2 PK WND 17030/0808 SLP183 P0005 60006 T00720056 55002=
202412080753 METAR KBLI 080753Z AUTO 18012G22KT 10SM -RA FEW020 SCT040 OVC046 08/06 A3004 RMK AO2 RAB46 SLP182 P0000 T00780056 401060072=
202412080653 METAR KBLI 080653Z AUTO 18008G16KT 10SM FEW024 BKN050 OVC070 08/06 A3004 RMK AO2 RAB18E51 SLP181 P0001 T00780056=
202412080553 METAR KBLI 080553Z VRB06KT 10SM OVC055 08/04 A3005 RMK AO2 RAB22E32 SLP185 P0000 60000 T00830044 10100 20078 51007=
202412080453 METAR KBLI 080453Z 20007KT 10SM BKN080 BKN110 08/05 A3005 RMK AO2 SLP185 T00830050=
202412080353 METAR KBLI 080353Z 19007KT 10SM FEW060 SCT095 08/05 A3005 RMK AO2 SLP182 T00830050=
202412080253 METAR KBLI 080253Z 19009KT 10SM FEW047 SCT095 SCT120 08/05 A3003 RMK AO2 SLP177 T00830050 51024=
202412080153 METAR KBLI 080153Z 20005KT 10SM CLR 08/05 A3002 RMK AO2 SLP172 T00780050=
202412080053 METAR KBLI 080053Z 20005KT 10SM FEW020 SCT080 09/05 A3000 RMK AO2 SLP167 T00890050=
202412072353 METAR KBLI 072353Z 19005KT 10SM SCT060 SCT095 10/06 A2996 RMK AO2 SLP152 60011 T01000061 10106 20094 53011=
202412072253 METAR KBLI 072253Z 18009KT 10SM FEW030 SCT060 10/07 A2994 RMK AO2 SLP146 T01000067=
202412072153 METAR KBLI 072153Z 19005KT 10SM FEW015 SCT070 BKN085 11/06 A2992 RMK AO2 SLP140 T01060061=
202412072053 METAR KBLI 072053Z VRB03KT 10SM OVC070 10/08 A2993 RMK AO2 RAE11 SLP142 P0001 60011 T01000078 55003=
202412071953 METAR KBLI 071953Z 17009KT 10SM -RA FEW013 BKN060 OVC080 10/09 A2992 RMK AO2 SLP139 P0004 T01000094=
202412071853 METAR KBLI 071853Z 19008G20KT 3SM RA BR SCT004 BKN013 OVC050 10/10 A2994 RMK AO2 SLP145 P0006 T01000100=
202412071753 METAR KBLI 071753Z 18010G18KT 10SM -RA SCT013 BKN065 OVC080 10/10 A2994 RMK AO2 RAB15 SLP144 P0001 60007 T01000100 10106 20094 53001=
202412071712 SPECI KBLI 071712Z 18013G21KT 10SM FEW007 SCT020 OVC065 10/09 A2993 RMK AO2 T01000094=
202412071653 METAR KBLI 071653Z 19010G21KT 10SM BKN007 OVC020 10/09 A2994 RMK AO2 SLP144 T01000094=
202412071553 METAR KBLI 071553Z 20007G19KT 10SM BKN008 OVC018 10/09 A2992 RMK AO2 SLP138 T01000094=
202412071453 METAR KBLI 071453Z 18012G19KT 10SM OVC018 10/09 A2993 RMK AO2 RAE1358B18E37 SLP143 P0001 60006 T01000094 55001=
202412071353 METAR KBLI 071353Z AUTO 20007KT 10SM -RA OVC026 10/09 A2993 RMK AO2 SLP142 P0001 T01000094=
202412071253 METAR KBLI 071253Z AUTO 19009KT 10SM -RA OVC028 10/09 A2994 RMK AO2 SLP146 P0004 T01000094=
202412071249 SPECI KBLI 071249Z AUTO 20010G15KT 10SM -RA OVC028 10/09 A2994 RMK AO2 P0004=
202412071218 SPECI KBLI 071218Z AUTO 19007KT 5SM -RA BR FEW013 SCT022 OVC031 10/09 A2994 RMK AO2 P0003 T01000094=
202412071153 METAR KBLI 071153Z AUTO 19009G16KT 5SM -RA BR FEW016 BKN022 OVC033 10/09 A2994 RMK AO2 SLP148 P0009 60091 70093 T01000094 10139 20100 58006=
202412071053 METAR KBLI 071053Z AUTO 17008G16KT 5SM -RA BR BKN018 OVC027 10/10 A2996 RMK AO2 SLP152 P0017 T01000100=
202412071035 SPECI KBLI 071035Z AUTO 18010G16KT 3SM RA BR BKN018 OVC026 10/10 A2996 RMK AO2 P0012 T01000100=
202412071023 SPECI KBLI 071023Z AUTO 17008KT 2 1/2SM RA BR OVC020 10/10 A2996 RMK AO2 P0008 T01000100=
202412071006 SPECI KBLI 071006Z AUTO 17010G17KT 3SM -RA BR FEW015 OVC020 10/10 A2996 RMK AO2 P0002 T01000100=
202412070953 METAR KBLI 070953Z AUTO 17011G20KT 2 1/2SM RA BR SCT016 BKN022 OVC027 11/09 A2996 RMK AO2 SLP153 P0016 T01060094=
202412070950 SPECI KBLI 070950Z AUTO 18011G20KT 2 1/2SM RA BR BKN018 OVC025 11/09 A2996 RMK AO2 P0015=
202412070917 SPECI KBLI 070917Z AUTO 16014G22KT 3SM -RA BR OVC026 11/09 A2996 RMK AO2 P0008 T01060094=
202412070908 SPECI KBLI 070908Z AUTO 17010KT 2 1/2SM RA BR OVC025 11/09 A2997 RMK AO2 P0006 T01060094=
202412070853 METAR KBLI 070853Z AUTO 17009G20KT 4SM RA BR SCT023 OVC029 11/09 A2998 RMK AO2 SLP159 P0021 60049 T01060089 50004=
202412070841 SPECI KBLI 070841Z AUTO 17012G20KT 3SM RA BR BKN026 OVC038 11/09 A2997 RMK AO2 P0018 T01060089=
202412070820 SPECI KBLI 070820Z AUTO 17011G20KT 3SM RA BR FEW028 BKN040 OVC047 10/09 A2998 RMK AO2 P0009 T01000089=
202412070759 SPECI KBLI 070759Z AUTO 17016G24KT 2 1/2SM RA BR SCT026 BKN039 OVC047 11/08 A2998 RMK AO2 P0002 T01060083=
202412070753 METAR KBLI 070753Z AUTO 17012G22KT 3SM RA BKN027 OVC045 11/08 A2999 RMK AO2 PK WND 18030/0657 SLP163 P0017 T01110083 401560022=
202412070721 SPECI KBLI 070721Z AUTO 17016G26KT 4SM RA BKN029 BKN035 OVC047 12/08 A2998 RMK AO2 PK WND 18030/0657 P0006 T01170078=
202412070653 METAR KBLI 070653Z AUTO 18013G26KT 5SM -RA SCT030 SCT040 OVC055 12/08 A2997 RMK AO2 PK WND 15026/0648 SLP155 P0011 T01220078=
202412070553 METAR KBLI 070553Z 15014G24KT 10SM -RA SCT045 BKN065 OVC075 14/07 A2996 RMK AO2 PK WND 19029/0541 SLP153 P0002 60002 T01390067 10156 20072 55010=
202412070453 METAR KBLI 070453Z 17015G31KT 10SM -RA SCT060 OVC080 14/07 A2995 RMK AO2 PK WND 16037/0427 RAB26 SLP150 P0000 T01440067=
202412070353 METAR KBLI 070353Z 16020G33KT 10SM FEW080 OVC110 16/06 A2996 RMK AO2 PK WND 16033/0339 SLP155 T01560056=
202412070253 METAR KBLI 070253Z 18009G17KT 10SM BKN085 BKN110 12/06 A2999 RMK AO2 PRESFR SLP165 T01170061 58042=
202412070225 SPECI KBLI 070225Z 33003KT 10SM BKN090 07/06 A3003 RMK AO2 T00720056=
202412070153 METAR KBLI 070153Z 00000KT 10SM CLR 08/06 A3005 RMK AO2 SLP186 T00780056=
202412070053 METAR KBLI 070053Z 00000KT 10SM BKN090 08/06 A3009 RMK AO2 SLP198 T00780061=
202412062353 METAR KBLI 062353Z 00000KT 10SM BKN100 08/07 A3012 RMK AO2 SLP208 T00780067 10089 20056 56018=
202412062253 METAR KBLI 062253Z 33003KT 10SM SCT100 08/06 A3013 RMK AO2 SLP210 T00830061=
202412062153 METAR KBLI 062153Z 00000KT 10SM BKN100 08/06 A3014 RMK AO2 SLP215 T00830061=
202412062053 METAR KBLI 062053Z 00000KT 10SM BKN100 OVC120 08/06 A3017 RMK AO2 SLP225 T00830056 58026=
202412061953 METAR KBLI 061953Z 24003KT 10SM BKN110 08/05 A3021 RMK AO2 SLP238 T00830050=
202412061853 METAR KBLI 061853Z 00000KT 10SM OVC048 07/06 A3023 RMK AO2 SLP246 T00720056=
202412061753 METAR KBLI 061753Z 00000KT 10SM BKN120 06/04 A3025 RMK AO2 SLP253 T00560044 10056 20022 56013=
202412061653 METAR KBLI 061653Z 03005KT 10SM OVC120 04/04 A3027 RMK AO2 SLP259 T00440039=
202412061553 METAR KBLI 061553Z 00000KT 10SM BKN120 03/03 A3026 RMK AO2 SLP257 T00330033=
202412061453 METAR KBLI 061453Z 11003KT 9SM FEW120 02/02 A3029 RMK AO2 PRESFR SLP266 T00220022 56021=
202412061353 METAR KBLI 061353Z AUTO 05003KT 10SM FEW038 02/02 A3031 RMK AO2 SLP274 T00220022=
202412061253 METAR KBLI 061253Z AUTO 00000KT 8SM CLR 03/03 A3030 RMK AO2 PRESFR SLP270 T00280028=
202412061153 METAR KBLI 061153Z AUTO 00000KT 10SM OVC041 03/03 A3035 RMK AO2 SLP287 T00330033 10050 20022 53001=
202412061053 METAR KBLI 061053Z AUTO 00000KT 10SM OVC041 03/03 A3035 RMK AO2 SLP285 T00280028=
202412060953 METAR KBLI 060953Z AUTO 00000KT 10SM SCT041 03/03 A3034 RMK AO2 SLP283 T00280028=
202412060853 METAR KBLI 060853Z AUTO 00000KT 9SM OVC041 04/04 A3035 RMK AO2 SLP286 T00440044 53001=
202412060753 METAR KBLI 060753Z AUTO 00000KT 8SM OVC040 04/04 A3035 RMK AO2 SLP286 T00390039 400611006=
202412060653 METAR KBLI 060653Z AUTO 00000KT 3SM BR OVC040 02/02 A3033 RMK AO2 SLP281 T00220022=
202412060553 METAR KBLI 060553Z 00000KT 7SM BKN040 BKN070 04/04 A3035 RMK AO2 SLP285 T00390039 10061 20039 50004=
202412060453 METAR KBLI 060453Z 04003KT 10SM FEW020 BKN070 OVC100 04/04 A3036 RMK AO2 SLP289 T00440044=
202412060353 METAR KBLI 060353Z 00000KT 10SM FEW020 BKN070 OVC100 04/04 A3037 RMK AO2 SLP292 T00440044=
202412060253 METAR KBLI 060253Z 00000KT 10SM FEW040 BKN080 05/04 A3033 RMK AO2 SLP281 T00500044 50004=
202412060229 SPECI KBLI 060229Z 33003KT 8SM FEW040 BKN090 05/04 A3034 RMK AO2 T00500044=
202412060153 METAR KBLI 060153Z 33003KT 10SM FEW040 BKN080 06/04 A3034 RMK AO2 SLP283 T00560044=
202412060053 METAR KBLI 060053Z 34003KT 10SM OVC075 06/05 A3032 RMK AO2 SLP278 T00560050=
202412052353 METAR KBLI 052353Z 04003KT 10SM OVC075 06/04 A3032 RMK AO2 SLP277 T00610044 10061 20006 50001=
202412052253 METAR KBLI 052253Z 03003KT 10SM BKN080 BKN110 06/04 A3034 RMK AO2 SLP282 T00610039=
202412052153 METAR KBLI 052153Z 05003KT 10SM OVC100 06/04 A3033 RMK AO2 SLP278 T00610039=
202412052053 METAR KBLI 052053Z 00000KT 10SM SCT095 OVC110 06/03 A3032 RMK AO2 SLP276 T00610033 58012=
202412051953 METAR KBLI 051953Z 00000KT 10SM CLR 05/04 A3033 RMK AO2 SLP280 T00500044=
202412051853 METAR KBLI 051853Z 00000KT 10SM CLR 03/03 A3034 RMK AO2 SLP285 T00330033=
202412051753 METAR KBLI 051753Z 00000KT 10SM FEW001 00/00 A3035 RMK AO2 SLP289 I6001 T00000000 10000 21006 51018=
202412051722 SPECI KBLI 051722Z 00000KT 3/4SM R16/3500VP6000FT BR VV001 00/00 A3035 RMK AO2 T00000000=
202412051703 SPECI KBLI 051703Z 00000KT 1/4SM R16/2200V4000FT FG VV001 00/00 A3034 RMK AO2 T00000000=
202412051653 METAR KBLI 051653Z 00000KT M1/4SM R16/1000V2400FT FG VV001 00/00 A3034 RMK AO2 SLP283 I1001 T00000000=
202412051644 SPECI KBLI 051644Z 00000KT M1/4SM R16/1000V1400FT FG VV001 00/00 A3034 RMK AO2 I1001 T00000000=
202412051632 SPECI KBLI 051632Z 00000KT 1/4SM R16/1400V1800FT FG VV001 00/00 A3034 RMK AO2 I1000 T00000000=
202412051608 SPECI KBLI 051608Z 00000KT 1/4SM R16/1200V2800FT FZFG VV001 M01/M01 A3033 RMK AO2 T10061006=
202412051553 METAR KBLI 051553Z 00000KT M1/4SM R16/0800V1200FT FZFG VV001 M01/M01 A3032 RMK AO2 SLP279 T10061006=
202412051533 SPECI KBLI 051533Z 00000KT 1/4SM R16/0800V1600FT FZFG VV001 M01/M01 A3032 RMK AO2 T10061006=
202412051523 SPECI KBLI 051523Z 00000KT M1/4SM R16/0800V1000FT FZFG VV001 M01/M01 A3032 RMK AO2 T10061006=
202412051504 SPECI KBLI 051504Z 00000KT 1/4SM R16/0800V1200FT FZFG VV001 M01/M01 A3031 RMK AO2 T10061006=
202412051453 METAR KBLI 051453Z 02003KT 1/4SM R16/1200V1400FT FZFG VV002 M01/M01 A3030 RMK AO2 SLP271 I1000 I3000 T10061006 53007=
202412051425 SPECI KBLI 051425Z AUTO 00000KT 1/4SM R16/1400V1800FT FZFG VV002 M01/M01 A3030 RMK AO2 I1000 T10061006=
202412051357 SPECI KBLI 051357Z AUTO 00000KT 1/4SM R16/1800V2600FT FZFG VV002 M01/M01 A3030 RMK AO2 T10061006=
202412051353 METAR KBLI 051353Z AUTO 00000KT 1/2SM R16/1800V2800FT FZFG OVC001 M01/M01 A3030 RMK AO2 SLP270 T10061006=
202412051331 SPECI KBLI 051331Z AUTO 00000KT 1/2SM R16/2200V2800FT FZFG OVC001 M01/M01 A3029 RMK AO2 T10061006=
202412051311 SPECI KBLI 051311Z AUTO 00000KT 1/2SM R16/2600V3500FT FZFG VV002 M01/M01 A3028 RMK AO2 T10061006=
202412051306 SPECI KBLI 051306Z AUTO 00000KT 1/4SM R16/1600V3500FT FZFG VV001 M01/M01 A3028 RMK AO2 T10061006=
202412051253 METAR KBLI 051253Z AUTO 00000KT 1/4SM R16/1000V1400FT FZFG VV001 M01/M01 A3028 RMK AO2 SLP264 T10061006=
202412051205 SPECI KBLI 051205Z AUTO 00000KT M1/4SM R16/0700V0800FT FG VV001 00/00 A3028 RMK AO2 T00000000=
202412051153 METAR KBLI 051153Z AUTO 00000KT 1/4SM R16/1000V1400FT FG VV001 00/00 A3028 RMK AO2 SLP263 T00000000 10028 21006 53005=
202412051053 METAR KBLI 051053Z AUTO 03003KT 1/4SM R16/1200V1600FT FG VV002 01/01 A3028 RMK AO2 SLP264 T00060006=
202412051031 SPECI KBLI 051031Z AUTO 00000KT 1/4SM R16/1600V1800FT FG VV002 01/01 A3028 RMK AO2 T00060006=
202412050953 METAR KBLI 050953Z AUTO 09003KT 1/4SM R16/1200V1400FT FG VV001 01/01 A3026 RMK AO2 SLP256 T00110011=
202412050916 SPECI KBLI 050916Z AUTO 03003KT 1/4SM R16/1200V1400FT FG VV001 02/02 A3027 RMK AO2 T00220022=
202412050900 SPECI KBLI 050900Z AUTO 00000KT 1/4SM R16/1200V1400FT FG VV002 02/02 A3027 RMK AO2 T00170017=
202412050853 METAR KBLI 050853Z AUTO 00000KT 1/4SM R16/1200V1400FT FG VV001 02/02 A3026 RMK AO2 SLP258 T00220022 51011=
202412050837 SPECI KBLI 050837Z AUTO 00000KT 1/4SM R16/1200V1400FT FG VV001 03/03 A3026 RMK AO2 T00280028=
202412050829 SPECI KBLI 050829Z AUTO 00000KT M1/4SM R16/0800V1200FT FG VV001 03/03 A3026 RMK AO2 T00280028=
202412050753 METAR KBLI 050753Z AUTO 00000KT 1/4SM R16/1000V1400FT FG VV001 01/01 A3026 RMK AO2 SLP257 T00060006 400671017=
202412050731 SPECI KBLI 050731Z AUTO 00000KT 1/4SM R16/1000V1400FT FG VV001 01/01 A3026 RMK AO2 T00060006=
202412050712 SPECI KBLI 050712Z AUTO 00000KT 1/4SM R16/1200V1800FT FG VV002 01/01 A3025 RMK AO2 T00060006=
202412050708 SPECI KBLI 050708Z AUTO 23003KT 1/2SM R16/1600VP6000FT FG VV002 00/00 A3025 RMK AO2 T00000000=
202412050653 METAR KBLI 050653Z AUTO 00000KT 1 1/4SM R16/3500VP6000FT BR OVC001 M01/M01 A3024 RMK AO2 SLP250 T10061006=
202412050651 SPECI KBLI 050651Z AUTO 00000KT 1SM R16/1800VP6000FT BR VV001 M01/M01 A3024 RMK AO2=
202412050634 SPECI KBLI 050634Z AUTO 00000KT 1/2SM R16/3000V5000FT FG VV001 00/00 A3022 RMK AO2 T00000000=
202412050613 SPECI KBLI 050613Z AUTO 00000KT 1/4SM R16/1000V2800FT FG VV001 00/00 A3022 RMK AO2 T00000000=
202412050605 SPECI KBLI 050605Z AUTO 00000KT M1/4SM R16/0800V1000FT FG VV001 01/01 A3022 RMK AO2 T00060006=
202412050553 METAR KBLI 050553Z 00000KT 1/4SM R16/0800V1600FT FG VV001 01/01 A3023 RMK AO2 SLP246 T00060006 10039 20000 50001=
202412050453 METAR KBLI 050453Z 00000KT 1/4SM R16/1200V1800FT FG VV001 01/01 A3025 RMK AO2 SLP254 T00060006=
202412050353 METAR KBLI 050353Z 00000KT 1/4SM R16/1000FT FG VV001 02/02 A3023 RMK AO2 SLP247 T00170017=
202412050349 SPECI KBLI 050349Z 00000KT 1/4SM R16/1000V1200FT FG VV001 01/01 A3023 RMK AO2=
202412050311 SPECI KBLI 050311Z 00000KT M1/4SM R16/0500V0800FT FG VV001 01/01 A3022 RMK AO2 T00110011=
202412050249 METAR KBLI 050249Z 00000KT 1/4SM R16/0800V1000FT FG VV001 01/01 A3021 RMK AO2 SLP241 T00110011 55003=
202412050248 SPECI KBLI 050248Z 00000KT 1/4SM R16/0800V1000FT FG VV001 01/01 A3021 RMK AO2=
202412050228 SPECI KBLI 050228Z 00000KT 3/4SM R16/1400VP6000FT BR BKN001 01/01 A3021 RMK AO2 T00060006=
202412050211 SPECI KBLI 050211Z 00000KT 3/4SM R16/2200VP6000FT BR VV002 02/02 A3021 RMK AO2 T00170017=
202412050153 METAR KBLI 050153Z 00000KT 3SM R16/2600VP6000FT BR CLR 01/01 A3021 RMK AO2 SLP239 T00110011=
202412050053 METAR KBLI 050053Z 00000KT 5SM BR BKN007 02/02 A3022 RMK AO2 SLP244 T00220022=
202412050045 SPECI KBLI 050045Z 00000KT 6SM BR BKN002 02/02 A3023 RMK AO2 T00220022=
202412042353 METAR KBLI 042353Z 19003KT 10SM CLR 04/03 A3022 RMK AO2 SLP243 T00390033 10067 20017 58008=
202412042253 METAR KBLI 042253Z 00000KT 10SM CLR 06/04 A3024 RMK AO2 SLP248 T00560039=
202412042153 METAR KBLI 042153Z 00000KT 10SM CLR 06/04 A3024 RMK AO2 SLP251 T00560044=
202412042148 SPECI KBLI 042148Z 18003KT 8SM CLR 06/04 A3025 RMK AO2=
202412042053 METAR KBLI 042053Z 23004KT 1/2SM R16/P6000FT FG VV001 04/04 A3027 RMK AO2 SLP261 T00440039 58006=
202412041953 METAR KBLI 041953Z 17003KT 1/2SM R16/6000VP6000FT FG BKN001 03/03 A3029 RMK AO2 SLP265 T00330033=
202412041853 METAR KBLI 041853Z 00000KT 1/2SM R16/P6000FT FG BKN001 02/02 A3029 RMK AO2 SLP269 T00220022=
202412041753 METAR KBLI 041753Z 00000KT 1/2SM R16/P6000FT FG BKN001 02/02 A3029 RMK AO2 SLP268 I6000 T00220022 10022 21011 53000=
202412041653 METAR KBLI 041653Z 00000KT 10SM SCT001 00/00 A3029 RMK AO2 SLP266 PRFG I1000 T00000000=
202412041614 SPECI KBLI 041614Z 00000KT 1/4SM R16/1400V4000FT FZFG VV001 M01/M01 A3030 RMK AO2 T10111011=
202412041607 SPECI KBLI 041607Z 00000KT 1/4SM R16/1400V2200FT FZFG VV001 M01/M01 A3029 RMK AO2 T10111011=
202412041600 SPECI KBLI 041600Z 00000KT M1/4SM R16/1600V2200FT FZFG VV001 M01/M01 A3029 RMK AO2 T10111011=
202412041553 METAR KBLI 041553Z 00000KT 1/4SM R16/1400V2000FT FZFG VV001 M01/M01 A3029 RMK AO2 SLP268 I1000 T10061006=
202412041546 SPECI KBLI 041546Z 00000KT 1/4SM R16/1200V1600FT FZFG VV001 M01/M01 A3029 RMK AO2 I1000 T10061006=
202412041522 SPECI KBLI 041522Z 00000KT M1/4SM R16/0700V0800FT FZFG VV001 M01/M01 A3030 RMK AO2 T10061006=
202412041453 METAR KBLI 041453Z 00000KT 1/4SM R16/0800V1000FT FG VV001 00/00 A3030 RMK AO2 SLP272 I3000 T00000000 58002=
202412041404 SPECI KBLI 041404Z AUTO 00000KT M1/4SM R16/0700V0800FT FG VV001 00/00 A3031 RMK AO2 T00000000=
202412041353 METAR KBLI 041353Z AUTO 00000KT 1/4SM R16/0800V1000FT FG VV001 00/00 A3031 RMK AO2 SLP274 T00000000=
202412041340 SPECI KBLI 041340Z AUTO 00000KT 1/4SM R16/1200V2200FT FG VV001 00/00 A3031 RMK AO2 T00000000=
202412041329 SPECI KBLI 041329Z AUTO 00000KT 1/4SM R16/1600V2400FT FG VV002 00/00 A3031 RMK AO2 T00000000=
202412041315 SPECI KBLI 041315Z AUTO 00000KT 1/4SM R16/1000V1200FT FG VV001 00/00 A3031 RMK AO2 T00000000=
202412041253 METAR KBLI 041253Z AUTO 00000KT M1/4SM R16/0800V1000FT FG VV001 00/00 A3031 RMK AO2 SLP274 I1000 T00000000=
202412041249 SPECI KBLI 041249Z AUTO 00000KT M1/4SM R16/0800V1000FT FG VV001 00/00 A3031 RMK AO2 I1000=
202412041233 SPECI KBLI 041233Z AUTO 00000KT 1/4SM R16/1000FT FG VV001 00/00 A3031 RMK AO2 I1000 T00000000=
202412041153 METAR KBLI 041153Z AUTO 00000KT M1/4SM R16/0800V1000FT FG VV001 00/00 A3031 RMK AO2 SLP274 I1001 I6001 T00000000 10000 21017 58004=
202412041115 SPECI KBLI 041115Z AUTO 00000KT M1/4SM R16/0600V1000FT FZFG VV001 M01/M01 A3032 RMK AO2 T10061006=
202412041105 SPECI KBLI 041105Z AUTO 00000KT 1/4SM R16/1000V2800FT FZFG VV001 M01/M01 A3032 RMK AO2 T10061006=
202412041053 METAR KBLI 041053Z AUTO 00000KT 1/4SM R16/1400V2800FT FZFG VV002 M01/M01 A3032 RMK AO2 SLP277 I1000 T10061006=
202412041048 SPECI KBLI 041048Z AUTO 00000KT 1/4SM R16/1000V2400FT FZFG OVC001 M01/M01 A3032 RMK AO2 I1000=
202412041040 SPECI KBLI 041040Z AUTO 00000KT 1/4SM R16/1000V1200FT FZFG VV002 M01/M01 A3032 RMK AO2 I1000 T10111011=
202412041019 SPECI KBLI 041019Z AUTO 00000KT 1/4SM R16/0700V1200FT FZFG VV001 M01/M01 A3032 RMK AO2 T10111011=
202412040953 METAR KBLI 040953Z AUTO 00000KT 1/4SM R16/3500VP6000FT FZFG VV001 M01/M01 A3032 RMK AO2 SLP276 T10111011=
202412040938 SPECI KBLI 040938Z AUTO 00000KT 1/4SM R16/1800VP6000FT FZFG VV001 M01/M01 A3031 RMK AO2 T10111011=
202412040932 SPECI KBLI 040932Z AUTO 00000KT 3/4SM R16/3500VP6000FT BR VV001 M01/M01 A3032 RMK AO2 T10111011=
202412040925 SPECI KBLI 040925Z AUTO 05003KT 1/4SM R16/P6000FT FZFG VV001 M02/M02 A3032 RMK AO2 T10171017=
202412040909 SPECI KBLI 040909Z AUTO 00000KT 1/4SM R16/1800V3000FT FZFG VV002 M02/M02 A3032 RMK AO2 T10171017=
202412040853 METAR KBLI 040853Z AUTO 00000KT 1/4SM R16/1400V2000FT FZFG VV002 M01/M01 A3033 RMK AO2 SLP278 I1000 I3000 T10061006 58001=
202412040815 SPECI KBLI 040815Z AUTO 00000KT 1/4SM R16/1200V2200FT FZFG VV002 M01/M01 A3033 RMK AO2 T10061006=
202412040753 METAR KBLI 040753Z AUTO 00000KT 1/4SM R16/2200V4000FT FZFG VV002 M01/M01 A3033 RMK AO2 SLP281 T10061006 400781022=
202412040710 SPECI KBLI 040710Z AUTO 00000KT 1/4SM R16/1800V3500FT FZFG VV002 M01/M01 A3033 RMK AO2 T10061006=
202412040700 SPECI KBLI 040700Z AUTO 00000KT 1/4SM R16/1200V1800FT FZFG VV002 M01/M01 A3033 RMK AO2 T10061006=
202412040653 METAR KBLI 040653Z AUTO 00000KT 10SM R16/1000V1600FT OVC002 M01/M01 A3033 RMK AO2 SLP281 I1000 T10061006=
202412040636 SPECI KBLI 040636Z AUTO 00000KT 10SM R16/1600VP6000FT BKN003 00/00 A3034 RMK AO2 T00000000=
202412040628 SPECI KBLI 040628Z AUTO 00000KT 10SM SCT003 M01/M01 A3033 RMK AO2 T10061006=
202412040553 METAR KBLI 040553Z 00000KT 10SM R16/3500VP6000FT CLR M01/M01 A3033 RMK AO2 SLP280 T10061006 10039 21006 53004=
202412040453 METAR KBLI 040453Z 00000KT 10SM CLR 00/00 A3032 RMK AO2 SLP277 T00000000=
202412040410 SPECI KBLI 040410Z 00000KT 10SM R16/2400VP6000FT CLR 00/00 A3032 RMK AO2 T00000000=
202412040400 SPECI KBLI 040400Z 00000KT 1/2SM R16/1800VP6000FT FG VV002 01/01 A3032 RMK AO2 T00060006=
202412040353 METAR KBLI 040353Z 00000KT 10SM R16/3000VP6000FT FEW002 01/01 A3032 RMK AO2 SLP277 T00060006=
202412040344 SPECI KBLI 040344Z 00000KT 10SM R16/2200VP6000FT FEW002 01/01 A3032 RMK AO2 T00060006=
202412040253 METAR KBLI 040253Z 00000KT 10SM R16/5500VP6000FT CLR 01/01 A3032 RMK AO2 SLP276 T00060006 53002=
202412040153 METAR KBLI 040153Z 00000KT 4SM BR CLR 02/02 A3031 RMK AO2 SLP276 T00170017=
202412040053 METAR KBLI 040053Z 00000KT 10SM CLR 03/02 A3031 RMK AO2 SLP274 T00280022=
202412032353 METAR KBLI 032353Z 00000KT 10SM CLR 04/03 A3031 RMK AO2 SLP274 T00390028 10078 20017 55003=
202412032253 METAR KBLI 032253Z 00000KT 10SM CLR 08/03 A3031 RMK AO2 SLP272 T00780028=
202412032153 METAR KBLI 032153Z 00000KT 10SM CLR 08/03 A3031 RMK AO2 SLP274 T00780028=
202412032053 METAR KBLI 032053Z 00000KT 10SM CLR 06/03 A3032 RMK AO2 SLP276 T00610028 58010=
202412031953 METAR KBLI 031953Z 02003KT 10SM CLR 05/02 A3033 RMK AO2 SLP279 T00500022=
202412031853 METAR KBLI 031853Z 03004KT 10SM CLR 04/02 A3034 RMK AO2 SLP284 T00440022=
202412031753 METAR KBLI 031753Z 01003KT 10SM CLR 02/02 A3035 RMK AO2 SLP287 I6000 T00170017 10017 21022 53002=
202412031653 METAR KBLI 031653Z 00000KT 10SM FEW010 M01/M01 A3034 RMK AO2 SLP286 I1000 T10061006=
202412031553 METAR KBLI 031553Z 00000KT 10SM FEW010 M02/M02 A3034 RMK AO2 SLP285 I1000 T10171017=
202412031453 METAR KBLI 031453Z 00000KT 10SM CLR M02/M02 A3034 RMK AO2 SLP285 I1000 I3000 T10171017 58002=
202412031358 SPECI KBLI 031358Z AUTO 00000KT 4SM BR FEW002 M02/M02 A3035 RMK AO2 T10221022=
202412031353 METAR KBLI 031353Z AUTO 32003KT 1 1/4SM R16/5500VP6000FT BR SCT002 M02/M02 A3035 RMK AO2 SLP288 I1000 T10221022=
202412031351 SPECI KBLI 031351Z AUTO 34003KT 1SM R16/5500VP6000FT BR VV001 M02/M02 A3035 RMK AO2 I1000=
202412031342 SPECI KBLI 031342Z AUTO 00000KT 1/2SM R16/2600VP6000FT FZFG VV001 M02/M02 A3034 RMK AO2 I1000 T10171017=
202412031334 SPECI KBLI 031334Z AUTO 00000KT 1 3/4SM R16/2600VP6000FT BR OVC001 M02/M02 A3035 RMK AO2 VIS 3/4V5 T10221022=
202412031323 SPECI KBLI 031323Z AUTO 00000KT 4SM R16/6000VP6000FT BR BKN001 M02/M02 A3034 RMK AO2 T10221022=
202412031315 SPECI KBLI 031315Z AUTO 00000KT 2SM R16/6000VP6000FT BR BKN001 M02/M02 A3035 RMK AO2 T10221022=
202412031312 SPECI KBLI 031312Z AUTO 04003KT 1 1/4SM R16/3500VP6000FT BR SCT001 M02/M02 A3035 RMK AO2 T10221022=
202412031303 SPECI KBLI 031303Z AUTO 00000KT 3/4SM R16/3500V4500FT BR VV001 M02/M02 A3035 RMK AO2 T10221022=
202412031253 METAR KBLI 031253Z AUTO 00000KT 1/2SM R16/3000VP6000FT FZFG VV001 M02/M02 A3034 RMK AO2 SLP286 I1000 T10171017=
202412031239 SPECI KBLI 031239Z AUTO 00000KT 1/2SM R16/3000VP6000FT FZFG VV001 M02/M02 A3034 RMK AO2 I1000 T10221022=
202412031227 SPECI KBLI 031227Z AUTO 00000KT 1/4SM R16/1600V2400FT FZFG VV001 M02/M02 A3034 RMK AO2 T10171017=
202412031203 SPECI KBLI 031203Z AUTO 00000KT 1/4SM R16/1000V2200FT FZFG VV001 M02/M02 A3034 RMK AO2 T10171017=
202412031158 SPECI KBLI 031158Z AUTO 00000KT 1/2SM R16/1000V2400FT FZFG VV001 M02/M02 A3035 RMK AO2 T10171017=
202412031153 METAR KBLI 031153Z AUTO 00000KT 1 3/4SM R16/2000VP6000FT BR OVC001 M02/M02 A3035 RMK AO2 SLP288 I1000 I6001 T10171017 10011 21017 55000=
202412031147 SPECI KBLI 031147Z AUTO 00000KT 1SM R16/2000VP6000FT BR VV001 M02/M02 A3035 RMK AO2 I1000=
202412031139 SPECI KBLI 031139Z AUTO 00000KT 1/2SM R16/2800V6000FT FZFG VV001 M02/M02 A3035 RMK AO2 I1000 T10171017=
202412031131 SPECI KBLI 031131Z AUTO 00000KT 1/4SM R16/1800V4000FT FZFG VV001 M02/M02 A3035 RMK AO2 T10171017=
202412031053 METAR KBLI 031053Z AUTO 00000KT 1/4SM R16/1000V1200FT FZFG VV001 M01/M01 A3035 RMK AO2 SLP286 I1000 T10111011=
202412031039 SPECI KBLI 031039Z AUTO 00000KT 1/4SM R16/1200V1800FT FZFG VV001 M01/M01 A3035 RMK AO2 I1000 T10111011=
202412031007 SPECI KBLI 031007Z AUTO 00000KT 1/2SM R16/2800V3500FT FZFG VV001 M02/M02 A3035 RMK AO2 T10171017=
202412030953 METAR KBLI 030953Z AUTO 00000KT 1 1/2SM R16/2600VP6000FT BR OVC001 M02/M02 A3035 RMK AO2 SLP286 I1001 T10171017=
202412030933 SPECI KBLI 030933Z AUTO 00000KT 3/4SM R16/2400V3500FT BR VV001 M01/M01 A3034 RMK AO2 I1001 T10111011=
202412030922 SPECI KBLI 030922Z AUTO 00000KT 1/4SM R16/2000V2600FT FZFG VV001 M01/M01 A3034 RMK AO2 I1001 T10111011=
202412030853 METAR KBLI 030853Z AUTO 00000KT 1/4SM R16/1200V1400FT FZFG VV001 M01/M01 A3035 RMK AO2 SLP287 T10061006 58001=
202412030848 SPECI KBLI 030848Z AUTO 00000KT 1/4SM R16/1200V1600FT FG VV001 00/00 A3035 RMK AO2=
202412030840 SPECI KBLI 030840Z AUTO 00000KT 1/4SM R16/1600V2400FT FG VV001 00/00 A3035 RMK AO2 T00000000=
202412030820 SPECI KBLI 030820Z AUTO 00000KT 1/4SM R16/1200V2400FT FG VV002 00/00 A3036 RMK AO2 T00000000=
202412030808 SPECI KBLI 030808Z AUTO 00000KT 1/4SM R16/1200V1400FT FG VV001 01/01 A3035 RMK AO2 T00060006=
202412030753 METAR KBLI 030753Z AUTO 00000KT 1/4SM R16/1400V1600FT FG VV002 01/01 A3036 RMK AO2 SLP290 T00060006 400611022=
202412030726 SPECI KBLI 030726Z AUTO 00000KT 1/4SM R16/1200V1600FT FG VV002 01/01 A3036 RMK AO2 T00060006=
202412030653 METAR KBLI 030653Z AUTO 00000KT 1/4SM R16/1000V1200FT FG VV001 01/01 A3035 RMK AO2 SLP288 T00060006=
202412030614 SPECI KBLI 030614Z 00000KT 1/4SM R16/1000V1200FT FG VV001 01/01 A3036 RMK AO2 T00060006=
202412030553 METAR KBLI 030553Z 00000KT 1/4SM R16/1200V1400FT FG VV002 01/01 A3035 RMK AO2 SLP289 I6001 T00060006 10028 21011 53007=
202412030453 METAR KBLI 030453Z 33003KT 1/4SM R16/1400V1800FT FG VV003 00/00 A3034 RMK AO2 SLP284 I1000 T00000000=
202412030421 SPECI KBLI 030421Z 00000KT 1/4SM R16/1000V1400FT FG VV002 00/00 A3034 RMK AO2 I1000 T00000000=
202412030353 METAR KBLI 030353Z 00000KT 1/4SM R16/1000V1600FT FG VV001 00/00 A3034 RMK AO2 SLP285 I1000 T00000000=
202412030351 SPECI KBLI 030351Z 00000KT 1/4SM R16/1000V1600FT FZFG VV001 M01/M01 A3034 RMK AO2 I1000=
202412030345 SPECI KBLI 030345Z 00000KT 2 1/2SM R16/0800V1400FT BR BKN002 BKN007 M01/M01 A3035 RMK AO2 I1000 T10061006=
202412030336 SPECI KBLI 030336Z 00000KT 2 1/2SM R16/0800V3000FT BR BKN003 BKN006 M01/M01 A3034 RMK AO2 I1000 T10061006=
202412030253 METAR KBLI 030253Z 16003KT 2 1/2SM BR SCT009 01/01 A3033 RMK AO2 SLP282 I1001 I3001 T00060006 50004=
202412030153 METAR KBLI 030153Z 00000KT 8SM R16/3500VP6000FT SCT009 M01/M01 A3034 RMK AO2 SLP283 T10061006=
202412030104 SPECI KBLI 030104Z 00000KT 10SM R16/2600VP6000FT CLR 01/01 A3033 RMK AO2 T00060006=
202412030057 SPECI KBLI 030057Z 00000KT 1 3/4SM R16/2800VP6000FT CLR 00/00 A3034 RMK AO2 T00000000=
202412030053 METAR KBLI 030053Z 00000KT 10SM R16/2800VP6000FT CLR 01/01 A3034 RMK AO2 SLP283 DR FG T00060006=
202412030010 SPECI KBLI 030010Z 00000KT 10SM FEW001 02/02 A3033 RMK AO2 DR FG T00220022=
202412030005 SPECI KBLI 030005Z 00000KT 1 1/2SM R16/0800V1000FT BR SCT001 02/02 A3033 RMK AO2 T00220022=
202412030002 SPECI KBLI 030002Z 00000KT 3/4SM R16/0800V1000FT BR VV001 02/02 A3033 RMK AO2 T00220022=
202412022353 METAR KBLI 022353Z 00000KT 1/4SM R16/0800V1000FT FG VV001 03/03 A3032 RMK AO2 SLP278 T00280028 10061 20011 57001=
202412022329 SPECI KBLI 022329Z 00000KT 1/4SM R16/0800V1000FT FG VV001 03/03 A3032 RMK AO2 T00330033=
202412022307 SPECI KBLI 022307Z 20003KT 1/4SM R16/P6000FT FG VV001 04/04 A3033 RMK AO2 T00440039=
202412022253 METAR KBLI 022253Z 00000KT 7SM SCT002 06/04 A3032 RMK AO2 SLP278 T00610039=
202412022153 METAR KBLI 022153Z 00000KT 7SM SCT002 05/04 A3032 RMK AO2 SLP278 T00500039=
202412022139 SPECI KBLI 022139Z 00000KT 3/4SM R16/P4500VP6000FT BR OVC002 04/04 A3032 RMK AO2 T00440039=
202412022132 SPECI KBLI 022132Z 00000KT 3/4SM R16/P4500VP6000FT BR CLR 04/04 A3032 RMK AO2 T00440039=
202412022053 METAR KBLI 022053Z 00000KT 3/4SM R16/P4500VP6000FT BR OVC002 04/04 A3033 RMK AO2 SLP278 T00390039 58003 $=
202412022046 SPECI KBLI 022046Z 00000KT 3/4SM R16/P4500VP6000FT BR OVC002 03/03 A3033 RMK AO2 T00330033 $=
202412022028 SPECI KBLI 022028Z 00000KT 1/2SM R16/4500VP6000FT FG VV001 03/03 A3033 RMK AO2 T00330033 $=
202412021953 METAR KBLI 021953Z 12003KT M1/4SM R16/1200FT FG VV001 04/04 A3033 RMK AO2 SLP278 T00390039 $=
202412021853 METAR KBLI 021853Z 00000KT M1/4SM R16/0800FT FG VV001 03/03 A3034 RMK AO2 SLP283 T00280028 $=
202412021753 METAR KBLI 021753Z 00000KT M1/4SM R16/1000V1400FT FG VV001 01/01 A3034 RMK AO2 SLP283 I6005 T00110011 10011 21022 53008 $=
202412021653 METAR KBLI 021653Z 00000KT M1/4SM R16/1000FT FG VV002 00/00 A3032 RMK AO2 SLP279 I1003 T00000000 $=
202412021642 SPECI KBLI 021642Z 00000KT M1/4SM R16/0800V1000FT FZFG VV002 M01/M01 A3032 RMK AO2 I1002 T10061006 $=
202412021611 SPECI KBLI 021611Z 00000KT M1/4SM R16/0800V1600FT FZFG VV001 M01/M01 A3032 RMK AO2 T10111011 $=
202412021559 SPECI KBLI 021559Z 00000KT 1/4SM R16/1400V1800FT FZFG VV001 M01/M01 A3031 RMK AO2 T10111011 $=
202412021553 METAR KBLI 021553Z 00000KT M1/4SM R16/1600VP6000FT FZFG VV001 M02/M02 A3031 RMK AO2 SLP276 PRFG I1000 T10171017 $=
202412021539 SPECI KBLI 021539Z 00000KT M1/4SM R16/P6000FT FZFG VV002 M02/M02 A3031 RMK AO2 PRFG I1000 T10221022 $=
202412021513 SPECI KBLI 021513Z 00000KT 1 1/2SM R16/5500VP6000FT BR BKN001 M02/M02 A3031 RMK AO2 PRFG T10171017 $=
202412021510 SPECI KBLI 021510Z 00000KT 2 1/2SM R16/1400VP6000FT BR SCT001 M02/M02 A3031 RMK AO2 PRFG T10171017 $=
202412021504 SPECI KBLI 021504Z 00000KT 1SM R16/1400VP6000FT BR VV001 M02/M02 A3031 RMK AO2 PRFG T10171017 $=
202412021456 SPECI KBLI 021456Z 00000KT 1 1/4SM R16/2800VP6000FT BR SCT001 M02/M02 A3031 RMK AO2 T10171017 $=
202412021453 METAR KBLI 021453Z 00000KT 3/4SM R16/2800VP6000FT BR VV001 M02/M02 A3031 RMK AO2 SLP274 I3002 T10171017 53007 $=
202412021438 SPECI KBLI 021438Z 00000KT 3/4SM R16/2200V5500FT BR VV001 M01/M01 A3031 RMK AO2 T10111011 $=
202412021430 SPECI KBLI 021430Z 00000KT 1/4SM R16/1600V3500FT FZFG VV001 M01/M01 A3031 RMK AO2 T10111011 $=
202412021419 SPECI KBLI 021419Z AUTO 00000KT 1/2SM R16/2800V6000FT FZFG VV001 M01/M01 A3031 RMK AO2 T10061006 $=
202412021400 SPECI KBLI 021400Z AUTO 00000KT 1/2SM FZFG VV002 M01/M01 A3030 RMK AO2 T10061006 RVRNO $=
202412021353 METAR KBLI 021353Z AUTO 00000KT 1/4SM FZFG VV003 M01/M01 A3030 RMK AO2 SLP271 I1001 T10061006 RVRNO $=
202412021341 SPECI KBLI 021341Z AUTO 00000KT 1/4SM FZFG VV002 M01/M01 A3030 RMK AO2 I1001 T10061006 RVRNO=
202412021328 SPECI KBLI 021328Z AUTO 00000KT M1/4SM FG VV001 00/00 A3030 RMK AO2 I1001 T00000000 RVRNO=
202412021309 SPECI KBLI 021309Z AUTO 00000KT 1/4SM FG VV001 00/00 A3030 RMK AO2 I1001 T00000000 RVRNO=
202412021253 METAR KBLI 021253Z AUTO 00000KT M1/4SM FZFG VV001 M01/M01 A3030 RMK AO2 SLP270 I1001 T10061006 RVRNO=
202412021243 SPECI KBLI 021243Z AUTO 00000KT M1/4SM FZFG VV001 M01/M01 A3030 RMK AO2 I1001 T10061006 RVRNO=
202412021227 SPECI KBLI 021227Z AUTO 00000KT 1/4SM FZFG VV001 M01/M01 A3030 RMK AO2 I1000 T10061006 RVRNO=
202412021153 METAR KBLI 021153Z AUTO 00000KT 1/4SM FZFG VV002 M01/M01 A3029 RMK AO2 SLP266 I6002 T10111011 10006 21022 58000 RVRNO=
202412021149 SPECI KBLI 021149Z AUTO 00000KT 1/4SM FZFG VV002 M02/M02 A3029 RMK AO2 RVRNO=
202412021138 SPECI KBLI 021138Z AUTO 00000KT 3/4SM BR VV002 M02/M02 A3029 RMK AO2 T10171017 RVRNO=
202412021117 SPECI KBLI 021117Z AUTO 00000KT 1/2SM FZFG VV001 M02/M02 A3029 RMK AO2 T10171017 RVRNO=
202412021107 SPECI KBLI 021107Z AUTO 00000KT 3/4SM BR VV001 M02/M02 A3029 RMK AO2 T10221022 RVRNO=
202412021053 METAR KBLI 021053Z AUTO 00000KT 1/2SM FZFG VV001 M01/M01 A3029 RMK AO2 SLP267 I1001 T10111011 RVRNO=
202412021044 SPECI KBLI 021044Z AUTO 00000KT 1/2SM FZFG VV001 M01/M01 A3029 RMK AO2 I1001 T10111011 RVRNO=
202412021037 SPECI KBLI 021037Z AUTO 00000KT 1 3/4SM BR BKN001 M01/M01 A3029 RMK AO2 I1001 T10111011=
202412021034 SPECI KBLI 021034Z AUTO 00000KT 2SM BR SCT001 M01/M01 A3029 RMK AO2 I1001 T10111011=
202412021025 SPECI KBLI 021025Z AUTO 00000KT 1SM BR VV001 M02/M02 A3029 RMK AO2 I1001 T10171017 RVRNO=
202412021018 SPECI KBLI 021018Z AUTO 00000KT 2SM BR SCT001 M02/M02 A3029 RMK AO2 I1001 T10221022=
202412021011 SPECI KBLI 021011Z AUTO 04003KT 1SM BR VV001 M02/M02 A3029 RMK AO2 I1001 T10171017 RVRNO=
202412020953 METAR KBLI 020953Z AUTO 00000KT 1/2SM FZFG VV001 M02/M02 A3029 RMK AO2 SLP266 I1001 T10171017 RVRNO=
202412020941 SPECI KBLI 020941Z AUTO 00000KT 1/2SM FZFG VV001 M01/M01 A3029 RMK AO2 I1001 T10111011 RVRNO=
202412020905 SPECI KBLI 020905Z AUTO 00000KT 1/4SM FZFG VV001 M01/M01 A3029 RMK AO2 T10061006 RVRNO=
202412020853 METAR KBLI 020853Z AUTO 00000KT 1/2SM FZFG VV001 M01/M01 A3029 RMK AO2 SLP266 I1000 I3000 T10061006 50006 RVRNO=
202412020842 SPECI KBLI 020842Z AUTO 00000KT 1/2SM FZFG VV001 M01/M01 A3029 RMK AO2 I1000 T10061006 RVRNO=
202412020812 SPECI KBLI 020812Z AUTO 00000KT 1/4SM FG VV001 01/01 A3030 RMK AO2 I1000 T00060006 RVRNO=
202412020753 METAR KBLI 020753Z AUTO 00000KT M1/4SM FG VV001 00/00 A3030 RMK AO2 SLP270 T00000000 401061011 RVRNO=
202412020706 SPECI KBLI 020706Z AUTO 00000KT M1/4SM FG VV001 00/00 A3029 RMK AO2 T00000000 RVRNO=
202412020657 SPECI KBLI 020657Z AUTO 00000KT 1/4SM FG VV002 00/00 A3029 RMK AO2 T00000000 RVRNO=
202412020653 METAR KBLI 020653Z AUTO 00000KT 4SM BR SCT002 M01/M01 A3029 RMK AO2 SLP266 T10061006=
202412020553 METAR KBLI 020553Z 00000KT 4SM BR SCT002 00/M01 A3027 RMK AO2 SLP260 T00001006 10078 21006 51004=
202412020540 SPECI KBLI 020540Z 00000KT 1/4SM FG VV002 00/00 A3027 RMK AO2 T00000000 RVRNO=
202412020535 SPECI KBLI 020535Z 00000KT 3/4SM BR VV003 M01/M01 A3027 RMK AO2 VIS 1/4V5 T10061006 RVRNO=
202412020531 SPECI KBLI 020531Z 00000KT 1 1/2SM BR CLR M01/M01 A3027 RMK AO2 VIS 3/4V5 T10061006=
202412020510 SPECI KBLI 020510Z 00000KT 1SM BR BKN002 01/01 A3027 RMK AO2 T00060006 RVRNO=
202412020500 SPECI KBLI 020500Z 00000KT 1/2SM FZFG BKN002 M01/M01 A3027 RMK AO2 T10061006 RVRNO=
202412020453 METAR KBLI 020453Z 00000KT 3SM BR SCT002 00/00 A3027 RMK AO2 SLP261 T00000000=
202412020435 SPECI KBLI 020435Z 00000KT 7SM SCT002 00/00 A3027 RMK AO2 T00000000=
202412020406 SPECI KBLI 020406Z 00000KT 7SM CLR 01/01 A3027 RMK AO2 T00110011=
202412020404 SPECI KBLI 020404Z 00000KT 1 3/4SM CLR 01/01 A3027 RMK AO2 VIS 1/2V5 T00060006=
202412020353 METAR KBLI 020353Z 00000KT 7SM CLR 00/00 A3027 RMK AO2 SLP259 T00000000=
202412020307 SPECI KBLI 020307Z 00000KT 7SM FEW002 01/01 A3026 RMK AO2 T00110011=
202412020255 SPECI KBLI 020255Z 00000KT 7SM CLR 01/01 A3026 RMK AO2 T00110011=
202412020253 METAR KBLI 020253Z 00000KT 3SM BR CLR 01/01 A3026 RMK AO2 SLP257 T00110011 53007=
202412020153 METAR KBLI 020153Z 00000KT 9SM CLR 02/02 A3025 RMK AO2 SLP252 T00220017=
202412020053 METAR KBLI 020053Z 00000KT 10SM CLR 03/02 A3025 RMK AO2 SLP253 T00280022=
202412012353 METAR KBLI 012353Z 30003KT 10SM CLR 08/05 A3024 RMK AO2 SLP250 T00780050 10106 20044 53002=
202412012253 METAR KBLI 012253Z 04003KT 10SM CLR 10/04 A3023 RMK AO2 SLP245 T01000044=
202412012153 METAR KBLI 012153Z 04008KT 10SM CLR 10/04 A3022 RMK AO2 SLP243 T01000044=
202412012053 METAR KBLI 012053Z 05006KT 10SM CLR 10/06 A3023 RMK AO2 SLP246 T01000056 58014=
202412011953 METAR KBLI 011953Z VRB05KT 10SM CLR 09/06 A3025 RMK AO2 SLP253 T00890056=
202412011853 METAR KBLI 011853Z 05006KT 10SM CLR 07/04 A3027 RMK AO2 SLP260 T00670044=
202412011753 METAR KBLI 011753Z 02005KT 10SM CLR 04/04 A3028 RMK AO2 SLP262 T00440039 10044 21006 53001=
202412011653 METAR KBLI 011653Z 00000KT 10SM CLR 02/02 A3028 RMK AO2 SLP262 T00170017=
202412011553 METAR KBLI 011553Z 01003KT 10SM SCT001 00/00 A3027 RMK AO2 SLP259 PRFG T00000000=
202412011540 SPECI KBLI 011540Z 00000KT 10SM SCT001 00/00 A3026 RMK AO2 PRFG T00000000=
202412011533 SPECI KBLI 011533Z 00000KT 10SM BKN001 00/00 A3026 RMK AO2 T00000000=
202412011529 SPECI KBLI 011529Z 00000KT 10SM SCT002 00/00 A3027 RMK AO2 T00000000=
202412011453 METAR KBLI 011453Z 00000KT 10SM CLR 01/01 A3027 RMK AO2 SLP260 T00060006 51005=
202412011448 SPECI KBLI 011448Z 00000KT 10SM CLR 01/01 A3027 RMK AO2=
202412011439 SPECI KBLI 011439Z 00000KT 3/4SM BR CLR M01/M01 A3027 RMK AO2 T10061006 RVRNO=
202412011423 SPECI KBLI 011423Z AUTO 01003KT 1 1/4SM BR CLR 01/01 A3027 RMK AO2 T00060006=
202412011411 SPECI KBLI 011411Z AUTO 00000KT 3/4SM BR CLR 01/01 A3027 RMK AO2 T00110011 RVRNO=
202412011353 METAR KBLI 011353Z AUTO 00000KT 1/2SM FG CLR 01/01 A3026 RMK AO2 SLP258 T00110011 RVRNO=
202412011333 SPECI KBLI 011333Z AUTO 00000KT 1/2SM FG CLR 01/01 A3026 RMK AO2 T00110011 RVRNO=
202412011326 SPECI KBLI 011326Z AUTO 00000KT 1 1/2SM BR CLR 02/02 A3026 RMK AO2 VIS 1V4 T00170017=
202412011309 SPECI KBLI 011309Z AUTO 00000KT 4SM BR CLR 02/02 A3026 RMK AO2 T00170017=
202412011301 SPECI KBLI 011301Z AUTO 02003KT 2SM BR CLR 01/01 A3026 RMK AO2 T00110011=
202412011253 METAR KBLI 011253Z AUTO 01004KT 3/4SM BR CLR 01/01 A3026 RMK AO2 SLP255 T00060006 RVRNO=
202412011242 SPECI KBLI 011242Z AUTO 02003KT 1/2SM FG CLR 01/01 A3026 RMK AO2 T00060006 RVRNO=
202412011219 SPECI KBLI 011219Z AUTO 00000KT 1 3/4SM BR CLR 01/01 A3026 RMK AO2 VIS 1V3 T00060006=
202412011153 METAR KBLI 011153Z AUTO 00000KT 6SM BR CLR 03/03 A3027 RMK AO2 SLP258 T00280028 10044 20017 56002=
202412011143 SPECI KBLI 011143Z AUTO 00000KT 2 1/2SM BR CLR 02/02 A3026 RMK AO2 T00170017=
202412011053 METAR KBLI 011053Z AUTO 02004KT 4SM BR CLR 02/02 A3027 RMK AO2 SLP259 T00220022=
202412011022 SPECI KBLI 011022Z AUTO 03004KT 4SM BR CLR 02/02 A3027 RMK AO2 T00170017=
202412011012 SPECI KBLI 011012Z AUTO 03004KT 2SM BR CLR 02/02 A3027 RMK AO2 T00170017=
202412010953 METAR KBLI 010953Z AUTO 00000KT 5SM BR CLR 02/02 A3027 RMK AO2 SLP259 T00220022=
202412010853 METAR KBLI 010853Z AUTO 01003KT 6SM BR CLR 03/03 A3027 RMK AO2 SLP260 T00330033 56006=
202412010753 METAR KBLI 010753Z AUTO 00000KT 6SM BR BKN100 04/03 A3028 RMK AO2 SLP261 T00390033 400670033=
202412010653 METAR KBLI 010653Z AUTO 00000KT 5SM BR BKN100 04/04 A3028 RMK AO2 SLP263 T00390039=
202412010620 SPECI KBLI 010620Z AUTO 04003KT 6SM BR SCT029 04/04 A3028 RMK AO2 T00390039=
202412010553 METAR KBLI 010553Z 01003KT 6SM BR OVC029 04/04 A3029 RMK AO2 SLP266 T00390039 10061 20039 53002=
202412010543 SPECI KBLI 010543Z 36003KT 6SM BR BKN029 OVC100 04/04 A3029 RMK AO2 T00390039=
202412010453 METAR KBLI 010453Z 02003KT 7SM BKN100 04/04 A3028 RMK AO2 SLP264 T00390039=
202412010353 METAR KBLI 010353Z 00000KT 10SM OVC110 06/04 A3028 RMK AO2 SLP264 T00560044=
202412010253 METAR KBLI 010253Z 00000KT 10SM OVC080 05/04 A3028 RMK AO2 SLP264 T00500044 51001=
202412010153 METAR KBLI 010153Z 00000KT 10SM OVC080 05/04 A3028 RMK AO2 SLP263 T00500044=
202412010053 METAR KBLI 010053Z 00000KT 10SM OVC080 06/04 A3028 RMK AO2 SLP264 T00560044=

# No short TAF reports from KBLI in databse.

###################################
#  large TAF from KBLI
###################################
202412312320 TAF KBLI 312320Z 0100/0124 02002KT P6SM SCT030 BKN200 FM010600
                       VRB03KT P6SM -SHRA BKN050 FM011400 08005KT
                       P6SM OVC035 FM012300 04006KT P6SM BKN050=
202412311723 TAF KBLI 311723Z 3118/0118 00000KT P6SM SCT030 OVC040 FM010300
                       05004KT P6SM BKN050 FM010600 VRB03KT P6SM
                       -SHRA BKN050 FM010900 05004KT P6SM -SHRA
                       OVC030=
202412311120 TAF KBLI 311120Z 3112/0112 00000KT P6SM SCT030 OVC040 FM311800
                       04006KT P6SM OVC035 FM010300 05004KT P6SM
                       BKN050 FM010600 VRB03KT P6SM -SHRA BKN050
                       FM010900 05004KT P6SM -SHRA OVC030=
202412310520 TAF KBLI 310520Z 3106/0106 00000KT P6SM OVC025 FM311800 04005KT
                       P6SM OVC035 FM010500 03004KT P6SM -SHRA
                       BKN050=
202412310310 KBLI 310310Z 3103/3124 00000KT P6SM BKN015 FM311500 07007KT P6SM
                       OVC025 FM312100 04005KT P6SM OVC035=
202412302324 TAF KBLI 302324Z 3100/3124 18006KT P6SM -SHRA BKN020 OVC030 FM310600
                       13005KT P6SM OVC025 FM310800 07003KT P6SM
                       OVC025 FM312100 04005KT P6SM OVC035=
202412301724 TAF KBLI 301724Z 3018/3118 18006KT P6SM -SHRA FEW025 BKN060 FM301900
                       16007KT P6SM -SHRA OVC025 FM310600 13005KT
                       P6SM OVC025 FM310900 04003KT P6SM OVC025=
202412301141 TAF KBLI 301141Z 3012/3112 18006KT P6SM FEW060 SCT110 FM301800
                       18006KT P6SM OVC025=
202412300520 TAF KBLI 300520Z 3006/3106 17006KT P6SM OVC050 FM300900 18003KT
                       P6SM OVC040 FM301800 18006KT P6SM OVC025=
202412292335 TAF KBLI 292335Z 3000/3024 17005KT 6SM -RA SCT015 OVC030 FM300700
                       18003KT 6SM BR OVC025 FM301800 18006KT P6SM
                       OVC025=
202412291737 TAF KBLI 291737Z 2918/3018 00000KT P6SM SCT010 OVC080 FM292200
                       VRB04KT 6SM -RA OVC040 FM301300 18005KT
                       P6SM OVC025=
202412291120 TAF KBLI 291120Z 2912/3012 02005KT P6SM FEW060 FM291500 02006KT
                       P6SM OVC050 FM291800 00000KT P6SM OVC030
                       FM292200 VRB04KT 6SM -RA OVC040=
202412290520 TAF KBLI 290520Z 2906/3006 17007KT P6SM OVC050 FM291000 14003KT
                       P6SM OVC035 FM291500 02006KT P6SM OVC050
                       FM292200 VRB04KT P6SM OVC040=
202412282333 TAF KBLI 282333Z 2900/2924 18010KT P6SM -SHRA SCT025 OVC060 FM290500
                       17007KT P6SM BKN050 FM291000 14003KT P6SM
                       OVC025 FM291500 02006KT P6SM OVC050=
202412281724 TAF KBLI 281724Z 2818/2918 17015G25KT 5SM RA BR BKN015 OVC030 FM282300
                       18010KT P6SM -SHRA OVC020 FM290500 17007KT
                       P6SM BKN050 FM291000 14003KT P6SM OVC025
                       FM291500 02006KT P6SM OVC050=
202412281123 TAF KBLI 281123Z 2812/2912 18015KT P6SM BKN020 OVC030 FM281400
                       14015G25KT P6SM -RA OVC025 FM281700 18010KT
                       P6SM -SHRA OVC015 FM282300 18006KT P6SM
                       -SHRA OVC022=
202412280520 TAF KBLI 280520Z 2806/2906 13012KT P6SM -RA OVC050 FM280800 14016G25KT
                       P6SM -RA OVC015 FM281700 18010KT P6SM -SHRA
                       OVC015 FM282300 18006KT P6SM -SHRA OVC022=
202412280258 KBLI 280258Z 2803/2824 13005KT 6SM -RA BR BKN015 OVC020 FM280400
                       13012KT P6SM -RA OVC015 FM280800 14016G25KT
                       P6SM -RA OVC015 FM281700 18010KT P6SM -SHRA
                       OVC015 FM282300 18006KT P6SM -SHRA OVC022=
202412280135 KBLI 280135Z 2802/2824 13005KT 2SM -RA BR BKN004 BKN015 FM280400
                       13012KT P6SM -RA OVC015 FM280800 14016G25KT
                       P6SM -RA OVC015 FM281700 18010KT P6SM -SHRA
                       OVC015 FM282300 18006KT P6SM -SHRA OVC022=
202412272320 TAF KBLI 272320Z 2800/2824 13005KT 6SM -RA BR OVC020 FM280400 13012KT
                       P6SM -RA OVC015 FM280800 14016G25KT P6SM
                       -RA OVC015 FM281700 18010KT P6SM -SHRA OVC015
                       FM282300 18006KT P6SM -SHRA OVC022=
202412271720 TAF KBLI 271720Z 2718/2818 02005KT P6SM VCSH BKN035 OVC040 FM272200
                       13006KT P6SM OVC025 FM280100 13009KT 6SM
                       -RA BR OVC020 FM280400 13012KT P6SM -RA
                       OVC015 FM280800 14016G25KT P6SM -RA OVC015
                       FM281700 18010G20KT P6SM -SHRA OVC015=
202412271131 TAF KBLI 271131Z 2712/2812 05007KT P6SM OVC050 FM271800 02005KT
                       P6SM VCSH BKN035 OVC040 FM272200 13006KT
                       P6SM OVC025 FM280100 13009KT 6SM -RA BR
                       OVC020 FM280400 13012KT P6SM -RA OVC015
                       FM280800 14016G25KT P6SM -RA OVC015=
202412270520 TAF KBLI 270520Z 2706/2806 18008KT P6SM FEW040 BKN060 FM270700
                       07010KT P6SM OVC050 FM271800 02005KT P6SM
                       BKN035 OVC040 FM272100 13006KT P6SM OVC025=
202412262322 TAF KBLI 262322Z 2700/2724 18008KT P6SM FEW040 BKN060 FM270700
                       07010KT P6SM OVC027 FM271800 02005KT P6SM
                       BKN035 OVC040 FM272100 13006KT P6SM OVC027=
202412262055 KBLI 262055Z 2621/2718 18006KT 6SM -SHRA BR SCT010 BKN020 OVC035
                       FM270000 15008KT P6SM -SHRA OVC035 FM270700
                       07010KT P6SM -SHRA OVC035 FM271500 05005KT
                       P6SM -RA BKN027 OVC035=
202412261922 KBLI 261922Z 2619/2718 19019G26KT 4SM -RA BR SCT010 BKN015 OVC020
                       FM262000 23015G23KT 6SM -SHRA BR OVC035
                       FM270000 15010G18KT P6SM -SHRA OVC035 FM270700
                       07010KT P6SM -SHRA OVC035 FM271500 05005KT
                       P6SM -RA BKN027 OVC035=
202412261811 KBLI 261811Z 2618/2718 19019G26KT P6SM -RA BKN027 OVC040 WS020/20045KT
                       TEMPO 2618/2620 2SM -RA BR FEW009 FM262000
                       23015G23KT 6SM -SHRA BR OVC035 FM270000
                       15010G18KT P6SM -SHRA OVC035 FM270700 07010KT
                       P6SM -SHRA OVC035 FM271500 05005KT P6SM
                       -RA BKN027 OVC035=
202412261734 TAF KBLI 261734Z 2618/2718 19019G26KT P6SM -RA BKN027 OVC040 WS020/20045KT
                       FM262000 23015G23KT 6SM -SHRA BR OVC035
                       FM270000 15010G18KT P6SM -SHRA OVC035 FM270700
                       07010KT P6SM -SHRA OVC035 FM271500 05005KT
                       P6SM -RA BKN027 OVC035=
202412261614 KBLI 261614Z 2616/2712 13023G34KT P6SM -RA BKN040 OVC060 WS020/20045KT
                       FM261700 11019G26KT P6SM -RA OVC020 FM262000
                       17008KT 6SM -RA BR OVC025 FM270000 15005KT
                       P6SM -SHRA OVC030 FM270700 07006KT P6SM
                       OVC025=
202412261535 KBLI 261535Z 2616/2712 13023G34KT P6SM -RA BKN040 OVC060 FM261700
                       11019G26KT P6SM -RA OVC020 FM262000 17008KT
                       6SM -RA BR OVC025 FM270000 15005KT P6SM
                       -SHRA OVC030 FM270700 07006KT P6SM OVC025=
202412261130 TAF KBLI 261130Z 2612/2712 11010KT P6SM -RA OVC040 FM261300 13023G34KT
                       P6SM -RA OVC030 FM261700 11019G26KT P6SM
                       -RA OVC020 FM262000 17008KT 6SM -RA BR OVC025
                       FM270000 15005KT P6SM -SHRA OVC030 FM270700
                       07006KT P6SM OVC025=
202412260525 TAF KBLI 260525Z 2606/2706 15010KT P6SM -RA OVC035 FM260900 13023G34KT
                       P6SM -RA OVC030 FM261500 11019G26KT P6SM
                       -RA OVC019 FM262000 17008G18KT 6SM -RA BR
                       OVC015=
202412252329 TAF KBLI 252329Z 2600/2624 15021G25KT P6SM -RA OVC070 FM260300
                       13019G29KT P6SM -SHRA OVC030 FM260900 13023G34KT
                       P6SM -RA OVC025 FM261500 11019G26KT P6SM
                       -RA OVC019 FM262000 17008G18KT 6SM -RA BR
                       OVC015=
202412252058 KBLI 252058Z 2521/2618 15021G33KT 6SM -RA BR OVC035 FM260300 13019G29KT
                       P6SM -SHRA OVC025 FM260900 13023G34KT P6SM
                       -RA OVC025=
202412251725 TAF KBLI 251725Z 2518/2618 16018G29KT P6SM -RA OVC040 FM252000
                       15021G33KT 4SM -RA BR OVC025 FM260300 13019G29KT
                       P6SM -SHRA OVC025 FM260900 13023G34KT P6SM
                       -RA OVC025=
202412251120 TAF KBLI 251120Z 2512/2612 17011G22KT P6SM SCT025 OVC080 FM251600
                       16018G27KT P6SM -RA OVC025 FM252000 15021G31KT
                       4SM -RA BR OVC025 FM260300 12023G33KT P6SM
                       OVC030=
202412250520 TAF KBLI 250520Z 2506/2606 20008KT P6SM VCSH SCT050 BKN120 FM250900
                       17011G22KT P6SM OVC035 FM251600 16015G24KT
                       P6SM -RA SCT025 OVC040 FM252000 15019G29KT
                       5SM -RA BR OVC025=
202412242330 TAF KBLI 242330Z 2500/2524 20008KT P6SM VCSH SCT050 BKN120 FM250900
                       17011G22KT P6SM OVC035 FM251600 16015G24KT
                       P6SM -RA SCT025 OVC040 FM252000 15019G29KT
                       5SM -RA BR OVC025=
202412241739 TAF KBLI 241739Z 2418/2518 19007KT P6SM VCSH SCT030 OVC050 FM242000
                       18010KT P6SM VCSH BKN050 BKN120 FM250900
                       17011G22KT P6SM OVC035 FM251600 16015G28KT
                       P6SM VCSH SCT025 OVC035=
202412241127 TAF KBLI 241127Z 2412/2512 20009KT P6SM VCSH OVC025 FM241400 16007KT
                       P6SM VCSH OVC030 FM241900 18010KT P6SM VCSH
                       BKN035 BKN050 FM250000 17006KT P6SM BKN040
                       FM250800 16011G22KT P6SM OVC025=
202412240558 KBLI 240558Z 2406/2506 14012G20KT P6SM -RA OVC050 FM241000 13015G25KT
                       P6SM -RA OVC035 FM241400 16012G18KT P6SM
                       -RA OVC030 FM241900 18010KT P6SM VCSH BKN035
                       BKN050 FM250000 17009KT P6SM BKN040=
202412240530 TAF KBLI 240530Z 2406/2506 06011KT P6SM -RA OVC050 FM241000 13015G25KT
                       P6SM -RA OVC035 FM241400 16012G18KT P6SM
                       -RA OVC030 FM241900 18010KT P6SM VCSH BKN035
                       BKN050 FM250000 17009KT P6SM BKN040=
202412232324 TAF KBLI 232324Z 2400/2424 05010KT P6SM OVC100 FM240500 09011KT
                       P6SM -RA OVC050 FM241100 13015G25KT P6SM
                       -RA OVC025 FM241400 16012G18KT P6SM -RA
                       OVC020 FM241900 18010KT P6SM VCSH BKN030
                       BKN050=
202412231724 TAF KBLI 231724Z 2318/2418 14010KT P6SM BKN040 FM232100 07007KT
                       P6SM BKN050 FM240000 05010G16KT P6SM BKN100
                       BKN200 FM240400 11011KT P6SM -RA OVC080
                       FM241100 15016G25KT P6SM -RA OVC025=
202412231120 TAF KBLI 231120Z 2312/2412 17010KT P6SM BKN035 FM232100 07007KT
                       P6SM BKN050 FM240000 05010G16KT P6SM BKN100
                       BKN200 FM240400 11011G21KT P6SM -RA OVC080=
202412230528 TAF KBLI 230528Z 2306/2406 18014G22KT 6SM -SHRA BR BKN030 OVC050
                       FM231000 17011KT P6SM VCSH BKN025 FM231600
                       16005KT P6SM BKN035 FM232100 07007KT P6SM
                       BKN050 FM240000 05010G16KT P6SM BKN100 BKN200
                       FM240500 11011KT P6SM OVC080=
202412222330 TAF KBLI 222330Z 2300/2324 05006KT P6SM -RA OVC060 FM230100 16013G23KT
                       6SM -SHRA BKN025 FM231500 16005KT P6SM OVC015
                       FM232100 07007KT P6SM BKN050=
202412221726 TAF KBLI 221726Z 2218/2318 11007KT P6SM SCT025 OVC035 FM221900
                       08011G21KT P6SM -RA OVC040 FM230100 16013G23KT
                       6SM -SHRA BKN025 FM231500 16005KT P6SM OVC015=
202412221124 TAF KBLI 221124Z 2212/2312 11007KT P6SM SCT025 OVC035 FM221900
                       08011G21KT P6SM -RA OVC040 FM230100 16013G23KT
                       6SM -SHRA BKN025=
202412220520 TAF KBLI 220520Z 2206/2306 15006KT P6SM FEW015 BKN050 FM221100
                       11007KT P6SM OVC050 FM221900 08011G21KT
                       P6SM -RA OVC040 FM230100 14013G21KT 6SM
                       -SHRA BKN035=
202412212328 TAF KBLI 212328Z 2200/2224 18008G19KT P6SM VCSH SCT022 BKN030 BKN040
                       TEMPO 2200/2204 -SHRA FM220400 17008KT P6SM
                       BKN050 FM221200 11009KT P6SM OVC050 FM222100
                       08011KT P6SM -RA OVC050=
202412211739 TAF KBLI 211739Z 2118/2218 06006KT P6SM -RA SCT070 OVC100 FM211900
                       17011G20KT 6SM -RA OVC050 FM220000 18006KT
                       P6SM -RA BKN050 FM220300 17004KT P6SM BKN050=
202412211120 TAF KBLI 211120Z 2112/2212 04007KT P6SM SCT080 FM211700 16012G22KT
                       P6SM -SHRA OVC040 FM220200 17009KT P6SM
                       BKN050=
202412210535 TAF KBLI 210535Z 2106/2206 04006KT P6SM SCT080 FM211300 04006KT
                       P6SM SCT080 BKN150 FM212100 16012G22KT P6SM
                       -SHRA OVC050=
202412202320 TAF KBLI 202320Z 2100/2124 04003KT P6SM -SHRA OVC070 FM210300 15008KT
                       P6SM FEW080 FM211200 08007KT P6SM OVC100
                       FM211700 16012G22KT P6SM -SHRA OVC050=
202412201720 TAF KBLI 201720Z 2018/2118 05009KT P6SM -SHRA OVC040 FM202300 10010KT
                       P6SM -SHRA OVC040 FM210300 15008KT P6SM
                       FEW080 FM211200 08007KT P6SM OVC100=
202412201120 TAF KBLI 201120Z 2012/2112 04009KT P6SM SCT025 FM201800 05008KT
                       P6SM -SHRA OVC040 FM202300 10010KT P6SM
                       -SHRA OVC040 FM210300 15008KT P6SM FEW080=
202412200539 TAF KBLI 200539Z 2006/2106 16015G25KT P6SM OVC020 FM200900 10006KT
                       P6SM BKN011 OVC020 FM201300 04006KT P6SM
                       SCT015 OVC040 FM201800 04006KT P6SM SCT050
                       OVC100 FM202300 15008KT P6SM OVC040=
202412200304 KBLI 200304Z 2003/2024 15015G25KT P6SM -RA OVC045 FM200900 10006KT
                       P6SM BKN013 OVC020 FM201300 05006KT P6SM
                       OVC050 FM201700 04004KT P6SM OVC050=
202412192320 TAF KBLI 192320Z 2000/2024 12010KT P6SM -RA OVC035 FM200300 15012G20KT
                       P6SM -RA OVC020 FM200900 10006KT P6SM BKN013
                       OVC020 FM201300 05006KT P6SM OVC050 FM201700
                       04004KT P6SM OVC050=
202412191727 TAF KBLI 191727Z 1918/2018 04010KT P6SM OVC050 FM192300 12010KT
                       P6SM -RA OVC035 FM200300 15012G20KT P6SM
                       -RA OVC020 FM200900 10006KT P6SM BKN013
                       OVC020 FM201300 05006KT P6SM OVC050=
202412191120 TAF KBLI 191120Z 1912/2012 04006KT P6SM -SHRA OVC040 FM192300 12010KT
                       P6SM -RA OVC035 FM200300 15012G20KT P6SM
                       -RA OVC020 FM200900 10006KT P6SM BKN013
                       OVC020=
202412190538 TAF KBLI 190538Z 1906/2006 00000KT P6SM SCT050 OVC150 FM191200
                       04006KT P6SM OVC060 FM191800 04006KT P6SM
                       -RA OVC040 FM200000 15008KT P6SM -RA OVC040=
202412182320 TAF KBLI 182320Z 1900/1924 15007KT P6SM BKN025 OVC050 FM190300
                       08003KT P6SM OVC100 FM190800 06007KT P6SM
                       OVC060 FM191500 04005KT P6SM OVC050=
202412181723 TAF KBLI 181723Z 1818/1918 17005KT P6SM BKN030 FM181900 15007KT
                       P6SM BKN050 FM190300 08003KT P6SM OVC100
                       FM190800 06007KT P6SM OVC060 FM191400 04005KT
                       P6SM OVC050=
202412181321 KBLI 181321Z 1813/1912 18020G35KT 5SM -SHRA BR OVC022 WS020/18045KT
                       TEMPO 1813/1815 3SM RA BR BKN006 FM181500
                       17010G18KT P6SM -SHRA OVC022 FM182100 15010KT
                       P6SM OVC050 FM190800 06007KT P6SM OVC060=
202412181120 TAF KBLI 181120Z 1812/1912 18020G35KT 5SM -SHRA BR OVC022 WS020/18045KT
                       FM181500 17010G18KT P6SM -SHRA OVC022 FM182100
                       15010KT P6SM OVC050 FM190800 06007KT P6SM
                       OVC060=
202412180858 KBLI 180858Z 1809/1906 17025G45KT 5SM RA BR OVC040 WS020/18045KT
                       FM181300 18020G35KT 5SM -RA BR OVC025 FM181500
                       17010KT P6SM -SHRA OVC030 FM182100 15005KT
                       P6SM OVC050=
202412180716 KBLI 180716Z 1807/1906 17025G37KT 5SM RA BR OVC018 WS020/18045KT
                       FM181300 18020G35KT 5SM -RA BR OVC025 FM181500
                       17010KT P6SM -SHRA OVC030 FM182100 15005KT
                       P6SM OVC050=
202412180520 TAF KBLI 180520Z 1806/1906 07006KT 4SM RA BR OVC025 FM180900 17025G37KT
                       5SM RA BR OVC018 WS020/18045KT FM181300
                       18020G35KT 5SM -RA BR OVC025 FM181500 17010KT
                       P6SM -SHRA OVC030 FM182100 15005KT P6SM
                       OVC050=
202412172327 TAF KBLI 172327Z 1800/1824 09010KT 6SM -RA BR OVC030 FM180200 13018G28KT
                       5SM -RA BR OVC018 WS020/18045KT FM180600
                       17025G37KT 5SM RA BR OVC018 WS020/18045KT
                       FM181300 18020G35KT 5SM -RA BR OVC025 FM181500
                       17010KT P6SM -RA OVC050=
202412171727 TAF KBLI 171727Z 1718/1818 10006KT P6SM OVC030 FM172000 09014G21KT
                       6SM -RA BR OVC025 FM180100 13018G28KT 5SM
                       -RA BR OVC018 WS020/18045KT FM180600 17025G37KT
                       5SM RA BR OVC018 FM181100 18020G35KT 5SM
                       -RA BR OVC025 FM181500 17010KT P6SM -RA
                       OVC050=
202412171122 TAF KBLI 171122Z 1712/1812 10006KT P6SM OVC040 FM172100 09014G21KT
                       6SM -RA BR OVC025 FM180100 13018G28KT 5SM
                       -RA BR OVC018 WS020/18045KT FM180600 17025G40KT
                       5SM RA BR OVC018 FM181100 18020G35KT 5SM
                       -RA BR OVC025=
202412170521 TAF KBLI 170521Z 1706/1806 03007KT P6SM OVC035 FM170800 04006KT
                       P6SM VCSH OVC040 FM171300 08011KT P6SM OVC040
                       FM172100 09014G21KT 6SM -RA BR OVC025 FM180100
                       13018G28KT 5SM -RA BR OVC018=
202412162331 TAF KBLI 162331Z 1700/1724 02006KT P6SM VCSH OVC030 FM170400 03005KT
                       P6SM OVC035 FM170800 04005KT P6SM OVC040
                       FM171300 08011KT P6SM OVC040 FM172100 09012G18KT
                       6SM RA BR OVC022=
202412161738 KBLI 161738Z 1618/1718 05010KT P6SM -RA SCT010 OVC025
                      TEMPO 1618/1620 2SM -RA BR OVC020 FM162000
                       08011KT P6SM VCSH OVC025 FM170100 03005KT
                       P6SM OVC030 FM170800 04004KT P6SM OVC040
                       FM171300 05007KT P6SM OVC040=
202412161723 TAF KBLI 161723Z 1618/1718 05010KT P6SM -RA SCT010 OVC025 FM162000
                       08011KT P6SM VCSH OVC025 FM170100 03005KT
                       P6SM OVC030 FM170800 04004KT P6SM OVC040
                       FM171300 05007KT P6SM OVC040=
202412161127 TAF KBLI 161127Z 1612/1712 04009KT P6SM VCSH BKN050 OVC100 FM161500
                       07010KT P6SM -RA OVC025 FM162000 08011KT
                       P6SM -RA OVC018 FM170100 03005KT P6SM OVC035
                       FM170800 04004KT P6SM OVC050=
202412160521 TAF KBLI 160521Z 1606/1706 03007KT P6SM BKN100 FM161100 04009KT
                       P6SM BKN050 OVC100 FM161600 07010KT P6SM
                       -RA OVC025 FM162000 08011KT P6SM -RA OVC018
                       FM170000 05005KT P6SM OVC015=
202412152326 TAF KBLI 152326Z 1600/1624 16009KT P6SM SCT040 SCT120 BKN200 FM160300
                       09006KT P6SM BKN100 FM161100 04009KT P6SM
                       BKN050 OVC100 FM161600 07010KT P6SM -RA
                       OVC025 FM162000 08011KT P6SM -RA OVC018=
202412151727 TAF KBLI 151727Z 1518/1618 17010G16KT P6SM SCT030 SCT200
                      TEMPO 1518/1520 BKN030 FM152200 16009KT P6SM
                       SCT040 SCT120 BKN200 FM160300 07008KT P6SM
                       BKN100 FM161100 04009KT P6SM BKN050 OVC100
                       FM161400 07010KT P6SM -RA OVC025=
202412151125 TAF KBLI 151125Z 1512/1612 19009G18KT P6SM VCSH SCT025 OVC040 FM151700
                       17008KT P6SM BKN025 FM152200 16007KT P6SM
                       BKN050 FM160300 07007KT P6SM BKN100 FM161100
                       04005KT P6SM BKN060=
202412150530 TAF KBLI 150530Z 1506/1606 21005KT P6SM VCSH FEW080 FM150700 17007KT
                       P6SM VCSH BKN035 FM151300 17009KT P6SM VCSH
                       OVC030 FM151900 17008KT P6SM BKN040 BKN080
                       FM160300 07007KT P6SM BKN100=
202412142324 TAF KBLI 142324Z 1500/1524 16020G30KT P6SM VCSH BKN035 BKN050 FM150300
                       17016G26KT P6SM VCSH BKN040 FM150700 17011KT
                       P6SM VCSH BKN035 FM151300 17009KT P6SM VCSH
                       OVC030 FM151900 17008KT P6SM BKN040 BKN080=
202412141731 TAF KBLI 141731Z 1418/1518 15025G40KT P6SM -SHRA SCT030 OVC050
                       FM142100 16024G33KT P6SM -SHRA OVC035 FM150300
                       17015G25KT P6SM -SHRA OVC035 FM150700 17011KT
                       P6SM VCSH BKN030 FM151300 17009KT P6SM OVC025=
202412141134 TAF KBLI 141134Z 1412/1512 14015G27KT P6SM -RA SCT040 OVC060 FM141500
                       13030G40KT P6SM -SHRA SCT030 OVC050 FM142100
                       16024G33KT P6SM -SHRA OVC025 FM150300 17014G25KT
                       P6SM -SHRA OVC035=
202412140520 TAF KBLI 140520Z 1406/1506 05007KT P6SM -SHRA BKN040 OVC050 FM140700
                       12013G22KT P6SM -SHRA SCT025 OVC030 FM141200
                       13015G25KT P6SM -SHRA SCT030 OVC050 FM141500
                       13030G40KT P6SM -SHRA SCT030 OVC050 FM142100
                       16024G33KT P6SM -SHRA SCT025 OVC050 FM150300
                       17014G25KT P6SM -SHRA OVC030=
202412132325 TAF KBLI 132325Z 1400/1424 05007KT P6SM -SHRA BKN045 OVC060 FM140600
                       12013G22KT P6SM -SHRA SCT025 OVC030 FM141200
                       13015G25KT P6SM -SHRA SCT030 OVC050 FM141500
                       13030G40KT P6SM -SHRA SCT030 OVC050 FM142100
                       16024G33KT P6SM -SHRA SCT025 OVC050=
202412131720 TAF KBLI 131720Z 1318/1418 06008KT P6SM BKN050 OVC080 FM132300
                       08009G19KT P6SM -SHRA OVC045 FM140400 12013G22KT
                       P6SM SCT025 OVC030 FM141200 13015G25KT P6SM
                       SCT030 OVC050 FM141500 13030G40KT P6SM SCT030
                       OVC050=
202412131141 TAF KBLI 131141Z 1312/1412 06003KT 5SM -RA BR OVC015 FM131300 08005KT
                       P6SM VCSH OVC040 FM132300 08009G19KT P6SM
                       -RA OVC045 FM140400 12013G22KT P6SM -RA
                       OVC030=
202412130523 TAF KBLI 130523Z 1306/1406 VRB03KT P6SM OVC015 FM130900 06003KT
                       5SM -RA BR OVC015 FM131300 08005KT 6SM BR
                       VCSH OVC020 FM131900 10008KT P6SM -RA OVC025
                       FM140400 12013G22KT P6SM -RA OVC030=
202412122338 TAF KBLI 122338Z 1300/1324 07005KT P6SM VCSH OVC035 FM130200 10004KT
                       P6SM -SHRA OVC020 FM130600 08003KT P6SM
                       OVC019=
202412121720 TAF KBLI 121720Z 1218/1318 03003KT P6SM BKN110 FM122200 07005KT
                       P6SM VCSH OVC035 FM130200 10004KT P6SM -SHRA
                       OVC020 FM130600 08003KT P6SM OVC019=
202412121137 TAF KBLI 121137Z 1212/1312 01004KT P6SM OVC060 FM121700 03003KT
                       P6SM OVC050 FM122200 07005KT P6SM VCSH OVC035
                       FM130200 10004KT P6SM -SHRA OVC020=
202412120520 TAF KBLI 120520Z 1206/1306 VRB03KT P6SM SCT100 BKN200 FM121000
                       01004KT P6SM OVC060 FM121700 03003KT P6SM
                       OVC050 FM122200 07005KT P6SM VCSH OVC030
                       FM130200 10004KT P6SM -SHRA OVC020=
202412112329 TAF KBLI 112329Z 1200/1224 00000KT P6SM SCT200 FM120300 VRB03KT
                       P6SM SCT100 BKN200 FM121000 01004KT P6SM
                       OVC060 FM121700 03003KT P6SM OVC050=
202412111720 TAF KBLI 111720Z 1118/1218 00000KT P6SM OVC150 FM112100 00000KT
                       P6SM SCT200 FM120100 VRB03KT P6SM SCT100
                       BKN200 FM121000 01004KT P6SM OVC060=
202412111138 TAF KBLI 111138Z 1112/1212 00000KT P6SM OVC150 FM112100 00000KT
                       P6SM SCT200 FM120100 VRB03KT P6SM SCT100
                       BKN200 FM121000 04006KT P6SM OVC060=
202412110520 TAF KBLI 110520Z 1106/1206 VRB03KT P6SM SCT100 SCT250 FM111200
                       VRB03KT P6SM BKN100 OVC250 FM111800 03004KT
                       P6SM SCT100 BKN200 FM120300 VRB03KT P6SM
                       SCT250=
202412102320 TAF KBLI 102320Z 1100/1124 34004KT P6SM SCT200 FM110400 VRB02KT
                       P6SM OVC100 FM111200 07003KT P6SM OVC200
                       FM111800 36004KT P6SM BKN200=
202412101720 TAF KBLI 101720Z 1018/1118 36004KT P6SM BKN200 FM102100 34004KT
                       P6SM SCT200 FM110400 VRB02KT P6SM OVC100=
202412101138 TAF KBLI 101138Z 1012/1112 36004KT 1SM BR SCT001 FM101500 36004KT
                       5SM BR SCT001 FM101700 02004KT P6SM BKN200=
202412100633 KBLI 100633Z 1007/1106 VRB03KT 6SM BCFG FEW003
                      TEMPO 1007/1009 1SM BR VV001 FM100900 VRB02KT
                       1SM BR BKN002 FM101700 36004KT 6SM BR SCT003
                       BKN200 FM102000 35005KT P6SM BKN200 FM110100
                       VRB03KT P6SM OVC200=
202412100520 TAF KBLI 100520Z 1006/1106 00000KT 6SM BCFG FEW003 FM100900 VRB02KT
                       1SM BR BKN002 FM101700 36004KT 6SM BR SCT003
                       BKN200 FM102000 35005KT P6SM BKN200 FM110100
                       VRB03KT P6SM OVC200=
202412092323 TAF KBLI 092323Z 1000/1024 01004KT P6SM SCT045 FM100700 00000KT
                       6SM BCFG FEW003 FM100900 VRB02KT 1SM BR
                       BKN002 FM101700 36004KT 6SM BR SCT003 BKN200
                       FM102000 35005KT P6SM BKN200=
202412091720 TAF KBLI 091720Z 0918/1018 VRB03KT P6SM BCFG SCT002 BKN040 FM092100
                       01004KT P6SM SCT040 FM100900 VRB02KT 1SM
                       BR BKN001 FM101700 36004KT 6SM BR SCT003=
202412091138 TAF KBLI 091138Z 0912/1012 VRB03KT P6SM OVC035
                      TEMPO 0912/0914 5SM -SHRA FM092200 01004KT
                       P6SM SCT040 FM100900 01004KT 1SM BR BKN001=
202412090520 TAF KBLI 090520Z 0906/1006 VRB03KT P6SM FEW010 BKN040 FM090800
                       VRB03KT P6SM SCT015 BKN025 FM091200 VRB03KT
                       P6SM BKN015 FM091700 VRB03KT P6SM SCT017
                       BKN035 FM092100 34005KT P6SM SCT040=
202412082333 TAF KBLI 082333Z 0900/0924 VRB03KT P6SM SCT025 BKN040 FM090700
                       VRB03KT P6SM SCT015 BKN025 FM091200 VRB03KT
                       P6SM BKN015 FM091700 VRB03KT P6SM SCT017
                       BKN035 FM092100 34005KT P6SM SCT040=
202412081727 TAF KBLI 081727Z 0818/0918 19006KT P6SM VCSH SCT022 BKN045 FM082100
                       22005KT P6SM VCSH SCT025 BKN050 FM090000
                       VRB03KT P6SM SCT025 BKN050 FM090800 VRB03KT
                       P6SM SCT012 OVC020=
202412081604 KBLI 081604Z 0816/0912 19008KT P6SM -SHRA BKN015 OVC030 FM082100
                       19008KT P6SM SCT015 BKN025 OVC040 FM090000
                       VRB03KT P6SM SCT025 BKN040 FM090800 VRB03KT
                       P6SM SCT012 OVC020=
202412081137 TAF KBLI 081137Z 0812/0912 19012G22KT P6SM -SHRA BKN015 OVC030
                       FM082100 19008KT P6SM SCT015 BKN025 OVC040
                       FM090000 VRB03KT P6SM SCT025 BKN040 FM090800
                       VRB03KT P6SM SCT012 OVC020=
202412080520 TAF KBLI 080520Z 0806/0906 19007KT P6SM FEW060 SCT100 FM080800
                       18013G21KT P6SM -RA BKN020 OVC030 FM081200
                       19011KT 6SM -RA BR OVC015 FM081800 18007KT
                       P6SM -RA BKN020 OVC040 FM082200 VRB04KT
                       P6SM BKN024=
202412072322 TAF KBLI 072322Z 0800/0824 20010KT P6SM VCSH OVC050 FM080800 18013G21KT
                       P6SM -RA BKN020 OVC030 FM081200 19011KT
                       6SM -RA BR OVC015 FM081800 18007KT P6SM
                       -RA BKN020 OVC040 FM082200 VRB04KT P6SM
                       BKN024=
202412071951 KBLI 071951Z 0720/0818 17012G18KT 6SM -SHRA SCT012 BKN030 FM080000
                       20012KT P6SM VCSH OVC050 FM080800 18013G21KT
                       P6SM -RA BKN020 OVC030 FM081200 19011KT
                       6SM -RA BR OVC015=
202412071739 TAF KBLI 071739Z 0718/0818 17012G18KT 6SM -SHRA SCT012 BKN040 FM080000
                       20012KT P6SM VCSH OVC050 FM080800 18013G21KT
                       P6SM -RA BKN020 OVC030 FM081200 19011KT
                       6SM -RA BR OVC015=
202412071140 TAF KBLI 071140Z 0712/0812 17012KT 5SM -RA BKN015 OVC025 FM080000
                       20012KT P6SM VCSH OVC050 FM080800 20012G18KT
                       P6SM -RA BKN020 OVC030=
202412070520 TAF KBLI 070520Z 0706/0806 16012G30KT P6SM VCSH OVC060 FM070700
                       15013G21KT P6SM -RA OVC050 FM071000 17012G18KT
                       6SM -RA OVC020 FM071900 18014G21KT 6SM RA
                       BR OVC011 FM080000 20010KT P6SM VCSH OVC050=
202412062320 TAF KBLI 062320Z 0700/0724 VRB04KT P6SM OVC100 FM070300 16011KT
                       P6SM VCSH OVC060 FM070700 15013G21KT P6SM
                       -RA OVC050 FM071000 17012G18KT 6SM -RA OVC020
                       FM071900 18014G21KT 6SM RA BR OVC011=
202412061728 TAF KBLI 061728Z 0618/0718 VRB04KT P6SM OVC100 FM070300 16011KT
                       P6SM VCSH OVC060 FM070700 15013G21KT P6SM
                       -RA OVC050 FM071000 17010G18KT 5SM -RA OVC020=
202412061140 TAF KBLI 061140Z 0612/0712 18002KT P6SM OVC040 FM061500 09001KT
                       P6SM OVC100 FM070300 16010G20KT P6SM VCSH
                       OVC060 FM070600 15015G25KT P6SM -RA OVC050
                       FM071000 17010G22KT 4SM -RA OVC015=
202412060520 TAF KBLI 060520Z 0606/0706 00000KT P6SM OVC050 FM061200 18002KT
                       P6SM OVC100 FM062000 15004KT P6SM OVC100=
202412052341 TAF KBLI 052341Z 0600/0624 03003KT P6SM BKN080 BKN110 FM060600
                       00000KT P6SM OVC050 FM061200 18002KT P6SM
                       OVC100=
202412051903 KBLI 051903Z 0519/0618 00000KT P6SM FEW001 FM052200 02003KT P6SM
                       VCSH OVC060 FM060600 16003KT 4SM BR OVC035
                       FM061200 34002KT 1/4SM FG VCSH OVC004=
202412051740 TAF KBLI 051740Z 0518/0618 03003KT 1/4SM FG VV001 FM052000 01004KT
                       P6SM OVC100 FM052200 02003KT P6SM VCSH OVC060
                       FM060600 16003KT 4SM BR OVC035 FM061200
                       34002KT 1/4SM FG VCSH OVC004=
202412051139 TAF KBLI 051139Z 0512/0612 03003KT 1/4SM FG OVC002 FM052000 01004KT
                       P6SM OVC100 FM052200 02003KT P6SM VCSH OVC060
                       FM060600 16003KT P6SM OVC035=
202412050526 TAF KBLI 050526Z 0506/0606 00000KT 1/4SM FG VV001 FM050900 05002KT
                       1/4SM FG OVC001 FM052000 01004KT P6SM OVC100
                       FM060400 VRB03KT 2SM BR OVC009=
202412050350 KBLI 050350Z 0504/0524 21003KT 1/4SM FG VV001 FM052100 01004KT
                       P6SM OVC100=
202412042327 TAF KBLI 042327Z 0500/0524 00000KT P6SM SKC FM050300 21003KT 1/2SM
                       FG OVC005 FM052100 01004KT P6SM OVC100=
202412041721 TAF KBLI 041721Z 0418/0518 00000KT P6SM SCT004 FM042000 35002KT
                       P6SM SKC FM050300 21003KT 1/2SM FG SCT005
                       SCT250=
202412041130 TAF KBLI 041130Z 0412/0512 00000KT 1/4SM FZFG VV001 FM041700 36003KT
                       P6SM BKN004 FM042000 35002KT P6SM SKC FM050300
                       21003KT 1/2SM FG SCT005 SCT250=
202412040716 KBLI 040716Z 0407/0506 00000KT 1/4SM FZFG VV002 FM041700 36003KT
                       P6SM SKC FM042100 36002KT P6SM FEW250=
202412040520 TAF KBLI 040520Z 0406/0506 00000KT P6SM SKC FM041000 00000KT 6SM
                       BR FEW250 FM041700 36003KT P6SM SKC FM042100
                       36002KT P6SM FEW250=
202412040406 KBLI 040406Z 0404/0424 00000KT 1/2SM FG VV002 FM041000 00000KT
                       6SM BR FEW250 FM041700 36003KT P6SM SKC
                       FM042100 36002KT P6SM FEW250=
202412032336 TAF KBLI 032336Z 0400/0424 00000KT P6SM SKC FM042100 36002KT 6SM
                       BR FEW250=
202412031734 TAF KBLI 031734Z 0318/0418 00000KT P6SM SCT010 FM032000 35003KT
                       6SM BR SCT004 SCT250 FM032200 35003KT P6SM
                       BKN250 FM041300 00000KT 3SM BR BKN004=
202412031128 TAF KBLI 031128Z 0312/0412 VRB03KT 1/4SM FZFG VV001 FM032000 35003KT
                       6SM BR SCT004 SCT250 FM032200 35003KT P6SM
                       BKN250 FM040300 VRB03KT 1SM BR OVC005 FM040600
                       00000KT 1/4SM FG BKN001=
202412030520 TAF KBLI 030520Z 0306/0406 VRB03KT 1/4SM FG VV002 FM032000 35003KT
                       P6SM SCT004 SCT250 FM032200 35003KT P6SM
                       BKN250 FM040300 VRB03KT 1SM BR OVC005=
202412030133 KBLI 030133Z 0302/0324 20003KT P6SM SCT002
                      TEMPO 0302/0303 1/4SM FG VV001 FM030300 00000KT
                       1/2SM FG BKN001 FM032100 35003KT P6SM SKC=
202412022337 TAF KBLI 022337Z 0300/0324 20003KT 1/4SM FG VV001 FM030300 00000KT
                       1/2SM FG BKN001 FM032100 35003KT P6SM SKC=
202412021948 KBLI 021948Z 0220/0318 00000KT 1/4SM FG VV001 FM022300 36003KT
                       P6SM BKN002 FM030000 VRB03KT 2SM BR BKN002
                       FM030300 00000KT 1/2SM FG BKN001=
202412021739 TAF KBLI 021739Z 0218/0318 00000KT 5SM BR BKN003 FM022000 00000KT
                       P6SM SCT004 SCT200 FM022300 36003KT P6SM
                       SCT200 FM030000 VRB03KT 2SM BR BKN002 FM030300
                       00000KT 1/2SM FG BKN001=
202412021351 KBLI 021351Z 0214/0312 00000KT 1/4SM FZFG VV001 FM021800 00000KT
                       5SM BR BKN003 FM022000 00000KT P6SM SCT004
                       SCT200 FM022300 36003KT P6SM SCT200 FM030600
                       VRB03KT 2SM BR BKN002=
202412021120 TAF KBLI 021120Z 0212/0312 00000KT 1/2SM FZFG VV001 FM021800 00000KT
                       5SM BR BKN003 FM022000 00000KT P6SM SCT004
                       SCT200 FM022300 36003KT P6SM SCT200 FM030600
                       VRB03KT 2SM BR BKN002=
202412020809 KBLI 020809Z 0208/0306 00000KT 1/4SM FZFG VV001 FM021900 00000KT
                       6SM BCFG SCT004 SCT250 FM022300 36002KT
                       P6SM FEW250 FM030300 VRB03KT P6SM SCT250=
202412020625 KBLI 020625Z 0206/0306 00000KT 3SM BR SCT002
                      TEMPO 0206/0210 1/2SM FZFG VV002 FM021000
                       00000KT 1/2SM FZFG VV001 FM021900 00000KT
                       6SM BCFG SCT004 SCT250 FM022300 36002KT
                       P6SM FEW250 FM030300 VRB03KT P6SM SCT250=
202412020520 TAF KBLI 020520Z 0206/0306 00000KT 1SM BR BKN002
                      TEMPO 0206/0210 1/2SM FZFG VV002 FM021400
                       00000KT 1/2SM FZFG OVC001 FM021900 00000KT
                       6SM BCFG SCT004 SCT250 FM022300 36002KT
                       P6SM FEW250 FM030300 VRB03KT P6SM SCT250=
202412012320 TAF KBLI 012320Z 0200/0224 35003KT P6SM SCT200 FM020900 00000KT
                       1SM BR SCT002 FM021400 00000KT 1/2SM FG
                       OVC001 FM021900 00000KT 6SM BCFG FEW002
                       FM022300 36002KT P6SM FEW010 SCT250=
202412011720 TAF KBLI 011720Z 0118/0218 36002KT P6SM BKN200 FM012000 35003KT
                       P6SM SCT200 FM020900 00000KT 1SM BR SCT002
                       FM021700 00000KT 6SM BR FEW002=
202412011554 KBLI 011554Z 0116/0212 02003KT 6SM BR SCT120 BKN200 FM011700 36002KT
                       P6SM BKN200 FM012000 35003KT P6SM SCT200
                       FM020900 00000KT 3SM BR SCT002=
202412011259 KBLI 011259Z 0113/0212 02003KT 4SM BR SCT120 BKN200
                      TEMPO 0113/0116 1/2SM FG FM011700 36002KT
                       P6SM BKN200 FM012000 35003KT P6SM SCT200
                       FM020900 00000KT 3SM BR SCT002=
202412011131 TAF KBLI 011131Z 0112/0212 02003KT 4SM BR SCT120 BKN200 FM011700
                       36002KT P6SM BKN200 FM012000 35003KT P6SM
                       SCT200 FM020900 00000KT 3SM BR SCT002=
202412010914 KBLI 010914Z 0109/0206 VRB03KT 6SM BR BKN200
                      TEMPO 0111/0115 3SM BR FM011700 36002KT P6SM
                       BKN200 FM012000 35003KT P6SM SCT025 BKN250=
202412010520 TAF KBLI 010520Z 0106/0206 03002KT P6SM SCT035 BKN100 FM010900
                       VRB03KT P6SM OVC030 FM011500 36002KT P6SM
                       OVC020 FM012000 35003KT P6SM SCT025 BKN250=