##########################################################
# Query made at 02/16/2025 23:59:45 UTC
# Time interval: from 07/01/2024 00:00  to 07/31/2024 23:59  UTC
##########################################################

##########################################################
# KBLI, Bellingham, Bellingham International Airport (United States)
# WMO index: -----. WIGOS ID: Unknown
# Latitude 48-47-58N. Longitude 122-32-21W. Altitude 48 m.
##########################################################

###################################
#  METAR/SPECI from KBLI
###################################
202407312353 METAR KBLI 312353Z VRB04KT 10SM CLR 24/16 A3006 RMK AO2 SLP185 T02390161 10239 20183 58005=
202407312253 METAR KBLI 312253Z VRB04KT 10SM CLR 23/17 A3007 RMK AO2 SLP188 T02330167=
202407312153 METAR KBLI 312153Z VRB03KT 10SM CLR 23/16 A3007 RMK AO2 SLP188 T02280161=
202407312053 METAR KBLI 312053Z 21005KT 10SM CLR 22/16 A3008 RMK AO2 SLP190 T02170161 50001=
202407311953 METAR KBLI 311953Z 17007KT 10SM FEW043 20/16 A3009 RMK AO2 SLP193 T02000156=
202407311853 METAR KBLI 311853Z VRB05KT 10SM CLR 19/16 A3008 RMK AO2 SLP191 T01940161=
202407311753 METAR KBLI 311753Z 18009G17KT 10SM SCT023 OVC043 19/16 A3007 RMK AO2 SLP189 T01890161 10189 20150 53006=
202407311653 METAR KBLI 311653Z 19008KT 10SM FEW042 BKN070 18/16 A3006 RMK AO2 SLP186 T01830156=
202407311553 METAR KBLI 311553Z 19007KT 10SM OVC042 17/16 A3006 RMK AO2 SLP184 T01720156=
202407311453 METAR KBLI 311453Z 18008KT 10SM OVC017 16/15 A3006 RMK AO2 SLP184 T01610150 53013=
202407311353 METAR KBLI 311353Z 19006KT 10SM FEW017 OVC043 16/15 A3004 RMK AO2 SLP179 T01560150=
202407311253 METAR KBLI 311253Z AUTO 19007KT 10SM FEW003 OVC044 15/15 A3003 RMK AO2 SLP174 T01500150=
202407311240 SPECI KBLI 311240Z AUTO 19004KT 10SM FEW003 BKN046 15/15 A3002 RMK AO2 T01500150=
202407311220 SPECI KBLI 311220Z AUTO 20004KT 10SM FEW021 BKN048 15/15 A3002 RMK AO2 T01500150=
202407311153 METAR KBLI 311153Z AUTO 19004KT 10SM OVC023 16/15 A3002 RMK AO2 SLP171 60000 70005 T01560150 10183 20156 53001=
202407311053 METAR KBLI 311053Z AUTO 20005KT 10SM FEW003 OVC028 16/16 A3002 RMK AO2 SLP170 T01560156=
202407311042 SPECI KBLI 311042Z AUTO 19005KT 10SM FEW003 BKN028 OVC032 16/16 A3002 RMK AO2 T01560156=
202407311008 SPECI KBLI 311008Z AUTO 19004KT 10SM FEW003 OVC034 16/16 A3002 RMK AO2 T01610156=
202407310953 METAR KBLI 310953Z AUTO 19004KT 10SM BKN033 16/16 A3002 RMK AO2 SLP170 T01610156=
202407310924 SPECI KBLI 310924Z AUTO 19003KT 10SM FEW007 SCT030 BKN036 16/16 A3001 RMK AO2 T01610161=
202407310853 METAR KBLI 310853Z AUTO 19003KT 10SM FEW006 BKN025 OVC030 17/17 A3002 RMK AO2 RAB12E22 SLP170 P0000 60000 T01670167 57003=
202407310753 METAR KBLI 310753Z AUTO 00000KT 10SM OVC025 18/18 A3002 RMK AO2 SLP171 T01780178 402060156=
202407310653 METAR KBLI 310653Z AUTO 00000KT 10SM BKN026 OVC034 18/18 A3002 RMK AO2 SLP172 T01830178=
202407310605 SPECI KBLI 310605Z AUTO 16003KT 10SM OVC028 18/17 A3003 RMK AO2 T01830172=
202407310553 METAR KBLI 310553Z AUTO 16003KT 10SM OVC032 18/17 A3002 RMK AO2 SLP173 T01830172 10206 20178 51006=
202407310453 METAR KBLI 310453Z 00000KT 10SM SCT046 BKN055 OVC070 18/17 A3002 RMK AO2 SLP172 T01830172=
202407310353 METAR KBLI 310353Z 24003KT 10SM OVC044 19/18 A3001 RMK AO2 SLP169 T01890178=
202407310253 METAR KBLI 310253Z 19003KT 10SM OVC046 20/17 A3001 RMK AO2 SLP167 T02000172 56002=
202407310153 METAR KBLI 310153Z 17004KT 10SM OVC055 20/17 A3001 RMK AO2 SLP167 T02000172=
202407310053 METAR KBLI 310053Z 18004KT 10SM SCT035 OVC065 20/17 A3001 RMK AO2 SLP167 T02000172=
202407310046 SPECI KBLI 310046Z 17004KT 10SM SCT024 OVC065 20/17 A3001 RMK AO2 T02000172=
202407302353 METAR KBLI 302353Z 19004KT 10SM SCT022 BKN029 OVC085 19/17 A3001 RMK AO2 SLP169 60001 T01940172 10200 20172 53000=
202407302314 SPECI KBLI 302314Z 22005KT 10SM FEW020 BKN029 OVC085 19/17 A3001 RMK AO2 T01940172=
202407302253 METAR KBLI 302253Z 20005KT 5SM HZ SCT029 BKN040 OVC090 20/17 A3001 RMK AO2 SLP168 T02000172=
202407302240 SPECI KBLI 302240Z 21004KT 5SM BR SCT027 OVC090 19/17 A3001 RMK AO2 T01940172=
202407302153 METAR KBLI 302153Z 20005KT 10SM SCT013 BKN017 OVC023 18/17 A3001 RMK AO2 SLP169 T01830167=
202407302053 METAR KBLI 302053Z VRB04KT 4SM BR FEW007 BKN016 OVC024 18/17 A3001 RMK AO2 RAB13E33 SLP169 P0000 60001 T01830172 51009=
202407302036 SPECI KBLI 302036Z VRB03KT 10SM OVC016 18/17 A3001 RMK AO2 RAB13E33 P0000 T01780172=
202407301953 METAR KBLI 301953Z VRB04KT 7SM BKN010 OVC020 17/17 A3001 RMK AO2 RAB1859E46 SLP168 P0001 T01720167=
202407301900 SPECI KBLI 301900Z 20005KT 3SM -RA BR BKN004 OVC012 17/17 A3000 RMK AO2 RAB1859 P0000 T01720172=
202407301853 METAR KBLI 301853Z 20008KT 170V230 2SM BR BKN004 BKN010 OVC020 17/17 A3000 RMK AO2 SLP163 T01720172=
202407301800 SPECI KBLI 301800Z 20008KT 2SM BR BKN004 BKN010 OVC026 17/17 A2999 RMK AO2 T01720172=
202407301753 METAR KBLI 301753Z 19007KT 2SM BR BKN006 BKN007 OVC013 17/17 A2998 RMK AO2 RAE27 SLP159 P0000 60004 T01720172 10172 20161 53005=
202407301653 METAR KBLI 301653Z 18005KT 2SM -RA BR BKN003 BKN009 OVC012 17/17 A2997 RMK AO2 RAE1555B27 SLP155 P0001 T01720172=
202407301645 SPECI KBLI 301645Z 19005KT 2SM BR SCT003 OVC012 17/17 A2997 RMK AO2 RAE1555B27E41 P0001 T01670167=
202407301553 METAR KBLI 301553Z 19005KT 2SM -RA BR OVC003 17/17 A2997 RMK AO2 SLP154 P0001 T01670167=
202407301453 METAR KBLI 301453Z 19003KT 2SM -RA BR BKN003 OVC034 17/17 A2996 RMK AO2 SLP151 P0001 60002 T01670167 51009=
202407301434 SPECI KBLI 301434Z 17003KT 2SM -RA BR SCT003 SCT006 OVC030 17/17 A2996 RMK AO2 P0001 T01670167=
202407301353 METAR KBLI 301353Z 00000KT 2SM -RA BR BKN002 BKN010 OVC028 16/16 A2995 RMK AO2 RAB25 SLP148 P0001 T01610161=
202407301343 SPECI KBLI 301343Z 00000KT 2 1/2SM -RA BR SCT002 BKN010 OVC028 16/16 A2995 RMK AO2 RAB25 P0000 T01610161=
202407301319 SPECI KBLI 301319Z AUTO 00000KT 4SM BR SCT002 OVC028 16/16 A2994 RMK AO2 T01610161=
202407301302 SPECI KBLI 301302Z AUTO 00000KT 6SM BR BKN002 OVC028 16/16 A2994 RMK AO2 T01610161=
202407301253 METAR KBLI 301253Z AUTO 21003KT 7SM SCT002 BKN029 OVC035 16/16 A2994 RMK AO2 SLP145 T01610161=
202407301244 SPECI KBLI 301244Z AUTO 00000KT 10SM FEW002 BKN028 OVC040 16/16 A2994 RMK AO2 T01610161=
202407301226 SPECI KBLI 301226Z AUTO 18004KT 10SM FEW002 SCT024 OVC044 16/16 A2993 RMK AO2 T01610161=
202407301205 SPECI KBLI 301205Z AUTO 17004KT 8SM SCT003 OVC026 16/16 A2993 RMK AO2 T01610161=
202407301153 METAR KBLI 301153Z AUTO 18005KT 10SM OVC026 16/16 A2993 RMK AO2 RAE12 SLP142 P0000 60015 70096 T01610161 10167 20156 53008=
202407301053 METAR KBLI 301053Z AUTO 19004KT 8SM -RA SCT021 OVC025 17/17 A2993 RMK AO2 RAB32 SLP139 P0001 T01670167=
202407301045 SPECI KBLI 301045Z AUTO 19005KT 4SM -RA BR BKN025 BKN034 OVC041 17/17 A2992 RMK AO2 RAB32 P0001 T01670167=
202407300953 METAR KBLI 300953Z AUTO 17006KT 10SM BKN050 OVC060 16/16 A2991 RMK AO2 SLP134 T01610161=
202407300853 METAR KBLI 300853Z AUTO 18006KT 10SM SCT002 BKN050 OVC060 16/16 A2991 RMK AO2 RAE0758 SLP133 P0000 60014 T01610161 50001=
202407300843 SPECI KBLI 300843Z AUTO 18006KT 10SM BKN002 OVC050 16/16 A2990 RMK AO2 RAE0758 P0000 T01610161=
202407300814 SPECI KBLI 300814Z AUTO 17007KT 4SM BR OVC001 16/16 A2991 RMK AO2 RAE0758 P0000 T01560156=
202407300806 SPECI KBLI 300806Z AUTO 18007KT 2 1/2SM BR OVC001 16/16 A2991 RMK AO2 RAE0758 P0000 T01610161=
202407300753 METAR KBLI 300753Z AUTO 18005KT 5SM -RA BR OVC002 16/16 A2991 RMK AO2 SLP133 P0008 T01610161 401780150=
202407300730 SPECI KBLI 300730Z AUTO VRB04KT 5SM -RA BR BKN002 OVC028 16/16 A2991 RMK AO2 P0007 T01610161=
202407300716 SPECI KBLI 300716Z AUTO 16007KT 3SM -RA BR FEW003 OVC028 16/16 A2991 RMK AO2 P0007 T01610161=
202407300700 SPECI KBLI 300700Z AUTO 18004KT 2SM RA BR FEW003 BKN020 OVC028 16/16 A2991 RMK AO2 P0004 T01610161=
202407300653 METAR KBLI 300653Z AUTO 18003KT 3SM -RA BR SCT003 BKN018 OVC033 16/16 A2991 RMK AO2 SLP135 P0006 T01610161=
202407300642 SPECI KBLI 300642Z AUTO 20004KT 3SM -RA BR SCT004 OVC017 16/16 A2991 RMK AO2 P0004 T01610161=
202407300626 SPECI KBLI 300626Z AUTO 20003KT 4SM -RA BR BKN004 BKN010 OVC017 17/17 A2991 RMK AO2 P0002 T01670167=
202407300603 SPECI KBLI 300603Z AUTO 00000KT 5SM -RA BR FEW005 BKN010 OVC036 17/17 A2991 RMK AO2 P0000 T01670167=
202407300553 METAR KBLI 300553Z AUTO VRB03KT 4SM -RA BR BKN025 OVC036 17/17 A2990 RMK AO2 RAE0459B18 SLP132 P0002 60025 T01670167 10167 20167 53006=
202407300453 METAR KBLI 300453Z 18005KT 6SM -RA BR OVC020 17/17 A2990 RMK AO2 RAE16B32 SLP130 P0002 T01670167=
202407300353 METAR KBLI 300353Z VRB03KT 6SM -RA BR SCT004 BKN017 OVC065 17/17 A2989 RMK AO2 RAE20B47 SLP128 P0000 T01670167=
202407300333 SPECI KBLI 300333Z 17005KT 5SM BR SCT004 BKN017 OVC065 17/17 A2989 RMK AO2 RAE20 P0000 T01670167=
202407300301 SPECI KBLI 300301Z 18006KT 4SM -RA BR SCT002 BKN012 OVC032 17/17 A2989 RMK AO2 P0000 T01670167=
202407300253 METAR KBLI 300253Z 18007KT 3SM -RA BR SCT002 BKN032 OVC080 17/17 A2989 RMK AO2 SLP126 P0008 60021 T01670167 58001=
202407300200 SPECI KBLI 300200Z 17007KT 3SM RA BR BKN004 OVC030 17/17 A2989 RMK AO2 P0003 T01670167=
202407300153 METAR KBLI 300153Z 18006KT 2 1/2SM RA BR SCT003 BKN012 OVC036 17/17 A2989 RMK AO2 SLP128 P0012 T01670167=
202407300120 SPECI KBLI 300120Z 17010KT 2 1/2SM -RA BR BKN002 OVC030 17/17 A2989 RMK AO2 P0002 T01670167=
202407300112 SPECI KBLI 300112Z 18006KT 4SM -RA BR BKN002 OVC034 17/17 A2989 RMK AO2 P0002 T01670167=
202407300105 SPECI KBLI 300105Z 18007KT 2 1/2SM -RA BR BKN002 OVC034 17/17 A2989 RMK AO2 VIS 2V4 P0001 T01670167=
202407300053 METAR KBLI 300053Z 18008KT 4SM -RA BR BKN003 BKN010 OVC034 17/17 A2989 RMK AO2 SLP127 P0001 T01670167=
202407292353 METAR KBLI 292353Z 18006KT 3SM -RA BR BKN003 BKN010 OVC034 17/17 A2989 RMK AO2 RAE18B35 SLP128 P0002 60013 T01670167 10178 20161 51002=
202407292343 SPECI KBLI 292343Z 18008KT 2 1/2SM -RA BR BKN004 OVC014 17/17 A2989 RMK AO2 RAE18B35 P0001 T01670167=
202407292253 METAR KBLI 292253Z 20005KT 4SM -RA BR BKN008 OVC016 17/17 A2989 RMK AO2 SLP128 P0002 T01670167=
202407292226 SPECI KBLI 292226Z 19005KT 4SM -RA BR BKN008 OVC016 17/17 A2989 RMK AO2 P0001 T01670167=
202407292200 SPECI KBLI 292200Z 18006KT 9SM -RA BKN017 BKN027 OVC032 17/17 A2989 RMK AO2 P0001 T01670167=
202407292153 METAR KBLI 292153Z VRB05G17KT 3SM -RA BR BKN012 BKN020 OVC032 17/17 A2989 RMK AO2 RAB04 SLP127 P0004 T01720167=
202407292146 SPECI KBLI 292146Z 19007KT 3SM -RA BR BKN012 BKN020 OVC032 17/17 A2989 RMK AO2 RAB04 P0004 T01720167=
202407292142 SPECI KBLI 292142Z 19007KT 2 1/2SM -RA BR FEW010 BKN020 OVC032 17/17 A2989 RMK AO2 RAB04 P0004 T01720167=
202407292114 SPECI KBLI 292114Z 19009G18KT 150V220 6SM -RA BR FEW010 BKN020 OVC032 17/16 A2988 RMK AO2 RAB04 P0000 T01720161=
202407292112 SPECI KBLI 292112Z 19009G18KT 8SM -RA SCT020 OVC035 17/16 A2988 RMK AO2 RAB04 P0000 T01720161=
202407292105 SPECI KBLI 292105Z 19009G18KT 10SM -RA BKN020 OVC035 17/16 A2988 RMK AO2 RAB04 P0000 T01720161=
202407292053 METAR KBLI 292053Z 20007KT 10SM FEW010 SCT017 BKN035 18/16 A2988 RMK AO2 RAE10 SLP125 P0001 60005 T01780161 53003=
202407291953 METAR KBLI 291953Z 18009KT 6SM -RA BR FEW005 SCT015 BKN025 17/16 A2987 RMK AO2 RAE29B51 SLP122 P0000 T01720161=
202407291925 SPECI KBLI 291925Z 17007KT 6SM -RA BR FEW005 BKN020 OVC045 17/17 A2988 RMK AO2 P0000 T01720167=
202407291901 SPECI KBLI 291901Z 18007KT 5SM -RA BR BKN009 OVC049 17/17 A2988 RMK AO2 P0000 T01670167=
202407291900 SPECI KBLI 291900Z 18006KT 5SM -RA BR SCT038 OVC049 17/17 A2988 RMK AO2 P0000 T01670167=
202407291853 METAR KBLI 291853Z 18006KT 4SM -RA BR BKN005 OVC037 17/16 A2988 RMK AO2 SLP125 P0004 T01670161=
202407291753 METAR KBLI 291753Z 19007KT 4SM -RA BR BKN005 OVC035 16/16 A2988 RMK AO2 SLP122 P0004 60043 T01610161 10167 20150 53001=
202407291653 METAR KBLI 291653Z 19005KT 3SM -RA BR BKN005 OVC035 16/16 A2987 RMK AO2 SLP121 P0008 T01610161=
202407291553 METAR KBLI 291553Z 16003KT 2SM -RA BR BKN005 OVC011 16/16 A2987 RMK AO2 SLP121 P0011 T01610161=
202407291521 SPECI KBLI 291521Z 18005KT 2SM -RA BR BKN005 OVC015 16/16 A2987 RMK AO2 P0006 T01560156=
202407291514 SPECI KBLI 291514Z 18005KT 1 3/4SM RA BR BKN005 BKN009 OVC015 16/16 A2987 RMK AO2 P0004 T01560156=
202407291504 SPECI KBLI 291504Z 17005KT 2SM -RA BR BKN005 OVC011 16/16 A2987 RMK AO2 P0002 T01560156=
202407291453 METAR KBLI 291453Z 17005KT 1 3/4SM RA BR BKN007 OVC011 15/15 A2987 RMK AO2 SLP122 P0011 60020 T01500150 53004=
202407291449 SPECI KBLI 291449Z 18005KT 1 3/4SM RA BR SCT007 OVC011 15/15 A2987 RMK AO2 P0010=
202407291436 SPECI KBLI 291436Z 19005KT 2SM -RA BR BKN007 OVC011 15/15 A2987 RMK AO2 P0007 T01500150=
202407291355 SPECI KBLI 291355Z 19005KT 3SM -RA BR BKN006 BKN011 OVC036 15/15 A2987 RMK AO2 P0000 T01500150=
202407291353 METAR KBLI 291353Z 19005KT 2 1/2SM -RA BR SCT006 BKN013 OVC036 15/15 A2987 RMK AO2 SLP120 P0006 T01500150=
202407291343 SPECI KBLI 291343Z 17004KT 2 1/2SM -RA BR FEW006 BKN022 OVC034 15/15 A2987 RMK AO2 P0005 T01500150=
202407291331 SPECI KBLI 291331Z AUTO 17007KT 3SM -RA BR FEW006 SCT022 OVC034 15/15 A2986 RMK AO2 P0004 T01500150=
202407291324 SPECI KBLI 291324Z AUTO 17006KT 4SM -RA BR FEW014 BKN024 OVC034 15/15 A2986 RMK AO2 P0004 T01500150=
202407291253 METAR KBLI 291253Z AUTO 18005KT 7SM -RA FEW042 OVC050 16/14 A2986 RMK AO2 SLP118 P0003 T01560144 $=
202407291153 METAR KBLI 291153Z AUTO 19006KT 10SM -RA OVC060 16/14 A2986 RMK AO2 RAB1057 SLP118 P0001 60001 70001 T01560139 10172 20156 56005 $=
202407291053 METAR KBLI 291053Z AUTO VRB04KT 10SM OVC065 16/14 A2987 RMK AO2 SLP120 T01610139 $=
202407290953 METAR KBLI 290953Z AUTO 19007KT 10SM BKN075 OVC085 17/13 A2987 RMK AO2 SLP121 T01670133 $=
202407290853 METAR KBLI 290853Z AUTO 19006KT 10SM OVC080 17/14 A2988 RMK AO2 SLP123 T01670139 $=
202407290753 METAR KBLI 290753Z AUTO 19008KT 10SM OVC085 17/13 A2987 RMK AO2 SLP122 T01720133 402000139=
202407290653 METAR KBLI 290653Z AUTO 18008KT 10SM BKN080 OVC120 17/13 A2988 RMK AO2 SLP123 T01720133=
202407290553 METAR KBLI 290553Z AUTO 18009KT 10SM BKN080 17/13 A2988 RMK AO2 SLP124 T01720133 10200 20167 51003=
202407290453 METAR KBLI 290453Z 18006KT 10SM CLR 17/13 A2988 RMK AO2 SLP124 T01720133=
202407290353 METAR KBLI 290353Z 18007G15KT 10SM CLR 17/13 A2987 RMK AO2 SLP122 T01720133=
202407290253 METAR KBLI 290253Z 17009G16KT 10SM CLR 18/13 A2987 RMK AO2 SLP120 T01780133 56006=
202407290153 METAR KBLI 290153Z 18007KT 10SM CLR 18/13 A2987 RMK AO2 SLP122 T01830133=
202407290053 METAR KBLI 290053Z 23008KT 10SM CLR 20/13 A2987 RMK AO2 SLP122 T02000128=
202407282353 METAR KBLI 282353Z 22009KT 10SM CLR 19/13 A2989 RMK AO2 SLP127 T01940128 10194 20161 56010=
202407282253 METAR KBLI 282253Z 19009G18KT 10SM CLR 19/13 A2990 RMK AO2 SLP129 T01890128=
202407282153 METAR KBLI 282153Z 20011G18KT 160V230 10SM FEW070 19/13 A2991 RMK AO2 SLP133 T01890128=
202407282053 METAR KBLI 282053Z 20006G17KT 10SM CLR 18/13 A2992 RMK AO2 SLP137 T01830128 58002=
202407281953 METAR KBLI 281953Z 21008G18KT 180V250 10SM FEW020 SCT080 18/13 A2992 RMK AO2 SLP138 T01780128=
202407281855 SPECI KBLI 281855Z 19009G18KT 170V260 10SM SCT020 BKN070 17/13 A2993 RMK AO2 T01670128=
202407281853 METAR KBLI 281853Z 19007G18KT 10SM CLR 17/13 A2993 RMK AO2 SLP140 T01720128=
202407281753 METAR KBLI 281753Z 20010G20KT 10SM FEW015 SCT019 BKN070 17/12 A2992 RMK AO2 SLP139 T01670122 10167 20139 50008=
202407281654 SPECI KBLI 281654Z 19008G19KT 10SM SCT012 BKN070 15/13 A2993 RMK AO2 T01500128=
202407281653 METAR KBLI 281653Z 19010G19KT 10SM BKN012 BKN070 15/13 A2993 RMK AO2 SLP142 T01500128=
202407281553 METAR KBLI 281553Z 19008G19KT 160V220 10SM FEW010 SCT020 SCT070 15/12 A2991 RMK AO2 SLP135 T01500122=
202407281453 METAR KBLI 281453Z 18012G19KT 10SM FEW010 BKN070 14/12 A2990 RMK AO2 SLP131 T01440122 51010=
202407281353 METAR KBLI 281353Z 18012G20KT 10SM FEW010 SCT100 14/12 A2989 RMK AO2 SLP129 T01390117=
202407281253 METAR KBLI 281253Z AUTO 17012G19KT 10SM BKN060 14/12 A2989 RMK AO2 SLP126 T01440117=
202407281153 METAR KBLI 281153Z AUTO 18010G21KT 10SM CLR 14/12 A2987 RMK AO2 SLP120 T01440117 10167 20144 53007=
202407281053 METAR KBLI 281053Z AUTO 18008G18KT 10SM CLR 15/11 A2985 RMK AO2 SLP114 T01500111=
202407280953 METAR KBLI 280953Z AUTO 17008KT 10SM CLR 15/12 A2985 RMK AO2 SLP114 T01500117=
202407280853 METAR KBLI 280853Z AUTO 18007KT 10SM CLR 15/12 A2985 RMK AO2 SLP113 T01500122 53003=
202407280753 METAR KBLI 280753Z AUTO 19008KT 10SM CLR 16/13 A2984 RMK AO2 SLP111 T01560128 402220122=
202407280653 METAR KBLI 280653Z AUTO 17006KT 10SM CLR 16/13 A2984 RMK AO2 SLP110 T01610128=
202407280553 METAR KBLI 280553Z AUTO 19008G15KT 10SM CLR 17/13 A2984 RMK AO2 SLP110 T01670133 10222 20167 53004=
202407280453 METAR KBLI 280453Z 18008G16KT 10SM CLR 18/13 A2983 RMK AO2 SLP108 T01780128=
202407280353 METAR KBLI 280353Z 18007KT 10SM CLR 18/12 A2983 RMK AO2 SLP105 T01830122=
202407280253 METAR KBLI 280253Z 18005KT 10SM CLR 19/13 A2983 RMK AO2 SLP106 T01890133 55007=
202407280153 METAR KBLI 280153Z 19004KT 10SM CLR 21/14 A2983 RMK AO2 SLP106 T02060139=
202407280053 METAR KBLI 280053Z 18006KT 10SM CLR 21/13 A2983 RMK AO2 SLP108 T02110133=
202407272353 METAR KBLI 272353Z 17008KT 10SM CLR 22/13 A2985 RMK AO2 SLP114 T02220133 10222 20167 56009=
202407272253 METAR KBLI 272253Z 00000KT 10SM FEW070 22/14 A2985 RMK AO2 SLP115 T02220139=
202407272153 METAR KBLI 272153Z 19005KT 10SM FEW060 21/14 A2986 RMK AO2 SLP118 T02110139=
202407272053 METAR KBLI 272053Z VRB06KT 10SM CLR 21/13 A2988 RMK AO2 SLP122 T02060133 58006=
202407271953 METAR KBLI 271953Z VRB05KT 10SM CLR 19/13 A2988 RMK AO2 SLP125 T01940133=
202407271853 METAR KBLI 271853Z 18006KT 10SM CLR 18/13 A2989 RMK AO2 SLP128 T01830128=
202407271753 METAR KBLI 271753Z 21006KT 10SM CLR 17/13 A2989 RMK AO2 SLP129 T01720128 10172 20122 58003=
202407271653 METAR KBLI 271653Z 22005KT 10SM FEW040 15/12 A2990 RMK AO2 SLP130 T01500122=
202407271553 METAR KBLI 271553Z 18005KT 10SM CLR 15/12 A2991 RMK AO2 SLP133 T01500117=
202407271453 METAR KBLI 271453Z 17007KT 10SM FEW025 14/12 A2990 RMK AO2 SLP131 T01390117 51004=
202407271353 METAR KBLI 271353Z 18003KT 10SM FEW025 13/12 A2990 RMK AO2 SLP131 T01330117=
202407271253 METAR KBLI 271253Z AUTO 21004KT 10SM CLR 12/12 A2990 RMK AO2 SLP129 T01220117=
202407271153 METAR KBLI 271153Z AUTO 20004KT 10SM CLR 13/12 A2989 RMK AO2 SLP127 T01280117 10161 20122 55002=
202407271053 METAR KBLI 271053Z AUTO 19004KT 10SM CLR 13/12 A2989 RMK AO2 SLP127 T01330122=
202407270953 METAR KBLI 270953Z AUTO 19004KT 10SM CLR 13/12 A2989 RMK AO2 SLP128 T01330117=
202407270853 METAR KBLI 270853Z AUTO 19005KT 10SM CLR 14/12 A2990 RMK AO2 SLP129 T01390117 58007=
202407270753 METAR KBLI 270753Z AUTO 18005KT 10SM CLR 15/12 A2991 RMK AO2 SLP133 T01500117 402330083=
202407270653 METAR KBLI 270653Z AUTO 18003KT 10SM CLR 16/13 A2991 RMK AO2 SLP135 T01560128=
202407270553 METAR KBLI 270553Z AUTO 20004KT 10SM CLR 16/13 A2992 RMK AO2 SLP136 60000 T01560133 10228 20150 56003=
202407270453 METAR KBLI 270453Z 19003KT 10SM CLR 15/12 A2992 RMK AO2 SLP137 T01500117=
202407270353 METAR KBLI 270353Z 00000KT 10SM CLR 17/12 A2992 RMK AO2 RAB39E49 SLP138 P0000 T01670122=
202407270253 METAR KBLI 270253Z 00000KT 10SM CLR 20/12 A2993 RMK AO2 SLP140 T02000122 56017=
202407270153 METAR KBLI 270153Z VRB03KT 10SM CLR 21/11 A2994 RMK AO2 SLP144 T02110111=
202407270053 METAR KBLI 270053Z 29007KT 10SM CLR 22/10 A2996 RMK AO2 SLP149 T02220100=
202407262353 METAR KBLI 262353Z 32008KT 10SM CLR 23/11 A2998 RMK AO2 SLP157 T02280106 10233 20172 56022=
202407262253 METAR KBLI 262253Z 31006KT 10SM CLR 22/09 A3000 RMK AO2 SLP164 T02220094=
202407262153 METAR KBLI 262153Z 30007KT 10SM CLR 22/11 A3002 RMK AO2 SLP172 T02220106=
202407262053 METAR KBLI 262053Z VRB04KT 10SM CLR 22/11 A3004 RMK AO2 SLP179 T02170111 58018=
202407261953 METAR KBLI 261953Z 21005KT 10SM CLR 21/12 A3007 RMK AO2 SLP188 T02060117=
202407261853 METAR KBLI 261853Z VRB04KT 10SM CLR 19/11 A3009 RMK AO2 SLP193 T01940111=
202407261753 METAR KBLI 261753Z 20004KT 10SM CLR 17/11 A3010 RMK AO2 SLP198 T01720106 10178 20083 58012=
202407261653 METAR KBLI 261653Z 23003KT 10SM CLR 17/11 A3011 RMK AO2 SLP202 T01670111=
202407261553 METAR KBLI 261553Z 00000KT 10SM CLR 16/11 A3012 RMK AO2 SLP206 T01610111=
202407261457 SPECI KBLI 261457Z 00000KT 10SM CLR 14/12 A3013 RMK AO2 T01440117=
202407261453 METAR KBLI 261453Z 00000KT 10SM CLR 14/12 A3013 RMK AO2 SLP209 T01440117 57001=
202407261353 METAR KBLI 261353Z 02004KT 10SM CLR 11/10 A3013 RMK AO2 SLP209 T01060100=
202407261253 METAR KBLI 261253Z AUTO 00000KT 10SM CLR 08/08 A3013 RMK AO2 SLP211 T00830078=
202407261153 METAR KBLI 261153Z AUTO 00000KT 10SM CLR 09/08 A3013 RMK AO2 SLP211 T00890083 10150 20083 56013=
202407261053 METAR KBLI 261053Z AUTO 00000KT 10SM CLR 09/09 A3015 RMK AO2 SLP214 T00940094=
202407260953 METAR KBLI 260953Z AUTO 00000KT 10SM CLR 10/10 A3016 RMK AO2 SLP218 T01000100=
202407260853 METAR KBLI 260853Z AUTO 00000KT 10SM CLR 11/11 A3017 RMK AO2 SLP223 T01060106 58008=
202407260753 METAR KBLI 260753Z AUTO 00000KT 10SM CLR 11/10 A3018 RMK AO2 SLP227 T01110100 401890106=
202407260653 METAR KBLI 260653Z AUTO 18004KT 10SM CLR 14/11 A3019 RMK AO2 SLP230 T01440111=
202407260553 METAR KBLI 260553Z AUTO 20005KT 10SM CLR 15/12 A3020 RMK AO2 SLP232 T01500117 10189 20150 58005=
202407260453 METAR KBLI 260453Z 18005KT 10SM CLR 16/11 A3020 RMK AO2 SLP233 T01560106=
202407260353 METAR KBLI 260353Z 19006KT 10SM CLR 16/11 A3021 RMK AO2 SLP235 T01610111=
202407260253 METAR KBLI 260253Z 18006KT 10SM CLR 17/11 A3021 RMK AO2 SLP237 T01720111 55007=
202407260153 METAR KBLI 260153Z 18008KT 10SM CLR 18/11 A3021 RMK AO2 SLP235 T01830111=
202407260053 METAR KBLI 260053Z 18009KT 10SM CLR 19/11 A3022 RMK AO2 SLP240 T01890106=
202407252353 METAR KBLI 252353Z 17010G17KT 10SM CLR 19/11 A3023 RMK AO2 SLP243 60000 T01890106 10189 20144 58004=
202407252253 METAR KBLI 252253Z 19008G19KT 10SM CLR 19/11 A3024 RMK AO2 SLP246 T01890106=
202407252153 METAR KBLI 252153Z 19009G18KT 10SM CLR 18/11 A3025 RMK AO2 SLP248 T01830106=
202407252053 METAR KBLI 252053Z 19010G19KT 160V220 10SM CLR 18/11 A3024 RMK AO2 RAE17 SLP248 P0000 60000 T01780111 51009=
202407251953 METAR KBLI 251953Z 17012G20KT 10SM -RA FEW060 18/11 A3024 RMK AO2 RAE1859B16 SLP245 P0000 T01780111=
202407251853 METAR KBLI 251853Z 16013G22KT 10SM -RA FEW050 OVC065 17/11 A3023 RMK AO2 SLP244 P0000 T01720111=
202407251753 METAR KBLI 251753Z 18011G17KT 10SM -RA SCT055 OVC070 14/12 A3022 RMK AO2 RAB33 SLP238 P0000 60000 T01440117 10150 20133 53017=
202407251653 METAR KBLI 251653Z 17010G20KT 10SM BKN055 OVC090 15/11 A3020 RMK AO2 SLP232 T01500111=
202407251553 METAR KBLI 251553Z 17011G20KT 10SM OVC060 14/11 A3019 RMK AO2 SLP227 T01440111=
202407251453 METAR KBLI 251453Z 18011G19KT 10SM BKN065 OVC095 14/11 A3017 RMK AO2 SLP221 T01390111 53015=
202407251353 METAR KBLI 251353Z 17006KT 10SM FEW039 BKN070 OVC100 14/11 A3014 RMK AO2 SLP214 T01390111=
202407251253 METAR KBLI 251253Z AUTO 17007KT 10SM BKN070 OVC100 14/11 A3013 RMK AO2 SLP210 T01390111=
202407251153 METAR KBLI 251153Z AUTO 19009KT 10SM BKN031 OVC100 14/12 A3012 RMK AO2 SLP207 T01390117 10156 20139 53007=
202407251133 SPECI KBLI 251133Z AUTO 19006KT 10SM OVC030 14/11 A3012 RMK AO2 T01390111=
202407251053 METAR KBLI 251053Z AUTO 18008KT 10SM OVC029 14/11 A3011 RMK AO2 SLP202 T01390111=
202407251039 SPECI KBLI 251039Z AUTO 18008KT 10SM BKN029 OVC095 14/11 A3011 RMK AO2 T01390111=
202407250953 METAR KBLI 250953Z AUTO 18005KT 10SM OVC090 14/11 A3011 RMK AO2 SLP201 T01390111=
202407250853 METAR KBLI 250853Z AUTO 19007G15KT 160V230 10SM SCT035 SCT044 OVC060 14/11 A3010 RMK AO2 SLP199 T01440111 51008=
202407250753 METAR KBLI 250753Z AUTO 20007G16KT 170V240 10SM SCT050 14/11 A3009 RMK AO2 SLP196 T01440106 402000106=
202407250710 SPECI KBLI 250710Z AUTO 20003KT 10SM FEW017 SCT024 SCT042 15/11 A3009 RMK AO2 T01500106=
202407250653 METAR KBLI 250653Z AUTO 22005KT 10SM BKN019 OVC024 16/10 A3009 RMK AO2 SLP194 T01560100=
202407250600 SPECI KBLI 250600Z AUTO 18008KT 10SM BKN018 16/11 A3008 RMK AO2 T01560106=
202407250553 METAR KBLI 250553Z AUTO 19008KT 10SM SCT020 16/10 A3008 RMK AO2 SLP191 T01560100 10194 20156 53008=
202407250453 METAR KBLI 250453Z 18006KT 10SM FEW070 17/11 A3007 RMK AO2 SLP187 T01670106=
202407250353 METAR KBLI 250353Z 19007KT 10SM OVC080 17/11 A3005 RMK AO2 SLP183 T01720106=
202407250253 METAR KBLI 250253Z 18009KT 10SM FEW060 SCT080 18/11 A3005 RMK AO2 SLP182 T01780111 58008=
202407250153 METAR KBLI 250153Z 18008KT 10SM OVC060 18/12 A3006 RMK AO2 SLP186 T01830117=
202407250053 METAR KBLI 250053Z 19010KT 10SM SCT065 SCT080 19/12 A3007 RMK AO2 SLP188 T01940117=
202407242353 METAR KBLI 242353Z 17010KT 10SM BKN060 19/12 A3008 RMK AO2 SLP190 T01940122 10200 20178 58004=
202407242253 METAR KBLI 242253Z 18012G20KT 10SM SCT060 BKN090 19/13 A3008 RMK AO2 SLP193 T01940133=
202407242153 METAR KBLI 242153Z 18008G17KT 10SM CLR 18/13 A3009 RMK AO2 SLP196 T01780133=
202407242053 METAR KBLI 242053Z 18009KT 10SM CLR 18/13 A3009 RMK AO2 SLP194 T01780133 53001=
202407241953 METAR KBLI 241953Z 22007KT 170V250 10SM CLR 18/13 A3009 RMK AO2 SLP194 T01830128=
202407241853 METAR KBLI 241853Z 19008KT 10SM CLR 18/12 A3009 RMK AO2 SLP194 T01780122=
202407241753 METAR KBLI 241753Z 17012G18KT 10SM SCT080 18/12 A3009 RMK AO2 SLP194 T01780117 10183 20106 53002=
202407241653 METAR KBLI 241653Z 19010G16KT 10SM CLR 17/11 A3008 RMK AO2 SLP190 T01670111=
202407241553 METAR KBLI 241553Z 18008KT 10SM CLR 15/11 A3009 RMK AO2 SLP194 T01500106=
202407241453 METAR KBLI 241453Z 18007KT 10SM OVC060 16/11 A3008 RMK AO2 SLP192 T01560106 51004=
202407241353 METAR KBLI 241353Z 00000KT 10SM BKN055 14/09 A3008 RMK AO2 SLP192 T01390094=
202407241253 METAR KBLI 241253Z AUTO 00000KT 10SM FEW085 14/09 A3008 RMK AO2 SLP191 T01390094=
202407241153 METAR KBLI 241153Z AUTO 19004KT 10SM CLR 14/09 A3007 RMK AO2 SLP188 T01390094 10156 20111 56002=
202407241053 METAR KBLI 241053Z AUTO 20005KT 10SM FEW090 14/09 A3007 RMK AO2 SLP189 T01390094=
202407240953 METAR KBLI 240953Z AUTO 19007KT 10SM CLR 14/10 A3007 RMK AO2 SLP188 T01440100=
202407240853 METAR KBLI 240853Z AUTO 20005KT 10SM FEW080 15/08 A3007 RMK AO2 SLP190 T01500083 53005=
202407240753 METAR KBLI 240753Z AUTO 00000KT 10SM CLR 13/10 A3007 RMK AO2 SLP187 T01280100 402220117=
202407240653 METAR KBLI 240653Z AUTO 00000KT 10SM CLR 14/10 A3006 RMK AO2 SLP184 T01440100=
202407240553 METAR KBLI 240553Z AUTO 00000KT 10SM CLR 14/12 A3006 RMK AO2 SLP185 T01390117 10222 20139 50000=
202407240453 METAR KBLI 240453Z 17004KT 10SM CLR 17/11 A3006 RMK AO2 SLP186 T01670111=
202407240353 METAR KBLI 240353Z 19005KT 10SM CLR 17/12 A3006 RMK AO2 SLP185 T01720117=
202407240253 METAR KBLI 240253Z 19003KT 10SM CLR 19/11 A3006 RMK AO2 SLP185 T01890111 56015=
202407240153 METAR KBLI 240153Z 18005KT 10SM CLR 19/11 A3007 RMK AO2 SLP189 T01940111=
202407240053 METAR KBLI 240053Z VRB03KT 10SM CLR 22/11 A3008 RMK AO2 SLP192 T02220106=
202407232353 METAR KBLI 232353Z VRB05KT 10SM CLR 22/10 A3010 RMK AO2 SLP199 T02220100 10222 20167 58016=
202407232253 METAR KBLI 232253Z VRB05KT 10SM CLR 22/10 A3012 RMK AO2 SLP205 T02170100=
202407232153 METAR KBLI 232153Z 21007KT 170V250 10SM CLR 22/11 A3014 RMK AO2 SLP211 T02170106=
202407232053 METAR KBLI 232053Z 25004KT 10SM CLR 21/11 A3015 RMK AO2 SLP215 T02060111 58016=
202407231953 METAR KBLI 231953Z VRB05KT 10SM CLR 19/11 A3017 RMK AO2 SLP221 T01940111=
202407231853 METAR KBLI 231853Z VRB06KT 10SM FEW090 18/10 A3019 RMK AO2 SLP228 T01780100=
202407231753 METAR KBLI 231753Z VRB06KT 10SM CLR 17/11 A3020 RMK AO2 SLP231 T01720111 10172 20122 58004=
202407231653 METAR KBLI 231653Z 19007KT 160V230 10SM CLR 16/11 A3021 RMK AO2 SLP235 T01560106=
202407231553 METAR KBLI 231553Z 23004KT 10SM SCT050 15/11 A3021 RMK AO2 SLP236 T01500106=
202407231453 METAR KBLI 231453Z 16008KT 10SM BKN040 14/10 A3021 RMK AO2 SLP235 T01440100 53003=
202407231353 METAR KBLI 231353Z 15006KT 10SM BKN045 14/10 A3021 RMK AO2 SLP234 T01390100=
202407231253 METAR KBLI 231253Z AUTO 17005KT 10SM FEW032 13/10 A3020 RMK AO2 SLP231 T01280100=
202407231153 METAR KBLI 231153Z AUTO 18004KT 10SM FEW033 12/10 A3020 RMK AO2 SLP232 T01220100 10150 20117 53004=
202407231053 METAR KBLI 231053Z AUTO 17005KT 10SM CLR 13/10 A3019 RMK AO2 SLP230 T01280100=
202407230953 METAR KBLI 230953Z AUTO 17005KT 10SM CLR 12/09 A3019 RMK AO2 SLP228 T01220094=
202407230853 METAR KBLI 230853Z AUTO 15008KT 10SM CLR 13/09 A3019 RMK AO2 SLP228 T01330094 53017=
202407230753 METAR KBLI 230753Z AUTO 15009G17KT 10SM CLR 14/09 A3017 RMK AO2 SLP222 T01390094 401940133=
202407230653 METAR KBLI 230653Z AUTO 13007KT 10SM CLR 14/09 A3015 RMK AO2 SLP217 T01390094=
202407230553 METAR KBLI 230553Z AUTO 17009G19KT 10SM CLR 15/09 A3014 RMK AO2 SLP212 T01500089 10189 20150 53012=
202407230453 METAR KBLI 230453Z 18010G18KT 10SM CLR 16/08 A3012 RMK AO2 SLP205 T01560083=
202407230353 METAR KBLI 230353Z 16015G21KT 10SM CLR 17/08 A3011 RMK AO2 SLP200 T01670083=
202407230253 METAR KBLI 230253Z 15014G21KT 10SM OVC090 17/08 A3010 RMK AO2 SLP200 T01720083 53001=
202407230153 METAR KBLI 230153Z 16015G25KT 10SM FEW090 18/09 A3010 RMK AO2 PK WND 16026/0133 SLP199 T01830089=
202407230053 METAR KBLI 230053Z 17012G24KT 10SM BKN080 19/11 A3010 RMK AO2 PK WND 15026/2354 SLP198 T01890106=
202407222353 METAR KBLI 222353Z 17017G26KT 10SM CLR 19/12 A3010 RMK AO2 PK WND 17026/2353 SLP199 T01890117 10194 20156 58001=
202407222253 METAR KBLI 222253Z 17012G23KT 10SM CLR 19/12 A3011 RMK AO2 SLP201 T01890122=
202407222153 METAR KBLI 222153Z 18015G22KT 10SM CLR 19/12 A3010 RMK AO2 SLP200 T01890122=
202407222053 METAR KBLI 222053Z 17016G24KT 10SM BKN040 BKN050 19/12 A3010 RMK AO2 PK WND 16026/2040 SLP199 T01890122 53005=
202407221955 SPECI KBLI 221955Z 17014G23KT 10SM BKN028 BKN040 18/12 A3009 RMK AO2 T01780122=
202407221953 METAR KBLI 221953Z 17014G23KT 10SM SCT019 BKN026 BKN031 18/12 A3009 RMK AO2 SLP196 T01780122=
202407221855 SPECI KBLI 221855Z 18010G24KT 10SM SCT019 BKN026 BKN031 17/12 A3009 RMK AO2 T01670122=
202407221853 METAR KBLI 221853Z 18014G24KT 10SM SCT026 BKN030 17/12 A3009 RMK AO2 SLP194 T01670122=
202407221753 METAR KBLI 221753Z 18015G23KT 10SM OVC024 16/13 A3009 RMK AO2 SLP194 T01560128 10167 20133 53006=
202407221653 METAR KBLI 221653Z 18009G20KT 10SM FEW013 FEW017 BKN023 16/13 A3008 RMK AO2 SLP190 T01610128=
202407221553 METAR KBLI 221553Z 17009KT 10SM OVC019 16/12 A3008 RMK AO2 SLP191 T01560122=
202407221453 METAR KBLI 221453Z 18008KT 10SM BKN016 15/12 A3007 RMK AO2 SLP188 T01500117 51005=
202407221353 METAR KBLI 221353Z 18003KT 10SM FEW013 14/12 A3007 RMK AO2 SLP187 T01440122=
202407221253 METAR KBLI 221253Z AUTO 15005KT 10SM CLR 14/12 A3007 RMK AO2 SLP187 T01390117=
202407221153 METAR KBLI 221153Z AUTO 14003KT 10SM CLR 14/12 A3005 RMK AO2 SLP183 T01440117 10167 20144 55000=
202407221053 METAR KBLI 221053Z AUTO 17005KT 10SM CLR 15/12 A3005 RMK AO2 SLP182 T01500122=
202407220953 METAR KBLI 220953Z AUTO 17008KT 10SM CLR 15/12 A3005 RMK AO2 SLP181 T01500122=
202407220853 METAR KBLI 220853Z AUTO 10SM CLR 16/12 A3006 RMK AO2 SLP184 T01560122 51006=
202407220753 METAR KBLI 220753Z AUTO 17004KT 10SM CLR 16/12 A3006 RMK AO2 SLP184 T01610117 402280150=
202407220653 METAR KBLI 220653Z AUTO 16006KT 10SM CLR 17/13 A3004 RMK AO2 SLP179 T01670128=
202407220553 METAR KBLI 220553Z AUTO 18008KT 10SM CLR 17/13 A3004 RMK AO2 SLP178 T01670133 10222 20161 53001=
202407220453 METAR KBLI 220453Z 20008KT 10SM CLR 17/14 A3004 RMK AO2 SLP179 T01670139=
202407220353 METAR KBLI 220353Z 19008G16KT 10SM CLR 18/15 A3003 RMK AO2 SLP175 T01780150=
202407220253 METAR KBLI 220253Z 19006KT 10SM CLR 19/15 A3003 RMK AO2 SLP176 T01890150 57008=
202407220153 METAR KBLI 220153Z 19007KT 10SM CLR 20/15 A3004 RMK AO2 SLP179 T02000150=
202407220053 METAR KBLI 220053Z 19007KT 10SM CLR 22/14 A3005 RMK AO2 SLP181 T02170144=
202407212353 METAR KBLI 212353Z 18009G16KT 10SM CLR 21/15 A3006 RMK AO2 SLP184 T02110150 10228 20178 53006=
202407212253 METAR KBLI 212253Z 18009G16KT 10SM CLR 21/16 A3005 RMK AO2 SLP180 T02060156=
202407212153 METAR KBLI 212153Z 18003KT 10SM CLR 22/16 A3004 RMK AO2 SLP176 T02220161=
202407212053 METAR KBLI 212053Z 29007KT 10SM FEW060 FEW075 SCT100 21/16 A3004 RMK AO2 SLP177 T02060161 58008=
202407211953 METAR KBLI 211953Z 18006KT 10SM CLR 18/15 A3009 RMK AO2 SLP196 T01780150=
202407211853 METAR KBLI 211853Z VRB04KT 10SM CLR 19/14 A3009 RMK AO2 SLP193 T01890144=
202407211753 METAR KBLI 211753Z 18009KT 10SM CLR 18/14 A3006 RMK AO2 SLP185 T01780144 10183 20150 53005=
202407211653 METAR KBLI 211653Z 17006KT 10SM CLR 17/14 A3005 RMK AO2 SLP180 T01670139=
202407211553 METAR KBLI 211553Z 20006KT 10SM CLR 17/14 A3005 RMK AO2 SLP179 T01670139=
202407211453 METAR KBLI 211453Z 18006KT 10SM CLR 17/14 A3005 RMK AO2 SLP180 T01670139 50011=
202407211353 METAR KBLI 211353Z 20008G17KT 170V230 10SM CLR 15/13 A3008 RMK AO2 SLP190 T01500133=
202407211253 METAR KBLI 211253Z AUTO 20006KT 10SM CLR 15/14 A3006 RMK AO2 SLP182 T01500139=
202407211153 METAR KBLI 211153Z AUTO 19004KT 10SM CLR 16/14 A3002 RMK AO2 SLP169 T01560144 10194 20150 53001=
202407211053 METAR KBLI 211053Z AUTO 00000KT 10SM CLR 16/14 A3000 RMK AO2 SLP162 T01560144=
202407210953 METAR KBLI 210953Z AUTO 19004KT 10SM CLR 17/14 A3000 RMK AO2 SLP165 T01670144=
202407210853 METAR KBLI 210853Z AUTO 18006KT 10SM CLR 17/14 A3001 RMK AO2 SLP168 T01720144 58002=
202407210753 METAR KBLI 210753Z AUTO 19005KT 10SM CLR 17/15 A3002 RMK AO2 SLP169 T01720150 402830122=
202407210653 METAR KBLI 210653Z AUTO 18005KT 10SM CLR 18/15 A3002 RMK AO2 SLP171 T01830150=
202407210553 METAR KBLI 210553Z AUTO 19008KT 10SM CLR 19/15 A3002 RMK AO2 SLP170 T01940150 10283 20194 53002=
202407210453 METAR KBLI 210453Z 20005KT 10SM CLR 20/16 A3002 RMK AO2 SLP170 T02000156=
202407210353 METAR KBLI 210353Z 20003KT 10SM CLR 21/16 A3001 RMK AO2 SLP168 T02110156=
202407210253 METAR KBLI 210253Z 19003KT 10SM CLR 24/16 A3002 RMK AO2 SLP169 T02440156 56013=
202407210153 METAR KBLI 210153Z VRB03KT 10SM CLR 27/12 A3002 RMK AO2 SLP170 T02670117=
202407210053 METAR KBLI 210053Z 27005KT 10SM CLR 28/13 A3003 RMK AO2 SLP173 T02780133=
202407202353 METAR KBLI 202353Z 30004KT 10SM CLR 28/13 A3005 RMK AO2 SLP182 T02830133 10283 20217 58019=
202407202253 METAR KBLI 202253Z 10SM CLR 28/14 A3008 RMK AO2 SLP190 T02780139=
202407202153 METAR KBLI 202153Z VRB05KT 10SM CLR 27/14 A3009 RMK AO2 SLP194 T02720144=
202407202053 METAR KBLI 202053Z VRB06KT 10SM CLR 27/13 A3011 RMK AO2 SLP201 T02670133 58013=
202407201953 METAR KBLI 201953Z VRB04KT 10SM CLR 24/15 A3013 RMK AO2 SLP206 T02440150=
202407201853 METAR KBLI 201853Z VRB04KT 10SM CLR 23/17 A3014 RMK AO2 SLP210 T02330167=
202407201753 METAR KBLI 201753Z VRB04KT 10SM CLR 22/16 A3015 RMK AO2 SLP214 T02170161 10222 20122 58002=
202407201653 METAR KBLI 201653Z 23004KT 10SM CLR 21/16 A3015 RMK AO2 SLP215 T02060156=
202407201553 METAR KBLI 201553Z VRB03KT 10SM CLR 19/15 A3015 RMK AO2 SLP215 T01940150=
202407201453 METAR KBLI 201453Z 18003KT 10SM CLR 17/14 A3015 RMK AO2 SLP215 T01720144 53003=
202407201353 METAR KBLI 201353Z AUTO 19003KT 10SM CLR 16/14 A3015 RMK AO2 SLP214 T01610144=
202407201253 METAR KBLI 201253Z AUTO 00000KT 10SM CLR 14/13 A3014 RMK AO2 SLP212 T01390133=
202407201153 METAR KBLI 201153Z AUTO 00000KT 10SM CLR 12/12 A3014 RMK AO2 SLP213 T01220122 10167 20122 56001=
202407201053 METAR KBLI 201053Z AUTO 20003KT 10SM CLR 14/13 A3014 RMK AO2 SLP213 T01390133=
202407200953 METAR KBLI 200953Z AUTO 20004KT 10SM CLR 16/14 A3014 RMK AO2 SLP212 T01560144=
202407200853 METAR KBLI 200853Z AUTO 18004KT 10SM CLR 17/15 A3015 RMK AO2 SLP213 T01670150 51003=
202407200753 METAR KBLI 200753Z AUTO 19004KT 10SM CLR 17/15 A3014 RMK AO2 SLP213 T01670150 402440144=
202407200653 METAR KBLI 200653Z AUTO 00000KT 10SM CLR 16/14 A3014 RMK AO2 SLP214 T01560144=
202407200553 METAR KBLI 200553Z AUTO 00000KT 10SM CLR 16/15 A3014 RMK AO2 SLP211 T01610150 10239 20161 53003=
202407200453 METAR KBLI 200453Z 18006KT 10SM CLR 19/15 A3013 RMK AO2 SLP210 T01890150=
202407200353 METAR KBLI 200353Z 18006KT 10SM CLR 19/15 A3012 RMK AO2 SLP206 T01940150=
202407200253 METAR KBLI 200253Z 18003KT 10SM CLR 21/16 A3013 RMK AO2 SLP207 T02110156 56009=
202407200153 METAR KBLI 200153Z 20005KT 10SM CLR 23/13 A3013 RMK AO2 SLP207 T02330133=
202407200053 METAR KBLI 200053Z 19005KT 10SM CLR 24/12 A3014 RMK AO2 SLP210 T02390122=
202407192353 METAR KBLI 192353Z 19005KT 10SM CLR 24/12 A3016 RMK AO2 SLP216 T02390122 10244 20183 58010=
202407192253 METAR KBLI 192253Z VRB04KT 10SM CLR 24/12 A3017 RMK AO2 SLP221 T02390117=
202407192153 METAR KBLI 192153Z VRB04KT 10SM CLR 23/13 A3018 RMK AO2 SLP226 T02280128=
202407192053 METAR KBLI 192053Z 18012KT 10SM CLR 22/14 A3019 RMK AO2 SLP226 T02220144 58002=
202407191953 METAR KBLI 191953Z 17011G17KT 10SM CLR 21/14 A3019 RMK AO2 SLP229 T02060144=
202407191853 METAR KBLI 191853Z 19008G16KT 10SM CLR 19/14 A3020 RMK AO2 SLP231 T01940144=
202407191807 SPECI KBLI 191807Z 18007G14KT 10SM CLR 19/14 A3019 RMK AO2 T01890139=
202407191753 METAR KBLI 191753Z 21008G17KT 10SM CLR 19/14 A3019 RMK AO2 SLP230 T01890139 10189 20156 51007=
202407191653 METAR KBLI 191653Z 19007KT 10SM CLR 18/14 A3019 RMK AO2 SLP228 T01780139=
202407191553 METAR KBLI 191553Z 18007G16KT 10SM CLR 17/14 A3018 RMK AO2 SLP226 T01670139=
202407191453 METAR KBLI 191453Z 18009KT 10SM CLR 17/14 A3017 RMK AO2 SLP223 T01670139 53014=
202407191353 METAR KBLI 191353Z 18007KT 10SM CLR 16/13 A3016 RMK AO2 SLP218 T01610133=
202407191253 METAR KBLI 191253Z AUTO 21003KT 10SM CLR 16/13 A3014 RMK AO2 SLP211 T01560128=
202407191153 METAR KBLI 191153Z AUTO 16007KT 10SM CLR 16/13 A3013 RMK AO2 SLP208 T01560128 10178 20150 53008=
202407191053 METAR KBLI 191053Z AUTO 18003KT 10SM CLR 16/13 A3012 RMK AO2 SLP204 T01560128=
202407190953 METAR KBLI 190953Z AUTO 18003KT 10SM CLR 16/13 A3011 RMK AO2 SLP200 T01560128=
202407190853 METAR KBLI 190853Z AUTO 18004KT 10SM CLR 17/13 A3011 RMK AO2 SLP199 T01670133 51013=
202407190753 METAR KBLI 190753Z AUTO 18006KT 10SM CLR 17/14 A3010 RMK AO2 SLP196 T01670139 402220156=
202407190653 METAR KBLI 190653Z AUTO 17006KT 10SM CLR 17/13 A3009 RMK AO2 SLP192 T01720133=
202407190553 METAR KBLI 190553Z AUTO 19009G18KT 10SM CLR 18/14 A3007 RMK AO2 SLP188 T01780144 10211 20178 53014=
202407190453 METAR KBLI 190453Z 17009G18KT 10SM CLR 19/14 A3005 RMK AO2 SLP181 T01940139=
202407190353 METAR KBLI 190353Z 18011KT 10SM CLR 20/14 A3004 RMK AO2 SLP178 T02000139=
202407190253 METAR KBLI 190253Z 19011G20KT 10SM CLR 20/14 A3003 RMK AO2 SLP174 T02000139 53001=
202407190153 METAR KBLI 190153Z 18011G19KT 10SM CLR 20/14 A3002 RMK AO2 SLP170 T02000144=
202407190053 METAR KBLI 190053Z 18007KT 10SM CLR 21/14 A3002 RMK AO2 SLP170 T02060139=
202407182353 METAR KBLI 182353Z 19010G17KT 10SM CLR 21/14 A3002 RMK AO2 SLP173 T02060144 10222 20189 58012=
202407182253 METAR KBLI 182253Z 20007KT 10SM CLR 22/15 A3004 RMK AO2 SLP176 T02170150=
202407182153 METAR KBLI 182153Z 19011G16KT 10SM CLR 22/14 A3005 RMK AO2 SLP180 T02220144=
202407182053 METAR KBLI 182053Z 18009G17KT 150V220 10SM CLR 22/15 A3006 RMK AO2 SLP183 T02220150 58004=
202407181953 METAR KBLI 181953Z 18009KT 10SM CLR 21/14 A3006 RMK AO2 SLP185 T02110144=
202407181853 METAR KBLI 181853Z 18010KT 10SM CLR 20/14 A3007 RMK AO2 SLP187 T02000144=
202407181753 METAR KBLI 181753Z 19008KT 10SM CLR 19/14 A3007 RMK AO2 SLP188 T01890144 10189 20156 58001=
202407181653 METAR KBLI 181653Z 19007KT 10SM CLR 18/14 A3008 RMK AO2 SLP189 T01780139=
202407181553 METAR KBLI 181553Z 18007KT 160V230 10SM CLR 17/14 A3007 RMK AO2 SLP189 T01720139=
202407181453 METAR KBLI 181453Z 19009G14KT 10SM CLR 17/14 A3007 RMK AO2 SLP188 T01670139 51009=
202407181353 METAR KBLI 181353Z 18005KT 10SM CLR 16/14 A3007 RMK AO2 SLP186 T01560139=
202407181253 METAR KBLI 181253Z AUTO 18007KT 10SM CLR 16/14 A3006 RMK AO2 SLP183 T01560144=
202407181153 METAR KBLI 181153Z AUTO 18007KT 10SM CLR 16/14 A3005 RMK AO2 SLP180 T01560139 10200 20156 53016=
202407181053 METAR KBLI 181053Z AUTO 18009KT 10SM CLR 16/14 A3003 RMK AO2 SLP173 T01610144=
202407180953 METAR KBLI 180953Z AUTO 18010G17KT 10SM CLR 17/14 A3001 RMK AO2 SLP168 T01670144=
202407180853 METAR KBLI 180853Z AUTO 17011G21KT 10SM CLR 17/14 A3000 RMK AO2 SLP164 T01720144 51012=
202407180753 METAR KBLI 180753Z AUTO 18009G21KT 10SM CLR 18/14 A2999 RMK AO2 SLP161 T01830139 402610133=
202407180653 METAR KBLI 180653Z AUTO 17012G22KT 10SM CLR 19/13 A2998 RMK AO2 SLP157 T01890133=
202407180553 METAR KBLI 180553Z AUTO 18010G19KT 10SM CLR 19/14 A2997 RMK AO2 SLP152 T01940139 10233 20194 53007=
202407180453 METAR KBLI 180453Z 18009KT 10SM CLR 19/16 A2996 RMK AO2 SLP151 T01940156=
202407180353 METAR KBLI 180353Z VRB05KT 10SM CLR 21/16 A2995 RMK AO2 SLP145 T02060161=
202407180253 METAR KBLI 180253Z 20006KT 10SM CLR 22/16 A2994 RMK AO2 SLP144 T02220161 53002=
202407180153 METAR KBLI 180153Z 18009KT 10SM CLR 23/14 A2994 RMK AO2 SLP142 T02280144=
202407180053 METAR KBLI 180053Z 19010G18KT 10SM CLR 22/16 A2994 RMK AO2 SLP142 T02220156=
202407172353 METAR KBLI 172353Z 19006KT 10SM CLR 23/16 A2994 RMK AO2 SLP142 T02280156 10261 20228 55007=
202407172253 METAR KBLI 172253Z 21006KT 10SM CLR 25/16 A2993 RMK AO2 SLP140 T02500156=
202407172153 METAR KBLI 172153Z 19005KT 10SM CLR 25/16 A2994 RMK AO2 SLP144 T02500161=
202407172053 METAR KBLI 172053Z 18006KT 10SM CLR 24/15 A2996 RMK AO2 SLP148 T02390150 55000=
202407171953 METAR KBLI 171953Z VRB05KT 10SM CLR 24/16 A2995 RMK AO2 SLP148 T02440161=
202407171853 METAR KBLI 171853Z VRB04KT 10SM CLR 26/16 A2995 RMK AO2 SLP147 T02610156=
202407171753 METAR KBLI 171753Z 23004KT 10SM CLR 24/15 A2996 RMK AO2 SLP149 T02390150 10239 20133 58003=
202407171653 METAR KBLI 171653Z 16004KT 10SM CLR 22/16 A2997 RMK AO2 SLP152 T02220156=
202407171553 METAR KBLI 171553Z 17007KT 10SM CLR 20/15 A2997 RMK AO2 SLP153 T02000150=
202407171453 METAR KBLI 171453Z 18004KT 10SM CLR 19/17 A2996 RMK AO2 SLP152 T01890167 53011=
202407171353 METAR KBLI 171353Z 00000KT 10SM CLR 17/16 A2996 RMK AO2 SLP148 T01720161=
202407171300 SPECI KBLI 171300Z AUTO 00000KT 10SM CLR 14/14 A2994 RMK AO2 T01390139 $=
202407171253 METAR KBLI 171253Z AUTO 00000KT 1 3/4SM BR CLR 14/14 A2993 RMK AO2 SLP140 T01390139 $=
202407171251 SPECI KBLI 171251Z AUTO 00000KT 1SM R16/P6000FT BR CLR 14/14 A2993 RMK AO2 $=
202407171234 SPECI KBLI 171234Z AUTO 00000KT 10SM CLR 13/13 A2993 RMK AO2 T01330133=
202407171218 SPECI KBLI 171218Z AUTO 00000KT 1 1/4SM R16/1400VP6000FT BR CLR 14/14 A2993 RMK AO2 VIS 1/4V5 T01390139=
202407171153 METAR KBLI 171153Z AUTO 00000KT 10SM CLR 14/14 A2992 RMK AO2 SLP137 T01440139 10178 20139 53003=
202407171053 METAR KBLI 171053Z AUTO 00000KT 10SM CLR 15/15 A2992 RMK AO2 SLP135 T01500150=
202407170953 METAR KBLI 170953Z AUTO 00000KT 10SM CLR 15/14 A2991 RMK AO2 SLP133 T01500144=
202407170853 METAR KBLI 170853Z AUTO 00000KT 10SM CLR 16/16 A2991 RMK AO2 SLP134 T01560156 50004=
202407170753 METAR KBLI 170753Z AUTO 00000KT 10SM CLR 16/16 A2991 RMK AO2 SLP134 T01610156 402830122=
202407170653 METAR KBLI 170653Z AUTO 00000KT 10SM CLR 17/16 A2990 RMK AO2 SLP131 T01720156=
202407170553 METAR KBLI 170553Z AUTO 00000KT 10SM CLR 17/16 A2990 RMK AO2 SLP130 T01720156 10278 20172 53003=
202407170453 METAR KBLI 170453Z 00000KT 10SM CLR 19/15 A2989 RMK AO2 SLP128 T01890150=
202407170353 METAR KBLI 170353Z 00000KT 10SM CLR 21/17 A2989 RMK AO2 SLP126 T02060167=
202407170253 METAR KBLI 170253Z 28003KT 10SM CLR 24/16 A2989 RMK AO2 SLP127 T02440161 56013=
202407170153 METAR KBLI 170153Z 19004KT 10SM CLR 27/16 A2990 RMK AO2 SLP130 T02670156=
202407170053 METAR KBLI 170053Z VRB03KT 10SM CLR 27/16 A2991 RMK AO2 SLP134 T02720156=
202407162353 METAR KBLI 162353Z 30005KT 10SM CLR 28/14 A2993 RMK AO2 SLP139 T02780144 10283 20211 58017=
202407162253 METAR KBLI 162253Z VRB04KT 10SM CLR 27/14 A2995 RMK AO2 SLP146 T02720144=
202407162153 METAR KBLI 162153Z VRB05KT 10SM CLR 26/15 A2996 RMK AO2 SLP151 T02610150=
202407162053 METAR KBLI 162053Z VRB05KT 10SM CLR 26/15 A2998 RMK AO2 SLP157 T02560150 58014=
202407161953 METAR KBLI 161953Z 30005KT 10SM CLR 24/15 A3000 RMK AO2 SLP162 T02390150=
202407161853 METAR KBLI 161853Z VRB06KT 10SM CLR 22/16 A3001 RMK AO2 SLP167 T02220161=
202407161753 METAR KBLI 161753Z VRB04KT 10SM CLR 21/16 A3002 RMK AO2 SLP170 T02110161 10217 20122 58004=
202407161653 METAR KBLI 161653Z 19004KT 10SM CLR 19/16 A3003 RMK AO2 SLP174 T01940156=
202407161553 METAR KBLI 161553Z 00000KT 10SM CLR 17/15 A3003 RMK AO2 SLP176 T01720150=
202407161453 METAR KBLI 161453Z 00000KT 10SM FEW020 17/14 A3003 RMK AO2 SLP176 T01720144 51002=
202407161353 METAR KBLI 161353Z 00000KT 10SM CLR 15/14 A3003 RMK AO2 SLP175 T01500139=
202407161253 METAR KBLI 161253Z AUTO 00000KT 10SM CLR 12/12 A3003 RMK AO2 SLP174 T01220122=
202407161230 SPECI KBLI 161230Z AUTO 00000KT 9SM CLR 12/12 A3003 RMK AO2 T01220122=
202407161215 SPECI KBLI 161215Z AUTO 00000KT 1 3/4SM BR CLR 12/12 A3003 RMK AO2 T01220122=
202407161153 METAR KBLI 161153Z AUTO 00000KT 10SM CLR 13/13 A3003 RMK AO2 SLP174 T01280128 10172 20128 51001=
202407161053 METAR KBLI 161053Z AUTO 19003KT 10SM CLR 14/13 A3003 RMK AO2 SLP174 T01440133=
202407160953 METAR KBLI 160953Z AUTO 20003KT 10SM CLR 14/14 A3002 RMK AO2 SLP173 T01440139=
202407160853 METAR KBLI 160853Z AUTO 20003KT 10SM CLR 15/14 A3002 RMK AO2 SLP172 T01500144 56000=
202407160753 METAR KBLI 160753Z AUTO 17003KT 10SM CLR 16/14 A3002 RMK AO2 SLP172 T01560144 402170139=
202407160653 METAR KBLI 160653Z AUTO 17006KT 10SM CLR 17/15 A3002 RMK AO2 SLP172 T01670150=
202407160553 METAR KBLI 160553Z AUTO 18006KT 10SM CLR 17/14 A3002 RMK AO2 SLP172 T01670139 10217 20167 58004=
202407160453 METAR KBLI 160453Z 20006KT 10SM CLR 17/14 A3003 RMK AO2 SLP175 T01670144=
202407160353 METAR KBLI 160353Z 18005KT 10SM CLR 18/14 A3003 RMK AO2 SLP175 T01780144=
202407160253 METAR KBLI 160253Z 18005KT 10SM CLR 19/14 A3003 RMK AO2 SLP176 T01940144 56014=
202407160153 METAR KBLI 160153Z 18007KT 10SM CLR 20/14 A3004 RMK AO2 SLP179 T02000139=
202407160053 METAR KBLI 160053Z VRB05KT 10SM CLR 21/14 A3006 RMK AO2 SLP184 T02110139=
202407152353 METAR KBLI 152353Z 18006KT 10SM CLR 21/14 A3007 RMK AO2 SLP190 T02110139 10217 20161 58012=
202407152253 METAR KBLI 152253Z 17008KT 10SM CLR 21/13 A3009 RMK AO2 SLP195 T02060133=
202407152153 METAR KBLI 152153Z 18009KT 10SM CLR 19/14 A3010 RMK AO2 SLP199 T01940139=
202407152053 METAR KBLI 152053Z 19010G17KT 10SM CLR 18/14 A3011 RMK AO2 SLP202 T01780139 56006=
202407151953 METAR KBLI 151953Z 19007G17KT 10SM CLR 17/14 A3011 RMK AO2 SLP204 T01720139=
202407151853 METAR KBLI 151853Z 20011G18KT 10SM SCT008 16/13 A3012 RMK AO2 SLP206 T01610133=
202407151753 METAR KBLI 151753Z 18009G18KT 10SM SCT006 16/13 A3013 RMK AO2 SLP208 T01610133 10161 20139 51007=
202407151653 METAR KBLI 151653Z 18009G18KT 10SM BKN006 15/13 A3013 RMK AO2 SLP208 T01500128=
202407151553 METAR KBLI 151553Z 17011KT 10SM BKN007 15/13 A3012 RMK AO2 SLP205 T01500128=
202407151453 METAR KBLI 151453Z 18011G22KT 10SM SCT007 14/13 A3011 RMK AO2 SLP201 T01440128 53013=
202407151443 SPECI KBLI 151443Z 19011G20KT 10SM FEW007 14/13 A3011 RMK AO2 T01440128=
202407151353 METAR KBLI 151353Z 18010G20KT 10SM CLR 14/12 A3009 RMK AO2 SLP197 T01440122=
202407151253 METAR KBLI 151253Z AUTO 18010G21KT 10SM CLR 14/12 A3008 RMK AO2 SLP191 T01440117=
202407151153 METAR KBLI 151153Z AUTO 18010G20KT 10SM CLR 14/12 A3007 RMK AO2 SLP188 T01390117 10183 20139 53013=
202407151053 METAR KBLI 151053Z AUTO 18012G22KT 10SM CLR 14/12 A3006 RMK AO2 SLP183 T01440122=
202407150953 METAR KBLI 150953Z AUTO 19011G21KT 10SM CLR 14/12 A3004 RMK AO2 SLP176 T01440122=
202407150853 METAR KBLI 150853Z AUTO 19009G20KT 10SM CLR 15/13 A3003 RMK AO2 SLP174 T01500128 51013=
202407150753 METAR KBLI 150753Z AUTO 18008G16KT 10SM CLR 16/13 A3002 RMK AO2 SLP172 T01560128 402560144=
202407150653 METAR KBLI 150653Z AUTO 19012G21KT 10SM CLR 17/13 A3001 RMK AO2 SLP168 T01670133=
202407150553 METAR KBLI 150553Z AUTO 18008G17KT 10SM CLR 18/13 A3000 RMK AO2 SLP162 T01830133 10244 20183 53003=
202407150453 METAR KBLI 150453Z 18011KT 10SM CLR 19/14 A2999 RMK AO2 SLP162 T01890144=
202407150353 METAR KBLI 150353Z 18008KT 10SM CLR 21/14 A2998 RMK AO2 SLP158 T02060139=
202407150253 METAR KBLI 150253Z 18006KT 10SM CLR 22/14 A2998 RMK AO2 SLP158 T02170139 56004=
202407150153 METAR KBLI 150153Z 18007KT 10SM CLR 22/15 A2999 RMK AO2 SLP159 T02220150=
202407150053 METAR KBLI 150053Z 20006KT 10SM CLR 23/16 A2999 RMK AO2 SLP159 T02330156=
202407142353 METAR KBLI 142353Z 19005KT 10SM CLR 25/15 A3000 RMK AO2 SLP163 T02500150 10256 20211 58008=
202407142253 METAR KBLI 142253Z VRB05KT 10SM CLR 26/13 A3001 RMK AO2 SLP167 T02560133=
202407142153 METAR KBLI 142153Z 21006KT 10SM CLR 25/13 A3002 RMK AO2 SLP170 T02500133=
202407142053 METAR KBLI 142053Z VRB04KT 10SM CLR 24/15 A3002 RMK AO2 SLP170 T02440150 58002=
202407141953 METAR KBLI 141953Z 31007KT 10SM CLR 24/15 A3002 RMK AO2 SLP172 T02390150=
202407141853 METAR KBLI 141853Z 29003KT 10SM CLR 23/15 A3003 RMK AO2 SLP173 T02280150=
202407141753 METAR KBLI 141753Z VRB04KT 10SM CLR 21/16 A3003 RMK AO2 SLP173 T02110156 10217 20144 51004=
202407141653 METAR KBLI 141653Z VRB06KT 10SM CLR 19/14 A3002 RMK AO2 SLP172 T01940144=
202407141553 METAR KBLI 141553Z 18005KT 10SM CLR 19/14 A3003 RMK AO2 SLP173 T01890144=
202407141453 METAR KBLI 141453Z VRB03KT 10SM CLR 18/14 A3001 RMK AO2 SLP168 T01830144 52010=
202407141353 METAR KBLI 141353Z VRB03KT 10SM CLR 18/14 A3001 RMK AO2 SLP166 T01780139=
202407141253 METAR KBLI 141253Z AUTO 24003KT 10SM CLR 15/13 A2999 RMK AO2 SLP160 T01500133=
202407141153 METAR KBLI 141153Z AUTO 23003KT 10SM CLR 15/13 A2998 RMK AO2 SLP158 T01500133 10178 20150 53003=
202407141053 METAR KBLI 141053Z AUTO 00000KT 10SM CLR 16/15 A2998 RMK AO2 SLP157 T01610150=
202407140953 METAR KBLI 140953Z AUTO 18006KT 10SM CLR 17/16 A2998 RMK AO2 SLP156 T01720156=
202407140853 METAR KBLI 140853Z AUTO 20004KT 10SM CLR 17/16 A2998 RMK AO2 SLP156 T01720156 51005=
202407140753 METAR KBLI 140753Z AUTO 00000KT 10SM CLR 16/14 A2998 RMK AO2 SLP155 T01560139 402560128=
202407140653 METAR KBLI 140653Z AUTO 00000KT 10SM CLR 17/13 A2997 RMK AO2 SLP153 T01670133=
202407140553 METAR KBLI 140553Z AUTO 00000KT 10SM CLR 17/14 A2996 RMK AO2 SLP150 T01670139 10256 20167 50002=
202407140453 METAR KBLI 140453Z 00000KT 10SM CLR 18/15 A2996 RMK AO2 SLP151 T01780150=
202407140353 METAR KBLI 140353Z 00000KT 10SM CLR 20/16 A2996 RMK AO2 SLP149 T02000161=
202407140253 METAR KBLI 140253Z 00000KT 10SM CLR 23/17 A2996 RMK AO2 SLP149 T02280167 56008=
202407140153 METAR KBLI 140153Z 00000KT 10SM CLR 24/16 A2996 RMK AO2 SLP149 T02440156=
202407140053 METAR KBLI 140053Z 00000KT 10SM CLR 25/15 A2997 RMK AO2 SLP152 T02500150=
202407132353 METAR KBLI 132353Z 24003KT 10SM CLR 24/15 A2998 RMK AO2 SLP157 T02390150 10250 20211 58010=
202407132253 METAR KBLI 132253Z 30006KT 10SM CLR 24/14 A3000 RMK AO2 SLP162 T02390144=
202407132153 METAR KBLI 132153Z VRB04KT 10SM CLR 24/14 A3000 RMK AO2 SLP165 T02390144=
202407132053 METAR KBLI 132053Z VRB06KT 10SM CLR 24/16 A3001 RMK AO2 SLP167 T02440161 58005=
202407131953 METAR KBLI 131953Z VRB06KT 10SM CLR 23/16 A3002 RMK AO2 SLP169 T02280156=
202407131853 METAR KBLI 131853Z VRB04KT 10SM CLR 22/16 A3002 RMK AO2 SLP170 T02220161=
202407131753 METAR KBLI 131753Z 31004KT 10SM CLR 22/16 A3002 RMK AO2 SLP172 T02170156 10217 20133 58003=
202407131653 METAR KBLI 131653Z 17006KT 10SM CLR 20/16 A3003 RMK AO2 SLP175 T02000156=
202407131553 METAR KBLI 131553Z 18007KT 10SM CLR 19/15 A3004 RMK AO2 SLP176 T01890150=
202407131453 METAR KBLI 131453Z 19006KT 10SM CLR 18/15 A3003 RMK AO2 SLP175 T01830150 53005=
202407131353 METAR KBLI 131353Z 18003KT 10SM CLR 17/14 A3002 RMK AO2 SLP171 T01720144=
202407131253 METAR KBLI 131253Z AUTO 00000KT 10SM CLR 14/13 A3002 RMK AO2 SLP170 T01440133=
202407131153 METAR KBLI 131153Z AUTO 00000KT 10SM CLR 13/13 A3002 RMK AO2 SLP171 T01330128 10167 20128 53002=
202407131053 METAR KBLI 131053Z AUTO 00000KT 10SM CLR 14/13 A3001 RMK AO2 SLP168 T01440133=
202407130953 METAR KBLI 130953Z AUTO 00000KT 10SM CLR 15/14 A3001 RMK AO2 SLP168 T01500144=
202407130853 METAR KBLI 130853Z AUTO 19003KT 10SM CLR 14/14 A3001 RMK AO2 SLP167 T01440139 52002=
202407130753 METAR KBLI 130753Z AUTO 00000KT 10SM CLR 15/14 A3001 RMK AO2 SLP166 T01500139 402440133=
202407130653 METAR KBLI 130653Z AUTO 00000KT 10SM CLR 16/15 A3001 RMK AO2 SLP166 T01610150=
202407130553 METAR KBLI 130553Z AUTO 00000KT 10SM CLR 17/14 A3001 RMK AO2 SLP166 T01670139 10244 20161 53003=
202407130453 METAR KBLI 130453Z 00000KT 10SM CLR 17/14 A3000 RMK AO2 SLP165 T01720144=
202407130353 METAR KBLI 130353Z 21003KT 10SM CLR 19/15 A2999 RMK AO2 SLP163 T01890150=
202407130253 METAR KBLI 130253Z VRB03KT 10SM CLR 21/14 A3000 RMK AO2 SLP164 T02110144 56007=
202407130153 METAR KBLI 130153Z 18004KT 10SM CLR 23/14 A3000 RMK AO2 SLP165 T02280139=
202407130053 METAR KBLI 130053Z 24003KT 10SM CLR 23/13 A3001 RMK AO2 SLP166 T02330133=
202407122353 METAR KBLI 122353Z VRB03KT 10SM CLR 23/13 A3002 RMK AO2 SLP170 T02330133 10244 20194 58015=
202407122253 METAR KBLI 122253Z VRB04KT 10SM CLR 24/15 A3004 RMK AO2 SLP176 T02390150=
202407122153 METAR KBLI 122153Z 28005KT 10SM CLR 24/13 A3005 RMK AO2 SLP181 T02390133=
202407122053 METAR KBLI 122053Z 28005KT 10SM CLR 23/14 A3006 RMK AO2 SLP185 T02280139 56010=
202407121953 METAR KBLI 121953Z VRB04KT 10SM CLR 22/15 A3007 RMK AO2 SLP188 T02220150=
202407121853 METAR KBLI 121853Z VRB04KT 10SM CLR 21/15 A3008 RMK AO2 SLP192 T02110150=
202407121753 METAR KBLI 121753Z VRB04KT 10SM CLR 19/15 A3009 RMK AO2 SLP196 T01940150 10194 20139 58004=
202407121653 METAR KBLI 121653Z 18006KT 10SM FEW010 18/14 A3010 RMK AO2 SLP198 CIGS LWR SE-SW T01780144=
202407121553 METAR KBLI 121553Z 19006KT 10SM SCT016 17/13 A3010 RMK AO2 SLP199 CIGS LWR SE-SW T01670133=
202407121453 METAR KBLI 121453Z 20005KT 10SM CLR 16/13 A3011 RMK AO2 SLP199 T01560128 53006=
202407121353 METAR KBLI 121353Z 19005KT 10SM CLR 16/13 A3010 RMK AO2 SLP196 T01560133=
202407121253 METAR KBLI 121253Z AUTO 19003KT 10SM CLR 14/13 A3009 RMK AO2 SLP194 T01440133=
202407121153 METAR KBLI 121153Z AUTO 20004KT 10SM CLR 14/13 A3009 RMK AO2 SLP193 T01390128 10161 20133 53004=
202407121053 METAR KBLI 121053Z AUTO 19004KT 10SM CLR 14/12 A3008 RMK AO2 SLP191 T01390122=
202407120953 METAR KBLI 120953Z AUTO 20004KT 10SM CLR 14/13 A3007 RMK AO2 SLP190 T01440128=
202407120853 METAR KBLI 120853Z AUTO 19005KT 10SM CLR 15/13 A3007 RMK AO2 SLP189 T01500128 58000=
202407120753 METAR KBLI 120753Z AUTO 19005KT 10SM CLR 16/14 A3007 RMK AO2 SLP189 T01560139 402390144=
202407120653 METAR KBLI 120653Z AUTO 18005KT 10SM CLR 16/13 A3008 RMK AO2 SLP190 T01560133=
202407120553 METAR KBLI 120553Z AUTO 22003KT 10SM CLR 15/14 A3007 RMK AO2 SLP190 T01500139 10239 20144 53002=
202407120453 METAR KBLI 120453Z 19003KT 10SM CLR 16/13 A3007 RMK AO2 SLP188 T01610128=
202407120353 METAR KBLI 120353Z 24003KT 10SM CLR 19/13 A3006 RMK AO2 SLP185 T01890133=
202407120253 METAR KBLI 120253Z 29004KT 10SM CLR 22/13 A3007 RMK AO2 SLP187 T02220128 56008=
202407120153 METAR KBLI 120153Z 30004KT 10SM CLR 23/13 A3007 RMK AO2 SLP187 T02330133=
202407120053 METAR KBLI 120053Z 23003KT 10SM CLR 23/13 A3008 RMK AO2 SLP190 T02330128=
202407112353 METAR KBLI 112353Z VRB03KT 10SM CLR 24/13 A3009 RMK AO2 SLP195 T02390128 10239 20183 58012=
202407112253 METAR KBLI 112253Z VRB04KT 10SM CLR 23/12 A3011 RMK AO2 SLP200 T02330122=
202407112153 METAR KBLI 112153Z VRB04KT 10SM CLR 22/12 A3012 RMK AO2 SLP203 T02220122=
202407112053 METAR KBLI 112053Z VRB05G14KT 10SM CLR 22/13 A3013 RMK AO2 SLP207 T02170128 58005=
202407111953 METAR KBLI 111953Z 17008KT 10SM CLR 19/14 A3014 RMK AO2 SLP211 T01940139=
202407111853 METAR KBLI 111853Z 19008KT 10SM CLR 19/13 A3014 RMK AO2 SLP213 T01890133=
202407111753 METAR KBLI 111753Z 17009KT 10SM CLR 18/13 A3014 RMK AO2 SLP213 T01830133 10189 20144 51003=
202407111653 METAR KBLI 111653Z 18008KT 10SM CLR 17/13 A3014 RMK AO2 SLP213 T01720128=
202407111553 METAR KBLI 111553Z 19007KT 10SM CLR 16/13 A3014 RMK AO2 SLP212 T01610128=
202407111453 METAR KBLI 111453Z 19006KT 10SM CLR 15/12 A3013 RMK AO2 SLP210 T01500122 53013=
202407111353 METAR KBLI 111353Z 19008KT 10SM CLR 14/12 A3012 RMK AO2 SLP204 T01440122=
202407111253 METAR KBLI 111253Z AUTO 21006KT 10SM CLR 14/12 A3011 RMK AO2 SLP200 T01440122=
202407111153 METAR KBLI 111153Z AUTO 20006KT 10SM CLR 14/12 A3009 RMK AO2 SLP196 T01440122 10172 20144 53010=
202407111053 METAR KBLI 111053Z AUTO 20009G15KT 10SM CLR 15/12 A3008 RMK AO2 SLP191 T01500122=
202407110953 METAR KBLI 110953Z AUTO 19008KT 10SM CLR 16/12 A3007 RMK AO2 SLP188 T01560122=
202407110853 METAR KBLI 110853Z AUTO 20005KT 10SM CLR 16/13 A3006 RMK AO2 SLP185 T01560128 51010=
202407110753 METAR KBLI 110753Z AUTO 19003KT 10SM CLR 16/13 A3006 RMK AO2 SLP183 T01560133 402500150=
202407110653 METAR KBLI 110653Z AUTO 20006KT 10SM CLR 16/13 A3005 RMK AO2 SLP181 T01610128=
202407110553 METAR KBLI 110553Z AUTO 21005KT 10SM CLR 17/13 A3003 RMK AO2 SLP176 T01720128 10244 20172 53008=
202407110453 METAR KBLI 110453Z 19006KT 10SM CLR 19/13 A3003 RMK AO2 SLP172 T01890128=
202407110353 METAR KBLI 110353Z VRB05KT 10SM CLR 19/13 A3001 RMK AO2 SLP169 T01890133=
202407110253 METAR KBLI 110253Z 19007KT 10SM CLR 20/13 A3001 RMK AO2 SLP168 T02000128 55001=
202407110153 METAR KBLI 110153Z 21007KT 170V240 10SM CLR 22/13 A3000 RMK AO2 SLP165 T02220128=
202407110053 METAR KBLI 110053Z 21005KT 10SM CLR 23/13 A3001 RMK AO2 SLP166 T02280128=
202407102353 METAR KBLI 102353Z 22006KT 10SM CLR 24/13 A3001 RMK AO2 SLP168 T02440128 10250 20183 58005=
202407102253 METAR KBLI 102253Z 21008G17KT 170V240 10SM CLR 24/12 A3002 RMK AO2 SLP170 T02390117=
202407102153 METAR KBLI 102153Z 20009KT 10SM CLR 24/12 A3002 RMK AO2 SLP171 T02390117=
202407102053 METAR KBLI 102053Z 20008G16KT 10SM CLR 23/12 A3003 RMK AO2 SLP173 T02280117 50001=
202407101953 METAR KBLI 101953Z 18007G16KT 140V210 10SM CLR 22/12 A3003 RMK AO2 SLP173 T02170122=
202407101853 METAR KBLI 101853Z 20009G16KT 10SM CLR 20/12 A3003 RMK AO2 SLP174 T02000117=
202407101753 METAR KBLI 101753Z 19009G21KT 10SM CLR 18/11 A3003 RMK AO2 SLP172 T01830106 10189 20150 52021=
202407101653 METAR KBLI 101653Z 19008G22KT 10SM CLR 18/11 A3000 RMK AO2 SLP164 T01830111=
202407101553 METAR KBLI 101553Z 18011KT 10SM CLR 17/11 A2999 RMK AO2 SLP160 T01670111=
202407101453 METAR KBLI 101453Z 19010G18KT 10SM CLR 16/12 A2996 RMK AO2 SLP152 T01560117 53018=
202407101353 METAR KBLI 101353Z 18013G21KT 10SM CLR 15/11 A2994 RMK AO2 SLP145 T01500111=
202407101253 METAR KBLI 101253Z AUTO 19012G22KT 10SM CLR 16/11 A2992 RMK AO2 SLP138 T01560106=
202407101153 METAR KBLI 101153Z AUTO 19010G20KT 10SM CLR 16/11 A2991 RMK AO2 SLP133 T01610106 10200 20161 53014=
202407101053 METAR KBLI 101053Z AUTO 19011KT 10SM CLR 17/11 A2989 RMK AO2 SLP124 T01720111=
202407100953 METAR KBLI 100953Z AUTO 19008KT 10SM CLR 18/12 A2987 RMK AO2 SLP118 T01830117=
202407100853 METAR KBLI 100853Z AUTO 18007KT 10SM CLR 18/13 A2987 RMK AO2 SLP119 T01780128 51009=
202407100753 METAR KBLI 100753Z AUTO 19006KT 10SM CLR 18/13 A2986 RMK AO2 SLP116 T01830128 403110133=
202407100653 METAR KBLI 100653Z AUTO 19008KT 10SM CLR 19/13 A2985 RMK AO2 SLP113 T01890133=
202407100553 METAR KBLI 100553Z AUTO 20005KT 10SM CLR 20/14 A2984 RMK AO2 SLP109 T02000139 10306 20200 53009=
202407100453 METAR KBLI 100453Z 19006KT 10SM CLR 22/13 A2983 RMK AO2 SLP105 T02220133=
202407100353 METAR KBLI 100353Z 20008KT 10SM CLR 24/12 A2981 RMK AO2 SLP100 T02390122=
202407100253 METAR KBLI 100253Z 18006KT 10SM CLR 26/16 A2981 RMK AO2 SLP100 T02560161 56008=
202407100153 METAR KBLI 100153Z 19003KT 10SM CLR 28/17 A2982 RMK AO2 SLP102 T02830167=
202407100053 METAR KBLI 100053Z 19004KT 10SM CLR 31/16 A2983 RMK AO2 SLP105 T03060161=
202407092353 METAR KBLI 092353Z 18005KT 10SM CLR 31/17 A2984 RMK AO2 SLP109 T03060172 10311 20244 56011=
202407092253 METAR KBLI 092253Z VRB03KT 10SM CLR 31/17 A2985 RMK AO2 SLP111 T03110167=
202407092153 METAR KBLI 092153Z VRB03KT 10SM CLR 30/17 A2986 RMK AO2 SLP114 T03000167=
202407092053 METAR KBLI 092053Z 22003KT 10SM CLR 28/16 A2987 RMK AO2 SLP119 T02830156 58004=
202407091953 METAR KBLI 091953Z 18006KT 10SM CLR 27/17 A2988 RMK AO2 SLP123 T02670172=
202407091853 METAR KBLI 091853Z VRB05KT 10SM CLR 27/17 A2988 RMK AO2 SLP124 T02670167=
202407091753 METAR KBLI 091753Z VRB03KT 10SM CLR 26/17 A2988 RMK AO2 SLP123 T02560172 10256 20133 58006=
202407091653 METAR KBLI 091653Z 00000KT 10SM CLR 24/16 A2989 RMK AO2 SLP126 T02390161=
202407091553 METAR KBLI 091553Z 00000KT 10SM CLR 22/14 A2990 RMK AO2 SLP129 T02170144=
202407091453 METAR KBLI 091453Z 22003KT 10SM CLR 19/15 A2990 RMK AO2 SLP129 T01940150 52006=
202407091353 METAR KBLI 091353Z 00000KT 10SM CLR 18/16 A2989 RMK AO2 SLP128 T01780161=
202407091253 METAR KBLI 091253Z AUTO 00000KT 10SM CLR 14/14 A2989 RMK AO2 SLP125 T01440139=
202407091153 METAR KBLI 091153Z AUTO 00000KT 10SM CLR 14/14 A2988 RMK AO2 SLP124 T01390139 10183 20133 53003=
202407091053 METAR KBLI 091053Z AUTO 00000KT 10SM CLR 14/14 A2987 RMK AO2 SLP120 T01440139=
202407090953 METAR KBLI 090953Z AUTO 00000KT 10SM CLR 14/14 A2987 RMK AO2 SLP120 T01440139=
202407090853 METAR KBLI 090853Z AUTO 00000KT 10SM CLR 16/14 A2987 RMK AO2 SLP120 T01560144 58002=
202407090753 METAR KBLI 090753Z AUTO 00000KT 10SM CLR 17/14 A2988 RMK AO2 SLP122 T01670144 402940128=
202407090653 METAR KBLI 090653Z AUTO 00000KT 10SM CLR 18/16 A2988 RMK AO2 SLP123 T01780156=
202407090553 METAR KBLI 090553Z AUTO 00000KT 10SM CLR 18/16 A2988 RMK AO2 SLP122 T01780156 10294 20178 53004=
202407090453 METAR KBLI 090453Z 00000KT 10SM CLR 19/16 A2988 RMK AO2 SLP122 T01940156=
202407090353 METAR KBLI 090353Z 24003KT 10SM CLR 22/17 A2987 RMK AO2 SLP118 T02220167=
202407090253 METAR KBLI 090253Z 00000KT 10SM CLR 25/16 A2987 RMK AO2 SLP118 T02500161 56010=
202407090153 METAR KBLI 090153Z 27003KT 10SM CLR 29/13 A2987 RMK AO2 SLP118 T02890128=
202407090053 METAR KBLI 090053Z VRB03KT 10SM CLR 29/12 A2988 RMK AO2 SLP122 T02890122=
202407082353 METAR KBLI 082353Z 29005KT 10SM CLR 29/13 A2990 RMK AO2 SLP128 T02890133 10294 20250 58014=
202407082253 METAR KBLI 082253Z VRB04KT 10SM CLR 29/15 A2991 RMK AO2 SLP132 T02940150=
202407082153 METAR KBLI 082153Z 28007KT 10SM CLR 26/14 A2993 RMK AO2 SLP138 T02610139=
202407082053 METAR KBLI 082053Z VRB06KT 10SM CLR 27/16 A2994 RMK AO2 SLP142 T02720156 58009=
202407081953 METAR KBLI 081953Z 30007KT 10SM CLR 27/16 A2995 RMK AO2 SLP145 T02670156=
202407081853 METAR KBLI 081853Z VRB03KT 10SM CLR 27/16 A2995 RMK AO2 SLP148 T02670156=
202407081753 METAR KBLI 081753Z VRB03KT 10SM CLR 26/14 A2996 RMK AO2 SLP151 T02560139 10261 20128 58005=
202407081653 METAR KBLI 081653Z 35004KT 10SM CLR 24/14 A2997 RMK AO2 SLP154 T02390144=
202407081553 METAR KBLI 081553Z 34003KT 10SM CLR 23/15 A2998 RMK AO2 SLP156 T02280150=
202407081453 METAR KBLI 081453Z 00000KT 10SM CLR 21/14 A2998 RMK AO2 SLP156 T02060144 53003=
202407081353 METAR KBLI 081353Z 00000KT 10SM CLR 17/15 A2997 RMK AO2 SLP154 T01670150=
202407081253 METAR KBLI 081253Z AUTO 00000KT 10SM CLR 14/13 A2997 RMK AO2 SLP153 T01440133=
202407081153 METAR KBLI 081153Z AUTO 00000KT 10SM CLR 13/13 A2997 RMK AO2 SLP153 T01330133 10211 20128 53007=
202407081053 METAR KBLI 081053Z AUTO 00000KT 10SM CLR 14/13 A2996 RMK AO2 SLP149 T01390133=
202407080953 METAR KBLI 080953Z AUTO 00000KT 10SM CLR 15/14 A2995 RMK AO2 SLP147 T01500139=
202407080853 METAR KBLI 080853Z AUTO 00000KT 10SM CLR 16/14 A2995 RMK AO2 SLP146 T01560144 51003=
202407080753 METAR KBLI 080753Z AUTO 00000KT 10SM CLR 17/14 A2995 RMK AO2 SLP146 T01670144 402940128=
202407080653 METAR KBLI 080653Z AUTO 00000KT 10SM CLR 17/13 A2995 RMK AO2 SLP145 T01720133=
202407080553 METAR KBLI 080553Z AUTO 18005KT 10SM CLR 21/12 A2994 RMK AO2 SLP143 T02060122 10289 20206 53002=
202407080453 METAR KBLI 080453Z 19007KT 10SM CLR 22/13 A2993 RMK AO2 SLP140 T02170128=
202407080353 METAR KBLI 080353Z 18004KT 10SM CLR 22/17 A2992 RMK AO2 SLP138 T02170172=
202407080253 METAR KBLI 080253Z 00000KT 10SM CLR 25/16 A2993 RMK AO2 SLP141 T02500156 56006=
202407080153 METAR KBLI 080153Z VRB03KT 10SM CLR 28/17 A2993 RMK AO2 SLP141 T02830167=
202407080053 METAR KBLI 080053Z VRB03KT 10SM CLR 28/16 A2994 RMK AO2 SLP143 T02830156=
202407072353 METAR KBLI 072353Z VRB03KT 10SM CLR 29/17 A2995 RMK AO2 SLP147 T02890167 10294 20239 58010=
202407072253 METAR KBLI 072253Z VRB03KT 10SM CLR 29/13 A2996 RMK AO2 SLP151 T02890133=
202407072153 METAR KBLI 072153Z 28005KT 10SM CLR 28/14 A2997 RMK AO2 SLP154 T02780144=
202407072053 METAR KBLI 072053Z 29005KT 10SM CLR 27/16 A2998 RMK AO2 SLP157 T02720156 58002=
202407071953 METAR KBLI 071953Z 17005KT 10SM CLR 26/16 A2999 RMK AO2 SLP159 T02610156=
202407071853 METAR KBLI 071853Z 32004KT 10SM CLR 25/16 A2999 RMK AO2 SLP161 T02500161=
202407071753 METAR KBLI 071753Z 24003KT 10SM CLR 24/16 A2999 RMK AO2 SLP159 T02390156 10244 20128 51001=
202407071653 METAR KBLI 071653Z VRB03KT 10SM CLR 22/16 A2999 RMK AO2 SLP159 T02220161=
202407071553 METAR KBLI 071553Z VRB04KT 10SM CLR 20/15 A2999 RMK AO2 SLP161 T02000150=
202407071453 METAR KBLI 071453Z VRB04KT 10SM CLR 19/14 A2998 RMK AO2 SLP158 T01940139 53007=
202407071353 METAR KBLI 071353Z 00000KT 10SM CLR 16/15 A2997 RMK AO2 SLP154 T01610150=
202407071253 METAR KBLI 071253Z AUTO 00000KT 10SM CLR 13/13 A2997 RMK AO2 SLP154 T01280128=
202407071153 METAR KBLI 071153Z AUTO 00000KT 10SM CLR 13/13 A2996 RMK AO2 SLP151 T01330128 10167 20128 53003=
202407071053 METAR KBLI 071053Z AUTO 00000KT 10SM CLR 13/13 A2995 RMK AO2 SLP148 T01330133=
202407070953 METAR KBLI 070953Z AUTO 00000KT 10SM CLR 15/14 A2995 RMK AO2 SLP146 T01500139=
202407070853 METAR KBLI 070853Z AUTO 00000KT 10SM CLR 16/14 A2995 RMK AO2 SLP147 T01560139 53003=
202407070753 METAR KBLI 070753Z AUTO 00000KT 10SM CLR 16/14 A2995 RMK AO2 SLP146 T01560139 402610139=
202407070653 METAR KBLI 070653Z AUTO 00000KT 10SM CLR 16/14 A2995 RMK AO2 SLP145 T01560139=
202407070553 METAR KBLI 070553Z AUTO 00000KT 10SM CLR 16/13 A2994 RMK AO2 SLP145 T01610133 10256 20161 53003=
202407070453 METAR KBLI 070453Z 00000KT 10SM CLR 17/14 A2994 RMK AO2 SLP144 T01720144=
202407070353 METAR KBLI 070353Z 00000KT 10SM CLR 20/16 A2993 RMK AO2 SLP141 T02000156=
202407070253 METAR KBLI 070253Z 00000KT 10SM CLR 24/14 A2994 RMK AO2 SLP142 T02390139 56012=
202407070153 METAR KBLI 070153Z 29003KT 10SM CLR 26/14 A2994 RMK AO2 SLP143 T02560139=
202407070053 METAR KBLI 070053Z 27004KT 10SM CLR 26/14 A2996 RMK AO2 SLP149 T02560139=
202407062353 METAR KBLI 062353Z VRB04KT 10SM CLR 26/14 A2997 RMK AO2 SLP154 T02560139 10261 20217 56013=
202407062253 METAR KBLI 062253Z 30007KT 10SM CLR 26/14 A2998 RMK AO2 SLP158 T02560139=
202407062153 METAR KBLI 062153Z VRB05KT 10SM CLR 26/14 A2999 RMK AO2 SLP161 T02560139=
202407062053 METAR KBLI 062053Z 29006KT 10SM CLR 25/14 A3001 RMK AO2 SLP167 T02500139 58005=
202407061953 METAR KBLI 061953Z VRB04KT 10SM CLR 24/14 A3002 RMK AO2 SLP169 T02440139=
202407061853 METAR KBLI 061853Z 31005KT 10SM CLR 23/14 A3002 RMK AO2 SLP171 T02330144=
202407061753 METAR KBLI 061753Z VRB04KT 10SM CLR 22/16 A3002 RMK AO2 SLP172 T02170156 10217 20144 50000=
202407061653 METAR KBLI 061653Z 16005KT 10SM CLR 21/15 A3003 RMK AO2 SLP175 T02060150=
202407061553 METAR KBLI 061553Z 15004KT 10SM CLR 19/14 A3003 RMK AO2 SLP173 T01940144=
202407061453 METAR KBLI 061453Z VRB03KT 10SM CLR 18/14 A3002 RMK AO2 SLP172 T01830144 53003=
202407061353 METAR KBLI 061353Z 19005KT 10SM CLR 18/14 A3002 RMK AO2 SLP169 T01780139=
202407061253 METAR KBLI 061253Z AUTO 19003KT 10SM CLR 16/12 A3001 RMK AO2 SLP168 T01610122=
202407061153 METAR KBLI 061153Z AUTO 00000KT 10SM CLR 15/12 A3002 RMK AO2 SLP169 T01500117 10200 20139 56006=
202407061053 METAR KBLI 061053Z AUTO 21003KT 10SM CLR 15/12 A3002 RMK AO2 SLP170 T01500117=
202407060953 METAR KBLI 060953Z AUTO 19003KT 10SM CLR 16/12 A3003 RMK AO2 SLP174 T01560122=
202407060853 METAR KBLI 060853Z AUTO 00000KT 10SM CLR 15/13 A3004 RMK AO2 SLP175 T01500128 58005=
202407060753 METAR KBLI 060753Z AUTO 19004KT 10SM CLR 17/13 A3005 RMK AO2 SLP179 T01670128 402610117=
202407060653 METAR KBLI 060653Z AUTO 00000KT 10SM CLR 17/13 A3004 RMK AO2 SLP179 T01670133=
202407060553 METAR KBLI 060553Z AUTO 17006KT 10SM CLR 20/13 A3005 RMK AO2 SLP181 T02000128 10256 20167 56005=
202407060453 METAR KBLI 060453Z 18004KT 10SM CLR 17/14 A3005 RMK AO2 SLP182 T01720139=
202407060353 METAR KBLI 060353Z 00000KT 10SM CLR 20/14 A3005 RMK AO2 SLP181 T02000139=
202407060253 METAR KBLI 060253Z 21004KT 10SM CLR 23/14 A3007 RMK AO2 SLP186 T02280139 58018=
202407060153 METAR KBLI 060153Z 18004KT 10SM CLR 24/12 A3009 RMK AO2 SLP193 T02440117=
202407060053 METAR KBLI 060053Z 16006KT 10SM CLR 25/13 A3010 RMK AO2 SLP199 T02500128=
202407052353 METAR KBLI 052353Z 00000KT 10SM CLR 25/12 A3012 RMK AO2 SLP204 T02500122 10261 20222 56019=
202407052253 METAR KBLI 052253Z 23003KT 10SM CLR 25/11 A3014 RMK AO2 SLP210 T02500106=
202407052153 METAR KBLI 052153Z 26005KT 10SM CLR 25/11 A3015 RMK AO2 SLP215 T02500106=
202407052053 METAR KBLI 052053Z VRB05KT 10SM CLR 25/13 A3018 RMK AO2 SLP223 T02500133 58007=
202407051953 METAR KBLI 051953Z 32006KT 10SM CLR 23/13 A3019 RMK AO2 SLP226 T02330133=
202407051853 METAR KBLI 051853Z 26004KT 10SM CLR 23/14 A3019 RMK AO2 SLP228 T02280144=
202407051753 METAR KBLI 051753Z 29005KT 10SM CLR 23/14 A3020 RMK AO2 SLP231 T02280139 10228 20117 58006=
202407051653 METAR KBLI 051653Z 00000KT 10SM CLR 21/14 A3021 RMK AO2 SLP235 T02060144=
202407051553 METAR KBLI 051553Z 00000KT 10SM CLR 19/14 A3022 RMK AO2 SLP237 T01940144=
202407051453 METAR KBLI 051453Z 00000KT 10SM CLR 18/13 A3022 RMK AO2 SLP237 T01830133 53008=
202407051353 METAR KBLI 051353Z 00000KT 10SM CLR 16/13 A3021 RMK AO2 SLP233 T01610133=
202407051253 METAR KBLI 051253Z AUTO 00000KT 4SM BR CLR 12/12 A3020 RMK AO2 SLP231 T01220117=
202407051153 METAR KBLI 051153Z AUTO 18004KT 5SM BR CLR 13/12 A3019 RMK AO2 SLP230 T01330122 10144 20117 51004=
202407051053 METAR KBLI 051053Z AUTO 00000KT 10SM CLR 12/11 A3019 RMK AO2 SLP229 T01220111=
202407050953 METAR KBLI 050953Z AUTO 00000KT 8SM CLR 12/11 A3019 RMK AO2 SLP228 T01220111=
202407050853 METAR KBLI 050853Z AUTO 00000KT 9SM CLR 14/11 A3018 RMK AO2 SLP225 T01390111 58002=
202407050753 METAR KBLI 050753Z AUTO 00000KT 8SM CLR 14/12 A3018 RMK AO2 SLP227 T01390122 402330106=
202407050653 METAR KBLI 050653Z AUTO 00000KT 8SM CLR 14/13 A3019 RMK AO2 SLP229 T01440128=
202407050553 METAR KBLI 050553Z AUTO 00000KT 10SM CLR 14/13 A3018 RMK AO2 SLP227 T01440128 10233 20139 53003=
202407050453 METAR KBLI 050453Z 00000KT 10SM CLR 16/13 A3018 RMK AO2 SLP226 T01560133=
202407050353 METAR KBLI 050353Z 00000KT 10SM CLR 18/13 A3017 RMK AO2 SLP224 T01780133=
202407050253 METAR KBLI 050253Z 00000KT 10SM CLR 21/13 A3018 RMK AO2 SLP223 T02110128 56011=
202407050153 METAR KBLI 050153Z VRB03KT 10SM CLR 22/12 A3018 RMK AO2 SLP227 T02220122=
202407050117 SPECI KBLI 050117Z VRB06KT 10SM CLR 23/12 A3019 RMK AO2 T02280122=
202407050053 METAR KBLI 050053Z 00000KT 10SM CLR 23/12 A3020 RMK AO2 SLP231 T02280122=
202407042353 METAR KBLI 042353Z AUTO VRB03KT 10SM CLR 23/13 A3021 RMK AO2 SLP235 T02280128 10233 20194 58015=
202407042253 METAR KBLI 042253Z AUTO 28005KT 10SM CLR 23/12 A3023 RMK AO2 SLP242 T02330122=
202407042153 METAR KBLI 042153Z AUTO VRB04KT 10SM CLR 22/13 A3024 RMK AO2 SLP247 T02170133=
202407042053 METAR KBLI 042053Z 25007KT 10SM CLR 22/14 A3025 RMK AO2 SLP250 T02220144 56007=
202407041953 METAR KBLI 041953Z 25006KT 10SM CLR 21/14 A3026 RMK AO2 SLP252 T02110144=
202407041853 METAR KBLI 041853Z VRB03KT 10SM CLR 21/14 A3026 RMK AO2 SLP254 T02060144=
202407041753 METAR KBLI 041753Z VRB04KT 10SM CLR 20/15 A3027 RMK AO2 SLP257 T02000150 10200 20106 58003=
202407041653 METAR KBLI 041653Z VRB03KT 10SM CLR 18/14 A3028 RMK AO2 SLP260 T01830144=
202407041553 METAR KBLI 041553Z 20004KT 10SM CLR 17/13 A3028 RMK AO2 SLP259 T01720133=
202407041453 METAR KBLI 041453Z 00000KT 10SM CLR 16/13 A3028 RMK AO2 SLP261 T01610128 53005=
202407041353 METAR KBLI 041353Z 00000KT 10SM CLR 14/12 A3028 RMK AO2 SLP259 T01390122=
202407041253 METAR KBLI 041253Z AUTO 00000KT 10SM CLR 12/12 A3027 RMK AO2 SLP257 T01170117=
202407041053 METAR KBLI 041053Z AUTO 00000KT 10SM CLR 12/12 A3027 RMK AO2 SLP255 T01220117=
202407040953 METAR KBLI 040953Z AUTO 00000KT 10SM CLR 12/12 A3026 RMK AO2 SLP254 T01220117=
202407040853 METAR KBLI 040853Z AUTO 00000KT 10SM CLR 12/11 A3026 RMK AO2 SLP252 T01220111 53003=
202407040753 METAR KBLI 040753Z AUTO 00000KT 10SM CLR 13/12 A3025 RMK AO2 SLP251 T01280117 402220111=
202407040653 METAR KBLI 040653Z AUTO 00000KT 10SM CLR 13/11 A3025 RMK AO2 SLP249 T01330111=
202407040553 METAR KBLI 040553Z AUTO 00000KT 10SM CLR 13/12 A3025 RMK AO2 SLP249 T01330117 10222 20128 53006=
202407040453 METAR KBLI 040453Z 00000KT 10SM CLR 15/12 A3024 RMK AO2 SLP246 T01500122=
202407040353 METAR KBLI 040353Z 00000KT 10SM CLR 17/12 A3023 RMK AO2 SLP242 T01670117=
202407040253 METAR KBLI 040253Z 00000KT 10SM CLR 21/10 A3023 RMK AO2 SLP243 T02060100 56008=
202407040153 METAR KBLI 040153Z VRB04KT 10SM CLR 21/10 A3023 RMK AO2 SLP244 T02110100=
202407040053 METAR KBLI 040053Z 27005KT 10SM CLR 21/11 A3024 RMK AO2 SLP247 T02110106=
202407032353 METAR KBLI 032353Z 29007KT 10SM CLR 22/09 A3026 RMK AO2 SLP251 T02170094 10222 20161 58009=
202407032253 METAR KBLI 032253Z VRB06KT 10SM CLR 22/12 A3027 RMK AO2 SLP255 T02170122=
202407032153 METAR KBLI 032153Z 31007KT 260V330 10SM CLR 21/12 A3027 RMK AO2 SLP257 T02110122=
202407032053 METAR KBLI 032053Z 00000KT 10SM CLR 19/12 A3028 RMK AO2 SLP260 T01940122 58006=
202407031953 METAR KBLI 031953Z 31007KT 10SM CLR 19/12 A3029 RMK AO2 SLP263 T01890117=
202407031853 METAR KBLI 031853Z VRB04KT 10SM CLR 18/13 A3029 RMK AO2 SLP263 T01780128=
202407031753 METAR KBLI 031753Z 17007KT 10SM FEW055 16/12 A3030 RMK AO2 SLP266 T01610117 10161 20122 50005=
202407031653 METAR KBLI 031653Z 20008KT 10SM FEW020 SCT055 14/12 A3031 RMK AO2 SLP269 T01440117=
202407031553 METAR KBLI 031553Z 18008G17KT 10SM FEW013 SCT055 14/11 A3029 RMK AO2 SLP263 T01390111=
202407031453 METAR KBLI 031453Z 18011G17KT 10SM SCT060 OVC070 14/11 A3028 RMK AO2 SLP260 T01390111 53011=
202407031353 METAR KBLI 031353Z 18007G15KT 160V220 10SM FEW060 OVC070 13/11 A3027 RMK AO2 SLP257 T01330111=
202407031253 METAR KBLI 031253Z AUTO 19008KT 10SM BKN055 12/11 A3026 RMK AO2 SLP252 T01220111=
202407031153 METAR KBLI 031153Z AUTO 19008KT 10SM BKN070 12/11 A3025 RMK AO2 SLP249 T01220111 10144 20111 53006=
202407031053 METAR KBLI 031053Z AUTO 18006KT 10SM SCT070 13/11 A3023 RMK AO2 SLP244 T01280106=
202407030953 METAR KBLI 030953Z AUTO 17004KT 10SM FEW070 13/10 A3023 RMK AO2 SLP243 T01280100=
202407030853 METAR KBLI 030853Z AUTO 19004KT 10SM BKN070 13/11 A3023 RMK AO2 SLP243 T01330106 53009=
202407030753 METAR KBLI 030753Z AUTO 18006KT 10SM SCT075 13/11 A3022 RMK AO2 SLP239 T01330106 401830117=
202407030653 METAR KBLI 030653Z AUTO 18005KT 10SM CLR 13/09 A3021 RMK AO2 SLP235 T01330094=
202407030553 METAR KBLI 030553Z AUTO 18006KT 10SM CLR 14/09 A3020 RMK AO2 SLP234 T01390094 10178 20139 53007=
202407030453 METAR KBLI 030453Z 19007G17KT 10SM CLR 14/11 A3019 RMK AO2 SLP230 T01440106=
202407030353 METAR KBLI 030353Z 18011G18KT 10SM CLR 16/09 A3018 RMK AO2 SLP227 T01610089=
202407030253 METAR KBLI 030253Z 18010G19KT 10SM CLR 17/09 A3018 RMK AO2 SLP227 T01670094 56007=
202407030153 METAR KBLI 030153Z 18008KT 10SM CLR 17/11 A3019 RMK AO2 SLP228 T01720106=
202407030053 METAR KBLI 030053Z 19008G17KT 10SM CLR 18/11 A3019 RMK AO2 SLP229 T01780111=
202407022353 METAR KBLI 022353Z 18010G15KT 10SM CLR 18/11 A3020 RMK AO2 SLP234 T01780106 10183 20156 56008=
202407022253 METAR KBLI 022253Z 19009KT 10SM CLR 18/11 A3020 RMK AO2 SLP234 T01780111=
202407022153 METAR KBLI 022153Z 18010G17KT 10SM CLR 18/11 A3021 RMK AO2 SLP236 T01780111=
202407022053 METAR KBLI 022053Z 19010G17KT 10SM CLR 18/11 A3023 RMK AO2 SLP242 T01780111 58002=
202407021953 METAR KBLI 021953Z 19009G15KT 10SM CLR 17/11 A3023 RMK AO2 SLP243 T01720111=
202407021853 METAR KBLI 021853Z 21009G17KT 170V230 10SM BKN070 16/12 A3024 RMK AO2 SLP247 T01610117=
202407021753 METAR KBLI 021753Z 18008G19KT 10SM FEW025 OVC070 16/12 A3023 RMK AO2 SLP244 T01560117 10161 20128 51009=
202407021653 METAR KBLI 021653Z 18012G20KT 10SM FEW014 SCT026 BKN070 16/12 A3023 RMK AO2 SLP241 T01560117=
202407021620 SPECI KBLI 021620Z 18012G20KT 10SM FEW026 BKN070 15/12 A3022 RMK AO2 T01500117=
202407021553 METAR KBLI 021553Z 18011G17KT 10SM OVC026 14/11 A3022 RMK AO2 SLP239 T01390111=
202407021453 METAR KBLI 021453Z 18011G20KT 10SM OVC024 14/11 A3021 RMK AO2 SLP235 T01390111 53012=
202407021445 SPECI KBLI 021445Z 18010G18KT 10SM BKN025 BKN085 14/11 A3021 RMK AO2 T01390111=
202407021353 METAR KBLI 021353Z 18007KT 10SM BKN085 13/11 A3019 RMK AO2 SLP230 T01330106=
202407021253 METAR KBLI 021253Z AUTO 18006KT 10SM OVC085 13/10 A3019 RMK AO2 SLP228 T01280100=
202407021153 METAR KBLI 021153Z AUTO 19011G18KT 10SM SCT070 OVC085 13/11 A3017 RMK AO2 SLP224 T01280111 10144 20117 53011=
202407021053 METAR KBLI 021053Z AUTO 19011G18KT 10SM SCT070 13/10 A3016 RMK AO2 SLP217 T01330100=
202407020953 METAR KBLI 020953Z AUTO 20005KT 10SM CLR 13/10 A3015 RMK AO2 SLP215 T01330100=
202407020853 METAR KBLI 020853Z AUTO 19003KT 10SM FEW065 12/09 A3014 RMK AO2 SLP213 T01220089 50002=
202407020753 METAR KBLI 020753Z AUTO 18005KT 10SM CLR 13/08 A3014 RMK AO2 SLP214 T01330083 402060133=
202407020653 METAR KBLI 020653Z AUTO 17005KT 10SM CLR 14/09 A3014 RMK AO2 SLP211 T01390089=
202407020553 METAR KBLI 020553Z AUTO 19009G20KT 10SM CLR 14/10 A3014 RMK AO2 SLP211 T01440100 10200 20144 53006=
202407020453 METAR KBLI 020453Z 18010G15KT 10SM CLR 15/11 A3013 RMK AO2 SLP208 T01500106=
202407020353 METAR KBLI 020353Z 19006KT 10SM CLR 16/11 A3011 RMK AO2 SLP203 T01560106=
202407020253 METAR KBLI 020253Z 19006KT 10SM CLR 17/10 A3012 RMK AO2 SLP205 T01720100 56007=
202407020153 METAR KBLI 020153Z 19009G15KT 10SM CLR 19/10 A3012 RMK AO2 SLP206 T01890100=
202407020053 METAR KBLI 020053Z 19008KT 10SM CLR 20/09 A3013 RMK AO2 SLP207 T02000089=
202407012353 METAR KBLI 012353Z 18009G17KT 10SM CLR 19/10 A3014 RMK AO2 SLP212 T01940100 10206 20178 58004=
202407012253 METAR KBLI 012253Z 18007G17KT 10SM CLR 20/12 A3015 RMK AO2 SLP214 T02000117=
202407012153 METAR KBLI 012153Z 17007KT 10SM CLR 20/14 A3015 RMK AO2 SLP216 T02000139=
202407012053 METAR KBLI 012053Z 17009KT 10SM FEW050 SCT110 21/13 A3015 RMK AO2 SLP216 T02060133 58001=
202407011953 METAR KBLI 011953Z 17008KT 150V220 10SM FEW050 FEW100 19/13 A3015 RMK AO2 SLP217 T01890133 $=
202407011853 METAR KBLI 011853Z VRB06KT 10SM FEW050 SCT100 19/13 A3016 RMK AO2 SLP218 T01890133 $=
202407011753 METAR KBLI 011753Z 19007KT 150V210 10SM FEW050 OVC100 18/13 A3015 RMK AO2 SLP217 T01780128 10178 20139 $=
202407011654 METAR KBLI 011654Z 20008KT 160V240 10SM FEW050 BKN100 17/13 A3015 RMK AO2 SLP215 T01720133 $=
202407011553 METAR KBLI 011553Z 18007KT 150V220 10SM FEW050 BKN100 16/13 A3014 RMK AO2 SLP212 T01610133=
202407011453 METAR KBLI 011453Z 19007KT 10SM BKN100 14/13 A3013 RMK AO2 SLP208 T01440133 53006=
202407011353 METAR KBLI 011353Z 17006KT 10SM BKN100 14/13 A3012 RMK AO2 SLP206 T01440133=
202407011253 METAR KBLI 011253Z AUTO 19005KT 10SM CLR 14/13 A3011 RMK AO2 SLP203 T01390133=
202407011153 METAR KBLI 011153Z AUTO 19004KT 10SM CLR 14/13 A3011 RMK AO2 SLP202 T01390128 10172 20139 53003=
202407011053 METAR KBLI 011053Z AUTO 19005KT 10SM CLR 14/13 A3011 RMK AO2 SLP201 T01440133=
202407010953 METAR KBLI 010953Z AUTO 20004KT 10SM CLR 15/13 A3010 RMK AO2 SLP198 T01500133=
202407010853 METAR KBLI 010853Z AUTO 20006KT 10SM OVC110 16/14 A3010 RMK AO2 SLP199 T01560139 55000=
202407010753 METAR KBLI 010753Z AUTO 18007KT 10SM BKN120 16/13 A3010 RMK AO2 SLP198 T01610133 402000144=
202407010653 METAR KBLI 010653Z AUTO 19005KT 10SM BKN110 17/13 A3010 RMK AO2 SLP199 T01670133=
202407010553 METAR KBLI 010553Z AUTO 18006KT 10SM CLR 17/13 A3010 RMK AO2 SLP199 T01720133 10194 20167 50001=
202407010453 METAR KBLI 010453Z 18006KT 10SM CLR 17/13 A3011 RMK AO2 SLP200 T01720128=
202407010353 METAR KBLI 010353Z 17006KT 10SM CLR 18/13 A3010 RMK AO2 SLP197 T01830133=
202407010253 METAR KBLI 010253Z 18007KT 10SM CLR 19/14 A3010 RMK AO2 SLP198 T01890139 56006=
202407010153 METAR KBLI 010153Z 18008KT 10SM CLR 18/14 A3010 RMK AO2 SLP200 T01780144=
202407010053 METAR KBLI 010053Z 19007KT 10SM CLR 19/15 A3011 RMK AO2 SLP201 T01890150=

# No short TAF reports from KBLI in databse.

###################################
#  large TAF from KBLI
###################################
202407312320 TAF KBLI 312320Z 0100/0124 VRB04KT P6SM SKC FM011400 VRB02KT 6SM
                       BR SKC FM011800 28005KT P6SM SKC=
202407311727 TAF KBLI 311727Z 3118/0118 19008KT P6SM FEW040 BKN070 FM312000
                       23005KT P6SM SKC FM010300 VRB02KT P6SM SKC=
202407311130 TAF KBLI 311130Z 3112/0112 19005KT P6SM FEW003 OVC020 FM311800
                       20007KT P6SM SCT020 FM312000 23005KT P6SM
                       SKC FM010300 VRB02KT P6SM SKC=
202407310520 TAF KBLI 310520Z 3106/0106 VRB03KT P6SM SCT025 BKN035 OVC040 FM311000
                       19003KT P6SM OVC020 FM311800 20007KT P6SM
                       SCT020 FM312000 23005KT P6SM SKC=
202407310105 KBLI 310105Z 3101/3124 19003KT P6SM BKN035 OVC050 FM310500 VRB03KT
                       P6SM OVC025 FM311000 19003KT P6SM OVC020
                       FM312100 20007KT P6SM SCT020=
202407302335 TAF KBLI 302335Z 3100/3124 22005KT P6SM OVC030 FM310500 VRB03KT
                       P6SM OVC025 FM311000 19003KT P6SM OVC020
                       FM312100 20007KT P6SM SCT020=
202407301720 TAF KBLI 301720Z 3018/3118 18005KT P6SM VCSH OVC020 FM302100 19005KT
                       P6SM OVC020 FM310500 VRB03KT P6SM OVC025
                       FM311000 19003KT P6SM OVC019=
202407301133 TAF KBLI 301133Z 3012/3112 18005KT P6SM VCSH OVC020 FM301800 18005KT
                       P6SM BKN010 OVC020 FM302100 19005KT P6SM
                       OVC020 FM310500 VRB03KT P6SM OVC025=
202407300822 KBLI 300822Z 3008/3106 18006KT 4SM BR VCSH OVC001 FM301200 18005KT
                       4SM BR OVC007 FM301800 18005KT P6SM OVC015
                       FM302100 19005KT P6SM OVC020=
202407300539 TAF KBLI 300539Z 3006/3106 18006KT 6SM BR VCSH BKN015 OVC035 FM301200
                       18005KT 4SM BR OVC007 FM301800 18005KT P6SM
                       OVC015 FM302100 19005KT P6SM OVC020=
202407292339 TAF KBLI 292339Z 3000/3024 18009KT 6SM -SHRA BR BKN008 OVC020 FM300300
                       18006KT P6SM VCSH BKN020 OVC035 FM301200
                       18005KT 4SM BR OVC007 FM301700 18005KT P6SM
                       OVC015 FM302100 19005KT P6SM OVC020=
202407291940 KBLI 291940Z 2920/3018 18009KT 6SM -SHRA BR SCT010 OVC020 FM300300
                       18006KT P6SM VCSH BKN020 OVC035 FM301200
                       18005KT 4SM BR OVC007=
202407291731 TAF KBLI 291731Z 2918/3018 17010KT 3SM -SHRA BR BKN005 OVC020 FM292300
                       18008KT 6SM BR VCSH OVC025 FM300300 18006KT
                       P6SM VCSH OVC020 FM301200 18005KT 4SM BR
                       OVC007=
202407291128 TAF KBLI 291128Z 2912/3012 18007KT 6SM -SHRA BR OVC050 FM291400
                       17010KT 4SM -SHRA BR OVC020 FM292000 18008KT
                       6SM BR VCSH OVC025 FM300300 18006KT P6SM
                       VCSH OVC020=
202407290520 TAF KBLI 290520Z 2906/3006 18008KT P6SM BKN100 FM291200 18007KT
                       6SM -SHRA BR OVC050 FM291400 17010KT 4SM
                       -SHRA BR OVC020 FM292300 18008KT 6SM BR
                       VCSH OVC025=
202407282329 TAF KBLI 282329Z 2900/2924 18013G20KT P6SM BKN100 FM291200 18004KT
                       6SM -SHRA OVC050 FM291400 17006KT 6SM -SHRA
                       OVC025=
202407281734 TAF KBLI 281734Z 2818/2918 17012G20KT P6SM BKN070 FM282100 18013G20KT
                       P6SM BKN100 FM291200 18004KT 6SM -SHRA OVC050
                       FM291400 17006KT 6SM -SHRA OVC025=
202407281120 TAF KBLI 281120Z 2812/2912 17012G20KT P6SM SKC FM281900 18013G22KT
                       P6SM BKN050 FM290000 18010KT P6SM OVC070
                       FM290500 18008KT P6SM OVC050=
202407280520 TAF KBLI 280520Z 2806/2906 18009KT P6SM SCT250 FM280700 18010G18KT
                       P6SM BKN070 FM281200 17014G22KT P6SM OVC018
                       FM281900 18013G22KT P6SM BKN050 FM290000
                       18010KT P6SM OVC070=
202407272320 TAF KBLI 272320Z 2800/2824 21008KT P6SM SCT250 FM280100 18009KT
                       P6SM SCT250 FM280700 18010G18KT P6SM BKN070
                       FM281200 17014G22KT P6SM OVC018 FM281900
                       18013G22KT P6SM BKN050=
202407271725 TAF KBLI 271725Z 2718/2818 20006KT P6SM SCT250 FM272200 21008KT
                       P6SM SCT250 FM280100 18009KT P6SM SCT250
                       FM280700 18010G18KT P6SM BKN070 FM281200
                       17014G22KT P6SM OVC025=
202407271120 TAF KBLI 271120Z 2712/2812 19005KT P6SM FEW250 FM271700 20006KT
                       P6SM SCT250 FM272200 21008KT P6SM SCT250
                       FM280100 18009KT P6SM SCT250 FM280700 18010G18KT
                       P6SM BKN070=
202407270521 TAF KBLI 270521Z 2706/2806 19005KT P6SM FEW250 FM271700 20006KT
                       P6SM SCT250 FM272200 21008KT P6SM SCT250
                       FM280100 18008KT P6SM SCT250=
202407262320 TAF KBLI 262320Z 2700/2724 31007KT P6SM SCT250 FM270300 19005KT
                       P6SM FEW250 FM271700 23006KT P6SM BKN250=
202407261720 TAF KBLI 261720Z 2618/2718 18005KT 6SM BR SCT200 FM261900 26007KT
                       P6SM SCT250 FM270300 19005KT P6SM FEW250
                       FM271700 23006KT P6SM BKN250=
202407261120 TAF KBLI 261120Z 2612/2712 18005KT 6SM BR SCT200 FM261900 26007KT
                       P6SM SCT250 FM270300 19005KT P6SM FEW250=
202407260534 TAF KBLI 260534Z 2606/2706 18005KT P6SM SCT200 FM261900 24007KT
                       P6SM SCT200 FM270300 19005KT P6SM FEW200=
202407252333 TAF KBLI 252333Z 2600/2624 19008G18KT P6SM SCT150 FM260400 18005KT
                       P6SM SCT200 FM261900 25007KT P6SM SCT200=
202407251720 TAF KBLI 251720Z 2518/2618 17010G20KT P6SM BKN050 OVC090 FM252000
                       19009KT P6SM BKN040 FM252300 19008KT P6SM
                       BKN120 FM260400 17004KT P6SM BKN250=
202407251121 TAF KBLI 251121Z 2512/2612 18008G16KT P6SM OVC029 FM252000 19009KT
                       P6SM BKN040 FM252300 19008KT P6SM BKN250
                       FM260500 17004KT P6SM BKN250=
202407250912 KBLI 250912Z 2509/2606 18006G15KT P6SM SCT035 SCT045 BKN060 FM251200
                       18012G20KT P6SM OVC040 FM251900 19009KT
                       P6SM BKN050=
202407250718 KBLI 250718Z 2507/2606 18006KT P6SM FEW018 SCT025 BKN040 FM251200
                       18012G20KT P6SM OVC040 FM251900 19009KT
                       P6SM BKN050=
202407250608 KBLI 250608Z 2506/2606 18006KT P6SM BKN018 BKN070 FM251200 18012G20KT
                       P6SM OVC040 FM251900 19009KT P6SM BKN050=
202407250522 TAF KBLI 250522Z 2506/2606 18006KT P6SM BKN070 FM251200 18012G20KT
                       P6SM OVC040 FM251900 19009KT P6SM BKN050=
202407242320 TAF KBLI 242320Z 2500/2524 18012G20KT P6SM SCT060 BKN090 FM250200
                       19008KT P6SM SCT040 OVC070 FM250800 19008KT
                       P6SM OVC040 FM251200 18012G20KT P6SM OVC040
                       FM251900 20009KT P6SM BKN050=
202407241726 TAF KBLI 241726Z 2418/2518 19010KT P6SM BKN200 FM242100 19012G18KT
                       P6SM SCT070 BKN150 FM250200 19008KT P6SM
                       SCT040 OVC070 FM250800 19008KT P6SM OVC040=
202407241120 TAF KBLI 241120Z 2412/2512 20005KT P6SM FEW090 FM241600 18010KT
                       P6SM BKN250 FM242100 21012G18KT P6SM SCT070
                       BKN150 FM250600 19007KT P6SM SCT035 BKN040=
202407240549 TAF KBLI 240549Z 2406/2506 17005KT P6SM SKC FM241600 18010G18KT
                       P6SM BKN250 FM242100 21006KT P6SM BKN150=
202407232357 TAF KBLI 232357Z 2400/2424 VRB05KT P6SM SKC FM240300 17005KT P6SM
                       SKC FM241600 18010G18KT P6SM FEW150=
202407231720 TAF KBLI 231720Z 2318/2418 23005KT P6SM SCT050 FM232000 19010KT
                       P6SM FEW060 FM240300 17006KT P6SM SKC=
202407231122 TAF KBLI 231122Z 2312/2412 18005KT P6SM SKC FM231600 18008KT P6SM
                       SCT050 FM232000 19010KT P6SM FEW060 FM240300
                       17006KT P6SM SKC=
202407230554 TAF KBLI 230554Z 2306/2406 18010KT P6SM SKC FM230900 18009KT P6SM
                       BKN050 FM231600 18008KT P6SM SCT050 FM232000
                       22006KT P6SM FEW060=
202407230252 KBLI 230252Z 2303/2324 16012G25KT P6SM FEW090 FM230600 18012KT
                       P6SM SCT050 FM230900 18009KT P6SM BKN050
                       FM231800 18008KT P6SM SCT050=
202407222329 TAF KBLI 222329Z 2300/2324 29012G28KT P6SM SCT045 FM230600 18012KT
                       P6SM SCT050 FM230900 18009KT P6SM BKN050
                       FM231800 18008KT P6SM SCT050=
202407221732 TAF KBLI 221732Z 2218/2318 18010G20KT P6SM FEW015 BKN025 FM221900
                       18012G20KT P6SM BKN030 FM222100 18015G25KT
                       P6SM SCT045 FM230600 18012KT P6SM SCT050=
202407221122 TAF KBLI 221122Z 2212/2312 17008KT P6SM FEW015 FM221600 18010G16KT
                       P6SM BKN025 FM221900 18012G18KT P6SM BKN045
                       FM230300 18011KT P6SM SCT050=
202407220527 TAF KBLI 220527Z 2206/2306 20010KT P6SM SCT150 FM221500 18012G20KT
                       P6SM BKN025 FM221900 18015G24KT P6SM BKN050=
202407212341 TAF KBLI 212341Z 2200/2224 18010G20KT P6SM FEW060 FM220400 18010G20KT
                       P6SM SCT150 FM221500 18012G20KT P6SM BKN025
                       FM221900 18015G24KT P6SM BKN050=
202407211725 TAF KBLI 211725Z 2118/2218 17006KT P6SM BKN150 FM220400 18010G18KT
                       P6SM SCT150 FM221500 18012G20KT P6SM BKN025=
202407211124 TAF KBLI 211124Z 2112/2212 19004KT P6SM FEW150 FM211800 20008KT
                       P6SM BKN150 FM220400 18010G16KT P6SM SCT150=
202407210524 TAF KBLI 210524Z 2106/2206 19005KT P6SM SKC FM211200 19004KT P6SM
                       FEW250 FM211800 19008KT P6SM BKN250=
202407202340 TAF KBLI 202340Z 2100/2124 24006KT P6SM SKC FM210400 19005KT P6SM
                       SKC FM211200 19004KT P6SM FEW250 FM211800
                       19008KT P6SM BKN250=
202407201726 TAF KBLI 201726Z 2018/2118 23005KT P6SM SKC FM202000 24006KT P6SM
                       SKC FM210400 19005KT P6SM SKC FM211200 19004KT
                       P6SM FEW250=
202407201127 TAF KBLI 201127Z 2012/2112 18005KT P6SM SKC FM201900 24006KT P6SM
                       SKC FM210400 19005KT P6SM SKC=
202407200522 TAF KBLI 200522Z 2006/2106 18005KT P6SM SKC FM201900 24006KT P6SM
                       SKC FM210400 19005KT P6SM SKC=
202407192323 TAF KBLI 192323Z 2000/2024 18008KT P6SM SKC FM200600 18005KT P6SM
                       SKC FM201900 22005KT P6SM SKC=
202407191720 TAF KBLI 191720Z 1918/2018 18008KT P6SM SKC FM200600 18005KT P6SM
                       SKC=
202407191120 TAF KBLI 191120Z 1912/2012 18005KT P6SM SKC FM192200 19008KT P6SM
                       SKC FM200600 18005KT P6SM SKC=
202407190700 KBLI 190700Z 1907/2006 17009KT P6SM SKC FM192200 19007KT P6SM SKC=
202407190520 TAF KBLI 190520Z 1906/2006 17009G18KT P6SM SKC FM192200 19007KT
                       P6SM SKC=
202407182320 TAF KBLI 182320Z 1900/1924 18009KT P6SM SKC FM190300 18009G15KT
                       P6SM SKC FM191400 17008KT P6SM OVC015 FM191800
                       19009KT P6SM FEW250=
202407181721 TAF KBLI 181721Z 1818/1918 18009KT P6SM SKC FM190300 18009G15KT
                       P6SM SKC FM191400 17008KT P6SM OVC015=
202407181134 TAF KBLI 181134Z 1812/1912 18009KT P6SM SKC FM181400 18009KT P6SM
                       SCT012
                      TEMPO 1814/1816 BKN012 FM181800 18009KT P6SM
                       SKC FM190300 18009G15KT P6SM SKC=
202407180520 TAF KBLI 180520Z 1806/1906 18009KT P6SM SKC FM181400 21006KT P6SM
                       SCT012
                      TEMPO 1814/1818 BKN012 FM181800 18009G18KT
                       P6SM SKC=
202407180043 TAF KBLI 180043Z 1801/1824 19006KT P6SM SCT150 FM181100 21006KT
                       P6SM OVC012 FM181800 18009G18KT P6SM SCT250=
202407171740 TAF KBLI 171740Z 1718/1818 VRB03KT P6SM BKN150 FM172000 21006KT
                       P6SM SCT150 FM181100 21006KT P6SM OVC012=
202407171126 TAF KBLI 171126Z 1712/1812 VRB03KT P6SM BKN150 FM172000 21006KT
                       P6SM SCT150 FM181100 21006KT P6SM OVC012=
202407170524 TAF KBLI 170524Z 1706/1806 VRB03KT P6SM SKC FM171800 21005KT P6SM
                       SCT150=
202407162327 TAF KBLI 162327Z 1700/1724 VRB03KT P6SM SKC FM171800 21005KT P6SM
                       FEW150=
202407161732 TAF KBLI 161732Z 1618/1718 19004KT P6SM SKC FM162000 24006KT P6SM
                       SKC FM170300 18006KT P6SM SKC=
202407161122 TAF KBLI 161122Z 1612/1712 19004KT P6SM SKC FM162000 24006KT P6SM
                       SKC FM170300 18006KT P6SM SKC=
202407160525 TAF KBLI 160525Z 1606/1706 19004KT P6SM SKC FM161800 24007KT P6SM
                       SKC=
202407152320 TAF KBLI 152320Z 1600/1624 18006KT P6SM SKC=
202407151729 TAF KBLI 151729Z 1518/1618 18009G18KT P6SM BKN006 FM151900 21008G17KT
                       P6SM SKC FM160600 20003KT P6SM SKC=
202407151120 TAF KBLI 151120Z 1512/1612 19010G20KT P6SM SKC FM151400 19013G23KT
                       P6SM FEW010 FM152100 21008G17KT P6SM SKC
                       FM160600 VRB03KT P6SM SKC=
202407150712 KBLI 150712Z 1507/1606 19010G20KT P6SM SKC FM151400 19007KT P6SM
                       FEW010 FM151700 22006KT P6SM SKC=
202407150523 TAF KBLI 150523Z 1506/1606 18008KT P6SM SKC FM151400 19007KT P6SM
                       FEW010 FM151700 22006KT P6SM SKC=
202407142320 TAF KBLI 142320Z 1500/1524 20006KT P6SM SKC=
202407141725 TAF KBLI 141725Z 1418/1518 19006KT P6SM SKC=
202407141120 TAF KBLI 141120Z 1412/1512 VRB02KT P6SM SKC FM141800 22006KT P6SM
                       SKC=
202407140520 TAF KBLI 140520Z 1406/1506 18003KT P6SM SKC FM141800 22006KT P6SM
                       SKC=
202407132320 TAF KBLI 132320Z 1400/1424 23006KT P6SM SKC FM140300 VRB03KT P6SM
                       SKC FM141800 21006KT P6SM SKC=
202407131720 TAF KBLI 131720Z 1318/1418 22007KT P6SM SKC FM140300 19005KT P6SM
                       SKC=
202407131120 TAF KBLI 131120Z 1312/1412 VRB02KT P6SM SKC FM131800 24005KT P6SM
                       SKC FM140300 VRB03KT P6SM SKC=
202407130524 TAF KBLI 130524Z 1306/1406 VRB03KT P6SM SKC FM131800 24005KT P6SM
                       SKC=
202407122320 TAF KBLI 122320Z 1300/1324 23005KT P6SM SKC FM130700 21003KT P6SM
                       SKC FM131600 20004KT P6SM SKC=
202407121720 TAF KBLI 121720Z 1218/1318 18007KT P6SM SKC FM122200 23007KT P6SM
                       SKC FM130700 21003KT P6SM SKC=
202407121120 TAF KBLI 121120Z 1212/1312 21006KT P6SM SKC=
202407120534 TAF KBLI 120534Z 1206/1306 21005KT P6SM SKC=
202407112320 TAF KBLI 112320Z 1200/1224 VRB03KT P6SM SKC FM120500 20003KT P6SM
                       SKC FM121400 VRB03KT P6SM SKC=
202407111720 TAF KBLI 111720Z 1118/1218 19008KT P6SM SKC FM112000 22007KT P6SM
                       SKC FM120500 20003KT P6SM SKC=
202407111131 TAF KBLI 111131Z 1112/1212 19006KT P6SM SKC FM112000 22007KT P6SM
                       SKC=
202407110520 TAF KBLI 110520Z 1106/1206 19006KT P6SM SKC=
202407110302 KBLI 110302Z 1103/1124 19007KT P6SM SKC=
202407102329 TAF KBLI 102329Z 1100/1124 21008G17KT P6SM SKC FM110600 18006KT
                       P6SM SKC=
202407101720 TAF KBLI 101720Z 1018/1118 19010KT P6SM SKC FM111000 18006KT P6SM
                       SKC=
202407101121 TAF KBLI 101121Z 1012/1112 19010KT P6SM SKC=
202407100520 TAF KBLI 100520Z 1006/1106 19010KT P6SM SKC=
202407092320 TAF KBLI 092320Z 1000/1024 20005KT P6SM SKC FM100700 19007KT P6SM
                       SKC FM101100 18011KT P6SM SKC=
202407091720 TAF KBLI 091720Z 0918/1018 VRB03KT P6SM SKC FM091900 23005KT P6SM
                       SKC FM100700 19007KT P6SM SKC FM101100 18011KT
                       P6SM SKC=
202407091120 TAF KBLI 091120Z 0912/1012 VRB03KT P6SM SKC FM091900 23005KT P6SM
                       SKC FM100700 19007KT P6SM SKC=
202407090520 TAF KBLI 090520Z 0906/1006 VRB02KT P6SM SKC FM091600 23005KT P6SM
                       SKC=
202407082320 TAF KBLI 082320Z 0900/0924 VRB04KT P6SM SKC FM090400 VRB02KT P6SM
                       SKC FM091600 23005KT P6SM SKC=
202407081720 TAF KBLI 081720Z 0818/0918 27006KT P6SM SKC FM090400 18004KT P6SM
                       SKC=
202407081122 TAF KBLI 081122Z 0812/0912 VRB02KT P6SM SKC FM081800 27006KT P6SM
                       SKC FM090400 18004KT P6SM SKC=
202407081049 TAF KBLI 081049Z 0811/0906 19005KT P6SM SKC FM081200 VRB02KT P6SM
                       SKC FM081800 27004KT P6SM SKC FM090400 18004KT
                       P6SM SKC=
202407080528 TAF KBLI 080528Z 0806/0906 19005KT P6SM SKC FM081200 VRB02KT P6SM
                       SKC FM081800 27004KT P6SM SKC FM090400 18004KT
                       P6SM SKC=
202407072320 TAF KBLI 072320Z 0800/0824 VRB04KT P6SM SKC FM080400 20003KT P6SM
                       SKC FM081200 VRB02KT P6SM SKC FM081800 27004KT
                       P6SM SKC=
202407071720 TAF KBLI 071720Z 0718/0818 24006KT P6SM SKC FM080400 20004KT P6SM
                       SKC FM081200 19003KT P6SM SKC=
202407071120 TAF KBLI 071120Z 0712/0812 VRB03KT P6SM SKC FM071800 24005KT P6SM
                       SKC FM080400 20004KT P6SM SKC=
202407070520 TAF KBLI 070520Z 0706/0806 VRB02KT P6SM SKC FM071800 24005KT P6SM
                       SKC=
202407062320 TAF KBLI 062320Z 0700/0724 30006KT P6SM SKC FM070500 20004KT P6SM
                       SKC FM071200 VRB02KT P6SM SKC=
202407061720 TAF KBLI 061720Z 0618/0718 26006KT P6SM SKC FM070500 20004KT P6SM
                       SKC FM071200 VRB02KT P6SM SKC=
202407061120 TAF KBLI 061120Z 0612/0712 18005KT P6SM SKC FM061700 26006KT P6SM
                       SKC FM070500 20004KT P6SM SKC=
202407060520 TAF KBLI 060520Z 0606/0706 18005KT P6SM SKC FM061700 26006KT P6SM
                       SKC=
202407052320 TAF KBLI 052320Z 0600/0624 24005KT P6SM SKC FM060600 VRB03KT P6SM
                       SKC FM061700 33004KT P6SM SKC=
202407051720 TAF KBLI 051720Z 0518/0618 VRB03KT P6SM SKC FM052000 24005KT P6SM
                       SKC FM060600 VRB03KT P6SM SKC=
202407051120 TAF KBLI 051120Z 0512/0612 VRB03KT P6SM SKC FM052000 24008KT P6SM
                       SKC FM060300 VRB03KT P6SM SKC=
202407050520 TAF KBLI 050520Z 0506/0606 VRB03KT P6SM SKC FM052100 24008KT P6SM
                       SKC FM060300 19003KT P6SM SKC=
202407042328 TAF KBLI 042328Z 0500/0524 28005KT P6SM SKC FM050300 VRB03KT P6SM
                       SKC FM052100 24008KT P6SM SKC=
202407041720 TAF KBLI 041720Z 0418/0518 28004KT P6SM SKC FM042100 26009KT P6SM
                       SKC FM050300 VRB03KT P6SM SKC=
202407041126 TAF KBLI 041126Z 0412/0512 00000KT P6SM SKC FM041600 34004KT P6SM
                       SKC FM042100 26009KT P6SM SKC FM050300 VRB03KT
                       P6SM SKC=
202407040522 TAF KBLI 040522Z 0406/0506 VRB05KT P6SM SKC FM041600 34004KT P6SM
                       SKC FM042100 26009KT P6SM SKC FM050300 VRB03KT
                       P6SM SKC=
202407032324 TAF KBLI 032324Z 0400/0424 VRB05KT P6SM SKC FM041200 34004KT P6SM
                       SKC FM042100 26009KT P6SM SKC=
202407031720 TAF KBLI 031720Z 0318/0418 20008KT P6SM FEW020 SCT060 FM032000
                       22009KT P6SM FEW060 FM040300 VRB03KT P6SM
                       SKC=
202407031123 TAF KBLI 031123Z 0312/0412 18007KT P6SM FEW035 BKN060 FM031800
                       20006KT P6SM SCT070 FM032000 22009KT P6SM
                       SKC FM040300 VRB03KT P6SM SKC=
202407030520 TAF KBLI 030520Z 0306/0406 19009KT P6SM SKC FM031500 17004KT P6SM
                       OVC025 FM031800 20006KT P6SM SCT030 FM032000
                       22009KT P6SM SKC FM040300 VRB03KT P6SM SKC=
202407022320 TAF KBLI 022320Z 0300/0324 19009KT P6SM SKC FM031500 17004KT P6SM
                       OVC025 FM031800 23006KT P6SM SCT030 FM032000
                       24009KT P6SM SKC=
202407021730 TAF KBLI 021730Z 0218/0318 18012G20KT P6SM FEW014 SCT026 BKN070
                       FM021900 20012KT P6SM SCT030 SCT070 FM022200
                       21007KT P6SM SCT070 FM030400 19005KT P6SM
                       FEW050 FM031500 17004KT P6SM OVC025=
202407021518 KBLI 021518Z 0215/0312 18011G20KT P6SM OVC024 FM021800 18011KT
                       P6SM BKN030 FM022200 21007KT P6SM SCT060
                       FM030400 19005KT P6SM FEW050=
202407021129 TAF KBLI 021129Z 0212/0312 18010KT P6SM BKN060 FM022200 21007KT
                       P6SM SCT060 FM030400 19005KT P6SM FEW050=
202407020815 KBLI 020815Z 0208/0306 18006KT P6SM SCT050 FM020900 18006KT P6SM
                       SCT050 SCT200 FM021200 18007KT P6SM SCT025
                       OVC040 FM022200 21008KT P6SM SCT050 FM030200
                       21006KT P6SM FEW045=
202407020520 TAF KBLI 020520Z 0206/0306 18010G16KT P6SM SCT050 FM020900 18009KT
                       P6SM SCT050 SCT200 FM021200 18007KT P6SM
                       SCT025 OVC040 FM022200 21008KT P6SM SCT050
                       FM030200 21006KT P6SM FEW045=
202407012332 TAF KBLI 012332Z 0200/0224 18010G16KT P6SM SCT050 FM020700 18009KT
                       P6SM SCT050 SCT200 FM021200 18007KT P6SM
                       SCT025 OVC040 FM022200 21008KT P6SM SCT050=
202407011729 TAF KBLI 011729Z 0118/0218 20008KT P6SM FEW050 BKN100 FM012100
                       20009KT P6SM SCT050 FM020100 18010G16KT
                       P6SM SCT050 FM020700 18009KT P6SM SCT050
                       SCT200 FM021200 18007KT P6SM OVC050=
202407011121 TAF KBLI 011121Z 0112/0212 18006KT P6SM SCT035 BKN080 FM012100
                       20009KT P6SM SCT050 FM020100 18010G16KT
                       P6SM SCT050 FM020700 18009KT P6SM SCT050
                       SCT200=
202407010523 TAF KBLI 010523Z 0106/0206 18008KT P6SM SCT060 FM011200 18006KT
                       P6SM SCT035 BKN050 FM012100 20009KT P6SM
                       SCT050 FM020300 18010G16KT P6SM SCT050=