##########################################################
# Query made at 02/17/2025 00:06:21 UTC
# Time interval: from 11/01/2024 00:00  to 11/30/2024 23:59  UTC
##########################################################

##########################################################
# KBLI, Bellingham, Bellingham International Airport (United States)
# WMO index: -----. WIGOS ID: Unknown
# Latitude 48-47-58N. Longitude 122-32-21W. Altitude 48 m.
##########################################################

###################################
#  METAR/SPECI from KBLI
###################################
202411302353 METAR KBLI 302353Z 01003KT 10SM FEW075 OVC090 06/04 A3028 RMK AO2 RAE06 SLP263 P0000 60000 T00610044 10067 20056 53003=
202411302253 METAR KBLI 302253Z 19003KT 10SM -RA FEW047 BKN055 OVC070 07/04 A3027 RMK AO2 RAB40 SLP257 P0000 T00670044=
202411302153 METAR KBLI 302153Z 19005KT 10SM FEW060 BKN075 OVC095 07/03 A3026 RMK AO2 SLP256 T00670033=
202411302053 METAR KBLI 302053Z 20005KT 10SM FEW060 OVC075 07/03 A3027 RMK AO2 SLP259 T00670033 50001=
202411301953 METAR KBLI 301953Z 18006KT 10SM BKN035 BKN070 OVC090 06/03 A3028 RMK AO2 SLP262 T00610028=
202411301853 METAR KBLI 301853Z 18009KT 10SM FEW035 OVC046 06/03 A3028 RMK AO2 SLP263 T00560028=
202411301753 METAR KBLI 301753Z 17005KT 10SM OVC034 06/02 A3027 RMK AO2 SLP259 60000 T00560022 10056 20044 53008=
202411301653 METAR KBLI 301653Z 15005KT 10SM SCT034 BKN050 OVC060 05/03 A3026 RMK AO2 SLP256 T00500028=
202411301553 METAR KBLI 301553Z 16003KT 10SM OVC060 04/02 A3025 RMK AO2 RAB40E52 SLP252 P0000 T00440022=
202411301453 METAR KBLI 301453Z 19008KT 10SM OVC070 05/02 A3024 RMK AO2 SLP251 T00500022 55002=
202411301353 METAR KBLI 301353Z AUTO 18007KT 10SM SCT038 BKN055 BKN075 05/02 A3024 RMK AO2 SLP250 T00500022=
202411301253 METAR KBLI 301253Z AUTO 18011G17KT 10SM BKN037 05/02 A3024 RMK AO2 SLP250 T00500022=
202411301153 METAR KBLI 301153Z AUTO 18007KT 10SM OVC036 05/02 A3025 RMK AO2 SLP253 T00500017 10050 20039 58005=
202411301053 METAR KBLI 301053Z AUTO 19008KT 10SM OVC035 05/02 A3026 RMK AO2 SLP255 T00500017=
202411300953 METAR KBLI 300953Z AUTO 17008KT 10SM OVC036 05/02 A3027 RMK AO2 SLP259 T00500017=
202411300853 METAR KBLI 300853Z AUTO 18007KT 10SM OVC050 05/02 A3026 RMK AO2 SLP258 T00500017 55001=
202411300753 METAR KBLI 300753Z AUTO 19004KT 10SM SCT049 BKN055 BKN120 05/02 A3026 RMK AO2 SLP256 T00500017 400610000=
202411300653 METAR KBLI 300653Z AUTO 18003KT 10SM BKN049 BKN080 OVC110 04/02 A3025 RMK AO2 SLP252 T00440022=
202411300553 METAR KBLI 300553Z 15004KT 10SM BKN046 OVC060 05/02 A3027 RMK AO2 SLP259 60000 T00500022 10061 20044 55001=
202411300453 METAR KBLI 300453Z 19005KT 10SM FEW034 BKN055 OVC110 05/02 A3026 RMK AO2 RAB39E53 SLP256 P0000 T00500022=
202411300353 METAR KBLI 300353Z 17007KT 10SM FEW030 BKN041 05/02 A3025 RMK AO2 SLP254 T00500017=
202411300253 METAR KBLI 300253Z 16007KT 10SM OVC033 05/02 A3027 RMK AO2 SLP260 T00500017 56003=
202411300153 METAR KBLI 300153Z 18005KT 10SM OVC039 06/02 A3027 RMK AO2 SLP261 T00560017=
202411300053 METAR KBLI 300053Z 18008KT 10SM OVC031 06/02 A3026 RMK AO2 SLP257 T00560022=
202411292353 METAR KBLI 292353Z 18007KT 10SM OVC031 06/02 A3028 RMK AO2 SLP263 T00610022 10061 20044 53000=
202411292253 METAR KBLI 292253Z 19008KT 10SM OVC031 06/02 A3027 RMK AO2 SLP258 T00610022=
202411292153 METAR KBLI 292153Z 18008KT 10SM OVC032 06/03 A3027 RMK AO2 SLP260 T00560028=
202411292053 METAR KBLI 292053Z 18007G16KT 10SM OVC034 06/02 A3028 RMK AO2 SLP263 T00610022 51000=
202411291953 METAR KBLI 291953Z 18009KT 10SM OVC033 05/02 A3028 RMK AO2 SLP262 T00500022=
202411291853 METAR KBLI 291853Z 19007KT 10SM OVC031 04/03 A3028 RMK AO2 SLP265 T00440028=
202411291753 METAR KBLI 291753Z 18005KT 8SM SCT015 BKN023 04/02 A3028 RMK AO2 RAB20E29 SLP263 P0000 60000 T00440022 10044 20028 53015=
202411291653 METAR KBLI 291653Z 15005KT 10SM SCT013 BKN040 OVC050 04/02 A3027 RMK AO2 SLP258 T00390022=
202411291553 METAR KBLI 291553Z 17006KT 10SM OVC060 03/02 A3024 RMK AO2 SLP251 T00330022=
202411291453 METAR KBLI 291453Z 19005KT 10SM BKN050 BKN065 OVC120 03/02 A3023 RMK AO2 SLP248 T00280022 58004=
202411291353 METAR KBLI 291353Z AUTO 18007KT 10SM SCT007 OVC065 03/02 A3025 RMK AO2 SLP252 T00330022=
202411291350 SPECI KBLI 291350Z AUTO 18005KT 10SM SCT007 OVC065 03/02 A3025 RMK AO2=
202411291253 METAR KBLI 291253Z AUTO 18006KT 10SM FEW045 OVC060 03/02 A3025 RMK AO2 SLP252 T00330022=
202411291153 METAR KBLI 291153Z AUTO 18007KT 10SM CLR 03/02 A3022 RMK AO2 SLP242 T00280022 10028 20000 58002=
202411291053 METAR KBLI 291053Z AUTO 16003KT 5SM BR CLR 01/01 A3022 RMK AO2 SLP243 T00110011=
202411290953 METAR KBLI 290953Z AUTO 00000KT 6SM BR CLR 00/00 A3023 RMK AO2 SLP246 T00000000=
202411290853 METAR KBLI 290853Z AUTO 00000KT 4SM BR CLR 00/00 A3023 RMK AO2 SLP244 T00000000 53002=
202411290753 METAR KBLI 290753Z AUTO 00000KT 5SM BR CLR 01/01 A3022 RMK AO2 SLP244 T00060006 400720000=
202411290653 METAR KBLI 290653Z AUTO 00000KT 4SM BR CLR 01/01 A3021 RMK AO2 SLP241 T00060006=
202411290553 METAR KBLI 290553Z 00000KT 6SM BR CLR 01/01 A3022 RMK AO2 SLP243 T00110011 10050 20006 50001=
202411290453 METAR KBLI 290453Z 00000KT 8SM CLR 02/01 A3022 RMK AO2 SLP245 T00170011=
202411290353 METAR KBLI 290353Z 00000KT 7SM CLR 02/02 A3022 RMK AO2 SLP244 T00170017=
202411290253 METAR KBLI 290253Z 00000KT 9SM CLR 01/01 A3022 RMK AO2 SLP242 T00110011 57004=
202411290153 METAR KBLI 290153Z 00000KT 10SM CLR 02/02 A3022 RMK AO2 SLP242 T00170017=
202411290053 METAR KBLI 290053Z 00000KT 10SM CLR 03/03 A3023 RMK AO2 SLP245 T00330028=
202411282353 METAR KBLI 282353Z 00000KT 10SM CLR 04/03 A3023 RMK AO2 SLP246 T00440033 10072 20017 56017=
202411282253 METAR KBLI 282253Z 00000KT 10SM CLR 07/02 A3024 RMK AO2 SLP250 T00670022=
202411282153 METAR KBLI 282153Z 04003KT 10SM CLR 07/02 A3026 RMK AO2 SLP257 T00670017=
202411282053 METAR KBLI 282053Z 36004KT 10SM CLR 07/03 A3028 RMK AO2 SLP263 T00670028 58013=
202411281953 METAR KBLI 281953Z 02004KT 10SM CLR 06/04 A3029 RMK AO2 SLP267 T00610039=
202411281853 METAR KBLI 281853Z 04003KT 7SM CLR 04/04 A3032 RMK AO2 SLP275 VIS NW-NE 2SM T00390039=
202411281831 SPECI KBLI 281831Z 02003KT 7SM CLR 03/03 A3032 RMK AO2 VIS NW-NE 2SM T00330033=
202411281823 SPECI KBLI 281823Z 00000KT 3SM BR BKN001 03/03 A3032 RMK AO2 T00330033=
202411281753 METAR KBLI 281753Z 00000KT 1/4SM R16/2000V4500FT FG VV001 02/02 A3032 RMK AO2 SLP276 T00170017 10028 20000 58002=
202411281653 METAR KBLI 281653Z 36003KT 1/4SM R16/1200V1800FT FG VV001 00/00 A3032 RMK AO2 SLP278 T00000000=
202411281646 SPECI KBLI 281646Z 36003KT 1/4SM R16/1600V2200FT FG VV001 00/00 A3032 RMK AO2 T00000000=
202411281642 SPECI KBLI 281642Z 36003KT 8SM R16/1600V2200FT SCT002 BKN030 00/00 A3032 RMK AO2 BCFG T00000000=
202411281637 SPECI KBLI 281637Z 00000KT 8SM R16/2200V3000FT SCT002 SCT030 00/00 A3033 RMK AO2 BCFG T00000000=
202411281615 SPECI KBLI 281615Z 00000KT 8SM R16/3500V6000FT SCT036 01/01 A3032 RMK AO2 BCFG T00060006=
202411281553 METAR KBLI 281553Z 00000KT 3/4SM R16/2200V2800FT BR SCT001 OVC036 01/01 A3032 RMK AO2 SLP277 T00060006=
202411281517 SPECI KBLI 281517Z 00000KT 1/2SM R16/2400V3500FT FG BKN001 OVC017 01/01 A3032 RMK AO2 T00110011=
202411281508 SPECI KBLI 281508Z 00000KT 1/2SM R16/2200V2800FT FG SCT001 OVC017 01/01 A3032 RMK AO2 T00110011=
202411281500 SPECI KBLI 281500Z 00000KT 1/2SM R16/1800V2600FT FG OVC017 01/01 A3032 RMK AO2 T00110011=
202411281453 METAR KBLI 281453Z 00000KT 1/2SM R16/1800FT FG FEW001 OVC017 01/01 A3033 RMK AO2 SLP279 T00110011 56007=
202411281441 SPECI KBLI 281441Z 00000KT 1/2SM R16/1800V2000FT FG SCT001 BKN018 OVC037 01/01 A3033 RMK AO2 T00110011=
202411281432 SPECI KBLI 281432Z 00000KT 1/4SM R16/1600V1800FT FG SCT001 BKN018 OVC037 01/01 A3033 RMK AO2 T00110011=
202411281426 SPECI KBLI 281426Z AUTO 00000KT 1/4SM R16/1600V2400FT FG BKN001 OVC037 02/02 A3033 RMK AO2 T00170017=
202411281416 SPECI KBLI 281416Z AUTO 00000KT 1/2SM R16/2400V5000FT FG SCT001 OVC038 01/01 A3033 RMK AO2 T00110011=
202411281405 SPECI KBLI 281405Z AUTO 01003KT 1/2SM R16/2400V3500FT FG SCT001 BKN018 OVC037 02/02 A3033 RMK AO2 T00170017=
202411281358 SPECI KBLI 281358Z AUTO 00000KT 3/4SM R16/2400VP6000FT BR BKN001 BKN017 OVC035 02/02 A3033 RMK AO2 T00220022=
202411281353 METAR KBLI 281353Z AUTO 00000KT 1 1/4SM R16/3000VP6000FT BR SCT002 BKN017 OVC035 02/02 A3033 RMK AO2 SLP281 T00170017=
202411281350 SPECI KBLI 281350Z AUTO 00000KT 1 3/4SM BR FEW002 BKN017 OVC035 02/02 A3033 RMK AO2=
202411281347 SPECI KBLI 281347Z AUTO 00000KT 3SM BR FEW002 BKN017 OVC035 02/02 A3033 RMK AO2=
202411281253 METAR KBLI 281253Z AUTO 00000KT 4SM BR FEW017 OVC032 02/02 A3033 RMK AO2 SLP281 T00220022=
202411281229 SPECI KBLI 281229Z AUTO 00000KT 4SM BR FEW001 BKN017 OVC037 02/02 A3034 RMK AO2 T00220022=
202411281204 SPECI KBLI 281204Z AUTO 00000KT 3SM BR OVC016 02/02 A3035 RMK AO2 T00220022=
202411281153 METAR KBLI 281153Z AUTO 00000KT 2SM R16/4500VP6000FT BR OVC016 02/02 A3035 RMK AO2 SLP286 70014 T00220022 10039 20017 58005=
202411281142 SPECI KBLI 281142Z AUTO 00000KT 1SM R16/4500V6000FT BR OVC016 02/02 A3035 RMK AO2 T00220022=
202411281134 SPECI KBLI 281134Z AUTO 00000KT 3/4SM R16/3500V5500FT BR OVC016 02/02 A3035 RMK AO2 T00220022=
202411281115 SPECI KBLI 281115Z AUTO 01003KT 1/2SM R16/2200V3000FT FG BKN018 OVC036 02/02 A3035 RMK AO2 T00170017=
202411281102 SPECI KBLI 281102Z AUTO 00000KT 1/4SM R16/2000V2400FT FG SCT018 OVC036 02/02 A3036 RMK AO2 T00220022=
202411281053 METAR KBLI 281053Z AUTO 00000KT 1/2SM R16/2000V2200FT FG FEW018 BKN037 02/02 A3036 RMK AO2 SLP290 T00220022=
202411281023 SPECI KBLI 281023Z AUTO 00000KT 1/2SM R16/1400VP6000FT FG SCT002 SCT019 BKN037 03/03 A3036 RMK AO2 T00280028=
202411281011 SPECI KBLI 281011Z AUTO 00000KT 1/2SM R16/P6000FT FG BKN038 03/03 A3036 RMK AO2 T00280028=
202411281000 SPECI KBLI 281000Z AUTO 00000KT 1 1/2SM BR OVC038 03/03 A3036 RMK AO2 T00280028=
202411280953 METAR KBLI 280953Z AUTO 00000KT 2SM R16/6000VP6000FT BR OVC038 03/03 A3036 RMK AO2 SLP289 T00330033=
202411280933 SPECI KBLI 280933Z AUTO 00000KT 4SM BR SCT016 OVC038 03/03 A3036 RMK AO2 T00330033=
202411280911 SPECI KBLI 280911Z AUTO 00000KT 4SM BR BKN016 OVC038 03/03 A3036 RMK AO2 T00330033=
202411280853 METAR KBLI 280853Z AUTO 00000KT 4SM BR OVC039 04/04 A3036 RMK AO2 SLP291 T00390039 58003=
202411280845 SPECI KBLI 280845Z AUTO 00000KT 2SM BR OVC039 03/03 A3036 RMK AO2 T00330033=
202411280753 METAR KBLI 280753Z AUTO 00000KT 4SM BR OVC040 04/04 A3037 RMK AO2 SLP293 T00390039 400670033=
202411280725 SPECI KBLI 280725Z AUTO 00000KT 4SM BR SCT017 OVC042 04/04 A3038 RMK AO2 T00390039=
202411280715 SPECI KBLI 280715Z AUTO 00000KT 4SM BR BKN016 OVC042 04/04 A3038 RMK AO2 T00390039=
202411280653 METAR KBLI 280653Z AUTO 00000KT 4SM BR SCT016 OVC041 04/04 A3038 RMK AO2 SLP295 T00390039=
202411280553 METAR KBLI 280553Z 00000KT 4SM BR OVC043 03/03 A3037 RMK AO2 SLP294 60000 T00330033 10056 20033 52004=
202411280453 METAR KBLI 280453Z 00000KT 4SM BR OVC045 04/04 A3037 RMK AO2 SLP293 T00390039=
202411280353 METAR KBLI 280353Z 00000KT 5SM BR OVC044 04/04 A3036 RMK AO2 SLP291 T00390039=
202411280253 METAR KBLI 280253Z 00000KT 5SM BR OVC044 04/04 A3036 RMK AO2 SLP290 60000 T00390039 53001=
202411280153 METAR KBLI 280153Z 00000KT 5SM BR OVC050 04/04 A3035 RMK AO2 SLP287 T00440044=
202411280053 METAR KBLI 280053Z 00000KT 10SM OVC050 04/04 A3036 RMK AO2 RAE10 SLP289 P0000 T00390039=
202411272353 METAR KBLI 272353Z 00000KT 10SM -RA SCT025 OVC039 06/05 A3036 RMK AO2 RAB41 SLP289 P0000 60014 T00560050 10067 20050 55003=
202411272253 METAR KBLI 272253Z 00000KT 10SM SCT025 OVC039 06/04 A3035 RMK AO2 RAE35 SLP286 P0001 T00560044=
202411272153 METAR KBLI 272153Z 00000KT 5SM -RA BR OVC027 06/04 A3035 RMK AO2 SLP287 P0005 T00560039=
202411272111 SPECI KBLI 272111Z 18004KT 6SM -RA BR SCT009 BKN020 OVC033 06/04 A3036 RMK AO2 P0004 T00560044=
202411272059 SPECI KBLI 272059Z 00000KT 2 1/2SM R16/5000VP6000FT -RA BR SCT009 BKN020 OVC033 06/05 A3037 RMK AO2 P0002 T00560050=
202411272053 METAR KBLI 272053Z 21004KT 5SM R16/5000VP6000FT -RA BR SCT009 BKN020 OVC033 06/05 A3036 RMK AO2 RAE07B25 SLP292 P0004 60008 T00560050 58002=
202411272040 SPECI KBLI 272040Z VRB03KT 3SM -RA BR FEW009 BKN015 OVC028 06/04 A3037 RMK AO2 RAE07B25 P0003 T00560044=
202411271953 METAR KBLI 271953Z 00000KT 10SM -RA BKN015 BKN027 OVC038 06/05 A3038 RMK AO2 RAB21 SLP296 P0004 T00610050=
202411271853 METAR KBLI 271853Z 18004KT 10SM SCT009 BKN018 OVC035 07/04 A3037 RMK AO2 SLP295 T00670044=
202411271827 SPECI KBLI 271827Z VRB03KT 10SM SCT009 OVC018 06/04 A3037 RMK AO2 T00610044=
202411271753 METAR KBLI 271753Z 00000KT 9SM SCT011 BKN020 OVC050 05/04 A3037 RMK AO2 SLP294 60000 T00500044 10050 20033 53005=
202411271733 SPECI KBLI 271733Z 00000KT 8SM SCT011 BKN020 OVC050 04/04 A3037 RMK AO2 T00440039=
202411271700 SPECI KBLI 271700Z 00000KT 6SM BR BKN011 BKN025 OVC035 04/04 A3036 RMK AO2 T00390039=
202411271653 METAR KBLI 271653Z 00000KT 6SM BR SCT011 BKN025 OVC035 04/04 A3036 RMK AO2 RAE14 SLP290 P0000 T00390039=
202411271553 METAR KBLI 271553Z 00000KT 7SM -RA SCT008 BKN014 OVC021 03/03 A3036 RMK AO2 RAE11B53 SLP289 CIGS LWR NW-NE P0000 T00330033=
202411271549 SPECI KBLI 271549Z 04003KT 7SM SCT008 BKN014 OVC021 03/03 A3036 RMK AO2 RAE11 CIGS LWR NW-NE P0000=
202411271503 SPECI KBLI 271503Z 00000KT 6SM -RA BR SCT008 BKN019 OVC040 03/03 A3035 RMK AO2 P0000 T00330033=
202411271453 METAR KBLI 271453Z 00000KT 7SM -RA BKN008 BKN014 OVC019 03/03 A3035 RMK AO2 RAB49 SLP288 P0000 60000 T00330033 53001=
202411271433 SPECI KBLI 271433Z 00000KT 7SM BKN007 BKN016 OVC032 03/03 A3035 RMK AO2 T00330033=
202411271353 METAR KBLI 271353Z AUTO 00000KT 8SM FEW008 OVC031 03/03 A3034 RMK AO2 SLP284 T00330033=
202411271339 SPECI KBLI 271339Z AUTO 00000KT 7SM FEW007 FEW010 OVC031 03/03 A3035 RMK AO2 T00330033=
202411271315 SPECI KBLI 271315Z AUTO 00000KT 7SM SCT023 OVC032 03/03 A3035 RMK AO2 T00330033=
202411271253 METAR KBLI 271253Z AUTO 33003KT 8SM BKN024 OVC029 03/03 A3035 RMK AO2 SLP287 T00330033=
202411271251 SPECI KBLI 271251Z AUTO 00000KT 8SM BKN024 BKN029 OVC039 03/03 A3035 RMK AO2=
202411271234 SPECI KBLI 271234Z AUTO 00000KT 9SM SCT027 BKN032 OVC038 03/03 A3035 RMK AO2 T00330033=
202411271206 SPECI KBLI 271206Z AUTO 00000KT 8SM BKN029 OVC038 03/03 A3035 RMK AO2 T00330033=
202411271153 METAR KBLI 271153Z AUTO 00000KT 7SM BKN030 OVC040 03/03 A3035 RMK AO2 RAB07E17 SLP286 P0000 60000 T00330033 10039 20028 50007=
202411271053 METAR KBLI 271053Z AUTO 00000KT 8SM BKN034 BKN041 OVC060 03/03 A3035 RMK AO2 RAB08E29 SLP287 P0000 T00330028=
202411271037 SPECI KBLI 271037Z AUTO 04003KT 10SM FEW023 BKN035 OVC060 03/03 A3035 RMK AO2 RAB08E29 P0000 T00330028=
202411271014 SPECI KBLI 271014Z AUTO 00000KT 9SM -RA SCT024 BKN029 OVC055 03/03 A3035 RMK AO2 RAB08 P0000 T00330028=
202411270953 METAR KBLI 270953Z AUTO 00000KT 10SM FEW029 OVC049 03/03 A3034 RMK AO2 RAB38E50 SLP284 P0000 T00330028=
202411270915 SPECI KBLI 270915Z AUTO 00000KT 10SM SCT029 BKN038 OVC050 03/03 A3033 RMK AO2 T00330028=
202411270853 METAR KBLI 270853Z AUTO 01004KT 10SM BKN028 OVC039 03/03 A3033 RMK AO2 SLP280 60000 T00330028 51009=
202411270753 METAR KBLI 270753Z AUTO 35003KT 10SM OVC049 03/03 A3032 RMK AO2 RAE08 SLP278 P0000 T00330028 400670006=
202411270653 METAR KBLI 270653Z AUTO 00000KT 10SM -RA SCT029 OVC047 04/03 A3031 RMK AO2 RAB47 SLP273 P0000 T00390028=
202411270640 SPECI KBLI 270640Z AUTO 00000KT 10SM BKN028 OVC048 04/03 A3031 RMK AO2 T00390028=
202411270553 METAR KBLI 270553Z 00000KT 10SM FEW031 OVC043 04/03 A3030 RMK AO2 SLP270 T00390028 10050 20033 51013=
202411270453 METAR KBLI 270453Z 00000KT 10SM FEW036 OVC043 04/03 A3029 RMK AO2 SLP267 T00440028=
202411270353 METAR KBLI 270353Z 06003KT 10SM OVC037 04/02 A3028 RMK AO2 SLP262 T00440017=
202411270253 METAR KBLI 270253Z 00000KT 10SM OVC030 04/02 A3026 RMK AO2 SLP257 T00390022 51012=
202411270153 METAR KBLI 270153Z 02003KT 10SM FEW030 SCT040 03/02 A3025 RMK AO2 SLP253 T00330017=
202411270053 METAR KBLI 270053Z 00000KT 10SM FEW030 SCT040 04/02 A3024 RMK AO2 SLP249 T00390017=
202411262353 METAR KBLI 262353Z 07006KT 10SM SCT024 BKN033 05/02 A3023 RMK AO2 SLP245 T00500017 10067 20050 53013=
202411262253 METAR KBLI 262253Z 34004KT 10SM SCT024 BKN030 06/02 A3022 RMK AO2 SLP241 T00560017=
202411262153 METAR KBLI 262153Z 00000KT 10SM SCT022 06/02 A3020 RMK AO2 SLP236 T00560017=
202411262053 METAR KBLI 262053Z 04004KT 10SM SCT020 BKN030 07/02 A3019 RMK AO2 SLP232 T00670022 51010=
202411261953 METAR KBLI 261953Z 00000KT 10SM SCT020 BKN030 06/02 A3018 RMK AO2 SLP229 T00560017=
202411261853 METAR KBLI 261853Z 00000KT 10SM SCT020 BKN060 06/02 A3017 RMK AO2 SLP226 T00610017=
202411261753 METAR KBLI 261753Z 04003KT 10SM SCT020 SCT040 BKN060 04/01 A3016 RMK AO2 SLP222 T00440006 10044 20006 51019=
202411261653 METAR KBLI 261653Z 00000KT 10SM SCT020 SCT040 BKN060 02/M01 A3015 RMK AO2 SLP218 T00221006=
202411261553 METAR KBLI 261553Z 36003KT 10SM FEW020 SCT040 BKN060 02/M01 A3013 RMK AO2 SLP212 T00171006=
202411261453 METAR KBLI 261453Z 36003KT 10SM FEW025 SCT050 02/M01 A3010 RMK AO2 SLP203 T00171011 53012=
202411261353 METAR KBLI 261353Z AUTO 35003KT 10SM BKN065 02/M01 A3008 RMK AO2 SLP197 T00171006=
202411261253 METAR KBLI 261253Z AUTO 02005KT 10SM SCT042 OVC065 03/M01 A3008 RMK AO2 SLP195 T00281006=
202411261153 METAR KBLI 261153Z AUTO 00000KT 10SM OVC040 03/00 A3007 RMK AO2 SLP191 70009 T00280000 10039 20028 53009=
202411261053 METAR KBLI 261053Z AUTO 02006KT 10SM OVC039 03/M01 A3006 RMK AO2 SLP189 T00331006=
202411260953 METAR KBLI 260953Z AUTO 02004KT 10SM OVC036 03/00 A3005 RMK AO2 SLP184 T00330000=
202411260853 METAR KBLI 260853Z AUTO 02005KT 10SM BKN031 OVC044 03/M01 A3004 RMK AO2 SLP182 T00331006 50005=
202411260842 SPECI KBLI 260842Z AUTO 02005KT 10SM SCT024 BKN031 OVC044 03/M01 A3004 RMK AO2 T00331011=
202411260801 SPECI KBLI 260801Z AUTO 02004KT 10SM BKN023 OVC043 04/M01 A3004 RMK AO2 T00391006=
202411260753 METAR KBLI 260753Z AUTO 02004KT 10SM SCT023 OVC043 04/M01 A3004 RMK AO2 SLP182 T00391006 400560033=
202411260653 METAR KBLI 260653Z AUTO 03004KT 10SM OVC046 03/M01 A3003 RMK AO2 SLP180 T00331006=
202411260621 SPECI KBLI 260621Z 01004KT 10SM OVC030 04/M01 A3003 RMK AO2 T00391006=
202411260553 METAR KBLI 260553Z 01004KT 10SM OVC028 04/M01 A3003 RMK AO2 SLP177 T00391006 10050 20039 53009=
202411260453 METAR KBLI 260453Z 01008KT 10SM OVC027 04/00 A3001 RMK AO2 SLP173 T00440000=
202411260353 METAR KBLI 260353Z 03006KT 10SM OVC028 04/00 A3001 RMK AO2 SLP170 T00440000=
202411260337 SPECI KBLI 260337Z 04007KT 10SM OVC028 04/00 A3001 RMK AO2 T00440000=
202411260253 METAR KBLI 260253Z 03008KT 10SM OVC035 04/00 A3000 RMK AO2 SLP168 T00390000 51007=
202411260153 METAR KBLI 260153Z 02006KT 10SM OVC033 04/01 A2999 RMK AO2 SLP166 T00390011=
202411260053 METAR KBLI 260053Z 01006KT 10SM OVC036 04/02 A2999 RMK AO2 SLP163 T00390017=
202411252353 METAR KBLI 252353Z 01006KT 10SM FEW010 BKN040 05/03 A2998 RMK AO2 RAE17 SLP160 P0000 60001 T00500028 10056 20033 53003=
202411252253 METAR KBLI 252253Z 03004KT 10SM -RA FEW008 SCT025 BKN030 06/03 A2997 RMK AO2 RAB19 SLP157 P0001 T00560033=
202411252153 METAR KBLI 252153Z 04007KT 10SM BKN039 BKN060 OVC075 06/03 A2996 RMK AO2 RAE47 SLP155 P0000 T00560028=
202411252053 METAR KBLI 252053Z 04007KT 10SM -RA BKN039 OVC055 06/03 A2997 RMK AO2 RAB02E16B34 SLP157 P0000 60000 T00560028 50001=
202411251953 METAR KBLI 251953Z 03005KT 10SM FEW010 BKN035 BKN050 05/02 A2997 RMK AO2 SLP158 T00500022=
202411251853 METAR KBLI 251853Z 03006KT 10SM FEW025 BKN035 BKN055 04/02 A2997 RMK AO2 RAE23 SLP157 P0000 T00390022=
202411251753 METAR KBLI 251753Z 03008KT 10SM -RA FEW010 SCT020 BKN030 03/02 A2997 RMK AO2 SLP157 P0001 60008 T00330017 10044 20033 53013=
202411251653 METAR KBLI 251653Z 02005KT 10SM -RA FEW010 SCT020 BKN030 03/02 A2995 RMK AO2 SLP153 P0002 T00330017=
202411251554 SPECI KBLI 251554Z 04008KT 10SM -RA FEW010 SCT025 BKN030 04/02 A2994 RMK AO2 P0000 T00390017=
202411251553 METAR KBLI 251553Z 04007KT 10SM -RA BKN030 OVC035 04/02 A2994 RMK AO2 SLP147 P0002 T00390017=
202411251453 METAR KBLI 251453Z 04005KT 10SM -RA FEW010 SCT025 OVC030 04/03 A2993 RMK AO2 SLP144 P0001 60003 T00390028 53013=
202411251353 METAR KBLI 251353Z AUTO 00000KT 10SM -RA BKN035 OVC055 04/02 A2992 RMK AO2 SLP139 P0002 T00390017=
202411251253 METAR KBLI 251253Z AUTO 04007KT 10SM -RA OVC044 04/00 A2990 RMK AO2 RAB20 SLP133 P0000 T00390000=
202411251153 METAR KBLI 251153Z AUTO 02007KT 10SM BKN049 OVC060 05/M01 A2989 RMK AO2 SLP130 70016 T00501006 10050 20039 58004=
202411251053 METAR KBLI 251053Z AUTO 03005KT 10SM FEW065 SCT075 OVC090 04/00 A2990 RMK AO2 SLP133 T00440000=
202411250953 METAR KBLI 250953Z AUTO 03007KT 10SM FEW070 OVC080 04/00 A2990 RMK AO2 SLP133 T00390000=
202411250853 METAR KBLI 250853Z AUTO 02008KT 10SM OVC065 04/00 A2990 RMK AO2 SLP135 T00440000 58002=
202411250753 METAR KBLI 250753Z AUTO 02008KT 10SM SCT060 OVC080 04/00 A2991 RMK AO2 SLP136 T00390000 400780039=
202411250653 METAR KBLI 250653Z AUTO 03007KT 10SM FEW055 SCT090 04/01 A2990 RMK AO2 SLP136 T00390006=
202411250553 METAR KBLI 250553Z 02007KT 10SM OVC050 05/01 A2991 RMK AO2 RAB0459E16 SLP137 P0000 60001 T00500011 10061 20050 56002=
202411250453 METAR KBLI 250453Z 04006KT 10SM BKN047 OVC070 06/02 A2991 RMK AO2 SLP138 T00560017=
202411250353 METAR KBLI 250353Z 36004KT 10SM OVC040 05/03 A2991 RMK AO2 RAB0257E28 SLP137 P0001 T00500033=
202411250253 METAR KBLI 250253Z 08003KT 10SM OVC041 06/03 A2991 RMK AO2 SLP139 T00560028 51004=
202411250153 METAR KBLI 250153Z 00000KT 10SM BKN050 OVC065 06/03 A2991 RMK AO2 SLP138 T00610028=
202411250053 METAR KBLI 250053Z 00000KT 10SM OVC047 06/03 A2991 RMK AO2 SLP135 T00610028=
202411242353 METAR KBLI 242353Z 04003KT 10SM SCT045 BKN060 BKN070 06/03 A2990 RMK AO2 SLP135 60007 T00610028 10067 20050 53006=
202411242253 METAR KBLI 242253Z 04005KT 10SM FEW020 SCT040 BKN060 07/04 A2989 RMK AO2 RAE08 SLP131 P0000 T00670039=
202411242153 METAR KBLI 242153Z 04006KT 10SM -RA OVC039 07/04 A2989 RMK AO2 RAB08E19B48 SLP129 P0000 T00670044=
202411242053 METAR KBLI 242053Z 04005KT 10SM FEW020 BKN032 BKN037 06/04 A2989 RMK AO2 SLP129 60007 T00610044 51004=
202411241953 METAR KBLI 241953Z 04007KT 10SM FEW010 BKN032 BKN036 06/04 A2988 RMK AO2 RAE21 SLP128 P0000 T00560044=
202411241853 METAR KBLI 241853Z 04008KT 10SM -RA FEW020 BKN035 05/04 A2988 RMK AO2 SLP128 P0007 T00500044=
202411241753 METAR KBLI 241753Z 03004KT 10SM -RA BKN035 OVC060 05/04 A2987 RMK AO2 SLP124 P0005 60008 T00500044 10056 20044 53016=
202411241653 METAR KBLI 241653Z 00000KT 10SM -RA SCT035 BKN055 BKN070 05/04 A2986 RMK AO2 SLP119 P0003 T00500044=
202411241553 METAR KBLI 241553Z 03004KT 10SM -RA SCT045 BKN060 OVC080 05/03 A2983 RMK AO2 SLP110 P0000 T00500033=
202411241453 METAR KBLI 241453Z 00000KT 10SM -RA BKN050 OVC065 05/03 A2982 RMK AO2 RAB01E12B28 SLP107 P0000 60000 T00500028 53008=
202411241353 METAR KBLI 241353Z AUTO 04007KT 10SM SCT055 OVC070 05/03 A2979 RMK AO2 RAB07E34 SLP097 P0000 T00500028=
202411241253 METAR KBLI 241253Z AUTO 05006KT 10SM OVC055 06/02 A2980 RMK AO2 SLP099 T00560022=
202411241153 METAR KBLI 241153Z AUTO 02005KT 10SM BKN065 BKN080 OVC100 05/02 A2980 RMK AO2 SLP099 70001 T00500022 10083 20039 58001=
202411241053 METAR KBLI 241053Z AUTO 06005KT 10SM FEW095 SCT120 06/02 A2980 RMK AO2 SLP100 T00560017=
202411240953 METAR KBLI 240953Z AUTO 07005KT 10SM BKN047 06/02 A2980 RMK AO2 SLP099 T00560017=
202411240853 METAR KBLI 240853Z AUTO 05006KT 10SM BKN044 BKN085 05/02 A2980 RMK AO2 SLP100 T00500022 51008=
202411240753 METAR KBLI 240753Z AUTO 11008KT 10SM CLR 08/02 A2980 RMK AO2 SLP100 T00780017 401060072=
202411240653 METAR KBLI 240653Z AUTO 12008KT 10SM CLR 08/02 A2980 RMK AO2 SLP098 T00780022=
202411240553 METAR KBLI 240553Z AUTO 12008KT 10SM FEW100 07/03 A2978 RMK AO2 SLP092 T00720028 10089 20072 53008=
202411240453 METAR KBLI 240453Z 15009KT 10SM CLR 08/03 A2977 RMK AO2 SLP089 T00780033=
202411240353 METAR KBLI 240353Z 16011G18KT 10SM FEW032 08/04 A2976 RMK AO2 SLP085 T00830039=
202411240253 METAR KBLI 240253Z 15006KT 10SM SCT031 BKN090 BKN100 08/04 A2975 RMK AO2 SLP083 T00780044 51013=
202411240206 SPECI KBLI 240206Z 17009KT 10SM SCT029 09/04 A2975 RMK AO2 T00890044=
202411240153 METAR KBLI 240153Z 17014G21KT 10SM BKN029 09/04 A2974 RMK AO2 SLP080 T00890044=
202411240122 SPECI KBLI 240122Z 18005KT 10SM BKN029 BKN110 08/05 A2974 RMK AO2 T00830050=
202411240053 METAR KBLI 240053Z 18005KT 10SM FEW030 09/05 A2973 RMK AO2 SLP074 T00890050=
202411232353 METAR KBLI 232353Z 17010KT 10SM FEW025 SCT040 BKN060 09/06 A2971 RMK AO2 RAE22 SLP070 P0001 60001 T00890056 10106 20089 51009=
202411232255 SPECI KBLI 232255Z 18011G23KT 8SM -RA FEW025 BKN040 OVC070 09/06 A2971 RMK AO2 P0000 T00890061=
202411232253 METAR KBLI 232253Z 18010G23KT 9SM -RA FEW030 BKN044 OVC070 09/06 A2971 RMK AO2 RAB37 SLP070 P0000 T00890061=
202411232153 METAR KBLI 232153Z 19010G18KT 10SM FEW027 OVC035 09/06 A2970 RMK AO2 SLP065 T00940056=
202411232053 METAR KBLI 232053Z 19010G19KT 10SM FEW032 OVC090 10/06 A2969 RMK AO2 SLP060 T01000056 51009=
202411231953 METAR KBLI 231953Z 19012G19KT 10SM SCT025 BKN060 10/05 A2968 RMK AO2 SLP057 T01000050=
202411231853 METAR KBLI 231853Z 18012G23KT 10SM SCT025 BKN060 10/05 A2968 RMK AO2 SLP057 T01000050=
202411231835 SPECI KBLI 231835Z 18011G24KT 10SM OVC029 10/04 A2967 RMK AO2 T01000044=
202411231753 METAR KBLI 231753Z 17009KT 10SM SCT027 BKN095 10/04 A2966 RMK AO2 SLP051 T01000044 10100 20089 53012=
202411231653 METAR KBLI 231653Z 18009KT 10SM SCT025 BKN070 09/04 A2965 RMK AO2 SLP046 T00940044=
202411231556 SPECI KBLI 231556Z 18010G18KT 10SM FEW020 BKN035 09/04 A2964 RMK AO2 T00890044=
202411231553 METAR KBLI 231553Z 18010KT 10SM SCT032 09/04 A2964 RMK AO2 SLP042 T00890039=
202411231453 METAR KBLI 231453Z 18010G20KT 10SM SCT020 BKN030 09/04 A2963 RMK AO2 SLP039 T00940044 53003=
202411231353 METAR KBLI 231353Z AUTO 16006KT 10SM FEW031 BKN100 09/04 A2962 RMK AO2 SLP035 T00890039=
202411231253 METAR KBLI 231253Z AUTO 15009G16KT 10SM BKN047 OVC090 09/04 A2961 RMK AO2 SLP034 T00940039=
202411231153 METAR KBLI 231153Z AUTO 15012G18KT 10SM SCT047 09/04 A2962 RMK AO2 SLP036 70006 T00940039 10106 20089 50004=
202411231053 METAR KBLI 231053Z AUTO 16009G18KT 10SM OVC042 09/04 A2963 RMK AO2 SLP039 T00940039=
202411230953 METAR KBLI 230953Z AUTO 15011G20KT 10SM CLR 09/04 A2961 RMK AO2 SLP035 T00940039=
202411230853 METAR KBLI 230853Z AUTO 16014G22KT 10SM CLR 09/04 A2960 RMK AO2 SLP031 T00940039 58003=
202411230753 METAR KBLI 230753Z AUTO 16015G25KT 10SM CLR 10/04 A2962 RMK AO2 PK WND 18033/0723 SLP037 T01000039 401500056=
202411230653 METAR KBLI 230653Z AUTO 17015G24KT 10SM FEW037 11/04 A2962 RMK AO2 PK WND 17035/0610 SLP037 T01060044=
202411230553 METAR KBLI 230553Z 17019G28KT 10SM SCT035 SCT100 11/04 A2961 RMK AO2 PK WND 18031/0459 SLP036 T01060044 10128 20100 53008=
202411230453 METAR KBLI 230453Z 16023G42KT 10SM FEW100 11/06 A2959 RMK AO2 PK WND 15042/0447 SLP025 T01060056=
202411230353 METAR KBLI 230353Z 17016G32KT 10SM SCT065 SCT095 11/05 A2959 RMK AO2 PK WND 15036/0313 SLP028 T01110050=
202411230253 METAR KBLI 230253Z 16019G34KT 10SM CLR 11/05 A2959 RMK AO2 PK WND 18038/0157 SLP027 T01110050 53015=
202411230153 METAR KBLI 230153Z 16020G34KT 10SM CLR 11/05 A2956 RMK AO2 PK WND 18041/0132 SLP015 T01110050=
202411230053 METAR KBLI 230053Z 17020G37KT 10SM FEW080 12/06 A2956 RMK AO2 PK WND 16037/0045 SLP015 T01170056=
202411222353 METAR KBLI 222353Z 16013G30KT 10SM SCT070 13/06 A2955 RMK AO2 PK WND 17037/2321 RAE2255B37E46 SLP012 P0000 60001 T01280061 10150 20078 53004=
202411222253 METAR KBLI 222253Z 16016G35KT 10SM -RA BKN060 OVC075 14/05 A2951 RMK AO2 PK WND 14035/2247 RAB44 SLP998 P0000 T01390050=
202411222153 METAR KBLI 222153Z 16015G23KT 10SM SCT070 SCT090 15/05 A2952 RMK AO2 SLP002 T01500050=
202411222053 METAR KBLI 222053Z 12009G18KT 10SM SCT065 14/07 A2953 RMK AO2 SLP008 60001 T01440072 58013=
202411221953 METAR KBLI 221953Z 14016G26KT 10SM SCT048 BKN060 13/07 A2955 RMK AO2 PK WND 16029/1931 WSHFT 1922 SLP013 T01330067=
202411221942 SPECI KBLI 221942Z 14016G28KT 10SM SCT048 BKN060 13/07 A2955 RMK AO2 PK WND 16029/1931 WSHFT 1922 T01280067=
202411221924 SPECI KBLI 221924Z 13015G26KT 10SM SCT048 BKN060 11/08 A2956 RMK AO2 PK WND 14026/1924 T01110083=
202411221853 METAR KBLI 221853Z 08007KT 10SM BKN055 OVC075 09/07 A2956 RMK AO2 RAE49 SLP018 P0001 T00890072=
202411221753 METAR KBLI 221753Z VRB05KT 8SM -RA OVC055 08/05 A2957 RMK AO2 RAB02E20B38 SLP021 P0001 60005 T00830050 10089 20072 53005=
202411221653 METAR KBLI 221653Z 05011G19KT 10SM FEW030 SCT045 BKN055 09/03 A2954 RMK AO2 RAE12B31E48 SLP010 P0001 T00890033=
202411221553 METAR KBLI 221553Z 04014G22KT 8SM -RA FEW030 OVC055 08/04 A2954 RMK AO2 RAB1457 SLP010 P0002 T00780039=
202411221453 METAR KBLI 221453Z 06012G29KT 10SM OVC060 09/02 A2956 RMK AO2 PK WND 05031/1356 RAB04E38 PRESRR SLP016 P0000 60001 T00890017 56040=
202411221353 METAR KBLI 221353Z AUTO 05020G35KT 10SM BKN060 OVC075 08/02 A2957 RMK AO2 PK WND 07035/1352 RAE44 SLP022 P0001 T00830017=
202411221253 METAR KBLI 221253Z AUTO 05014G26KT 10SM -RA BKN060 OVC075 08/02 A2963 RMK AO2 PK WND 05026/1245 RAB19 SLP043 P0000 T00780017=
202411221153 METAR KBLI 221153Z AUTO 05012G21KT 10SM FEW070 BKN120 08/01 A2967 RMK AO2 PK WND 07027/1103 SLP056 70005 T00780011 10083 20056 56031=
202411221053 METAR KBLI 221053Z AUTO 05014G23KT 10SM FEW120 08/01 A2968 RMK AO2 SLP059 T00780011=
202411220953 METAR KBLI 220953Z AUTO 03014G26KT 10SM CLR 07/02 A2971 RMK AO2 PK WND 03026/0947 SLP068 T00670017=
202411220853 METAR KBLI 220853Z AUTO 03013G22KT 10SM CLR 06/02 A2977 RMK AO2 SLP088 T00610022 58046=
202411220753 METAR KBLI 220753Z AUTO 03009G18KT 10SM SCT060 07/03 A2984 RMK AO2 SLP112 T00670028 400940050=
202411220653 METAR KBLI 220653Z AUTO 05005KT 10SM OVC055 06/04 A2988 RMK AO2 SLP128 T00610044=
202411220553 METAR KBLI 220553Z 03007KT 10SM OVC055 07/06 A2990 RMK AO2 SLP134 60005 T00670056 10078 20056 58007=
202411220453 METAR KBLI 220453Z 03005KT 10SM OVC046 06/06 A2992 RMK AO2 RAE43 SLP140 P0001 T00610056=
202411220353 METAR KBLI 220353Z 04005KT 10SM -RA OVC049 06/06 A2993 RMK AO2 SLP141 P0001 T00610061=
202411220253 METAR KBLI 220253Z 00000KT 10SM -RA OVC047 06/06 A2993 RMK AO2 SLP143 P0003 60003 T00610056 50008=
202411220153 METAR KBLI 220153Z 00000KT 10SM -RA OVC044 07/05 A2993 RMK AO2 RAB22 SLP144 P0000 T00670050=
202411220053 METAR KBLI 220053Z 04004KT 10SM BKN055 OVC070 08/03 A2991 RMK AO2 SLP137 T00780028=
202411212353 METAR KBLI 212353Z 04007KT 10SM OVC080 08/03 A2990 RMK AO2 SLP134 T00830028 10094 20078 55003=
202411212253 METAR KBLI 212253Z 04006KT 10SM BKN070 OVC085 08/03 A2990 RMK AO2 SLP132 T00830028=
202411212153 METAR KBLI 212153Z 04008KT 10SM BKN100 09/03 A2990 RMK AO2 SLP132 T00890028=
202411212053 METAR KBLI 212053Z 03009KT 10SM SCT120 09/03 A2991 RMK AO2 SLP137 T00890033 56008=
202411211953 METAR KBLI 211953Z 04008KT 10SM FEW050 09/03 A2992 RMK AO2 SLP140 T00890033=
202411211853 METAR KBLI 211853Z 03007KT 10SM CLR 09/04 A2993 RMK AO2 SLP142 T00940039=
202411211753 METAR KBLI 211753Z 03008KT 10SM FEW035 BKN075 08/03 A2994 RMK AO2 SLP146 60000 T00830033 10083 20050 50008=
202411211653 METAR KBLI 211653Z 06004KT 10SM OVC033 06/04 A2995 RMK AO2 SLP149 T00610039=
202411211553 METAR KBLI 211553Z 02005KT 10SM OVC034 06/03 A2993 RMK AO2 RAE22 SLP145 P0000 T00560033=
202411211453 METAR KBLI 211453Z 04004KT 10SM -RA BKN036 OVC045 05/03 A2991 RMK AO2 RAB51 SLP139 P0000 60000 T00500033 53012=
202411211353 METAR KBLI 211353Z AUTO 03003KT 10SM OVC048 05/04 A2990 RMK AO2 RAB10E21 SLP133 P0000 T00500039=
202411211253 METAR KBLI 211253Z AUTO 01005KT 10SM OVC048 05/04 A2989 RMK AO2 RAE44 SLP129 P0000 T00500039=
202411211153 METAR KBLI 211153Z AUTO 32003KT 10SM -RA FEW043 OVC050 05/04 A2988 RMK AO2 RAE05B31 SLP125 P0000 60000 T00500044 10067 20050 51013=
202411211053 METAR KBLI 211053Z AUTO 36003KT 10SM -RA BKN046 BKN050 OVC065 06/04 A2987 RMK AO2 RAB50 SLP121 P0000 T00560039=
202411210953 METAR KBLI 210953Z AUTO 00000KT 10SM FEW055 BKN080 OVC100 06/03 A2986 RMK AO2 SLP119 T00560028=
202411210853 METAR KBLI 210853Z AUTO 35004KT 10SM OVC065 06/03 A2984 RMK AO2 SLP112 T00610028 51015=
202411210753 METAR KBLI 210753Z AUTO 36003KT 10SM BKN065 OVC100 07/02 A2983 RMK AO2 SLP109 T00670017 401220039=
202411210653 METAR KBLI 210653Z AUTO 00000KT 10SM SCT110 06/02 A2982 RMK AO2 SLP105 T00560022=
202411210553 METAR KBLI 210553Z 06007KT 10SM CLR 07/02 A2980 RMK AO2 SLP098 T00670022 10106 20039 51013=
202411210453 METAR KBLI 210453Z 02005KT 10SM CLR 04/03 A2978 RMK AO2 SLP092 T00390028=
202411210353 METAR KBLI 210353Z 04004KT 10SM FEW075 06/02 A2977 RMK AO2 SLP090 T00560022=
202411210253 METAR KBLI 210253Z 05008KT 10SM CLR 06/03 A2976 RMK AO2 SLP085 T00610033 53002=
202411210153 METAR KBLI 210153Z 06003KT 10SM FEW075 07/03 A2975 RMK AO2 SLP083 T00720033=
202411210053 METAR KBLI 210053Z 04007KT 10SM OVC060 08/04 A2975 RMK AO2 SLP083 T00830039=
202411202353 METAR KBLI 202353Z 11005KT 10SM SCT050 BKN070 11/02 A2975 RMK AO2 SLP083 T01060017 10122 20100 53011=
202411202253 METAR KBLI 202253Z 13009KT 10SM FEW030 BKN065 BKN110 11/02 A2973 RMK AO2 SLP076 T01060017=
202411202153 METAR KBLI 202153Z 16012G23KT 10SM OVC070 11/01 A2973 RMK AO2 PK WND 15032/2103 SLP074 T01110011=
202411202053 METAR KBLI 202053Z 16014G24KT 10SM BKN055 12/01 A2972 RMK AO2 PK WND 16026/2022 SLP071 T01220011 51009=
202411201953 METAR KBLI 201953Z 14011G22KT 10SM SCT060 OVC070 11/02 A2972 RMK AO2 PK WND 15028/1925 SLP069 T01110022=
202411201853 METAR KBLI 201853Z 16015G24KT 10SM SCT050 BKN065 11/02 A2972 RMK AO2 PK WND 14028/1807 SLP073 T01110017=
202411201753 METAR KBLI 201753Z 15012G19KT 10SM SCT055 OVC070 11/02 A2969 RMK AO2 SLP063 60000 T01110022 10111 20050 51025=
202411201653 METAR KBLI 201653Z 15010KT 10SM BKN090 OVC100 09/02 A2967 RMK AO2 SLP056 T00890022=
202411201553 METAR KBLI 201553Z VRB05KT 10SM FEW090 BKN110 08/02 A2964 RMK AO2 SLP045 T00780022=
202411201453 METAR KBLI 201453Z 12009KT 10SM OVC047 08/02 A2962 RMK AO2 SLP037 60000 T00780022 53017=
202411201353 METAR KBLI 201353Z AUTO 12009KT 10SM BKN045 07/02 A2959 RMK AO2 SLP029 T00720022 $=
202411201253 METAR KBLI 201253Z AUTO 12006KT 10SM BKN042 06/03 A2958 RMK AO2 RAB00E16 SLP025 P0000 T00610028 $=
202411201153 METAR KBLI 201153Z AUTO 14006KT 10SM FEW030 BKN060 OVC095 06/03 A2957 RMK AO2 RAE12B42E51 SLP020 P0000 60000 T00610033 10094 20061 51010 $=
202411201149 SPECI KBLI 201149Z AUTO 12007KT 10SM -RA SCT030 BKN046 OVC100 06/04 A2956 RMK AO2 RAE12B42 P0000 $=
202411201140 SPECI KBLI 201140Z AUTO 14006KT 10SM BKN028 BKN035 OVC065 06/04 A2957 RMK AO2 RAE12 P0000 T00610039 $=
202411201053 METAR KBLI 201053Z AUTO 14009KT 10SM -RA FEW025 BKN042 OVC050 07/04 A2957 RMK AO2 SLP020 P0000 T00670039 $=
202411200953 METAR KBLI 200953Z AUTO 11009KT 10SM -RA BKN037 OVC046 07/03 A2954 RMK AO2 RAB03 SLP010 P0000 T00720033 $=
202411200853 METAR KBLI 200853Z AUTO 12017G24KT 10SM OVC055 09/01 A2949 RMK AO2 SLP994 60000 T00890006 53001 $=
202411200753 METAR KBLI 200753Z AUTO 12011G17KT 070V140 10SM OVC060 08/01 A2946 RMK AO2 PK WND 12026/0723 RAE02 SLP985 P0000 T00830011 400890022 $=
202411200653 METAR KBLI 200653Z AUTO 09011G32KT 10SM -RA OVC060 08/02 A2948 RMK AO2 PK WND 14032/0645 SLP989 P0000 T00780017=
202411200553 METAR KBLI 200553Z 13015G25KT 10SM -RA FEW050 OVC065 08/02 A2949 RMK AO2 PK WND 13029/0456 RAB10 SLP994 P0000 60000 T00780017 10089 20056 58016=
202411200453 METAR KBLI 200453Z 12011G23KT 10SM BKN055 OVC070 08/01 A2951 RMK AO2 PK WND 12035/0412 RAB0358E08 SLP001 P0000 T00780006=
202411200353 METAR KBLI 200353Z 11013G29KT 10SM OVC047 08/M01 A2953 RMK AO2 PK WND 13033/0337 RAB15E42 SLP008 P0000 T00831006=
202411200253 METAR KBLI 200253Z 05009G20KT 10SM OVC075 07/M02 A2954 RMK AO2 SLP011 T00721017 58046=
202411200153 METAR KBLI 200153Z 07011G17KT 10SM OVC080 06/M01 A2959 RMK AO2 SLP029 T00611011=
202411200053 METAR KBLI 200053Z 06012G19KT 10SM OVC100 06/M01 A2963 RMK AO2 SLP041 T00611006=
202411192353 METAR KBLI 192353Z 05012G19KT 10SM OVC100 06/M01 A2967 RMK AO2 PRESFR SLP058 T00611006 10067 20056 56052=
202411192253 METAR KBLI 192253Z 05012KT 10SM SCT100 06/00 A2973 RMK AO2 SLP075 T00610000=
202411192153 METAR KBLI 192153Z 05009G17KT 10SM CLR 06/01 A2977 RMK AO2 PRESFR SLP089 T00560006=
202411192053 METAR KBLI 192053Z 06008KT 10SM BKN055 06/01 A2983 RMK AO2 SLP110 T00610011 58024=
202411191953 METAR KBLI 191953Z 05011KT 10SM CLR 06/02 A2985 RMK AO2 SLP118 T00610017=
202411191853 METAR KBLI 191853Z 05010KT 10SM FEW043 06/02 A2989 RMK AO2 SLP131 T00610022=
202411191753 METAR KBLI 191753Z 06006KT 10SM SCT025 BKN035 06/03 A2990 RMK AO2 SLP134 T00560028 10056 20033 58006=
202411191728 SPECI KBLI 191728Z 06006KT 10SM SCT025 BKN035 BKN060 04/02 A2991 RMK AO2 T00440022=
202411191653 METAR KBLI 191653Z 06006KT 10SM BKN025 BKN035 04/02 A2993 RMK AO2 SLP143 T00390022=
202411191553 METAR KBLI 191553Z 04003KT 10SM BKN025 BKN040 OVC060 03/02 A2993 RMK AO2 SLP143 T00330022=
202411191453 METAR KBLI 191453Z 05005KT 10SM OVC020 03/02 A2992 RMK AO2 SLP140 T00330022 51003=
202411191353 METAR KBLI 191353Z AUTO 05005KT 10SM OVC022 03/02 A2992 RMK AO2 SLP139 T00330022=
202411191253 METAR KBLI 191253Z AUTO 14006KT 10SM OVC021 04/02 A2991 RMK AO2 SLP139 T00390022=
202411191153 METAR KBLI 191153Z AUTO VRB06KT 10SM OVC020 04/02 A2991 RMK AO2 SLP137 60001 70017 T00390022 10044 20022 53003=
202411191053 METAR KBLI 191053Z AUTO 14008KT 10SM OVC018 04/02 A2990 RMK AO2 SLP135 T00440022=
202411190953 METAR KBLI 190953Z AUTO 13008KT 10SM OVC022 04/02 A2989 RMK AO2 SLP131 T00390022=
202411190853 METAR KBLI 190853Z AUTO 06003KT 10SM OVC022 02/02 A2990 RMK AO2 RAE0757B16E49UPB02E16 SLP134 P0000 60001 T00220022 56005=
202411190753 METAR KBLI 190753Z AUTO 06005KT 10SM -RA BKN020 BKN024 OVC030 02/02 A2990 RMK AO2 UPE0654RAB0654E0656B43 SLP135 P0000 T00220022 400780017=
202411190653 METAR KBLI 190653Z AUTO 12006KT 10SM UP BKN022 OVC031 03/02 A2991 RMK AO2 UPB0559E03B33RAB03E25B42E52 SLP136 P0001 T00330022=
202411190553 METAR KBLI 190553Z 06007KT 10SM OVC022 02/02 A2992 RMK AO2 SLP139 60006 I6000 T00220017 10061 20017 58002=
202411190453 METAR KBLI 190453Z 09006KT 10SM BKN024 OVC035 02/02 A2992 RMK AO2 RAE12 SLP141 P0002 T00220017=
202411190353 METAR KBLI 190353Z 12007KT 3SM RA BR BKN023 BKN030 OVC090 02/02 A2992 RMK AO2 RAB0259E08B34 SLP142 P0004 I1000 T00220017=
202411190253 METAR KBLI 190253Z 13007KT 10SM FEW027 BKN055 OVC110 03/02 A2992 RMK AO2 RAB32E51 SLP142 P0000 60000 T00330017 51005=
202411190153 METAR KBLI 190153Z 14008KT 10SM CLR 04/02 A2992 RMK AO2 SLP142 T00390017=
202411190119 SPECI KBLI 190119Z 18007KT 10SM FEW020 BKN050 05/02 A2992 RMK AO2 T00500022=
202411190112 SPECI KBLI 190112Z 16007KT 10SM SCT022 BKN027 BKN050 05/02 A2991 RMK AO2 T00500022=
202411190053 METAR KBLI 190053Z 16008KT 10SM FEW020 BKN050 06/02 A2991 RMK AO2 SLP138 T00560017=
202411182353 METAR KBLI 182353Z 20005KT 10SM FEW020 06/00 A2991 RMK AO2 SLP136 T00610000 10078 20050 53008=
202411182253 METAR KBLI 182253Z 20006KT 10SM FEW020 SCT040 07/00 A2990 RMK AO2 SLP133 T00670000=
202411182153 METAR KBLI 182153Z 21006KT 10SM FEW020 SCT040 07/01 A2989 RMK AO2 SLP130 T00720011=
202411182101 SPECI KBLI 182101Z 20006KT 10SM FEW015 SCT060 07/02 A2988 RMK AO2 T00720017=
202411182053 METAR KBLI 182053Z 19005KT 10SM CLR 07/02 A2988 RMK AO2 SLP127 T00720022 51006=
202411181953 METAR KBLI 181953Z 18007KT 10SM FEW025 SCT060 06/04 A2988 RMK AO2 SLP127 T00610039=
202411181853 METAR KBLI 181853Z 17003KT 10SM SCT046 OVC095 06/04 A2988 RMK AO2 SLP128 T00560039=
202411181753 METAR KBLI 181753Z 18004KT 10SM FEW010 SCT020 BKN055 05/04 A2986 RMK AO2 SLP122 60010 T00500039 10050 20022 51027=
202411181653 METAR KBLI 181653Z 14003KT 10SM FEW010 SCT030 BKN080 04/03 A2984 RMK AO2 SLP112 T00440033=
202411181553 METAR KBLI 181553Z 17003KT 10SM FEW010 SCT020 BKN030 03/03 A2981 RMK AO2 SLP105 T00330028=
202411181543 SPECI KBLI 181543Z 18004KT 10SM SCT017 SCT024 BKN033 03/03 A2981 RMK AO2 T00280028=
202411181507 SPECI KBLI 181507Z 17003KT 10SM BKN021 BKN060 BKN080 03/03 A2979 RMK AO2 T00280028=
202411181453 METAR KBLI 181453Z 16004KT 10SM FEW022 SCT055 BKN080 02/02 A2978 RMK AO2 RAE01 SLP094 P0001 60010 T00220022 53018=
202411181408 SPECI KBLI 181408Z AUTO 17006KT 10SM FEW025 BKN055 BKN065 03/02 A2977 RMK AO2 RAE01 P0001 T00280022=
202411181351 SPECI KBLI 181351Z AUTO 13003KT 3SM R16/2400VP6000FT RA BR SCT014 BKN022 OVC027 03/02 A2976 RMK AO2 P0001 T00280017=
202411181348 METAR KBLI 181348Z AUTO 00000KT 2SM R16/2400VP6000FT RA BR BKN014 OVC023 03/02 A2976 RMK AO2 RAB34 SLP087 P0009 T00280022=
202411181347 SPECI KBLI 181347Z AUTO 00000KT 2SM RA BR BKN014 OVC023 03/02 A2976 RMK AO2 RAB34 P0009=
202411181053 METAR KBLI 181053Z AUTO 17009G18KT 10SM -RA BKN013 OVC021 04/04 A2972 RMK AO2 SLP073 P0001 T00440039=
202411180953 METAR KBLI 180953Z AUTO 18008G18KT 8SM -RA FEW016 BKN023 OVC041 05/04 A2971 RMK AO2 RAB40 SLP067 P0000 T00500039=
202411180936 SPECI KBLI 180936Z AUTO 18009KT 10SM SCT022 SCT030 OVC039 05/03 A2970 RMK AO2 T00500033=
202411180853 METAR KBLI 180853Z AUTO 19009G19KT 10SM SCT018 BKN024 06/04 A2969 RMK AO2 SLP063 60000 T00560039 51015=
202411180753 METAR KBLI 180753Z AUTO 19009G15KT 10SM FEW011 SCT045 BKN060 06/04 A2968 RMK AO2 SLP060 T00560039 400890056=
202411180653 METAR KBLI 180653Z AUTO 20006KT 10SM FEW085 06/03 A2967 RMK AO2 RAB0559E14 SLP054 P0000 T00560028=
202411180553 METAR KBLI 180553Z VRB06KT 10SM OVC070 06/03 A2965 RMK AO2 SLP047 60000 T00610028 10067 20061 51018=
202411180453 METAR KBLI 180453Z VRB06KT 10SM BKN050 BKN060 06/03 A2963 RMK AO2 SLP042 T00610033=
202411180353 METAR KBLI 180353Z 17006KT 10SM FEW028 BKN085 06/04 A2961 RMK AO2 RAB08E29 SLP035 P0000 T00610039=
202411180253 METAR KBLI 180253Z 16005KT 10SM BKN090 BKN110 07/04 A2959 RMK AO2 SLP029 T00670039 53018=
202411180153 METAR KBLI 180153Z 18007KT 10SM SCT016 BKN037 06/04 A2958 RMK AO2 SLP023 T00610044=
202411180053 METAR KBLI 180053Z 18008KT 10SM SCT016 SCT022 06/04 A2955 RMK AO2 SLP015 T00610044=
202411172353 METAR KBLI 172353Z 19007KT 10SM FEW015 SCT025 BKN080 07/04 A2954 RMK AO2 SLP011 60002 T00670044 10083 20067 53003=
202411172255 SPECI KBLI 172255Z 19004KT 10SM FEW010 BKN024 OVC080 07/05 A2953 RMK AO2 T00670050=
202411172253 METAR KBLI 172253Z 00000KT 10SM FEW017 BKN024 OVC070 07/05 A2953 RMK AO2 RAB2159E18 SLP008 P0000 T00670050=
202411172153 METAR KBLI 172153Z 18006KT 10SM SCT017 BKN024 OVC065 07/06 A2953 RMK AO2 RAB23E53 SLP007 P0001 T00670056=
202411172053 METAR KBLI 172053Z 00000KT 10SM FEW010 SCT015 BKN020 08/06 A2953 RMK AO2 RAB31E49 SLP008 P0000 60001 T00780061 58010=
202411171954 SPECI KBLI 171954Z 14004KT 10SM FEW010 SCT040 BKN080 08/06 A2954 RMK AO2 T00780061=
202411171953 METAR KBLI 171953Z 14005KT 10SM BKN080 08/06 A2954 RMK AO2 RAE1859 SLP012 P0000 T00780061=
202411171854 SPECI KBLI 171854Z 16004KT 10SM -RA FEW015 SCT040 BKN060 07/06 A2956 RMK AO2 P0000 T00720056=
202411171853 METAR KBLI 171853Z 17004KT 10SM -RA SCT048 BKN060 OVC075 07/06 A2956 RMK AO2 RAE25B50 SLP017 P0001 T00720056=
202411171753 METAR KBLI 171753Z 00000KT 8SM -RA FEW015 SCT030 BKN035 07/06 A2956 RMK AO2 SLP018 P0007 60008 T00720056 10089 20072 53002=
202411171653 METAR KBLI 171653Z 20005KT 8SM RA FEW015 SCT025 OVC050 08/06 A2956 RMK AO2 RAB43 SLP017 P0001 T00780056=
202411171553 METAR KBLI 171553Z 20003KT 10SM FEW040 SCT055 BKN075 08/04 A2956 RMK AO2 SLP017 T00830044=
202411171453 METAR KBLI 171453Z 18005KT 10SM FEW040 BKN090 08/04 A2956 RMK AO2 SLP017 T00830044 50006=
202411171353 METAR KBLI 171353Z AUTO 20004KT 10SM BKN100 08/06 A2956 RMK AO2 SLP018 T00780056=
202411171253 METAR KBLI 171253Z AUTO 17006KT 10SM FEW080 09/06 A2956 RMK AO2 SLP018 T00890056=
202411171153 METAR KBLI 171153Z AUTO 19009G17KT 10SM CLR 08/07 A2954 RMK AO2 PK WND 19026/1105 SLP011 60004 70037 T00830072 10089 20078 53004=
202411171122 SPECI KBLI 171122Z AUTO 18013G23KT 10SM FEW011 SCT017 08/07 A2953 RMK AO2 PK WND 19026/1105 T00830072=
202411171053 METAR KBLI 171053Z AUTO 19011G24KT 10SM FEW008 OVC017 08/08 A2954 RMK AO2 PK WND 19029/1005 RAB0956E50 SLP010 P0001 T00830078=
202411171015 SPECI KBLI 171015Z AUTO 18015G27KT 4SM -RA BR FEW008 BKN020 OVC027 08/08 A2952 RMK AO2 PK WND 19029/1005 RAB0956 P0000 T00830078=
202411170953 METAR KBLI 170953Z AUTO 17011G18KT 10SM FEW015 OVC023 09/07 A2952 RMK AO2 PK WND 19026/0913 SLP004 T00890072=
202411170853 METAR KBLI 170853Z AUTO 17013G23KT 10SM SCT017 OVC025 08/07 A2953 RMK AO2 SLP007 60003 T00830067 56013=
202411170753 METAR KBLI 170753Z AUTO 17017G24KT 10SM OVC026 08/06 A2954 RMK AO2 PK WND 17032/0722 RAE20 SLP009 P0001 T00830061 400830017=
202411170653 METAR KBLI 170653Z AUTO 17018G35KT 8SM -RA SCT018 OVC029 08/06 A2954 RMK AO2 PK WND 16035/0646 RAB04 SLP012 P0002 T00780061=
202411170553 METAR KBLI 170553Z 17019G27KT 10SM BKN019 OVC032 08/06 A2957 RMK AO2 PK WND 16029/0510 RAE44 SLP020 P0003 60016 T00780056 10078 20061 58019=
202411170532 SPECI KBLI 170532Z 17015G23KT 10SM -RA SCT019 SCT024 OVC035 08/06 A2958 RMK AO2 PK WND 16029/0510 P0003 T00780056=
202411170453 METAR KBLI 170453Z 17016G31KT 7SM -RA BKN019 OVC038 07/06 A2959 RMK AO2 PK WND 16031/0444 RAB0354 SLP027 P0001 T00720056=
202411170353 METAR KBLI 170353Z 16014KT 6SM BR OVC020 07/06 A2960 RMK AO2 PK WND 14026/0308 RAB0258E47 SLP034 P0001 T00720056=
202411170253 METAR KBLI 170253Z 16016G24KT 10SM OVC022 07/05 A2962 RMK AO2 PK WND 15032/0231 RAB0156E10 SLP040 P0000 60011 T00720050 56034=
202411170153 METAR KBLI 170153Z 16020G29KT 10SM BKN024 OVC042 07/04 A2963 RMK AO2 PK WND 19032/0143 RAE35 SLP043 P0001 T00670044=
202411170053 METAR KBLI 170053Z 16018G31KT 9SM -RA FEW030 SCT036 OVC050 06/04 A2967 RMK AO2 PK WND 15032/0034 PRESFR SLP058 P0010 T00610039=
202411162353 METAR KBLI 162353Z 16013G27KT 7SM -RA BKN030 OVC050 06/04 A2972 RMK AO2 PK WND 17030/2329 SLP074 P0004 60017 T00610039 10061 20044 56048=
202411162253 METAR KBLI 162253Z 16015G30KT 10SM -RA FEW026 OVC055 06/03 A2977 RMK AO2 PK WND 19030/2249 SLP090 P0001 T00560033=
202411162153 METAR KBLI 162153Z 13012G21KT 10SM -RA SCT025 OVC050 04/03 A2982 RMK AO2 PK WND 14030/2055 SLP107 P0005 T00440033=
202411162053 METAR KBLI 162053Z 14019G26KT 6SM -RA BR SCT020 BKN025 OVC030 05/03 A2987 RMK AO2 PK WND 14026/2029 SLP123 P0004 60007 T00500033 58043=
202411161953 METAR KBLI 161953Z 14018G27KT 8SM -RA SCT020 BKN025 OVC030 05/03 A2991 RMK AO2 PK WND 15027/1953 SLP137 P0002 T00500028=
202411161853 METAR KBLI 161853Z 13014G20KT 8SM -RA SCT020 BKN025 OVC030 06/02 A2996 RMK AO2 SLP153 P0001 T00610022=
202411161753 METAR KBLI 161753Z 14010KT 10SM -RA OVC032 06/02 A2999 RMK AO2 SLP166 P0000 60000 T00610017 10061 20022 56015=
202411161653 METAR KBLI 161653Z 10005KT 10SM -RA FEW025 BKN035 OVC045 04/02 A3000 RMK AO2 RAB43 SLP168 P0000 T00440022=
202411161553 METAR KBLI 161553Z VRB03KT 10SM FEW025 BKN070 OVC090 03/02 A3003 RMK AO2 SLP179 T00330022=
202411161453 METAR KBLI 161453Z 00000KT 10SM FEW025 BKN070 OVC090 03/02 A3004 RMK AO2 SLP181 T00330022 56015=
202411161353 METAR KBLI 161353Z AUTO 13004KT 10SM OVC080 04/02 A3004 RMK AO2 SLP182 T00440022=
202411161253 METAR KBLI 161253Z AUTO 00000KT 10SM FEW120 02/02 A3007 RMK AO2 SLP191 T00220022=
202411161202 SPECI KBLI 161202Z AUTO 00000KT 10SM SCT019 02/02 A3008 RMK AO2 T00220017=
202411161153 METAR KBLI 161153Z AUTO 00000KT 10SM BKN019 02/02 A3008 RMK AO2 SLP196 T00220022 10033 20017 58008=
202411161119 SPECI KBLI 161119Z AUTO 00000KT 10SM BKN017 02/02 A3009 RMK AO2 T00220022=
202411161053 METAR KBLI 161053Z AUTO 00000KT 10SM CLR 02/02 A3009 RMK AO2 SLP199 T00220017=
202411160953 METAR KBLI 160953Z AUTO 00000KT 10SM CLR 02/02 A3011 RMK AO2 SLP204 T00220022=
202411160853 METAR KBLI 160853Z AUTO 00000KT 10SM CLR 03/02 A3010 RMK AO2 SLP202 T00330022 58009=
202411160753 METAR KBLI 160753Z AUTO 14003KT 10SM CLR 03/03 A3011 RMK AO2 SLP206 T00330028 400890011=
202411160653 METAR KBLI 160653Z AUTO 16003KT 10SM CLR 03/03 A3013 RMK AO2 SLP211 T00330028=
202411160553 METAR KBLI 160553Z 17004KT 10SM CLR 03/03 A3013 RMK AO2 SLP213 T00330028 10067 20011 51003=
202411160453 METAR KBLI 160453Z 13003KT 10SM SCT022 02/02 A3013 RMK AO2 SLP212 T00170017=
202411160353 METAR KBLI 160353Z 00000KT 10SM CLR 02/02 A3013 RMK AO2 SLP211 T00170017=
202411160253 METAR KBLI 160253Z 00000KT 10SM CLR 02/02 A3012 RMK AO2 SLP209 T00170017 52006=
202411160153 METAR KBLI 160153Z 00000KT 10SM CLR 03/02 A3012 RMK AO2 SLP209 T00280022=
202411160053 METAR KBLI 160053Z 00000KT 10SM CLR 04/03 A3011 RMK AO2 SLP204 T00390033=
202411152353 METAR KBLI 152353Z 29004KT 10SM CLR 07/03 A3011 RMK AO2 SLP203 60000 T00670028 10089 20067 51008=
202411152253 METAR KBLI 152253Z 27004KT 10SM SCT024 07/03 A3010 RMK AO2 SLP202 T00720028=
202411152153 METAR KBLI 152153Z 00000KT 10SM FEW018 SCT024 OVC041 08/03 A3009 RMK AO2 RAB17E26 SLP198 P0000 T00780033=
202411152053 METAR KBLI 152053Z 10SM SCT025 SCT034 BKN043 08/03 A3008 RMK AO2 SLP195 60000 T00830033 58001=
202411151953 METAR KBLI 151953Z 27007KT 10SM SCT020 BKN027 OVC036 08/04 A3009 RMK AO2 SLP196 T00780039=
202411151853 METAR KBLI 151853Z VRB05KT 10SM BKN027 OVC050 07/04 A3009 RMK AO2 RAB36E51 SLP196 P0000 T00720044=
202411151803 SPECI KBLI 151803Z 00000KT 10SM SCT022 BKN027 OVC055 07/05 A3009 RMK AO2 T00720050=
202411151753 METAR KBLI 151753Z 20003KT 10SM SCT020 BKN030 OVC055 07/05 A3009 RMK AO2 SLP196 T00720050 10072 20028 51010=
202411151653 METAR KBLI 151653Z 00000KT 10SM SCT019 BKN025 BKN046 06/06 A3008 RMK AO2 SLP194 T00560056=
202411151553 METAR KBLI 151553Z 00000KT 10SM SCT019 BKN025 BKN046 04/04 A3007 RMK AO2 SLP192 T00440044=
202411151534 SPECI KBLI 151534Z 00000KT 10SM SCT019 BKN025 BKN046 04/04 A3007 RMK AO2 T00390039=
202411151527 SPECI KBLI 151527Z 00000KT 10SM FEW019 BKN044 BKN055 04/04 A3007 RMK AO2 T00390039=
202411151453 METAR KBLI 151453Z 00000KT 10SM BKN019 04/04 A3005 RMK AO2 SLP185 T00390039 53007=
202411151424 SPECI KBLI 151424Z AUTO 00000KT 10SM SCT017 BKN024 OVC060 04/04 A3005 RMK AO2 T00390039=
202411151353 METAR KBLI 151353Z AUTO 17004KT 8SM FEW019 04/04 A3004 RMK AO2 SLP181 T00390039=
202411151253 METAR KBLI 151253Z AUTO 00000KT 10SM FEW023 BKN070 04/04 A3004 RMK AO2 SLP180 T00440044=
202411151203 SPECI KBLI 151203Z AUTO 19003KT 10SM FEW021 SCT027 OVC060 05/05 A3003 RMK AO2 T00500050=
202411151153 METAR KBLI 151153Z AUTO 17003KT 10SM FEW018 BKN023 OVC060 05/05 A3003 RMK AO2 SLP179 60005 70020 T00500050 10067 20044 51003=
202411151053 METAR KBLI 151053Z AUTO 00000KT 10SM BKN021 OVC027 06/06 A3003 RMK AO2 SLP178 T00560056=
202411151002 SPECI KBLI 151002Z AUTO 00000KT 10SM BKN017 BKN022 05/05 A3003 RMK AO2 T00500050=
202411150953 METAR KBLI 150953Z AUTO 00000KT 10SM SCT017 05/05 A3003 RMK AO2 SLP177 T00500050=
202411150934 SPECI KBLI 150934Z AUTO 00000KT 10SM SCT014 06/05 A3003 RMK AO2 T00560050=
202411150922 SPECI KBLI 150922Z AUTO 08003KT 10SM BKN014 06/05 A3003 RMK AO2 T00560050=
202411150853 METAR KBLI 150853Z AUTO 00000KT 10SM BKN015 BKN026 OVC047 06/06 A3003 RMK AO2 RAE15 SLP175 P0001 60005 T00560056 53008=
202411150807 SPECI KBLI 150807Z AUTO 33003KT 10SM -RA BKN017 BKN027 OVC041 06/06 A3002 RMK AO2 P0001 T00560056=
202411150753 METAR KBLI 150753Z AUTO 00000KT 10SM -RA FEW025 BKN034 BKN042 06/06 A3001 RMK AO2 RAB0656E22B53 SLP171 P0000 T00560056 401110050=
202411150653 METAR KBLI 150653Z AUTO 19003KT 10SM BKN034 OVC044 06/06 A3000 RMK AO2 RAE51 SLP168 P0004 T00610061=
202411150637 SPECI KBLI 150637Z AUTO 21003KT 9SM -RA SCT017 BKN033 OVC041 06/06 A3000 RMK AO2 P0004 T00610061=
202411150600 SPECI KBLI 150600Z 34003KT 7SM -RA BKN023 BKN050 OVC065 06/06 A3000 RMK AO2 P0001 T00610056=
202411150553 METAR KBLI 150553Z 00000KT 10SM -RA SCT025 BKN060 06/06 A3000 RMK AO2 RAB46 SLP167 P0000 60000 T00610056 10100 20056 53011=
202411150453 METAR KBLI 150453Z 00000KT 10SM SCT023 06/05 A2999 RMK AO2 SLP162 T00610050=
202411150353 METAR KBLI 150353Z 20004KT 10SM FEW060 SCT100 06/05 A2998 RMK AO2 SLP158 T00610050=
202411150253 METAR KBLI 150253Z 17005KT 10SM FEW110 08/06 A2997 RMK AO2 SLP156 T00780061 51013=
202411150153 METAR KBLI 150153Z 18004KT 10SM FEW024 BKN037 BKN090 08/07 A2996 RMK AO2 SLP153 T00830067=
202411150053 METAR KBLI 150053Z 18003KT 10SM FEW020 09/07 A2995 RMK AO2 SLP148 T00890067=
202411142353 METAR KBLI 142353Z 19004KT 10SM BKN080 10/07 A2993 RMK AO2 SLP142 T01000067 10111 20094 53009=
202411142253 METAR KBLI 142253Z 18003KT 10SM FEW020 OVC085 10/07 A2992 RMK AO2 SLP138 T01000067=
202411142153 METAR KBLI 142153Z 17007KT 10SM FEW029 SCT034 OVC050 11/07 A2991 RMK AO2 SLP135 T01060067=
202411142053 METAR KBLI 142053Z 18007KT 10SM SCT020 BKN044 11/07 A2990 RMK AO2 SLP132 T01060072 51012=
202411141953 METAR KBLI 141953Z VRB03KT 10SM BKN028 10/07 A2990 RMK AO2 SLP131 T01000072=
202411141853 METAR KBLI 141853Z 18005KT 10SM SCT019 BKN028 09/08 A2989 RMK AO2 SLP128 T00940078=
202411141753 METAR KBLI 141753Z 22003KT 10SM OVC019 09/08 A2987 RMK AO2 SLP120 60015 T00940083 10094 20083 51038=
202411141653 METAR KBLI 141653Z 00000KT 10SM FEW008 BKN013 OVC041 08/08 A2984 RMK AO2 RAB27E52 SLP113 P0004 T00830083=
202411141635 SPECI KBLI 141635Z 00000KT 3SM R16/5500VP6000FT RA BR SCT007 OVC013 08/08 A2983 RMK AO2 RAB27 P0003 T00830078=
202411141633 SPECI KBLI 141633Z 32003KT 2SM R16/5500VP6000FT RA BR SCT009 OVC015 08/08 A2983 RMK AO2 RAB27 P0003 T00830078=
202411141631 SPECI KBLI 141631Z 31005KT 3SM R16/6000VP6000FT RA BR BKN009 OVC015 08/08 A2983 RMK AO2 RAB27 CIG 007V013 P0002 T00830078=
202411141553 METAR KBLI 141553Z 20004KT 9SM BKN018 OVC032 09/08 A2980 RMK AO2 RAE22 SLP099 P0001 T00890078=
202411141511 SPECI KBLI 141511Z 18006KT 10SM -RA FEW012 OVC020 09/08 A2976 RMK AO2 P0001 T00890078=
202411141453 METAR KBLI 141453Z 18007KT 10SM -RA FEW008 BKN012 OVC024 08/08 A2975 RMK AO2 RAB08 SLP081 P0005 60010 T00830078 51028=
202411141434 SPECI KBLI 141434Z 19007KT 8SM -RA FEW008 BKN013 OVC048 08/08 A2974 RMK AO2 RAB08 P0003 T00830078=
202411141427 SPECI KBLI 141427Z AUTO 20005KT 9SM -RA BKN015 OVC048 08/07 A2974 RMK AO2 RAB08 P0002 T00830072=
202411141353 METAR KBLI 141353Z AUTO 21006KT 10SM FEW026 BKN050 OVC055 09/08 A2971 RMK AO2 RAE23 SLP069 P0001 T00890078=
202411141350 SPECI KBLI 141350Z AUTO VRB06KT 10SM FEW029 OVC050 09/08 A2971 RMK AO2 RAE23 P0001=
202411141338 SPECI KBLI 141338Z AUTO VRB06KT 10SM SCT009 BKN028 OVC110 09/08 A2970 RMK AO2 RAE23 P0001 T00890083=
202411141301 SPECI KBLI 141301Z AUTO 19007KT 5SM -RA BR BKN009 OVC016 09/08 A2967 RMK AO2 P0001 T00890083=
202411141253 METAR KBLI 141253Z AUTO 18007KT 6SM RA BR SCT011 BKN016 OVC037 09/08 A2967 RMK AO2 SLP053 P0004 T00890083=
202411141249 SPECI KBLI 141249Z AUTO 18008KT 9SM -RA BKN015 BKN026 OVC035 09/08 A2967 RMK AO2 P0002=
202411141214 SPECI KBLI 141214Z AUTO 17011G20KT 10SM -RA FEW018 SCT050 OVC065 09/08 A2965 RMK AO2 P0000 T00940083=
202411141153 METAR KBLI 141153Z AUTO 18012G19KT 9SM -RA BKN017 BKN023 OVC033 09/08 A2964 RMK AO2 SLP044 P0008 60023 70034 T00940083 10100 20089 51002=
202411141053 METAR KBLI 141053Z AUTO 16010KT 10SM -RA OVC025 09/08 A2964 RMK AO2 RAB02 SLP044 P0004 T00940078=
202411141027 SPECI KBLI 141027Z AUTO 17009KT 10SM -RA BKN025 BKN034 OVC041 09/08 A2965 RMK AO2 RAB02 P0001 T00940078=
202411140953 METAR KBLI 140953Z AUTO 16012G21KT 10SM OVC055 10/07 A2964 RMK AO2 RAB25E34 SLP045 P0000 T01000072=
202411140914 SPECI KBLI 140914Z AUTO 16014G20KT 10SM FEW019 SCT070 OVC090 09/08 A2964 RMK AO2 T00940078=
202411140853 METAR KBLI 140853Z AUTO 17011G19KT 10SM SCT015 BKN022 BKN090 09/08 A2964 RMK AO2 RAB0756E31 SLP043 P0001 60011 T00940078 53013=
202411140845 SPECI KBLI 140845Z AUTO 17011G19KT 10SM SCT014 BKN020 OVC060 09/08 A2964 RMK AO2 RAB0756E31 P0001 T00940078=
202411140816 SPECI KBLI 140816Z AUTO 17015G22KT 10SM -RA FEW012 BKN055 OVC070 09/08 A2963 RMK AO2 RAB0756 P0000 T00940083=
202411140753 METAR KBLI 140753Z AUTO 17012G22KT 10SM BKN012 OVC022 09/08 A2962 RMK AO2 RAE52 SLP038 P0003 T00940083 401330089=
202411140745 SPECI KBLI 140745Z AUTO 17012G23KT 10SM -RA OVC014 09/08 A2962 RMK AO2 P0003 T00940083=
202411140653 METAR KBLI 140653Z AUTO 17017G24KT 9SM -RA BKN016 OVC024 09/08 A2961 RMK AO2 SLP033 P0007 T00940078=
202411140553 METAR KBLI 140553Z 17012G22KT 9SM -RA SCT019 OVC025 10/08 A2960 RMK AO2 SLP030 P0001 60010 T01000078 10117 20100 51016=
202411140453 METAR KBLI 140453Z 17010G22KT 7SM -RA OVC024 11/07 A2958 RMK AO2 RAB0354 SLP025 P0001 T01060072=
202411140353 METAR KBLI 140353Z 16014G20KT 10SM BKN024 OVC080 11/07 A2957 RMK AO2 PK WND 15027/0324 SLP019 T01060072=
202411140253 METAR KBLI 140253Z 16011G21KT 10SM BKN024 OVC029 11/08 A2955 RMK AO2 PK WND 17028/0210 SLP014 60008 T01110078 53021=
202411140153 METAR KBLI 140153Z 18017G28KT 10SM SCT026 BKN055 OVC080 11/07 A2952 RMK AO2 PK WND 17030/0122 RAE00 SLP004 P0000 T01110072=
202411140118 SPECI KBLI 140118Z 16016G26KT 10SM FEW024 SCT085 BKN110 11/08 A2950 RMK AO2 PK WND 17028/0054 RAE00 P0000 T01110078=
202411140053 METAR KBLI 140053Z 16019G26KT 10SM -RA FEW022 BKN026 OVC070 11/08 A2949 RMK AO2 PK WND 17030/0021 SLP993 P0008 T01110083=
202411132353 METAR KBLI 132353Z 18016G28KT 9SM -RA BKN026 BKN075 12/08 A2949 RMK AO2 PK WND 18030/2319 RAB07E18B51 SLP993 P0000 60000 T01170078 10133 20117 53008=
202411132253 METAR KBLI 132253Z 17016G30KT 10SM BKN030 OVC085 12/07 A2946 RMK AO2 PK WND 13035/2222 SLP983 T01170072=
202411132153 METAR KBLI 132153Z 16017G31KT 10SM BKN025 12/07 A2945 RMK AO2 PK WND 18034/2129 SLP981 T01220072=
202411132103 SPECI KBLI 132103Z 16019G28KT 10SM BKN025 12/08 A2946 RMK AO2 PK WND 15028/2103 T01220083=
202411132053 METAR KBLI 132053Z 16015G26KT 10SM SCT025 BKN032 BKN110 13/08 A2947 RMK AO2 PK WND 16027/2040 SLP985 T01280083 58002=
202411131953 METAR KBLI 131953Z 02009G16KT 10SM FEW025 BKN095 BKN120 13/09 A2947 RMK AO2 SLP986 T01330089 $=
202411131853 METAR KBLI 131853Z 10SM SCT029 OVC085 12/08 A2949 RMK AO2 PK WND 15030/1804 SLP992 T01220078 $=
202411131753 METAR KBLI 131753Z 16014G23KT 10SM BKN027 12/08 A2947 RMK AO2 SLP988 60001 T01170083 10117 20111 53006=
202411131653 METAR KBLI 131653Z 16016G27KT 10SM FEW023 BKN075 12/08 A2946 RMK AO2 PK WND 18033/1630 SLP983 P0001 T01170083=
202411131555 SPECI KBLI 131555Z 16015G25KT 10SM SCT025 BKN055 OVC090 11/08 A2946 RMK AO2 T01110083=
202411131553 METAR KBLI 131553Z 16014G25KT 10SM SCT027 OVC032 11/09 A2946 RMK AO2 RAE44 SLP983 P0000 T01110089=
202411131453 METAR KBLI 131453Z 16015G23KT 10SM -RA SCT027 OVC032 12/08 A2946 RMK AO2 RAB25 SLP981 P0000 60000 T01170083 58003=
202411131353 METAR KBLI 131353Z AUTO 16015G29KT 10SM OVC031 12/08 A2946 RMK AO2 PK WND 18029/1328 SLP982 T01170078=
202411131348 SPECI KBLI 131348Z AUTO 15019G29KT 10SM OVC031 12/08 A2946 RMK AO2 PK WND 18029/1328=
202411131337 SPECI KBLI 131337Z AUTO 15018G29KT 10SM OVC029 11/08 A2946 RMK AO2 PK WND 18029/1328 T01110078=
202411131253 METAR KBLI 131253Z AUTO 15016G28KT 10SM CLR 11/08 A2946 RMK AO2 PK WND 16031/1202 RAE1158 SLP984 P0000 T01110078=
202411131153 METAR KBLI 131153Z AUTO 15024G35KT 10SM -RA OVC100 11/08 A2949 RMK AO2 PK WND 16035/1153 SLP992 P0001 60006 70009 T01110078 10117 20094 58018=
202411131053 METAR KBLI 131053Z AUTO 16012G23KT 10SM -RA FEW035 SCT049 OVC065 11/07 A2952 RMK AO2 PK WND 16032/1010 SLP004 P0002 T01110072=
202411130953 METAR KBLI 130953Z AUTO 16019G31KT 6SM RA FEW042 BKN060 OVC070 11/07 A2952 RMK AO2 PK WND 17034/0938 RAB27 SLP001 P0003 T01060072=
202411130853 METAR KBLI 130853Z AUTO 15017G31KT 10SM SCT041 BKN075 BKN090 11/06 A2954 RMK AO2 PK WND 12040/0829 RAB09E40 SLP010 P0000 60000 T01110061 56042=
202411130753 METAR KBLI 130753Z AUTO 13014G25KT 10SM OVC047 11/06 A2958 RMK AO2 PK WND 14028/0725 SLP023 T01110056 401220083=
202411130653 METAR KBLI 130653Z AUTO 14011G18KT 10SM BKN050 BKN080 OVC110 10/06 A2962 RMK AO2 PK WND 17028/0601 RAE05 SLP038 P0000 T01000061=
202411130553 METAR KBLI 130553Z 15018G27KT 10SM -RA BKN048 OVC085 09/07 A2966 RMK AO2 PK WND 16038/0508 SLP052 P0001 60003 T00940072 10111 20094 58031=
202411130453 METAR KBLI 130453Z 16021G41KT 10SM -RA SCT035 BKN043 OVC055 11/07 A2971 RMK AO2 PK WND 20041/0452 RAE0355B31 SLP068 P0002 T01060067=
202411130353 METAR KBLI 130353Z 14021G28KT 10SM -RA FEW029 OVC070 11/07 A2973 RMK AO2 PK WND 15032/0314 RAE0258B39 SLP075 P0000 T01060067=
202411130253 METAR KBLI 130253Z 13011G21KT 10SM -RA OVC070 10/07 A2976 RMK AO2 PK WND 15028/0210 RAB09 SLP083 P0000 60000 T01000072 58028=
202411130153 METAR KBLI 130153Z 16016G30KT 10SM FEW039 BKN085 OVC100 11/06 A2980 RMK AO2 PK WND 12033/0117 SLP098 T01110061=
202411130053 METAR KBLI 130053Z 14009G18KT 10SM BKN030 OVC043 11/07 A2981 RMK AO2 SLP102 T01110067=
202411122353 METAR KBLI 122353Z 16010G18KT 10SM BKN035 BKN085 11/07 A2984 RMK AO2 SLP111 60000 T01110067 10122 20100 58024=
202411122253 METAR KBLI 122253Z 15009G20KT 10SM FEW020 SCT095 11/07 A2987 RMK AO2 SLP122 T01110067=
202411122153 METAR KBLI 122153Z 17010G18KT 10SM FEW025 12/07 A2989 RMK AO2 PK WND 14027/2130 SLP129 T01170067=
202411122053 METAR KBLI 122053Z 16009G19KT 10SM SCT025 12/07 A2991 RMK AO2 SLP135 60000 T01170067 58004 $=
202411121953 METAR KBLI 121953Z 16011KT 10SM SCT022 BKN060 OVC095 11/07 A2991 RMK AO2 RAE01 SLP136 P0000 T01110072 $=
202411121853 METAR KBLI 121853Z 17010G20KT 10SM -RA OVC065 10/07 A2994 RMK AO2 RAB46 SLP144 P0000 T01000072 $=
202411121753 METAR KBLI 121753Z 17009KT 10SM SCT035 BKN055 OVC080 10/07 A2992 RMK AO2 SLP139 60000 T01000072 10100 20089 50013 $=
202411121658 SPECI KBLI 121658Z 16008G15KT 10SM SCT025 BKN060 BKN090 09/07 A2992 RMK AO2 T00940072 $=
202411121653 METAR KBLI 121653Z 19006G15KT 10SM SCT025 BKN035 BKN050 09/07 A2992 RMK AO2 SLP140 T00940072 $=
202411121603 SPECI KBLI 121603Z 18009G17KT 10SM SCT025 BKN035 BKN050 09/07 A2991 RMK AO2 T00940067 $=
202411121553 METAR KBLI 121553Z 17008KT 10SM BKN029 BKN033 BKN050 09/07 A2991 RMK AO2 SLP135 T00940067 $=
202411121453 METAR KBLI 121453Z 18007G19KT 10SM SCT025 BKN075 09/07 A2988 RMK AO2 SLP127 60000 T00940067 51034 $=
202411121353 METAR KBLI 121353Z AUTO 20008KT 10SM FEW021 FEW085 09/07 A2985 RMK AO2 SLP117 T00940067=
202411121253 METAR KBLI 121253Z AUTO 19008G20KT 10SM FEW019 BKN090 09/07 A2982 RMK AO2 RAE03 SLP105 P0000 T00940072=
202411121240 SPECI KBLI 121240Z AUTO 19008G17KT 10SM SCT019 SCT025 OVC085 09/07 A2981 RMK AO2 RAE03 P0000 T00940072=
202411121153 METAR KBLI 121153Z AUTO 20008G22KT 160V220 7SM -RA SCT014 BKN021 OVC036 09/08 A2978 RMK AO2 PK WND 17027/1103 SLP093 P0005 60015 70033 T00890078 10100 20083 53018=
202411121117 SPECI KBLI 121117Z AUTO 17012G21KT 10SM -RA FEW010 BKN015 OVC022 09/08 A2976 RMK AO2 PK WND 17027/1103 P0002 T00890078=
202411121053 METAR KBLI 121053Z AUTO 18011G24KT 4SM RA BR FEW008 BKN014 OVC039 08/08 A2975 RMK AO2 PK WND 17027/1036 SLP084 P0009 T00830078=
202411121049 SPECI KBLI 121049Z AUTO 18011G27KT 4SM RA BR FEW008 BKN014 OVC039 08/08 A2975 RMK AO2 PK WND 17027/1036 P0008=
202411121042 SPECI KBLI 121042Z AUTO 17013G27KT 4SM RA BR BKN012 BKN020 OVC039 09/08 A2976 RMK AO2 PK WND 17027/1036 P0005 T00890078=
202411120953 METAR KBLI 120953Z AUTO 17013G23KT 10SM -RA FEW017 SCT047 OVC055 09/07 A2974 RMK AO2 PK WND 17028/0902 SLP077 P0001 T00890072=
202411120906 SPECI KBLI 120906Z AUTO 16017G28KT 9SM -RA SCT020 BKN037 OVC065 09/07 A2973 RMK AO2 PK WND 17028/0902 P0001 T00890072=
202411120853 METAR KBLI 120853Z AUTO 17013G24KT 10SM -RA BKN020 BKN027 OVC070 09/07 A2973 RMK AO2 PK WND 18030/0806 RAB02E22B50 SLP074 P0000 60000 T00890072 52008=
202411120803 SPECI KBLI 120803Z AUTO 16020G29KT 10SM -RA BKN024 OVC031 10/06 A2972 RMK AO2 PK WND 16029/0801 RAB02 P0000 T01000061=
202411120753 METAR KBLI 120753Z AUTO 16015G28KT 10SM SCT025 OVC031 10/06 A2972 RMK AO2 PK WND 17030/0712 SLP072 T01000056 401280094=
202411120653 METAR KBLI 120653Z AUTO 16017G27KT 10SM OVC026 09/06 A2971 RMK AO2 PK WND 19032/0554 SLP066 T00940056=
202411120553 METAR KBLI 120553Z 16018G30KT 10SM OVC026 09/06 A2970 RMK AO2 PK WND 17030/0524 SLP065 60000 T00940056 10100 20094 53006=
202411120453 METAR KBLI 120453Z 17011G26KT 10SM BKN024 BKN030 OVC037 10/06 A2969 RMK AO2 PK WND 17026/0447 SLP061 T01000061=
202411120353 METAR KBLI 120353Z 16009G18KT 10SM OVC026 10/07 A2970 RMK AO2 SLP062 T01000067=
202411120332 SPECI KBLI 120332Z 17009G18KT 10SM BKN024 BKN029 OVC038 10/07 A2969 RMK AO2 T01000067=
202411120253 METAR KBLI 120253Z 16010G18KT 10SM FEW027 SCT038 BKN060 09/07 A2969 RMK AO2 PK WND 18033/0156 RAE25 SLP059 P0000 60000 T00940067 53005=
202411120153 METAR KBLI 120153Z 16014G22KT 10SM -RA FEW025 BKN050 OVC070 09/07 A2968 RMK AO2 RAB47 SLP058 P0000 T00940067=
202411120053 METAR KBLI 120053Z 15012G18KT 10SM SCT028 09/07 A2967 RMK AO2 SLP054 T00940067=
202411112353 METAR KBLI 112353Z 16008G19KT 10SM SCT021 BKN035 09/07 A2967 RMK AO2 RAE2256 SLP054 P0000 60000 T00940072 10106 20094 53010=
202411112253 METAR KBLI 112253Z 16007KT 10SM -RA FEW015 BKN055 BKN065 11/08 A2965 RMK AO2 RAB45 SLP048 P0000 T01060078=
202411112153 METAR KBLI 112153Z 17006KT 10SM FEW015 SCT025 BKN065 11/08 A2964 RMK AO2 RAE39 SLP045 P0000 T01060078=
202411112053 METAR KBLI 112053Z 18005KT 10SM -RA SCT020 BKN035 OVC085 10/08 A2964 RMK AO2 RAB30 SLP044 P0000 60000 T01000078 51020=
202411111953 METAR KBLI 111953Z 18006KT 10SM FEW012 BKN035 BKN065 11/08 A2963 RMK AO2 SLP042 T01060078=
202411111853 METAR KBLI 111853Z VRB04KT 10SM FEW007 SCT042 BKN110 10/07 A2962 RMK AO2 SLP038 T01000072=
202411111753 METAR KBLI 111753Z 21004KT 10SM FEW100 10/07 A2958 RMK AO2 SLP023 60018 T01000067 10128 20094 51060=
202411111653 METAR KBLI 111653Z 19006G17KT 10SM FEW015 SCT030 BKN060 10/07 A2954 RMK AO2 RAE48 SLP009 P0003 T01000067 $=
202411111558 SPECI KBLI 111558Z 18009KT 8SM -RA SCT015 BKN035 BKN050 10/09 A2947 RMK AO2 P0001 T01000089=
202411111553 METAR KBLI 111553Z VRB06KT 6SM RA BR FEW016 BKN029 OVC047 10/09 A2947 RMK AO2 PK WND 18042/1526 RAB06 SLP985 P0015 T01000089=
202411111537 SPECI KBLI 111537Z 18012G32KT 5SM R16/3500VP6000FT +RA BR BKN020 BKN027 OVC033 11/09 A2946 RMK AO2 PK WND 18042/1526 RAB06 PRESRR P0011 T01060094=
202411111453 METAR KBLI 111453Z 17017G51KT 10SM SCT025 BKN035 OVC090 13/08 A2940 RMK AO2 PK WND 17051/1448 SLP962 60000 T01280083 56010=
202411111353 METAR KBLI 111353Z AUTO 15013G24KT 10SM FEW032 OVC110 12/08 A2941 RMK AO2 PK WND 14029/1326 RAE03 SLP965 P0000 T01220083=
202411111253 METAR KBLI 111253Z AUTO 15018G24KT 10SM -RA BKN075 OVC090 12/08 A2941 RMK AO2 RAB35 SLP965 P0000 T01170083=
202411111217 SPECI KBLI 111217Z AUTO 14009G19KT 10SM FEW023 BKN070 OVC085 12/09 A2944 RMK AO2 T01170094=
202411111153 METAR KBLI 111153Z AUTO 13010G19KT 10SM OVC024 12/10 A2943 RMK AO2 RAE46 PRESFR SLP972 P0003 60045 70053 T01170100 10117 20094 58033=
202411111105 SPECI KBLI 111105Z AUTO 33004KT 7SM -RA BKN022 OVC031 09/09 A2946 RMK AO2 P0001 T00940094=
202411111053 METAR KBLI 111053Z AUTO 33003KT 5SM -RA BR SCT024 OVC031 09/09 A2948 RMK AO2 SLP988 P0008 T00940094=
202411110953 METAR KBLI 110953Z AUTO 03005KT 9SM -RA OVC030 09/09 A2949 RMK AO2 SLP992 P0009 T00940094=
202411110853 METAR KBLI 110853Z AUTO 04005KT 7SM -RA OVC034 09/09 A2953 RMK AO2 SLP005 P0010 60025 T00940094 58034=
202411110753 METAR KBLI 110753Z AUTO 03006KT 8SM -RA OVC037 09/09 A2956 RMK AO2 SLP016 P0008 T00940094 401390089=
202411110653 METAR KBLI 110653Z AUTO 06004KT 7SM -RA BKN044 OVC065 10/09 A2959 RMK AO2 SLP028 P0007 T01000094=
202411110553 METAR KBLI 110553Z 09007KT 9SM -RA FEW050 OVC060 11/09 A2962 RMK AO2 SLP038 P0005 60007 T01060089 10139 20100 56029=
202411110453 METAR KBLI 110453Z 01005KT 9SM -RA OVC060 10/09 A2964 RMK AO2 RAB0359 SLP045 P0002 T01000094=
202411110353 METAR KBLI 110353Z 19003KT 10SM FEW060 OVC075 12/08 A2967 RMK AO2 SLP054 T01170078=
202411110253 METAR KBLI 110253Z 18004KT 10SM FEW050 SCT060 OVC090 12/08 A2971 RMK AO2 SLP068 T01170078 57025=
202411110153 METAR KBLI 110153Z 16012G18KT 10SM FEW060 SCT120 14/06 A2974 RMK AO2 SLP079 T01390056=
202411110053 METAR KBLI 110053Z 13008KT 10SM CLR 13/06 A2976 RMK AO2 SLP083 T01330061=
202411102353 METAR KBLI 102353Z 12005KT 10SM FEW065 13/07 A2979 RMK AO2 SLP094 T01280072 10139 20106 56024=
202411102253 METAR KBLI 102253Z 15009KT 10SM OVC060 14/07 A2982 RMK AO2 SLP103 T01390072=
202411102153 METAR KBLI 102153Z 11005KT 10SM CLR 13/08 A2983 RMK AO2 SLP107 T01330083=
202411102053 METAR KBLI 102053Z 08004KT 10SM BKN075 12/10 A2986 RMK AO2 SLP118 T01220100 58023=
202411101953 METAR KBLI 101953Z 07005KT 10SM BKN080 12/10 A2990 RMK AO2 SLP131 T01220100=
202411101904 SPECI KBLI 101904Z 07003KT 10SM FEW015 SCT070 12/10 A2992 RMK AO2 T01170100=
202411101853 METAR KBLI 101853Z 06005KT 10SM FEW015 SCT070 11/10 A2992 RMK AO2 SLP138 T01110100=
202411101753 METAR KBLI 101753Z 06005KT 10SM SCT035 BKN060 11/10 A2993 RMK AO2 SLP141 60001 T01060100 10111 20094 56013=
202411101653 METAR KBLI 101653Z 11003KT 10SM FEW020 BKN035 11/09 A2995 RMK AO2 SLP147 T01110094=
202411101620 SPECI KBLI 101620Z 07004KT 10SM FEW015 BKN026 BKN035 10/09 A2994 RMK AO2 T01000094=
202411101553 METAR KBLI 101553Z 13005KT 8SM SCT010 BKN015 OVC030 10/09 A2994 RMK AO2 RAE1459 SLP147 P0000 T01000094=
202411101531 SPECI KBLI 101531Z 10006KT 5SM BR SCT010 BKN015 OVC025 09/09 A2995 RMK AO2 RAE1459 P0000 T00940094=
202411101453 METAR KBLI 101453Z 00000KT 2SM R16/5500VP6000FT -RA BR SCT010 BKN015 OVC025 09/09 A2996 RMK AO2 RAB41 SLP155 P0000 60001 T00940094 56005=
202411101451 SPECI KBLI 101451Z 00000KT 2SM R16/5500VP6000FT -RA BR SCT010 BKN015 OVC025 09/09 A2997 RMK AO2 RAB41 P0000=
202411101444 SPECI KBLI 101444Z 00000KT 1 3/4SM -RA BR BKN017 OVC023 09/09 A2997 RMK AO2 RAB41 P0000 T00940094=
202411101427 SPECI KBLI 101427Z AUTO 00000KT 2 1/2SM BR SCT011 BKN018 OVC024 09/09 A2996 RMK AO2 T00940094=
202411101423 SPECI KBLI 101423Z AUTO 00000KT 3SM BR BKN011 OVC023 09/09 A2997 RMK AO2 T00940094=
202411101353 METAR KBLI 101353Z AUTO 00000KT 2 1/2SM BR OVC011 09/09 A2997 RMK AO2 RAB1257E52 SLP156 P0001 T00940094=
202411101323 SPECI KBLI 101323Z AUTO 00000KT 2 1/2SM -RA BR OVC011 09/09 A2998 RMK AO2 RAB1257 P0000 T00940094=
202411101313 SPECI KBLI 101313Z AUTO 00000KT 3SM -RA BR OVC012 09/09 A2998 RMK AO2 RAB1257 P0000 T00940094=
202411101253 METAR KBLI 101253Z AUTO 00000KT 2 1/2SM BR OVC013 09/09 A2998 RMK AO2 RAB32E41 SLP159 P0000 T00940094=
202411101229 SPECI KBLI 101229Z AUTO 00000KT 4SM BR OVC012 09/09 A2998 RMK AO2 T00940094=
202411101216 SPECI KBLI 101216Z AUTO 00000KT 4SM BR OVC015 09/09 A2998 RMK AO2 T00940094=
202411101153 METAR KBLI 101153Z AUTO 00000KT 3SM BR OVC013 09/09 A2998 RMK AO2 SLP157 70028 T00940094 10094 20089 56004=
202411101138 SPECI KBLI 101138Z AUTO 00000KT 2 1/2SM BR OVC011 09/09 A2998 RMK AO2 T00940094=
202411101053 METAR KBLI 101053Z AUTO 00000KT 4SM BR OVC012 09/09 A2998 RMK AO2 SLP158 T00940094=
202411100953 METAR KBLI 100953Z AUTO 00000KT 6SM R16/3500VP6000FT BR SCT005 OVC014 09/09 A2998 RMK AO2 SLP160 T00940094=
202411100933 SPECI KBLI 100933Z AUTO 00000KT 7SM FEW004 OVC014 09/09 A2999 RMK AO2 T00890089=
202411100853 METAR KBLI 100853Z AUTO 07003KT 10SM OVC017 09/09 A2999 RMK AO2 SLP161 T00940089 58002=
202411100753 METAR KBLI 100753Z AUTO 00000KT 10SM OVC021 09/09 A2999 RMK AO2 SLP164 T00940089 401110089=
202411100653 METAR KBLI 100653Z AUTO 00000KT 10SM OVC020 09/09 A3001 RMK AO2 SLP168 T00940094=
202411100553 METAR KBLI 100553Z VRB03KT 10SM OVC016 09/09 A2999 RMK AO2 SLP164 60005 T00940089 10100 20094 53007=
202411100453 METAR KBLI 100453Z 19007KT 10SM SCT014 BKN019 OVC030 09/09 A2998 RMK AO2 SLP161 T00940089=
202411100353 METAR KBLI 100353Z VRB05KT 10SM FEW016 OVC024 09/09 A2997 RMK AO2 SLP158 T00940089=
202411100253 METAR KBLI 100253Z 21005KT 10SM OVC025 09/09 A2997 RMK AO2 RAE17 SLP158 P0000 60005 T00940089 53005=
202411100153 METAR KBLI 100153Z 19008G16KT 5SM -RA BR BKN021 BKN025 OVC060 09/09 A2996 RMK AO2 RAB18 SLP152 P0005 T00940094=
202411100149 SPECI KBLI 100149Z 17009G16KT 4SM -RA BR OVC019 09/09 A2996 RMK AO2 RAB18 P0005=
202411100141 SPECI KBLI 100141Z 20005KT 2 1/2SM -RA BR OVC019 09/09 A2996 RMK AO2 RAB18 P0004 T00940094=
202411100053 METAR KBLI 100053Z 19008KT 10SM FEW004 OVC020 10/09 A2996 RMK AO2 SLP151 T01000094=
202411092353 METAR KBLI 092353Z 19006KT 10SM SCT008 BKN017 OVC024 10/09 A2994 RMK AO2 SLP146 60001 T01000094 10111 20100 53001=
202411092253 METAR KBLI 092253Z 19006KT 10SM SCT007 OVC017 11/09 A2994 RMK AO2 SLP145 T01060094=
202411092153 METAR KBLI 092153Z 00000KT 10SM FEW015 OVC025 11/09 A2993 RMK AO2 SLP142 T01110094=
202411092053 METAR KBLI 092053Z 00000KT 10SM FEW007 SCT020 BKN045 11/10 A2994 RMK AO2 SLP144 60001 T01110100 58002=
202411091953 METAR KBLI 091953Z 00000KT 10SM FEW005 SCT015 BKN060 11/10 A2994 RMK AO2 RAE05B28E40 SLP146 P0000 T01110100=
202411091858 SPECI KBLI 091858Z 00000KT 9SM -RA FEW005 SCT020 BKN060 11/10 A2995 RMK AO2 VIS NW-N 3SM P0000 T01060100=
202411091856 SPECI KBLI 091856Z 35003KT 8SM -RA FEW003 BKN065 OVC080 11/10 A2995 RMK AO2 VIS NW-N 3SM P0000 T01060100=
202411091853 METAR KBLI 091853Z 00000KT 8SM -RA FEW005 SCT020 BKN070 11/10 A2995 RMK AO2 SLP149 P0001 T01060100=
202411091840 SPECI KBLI 091840Z 01004KT 8SM -RA FEW003 FEW060 OVC075 11/10 A2995 RMK AO2 P0001 T01060100=
202411091753 METAR KBLI 091753Z 00000KT 8SM -RA FEW020 SCT040 BKN060 10/10 A2994 RMK AO2 SLP146 P0000 60022 T01000100 10100 20089 58001=
202411091653 METAR KBLI 091653Z 09003KT 7SM -RA FEW010 SCT025 BKN035 09/09 A2995 RMK AO2 SLP149 P0003 T00940094=
202411091553 METAR KBLI 091553Z 00000KT 5SM -RA BR FEW010 SCT025 BKN060 09/09 A2995 RMK AO2 SLP149 P0003 T00890089=
202411091453 METAR KBLI 091453Z 00000KT 6SM -RA BR FEW015 SCT025 BKN060 09/09 A2995 RMK AO2 SLP148 P0004 60016 T00940094 55005=
202411091353 METAR KBLI 091353Z AUTO 04003KT 6SM -RA BR BKN039 OVC060 09/09 A2995 RMK AO2 SLP148 P0006 T00940094=
202411091253 METAR KBLI 091253Z AUTO 00000KT 4SM -RA BR OVC034 09/09 A2995 RMK AO2 SLP149 P0006 T00940094=
202411091229 SPECI KBLI 091229Z AUTO 03003KT 4SM -RA BR OVC033 09/09 A2995 RMK AO2 P0004 T00940094=
202411091206 SPECI KBLI 091206Z AUTO 00000KT 2 1/2SM -RA BR OVC035 09/09 A2996 RMK AO2 P0002 T00890089=
202411091153 METAR KBLI 091153Z AUTO 00000KT 3SM -RA BR OVC035 09/09 A2996 RMK AO2 SLP153 P0004 60014 70014 T00890089 10100 20089 58007=
202411091053 METAR KBLI 091053Z AUTO 00000KT 6SM -RA BR OVC041 09/09 A2997 RMK AO2 SLP156 P0005 T00940094=
202411090953 METAR KBLI 090953Z AUTO 00000KT 5SM -RA BR OVC070 09/09 A2998 RMK AO2 SLP158 P0005 T00890089=
202411090853 METAR KBLI 090853Z AUTO 00000KT 8SM -RA BKN050 OVC060 09/09 A2998 RMK AO2 RAB32 SLP160 P0000 60000 T00940089 55004=
202411090753 METAR KBLI 090753Z AUTO 00000KT 9SM OVC070 09/09 A2997 RMK AO2 RAB02E16 SLP155 P0000 T00890089 401280050=
202411090653 METAR KBLI 090653Z AUTO 00000KT 10SM OVC075 09/09 A2998 RMK AO2 RAB38E50 SLP158 P0000 T00940089=
202411090553 METAR KBLI 090553Z 00000KT 10SM OVC075 09/09 A3000 RMK AO2 RAB07E52 SLP165 P0000 60000 T00940089 10117 20094 55002=
202411090453 METAR KBLI 090453Z 00000KT 10SM OVC080 09/09 A2999 RMK AO2 SLP163 T00940089=
202411090353 METAR KBLI 090353Z 13004KT 10SM OVC090 09/09 A2999 RMK AO2 SLP164 T00940089=
202411090253 METAR KBLI 090253Z 30003KT 10SM BKN100 11/09 A3000 RMK AO2 SLP167 T01060089 53005=
202411090153 METAR KBLI 090153Z 00000KT 10SM OVC110 10/09 A2998 RMK AO2 SLP160 T01000089=
202411090053 METAR KBLI 090053Z 00000KT 10SM SCT100 11/09 A2998 RMK AO2 SLP160 T01060089=
202411082353 METAR KBLI 082353Z 00000KT 10SM FEW090 12/09 A2999 RMK AO2 SLP162 T01170089 10128 20094 56022=
202411082253 METAR KBLI 082253Z 17004KT 10SM OVC090 13/08 A3000 RMK AO2 SLP167 T01280078=
202411082153 METAR KBLI 082153Z 17004KT 10SM FEW090 13/08 A3002 RMK AO2 SLP174 T01280078=
202411082053 METAR KBLI 082053Z 17003KT 10SM CLR 12/07 A3005 RMK AO2 SLP185 T01220067 58019=
202411081953 METAR KBLI 081953Z 00000KT 10SM FEW090 11/09 A3008 RMK AO2 SLP194 T01110094=
202411081853 METAR KBLI 081853Z 36004KT 10SM CLR 10/09 A3010 RMK AO2 SLP200 T01000089=
202411081753 METAR KBLI 081753Z 01003KT 10SM CLR 09/08 A3011 RMK AO2 SLP204 T00940083 10094 20056 50004=
202411081653 METAR KBLI 081653Z 02003KT 10SM CLR 09/08 A3013 RMK AO2 SLP210 T00890083=
202411081553 METAR KBLI 081553Z 00000KT 10SM OVC080 07/07 A3012 RMK AO2 SLP206 T00720072=
202411081453 METAR KBLI 081453Z 00000KT 9SM CLR 06/06 A3010 RMK AO2 SLP200 T00560056 56013=
202411081353 METAR KBLI 081353Z AUTO 00000KT 9SM CLR 06/06 A3010 RMK AO2 SLP202 T00560056=
202411081253 METAR KBLI 081253Z AUTO 00000KT 9SM CLR 06/06 A3012 RMK AO2 SLP209 T00560056=
202411081153 METAR KBLI 081153Z AUTO 00000KT 8SM CLR 06/06 A3013 RMK AO2 SLP212 T00610061 10072 20050 58009=
202411081053 METAR KBLI 081053Z AUTO 00000KT 9SM CLR 06/06 A3016 RMK AO2 SLP223 T00560056=
202411080953 METAR KBLI 080953Z AUTO 00000KT 10SM CLR 07/07 A3015 RMK AO2 SLP217 T00670067=
202411080853 METAR KBLI 080853Z AUTO 00000KT 10SM CLR 07/07 A3016 RMK AO2 SLP220 T00670067 56005=
202411080753 METAR KBLI 080753Z AUTO 00000KT 10SM CLR 06/06 A3016 RMK AO2 SLP222 T00610056 401390033=
202411080653 METAR KBLI 080653Z AUTO 00000KT 10SM CLR 06/06 A3017 RMK AO2 SLP224 T00610061=
202411080553 METAR KBLI 080553Z 00000KT 10SM CLR 07/07 A3018 RMK AO2 SLP227 T00720067 10111 20067 53003=
202411080453 METAR KBLI 080453Z 00000KT 10SM CLR 07/07 A3016 RMK AO2 SLP220 T00670067=
202411080353 METAR KBLI 080353Z 00000KT 10SM CLR 08/07 A3017 RMK AO2 SLP223 T00780072=
202411080253 METAR KBLI 080253Z 00000KT 10SM CLR 08/07 A3017 RMK AO2 SLP224 T00780072 55008=
202411080153 METAR KBLI 080153Z 00000KT 10SM CLR 08/07 A3017 RMK AO2 SLP224 T00780067=
202411080053 METAR KBLI 080053Z 00000KT 10SM CLR 09/08 A3018 RMK AO2 SLP229 T00890078=
202411072353 METAR KBLI 072353Z 00000KT 10SM CLR 11/08 A3019 RMK AO2 SLP232 T01060083 10139 20094 58010=
202411072253 METAR KBLI 072253Z 35003KT 10SM CLR 13/08 A3021 RMK AO2 SLP236 T01330078=
202411072153 METAR KBLI 072153Z 00000KT 10SM CLR 13/08 A3021 RMK AO2 SLP237 T01330078=
202411072053 METAR KBLI 072053Z 00000KT 10SM CLR 14/07 A3022 RMK AO2 SLP242 T01390072 58008=
202411071953 METAR KBLI 071953Z 33004KT 10SM CLR 12/07 A3025 RMK AO2 SLP250 T01220067=
202411071853 METAR KBLI 071853Z 00000KT 10SM CLR 12/07 A3024 RMK AO2 SLP249 T01170067=
202411071753 METAR KBLI 071753Z 32003KT 10SM CLR 10/06 A3025 RMK AO2 SLP251 T01000061 10100 20033 51009=
202411071653 METAR KBLI 071653Z 00000KT 10SM CLR 08/06 A3024 RMK AO2 SLP249 T00830061=
202411071553 METAR KBLI 071553Z 00000KT 10SM CLR 04/04 A3023 RMK AO2 SLP245 T00440044=
202411071453 METAR KBLI 071453Z 00000KT 10SM CLR 04/03 A3022 RMK AO2 SLP241 T00390033 58013=
202411071353 METAR KBLI 071353Z AUTO 00000KT 10SM OVC070 05/04 A3024 RMK AO2 SLP249 T00500044=
202411071253 METAR KBLI 071253Z AUTO 00000KT 10SM CLR 04/04 A3024 RMK AO2 SLP247 T00440044=
202411071153 METAR KBLI 071153Z AUTO 10SM OVC070 06/05 A3026 RMK AO2 SLP254 T00610050 10078 20056 56009=
202411071053 METAR KBLI 071053Z AUTO 12003KT 10SM OVC050 07/05 A3026 RMK AO2 SLP257 T00720050=
202411070953 METAR KBLI 070953Z AUTO 02003KT 10SM OVC055 07/06 A3027 RMK AO2 SLP260 T00720056=
202411070853 METAR KBLI 070853Z AUTO 00000KT 10SM OVC060 07/06 A3028 RMK AO2 SLP263 T00720056 58005=
202411070753 METAR KBLI 070753Z AUTO 03005KT 10SM FEW043 OVC055 07/06 A3030 RMK AO2 SLP267 T00720056 401060044=
202411070653 METAR KBLI 070653Z AUTO 01005KT 10SM BKN047 OVC055 07/06 A3030 RMK AO2 SLP269 T00720056=
202411070553 METAR KBLI 070553Z 01003KT 10SM OVC047 07/06 A3030 RMK AO2 SLP268 T00720056 10100 20072 56008=
202411070453 METAR KBLI 070453Z 00000KT 10SM OVC048 07/06 A3030 RMK AO2 SLP270 T00720056=
202411070353 METAR KBLI 070353Z 00000KT 10SM OVC050 08/06 A3031 RMK AO2 SLP271 T00780056=
202411070253 METAR KBLI 070253Z 00000KT 10SM OVC060 08/06 A3032 RMK AO2 SLP277 T00780056 56011=
202411070153 METAR KBLI 070153Z 00000KT 10SM OVC050 09/06 A3033 RMK AO2 SLP280 T00890056=
202411070053 METAR KBLI 070053Z 03003KT 10SM OVC060 09/05 A3034 RMK AO2 SLP282 T00940050=
202411062353 METAR KBLI 062353Z 02003KT 10SM OVC060 10/05 A3036 RMK AO2 SLP288 T01000050 10106 20078 56013=
202411062253 METAR KBLI 062253Z 35003KT 10SM OVC065 11/04 A3036 RMK AO2 SLP289 T01060044=
202411062153 METAR KBLI 062153Z 04003KT 10SM OVC070 10/04 A3037 RMK AO2 SLP292 T01000044=
202411062053 METAR KBLI 062053Z 02005KT 10SM SCT046 OVC070 10/04 A3039 RMK AO2 SLP300 T01000044 58008=
202411061953 METAR KBLI 061953Z 02004KT 10SM BKN060 OVC075 10/06 A3040 RMK AO2 SLP303 T01000056=
202411061853 METAR KBLI 061853Z 35004KT 10SM BKN060 OVC070 09/06 A3041 RMK AO2 SLP308 T00940061=
202411061753 METAR KBLI 061753Z 00000KT 10SM SCT060 OVC075 08/05 A3042 RMK AO2 SLP309 T00780050 10078 20050 50004=
202411061653 METAR KBLI 061653Z 00000KT 10SM OVC055 07/06 A3043 RMK AO2 SLP312 T00720056=
202411061553 METAR KBLI 061553Z 00000KT 10SM OVC080 05/04 A3041 RMK AO2 SLP308 T00500044=
202411061453 METAR KBLI 061453Z 00000KT 10SM OVC070 05/04 A3041 RMK AO2 SLP306 T00500044 53002=
202411061353 METAR KBLI 061353Z AUTO 00000KT 10SM OVC080 05/04 A3040 RMK AO2 SLP305 T00500044=
202411061253 METAR KBLI 061253Z AUTO 00000KT 10SM OVC070 05/04 A3040 RMK AO2 SLP304 T00500044=
202411061153 METAR KBLI 061153Z AUTO 00000KT 10SM OVC070 05/04 A3040 RMK AO2 SLP303 T00500039 10050 20044 58000=
202411061053 METAR KBLI 061053Z AUTO 00000KT 10SM BKN090 OVC120 05/04 A3040 RMK AO2 SLP303 T00500044=
202411060953 METAR KBLI 060953Z AUTO 01003KT 10SM OVC080 05/04 A3041 RMK AO2 SLP305 T00500039=
202411060853 METAR KBLI 060853Z AUTO 00000KT 10SM OVC085 05/04 A3040 RMK AO2 SLP303 T00500039 58001=
202411060753 METAR KBLI 060753Z AUTO 00000KT 10SM OVC100 05/04 A3041 RMK AO2 SLP305 T00500044 401060028=
202411060653 METAR KBLI 060653Z AUTO 00000KT 10SM OVC100 05/04 A3040 RMK AO2 SLP304 T00500044=
202411060553 METAR KBLI 060553Z 00000KT 10SM BKN120 04/04 A3040 RMK AO2 SLP304 T00440044 10089 20028 51010=
202411060453 METAR KBLI 060453Z 00000KT 10SM SCT110 04/04 A3040 RMK AO2 SLP303 T00390039=
202411060353 METAR KBLI 060353Z 00000KT 10SM CLR 04/03 A3039 RMK AO2 SLP299 T00390033=
202411060253 METAR KBLI 060253Z 00000KT 10SM CLR 03/03 A3037 RMK AO2 SLP295 T00330033 53012=
202411060153 METAR KBLI 060153Z 00000KT 10SM CLR 05/04 A3036 RMK AO2 SLP289 T00500044=
202411060053 METAR KBLI 060053Z 00000KT 10SM CLR 06/04 A3035 RMK AO2 SLP284 T00560044=
202411052353 METAR KBLI 052353Z 00000KT 10SM CLR 09/04 A3034 RMK AO2 SLP282 T00890039 10106 20083 53008=
202411052253 METAR KBLI 052253Z VRB04KT 9SM FEW022 09/04 A3033 RMK AO2 SLP277 T00940039=
202411052153 METAR KBLI 052153Z 30003KT 10SM SCT023 10/04 A3032 RMK AO2 SLP274 T01000044=
202411052053 METAR KBLI 052053Z 31004KT 10SM SCT023 10/04 A3031 RMK AO2 SLP273 T01000044 53006=
202411051953 METAR KBLI 051953Z 20006KT 10SM SCT020 09/03 A3031 RMK AO2 SLP272 T00940033=
202411051853 METAR KBLI 051853Z 24007KT 210V300 10SM BKN032 09/04 A3030 RMK AO2 SLP267 T00890044=
202411051753 METAR KBLI 051753Z 24004KT 10SM SCT020 BKN035 08/05 A3030 RMK AO2 SLP267 T00830050 10083 20067 51016=
202411051653 METAR KBLI 051653Z 00000KT 10SM SCT025 BKN032 08/05 A3028 RMK AO2 SLP262 T00830050=
202411051553 METAR KBLI 051553Z 00000KT 10SM SCT025 BKN032 08/05 A3027 RMK AO2 SLP257 T00780050=
202411051453 METAR KBLI 051453Z 00000KT 10SM SCT025 BKN035 07/05 A3025 RMK AO2 SLP251 T00720050 51013=
202411051446 SPECI KBLI 051446Z 00000KT 10SM FEW020 BKN026 07/05 A3025 RMK AO2 T00720050=
202411051407 SPECI KBLI 051407Z AUTO 27005KT 10SM SCT027 08/04 A3023 RMK AO2 T00780044=
202411051353 METAR KBLI 051353Z AUTO 24003KT 10SM BKN028 08/04 A3023 RMK AO2 SLP245 T00780044=
202411051322 SPECI KBLI 051322Z AUTO 19005KT 10SM BKN026 BKN034 07/04 A3023 RMK AO2 T00720044=
202411051253 METAR KBLI 051253Z AUTO 00000KT 10SM FEW027 BKN032 08/04 A3023 RMK AO2 SLP245 T00780044=
202411051220 SPECI KBLI 051220Z AUTO VRB05KT 10SM BKN027 BKN032 08/04 A3022 RMK AO2 T00780044=
202411051153 METAR KBLI 051153Z AUTO VRB03KT 10SM SCT026 08/04 A3021 RMK AO2 SLP238 70031 T00780044 10089 20072 51012=
202411051137 SPECI KBLI 051137Z AUTO VRB03KT 10SM SCT027 08/04 A3021 RMK AO2 T00780044=
202411051053 METAR KBLI 051053Z AUTO 28004KT 10SM BKN026 BKN032 08/04 A3020 RMK AO2 SLP235 T00780044=
202411051050 SPECI KBLI 051050Z AUTO VRB05KT 10SM BKN026 BKN031 08/04 A3020 RMK AO2=
202411050953 METAR KBLI 050953Z AUTO 00000KT 10SM SCT030 BKN034 08/04 A3018 RMK AO2 SLP226 T00780039=
202411050927 SPECI KBLI 050927Z AUTO VRB03KT 10SM SCT027 08/04 A3017 RMK AO2 T00780039=
202411050853 METAR KBLI 050853Z AUTO VRB03KT 10SM BKN027 08/04 A3017 RMK AO2 SLP224 T00780044 51024=
202411050840 SPECI KBLI 050840Z AUTO VRB04KT 10SM SCT026 08/04 A3017 RMK AO2 T00780044=
202411050819 SPECI KBLI 050819Z AUTO VRB04KT 10SM BKN028 08/04 A3016 RMK AO2 T00830039=
202411050753 METAR KBLI 050753Z AUTO VRB06KT 10SM SCT027 08/04 A3015 RMK AO2 SLP217 T00830039 401060083=
202411050653 METAR KBLI 050653Z AUTO VRB03KT 10SM CLR 08/04 A3013 RMK AO2 SLP209 T00830039=
202411050553 METAR KBLI 050553Z 00000KT 10SM FEW065 08/04 A3010 RMK AO2 SLP200 T00830044 10106 20083 53025=
202411050453 METAR KBLI 050453Z 27007G19KT 240V310 10SM CLR 09/03 A3007 RMK AO2 SLP191 T00940028=
202411050353 METAR KBLI 050353Z VRB05KT 10SM CLR 09/04 A3004 RMK AO2 SLP181 T00940044=
202411050253 METAR KBLI 050253Z 21007KT 10SM CLR 09/06 A3002 RMK AO2 SLP174 T00940056 51031=
202411050153 METAR KBLI 050153Z 00000KT 10SM FEW034 SCT048 BKN065 10/06 A3000 RMK AO2 SLP166 T01000056=
202411050053 METAR KBLI 050053Z 28005KT 10SM BKN041 BKN060 OVC085 10/06 A2997 RMK AO2 SLP154 T01000056=
202411042353 METAR KBLI 042353Z 26005KT 10SM OVC035 10/06 A2993 RMK AO2 RAB08E18 SLP142 P0000 60005 T01000061 10106 20089 51029=
202411042253 METAR KBLI 042253Z 10SM BKN036 BKN050 OVC075 10/06 A2990 RMK AO2 SLP132 T01000061=
202411042153 METAR KBLI 042153Z VRB06G15KT 10SM FEW041 BKN060 OVC080 10/07 A2988 RMK AO2 SLP125 T01000067=
202411042053 METAR KBLI 042053Z 28007KT 220V320 10SM SCT020 BKN040 BKN080 10/07 A2984 RMK AO2 RAE53 SLP113 P0005 60005 T01000072 53036=
202411042040 SPECI KBLI 042040Z 10SM -RA FEW020 BKN030 BKN045 09/07 A2984 RMK AO2 P0005 T00940072=
202411041953 METAR KBLI 041953Z 21009G16KT 170V240 9SM -RA SCT020 BKN030 BKN055 11/07 A2979 RMK AO2 PK WND 18039/1854 RAB49 PRESRR SLP094 P0000 T01060072=
202411041853 METAR KBLI 041853Z 18019G44KT 10SM SCT018 BKN024 OVC035 10/08 A2974 RMK AO2 PK WND 19049/1815 RAE03 SLP077 P0000 T01000078=
202411041753 METAR KBLI 041753Z 17021G42KT 5SM -RA BR FEW015 SCT020 BKN035 09/07 A2974 RMK AO2 PK WND 19051/1736 SLP078 P0001 60026 T00890072 10100 20083 55016=
202411041653 METAR KBLI 041653Z 17019G45KT 5SM -RA BR FEW015 SCT030 BKN040 08/07 A2972 RMK AO2 PK WND 16047/1613 SLP071 P0002 T00830067=
202411041553 METAR KBLI 041553Z 16026G45KT 3SM RA BR FEW015 SCT025 BKN040 09/07 A2977 RMK AO2 PK WND 19048/1526 SLP088 P0015 T00890067=
202411041453 METAR KBLI 041453Z 16020G34KT 8SM -RA FEW020 BKN030 BKN060 09/07 A2979 RMK AO2 PK WND 18047/1417 SLP094 P0006 60008 T00940067 57071=
202411041429 SPECI KBLI 041429Z 15029G42KT 7SM -RA BKN030 OVC050 09/07 A2981 RMK AO2 PK WND 18047/1417 P0005 T00940067=
202411041353 METAR KBLI 041353Z AUTO 16017G31KT 9SM -RA OVC029 10/06 A2987 RMK AO2 PK WND 14038/1307 SLP122 P0001 T01000061=
202411041322 SPECI KBLI 041322Z AUTO 16019G35KT 8SM -RA OVC030 09/07 A2987 RMK AO2 PK WND 14038/1307 PRESFR P0000 T00940067=
202411041253 METAR KBLI 041253Z AUTO 16018G31KT 10SM -RA FEW022 OVC028 10/07 A2992 RMK AO2 PK WND 14033/1242 SLP138 P0001 T01000067=
202411041153 METAR KBLI 041153Z AUTO 16014G22KT 10SM -RA BKN020 BKN055 OVC070 10/07 A3000 RMK AO2 PRESFR SLP165 P0001 60003 70003 T01000072 10100 20089 58049=
202411041102 SPECI KBLI 041102Z AUTO 15010KT 8SM -RA SCT023 OVC042 09/07 A3006 RMK AO2 PRESFR P0000 T00890072=
202411041053 METAR KBLI 041053Z AUTO 16010KT 8SM -RA SCT023 BKN028 OVC042 09/07 A3007 RMK AO2 SLP191 P0002 T00940072=
202411041041 SPECI KBLI 041041Z AUTO 16011G19KT 7SM -RA BKN023 BKN031 OVC044 09/07 A3009 RMK AO2 P0001 T00940072=
202411040953 METAR KBLI 040953Z AUTO 17011KT 10SM -RA FEW026 BKN049 OVC080 10/07 A3011 RMK AO2 RAB47 SLP204 P0000 T01000067=
202411040919 SPECI KBLI 040919Z AUTO 16009KT 10SM SCT020 BKN045 OVC080 10/07 A3013 RMK AO2 T01000072=
202411040853 METAR KBLI 040853Z AUTO 16006KT 10SM BKN021 OVC041 09/07 A3014 RMK AO2 SLP214 T00940067 57015=
202411040753 METAR KBLI 040753Z AUTO 16007KT 10SM SCT046 BKN060 OVC090 09/07 A3016 RMK AO2 SLP219 T00940072 401110056=
202411040653 METAR KBLI 040653Z AUTO 17009G16KT 10SM BKN041 OVC090 09/07 A3017 RMK AO2 SLP225 T00940072=
202411040553 METAR KBLI 040553Z 16006KT 10SM FEW049 BKN070 OVC095 09/07 A3019 RMK AO2 SLP230 T00940072 10100 20083 58010=
202411040453 METAR KBLI 040453Z 16003KT 10SM BKN110 09/07 A3020 RMK AO2 SLP235 T00890067=
202411040353 METAR KBLI 040353Z 18003KT 10SM FEW037 BKN075 OVC100 09/07 A3021 RMK AO2 SLP238 T00890072=
202411040253 METAR KBLI 040253Z 00000KT 10SM BKN085 OVC110 09/07 A3022 RMK AO2 SLP240 T00890072 51002=
202411040153 METAR KBLI 040153Z 00000KT 10SM BKN120 09/08 A3021 RMK AO2 SLP239 T00890078=
202411040053 METAR KBLI 040053Z 00000KT 10SM FEW120 09/08 A3022 RMK AO2 SLP241 T00890078=
202411032353 METAR KBLI 032353Z 00000KT 10SM FEW040 BKN110 10/07 A3021 RMK AO2 SLP238 T01000072 10111 20089 51005=
202411032253 METAR KBLI 032253Z 21003KT 10SM FEW030 11/06 A3021 RMK AO2 SLP238 T01060056=
202411032153 METAR KBLI 032153Z VRB03KT 10SM CLR 11/07 A3020 RMK AO2 SLP235 T01060067=
202411032053 METAR KBLI 032053Z 18003KT 10SM CLR 11/07 A3020 RMK AO2 SLP233 T01060067 51016=
202411032019 SPECI KBLI 032019Z 19004KT 10SM FEW020 SCT025 11/07 A3019 RMK AO2 T01060067=
202411031953 METAR KBLI 031953Z 17007KT 10SM SCT019 BKN026 11/07 A3018 RMK AO2 SLP229 T01060067=
202411031853 METAR KBLI 031853Z VRB05KT 10SM FEW014 SCT018 BKN024 09/07 A3017 RMK AO2 SLP226 T00940067=
202411031753 METAR KBLI 031753Z 19006KT 10SM FEW007 SCT014 BKN025 09/07 A3015 RMK AO2 SLP218 60000 T00890072 10089 20083 51026=
202411031653 METAR KBLI 031653Z 00000KT 10SM FEW007 BKN025 BKN035 08/07 A3013 RMK AO2 SLP212 T00830072=
202411031553 METAR KBLI 031553Z VRB04KT 10SM FEW005 BKN015 BKN025 08/07 A3011 RMK AO2 SLP204 T00830072=
202411031453 METAR KBLI 031453Z VRB04KT 10SM FEW012 BKN020 BKN025 08/07 A3007 RMK AO2 SLP191 60000 T00830072 51020=
202411031435 SPECI KBLI 031435Z 17005KT 10SM BKN022 BKN029 OVC034 08/07 A3006 RMK AO2 T00830067=
202411031353 METAR KBLI 031353Z AUTO 17006KT 10SM SCT014 BKN033 OVC049 08/06 A3005 RMK AO2 RAB36E46 SLP184 P0000 T00830061=
202411031343 SPECI KBLI 031343Z AUTO 18007KT 10SM -RA BKN014 OVC039 08/06 A3005 RMK AO2 RAB36 P0000 T00830061=
202411031253 METAR KBLI 031253Z AUTO VRB05KT 10SM OVC015 08/06 A3004 RMK AO2 SLP179 T00830061=
202411031220 SPECI KBLI 031220Z AUTO 19005KT 10SM BKN017 BKN027 OVC042 08/06 A3003 RMK AO2 T00830061=
202411031153 METAR KBLI 031153Z AUTO VRB04KT 10SM FEW017 SCT030 OVC044 08/06 A3001 RMK AO2 SLP171 70002 T00830061 10083 20056 51020=
202411031125 SPECI KBLI 031125Z AUTO 18004KT 10SM SCT025 OVC030 08/07 A3000 RMK AO2 T00780067=
202411031053 METAR KBLI 031053Z AUTO 00000KT 10SM OVC026 07/07 A3000 RMK AO2 SLP167 T00670067=
202411030953 METAR KBLI 030953Z AUTO 00000KT 10SM OVC026 06/06 A2998 RMK AO2 SLP160 T00610061=
202411030853 METAR KBLI 030853Z AUTO 00000KT 10SM OVC024 06/06 A2995 RMK AO2 SLP151 T00610061 51017=
202411030841 SPECI KBLI 030841Z AUTO 00000KT 10SM BKN024 OVC080 06/06 A2995 RMK AO2 T00610061=
202411030753 METAR KBLI 030753Z AUTO 00000KT 10SM FEW042 BKN070 OVC085 07/06 A2994 RMK AO2 SLP146 T00670061 400940056=
202411030653 METAR KBLI 030653Z AUTO 00000KT 10SM FEW042 BKN070 06/06 A2992 RMK AO2 SLP139 T00610061=
202411030553 METAR KBLI 030553Z AUTO 00000KT 10SM FEW030 OVC075 07/07 A2990 RMK AO2 SLP133 T00720067 10094 20067 53022=
202411030538 SPECI KBLI 030538Z AUTO 00000KT 10SM FEW029 OVC070 08/07 A2990 RMK AO2 T00780067=
202411030513 SPECI KBLI 030513Z 00000KT 10SM SCT020 BKN025 OVC070 08/07 A2988 RMK AO2 T00780072=
202411030453 METAR KBLI 030453Z 00000KT 10SM FEW022 FEW031 OVC070 07/07 A2988 RMK AO2 SLP126 T00720072=
202411030441 SPECI KBLI 030441Z 00000KT 10SM SCT022 BKN030 OVC070 08/07 A2987 RMK AO2 T00780067=
202411030410 SPECI KBLI 030410Z 00000KT 10SM BKN023 OVC070 07/07 A2986 RMK AO2 T00720067=
202411030353 METAR KBLI 030353Z 00000KT 10SM FEW023 OVC070 07/07 A2985 RMK AO2 SLP117 T00720072=
202411030253 METAR KBLI 030253Z 14003KT 10SM OVC075 08/07 A2984 RMK AO2 SLP111 T00830067 53007=
202411030153 METAR KBLI 030153Z 00000KT 10SM OVC090 08/07 A2983 RMK AO2 SLP108 T00830072=
202411030100 SPECI KBLI 030100Z 00000KT 10SM SCT036 BKN050 OVC055 09/08 A2982 RMK AO2 T00890078=
202411030053 METAR KBLI 030053Z 00000KT 10SM BKN038 BKN048 OVC055 09/07 A2982 RMK AO2 SLP106 T00940072=
202411022353 METAR KBLI 022353Z 17004KT 10SM FEW014 SCT040 OVC100 09/07 A2982 RMK AO2 SLP104 60001 T00940072 10094 20078 53007=
202411022253 METAR KBLI 022253Z 17006KT 10SM FEW015 BKN100 09/08 A2981 RMK AO2 SLP101 T00940078=
202411022153 METAR KBLI 022153Z 17008KT 10SM FEW014 SCT026 OVC065 09/08 A2979 RMK AO2 SLP097 T00940078=
202411022100 SPECI KBLI 022100Z 17007KT 10SM SCT018 BKN023 09/07 A2978 RMK AO2 T00940072=
202411022053 METAR KBLI 022053Z 17007KT 10SM FEW007 SCT020 BKN030 09/07 A2978 RMK AO2 SLP093 60001 T00940072 51002=
202411021953 METAR KBLI 021953Z 16006KT 10SM FEW007 SCT020 BKN030 08/07 A2978 RMK AO2 RAB1856E19 SLP092 P0001 T00830072=
202411021855 SPECI KBLI 021855Z VRB06KT 10SM FEW007 SCT020 BKN040 08/08 A2978 RMK AO2 P0001 T00780078=
202411021853 METAR KBLI 021853Z VRB05KT 10SM FEW007 BKN030 OVC049 08/08 A2978 RMK AO2 RAB08E52 SLP093 P0000 T00780078=
202411021753 METAR KBLI 021753Z 10SM FEW007 SCT020 BKN035 08/08 A2978 RMK AO2 RAE17 SLP092 P0001 60001 T00830078 10083 20056 51012=
202411021655 SPECI KBLI 021655Z 00000KT 10SM -RA FEW010 BKN040 BKN050 07/07 A2977 RMK AO2 P0000 T00720072=
202411021653 METAR KBLI 021653Z 15003KT 10SM -RA BKN044 OVC050 07/07 A2977 RMK AO2 SLP089 P0000 T00720072=
202411021553 METAR KBLI 021553Z 00000KT 10SM -RA SCT025 BKN045 BKN055 07/07 A2977 RMK AO2 RAB38 SLP089 P0000 T00670067=
202411021453 METAR KBLI 021453Z VRB03KT 10SM FEW010 SCT020 BKN040 06/06 A2974 RMK AO2 SLP080 T00610056 50005=
202411021353 METAR KBLI 021353Z 00000KT 10SM FEW020 SCT030 BKN040 06/06 A2974 RMK AO2 SLP080 T00610061=
202411021349 SPECI KBLI 021349Z AUTO 00000KT 10SM SCT027 OVC044 06/06 A2975 RMK AO2=
202411021338 SPECI KBLI 021338Z AUTO 00000KT 10SM BKN027 OVC044 06/06 A2975 RMK AO2 T00610056=
202411021253 METAR KBLI 021253Z AUTO 00000KT 10SM OVC046 06/06 A2973 RMK AO2 SLP075 T00560056=
202411021153 METAR KBLI 021153Z AUTO 00000KT 10SM SCT039 OVC046 06/06 A2972 RMK AO2 RAE24 SLP072 P0000 60064 70131 T00560056 10061 20056 53011=
202411021136 SPECI KBLI 021136Z AUTO 01003KT 10SM SCT023 SCT031 OVC043 06/06 A2971 RMK AO2 RAE24 P0000 T00560056=
202411021053 METAR KBLI 021053Z AUTO 35003KT 10SM -RA OVC026 06/06 A2971 RMK AO2 RAB44 SLP067 P0001 T00560056=
202411021037 SPECI KBLI 021037Z AUTO 33003KT 10SM OVC028 06/06 A2971 RMK AO2 T00560056=
202411020953 METAR KBLI 020953Z AUTO 35003KT 10SM BKN035 OVC055 06/06 A2970 RMK AO2 RAE11 SLP065 P0000 T00560056=
202411020853 METAR KBLI 020853Z AUTO VRB04KT 10SM -RA FEW039 OVC049 06/06 A2969 RMK AO2 SLP061 P0006 60063 T00610056 51013=
202411020811 SPECI KBLI 020811Z AUTO 08006KT 8SM -RA FEW005 FEW016 OVC045 06/06 A2968 RMK AO2 P0003 T00560056=
202411020753 METAR KBLI 020753Z AUTO 09006KT 5SM -RA BR OVC039 06/06 A2968 RMK AO2 SLP060 P0021 T00560056 400780056=
202411020721 SPECI KBLI 020721Z AUTO 04007KT 4SM RA BR FEW017 SCT021 OVC035 06/06 A2969 RMK AO2 P0011 T00560056=
202411020706 SPECI KBLI 020706Z AUTO 03006KT 3SM RA BR FEW004 BKN022 OVC045 06/06 A2968 RMK AO2 P0006 T00560056=
202411020653 METAR KBLI 020653Z AUTO 03006KT 2 1/2SM +RA BR SCT004 BKN016 OVC022 06/06 A2968 RMK AO2 SLP058 P0036 T00560056=
202411020648 SPECI KBLI 020648Z AUTO 03011G14KT 2 1/2SM RA BR SCT004 BKN015 OVC022 06/06 A2967 RMK AO2 P0032=
202411020624 SPECI KBLI 020624Z AUTO 01005KT 8SM -RA FEW005 BKN015 OVC028 06/06 A2966 RMK AO2 P0015 T00560056=
202411020553 METAR KBLI 020553Z AUTO 36006KT 6SM -RA BR OVC021 06/06 A2965 RMK AO2 RAB18 SLP048 P0005 60006 T00610056 10078 20061 53007=
202411020453 METAR KBLI 020453Z 02005KT 10SM OVC022 06/06 A2964 RMK AO2 RAB24E38 SLP046 P0001 T00610061=
202411020426 SPECI KBLI 020426Z 02006KT 10SM -RA BKN022 BKN029 OVC095 06/06 A2964 RMK AO2 RAB24 P0001 T00610061=
202411020400 SPECI KBLI 020400Z 01005KT 10SM SCT024 BKN060 OVC100 06/06 A2964 RMK AO2 T00610061=
202411020353 METAR KBLI 020353Z 01004KT 10SM BKN018 BKN025 OVC055 06/06 A2963 RMK AO2 RAB0254E51 SLP043 P0000 T00610061=
202411020253 METAR KBLI 020253Z 06005KT 10SM BKN018 BKN025 OVC055 07/07 A2963 RMK AO2 RAB42E51 SLP041 P0000 60000 T00670067 51011=
202411020153 METAR KBLI 020153Z 03003KT 10SM OVC018 07/07 A2962 RMK AO2 SLP039 T00720072=
202411020053 METAR KBLI 020053Z 06003KT 10SM OVC017 07/07 A2961 RMK AO2 SLP034 T00720067=
202411012353 METAR KBLI 012353Z 03004KT 10SM OVC020 08/07 A2960 RMK AO2 SLP030 60021 T00780072 10078 20067 53008=
202411012253 METAR KBLI 012253Z 36004KT 10SM BKN020 OVC055 08/07 A2958 RMK AO2 RAE45 SLP026 P0002 T00780072=
202411012153 METAR KBLI 012153Z 03005KT 9SM -RA BKN016 OVC022 07/07 A2958 RMK AO2 SLP024 P0006 T00720067=
202411012053 METAR KBLI 012053Z 01004KT 10SM -RA OVC025 07/07 A2957 RMK AO2 SLP022 P0003 60013 T00720072 56006=
202411011953 METAR KBLI 011953Z 36004KT 10SM -RA SCT015 BKN025 OVC035 07/07 A2958 RMK AO2 SLP023 P0004 T00720067=
202411011853 METAR KBLI 011853Z 05006KT 8SM -RA SCT015 BKN025 OVC035 07/07 A2958 RMK AO2 SLP023 P0006 T00720067=
202411011753 METAR KBLI 011753Z 04006KT 6SM -RA BR SCT015 BKN025 OVC035 07/07 A2959 RMK AO2 SLP028 P0009 60040 T00670067 10078 20067 58008=
202411011653 METAR KBLI 011653Z 04006KT 5SM RA BR SCT015 BKN025 OVC035 07/06 A2960 RMK AO2 SLP032 P0013 T00670061=
202411011556 SPECI KBLI 011556Z 05008KT 5SM RA BR SCT015 BKN025 OVC035 07/06 A2961 RMK AO2 P0001 T00670061=
202411011553 METAR KBLI 011553Z 05008KT 4SM RA BR BKN025 BKN030 OVC035 07/06 A2961 RMK AO2 SLP034 P0010 T00670061=
202411011453 METAR KBLI 011453Z 02004KT 9SM -RA BKN025 BKN030 OVC035 07/07 A2962 RMK AO2 SLP037 P0005 60008 T00670067 58011=
202411011353 METAR KBLI 011353Z VRB06KT 8SM -RA BKN025 OVC045 07/06 A2963 RMK AO2 SLP041 P0003 T00670061=
202411011253 METAR KBLI 011253Z AUTO 03004KT 10SM -RA OVC025 07/06 A2964 RMK AO2 RAB48 SLP045 P0000 T00720056=
202411011153 METAR KBLI 011153Z AUTO VRB04KT 10SM OVC027 07/06 A2965 RMK AO2 RAE25 SLP048 P0001 60009 70013 T00670061 10078 20067 58019=
202411011119 SPECI KBLI 011119Z AUTO VRB03KT 10SM -RA OVC028 07/06 A2967 RMK AO2 P0001 T00670056=
202411011053 METAR KBLI 011053Z AUTO 03004KT 10SM -RA OVC030 07/06 A2967 RMK AO2 SLP054 P0002 T00670061=
202411010953 METAR KBLI 010953Z AUTO 04004KT 10SM -RA OVC032 07/06 A2969 RMK AO2 SLP060 P0003 T00720061=
202411010853 METAR KBLI 010853Z AUTO 04006KT 10SM -RA OVC034 07/06 A2970 RMK AO2 SLP067 P0002 60003 T00720061 56017=
202411010753 METAR KBLI 010753Z AUTO 06006KT 10SM -RA OVC037 07/06 A2972 RMK AO2 RAB33 SLP072 P0001 T00720061 401220050=
202411010653 METAR KBLI 010653Z AUTO 05003KT 10SM OVC040 07/07 A2974 RMK AO2 RAE0554 SLP078 P0000 T00720067=
202411010553 METAR KBLI 010553Z AUTO 04003KT 10SM -RA OVC039 07/07 A2976 RMK AO2 SLP084 P0000 60004 T00720072 10100 20072 58010=
202411010453 METAR KBLI 010453Z 11004KT 10SM -RA OVC045 08/07 A2977 RMK AO2 SLP087 P0004 T00780067=
202411010353 METAR KBLI 010353Z 16007KT 10SM -RA OVC042 09/06 A2978 RMK AO2 RAE10B47 SLP091 P0000 T00890056=
202411010253 METAR KBLI 010253Z 14004KT 10SM -RA OVC044 08/06 A2979 RMK AO2 RAB52 SLP094 P0000 60000 T00830061 56007=
202411010153 METAR KBLI 010153Z 00000KT 10SM BKN050 OVC085 09/06 A2979 RMK AO2 SLP096 T00940056=
202411010053 METAR KBLI 010053Z 13006KT 10SM OVC060 10/04 A2980 RMK AO2 SLP100 T01000044=

# No short TAF reports from KBLI in databse.

###################################
#  large TAF from KBLI
###################################
202411302320 TAF KBLI 302320Z 0100/0124 18007KT P6SM VCSH BKN050 OVC070 FM010400
                       03002KT P6SM OVC035 FM011500 36002KT P6SM
                       OVC027=
202411302053 KBLI 302053Z 3021/0118 18007KT P6SM VCSH BKN035 BKN100 FM010400
                       16004KT P6SM OVC035 FM011100 VRB02KT P6SM
                       OVC027=
202411301720 TAF KBLI 301720Z 3018/0118 15005KT P6SM SCT035 BKN050 OVC060 FM302000
                       18005KT P6SM VCSH BKN027 BKN100 FM010400
                       16004KT P6SM OVC035 FM011100 VRB02KT P6SM
                       OVC027=
202411301126 TAF KBLI 301126Z 3012/0112 17008KT P6SM BKN035 BKN060 FM302000
                       18005KT P6SM BKN040 BKN100 FM010400 16004KT
                       P6SM OVC035=
202411300901 KBLI 300901Z 3009/0106 17006KT P6SM SCT030 BKN050 FM301300 17004KT
                       P6SM BKN035 BKN060 FM302300 VRB03KT P6SM
                       BKN040 FM010300 00000KT P6SM OVC035=
202411300520 TAF KBLI 300520Z 3006/0106 17006KT P6SM SCT030 BKN060 FM300900
                       17004KT P6SM OVC025 FM302300 VRB03KT P6SM
                       BKN030 FM010300 00000KT P6SM OVC025=
202411300305 KBLI 300305Z 3003/3024 16008KT P6SM OVC030 FM300900 17004KT P6SM
                       VCSH OVC020 FM302300 15002KT P6SM BKN025=
202411292320 TAF KBLI 292320Z 3000/3024 16008KT P6SM VCSH OVC025 FM300900 17004KT
                       P6SM VCSH OVC020 FM302300 15002KT P6SM BKN025=
202411291957 KBLI 291957Z 2920/3018 17005KT P6SM VCSH OVC035 FM300100 16003KT
                       P6SM VCSH OVC022 FM300900 17004KT P6SM VCSH
                       OVC020=
202411291720 TAF KBLI 291720Z 2918/3018 16007KT P6SM BKN013 OVC027 FM292200
                       17005KT P6SM VCSH OVC035 FM300100 16003KT
                       P6SM VCSH OVC022 FM300900 17004KT P6SM VCSH
                       OVC020=
202411291120 TAF KBLI 291120Z 2912/3012 16003KT 5SM BR SKC FM291700 16007KT
                       P6SM VCSH OVC025 FM292200 17005KT P6SM VCSH
                       OVC035 FM300100 16003KT P6SM OVC025 FM300600
                       17003KT 6SM BR OVC020=
202411290520 TAF KBLI 290520Z 2906/3006 VRB03KT P6SM BKN035 OVC200
                      TEMPO 2906/2910 1SM BR OVC020 FM291000 16003KT
                       P6SM OVC020 FM291700 16007KT P6SM VCSH OVC025
                       FM292200 17005KT P6SM VCSH OVC035 FM300100
                       16003KT P6SM OVC025=
202411282320 TAF KBLI 282320Z 2900/2924 VRB03KT P6SM BKN035 OVC200 FM290600
                       00000KT 1SM BR OVC020 FM291000 16003KT P6SM
                       OVC022 FM291700 16007KT P6SM VCSH OVC022
                       FM292200 17005KT P6SM VCSH OVC035=
202411281931 KBLI 281931Z 2820/2918 04003KT P6SM SCT030 FM290000 VRB03KT P6SM
                       BKN035 OVC200 FM290700 00000KT 4SM BR OVC020
                       FM291500 16003KT P6SM OVC022=
202411281905 KBLI 281905Z 2819/2918 17004KT P6SM BKN030 FM290000 VRB03KT P6SM
                       BKN035 OVC200 FM290700 00000KT 4SM BR OVC020
                       FM291500 16003KT P6SM OVC022=
202411281721 TAF KBLI 281721Z 2818/2918 17004KT P6SM SCT002 BKN030
                      TEMPO 2818/2820 1/4SM FG VV001 FM290000 VRB03KT
                       P6SM BKN035 OVC200 FM290700 00000KT 4SM
                       BR OVC020 FM291500 16003KT P6SM OVC022=
202411281609 KBLI 281609Z 2816/2912 00000KT 3/4SM BR SCT001 OVC035 FM281900
                       17004KT 2SM BR OVC025 FM290000 VRB03KT P6SM
                       BKN035 OVC045 FM290700 00000KT 4SM BR OVC020=
202411281541 KBLI 281541Z 2816/2912 00000KT 1/2SM FG BKN001 OVC017 FM281900
                       17004KT 2SM BR OVC025 FM290000 VRB03KT P6SM
                       BKN035 OVC045 FM290700 00000KT 4SM BR OVC020=
202411281353 KBLI 281353Z 2814/2912 00000KT 3SM BR FEW002 BKN017 OVC035 FM281900
                       17004KT 2SM BR OVC025 FM290000 VRB03KT P6SM
                       BKN035 OVC045 FM290700 00000KT 4SM BR OVC020=
202411281120 TAF KBLI 281120Z 2812/2912 00000KT 1/4SM FG SCT018 OVC035 FM281400
                       00000KT 1/4SM FG OVC020 FM281900 17004KT
                       2SM BR OVC025 FM290000 VRB03KT P6SM BKN035
                       OVC045 FM290700 00000KT 4SM BR OVC020=
202411280539 TAF KBLI 280539Z 2806/2906 00000KT 4SM BR OVC045 FM281200 00000KT
                       3SM BR OVC025 FM281900 17004KT P6SM OVC025
                       FM290000 VRB03KT P6SM BKN035 OVC045=
202411272323 TAF KBLI 272323Z 2800/2824 00000KT P6SM SCT025 BKN035 FM280600
                       00000KT P6SM OVC025 FM281200 00000KT 6SM
                       BR OVC025 FM281900 17004KT P6SM OVC025=
202411271733 TAF KBLI 271733Z 2718/2818 00000KT 6SM BR SCT011 BKN025 OVC035
                       FM272100 23005KT P6SM OVC025 FM280000 00000KT
                       P6SM SCT025 BKN035 FM280600 00000KT P6SM
                       OVC025=
202411271120 TAF KBLI 271120Z 2712/2812 00000KT P6SM BKN035 BKN040 OVC060 FM271500
                       17003KT P6SM BKN015 FM272100 23005KT P6SM
                       OVC025 FM280000 00000KT P6SM OVC025=
202411270520 TAF KBLI 270520Z 2706/2806 06003KT P6SM VCSH OVC035 FM270900 VRB02KT
                       P6SM SCT025 BKN030 FM271200 VRB02KT P6SM
                       BKN025 FM271500 17003KT P6SM BKN015 FM272100
                       23005KT P6SM OVC025=
202411262330 TAF KBLI 262330Z 2700/2724 34004KT P6SM SCT025 BKN030 FM271200
                       VRB02KT P6SM BKN025 FM271500 17003KT P6SM
                       BKN015 FM272100 23005KT P6SM OVC025=
202411261725 TAF KBLI 261725Z 2618/2718 36003KT P6SM SCT020 BKN060 FM270000
                       VRB02KT P6SM SCT025 BKN040 FM270900 VRB02KT
                       P6SM BKN025 FM271500 17003KT P6SM BKN015=
202411261120 TAF KBLI 261120Z 2612/2712 02004KT P6SM OVC035 FM261400 00000KT
                       P6SM OVC020 FM262000 35004KT P6SM OVC040
                       FM270000 00000KT P6SM OVC025=
202411260531 TAF KBLI 260531Z 2606/2706 01008KT P6SM OVC025 FM262000 35004KT
                       P6SM OVC040=
202411252330 TAF KBLI 252330Z 2600/2624 00000KT P6SM SCT015 BKN025 OVC040 FM260400
                       00000KT P6SM SCT025 BKN040 FM261400 00000KT
                       P6SM OVC010 FM261900 00000KT P6SM SCT012
                       BKN022 OVC040=
202411251741 TAF KBLI 251741Z 2518/2618 03004KT P6SM -RA SCT015 BKN025 OVC040
                       FM252000 03004KT 4SM -RA SCT006 BKN012 OVC020
                       FM252200 00000KT P6SM SCT015 BKN025 OVC040
                       FM260100 00000KT P6SM SCT025 BKN040 FM261200
                       00000KT 3SM BR OVC006=
202411251138 TAF KBLI 251138Z 2512/2612 04006KT P6SM OVC045 FM251400 05008KT
                       P6SM -RA OVC025 FM251800 03005KT P6SM -SHRA
                       OVC020 FM260600 02003KT P6SM OVC015=
202411250531 TAF KBLI 250531Z 2506/2606 04006KT P6SM OVC045 FM251000 05008KT
                       P6SM -RA OVC025 FM251800 03005KT P6SM -SHRA
                       OVC020=
202411242331 TAF KBLI 242331Z 2500/2524 03004KT P6SM OVC045 FM251800 03004KT
                       P6SM OVC025=
202411241732 TAF KBLI 241732Z 2418/2518 00000KT P6SM -RA SCT030 OVC050 FM242100
                       03004KT P6SM OVC035 FM251200 03004KT P6SM
                       -RA OVC025=
202411241130 TAF KBLI 241130Z 2412/2512 06005KT P6SM FEW100 SCT120 FM241400
                       11007KT P6SM VCSH OVC050 FM241600 06007KT
                       P6SM -RA OVC050 FM242100 03009KT P6SM -RA
                       OVC025=
202411240520 TAF KBLI 240520Z 2406/2506 16009KT P6SM BKN050 FM241000 VRB03KT
                       P6SM BKN050 FM241300 11007KT P6SM -SHRA
                       BKN025 OVC035 FM242200 06007KT P6SM -SHRA
                       BKN025 OVC035=
202411232335 TAF KBLI 232335Z 2400/2424 17012G18KT P6SM SCT025 BKN045
                      TEMPO 2400/2401 -SHRA BKN025 BKN035 FM240400
                       17008KT P6SM BKN050 FM241000 VRB03KT P6SM
                       BKN050 FM241600 VRB03KT P6SM -SHRA BKN022
                       OVC035=
202411231748 TAF KBLI 231748Z 2318/2418 17010KT P6SM SCT025 BKN045
                      TEMPO 2321/2401 -SHRA BKN025 BKN035 FM240400
                       17008KT P6SM BKN050 FM241000 VRB03KT P6SM
                       BKN050 FM241600 VRB03KT P6SM -SHRA BKN022
                       OVC035=
202411231123 TAF KBLI 231123Z 2312/2412 16009G18KT P6SM OVC040 FM231300 15011KT
                       P6SM OVC035 FM231800 14010KT P6SM VCSH OVC040
                       FM232300 15010KT P6SM -SHRA OVC040=
202411230532 TAF KBLI 230532Z 2306/2406 16018G30KT P6SM VCSH BKN050 FM230900
                       14013G20KT P6SM VCSH BKN040 FM231300 15011KT
                       P6SM OVC035 FM231800 14010KT P6SM VCSH OVC035
                       FM232300 15010KT P6SM -SHRA OVC027=
202411222323 TAF KBLI 222323Z 2300/2324 04015G25KT P6SM -RA OVC060 FM230100
                       15018G28KT P6SM -SHRA BKN045 FM230900 14012KT
                       P6SM BKN040 FM231200 15008KT P6SM OVC030
                       FM231800 14013G22KT P6SM VCSH OVC025=
202411221721 TAF KBLI 221721Z 2218/2318 04015G25KT P6SM -RA SCT035 OVC050 FM230100
                       15016G26KT P6SM -SHRA BKN035 FM230900 14012KT
                       P6SM BKN040=
202411221120 TAF KBLI 221120Z 2212/2312 05014G23KT P6SM FEW120 FM221600 04015G25KT
                       P6SM -RA OVC030 FM230100 15016G26KT P6SM
                       -SHRA BKN035 FM230900 14008KT P6SM BKN040=
202411220801 KBLI 220801Z 2208/2306 03009G18KT P6SM SCT060 FM220900 03010G21KT
                       P6SM OVC080 FM221600 04015G25KT P6SM -RA
                       OVC030 FM230100 15016G26KT P6SM -SHRA BKN035=
202411220540 TAF KBLI 220540Z 2206/2306 04006KT P6SM OVC050 FM220900 03010G21KT
                       P6SM OVC080 FM221600 04015G25KT P6SM -RA
                       OVC030 FM230100 15016G26KT P6SM -SHRA BKN035=
202411212338 TAF KBLI 212338Z 2200/2224 04006KT P6SM -SHRA OVC050 FM220900 03010G21KT
                       P6SM OVC250 FM221700 04012G20KT P6SM -RA
                       OVC050=
202411211738 TAF KBLI 211738Z 2118/2218 03007KT P6SM BKN060 OVC120 FM212100
                       04010KT P6SM -SHRA OVC050 FM220900 03010G21KT
                       P6SM OVC250 FM221700 04012G20KT P6SM -RA
                       OVC050=
202411211120 TAF KBLI 211120Z 2112/2212 36003KT P6SM -SHRA BKN045 BKN050 OVC070
                       FM211400 03007KT P6SM BKN060 OVC120 FM212100
                       04010KT P6SM -SHRA OVC050 FM220600 03012KT
                       P6SM OVC050=
202411210535 TAF KBLI 210535Z 2106/2206 04008KT P6SM VCSH BKN050 FM211100 07009KT
                       P6SM BKN050 FM211900 03007KT P6SM BKN060
                       OVC120 FM220400 04010KT P6SM VCSH OVC050=
202411202323 TAF KBLI 202323Z 2100/2124 13009KT P6SM FEW030 BKN070 BKN110 FM210400
                       10014KT P6SM VCSH BKN045 FM210900 12008KT
                       P6SM OVC050=
202411201120 TAF KBLI 201120Z 2012/2112 10012KT P6SM -RA BKN035 OVC050 FM202100
                       10013KT P6SM -SHRA OVC035 FM210400 10014KT
                       P6SM VCSH BKN045 FM210900 12008KT P6SM OVC050=
202411200535 TAF KBLI 200535Z 2006/2106 12013G22KT P6SM -RA OVC040 FM200900
                       10018G28KT P6SM -RA OVC035 FM201200 10017G27KT
                       P6SM -RA OVC025 FM202100 10018G25KT P6SM
                       -SHRA OVC035 FM210400 10014KT P6SM VCSH
                       BKN045=
202411192335 TAF KBLI 192335Z 2000/2024 09010G18KT P6SM BKN100 FM200100 06020G32KT
                       P6SM BKN100 FM200600 08024G29KT P6SM -RA
                       OVC050 FM201200 10017G27KT P6SM -RA OVC025
                       FM202100 10018KT P6SM OVC050=
202411191741 TAF KBLI 191741Z 1918/2018 09010G18KT P6SM BKN100 FM200100 06020G32KT
                       P6SM BKN100 FM200600 08024G29KT P6SM -RA
                       OVC050 FM201200 10017G27KT P6SM -RA OVC025=
202411191127 TAF KBLI 191127Z 1912/2012 13010KT P6SM OVC019 FM191500 10010KT
                       P6SM OVC050 FM191800 09010G18KT P6SM BKN100
                       FM200100 06020G32KT P6SM BKN100 FM200600
                       08024G29KT P6SM -RA OVC050=
202411190520 TAF KBLI 190520Z 1906/2006 15005KT 3SM RA BKN023 BKN030 OVC090
                       FM190700 13010KT P6SM OVC030 FM191500 10010G19KT
                       P6SM OVC050 FM191800 09011G25KT P6SM BKN100
                       FM200000 06020G32KT P6SM BKN100=
202411182320 TAF KBLI 182320Z 1900/1924 21006KT P6SM FEW020 SCT040 FM190200
                       15005KT P6SM OVC040 FM190700 13009G18KT
                       P6SM OVC030 FM191500 10010G19KT P6SM OVC050
                       FM191800 09011G25KT P6SM BKN100=
202411181815 TAF KBLI 181815Z 1818/1918 18006KT P6SM OVC050 FM190200 15005KT
                       P6SM OVC040 FM190700 13009G18KT P6SM OVC030
                       FM191500 10010G19KT P6SM OVC050=
202411181731 TAF KBLI 181731Z 1818/1918 18006KT P6SM OVC050 FM190200 15005KT
                       P6SM OVC040 FM190700 13009G18KT P6SM OVC030
                       FM191500 10010G19KT P6SM OVC050=
202411181419 KBLI 181419Z 1814/1912 18006KT P6SM BKN040 OVC050 FM181800 19006KT
                       P6SM OVC050 FM190200 14006KT P6SM OVC040
                       FM190600 14010G20KT P6SM OVC050=
202411181120 TAF KBLI 181120Z 1812/1912 24008G18KT P6SM -SHRA BKN015 OVC020
                       FM181800 19006KT P6SM OVC050 FM190200 14006KT
                       P6SM OVC040 FM190600 14010G20KT P6SM OVC050=
202411180526 TAF KBLI 180526Z 1806/1906 17005KT P6SM VCSH OVC050 FM181200 24008KT
                       P6SM -SHRA OVC040 FM181800 19006KT P6SM
                       OVC050 FM190200 14006KT P6SM OVC040=
202411172320 TAF KBLI 172320Z 1800/1824 19005KT P6SM FEW010 BKN025 OVC080 FM180600
                       19004KT P6SM -SHRA OVC030 FM181200 24008KT
                       P6SM -SHRA OVC040 FM181800 19006KT P6SM
                       OVC050=
202411171720 TAF KBLI 171720Z 1718/1818 19008KT P6SM FEW040 SCT050 BKN070 FM172300
                       19005KT P6SM -SHRA OVC035 FM180900 18005KT
                       P6SM -SHRA OVC045=
202411171140 TAF KBLI 171140Z 1712/1812 18013G25KT P6SM -SHRA FEW010 OVC020
                       FM171700 19008KT P6SM -SHRA OVC025 FM172300
                       19005KT P6SM -SHRA OVC035 FM180900 18005KT
                       P6SM -SHRA OVC045=
202411170520 TAF KBLI 170520Z 1706/1806 16015G27KT P6SM -RA OVC020 FM171000
                       16013KT P6SM -RA OVC020 FM171700 18004KT
                       P6SM -RA OVC025 FM172100 19005KT P6SM -SHRA
                       OVC035=
202411170000 KBLI 170000Z 1700/1724 15013G22KT P6SM -RA OVC025 FM171000 16013G23KT
                       6SM -RA BR OVC020 FM171700 18004KT P6SM
                       -RA OVC030=
202411162348 TAF KBLI 162348Z 1700/1724 15013G22KT P6SM -RA OVC025 FM171000
                       16013G23KT 6SM -RA BR OVC020 FM171700 18004KT
                       P6SM -RA OVC030=
202411161746 TAF KBLI 161746Z 1618/1718 VRB03KT P6SM VCSH SCT020 OVC040 FM161900
                       15011G21KT P6SM -SHRA OVC040 FM162100 15015G24KT
                       6SM -RA BR OVC025 FM170000 15013G22KT 5SM
                       -RA BR OVC020 FM171000 16013G23KT 6SM -RA
                       BR OVC020 FM171700 18004KT P6SM -RA OVC050=
202411161127 TAF KBLI 161127Z 1612/1712 VRB03KT P6SM SCT020 OVC040 FM161700
                       15010KT P6SM -RA OVC040 FM162100 15015G24KT
                       6SM -RA BR OVC020 FM170200 16017G26KT 4SM
                       -RA BR OVC015 FM171000 16013G23KT 6SM -RA
                       BR OVC020=
202411160521 TAF KBLI 160521Z 1606/1706 VRB03KT P6SM SCT020 OVC040 FM161700
                       15010KT P6SM -RA OVC030 FM162100 15015G24KT
                       6SM -RA BR OVC020 FM170200 16017G26KT 4SM
                       -RA BR OVC015=
202411152331 TAF KBLI 152331Z 1600/1624 29005KT P6SM SCT025 SCT050 FM160100
                       VRB03KT P6SM SCT050 BKN200 FM160500 VRB03KT
                       P6SM OVC040 FM161700 15011G21KT P6SM OVC040
                       FM162100 15015G24KT 6SM -RA BR OVC015=
202411152234 KBLI 152234Z 1523/1618 29005KT P6SM SCT025 SCT050 FM160100 VRB03KT
                       P6SM SCT050 BKN200 FM160500 VRB03KT P6SM
                       OVC040=
202411151744 TAF KBLI 151744Z 1518/1618 29005KT P6SM BKN025 FM152300 31003KT
                       P6SM SCT030 BKN050 FM160100 VRB03KT P6SM
                       SCT050 BKN200 FM160500 VRB03KT P6SM OVC040=
202411151120 TAF KBLI 151120Z 1512/1612 VRB03KT P6SM BKN025 FM151800 29005KT
                       P6SM SCT030 BKN050 FM160100 VRB03KT P6SM
                       SCT050 BKN200 FM160500 VRB03KT P6SM OVC040=
202411150522 TAF KBLI 150522Z 1506/1606 VRB03KT P6SM SCT025 OVC060 FM151300
                       22003KT P6SM OVC025 FM151800 29005KT P6SM
                       BKN050 FM160100 VRB03KT P6SM SCT050 BKN250
                       FM160400 00000KT P6SM OVC040=
202411142348 TAF KBLI 142348Z 1500/1524 20010KT P6SM -SHRA BKN035 FM150300 17005KT
                       P6SM BKN035 OVC060 FM151300 22001KT P6SM
                       OVC025 FM151800 32003KT P6SM BKN050=
202411141740 TAF KBLI 141740Z 1418/1518 VRB03KT P6SM VCSH BKN015 OVC040 FM142100
                       20010KT P6SM -SHRA BKN035 FM150300 17005KT
                       P6SM BKN035 OVC060 FM151300 22001KT P6SM
                       OVC025=
202411141120 TAF KBLI 141120Z 1412/1512 18010G15KT P6SM -SHRA BKN022 OVC040
                       FM142100 20010KT P6SM -SHRA BKN027 OVC040
                       FM150300 17005KT P6SM BKN035 OVC060=
202411140520 TAF KBLI 140520Z 1406/1506 17010G20KT P6SM -RA OVC025 FM141200
                       20010G15KT P6SM -SHRA BKN015 OVC022 FM142300
                       20010KT P6SM -SHRA OVC022 FM150200 17005KT
                       P6SM OVC050=
202411132322 TAF KBLI 132322Z 1400/1424 18018G33KT P6SM -SHRA BKN030 OVC050
                       FM140500 15012G27KT P6SM -SHRA BKN022 OVC035
                       FM141200 20010G15KT P6SM -SHRA BKN015 OVC022
                       FM142300 20010KT P6SM -SHRA OVC022=
202411131722 TAF KBLI 131722Z 1318/1418 16016G26KT P6SM VCSH SCT025 OVC050 FM132100
                       18018G33KT P6SM -SHRA SCT022 BKN035 OVC050
                       FM140500 15012G27KT P6SM -SHRA BKN022 OVC035
                       FM141600 20010KT P6SM -SHRA OVC022=
202411131529 KBLI 131529Z 1315/1412 16016G26KT P6SM -SHRA SCT027 OVC035 FM132100
                       18014KT P6SM -SHRA SCT022 BKN035 OVC050
                       FM140500 15009KT P6SM -SHRA BKN022 OVC035=
202411131124 TAF KBLI 131124Z 1312/1412 16017G27KT P6SM -RA OVC035 FM131400
                       16016G26KT P6SM -SHRA BKN022 OVC035 FM132100
                       18014KT P6SM -SHRA SCT022 BKN035 OVC050
                       FM140500 15009KT P6SM -SHRA BKN022 OVC035=
202411130530 TAF KBLI 130530Z 1306/1406 16025G40KT P6SM -RA OVC035 FM131400
                       18020G30KT P6SM -SHRA BKN022 OVC035 FM132100
                       18014KT P6SM -SHRA SCT022 BKN035 OVC050
                       FM140500 15008KT P6SM -SHRA BKN022 OVC035=
202411122320 TAF KBLI 122320Z 1300/1324 16012G20KT P6SM FEW020 SCT100 FM130400
                       14020G40KT P6SM -RA OVC027 WS020/18045KT
                       FM130800 16020G40KT 6SM RA BR OVC025 WS020/18045KT
                       FM131500 20020G30KT P6SM -RA FEW018 OVC022
                       FM132300 20015G30KT P6SM -RA OVC027=
202411121722 TAF KBLI 121722Z 1218/1318 18012G20KT P6SM SCT025 BKN060 BKN090
                       FM122200 16012G20KT P6SM OVC050 FM130400
                       14020G40KT P6SM -RA OVC035 WS020/18045KT
                       FM130800 16020G40KT 6SM RA BR OVC025 WS020/18045KT
                       FM131500 20020G30KT P6SM -RA FEW018 OVC022=
202411121126 TAF KBLI 121126Z 1212/1312 18012G20KT P6SM SCT022 BKN040
                      TEMPO 1212/1215 5SM -SHRA BKN017 OVC030 FM122200
                       16012G20KT P6SM OVC050 FM130400 14020G30KT
                       P6SM -RA OVC035=
202411120540 TAF KBLI 120540Z 1206/1306 16012G20KT P6SM -SHRA BKN025 OVC040
                       FM121100 16010KT P6SM SCT035 BKN050 FM122200
                       16012G20KT P6SM OVC050 FM130100 14020G30KT
                       P6SM -RA OVC035=
202411112326 TAF KBLI 112326Z 1200/1224 16010KT P6SM -SHRA FEW015 BKN060 BKN070
                       FM120900 17010G21KT P6SM -SHRA OVC025 FM121500
                       18012KT P6SM OVC040=
202411111734 TAF KBLI 111734Z 1118/1218 19010G20KT P6SM -SHRA FEW015 SCT030
                       BKN060 FM112000 16010KT P6SM -SHRA SCT035
                       OVC050 FM120000 16012G20KT P6SM -RA OVC030
                       FM120900 17010G21KT P6SM -RA OVC025 FM121500
                       18012KT P6SM OVC025=
202411111334 KBLI 111334Z 1114/1212 15013G21KT P6SM -RA SCT025 OVC040 FM111600
                       18012G18KT P6SM -SHRA SCT025 OVC040 FM112000
                       16010KT P6SM -SHRA SCT035 OVC050 FM120500
                       16012G20KT P6SM -RA OVC030=
202411111122 TAF KBLI 111122Z 1112/1212 VRB05KT P6SM -RA SCT025 OVC040
                      TEMPO 1112/1115 4SM -RA BR BKN025 OVC040
                       FM111500 18012KT P6SM -SHRA SCT025 OVC040
                       FM112000 16010KT P6SM -SHRA SCT035 OVC050
                       FM120500 16012G20KT P6SM -RA OVC030=
202411110538 TAF KBLI 110538Z 1106/1206 03004KT P6SM -RA OVC050 FM111100 14015G25KT
                       P6SM -RA SCT025 OVC040
                      TEMPO 1111/1115 4SM -RA BKN025 OVC040 FM111500
                       18012KT P6SM -SHRA SCT025 OVC040 FM112000
                       16010KT P6SM -SHRA SCT035 OVC050 FM120500
                       16014G24KT P6SM -RA OVC045=
202411102326 TAF KBLI 102326Z 1100/1124 VRB02KT P6SM SCT015 BKN060 FM110400
                       12005KT P6SM -RA OVC045 FM110900 14013G22KT
                       P6SM -RA OVC040 FM111700 16008KT P6SM -SHRA
                       OVC050 FM112000 16012G20KT P6SM -SHRA OVC050=
202411101748 TAF KBLI 101748Z 1018/1118 VRB02KT P6SM SCT015 BKN040 FM110300
                       12005KT P6SM -RA OVC045 FM110900 14013G22KT
                       P6SM -RA OVC040 FM111700 16008KT P6SM -RA
                       OVC050=
202411101139 TAF KBLI 101139Z 1012/1112 00000KT 4SM BR OVC012 FM101700 14006KT
                       P6SM SCT015 BKN025 OVC040 FM101900 14006KT
                       P6SM SCT035 OVC050 FM110000 12012G20KT P6SM
                       -RA OVC045=
202411100539 TAF KBLI 100539Z 1006/1106 19006KT P6SM BKN015 OVC030 FM100800
                       17006KT 2SM BR BKN004 OVC008 FM101400 17006KT
                       P6SM SCT008 OVC014 FM101700 14006KT P6SM
                       SCT015 BKN025 OVC040 FM101900 14006KT P6SM
                       SCT035 OVC050 FM110000 12012G20KT P6SM -RA
                       OVC045=
202411092345 TAF KBLI 092345Z 1000/1024 18004KT P6SM VCSH OVC015 FM100100 20005KT
                       P6SM OVC020 FM100700 00000KT 4SM BR OVC015
                       FM102300 13008KT P6SM OVC050=
202411091736 TAF KBLI 091736Z 0918/1018 18004KT 4SM -RA BR OVC035 FM100100 20005KT
                       P6SM OVC020 FM100700 00000KT 4SM BR OVC015
                       FM101300 17001KT 6SM BR OVC007=
202411091301 KBLI 091301Z 0913/1012 18004KT 4SM -RA BR OVC035 FM091700 18004KT
                       4SM -RA BR OVC015 FM100100 20005KT 4SM BR
                       OVC020 FM100700 00000KT 4SM BR OVC007=
202411091132 TAF KBLI 091132Z 0912/1012 VRB03KT 6SM -RA OVC040 FM091300 18004KT
                       5SM -RA BR OVC030 FM091700 18004KT 4SM -RA
                       BR OVC015 FM100100 20005KT 4SM BR OVC020
                       FM100700 00000KT 4SM BR OVC007=
202411090540 TAF KBLI 090540Z 0906/1006 17002KT P6SM VCSH OVC080 FM090800 VRB03KT
                       6SM -RA OVC050 FM091300 18004KT 5SM -RA
                       BR OVC030 FM091700 18004KT 4SM -RA BR OVC015
                       FM100100 20005KT 4SM BR OVC020=
202411082323 TAF KBLI 082323Z 0900/0924 18006KT P6SM OVC080 FM090300 09004KT
                       P6SM VCSH OVC050 FM090600 17002KT P6SM -RA
                       OVC050 FM091300 18004KT 5SM -RA BR OVC025
                       FM091700 18004KT 4SM -RA BR OVC015=
202411081720 TAF KBLI 081720Z 0818/0918 VRB03KT P6SM SCT120 BKN200 FM082000
                       18006KT P6SM OVC060 FM090300 09004KT P6SM
                       VCSH OVC050 FM090600 17002KT P6SM -RA OVC050
                       FM091300 18004KT 5SM -RA BR OVC025=
202411081124 TAF KBLI 081124Z 0812/0912 15003KT P6SM BKN120 BKN200 FM082000
                       18006KT P6SM VCSH OVC060 FM090300 09004KT
                       P6SM VCSH OVC050 FM090600 17002KT P6SM -RA
                       OVC050=
202411080539 TAF KBLI 080539Z 0806/0906 15003KT P6SM BKN120 BKN200 FM082000
                       18006KT P6SM VCSH OVC060 FM090300 09004KT
                       P6SM VCSH OVC050=
202411072320 TAF KBLI 072320Z 0800/0824 35003KT P6SM SCT200 FM080500 15003KT
                       P6SM BKN120 BKN200 FM082000 18006KT P6SM
                       VCSH OVC060=
202411071720 TAF KBLI 071720Z 0718/0818 VRB03KT P6SM SCT050 FM071900 35003KT
                       P6SM SCT200 FM080500 15003KT P6SM BKN120
                       BKN200=
202411071122 TAF KBLI 071122Z 0712/0812 VRB03KT P6SM BKN050 FM071900 VRB03KT
                       P6SM SCT050 BKN200 FM080500 VRB03KT P6SM
                       BKN120 BKN200=
202411070521 TAF KBLI 070521Z 0706/0806 VRB03KT P6SM OVC050 FM071200 VRB03KT
                       P6SM SCT006 OVC035 FM071900 16003KT P6SM
                       SCT250 FM080500 14002KT P6SM SCT070=
202411062320 TAF KBLI 062320Z 0700/0724 02004KT P6SM OVC070 FM070300 VRB03KT
                       P6SM OVC050 FM071200 VRB03KT P6SM OVC030
                       FM071900 16003KT P6SM SCT030 BKN070=
202411061720 TAF KBLI 061720Z 0618/0718 00000KT P6SM BKN060 FM070000 02004KT
                       P6SM SCT060 BKN100 FM070400 VRB03KT P6SM
                       OVC050 FM071200 VRB03KT P6SM OVC030=
202411061120 TAF KBLI 061120Z 0612/0712 00000KT P6SM BKN100
                      TEMPO 0612/0615 4SM BR SCT001 FM070000 02004KT
                       P6SM BKN060 BKN100=
202411060532 TAF KBLI 060532Z 0606/0706 00000KT P6SM BKN100
                      TEMPO 0609/0613 4SM BR SCT001 FM070000 02004KT
                       P6SM BKN200=
202411052320 TAF KBLI 052320Z 0600/0624 VRB03KT P6SM SCT025 SCT040 FM060400
                       VRB03KT P6SM BKN050 FM061200 05003KT P6SM
                       SCT025 BKN050 FM062000 01004KT P6SM BKN050=
202411051720 TAF KBLI 051720Z 0518/0618 VRB03KT P6SM SCT025 BKN035 FM052100
                       25004KT P6SM BKN040 FM060400 VRB03KT P6SM
                       BKN050 FM061200 05003KT P6SM SCT025 BKN050=
202411051129 TAF KBLI 051129Z 0512/0612 30005KT P6SM BKN030 BKN200 FM051500
                       02004KT P6SM BKN040 BKN200 FM052100 35004KT
                       P6SM BKN050 BKN100 FM060400 VRB03KT P6SM
                       BKN050=
202411050713 KBLI 050713Z 0507/0606 32006KT P6SM SCT040 BKN200 FM051400 02004KT
                       P6SM SCT040 FM052100 VRB03KT P6SM SCT060=
202411050520 TAF KBLI 050520Z 0506/0606 27008G20KT P6SM SCT040 FM051400 02004KT
                       P6SM SCT040 FM052100 VRB03KT P6SM SCT060=
202411042338 TAF KBLI 042338Z 0500/0524 29006KT P6SM SCT025 BKN040 FM050500
                       22008KT P6SM SCT040 FM051400 02004KT P6SM
                       SCT040=
202411041736 TAF KBLI 041736Z 0418/0518 15025G45KT 5SM -RA SCT020 OVC040
                      TEMPO 0418/0420 4SM -RA BKN020 OVC040 FM042000
                       22015G25KT P6SM SCT025 BKN040 FM050400 24010KT
                       P6SM SCT025 BKN040 FM051400 02004KT P6SM
                       BKN050=
202411041129 TAF KBLI 041129Z 0412/0512 15010G20KT P6SM -RA SCT025 OVC050 WS020/16045KT
                       FM041600 15025G45KT P6SM -RA OVC015 FM042100
                       26015G30KT P6SM -RA SCT025 BKN035 FM050200
                       24010G25KT P6SM BKN045 FM050600 24008KT
                       P6SM BKN050=
202411040520 TAF KBLI 040520Z 0406/0506 18003KT P6SM VCSH FEW030 OVC070 FM041100
                       16012G20KT P6SM -RA OVC020 FM041600 15025G45KT
                       P6SM -RA OVC015 FM042100 19015G30KT P6SM
                       -RA OVC025 FM050200 23010G25KT P6SM BKN045=
202411032320 TAF KBLI 032320Z 0400/0424 20004KT P6SM OVC040 FM040600 17008KT
                       P6SM OVC050 FM041100 16017G20KT P6SM -RA
                       OVC020 FM041600 15023G33KT P6SM -RA OVC019
                       FM042100 19010G28KT P6SM -RA OVC025=
202411031728 TAF KBLI 031728Z 0318/0418 24005KT P6SM VCSH FEW007 BKN025 FM032100
                       21005KT P6SM OVC050 FM040000 18004KT P6SM
                       OVC040 FM040600 17008G18KT P6SM OVC025 FM041100
                       16015G25KT P6SM -RA OVC025 FM041400 15023G30KT
                       P6SM -RA OVC019=
202411031130 TAF KBLI 031130Z 0312/0412 00000KT P6SM VCSH OVC025 FM031600 24005KT
                       P6SM VCSH OVC020 FM032100 21005KT P6SM OVC050
                       FM040000 18004KT P6SM OVC050 FM040600 17008G18KT
                       P6SM OVC025 FM041100 16012G25KT P6SM -RA
                       OVC025=
202411030526 TAF KBLI 030526Z 0306/0406 10004KT P6SM VCSH OVC025 FM031100 26004KT
                       P6SM VCSH OVC019 FM032100 21005KT P6SM OVC050
                       FM040000 18004KT P6SM OVC050=
202411022327 TAF KBLI 022327Z 0300/0324 18006KT P6SM SCT015 OVC035 FM030300
                       18006KT P6SM -SHRA BKN022 OVC035 FM030600
                       10004KT P6SM VCSH OVC025 FM031100 26004KT
                       P6SM VCSH OVC019 FM032100 21005KT P6SM OVC050=
202411021720 TAF KBLI 021720Z 0218/0318 18006KT P6SM VCSH FEW010 BKN050 FM022000
                       18006KT P6SM SCT022 OVC035 FM030400 18006KT
                       P6SM -SHRA SCT022 OVC035 FM030600 10004KT
                       P6SM VCSH OVC025 FM031100 26004KT P6SM VCSH
                       OVC019=
202411021320 KBLI 021320Z 0213/0312 35003KT P6SM SCT030 OVC050 FM021600 18006KT
                       P6SM VCSH OVC020 FM022000 18006KT P6SM SCT022
                       OVC035 FM030400 18006KT P6SM -SHRA SCT022
                       OVC035 FM030600 10004KT P6SM VCSH OVC025=
202411021124 TAF KBLI 021124Z 0212/0312 35003KT P6SM -SHRA OVC025 FM021600 18006KT
                       P6SM VCSH OVC020 FM022000 18006KT P6SM SCT022
                       OVC035 FM030400 18006KT P6SM -SHRA SCT022
                       OVC035 FM030600 10004KT P6SM VCSH OVC025=
202411020540 TAF KBLI 020540Z 0206/0306 02004KT P6SM -SHRA SCT008 OVC020
                      TEMPO 0206/0208 2SM SHRA BKN008 OVC020 FM021600
                       18006KT P6SM OVC020 FM022000 18006KT P6SM
                       SCT022 OVC035 FM030400 18006KT P6SM -SHRA
                       BKN022 OVC035=
202411012326 TAF KBLI 012326Z 0200/0224 02004KT P6SM -SHRA BKN020 OVC050 FM020200
                       15006KT P6SM -SHRA OVC020 FM020900 00000KT
                       P6SM -SHRA OVC015 FM021600 17003KT P6SM
                       OVC020=
202411011720 TAF KBLI 011720Z 0118/0218 05006KT 5SM -RA BKN015 OVC025 FM012100
                       03006KT 5SM -RA OVC020 FM020000 02004KT
                       P6SM -SHRA SCT015 OVC025 FM020400 15006KT
                       P6SM -SHRA BKN015 OVC025 FM020900 00000KT
                       4SM -RA BR OVC015=
202411011121 TAF KBLI 011121Z 0112/0212 05006KT 5SM -RA BKN015 OVC025 FM020000
                       02004KT P6SM -SHRA SCT015 OVC025 FM020400
                       15006KT P6SM -SHRA BKN015 OVC025 FM020900
                       00000KT 4SM -RA BR OVC015=
202411010540 TAF KBLI 010540Z 0106/0206 12008KT P6SM -RA OVC035 FM011100 05006KT
                       5SM -RA BKN015 OVC025 FM020000 02004KT P6SM
                       SCT015 OVC025 FM020400 15006KT P6SM -SHRA
                       BKN015 OVC025=