##########################################################
# Query made at 02/16/2025 01:54:34 UTC
# Time interval: from 12/01/2010 00:00  to 12/31/2010 23:59  UTC
##########################################################

##########################################################
# KCLM, Port Angeles, William R. Fairchild International Airport (United States)
# WMO index: -----. WIGOS ID: Unknown
# Latitude 48-07-20N. Longitude 123-30-19W. Altitude 87 m.
##########################################################

###################################
#  METAR/SPECI from KCLM
###################################
201012312353 METAR KCLM 312353Z AUTO 12005KT 10SM SCT027 00/M06 A3003 RMK AO2 SLP174 T00001061 10006 21033 56012 $=
201012312253 METAR KCLM 312253Z AUTO 10005KT 10SM CLR 01/M06 A3004 RMK AO2 SLP175 T00061061 $=
201012312153 METAR KCLM 312153Z AUTO 08004KT 10SM CLR 01/M06 A3004 RMK AO2 SLP176 T00061056 $=
201012312123 SPECI KCLM 312123Z AUTO 12004KT 10SM SCT021 M01/M05 A3006 RMK AO2 $=
201012312123 SPECI KCLM 312123Z AUTO 12004KT 10SM SCT021 M01/M05 A3006 RMK AO2 $=
201012312053 METAR KCLM 312053Z AUTO 00000KT 10SM BKN023 00/M06 A3007 RMK AO2 SLP186 T00001056 58009 $=
201012311953 METAR KCLM 311953Z AUTO 04003KT 10SM OVC019 00/M04 A3008 RMK AO2 SLP191 T00001044 $=
201012311918 SPECI KCLM 311918Z AUTO 19003KT 10SM BKN019 00/M04 A3009 RMK AO2 $=
201012311918 SPECI KCLM 311918Z AUTO 19003KT 10SM BKN019 00/M04 A3009 RMK AO2 $=
201012311853 METAR KCLM 311853Z AUTO 11004KT 10SM CLR M01/M05 A3009 RMK AO2 SLP194 T10111050 $=
201012311753 METAR KCLM 311753Z AUTO 21003KT 10SM CLR M03/M07 A3010 RMK AO2 SLP195 T10331072 11033 21067 55007 $=
201012311653 METAR KCLM 311653Z AUTO 10SM CLR M04/M07 A3009 RMK AO2 SLP196 T10441072 $=
201012311553 METAR KCLM 311553Z AUTO 10SM CLR M06/M08 A3010 RMK AO2 SLP197 T10611083 $=
201012311453 METAR KCLM 311453Z AUTO 10SM CLR M05/M08 A3012 RMK AO2 SLP202 T10501078 55000 $=
201012311353 METAR KCLM 311353Z AUTO 10SM CLR M05/M07 A3012 RMK AO2 SLP202 T10501072 $=
201012311253 METAR KCLM 311253Z AUTO 10SM SCT027 M06/M08 A3011 RMK AO2 SLP199 T10561083 $=
201012311153 METAR KCLM 311153Z AUTO 10SM OVC029 M03/M08 A3012 RMK AO2 SLP203 T10331078 11028 21056 58008 $=
201012311053 METAR KCLM 311053Z AUTO 10SM OVC029 M03/M07 A3014 RMK AO2 SLP210 T10281072 $=
201012311010 SPECI KCLM 311010Z AUTO 10SM BKN029 M03/M08 A3015 RMK AO2 $=
201012311010 SPECI KCLM 311010Z AUTO 10SM BKN029 M03/M08 A3015 RMK AO2 $=
201012310953 METAR KCLM 310953Z AUTO 10SM FEW029 M04/M08 A3015 RMK AO2 SLP212 T10391083 $=
201012310853 METAR KCLM 310853Z AUTO 10SM CLR M04/M09 A3014 RMK AO2 SLP210 T10391089 50005 $=
201012310753 METAR KCLM 310753Z AUTO 10SM CLR M03/M08 A3015 RMK AO2 SLP213 T10331083 400281056 $=
201012310653 METAR KCLM 310653Z AUTO 10SM CLR M04/M09 A3014 RMK AO2 SLP208 T10391089 $=
201012310553 METAR KCLM 310553Z AUTO 10SM M05/M08 A3013 RMK AO2 SLP206 T10501083 10006 21056 $=
201012310453 METAR KCLM 310453Z AUTO 10SM CLR M06/M08 A3013 RMK AO2 SLP205 T10561083 $=
201012310353 METAR KCLM 310353Z AUTO 00000KT 10SM CLR M04/M08 A3013 RMK AO2 SLP207 T10391083 $=
201012310253 METAR KCLM 310253Z AUTO 12005KT 10SM CLR M03/M09 A3012 RMK AO2 SLP205 T10281094 50004=
201012310153 METAR KCLM 310153Z AUTO 14004KT 10SM CLR M02/M10 A3013 RMK AO2 SLP205 T10171100=
201012310053 METAR KCLM 310053Z AUTO 13003KT 10SM CLR M01/M09 A3013 RMK AO2 SLP206 T10111094 $=
201012302353 METAR KCLM 302353Z AUTO 10005KT 10SM CLR 01/M09 A3011 RMK AO2 SLP200 T00061094 10028 21011 53009 $=
201012302253 METAR KCLM 302253Z AUTO 09007KT 10SM CLR 02/M11 A3010 RMK AO2 SLP196 T00171106 $=
201012302153 METAR KCLM 302153Z AUTO 09008KT 10SM CLR 02/M09 A3009 RMK AO2 SLP191 T00221094 $=
201012302053 METAR KCLM 302053Z AUTO 07005KT 10SM CLR 03/M11 A3008 RMK AO2 SLP190 T00281106 50004 $=
201012301953 METAR KCLM 301953Z AUTO 07005KT 10SM CLR 03/M11 A3009 RMK AO2 SLP191 T00281111 $=
201012301853 METAR KCLM 301853Z AUTO 09005KT 10SM CLR 02/M09 A3009 RMK AO2 SLP192 T00221089 $=
201012301753 METAR KCLM 301753Z AUTO 22006KT 10SM M02/M06 A3007 RMK AO2 SLP188 T10171061 11006 21022 $=
201012301653 METAR KCLM 301653Z AUTO 10SM OVC049 M01/M06 A3006 RMK AO2 SLP183 T10111061 $=
201012301553 METAR KCLM 301553Z AUTO 10SM BKN049 M02/M06 A3003 RMK AO2 SLP172 T10171056 $=
201012301453 METAR KCLM 301453Z AUTO 10SM OVC049 M02/M06 A3002 RMK AO2 SLP168 T10221056 53020 $=
201012301353 METAR KCLM 301353Z AUTO 23005KT 10SM OVC047 M02/M05 A3000 RMK AO2 SLP162 T10171050 $=
201012301253 METAR KCLM 301253Z AUTO 10SM BKN048 M02/M06 A2998 RMK AO2 SLP154 T10171056 $=
201012301153 METAR KCLM 301153Z AUTO 23007KT 10SM BKN033 OVC046 M01/M04 A2996 RMK AO2 SLP148 T10061044 11006 21044 $=
201012301053 METAR KCLM 301053Z AUTO 23005KT 10SM OVC045 M02/M05 A2995 RMK AO2 SLP145 T10171050 $=
201012300953 METAR KCLM 300953Z AUTO 22005KT 10SM M02/M06 A2994 RMK AO2 SLP141 T10221061 $=
201012300853 METAR KCLM 300853Z AUTO 20004KT 10SM CLR M01/M06 A2992 RMK AO2 SLP134 T10111061 53027 $=
201012300753 METAR KCLM 300753Z AUTO 00000KT 10SM CLR M03/M06 A2989 RMK AO2 SLP124 T10281061 400561044 $=
201012300653 METAR KCLM 300653Z AUTO 00000KT 10SM CLR M02/M06 A2986 RMK AO2 SLP116 T10221056=
201012300553 METAR KCLM 300553Z AUTO 00000KT 10SM CLR M03/M06 A2984 RMK AO2 SLP107 T10281056 10028 21028 51024=
201012300453 METAR KCLM 300453Z AUTO 23005KT 10SM CLR M02/M06 A2981 RMK AO2 SLP099 T10221061=
201012300353 METAR KCLM 300353Z AUTO 23005KT 10SM CLR M01/M06 A2979 RMK AO2 SLP091 T10111056=
201012300253 METAR KCLM 300253Z AUTO 25005KT 10SM CLR 01/M07 A2977 RMK AO2 SLP083 T00111067 51027=
201012300153 METAR KCLM 300153Z AUTO 29004KT 10SM BKN060 OVC070 02/M06 A2974 RMK AO2 SLP073 T00171061=
201012300053 METAR KCLM 300053Z AUTO 25007KT 10SM CLR 02/M07 A2972 RMK AO2 SLP066 T00221067=
201012292353 METAR KCLM 292353Z AUTO 27007KT 10SM CLR 03/M06 A2969 RMK AO2 SLP055 T00281061 10056 20028 53023=
201012292253 METAR KCLM 292253Z AUTO 27012KT 10SM CLR 04/M06 A2966 RMK AO2 SLP044 T00441061=
201012292153 METAR KCLM 292153Z AUTO 27015G19KT 10SM FEW055 05/M05 A2963 RMK AO2 SLP036 T00501050=
201012292053 METAR KCLM 292053Z AUTO 29012G19KT 10SM SCT050 BKN060 06/M05 A2962 RMK AO2 SLP031 T00561050 51021=
201012291953 METAR KCLM 291953Z AUTO 28011G18KT 10SM SCT060 04/M06 A2961 RMK AO2 SLP027 T00441056=
201012291853 METAR KCLM 291853Z AUTO 27008KT 10SM FEW065 SCT090 BKN110 04/M04 A2958 RMK AO2 SLP020 T00391039=
201012291753 METAR KCLM 291753Z AUTO 28011G19KT 10SM CLR 03/M04 A2955 RMK AO2 SLP010 T00281039 10028 21006 53028=
201012291653 METAR KCLM 291653Z AUTO 29006KT 10SM CLR 00/M04 A2952 RMK AO2 SLP998 T00001039=
201012291553 METAR KCLM 291553Z AUTO 28008KT 10SM CLR 01/M04 A2949 RMK AO2 SLP988 T00061039=
201012291453 METAR KCLM 291453Z AUTO 30007KT 10SM CLR 02/M03 A2947 RMK AO2 SLP982 T00171033 53017=
201012291353 METAR KCLM 291353Z AUTO 27010KT 10SM FEW033 02/M04 A2945 RMK AO2 SLP975 T00221039=
201012291253 METAR KCLM 291253Z AUTO 29013G17KT 10SM CLR 03/M04 A2944 RMK AO2 SLP970 T00281039=
201012291153 METAR KCLM 291153Z AUTO 27008G19KT 10SM FEW120 03/M04 A2942 RMK AO2 SLP963 T00281044 10033 20017 53002=
201012291053 METAR KCLM 291053Z AUTO 27013G18KT 10SM FEW080 BKN100 BKN120 03/M04 A2942 RMK AO2 SLP962 T00331044=
201012290953 METAR KCLM 290953Z AUTO 25008KT 10SM BKN085 OVC110 03/M03 A2941 RMK AO2 SLP962 T00281028=
201012290853 METAR KCLM 290853Z AUTO 25007KT 10SM OVC100 02/M01 A2941 RMK AO2 SLP961 T00221006 58007=
201012290753 METAR KCLM 290753Z AUTO 25006KT 10SM FEW023 03/M01 A2942 RMK AO2 SLP964 T00281006 400610017=
201012290745 SPECI KCLM 290745Z AUTO 26006KT 10SM SCT023 SCT031 03/M01 A2942 RMK AO2=
201012290745 SPECI KCLM 290745Z AUTO 26006KT 10SM SCT023 SCT031 03/M01 A2942 RMK AO2=
201012290737 SPECI KCLM 290737Z AUTO 25006KT 10SM BKN023 BKN031 BKN039 02/00 A2942 RMK AO2=
201012290737 SPECI KCLM 290737Z AUTO 25006KT 10SM BKN023 BKN031 BKN039 02/00 A2942 RMK AO2=
201012290653 METAR KCLM 290653Z AUTO 27003KT 10SM BKN041 OVC049 02/M01 A2943 RMK AO2 SLP967 T00221006=
201012290553 METAR KCLM 290553Z AUTO 00000KT 10SM FEW026 BKN032 OVC045 03/01 A2943 RMK AO2 SLP968 60000 T00280006 10050 20028 56022=
201012290541 SPECI KCLM 290541Z AUTO 00000KT 10SM SCT026 BKN033 OVC045 03/01 A2944 RMK AO2=
201012290541 SPECI KCLM 290541Z AUTO 00000KT 10SM SCT026 BKN033 OVC045 03/01 A2944 RMK AO2=
201012290515 SPECI KCLM 290515Z AUTO 00000KT 10SM BKN026 OVC039 03/01 A2945 RMK AO2=
201012290515 SPECI KCLM 290515Z AUTO 00000KT 10SM BKN026 OVC039 03/01 A2945 RMK AO2=
201012290453 METAR KCLM 290453Z AUTO 00000KT 10SM FEW018 SCT023 OVC039 03/00 A2945 RMK AO2 RAE0359 SLP975 P0000 T00330000=
201012290419 SPECI KCLM 290419Z AUTO 17004KT 10SM BKN026 OVC055 03/01 A2946 RMK AO2 RAE0359 P0000=
201012290419 SPECI KCLM 290419Z AUTO 17004KT 10SM BKN026 OVC055 03/01 A2946 RMK AO2 RAE0359 P0000=
201012290410 SPECI KCLM 290410Z AUTO 17005KT 10SM SCT024 BKN033 OVC055 03/01 A2946 RMK AO2 RAE0359 P0000=
201012290410 SPECI KCLM 290410Z AUTO 17005KT 10SM SCT024 BKN033 OVC055 03/01 A2946 RMK AO2 RAE0359 P0000=
201012290353 METAR KCLM 290353Z AUTO 14003KT 10SM -RA BKN024 OVC029 03/01 A2947 RMK AO2 RAB30 SLP982 P0000 T00280011=
201012290335 SPECI KCLM 290335Z AUTO 00000KT 10SM -RA BKN024 OVC041 04/00 A2949 RMK AO2 RAB30 P0000=
201012290335 SPECI KCLM 290335Z AUTO 00000KT 10SM -RA BKN024 OVC041 04/00 A2949 RMK AO2 RAB30 P0000=
201012290253 METAR KCLM 290253Z AUTO 25004KT 10SM OVC045 04/00 A2950 RMK AO2 SLP990 T00390000 58029=
201012290153 METAR KCLM 290153Z AUTO 24004KT 10SM FEW027 SCT033 OVC048 03/00 A2953 RMK AO2 SLP000 T00330000=
201012290053 METAR KCLM 290053Z AUTO 24003KT 10SM OVC049 04/01 A2956 RMK AO2 SLP012 T00390006=
201012282353 METAR KCLM 282353Z AUTO 00000KT 10SM OVC049 04/00 A2958 RMK AO2 SLP019 T00440000 10061 20044 56032=
201012282253 METAR KCLM 282253Z AUTO 28003KT 10SM OVC047 05/01 A2961 RMK AO2 SLP027 T00500006=
201012282153 METAR KCLM 282153Z AUTO 27006KT 10SM OVC047 06/00 A2964 RMK AO2 SLP039 T00560000=
201012282053 METAR KCLM 282053Z AUTO 30004KT 10SM CLR 06/01 A2968 RMK AO2 SLP052 T00560006 58031=
201012281953 METAR KCLM 281953Z AUTO 28007KT 10SM FEW060 06/01 A2972 RMK AO2 SLP065 T00610011=
201012281853 METAR KCLM 281853Z AUTO 28008KT 10SM OVC042 06/01 A2976 RMK AO2 SLP078 T00610011=
201012281753 METAR KCLM 281753Z AUTO 27008KT 10SM FEW029 OVC038 06/01 A2977 RMK AO2 SLP084 T00560011 10061 20044 50000=
201012281653 METAR KCLM 281653Z AUTO 25006KT 10SM OVC030 05/01 A2978 RMK AO2 SLP086 T00500011=
201012281642 SPECI KCLM 281642Z AUTO 25005KT 10SM OVC030 05/01 A2977 RMK AO2=
201012281642 SPECI KCLM 281642Z AUTO 25005KT 10SM OVC030 05/01 A2977 RMK AO2=
201012281553 METAR KCLM 281553Z AUTO 27006KT 10SM OVC028 05/02 A2977 RMK AO2 SLP083 T00500022=
201012281453 METAR KCLM 281453Z AUTO 26008KT 10SM OVC026 06/03 A2977 RMK AO2 SLP084 T00560028 51016=
201012281353 METAR KCLM 281353Z AUTO 23003KT 10SM BKN017 05/03 A2976 RMK AO2 SLP081 T00500028=
201012281343 SPECI KCLM 281343Z AUTO 26003KT 10SM BKN017 05/03 A2976 RMK AO2=
201012281343 SPECI KCLM 281343Z AUTO 26003KT 10SM BKN017 05/03 A2976 RMK AO2=
201012281253 METAR KCLM 281253Z AUTO 07003KT 10SM CLR 04/02 A2974 RMK AO2 SLP073 T00440022=
201012281153 METAR KCLM 281153Z AUTO 29013G19KT 10SM CLR 06/04 A2973 RMK AO2 SLP068 T00610039 10061 20022 50009=
201012281053 METAR KCLM 281053Z AUTO 28009KT 10SM CLR 03/02 A2973 RMK AO2 SLP069 T00330022=
201012281013 SPECI KCLM 281013Z AUTO 24004KT 10SM SCT007 02/01 A2973 RMK AO2=
201012281013 SPECI KCLM 281013Z AUTO 24004KT 10SM SCT007 02/01 A2973 RMK AO2=
201012280953 METAR KCLM 280953Z AUTO 25003KT 10SM BKN007 03/02 A2972 RMK AO2 SLP066 T00280017=
201012280853 METAR KCLM 280853Z AUTO 25004KT 10SM OVC009 04/03 A2970 RMK AO2 SLP059 T00390028 53001=
201012280753 METAR KCLM 280753Z AUTO 26004KT 10SM OVC009 04/02 A2970 RMK AO2 SLP058 T00390022 400560011=
201012280701 SPECI KCLM 280701Z AUTO 27006KT 10SM BKN009 03/02 A2970 RMK AO2=
201012280701 SPECI KCLM 280701Z AUTO 27006KT 10SM BKN009 03/02 A2970 RMK AO2=
201012280653 METAR KCLM 280653Z AUTO 26006KT 10SM SCT009 03/02 A2970 RMK AO2 SLP057 T00330017=
201012280650 SPECI KCLM 280650Z AUTO 25006KT 10SM SCT009 03/02 A2970 RMK AO2=
201012280650 SPECI KCLM 280650Z AUTO 25006KT 10SM SCT009 03/02 A2970 RMK AO2=
201012280553 METAR KCLM 280553Z AUTO 25006KT 10SM CLR 02/01 A2969 RMK AO2 SLP057 60000 T00220011 10044 20011 56015=
201012280453 METAR KCLM 280453Z AUTO 25003KT 10SM FEW055 02/01 A2970 RMK AO2 SLP061 T00170011=
201012280353 METAR KCLM 280353Z AUTO 22003KT 10SM BKN060 BKN090 02/01 A2971 RMK AO2 SLP062 T00220011=
201012280253 METAR KCLM 280253Z AUTO 25004KT 10SM OVC100 03/02 A2974 RMK AO2 SLP072 60000 T00330017 56052=
201012280153 METAR KCLM 280153Z AUTO 00000KT 10SM FEW055 BKN080 OVC100 03/02 A2978 RMK AO2 SLP086 T00330022=
201012280053 METAR KCLM 280053Z AUTO 19003KT 10SM OVC085 04/02 A2983 RMK AO2 RAB13E15B31E39 SLP104 P0000 T00390022=
201012272353 METAR KCLM 272353Z AUTO 25004KT 10SM OVC041 04/02 A2989 RMK AO2 SLP124 T00440022 10056 20033 56043=
201012272253 METAR KCLM 272253Z AUTO 28003KT 10SM FEW060 SCT100 05/02 A2993 RMK AO2 SLP138 T00500017=
201012272153 METAR KCLM 272153Z AUTO 22003KT 10SM SCT050 06/02 A2997 RMK AO2 SLP150 T00560017=
201012272053 METAR KCLM 272053Z AUTO 00000KT 10SM FEW046 06/02 A3002 RMK AO2 SLP168 T00560022 58018=
201012271953 METAR KCLM 271953Z AUTO 00000KT 10SM BKN065 OVC085 06/02 A3004 RMK AO2 SLP175 T00560017=
201012271853 METAR KCLM 271853Z AUTO 26004KT 10SM SCT095 05/02 A3007 RMK AO2 SLP183 T00500022=
201012271753 METAR KCLM 271753Z AUTO 21003KT 10SM SCT100 03/02 A3008 RMK AO2 SLP187 T00330017 10033 20011 58003 TSNO=
201012271653 METAR KCLM 271653Z AUTO 00000KT 10SM FEW065 OVC100 02/01 A3008 RMK AO2 SLP189 T00170011=
201012271553 METAR KCLM 271553Z AUTO 00000KT 10SM BKN070 OVC110 02/01 A3008 RMK AO2 SLP190 T00170006=
201012271453 METAR KCLM 271453Z AUTO 22003KT 10SM OVC090 02/01 A3008 RMK AO2 SLP190 T00170006 51008=
201012271353 METAR KCLM 271353Z AUTO 19005KT 10SM FEW080 OVC110 02/01 A3008 RMK AO2 SLP190 T00170006=
201012271253 METAR KCLM 271253Z AUTO 26003KT 10SM SCT095 BKN120 02/01 A3007 RMK AO2 SLP185 T00220006=
201012271153 METAR KCLM 271153Z AUTO 18005KT 10SM FEW029 BKN060 OVC070 03/01 A3006 RMK AO2 RAE42 SLP181 P0001 60005 70019 T00280011 10033 20017 50010=
201012271148 SPECI KCLM 271148Z AUTO 18006KT 10SM SCT024 OVC060 03/01 A3006 RMK AO2 RAE42 P0001=
201012271148 SPECI KCLM 271148Z AUTO 18006KT 10SM SCT024 OVC060 03/01 A3006 RMK AO2 RAE42 P0001=
201012271107 SPECI KCLM 271107Z AUTO 24006KT 10SM -RA BKN028 BKN038 OVC045 02/01 A3007 RMK AO2 P0000=
201012271107 SPECI KCLM 271107Z AUTO 24006KT 10SM -RA BKN028 BKN038 OVC045 02/01 A3007 RMK AO2 P0000=
201012271053 METAR KCLM 271053Z AUTO 26004KT 10SM -RA OVC037 02/01 A3006 RMK AO2 UPB41E44 SLP180 P0001 T00220011=
201012271030 SPECI KCLM 271030Z AUTO 22003KT 10SM -RA FEW037 OVC049 02/01 A3005 RMK AO2 P0001=
201012271030 SPECI KCLM 271030Z AUTO 22003KT 10SM -RA FEW037 OVC049 02/01 A3005 RMK AO2 P0001=
201012270953 METAR KCLM 270953Z AUTO 21005KT 10SM RA BKN022 BKN032 OVC043 03/02 A3003 RMK AO2 RAB06 SLP171 P0001 T00280017=
201012270946 SPECI KCLM 270946Z AUTO 22004KT 10SM -RA FEW025 BKN030 OVC040 03/02 A3003 RMK AO2 RAB06 P0000=
201012270946 SPECI KCLM 270946Z AUTO 22004KT 10SM -RA FEW025 BKN030 OVC040 03/02 A3003 RMK AO2 RAB06 P0000=
201012270925 SPECI KCLM 270925Z AUTO 24003KT 10SM -RA BKN026 OVC032 03/02 A3000 RMK AO2 RAB06 P0000=
201012270925 SPECI KCLM 270925Z AUTO 24003KT 10SM -RA BKN026 OVC032 03/02 A3000 RMK AO2 RAB06 P0000=
201012270853 METAR KCLM 270853Z AUTO 25004KT 10SM FEW049 BKN060 OVC090 02/01 A3000 RMK AO2 RAE08B31E45 SLP161 P0000 60002 T00220011 51030=
201012270753 METAR KCLM 270753Z AUTO 27003KT 10SM -RA SCT027 OVC065 03/01 A2997 RMK AO2 SLP152 P0001 T00280011 400720017=
201012270653 METAR KCLM 270653Z AUTO 21005KT 10SM -RA BKN029 OVC035 03/01 A2995 RMK AO2 SLP143 P0001 T00330011=
201012270625 SPECI KCLM 270625Z AUTO 20006KT 10SM SCT037 02/01 A2993 RMK AO2 RAE21 P0001=
201012270625 SPECI KCLM 270625Z AUTO 20006KT 10SM SCT037 02/01 A2993 RMK AO2 RAE21 P0001=
201012270553 METAR KCLM 270553Z AUTO 36003KT 5SM RA BR BKN017 OVC025 03/01 A2991 RMK AO2 RAB20 SLP130 P0006 60009 T00280011 10044 20017 53023=
201012270545 SPECI KCLM 270545Z AUTO 24005KT 4SM RA BR FEW017 OVC023 03/01 A2993 RMK AO2 RAB20 P0004=
201012270545 SPECI KCLM 270545Z AUTO 24005KT 4SM RA BR FEW017 OVC023 03/01 A2993 RMK AO2 RAB20 P0004=
201012270453 METAR KCLM 270453Z AUTO 23005KT 10SM SCT040 BKN048 BKN065 02/01 A2989 RMK AO2 RAB36E48 SLP122 P0000 T00220006=
201012270353 METAR KCLM 270353Z AUTO 16004KT 10SM FEW024 SCT036 03/01 A2986 RMK AO2 RAE52 SLP113 P0000 T00280011=
201012270337 SPECI KCLM 270337Z AUTO 13003KT 10SM -RA FEW024 BKN030 OVC039 04/02 A2986 RMK AO2 P0000=
201012270337 SPECI KCLM 270337Z AUTO 13003KT 10SM -RA FEW024 BKN030 OVC039 04/02 A2986 RMK AO2 P0000=
201012270305 SPECI KCLM 270305Z AUTO 17003KT 10SM -RA BKN026 OVC037 03/02 A2985 RMK AO2 P0000=
201012270305 SPECI KCLM 270305Z AUTO 17003KT 10SM -RA BKN026 OVC037 03/02 A2985 RMK AO2 P0000=
201012270253 METAR KCLM 270253Z AUTO 22004KT 10SM -RA BKN032 OVC045 03/02 A2984 RMK AO2 SLP108 P0001 60003 T00330022 51013=
201012270248 SPECI KCLM 270248Z AUTO 22005KT 10SM -RA BKN028 BKN037 OVC050 03/02 A2984 RMK AO2 P0000=
201012270248 SPECI KCLM 270248Z AUTO 22005KT 10SM -RA BKN028 BKN037 OVC050 03/02 A2984 RMK AO2 P0000=
201012270232 SPECI KCLM 270232Z AUTO 21003KT 10SM -RA BKN030 OVC055 03/02 A2983 RMK AO2 P0000=
201012270232 SPECI KCLM 270232Z AUTO 21003KT 10SM -RA BKN030 OVC055 03/02 A2983 RMK AO2 P0000=
201012270220 SPECI KCLM 270220Z AUTO 00000KT 10SM -RA BKN028 BKN033 OVC041 03/02 A2982 RMK AO2 P0000=
201012270220 SPECI KCLM 270220Z AUTO 00000KT 10SM -RA BKN028 BKN033 OVC041 03/02 A2982 RMK AO2 P0000=
201012270153 METAR KCLM 270153Z AUTO 00000KT 10SM -RA BKN034 OVC041 03/02 A2981 RMK AO2 SLP096 P0001 T00330017=
201012270149 SPECI KCLM 270149Z AUTO 00000KT 10SM -RA OVC036 03/02 A2980 RMK AO2 P0001=
201012270149 SPECI KCLM 270149Z AUTO 00000KT 10SM -RA OVC036 03/02 A2980 RMK AO2 P0001=
201012270102 SPECI KCLM 270102Z AUTO 24005KT 10SM -RA BKN027 BKN047 OVC060 04/02 A2980 RMK AO2 P0000=
201012270102 SPECI KCLM 270102Z AUTO 24005KT 10SM -RA BKN027 BKN047 OVC060 04/02 A2980 RMK AO2 P0000=
201012270053 METAR KCLM 270053Z AUTO 25005KT 10SM -RA FEW028 BKN034 OVC047 04/02 A2979 RMK AO2 SLP090 P0001 T00390022=
201012270031 SPECI KCLM 270031Z AUTO 20005KT 10SM BKN034 BKN049 04/02 A2978 RMK AO2 RAE27 P0001=
201012270031 SPECI KCLM 270031Z AUTO 20005KT 10SM BKN034 BKN049 04/02 A2978 RMK AO2 RAE27 P0001=
201012262353 METAR KCLM 262353Z AUTO 25005KT 10SM -RA OVC025 04/02 A2975 RMK AO2 SLP076 P0001 60005 T00440017 10072 20044 51029=
201012262253 METAR KCLM 262253Z AUTO 25008G21KT 5SM RA BKN023 OVC060 05/01 A2971 RMK AO2 RAB02 SLP064 P0002 T00500006=
201012262248 SPECI KCLM 262248Z AUTO 26011G21KT 5SM RA BKN025 OVC060 05/01 A2971 RMK AO2 RAB02 P0002=
201012262248 SPECI KCLM 262248Z AUTO 26011G21KT 5SM RA BKN025 OVC060 05/01 A2971 RMK AO2 RAB02 P0002=
201012262153 METAR KCLM 262153Z AUTO 28008KT 10SM SCT055 BKN070 07/01 A2966 RMK AO2 RAE24 PRESRR SLP046 P0001 T00670011=
201012262123 SPECI KCLM 262123Z AUTO 25012KT 10SM -RA BKN032 BKN047 OVC060 06/02 A2964 RMK AO2 P0001=
201012262123 SPECI KCLM 262123Z AUTO 25012KT 10SM -RA BKN032 BKN047 OVC060 06/02 A2964 RMK AO2 P0001=
201012262053 METAR KCLM 262053Z AUTO 30007KT 10SM -RA BKN029 OVC034 06/03 A2962 RMK AO2 RAB00 SLP030 P0001 60001 T00610028 53030=
201012262042 SPECI KCLM 262042Z AUTO 24010KT 5SM RA BKN027 06/03 A2961 RMK AO2 RAB00 P0001=
201012262042 SPECI KCLM 262042Z AUTO 24010KT 5SM RA BKN027 06/03 A2961 RMK AO2 RAB00 P0001=
201012262030 SPECI KCLM 262030Z AUTO 26012KT 10SM BKN035 BKN060 06/03 A2961 RMK AO2 RAB00E28 PRESRR P0000=
201012262030 SPECI KCLM 262030Z AUTO 26012KT 10SM BKN035 BKN060 06/03 A2961 RMK AO2 RAB00E28 PRESRR P0000=
201012262016 SPECI KCLM 262016Z AUTO 29007KT 10SM -RA FEW014 BKN026 07/04 A2957 RMK AO2 RAB00 P0000=
201012262016 SPECI KCLM 262016Z AUTO 29007KT 10SM -RA FEW014 BKN026 07/04 A2957 RMK AO2 RAB00 P0000=
201012261953 METAR KCLM 261953Z AUTO 27006KT 10SM FEW013 SCT025 BKN031 07/04 A2958 RMK AO2 SLP019 T00670044=
201012261853 METAR KCLM 261853Z AUTO VRB03KT 10SM OVC048 07/04 A2954 RMK AO2 SLP005 T00670044=
201012261753 METAR KCLM 261753Z AUTO 00000KT 10SM BKN065 06/04 A2953 RMK AO2 SLP000 60000 T00610044 10061 20022 55004=
201012261727 SPECI KCLM 261727Z AUTO 00000KT 10SM FEW014 BKN075 06/04 A2953 RMK AO2=
201012261727 SPECI KCLM 261727Z AUTO 00000KT 10SM FEW014 BKN075 06/04 A2953 RMK AO2=
201012261653 METAR KCLM 261653Z AUTO 00000KT 10SM OVC014 05/04 A2952 RMK AO2 SLP998 T00500039=
201012261617 SPECI KCLM 261617Z AUTO 00000KT 10SM OVC014 04/04 A2953 RMK AO2=
201012261617 SPECI KCLM 261617Z AUTO 00000KT 10SM OVC014 04/04 A2953 RMK AO2=
201012261603 SPECI KCLM 261603Z AUTO 00000KT 10SM BKN016 OVC065 04/03 A2954 RMK AO2=
201012261603 SPECI KCLM 261603Z AUTO 00000KT 10SM BKN016 OVC065 04/03 A2954 RMK AO2=
201012261553 METAR KCLM 261553Z AUTO 16004KT 10SM FEW010 BKN014 OVC065 04/03 A2954 RMK AO2 SLP005 T00390028=
201012261453 METAR KCLM 261453Z AUTO 00000KT 10SM FEW014 SCT060 03/03 A2954 RMK AO2 RAE00 SLP004 P0000 60000 T00330028 58012=
201012261353 METAR KCLM 261353Z AUTO 00000KT 10SM -RA SCT016 BKN044 OVC060 05/04 A2956 RMK AO2 RAB46 SLP012 P0000 T00500039=
201012261348 SPECI KCLM 261348Z AUTO 27003KT 10SM -RA BKN016 OVC044 05/04 A2956 RMK AO2 RAB46 P0000=
201012261348 SPECI KCLM 261348Z AUTO 27003KT 10SM -RA BKN016 OVC044 05/04 A2956 RMK AO2 RAB46 P0000=
201012261253 METAR KCLM 261253Z AUTO 00000KT 10SM BKN011 OVC018 05/04 A2957 RMK AO2 SLP016 T00500044=
201012261250 SPECI KCLM 261250Z AUTO 00000KT 10SM BKN011 OVC018 05/04 A2957 RMK AO2=
201012261250 SPECI KCLM 261250Z AUTO 00000KT 10SM BKN011 OVC018 05/04 A2957 RMK AO2=
201012261153 METAR KCLM 261153Z AUTO 15004KT 10SM BKN017 05/04 A2958 RMK AO2 RAB09E25 SLP019 P0000 60000 T00500039 10056 20044 58001=
201012261148 SPECI KCLM 261148Z AUTO 00000KT 10SM FEW012 BKN017 05/04 A2959 RMK AO2 RAB09E25 P0000=
201012261148 SPECI KCLM 261148Z AUTO 00000KT 10SM FEW012 BKN017 05/04 A2959 RMK AO2 RAB09E25 P0000=
201012261126 SPECI KCLM 261126Z AUTO 00000KT 10SM FEW019 BKN050 05/04 A2959 RMK AO2 RAB09E25 P0000=
201012261126 SPECI KCLM 261126Z AUTO 00000KT 10SM FEW019 BKN050 05/04 A2959 RMK AO2 RAB09E25 P0000=
201012261109 SPECI KCLM 261109Z AUTO 00000KT 10SM -RA BKN017 OVC040 05/04 A2959 RMK AO2 RAB09 P0000=
201012261109 SPECI KCLM 261109Z AUTO 00000KT 10SM -RA BKN017 OVC040 05/04 A2959 RMK AO2 RAB09 P0000=
201012261053 METAR KCLM 261053Z AUTO 14004KT 10SM BKN014 OVC021 06/04 A2960 RMK AO2 SLP026 T00560039=
201012261023 SPECI KCLM 261023Z AUTO 00000KT 10SM FEW007 BKN012 OVC021 06/04 A2960 RMK AO2=
201012261023 SPECI KCLM 261023Z AUTO 00000KT 10SM FEW007 BKN012 OVC021 06/04 A2960 RMK AO2=
201012260953 METAR KCLM 260953Z AUTO 10004KT 10SM OVC012 06/04 A2959 RMK AO2 SLP020 T00560044=
201012260901 SPECI KCLM 260901Z AUTO 00000KT 10SM BKN012 OVC027 04/04 A2959 RMK AO2=
201012260901 SPECI KCLM 260901Z AUTO 00000KT 10SM BKN012 OVC027 04/04 A2959 RMK AO2=
201012260853 METAR KCLM 260853Z AUTO 00000KT 10SM SCT012 BKN027 04/03 A2959 RMK AO2 SLP020 60000 T00440033 50012=
201012260803 SPECI KCLM 260803Z AUTO 00000KT 10SM BKN029 OVC040 05/04 A2959 RMK AO2=
201012260803 SPECI KCLM 260803Z AUTO 00000KT 10SM BKN029 OVC040 05/04 A2959 RMK AO2=
201012260753 METAR KCLM 260753Z AUTO 00000KT 10SM BKN031 BKN040 OVC060 05/03 A2959 RMK AO2 RAB29E43 SLP022 P0000 T00500033 401060050=
201012260653 METAR KCLM 260653Z AUTO 00000KT 10SM OVC065 05/03 A2958 RMK AO2 SLP017 T00500033=
201012260553 METAR KCLM 260553Z AUTO 24006KT 10SM BKN047 BKN055 OVC075 06/04 A2955 RMK AO2 RAE48 SLP009 P0000 60000 T00560039 10083 20056 51022=
201012260512 SPECI KCLM 260512Z AUTO 29006KT 10SM -RA SCT027 OVC050 06/04 A2954 RMK AO2 P0000=
201012260512 SPECI KCLM 260512Z AUTO 29006KT 10SM -RA SCT027 OVC050 06/04 A2954 RMK AO2 P0000=
201012260453 METAR KCLM 260453Z AUTO 29004KT 10SM -RA FEW012 SCT021 OVC026 06/04 A2953 RMK AO2 SLP000 P0000 T00560044=
201012260353 METAR KCLM 260353Z AUTO 29014G19KT 10SM -RA BKN008 OVC012 07/04 A2952 RMK AO2 RAB30 CIG 005V011 SLP996 P0000 T00670044=
201012260334 SPECI KCLM 260334Z AUTO 32006KT 10SM -RA OVC008 07/06 A2950 RMK AO2 RAB30 CIG 005V011 P0000=
201012260334 SPECI KCLM 260334Z AUTO 32006KT 10SM -RA OVC008 07/06 A2950 RMK AO2 RAB30 CIG 005V011 P0000=
201012260302 SPECI KCLM 260302Z AUTO 00000KT 10SM BKN012 OVC060 08/06 A2949 RMK AO2=
201012260302 SPECI KCLM 260302Z AUTO 00000KT 10SM BKN012 OVC060 08/06 A2949 RMK AO2=
201012260253 METAR KCLM 260253Z AUTO 00000KT 10SM SCT012 OVC065 07/06 A2949 RMK AO2 RAB21E32 SLP987 P0000 60000 T00720056 58002=
201012260153 METAR KCLM 260153Z AUTO 25007KT 10SM FEW020 OVC070 08/06 A2949 RMK AO2 SLP989 T00780056=
201012260053 METAR KCLM 260053Z AUTO 27005KT 10SM OVC070 08/06 A2949 RMK AO2 RAB01E41 SLP988 P0000 T00830061=
201012252353 METAR KCLM 252353Z AUTO 29008KT 10SM SCT014 BKN060 BKN070 09/07 A2949 RMK AO2 SLP989 T00890067 10106 20072 55003=
201012252318 SPECI KCLM 252318Z AUTO VRB06KT 10SM BKN014 OVC080 09/07 A2949 RMK AO2=
201012252318 SPECI KCLM 252318Z AUTO VRB06KT 10SM BKN014 OVC080 09/07 A2949 RMK AO2=
201012252253 METAR KCLM 252253Z AUTO 26007KT 10SM FEW014 BKN090 09/07 A2949 RMK AO2 SLP988 T00940067=
201012252153 METAR KCLM 252153Z AUTO 30005KT 10SM OVC100 10/07 A2950 RMK AO2 SLP989 T01000072=
201012252053 METAR KCLM 252053Z AUTO 33005KT 10SM SCT070 BKN090 10/08 A2950 RMK AO2 SLP991 T01000078 56028=
201012251953 METAR KCLM 251953Z AUTO 28005KT 10SM FEW008 BKN075 BKN090 10/08 A2952 RMK AO2 SLP997 T01000078=
201012251935 SPECI KCLM 251935Z AUTO 00000KT 10SM FEW008 BKN070 OVC090 10/07 A2954 RMK AO2=
201012251935 SPECI KCLM 251935Z AUTO 00000KT 10SM FEW008 BKN070 OVC090 10/07 A2954 RMK AO2=
201012251853 METAR KCLM 251853Z AUTO 00000KT 10SM OVC070 09/07 A2956 RMK AO2 SLP010 T00890072=
201012251753 METAR KCLM 251753Z AUTO 25005KT 10SM OVC065 07/06 A2959 RMK AO2 SLP021 T00720061 10078 20061 50001=
201012251737 SPECI KCLM 251737Z AUTO 00000KT 10SM FEW007 OVC065 07/06 A2959 RMK AO2=
201012251737 SPECI KCLM 251737Z AUTO 00000KT 10SM FEW007 OVC065 07/06 A2959 RMK AO2=
201012251653 METAR KCLM 251653Z AUTO 00000KT 10SM OVC060 07/06 A2959 RMK AO2 SLP022 T00720061=
201012251553 METAR KCLM 251553Z AUTO 00000KT 10SM OVC060 07/06 A2959 RMK AO2 SLP021 T00670056=
201012251453 METAR KCLM 251453Z AUTO 29004KT 10SM BKN065 OVC080 07/06 A2958 RMK AO2 SLP020 T00670056 56021=
201012251353 METAR KCLM 251353Z AUTO VRB06KT 10SM OVC065 07/06 A2960 RMK AO2 SLP024 T00670056=
201012251253 METAR KCLM 251253Z AUTO 00000KT 10SM OVC065 07/06 A2963 RMK AO2 SLP034 T00670061=
201012251153 METAR KCLM 251153Z AUTO 26003KT 10SM OVC060 06/06 A2965 RMK AO2 SLP040 60000 T00610056 10072 20061 58015=
201012251053 METAR KCLM 251053Z AUTO 00000KT 10SM OVC055 07/06 A2967 RMK AO2 SLP046 T00670061=
201012250953 METAR KCLM 250953Z AUTO 00000KT 10SM FEW049 OVC060 06/06 A2968 RMK AO2 SLP051 T00610056=
201012250853 METAR KCLM 250853Z AUTO 00000KT 10SM SCT046 OVC060 07/06 A2969 RMK AO2 RAE13 SLP055 P0000 60000 T00670061 58015=
201012250753 METAR KCLM 250753Z AUTO 00000KT 10SM -RA SCT047 OVC060 07/06 A2971 RMK AO2 RAB40 SLP061 P0000 T00670061 401280067=
201012250653 METAR KCLM 250653Z AUTO 00000KT 10SM FEW043 OVC060 07/06 A2973 RMK AO2 RAB31E40 SLP068 P0000 T00720061=
201012250553 METAR KCLM 250553Z AUTO 23003KT 10SM OVC060 07/07 A2974 RMK AO2 RAB09E46 SLP070 P0000 60000 T00720067 10117 20072 58002=
201012250453 METAR KCLM 250453Z AUTO 28005KT 10SM FEW049 OVC060 08/07 A2975 RMK AO2 RAB11E46 SLP074 P0000 T00780067=
201012250353 METAR KCLM 250353Z AUTO 30004KT 10SM OVC060 08/06 A2974 RMK AO2 RAB32E46 SLP073 P0000 T00830061=
201012250253 METAR KCLM 250253Z AUTO 30003KT 10SM OVC060 09/06 A2974 RMK AO2 SLP072 60000 T00890056 50004=
201012250153 METAR KCLM 250153Z AUTO VRB04KT 10SM OVC060 10/04 A2974 RMK AO2 RAB12E24 SLP073 P0000 T01000044=
201012250053 METAR KCLM 250053Z AUTO 24007KT 10SM OVC055 10/04 A2974 RMK AO2 SLP071 T01000044=
201012242353 METAR KCLM 242353Z AUTO 00000KT 10SM OVC055 10/06 A2973 RMK AO2 SLP068 60000 T01000056 10128 20094 56010=
201012242253 METAR KCLM 242253Z AUTO 24006KT 10SM OVC060 10/06 A2973 RMK AO2 RAE2158 SLP069 P0000 T01000061=
201012242153 METAR KCLM 242153Z AUTO 24006KT 10SM -RA FEW037 SCT049 BKN060 10/06 A2974 RMK AO2 SLP072 P0000 T01000061=
201012242053 METAR KCLM 242053Z AUTO 11009KT 10SM -RA OVC065 11/04 A2976 RMK AO2 RAB53 SLP078 P0000 60000 T01110044 50005=
201012241953 METAR KCLM 241953Z AUTO VRB04KT 10SM BKN060 OVC070 12/05 A2976 RMK AO2 RAB22E44 SLP079 P0000 T01170050=
201012241853 METAR KCLM 241853Z AUTO 13010G25KT 10SM OVC060 12/04 A2976 RMK AO2 RAE06B36E50 SLP078 P0000 T01220039=
201012241753 METAR KCLM 241753Z AUTO 15008G14KT 120V200 10SM -RA FEW048 OVC065 12/04 A2975 RMK AO2 WSHFT 1643 RAE13B46 SLP073 P0000 60000 T01220039 10128 20078 55001=
201012241703 SPECI KCLM 241703Z AUTO 14010G24KT 080V170 10SM -RA SCT045 OVC065 11/04 A2974 RMK AO2 WSHFT 1643 P0000=
201012241703 SPECI KCLM 241703Z AUTO 14010G24KT 080V170 10SM -RA SCT045 OVC065 11/04 A2974 RMK AO2 WSHFT 1643 P0000=
201012241653 METAR KCLM 241653Z AUTO 16011G25KT 110V210 10SM -RA SCT046 OVC060 11/04 A2972 RMK AO2 PK WND 15032/1605 RAB21 SLP063 P0000 T01110039=
201012241600 METAR KCLM NIL=
201012241453 METAR KCLM 241453Z AUTO 19007G14KT 150V230 10SM OVC065 10/04 A2975 RMK AO2 PK WND 16029/1435 RAB07E47 SLP074 P0000 60000 T01000044 55010=
201012241353 METAR KCLM 241353Z AUTO VRB06KT 10SM OVC065 11/03 A2973 RMK AO2 PK WND 12032/1254 SLP070 T01060033=
201012241253 METAR KCLM 241253Z AUTO 28009G24KT 200V310 10SM OVC065 12/03 A2976 RMK AO2 PK WND 23028/1240 SLP078 T01170028=
201012241153 METAR KCLM 241153Z AUTO 18003KT 10SM OVC060 08/05 A2978 RMK AO2 SLP085 70005 T00780050 10111 20061 58008=
201012241053 METAR KCLM 241053Z AUTO 16012G16KT 10SM OVC060 11/03 A2979 RMK AO2 SLP087 T01110033=
201012240953 METAR KCLM 240953Z AUTO VRB04KT 10SM OVC060 07/05 A2980 RMK AO2 SLP092 T00720050=
201012240853 METAR KCLM 240853Z AUTO 22004KT 10SM OVC055 07/06 A2980 RMK AO2 SLP092 T00720056 56008=
201012240753 METAR KCLM 240753Z AUTO 00000KT 10SM OVC055 08/05 A2981 RMK AO2 SLP094 T00780050 400940022=
201012240653 METAR KCLM 240653Z AUTO VRB05KT 10SM BKN060 OVC075 08/05 A2981 RMK AO2 SLP098 T00780050=
201012240553 METAR KCLM 240553Z AUTO 12004KT 10SM OVC060 07/06 A2983 RMK AO2 SLP101 60000 T00670056 10078 20061 51006=
201012240453 METAR KCLM 240453Z AUTO 32003KT 10SM BKN055 OVC070 07/06 A2982 RMK AO2 RAE0354 SLP100 T00670056=
201012240353 METAR KCLM 240353Z AUTO 00000KT 10SM -RA BKN060 OVC080 06/05 A2981 RMK AO2 RAE0254B45 SLP097 P0000 T00610050=
201012240253 METAR KCLM 240253Z AUTO 00000KT 10SM -RA BKN060 OVC070 07/06 A2981 RMK AO2 RAB0156E23B43 SLP095 P0000 60000 T00670056 58008=
201012240153 METAR KCLM 240153Z AUTO 00000KT 10SM SCT050 OVC070 07/06 A2982 RMK AO2 RAE40 SLP100 P0000 T00670056=
201012240053 METAR KCLM 240053Z AUTO 08003KT 10SM -RA OVC050 07/06 A2983 RMK AO2 SLP102 P0000 T00720061=
201012232353 METAR KCLM 232353Z AUTO 00000KT 10SM -RA OVC046 08/07 A2983 RMK AO2 RAB2256 SLP102 P0000 60003 T00780067 10094 20061 53003=
201012232253 METAR KCLM 232253Z AUTO 00000KT 10SM BKN047 BKN100 08/06 A2982 RMK AO2 RAE48 SLP101 P0000 T00830061=
201012232153 METAR KCLM 232153Z AUTO 00000KT 8SM -RA BKN037 OVC047 08/07 A2982 RMK AO2 SLP099 P0002 T00830067=
201012232053 METAR KCLM 232053Z AUTO 00000KT 9SM -RA BKN039 BKN047 09/07 A2982 RMK AO2 RAE15B50 SLP099 P0000 60001 T00890072 50005=
201012231953 METAR KCLM 231953Z AUTO 12003KT 10SM -RA BKN041 OVC050 08/06 A2983 RMK AO2 SLP102 P0000 T00830061=
201012231853 METAR KCLM 231853Z AUTO 23005KT 10SM -RA OVC048 07/06 A2982 RMK AO2 SLP099 P0001 T00720056=
201012231753 METAR KCLM 231753Z AUTO 00000KT 10SM -RA OVC047 06/05 A2980 RMK AO2 SLP094 P0000 60002 T00610050 10094 20050 53009=
201012231653 METAR KCLM 231653Z AUTO 00000KT 10SM -RA BKN045 OVC050 06/04 A2979 RMK AO2 SLP089 P0002 T00610044=
201012231553 METAR KCLM 231553Z AUTO VRB03KT 10SM -RA OVC049 06/04 A2978 RMK AO2 SLP086 P0000 T00560039=
201012231453 METAR KCLM 231453Z AUTO 00000KT 10SM -RA BKN048 OVC055 06/04 A2978 RMK AO2 SLP086 P0000 60000 T00560039 53002=
201012231353 METAR KCLM 231353Z AUTO 23005KT 10SM -RA BKN055 OVC070 06/03 A2977 RMK AO2 RAE17B50 SLP085 P0000 T00560028=
201012231253 METAR KCLM 231253Z AUTO VRB03KT 10SM -RA OVC050 07/02 A2975 RMK AO2 RAE16B47 SLP077 P0000 T00670017=
201012231153 METAR KCLM 231153Z AUTO 21013G18KT 10SM -RA FEW049 BKN060 OVC080 09/02 A2977 RMK AO2 RAB45 SLP083 P0000 60000 T00890017 10089 20017 56002=
201012231053 METAR KCLM 231053Z AUTO VRB06KT 10SM SCT065 BKN110 06/03 A2977 RMK AO2 SLP084 T00560033=
201012230953 METAR KCLM 230953Z AUTO 00000KT 10SM BKN070 05/02 A2976 RMK AO2 SLP080 T00500017=
201012230853 METAR KCLM 230853Z AUTO 00000KT 10SM SCT070 BKN080 BKN100 05/03 A2978 RMK AO2 SLP086 T00500028 50000=
201012230753 METAR KCLM 230753Z AUTO 00000KT 10SM OVC075 03/01 A2979 RMK AO2 SLP089 T00280011 400940006=
201012230715 SPECI KCLM 230715Z AUTO 00000KT 10SM SCT006 03/01 A2979 RMK AO2=
201012230715 SPECI KCLM 230715Z AUTO 00000KT 10SM SCT006 03/01 A2979 RMK AO2=
201012230653 METAR KCLM 230653Z AUTO 00000KT 10SM CLR 03/02 A2979 RMK AO2 SLP089 T00330017=
201012230553 METAR KCLM 230553Z AUTO 21007KT 10SM CLR 03/02 A2978 RMK AO2 SLP087 T00280017 10072 20006 53002=
201012230453 METAR KCLM 230453Z AUTO 20004KT 10SM CLR 03/02 A2977 RMK AO2 SLP084 T00330017=
201012230353 METAR KCLM 230353Z AUTO 00000KT 10SM CLR 02/01 A2977 RMK AO2 SLP084 T00170006=
201012230253 METAR KCLM 230253Z AUTO 19003KT 10SM CLR 01/01 A2977 RMK AO2 SLP084 T00110006 55000=
201012230153 METAR KCLM 230153Z AUTO 00000KT 10SM CLR 01/01 A2977 RMK AO2 SLP083 T00110006=
201012230053 METAR KCLM 230053Z AUTO 00000KT 10SM CLR 03/02 A2977 RMK AO2 SLP083 T00280017=
201012230005 SPECI KCLM 230005Z AUTO 00000KT 10SM SCT022 SCT065 07/04 A2977 RMK AO2=
201012230005 SPECI KCLM 230005Z AUTO 00000KT 10SM SCT022 SCT065 07/04 A2977 RMK AO2=
201012222353 METAR KCLM 222353Z AUTO 00000KT 10SM BKN022 BKN030 07/04 A2977 RMK AO2 SLP084 T00720039 10094 20033 53013=
201012222315 SPECI KCLM 222315Z AUTO 00000KT 10SM BKN022 07/04 A2976 RMK AO2=
201012222315 SPECI KCLM 222315Z AUTO 00000KT 10SM BKN022 07/04 A2976 RMK AO2=
201012222253 METAR KCLM 222253Z AUTO 00000KT 10SM SCT024 07/04 A2976 RMK AO2 SLP078 T00720039=
201012222230 SPECI KCLM 222230Z AUTO 09003KT 10SM FEW022 08/04 A2975 RMK AO2=
201012222230 SPECI KCLM 222230Z AUTO 09003KT 10SM FEW022 08/04 A2975 RMK AO2=
201012222204 SPECI KCLM 222204Z AUTO 00000KT 10SM BKN020 08/04 A2975 RMK AO2=
201012222204 SPECI KCLM 222204Z AUTO 00000KT 10SM BKN020 08/04 A2975 RMK AO2=
201012222153 METAR KCLM 222153Z AUTO 00000KT 10SM SCT020 07/04 A2975 RMK AO2 SLP075 T00720039=
201012222130 SPECI KCLM 222130Z AUTO 00000KT 10SM SCT020 08/04 A2975 RMK AO2=
201012222130 SPECI KCLM 222130Z AUTO 00000KT 10SM SCT020 08/04 A2975 RMK AO2=
201012222123 SPECI KCLM 222123Z AUTO 03003KT 10SM BKN020 08/04 A2975 RMK AO2=
201012222123 SPECI KCLM 222123Z AUTO 03003KT 10SM BKN020 08/04 A2975 RMK AO2=
201012222053 METAR KCLM 222053Z AUTO 36004KT 10SM CLR 08/03 A2973 RMK AO2 SLP069 T00830033 51009=
201012221953 METAR KCLM 221953Z AUTO 00000KT 10SM FEW019 09/04 A2973 RMK AO2 SLP069 T00890039=
201012221853 METAR KCLM 221853Z AUTO 00000KT 10SM FEW065 06/04 A2973 RMK AO2 SLP068 T00610039=
201012221753 METAR KCLM 221753Z AUTO 24005KT 10SM SCT065 04/02 A2971 RMK AO2 SLP061 60000 T00390017 10061 20006 53025=
201012221653 METAR KCLM 221653Z AUTO 22005KT 10SM SCT070 03/02 A2968 RMK AO2 SLP052 T00330017=
201012221553 METAR KCLM 221553Z AUTO 23006KT 10SM CLR 02/01 A2965 RMK AO2 SLP041 T00170011=
201012221453 METAR KCLM 221453Z AUTO 19004KT 10SM FEW070 04/02 A2963 RMK AO2 SLP036 60000 T00390022 51005=
201012221353 METAR KCLM 221353Z AUTO 00000KT 10SM BKN060 BKN070 OVC085 05/03 A2963 RMK AO2 SLP034 T00500028=
201012221253 METAR KCLM 221253Z AUTO 26008KT 10SM BKN055 OVC080 05/03 A2962 RMK AO2 RAB11E53 SLP032 P0000 T00500028=
201012221153 METAR KCLM 221153Z AUTO VRB05KT 10SM SCT075 BKN100 04/02 A2962 RMK AO2 SLP030 60000 T00440017 10089 20044 51009=
201012221053 METAR KCLM 221053Z AUTO 15008KT 10SM CLR 05/03 A2962 RMK AO2 RAE0957 SLP030 P0000 T00500028=
201012220953 METAR KCLM 220953Z AUTO 24004KT 10SM -RA OVC049 07/04 A2962 RMK AO2 RAB25 SLP032 P0000 T00720039=
201012220853 METAR KCLM 220853Z AUTO 25008KT 10SM BKN060 BKN085 OVC100 08/03 A2959 RMK AO2 SLP021 T00830028 53009=
201012220753 METAR KCLM 220753Z AUTO 00000KT 10SM OVC065 06/02 A2957 RMK AO2 SLP015 T00610022 400830000=
201012220653 METAR KCLM 220653Z AUTO 00000KT 10SM BKN070 OVC090 06/02 A2957 RMK AO2 SLP014 T00610017=
201012220553 METAR KCLM 220553Z AUTO 00000KT 10SM OVC075 06/02 A2956 RMK AO2 SLP011 T00610022 10078 20039 55002=
201012220453 METAR KCLM 220453Z AUTO 19003KT 10SM OVC075 05/02 A2955 RMK AO2 SLP010 T00500017=
201012220353 METAR KCLM 220353Z AUTO 00000KT 10SM OVC080 06/02 A2956 RMK AO2 SLP011 T00560017=
201012220253 METAR KCLM 220253Z AUTO 12003KT 10SM BKN075 OVC100 06/02 A2957 RMK AO2 SLP013 T00610022 56007=
201012220153 METAR KCLM 220153Z AUTO 00000KT 10SM BKN075 BKN090 04/02 A2957 RMK AO2 SLP015 T00440022=
201012220053 METAR KCLM 220053Z AUTO 15005KT 10SM CLR 06/03 A2957 RMK AO2 SLP016 T00560033=
201012212353 METAR KCLM 212353Z AUTO 00000KT 10SM SCT075 07/04 A2959 RMK AO2 SLP021 T00720039 10083 20039 55004=
201012212253 METAR KCLM 212253Z AUTO 00000KT 10SM BKN070 08/04 A2959 RMK AO2 SLP020 T00830039=
201012212153 METAR KCLM 212153Z AUTO 33003KT 10SM BKN070 08/04 A2958 RMK AO2 SLP020 T00830039=
201012212053 METAR KCLM 212053Z AUTO 00000KT 10SM SCT070 SCT090 07/03 A2960 RMK AO2 SLP025 T00720033 58008=
201012211953 METAR KCLM 211953Z AUTO 00000KT 10SM BKN075 08/03 A2962 RMK AO2 SLP030 T00780033=
201012211853 METAR KCLM 211853Z AUTO 00000KT 10SM SCT075 07/03 A2962 RMK AO2 SLP033 T00670033=
201012211753 METAR KCLM 211753Z AUTO 00000KT 10SM SCT070 04/02 A2962 RMK AO2 SLP033 T00440022 10044 20000 50007=
201012211653 METAR KCLM 211653Z AUTO 00000KT 10SM FEW070 SCT100 02/01 A2963 RMK AO2 SLP035 T00170006=
201012211553 METAR KCLM 211553Z AUTO 20003KT 10SM FEW065 01/00 A2961 RMK AO2 SLP029 T00110000=
201012211453 METAR KCLM 211453Z AUTO 00000KT 10SM FEW080 01/00 A2960 RMK AO2 SLP027 T00110000 51013=
201012211353 METAR KCLM 211353Z AUTO 18003KT 10SM CLR 02/00 A2960 RMK AO2 SLP024 T00170000=
201012211253 METAR KCLM 211253Z AUTO 00000KT 10SM CLR 01/00 A2958 RMK AO2 SLP020 T00110000=
201012211153 METAR KCLM 211153Z AUTO 00000KT 10SM FEW075 SCT090 02/00 A2957 RMK AO2 SLP014 T00170000 10061 20017 51018=
201012211053 METAR KCLM 211053Z AUTO 00000KT 10SM FEW100 03/01 A2956 RMK AO2 SLP011 T00330006=
201012210953 METAR KCLM 210953Z AUTO 00000KT 10SM FEW080 03/01 A2953 RMK AO2 SLP002 T00280006=
201012210853 METAR KCLM 210853Z AUTO 26007KT 10SM FEW065 04/02 A2951 RMK AO2 SLP995 T00390017 51021=
201012210753 METAR KCLM 210753Z AUTO 00000KT 10SM OVC065 05/02 A2949 RMK AO2 SLP989 T00500017 400781011=
201012210653 METAR KCLM 210653Z AUTO 00000KT 10SM OVC065 05/01 A2947 RMK AO2 SLP982 T00500011=
201012210553 METAR KCLM 210553Z AUTO 17004KT 10SM BKN075 BKN110 04/02 A2945 RMK AO2 SLP974 60000 T00440017 10056 20039 51022=
201012210453 METAR KCLM 210453Z AUTO 34007KT 10SM BKN060 OVC075 05/02 A2943 RMK AO2 SLP969 T00500022=
201012210353 METAR KCLM 210353Z AUTO 24005KT 10SM BKN055 OVC070 04/02 A2942 RMK AO2 RAB02E13 SLP966 P0000 T00390022=
201012210253 METAR KCLM 210253Z AUTO 00000KT 10SM FEW038 OVC055 05/02 A2938 RMK AO2 RAB36E51 SLP952 P0000 60000 T00500017 51015=
201012210153 METAR KCLM 210153Z AUTO 00000KT 10SM BKN065 BKN075 OVC090 04/02 A2937 RMK AO2 SLP949 T00390017=
201012210053 METAR KCLM 210053Z AUTO 14004KT 10SM BKN070 OVC110 05/02 A2936 RMK AO2 SLP944 T00500022=
201012202353 METAR KCLM 202353Z AUTO 00000KT 10SM FEW065 BKN100 05/02 A2934 RMK AO2 SLP937 T00500022 10078 20028 50003=
201012202253 METAR KCLM 202253Z AUTO 09004KT 10SM OVC070 06/02 A2934 RMK AO2 SLP938 T00560022=
201012202153 METAR KCLM 202153Z AUTO VRB03KT 10SM BKN075 BKN100 07/02 A2934 RMK AO2 SLP938 T00670022=
201012202053 METAR KCLM 202053Z AUTO 00000KT 10SM CLR 07/03 A2933 RMK AO2 SLP933 T00720028 50001=
201012201953 METAR KCLM 201953Z AUTO 27004KT 10SM BKN060 OVC075 06/02 A2935 RMK AO2 SLP939 T00560017=
201012201853 METAR KCLM 201853Z AUTO 00000KT 10SM OVC065 05/02 A2935 RMK AO2 SLP940 T00500017=
201012201753 METAR KCLM 201753Z AUTO 00000KT 10SM FEW047 SCT065 03/01 A2933 RMK AO2 RAB30E39 SLP933 P0000 60000 T00280011 10028 21011 50006=
201012201653 METAR KCLM 201653Z AUTO 23006KT 10SM SCT055 OVC070 01/00 A2933 RMK AO2 SLP934 T00110000=
201012201553 METAR KCLM 201553Z AUTO 23006KT 10SM BKN075 01/M01 A2931 RMK AO2 SLP928 T00061006=
201012201453 METAR KCLM 201453Z AUTO 00000KT 10SM SCT075 00/M02 A2931 RMK AO2 SLP927 T00001017 58001=
201012201353 METAR KCLM 201353Z AUTO 22005KT 10SM OVC075 01/M01 A2932 RMK AO2 SLP930 T00061006=
201012201253 METAR KCLM 201253Z AUTO 00000KT 10SM BKN075 OVC095 00/M01 A2931 RMK AO2 SLP929 T00001011=
201012201153 METAR KCLM 201153Z AUTO 00000KT 10SM OVC070 01/M01 A2931 RMK AO2 SLP929 T00111006 10028 20011 51003=
201012201053 METAR KCLM 201053Z AUTO 24003KT 10SM SCT070 02/00 A2931 RMK AO2 SLP928 T00170000=
201012200953 METAR KCLM 200953Z AUTO 24005KT 10SM BKN065 03/01 A2931 RMK AO2 SLP926 T00280006=
201012200853 METAR KCLM 200853Z AUTO 25006KT 10SM SCT065 BKN110 02/00 A2931 RMK AO2 SLP925 T00220000 50001=
201012200753 METAR KCLM 200753Z AUTO VRB05KT 10SM SCT028 BKN035 OVC120 02/00 A2931 RMK AO2 SLP926 T00220000 400560000=
201012200653 METAR KCLM 200653Z AUTO 00000KT 10SM OVC090 02/00 A2931 RMK AO2 SLP927 T00170000=
201012200553 METAR KCLM 200553Z AUTO 24004KT 10SM OVC080 02/00 A2930 RMK AO2 SLP925 T00170000 10033 20000 53005=
201012200453 METAR KCLM 200453Z AUTO 23006KT 10SM BKN090 01/00 A2929 RMK AO2 SLP922 T00110000=
201012200353 METAR KCLM 200353Z AUTO 00000KT 10SM CLR 01/M01 A2929 RMK AO2 SLP920 T00061006=
201012200253 METAR KCLM 200253Z AUTO 12004KT 10SM CLR 02/00 A2929 RMK AO2 SLP919 T00170000 56011=
201012200153 METAR KCLM 200153Z AUTO 11003KT 10SM CLR 02/00 A2929 RMK AO2 SLP920 T00170000=
201012200053 METAR KCLM 200053Z AUTO 12006KT 10SM CLR 02/00 A2931 RMK AO2 SLP926 T00220000=
201012192353 METAR KCLM 192353Z AUTO 12006KT 10SM CLR 03/01 A2932 RMK AO2 SLP931 T00330006 10056 20033 56021=
201012192331 SPECI KCLM 192331Z AUTO 10006KT 10SM FEW023 SCT032 04/01 A2933 RMK AO2=
201012192331 SPECI KCLM 192331Z AUTO 10006KT 10SM FEW023 SCT032 04/01 A2933 RMK AO2=
201012192253 METAR KCLM 192253Z AUTO 11006KT 10SM OVC021 05/01 A2933 RMK AO2 SLP933 T00500011=
201012192153 METAR KCLM 192153Z AUTO 10005KT 10SM OVC022 05/02 A2934 RMK AO2 SLP938 T00500017=
201012192053 METAR KCLM 192053Z AUTO 07004KT 10SM BKN016 OVC022 05/02 A2938 RMK AO2 SLP952 T00500022 58021=
201012191953 METAR KCLM 191953Z AUTO 00000KT 10SM BKN016 06/02 A2942 RMK AO2 SLP963 T00560022=
201012191950 SPECI KCLM 191950Z AUTO 29003KT 10SM BKN016 06/03 A2942 RMK AO2=
201012191950 SPECI KCLM 191950Z AUTO 29003KT 10SM BKN016 06/03 A2942 RMK AO2=
201012191853 METAR KCLM 191853Z AUTO 24005KT 10SM FEW016 04/02 A2945 RMK AO2 SLP974 T00390022=
201012191842 SPECI KCLM 191842Z AUTO 24006KT 10SM SCT016 04/02 A2945 RMK AO2=
201012191842 SPECI KCLM 191842Z AUTO 24006KT 10SM SCT016 04/02 A2945 RMK AO2=
201012191812 SPECI KCLM 191812Z AUTO 23005KT 10SM OVC014 03/02 A2946 RMK AO2=
201012191812 SPECI KCLM 191812Z AUTO 23005KT 10SM OVC014 03/02 A2946 RMK AO2=
201012191753 METAR KCLM 191753Z AUTO 25006KT 10SM OVC016 03/02 A2946 RMK AO2 SLP978 T00330017 10033 20000 58008=
201012191741 SPECI KCLM 191741Z AUTO 25004KT 10SM BKN018 03/02 A2946 RMK AO2=
201012191741 SPECI KCLM 191741Z AUTO 25004KT 10SM BKN018 03/02 A2946 RMK AO2=
201012191653 METAR KCLM 191653Z AUTO 25007KT 10SM CLR 02/01 A2947 RMK AO2 SLP983 T00170006=
201012191553 METAR KCLM 191553Z AUTO 30003KT 10SM SCT110 01/00 A2947 RMK AO2 SLP982 T00110000=
201012191529 SPECI KCLM 191529Z AUTO 00000KT 10SM SCT012 01/00 A2947 RMK AO2=
201012191529 SPECI KCLM 191529Z AUTO 00000KT 10SM SCT012 01/00 A2947 RMK AO2=
201012191453 METAR KCLM 191453Z AUTO 13004KT 10SM BKN014 BKN070 01/M01 A2948 RMK AO2 SLP986 T00061006 56003=
201012191353 METAR KCLM 191353Z AUTO 21003KT 10SM OVC070 02/01 A2948 RMK AO2 SLP986 T00170006=
201012191253 METAR KCLM 191253Z AUTO 17003KT 10SM BKN065 BKN080 02/01 A2948 RMK AO2 SLP986 T00220006=
201012191153 METAR KCLM 191153Z AUTO 22004KT 10SM BKN065 OVC090 02/01 A2949 RMK AO2 SLP988 T00220011 10028 20006 53007=
201012191053 METAR KCLM 191053Z AUTO 24003KT 10SM FEW065 02/01 A2948 RMK AO2 SLP985 T00170011=
201012190953 METAR KCLM 190953Z AUTO 00000KT 10SM BKN060 BKN075 BKN100 02/01 A2948 RMK AO2 SLP983 T00220011=
201012190853 METAR KCLM 190853Z AUTO 24005KT 10SM BKN100 02/01 A2947 RMK AO2 SLP981 T00170006 58008=
201012190753 METAR KCLM 190753Z AUTO 22003KT 10SM FEW080 02/01 A2948 RMK AO2 SLP985 T00170006 400720011=
201012190653 METAR KCLM 190653Z AUTO 21003KT 10SM FEW085 01/00 A2949 RMK AO2 SLP988 T00110000=
201012190553 METAR KCLM 190553Z AUTO 25004KT 10SM FEW080 03/01 A2949 RMK AO2 SLP989 T00280011 10050 20017 58009=
201012190453 METAR KCLM 190453Z AUTO 24003KT 10SM OVC070 03/01 A2951 RMK AO2 SLP995 T00330011=
201012190353 METAR KCLM 190353Z AUTO 00000KT 10SM OVC080 03/02 A2952 RMK AO2 SLP000 T00330017=
201012190253 METAR KCLM 190253Z AUTO 22005KT 10SM BKN080 03/02 A2952 RMK AO2 SLP999 T00280017 50010=
201012190153 METAR KCLM 190153Z AUTO 00000KT 10SM SCT013 BKN075 OVC090 03/02 A2953 RMK AO2 SLP002 T00280017=
201012190139 SPECI KCLM 190139Z AUTO 00000KT 10SM BKN013 OVC085 04/03 A2953 RMK AO2=
201012190139 SPECI KCLM 190139Z AUTO 00000KT 10SM BKN013 OVC085 04/03 A2953 RMK AO2=
201012190053 METAR KCLM 190053Z AUTO 14003KT 10SM CLR 04/02 A2952 RMK AO2 SLP998 T00390022=
201012182353 METAR KCLM 182353Z AUTO 23004KT 10SM FEW046 05/02 A2949 RMK AO2 RAB2256E29 SLP988 P0000 60000 T00500022 10072 20050 51027=
201012182253 METAR KCLM 182253Z AUTO 26008KT 10SM OVC039 05/03 A2948 RMK AO2 RAE42 SLP986 P0000 T00500028=
201012182153 METAR KCLM 182153Z AUTO 27011KT 10SM -RA BKN037 06/02 A2944 RMK AO2 SLP971 P0000 T00560022=
201012182124 SPECI KCLM 182124Z AUTO 27011KT 10SM -RA SCT035 06/03 A2942 RMK AO2 P0000=
201012182124 SPECI KCLM 182124Z AUTO 27011KT 10SM -RA SCT035 06/03 A2942 RMK AO2 P0000=
201012182053 METAR KCLM 182053Z AUTO 26009KT 10SM -RA OVC028 06/03 A2941 RMK AO2 RAE1955B19 SLP961 P0000 60000 T00610033 53017=
201012181953 METAR KCLM 181953Z AUTO 00000KT 10SM -RA BKN032 07/02 A2939 RMK AO2 RAB31 SLP954 P0000 T00670017=
201012181853 METAR KCLM 181853Z AUTO 10011KT 10SM BKN046 BKN065 06/01 A2937 RMK AO2 SLP947 T00610006=
201012181753 METAR KCLM 181753Z AUTO 11012KT 10SM FEW055 BKN075 05/00 A2936 RMK AO2 SLP944 60000 T00500000 10061 20033 50013=
201012181653 METAR KCLM 181653Z AUTO 12011KT 10SM BKN065 OVC080 03/00 A2937 RMK AO2 SLP947 T00330000=
201012181553 METAR KCLM 181553Z AUTO 10010KT 10SM OVC040 03/00 A2934 RMK AO2 SLP939 T00330000=
201012181500 METAR KCLM NIL=
201012181353 METAR KCLM 181353Z AUTO 12017G21KT 10SM SCT070 BKN090 OVC110 04/M01 A2932 RMK AO2 PK WND 10038/1320 SLP931 T00391006=
201012181253 METAR KCLM 181253Z AUTO 11018G25KT 10SM FEW110 06/M03 A2931 RMK AO2 PK WND 10031/1209 SLP928 T00611028=
201012181153 METAR KCLM 181153Z AUTO 11016G31KT 10SM FEW120 06/M03 A2932 RMK AO2 PK WND 10031/1145 PRESFR SLP928 T00561033 10056 20022 57047=
201012181053 METAR KCLM 181053Z AUTO 12010KT 10SM CLR 04/M02 A2936 RMK AO2 SLP944 T00441022=
201012180953 METAR KCLM 180953Z AUTO 11013G20KT 10SM SCT120 04/M02 A2941 RMK AO2 SLP960 T00441022=
201012180853 METAR KCLM 180853Z AUTO 13012G23KT 10SM CLR 04/M02 A2945 RMK AO2 SLP975 T00441022 56048=
201012180753 METAR KCLM 180753Z AUTO 11008KT 10SM CLR 03/M03 A2950 RMK AO2 SLP990 T00281033 400671022=
201012180653 METAR KCLM 180653Z AUTO 14006KT 10SM CLR 03/M03 A2955 RMK AO2 SLP010 T00281028=
201012180553 METAR KCLM 180553Z AUTO VRB06KT 10SM CLR 02/M03 A2960 RMK AO2 SLP025 T00221033 10044 21011 58027=
201012180453 METAR KCLM 180453Z AUTO 15005KT 10SM CLR 02/M02 A2963 RMK AO2 SLP035 T00221022=
201012180353 METAR KCLM 180353Z AUTO 12004KT 10SM CLR 01/M02 A2966 RMK AO2 SLP047 T00111017=
201012180253 METAR KCLM 180253Z AUTO 22005KT 10SM CLR 00/M01 A2968 RMK AO2 SLP053 T00001006 58024=
201012180153 METAR KCLM 180153Z AUTO 00000KT 10SM CLR 01/M01 A2971 RMK AO2 SLP065 T00061006=
201012180053 METAR KCLM 180053Z AUTO 00000KT 10SM CLR 02/01 A2974 RMK AO2 SLP073 T00170006=
201012172353 METAR KCLM 172353Z AUTO 23004KT 10SM CLR 04/02 A2975 RMK AO2 SLP077 T00390017 10067 20006 58009=
201012172253 METAR KCLM 172253Z AUTO 00000KT 10SM FEW100 06/02 A2976 RMK AO2 SLP080 T00560017=
201012172153 METAR KCLM 172153Z AUTO 00000KT 10SM CLR 07/00 A2977 RMK AO2 SLP084 T00670000=
201012172053 METAR KCLM 172053Z AUTO 00000KT 10SM CLR 07/02 A2978 RMK AO2 SLP087 T00670017 58019=
201012171953 METAR KCLM 171953Z AUTO 00000KT 10SM BKN110 07/02 A2981 RMK AO2 SLP096 T00670017 $=
201012171853 METAR KCLM 171853Z AUTO 00000KT 10SM FEW100 03/01 A2983 RMK AO2 SLP103 T00280011 $=
201012171753 METAR KCLM 171753Z AUTO 00000KT 10SM CLR 01/M01 A2984 RMK AO2 SLP106 T00061006 10006 21022 56002 $=
201012171653 METAR KCLM 171653Z AUTO 20003KT 10SM CLR M01/M02 A2984 RMK AO2 SLP107 T10061017=
201012171553 METAR KCLM 171553Z AUTO 10SM FEW100 SCT110 M01/M02 A2984 RMK AO2 SLP106 T10111022=
201012171453 METAR KCLM 171453Z AUTO 00000KT 10SM BKN100 M02/M02 A2984 RMK AO2 SLP108 T10171022 56007 $=
201012171353 METAR KCLM 171353Z AUTO 21003KT 10SM CLR M01/M02 A2985 RMK AO2 SLP110 T10061017=
201012171253 METAR KCLM 171253Z AUTO 20003KT 10SM OVC110 M01/M01 A2986 RMK AO2 SLP113 T10061011=
201012171153 METAR KCLM 171153Z AUTO 00000KT 10SM FEW090 OVC120 M01/M02 A2987 RMK AO2 SLP116 7//// T10111017 10006 21017 50001=
201012171053 METAR KCLM 171053Z AUTO 24003KT 10SM FEW085 M01/M02 A2987 RMK AO2 SLP118 T10111017=
201012170953 METAR KCLM 170953Z AUTO 20003KT 10SM CLR 01/M01 A2986 RMK AO2 SLP115 T00061006=
201012170853 METAR KCLM 170853Z AUTO 23004KT 10SM FEW090 00/M01 A2986 RMK AO2 SLP114 T00001011 58001=
201012170753 METAR KCLM 170753Z AUTO 00000KT 10SM CLR 00/M01 A2986 RMK AO2 SLP115 T00001011 400671022=
201012170653 METAR KCLM 170653Z AUTO 21003KT 10SM CLR 00/M01 A2986 RMK AO2 SLP115 T00001006=
201012170553 METAR KCLM 170553Z AUTO 00000KT 10SM CLR 01/M01 A2986 RMK AO2 SLP115 T00061006 10044 20000 56006=
201012170453 METAR KCLM 170453Z AUTO 00000KT 10SM OVC120 01/01 A2987 RMK AO2 SLP116 T00110006=
201012170353 METAR KCLM 170353Z AUTO 20003KT 10SM BKN120 02/01 A2987 RMK AO2 SLP118 T00170011=
201012170253 METAR KCLM 170253Z AUTO 22003KT 10SM FEW120 02/01 A2988 RMK AO2 SLP121 T00170011 56009=
201012170153 METAR KCLM 170153Z AUTO 00000KT 10SM CLR 03/02 A2989 RMK AO2 SLP125 T00280017=
201012170053 METAR KCLM 170053Z AUTO 00000KT 10SM FEW080 BKN110 03/02 A2990 RMK AO2 SLP126 T00330022=
201012162353 METAR KCLM 162353Z AUTO 00000KT 10SM CLR 05/03 A2991 RMK AO2 SLP131 T00500028 10067 20011 55004=
201012162253 METAR KCLM 162253Z AUTO 00000KT 10SM BKN110 06/03 A2990 RMK AO2 SLP129 T00560028=
201012162153 METAR KCLM 162153Z AUTO 00000KT 10SM SCT120 06/02 A2991 RMK AO2 SLP132 T00610017=
201012162053 METAR KCLM 162053Z AUTO 30005KT 10SM CLR 06/02 A2992 RMK AO2 SLP135 T00610022 58010=
201012161953 SPECI KCLM 161953Z AUTO 26003KT 10SM BKN110 05/02 A2994 RMK AO2 SLP141 T00500022=
201012161853 METAR KCLM 161853Z AUTO 10SM CLR 04/02 A2995 RMK AO2 SLP144 T00390022 $=
201012161753 METAR KCLM 161753Z AUTO 10SM FEW100 BKN120 01/01 A2995 RMK AO2 SLP146 6//// T00110006 10017 21017 58004 $=
201012161653 METAR KCLM 161653Z AUTO 00000KT 10SM FEW080 OVC110 00/M01 A2996 RMK AO2 SLP149 T00001006 $=
201012161553 METAR KCLM 161553Z AUTO 00000KT 10SM FEW085 OVC110 M01/M01 A2996 RMK AO2 SLP149 T10061011 $=
201012161453 METAR KCLM 161453Z AUTO 00000KT 10SM FEW013 BKN090 OVC110 00/M01 A2997 RMK AO2 SLP150 6//// T00001006=
201012161446 SPECI KCLM 161446Z AUTO 00000KT 10SM SCT013 BKN085 OVC110 M01/M01 A2997 RMK AO2=
201012161446 SPECI KCLM 161446Z AUTO 00000KT 10SM SCT013 BKN085 OVC110 M01/M01 A2997 RMK AO2=
201012161407 SPECI KCLM 161407Z AUTO 00000KT 10SM BKN013 OVC090 00/M01 A2997 RMK AO2 $=
201012161407 SPECI KCLM 161407Z AUTO 00000KT 10SM BKN013 OVC090 00/M01 A2997 RMK AO2 $=
201012161353 METAR KCLM 161353Z AUTO 00000KT 10SM FEW013 OVC090 M01/M01 A2997 RMK AO2 SLP153 T10061011 $=
201012161253 METAR KCLM 161253Z AUTO 23006KT 10SM M01/M02 A2997 RMK AO2 SLP153 T10061017 $=
201012161153 METAR KCLM 161153Z AUTO 00000KT 10SM CLR M01/M02 A2998 RMK AO2 SLP153 T10111022 10017 21022 50004 $=
201012161053 METAR KCLM 161053Z AUTO 00000KT 10SM CLR M01/M02 A2998 RMK AO2 SLP155 T10111017 $=
201012160953 METAR KCLM 160953Z AUTO 23005KT 10SM CLR M01/M01 A2997 RMK AO2 SLP152 T10061011 $=
201012160853 METAR KCLM 160853Z AUTO 23005KT 9SM CLR M01/M01 A2996 RMK AO2 SLP149 T10061011 51014 $=
201012160753 METAR KCLM 160753Z AUTO 24006KT 10SM CLR 00/M01 A2996 RMK AO2 SLP147 T00001006 400671011=
201012160653 METAR KCLM 160653Z AUTO 00000KT 10SM BKN060 01/00 A2994 RMK AO2 SLP142 T00060000=
201012160553 METAR KCLM 160553Z AUTO 23003KT 10SM BKN060 02/01 A2992 RMK AO2 SLP135 60000 T00170006 10056 20000 52014=
201012160453 METAR KCLM 160453Z AUTO 16003KT 10SM SCT065 01/00 A2991 RMK AO2 SLP130 T00110000=
201012160353 METAR KCLM 160353Z AUTO 22003KT 10SM BKN065 02/01 A2990 RMK AO2 SLP126 T00220006=
201012160253 METAR KCLM 160253Z AUTO 00000KT 10SM SCT085 OVC100 02/01 A2988 RMK AO2 SLP121 60000 T00220011 53008=
201012160153 METAR KCLM 160153Z AUTO 23003KT 10SM OVC095 03/02 A2986 RMK AO2 RAE09 SLP115 P0000 T00280017=
201012160053 METAR KCLM 160053Z AUTO 29008KT 10SM -RA OVC030 05/02 A2986 RMK AO2 RAB38 SLP115 P0000 T00500022=
201012152353 METAR KCLM 152353Z AUTO 00000KT 10SM BKN060 BKN075 OVC100 05/03 A2986 RMK AO2 SLP113 T00500028 10067 20011 50000=
201012152253 METAR KCLM 152253Z AUTO 00000KT 10SM SCT060 BKN080 05/03 A2986 RMK AO2 SLP112 T00500028=
201012152153 METAR KCLM 152153Z AUTO 00000KT 10SM OVC075 06/03 A2986 RMK AO2 SLP112 T00560028=
201012152053 METAR KCLM 152053Z AUTO 00000KT 10SM SCT075 06/03 A2986 RMK AO2 SLP112 T00610028 58002=
201012151953 SPECI KCLM 151953Z AUTO 00000KT 10SM FEW070 SCT085 06/02 A2986 RMK AO2 SLP114 T00560022=
201012151853 METAR KCLM 151853Z AUTO 00000KT 10SM CLR 04/02 A2987 RMK AO2 SLP117 T00390022=
201012151753 METAR KCLM 151753Z AUTO 00000KT 10SM CLR 02/01 A2986 RMK AO2 SLP114 T00170006 10033 20000 53014=
201012151653 METAR KCLM 151653Z AUTO 23003KT 10SM SCT065 SCT100 01/M01 A2985 RMK AO2 SLP110 T00061006=
201012151553 METAR KCLM 151553Z AUTO 00000KT 10SM BKN060 01/M01 A2983 RMK AO2 SLP104 T00061006=
201012151453 METAR KCLM 151453Z AUTO 19003KT 10SM BKN065 00/M01 A2982 RMK AO2 SLP101 T00001011 53008=
201012151353 METAR KCLM 151353Z AUTO 00000KT 10SM FEW060 BKN100 02/00 A2981 RMK AO2 SLP097 T00220000=
201012151253 METAR KCLM 151253Z AUTO 00000KT 10SM SCT070 02/M01 A2980 RMK AO2 SLP093 T00171006=
201012151153 METAR KCLM 151153Z AUTO 15003KT 10SM FEW065 BKN095 BKN120 01/00 A2980 RMK AO2 SLP092 70016 T00110000 10033 20011 51013=
201012151053 METAR KCLM 151053Z AUTO VRB03KT 10SM FEW060 SCT080 OVC100 02/01 A2979 RMK AO2 SLP089 T00220006=
201012150953 METAR KCLM 150953Z AUTO 23004KT 10SM FEW060 BKN090 OVC110 02/00 A2977 RMK AO2 SLP083 T00220000=
201012150853 METAR KCLM 150853Z AUTO 23007KT 10SM BKN080 OVC095 02/01 A2976 RMK AO2 SLP079 T00220006 51017=
201012150753 METAR KCLM 150753Z AUTO 24007KT 10SM FEW065 SCT110 02/01 A2975 RMK AO2 SLP077 T00220006 400830011=
201012150653 METAR KCLM 150653Z AUTO 23005KT 10SM FEW049 SCT065 OVC090 02/01 A2974 RMK AO2 SLP073 T00220006=
201012150553 METAR KCLM 150553Z AUTO 23004KT 10SM SCT048 SCT070 02/01 A2971 RMK AO2 SLP062 60005 T00170006 10044 20011 53019=
201012150453 METAR KCLM 150453Z AUTO 22003KT 10SM SCT060 BKN080 OVC090 02/01 A2969 RMK AO2 SLP056 T00220011=
201012150353 METAR KCLM 150353Z AUTO 20004KT 10SM BKN075 BKN085 02/01 A2966 RMK AO2 RAB0259E08 SLP047 P0000 T00220006=
201012150253 METAR KCLM 150253Z AUTO 00000KT 10SM BKN050 OVC060 03/01 A2965 RMK AO2 SLP042 60005 T00280006 53015=
201012150153 METAR KCLM 150153Z AUTO 15003KT 10SM FEW090 02/01 A2962 RMK AO2 SLP032 T00220006=
201012150053 METAR KCLM 150053Z AUTO 25010KT 10SM CLR 02/01 A2960 RMK AO2 RAE38 SLP027 P0005 T00220006=
201012150042 SPECI KCLM 150042Z AUTO 28007KT 10SM SCT018 02/01 A2960 RMK AO2 RAE38 P0005=
201012150042 SPECI KCLM 150042Z AUTO 28007KT 10SM SCT018 02/01 A2960 RMK AO2 RAE38 P0005=
201012150010 SPECI KCLM 150010Z AUTO 25011KT 5SM RA BKN022 OVC039 04/01 A2962 RMK AO2 P0003=
201012150010 SPECI KCLM 150010Z AUTO 25011KT 5SM RA BKN022 OVC039 04/01 A2962 RMK AO2 P0003=
201012142353 METAR KCLM 142353Z AUTO 24009KT 10SM -RA BKN040 OVC060 04/01 A2960 RMK AO2 RAB49 PRESRR SLP026 P0000 60006 T00440011 10050 20028 53036=
201012142253 METAR KCLM 142253Z AUTO 23007KT 10SM FEW055 04/01 A2956 RMK AO2 RAB2155E36 SLP011 P0001 T00390011=
201012142239 SPECI KCLM 142239Z AUTO 20005KT 10SM FEW028 04/02 A2956 RMK AO2 RAB2155E36 P0001=
201012142239 SPECI KCLM 142239Z AUTO 20005KT 10SM FEW028 04/02 A2956 RMK AO2 RAB2155E36 P0001=
201012142215 SPECI KCLM 142215Z AUTO 26008G15KT 8SM -RA BKN028 OVC038 04/02 A2955 RMK AO2 RAB2155 P0001=
201012142215 SPECI KCLM 142215Z AUTO 26008G15KT 8SM -RA BKN028 OVC038 04/02 A2955 RMK AO2 RAB2155 P0001=
201012142153 METAR KCLM 142153Z AUTO 26009KT 10SM OVC036 04/02 A2954 RMK AO2 RAE11B28E51 SLP005 P0000 T00440022=
201012142053 METAR KCLM 142053Z AUTO 25006KT 10SM -RA FEW008 BKN032 03/02 A2950 RMK AO2 PK WND 27036/2010 WSHFT 2006 SLP990 P0001 60005 T00330022 51032=
201012142049 SPECI KCLM 142049Z AUTO 27007KT 10SM -RA SCT008 OVC028 03/02 A2949 RMK AO2 PK WND 27036/2010 WSHFT 2006 P0001=
201012142049 SPECI KCLM 142049Z AUTO 27007KT 10SM -RA SCT008 OVC028 03/02 A2949 RMK AO2 PK WND 27036/2010 WSHFT 2006 P0001=
201012142026 SPECI KCLM 142026Z AUTO 31013G23KT 10SM -RA BKN008 BKN016 OVC025 03/02 A2948 RMK AO2 PK WND 27036/2010 WSHFT 2006 PRESRR P0001=
201012142026 SPECI KCLM 142026Z AUTO 31013G23KT 10SM -RA BKN008 BKN016 OVC025 03/02 A2948 RMK AO2 PK WND 27036/2010 WSHFT 2006 PRESRR P0001=
201012142013 SPECI KCLM 142013Z AUTO 30018G36KT 7SM -RA FEW008 BKN029 OVC040 04/02 A2945 RMK AO2 PK WND 27036/2010 PRESRR P0000=
201012142013 SPECI KCLM 142013Z AUTO 30018G36KT 7SM -RA FEW008 BKN029 OVC040 04/02 A2945 RMK AO2 PK WND 27036/2010 PRESRR P0000=
201012142009 SPECI KCLM 142009Z AUTO 28022G33KT 9SM -RA FEW017 BKN032 OVC040 05/02 A2945 RMK AO2 PK WND 27033/2009 PRESRR P0000=
201012142009 SPECI KCLM 142009Z AUTO 28022G33KT 9SM -RA FEW017 BKN032 OVC040 05/02 A2945 RMK AO2 PK WND 27033/2009 PRESRR P0000=
201012141953 METAR KCLM 141953Z AUTO 24006KT 10SM -RA FEW016 BKN026 OVC039 04/03 A2942 RMK AO2 SLP963 P0002 T00440028=
201012141853 METAR KCLM 141853Z AUTO 14006KT 10SM -RA OVC022 04/02 A2940 RMK AO2 SLP958 P0002 T00390022=
201012141753 METAR KCLM 141753Z AUTO 00000KT 10SM -RA OVC026 03/03 A2943 RMK AO2 RAB27 SLP968 P0000 60005 T00330028 10061 20022 50010=
201012141750 SPECI KCLM 141750Z AUTO 23003KT 10SM -RA OVC026 03/03 A2943 RMK AO2 RAB27 P0000=
201012141750 SPECI KCLM 141750Z AUTO 23003KT 10SM -RA OVC026 03/03 A2943 RMK AO2 RAB27 P0000=
201012141653 METAR KCLM 141653Z AUTO 00000KT 10SM BKN070 02/02 A2941 RMK AO2 RAE04 SLP960 P0000 T00220017=
201012141553 METAR KCLM 141553Z AUTO 14003KT 10SM -RA BKN039 BKN048 OVC055 03/02 A2940 RMK AO2 SLP958 P0000 T00280022=
201012141507 SPECI KCLM 141507Z AUTO 30005KT 10SM -RA OVC036 03/02 A2939 RMK AO2 P0000=
201012141507 SPECI KCLM 141507Z AUTO 30005KT 10SM -RA OVC036 03/02 A2939 RMK AO2 P0000=
201012141453 METAR KCLM 141453Z AUTO 27005KT 10SM -RA BKN025 BKN035 OVC042 04/02 A2939 RMK AO2 SLP955 P0005 60005 T00390017 58002=
201012141402 SPECI KCLM 141402Z AUTO 25004KT 7SM RA OVC025 05/02 A2941 RMK AO2 P0001=
201012141402 SPECI KCLM 141402Z AUTO 25004KT 7SM RA OVC025 05/02 A2941 RMK AO2 P0001=
201012141353 METAR KCLM 141353Z AUTO 26005KT 10SM -RA BKN031 OVC049 05/02 A2941 RMK AO2 RAB34 SLP960 P0000 T00500017=
201012141253 METAR KCLM 141253Z AUTO 00000KT 10SM FEW023 SCT028 BKN047 04/02 A2939 RMK AO2 RAB09E18 SLP954 P0000 T00390017=
201012141153 METAR KCLM 141153Z AUTO 12005KT 10SM SCT065 05/00 A2940 RMK AO2 SLP957 60023 70023 T00500000 10083 20050 53014=
201012141053 METAR KCLM 141053Z AUTO 23007G14KT 10SM CLR 06/01 A2937 RMK AO2 SLP948 T00610011=
201012140953 METAR KCLM 140953Z AUTO 25011G17KT 10SM CLR 06/03 A2935 RMK AO2 RAE38 SLP939 P0000 T00610028=
201012140904 SPECI KCLM 140904Z AUTO 30008KT 10SM -RA BKN030 OVC038 07/06 A2935 RMK AO2 P0000=
201012140904 SPECI KCLM 140904Z AUTO 30008KT 10SM -RA BKN030 OVC038 07/06 A2935 RMK AO2 P0000=
201012140853 METAR KCLM 140853Z AUTO 30005KT 6SM -RA BR BKN028 OVC034 07/06 A2936 RMK AO2 SLP943 P0016 60023 T00720061 55009=
201012140820 SPECI KCLM 140820Z AUTO 27006G15KT 5SM RA BR BKN026 BKN031 OVC042 08/06 A2934 RMK AO2 P0009=
201012140820 SPECI KCLM 140820Z AUTO 27006G15KT 5SM RA BR BKN026 BKN031 OVC042 08/06 A2934 RMK AO2 P0009=
201012140753 METAR KCLM 140753Z AUTO 25009KT 4SM RA BR BKN037 OVC044 07/06 A2931 RMK AO2 SLP925 P0007 T00720061 401000044=
201012140653 METAR KCLM 140653Z AUTO 23003KT 10SM -RA OVC060 06/05 A2934 RMK AO2 RAB38 SLP935 P0000 T00610050=
201012140553 METAR KCLM 140553Z AUTO 00000KT 10SM BKN060 06/04 A2938 RMK AO2 RAB28E51 SLP952 P0000 60000 T00610044 10083 20056 58063=
201012140453 METAR KCLM 140453Z AUTO 00000KT 10SM BKN065 BKN080 07/04 A2944 RMK AO2 SLP972 T00720044=
201012140353 METAR KCLM 140353Z AUTO 00000KT 10SM BKN065 06/06 A2952 RMK AO2 SLP998 T00610056=
201012140253 METAR KCLM 140253Z AUTO 00000KT 8SM FEW004 SCT060 BKN075 07/06 A2957 RMK AO2 SLP016 T00670061 56030=
201012140153 METAR KCLM 140153Z AUTO 00000KT 9SM OVC070 07/06 A2962 RMK AO2 SLP030 T00670061=
201012140053 METAR KCLM 140053Z AUTO 10004KT 10SM BKN065 OVC090 07/06 A2966 RMK AO2 PRESFR SLP047 T00720061=
201012132353 METAR KCLM 132353Z AUTO 00000KT 10SM OVC070 08/07 A2971 RMK AO2 SLP064 T00780067 10100 20078 56039=
201012132253 METAR KCLM 132253Z AUTO 30003KT 10SM SCT070 08/07 A2975 RMK AO2 SLP074 T00830072=
201012132203 SPECI KCLM 132203Z AUTO 00000KT 10SM FEW007 SCT070 09/07 A2977 RMK AO2 PRESFR=
201012132203 SPECI KCLM 132203Z AUTO 00000KT 10SM FEW007 SCT070 09/07 A2977 RMK AO2 PRESFR=
201012132153 METAR KCLM 132153Z AUTO 30004KT 10SM BKN005 BKN075 09/07 A2978 RMK AO2 CIG 005V008 SLP087 T00890072=
201012132122 SPECI KCLM 132122Z AUTO 00000KT 10SM OVC005 09/07 A2981 RMK AO2 CIG 002V007=
201012132122 SPECI KCLM 132122Z AUTO 00000KT 10SM OVC005 09/07 A2981 RMK AO2 CIG 002V007=
201012132053 METAR KCLM 132053Z AUTO 00000KT 10SM OVC003 08/07 A2983 RMK AO2 SLP102 T00830072 58033=
201012132023 SPECI KCLM 132023Z AUTO 00000KT 10SM BKN003 BKN075 08/07 A2985 RMK AO2=
201012132023 SPECI KCLM 132023Z AUTO 00000KT 10SM BKN003 BKN075 08/07 A2985 RMK AO2=
201012131953 METAR KCLM 131953Z AUTO VRB03KT 10SM FEW006 09/07 A2987 RMK AO2 SLP114 T00940067 TSNO=
201012131853 METAR KCLM 131853Z AUTO 04004KT 10SM BKN080 10/07 A2989 RMK AO2 SLP123 T01000067=
201012131753 METAR KCLM 131753Z AUTO 24005KT 10SM OVC070 09/06 A2993 RMK AO2 SLP135 T00890061 10089 20044 58009=
201012131653 METAR KCLM 131653Z AUTO 22003KT 10SM OVC070 07/06 A2994 RMK AO2 SLP140 T00670061=
201012131553 METAR KCLM 131553Z AUTO 23003KT 10SM OVC075 06/05 A2995 RMK AO2 SLP144 T00560050 TSNO=
201012131453 METAR KCLM 131453Z AUTO 23003KT 10SM OVC080 05/04 A2995 RMK AO2 SLP145 T00500044 57006=
201012131353 METAR KCLM 131353Z AUTO 00000KT 10SM OVC085 06/05 A2996 RMK AO2 SLP147 T00610050=
201012131253 METAR KCLM 131253Z AUTO 23006KT 10SM OVC080 07/06 A2997 RMK AO2 SLP149 T00670056=
201012131217 SPECI KCLM 131217Z AUTO 24004KT 10SM SCT019 SCT080 06/06 A2997 RMK AO2=
201012131217 SPECI KCLM 131217Z AUTO 24004KT 10SM SCT019 SCT080 06/06 A2997 RMK AO2=
201012131153 METAR KCLM 131153Z AUTO 25004KT 10SM BKN015 07/06 A2997 RMK AO2 SLP151 60001 70079 T00720061 10094 20072 50004=
201012131126 SPECI KCLM 131126Z AUTO 00000KT 10SM BKN015 08/08 A2997 RMK AO2=
201012131126 SPECI KCLM 131126Z AUTO 00000KT 10SM BKN015 08/08 A2997 RMK AO2=
201012131117 SPECI KCLM 131117Z AUTO 24003KT 2SM BR SCT017 BKN023 08/07 A2997 RMK AO2 VIS 1/2V5=
201012131117 SPECI KCLM 131117Z AUTO 24003KT 2SM BR SCT017 BKN023 08/07 A2997 RMK AO2 VIS 1/2V5=
201012131110 SPECI KCLM 131110Z AUTO 26005KT 2SM BR SCT017 SCT025 08/07 A2997 RMK AO2 VIS 1/2V5=
201012131110 SPECI KCLM 131110Z AUTO 26005KT 2SM BR SCT017 SCT025 08/07 A2997 RMK AO2 VIS 1/2V5=
201012131053 METAR KCLM 131053Z AUTO 22003KT 10SM OVC019 09/08 A2998 RMK AO2 RAB33E47 SLP151 P0000 T00890078=
201012131016 SPECI KCLM 131016Z AUTO 00000KT 10SM OVC015 09/08 A2998 RMK AO2=
201012131016 SPECI KCLM 131016Z AUTO 00000KT 10SM OVC015 09/08 A2998 RMK AO2=
201012130953 METAR KCLM 130953Z AUTO 00000KT 10SM BKN013 OVC021 09/08 A2997 RMK AO2 SLP151 T00890078=
201012130901 SPECI KCLM 130901Z AUTO 23003KT 10SM BKN013 OVC020 08/08 A2996 RMK AO2=
201012130901 SPECI KCLM 130901Z AUTO 23003KT 10SM BKN013 OVC020 08/08 A2996 RMK AO2=
201012130853 METAR KCLM 130853Z AUTO 00000KT 10SM SCT013 BKN020 09/08 A2996 RMK AO2 SLP146 60001 T00890078 58000=
201012130846 SPECI KCLM 130846Z AUTO 24003KT 10SM FEW010 SCT016 BKN020 08/08 A2996 RMK AO2=
201012130846 SPECI KCLM 130846Z AUTO 24003KT 10SM FEW010 SCT016 BKN020 08/08 A2996 RMK AO2=
201012130836 SPECI KCLM 130836Z AUTO 27004KT 10SM SCT005 BKN014 OVC020 08/08 A2996 RMK AO2=
201012130836 SPECI KCLM 130836Z AUTO 27004KT 10SM SCT005 BKN014 OVC020 08/08 A2996 RMK AO2=
201012130753 METAR KCLM 130753Z AUTO 00000KT 10SM OVC005 09/08 A2996 RMK AO2 RAE02 CIG 003V010 SLP147 P0000 T00890083 401170056=
201012130719 SPECI KCLM 130719Z AUTO 27004KT 10SM BKN005 OVC009 09/09 A2997 RMK AO2 RAE02 CIG 001V006 P0000=
201012130719 SPECI KCLM 130719Z AUTO 27004KT 10SM BKN005 OVC009 09/09 A2997 RMK AO2 RAE02 CIG 001V006 P0000=
201012130703 SPECI KCLM 130703Z AUTO 28003KT 10SM BKN003 BKN007 OVC014 09/09 A2997 RMK AO2 RAE02 CIG 001V006 P0000=
201012130703 SPECI KCLM 130703Z AUTO 28003KT 10SM BKN003 BKN007 OVC014 09/09 A2997 RMK AO2 RAE02 CIG 001V006 P0000=
201012130700 METAR KCLM NIL=
201012130653 METAR KCLM 130653Z AUTO 31003KT 8SM -RA FEW003 OVC014 09/09 A2997 RMK AO2 SLP148 P0001 T00940089=
201012130637 SPECI KCLM 130637Z AUTO 28004KT 10SM FEW008 BKN014 OVC047 09/08 A2997 RMK AO2 RAE32 P0001=
201012130637 SPECI KCLM 130637Z AUTO 28004KT 10SM FEW008 BKN014 OVC047 09/08 A2997 RMK AO2 RAE32 P0001=
201012130600 METAR KCLM NIL=
201012130500 METAR KCLM NIL=
201012130400 METAR KCLM NIL=
201012130322 SPECI KCLM 130322Z AUTO 31007KT 10SM -RA OVC002 10/09 A2996 RMK AO2 P0000=
201012130322 SPECI KCLM 130322Z AUTO 31007KT 10SM -RA OVC002 10/09 A2996 RMK AO2 P0000=
201012130315 SPECI KCLM 130315Z AUTO 32005KT 2 1/2SM -RA BR BKN002 BKN008 OVC070 10/09 A2995 RMK AO2 P0000=
201012130315 SPECI KCLM 130315Z AUTO 32005KT 2 1/2SM -RA BR BKN002 BKN008 OVC070 10/09 A2995 RMK AO2 P0000=
201012130311 SPECI KCLM 130311Z AUTO 33006KT 1SM -RA BR SCT002 BKN006 OVC070 10/09 A2995 RMK AO2 P0000=
201012130311 SPECI KCLM 130311Z AUTO 33006KT 1SM -RA BR SCT002 BKN006 OVC070 10/09 A2995 RMK AO2 P0000=
201012130307 SPECI KCLM 130307Z AUTO 34005KT 1/2SM -RA FG SCT002 BKN007 OVC090 10/09 A2995 RMK AO2 P0000=
201012130307 SPECI KCLM 130307Z AUTO 34005KT 1/2SM -RA FG SCT002 BKN007 OVC090 10/09 A2995 RMK AO2 P0000=
201012130301 SPECI KCLM 130301Z AUTO 02004KT 1 1/4SM -RA BR SCT002 BKN013 OVC090 10/09 A2995 RMK AO2 VIS 1/2V5 P0000=
201012130301 SPECI KCLM 130301Z AUTO 02004KT 1 1/4SM -RA BR SCT002 BKN013 OVC090 10/09 A2995 RMK AO2 VIS 1/2V5 P0000=
201012130259 SPECI KCLM 130259Z AUTO 04005KT 2SM BR SCT002 BKN018 OVC090 10/09 A2995 RMK AO2 VIS 1/2V5 RAE56 P0000=
201012130259 SPECI KCLM 130259Z AUTO 04005KT 2SM BR SCT002 BKN018 OVC090 10/09 A2995 RMK AO2 VIS 1/2V5 RAE56 P0000=
201012130253 METAR KCLM 130253Z AUTO 01004KT 5SM -RA BR FEW002 BKN070 OVC090 09/09 A2995 RMK AO2 SLP141 P0005 60008 T00940089 52004=
201012130241 SPECI KCLM 130241Z AUTO 00000KT 5SM -RA BR SCT002 BKN018 OVC090 10/09 A2994 RMK AO2 P0005=
201012130241 SPECI KCLM 130241Z AUTO 00000KT 5SM -RA BR SCT002 BKN018 OVC090 10/09 A2994 RMK AO2 P0005=
201012130159 SPECI KCLM 130159Z AUTO 00000KT 3SM BR BKN004 BKN042 OVC080 10/09 A2995 RMK AO2 RAE59 P0000=
201012130159 SPECI KCLM 130159Z AUTO 00000KT 3SM BR BKN004 BKN042 OVC080 10/09 A2995 RMK AO2 RAE59 P0000=
201012130153 METAR KCLM 130153Z AUTO 00000KT 1SM -RA BR SCT004 BKN044 OVC080 09/09 A2994 RMK AO2 SLP140 P0003 T00940089=
201012130145 SPECI KCLM 130145Z AUTO 00000KT 1 3/4SM -RA BR BKN039 BKN060 OVC080 10/09 A2994 RMK AO2 P0003=
201012130145 SPECI KCLM 130145Z AUTO 00000KT 1 3/4SM -RA BR BKN039 BKN060 OVC080 10/09 A2994 RMK AO2 P0003=
201012130119 SPECI KCLM 130119Z AUTO 00000KT 6SM RA BR FEW004 SCT030 OVC060 10/09 A2994 RMK AO2 P0001=
201012130119 SPECI KCLM 130119Z AUTO 00000KT 6SM RA BR FEW004 SCT030 OVC060 10/09 A2994 RMK AO2 P0001=
201012130105 SPECI KCLM 130105Z AUTO 30003KT 10SM -RA SCT014 OVC060 10/09 A2994 RMK AO2 P0000=
201012130105 SPECI KCLM 130105Z AUTO 30003KT 10SM -RA SCT014 OVC060 10/09 A2994 RMK AO2 P0000=
201012130053 METAR KCLM 130053Z AUTO 00000KT 10SM -RA SCT010 BKN015 OVC055 10/09 A2994 RMK AO2 SLP139 P0000 T01000094=
201012130031 SPECI KCLM 130031Z AUTO 32003KT 10SM -RA BKN011 OVC055 11/09 A2994 RMK AO2 P0000=
201012130031 SPECI KCLM 130031Z AUTO 32003KT 10SM -RA BKN011 OVC055 11/09 A2994 RMK AO2 P0000=
201012122353 METAR KCLM 122353Z AUTO 28009KT 10SM -RA FEW005 BKN044 OVC060 11/09 A2994 RMK AO2 SLP138 P0000 60003 T01060094 10117 20094 53013=
201012122335 SPECI KCLM 122335Z AUTO 28010KT 10SM -RA SCT005 BKN042 OVC060 11/10 A2993 RMK AO2 P0000=
201012122335 SPECI KCLM 122335Z AUTO 28010KT 10SM -RA SCT005 BKN042 OVC060 11/10 A2993 RMK AO2 P0000=
201012122327 SPECI KCLM 122327Z AUTO 29010KT 10SM -RA SCT003 BKN007 OVC055 11/10 A2993 RMK AO2 P0000=
201012122327 SPECI KCLM 122327Z AUTO 29010KT 10SM -RA SCT003 BKN007 OVC055 11/10 A2993 RMK AO2 P0000=
201012122320 SPECI KCLM 122320Z AUTO 29008KT 10SM -RA SCT003 BKN049 OVC060 11/10 A2993 RMK AO2 P0000=
201012122320 SPECI KCLM 122320Z AUTO 29008KT 10SM -RA SCT003 BKN049 OVC060 11/10 A2993 RMK AO2 P0000=
201012122307 SPECI KCLM 122307Z AUTO 29009KT 10SM -RA BKN003 BKN049 OVC060 11/10 A2992 RMK AO2 P0000=
201012122307 SPECI KCLM 122307Z AUTO 29009KT 10SM -RA BKN003 BKN049 OVC060 11/10 A2992 RMK AO2 P0000=
201012122253 METAR KCLM 122253Z AUTO 28009KT 10SM -RA FEW007 BKN045 OVC060 11/10 A2992 RMK AO2 SLP132 P0000 T01110100=
201012122203 SPECI KCLM 122203Z AUTO 30005KT 10SM -RA SCT002 BKN031 OVC065 11/11 A2990 RMK AO2 P0000=
201012122203 SPECI KCLM 122203Z AUTO 30005KT 10SM -RA SCT002 BKN031 OVC065 11/11 A2990 RMK AO2 P0000=
201012122153 METAR KCLM 122153Z AUTO 29006KT 8SM -RA BKN002 BKN033 OVC065 11/11 A2990 RMK AO2 SLP125 P0002 T01110106=
201012122101 SPECI KCLM 122101Z AUTO 28006KT 10SM -RA BKN004 BKN031 OVC050 11/11 A2990 RMK AO2 P0000=
201012122101 SPECI KCLM 122101Z AUTO 28006KT 10SM -RA BKN004 BKN031 OVC050 11/11 A2990 RMK AO2 P0000=
201012122053 METAR KCLM 122053Z AUTO 29005KT 10SM -RA SCT004 BKN036 OVC055 11/11 A2990 RMK AO2 RAB18 SLP124 P0000 60001 T01110106 53013=
201012122039 SPECI KCLM 122039Z AUTO 29007KT 10SM -RA FEW006 BKN036 OVC070 12/11 A2990 RMK AO2 RAB18 P0000=
201012122039 SPECI KCLM 122039Z AUTO 29007KT 10SM -RA FEW006 BKN036 OVC070 12/11 A2990 RMK AO2 RAB18 P0000=
201012121953 METAR KCLM 121953Z AUTO 27011KT 10SM OVC070 11/09 A2988 RMK AO2 SLP119 T01060094=
201012121853 METAR KCLM 121853Z AUTO 01006KT 10SM OVC070 11/10 A2986 RMK AO2 RAE32 SLP113 P0001 T01060100=
201012121753 METAR KCLM 121753Z AUTO 14004KT 4SM -RA BR SCT040 OVC060 09/08 A2986 RMK AO2 SLP112 P0008 60066 T00940083 10094 20061 53028=
201012121733 SPECI KCLM 121733Z AUTO 00000KT 3SM RA BR FEW002 BKN034 OVC060 09/08 A2986 RMK AO2 P0006=
201012121733 SPECI KCLM 121733Z AUTO 00000KT 3SM RA BR FEW002 BKN034 OVC060 09/08 A2986 RMK AO2 P0006=
201012121724 SPECI KCLM 121724Z AUTO 00000KT 2SM RA BR FEW002 BKN030 OVC060 09/08 A2984 RMK AO2 P0005=
201012121724 SPECI KCLM 121724Z AUTO 00000KT 2SM RA BR FEW002 BKN030 OVC060 09/08 A2984 RMK AO2 P0005=
201012121711 SPECI KCLM 121711Z AUTO 00000KT 1 1/2SM RA BR FEW002 BKN028 OVC055 09/08 A2984 RMK AO2 P0004=
201012121711 SPECI KCLM 121711Z AUTO 00000KT 1 1/2SM RA BR FEW002 BKN028 OVC055 09/08 A2984 RMK AO2 P0004=
201012121700 SPECI KCLM 121700Z AUTO 32003KT 2 1/2SM RA BR FEW002 BKN030 OVC055 09/08 A2984 RMK AO2 P0002=
201012121700 SPECI KCLM 121700Z AUTO 32003KT 2 1/2SM RA BR FEW002 BKN030 OVC055 09/08 A2984 RMK AO2 P0002=
201012121653 METAR KCLM 121653Z AUTO 25003KT 3SM RA BR BKN030 BKN044 OVC055 09/08 A2983 RMK AO2 SLP105 P0015 T00890078=
201012121645 SPECI KCLM 121645Z AUTO 23004KT 3SM RA BR BKN032 OVC060 08/08 A2983 RMK AO2 PRESRR P0013=
201012121645 SPECI KCLM 121645Z AUTO 23004KT 3SM RA BR BKN032 OVC060 08/08 A2983 RMK AO2 PRESRR P0013=
201012121617 SPECI KCLM 121617Z AUTO 00000KT 2 1/2SM RA BR BKN028 BKN050 OVC060 08/07 A2980 RMK AO2 VIS 2V3 P0006=
201012121617 SPECI KCLM 121617Z AUTO 00000KT 2 1/2SM RA BR BKN028 BKN050 OVC060 08/07 A2980 RMK AO2 VIS 2V3 P0006=
201012121553 METAR KCLM 121553Z AUTO 00000KT 4SM RA BR BKN040 OVC060 07/07 A2979 RMK AO2 SLP089 P0010 T00720067=
201012121542 SPECI KCLM 121542Z AUTO 00000KT 4SM RA BR FEW002 BKN041 OVC060 07/07 A2978 RMK AO2 P0008=
201012121542 SPECI KCLM 121542Z AUTO 00000KT 4SM RA BR FEW002 BKN041 OVC060 07/07 A2978 RMK AO2 P0008=
201012121532 SPECI KCLM 121532Z AUTO 00000KT 2 1/2SM RA BR SCT002 BKN030 OVC060 07/07 A2979 RMK AO2 P0007=
201012121532 SPECI KCLM 121532Z AUTO 00000KT 2 1/2SM RA BR SCT002 BKN030 OVC060 07/07 A2979 RMK AO2 P0007=
201012121519 SPECI KCLM 121519Z AUTO 00000KT 2SM RA BR BKN002 BKN016 OVC060 07/07 A2977 RMK AO2 P0004=
201012121519 SPECI KCLM 121519Z AUTO 00000KT 2SM RA BR BKN002 BKN016 OVC060 07/07 A2977 RMK AO2 P0004=
201012121508 SPECI KCLM 121508Z AUTO 00000KT 2SM RA BR SCT002 BKN022 OVC060 07/07 A2977 RMK AO2 P0002=
201012121508 SPECI KCLM 121508Z AUTO 00000KT 2SM RA BR SCT002 BKN022 OVC060 07/07 A2977 RMK AO2 P0002=
201012121453 METAR KCLM 121453Z AUTO 00000KT 2 1/2SM RA BR FEW002 BKN043 OVC060 07/07 A2977 RMK AO2 SLP084 P0010 60033 T00670067 55004=
201012121449 SPECI KCLM 121449Z AUTO 00000KT 2 1/2SM RA BR FEW002 BKN043 OVC060 07/07 A2977 RMK AO2 P0009=
201012121449 SPECI KCLM 121449Z AUTO 00000KT 2 1/2SM RA BR FEW002 BKN043 OVC060 07/07 A2977 RMK AO2 P0009=
201012121439 SPECI KCLM 121439Z AUTO 00000KT 3SM RA BR SCT002 BKN041 OVC060 07/07 A2978 RMK AO2 P0007=
201012121439 SPECI KCLM 121439Z AUTO 00000KT 3SM RA BR SCT002 BKN041 OVC060 07/07 A2978 RMK AO2 P0007=
201012121422 SPECI KCLM 121422Z AUTO 00000KT 3SM RA BR FEW019 BKN030 OVC065 07/06 A2977 RMK AO2 P0005=
201012121422 SPECI KCLM 121422Z AUTO 00000KT 3SM RA BR FEW019 BKN030 OVC065 07/06 A2977 RMK AO2 P0005=
201012121407 SPECI KCLM 121407Z AUTO 00000KT 2 1/2SM RA BR BKN028 BKN046 OVC060 07/06 A2976 RMK AO2 P0003=
201012121407 SPECI KCLM 121407Z AUTO 00000KT 2 1/2SM RA BR BKN028 BKN046 OVC060 07/06 A2976 RMK AO2 P0003=
201012121353 METAR KCLM 121353Z AUTO 00000KT 3SM RA BR BKN030 OVC060 07/06 A2977 RMK AO2 SLP082 P0012 T00670061=
201012121340 SPECI KCLM 121340Z AUTO 00000KT 3SM RA BR BKN030 OVC065 07/06 A2977 RMK AO2 P0010=
201012121340 SPECI KCLM 121340Z AUTO 00000KT 3SM RA BR BKN030 OVC065 07/06 A2977 RMK AO2 P0010=
201012121334 SPECI KCLM 121334Z AUTO 00000KT 2 1/2SM RA BR BKN028 OVC065 07/06 A2978 RMK AO2 VIS 1 1/2V3 P0008=
201012121334 SPECI KCLM 121334Z AUTO 00000KT 2 1/2SM RA BR BKN028 OVC065 07/06 A2978 RMK AO2 VIS 1 1/2V3 P0008=
201012121316 SPECI KCLM 121316Z AUTO 00000KT 2 1/2SM RA BR FEW001 BKN033 OVC065 07/06 A2978 RMK AO2 P0004=
201012121316 SPECI KCLM 121316Z AUTO 00000KT 2 1/2SM RA BR FEW001 BKN033 OVC065 07/06 A2978 RMK AO2 P0004=
201012121306 SPECI KCLM 121306Z AUTO 00000KT 2 1/2SM RA BR SCT001 OVC026 07/06 A2978 RMK AO2 P0003=
201012121306 SPECI KCLM 121306Z AUTO 00000KT 2 1/2SM RA BR SCT001 OVC026 07/06 A2978 RMK AO2 P0003=
201012121253 METAR KCLM 121253Z AUTO 00000KT 3SM RA BR SCT001 BKN024 OVC032 07/06 A2978 RMK AO2 SLP087 P0011 T00670061=
201012121226 SPECI KCLM 121226Z AUTO 19003KT 3SM RA BR SCT001 BKN029 OVC034 06/06 A2979 RMK AO2 P0004=
201012121226 SPECI KCLM 121226Z AUTO 19003KT 3SM RA BR SCT001 BKN029 OVC034 06/06 A2979 RMK AO2 P0004=
201012121219 SPECI KCLM 121219Z AUTO VRB03KT 2 1/2SM RA BR SCT001 OVC035 06/06 A2979 RMK AO2 P0002=
201012121219 SPECI KCLM 121219Z AUTO VRB03KT 2 1/2SM RA BR SCT001 OVC035 06/06 A2979 RMK AO2 P0002=
201012121204 SPECI KCLM 121204Z AUTO 00000KT 4SM -RA BR SCT001 BKN042 OVC070 06/06 A2979 RMK AO2 P0000=
201012121204 SPECI KCLM 121204Z AUTO 00000KT 4SM -RA BR SCT001 BKN042 OVC070 06/06 A2979 RMK AO2 P0000=
201012121153 METAR KCLM 121153Z AUTO 00000KT 6SM -RA BR BKN048 OVC065 07/06 A2978 RMK AO2 SLP086 P0004 60061 70117 T00670061 10067 20050 58010=
201012121053 METAR KCLM 121053Z AUTO 13004KT 6SM -RA BR FEW002 BKN048 OVC065 06/05 A2981 RMK AO2 SLP098 P0008 T00610050=
201012121046 SPECI KCLM 121046Z AUTO 13004KT 5SM RA BR SCT002 BKN038 OVC070 06/06 A2982 RMK AO2 P0008=
201012121046 SPECI KCLM 121046Z AUTO 13004KT 5SM RA BR SCT002 BKN038 OVC070 06/06 A2982 RMK AO2 P0008=
201012121030 SPECI KCLM 121030Z AUTO 00000KT 4SM RA BR BKN002 BKN029 OVC065 06/06 A2982 RMK AO2 P0006=
201012121030 SPECI KCLM 121030Z AUTO 00000KT 4SM RA BR BKN002 BKN029 OVC065 06/06 A2982 RMK AO2 P0006=
201012121021 SPECI KCLM 121021Z AUTO 00000KT 3SM RA BR SCT004 BKN023 OVC065 06/06 A2981 RMK AO2 P0004=
201012121021 SPECI KCLM 121021Z AUTO 00000KT 3SM RA BR SCT004 BKN023 OVC065 06/06 A2981 RMK AO2 P0004=
201012120953 METAR KCLM 120953Z AUTO 00000KT 4SM RA BR OVC023 06/05 A2981 RMK AO2 SLP096 P0016 T00560050=
201012120914 SPECI KCLM 120914Z AUTO 00000KT 3SM RA BR OVC025 06/05 A2981 RMK AO2 P0006=
201012120914 SPECI KCLM 120914Z AUTO 00000KT 3SM RA BR OVC025 06/05 A2981 RMK AO2 P0006=
201012120853 METAR KCLM 120853Z AUTO 00000KT 3SM RA BR BKN032 OVC060 06/05 A2981 RMK AO2 SLP097 P0012 60033 T00560050 53002=
201012120846 SPECI KCLM 120846Z AUTO 00000KT 2 1/2SM RA BR FEW004 BKN030 OVC065 06/05 A2982 RMK AO2 P0011=
201012120846 SPECI KCLM 120846Z AUTO 00000KT 2 1/2SM RA BR FEW004 BKN030 OVC065 06/05 A2982 RMK AO2 P0011=
201012120838 SPECI KCLM 120838Z AUTO 00000KT 3SM RA BR FEW004 BKN025 OVC065 06/05 A2982 RMK AO2 P0009=
201012120838 SPECI KCLM 120838Z AUTO 00000KT 3SM RA BR FEW004 BKN025 OVC065 06/05 A2982 RMK AO2 P0009=
201012120812 SPECI KCLM 120812Z AUTO 00000KT 3SM RA BR BKN002 OVC026 06/05 A2981 RMK AO2 P0004=
201012120812 SPECI KCLM 120812Z AUTO 00000KT 3SM RA BR BKN002 OVC026 06/05 A2981 RMK AO2 P0004=
201012120804 SPECI KCLM 120804Z AUTO 00000KT 3SM RA BR SCT002 BKN033 OVC070 06/05 A2981 RMK AO2 P0002=
201012120804 SPECI KCLM 120804Z AUTO 00000KT 3SM RA BR SCT002 BKN033 OVC070 06/05 A2981 RMK AO2 P0002=
201012120753 METAR KCLM 120753Z AUTO 00000KT 4SM RA BR SCT002 BKN021 OVC065 06/05 A2981 RMK AO2 SLP097 P0011 T00560050 400610011=
201012120741 SPECI KCLM 120741Z AUTO 00000KT 3SM RA BR BKN004 BKN021 OVC065 06/05 A2981 RMK AO2 P0009=
201012120741 SPECI KCLM 120741Z AUTO 00000KT 3SM RA BR BKN004 BKN021 OVC065 06/05 A2981 RMK AO2 P0009=
201012120731 SPECI KCLM 120731Z AUTO 00000KT 3SM RA BR SCT004 OVC025 06/05 A2980 RMK AO2 P0007=
201012120731 SPECI KCLM 120731Z AUTO 00000KT 3SM RA BR SCT004 OVC025 06/05 A2980 RMK AO2 P0007=
201012120723 SPECI KCLM 120723Z AUTO 00000KT 3SM -RA BR SCT004 BKN031 OVC065 06/05 A2981 RMK AO2 P0005=
201012120723 SPECI KCLM 120723Z AUTO 00000KT 3SM -RA BR SCT004 BKN031 OVC065 06/05 A2981 RMK AO2 P0005=
201012120653 METAR KCLM 120653Z AUTO 00000KT 3SM RA BR SCT037 BKN070 OVC090 06/05 A2980 RMK AO2 SLP092 P0010 T00560050=
201012120553 METAR KCLM 120553Z AUTO 22004KT 4SM RA BR FEW016 BKN031 OVC065 05/04 A2981 RMK AO2 SLP095 P0013 60056 T00500044 10056 20044 58009=
201012120520 SPECI KCLM 120520Z AUTO 00000KT 4SM RA BR FEW009 BKN031 OVC065 05/04 A2980 RMK AO2 P0005=
201012120520 SPECI KCLM 120520Z AUTO 00000KT 4SM RA BR FEW009 BKN031 OVC065 05/04 A2980 RMK AO2 P0005=
201012120509 SPECI KCLM 120509Z AUTO 00000KT 5SM RA BR FEW009 BKN029 OVC065 05/04 A2980 RMK AO2 P0003=
201012120509 SPECI KCLM 120509Z AUTO 00000KT 5SM RA BR FEW009 BKN029 OVC065 05/04 A2980 RMK AO2 P0003=
201012120453 METAR KCLM 120453Z AUTO 00000KT 6SM RA BR BKN035 BKN065 OVC085 05/04 A2981 RMK AO2 SLP097 P0014 T00500039=
201012120446 SPECI KCLM 120446Z AUTO 00000KT 5SM RA BR BKN033 OVC070 06/04 A2979 RMK AO2 PRESFR P0013=
201012120446 SPECI KCLM 120446Z AUTO 00000KT 5SM RA BR BKN033 OVC070 06/04 A2979 RMK AO2 PRESFR P0013=
201012120404 SPECI KCLM 120404Z AUTO 25006KT 4SM RA BR BKN027 OVC065 05/04 A2983 RMK AO2 P0004=
201012120404 SPECI KCLM 120404Z AUTO 25006KT 4SM RA BR BKN027 OVC065 05/04 A2983 RMK AO2 P0004=
201012120353 METAR KCLM 120353Z AUTO 26006KT 4SM RA BR BKN033 OVC065 05/04 A2983 RMK AO2 SLP102 P0011 T00500039=
201012120253 METAR KCLM 120253Z AUTO 27004KT 5SM RA BR FEW016 SCT041 OVC060 05/04 A2983 RMK AO2 SLP104 P0005 60018 T00500039 56017=
201012120153 METAR KCLM 120153Z AUTO 00000KT 4SM -RA BR SCT043 OVC060 05/04 A2984 RMK AO2 SLP106 P0008 T00500044=
201012120053 METAR KCLM 120053Z AUTO 25003KT 4SM RA BR BKN034 OVC060 05/04 A2986 RMK AO2 SLP114 P0005 T00500044=
201012112353 METAR KCLM 112353Z AUTO 25004KT 10SM -RA OVC044 05/04 A2988 RMK AO2 SLP122 P0000 60000 T00500039 10061 20039 56019=
201012112253 METAR KCLM 112253Z AUTO 25003KT 4SM -RA BR SCT033 OVC043 06/04 A2990 RMK AO2 SLP126 P0000 T00560039=
201012112153 METAR KCLM 112153Z AUTO 00000KT 7SM -RA OVC037 06/04 A2991 RMK AO2 RAB27 SLP130 P0000 T00560044=
201012112053 METAR KCLM 112053Z AUTO 00000KT 10SM FEW050 BKN080 06/03 A2994 RMK AO2 RAB1955E13 SLP140 P0000 60000 T00610033 56048=
201012111953 METAR KCLM 111953Z AUTO 00000KT 10SM BKN040 OVC090 06/04 A2998 RMK AO2 RAE49 PRESFR SLP152 P0000 T00560039=
201012111853 METAR KCLM 111853Z AUTO 00000KT 10SM -RA OVC032 05/04 A3004 RMK AO2 RAB08 SLP175 P0000 T00500039=
201012111753 METAR KCLM 111753Z AUTO 15004KT 10SM OVC060 04/03 A3008 RMK AO2 SLP190 T00390028 10039 20017 56021=
201012111653 METAR KCLM 111653Z AUTO 00000KT 10SM BKN080 03/02 A3009 RMK AO2 SLP193 T00330022=
201012111553 METAR KCLM 111553Z AUTO 00000KT 10SM OVC100 03/02 A3012 RMK AO2 SLP202 T00280017=
201012111453 METAR KCLM 111453Z AUTO 00000KT 10SM OVC120 03/02 A3015 RMK AO2 SLP211 T00280017 58025=
201012111417 SPECI KCLM 111417Z AUTO 00000KT 10SM SCT006 BKN120 02/02 A3016 RMK AO2=
201012111417 SPECI KCLM 111417Z AUTO 00000KT 10SM SCT006 BKN120 02/02 A3016 RMK AO2=
201012111353 METAR KCLM 111353Z AUTO 00000KT 10SM BKN120 02/02 A3018 RMK AO2 SLP221 T00220017=
201012111253 METAR KCLM 111253Z AUTO 00000KT 10SM CLR 02/02 A3020 RMK AO2 SLP229 T00220017=
201012111153 METAR KCLM 111153Z AUTO 00000KT 10SM CLR 02/01 A3022 RMK AO2 SLP235 70003 T00170006 10033 20011 58008=
201012111053 METAR KCLM 111053Z AUTO 23004KT 10SM CLR 03/02 A3023 RMK AO2 SLP239 T00330017=
201012111039 SPECI KCLM 111039Z AUTO 23005KT 10SM SCT006 03/02 A3024 RMK AO2=
201012111039 SPECI KCLM 111039Z AUTO 23005KT 10SM SCT006 03/02 A3024 RMK AO2=
201012110953 METAR KCLM 110953Z AUTO 23005KT 10SM BKN006 03/02 A3024 RMK AO2 SLP241 T00330017=
201012110945 SPECI KCLM 110945Z AUTO 23005KT 10SM SCT006 02/01 A3024 RMK AO2=
201012110945 SPECI KCLM 110945Z AUTO 23005KT 10SM SCT006 02/01 A3024 RMK AO2=
201012110853 METAR KCLM 110853Z AUTO 23003KT 10SM FEW070 03/01 A3024 RMK AO2 SLP243 T00280011 51010=
201012110753 METAR KCLM 110753Z AUTO 24005KT 10SM FEW065 02/01 A3023 RMK AO2 SLP240 T00220011 401000017=
201012110653 METAR KCLM 110653Z AUTO 00000KT 10SM FEW065 03/02 A3023 RMK AO2 SLP239 T00280017=
201012110553 METAR KCLM 110553Z AUTO 00000KT 10SM BKN070 03/02 A3022 RMK AO2 SLP234 T00280017 10078 20028 50009=
201012110453 METAR KCLM 110453Z AUTO 23005KT 10SM SCT060 BKN080 04/02 A3022 RMK AO2 SLP234 T00390022=
201012110353 METAR KCLM 110353Z AUTO 22004KT 10SM CLR 04/02 A3020 RMK AO2 SLP230 T00390022=
201012110253 METAR KCLM 110253Z AUTO 22005KT 10SM CLR 04/03 A3019 RMK AO2 SLP224 T00390028 51008=
201012110153 METAR KCLM 110153Z AUTO 23005KT 10SM CLR 03/03 A3018 RMK AO2 SLP222 T00330028=
201012110053 METAR KCLM 110053Z AUTO 00000KT 10SM BKN070 06/04 A3018 RMK AO2 SLP222 T00560044=
201012110026 SPECI KCLM 110026Z AUTO 00000KT 10SM FEW013 OVC085 07/05 A3017 RMK AO2=
201012110026 SPECI KCLM 110026Z AUTO 00000KT 10SM FEW013 OVC085 07/05 A3017 RMK AO2=
201012102353 METAR KCLM 102353Z AUTO 00000KT 10SM BKN025 BKN031 OVC075 07/05 A3016 RMK AO2 SLP215 T00720050 10100 20061 51020=
201012102351 SPECI KCLM 102351Z AUTO 00000KT 10SM BKN025 BKN031 OVC075 07/05 A3016 RMK AO2=
201012102351 SPECI KCLM 102351Z AUTO 00000KT 10SM BKN025 BKN031 OVC075 07/05 A3016 RMK AO2=
201012102253 METAR KCLM 102253Z AUTO 00000KT 10SM BKN100 08/04 A3013 RMK AO2 SLP206 T00780044=
201012102153 METAR KCLM 102153Z AUTO 04004KT 10SM CLR 09/04 A3010 RMK AO2 SLP195 T00890044=
201012102053 METAR KCLM 102053Z AUTO 00000KT 10SM CLR 09/03 A3008 RMK AO2 SLP186 T00940028 51015=
201012101953 METAR KCLM 101953Z AUTO 24004KT 10SM CLR 08/04 A3007 RMK AO2 SLP184 T00830039=
201012101853 METAR KCLM 101853Z AUTO 24007KT 10SM BKN060 07/04 A3006 RMK AO2 SLP180 T00670039=
201012101753 METAR KCLM 101753Z AUTO 25009KT 10SM OVC060 06/03 A3003 RMK AO2 SLP172 60003 T00610033 10061 20039 53026=
201012101653 METAR KCLM 101653Z AUTO 26005KT 10SM SCT046 OVC060 05/03 A3000 RMK AO2 RAE02 SLP161 P0000 T00500033=
201012101553 METAR KCLM 101553Z AUTO 24003KT 10SM -RA SCT048 BKN070 OVC090 04/03 A2998 RMK AO2 RAE21B52 SLP153 P0000 T00440028=
201012101453 METAR KCLM 101453Z AUTO 25010KT 10SM -RA BKN033 BKN049 OVC060 06/03 A2995 RMK AO2 SLP145 P0002 60003 T00560028 51028=
201012101418 SPECI KCLM 101418Z AUTO 22006KT 10SM -RA BKN033 BKN040 OVC065 06/03 A2993 RMK AO2 P0002=
201012101418 SPECI KCLM 101418Z AUTO 22006KT 10SM -RA BKN033 BKN040 OVC065 06/03 A2993 RMK AO2 P0002=
201012101407 SPECI KCLM 101407Z AUTO 23007KT 7SM -RA BKN027 BKN046 OVC070 06/03 A2994 RMK AO2 P0002=
201012101407 SPECI KCLM 101407Z AUTO 23007KT 7SM -RA BKN027 BKN046 OVC070 06/03 A2994 RMK AO2 P0002=
201012101353 METAR KCLM 101353Z AUTO 25006KT 8SM -RA FEW028 BKN048 OVC070 06/03 A2993 RMK AO2 RAB28 SLP136 P0001 T00560033=
201012101253 METAR KCLM 101253Z AUTO 25006KT 10SM BKN055 OVC070 06/03 A2990 RMK AO2 SLP126 T00560028=
201012101153 METAR KCLM 101153Z AUTO 24009KT 10SM BKN070 BKN080 05/03 A2987 RMK AO2 RAE10 SLP117 P0000 60007 70028 T00500028 10061 20039 51024=
201012101053 METAR KCLM 101053Z AUTO 27010KT 10SM -RA BKN065 OVC080 06/03 A2986 RMK AO2 RAB30 SLP112 P0000 T00560028=
201012100953 METAR KCLM 100953Z AUTO 25006KT 10SM BKN049 OVC065 06/03 A2983 RMK AO2 RAB0858E45 SLP102 P0006 T00560033=
201012100938 SPECI KCLM 100938Z AUTO 25006KT 10SM -RA BKN035 OVC047 05/03 A2982 RMK AO2 RAB0858 P0006=
201012100938 SPECI KCLM 100938Z AUTO 25006KT 10SM -RA BKN035 OVC047 05/03 A2982 RMK AO2 RAB0858 P0006=
201012100919 SPECI KCLM 100919Z AUTO 23008KT 5SM RA BR BKN025 OVC065 05/03 A2982 RMK AO2 RAB0858 P0005=
201012100919 SPECI KCLM 100919Z AUTO 23008KT 5SM RA BR BKN025 OVC065 05/03 A2982 RMK AO2 RAB0858 P0005=
201012100853 METAR KCLM 100853Z AUTO 30007KT 10SM FEW039 BKN060 OVC070 05/03 A2980 RMK AO2 RAB0754E46 SLP093 P0001 60001 T00500033 53019=
201012100753 METAR KCLM 100753Z AUTO 26009KT 10SM FEW065 OVC085 05/03 A2978 RMK AO2 RAB19E28 SLP085 P0000 T00500028 400940039=
201012100653 METAR KCLM 100653Z AUTO 26013G17KT 10SM FEW055 SCT095 04/02 A2976 RMK AO2 RAE09 SLP079 P0000 T00440022=
201012100553 METAR KCLM 100553Z AUTO 25008KT 7SM -RA OVC031 05/03 A2974 RMK AO2 SLP074 P0002 60017 T00500028 10067 20044 53008=
201012100453 METAR KCLM 100453Z AUTO 24007KT 10SM -RA BKN037 OVC060 04/03 A2973 RMK AO2 SLP068 P0000 T00440033 TSNO=
201012100353 METAR KCLM 100353Z AUTO 23004KT 10SM -RA OVC031 06/05 A2972 RMK AO2 SLP066 P0005 T00560050=
201012100323 SPECI KCLM 100323Z AUTO 21003KT 7SM RA OVC031 06/05 A2972 RMK AO2 P0003=
201012100323 SPECI KCLM 100323Z AUTO 21003KT 7SM RA OVC031 06/05 A2972 RMK AO2 P0003=
201012100300 SPECI KCLM 100300Z AUTO VRB03KT 4SM RA BR SCT018 BKN026 OVC034 06/04 A2972 RMK AO2 P0002=
201012100300 SPECI KCLM 100300Z AUTO VRB03KT 4SM RA BR SCT018 BKN026 OVC034 06/04 A2972 RMK AO2 P0002=
201012100253 METAR KCLM 100253Z AUTO 17006KT 2 1/2SM RA BR SCT020 BKN026 OVC034 06/04 A2972 RMK AO2 RAB15 SLP066 P0010 60010 T00610044 56019=
201012100247 SPECI KCLM 100247Z AUTO 14007KT 2 1/2SM +RA BR SCT022 BKN028 OVC043 06/04 A2972 RMK AO2 RAB15 P0008=
201012100247 SPECI KCLM 100247Z AUTO 14007KT 2 1/2SM +RA BR SCT022 BKN028 OVC043 06/04 A2972 RMK AO2 RAB15 P0008=
201012100153 METAR KCLM 100153Z AUTO 00000KT 10SM OVC095 05/04 A2974 RMK AO2 SLP072 T00500044=
201012100053 METAR KCLM 100053Z AUTO 00000KT 8SM FEW120 04/04 A2974 RMK AO2 SLP074 T00440044=
201012092353 METAR KCLM 092353Z AUTO 00000KT 8SM FEW095 06/05 A2978 RMK AO2 SLP085 60002 T00610050 10094 20061 56015=
201012092253 METAR KCLM 092253Z AUTO 00000KT 10SM SCT065 07/05 A2979 RMK AO2 SLP090 T00720050=
201012092153 METAR KCLM 092153Z AUTO 22003KT 10SM FEW043 SCT065 08/04 A2979 RMK AO2 RAE39 SLP090 P0002 T00780044=
201012092127 SPECI KCLM 092127Z AUTO 10005KT 10SM -RA FEW019 OVC034 08/07 A2979 RMK AO2 P0002=
201012092127 SPECI KCLM 092127Z AUTO 10005KT 10SM -RA FEW019 OVC034 08/07 A2979 RMK AO2 P0002=
201012092053 METAR KCLM 092053Z AUTO VRB03KT 10SM -RA SCT015 BKN021 OVC060 08/06 A2982 RMK AO2 RAB34 SLP100 P0000 60000 T00830056 53004=
201012092045 SPECI KCLM 092045Z AUTO 02003KT 10SM -RA SCT013 BKN022 BKN060 08/06 A2982 RMK AO2 RAB34 P0000=
201012092045 SPECI KCLM 092045Z AUTO 02003KT 10SM -RA SCT013 BKN022 BKN060 08/06 A2982 RMK AO2 RAB34 P0000=
201012092037 SPECI KCLM 092037Z AUTO 00000KT 10SM -RA BKN013 BKN060 09/06 A2982 RMK AO2 RAB34 P0000=
201012092037 SPECI KCLM 092037Z AUTO 00000KT 10SM -RA BKN013 BKN060 09/06 A2982 RMK AO2 RAB34 P0000=
201012091953 METAR KCLM 091953Z AUTO 00000KT 10SM FEW007 SCT012 BKN041 09/07 A2981 RMK AO2 RAB08E34 SLP097 P0000 T00890067=
201012091932 SPECI KCLM 091932Z AUTO 00000KT 10SM -RA FEW007 BKN050 OVC060 09/07 A2981 RMK AO2 RAB08 P0000=
201012091932 SPECI KCLM 091932Z AUTO 00000KT 10SM -RA FEW007 BKN050 OVC060 09/07 A2981 RMK AO2 RAB08 P0000=
201012091853 METAR KCLM 091853Z AUTO 00000KT 10SM SCT050 09/07 A2981 RMK AO2 RAB1756E30 SLP096 P0000 T00890067=
201012091753 SPECI KCLM 091753Z AUTO 13004KT 10SM SCT047 BKN065 08/06 A2981 RMK AO2 RAE44 SLP096 P0000 60002 T00780061 10078 20044 51009=
201012091653 METAR KCLM 091653Z AUTO 00000KT 10SM -RA FEW007 SCT030 SCT060 07/06 A2981 RMK AO2 SLP095 P0000 T00670061=
201012091627 SPECI KCLM 091627Z AUTO 28003KT 10SM -RA FEW005 BKN034 OVC050 07/06 A2981 RMK AO2 P0000=
201012091627 SPECI KCLM 091627Z AUTO 28003KT 10SM -RA FEW005 BKN034 OVC050 07/06 A2981 RMK AO2 P0000=
201012091553 METAR KCLM 091553Z AUTO 23005KT 10SM -RA BKN046 OVC060 06/05 A2981 RMK AO2 SLP095 P0000 T00610050=
201012091453 METAR KCLM 091453Z AUTO 03004KT 10SM -RA BKN060 BKN075 OVC100 04/04 A2978 RMK AO2 SLP087 P0000 60002 T00440044 56011=
201012091353 METAR KCLM 091353Z AUTO 20005KT 7SM -RA OVC038 06/05 A2979 RMK AO2 SLP090 P0002 T00610050=
201012091253 METAR KCLM 091253Z AUTO 00000KT 10SM -RA BKN050 OVC065 06/04 A2980 RMK AO2 SLP094 P0000 T00560044=
201012091153 METAR KCLM 091153Z AUTO 14003KT 10SM -RA BKN046 OVC065 06/05 A2982 RMK AO2 SLP098 P0000 60019 70056 T00610050 10072 20061 50001=
201012091053 METAR KCLM 091053Z AUTO 25009G14KT 10SM -RA OVC060 07/04 A2982 RMK AO2 SLP101 P0000 T00670044=
201012090953 METAR KCLM 090953Z AUTO 20005KT 10SM -RA OVC044 07/06 A2982 RMK AO2 SLP098 P0010 T00670056=
201012090926 SPECI KCLM 090926Z AUTO 21004KT 9SM -RA OVC034 07/06 A2982 RMK AO2 P0009=
201012090926 SPECI KCLM 090926Z AUTO 21004KT 9SM -RA OVC034 07/06 A2982 RMK AO2 P0009=
201012090913 SPECI KCLM 090913Z AUTO 28004KT 4SM RA BR OVC026 07/06 A2981 RMK AO2 P0008=
201012090913 SPECI KCLM 090913Z AUTO 28004KT 4SM RA BR OVC026 07/06 A2981 RMK AO2 P0008=
201012090853 METAR KCLM 090853Z AUTO 27005KT 8SM -RA OVC038 06/06 A2981 RMK AO2 SLP097 P0002 60009 T00610056 50009=
201012090753 METAR KCLM 090753Z AUTO 15005KT 10SM -RA BKN043 OVC055 06/05 A2982 RMK AO2 SLP099 P0001 T00610050 401000056=
201012090653 METAR KCLM 090653Z AUTO 28005KT 8SM -RA BKN037 OVC045 06/05 A2979 RMK AO2 SLP090 P0006 T00610050=
201012090553 METAR KCLM 090553Z AUTO 11006KT 10SM RA BKN038 BKN055 OVC065 06/05 A2979 RMK AO2 SLP088 P0002 60017 T00610050 10067 20056 58012=
201012090453 METAR KCLM 090453Z AUTO 15005KT 10SM -RA BKN040 OVC055 07/05 A2981 RMK AO2 SLP096 P0001 T00670050=
201012090353 METAR KCLM 090353Z AUTO 00000KT 10SM -RA BKN039 BKN047 OVC060 06/04 A2983 RMK AO2 SLP102 P0001 T00560044=
201012090253 METAR KCLM 090253Z AUTO 00000KT 10SM -RA BKN042 OVC050 06/04 A2982 RMK AO2 SLP100 P0000 60013 T00610039 50002=
201012090153 METAR KCLM 090153Z AUTO 14007KT 9SM -RA BKN036 OVC050 06/05 A2982 RMK AO2 SLP101 P0006 T00610050=
201012090053 METAR KCLM 090053Z AUTO 00000KT 10SM -RA BKN034 OVC049 06/06 A2984 RMK AO2 SLP105 P0007 T00610056=
201012090001 SPECI KCLM 090001Z AUTO 17004KT 8SM -RA OVC032 07/06 A2982 RMK AO2 P0001=
201012090001 SPECI KCLM 090001Z AUTO 17004KT 8SM -RA OVC032 07/06 A2982 RMK AO2 P0001=
201012082353 METAR KCLM 082353Z AUTO 18004KT 4SM RA BR OVC028 07/06 A2982 RMK AO2 SLP098 P0010 60014 T00670056 10100 20067 51011=
201012082253 METAR KCLM 082253Z AUTO 26003KT 5SM -RA BR OVC038 07/05 A2979 RMK AO2 SLP090 P0004 T00720050=
201012082153 METAR KCLM 082153Z AUTO 12006KT 10SM -RA BKN040 OVC049 09/06 A2978 RMK AO2 RAB20 SLP086 P0000 T00890061=
201012082053 METAR KCLM 082053Z AUTO 13003KT 10SM FEW100 10/06 A2978 RMK AO2 RAE29 SLP084 P0000 60000 T01000056 51018=
201012081953 METAR KCLM 081953Z AUTO 29006KT 10SM -RA SCT038 SCT055 09/06 A2978 RMK AO2 SLP084 P0000 T00890061=
201012081853 METAR KCLM 081853Z AUTO 20003KT 10SM -RA BKN045 09/07 A2977 RMK AO2 RAB39 SLP080 P0000 T00890067=
201012081753 METAR KCLM 081753Z AUTO 00000KT 10SM FEW044 SCT065 08/06 A2972 RMK AO2 RAE37 SLP067 P0000 60006 T00780061 10094 20056 53018=
201012081653 METAR KCLM 081653Z AUTO 31005KT 10SM -RA BKN038 07/06 A2970 RMK AO2 RAE1554B36 SLP058 P0000 T00720056=
201012081553 METAR KCLM 081553Z AUTO 00000KT 10SM -RA BKN045 BKN060 OVC080 08/05 A2967 RMK AO2 SLP047 P0005 T00780050=
201012081453 METAR KCLM 081453Z AUTO 30009KT 10SM -RA BKN045 OVC060 07/06 A2967 RMK AO2 PRESRR SLP048 P0000 60001 T00720061 53008=
201012081353 METAR KCLM 081353Z AUTO 00000KT 5SM -RA BR FEW048 OVC060 06/06 A2962 RMK AO2 RAB1255 SLP030 P0000 T00560056=
201012081253 METAR KCLM 081253Z AUTO 00000KT 10SM BKN060 BKN080 07/06 A2963 RMK AO2 RAE49 SLP035 P0001 T00670061=
201012081153 METAR KCLM 081153Z AUTO 24004KT 10SM -RA OVC055 08/06 A2965 RMK AO2 SLP040 P0002 60002 70002 T00780056 10089 20061 56011=
201012081053 METAR KCLM 081053Z AUTO VRB06KT 10SM -RA OVC060 08/07 A2965 RMK AO2 SLP039 P0000 T00780067=
201012080953 METAR KCLM 080953Z AUTO 28003KT 10SM -RA OVC060 07/06 A2965 RMK AO2 RAB40 SLP041 P0000 T00720061=
201012080853 METAR KCLM 080853Z AUTO 24005KT 10SM FEW085 07/06 A2968 RMK AO2 RAE19 SLP051 P0000 60000 T00670056 58013=
201012080753 METAR KCLM 080753Z AUTO 00000KT 10SM -RA OVC055 07/06 A2970 RMK AO2 SLP057 P0000 T00720061 401390044=
201012080653 METAR KCLM 080653Z AUTO 15003KT 10SM -RA OVC060 07/06 A2972 RMK AO2 RAE18B39 SLP066 P0000 T00720061=
201012080553 METAR KCLM 080553Z AUTO 00000KT 10SM -RA OVC065 07/07 A2972 RMK AO2 RAB49 SLP065 P0000 60000 T00720067 10139 20067 55015=
201012080453 METAR KCLM 080453Z AUTO 17003KT 10SM FEW050 OVC060 08/06 A2972 RMK AO2 RAE34 SLP065 P0000 T00780061=
201012080353 METAR KCLM 080353Z AUTO 00000KT 10SM -RA OVC060 08/07 A2975 RMK AO2 RAE22B51 SLP076 P0000 T00830067=
201012080253 METAR KCLM 080253Z AUTO 16006KT 10SM -RA OVC060 10/06 A2976 RMK AO2 RAB22 SLP080 P0000 60000 T01000061 56017=
201012080153 METAR KCLM 080153Z AUTO 15009G15KT 10SM OVC060 12/04 A2977 RMK AO2 SLP083 T01220044=
201012080053 METAR KCLM 080053Z AUTO 17006G25KT 10SM OVC070 12/05 A2980 RMK AO2 PK WND 23026/0042 RAE03 SLP091 P0000 T01220050=
201012072353 METAR KCLM 072353Z AUTO 10004KT 10SM -RA OVC070 09/07 A2981 RMK AO2 RAE13B30 SLP097 P0000 60000 T00890067 10094 20078 56033=
201012072253 METAR KCLM 072253Z AUTO 00000KT 10SM -RA OVC070 08/07 A2984 RMK AO2 RAB44 SLP107 P0000 T00830067=
201012072153 METAR KCLM 072153Z AUTO 28005KT 10SM OVC070 09/07 A2987 RMK AO2 SLP116 T00940067=
201012072053 METAR KCLM 072053Z AUTO 20004KT 10SM OVC060 09/07 A2991 RMK AO2 SLP130 T00940072 58023=
201012071953 METAR KCLM 071953Z AUTO 00000KT 10SM OVC065 09/07 A2994 RMK AO2 SLP140 T00890067=
201012071853 METAR KCLM 071853Z AUTO 00000KT 10SM OVC070 08/06 A2997 RMK AO2 SLP151 T00830061=
201012071753 METAR KCLM 071753Z AUTO 00000KT 10SM SCT065 08/06 A2998 RMK AO2 SLP153 T00780061 10078 20050 58019=
201012071653 METAR KCLM 071653Z AUTO 18005KT 10SM FEW070 06/05 A3000 RMK AO2 SLP160 T00610050=
201012071553 METAR KCLM 071553Z AUTO 00000KT 10SM FEW065 06/04 A3002 RMK AO2 SLP167 T00560044=
201012071453 METAR KCLM 071453Z AUTO 22005KT 10SM FEW065 BKN100 BKN120 06/04 A3003 RMK AO2 SLP172 T00560044 58010=
201012071353 METAR KCLM 071353Z AUTO 25004KT 10SM BKN070 OVC110 06/04 A3005 RMK AO2 SLP179 T00610044=
201012071253 METAR KCLM 071253Z AUTO 19007KT 10SM BKN075 BKN090 OVC100 06/04 A3007 RMK AO2 SLP183 T00610044=
201012071153 METAR KCLM 071153Z AUTO VRB04KT 10SM SCT070 BKN100 05/04 A3006 RMK AO2 SLP183 T00500039 10067 20028 58019=
201012071053 METAR KCLM 071053Z AUTO 00000KT 10SM FEW110 06/05 A3009 RMK AO2 SLP190 T00610050=
201012070953 METAR KCLM 070953Z AUTO 19003KT 10SM FEW070 BKN110 05/04 A3011 RMK AO2 SLP198 T00500039=
201012070853 METAR KCLM 070853Z AUTO 24004KT 10SM FEW065 04/03 A3012 RMK AO2 SLP202 T00440033 56010=
201012070753 METAR KCLM 070753Z AUTO 22003KT 10SM FEW120 04/03 A3013 RMK AO2 SLP204 T00440033 400720000=
201012070653 METAR KCLM 070653Z AUTO 24005KT 10SM OVC110 04/03 A3014 RMK AO2 SLP207 T00390028=
201012070553 METAR KCLM 070553Z AUTO 26004KT 10SM FEW012 BKN110 03/02 A3015 RMK AO2 SLP211 T00280022 10061 20011 51007=
201012070453 METAR KCLM 070453Z AUTO 00000KT 10SM BKN100 OVC120 04/03 A3014 RMK AO2 SLP209 T00390028=
201012070353 METAR KCLM 070353Z AUTO 22005KT 10SM FEW070 OVC120 04/03 A3015 RMK AO2 SLP212 T00390028=
201012070253 METAR KCLM 070253Z AUTO 00000KT 10SM CLR 02/01 A3013 RMK AO2 SLP205 T00170011 53004=
201012070153 METAR KCLM 070153Z AUTO 19003KT 10SM BKN070 03/02 A3012 RMK AO2 SLP202 T00280017=
201012070053 METAR KCLM 070053Z AUTO 24003KT 10SM FEW065 04/02 A3012 RMK AO2 SLP201 T00390022=
201012062353 METAR KCLM 062353Z AUTO 00000KT 10SM CLR 06/03 A3012 RMK AO2 SLP200 T00610028 10072 20061 51015=
201012062253 METAR KCLM 062253Z AUTO 00000KT 10SM OVC075 07/03 A3010 RMK AO2 SLP195 T00720033=
201012062230 SPECI KCLM 062230Z AUTO 00000KT 10SM SCT015 OVC070 07/04 A3010 RMK AO2=
201012062230 SPECI KCLM 062230Z AUTO 00000KT 10SM SCT015 OVC070 07/04 A3010 RMK AO2=
201012062153 METAR KCLM 062153Z AUTO 00000KT 10SM OVC015 07/03 A3009 RMK AO2 SLP192 T00720033=
201012062053 METAR KCLM 062053Z AUTO 00000KT 10SM OVC015 07/03 A3007 RMK AO2 SLP185 T00670033 51012=
201012062037 SPECI KCLM 062037Z AUTO 00000KT 10SM BKN015 OVC100 06/03 A3007 RMK AO2 TSNO=
201012062037 SPECI KCLM 062037Z AUTO 00000KT 10SM BKN015 OVC100 06/03 A3007 RMK AO2 TSNO=
201012062030 SPECI KCLM 062030Z AUTO 00000KT 10SM SCT015 OVC100 06/03 A3006 RMK AO2=
201012062030 SPECI KCLM 062030Z AUTO 00000KT 10SM SCT015 OVC100 06/03 A3006 RMK AO2=
201012061953 METAR KCLM 061953Z AUTO 24003KT 10SM OVC013 06/03 A3007 RMK AO2 SLP184 T00610033=
201012061853 METAR KCLM 061853Z AUTO VRB03KT 10SM OVC013 06/03 A3005 RMK AO2 SLP178 T00610033=
201012061753 METAR KCLM 061753Z AUTO 09004KT 10SM OVC013 06/03 A3004 RMK AO2 SLP174 T00610028 10061 20033 51015=
201012061653 METAR KCLM 061653Z AUTO 00000KT 10SM OVC013 05/03 A3002 RMK AO2 SLP167 T00500033 TSNO=
201012061649 SPECI KCLM 061649Z AUTO 00000KT 10SM OVC013 05/03 A3002 RMK AO2=
201012061649 SPECI KCLM 061649Z AUTO 00000KT 10SM OVC013 05/03 A3002 RMK AO2=
201012061629 SPECI KCLM 061629Z AUTO 00000KT 10SM OVC015 05/03 A3001 RMK AO2=
201012061629 SPECI KCLM 061629Z AUTO 00000KT 10SM OVC015 05/03 A3001 RMK AO2=
201012061553 METAR KCLM 061553Z AUTO 00000KT 10SM OVC013 05/03 A2999 RMK AO2 SLP159 T00500028=
201012061503 SPECI KCLM 061503Z AUTO 13004KT 10SM OVC013 06/03 A2999 RMK AO2=
201012061503 SPECI KCLM 061503Z AUTO 13004KT 10SM OVC013 06/03 A2999 RMK AO2=
201012061453 METAR KCLM 061453Z AUTO 13003KT 10SM OVC015 05/03 A2998 RMK AO2 SLP155 T00500028 53006=
201012061446 SPECI KCLM 061446Z AUTO 14004KT 10SM OVC015 04/03 A2998 RMK AO2=
201012061446 SPECI KCLM 061446Z AUTO 14004KT 10SM OVC015 04/03 A2998 RMK AO2=
201012061353 METAR KCLM 061353Z AUTO 10005KT 10SM OVC013 06/03 A2997 RMK AO2 SLP152 T00560028=
201012061253 METAR KCLM 061253Z AUTO 09004KT 10SM OVC013 04/03 A2997 RMK AO2 SLP150 T00440028=
201012061153 METAR KCLM 061153Z AUTO 00000KT 10SM OVC013 03/02 A2996 RMK AO2 SLP149 T00330017 10033 21011 55001=
201012061136 SPECI KCLM 061136Z AUTO 00000KT 10SM OVC013 02/01 A2996 RMK AO2=
201012061136 SPECI KCLM 061136Z AUTO 00000KT 10SM OVC013 02/01 A2996 RMK AO2=
201012061123 SPECI KCLM 061123Z AUTO 07003KT 10SM BKN015 02/01 A2997 RMK AO2=
201012061123 SPECI KCLM 061123Z AUTO 07003KT 10SM BKN015 02/01 A2997 RMK AO2=
201012061053 METAR KCLM 061053Z AUTO 00000KT 10SM CLR 00/M01 A2996 RMK AO2 SLP148 T00001006=
201012061001 SPECI KCLM 061001Z AUTO 25005KT 10SM SCT015 01/00 A2996 RMK AO2=
201012061001 SPECI KCLM 061001Z AUTO 25005KT 10SM SCT015 01/00 A2996 RMK AO2=
201012060953 METAR KCLM 060953Z AUTO 24004KT 10SM BKN015 01/00 A2996 RMK AO2 SLP148 T00060000=
201012060944 SPECI KCLM 060944Z AUTO 00000KT 10SM BKN015 01/00 A2996 RMK AO2=
201012060944 SPECI KCLM 060944Z AUTO 00000KT 10SM BKN015 01/00 A2996 RMK AO2=
201012060853 METAR KCLM 060853Z AUTO 25005KT 10SM FEW016 01/M01 A2997 RMK AO2 SLP151 T00061006 56012=
201012060753 METAR KCLM 060753Z AUTO 22003KT 10SM CLR 00/M01 A2998 RMK AO2 SLP154 T00001011 400671011=
201012060653 METAR KCLM 060653Z AUTO VRB03KT 10SM CLR M01/M01 A2999 RMK AO2 SLP157 T10061011=
201012060553 METAR KCLM 060553Z AUTO 00000KT 10SM CLR M01/M02 A3000 RMK AO2 SLP162 T10111022 10056 21011 56013=
201012060453 METAR KCLM 060453Z AUTO 23005KT 10SM CLR 00/M01 A3001 RMK AO2 SLP166 T00001011=
201012060353 METAR KCLM 060353Z AUTO 00000KT 10SM CLR 00/M01 A3003 RMK AO2 SLP171 T00001011=
201012060329 SPECI KCLM 060329Z AUTO 14004KT 10SM SCT020 02/00 A3003 RMK AO2=
201012060329 SPECI KCLM 060329Z AUTO 14004KT 10SM SCT020 02/00 A3003 RMK AO2=
201012060307 SPECI KCLM 060307Z AUTO 06004KT 10SM BKN020 05/02 A3004 RMK AO2=
201012060307 SPECI KCLM 060307Z AUTO 06004KT 10SM BKN020 05/02 A3004 RMK AO2=
201012060253 METAR KCLM 060253Z AUTO VRB03KT 10SM FEW020 SCT100 03/00 A3004 RMK AO2 SLP176 T00280000 58013=
201012060153 METAR KCLM 060153Z AUTO 07003KT 10SM FEW024 BKN110 06/01 A3006 RMK AO2 SLP183 T00560006=
201012060053 METAR KCLM 060053Z AUTO VRB05KT 10SM BKN110 06/00 A3006 RMK AO2 SLP182 T00560000=
201012052353 METAR KCLM 052353Z AUTO 10005KT 10SM FEW025 BKN120 06/00 A3008 RMK AO2 SLP188 T00560000 10067 20044 56014=
201012052307 SPECI KCLM 052307Z AUTO 10006KT 10SM SCT023 06/00 A3009 RMK AO2=
201012052307 SPECI KCLM 052307Z AUTO 10006KT 10SM SCT023 06/00 A3009 RMK AO2=
201012052253 METAR KCLM 052253Z AUTO 10006KT 10SM BKN023 06/00 A3009 RMK AO2 SLP193 T00560000=
201012052205 SPECI KCLM 052205Z AUTO 08005KT 10SM BKN023 06/M01 A3010 RMK AO2=
201012052205 SPECI KCLM 052205Z AUTO 08005KT 10SM BKN023 06/M01 A3010 RMK AO2=
201012052153 METAR KCLM 052153Z AUTO 09004KT 10SM SCT023 06/M01 A3011 RMK AO2 SLP197 T00561006=
201012052053 METAR KCLM 052053Z AUTO VRB06KT 10SM FEW022 BKN120 06/00 A3012 RMK AO2 SLP204 T00560000 58013=
201012051953 METAR KCLM 051953Z AUTO VRB04KT 10SM CLR 06/00 A3014 RMK AO2 SLP209 T00560000=
201012051905 SPECI KCLM 051905Z AUTO VRB05KT 10SM FEW023 05/M01 A3016 RMK AO2=
201012051905 SPECI KCLM 051905Z AUTO VRB05KT 10SM FEW023 05/M01 A3016 RMK AO2=
201012051853 METAR KCLM 051853Z AUTO 07005KT 10SM BKN023 05/M01 A3016 RMK AO2 SLP216 T00501006=
201012051839 SPECI KCLM 051839Z AUTO VRB05KT 10SM BKN023 BKN100 05/M01 A3016 RMK AO2=
201012051839 SPECI KCLM 051839Z AUTO VRB05KT 10SM BKN023 BKN100 05/M01 A3016 RMK AO2=
201012051814 SPECI KCLM 051814Z AUTO 05004KT 10SM SCT023 BKN100 05/00 A3016 RMK AO2=
201012051814 SPECI KCLM 051814Z AUTO 05004KT 10SM SCT023 BKN100 05/00 A3016 RMK AO2=
201012051803 SPECI KCLM 051803Z AUTO VRB03KT 10SM BKN023 BKN100 05/00 A3016 RMK AO2=
201012051803 SPECI KCLM 051803Z AUTO VRB03KT 10SM BKN023 BKN100 05/00 A3016 RMK AO2=
201012051753 METAR KCLM 051753Z AUTO VRB05KT 10SM SCT023 BKN100 05/00 A3016 RMK AO2 SLP217 T00500000 10050 21011 51004=
201012051653 METAR KCLM 051653Z AUTO 00000KT 10SM SCT110 01/M01 A3016 RMK AO2 SLP215 T00061011=
201012051553 METAR KCLM 051553Z AUTO 23003KT 10SM CLR M01/M02 A3016 RMK AO2 SLP216 T10061017=
201012051453 METAR KCLM 051453Z AUTO 00000KT 10SM CLR 00/M02 A3015 RMK AO2 SLP212 T00001017 55002=
201012051438 SPECI KCLM 051438Z AUTO 20003KT 10SM SCT021 01/M01 A3015 RMK AO2=
201012051438 SPECI KCLM 051438Z AUTO 20003KT 10SM SCT021 01/M01 A3015 RMK AO2=
201012051415 SPECI KCLM 051415Z AUTO 09003KT 10SM BKN021 03/00 A3015 RMK AO2=
201012051415 SPECI KCLM 051415Z AUTO 09003KT 10SM BKN021 03/00 A3015 RMK AO2=
201012051353 METAR KCLM 051353Z AUTO 00000KT 10SM CLR 01/M01 A3014 RMK AO2 SLP211 T00111006=
201012051253 METAR KCLM 051253Z AUTO 00000KT 10SM OVC120 02/00 A3015 RMK AO2 SLP213 T00170000=
201012051153 METAR KCLM 051153Z AUTO 24005KT 10SM SCT024 BKN120 02/M01 A3016 RMK AO2 SLP215 T00221006 10022 21006 56004=
201012051136 SPECI KCLM 051136Z AUTO 28003KT 10SM BKN024 OVC120 02/M01 A3016 RMK AO2=
201012051136 SPECI KCLM 051136Z AUTO 28003KT 10SM BKN024 OVC120 02/M01 A3016 RMK AO2=
201012051053 METAR KCLM 051053Z AUTO 00000KT 10SM OVC110 01/M01 A3016 RMK AO2 SLP215 T00111006=
201012050953 METAR KCLM 050953Z AUTO 23004KT 10SM OVC110 02/M01 A3016 RMK AO2 SLP215 T00171006=
201012050853 METAR KCLM 050853Z AUTO 00000KT 10SM FEW120 01/M01 A3017 RMK AO2 SLP219 T00061011 58004=
201012050753 METAR KCLM 050753Z AUTO 23005KT 10SM CLR 01/M01 A3018 RMK AO2 SLP223 T00111011 400611017=
201012050653 METAR KCLM 050653Z AUTO 22003KT 10SM FEW120 00/M02 A3018 RMK AO2 SLP223 T00001017=
201012050553 METAR KCLM 050553Z AUTO 23004KT 10SM SCT110 00/M02 A3018 RMK AO2 SLP224 T00001017 10033 21017 53003=
201012050453 METAR KCLM 050453Z AUTO 23005KT 10SM BKN110 01/M02 A3017 RMK AO2 SLP221 T00061022=
201012050353 METAR KCLM 050353Z AUTO 22005KT 10SM CLR M02/M03 A3017 RMK AO2 SLP220 T10171028=
201012050253 METAR KCLM 050253Z AUTO 22004KT 10SM CLR 00/M02 A3017 RMK AO2 SLP221 T00001022 56003=
201012050153 METAR KCLM 050153Z AUTO 22004KT 10SM CLR 00/M03 A3017 RMK AO2 SLP221 T00001028=
201012050053 METAR KCLM 050053Z AUTO 13003KT 10SM CLR 02/M02 A3018 RMK AO2 SLP223 T00171017=
201012042353 METAR KCLM 042353Z AUTO 15004KT 10SM CLR 03/M02 A3018 RMK AO2 SLP223 T00281017 10061 20028 56014=
201012042253 METAR KCLM 042253Z AUTO 11009KT 10SM CLR 06/M02 A3019 RMK AO2 SLP226 T00561022=
201012042153 METAR KCLM 042153Z AUTO 09006KT 10SM CLR 06/M03 A3020 RMK AO2 SLP229 T00611028=
201012042053 METAR KCLM 042053Z AUTO 11006KT 10SM SCT031 06/M02 A3022 RMK AO2 SLP237 T00611017 58016=
201012041953 METAR KCLM 041953Z AUTO 11008KT 10SM BKN031 05/M02 A3024 RMK AO2 SLP243 T00501017=
201012041853 METAR KCLM 041853Z AUTO 08007KT 10SM OVC031 05/M02 A3026 RMK AO2 SLP250 T00501017=
201012041832 SPECI KCLM 041832Z AUTO 08007KT 10SM OVC031 05/M02 A3027 RMK AO2=
201012041832 SPECI KCLM 041832Z AUTO 08007KT 10SM OVC031 05/M02 A3027 RMK AO2=
201012041753 METAR KCLM 041753Z AUTO 08008G17KT 10SM FEW022 OVC029 05/M01 A3027 RMK AO2 SLP253 T00501011 10050 20044 53005=
201012041653 METAR KCLM 041653Z AUTO 08009KT 10SM SCT019 OVC026 04/00 A3027 RMK AO2 SLP251 T00440000=
201012041553 METAR KCLM 041553Z AUTO 09009KT 10SM OVC025 04/M01 A3026 RMK AO2 SLP248 T00441011=
201012041453 METAR KCLM 041453Z AUTO 08007KT 10SM OVC027 04/M01 A3026 RMK AO2 SLP248 T00441006 56005=
201012041353 METAR KCLM 041353Z AUTO 07008G14KT 10SM OVC027 04/M01 A3026 RMK AO2 SLP248 T00441011=
201012041253 METAR KCLM 041253Z AUTO 06007G14KT 020V100 10SM BKN017 OVC021 04/01 A3026 RMK AO2 SLP248 T00440011=
201012041153 METAR KCLM 041153Z AUTO 08008KT 10SM BKN020 OVC024 05/01 A3027 RMK AO2 SLP253 T00500006 10056 20050 56005=
201012041112 SPECI KCLM 041112Z AUTO VRB05KT 10SM BKN016 OVC024 05/02 A3027 RMK AO2=
201012041112 SPECI KCLM 041112Z AUTO VRB05KT 10SM BKN016 OVC024 05/02 A3027 RMK AO2=
201012041053 METAR KCLM 041053Z AUTO 07006KT 10SM BKN014 OVC026 05/02 A3028 RMK AO2 SLP255 T00500017=
201012041037 SPECI KCLM 041037Z AUTO 08007KT 10SM BKN016 BKN028 OVC034 05/02 A3028 RMK AO2=
201012041037 SPECI KCLM 041037Z AUTO 08007KT 10SM BKN016 BKN028 OVC034 05/02 A3028 RMK AO2=
201012041008 SPECI KCLM 041008Z AUTO 09008KT 10SM FEW017 SCT027 OVC034 05/01 A3027 RMK AO2=
201012041008 SPECI KCLM 041008Z AUTO 09008KT 10SM FEW017 SCT027 OVC034 05/01 A3027 RMK AO2=
201012040953 METAR KCLM 040953Z AUTO 09007KT 10SM FEW017 OVC027 05/01 A3028 RMK AO2 SLP255 T00500011=
201012040909 SPECI KCLM 040909Z AUTO 06007KT 10SM OVC015 05/02 A3028 RMK AO2=
201012040909 SPECI KCLM 040909Z AUTO 06007KT 10SM OVC015 05/02 A3028 RMK AO2=
201012040853 METAR KCLM 040853Z AUTO 08006KT 10SM OVC013 05/02 A3029 RMK AO2 SLP258 T00500022 58003=
201012040839 SPECI KCLM 040839Z AUTO 12005KT 10SM BKN013 BKN018 OVC025 05/02 A3029 RMK AO2=
201012040839 SPECI KCLM 040839Z AUTO 12005KT 10SM BKN013 BKN018 OVC025 05/02 A3029 RMK AO2=
201012040825 SPECI KCLM 040825Z AUTO 09004KT 10SM BKN015 BKN025 OVC032 05/02 A3030 RMK AO2=
201012040825 SPECI KCLM 040825Z AUTO 09004KT 10SM BKN015 BKN025 OVC032 05/02 A3030 RMK AO2=
201012040753 METAR KCLM 040753Z AUTO 08007KT 10SM BKN013 OVC023 05/02 A3030 RMK AO2 SLP264 T00500022 400671017=
201012040653 METAR KCLM 040653Z AUTO 10009KT 10SM OVC013 05/03 A3030 RMK AO2 SLP262 T00500028=
201012040553 METAR KCLM 040553Z AUTO 08008KT 10SM BKN013 OVC018 05/03 A3030 RMK AO2 SLP261 60000 T00500028 10061 20050 52002=
201012040453 METAR KCLM 040453Z AUTO 08006KT 10SM BKN011 OVC016 06/03 A3029 RMK AO2 CIG 008V012 SLP260 T00560028=
201012040444 SPECI KCLM 040444Z AUTO 09007KT 10SM BKN009 OVC015 06/03 A3030 RMK AO2=
201012040444 SPECI KCLM 040444Z AUTO 09007KT 10SM BKN009 OVC015 06/03 A3030 RMK AO2=
201012040437 SPECI KCLM 040437Z AUTO 09007KT 10SM FEW009 BKN013 OVC020 06/03 A3029 RMK AO2=
201012040437 SPECI KCLM 040437Z AUTO 09007KT 10SM FEW009 BKN013 OVC020 06/03 A3029 RMK AO2=
201012040430 SPECI KCLM 040430Z AUTO 09006G17KT 10SM BKN016 BKN023 OVC031 06/02 A3029 RMK AO2=
201012040430 SPECI KCLM 040430Z AUTO 09006G17KT 10SM BKN016 BKN023 OVC031 06/02 A3029 RMK AO2=
201012040353 METAR KCLM 040353Z AUTO 07009KT 10SM OVC013 06/03 A3029 RMK AO2 RAB12E26 SLP260 P0000 T00560028=
201012040348 SPECI KCLM 040348Z AUTO 07008KT 10SM BKN013 OVC022 06/03 A3029 RMK AO2 RAB12E26 P0000=
201012040348 SPECI KCLM 040348Z AUTO 07008KT 10SM BKN013 OVC022 06/03 A3029 RMK AO2 RAB12E26 P0000=
201012040341 SPECI KCLM 040341Z AUTO 07006KT 10SM SCT011 BKN017 OVC034 06/03 A3029 RMK AO2 RAB12E26 P0000=
201012040341 SPECI KCLM 040341Z AUTO 07006KT 10SM SCT011 BKN017 OVC034 06/03 A3029 RMK AO2 RAB12E26 P0000=
201012040253 METAR KCLM 040253Z AUTO 07007KT 10SM BKN014 BKN018 OVC024 06/03 A3029 RMK AO2 RAE0156 SLP259 P0000 60000 T00560028 55002=
201012040230 SPECI KCLM 040230Z AUTO VRB06G16KT 10SM BKN014 OVC021 06/03 A3029 RMK AO2 RAE0156 P0000=
201012040230 SPECI KCLM 040230Z AUTO VRB06G16KT 10SM BKN014 OVC021 06/03 A3029 RMK AO2 RAE0156 P0000=
201012040208 SPECI KCLM 040208Z AUTO 07006KT 10SM SCT012 OVC021 06/03 A3029 RMK AO2 RAE0156 P0000=
201012040208 SPECI KCLM 040208Z AUTO 07006KT 10SM SCT012 OVC021 06/03 A3029 RMK AO2 RAE0156 P0000=
201012040153 METAR KCLM 040153Z AUTO 07007KT 10SM -RA BKN012 OVC021 06/03 A3029 RMK AO2 SLP259 P0000 T00560033=
201012040053 METAR KCLM 040053Z AUTO 12005KT 10SM -RA BKN011 OVC016 06/03 A3029 RMK AO2 RAB42 SLP260 P0000 T00560033=
201012040033 SPECI KCLM 040033Z AUTO 11004KT 10SM BKN013 OVC017 06/03 A3029 RMK AO2=
201012040033 SPECI KCLM 040033Z AUTO 11004KT 10SM BKN013 OVC017 06/03 A3029 RMK AO2=
201012032353 METAR KCLM 032353Z AUTO 09006KT 10SM FEW013 BKN022 OVC048 06/03 A3029 RMK AO2 SLP260 60000 T00610028 10067 20028 53002=
201012032330 SPECI KCLM 032330Z AUTO 08004KT 10SM SCT013 OVC022 06/03 A3029 RMK AO2=
201012032330 SPECI KCLM 032330Z AUTO 08004KT 10SM SCT013 OVC022 06/03 A3029 RMK AO2=
201012032253 METAR KCLM 032253Z AUTO 08004KT 10SM BKN013 BKN025 OVC046 06/03 A3029 RMK AO2 SLP259 T00610033=
201012032239 SPECI KCLM 032239Z AUTO 08005KT 10SM BKN013 BKN023 OVC048 06/03 A3029 RMK AO2=
201012032239 SPECI KCLM 032239Z AUTO 08005KT 10SM BKN013 BKN023 OVC048 06/03 A3029 RMK AO2=
201012032227 SPECI KCLM 032227Z AUTO 10005KT 10SM FEW013 BKN023 OVC048 06/03 A3029 RMK AO2=
201012032227 SPECI KCLM 032227Z AUTO 10005KT 10SM FEW013 BKN023 OVC048 06/03 A3029 RMK AO2=
201012032218 SPECI KCLM 032218Z AUTO 09006KT 10SM FEW013 BKN032 OVC048 06/03 A3029 RMK AO2=
201012032218 SPECI KCLM 032218Z AUTO 09006KT 10SM FEW013 BKN032 OVC048 06/03 A3029 RMK AO2=
201012032153 METAR KCLM 032153Z AUTO 08006KT 10SM FEW013 BKN026 OVC046 06/03 A3029 RMK AO2 RAB39E51 SLP260 P0000 T00610033=
201012032114 SPECI KCLM 032114Z AUTO 09006KT 10SM FEW013 BKN021 OVC046 06/03 A3029 RMK AO2 $=
201012032114 SPECI KCLM 032114Z AUTO 09006KT 10SM FEW013 BKN021 OVC046 06/03 A3029 RMK AO2 $=
201012032053 METAR KCLM 032053Z AUTO 07005KT 10SM FEW019 OVC044 07/03 A3029 RMK AO2 SLP259 T00670028 56001 $=
201012032048 SPECI KCLM 032048Z AUTO 09006KT 10SM FEW019 SCT024 OVC044 06/03 A3029 RMK AO2 $=
201012032048 SPECI KCLM 032048Z AUTO 09006KT 10SM FEW019 SCT024 OVC044 06/03 A3029 RMK AO2 $=
201012032015 SPECI KCLM 032015Z AUTO 10005KT 10SM BKN021 OVC044 07/03 A3029 RMK AO2 $=
201012032015 SPECI KCLM 032015Z AUTO 10005KT 10SM BKN021 OVC044 07/03 A3029 RMK AO2 $=
201012031953 METAR KCLM 031953Z AUTO 09005KT 10SM FEW025 OVC044 07/02 A3029 RMK AO2 SLP259 T00670022 $=
201012031853 METAR KCLM 031853Z AUTO 08003KT 10SM FEW024 OVC042 06/02 A3029 RMK AO2 SLP259 T00560017 $=
201012031753 METAR KCLM 031753Z AUTO 24005KT 10SM SCT020 OVC042 02/01 A3028 RMK AO2 SLP258 T00220006 10022 21017 $=
201012031743 SPECI KCLM 031743Z AUTO 22005KT 10SM BKN020 BKN035 OVC042 02/01 A3028 RMK AO2 $=
201012031743 SPECI KCLM 031743Z AUTO 22005KT 10SM BKN020 BKN035 OVC042 02/01 A3028 RMK AO2 $=
201012031653 METAR KCLM 031653Z AUTO 24004KT 10SM OVC032 02/00 A3027 RMK AO2 SLP252 T00170000 $=
201012031607 SPECI KCLM 031607Z AUTO 23006KT 10SM OVC030 02/00 A3024 RMK AO2 $=
201012031607 SPECI KCLM 031607Z AUTO 23006KT 10SM OVC030 02/00 A3024 RMK AO2 $=
201012031553 METAR KCLM 031553Z AUTO 24006KT 10SM OVC028 01/00 A3024 RMK AO2 SLP242 T00110000 $=
201012031453 METAR KCLM 031453Z AUTO 23006KT 10SM OVC028 01/00 A3023 RMK AO2 SLP239 T00110000 51016=
201012031405 SPECI KCLM 031405Z AUTO 10SM BKN026 00/M01 A3022 RMK AO2 $=
201012031405 SPECI KCLM 031405Z AUTO 10SM BKN026 00/M01 A3022 RMK AO2 $=
201012031353 METAR KCLM 031353Z AUTO 10SM SCT026 SCT080 00/M01 A3021 RMK AO2 SLP234 T00001011 $=
201012031253 METAR KCLM 031253Z AUTO 10SM CLR M02/M03 A3020 RMK AO2 SLP229 T10171028 $=
201012031153 METAR KCLM 031153Z AUTO 10SM 01/M01 A3018 RMK AO2 SLP223 T00111006 10028 21011 $=
201012031120 SPECI KCLM 031120Z AUTO 10SM SCT026 00/M01 A3017 RMK AO2 $=
201012031120 SPECI KCLM 031120Z AUTO 10SM SCT026 00/M01 A3017 RMK AO2 $=
201012031053 METAR KCLM 031053Z AUTO 10SM FEW012 BKN024 01/M01 A3017 RMK AO2 SLP219 T00111006 $=
201012031044 SPECI KCLM 031044Z AUTO 10SM FEW012 BKN022 01/M01 A3017 RMK AO2 $=
201012031044 SPECI KCLM 031044Z AUTO 10SM FEW012 BKN022 01/M01 A3017 RMK AO2 $=
201012030953 METAR KCLM 030953Z AUTO 24004KT 10SM SCT065 M01/M02 A3015 RMK AO2 SLP212 T10061017 $=
201012030853 METAR KCLM 030853Z AUTO 23003KT 10SM CLR M01/M02 A3013 RMK AO2 SLP204 T10111017 51016 $=
201012030753 METAR KCLM 030753Z AUTO 23006KT 10SM BKN060 01/M01 A3012 RMK AO2 SLP200 T00061006 400671011 $=
201012030653 METAR KCLM 030653Z AUTO 23003KT 10SM SCT095 02/01 A3010 RMK AO2 SLP195 T00170006 $=
201012030553 METAR KCLM 030553Z AUTO 24003KT 10SM SCT095 00/M01 A3008 RMK AO2 SLP188 T00001011 10056 20000 53010 $=
201012030453 METAR KCLM 030453Z AUTO 16003KT 10SM BKN100 02/01 A3006 RMK AO2 SLP182 T00170011 $=
201012030353 METAR KCLM 030353Z AUTO 00000KT 10SM OVC065 03/02 A3005 RMK AO2 SLPNO T00330022 $=
201012030253 METAR KCLM 030253Z AUTO 00000KT 10SM OVC070 04/03 A3005 RMK AO2 SLP177 T00390028 53004 $=
201012030153 METAR KCLM 030153Z AUTO 28003KT 10SM FEW010 BKN070 OVC090 04/03 A3004 RMK AO2 SLP176 T00390028 $=
201012030053 METAR KCLM 030053Z AUTO 25003KT 10SM FEW010 BKN075 OVC090 04/03 A3004 RMK AO2 SLP174 T00440028 $=
201012030048 SPECI KCLM 030048Z AUTO 26003KT 10SM SCT010 BKN075 OVC090 04/03 A3004 RMK AO2 $=
201012030048 SPECI KCLM 030048Z AUTO 26003KT 10SM SCT010 BKN075 OVC090 04/03 A3004 RMK AO2 $=
201012030012 SPECI KCLM 030012Z AUTO 00000KT 10SM OVC010 05/03 A3003 RMK AO2 $=
201012030012 SPECI KCLM 030012Z AUTO 00000KT 10SM OVC010 05/03 A3003 RMK AO2 $=
201012022353 METAR KCLM 022353Z AUTO 00000KT 10SM OVC008 06/03 A3003 RMK AO2 SLP172 T00560033 10067 20033 55003 $=
201012022311 SPECI KCLM 022311Z AUTO 00000KT 10SM BKN008 OVC013 06/03 A3003 RMK AO2 CIG 006V009 $=
201012022311 SPECI KCLM 022311Z AUTO 00000KT 10SM BKN008 OVC013 06/03 A3003 RMK AO2 CIG 006V009 $=
201012022253 METAR KCLM 022253Z AUTO 00000KT 10SM OVC013 06/03 A3003 RMK AO2 SLP169 T00560033 $=
201012022153 METAR KCLM 022153Z AUTO 00000KT 10SM OVC011 06/03 A3003 RMK AO2 SLP169 T00610033 $=
201012022143 SPECI KCLM 022143Z AUTO 00000KT 10SM OVC011 06/03 A3003 RMK AO2 $=
201012022143 SPECI KCLM 022143Z AUTO 00000KT 10SM OVC011 06/03 A3003 RMK AO2 $=
201012022127 SPECI KCLM 022127Z AUTO VRB03KT 10SM BKN009 OVC070 06/04 A3003 RMK AO2 $=
201012022127 SPECI KCLM 022127Z AUTO VRB03KT 10SM BKN009 OVC070 06/04 A3003 RMK AO2 $=
201012022053 METAR KCLM 022053Z AUTO 00000KT 10SM BKN060 BKN080 06/02 A3004 RMK AO2 SLP173 T00610022 56008 $=
201012021953 METAR KCLM 021953Z AUTO 00000KT 10SM BKN070 BKN090 07/02 A3004 RMK AO2 SLP176 T00670022 $=
201012021853 METAR KCLM 021853Z AUTO 00000KT 10SM BKN095 06/02 A3005 RMK AO2 SLP179 T00560017 $=
201012021753 METAR KCLM 021753Z AUTO 00000KT 10SM SCT070 OVC100 03/01 A3006 RMK AO2 SLP182 T00330011 10033 21011 $=
201012021653 METAR KCLM 021653Z AUTO 22005KT 10SM BKN070 02/M01 A3006 RMK AO2 SLP180 T00221006 $=
201012021600 METAR KCLM NIL=
201012021453 METAR KCLM 021453Z AUTO 22004KT 10SM CLR M01/M02 A3006 RMK AO2 SLP181 T10061017 56005=
201012021353 METAR KCLM 021353Z AUTO 22006KT 10SM SCT070 01/M01 A3006 RMK AO2 SLP182 T00061011=
201012021253 METAR KCLM 021253Z AUTO 00000KT 10SM BKN070 OVC080 02/M01 A3006 RMK AO2 SLP183 T00171006=
201012021153 METAR KCLM 021153Z AUTO 22003KT 10SM FEW070 BKN085 01/M01 A3007 RMK AO2 SLP185 7//// T00061011 10044 20006 58002=
201012021053 METAR KCLM 021053Z AUTO 23006KT 10SM BKN070 02/00 A3008 RMK AO2 SLP188 T00220000=
201012020953 METAR KCLM 020953Z AUTO 22005KT 10SM OVC070 03/01 A3008 RMK AO2 SLP187 T00280006=
201012020853 METAR KCLM 020853Z AUTO 24005KT 10SM OVC075 03/01 A3008 RMK AO2 SLP188 T00330006 53002=
201012020753 METAR KCLM 020753Z AUTO 24005KT 10SM OVC075 03/01 A3008 RMK AO2 SLP188 T00330011 400720022=
201012020653 METAR KCLM 020653Z AUTO 23007KT 10SM OVC070 04/01 A3007 RMK AO2 SLP185 T00440011=
201012020553 METAR KCLM 020553Z AUTO 24005KT 10SM OVC070 04/01 A3007 RMK AO2 SLP185 T00440011 10067 20039 51003=
201012020453 METAR KCLM 020453Z AUTO 25007KT 10SM OVC070 05/01 A3007 RMK AO2 SLP185 T00500011=
201012020353 METAR KCLM 020353Z AUTO 24004KT 10SM OVC070 05/02 A3007 RMK AO2 SLP184 T00500017=
201012020253 METAR KCLM 020253Z AUTO 25005KT 10SM OVC070 04/02 A3006 RMK AO2 SLP182 T00390022 56005=
201012020153 METAR KCLM 020153Z AUTO 18003KT 10SM OVC070 04/03 A3007 RMK AO2 SLP183 T00440028=
201012020053 METAR KCLM 020053Z AUTO 00000KT 10SM OVC065 06/03 A3007 RMK AO2 SLP184 T00560033=
201012012353 METAR KCLM 012353Z AUTO 30004KT 10SM OVC065 07/04 A3008 RMK AO2 SLP187 6//// T00670039 10072 20056 55004=
201012012253 METAR KCLM 012253Z AUTO 13007KT 10SM OVC065 07/04 A3006 RMK AO2 SLP182 T00720039=
201012012153 METAR KCLM 012153Z AUTO 00000KT 10SM OVC065 07/03 A3008 RMK AO2 SLP187 T00670028=
201012012053 METAR KCLM 012053Z AUTO 27003KT 10SM OVC065 07/03 A3009 RMK AO2 SLP192 6//// T00720028 58005=
201012011953 METAR KCLM 011953Z AUTO 26003KT 10SM OVC065 07/03 A3010 RMK AO2 SLP195 T00670028 $=
201012011853 METAR KCLM 011853Z AUTO 10SM OVC065 07/03 A3012 RMK AO2 SLP200 T00670028 $=
201012011753 METAR KCLM 011753Z AUTO 00000KT 10SM BKN060 06/02 A3011 RMK AO2 SLP198 T00560022 10056 20022 53005 $=
201012011653 METAR KCLM 011653Z AUTO 00000KT 10SM OVC060 04/02 A3010 RMK AO2 SLP195 T00390022 $=
201012011553 METAR KCLM 011553Z AUTO 23004KT 10SM OVC060 04/02 A3010 RMK AO2 SLP194 T00390017 $=
201012011453 METAR KCLM 011453Z AUTO 24006KT 10SM OVC060 04/02 A3009 RMK AO2 SLP192 T00440017 53001 $=
201012011353 METAR KCLM 011353Z AUTO 24006KT 10SM OVC065 04/02 A3008 RMK AO2 SLP188 T00390017 $=
201012011253 METAR KCLM 011253Z AUTO 17004KT 10SM FEW050 BKN065 03/02 A3008 RMK AO2 SLP188 T00280022 $=
201012011153 METAR KCLM 011153Z AUTO 26003KT 10SM FEW050 OVC060 04/02 A3009 RMK AO2 SLP190 70006 T00440022 10061 20044 51012 $=
201012011053 METAR KCLM 011053Z AUTO 21003KT 10SM OVC060 05/02 A3008 RMK AO2 SLP188 T00500022 $=
201012010953 METAR KCLM 010953Z AUTO 23006KT 10SM OVC065 06/02 A3007 RMK AO2 SLP185 T00560022 $=
201012010853 METAR KCLM 010853Z AUTO 23004KT 10SM OVC065 05/02 A3005 RMK AO2 SLP178 T00500022 53016 $=
201012010753 METAR KCLM 010753Z AUTO 26009KT 10SM SCT060 05/02 A3004 RMK AO2 SLP174 T00500017 400890033 $=
201012010653 METAR KCLM 010653Z AUTO 26008KT 10SM SCT055 06/02 A3001 RMK AO2 SLP166 T00560017 $=
201012010553 METAR KCLM 010553Z AUTO 25008KT 10SM BKN041 06/02 A3001 RMK AO2 SLP162 60001 T00560022 10078 20050 53008 $=
201012010453 METAR KCLM 010453Z AUTO 26007KT 10SM BKN042 BKN060 BKN100 06/04 A2999 RMK AO2 RAE36 SLP159 P0000 T00610044 $=
201012010411 SPECI KCLM 010411Z AUTO 24006KT 10SM -RA FEW027 BKN033 OVC080 06/05 A2998 RMK AO2 P0000 $=
201012010411 SPECI KCLM 010411Z AUTO 24006KT 10SM -RA FEW027 BKN033 OVC080 06/05 A2998 RMK AO2 P0000 $=
201012010353 METAR KCLM 010353Z AUTO 25006KT 10SM -RA FEW013 SCT021 OVC028 06/05 A2998 RMK AO2 SLP154 P0000 T00610050 $=
201012010349 SPECI KCLM 010349Z AUTO 28008KT 10SM -RA FEW005 BKN022 OVC028 06/05 A2998 RMK AO2 P0000 $=
201012010349 SPECI KCLM 010349Z AUTO 28008KT 10SM -RA FEW005 BKN022 OVC028 06/05 A2998 RMK AO2 P0000 $=
201012010340 SPECI KCLM 010340Z AUTO 28008KT 10SM -RA SCT005 BKN014 OVC030 07/06 A2998 RMK AO2 P0000 $=
201012010340 SPECI KCLM 010340Z AUTO 28008KT 10SM -RA SCT005 BKN014 OVC030 07/06 A2998 RMK AO2 P0000 $=
201012010313 SPECI KCLM 010313Z AUTO 30012KT 7SM -RA BKN005 OVC009 07/06 A2997 RMK AO2 CIG 003V007 P0000 $=
201012010313 SPECI KCLM 010313Z AUTO 30012KT 7SM -RA BKN005 OVC009 07/06 A2997 RMK AO2 CIG 003V007 P0000 $=
201012010253 METAR KCLM 010253Z AUTO 30010G16KT 5SM -RA BR OVC003 07/06 A2997 RMK AO2 CIG 001V007 SLP150 P0001 60001 T00670061 52018 $=
201012010217 SPECI KCLM 010217Z AUTO 30010G18KT 6SM -RA BR OVC003 07/06 A2996 RMK AO2 P0001 $=
201012010217 SPECI KCLM 010217Z AUTO 30010G18KT 6SM -RA BR OVC003 07/06 A2996 RMK AO2 P0001 $=
201012010153 METAR KCLM 010153Z AUTO 00000KT 10SM -RA OVC007 07/06 A2995 RMK AO2 SLP144 P0000 T00670061 $=
201012010104 SPECI KCLM 010104Z AUTO 18003KT 5SM -RA BR OVC009 07/06 A2994 RMK AO2 CIG 008V012 P0000 $=
201012010104 SPECI KCLM 010104Z AUTO 18003KT 5SM -RA BR OVC009 07/06 A2994 RMK AO2 CIG 008V012 P0000 $=
201012010053 METAR KCLM 010053Z AUTO 00000KT 3SM -RA BR OVC011 07/07 A2993 RMK AO2 RAB01 CIG 008V013 SLP138 P0000 T00720067 $=
201012010038 SPECI KCLM 010038Z AUTO 00000KT 10SM -RA OVC013 08/07 A2993 RMK AO2 RAB01 P0000 $=
201012010038 SPECI KCLM 010038Z AUTO 00000KT 10SM -RA OVC013 08/07 A2993 RMK AO2 RAB01 P0000 $=
201012010006 SPECI KCLM 010006Z AUTO 00000KT 10SM -RA SCT015 BKN021 OVC055 08/07 A2992 RMK AO2 RAB01 P0000 $=
201012010006 SPECI KCLM 010006Z AUTO 00000KT 10SM -RA SCT015 BKN021 OVC055 08/07 A2992 RMK AO2 RAB01 P0000 $=

# No short TAF reports from KCLM in databse.

###################################
#  large TAF from KCLM
###################################
201012312328 TAF KCLM 312328Z 0100/0124 10005KT P6SM SKC=
201012312031 KCLM 312031Z 3121/0118 04003KT P6SM SCT020 SCT200
                      TEMPO 3121/3124 OVC018 FM010200 20004KT P6SM
                       SCT200=
201012311741 TAF KCLM 311741Z 3118/0118 07004KT P6SM SCT200 FM010200 20004KT
                       P6SM SKC=
201012311120 TAF KCLM 311120Z 3112/0112 20005KT P6SM SCT030
                      TEMPO 3112/3116 BKN030 FM311800 09005KT P6SM
                       SKC FM010200 20004KT P6SM SKC=
201012310520 TAF KCLM 310520Z 3106/0106 20005KT P6SM SKC FM312000 09005KT P6SM
                       SKC FM010200 19004KT P6SM SKC=
201012302320 TAF KCLM 302320Z 3100/3124 09007KT P6SM SKC FM310300 23006KT P6SM
                       SKC FM311600 VRB04KT P6SM SKC=
201012301902 KCLM 301902Z 3019/3118 09005KT P6SM SKC FM310300 23006KT P6SM SKC=
201012301723 TAF KCLM 301723Z 3018/3118 04003KT P6SM BKN050 FM310300 23006KT
                       P6SM SKC=
201012301120 TAF KCLM 301120Z 3012/3112 23005KT P6SM BKN045 FM301600 08006KT
                       P6SM SKC FM310300 23006KT P6SM SKC=
201012300539 TAF KCLM 300539Z 3006/3106 23005KT P6SM SCT080
                      TEMPO 3012/3016 BKN008 FM301600 09006KT P6SM
                       SKC FM310300 23006KT P6SM SKC=
201012292320 TAF KCLM 292320Z 3000/3024 27015G19KT P6SM FEW060 FM300400 23005KT
                       P6SM SCT025 FM301300 VRB04KT P6SM SCT025=
201012291738 TAF KCLM 291738Z 2918/3018 29010KT P6SM SKC FM300800 23005KT P6SM
                       SCT025 FM301300 VRB04KT P6SM SCT025=
201012291520 TAF AMD KCLM 291520Z 2915/3012 29010KT P6SM SCT035 FM291900 26018G25KT
                       P6SM SCT090 FM292200 27012G18KT P6SM SKC
                       FM300800 23005KT P6SM SKC=
201012291138 TAF KCLM 291138Z 2912/3012 27016G24KT P6SM VCSH SCT050 BKN080 FM291900
                       26018G25KT P6SM SCT090 FM292200 27012G18KT
                       P6SM SKC FM300800 23005KT P6SM SKC=
201012290541 TAF KCLM 290541Z 2906/3006 25006KT P6SM SCT025 OVC040
                      TEMPO 2906/2908 -SHRA SCT018 BKN025 OVC040
                       FM290800 26008KT P6SM SCT040 BKN060 FM291200
                       26016G24KT P6SM VCSH SCT018 BKN030
                      TEMPO 2912/2916 -SHRASN BKN018 OVC030 FM291900
                       26018G25KT P6SM SCT045 FM292200 27012G18KT
                       P6SM SKC=
201012282339 TAF KCLM 282339Z 2900/2924 28003KT P6SM SCT020 OVC045 FM290400
                       23005KT P6SM BKN012 OVC020 FM291000 26012KT
                       P6SM SCT015 BKN030 OVC050
                      TEMPO 2910/2914 -RASN BKN015 BKN030 FM291600
                       25015KT P6SM VCSH SCT015 BKN035 FM292200
                       29012KT P6SM SCT050=
201012281901 KCLM 281901Z 2819/2918 28008KT P6SM SCT028 OVC040 FM290000 24006KT
                       P6SM SCT060 BKN100 FM290500 23005KT P6SM
                       SCT045 BKN060 FM291000 25009KT P6SM SCT015
                       BKN030 OVC050
                      TEMPO 2910/2912 -RASN BKN015 BKN030 FM291600
                       25015KT P6SM VCSH SCT015 BKN035=
201012281736 TAF KCLM 281736Z 2818/2918 25006KT P6SM OVC030 FM282100 27007KT
                       P6SM SCT030 BKN050 FM290000 24006KT P6SM
                       SCT060 BKN100 FM290500 23005KT P6SM SCT045
                       BKN060 FM291000 25009KT P6SM SCT015 BKN030
                       OVC050
                      TEMPO 2910/2912 -RASN BKN015 BKN030 FM291600
                       25015KT P6SM VCSH SCT015 BKN035=
201012281537 KCLM 281537Z 2816/2912 26008KT P6SM OVC026 FM281900 27007KT P6SM
                       SCT028 SCT050 FM290000 24006KT P6SM SCT060
                       BKN100 FM290500 23005KT P6SM SCT045 BKN060
                       FM291000 25009KT P6SM SCT015 BKN030 OVC050
                       TEMPO 2910/2912 -RA=
201012281142 TAF KCLM 281142Z 2812/2912 27006KT P6SM VCSH SCT030 BKN050 FM281700
                       27007KT P6SM SCT050 FM290000 24006KT P6SM
                       SCT060 BKN100 FM290500 23005KT P6SM SCT045
                       BKN060 FM291000 25009KT P6SM SCT015 BKN030
                       OVC050
                      TEMPO 2910/2912 -RA=
201012280705 KCLM 280705Z 2807/2906 27006KT P6SM VCSH BKN009 FM281800 27007KT
                       P6SM SCT035 BKN050 FM290000 24006KT P6SM
                       BKN100 FM290500 23005KT P6SM SCT045 BKN060=
201012280544 TAF KCLM 280544Z 2806/2906 24005KT P6SM BKN050 FM280900 26008KT
                       P6SM VCSH SCT012 BKN025 FM281800 27007KT
                       P6SM SCT035 BKN050 FM290000 24006KT P6SM
                       BKN100 FM290500 23005KT P6SM SCT045 BKN060=
201012280205 KCLM 280205Z 2802/2824 00000KT P6SM SCT040 BKN080 OVC100
                      TEMPO 2802/2806 -RA BKN025 OVC040 FM280600
                       25006KT P6SM -RA SCT010 BKN020 OVC035 FM282000
                       27005KT P6SM BKN030 OVC050=
201012272334 TAF KCLM 272334Z 2800/2824 28003KT P6SM VCSH SCT060 BKN100 FM280200
                       VRB03KT 5SM -RA BR SCT008 BKN015 OVC045
                       FM280900 25006KT P6SM -RA SCT010 BKN020
                       OVC035 FM282000 27005KT P6SM BKN030 OVC050=
201012271745 TAF KCLM 271745Z 2718/2818 00000KT P6SM FEW070 OVC100 FM272200
                       VRB03KT P6SM -RA SCT025 OVC040 FM280200
                       VRB03KT 5SM -RA BR SCT008 BKN015 OVC045
                       FM280900 25006KT P6SM -RA SCT010 BKN020
                       OVC035=
201012271144 TAF KCLM 271144Z 2712/2812 24006KT P6SM VCSH SCT025 BKN045
                      TEMPO 2712/2716 -SHRA BKN025 OVC045 FM271600
                       VRB03KT P6SM BKN045 OVC070 FM272200 VRB03KT
                       P6SM -RA SCT025 OVC040 FM280200 VRB03KT
                       5SM -RA BR SCT008 BKN015 OVC045 FM280900
                       25006KT P6SM -RA SCT010 BKN020 OVC035=
201012270540 TAF KCLM 270540Z 2706/2806 24006KT P6SM VCSH SCT035 BKN050
                      TEMPO 2706/2710 -SHRA SCT020 BKN030 FM271600
                       VRB03KT P6SM VCSH SCT020 BKN040 OVC070 FM272200
                       VRB03KT P6SM -RA SCT025 OVC040 FM280200
                       VRB03KT 5SM -RA BR SCT008 BKN015 OVC045=
201012262330 TAF KCLM 262330Z 2700/2724 26010G20KT P6SM SCT025 OVC045
                      TEMPO 2700/2703 5SM -SHRA BKN025 OVC040 FM270300
                       25012KT P6SM VCSH SCT030 BKN050 FM271600
                       VRB03KT P6SM VCSH SCT020 BKN040 OVC070 FM272000
                       VRB03KT 5SM -RA BR OVC020=
201012261735 TAF KCLM 261735Z 2618/2718 VRB03KT P6SM VCSH SCT015 BKN045
                      TEMPO 2618/2620 BKN015 OVC045 FM262000 26006KT
                       P6SM -SHRA BKN035 BKN050 FM270300 25010KT
                       P6SM VCSH SCT050 BKN070=
201012261621 KCLM 261621Z 2616/2712 VRB03KT P6SM VCSH SCT015 BKN045
                      TEMPO 2616/2619 BKN015 OVC045 FM261900 25005KT
                       P6SM -SHRA BKN035 BKN050 FM270300 24008KT
                       P6SM VCSH SCT050 BKN070=
201012261136 TAF KCLM 261136Z 2612/2712 VRB03KT P6SM VCSH SCT015 BKN045
                      TEMPO 2612/2616 BKN015 OVC045 FM261900 25005KT
                       P6SM -SHRA BKN035 BKN050 FM270300 24008KT
                       P6SM VCSH SCT050 BKN070=
201012260909 KCLM 260909Z 2609/2706 VRB03KT P6SM SCT015 OVC025
                      TEMPO 2609/2613 BKN015 OVC025 FM261300 09003KT
                       P6SM VCSH BKN008 OVC015 FM262000 25005KT
                       P6SM -SHRA BKN030 BKN050 FM270300 25009KT
                       P6SM VCSH SCT050 BKN090=
201012260545 TAF KCLM 260545Z 2606/2706 27005KT P6SM OVC090
                      TEMPO 2606/2607 -RA SCT025 OVC050 FM261300
                       19003KT P6SM VCSH SCT025 BKN045 FM261900
                       25005KT P6SM -SHRA BKN030 BKN050 FM270300
                       25009KT P6SM VCSH SCT050 BKN090=
201012260255 KCLM 260255Z 2603/2624 VRB03KT P6SM -RA BKN012 OVC060
                      TEMPO 2603/2607 SCT012 OVC060 FM261000 25006KT
                       P6SM -RA BKN020 OVC040 FM261300 VRB03KT
                       P6SM VCSH SCT025 BKN045 FM261900 VRB03KT
                       P6SM VCSH BKN030 BKN045=
201012252330 TAF KCLM 252330Z 2600/2624 VRB03KT P6SM VCSH SCT045 OVC070 FM260200
                       VRB03KT 6SM -RA BR BKN015 OVC035 FM261000
                       25006KT P6SM -RA BKN020 OVC040 FM261300
                       VRB03KT P6SM VCSH SCT025 BKN045 FM261900
                       VRB03KT P6SM VCSH BKN030 BKN045=
201012251735 TAF KCLM 251735Z 2518/2618 VRB03KT P6SM VCSH SCT045 OVC070 FM260300
                       VRB03KT 6SM -RA BR BKN015 OVC035 FM261000
                       25006KT P6SM -RA BKN020 OVC040 FM261400
                       VRB03KT P6SM VCSH SCT025 BKN045=
201012251140 TAF KCLM 251140Z 2512/2612 VRB04KT P6SM -RA SCT040 OVC050 FM260300
                       24006KT 6SM -RA BR SCT008 BKN015 OVC050
                       FM261000 22003KT P6SM -RA SCT008 OVC050=
201012250541 TAF KCLM 250541Z 2506/2606 VRB04KT P6SM -RA SCT040 OVC050=
201012242325 TAF KCLM 242325Z 2500/2524 VRB04KT P6SM -RA SCT035 OVC050 FM250300
                       VRB04KT P6SM -RA BKN030 OVC045 FM251400
                       VRB02KT P6SM SCT035 OVC050=
201012242051 KCLM 242051Z 2421/2518 VRB04KT P6SM -RA OVC060 FM250100 12004KT
                       P6SM -RA BKN030 OVC045 FM250800 VRB02KT
                       P6SM -RA BKN025 OVC040=
201012241730 TAF KCLM 241730Z 2418/2518 14010G24KT P6SM -RA BKN045 OVC060 FM250100
                       12004KT P6SM -RA BKN030 OVC045 FM250800
                       VRB02KT P6SM -RA BKN025 OVC040=
201012241120 TAF KCLM 241120Z 2412/2512 VRB03KT P6SM BKN060 OVC100 FM241900
                       VRB03KT P6SM VCSH BKN045 OVC100=
201012240533 TAF KCLM 240533Z 2406/2506 VRB03KT P6SM VCSH SCT050 OVC100 FM241600
                       VRB03KT P6SM SCT035 OVC050
                      TEMPO 2416/2420 -RA FM242000 VRB03KT P6SM
                       -RA BKN035 OVC050=
201012232355 TAF KCLM 232355Z 2400/2424 VRB03KT P6SM BKN050 OVC100
                      TEMPO 2400/2404 -RA FM240600 VRB03KT P6SM
                       VCSH SCT050 OVC100
                      PROB30 2412/2416 -RA OVC050 FM241600 VRB03KT
                       P6SM SCT035 OVC050
                      TEMPO 2416/2420 -RA FM242000 VRB03KT P6SM
                       -RA BKN035 OVC050=
201012231805 KCLM 231805Z 2318/2418 VRB03KT P6SM -RA OVC040 FM240200 VRB03KT
                       P6SM OVC050
                      TEMPO 2402/2406 -RA FM240600 VRB03KT P6SM
                       SCT050 OVC100
                      PROB30 2414/2418 -RA OVC050=
201012231746 TAF KCLM 231746Z 2318/2418 11006KT P6SM BKN070 OVC120 FM232100
                       11006KT P6SM -RA BKN050 OVC070=
201012231512 KCLM 231512Z 2315/2412 VRB03KT P6SM -RA OVC045 FM231800 11006KT
                       P6SM BKN070 OVC120 FM232100 11006KT P6SM
                       -RA BKN050 OVC070=
201012231146 TAF KCLM 231146Z 2312/2412 VRB03KT P6SM SCT070 BKN120 FM231600
                       11006KT P6SM BKN070 OVC120 FM232100 11006KT
                       P6SM -RA BKN050 OVC070=
201012230526 TAF KCLM 230526Z 2306/2406 VRB03KT P6SM SCT060 BKN200 FM231600
                       11006KT P6SM BKN070 OVC120 FM232100 11006KT
                       P6SM -RA BKN050 OVC070=
201012222325 TAF KCLM 222325Z 2300/2324 VRB03KT P6SM SCT025
                      TEMPO 2300/2302 BKN025 FM230600 VRB03KT P6SM
                       BKN070 OVC120 FM231200 11006KT P6SM -RA
                       OVC045=
201012221735 TAF KCLM 221735Z 2218/2318 22005KT P6SM SCT070 FM230600 VRB03KT
                       P6SM BKN070 FM231200 11006KT P6SM -RA OVC045=
201012221144 TAF KCLM 221144Z 2212/2312 15006KT P6SM SCT040 BKN060 BKN090 FM230100
                       11006KT P6SM BKN070=
201012220605 TAF KCLM 220605Z 2206/2306 15006KT P6SM SCT040 BKN060 OVC090 FM221500
                       15006KT P6SM -RA SCT030 BKN040 OVC050 FM222000
                       VRB03KT P6SM SCT035 BKN050 FM230100 11006KT
                       P6SM BKN070=
201012212349 TAF KCLM 212349Z 2200/2224 VRB03KT P6SM SCT080 BKN250
                      TEMPO 2200/2204 BKN080 BKN250 FM220800 VRB03KT
                       P6SM SCT040 OVC080
                      PROB30 2209/2213 -RA FM221300 VRB03KT 5SM
                       -RA BR BKN022 OVC040 FM221700 VRB03KT P6SM
                       BKN022 OVC040
                      PROB30 2217/2220 -SHRA FM222000 VRB03KT P6SM
                       BKN050 FM222200 VRB03KT P6SM SCT050=
201012211750 TAF KCLM 211750Z 2118/2218 VRB03KT P6SM SCT080 BKN250 FM221100
                       VRB03KT P6SM SCT040 OVC080
                      TEMPO 2211/2213 -RA FM221300 VRB03KT P6SM
                       -RA SCT025 OVC040
                      TEMPO 2213/2217 4SM -RA BR BKN025 OVC040=
201012211141 TAF KCLM 211141Z 2112/2212 VRB03KT P6SM SCT080 BKN150=
201012210541 TAF KCLM 210541Z 2106/2206 VRB03KT P6SM BKN060 BKN080 FM211800
                       09006KT P6SM SCT080 BKN200=
201012202343 TAF KCLM 202343Z 2100/2124 VRB03KT P6SM VCSH OVC060 FM210600 VRB03KT
                       P6SM VCSH SCT080 BKN200
                      TEMPO 2106/2110 BKN080 BKN200 FM211900 07005KT
                       P6SM SCT080 BKN200=
201012201737 TAF KCLM 201737Z 2018/2118 VRB05KT P6SM SCT035 OVC060
                      TEMPO 2018/2022 -SHRA BKN035 OVC050 FM202200
                       VRB03KT P6SM VCSH BKN080 FM210000 VRB03KT
                       P6SM VCSH SCT080 BKN200
                      TEMPO 2100/2104 BKN080 BKN200=
201012201120 TAF KCLM 201120Z 2012/2112 24006KT P6SM VCSH BKN060 FM201400 24006KT
                       P6SM VCSH SCT030 BKN060=
201012200520 TAF KCLM 200520Z 2006/2106 23005KT P6SM BKN080 BKN200 FM200900
                       13006KT P6SM VCSH SCT025 OVC040 FM201400
                       11006KT P6SM VCSH SCT025 BKN070=
201012192320 TAF KCLM 192320Z 2000/2024 11006KT P6SM SCT020 BKN200
                      TEMPO 2000/2002 BKN020 BKN200 FM200700 23004KT
                       P6SM BKN070 BKN200 FM201000 23004KT P6SM
                       -SHRA BKN025 OVC050=
201012192101 KCLM 192101Z 1921/2018 07005KT P6SM SCT015 SCT070 SCT200
                      TEMPO 1921/1924 BKN015 OVC070 FM200900 23004KT
                       P6SM BKN070 BKN200 FM201200 23004KT P6SM
                       -SHRA BKN025 OVC050=
201012191806 KCLM 191806Z 1918/2018 24005KT P6SM SCT015 SCT070 SCT200
                      TEMPO 1918/1920 BKN015 OVC070 FM200900 23004KT
                       P6SM BKN070 BKN200 FM201200 23004KT P6SM
                       -SHRA BKN025 OVC050=
201012191722 TAF KCLM 191722Z 1918/2018 24005KT P6SM SCT070 SCT200 FM200900
                       23004KT P6SM BKN070 BKN200 FM201200 23004KT
                       P6SM -SHRA BKN025 OVC050=
201012191457 KCLM 191457Z 1915/2012 13004KT P6SM SCT015 BKN070
                      TEMPO 1915/1919 BKN015 OVC070 FM191900 VRB04KT
                       P6SM SCT070 FM200600 10008KT P6SM BKN070=
201012191123 TAF KCLM 191123Z 1912/2012 VRB04KT P6SM OVC050
                      TEMPO 1912/1915 -SHRA FM191600 VRB04KT P6SM
                       SCT070 FM200600 10008KT P6SM BKN070=
201012190544 TAF KCLM 190544Z 1906/2006 VRB04KT P6SM OVC070 FM191400 10004KT
                       P6SM -SHRA BKN025 OVC040 FM191800 VRB04KT
                       P6SM SCT035 BKN070 FM200400 10008KT P6SM
                       VCSH BKN025 OVC050=
201012182323 TAF KCLM 182323Z 1900/1924 24005KT P6SM -SHRA OVC040 FM190300 VRB03KT
                       P6SM BKN050 BKN090 FM191500 VRB03KT P6SM
                       -SHRA BKN030 OVC050 FM192000 VRB03KT P6SM
                       SCT050 BKN090=
201012181723 TAF KCLM 181723Z 1818/1918 11010KT P6SM BKN060 OVC090
                      TEMPO 1818/1821 -SHRA BKN020 OVC040 FM190000
                       VRB04KT P6SM SCT070 BKN120=
201012181407 KCLM 181407Z 1814/1912 09016G22KT P6SM SCT070 OVC090 FM181900 06007KT
                       P6SM -RA BKN030 OVC040 FM190000 10005KT
                       P6SM VCSH SCT030 BKN040=
201012181120 TAF KCLM 181120Z 1812/1912 09013KT P6SM OVC090 FM181900 06007KT
                       P6SM -RA BKN030 OVC040 FM190000 10005KT
                       P6SM VCSH SCT030 BKN040=
201012180554 TAF KCLM 180554Z 1806/1906 12005KT P6SM OVC120 FM181100 09013KT
                       P6SM OVC090 FM181900 06007KT P6SM -RA BKN030
                       OVC040
                      TEMPO 1901/1903 -RASN=
201012172333 TAF KCLM 172333Z 1800/1824 00000KT P6SM FEW150 BKN250 FM180600
                       06010KT P6SM OVC120 FM181100 09015KT P6SM
                       OVC090 FM181900 06007KT P6SM -RA BKN020
                       OVC040=
201012171724 TAF KCLM 171724Z 1718/1818 VRB04KT P6SM FEW100 FM180600 06010KT
                       P6SM OVC120 FM181100 09015KT P6SM OVC100=
201012171132 TAF KCLM 171132Z 1712/1812 VRB04KT P6SM SCT120 BKN200 FM180600
                       06010KT P6SM OVC120 FM181100 09015KT P6SM
                       OVC100=
201012170533 TAF KCLM 170533Z 1706/1806 00000KT P6SM BKN120 BKN200 FM171200
                       VRB04KT P6SM SCT120 BKN200=
201012162332 TAF KCLM 162332Z 1700/1724 00000KT P6SM BKN110 BKN200 FM171200
                       07003KT P6SM BKN080 OVC150=
201012161740 TAF KCLM 161740Z 1618/1718 00000KT P6SM FEW080 OVC110 FM162100
                       07004KT P6SM SCT100 BKN200=
201012161423 KCLM 161423Z 1614/1712 00000KT P6SM BKN013 OVC090 FM161600 VRB03KT
                       P6SM SCT050 BKN100=
201012161139 TAF KCLM 161139Z 1612/1712 VRB03KT P6SM SCT050 BKN100=
201012160540 TAF KCLM 160540Z 1606/1706 VRB03KT P6SM SCT025 BKN050
                      TEMPO 1609/1612 BKN025 OVC050 FM162000 VRB03KT
                       P6SM SCT050 BKN100=
201012152342 TAF KCLM 152342Z 1600/1624 00000KT P6SM VCSH BKN040 BKN080 FM160400
                       VRB03KT P6SM VCSH OVC025 FM160900 13003KT
                       P6SM OVC018 FM161900 14003KT P6SM SCT025
                       BKN050=
201012151741 TAF KCLM 151741Z 1518/1618 23003KT P6SM VCSH SCT070 BKN100
                      TEMPO 1520/1524 -SHRA OVC025 FM160100 14010KT
                       P6SM VCSH OVC025 FM160900 13010KT P6SM OVC018=
201012151132 TAF KCLM 151132Z 1512/1612 VRB04KT P6SM VCSH SCT025 BKN035
                      TEMPO 1512/1516 -SHRA BKN025 FM151900 VRB04KT
                       P6SM SCT030 SCT050 FM152100 VRB04KT P6SM
                       -SHRA BKN030 BKN040 FM160300 09005KT P6SM
                       -SHRA OVC030=
201012150529 TAF KCLM 150529Z 1506/1606 22004KT P6SM VCSH SCT025 BKN050 OVC100
                       TEMPO 1506/1510 -SHRA BKN025 FM151800 VRB03KT
                       P6SM VCSH SCT030 SCT050
                      PROB30 1520/1524 -SHRA BKN030 BKN050=
201012142337 TAF KCLM 142337Z 1500/1524 25009KT P6SM VCSH SCT028 SCT050
                      TEMPO 1500/1503 -SHRA BKN028 BKN050 FM150300
                       25009KT P6SM VCSH SCT028 BKN050 FM150600
                       22004KT P6SM VCSH SCT025 BKN050 FM151800
                       VRB03KT P6SM VCSH SCT030 SCT050
                      PROB30 1520/1524 -SHRA BKN030 BKN050=
201012141754 TAF KCLM 141754Z 1418/1518 VRB03KT P6SM SCT020 BKN050
                      TEMPO 1418/1420 4SM SHRA BKN020 OVC050 FM142000
                       25007KT P6SM SCT025 BKN050
                      TEMPO 1420/1424 -SHRA BKN025 BKN050 FM150000
                       25010KT P6SM SCT025 BKN050 FM150600 22006KT
                       P6SM SCT050=
201012141304 KCLM 141304Z 1413/1512 VRB03KT P6SM FEW023 SCT028 BKN045
                      TEMPO 1413/1416 BKN025 FM142000 25007KT P6SM
                       VCSH SCT030 BKN050 FM150300 25005KT P6SM
                       VCSH OVC030=
201012141129 TAF KCLM 141129Z 1412/1512 24010G18KT P6SM -SHRA SCT025 BKN040
                       TEMPO 1412/1416 BKN025 FM142000 25007KT
                       P6SM VCSH SCT030 BKN050 FM150300 25005KT
                       P6SM VCSH OVC030=
201012140731 KCLM 140731Z 1408/1506 27025G35KT 4SM +TSRA BKN008 OVC015CB FM140900
                       22005KT P6SM -SHRA BKN020 OVC040 FM141500
                       25007KT P6SM SCT025 BKN040
                      TEMPO 1415/1419 -SHRA BKN025 OVC040 FM141900
                       25007KT P6SM VCSH SCT030 BKN050=
201012140532 TAF KCLM 140532Z 1406/1506 VRB03KT P6SM -RA SCT030 BKN050 OVC080
                       FM140700 VRB03KT P6SM -RA FEW008 BKN015
                       OVC030
                      TEMPO 1408/1411 4SM -RA BR BKN008 OVC015
                       FM141100 22005KT P6SM -SHRA BKN020 OVC040
                       FM141500 25007KT P6SM SCT025 BKN040
                      TEMPO 1415/1419 -SHRA BKN025 OVC040 FM141900
                       25007KT P6SM VCSH SCT030 BKN050=
201012132340 TAF KCLM 132340Z 1400/1424 VRB03KT P6SM VCSH BKN060 FM140400 VRB03KT
                       P6SM VCSH SCT030 OVC050 FM140800 VRB03KT
                       P6SM -RA FEW008 BKN015 OVC030
                      TEMPO 1408/1411 4SM -RA BR BKN008 OVC015
                       FM141100 22005KT P6SM BKN020 OVC040
                      TEMPO 1411/1415 -SHRA FM141500 25007KT P6SM
                       SCT025 BKN040
                      TEMPO 1415/1419 -SHRA BKN025 OVC040 FM141900
                       25007KT P6SM SCT030 BKN050
                      PROB30 1419/1424 -SHRA=
201012132055 KCLM 132055Z 1321/1418 VRB03KT P6SM SCT003 SCT060
                      TEMPO 1321/1323 BKN003 BKN060 FM140200 VRB03KT
                       P6SM BKN060 BKN120 FM140900 VRB03KT P6SM
                       SCT030 OVC060
                      TEMPO 1409/1412 -RA FM141200 21005KT P6SM
                       -RA BKN030 OVC050 FM141400 25008KT 5SM SHRA
                       BKN015 OVC030=
201012131745 TAF KCLM 131745Z 1318/1418 VRB03KT P6SM VCSH BKN060 FM132000 VRB03KT
                       P6SM VCSH SCT060
                      TEMPO 1320/1324 BKN060 FM140200 VRB03KT P6SM
                       BKN060 BKN120 FM140900 VRB03KT P6SM SCT030
                       OVC060
                      TEMPO 1409/1412 -RA FM141200 21005KT P6SM
                       -RA BKN030 OVC050 FM141400 25008KT 5SM SHRA
                       BKN015 OVC030=
201012131340 KCLM 131340Z 1314/1412 23005KT P6SM SCT015 BKN070
                      TEMPO 1314/1318 BKN015 FM131800 VRB04KT P6SM
                       BKN030 OVC060 FM132100 VRB04KT P6SM OVC030
                       FM140100 VRB04KT 5SM -RA BR OVC025 FM140800
                       24008KT 4SM -SHRA OVC025=
201012131135 TAF KCLM 131135Z 1312/1412 00000KT P6SM FEW005 BKN015 BKN025
                      TEMPO 1312/1316 2SM BR BKN005 FM131800 VRB04KT
                       P6SM BKN030 OVC060 FM132100 VRB04KT P6SM
                       OVC030 FM140100 VRB04KT 5SM -RA BR OVC025
                       FM140800 24008KT 4SM -SHRA OVC025=
201012130535 TAF KCLM 130535Z 1306/1406 VRB03KT P6SM VCSH SCT004 OVC010
                      TEMPO 1306/1310 5SM BR BKN004 OVC010 FM131000
                       00000KT 2SM BR OVC002 FM132000 VRB03KT P6SM
                       SCT015 OVC025=
201012130305 KCLM 130305Z 1303/1324 28008KT P6SM SCT007 OVC050
                      TEMPO 1303/1306 2SM -RA BKN007 BKN013 FM130600
                       25003KT P6SM SCT004 OVC010
                      TEMPO 1306/1310 5SM BR BKN004 OVC010 FM131000
                       00000KT 2SM BR OVC002 FM132000 VRB03KT P6SM
                       BKN015 OVC025=
201012122342 TAF KCLM 122342Z 1300/1324 28008KT P6SM SCT007 OVC050
                      TEMPO 1300/1304 -RA BKN007 BKN015 OVC050
                       FM130600 25003KT P6SM SCT004 OVC010
                      TEMPO 1306/1310 5SM BR BKN004 OVC010 FM131000
                       00000KT 2SM BR OVC002 FM132000 VRB03KT P6SM
                       BKN015 OVC025=
201012122147 KCLM 122147Z 1222/1318 28006KT P6SM SCT004 BKN030 OVC080
                      TEMPO 1222/1301 -RA BKN004 OVC030 FM130100
                       27005KT P6SM SCT025 BKN050 FM130700 VRB03KT
                       3SM BR BKN009=
201012121841 KCLM 121841Z 1219/1318 VRB03KT P6SM BKN040 OVC080 FM130100 27005KT
                       P6SM SCT025 BKN050 FM130700 VRB03KT 3SM
                       BR BKN009=
201012121741 TAF KCLM 121741Z 1218/1318 00000KT 2SM RA BR SCT002 OVC025
                      TEMPO 1218/1221 BKN002 OVC025 FM122100 26005KT
                       P6SM BKN009 OVC025 FM130100 27005KT P6SM
                       SCT025 BKN050 FM130700 VRB03KT 3SM BR BKN009=
201012121141 TAF KCLM 121141Z 1212/1312 VRB05KT 5SM -RA SCT002 BKN035 OVC060
                       TEMPO 1212/1216 3SM RA BKN002 FM122200 VRB05KT
                       P6SM OVC022=
201012120816 KCLM 120816Z 1208/1306 VRB05KT 4SM -RA SCT005 OVC025
                      TEMPO 1208/1212 2SM RA BR BKN002 FM121200
                       VRB05KT 4SM -RA OVC018 FM122200 VRB05KT
                       P6SM OVC022=
201012120538 TAF KCLM 120538Z 1206/1306 VRB05KT 4SM -RA SCT020 BKN030 OVC060
                       TEMPO 1206/1210 2SM RA BR BKN020 FM121000
                       VRB05KT 4SM -RA OVC018 FM122200 VRB05KT
                       P6SM OVC022=
201012112342 TAF KCLM 112342Z 1200/1224 VRB03KT 5SM -RA BR SCT035 OVC045
                      TEMPO 1202/1206 3SM -RA BR OVC027 FM120600
                       VRB05KT 4SM -RA OVC020 FM121400 VRB05KT
                       5SM -RA OVC018 FM122200 VRB05KT P6SM OVC022=
201012111743 TAF KCLM 111743Z 1118/1218 00000KT P6SM OVC060 FM112200 10006KT
                       P6SM -RA BKN045 OVC070 FM120500 09010KT
                       4SM -RA OVC020 FM121400 VRB05KT 5SM -RA
                       OVC018=
201012111140 TAF KCLM 111140Z 1112/1212 24005KT P6SM FEW006 OVC120
                      TEMPO 1112/1115 BKN006 FM111800 10006KT P6SM
                       BKN070 OVC100 FM120100 10006KT P6SM -RA
                       BKN040 OVC070 FM120700 09010KT 4SM -RA OVC020=
201012111000 KCLM 111000Z 1110/1206 24005KT P6SM SCT060 BKN200
                      TEMPO 1110/1114 BKN006 FM111800 10006KT P6SM
                       BKN070 OVC150 FM120100 10006KT P6SM -RA
                       BKN040 OVC070 FM120400 09010KT P6SM -RA
                       OVC020=
201012110534 TAF KCLM 110534Z 1106/1206 24005KT P6SM SCT060 BKN200 FM111800
                       10006KT P6SM BKN070 OVC150 FM120100 10006KT
                       P6SM -RA BKN040 OVC070 FM120400 09010KT
                       P6SM -RA OVC020=
201012102343 TAF KCLM 102343Z 1100/1124 VRB03KT P6SM SCT045 BKN100 FM110600
                       24005KT P6SM SCT100 BKN200 FM111700 VRB03KT
                       P6SM -RA BKN070 OVC120 FM112000 VRB03KT
                       P6SM -RA BKN050 OVC080=
201012101743 TAF KCLM 101743Z 1018/1118 26006KT P6SM VCSH SCT030 BKN050 FM102200
                       VRB03KT P6SM SCT030 BKN070 FM110600 24005KT
                       P6SM BKN150 OVC200 FM111600 VRB03KT P6SM
                       -RA BKN070 OVC120=
201012101140 TAF KCLM 101140Z 1012/1112 25009KT P6SM -SHRA SCT030 BKN050 OVC080
                       FM101800 26006KT P6SM VCSH SCT030 BKN050
                       FM102100 VRB03KT P6SM SCT040 BKN060 FM110600
                       VRB04KT P6SM SCT050 BKN150 OVC200=
201012100530 TAF KCLM 100530Z 1006/1106 25007KT P6SM -SHRA SCT025 BKN035 OVC060
                       TEMPO 1006/1010 BKN025 FM101000 24004KT
                       P6SM -SHRA BKN025 OVC040 FM101800 VRB04KT
                       P6SM SCT030 BKN050=
201012092320 TAF KCLM 092320Z 1000/1024 VRB05KT P6SM VCSH SCT025 BKN050
                      TEMPO 1000/1004 4SM SHRA BR BKN025 OVC050=
201012091720 TAF KCLM 091720Z 0918/1018 VRB05KT P6SM VCSH SCT025 BKN050
                      TEMPO 1000/1004 4SM SHRA BR BKN025 OVC050=
201012091136 TAF KCLM 091136Z 0912/1012 25009G14KT P6SM VCSH OVC060
                      TEMPO 0914/0918 -SHRA BKN025 OVC050=
201012090522 TAF KCLM 090522Z 0906/1006 VRB04KT P6SM -SHRA BKN035 OVC050=
201012082356 KCLM 082356Z 0900/0924 VRB04KT P6SM -SHRA BKN035 BKN070
                      TEMPO 0900/0904 3SM SHRA BR OVC025 FM090600
                       VRB04KT P6SM VCSH BKN025 OVC040 FM091600
                       VRB04KT P6SM VCSH SCT025 BKN050=
201012082320 TAF KCLM 082320Z 0900/0924 VRB04KT P6SM -SHRA BKN035 BKN070 FM090600
                       VRB04KT P6SM VCSH BKN025 OVC040 FM091600
                       VRB04KT P6SM VCSH SCT025 BKN050=
201012081720 TAF KCLM 081720Z 0818/0918 31006KT P6SM VCSH SCT020 BKN040
                      TEMPO 0820/0824 SCT040 BKN080 FM090600 VRB03KT
                       P6SM VCSH BKN025 OVC040 FM091600 VRB03KT
                       P6SM VCSH SCT025 BKN050=
201012081128 TAF KCLM 081128Z 0812/0912 VRB06KT P6SM -RA SCT025 OVC060 FM081600
                       20004KT P6SM -SHRA BKN025 BKN040 FM082200
                       22004KT P6SM VCSH BKN040 BKN060 FM090800
                       VRB04KT 5SM -SHRA BKN020 BKN040=
201012080524 TAF KCLM 080524Z 0806/0906 00000KT P6SM -RA OVC050 FM081200 VRB06KT
                       5SM -RA BR OVC020 FM081600 20004KT P6SM
                       -SHRA BKN025 BKN040 FM082200 22004KT P6SM
                       VCSH BKN040 BKN060=
201012072320 TAF KCLM 072320Z 0800/0824 09005KT P6SM -RA OVC050 FM080400 09007KT
                       5SM -RA OVC035 WS020/18040KT FM081200 VRB06KT
                       5SM -RA BR OVC020 FM081600 20010KT P6SM
                       -SHRA BKN030 BKN060 FM082200 22010KT P6SM
                       VCSH BKN040 BKN080=
201012071735 TAF KCLM 071735Z 0718/0818 12006KT P6SM BKN050 OVC100 FM072000
                       VRB04KT P6SM -RA SCT020 OVC050 FM080400
                       VRB04KT 5SM -RA SCT008 OVC020
                      TEMPO 0806/0810 3SM -RA BR OVC008 FM081600
                       27008KT P6SM VCSH BKN030 BKN060=
201012071121 TAF KCLM 071121Z 0712/0812 00000KT P6SM SCT060 OVC100 FM072000
                       VRB04KT P6SM -RA SCT020 OVC050 FM080400
                       VRB04KT 5SM -RA SCT008 OVC020
                      TEMPO 0806/0810 3SM -RA BR OVC008=
201012070527 TAF KCLM 070527Z 0706/0806 00000KT P6SM OVC070 FM070800 VRB04KT
                       P6SM -RA BKN050 OVC070
                      TEMPO 0712/0716 5SM -RA BR SCT008 OVC035
                       FM071800 VRB04KT 6SM -RA SCT008 OVC030 FM072300
                       VRB04KT P6SM -RA OVC035=
201012062336 TAF KCLM 062336Z 0700/0724 VRB03KT P6SM VCSH SCT050 BKN070 FM070800
                       VRB04KT P6SM -RA BKN050 OVC070
                      TEMPO 0712/0716 5SM -RA BR SCT008 OVC040=
201012061745 TAF KCLM 061745Z 0618/0718 11004KT P6SM BKN014 BKN120
                      TEMPO 0620/0622 SCT070 BKN120 FM062200 09005KT
                       P6SM VCSH SCT050 BKN060 FM070700 VRB04KT
                       P6SM -RA BKN040 OVC070=
201012061603 KCLM 061603Z 0616/0712 VRB04KT P6SM BKN014 BKN120
                      TEMPO 0619/0621 SCT070 BKN120 FM062100 09005KT
                       P6SM VCSH SCT045 BKN070 FM070700 VRB04KT
                       P6SM -RA BKN040 OVC070=
201012061418 KCLM 061418Z 0614/0712 VRB04KT P6SM BKN015 BKN200 FM061600 VRB04KT
                       P6SM SCT070 BKN120 FM062200 09005KT P6SM
                       VCSH SCT045 BKN070 FM070700 VRB04KT P6SM
                       -RA BKN040 OVC070=
201012061138 TAF KCLM 061138Z 0612/0712 VRB04KT P6SM SCT015 SCT120 BKN200
                      TEMPO 0612/0616 BKN015 FM061600 VRB04KT P6SM
                       SCT070 BKN120 FM062200 09005KT P6SM VCSH
                       SCT045 BKN070 FM070700 VRB04KT P6SM -RA
                       BKN040 OVC070=
201012060533 TAF KCLM 060533Z 0606/0706 24004KT P6SM SCT120 BKN200 FM061500
                       VRB04KT P6SM SCT070 BKN120 FM062300 11005KT
                       P6SM VCSH SCT045 BKN070=
201012060306 KCLM 060306Z 0603/0624 10006KT P6SM SCT025 SCT080 BKN120 FM060400
                       VRB03KT P6SM SCT080 BKN120 FM061500 12003KT
                       P6SM SCT050 OVC080=
201012052341 TAF KCLM 052341Z 0600/0624 10006KT P6SM SCT025 SCT080 BKN120 FM060400
                       VRB03KT P6SM SCT080 BKN120 FM061500 12003KT
                       P6SM SCT050 OVC080=
201012051738 TAF KCLM 051738Z 0518/0618 10006KT P6SM SCT080 BKN120 FM060400
                       VRB03KT P6SM SCT080 BKN120 FM061500 16003KT
                       P6SM SCT050 OVC090=
201012051440 KCLM 051440Z 0515/0612 09005KT P6SM SCT020 SCT120
                      TEMPO 0515/0518 BKN020 BKN120 FM051800 09005KT
                       P6SM SCT120 SCT200 FM052100 10005KT P6SM
                       BKN120 BKN200=
201012051133 TAF KCLM 051133Z 0512/0612 09005KT P6SM OVC110 FM052100 10005KT
                       P6SM BKN120 BKN200=
201012050528 TAF KCLM 050528Z 0506/0606 23005KT P6SM BKN110 FM051300 10010KT
                       P6SM BKN120 BKN200=
201012042322 TAF KCLM 042322Z 0500/0524 10010KT P6SM SCT200 FM051200 10010KT
                       P6SM BKN120 BKN200=
201012041720 TAF KCLM 041720Z 0418/0518 07010KT P6SM BKN025 FM042100 07010KT
                       P6SM SCT025 SCT120 BKN200 FM051000 07010KT
                       P6SM BKN120 OVC200=
201012041406 KCLM 041406Z 0414/0512 07009KT P6SM BKN025 FM041700 07009KT P6SM
                       SCT250 FM050400 11004KT P6SM SCT025 SCT250=
201012041134 TAF KCLM 041134Z 0412/0512 07005KT P6SM VCSH BKN016 OVC024 FM050400
                       11004KT P6SM SCT025 SCT250=
201012040521 TAF KCLM 040521Z 0406/0506 08006KT P6SM VCSH BKN011 OVC016 FM040900
                       23004KT P6SM SCT015 FM041700 15004KT P6SM
                       SKC=
201012040410 KCLM 040410Z 0404/0424 07009KT P6SM VCSH OVC013 FM040900 23004KT
                       P6SM SCT015 FM041700 15004KT P6SM SKC=
201012032323 TAF KCLM 032323Z 0400/0424 08004KT P6SM BKN013 BKN025 OVC045 FM040300
                       23004KT P6SM BKN025 FM040900 23004KT P6SM
                       SCT015 FM041700 15004KT P6SM SKC=
201012031738 TAF KCLM 031738Z 0318/0418 03005KT P6SM OVC035 FM040400 23004KT
                       P6SM BKN025 FM040900 23004KT P6SM BKN015
                       FM041700 15004KT P6SM SCT012=
201012031131 TAF KCLM 031131Z 0312/0412 24004KT P6SM SCT025 BKN070
                      TEMPO 0313/0316 BKN022 FM031800 VRB03KT P6SM
                       SCT035 FM040100 VRB04KT P6SM SCT040 BKN200
                       FM040800 24005KT P6SM BKN200=
201012030527 TAF KCLM 030527Z 0306/0406 VRB03KT P6SM VCSH SCT025 OVC060 FM030900
                       24004KT P6SM VCSH BKN025 OVC070 FM031800
                       VRB03KT P6SM SCT015 BKN050 FM040100 VRB04KT
                       P6SM SCT040 BKN200=
201012030302 KCLM 030302Z 0303/0324 VRB03KT P6SM VCSH SCT015 OVC060 FM030900
                       24004KT P6SM BKN010 OVC050 FM031800 VRB03KT
                       P6SM SCT015 BKN050=
201012022338 TAF KCLM 022338Z 0300/0324 00000KT P6SM VCSH BKN008 OVC015
                      TEMPO 0300/0304 -SHRA SCT008 BKN015 OVC050
                       FM030900 24004KT P6SM BKN010 OVC050 FM031800
                       VRB03KT P6SM SCT015 BKN050=
201012022247 KCLM 022247Z 0223/0318 VRB03KT P6SM VCSH BKN012 BKN060 FM030000
                       VRB03KT P6SM -SHRA SCT012 SCT030 BKN060
                       TEMPO 0300/0304 SCT012 BKN030 FM030900 24004KT
                       P6SM VCSH BKN035 BKN060=
201012021739 TAF KCLM 021739Z 0218/0318 24005KT P6SM VCSH BKN070 FM022100 VRB03KT
                       P6SM -SHRA SCT030 BKN060 FM030300 24004KT
                       P6SM -SHRA BKN035 BKN060=
201012021137 TAF KCLM 021137Z 0212/0312 24005KT P6SM SCT006 OVC060 FM021700
                       VRB03KT P6SM VCSH BKN050 FM022100 VRB03KT
                       P6SM -SHRA SCT025 BKN045 FM030300 24004KT
                       P6SM -SHRA BKN040=
201012020524 TAF KCLM 020524Z 0206/0306 25005KT P6SM OVC060 FM021200 VRB04KT
                       P6SM SCT006 OVC060 FM021700 VRB03KT P6SM
                       BKN060 FM022100 VRB03KT P6SM VCSH SCT040
                       BKN060 FM030300 24004KT P6SM -SHRA BKN040=
201012012340 TAF KCLM 012340Z 0200/0224 13006KT P6SM OVC060 FM021100 VRB03KT
                       P6SM SCT006 OVC060 FM021700 VRB03KT P6SM
                       BKN060 FM022100 VRB03KT P6SM VCSH SCT040
                       BKN060=
201012011734 TAF KCLM 011734Z 0118/0218 00000KT P6SM BKN060 FM012100 VRB03KT
                       P6SM BKN060 FM020900 VRB03KT P6SM VCFG FEW009
                       SCT060=
201012011123 TAF KCLM 011123Z 0112/0212 VRB03KT P6SM VCSH FEW035 OVC060 FM011800
                       VRB03KT P6SM SCT035 BKN060 FM020900 VRB03KT
                       P6SM VCFG FEW009 SCT060=
201012010543 TAF KCLM 010543Z 0106/0206 25006KT P6SM VCSH BKN040 BKN070 FM010900
                       VRB03KT P6SM VCFG SCT040 SCT070 FM011200
                       VRB03KT 4SM BR BKN009 BKN040 FM011800 VRB03KT
                       P6SM BKN015 BKN050 FM012000 VRB03KT P6SM
                       FEW028 SCT050=
201012010244 KCLM 010244Z 0103/0124 30010G18KT 6SM -RA BR OVC003 FM010500 27007KT
                       P6SM VCSH SCT010 BKN040 FM010900 VRB04KT
                       P6SM VCSH BKN030 FM011800 VRB04KT P6SM SCT030
                       BKN050=
201012010058 KCLM 010058Z 0101/0124 VRB03KT P6SM VCSH BKN010 OVC040
                      TEMPO 0101/0105 3SM -SHRA BR SCT010 OVC040
                       FM010500 27007KT P6SM VCSH SCT010 BKN040
                       FM010900 VRB04KT P6SM VCSH BKN030 FM011800
                       VRB04KT P6SM SCT030 BKN050=