##########################################################
# Query made at 02/16/2025 01:41:49 UTC
# Time interval: from 01/01/2010 00:00  to 01/31/2010 23:59  UTC
##########################################################

##########################################################
# KCLM, Port Angeles, William R. Fairchild International Airport (United States)
# WMO index: -----. WIGOS ID: Unknown
# Latitude 48-07-20N. Longitude 123-30-19W. Altitude 87 m.
##########################################################

###################################
#  METAR/SPECI from KCLM
###################################
201001312353 METAR KCLM 312353Z AUTO 00000KT 10SM OVC017 08/05 A2996 RMK AO2 SLP147 T00830050 10094 20061 55006=
201001312302 SPECI KCLM 312302Z AUTO 00000KT 10SM BKN017 BKN036 08/05 A2996 RMK AO2=
201001312302 SPECI KCLM 312302Z AUTO 00000KT 10SM BKN017 BKN036 08/05 A2996 RMK AO2=
201001312253 METAR KCLM 312253Z AUTO 00000KT 10SM SCT017 BKN036 08/05 A2996 RMK AO2 SLP147 T00780050=
201001312153 METAR KCLM 312153Z AUTO 03003KT 10SM FEW012 BKN034 08/06 A2996 RMK AO2 SLP147 T00830056=
201001312053 METAR KCLM 312053Z AUTO 29005KT 10SM SCT010 BKN032 OVC060 09/06 A2998 RMK AO2 SLP153 T00890061 58006=
201001311953 METAR KCLM 311953Z AUTO 29004KT 10SM OVC030 08/06 A2999 RMK AO2 SLP156 T00830061=
201001311853 METAR KCLM 311853Z AUTO 26004KT 10SM OVC028 08/05 A3000 RMK AO2 SLP159 T00780050=
201001311753 METAR KCLM 311753Z AUTO 24007KT 10SM OVC028 06/04 A2999 RMK AO2 SLP159 T00610039 10067 20044 53008=
201001311653 METAR KCLM 311653Z AUTO 24006KT 10SM OVC022 05/03 A2998 RMK AO2 SLP155 T00500033=
201001311553 METAR KCLM 311553Z AUTO 25007KT 10SM SCT014 BKN026 BKN037 04/03 A2998 RMK AO2 SLP152 T00440028=
201001311534 SPECI KCLM 311534Z AUTO 26005KT 10SM SCT008 BKN014 OVC037 05/03 A2997 RMK AO2=
201001311534 SPECI KCLM 311534Z AUTO 26005KT 10SM SCT008 BKN014 OVC037 05/03 A2997 RMK AO2=
201001311525 SPECI KCLM 311525Z AUTO 25006KT 10SM BKN008 BKN014 OVC037 06/03 A2997 RMK AO2 CIG 006V011=
201001311525 SPECI KCLM 311525Z AUTO 25006KT 10SM BKN008 BKN014 OVC037 06/03 A2997 RMK AO2 CIG 006V011=
201001311516 SPECI KCLM 311516Z AUTO 24007KT 10SM SCT008 BKN014 OVC037 05/03 A2997 RMK AO2=
201001311516 SPECI KCLM 311516Z AUTO 24007KT 10SM SCT008 BKN014 OVC037 05/03 A2997 RMK AO2=
201001311453 METAR KCLM 311453Z AUTO 26005KT 10SM OVC008 06/04 A2997 RMK AO2 CIG 005V010 SLP151 T00610039 53001=
201001311353 METAR KCLM 311353Z AUTO 26006KT 10SM OVC008 06/04 A2997 RMK AO2 CIG 006V011 SLP150 T00610044=
201001311253 METAR KCLM 311253Z AUTO 26004KT 10SM OVC008 06/05 A2997 RMK AO2 SLP150 T00610050=
201001311153 METAR KCLM 311153Z AUTO 24005KT 10SM BKN008 OVC015 06/05 A2997 RMK AO2 SLP150 70001 T00610050 10067 20044 50000=
201001311053 METAR KCLM 311053Z AUTO 00000KT 10SM OVC024 06/06 A2997 RMK AO2 SLP151 T00610056=
201001311025 SPECI KCLM 311025Z AUTO 00000KT 6SM BR OVC024 05/05 A2997 RMK AO2=
201001311025 SPECI KCLM 311025Z AUTO 00000KT 6SM BR OVC024 05/05 A2997 RMK AO2=
201001311017 SPECI KCLM 311017Z AUTO 00000KT 2SM BR OVC024 06/05 A2997 RMK AO2=
201001311017 SPECI KCLM 311017Z AUTO 00000KT 2SM BR OVC024 06/05 A2997 RMK AO2=
201001310953 METAR KCLM 310953Z AUTO 00000KT 1/2SM FG BKN026 OVC090 05/05 A2997 RMK AO2 SLP150 T00500050=
201001310949 SPECI KCLM 310949Z AUTO 00000KT 1/2SM FG BKN026 OVC090 04/04 A2997 RMK AO2=
201001310949 SPECI KCLM 310949Z AUTO 00000KT 1/2SM FG BKN026 OVC090 04/04 A2997 RMK AO2=
201001310945 SPECI KCLM 310945Z AUTO 00000KT 1 1/2SM BR SCT026 SCT080 OVC095 04/04 A2997 RMK AO2 VIS 1/2V5=
201001310945 SPECI KCLM 310945Z AUTO 00000KT 1 1/2SM BR SCT026 SCT080 OVC095 04/04 A2997 RMK AO2 VIS 1/2V5=
201001310853 METAR KCLM 310853Z AUTO 00000KT 10SM SCT015 BKN035 OVC085 06/05 A2997 RMK AO2 SLP150 T00560050 50001=
201001310807 SPECI KCLM 310807Z AUTO 00000KT 9SM FEW001 SCT035 OVC041 06/06 A2997 RMK AO2=
201001310807 SPECI KCLM 310807Z AUTO 00000KT 9SM FEW001 SCT035 OVC041 06/06 A2997 RMK AO2=
201001310753 METAR KCLM 310753Z AUTO 00000KT 10SM BKN001 OVC033 06/06 A2997 RMK AO2 SLP151 T00610061 400830050=
201001310735 SPECI KCLM 310735Z AUTO 00000KT 5SM BR SCT001 OVC033 06/06 A2997 RMK AO2=
201001310735 SPECI KCLM 310735Z AUTO 00000KT 5SM BR SCT001 OVC033 06/06 A2997 RMK AO2=
201001310653 METAR KCLM 310653Z AUTO 00000KT 10SM OVC035 06/06 A2997 RMK AO2 SLP150 T00560056=
201001310553 METAR KCLM 310553Z AUTO 00000KT 6SM BR FEW002 BKN037 OVC055 06/05 A2997 RMK AO2 RAB17E41 SLP149 P0000 60000 T00560050 10078 20056 53002=
201001310529 SPECI KCLM 310529Z AUTO 00000KT 2SM -RA BR BKN050 OVC100 06/06 A2996 RMK AO2 VIS 1 1/2V3 RAB17 P0000=
201001310529 SPECI KCLM 310529Z AUTO 00000KT 2SM -RA BR BKN050 OVC100 06/06 A2996 RMK AO2 VIS 1 1/2V3 RAB17 P0000=
201001310516 SPECI KCLM 310516Z AUTO 00000KT 3SM BR BKN060 OVC095 06/06 A2996 RMK AO2=
201001310516 SPECI KCLM 310516Z AUTO 00000KT 3SM BR BKN060 OVC095 06/06 A2996 RMK AO2=
201001310510 SPECI KCLM 310510Z AUTO 00000KT 1 1/2SM BR SCT055 BKN070 OVC100 06/06 A2996 RMK AO2=
201001310510 SPECI KCLM 310510Z AUTO 00000KT 1 1/2SM BR SCT055 BKN070 OVC100 06/06 A2996 RMK AO2=
201001310453 METAR KCLM 310453Z AUTO 00000KT 2SM BR BKN055 BKN090 OVC100 06/06 A2996 RMK AO2 SLP147 T00610056=
201001310430 SPECI KCLM 310430Z AUTO 00000KT 3SM BR BKN060 OVC100 06/06 A2996 RMK AO2=
201001310430 SPECI KCLM 310430Z AUTO 00000KT 3SM BR BKN060 OVC100 06/06 A2996 RMK AO2=
201001310421 SPECI KCLM 310421Z AUTO 00000KT 2SM BR OVC060 06/06 A2996 RMK AO2=
201001310421 SPECI KCLM 310421Z AUTO 00000KT 2SM BR OVC060 06/06 A2996 RMK AO2=
201001310353 METAR KCLM 310353Z AUTO 00000KT 1/2SM FG SCT060 BKN080 OVC100 07/06 A2996 RMK AO2 SLP146 T00670061=
201001310314 SPECI KCLM 310314Z AUTO 00000KT 1/2SM FG SCT004 BKN060 OVC110 07/07 A2996 RMK AO2=
201001310314 SPECI KCLM 310314Z AUTO 00000KT 1/2SM FG SCT004 BKN060 OVC110 07/07 A2996 RMK AO2=
201001310253 METAR KCLM 310253Z AUTO 00000KT 1/2SM FG FEW065 OVC110 07/07 A2996 RMK AO2 RAE26 SLP147 P0000 60000 T00670067 52000=
201001310251 SPECI KCLM 310251Z AUTO 00000KT 1/2SM FG FEW080 OVC110 07/07 A2996 RMK AO2 RAE26 P0000=
201001310251 SPECI KCLM 310251Z AUTO 00000KT 1/2SM FG FEW080 OVC110 07/07 A2996 RMK AO2 RAE26 P0000=
201001310240 SPECI KCLM 310240Z AUTO 00000KT 1 3/4SM BR FEW070 BKN110 07/07 A2996 RMK AO2 RAE26 P0000=
201001310240 SPECI KCLM 310240Z AUTO 00000KT 1 3/4SM BR FEW070 BKN110 07/07 A2996 RMK AO2 RAE26 P0000=
201001310225 SPECI KCLM 310225Z AUTO 00000KT 7SM -RA FEW004 BKN060 BKN085 07/07 A2996 RMK AO2 P0000=
201001310225 SPECI KCLM 310225Z AUTO 00000KT 7SM -RA FEW004 BKN060 BKN085 07/07 A2996 RMK AO2 P0000=
201001310218 SPECI KCLM 310218Z AUTO 00000KT 2 1/2SM -RA BR SCT004 BKN046 BKN070 07/07 A2996 RMK AO2 P0000=
201001310218 SPECI KCLM 310218Z AUTO 00000KT 2 1/2SM -RA BR SCT004 BKN046 BKN070 07/07 A2996 RMK AO2 P0000=
201001310210 SPECI KCLM 310210Z AUTO 00000KT 1 3/4SM -RA BR BKN004 BKN050 OVC085 07/07 A2996 RMK AO2 P0000=
201001310210 SPECI KCLM 310210Z AUTO 00000KT 1 3/4SM -RA BR BKN004 BKN050 OVC085 07/07 A2996 RMK AO2 P0000=
201001310205 SPECI KCLM 310205Z AUTO 00000KT 3SM -RA BR BKN004 OVC055 07/07 A2996 RMK AO2 P0000=
201001310205 SPECI KCLM 310205Z AUTO 00000KT 3SM -RA BR BKN004 OVC055 07/07 A2996 RMK AO2 P0000=
201001310153 METAR KCLM 310153Z AUTO 00000KT 1 3/4SM -RA BR BKN004 OVC055 07/07 A2996 RMK AO2 VIS 1 1/4V2 1/2 SLP147 P0000 T00720067=
201001310113 SPECI KCLM 310113Z AUTO 00000KT 1 3/4SM -RA BR OVC002 08/07 A2996 RMK AO2 VIS 1V4 P0000=
201001310113 SPECI KCLM 310113Z AUTO 00000KT 1 3/4SM -RA BR OVC002 08/07 A2996 RMK AO2 VIS 1V4 P0000=
201001310053 METAR KCLM 310053Z AUTO 00000KT 6SM -RA BR OVC004 08/07 A2996 RMK AO2 SLP147 P0000 T00780067=
201001302353 METAR KCLM 302353Z AUTO 00000KT 7SM -RA OVC004 08/07 A2996 RMK AO2 RAB20 CIG 001V006 SLP147 P0000 60001 T00780072 10083 20072 55000=
201001302253 METAR KCLM 302253Z AUTO 00000KT 10SM BKN004 OVC008 08/07 A2996 RMK AO2 RAE06B24E50 CIG 001V006 SLP146 P0000 T00780067=
201001302202 SPECI KCLM 302202Z AUTO 00000KT 10SM -RA BKN002 OVC005 08/07 A2996 RMK AO2 P0000=
201001302202 SPECI KCLM 302202Z AUTO 00000KT 10SM -RA BKN002 OVC005 08/07 A2996=
201001302153 METAR KCLM 302153Z AUTO 00000KT 9SM -RA OVC005 07/07 A2996 RMK AO2 CIG 001V006 SLP146 P0000 T00720067=
201001302136 SPECI KCLM 302136Z AUTO 00000KT 8SM -RA OVC003 07/07 A2996 RMK AO2 CIG 001V006 P0000=
201001302136 SPECI KCLM 302136Z AUTO 00000KT 8SM -RA OVC003 07/07 A2996 RMK AO2 CIG 001V006 P0000=
201001302053 METAR KCLM 302053Z AUTO 36003KT 8SM -RA FEW002 OVC007 08/07 A2996 RMK AO2 CIG 004V009 SLP148 P0000 60001 T00780072 58002=
201001302010 SPECI KCLM 302010Z AUTO 00000KT 10SM -RA BKN005 OVC041 08/07 A2997 RMK AO2 P0000=
201001302010 SPECI KCLM 302010Z AUTO 00000KT 10SM -RA BKN005 OVC041 08/07 A2997 RMK AO2 P0000=
201001301953 METAR KCLM 301953Z AUTO 00000KT 10SM -RA SCT005 OVC041 08/07 A2997 RMK AO2 SLP151 P0000 T00780067=
201001301943 SPECI KCLM 301943Z AUTO 00000KT 10SM -RA FEW005 OVC041 08/07 A2997 RMK AO2 P0000=
201001301943 SPECI KCLM 301943Z AUTO 00000KT 10SM -RA FEW005 OVC041 08/07 A2997 RMK AO2 P0000=
201001301853 METAR KCLM 301853Z AUTO 00000KT 5SM -RA BR FEW026 OVC037 07/07 A2997 RMK AO2 SLP151 P0001 T00720067=
201001301845 SPECI KCLM 301845Z AUTO 00000KT 5SM -RA BR FEW028 OVC037 07/07 A2997 RMK AO2 P0001=
201001301845 SPECI KCLM 301845Z AUTO 00000KT 5SM -RA BR FEW028 OVC037 07/07 A2997 RMK AO2 P0001=
201001301817 SPECI KCLM 301817Z AUTO 00000KT 5SM -RA BR FEW012 BKN028 OVC038 07/06 A2997 RMK AO2 P0000=
201001301817 SPECI KCLM 301817Z AUTO 00000KT 5SM -RA BR FEW012 BKN028 OVC038 07/06 A2997 RMK AO2 P0000=
201001301753 METAR KCLM 301753Z AUTO 00000KT 6SM -RA BR FEW012 OVC040 07/06 A2997 RMK AO2 SLP150 P0000 60000 T00720061 10072 20061 53006=
201001301731 SPECI KCLM 301731Z AUTO 00000KT 6SM -RA BR SCT012 OVC042 07/06 A2996 RMK AO2 P0000=
201001301731 SPECI KCLM 301731Z AUTO 00000KT 6SM -RA BR SCT012 OVC042 07/06 A2996 RMK AO2 P0000=
201001301653 METAR KCLM 301653Z AUTO 00000KT 6SM -RA BR OVC012 06/06 A2996 RMK AO2 RAB13 SLP147 P0000 T00610056=
201001301616 SPECI KCLM 301616Z AUTO 00000KT 10SM -RA BKN012 OVC044 06/06 A2996 RMK AO2 RAB13 P0000=
201001301616 SPECI KCLM 301616Z AUTO 00000KT 10SM -RA BKN012 OVC044 06/06 A2996 RMK AO2 RAB13 P0000=
201001301608 SPECI KCLM 301608Z AUTO 23003KT 10SM SCT012 BKN044 OVC065 06/06 A2996 RMK AO2=
201001301608 SPECI KCLM 301608Z AUTO 23003KT 10SM SCT012 BKN044 OVC065 06/06 A2996 RMK AO2=
201001301553 METAR KCLM 301553Z AUTO 24003KT 10SM BKN012 BKN044 OVC065 06/06 A2995 RMK AO2 RAE37 SLP144 P0000 T00610056=
201001301515 SPECI KCLM 301515Z AUTO 23003KT 10SM -RA FEW006 OVC010 06/06 A2995 RMK AO2 P0000=
201001301515 SPECI KCLM 301515Z AUTO 23003KT 10SM -RA FEW006 OVC010 06/06 A2995 RMK AO2 P0000=
201001301453 METAR KCLM 301453Z AUTO 24003KT 10SM -RA OVC006 06/06 A2995 RMK AO2 CIG 005V009 SLP144 P0000 60000 T00610056 55002=
201001301353 METAR KCLM 301353Z AUTO 27003KT 10SM -RA OVC006 06/06 A2995 RMK AO2 SLP143 P0000 T00610056=
201001301253 METAR KCLM 301253Z AUTO 00000KT 8SM -RA OVC008 06/06 A2995 RMK AO2 CIG 004V010 SLP145 P0000 T00610056=
201001301153 METAR KCLM 301153Z AUTO 24003KT 8SM -RA OVC005 06/06 A2996 RMK AO2 SLP145 P0000 60000 T00610056 10061 20050 56003=
201001301053 METAR KCLM 301053Z AUTO 00000KT 10SM -RA OVC009 06/06 A2996 RMK AO2 RAB26 CIG 006V012 SLP146 P0000 T00610056=
201001301045 SPECI KCLM 301045Z AUTO 00000KT 10SM -RA OVC009 06/05 A2996 RMK AO2 RAB26 CIG 008V012 P0000=
201001301045 SPECI KCLM 301045Z AUTO 00000KT 10SM -RA OVC009 06/05 A2996 RMK AO2 RAB26 CIG 008V012 P0000=
201001300953 METAR KCLM 300953Z AUTO 00000KT 10SM OVC013 06/05 A2996 RMK AO2 SLP147 T00560050=
201001300906 SPECI KCLM 300906Z AUTO 22003KT 10SM BKN013 OVC060 06/05 A2996 RMK AO2=
201001300906 SPECI KCLM 300906Z AUTO 22003KT 10SM BKN013 OVC060 06/05 A2996 RMK AO2=
201001300853 METAR KCLM 300853Z AUTO 22003KT 10SM FEW015 OVC055 06/05 A2997 RMK AO2 SLP149 T00560050 58001=
201001300753 METAR KCLM 300753Z AUTO 22003KT 10SM BKN060 OVC100 06/05 A2997 RMK AO2 SLP150 T00560050 400890039=
201001300653 METAR KCLM 300653Z AUTO 23003KT 10SM OVC100 06/05 A2997 RMK AO2 SLP152 T00560050=
201001300553 METAR KCLM 300553Z AUTO 22003KT 10SM BKN070 OVC100 06/05 A2997 RMK AO2 RAB0456E48 SLP150 P0000 60000 T00610050 10083 20061 52004=
201001300453 METAR KCLM 300453Z AUTO 23004KT 10SM OVC055 07/05 A2997 RMK AO2 SLP151 T00670050=
201001300353 METAR KCLM 300353Z AUTO 00000KT 10SM BKN060 OVC095 06/04 A2996 RMK AO2 SLP147 T00610044=
201001300253 METAR KCLM 300253Z AUTO 00000KT 10SM OVC070 07/04 A2996 RMK AO2 SLP147 T00670044 57003=
201001300153 METAR KCLM 300153Z AUTO 17004KT 10SM OVC085 07/04 A2996 RMK AO2 SLP148 T00670044=
201001300053 METAR KCLM 300053Z AUTO 00000KT 10SM FEW065 OVC085 08/04 A2996 RMK AO2 SLP149 T00780044=
201001292353 METAR KCLM 292353Z AUTO 16003KT 10SM SCT070 BKN085 08/04 A2997 RMK AO2 RAB2258E32 SLP149 P0000 60000 T00830044 10089 20061 50002=
201001292253 METAR KCLM 292253Z AUTO 23003KT 10SM BKN060 OVC075 08/04 A2997 RMK AO2 SLP150 T00830044=
201001292153 METAR KCLM 292153Z AUTO 31004KT 10SM BKN075 BKN110 08/04 A2996 RMK AO2 SLP148 T00830039=
201001292053 METAR KCLM 292053Z AUTO 00000KT 10SM SCT075 08/04 A2996 RMK AO2 SLP147 T00830039 58002=
201001291953 METAR KCLM 291953Z AUTO 00000KT 10SM FEW070 OVC085 08/05 A2997 RMK AO2 SLP150 T00830050=
201001291853 METAR KCLM 291853Z AUTO 27004KT 10SM OVC075 08/04 A2998 RMK AO2 SLP155 T00780039=
201001291753 METAR KCLM 291753Z AUTO 27003KT 10SM BKN100 07/04 A2997 RMK AO2 SLP149 T00670039 10067 20039 53005=
201001291653 METAR KCLM 291653Z AUTO 23004KT 10SM SCT080 OVC100 06/03 A2996 RMK AO2 SLP148 T00560033=
201001291553 METAR KCLM 291553Z AUTO 23006KT 10SM OVC100 05/03 A2996 RMK AO2 SLP146 T00500033=
201001291453 METAR KCLM 291453Z AUTO 21005KT 10SM SCT110 06/03 A2995 RMK AO2 SLP145 T00560033 50006=
201001291353 METAR KCLM 291353Z AUTO 00000KT 10SM FEW110 04/03 A2996 RMK AO2 SLP146 T00440028=
201001291253 METAR KCLM 291253Z AUTO 25004KT 10SM BKN095 OVC110 04/03 A2996 RMK AO2 SLP146 T00440028=
201001291153 METAR KCLM 291153Z AUTO 00000KT 10SM BKN090 OVC110 05/03 A2994 RMK AO2 SLP139 T00500033 10061 20044 56011=
201001291053 METAR KCLM 291053Z AUTO VRB03KT 10SM FEW120 04/03 A2994 RMK AO2 SLP140 T00440028=
201001290953 METAR KCLM 290953Z AUTO 25004KT 10SM CLR 06/03 A2995 RMK AO2 SLP144 T00560033=
201001290853 METAR KCLM 290853Z AUTO 30004KT 10SM BKN095 BKN120 06/03 A2997 RMK AO2 SLP149 T00610033 50001=
201001290753 METAR KCLM 290753Z AUTO 27004KT 10SM OVC100 05/03 A2997 RMK AO2 SLP152 T00500033 400830039=
201001290653 METAR KCLM 290653Z AUTO 23003KT 10SM BKN095 05/03 A2996 RMK AO2 SLP147 T00500033=
201001290553 METAR KCLM 290553Z AUTO 23003KT 10SM BKN110 06/03 A2996 RMK AO2 SLP149 T00560033 10072 20044 58003=
201001290453 METAR KCLM 290453Z AUTO 23005KT 10SM OVC100 06/03 A2997 RMK AO2 SLP152 T00560033=
201001290353 METAR KCLM 290353Z AUTO 00000KT 10SM BKN110 05/03 A2997 RMK AO2 SLP150 T00500033=
201001290253 METAR KCLM 290253Z AUTO 21003KT 10SM OVC120 05/03 A2997 RMK AO2 SLP152 T00500033 55004=
201001290153 METAR KCLM 290153Z AUTO 00000KT 10SM BKN120 06/04 A2997 RMK AO2 SLP151 T00560039=
201001290053 METAR KCLM 290053Z AUTO 00000KT 10SM CLR 06/04 A2997 RMK AO2 SLP151 T00610039=
201001282353 METAR KCLM 282353Z AUTO 00000KT 10SM CLR 07/04 A2999 RMK AO2 SLP156 T00720039 10083 20061 56013=
201001282253 METAR KCLM 282253Z AUTO 00000KT 10SM FEW100 08/03 A3000 RMK AO2 SLP159 T00780028=
201001282153 METAR KCLM 282153Z AUTO 00000KT 10SM FEW100 08/04 A3000 RMK AO2 SLP162 T00830039=
201001282053 METAR KCLM 282053Z AUTO 01003KT 10SM SCT110 08/04 A3002 RMK AO2 SLP169 T00780044 58008=
201001281953 METAR KCLM 281953Z AUTO 00000KT 10SM FEW075 SCT100 07/04 A3004 RMK AO2 SLP175 T00720039=
201001281853 METAR KCLM 281853Z AUTO 26006KT 10SM SCT080 07/04 A3006 RMK AO2 SLP180 T00670039=
201001281753 METAR KCLM 281753Z AUTO 25003KT 10SM BKN100 06/04 A3005 RMK AO2 SLP177 T00610039 10061 20044 58003=
201001281653 METAR KCLM 281653Z AUTO 24004KT 10SM BKN100 05/04 A3006 RMK AO2 SLP181 T00500039=
201001281553 METAR KCLM 281553Z AUTO 22004KT 10SM OVC100 04/04 A3006 RMK AO2 SLP182 T00440039=
201001281532 SPECI KCLM 281532Z AUTO 22003KT 10SM SCT012 OVC095 04/04 A3006 RMK AO2=
201001281532 SPECI KCLM 281532Z AUTO 22003KT 10SM SCT012 OVC095 04/04 A3006 RMK AO2=
201001281509 SPECI KCLM 281509Z AUTO 00000KT 10SM BKN012 OVC100 04/04 A3006 RMK AO2=
201001281509 SPECI KCLM 281509Z AUTO 00000KT 10SM BKN012 OVC100 04/04 A3006 RMK AO2=
201001281453 METAR KCLM 281453Z AUTO 00000KT 10SM OVC100 04/04 A3006 RMK AO2 SLP180 T00440039 55008=
201001281353 METAR KCLM 281353Z AUTO 00000KT 10SM OVC085 05/04 A3005 RMK AO2 SLP179 T00500039=
201001281253 METAR KCLM 281253Z AUTO 00000KT 10SM BKN080 OVC095 05/04 A3006 RMK AO2 SLP182 T00500039=
201001281201 SPECI KCLM 281201Z AUTO 00000KT 10SM SCT015 OVC090 04/04 A3008 RMK AO2=
201001281201 SPECI KCLM 281201Z AUTO 00000KT 10SM SCT015 OVC090 04/04 A3008 RMK AO2=
201001281153 METAR KCLM 281153Z AUTO 00000KT 10SM BKN015 OVC090 04/04 A3008 RMK AO2 SLP189 T00440039 10056 20039 58007=
201001281151 SPECI KCLM 281151Z AUTO 00000KT 10SM BKN015 OVC090 04/04 A3008 RMK AO2=
201001281151 SPECI KCLM 281151Z AUTO 00000KT 10SM BKN015 OVC090 04/04 A3008 RMK AO2=
201001281128 SPECI KCLM 281128Z AUTO 00000KT 10SM FEW009 OVC013 05/04 A3010 RMK AO2=
201001281128 SPECI KCLM 281128Z AUTO 00000KT 10SM FEW009 OVC013 05/04 A3010 RMK AO2=
201001281118 SPECI KCLM 281118Z AUTO 00000KT 10SM OVC013 05/04 A3010 RMK AO2=
201001281118 SPECI KCLM 281118Z AUTO 00000KT 10SM OVC013 05/04 A3010 RMK AO2=
201001281053 METAR KCLM 281053Z AUTO 23004KT 10SM BKN009 OVC013 05/04 A3011 RMK AO2 CIG 007V011 SLP198 T00500039=
201001281000 SPECI KCLM 281000Z AUTO 24004KT 10SM BKN009 OVC100 04/03 A3010 RMK AO2=
201001281000 SPECI KCLM 281000Z AUTO 24004KT 10SM BKN009 OVC100 04/03 A3010 RMK AO2=
201001280953 METAR KCLM 280953Z AUTO 23004KT 10SM SCT009 OVC100 04/03 A3010 RMK AO2 SLP196 T00390033=
201001280933 SPECI KCLM 280933Z AUTO 00000KT 10SM FEW009 OVC095 04/03 A3010 RMK AO2=
201001280933 SPECI KCLM 280933Z AUTO 00000KT 10SM FEW009 OVC095 04/03 A3010 RMK AO2=
201001280853 METAR KCLM 280853Z AUTO 00000KT 10SM BKN090 04/03 A3010 RMK AO2 SLP196 T00390033 56016=
201001280753 METAR KCLM 280753Z AUTO 00000KT 10SM OVC100 04/03 A3012 RMK AO2 SLP200 T00440033 400720033=
201001280653 METAR KCLM 280653Z AUTO 23004KT 10SM OVC110 04/04 A3013 RMK AO2 SLP205 T00440039=
201001280553 METAR KCLM 280553Z AUTO 00000KT 10SM OVC100 05/04 A3015 RMK AO2 SLP212 T00500039 10061 20050 50012=
201001280534 SPECI KCLM 280534Z AUTO 00000KT 10SM FEW012 SCT017 OVC100 05/04 A3015 RMK AO2=
201001280534 SPECI KCLM 280534Z AUTO 00000KT 10SM FEW012 SCT017 OVC100 05/04 A3015 RMK AO2=
201001280453 METAR KCLM 280453Z AUTO 24003KT 10SM BKN014 OVC020 06/04 A3015 RMK AO2 SLP213 T00560044=
201001280353 METAR KCLM 280353Z AUTO 00000KT 10SM OVC015 06/04 A3012 RMK AO2 SLP201 T00560044=
201001280342 SPECI KCLM 280342Z AUTO 19003KT 10SM BKN015 OVC110 05/04 A3011 RMK AO2=
201001280342 SPECI KCLM 280342Z AUTO 19003KT 10SM BKN015 OVC110 05/04 A3011 RMK AO2=
201001280300 SPECI KCLM 280300Z AUTO 22003KT 10SM BKN011 OVC100 06/04 A3012 RMK AO2=
201001280300 SPECI KCLM 280300Z AUTO 22003KT 10SM BKN011 OVC100 06/04 A3012 RMK AO2=
201001280253 METAR KCLM 280253Z AUTO 00000KT 10SM BKN009 BKN013 OVC100 06/04 A3012 RMK AO2 SLP200 T00560044 55009=
201001280153 METAR KCLM 280153Z AUTO 00000KT 10SM BKN007 OVC020 06/04 A3009 RMK AO2 CIG 005V011 SLP193 T00560044=
201001280053 METAR KCLM 280053Z AUTO 00000KT 10SM OVC005 06/04 A3013 RMK AO2 SLP204 T00560044=
201001272353 METAR KCLM 272353Z AUTO 09003KT 10SM OVC005 06/04 A3015 RMK AO2 SLP210 T00610044 10072 20050 58001=
201001272307 SPECI KCLM 272307Z AUTO 00000KT 10SM BKN005 06/04 A3015 RMK AO2=
201001272307 SPECI KCLM 272307Z AUTO 00000KT 10SM BKN005 06/04 A3015 RMK AO2=
201001272253 METAR KCLM 272253Z AUTO 00000KT 10SM SCT007 06/04 A3016 RMK AO2 SLP213 T00610044=
201001272153 METAR KCLM 272153Z AUTO VRB03KT 10SM BKN007 06/05 A3016 RMK AO2 CIG 004V010 SLP215 T00610050=
201001272053 METAR KCLM 272053Z AUTO 09004KT 10SM BKN005 06/04 A3015 RMK AO2 SLP211 T00610044 58005=
201001272006 SPECI KCLM 272006Z AUTO 00000KT 10SM BKN005 BKN014 OVC020 06/04 A3018 RMK AO2=
201001272006 SPECI KCLM 272006Z AUTO 00000KT 10SM BKN005 BKN014 OVC020 06/04 A3018 RMK AO2=
201001271953 METAR KCLM 271953Z AUTO 00000KT 10SM FEW007 BKN014 OVC020 07/05 A3017 RMK AO2 SLP220 T00670050=
201001271936 SPECI KCLM 271936Z AUTO 03003KT 10SM OVC012 07/05 A3017 RMK AO2=
201001271936 SPECI KCLM 271936Z AUTO 03003KT 10SM OVC012 07/05 A3017 RMK AO2=
201001271853 METAR KCLM 271853Z AUTO 00000KT 10SM BKN009 OVC030 07/04 A3017 RMK AO2 CIG 008V013 SLP217 T00720044=
201001271850 SPECI KCLM 271850Z AUTO 09003KT 10SM BKN009 BKN013 OVC030 07/05 A3016 RMK AO2 CIG 008V011=
201001271850 SPECI KCLM 271850Z AUTO 09003KT 10SM BKN009 BKN013 OVC030 07/05 A3016 RMK AO2 CIG 008V011=
201001271842 SPECI KCLM 271842Z AUTO 00000KT 10SM SCT009 SCT013 OVC030 07/05 A3016 RMK AO2=
201001271842 SPECI KCLM 271842Z AUTO 00000KT 10SM SCT009 SCT013 OVC030 07/05 A3016 RMK AO2=
201001271830 SPECI KCLM 271830Z AUTO 00000KT 10SM BKN009 BKN013 OVC030 06/04 A3017 RMK AO2=
201001271830 SPECI KCLM 271830Z AUTO 00000KT 10SM BKN009 BKN013 OVC030 06/04 A3017 RMK AO2=
201001271817 SPECI KCLM 271817Z AUTO 00000KT 10SM SCT009 OVC030 06/04 A3018 RMK AO2=
201001271817 SPECI KCLM 271817Z AUTO 00000KT 10SM SCT009 OVC030 06/04 A3018 RMK AO2=
201001271753 METAR KCLM 271753Z AUTO 22003KT 10SM BKN009 BKN013 OVC030 05/03 A3018 RMK AO2 CIG 008V011 SLP222 T00500028 10050 20039 51003=
201001271751 SPECI KCLM 271751Z AUTO 23003KT 10SM BKN011 OVC030 05/03 A3018 RMK AO2=
201001271751 SPECI KCLM 271751Z AUTO 23003KT 10SM BKN011 OVC030 05/03 A3018 RMK AO2=
201001271653 METAR KCLM 271653Z AUTO 23005KT 10SM OVC009 04/02 A3019 RMK AO2 CIG 008V013 SLP224 T00390017=
201001271553 METAR KCLM 271553Z AUTO 24004KT 10SM BKN009 OVC022 04/02 A3017 RMK AO2 SLP219 T00390022=
201001271526 SPECI KCLM 271526Z AUTO 23005KT 10SM FEW014 BKN020 OVC026 04/03 A3016 RMK AO2=
201001271526 SPECI KCLM 271526Z AUTO 23005KT 10SM FEW014 BKN020 OVC026 04/03 A3016 RMK AO2=
201001271453 METAR KCLM 271453Z AUTO 00000KT 10SM BKN014 BKN018 OVC035 04/03 A3016 RMK AO2 SLP216 T00440028 53001=
201001271441 SPECI KCLM 271441Z AUTO 24004KT 10SM BKN016 OVC035 04/03 A3016 RMK AO2=
201001271441 SPECI KCLM 271441Z AUTO 24004KT 10SM BKN016 OVC035 04/03 A3016 RMK AO2=
201001271405 SPECI KCLM 271405Z AUTO 24004KT 10SM SCT024 OVC037 04/03 A3016 RMK AO2=
201001271405 SPECI KCLM 271405Z AUTO 24004KT 10SM SCT024 OVC037 04/03 A3016 RMK AO2=
201001271353 METAR KCLM 271353Z AUTO 23004KT 10SM BKN026 OVC037 05/03 A3016 RMK AO2 SLP216 T00500033=
201001271343 SPECI KCLM 271343Z AUTO 24003KT 10SM BKN026 OVC039 04/04 A3017 RMK AO2=
201001271343 SPECI KCLM 271343Z AUTO 24003KT 10SM BKN026 OVC039 04/04 A3017 RMK AO2=
201001271253 METAR KCLM 271253Z AUTO 00000KT 10SM FEW024 OVC035 04/04 A3015 RMK AO2 SLP212 T00440039=
201001271153 METAR KCLM 271153Z AUTO 23004KT 10SM FEW027 OVC037 05/04 A3016 RMK AO2 SLP215 60000 T00500039 10061 20033 53006=
201001271143 SPECI KCLM 271143Z AUTO 23005KT 10SM SCT023 OVC039 05/04 A3016 RMK AO2=
201001271143 SPECI KCLM 271143Z AUTO 23005KT 10SM SCT023 OVC039 05/04 A3016 RMK AO2=
201001271115 SPECI KCLM 271115Z AUTO 24004KT 10SM SCT005 BKN023 OVC039 04/04 A3017 RMK AO2=
201001271115 SPECI KCLM 271115Z AUTO 24004KT 10SM SCT005 BKN023 OVC039 04/04 A3017 RMK AO2=
201001271108 SPECI KCLM 271108Z AUTO 24004KT 10SM BKN023 BKN028 OVC039 04/04 A3016 RMK AO2=
201001271108 SPECI KCLM 271108Z AUTO 24004KT 10SM BKN023 BKN028 OVC039 04/04 A3016 RMK AO2=
201001271053 METAR KCLM 271053Z AUTO 23003KT 10SM SCT021 BKN034 OVC041 04/04 A3016 RMK AO2 RAB13E51 SLP215 P0000 T00440039=
201001271041 SPECI KCLM 271041Z AUTO 23003KT 10SM -RA SCT027 BKN037 OVC044 04/04 A3016 RMK AO2 RAB13 P0000=
201001271041 SPECI KCLM 271041Z AUTO 23003KT 10SM -RA SCT027 BKN037 OVC044 04/04 A3016 RMK AO2 RAB13 P0000=
201001271030 SPECI KCLM 271030Z AUTO 00000KT 10SM -RA FEW006 BKN028 OVC040 04/03 A3015 RMK AO2 RAB13 P0000=
201001271030 SPECI KCLM 271030Z AUTO 00000KT 10SM -RA FEW006 BKN028 OVC040 04/03 A3015 RMK AO2 RAB13 P0000=
201001271010 SPECI KCLM 271010Z AUTO 00000KT 5SM BR FEW006 BKN045 OVC055 03/03 A3014 RMK AO2=
201001271010 SPECI KCLM 271010Z AUTO 00000KT 5SM BR FEW006 BKN045 OVC055 03/03 A3014 RMK AO2=
201001270953 METAR KCLM 270953Z AUTO 00000KT 10SM FEW037 OVC045 04/04 A3013 RMK AO2 SLP204 T00390039=
201001270853 METAR KCLM 270853Z AUTO 15003KT 10SM BKN037 OVC046 04/04 A3014 RMK AO2 RAB25E50 SLP209 P0000 60000 T00440039 53006=
201001270753 METAR KCLM 270753Z AUTO 23003KT 10SM OVC036 06/04 A3015 RMK AO2 SLP210 T00560044 400890017=
201001270653 METAR KCLM 270653Z AUTO 00000KT 10SM OVC040 05/04 A3012 RMK AO2 SLP200 T00500044=
201001270553 METAR KCLM 270553Z AUTO 24006KT 10SM BKN040 OVC085 06/04 A3012 RMK AO2 SLP202 60000 T00610044 10072 20056 53019=
201001270453 METAR KCLM 270453Z AUTO 24005KT 10SM FEW050 BKN065 OVC080 06/04 A3007 RMK AO2 SLP184 T00560044=
201001270353 METAR KCLM 270353Z AUTO 22004KT 10SM SCT040 BKN047 OVC080 06/05 A3008 RMK AO2 RAB0259E30 SLP187 P0000 T00560050=
201001270253 METAR KCLM 270253Z AUTO 30003KT 10SM OVC037 06/06 A3007 RMK AO2 RAE29 SLP183 P0000 60000 T00610056 53010=
201001270153 METAR KCLM 270153Z AUTO 00000KT 10SM -RA OVC043 07/06 A3005 RMK AO2 RAB22 SLP176 P0000 T00670056=
201001270053 METAR KCLM 270053Z AUTO 00000KT 10SM OVC037 07/06 A3005 RMK AO2 SLP176 T00720056=
201001262353 METAR KCLM 262353Z AUTO 00000KT 10SM OVC035 07/05 A3004 RMK AO2 SLP173 T00720050 10089 20061 53013=
201001262253 METAR KCLM 262253Z AUTO 00000KT 10SM SCT060 08/05 A3003 RMK AO2 SLP170 T00780050=
201001262153 METAR KCLM 262153Z AUTO 00000KT 10SM BKN049 09/06 A3000 RMK AO2 SLP162 T00890056=
201001262053 METAR KCLM 262053Z AUTO VRB04KT 10SM CLR 07/05 A3000 RMK AO2 SLP160 T00720050 51009=
201001261953 METAR KCLM 261953Z AUTO 01005KT 10SM BKN046 08/06 A2999 RMK AO2 SLP158 T00780056=
201001261853 METAR KCLM 261853Z AUTO 26004KT 10SM OVC048 08/03 A2999 RMK AO2 SLP158 T00780028=
201001261753 METAR KCLM 261753Z AUTO 25010KT 10SM OVC048 06/02 A2997 RMK AO2 SLP151 T00610022 10061 20028 52019=
201001261653 METAR KCLM 261653Z AUTO 25005KT 10SM CLR 03/01 A2995 RMK AO2 SLP145 T00330011=
201001261553 METAR KCLM 261553Z AUTO 26006KT 10SM FEW008 03/01 A2994 RMK AO2 SLP139 T00330011=
201001261533 SPECI KCLM 261533Z AUTO 24005KT 10SM FEW008 SCT042 03/02 A2993 RMK AO2=
201001261533 SPECI KCLM 261533Z AUTO 24005KT 10SM FEW008 SCT042 03/02 A2993 RMK AO2=
201001261453 METAR KCLM 261453Z AUTO 25005KT 10SM FEW042 SCT050 04/02 A2992 RMK AO2 SLP132 T00390017 53005=
201001261353 METAR KCLM 261353Z AUTO 24004KT 10SM OVC055 04/02 A2991 RMK AO2 SLP129 T00440022=
201001261253 METAR KCLM 261253Z AUTO 24003KT 10SM OVC055 05/03 A2990 RMK AO2 SLP127 T00500028=
201001261153 METAR KCLM 261153Z AUTO 27005KT 10SM SCT043 OVC050 05/03 A2990 RMK AO2 SLP127 T00500028 10056 20017 51007=
201001261053 METAR KCLM 261053Z AUTO 24004KT 10SM OVC042 05/03 A2990 RMK AO2 SLP125 T00500033=
201001260953 METAR KCLM 260953Z AUTO 00000KT 10SM OVC036 05/03 A2989 RMK AO2 SLP122 T00500033=
201001260853 METAR KCLM 260853Z AUTO 00000KT 10SM OVC032 02/02 A2988 RMK AO2 SLP119 T00220022 51003=
201001260753 METAR KCLM 260753Z AUTO 23005KT 10SM CLR 03/02 A2987 RMK AO2 SLP118 T00330022 401060017=
201001260653 METAR KCLM 260653Z AUTO 23005KT 10SM SCT100 03/02 A2987 RMK AO2 SLP118 T00330022=
201001260553 METAR KCLM 260553Z AUTO 23005KT 10SM CLR 02/02 A2987 RMK AO2 SLP116 T00220022 10100 20017 53002=
201001260453 METAR KCLM 260453Z AUTO 22004KT 10SM CLR 03/02 A2987 RMK AO2 SLP116 T00330022=
201001260353 METAR KCLM 260353Z AUTO 22004KT 10SM CLR 04/03 A2986 RMK AO2 SLP113 T00390033=
201001260253 METAR KCLM 260253Z AUTO 00000KT 10SM CLR 04/04 A2986 RMK AO2 SLP115 T00440039 51008=
201001260153 METAR KCLM 260153Z AUTO 24004KT 10SM BKN120 06/05 A2986 RMK AO2 SLP114 T00610050=
201001260053 METAR KCLM 260053Z AUTO 00000KT 10SM SCT060 08/06 A2985 RMK AO2 SLP110 T00830056=
201001252353 METAR KCLM 252353Z AUTO 16003KT 10SM BKN065 10/05 A2984 RMK AO2 SLP106 T01000050 10106 20050 53013=
201001252253 METAR KCLM 252253Z AUTO 00000KT 10SM OVC060 09/06 A2983 RMK AO2 SLP102 T00890056=
201001252153 METAR KCLM 252153Z AUTO 00000KT 10SM BKN060 09/05 A2981 RMK AO2 SLP095 T00890050=
201001252053 METAR KCLM 252053Z AUTO VRB03KT 10SM FEW060 SCT080 10/06 A2980 RMK AO2 SLP093 T01000061 51008=
201001251953 METAR KCLM 251953Z AUTO 31003KT 10SM BKN065 BKN075 BKN095 09/06 A2980 RMK AO2 SLP093 T00890061=
201001251853 METAR KCLM 251853Z AUTO 00000KT 10SM FEW090 08/06 A2980 RMK AO2 SLP093 T00780061=
201001251753 METAR KCLM 251753Z AUTO 15006KT 10SM SCT060 05/04 A2978 RMK AO2 SLP085 60000 T00500044 10061 20022 53013=
201001251653 METAR KCLM 251653Z AUTO 28003KT 10SM BKN055 OVC070 05/04 A2976 RMK AO2 SLP079 T00500044=
201001251553 METAR KCLM 251553Z AUTO 00000KT 9SM OVC060 03/03 A2974 RMK AO2 SLP074 T00330028=
201001251520 SPECI KCLM 251520Z AUTO 13003KT 10SM FEW006 03/03 A2974 RMK AO2=
201001251520 SPECI KCLM 251520Z AUTO 13003KT 10SM FEW006 03/03 A2974 RMK AO2=
201001251453 METAR KCLM 251453Z AUTO 00000KT 10SM FEW070 03/03 A2974 RMK AO2 SLP072 60000 T00330028 53000=
201001251353 METAR KCLM 251353Z AUTO 00000KT 10SM SCT070 BKN100 04/04 A2974 RMK AO2 SLP071 T00390039=
201001251315 SPECI KCLM 251315Z AUTO 16004KT 10SM FEW070 05/04 A2974 RMK AO2=
201001251315 SPECI KCLM 251315Z AUTO 16004KT 10SM FEW070 05/04 A2974 RMK AO2=
201001251305 SPECI KCLM 251305Z AUTO 00000KT 2SM BR FEW065 03/03 A2974 RMK AO2=
201001251305 SPECI KCLM 251305Z AUTO 00000KT 2SM BR FEW065 03/03 A2974 RMK AO2=
201001251253 METAR KCLM 251253Z AUTO 00000KT 7SM SCT065 03/03 A2974 RMK AO2 RAE22 SLP071 P0000 T00330033=
201001251153 METAR KCLM 251153Z AUTO 24003KT 10SM -RA SCT050 BKN060 OVC075 04/04 A2974 RMK AO2 SLP072 P0000 60000 T00440044 10061 20033 51009=
201001251138 SPECI KCLM 251138Z AUTO 24003KT 10SM -RA FEW006 BKN044 OVC065 06/04 A2974 RMK AO2 P0000=
201001251138 SPECI KCLM 251138Z AUTO 24003KT 10SM -RA FEW006 BKN044 OVC065 06/04 A2974 RMK AO2 P0000=
201001251053 METAR KCLM 251053Z AUTO 00000KT 10SM -RA BKN060 OVC095 04/04 A2974 RMK AO2 RAB01E20B47 SLP071 P0000 T00440039=
201001250953 METAR KCLM 250953Z AUTO 00000KT 10SM BKN060 BKN070 OVC090 06/04 A2972 RMK AO2 RAE52 SLP065 P0000 T00560044=
201001250853 METAR KCLM 250853Z AUTO 24005KT 10SM -RA BKN060 BKN095 06/04 A2971 RMK AO2 RAE12B47 SLP063 P0000 60000 T00560044 53013=
201001250753 METAR KCLM 250753Z AUTO 00000KT 10SM -RA BKN050 OVC060 04/04 A2970 RMK AO2 RAB32 SLP058 P0000 T00440039 400721006=
201001250653 METAR KCLM 250653Z AUTO 15005KT 10SM BKN060 OVC080 04/03 A2967 RMK AO2 SLP050 T00390033=
201001250553 METAR KCLM 250553Z AUTO 00000KT 10SM OVC060 06/04 A2967 RMK AO2 SLP050 60000 T00560044 10067 20044 53004=
201001250453 METAR KCLM 250453Z AUTO 00000KT 10SM OVC060 05/04 A2966 RMK AO2 RAE0356 SLP045 P0000 T00500044=
201001250353 METAR KCLM 250353Z AUTO 00000KT 10SM -RA OVC060 05/04 A2966 RMK AO2 RAB42 SLP045 P0000 T00500039=
201001250253 METAR KCLM 250253Z AUTO 00000KT 10SM BKN065 OVC080 05/04 A2966 RMK AO2 SLP047 60000 T00500044 57013=
201001250153 METAR KCLM 250153Z AUTO 15003KT 10SM FEW070 OVC085 06/05 A2968 RMK AO2 SLP051 T00610050=
201001250053 METAR KCLM 250053Z AUTO 24003KT 10SM SCT060 BKN080 OVC090 06/05 A2969 RMK AO2 RAB04E14 SLP056 P0000 T00610050 TSNO=
201001242353 METAR KCLM 242353Z AUTO 00000KT 10SM SCT060 BKN075 07/06 A2970 RMK AO2 SLP060 60000 T00670056 10072 20039 56017=
201001242253 METAR KCLM 242253Z AUTO 17004KT 10SM BKN060 OVC075 07/05 A2971 RMK AO2 RAB2157E26 SLP061 P0000 T00720050=
201001242153 METAR KCLM 242153Z AUTO 00000KT 10SM OVC060 07/05 A2973 RMK AO2 RAE10 SLP070 P0000 T00720050=
201001242053 METAR KCLM 242053Z AUTO 00000KT 10SM -RA BKN044 OVC055 06/04 A2975 RMK AO2 RAE05B27 SLP077 P0000 60000 T00560039 58026=
201001241953 METAR KCLM 241953Z AUTO 00000KT 10SM -RA OVC046 05/03 A2978 RMK AO2 RAB43 SLP087 P0000 T00500033=
201001241853 METAR KCLM 241853Z AUTO 23003KT 10SM BKN065 BKN100 05/03 A2981 RMK AO2 SLP095 T00500028=
201001241753 METAR KCLM 241753Z AUTO 23005KT 10SM SCT070 04/02 A2983 RMK AO2 SLP103 T00390022 10039 21006 56020=
201001241653 METAR KCLM 241653Z AUTO 00000KT 10SM FEW100 03/02 A2985 RMK AO2 SLP110 T00280017=
201001241553 METAR KCLM 241553Z AUTO 00000KT 10SM OVC110 02/01 A2987 RMK AO2 SLP118 T00220011=
201001241453 METAR KCLM 241453Z AUTO 21004KT 10SM OVC110 01/01 A2989 RMK AO2 SLP124 T00110006 58022=
201001241353 METAR KCLM 241353Z AUTO 27003KT 10SM OVC100 02/01 A2991 RMK AO2 SLP131 T00220011=
201001241253 METAR KCLM 241253Z AUTO 15003KT 10SM CLR 00/M01 A2993 RMK AO2 SLP139 T00001006=
201001241153 METAR KCLM 241153Z AUTO 00000KT 10SM CLR 00/M01 A2995 RMK AO2 SLP145 T00001006 10044 21006 58004=
201001241053 METAR KCLM 241053Z AUTO 22005KT 10SM CLR 02/00 A2997 RMK AO2 SLP150 T00170000=
201001240953 METAR KCLM 240953Z AUTO 24005KT 10SM CLR 03/01 A2997 RMK AO2 SLP151 T00280006=
201001240853 METAR KCLM 240853Z AUTO 27005KT 10SM CLR 03/01 A2997 RMK AO2 SLP149 T00280006 50001=
201001240753 METAR KCLM 240753Z AUTO 23005KT 10SM CLR 01/M01 A2997 RMK AO2 SLP150 T00111006 401060006=
201001240653 METAR KCLM 240653Z AUTO 22005KT 10SM CLR 04/02 A2998 RMK AO2 SLP153 T00390017=
201001240553 METAR KCLM 240553Z AUTO 25005KT 10SM CLR 03/02 A2997 RMK AO2 SLP149 T00330017 10094 20011 51007=
201001240453 METAR KCLM 240453Z AUTO 25004KT 10SM CLR 03/02 A2996 RMK AO2 SLP148 T00280017=
201001240353 METAR KCLM 240353Z AUTO 00000KT 10SM FEW060 02/02 A2996 RMK AO2 SLP146 T00220017=
201001240253 METAR KCLM 240253Z AUTO 24005KT 10SM SCT060 04/03 A2994 RMK AO2 SLP142 T00390028 51014=
201001240153 METAR KCLM 240153Z AUTO 23005KT 10SM OVC060 05/03 A2993 RMK AO2 SLP138 T00500033=
201001240053 METAR KCLM 240053Z AUTO 00000KT 10SM BKN065 06/04 A2992 RMK AO2 SLP134 T00610039=
201001232353 METAR KCLM 232353Z AUTO 17003KT 10SM CLR 09/04 A2990 RMK AO2 SLP128 T00940044 10106 20067 51013=
201001232253 METAR KCLM 232253Z AUTO 08005KT 10SM CLR 09/04 A2989 RMK AO2 SLP124 T00940039=
201001232153 SPECI KCLM 232153Z AUTO 00000KT 10SM CLR 10/04 A2988 RMK AO2 SLP121 T01000039=
201001232053 METAR KCLM 232053Z AUTO VRB04KT 10SM CLR 10/04 A2986 RMK AO2 SLP115 T01000039 51020=
201001231953 METAR KCLM 231953Z AUTO 00000KT 10SM CLR 10/04 A2985 RMK AO2 SLP110 T01000039=
201001231853 METAR KCLM 231853Z AUTO 00000KT 10SM CLR 09/03 A2983 RMK AO2 SLP104 T00890033=
201001231753 METAR KCLM 231753Z AUTO 23004KT 10SM CLR 07/03 A2981 RMK AO2 SLP095 T00670028 10067 20028 51025=
201001231653 METAR KCLM 231653Z AUTO 23005KT 10SM CLR 04/02 A2978 RMK AO2 SLP087 T00390022=
201001231553 METAR KCLM 231553Z AUTO 24005KT 10SM BKN100 04/02 A2976 RMK AO2 SLP078 T00390022=
201001231453 METAR KCLM 231453Z AUTO 23006KT 10SM OVC110 04/02 A2973 RMK AO2 SLP069 T00390022 51026=
201001231353 METAR KCLM 231353Z AUTO 24004KT 10SM OVC030 05/03 A2971 RMK AO2 SLP061 T00500028=
201001231253 METAR KCLM 231253Z AUTO 23004KT 10SM OVC032 04/03 A2968 RMK AO2 SLP053 T00440033=
201001231153 METAR KCLM 231153Z AUTO 00000KT 10SM OVC032 03/02 A2965 RMK AO2 SLP043 T00330022 10050 20017 51028=
201001231053 METAR KCLM 231053Z AUTO 22005KT 10SM SCT048 BKN080 OVC095 03/02 A2963 RMK AO2 SLP036 T00280017=
201001230953 METAR KCLM 230953Z AUTO 22004KT 10SM FEW095 04/02 A2960 RMK AO2 SLP024 T00390017=
201001230853 METAR KCLM 230853Z AUTO 24005KT 10SM CLR 04/02 A2957 RMK AO2 SLP014 T00390022 51026=
201001230753 METAR KCLM 230753Z AUTO 22005KT 10SM SCT100 BKN110 04/02 A2955 RMK AO2 SLP007 T00440017 400940006=
201001230653 METAR KCLM 230653Z AUTO 23004KT 10SM OVC100 04/02 A2952 RMK AO2 SLP997 T00440022=
201001230553 METAR KCLM 230553Z AUTO 22005KT 10SM OVC110 05/02 A2949 RMK AO2 SLP988 T00500022 10089 20033 51032=
201001230453 METAR KCLM 230453Z AUTO 24007KT 10SM CLR 06/02 A2946 RMK AO2 SLP977 T00560022=
201001230353 METAR KCLM 230353Z AUTO 24007KT 10SM CLR 06/03 A2943 RMK AO2 SLP969 T00560028=
201001230253 METAR KCLM 230253Z AUTO 25005KT 10SM CLR 06/03 A2940 RMK AO2 SLP956 T00560028 53026=
201001230153 METAR KCLM 230153Z AUTO 24005KT 10SM CLR 05/02 A2936 RMK AO2 SLP945 T00500022=
201001230053 METAR KCLM 230053Z AUTO 23003KT 10SM CLR 07/03 A2934 RMK AO2 SLP938 T00670028=
201001222353 METAR KCLM 222353Z AUTO 00000KT 10SM CLR 09/03 A2932 RMK AO2 SLP929 T00890028 10094 20044 53021=
201001222253 METAR KCLM 222253Z AUTO 00000KT 10SM CLR 09/02 A2929 RMK AO2 SLP920 T00940017=
201001222153 METAR KCLM 222153Z AUTO 00000KT 10SM CLR 09/02 A2927 RMK AO2 SLP913 T00940022=
201001222053 METAR KCLM 222053Z AUTO 11005KT 10SM CLR 09/03 A2925 RMK AO2 SLP907 T00890028 51015=
201001221953 METAR KCLM 221953Z AUTO 12004KT 10SM CLR 09/02 A2924 RMK AO2 SLP903 T00940022=
201001221853 METAR KCLM 221853Z AUTO 20004KT 10SM CLR 06/03 A2923 RMK AO2 SLP899 T00610028=
201001221753 METAR KCLM 221753Z AUTO 23006KT 10SM CLR 04/02 A2921 RMK AO2 SLP892 T00440022 10044 20006 53019=
201001221653 METAR KCLM 221653Z AUTO 22006KT 10SM CLR 03/01 A2919 RMK AO2 SLP886 T00280011=
201001221553 METAR KCLM 221553Z AUTO VRB03KT 10SM CLR 01/00 A2917 RMK AO2 SLP879 T00060000=
201001221453 METAR KCLM 221453Z AUTO 22004KT 10SM CLR 02/01 A2915 RMK AO2 SLP874 T00220011 53008=
201001221353 METAR KCLM 221353Z AUTO 00000KT 10SM CLR 03/01 A2914 RMK AO2 SLP869 T00280011=
201001221253 METAR KCLM 221253Z AUTO 23003KT 10SM FEW120 03/01 A2913 RMK AO2 SLP866 T00280011=
201001221153 METAR KCLM 221153Z AUTO 00000KT 10SM SCT120 03/01 A2913 RMK AO2 SLP865 T00280011 10044 20011 53004=
201001221053 METAR KCLM 221053Z AUTO 00000KT 10SM FEW120 02/01 A2912 RMK AO2 SLP863 T00220011=
201001220953 METAR KCLM 220953Z AUTO 00000KT 10SM CLR 02/01 A2912 RMK AO2 SLP863 T00220006=
201001220853 METAR KCLM 220853Z AUTO 00000KT 10SM CLR 01/00 A2912 RMK AO2 SLP861 T00110000 50002=
201001220753 METAR KCLM 220753Z AUTO 23006KT 10SM CLR 04/01 A2912 RMK AO2 SLP862 T00390006 401170006=
201001220653 METAR KCLM 220653Z AUTO 22004KT 10SM CLR 02/00 A2911 RMK AO2 SLP860 T00170000=
201001220553 METAR KCLM 220553Z AUTO 22003KT 10SM CLR 03/01 A2911 RMK AO2 SLP859 T00330011 10100 20022 53007=
201001220453 METAR KCLM 220453Z AUTO 00000KT 10SM CLR 03/01 A2911 RMK AO2 SLP858 T00330011=
201001220353 METAR KCLM 220353Z AUTO 25006KT 10SM CLR 06/01 A2910 RMK AO2 SLP854 T00610011=
201001220253 METAR KCLM 220253Z AUTO 14003KT 10SM FEW080 04/02 A2909 RMK AO2 SLP853 T00440017 53007=
201001220153 METAR KCLM 220153Z AUTO 00000KT 10SM CLR 06/03 A2908 RMK AO2 SLP849 T00560028=
201001220053 METAR KCLM 220053Z AUTO 00000KT 10SM FEW080 09/03 A2907 RMK AO2 SLP845 T00940028=
201001212353 METAR KCLM 212353Z AUTO 00000KT 10SM BKN080 11/04 A2907 RMK AO2 SLP845 60000 T01060039 10117 20078 53006=
201001212253 METAR KCLM 212253Z AUTO 11003KT 10SM SCT080 11/03 A2906 RMK AO2 SLP842 T01110033=
201001212153 METAR KCLM 212153Z AUTO 14005KT 10SM OVC070 12/03 A2905 RMK AO2 RAB14E21 SLP838 P0000 T01170028=
201001212053 METAR KCLM 212053Z AUTO 13003KT 10SM OVC070 11/03 A2905 RMK AO2 SLP838 T01110033 50002=
201001211953 METAR KCLM 211953Z AUTO 00000KT 10SM SCT070 10/03 A2906 RMK AO2 SLP839 T01000028=
201001211853 METAR KCLM 211853Z AUTO 32007KT 10SM FEW075 10/03 A2904 RMK AO2 SLP835 T01000033=
201001211753 METAR KCLM 211753Z AUTO 00000KT 10SM OVC100 08/04 A2904 RMK AO2 SLP836 T00780039 10078 20006 51009=
201001211653 METAR KCLM 211653Z AUTO 00000KT 10SM OVC095 03/02 A2904 RMK AO2 SLP834 T00330022=
201001211553 METAR KCLM 211553Z AUTO 00000KT 10SM SCT110 02/01 A2903 RMK AO2 SLP830 T00170006=
201001211453 METAR KCLM 211453Z AUTO 00000KT 10SM CLR 01/00 A2902 RMK AO2 SLP827 T00060000 53009=
201001211353 METAR KCLM 211353Z AUTO 27006KT 10SM CLR 02/01 A2900 RMK AO2 SLP822 T00170006=
201001211253 METAR KCLM 211253Z AUTO 24004KT 10SM CLR 03/01 A2900 RMK AO2 SLP820 T00280011=
201001211153 METAR KCLM 211153Z AUTO 00000KT 10SM FEW085 03/01 A2899 RMK AO2 SLP818 T00280011 10089 20022 55002=
201001211053 METAR KCLM 211053Z AUTO 22005KT 10SM CLR 05/02 A2899 RMK AO2 SLP817 T00500022=
201001210953 METAR KCLM 210953Z AUTO 12005KT 10SM BKN120 08/03 A2898 RMK AO2 SLP815 T00780028=
201001210853 METAR KCLM 210853Z AUTO 00000KT 10SM BKN110 07/03 A2900 RMK AO2 SLP820 T00720028 58006=
201001210753 METAR KCLM 210753Z AUTO 10008KT 10SM BKN100 07/04 A2901 RMK AO2 SLP822 T00720039 400940039=
201001210653 METAR KCLM 210653Z AUTO 11009KT 10SM BKN090 OVC100 08/04 A2901 RMK AO2 SLP825 T00780039=
201001210553 METAR KCLM 210553Z AUTO 12010KT 10SM BKN090 OVC110 08/03 A2902 RMK AO2 SLP826 60000 T00780033 10089 20044 58006=
201001210453 METAR KCLM 210453Z AUTO 12004KT 10SM BKN090 06/04 A2902 RMK AO2 SLP829 T00610039=
201001210353 METAR KCLM 210353Z AUTO 17003KT 10SM BKN090 BKN120 07/04 A2904 RMK AO2 SLP834 T00670039=
201001210253 METAR KCLM 210253Z AUTO 08006KT 10SM SCT065 BKN080 08/04 A2903 RMK AO2 RAB02E11 SLP833 P0000 60000 T00830039 58007=
201001210153 METAR KCLM 210153Z AUTO 13006KT 10SM FEW060 BKN075 OVC100 07/05 A2905 RMK AO2 SLP837 T00670050=
201001210053 METAR KCLM 210053Z AUTO 13007KT 10SM OVC100 07/06 A2905 RMK AO2 SLP838 T00670056=
201001202353 METAR KCLM 202353Z AUTO 08003KT 10SM CLR 08/05 A2906 RMK AO2 SLP840 T00830050 10094 20078 56026=
201001202253 METAR KCLM 202253Z AUTO 08005KT 10SM CLR 09/04 A2907 RMK AO2 SLP846 T00940044=
201001202153 METAR KCLM 202153Z AUTO 00000KT 10SM CLR 09/04 A2909 RMK AO2 SLP852 T00890044=
201001202053 METAR KCLM 202053Z AUTO 00000KT 10SM OVC085 09/05 A2913 RMK AO2 SLP866 T00890050 58007=
201001201953 METAR KCLM 201953Z AUTO 00000KT 10SM SCT090 09/05 A2915 RMK AO2 SLP874 T00890050=
201001201853 METAR KCLM 201853Z AUTO 29005KT 10SM BKN080 08/04 A2916 RMK AO2 SLP875 T00830044=
201001201753 METAR KCLM 201753Z AUTO 27006KT 10SM CLR 08/04 A2915 RMK AO2 SLP872 60000 T00830039 10083 20039 55000=
201001201653 METAR KCLM 201653Z AUTO 25009KT 10SM FEW070 07/04 A2915 RMK AO2 SLP873 T00670039=
201001201553 METAR KCLM 201553Z AUTO 26004KT 10SM BKN065 06/03 A2915 RMK AO2 SLP872 T00560033=
201001201453 METAR KCLM 201453Z AUTO 18003KT 10SM SCT075 04/03 A2916 RMK AO2 SLP874 60000 T00440033 50001=
201001201353 METAR KCLM 201353Z AUTO 34004KT 10SM OVC080 07/04 A2916 RMK AO2 RAB19E35 SLP874 P0000 T00670039=
201001201253 METAR KCLM 201253Z AUTO 00000KT 10SM FEW075 OVC090 06/03 A2916 RMK AO2 SLP875 T00560033=
201001201153 METAR KCLM 201153Z AUTO 25005KT 10SM BKN080 OVC100 06/03 A2915 RMK AO2 SLP872 T00560033 10078 20039 51013=
201001201053 METAR KCLM 201053Z AUTO 19003KT 10SM BKN075 05/03 A2914 RMK AO2 SLP868 T00500033=
201001200953 METAR KCLM 200953Z AUTO 13003KT 10SM BKN075 BKN085 04/03 A2914 RMK AO2 SLP866 T00440028=
201001200853 METAR KCLM 200853Z AUTO 12006KT 10SM BKN070 05/03 A2911 RMK AO2 SLP858 T00500033 56006=
201001200753 METAR KCLM 200753Z AUTO 24003KT 10SM BKN075 06/04 A2912 RMK AO2 SLP861 T00560039 401330028=
201001200653 METAR KCLM 200653Z AUTO 22004KT 10SM FEW075 06/04 A2912 RMK AO2 SLP860 T00610039=
201001200553 METAR KCLM 200553Z AUTO VRB03KT 10SM SCT070 08/04 A2913 RMK AO2 SLP864 T00780044 10122 20061 51017=
201001200453 METAR KCLM 200453Z AUTO VRB03KT 10SM BKN065 OVC080 09/05 A2912 RMK AO2 SLP863 T00890050=
201001200353 METAR KCLM 200353Z AUTO 35009G14KT 10SM OVC070 09/03 A2910 RMK AO2 SLP857 T00940033=
201001200253 METAR KCLM 200253Z AUTO 16005KT 10SM BKN080 06/03 A2908 RMK AO2 SLP848 T00610033 53016=
201001200153 METAR KCLM 200153Z AUTO 00000KT 10SM BKN080 11/03 A2905 RMK AO2 SLP838 T01060028=
201001200053 METAR KCLM 200053Z AUTO 24005KT 10SM SCT080 10/03 A2904 RMK AO2 SLP834 T01000033=
201001192353 METAR KCLM 192353Z AUTO 00000KT 10SM BKN080 12/03 A2903 RMK AO2 SLP831 T01220033 10133 20089 55005=
201001192253 METAR KCLM 192253Z AUTO 30007KT 10SM BKN080 11/04 A2903 RMK AO2 SLP831 T01110044=
201001192153 METAR KCLM 192153Z AUTO VRB06KT 10SM FEW080 13/02 A2902 RMK AO2 SLP828 T01280022=
201001192053 METAR KCLM 192053Z AUTO 11015G23KT 10SM BKN080 12/03 A2905 RMK AO2 SLP837 T01220028 58008=
201001191953 METAR KCLM 191953Z AUTO 07005G15KT 10SM SCT090 12/04 A2905 RMK AO2 SLP837 T01220039=
201001191853 METAR KCLM 191853Z AUTO 00000KT 10SM BKN080 11/05 A2907 RMK AO2 SLP846 T01110050=
201001191753 METAR KCLM 191753Z AUTO 02004KT 10SM OVC070 09/05 A2907 RMK AO2 PRESFR SLP846 60000 T00890050 10128 20033 50005=
201001191653 METAR KCLM 191653Z AUTO 26010KT 10SM OVC070 10/03 A2908 RMK AO2 SLP848 T01000033=
201001191553 METAR KCLM 191553Z AUTO 16005KT 10SM SCT080 04/03 A2906 RMK AO2 SLP842 T00440028=
201001191453 METAR KCLM 191453Z AUTO 13008KT 10SM BKN070 07/03 A2905 RMK AO2 SLP840 60000 T00670033 51014 $=
201001191353 METAR KCLM 191353Z AUTO 00000KT 10SM FEW060 07/04 A2905 RMK AO2 RAB28E37 SLP837 P0000 T00720039 $=
201001191253 METAR KCLM 191253Z AUTO 35005KT 10SM FEW065 06/03 A2904 RMK AO2 SLP836 T00610033 $=
201001191153 METAR KCLM 191153Z AUTO 00000KT 10SM BKN070 04/03 A2901 RMK AO2 SLP826 70003 T00390028 10061 20028 58008 $=
201001191053 METAR KCLM 191053Z AUTO 25004KT 10SM BKN090 04/03 A2903 RMK AO2 SLP830 T00440028 $=
201001190953 METAR KCLM 190953Z AUTO 00000KT 10SM FEW085 04/03 A2903 RMK AO2 SLP832 T00390028 $=
201001190853 METAR KCLM 190853Z AUTO 25003KT 10SM FEW080 04/03 A2904 RMK AO2 SLP835 T00440028 57026 $=
201001190753 METAR KCLM 190753Z AUTO 00000KT 10SM FEW080 04/03 A2907 RMK AO2 SLP844 T00440033 401060033 $=
201001190653 METAR KCLM 190653Z AUTO 23003KT 10SM FEW120 04/03 A2909 RMK AO2 SLP852 T00440033 $=
201001190553 METAR KCLM 190553Z AUTO 24006KT 10SM CLR 04/03 A2912 RMK AO2 SLP861 T00440033 10083 20033 58009 $=
201001190453 METAR KCLM 190453Z AUTO 23005KT 10SM CLR 04/03 A2913 RMK AO2 SLP864 T00390028 $=
201001190353 METAR KCLM 190353Z AUTO 23006KT 10SM CLR 04/03 A2914 RMK AO2 SLP869 T00390028 $=
201001190253 METAR KCLM 190253Z AUTO 00000KT 10SM CLR 04/03 A2914 RMK AO2 SLP870 T00440028 56021 $=
201001190153 METAR KCLM 190153Z AUTO 00000KT 10SM CLR 05/04 A2916 RMK AO2 SLP877 T00500039 $=
201001190053 METAR KCLM 190053Z AUTO 11004KT 10SM CLR 08/04 A2918 RMK AO2 SLP883 T00830039 $=
201001182353 METAR KCLM 182353Z AUTO VRB03KT 10SM CLR 08/05 A2921 RMK AO2 SLP891 T00830050 10106 20083 56047 $=
201001182253 METAR KCLM 182253Z AUTO 00000KT 10SM CLR 09/04 A2925 RMK AO2 SLP904 T00940044 $=
201001182153 METAR KCLM 182153Z AUTO 35003KT 10SM CLR 10/06 A2929 RMK AO2 SLP918 T01000056 $=
201001182053 METAR KCLM 182053Z AUTO 00000KT 10SM CLR 10/06 A2935 RMK AO2 SLP938 T01000056 58012 $=
201001181953 METAR KCLM 181953Z AUTO VRB03KT 10SM SCT075 09/06 A2939 RMK AO2 SLP954 T00940061 $=
201001181853 METAR KCLM 181853Z AUTO 00000KT 10SM OVC070 09/06 A2940 RMK AO2 SLP955 T00940061 $=
201001181753 METAR KCLM 181753Z AUTO 15003KT 10SM FEW045 BKN075 08/07 A2938 RMK AO2 SLP950 60003 T00830067 10094 20067 51048 $=
201001181653 METAR KCLM 181653Z AUTO 16004KT 10SM BKN039 OVC055 07/06 A2935 RMK AO2 RAE53 SLP941 P0000 T00720061 $=
201001181553 METAR KCLM 181553Z AUTO 23004KT 10SM -RA BKN055 OVC070 07/06 A2929 RMK AO2 RAB1454 SLP921 P0000 T00670056 $=
201001181453 METAR KCLM 181453Z AUTO 19004KT 10SM BKN050 BKN060 OVC070 07/06 A2924 RMK AO2 RAE39 SLP901 P0000 60003 T00720056 53045 $=
201001181353 METAR KCLM 181353Z AUTO 19005KT 10SM -RA BKN048 OVC055 08/06 A2918 RMK AO2 SLP882 P0000 T00780056 $=
201001181253 METAR KCLM 181253Z AUTO 07009KT 10SM -RA OVC046 08/05 A2913 RMK AO2 SLP865 P0003 T00780050 $=
201001181221 SPECI KCLM 181221Z AUTO 11009G19KT 10SM -RA OVC033 08/04 A2910 RMK AO2 P0003 $=
201001181221 SPECI KCLM 181221Z AUTO 11009G19KT 10SM -RA OVC033 08/04 A2910 RMK AO2 P0003 $=
201001181153 METAR KCLM 181153Z AUTO 17017G23KT 4SM RA OVC027 08/04 A2910 RMK AO2 PK WND 14030/1123 SLP854 P0008 60011 70011 T00830039 10100 20056 51017 $=
201001181149 SPECI KCLM 181149Z AUTO 17010G21KT 4SM RA OVC027 08/04 A2910 RMK AO2 PK WND 14030/1123 P0007 $=
201001181149 SPECI KCLM 181149Z AUTO 17010G21KT 4SM RA OVC027 08/04 A2910 RMK AO2 PK WND 14030/1123 P0007 $=
201001181053 METAR KCLM 181053Z AUTO 18007G21KT 9SM -RA OVC037 09/04 A2908 RMK AO2 PK WND 16034/1040 WSHFT 0948 SLP848 P0002 T00890039 $=
201001181008 SPECI KCLM 181008Z AUTO 11013G18KT 10SM -RA OVC045 09/04 A2907 RMK AO2 WSHFT 0948 P0000 $=
201001181008 SPECI KCLM 181008Z AUTO 11013G18KT 10SM -RA OVC045 09/04 A2907 RMK AO2 WSHFT 0948 P0000 $=
201001180953 METAR KCLM 180953Z AUTO 07011G17KT 020V120 10SM -RA OVC047 09/04 A2905 RMK AO2 SLP837 P0000 T00890044 $=
201001180853 METAR KCLM 180853Z AUTO VRB03KT 10SM -RA OVC050 07/05 A2906 RMK AO2 RAB25 PRESFR SLP841 P0000 60001 T00720050 58041 $=
201001180753 METAR KCLM 180753Z AUTO VRB04KT 10SM BKN065 07/05 A2911 RMK AO2 RAB02E16 SLP858 P0000 T00670050 401000028 $=
201001180653 METAR KCLM 180653Z AUTO 00000KT 10SM FEW055 BKN070 07/06 A2915 RMK AO2 RAE34 SLP874 P0001 T00720056 $=
201001180553 METAR KCLM 180553Z AUTO 19005KT 10SM -RA OVC070 06/05 A2918 RMK AO2 RAB47 SLP884 P0000 60000 T00610050 10078 20050 56021 $=
201001180453 METAR KCLM 180453Z AUTO 23004KT 10SM SCT070 BKN100 06/05 A2920 RMK AO2 SLP888 T00560050 $=
201001180353 METAR KCLM 180353Z AUTO 00000KT 3SM BR FEW075 05/05 A2922 RMK AO2 SLP894 T00500050 $=
201001180314 SPECI KCLM 180314Z AUTO 27004KT 3SM BR FEW001 BKN080 OVC100 06/06 A2924 RMK AO2 $=
201001180314 SPECI KCLM 180314Z AUTO 27004KT 3SM BR FEW001 BKN080 OVC100 06/06 A2924 RMK AO2 $=
201001180253 METAR KCLM 180253Z AUTO 00000KT 5SM BR FEW025 BKN090 OVC110 06/06 A2925 RMK AO2 SLP905 T00610056 58034 $=
201001180153 METAR KCLM 180153Z AUTO 00000KT 10SM BKN110 06/06 A2928 RMK AO2 SLP918 T00610056 $=
201001180053 METAR KCLM 180053Z AUTO 00000KT 10SM SCT100 07/06 A2932 RMK AO2 SLP930 T00670061 $=
201001172353 METAR KCLM 172353Z AUTO 00000KT 10SM CLR 08/06 A2935 RMK AO2 SLP939 T00780061 10100 20061 56037 $=
201001172253 METAR KCLM 172253Z AUTO 01003KT 10SM CLR 08/07 A2938 RMK AO2 SLP950 T00830067 $=
201001172153 METAR KCLM 172153Z AUTO 00000KT 10SM FEW060 BKN080 08/06 A2942 RMK AO2 SLP965 T00830056 $=
201001172053 METAR KCLM 172053Z AUTO 00000KT 10SM OVC060 10/08 A2946 RMK AO2 SLP977 T01000078 58020 $=
201001171953 METAR KCLM 171953Z AUTO 00000KT 10SM OVC060 08/06 A2950 RMK AO2 SLP990 T00830061 $=
201001171853 METAR KCLM 171853Z AUTO 00000KT 10SM BKN060 07/07 A2951 RMK AO2 SLP995 T00720067 $=
201001171753 METAR KCLM 171753Z AUTO 28003KT 10SM SCT070 06/06 A2952 RMK AO2 SLP997 60000 T00610056 10061 20028 53004 $=
201001171653 METAR KCLM 171653Z AUTO 25003KT 3SM BR CLR 03/03 A2951 RMK AO2 SLP996 T00330033 $=
201001171645 SPECI KCLM 171645Z AUTO 17003KT 5SM BR FEW002 03/03 A2952 RMK AO2 $=
201001171645 SPECI KCLM 171645Z AUTO 17003KT 5SM BR FEW002 03/03 A2952 RMK AO2 $=
201001171638 SPECI KCLM 171638Z AUTO 24004KT 2 1/2SM BR FEW002 03/03 A2951 RMK AO2 VIS 1/2V5 $=
201001171638 SPECI KCLM 171638Z AUTO 24004KT 2 1/2SM BR FEW002 03/03 A2951 RMK AO2 VIS 1/2V5 $=
201001171633 SPECI KCLM 171633Z AUTO 00000KT 1/2SM FG FEW002 SCT060 04/03 A2951 RMK AO2 $=
201001171633 SPECI KCLM 171633Z AUTO 00000KT 1/2SM FG FEW002 SCT060 04/03 A2951 RMK AO2 $=
201001171619 SPECI KCLM 171619Z AUTO 20003KT 1/4SM FG SCT002 BKN060 03/03 A2951 RMK AO2 $=
201001171619 SPECI KCLM 171619Z AUTO 20003KT 1/4SM FG SCT002 BKN060 03/03 A2951 RMK AO2 $=
201001171604 SPECI KCLM 171604Z AUTO 20003KT 1/4SM FG BKN002 BKN060 04/04 A2951 RMK AO2 $=
201001171604 SPECI KCLM 171604Z AUTO 20003KT 1/4SM FG BKN002 BKN060 04/04 A2951 RMK AO2 $=
201001171553 METAR KCLM 171553Z AUTO 21004KT 1 1/2SM BR BKN004 BKN060 03/03 A2951 RMK AO2 VIS 3/4V2 1/2 SLP994 T00330033 $=
201001171543 SPECI KCLM 171543Z AUTO 17003KT 1/2SM FG BKN004 BKN060 03/03 A2951 RMK AO2 $=
201001171543 SPECI KCLM 171543Z AUTO 17003KT 1/2SM FG BKN004 BKN060 03/03 A2951 RMK AO2 $=
201001171523 SPECI KCLM 171523Z AUTO 00000KT 1/4SM FG BKN002 OVC055 04/04 A2951 RMK AO2 $=
201001171523 SPECI KCLM 171523Z AUTO 00000KT 1/4SM FG BKN002 OVC055 04/04 A2951 RMK AO2 $=
201001171514 SPECI KCLM 171514Z AUTO 13003KT 1/2SM FG BKN002 OVC055 04/04 A2951 RMK AO2 $=
201001171514 SPECI KCLM 171514Z AUTO 13003KT 1/2SM FG BKN002 OVC055 04/04 A2951 RMK AO2 $=
201001171501 SPECI KCLM 171501Z AUTO 00000KT 1 3/4SM BR BKN004 BKN055 04/04 A2951 RMK AO2 $=
201001171501 SPECI KCLM 171501Z AUTO 00000KT 1 3/4SM BR BKN004 BKN055 04/04 A2951 RMK AO2 $=
201001171453 METAR KCLM 171453Z AUTO 17005KT 4SM BR BKN004 04/04 A2951 RMK AO2 RAE1359B30E39 SLP993 P0000 60000 T00390039 56008 $=
201001171406 SPECI KCLM 171406Z AUTO 14005KT 8SM BKN004 OVC048 04/04 A2951 RMK AO2 RAE1359 P0000 $=
201001171406 SPECI KCLM 171406Z AUTO 14005KT 8SM BKN004 OVC048 04/04 A2951 RMK AO2 RAE1359 P0000 $=
201001171353 METAR KCLM 171353Z AUTO 13004KT 4SM -RA BR SCT004 BKN050 OVC060 04/04 A2951 RMK AO2 RAE1259B19 SLP993 P0000 T00440039 $=
201001171313 SPECI KCLM 171313Z AUTO 00000KT 9SM SCT006 OVC055 05/04 A2952 RMK AO2 RAE1259 P0000 $=
201001171313 SPECI KCLM 171313Z AUTO 00000KT 9SM SCT006 OVC055 05/04 A2952 RMK AO2 RAE1259 P0000 $=
201001171253 METAR KCLM 171253Z AUTO 00000KT 10SM -RA OVC006 06/05 A2953 RMK AO2 RAE18B42 SLP001 P0000 T00560050 $=
201001171153 METAR KCLM 171153Z AUTO 00000KT 10SM -RA OVC006 05/04 A2953 RMK AO2 SLP002 P0000 60000 T00500044 10056 20039 58012 $=
201001171128 SPECI KCLM 171128Z AUTO 00000KT 10SM -RA BKN006 OVC050 05/04 A2953 RMK AO2 P0000 $=
201001171128 SPECI KCLM 171128Z AUTO 00000KT 10SM -RA BKN006 OVC050 05/04 A2953 RMK AO2 P0000 $=
201001171119 SPECI KCLM 171119Z AUTO 23004KT 10SM -RA SCT006 BKN050 OVC055 05/04 A2954 RMK AO2 P0000 $=
201001171119 SPECI KCLM 171119Z AUTO 23004KT 10SM -RA SCT006 BKN050 OVC055 05/04 A2954 RMK AO2 P0000 $=
201001171053 METAR KCLM 171053Z AUTO 26005KT 10SM -RA OVC008 05/04 A2956 RMK AO2 RAB18 SLP010 P0000 T00500044 $=
201001170953 METAR KCLM 170953Z AUTO 24007KT 10SM BKN006 OVC065 05/04 A2955 RMK AO2 RAE15 CIG 006V010 SLP010 P0000 T00500044 $=
201001170923 SPECI KCLM 170923Z AUTO 00000KT 10SM BKN006 OVC060 04/04 A2955 RMK AO2 RAE15 P0000 $=
201001170923 SPECI KCLM 170923Z AUTO 00000KT 10SM BKN006 OVC060 04/04 A2955 RMK AO2 RAE15 P0000 $=
201001170853 METAR KCLM 170853Z AUTO 26007KT 10SM -RA SCT006 BKN046 OVC060 04/03 A2957 RMK AO2 RAB34 SLP014 P0000 60000 T00440033 56016 $=
201001170850 SPECI KCLM 170850Z AUTO 25007KT 10SM -RA SCT008 BKN048 OVC060 04/03 A2957 RMK AO2 RAB34 P0000 $=
201001170850 SPECI KCLM 170850Z AUTO 25007KT 10SM -RA SCT008 BKN048 OVC060 04/03 A2957 RMK AO2 RAB34 P0000 $=
201001170753 METAR KCLM 170753Z AUTO 27003KT 10SM FEW070 BKN100 OVC110 04/03 A2959 RMK AO2 RAE16 SLP021 P0000 T00440033 400611011 $=
201001170710 SPECI KCLM 170710Z AUTO 25006KT 10SM -RA FEW018 BKN060 OVC110 04/03 A2959 RMK AO2 P0000 $=
201001170710 SPECI KCLM 170710Z AUTO 25006KT 10SM -RA FEW018 BKN060 OVC110 04/03 A2959 RMK AO2 P0000 $=
201001170653 METAR KCLM 170653Z AUTO 25008KT 10SM -RA BKN016 OVC060 04/03 A2961 RMK AO2 RAB46 SLP030 P0000 T00440028 $=
201001170631 SPECI KCLM 170631Z AUTO 23005KT 10SM SCT010 OVC014 04/03 A2961 RMK AO2 $=
201001170631 SPECI KCLM 170631Z AUTO 23005KT 10SM SCT010 OVC014 04/03 A2961 RMK AO2 $=
201001170624 SPECI KCLM 170624Z AUTO 24004KT 10SM SCT011 OVC016 04/02 A2961 RMK AO2 $=
201001170624 SPECI KCLM 170624Z AUTO 24004KT 10SM SCT011 OVC016 04/02 A2961 RMK AO2 $=
201001170612 SPECI KCLM 170612Z AUTO 25005KT 10SM BKN011 OVC016 04/03 A2962 RMK AO2 $=
201001170612 SPECI KCLM 170612Z AUTO 25005KT 10SM BKN011 OVC016 04/03 A2962 RMK AO2 $=
201001170553 METAR KCLM 170553Z AUTO 25004KT 10SM BKN016 04/03 A2962 RMK AO2 SLP032 T00440028 10056 20044 58027 $=
201001170535 SPECI KCLM 170535Z AUTO 25003KT 10SM BKN015 04/03 A2962 RMK AO2 $=
201001170535 SPECI KCLM 170535Z AUTO 25003KT 10SM BKN015 04/03 A2962 RMK AO2 $=
201001170453 METAR KCLM 170453Z AUTO 27003KT 10SM OVC012 05/03 A2965 RMK AO2 SLP043 T00500028 $=
201001170353 METAR KCLM 170353Z AUTO 00000KT 10SM OVC014 05/03 A2967 RMK AO2 SLP051 T00500028 $=
201001170312 SPECI KCLM 170312Z AUTO 00000KT 10SM OVC014 05/03 A2969 RMK AO2 $=
201001170312 SPECI KCLM 170312Z AUTO 00000KT 10SM OVC014 05/03 A2969 RMK AO2 $=
201001170253 METAR KCLM 170253Z AUTO 00000KT 10SM OVC016 05/03 A2970 RMK AO2 SLP060 T00500033 56019 $=
201001170153 METAR KCLM 170153Z AUTO 14004KT 10SM OVC018 05/03 A2972 RMK AO2 SLP066 T00500033 $=
201001170053 METAR KCLM 170053Z AUTO 13004KT 10SM OVC019 05/03 A2974 RMK AO2 SLP072 T00500033 $=
201001170040 SPECI KCLM 170040Z AUTO 13004KT 10SM FEW011 OVC019 05/03 A2974 RMK AO2 $=
201001170040 SPECI KCLM 170040Z AUTO 13004KT 10SM FEW011 OVC019 05/03 A2974 RMK AO2 $=
201001162353 METAR KCLM 162353Z AUTO 11004KT 10SM OVC011 06/03 A2976 RMK AO2 SLP080 T00560033 10061 20033 56023 $=
201001162253 METAR KCLM 162253Z AUTO 09008KT 10SM OVC013 06/03 A2977 RMK AO2 SLP084 T00560028 $=
201001162233 SPECI KCLM 162233Z AUTO 09005KT 10SM BKN013 OVC022 06/03 A2978 RMK AO2 $=
201001162233 SPECI KCLM 162233Z AUTO 09005KT 10SM BKN013 OVC022 06/03 A2978 RMK AO2 $=
201001162153 METAR KCLM 162153Z AUTO 09008KT 10SM BKN015 BKN100 06/03 A2980 RMK AO2 SLP092 T00610028 $=
201001162053 METAR KCLM 162053Z AUTO 15003KT 10SM BKN015 06/03 A2983 RMK AO2 SLP103 T00610028 58017 $=
201001162006 SPECI KCLM 162006Z AUTO 00000KT 10SM BKN015 06/03 A2985 RMK AO2 $=
201001162006 SPECI KCLM 162006Z AUTO 00000KT 10SM BKN015 06/03 A2985 RMK AO2 $=
201001161953 METAR KCLM 161953Z AUTO 00000KT 10SM SCT015 06/02 A2986 RMK AO2 SLP112 T00610022 $=
201001161920 SPECI KCLM 161920Z AUTO 00000KT 10SM OVC015 06/02 A2987 RMK AO2 $=
201001161920 SPECI KCLM 161920Z AUTO 00000KT 10SM OVC015 06/02 A2987 RMK AO2 $=
201001161909 SPECI KCLM 161909Z AUTO 26003KT 10SM OVC013 05/02 A2988 RMK AO2 $=
201001161909 SPECI KCLM 161909Z AUTO 26003KT 10SM OVC013 05/02 A2988 RMK AO2 $=
201001161853 METAR KCLM 161853Z AUTO 28003KT 10SM OVC015 05/02 A2988 RMK AO2 SLP122 T00500022 $=
201001161753 METAR KCLM 161753Z AUTO 24003KT 10SM BKN019 03/02 A2988 RMK AO2 SLP120 T00330017 10033 21011 56002 $=
201001161749 SPECI KCLM 161749Z AUTO 23003KT 10SM BKN019 03/02 A2988 RMK AO2 $=
201001161749 SPECI KCLM 161749Z AUTO 23003KT 10SM BKN019 03/02 A2988 RMK AO2 $=
201001161742 SPECI KCLM 161742Z AUTO 00000KT 10SM FEW014 SCT021 03/02 A2988 RMK AO2 $=
201001161742 SPECI KCLM 161742Z AUTO 00000KT 10SM FEW014 SCT021 03/02 A2988 RMK AO2 $=
201001161725 SPECI KCLM 161725Z AUTO 00000KT 10SM BKN023 02/02 A2988 RMK AO2 $=
201001161725 SPECI KCLM 161725Z AUTO 00000KT 10SM BKN023 02/02 A2988 RMK AO2 $=
201001161713 SPECI KCLM 161713Z AUTO 00000KT 10SM SCT023 02/01 A2987 RMK AO2 $=
201001161713 SPECI KCLM 161713Z AUTO 00000KT 10SM SCT023 02/01 A2987 RMK AO2 $=
201001161702 SPECI KCLM 161702Z AUTO 00000KT 10SM FEW016 BKN023 02/01 A2988 RMK AO2 $=
201001161702 SPECI KCLM 161702Z AUTO 00000KT 10SM FEW016 BKN023 02/01 A2988 RMK AO2 $=
201001161653 METAR KCLM 161653Z AUTO 00000KT 10SM SCT016 SCT025 01/01 A2987 RMK AO2 SLP119 T00110006 $=
201001161635 SPECI KCLM 161635Z AUTO 00000KT 10SM FEW010 OVC016 01/01 A2988 RMK AO2 $=
201001161635 SPECI KCLM 161635Z AUTO 00000KT 10SM FEW010 OVC016 01/01 A2988 RMK AO2 $=
201001161607 SPECI KCLM 161607Z AUTO 00000KT 10SM BKN010 OVC015 01/00 A2989 RMK AO2 CIG 008V013 $=
201001161607 SPECI KCLM 161607Z AUTO 00000KT 10SM BKN010 OVC015 01/00 A2989 RMK AO2 CIG 008V013 $=
201001161553 METAR KCLM 161553Z AUTO 00000KT 10SM BKN009 OVC014 00/M01 A2989 RMK AO2 CIG 009V013 SLP123 T00001006 $=
201001161520 SPECI KCLM 161520Z AUTO 10SM BKN009 00/M01 A2989 RMK AO2 $=
201001161520 SPECI KCLM 161520Z AUTO 10SM BKN009 00/M01 A2989 RMK AO2 $=
201001161506 SPECI KCLM 161506Z AUTO 22006KT 10SM FEW009 01/M01 A2989 RMK AO2 $=
201001161506 SPECI KCLM 161506Z AUTO 22006KT 10SM FEW009 01/M01 A2989 RMK AO2 $=
201001161453 METAR KCLM 161453Z AUTO 24006KT 10SM CLR 00/M01 A2989 RMK AO2 SLP125 T00001006 55004 $=
201001161353 METAR KCLM 161353Z AUTO 00000KT 10SM CLR M01/M02 A2989 RMK AO2 SLP124 T10111017=
201001161253 METAR KCLM 161253Z AUTO 24007KT 10SM CLR 02/00 A2989 RMK AO2 SLP124 T00170000=
201001161153 METAR KCLM 161153Z AUTO 23003KT 10SM CLR 01/00 A2990 RMK AO2 SLP128 70090 T00060000 10044 20000 58012=
201001161053 METAR KCLM 161053Z AUTO 23006KT 10SM CLR 02/01 A2993 RMK AO2 SLP136 T00220006=
201001160953 METAR KCLM 160953Z AUTO 22005KT 10SM CLR 02/01 A2993 RMK AO2 SLP138 T00220011=
201001160853 METAR KCLM 160853Z AUTO 23006KT 10SM CLR 03/01 A2994 RMK AO2 SLP140 T00280011 50005=
201001160753 METAR KCLM 160753Z AUTO 24007KT 10SM FEW034 03/01 A2994 RMK AO2 SLP141 T00330011 401000028=
201001160653 METAR KCLM 160653Z AUTO 24006KT 10SM CLR 04/02 A2993 RMK AO2 SLP138 T00390017=
201001160553 METAR KCLM 160553Z AUTO 25008KT 10SM CLR 04/02 A2992 RMK AO2 SLP135 T00390017 10078 20028 51010=
201001160453 METAR KCLM 160453Z AUTO 24011KT 10SM CLR 04/02 A2992 RMK AO2 SLP133 T00440022=
201001160353 METAR KCLM 160353Z AUTO 25006KT 10SM CLR 05/03 A2990 RMK AO2 SLP126 T00500028=
201001160253 METAR KCLM 160253Z AUTO 26005KT 10SM CLR 04/03 A2989 RMK AO2 SLP124 T00440028 51023=
201001160153 METAR KCLM 160153Z AUTO 20005KT 10SM CLR 04/03 A2988 RMK AO2 SLP119 T00440028=
201001160053 METAR KCLM 160053Z AUTO 00000KT 10SM CLR 07/03 A2986 RMK AO2 SLP112 T00670033=
201001152353 METAR KCLM 152353Z AUTO 26012KT 10SM CLR 08/05 A2982 RMK AO2 SLP099 60008 T00780050 10094 20072 51022=
201001152253 METAR KCLM 152253Z AUTO 29009KT 10SM CLR 09/04 A2981 RMK AO2 SLP096 T00940044=
201001152153 METAR KCLM 152153Z AUTO 31006KT 10SM CLR 09/04 A2979 RMK AO2 SLP090 T00940044=
201001152053 METAR KCLM 152053Z AUTO 28012KT 10SM CLR 08/04 A2976 RMK AO2 SLP078 60008 T00780044 51034=
201001151953 METAR KCLM 151953Z AUTO 26009KT 10SM CLR 07/06 A2974 RMK AO2 RAE21 SLP074 P0000 T00720056=
201001151853 METAR KCLM 151853Z AUTO 29012G22KT 10SM -RA BKN033 OVC041 07/05 A2972 RMK AO2 SLP067 P0008 T00720050=
201001151802 SPECI KCLM 151802Z AUTO 30015G22KT 4SM RA BR FEW004 SCT030 OVC040 08/06 A2967 RMK AO2 PRESRR P0002=
201001151802 SPECI KCLM 151802Z AUTO 30015G22KT 4SM RA BR FEW004 SCT030 OVC040 08/06 A2967 RMK AO2 PRESRR P0002=
201001151753 METAR KCLM 151753Z AUTO 30015G26KT 3SM RA BR FEW004 BKN029 OVC039 08/06 A2966 RMK AO2 PK WND 29026/1749 SLP044 P0023 60082 T00780061 10094 20078 53043=
201001151745 SPECI KCLM 151745Z AUTO 30017G23KT 2 1/2SM RA BR SCT004 BKN016 OVC037 08/07 A2965 RMK AO2 P0020=
201001151745 SPECI KCLM 151745Z AUTO 30017G23KT 2 1/2SM RA BR SCT004 BKN016 OVC037 08/07 A2965 RMK AO2 P0020=
201001151728 SPECI KCLM 151728Z AUTO 31009G17KT 3SM +RA BR FEW006 BKN027 OVC036 08/07 A2964 RMK AO2 P0013=
201001151728 SPECI KCLM 151728Z AUTO 31009G17KT 3SM +RA BR FEW006 BKN027 OVC036 08/07 A2964 RMK AO2 P0013=
201001151710 SPECI KCLM 151710Z AUTO 29008KT 3SM RA BR FEW006 BKN031 OVC055 08/08 A2960 RMK AO2 PRESRR P0005=
201001151710 SPECI KCLM 151710Z AUTO 29008KT 3SM RA BR FEW006 BKN031 OVC055 08/08 A2960 RMK AO2 PRESRR P0005=
201001151653 METAR KCLM 151653Z AUTO 00000KT 4SM RA BR BKN033 OVC055 08/08 A2956 RMK AO2 SLP011 P0013 T00830078=
201001151622 SPECI KCLM 151622Z AUTO 03003KT 4SM RA BR OVC031 09/07 A2955 RMK AO2 P0006=
201001151622 SPECI KCLM 151622Z AUTO 03003KT 4SM RA BR OVC031 09/07 A2955 RMK AO2 P0006=
201001151553 METAR KCLM 151553Z AUTO 00000KT 3SM RA BR OVC019 08/07 A2953 RMK AO2 SLP001 P0016 T00830072=
201001151526 SPECI KCLM 151526Z AUTO 00000KT 3SM RA BR OVC027 08/07 A2954 RMK AO2 P0006=
201001151526 SPECI KCLM 151526Z AUTO 00000KT 3SM RA BR OVC027 08/07 A2954 RMK AO2 P0006=
201001151453 METAR KCLM 151453Z AUTO VRB04KT 5SM -RA BR OVC035 08/07 A2953 RMK AO2 SLP000 P0011 60030 T00780072 56018=
201001151451 SPECI KCLM 151451Z AUTO 34004KT 5SM -RA BR OVC035 08/07 A2953 RMK AO2 P0011=
201001151451 SPECI KCLM 151451Z AUTO 34004KT 5SM -RA BR OVC035 08/07 A2953 RMK AO2 P0011=
201001151353 METAR KCLM 151353Z AUTO 11004KT 4SM RA BR BKN025 OVC050 08/07 A2956 RMK AO2 PRESFR SLP013 P0008 T00780072=
201001151253 METAR KCLM 151253Z AUTO 00000KT 5SM RA BR OVC039 08/07 A2958 RMK AO2 SLP019 P0011 T00830072=
201001151225 SPECI KCLM 151225Z AUTO 00000KT 6SM -RA BR OVC033 08/07 A2961 RMK AO2 P0008=
201001151225 SPECI KCLM 151225Z AUTO 00000KT 6SM -RA BR OVC033 08/07 A2961 RMK AO2 P0008=
201001151153 METAR KCLM 151153Z AUTO 06003KT 5SM RA BR BKN021 BKN038 OVC050 08/07 A2964 RMK AO2 SLP039 P0014 60014 70035 T00830067 10100 20061 58050=
201001151129 SPECI KCLM 151129Z AUTO VRB03KT 4SM RA BR BKN019 BKN036 OVC050 08/07 A2965 RMK AO2 PRESFR P0008=
201001151129 SPECI KCLM 151129Z AUTO VRB03KT 4SM RA BR BKN019 BKN036 OVC050 08/07 A2965 RMK AO2 PRESFR P0008=
201001151053 METAR KCLM 151053Z AUTO 00000KT 10SM -RA FEW048 OVC060 09/05 A2970 RMK AO2 RAB29 SLP059 P0000 T00890050=
201001150953 METAR KCLM 150953Z AUTO 09005KT 10SM BKN065 BKN100 07/06 A2973 RMK AO2 SLP070 T00670061=
201001150853 METAR KCLM 150853Z AUTO 00000KT 8SM FEW003 SCT065 BKN095 07/06 A2979 RMK AO2 RAE25 SLP089 P0000 60000 T00670061 58017=
201001150832 SPECI KCLM 150832Z AUTO 24003KT 8SM FEW001 OVC065 07/07 A2981 RMK AO2 RAE25 P0000=
201001150832 SPECI KCLM 150832Z AUTO 24003KT 8SM FEW001 OVC065 07/07 A2981 RMK AO2 RAE25 P0000=
201001150825 SPECI KCLM 150825Z AUTO 17005KT 2 1/2SM BR FEW001 BKN060 OVC075 07/06 A2981 RMK AO2 VIS 1V5 RAE25 P0000=
201001150825 SPECI KCLM 150825Z AUTO 17005KT 2 1/2SM BR FEW001 BKN060 OVC075 07/06 A2981 RMK AO2 VIS 1V5 RAE25 P0000=
201001150816 SPECI KCLM 150816Z AUTO 00000KT 1 3/4SM -RA BR SCT048 OVC060 07/06 A2980 RMK AO2 VIS 3/4V5 PRESFR P0000=
201001150816 SPECI KCLM 150816Z AUTO 00000KT 1 3/4SM -RA BR SCT048 OVC060 07/06 A2980 RMK AO2 VIS 3/4V5 PRESFR P0000=
201001150753 METAR KCLM 150753Z AUTO 00000KT 10SM -RA SCT047 OVC060 07/07 A2983 RMK AO2 SLP102 P0000 T00720067 400780056=
201001150701 SPECI KCLM 150701Z AUTO 22004KT 6SM -RA BR FEW002 BKN041 OVC060 07/07 A2984 RMK AO2 P0000=
201001150701 SPECI KCLM 150701Z AUTO 22004KT 6SM -RA BR FEW002 BKN041 OVC060 07/07 A2984 RMK AO2 P0000=
201001150653 METAR KCLM 150653Z AUTO 00000KT 2SM -RA BR SCT002 BKN034 OVC055 07/07 A2984 RMK AO2 SLP106 P0000 T00670067=
201001150645 SPECI KCLM 150645Z AUTO 26004KT 1SM -RA BR FEW002 SCT012 OVC055 07/07 A2984 RMK AO2 P0000=
201001150645 SPECI KCLM 150645Z AUTO 26004KT 1SM -RA BR FEW002 SCT012 OVC055 07/07 A2984 RMK AO2 P0000=
201001150632 SPECI KCLM 150632Z AUTO VRB03KT 1/2SM -RA FG SCT001 BKN005 OVC055 07/07 A2985 RMK AO2 P0000=
201001150632 SPECI KCLM 150632Z AUTO VRB03KT 1/2SM -RA FG SCT001 BKN005 OVC055 07/07 A2985 RMK AO2 P0000=
201001150606 SPECI KCLM 150606Z AUTO 24004KT 1/4SM -RA FG VV001 07/07 A2987 RMK AO2 P0000=
201001150606 SPECI KCLM 150606Z AUTO 24004KT 1/4SM -RA FG VV001 07/07 A2987 RMK AO2 P0000=
201001150557 SPECI KCLM 150557Z AUTO 00000KT 1/4SM -RA FG VV004 07/07 A2987 RMK AO2 P0000=
201001150557 SPECI KCLM 150557Z AUTO 00000KT 1/4SM -RA FG VV004 07/07 A2987 RMK AO2 P0000=
201001150553 METAR KCLM 150553Z AUTO 32003KT 1/4SM -RA FG FEW001 OVC011 07/07 A2988 RMK AO2 SLP118 P0000 60011 T00720067 10072 20067 55015=
201001150551 SPECI KCLM 150551Z AUTO 00000KT 1/2SM -RA FG FEW001 OVC013 07/07 A2987 RMK AO2 P0000=
201001150551 SPECI KCLM 150551Z AUTO 00000KT 1/2SM -RA FG FEW001 OVC013 07/07 A2987 RMK AO2 P0000=
201001150541 SPECI KCLM 150541Z AUTO 00000KT 1 3/4SM -RA BR FEW001 BKN040 OVC060 07/07 A2988 RMK AO2 P0000=
201001150541 SPECI KCLM 150541Z AUTO 00000KT 1 3/4SM -RA BR FEW001 BKN040 OVC060 07/07 A2988 RMK AO2 P0000=
201001150539 SPECI KCLM 150539Z AUTO 00000KT 3SM -RA BR FEW001 BKN046 OVC070 07/07 A2988 RMK AO2 P0000=
201001150539 SPECI KCLM 150539Z AUTO 00000KT 3SM -RA BR FEW001 BKN046 OVC070 07/07 A2988 RMK AO2 P0000=
201001150453 METAR KCLM 150453Z AUTO 00000KT 7SM -RA OVC043 07/07 A2989 RMK AO2 SLP124 P0004 T00720067=
201001150353 METAR KCLM 150353Z AUTO 00000KT 10SM -RA BKN049 OVC070 07/07 A2992 RMK AO2 SLP133 P0002 T00720067=
201001150253 METAR KCLM 150253Z AUTO 21004KT 8SM -RA BKN055 OVC080 07/06 A2993 RMK AO2 SLP135 P0001 60005 T00670061 58022=
201001150153 METAR KCLM 150153Z AUTO 17004KT 10SM -RA BKN060 OVC075 07/06 A2995 RMK AO2 SLP144 P0001 T00670061=
201001150113 SPECI KCLM 150113Z AUTO 00000KT 10SM -RA SCT003 BKN060 OVC080 07/06 A2997 RMK AO2 P0000=
201001150113 SPECI KCLM 150113Z AUTO 00000KT 10SM -RA SCT003 BKN060 OVC080 07/06 A2997 RMK AO2 P0000=
201001150053 METAR KCLM 150053Z AUTO 21005KT 10SM -RA OVC050 07/07 A2998 RMK AO2 SLP155 P0003 T00670067=
201001150017 SPECI KCLM 150017Z AUTO 00000KT 7SM -RA SCT004 BKN042 OVC050 07/07 A2999 RMK AO2 P0001=
201001150017 SPECI KCLM 150017Z AUTO 00000KT 7SM -RA SCT004 BKN042 OVC050 07/07 A2999 RMK AO2 P0001=
201001142353 METAR KCLM 142353Z AUTO 27003KT 10SM -RA BKN002 OVC040 07/07 A2999 RMK AO2 SLP157 P0001 60010 T00720067 10078 20072 56019=
201001142316 SPECI KCLM 142316Z AUTO 00000KT 5SM -RA BR BKN002 BKN030 OVC046 07/07 A2999 RMK AO2 P0000=
201001142316 SPECI KCLM 142316Z AUTO 00000KT 5SM -RA BR BKN002 BKN030 OVC046 07/07 A2999 RMK AO2 P0000=
201001142253 METAR KCLM 142253Z AUTO 00000KT 5SM -RA BR SCT002 BKN030 OVC050 07/07 A2999 RMK AO2 SLP159 P0006 T00720067=
201001142235 SPECI KCLM 142235Z AUTO 00000KT 5SM -RA BR FEW003 BKN030 OVC050 07/07 A3000 RMK AO2 P0005=
201001142235 SPECI KCLM 142235Z AUTO 00000KT 5SM -RA BR FEW003 BKN030 OVC050 07/07 A3000 RMK AO2 P0005=
201001142233 SPECI KCLM 142233Z AUTO 00000KT 5SM -RA BR BKN028 OVC055 07/07 A3000 RMK AO2 P0004=
201001142233 SPECI KCLM 142233Z AUTO 00000KT 5SM -RA BR BKN028 OVC055 07/07 A3000 RMK AO2 P0004=
201001142222 SPECI KCLM 142222Z AUTO 29003KT 5SM -RA BR BKN030 OVC040 07/07 A3000 RMK AO2 P0004=
201001142222 SPECI KCLM 142222Z AUTO 29003KT 5SM -RA BR BKN030 OVC040 07/07 A3000 RMK AO2 P0004=
201001142153 METAR KCLM 142153Z AUTO 00000KT 4SM -RA BR SCT005 BKN028 OVC038 07/07 A3001 RMK AO2 SLP165 P0003 T00720067=
201001142053 METAR KCLM 142053Z AUTO 00000KT 10SM -RA BKN005 BKN032 OVC047 08/07 A3005 RMK AO2 SLP177 P0000 60000 T00780067 58019=
201001142038 SPECI KCLM 142038Z AUTO 00000KT 10SM -RA BKN005 BKN042 OVC055 08/07 A3005 RMK AO2 P0000=
201001142038 SPECI KCLM 142038Z AUTO 00000KT 10SM -RA BKN005 BKN042 OVC055 08/07 A3005 RMK AO2 P0000=
201001141953 METAR KCLM 141953Z AUTO 00000KT 10SM -RA SCT004 BKN045 OVC055 08/07 A3006 RMK AO2 RAB14 SLP182 P0000 T00780067=
201001141853 METAR KCLM 141853Z AUTO 00000KT 10SM FEW004 BKN008 BKN044 08/07 A3009 RMK AO2 RAE34 SLP192 P0000 T00780067=
201001141834 SPECI KCLM 141834Z AUTO 00000KT 10SM SCT001 OVC008 08/07 A3009 RMK AO2 RAE34 CIG 006V010 P0000=
201001141834 SPECI KCLM 141834Z AUTO 00000KT 10SM SCT001 OVC008 08/07 A3009 RMK AO2 RAE34 CIG 006V010 P0000=
201001141809 SPECI KCLM 141809Z AUTO 00000KT 7SM -RA OVC001 08/07 A3010 RMK AO2 P0000=
201001141809 SPECI KCLM 141809Z AUTO 00000KT 7SM -RA OVC001 08/07 A3010 RMK AO2 P0000=
201001141753 METAR KCLM 141753Z AUTO 00000KT 10SM -RA BKN003 OVC044 07/07 A3011 RMK AO2 RAB17 SLP196 P0000 60000 T00720067 10078 20056 56013=
201001141744 SPECI KCLM 141744Z AUTO 00000KT 10SM -RA SCT003 OVC046 07/06 A3011 RMK AO2 RAB17 P0000=
201001141744 SPECI KCLM 141744Z AUTO 00000KT 10SM -RA SCT003 OVC046 07/06 A3011 RMK AO2 RAB17 P0000=
201001141653 METAR KCLM 141653Z AUTO 00000KT 10SM BKN070 BKN110 07/06 A3011 RMK AO2 SLP197 T00670056=
201001141553 METAR KCLM 141553Z AUTO 00000KT 10SM SCT020 SCT070 BKN100 06/06 A3012 RMK AO2 SLP201 T00610056=
201001141519 SPECI KCLM 141519Z AUTO 12003KT 10SM BKN020 OVC110 07/06 A3012 RMK AO2=
201001141519 SPECI KCLM 141519Z AUTO 12003KT 10SM BKN020 OVC110 07/06 A3012 RMK AO2=
201001141453 METAR KCLM 141453Z AUTO 00000KT 10SM OVC110 07/06 A3014 RMK AO2 SLP209 T00670056 56012=
201001141416 SPECI KCLM 141416Z AUTO 13005KT 10SM SCT011 SCT019 BKN095 07/06 A3016 RMK AO2=
201001141416 SPECI KCLM 141416Z AUTO 13005KT 10SM SCT011 SCT019 BKN095 07/06 A3016 RMK AO2=
201001141353 METAR KCLM 141353Z AUTO 13004KT 10SM BKN011 OVC100 07/07 A3016 RMK AO2 SLP214 T00720067=
201001141351 SPECI KCLM 141351Z AUTO 15004KT 10SM BKN011 OVC100 07/07 A3016 RMK AO2=
201001141351 SPECI KCLM 141351Z AUTO 15004KT 10SM BKN011 OVC100 07/07 A3016 RMK AO2=
201001141330 SPECI KCLM 141330Z AUTO 14005KT 10SM SCT005 OVC100 07/07 A3017 RMK AO2=
201001141330 SPECI KCLM 141330Z AUTO 14005KT 10SM SCT005 OVC100 07/07 A3017 RMK AO2=
201001141318 SPECI KCLM 141318Z AUTO 00000KT 10SM BKN005 OVC095 07/07 A3018 RMK AO2 CIG 003V008=
201001141318 SPECI KCLM 141318Z AUTO 00000KT 10SM BKN005 OVC095 07/07 A3018 RMK AO2 CIG 003V008=
201001141253 METAR KCLM 141253Z AUTO 12004KT 10SM FEW008 SCT018 OVC100 07/06 A3018 RMK AO2 SLP221 T00670061=
201001141251 SPECI KCLM 141251Z AUTO 13004KT 10SM FEW008 SCT018 OVC095 07/07 A3018 RMK AO2=
201001141251 SPECI KCLM 141251Z AUTO 13004KT 10SM FEW008 SCT018 OVC095 07/07 A3018 RMK AO2=
201001141241 SPECI KCLM 141241Z AUTO 00000KT 10SM SCT010 BKN018 OVC095 08/07 A3018 RMK AO2=
201001141241 SPECI KCLM 141241Z AUTO 00000KT 10SM SCT010 BKN018 OVC095 08/07 A3018 RMK AO2=
201001141153 METAR KCLM 141153Z AUTO 09004KT 10SM BKN010 08/07 A3015 RMK AO2 CIG 008V014 SLP212 70001 T00780067 10083 20056 50005=
201001141124 SPECI KCLM 141124Z AUTO 14004KT 10SM BKN013 06/06 A3016 RMK AO2=
201001141124 SPECI KCLM 141124Z AUTO 14004KT 10SM BKN013 06/06 A3016 RMK AO2=
201001141053 METAR KCLM 141053Z AUTO 14004KT 10SM SCT015 SCT060 06/06 A3017 RMK AO2 SLP218 T00610056=
201001141045 SPECI KCLM 141045Z AUTO 12003KT 10SM FEW015 BKN060 06/06 A3017 RMK AO2=
201001141045 SPECI KCLM 141045Z AUTO 12003KT 10SM FEW015 BKN060 06/06 A3017 RMK AO2=
201001141016 SPECI KCLM 141016Z AUTO 15004KT 10SM BKN015 BKN065 07/06 A3015 RMK AO2=
201001141016 SPECI KCLM 141016Z AUTO 15004KT 10SM BKN015 BKN065 07/06 A3015 RMK AO2=
201001140953 METAR KCLM 140953Z AUTO 16003KT 10SM OVC013 07/07 A3015 RMK AO2 SLP211 T00720067=
201001140853 METAR KCLM 140853Z AUTO 30004KT 10SM OVC011 07/06 A3014 RMK AO2 SLP208 T00720061 52036=
201001140820 SPECI KCLM 140820Z AUTO 00000KT 10SM OVC013 07/06 A3011 RMK AO2=
201001140820 SPECI KCLM 140820Z AUTO 00000KT 10SM OVC013 07/06 A3011 RMK AO2=
201001140753 METAR KCLM 140753Z AUTO 00000KT 10SM BKN018 OVC025 06/06 A3010 RMK AO2 SLP194 T00610056 400940056=
201001140743 SPECI KCLM 140743Z AUTO 00000KT 10SM BKN024 07/06 A3010 RMK AO2=
201001140743 SPECI KCLM 140743Z AUTO 00000KT 10SM BKN024 07/06 A3010 RMK AO2=
201001140653 METAR KCLM 140653Z AUTO 16005KT 10SM BKN060 07/06 A3007 RMK AO2 SLP186 T00670056=
201001140553 METAR KCLM 140553Z AUTO 27006KT 10SM FEW044 BKN060 08/07 A3003 RMK AO2 SLP171 60001 T00830072 10094 20078 51043=
201001140453 METAR KCLM 140453Z AUTO 29003KT 10SM BKN085 OVC110 08/08 A3000 RMK AO2 RAE08B38E49 SLP162 P0000 T00780078=
201001140353 METAR KCLM 140353Z AUTO 27005KT 10SM -RA SCT048 BKN065 OVC080 09/08 A2995 RMK AO2 SLP144 P0000 T00890078=
201001140253 METAR KCLM 140253Z AUTO 27011KT 10SM -RA FEW036 OVC046 09/08 A2991 RMK AO2 SLP128 P0001 60001 T00890078 53037=
201001140212 SPECI KCLM 140212Z AUTO 25006KT 10SM -RA SCT024 BKN047 OVC060 09/08 A2988 RMK AO2 P0000=
201001140212 SPECI KCLM 140212Z AUTO 25006KT 10SM -RA SCT024 BKN047 OVC060 09/08 A2988 RMK AO2 P0000=
201001140153 METAR KCLM 140153Z AUTO 25006KT 9SM -RA OVC023 09/08 A2987 RMK AO2 RAB30 SLP116 P0000 T00890078=
201001140102 SPECI KCLM 140102Z AUTO 25006KT 10SM OVC015 09/08 A2984 RMK AO2=
201001140102 SPECI KCLM 140102Z AUTO 25006KT 10SM OVC015 09/08 A2984 RMK AO2=
201001140053 METAR KCLM 140053Z AUTO 24006KT 10SM OVC013 09/07 A2983 RMK AO2 SLP103 T00890072=
201001140017 SPECI KCLM 140017Z AUTO 25005KT 10SM OVC013 09/07 A2981 RMK AO2=
201001140017 SPECI KCLM 140017Z AUTO 25005KT 10SM OVC013 09/07 A2981 RMK AO2=
201001140001 SPECI KCLM 140001Z AUTO 25005KT 10SM OVC015 09/07 A2980 RMK AO2=
201001140001 SPECI KCLM 140001Z AUTO 25005KT 10SM OVC015 09/07 A2980 RMK AO2=
201001132353 METAR KCLM 132353Z AUTO 24005KT 10SM OVC013 09/07 A2980 RMK AO2 RAB02E32 SLP092 P0000 60000 T00890072 10089 20083 53023=
201001132303 SPECI KCLM 132303Z AUTO 23005KT 10SM -RA OVC011 09/07 A2977 RMK AO2 RAB02 P0000=
201001132303 SPECI KCLM 132303Z AUTO 23005KT 10SM -RA OVC011 09/07 A2977 RMK AO2 RAB02 P0000=
201001132253 METAR KCLM 132253Z AUTO 24004KT 10SM OVC009 09/08 A2977 RMK AO2 RAB12E36 SLP082 P0000 T00890078=
201001132153 METAR KCLM 132153Z AUTO 25004KT 10SM OVC009 09/08 A2975 RMK AO2 SLP074 T00890078=
201001132053 METAR KCLM 132053Z AUTO 29007KT 10SM BKN008 OVC013 08/07 A2973 RMK AO2 CIG 006V011 SLP068 T00830072 51006=
201001131953 METAR KCLM 131953Z AUTO 32007KT 10SM BKN006 BKN100 09/07 A2972 RMK AO2 SLP063 T00890072=
201001131918 SPECI KCLM 131918Z AUTO 27004KT 10SM FEW006 SCT011 OVC090 09/07 A2972 RMK AO2=
201001131918 SPECI KCLM 131918Z AUTO 27004KT 10SM FEW006 SCT011 OVC090 09/07 A2972 RMK AO2=
201001131905 SPECI KCLM 131905Z AUTO 29006KT 10SM BKN011 OVC090 08/08 A2972 RMK AO2=
201001131905 SPECI KCLM 131905Z AUTO 29006KT 10SM BKN011 OVC090 08/08 A2972 RMK AO2=
201001131853 METAR KCLM 131853Z AUTO 27003KT 10SM FEW005 OVC009 08/08 A2973 RMK AO2 SLP068 T00830078=
201001131753 METAR KCLM 131753Z AUTO 26004KT 10SM FEW003 OVC009 08/08 A2971 RMK AO2 RAE1655 SLP062 P0000 60000 T00780078 10078 20061 53011=
201001131653 METAR KCLM 131653Z AUTO 27003KT 10SM -RA OVC007 07/07 A2969 RMK AO2 RAB17 SLP057 P0000 T00720072=
201001131553 METAR KCLM 131553Z AUTO 25003KT 10SM OVC005 07/07 A2968 RMK AO2 SLP053 T00670067=
201001131500 SPECI KCLM 131500Z AUTO 00000KT 4SM BR BKN005 OVC012 06/06 A2967 RMK AO2 CIG 001V007=
201001131500 SPECI KCLM 131500Z AUTO 00000KT 4SM BR BKN005 OVC012 06/06 A2967 RMK AO2 CIG 001V007=
201001131453 METAR KCLM 131453Z AUTO 26003KT 5SM BR FEW001 SCT005 OVC012 06/06 A2968 RMK AO2 SLP050 T00610061 55001=
201001131443 SPECI KCLM 131443Z AUTO 00000KT 7SM SCT001 BKN012 OVC095 06/06 A2967 RMK AO2=
201001131443 SPECI KCLM 131443Z AUTO 00000KT 7SM SCT001 BKN012 OVC095 06/06 A2967 RMK AO2=
201001131436 SPECI KCLM 131436Z AUTO 22005KT 2 1/2SM BR BKN001 OVC012 06/06 A2967 RMK AO2 VIS 3/4V5=
201001131436 SPECI KCLM 131436Z AUTO 22005KT 2 1/2SM BR BKN001 OVC012 06/06 A2967 RMK AO2 VIS 3/4V5=
201001131432 SPECI KCLM 131432Z AUTO 22005KT 3/4SM BR BKN001 OVC012 06/06 A2968 RMK AO2=
201001131432 SPECI KCLM 131432Z AUTO 22005KT 3/4SM BR BKN001 OVC012 06/06 A2968 RMK AO2=
201001131353 METAR KCLM 131353Z AUTO 00000KT 1/4SM FG VV001 06/06 A2966 RMK AO2 SLP047 T00610061=
201001131253 METAR KCLM 131253Z AUTO 21003KT 1/4SM FG VV001 06/06 A2966 RMK AO2 SLP046 T00610056=
201001131226 SPECI KCLM 131226Z AUTO 00000KT 1/4SM FG VV001 06/06 A2967 RMK AO2=
201001131226 SPECI KCLM 131226Z AUTO 00000KT 1/4SM FG VV001 06/06 A2967 RMK AO2=
201001131153 METAR KCLM 131153Z AUTO 00000KT 1/2SM FG BKN001 OVC014 06/06 A2968 RMK AO2 SLP051 70005 T00610061 10072 20061 58011=
201001131140 SPECI KCLM 131140Z AUTO 00000KT 1/4SM FG FEW001 BKN014 OVC100 06/06 A2968 RMK AO2=
201001131140 SPECI KCLM 131140Z AUTO 00000KT 1/4SM FG FEW001 BKN014 OVC100 06/06 A2968 RMK AO2=
201001131053 METAR KCLM 131053Z AUTO 00000KT 1/4SM FG VV001 07/07 A2969 RMK AO2 SLP056 T00720072=
201001131013 SPECI KCLM 131013Z AUTO 23003KT 1/4SM FG VV001 07/07 A2970 RMK AO2=
201001131013 SPECI KCLM 131013Z AUTO 23003KT 1/4SM FG VV001 07/07 A2970 RMK AO2=
201001130953 METAR KCLM 130953Z AUTO 21003KT 1/2SM FG OVC001 07/07 A2970 RMK AO2 SLP057 T00720072=
201001130938 SPECI KCLM 130938Z AUTO 00000KT 3/4SM BR OVC001 07/07 A2970 RMK AO2=
201001130938 SPECI KCLM 130938Z AUTO 00000KT 3/4SM BR OVC001 07/07 A2970 RMK AO2=
201001130929 SPECI KCLM 130929Z AUTO 00000KT 1SM BR OVC001 07/07 A2971 RMK AO2=
201001130929 SPECI KCLM 130929Z AUTO 00000KT 1SM BR OVC001 07/07 A2971 RMK AO2=
201001130917 SPECI KCLM 130917Z AUTO 00000KT 1/2SM FG OVC001 07/07 A2971 RMK AO2=
201001130917 SPECI KCLM 130917Z AUTO 00000KT 1/2SM FG OVC001 07/07 A2971 RMK AO2=
201001130906 SPECI KCLM 130906Z AUTO 00000KT 1/4SM FG BKN001 OVC008 07/07 A2970 RMK AO2=
201001130906 SPECI KCLM 130906Z AUTO 00000KT 1/4SM FG BKN001 OVC008 07/07 A2970 RMK AO2=
201001130853 METAR KCLM 130853Z AUTO 14003KT 1/4SM FG BKN003 BKN008 OVC110 07/06 A2971 RMK AO2 SLP061 T00670061 58008=
201001130838 SPECI KCLM 130838Z AUTO 00000KT 1/2SM FG SCT001 OVC110 07/07 A2971 RMK AO2=
201001130838 SPECI KCLM 130838Z AUTO 00000KT 1/2SM FG SCT001 OVC110 07/07 A2971 RMK AO2=
201001130831 SPECI KCLM 130831Z AUTO 22004KT 1/4SM FG BKN001 OVC110 07/07 A2972 RMK AO2=
201001130831 SPECI KCLM 130831Z AUTO 22004KT 1/4SM FG BKN001 OVC110 07/07 A2972 RMK AO2=
201001130753 METAR KCLM 130753Z AUTO 25004KT 1/2SM FG OVC001 07/07 A2974 RMK AO2 SLP070 T00720072 401330056=
201001130729 SPECI KCLM 130729Z AUTO 20003KT 1/2SM FG VV001 07/07 A2974 RMK AO2=
201001130729 SPECI KCLM 130729Z AUTO 20003KT 1/2SM FG VV001 07/07 A2974 RMK AO2=
201001130715 SPECI KCLM 130715Z AUTO 16003KT 1/4SM FG OVC003 07/07 A2974 RMK AO2=
201001130715 SPECI KCLM 130715Z AUTO 16003KT 1/4SM FG OVC003 07/07 A2974 RMK AO2=
201001130710 SPECI KCLM 130710Z AUTO 16003KT 1/2SM FG OVC001 07/07 A2974 RMK AO2=
201001130710 SPECI KCLM 130710Z AUTO 16003KT 1/2SM FG OVC001 07/07 A2974 RMK AO2=
201001130702 SPECI KCLM 130702Z AUTO 14003KT 1 1/2SM BR BKN001 07/07 A2974 RMK AO2=
201001130702 SPECI KCLM 130702Z AUTO 14003KT 1 1/2SM BR BKN001 07/07 A2974 RMK AO2=
201001130653 METAR KCLM 130653Z AUTO 15003KT 9SM BKN001 07/07 A2974 RMK AO2 SLP071 T00670067=
201001130646 SPECI KCLM 130646Z AUTO 16003KT 2SM BR FEW001 06/06 A2974 RMK AO2 VIS 3/4V5=
201001130646 SPECI KCLM 130646Z AUTO 16003KT 2SM BR FEW001 06/06 A2974 RMK AO2 VIS 3/4V5=
201001130641 SPECI KCLM 130641Z AUTO 00000KT 1 3/4SM BR FEW060 06/06 A2974 RMK AO2 VIS 3/4V5=
201001130641 SPECI KCLM 130641Z AUTO 00000KT 1 3/4SM BR FEW060 06/06 A2974 RMK AO2 VIS 3/4V5=
201001130632 SPECI KCLM 130632Z AUTO 00000KT 9SM SCT065 07/07 A2974 RMK AO2=
201001130632 SPECI KCLM 130632Z AUTO 00000KT 9SM SCT065 07/07 A2974 RMK AO2=
201001130620 SPECI KCLM 130620Z AUTO 36003KT 2 1/2SM BR FEW001 BKN060 07/06 A2974 RMK AO2=
201001130620 SPECI KCLM 130620Z AUTO 36003KT 2 1/2SM BR FEW001 BKN060 07/06 A2974 RMK AO2=
201001130553 METAR KCLM 130553Z AUTO 25003KT 4SM BR OVC065 07/07 A2973 RMK AO2 RAB00E09 SLP070 P0000 60005 T00720067 10100 20067 51005=
201001130453 METAR KCLM 130453Z AUTO 00000KT 8SM FEW018 OVC060 08/07 A2973 RMK AO2 RAE15 SLP068 P0000 T00780072=
201001130449 SPECI KCLM 130449Z AUTO 00000KT 9SM SCT018 OVC060 08/07 A2973 RMK AO2 RAE15 P0000=
201001130449 SPECI KCLM 130449Z AUTO 00000KT 9SM SCT018 OVC060 08/07 A2973 RMK AO2 RAE15 P0000=
201001130411 SPECI KCLM 130411Z AUTO 00000KT 10SM -RA FEW013 BKN018 OVC055 08/07 A2972 RMK AO2 P0000=
201001130411 SPECI KCLM 130411Z AUTO 00000KT 10SM -RA FEW013 BKN018 OVC055 08/07 A2972 RMK AO2 P0000=
201001130353 METAR KCLM 130353Z AUTO 25004KT 9SM -RA FEW018 OVC060 08/07 A2972 RMK AO2 RAE03B44 SLP064 P0000 T00780072=
201001130346 SPECI KCLM 130346Z AUTO 24006KT 3SM -RA BR BKN060 OVC080 08/07 A2972 RMK AO2 RAE03B44 P0000=
201001130346 SPECI KCLM 130346Z AUTO 24006KT 3SM -RA BR BKN060 OVC080 08/07 A2972 RMK AO2 RAE03B44 P0000=
201001130336 SPECI KCLM 130336Z AUTO 00000KT 1 1/2SM BR BKN065 08/07 A2971 RMK AO2 VIS 3/4V4 RAE03 P0000=
201001130336 SPECI KCLM 130336Z AUTO 00000KT 1 1/2SM BR BKN065 08/07 A2971 RMK AO2 VIS 3/4V4 RAE03 P0000=
201001130318 SPECI KCLM 130318Z AUTO 00000KT 3SM BR FEW017 OVC070 08/08 A2972 RMK AO2 RAE03 P0000=
201001130318 SPECI KCLM 130318Z AUTO 00000KT 3SM BR FEW017 OVC070 08/08 A2972 RMK AO2 RAE03 P0000=
201001130308 SPECI KCLM 130308Z AUTO 00000KT 1 3/4SM BR OVC065 08/07 A2971 RMK AO2 RAE03 P0000=
201001130308 SPECI KCLM 130308Z AUTO 00000KT 1 3/4SM BR OVC065 08/07 A2971 RMK AO2 RAE03 P0000=
201001130253 METAR KCLM 130253Z AUTO 00000KT 8SM -RA FEW013 BKN060 OVC070 08/08 A2971 RMK AO2 RAB02 SLP063 P0000 60005 T00830078 53014=
201001130234 SPECI KCLM 130234Z AUTO 21003KT 9SM -RA FEW007 SCT011 OVC065 08/08 A2971 RMK AO2 RAB02 P0000=
201001130234 SPECI KCLM 130234Z AUTO 21003KT 9SM -RA FEW007 SCT011 OVC065 08/08 A2971 RMK AO2 RAB02 P0000=
201001130153 METAR KCLM 130153Z AUTO 00000KT 7SM BKN007 BKN016 OVC065 08/08 A2971 RMK AO2 RAB0055E40 SLP060 P0001 T00830078=
201001130142 SPECI KCLM 130142Z AUTO 15005KT 8SM FEW002 BKN007 OVC065 08/07 A2970 RMK AO2 RAB0055E40 P0001=
201001130142 SPECI KCLM 130142Z AUTO 15005KT 8SM FEW002 BKN007 OVC065 08/07 A2970 RMK AO2 RAB0055E40 P0001=
201001130132 SPECI KCLM 130132Z AUTO 00000KT 6SM -RA BR FEW002 SCT007 BKN070 08/08 A2969 RMK AO2 RAB0055 P0001=
201001130132 SPECI KCLM 130132Z AUTO 00000KT 6SM -RA BR FEW002 SCT007 BKN070 08/08 A2969 RMK AO2 RAB0055 P0001=
201001130127 SPECI KCLM 130127Z AUTO 00000KT 2 1/2SM -RA BR BKN005 BKN017 OVC090 08/08 A2968 RMK AO2 RAB0055 P0001=
201001130127 SPECI KCLM 130127Z AUTO 00000KT 2 1/2SM -RA BR BKN005 BKN017 OVC090 08/08 A2968 RMK AO2 RAB0055 P0001=
201001130124 SPECI KCLM 130124Z AUTO 09003KT 1 1/2SM -RA BR BKN003 BKN019 OVC065 08/08 A2968 RMK AO2 RAB0055 P0000=
201001130124 SPECI KCLM 130124Z AUTO 09003KT 1 1/2SM -RA BR BKN003 BKN019 OVC065 08/08 A2968 RMK AO2 RAB0055 P0000=
201001130121 SPECI KCLM 130121Z AUTO 12004KT 3/4SM -RA BR SCT001 BKN028 OVC065 08/08 A2968 RMK AO2 RAB0055 P0000=
201001130121 SPECI KCLM 130121Z AUTO 12004KT 3/4SM -RA BR SCT001 BKN028 OVC065 08/08 A2968 RMK AO2 RAB0055 P0000=
201001130109 SPECI KCLM 130109Z AUTO 00000KT 3/4SM -RA BR SCT029 BKN065 BKN095 08/08 A2969 RMK AO2 RAB0055 P0000=
201001130109 SPECI KCLM 130109Z AUTO 00000KT 3/4SM -RA BR SCT029 BKN065 BKN095 08/08 A2969 RMK AO2 RAB0055 P0000=
201001130056 SPECI KCLM 130056Z AUTO 01003KT 1 3/4SM -RA BR SCT047 BKN065 08/08 A2967 RMK AO2 VIS 1V5 RAB55 P0000=
201001130056 SPECI KCLM 130056Z AUTO 01003KT 1 3/4SM -RA BR SCT047 BKN065 08/08 A2967 RMK AO2 VIS 1V5 RAB55 P0000=
201001130053 METAR KCLM 130053Z AUTO 04003KT 3SM BR SCT045 BKN060 08/08 A2967 RMK AO2 RAE45 SLP049 P0004 T00830078=
201001122353 METAR KCLM 122353Z AUTO 30004KT 5SM -RA BR FEW001 OVC050 09/09 A2967 RMK AO2 SLP049 P0000 60000 T00940089 10133 20089 53008=
201001122253 METAR KCLM 122253Z AUTO 00000KT 10SM -RA FEW004 SCT040 OVC055 10/09 A2965 RMK AO2 RAB2159 SLP042 P0000 T01000089=
201001122248 SPECI KCLM 122248Z AUTO 00000KT 10SM -RA SCT004 BKN043 OVC055 10/09 A2965 RMK AO2 RAB2159 P0000=
201001122248 SPECI KCLM 122248Z AUTO 00000KT 10SM -RA SCT004 BKN043 OVC055 10/09 A2965 RMK AO2 RAB2159 P0000=
201001122201 SPECI KCLM 122201Z AUTO 00000KT 10SM -RA FEW006 OVC024 10/09 A2965 RMK AO2 RAB2159 P0000=
201001122201 SPECI KCLM 122201Z AUTO 00000KT 10SM -RA FEW006 OVC024 10/09 A2965 RMK AO2 RAB2159 P0000=
201001122153 METAR KCLM 122153Z AUTO 07003KT 10SM OVC024 11/09 A2965 RMK AO2 SLP040 T01060089=
201001122111 SPECI KCLM 122111Z AUTO 11005KT 10SM BKN024 BKN075 11/09 A2965 RMK AO2=
201001122111 SPECI KCLM 122111Z AUTO 11005KT 10SM BKN024 BKN075 11/09 A2965 RMK AO2=
201001122053 METAR KCLM 122053Z AUTO 08004KT 10SM SCT026 BKN075 11/09 A2965 RMK AO2 SLP042 T01110089 58003=
201001122038 SPECI KCLM 122038Z AUTO VRB05KT 10SM SCT017 BKN080 11/09 A2965 RMK AO2=
201001122038 SPECI KCLM 122038Z AUTO VRB05KT 10SM SCT017 BKN080 11/09 A2965 RMK AO2=
201001122015 SPECI KCLM 122015Z AUTO 00000KT 10SM BKN017 12/09 A2965 RMK AO2=
201001122015 SPECI KCLM 122015Z AUTO 00000KT 10SM BKN017 12/09 A2965 RMK AO2=
201001121953 METAR KCLM 121953Z AUTO 00000KT 10SM FEW021 12/09 A2966 RMK AO2 SLP046 T01220089=
201001121942 SPECI KCLM 121942Z AUTO 00000KT 10SM FEW023 12/09 A2967 RMK AO2=
201001121942 SPECI KCLM 121942Z AUTO 00000KT 10SM FEW023 12/09 A2967 RMK AO2=
201001121853 METAR KCLM 121853Z AUTO 00000KT 10SM OVC023 11/09 A2967 RMK AO2 SLP048 T01060089=
201001121834 SPECI KCLM 121834Z AUTO 00000KT 10SM BKN023 09/08 A2967 RMK AO2=
201001121834 SPECI KCLM 121834Z AUTO 00000KT 10SM BKN023 09/08 A2967 RMK AO2=
201001121821 SPECI KCLM 121821Z AUTO 00000KT 10SM SCT023 09/08 A2967 RMK AO2=
201001121821 SPECI KCLM 121821Z AUTO 00000KT 10SM SCT023 09/08 A2967 RMK AO2=
201001121753 METAR KCLM 121753Z AUTO 24003KT 10SM SCT013 OVC023 09/08 A2966 RMK AO2 SLP045 60000 T00890083 10094 20078 53016=
201001121725 SPECI KCLM 121725Z AUTO 00000KT 9SM BKN011 08/07 A2965 RMK AO2=
201001121725 SPECI KCLM 121725Z AUTO 00000KT 9SM BKN011 08/07 A2965 RMK AO2=
201001121706 SPECI KCLM 121706Z AUTO 23004KT 10SM FEW016 08/07 A2964 RMK AO2=
201001121706 SPECI KCLM 121706Z AUTO 23004KT 10SM FEW016 08/07 A2964 RMK AO2=
201001121653 METAR KCLM 121653Z AUTO 23004KT 10SM SCT010 BKN016 08/07 A2964 RMK AO2 SLP038 T00780072=
201001121600 METAR KCLM NIL=
201001121553 METAR KCLM 121553Z AUTO 24004KT 4SM BR OVC006 08/08 A2962 RMK AO2 SLP029 T00830083=
201001121541 SPECI KCLM 121541Z AUTO 23004KT 4SM BR OVC006 08/08 A2961 RMK AO2 CIG 003V008=
201001121541 SPECI KCLM 121541Z AUTO 23004KT 4SM BR OVC006 08/08 A2961 RMK AO2 CIG 003V008=
201001121517 SPECI KCLM 121517Z AUTO 00000KT 3SM BR BKN004 08/08 A2961 RMK AO2=
201001121517 SPECI KCLM 121517Z AUTO 00000KT 3SM BR BKN004 08/08 A2961 RMK AO2=
201001121514 SPECI KCLM 121514Z AUTO 00000KT 1SM BR BKN002 08/08 A2961 RMK AO2=
201001121514 SPECI KCLM 121514Z AUTO 00000KT 1SM BR BKN002 08/08 A2961 RMK AO2=
201001121510 SPECI KCLM 121510Z AUTO 26003KT 1/2SM FG SCT002 08/08 A2961 RMK AO2=
201001121510 SPECI KCLM 121510Z AUTO 26003KT 1/2SM FG SCT002 08/08 A2961 RMK AO2=
201001121508 SPECI KCLM 121508Z AUTO 25003KT 1/4SM FG SCT002 SCT006 BKN013 08/08 A2961 RMK AO2=
201001121508 SPECI KCLM 121508Z AUTO 25003KT 1/4SM FG SCT002 SCT006 BKN013 08/08 A2961 RMK AO2=
201001121503 SPECI KCLM 121503Z AUTO 23003KT 3/4SM BR FEW002 SCT010 SCT013 08/08 A2961 RMK AO2=
201001121503 SPECI KCLM 121503Z AUTO 23003KT 3/4SM BR FEW002 SCT010 SCT013 08/08 A2961 RMK AO2=
201001121500 SPECI KCLM 121500Z AUTO VRB04KT 2 1/2SM BR FEW007 SCT013 08/08 A2961 RMK AO2 VIS 1/2V5=
201001121500 SPECI KCLM 121500Z AUTO VRB04KT 2 1/2SM BR FEW007 SCT013 08/08 A2961 RMK AO2 VIS 1/2V5=
201001121453 METAR KCLM 121453Z AUTO 10005KT 4SM BR FEW001 SCT007 BKN013 08/08 A2961 RMK AO2 SLP027 60000 T00830078 53006=
201001121353 METAR KCLM 121353Z AUTO 00000KT 4SM BR OVC007 09/09 A2960 RMK AO2 SLP024 T00890089=
201001121253 METAR KCLM 121253Z AUTO 00000KT 9SM OVC009 09/08 A2959 RMK AO2 RAB24E38 SLP022 P0000 T00890083=
201001121202 SPECI KCLM 121202Z AUTO 00000KT 6SM BR BKN009 OVC110 09/09 A2960 RMK AO2=
201001121202 SPECI KCLM 121202Z AUTO 00000KT 6SM BR BKN009 OVC110 09/09 A2960 RMK AO2=
201001121155 SPECI KCLM 121155Z AUTO 00000KT 3SM BR SCT009 OVC110 09/08 A2959 RMK AO2=
201001121155 SPECI KCLM 121155Z AUTO 00000KT 3SM BR SCT009 OVC110 09/08 A2959 RMK AO2=
201001121153 METAR KCLM 121153Z AUTO 00000KT 3SM BR SCT011 SCT023 OVC110 09/09 A2959 RMK AO2 RAE38 SLP021 P0000 60002 70021 T00890089 10117 20089 51017=
201001121111 SPECI KCLM 121111Z AUTO 13004KT 10SM -RA FEW017 SCT023 OVC055 09/09 A2959 RMK AO2 P0000=
201001121111 SPECI KCLM 121111Z AUTO 13004KT 10SM -RA FEW017 SCT023 OVC055 09/09 A2959 RMK AO2 P0000=
201001121053 METAR KCLM 121053Z AUTO 22003KT 10SM -RA FEW012 OVC021 10/09 A2959 RMK AO2 RAE34B53 SLP021 P0000 T01000089=
201001121015 SPECI KCLM 121015Z AUTO 00000KT 10SM -RA FEW012 BKN019 OVC050 10/09 A2958 RMK AO2 P0000=
201001121015 SPECI KCLM 121015Z AUTO 00000KT 10SM -RA FEW012 BKN019 OVC050 10/09 A2958 RMK AO2 P0000=
201001120953 METAR KCLM 120953Z AUTO 23003KT 10SM -RA FEW009 BKN055 OVC075 10/09 A2957 RMK AO2 SLP014 P0000 T01000089=
201001120945 SPECI KCLM 120945Z AUTO 31003KT 10SM -RA FEW009 OVC065 10/09 A2957 RMK AO2 P0000=
201001120945 SPECI KCLM 120945Z AUTO 31003KT 10SM -RA FEW009 OVC065 10/09 A2957 RMK AO2 P0000=
201001120853 METAR KCLM 120853Z AUTO 26006KT 10SM -RA BKN055 OVC075 10/09 A2954 RMK AO2 SLP004 P0001 60002 T01000089 51010=
201001120753 METAR KCLM 120753Z AUTO 22003KT 10SM -RA BKN060 OVC075 09/09 A2954 RMK AO2 SLP002 P0000 T00940089 401280078=
201001120653 METAR KCLM 120653Z AUTO 20004KT 10SM -RA BKN048 OVC065 09/09 A2952 RMK AO2 SLP996 P0001 T00940089=
201001120553 METAR KCLM 120553Z AUTO 30004KT 9SM -RA BKN040 OVC060 11/09 A2951 RMK AO2 SLP994 P0004 60008 T01110089 10128 20089 55004=
201001120453 METAR KCLM 120453Z AUTO 25006KT 10SM -RA BKN060 OVC075 11/08 A2950 RMK AO2 SLP989 P0000 T01110083=
201001120353 METAR KCLM 120353Z AUTO 14007KT 8SM -RA BKN047 OVC070 11/09 A2951 RMK AO2 SLP993 P0001 T01110089=
201001120253 METAR KCLM 120253Z AUTO 00000KT 10SM -RA BKN065 OVC080 10/09 A2952 RMK AO2 SLP998 P0001 60003 T01000089 55010=
201001120153 METAR KCLM 120153Z AUTO 00000KT 10SM -RA FEW050 BKN065 OVC080 10/09 A2952 RMK AO2 SLP997 P0000 T01000089=
201001120053 METAR KCLM 120053Z AUTO 00000KT 3SM -RA BR BKN045 OVC065 09/09 A2952 RMK AO2 SLP998 P0002 T00940089=
201001120000 SPECI KCLM 120000Z AUTO 00000KT 3SM -RA BR FEW002 BKN036 OVC065 10/09 A2955 RMK AO2 P0000=
201001120000 SPECI KCLM 120000Z AUTO 00000KT 3SM -RA BR FEW002 BKN036 OVC065 10/09 A2955 RMK AO2 P0000=
201001112353 METAR KCLM 112353Z AUTO 00000KT 1 1/2SM -RA BR FEW002 BKN035 OVC065 10/09 A2955 RMK AO2 PRESFR SLP008 P0000 60003 T01000094 10111 20089 58031=
201001112340 SPECI KCLM 112340Z AUTO 00000KT 1 3/4SM -RA BR SCT002 BKN030 OVC065 10/09 A2957 RMK AO2 P0000=
201001112340 SPECI KCLM 112340Z AUTO 00000KT 1 3/4SM -RA BR SCT002 BKN030 OVC065 10/09 A2957 RMK AO2 P0000=
201001112253 METAR KCLM 112253Z AUTO 00000KT 10SM -RA FEW002 BKN043 OVC065 10/09 A2959 RMK AO2 SLP022 P0000 T01000094=
201001112215 SPECI KCLM 112215Z AUTO 00000KT 10SM -RA SCT006 BKN039 OVC060 10/09 A2960 RMK AO2 P0000=
201001112215 SPECI KCLM 112215Z AUTO 00000KT 10SM -RA SCT006 BKN039 OVC060 10/09 A2960 RMK AO2 P0000=
201001112153 METAR KCLM 112153Z AUTO 00000KT 10SM -RA BKN004 OVC046 09/09 A2962 RMK AO2 SLP030 P0002 T00940089=
201001112121 SPECI KCLM 112121Z AUTO 32003KT 5SM -RA BR BKN004 OVC024 09/09 A2962 RMK AO2 PRESFR P0001=
201001112121 SPECI KCLM 112121Z AUTO 32003KT 5SM -RA BR BKN004 OVC024 09/09 A2962 RMK AO2 PRESFR P0001=
201001112106 SPECI KCLM 112106Z AUTO 00000KT 6SM -RA BR SCT002 OVC028 09/09 A2963 RMK AO2 P0001=
201001112106 SPECI KCLM 112106Z AUTO 00000KT 6SM -RA BR SCT002 OVC028 09/09 A2963 RMK AO2 P0001=
201001112053 METAR KCLM 112053Z AUTO 00000KT 6SM -RA BR SCT002 OVC032 09/09 A2964 RMK AO2 RAB1956 SLP039 P0001 60001 T00940089 56019=
201001112026 SPECI KCLM 112026Z AUTO 33003KT 3SM -RA BR SCT002 BKN036 OVC055 09/09 A2965 RMK AO2 RAB1956 P0000=
201001112026 SPECI KCLM 112026Z AUTO 33003KT 3SM -RA BR SCT002 BKN036 OVC055 09/09 A2965 RMK AO2 RAB1956 P0000=
201001111953 METAR KCLM 111953Z AUTO 00000KT 10SM SCT039 OVC060 11/10 A2966 RMK AO2 RAB23E34 SLP044 P0000 T01110100=
201001111853 METAR KCLM 111853Z AUTO VRB03KT 10SM BKN065 10/09 A2970 RMK AO2 SLP058 T01000089=
201001111753 METAR KCLM 111753Z AUTO 22004KT 9SM FEW002 SCT033 SCT048 08/08 A2972 RMK AO2 RAE09 SLP065 P0000 60008 T00830078 10094 20078 58004=
201001111733 SPECI KCLM 111733Z AUTO 00000KT 5SM BR SCT002 OVC033 08/08 A2972 RMK AO2 RAE09 P0000=
201001111733 SPECI KCLM 111733Z AUTO 00000KT 5SM BR SCT002 OVC033 08/08 A2972 RMK AO2 RAE09 P0000=
201001111726 SPECI KCLM 111726Z AUTO 00000KT 7SM BKN002 OVC037 08/08 A2972 RMK AO2 RAE09 P0000=
201001111726 SPECI KCLM 111726Z AUTO 00000KT 7SM BKN002 OVC037 08/08 A2972 RMK AO2 RAE09 P0000=
201001111717 SPECI KCLM 111717Z AUTO 00000KT 9SM SCT002 OVC039 08/08 A2972 RMK AO2 RAE09 P0000=
201001111717 SPECI KCLM 111717Z AUTO 00000KT 9SM SCT002 OVC039 08/08 A2972 RMK AO2 RAE09 P0000=
201001111653 METAR KCLM 111653Z AUTO 27003KT 9SM -RA BKN055 BKN065 OVC080 08/08 A2973 RMK AO2 SLP068 P0001 T00780078=
201001111612 SPECI KCLM 111612Z AUTO 00000KT 10SM -RA SCT001 OVC065 08/08 A2973 RMK AO2 P0000=
201001111612 SPECI KCLM 111612Z AUTO 00000KT 10SM -RA SCT001 OVC065 08/08 A2973 RMK AO2 P0000=
201001111601 SPECI KCLM 111601Z AUTO 00000KT 10SM -RA BKN001 OVC043 08/08 A2973 RMK AO2 P0000=
201001111601 SPECI KCLM 111601Z AUTO 00000KT 10SM -RA BKN001 OVC043 08/08 A2973 RMK AO2 P0000=
201001111553 METAR KCLM 111553Z AUTO 34003KT 8SM -RA SCT001 OVC038 08/08 A2974 RMK AO2 SLP071 P0000 T00830083=
201001111546 SPECI KCLM 111546Z AUTO 35003KT 3SM -RA BR SCT001 OVC042 08/08 A2973 RMK AO2 P0000=
201001111546 SPECI KCLM 111546Z AUTO 35003KT 3SM -RA BR SCT001 OVC042 08/08 A2973 RMK AO2 P0000=
201001111542 SPECI KCLM 111542Z AUTO 25003KT 1 1/4SM -RA BR FEW001 OVC042 08/08 A2973 RMK AO2 P0000=
201001111542 SPECI KCLM 111542Z AUTO 25003KT 1 1/4SM -RA BR FEW001 OVC042 08/08 A2973 RMK AO2 P0000=
201001111510 SPECI KCLM 111510Z AUTO 00000KT 1/2SM -RA FG BKN060 OVC095 09/08 A2973 RMK AO2 P0000=
201001111510 SPECI KCLM 111510Z AUTO 00000KT 1/2SM -RA FG BKN060 OVC095 09/08 A2973 RMK AO2 P0000=
201001111500 SPECI KCLM 111500Z AUTO 00000KT 1 1/4SM -RA BR FEW001 OVC060 09/08 A2973 RMK AO2 P0000=
201001111500 SPECI KCLM 111500Z AUTO 00000KT 1 1/4SM -RA BR FEW001 OVC060 09/08 A2973 RMK AO2 P0000=
201001111453 METAR KCLM 111453Z AUTO 00000KT 1 1/4SM -RA BR OVC060 09/08 A2973 RMK AO2 SLP070 P0001 60007 T00890083 58009=
201001111445 SPECI KCLM 111445Z AUTO 00000KT 1 3/4SM -RA BR OVC055 09/08 A2973 RMK AO2 P0001=
201001111445 SPECI KCLM 111445Z AUTO 00000KT 1 3/4SM -RA BR OVC055 09/08 A2973 RMK AO2 P0001=
201001111353 METAR KCLM 111353Z AUTO 6SM -RA BR BKN049 OVC065 09/08 A2975 RMK AO2 SLP075 P0002 T00890083 $=
201001111253 METAR KCLM 111253Z AUTO 5SM -RA BR BKN042 OVC065 09/08 A2975 RMK AO2 SLP077 P0004 T00890083 $=
201001111242 SPECI KCLM 111242Z AUTO 7SM -RA FEW002 BKN044 OVC060 09/08 A2976 RMK AO2 P0003 $=
201001111242 SPECI KCLM 111242Z AUTO 7SM -RA FEW002 BKN044 OVC060 09/08 A2976 RMK AO2 P0003 $=
201001111153 METAR KCLM 111153Z AUTO 10SM -RA SCT045 BKN050 OVC065 09/08 A2976 RMK AO2 SLP080 P0000 60002 70005 T00890083 10094 20078 56002 $=
201001111053 METAR KCLM 111053Z AUTO 7SM -RA OVC060 09/08 A2977 RMK AO2 SLP081 P0001 T00890078 $=
201001110953 METAR KCLM 110953Z AUTO 10SM -RA OVC065 09/08 A2975 RMK AO2 SLP077 P0000 T00890078 $=
201001110853 METAR KCLM 110853Z AUTO 10SM -RA BKN060 OVC075 09/08 A2977 RMK AO2 SLP081 P0000 60001 T00890078 58004 $=
201001110753 METAR KCLM 110753Z AUTO 00000KT 10SM -RA BKN065 OVC080 08/07 A2977 RMK AO2 RAE20B47 SLP084 P0000 T00830072 400890017=
201001110653 METAR KCLM 110653Z AUTO 15005KT 10SM -RA BKN065 OVC080 08/07 A2978 RMK AO2 SLP088 P0001 T00830072=
201001110553 METAR KCLM 110553Z AUTO 00000KT 8SM -RA BKN046 OVC065 08/07 A2978 RMK AO2 SLP086 P0003 60003 T00780072 10083 20061 56006=
201001110453 METAR KCLM 110453Z AUTO 27006KT 10SM -RA BKN075 OVC090 08/07 A2979 RMK AO2 RAB02E11B45 SLP091 P0000 T00780067=
201001110353 METAR KCLM 110353Z AUTO 27003KT 10SM FEW050 BKN070 OVC085 07/07 A2977 RMK AO2 SLP082 T00720067=
201001110253 METAR KCLM 110253Z AUTO VRB03KT 10SM OVC075 07/06 A2980 RMK AO2 RAB07E24 SLP092 P0000 60000 T00670061 58049=
201001110153 METAR KCLM 110153Z AUTO VRB06KT 10SM OVC075 07/06 A2986 RMK AO2 SLP112 T00670061=
201001110053 METAR KCLM 110053Z AUTO 00000KT 10SM FEW065 06/06 A2990 RMK AO2 SLP126 T00610061=
201001110008 SPECI KCLM 110008Z AUTO 26005KT 10SM SCT005 BKN060 BKN075 07/07 A2994 RMK AO2=
201001110008 SPECI KCLM 110008Z AUTO 26005KT 10SM SCT005 BKN060 BKN075 07/07 A2994 RMK AO2=
201001102353 METAR KCLM 102353Z AUTO 25004KT 10SM BKN005 OVC075 07/07 A2995 RMK AO2 SLP142 T00670067 10078 20056 56007=
201001102317 SPECI KCLM 102317Z AUTO 28003KT 10SM FEW003 SCT080 07/07 A2995 RMK AO2=
201001102317 SPECI KCLM 102317Z AUTO 28003KT 10SM FEW003 SCT080 07/07 A2995 RMK AO2=
201001102306 SPECI KCLM 102306Z AUTO 00000KT 10SM BKN003 07/07 A2996 RMK AO2=
201001102306 SPECI KCLM 102306Z AUTO 00000KT 10SM BKN003 07/07 A2996 RMK AO2=
201001102259 SPECI KCLM 102259Z AUTO 00000KT 1 1/2SM BR BKN003 07/07 A2996 RMK AO2=
201001102259 SPECI KCLM 102259Z AUTO 00000KT 1 1/2SM BR BKN003 07/07 A2996 RMK AO2=
201001102253 METAR KCLM 102253Z AUTO 29004KT 1/4SM FG OVC003 07/06 A2996 RMK AO2 SLP146 T00670061=
201001102210 SPECI KCLM 102210Z AUTO 00000KT 1/4SM FG BKN003 07/06 A2996 RMK AO2=
201001102210 SPECI KCLM 102210Z AUTO 00000KT 1/4SM FG BKN003 07/06 A2996 RMK AO2=
201001102205 SPECI KCLM 102205Z AUTO 00000KT 3/4SM BR BKN005 07/06 A2996 RMK AO2=
201001102205 SPECI KCLM 102205Z AUTO 00000KT 3/4SM BR BKN005 07/06 A2996 RMK AO2=
201001102157 SPECI KCLM 102157Z AUTO 00000KT 2 1/2SM BR FEW001 BKN005 07/06 A2997 RMK AO2=
201001102157 SPECI KCLM 102157Z AUTO 00000KT 2 1/2SM BR FEW001 BKN005 07/06 A2997 RMK AO2=
201001102153 METAR KCLM 102153Z AUTO 00000KT 4SM BR BKN003 07/06 A2997 RMK AO2 SLP150 T00670061=
201001102150 SPECI KCLM 102150Z AUTO 00000KT 6SM BR BKN003 07/06 A2997 RMK AO2 CIG 001V006=
201001102150 SPECI KCLM 102150Z AUTO 00000KT 6SM BR BKN003 07/06 A2997 RMK AO2 CIG 001V006=
201001102136 SPECI KCLM 102136Z AUTO 28003KT 10SM SCT005 08/07 A2999 RMK AO2=
201001102136 SPECI KCLM 102136Z AUTO 28003KT 10SM SCT005 08/07 A2999 RMK AO2=
201001102053 METAR KCLM 102053Z AUTO 00000KT 10SM CLR 08/06 A2999 RMK AO2 SLP158 T00780061 58023=
201001101953 METAR KCLM 101953Z AUTO 00000KT 10SM SCT011 BKN080 BKN100 07/06 A3004 RMK AO2 SLP173 T00720061=
201001101940 SPECI KCLM 101940Z AUTO 23003KT 10SM OVC011 07/06 A3004 RMK AO2=
201001101940 SPECI KCLM 101940Z AUTO 23003KT 10SM OVC011 07/06 A3004 RMK AO2=
201001101853 METAR KCLM 101853Z AUTO 27003KT 10SM OVC007 07/06 A3006 RMK AO2 SLP183 T00670061=
201001101839 SPECI KCLM 101839Z AUTO 26004KT 10SM BKN007 07/06 A3007 RMK AO2=
201001101839 SPECI KCLM 101839Z AUTO 26004KT 10SM BKN007 07/06 A3007 RMK AO2=
201001101829 SPECI KCLM 101829Z AUTO 27006KT 10SM SCT009 06/06 A3007 RMK AO2=
201001101829 SPECI KCLM 101829Z AUTO 27006KT 10SM SCT009 06/06 A3007 RMK AO2=
201001101753 METAR KCLM 101753Z AUTO 26006KT 10SM CLR 06/05 A3006 RMK AO2 SLP181 T00560050 10056 20017 55001=
201001101653 METAR KCLM 101653Z AUTO 27004KT 10SM FEW011 OVC075 06/05 A3005 RMK AO2 SLP177 T00560050=
201001101645 SPECI KCLM 101645Z AUTO 24004KT 10SM FEW011 OVC075 06/06 A3006 RMK AO2=
201001101645 SPECI KCLM 101645Z AUTO 24004KT 10SM FEW011 OVC075 06/06 A3006 RMK AO2=
201001101611 SPECI KCLM 101611Z AUTO 26006KT 9SM BKN009 OVC070 05/05 A3006 RMK AO2=
201001101611 SPECI KCLM 101611Z AUTO 26006KT 9SM BKN009 OVC070 05/05 A3006 RMK AO2=
201001101558 SPECI KCLM 101558Z AUTO 25007KT 3SM BR SCT009 BKN070 OVC110 05/04 A3006 RMK AO2=
201001101558 SPECI KCLM 101558Z AUTO 25007KT 3SM BR SCT009 BKN070 OVC110 05/04 A3006 RMK AO2=
201001101553 METAR KCLM 101553Z AUTO 24007KT 1 1/4SM BR SCT009 BKN070 OVC110 04/04 A3006 RMK AO2 SLP182 T00440044=
201001101545 SPECI KCLM 101545Z AUTO 23007KT 1 1/4SM BR BKN009 BKN070 BKN110 05/04 A3007 RMK AO2=
201001101545 SPECI KCLM 101545Z AUTO 23007KT 1 1/4SM BR BKN009 BKN070 BKN110 05/04 A3007 RMK AO2=
201001101512 SPECI KCLM 101512Z AUTO 23005KT 1/2SM FG OVC007 05/05 A3007 RMK AO2=
201001101512 SPECI KCLM 101512Z AUTO 23005KT 1/2SM FG OVC007 05/05 A3007 RMK AO2=
201001101453 METAR KCLM 101453Z AUTO 23004KT 1/2SM FG VV001 05/05 A3006 RMK AO2 SLP182 T00500050 58014=
201001101353 METAR KCLM 101353Z AUTO 21004KT 1/4SM FG VV001 04/04 A3009 RMK AO2 SLP190 T00440044=
201001101253 METAR KCLM 101253Z AUTO 00000KT 1/4SM FG VV001 03/03 A3009 RMK AO2 SLP192 T00330033=
201001101230 SPECI KCLM 101230Z AUTO 00000KT 1/4SM FG VV001 04/03 A3010 RMK AO2=
201001101230 SPECI KCLM 101230Z AUTO 00000KT 1/4SM FG VV001 04/03 A3010 RMK AO2=
201001101201 SPECI KCLM 101201Z AUTO 00000KT 1/4SM FG OVC002 03/03 A3010 RMK AO2=
201001101201 SPECI KCLM 101201Z AUTO 00000KT 1/4SM FG OVC002 03/03 A3010 RMK AO2=
201001101153 METAR KCLM 101153Z AUTO 00000KT 1/2SM FG BKN002 02/02 A3010 RMK AO2 SLP196 T00220022 10056 20017 56007=
201001101142 SPECI KCLM 101142Z AUTO 00000KT 3/4SM BR VV001 02/02 A3010 RMK AO2 VIS 1/2V4=
201001101142 SPECI KCLM 101142Z AUTO 00000KT 3/4SM BR VV001 02/02 A3010 RMK AO2 VIS 1/2V4=
201001101137 SPECI KCLM 101137Z AUTO 00000KT 1 1/4SM BR SCT001 03/02 A3010 RMK AO2 VIS 3/4V4=
201001101137 SPECI KCLM 101137Z AUTO 00000KT 1 1/4SM BR SCT001 03/02 A3010 RMK AO2 VIS 3/4V4=
201001101122 SPECI KCLM 101122Z AUTO 00000KT 3/4SM BR VV001 02/02 A3011 RMK AO2=
201001101122 SPECI KCLM 101122Z AUTO 00000KT 3/4SM BR VV001 02/02 A3011 RMK AO2=
201001101115 SPECI KCLM 101115Z AUTO 00000KT 3/4SM BR VV002 02/02 A3011 RMK AO2=
201001101115 SPECI KCLM 101115Z AUTO 00000KT 3/4SM BR VV002 02/02 A3011 RMK AO2=
201001101107 SPECI KCLM 101107Z AUTO 00000KT 1/4SM FG VV002 02/02 A3011 RMK AO2=
201001101107 SPECI KCLM 101107Z AUTO 00000KT 1/4SM FG VV002 02/02 A3011 RMK AO2=
201001101100 SPECI KCLM 101100Z AUTO 00000KT 3/4SM BR VV001 02/02 A3011 RMK AO2=
201001101100 SPECI KCLM 101100Z AUTO 00000KT 3/4SM BR VV001 02/02 A3011 RMK AO2=
201001101053 METAR KCLM 101053Z AUTO 15003KT 10SM CLR 03/03 A3011 RMK AO2 SLP198 T00330028=
201001101034 SPECI KCLM 101034Z AUTO 00000KT 3SM BR CLR 03/02 A3012 RMK AO2=
201001101034 SPECI KCLM 101034Z AUTO 00000KT 3SM BR CLR 03/02 A3012 RMK AO2=
201001101026 SPECI KCLM 101026Z AUTO 00000KT 2 1/2SM BR CLR 02/02 A3012 RMK AO2 VIS 1 1/4V5=
201001101026 SPECI KCLM 101026Z AUTO 00000KT 2 1/2SM BR CLR 02/02 A3012 RMK AO2 VIS 1 1/4V5=
201001100953 METAR KCLM 100953Z AUTO 21004KT 10SM CLR 04/04 A3012 RMK AO2 SLP200 T00390039=
201001100937 SPECI KCLM 100937Z AUTO 22007KT 8SM CLR 04/04 A3012 RMK AO2=
201001100937 SPECI KCLM 100937Z AUTO 22007KT 8SM CLR 04/04 A3012 RMK AO2=
201001100929 SPECI KCLM 100929Z AUTO 00000KT 2 1/2SM BR FEW001 04/04 A3012 RMK AO2 VIS 1V5=
201001100929 SPECI KCLM 100929Z AUTO 00000KT 2 1/2SM BR FEW001 04/04 A3012 RMK AO2 VIS 1V5=
201001100853 METAR KCLM 100853Z AUTO 13004KT 4SM BR CLR 04/03 A3013 RMK AO2 SLP203 T00390033 58003=
201001100805 SPECI KCLM 100805Z AUTO 14004KT 8SM CLR 05/04 A3013 RMK AO2=
201001100805 SPECI KCLM 100805Z AUTO 14004KT 8SM CLR 05/04 A3013 RMK AO2=
201001100758 SPECI KCLM 100758Z AUTO 15003KT 2 1/2SM BR CLR 04/03 A3013 RMK AO2=
201001100758 SPECI KCLM 100758Z AUTO 15003KT 2 1/2SM BR CLR 04/03 A3013 RMK AO2=
201001100753 METAR KCLM 100753Z AUTO 14004KT 3/4SM BR CLR 03/03 A3013 RMK AO2 SLP205 T00330028 400890022=
201001100750 SPECI KCLM 100750Z AUTO 14005KT 3/4SM BR CLR 02/02 A3013 RMK AO2 400890022=
201001100750 SPECI KCLM 100750Z AUTO 14005KT 3/4SM BR CLR 02/02 A3013 RMK AO2 400890022=
201001100746 SPECI KCLM 100746Z AUTO 14004KT 1 1/2SM BR FEW018 03/03 A3013 RMK AO2=
201001100746 SPECI KCLM 100746Z AUTO 14004KT 1 1/2SM BR FEW018 03/03 A3013 RMK AO2=
201001100725 SPECI KCLM 100725Z AUTO 16004KT 3SM BR FEW039 04/04 A3014 RMK AO2=
201001100725 SPECI KCLM 100725Z AUTO 16004KT 3SM BR FEW039 04/04 A3014 RMK AO2=
201001100719 SPECI KCLM 100719Z AUTO 00000KT 1 1/4SM BR FEW002 04/04 A3014 RMK AO2 VIS 1/2V5=
201001100719 SPECI KCLM 100719Z AUTO 00000KT 1 1/4SM BR FEW002 04/04 A3014 RMK AO2 VIS 1/2V5=
201001100717 SPECI KCLM 100717Z AUTO 15004KT 3/4SM BR VV002 04/04 A3013 RMK AO2=
201001100717 SPECI KCLM 100717Z AUTO 15004KT 3/4SM BR VV002 04/04 A3013 RMK AO2=
201001100706 SPECI KCLM 100706Z AUTO 12005KT 1/2SM FG CLR 04/03 A3013 RMK AO2=
201001100706 SPECI KCLM 100706Z AUTO 12005KT 1/2SM FG CLR 04/03 A3013 RMK AO2=
201001100653 METAR KCLM 100653Z AUTO 12003KT 1SM BR CLR 03/03 A3013 RMK AO2 SLP206 T00280028=
201001100647 SPECI KCLM 100647Z AUTO 00000KT 1 3/4SM BR CLR 03/03 A3013 RMK AO2 VIS 1/2V5=
201001100647 SPECI KCLM 100647Z AUTO 00000KT 1 3/4SM BR CLR 03/03 A3013 RMK AO2 VIS 1/2V5=
201001100643 SPECI KCLM 100643Z AUTO 00000KT 3SM BR CLR 03/03 A3013 RMK AO2=
201001100643 SPECI KCLM 100643Z AUTO 00000KT 3SM BR CLR 03/03 A3013 RMK AO2=
201001100636 SPECI KCLM 100636Z AUTO 00000KT 1 3/4SM BR CLR 03/03 A3013 RMK AO2=
201001100636 SPECI KCLM 100636Z AUTO 00000KT 1 3/4SM BR CLR 03/03 A3013 RMK AO2=
201001100609 SPECI KCLM 100609Z AUTO 00000KT 3SM BR CLR 03/02 A3013 RMK AO2=
201001100609 SPECI KCLM 100609Z AUTO 00000KT 3SM BR CLR 03/02 A3013 RMK AO2=
201001100557 SPECI KCLM 100557Z AUTO 00000KT 1 3/4SM BR CLR 04/04 A3013 RMK AO2=
201001100557 SPECI KCLM 100557Z AUTO 00000KT 1 3/4SM BR CLR 04/04 A3013 RMK AO2=
201001100553 METAR KCLM 100553Z AUTO 00000KT 10SM CLR 04/04 A3013 RMK AO2 SLP206 T00440044 10072 20033 53006=
201001100526 SPECI KCLM 100526Z AUTO 00000KT 10SM SCT001 05/05 A3014 RMK AO2=
201001100526 SPECI KCLM 100526Z AUTO 00000KT 10SM SCT001 05/05 A3014 RMK AO2=
201001100519 SPECI KCLM 100519Z AUTO 26004KT 3SM BR BKN001 06/06 A3014 RMK AO2=
201001100519 SPECI KCLM 100519Z AUTO 26004KT 3SM BR BKN001 06/06 A3014 RMK AO2=
201001100515 SPECI KCLM 100515Z AUTO 28005KT 1SM BR VV001 06/06 A3013 RMK AO2=
201001100515 SPECI KCLM 100515Z AUTO 28005KT 1SM BR VV001 06/06 A3013 RMK AO2=
201001100453 METAR KCLM 100453Z AUTO 29003KT 1/4SM FG VV001 06/06 A3013 RMK AO2 SLP205 T00610056=
201001100445 SPECI KCLM 100445Z AUTO 00000KT 1/4SM FG VV001 06/06 A3013 RMK AO2=
201001100445 SPECI KCLM 100445Z AUTO 00000KT 1/4SM FG VV001 06/06 A3013 RMK AO2=
201001100431 SPECI KCLM 100431Z AUTO 00000KT 1/2SM FG OVC002 06/06 A3012 RMK AO2=
201001100431 SPECI KCLM 100431Z AUTO 00000KT 1/2SM FG OVC002 06/06 A3012 RMK AO2=
201001100422 SPECI KCLM 100422Z AUTO 00000KT 1 1/2SM BR OVC002 06/06 A3012 RMK AO2 CIG 001V004=
201001100422 SPECI KCLM 100422Z AUTO 00000KT 1 1/2SM BR OVC002 06/06 A3012 RMK AO2 CIG 001V004=
201001100353 METAR KCLM 100353Z AUTO 00000KT 9SM BKN004 06/06 A3012 RMK AO2 SLP201 T00560056=
201001100348 SPECI KCLM 100348Z AUTO 00000KT 2SM BR BKN004 06/06 A3012 RMK AO2=
201001100348 SPECI KCLM 100348Z AUTO 00000KT 2SM BR BKN004 06/06 A3012 RMK AO2=
201001100341 SPECI KCLM 100341Z AUTO 00000KT 1SM BR SCT005 BKN019 04/04 A3012 RMK AO2=
201001100341 SPECI KCLM 100341Z AUTO 00000KT 1SM BR SCT005 BKN019 04/04 A3012 RMK AO2=
201001100334 SPECI KCLM 100334Z AUTO 00000KT 3/4SM BR FEW005 SCT017 04/04 A3011 RMK AO2=
201001100334 SPECI KCLM 100334Z AUTO 00000KT 3/4SM BR FEW005 SCT017 04/04 A3011 RMK AO2=
201001100326 SPECI KCLM 100326Z AUTO 00000KT 3/4SM BR FEW021 04/04 A3011 RMK AO2=
201001100326 SPECI KCLM 100326Z AUTO 00000KT 3/4SM BR FEW021 04/04 A3011 RMK AO2=
201001100319 SPECI KCLM 100319Z AUTO 00000KT 1SM BR VV007 04/03 A3011 RMK AO2=
201001100319 SPECI KCLM 100319Z AUTO 00000KT 1SM BR VV007 04/03 A3011 RMK AO2=
201001100311 SPECI KCLM 100311Z AUTO 00000KT 3/4SM BR VV014 04/03 A3011 RMK AO2=
201001100311 SPECI KCLM 100311Z AUTO 00000KT 3/4SM BR VV014 04/03 A3011 RMK AO2=
201001100253 METAR KCLM 100253Z AUTO 00000KT 1 1/4SM BR FEW001 04/04 A3010 RMK AO2 VIS 1/2V4 SLP195 T00440039 56005=
201001100239 SPECI KCLM 100239Z AUTO 00000KT 1SM BR VV001 04/04 A3010 RMK AO2 VIS 1/4V5=
201001100239 SPECI KCLM 100239Z AUTO 00000KT 1SM BR VV001 04/04 A3010 RMK AO2 VIS 1/4V5=
201001100218 SPECI KCLM 100218Z AUTO 23004KT 5SM BR CLR 06/06 A3010 RMK AO2=
201001100218 SPECI KCLM 100218Z AUTO 23004KT 5SM BR CLR 06/06 A3010 RMK AO2=
201001100210 SPECI KCLM 100210Z AUTO 00000KT 2SM BR CLR 06/06 A3010 RMK AO2=
201001100210 SPECI KCLM 100210Z AUTO 00000KT 2SM BR CLR 06/06 A3010 RMK AO2=
201001100159 SPECI KCLM 100159Z AUTO 00000KT 1SM BR VV001 05/04 A3010 RMK AO2 VIS 1/2V4=
201001100159 SPECI KCLM 100159Z AUTO 00000KT 1SM BR VV001 05/04 A3010 RMK AO2 VIS 1/2V4=
201001100153 METAR KCLM 100153Z AUTO 00000KT 1SM BR CLR 05/05 A3011 RMK AO2 VIS 1/2V4 SLP197 T00500050=
201001100146 SPECI KCLM 100146Z AUTO 00000KT 3/4SM BR CLR 05/04 A3011 RMK AO2=
201001100146 SPECI KCLM 100146Z AUTO 00000KT 3/4SM BR CLR 05/04 A3011 RMK AO2=
201001100135 SPECI KCLM 100135Z AUTO 00000KT 1 3/4SM BR CLR 05/05 A3011 RMK AO2=
201001100135 SPECI KCLM 100135Z AUTO 00000KT 1 3/4SM BR CLR 05/05 A3011 RMK AO2=
201001100053 METAR KCLM 100053Z AUTO 12003KT 5SM BR CLR 06/06 A3011 RMK AO2 SLP198 T00610061=
201001100011 SPECI KCLM 100011Z AUTO 14003KT 3SM BR CLR 07/07 A3012 RMK AO2=
201001100011 SPECI KCLM 100011Z AUTO 14003KT 3SM BR CLR 07/07 A3012 RMK AO2=
201001092356 SPECI KCLM 092356Z AUTO 10004KT 1 3/4SM BR CLR 07/07 A3012 RMK AO2 VIS 3/4V5=
201001092356 SPECI KCLM 092356Z AUTO 10004KT 1 3/4SM BR CLR 07/07 A3012 RMK AO2 VIS 3/4V5=
201001092353 METAR KCLM 092353Z AUTO 12003KT 4SM BR CLR 07/07 A3012 RMK AO2 SLP200 60000 T00720072 10089 20056 52002=
201001092305 SPECI KCLM 092305Z AUTO 00000KT 10SM FEW004 09/08 A3011 RMK AO2=
201001092305 SPECI KCLM 092305Z AUTO 00000KT 10SM FEW004 09/08 A3011 RMK AO2=
201001092253 METAR KCLM 092253Z AUTO 20003KT 10SM BKN004 09/08 A3011 RMK AO2 SLP199 T00890078=
201001092242 SPECI KCLM 092242Z AUTO 19004KT 10SM OVC004 08/08 A3012 RMK AO2=
201001092242 SPECI KCLM 092242Z AUTO 19004KT 10SM OVC004 08/08 A3012 RMK AO2=
201001092219 SPECI KCLM 092219Z AUTO 00000KT 10SM BKN006 OVC009 08/08 A3011 RMK AO2 CIG 003V008=
201001092219 SPECI KCLM 092219Z AUTO 00000KT 10SM BKN006 OVC009 08/08 A3011 RMK AO2 CIG 003V008=
201001092153 METAR KCLM 092153Z AUTO 27004KT 10SM BKN003 08/08 A3011 RMK AO2 SLP198 T00830078=
201001092115 SPECI KCLM 092115Z AUTO 29004KT 10SM OVC003 08/08 A3011 RMK AO2 CIG 001V005=
201001092115 SPECI KCLM 092115Z AUTO 29004KT 10SM OVC003 08/08 A3011 RMK AO2 CIG 001V005=
201001092053 METAR KCLM 092053Z AUTO 35003KT 8SM OVC001 08/08 A3011 RMK AO2 SLP198 60000 T00780078 58001=
201001092035 SPECI KCLM 092035Z AUTO 29003KT 6SM BR OVC001 08/08 A3011 RMK AO2=
201001092035 SPECI KCLM 092035Z AUTO 29003KT 6SM BR OVC001 08/08 A3011 RMK AO2=
201001092020 SPECI KCLM 092020Z AUTO 31003KT 2SM BR OVC001 08/08 A3012 RMK AO2 VIS 1 3/4V2 1/2=
201001092020 SPECI KCLM 092020Z AUTO 31003KT 2SM BR OVC001 08/08 A3012 RMK AO2 VIS 1 3/4V2 1/2=
201001091953 METAR KCLM 091953Z AUTO 00000KT 1 3/4SM BR OVC001 08/07 A3012 RMK AO2 SLP201 T00780072=
201001091933 SPECI KCLM 091933Z AUTO 00000KT 1 3/4SM BR OVC001 08/08 A3012 RMK AO2=
201001091933 SPECI KCLM 091933Z AUTO 00000KT 1 3/4SM BR OVC001 08/08 A3012 RMK AO2=
201001091900 SPECI KCLM 091900Z AUTO 00000KT 10SM BKN003 BKN065 OVC085 07/07 A3013 RMK AO2=
201001091900 SPECI KCLM 091900Z AUTO 00000KT 10SM BKN003 BKN065 OVC085 07/07 A3013 RMK AO2=
201001091853 METAR KCLM 091853Z AUTO 00000KT 10SM SCT001 BKN065 OVC085 07/07 A3013 RMK AO2 RAE03 SLP204 P0000 T00720067=
201001091819 SPECI KCLM 091819Z AUTO 00000KT 10SM FEW001 OVC065 07/06 A3013 RMK AO2 RAE03 P0000=
201001091819 SPECI KCLM 091819Z AUTO 00000KT 10SM FEW001 OVC065 07/06 A3013 RMK AO2 RAE03 P0000=
201001091801 SPECI KCLM 091801Z AUTO 00000KT 3SM -RA BR BKN001 OVC065 06/06 A3011 RMK AO2 P0000=
201001091801 SPECI KCLM 091801Z AUTO 00000KT 3SM -RA BR BKN001 OVC065 06/06 A3011 RMK AO2 P0000=
201001091753 METAR KCLM 091753Z AUTO 00000KT 1SM -RA BR OVC001 06/06 A3011 RMK AO2 VIS 1/2V3 RAB51 SLP199 P0000 60000 T00560056 10061 20028 51012=
201001091750 SPECI KCLM 091750Z AUTO 00000KT 3/4SM BR OVC001 06/06 A3011 RMK AO2=
201001091750 SPECI KCLM 091750Z AUTO 00000KT 3/4SM BR OVC001 06/06 A3011 RMK AO2=
201001091716 SPECI KCLM 091716Z AUTO 00000KT 1SM BR BKN001 OVC065 04/04 A3010 RMK AO2=
201001091716 SPECI KCLM 091716Z AUTO 00000KT 1SM BR BKN001 OVC065 04/04 A3010 RMK AO2=
201001091710 SPECI KCLM 091710Z AUTO 00000KT 1/4SM FG BKN001 OVC065 04/04 A3010 RMK AO2=
201001091710 SPECI KCLM 091710Z AUTO 00000KT 1/4SM FG BKN001 OVC065 04/04 A3010 RMK AO2=
201001091653 METAR KCLM 091653Z AUTO 00000KT 1/2SM FG BKN001 OVC065 04/04 A3009 RMK AO2 SLP192 T00390039=
201001091620 SPECI KCLM 091620Z AUTO 00000KT 3/4SM BR VV001 03/03 A3009 RMK AO2=
201001091620 SPECI KCLM 091620Z AUTO 00000KT 3/4SM BR VV001 03/03 A3009 RMK AO2=
201001091614 SPECI KCLM 091614Z AUTO 00000KT 1 1/4SM BR FEW001 SCT008 03/03 A3008 RMK AO2=
201001091614 SPECI KCLM 091614Z AUTO 00000KT 1 1/4SM BR FEW001 SCT008 03/03 A3008 RMK AO2=
201001091608 SPECI KCLM 091608Z AUTO 14005KT 3/4SM BR VV001 03/03 A3008 RMK AO2=
201001091608 SPECI KCLM 091608Z AUTO 14005KT 3/4SM BR VV001 03/03 A3008 RMK AO2=
201001091553 METAR KCLM 091553Z AUTO 00000KT 3/4SM BR VV010 03/03 A3008 RMK AO2 SLP187 T00330033=
201001091542 SPECI KCLM 091542Z AUTO 19003KT 1 1/4SM BR SCT005 SCT009 04/04 A3008 RMK AO2=
201001091542 SPECI KCLM 091542Z AUTO 19003KT 1 1/4SM BR SCT005 SCT009 04/04 A3008 RMK AO2=
201001091536 SPECI KCLM 091536Z AUTO 00000KT 1/2SM FG FEW001 BKN008 04/04 A3008 RMK AO2=
201001091536 SPECI KCLM 091536Z AUTO 00000KT 1/2SM FG FEW001 BKN008 04/04 A3008 RMK AO2=
201001091528 SPECI KCLM 091528Z AUTO 00000KT 1/4SM FG BKN001 OVC008 04/04 A3008 RMK AO2=
201001091528 SPECI KCLM 091528Z AUTO 00000KT 1/4SM FG BKN001 OVC008 04/04 A3008 RMK AO2=
201001091515 SPECI KCLM 091515Z AUTO 25005KT 1/2SM FG VV001 05/04 A3008 RMK AO2=
201001091515 SPECI KCLM 091515Z AUTO 25005KT 1/2SM FG VV001 05/04 A3008 RMK AO2=
201001091453 METAR KCLM 091453Z AUTO 24003KT 1/4SM FG VV001 06/05 A3008 RMK AO2 SLP188 T00560050 53006=
201001091353 METAR KCLM 091353Z AUTO 00000KT 1/4SM FG VV001 06/06 A3007 RMK AO2 SLP185 T00610056=
201001091328 SPECI KCLM 091328Z AUTO 00000KT 1/4SM FG VV001 06/06 A3007 RMK AO2=
201001091328 SPECI KCLM 091328Z AUTO 00000KT 1/4SM FG VV001 06/06 A3007 RMK AO2=
201001091253 METAR KCLM 091253Z AUTO 21003KT 1/2SM FG OVC001 06/06 A3007 RMK AO2 SLP183 T00610061=
201001091233 SPECI KCLM 091233Z AUTO 23004KT 1/2SM FG VV001 06/06 A3007 RMK AO2=
201001091233 SPECI KCLM 091233Z AUTO 23004KT 1/2SM FG VV001 06/06 A3007 RMK AO2=
201001091221 SPECI KCLM 091221Z AUTO 21003KT 1/4SM FG VV001 06/05 A3007 RMK AO2=
201001091221 SPECI KCLM 091221Z AUTO 21003KT 1/4SM FG VV001 06/05 A3007 RMK AO2=
201001091153 METAR KCLM 091153Z AUTO 00000KT 1/2SM FG OVC001 06/05 A3006 RMK AO2 SLP182 70002 T00560050 10067 20033 51008=
201001091127 SPECI KCLM 091127Z AUTO 00000KT 1SM BR VV001 05/05 A3007 RMK AO2=
201001091127 SPECI KCLM 091127Z AUTO 00000KT 1SM BR VV001 05/05 A3007 RMK AO2=
201001091112 SPECI KCLM 091112Z AUTO 26003KT 1/4SM FG VV001 05/05 A3006 RMK AO2=
201001091112 SPECI KCLM 091112Z AUTO 26003KT 1/4SM FG VV001 05/05 A3006 RMK AO2=
201001091105 SPECI KCLM 091105Z AUTO 00000KT 1/4SM FG OVC002 06/06 A3006 RMK AO2=
201001091105 SPECI KCLM 091105Z AUTO 00000KT 1/4SM FG OVC002 06/06 A3006 RMK AO2=
201001091053 METAR KCLM 091053Z AUTO 00000KT 1SM BR BKN002 05/05 A3006 RMK AO2 SLP180 T00500050=
201001091051 SPECI KCLM 091051Z AUTO 00000KT 1SM BR BKN002 05/05 A3006 RMK AO2=
201001091051 SPECI KCLM 091051Z AUTO 00000KT 1SM BR BKN002 05/05 A3006 RMK AO2=
201001091044 SPECI KCLM 091044Z AUTO 30004KT 1 3/4SM BR SCT002 BKN018 05/05 A3006 RMK AO2=
201001091044 SPECI KCLM 091044Z AUTO 30004KT 1 3/4SM BR SCT002 BKN018 05/05 A3006 RMK AO2=
201001091033 SPECI KCLM 091033Z AUTO 29004KT 2 1/2SM BR FEW002 SCT018 05/05 A3006 RMK AO2 VIS 1V5=
201001091033 SPECI KCLM 091033Z AUTO 29004KT 2 1/2SM BR FEW002 SCT018 05/05 A3006 RMK AO2 VIS 1V5=
201001091024 SPECI KCLM 091024Z AUTO 00000KT 6SM BR FEW002 BKN018 06/06 A3005 RMK AO2=
201001091024 SPECI KCLM 091024Z AUTO 00000KT 6SM BR FEW002 BKN018 06/06 A3005 RMK AO2=
201001090953 METAR KCLM 090953Z AUTO 00000KT 6SM BR OVC016 05/05 A3004 RMK AO2 SLP173 T00500050=
201001090936 SPECI KCLM 090936Z AUTO 18003KT 8SM BKN016 04/04 A3002 RMK AO2=
201001090936 SPECI KCLM 090936Z AUTO 18003KT 8SM BKN016 04/04 A3002 RMK AO2=
201001090853 METAR KCLM 090853Z AUTO 14004KT 4SM BR FEW016 05/04 A3003 RMK AO2 SLP170 T00500044 51021=
201001090821 SPECI KCLM 090821Z AUTO 00000KT 6SM BR CLR 04/04 A3003 RMK AO2=
201001090821 SPECI KCLM 090821Z AUTO 00000KT 6SM BR CLR 04/04 A3003 RMK AO2=
201001090814 SPECI KCLM 090814Z AUTO 00000KT 2 1/2SM BR CLR 05/04 A3003 RMK AO2=
201001090814 SPECI KCLM 090814Z AUTO 00000KT 2 1/2SM BR CLR 05/04 A3003 RMK AO2=
201001090753 METAR KCLM 090753Z AUTO 14004KT 9SM CLR 06/05 A3002 RMK AO2 SLP166 T00560050 400780039=
201001090738 SPECI KCLM 090738Z AUTO 11003KT 3SM BR CLR 06/06 A3000 RMK AO2=
201001090738 SPECI KCLM 090738Z AUTO 11003KT 3SM BR CLR 06/06 A3000 RMK AO2=
201001090729 SPECI KCLM 090729Z AUTO 08003KT 1 1/2SM BR FEW060 06/05 A3000 RMK AO2=
201001090729 SPECI KCLM 090729Z AUTO 08003KT 1 1/2SM BR FEW060 06/05 A3000 RMK AO2=
201001090653 METAR KCLM 090653Z AUTO 14004KT 4SM BR FEW075 06/05 A2999 RMK AO2 SLP157 T00560050=
201001090620 SPECI KCLM 090620Z AUTO 18003KT 10SM SCT008 SCT070 06/06 A2998 RMK AO2=
201001090620 SPECI KCLM 090620Z AUTO 18003KT 10SM SCT008 SCT070 06/06 A2998 RMK AO2=
201001090553 METAR KCLM 090553Z AUTO 21005KT 10SM OVC006 07/06 A2997 RMK AO2 RAE0458B33E45 CIG 003V008 SLP149 P0000 60000 T00670061 10067 20061 53021=
201001090453 METAR KCLM 090453Z AUTO 26005KT 10SM -RA OVC004 07/06 A2993 RMK AO2 SLP138 P0000 T00670061=
201001090353 METAR KCLM 090353Z AUTO 26006KT 4SM -RA BR OVC002 07/06 A2991 RMK AO2 SLP129 P0000 T00670061=
201001090310 SPECI KCLM 090310Z AUTO 27003KT 6SM -RA BR BKN002 OVC060 07/06 A2990 RMK AO2 P0000=
201001090310 SPECI KCLM 090310Z AUTO 27003KT 6SM -RA BR BKN002 OVC060 07/06 A2990 RMK AO2 P0000=
201001090302 SPECI KCLM 090302Z AUTO 27003KT 6SM -RA BR SCT002 BKN060 OVC080 06/06 A2990 RMK AO2 P0000=
201001090302 SPECI KCLM 090302Z AUTO 27003KT 6SM -RA BR SCT002 BKN060 OVC080 06/06 A2990 RMK AO2 P0000=
201001090253 METAR KCLM 090253Z AUTO 00000KT 8SM -RA SCT060 BKN070 OVC090 07/06 A2990 RMK AO2 RAB45 SLP127 P0000 60000 T00670061 55007=
201001090153 METAR KCLM 090153Z AUTO 00000KT 8SM BKN095 OVC110 07/06 A2989 RMK AO2 RAE38 SLP124 P0000 T00670061=
201001090114 SPECI KCLM 090114Z AUTO 09003KT 10SM -RA SCT005 OVC090 07/06 A2989 RMK AO2 P0000=
201001090114 SPECI KCLM 090114Z AUTO 09003KT 10SM -RA SCT005 OVC090 07/06 A2989 RMK AO2 P0000=
201001090053 METAR KCLM 090053Z AUTO 18003KT 10SM -RA OVC005 07/06 A2991 RMK AO2 RAE22B45 SLP128 P0000 T00670056=
201001082353 METAR KCLM 082353Z AUTO 29008KT 10SM -RA OVC005 07/06 A2992 RMK AO2 RAB19 SLP135 P0001 60002 T00670061 10078 20056 55005=
201001082253 METAR KCLM 082253Z AUTO 30004KT 10SM OVC005 07/06 A2989 RMK AO2 SLP124 T00670061=
201001082153 METAR KCLM 082153Z AUTO 29004KT 10SM OVC007 07/06 A2990 RMK AO2 SLP127 T00720061=
201001082053 METAR KCLM 082053Z AUTO 27005KT 10SM BKN007 OVC110 07/06 A2994 RMK AO2 RAB27E37 SLP140 P0000 60001 T00720061 58032=
201001081953 METAR KCLM 081953Z AUTO 00000KT 5SM BR OVC005 06/05 A2997 RMK AO2 RAE40 PRESFR SLP151 P0001 T00560050=
201001081930 SPECI KCLM 081930Z AUTO 00000KT 7SM -RA BKN007 BKN013 OVC085 06/05 A2999 RMK AO2 P0001=
201001081930 SPECI KCLM 081930Z AUTO 00000KT 7SM -RA BKN007 BKN013 OVC085 06/05 A2999 RMK AO2 P0001=
201001081904 SPECI KCLM 081904Z AUTO 00000KT 5SM -RA BR FEW007 BKN015 OVC049 06/05 A3001 RMK AO2 P0001=
201001081904 SPECI KCLM 081904Z AUTO 00000KT 5SM -RA BR FEW007 BKN015 OVC049 06/05 A3001 RMK AO2 P0001=
201001081853 METAR KCLM 081853Z AUTO 15003KT 7SM -RA BKN007 OVC015 06/04 A3001 RMK AO2 RAB39 SLP163 P0000 T00560044=
201001081753 METAR KCLM 081753Z AUTO 00000KT 10SM OVC007 06/04 A3003 RMK AO2 SLP172 T00560044 10056 20039 53002=
201001081653 METAR KCLM 081653Z AUTO 13004KT 10SM OVC009 05/04 A3001 RMK AO2 SLP165 T00500044=
201001081553 METAR KCLM 081553Z AUTO 00000KT 10SM OVC007 05/04 A3003 RMK AO2 SLP170 T00500039=
201001081453 METAR KCLM 081453Z AUTO 25004KT 10SM OVC009 05/04 A3003 RMK AO2 SLP170 T00500039 56018=
201001081353 METAR KCLM 081353Z AUTO 24005KT 10SM BKN009 BKN017 OVC095 04/03 A3004 RMK AO2 SLP174 T00440033=
201001081342 SPECI KCLM 081342Z AUTO 24005KT 10SM BKN011 BKN019 OVC095 04/03 A3004 RMK AO2=
201001081342 SPECI KCLM 081342Z AUTO 24005KT 10SM BKN011 BKN019 OVC095 04/03 A3004 RMK AO2=
201001081321 SPECI KCLM 081321Z AUTO 24005KT 10SM BKN019 BKN095 OVC110 04/03 A3004 RMK AO2=
201001081321 SPECI KCLM 081321Z AUTO 24005KT 10SM BKN019 BKN095 OVC110 04/03 A3004 RMK AO2=
201001081253 METAR KCLM 081253Z AUTO 00000KT 10SM SCT070 OVC085 04/03 A3005 RMK AO2 SLP179 T00440033=
201001081206 SPECI KCLM 081206Z AUTO 20003KT 10SM SCT009 OVC065 04/03 A3007 RMK AO2=
201001081206 SPECI KCLM 081206Z AUTO 20003KT 10SM SCT009 OVC065 04/03 A3007 RMK AO2=
201001081153 METAR KCLM 081153Z AUTO 22006KT 10SM BKN009 OVC060 04/03 A3008 RMK AO2 RAE1059 CIG 008V014 SLP188 P0000 60005 70005 T00440033 10056 20039 55001=
201001081141 SPECI KCLM 081141Z AUTO 24005KT 10SM OVC009 04/03 A3008 RMK AO2 RAE1059 P0000=
201001081141 SPECI KCLM 081141Z AUTO 24005KT 10SM OVC009 04/03 A3008 RMK AO2 RAE1059 P0000=
201001081120 SPECI KCLM 081120Z AUTO 25003KT 10SM BKN011 OVC055 04/03 A3008 RMK AO2 RAE1059 P0000=
201001081120 SPECI KCLM 081120Z AUTO 25003KT 10SM BKN011 OVC055 04/03 A3008 RMK AO2 RAE1059 P0000=
201001081053 METAR KCLM 081053Z AUTO 23003KT 10SM -RA BKN060 BKN075 OVC095 04/04 A3008 RMK AO2 SLP187 P0002 T00440039=
201001081036 SPECI KCLM 081036Z AUTO 00000KT 10SM -RA SCT018 OVC075 04/04 A3008 RMK AO2 P0002=
201001081036 SPECI KCLM 081036Z AUTO 00000KT 10SM -RA SCT018 OVC075 04/04 A3008 RMK AO2 P0002=
201001081005 SPECI KCLM 081005Z AUTO 00000KT 6SM -RA BR FEW018 OVC029 04/03 A3008 RMK AO2 P0002=
201001081005 SPECI KCLM 081005Z AUTO 00000KT 6SM -RA BR FEW018 OVC029 04/03 A3008 RMK AO2 P0002=
201001080953 METAR KCLM 080953Z AUTO 12007KT 5SM RA BR FEW021 OVC034 04/03 A3005 RMK AO2 RAB05 PRESFR SLP178 P0003 T00440033=
201001080853 METAR KCLM 080853Z AUTO 29006KT 10SM FEW060 OVC075 06/02 A3008 RMK AO2 SLP189 60000 T00560022 53007=
201001080753 METAR KCLM 080753Z AUTO 24007KT 10SM BKN085 04/02 A3007 RMK AO2 SLP183 T00440017 400610000=
201001080653 METAR KCLM 080653Z AUTO 27005KT 10SM FEW095 SCT110 04/02 A3006 RMK AO2 RAB04E13 SLP183 P0000 T00440017=
201001080553 METAR KCLM 080553Z AUTO 25009KT 10SM FEW070 SCT110 04/02 A3006 RMK AO2 RAB00E31 SLP182 P0000 60000 T00440017 10050 20044 53001=
201001080453 METAR KCLM 080453Z AUTO 23005KT 10SM FEW100 05/01 A3005 RMK AO2 SLP179 T00500011=
201001080353 METAR KCLM 080353Z AUTO 24005KT 10SM BKN075 05/01 A3005 RMK AO2 SLP180 T00500011=
201001080253 METAR KCLM 080253Z AUTO 23006KT 10SM OVC100 04/01 A3006 RMK AO2 RAE09 SLP182 P0000 60000 T00440011 58008=
201001080153 METAR KCLM 080153Z AUTO 22003KT 10SM -RA BKN075 OVC100 05/01 A3007 RMK AO2 RAB51 SLP187 P0000 T00500011=
201001080053 METAR KCLM 080053Z AUTO 25005KT 10SM SCT100 05/01 A3008 RMK AO2 SLP190 T00500006=
201001072353 METAR KCLM 072353Z AUTO 26005KT 10SM CLR 05/01 A3008 RMK AO2 SLP190 T00500006 10061 20039 55001=
201001072253 METAR KCLM 072253Z AUTO 00000KT 10SM CLR 06/00 A3007 RMK AO2 SLP184 T00610000=
201001072153 METAR KCLM 072153Z AUTO 25007KT 10SM FEW090 06/M01 A3008 RMK AO2 SLP188 T00561006=
201001072053 METAR KCLM 072053Z AUTO 27009KT 10SM CLR 06/01 A3009 RMK AO2 SLP190 T00560006 56022=
201001071953 METAR KCLM 071953Z AUTO 28005KT 10SM CLR 05/01 A3011 RMK AO2 SLP199 T00500006=
201001071853 METAR KCLM 071853Z AUTO 23005KT 10SM CLR 04/01 A3012 RMK AO2 SLP202 T00440006=
201001071753 METAR KCLM 071753Z AUTO 36005KT 10SM CLR 03/00 A3015 RMK AO2 SLP213 T00330000 10033 20000 58001=
201001071653 METAR KCLM 071653Z AUTO 00000KT 10SM CLR 01/M01 A3015 RMK AO2 SLP212 T00061011=
201001071553 METAR KCLM 071553Z AUTO 23006KT 10SM CLR 01/M02 A3017 RMK AO2 SLP220 T00111017=
201001071453 METAR KCLM 071453Z AUTO 00000KT 10SM CLR 01/M02 A3015 RMK AO2 PRESRR SLP214 T00061017 55023=
201001071353 METAR KCLM 071353Z AUTO 11003KT 10SM CLR 01/M02 A3014 RMK AO2 SLP210 T00061017=
201001071253 METAR KCLM 071253Z AUTO 14003KT 10SM FEW070 02/00 A3018 RMK AO2 SLP222 T00170000=
201001071213 SPECI KCLM 071213Z AUTO 12005KT 10SM SCT027 BKN085 01/M01 A3021 RMK AO2=
201001071213 SPECI KCLM 071213Z AUTO 12005KT 10SM SCT027 BKN085 01/M01 A3021 RMK AO2=
201001071153 METAR KCLM 071153Z AUTO 16004KT 10SM BKN027 01/00 A3022 RMK AO2 SLP237 T00110000 10033 20000 56015=
201001071149 SPECI KCLM 071149Z AUTO 16005KT 10SM BKN027 00/M01 A3023 RMK AO2=
201001071149 SPECI KCLM 071149Z AUTO 16005KT 10SM BKN027 00/M01 A3023 RMK AO2=
201001071053 METAR KCLM 071053Z AUTO 00000KT 10SM CLR 01/00 A3023 RMK AO2 SLP239 T00110000=
201001070953 METAR KCLM 070953Z AUTO 00000KT 10SM OVC036 02/00 A3027 RMK AO2 SLP252 T00220000=
201001070853 METAR KCLM 070853Z AUTO 24005KT 10SM CLR 02/01 A3027 RMK AO2 SLP252 T00170006 58003=
201001070753 METAR KCLM 070753Z AUTO 22006KT 10SM CLR 01/01 A3028 RMK AO2 SLP256 T00110006 400720000=
201001070653 METAR KCLM 070653Z AUTO 15003KT 10SM CLR 01/00 A3027 RMK AO2 SLP255 T00060000=
201001070553 METAR KCLM 070553Z AUTO 24005KT 10SM CLR 03/01 A3028 RMK AO2 SLP255 T00280011 10061 20022 55006=
201001070453 METAR KCLM 070453Z AUTO 23005KT 10SM CLR 03/01 A3027 RMK AO2 SLP251 T00280011=
201001070353 METAR KCLM 070353Z AUTO 24006KT 10SM CLR 02/01 A3028 RMK AO2 SLP255 T00220011=
201001070253 METAR KCLM 070253Z AUTO 24004KT 10SM CLR 02/01 A3030 RMK AO2 SLP262 T00220011 55005=
201001070153 METAR KCLM 070153Z AUTO 00000KT 10SM CLR 04/01 A3029 RMK AO2 SLP260 T00440011=
201001070053 METAR KCLM 070053Z AUTO 09004KT 10SM CLR 06/01 A3030 RMK AO2 SLP262 T00560006=
201001062353 METAR KCLM 062353Z AUTO 13004KT 10SM CLR 06/01 A3031 RMK AO2 SLP266 T00610011 10072 20050 53001=
201001062253 METAR KCLM 062253Z AUTO 09004KT 10SM FEW100 06/01 A3031 RMK AO2 SLP264 T00610006=
201001062153 METAR KCLM 062153Z AUTO 09009KT 10SM FEW080 06/00 A3029 RMK AO2 SLP260 T00610000=
201001062053 METAR KCLM 062053Z AUTO 09008KT 10SM OVC080 06/M01 A3031 RMK AO2 SLP265 T00611006 58009=
201001061953 METAR KCLM 061953Z AUTO 10006KT 10SM SCT033 OVC085 06/00 A3033 RMK AO2 SLP273 T00610000=
201001061853 METAR KCLM 061853Z AUTO 10005KT 10SM SCT028 OVC033 06/00 A3033 RMK AO2 SLP274 T00610000=
201001061849 SPECI KCLM 061849Z AUTO 11005KT 10SM OVC031 06/00 A3033 RMK AO2=
201001061849 SPECI KCLM 061849Z AUTO 11005KT 10SM OVC031 06/00 A3033 RMK AO2=
201001061834 SPECI KCLM 061834Z AUTO 11004KT 10SM OVC029 06/00 A3033 RMK AO2=
201001061834 SPECI KCLM 061834Z AUTO 11004KT 10SM OVC029 06/00 A3033 RMK AO2=
201001061753 METAR KCLM 061753Z AUTO 12005KT 10SM OVC033 05/01 A3033 RMK AO2 SLP272 T00500006 10056 20039 51013=
201001061653 METAR KCLM 061653Z AUTO 00000KT 10SM OVC035 04/03 A3032 RMK AO2 SLP271 T00440028=
201001061553 METAR KCLM 061553Z AUTO 00000KT 10SM OVC032 04/03 A3030 RMK AO2 SLP263 T00390028=
201001061453 METAR KCLM 061453Z AUTO 23003KT 10SM OVC032 04/02 A3029 RMK AO2 SLP259 T00390017 51012=
201001061353 METAR KCLM 061353Z AUTO 00000KT 10SM OVC036 05/M02 A3028 RMK AO2 SLP255 T00501017=
201001061253 METAR KCLM 061253Z AUTO 00000KT 10SM OVC032 05/02 A3028 RMK AO2 SLP256 T00500022=
201001061153 METAR KCLM 061153Z AUTO 00000KT 10SM OVC042 06/M01 A3025 RMK AO2 SLP247 70002 T00561006 10061 20044 58003=
201001061053 METAR KCLM 061053Z AUTO 26005KT 10SM BKN034 OVC045 05/02 A3026 RMK AO2 SLP249 T00500017=
201001061024 SPECI KCLM 061024Z AUTO 22004KT 10SM OVC030 05/03 A3027 RMK AO2=
201001061024 SPECI KCLM 061024Z AUTO 22004KT 10SM OVC030 05/03 A3027 RMK AO2=
201001060953 METAR KCLM 060953Z AUTO 22004KT 10SM OVC028 05/04 A3027 RMK AO2 SLP251 T00500039=
201001060946 SPECI KCLM 060946Z AUTO 24004KT 10SM OVC028 05/04 A3027 RMK AO2=
201001060946 SPECI KCLM 060946Z AUTO 24004KT 10SM OVC028 05/04 A3027 RMK AO2=
201001060853 METAR KCLM 060853Z AUTO 00000KT 10SM OVC030 05/04 A3026 RMK AO2 SLP250 T00500039 51016=
201001060841 SPECI KCLM 060841Z AUTO 23003KT 10SM OVC030 05/04 A3027 RMK AO2=
201001060841 SPECI KCLM 060841Z AUTO 23003KT 10SM OVC030 05/04 A3027 RMK AO2=
201001060820 SPECI KCLM 060820Z AUTO 00000KT 10SM OVC028 06/04 A3026 RMK AO2=
201001060820 SPECI KCLM 060820Z AUTO 00000KT 10SM OVC028 06/04 A3026 RMK AO2=
201001060753 METAR KCLM 060753Z AUTO 00000KT 10SM OVC030 06/03 A3025 RMK AO2 SLP246 T00560033 400670056=
201001060653 METAR KCLM 060653Z AUTO 25003KT 10SM OVC030 06/04 A3023 RMK AO2 SLP239 T00560039=
201001060637 SPECI KCLM 060637Z AUTO 00000KT 10SM OVC030 06/03 A3022 RMK AO2=
201001060637 SPECI KCLM 060637Z AUTO 00000KT 10SM OVC030 06/03 A3022 RMK AO2=
201001060620 SPECI KCLM 060620Z AUTO 23003KT 10SM OVC028 06/04 A3022 RMK AO2=
201001060620 SPECI KCLM 060620Z AUTO 23003KT 10SM OVC028 06/04 A3022 RMK AO2=
201001060553 METAR KCLM 060553Z AUTO 23004KT 10SM OVC030 06/04 A3022 RMK AO2 SLP234 T00560039 10067 20056 53011=
201001060453 METAR KCLM 060453Z AUTO 00000KT 10SM OVC032 06/05 A3020 RMK AO2 SLP230 T00560050=
201001060353 METAR KCLM 060353Z AUTO 00000KT 10SM OVC032 06/05 A3019 RMK AO2 SLP226 T00560050=
201001060253 METAR KCLM 060253Z AUTO 16003KT 10SM OVC030 06/05 A3018 RMK AO2 SLP223 T00610050 51012=
201001060243 SPECI KCLM 060243Z AUTO 00000KT 10SM OVC030 06/04 A3018 RMK AO2=
201001060243 SPECI KCLM 060243Z AUTO 00000KT 10SM OVC030 06/04 A3018 RMK AO2=
201001060153 METAR KCLM 060153Z AUTO 00000KT 10SM OVC028 06/05 A3017 RMK AO2 SLP220 T00610050=
201001060053 METAR KCLM 060053Z AUTO 15004KT 10SM OVC026 06/05 A3017 RMK AO2 SLP218 T00610050=
201001052353 METAR KCLM 052353Z AUTO 10004KT 10SM OVC024 07/06 A3015 RMK AO2 SLP211 60001 T00670056 10067 20061 53005=
201001052253 METAR KCLM 052253Z AUTO 15004KT 10SM OVC022 07/06 A3014 RMK AO2 SLP209 T00670056=
201001052153 METAR KCLM 052153Z AUTO 09005KT 10SM OVC018 07/06 A3014 RMK AO2 SLP206 T00670056=
201001052150 SPECI KCLM 052150Z AUTO 10004KT 10SM OVC016 07/06 A3013 RMK AO2=
201001052150 SPECI KCLM 052150Z AUTO 10004KT 10SM OVC016 07/06 A3013 RMK AO2=
201001052111 SPECI KCLM 052111Z AUTO 09006KT 5SM BR OVC010 06/06 A3013 RMK AO2 CIG 007V011=
201001052111 SPECI KCLM 052111Z AUTO 09006KT 5SM BR OVC010 06/06 A3013 RMK AO2 CIG 007V011=
201001052053 METAR KCLM 052053Z AUTO 09004KT 10SM FEW004 OVC008 06/06 A3013 RMK AO2 SLP205 60001 T00610056 56004=
201001052050 SPECI KCLM 052050Z AUTO 08005KT 10SM OVC008 06/06 A3013 RMK AO2 CIG 003V010=
201001052050 SPECI KCLM 052050Z AUTO 08005KT 10SM OVC008 06/06 A3013 RMK AO2 CIG 003V010=
201001051953 METAR KCLM 051953Z AUTO 09004KT 6SM BR OVC003 06/06 A3014 RMK AO2 RAE28 SLP207 P0001 T00610056=
201001051918 SPECI KCLM 051918Z AUTO 09003KT 3SM -RA BR OVC003 06/06 A3014 RMK AO2 CIG 003V007 P0001=
201001051918 SPECI KCLM 051918Z AUTO 09003KT 3SM -RA BR OVC003 06/06 A3014 RMK AO2 CIG 003V007 P0001=
201001051853 METAR KCLM 051853Z AUTO 07005KT 2 1/2SM -RA BR BKN003 OVC006 06/06 A3014 RMK AO2 CIG 001V004 SLP209 P0000 T00610056=
201001051850 SPECI KCLM 051850Z AUTO 09006KT 2 1/2SM -RA BR OVC003 06/06 A3014 RMK AO2 CIG 001V006 P0000=
201001051850 SPECI KCLM 051850Z AUTO 09006KT 2 1/2SM -RA BR OVC003 06/06 A3014 RMK AO2 CIG 001V006 P0000=
201001051831 SPECI KCLM 051831Z AUTO 00000KT 3SM -RA BR OVC003 06/06 A3014 RMK AO2 CIG 001V006 P0000=
201001051831 SPECI KCLM 051831Z AUTO 00000KT 3SM -RA BR OVC003 06/06 A3014 RMK AO2 CIG 001V006 P0000=
201001051806 SPECI KCLM 051806Z AUTO 00000KT 2SM -RA BR OVC003 06/06 A3014 RMK AO2 CIG 001V005 P0000=
201001051806 SPECI KCLM 051806Z AUTO 00000KT 2SM -RA BR OVC003 06/06 A3014 RMK AO2 CIG 001V005 P0000=
201001051753 METAR KCLM 051753Z AUTO 10003KT 1 3/4SM -RA BR OVC003 06/06 A3013 RMK AO2 SLP206 P0000 60001 T00610056 10061 20056 53025=
201001051740 SPECI KCLM 051740Z AUTO 00000KT 1 3/4SM -RA BR OVC003 06/06 A3013 RMK AO2 P0000=
201001051740 SPECI KCLM 051740Z AUTO 00000KT 1 3/4SM -RA BR OVC003 06/06 A3013 RMK AO2 P0000=
201001051733 SPECI KCLM 051733Z AUTO 10005KT 1 3/4SM -RA BR OVC001 06/06 A3013 RMK AO2 P0000=
201001051733 SPECI KCLM 051733Z AUTO 10005KT 1 3/4SM -RA BR OVC001 06/06 A3013 RMK AO2 P0000=
201001051653 METAR KCLM 051653Z AUTO 08004KT 2 1/2SM -RA BR OVC001 06/06 A3010 RMK AO2 RAB1558 CIG 001V005 SLP196 P0001 T00610056=
201001051636 SPECI KCLM 051636Z AUTO 08006KT 3SM -RA BR OVC001 06/06 A3010 RMK AO2 RAB1558 P0001=
201001051636 SPECI KCLM 051636Z AUTO 08006KT 3SM -RA BR OVC001 06/06 A3010 RMK AO2 RAB1558 P0001=
201001051626 SPECI KCLM 051626Z AUTO 08004KT 2 1/2SM -RA BR OVC001 06/06 A3010 RMK AO2 RAB1558 CIG 001V005 P0001=
201001051626 SPECI KCLM 051626Z AUTO 08004KT 2 1/2SM -RA BR OVC001 06/06 A3010 RMK AO2 RAB1558 CIG 001V005 P0001=
201001051553 METAR KCLM 051553Z AUTO 08003KT 4SM BR OVC001 06/06 A3008 RMK AO2 RAB1458E18 SLP188 P0000 T00610056=
201001051459 SPECI KCLM 051459Z AUTO VRB03KT 3SM -RA BR OVC001 06/06 A3006 RMK AO2 RAB58 P0000=
201001051459 SPECI KCLM 051459Z AUTO VRB03KT 3SM -RA BR OVC001 06/06 A3006 RMK AO2 RAB58 P0000=
201001051453 METAR KCLM 051453Z AUTO VRB04KT 1 1/4SM BR OVC001 06/06 A3006 RMK AO2 RAB1354E17 SLP181 P0000 60000 T00610056 53005=
201001051446 SPECI KCLM 051446Z AUTO 00000KT 1 3/4SM BR OVC001 06/06 A3006 RMK AO2 RAB1354E17 P0000=
201001051446 SPECI KCLM 051446Z AUTO 00000KT 1 3/4SM BR OVC001 06/06 A3006 RMK AO2 RAB1354E17 P0000=
201001051353 METAR KCLM 051353Z AUTO 00000KT 8SM OVC001 06/06 A3006 RMK AO2 CIG 001V004 SLP180 T00610056=
201001051253 METAR KCLM 051253Z AUTO VRB04KT 8SM OVC001 06/06 A3005 RMK AO2 RAE00 SLP177 P0000 T00610056=
201001051153 METAR KCLM 051153Z AUTO 06005KT 5SM -RA BR OVC001 06/06 A3005 RMK AO2 SLP176 P0002 60010 70025 T00610056 10061 20061 53011=
201001051053 METAR KCLM 051053Z AUTO 06004KT 3SM -RA BR OVC001 06/06 A3004 RMK AO2 SLP173 P0008 T00610056=
201001050953 METAR KCLM 050953Z AUTO 06004KT 7SM -RA OVC001 06/06 A3002 RMK AO2 SLP168 P0000 T00610056=
201001050853 METAR KCLM 050853Z AUTO VRB04KT 7SM -RA OVC001 06/06 A3001 RMK AO2 RAE17B35 SLP165 P0000 60000 T00610056 51003=
201001050838 SPECI KCLM 050838Z AUTO 08006KT 9SM -RA OVC001 06/06 A3002 RMK AO2 RAE17B35 P0000=
201001050838 SPECI KCLM 050838Z AUTO 08006KT 9SM -RA OVC001 06/06 A3002 RMK AO2 RAE17B35 P0000=
201001050815 SPECI KCLM 050815Z AUTO 07006KT 8SM -RA OVC003 06/06 A3001 RMK AO2 CIG 001V006 P0000=
201001050815 SPECI KCLM 050815Z AUTO 07006KT 8SM -RA OVC003 06/06 A3001 RMK AO2 CIG 001V006 P0000=
201001050753 METAR KCLM 050753Z AUTO VRB03KT 7SM -RA OVC001 06/06 A3001 RMK AO2 RAB46 CIG 001V004 SLP164 P0000 T00610056 400670056=
201001050653 METAR KCLM 050653Z AUTO 08003KT 10SM OVC001 06/06 A3001 RMK AO2 CIG 001V005 SLP164 T00610056=
201001050553 METAR KCLM 050553Z AUTO 06003KT 10SM OVC001 06/06 A3000 RMK AO2 SLP162 60002 T00610056 10061 20061 51012=
201001050453 METAR KCLM 050453Z AUTO 00000KT 5SM BR OVC001 06/06 A2999 RMK AO2 RAB07E36 SLP159 P0000 T00610056=
201001050353 METAR KCLM 050353Z AUTO 00000KT 6SM BR OVC001 06/06 A2998 RMK AO2 RAB0259E08 SLP155 P0000 T00610056=
201001050253 METAR KCLM 050253Z AUTO 00000KT 3SM BR OVC001 06/06 A2997 RMK AO2 RAB0158E28 SLP150 P0000 60002 T00610056 53005=
201001050244 SPECI KCLM 050244Z AUTO 04003KT 2 1/2SM BR OVC001 06/06 A2997 RMK AO2 RAB0158E28 P0000=
201001050244 SPECI KCLM 050244Z AUTO 04003KT 2 1/2SM BR OVC001 06/06 A2997 RMK AO2 RAB0158E28 P0000=
201001050203 SPECI KCLM 050203Z AUTO 00000KT 4SM -RA BR OVC001 06/06 A2996 RMK AO2 RAB0158 P0000=
201001050203 SPECI KCLM 050203Z AUTO 00000KT 4SM -RA BR OVC001 06/06 A2996 RMK AO2 RAB0158 P0000=
201001050153 METAR KCLM 050153Z AUTO 08005KT 2SM BR OVC001 06/06 A2996 RMK AO2 RAE28 SLP146 P0001 T00610056=
201001050145 SPECI KCLM 050145Z AUTO VRB04KT 3SM BR OVC001 06/06 A2996 RMK AO2 RAE28 P0001=
201001050145 SPECI KCLM 050145Z AUTO VRB04KT 3SM BR OVC001 06/06 A2996 RMK AO2 RAE28 P0001=
201001050127 SPECI KCLM 050127Z AUTO VRB04KT 1 1/2SM -RA BR OVC001 06/06 A2996 RMK AO2 P0001=
201001050127 SPECI KCLM 050127Z AUTO VRB04KT 1 1/2SM -RA BR OVC001 06/06 A2996 RMK AO2 P0001=
201001050116 SPECI KCLM 050116Z AUTO 03004KT 2SM -RA BR OVC001 06/06 A2996 RMK AO2 P0001=
201001050116 SPECI KCLM 050116Z AUTO 03004KT 2SM -RA BR OVC001 06/06 A2996 RMK AO2 P0001=
201001050100 SPECI KCLM 050100Z AUTO VRB03KT 1 1/2SM -RA BR OVC001 06/06 A2996 RMK AO2 P0000=
201001050100 SPECI KCLM 050100Z AUTO VRB03KT 1 1/2SM -RA BR OVC001 06/06 A2996 RMK AO2 P0000=
201001050053 METAR KCLM 050053Z AUTO VRB05KT 2SM -RA BR OVC001 06/06 A2995 RMK AO2 RAB28 SLP145 P0001 T00610056=
201001050046 SPECI KCLM 050046Z AUTO VRB03KT 2 1/2SM -RA BR OVC001 06/06 A2995 RMK AO2 RAB28 P0001=
201001050046 SPECI KCLM 050046Z AUTO VRB03KT 2 1/2SM -RA BR OVC001 06/06 A2995 RMK AO2 RAB28 P0001=
201001050026 SPECI KCLM 050026Z AUTO VRB04KT 6SM BR OVC001 06/06 A2995 RMK AO2=
201001050026 SPECI KCLM 050026Z AUTO VRB04KT 6SM BR OVC001 06/06 A2995 RMK AO2=
201001050019 SPECI KCLM 050019Z AUTO VRB03KT 2 1/2SM BR OVC001 06/06 A2995 RMK AO2=
201001050019 SPECI KCLM 050019Z AUTO VRB03KT 2 1/2SM BR OVC001 06/06 A2995 RMK AO2=
201001050013 SPECI KCLM 050013Z AUTO VRB05KT 3/4SM BR OVC001 06/06 A2995 RMK AO2=
201001050013 SPECI KCLM 050013Z AUTO VRB05KT 3/4SM BR OVC001 06/06 A2995 RMK AO2=
201001050002 SPECI KCLM 050002Z AUTO VRB05KT 1 1/2SM BR OVC001 06/06 A2994 RMK AO2=
201001050002 SPECI KCLM 050002Z AUTO VRB05KT 1 1/2SM BR OVC001 06/06 A2994 RMK AO2=
201001042353 METAR KCLM 042353Z AUTO VRB03KT 2 1/2SM BR OVC001 06/06 A2994 RMK AO2 RAE21B37E46 SLP141 P0000 60001 T00610056 10067 20061 53005=
201001042344 SPECI KCLM 042344Z AUTO 09007KT 2SM -RA BR OVC001 06/06 A2994 RMK AO2 RAE21B37 P0000=
201001042344 SPECI KCLM 042344Z AUTO 09007KT 2SM -RA BR OVC001 06/06 A2994 RMK AO2 RAE21B37 P0000=
201001042336 SPECI KCLM 042336Z AUTO 00000KT 3SM BR OVC001 06/06 A2994 RMK AO2 RAE21 P0000=
201001042336 SPECI KCLM 042336Z AUTO 00000KT 3SM BR OVC001 06/06 A2994 RMK AO2 RAE21 P0000=
201001042328 SPECI KCLM 042328Z AUTO 07004KT 2 1/2SM BR OVC001 06/06 A2993 RMK AO2 RAE21 P0000=
201001042328 SPECI KCLM 042328Z AUTO 07004KT 2 1/2SM BR OVC001 06/06 A2993 RMK AO2 RAE21 P0000=
201001042316 SPECI KCLM 042316Z AUTO VRB04KT 1 3/4SM -RA BR OVC001 06/06 A2993 RMK AO2 P0000=
201001042316 SPECI KCLM 042316Z AUTO VRB04KT 1 3/4SM -RA BR OVC001 06/06 A2993 RMK AO2 P0000=
201001042253 METAR KCLM 042253Z AUTO 00000KT 4SM -RA BR OVC001 06/06 A2993 RMK AO2 SLP137 P0000 T00610061=
201001042235 SPECI KCLM 042235Z AUTO 05004KT 3SM -RA BR OVC001 06/06 A2993 RMK AO2 P0000=
201001042235 SPECI KCLM 042235Z AUTO 05004KT 3SM -RA BR OVC001 06/06 A2993 RMK AO2 P0000=
201001042225 SPECI KCLM 042225Z AUTO VRB04KT 2SM -RA BR OVC001 06/06 A2993 RMK AO2 P0000=
201001042225 SPECI KCLM 042225Z AUTO VRB04KT 2SM -RA BR OVC001 06/06 A2993 RMK AO2 P0000=
201001042205 SPECI KCLM 042205Z AUTO VRB05KT 1/2SM -RA FG VV001 06/06 A2993 RMK AO2 P0000=
201001042205 SPECI KCLM 042205Z AUTO VRB05KT 1/2SM -RA FG VV001 06/06 A2993 RMK AO2 P0000=
201001042153 METAR KCLM 042153Z AUTO VRB04KT 3/4SM -RA BR OVC002 06/06 A2993 RMK AO2 SLP136 P0000 T00610056=
201001042142 SPECI KCLM 042142Z AUTO VRB05KT 1 1/4SM -RA BR OVC002 06/06 A2993 RMK AO2 P0000=
201001042142 SPECI KCLM 042142Z AUTO VRB05KT 1 1/4SM -RA BR OVC002 06/06 A2993 RMK AO2 P0000=
201001042119 SPECI KCLM 042119Z AUTO VRB03KT 3/4SM -RA BR OVC002 06/06 A2993 RMK AO2 P0000=
201001042119 SPECI KCLM 042119Z AUTO VRB03KT 3/4SM -RA BR OVC002 06/06 A2993 RMK AO2 P0000=
201001042109 SPECI KCLM 042109Z AUTO VRB04KT 2SM -RA BR OVC002 06/06 A2993 RMK AO2 P0000=
201001042109 SPECI KCLM 042109Z AUTO VRB04KT 2SM -RA BR OVC002 06/06 A2993 RMK AO2 P0000=
201001042053 METAR KCLM 042053Z AUTO 05006KT 3/4SM -RA BR OVC002 06/06 A2994 RMK AO2 SLP139 P0000 60001 T00610056 58010=
201001042025 SPECI KCLM 042025Z AUTO VRB06KT 1 3/4SM -RA BR OVC002 06/06 A2994 RMK AO2 P0000=
201001042025 SPECI KCLM 042025Z AUTO VRB06KT 1 3/4SM -RA BR OVC002 06/06 A2994 RMK AO2 P0000=
201001041953 METAR KCLM 041953Z AUTO 03006KT 2 1/2SM -RA BR OVC002 06/06 A2995 RMK AO2 RAB1854 CIG 001V005 SLP143 P0000 T00610056=
201001041853 METAR KCLM 041853Z AUTO 07006KT 10SM OVC002 07/06 A2996 RMK AO2 RAE50 SLP147 P0001 T00670061=
201001041753 METAR KCLM 041753Z AUTO 09005KT 10SM -RA OVC004 07/06 A2997 RMK AO2 SLP149 P0000 60012 T00670056 10067 20056 56012=
201001041738 SPECI KCLM 041738Z AUTO 07003KT 10SM -RA OVC004 06/06 A2997 RMK AO2 P0000=
201001041738 SPECI KCLM 041738Z AUTO 07003KT 10SM -RA OVC004 06/06 A2997 RMK AO2 P0000=
201001041653 METAR KCLM 041653Z AUTO 00000KT 4SM -RA BR OVC006 06/06 A2997 RMK AO2 CIG 004V010 SLP149 P0001 T00560056=
201001041605 SPECI KCLM 041605Z AUTO 00000KT 7SM -RA SCT004 OVC008 06/06 A2998 RMK AO2 CIG 006V011 P0000=
201001041605 SPECI KCLM 041605Z AUTO 00000KT 7SM -RA SCT004 OVC008 06/06 A2998 RMK AO2 CIG 006V011 P0000=
201001041553 METAR KCLM 041553Z AUTO 11003KT 6SM -RA BR BKN004 BKN010 OVC016 06/06 A2998 RMK AO2 CIG 003V008 SLP155 P0006 T00610056=
201001041453 METAR KCLM 041453Z AUTO 00000KT 6SM -RA BR OVC004 06/06 A3000 RMK AO2 SLP161 P0001 60005 T00610056 58021=
201001041432 SPECI KCLM 041432Z AUTO 00000KT 10SM -RA OVC004 06/06 A3001 RMK AO2 P0000=
201001041432 SPECI KCLM 041432Z AUTO 00000KT 10SM -RA OVC004 06/06 A3001 RMK AO2 P0000=
201001041353 METAR KCLM 041353Z AUTO 09003KT 10SM -RA OVC008 06/05 A3002 RMK AO2 SLP167 P0002 T00610050=
201001041300 SPECI KCLM 041300Z AUTO 13004KT 5SM -RA BR SCT004 OVC012 06/05 A3005 RMK AO2 P0001=
201001041300 SPECI KCLM 041300Z AUTO 13004KT 5SM -RA BR SCT004 OVC012 06/05 A3005 RMK AO2 P0001=
201001041253 METAR KCLM 041253Z AUTO 12003KT 5SM -RA BR BKN004 OVC012 06/06 A3005 RMK AO2 CIG 003V008 SLP178 P0002 T00610056=
201001041234 SPECI KCLM 041234Z AUTO 09003KT 4SM -RA BR BKN004 OVC008 06/06 A3006 RMK AO2 P0001=
201001041234 SPECI KCLM 041234Z AUTO 09003KT 4SM -RA BR BKN004 OVC008 06/06 A3006 RMK AO2 P0001=
201001041221 SPECI KCLM 041221Z AUTO 00000KT 5SM -RA BR FEW004 OVC008 06/06 A3006 RMK AO2 CIG 007V013 P0000=
201001041221 SPECI KCLM 041221Z AUTO 00000KT 5SM -RA BR FEW004 OVC008 06/06 A3006 RMK AO2 CIG 007V013 P0000=
201001041153 METAR KCLM 041153Z AUTO 12003KT 4SM -RA BR OVC010 06/06 A3006 RMK AO2 SLP182 P0000 60000 70001 T00560056 10061 20056 56014=
201001041053 METAR KCLM 041053Z AUTO 08003KT 10SM -RA OVC006 06/06 A3008 RMK AO2 RAB17 SLP189 P0000 T00610056=
201001041043 SPECI KCLM 041043Z AUTO 09003KT 10SM -RA OVC006 06/06 A3009 RMK AO2 RAB17 P0000=
201001041043 SPECI KCLM 041043Z AUTO 09003KT 10SM -RA OVC006 06/06 A3009 RMK AO2 RAB17 P0000=
201001040953 METAR KCLM 040953Z AUTO 10004KT 10SM OVC004 06/06 A3011 RMK AO2 RAE24 SLP196 P0000 T00610056=
201001040853 METAR KCLM 040853Z AUTO 08005KT 9SM -RA OVC004 06/06 A3011 RMK AO2 RAB0759 PRESFR SLP199 P0000 60000 T00610056 58014=
201001040831 SPECI KCLM 040831Z AUTO 13005KT 4SM -RA BR OVC004 06/05 A3013 RMK AO2 RAB0759 CIG 004V007 P0000=
201001040831 SPECI KCLM 040831Z AUTO 13005KT 4SM -RA BR OVC004 06/05 A3013 RMK AO2 RAB0759 CIG 004V007 P0000=
201001040824 SPECI KCLM 040824Z AUTO 00000KT 2 1/2SM -RA BR OVC004 06/05 A3013 RMK AO2 RAB0759 CIG 004V009 P0000=
201001040824 SPECI KCLM 040824Z AUTO 00000KT 2 1/2SM -RA BR OVC004 06/05 A3013 RMK AO2 RAB0759 CIG 004V009 P0000=
201001040753 METAR KCLM 040753Z AUTO 00000KT 6SM BR OVC004 06/06 A3014 RMK AO2 SLP208 T00610056 400720006=
201001040749 SPECI KCLM 040749Z AUTO 14003KT 6SM BR OVC004 06/06 A3014 RMK AO2 400720006=
201001040749 SPECI KCLM 040749Z AUTO 14003KT 6SM BR OVC004 06/06 A3014 RMK AO2 400720006=
201001040653 METAR KCLM 040653Z AUTO 11004KT 10SM OVC006 06/05 A3015 RMK AO2 RAE00 SLP213 P0000 T00610050=
201001040601 SPECI KCLM 040601Z AUTO 13003KT 8SM OVC008 06/05 A3016 RMK AO2 RAE00 CIG 007V011 P0000=
201001040601 SPECI KCLM 040601Z AUTO 13003KT 8SM OVC008 06/05 A3016 RMK AO2 RAE00 CIG 007V011 P0000=
201001040553 METAR KCLM 040553Z AUTO 00000KT 8SM -RA OVC010 06/05 A3017 RMK AO2 CIG 007V013 SLP217 P0000 60001 T00560050 10061 20050 58001=
201001040534 SPECI KCLM 040534Z AUTO 00000KT 7SM -RA FEW006 OVC011 06/05 A3017 RMK AO2 CIG 009V013 P0000=
201001040534 SPECI KCLM 040534Z AUTO 00000KT 7SM -RA FEW006 OVC011 06/05 A3017 RMK AO2 CIG 009V013 P0000=
201001040453 METAR KCLM 040453Z AUTO 00000KT 5SM -RA BR BKN006 OVC011 06/05 A3017 RMK AO2 CIG 005V009 SLP218 P0001 T00560050=
201001040449 SPECI KCLM 040449Z AUTO 00000KT 4SM -RA BR OVC009 06/05 A3017 RMK AO2 CIG 005V012 P0001=
201001040449 SPECI KCLM 040449Z AUTO 00000KT 4SM -RA BR OVC009 06/05 A3017 RMK AO2 CIG 005V012 P0001=
201001040419 SPECI KCLM 040419Z AUTO 00000KT 5SM -RA BR BKN013 OVC017 06/04 A3018 RMK AO2 P0000=
201001040419 SPECI KCLM 040419Z AUTO 00000KT 5SM -RA BR BKN013 OVC017 06/04 A3018 RMK AO2 P0000=
201001040353 METAR KCLM 040353Z AUTO 00000KT 9SM -RA BKN017 BKN023 OVC065 05/04 A3017 RMK AO2 RAB00 SLP218 P0000 T00500044=
201001040330 SPECI KCLM 040330Z AUTO 14003KT 10SM -RA FEW008 BKN019 OVC075 06/04 A3017 RMK AO2 RAB00 P0000=
201001040330 SPECI KCLM 040330Z AUTO 14003KT 10SM -RA FEW008 BKN019 OVC075 06/04 A3017 RMK AO2 RAB00 P0000=
201001040321 SPECI KCLM 040321Z AUTO 13003KT 9SM -RA SCT008 BKN065 OVC095 05/04 A3017 RMK AO2 RAB00 P0000=
201001040321 SPECI KCLM 040321Z AUTO 13003KT 9SM -RA SCT008 BKN065 OVC095 05/04 A3017 RMK AO2 RAB00 P0000=
201001040253 METAR KCLM 040253Z AUTO 13004KT 10SM FEW014 BKN033 OVC075 06/05 A3017 RMK AO2 RAE21 SLP219 P0000 60000 T00560050 56008=
201001040244 SPECI KCLM 040244Z AUTO 13003KT 10SM SCT014 BKN026 OVC033 06/05 A3017 RMK AO2 RAE21 P0000=
201001040244 SPECI KCLM 040244Z AUTO 13003KT 10SM SCT014 BKN026 OVC033 06/05 A3017 RMK AO2 RAE21 P0000=
201001040203 SPECI KCLM 040203Z AUTO 12003KT 6SM -RA BR BKN014 OVC022 06/05 A3017 RMK AO2 P0000=
201001040203 SPECI KCLM 040203Z AUTO 12003KT 6SM -RA BR BKN014 OVC022 06/05 A3017 RMK AO2 P0000=
201001040153 METAR KCLM 040153Z AUTO 14004KT 7SM -RA BKN016 OVC024 06/05 A3018 RMK AO2 RAB15 SLP220 P0000 T00560050=
201001040143 SPECI KCLM 040143Z AUTO 14003KT 8SM -RA BKN016 BKN024 OVC065 06/05 A3018 RMK AO2 RAB15 P0000=
201001040143 SPECI KCLM 040143Z AUTO 14003KT 8SM -RA BKN016 BKN024 OVC065 06/05 A3018 RMK AO2 RAB15 P0000=
201001040133 SPECI KCLM 040133Z AUTO 00000KT 10SM -RA BKN014 OVC065 06/05 A3018 RMK AO2 RAB15 P0000=
201001040133 SPECI KCLM 040133Z AUTO 00000KT 10SM -RA BKN014 OVC065 06/05 A3018 RMK AO2 RAB15 P0000=
201001040126 SPECI KCLM 040126Z AUTO 00000KT 10SM -RA SCT012 BKN017 OVC070 06/05 A3019 RMK AO2 RAB15 P0000=
201001040126 SPECI KCLM 040126Z AUTO 00000KT 10SM -RA SCT012 BKN017 OVC070 06/05 A3019 RMK AO2 RAB15 P0000=
201001040104 SPECI KCLM 040104Z AUTO 00000KT 10SM BKN012 BKN017 OVC022 06/05 A3019 RMK AO2=
201001040104 SPECI KCLM 040104Z AUTO 00000KT 10SM BKN012 BKN017 OVC022 06/05 A3019 RMK AO2=
201001040053 METAR KCLM 040053Z AUTO 00000KT 10SM SCT010 OVC020 06/05 A3019 RMK AO2 SLP224 T00610050=
201001040015 SPECI KCLM 040015Z AUTO 11004KT 10SM BKN020 OVC065 06/05 A3019 RMK AO2=
201001040015 SPECI KCLM 040015Z AUTO 11004KT 10SM BKN020 OVC065 06/05 A3019 RMK AO2=
201001032353 METAR KCLM 032353Z AUTO 10004KT 10SM FEW022 BKN065 OVC090 06/05 A3019 RMK AO2 SLP226 T00610050 10072 20039 58006=
201001032340 SPECI KCLM 032340Z AUTO 12004KT 10SM SCT016 SCT070 OVC090 06/05 A3020 RMK AO2=
201001032340 SPECI KCLM 032340Z AUTO 12004KT 10SM SCT016 SCT070 OVC090 06/05 A3020 RMK AO2=
201001032332 SPECI KCLM 032332Z AUTO 12004KT 10SM FEW013 BKN018 OVC090 06/06 A3020 RMK AO2=
201001032332 SPECI KCLM 032332Z AUTO 12004KT 10SM FEW013 BKN018 OVC090 06/06 A3020 RMK AO2=
201001032253 METAR KCLM 032253Z AUTO 11004KT 3SM BR SCT005 OVC014 06/05 A3021 RMK AO2 SLP230 T00610050=
201001032249 SPECI KCLM 032249Z AUTO 11004KT 2SM BR SCT005 OVC014 06/06 A3021 RMK AO2=
201001032249 SPECI KCLM 032249Z AUTO 11004KT 2SM BR SCT005 OVC014 06/06 A3021 RMK AO2=
201001032228 SPECI KCLM 032228Z AUTO 10003KT 6SM BR FEW005 OVC014 06/05 A3021 RMK AO2=
201001032228 SPECI KCLM 032228Z AUTO 10003KT 6SM BR FEW005 OVC014 06/05 A3021 RMK AO2=
201001032153 METAR KCLM 032153Z AUTO 08004KT 10SM SCT003 OVC016 06/06 A3021 RMK AO2 SLP232 T00610056=
201001032149 SPECI KCLM 032149Z AUTO 07003KT 10SM SCT003 OVC016 06/05 A3021 RMK AO2=
201001032149 SPECI KCLM 032149Z AUTO 07003KT 10SM SCT003 OVC016 06/05 A3021 RMK AO2=
201001032053 METAR KCLM 032053Z AUTO 10003KT 10SM OVC023 07/05 A3023 RMK AO2 SLP237 T00670050 58012=
201001032001 SPECI KCLM 032001Z AUTO 10004KT 10SM SCT006 BKN016 OVC025 07/04 A3024 RMK AO2=
201001032001 SPECI KCLM 032001Z AUTO 10004KT 10SM SCT006 BKN016 OVC025 07/04 A3024 RMK AO2=
201001031953 METAR KCLM 031953Z AUTO 12004KT 10SM SCT008 BKN014 OVC023 07/04 A3024 RMK AO2 SLP243 T00670044=
201001031853 METAR KCLM 031853Z AUTO 00000KT 10SM BKN008 OVC023 06/04 A3026 RMK AO2 SLP249 T00560039=
201001031849 SPECI KCLM 031849Z AUTO 00000KT 10SM BKN008 OVC023 06/04 A3026 RMK AO2=
201001031849 SPECI KCLM 031849Z AUTO 00000KT 10SM BKN008 OVC023 06/04 A3026 RMK AO2=
201001031831 SPECI KCLM 031831Z AUTO 00000KT 10SM SCT008 OVC023 06/03 A3026 RMK AO2=
201001031831 SPECI KCLM 031831Z AUTO 00000KT 10SM SCT008 OVC023 06/03 A3026 RMK AO2=
201001031824 SPECI KCLM 031824Z AUTO 00000KT 10SM BKN008 OVC023 05/04 A3027 RMK AO2=
201001031824 SPECI KCLM 031824Z AUTO 00000KT 10SM BKN008 OVC023 05/04 A3027 RMK AO2=
201001031815 SPECI KCLM 031815Z AUTO 00000KT 10SM SCT008 OVC023 05/04 A3027 RMK AO2=
201001031815 SPECI KCLM 031815Z AUTO 00000KT 10SM SCT008 OVC023 05/04 A3027 RMK AO2=
201001031753 METAR KCLM 031753Z AUTO 00000KT 10SM OVC023 04/04 A3027 RMK AO2 SLP251 T00390039 10039 20006 56004=
201001031709 SPECI KCLM 031709Z AUTO 22005KT 10SM BKN025 OVC120 03/02 A3027 RMK AO2=
201001031709 SPECI KCLM 031709Z AUTO 22005KT 10SM BKN025 OVC120 03/02 A3027 RMK AO2=
201001031653 METAR KCLM 031653Z AUTO 00000KT 10SM BKN120 02/02 A3027 RMK AO2 SLP253 T00220017=
201001031609 SPECI KCLM 031609Z AUTO 00000KT 10SM SCT023 BKN120 02/02 A3027 RMK AO2=
201001031609 SPECI KCLM 031609Z AUTO 00000KT 10SM SCT023 BKN120 02/02 A3027 RMK AO2=
201001031553 METAR KCLM 031553Z AUTO 22004KT 10SM BKN023 02/02 A3028 RMK AO2 SLP254 T00220017=
201001031540 SPECI KCLM 031540Z AUTO 23005KT 10SM BKN023 BKN110 03/02 A3028 RMK AO2=
201001031540 SPECI KCLM 031540Z AUTO 23005KT 10SM BKN023 BKN110 03/02 A3028 RMK AO2=
201001031453 METAR KCLM 031453Z AUTO 22003KT 10SM SCT021 01/01 A3028 RMK AO2 SLP257 T00110006 56005=
201001031401 SPECI KCLM 031401Z AUTO 00000KT 10SM BKN021 02/01 A3028 RMK AO2=
201001031401 SPECI KCLM 031401Z AUTO 00000KT 10SM BKN021 02/01 A3028 RMK AO2=
201001031353 METAR KCLM 031353Z AUTO 22004KT 10SM SCT021 02/01 A3028 RMK AO2 SLP256 T00170011=
201001031253 METAR KCLM 031253Z AUTO 21004KT 10SM CLR 02/01 A3029 RMK AO2 SLP259 T00170011=
201001031217 SPECI KCLM 031217Z AUTO 22005KT 10SM SCT020 02/02 A3029 RMK AO2=
201001031217 SPECI KCLM 031217Z AUTO 22005KT 10SM SCT020 02/02 A3029 RMK AO2=
201001031153 METAR KCLM 031153Z AUTO 21003KT 10SM OVC020 02/02 A3030 RMK AO2 SLP261 T00220017 10044 20017 58004=
201001031122 SPECI KCLM 031122Z AUTO 23005KT 10SM BKN022 02/02 A3031 RMK AO2=
201001031122 SPECI KCLM 031122Z AUTO 23005KT 10SM BKN022 02/02 A3031 RMK AO2=
201001031053 METAR KCLM 031053Z AUTO 00000KT 10SM FEW022 02/01 A3031 RMK AO2 SLP265 T00170011=
201001031002 SPECI KCLM 031002Z AUTO 23007KT 10SM SCT022 03/02 A3031 RMK AO2=
201001031002 SPECI KCLM 031002Z AUTO 23007KT 10SM SCT022 03/02 A3031 RMK AO2=
201001030953 METAR KCLM 030953Z AUTO 23005KT 10SM BKN022 03/02 A3031 RMK AO2 SLP266 T00330022=
201001030922 SPECI KCLM 030922Z AUTO 00000KT 10SM BKN024 03/02 A3030 RMK AO2=
201001030922 SPECI KCLM 030922Z AUTO 00000KT 10SM BKN024 03/02 A3030 RMK AO2=
201001030853 METAR KCLM 030853Z AUTO 23006KT 10SM FEW017 SCT025 03/02 A3031 RMK AO2 SLP265 T00330022 51005=
201001030841 SPECI KCLM 030841Z AUTO 23005KT 10SM FEW019 SCT028 03/02 A3031 RMK AO2=
201001030841 SPECI KCLM 030841Z AUTO 23005KT 10SM FEW019 SCT028 03/02 A3031 RMK AO2=
201001030823 SPECI KCLM 030823Z AUTO 23006KT 10SM FEW019 OVC028 04/02 A3031 RMK AO2=
201001030823 SPECI KCLM 030823Z AUTO 23006KT 10SM FEW019 OVC028 04/02 A3031 RMK AO2=
201001030804 SPECI KCLM 030804Z AUTO 23007KT 10SM OVC030 04/03 A3030 RMK AO2=
201001030804 SPECI KCLM 030804Z AUTO 23007KT 10SM OVC030 04/03 A3030 RMK AO2=
201001030753 METAR KCLM 030753Z AUTO 22004KT 10SM OVC028 04/03 A3030 RMK AO2 SLP264 T00440028 401000039=
201001030653 METAR KCLM 030653Z AUTO 23005KT 10SM OVC022 04/03 A3030 RMK AO2 SLP262 T00440033=
201001030632 SPECI KCLM 030632Z AUTO 24006KT 10SM BKN022 OVC034 04/03 A3029 RMK AO2=
201001030632 SPECI KCLM 030632Z AUTO 24006KT 10SM BKN022 OVC034 04/03 A3029 RMK AO2=
201001030553 METAR KCLM 030553Z AUTO 25007KT 10SM SCT023 BKN030 BKN039 04/03 A3029 RMK AO2 SLP260 60000 T00440033 10072 20039 53012=
201001030500 SPECI KCLM 030500Z AUTO 24005KT 10SM BKN021 05/04 A3028 RMK AO2=
201001030500 SPECI KCLM 030500Z AUTO 24005KT 10SM BKN021 05/04 A3028 RMK AO2=
201001030453 METAR KCLM 030453Z AUTO 00000KT 10SM SCT021 04/04 A3028 RMK AO2 SLP256 T00440039=
201001030441 SPECI KCLM 030441Z AUTO 23006KT 10SM FEW019 04/04 A3027 RMK AO2=
201001030441 SPECI KCLM 030441Z AUTO 23006KT 10SM FEW019 04/04 A3027 RMK AO2=
201001030418 SPECI KCLM 030418Z AUTO 00000KT 10SM BKN019 04/04 A3027 RMK AO2=
201001030418 SPECI KCLM 030418Z AUTO 00000KT 10SM BKN019 04/04 A3027 RMK AO2=
201001030353 METAR KCLM 030353Z AUTO 00000KT 10SM SCT017 SCT022 06/04 A3027 RMK AO2 SLP251 T00560044=
201001030253 METAR KCLM 030253Z AUTO 00000KT 10SM BKN015 OVC030 06/04 A3026 RMK AO2 SLP247 60000 T00560044 51010=
201001030220 SPECI KCLM 030220Z AUTO 00000KT 10SM SCT027 SCT038 07/05 A3025 RMK AO2=
201001030220 SPECI KCLM 030220Z AUTO 00000KT 10SM SCT027 SCT038 07/05 A3025 RMK AO2=
201001030153 METAR KCLM 030153Z AUTO 00000KT 10SM FEW017 OVC025 07/05 A3025 RMK AO2 RAB10E37 SLP245 P0000 T00720050=
201001030053 METAR KCLM 030053Z AUTO 00000KT 10SM BKN015 OVC020 07/06 A3024 RMK AO2 SLP242 T00720056=
201001030022 SPECI KCLM 030022Z AUTO 00000KT 10SM FEW019 BKN025 OVC060 08/06 A3023 RMK AO2=
201001030022 SPECI KCLM 030022Z AUTO 00000KT 10SM FEW019 BKN025 OVC060 08/06 A3023 RMK AO2=
201001022353 METAR KCLM 022353Z AUTO 00000KT 10SM FEW016 BKN030 OVC060 08/06 A3023 RMK AO2 SLP238 T00830056 10100 20061 53018=
201001022253 METAR KCLM 022253Z AUTO 03003KT 10SM SCT012 OVC018 08/06 A3020 RMK AO2 SLP228 T00830061=
201001022205 SPECI KCLM 022205Z AUTO 08003KT 10SM BKN012 09/07 A3018 RMK AO2=
201001022205 SPECI KCLM 022205Z AUTO 08003KT 10SM BKN012 09/07 A3018 RMK AO2=
201001022153 METAR KCLM 022153Z AUTO 00000KT 10SM BKN016 08/07 A3018 RMK AO2 SLP222 T00830067=
201001022126 SPECI KCLM 022126Z AUTO 00000KT 10SM BKN016 08/06 A3017 RMK AO2=
201001022126 SPECI KCLM 022126Z AUTO 00000KT 10SM BKN016 08/06 A3017 RMK AO2=
201001022053 METAR KCLM 022053Z AUTO 00000KT 10SM CLR 08/06 A3017 RMK AO2 SLP219 T00780061 53013=
201001021953 METAR KCLM 021953Z AUTO 00000KT 10SM FEW090 09/07 A3016 RMK AO2 SLP214 T00940067=
201001021853 METAR KCLM 021853Z AUTO 12003KT 10SM OVC090 08/06 A3015 RMK AO2 SLP211 T00830061=
201001021753 METAR KCLM 021753Z AUTO 00000KT 10SM OVC080 06/06 A3013 RMK AO2 SLP206 60000 T00610061 10067 20056 53019=
201001021653 METAR KCLM 021653Z AUTO 00000KT 3SM BR FEW033 SCT065 OVC080 06/06 A3011 RMK AO2 SLP198 T00610056=
201001021641 SPECI KCLM 021641Z AUTO 00000KT 3SM BR SCT070 OVC080 07/06 A3011 RMK AO2=
201001021641 SPECI KCLM 021641Z AUTO 00000KT 3SM BR SCT070 OVC080 07/06 A3011 RMK AO2=
201001021632 SPECI KCLM 021632Z AUTO 00000KT 1 3/4SM BR SCT065 OVC080 06/06 A3010 RMK AO2=
201001021632 SPECI KCLM 021632Z AUTO 00000KT 1 3/4SM BR SCT065 OVC080 06/06 A3010 RMK AO2=
201001021614 SPECI KCLM 021614Z AUTO 00000KT 3SM BR OVC085 07/06 A3009 RMK AO2=
201001021614 SPECI KCLM 021614Z AUTO 00000KT 3SM BR OVC085 07/06 A3009 RMK AO2=
201001021553 METAR KCLM 021553Z AUTO 00000KT 1 3/4SM BR BKN090 OVC110 06/06 A3009 RMK AO2 VIS 1/2V4 SLP190 T00610056=
201001021538 SPECI KCLM 021538Z AUTO 00000KT 2 1/2SM BR SCT020 BKN055 OVC110 06/06 A3008 RMK AO2=
201001021538 SPECI KCLM 021538Z AUTO 00000KT 2 1/2SM BR SCT020 BKN055 OVC110 06/06 A3008 RMK AO2=
201001021453 METAR KCLM 021453Z AUTO 14004KT 10SM FEW014 BKN020 OVC055 07/06 A3008 RMK AO2 SLP186 60000 T00670061 51007=
201001021420 SPECI KCLM 021420Z AUTO 10003KT 9SM SCT010 BKN015 OVC050 07/06 A3007 RMK AO2=
201001021420 SPECI KCLM 021420Z AUTO 10003KT 9SM SCT010 BKN015 OVC050 07/06 A3007 RMK AO2=
201001021353 METAR KCLM 021353Z AUTO 15003KT 10SM OVC012 07/06 A3007 RMK AO2 RAE38 SLP185 P0000 T00670061=
201001021253 METAR KCLM 021253Z AUTO 00000KT 10SM -RA BKN012 OVC017 06/06 A3006 RMK AO2 SLP183 P0000 T00610056=
201001021153 METAR KCLM 021153Z AUTO 00000KT 10SM -RA OVC010 06/05 A3005 RMK AO2 RAB49 SLP179 P0000 60000 70025 T00560050 10078 20050 51026=
201001021138 SPECI KCLM 021138Z AUTO 00000KT 10SM BKN012 BKN047 OVC090 06/05 A3005 RMK AO2=
201001021138 SPECI KCLM 021138Z AUTO 00000KT 10SM BKN012 BKN047 OVC090 06/05 A3005 RMK AO2=
201001021106 SPECI KCLM 021106Z AUTO 00000KT 10SM BKN018 BKN042 OVC090 06/05 A3004 RMK AO2=
201001021106 SPECI KCLM 021106Z AUTO 00000KT 10SM BKN018 BKN042 OVC090 06/05 A3004 RMK AO2=
201001021053 METAR KCLM 021053Z AUTO 23003KT 10SM SCT018 BKN060 OVC070 06/05 A3004 RMK AO2 SLP175 T00610050=
201001020953 METAR KCLM 020953Z AUTO 00000KT 10SM SCT028 OVC060 06/06 A3001 RMK AO2 SLP163 T00610056=
201001020853 METAR KCLM 020853Z AUTO 16004KT 10SM SCT016 BKN026 OVC110 06/06 A2998 RMK AO2 SLP153 60000 T00610056 53029=
201001020839 SPECI KCLM 020839Z AUTO 00000KT 10SM BKN016 OVC110 07/06 A2997 RMK AO2=
201001020839 SPECI KCLM 020839Z AUTO 00000KT 10SM BKN016 OVC110 07/06 A2997 RMK AO2=
201001020753 METAR KCLM 020753Z AUTO 25004KT 10SM SCT060 OVC100 06/06 A2995 RMK AO2 SLP143 T00610056 400890022=
201001020653 METAR KCLM 020653Z AUTO 13004KT 10SM FEW024 BKN060 OVC100 06/06 A2992 RMK AO2 RAB0555E23 SLP133 P0000 T00560056=
201001020641 SPECI KCLM 020641Z AUTO 00000KT 10SM FEW027 OVC065 06/06 A2991 RMK AO2 RAB0555E23 P0000=
201001020641 SPECI KCLM 020641Z AUTO 00000KT 10SM FEW027 OVC065 06/06 A2991 RMK AO2 RAB0555E23 P0000=
201001020632 SPECI KCLM 020632Z AUTO 16003KT 10SM FEW017 BKN027 OVC070 06/06 A2991 RMK AO2 RAB0555E23 P0000=
201001020632 SPECI KCLM 020632Z AUTO 16003KT 10SM FEW017 BKN027 OVC070 06/06 A2991 RMK AO2 RAB0555E23 P0000=
201001020553 METAR KCLM 020553Z AUTO 00000KT 10SM SCT016 OVC060 08/06 A2989 RMK AO2 RAE19 SLP124 P0000 60002 T00780061 10083 20061 51038=
201001020453 METAR KCLM 020453Z AUTO 23005KT 10SM -RA FEW016 OVC060 07/06 A2986 RMK AO2 RAB0359 SLP114 P0000 T00720061=
201001020353 METAR KCLM 020353Z AUTO 25008KT 10SM OVC060 08/06 A2983 RMK AO2 RAE39 SLP102 P0000 T00830056=
201001020253 METAR KCLM 020253Z AUTO 24009KT 10SM -RA BKN048 BKN060 OVC095 07/06 A2978 RMK AO2 SLP086 P0000 60002 T00720061 53033=
201001020153 METAR KCLM 020153Z AUTO 24004KT 10SM -RA OVC060 07/06 A2975 RMK AO2 SLP077 P0000 T00720061=
201001020053 METAR KCLM 020053Z AUTO 26005KT 10SM -RA BKN045 OVC055 08/06 A2971 RMK AO2 SLP061 P0002 T00780061=
201001012353 METAR KCLM 012353Z AUTO 00000KT 9SM -RA OVC041 08/06 A2968 RMK AO2 SLP053 P0004 60009 T00780061 10089 20067 53013=
201001012253 METAR KCLM 012253Z AUTO 00000KT 10SM -RA OVC045 09/07 A2966 RMK AO2 RAE2158B15 SLP045 P0000 T00890067=
201001012153 METAR KCLM 012153Z AUTO 14004KT 10SM -RA OVC047 08/08 A2964 RMK AO2 SLP040 P0002 T00830078=
201001012053 METAR KCLM 012053Z AUTO 00000KT 5SM -RA BR OVC043 08/08 A2964 RMK AO2 SLP039 P0001 60003 T00830078 53009=
201001011953 METAR KCLM 011953Z AUTO 00000KT 10SM -RA OVC046 08/07 A2963 RMK AO2 SLP033 P0002 T00830072=
201001011853 METAR KCLM 011853Z AUTO 00000KT 10SM -RA FEW007 BKN045 OVC055 08/07 A2963 RMK AO2 SLP034 P0000 T00780067=
201001011846 SPECI KCLM 011846Z AUTO 00000KT 10SM FEW003 BKN043 OVC049 08/07 A2963 RMK AO2 RAE39 P0000=
201001011846 SPECI KCLM 011846Z AUTO 00000KT 10SM FEW003 BKN043 OVC049 08/07 A2963 RMK AO2 RAE39 P0000=
201001011753 METAR KCLM 011753Z AUTO 24003KT 10SM -RA BKN040 OVC047 07/06 A2961 RMK AO2 SLP030 P0002 60014 T00670061 10067 20033 58006=
201001011653 METAR KCLM 011653Z AUTO 00000KT 5SM -RA BR OVC043 06/05 A2962 RMK AO2 SLP033 P0004 T00560050=
201001011553 METAR KCLM 011553Z AUTO 00000KT 5SM -RA BR OVC041 05/04 A2963 RMK AO2 SLP036 P0003 T00500044=
201001011453 METAR KCLM 011453Z AUTO 00000KT 8SM -RA BKN047 OVC055 05/04 A2963 RMK AO2 SLP036 P0000 60005 T00500044 58012=
201001011438 SPECI KCLM 011438Z AUTO 16003KT 8SM -RA SCT003 BKN041 OVC050 04/04 A2964 RMK AO2 P0000=
201001011438 SPECI KCLM 011438Z AUTO 16003KT 8SM -RA SCT003 BKN041 OVC050 04/04 A2964 RMK AO2 P0000=
201001011429 SPECI KCLM 011429Z AUTO 17003KT 9SM -RA BKN003 BKN047 OVC055 04/04 A2965 RMK AO2 P0000=
201001011429 SPECI KCLM 011429Z AUTO 17003KT 9SM -RA BKN003 BKN047 OVC055 04/04 A2965 RMK AO2 P0000=
201001011416 SPECI KCLM 011416Z AUTO 15005KT 8SM -RA SCT003 BKN045 OVC050 04/04 A2964 RMK AO2 P0000=
201001011416 SPECI KCLM 011416Z AUTO 15005KT 8SM -RA SCT003 BKN045 OVC050 04/04 A2964 RMK AO2 P0000=
201001011353 METAR KCLM 011353Z AUTO 30004KT 7SM -RA BKN046 OVC060 04/04 A2965 RMK AO2 SLP042 P0002 T00440039=
201001011253 METAR KCLM 011253Z AUTO 25003KT 4SM -RA BR BKN038 OVC048 04/04 A2967 RMK AO2 RAB10 SLP049 P0003 T00440044=
201001011153 METAR KCLM 011153Z AUTO 20003KT 10SM SCT090 04/04 A2967 RMK AO2 SLP048 70004 T00390039 10050 20022 58032=
201001011140 SPECI KCLM 011140Z AUTO 13005KT 10SM FEW005 SCT090 03/03 A2968 RMK AO2=
201001011140 SPECI KCLM 011140Z AUTO 13005KT 10SM FEW005 SCT090 03/03 A2968 RMK AO2=
201001011132 SPECI KCLM 011132Z AUTO 13005KT 2SM BR SCT005 SCT090 03/03 A2969 RMK AO2=
201001011132 SPECI KCLM 011132Z AUTO 13005KT 2SM BR SCT005 SCT090 03/03 A2969 RMK AO2=
201001011126 SPECI KCLM 011126Z AUTO 10003KT 1 3/4SM BR BKN005 03/03 A2970 RMK AO2=
201001011126 SPECI KCLM 011126Z AUTO 10003KT 1 3/4SM BR BKN005 03/03 A2970 RMK AO2=
201001011104 SPECI KCLM 011104Z AUTO 15007KT 3SM BR BKN005 BKN065 OVC080 02/02 A2972 RMK AO2=
201001011104 SPECI KCLM 011104Z AUTO 15007KT 3SM BR BKN005 BKN065 OVC080 02/02 A2972 RMK AO2=
201001011057 SPECI KCLM 011057Z AUTO 00000KT 3SM BR SCT003 BKN065 BKN080 03/03 A2973 RMK AO2=
201001011057 SPECI KCLM 011057Z AUTO 00000KT 3SM BR SCT003 BKN065 BKN080 03/03 A2973 RMK AO2=
201001011053 METAR KCLM 011053Z AUTO 00000KT 1 1/2SM BR SCT003 SCT060 BKN075 04/04 A2973 RMK AO2 SLP069 T00390039=
201001011040 SPECI KCLM 011040Z AUTO 00000KT 1 3/4SM BR FEW075 03/03 A2974 RMK AO2 VIS 1/2V5=
201001011040 SPECI KCLM 011040Z AUTO 00000KT 1 3/4SM BR FEW075 03/03 A2974 RMK AO2 VIS 1/2V5=
201001011028 SPECI KCLM 011028Z AUTO 00000KT 6SM BR FEW017 SCT023 SCT070 03/03 A2974 RMK AO2=
201001011028 SPECI KCLM 011028Z AUTO 00000KT 6SM BR FEW017 SCT023 SCT070 03/03 A2974 RMK AO2=
201001010953 METAR KCLM 010953Z AUTO 09004KT 10SM OVC015 04/04 A2972 RMK AO2 SLP066 T00440039=
201001010853 METAR KCLM 010853Z AUTO 00000KT 10SM OVC015 04/04 A2976 RMK AO2 PRESFR SLP081 T00440039 58001=
201001010839 SPECI KCLM 010839Z AUTO 22004KT 10SM FEW006 OVC015 04/04 A2979 RMK AO2=
201001010839 SPECI KCLM 010839Z AUTO 22004KT 10SM FEW006 OVC015 04/04 A2979 RMK AO2=
201001010753 METAR KCLM 010753Z AUTO 21004KT 10SM OVC006 05/04 A2978 RMK AO2 SLP086 T00500039 400501011=
201001010653 METAR KCLM 010653Z AUTO 00000KT 10SM OVC006 04/04 A2978 RMK AO2 SLP084 T00440039=
201001010553 METAR KCLM 010553Z AUTO 26005KT 10SM OVC008 04/04 A2977 RMK AO2 CIG 006V011 SLP082 60002 T00440039 10050 20039 51007=
201001010453 METAR KCLM 010453Z AUTO 26005KT 10SM OVC008 05/04 A2976 RMK AO2 SLP079 T00500044=
201001010353 METAR KCLM 010353Z AUTO 26007KT 10SM BKN006 OVC060 04/04 A2976 RMK AO2 SLP079 T00440039=
201001010347 SPECI KCLM 010347Z AUTO 25006KT 10SM SCT009 BKN013 OVC060 04/03 A2975 RMK AO2=
201001010347 SPECI KCLM 010347Z AUTO 25006KT 10SM SCT009 BKN013 OVC060 04/03 A2975 RMK AO2=
201001010300 SPECI KCLM 010300Z AUTO 24005KT 10SM SCT011 BKN060 04/03 A2975 RMK AO2=
201001010300 SPECI KCLM 010300Z AUTO 24005KT 10SM SCT011 BKN060 04/03 A2975 RMK AO2=
201001010253 METAR KCLM 010253Z AUTO 24006KT 10SM BKN011 OVC060 04/04 A2975 RMK AO2 RAB07E18 SLP075 P0000 60002 T00440039 51009=
201001010233 SPECI KCLM 010233Z AUTO 24006KT 10SM FEW007 OVC060 04/04 A2974 RMK AO2 RAB07E18 P0000=
201001010233 SPECI KCLM 010233Z AUTO 24006KT 10SM FEW007 OVC060 04/04 A2974 RMK AO2 RAB07E18 P0000=
201001010225 SPECI KCLM 010225Z AUTO 25006KT 10SM FEW007 BKN012 OVC060 04/04 A2974 RMK AO2 RAB07E18 P0000=
201001010225 SPECI KCLM 010225Z AUTO 25006KT 10SM FEW007 BKN012 OVC060 04/04 A2974 RMK AO2 RAB07E18 P0000=
201001010153 METAR KCLM 010153Z AUTO 25007KT 10SM BKN012 OVC060 04/04 A2974 RMK AO2 RAE31 SLP074 P0000 T00440039=
201001010139 SPECI KCLM 010139Z AUTO 25008KT 10SM FEW009 BKN014 OVC080 04/04 A2973 RMK AO2 RAE31 P0000=
201001010139 SPECI KCLM 010139Z AUTO 25008KT 10SM FEW009 BKN014 OVC080 04/04 A2973 RMK AO2 RAE31 P0000=
201001010131 SPECI KCLM 010131Z AUTO 25008KT 10SM SCT010 BKN016 OVC080 04/04 A2973 RMK AO2 RAE31 P0000=
201001010131 SPECI KCLM 010131Z AUTO 25008KT 10SM SCT010 BKN016 OVC080 04/04 A2973 RMK AO2 RAE31 P0000=
201001010115 SPECI KCLM 010115Z AUTO 26007KT 10SM -RA SCT010 OVC014 04/04 A2973 RMK AO2 P0000=
201001010115 SPECI KCLM 010115Z AUTO 26007KT 10SM -RA SCT010 OVC014 04/04 A2973 RMK AO2 P0000=
201001010053 METAR KCLM 010053Z AUTO 27007KT 6SM -RA BR BKN016 OVC035 04/04 A2973 RMK AO2 RAB2357 SLP071 P0002 T00440039=

# No short TAF reports from KCLM in databse.

###################################
#  large TAF from KCLM
###################################
201001312330 TAF KCLM 312330Z 0100/0124 00000KT P6SM BKN015 OVC035
                      TEMPO 0100/0104 SCT015 BKN035 FM010600 24003KT
                       P6SM OVC025
                      TEMPO 0106/0110 SCT025 OVC100 FM011600 23004KT
                       P6SM BKN035 OVC080 FM012100 05003KT P6SM
                       OVC035=
201001311737 TAF KCLM 311737Z 3118/0118 24006KT P6SM SCT015 BKN025 OVC040
                      TEMPO 3118/3122 BKN013 OVC022 FM010000 VRB03KT
                       P6SM SCT018 OVC040 FM010600 20002KT P6SM
                       OVC025=
201001311120 TAF KCLM 311120Z 3112/0112 VRB03KT 6SM BR SCT003 BKN035
                      TEMPO 3112/3115 1SM BR OVC003 FM311500 VRB03KT
                       2SM BR BKN006 OVC012 FM311700 VRB03KT P6SM
                       SCT015 BKN025 FM010000 VRB03KT P6SM SCT018
                       OVC040=
201001310931 KCLM 310931Z 3110/0106 VRB03KT 6SM BR SCT003 BKN030
                      TEMPO 3110/3114 2SM BR OVC003 FM311400 VRB03KT
                       2SM BR BKN006 OVC012 FM311800 VRB03KT P6SM
                       SCT015 BKN025 FM010000 VRB03KT P6SM SCT018
                       OVC040=
201001310803 KCLM 310803Z 3108/0106 VRB03KT 5SM BR SCT003 OVC012
                      TEMPO 3108/3110 2SM BR OVC003 FM311000 VRB03KT
                       1SM -DZ BR OVC003 FM311700 VRB03KT 2SM BR
                       BKN006 OVC012 FM312000 VRB03KT P6SM SCT015
                       BKN025 FM010000 VRB03KT P6SM SCT018 OVC040=
201001310548 TAF KCLM 310548Z 3106/0106 VRB03KT P6SM SCT012 OVC035
                      TEMPO 3106/3108 2SM BR OVC012 FM310800 VRB03KT
                       5SM BR SCT006 OVC012
                      TEMPO 3108/3110 2SM BR OVC006 FM311000 VRB03KT
                       1SM -DZ BR OVC004 FM311700 VRB03KT 2SM BR
                       BKN006 OVC012 FM312000 VRB03KT P6SM SCT015
                       BKN025 FM010000 VRB03KT P6SM SCT018 OVC040=
201001310301 KCLM 310301Z 3103/3124 00000KT 5SM -RA BR SCT004 BKN030 OVC050
                       TEMPO 3103/3107 1/2SM -DZ FG OVC004 FM310800
                       24003KT 5SM BR VCSH SCT010 OVC022=
201001310158 KCLM 310158Z 3102/3124 00000KT 5SM -RA BR BKN004 BKN010 OVC050
                       TEMPO 3102/3106 1 1/2SM -DZ BR OVC004 FM310800
                       24003KT 5SM BR VCSH SCT010 OVC022=
201001302333 TAF KCLM 302333Z 3100/3124 00000KT P6SM VCSH SCT004 OVC008
                      TEMPO 3100/3104 5SM -SHRA BR OVC003 FM310800
                       24003KT 5SM BR VCSH SCT010 OVC022=
201001302054 KCLM 302054Z 3021/3118 00000KT P6SM SCT005 OVC040
                      TEMPO 3021/3024 5SM -SHRA BR BKN005 OVC012
                       FM310000 00000KT P6SM VCSH SCT018 OVC030
                       FM310900 23004KT P6SM VCSH SCT022 OVC035=
201001301740 TAF KCLM 301740Z 3018/3118 00000KT P6SM SCT012 OVC040
                      TEMPO 3018/3022 5SM -SHRA BR OVC012 FM302200
                       00000KT P6SM VCSH SCT018 OVC030 FM310900
                       23004KT P6SM VCSH SCT022 OVC035=
201001301154 TAF KCLM 301154Z 3012/3112 VRB03KT P6SM -RA OVC009
                      TEMPO 3012/3014 4SM -RA BR OVC012 FM301800
                       25003KT 4SM -RA OVC012 FM310200 VRB03KT
                       2SM -DZ BR OVC008=
201001301005 KCLM 301005Z 3010/3106 VRB03KT P6SM -RA SCT012 BKN040 OVC060
                      TEMPO 3010/3014 4SM -RA BR OVC012 FM301800
                       25003KT P6SM VCSH BKN035 OVC080=
201001300525 TAF KCLM 300525Z 3006/3106 20002KT P6SM OVC050
                      TEMPO 3006/3010 -RA FM301000 VRB03KT P6SM
                       -RA BKN040 OVC060 FM302100 25003KT P6SM
                       VCSH BKN035 OVC080=
201001292340 TAF KCLM 292340Z 3000/3024 23003KT P6SM BKN060 OVC090
                      TEMPO 3002/3006 -RA OVC050 FM300600 20002KT
                       P6SM OVC050
                      TEMPO 3006/3010 -RA FM301000 VRB03KT P6SM
                       -RA BKN040 OVC060 FM302100 25003KT P6SM
                       VCSH BKN035 OVC080=
201001291741 TAF KCLM 291741Z 2918/3018 23004KT P6SM SCT070 OVC100 FM300000
                       20002KT P6SM BKN050 OVC080 FM300600 20002KT
                       P6SM -RA OVC050=
201001291146 TAF KCLM 291146Z 2912/3012 VRB03KT P6SM SCT080 OVC100=
201001290527 TAF KCLM 290527Z 2906/3006 VRB03KT P6SM BKN100 OVC200 FM291200
                       VRB03KT P6SM SCT080 OVC100=
201001282334 TAF KCLM 282334Z 2900/2924 VRB03KT P6SM BKN130 OVC200 FM291200
                       VRB03KT P6SM SCT080 OVC130=
201001281729 TAF KCLM 281729Z 2818/2918 VRB04KT P6SM BKN120 OVC200 FM291200
                       VRB04KT P6SM BKN080 OVC120
                      PROB30 2912/2918 -RA=
201001281530 KCLM 281530Z 2816/2912 VRB03KT P6SM SCT012 OVC100
                      TEMPO 2816/2818 BKN012 OVC100 FM281800 07005KT
                       P6SM SCT080 OVC100 FM290000 07004KT P6SM
                       BKN080 OVC100
                      TEMPO 2902/2906 -RA FM290600 VRB03KT P6SM
                       -RA OVC070=
201001281133 TAF KCLM 281133Z 2812/2912 VRB03KT P6SM SCT009 SCT015 OVC100
                      TEMPO 2812/2814 00000KT 4SM BR BKN009 BKN100
                       FM281700 07005KT P6SM SCT080 OVC100 FM290000
                       07004KT P6SM BKN080 OVC100
                      TEMPO 2902/2906 -RA FM290600 VRB03KT P6SM
                       -RA OVC070=
201001281002 KCLM 281002Z 2810/2906 VRB03KT P6SM SCT009 SCT015 OVC120
                      TEMPO 2810/2814 00000KT 4SM BR BKN009 BKN120
                       FM281800 07006KT P6SM SCT080 OVC130 FM290000
                       07006KT P6SM BKN080 OVC120=
201001280709 KCLM 280709Z 2807/2906 VRB03KT P6SM SCT015 OVC120
                      TEMPO 2808/2812 00000KT 4SM BR SCT006 BKN120
                       FM281800 07006KT P6SM SCT080 OVC130 FM290000
                       07006KT P6SM BKN080 OVC120=
201001280539 TAF KCLM 280539Z 2806/2906 VRB03KT P6SM OVC015
                      TEMPO 2808/2812 00000KT 3SM BR BKN006 OVC016
                       FM281800 07006KT P6SM SCT080 OVC130 FM290000
                       07006KT P6SM BKN080 OVC120=
201001280405 KCLM 280405Z 2804/2824 VRB03KT P6SM OVC015
                      TEMPO 2808/2812 00000KT 3SM BR BKN006 OVC016
                       FM281800 07006KT P6SM SCT080 OVC130=
201001272334 TAF KCLM 272334Z 2800/2824 VRB03KT P6SM SCT005 BKN130 OVC200
                      TEMPO 2800/2804 BKN005 OVC130 FM280600 VRB03KT
                       P6SM FEW005 BKN130 OVC200 FM281800 07006KT
                       P6SM SCT080 OVC130=
201001272156 KCLM 272156Z 2722/2818 VRB04KT P6SM SCT008 SCT130 OVC200
                      TEMPO 2722/2724 BKN008 BKN130 OVC200 FM280000
                       VRB04KT P6SM SCT130 OVC200 FM281200 VRB04KT
                       P6SM FEW080 OVC130=
201001272031 KCLM 272031Z 2721/2818 VRB04KT P6SM SCT008 BKN200
                      TEMPO 2721/2722 BKN008 BKN200 FM272200 VRB04KT
                       P6SM FEW130 OVC200 FM281200 VRB04KT P6SM
                       FEW080 OVC130=
201001271745 TAF KCLM 271745Z 2718/2818 VRB04KT P6SM VCFG BKN009 FM272000 VRB04KT
                       P6SM SCT012 BKN200
                      TEMPO 2720/2722 BKN012 BKN200 FM272200 VRB04KT
                       P6SM FEW130 OVC200 FM281200 VRB04KT P6SM
                       FEW080 OVC130=
201001271529 KCLM 271529Z 2715/2812 VRB03KT P6SM VCFG BKN020 FM271800 VRB03KT
                       P6SM SCT020 FM272100 VRB03KT P6SM SCT006
                       BKN200 FM280400 VRB03KT P6SM BKN100 BKN200=
201001271128 TAF KCLM 271128Z 2712/2812 VRB03KT P6SM SCT006 BKN025 BKN200
                      TEMPO 2712/2716 4SM BR BKN006 FM271800 03003KT
                       P6SM BKN006 FM272100 VRB03KT P6SM SCT006
                       BKN200 FM280400 VRB03KT P6SM BKN100 BKN200=
201001270525 TAF KCLM 270525Z 2706/2806 VRB03KT P6SM BKN050 FM271500 VRB03KT
                       P6SM BKN200
                      TEMPO 2717/2721 BKN008 FM280400 VRB03KT P6SM
                       BKN100 BKN200=
201001262333 TAF KCLM 262333Z 2700/2724 VRB03KT P6SM BKN045
                      TEMPO 2700/2703 6SM -SHRA BR FM271500 VRB03KT
                       P6SM BKN200
                      TEMPO 2717/2721 BKN008=
201001261742 TAF KCLM 261742Z 2618/2718 VRB03KT P6SM SCT010 BKN040 FM262100
                       VRB03KT P6SM BKN060=
201001261143 TAF KCLM 261143Z 2612/2712 VRB03KT P6SM BKN040 BKN200 FM261700
                       VRB03KT P6SM SCT050 SCT200 FM262000 VRB03KT
                       P6SM SCT100 FM270000 VRB04KT P6SM BKN100=
201001260542 TAF KCLM 260542Z 2606/2706 VRB03KT P6SM BKN100 FM261400 VRB03KT
                       P6SM SCT012 OVC050
                      TEMPO 2614/2616 BKN012 OVC045 FM261700 VRB03KT
                       P6SM BKN050 BKN100 FM262000 VRB03KT P6SM
                       SCT100=
201001252334 TAF KCLM 252334Z 2600/2624 00000KT P6SM VCSH OVC060 FM260600 VRB03KT
                       P6SM BKN100 FM261400 VRB03KT P6SM SCT012
                       OVC050
                      TEMPO 2614/2616 BKN012 OVC045 FM261700 VRB03KT
                       P6SM BKN050 BKN100 FM262200 VRB03KT P6SM
                       BKN060=
201001251740 TAF KCLM 251740Z 2518/2618 28003KT P6SM VCSH BKN060 OVC100 FM260000
                       VRB02KT P6SM SCT060 OVC120 FM260600 VRB03KT
                       P6SM BKN250 FM261500 22005KT P6SM BKN015=
201001251132 TAF KCLM 251132Z 2512/2612 00000KT P6SM -SHRA BKN050 OVC100 FM252200
                       15005KT P6SM SCT040 BKN080=
201001250531 TAF KCLM 250531Z 2506/2606 00000KT P6SM OVC060
                      TEMPO 2506/2509 5SM -RA BR OVC025 FM250900
                       15005KT P6SM -SHRA SCT030 BKN060 FM251900
                       15005KT P6SM VCSH SCT040 BKN080=
201001242326 TAF KCLM 242326Z 2500/2524 VRB05KT P6SM -RA SCT025 OVC050
                      TEMPO 2503/2507 4SM -RA BR OVC025 FM250800
                       16007KT P6SM -SHRA SCT025 BKN040 FM251700
                       21007KT P6SM VCSH SCT030 BKN050=
201001241720 TAF KCLM 241720Z 2418/2518 09006KT P6SM SCT050 OVC090 FM242200
                       09010KT P6SM -RA OVC050 FM251000 VRB03KT
                       P6SM SCT030 BKN050=
201001241138 TAF KCLM 241138Z 2412/2512 VRB03KT P6SM SCT050 BKN200 FM241600
                       09006KT P6SM SCT050 OVC090 FM242200 09010KT
                       P6SM -RA OVC050=
201001240526 TAF KCLM 240526Z 2406/2506 VRB03KT P6SM SCT050 BKN200 FM241600
                       09006KT P6SM SCT050 OVC090 FM242000 09010KT
                       P6SM -RA OVC050=
201001232320 TAF KCLM 232320Z 2400/2424 VRB03KT P6SM SCT050 FM240600 09005KT
                       P6SM BKN200 FM241600 09006KT P6SM BKN050
                       OVC090 FM242000 09010KT P6SM -RA OVC050=
201001231728 TAF KCLM 231728Z 2318/2418 VRB03KT P6SM SCT050 BKN200 FM241500
                       09006KT P6SM BKN050 OVC090=
201001231614 KCLM 231614Z 2316/2412 24005KT P6SM SCT030 SCT050 BKN100 FM231800
                       VRB03KT P6SM SCT050 BKN200=
201001231358 KCLM 231358Z 2314/2412 24004KT P6SM OVC030 FM231800 VRB03KT P6SM
                       SCT050 BKN200=
201001231138 TAF KCLM 231138Z 2312/2412 VRB03KT P6SM SCT050 OVC080 FM231800
                       VRB03KT P6SM SCT050 BKN200=
201001230536 TAF KCLM 230536Z 2306/2406 VRB03KT P6SM SCT050 OVC150 FM232300
                       VRB03KT P6SM SCT050 BKN200=
201001222334 TAF KCLM 222334Z 2300/2324 25003KT P6SM SCT100 BKN200 FM230300
                       VRB03KT P6SM BKN060 BKN120=
201001221737 TAF KCLM 221737Z 2218/2318 25005KT P6SM SCT120 FM222000 28005KT
                       P6SM SCT100 BKN200 FM230200 VRB03KT P6SM
                       BKN080 BKN150=
201001221133 TAF KCLM 221133Z 2212/2312 VRB04KT P6SM SCT120 FM222000 22004KT
                       P6SM SCT100 BKN200 FM230200 22004KT P6SM
                       BKN080 BKN150=
201001220539 TAF KCLM 220539Z 2206/2306 VRB04KT P6SM SCT100
                      TEMPO 2210/2214 2SM BR SCT002 FM221400 VRB04KT
                       P6SM SCT200 FM222200 22004KT P6SM SCT100
                       BKN200=
201001212340 TAF KCLM 212340Z 2200/2224 12004KT P6SM SCT080 FM220600 VRB04KT
                       P6SM SCT100 FM222200 22004KT P6SM SCT100=
201001211739 TAF KCLM 211739Z 2118/2218 10005KT P6SM VCSH SCT060 OVC100
                      TEMPO 2118/2120 -RA BKN050 OVC080 FM220300
                       VRB04KT P6SM SCT100 FM221000 VRB03KT P6SM
                       BCFG SCT200=
201001211140 TAF KCLM 211140Z 2112/2212 VRB05KT P6SM SCT100 FM212000 09007KT
                       P6SM BKN100 FM220300 VRB04KT P6SM SCT100
                       FM220700 VRB03KT P6SM SCT250=
201001210534 TAF KCLM 210534Z 2106/2206 VRB05KT P6SM BKN090 BKN150 FM211500
                       16006KT P6SM SCT100 FM212000 09007KT P6SM
                       BKN100=
201001202330 TAF KCLM 202330Z 2100/2124 VRB05KT P6SM BKN250 FM210500 VRB03KT
                       P6SM BKN050 BKN120 FM211500 16006KT P6SM
                       SCT120 BKN250=
201001201749 TAF KCLM 201749Z 2018/2118 VRB03KT P6SM BKN080 BKN200 FM201900
                       09006KT P6SM BKN080 BKN200 FM210000 13006KT
                       P6SM BKN070 BKN150 FM211600 17006KT P6SM
                       BKN250=
201001201135 TAF KCLM 201135Z 2012/2112 VRB03KT P6SM VCSH BKN070
                      TEMPO 2012/2016 -SHRA BKN060 FM201600 VRB03KT
                       P6SM BKN080 BKN200 FM201900 09006KT P6SM
                       BKN080 BKN200 FM210000 13006KT P6SM BKN070
                       BKN150=
201001200539 TAF KCLM 200539Z 2006/2106 VRB03KT P6SM VCSH BKN060 OVC080
                      TEMPO 2006/2010 -SHRA BKN050 FM201000 VRB03KT
                       P6SM VCSH SCT050 BKN100 FM201900 VRB03KT
                       P6SM SCT050 BKN080=
201001192339 TAF KCLM 192339Z 2000/2024 VRB05KT P6SM VCSH BKN080 OVC150 FM200500
                       VRB03KT P6SM -SHRA BKN050 OVC080 FM201000
                       VRB03KT P6SM VCSH SCT050 BKN100 FM201900
                       VRB03KT P6SM SCT050 BKN200=
201001191745 TAF KCLM 191745Z 1918/2018 VRB05KT P6SM VCSH BKN070 BKN110 OVC200
                       FM192000 VRB03KT P6SM BKN100 BKN200 FM200400
                       VRB03KT P6SM VCSH BKN070 OVC100=
201001191138 TAF KCLM 191138Z 1912/2012 09007KT P6SM BKN090
                      TEMPO 1912/1916 -RA SCT050 BKN070 FM191600
                       09007KT P6SM BKN100 BKN200 FM192000 10006KT
                       P6SM VCSH BKN050 BKN100=
201001190539 TAF KCLM 190539Z 1906/2006 08007KT P6SM BKN100 OVC200
                      TEMPO 1906/1910 -RA BKN050 FM191000 09007KT
                       P6SM -RA BKN050 OVC100 FM191500 VRB03KT
                       P6SM BKN100 BKN200 FM191800 VRB03KT P6SM
                       VCSH SCT050 BKN100=
201001182336 TAF KCLM 182336Z 1900/1924 08005KT P6SM BKN250 FM190800 08007KT
                       P6SM BKN100 OVC200 FM191100 09007KT P6SM
                       -RA BKN050 OVC100 FM191500 VRB03KT P6SM
                       BKN100 BKN200 FM191800 VRB03KT P6SM VCSH
                       SCT050 BKN100=
201001181740 TAF KCLM 181740Z 1818/1918 VRB04KT P6SM -SHRA BKN040 OVC060 FM182000
                       VRB03KT P6SM BKN050 BKN200 FM182200 08005KT
                       P6SM SCT050 BKN200 FM190700 08008KT P6SM
                       -RA OVC050=
201001181547 KCLM 181547Z 1816/1912 VRB05KT P6SM -SHRA BKN050 OVC070 FM182000
                       VRB03KT P6SM SCT040 BKN060 FM190500 06006KT
                       P6SM -RA OVC040=
201001181120 TAF KCLM 181120Z 1812/1912 18007G21KT P6SM -SHRA OVC035 FM181400
                       25012G20KT P6SM -SHRA OVC035 FM182000 VRB03KT
                       P6SM SCT040 BKN060 FM190500 06006KT P6SM
                       -RA OVC040=
201001180526 TAF KCLM 180526Z 1806/1906 23004KT P6SM -SHRA SCT070 BKN100 FM181000
                       VRB03KT P6SM -RA BKN040 OVC070 FM181400
                       25012G20KT P6SM -SHRA OVC040 FM182000 VRB03KT
                       P6SM BKN060=
201001172345 TAF KCLM 172345Z 1800/1824 VRB03KT P6SM BKN060 OVC120 FM180300
                       09010KT P6SM -RA OVC050 FM180800 VRB03KT
                       P6SM -RA OVC030 FM181400 25012G20KT P6SM
                       -RA OVC040 FM182000 VRB03KT P6SM BKN060=
201001171744 TAF KCLM 171744Z 1718/1818 VRB03KT P6SM SCT060 OVC150 FM172100
                       VRB04KT P6SM SCT015 BKN060 OVC120 FM180000
                       05005KT P6SM -RA SCT025 OVC050 FM180300
                       09008KT P6SM -RA OVC005=
201001171545 KCLM 171545Z 1716/1812 26005KT P6SM -RA BKN004 OVC050
                      TEMPO 1716/1719 1/2SM FG BKN002 OVC050 FM171900
                       VRB04KT P6SM SCT015 BKN050 FM172300 05005KT
                       P6SM -RA OVC025 FM180300 05005KT 3SM -RA
                       BR OVC005=
201001171510 KCLM 171510Z 1715/1812 26005KT P6SM -RA SCT004 OVC050
                      TEMPO 1715/1718 BKN004 OVC050 FM171800 VRB04KT
                       P6SM SCT015 BKN050 FM172300 05005KT P6SM
                       -RA OVC025 FM180300 05005KT 3SM -RA BR OVC005=
201001171335 KCLM 171335Z 1714/1812 26005KT P6SM -RA OVC008
                      TEMPO 1714/1717 SCT008 OVC040 FM171700 VRB04KT
                       P6SM SCT025 BKN040 FM172300 05005KT P6SM
                       -RA OVC025 FM180300 05005KT 3SM -RA BR OVC005=
201001171120 TAF KCLM 171120Z 1712/1812 26005KT P6SM -RA OVC008 FM171600 VRB04KT
                       P6SM SCT025 BKN040 FM172300 05005KT P6SM
                       -RA OVC025 FM180300 05005KT 3SM -RA BR OVC005=
201001171009 KCLM 171009Z 1710/1806 24007KT P6SM SCT006 OVC070
                      TEMPO 1710/1712 BKN006 OVC070 FM171200 VRB04KT
                       5SM -RA BR BKN006 OVC025 FM171700 VRB04KT
                       P6SM SCT025 BKN040 FM172300 05005KT P6SM
                       -RA OVC025 FM180300 05005KT 2SM -RA BR OVC005=
201001170748 KCLM 170748Z 1708/1806 25006KT P6SM -RA FEW018 BKN060 OVC110 FM171200
                       VRB04KT 5SM -RA BR BKN012 OVC025 FM171700
                       VRB04KT P6SM SCT025 BKN040 FM172300 05005KT
                       P6SM -RA OVC025 FM180300 05005KT 2SM -RA
                       BR OVC005=
201001170529 TAF KCLM 170529Z 1706/1806 27003KT P6SM OVC012 FM170800 09008KT
                       P6SM -RA OVC012 FM171700 VRB04KT P6SM SCT025
                       BKN040 FM172300 05005KT P6SM -RA OVC025
                       FM180300 05005KT 2SM -RA BR OVC005=
201001170319 KCLM 170319Z 1703/1724 00000KT P6SM OVC014 FM170800 09008KT P6SM
                       -RA OVC012 FM171700 08006KT P6SM -RA BKN015
                       OVC040=
201001162348 TAF KCLM 162348Z 1700/1724 09007KT P6SM BKN015 OVC050 FM170300
                       09008KT P6SM SCT020 OVC050 FM170800 09008KT
                       P6SM -RA OVC020 FM171700 08006KT P6SM -RA
                       BKN020 OVC040=
201001162117 KCLM 162117Z 1621/1718 00000KT P6SM BKN015 OVC050
                      TEMPO 1621/1624 SCT015 BKN060 FM170000 07003KT
                       P6SM SCT015 OVC050 FM170200 08006KT P6SM
                       BKN050 FM170600 08006KT P6SM -RA OVC030
                       FM170900 08006KT 4SM -RA BR OVC020=
201001161914 KCLM 161914Z 1619/1718 00000KT P6SM SCT015
                      TEMPO 1619/1621 BKN015 FM162100 07003KT P6SM
                       SCT015 OVC050 FM170000 08006KT P6SM BKN050
                       OVC100 FM170600 08006KT P6SM -RA OVC030
                       FM170900 08006KT 4SM -RA BR OVC020=
201001161739 TAF KCLM 161739Z 1618/1718 00000KT P6SM SCT023
                      TEMPO 1618/1619 BKN023 FM162000 07003KT P6SM
                       SCT120 BKN200 FM170000 08006KT P6SM BKN050
                       OVC100 FM170600 08006KT P6SM -RA OVC030
                       FM170900 08006KT 4SM -RA BR OVC020=
201001161538 KCLM 161538Z 1616/1712 23006KT P6SM BKN009 FM161800 VRB03KT P6SM
                       BKN015 FM162000 07003KT P6SM SCT120 BKN200
                       FM170300 08006KT P6SM -RA OVC030 FM170700
                       08006KT 4SM -RA BR OVC020=
201001161120 TAF KCLM 161120Z 1612/1712 23006KT P6SM SCT120 FM161800 VRB03KT
                       P6SM SCT050 BKN120 FM170300 08006KT P6SM
                       -RA OVC030 FM170700 08006KT 4SM -RA BR OVC020=
201001161108 KCLM 161108Z 1611/1706 23006KT P6SM BKN200 FM161800 08004KT P6SM
                       SCT050 BKN120 FM170300 08006KT P6SM -RA
                       OVC030=
201001160520 TAF KCLM 160520Z 1606/1706 24011KT P6SM BKN200 FM161100 VRB03KT
                       5SM BR BKN005 FM161800 08004KT P6SM BKN035
                       BKN120 FM162300 08006KT P6SM -RA OVC030=
201001152320 TAF KCLM 152320Z 1600/1624 27007KT P6SM SCT030 BKN200 FM160900
                       06003KT 5SM BR BKN005 FM161800 08004KT P6SM
                       SCT010 BKN120 FM162300 08006KT P6SM -RA
                       SCT030 OVC060=
201001152029 KCLM 152029Z 1520/1618 27010KT P6SM SCT035 BKN080 FM160000 27007KT
                       P6SM BKN050 FM160300 27005KT P6SM SCT050
                       FM160900 VRB03KT P6SM SCT006 BKN020=
201001151740 TAF KCLM 151740Z 1518/1618 30010KT 4SM -RA BR SCT006 OVC020
                      TEMPO 1518/1520 2SM RA BR BKN006 OVC030 FM152000
                       27010KT 3SM -RA BR OVC006 FM160000 27007KT
                       P6SM -SHRA BKN025 BKN050 FM160200 27005KT
                       P6SM SCT030 BKN060 BKN120=
201001151515 KCLM 151515Z 1515/1612 VRB03KT 5SM -RA BR SCT015 OVC035
                      TEMPO 1516/1518 2SM RA BR BKN015 OVC030 FM151800
                       VRB03KT 2SM -RA BR OVC005 FM152200 27007KT
                       P6SM -SHRA BKN025 BKN050 FM160200 27005KT
                       P6SM SCT030 BKN060 BKN120=
201001151329 KCLM 151329Z 1513/1612 VRB03KT 5SM -RA BR SCT015 OVC035
                      TEMPO 1513/1515 2SM RA BR BKN015 OVC030 FM151500
                       VRB03KT 2SM -RA BR OVC005 FM152200 27007KT
                       P6SM -SHRA BKN025 BKN050 FM160200 27005KT
                       P6SM SCT030 BKN060 BKN120=
201001151133 KCLM 151133Z 1512/1612 VRB03KT 4SM RA BR BKN019 BKN035 OVC050 FM151500
                       VRB03KT 2SM -RA BR OVC005 FM152200 27007KT
                       P6SM -SHRA BKN025 BKN050 FM160200 27005KT
                       P6SM SCT030 BKN060 BKN120=
201001151120 TAF KCLM 151120Z 1512/1612 00000KT P6SM -RA FEW050 OVC060 FM151500
                       VRB03KT 2SM -RA BR OVC005 FM152200 27007KT
                       P6SM -SHRA BKN025 BKN050 FM160200 27005KT
                       P6SM SCT030 BKN060 BKN120=
201001150847 KCLM 150847Z 1509/1606 24003KT P6SM SCT001 OVC070
                      TEMPO 1509/1512 2SM BR FM151200 VRB03KT 5SM
                       -RA BR SCT005 OVC015 FM151500 VRB03KT 2SM
                       -RA BR OVC005 FM152200 27007KT P6SM -SHRA
                       BKN025 BKN050 FM160200 27007KT P6SM SCT030
                       BKN060 BKN120=
201001150602 KCLM 150602Z 1506/1606 00000KT 2SM -RA BR OVC005
                      TEMPO 1506/1510 1/4SM -RA FG VV004 FM151000
                       VRB03KT 5SM -RA BR SCT005 OVC015 FM151500
                       VRB03KT 2SM -RA BR OVC005 FM152200 27007KT
                       P6SM -SHRA BKN025 BKN050 FM160200 27007KT
                       P6SM SCT030 BKN060 BKN120=
201001150533 TAF KCLM 150533Z 1506/1606 00000KT P6SM -RA OVC045 FM151000 VRB03KT
                       5SM -RA BR SCT012 OVC020 FM151500 VRB03KT
                       2SM -RA BR OVC005 FM152200 27007KT P6SM
                       -SHRA BKN025 BKN050 FM160200 27007KT P6SM
                       SCT030 BKN060 BKN120=
201001150410 KCLM 150410Z 1504/1524 00000KT P6SM -RA SCT025 OVC050 FM150700
                       VRB03KT 5SM -RA BR SCT012 OVC020 FM152000
                       27007KT P6SM -SHRA BKN025 BKN050 FM152300
                       27007KT P6SM SCT030 BKN060 BKN120=
201001142323 KCLM 142323Z 1500/1524 VRB03KT 5SM -RA BR SCT003 SCT012 OVC030
                       TEMPO 1500/1504 3SM -RA BR BKN002 OVC012
                       FM150400 VRB03KT 3SM -RA BR BKN003 OVC012
                       FM151700 27007KT P6SM -SHRA BKN025 BKN050
                       FM152200 27007KT P6SM SCT030 BKN060 BKN120=
201001142320 TAF KCLM 142320Z 1500/1524 VRB03KT 5SM -RA BR SCT003 SCT012 OVC030
                       FM150600 VRB03KT 4SM -RA BR BKN012 OVC030
                       FM151700 27007KT P6SM -SHRA BKN025 BKN050
                       FM152200 27007KT P6SM SCT030 BKN060 BKN120=
201001142105 KCLM 142105Z 1421/1518 14004KT P6SM SCT005 BKN035 OVC070
                      TEMPO 1421/1424 5SM -RA BR BKN005 OVC030
                       FM150000 12005KT P6SM -RA SCT005 OVC035
                       FM150600 VRB05KT 4SM -RA BR BKN012 OVC030=
201001141828 KCLM 141828Z 1418/1518 14004KT P6SM SCT002 BKN035 OVC070
                      TEMPO 1418/1422 4SM -RA BR BKN002 OVC030
                       FM142200 12005KT P6SM -RA SCT005 OVC035
                       FM150600 VRB05KT 4SM -RA BR BKN012 OVC030=
201001141720 TAF KCLM 141720Z 1418/1518 14004KT P6SM SCT035 OVC070 FM142200
                       12005KT P6SM -RA SCT015 OVC035 FM150600
                       VRB05KT 4SM -RA BR BKN012 OVC030=
201001141206 KCLM 141206Z 1412/1512 14004KT P6SM SCT015 SCT050 BKN120
                      TEMPO 1412/1416 BKN010 OVC050 FM142300 12005KT
                       P6SM -RA SCT015 OVC035=
201001141127 TAF KCLM 141127Z 1412/1512 14004KT P6SM SCT015 SCT050 BKN120 FM142300
                       12005KT P6SM -RA SCT015 OVC035=
201001140900 KCLM 140900Z 1409/1506 30004KT P6SM OVC011 FM141600 VRB04KT P6SM
                       SCT020 SCT050 BKN120 FM142300 12005KT P6SM
                       -RA OVC035=
201001140750 KCLM 140750Z 1408/1506 00000KT P6SM BKN024 BKN060 FM141600 VRB04KT
                       P6SM SCT050 BKN120 FM142300 12005KT P6SM
                       -RA OVC035=
201001140529 TAF KCLM 140529Z 1406/1506 29003KT P6SM BKN090 FM141600 VRB04KT
                       P6SM SCT050 BKN120 FM142300 12005KT P6SM
                       -RA OVC035=
201001140334 KCLM 140334Z 1404/1424 27014KT P6SM -SHRA SCT025 OVC045 FM141000
                       25010KT P6SM SCT010 BKN050 FM141600 VRB04KT
                       P6SM BKN010 BKN050 BKN120=
201001132320 TAF KCLM 132320Z 1400/1424 VRB05KT P6SM -SHRA SCT011 BKN025 BKN040
                       TEMPO 1400/1404 3SM -RA BR BKN011 OVC025
                       FM140400 25012G22KT P6SM VCSH SCT015 BKN030
                       BKN060 FM141000 25010KT P6SM SCT010 BKN050
                       FM141600 VRB04KT P6SM BKN010 BKN050 BKN120=
201001131720 TAF KCLM 131720Z 1318/1418 VRB04KT P6SM VCSH SCT008 BKN030 OVC070
                       TEMPO 1318/1321 5SM -SHRA BR BKN008 OVC030
                       FM132100 VRB04KT P6SM -SHRA SCT010 BKN025
                       OVC050 FM140000 25012G22KT P6SM -SHRA BKN025
                       BKN040 FM140600 25012KT P6SM VCSH SCT010
                       SCT040 SCT100
                      TEMPO 1410/1414 2SM BR BKN010 FM141600 VRB04KT
                       P6SM SCT010 SCT030 BKN120=
201001131620 KCLM 131620Z 1316/1412 VRB04KT P6SM VCSH SCT005 BKN015 OVC060
                      TEMPO 1316/1320 3SM -SHRA BR BKN005 OVC012
                       FM132300 28008KT P6SM SCT022 BKN040 FM140800
                       24004KT P6SM VCSH OVC040=
201001131448 KCLM 131448Z 1315/1412 VRB04KT 6SM BR VCSH SCT002 BKN015 OVC060
                       TEMPO 1315/1317 2SM BR BKN001 OVC010 FM131700
                       VRB03KT 6SM -RA BR SCT005 OVC035 FM132300
                       28008KT P6SM SCT022 BKN040 FM140800 24004KT
                       P6SM VCSH OVC040=
201001131135 TAF KCLM 131135Z 1312/1412 00000KT 1/4SM FG VV001 FM131600 VRB03KT
                       6SM -RA BR SCT005 OVC035 FM132300 28008KT
                       P6SM SCT022 BKN040 FM140800 24004KT P6SM
                       VCSH OVC040=
201001130822 KCLM 130822Z 1308/1406 25004KT 1/2SM FG OVC001 FM131300 VRB03KT
                       6SM -RA BR SCT005 OVC035 FM132300 28008KT
                       P6SM SCT022 BKN040=
201001130531 TAF KCLM 130531Z 1306/1406 00000KT P6SM VCSH FEW018 OVC060 FM131300
                       VRB03KT 6SM -RA BR SCT005 OVC035 FM132300
                       28008KT P6SM SCT022 BKN040=
201001130128 KCLM 130128Z 1301/1324 00000KT P6SM -RA FEW004 SCT040 OVC060
                      TEMPO 1301/1305 2SM -RA BR BKN003 OVC035
                       FM130500 VRB03KT P6SM FEW004 OVC045 FM131300
                       VRB03KT 6SM -RA BR SCT005 OVC035 FM132300
                       28008KT P6SM SCT022 BKN040=
201001130114 KCLM 130114Z 1301/1324 00000KT P6SM -RA FEW004 SCT040 OVC060
                      TEMPO 1301/1305 2SM -RA BR SCT004 OVC035
                       FM130500 VRB03KT P6SM FEW004 OVC045 FM131300
                       VRB03KT 6SM -RA BR SCT005 OVC035 FM132300
                       28008KT P6SM SCT022 BKN040=
201001122338 TAF KCLM 122338Z 1300/1324 00000KT P6SM -RA FEW004 SCT040 OVC060
                       TEMPO 1301/1305 5SM -RA BR SCT004 OVC035
                       FM130500 VRB03KT P6SM FEW004 OVC045 FM131300
                       VRB03KT 6SM -RA BR SCT005 OVC035 FM132300
                       28008KT P6SM SCT022 BKN040=
201001121740 TAF KCLM 121740Z 1218/1318 23004KT P6SM SCT010 OVC100
                      TEMPO 1218/1222 BKN010 OVC100 FM130000 VRB03KT
                       P6SM -RA BKN014 OVC035 FM131000 VRB03KT
                       P6SM VCSH OVC035=
201001121452 KCLM 121452Z 1215/1312 13004KT P6SM VCSH FEW009 SCT025 OVC060
                      TEMPO 1215/1219 BKN007 FM121900 VRB03KT P6SM
                       VCSH SCT025 OVC050 FM130000 VRB03KT P6SM
                       -RA OVC045 FM130600 VRB03KT P6SM VCSH OVC035=
201001121126 TAF KCLM 121126Z 1212/1312 13004KT P6SM -RA SCT025 OVC060 FM121800
                       VRB03KT P6SM VCSH SCT025 OVC050 FM130000
                       VRB03KT P6SM -RA OVC045 FM130600 VRB03KT
                       P6SM VCSH OVC035=
201001120533 TAF KCLM 120533Z 1206/1306 25006KT P6SM -RA BKN060 OVC080 FM121200
                       23005KT P6SM -RA OVC045 FM121800 VRB03KT
                       P6SM VCSH OVC040 FM130000 VRB03KT P6SM -RA
                       OVC035=
201001112339 TAF KCLM 112339Z 1200/1224 00000KT P6SM SCT004 BKN045 OVC070
                      TEMPO 1200/1204 5SM -RA BR BKN004 OVC040
                       FM120600 VRB03KT P6SM -RA SCT003 OVC025
                       FM121200 23005KT P6SM -SHRA OVC045=
201001111742 TAF KCLM 111742Z 1118/1218 VRB06KT P6SM SCT003 BKN035 OVC060
                      TEMPO 1118/1122 4SM -RA BR BKN003 OVC035
                       FM112200 VRB05KT P6SM -RA OVC040 FM120600
                       VRB03KT P6SM -RA OVC025 FM121200 23005KT
                       P6SM -SHRA OVC045=
201001111507 KCLM 111507Z 1115/1212 12003KT P6SM -RA OVC060
                      TEMPO 1115/1118 1SM -RA BR BKN003 OVC060
                       FM111800 VRB03KT P6SM -RA OVC050 FM120000
                       VRB03KT P6SM -RA OVC040 FM120600 VRB03KT
                       P6SM -RA OVC025=
201001111121 TAF KCLM 111121Z 1112/1212 12003KT P6SM -RA OVC060 FM111800 VRB03KT
                       P6SM -RA OVC050 FM120000 VRB03KT P6SM -RA
                       OVC040 FM120600 VRB03KT P6SM -RA OVC025=
201001110520 TAF KCLM 110520Z 1106/1206 27006KT P6SM -RA BKN080 OVC090
                      TEMPO 1110/1114 6SM RA BR OVC030 FM111800
                       VRB04KT P6SM VCSH SCT008 OVC040=
201001110244 TAF AMD KCLM 110244Z 1103/1124 VRB06KT P6SM -RA OVC080
                      TEMPO 1110/1114 6SM RA BR OVC030 FM111800
                       VRB04KT P6SM VCSH SCT008 OVC040=
201001102329 TAF KCLM 102329Z 1100/1124 26003KT P6SM SCT005 OVC060
                      TEMPO 1100/1102 2SM -RA BR OVC005 FM110200
                       14004KT 3SM -RA BR BKN008 OVC050
                      TEMPO 1110/1114 6SM RA BR OVC030 FM111800
                       VRB04KT P6SM SCT008 OVC040=
201001102201 KCLM 102201Z 1022/1118 27003KT P6SM SCT005 OVC100
                      TEMPO 1022/1102 2SM BR OVC005 FM110200 14004KT
                       3SM -RA BR BKN010 OVC050
                      TEMPO 1110/1114 6SM RA BR OVC030=
201001101857 KCLM 101857Z 1019/1118 27003KT P6SM OVC007 FM102100 VRB03KT P6SM
                       OVC060 FM110200 14004KT P6SM -RA OVC050
                       TEMPO 1110/1114 6SM RA BR OVC030=
201001101739 TAF KCLM 101739Z 1018/1118 27004KT P6SM OVC080 FM102100 VRB03KT
                       P6SM OVC060 FM110200 14004KT P6SM -RA OVC050
                       TEMPO 1110/1114 6SM RA BR OVC030=
201001101639 KCLM 101639Z 1017/1112 VRB05KT P6SM SCT009 OVC060
                      TEMPO 1017/1021 5SM BR BKN009 OVC060 FM102100
                       VRB03KT P6SM OVC060 FM110200 VRB03KT P6SM
                       -RA OVC050=
201001101134 TAF KCLM 101134Z 1012/1112 00000KT 1SM BR VV002
                      TEMPO 1012/1016 1/4SM FG VV001 FM101600 VRB03KT
                       4SM BR SCT003 BKN060 FM102100 VRB03KT P6SM
                       OVC060 FM110200 VRB03KT P6SM -RA OVC050=
201001100535 TAF KCLM 100535Z 1006/1106 00000KT P6SM SCT001 BKN050
                      TEMPO 1006/1010 1/2SM FG VV001 FM101900 VRB03KT
                       6SM BR SCT003 BKN060 FM102100 VRB03KT P6SM
                       OVC060=
201001100204 KCLM 100204Z 1002/1024 VRB03KT P6SM SCT080
                      TEMPO 1002/1004 1SM BR BKN001 FM100400 VRB03KT
                       1SM BR OVC001
                      TEMPO 1010/1014 1/2SM FG VV001 FM101900 VRB03KT
                       6SM BR SCT003 BKN060 FM102100 VRB03KT P6SM
                       OVC060=
201001092326 TAF KCLM 092326Z 1000/1024 VRB03KT P6SM SCT003 BKN060
                      TEMPO 1000/1004 OVC003 FM100400 VRB03KT 4SM
                       BR OVC003
                      TEMPO 1010/1014 1SM BR OVC001 FM101900 VRB03KT
                       6SM BR SCT003 BKN060 FM102100 VRB03KT P6SM
                       OVC060=
201001092117 KCLM 092117Z 0921/1018 VRB03KT P6SM SCT003 BKN060
                      TEMPO 0921/0923 4SM BR OVC003 FM100200 VRB03KT
                       P6SM BKN060 FM100800 13003KT 4SM BR OVC012=
201001091959 KCLM 091959Z 0920/1018 VRB03KT P6SM SCT003 BKN060
                      TEMPO 0920/0921 1SM BR BKN003 FM100200 VRB03KT
                       P6SM BKN060 FM100800 13003KT 4SM BR OVC012=
201001091914 KCLM 091914Z 0919/1018 VRB03KT P6SM SCT003 BKN060
                      TEMPO 0919/0921 BKN003 FM100200 VRB03KT P6SM
                       BKN060 FM100800 13003KT 4SM BR OVC012=
201001091732 TAF KCLM 091732Z 0918/1018 VRB03KT 2SM BR SCT001 BKN060
                      TEMPO 0918/0920 1/2SM FG BKN001 FM100200
                       VRB03KT P6SM BKN060 FM100800 13003KT 4SM
                       BR OVC012=
201001091138 TAF KCLM 091138Z 0912/1012 26003KT 1/4SM FG VV001 FM091900 VRB02KT
                       4SM BR OVC007 FM092200 26003KT P6SM OVC015
                       FM100800 13003KT 4SM BR OVC012=
201001090642 KCLM 090642Z 0907/1006 26005KT P6SM -RA OVC004
                      TEMPO 0907/0911 SCT008 FM091200 VRB04KT P6SM
                       BKN050=
201001090536 TAF KCLM 090536Z 0906/1006 26005KT P6SM -RA OVC004 FM091200 VRB04KT
                       P6SM BKN050=
201001090200 TAF AMD KCLM 090200Z 0902/0924 VRB04KT P6SM SCT007 SCT030 OVC100
                       TEMPO 0902/0906 5SM -RA BKN007 FM090600
                       VRB03KT P6SM VCSH SCT007 BKN040 FM090900
                       VRB04KT P6SM BKN050=
201001082320 TAF KCLM 082320Z 0900/0924 VRB04KT P6SM OVC007
                      TEMPO 0900/0904 5SM -RA FM090400 VRB03KT
                       P6SM SCT007 BKN040 FM090600 VRB04KT P6SM
                       BKN050=
201001082205 KCLM 082205Z 0822/0918 VRB04KT P6SM OVC007 FM090000 VRB04KT P6SM
                       -RA OVC007 FM090600 VRB03KT P6SM SCT040
                       BKN060=
201001082027 KCLM 082027Z 0820/0918 13004KT P6SM SCT007 OVC040
                      TEMPO 0820/0822 4SM BR OVC007 FM090000 VRB03KT
                       P6SM -RA BKN035 OVC060 FM091400 VRB03KT
                       P6SM SCT040 BKN060=
201001081744 TAF KCLM 081744Z 0818/0918 13004KT P6SM SCT007 OVC040
                      TEMPO 0818/0820 OVC007 FM090000 VRB03KT P6SM
                       -RA BKN035 OVC060 FM091400 VRB03KT P6SM
                       SCT040 BKN060=
201001081602 KCLM 081602Z 0816/0912 VRB03KT P6SM SCT007 OVC040
                      TEMPO 0816/0820 OVC007 FM090000 VRB03KT P6SM
                       SCT040 OVC100 FM090400 VRB03KT P6SM -RA
                       OVC040=
201001081139 TAF KCLM 081139Z 0812/0912 VRB03KT P6SM SCT015 OVC050
                      TEMPO 0812/0815 BKN015 OVC050 FM081800 VRB03KT
                       P6SM SCT050 OVC100 FM090400 VRB03KT P6SM
                       -RA OVC040=
201001080540 TAF KCLM 080540Z 0806/0906 VRB03KT P6SM SCT050 OVC100 FM081200
                       VRB03KT P6SM -RA OVC050 FM081800 VRB03KT
                       P6SM SCT050 OVC100=
201001072346 TAF KCLM 072346Z 0800/0824 11004KT P6SM SCT080 OVC100 FM081000
                       VRB03KT P6SM -RA OVC050 FM081600 11003KT
                       P6SM VCSH BKN008 OVC045=
201001071739 TAF KCLM 071739Z 0718/0818 11004KT P6SM SCT120 BKN200 FM081000
                       VRB03KT P6SM -RA OVC050 FM081600 11003KT
                       P6SM VCSH SCT008 BKN045=
201001071122 TAF KCLM 071122Z 0712/0812 VRB03KT P6SM SCT200 FM071700 10006KT
                       P6SM BKN200 FM081000 VRB03KT P6SM BKN080=
201001070522 TAF KCLM 070522Z 0706/0806 VRB03KT P6SM SCT200 FM071800 10006KT
                       P6SM BKN200=
201001062320 TAF KCLM 062320Z 0700/0724 10006KT P6SM SCT060 SCT200=
201001061756 TAF KCLM 061756Z 0618/0718 11006KT P6SM SCT040 BKN070 FM062200
                       11006KT P6SM SCT200=
201001061139 TAF KCLM 061139Z 0612/0712 VRB03KT P6SM SCT035 BKN050 OVC070 FM061700
                       11006KT P6SM SCT040 BKN070 FM062200 11006KT
                       P6SM SCT200=
201001060538 TAF KCLM 060538Z 0606/0706 VRB03KT P6SM OVC035 FM061300 11005KT
                       P6SM SCT035 BKN050 OVC070 FM062200 11005KT
                       P6SM SCT060=
201001052339 TAF KCLM 052339Z 0600/0624 11005KT P6SM OVC020 FM060900 11005KT
                       P6SM -RA BKN025 OVC045 FM061800 11008KT
                       P6SM BKN045=
201001051752 KCLM 051752Z 0518/0618 VRB03KT 2SM BR OVC001 FM052200 VRB03KT 4SM
                       BR OVC008 FM060900 09004KT P6SM -RA OVC025=
201001051740 TAF KCLM 051740Z 0518/0618 VRB03KT 5SM BR OVC001 FM052200 VRB03KT
                       P6SM OVC008=
201001051140 TAF KCLM 051140Z 0512/0612 VRB03KT 3SM -RA BR OVC001 FM051800 VRB03KT
                       5SM BR SCT001 OVC004 FM052200 VRB03KT P6SM
                       OVC008=
201001050548 TAF KCLM 050548Z 0506/0606 VRB03KT 4SM BR OVC001
                      TEMPO 0508/0512 1SM BR FM051700 VRB03KT P6SM
                       OVC004 FM052200 VRB03KT P6SM OVC008=
201001050036 KCLM 050036Z 0501/0524 VRB04KT 5SM -RA BR OVC001
                      TEMPO 0501/0504 2SM -SHRA FM050400 VRB03KT
                       P6SM -SHRA OVC005 FM051800 VRB03KT P6SM
                       VCSH OVC010=
201001042339 TAF KCLM 042339Z 0500/0524 VRB04KT 2SM -RA BR OVC001
                      TEMPO 0500/0504 1/2SM -SHRA FG VV001 FM050400
                       VRB03KT P6SM -SHRA OVC005 FM051800 VRB03KT
                       P6SM VCSH OVC010=
201001042213 KCLM 042213Z 0422/0518 VRB05KT 2SM -RA BR OVC002
                      TEMPO 0422/0502 1/2SM -SHRA FG VV001 FM050200
                       VRB03KT P6SM VCSH OVC005=
201001041745 TAF KCLM 041745Z 0418/0518 08007KT 4SM -RA OVC005
                      TEMPO 0418/0420 BKN012 FM050200 VRB03KT P6SM
                       VCSH OVC005=
201001041136 TAF KCLM 041136Z 0412/0512 08003KT P6SM -RA OVC006
                      TEMPO 0412/0416 2SM -RA BR FM041800 12007KT
                       4SM -RA OVC012 FM042200 09006KT P6SM VCSH
                       BKN020 OVC030 FM050200 VRB03KT P6SM VCSH
                       SCT018 BKN030 OVC050=
201001040540 TAF KCLM 040540Z 0406/0506 00000KT P6SM SCT006 SCT013 OVC045
                      TEMPO 0406/0410 4SM -RA BR BKN006 OVC011
                       FM041000 00000KT P6SM BKN012 OVC025 FM041200
                       12007KT 4SM -RA OVC012 FM042200 09006KT
                       P6SM VCSH BKN020 OVC030 FM050200 VRB03KT
                       P6SM VCSH SCT018 BKN030 OVC050=
201001032340 TAF KCLM 032340Z 0400/0424 11004KT P6SM VCSH BKN017 OVC050 FM040800
                       00000KT P6SM VCSH BKN012 OVC025 FM041200
                       12007KT 4SM -RA OVC012 FM042200 09006KT
                       P6SM VCSH BKN020 OVC030=
201001031744 TAF KCLM 031744Z 0318/0418 00000KT P6SM BKN025 OVC120 FM032000
                       VRB04KT P6SM OVC100 FM040000 10002KT P6SM
                       OVC070 FM040600 19003KT P6SM -RA BKN030
                       OVC060 FM041200 00000KT 5SM -RA OVC025=
201001031139 TAF KCLM 031139Z 0312/0412 00000KT P6SM BKN020 BKN070
                      TEMPO 0312/0316 SCT020 BKN070 FM032000 09005KT
                       P6SM SCT040 BKN100 OVC150 FM040000 10002KT
                       P6SM OVC050
                      TEMPO 0402/0406 -RA FM040600 19003KT P6SM
                       -RA OVC025=
201001030540 TAF KCLM 030540Z 0306/0406 24005KT P6SM BKN020 FM030800 VRB04KT
                       P6SM OVC020 FM032000 09005KT P6SM BKN030
                       BKN100 OVC150
                      TEMPO 0402/0406 -RA=
201001022340 TAF KCLM 022340Z 0300/0324 VRB04KT P6SM SCT012 BKN018 FM030300
                       VRB04KT P6SM SCT025 FM031200 VRB04KT P6SM
                       OVC020 FM032000 09005KT P6SM BKN030 BKN100
                       OVC150=
201001021736 TAF KCLM 021736Z 0218/0318 26006KT P6SM VCSH SCT030 SCT050 OVC080
                       TEMPO 0218/0221 3SM -SHRA BR BKN030 FM022200
                       24003KT P6SM SCT030 OVC080 FM030900 21004KT
                       P6SM BKN030 OVC060=
201001021139 TAF KCLM 021139Z 0212/0312 00000KT P6SM VCSH BKN018 BKN040 OVC090
                       FM021600 26006KT P6SM SCT020 BKN035 OVC060
                       FM030300 24003KT P6SM SCT040 OVC080 FM030900
                       21004KT P6SM BKN040 OVC060=
201001020540 TAF KCLM 020540Z 0206/0306 23005KT P6SM SCT016 OVC060
                      TEMPO 0206/0210 -SHRA BKN016 OVC060 FM021000
                       24005KT P6SM BKN025 FM022000 26006KT P6SM
                       BKN035 FM030300 24003KT P6SM SCT040 OVC080=
201001012344 TAF KCLM 012344Z 0200/0224 26007KT P6SM -SHRA SCT025 BKN040 FM020600
                       26008KT P6SM VCSH BKN025 OVC040 FM020900
                       24005KT P6SM BKN025 FM022000 26006KT P6SM
                       BKN035=
201001011743 TAF KCLM 011743Z 0118/0218 24005KT 5SM -SHRA SCT020 OVC040 FM012200
                       26007KT P6SM -SHRA SCT025 BKN040 FM020500
                       26008KT P6SM VCSH BKN025 OVC040 FM020900
                       24005KT P6SM OVC025=
201001011138 TAF KCLM 011138Z 0112/0212 VRB05KT P6SM VCSH SCT010 BKN035
                      TEMPO 0112/0116 3SM -SHRA BR BKN009 FM011600
                       24005KT 6SM -SHRA SCT015 BKN027 FM012200
                       26007KT 6SM -SHRA BR SCT011 OVC025 FM020500
                       26008KT P6SM -SHRA BKN025 OVC040=
201001011008 KCLM 011008Z 0110/0206 VRB05KT P6SM VCSH SCT018 BKN035
                      TEMPO 0110/0114 BKN015 FM011400 VRB05KT P6SM
                       VCSH SCT017 BKN040 FM011700 25005KT 6SM
                       -SHRA BR SCT011 OVC035 FM020300 26007KT
                       P6SM -SHRA BKN025 OVC040=
201001010524 TAF KCLM 010524Z 0106/0206 25005KT P6SM SCT009 OVC045
                      TEMPO 0106/0110 BKN007 OVC030 FM011000 24005KT
                       P6SM VCSH SCT018 BKN035 FM011700 25005KT
                       6SM -SHRA BR SCT011 OVC035 FM020300 26007KT
                       P6SM -SHRA BKN025 OVC040=
201001010058 KCLM 010058Z 0101/0124 27007KT 6SM -RA BR BKN016 OVC035 FM010400
                       23004KT P6SM -RA BKN020 OVC040 FM011200
                       24005KT P6SM SCT025 BKN045 FM011600 25005KT
                       6SM -SHRA BR SCT011 OVC035=