##########################################################
# Query made at 02/16/2025 01:47:36 UTC
# Time interval: from 06/01/2010 00:00  to 06/30/2010 23:59  UTC
##########################################################

##########################################################
# KCLM, Port Angeles, William R. Fairchild International Airport (United States)
# WMO index: -----. WIGOS ID: Unknown
# Latitude 48-07-20N. Longitude 123-30-19W. Altitude 87 m.
##########################################################

###################################
#  METAR/SPECI from KCLM
###################################
201006302353 METAR KCLM 302353Z AUTO VRB04KT 10SM BKN060 14/06 A3013 RMK AO2 SLP203 T01390061 10167 20128 56012=
201006302253 METAR KCLM 302253Z AUTO 02003KT 10SM CLR 16/05 A3014 RMK AO2 SLP207 T01560050=
201006302153 METAR KCLM 302153Z AUTO 06005KT 10SM CLR 15/03 A3015 RMK AO2 SLP209 T01500033=
201006302053 METAR KCLM 302053Z AUTO 02006KT 10SM SCT050 15/05 A3016 RMK AO2 SLP215 T01500050 58004=
201006301953 METAR KCLM 301953Z AUTO 00000KT 10SM BKN046 14/04 A3017 RMK AO2 SLP218 T01440039=
201006301853 METAR KCLM 301853Z AUTO 01005KT 10SM CLR 14/06 A3017 RMK AO2 SLP218 T01440056=
201006301753 METAR KCLM 301753Z AUTO VRB05KT 10SM BKN065 14/06 A3018 RMK AO2 SLP219 T01390056 10144 20061 50001=
201006301653 METAR KCLM 301653Z AUTO VRB05KT 10SM SCT065 14/06 A3018 RMK AO2 SLP220 T01390061=
201006301553 METAR KCLM 301553Z AUTO VRB03KT 10SM CLR 13/06 A3017 RMK AO2 SLP218 T01280056=
201006301453 METAR KCLM 301453Z AUTO 26005KT 10SM FEW060 12/05 A3017 RMK AO2 SLP218 T01170050 51013=
201006301353 METAR KCLM 301353Z AUTO 00000KT 10SM CLR 09/06 A3016 RMK AO2 SLP215 T00940061=
201006301253 METAR KCLM 301253Z AUTO 23005KT 10SM CLR 07/04 A3015 RMK AO2 SLP212 T00720044=
201006301153 METAR KCLM 301153Z AUTO 26007KT 10SM CLR 07/04 A3013 RMK AO2 SLP205 T00720039 10106 20067 51007=
201006301053 METAR KCLM 301053Z AUTO 26005KT 10SM SCT060 07/04 A3013 RMK AO2 SLP204 T00720044=
201006300953 METAR KCLM 300953Z AUTO 24006KT 10SM CLR 08/04 A3012 RMK AO2 SLP201 T00830044=
201006300853 METAR KCLM 300853Z AUTO 24003KT 10SM FEW065 09/05 A3011 RMK AO2 SLP198 T00890050 53010=
201006300753 METAR KCLM 300753Z AUTO 26005KT 10SM BKN070 09/06 A3010 RMK AO2 SLP195 T00890061 401560061=
201006300653 METAR KCLM 300653Z AUTO 25005KT 10SM CLR 09/07 A3008 RMK AO2 SLP188 T00890067=
201006300553 METAR KCLM 300553Z AUTO 28007KT 10SM FEW070 10/07 A3008 RMK AO2 SLP188 60000 T01000067 10139 20094 53002=
201006300453 METAR KCLM 300453Z AUTO 27007KT 10SM SCT033 BKN065 10/07 A3008 RMK AO2 RAB0354E03 SLP187 P0000 T01000067=
201006300353 METAR KCLM 300353Z AUTO 29009KT 10SM FEW028 BKN060 OVC070 11/08 A3008 RMK AO2 SLP186 T01110078=
201006300253 METAR KCLM 300253Z AUTO 27004KT 10SM SCT043 BKN075 12/08 A3008 RMK AO2 RAE08 SLP186 P0000 60000 T01170078 56004=
201006300153 METAR KCLM 300153Z AUTO 29003KT 10SM -RA BKN035 OVC050 12/09 A3008 RMK AO2 RAB11 SLP186 P0000 T01170094=
201006300053 METAR KCLM 300053Z AUTO 28006KT 10SM FEW029 SCT055 OVC085 13/10 A3009 RMK AO2 RAE43 SLP189 P0000 T01280100=
201006292353 METAR KCLM 292353Z AUTO 30007KT 10SM -RA SCT040 BKN050 OVC095 12/08 A3009 RMK AO2 RAB48 SLP190 P0000 60000 T01220083 10156 20111 51005=
201006292253 METAR KCLM 292253Z AUTO 30005KT 10SM SCT044 BKN055 OVC075 13/09 A3008 RMK AO2 RAE53 SLP187 P0000 T01330094=
201006292153 METAR KCLM 292153Z AUTO 28004KT 8SM -RA OVC034 11/08 A3008 RMK AO2 RAB30 SLP188 P0000 T01110083=
201006292053 METAR KCLM 292053Z AUTO 01006KT 10SM FEW040 OVC060 14/08 A3007 RMK AO2 SLP185 T01440078 50003=
201006291953 METAR KCLM 291953Z AUTO 33007KT 10SM BKN040 BKN050 OVC080 13/08 A3008 RMK AO2 SLP188 T01330083=
201006291853 METAR KCLM 291853Z AUTO 02005KT 10SM FEW049 SCT055 BKN080 14/07 A3007 RMK AO2 SLP183 T01390072=
201006291753 METAR KCLM 291753Z AUTO VRB05KT 10SM CLR 14/08 A3006 RMK AO2 SLP181 T01390078 10144 20072 53002=
201006291653 METAR KCLM 291653Z AUTO 35006KT 10SM CLR 13/07 A3006 RMK AO2 SLP180 T01330072=
201006291553 METAR KCLM 291553Z AUTO 30007KT 10SM CLR 13/08 A3006 RMK AO2 SLP180 T01280078=
201006291453 METAR KCLM 291453Z AUTO 27006KT 10SM CLR 11/06 A3006 RMK AO2 SLP179 T01110061 53003=
201006291353 METAR KCLM 291353Z AUTO 24005KT 10SM FEW049 09/06 A3005 RMK AO2 SLP178 T00890056=
201006291253 METAR KCLM 291253Z AUTO 23003KT 10SM OVC045 09/07 A3005 RMK AO2 SLP176 T00890067=
201006291153 METAR KCLM 291153Z AUTO 22004KT 10SM SCT045 08/06 A3005 RMK AO2 SLP176 T00780061 10100 20061 53007=
201006291053 METAR KCLM 291053Z AUTO 00000KT 10SM OVC035 08/06 A3004 RMK AO2 SLP173 T00780061=
201006290953 METAR KCLM 290953Z AUTO 25005KT 10SM CLR 07/05 A3003 RMK AO2 SLP171 T00670050=
201006290853 METAR KCLM 290853Z AUTO 00000KT 10SM CLR 09/06 A3003 RMK AO2 SLP170 T00890056 53004=
201006290753 METAR KCLM 290753Z AUTO 24007KT 10SM CLR 10/06 A3002 RMK AO2 SLP167 T01000056 401670078=
201006290653 METAR KCLM 290653Z AUTO 00000KT 10SM CLR 08/07 A3002 RMK AO2 SLP167 T00830067=
201006290553 METAR KCLM 290553Z AUTO 00000KT 10SM CLR 10/07 A3002 RMK AO2 SLP164 T01000072 10161 20100 53011=
201006290453 METAR KCLM 290453Z AUTO 30013G19KT 10SM FEW021 SCT034 11/08 A3000 RMK AO2 SLP161 T01060078=
201006290353 METAR KCLM 290353Z AUTO 31014G18KT 10SM OVC034 12/08 A2999 RMK AO2 SLP154 T01170083=
201006290253 METAR KCLM 290253Z AUTO 30009KT 10SM OVC038 13/10 A2998 RMK AO2 SLP153 T01280100 53007=
201006290153 METAR KCLM 290153Z AUTO 32009KT 10SM FEW037 SCT080 13/09 A2997 RMK AO2 SLP149 T01330094=
201006290053 METAR KCLM 290053Z AUTO 33005KT 10SM FEW080 15/09 A2996 RMK AO2 SLP146 T01500089=
201006282353 METAR KCLM 282353Z AUTO 34005KT 10SM CLR 16/08 A2996 RMK AO2 SLP145 T01560078 10167 20128 58006=
201006282253 METAR KCLM 282253Z AUTO 32006KT 10SM BKN033 15/08 A2998 RMK AO2 SLP150 T01500078=
201006282153 METAR KCLM 282153Z AUTO 33005KT 10SM BKN033 16/08 A2998 RMK AO2 SLP151 T01560083=
201006282053 METAR KCLM 282053Z AUTO 31004KT 10SM OVC035 14/08 A2998 RMK AO2 SLP152 T01440083 50005=
201006281953 METAR KCLM 281953Z AUTO 30006KT 10SM OVC037 13/07 A2998 RMK AO2 SLP153 T01330067=
201006281853 METAR KCLM 281853Z AUTO 32006KT 10SM BKN039 BKN080 16/08 A2997 RMK AO2 SLP149 T01560078=
201006281753 METAR KCLM 281753Z AUTO VRB03KT 10SM SCT039 SCT060 16/08 A2996 RMK AO2 SLP147 T01560078 10156 20100 51003=
201006281653 METAR KCLM 281653Z AUTO 30005KT 10SM FEW032 SCT065 13/07 A2996 RMK AO2 SLP146 T01330067=
201006281553 METAR KCLM 281553Z AUTO 00000KT 10SM SCT024 BKN070 BKN085 13/08 A2996 RMK AO2 SLP145 T01330078=
201006281518 SPECI KCLM 281518Z AUTO 31003KT 10SM BKN024 13/08 A2996 RMK AO2=
201006281518 SPECI KCLM 281518Z AUTO 31003KT 10SM BKN024 13/08 A2996 RMK AO2=
201006281453 METAR KCLM 281453Z AUTO 32003KT 10SM FEW021 SCT070 BKN090 12/07 A2996 RMK AO2 SLP145 T01220072 56004=
201006281441 SPECI KCLM 281441Z AUTO 30004KT 10SM SCT021 BKN080 12/07 A2996 RMK AO2=
201006281441 SPECI KCLM 281441Z AUTO 30004KT 10SM SCT021 BKN080 12/07 A2996 RMK AO2=
201006281432 SPECI KCLM 281432Z AUTO 27004KT 10SM BKN021 BKN085 12/07 A2996 RMK AO2=
201006281432 SPECI KCLM 281432Z AUTO 27004KT 10SM BKN021 BKN085 12/07 A2996 RMK AO2=
201006281353 METAR KCLM 281353Z AUTO 28005KT 10SM FEW024 SCT095 11/07 A2996 RMK AO2 SLP147 T01110072=
201006281325 SPECI KCLM 281325Z AUTO 26005KT 10SM SCT020 BKN060 BKN095 11/07 A2996 RMK AO2 $=
201006281325 SPECI KCLM 281325Z AUTO 26005KT 10SM SCT020 BKN060 BKN095 11/07 A2996 RMK AO2 $=
201006281253 METAR KCLM 281253Z AUTO 26005KT 10SM BKN020 BKN070 10/07 A2996 RMK AO2 SLP146 T01000072 $=
201006281153 METAR KCLM 281153Z AUTO 28004KT 10SM BKN065 OVC090 11/08 A2997 RMK AO2 RAB13E26 SLP149 P0000 60000 T01060078 10117 20106 56007 $=
201006281113 SPECI KCLM 281113Z AUTO 28005KT 10SM -RA SCT018 OVC075 11/08 A2997 RMK AO2 RAB13 P0000 $=
201006281113 SPECI KCLM 281113Z AUTO 28005KT 10SM -RA SCT018 OVC075 11/08 A2997 RMK AO2 RAB13 P0000 $=
201006281053 METAR KCLM 281053Z AUTO 28005KT 10SM BKN018 OVC075 11/08 A2997 RMK AO2 SLP150 T01060078 $=
201006280953 METAR KCLM 280953Z AUTO 29006KT 10SM OVC018 11/08 A2998 RMK AO2 SLP154 T01060083 $=
201006280853 METAR KCLM 280853Z AUTO 28005KT 10SM OVC018 11/08 A2999 RMK AO2 SLP155 T01110083 57007 $=
201006280837 SPECI KCLM 280837Z AUTO 27005KT 10SM BKN018 OVC090 11/08 A2999 RMK AO2 $=
201006280837 SPECI KCLM 280837Z AUTO 27005KT 10SM BKN018 OVC090 11/08 A2999 RMK AO2 $=
201006280753 METAR KCLM 280753Z AUTO 27007KT 10SM FEW019 OVC075 11/08 A2999 RMK AO2 SLP157 T01110083 401560106 $=
201006280719 SPECI KCLM 280719Z AUTO 28006KT 10SM FEW021 OVC085 11/08 A3000 RMK AO2 $=
201006280719 SPECI KCLM 280719Z AUTO 28006KT 10SM FEW021 OVC085 11/08 A3000 RMK AO2 $=
201006280653 METAR KCLM 280653Z AUTO 28007KT 10SM SCT018 BKN025 OVC090 12/08 A3001 RMK AO2 SLP161 T01170083 $=
201006280553 METAR KCLM 280553Z AUTO 27008KT 10SM BKN018 BKN027 OVC100 12/08 A3001 RMK AO2 RAE0459 SLP162 P0000 60000 T01170083 10128 20117 56008 $=
201006280453 METAR KCLM 280453Z AUTO 26006KT 10SM -RA OVC016 12/08 A3001 RMK AO2 RAE01B18 SLP164 P0000 T01170083 $=
201006280353 METAR KCLM 280353Z AUTO 27007KT 10SM -RA OVC016 12/08 A3002 RMK AO2 RAB52 SLP168 P0000 T01170083 $=
201006280253 METAR KCLM 280253Z AUTO 27009KT 10SM OVC016 12/08 A3004 RMK AO2 SLP172 T01220083 58007 $=
201006280153 METAR KCLM 280153Z AUTO 27008KT 10SM OVC016 12/09 A3004 RMK AO2 SLP174 T01220089 $=
201006280135 SPECI KCLM 280135Z AUTO 29007KT 10SM OVC016 12/09 A3005 RMK AO2 $=
201006280135 SPECI KCLM 280135Z AUTO 29007KT 10SM OVC016 12/09 A3005 RMK AO2 $=
201006280053 METAR KCLM 280053Z AUTO 28005KT 10SM OVC010 12/09 A3005 RMK AO2 SLP178 T01220094 $=
201006280038 SPECI KCLM 280038Z AUTO 28007KT 10SM OVC010 12/10 A3005 RMK AO2 $=
201006280038 SPECI KCLM 280038Z AUTO 28007KT 10SM OVC010 12/10 A3005 RMK AO2 $=
201006272353 METAR KCLM 272353Z AUTO 30007KT 10SM OVC006 12/10 A3006 RMK AO2 SLP179 T01220100 10156 20117 58002 $=
201006272253 METAR KCLM 272253Z AUTO 31010G15KT 10SM OVC008 12/10 A3007 RMK AO2 SLP182 T01220100 $=
201006272242 SPECI KCLM 272242Z AUTO 31008G15KT 10SM BKN008 OVC013 12/10 A3007 RMK AO2 $=
201006272242 SPECI KCLM 272242Z AUTO 31008G15KT 10SM BKN008 OVC013 12/10 A3007 RMK AO2 $=
201006272208 SPECI KCLM 272208Z AUTO 31006KT 10SM BKN010 OVC015 13/11 A3006 RMK AO2 CIG 008V012 $=
201006272208 SPECI KCLM 272208Z AUTO 31006KT 10SM BKN010 OVC015 13/11 A3006 RMK AO2 CIG 008V012 $=
201006272153 METAR KCLM 272153Z AUTO 32006KT 10SM SCT007 OVC015 13/11 A3006 RMK AO2 SLP181 T01330111 $=
201006272113 SPECI KCLM 272113Z AUTO 30009KT 10SM BKN007 BKN013 OVC020 13/11 A3006 RMK AO2 CIG 004V010 $=
201006272113 SPECI KCLM 272113Z AUTO 30009KT 10SM BKN007 BKN013 OVC020 13/11 A3006 RMK AO2 CIG 004V010 $=
201006272100 SPECI KCLM 272100Z AUTO 31009KT 290V350 10SM FEW007 BKN011 OVC041 14/11 A3006 RMK AO2 $=
201006272100 SPECI KCLM 272100Z AUTO 31009KT 290V350 10SM FEW007 BKN011 OVC041 14/11 A3006 RMK AO2 $=
201006272053 METAR KCLM 272053Z AUTO 33008KT 10SM SCT011 BKN019 OVC041 14/11 A3006 RMK AO2 SLP180 T01440111 53005 $=
201006272024 SPECI KCLM 272024Z AUTO VRB03KT 10SM BKN028 OVC042 14/11 A3006 RMK AO2 $=
201006272024 SPECI KCLM 272024Z AUTO VRB03KT 10SM BKN028 OVC042 14/11 A3006 RMK AO2 $=
201006271953 METAR KCLM 271953Z AUTO 36006KT 10SM FEW018 OVC040 14/11 A3005 RMK AO2 SLP175 T01440106 $=
201006271853 METAR KCLM 271853Z AUTO 32005KT 10SM BKN044 OVC055 14/11 A3006 RMK AO2 PK WND 33027/1830 SLP178 T01440106 $=
201006271843 SPECI KCLM 271843Z AUTO 34003KT 10SM BKN044 BKN050 OVC070 14/10 A3006 RMK AO2 PK WND 33027/1830 $=
201006271843 SPECI KCLM 271843Z AUTO 34003KT 10SM BKN044 BKN050 OVC070 14/10 A3006 RMK AO2 PK WND 33027/1830 $=
201006271836 SPECI KCLM 271836Z AUTO VRB03G27KT 10SM BKN044 BKN055 OVC070 13/10 A3006 RMK AO2 PK WND 33027/1830 $=
201006271836 SPECI KCLM 271836Z AUTO VRB03G27KT 10SM BKN044 BKN055 OVC070 13/10 A3006 RMK AO2 PK WND 33027/1830 $=
201006271753 METAR KCLM 271753Z AUTO 02004KT 10SM FEW055 BKN075 13/10 A3005 RMK AO2 SLP176 60000 T01330100 10144 20106 58005 $=
201006271653 METAR KCLM 271653Z AUTO 00000KT 10SM OVC055 13/11 A3006 RMK AO2 SLP180 T01330106 $=
201006271553 METAR KCLM 271553Z AUTO 00000KT 10SM OVC055 13/10 A3006 RMK AO2 SLP178 T01280100 $=
201006271517 SPECI KCLM 271517Z AUTO 00000KT 10SM FEW006 OVC060 12/11 A3006 RMK AO2 $=
201006271517 SPECI KCLM 271517Z AUTO 00000KT 10SM FEW006 OVC060 12/11 A3006 RMK AO2 $=
201006271453 METAR KCLM 271453Z AUTO 00000KT 10SM OVC055 12/10 A3006 RMK AO2 SLP181 60000 T01170100 58005 $=
201006271353 METAR KCLM 271353Z AUTO 00000KT 10SM OVC060 12/10 A3007 RMK AO2 SLP183 T01170100 $=
201006271253 METAR KCLM 271253Z AUTO 00000KT 10SM OVC060 11/09 A3008 RMK AO2 RAE35 SLP185 P0000 T01110094 $=
201006271153 METAR KCLM 271153Z AUTO 00000KT 9SM -RA SCT060 BKN070 OVC085 11/10 A3008 RMK AO2 RAB06 SLP185 P0000 60000 T01110100 10117 20106 56008 $=
201006271053 METAR KCLM 271053Z AUTO 26003KT 10SM OVC060 12/09 A3008 RMK AO2 SLP187 T01170089 $=
201006270953 METAR KCLM 270953Z AUTO 00000KT 10SM OVC060 11/09 A3008 RMK AO2 SLP187 T01110089 $=
201006270853 METAR KCLM 270853Z AUTO 27005KT 10SM OVC065 11/09 A3010 RMK AO2 SLP194 T01110089 56009 $=
201006270753 METAR KCLM 270753Z AUTO 27007KT 10SM BKN065 OVC120 11/08 A3011 RMK AO2 SLP196 T01060083 401610094 $=
201006270653 METAR KCLM 270653Z AUTO 28007KT 10SM SCT060 OVC120 11/08 A3011 RMK AO2 SLP196 T01110083 $=
201006270553 METAR KCLM 270553Z AUTO 28007KT 10SM OVC060 11/08 A3013 RMK AO2 SLP204 T01110083 10156 20111 50000 $=
201006270453 METAR KCLM 270453Z AUTO 28008KT 10SM OVC060 12/08 A3013 RMK AO2 SLP205 T01170078 $=
201006270353 METAR KCLM 270353Z AUTO 28007KT 10SM OVC065 12/08 A3013 RMK AO2 SLP203 T01220078 $=
201006270253 METAR KCLM 270253Z AUTO 28009KT 10SM OVC070 13/08 A3013 RMK AO2 SLP203 T01280078 56008 $=
201006270153 METAR KCLM 270153Z AUTO 31009KT 10SM CLR 14/08 A3013 RMK AO2 SLP204 T01390078 $=
201006270053 METAR KCLM 270053Z AUTO 31012G18KT 10SM CLR 14/07 A3014 RMK AO2 SLP208 T01440072=
201006262353 METAR KCLM 262353Z AUTO 32009KT 10SM CLR 16/08 A3015 RMK AO2 SLP210 T01560078 10161 20128 58006=
201006262253 METAR KCLM 262253Z AUTO 31007KT 10SM CLR 16/08 A3016 RMK AO2 SLP213 T01610078=
201006262153 METAR KCLM 262153Z AUTO 32010G16KT 290V350 10SM FEW100 15/07 A3017 RMK AO2 SLP217 T01500072=
201006262053 METAR KCLM 262053Z AUTO 32007G15KT 10SM CLR 15/08 A3017 RMK AO2 SLP217 T01500078 51001=
201006262024 SPECI KCLM 262024Z AUTO 32011G16KT 10SM SCT029 14/07 A3017 RMK AO2=
201006262024 SPECI KCLM 262024Z AUTO 32011G16KT 10SM SCT029 14/07 A3017 RMK AO2=
201006261953 METAR KCLM 261953Z AUTO 30007KT 10SM OVC029 16/08 A3017 RMK AO2 SLP217 T01560083=
201006261853 METAR KCLM 261853Z AUTO 35006KT 10SM OVC025 13/07 A3017 RMK AO2 SLP217 T01330072=
201006261753 METAR KCLM 261753Z AUTO 32008KT 10SM OVC025 13/07 A3017 RMK AO2 SLP217 T01330072 10133 20100 50004=
201006261653 METAR KCLM 261653Z AUTO 30008KT 10SM OVC025 12/07 A3017 RMK AO2 SLP218 T01220072=
201006261553 METAR KCLM 261553Z AUTO 33006KT 10SM OVC025 12/07 A3016 RMK AO2 SLP213 T01220072=
201006261453 METAR KCLM 261453Z AUTO 29004KT 10SM OVC023 12/07 A3016 RMK AO2 SLP212 T01170072 53010=
201006261353 METAR KCLM 261353Z AUTO 27003KT 10SM OVC021 11/07 A3014 RMK AO2 SLP206 T01110072=
201006261253 METAR KCLM 261253Z AUTO 28005KT 10SM OVC021 10/08 A3013 RMK AO2 SLP204 T01000078=
201006261153 METAR KCLM 261153Z AUTO 27006KT 10SM OVC019 11/07 A3013 RMK AO2 SLP201 T01060072 10106 20094 53006=
201006261053 METAR KCLM 261053Z AUTO 28006KT 10SM OVC019 10/07 A3012 RMK AO2 SLP199 T01000072=
201006260953 METAR KCLM 260953Z AUTO 28007KT 10SM OVC019 11/07 A3012 RMK AO2 SLP198 T01060072=
201006260853 METAR KCLM 260853Z AUTO 27005KT 10SM OVC019 10/08 A3011 RMK AO2 SLP196 T01000078 51006=
201006260753 METAR KCLM 260753Z AUTO 28008KT 10SM OVC019 10/08 A3010 RMK AO2 SLP195 T01000078 401560094=
201006260735 SPECI KCLM 260735Z AUTO 28007KT 10SM BKN019 10/08 A3010 RMK AO2=
201006260735 SPECI KCLM 260735Z AUTO 28007KT 10SM BKN019 10/08 A3010 RMK AO2=
201006260653 METAR KCLM 260653Z AUTO 28008KT 10SM CLR 10/07 A3010 RMK AO2 SLP192 T01000072=
201006260553 METAR KCLM 260553Z AUTO 28012KT 10SM FEW020 10/07 A3009 RMK AO2 SLP190 T01000072 10150 20100 53009=
201006260546 SPECI KCLM 260546Z AUTO 29009G17KT 10SM SCT020 10/07 A3009 RMK AO2=
201006260546 SPECI KCLM 260546Z AUTO 29009G17KT 10SM SCT020 10/07 A3009 RMK AO2=
201006260520 SPECI KCLM 260520Z AUTO 28008KT 10SM BKN020 10/07 A3009 RMK AO2=
201006260520 SPECI KCLM 260520Z AUTO 28008KT 10SM BKN020 10/07 A3009 RMK AO2=
201006260453 METAR KCLM 260453Z AUTO 29008KT 10SM SCT022 10/08 A3008 RMK AO2 SLP188 T01000078=
201006260353 METAR KCLM 260353Z AUTO 29007KT 10SM CLR 11/08 A3007 RMK AO2 SLP182 T01110078=
201006260253 METAR KCLM 260253Z AUTO 30010KT 10SM CLR 12/08 A3006 RMK AO2 SLP180 T01220083 51002=
201006260153 METAR KCLM 260153Z AUTO 31012G19KT 10SM CLR 13/08 A3006 RMK AO2 SLP180 T01330083=
201006260053 METAR KCLM 260053Z AUTO 31011G17KT 10SM CLR 14/09 A3006 RMK AO2 SLP180 T01440089=
201006252353 METAR KCLM 252353Z AUTO 31010G16KT 270V350 10SM FEW100 15/09 A3006 RMK AO2 SLP179 T01500094 10156 20128 58002=
201006252253 METAR KCLM 252253Z AUTO 32011G18KT 10SM CLR 14/09 A3007 RMK AO2 SLP181 T01440094 $=
201006252153 METAR KCLM 252153Z AUTO 31012G16KT 10SM FEW100 15/09 A3006 RMK AO2 SLP181 T01500094=
201006252127 SPECI KCLM 252127Z AUTO 32010G18KT 10SM FEW019 16/09 A3006 RMK AO2=
201006252127 SPECI KCLM 252127Z AUTO 32010G18KT 10SM FEW019 16/09 A3006 RMK AO2=
201006252053 METAR KCLM 252053Z AUTO 31010G17KT 10SM OVC017 14/09 A3007 RMK AO2 SLP181 T01440094 50002=
201006251953 METAR KCLM 251953Z AUTO 30009G15KT 10SM OVC017 14/09 A3007 RMK AO2 SLP183 T01390094=
201006251853 METAR KCLM 251853Z AUTO 31010G16KT 10SM OVC015 13/09 A3007 RMK AO2 SLP183 T01330089=
201006251753 METAR KCLM 251753Z AUTO 30010KT 10SM OVC015 13/09 A3006 RMK AO2 SLP179 T01280089 10133 20111 51013=
201006251653 METAR KCLM 251653Z AUTO 30008KT 10SM OVC015 13/09 A3005 RMK AO2 SLP176 T01280094=
201006251553 METAR KCLM 251553Z AUTO 29007KT 10SM OVC015 13/09 A3004 RMK AO2 SLP171 T01280089=
201006251453 METAR KCLM 251453Z AUTO 31007KT 10SM OVC015 13/09 A3002 RMK AO2 SLP166 T01280094 53004=
201006251412 SPECI KCLM 251412Z AUTO 29007KT 10SM OVC015 12/09 A3002 RMK AO2=
201006251412 SPECI KCLM 251412Z AUTO 29007KT 10SM OVC015 12/09 A3002 RMK AO2=
201006251353 METAR KCLM 251353Z AUTO 28007KT 10SM OVC013 12/09 A3001 RMK AO2 SLP164 T01220089=
201006251253 METAR KCLM 251253Z AUTO 29008KT 10SM OVC013 12/09 A3001 RMK AO2 SLP161 T01170089=
201006251153 METAR KCLM 251153Z AUTO 28007KT 10SM OVC013 12/09 A3001 RMK AO2 SLP162 T01170089 10122 20111 51002=
201006251053 METAR KCLM 251053Z AUTO 29008KT 10SM OVC013 12/09 A3001 RMK AO2 SLP161 T01170089=
201006251024 SPECI KCLM 251024Z AUTO 28008KT 10SM OVC013 12/09 A3001 RMK AO2=
201006251024 SPECI KCLM 251024Z AUTO 28008KT 10SM OVC013 12/09 A3001 RMK AO2=
201006250953 METAR KCLM 250953Z AUTO 29008KT 10SM OVC015 12/09 A3001 RMK AO2 SLP161 T01170089=
201006250930 SPECI KCLM 250930Z AUTO 29008KT 10SM OVC015 12/09 A3001 RMK AO2=
201006250930 SPECI KCLM 250930Z AUTO 29008KT 10SM OVC015 12/09 A3001 RMK AO2=
201006250853 METAR KCLM 250853Z AUTO 30009KT 10SM OVC011 12/09 A3000 RMK AO2 SLP160 T01170089 58006=
201006250753 METAR KCLM 250753Z AUTO 28007KT 10SM OVC011 12/09 A3001 RMK AO2 SLP163 T01170094 401830117=
201006250653 METAR KCLM 250653Z AUTO 29011G15KT 10SM OVC011 12/10 A3002 RMK AO2 SLP164 T01220100=
201006250553 METAR KCLM 250553Z AUTO 28013G20KT 10SM OVC013 12/10 A3002 RMK AO2 SLP166 T01220100 10172 20122 55003=
201006250453 METAR KCLM 250453Z AUTO 28011KT 10SM OVC013 13/10 A3002 RMK AO2 SLP166 T01280100=
201006250410 SPECI KCLM 250410Z AUTO 28010KT 10SM OVC013 13/11 A3002 RMK AO2=
201006250410 SPECI KCLM 250410Z AUTO 28010KT 10SM OVC013 13/11 A3002 RMK AO2=
201006250353 METAR KCLM 250353Z AUTO 28010G20KT 10SM OVC015 13/11 A3003 RMK AO2 SLP169 T01330106=
201006250253 METAR KCLM 250253Z AUTO 28010G18KT 10SM OVC015 14/11 A3003 RMK AO2 SLP170 T01390111 55007=
201006250153 METAR KCLM 250153Z AUTO 27010KT 10SM OVC017 15/12 A3003 RMK AO2 SLP170 T01500117=
201006250053 METAR KCLM 250053Z AUTO 29009KT 10SM OVC015 16/13 A3004 RMK AO2 SLP171 T01610128=
201006242353 METAR KCLM 242353Z AUTO 30010KT 10SM BKN015 OVC046 16/13 A3006 RMK AO2 SLP178 T01610128 10183 20150 58002=
201006242338 SPECI KCLM 242338Z AUTO 29009KT 10SM BKN015 OVC038 17/13 A3006 RMK AO2=
201006242338 SPECI KCLM 242338Z AUTO 29009KT 10SM BKN015 OVC038 17/13 A3006 RMK AO2=
201006242253 METAR KCLM 242253Z AUTO 30009KT 10SM FEW032 17/13 A3006 RMK AO2 SLP180 T01720128=
201006242153 METAR KCLM 242153Z AUTO 32011KT 10SM OVC030 17/13 A3007 RMK AO2 SLP181 T01720128=
201006242146 SPECI KCLM 242146Z AUTO 30008KT 10SM OVC030 17/13 A3007 RMK AO2=
201006242146 SPECI KCLM 242146Z AUTO 30008KT 10SM OVC030 17/13 A3007 RMK AO2=
201006242053 METAR KCLM 242053Z AUTO 32011G15KT 10SM OVC022 18/13 A3006 RMK AO2 SLP180 T01830133 58001=
201006242028 SPECI KCLM 242028Z AUTO 31007G16KT 10SM BKN022 OVC030 17/12 A3007 RMK AO2=
201006242028 SPECI KCLM 242028Z AUTO 31007G16KT 10SM BKN022 OVC030 17/12 A3007 RMK AO2=
201006241953 METAR KCLM 241953Z AUTO 31008KT 10SM CLR 18/13 A3007 RMK AO2 SLP183 T01780128=
201006241853 METAR KCLM 241853Z AUTO 30005KT 10SM CLR 16/12 A3007 RMK AO2 SLP182 T01610122=
201006241753 METAR KCLM 241753Z AUTO 30007KT 10SM FEW065 17/12 A3007 RMK AO2 SLP181 T01670122 10167 20128 50000=
201006241653 METAR KCLM 241653Z AUTO 30007KT 10SM FEW055 OVC070 16/12 A3007 RMK AO2 SLP182 T01610117=
201006241553 METAR KCLM 241553Z AUTO 00000KT 10SM SCT055 OVC075 14/11 A3007 RMK AO2 SLP181 T01440111=
201006241453 METAR KCLM 241453Z AUTO 30005KT 10SM SCT060 OVC075 14/11 A3006 RMK AO2 SLP180 T01390111 53001=
201006241353 METAR KCLM 241353Z AUTO 29003KT 10SM BKN060 OVC075 13/11 A3006 RMK AO2 SLP180 T01330106=
201006241253 METAR KCLM 241253Z AUTO 27008KT 10SM OVC065 13/09 A3006 RMK AO2 SLP180 T01330094=
201006241153 METAR KCLM 241153Z AUTO 26006KT 10SM OVC080 13/09 A3006 RMK AO2 SLP179 T01280094 10133 20122 55002=
201006241053 METAR KCLM 241053Z AUTO 29007KT 10SM OVC100 13/09 A3006 RMK AO2 SLP177 T01280094=
201006240953 METAR KCLM 240953Z AUTO 29005KT 10SM OVC100 13/09 A3006 RMK AO2 SLP179 T01280089=
201006240853 METAR KCLM 240853Z AUTO 26007KT 10SM OVC110 13/09 A3007 RMK AO2 SLP181 T01330089 56005=
201006240753 METAR KCLM 240753Z AUTO 27006KT 10SM OVC120 13/09 A3007 RMK AO2 SLP183 T01280094 402220106=
201006240653 METAR KCLM 240653Z AUTO 28008KT 10SM FEW120 12/09 A3008 RMK AO2 SLP185 T01220094=
201006240553 METAR KCLM 240553Z AUTO 27008KT 10SM CLR 13/09 A3008 RMK AO2 SLP187 T01280089 10200 20128 53004=
201006240453 METAR KCLM 240453Z AUTO 29007KT 10SM CLR 14/09 A3007 RMK AO2 SLP184 T01440089=
201006240353 METAR KCLM 240353Z AUTO 27007KT 10SM OVC110 15/08 A3007 RMK AO2 SLP182 T01500083=
201006240253 METAR KCLM 240253Z AUTO 28007KT 250V310 10SM SCT120 16/09 A3007 RMK AO2 SLP183 T01610094 51004=
201006240153 METAR KCLM 240153Z AUTO 31005KT 10SM CLR 18/09 A3007 RMK AO2 SLP181 T01830094=
201006240053 METAR KCLM 240053Z AUTO 32006KT 10SM CLR 18/09 A3006 RMK AO2 SLP180 T01780089=
201006232353 METAR KCLM 232353Z AUTO 32007KT 10SM CLR 20/10 A3006 RMK AO2 SLP178 T02000100 10222 20178 58008 TSNO=
201006232253 METAR KCLM 232253Z AUTO 33007KT 10SM SCT110 22/13 A3007 RMK AO2 SLP181 T02220128=
201006232153 METAR KCLM 232153Z AUTO 33004KT 10SM CLR 21/12 A3008 RMK AO2 SLP185 T02110117=
201006232053 METAR KCLM 232053Z AUTO 00000KT 10SM CLR 19/12 A3008 RMK AO2 SLP187 T01940117 58003=
201006231953 METAR KCLM 231953Z AUTO 30007KT 10SM CLR 19/12 A3009 RMK AO2 SLP190 T01890117=
201006231853 METAR KCLM 231853Z AUTO VRB03KT 10SM CLR 18/11 A3009 RMK AO2 SLP190 T01830111=
201006231753 METAR KCLM 231753Z AUTO 02004KT 10SM CLR 19/11 A3009 RMK AO2 SLP190 T01890111 10189 20111 58005=
201006231653 METAR KCLM 231653Z AUTO 00000KT 10SM CLR 16/12 A3010 RMK AO2 SLP192 T01610117=
201006231553 METAR KCLM 231553Z AUTO 00000KT 10SM CLR 14/11 A3010 RMK AO2 SLP194 T01440111=
201006231453 METAR KCLM 231453Z AUTO 30003KT 10SM CLR 13/11 A3011 RMK AO2 SLP196 T01330111 53005 TSNO=
201006231353 METAR KCLM 231353Z AUTO 31003KT 10SM CLR 13/11 A3009 RMK AO2 SLP189 T01330111=
201006231253 METAR KCLM 231253Z AUTO 16003KT 10SM SCT110 12/10 A3009 RMK AO2 SLP188 T01170100=
201006231153 METAR KCLM 231153Z AUTO 00000KT 10SM CLR 12/10 A3009 RMK AO2 SLP190 T01170100 10117 20106 55005=
201006231053 METAR KCLM 231053Z AUTO 14003KT 10SM BKN120 12/10 A3009 RMK AO2 SLP190 T01170100=
201006230953 METAR KCLM 230953Z AUTO 00000KT 10SM CLR 11/09 A3010 RMK AO2 SLP192 T01110094=
201006230853 METAR KCLM 230853Z AUTO 29003KT 10SM SCT120 12/10 A3011 RMK AO2 SLP195 T01170100 56006=
201006230753 METAR KCLM 230753Z AUTO 00000KT 10SM BKN120 12/10 A3011 RMK AO2 SLP197 T01170100 401670061=
201006230653 METAR KCLM 230653Z AUTO 28003KT 10SM SCT120 11/09 A3012 RMK AO2 SLP201 T01110094=
201006230553 METAR KCLM 230553Z AUTO 00000KT 10SM CLR 12/10 A3013 RMK AO2 SLP202 T01170100 10161 20117 58006=
201006230453 METAR KCLM 230453Z AUTO 00000KT 10SM CLR 12/10 A3014 RMK AO2 SLP206 T01170100=
201006230353 METAR KCLM 230353Z AUTO 29004KT 10SM FEW100 12/09 A3014 RMK AO2 SLP206 T01220094=
201006230253 METAR KCLM 230253Z AUTO 30004KT 10SM CLR 14/10 A3014 RMK AO2 SLP209 T01390100 56010=
201006230153 METAR KCLM 230153Z AUTO 29005KT 10SM CLR 14/11 A3015 RMK AO2 SLP211 T01440106=
201006230053 METAR KCLM 230053Z AUTO 31008KT 10SM FEW100 16/10 A3017 RMK AO2 SLP216 T01560100=
201006222353 METAR KCLM 222353Z AUTO 32004KT 10SM CLR 16/11 A3017 RMK AO2 SLP219 T01560106 10167 20122 58002=
201006222253 METAR KCLM 222253Z AUTO 30006KT 10SM CLR 16/11 A3018 RMK AO2 SLP220 T01610106=
201006222153 METAR KCLM 222153Z AUTO 36004KT 10SM CLR 16/11 A3018 RMK AO2 SLP220 T01610106=
201006222053 METAR KCLM 222053Z AUTO VRB04KT 10SM CLR 16/11 A3018 RMK AO2 SLP221 T01610111 58002=
201006221953 METAR KCLM 221953Z AUTO 36004KT 10SM CLR 14/11 A3019 RMK AO2 SLP223 T01440106=
201006221853 METAR KCLM 221853Z AUTO VRB05KT 10SM FEW100 13/11 A3019 RMK AO2 SLP224 T01280106=
201006221753 METAR KCLM 221753Z AUTO 36004KT 10SM CLR 13/11 A3019 RMK AO2 SLP221 T01330106 10139 20061 58004=
201006221724 SPECI KCLM 221724Z AUTO 00000KT 10SM SCT003 12/11 A3019 RMK AO2=
201006221724 SPECI KCLM 221724Z AUTO 00000KT 10SM SCT003 12/11 A3019 RMK AO2=
201006221705 SPECI KCLM 221705Z AUTO 31004KT 10SM OVC003 12/11 A3019 RMK AO2=
201006221705 SPECI KCLM 221705Z AUTO 31004KT 10SM OVC003 12/11 A3019 RMK AO2=
201006221653 METAR KCLM 221653Z AUTO VRB03KT 10SM OVC001 11/11 A3019 RMK AO2 SLP224 T01110106=
201006221637 SPECI KCLM 221637Z AUTO 34004KT 4SM BR OVC001 11/10 A3019 RMK AO2=
201006221637 SPECI KCLM 221637Z AUTO 34004KT 4SM BR OVC001 11/10 A3019 RMK AO2=
201006221625 SPECI KCLM 221625Z AUTO 30005KT 2SM BR OVC001 11/10 A3020 RMK AO2 VIS 1V3=
201006221625 SPECI KCLM 221625Z AUTO 30005KT 2SM BR OVC001 11/10 A3020 RMK AO2 VIS 1V3=
201006221553 METAR KCLM 221553Z AUTO 32003KT 3/4SM BR OVC001 11/10 A3020 RMK AO2 SLP226 T01060100=
201006221551 SPECI KCLM 221551Z AUTO VRB03KT 1/2SM FG OVC001 11/10 A3020 RMK AO2=
201006221551 SPECI KCLM 221551Z AUTO VRB03KT 1/2SM FG OVC001 11/10 A3020 RMK AO2=
201006221453 METAR KCLM 221453Z AUTO 29003KT 1/4SM FG VV001 09/09 A3019 RMK AO2 SLP225 T00940089 53004=
201006221353 METAR KCLM 221353Z AUTO 00000KT M1/4SM FG VV001 09/09 A3018 RMK AO2 SLP222 T00890089=
201006221253 METAR KCLM 221253Z AUTO 00000KT 1/4SM FG VV001 07/07 A3018 RMK AO2 SLP221 T00720067=
201006221250 SPECI KCLM 221250Z AUTO 00000KT 1/4SM FG VV001 07/07 A3018 RMK AO2=
201006221250 SPECI KCLM 221250Z AUTO 00000KT 1/4SM FG VV001 07/07 A3018 RMK AO2=
201006221242 SPECI KCLM 221242Z AUTO 00000KT 3/4SM BR VV001 07/07 A3018 RMK AO2 VIS M1/4V4=
201006221242 SPECI KCLM 221242Z AUTO 00000KT 3/4SM BR VV001 07/07 A3018 RMK AO2 VIS M1/4V4=
201006221234 SPECI KCLM 221234Z AUTO 00000KT 2 1/2SM BR BKN001 07/06 A3018 RMK AO2=
201006221234 SPECI KCLM 221234Z AUTO 00000KT 2 1/2SM BR BKN001 07/06 A3018 RMK AO2=
201006221223 SPECI KCLM 221223Z AUTO 00000KT 1SM BR VV001 07/06 A3018 RMK AO2 VIS 1/2V5=
201006221223 SPECI KCLM 221223Z AUTO 00000KT 1SM BR VV001 07/06 A3018 RMK AO2 VIS 1/2V5=
201006221218 SPECI KCLM 221218Z AUTO 00000KT 2 1/2SM BR FEW001 06/06 A3017 RMK AO2 VIS 3/4V5=
201006221218 SPECI KCLM 221218Z AUTO 00000KT 2 1/2SM BR FEW001 06/06 A3017 RMK AO2 VIS 3/4V5=
201006221153 METAR KCLM 221153Z AUTO 00000KT 10SM CLR 07/06 A3017 RMK AO2 SLP217 T00670061 10122 20067 58005=
201006221104 SPECI KCLM 221104Z AUTO 00000KT 9SM SCT001 07/07 A3018 RMK AO2=
201006221104 SPECI KCLM 221104Z AUTO 00000KT 9SM SCT001 07/07 A3018 RMK AO2=
201006221057 SPECI KCLM 221057Z AUTO 24003KT 2SM BR BKN001 BKN009 08/07 A3018 RMK AO2=
201006221057 SPECI KCLM 221057Z AUTO 24003KT 2SM BR BKN001 BKN009 08/07 A3018 RMK AO2=
201006221053 METAR KCLM 221053Z AUTO 25003KT 1/2SM FG BKN001 BKN009 08/07 A3018 RMK AO2 SLP220 T00780072=
201006221043 SPECI KCLM 221043Z AUTO 26004KT 1/4SM FG VV001 08/07 A3018 RMK AO2=
201006221043 SPECI KCLM 221043Z AUTO 26004KT 1/4SM FG VV001 08/07 A3018 RMK AO2=
201006221037 SPECI KCLM 221037Z AUTO 27003KT 1SM BR VV001 07/07 A3018 RMK AO2=
201006221037 SPECI KCLM 221037Z AUTO 27003KT 1SM BR VV001 07/07 A3018 RMK AO2=
201006221032 SPECI KCLM 221032Z AUTO 00000KT 2 1/2SM BR FEW001 07/07 A3018 RMK AO2 VIS 1 3/4V5=
201006221032 SPECI KCLM 221032Z AUTO 00000KT 2 1/2SM BR FEW001 07/07 A3018 RMK AO2 VIS 1 3/4V5=
201006220956 SPECI KCLM 220956Z AUTO 00000KT 3SM BR CLR 08/08 A3018 RMK AO2=
201006220956 SPECI KCLM 220956Z AUTO 00000KT 3SM BR CLR 08/08 A3018 RMK AO2=
201006220953 METAR KCLM 220953Z AUTO 00000KT 1 1/2SM BR CLR 08/07 A3018 RMK AO2 SLP222 T00780072=
201006220941 SPECI KCLM 220941Z AUTO 29003KT 1SM BR FEW028 08/08 A3019 RMK AO2=
201006220941 SPECI KCLM 220941Z AUTO 29003KT 1SM BR FEW028 08/08 A3019 RMK AO2=
201006220938 SPECI KCLM 220938Z AUTO 29003KT 3/4SM BR VV015 08/08 A3019 RMK AO2=
201006220938 SPECI KCLM 220938Z AUTO 29003KT 3/4SM BR VV015 08/08 A3019 RMK AO2=
201006220934 SPECI KCLM 220934Z AUTO 00000KT 1SM BR VV010 08/08 A3019 RMK AO2=
201006220934 SPECI KCLM 220934Z AUTO 00000KT 1SM BR VV010 08/08 A3019 RMK AO2=
201006220927 SPECI KCLM 220927Z AUTO 00000KT 1SM BR VV006 08/08 A3019 RMK AO2=
201006220927 SPECI KCLM 220927Z AUTO 00000KT 1SM BR VV006 08/08 A3019 RMK AO2=
201006220925 SPECI KCLM 220925Z AUTO 00000KT 3/4SM BR VV010 08/08 A3019 RMK AO2=
201006220925 SPECI KCLM 220925Z AUTO 00000KT 3/4SM BR VV010 08/08 A3019 RMK AO2=
201006220917 SPECI KCLM 220917Z AUTO 28003KT 1/4SM FG VV006 08/07 A3018 RMK AO2=
201006220917 SPECI KCLM 220917Z AUTO 28003KT 1/4SM FG VV006 08/07 A3018 RMK AO2=
201006220903 SPECI KCLM 220903Z AUTO 00000KT 1/4SM FG VV001 08/08 A3018 RMK AO2=
201006220903 SPECI KCLM 220903Z AUTO 00000KT 1/4SM FG VV001 08/08 A3018 RMK AO2=
201006220853 METAR KCLM 220853Z AUTO 00000KT 3/4SM BR VV001 08/08 A3018 RMK AO2 SLP222 T00830078 55003=
201006220849 SPECI KCLM 220849Z AUTO 00000KT 1 3/4SM BR FEW001 08/07 A3018 RMK AO2=
201006220849 SPECI KCLM 220849Z AUTO 00000KT 1 3/4SM BR FEW001 08/07 A3018 RMK AO2=
201006220753 METAR KCLM 220753Z AUTO 28005KT 10SM CLR 09/08 A3018 RMK AO2 SLP221 T00940083 401720061=
201006220653 METAR KCLM 220653Z AUTO 25004KT 10SM CLR 11/09 A3018 RMK AO2 SLP221 T01110094=
201006220553 METAR KCLM 220553Z AUTO 26003KT 10SM OVC035 12/09 A3019 RMK AO2 SLP225 T01220094 10156 20117 53003=
201006220453 METAR KCLM 220453Z AUTO 24003KT 10SM OVC070 12/09 A3019 RMK AO2 SLP223 T01220094=
201006220353 METAR KCLM 220353Z AUTO 27007KT 10SM OVC075 13/09 A3018 RMK AO2 SLP221 T01280094=
201006220253 METAR KCLM 220253Z AUTO 30003KT 10SM OVC037 14/09 A3019 RMK AO2 SLP222 T01440094 58000=
201006220153 METAR KCLM 220153Z AUTO 29004KT 10SM OVC035 14/09 A3019 RMK AO2 SLP223 T01440094=
201006220053 METAR KCLM 220053Z AUTO 31007KT 10SM FEW022 OVC033 15/10 A3019 RMK AO2 SLP225 T01500100=
201006212353 METAR KCLM 212353Z AUTO 35006KT 10SM BKN035 16/10 A3019 RMK AO2 SLP223 T01560100 10172 20128 58003=
201006212253 METAR KCLM 212253Z AUTO 32007KT 300V360 10SM SCT050 17/11 A3019 RMK AO2 SLP224 T01670111=
201006212205 SPECI KCLM 212205Z AUTO 30006KT 10SM SCT023 SCT037 OVC055 15/11 A3020 RMK AO2=
201006212205 SPECI KCLM 212205Z AUTO 30006KT 10SM SCT023 SCT037 OVC055 15/11 A3020 RMK AO2=
201006212153 METAR KCLM 212153Z AUTO 35005KT 10SM BKN023 OVC055 14/10 A3020 RMK AO2 SLP227 T01390100=
201006212116 SPECI KCLM 212116Z AUTO 35006KT 10SM BKN023 BKN065 14/10 A3020 RMK AO2=
201006212116 SPECI KCLM 212116Z AUTO 35006KT 10SM BKN023 BKN065 14/10 A3020 RMK AO2=
201006212053 METAR KCLM 212053Z AUTO 36005KT 10SM SCT065 15/10 A3020 RMK AO2 SLP227 T01500100 50005=
201006211953 METAR KCLM 211953Z AUTO 01005KT 10SM FEW015 BKN090 14/10 A3020 RMK AO2 SLP228 T01440100=
201006211853 METAR KCLM 211853Z AUTO 33006KT 10SM FEW031 BKN055 14/09 A3019 RMK AO2 SLP225 T01390094=
201006211753 METAR KCLM 211753Z AUTO 30005KT 10SM OVC050 13/09 A3018 RMK AO2 SLP222 T01330094 10133 20061 50001=
201006211700 METAR KCLM NIL=
201006211653 METAR KCLM 211653Z AUTO 31004KT 10SM SCT033 OVC055 13/09 A3018 RMK AO2 SLP222 T01280094=
201006211553 METAR KCLM 211553Z AUTO 29005KT 10SM BKN055 12/09 A3018 RMK AO2 SLP221 T01220094=
201006211453 METAR KCLM 211453Z AUTO 00000KT 10SM SCT014 BKN090 12/09 A3018 RMK AO2 SLP221 T01170089 50001=
201006211424 SPECI KCLM 211424Z AUTO 25004KT 10SM SCT022 BKN090 11/09 A3018 RMK AO2=
201006211424 SPECI KCLM 211424Z AUTO 25004KT 10SM SCT022 BKN090 11/09 A3018 RMK AO2=
201006211400 SPECI KCLM 211400Z AUTO 00000KT 10SM BKN022 09/08 A3019 RMK AO2=
201006211400 SPECI KCLM 211400Z AUTO 00000KT 10SM BKN022 09/08 A3019 RMK AO2=
201006211353 METAR KCLM 211353Z AUTO 00000KT 10SM SCT022 08/07 A3019 RMK AO2 SLP223 T00830072=
201006211253 METAR KCLM 211253Z AUTO 00000KT 10SM SCT021 07/06 A3019 RMK AO2 SLP223 T00670056=
201006211153 METAR KCLM 211153Z AUTO 28003KT 10SM CLR 07/06 A3018 RMK AO2 SLP220 T00720061 10106 20072 51001=
201006211053 METAR KCLM 211053Z AUTO 25004KT 10SM CLR 08/07 A3018 RMK AO2 SLP219 T00780067=
201006211031 SPECI KCLM 211031Z AUTO 28006KT 10SM FEW022 08/07 A3018 RMK AO2=
201006211031 SPECI KCLM 211031Z AUTO 28006KT 10SM FEW022 08/07 A3018 RMK AO2=
201006210953 METAR KCLM 210953Z AUTO 29007KT 10SM OVC018 09/07 A3018 RMK AO2 SLP220 T00940072=
201006210853 METAR KCLM 210853Z AUTO 29005KT 10SM OVC018 09/08 A3017 RMK AO2 SLP219 T00940078 58002=
201006210753 METAR KCLM 210753Z AUTO 29007KT 10SM OVC018 10/08 A3018 RMK AO2 SLP221 T01000078 401390100=
201006210653 METAR KCLM 210653Z AUTO 30005KT 10SM OVC018 11/08 A3018 RMK AO2 SLP221 T01060083=
201006210553 METAR KCLM 210553Z AUTO 28008KT 10SM OVC016 11/09 A3018 RMK AO2 SLP220 T01060089 10122 20106 58000=
201006210453 METAR KCLM 210453Z AUTO 27003KT 10SM OVC015 11/09 A3019 RMK AO2 SLP224 T01110089=
201006210450 SPECI KCLM 210450Z AUTO 28003KT 10SM OVC015 11/09 A3019 RMK AO2=
201006210450 SPECI KCLM 210450Z AUTO 28003KT 10SM OVC015 11/09 A3019 RMK AO2=
201006210353 METAR KCLM 210353Z AUTO 29004KT 10SM OVC010 11/09 A3018 RMK AO2 CIG 009V014 SLP221 T01110089=
201006210253 METAR KCLM 210253Z AUTO 30005KT 10SM OVC010 11/09 A3017 RMK AO2 SLP219 T01110089 51002=
201006210153 METAR KCLM 210153Z AUTO 30004KT 10SM OVC010 11/09 A3017 RMK AO2 SLP218 T01110089=
201006210053 METAR KCLM 210053Z AUTO 30005KT 10SM OVC010 12/09 A3017 RMK AO2 SLP218 T01170089=
201006202353 METAR KCLM 202353Z AUTO 31009KT 10SM OVC014 12/09 A3017 RMK AO2 SLP217 T01220089 10139 20111 56006=
201006202323 SPECI KCLM 202323Z AUTO 31008KT 10SM OVC014 13/09 A3017 RMK AO2=
201006202323 SPECI KCLM 202323Z AUTO 31008KT 10SM OVC014 13/09 A3017 RMK AO2=
201006202253 METAR KCLM 202253Z AUTO 31009KT 10SM BKN016 OVC021 13/09 A3017 RMK AO2 SLP218 T01330094=
201006202239 SPECI KCLM 202239Z AUTO 30008KT 280V340 10SM BKN016 OVC021 13/09 A3017 RMK AO2=
201006202239 SPECI KCLM 202239Z AUTO 30008KT 280V340 10SM BKN016 OVC021 13/09 A3017 RMK AO2=
201006202153 METAR KCLM 202153Z AUTO 31008KT 10SM OVC014 13/09 A3018 RMK AO2 SLP219 T01330094=
201006202053 METAR KCLM 202053Z AUTO 30006KT 10SM OVC014 12/09 A3019 RMK AO2 SLP222 T01220089 53008=
201006202029 SPECI KCLM 202029Z AUTO 30005KT 10SM OVC014 12/09 A3018 RMK AO2=
201006202029 SPECI KCLM 202029Z AUTO 30005KT 10SM OVC014 12/09 A3018 RMK AO2=
201006202013 SPECI KCLM 202013Z AUTO 31007KT 10SM OVC016 13/09 A3018 RMK AO2=
201006202013 SPECI KCLM 202013Z AUTO 31007KT 10SM OVC016 13/09 A3018 RMK AO2=
201006201953 METAR KCLM 201953Z AUTO 32008KT 10SM OVC014 12/09 A3017 RMK AO2 SLP219 T01220094=
201006201903 SPECI KCLM 201903Z AUTO 32009KT 10SM OVC014 11/09 A3017 RMK AO2=
201006201903 SPECI KCLM 201903Z AUTO 32009KT 10SM OVC014 11/09 A3017 RMK AO2=
201006201853 METAR KCLM 201853Z AUTO 33008KT 10SM OVC016 12/09 A3017 RMK AO2 SLP217 T01170089=
201006201753 METAR KCLM 201753Z AUTO VRB05KT 10SM OVC016 13/10 A3016 RMK AO2 SLP215 60000 T01280100 10128 20106 50003=
201006201653 METAR KCLM 201653Z AUTO 31008KT 10SM OVC016 12/09 A3017 RMK AO2 SLP217 T01220094=
201006201624 SPECI KCLM 201624Z AUTO VRB05KT 10SM OVC016 12/09 A3017 RMK AO2=
201006201624 SPECI KCLM 201624Z AUTO VRB05KT 10SM OVC016 12/09 A3017 RMK AO2=
201006201553 METAR KCLM 201553Z AUTO 32007KT 10SM OVC014 12/09 A3016 RMK AO2 SLP215 T01220089=
201006201534 SPECI KCLM 201534Z AUTO 31003KT 10SM OVC014 12/09 A3016 RMK AO2=
201006201534 SPECI KCLM 201534Z AUTO 31003KT 10SM OVC014 12/09 A3016 RMK AO2=
201006201523 SPECI KCLM 201523Z AUTO 29004KT 10SM BKN016 OVC075 12/09 A3015 RMK AO2=
201006201523 SPECI KCLM 201523Z AUTO 29004KT 10SM BKN016 OVC075 12/09 A3015 RMK AO2=
201006201507 SPECI KCLM 201507Z AUTO 30006KT 10SM FEW010 SCT016 OVC075 12/09 A3015 RMK AO2=
201006201507 SPECI KCLM 201507Z AUTO 30006KT 10SM FEW010 SCT016 OVC075 12/09 A3015 RMK AO2=
201006201453 METAR KCLM 201453Z AUTO 28007KT 10SM BKN016 OVC075 12/09 A3015 RMK AO2 SLP212 60000 T01170089 50004=
201006201416 SPECI KCLM 201416Z AUTO 28006KT 10SM BKN016 OVC070 11/09 A3016 RMK AO2=
201006201416 SPECI KCLM 201416Z AUTO 28006KT 10SM BKN016 OVC070 11/09 A3016 RMK AO2=
201006201353 METAR KCLM 201353Z AUTO 28005KT 10SM OVC014 11/09 A3016 RMK AO2 SLP213 T01110089=
201006201253 METAR KCLM 201253Z AUTO 28006KT 10SM FEW010 OVC016 11/09 A3015 RMK AO2 RAE11 SLP210 P0000 T01060089=
201006201153 METAR KCLM 201153Z AUTO 28007KT 10SM -RA OVC016 11/09 A3014 RMK AO2 RAB46 SLP208 P0000 60000 T01060089 10111 20100 50000=
201006201053 METAR KCLM 201053Z AUTO 26003KT 10SM OVC010 11/09 A3015 RMK AO2 SLP211 T01110089=
201006201015 SPECI KCLM 201015Z AUTO 29003KT 10SM BKN012 OVC017 11/09 A3015 RMK AO2=
201006201015 SPECI KCLM 201015Z AUTO 29003KT 10SM BKN012 OVC017 11/09 A3015 RMK AO2=
201006200953 METAR KCLM 200953Z AUTO 28007KT 10SM OVC017 11/09 A3015 RMK AO2 SLP208 T01060089=
201006200853 METAR KCLM 200853Z AUTO 27007KT 10SM OVC015 11/09 A3014 RMK AO2 SLP207 T01060089 55005=
201006200753 METAR KCLM 200753Z AUTO 29007KT 10SM OVC015 11/09 A3014 RMK AO2 SLP206 T01110089 401610100=
201006200653 METAR KCLM 200653Z AUTO 28009KT 10SM OVC015 11/09 A3016 RMK AO2 SLP212 T01110089=
201006200553 METAR KCLM 200553Z AUTO 27007KT 10SM OVC017 11/09 A3016 RMK AO2 SLP213 T01060089 10144 20106 53007=
201006200525 SPECI KCLM 200525Z AUTO 27007KT 10SM SCT012 OVC017 11/09 A3015 RMK AO2=
201006200525 SPECI KCLM 200525Z AUTO 27007KT 10SM SCT012 OVC017 11/09 A3015 RMK AO2=
201006200505 SPECI KCLM 200505Z AUTO 28006KT 10SM BKN012 OVC017 11/09 A3015 RMK AO2=
201006200505 SPECI KCLM 200505Z AUTO 28006KT 10SM BKN012 OVC017 11/09 A3015 RMK AO2=
201006200453 METAR KCLM 200453Z AUTO 28009KT 10SM SCT010 BKN017 BKN100 11/09 A3015 RMK AO2 SLP210 T01060089=
201006200353 METAR KCLM 200353Z AUTO 28009KT 10SM FEW070 11/09 A3013 RMK AO2 SLP204 T01110089=
201006200253 METAR KCLM 200253Z AUTO 28008KT 10SM FEW013 SCT075 BKN095 12/09 A3014 RMK AO2 SLP206 T01170089 53010=
201006200153 METAR KCLM 200153Z AUTO 30005KT 10SM OVC100 13/09 A3012 RMK AO2 SLP201 T01280094=
201006200053 METAR KCLM 200053Z AUTO 31010KT 10SM CLR 13/09 A3011 RMK AO2 SLP197 T01330094=
201006192353 METAR KCLM 192353Z AUTO 32007KT 10SM CLR 14/10 A3011 RMK AO2 SLP195 T01390100 10161 20133 53001=
201006192253 METAR KCLM 192253Z AUTO 31012KT 10SM FEW100 16/11 A3010 RMK AO2 SLP192 T01560106=
201006192153 METAR KCLM 192153Z AUTO 30010KT 10SM CLR 15/10 A3010 RMK AO2 SLP193 T01500100=
201006192053 METAR KCLM 192053Z AUTO 33008KT 10SM SCT100 16/11 A3010 RMK AO2 SLP193 T01610106 51001=
201006191953 METAR KCLM 191953Z AUTO 32007KT 10SM FEW075 BKN100 14/10 A3010 RMK AO2 SLP193 T01440100=
201006191853 METAR KCLM 191853Z AUTO 30007KT 10SM BKN065 15/11 A3010 RMK AO2 SLP193 T01500106=
201006191753 METAR KCLM 191753Z AUTO 31009KT 10SM OVC070 13/09 A3010 RMK AO2 SLP192 T01330094 10144 20106 51009=
201006191653 METAR KCLM 191653Z AUTO VRB05KT 10SM FEW100 14/11 A3009 RMK AO2 SLP190 T01440106=
201006191553 METAR KCLM 191553Z AUTO 30008KT 10SM CLR 13/10 A3008 RMK AO2 SLP187 T01330100=
201006191453 METAR KCLM 191453Z AUTO 30009KT 10SM BKN065 12/09 A3007 RMK AO2 SLP183 T01220094 51012=
201006191353 METAR KCLM 191353Z AUTO 29006KT 10SM OVC060 12/09 A3006 RMK AO2 SLP180 T01170094=
201006191253 METAR KCLM 191253Z AUTO 30006KT 10SM OVC060 11/09 A3005 RMK AO2 SLP176 T01110089=
201006191153 METAR KCLM 191153Z AUTO 31009KT 10SM OVC060 11/09 A3004 RMK AO2 SLP171 T01060089 10133 20100 51002=
201006191053 METAR KCLM 191053Z AUTO 31008KT 10SM SCT060 11/08 A3003 RMK AO2 SLP170 T01060083=
201006190953 METAR KCLM 190953Z AUTO 31006KT 10SM FEW060 SCT075 11/08 A3003 RMK AO2 SLP170 T01060083=
201006190853 METAR KCLM 190853Z AUTO 26008KT 10SM BKN060 BKN120 13/08 A3003 RMK AO2 SLP168 T01330078 52003=
201006190753 METAR KCLM 190753Z AUTO 25006KT 10SM FEW100 BKN120 13/08 A3002 RMK AO2 SLP167 T01280078 401720089=
201006190653 METAR KCLM 190653Z AUTO 28008KT 10SM FEW060 12/08 A3002 RMK AO2 SLP167 T01170078=
201006190553 METAR KCLM 190553Z AUTO 29006KT 10SM SCT080 BKN120 12/08 A3002 RMK AO2 SLP167 T01170078 10161 20117 50002=
201006190453 METAR KCLM 190453Z AUTO 27005KT 10SM SCT080 SCT100 BKN120 12/08 A3003 RMK AO2 SLP170 T01220078=
201006190353 METAR KCLM 190353Z AUTO 29008KT 10SM FEW100 SCT120 13/07 A3002 RMK AO2 SLP168 T01280072=
201006190253 METAR KCLM 190253Z AUTO 29006KT 10SM CLR 13/08 A3002 RMK AO2 SLP165 T01330078 55003=
201006190153 METAR KCLM 190153Z AUTO 31006KT 10SM CLR 14/07 A3001 RMK AO2 SLP162 T01440072=
201006190053 METAR KCLM 190053Z AUTO 28007KT 10SM CLR 15/07 A3001 RMK AO2 SLP165 T01500072=
201006182353 METAR KCLM 182353Z AUTO VRB05KT 10SM CLR 16/08 A3002 RMK AO2 SLP167 T01610083 10172 20122 58015=
201006182253 METAR KCLM 182253Z AUTO 34003KT 10SM FEW100 16/08 A3004 RMK AO2 SLP173 T01610078=
201006182153 METAR KCLM 182153Z AUTO VRB04KT 10SM CLR 16/08 A3006 RMK AO2 SLP177 T01610078=
201006182053 METAR KCLM 182053Z AUTO VRB03KT 10SM CLR 14/06 A3007 RMK AO2 SLP181 T01440061 57010=
201006181953 METAR KCLM 181953Z AUTO VRB05KT 10SM CLR 14/07 A3008 RMK AO2 SLP184 T01440067=
201006181853 METAR KCLM 181853Z AUTO 36004KT 10SM FEW055 14/08 A3009 RMK AO2 SLP188 T01440083=
201006181753 METAR KCLM 181753Z AUTO VRB04KT 10SM OVC060 13/08 A3010 RMK AO2 SLP192 T01280083 10128 20089 58005=
201006181653 METAR KCLM 181653Z AUTO VRB03KT 10SM OVC060 12/08 A3010 RMK AO2 SLP195 T01220078=
201006181553 METAR KCLM 181553Z AUTO 00000KT 10SM OVC060 11/08 A3011 RMK AO2 SLP197 T01110078=
201006181453 METAR KCLM 181453Z AUTO 31003KT 10SM OVC060 11/07 A3011 RMK AO2 SLP198 T01060072 56003=
201006181353 METAR KCLM 181353Z AUTO 30003KT 10SM OVC060 10/07 A3011 RMK AO2 SLP198 T01000072=
201006181253 METAR KCLM 181253Z AUTO 30003KT 10SM OVC065 09/07 A3011 RMK AO2 SLP197 T00940072=
201006181153 METAR KCLM 181153Z AUTO 25004KT 10SM BKN040 BKN060 OVC100 09/07 A3012 RMK AO2 SLP201 T00940067 10106 20094 58006=
201006181053 METAR KCLM 181053Z AUTO 28004KT 10SM BKN040 OVC110 10/07 A3013 RMK AO2 SLP203 T01000072=
201006180953 METAR KCLM 180953Z AUTO 28005KT 10SM OVC038 11/07 A3014 RMK AO2 SLP206 T01060072=
201006180853 METAR KCLM 180853Z AUTO 00000KT 10SM OVC038 11/08 A3014 RMK AO2 SLP207 T01060083 56010=
201006180753 METAR KCLM 180753Z AUTO 26003KT 10SM OVC034 11/08 A3015 RMK AO2 SLP209 T01060078 401280072=
201006180653 METAR KCLM 180653Z AUTO 29005KT 10SM OVC030 11/08 A3015 RMK AO2 SLP212 T01060078=
201006180553 METAR KCLM 180553Z AUTO 27005KT 10SM OVC032 11/08 A3017 RMK AO2 SLP217 T01060078 10122 20106 58001=
201006180517 SPECI KCLM 180517Z AUTO 26005KT 10SM OVC030 11/08 A3017 RMK AO2=
201006180517 SPECI KCLM 180517Z AUTO 26005KT 10SM OVC030 11/08 A3017 RMK AO2=
201006180453 METAR KCLM 180453Z AUTO 26005KT 10SM OVC026 11/08 A3018 RMK AO2 SLP220 T01060078=
201006180353 METAR KCLM 180353Z AUTO 27005KT 10SM OVC027 11/08 A3017 RMK AO2 SLP218 T01110078=
201006180253 METAR KCLM 180253Z AUTO 30004KT 10SM OVC027 11/08 A3017 RMK AO2 SLP218 T01110078 58003=
201006180153 METAR KCLM 180153Z AUTO 27006KT 10SM OVC027 12/07 A3017 RMK AO2 SLP219 T01170072=
201006180053 METAR KCLM 180053Z AUTO 30004KT 10SM OVC029 12/08 A3018 RMK AO2 SLP221 T01220078=
201006180046 SPECI KCLM 180046Z AUTO 30003KT 10SM OVC029 12/08 A3018 RMK AO2=
201006180046 SPECI KCLM 180046Z AUTO 30003KT 10SM OVC029 12/08 A3018 RMK AO2=
201006172353 METAR KCLM 172353Z AUTO 29007KT 10SM OVC031 12/07 A3018 RMK AO2 SLP220 T01220072 10128 20117 55000=
201006172253 METAR KCLM 172253Z AUTO 31009KT 10SM OVC035 13/07 A3018 RMK AO2 SLP219 T01280072=
201006172237 SPECI KCLM 172237Z AUTO 29005KT 10SM SCT021 OVC035 13/08 A3018 RMK AO2=
201006172237 SPECI KCLM 172237Z AUTO 29005KT 10SM SCT021 OVC035 13/08 A3018 RMK AO2=
201006172220 SPECI KCLM 172220Z AUTO 30006KT 10SM BKN021 OVC035 13/07 A3018 RMK AO2=
201006172220 SPECI KCLM 172220Z AUTO 30006KT 10SM BKN021 OVC035 13/07 A3018 RMK AO2=
201006172153 METAR KCLM 172153Z AUTO 29005KT 10SM OVC035 12/08 A3018 RMK AO2 SLP220 T01220078=
201006172053 METAR KCLM 172053Z AUTO 30005KT 10SM OVC033 13/08 A3018 RMK AO2 SLP221 T01280078 53004=
201006171953 METAR KCLM 171953Z AUTO 31007KT 10SM OVC039 12/08 A3018 RMK AO2 SLP219 T01220078=
201006171853 SPECI KCLM 171853Z AUTO 31007KT 10SM OVC031 12/08 A3017 RMK AO2 SLP217 T01220078=
201006171850 SPECI KCLM 171850Z AUTO 31008KT 10SM OVC031 12/08 A3017 RMK AO2=
201006171850 SPECI KCLM 171850Z AUTO 31008KT 10SM OVC031 12/08 A3017 RMK AO2=
201006171753 METAR KCLM 171753Z AUTO 31007KT 10SM OVC027 12/08 A3015 RMK AO2 SLP212 T01170083 10117 20072 51005=
201006171653 METAR KCLM 171653Z AUTO 31005KT 10SM OVC029 11/08 A3015 RMK AO2 SLP210 T01110083=
201006171649 SPECI KCLM 171649Z AUTO 33004KT 10SM OVC029 12/08 A3015 RMK AO2=
201006171649 SPECI KCLM 171649Z AUTO 33004KT 10SM OVC029 12/08 A3015 RMK AO2=
201006171553 METAR KCLM 171553Z AUTO 31006KT 10SM OVC031 12/08 A3014 RMK AO2 SLP207 T01170083=
201006171453 METAR KCLM 171453Z AUTO 00000KT 10SM OVC055 11/08 A3014 RMK AO2 SLP207 T01060078 51008=
201006171353 METAR KCLM 171353Z AUTO 27003KT 10SM OVC050 08/07 A3013 RMK AO2 SLP205 T00830067=
201006171253 METAR KCLM 171253Z AUTO 23005KT 10SM FEW055 08/06 A3012 RMK AO2 SLP201 T00780061=
201006171153 METAR KCLM 171153Z AUTO 00000KT 10SM SCT050 BKN060 08/06 A3012 RMK AO2 SLP199 T00780061 10094 20072 51006=
201006171053 METAR KCLM 171053Z AUTO 25004KT 10SM CLR 09/07 A3012 RMK AO2 SLP199 T00890067=
201006170953 METAR KCLM 170953Z AUTO 23004KT 10SM CLR 08/06 A3011 RMK AO2 SLP196 T00830061=
201006170853 METAR KCLM 170853Z AUTO 26006KT 10SM CLR 08/07 A3010 RMK AO2 SLP192 T00830067 53004=
201006170753 METAR KCLM 170753Z AUTO 24005KT 10SM CLR 08/07 A3009 RMK AO2 SLP191 T00830067 401670078=
201006170653 METAR KCLM 170653Z AUTO 26004KT 10SM CLR 09/07 A3009 RMK AO2 SLP189 T00890067=
201006170553 METAR KCLM 170553Z AUTO 00000KT 10SM CLR 09/07 A3009 RMK AO2 SLP189 T00940072 10167 20089 51010=
201006170453 METAR KCLM 170453Z AUTO 00000KT 10SM CLR 10/08 A3008 RMK AO2 SLP188 T01000078=
201006170353 METAR KCLM 170353Z AUTO 29004KT 10SM CLR 11/08 A3007 RMK AO2 SLP182 T01060083=
201006170253 METAR KCLM 170253Z AUTO 30010KT 10SM CLR 12/08 A3005 RMK AO2 SLP178 T01220083 53004=
201006170153 METAR KCLM 170153Z AUTO 32005KT 10SM CLR 13/08 A3004 RMK AO2 SLP173 T01330083=
201006170053 METAR KCLM 170053Z AUTO 36005KT 10SM CLR 16/08 A3005 RMK AO2 SLP176 T01560083=
201006162353 METAR KCLM 162353Z AUTO VRB03KT 10SM CLR 16/08 A3004 RMK AO2 SLP173 T01610078 10167 20133 58005=
201006162253 METAR KCLM 162253Z AUTO VRB04KT 10SM CLR 16/09 A3005 RMK AO2 SLP177 T01560089=
201006162153 METAR KCLM 162153Z AUTO 02005KT 10SM CLR 16/08 A3005 RMK AO2 SLP176 T01610083=
201006162053 METAR KCLM 162053Z AUTO 07006KT 10SM CLR 16/08 A3006 RMK AO2 SLP178 T01560083 58000=
201006161953 METAR KCLM 161953Z AUTO VRB05KT 10SM FEW100 15/08 A3006 RMK AO2 SLP180 T01500078=
201006161853 METAR KCLM 161853Z AUTO 06004KT 10SM FEW100 14/07 A3006 RMK AO2 SLP181 T01440072=
201006161753 METAR KCLM 161753Z AUTO VRB04KT 10SM FEW100 13/08 A3006 RMK AO2 SLP179 T01330078 10133 20078 57001=
201006161653 METAR KCLM 161653Z AUTO 35005KT 10SM FEW110 13/08 A3006 RMK AO2 SLP179 T01280078=
201006161553 METAR KCLM 161553Z AUTO 32004KT 10SM CLR 12/08 A3006 RMK AO2 SLP181 T01220078=
201006161453 METAR KCLM 161453Z AUTO 26006KT 10SM CLR 12/08 A3006 RMK AO2 SLP181 T01170078 51001=
201006161353 METAR KCLM 161353Z AUTO 26005KT 10SM OVC100 10/07 A3006 RMK AO2 SLP181 T01000067=
201006161253 METAR KCLM 161253Z AUTO 23006KT 10SM SCT100 08/06 A3006 RMK AO2 SLP181 T00780056=
201006161153 METAR KCLM 161153Z AUTO 25005KT 10SM BKN100 OVC120 09/06 A3006 RMK AO2 SLP180 T00890061 10100 20089 51004=
201006161053 METAR KCLM 161053Z AUTO 26004KT 10SM OVC110 09/07 A3006 RMK AO2 SLP179 T00890067=
201006160953 METAR KCLM 160953Z AUTO 28006KT 10SM OVC110 09/06 A3005 RMK AO2 SLP178 T00940061=
201006160853 METAR KCLM 160853Z AUTO 26006KT 10SM OVC110 10/06 A3005 RMK AO2 SLP176 T01000056 55000=
201006160753 METAR KCLM 160753Z AUTO 28008KT 10SM OVC110 10/06 A3005 RMK AO2 SLP176 T01000056 401390072=
201006160653 METAR KCLM 160653Z AUTO 29007KT 10SM FEW100 09/06 A3005 RMK AO2 SLP176 T00940061=
201006160553 METAR KCLM 160553Z AUTO 30007KT 10SM CLR 09/06 A3005 RMK AO2 SLP177 T00890056 10139 20089 55004=
201006160453 METAR KCLM 160453Z AUTO 24005KT 10SM CLR 09/06 A3004 RMK AO2 SLP175 T00890056=
201006160353 METAR KCLM 160353Z AUTO 29006KT 10SM CLR 11/06 A3005 RMK AO2 SLP176 T01060061=
201006160253 METAR KCLM 160253Z AUTO 28010KT 10SM BKN100 12/06 A3006 RMK AO2 SLP181 T01220056 56007=
201006160153 METAR KCLM 160153Z AUTO 32006KT 10SM OVC085 12/06 A3007 RMK AO2 SLP182 T01220061=
201006160053 METAR KCLM 160053Z AUTO 33007KT 10SM CLR 13/04 A3007 RMK AO2 SLP185 T01330044=
201006152353 METAR KCLM 152353Z AUTO VRB04KT 10SM FEW120 14/05 A3008 RMK AO2 SLP187 T01390050 10139 20111 58007=
201006152253 METAR KCLM 152253Z AUTO 35004KT 10SM FEW100 14/05 A3009 RMK AO2 SLP192 T01390050=
201006152153 METAR KCLM 152153Z AUTO 03004KT 10SM BKN060 12/06 A3010 RMK AO2 SLP192 T01220056=
201006152053 METAR KCLM 152053Z AUTO 00000KT 10SM SCT080 BKN100 13/05 A3010 RMK AO2 SLP195 T01280050 58003=
201006151953 METAR KCLM 151953Z AUTO 35004KT 10SM FEW045 SCT100 11/05 A3012 RMK AO2 SLP201 T01110050=
201006151853 METAR KCLM 151853Z AUTO VRB04KT 10SM SCT047 OVC110 12/06 A3012 RMK AO2 SLP199 T01220061=
201006151753 METAR KCLM 151753Z AUTO 36007KT 330V030 10SM BKN110 12/06 A3011 RMK AO2 SLP198 T01170061 10117 20072 51000=
201006151653 METAR KCLM 151653Z AUTO 33005KT 10SM CLR 11/05 A3011 RMK AO2 SLP197 T01110050=
201006151553 METAR KCLM 151553Z AUTO 30007KT 10SM OVC060 11/05 A3012 RMK AO2 SLP200 T01060050=
201006151453 METAR KCLM 151453Z AUTO 28006KT 10SM BKN055 10/05 A3011 RMK AO2 SLP197 T01000050 55001=
201006151353 METAR KCLM 151353Z AUTO 26003KT 10SM SCT046 OVC055 09/05 A3011 RMK AO2 SLP197 T00890050 $=
201006151253 METAR KCLM 151253Z AUTO VRB03KT 10SM BKN050 08/04 A3012 RMK AO2 SLP199 T00780044 $=
201006151153 METAR KCLM 151153Z AUTO 27003KT 10SM BKN050 OVC060 08/04 A3011 RMK AO2 SLP199 T00830044 10100 20083 58010 $=
201006151053 METAR KCLM 151053Z AUTO 29007KT 10SM OVC055 09/04 A3012 RMK AO2 SLP202 T00890039 $=
201006150953 METAR KCLM 150953Z AUTO 30008KT 10SM BKN050 OVC120 09/04 A3014 RMK AO2 SLP206 T00940044 $=
201006150853 METAR KCLM 150853Z AUTO 30011KT 10SM SCT039 SCT047 OVC120 09/04 A3014 RMK AO2 SLP208 T00940044 58011 $=
201006150753 METAR KCLM 150753Z AUTO 30009KT 10SM SCT041 OVC049 10/04 A3016 RMK AO2 SLP214 T01000044 401280056 $=
201006150653 METAR KCLM 150653Z AUTO 30009KT 10SM OVC045 10/04 A3017 RMK AO2 SLP217 T01000044 $=
201006150553 METAR KCLM 150553Z AUTO 31009KT 10SM SCT047 10/04 A3018 RMK AO2 SLP220 T01000039 10122 20100 53002 $=
201006150453 METAR KCLM 150453Z AUTO 30010G19KT 10SM CLR 10/03 A3017 RMK AO2 SLP219 T01000033 $=
201006150353 METAR KCLM 150353Z AUTO 29017KT 10SM CLR 10/05 A3016 RMK AO2 SLP214 T01000050=
201006150253 METAR KCLM 150253Z AUTO 30013G23KT 10SM CLR 11/06 A3017 RMK AO2 PK WND 31031/0156 SLP218 T01060061 56019=
201006150153 METAR KCLM 150153Z AUTO 30020G32KT 10SM CLR 11/06 A3019 RMK AO2 PK WND 28032/0151 SLP224 T01110061=
201006150053 METAR KCLM 150053Z AUTO 30017G29KT 10SM CLR 11/07 A3021 RMK AO2 PK WND 31029/0045 SLP230 T01110067=
201006142353 METAR KCLM 142353Z AUTO 31017G24KT 10SM SCT075 12/07 A3023 RMK AO2 PK WND 30028/2316 SLP237 T01220067 10128 20117 58008=
201006142253 METAR KCLM 142253Z AUTO 31017G24KT 10SM CLR 12/07 A3024 RMK AO2 PK WND 31027/2205 SLP241 T01170067=
201006142153 METAR KCLM 142153Z AUTO 31015G25KT 10SM CLR 13/07 A3024 RMK AO2 PK WND 30030/2106 SLP242 T01280072=
201006142053 METAR KCLM 142053Z AUTO 31017G27KT 10SM CLR 12/06 A3025 RMK AO2 PK WND 30028/2043 SLP245 T01220061 58007=
201006141953 METAR KCLM 141953Z AUTO 31015G26KT 10SM CLR 13/07 A3027 RMK AO2 PK WND 31028/1927 SLP250 T01280072=
201006141853 METAR KCLM 141853Z AUTO 30013G22KT 10SM CLR 12/08 A3027 RMK AO2 SLP251 T01220083=
201006141753 METAR KCLM 141753Z AUTO 31011G20KT 10SM FEW015 12/08 A3027 RMK AO2 SLP253 T01220078 10128 20061 58003=
201006141702 SPECI KCLM 141702Z AUTO 32007KT 10SM FEW025 12/08 A3028 RMK AO2=
201006141702 SPECI KCLM 141702Z AUTO 32007KT 10SM FEW025 12/08 A3028 RMK AO2=
201006141653 METAR KCLM 141653Z AUTO 29009G15KT 10SM BKN025 12/08 A3028 RMK AO2 SLP255 T01220078=
201006141614 SPECI KCLM 141614Z AUTO 32007KT 10SM BKN021 12/08 A3028 RMK AO2=
201006141614 SPECI KCLM 141614Z AUTO 32007KT 10SM BKN021 12/08 A3028 RMK AO2=
201006141553 METAR KCLM 141553Z AUTO 33005KT 10SM CLR 12/07 A3028 RMK AO2 SLP254 T01170072=
201006141453 METAR KCLM 141453Z AUTO 25004KT 10SM SCT055 09/04 A3028 RMK AO2 SLP255 T00890039 55000=
201006141353 METAR KCLM 141353Z AUTO 26006KT 10SM CLR 08/03 A3028 RMK AO2 SLP253 T00780033=
201006141253 METAR KCLM 141253Z AUTO 10SM CLR 07/03 A3028 RMK AO2 SLP255 T00720033 $=
201006141153 METAR KCLM 141153Z AUTO 10SM CLR 07/03 A3028 RMK AO2 SLP256 T00670033 10089 20056 58007 $=
201006141053 METAR KCLM 141053Z AUTO 10SM CLR 06/03 A3029 RMK AO2 SLP258 T00560033 $=
201006140953 METAR KCLM 140953Z AUTO 10SM CLR 07/04 A3030 RMK AO2 SLP262 T00720044 $=
201006140853 METAR KCLM 140853Z AUTO 10SM CLR 08/04 A3030 RMK AO2 SLP263 T00780044 53001 $=
201006140753 METAR KCLM 140753Z AUTO 10SM CLR 08/04 A3030 RMK AO2 SLP262 T00830039 401440067 $=
201006140653 METAR KCLM 140653Z AUTO 10SM CLR 09/03 A3030 RMK AO2 SLP262 T00890033 $=
201006140553 METAR KCLM 140553Z AUTO 10SM CLR 09/04 A3030 RMK AO2 SLP262 T00890039 10128 20089 51006 $=
201006140453 METAR KCLM 140453Z AUTO 10SM CLR 10/04 A3030 RMK AO2 SLP261 T01000044 $=
201006140353 METAR KCLM 140353Z AUTO 10SM CLR 11/06 A3029 RMK AO2 SLP258 T01060056 $=
201006140253 METAR KCLM 140253Z AUTO 10SM CLR 11/06 A3028 RMK AO2 SLP256 T01110061 56006 $=
201006140153 METAR KCLM 140153Z AUTO 31017G32KT 10SM CLR 12/06 A3029 RMK AO2 PK WND 29032/0144 SLP258 T01170056=
201006140053 METAR KCLM 140053Z AUTO 30020G28KT 10SM CLR 12/06 A3029 RMK AO2 PK WND 31030/0031 SLP259 T01220061=
201006132353 SPECI KCLM 132353Z AUTO 30019G29KT 10SM FEW100 13/07 A3030 RMK AO2 PK WND 31029/2345 SLP262 T01280067 10144 20117 50005=
201006132253 METAR KCLM 132253Z AUTO 30020G33KT 10SM FEW100 13/06 A3031 RMK AO2 PK WND 31033/2247 SLP263 T01280056=
201006132153 METAR KCLM 132153Z AUTO 30019G29KT 10SM CLR 13/07 A3030 RMK AO2 PK WND 32031/2118 SLP261 T01330072=
201006132053 METAR KCLM 132053Z AUTO 31018G27KT 10SM CLR 13/07 A3029 RMK AO2 PK WND 31031/2023 SLP256 T01330072 53002=
201006131953 METAR KCLM 131953Z AUTO 31012G22KT 10SM CLR 14/08 A3028 RMK AO2 SLP254 T01440078=
201006131853 METAR KCLM 131853Z AUTO 31012G19KT 10SM BKN060 14/09 A3028 RMK AO2 SLP254 T01390089=
201006131836 SPECI KCLM 131836Z AUTO 30012G18KT 10SM SCT023 BKN055 OVC065 13/08 A3028 RMK AO2=
201006131836 SPECI KCLM 131836Z AUTO 30012G18KT 10SM SCT023 BKN055 OVC065 13/08 A3028 RMK AO2=
201006131753 METAR KCLM 131753Z AUTO 32012G18KT 10SM OVC017 12/08 A3028 RMK AO2 RAB40E50 SLP255 P0000 60000 T01220083 10128 20111 53004=
201006131722 SPECI KCLM 131722Z AUTO 32008KT 10SM OVC015 13/09 A3027 RMK AO2=
201006131722 SPECI KCLM 131722Z AUTO 32008KT 10SM OVC015 13/09 A3027 RMK AO2=
201006131653 METAR KCLM 131653Z AUTO 30007G14KT 10SM OVC013 12/09 A3027 RMK AO2 SLP252 T01170089=
201006131553 METAR KCLM 131553Z AUTO 30013G19KT 10SM OVC011 12/09 A3027 RMK AO2 SLP250 T01170089=
201006131453 METAR KCLM 131453Z AUTO 30011G16KT 10SM OVC007 12/09 A3026 RMK AO2 SLP246 T01170094 53013=
201006131353 METAR KCLM 131353Z AUTO 30005KT 10SM BKN007 BKN110 12/11 A3023 RMK AO2 SLP238 T01170106=
201006131253 METAR KCLM 131253Z AUTO 28011KT 10SM FEW009 BKN070 12/10 A3022 RMK AO2 SLP234 T01170100=
201006131153 METAR KCLM 131153Z AUTO 27011KT 10SM SCT008 11/10 A3022 RMK AO2 SLP233 T01110100 10128 20106 55000=
201006131112 SPECI KCLM 131112Z AUTO 27012G20KT 10SM BKN006 11/10 A3022 RMK AO2=
201006131112 SPECI KCLM 131112Z AUTO 27012G20KT 10SM BKN006 11/10 A3022 RMK AO2=
201006131100 SPECI KCLM 131100Z AUTO 27012KT 10SM SCT006 11/10 A3022 RMK AO2=
201006131100 SPECI KCLM 131100Z AUTO 27012KT 10SM SCT006 11/10 A3022 RMK AO2=
201006131053 METAR KCLM 131053Z AUTO 28014KT 10SM CLR 11/10 A3022 RMK AO2 SLP233 T01110100=
201006130953 METAR KCLM 130953Z AUTO 30009KT 10SM CLR 11/08 A3022 RMK AO2 SLP234 T01060078=
201006130853 METAR KCLM 130853Z AUTO 27012KT 10SM CLR 12/08 A3022 RMK AO2 SLP233 T01220083 58006=
201006130753 METAR KCLM 130753Z AUTO 28007KT 10SM CLR 11/07 A3023 RMK AO2 SLP237 T01060072 401940061=
201006130653 METAR KCLM 130653Z AUTO 33003KT 10SM CLR 12/09 A3023 RMK AO2 SLP237 T01170089=
201006130553 METAR KCLM 130553Z AUTO 28008KT 10SM CLR 12/08 A3024 RMK AO2 SLP239 T01170078 10183 20111 58004=
201006130453 METAR KCLM 130453Z AUTO 30004KT 10SM CLR 12/08 A3025 RMK AO2 SLP242 T01170083=
201006130353 METAR KCLM 130353Z AUTO 28007KT 10SM CLR 13/07 A3025 RMK AO2 SLP242 T01330072=
201006130253 METAR KCLM 130253Z AUTO 31007KT 10SM CLR 14/08 A3025 RMK AO2 SLP244 T01440083 55006=
201006130153 METAR KCLM 130153Z AUTO 31006KT 10SM CLR 17/09 A3025 RMK AO2 SLP243 T01720094=
201006130053 METAR KCLM 130053Z AUTO 30006KT 10SM CLR 16/10 A3027 RMK AO2 SLP250 T01610100=
201006122353 METAR KCLM 122353Z AUTO 35006KT 10SM CLR 18/09 A3027 RMK AO2 SLP250 T01830094 10194 20139 56018=
201006122253 METAR KCLM 122253Z AUTO 36006KT 10SM CLR 15/09 A3029 RMK AO2 SLP259 T01500089=
201006122153 METAR KCLM 122153Z AUTO 00000KT 10SM CLR 18/10 A3030 RMK AO2 SLP260 T01830100=
201006122053 METAR KCLM 122053Z AUTO 36004KT 10SM CLR 16/10 A3032 RMK AO2 SLP270 T01610100 58014=
201006121953 METAR KCLM 121953Z AUTO 02005KT 10SM CLR 14/09 A3035 RMK AO2 SLP278 T01440089=
201006121853 METAR KCLM 121853Z AUTO VRB03KT 10SM CLR 16/09 A3036 RMK AO2 SLP281 T01560089=
201006121753 METAR KCLM 121753Z AUTO 01005KT 10SM CLR 14/08 A3037 RMK AO2 SLP284 T01440083 10144 20061 58006=
201006121653 METAR KCLM 121653Z AUTO 35005KT 10SM CLR 13/09 A3037 RMK AO2 PK WND 34031/1616 SLP286 T01330094=
201006121553 METAR KCLM 121553Z AUTO 01003KT 10SM CLR 12/09 A3038 RMK AO2 SLP288 T01220089=
201006121453 METAR KCLM 121453Z AUTO 33003KT 10SM CLR 12/08 A3038 RMK AO2 SLP290 T01170083 55004=
201006121353 METAR KCLM 121353Z AUTO 00000KT 10SM CLR 10/08 A3038 RMK AO2 SLP288 T01000083=
201006121253 METAR KCLM 121253Z AUTO 24006KT 10SM CLR 08/07 A3039 RMK AO2 SLP293 T00780067=
201006121153 METAR KCLM 121153Z AUTO 22004KT 10SM CLR 07/06 A3039 RMK AO2 SLP294 T00670061 10094 20067 56007=
201006121053 METAR KCLM 121053Z AUTO 28004KT 10SM CLR 07/06 A3040 RMK AO2 SLP296 T00720061=
201006120953 METAR KCLM 120953Z AUTO 26004KT 10SM CLR 08/07 A3041 RMK AO2 SLP297 T00780067=
201006120853 METAR KCLM 120853Z AUTO 00000KT 10SM CLR 08/07 A3041 RMK AO2 SLP300 T00830072 56002=
201006120753 METAR KCLM 120753Z AUTO 27006KT 10SM CLR 09/07 A3042 RMK AO2 SLP301 T00890067 401500083=
201006120653 METAR KCLM 120653Z AUTO 28006KT 10SM CLR 09/07 A3042 RMK AO2 SLP301 T00890072=
201006120553 METAR KCLM 120553Z AUTO 28009KT 10SM CLR 09/07 A3042 RMK AO2 SLP303 T00940072 10144 20089 53003=
201006120453 METAR KCLM 120453Z AUTO 29006KT 10SM CLR 09/07 A3042 RMK AO2 SLP301 T00940072=
201006120353 METAR KCLM 120353Z AUTO 29007KT 10SM CLR 10/08 A3041 RMK AO2 SLP298 T01000078=
201006120253 METAR KCLM 120253Z AUTO 30007KT 10SM CLR 12/08 A3041 RMK AO2 SLP299 T01170078 56001=
201006120153 METAR KCLM 120153Z AUTO 32011KT 10SM CLR 12/08 A3041 RMK AO2 SLP300 T01220083=
201006120053 METAR KCLM 120053Z AUTO 31010G16KT 10SM CLR 14/09 A3041 RMK AO2 SLP299 T01390089=
201006112353 METAR KCLM 112353Z AUTO 30011KT 10SM FEW018 14/09 A3041 RMK AO2 SLP299 T01440094 10150 20122 50005=
201006112253 METAR KCLM 112253Z AUTO 28012G16KT 10SM OVC031 14/09 A3042 RMK AO2 SLP300 T01440094=
201006112153 METAR KCLM 112153Z AUTO 27011KT 10SM OVC035 14/09 A3041 RMK AO2 SLP299 T01390094=
201006112130 SPECI KCLM 112130Z AUTO 28010G18KT 10SM SCT027 OVC037 14/09 A3041 RMK AO2=
201006112130 SPECI KCLM 112130Z AUTO 28010G18KT 10SM SCT027 OVC037 14/09 A3041 RMK AO2=
201006112123 SPECI KCLM 112123Z AUTO 29014G18KT 10SM BKN027 OVC037 14/09 A3041 RMK AO2=
201006112123 SPECI KCLM 112123Z AUTO 29014G18KT 10SM BKN027 OVC037 14/09 A3041 RMK AO2=
201006112101 SPECI KCLM 112101Z AUTO 29010KT 10SM SCT029 OVC037 13/09 A3040 RMK AO2=
201006112101 SPECI KCLM 112101Z AUTO 29010KT 10SM SCT029 OVC037 13/09 A3040 RMK AO2=
201006112053 METAR KCLM 112053Z AUTO 29009KT 10SM BKN029 OVC037 14/09 A3040 RMK AO2 SLP296 T01390094 51012=
201006111953 METAR KCLM 111953Z AUTO 30009G16KT 10SM FEW019 OVC027 13/09 A3040 RMK AO2 SLP295 T01330089=
201006111925 SPECI KCLM 111925Z AUTO 30007KT 10SM BKN029 OVC036 13/09 A3040 RMK AO2=
201006111925 SPECI KCLM 111925Z AUTO 30007KT 10SM BKN029 OVC036 13/09 A3040 RMK AO2=
201006111853 METAR KCLM 111853Z AUTO 31008G15KT 290V350 10SM OVC032 13/08 A3039 RMK AO2 SLP292 T01280083=
201006111807 SPECI KCLM 111807Z AUTO 31010G17KT 10SM BKN030 BKN038 13/08 A3037 RMK AO2=
201006111807 SPECI KCLM 111807Z AUTO 31010G17KT 10SM BKN030 BKN038 13/08 A3037 RMK AO2=
201006111753 METAR KCLM 111753Z AUTO 30012G18KT 10SM BKN028 13/09 A3037 RMK AO2 SLP284 T01280089 10139 20106 53015=
201006111715 SPECI KCLM 111715Z AUTO 32008G16KT 10SM BKN026 13/09 A3035 RMK AO2=
201006111715 SPECI KCLM 111715Z AUTO 32008G16KT 10SM BKN026 13/09 A3035 RMK AO2=
201006111653 METAR KCLM 111653Z AUTO 33010KT 10SM CLR 13/09 A3035 RMK AO2 SLP277 T01280089=
201006111553 METAR KCLM 111553Z AUTO 32007KT 10SM SCT080 13/09 A3033 RMK AO2 SLP271 T01280089=
201006111453 METAR KCLM 111453Z AUTO 32006KT 10SM FEW055 OVC080 12/08 A3032 RMK AO2 SLP269 T01220078 51014=
201006111353 METAR KCLM 111353Z AUTO 27006KT 10SM BKN055 OVC080 11/08 A3031 RMK AO2 SLP266 T01110083=
201006111253 METAR KCLM 111253Z AUTO 28006KT 10SM OVC050 11/08 A3030 RMK AO2 SLP260 T01060078=
201006111153 METAR KCLM 111153Z AUTO 27006KT 10SM OVC050 11/08 A3028 RMK AO2 SLP255 T01060083 10111 20106 53014=
201006111053 METAR KCLM 111053Z AUTO 26006KT 10SM OVC050 11/08 A3027 RMK AO2 SLP250 T01060083=
201006110953 METAR KCLM 110953Z AUTO 26007KT 10SM OVC055 11/08 A3025 RMK AO2 SLP243 T01060083=
201006110853 METAR KCLM 110853Z AUTO 28004KT 10SM OVC050 11/08 A3024 RMK AO2 SLP241 T01060083 53009=
201006110753 METAR KCLM 110753Z AUTO 29007KT 10SM OVC060 11/08 A3023 RMK AO2 SLP237 T01060083 401500078=
201006110653 METAR KCLM 110653Z AUTO 29011KT 10SM BKN060 OVC085 11/08 A3022 RMK AO2 SLP233 T01110083=
201006110553 METAR KCLM 110553Z AUTO 28009KT 10SM OVC070 11/08 A3021 RMK AO2 SLP232 T01110083 10133 20111 53020=
201006110453 METAR KCLM 110453Z AUTO 29013G18KT 10SM OVC055 11/09 A3019 RMK AO2 SLP226 T01110089=
201006110353 METAR KCLM 110353Z AUTO 31009KT 10SM OVC055 12/09 A3016 RMK AO2 SLP216 T01170089=
201006110253 METAR KCLM 110253Z AUTO 30011G17KT 10SM OVC050 12/09 A3015 RMK AO2 PK WND 29026/0208 SLP211 T01170094 53014=
201006110153 METAR KCLM 110153Z AUTO 29011G20KT 10SM FEW009 SCT038 BKN100 12/10 A3014 RMK AO2 SLP206 T01220100=
201006110053 METAR KCLM 110053Z AUTO 31011G17KT 10SM BKN038 OVC100 13/10 A3012 RMK AO2 SLP199 T01280100=
201006110008 SPECI KCLM 110008Z AUTO 31012G21KT 10SM FEW009 BKN036 OVC095 13/10 A3011 RMK AO2=
201006110008 SPECI KCLM 110008Z AUTO 31012G21KT 10SM FEW009 BKN036 OVC095 13/10 A3011 RMK AO2=
201006102353 METAR KCLM 102353Z AUTO 31011G18KT 10SM FEW009 BKN016 OVC095 12/10 A3011 RMK AO2 SLP197 T01220100 10150 20122 51010=
201006102348 SPECI KCLM 102348Z AUTO 31012G18KT 10SM FEW009 BKN016 OVC095 13/10 A3011 RMK AO2=
201006102348 SPECI KCLM 102348Z AUTO 31012G18KT 10SM FEW009 BKN016 OVC095 13/10 A3011 RMK AO2=
201006102307 SPECI KCLM 102307Z AUTO 30010G19KT 10SM SCT009 BKN014 OVC090 12/10 A3010 RMK AO2=
201006102307 SPECI KCLM 102307Z AUTO 30010G19KT 10SM SCT009 BKN014 OVC090 12/10 A3010 RMK AO2=
201006102253 METAR KCLM 102253Z AUTO 30013G17KT 10SM SCT009 BKN080 OVC090 13/10 A3010 RMK AO2 SLP193 T01280100=
201006102153 METAR KCLM 102153Z AUTO 29010KT 10SM FEW009 SCT014 OVC080 13/11 A3008 RMK AO2 SLP187 T01330106=
201006102119 SPECI KCLM 102119Z AUTO 31012G17KT 10SM FEW009 OVC070 13/11 A3007 RMK AO2=
201006102119 SPECI KCLM 102119Z AUTO 31012G17KT 10SM FEW009 OVC070 13/11 A3007 RMK AO2=
201006102053 METAR KCLM 102053Z AUTO 30008G15KT 10SM FEW013 OVC070 13/11 A3007 RMK AO2 SLP182 T01330106 52016=
201006102011 SPECI KCLM 102011Z AUTO 31009G16KT 10SM SCT026 BKN037 OVC070 15/11 A3006 RMK AO2=
201006102011 SPECI KCLM 102011Z AUTO 31009G16KT 10SM SCT026 BKN037 OVC070 15/11 A3006 RMK AO2=
201006102000 SPECI KCLM 102000Z AUTO 30009KT 10SM FEW013 BKN027 BKN046 15/11 A3006 RMK AO2 CIG 022V036=
201006102000 SPECI KCLM 102000Z AUTO 30009KT 10SM FEW013 BKN027 BKN046 15/11 A3006 RMK AO2 CIG 022V036=
201006101953 METAR KCLM 101953Z AUTO 32009KT 300V360 10SM SCT025 BKN036 OVC070 14/11 A3005 RMK AO2 SLP178 T01390106=
201006101853 METAR KCLM 101853Z AUTO 34007KT 10SM BKN047 15/11 A3003 RMK AO2 SLP170 T01500106=
201006101753 METAR KCLM 101753Z AUTO 36003KT 10SM FEW019 OVC070 13/09 A3002 RMK AO2 SLP167 T01330089 10133 20078 51008=
201006101751 SPECI KCLM 101751Z AUTO 00000KT 10SM SCT019 OVC070 13/09 A3002 RMK AO2=
201006101751 SPECI KCLM 101751Z AUTO 00000KT 10SM SCT019 OVC070 13/09 A3002 RMK AO2=
201006101705 SPECI KCLM 101705Z AUTO VRB03KT 10SM OVC028 13/08 A3002 RMK AO2=
201006101705 SPECI KCLM 101705Z AUTO VRB03KT 10SM OVC028 13/08 A3002 RMK AO2=
201006101653 METAR KCLM 101653Z AUTO 00000KT 10SM BKN030 13/08 A3002 RMK AO2 SLP165 T01280078=
201006101553 METAR KCLM 101553Z AUTO 36005KT 10SM CLR 12/07 A3000 RMK AO2 SLP159 T01220072=
201006101453 METAR KCLM 101453Z AUTO VRB03KT 10SM CLR 12/08 A2999 RMK AO2 SLP155 T01220078 50005=
201006101353 METAR KCLM 101353Z AUTO 27004KT 10SM CLR 10/07 A2999 RMK AO2 SLP155 T01000072=
201006101253 METAR KCLM 101253Z AUTO 00000KT 10SM FEW055 08/06 A2997 RMK AO2 SLP151 T00780061=
201006101153 METAR KCLM 101153Z AUTO 25006KT 10SM OVC055 09/07 A2997 RMK AO2 SLP149 70001 T00890067 10106 20083 53012=
201006101053 METAR KCLM 101053Z AUTO 24006KT 10SM SCT090 SCT100 08/06 A2995 RMK AO2 SLP143 T00830061=
201006100953 METAR KCLM 100953Z AUTO 27010KT 10SM OVC100 09/07 A2994 RMK AO2 SLP141 T00890067=
201006100853 METAR KCLM 100853Z AUTO 25005KT 10SM OVC100 09/07 A2993 RMK AO2 SLP137 T00940072 53009=
201006100753 METAR KCLM 100753Z AUTO 25006KT 10SM BKN075 OVC110 09/08 A2992 RMK AO2 SLP134 T00940078 401330094=
201006100653 METAR KCLM 100653Z AUTO 27007KT 10SM BKN075 OVC095 10/08 A2992 RMK AO2 SLP131 T01000083=
201006100553 METAR KCLM 100553Z AUTO 29006KT 10SM FEW060 BKN075 OVC095 11/08 A2991 RMK AO2 SLP128 60001 T01060078 10128 20100 53014=
201006100453 METAR KCLM 100453Z AUTO 29004KT 10SM OVC060 11/08 A2989 RMK AO2 SLP123 T01060083=
201006100353 METAR KCLM 100353Z AUTO 31004KT 10SM OVC050 11/09 A2988 RMK AO2 SLP118 T01110089=
201006100253 METAR KCLM 100253Z AUTO 28007KT 10SM OVC046 12/09 A2987 RMK AO2 SLP114 60001 T01220089 53005=
201006100153 METAR KCLM 100153Z AUTO 28011KT 10SM OVC042 12/09 A2985 RMK AO2 RAE14 SLP110 P0000 T01220094=
201006100053 METAR KCLM 100053Z AUTO 26009KT 4SM -RA BR OVC040 12/11 A2985 RMK AO2 RAB25 SLP110 P0001 T01170106=
201006092353 METAR KCLM 092353Z AUTO 28007KT 10SM OVC034 12/10 A2985 RMK AO2 RAB12E52 SLP109 P0000 60000 T01220100 10133 20117 53004=
201006092253 METAR KCLM 092253Z AUTO 27006KT 10SM FEW009 OVC036 12/11 A2985 RMK AO2 RAB13E36 SLP108 P0000 T01220106=
201006092227 SPECI KCLM 092227Z AUTO 28007KT 10SM -RA SCT011 OVC036 12/10 A2985 RMK AO2 RAB13 P0000=
201006092227 SPECI KCLM 092227Z AUTO 28007KT 10SM -RA SCT011 OVC036 12/10 A2985 RMK AO2 RAB13 P0000=
201006092210 SPECI KCLM 092210Z AUTO 30006KT 10SM SCT013 BKN028 OVC038 12/09 A2984 RMK AO2=
201006092210 SPECI KCLM 092210Z AUTO 30006KT 10SM SCT013 BKN028 OVC038 12/09 A2984 RMK AO2=
201006092202 SPECI KCLM 092202Z AUTO 29008KT 10SM SCT013 SCT028 OVC038 12/09 A2984 RMK AO2=
201006092202 SPECI KCLM 092202Z AUTO 29008KT 10SM SCT013 SCT028 OVC038 12/09 A2984 RMK AO2=
201006092153 METAR KCLM 092153Z AUTO VRB05KT 10SM BKN011 BKN028 OVC038 12/09 A2984 RMK AO2 RAE2055 SLP105 P0000 T01220089=
201006092148 SPECI KCLM 092148Z AUTO 31006KT 10SM SCT011 BKN028 OVC038 12/09 A2984 RMK AO2 RAE2055 P0000=
201006092148 SPECI KCLM 092148Z AUTO 31006KT 10SM SCT011 BKN028 OVC038 12/09 A2984 RMK AO2 RAE2055 P0000=
201006092131 SPECI KCLM 092131Z AUTO 30006KT 10SM BKN013 BKN030 OVC040 12/09 A2984 RMK AO2 RAE2055 P0000=
201006092131 SPECI KCLM 092131Z AUTO 30006KT 10SM BKN013 BKN030 OVC040 12/09 A2984 RMK AO2 RAE2055 P0000=
201006092053 METAR KCLM 092053Z AUTO 27008KT 10SM -RA OVC021 12/08 A2983 RMK AO2 RAB44 SLP102 P0000 60000 T01220078 53008=
201006092034 SPECI KCLM 092034Z AUTO VRB04KT 10SM BKN021 OVC042 13/08 A2983 RMK AO2=
201006092034 SPECI KCLM 092034Z AUTO VRB04KT 10SM BKN021 OVC042 13/08 A2983 RMK AO2=
201006092012 SPECI KCLM 092012Z AUTO 29006KT 10SM FEW020 SCT026 OVC042 12/08 A2982 RMK AO2=
201006092012 SPECI KCLM 092012Z AUTO 29006KT 10SM FEW020 SCT026 OVC042 12/08 A2982 RMK AO2=
201006091953 METAR KCLM 091953Z AUTO 30006KT 10SM BKN020 OVC026 12/07 A2982 RMK AO2 RAB39E51 SLP098 P0000 T01220072=
201006091853 METAR KCLM 091853Z AUTO 30005KT 10SM OVC018 12/08 A2981 RMK AO2 SLP096 T01220078=
201006091809 SPECI KCLM 091809Z AUTO 33004KT 10SM FEW008 OVC016 12/08 A2981 RMK AO2=
201006091809 SPECI KCLM 091809Z AUTO 33004KT 10SM FEW008 OVC016 12/08 A2981 RMK AO2=
201006091753 METAR KCLM 091753Z AUTO VRB03KT 10SM SCT008 OVC014 12/10 A2981 RMK AO2 RAB09E41 SLP094 P0000 60000 T01170100 10117 20106 51006=
201006091725 SPECI KCLM 091725Z AUTO 30005KT 10SM -RA FEW008 BKN014 OVC025 11/09 A2980 RMK AO2 RAB09 P0000=
201006091725 SPECI KCLM 091725Z AUTO 30005KT 10SM -RA FEW008 BKN014 OVC025 11/09 A2980 RMK AO2 RAB09 P0000=
201006091653 METAR KCLM 091653Z AUTO 31006KT 10SM SCT007 OVC015 11/09 A2980 RMK AO2 SLP093 T01060089=
201006091619 SPECI KCLM 091619Z AUTO 32004KT 10SM FEW007 BKN013 OVC021 11/09 A2980 RMK AO2=
201006091619 SPECI KCLM 091619Z AUTO 32004KT 10SM FEW007 BKN013 OVC021 11/09 A2980 RMK AO2=
201006091553 METAR KCLM 091553Z AUTO 31007KT 10SM BKN005 OVC013 11/09 A2980 RMK AO2 CIG 005V009 SLP092 T01060094=
201006091533 SPECI KCLM 091533Z AUTO 31006KT 10SM BKN009 OVC013 11/09 A2980 RMK AO2 CIG 005V012=
201006091533 SPECI KCLM 091533Z AUTO 31006KT 10SM BKN009 OVC013 11/09 A2980 RMK AO2 CIG 005V012=
201006091514 SPECI KCLM 091514Z AUTO 32005KT 10SM FEW007 BKN011 OVC028 11/09 A2979 RMK AO2=
201006091514 SPECI KCLM 091514Z AUTO 32005KT 10SM FEW007 BKN011 OVC028 11/09 A2979 RMK AO2=
201006091504 SPECI KCLM 091504Z AUTO 31003KT 10SM BKN007 BKN011 OVC030 11/09 A2979 RMK AO2 CIG 004V009=
201006091504 SPECI KCLM 091504Z AUTO 31003KT 10SM BKN007 BKN011 OVC030 11/09 A2979 RMK AO2 CIG 004V009=
201006091453 METAR KCLM 091453Z AUTO 33004KT 10SM SCT005 BKN018 OVC030 11/09 A2979 RMK AO2 SLP087 60000 T01060094 53003=
201006091428 SPECI KCLM 091428Z AUTO 31004KT 10SM SCT007 BKN018 OVC028 11/10 A2979 RMK AO2=
201006091428 SPECI KCLM 091428Z AUTO 31004KT 10SM SCT007 BKN018 OVC028 11/10 A2979 RMK AO2=
201006091415 SPECI KCLM 091415Z AUTO 30004KT 10SM BKN007 OVC015 11/10 A2978 RMK AO2=
201006091415 SPECI KCLM 091415Z AUTO 30004KT 10SM BKN007 OVC015 11/10 A2978 RMK AO2=
201006091401 SPECI KCLM 091401Z AUTO 30003KT 10SM FEW007 OVC015 11/10 A2978 RMK AO2=
201006091401 SPECI KCLM 091401Z AUTO 30003KT 10SM FEW007 OVC015 11/10 A2978 RMK AO2=
201006091353 METAR KCLM 091353Z AUTO 29003KT 10SM OVC013 11/10 A2978 RMK AO2 SLP084 T01110100=
201006091339 SPECI KCLM 091339Z AUTO 00000KT 10SM BKN013 OVC017 11/10 A2978 RMK AO2=
201006091339 SPECI KCLM 091339Z AUTO 00000KT 10SM BKN013 OVC017 11/10 A2978 RMK AO2=
201006091326 SPECI KCLM 091326Z AUTO 00000KT 10SM FEW007 BKN019 OVC080 11/10 A2978 RMK AO2=
201006091326 SPECI KCLM 091326Z AUTO 00000KT 10SM FEW007 BKN019 OVC080 11/10 A2978 RMK AO2=
201006091319 SPECI KCLM 091319Z AUTO 00000KT 10SM FEW013 BKN019 OVC080 11/10 A2978 RMK AO2=
201006091319 SPECI KCLM 091319Z AUTO 00000KT 10SM FEW013 BKN019 OVC080 11/10 A2978 RMK AO2=
201006091306 SPECI KCLM 091306Z AUTO 00000KT 10SM SCT019 OVC080 11/10 A2978 RMK AO2=
201006091306 SPECI KCLM 091306Z AUTO 00000KT 10SM SCT019 OVC080 11/10 A2978 RMK AO2=
201006091253 METAR KCLM 091253Z AUTO 00000KT 10SM BKN019 OVC080 11/10 A2978 RMK AO2 RAE01 SLP085 P0000 T01060100=
201006091233 SPECI KCLM 091233Z AUTO 00000KT 10SM BKN017 OVC060 11/10 A2978 RMK AO2 RAE01 P0000=
201006091233 SPECI KCLM 091233Z AUTO 00000KT 10SM BKN017 OVC060 11/10 A2978 RMK AO2 RAE01 P0000=
201006091153 METAR KCLM 091153Z AUTO 26003KT 10SM -RA OVC060 11/10 A2978 RMK AO2 RAB13 SLP084 P0000 60001 70001 T01060100 10122 20106 56012=
201006091109 SPECI KCLM 091109Z AUTO 26003KT 10SM FEW015 OVC031 11/10 A2978 RMK AO2=
201006091109 SPECI KCLM 091109Z AUTO 26003KT 10SM FEW015 OVC031 11/10 A2978 RMK AO2=
201006091053 METAR KCLM 091053Z AUTO 25003KT 10SM SCT015 OVC029 11/10 A2979 RMK AO2 SLP086 T01060100=
201006091040 SPECI KCLM 091040Z AUTO 28004KT 10SM SCT004 BKN015 OVC028 11/10 A2979 RMK AO2=
201006091040 SPECI KCLM 091040Z AUTO 28004KT 10SM SCT004 BKN015 OVC028 11/10 A2979 RMK AO2=
201006091006 SPECI KCLM 091006Z AUTO 33003KT 10SM BKN004 OVC019 11/10 A2980 RMK AO2=
201006091006 SPECI KCLM 091006Z AUTO 33003KT 10SM BKN004 OVC019 11/10 A2980 RMK AO2=
201006090953 METAR KCLM 090953Z AUTO 32004KT 10SM SCT004 BKN008 OVC021 11/10 A2980 RMK AO2 RAB0854E18 CIG 007V010 SLP091 P0000 T01110100=
201006090853 METAR KCLM 090853Z AUTO 00000KT 10SM OVC008 11/11 A2982 RMK AO2 RAE46 CIG 005V011 SLP096 P0000 60001 T01110106 56011=
201006090849 SPECI KCLM 090849Z AUTO 00000KT 10SM BKN006 OVC011 11/11 A2982 RMK AO2 RAE46 CIG 005V008 P0000=
201006090849 SPECI KCLM 090849Z AUTO 00000KT 10SM BKN006 OVC011 11/11 A2982 RMK AO2 RAE46 CIG 005V008 P0000=
201006090804 SPECI KCLM 090804Z AUTO 30005KT 10SM -RA FEW006 BKN011 OVC026 11/10 A2983 RMK AO2 CIG 007V013 P0000=
201006090804 SPECI KCLM 090804Z AUTO 30005KT 10SM -RA FEW006 BKN011 OVC026 11/10 A2983 RMK AO2 CIG 007V013 P0000=
201006090753 METAR KCLM 090753Z AUTO 29004KT 8SM -RA SCT009 OVC022 11/11 A2983 RMK AO2 SLP101 P0001 T01110106 401720078=
201006090744 SPECI KCLM 090744Z AUTO 30004KT 7SM -RA SCT007 SCT011 OVC022 11/11 A2983 RMK AO2 P0000=
201006090744 SPECI KCLM 090744Z AUTO 30004KT 7SM -RA SCT007 SCT011 OVC022 11/11 A2983 RMK AO2 P0000=
201006090727 SPECI KCLM 090727Z AUTO 29006KT 4SM -RA BR BKN007 BKN012 OVC018 11/11 A2984 RMK AO2 CIG 006V011 P0000=
201006090727 SPECI KCLM 090727Z AUTO 29006KT 4SM -RA BR BKN007 BKN012 OVC018 11/11 A2984 RMK AO2 CIG 006V011 P0000=
201006090724 SPECI KCLM 090724Z AUTO 30003KT 5SM -RA BR BKN010 OVC018 11/10 A2984 RMK AO2 CIG 006V012 P0000=
201006090724 SPECI KCLM 090724Z AUTO 30003KT 5SM -RA BR BKN010 OVC018 11/10 A2984 RMK AO2 CIG 006V012 P0000=
201006090708 SPECI KCLM 090708Z AUTO VRB03KT 10SM -RA OVC016 12/10 A2985 RMK AO2 P0000=
201006090708 SPECI KCLM 090708Z AUTO VRB03KT 10SM -RA OVC016 12/10 A2985 RMK AO2 P0000=
201006090653 METAR KCLM 090653Z AUTO 30003KT 10SM -RA FEW007 OVC014 12/11 A2985 RMK AO2 SLP107 P0000 T01170106=
201006090640 SPECI KCLM 090640Z AUTO 00000KT 8SM -RA BKN008 BKN018 OVC065 12/11 A2985 RMK AO2 P0000=
201006090640 SPECI KCLM 090640Z AUTO 00000KT 8SM -RA BKN008 BKN018 OVC065 12/11 A2985 RMK AO2 P0000=
201006090623 SPECI KCLM 090623Z AUTO 00000KT 6SM -RA BR FEW008 BKN043 OVC060 12/11 A2985 RMK AO2 P0000=
201006090623 SPECI KCLM 090623Z AUTO 00000KT 6SM -RA BR FEW008 BKN043 OVC060 12/11 A2985 RMK AO2 P0000=
201006090553 METAR KCLM 090553Z AUTO 00000KT 10SM -RA BKN050 OVC070 12/11 A2985 RMK AO2 SLP107 P0000 60000 T01220106 10172 20117 53009=
201006090453 METAR KCLM 090453Z AUTO 00000KT 10SM -RA FEW041 BKN055 OVC080 13/08 A2983 RMK AO2 RAB50 SLP102 P0000 T01330083=
201006090353 METAR KCLM 090353Z AUTO 28005KT 10SM CLR 14/09 A2983 RMK AO2 SLP100 T01390089=
201006090253 METAR KCLM 090253Z AUTO 28003KT 10SM FEW100 15/10 A2982 RMK AO2 SLP098 T01500100 56020=
201006090153 METAR KCLM 090153Z AUTO 00000KT 10SM CLR 17/07 A2984 RMK AO2 SLP104 T01670072=
201006090053 METAR KCLM 090053Z AUTO 09003KT 10SM CLR 17/07 A2985 RMK AO2 SLP109 T01720072=
201006082353 METAR KCLM 082353Z AUTO 10005KT 10SM CLR 17/08 A2988 RMK AO2 SLP118 T01670083 10167 20139 56026=
201006082253 METAR KCLM 082253Z AUTO VRB04KT 10SM CLR 17/07 A2990 RMK AO2 SLP125 T01670072=
201006082153 METAR KCLM 082153Z AUTO 08008KT 10SM CLR 16/07 A2993 RMK AO2 SLP137 T01610072=
201006082053 METAR KCLM 082053Z AUTO 10005KT 10SM CLR 16/08 A2996 RMK AO2 SLP145 T01610083 58027=
201006081953 METAR KCLM 081953Z AUTO VRB04KT 10SM CLR 15/09 A2999 RMK AO2 SLP157 T01500089=
201006081853 METAR KCLM 081853Z AUTO VRB03KT 10SM CLR 15/10 A3002 RMK AO2 SLP165 T01500100=
201006081753 METAR KCLM 081753Z AUTO 08006KT 10SM CLR 15/09 A3004 RMK AO2 SLP171 T01500089 10156 20078 58020=
201006081653 METAR KCLM 081653Z AUTO VRB03KT 10SM CLR 14/09 A3006 RMK AO2 SLP179 T01440089=
201006081553 METAR KCLM 081553Z AUTO 00000KT 10SM BKN039 13/08 A3008 RMK AO2 SLP187 T01280078=
201006081536 SPECI KCLM 081536Z AUTO 00000KT 10SM SCT025 OVC039 12/07 A3009 RMK AO2=
201006081536 SPECI KCLM 081536Z AUTO 00000KT 10SM SCT025 OVC039 12/07 A3009 RMK AO2=
201006081453 SPECI KCLM 081453Z AUTO 29003KT 10SM OVC027 11/07 A3010 RMK AO2 SLP192 T01110072 56012=
201006081353 METAR KCLM 081353Z AUTO 25004KT 10SM OVC027 09/07 A3011 RMK AO2 SLP196 T00940067=
201006081339 SPECI KCLM 081339Z AUTO 27004KT 10SM BKN025 09/06 A3011 RMK AO2=
201006081339 SPECI KCLM 081339Z AUTO 27004KT 10SM BKN025 09/06 A3011 RMK AO2=
201006081253 METAR KCLM 081253Z AUTO 26008KT 10SM CLR 09/06 A3012 RMK AO2 SLP199 T00890061=
201006081153 METAR KCLM 081153Z AUTO 24008KT 10SM SCT029 BKN036 08/06 A3013 RMK AO2 SLP204 T00830061 10100 20083 58014=
201006081053 METAR KCLM 081053Z AUTO 25007KT 10SM CLR 09/06 A3015 RMK AO2 SLP209 T00890061=
201006080953 METAR KCLM 080953Z AUTO 24005KT 10SM CLR 08/07 A3016 RMK AO2 SLP214 T00830067=
201006080853 METAR KCLM 080853Z AUTO 27006KT 10SM CLR 08/07 A3017 RMK AO2 SLP218 T00830067 58010=
201006080753 METAR KCLM 080753Z AUTO 24006KT 10SM CLR 09/07 A3018 RMK AO2 SLP221 T00890072 401560089=
201006080653 METAR KCLM 080653Z AUTO 27005KT 10SM CLR 09/08 A3021 RMK AO2 SLP230 T00940083=
201006080553 METAR KCLM 080553Z AUTO 27008KT 10SM CLR 10/09 A3020 RMK AO2 SLP229 T01000089 10156 20100 53001=
201006080453 METAR KCLM 080453Z AUTO 27006KT 10SM CLR 11/09 A3020 RMK AO2 SLP228 T01060089=
201006080353 METAR KCLM 080353Z AUTO 28007KT 10SM CLR 12/08 A3020 RMK AO2 SLP226 T01170083=
201006080253 METAR KCLM 080253Z AUTO 29010KT 10SM SCT080 13/08 A3020 RMK AO2 SLP227 T01330078 58003=
201006080153 METAR KCLM 080153Z AUTO 32011KT 10SM FEW080 14/07 A3020 RMK AO2 SLP228 T01390072=
201006080053 METAR KCLM 080053Z AUTO 31010KT 10SM FEW037 14/08 A3021 RMK AO2 SLP230 T01440078=
201006072353 METAR KCLM 072353Z AUTO 31010G19KT 10SM BKN080 15/09 A3021 RMK AO2 SLP230 T01500089 10150 20133 50001=
201006072253 METAR KCLM 072253Z AUTO 31012G18KT 10SM SCT043 14/09 A3021 RMK AO2 SLP230 T01440094=
201006072153 METAR KCLM 072153Z AUTO 31011G18KT 10SM FEW038 SCT048 BKN065 15/10 A3022 RMK AO2 SLP232 T01500100=
201006072053 METAR KCLM 072053Z AUTO 33008G15KT 10SM OVC038 14/09 A3021 RMK AO2 SLP229 T01390094 51009=
201006072025 SPECI KCLM 072025Z AUTO 31011G17KT 270V350 10SM SCT020 BKN044 BKN095 14/10 A3021 RMK AO2=
201006072025 SPECI KCLM 072025Z AUTO 31011G17KT 270V350 10SM SCT020 BKN044 BKN095 14/10 A3021 RMK AO2=
201006072015 SPECI KCLM 072015Z AUTO 29012G19KT 10SM BKN020 BKN090 14/09 A3021 RMK AO2=
201006072015 SPECI KCLM 072015Z AUTO 29012G19KT 10SM BKN020 BKN090 14/09 A3021 RMK AO2=
201006071953 METAR KCLM 071953Z AUTO 30013G22KT 10SM FEW017 SCT050 BKN090 14/10 A3021 RMK AO2 SLP228 T01390100=
201006071853 METAR KCLM 071853Z AUTO 31012G17KT 10SM BKN048 14/10 A3019 RMK AO2 SLP224 T01440100=
201006071753 METAR KCLM 071753Z AUTO 31013G18KT 10SM BKN048 14/10 A3018 RMK AO2 SLP220 T01390100 10139 20117 53009=
201006071653 METAR KCLM 071653Z AUTO 32010G17KT 10SM SCT048 BKN095 13/10 A3017 RMK AO2 SLP217 T01330100=
201006071553 METAR KCLM 071553Z AUTO 31010KT 10SM OVC095 13/09 A3016 RMK AO2 SLP213 T01280094=
201006071453 METAR KCLM 071453Z AUTO 30007KT 10SM BKN095 13/09 A3015 RMK AO2 SLP211 T01280094 51015=
201006071420 SPECI KCLM 071420Z AUTO 28007KT 10SM SCT010 OVC095 12/10 A3015 RMK AO2=
201006071420 SPECI KCLM 071420Z AUTO 28007KT 10SM SCT010 OVC095 12/10 A3015 RMK AO2=
201006071401 SPECI KCLM 071401Z AUTO 31003KT 10SM BKN010 OVC095 12/11 A3015 RMK AO2 CIG 006V013=
201006071401 SPECI KCLM 071401Z AUTO 31003KT 10SM BKN010 OVC095 12/11 A3015 RMK AO2 CIG 006V013=
201006071353 METAR KCLM 071353Z AUTO 29005KT 10SM BKN008 OVC095 12/11 A3015 RMK AO2 CIG 006V012 SLP209 T01170106=
201006071253 METAR KCLM 071253Z AUTO 28008KT 10SM OVC006 12/11 A3013 RMK AO2 CIG 005V010 SLP202 T01170106=
201006071213 SPECI KCLM 071213Z AUTO 27007KT 10SM OVC006 12/11 A3012 RMK AO2 CIG 004V008=
201006071213 SPECI KCLM 071213Z AUTO 27007KT 10SM OVC006 12/11 A3012 RMK AO2 CIG 004V008=
201006071153 METAR KCLM 071153Z AUTO 29006KT 10SM BKN004 OVC008 12/11 A3011 RMK AO2 CIG 003V007 SLP196 60000 T01170106 10122 20117 51006=
201006071135 SPECI KCLM 071135Z AUTO 32005KT 10SM BKN008 BKN046 OVC070 12/11 A3011 RMK AO2 CIG 006V010=
201006071135 SPECI KCLM 071135Z AUTO 32005KT 10SM BKN008 BKN046 OVC070 12/11 A3011 RMK AO2 CIG 006V010=
201006071053 METAR KCLM 071053Z AUTO 28004KT 10SM SCT011 BKN046 OVC090 12/10 A3010 RMK AO2 RAB22E35 SLP193 P0000 T01170100=
201006070953 METAR KCLM 070953Z AUTO 28006KT 10SM FEW014 OVC046 12/11 A3009 RMK AO2 SLP191 T01170106=
201006070949 SPECI KCLM 070949Z AUTO 27007KT 10SM SCT014 OVC046 12/11 A3009 RMK AO2=
201006070949 SPECI KCLM 070949Z AUTO 27007KT 10SM SCT014 OVC046 12/11 A3009 RMK AO2=
201006070853 METAR KCLM 070853Z AUTO 29006KT 10SM OVC012 12/11 A3008 RMK AO2 SLP187 T01170106 53007=
201006070816 SPECI KCLM 070816Z AUTO 31005KT 10SM OVC010 12/11 A3007 RMK AO2 CIG 006V014=
201006070816 SPECI KCLM 070816Z AUTO 31005KT 10SM OVC010 12/11 A3007 RMK AO2 CIG 006V014=
201006070753 METAR KCLM 070753Z AUTO 29005KT 10SM OVC008 12/11 A3007 RMK AO2 CIG 006V012 SLP183 T01170106 401390106=
201006070653 METAR KCLM 070653Z AUTO 29006KT 10SM OVC006 12/11 A3007 RMK AO2 CIG 004V008 SLP182 T01220111=
201006070618 SPECI KCLM 070618Z AUTO 28007KT 10SM OVC006 12/11 A3006 RMK AO2 CIG 004V009=
201006070618 SPECI KCLM 070618Z AUTO 28007KT 10SM OVC006 12/11 A3006 RMK AO2 CIG 004V009=
201006070553 METAR KCLM 070553Z AUTO 29005KT 9SM OVC004 12/11 A3006 RMK AO2 SLP180 60000 T01220111 10139 20122 51013=
201006070545 SPECI KCLM 070545Z AUTO 28006KT 10SM OVC004 12/11 A3006 RMK AO2=
201006070545 SPECI KCLM 070545Z AUTO 28006KT 10SM OVC004 12/11 A3006 RMK AO2=
201006070453 METAR KCLM 070453Z AUTO 28005KT 10SM OVC008 12/11 A3005 RMK AO2 CIG 007V011 SLP178 T01220111=
201006070438 SPECI KCLM 070438Z AUTO 26004KT 10SM BKN010 OVC017 12/11 A3005 RMK AO2 CIG 008V013=
201006070438 SPECI KCLM 070438Z AUTO 26004KT 10SM BKN010 OVC017 12/11 A3005 RMK AO2 CIG 008V013=
201006070353 METAR KCLM 070353Z AUTO 30003KT 10SM FEW017 OVC023 12/11 A3004 RMK AO2 SLP173 T01220106=
201006070253 METAR KCLM 070253Z AUTO 00000KT 10SM BKN023 OVC045 13/12 A3002 RMK AO2 SLP166 60000 T01280117 53002=
201006070223 SPECI KCLM 070223Z AUTO 00000KT 10SM SCT023 BKN047 OVC065 13/11 A3002 RMK AO2=
201006070223 SPECI KCLM 070223Z AUTO 00000KT 10SM SCT023 BKN047 OVC065 13/11 A3002 RMK AO2=
201006070153 METAR KCLM 070153Z AUTO 00000KT 10SM BKN023 OVC049 13/11 A3001 RMK AO2 SLP164 T01330111=
201006070106 SPECI KCLM 070106Z AUTO 00000KT 10SM SCT024 OVC039 14/12 A3001 RMK AO2=
201006070106 SPECI KCLM 070106Z AUTO 00000KT 10SM SCT024 OVC039 14/12 A3001 RMK AO2=
201006070053 METAR KCLM 070053Z AUTO 00000KT 10SM BKN027 OVC037 14/12 A3001 RMK AO2 RAE37 SLP163 P0000 T01390117=
201006070043 SPECI KCLM 070043Z AUTO 32003KT 10SM BKN027 OVC033 13/12 A3001 RMK AO2 RAE37 P0000=
201006070043 SPECI KCLM 070043Z AUTO 32003KT 10SM BKN027 OVC033 13/12 A3001 RMK AO2 RAE37 P0000=
201006062353 METAR KCLM 062353Z AUTO 00000KT 10SM -RA FEW034 OVC050 13/11 A3001 RMK AO2 SLP164 P0000 60000 T01330106 10133 20117 51005=
201006062253 METAR KCLM 062253Z AUTO 28003KT 10SM -RA BKN041 OVC049 13/10 A3001 RMK AO2 SLP164 P0000 T01330100=
201006062153 METAR KCLM 062153Z AUTO 34003KT 10SM -RA BKN048 OVC070 13/10 A3001 RMK AO2 SLP162 P0000 T01280100=
201006062053 METAR KCLM 062053Z AUTO 00000KT 10SM -RA FEW039 BKN070 13/11 A3000 RMK AO2 SLP159 P0000 60000 T01280106 53004=
201006061953 METAR KCLM 061953Z AUTO 07003KT 10SM -RA BKN065 OVC080 12/09 A2999 RMK AO2 RAE20B51 SLP155 P0000 T01170094=
201006061853 METAR KCLM 061853Z AUTO 04003KT 10SM -RA BKN070 12/09 A2999 RMK AO2 SLP155 P0000 T01170094=
201006061753 METAR KCLM 061753Z AUTO 00000KT 10SM -RA FEW045 BKN065 OVC080 12/10 A2998 RMK AO2 RAB17 SLP154 P0000 60000 T01220100 10128 20106 58006=
201006061653 METAR KCLM 061653Z AUTO 09003KT 10SM OVC065 12/09 A2999 RMK AO2 RAB1554E21 SLP155 P0000 T01220089=
201006061553 METAR KCLM 061553Z AUTO 09004KT 10SM OVC065 12/09 A3000 RMK AO2 RAE47 SLP158 P0000 T01220094=
201006061453 METAR KCLM 061453Z AUTO 12004KT 10SM -RA FEW047 OVC070 12/10 A3000 RMK AO2 RAB00 SLP159 P0000 60000 T01170100 53002=
201006061353 METAR KCLM 061353Z AUTO 00000KT 10SM OVC070 11/10 A2999 RMK AO2 RAE36 SLP156 P0000 T01110100=
201006061253 METAR KCLM 061253Z AUTO 16003KT 10SM -RA FEW060 BKN070 OVC090 11/10 A2999 RMK AO2 SLP157 P0000 T01060100=
201006061153 METAR KCLM 061153Z AUTO 00000KT 10SM -RA BKN065 OVC090 11/10 A3000 RMK AO2 RAB51 SLP157 P0000 60000 T01060100 10122 20106 58005=
201006061053 METAR KCLM 061053Z AUTO 00000KT 10SM OVC080 11/10 A3000 RMK AO2 RAB00E45 SLP158 P0000 T01110100=
201006060953 METAR KCLM 060953Z AUTO 21003KT 10SM OVC080 11/09 A3001 RMK AO2 RAE03 SLP162 P0000 T01110094=
201006060853 METAR KCLM 060853Z AUTO 09003KT 10SM -RA OVC090 12/09 A3001 RMK AO2 RAB36 SLP162 P0000 60000 T01170089 56008=
201006060753 METAR KCLM 060753Z AUTO 00000KT 10SM OVC110 11/08 A3001 RMK AO2 SLP163 T01110083 401720072=
201006060653 METAR KCLM 060653Z AUTO 00000KT 10SM BKN120 12/08 A3002 RMK AO2 SLP164 T01170083=
201006060553 METAR KCLM 060553Z AUTO 23003KT 10SM CLR 11/08 A3003 RMK AO2 SLP170 T01110083 10172 20111 56009=
201006060453 METAR KCLM 060453Z AUTO 00000KT 10SM CLR 13/07 A3004 RMK AO2 SLP173 T01280067=
201006060353 METAR KCLM 060353Z AUTO 00000KT 10SM CLR 14/06 A3004 RMK AO2 SLP173 T01440061=
201006060253 METAR KCLM 060253Z AUTO 10004KT 10SM CLR 16/06 A3006 RMK AO2 SLP178 T01610056 56017=
201006060153 METAR KCLM 060153Z AUTO 11004KT 10SM CLR 17/04 A3007 RMK AO2 SLP182 T01670044=
201006060053 METAR KCLM 060053Z AUTO 10004KT 10SM CLR 17/03 A3009 RMK AO2 SLP189 T01670033=
201006052353 METAR KCLM 052353Z AUTO 08008KT 10SM CLR 16/05 A3011 RMK AO2 SLP195 T01610050 10167 20133 56018=
201006052253 METAR KCLM 052253Z AUTO 09007KT 10SM CLR 16/07 A3012 RMK AO2 SLP200 T01560067=
201006052153 METAR KCLM 052153Z AUTO 09009KT 10SM FEW100 15/08 A3014 RMK AO2 SLP206 T01500078=
201006052053 METAR KCLM 052053Z AUTO VRB06KT 10SM CLR 14/08 A3016 RMK AO2 SLP215 T01440083 58007=
201006051953 METAR KCLM 051953Z AUTO 07005KT 10SM FEW050 14/08 A3018 RMK AO2 SLP221 T01440078=
201006051853 METAR KCLM 051853Z AUTO VRB04KT 10SM BKN050 13/07 A3018 RMK AO2 SLP222 T01330072=
201006051753 METAR KCLM 051753Z AUTO VRB04KT 10SM CLR 14/07 A3019 RMK AO2 SLP222 T01440067 10144 20083 58005=
201006051653 METAR KCLM 051653Z AUTO 01004KT 10SM CLR 13/06 A3020 RMK AO2 SLP227 T01330061=
201006051553 METAR KCLM 051553Z AUTO 00000KT 10SM CLR 13/06 A3020 RMK AO2 SLP228 T01280061=
201006051453 METAR KCLM 051453Z AUTO 00000KT 10SM CLR 12/06 A3020 RMK AO2 SLP228 T01220061 51012=
201006051353 METAR KCLM 051353Z AUTO 25004KT 10SM BKN060 09/06 A3019 RMK AO2 SLP225 T00940056=
201006051253 METAR KCLM 051253Z AUTO 25003KT 10SM OVC060 08/05 A3018 RMK AO2 SLP221 T00830050=
201006051153 METAR KCLM 051153Z AUTO VRB03KT 10SM OVC055 09/04 A3016 RMK AO2 SLP215 T00890044 10094 20067 51009=
201006051053 METAR KCLM 051053Z AUTO 24009KT 10SM OVC050 09/04 A3016 RMK AO2 SLP213 T00890044=
201006050953 METAR KCLM 050953Z AUTO 24009KT 10SM OVC055 09/05 A3015 RMK AO2 SLP212 T00940050=
201006050853 METAR KCLM 050853Z AUTO 25006KT 10SM FEW050 08/05 A3014 RMK AO2 SLP207 T00830050 53016=
201006050753 METAR KCLM 050753Z AUTO 27004KT 10SM FEW055 07/05 A3012 RMK AO2 SLP200 T00720050 401390067=
201006050653 METAR KCLM 050653Z AUTO 24006KT 10SM BKN055 08/06 A3010 RMK AO2 SLP194 T00830061=
201006050553 METAR KCLM 050553Z AUTO 25005KT 10SM CLR 09/06 A3009 RMK AO2 SLP190 T00890061 10133 20083 53018=
201006050453 METAR KCLM 050453Z AUTO 30003KT 10SM CLR 09/07 A3007 RMK AO2 SLP183 T00940067=
201006050353 METAR KCLM 050353Z AUTO VRB06KT 10SM CLR 11/08 A3005 RMK AO2 SLP177 T01060078=
201006050253 METAR KCLM 050253Z AUTO 30013G20KT 10SM CLR 11/08 A3004 RMK AO2 SLP173 T01110078 52020=
201006050153 METAR KCLM 050153Z AUTO 30014G17KT 10SM CLR 12/07 A3001 RMK AO2 SLP164 T01170072=
201006050053 METAR KCLM 050053Z AUTO 30012G21KT 10SM FEW060 12/07 A3000 RMK AO2 SLP160 T01170072=
201006042353 METAR KCLM 042353Z AUTO 30016G22KT 10SM CLR 13/08 A2998 RMK AO2 SLP152 60000 T01280078 10139 20122 53026=
201006042253 METAR KCLM 042253Z AUTO 31012G21KT 10SM BKN070 13/07 A2995 RMK AO2 SLP142 T01330067=
201006042153 METAR KCLM 042153Z AUTO 32009G16KT 10SM BKN055 OVC070 13/08 A2993 RMK AO2 SLP134 T01280078=
201006042053 METAR KCLM 042053Z AUTO 30014G20KT 10SM SCT060 13/08 A2990 RMK AO2 RAB11E49 SLP126 P0000 60000 T01280083 53031=
201006041953 METAR KCLM 041953Z AUTO 31013G19KT 10SM OVC090 13/07 A2987 RMK AO2 SLP114 T01330067=
201006041853 METAR KCLM 041853Z AUTO 30011G15KT 10SM SCT024 BKN065 OVC090 14/09 A2984 RMK AO2 SLP105 T01390089=
201006041753 METAR KCLM 041753Z AUTO 30008KT 10SM OVC060 12/09 A2981 RMK AO2 RAE1655 SLP094 P0000 60000 T01220089 10133 20089 51022=
201006041653 METAR KCLM 041653Z AUTO 30005KT 10SM -RA FEW039 OVC050 12/09 A2979 RMK AO2 RAB43 SLP087 P0000 T01170089=
201006041553 METAR KCLM 041553Z AUTO 25004KT 10SM OVC046 12/09 A2976 RMK AO2 SLP079 T01220089=
201006041453 METAR KCLM 041453Z AUTO 25004KT 10SM OVC044 10/09 A2974 RMK AO2 RAE39 SLP072 P0000 60000 T01000089 53012=
201006041353 METAR KCLM 041353Z AUTO 24003KT 10SM -RA OVC046 09/08 A2973 RMK AO2 SLP067 P0000 T00890083=
201006041253 METAR KCLM 041253Z AUTO 24003KT 10SM -RA SCT030 OVC040 09/08 A2971 RMK AO2 SLP062 P0000 T00890078=
201006041153 METAR KCLM 041153Z AUTO 22003KT 10SM -RA OVC032 09/08 A2970 RMK AO2 SLP059 P0000 60000 T00890083 10100 20089 55007=
201006041053 METAR KCLM 041053Z AUTO 00000KT 10SM -RA SCT036 OVC048 09/08 A2970 RMK AO2 RAB17 SLP059 P0000 T00890083=
201006040953 METAR KCLM 040953Z AUTO 00000KT 10SM FEW043 BKN050 OVC085 09/08 A2970 RMK AO2 SLP059 T00890078=
201006040853 METAR KCLM 040853Z AUTO 00000KT 10SM OVC045 09/08 A2973 RMK AO2 SLP067 T00940078 56020=
201006040753 METAR KCLM 040753Z AUTO 00000KT 10SM BKN043 BKN080 OVC120 09/08 A2974 RMK AO2 SLP070 T00940078 401390056=
201006040653 METAR KCLM 040653Z AUTO 23004KT 10SM SCT043 SCT050 OVC095 10/08 A2976 RMK AO2 SLP078 T01000078=
201006040553 METAR KCLM 040553Z AUTO 00000KT 10SM OVC039 09/08 A2979 RMK AO2 SLP087 60000 T00940078 10139 20094 58019=
201006040453 METAR KCLM 040453Z AUTO 28004KT 10SM OVC039 09/08 A2982 RMK AO2 RAB29E40 SLP097 P0000 T00940078=
201006040353 METAR KCLM 040353Z AUTO 00000KT 10SM OVC041 10/07 A2982 RMK AO2 SLP100 T01000072=
201006040253 METAR KCLM 040253Z AUTO 31005KT 10SM OVC039 11/07 A2984 RMK AO2 RAE0154 SLP107 60000 T01060072 56014=
201006040153 METAR KCLM 040153Z AUTO 31005KT 10SM -RA BKN039 OVC065 11/08 A2985 RMK AO2 RAB35 SLP110 P0000 T01060078=
201006040053 METAR KCLM 040053Z AUTO 00000KT 10SM BKN065 12/04 A2987 RMK AO2 SLP114 T01220039=
201006032353 METAR KCLM 032353Z AUTO 34005KT 10SM SCT060 13/06 A2989 RMK AO2 RAB42E53 SLP121 P0000 60000 T01330056 10139 20100 56022=
201006032253 METAR KCLM 032253Z AUTO VRB03KT 10SM OVC070 12/07 A2990 RMK AO2 SLP127 T01170072=
201006032153 METAR KCLM 032153Z AUTO 03006KT 10SM SCT048 BKN065 13/07 A2992 RMK AO2 SLP131 T01330067=
201006032053 METAR KCLM 032053Z AUTO VRB04KT 10SM OVC048 12/07 A2995 RMK AO2 SLP143 60000 T01220067 56009=
201006031953 METAR KCLM 031953Z AUTO 08003KT 10SM OVC043 12/07 A2996 RMK AO2 RAE00 SLP145 P0000 T01170067=
201006031853 METAR KCLM 031853Z AUTO VRB03KT 10SM -RA OVC050 12/08 A2997 RMK AO2 RAB14 SLP149 P0000 T01170078=
201006031753 METAR KCLM 031753Z AUTO 11005KT 10SM SCT011 OVC046 10/07 A2998 RMK AO2 SLP152 T01000072 10111 20056 50001=
201006031653 METAR KCLM 031653Z AUTO VRB06KT 10SM FEW011 BKN050 OVC060 10/07 A2999 RMK AO2 SLP155 T01000072=
201006031553 METAR KCLM 031553Z AUTO 05005KT 10SM CLR 11/07 A2998 RMK AO2 SLP152 T01060067=
201006031453 METAR KCLM 031453Z AUTO 11005KT 10SM FEW014 10/07 A2997 RMK AO2 SLP151 T01000067 51003=
201006031353 METAR KCLM 031353Z AUTO 00000KT 10SM CLR 08/06 A2997 RMK AO2 SLP150 T00780061=
201006031253 METAR KCLM 031253Z AUTO 22003KT 10SM SCT055 06/05 A2997 RMK AO2 SLP149 T00610050=
201006031216 SPECI KCLM 031216Z AUTO 17004KT 10SM SCT015 SCT039 OVC060 08/06 A2997 RMK AO2=
201006031216 SPECI KCLM 031216Z AUTO 17004KT 10SM SCT015 SCT039 OVC060 08/06 A2997 RMK AO2=
201006031206 SPECI KCLM 031206Z AUTO 16004KT 10SM BKN015 BKN041 OVC060 08/06 A2997 RMK AO2=
201006031206 SPECI KCLM 031206Z AUTO 16004KT 10SM BKN015 BKN041 OVC060 08/06 A2997 RMK AO2=
201006031153 METAR KCLM 031153Z AUTO 17004KT 10SM SCT015 BKN039 08/07 A2996 RMK AO2 SLP148 70001 T00780067 10083 20061 51014=
201006031053 METAR KCLM 031053Z AUTO 16005KT 10SM SCT031 07/06 A2996 RMK AO2 SLP147 T00720056=
201006031043 SPECI KCLM 031043Z AUTO 15006KT 10SM BKN031 07/05 A2996 RMK AO2=
201006031043 SPECI KCLM 031043Z AUTO 15006KT 10SM BKN031 07/05 A2996 RMK AO2=
201006030953 METAR KCLM 030953Z AUTO 18003KT 10SM OVC027 06/04 A2995 RMK AO2 SLP141 T00610044=
201006030925 SPECI KCLM 030925Z AUTO 18004KT 10SM BKN029 OVC037 07/04 A2994 RMK AO2=
201006030925 SPECI KCLM 030925Z AUTO 18004KT 10SM BKN029 OVC037 07/04 A2994 RMK AO2=
201006030853 METAR KCLM 030853Z AUTO 25008KT 10SM FEW031 07/04 A2992 RMK AO2 SLP134 T00720039 53018=
201006030753 METAR KCLM 030753Z AUTO 29007KT 10SM OVC070 07/04 A2990 RMK AO2 SLP124 T00720039 401440061=
201006030653 METAR KCLM 030653Z AUTO 27004KT 10SM BKN060 BKN080 06/04 A2988 RMK AO2 SLP120 T00610039=
201006030553 METAR KCLM 030553Z AUTO 25003KT 10SM SCT070 08/04 A2987 RMK AO2 SLP115 T00780039 10111 20078 51036=
201006030453 METAR KCLM 030453Z AUTO 28009KT 10SM BKN060 08/04 A2984 RMK AO2 SLP106 T00830044=
201006030353 METAR KCLM 030353Z AUTO 28009KT 10SM FEW060 09/04 A2980 RMK AO2 SLP091 T00940039=
201006030253 METAR KCLM 030253Z AUTO VRB05KT 10SM FEW055 10/04 A2976 RMK AO2 PRESRR SLP079 T01000044 53022=
201006030153 METAR KCLM 030153Z AUTO 31009G20KT 280V340 10SM OVC040 11/07 A2973 RMK AO2 SLP067 T01060067=
201006030053 METAR KCLM 030053Z AUTO 31011G21KT 10SM BKN042 BKN049 10/07 A2971 RMK AO2 PK WND 31026/0027 SLP060 T01000067=
201006030031 SPECI KCLM 030031Z AUTO 31014G26KT 10SM FEW005 SCT011 OVC042 11/08 A2970 RMK AO2 PK WND 31026/0027=
201006030031 SPECI KCLM 030031Z AUTO 31014G26KT 10SM FEW005 SCT011 OVC042 11/08 A2970 RMK AO2 PK WND 31026/0027=
201006030018 SPECI KCLM 030018Z AUTO 30013G19KT 10SM BKN005 OVC009 10/08 A2970 RMK AO2 CIG 003V007=
201006030018 SPECI KCLM 030018Z AUTO 30013G19KT 10SM BKN005 OVC009 10/08 A2970 RMK AO2 CIG 003V007=
201006022353 METAR KCLM 022353Z AUTO 31012G18KT 10SM OVC003 09/09 A2970 RMK AO2 RAE2259 CIG 001V007 SLP056 P0000 60001 T00940089 10144 20094 53025=
201006022327 SPECI KCLM 022327Z AUTO 31013G25KT 10SM BKN003 BKN009 OVC017 09/09 A2968 RMK AO2 RAE2259 CIG 001V006 P0000=
201006022327 SPECI KCLM 022327Z AUTO 31013G25KT 10SM BKN003 BKN009 OVC017 09/09 A2968 RMK AO2 RAE2259 CIG 001V006 P0000=
201006022253 METAR KCLM 022253Z AUTO 30013G20KT 10SM -RA BKN005 BKN009 OVC017 11/10 A2966 RMK AO2 RAB50 SLP044 P0000 T01060100=
201006022212 SPECI KCLM 022212Z AUTO 31012G16KT 10SM BKN005 OVC013 11/10 A2964 RMK AO2 CIG 003V008=
201006022212 SPECI KCLM 022212Z AUTO 31012G16KT 10SM BKN005 OVC013 11/10 A2964 RMK AO2 CIG 003V008=
201006022153 METAR KCLM 022153Z AUTO 31010G21KT 10SM OVC003 11/10 A2964 RMK AO2 RAE46 CIG 001V005 SLP038 P0000 T01060100=
201006022053 METAR KCLM 022053Z AUTO 31006KT 5SM -RA BR OVC009 12/12 A2962 RMK AO2 CIG 005V012 SLP031 P0001 60001 T01220117 53019=
201006022046 SPECI KCLM 022046Z AUTO 31009G14KT 10SM -RA BKN007 OVC014 12/12 A2962 RMK AO2 CIG 004V010 P0000=
201006022046 SPECI KCLM 022046Z AUTO 31009G14KT 10SM -RA BKN007 OVC014 12/12 A2962 RMK AO2 CIG 004V010 P0000=
201006022021 SPECI KCLM 022021Z AUTO 33005KT 6SM -RA BR SCT007 BKN010 OVC016 12/12 A2961 RMK AO2 CIG 008V014 P0000=
201006022021 SPECI KCLM 022021Z AUTO 33005KT 6SM -RA BR SCT007 BKN010 OVC016 12/12 A2961 RMK AO2 CIG 008V014 P0000=
201006021953 METAR KCLM 021953Z AUTO 35005KT 10SM -RA SCT009 OVC017 12/12 A2959 RMK AO2 RAB03 SLP021 P0000 T01220117=
201006021941 SPECI KCLM 021941Z AUTO 02004KT 10SM -RA SCT009 OVC017 13/12 A2959 RMK AO2 RAB03 P0000=
201006021941 SPECI KCLM 021941Z AUTO 02004KT 10SM -RA SCT009 OVC017 13/12 A2959 RMK AO2 RAB03 P0000=
201006021920 SPECI KCLM 021920Z AUTO 32005KT 10SM -RA SCT011 OVC017 13/12 A2959 RMK AO2 RAB03 P0000=
201006021920 SPECI KCLM 021920Z AUTO 32005KT 10SM -RA SCT011 OVC017 13/12 A2959 RMK AO2 RAB03 P0000=
201006021853 METAR KCLM 021853Z AUTO 31005KT 10SM BKN012 OVC055 14/12 A2958 RMK AO2 RAE47 SLP017 P0000 T01440122=
201006021846 SPECI KCLM 021846Z AUTO 00000KT 10SM -RA BKN012 OVC055 14/12 A2958 RMK AO2 P0000=
201006021846 SPECI KCLM 021846Z AUTO 00000KT 10SM -RA BKN012 OVC055 14/12 A2958 RMK AO2 P0000=
201006021753 METAR KCLM 021753Z AUTO 34003KT 10SM -RA FEW032 SCT060 BKN075 13/12 A2956 RMK AO2 RAB28 SLP012 P0000 60000 T01330117 10133 20094 53008=
201006021708 SPECI KCLM 021708Z AUTO 26005KT 10SM SCT007 OVC060 13/11 A2956 RMK AO2=
201006021708 SPECI KCLM 021708Z AUTO 26005KT 10SM SCT007 OVC060 13/11 A2956 RMK AO2=
201006021653 METAR KCLM 021653Z AUTO 25004KT 10SM BKN007 OVC060 13/11 A2955 RMK AO2 RAE22 SLP006 P0000 T01280111=
201006021645 SPECI KCLM 021645Z AUTO 26004KT 10SM SCT007 OVC055 13/11 A2955 RMK AO2 RAE22 P0000=
201006021645 SPECI KCLM 021645Z AUTO 26004KT 10SM SCT007 OVC055 13/11 A2955 RMK AO2 RAE22 P0000=
201006021553 METAR KCLM 021553Z AUTO 00000KT 10SM -RA OVC005 12/11 A2955 RMK AO2 RAB40 SLP007 P0000 T01170106=
201006021545 SPECI KCLM 021545Z AUTO 00000KT 10SM -RA OVC005 12/11 A2955 RMK AO2 RAB40 P0000=
201006021545 SPECI KCLM 021545Z AUTO 00000KT 10SM -RA OVC005 12/11 A2955 RMK AO2 RAB40 P0000=
201006021453 METAR KCLM 021453Z AUTO 00000KT 10SM OVC003 11/10 A2954 RMK AO2 RAB1354E18 SLP004 P0000 60000 T01060100 56022=
201006021431 SPECI KCLM 021431Z AUTO 00000KT 10SM BKN003 BKN040 10/10 A2954 RMK AO2 RAB1354E18 P0000=
201006021431 SPECI KCLM 021431Z AUTO 00000KT 10SM BKN003 BKN040 10/10 A2954 RMK AO2 RAB1354E18 P0000=
201006021353 METAR KCLM 021353Z AUTO 00000KT 3SM BR FEW003 BKN065 BKN095 10/09 A2956 RMK AO2 RAE1259B19E31 SLP011 P0000 T01000094=
201006021336 SPECI KCLM 021336Z AUTO 00000KT 9SM SCT003 SCT060 BKN075 09/09 A2956 RMK AO2 RAE1259B19E31 P0000=
201006021336 SPECI KCLM 021336Z AUTO 00000KT 9SM SCT003 SCT060 BKN075 09/09 A2956 RMK AO2 RAE1259B19E31 P0000=
201006021327 SPECI KCLM 021327Z AUTO 00000KT 10SM -RA BKN003 BKN044 OVC070 09/09 A2956 RMK AO2 RAE1259B19 P0000=
201006021327 SPECI KCLM 021327Z AUTO 00000KT 10SM -RA BKN003 BKN044 OVC070 09/09 A2956 RMK AO2 RAE1259B19 P0000=
201006021312 SPECI KCLM 021312Z AUTO 00000KT 9SM BKN001 BKN049 OVC100 09/09 A2955 RMK AO2 RAE1259 P0000=
201006021312 SPECI KCLM 021312Z AUTO 00000KT 9SM BKN001 BKN049 OVC100 09/09 A2955 RMK AO2 RAE1259 P0000=
201006021304 SPECI KCLM 021304Z AUTO 00000KT 9SM SCT001 BKN050 OVC100 09/09 A2957 RMK AO2 RAE1259 P0000=
201006021304 SPECI KCLM 021304Z AUTO 00000KT 9SM SCT001 BKN050 OVC100 09/09 A2957 RMK AO2 RAE1259 P0000=
201006021253 METAR KCLM 021253Z AUTO 05003KT 10SM -RA FEW049 BKN060 OVC100 10/10 A2957 RMK AO2 RAE19B37 SLP013 P0000 T01000100=
201006021153 METAR KCLM 021153Z AUTO 23003KT 10SM -RA OVC060 10/09 A2961 RMK AO2 RAB1056E18B36 SLP026 P0000 60000 T01000094 10106 20094 56017=
201006021053 METAR KCLM 021053Z AUTO 00000KT 10SM FEW005 OVC075 09/09 A2962 RMK AO2 RAB0956E08 SLP032 P0000 T00940094=
201006021027 SPECI KCLM 021027Z AUTO 00000KT 9SM FEW005 SCT065 SCT110 09/09 A2962 RMK AO2 RAB0956E08 P0000=
201006021027 SPECI KCLM 021027Z AUTO 00000KT 9SM FEW005 SCT065 SCT110 09/09 A2962 RMK AO2 RAB0956E08 P0000=
201006020953 METAR KCLM 020953Z AUTO 00000KT 10SM FEW070 OVC085 09/09 A2963 RMK AO2 RAB0859E28 SLP034 P0000 T00940094=
201006020853 METAR KCLM 020853Z AUTO 00000KT 10SM OVC075 10/09 A2966 RMK AO2 SLP043 60000 T01000094 56021=
201006020753 METAR KCLM 020753Z AUTO 25004KT 10SM OVC060 10/09 A2967 RMK AO2 SLP048 T01000094 401390094=
201006020653 METAR KCLM 020653Z AUTO 00000KT 10SM OVC075 10/09 A2969 RMK AO2 RAB30E47 SLP054 P0000 T01000094=
201006020553 METAR KCLM 020553Z AUTO 00000KT 10SM FEW017 SCT070 OVC110 10/09 A2972 RMK AO2 SLP064 60000 T01000094 10133 20100 56023=
201006020453 METAR KCLM 020453Z AUTO 00000KT 10SM BKN120 11/10 A2974 RMK AO2 RAE09 SLP070 P0000 T01060100=
201006020353 METAR KCLM 020353Z AUTO 00000KT 10SM -RA BKN055 BKN110 11/09 A2976 RMK AO2 RAB12 SLP079 P0000 T01110094=
201006020253 METAR KCLM 020253Z AUTO 00000KT 10SM BKN110 11/09 A2978 RMK AO2 SLP087 T01110089 58026=
201006020153 METAR KCLM 020153Z AUTO 00000KT 10SM SCT110 12/09 A2981 RMK AO2 SLP095 T01170089=
201006020053 METAR KCLM 020053Z AUTO 00000KT 10SM SCT110 13/09 A2984 RMK AO2 SLP105 T01280094=
201006012353 METAR KCLM 012353Z AUTO 05003KT 10SM SCT100 13/09 A2986 RMK AO2 SLP113 T01280089 10139 20117 58020=
201006012253 METAR KCLM 012253Z AUTO 00000KT 10SM SCT060 BKN090 13/09 A2988 RMK AO2 SLP120 T01280089=
201006012153 METAR KCLM 012153Z AUTO 02003KT 10SM BKN065 12/08 A2990 RMK AO2 SLP126 T01220083=
201006012053 METAR KCLM 012053Z AUTO 07005KT 10SM BKN065 OVC085 12/08 A2992 RMK AO2 SLP133 T01220078 58005=
201006012019 SPECI KCLM 012019Z AUTO 08007KT 10SM FEW018 OVC070 13/08 A2993 RMK AO2=
201006012019 SPECI KCLM 012019Z AUTO 08007KT 10SM FEW018 OVC070 13/08 A2993 RMK AO2=
201006011953 METAR KCLM 011953Z AUTO 07007KT 10SM OVC018 13/08 A2992 RMK AO2 SLP134 T01280083=
201006011853 METAR KCLM 011853Z AUTO VRB05KT 10SM OVC016 12/08 A2993 RMK AO2 SLP137 T01220083=
201006011753 METAR KCLM 011753Z AUTO VRB05KT 10SM OVC016 12/08 A2994 RMK AO2 SLP138 T01170083 10117 20094 58003=
201006011700 SPECI KCLM 011700Z AUTO 09005KT 10SM BKN016 OVC020 11/08 A2994 RMK AO2=
201006011700 SPECI KCLM 011700Z AUTO 09005KT 10SM BKN016 OVC020 11/08 A2994 RMK AO2=
201006011653 METAR KCLM 011653Z AUTO 13006KT 10SM OVC014 11/08 A2994 RMK AO2 SLP140 T01110083=
201006011553 METAR KCLM 011553Z AUTO 00000KT 10SM BKN014 OVC024 11/08 A2994 RMK AO2 SLP140 T01060083=
201006011453 METAR KCLM 011453Z AUTO 00000KT 10SM OVC018 10/08 A2995 RMK AO2 SLP141 T01000083 56002=
201006011353 METAR KCLM 011353Z AUTO 26003KT 10SM OVC020 09/08 A2995 RMK AO2 SLP142 T00940078 $=
201006011253 METAR KCLM 011253Z AUTO 00000KT 10SM OVC020 09/08 A2995 RMK AO2 SLP141 T00940083 $=
201006011153 METAR KCLM 011153Z AUTO 26003KT 10SM SCT018 OVC026 09/08 A2995 RMK AO2 SLP143 70006 T00940083 10100 20094 58001 $=
201006011053 METAR KCLM 011053Z AUTO 00000KT 10SM SCT019 OVC024 09/08 A2995 RMK AO2 SLP144 T00940083 $=
201006010953 METAR KCLM 010953Z AUTO 27003KT 10SM OVC020 09/09 A2995 RMK AO2 SLP144 T00940089 $=
201006010853 METAR KCLM 010853Z AUTO 28005KT 10SM BKN018 BKN026 OVC070 09/09 A2995 RMK AO2 SLP143 T00940089 50001 $=
201006010753 METAR KCLM 010753Z AUTO 28004KT 10SM OVC016 09/09 A2995 RMK AO2 SLP144 T00940089 401560094 $=
201006010653 METAR KCLM 010653Z AUTO 27005KT 10SM OVC018 09/09 A2995 RMK AO2 SLP143 T00940089 $=
201006010619 SPECI KCLM 010619Z AUTO 29005KT 10SM FEW009 SCT013 OVC018 10/09 A2995 RMK AO2 $=
201006010619 SPECI KCLM 010619Z AUTO 29005KT 10SM FEW009 SCT013 OVC018 10/09 A2995 RMK AO2 $=
201006010612 SPECI KCLM 010612Z AUTO 30005KT 10SM SCT009 BKN013 OVC020 10/09 A2995 RMK AO2 $=
201006010612 SPECI KCLM 010612Z AUTO 30005KT 10SM SCT009 BKN013 OVC020 10/09 A2995 RMK AO2 $=
201006010553 METAR KCLM 010553Z AUTO 31003KT 10SM BKN009 BKN014 OVC020 10/09 A2995 RMK AO2 CIG 006V012 SLP143 60000 T01000094 10117 20100 53011 $=
201006010508 SPECI KCLM 010508Z AUTO 29005KT 10SM BKN009 OVC013 10/09 A2994 RMK AO2 CIG 007V012 $=
201006010508 SPECI KCLM 010508Z AUTO 29005KT 10SM BKN009 OVC013 10/09 A2994 RMK AO2 CIG 007V012 $=
201006010453 METAR KCLM 010453Z AUTO 29005KT 10SM BKN010 OVC013 10/09 A2994 RMK AO2 CIG 007V012 SLP138 T01000094 $=
201006010443 SPECI KCLM 010443Z AUTO 30006KT 10SM BKN011 OVC014 10/09 A2993 RMK AO2 CIG 007V012 $=
201006010443 SPECI KCLM 010443Z AUTO 30006KT 10SM BKN011 OVC014 10/09 A2993 RMK AO2 CIG 007V012 $=
201006010353 METAR KCLM 010353Z AUTO 29008KT 10SM OVC009 11/10 A2993 RMK AO2 CIG 007V013 SLP134 T01060100 $=
201006010318 SPECI KCLM 010318Z AUTO 28003KT 10SM BKN009 OVC018 11/11 A2992 RMK AO2 CIG 006V012 $=
201006010318 SPECI KCLM 010318Z AUTO 28003KT 10SM BKN009 OVC018 11/11 A2992 RMK AO2 CIG 006V012 $=
201006010306 SPECI KCLM 010306Z AUTO 30004KT 10SM BKN011 OVC018 11/10 A2992 RMK AO2 $=
201006010306 SPECI KCLM 010306Z AUTO 30004KT 10SM BKN011 OVC018 11/10 A2992 RMK AO2 $=
201006010253 METAR KCLM 010253Z AUTO 29006KT 10SM OVC016 11/10 A2992 RMK AO2 RAE34 SLP131 P0000 60000 T01110100 53003 $=
201006010251 SPECI KCLM 010251Z AUTO 29006KT 10SM FEW010 OVC016 11/11 A2992 RMK AO2 RAE34 P0000 $=
201006010251 SPECI KCLM 010251Z AUTO 29006KT 10SM FEW010 OVC016 11/11 A2992 RMK AO2 RAE34 P0000 $=
201006010153 METAR KCLM 010153Z AUTO 30007KT 10SM -RA BKN010 OVC014 11/11 A2991 RMK AO2 RAE20B47 CIG 006V011 SLPNO P0000 T01110106 $=
201006010053 METAR KCLM 010053Z AUTO 30006KT 10SM -RA OVC012 12/11 A2991 RMK AO2 RAB03E21B41 SLPNO P0000 T01170106 $=

# No short TAF reports from KCLM in databse.

###################################
#  large TAF from KCLM
###################################
201006302327 TAF KCLM 302327Z 0100/0124 VRB04KT P6SM FEW070 BKN250 FM010300
                       27005KT P6SM BKN250 FM010900 27005KT P6SM
                       SCT120 BKN250 FM011200 29005KT P6SM SCT040
                       BKN100=
201006301735 TAF KCLM 301735Z 3018/0118 27005KT P6SM SCT050 BKN250 FM010000
                       27007KT P6SM BKN050 BKN250 FM010900 27007KT
                       P6SM BKN040 BKN100=
201006301121 TAF KCLM 301121Z 3012/0112 27005KT P6SM SCT025 SCT050 FM301900
                       27007KT P6SM SCT030 BKN050=
201006301016 KCLM 301016Z 3010/0106 25005KT P6SM SCT025 SCT050 FM301900 27006KT
                       P6SM SCT030 BKN050=
201006300704 KCLM 300704Z 3007/0106 25005KT P6SM SCT025 SCT050
                      TEMPO 3007/3011 BKN025 BKN050 FM301100 28008KT
                       P6SM BKN025 BKN050 FM301900 27006KT P6SM
                       SCT030 BKN050=
201006300520 TAF KCLM 300520Z 3006/0106 28008KT P6SM SCT025 BKN050
                      TEMPO 3006/3010 BKN025 OVC050 FM301000 28008KT
                       P6SM BKN025 BKN050 FM301900 27006KT P6SM
                       SCT030 BKN050=
201006292320 TAF KCLM 292320Z 3000/3024 29006KT P6SM SCT045 BKN070 FM300100
                       29012KT P6SM SCT070 FM300900 27012KT P6SM
                       BKN030 FM301400 27006KT P6SM BKN025 BKN050
                       FM301900 27006KT P6SM SCT030 BKN050=
201006292206 KCLM 292206Z 2922/3018 29006KT P6SM VCSH BKN045 FM300100 29012KT
                       P6SM SCT045 FM300900 27012KT P6SM BKN030
                       FM301400 27006KT P6SM BKN030=
201006291736 TAF KCLM 291736Z 2918/3018 29006KT P6SM SCT045 FM300100 29012KT
                       P6SM SCT045 FM300900 27012KT P6SM BKN030
                       FM301400 27006KT P6SM BKN030=
201006291510 KCLM 291510Z 2915/3012 27006KT P6SM SCT045 SCT200 FM300800 27012KT
                       P6SM BKN030=
201006291125 TAF KCLM 291125Z 2912/3012 VRB03KT P6SM BKN035 BKN200
                      TEMPO 2914/2918 SCT035 FM291800 27007KT P6SM
                       SCT040 SCT200 FM300800 27012KT P6SM BKN030=
201006290520 TAF KCLM 290520Z 2906/3006 30012G20KT P6SM SCT030 BKN200 FM290800
                       VRB03KT P6SM BKN030
                      TEMPO 2912/2916 OVC025 FM292000 30007KT P6SM
                       SCT040=
201006282320 TAF KCLM 282320Z 2900/2924 30007KT P6SM VCSH SCT025 SCT060
                      TEMPO 2900/2902 -SHRA BKN025 FM290500 29006KT
                       P6SM FEW015 OVC025
                      TEMPO 2910/2914 BKN015 FM291800 30007KT P6SM
                       SCT030 BKN070 FM292000 30007KT P6SM BKN070=
201006281742 TAF KCLM 281742Z 2818/2918 30007KT P6SM VCSH SCT025 SCT060 FM290300
                       28010KT P6SM VCSH BKN060 FM290500 29006KT
                       P6SM OVC025=
201006281451 KCLM 281451Z 2815/2912 30005KT P6SM VCSH SCT020 OVC080
                      TEMPO 2815/2817 BKN020 FM281800 27007KT P6SM
                       VCSH SCT020 BKN040 FM290300 27012KT P6SM
                       VCSH OVC035=
201006281120 TAF KCLM 281120Z 2812/2912 27007KT P6SM VCSH BKN018 OVC060 FM281800
                       27007KT P6SM VCSH SCT020 BKN040 FM290300
                       27012KT P6SM VCSH OVC035=
201006280804 KCLM 280804Z 2808/2906 27007KT P6SM VCSH SCT020 OVC060
                      TEMPO 2808/2812 BKN020 OVC050 FM281800 27007KT
                       P6SM VCSH SCT020 BKN040 FM290300 27012KT
                       P6SM VCSH OVC035=
201006280520 TAF KCLM 280520Z 2806/2906 27007KT P6SM VCSH OVC015 FM281800 27007KT
                       P6SM VCSH SCT020 BKN040 FM290300 27012KT
                       P6SM VCSH OVC035=
201006280239 KCLM 280239Z 2803/2824 28008KT P6SM VCSH OVC015 FM282000 28008KT
                       P6SM VCSH BKN025 BKN050=
201006272339 TAF KCLM 272339Z 2800/2824 30009KT P6SM VCSH SCT008 BKN015 OVC035
                       TEMPO 2800/2802 BKN008 OVC015 FM280200 27009KT
                       P6SM SCT022 BKN035 BKN060 FM280600 27005KT
                       P6SM SCT035 BKN060 BKN100 FM281200 27005KT
                       P6SM BKN028 OVC060 FM281400 30005KT P6SM
                       OVC018
                      PROB30 2814/2818 -SHRA FM282000 30009KT P6SM
                       VCSH BKN035 BKN050=
201006272224 KCLM 272224Z 2722/2818 30005KT P6SM VCSH BKN015 OVC035 FM280200
                       27005KT P6SM BKN050 BKN100 FM281200 27005KT
                       P6SM OVC018
                      PROB30 2812/2818 -RA=
201006272047 KCLM 272047Z 2721/2818 30005KT P6SM VCSH SCT020 BKN035 BKN050
                      TEMPO 2721/2724 BKN020 OVC035 FM280000 27005KT
                       P6SM BKN050 BKN100 FM281200 27005KT P6SM
                       OVC018
                      PROB30 2812/2818 -RA=
201006271949 KCLM 271949Z 2720/2818 30005KT P6SM VCSH BKN050 BKN100 FM280000
                       27005KT P6SM BKN050 BKN100 FM281200 27005KT
                       P6SM OVC018
                      PROB30 2812/2818 -RA=
201006271743 TAF KCLM 271743Z 2718/2818 VRB03KT P6SM VCSH SCT035 OVC050 FM272000
                       30005KT P6SM VCSH SCT018 OVC035
                      TEMPO 2720/2724 BKN018 OVC035 FM280000 27005KT
                       P6SM BKN022 OVC035 FM281200 27005KT P6SM
                       OVC018
                      PROB30 2812/2818 -RA=
201006271120 TAF KCLM 271120Z 2712/2812 VRB03KT P6SM SCT025 OVC060
                      TEMPO 2713/2717 BKN025 OVC050 FM272000 27007KT
                       P6SM SCT030 BKN050 FM280500 28010KT P6SM
                       BKN030 OVC050=
201006270520 TAF KCLM 270520Z 2706/2806 28008KT P6SM BKN050 BKN100 FM271200
                       27007KT P6SM SCT012 OVC050
                      TEMPO 2713/2717 BKN012 OVC050 FM272000 27007KT
                       P6SM SCT030 BKN050=
201006262331 TAF KCLM 262331Z 2700/2724 29008KT P6SM FEW080 BKN250 FM270900
                       VRB04KT P6SM SCT020 OVC080 FM271200 VRB04KT
                       P6SM SCT009 OVC020
                      PROB30 2712/2718 4SM -DZ BR BKN009 OVC020
                       FM271800 31006KT P6SM BKN009 OVC020
                      PROB30 2718/2724 4SM -RA BR=
201006261753 TAF KCLM 261753Z 2618/2718 31008KT P6SM BKN028 FM262000 31008KT
                       P6SM SCT250 FM270300 28008KT P6SM FEW080
                       BKN250 FM270900 VRB04KT P6SM SCT020 OVC080
                       FM271200 VRB04KT P6SM SCT009 OVC020
                      PROB30 2712/2718 4SM -DZ BR BKN009 OVC020=
201006261123 TAF KCLM 261123Z 2612/2712 27007KT P6SM OVC020 FM262100 28010KT
                       P6SM SCT030 FM270900 27012KT P6SM BKN025=
201006260520 TAF KCLM 260520Z 2606/2706 27007KT P6SM BKN020
                      TEMPO 2606/2609 SCT020 FM262100 28010KT P6SM
                       SCT030 FM270500 27012KT P6SM BKN025=
201006252329 TAF KCLM 252329Z 2600/2624 29011KT P6SM FEW035 FM260900 27008KT
                       P6SM SCT018 FM261200 29006KT P6SM OVC010
                       FM261800 31009KT P6SM BKN017 FM261900 31009KT
                       P6SM SCT250=
201006252047 KCLM 252047Z 2521/2618 31011KT P6SM BKN020 FM252200 31011KT P6SM
                       SCT035 FM260000 28011KT P6SM SKC FM260900
                       28006KT P6SM SCT018 FM261200 28006KT P6SM
                       OVC010=
201006251741 TAF KCLM 251741Z 2518/2618 31011KT P6SM OVC018 FM252000 31011KT
                       P6SM BKN025 FM252100 31011KT P6SM FEW035
                       FM260000 28011KT P6SM SKC FM260900 28006KT
                       P6SM SCT018 FM261200 28006KT P6SM OVC010=
201006251143 TAF KCLM 251143Z 2512/2612 28007KT P6SM OVC012 FM251800 31009KT
                       P6SM BKN020 BKN050 FM252000 32012G25KT P6SM
                       SCT050 FM260600 28008KT P6SM BKN040=
201006250821 KCLM 250821Z 2508/2606 28007KT P6SM OVC012 FM251800 31009KT P6SM
                       BKN020 BKN050 FM252000 32012G25KT P6SM SCT050=
201006250532 TAF KCLM 250532Z 2506/2606 28010G20KT P6SM OVC012 FM251800 32009KT
                       P6SM BKN020 BKN050 FM252000 32012KT P6SM
                       SCT050=
201006250408 KCLM 250408Z 2504/2524 28010G20KT P6SM OVC015 FM251800 32009KT
                       P6SM BKN020 BKN050 FM252000 32012KT P6SM
                       SCT050=
201006242344 KCLM 242344Z 2500/2524 28010KT P6SM SCT015 SCT035
                      TEMPO 2500/2504 BKN015 BKN035 FM250400 28010KT
                       P6SM BKN028 FM250700 28006KT P6SM OVC011
                       FM251800 32009KT P6SM BKN020 BKN050 FM252000
                       32012KT P6SM SCT050=
201006242335 TAF KCLM 242335Z 2500/2524 28010KT P6SM SCT035
                      TEMPO 2500/2504 BKN035 FM250400 28010KT P6SM
                       BKN035 FM250700 26008KT P6SM BKN025 FM251200
                       28006KT P6SM OVC011 FM251800 32009KT P6SM
                       BKN020 BKN050 FM252000 32012KT P6SM SCT050=
201006242111 KCLM 242111Z 2421/2518 31011KT P6SM SCT025 SCT070 SCT250
                      TEMPO 2421/2423 BKN025 BKN070 BKN250 FM250000
                       28011KT P6SM SCT025 SCT070 FM250900 26006KT
                       P6SM FEW020 OVC050 FM251200 28006KT P6SM
                       OVC011=
201006241723 TAF KCLM 241723Z 2418/2518 31009KT P6SM BKN070 OVC250 FM250000
                       28009KT P6SM OVC070 FM250900 26006KT P6SM
                       FEW020 OVC050 FM251200 28006KT P6SM OVC011=
201006241130 TAF KCLM 241130Z 2412/2512 27006KT P6SM OVC100 FM241400 27003KT
                       P6SM VCSH BKN070 FM242000 29010KT P6SM BKN070
                       FM250400 29007KT P6SM OVC050=
201006240905 KCLM 240905Z 2409/2506 27006KT P6SM OVC100 FM241200 27003KT P6SM
                       VCSH OVC070 FM242000 29008KT P6SM BKN060=
201006240530 TAF KCLM 240530Z 2406/2506 29007KT P6SM BKN250 FM240800 27006KT
                       P6SM OVC060 FM241200 28003KT P6SM VCSH OVC025
                       FM242000 27005KT P6SM BKN045=
201006232326 TAF KCLM 232326Z 2400/2424 33007KT P6SM SCT120 FM240400 29008KT
                       P6SM BKN120 OVC200 FM240800 27006KT P6SM
                       OVC060 FM241200 28003KT P6SM VCSH OVC025
                       FM242000 27005KT P6SM BKN045=
201006231731 TAF KCLM 231731Z 2318/2418 00000KT P6SM SKC FM240400 29008KT P6SM
                       BKN120 OVC200 FM240800 27006KT P6SM OVC060
                       FM241200 28003KT P6SM VCSH OVC025=
201006231130 TAF KCLM 231130Z 2312/2412 VRB03KT P6SM BKN150 FM231700 33006KT
                       P6SM BKN200 FM240300 29008KT P6SM BKN100
                       FM240800 27006KT P6SM OVC060=
201006230548 TAF KCLM 230548Z 2306/2406 30004KT P6SM BKN250 FM230800 26003KT
                       P6SM SCT010 BKN150 FM231700 33005KT P6SM
                       SCT020 BKN150 FM240300 34008KT P6SM BKN200=
201006222328 TAF KCLM 222328Z 2300/2324 31005KT P6SM SCT050 OVC150 FM230800
                       26003KT P6SM SCT010 BKN100 FM231700 33005KT
                       P6SM SCT020 BKN080=
201006221915 KCLM 221915Z 2219/2318 29005KT P6SM SCT025 BKN200 FM222200 30004KT
                       P6SM SCT050 OVC150 FM230800 26003KT 2SM
                       BR BKN004 OVC012 FM231700 33005KT P6SM SCT006
                       BKN012=
201006221732 TAF KCLM 221732Z 2218/2318 31005KT P6SM SCT002 BKN015 FM222000
                       32005KT P6SM SCT015 BKN030 FM222200 30004KT
                       P6SM SCT050 OVC150 FM230800 26003KT 2SM
                       BR BKN004 OVC012 FM231700 33005KT P6SM SCT006
                       BKN012=
201006221700 KCLM 221700Z 2217/2312 00000KT P6SM SCT002 BKN010
                      TEMPO 2217/2218 BKN001 FM221900 31005KT P6SM
                       SCT015 BKN030 FM222200 28004KT P6SM SCT060
                       OVC150=
201006221505 KCLM 221505Z 2215/2312 00000KT P6SM BKN010
                      TEMPO 2215/2217 1/4SM FG VV001 FM221800 31005KT
                       P6SM SCT015 BKN030 FM222200 28004KT P6SM
                       SCT060 OVC150=
201006221139 TAF KCLM 221139Z 2212/2312 00000KT P6SM BKN010
                      TEMPO 2212/2215 1/4SM FG VV001 FM221500 31005KT
                       P6SM SCT015 BKN030 FM222200 28004KT P6SM
                       SCT060 OVC150=
201006221051 KCLM 221051Z 2211/2306 28005KT 3SM BR OVC030
                      TEMPO 2211/2214 1/4SM FG VV001 FM221900 33006KT
                       P6SM SCT015 BKN030 FM230300 28004KT P6SM
                       SCT015 BKN030=
201006220941 KCLM 220941Z 2210/2306 28005KT P6SM OVC020
                      TEMPO 2210/2213 3/4SM BR OVC010 FM221900
                       33006KT P6SM SCT015 BKN030 FM230300 28004KT
                       P6SM SCT015 OVC030=
201006220721 KCLM 220721Z 2207/2306 24004KT P6SM SCT025 OVC035 FM220900 28005KT
                       P6SM BKN010 OVC020 FM221900 33006KT P6SM
                       SCT015 BKN030 FM230300 28004KT P6SM SCT015
                       OVC030=
201006220541 TAF KCLM 220541Z 2206/2306 24004KT P6SM SCT025 OVC070 FM220700
                       28005KT P6SM BKN010 OVC020 FM221900 33006KT
                       P6SM SCT015 BKN030 FM230300 28004KT P6SM
                       SCT015 OVC030=
201006212324 TAF KCLM 212324Z 2200/2224 30006KT P6SM SCT025 BKN040 FM220700
                       28005KT P6SM BKN010 OVC020 FM221900 33006KT
                       P6SM SCT015 BKN030=
201006211729 TAF KCLM 211729Z 2118/2218 28006KT P6SM BKN020 OVC035 FM212200
                       28006KT P6SM SCT020 BKN035 FM220600 28005KT
                       P6SM BKN010 OVC020 FM221700 30006KT P6SM
                       BKN015 OVC025=
201006211138 TAF KCLM 211138Z 2112/2212 28006KT P6SM SCT015 FM211500 28006KT
                       P6SM BKN015 OVC030 FM212200 28006KT P6SM
                       SCT020 BKN035 FM220600 28006KT P6SM OVC022=
201006210536 TAF KCLM 210536Z 2106/2206 28006KT P6SM OVC015 FM212200 28006KT
                       P6SM OVC025=
201006202323 TAF KCLM 202323Z 2100/2124 30006KT P6SM BKN015 BKN025 FM211000
                       28006KT P6SM OVC012 FM212000 30006KT P6SM
                       BKN015 BKN025=
201006202013 KCLM 202013Z 2020/2118 31007KT P6SM BKN015 OVC025 FM210000 29006KT
                       P6SM SCT015 BKN025 FM211000 28006KT P6SM
                       OVC012=
201006201739 TAF KCLM 201739Z 2018/2118 31007KT P6SM BKN015 OVC025 FM202100
                       30006KT P6SM SCT030 BKN050 FM210200 28006KT
                       P6SM SCT060 FM211000 28006KT P6SM OVC012=
201006201138 TAF KCLM 201138Z 2012/2112 28006KT P6SM OVC011 FM202100 28006KT
                       P6SM SCT030 BKN050 FM210200 28006KT P6SM
                       SCT060 FM211000 28006KT P6SM OVC015=
201006200538 TAF KCLM 200538Z 2006/2106 28006KT P6SM OVC015 FM200900 28006KT
                       P6SM OVC015 FM201900 28006KT P6SM SCT030
                       BKN050 FM210000 28006KT P6SM SCT060=
201006192335 TAF KCLM 192335Z 2000/2024 28007KT P6SM SCT100 FM200900 28007KT
                       P6SM OVC015 FM201900 30007KT P6SM BKN025=
201006191720 TAF KCLM 191720Z 1918/2018 30007KT P6SM BKN050 FM200000 28007KT
                       P6SM BKN050 FM200900 28007KT P6SM OVC015
                       FM201600 32007KT P6SM BKN025=
201006191140 TAF KCLM 191140Z 1912/2012 31008KT P6SM SCT060 FM191700 31006KT
                       P6SM SCT050 BKN100 FM200000 30007KT P6SM
                       BKN100 FM200900 28007KT P6SM OVC015=
201006190520 TAF KCLM 190520Z 1906/2006 27005KT P6SM SCT080 BKN120 FM191200
                       25004KT P6SM SCT060 BKN120 FM191700 31006KT
                       P6SM SCT050 BKN100
                      PROB30 1918/1924 -SHRA SCT025 OVC050 FM200000
                       30007KT P6SM BKN100=
201006182320 TAF KCLM 182320Z 1900/1924 29006KT P6SM SCT200 FM191200 25004KT
                       P6SM FEW060 BKN120 FM191700 31006KT P6SM
                       SCT050 BKN100
                      PROB30 1918/1924 -SHRA SCT025 OVC050=
201006181731 TAF KCLM 181731Z 1818/1918 VRB03KT P6SM OVC060
                      TEMPO 1818/1820 SCT060 FM182000 34005KT P6SM
                       SCT060 BKN200 FM190200 29006KT P6SM FEW060
                       BKN200 FM191200 25004KT P6SM SCT050 BKN100
                       PROB30 1914/1918 -SHRA SCT025 OVC050=
201006181140 TAF KCLM 181140Z 1812/1912 29004KT P6SM BKN035 FM181800 32008KT
                       P6SM SCT050=
201006180539 TAF KCLM 180539Z 1806/1906 27008KT P6SM OVC030 FM181100 29004KT
                       P6SM SCT025 BKN035 FM182000 32008KT P6SM
                       SCT050=
201006172320 TAF KCLM 172320Z 1800/1824 29006KT P6SM SCT020 BKN045 FM180600
                       28005KT P6SM SCT020 OVC030 FM181200 34004KT
                       P6SM SCT015 OVC025 FM181800 33006KT P6SM
                       BKN030 BKN040 FM182000 33006KT P6SM SCT050=
201006171720 TAF KCLM 171720Z 1718/1818 22008KT P6SM SCT025 BKN045 FM172100
                       29008KT P6SM SCT030 BKN060 FM180800 25004KT
                       P6SM SCT030 SCT060
                      TEMPO 1812/1816 BKN030=
201006171138 TAF KCLM 171138Z 1712/1812 25004KT P6SM SCT060 FM172100 29008KT
                       P6SM SCT030 BKN060 FM180800 25004KT P6SM
                       SCT060=
201006170538 TAF KCLM 170538Z 1706/1806 VRB03KT P6SM SCT060 FM171000 VRB03KT
                       P6SM SCT030 BKN060 FM172100 29008KT P6SM
                       SCT030 BKN060=
201006162329 TAF KCLM 162329Z 1700/1724 32004KT P6SM SCT150 FM170300 32008KT
                       P6SM SCT030 SCT150
                      TEMPO 1706/1710 BKN030 FM171000 26006KT P6SM
                       BKN025 FM171900 31008KT P6SM BKN040=
201006161734 TAF KCLM 161734Z 1618/1718 33005KT P6SM FEW030 SCT100 FM170300
                       32010KT P6SM SCT030 SCT100 FM170900 26006KT
                       P6SM BKN030=
201006161120 TAF KCLM 161120Z 1612/1712 27006KT P6SM SCT030 OVC100 FM162000
                       33007KT P6SM SCT030 BKN100 FM170300 28009KT
                       P6SM SCT030 FM170800 25006KT P6SM BKN030=
201006160520 TAF KCLM 160520Z 1606/1706 25005KT P6SM SCT030 FM161200 25004KT
                       P6SM BKN030 FM162000 33007KT P6SM BKN030
                       FM170300 28009KT P6SM SCT030=
201006152320 TAF KCLM 152320Z 1600/1624 30008KT P6SM VCSH SCT060CB FM160600
                       28004KT P6SM BKN030 FM161000 25004KT P6SM
                       OVC020 FM162000 33007KT P6SM BKN040=
201006151742 KCLM 151742Z 1518/1618 30006KT P6SM VCSH BKN050CB FM152100 30010KT
                       P6SM VCTS BKN040 BKN060CB FM160400 28007KT
                       P6SM BKN040 FM161000 25004KT P6SM BKN025
                       OVC035=
201006151739 TAF KCLM 151739Z 1518/1618 30008KT P6SM VCSH BKN050 FM160400 28007KT
                       P6SM BKN045=
201006151123 TAF KCLM 151123Z 1512/1612 29008KT P6SM -SHRA BKN050 BKN080 FM151800
                       30008KT P6SM VCSH BKN050 FM160400 28007KT
                       P6SM BKN045=
201006150541 TAF KCLM 150541Z 1506/1606 30010G20KT P6SM FEW030 SCT080 FM150800
                       27009KT P6SM -SHRA BKN030 BKN080 FM151900
                       30008KT P6SM VCSH BKN030 FM160400 28007KT
                       P6SM BKN045=
201006142322 TAF KCLM 142322Z 1500/1524 31015G27KT P6SM SCT050 FM150400 27015KT
                       P6SM BKN030 FM151000 25006KT P6SM -SHRA
                       BKN025 FM152100 25010G20KT P6SM VCSH BKN030=
201006141732 TAF KCLM 141732Z 1418/1518 32010KT P6SM SCT025
                      TEMPO 1418/1420 BKN025 FM142000 29012G21KT
                       P6SM SCT030 FM150100 27015G27KT P6SM BKN030
                       FM150600 27012KT P6SM BKN025 FM151200 25006KT
                       P6SM BKN025=
201006141120 TAF KCLM 141120Z 1412/1512 30006KT P6SM SCT035
                      TEMPO 1412/1416 BKN035 FM142000 29012G20KT
                       P6SM SCT040 FM150100 27015G25KT P6SM SCT040
                       FM150900 27012G20KT P6SM BKN020=
201006140535 TAF KCLM 140535Z 1406/1506 29012G22KT P6SM SCT040 FM140900 29009KT
                       P6SM SCT020 SCT040 FM141200 32006KT P6SM
                       BKN020 FM142000 29012G20KT P6SM SCT040 FM150100
                       27014G25KT P6SM SCT040=
201006132320 TAF KCLM 132320Z 1400/1424 30020G32KT P6SM SCT050 FM140600 29012G22KT
                       P6SM BKN040=
201006131729 TAF KCLM 131729Z 1318/1418 32010KT P6SM BKN015 BKN050 FM131900
                       30015KT P6SM SCT015 BKN050 FM132100 29015G25KT
                       P6SM SCT020 SCT050 FM140700 29010KT P6SM
                       BKN030=
201006131532 KCLM 131532Z 1316/1412 30015KT P6SM OVC007 FM131900 30015KT P6SM
                       BKN010 BKN040 FM132100 29015G25KT P6SM SCT015
                       BKN040 FM140600 29012KT P6SM BKN020 BKN040
                       FM140800 29007KT P6SM OVC015=
201006131120 TAF KCLM 131120Z 1312/1412 30012KT P6SM SCT009 BKN040
                      TEMPO 1312/1316 BKN009 OVC040 FM131900 29016G27KT
                       P6SM SCT020 BKN040 FM140600 29012KT P6SM
                       BKN020 BKN040 FM140800 29007KT P6SM OVC009=
201006130530 TAF KCLM 130530Z 1306/1406 28007KT P6SM SKC FM131000 VRB04KT P6SM
                       SCT010 BKN040
                      TEMPO 1312/1316 BKN010 OVC040 FM132000 29016G27KT
                       P6SM SCT020 BKN040=
201006122320 TAF KCLM 122320Z 1300/1324 33008KT P6SM SKC FM130600 30012KT P6SM
                       SCT050 FM131000 VRB04KT P6SM SCT020 BKN050
                       TEMPO 1312/1316 BKN020 OVC050=
201006121720 TAF KCLM 121720Z 1218/1318 33006KT P6SM SKC FM122200 32012KT P6SM
                       SKC FM130500 30012KT P6SM SCT020 SCT060
                       BKN150 FM131000 27007KT P6SM BKN015 BKN050=
201006121120 TAF KCLM 121120Z 1212/1312 26005KT P6SM SKC FM130400 28008KT P6SM
                       FEW060 SCT250 FM131000 18010KT P6SM BKN060
                       BKN250=
201006120539 TAF KCLM 120539Z 1206/1306 29008KT P6SM SKC FM120700 26005KT P6SM
                       SKC FM121100 VRB03KT P6SM SCT006 FM121800
                       VRB04KT P6SM FEW030 FM130400 28008KT P6SM
                       SCT030=
201006120129 KCLM 120129Z 1201/1224 29012G16KT P6SM SKC FM120700 26005KT P6SM
                       SKC FM121100 VRB03KT P6SM SCT006 BKN025
                       FM121800 VRB04KT P6SM SCT030=
201006112336 TAF KCLM 112336Z 1200/1224 28012G16KT P6SM OVC030 FM120700 26005KT
                       P6SM SCT030 FM121100 VRB03KT P6SM SCT006
                       BKN025 FM121800 VRB04KT P6SM SCT030=
201006111731 TAF KCLM 111731Z 1118/1218 33008KT P6SM SCT060
                      TEMPO 1118/1120 P6SM SCT015 BKN025 FM120000
                       30008KT P6SM FEW060 FM120600 26005KT P6SM
                       SKC=
201006111139 TAF KCLM 111139Z 1112/1212 26008KT P6SM OVC050 FM112000 28008KT
                       P6SM SCT050=
201006110539 TAF KCLM 110539Z 1106/1206 28012KT P6SM SCT025 OVC050 FM111200
                       28008KT P6SM SCT025 BKN040 FM112000 28008KT
                       P6SM SCT050=
201006110008 KCLM 110008Z 1100/1124 30015KT P6SM SCT015 BKN060
                      TEMPO 1100/1102 BKN015 OVC060 FM110800 27008KT
                       P6SM SCT025 BKN040=
201006102320 TAF KCLM 102320Z 1100/1124 30015KT P6SM SCT030 BKN060 FM110800
                       27008KT P6SM SCT025 BKN040=
201006101803 KCLM 101803Z 1018/1118 VRB04KT P6SM SCT020 BKN050 FM110200 27008KT
                       P6SM SCT030 BKN050=
201006101720 TAF KCLM 101720Z 1018/1118 VRB04KT P6SM BKN030 FM110200 27008KT
                       P6SM SCT030 BKN050=
201006101140 TAF KCLM 101140Z 1012/1112 24006KT P6SM SCT040 BKN080 FM101700
                       27006KT P6SM VCSH SCT030 BKN050 FM110200
                       27006KT P6SM SCT030 BKN050=
201006100539 TAF KCLM 100539Z 1006/1106 28006KT P6SM SCT035 BKN060 FM101700
                       28006KT P6SM VCSH BKN030 BKN050 FM102300
                       28006KT P6SM SCT030 BKN050=
201006092328 TAF KCLM 092328Z 1000/1024 27006KT P6SM VCSH SCT009 OVC035 FM100200
                       28012KT P6SM SCT035 BKN050 FM101700 32007KT
                       P6SM VCSH BKN030 BKN050=
201006091939 KCLM 091939Z 0920/1018 30005KT P6SM VCSH OVC018 FM100100 28010KT
                       P6SM SCT035 BKN050=
201006091743 TAF KCLM 091743Z 0918/1018 30005KT P6SM -SHRA FEW008 BKN014 OVC025
                       FM091900 28006KT P6SM -SHRA SCT025 BKN050
                       FM100100 28010KT P6SM SCT035 BKN050=
201006091412 KCLM 091412Z 0914/1012 30003KT P6SM -SHRA SCT007 OVC015
                      TEMPO 0914/0916 BKN007 OVC012 FM091600 28006KT
                       P6SM SCT020 BKN035 OVC050 FM091900 28006KT
                       P6SM -SHRA SCT025 BKN050 FM100100 28010KT
                       P6SM SCT035 BKN050=
201006091144 TAF KCLM 091144Z 0912/1012 VRB03KT P6SM SCT015 OVC030 FM091600
                       28006KT P6SM SCT020 BKN035 OVC050 FM091900
                       28006KT P6SM -SHRA SCT025 BKN050 FM100100
                       28010KT P6SM SCT035 BKN050=
201006091022 KCLM 091022Z 0910/1006 VRB03KT P6SM SCT006 OVC018
                      TEMPO 0910/0913 BKN006 OVC018 FM091300 28006KT
                       P6SM SCT006 BKN018 OVC030 FM091600 28006KT
                       P6SM SCT018 BKN030 OVC050 FM091800 28006KT
                       P6SM -SHRA SCT025 BKN060=
201006090539 TAF KCLM 090539Z 0906/1006 VRB03KT P6SM -RA SCT035 OVC050 FM091200
                       28006KT P6SM -RA SCT025 OVC040 FM091800
                       28006KT P6SM -SHRA SCT025 BKN060=
201006082332 TAF KCLM 082332Z 0900/0924 VRB04KT P6SM SCT120 BKN200 FM090500
                       27003KT P6SM BKN070 OVC120 FM090800 28006KT
                       P6SM -RA SCT035 OVC060 FM091200 28005KT
                       P6SM -RA SCT025 OVC040 FM092000 29006KT
                       P6SM -SHRA SCT025 BKN060=
201006082108 KCLM 082108Z 0821/0918 10005KT P6SM SCT120 BKN200 FM090100 VRB03KT
                       P6SM BKN070 OVC120 FM090500 VRB03KT P6SM
                       -RA OVC040=
201006081509 KCLM 081509Z 0815/0912 29003KT P6SM OVC027 FM081800 VRB03KT P6SM
                       SCT035 BKN200 FM090100 VRB03KT P6SM BKN070
                       OVC120 FM090500 VRB03KT P6SM -RA OVC040=
201006081134 TAF KCLM 081134Z 0812/0912 28008KT P6SM SKC
                      TEMPO 0812/0814 4SM BR SCT008 FM081800 VRB03KT
                       P6SM SCT120 BKN200 FM090100 VRB03KT P6SM
                       BKN070 OVC120 FM090500 VRB03KT P6SM -RA
                       OVC040=
201006080538 TAF KCLM 080538Z 0806/0906 28008KT P6SM SKC
                      TEMPO 0810/0814 4SM BR SCT008 FM081800 VRB03KT
                       P6SM SCT120 BKN200 FM090100 VRB03KT P6SM
                       BKN070 OVC120 FM090500 VRB03KT P6SM -RA
                       OVC040=
201006072328 TAF KCLM 072328Z 0800/0824 31012G18KT P6SM SCT045 FM080500 28008KT
                       P6SM SCT050 FM081800 VRB03KT P6SM SCT120
                       BKN200=
201006071724 TAF KCLM 071724Z 0718/0818 32010G17KT P6SM SCT050 BKN100 FM072200
                       28008KT P6SM SCT050=
201006071125 TAF KCLM 071125Z 0712/0812 28004KT P6SM SCT011 BKN045 OVC090
                      TEMPO 0712/0716 BKN011 OVC040 FM071700 28006KT
                       P6SM SCT030 BKN050 FM072200 28008KT P6SM
                       BKN050=
201006071038 KCLM 071038Z 0711/0806 28006KT P6SM SCT015 OVC045 FM071700 28006KT
                       P6SM SCT030 BKN050 FM072200 28008KT P6SM
                       BKN050=
201006070902 TAF AMD KCLM 070902Z 0709/0806 29006KT P6SM OVC012 FM071700 28006KT
                       P6SM SCT030 BKN050 FM072200 28008KT P6SM
                       BKN050=
201006070535 TAF KCLM 070535Z 0706/0806 28005KT P6SM OVC008 FM071700 28006KT
                       P6SM SCT030 BKN050 FM072200 28008KT P6SM
                       BKN050=
201006070304 KCLM 070304Z 0703/0724 00000KT P6SM BKN023 OVC045 FM071700 28006KT
                       P6SM SCT030 BKN050 FM072200 28008KT P6SM
                       BKN050=
201006062320 TAF KCLM 062320Z 0700/0724 VRB03KT P6SM -SHRA BKN040 OVC060 FM070700
                       25005KT P6SM BKN025 OVC040 FM071700 28006KT
                       P6SM SCT030 BKN050 FM072200 28008KT P6SM
                       BKN050=
201006061727 TAF KCLM 061727Z 0618/0718 VRB03KT P6SM SCT040 OVC060
                      TEMPO 0618/0621 -RA BKN040 OVC060 FM062100
                       VRB03KT P6SM VCSH SCT030 BKN050 FM070200
                       28005KT P6SM BKN050 FM071400 24004KT P6SM
                       SCT020 BKN040=
201006061120 TAF KCLM 061120Z 0612/0712 00000KT P6SM OVC080 FM061500 VRB03KT
                       P6SM -RA SCT025 OVC040
                      TEMPO 0616/0620 BKN020 OVC035 FM062000 28005KT
                       P6SM VCSH SCT025 BKN040 FM062200 28008KT
                       P6SM SCT035 SCT050 FM070500 24004KT P6SM
                       SCT035=
201006060521 TAF KCLM 060521Z 0606/0706 00000KT P6SM SCT100 OVC200 FM061000
                       24005KT P6SM BKN070 FM061500 VRB03KT P6SM
                       SCT025 OVC040
                      TEMPO 0616/0620 -RA BKN020 OVC035 FM062000
                       28005KT P6SM VCSH SCT025 BKN040 FM062200
                       28008KT P6SM SCT035 SCT050=
201006052320 TAF KCLM 052320Z 0600/0624 09006KT P6SM SKC FM060400 24004KT P6SM
                       SCT200 FM061000 24005KT P6SM BKN070 FM061500
                       VRB03KT P6SM OVC050
                      PROB30 0615/0621 -RA=
201006051740 TAF KCLM 051740Z 0518/0618 36005KT P6SM SKC FM052000 03005KT P6SM
                       FEW030 FM060400 24004KT P6SM SCT200 FM061000
                       24005KT P6SM BKN070 FM061400 VRB03KT P6SM
                       OVC050
                      PROB30 0614/0618 -RA=
201006051120 TAF KCLM 051120Z 0512/0612 24009KT P6SM OVC050 FM051800 31005KT
                       P6SM SCT250 FM060400 VRB03KT P6SM SCT250
                       FM061000 VRB03KT P6SM OVC080=
201006050520 TAF KCLM 050520Z 0506/0606 VRB06KT P6SM SCT050 FM051200 24005KT
                       P6SM SCT015 SCT250 FM051800 31005KT P6SM
                       SCT250=
201006042333 TAF KCLM 042333Z 0500/0524 29012G20KT P6SM BKN060 FM050300 27012G20KT
                       P6SM SCT060 FM050600 26006KT P6SM SCT250
                       FM051200 24005KT P6SM SCT250 FM051400 25004KT
                       P6SM SCT015 SCT250 FM051800 31005KT P6SM
                       SCT250=
201006042111 TAF AMD KCLM 042111Z 0421/0518 29012G20KT P6SM BKN060 FM050000
                       27012G20KT P6SM SCT060 FM050400 26007KT
                       P6SM SCT250 FM051200 24005KT P6SM BKN050
                       FM051700 31005KT P6SM SCT250=
201006041749 TAF KCLM 041749Z 0418/0518 29005KT P6SM OVC050
                      TEMPO 0418/0420 -RA BKN035 OVC050 FM042200
                       29010G20KT P6SM BKN050 FM050000 27010G20KT
                       P6SM SCT250 FM050400 26007KT P6SM SCT250
                       FM051200 24005KT P6SM BKN050 FM051700 31005KT
                       P6SM SCT250=
201006041121 TAF KCLM 041121Z 0412/0512 00000KT P6SM -RA SCT035 OVC050 FM041500
                       29005KT P6SM -SHRA SCT018 BKN030 FM041700
                       28013KT P6SM VCSH SCT030 BKN060=
201006041102 KCLM 041102Z 0411/0506 00000KT P6SM -RA SCT035 OVC050 FM041300
                       29009KT P6SM -SHRA SCT018 BKN030 FM041700
                       28013KT P6SM VCSH SCT030 BKN060=
201006040526 TAF KCLM 040526Z 0406/0506 28004KT P6SM -RA OVC040 FM040800 VRB03KT
                       P6SM -RA SCT012 OVC035 FM041100 VRB03KT
                       P6SM -RA SCT006 BKN010 OVC015 FM041500 29009KT
                       P6SM -SHRA SCT018 BKN030 FM041900 28013KT
                       P6SM VCSH SCT030 BKN060=
201006032341 TAF KCLM 032341Z 0400/0424 04005KT P6SM VCSH OVC070 FM040300 VRB03KT
                       P6SM VCSH OVC045 FM040800 26004KT P6SM -RA
                       SCT012 OVC035 FM041100 26004KT P6SM -RA
                       SCT006 BKN010 OVC015 FM041500 29009KT P6SM
                       SCT018 BKN030
                      TEMPO 0415/0419 6SM -SHRA BR SCT012 BKN018
                       FM041900 28013KT P6SM VCSH SCT030 BKN060=
201006031740 TAF KCLM 031740Z 0318/0418 04005KT P6SM VCSH BKN050 FM040300 VRB03KT
                       P6SM VCSH OVC045 FM040800 26004KT P6SM -RA
                       SCT012 OVC035 FM041100 26004KT P6SM -RA
                       SCT006 BKN010 OVC015 FM041500 29009KT P6SM
                       SCT018 BKN030
                      TEMPO 0415/0418 6SM -SHRA BR SCT012 BKN018=
201006031120 TAF KCLM 031120Z 0312/0412 16005KT P6SM SCT030 SCT070
                      TEMPO 0312/0316 BKN030 BKN070 FM031800 VRB04KT
                       P6SM SCT030 SCT070 FM032100 32006KT P6SM
                       SCT040 SCT070 FM040400 VRB03KT P6SM OVC040
                       FM040800 VRB03KT P6SM -RA OVC035=
201006031032 KCLM 031032Z 0311/0406 18003KT P6SM BKN025 BKN050 FM031800 VRB04KT
                       P6SM SCT030 SCT050 FM032100 32006KT P6SM
                       SCT040 SCT080 FM040400 VRB03KT P6SM OVC040=
201006030523 TAF KCLM 030523Z 0306/0406 28009KT P6SM SCT035 BKN060 FM031000
                       25004KT P6SM SCT010 BKN035 FM031800 VRB04KT
                       P6SM SCT030 SCT050 FM032100 32006KT P6SM
                       SCT040 SCT080 FM040400 VRB03KT P6SM OVC040=
201006030419 KCLM 030419Z 0304/0324 28009KT P6SM SCT020 SCT060 FM031000 31005KT
                       P6SM SCT010 BKN030 FM031800 32006KT P6SM
                       SCT030 BKN050 FM032100 32006KT P6SM SCT040
                       SCT080=
201006030127 KCLM 030127Z 0301/0324 31012G18KT P6SM SCT018 BKN045
                      TEMPO 0301/0304 -SHRA SCT008 OVC018 FM030400
                       26007KT P6SM BKN006 OVC015 FM031600 31005KT
                       P6SM SCT010 BKN030 FM031800 32006KT P6SM
                       SCT030 BKN050 FM032100 32006KT P6SM SCT040
                       SCT080=
201006022323 TAF KCLM 022323Z 0300/0324 31012G18KT P6SM SCT008 BKN018 OVC050
                       TEMPO 0300/0304 -SHRA BKN008 OVC018 FM030400
                       26007KT P6SM BKN006 OVC015 FM031600 31005KT
                       P6SM SCT010 BKN030 FM031800 32006KT P6SM
                       SCT030 BKN050 FM032100 32006KT P6SM SCT040
                       SCT080=
201006022159 KCLM 022159Z 0222/0318 30010G20KT P6SM SCT008 BKN060
                      TEMPO 0222/0224 -SHRA BKN008 OVC060 FM030000
                       29012G20KT P6SM VCSH SCT015 BKN050
                      TEMPO 0300/0302 -SHRA BKN015 OVC050 FM030500
                       26005KT P6SM BKN050=
201006021732 TAF KCLM 021732Z 0218/0318 26007KT P6SM SCT010 OVC060
                      TEMPO 0218/0222 -SHRA OVC010 FM022200 29012G20KT
                       P6SM VCSH SCT025 BKN050 FM030500 26005KT
                       P6SM BKN050=
201006021316 KCLM 021316Z 0213/0312 00000KT P6SM VCSH FEW003 BKN050 OVC100
                      TEMPO 0213/0217 BKN003 OVC050 FM021700 VRB04KT
                       P6SM -RA BKN015 OVC040 FM022200 29012G20KT
                       P6SM VCSH SCT025 BKN050 FM030500 26005KT
                       P6SM BKN050=
201006021129 TAF KCLM 021129Z 0212/0312 00000KT P6SM -RA SCT005 OVC080 FM021800
                       27006KT P6SM -SHRA BKN015 OVC040 FM022200
                       29012G20KT P6SM VCSH SCT025 BKN050 FM030500
                       26005KT P6SM BKN050=
201006020531 TAF KCLM 020531Z 0206/0306 00000KT P6SM -RA SCT060 BKN120 FM021000
                       VRB04KT 4SM -RA BR OVC010 FM021800 27006KT
                       P6SM -SHRA BKN015 OVC040 FM022200 29012G20KT
                       P6SM VCSH SCT025 BKN050=
201006012326 TAF KCLM 012326Z 0200/0224 07005KT P6SM SCT060 BKN090 FM020500
                       09006KT P6SM -RA OVC020 FM021000 VRB04KT
                       4SM -RA BR OVC010 FM021800 27006KT P6SM
                       -SHRA BKN015 OVC040=
201006012031 KCLM 012031Z 0121/0218 09005KT P6SM SCT018 OVC070
                      TEMPO 0121/0123 BKN018 OVC070 FM020500 09006KT
                       P6SM -RA OVC020=
201006012001 KCLM 012001Z 0120/0218 09005KT P6SM BKN015 OVC070 FM020500 09006KT
                       P6SM -RA OVC020=
201006011731 TAF KCLM 011731Z 0118/0218 09005KT P6SM BKN015 OVC070
                      TEMPO 0118/0120 SCT015 BKN070 BKN120 FM012000
                       07006KT P6SM SCT020 BKN060 BKN120 FM020500
                       09006KT P6SM -RA OVC020=
201006011128 TAF KCLM 011128Z 0112/0212 00000KT P6SM SCT019 OVC024 FM011800
                       32004KT P6SM SCT025 BKN080 FM020100 VRB03KT
                       P6SM VCSH OVC050 FM020500 09005KT P6SM -RA
                       OVC025=
201006010621 TAF KCLM 010621Z 0106/0206 30005KT P6SM SCT009 BKN013 OVC020 FM011800
                       32006KT P6SM SCT025 BKN080 FM020200 18008KT
                       P6SM VCSH OVC050=