##########################################################
# Query made at 02/16/2025 01:52:13 UTC
# Time interval: from 10/01/2010 00:00  to 10/31/2010 23:59  UTC
##########################################################

##########################################################
# KCLM, Port Angeles, William R. Fairchild International Airport (United States)
# WMO index: -----. WIGOS ID: Unknown
# Latitude 48-07-20N. Longitude 123-30-19W. Altitude 87 m.
##########################################################

###################################
#  METAR/SPECI from KCLM
###################################
201010312353 METAR KCLM 312353Z AUTO 00000KT 10SM FEW120 09/07 A3003 RMK AO2 SLP170 T00940067 10117 20094 58002=
201010312253 METAR KCLM 312253Z AUTO 00000KT 10SM BKN060 10/07 A3004 RMK AO2 SLP173 T01000067=
201010312153 METAR KCLM 312153Z AUTO 08005KT 10SM FEW060 10/07 A3004 RMK AO2 SLP172 T01000072=
201010312053 METAR KCLM 312053Z AUTO 09006KT 10SM FEW065 11/06 A3004 RMK AO2 SLP173 T01060061 50009=
201010311953 METAR KCLM 311953Z AUTO 12008KT 10SM FEW015 11/07 A3005 RMK AO2 SLP175 T01110067=
201010311853 METAR KCLM 311853Z AUTO 08006KT 10SM SCT020 BKN070 10/06 A3004 RMK AO2 SLP175 T01000061=
201010311843 SPECI KCLM 311843Z AUTO 08007KT 10SM BKN020 OVC070 10/06 A3004 RMK AO2=
201010311843 SPECI KCLM 311843Z AUTO 08007KT 10SM BKN020 OVC070 10/06 A3004 RMK AO2=
201010311753 METAR KCLM 311753Z AUTO 10004KT 10SM BKN065 11/06 A3001 RMK AO2 SLP163 T01110061 10111 20061 51025=
201010311653 METAR KCLM 311653Z AUTO 24005KT 10SM BKN065 09/05 A3000 RMK AO2 SLP161 T00890050=
201010311553 METAR KCLM 311553Z AUTO 27005KT 10SM SCT070 08/05 A2998 RMK AO2 SLP152 T00780050=
201010311453 METAR KCLM 311453Z AUTO 25008KT 10SM FEW090 07/04 A2993 RMK AO2 SLP139 T00670044 51026=
201010311353 METAR KCLM 311353Z AUTO 25008KT 10SM BKN060 OVC080 08/06 A2992 RMK AO2 SLP131 T00830056=
201010311253 METAR KCLM 311253Z AUTO 28008KT 10SM FEW085 08/06 A2989 RMK AO2 SLP122 T00780056=
201010311153 METAR KCLM 311153Z AUTO 25007KT 10SM BKN047 OVC060 09/07 A2986 RMK AO2 SLP111 60000 T00890067 10094 20083 53031=
201010311053 METAR KCLM 311053Z AUTO 28011KT 10SM BKN055 BKN080 08/06 A2982 RMK AO2 RAB0958E29 SLP100 P0000 T00830061=
201010310953 METAR KCLM 310953Z AUTO 22004KT 10SM BKN060 OVC090 08/07 A2980 RMK AO2 RAB17E51 SLP091 P0000 T00830072=
201010310853 METAR KCLM 310853Z AUTO 23003KT 10SM OVC055 08/07 A2977 RMK AO2 SLP080 60000 T00830072 53025=
201010310753 METAR KCLM 310753Z AUTO 01005KT 10SM FEW008 BKN060 OVC075 09/07 A2973 RMK AO2 RAE06 SLP069 P0000 T00890072 401060017=
201010310653 METAR KCLM 310653Z AUTO 13005KT 10SM -RA OVC060 08/07 A2971 RMK AO2 SLP062 P0000 T00830072=
201010310553 METAR KCLM 310553Z AUTO 25005KT 10SM -RA OVC055 09/07 A2969 RMK AO2 SLP055 P0000 60000 T00890072 10100 20072 53016=
201010310501 SPECI KCLM 310501Z AUTO 30008KT 10SM -RA FEW005 OVC060 08/07 A2968 RMK AO2 P0000=
201010310501 SPECI KCLM 310501Z AUTO 30008KT 10SM -RA FEW005 OVC060 08/07 A2968 RMK AO2 P0000=
201010310453 METAR KCLM 310453Z AUTO 31007KT 10SM -RA OVC060 08/07 A2967 RMK AO2 SLP049 P0000 T00830072=
201010310353 METAR KCLM 310353Z AUTO 00000KT 10SM -RA OVC065 08/07 A2964 RMK AO2 SLP039 P0000 T00830067=
201010310253 METAR KCLM 310253Z AUTO 00000KT 10SM -RA BKN060 OVC080 08/07 A2965 RMK AO2 RAB40 SLP040 P0000 60000 T00780067 56015=
201010310153 METAR KCLM 310153Z AUTO 00000KT 10SM BKN065 OVC080 08/07 A2966 RMK AO2 RAB33E53 SLP044 P0000 T00780067=
201010310053 METAR KCLM 310053Z AUTO 00000KT 10SM FEW065 SCT100 09/07 A2967 RMK AO2 SLP048 T00890067=
201010302353 METAR KCLM 302353Z AUTO 00000KT 10SM FEW075 10/07 A2969 RMK AO2 SLP055 T01000072 10106 20078 58008=
201010302253 METAR KCLM 302253Z AUTO 27004KT 10SM BKN075 10/07 A2970 RMK AO2 SLP060 T01000067=
201010302153 METAR KCLM 302153Z AUTO 27005KT 10SM CLR 09/07 A2970 RMK AO2 SLP060 T00940072=
201010302053 METAR KCLM 302053Z AUTO 00000KT 10SM CLR 09/07 A2971 RMK AO2 SLP063 T00890072 58013=
201010301953 METAR KCLM 301953Z AUTO 00000KT 10SM SCT005 SCT070 09/07 A2973 RMK AO2 SLP070 T00890072=
201010301935 SPECI KCLM 301935Z AUTO 00000KT 10SM FEW005 SCT070 09/07 A2974 RMK AO2=
201010301935 SPECI KCLM 301935Z AUTO 00000KT 10SM FEW005 SCT070 09/07 A2974 RMK AO2=
201010301853 METAR KCLM 301853Z AUTO 00000KT 10SM OVC005 08/07 A2974 RMK AO2 CIG 003V007 SLP074 T00830067=
201010301821 SPECI KCLM 301821Z AUTO VRB03KT 10SM BKN007 09/07 A2974 RMK AO2=
201010301821 SPECI KCLM 301821Z AUTO VRB03KT 10SM BKN007 09/07 A2974 RMK AO2=
201010301803 SPECI KCLM 301803Z AUTO 00000KT 10SM SCT007 08/07 A2975 RMK AO2=
201010301803 SPECI KCLM 301803Z AUTO 00000KT 10SM SCT007 08/07 A2975 RMK AO2=
201010301753 METAR KCLM 301753Z AUTO 00000KT 10SM CLR 08/06 A2975 RMK AO2 SLP076 T00830061 10083 20017 55002=
201010301653 METAR KCLM 301653Z AUTO 25004KT 10SM FEW100 07/06 A2975 RMK AO2 SLP074 T00720056=
201010301601 SPECI KCLM 301601Z AUTO 22005KT 10SM FEW007 06/04 A2976 RMK AO2=
201010301601 SPECI KCLM 301601Z AUTO 22005KT 10SM FEW007 06/04 A2976 RMK AO2=
201010301553 METAR KCLM 301553Z AUTO 00000KT 10SM CLR 05/04 A2976 RMK AO2 SLP078 T00500039=
201010301453 METAR KCLM 301453Z AUTO 23003KT 10SM FEW009 02/02 A2976 RMK AO2 SLP079 T00220017 58016=
201010301445 SPECI KCLM 301445Z AUTO 00000KT 10SM SCT009 03/02 A2976 RMK AO2=
201010301445 SPECI KCLM 301445Z AUTO 00000KT 10SM SCT009 03/02 A2976 RMK AO2=
201010301353 METAR KCLM 301353Z AUTO 25005KT 10SM BKN009 04/03 A2978 RMK AO2 CIG 006V011 SLP086 T00440033=
201010301253 METAR KCLM 301253Z AUTO 23004KT 10SM BKN007 04/03 A2979 RMK AO2 SLP090 T00390028=
201010301239 SPECI KCLM 301239Z AUTO 00000KT 10SM BKN007 04/03 A2980 RMK AO2=
201010301239 SPECI KCLM 301239Z AUTO 00000KT 10SM BKN007 04/03 A2980 RMK AO2=
201010301228 SPECI KCLM 301228Z AUTO 24005KT 10SM SCT005 04/03 A2980 RMK AO2=
201010301228 SPECI KCLM 301228Z AUTO 24005KT 10SM SCT005 04/03 A2980 RMK AO2=
201010301202 SPECI KCLM 301202Z AUTO 22004KT 10SM BKN005 04/03 A2980 RMK AO2=
201010301202 SPECI KCLM 301202Z AUTO 22004KT 10SM BKN005 04/03 A2980 RMK AO2=
201010301153 METAR KCLM 301153Z AUTO 23007KT 10SM SCT005 04/03 A2981 RMK AO2 SLP095 T00390028 10061 20022 58015=
201010301135 SPECI KCLM 301135Z AUTO 23005KT 10SM SCT003 04/03 A2981 RMK AO2=
201010301135 SPECI KCLM 301135Z AUTO 23005KT 10SM SCT003 04/03 A2981 RMK AO2=
201010301108 SPECI KCLM 301108Z AUTO 23004KT 10SM OVC003 05/04 A2982 RMK AO2=
201010301108 SPECI KCLM 301108Z AUTO 23004KT 10SM OVC003 05/04 A2982 RMK AO2=
201010301101 SPECI KCLM 301101Z AUTO 23006KT 2SM BR OVC003 05/04 A2982 RMK AO2=
201010301101 SPECI KCLM 301101Z AUTO 23006KT 2SM BR OVC003 05/04 A2982 RMK AO2=
201010301053 METAR KCLM 301053Z AUTO 23006KT 1/2SM FG OVC003 05/04 A2982 RMK AO2 SLP100 T00500044=
201010301039 SPECI KCLM 301039Z AUTO 24006KT 1/4SM FG OVC003 04/04 A2982 RMK AO2=
201010301039 SPECI KCLM 301039Z AUTO 24006KT 1/4SM FG OVC003 04/04 A2982 RMK AO2=
201010301032 SPECI KCLM 301032Z AUTO 24006KT 1/4SM FG OVC001 04/04 A2983 RMK AO2=
201010301032 SPECI KCLM 301032Z AUTO 24006KT 1/4SM FG OVC001 04/04 A2983 RMK AO2=
201010301023 SPECI KCLM 301023Z AUTO 24004KT 1/2SM FG VV001 04/04 A2983 RMK AO2=
201010301023 SPECI KCLM 301023Z AUTO 24004KT 1/2SM FG VV001 04/04 A2983 RMK AO2=
201010301011 SPECI KCLM 301011Z AUTO 26004KT 1 1/2SM BR BKN001 04/03 A2984 RMK AO2=
201010301011 SPECI KCLM 301011Z AUTO 26004KT 1 1/2SM BR BKN001 04/03 A2984 RMK AO2=
201010301008 SPECI KCLM 301008Z AUTO 25003KT 7SM SCT001 04/03 A2984 RMK AO2=
201010301008 SPECI KCLM 301008Z AUTO 25003KT 7SM SCT001 04/03 A2984 RMK AO2=
201010300953 METAR KCLM 300953Z AUTO 26004KT 10SM CLR 04/03 A2984 RMK AO2 SLP108 T00440033=
201010300853 METAR KCLM 300853Z AUTO 00000KT 9SM CLR 04/03 A2985 RMK AO2 SLP110 T00440033 57017=
201010300753 METAR KCLM 300753Z AUTO 22003KT 10SM CLR 03/03 A2987 RMK AO2 SLP115 T00330028 401280028=
201010300653 METAR KCLM 300653Z AUTO 12003KT 10SM CLR 04/03 A2988 RMK AO2 SLP121 T00440033=
201010300553 METAR KCLM 300553Z AUTO 21005KT 10SM CLR 05/04 A2990 RMK AO2 SLP127 T00500039 10100 20044 58014=
201010300453 METAR KCLM 300453Z AUTO 24003KT 10SM CLR 07/05 A2992 RMK AO2 SLP133 T00670050=
201010300353 METAR KCLM 300353Z AUTO 21003KT 10SM CLR 07/06 A2993 RMK AO2 SLP136 T00670056=
201010300253 METAR KCLM 300253Z AUTO 21003KT 5SM BR CLR 06/05 A2994 RMK AO2 SLP141 T00560050 57017=
201010300153 METAR KCLM 300153Z AUTO 00000KT 10SM OVC060 07/07 A2996 RMK AO2 SLP146 T00720067=
201010300053 METAR KCLM 300053Z AUTO 00000KT 10SM SCT060 08/07 A2998 RMK AO2 SLP152 T00830072=
201010292353 METAR KCLM 292353Z AUTO 00000KT 10SM BKN070 09/08 A2999 RMK AO2 SLP158 T00940078 10128 20083 58016=
201010292253 METAR KCLM 292253Z AUTO 00000KT 10SM SCT002 OVC065 09/08 A3002 RMK AO2 SLP167 T00890078=
201010292217 SPECI KCLM 292217Z AUTO 03004KT 3SM BR FEW001 09/08 A3002 RMK AO2=
201010292217 SPECI KCLM 292217Z AUTO 03004KT 3SM BR FEW001 09/08 A3002 RMK AO2=
201010292211 SPECI KCLM 292211Z AUTO 03003KT 1 1/4SM BR FEW001 09/08 A3002 RMK AO2 VIS 1/2V4=
201010292211 SPECI KCLM 292211Z AUTO 03003KT 1 1/4SM BR FEW001 09/08 A3002 RMK AO2 VIS 1/2V4=
201010292206 SPECI KCLM 292206Z AUTO 03004KT 3/4SM BR VV001 09/08 A3002 RMK AO2=
201010292206 SPECI KCLM 292206Z AUTO 03004KT 3/4SM BR VV001 09/08 A3002 RMK AO2=
201010292153 METAR KCLM 292153Z AUTO 03004KT 1 1/2SM BR FEW001 10/08 A3002 RMK AO2 SLP166 T01000078=
201010292109 SPECI KCLM 292109Z AUTO 00000KT 10SM SCT001 BKN070 11/08 A3003 RMK AO2=
201010292109 SPECI KCLM 292109Z AUTO 00000KT 10SM SCT001 BKN070 11/08 A3003 RMK AO2=
201010292053 METAR KCLM 292053Z AUTO 00000KT 7SM OVC001 09/08 A3004 RMK AO2 SLP173 T00940083 58004=
201010292049 SPECI KCLM 292049Z AUTO 00000KT 3SM BR OVC001 09/08 A3004 RMK AO2=
201010292049 SPECI KCLM 292049Z AUTO 00000KT 3SM BR OVC001 09/08 A3004 RMK AO2=
201010292023 SPECI KCLM 292023Z AUTO 00000KT 1SM BR OVC001 09/08 A3005 RMK AO2=
201010292023 SPECI KCLM 292023Z AUTO 00000KT 1SM BR OVC001 09/08 A3005 RMK AO2=
201010292002 SPECI KCLM 292002Z AUTO 00000KT 1/4SM FG BKN001 OVC006 09/08 A3006 RMK AO2=
201010292002 SPECI KCLM 292002Z AUTO 00000KT 1/4SM FG BKN001 OVC006 09/08 A3006 RMK AO2=
201010291953 METAR KCLM 291953Z AUTO VRB03KT 1/2SM FG BKN001 OVC021 09/08 A3006 RMK AO2 SLP181 T00890078=
201010291942 SPECI KCLM 291942Z AUTO 03004KT 1 3/4SM BR BKN001 BKN050 OVC070 09/08 A3006 RMK AO2 VIS 3/4V5=
201010291942 SPECI KCLM 291942Z AUTO 03004KT 1 3/4SM BR BKN001 BKN050 OVC070 09/08 A3006 RMK AO2 VIS 3/4V5=
201010291935 SPECI KCLM 291935Z AUTO 00000KT 3SM BR BKN001 OVC070 10/08 A3006 RMK AO2=
201010291935 SPECI KCLM 291935Z AUTO 00000KT 3SM BR BKN001 OVC070 10/08 A3006 RMK AO2=
201010291921 SPECI KCLM 291921Z AUTO 04004KT 1 3/4SM BR BKN001 OVC070 09/08 A3006 RMK AO2=
201010291921 SPECI KCLM 291921Z AUTO 04004KT 1 3/4SM BR BKN001 OVC070 09/08 A3006 RMK AO2=
201010291911 SPECI KCLM 291911Z AUTO 04003KT 3SM BR BKN001 OVC070 10/08 A3006 RMK AO2=
201010291911 SPECI KCLM 291911Z AUTO 04003KT 3SM BR BKN001 OVC070 10/08 A3006 RMK AO2=
201010291906 SPECI KCLM 291906Z AUTO VRB03KT 1SM BR OVC001 09/08 A3006 RMK AO2=
201010291906 SPECI KCLM 291906Z AUTO VRB03KT 1SM BR OVC001 09/08 A3006 RMK AO2=
201010291853 METAR KCLM 291853Z AUTO 06004KT 1/2SM FG BKN003 09/08 A3006 RMK AO2 CIG 001V005 SLP180 T00940078=
201010291848 SPECI KCLM 291848Z AUTO 04004KT 1 1/4SM BR BKN003 09/08 A3006 RMK AO2 VIS 1/2V5=
201010291848 SPECI KCLM 291848Z AUTO 04004KT 1 1/4SM BR BKN003 09/08 A3006 RMK AO2 VIS 1/2V5=
201010291841 SPECI KCLM 291841Z AUTO 01004KT 8SM BKN003 10/08 A3006 RMK AO2=
201010291841 SPECI KCLM 291841Z AUTO 01004KT 8SM BKN003 10/08 A3006 RMK AO2=
201010291825 SPECI KCLM 291825Z AUTO 03004KT 10SM FEW005 11/08 A3005 RMK AO2=
201010291825 SPECI KCLM 291825Z AUTO 03004KT 10SM FEW005 11/08 A3005 RMK AO2=
201010291753 METAR KCLM 291753Z AUTO 09003KT 10SM BKN060 OVC075 10/08 A3005 RMK AO2 SLP178 60000 T01000083 10100 20033 50009=
201010291653 METAR KCLM 291653Z AUTO 00000KT 10SM BKN065 BKN075 08/07 A3006 RMK AO2 SLP181 T00780067=
201010291553 METAR KCLM 291553Z AUTO 13004KT 10SM BKN070 06/05 A3005 RMK AO2 SLP176 T00610050=
201010291512 SPECI KCLM 291512Z AUTO 31003KT 10SM CLR 05/04 A3004 RMK AO2=
201010291512 SPECI KCLM 291512Z AUTO 31003KT 10SM CLR 05/04 A3004 RMK AO2=
201010291504 SPECI KCLM 291504Z AUTO 00000KT 1SM BR CLR 04/03 A3003 RMK AO2=
201010291504 SPECI KCLM 291504Z AUTO 00000KT 1SM BR CLR 04/03 A3003 RMK AO2=
201010291455 SPECI KCLM 291455Z AUTO 27003KT 3/4SM BR VV015 04/03 A3003 RMK AO2=
201010291455 SPECI KCLM 291455Z AUTO 27003KT 3/4SM BR VV015 04/03 A3003 RMK AO2=
201010291453 METAR KCLM 291453Z AUTO 27003KT 1 3/4SM BR CLR 04/04 A3002 RMK AO2 VIS 1/4V5 SLP169 60000 T00440044 58002=
201010291446 SPECI KCLM 291446Z AUTO 00000KT 3SM BR CLR 05/04 A3002 RMK AO2=
201010291446 SPECI KCLM 291446Z AUTO 00000KT 3SM BR CLR 05/04 A3002 RMK AO2=
201010291433 SPECI KCLM 291433Z AUTO 00000KT 1 1/2SM BR CLR 04/04 A3002 RMK AO2=
201010291433 SPECI KCLM 291433Z AUTO 00000KT 1 1/2SM BR CLR 04/04 A3002 RMK AO2=
201010291406 SPECI KCLM 291406Z AUTO 19004KT 10SM FEW001 06/05 A3002 RMK AO2=
201010291406 SPECI KCLM 291406Z AUTO 19004KT 10SM FEW001 06/05 A3002 RMK AO2=
201010291359 SPECI KCLM 291359Z AUTO 22006KT 2 1/2SM BR FEW001 06/05 A3002 RMK AO2=
201010291359 SPECI KCLM 291359Z AUTO 22006KT 2 1/2SM BR FEW001 06/05 A3002 RMK AO2=
201010291353 METAR KCLM 291353Z AUTO 22005KT 1SM BR VV001 06/05 A3002 RMK AO2 RAE23 SLP168 P0000 T00560050=
201010291349 SPECI KCLM 291349Z AUTO 00000KT 1 1/2SM BR FEW001 05/04 A3002 RMK AO2 RAE23 P0000=
201010291349 SPECI KCLM 291349Z AUTO 00000KT 1 1/2SM BR FEW001 05/04 A3002 RMK AO2 RAE23 P0000=
201010291253 METAR KCLM 291253Z AUTO 23004KT 10SM -RA OVC060 07/06 A3004 RMK AO2 RAB42 SLP173 P0000 T00720056=
201010291153 METAR KCLM 291153Z AUTO 00000KT 10SM SCT075 06/04 A3003 RMK AO2 SLP170 T00560044 10083 20044 50006=
201010291053 METAR KCLM 291053Z AUTO 00000KT 10SM OVC065 07/05 A3004 RMK AO2 SLP173 T00670050=
201010290953 METAR KCLM 290953Z AUTO 27004KT 10SM FEW006 SCT045 OVC060 08/06 A3003 RMK AO2 SLP171 T00780061=
201010290853 METAR KCLM 290853Z AUTO 25009KT 10SM CLR 07/05 A3001 RMK AO2 SLP164 T00670050 51002=
201010290753 METAR KCLM 290753Z AUTO 29003KT 10SM SCT120 07/05 A3001 RMK AO2 SLP162 T00670050 401170033=
201010290720 SPECI KCLM 290720Z AUTO 25007KT 10SM SCT006 SCT055 07/06 A3002 RMK AO2=
201010290720 SPECI KCLM 290720Z AUTO 25007KT 10SM SCT006 SCT055 07/06 A3002 RMK AO2=
201010290712 SPECI KCLM 290712Z AUTO 26006KT 2SM BR SCT004 SCT060 04/04 A3002 RMK AO2=
201010290712 SPECI KCLM 290712Z AUTO 26006KT 2SM BR SCT004 SCT060 04/04 A3002 RMK AO2=
201010290700 SPECI KCLM 290700Z AUTO 00000KT 1SM BR FEW038 04/04 A3002 RMK AO2=
201010290700 SPECI KCLM 290700Z AUTO 00000KT 1SM BR FEW038 04/04 A3002 RMK AO2=
201010290653 METAR KCLM 290653Z AUTO 00000KT 2 1/2SM BR CLR 06/04 A3001 RMK AO2 SLP164 T00560044=
201010290553 METAR KCLM 290553Z AUTO 00000KT 7SM CLR 04/04 A3001 RMK AO2 SLP163 60000 T00390039 10111 20039 53005=
201010290534 SPECI KCLM 290534Z AUTO 00000KT 10SM CLR 06/05 A3000 RMK AO2=
201010290534 SPECI KCLM 290534Z AUTO 00000KT 10SM CLR 06/05 A3000 RMK AO2=
201010290526 SPECI KCLM 290526Z AUTO 21003KT 2SM BR CLR 04/04 A3000 RMK AO2 VIS 1V5=
201010290526 SPECI KCLM 290526Z AUTO 21003KT 2SM BR CLR 04/04 A3000 RMK AO2 VIS 1V5=
201010290518 SPECI KCLM 290518Z AUTO 00000KT 1 3/4SM BR FEW024 05/04 A3000 RMK AO2 VIS 3/4V5=
201010290518 SPECI KCLM 290518Z AUTO 00000KT 1 3/4SM BR FEW024 05/04 A3000 RMK AO2 VIS 3/4V5=
201010290507 SPECI KCLM 290507Z AUTO 18003KT 4SM BR FEW001 06/05 A3000 RMK AO2=
201010290507 SPECI KCLM 290507Z AUTO 18003KT 4SM BR FEW001 06/05 A3000 RMK AO2=
201010290501 SPECI KCLM 290501Z AUTO 00000KT 1SM BR FEW001 SCT065 06/05 A3000 RMK AO2=
201010290501 SPECI KCLM 290501Z AUTO 00000KT 1SM BR FEW001 SCT065 06/05 A3000 RMK AO2=
201010290453 METAR KCLM 290453Z AUTO 00000KT 3/4SM BR FEW065 05/04 A3000 RMK AO2 SLP159 T00500044=
201010290447 SPECI KCLM 290447Z AUTO 00000KT 1 1/2SM BR CLR 04/04 A2999 RMK AO2 VIS 1/2V5=
201010290447 SPECI KCLM 290447Z AUTO 00000KT 1 1/2SM BR CLR 04/04 A2999 RMK AO2 VIS 1/2V5=
201010290428 SPECI KCLM 290428Z AUTO 00000KT 3SM BR FEW002 06/05 A2999 RMK AO2=
201010290428 SPECI KCLM 290428Z AUTO 00000KT 3SM BR FEW002 06/05 A2999=
201010290424 SPECI KCLM 290424Z AUTO 00000KT 1 1/2SM BR FEW002 06/05 A2999 RMK AO2 VIS 3/4V5=
201010290424 SPECI KCLM 290424Z AUTO 00000KT 1 1/2SM BR FEW002 06/05 A2999 RMK AO2 VIS 3/4V5=
201010290409 SPECI KCLM 290409Z AUTO 00000KT 1 3/4SM BR CLR 06/05 A2999 RMK AO2=
201010290409 SPECI KCLM 290409Z AUTO 00000KT 1 3/4SM BR CLR 06/05 A2999 RMK AO2=
201010290358 SPECI KCLM 290358Z AUTO 00000KT 3SM BR SCT075 07/06 A2999 RMK AO2=
201010290358 SPECI KCLM 290358Z AUTO 00000KT 3SM BR SCT075 07/06 A2999 RMK AO2=
201010290353 METAR KCLM 290353Z AUTO 00000KT 1 3/4SM BR SCT075 06/06 A2999 RMK AO2 VIS 1V5 SLP159 T00610056=
201010290350 SPECI KCLM 290350Z AUTO 00000KT 1 3/4SM BR BKN075 07/06 A2999 RMK AO2 VIS 1V5=
201010290350 SPECI KCLM 290350Z AUTO 00000KT 1 3/4SM BR BKN075 07/06 A2999 RMK AO2 VIS 1V5=
201010290253 METAR KCLM 290253Z AUTO 00000KT 10SM BKN080 OVC095 08/07 A2999 RMK AO2 SLP157 60000 T00830072 53009=
201010290153 METAR KCLM 290153Z AUTO 24004KT 10SM OVC055 09/08 A2998 RMK AO2 SLP152 T00890078=
201010290053 SPECI KCLM 290053Z AUTO 00000KT 10SM BKN060 10/08 A2997 RMK AO2 RAE01 SLP150 P0000 T01000083=
201010282353 METAR KCLM 282353Z AUTO 00000KT 10SM -RA OVC060 11/08 A2997 RMK AO2 RAB2255 SLP148 P0000 60000 T01110078 10117 20106 51001=
201010282329 SPECI KCLM 282329Z AUTO 00000KT 10SM -RA SCT016 OVC060 11/08 A2997 RMK AO2 RAB2255 P0000=
201010282329 SPECI KCLM 282329Z AUTO 00000KT 10SM -RA SCT016 OVC060 11/08 A2997 RMK AO2 RAB2255 P0000=
201010282318 SPECI KCLM 282318Z AUTO 00000KT 10SM BKN016 OVC055 11/08 A2997 RMK AO2 RAB2255E18 P0000=
201010282318 SPECI KCLM 282318Z AUTO 00000KT 10SM BKN016 OVC055 11/08 A2997 RMK AO2 RAB2255E18 P0000=
201010282253 METAR KCLM 282253Z AUTO 32003KT 10SM BKN014 OVC060 11/08 A2997 RMK AO2 SLP148 T01060078=
201010282249 SPECI KCLM 282249Z AUTO 30004KT 10SM BKN014 BKN022 OVC060 11/08 A2997 RMK AO2=
201010282249 SPECI KCLM 282249Z AUTO 30004KT 10SM BKN014 BKN022 OVC060 11/08 A2997 RMK AO2=
201010282153 METAR KCLM 282153Z AUTO 29003KT 10SM OVC018 11/07 A2996 RMK AO2 SLP147 T01060072=
201010282053 METAR KCLM 282053Z AUTO 33004KT 10SM OVC018 11/07 A2995 RMK AO2 SLP143 T01060072 51012=
201010281953 METAR KCLM 281953Z AUTO 27003KT 10SM BKN016 OVC065 11/07 A2995 RMK AO2 SLP143 T01060072=
201010281945 SPECI KCLM 281945Z AUTO 30003KT 10SM BKN016 OVC060 11/07 A2995 RMK AO2=
201010281945 SPECI KCLM 281945Z AUTO 30003KT 10SM BKN016 OVC060 11/07 A2995 RMK AO2=
201010281853 METAR KCLM 281853Z AUTO 29008KT 10SM BKN065 11/08 A2994 RMK AO2 SLP138 T01110078=
201010281753 METAR KCLM 281753Z AUTO 27007KT 10SM FEW065 11/07 A2992 RMK AO2 SLP131 60000 T01060072 10106 20072 53010=
201010281653 METAR KCLM 281653Z AUTO 24004KT 10SM FEW065 BKN110 09/07 A2990 RMK AO2 SLP126 T00940067=
201010281553 METAR KCLM 281553Z AUTO 26005KT 10SM BKN110 09/06 A2989 RMK AO2 SLP122 T00890061=
201010281453 METAR KCLM 281453Z AUTO 26004KT 10SM BKN065 OVC090 08/06 A2988 RMK AO2 RAB1359E09 SLP120 P0000 60000 T00830061 51009=
201010281353 METAR KCLM 281353Z AUTO 27010KT 10SM BKN065 OVC090 08/06 A2988 RMK AO2 RAE49 SLP118 P0000 T00830061=
201010281253 METAR KCLM 281253Z AUTO 25006KT 10SM -RA OVC065 08/06 A2987 RMK AO2 RAB24 SLP116 P0000 T00830056=
201010281153 METAR KCLM 281153Z AUTO 24004KT 10SM FEW100 07/06 A2986 RMK AO2 SLP111 60000 T00720056 10078 20072 58014=
201010281053 METAR KCLM 281053Z AUTO 00000KT 10SM OVC100 08/06 A2987 RMK AO2 SLP116 T00780061=
201010280953 METAR KCLM 280953Z AUTO 00000KT 10SM SCT055 OVC095 08/06 A2989 RMK AO2 RAB34E53 SLP122 P0000 T00780061=
201010280853 METAR KCLM 280853Z AUTO 23004KT 10SM SCT070 OVC100 08/06 A2990 RMK AO2 SLP125 T00780061 56011=
201010280753 METAR KCLM 280753Z AUTO 24004KT 10SM OVC095 07/06 A2991 RMK AO2 SLP130 T00720056 401060056=
201010280653 METAR KCLM 280653Z AUTO 21004KT 10SM SCT110 08/06 A2991 RMK AO2 SLP130 T00780056=
201010280553 METAR KCLM 280553Z AUTO 23003KT 10SM OVC110 07/07 A2993 RMK AO2 SLP136 T00720067 10100 20072 58008=
201010280453 METAR KCLM 280453Z AUTO 24003KT 10SM OVC110 08/07 A2994 RMK AO2 SLP140 T00780067=
201010280353 METAR KCLM 280353Z AUTO 00000KT 10SM OVC110 08/07 A2996 RMK AO2 SLP146 T00780067=
201010280253 METAR KCLM 280253Z AUTO 00000KT 10SM BKN120 08/07 A2996 RMK AO2 SLP146 T00830067 58008=
201010280153 METAR KCLM 280153Z AUTO 14003KT 10SM CLR 08/07 A2996 RMK AO2 SLP148 T00830067=
201010280134 SPECI KCLM 280134Z AUTO 00000KT 10SM SCT027 SCT110 09/07 A2997 RMK AO2=
201010280134 SPECI KCLM 280134Z AUTO 00000KT 10SM SCT027 SCT110 09/07 A2997 RMK AO2=
201010280053 METAR KCLM 280053Z AUTO 23004KT 10SM OVC025 09/07 A2997 RMK AO2 SLP151 T00940072=
201010272353 METAR KCLM 272353Z AUTO 08004KT 10SM OVC027 10/07 A2998 RMK AO2 SLP153 T01000067 10106 20089 56019=
201010272253 METAR KCLM 272253Z AUTO 08006KT 10SM OVC025 10/07 A3000 RMK AO2 SLP160 T01000072=
201010272238 SPECI KCLM 272238Z AUTO 09007KT 10SM FEW010 BKN025 10/07 A3000 RMK AO2=
201010272238 SPECI KCLM 272238Z AUTO 09007KT 10SM FEW010 BKN025 10/07 A3000 RMK AO2=
201010272227 SPECI KCLM 272227Z AUTO 08009KT 10SM FEW010 SCT023 10/07 A3000 RMK AO2=
201010272227 SPECI KCLM 272227Z AUTO 08009KT 10SM FEW010 SCT023 10/07 A3000 RMK AO2=
201010272153 METAR KCLM 272153Z AUTO 10006KT 10SM FEW010 SCT015 BKN025 10/08 A3002 RMK AO2 SLP165 T01000078=
201010272136 SPECI KCLM 272136Z AUTO 09005KT 10SM BKN015 OVC021 10/08 A3002 RMK AO2=
201010272136 SPECI KCLM 272136Z AUTO 09005KT 10SM BKN015 OVC021 10/08 A3002 RMK AO2=
201010272053 METAR KCLM 272053Z AUTO 12004KT 10SM OVC013 10/07 A3004 RMK AO2 SLP172 T01000067 58012=
201010272022 SPECI KCLM 272022Z AUTO 00000KT 10SM OVC011 10/07 A3006 RMK AO2=
201010272022 SPECI KCLM 272022Z AUTO 00000KT 10SM OVC011 10/07 A3006 RMK AO2=
201010271953 METAR KCLM 271953Z AUTO 00000KT 10SM OVC009 10/07 A3006 RMK AO2 SLP180 T01000067=
201010271904 SPECI KCLM 271904Z AUTO 08007KT 10SM BKN007 09/07 A3007 RMK AO2=
201010271904 SPECI KCLM 271904Z AUTO 08007KT 10SM BKN007 09/07 A3007 RMK AO2=
201010271853 METAR KCLM 271853Z AUTO 07003KT 10SM SCT007 09/07 A3007 RMK AO2 SLP184 T00890067=
201010271849 SPECI KCLM 271849Z AUTO 35003KT 10SM SCT007 09/07 A3007 RMK AO2=
201010271849 SPECI KCLM 271849Z AUTO 35003KT 10SM SCT007 09/07 A3007 RMK AO2=
201010271753 METAR KCLM 271753Z AUTO 08008KT 10SM OVC042 09/07 A3009 RMK AO2 SLP189 T00940072 10094 20061 58012=
201010271704 SPECI KCLM 271704Z AUTO 00000KT 10SM SCT030 OVC042 09/07 A3011 RMK AO2=
201010271704 SPECI KCLM 271704Z AUTO 00000KT 10SM SCT030 OVC042 09/07 A3011 RMK AO2=
201010271653 METAR KCLM 271653Z AUTO 00000KT 10SM BKN028 OVC043 08/07 A3011 RMK AO2 SLP197 T00830067=
201010271553 METAR KCLM 271553Z AUTO 00000KT 10SM OVC026 08/07 A3012 RMK AO2 SLP199 T00780067=
201010271500 SPECI KCLM 271500Z AUTO 00000KT 10SM BKN028 OVC046 07/06 A3012 RMK AO2=
201010271500 SPECI KCLM 271500Z AUTO 00000KT 10SM BKN028 OVC046 07/06 A3012 RMK AO2=
201010271453 METAR KCLM 271453Z AUTO 00000KT 10SM FEW026 BKN030 OVC046 07/06 A3012 RMK AO2 SLP202 T00720061 58002=
201010271450 SPECI KCLM 271450Z AUTO 00000KT 10SM SCT026 BKN030 OVC046 07/06 A3012 RMK AO2=
201010271450 SPECI KCLM 271450Z AUTO 00000KT 10SM SCT026 BKN030 OVC046 07/06 A3012 RMK AO2=
201010271421 SPECI KCLM 271421Z AUTO 22004KT 10SM OVC028 07/06 A3013 RMK AO2=
201010271421 SPECI KCLM 271421Z AUTO 22004KT 10SM OVC028 07/06 A3013 RMK AO2=
201010271353 METAR KCLM 271353Z AUTO 23004KT 10SM OVC032 07/06 A3013 RMK AO2 SLP203 T00720056=
201010271253 METAR KCLM 271253Z AUTO 23003KT 10SM BKN036 BKN043 07/05 A3013 RMK AO2 SLP204 T00670050=
201010271153 METAR KCLM 271153Z AUTO 23005KT 10SM BKN039 OVC060 07/06 A3013 RMK AO2 SLP203 60000 T00670056 10089 20056 51008=
201010271053 METAR KCLM 271053Z AUTO 24005KT 10SM BKN060 BKN090 06/05 A3012 RMK AO2 SLP200 T00610050=
201010270953 METAR KCLM 270953Z AUTO 22003KT 10SM BKN065 OVC090 07/06 A3011 RMK AO2 SLP199 T00720056=
201010270853 METAR KCLM 270853Z AUTO 20003KT 10SM FEW046 BKN070 OVC090 08/06 A3010 RMK AO2 SLP195 60000 T00780056 51014=
201010270753 METAR KCLM 270753Z AUTO 20003KT 10SM BKN038 OVC070 08/06 A3009 RMK AO2 RAB0657E10 SLP191 P0000 T00830061 401000039=
201010270653 METAR KCLM 270653Z AUTO 00000KT 10SM BKN043 OVC075 08/07 A3008 RMK AO2 RAE10 SLP186 P0000 T00830067=
201010270553 METAR KCLM 270553Z AUTO 25005KT 10SM -RA OVC055 09/07 A3006 RMK AO2 SLP181 P0000 60000 T00890067 10094 20083 51016=
201010270527 SPECI KCLM 270527Z AUTO 25005KT 10SM -RA FEW021 SCT029 OVC055 09/07 A3006 RMK AO2 P0000=
201010270527 SPECI KCLM 270527Z AUTO 25005KT 10SM -RA FEW021 SCT029 OVC055 09/07 A3006 RMK AO2 P0000=
201010270453 METAR KCLM 270453Z AUTO 25004KT 10SM -RA BKN024 BKN030 OVC034 09/07 A3005 RMK AO2 RAB50 SLP176 P0000 T00890067=
201010270438 SPECI KCLM 270438Z AUTO 00000KT 10SM BKN024 BKN039 OVC046 09/07 A3004 RMK AO2=
201010270438 SPECI KCLM 270438Z AUTO 00000KT 10SM BKN024 BKN039 OVC046 09/07 A3004 RMK AO2=
201010270427 SPECI KCLM 270427Z AUTO 00000KT 10SM SCT024 BKN039 OVC046 09/07 A3004 RMK AO2=
201010270427 SPECI KCLM 270427Z AUTO 00000KT 10SM SCT024 BKN039 OVC046 09/07 A3004 RMK AO2=
201010270353 METAR KCLM 270353Z AUTO 00000KT 10SM BKN023 OVC060 09/07 A3003 RMK AO2 RAE0258 SLP171 P0000 T00890067=
201010270300 SPECI KCLM 270300Z AUTO 00000KT 10SM SCT021 BKN026 OVC055 08/07 A3002 RMK AO2 RAE0258 P0000=
201010270300 SPECI KCLM 270300Z AUTO 00000KT 10SM SCT021 BKN026 OVC055 08/07 A3002 RMK AO2 RAE0258 P0000=
201010270253 METAR KCLM 270253Z AUTO 00000KT 10SM -RA FEW021 BKN047 OVC055 08/07 A3002 RMK AO2 RAE02B49 SLP166 P0000 60000 T00830072 51010=
201010270250 SPECI KCLM 270250Z AUTO 00000KT 10SM -RA BKN025 BKN050 OVC060 09/07 A3002 RMK AO2 RAE02B49 P0000=
201010270250 SPECI KCLM 270250Z AUTO 00000KT 10SM -RA BKN025 BKN050 OVC060 09/07 A3002 RMK AO2 RAE02B49 P0000=
201010270222 SPECI KCLM 270222Z AUTO 14003KT 10SM FEW015 SCT027 OVC048 09/08 A3001 RMK AO2 RAE02 P0000=
201010270222 SPECI KCLM 270222Z AUTO 14003KT 10SM FEW015 SCT027 OVC048 09/08 A3001 RMK AO2 RAE02 P0000=
201010270153 METAR KCLM 270153Z AUTO 00000KT 9SM -RA FEW009 OVC017 09/07 A3000 RMK AO2 RAB0054E11B50 SLP162 P0000 T00890072=
201010270134 SPECI KCLM 270134Z AUTO 00000KT 10SM SCT009 OVC017 09/07 A3000 RMK AO2 RAB0054E11 P0000=
201010270134 SPECI KCLM 270134Z AUTO 00000KT 10SM SCT009 OVC017 09/07 A3000 RMK AO2 RAB0054E11 P0000=
201010270053 METAR KCLM 270053Z AUTO 00000KT 10SM OVC019 09/07 A2999 RMK AO2 RAB43E52 SLP156 P0000 T00940072=
201010262353 METAR KCLM 262353Z AUTO 00000KT 10SM OVC019 09/07 A2998 RMK AO2 SLP152 60000 T00940067 10100 20083 52024=
201010262253 METAR KCLM 262253Z AUTO 00000KT 10SM FEW009 SCT014 OVC025 10/07 A2995 RMK AO2 SLP144 T01000072=
201010262212 SPECI KCLM 262212Z AUTO 26003KT 10SM FEW009 OVC029 09/07 A2994 RMK AO2=
201010262212 SPECI KCLM 262212Z AUTO 26003KT 10SM FEW009 OVC029 09/07 A2994 RMK AO2=
201010262153 METAR KCLM 262153Z AUTO 00000KT 10SM FEW009 OVC033 09/08 A2993 RMK AO2 RAB15E27 SLP137 P0000 T00940078=
201010262134 SPECI KCLM 262134Z AUTO 00000KT 10SM SCT020 OVC033 09/07 A2992 RMK AO2 RAB15E27 P0000=
201010262134 SPECI KCLM 262134Z AUTO 00000KT 10SM SCT020 OVC033 09/07 A2992 RMK AO2 RAB15E27 P0000=
201010262053 METAR KCLM 262053Z AUTO 00000KT 10SM BKN016 OVC021 09/07 A2991 RMK AO2 RAE01 SLP128 P0000 60000 T00890072 51027=
201010261953 METAR KCLM 261953Z AUTO 27004KT 4SM -RA BR BKN024 OVC032 09/07 A2988 RMK AO2 RAB50 SLP119 P0000 T00890067=
201010261909 SPECI KCLM 261909Z AUTO 27007KT 10SM BKN029 OVC033 08/06 A2986 RMK AO2=
201010261909 SPECI KCLM 261909Z AUTO 27007KT 10SM BKN029 OVC033 08/06 A2986 RMK AO2=
201010261853 METAR KCLM 261853Z AUTO 26005KT 10SM OVC031 08/06 A2985 RMK AO2 RAE50 SLP111 P0000 T00830061=
201010261753 METAR KCLM 261753Z AUTO 00000KT 10SM -RA OVC040 08/06 A2983 RMK AO2 RAB23 SLP100 P0000 60000 T00830061 10083 20044 51029=
201010261653 METAR KCLM 261653Z AUTO 30003KT 10SM OVC048 08/06 A2980 RMK AO2 RAB38E51 SLP093 P0000 T00830061=
201010261602 SPECI KCLM 261602Z AUTO 34004KT 10SM FEW009 OVC060 08/06 A2978 RMK AO2=
201010261602 SPECI KCLM 261602Z AUTO 34004KT 10SM FEW009 OVC060 08/06 A2978 RMK AO2=
201010261553 METAR KCLM 261553Z AUTO 00000KT 10SM OVC060 07/06 A2977 RMK AO2 RAE46 SLP083 P0000 T00720056=
201010261453 METAR KCLM 261453Z AUTO 15003KT 10SM -RA BKN043 OVC055 06/04 A2974 RMK AO2 RAB20 SLP072 P0000 60000 T00610044 53007=
201010261353 METAR KCLM 261353Z AUTO 00000KT 10SM BKN065 OVC090 05/04 A2973 RMK AO2 SLP069 T00500039=
201010261253 METAR KCLM 261253Z AUTO 13003KT 10SM BKN070 BKN110 06/04 A2972 RMK AO2 SLP066 T00610039=
201010261153 METAR KCLM 261153Z AUTO 00000KT 10SM BKN065 BKN080 OVC095 05/04 A2972 RMK AO2 SLP066 60000 70044 T00500039 10083 20039 58003=
201010261053 METAR KCLM 261053Z AUTO 24006KT 10SM SCT065 04/03 A2973 RMK AO2 SLP069 T00440033=
201010260953 METAR KCLM 260953Z AUTO 00000KT 10SM FEW050 BKN090 OVC120 06/05 A2973 RMK AO2 RAB19E38 SLP070 P0000 T00610050=
201010260853 METAR KCLM 260853Z AUTO 00000KT 10SM FEW060 BKN110 06/04 A2973 RMK AO2 SLP069 60000 T00560044 51008=
201010260753 METAR KCLM 260753Z AUTO 00000KT 10SM BKN060 OVC070 07/05 A2972 RMK AO2 RAB23E48 SLP065 P0000 T00720050 401000061=
201010260653 METAR KCLM 260653Z AUTO 25004KT 10SM FEW055 OVC070 07/04 A2972 RMK AO2 RAE01B41E52 SLP064 P0000 T00720044=
201010260553 METAR KCLM 260553Z AUTO 23004KT 10SM -RA BKN060 OVC085 08/04 A2970 RMK AO2 RAB30 SLP059 P0000 60010 T00780044 10083 20067 53003=
201010260453 METAR KCLM 260453Z AUTO 23004KT 10SM SCT060 OVC075 07/04 A2969 RMK AO2 RAB0355E08 SLP056 P0000 T00720044=
201010260353 METAR KCLM 260353Z AUTO 26005KT 10SM SCT060 SCT080 BKN100 07/04 A2969 RMK AO2 RAE29 SLP055 P0001 T00670044=
201010260253 METAR KCLM 260253Z AUTO 23010KT 10SM -RA FEW050 SCT060 BKN080 07/04 A2970 RMK AO2 RAE23B51 SLP057 P0000 60009 T00720044 53010=
201010260153 METAR KCLM 260153Z AUTO 24010G14KT 10SM -RA SCT050 BKN100 08/04 A2968 RMK AO2 SLP052 P0000 T00780044=
201010260053 METAR KCLM 260053Z AUTO VRB06KT 8SM -RA BKN031 OVC040 08/04 A2966 RMK AO2 SLP045 P0009 T00830044=
201010252353 METAR KCLM 252353Z AUTO 25010KT 7SM -RA BKN039 OVC055 08/05 A2967 RMK AO2 SLP046 P0006 60012 T00780050 10100 20078 53021=
201010252253 METAR KCLM 252253Z AUTO 25009KT 9SM -RA OVC039 08/06 A2965 RMK AO2 SLP040 P0001 T00830056=
201010252153 METAR KCLM 252153Z AUTO 26008KT 10SM -RA OVC040 09/06 A2962 RMK AO2 SLP031 P0002 T00890061 TSNO=
201010252053 METAR KCLM 252053Z AUTO 25007KT 10SM -RA BKN033 BKN047 OVC060 10/07 A2960 RMK AO2 SLP025 P0000 60003 T01000067 52009=
201010251953 METAR KCLM 251953Z AUTO 24007KT 10SM -RA BKN033 OVC047 09/07 A2960 RMK AO2 SLP023 P0001 T00940067=
201010251939 SPECI KCLM 251939Z AUTO 25006KT 7SM -RA BKN035 OVC047 09/07 A2959 RMK AO2 P0001=
201010251939 SPECI KCLM 251939Z AUTO 25006KT 7SM -RA BKN035 OVC047 09/07 A2959 RMK AO2 P0001=
201010251929 SPECI KCLM 251929Z AUTO 24007KT 10SM -RA BKN029 BKN045 09/07 A2959 RMK AO2 P0000=
201010251929 SPECI KCLM 251929Z AUTO 24007KT 10SM -RA BKN029 BKN045 09/07 A2959 RMK AO2 P0000=
201010251853 METAR KCLM 251853Z AUTO 25008KT 10SM -RA BKN033 OVC047 10/07 A2958 RMK AO2 SLP018 P0002 T01000067 TSNO=
201010251753 METAR KCLM 251753Z AUTO 24008KT 10SM -RA BKN030 OVC049 09/07 A2957 RMK AO2 SLP016 P0000 60022 T00940067 10094 20078 51022=
201010251653 METAR KCLM 251653Z AUTO 20006KT 10SM -RA BKN040 OVC050 09/06 A2955 RMK AO2 SLP008 P0006 T00890061=
201010251553 METAR KCLM 251553Z AUTO 21006KT 10SM -RA BKN048 OVC060 08/06 A2953 RMK AO2 SLP002 P0003 T00830061=
201010251453 METAR KCLM 251453Z AUTO 23011G17KT 10SM -RA OVC055 08/06 A2951 RMK AO2 SLP993 P0005 60013 T00830056 51024=
201010251353 METAR KCLM 251353Z AUTO 22004KT 10SM -RA OVC050 08/06 A2950 RMK AO2 SLP988 P0001 T00780061=
201010251253 METAR KCLM 251253Z AUTO 24007KT 10SM -RA OVC055 08/06 A2947 RMK AO2 SLP979 P0007 T00830056=
201010251153 METAR KCLM 251153Z AUTO 17005KT 10SM RA OVC048 08/07 A2944 RMK AO2 RAB1054 SLP969 P0002 60002 70027 T00830067 10089 20056 53014=
201010251053 METAR KCLM 251053Z AUTO 23011KT 10SM BKN060 OVC070 08/06 A2942 RMK AO2 RAE52 SLP964 P0000 T00830056=
201010250953 METAR KCLM 250953Z AUTO 00000KT 10SM -RA BKN050 OVC110 07/06 A2940 RMK AO2 SLP957 P0000 T00670061=
201010250853 METAR KCLM 250853Z AUTO 00000KT 10SM -RA BKN060 BKN080 OVC095 07/06 A2940 RMK AO2 RAB51 SLP955 P0000 60000 T00670056 51007=
201010250753 METAR KCLM 250753Z AUTO 00000KT 10SM SCT060 BKN100 BKN120 06/06 A2939 RMK AO2 RAB27E44 SLP954 P0000 T00610056 401110056=
201010250653 METAR KCLM 250653Z AUTO 24003KT 10SM BKN060 BKN075 BKN090 06/06 A2940 RMK AO2 RAE04 SLP956 P0000 T00610056=
201010250553 METAR KCLM 250553Z AUTO 00000KT 10SM -RA BKN055 BKN100 06/05 A2938 RMK AO2 RAB51 SLP949 P0000 60000 T00560050 10094 20056 51015=
201010250453 METAR KCLM 250453Z AUTO 17003KT 10SM BKN060 07/06 A2937 RMK AO2 SLP945 T00720056=
201010250353 METAR KCLM 250353Z AUTO 25005KT 10SM BKN070 OVC090 07/06 A2935 RMK AO2 SLP940 T00720056=
201010250253 METAR KCLM 250253Z AUTO 23004KT 10SM BKN055 OVC075 08/06 A2933 RMK AO2 RAB19E50 SLP933 P0000 60000 T00780056 53011=
201010250153 METAR KCLM 250153Z AUTO 25006KT 10SM OVC065 08/06 A2932 RMK AO2 SLP928 T00830061=
201010250053 METAR KCLM 250053Z AUTO 24005KT 10SM FEW060 SCT080 BKN095 08/06 A2930 RMK AO2 RAE40 SLP922 P0000 T00830056=
201010242353 METAR KCLM 242353Z AUTO 25007KT 10SM -RA OVC046 09/07 A2930 RMK AO2 RAB20 SLP922 P0000 60010 T00940067 10111 20089 53011=
201010242253 METAR KCLM 242253Z AUTO 24003KT 10SM BKN060 11/07 A2929 RMK AO2 RAE04 SLP919 P0000 T01060067=
201010242153 METAR KCLM 242153Z AUTO 23004KT 10SM -RA SCT043 SCT050 10/07 A2926 RMK AO2 RAB2059E30B46 SLP910 P0000 T01000067=
201010242053 METAR KCLM 242053Z AUTO 18003KT 10SM FEW040 10/07 A2927 RMK AO2 RAB1954E43 SLP911 P0005 60010 T01000067 50006=
201010241953 METAR KCLM 241953Z AUTO VRB03KT 10SM FEW044 BKN060 11/07 A2927 RMK AO2 RAE22 SLP912 P0002 T01060067=
201010241853 METAR KCLM 241853Z AUTO 21011G17KT 10SM -RA BKN043 BKN060 09/06 A2926 RMK AO2 SLP910 P0003 T00940056=
201010241841 SPECI KCLM 241841Z AUTO 24008KT 10SM -RA BKN042 BKN065 09/05 A2925 RMK AO2 P0003=
201010241841 SPECI KCLM 241841Z AUTO 24008KT 10SM -RA BKN042 BKN065 09/05 A2925 RMK AO2 P0003=
201010241803 SPECI KCLM 241803Z AUTO 25005KT 3SM -RA BKN022 OVC037 09/06 A2924 RMK AO2 P0003=
201010241803 SPECI KCLM 241803Z AUTO 25005KT 3SM -RA BKN022 OVC037 09/06 A2924 RMK AO2 P0003=
201010241753 METAR KCLM 241753Z AUTO 25005KT 1 3/4SM +RA BKN028 OVC036 09/06 A2925 RMK AO2 RAB04E13B32 SLP905 P0008 60015 T00890061 10100 20078 51008=
201010241751 SPECI KCLM 241751Z AUTO 24005KT 1 3/4SM +RA BKN030 OVC036 09/06 A2925 RMK AO2 RAB04E13B32 P0007=
201010241751 SPECI KCLM 241751Z AUTO 24005KT 1 3/4SM +RA BKN030 OVC036 09/06 A2925 RMK AO2 RAB04E13B32 P0007=
201010241653 METAR KCLM 241653Z AUTO 25006KT 10SM SCT047 BKN060 09/07 A2924 RMK AO2 RAE05B25E53 SLP903 P0000 T00940067=
201010241553 METAR KCLM 241553Z AUTO 00000KT 10SM -RA FEW042 OVC055 09/08 A2923 RMK AO2 SLP898 P0002 T00890078=
201010241453 METAR KCLM 241453Z AUTO 13005KT 10SM -RA BKN047 OVC070 09/08 A2922 RMK AO2 SLP896 P0003 60005 T00940078 50003=
201010241353 METAR KCLM 241353Z AUTO 23003KT 10SM -RA BKN060 OVC070 08/07 A2923 RMK AO2 RAE1254B33 SLP898 P0000 T00830072=
201010241253 METAR KCLM 241253Z AUTO 36004KT 10SM -RA SCT046 BKN060 BKN075 09/08 A2922 RMK AO2 SLP895 P0002 T00890078=
201010241153 METAR KCLM 241153Z AUTO 00000KT 10SM RA BKN039 OVC050 09/08 A2921 RMK AO2 RAB18 SLP893 P0006 60013 70013 T00940083 10106 20072 55006=
201010241053 METAR KCLM 241053Z AUTO 23003KT 10SM SCT060 BKN070 BKN100 08/07 A2918 RMK AO2 RAE45 PRESFR SLP882 P0001 T00780072=
201010240953 METAR KCLM 240953Z AUTO 10004KT 10SM -RA BKN055 OVC075 09/08 A2920 RMK AO2 SLP886 P0001 T00940078=
201010240853 METAR KCLM 240853Z AUTO 00000KT 10SM -RA BKN046 OVC060 09/08 A2923 RMK AO2 SLP899 P0004 60005 T00940083 56037=
201010240753 METAR KCLM 240753Z AUTO 00000KT 8SM RA BKN050 BKN070 OVC095 10/08 A2926 RMK AO2 RAE04B23 SLP907 P0001 T01000083 401330078=
201010240653 METAR KCLM 240653Z AUTO 07003KT 10SM -RA OVC055 10/08 A2928 RMK AO2 RAB07 PRESFR SLP916 P0000 T01000083=
201010240553 METAR KCLM 240553Z AUTO 11006KT 10SM BKN060 OVC085 10/07 A2934 RMK AO2 RAE41 SLP936 P0000 60000 T01000072 10128 20100 58032=
201010240453 METAR KCLM 240453Z AUTO 00000KT 10SM -RA BKN050 OVC060 10/08 A2940 RMK AO2 RAB28 SLP957 P0000 T01000083=
201010240353 METAR KCLM 240353Z AUTO 32003KT 10SM BKN080 BKN100 10/08 A2942 RMK AO2 SLP962 T01000078=
201010240253 METAR KCLM 240253Z AUTO 27006KT 10SM BKN065 11/08 A2944 RMK AO2 RAE37 SLP969 P0000 60000 T01060083 56026=
201010240153 METAR KCLM 240153Z AUTO 27005KT 10SM -RA SCT060 OVC075 11/08 A2946 RMK AO2 RAE23B44 SLP977 P0000 T01110083=
201010240053 METAR KCLM 240053Z AUTO 00000KT 10SM -RA SCT045 BKN065 BKN080 12/09 A2947 RMK AO2 SLP981 P0000 T01170089=
201010232353 METAR KCLM 232353Z AUTO 00000KT 10SM -RA SCT050 BKN065 12/09 A2952 RMK AO2 RAB24 SLP995 P0000 60000 T01220094 10133 20100 56027=
201010232253 METAR KCLM 232253Z AUTO 06006KT 10SM BKN070 12/09 A2953 RMK AO2 RAE2154B11E53 SLP000 P0000 T01220094=
201010232153 METAR KCLM 232153Z AUTO 00000KT 10SM -RA FEW070 13/09 A2956 RMK AO2 RAB39 SLP011 P0000 T01330089=
201010232053 METAR KCLM 232053Z AUTO 00000KT 10SM SCT070 BKN090 12/08 A2960 RMK AO2 SLP022 T01170083 58028=
201010231953 METAR KCLM 231953Z AUTO VRB03KT 10SM SCT075 12/08 A2962 RMK AO2 SLP032 T01170078=
201010231853 METAR KCLM 231853Z AUTO 00000KT 10SM CLR 11/08 A2966 RMK AO2 SLP044 T01110083=
201010231753 METAR KCLM 231753Z AUTO 00000KT 10SM SCT075 11/08 A2968 RMK AO2 SLP051 T01110078 10117 20078 58016=
201010231653 METAR KCLM 231653Z AUTO 00000KT 10SM BKN070 OVC090 09/08 A2970 RMK AO2 SLP057 T00940078=
201010231553 METAR KCLM 231553Z AUTO 25003KT 10SM BKN100 09/08 A2971 RMK AO2 SLP061 T00890078=
201010231505 SPECI KCLM 231505Z AUTO 23005KT 10SM FEW007 BKN110 08/08 A2972 RMK AO2=
201010231505 SPECI KCLM 231505Z AUTO 23005KT 10SM FEW007 BKN110 08/08 A2972 RMK AO2=
201010231453 METAR KCLM 231453Z AUTO 25004KT 10SM BKN007 BKN085 OVC110 08/07 A2973 RMK AO2 SLP067 T00830072 58005=
201010231353 METAR KCLM 231353Z AUTO 24003KT 9SM BKN007 OVC095 08/07 A2973 RMK AO2 SLP069 T00830072=
201010231328 SPECI KCLM 231328Z AUTO 00000KT 9SM BKN005 OVC095 08/07 A2973 RMK AO2=
201010231328 SPECI KCLM 231328Z AUTO 00000KT 9SM BKN005 OVC095 08/07 A2973 RMK AO2=
201010231319 SPECI KCLM 231319Z AUTO 24003KT 10SM SCT005 OVC090 08/07 A2974 RMK AO2=
201010231319 SPECI KCLM 231319Z AUTO 24003KT 10SM SCT005 OVC090 08/07 A2974 RMK AO2=
201010231253 METAR KCLM 231253Z AUTO 00000KT 9SM BKN005 BKN080 OVC095 08/07 A2974 RMK AO2 SLP070 T00830072=
201010231248 SPECI KCLM 231248Z AUTO 00000KT 9SM BKN005 OVC080 08/07 A2974 RMK AO2=
201010231248 SPECI KCLM 231248Z AUTO 00000KT 9SM BKN005 OVC080 08/07 A2974 RMK AO2=
201010231153 METAR KCLM 231153Z AUTO 00000KT 9SM FEW002 OVC090 08/07 A2975 RMK AO2 SLP074 60000 T00780072 10089 20078 56018=
201010231140 SPECI KCLM 231140Z AUTO 00000KT 10SM SCT002 BKN070 OVC095 08/07 A2975 RMK AO2=
201010231140 SPECI KCLM 231140Z AUTO 00000KT 10SM SCT002 BKN070 OVC095 08/07 A2975 RMK AO2=
201010231131 SPECI KCLM 231131Z AUTO 13004KT 10SM BKN002 BKN070 OVC095 08/07 A2975 RMK AO2 CIG 001V005=
201010231131 SPECI KCLM 231131Z AUTO 13004KT 10SM BKN002 BKN070 OVC095 08/07 A2975 RMK AO2 CIG 001V005=
201010231123 SPECI KCLM 231123Z AUTO 00000KT 10SM SCT002 OVC070 08/07 A2976 RMK AO2=
201010231123 SPECI KCLM 231123Z AUTO 00000KT 10SM SCT002 OVC070 08/07 A2976 RMK AO2=
201010231053 METAR KCLM 231053Z AUTO 00000KT 10SM OVC070 09/08 A2976 RMK AO2 SLP078 T00890078=
201010230953 METAR KCLM 230953Z AUTO 00000KT 10SM BKN085 OVC120 08/07 A2978 RMK AO2 SLP086 T00780072=
201010230853 METAR KCLM 230853Z AUTO 00000KT 10SM OVC075 08/07 A2980 RMK AO2 RAB0759E42 SLP092 P0000 60000 T00830072 56010=
201010230753 METAR KCLM 230753Z AUTO 00000KT 10SM BKN075 OVC100 08/07 A2981 RMK AO2 SLP095 T00830072 401330083=
201010230653 METAR KCLM 230653Z AUTO 00000KT 10SM OVC120 08/07 A2982 RMK AO2 SLP098 T00830072=
201010230553 METAR KCLM 230553Z AUTO 14003KT 10SM OVC110 09/07 A2983 RMK AO2 SLP102 T00890072 10128 20083 58006=
201010230453 METAR KCLM 230453Z AUTO 00000KT 10SM BKN070 OVC100 09/07 A2983 RMK AO2 SLP103 T00890072=
201010230353 METAR KCLM 230353Z AUTO 18003KT 10SM OVC095 09/07 A2985 RMK AO2 SLP107 T00890072=
201010230253 METAR KCLM 230253Z AUTO 00000KT 10SM BKN090 OVC110 09/07 A2985 RMK AO2 SLP108 T00890072 56003=
201010230153 METAR KCLM 230153Z AUTO 23005KT 10SM OVC120 09/07 A2985 RMK AO2 SLP108 T00940072=
201010230053 METAR KCLM 230053Z AUTO 00000KT 10SM FEW034 BKN110 11/08 A2985 RMK AO2 SLP108 T01110078=
201010222353 METAR KCLM 222353Z AUTO 11004KT 10SM SCT095 OVC120 13/07 A2986 RMK AO2 SLP111 60000 T01280072 10133 20117 58010=
201010222253 METAR KCLM 222253Z AUTO 09005KT 10SM FEW030 OVC095 13/08 A2987 RMK AO2 SLP115 T01280078=
201010222215 SPECI KCLM 222215Z AUTO 11004KT 10SM SCT028 SCT070 BKN095 13/08 A2988 RMK AO2=
201010222215 SPECI KCLM 222215Z AUTO 11004KT 10SM SCT028 SCT070 BKN095 13/08 A2988 RMK AO2=
201010222153 METAR KCLM 222153Z AUTO 08005KT 10SM BKN028 13/08 A2988 RMK AO2 SLP119 T01280083=
201010222053 METAR KCLM 222053Z AUTO 03003KT 10SM FEW026 SCT075 13/08 A2989 RMK AO2 RAB29E41 SLP122 P0000 60000 T01330083 58004=
201010222021 SPECI KCLM 222021Z AUTO 09003KT 10SM SCT026 BKN055 OVC070 13/09 A2990 RMK AO2=
201010222021 SPECI KCLM 222021Z AUTO 09003KT 10SM SCT026 BKN055 OVC070 13/09 A2990 RMK AO2=
201010221953 METAR KCLM 221953Z AUTO 09004KT 10SM BKN020 OVC055 12/09 A2990 RMK AO2 RAB07E45 SLP127 P0000 T01170089=
201010221951 SPECI KCLM 221951Z AUTO 08005KT 10SM BKN020 OVC055 12/09 A2990 RMK AO2 RAB07E45 P0000=
201010221951 SPECI KCLM 221951Z AUTO 08005KT 10SM BKN020 OVC055 12/09 A2990 RMK AO2 RAB07E45 P0000=
201010221853 METAR KCLM 221853Z AUTO 00000KT 10SM OVC060 13/09 A2990 RMK AO2 SLP126 T01330089=
201010221753 METAR KCLM 221753Z AUTO 00000KT 10SM BKN065 12/10 A2990 RMK AO2 SLP126 60000 T01220100 10122 20083 51015=
201010221653 METAR KCLM 221653Z AUTO 00000KT 10SM OVC060 11/09 A2990 RMK AO2 RAB41E52 SLP124 P0000 T01110089=
201010221553 METAR KCLM 221553Z AUTO 11003KT 10SM OVC060 10/09 A2988 RMK AO2 SLP118 T01000089=
201010221453 METAR KCLM 221453Z AUTO 21003KT 10SM BKN060 BKN080 BKN095 09/08 A2986 RMK AO2 SLP111 60000 T00940083 53008=
201010221353 METAR KCLM 221353Z AUTO 31003KT 6SM BR SCT065 BKN080 08/08 A2985 RMK AO2 RAE1259 SLP108 P0000 T00830078=
201010221253 METAR KCLM 221253Z AUTO 17003KT 7SM -RA OVC065 10/09 A2984 RMK AO2 RAB26 SLP105 P0000 T01000089=
201010221153 METAR KCLM 221153Z AUTO 16003KT 10SM BKN070 OVC085 10/09 A2983 RMK AO2 RAB17E42 SLP103 P0000 60000 T01000089 10100 20083 53005=
201010221053 METAR KCLM 221053Z AUTO 23004KT 10SM SCT075 OVC095 09/09 A2981 RMK AO2 SLP096 T00940089=
201010220953 METAR KCLM 220953Z AUTO 11004KT 5SM BR SCT080 09/08 A2981 RMK AO2 RAE09 SLP097 P0000 T00890078=
201010220853 METAR KCLM 220853Z AUTO 00000KT 9SM -RA BKN065 OVC080 10/09 A2982 RMK AO2 RAB08E17B53 SLP097 P0000 60000 T01000089 55001=
201010220753 METAR KCLM 220753Z AUTO 24005KT 9SM BKN060 OVC070 09/09 A2981 RMK AO2 SLP096 T00940089 401390028=
201010220653 METAR KCLM 220653Z AUTO 21005KT 4SM BR OVC060 09/08 A2981 RMK AO2 RAE0555 SLP095 P0000 T00940083=
201010220553 METAR KCLM 220553Z AUTO 22003KT 3SM -RA BR FEW001 BKN060 OVC070 09/09 A2982 RMK AO2 RAB26 SLP099 P0000 60000 T00940089 10139 20083 58004=
201010220536 SPECI KCLM 220536Z AUTO 22004KT 2SM -RA BR SCT001 BKN060 OVC075 09/09 A2982 RMK AO2 RAB26 P0000=
201010220536 SPECI KCLM 220536Z AUTO 22004KT 2SM -RA BR SCT001 BKN060 OVC075 09/09 A2982 RMK AO2 RAB26 P0000=
201010220529 SPECI KCLM 220529Z AUTO 24003KT 1 3/4SM -RA BR SCT001 OVC060 09/09 A2982 RMK AO2 RAB26 P0000=
201010220529 SPECI KCLM 220529Z AUTO 24003KT 1 3/4SM -RA BR SCT001 OVC060 09/09 A2982 RMK AO2 RAB26 P0000=
201010220506 SPECI KCLM 220506Z AUTO 25005KT 2SM BR OVC001 09/08 A2983 RMK AO2=
201010220506 SPECI KCLM 220506Z AUTO 25005KT 2SM BR OVC001 09/08 A2983 RMK AO2=
201010220453 METAR KCLM 220453Z AUTO 29004KT 1 1/2SM BR OVC001 09/09 A2983 RMK AO2 SLP100 T00940089=
201010220419 SPECI KCLM 220419Z AUTO 27003KT 1 3/4SM BR OVC001 09/08 A2983 RMK AO2=
201010220419 SPECI KCLM 220419Z AUTO 27003KT 1 3/4SM BR OVC001 09/08 A2983 RMK AO2=
201010220406 SPECI KCLM 220406Z AUTO 27004KT 4SM BR BKN001 09/08 A2983 RMK AO2=
201010220406 SPECI KCLM 220406Z AUTO 27004KT 4SM BR BKN001 09/08 A2983 RMK AO2=
201010220353 METAR KCLM 220353Z AUTO 00000KT 3SM BR FEW001 SCT065 09/08 A2983 RMK AO2 SLP103 T00890083=
201010220253 METAR KCLM 220253Z AUTO 15005KT 8SM FEW004 09/08 A2983 RMK AO2 SLP104 T00940083 58003=
201010220238 SPECI KCLM 220238Z AUTO 00000KT 8SM SCT002 09/08 A2984 RMK AO2=
201010220238 SPECI KCLM 220238Z AUTO 00000KT 8SM SCT002 09/08 A2984 RMK AO2=
201010220208 SPECI KCLM 220208Z AUTO 00000KT 7SM BKN002 09/08 A2985 RMK AO2=
201010220208 SPECI KCLM 220208Z AUTO 00000KT 7SM BKN002 09/08 A2985 RMK AO2=
201010220200 SPECI KCLM 220200Z AUTO VRB03KT 8SM SCT002 09/08 A2985 RMK AO2=
201010220200 SPECI KCLM 220200Z AUTO VRB03KT 8SM SCT002 09/08 A2985 RMK AO2=
201010220153 METAR KCLM 220153Z AUTO 00000KT 7SM BKN002 09/08 A2985 RMK AO2 SLP110 T00940083=
201010220139 SPECI KCLM 220139Z AUTO VRB03KT 4SM BR BKN002 09/08 A2985 RMK AO2=
201010220139 SPECI KCLM 220139Z AUTO VRB03KT 4SM BR BKN002 09/08 A2985 RMK AO2=
201010220130 SPECI KCLM 220130Z AUTO 00000KT 4SM BR SCT002 09/08 A2984 RMK AO2=
201010220130 SPECI KCLM 220130Z AUTO 00000KT 4SM BR SCT002 09/08 A2984 RMK AO2=
201010220053 METAR KCLM 220053Z AUTO 00000KT 10SM FEW110 12/09 A2984 RMK AO2 SLP106 T01220089=
201010212353 METAR KCLM 212353Z AUTO 16003KT 10SM FEW100 13/09 A2984 RMK AO2 RAB26E37 SLP106 P0000 60000 T01330089 10133 20089 56002=
201010212253 METAR KCLM 212253Z AUTO 00000KT 10SM CLR 13/09 A2984 RMK AO2 SLP106 T01280089=
201010212153 METAR KCLM 212153Z AUTO 33004KT 10SM CLR 13/09 A2984 RMK AO2 SLP104 T01280089=
201010212053 METAR KCLM 212053Z AUTO 00000KT 10SM CLR 13/09 A2985 RMK AO2 SLP108 T01280089 58010=
201010211953 METAR KCLM 211953Z AUTO 00000KT 10SM FEW006 SCT110 11/08 A2986 RMK AO2 SLP113 T01110083=
201010211945 SPECI KCLM 211945Z AUTO 00000KT 10SM FEW004 SCT110 11/09 A2987 RMK AO2=
201010211945 SPECI KCLM 211945Z AUTO 00000KT 10SM FEW004 SCT110 11/09 A2987 RMK AO2=
201010211922 SPECI KCLM 211922Z AUTO 00000KT 10SM BKN002 OVC110 11/09 A2987 RMK AO2=
201010211922 SPECI KCLM 211922Z AUTO 00000KT 10SM BKN002 OVC110 11/09 A2987 RMK AO2=
201010211915 SPECI KCLM 211915Z AUTO 00000KT 2 1/2SM BR OVC002 10/09 A2987 RMK AO2=
201010211915 SPECI KCLM 211915Z AUTO 00000KT 2 1/2SM BR OVC002 10/09 A2987 RMK AO2=
201010211902 SPECI KCLM 211902Z AUTO 00000KT 3/4SM BR OVC002 09/08 A2987 RMK AO2 VIS 1/2V1 1/2=
201010211902 SPECI KCLM 211902Z AUTO 00000KT 3/4SM BR OVC002 09/08 A2987 RMK AO2 VIS 1/2V1 1/2=
201010211853 METAR KCLM 211853Z AUTO 00000KT 2 1/2SM BR OVC002 09/08 A2987 RMK AO2 VIS 1 1/4V5 SLP115 T00940083=
201010211753 METAR KCLM 211753Z AUTO 31005KT 4SM BR OVC002 09/08 A2988 RMK AO2 SLP119 T00890083 10094 20028 51005=
201010211733 SPECI KCLM 211733Z AUTO 34004KT 1 1/4SM BR BKN002 09/08 A2988 RMK AO2 CIG 001V005=
201010211733 SPECI KCLM 211733Z AUTO 34004KT 1 1/4SM BR BKN002 09/08 A2988 RMK AO2 CIG 001V005=
201010211726 SPECI KCLM 211726Z AUTO 30004KT 1 3/4SM BR SCT002 BKN007 09/08 A2987 RMK AO2 VIS 3/4V4=
201010211726 SPECI KCLM 211726Z AUTO 30004KT 1 3/4SM BR SCT002 BKN007 09/08 A2987 RMK AO2 VIS 3/4V4=
201010211653 METAR KCLM 211653Z AUTO 29003KT 10SM FEW002 09/08 A2988 RMK AO2 SLP119 T00890078=
201010211648 SPECI KCLM 211648Z AUTO 00000KT 10SM SCT002 09/07 A2987 RMK AO2=
201010211648 SPECI KCLM 211648Z AUTO 00000KT 10SM SCT002 09/07 A2987 RMK AO2=
201010211617 SPECI KCLM 211617Z AUTO 00000KT 7SM BKN002 08/07 A2987 RMK AO2=
201010211617 SPECI KCLM 211617Z AUTO 00000KT 7SM BKN002 08/07 A2987 RMK AO2=
201010211608 SPECI KCLM 211608Z AUTO 00000KT 10SM SCT002 08/07 A2987 RMK AO2=
201010211608 SPECI KCLM 211608Z AUTO 00000KT 10SM SCT002 08/07 A2987 RMK AO2=
201010211553 METAR KCLM 211553Z AUTO 00000KT 9SM CLR 06/05 A2986 RMK AO2 SLP114 T00610050=
201010211453 METAR KCLM 211453Z AUTO 00000KT 6SM BR CLR 04/04 A2985 RMK AO2 SLP109 T00440039 55002=
201010211353 METAR KCLM 211353Z AUTO 22003KT 7SM CLR 04/04 A2985 RMK AO2 SLP109 T00440039=
201010211253 METAR KCLM 211253Z AUTO 00000KT 5SM BR CLR 03/03 A2985 RMK AO2 SLP109 T00330028=
201010211153 METAR KCLM 211153Z AUTO 00000KT 9SM CLR 04/03 A2985 RMK AO2 SLP110 T00390028 10072 20033 55004=
201010211053 METAR KCLM 211053Z AUTO 00000KT 8SM CLR 06/05 A2985 RMK AO2 SLP109 T00560050=
201010210953 METAR KCLM 210953Z AUTO 00000KT 10SM CLR 05/04 A2986 RMK AO2 SLP113 T00500044=
201010210853 METAR KCLM 210853Z AUTO 00000KT 10SM CLR 06/04 A2987 RMK AO2 SLP114 T00560044 58005=
201010210753 METAR KCLM 210753Z AUTO 00000KT 10SM CLR 07/05 A2987 RMK AO2 SLP116 T00670050 401500039=
201010210653 METAR KCLM 210653Z AUTO 00000KT 10SM CLR 07/06 A2988 RMK AO2 SLP118 T00720061=
201010210553 METAR KCLM 210553Z AUTO 00000KT 10SM CLR 06/06 A2988 RMK AO2 SLP119 T00610056 10150 20061 53003=
201010210453 METAR KCLM 210453Z AUTO 00000KT 10SM CLR 07/06 A2988 RMK AO2 SLP118 T00670056=
201010210353 METAR KCLM 210353Z AUTO 00000KT 10SM CLR 08/07 A2987 RMK AO2 SLP116 T00780067=
201010210253 METAR KCLM 210253Z AUTO 00000KT 10SM CLR 09/07 A2987 RMK AO2 SLP117 T00890072 56005=
201010210153 METAR KCLM 210153Z AUTO 00000KT 10SM CLR 10/07 A2987 RMK AO2 SLP117 T01000072=
201010210053 METAR KCLM 210053Z AUTO 00000KT 10SM CLR 13/07 A2988 RMK AO2 SLP118 T01330067=
201010202353 METAR KCLM 202353Z AUTO 00000KT 10SM CLR 15/07 A2989 RMK AO2 SLP121 T01500072 10150 20128 56009=
201010202253 METAR KCLM 202253Z AUTO 08005KT 10SM CLR 14/07 A2990 RMK AO2 SLP124 T01440072=
201010202153 METAR KCLM 202153Z AUTO VRB03KT 10SM CLR 15/08 A2990 RMK AO2 SLP126 T01500083=
201010202053 METAR KCLM 202053Z AUTO 05004KT 10SM CLR 15/08 A2991 RMK AO2 SLP131 T01500083 58018=
201010201953 METAR KCLM 201953Z AUTO 10004KT 10SM CLR 13/08 A2994 RMK AO2 SLP139 T01330083=
201010201853 METAR KCLM 201853Z AUTO 08007KT 10SM CLR 13/08 A2996 RMK AO2 SLP146 T01330083=
201010201753 METAR KCLM 201753Z AUTO 10006KT 10SM CLR 13/08 A2997 RMK AO2 SLP149 T01330083 10133 20039 50000=
201010201653 METAR KCLM 201653Z AUTO 13004KT 10SM CLR 12/08 A2997 RMK AO2 SLP151 T01220083=
201010201553 METAR KCLM 201553Z AUTO 15003KT 10SM FEW100 10/08 A2998 RMK AO2 SLP152 T01000083=
201010201453 METAR KCLM 201453Z AUTO 15006KT 10SM CLR 06/05 A2997 RMK AO2 SLP150 T00610050 55008=
201010201353 METAR KCLM 201353Z AUTO 14004KT 10SM CLR 04/03 A2997 RMK AO2 SLP149 T00440033=
201010201253 METAR KCLM 201253Z AUTO 14004KT 10SM CLR 05/04 A2997 RMK AO2 SLP151 T00500039=
201010201153 METAR KCLM 201153Z AUTO 15004KT 10SM CLR 05/04 A2999 RMK AO2 SLP157 T00500044 10072 20039 58021=
201010201053 METAR KCLM 201053Z AUTO 16003KT 10SM CLR 04/04 A3002 RMK AO2 SLP167 T00440039=
201010200953 METAR KCLM 200953Z AUTO 16004KT 10SM CLR 06/05 A3004 RMK AO2 SLP174 T00610050=
201010200853 METAR KCLM 200853Z AUTO 00000KT 10SM CLR 05/04 A3005 RMK AO2 SLP178 T00500039 56002=
201010200753 METAR KCLM 200753Z AUTO 00000KT 9SM CLR 06/04 A3006 RMK AO2 SLP178 T00560044 401560028=
201010200653 METAR KCLM 200653Z AUTO 00000KT 10SM CLR 06/04 A3005 RMK AO2 SLP177 T00560044=
201010200553 METAR KCLM 200553Z AUTO 00000KT 10SM CLR 05/04 A3006 RMK AO2 SLP180 T00500039 10150 20050 56009=
201010200453 METAR KCLM 200453Z AUTO 00000KT 10SM CLR 08/06 A3006 RMK AO2 SLP181 T00780056=
201010200353 METAR KCLM 200353Z AUTO 00000KT 10SM CLR 07/06 A3007 RMK AO2 SLP184 T00720056=
201010200253 METAR KCLM 200253Z AUTO 00000KT 10SM CLR 07/06 A3009 RMK AO2 SLP190 T00720056 56009=
201010200153 METAR KCLM 200153Z AUTO 00000KT 10SM CLR 10/07 A3009 RMK AO2 SLP192 T01000067=
201010200053 METAR KCLM 200053Z AUTO 00000KT 10SM CLR 13/05 A3009 RMK AO2 SLP191 T01330050=
201010192353 METAR KCLM 192353Z AUTO 11004KT 10SM CLR 14/05 A3011 RMK AO2 SLP197 T01440050 10156 20122 56016=
201010192253 METAR KCLM 192253Z AUTO 10005KT 10SM CLR 15/05 A3013 RMK AO2 SLP203 T01500050=
201010192153 METAR KCLM 192153Z AUTO 09004KT 10SM CLR 14/06 A3014 RMK AO2 SLP208 T01440056=
201010192053 METAR KCLM 192053Z AUTO 02005KT 10SM CLR 13/07 A3016 RMK AO2 SLP214 T01280072 58018=
201010191953 METAR KCLM 191953Z AUTO VRB03KT 10SM CLR 14/07 A3018 RMK AO2 SLP222 T01390067=
201010191853 METAR KCLM 191853Z AUTO 02003KT 10SM CLR 14/06 A3020 RMK AO2 SLP228 T01390061=
201010191753 METAR KCLM 191753Z AUTO 00000KT 10SM CLR 13/07 A3021 RMK AO2 SLP232 T01280067 10128 20028 58004=
201010191653 METAR KCLM 191653Z AUTO 00000KT 10SM CLR 11/07 A3023 RMK AO2 SLP237 T01060072=
201010191553 METAR KCLM 191553Z AUTO 00000KT 10SM CLR 07/06 A3022 RMK AO2 SLP237 T00720061=
201010191453 METAR KCLM 191453Z AUTO 22004KT 10SM CLR 04/04 A3023 RMK AO2 SLP237 T00440039 58005=
201010191353 METAR KCLM 191353Z AUTO 00000KT 10SM FEW041 03/03 A3024 RMK AO2 SLP241 T00280028=
201010191253 METAR KCLM 191253Z AUTO 22003KT 10SM CLR 05/04 A3024 RMK AO2 SLP241 T00500044=
201010191153 METAR KCLM 191153Z AUTO 00000KT 10SM CLR 03/02 A3024 RMK AO2 SLP243 T00330022 10056 20028 56005=
201010191053 METAR KCLM 191053Z AUTO 22005KT 10SM CLR 04/04 A3024 RMK AO2 SLP243 T00440039=
201010190953 METAR KCLM 190953Z AUTO 00000KT 10SM CLR 03/02 A3025 RMK AO2 SLP246 T00330022=
201010190853 METAR KCLM 190853Z AUTO 23004KT 10SM CLR 05/03 A3026 RMK AO2 SLP248 T00500033 55001=
201010190753 METAR KCLM 190753Z AUTO 00000KT 10SM CLR 03/02 A3025 RMK AO2 SLP246 T00330022 401220028=
201010190653 METAR KCLM 190653Z AUTO 00000KT 10SM CLR 05/03 A3026 RMK AO2 SLP249 T00500033=
201010190553 METAR KCLM 190553Z AUTO 00000KT 10SM CLR 04/03 A3026 RMK AO2 SLP249 T00390033 10122 20039 56000=
201010190453 METAR KCLM 190453Z AUTO 00000KT 10SM CLR 06/04 A3026 RMK AO2 SLP248 T00560039=
201010190353 METAR KCLM 190353Z AUTO 00000KT 9SM CLR 06/06 A3026 RMK AO2 SLP248 T00610056=
201010190253 METAR KCLM 190253Z AUTO 00000KT 10SM SCT070 09/07 A3026 RMK AO2 SLP249 T00890072 56002=
201010190153 SPECI KCLM 190153Z AUTO 00000KT 10SM FEW055 OVC070 09/07 A3026 RMK AO2 SLP248 T00940072=
201010190053 METAR KCLM 190053Z AUTO 00000KT 10SM OVC055 11/07 A3026 RMK AO2 SLP248 T01060072=
201010182353 METAR KCLM 182353Z AUTO 00000KT 10SM OVC055 12/08 A3027 RMK AO2 SLP250 60000 T01170083 10117 20100 58010=
201010182253 METAR KCLM 182253Z AUTO 00000KT 10SM OVC050 11/08 A3028 RMK AO2 RAE04 SLP256 P0000 T01060078=
201010182153 METAR KCLM 182153Z AUTO 00000KT 10SM -RA OVC050 10/07 A3029 RMK AO2 RAB41 SLP260 P0000 T01000072=
201010182053 METAR KCLM 182053Z AUTO 00000KT 10SM OVC060 10/07 A3030 RMK AO2 SLP261 T01000067 58000=
201010181953 METAR KCLM 181953Z AUTO 00000KT 10SM OVC085 11/07 A3029 RMK AO2 SLP260 T01060067=
201010181853 METAR KCLM 181853Z AUTO 00000KT 10SM BKN080 OVC100 11/06 A3030 RMK AO2 SLP262 T01110061=
201010181753 METAR KCLM 181753Z AUTO 34003KT 10SM FEW085 11/06 A3030 RMK AO2 SLP260 T01060061 10111 20056 51005=
201010181653 METAR KCLM 181653Z AUTO 00000KT 10SM BKN100 11/04 A3029 RMK AO2 SLP258 T01060044=
201010181553 METAR KCLM 181553Z AUTO 00000KT 10SM SCT090 BKN110 09/05 A3029 RMK AO2 SLP260 T00890050=
201010181453 METAR KCLM 181453Z AUTO 00000KT 10SM FEW100 07/04 A3028 RMK AO2 SLP256 T00720039 51005=
201010181353 METAR KCLM 181353Z AUTO 00000KT 10SM BKN090 07/04 A3027 RMK AO2 SLP252 T00670039=
201010181253 METAR KCLM 181253Z AUTO 00000KT 10SM SCT110 06/04 A3028 RMK AO2 SLP255 T00560039=
201010181153 METAR KCLM 181153Z AUTO 00000KT 10SM BKN120 06/03 A3026 RMK AO2 SLP249 T00610028 10072 20033 50007=
201010181053 METAR KCLM 181053Z AUTO 00000KT 10SM SCT120 05/03 A3029 RMK AO2 SLP256 T00500033=
201010180953 METAR KCLM 180953Z AUTO 00000KT 10SM CLR 04/02 A3027 RMK AO2 SLP253 T00440022=
201010180853 METAR KCLM 180853Z AUTO 14005KT 10SM CLR 05/03 A3024 RMK AO2 SLP242 T00500033 58008=
201010180753 METAR KCLM 180753Z AUTO 22003KT 10SM CLR 06/03 A3025 RMK AO2 SLP243 T00560028 401280000=
201010180653 METAR KCLM 180653Z AUTO 23005KT 10SM CLR 07/03 A3027 RMK AO2 SLP251 T00720028=
201010180553 METAR KCLM 180553Z AUTO 24003KT 10SM CLR 06/03 A3027 RMK AO2 SLP251 T00610028 10117 20039 53012 TSNO=
201010180453 METAR KCLM 180453Z AUTO 00000KT 10SM CLR 06/03 A3025 RMK AO2 SLP245 T00560028=
201010180353 METAR KCLM 180353Z AUTO 23005KT 10SM CLR 06/03 A3024 RMK AO2 SLP241 T00560028=
201010180253 METAR KCLM 180253Z AUTO 00000KT 10SM CLR 06/03 A3023 RMK AO2 SLP238 T00560033 55002=
201010180153 METAR KCLM 180153Z AUTO 23004KT 10SM CLR 07/04 A3022 RMK AO2 SLP236 T00720044=
201010180053 METAR KCLM 180053Z AUTO 00000KT 10SM CLR 10/05 A3023 RMK AO2 SLP238 T01000050=
201010172353 METAR KCLM 172353Z AUTO 00000KT 10SM CLR 12/04 A3023 RMK AO2 SLP240 T01170044 10128 20094 55010=
201010172253 METAR KCLM 172253Z AUTO 00000KT 10SM CLR 13/04 A3023 RMK AO2 SLP237 T01280039=
201010172153 METAR KCLM 172153Z AUTO 03005KT 10SM CLR 11/06 A3025 RMK AO2 SLP244 T01110061=
201010172053 METAR KCLM 172053Z AUTO 08004KT 10SM CLR 11/06 A3027 RMK AO2 SLP251 T01110061 58006=
201010171953 METAR KCLM 171953Z AUTO 09005KT 10SM CLR 11/06 A3029 RMK AO2 SLP257 T01060061=
201010171853 METAR KCLM 171853Z AUTO 07006KT 10SM CLR 10/06 A3029 RMK AO2 SLP260 T01000056=
201010171753 METAR KCLM 171753Z AUTO 08004KT 10SM CLR 09/05 A3028 RMK AO2 SLP257 T00940050 10094 20000 51005=
201010171653 METAR KCLM 171653Z AUTO 10004KT 10SM CLR 09/05 A3028 RMK AO2 SLP257 T00890050=
201010171553 METAR KCLM 171553Z AUTO 22004KT 10SM CLR 04/01 A3028 RMK AO2 SLP255 T00440011=
201010171453 METAR KCLM 171453Z AUTO 23005KT 10SM CLR 02/M01 A3027 RMK AO2 SLP253 T00171006 53007 FZRANO=
201010171353 METAR KCLM 171353Z AUTO 23005KT 10SM CLR 03/00 A3025 RMK AO2 SLP245 T00280000=
201010171253 METAR KCLM 171253Z AUTO 00000KT 10SM CLR 00/M02 A3025 RMK AO2 SLP244 T00001017 FZRANO=
201010171153 METAR KCLM 171153Z AUTO 21003KT 10SM CLR 02/00 A3025 RMK AO2 SLP244 T00170000 10061 20000 51003 FZRANO=
201010171053 METAR KCLM 171053Z AUTO 22004KT 10SM CLR 01/M01 A3024 RMK AO2 SLP243 T00111006 FZRANO=
201010170953 METAR KCLM 170953Z AUTO 00000KT 10SM CLR 00/M01 A3024 RMK AO2 SLP243 T00001011 FZRANO=
201010170853 METAR KCLM 170853Z AUTO 00000KT 10SM CLR 01/M01 A3024 RMK AO2 SLP241 T00111006 53003 FZRANO=
201010170753 METAR KCLM 170753Z AUTO 23004KT 10SM CLR 04/01 A3023 RMK AO2 SLP238 T00390006 401280022=
201010170653 METAR KCLM 170653Z AUTO 22004KT 10SM CLR 04/01 A3023 RMK AO2 SLP238 T00440011=
201010170553 METAR KCLM 170553Z AUTO 24006KT 10SM CLR 06/02 A3023 RMK AO2 SLP238 T00560017 10117 20039 53007=
201010170453 METAR KCLM 170453Z AUTO 26008KT 10SM CLR 06/02 A3022 RMK AO2 SLP234 T00610022=
201010170353 METAR KCLM 170353Z AUTO 26004KT 10SM CLR 06/02 A3021 RMK AO2 SLP231 T00560022=
201010170253 METAR KCLM 170253Z AUTO 23003KT 10SM CLR 05/03 A3021 RMK AO2 SLP231 T00500028 53003=
201010170153 METAR KCLM 170153Z AUTO 23003KT 10SM CLR 06/04 A3019 RMK AO2 SLP226 T00610039=
201010170053 METAR KCLM 170053Z AUTO 00000KT 10SM CLR 09/05 A3020 RMK AO2 SLP228 T00890050=
201010162353 METAR KCLM 162353Z AUTO 05003KT 10SM CLR 12/03 A3020 RMK AO2 SLP227 T01170033 10128 20094 58007=
201010162253 METAR KCLM 162253Z AUTO 04003KT 10SM CLR 12/04 A3021 RMK AO2 SLP231 T01220039=
201010162153 METAR KCLM 162153Z AUTO 10003KT 10SM CLR 12/03 A3021 RMK AO2 SLP232 T01170033=
201010162053 METAR KCLM 162053Z AUTO 12004KT 10SM CLR 12/04 A3022 RMK AO2 SLP234 T01170039 58007=
201010161953 METAR KCLM 161953Z AUTO VRB05KT 10SM CLR 11/04 A3023 RMK AO2 SLP238 T01110044=
201010161853 METAR KCLM 161853Z AUTO 08005KT 10SM CLR 11/04 A3024 RMK AO2 SLP241 T01060044=
201010161824 SPECI KCLM 161824Z AUTO 11005KT 10SM SCT019 11/05 A3023 RMK AO2=
201010161824 SPECI KCLM 161824Z AUTO 11005KT 10SM SCT019 11/05 A3023 RMK AO2=
201010161813 SPECI KCLM 161813Z AUTO 11004KT 10SM BKN019 09/05 A3024 RMK AO2=
201010161813 SPECI KCLM 161813Z AUTO 11004KT 10SM BKN019 09/05 A3024 RMK AO2=
201010161753 METAR KCLM 161753Z AUTO 11004KT 10SM FEW021 10/05 A3024 RMK AO2 SLP242 T01000050 10100 20022 53005=
201010161653 METAR KCLM 161653Z AUTO 11005KT 10SM CLR 09/04 A3023 RMK AO2 SLP240 T00940044=
201010161553 METAR KCLM 161553Z AUTO 23005KT 10SM CLR 05/02 A3023 RMK AO2 SLP239 T00500017=
201010161453 METAR KCLM 161453Z AUTO 21003KT 10SM CLR 03/01 A3022 RMK AO2 SLP238 T00330011 56002=
201010161353 METAR KCLM 161353Z AUTO 23007KT 10SM FEW020 04/02 A3023 RMK AO2 SLP238 T00390017=
201010161342 SPECI KCLM 161342Z AUTO 22006KT 10SM SCT018 SCT032 04/02 A3023 RMK AO2=
201010161342 SPECI KCLM 161342Z AUTO 22006KT 10SM SCT018 SCT032 04/02 A3023 RMK AO2=
201010161335 SPECI KCLM 161335Z AUTO 23006KT 10SM BKN018 BKN030 04/02 A3023 RMK AO2=
201010161335 SPECI KCLM 161335Z AUTO 23006KT 10SM BKN018 BKN030 04/02 A3023 RMK AO2=
201010161306 SPECI KCLM 161306Z AUTO 22006KT 10SM FEW018 OVC030 04/02 A3023 RMK AO2=
201010161306 SPECI KCLM 161306Z AUTO 22006KT 10SM FEW018 OVC030 04/02 A3023 RMK AO2=
201010161253 METAR KCLM 161253Z AUTO 23006KT 10SM SCT016 OVC028 04/02 A3023 RMK AO2 SLP238 T00440022=
201010161201 SPECI KCLM 161201Z AUTO 22003KT 10SM BKN019 03/01 A3023 RMK AO2=
201010161201 SPECI KCLM 161201Z AUTO 22003KT 10SM BKN019 03/01 A3023 RMK AO2=
201010161153 METAR KCLM 161153Z AUTO 22005KT 10SM SCT019 03/02 A3023 RMK AO2 SLP239 T00330017 10039 20017 57008=
201010161053 METAR KCLM 161053Z AUTO 23005KT 10SM FEW021 03/01 A3024 RMK AO2 SLP242 T00330011=
201010160953 METAR KCLM 160953Z AUTO 23006KT 10SM CLR 03/01 A3025 RMK AO2 SLP244 T00280011=
201010160853 METAR KCLM 160853Z AUTO 23005KT 10SM CLR 03/01 A3025 RMK AO2 SLP247 T00330011 56013=
201010160753 METAR KCLM 160753Z AUTO 22005KT 10SM CLR 03/01 A3026 RMK AO2 SLP250 T00280011 401170017=
201010160653 METAR KCLM 160653Z AUTO 00000KT 10SM CLR 02/01 A3028 RMK AO2 SLP255 T00170006 FZRANO=
201010160553 METAR KCLM 160553Z AUTO 00000KT 10SM CLR 03/02 A3029 RMK AO2 SLP260 T00280017 10106 20028 56010=
201010160453 METAR KCLM 160453Z AUTO 21003KT 10SM CLR 04/02 A3030 RMK AO2 SLP262 T00390022=
201010160353 METAR KCLM 160353Z AUTO 22004KT 10SM CLR 04/02 A3030 RMK AO2 SLP263 T00390022=
201010160253 METAR KCLM 160253Z AUTO 00000KT 10SM CLR 03/02 A3032 RMK AO2 SLP271 T00330022 58007=
201010160153 METAR KCLM 160153Z AUTO 00000KT 10SM CLR 06/03 A3034 RMK AO2 SLP275 T00610028=
201010160053 METAR KCLM 160053Z AUTO 00000KT 10SM CLR 11/02 A3034 RMK AO2 SLP275 T01060022=
201010152353 METAR KCLM 152353Z AUTO 08004KT 10SM CLR 11/02 A3035 RMK AO2 SLP278 T01060022 10117 20100 58010=
201010152253 METAR KCLM 152253Z AUTO 08003KT 10SM CLR 11/04 A3037 RMK AO2 SLP284 T01110039=
201010152153 METAR KCLM 152153Z AUTO VRB03KT 10SM CLR 12/05 A3037 RMK AO2 SLP285 T01170050=
201010152053 METAR KCLM 152053Z AUTO 06004KT 10SM CLR 12/05 A3038 RMK AO2 SLP288 T01170050 50002=
201010151953 METAR KCLM 151953Z AUTO 00000KT 10SM CLR 11/06 A3039 RMK AO2 SLP290 T01110056=
201010151853 METAR KCLM 151853Z AUTO 35006KT 10SM CLR 11/06 A3037 RMK AO2 SLP286 T01060056=
201010151753 METAR KCLM 151753Z AUTO VRB04KT 10SM CLR 11/04 A3037 RMK AO2 SLP286 T01110039 10111 20039 51013=
201010151653 METAR KCLM 151653Z AUTO 24006KT 10SM CLR 10/02 A3037 RMK AO2 SLP285 T01000017=
201010151553 METAR KCLM 151553Z AUTO 26007KT 10SM CLR 08/02 A3035 RMK AO2 SLP280 T00780017=
201010151453 METAR KCLM 151453Z AUTO 25009KT 10SM CLR 07/02 A3033 RMK AO2 SLP273 T00720017 52013=
201010151353 METAR KCLM 151353Z AUTO 25009KT 10SM CLR 07/02 A3032 RMK AO2 SLP268 T00670022=
201010151253 METAR KCLM 151253Z AUTO 25008KT 10SM FEW055 07/03 A3031 RMK AO2 SLP265 T00670028=
201010151153 METAR KCLM 151153Z AUTO 22004KT 10SM CLR 05/03 A3030 RMK AO2 SLP260 T00500028 10094 20050 51014=
201010151053 METAR KCLM 151053Z AUTO 32006KT 10SM BKN050 07/03 A3029 RMK AO2 SLP259 T00720028=
201010150953 METAR KCLM 150953Z AUTO 24006KT 10SM CLR 07/03 A3028 RMK AO2 SLP253 T00720028=
201010150853 METAR KCLM 150853Z AUTO 22004KT 10SM BKN047 OVC055 08/03 A3026 RMK AO2 SLP247 T00780033 53013=
201010150753 METAR KCLM 150753Z AUTO 26005KT 10SM CLR 08/03 A3024 RMK AO2 SLP241 T00830028 401330044=
201010150653 METAR KCLM 150653Z AUTO 25006KT 10SM CLR 09/03 A3023 RMK AO2 SLP237 T00890033=
201010150553 METAR KCLM 150553Z AUTO 27005KT 10SM OVC080 09/03 A3022 RMK AO2 SLP234 T00890033 10122 20078 53015=
201010150453 METAR KCLM 150453Z AUTO 28011KT 10SM SCT060 09/06 A3020 RMK AO2 SLP229 T00890056=
201010150353 METAR KCLM 150353Z AUTO 26007KT 10SM CLR 08/03 A3018 RMK AO2 SLP222 T00830028=
201010150253 METAR KCLM 150253Z AUTO 28007KT 10SM CLR 10/03 A3017 RMK AO2 SLP218 T01000033 51009=
201010150153 METAR KCLM 150153Z AUTO 29007KT 10SM CLR 11/04 A3017 RMK AO2 SLP216 T01060039=
201010150053 METAR KCLM 150053Z AUTO 30015G21KT 10SM CLR 12/04 A3015 RMK AO2 SLP212 T01170044=
201010142353 METAR KCLM 142353Z AUTO 30008KT 260V320 10SM BKN048 12/06 A3015 RMK AO2 SLP209 T01220056 10133 20117 53004=
201010142253 METAR KCLM 142253Z AUTO 31010G17KT 10SM OVC042 12/07 A3015 RMK AO2 SLP209 T01220067=
201010142153 METAR KCLM 142153Z AUTO 30007KT 10SM SCT034 OVC060 13/06 A3013 RMK AO2 SLP205 T01280056=
201010142053 METAR KCLM 142053Z AUTO 31006KT 10SM OVC045 12/07 A3013 RMK AO2 SLP205 T01220072 58001=
201010141953 METAR KCLM 141953Z AUTO 30007G14KT 10SM FEW035 OVC060 13/07 A3014 RMK AO2 SLP207 T01280067=
201010141914 SPECI KCLM 141914Z AUTO 29009KT 10SM SCT030 BKN036 OVC060 12/08 A3014 RMK AO2=
201010141914 SPECI KCLM 141914Z AUTO 29009KT 10SM SCT030 BKN036 OVC060 12/08 A3014 RMK AO2=
201010141853 METAR KCLM 141853Z AUTO 29008KT 10SM BKN027 BKN033 OVC060 12/09 A3014 RMK AO2 SLP208 T01170089=
201010141840 SPECI KCLM 141840Z AUTO 29007KT 10SM FEW015 BKN027 OVC065 12/08 A3014 RMK AO2=
201010141840 SPECI KCLM 141840Z AUTO 29007KT 10SM FEW015 BKN027 OVC065 12/08 A3014 RMK AO2=
201010141806 SPECI KCLM 141806Z AUTO 33006KT 10SM SCT029 BKN033 OVC065 12/09 A3014 RMK AO2=
201010141806 SPECI KCLM 141806Z AUTO 33006KT 10SM SCT029 BKN033 OVC065 12/09 A3014 RMK AO2=
201010141753 METAR KCLM 141753Z AUTO 30007KT 10SM BKN029 OVC065 12/09 A3014 RMK AO2 SLP206 T01170094 10117 20044 51011=
201010141653 METAR KCLM 141653Z AUTO 27009KT 10SM OVC019 11/09 A3013 RMK AO2 SLP204 T01110089=
201010141633 SPECI KCLM 141633Z AUTO 26008KT 10SM SCT008 BKN016 OVC022 11/09 A3013 RMK AO2=
201010141633 SPECI KCLM 141633Z AUTO 26008KT 10SM SCT008 BKN016 OVC022 11/09 A3013 RMK AO2=
201010141607 SPECI KCLM 141607Z AUTO 26006KT 10SM OVC008 10/08 A3012 RMK AO2 CIG 007V011=
201010141607 SPECI KCLM 141607Z AUTO 26006KT 10SM OVC008 10/08 A3012 RMK AO2 CIG 007V011=
201010141553 METAR KCLM 141553Z AUTO 27008KT 10SM OVC010 10/07 A3012 RMK AO2 CIG 008V013 SLP200 T01000072=
201010141523 SPECI KCLM 141523Z AUTO 24006KT 10SM BKN012 OVC065 09/06 A3011 RMK AO2=
201010141523 SPECI KCLM 141523Z AUTO 24006KT 10SM BKN012 OVC065 09/06 A3011 RMK AO2=
201010141453 METAR KCLM 141453Z AUTO 24004KT 10SM OVC070 07/05 A3010 RMK AO2 SLP195 T00720050 53009=
201010141353 METAR KCLM 141353Z AUTO 24004KT 10SM FEW075 07/04 A3009 RMK AO2 SLP192 T00670044=
201010141253 METAR KCLM 141253Z AUTO 28004KT 10SM FEW090 05/04 A3008 RMK AO2 SLP187 T00500039=
201010141153 METAR KCLM 141153Z AUTO 00000KT 10SM CLR 06/04 A3008 RMK AO2 SLP186 T00610044 10083 20044 58001=
201010141053 METAR KCLM 141053Z AUTO 23005KT 10SM CLR 07/04 A3008 RMK AO2 SLP187 T00670044=
201010140953 METAR KCLM 140953Z AUTO 24006KT 10SM CLR 06/04 A3008 RMK AO2 SLP187 T00610044=
201010140853 METAR KCLM 140853Z AUTO 00000KT 10SM CLR 04/03 A3008 RMK AO2 SLP186 T00440033 50002=
201010140753 METAR KCLM 140753Z AUTO 00000KT 10SM CLR 05/04 A3008 RMK AO2 SLP187 T00500039 401440022=
201010140653 METAR KCLM 140653Z AUTO 23004KT 10SM CLR 06/05 A3008 RMK AO2 SLP186 T00610050=
201010140553 METAR KCLM 140553Z AUTO 22004KT 10SM CLR 09/07 A3007 RMK AO2 SLP184 T00890067 10144 20056 53008=
201010140453 METAR KCLM 140453Z AUTO 26003KT 10SM CLR 08/06 A3006 RMK AO2 SLP180 T00780061=
201010140353 METAR KCLM 140353Z AUTO 00000KT 10SM CLR 07/06 A3006 RMK AO2 SLP179 T00720061=
201010140253 METAR KCLM 140253Z AUTO 21003KT 10SM CLR 09/07 A3005 RMK AO2 SLP178 T00940072 55002=
201010140153 METAR KCLM 140153Z AUTO 21005KT 10SM CLR 11/08 A3005 RMK AO2 SLP176 T01060083=
201010140053 METAR KCLM 140053Z AUTO 00000KT 10SM CLR 13/07 A3005 RMK AO2 SLP176 T01280067=
201010132353 METAR KCLM 132353Z AUTO 00000KT 10SM CLR 14/07 A3006 RMK AO2 SLP179 T01390072 10139 20106 56007=
201010132253 METAR KCLM 132253Z AUTO 02003KT 10SM CLR 13/07 A3006 RMK AO2 SLP181 T01280072=
201010132153 METAR KCLM 132153Z AUTO 08004KT 10SM CLR 13/07 A3006 RMK AO2 SLP181 T01330072=
201010132053 METAR KCLM 132053Z AUTO 08004KT 10SM CLR 13/08 A3008 RMK AO2 SLP186 T01280083 58026=
201010131953 METAR KCLM 131953Z AUTO 06005KT 10SM CLR 12/08 A3010 RMK AO2 SLP194 T01220078=
201010131909 SPECI KCLM 131909Z AUTO 09006KT 10SM SCT010 12/08 A3012 RMK AO2=
201010131909 SPECI KCLM 131909Z AUTO 09006KT 10SM SCT010 12/08 A3012 RMK AO2=
201010131853 METAR KCLM 131853Z AUTO 07004KT 10SM BKN010 11/08 A3013 RMK AO2 SLP204 T01110083=
201010131802 SPECI KCLM 131802Z AUTO 09005KT 10SM BKN010 11/08 A3015 RMK AO2=
201010131802 SPECI KCLM 131802Z AUTO 09005KT 10SM BKN010 11/08 A3015 RMK AO2=
201010131753 METAR KCLM 131753Z AUTO 12004KT 10SM BKN008 11/09 A3015 RMK AO2 SLP212 T01110089 10111 20022 57009=
201010131653 METAR KCLM 131653Z AUTO 12003KT 8SM OVC006 10/09 A3017 RMK AO2 CIG 005V009 SLP216 T01000089=
201010131553 METAR KCLM 131553Z AUTO 15003KT 8SM BKN008 09/08 A3017 RMK AO2 CIG 005V010 SLP217 T00940083=
201010131453 METAR KCLM 131453Z AUTO 16003KT 10SM BKN008 06/05 A3018 RMK AO2 CIG 006V011 SLP222 T00560050 56009=
201010131446 SPECI KCLM 131446Z AUTO 17004KT 10SM BKN008 05/04 A3018 RMK AO2=
201010131446 SPECI KCLM 131446Z AUTO 17004KT 10SM BKN008 05/04 A3018 RMK AO2=
201010131437 SPECI KCLM 131437Z AUTO 15004KT 10SM SCT008 04/03 A3018 RMK AO2=
201010131437 SPECI KCLM 131437Z AUTO 15004KT 10SM SCT008 04/03 A3018 RMK AO2=
201010131353 METAR KCLM 131353Z AUTO 16003KT 10SM CLR 03/02 A3019 RMK AO2 SLP225 T00280017=
201010131253 METAR KCLM 131253Z AUTO 14003KT 10SM CLR 03/03 A3019 RMK AO2 SLP225 T00330028=
201010131153 METAR KCLM 131153Z AUTO 00000KT 10SM CLR 04/03 A3021 RMK AO2 SLP231 T00390033 10072 20028 58014=
201010131053 METAR KCLM 131053Z AUTO 00000KT 10SM CLR 05/04 A3023 RMK AO2 SLP236 T00500039=
201010130953 METAR KCLM 130953Z AUTO 00000KT 10SM CLR 04/04 A3024 RMK AO2 SLP242 T00440039=
201010130853 METAR KCLM 130853Z AUTO 00000KT 10SM CLR 05/04 A3025 RMK AO2 SLP244 T00500044 58013=
201010130753 METAR KCLM 130753Z AUTO 00000KT 10SM CLR 05/04 A3027 RMK AO2 SLP251 T00500044 401330050=
201010130653 METAR KCLM 130653Z AUTO 00000KT 10SM CLR 06/05 A3028 RMK AO2 SLP254 T00560050=
201010130553 METAR KCLM 130553Z AUTO 16003KT 10SM CLR 08/07 A3029 RMK AO2 SLP258 T00780067 10133 20056 58004=
201010130453 METAR KCLM 130453Z AUTO 00000KT 10SM CLR 07/06 A3030 RMK AO2 SLP261 T00720061=
201010130353 METAR KCLM 130353Z AUTO 00000KT 10SM CLR 08/07 A3030 RMK AO2 SLP261 T00830072=
201010130253 METAR KCLM 130253Z AUTO 00000KT 10SM CLR 09/08 A3030 RMK AO2 SLP262 T00890078 55006=
201010130153 METAR KCLM 130153Z AUTO 13003KT 10SM CLR 10/08 A3030 RMK AO2 SLP261 T01000078=
201010130053 METAR KCLM 130053Z AUTO 00000KT 10SM FEW100 12/08 A3032 RMK AO2 SLP267 T01220083=
201010122353 METAR KCLM 122353Z AUTO 00000KT 10SM FEW100 13/08 A3032 RMK AO2 SLP268 T01330078 10133 20106 58013=
201010122253 METAR KCLM 122253Z AUTO 02003KT 10SM CLR 12/08 A3034 RMK AO2 SLP274 T01220083=
201010122153 METAR KCLM 122153Z AUTO VRB03KT 10SM CLR 12/08 A3034 RMK AO2 SLP276 T01220083=
201010122053 METAR KCLM 122053Z AUTO 01003KT 10SM CLR 13/08 A3036 RMK AO2 SLP281 T01280083 58008=
201010121953 METAR KCLM 121953Z AUTO 02003KT 10SM CLR 13/08 A3038 RMK AO2 SLP287 T01280083=
201010121853 METAR KCLM 121853Z AUTO 07003KT 10SM CLR 11/08 A3037 RMK AO2 SLP286 T01110083=
201010121753 METAR KCLM 121753Z AUTO 00000KT 10SM CLR 11/08 A3038 RMK AO2 SLP290 T01060083 10111 20072 53008=
201010121653 METAR KCLM 121653Z AUTO 36003KT 10SM CLR 11/08 A3038 RMK AO2 SLP290 T01110083=
201010121553 METAR KCLM 121553Z AUTO 12004KT 10SM CLR 09/08 A3034 RMK AO2 SLP274 T00890078=
201010121453 METAR KCLM 121453Z AUTO 22006KT 10SM FEW001 07/07 A3036 RMK AO2 SLP282 T00720067 58003=
201010121442 SPECI KCLM 121442Z AUTO 22005KT 4SM BR SCT001 07/07 A3036 RMK AO2=
201010121442 SPECI KCLM 121442Z AUTO 22005KT 4SM BR SCT001 07/07 A3036 RMK AO2=
201010121439 SPECI KCLM 121439Z AUTO 22003KT 1 1/4SM BR SCT001 07/07 A3036 RMK AO2=
201010121439 SPECI KCLM 121439Z AUTO 22003KT 1 1/4SM BR SCT001 07/07 A3036 RMK AO2=
201010121436 SPECI KCLM 121436Z AUTO 22003KT 3/4SM BR VV001 07/07 A3035 RMK AO2=
201010121436 SPECI KCLM 121436Z AUTO 22003KT 3/4SM BR VV001 07/07 A3035 RMK AO2=
201010121412 SPECI KCLM 121412Z AUTO 13004KT 1/4SM FG VV001 07/07 A3035 RMK AO2 TSNO=
201010121412 SPECI KCLM 121412Z AUTO 13004KT 1/4SM FG VV001 07/07 A3035 RMK AO2 TSNO=
201010121402 SPECI KCLM 121402Z AUTO 00000KT 1 3/4SM BR OVC001 07/07 A3037 RMK AO2 TSNO=
201010121402 SPECI KCLM 121402Z AUTO 00000KT 1 3/4SM BR OVC001 07/07 A3037 RMK AO2 TSNO=
201010121353 METAR KCLM 121353Z AUTO 00000KT 10SM OVC001 08/07 A3037 RMK AO2 SLP285 T00780072=
201010121342 SPECI KCLM 121342Z AUTO 14003KT 10SM OVC001 08/07 A3037 RMK AO2=
201010121342 SPECI KCLM 121342Z AUTO 14003KT 10SM OVC001 08/07 A3037 RMK AO2=
201010121313 SPECI KCLM 121313Z AUTO 00000KT 10SM BKN003 08/07 A3038 RMK AO2=
201010121313 SPECI KCLM 121313Z AUTO 00000KT 10SM BKN003 08/07 A3038 RMK AO2=
201010121305 SPECI KCLM 121305Z AUTO 00000KT 10SM SCT003 08/07 A3038 RMK AO2=
201010121305 SPECI KCLM 121305Z AUTO 00000KT 10SM SCT003 08/07 A3038 RMK AO2=
201010121253 METAR KCLM 121253Z AUTO 26004KT 10SM CLR 08/07 A3039 RMK AO2 SLP291 T00780067=
201010121153 METAR KCLM 121153Z AUTO 00000KT 10SM OVC065 09/07 A3037 RMK AO2 SLP284 T00890072 10100 20078 58013=
201010121053 METAR KCLM 121053Z AUTO 00000KT 10SM BKN060 08/07 A3038 RMK AO2 SLP290 T00830067=
201010120953 METAR KCLM 120953Z AUTO 00000KT 10SM OVC050 09/07 A3040 RMK AO2 SLP295 T00940072=
201010120853 METAR KCLM 120853Z AUTO 00000KT 10SM OVC050 09/07 A3041 RMK AO2 SLP297 T00890072 58001=
201010120753 METAR KCLM 120753Z AUTO 00000KT 10SM OVC055 09/07 A3041 RMK AO2 SLP299 T00890067 401500056=
201010120653 METAR KCLM 120653Z AUTO 19003KT 10SM OVC060 08/07 A3042 RMK AO2 SLP301 T00830067=
201010120553 METAR KCLM 120553Z AUTO 15003KT 10SM OVC070 08/07 A3041 RMK AO2 SLP299 60000 T00780067 10117 20078 50003=
201010120453 METAR KCLM 120453Z AUTO 00000KT 10SM OVC070 08/07 A3041 RMK AO2 SLP300 T00830072=
201010120353 METAR KCLM 120353Z AUTO 00000KT 10SM BKN060 OVC075 09/07 A3041 RMK AO2 SLP298 T00890072=
201010120253 METAR KCLM 120253Z AUTO 00000KT 10SM BKN065 OVC080 10/08 A3040 RMK AO2 SLP295 60000 T01000078 53001=
201010120153 METAR KCLM 120153Z AUTO 23003KT 10SM BKN080 OVC100 10/07 A3040 RMK AO2 RAB04E38 SLP295 P0000 T01000072=
201010120053 METAR KCLM 120053Z AUTO 00000KT 10SM BKN070 OVC090 11/07 A3039 RMK AO2 SLP293 T01060067=
201010112353 METAR KCLM 112353Z AUTO 00000KT 10SM FEW060 OVC080 12/07 A3040 RMK AO2 SLP294 T01170067 10150 20106 56005=
201010112253 METAR KCLM 112253Z AUTO 00000KT 10SM FEW070 OVC085 13/07 A3041 RMK AO2 SLP298 T01280067=
201010112153 METAR KCLM 112153Z AUTO 02004KT 10SM FEW070 BKN100 14/06 A3039 RMK AO2 SLP291 T01440056=
201010112053 METAR KCLM 112053Z AUTO 00000KT 10SM OVC070 11/06 A3041 RMK AO2 SLP300 T01110061 58001=
201010111953 METAR KCLM 111953Z AUTO 33004KT 10SM FEW075 11/04 A3042 RMK AO2 SLP302 T01110044=
201010111853 METAR KCLM 111853Z AUTO VRB03KT 10SM FEW080 12/05 A3042 RMK AO2 SLP301 T01220050=
201010111753 METAR KCLM 111753Z AUTO 00000KT 10SM CLR 13/03 A3042 RMK AO2 SLP301 T01280028 10128 20056 51004=
201010111653 METAR KCLM 111653Z AUTO 23005KT 10SM BKN120 11/04 A3041 RMK AO2 SLP300 T01060039=
201010111553 METAR KCLM 111553Z AUTO 24007KT 10SM CLR 08/03 A3041 RMK AO2 SLP298 T00830033=
201010111453 METAR KCLM 111453Z AUTO 24005KT 10SM CLR 07/02 A3040 RMK AO2 SLP297 T00670022 53012=
201010111353 METAR KCLM 111353Z AUTO 24007KT 10SM CLR 07/03 A3039 RMK AO2 SLP291 T00720028=
201010111253 METAR KCLM 111253Z AUTO 24010KT 10SM CLR 08/03 A3038 RMK AO2 SLP288 T00780033=
201010111153 METAR KCLM 111153Z AUTO 25009KT 10SM CLR 07/03 A3037 RMK AO2 SLP285 T00720033 10089 20072 51007=
201010111053 METAR KCLM 111053Z AUTO 24010KT 10SM CLR 08/03 A3036 RMK AO2 SLP283 T00780033=
201010110953 METAR KCLM 110953Z AUTO 25010KT 10SM CLR 08/04 A3036 RMK AO2 SLP281 T00780039=
201010110853 METAR KCLM 110853Z AUTO 25010KT 10SM CLR 08/04 A3035 RMK AO2 SLP278 T00830039 51008=
201010110753 METAR KCLM 110753Z AUTO 25009KT 10SM CLR 09/04 A3034 RMK AO2 SLP277 T00890044 401500083=
201010110653 METAR KCLM 110653Z AUTO 25006KT 10SM CLR 08/04 A3033 RMK AO2 SLP273 T00830044=
201010110553 METAR KCLM 110553Z AUTO 25007KT 10SM CLR 09/06 A3032 RMK AO2 SLP270 T00890056 10139 20089 51008=
201010110453 METAR KCLM 110453Z AUTO 25008KT 10SM CLR 09/06 A3032 RMK AO2 SLP268 T00940056=
201010110353 METAR KCLM 110353Z AUTO 26009KT 10SM CLR 09/06 A3031 RMK AO2 SLP263 T00940061=
201010110253 METAR KCLM 110253Z AUTO 25007KT 10SM CLR 09/07 A3030 RMK AO2 SLP261 T00890067 53004=
201010110153 METAR KCLM 110153Z AUTO 29005KT 10SM CLR 10/06 A3029 RMK AO2 SLP257 T01000061=
201010110053 METAR KCLM 110053Z AUTO 30008KT 10SM CLR 12/06 A3029 RMK AO2 SLP257 T01220061=
201010102353 METAR KCLM 102353Z AUTO 30011KT 10SM CLR 14/07 A3029 RMK AO2 SLP256 T01390067 10150 20128 53002=
201010102253 METAR KCLM 102253Z AUTO 30014G19KT 10SM CLR 14/07 A3028 RMK AO2 SLP254 T01440072=
201010102153 METAR KCLM 102153Z AUTO 31012G19KT 10SM CLR 15/07 A3028 RMK AO2 SLP255 T01500067=
201010102053 METAR KCLM 102053Z AUTO 30013G19KT 10SM CLR 15/07 A3028 RMK AO2 SLP255 T01500072 53002=
201010101953 METAR KCLM 101953Z AUTO 30017G22KT 10SM CLR 14/08 A3027 RMK AO2 SLP251 T01440078=
201010101853 METAR KCLM 101853Z AUTO 28013KT 10SM CLR 13/08 A3026 RMK AO2 SLP247 T01330083=
201010101753 METAR KCLM 101753Z AUTO 28010KT 10SM CLR 12/08 A3028 RMK AO2 RAE17 SLP254 P0000 60000 T01220083 10128 20106 50020=
201010101653 METAR KCLM 101653Z AUTO 25005KT 10SM -RA OVC060 12/09 A3028 RMK AO2 RAB20 SLP255 P0000 T01220089=
201010101553 METAR KCLM 101553Z AUTO 10SM OVC060 11/09 A3025 RMK AO2 SLP244 T01060089 $=
201010101453 METAR KCLM 101453Z AUTO 10SM CLR 12/07 A3022 RMK AO2 SLP234 T01220067 53036 $=
201010101353 METAR KCLM 101353Z AUTO 10SM BKN047 12/07 A3017 RMK AO2 SLP217 T01220072 $=
201010101253 METAR KCLM 101253Z AUTO 10SM FEW110 12/08 A3015 RMK AO2 SLP211 T01170083 $=
201010101153 METAR KCLM 101153Z AUTO 10SM FEW060 SCT120 12/09 A3011 RMK AO2 RAE47 SLP197 P0000 60017 70021 T01220089 10139 20111 53013 $=
201010101053 METAR KCLM 101053Z AUTO 10SM -RA OVC090 12/09 A3008 RMK AO2 RAE17B36 SLP186 P0001 T01220094 $=
201010101007 SPECI KCLM 101007Z AUTO 8SM -RA FEW011 SCT021 OVC038 13/11 A3007 RMK AO2 P0001 $=
201010101007 SPECI KCLM 101007Z AUTO 8SM -RA FEW011 SCT021 OVC038 13/11 A3007 RMK AO2 P0001 $=
201010100953 METAR KCLM 100953Z AUTO 30009G25KT 5SM -RA BR FEW005 BKN021 OVC037 12/11 A3007 RMK AO2 PK WND 31028/0932 SLP184 P0010 T01220111 $=
201010100951 SPECI KCLM 100951Z AUTO 30013G25KT 4SM -RA BR SCT005 BKN012 OVC033 12/11 A3007 RMK AO2 PK WND 31028/0932 P0010 $=
201010100951 SPECI KCLM 100951Z AUTO 30013G25KT 4SM -RA BR SCT005 BKN012 OVC033 12/11 A3007 RMK AO2 PK WND 31028/0932 P0010 $=
201010100923 SPECI KCLM 100923Z AUTO 31014G24KT 4SM -RA BR OVC005 13/12 A3006 RMK AO2 P0009=
201010100923 SPECI KCLM 100923Z AUTO 31014G24KT 4SM -RA BR OVC005 13/12 A3006 RMK AO2 P0009=
201010100853 METAR KCLM 100853Z AUTO 24003KT 2 1/2SM RA BR OVC005 14/13 A3004 RMK AO2 SLP171 P0005 60006 T01390128 53027=
201010100832 SPECI KCLM 100832Z AUTO 23003KT 4SM -RA BR BKN007 BKN012 OVC022 13/13 A3002 RMK AO2 P0001=
201010100832 SPECI KCLM 100832Z AUTO 23003KT 4SM -RA BR BKN007 BKN012 OVC022 13/13 A3002 RMK AO2 P0001=
201010100819 SPECI KCLM 100819Z AUTO 00000KT 6SM -RA BR BKN014 BKN060 OVC075 13/12 A3000 RMK AO2 P0000=
201010100819 SPECI KCLM 100819Z AUTO 00000KT 6SM -RA BR BKN014 BKN060 OVC075 13/12 A3000 RMK AO2 P0000=
201010100753 METAR KCLM 100753Z AUTO 26003KT 10SM -RA BKN060 BKN080 OVC100 13/12 A2999 RMK AO2 SLP155 P0001 T01280122 401390106=
201010100653 METAR KCLM 100653Z AUTO 21004KT 6SM -RA BR FEW002 BKN060 OVC085 12/12 A2997 RMK AO2 RAB31 SLP151 P0000 T01220117=
201010100637 SPECI KCLM 100637Z AUTO 00000KT 3SM -RA BR FEW002 BKN065 BKN090 12/12 A2996 RMK AO2 RAB31 P0000=
201010100637 SPECI KCLM 100637Z AUTO 00000KT 3SM -RA BR FEW002 BKN065 BKN090 12/12 A2996 RMK AO2 RAB31 P0000=
201010100630 SPECI KCLM 100630Z AUTO 28004KT 1 1/2SM BR FEW002 SCT065 BKN090 11/11 A2997 RMK AO2 VIS 3/4V4=
201010100630 SPECI KCLM 100630Z AUTO 28004KT 1 1/2SM BR FEW002 SCT065 BKN090 11/11 A2997 RMK AO2 VIS 3/4V4=
201010100619 SPECI KCLM 100619Z AUTO 00000KT 2 1/2SM BR FEW055 SCT090 12/12 A2996 RMK AO2=
201010100619 SPECI KCLM 100619Z AUTO 00000KT 2 1/2SM BR FEW055 SCT090 12/12 A2996 RMK AO2=
201010100607 SPECI KCLM 100607Z AUTO 00000KT 3SM BR FEW001 SCT050 12/11 A2995 RMK AO2=
201010100607 SPECI KCLM 100607Z AUTO 00000KT 3SM BR FEW001 SCT050 12/11 A2995 RMK AO2=
201010100553 METAR KCLM 100553Z AUTO 22003KT 5SM BR FEW037 SCT055 BKN100 12/12 A2996 RMK AO2 RAB07E23 SLP144 P0000 60000 T01220117 10133 20117 58001=
201010100453 METAR KCLM 100453Z AUTO 28003KT 6SM BR SCT050 SCT070 OVC100 12/11 A2996 RMK AO2 RAE0354B14E47 SLP147 P0000 T01170111=
201010100353 METAR KCLM 100353Z AUTO 16003KT 5SM -RA BR SCT060 BKN095 12/12 A2996 RMK AO2 RAB21 SLP147 P0000 T01220117=
201010100300 SPECI KCLM 100300Z AUTO 00000KT 5SM BR SCT005 BKN047 BKN060 12/12 A2996 RMK AO2=
201010100300 SPECI KCLM 100300Z AUTO 00000KT 5SM BR SCT005 BKN047 BKN060 12/12 A2996 RMK AO2=
201010100253 METAR KCLM 100253Z AUTO 00000KT 4SM BR BKN005 BKN055 OVC095 12/12 A2996 RMK AO2 RAE0155B26E40 SLP145 P0000 60000 T01220117 50005=
201010100242 SPECI KCLM 100242Z AUTO 20004KT 10SM OVC005 13/12 A2997 RMK AO2 RAE0155B26E40 P0000=
201010100242 SPECI KCLM 100242Z AUTO 20004KT 10SM OVC005 13/12 A2997 RMK AO2 RAE0155B26E40 P0000=
201010100153 METAR KCLM 100153Z AUTO 00000KT 10SM -RA OVC003 13/12 A2996 RMK AO2 CIG 001V007 SLP147 P0000 T01280122=
201010100053 METAR KCLM 100053Z AUTO 26004KT 6SM -RA BR BKN003 BKN028 OVC065 13/12 A2995 RMK AO2 RAB20 SLP144 P0000 T01280122=
201010100033 SPECI KCLM 100033Z AUTO 30007KT 6SM -RA BR OVC003 12/12 A2997 RMK AO2 RAB20 CIG 001V007 P0000=
201010100033 SPECI KCLM 100033Z AUTO 30007KT 6SM -RA BR OVC003 12/12 A2997 RMK AO2 RAB20 CIG 001V007 P0000=
201010092353 METAR KCLM 092353Z AUTO 00000KT 10SM OVC005 13/12 A2994 RMK AO2 SLP140 60004 T01330122 10139 20122 56021=
201010092351 SPECI KCLM 092351Z AUTO 00000KT 10SM OVC005 13/12 A2995 RMK AO2=
201010092351 SPECI KCLM 092351Z AUTO 00000KT 10SM OVC005 13/12 A2995 RMK AO2=
201010092320 SPECI KCLM 092320Z AUTO 00000KT 10SM OVC003 13/12 A2996 RMK AO2=
201010092320 SPECI KCLM 092320Z AUTO 00000KT 10SM OVC003 13/12 A2996 RMK AO2=
201010092253 METAR KCLM 092253Z AUTO 00000KT 10SM BKN005 OVC065 13/12 A2998 RMK AO2 RAE16 SLP151 P0000 T01330122=
201010092230 SPECI KCLM 092230Z AUTO 00000KT 10SM BKN003 BKN050 OVC070 13/12 A2998 RMK AO2 RAE16 P0000=
201010092230 SPECI KCLM 092230Z AUTO 00000KT 10SM BKN003 BKN050 OVC070 13/12 A2998 RMK AO2 RAE16 P0000=
201010092219 SPECI KCLM 092219Z AUTO 31003KT 10SM BKN001 BKN010 13/12 A2999 RMK AO2 RAE16 P0000=
201010092219 SPECI KCLM 092219Z AUTO 31003KT 10SM BKN001 BKN010 13/12 A2999 RMK AO2 RAE16 P0000=
201010092210 SPECI KCLM 092210Z AUTO 00000KT 7SM -RA SCT001 BKN007 BKN010 13/12 A2999 RMK AO2 P0000=
201010092210 SPECI KCLM 092210Z AUTO 00000KT 7SM -RA SCT001 BKN007 BKN010 13/12 A2999 RMK AO2 P0000=
201010092203 SPECI KCLM 092203Z AUTO 34004KT 2 1/2SM -RA BR SCT001 OVC007 12/12 A3000 RMK AO2 P0000=
201010092203 SPECI KCLM 092203Z AUTO 34004KT 2 1/2SM -RA BR SCT001 OVC007 12/12 A3000 RMK AO2 P0000=
201010092153 METAR KCLM 092153Z AUTO 36004KT 5SM -RA BR OVC007 13/12 A3001 RMK AO2 SLP161 P0000 T01280117=
201010092142 SPECI KCLM 092142Z AUTO 00000KT 10SM -RA BKN005 BKN090 14/13 A3001 RMK AO2 P0000=
201010092142 SPECI KCLM 092142Z AUTO 00000KT 10SM -RA BKN005 BKN090 14/13 A3001 RMK AO2 P0000=
201010092121 SPECI KCLM 092121Z AUTO 30004KT 10SM FEW003 SCT022 BKN095 14/12 A3002 RMK AO2 RAE18 P0000=
201010092121 SPECI KCLM 092121Z AUTO 30004KT 10SM FEW003 SCT022 BKN095 14/12 A3002 RMK AO2 RAE18 P0000=
201010092113 SPECI KCLM 092113Z AUTO 31004KT 10SM -RA SCT003 BKN021 BKN090 13/12 A3002 RMK AO2 P0000=
201010092113 SPECI KCLM 092113Z AUTO 31004KT 10SM -RA SCT003 BKN021 BKN090 13/12 A3002 RMK AO2 P0000=
201010092101 SPECI KCLM 092101Z AUTO 35003KT 4SM -RA BR BKN003 OVC019 13/12 A3003 RMK AO2 P0000=
201010092101 SPECI KCLM 092101Z AUTO 35003KT 4SM -RA BR BKN003 OVC019 13/12 A3003 RMK AO2 P0000=
201010092053 METAR KCLM 092053Z AUTO 00000KT 2 1/2SM -RA BR BKN003 OVC017 13/12 A3003 RMK AO2 PRESFR SLP169 P0003 60004 T01330122 56016=
201010092051 SPECI KCLM 092051Z AUTO 00000KT 2SM -RA BR BKN003 OVC017 13/12 A3003 RMK AO2 PRESFR P0003=
201010092051 SPECI KCLM 092051Z AUTO 00000KT 2SM -RA BR BKN003 OVC017 13/12 A3003 RMK AO2 PRESFR P0003=
201010092007 SPECI KCLM 092007Z AUTO 00000KT 7SM -RA BKN003 BKN019 BKN060 13/12 A3004 RMK AO2 P0000=
201010092007 SPECI KCLM 092007Z AUTO 00000KT 7SM -RA BKN003 BKN019 BKN060 13/12 A3004 RMK AO2 P0000=
201010091953 METAR KCLM 091953Z AUTO 00000KT 9SM -RA BKN005 OVC060 13/12 A3005 RMK AO2 SLP178 P0000 T01280117=
201010091939 SPECI KCLM 091939Z AUTO 00000KT 10SM -RA BKN003 BKN065 13/12 A3006 RMK AO2 P0000=
201010091939 SPECI KCLM 091939Z AUTO 00000KT 10SM -RA BKN003 BKN065 13/12 A3006 RMK AO2 P0000=
201010091853 METAR KCLM 091853Z AUTO 00000KT 3SM -RA BR SCT001 BKN038 BKN075 12/12 A3008 RMK AO2 RAB1757E17B35 SLP186 P0001 T01220117=
201010091849 SPECI KCLM 091849Z AUTO 00000KT 2 1/2SM -RA BR BKN001 BKN038 BKN090 12/12 A3009 RMK AO2 RAB1757E17B35 P0001=
201010091849 SPECI KCLM 091849Z AUTO 00000KT 2 1/2SM -RA BR BKN001 BKN038 BKN090 12/12 A3009 RMK AO2 RAB1757E17B35 P0001=
201010091837 SPECI KCLM 091837Z AUTO 00000KT 2 1/2SM -RA BR SCT001 BKN039 BKN080 12/12 A3009 RMK AO2 RAB1757E17B35 P0000=
201010091837 SPECI KCLM 091837Z AUTO 00000KT 2 1/2SM -RA BR SCT001 BKN039 BKN080 12/12 A3009 RMK AO2 RAB1757E17B35 P0000=
201010091753 METAR KCLM 091753Z AUTO 27005KT 3SM BR BKN001 BKN100 13/12 A3008 RMK AO2 SLP187 T01280117 10128 20106 51012=
201010091745 SPECI KCLM 091745Z AUTO 29005KT 4SM BR SCT001 BKN100 13/12 A3008 RMK AO2=
201010091745 SPECI KCLM 091745Z AUTO 29005KT 4SM BR SCT001 BKN100 13/12 A3008 RMK AO2=
201010091653 METAR KCLM 091653Z AUTO 24003KT 8SM CLR 13/12 A3008 RMK AO2 SLP185 T01280117=
201010091628 SPECI KCLM 091628Z AUTO 26003KT 9SM SCT005 12/12 A3008 RMK AO2=
201010091628 SPECI KCLM 091628Z AUTO 26003KT 9SM SCT005 12/12 A3008 RMK AO2=
201010091553 METAR KCLM 091553Z AUTO 00000KT 9SM OVC003 12/11 A3006 RMK AO2 CIG 001V007 SLP180 T01220111=
201010091538 SPECI KCLM 091538Z AUTO 00000KT 7SM OVC001 12/11 A3006 RMK AO2=
201010091538 SPECI KCLM 091538Z AUTO 00000KT 7SM OVC001 12/11 A3006 RMK AO2=
201010091453 METAR KCLM 091453Z AUTO 27003KT 6SM BR OVC003 12/11 A3005 RMK AO2 CIG 002V006 SLP176 T01170111 53005=
201010091402 SPECI KCLM 091402Z AUTO 27004KT 6SM BR BKN003 OVC080 12/11 A3004 RMK AO2 CIG 001V005=
201010091402 SPECI KCLM 091402Z AUTO 27004KT 6SM BR BKN003 OVC080 12/11 A3004 RMK AO2 CIG 001V005=
201010091353 METAR KCLM 091353Z AUTO 29005KT 6SM BR SCT003 OVC080 12/11 A3004 RMK AO2 SLP174 T01170111=
201010091253 METAR KCLM 091253Z AUTO 28003KT 5SM BR FEW006 SCT085 BKN110 11/11 A3003 RMK AO2 SLP170 T01110106=
201010091244 SPECI KCLM 091244Z AUTO 00000KT 8SM SCT006 SCT060 BKN085 11/11 A3003 RMK AO2=
201010091244 SPECI KCLM 091244Z AUTO 00000KT 8SM SCT006 SCT060 BKN085 11/11 A3003 RMK AO2=
201010091153 METAR KCLM 091153Z AUTO 00000KT 9SM OVC006 12/11 A3003 RMK AO2 SLP169 60000 T01170106 10122 20106 52012=
201010091053 METAR KCLM 091053Z AUTO 00000KT 10SM OVC008 12/11 A3002 RMK AO2 RAB21E40 CIG 006V011 SLP167 P0000 T01170111=
201010091030 SPECI KCLM 091030Z AUTO 00000KT 7SM -RA BKN008 OVC065 11/11 A3003 RMK AO2 RAB21 P0000=
201010091030 SPECI KCLM 091030Z AUTO 00000KT 7SM -RA BKN008 OVC065 11/11 A3003 RMK AO2 RAB21 P0000=
201010090953 METAR KCLM 090953Z AUTO 00000KT 7SM FEW008 SCT065 BKN095 12/11 A3000 RMK AO2 RAB06E29 SLP161 P0000 T01170106=
201010090944 SPECI KCLM 090944Z AUTO 00000KT 6SM BR SCT008 BKN095 12/11 A3000 RMK AO2 RAB06E29 P0000=
201010090944 SPECI KCLM 090944Z AUTO 00000KT 6SM BR SCT008 BKN095 12/11 A3000 RMK AO2 RAB06E29 P0000=
201010090853 METAR KCLM 090853Z AUTO 00000KT 10SM OVC100 12/11 A3000 RMK AO2 RAE21 SLP158 P0000 60000 T01170106 53012=
201010090753 METAR KCLM 090753Z AUTO 00000KT 4SM -RA BR BKN050 OVC100 12/11 A2997 RMK AO2 RAB20 SLP150 P0000 T01170111 401440100=
201010090704 SPECI KCLM 090704Z AUTO 00000KT 3SM BR FEW003 SCT044 OVC080 12/11 A2998 RMK AO2=
201010090704 SPECI KCLM 090704Z AUTO 00000KT 3SM BR FEW003 SCT044 OVC080 12/11 A2998 RMK AO2=
201010090653 METAR KCLM 090653Z AUTO 27005KT 1SM BR SCT003 BKN044 OVC080 11/10 A2997 RMK AO2 RAE40 SLP150 P0000 T01110100=
201010090645 SPECI KCLM 090645Z AUTO 00000KT 3/4SM BR FEW005 BKN046 BKN060 11/11 A2996 RMK AO2 RAE40 P0000=
201010090645 SPECI KCLM 090645Z AUTO 00000KT 3/4SM BR FEW005 BKN046 BKN060 11/11 A2996 RMK AO2 RAE40 P0000=
201010090636 SPECI KCLM 090636Z AUTO 00000KT 1 1/2SM -RA BR BKN049 BKN065 BKN085 11/11 A2995 RMK AO2 VIS 1/2V4 P0000=
201010090636 SPECI KCLM 090636Z AUTO 00000KT 1 1/2SM -RA BR BKN049 BKN065 BKN085 11/11 A2995 RMK AO2 VIS 1/2V4 P0000=
201010090553 METAR KCLM 090553Z AUTO 00000KT 7SM -RA BKN060 OVC090 12/11 A2996 RMK AO2 SLP146 P0000 60000 T01220111 10133 20111 56010=
201010090453 METAR KCLM 090453Z AUTO 18003KT 10SM -RA FEW065 BKN080 OVC110 12/11 A2997 RMK AO2 RAB33 SLP150 P0000 T01220111=
201010090353 METAR KCLM 090353Z AUTO 00000KT 10SM CLR 12/11 A2996 RMK AO2 SLP147 T01170106=
201010090311 SPECI KCLM 090311Z AUTO 00000KT 10SM SCT013 BKN065 12/11 A2998 RMK AO2=
201010090311 SPECI KCLM 090311Z AUTO 00000KT 10SM SCT013 BKN065 12/11 A2998 RMK AO2=
201010090301 SPECI KCLM 090301Z AUTO 00000KT 10SM BKN013 BKN065 12/11 A2999 RMK AO2=
201010090301 SPECI KCLM 090301Z AUTO 00000KT 10SM BKN013 BKN065 12/11 A2999 RMK AO2=
201010090253 METAR KCLM 090253Z AUTO 00000KT 10SM SCT013 BKN070 12/11 A2999 RMK AO2 SLP156 T01170106 55005=
201010090153 METAR KCLM 090153Z AUTO 18003KT 10SM CLR 12/11 A2998 RMK AO2 SLP154 T01220111 TSNO=
201010090053 METAR KCLM 090053Z AUTO 13003KT 10SM FEW100 13/11 A2999 RMK AO2 SLP155 T01330111=
201010082353 METAR KCLM 082353Z AUTO 29007KT 10SM FEW075 13/11 A3001 RMK AO2 SLP162 60000 T01330106 10144 20106 56018=
201010082253 METAR KCLM 082253Z AUTO 32004KT 10SM BKN100 14/11 A3002 RMK AO2 SLP166 T01390111=
201010082153 METAR KCLM 082153Z AUTO 36004KT 10SM SCT110 13/11 A3003 RMK AO2 SLP171 T01280111=
201010082123 SPECI KCLM 082123Z AUTO 30003KT 10SM FEW007 BKN090 13/11 A3004 RMK AO2=
201010082123 SPECI KCLM 082123Z AUTO 30003KT 10SM FEW007 BKN090 13/11 A3004 RMK AO2=
201010082053 METAR KCLM 082053Z AUTO 27005KT 10SM OVC095 13/11 A3006 RMK AO2 SLP180 60000 T01280111 58007=
201010082031 SPECI KCLM 082031Z AUTO 27006KT 10SM SCT003 OVC100 12/11 A3007 RMK AO2=
201010082031 SPECI KCLM 082031Z AUTO 27006KT 10SM SCT003 OVC100 12/11 A3007 RMK AO2=
201010081953 METAR KCLM 081953Z AUTO 29004KT 7SM OVC003 12/11 A3007 RMK AO2 SLP185 T01220111=
201010081951 SPECI KCLM 081951Z AUTO 29003KT 7SM OVC003 12/11 A3007 RMK AO2=
201010081951 SPECI KCLM 081951Z AUTO 29003KT 7SM OVC003 12/11 A3007 RMK AO2=
201010081911 SPECI KCLM 081911Z AUTO 00000KT 3SM BR OVC001 11/11 A3008 RMK AO2=
201010081911 SPECI KCLM 081911Z AUTO 00000KT 3SM BR OVC001 11/11 A3008 RMK AO2=
201010081853 METAR KCLM 081853Z AUTO 30003KT 1SM BR OVC001 11/11 A3008 RMK AO2 RAB04E36 SLP187 P0000 T01110106=
201010081839 SPECI KCLM 081839Z AUTO 32003KT 1/2SM FG OVC001 11/11 A3009 RMK AO2 RAB04E36 P0000=
201010081839 SPECI KCLM 081839Z AUTO 32003KT 1/2SM FG OVC001 11/11 A3009 RMK AO2 RAB04E36 P0000=
201010081826 SPECI KCLM 081826Z AUTO 00000KT 1/4SM -RA FG OVC001 11/11 A3008 RMK AO2 RAB04 P0000=
201010081826 SPECI KCLM 081826Z AUTO 00000KT 1/4SM -RA FG OVC001 11/11 A3008 RMK AO2 RAB04 P0000=
201010081809 SPECI KCLM 081809Z AUTO 00000KT 1 1/4SM -RA BR OVC001 12/11 A3009 RMK AO2 RAB04 P0000=
201010081809 SPECI KCLM 081809Z AUTO 00000KT 1 1/4SM -RA BR OVC001 12/11 A3009 RMK AO2 RAB04 P0000=
201010081753 METAR KCLM 081753Z AUTO 00000KT 1/2SM FG VV001 11/11 A3008 RMK AO2 RAE50 SLP188 P0000 60000 T01110106 10122 20106 50003=
201010081746 SPECI KCLM 081746Z AUTO 00000KT 1/2SM -RA FG VV001 11/11 A3008 RMK AO2 P0000=
201010081746 SPECI KCLM 081746Z AUTO 00000KT 1/2SM -RA FG VV001 11/11 A3008 RMK AO2 P0000=
201010081717 SPECI KCLM 081717Z AUTO 03004KT 1/4SM -RA FG BKN001 OVC090 11/10 A3008 RMK AO2 P0000=
201010081717 SPECI KCLM 081717Z AUTO 03004KT 1/4SM -RA FG BKN001 OVC090 11/10 A3008 RMK AO2 P0000=
201010081708 SPECI KCLM 081708Z AUTO 00000KT 3/4SM BR BKN001 OVC085 12/11 A3008 RMK AO2 RAE1657 P0000=
201010081708 SPECI KCLM 081708Z AUTO 00000KT 3/4SM BR BKN001 OVC085 12/11 A3008 RMK AO2 RAE1657 P0000=
201010081703 SPECI KCLM 081703Z AUTO 00000KT 1 3/4SM BR SCT001 OVC080 12/11 A3008 RMK AO2 RAE1657 P0000=
201010081703 SPECI KCLM 081703Z AUTO 00000KT 1 3/4SM BR SCT001 OVC080 12/11 A3008 RMK AO2 RAE1657 P0000=
201010081653 METAR KCLM 081653Z AUTO 00000KT 6SM -RA BR FEW001 BKN075 OVC085 12/11 A3008 RMK AO2 SLP188 P0000 T01220111=
201010081626 SPECI KCLM 081626Z AUTO 00000KT 4SM -RA BR SCT037 BKN075 OVC100 12/11 A3008 RMK AO2 P0000=
201010081626 SPECI KCLM 081626Z AUTO 00000KT 4SM -RA BR SCT037 BKN075 OVC100 12/11 A3008 RMK AO2 P0000=
201010081607 SPECI KCLM 081607Z AUTO 00000KT 4SM -RA BR SCT001 BKN020 OVC080 12/11 A3008 RMK AO2 P0000=
201010081607 SPECI KCLM 081607Z AUTO 00000KT 4SM -RA BR SCT001 BKN020 OVC080 12/11 A3008 RMK AO2 P0000=
201010081553 METAR KCLM 081553Z AUTO 00000KT 3SM -RA BR BKN001 BKN023 OVC080 11/11 A3008 RMK AO2 SLP188 P0000 T01110106=
201010081541 SPECI KCLM 081541Z AUTO 00000KT 4SM -RA BR FEW001 BKN027 OVC075 11/11 A3008 RMK AO2 P0000=
201010081541 SPECI KCLM 081541Z AUTO 00000KT 4SM -RA BR FEW001 BKN027 OVC075 11/11 A3008 RMK AO2 P0000=
201010081534 SPECI KCLM 081534Z AUTO 00000KT 4SM -RA BR BKN027 BKN070 BKN080 11/10 A3008 RMK AO2 P0000=
201010081534 SPECI KCLM 081534Z AUTO 00000KT 4SM -RA BR BKN027 BKN070 BKN080 11/10 A3008 RMK AO2 P0000=
201010081507 SPECI KCLM 081507Z AUTO 00000KT 2SM -RA BR BKN040 BKN080 OVC100 11/10 A3008 RMK AO2 P0000=
201010081507 SPECI KCLM 081507Z AUTO 00000KT 2SM -RA BR BKN040 BKN080 OVC100 11/10 A3008 RMK AO2 P0000=
201010081453 METAR KCLM 081453Z AUTO 00000KT 4SM -RA BR SCT046 SCT080 OVC095 11/10 A3007 RMK AO2 SLP185 P0000 60000 T01060100 51001=
201010081353 METAR KCLM 081353Z AUTO 00000KT 6SM -RA BR OVC090 11/09 A3007 RMK AO2 SLP184 P0000 T01060094=
201010081253 METAR KCLM 081253Z AUTO 00000KT 7SM -RA OVC070 11/09 A3007 RMK AO2 SLP184 P0000 T01060094=
201010081153 METAR KCLM 081153Z AUTO 00000KT 10SM -RA BKN070 OVC090 11/09 A3007 RMK AO2 RAB25 SLP182 P0000 60000 T01060094 10111 20094 58001=
201010081053 METAR KCLM 081053Z AUTO 00000KT 10SM BKN095 OVC120 10/09 A3008 RMK AO2 RAB06E25 SLP184 P0000 T01000094=
201010080953 METAR KCLM 080953Z AUTO 00000KT 10SM BKN070 OVC100 11/09 A3008 RMK AO2 SLP185 T01060094=
201010080853 METAR KCLM 080853Z AUTO 00000KT 10SM SCT034 BKN080 11/09 A3007 RMK AO2 SLP184 T01060089 53004=
201010080753 METAR KCLM 080753Z AUTO 24004KT 10SM CLR 10/09 A3006 RMK AO2 SLP180 T01000089 401610050=
201010080653 METAR KCLM 080653Z AUTO 00000KT 10SM CLR 10/08 A3006 RMK AO2 SLP181 T01000083=
201010080553 METAR KCLM 080553Z AUTO 16003KT 10SM BKN100 10/09 A3006 RMK AO2 SLP181 T01000089 10150 20094 50011=
201010080453 METAR KCLM 080453Z AUTO 00000KT 10SM CLR 10/08 A3006 RMK AO2 SLP181 T01000083=
201010080353 METAR KCLM 080353Z AUTO 08003KT 10SM FEW047 12/09 A3005 RMK AO2 SLP177 T01170089=
201010080253 METAR KCLM 080253Z AUTO 10005KT 10SM CLR 12/09 A3003 RMK AO2 SLP169 T01170089 53012=
201010080153 METAR KCLM 080153Z AUTO 11005KT 10SM SCT039 BKN049 OVC060 13/09 A3001 RMK AO2 SLP164 T01280094=
201010080053 METAR KCLM 080053Z AUTO 09003KT 10SM BKN060 14/09 A3001 RMK AO2 SLP162 T01390094=
201010072353 METAR KCLM 072353Z AUTO VRB03KT 10SM FEW027 SCT090 15/10 A2999 RMK AO2 SLP158 T01500100 10161 20133 53008=
201010072253 METAR KCLM 072253Z AUTO VRB03KT 10SM FEW024 16/10 A2998 RMK AO2 SLP154 T01610100=
201010072153 METAR KCLM 072153Z AUTO 00000KT 10SM SCT120 16/10 A2998 RMK AO2 SLP152 T01560100=
201010072053 METAR KCLM 072053Z AUTO 31005KT 10SM BKN110 15/09 A2997 RMK AO2 SLP150 T01500094 51009=
201010071953 METAR KCLM 071953Z AUTO 29005KT 10SM FEW021 16/10 A2996 RMK AO2 SLP147 T01560100=
201010071853 METAR KCLM 071853Z AUTO 29005KT 10SM SCT100 14/09 A2996 RMK AO2 SLP145 T01390094=
201010071753 METAR KCLM 071753Z AUTO 31004KT 10SM BKN110 13/09 A2994 RMK AO2 SLP140 T01330089 10133 20050 51014=
201010071653 METAR KCLM 071653Z AUTO 30005KT 10SM CLR 13/09 A2994 RMK AO2 SLP138 T01280089=
201010071553 METAR KCLM 071553Z AUTO 29006KT 10SM SCT003 09/08 A2994 RMK AO2 SLP139 T00940083=
201010071508 SPECI KCLM 071508Z AUTO 30005KT 7SM FEW003 07/06 A2991 RMK AO2=
201010071508 SPECI KCLM 071508Z AUTO 30005KT 7SM FEW003 07/06 A2991 RMK AO2=
201010071453 METAR KCLM 071453Z AUTO 00000KT 4SM BR CLR 07/06 A2990 RMK AO2 SLP127 T00670061 53004=
201010071353 METAR KCLM 071353Z AUTO 24003KT 7SM CLR 06/04 A2990 RMK AO2 SLP124 T00560044=
201010071253 METAR KCLM 071253Z AUTO 00000KT 10SM CLR 06/05 A2990 RMK AO2 SLP125 T00560050=
201010071153 METAR KCLM 071153Z AUTO 00000KT 10SM CLR 06/05 A2989 RMK AO2 SLP123 T00610050 10083 20056 53001=
201010071053 METAR KCLM 071053Z AUTO 24003KT 10SM CLR 07/06 A2989 RMK AO2 SLP122 T00670056=
201010070953 METAR KCLM 070953Z AUTO 00000KT 10SM CLR 07/06 A2989 RMK AO2 SLP122 T00670056=
201010070853 METAR KCLM 070853Z AUTO 00000KT 10SM CLR 07/06 A2989 RMK AO2 SLP122 T00670056 57006=
201010070753 METAR KCLM 070753Z AUTO 21003KT 10SM CLR 07/06 A2989 RMK AO2 SLP123 T00670056 401670044=
201010070653 METAR KCLM 070653Z AUTO 00000KT 10SM CLR 07/06 A2990 RMK AO2 SLP127 T00670056=
201010070553 METAR KCLM 070553Z AUTO 00000KT 10SM CLR 07/06 A2991 RMK AO2 SLP128 T00720056 10167 20067 58002=
201010070453 METAR KCLM 070453Z AUTO 00000KT 10SM CLR 07/06 A2991 RMK AO2 SLP130 T00670056=
201010070353 METAR KCLM 070353Z AUTO 22005KT 10SM CLR 08/07 A2991 RMK AO2 SLP130 T00830067=
201010070253 METAR KCLM 070253Z AUTO 00000KT 10SM CLR 11/08 A2991 RMK AO2 SLP131 T01060078 56018=
201010070153 METAR KCLM 070153Z AUTO 00000KT 10SM CLR 12/08 A2992 RMK AO2 SLP132 T01170083=
201010070053 METAR KCLM 070053Z AUTO 15004KT 10SM CLR 16/08 A2993 RMK AO2 SLP137 T01560083=
201010062353 METAR KCLM 062353Z AUTO 00000KT 10SM CLR 17/07 A2997 RMK AO2 SLP147 T01670072 10167 20133 58028=
201010062253 METAR KCLM 062253Z AUTO 08005KT 10SM CLR 16/07 A2999 RMK AO2 SLP158 T01610072=
201010062153 METAR KCLM 062153Z AUTO 10005KT 10SM CLR 16/08 A3003 RMK AO2 SLP170 T01560083=
201010062053 METAR KCLM 062053Z AUTO 11006KT 10SM CLR 16/08 A3005 RMK AO2 SLP177 T01560083 58029=
201010061953 METAR KCLM 061953Z AUTO 11005KT 10SM CLR 15/09 A3009 RMK AO2 SLP189 T01500089=
201010061853 METAR KCLM 061853Z AUTO 10006KT 10SM CLR 14/09 A3011 RMK AO2 SLP198 T01390089=
201010061753 METAR KCLM 061753Z AUTO 09008KT 10SM CLR 14/08 A3014 RMK AO2 SLP207 T01390083 10144 20044 58018=
201010061653 METAR KCLM 061653Z AUTO 12005KT 10SM CLR 13/09 A3016 RMK AO2 SLP213 T01280089=
201010061553 METAR KCLM 061553Z AUTO 00000KT 10SM CLR 11/08 A3017 RMK AO2 SLP218 T01060078=
201010061453 METAR KCLM 061453Z AUTO 00000KT 10SM CLR 05/04 A3019 RMK AO2 SLP225 T00500044 58017=
201010061353 METAR KCLM 061353Z AUTO 15003KT 10SM CLR 05/04 A3021 RMK AO2 SLP230 T00500044=
201010061253 METAR KCLM 061253Z AUTO 00000KT 10SM CLR 06/05 A3023 RMK AO2 SLP238 T00610050=
201010061153 METAR KCLM 061153Z AUTO 00000KT 10SM CLR 09/06 A3024 RMK AO2 SLP242 T00940056 10094 20056 58019=
201010061053 METAR KCLM 061053Z AUTO 14005KT 10SM CLR 08/05 A3026 RMK AO2 SLP247 T00780050=
201010060953 METAR KCLM 060953Z AUTO 14006KT 10SM CLR 08/04 A3029 RMK AO2 SLP257 T00830044=
201010060853 METAR KCLM 060853Z AUTO 15005KT 10SM CLR 07/05 A3030 RMK AO2 SLP261 T00670050 56014=
201010060753 METAR KCLM 060753Z AUTO 14005KT 10SM CLR 07/05 A3030 RMK AO2 SLP262 T00720050 401560039=
201010060653 METAR KCLM 060653Z AUTO 13004KT 10SM CLR 06/04 A3032 RMK AO2 SLP269 T00610044=
201010060553 METAR KCLM 060553Z AUTO 18003KT 10SM CLR 06/04 A3034 RMK AO2 SLP275 T00610044 10156 20061 58013=
201010060453 METAR KCLM 060453Z AUTO 00000KT 10SM CLR 08/06 A3036 RMK AO2 SLP283 T00780061=
201010060353 METAR KCLM 060353Z AUTO 00000KT 10SM CLR 08/07 A3037 RMK AO2 SLP284 T00830067=
201010060253 METAR KCLM 060253Z AUTO 00000KT 10SM CLR 09/07 A3038 RMK AO2 SLP289 T00940072 56011=
201010060153 METAR KCLM 060153Z AUTO 00000KT 10SM CLR 12/08 A3039 RMK AO2 SLP292 T01170078=
201010060053 METAR KCLM 060053Z AUTO 16003KT 10SM CLR 14/06 A3040 RMK AO2 SLP294 T01390061=
201010052353 METAR KCLM 052353Z AUTO 13003KT 10SM CLR 15/06 A3041 RMK AO2 SLP299 T01500061 10156 20128 56009=
201010052253 METAR KCLM 052253Z AUTO 08003KT 10SM CLR 16/07 A3042 RMK AO2 SLP303 T01560067=
201010052153 METAR KCLM 052153Z AUTO 08004KT 10SM CLR 14/08 A3043 RMK AO2 SLP304 T01440078=
201010052053 METAR KCLM 052053Z AUTO 08005KT 10SM CLR 14/08 A3044 RMK AO2 SLP309 T01440078 58007=
201010051953 METAR KCLM 051953Z AUTO VRB03KT 10SM CLR 14/07 A3046 RMK AO2 SLP316 T01390067=
201010051853 METAR KCLM 051853Z AUTO VRB04KT 10SM CLR 13/06 A3047 RMK AO2 SLP321 T01330061=
201010051753 METAR KCLM 051753Z AUTO 04005KT 10SM CLR 13/06 A3046 RMK AO2 SLP316 T01330061 10133 20039 51012=
201010051653 METAR KCLM 051653Z AUTO 10007KT 10SM CLR 12/06 A3045 RMK AO2 SLP314 T01220056=
201010051553 METAR KCLM 051553Z AUTO 00000KT 10SM CLR 09/07 A3044 RMK AO2 SLP308 T00940067=
201010051453 METAR KCLM 051453Z AUTO 00000KT 10SM CLR 04/04 A3042 RMK AO2 SLP305 T00440039 53015=
201010051353 METAR KCLM 051353Z AUTO 24003KT 10SM CLR 04/03 A3041 RMK AO2 SLP299 T00390028=
201010051253 METAR KCLM 051253Z AUTO 00000KT 10SM CLR 06/04 A3039 RMK AO2 SLP291 T00560039=
201010051153 METAR KCLM 051153Z AUTO 00000KT 10SM CLR 06/04 A3038 RMK AO2 SLP288 T00560044 10111 20044 53013=
201010051053 METAR KCLM 051053Z AUTO 00000KT 10SM CLR 05/04 A3036 RMK AO2 SLP283 T00500039=
201010050953 METAR KCLM 050953Z AUTO 20003KT 10SM CLR 08/06 A3035 RMK AO2 SLP280 T00780056=
201010050853 METAR KCLM 050853Z AUTO 22004KT 10SM CLR 09/06 A3034 RMK AO2 SLP275 T00890061 51018=
201010050753 METAR KCLM 050753Z AUTO 24004KT 10SM CLR 08/06 A3032 RMK AO2 SLP269 T00830061 401440078=
201010050653 METAR KCLM 050653Z AUTO 25007KT 10SM CLR 10/07 A3031 RMK AO2 SLP265 T01000072=
201010050553 METAR KCLM 050553Z AUTO 24005KT 10SM CLR 10/08 A3029 RMK AO2 SLP258 T01000078 10128 20083 51011=
201010050453 METAR KCLM 050453Z AUTO 27005KT 10SM CLR 09/07 A3028 RMK AO2 SLP255 T00890072=
201010050353 METAR KCLM 050353Z AUTO 23003KT 10SM OVC030 10/08 A3027 RMK AO2 SLP250 T01000083=
201010050253 METAR KCLM 050253Z AUTO 22003KT 10SM FEW023 BKN034 11/08 A3026 RMK AO2 SLP247 T01110083 51013=
201010050245 SPECI KCLM 050245Z AUTO 22003KT 10SM SCT023 OVC034 11/09 A3026 RMK AO2=
201010050245 SPECI KCLM 050245Z AUTO 22003KT 10SM SCT023 OVC034 11/09 A3026 RMK AO2=
201010050153 METAR KCLM 050153Z AUTO 26003KT 10SM BKN019 OVC065 12/09 A3024 RMK AO2 SLP240 T01170089=
201010050148 SPECI KCLM 050148Z AUTO 27003KT 10SM BKN019 OVC060 12/09 A3024 RMK AO2=
201010050148 SPECI KCLM 050148Z AUTO 27003KT 10SM BKN019 OVC060 12/09 A3024 RMK AO2=
201010050053 METAR KCLM 050053Z AUTO 00000KT 10SM SCT043 OVC055 12/08 A3022 RMK AO2 SLP233 T01220083=
201010042353 METAR KCLM 042353Z AUTO 00000KT 10SM BKN033 OVC044 13/08 A3021 RMK AO2 SLP232 T01280083 10144 20117 51010=
201010042253 METAR KCLM 042253Z AUTO 32008KT 10SM OVC023 13/07 A3020 RMK AO2 SLP226 T01280072=
201010042207 SPECI KCLM 042207Z AUTO 32007KT 10SM BKN021 OVC047 12/08 A3018 RMK AO2=
201010042207 SPECI KCLM 042207Z AUTO 32007KT 10SM BKN021 OVC047 12/08 A3018 RMK AO2=
201010042153 METAR KCLM 042153Z AUTO 32007KT 10SM FEW019 SCT047 BKN065 13/08 A3018 RMK AO2 SLP222 T01280083=
201010042053 METAR KCLM 042053Z AUTO 33010KT 10SM OVC035 12/09 A3017 RMK AO2 SLP219 T01220089 53015=
201010041953 METAR KCLM 041953Z AUTO 31004KT 10SM OVC090 14/08 A3015 RMK AO2 SLP212 T01390083=
201010041853 METAR KCLM 041853Z AUTO 29005KT 10SM BKN060 BKN085 13/08 A3015 RMK AO2 SLP209 T01280078=
201010041753 METAR KCLM 041753Z AUTO 02004KT 10SM BKN055 OVC080 12/07 A3013 RMK AO2 SLP203 T01220072 10133 20083 53016=
201010041653 METAR KCLM 041653Z AUTO 00000KT 10SM SCT045 13/06 A3011 RMK AO2 SLP196 T01330061=
201010041553 METAR KCLM 041553Z AUTO 25007KT 220V280 10SM FEW049 SCT060 OVC070 11/06 A3010 RMK AO2 SLP192 T01060056=
201010041453 METAR KCLM 041453Z AUTO 24007KT 10SM OVC065 10/04 A3008 RMK AO2 SLP187 T01000044 53009=
201010041353 METAR KCLM 041353Z AUTO 25011KT 10SM FEW120 09/04 A3007 RMK AO2 SLP184 T00940039=
201010041253 METAR KCLM 041253Z AUTO 25011KT 10SM CLR 09/04 A3006 RMK AO2 SLP179 T00940039=
201010041153 METAR KCLM 041153Z AUTO 24011KT 10SM CLR 09/04 A3005 RMK AO2 SLP178 T00940039 10111 20083 53004=
201010041053 METAR KCLM 041053Z AUTO 24005KT 10SM CLR 09/03 A3005 RMK AO2 SLP176 T00890033=
201010040953 METAR KCLM 040953Z AUTO 24010KT 10SM CLR 09/04 A3005 RMK AO2 SLP175 T00940039=
201010040853 METAR KCLM 040853Z AUTO 26009KT 10SM FEW055 09/04 A3004 RMK AO2 SLP174 T00890044 51005=
201010040753 METAR KCLM 040753Z AUTO 26009KT 10SM OVC055 10/03 A3004 RMK AO2 SLP173 T01000028 401440072=
201010040653 METAR KCLM 040653Z AUTO 26011KT 10SM OVC055 11/02 A3004 RMK AO2 SLP172 T01060017=
201010040553 METAR KCLM 040553Z AUTO 27011KT 10SM BKN055 11/01 A3003 RMK AO2 SLP169 T01060011 10133 20106 51007=
201010040453 METAR KCLM 040453Z AUTO 28008KT 10SM SCT055 BKN070 11/04 A3002 RMK AO2 SLP168 T01110044=
201010040353 METAR KCLM 040353Z AUTO 29006KT 10SM BKN055 OVC070 11/08 A3001 RMK AO2 SLP164 T01060078=
201010040253 METAR KCLM 040253Z AUTO 28010KT 10SM BKN055 11/08 A3000 RMK AO2 SLP161 T01110078 51005=
201010040153 METAR KCLM 040153Z AUTO 29009KT 10SM BKN070 11/08 A3000 RMK AO2 SLP161 T01110083=
201010040053 METAR KCLM 040053Z AUTO 28010KT 10SM OVC055 12/08 A3000 RMK AO2 SLP158 T01220083=
201010032353 METAR KCLM 032353Z AUTO 28011KT 10SM OVC048 13/09 A2999 RMK AO2 SLP156 60000 T01330089 10144 20122 50000=
201010032253 METAR KCLM 032253Z AUTO 30007KT 10SM OVC050 13/10 A3000 RMK AO2 SLP158 T01280100=
201010032210 SPECI KCLM 032210Z AUTO 31007KT 10SM FEW027 SCT036 OVC050 13/10 A2999 RMK AO2=
201010032210 SPECI KCLM 032210Z AUTO 31007KT 10SM FEW027 SCT036 OVC050 13/10 A2999 RMK AO2=
201010032153 METAR KCLM 032153Z AUTO 32005KT 10SM BKN027 BKN032 OVC050 14/11 A2999 RMK AO2 SLP156 T01390106=
201010032146 SPECI KCLM 032146Z AUTO 31005KT 10SM BKN027 OVC050 14/11 A2999 RMK AO2=
201010032146 SPECI KCLM 032146Z AUTO 31005KT 10SM BKN027 OVC050 14/11 A2999 RMK AO2=
201010032103 SPECI KCLM 032103Z AUTO 28006KT 10SM SCT011 OVC048 14/11 A2999 RMK AO2=
201010032103 SPECI KCLM 032103Z AUTO 28006KT 10SM SCT011 OVC048 14/11 A2999 RMK AO2=
201010032053 METAR KCLM 032053Z AUTO 28005KT 10SM BKN011 OVC050 14/12 A2999 RMK AO2 RAE1959 SLP156 P0000 60000 T01390117 58001=
201010031953 METAR KCLM 031953Z AUTO 31005KT 9SM -RA SCT007 BKN037 OVC044 13/12 A3000 RMK AO2 SLP158 P0000 T01330117=
201010031940 SPECI KCLM 031940Z AUTO 27004KT 10SM SCT005 OVC041 13/12 A2999 RMK AO2 RAE39 P0000=
201010031940 SPECI KCLM 031940Z AUTO 27004KT 10SM SCT005 OVC041 13/12 A2999 RMK AO2 RAE39 P0000=
201010031853 METAR KCLM 031853Z AUTO 27004KT 7SM -RA BKN005 BKN009 OVC039 13/11 A2999 RMK AO2 RAB28 SLP157 P0000 T01280111=
201010031829 SPECI KCLM 031829Z AUTO 28003KT 9SM -RA BKN007 OVC018 12/11 A2999 RMK AO2 RAB28 CIG 006V011 P0000=
201010031829 SPECI KCLM 031829Z AUTO 28003KT 9SM -RA BKN007 OVC018 12/11 A2999 RMK AO2 RAB28 CIG 006V011 P0000=
201010031819 SPECI KCLM 031819Z AUTO 27003KT 10SM SCT007 OVC018 12/11 A3000 RMK AO2=
201010031819 SPECI KCLM 031819Z AUTO 27003KT 10SM SCT007 OVC018 12/11 A3000 RMK AO2=
201010031753 METAR KCLM 031753Z AUTO 28005KT 10SM BKN018 OVC022 12/11 A2999 RMK AO2 RAB12E26 SLP157 P0000 60000 T01220106 10122 20106 53007=
201010031707 SPECI KCLM 031707Z AUTO 26003KT 10SM BKN016 OVC033 12/11 A2998 RMK AO2=
201010031707 SPECI KCLM 031707Z AUTO 26003KT 10SM BKN016 OVC033 12/11 A2998 RMK AO2=
201010031653 METAR KCLM 031653Z AUTO 00000KT 10SM SCT014 OVC033 12/10 A2998 RMK AO2 SLP154 T01170100=
201010031610 SPECI KCLM 031610Z AUTO 26003KT 10SM BKN012 OVC033 11/10 A2998 RMK AO2=
201010031610 SPECI KCLM 031610Z AUTO 26003KT 10SM BKN012 OVC033 11/10 A2998 RMK AO2=
201010031553 METAR KCLM 031553Z AUTO 00000KT 10SM OVC033 11/10 A2998 RMK AO2 SLP152 T01060100=
201010031453 METAR KCLM 031453Z AUTO 00000KT 9SM OVC035 11/10 A2997 RMK AO2 SLP150 T01060100 53002=
201010031436 SPECI KCLM 031436Z AUTO 27004KT 9SM SCT001 OVC035 11/10 A2997 RMK AO2=
201010031436 SPECI KCLM 031436Z AUTO 27004KT 9SM SCT001 OVC035 11/10 A2997 RMK AO2=
201010031353 METAR KCLM 031353Z AUTO 30004KT 5SM BR OVC001 11/10 A2997 RMK AO2 SLP149 T01060100=
201010031303 SPECI KCLM 031303Z AUTO 28005KT 3SM BR OVC001 11/10 A2996 RMK AO2=
201010031303 SPECI KCLM 031303Z AUTO 28005KT 3SM BR OVC001 11/10 A2996 RMK AO2=
201010031253 METAR KCLM 031253Z AUTO 27006KT 1 1/4SM BR OVC001 11/10 A2996 RMK AO2 SLP146 T01060100=
201010031237 SPECI KCLM 031237Z AUTO 29005KT 1SM BR OVC001 11/10 A2996 RMK AO2=
201010031237 SPECI KCLM 031237Z AUTO 29005KT 1SM BR OVC001 11/10 A2996 RMK AO2=
201010031153 METAR KCLM 031153Z AUTO 28004KT 1/2SM FG VV001 11/10 A2996 RMK AO2 SLP147 T01060100 10106 20072 56000=
201010031053 METAR KCLM 031053Z AUTO 25003KT 1/2SM FG VV001 09/09 A2997 RMK AO2 SLP147 T00940094=
201010031032 SPECI KCLM 031032Z AUTO 26004KT 1/2SM FG VV001 09/09 A2997 RMK AO2=
201010031032 SPECI KCLM 031032Z AUTO 26004KT 1/2SM FG VV001 09/09 A2997 RMK AO2=
201010030953 METAR KCLM 030953Z AUTO 25003KT 1/4SM FG VV001 09/08 A2996 RMK AO2 SLP148 T00890083=
201010030925 SPECI KCLM 030925Z AUTO 00000KT 1/4SM FG VV001 09/08 A2997 RMK AO2=
201010030925 SPECI KCLM 030925Z AUTO 00000KT 1/4SM FG VV001 09/08 A2997 RMK AO2=
201010030912 SPECI KCLM 030912Z AUTO 00000KT 1/4SM FG VV002 08/08 A2997 RMK AO2=
201010030912 SPECI KCLM 030912Z AUTO 00000KT 1/4SM FG VV002 08/08 A2997 RMK AO2=
201010030858 SPECI KCLM 030858Z AUTO 00000KT 1/2SM FG FEW009 08/07 A2997 RMK AO2=
201010030858 SPECI KCLM 030858Z AUTO 00000KT 1/2SM FG FEW009 08/07 A2997 RMK AO2=
201010030853 METAR KCLM 030853Z AUTO 00000KT 1SM BR CLR 07/07 A2997 RMK AO2 SLP148 T00720067 58005=
201010030849 SPECI KCLM 030849Z AUTO 00000KT 1 3/4SM BR CLR 07/07 A2997 RMK AO2=
201010030849 SPECI KCLM 030849Z AUTO 00000KT 1 3/4SM BR CLR 07/07 A2997 RMK AO2=
201010030824 SPECI KCLM 030824Z AUTO 00000KT 6SM BR FEW001 09/08 A2997 RMK AO2=
201010030824 SPECI KCLM 030824Z AUTO 00000KT 6SM BR FEW001 09/08 A2997 RMK AO2=
201010030817 SPECI KCLM 030817Z AUTO 00000KT 2 1/2SM BR SCT001 SCT046 09/08 A2997 RMK AO2=
201010030817 SPECI KCLM 030817Z AUTO 00000KT 2 1/2SM BR SCT001 SCT046 09/08 A2997 RMK AO2=
201010030803 SPECI KCLM 030803Z AUTO 00000KT 2SM BR BKN001 BKN046 09/08 A2997 RMK AO2=
201010030803 SPECI KCLM 030803Z AUTO 00000KT 2SM BR BKN001 BKN046 09/08 A2997 RMK AO2=
201010030753 METAR KCLM 030753Z AUTO 00000KT 3/4SM BR OVC001 09/09 A2998 RMK AO2 SLP151 T00940089 401610094=
201010030743 SPECI KCLM 030743Z AUTO 00000KT 1/2SM FG VV001 09/09 A2998 RMK AO2=
201010030743 SPECI KCLM 030743Z AUTO 00000KT 1/2SM FG VV001 09/09 A2998 RMK AO2=
201010030718 SPECI KCLM 030718Z AUTO 27003KT 1/4SM FG VV001 10/09 A2998 RMK AO2=
201010030718 SPECI KCLM 030718Z AUTO 27003KT 1/4SM FG VV001 10/09 A2998 RMK AO2=
201010030706 SPECI KCLM 030706Z AUTO 23003KT 3/4SM BR OVC001 10/09 A2998 RMK AO2=
201010030706 SPECI KCLM 030706Z AUTO 23003KT 3/4SM BR OVC001 10/09 A2998 RMK AO2=
201010030700 SPECI KCLM 030700Z AUTO 23004KT 2 1/2SM BR OVC001 11/09 A2998 RMK AO2=
201010030700 SPECI KCLM 030700Z AUTO 23004KT 2 1/2SM BR OVC001 11/09 A2998 RMK AO2=
201010030653 METAR KCLM 030653Z AUTO 23003KT 5SM BR OVC003 11/10 A2998 RMK AO2 SLP152 T01060100=
201010030553 METAR KCLM 030553Z AUTO 27005KT 8SM OVC003 11/10 A2998 RMK AO2 SLP153 T01060100 10150 20106 56001=
201010030516 SPECI KCLM 030516Z AUTO 28005KT 9SM OVC003 11/10 A2998 RMK AO2=
201010030516 SPECI KCLM 030516Z AUTO 28005KT 9SM OVC003 11/10 A2998 RMK AO2=
201010030453 METAR KCLM 030453Z AUTO 27005KT 9SM OVC005 11/10 A2998 RMK AO2 SLP152 T01110100=
201010030423 SPECI KCLM 030423Z AUTO 30007KT 9SM BKN005 11/10 A2998 RMK AO2=
201010030423 SPECI KCLM 030423Z AUTO 30007KT 9SM BKN005 11/10 A2998 RMK AO2=
201010030409 SPECI KCLM 030409Z AUTO 30007KT 9SM FEW005 11/09 A2998 RMK AO2=
201010030409 SPECI KCLM 030409Z AUTO 30007KT 9SM FEW005 11/09 A2998 RMK AO2=
201010030353 METAR KCLM 030353Z AUTO 29007KT 10SM CLR 11/09 A2998 RMK AO2 SLP153 T01110094=
201010030253 METAR KCLM 030253Z AUTO 27005KT 10SM CLR 11/08 A2998 RMK AO2 SLP154 T01060078 56014=
201010030153 METAR KCLM 030153Z AUTO 29005KT 10SM CLR 12/08 A2999 RMK AO2 SLP154 T01170083=
201010030053 METAR KCLM 030053Z AUTO 30006KT 10SM CLR 14/08 A3000 RMK AO2 SLP160 T01390083=
201010022353 METAR KCLM 022353Z AUTO 31005KT 10SM CLR 15/08 A3002 RMK AO2 SLP167 T01500083 10161 20139 56021=
201010022253 METAR KCLM 022253Z AUTO 33005KT 10SM CLR 16/08 A3004 RMK AO2 SLP173 T01560078=
201010022153 METAR KCLM 022153Z AUTO 34005KT 10SM CLR 16/08 A3006 RMK AO2 SLP180 T01560083=
201010022053 METAR KCLM 022053Z AUTO 31006KT 10SM CLR 16/08 A3008 RMK AO2 SLP187 T01610083 58015=
201010021953 METAR KCLM 021953Z AUTO 30005KT 10SM FEW025 16/08 A3011 RMK AO2 SLP195 T01560083=
201010021946 SPECI KCLM 021946Z AUTO 33006KT 10SM SCT025 16/08 A3011 RMK AO2=
201010021946 SPECI KCLM 021946Z AUTO 33006KT 10SM SCT025 16/08 A3011 RMK AO2=
201010021853 METAR KCLM 021853Z AUTO 32007KT 10SM OVC025 14/08 A3012 RMK AO2 SLP198 T01440078=
201010021753 METAR KCLM 021753Z AUTO 31004KT 10SM OVC025 14/08 A3013 RMK AO2 SLP203 T01390083 10144 20128 50001=
201010021653 METAR KCLM 021653Z AUTO 31005KT 10SM OVC023 14/08 A3013 RMK AO2 SLP204 T01390083=
201010021553 METAR KCLM 021553Z AUTO 31003KT 10SM OVC023 13/09 A3013 RMK AO2 SLP202 T01330094=
201010021453 METAR KCLM 021453Z AUTO 00000KT 10SM SCT016 OVC026 13/11 A3013 RMK AO2 SLP202 T01280106 50003=
201010021353 METAR KCLM 021353Z AUTO 27005KT 10SM OVC024 13/10 A3013 RMK AO2 SLP203 T01330100=
201010021253 METAR KCLM 021253Z AUTO 26004KT 10SM OVC024 13/11 A3012 RMK AO2 SLP201 T01330106=
201010021153 METAR KCLM 021153Z AUTO 26003KT 10SM OVC024 14/11 A3012 RMK AO2 SLP199 T01390106 10139 20133 58003=
201010021053 METAR KCLM 021053Z AUTO 23003KT 10SM OVC022 14/11 A3013 RMK AO2 SLP201 T01390111=
201010020953 METAR KCLM 020953Z AUTO 25004KT 10SM OVC020 14/11 A3013 RMK AO2 SLP203 T01390111=
201010020853 METAR KCLM 020853Z AUTO 25004KT 10SM OVC022 14/11 A3013 RMK AO2 SLP203 T01390111 51002=
201010020753 METAR KCLM 020753Z AUTO 25004KT 10SM OVC018 14/12 A3013 RMK AO2 SLP203 T01390117 401940078=
201010020653 METAR KCLM 020653Z AUTO 25007KT 10SM OVC020 13/12 A3013 RMK AO2 SLP202 T01330122=
201010020553 METAR KCLM 020553Z AUTO 24005KT 10SM OVC016 14/12 A3012 RMK AO2 SLP201 T01390117 10178 20139 51009=
201010020453 METAR KCLM 020453Z AUTO 23006KT 10SM OVC016 14/12 A3012 RMK AO2 SLP201 T01440117=
201010020353 METAR KCLM 020353Z AUTO 27006KT 10SM OVC016 14/12 A3011 RMK AO2 SLP196 T01440117=
201010020253 METAR KCLM 020253Z AUTO 28006KT 10SM OVC016 14/12 A3010 RMK AO2 SLP192 T01440117 53010=
201010020153 METAR KCLM 020153Z AUTO 30008KT 10SM OVC022 15/12 A3009 RMK AO2 SLP189 T01500122=
201010020053 METAR KCLM 020053Z AUTO 29007KT 10SM OVC024 15/12 A3008 RMK AO2 SLP184 T01500122=
201010020028 SPECI KCLM 020028Z AUTO 30009G18KT 10SM SCT022 BKN027 16/12 A3008 RMK AO2=
201010020028 SPECI KCLM 020028Z AUTO 30009G18KT 10SM SCT022 BKN027 16/12 A3008 RMK AO2=
201010012353 METAR KCLM 012353Z AUTO 30013G19KT 10SM FEW023 18/12 A3007 RMK AO2 SLP182 T01780122 10194 20161 53013=
201010012253 METAR KCLM 012253Z AUTO 30008KT 10SM CLR 19/12 A3005 RMK AO2 SLP175 T01890122=
201010012153 METAR KCLM 012153Z AUTO VRB04KT 10SM CLR 19/13 A3004 RMK AO2 SLP171 T01890128=
201010012053 METAR KCLM 012053Z AUTO 29006KT 10SM CLR 18/13 A3003 RMK AO2 SLP169 T01830128 52008=
201010011953 METAR KCLM 011953Z AUTO 30009KT 10SM CLR 18/12 A3002 RMK AO2 SLP167 T01830122=
201010011853 METAR KCLM 011853Z AUTO 32005KT 10SM CLR 17/11 A3001 RMK AO2 SLP162 T01670111=
201010011753 METAR KCLM 011753Z AUTO 31006KT 10SM CLR 16/11 A3000 RMK AO2 SLP160 T01610106 10161 20078 51019=
201010011653 METAR KCLM 011653Z AUTO 31003KT 10SM CLR 14/10 A2999 RMK AO2 SLP154 T01440100=
201010011553 METAR KCLM 011553Z AUTO 20003KT 10SM CLR 14/11 A2997 RMK AO2 SLP148 T01440106=
201010011453 METAR KCLM 011453Z AUTO 00000KT 10SM CLR 12/09 A2995 RMK AO2 SLP142 T01170094 53017=
201010011353 METAR KCLM 011353Z AUTO 00000KT 10SM CLR 08/07 A2992 RMK AO2 SLP134 T00830072=
201010011253 METAR KCLM 011253Z AUTO 22005KT 10SM CLR 10/08 A2991 RMK AO2 SLP128 T01000078=
201010011153 METAR KCLM 011153Z AUTO 00000KT 10SM CLR 09/08 A2990 RMK AO2 SLP124 T00940078 10122 20083 51010=
201010011053 METAR KCLM 011053Z AUTO 23005KT 10SM CLR 11/08 A2989 RMK AO2 SLP121 T01060083=
201010010953 METAR KCLM 010953Z AUTO 20003KT 10SM CLR 09/08 A2988 RMK AO2 SLP117 T00940078=
201010010853 METAR KCLM 010853Z AUTO 23005KT 10SM CLR 10/08 A2987 RMK AO2 SLP113 T01000083 53002=
201010010753 METAR KCLM 010753Z AUTO 23004KT 10SM CLR 11/08 A2986 RMK AO2 SLP111 T01060083 401780061=
201010010653 METAR KCLM 010653Z AUTO 23004KT 10SM CLR 12/09 A2986 RMK AO2 SLP112 T01220094=
201010010553 METAR KCLM 010553Z AUTO 15003KT 10SM CLR 10/08 A2986 RMK AO2 SLP111 T01000083 10178 20100 53005=
201010010453 METAR KCLM 010453Z AUTO 18003KT 10SM CLR 11/09 A2985 RMK AO2 SLP108 T01060089 TSNO=
201010010353 METAR KCLM 010353Z AUTO 18003KT 10SM CLR 11/09 A2984 RMK AO2 SLP106 T01060089=
201010010253 METAR KCLM 010253Z AUTO 21004KT 10SM CLR 12/10 A2985 RMK AO2 SLP107 T01170100 56006=
201010010153 METAR KCLM 010153Z AUTO 22003KT 10SM CLR 14/11 A2985 RMK AO2 SLP109 T01440106=
201010010053 METAR KCLM 010053Z AUTO 13003KT 10SM CLR 17/09 A2986 RMK AO2 SLP110 T01720094=

# No short TAF reports from KCLM in databse.

###################################
#  large TAF from KCLM
###################################
201010312327 TAF KCLM 312327Z 0100/0124 VRB03KT P6SM BKN050 BKN120 FM010300
                       09006KT P6SM -RA BKN040 OVC100 FM010700
                       09012KT P6SM -RA BKN020 OVC040 FM011200
                       VRB05KT 5SM RA BR OVC020 FM011700 28012KT
                       P6SM -SHRA BKN025 BKN050=
201010311720 TAF KCLM 311720Z 3118/0118 24005KT P6SM SCT025 BKN050 BKN120 FM010300
                       09006KT P6SM -RA BKN040 OVC100 FM010700
                       09012KT P6SM -RA BKN020 OVC040 FM011200
                       VRB05KT 5SM RA BR OVC020 FM011700 28012KT
                       P6SM -SHRA BKN025 BKN050=
201010311139 TAF KCLM 311139Z 3112/0112 26012KT P6SM -SHRA BKN040 BKN060 FM311600
                       26008KT P6SM BKN050 FM311800 VRB03KT P6SM
                       SCT050 FM312200 VRB03KT P6SM SCT050 BKN100
                       OVC200 FM010600 VRB03KT P6SM -RA OVC045=
201010310540 TAF KCLM 310540Z 3106/0106 28008KT P6SM -RA OVC060 FM310800 26008KT
                       P6SM -SHRA SCT015 BKN040 FM311600 VRB03KT
                       P6SM SCT040 FM312200 VRB03KT P6SM SCT050
                       BKN100 OVC200=
201010302320 TAF KCLM 302320Z 3100/3124 VRB04KT P6SM SCT007 BKN050 OVC100 FM310300
                       09005KT P6SM -RA SCT015 OVC035
                      TEMPO 3106/3110 4SM -RA BR BKN015 OVC030
                       FM311000 27012KT P6SM -SHRA SCT015 BKN040
                       FM311600 27007KT P6SM SCT040 FM312200 VRB03KT
                       P6SM BKN050 OVC200=
201010301825 KCLM 301825Z 3018/3118 VRB04KT P6SM SCT007 BKN050 OVC100
                      TEMPO 3018/3022 BKN007 OVC050 FM310300 09005KT
                       P6SM -RA SCT015 OVC035
                      TEMPO 3106/3110 4SM -RA BR BKN015 OVC030
                       FM311000 27012KT P6SM -SHRA SCT015 BKN040
                       FM311600 27007KT P6SM SCT040=
201010301722 TAF KCLM 301722Z 3018/3118 VRB04KT P6SM SCT050 BKN120 FM302000
                       VRB04KT P6SM BKN050 OVC100 FM310300 09005KT
                       P6SM -RA SCT015 OVC035
                      TEMPO 3106/3110 4SM -RA BR BKN015 OVC030
                       FM311000 27012KT P6SM -SHRA SCT015 BKN040
                       FM311600 27007KT P6SM SCT040=
201010301230 KCLM 301230Z 3013/3112 22004KT P6SM BKN005 FM301600 VRB03KT P6SM
                       SCT100 BKN200 FM302000 09006KT P6SM BKN070
                       OVC120 FM302300 09006KT P6SM -RA OVC045
                       FM311000 26008KT P6SM -SHRA SCT015 BKN025
                       OVC040=
201010301139 TAF KCLM 301139Z 3012/3112 00000KT P6SM SCT003
                      TEMPO 3013/3014 BKN003 FM301500 VRB03KT P6SM
                       SCT100 BKN200 FM302000 09006KT P6SM BKN070
                       OVC120 FM302300 09006KT P6SM -RA OVC045
                       FM311000 26008KT P6SM -SHRA SCT015 BKN025
                       OVC040=
201010300538 TAF KCLM 300538Z 3006/3106 00000KT P6SM SKC
                      TEMPO 3008/3011 4SM BR FM301600 VRB03KT P6SM
                       SCT100 BKN200 FM302000 09006KT P6SM BKN070
                       OVC120 FM302300 09006KT P6SM -RA OVC045=
201010292320 TAF KCLM 292320Z 3000/3024 00000KT P6SM SCT003 BKN050
                      TEMPO 3004/3007 3SM BR BKN003 FM300700 09005KT
                       3SM BR BKN003
                      TEMPO 3010/3014 1SM BR OVC001 FM301700 09007KT
                       P6SM BKN010 BKN040 OVC100=
201010292115 KCLM 292115Z 2921/3018 00000KT P6SM SCT003 BKN050
                      TEMPO 2921/2924 2SM BR BKN002 FM300900 09005KT
                       3SM BR BKN003
                      TEMPO 3010/3014 2SM BR OVC003 FM301700 09007KT
                       P6SM BKN010 BKN040 OVC100=
201010292102 KCLM 292102Z 2921/3018 00000KT 5SM BR BKN003 BKN050
                      TEMPO 2921/2924 2SM BR BKN001 FM300000 VRB03KT
                       P6SM SCT005 BKN050 FM300900 09005KT 5SM
                       BR BKN005
                      TEMPO 3010/3014 2SM BR OVC003 FM301700 09007KT
                       P6SM BKN010 BKN040 OVC100=
201010291908 KCLM 291908Z 2919/3018 05005KT 3SM BR SCT003 BKN050
                      TEMPO 2919/2921 1SM BR BKN003 OVC050 FM292200
                       VRB03KT P6SM SCT010 BKN050 FM301200 09005KT
                       5SM BR BKN010
                      TEMPO 3014/3017 2SM BR OVC008 FM301700 09007KT
                       P6SM BKN015 BKN040 OVC100=
201010291720 TAF KCLM 291720Z 2918/3018 VRB03KT P6SM BKN050 FM292200 VRB03KT
                       P6SM SCT050 FM301200 09005KT P6SM SCT010
                       SCT050
                      TEMPO 3014/3017 3SM BR BKN010 BKN050 FM301700
                       09007KT P6SM BKN040 OVC100=
201010291632 KCLM 291632Z 2917/3012 13004KT P6SM BKN070 FM292100 VRB03KT P6SM
                       SCT060 FM300000 25004KT P6SM SCT100=
201010291501 KCLM 291501Z 2915/3012 VRB03KT 3SM BR SCT015
                      TEMPO 2915/2917 1SM BR BKN010 FM291800 VRB03KT
                       P6SM SCT060 FM300000 25004KT P6SM SCT100=
201010291126 TAF KCLM 291126Z 2912/3012 25005KT P6SM SCT040 BKN060 FM292000
                       VRB03KT P6SM SCT060 FM300000 25004KT P6SM
                       SCT100=
201010291017 KCLM 291017Z 2910/3006 25005KT P6SM SCT006 SCT040 OVC060 FM291900
                       VRB03KT P6SM SCT040 FM300000 00000KT P6SM
                       FEW250=
201010290526 TAF KCLM 290526Z 2906/3006 00000KT 2SM BR SCT001 SCT020
                      TEMPO 2906/2910 1/2SM FG BKN001 FM291000
                       VRB03KT 1/2SM FG OVC001 FM291500 VRB03KT
                       P6SM BKN012 FM291900 VRB03KT P6SM SCT035
                       FM300000 00000KT P6SM FEW250=
201010290418 KCLM 290418Z 2904/2924 00000KT P6SM SCT060 BKN100
                      TEMPO 2904/2908 1SM BR SCT005 FM291200 VRB03KT
                       P6SM OVC012 FM292000 07003KT P6SM SCT035
                       SCT200=
201010282337 TAF KCLM 282337Z 2900/2924 00000KT P6SM BKN016 OVC060 FM290200
                       VRB03KT P6SM BKN035 FM291500 VRB03KT P6SM
                       OVC025 FM292000 07003KT P6SM SCT035 SCT200=
201010282101 KCLM 282101Z 2821/2918 33004KT P6SM OVC018 FM290200 VRB03KT P6SM
                       BKN035 FM291500 VRB03KT P6SM OVC025=
201010281733 TAF KCLM 281733Z 2818/2918 24004KT P6SM VCSH SCT070 BKN110 FM282100
                       VRB03KT P6SM BKN040 BKN070 FM290200 VRB03KT
                       P6SM BKN035 FM291500 VRB03KT P6SM OVC025=
201010281128 TAF KCLM 281128Z 2812/2912 09007KT P6SM FEW050 OVC100 FM281400
                       10007KT P6SM -RA SCT050 OVC070 FM282100
                       VRB03KT P6SM BKN040 BKN070 FM290200 VRB03KT
                       P6SM BKN035=
201010280536 TAF KCLM 280536Z 2806/2906 08007KT P6SM OVC100 FM281200 09011KT
                       P6SM SCT050 BKN080 OVC100 FM281600 10005KT
                       P6SM -RA BKN050 OVC070 FM281900 VRB03KT
                       P6SM VCSH BKN040 BKN070 FM282300 VRB03KT
                       P6SM BKN040=
201010280421 KCLM 280421Z 2804/2824 08007KT P6SM OVC100 FM281200 09011KT P6SM
                       SCT050 BKN080 OVC100 FM281600 10005KT P6SM
                       -RA BKN050 OVC070 FM281900 VRB03KT P6SM
                       VCSH BKN040 BKN070=
201010272339 TAF KCLM 272339Z 2800/2824 08007KT P6SM OVC025 FM281200 09011KT
                       P6SM SCT050 BKN080 OVC100
                      PROB30 2812/2816 -RA FM281600 10005KT P6SM
                       -RA BKN050 OVC070 FM281900 VRB03KT P6SM
                       VCSH BKN040 BKN070=
201010272144 KCLM 272144Z 2722/2818 07007KT P6SM FEW015 SCT250
                      TEMPO 2722/2724 BKN015 FM280600 07009KT P6SM
                       SCT070 BKN100 OVC150 FM281200 09011KT P6SM
                       SCT050 BKN080 OVC100
                      PROB30 2812/2816 -RA FM281600 10005KT P6SM
                       -RA BKN050 OVC070=
201010272002 KCLM 272002Z 2720/2818 07007KT P6SM FEW010 SCT250
                      TEMPO 2720/2721 OVC010 FM280600 07009KT P6SM
                       SCT070 BKN100 OVC150 FM281200 09011KT P6SM
                       SCT050 BKN080 OVC100
                      PROB30 2812/2816 -RA FM281600 10005KT P6SM
                       -RA BKN050 OVC070=
201010271735 TAF KCLM 271735Z 2718/2818 00000KT P6SM SCT020 BKN050 FM272000
                       VRB03KT P6SM SCT050 SCT250 FM280600 07004KT
                       P6SM SCT070 BKN100 OVC150 FM281200 07005KT
                       P6SM SCT050 BKN080 OVC100
                      PROB30 2812/2816 -RA FM281600 07005KT P6SM
                       -RA BKN050 OVC070=
201010271139 TAF KCLM 271139Z 2712/2812 VRB03KT P6SM BKN060 BKN090 FM271900
                       06006KT P6SM SCT060 SCT250 FM280000 06006KT
                       P6SM SCT100 SCT250 FM280600 09005KT P6SM
                       SCT100 BKN250=
201010270525 TAF KCLM 270525Z 2706/2806 VRB03KT P6SM BKN025 BKN035
                      TEMPO 2706/2708 -SHRA FM271800 VRB03KT P6SM
                       SCT030 FM272200 06006KT P6SM FEW030 FM280000
                       06006KT P6SM SCT250=
201010262335 TAF KCLM 262335Z 2700/2724 26005KT P6SM VCSH FEW009 SCT014 OVC025
                       FM270600 VRB03KT P6SM SCT015 BKN025 FM271800
                       VRB03KT P6SM SCT030 FM272200 06006KT P6SM
                       FEW030=
201010262026 KCLM 262026Z 2620/2718 27005KT P6SM VCSH BKN030 OVC035
                      TEMPO 2620/2622 3SM SHRA BR BKN022 OVC030
                       FM270000 28008KT P6SM VCSH BKN040 BKN050
                       FM270800 28004KT P6SM SCT030 BKN040=
201010262024 KCLM 262024Z 2620/2718 27005KT P6SM VCSH BKN028 OVC035 FM270000
                       28008KT P6SM VCSH BKN040 BKN050 FM270800
                       28004KT P6SM SCT030 BKN040=
201010261733 TAF KCLM 261733Z 2618/2718 VRB04KT P6SM VCSH OVC050 FM270000 28008KT
                       P6SM VCSH BKN040 BKN050 FM270800 28004KT
                       P6SM SCT030 BKN040=
201010261130 TAF KCLM 261130Z 2612/2712 26010KT P6SM -SHRA FEW025 SCT030 BKN060
                       TEMPO 2612/2616 BKN025 FM261800 28010KT
                       P6SM -SHRA BKN040 BKN060 FM270000 28010KT
                       P6SM VCSH BKN040 BKN050 FM270300 26005KT
                       P6SM SCT030 BKN040=
201010260525 TAF KCLM 260525Z 2606/2706 26010KT P6SM -SHRA BKN035 OVC050 FM260900
                       26010KT P6SM -SHRA BKN025 OVC040 FM261800
                       29010KT P6SM -SHRA BKN040 BKN060=
201010252340 TAF KCLM 252340Z 2600/2624 26010KT P6SM -SHRA BKN035 OVC050 FM260800
                       26010KT P6SM -SHRA BKN025 OVC040 FM261800
                       29010KT P6SM -SHRA BKN040 BKN060=
201010251737 TAF KCLM 251737Z 2518/2618 21008KT P6SM -SHRA BKN040 OVC050 FM252100
                       26010KT P6SM -SHRA SCT025 BKN040 OVC050
                       FM260800 26008KT P6SM -SHRA BKN025 OVC040=
201010251120 TAF KCLM 251120Z 2512/2612 23011KT P6SM -SHRA BKN035 OVC050 FM252000
                       26010KT P6SM -SHRA SCT020 BKN050 BKN080=
201010250520 TAF KCLM 250520Z 2506/2606 VRB05KT P6SM -SHRA SCT015 BKN035 BKN050
                       FM252000 26009KT P6SM -SHRA SCT020 BKN050
                       BKN080=
201010242336 TAF KCLM 242336Z 2500/2524 VRB05KT P6SM -SHRA SCT025 BKN050 BKN080
                       FM250700 VRB05KT P6SM -SHRA SCT015 BKN035
                       BKN050 FM251700 25007KT P6SM -SHRA SCT020
                       BKN050 BKN080=
201010241735 TAF KCLM 241735Z 2418/2518 VRB05KT P6SM -SHRA SCT025 BKN050 OVC080
                       FM250700 VRB05KT P6SM -SHRA SCT015 BKN025
                       OVC050 FM251700 25007KT P6SM -SHRA SCT020
                       BKN050 BKN080=
201010241120 TAF KCLM 241120Z 2412/2512 VRB03KT P6SM -SHRA SCT025 BKN040 OVC070
                       FM250700 24008KT 5SM SHRA BR SCT015 OVC025=
201010240526 TAF KCLM 240526Z 2406/2506 VRB03KT P6SM -RA OVC045 FM241300 VRB03KT
                       P6SM -SHRA SCT025 BKN045=
201010232342 TAF KCLM 232342Z 2400/2424 07004KT P6SM -RA BKN060 BKN100 FM240400
                       VRB03KT P6SM -RA SCT030 OVC050 FM240700
                       VRB03KT P6SM -RA BKN040 OVC050 FM241700
                       VRB03KT 5SM -RA BR BKN030 OVC045 FM242200
                       VRB03KT P6SM -SHRA BKN045=
201010231744 TAF KCLM 231744Z 2318/2418 09003KT P6SM BKN060 BKN100 FM240200
                       VRB03KT P6SM -RA SCT030 OVC050 FM240700
                       VRB03KT P6SM -RA BKN030 OVC050=
201010231443 KCLM 231443Z 2315/2412 VRB03KT P6SM BKN007 OVC070
                      TEMPO 2315/2318 -RA FM232100 VRB03KT P6SM
                       BKN050 BKN100 FM240200 VRB03KT P6SM -RA
                       SCT025 OVC050 FM240700 09006KT P6SM -RA
                       BKN025 OVC050=
201010231120 TAF KCLM 231120Z 2312/2412 00000KT P6SM OVC050
                      TEMPO 2314/2318 -RA FM232000 VRB03KT P6SM
                       BKN050 BKN100 FM240200 VRB03KT P6SM -RA
                       SCT025 OVC050 FM240700 09006KT P6SM -RA
                       BKN025 OVC050=
201010230521 TAF KCLM 230521Z 2306/2406 00000KT P6SM BKN070 OVC100 FM230800
                       VRB03KT P6SM -RA SCT050 OVC070 FM231500
                       VRB03KT P6SM -RA BKN045 OVC070 FM232000
                       VRB03KT P6SM BKN070 BKN100 FM240200 VRB03KT
                       P6SM -RA SCT025 OVC050=
201010222332 TAF KCLM 222332Z 2300/2324 09005KT P6SM BKN090 OVC200 FM230800
                       09005KT P6SM -RA SCT050 OVC070 FM231500
                       VRB03KT P6SM -RA BKN045 OVC070 FM232000
                       VRB03KT P6SM BKN070 BKN100=
201010221729 TAF KCLM 221729Z 2218/2318 VRB03KT P6SM VCSH BKN060 OVC100 FM222100
                       VRB03KT P6SM BKN080 BKN150 FM230200 VRB03KT
                       P6SM BKN100 BKN200 FM230900 VRB03KT P6SM
                       -RA SCT050 OVC070 FM231500 VRB03KT P6SM
                       -RA BKN045 OVC070=
201010221120 TAF KCLM 221120Z 2212/2312 23004KT P6SM VCSH SCT060 OVC100 FM221900
                       VRB03KT P6SM SCT050 BKN150 FM230300 VRB03KT
                       P6SM BKN120 FM230900 VRB03KT P6SM -RA SCT015
                       OVC035=
201010220814 KCLM 220814Z 2208/2306 24005KT P6SM BKN060 FM221400 VRB03KT P6SM
                       VCSH SCT025 BKN060 FM221900 VRB03KT P6SM
                       SCT050 BKN150=
201010220530 TAF KCLM 220530Z 2206/2306 29004KT 2SM -RA BR OVC001 FM220800 VRB03KT
                       P6SM -RA BKN015 OVC035 FM221400 VRB03KT
                       P6SM VCSH BKN025 BKN050 FM221900 VRB03KT
                       P6SM SCT050 BKN150=
201010220410 KCLM 220410Z 2204/2224 27004KT 4SM BR BKN001 FM220800 VRB03KT P6SM
                       -RA SCT020 OVC035=
201010220149 KCLM 220149Z 2202/2224 VRB03KT P6SM SCT002 BKN100 OVC200
                      TEMPO 2202/2204 4SM BR BKN002 FM220600 VRB03KT
                       P6SM -RA SCT020 OVC035=
201010212323 TAF KCLM 212323Z 2200/2224 00000KT P6SM SKC FM220200 VRB03KT P6SM
                       SCT040 BKN100 OVC200 FM220600 VRB03KT P6SM
                       -RA SCT020 OVC035=
201010211905 KCLM 211905Z 2119/2218 00000KT P6SM SCT002 BKN007
                      TEMPO 2119/2121 2SM BR BKN002 OVC007 FM212100
                       VRB03KT P6SM SCT010 BKN040 FM220200 VRB03KT
                       P6SM SCT040 BKN100 OVC200 FM220600 VRB03KT
                       P6SM -RA SCT020 OVC035=
201010211726 TAF KCLM 211726Z 2118/2218 00000KT P6SM SCT003
                      TEMPO 2118/2120 BKN003 FM212000 VRB03KT P6SM
                       SKC FM220200 VRB03KT P6SM SCT040 BKN100
                       OVC200 FM220600 VRB03KT P6SM -RA SCT020
                       OVC035=
201010211631 KCLM 211631Z 2117/2212 00000KT P6SM BKN002 FM211800 VRB03KT P6SM
                       SCT003
                      TEMPO 2118/2120 BKN003 FM220200 VRB03KT P6SM
                       SCT040 BKN100 OVC200 FM220600 VRB03KT P6SM
                       -RA SCT020 OVC035=
201010211304 KCLM 211304Z 2113/2212 00000KT 5SM BR SCT003
                      TEMPO 2113/2116 3/4SM BR VV001 FM211800 VRB03KT
                       P6SM SCT250 FM220200 VRB03KT P6SM SCT040
                       BKN100 OVC200 FM220600 VRB03KT P6SM -RA
                       SCT020 OVC035=
201010211120 TAF KCLM 211120Z 2112/2212 00000KT P6SM VCFG SKC FM211800 VRB03KT
                       P6SM SCT250 FM220200 VRB03KT P6SM SCT040
                       BKN100 OVC200 FM220600 VRB03KT P6SM -RA
                       SCT020 OVC035=
201010210521 TAF KCLM 210521Z 2106/2206 00000KT P6SM SKC FM210700 23004KT P6SM
                       FEW250 FM211800 VRB03KT P6SM SCT250 FM220200
                       VRB03KT P6SM SCT040 BKN100 OVC200=
201010202322 TAF KCLM 202322Z 2100/2124 08005KT P6SM FEW250 FM210700 23004KT
                       P6SM FEW250 FM211800 VRB03KT P6SM SCT250=
201010201728 TAF KCLM 201728Z 2018/2118 07004KT P6SM SKC FM210700 23004KT P6SM
                       SCT250=
201010201128 TAF KCLM 201128Z 2012/2112 16003KT P6SM VCFG SKC FM201900 07004KT
                       P6SM SKC FM202100 VRB03KT P6SM SCT250=
201010200520 TAF KCLM 200520Z 2006/2106 00000KT P6SM SKC FM201900 07004KT P6SM
                       SKC=
201010192322 TAF KCLM 192322Z 2000/2024 10004KT P6SM FEW250 FM200400 23003KT
                       P6SM SKC FM201900 07004KT P6SM SKC=
201010191722 TAF KCLM 191722Z 1918/2018 VRB03KT P6SM SKC=
201010191120 TAF KCLM 191120Z 1912/2012 22005KT P6SM SKC
                      TEMPO 1912/1915 5SM BR BKN006 FM192000 VRB03KT
                       P6SM SCT250 FM200300 00000KT P6SM SKC=
201010190552 TAF KCLM 190552Z 1906/2006 00000KT P6SM SCT250
                      TEMPO 1911/1915 5SM BR BKN006 OVC050 FM192000
                       VRB03KT P6SM SCT120 BKN250=
201010182324 TAF KCLM 182324Z 1900/1924 23003KT P6SM BKN050 BKN120
                      TEMPO 1911/1915 5SM BR BKN006 OVC050 FM192000
                       VRB03KT P6SM SCT120 BKN250=
201010181734 TAF KCLM 181734Z 1818/1918 VRB03KT P6SM SCT120 BKN200=
201010181124 TAF KCLM 181124Z 1812/1912 00000KT P6SM SCT120 OVC200 FM190300
                       VRB03KT P6SM SCT200=
201010180529 TAF KCLM 180529Z 1806/1906 00000KT P6SM BKN200 FM180800 00000KT
                       P6SM BKN120 OVC200 FM190300 VRB03KT P6SM
                       SCT250=
201010172320 TAF KCLM 172320Z 1800/1824 00000KT P6SM SCT250 FM180800 00000KT
                       P6SM BKN120 OVC200 FM181200 VRB03KT P6SM
                       BKN100=
201010171724 TAF KCLM 171724Z 1718/1818 VRB04KT P6SM SCT250 FM180000 33006KT
                       P6SM BKN250 FM180600 VRB04KT P6SM BKN120
                       OVC200=
201010171120 TAF KCLM 171120Z 1712/1812 22004KT P6SM SKC
                      TEMPO 1714/1717 1/2SM FG BKN001 FM180700
                       00000KT P6SM BKN250=
201010170558 TAF KCLM 170558Z 1706/1806 24006KT P6SM SKC=
201010162320 TAF KCLM 162320Z 1700/1724 VRB04KT P6SM SKC=
201010161819 KCLM 161819Z 1618/1718 VRB04KT P6SM SCT018
                      TEMPO 1618/1620 BKN018 FM162000 30006KT P6SM
                       SKC FM170300 VRB03KT P6SM SKC=
201010161720 TAF KCLM 161720Z 1618/1718 23005KT P6SM SKC FM162000 30006KT P6SM
                       SKC FM170300 VRB03KT P6SM SKC=
201010161411 KCLM 161411Z 1614/1712 23006KT P6SM SCT018 SCT035
                      TEMPO 1615/1617 BKN018 FM161800 30007KT P6SM
                       SCT035 FM161900 32008KT P6SM SKC FM170300
                       23003KT P6SM SKC=
201010161346 KCLM 161346Z 1614/1712 23006KT P6SM BKN018 BKN030 FM161700 30007KT
                       P6SM SCT035 FM161900 32008KT P6SM SKC FM170300
                       23003KT P6SM SKC=
201010161124 TAF KCLM 161124Z 1612/1712 21003KT P6SM SCT250 FM162200 27005KT
                       P6SM SCT250=
201010160541 TAF KCLM 160541Z 1606/1706 21003KT P6SM SKC=
201010152320 TAF KCLM 152320Z 1600/1624 VRB04KT P6SM SCT200=
201010151720 TAF KCLM 151720Z 1518/1618 24004KT P6SM SKC FM152200 VRB04KT P6SM
                       SKC=
201010151133 TAF KCLM 151133Z 1512/1612 32006KT P6SM FEW015 SCT050
                      TEMPO 1512/1514 FEW015 BKN050 FM151600 32008KT
                       P6SM SKC FM160100 VRB03KT P6SM SKC FM160600
                       VRB03KT P6SM SCT007=
201010150537 TAF KCLM 150537Z 1506/1606 28009KT P6SM SCT025 SCT050
                      TEMPO 1506/1510 -SHRA BKN024 BKN050 FM151000
                       25006KT P6SM FEW018 FM151800 32008KT P6SM
                       SKC FM160100 VRB03KT P6SM SKC=
201010150435 KCLM 150435Z 1505/1524 27009KT P6SM SCT025 SCT060
                      TEMPO 1505/1507 5SM SHRA BKN025 BKN050 FM150700
                       27009KT P6SM SCT025 SCT050 FM151100 24007KT
                       P6SM BKN020 FM151800 29006KT P6SM SCT025=
201010142321 TAF KCLM 142321Z 1500/1524 29010KT P6SM SCT025 BKN050 FM150300
                       28010KT P6SM SCT025 SCT050 FM151100 24007KT
                       P6SM BKN020 FM151800 29006KT P6SM SCT025=
201010141813 KCLM 141813Z 1418/1518 32010KT P6SM -RA BKN025 OVC050 FM150000
                       28014KT P6SM SCT025 BKN050 FM150300 28010KT
                       P6SM SCT025 SCT050 FM151100 24007KT P6SM
                       BKN025=
201010141725 TAF KCLM 141725Z 1418/1518 28010KT P6SM -RA BKN015 OVC060 FM142000
                       29012KT P6SM -RA BKN020 OVC050 FM150000
                       28014KT P6SM SCT025 BKN050 FM150300 28010KT
                       P6SM SCT025 SCT050 FM151100 24007KT P6SM
                       BKN025=
201010141600 KCLM 141600Z 1416/1512 24006KT P6SM BKN010 BKN120 OVC250 FM141700
                       28006KT P6SM BKN010 BKN060 OVC120
                      TEMPO 1417/1420 -RA FM142000 28009KT P6SM
                       -RA BKN020 OVC050 FM150000 28013KT P6SM
                       SCT025 BKN050 FM150300 28009KT P6SM SCT025
                       SCT050=
201010141121 TAF KCLM 141121Z 1412/1512 24006KT P6SM SCT120 SCT250 FM141400
                       24006KT P6SM FEW008 BKN120 OVC250 FM141700
                       28006KT P6SM SCT015 BKN060 OVC120
                      TEMPO 1417/1420 -RA FM142000 28009KT P6SM
                       -RA BKN025 OVC050 FM150000 28013KT P6SM
                       SCT025 BKN050
                      PROB30 1500/1503 -SHRA FM150300 28009KT P6SM
                       SCT025 SCT050=
201010140550 TAF KCLM 140550Z 1406/1506 VRB03KT P6SM VCFG SCT250 FM141500 VRB03KT
                       P6SM SCT120 BKN250 FM141800 23006KT P6SM
                       SCT025 SCT060 OVC120
                      PROB30 1418/1421 -RA SCT025 BKN060 OVC120
                       FM142100 28009KT P6SM -RA BKN025 OVC050
                       FM150000 28012KT P6SM SCT025 BKN050
                      PROB30 1500/1503 -SHRA FM150300 28012KT P6SM
                       SCT025 SCT050=
201010132320 TAF KCLM 132320Z 1400/1424 VRB03KT P6SM FEW250 FM140900 VRB03KT
                       P6SM BKN150 OVC250 FM141400 23003KT P6SM
                       BKN050 BKN120 FM141600 25005KT 6SM -RA BKN035
                       BKN060 FM142000 30005KT 5SM -RA BKN030 BKN050=
201010131731 TAF KCLM 131731Z 1318/1418 VRB03KT P6SM BKN007 BKN250 FM131900
                       07007KT P6SM SCT008 SCT250 FM132200 VRB03KT
                       P6SM SCT250 FM140900 VRB03KT P6SM BKN150
                       OVC250 FM141400 23003KT P6SM BKN050 BKN120
                       TEMPO 1416/1418 5SM -RA BKN035=
201010131604 KCLM 131604Z 1316/1412 VRB03KT P6SM SCT008 SCT250
                      TEMPO 1316/1318 4SM MIFG BKN008 FM131800
                       07007KT P6SM SCT250 FM132200 VRB03KT P6SM
                       SCT250 FM140900 VRB03KT P6SM SCT120 OVC250=
201010131449 KCLM 131449Z 1315/1412 00000KT P6SM MIFG SCT008 SCT250
                      TEMPO 1315/1316 4SM MIFG BKN008 FM131700
                       07007KT P6SM SCT250 FM132200 VRB03KT P6SM
                       SCT250 FM140900 VRB03KT P6SM SCT120 OVC250=
201010131121 TAF KCLM 131121Z 1312/1412 00000KT P6SM MIFG SCT250
                      TEMPO 1312/1316 4SM MIFG FM131700 07007KT
                       P6SM SCT250 FM132200 VRB03KT P6SM SCT250
                       FM140900 VRB03KT P6SM SCT120 OVC250=
201010130537 TAF KCLM 130537Z 1306/1406 00000KT P6SM BCFG BKN250 FM130900 00000KT
                       6SM MIFG SCT250
                      TEMPO 1309/1312 2SM MIFG FM131200 00000KT
                       2SM MIFG SCT250
                      TEMPO 1312/1316 1/4SM FG VV001 FM131700 07007KT
                       P6SM SCT250 FM132200 VRB03KT P6SM SCT250=
201010122320 TAF KCLM 122320Z 1300/1324 VRB03KT P6SM SKC FM131200 00000KT 2SM
                       BR FEW200 FM131400 00000KT 1/4SM FG VV001
                       FM131600 VRB02KT P6SM SKC=
201010121720 TAF KCLM 121720Z 1218/1318 VRB03KT P6SM BKN200 FM130000 31004KT
                       P6SM SCT200 FM130600 00000KT 2SM BR FEW200
                       FM130900 00000KT 1/4SM FG VV001=
201010121423 KCLM 121423Z 1214/1312 VRB03KT P6SM BKN030
                      TEMPO 1214/1217 1/2SM FG VV001 FM121700 VRB03KT
                       P6SM BKN200 FM121900 VRB03KT P6SM SCT200
                       FM130000 31004KT P6SM SKC FM130600 00000KT
                       2SM BR SKC FM130900 00000KT 1/4SM FG VV001=
201010121324 KCLM 121324Z 1213/1312 VRB03KT P6SM SCT003 BKN080
                      TEMPO 1213/1217 2SM BR BKN003 OVC080 FM121700
                       VRB03KT P6SM BKN200 FM121900 VRB03KT P6SM
                       SCT200 FM130000 31004KT P6SM SKC FM130600
                       00000KT 2SM BR SKC FM130900 00000KT 1/4SM
                       FG VV001=
201010121125 TAF KCLM 121125Z 1212/1312 VRB03KT P6SM SCT080 OVC200
                      TEMPO 1212/1214 BKN080 OVC200 FM121500 VRB03KT
                       P6SM BKN200 FM121800 VRB03KT P6SM SCT200
                       FM130000 31004KT P6SM SKC FM130600 00000KT
                       2SM BR SKC FM130900 00000KT 1/4SM FG VV001=
201010120901 TAF AMD KCLM 120901Z 1209/1306 VRB03KT P6SM VCSH SCT050 BKN080
                       OVC200
                      TEMPO 1209/1212 BKN050 BKN080 OVC200 FM121500
                       VRB03KT P6SM SCT080 OVC200 FM121800 VRB03KT
                       P6SM BKN200 FM130000 31004KT P6SM SCT200=
201010120520 TAF KCLM 120520Z 1206/1306 VRB03KT P6SM VCSH BKN080 OVC200 FM121500
                       VRB03KT P6SM SCT080 OVC200 FM121800 VRB03KT
                       P6SM BKN200 FM130000 31004KT P6SM SCT200=
201010112331 TAF KCLM 112331Z 1200/1224 00000KT P6SM SCT050 OVC070
                      TEMPO 1200/1204 -RA FM120400 25004KT P6SM
                       OVC050
                      TEMPO 1204/1208 -RA FM121800 VRB03KT P6SM
                       SCT050 SCT250=
201010111747 TAF KCLM 111747Z 1118/1218 23005KT P6SM BKN120 BKN250 FM120000
                       24004KT P6SM OVC080 FM120300 25004KT P6SM
                       BKN050 OVC080
                      PROB30 1203/1209 -RA FM121600 VRB03KT P6SM
                       SCT050 SCT250=
201010111139 TAF KCLM 111139Z 1112/1212 24010KT P6SM VCFG SKC FM111700 VRB03KT
                       P6SM SCT080 FM120000 24004KT P6SM OVC080=
201010111028 KCLM 111028Z 1110/1206 25010KT P6SM VCFG SKC FM111700 VRB03KT P6SM
                       SCT080 FM120000 00000KT P6SM BKN080=
201010110520 TAF KCLM 110520Z 1106/1206 25008KT P6SM SKC FM110900 VRB03KT P6SM
                       VCFG SKC FM111700 VRB03KT P6SM SCT080=
201010102327 TAF KCLM 102327Z 1100/1124 28012KT P6SM SCT050 FM110400 27006KT
                       P6SM SKC FM110900 VRB03KT P6SM VCFG SKC
                       FM111700 VRB03KT P6SM SCT080=
201010101727 TAF KCLM 101727Z 1018/1118 28008KT P6SM SCT050 FM110400 27006KT
                       P6SM SKC FM110900 VRB03KT P6SM SKC FM111700
                       VRB03KT P6SM SCT080=
201010101445 KCLM 101445Z 1015/1112 28010KT P6SM VCSH BKN045 FM110400 27010KT
                       P6SM SCT040 BKN080 FM110900 24005KT P6SM
                       SKC=
201010101130 TAF KCLM 101130Z 1012/1112 25005KT P6SM -SHRA OVC090 FM101400 28008KT
                       P6SM -SHRA SCT007 BKN015 FM101600 27010KT
                       P6SM VCSH SCT015 BKN080 FM110400 27010KT
                       P6SM SCT040 BKN080 FM110900 24005KT P6SM
                       SKC=
201010100530 TAF KCLM 100530Z 1006/1106 28003KT P6SM SCT010 BKN050 OVC100
                      TEMPO 1006/1010 3SM -RA BR OVC005 FM101200
                       28008KT P6SM -SHRA SCT007 BKN015 FM101600
                       27010KT P6SM VCSH SCT015 BKN080 FM110400
                       27010KT P6SM SCT040 BKN080=
201010100411 KCLM 100411Z 1004/1024 16003KT 5SM -RA BR SCT005 OVC060
                      TEMPO 1006/1010 3SM -RA BR OVC005 FM101200
                       27012KT P6SM -SHRA BKN015 BKN030 FM101600
                       27012G20KT P6SM VCSH BKN030 BKN060=
201010092320 TAF KCLM 092320Z 1000/1024 VRB04KT 5SM -RA BR BKN007 OVC050
                      TEMPO 1000/1004 3SM -RA BR OVC003 FM101200
                       27012KT P6SM -SHRA BKN015 BKN030 FM101600
                       27012G20KT P6SM VCSH BKN030 BKN060=
201010092205 KCLM 092205Z 0922/1018 VRB04KT 5SM -RA BR BKN007 OVC050
                      TEMPO 0922/1002 3SM -RA BR OVC005 FM100200
                       VRB04KT 3SM -RA BR BKN007 OVC015 FM101200
                       27012KT P6SM -SHRA BKN015 BKN030 FM101600
                       27012G20KT P6SM VCSH BKN030 BKN060=
201010092136 KCLM 092136Z 0922/1018 VRB04KT P6SM SCT020 OVC060
                      TEMPO 0922/1002 3SM -RA BR BKN020 OVC060
                       FM100200 VRB04KT 3SM -RA BR OVC015 FM101200
                       27012KT P6SM -SHRA BKN015 BKN030 FM101600
                       27012G20KT P6SM VCSH BKN030 BKN060=
201010091757 KCLM 091757Z 0918/1018 VRB04KT P6SM SCT002 SCT030 OVC060
                      TEMPO 0918/0921 3SM -RA BR BKN002 BKN030
                       OVC060 FM092100 09006KT 5SM -RA BR BKN005
                       OVC025 FM100300 09008KT 3SM -RA BR OVC015
                       FM101200 27012KT P6SM -SHRA BKN015 BKN030
                       FM101600 27012G20KT P6SM VCSH BKN030 BKN060=
201010091720 TAF KCLM 091720Z 0918/1018 VRB03KT P6SM SCT030 OVC060
                      TEMPO 0918/0921 -RA SCT005 BKN030 OVC060
                       FM092100 09006KT 5SM -RA BR OVC025 FM100300
                       09008KT 3SM -RA BR OVC015 FM101200 27012KT
                       P6SM -SHRA BKN015 BKN030 FM101600 27012G20KT
                       P6SM VCSH BKN030 BKN060=
201010091258 KCLM 091258Z 0913/1012 28003KT P6SM FEW006 OVC090
                      TEMPO 0913/0917 4SM -RA BR OVC006 FM091700
                       22002KT P6SM -RA OVC020 FM092100 10002KT
                       4SM -RA BR OVC015=
201010091140 TAF KCLM 091140Z 0912/1012 00000KT P6SM -RA OVC008 FM091700 22002KT
                       P6SM -RA OVC020 FM092100 10002KT 4SM -RA
                       BR OVC015=
201010090540 TAF KCLM 090540Z 0906/1006 18003KT P6SM -RA BKN040 OVC080 FM090800
                       22002KT 5SM -RA BR OVC025 FM091800 05002KT
                       P6SM -RA OVC015=
201010082331 TAF KCLM 082331Z 0900/0924 VRB04KT P6SM BKN100 FM090600 VRB04KT
                       P6SM -RA SCT040 OVC070 FM091200 VRB04KT
                       P6SM -RA BKN030 OVC050=
201010082010 KCLM 082010Z 0820/0918 VRB04KT P6SM -RA SCT005 BKN025 OVC080
                      TEMPO 0820/0822 3SM BR BKN003 FM082200 VRB04KT
                       P6SM -RA SCT005 BKN020 OVC050 FM090400 VRB03KT
                       P6SM -RA OVC030=
201010081733 TAF KCLM 081733Z 0818/0918 00000KT 4SM -RA SCT005 BKN025 OVC080
                       TEMPO 0818/0820 1SM -RA BR BKN001 FM082000
                       00000KT P6SM -RA SCT020 OVC050
                      TEMPO 0820/0824 -RA BKN020 OVC050 FM090400
                       20002KT P6SM -RA OVC030=
201010081509 KCLM 081509Z 0815/0912 00000KT P6SM -RA SCT040 SCT080 OVC100
                      TEMPO 0815/0819 4SM BR BKN035 FM081900 00000KT
                       P6SM SCT020 OVC050
                      TEMPO 0822/0902 -RA BKN020 OVC050 FM090200
                       20002KT P6SM -RA OVC030=
201010081120 TAF KCLM 081120Z 0812/0912 00000KT P6SM OVC100 FM081500 02003KT
                       5SM BR OVC020 FM082000 00000KT P6SM SCT020
                       OVC050
                      TEMPO 0822/0902 -RA BKN020 OVC050 FM090200
                       20002KT P6SM -RA OVC030=
201010080540 TAF KCLM 080540Z 0806/0906 00000KT P6SM SCT035 OVC060 FM081000
                       02003KT 5SM BR OVC020 FM082000 00000KT P6SM
                       SCT020 OVC050 FM090300 20002KT P6SM -RA
                       OVC030=
201010072327 TAF KCLM 072327Z 0800/0824 28004KT P6SM SCT025 OVC100 FM080300
                       VRB03KT P6SM BKN030 OVC050
                      TEMPO 0813/0817 -RA OVC030 FM081700 VRB04KT
                       P6SM -RA OVC030 FM082200 VRB04KT P6SM VCSH
                       BKN030 OVC050=
201010071726 TAF KCLM 071726Z 0718/0818 30005KT P6SM SCT100 BKN200 FM080000
                       28004KT P6SM BKN100 FM080300 VRB03KT P6SM
                       OVC040 FM081000 VRB03KT P6SM -RA OVC030=
201010071127 TAF KCLM 071127Z 0712/0812 24003KT P6SM SKC FM071300 27007KT P6SM
                       SCT005
                      TEMPO 0713/0716 3SM BR BKN005 FM071600 06003KT
                       P6SM SCT010 FM071800 31006KT P6SM BKN250
                       FM080000 28004KT P6SM BKN100 FM080300 23003KT
                       P6SM OVC040 FM081000 23003KT P6SM -RA OVC020=
201010070520 TAF KCLM 070520Z 0706/0806 00000KT P6SM SKC FM071200 27007KT P6SM
                       SCT012 BKN120
                      TEMPO 0714/0717 3SM BR BKN012 OVC120 FM071700
                       27007KT P6SM BKN020 BKN120 FM072100 27007KT
                       P6SM BKN040 BKN100 FM080300 00000KT P6SM
                       -RA OVC025=
201010062320 TAF KCLM 062320Z 0700/0724 09005KT P6SM SKC FM070400 VRB03KT P6SM
                       SCT250 FM071200 27007KT P6SM SCT012 BKN120
                       TEMPO 0714/0717 3SM BR BKN012 OVC120 FM071700
                       27007KT P6SM BKN020 BKN120 FM072100 27007KT
                       P6SM BKN040 BKN100=
201010061724 TAF KCLM 061724Z 0618/0718 10005KT P6SM SKC FM071200 27007KT P6SM
                       SCT010
                      TEMPO 0712/0716 2SM BR BKN005 FM071600 27007KT
                       P6SM BKN015=
201010061128 TAF KCLM 061128Z 0612/0712 14005KT P6SM SKC
                      TEMPO 0613/0617 2SM BR BKN001 FM061900 09005KT
                       P6SM FEW250 FM070300 22003KT P6SM SCT250=
201010060525 TAF KCLM 060525Z 0606/0706 21003KT P6SM FEW250
                      TEMPO 0612/0616 2SM BR SCT001 FM061900 09005KT
                       P6SM FEW250 FM070300 22003KT P6SM SCT250=
201010052320 TAF KCLM 052320Z 0600/0624 09005KT P6SM SCT200 FM060300 VRB03KT
                       P6SM SCT200 FM061900 09005KT P6SM SKC=
201010051729 TAF KCLM 051729Z 0518/0618 VRB04KT P6SM SKC FM052000 09005KT P6SM
                       SKC FM060300 VRB03KT P6SM SKC=
201010051123 TAF KCLM 051123Z 0512/0612 23003KT P6SM SKC
                      TEMPO 0512/0516 1SM BR BKN001 FM052100 07005KT
                       P6SM FEW050 FM060300 VRB03KT P6SM SKC=
201010050531 TAF KCLM 050531Z 0506/0606 27005KT P6SM FEW035 FM051000 23004KT
                       P6SM FEW040
                      TEMPO 0512/0516 1SM BR BKN001 BKN040 FM052100
                       07005KT P6SM FEW050 FM060300 VRB03KT P6SM
                       SKC=
201010042337 TAF KCLM 042337Z 0500/0524 32007KT P6SM SCT025 BKN060
                      TEMPO 0500/0504 BKN025 FM050600 30005KT P6SM
                       SCT060 FM051400 VRB03KT 4SM BR SCT002 FM051700
                       35006KT 2SM BR BKN002 FM052100 35008KT P6SM
                       SCT010 SCT070=
201010041738 TAF KCLM 041738Z 0418/0518 25007KT P6SM BKN045 FM042200 30007KT
                       P6SM SCT060 FM050600 30005KT P6SM SCT060
                       FM051200 VRB03KT 4SM BR SCT003=
201010041122 TAF KCLM 041122Z 0412/0512 24005KT P6SM BKN060 FM042000 32005KT
                       P6SM BKN060 FM050000 28008KT P6SM SCT070
                       FM050900 24005KT P6SM FEW070=
201010040529 TAF KCLM 040529Z 0406/0506 28008KT P6SM BKN070 FM041100 24005KT
                       P6SM OVC050 FM042000 32005KT P6SM BKN060
                       FM050000 28008KT P6SM SCT070=
201010032334 TAF KCLM 032334Z 0400/0424 30007KT P6SM OVC050 FM040600 25005KT
                       P6SM SCT030 OVC070 FM041400 24005KT P6SM
                       VCSH OVC025 FM041900 27008KT P6SM BKN035
                       BKN050=
201010031744 TAF KCLM 031744Z 0318/0418 26003KT P6SM BKN016 OVC035 FM032000
                       32006KT P6SM OVC035 FM032200 30005KT P6SM
                       BKN035 FM040600 25005KT P6SM SCT030 OVC070
                       FM041400 24005KT P6SM VCSH OVC025=
201010031326 KCLM 031326Z 0313/0412 25003KT 1/2SM FG VV001
                      TEMPO 0313/0317 5SM BR SCT001 FM031800 33005KT
                       3SM BR BKN007 OVC025 FM032000 32006KT P6SM
                       OVC035 FM032200 30005KT P6SM BKN035 BKN050
                       FM040100 27008KT P6SM SCT050 BKN120 FM040900
                       25005KT P6SM SCT020 OVC040=
201010031120 TAF KCLM 031120Z 0312/0412 25003KT 1/2SM FG VV001 FM031800 33005KT
                       3SM BR BKN007 OVC025 FM032000 32006KT P6SM
                       OVC035 FM032200 30005KT P6SM BKN035 BKN050
                       FM040100 27008KT P6SM SCT050 BKN120 FM040900
                       25005KT P6SM SCT020 OVC040=
201010030713 KCLM 030713Z 0307/0406 23003KT 3/4SM BR OVC001 FM031800 33005KT
                       P6SM BKN020 BKN040 FM032100 30005KT P6SM
                       BKN035 OVC050=
201010030526 TAF KCLM 030526Z 0306/0406 24005KT P6SM OVC003
                      TEMPO 0310/0314 1SM BR BKN001 OVC003 FM031800
                       33005KT P6SM BKN020 BKN040 FM032100 30005KT
                       P6SM BKN035 OVC050=
201010022327 TAF KCLM 022327Z 0300/0324 33005KT P6SM SKC FM030800 24004KT P6SM
                       OVC015 FM031200 25003KT 4SM BR OVC012 FM032000
                       32007KT P6SM VCSH BKN020 BKN040=
201010021732 TAF KCLM 021732Z 0218/0318 31005KT P6SM OVC023 FM022100 33007KT
                       P6SM SCT035
                      TEMPO 0221/0223 BKN035 FM030800 24004KT P6SM
                       OVC025 FM031200 25003KT P6SM OVC012=
201010021449 KCLM 021449Z 0215/0312 27005KT P6SM OVC025 FM022100 33007KT P6SM
                       SCT035
                      TEMPO 0221/0223 BKN035 FM031000 24004KT P6SM
                       OVC025=
201010021132 TAF KCLM 021132Z 0212/0312 23003KT P6SM OVC022
                      TEMPO 0212/0216 BKN010 OVC020 FM021900 35005KT
                       P6SM OVC025 FM022100 33007KT P6SM SCT035
                       TEMPO 0221/0223 BKN035 FM031000 24004KT
                       P6SM OVC025=
201010020902 KCLM 020902Z 0209/0306 25004KT P6SM OVC022 FM021900 VRB03KT P6SM
                       BKN025 FM022100 33006KT P6SM SCT030=
201010020528 TAF KCLM 020528Z 0206/0306 23006KT P6SM OVC016 FM020900 28004KT
                       4SM BR OVC007 FM021900 VRB03KT P6SM BKN025
                       FM022100 33006KT P6SM SCT030=
201010020111 KCLM 020111Z 0201/0224 29008KT P6SM BKN025 FM020400 28008KT P6SM
                       SCT010 OVC025 FM020900 28004KT 4SM BR OVC007
                       FM021900 VRB03KT P6SM BKN025=
201010012337 TAF KCLM 012337Z 0200/0224 30008KT P6SM SKC FM020400 28008KT P6SM
                       SCT010 OVC025 FM020900 28004KT 4SM BR OVC007
                       FM021900 VRB03KT P6SM BKN025=
201010011742 TAF KCLM 011742Z 0118/0218 31003KT P6SM SKC FM012200 27010KT P6SM
                       SKC FM020900 28008KT 4SM BR OVC007=
201010011125 TAF KCLM 011125Z 0112/0212 23005KT P6SM SKC FM011500 23005KT P6SM
                       SCT010 FM011900 28012KT P6SM SCT030 FM012200
                       28012KT P6SM BKN035 FM020600 28008KT P6SM
                       OVC025=
201010010520 TAF KCLM 010520Z 0106/0206 VRB03KT P6SM SKC FM011800 28010KT P6SM
                       SCT020 FM020000 28012KT P6SM BKN040=