##########################################################
# Query made at 02/16/2025 01:45:19 UTC
# Time interval: from 04/01/2010 00:00  to 04/30/2010 23:59  UTC
##########################################################

##########################################################
# KCLM, Port Angeles, William R. Fairchild International Airport (United States)
# WMO index: -----. WIGOS ID: Unknown
# Latitude 48-07-20N. Longitude 123-30-19W. Altitude 87 m.
##########################################################

###################################
#  METAR/SPECI from KCLM
###################################
201004302353 METAR KCLM 302353Z AUTO 31010G15KT 10SM FEW100 09/04 A3016 RMK AO2 SLP214 T00940044 10122 20094 58007=
201004302253 METAR KCLM 302253Z AUTO 30007G17KT 270V340 10SM CLR 10/05 A3016 RMK AO2 SLP214 T01000050=
201004302153 METAR KCLM 302153Z AUTO 29012G20KT 10SM CLR 10/04 A3018 RMK AO2 SLP221 T01000044=
201004302053 METAR KCLM 302053Z AUTO 30011G23KT 10SM CLR 11/05 A3018 RMK AO2 SLP220 T01110050 58004=
201004301953 METAR KCLM 301953Z AUTO 31012G21KT 290V360 10SM CLR 11/05 A3019 RMK AO2 SLP225 T01110050=
201004301853 METAR KCLM 301853Z AUTO 30014G24KT 10SM FEW100 12/04 A3020 RMK AO2 SLP228 T01170044=
201004301753 METAR KCLM 301753Z AUTO 32014G22KT 10SM CLR 11/04 A3019 RMK AO2 SLP224 T01110039 10117 20061 58008=
201004301653 METAR KCLM 301653Z AUTO 31015G20KT 10SM SCT037 11/04 A3021 RMK AO2 SLP230 T01060044=
201004301553 METAR KCLM 301553Z AUTO 29005KT 10SM SCT050 11/05 A3022 RMK AO2 SLP234 T01060050=
201004301453 METAR KCLM 301453Z AUTO 26006KT 10SM OVC050 09/02 A3021 RMK AO2 SLP231 T00890017 53004=
201004301353 METAR KCLM 301353Z AUTO 26010KT 10SM OVC048 08/01 A3020 RMK AO2 SLP228 T00780011=
201004301253 METAR KCLM 301253Z AUTO 25009KT 10SM FEW044 06/01 A3020 RMK AO2 SLP226 T00610006=
201004301153 METAR KCLM 301153Z AUTO 26011KT 10SM CLR 06/01 A3020 RMK AO2 SLP227 T00610006 10072 20061 53002=
201004301053 METAR KCLM 301053Z AUTO 26010KT 10SM CLR 07/01 A3019 RMK AO2 SLP223 T00670006=
201004300953 METAR KCLM 300953Z AUTO 25011G16KT 10SM CLR 07/01 A3018 RMK AO2 SLP221 T00720011=
201004300853 METAR KCLM 300853Z AUTO 25011KT 10SM CLR 07/01 A3019 RMK AO2 SLP225 T00670011 53013=
201004300753 METAR KCLM 300753Z AUTO 27012KT 10SM CLR 07/02 A3018 RMK AO2 SLP219 T00720017 401220050=
201004300653 METAR KCLM 300653Z AUTO 26009KT 10SM CLR 07/02 A3016 RMK AO2 SLP214 T00670017=
201004300553 METAR KCLM 300553Z AUTO 27007KT 10SM CLR 07/02 A3016 RMK AO2 SLP212 T00720022 10111 20067 51009=
201004300453 METAR KCLM 300453Z AUTO 27007KT 10SM CLR 07/03 A3015 RMK AO2 SLP211 T00720028=
201004300353 METAR KCLM 300353Z AUTO 29011KT 10SM CLR 08/03 A3014 RMK AO2 SLP207 T00830028=
201004300253 METAR KCLM 300253Z AUTO 31013G21KT 10SM CLR 09/04 A3013 RMK AO2 SLP203 T00890044 53014=
201004300153 METAR KCLM 300153Z AUTO 30012G18KT 10SM CLR 10/04 A3011 RMK AO2 SLP197 T01000039=
201004300053 METAR KCLM 300053Z AUTO 31013G20KT 10SM CLR 11/04 A3010 RMK AO2 SLP194 T01060044=
201004292353 METAR KCLM 292353Z AUTO 31016G21KT 10SM CLR 11/04 A3009 RMK AO2 SLP189 T01110039 10122 20106 53015=
201004292253 METAR KCLM 292253Z AUTO 31012G19KT 10SM CLR 12/06 A3007 RMK AO2 SLP184 T01170056=
201004292153 METAR KCLM 292153Z AUTO 31013G21KT 10SM CLR 12/05 A3005 RMK AO2 SLP178 T01170050=
201004292053 METAR KCLM 292053Z AUTO 31013G21KT 10SM FEW060 12/04 A3004 RMK AO2 SLP175 T01170044 51016=
201004291953 METAR KCLM 291953Z AUTO 31013G21KT 10SM CLR 11/04 A3004 RMK AO2 SLP172 T01110044=
201004291853 METAR KCLM 291853Z AUTO 33013G22KT 10SM CLR 11/04 A3002 RMK AO2 SLP165 T01110044=
201004291753 METAR KCLM 291753Z AUTO 33011G16KT 10SM FEW040 11/04 A3000 RMK AO2 SLP159 T01110044 10111 20050 51014=
201004291653 METAR KCLM 291653Z AUTO 32011G17KT 10SM BKN041 10/04 A2999 RMK AO2 SLP156 T01000039=
201004291553 METAR KCLM 291553Z AUTO 30008KT 10SM CLR 10/03 A2997 RMK AO2 SLP151 T01000028=
201004291453 METAR KCLM 291453Z AUTO 26008KT 10SM FEW040 08/02 A2996 RMK AO2 SLP146 T00780022 53012=
201004291353 METAR KCLM 291353Z AUTO 25010KT 10SM CLR 06/01 A2994 RMK AO2 SLP141 T00560011=
201004291253 METAR KCLM 291253Z AUTO 25010KT 10SM CLR 05/02 A2993 RMK AO2 SLP136 T00500017=
201004291153 METAR KCLM 291153Z AUTO 25008KT 10SM CLR 06/02 A2992 RMK AO2 SLP134 70001 T00560017 10061 20050 53013=
201004291053 METAR KCLM 291053Z AUTO 26005KT 10SM CLR 06/02 A2991 RMK AO2 SLP128 T00560017=
201004290953 METAR KCLM 290953Z AUTO 27007KT 10SM CLR 06/02 A2989 RMK AO2 SLP124 T00560022=
201004290853 METAR KCLM 290853Z AUTO 26007KT 10SM CLR 06/03 A2988 RMK AO2 SLP121 T00560028 53010=
201004290753 METAR KCLM 290753Z AUTO 26008KT 10SM CLR 05/03 A2987 RMK AO2 SLP117 T00500028 401170044=
201004290653 METAR KCLM 290653Z AUTO 25008KT 10SM CLR 06/03 A2986 RMK AO2 SLP113 T00610028=
201004290553 METAR KCLM 290553Z AUTO 25006KT 10SM CLR 06/03 A2985 RMK AO2 SLP110 T00560028 10100 20050 53012=
201004290453 METAR KCLM 290453Z AUTO 25007KT 10SM FEW055 06/03 A2984 RMK AO2 SLP106 T00610033=
201004290353 METAR KCLM 290353Z AUTO 27007KT 10SM CLR 07/04 A2982 RMK AO2 SLP100 T00670044=
201004290253 METAR KCLM 290253Z AUTO 30010KT 10SM CLR 08/04 A2982 RMK AO2 SLP098 T00780044 51012=
201004290153 METAR KCLM 290153Z AUTO 30014G20KT 10SM CLR 09/05 A2981 RMK AO2 SLP096 T00890050=
201004290053 METAR KCLM 290053Z AUTO 31012G19KT 10SM FEW065 10/06 A2980 RMK AO2 SLP091 T01000056=
201004282353 METAR KCLM 282353Z AUTO 32013G19KT 10SM FEW060 SCT075 BKN085 10/05 A2978 RMK AO2 SLP086 60001 T01000050 10117 20078 53004=
201004282253 METAR KCLM 282253Z AUTO 30010G21KT 10SM FEW030 SCT095 12/04 A2977 RMK AO2 SLP082 P0001 T01170044=
201004282153 METAR KCLM 282153Z AUTO 27008KT 10SM SCT030 BKN060 11/04 A2977 RMK AO2 RAE08 SLP082 P0000 T01060044=
201004282053 METAR KCLM 282053Z AUTO 32004KT 10SM -RA FEW027 BKN038 OVC048 08/05 A2977 RMK AO2 SLP082 P0000 60000 T00830050 51012=
201004282051 SPECI KCLM 282051Z AUTO 31004KT 10SM -RA FEW027 BKN038 OVC046 08/05 A2977 RMK AO2 P0000=
201004282051 SPECI KCLM 282051Z AUTO 31004KT 10SM -RA FEW027 BKN038 OVC046 08/05 A2977 RMK AO2 P0000=
201004282043 SPECI KCLM 282043Z AUTO 31005KT 10SM -RA BKN027 OVC034 08/05 A2976 RMK AO2 P0000=
201004282043 SPECI KCLM 282043Z AUTO 31005KT 10SM -RA BKN027 OVC034 08/05 A2976 RMK AO2 P0000=
201004281953 METAR KCLM 281953Z AUTO 32007KT 10SM -RA FEW021 BKN037 OVC100 08/04 A2975 RMK AO2 RAB02E31B47 SLP075 P0000 T00830044=
201004281853 METAR KCLM 281853Z AUTO 34005KT 10SM BKN035 BKN041 09/04 A2973 RMK AO2 RAB09E23 SLP070 P0000 T00890044=
201004281753 METAR KCLM 281753Z AUTO 35003KT 10SM BKN048 09/04 A2971 RMK AO2 SLP063 T00890039 10100 20044 53017=
201004281653 METAR KCLM 281653Z AUTO VRB04KT 10SM FEW028 09/04 A2969 RMK AO2 SLP053 T00940044=
201004281553 METAR KCLM 281553Z AUTO 29004KT 10SM OVC060 09/04 A2968 RMK AO2 SLP050 T00890044=
201004281453 METAR KCLM 281453Z AUTO 25005KT 10SM BKN060 08/03 A2966 RMK AO2 SLP045 T00780033 53016=
201004281353 METAR KCLM 281353Z AUTO 24005KT 10SM FEW036 OVC060 06/03 A2964 RMK AO2 SLP040 T00560033=
201004281253 METAR KCLM 281253Z AUTO 24004KT 10SM BKN038 BKN060 06/03 A2963 RMK AO2 SLP035 T00560033=
201004281153 METAR KCLM 281153Z AUTO 20003KT 10SM BKN065 BKN080 BKN100 05/02 A2961 RMK AO2 SLP030 60000 70005 T00500022 10072 20044 53015=
201004281053 METAR KCLM 281053Z AUTO 22004KT 10SM FEW032 05/03 A2960 RMK AO2 RAE0955 SLP024 P0000 T00500028=
201004281041 SPECI KCLM 281041Z AUTO 23004KT 10SM SCT027 BKN034 06/03 A2959 RMK AO2 RAE0955 P0000=
201004281041 SPECI KCLM 281041Z AUTO 23004KT 10SM SCT027 BKN034 06/03 A2959 RMK AO2 RAE0955 P0000=
201004280953 METAR KCLM 280953Z AUTO 27007KT 10SM -RA BKN023 BKN055 OVC100 06/04 A2958 RMK AO2 RAB35 SLP020 P0000 T00610039=
201004280853 METAR KCLM 280853Z AUTO 25004KT 10SM SCT026 BKN033 OVC100 06/03 A2957 RMK AO2 SLP014 60000 T00610033 53020=
201004280845 SPECI KCLM 280845Z AUTO 00000KT 10SM BKN028 BKN033 OVC070 07/03 A2957 RMK AO2=
201004280845 SPECI KCLM 280845Z AUTO 00000KT 10SM BKN028 BKN033 OVC070 07/03 A2957 RMK AO2=
201004280753 METAR KCLM 280753Z AUTO 26005KT 10SM OVC075 07/04 A2955 RMK AO2 RAB40E49 SLP006 P0000 T00670039 401170056=
201004280653 METAR KCLM 280653Z AUTO 26006KT 10SM SCT031 BKN070 BKN095 06/03 A2953 RMK AO2 SLP000 T00610033=
201004280553 METAR KCLM 280553Z AUTO 26006KT 10SM BKN060 OVC070 07/04 A2951 RMK AO2 SLP994 60000 T00670044 10111 20056 51012=
201004280453 METAR KCLM 280453Z AUTO 22003KT 10SM BKN065 07/04 A2950 RMK AO2 SLP992 T00720044=
201004280353 METAR KCLM 280353Z AUTO 30007KT 10SM FEW039 BKN047 OVC060 08/04 A2949 RMK AO2 RAB38E49 SLP986 P0000 T00780044=
201004280253 METAR KCLM 280253Z AUTO 31006KT 10SM FEW050 SCT065 09/04 A2947 RMK AO2 SLP981 60000 T00890044 53012=
201004280153 METAR KCLM 280153Z AUTO 35003KT 10SM BKN060 10/05 A2946 RMK AO2 SLP977 T01000050=
201004280053 METAR KCLM 280053Z AUTO 34006KT 10SM FEW029 SCT038 OVC060 09/06 A2945 RMK AO2 RAE01 SLP973 P0000 T00940061=
201004272353 METAR KCLM 272353Z AUTO 00000KT 10SM -RA SCT020 BKN036 OVC060 10/07 A2944 RMK AO2 RAB26 SLP969 P0000 60005 T01000072 10117 20089 51012=
201004272253 METAR KCLM 272253Z AUTO VRB03KT 10SM BKN040 BKN050 OVC065 11/07 A2942 RMK AO2 RAE52 SLP964 P0001 T01060067=
201004272200 SPECI KCLM 272200Z AUTO VRB04KT 7SM -RA SCT023 OVC045 09/07 A2943 RMK AO2 P0001=
201004272200 SPECI KCLM 272200Z AUTO VRB04KT 7SM -RA SCT023 OVC045 09/07 A2943 RMK AO2 P0001=
201004272153 METAR KCLM 272153Z AUTO VRB05KT 3SM RA BKN023 OVC045 09/06 A2942 RMK AO2 RAB28 SLP964 P0004 T00890061=
201004272146 SPECI KCLM 272146Z AUTO 34003KT 3SM RA BKN025 OVC043 09/06 A2942 RMK AO2 RAB28 P0003=
201004272146 SPECI KCLM 272146Z AUTO 34003KT 3SM RA BKN025 OVC043 09/06 A2942 RMK AO2 RAB28 P0003=
201004272053 METAR KCLM 272053Z AUTO VRB06KT 10SM SCT055 SCT070 BKN090 11/07 A2940 RMK AO2 RAB1956E36 SLP957 P0000 60000 T01060067 53004=
201004271953 METAR KCLM 271953Z AUTO 32006KT 10SM FEW046 SCT060 BKN075 11/06 A2940 RMK AO2 SLP954 T01110061=
201004271853 METAR KCLM 271853Z AUTO 34006KT 10SM FEW017 SCT060 10/06 A2939 RMK AO2 RAB1756E13 SLP954 P0000 T01000056=
201004271753 METAR KCLM 271753Z AUTO VRB03KT 10SM FEW015 SCT070 10/07 A2939 RMK AO2 SLP954 60000 T01000072 10100 20061 50004=
201004271726 SPECI KCLM 271726Z AUTO 00000KT 10SM SCT021 BKN043 BKN095 09/07 A2940 RMK AO2=
201004271726 SPECI KCLM 271726Z AUTO 00000KT 10SM SCT021 BKN043 BKN095 09/07 A2940 RMK AO2=
201004271717 SPECI KCLM 271717Z AUTO 00000KT 10SM FEW012 BKN021 BKN095 09/06 A2939 RMK AO2=
201004271717 SPECI KCLM 271717Z AUTO 00000KT 10SM FEW012 BKN021 BKN095 09/06 A2939 RMK AO2=
201004271653 METAR KCLM 271653Z AUTO 35003KT 10SM OVC014 08/06 A2940 RMK AO2 SLP955 T00830061=
201004271553 METAR KCLM 271553Z AUTO 00000KT 10SM BKN012 OVC070 09/07 A2939 RMK AO2 RAE08 SLP954 P0000 T00940067=
201004271453 METAR KCLM 271453Z AUTO 00000KT 10SM -RA OVC011 09/07 A2938 RMK AO2 RAE18B53 SLP950 P0000 60000 T00890072 51015=
201004271436 SPECI KCLM 271436Z AUTO 15003KT 10SM BKN013 BKN046 OVC060 08/07 A2938 RMK AO2 RAE18 P0000=
201004271436 SPECI KCLM 271436Z AUTO 15003KT 10SM BKN013 BKN046 OVC060 08/07 A2938 RMK AO2 RAE18 P0000=
201004271407 SPECI KCLM 271407Z AUTO 11003KT 10SM -RA BKN019 OVC048 08/07 A2937 RMK AO2 P0000=
201004271407 SPECI KCLM 271407Z AUTO 11003KT 10SM -RA BKN019 OVC048 08/07 A2937 RMK AO2 P0000=
201004271353 METAR KCLM 271353Z AUTO 16003KT 10SM -RA FEW019 OVC044 07/06 A2937 RMK AO2 RAB05 SLP945 P0000 T00720061=
201004271253 METAR KCLM 271253Z AUTO 00000KT 10SM BKN055 06/06 A2935 RMK AO2 RAB1159E13 SLP940 P0000 T00610056=
201004271153 METAR KCLM 271153Z AUTO 27006KT 10SM FEW009 BKN060 BKN075 08/07 A2934 RMK AO2 RAB14E25 SLP935 P0000 60001 70001 T00830067 10106 20067 53009=
201004271136 SPECI KCLM 271136Z AUTO 00000KT 10SM FEW009 BKN065 07/06 A2933 RMK AO2 RAB14E25 P0000=
201004271136 SPECI KCLM 271136Z AUTO 00000KT 10SM FEW009 BKN065 07/06 A2933 RMK AO2 RAB14E25 P0000=
201004271053 METAR KCLM 271053Z AUTO 29006KT 10SM FEW048 SCT065 BKN100 08/07 A2932 RMK AO2 RAE34 SLP928 P0000 T00780072=
201004271025 SPECI KCLM 271025Z AUTO 30005KT 10SM -RA FEW002 BKN050 OVC060 08/08 A2931 RMK AO2 P0000=
201004271025 SPECI KCLM 271025Z AUTO 30005KT 10SM -RA FEW002 BKN050 OVC060 08/08 A2931 RMK AO2 P0000=
201004270953 METAR KCLM 270953Z AUTO 32005KT 10SM -RA FEW006 OVC010 09/08 A2932 RMK AO2 SLP928 P0001 T00890078=
201004270858 SPECI KCLM 270858Z AUTO 26007KT 10SM -RA BKN012 OVC060 09/07 A2931 RMK AO2 P0000=
201004270858 SPECI KCLM 270858Z AUTO 26007KT 10SM -RA BKN012 OVC060 09/07 A2931 RMK AO2 P0000=
201004270853 METAR KCLM 270853Z AUTO 27007KT 10SM -RA SCT015 OVC060 09/07 A2931 RMK AO2 RAB0759 SLP925 P0000 60000 T00940067 55018=
201004270753 METAR KCLM 270753Z AUTO 30006KT 10SM OVC070 09/06 A2930 RMK AO2 SLP923 T00940061 401940050=
201004270653 METAR KCLM 270653Z AUTO 30006KT 10SM OVC075 09/06 A2932 RMK AO2 SLP929 T00940061=
201004270553 METAR KCLM 270553Z AUTO 25003KT 10SM BKN070 09/07 A2936 RMK AO2 SLP944 T00940067 10144 20094 58028=
201004270453 METAR KCLM 270453Z AUTO 21003KT 10SM FEW065 10/07 A2940 RMK AO2 SLP955 T01000067=
201004270353 METAR KCLM 270353Z AUTO 19006KT 10SM BKN065 11/06 A2942 RMK AO2 SLP963 T01060061=
201004270253 METAR KCLM 270253Z AUTO 24005KT 10SM OVC060 12/06 A2945 RMK AO2 SLP972 T01170061 58015=
201004270153 METAR KCLM 270153Z AUTO 00000KT 10SM OVC060 13/07 A2947 RMK AO2 SLP979 T01280072=
201004270053 METAR KCLM 270053Z AUTO 10005KT 10SM OVC060 13/07 A2948 RMK AO2 SLP982 T01280067=
201004262353 METAR KCLM 262353Z AUTO VRB05KT 10SM OVC065 14/04 A2949 RMK AO2 SLP987 T01440044 10194 20117 56026=
201004262253 METAR KCLM 262253Z AUTO 33009KT 10SM OVC070 15/04 A2951 RMK AO2 SLP992 T01500039=
201004262153 METAR KCLM 262153Z AUTO VRB05KT 10SM OVC070 16/03 A2953 RMK AO2 SLP001 T01560033=
201004262053 METAR KCLM 262053Z AUTO 22008KT 10SM OVC075 16/03 A2957 RMK AO2 SLP013 T01610028 58028=
201004261953 METAR KCLM 261953Z AUTO 21014G27KT 10SM OVC085 17/02 A2960 RMK AO2 PK WND 23027/1947 SLP025 T01720017=
201004261853 METAR KCLM 261853Z AUTO 13008KT 080V160 10SM FEW100 16/04 A2963 RMK AO2 PK WND 19028/1841 SLP033 T01560044=
201004261753 METAR KCLM 261753Z AUTO 02004KT 10SM SCT100 12/07 A2965 RMK AO2 SLP042 T01220072 10122 20050 58040=
201004261653 METAR KCLM 261653Z AUTO 30006KT 10SM FEW100 11/06 A2970 RMK AO2 SLP059 T01060061=
201004261553 METAR KCLM 261553Z AUTO 00000KT 10SM FEW110 09/06 A2973 RMK AO2 SLP069 T00890061=
201004261453 METAR KCLM 261453Z AUTO 22004KT 10SM FEW120 07/04 A2977 RMK AO2 SLP082 T00670044 56027=
201004261353 METAR KCLM 261353Z AUTO 25005KT 10SM CLR 06/04 A2979 RMK AO2 SLP089 T00560044=
201004261253 METAR KCLM 261253Z AUTO 24005KT 10SM FEW120 06/04 A2983 RMK AO2 SLP101 T00560044=
201004261153 METAR KCLM 261153Z AUTO 23005KT 10SM CLR 06/04 A2985 RMK AO2 SLP110 T00560039 10078 20050 56037=
201004261053 METAR KCLM 261053Z AUTO 00000KT 10SM CLR 06/04 A2989 RMK AO2 SLP121 T00560044=
201004260953 METAR KCLM 260953Z AUTO 00000KT 10SM CLR 06/04 A2993 RMK AO2 SLP134 T00560044=
201004260853 METAR KCLM 260853Z AUTO 15004KT 10SM CLR 06/04 A2996 RMK AO2 SLP148 T00610039 56032=
201004260753 METAR KCLM 260753Z AUTO 00000KT 10SM CLR 07/05 A3000 RMK AO2 SLP160 T00670050 401170039=
201004260653 METAR KCLM 260653Z AUTO 00000KT 10SM CLR 08/05 A3002 RMK AO2 SLP167 T00780050=
201004260553 METAR KCLM 260553Z AUTO 00000KT 10SM CLR 07/05 A3006 RMK AO2 SLP180 T00720050 10111 20067 58022=
201004260453 METAR KCLM 260453Z AUTO 00000KT 10SM CLR 08/05 A3008 RMK AO2 SLP188 T00780050=
201004260353 METAR KCLM 260353Z AUTO 17003KT 10SM CLR 08/04 A3011 RMK AO2 SLP196 T00830039=
201004260253 METAR KCLM 260253Z AUTO 12004KT 10SM FEW100 09/04 A3013 RMK AO2 SLP202 T00940039 56023=
201004260153 METAR KCLM 260153Z AUTO 11004KT 10SM CLR 10/04 A3014 RMK AO2 SLP208 T01000044=
201004260053 METAR KCLM 260053Z AUTO 06003KT 10SM CLR 11/05 A3016 RMK AO2 SLP216 T01110050=
201004252353 METAR KCLM 252353Z AUTO 09005KT 10SM CLR 11/06 A3019 RMK AO2 SLP226 T01110056 10117 20083 56028=
201004252253 METAR KCLM 252253Z AUTO 03005KT 10SM CLR 11/06 A3021 RMK AO2 SLP233 T01060056=
201004252153 METAR KCLM 252153Z AUTO VRB03KT 10SM FEW023 OVC031 11/06 A3025 RMK AO2 SLP245 T01060056=
201004252053 METAR KCLM 252053Z AUTO 03005KT 10SM CLR 09/05 A3028 RMK AO2 SLP255 T00940050 58019=
201004251953 METAR KCLM 251953Z AUTO VRB06KT 10SM SCT012 09/06 A3031 RMK AO2 SLP265 T00890056=
201004251853 METAR KCLM 251853Z AUTO 08006KT 10SM CLR 09/04 A3033 RMK AO2 SLP273 T00890044=
201004251753 METAR KCLM 251753Z AUTO 08007KT 10SM CLR 09/05 A3034 RMK AO2 SLP274 T00940050 10094 20039 56007=
201004251653 METAR KCLM 251653Z AUTO 02004KT 10SM FEW120 09/06 A3034 RMK AO2 SLP276 T00890056=
201004251553 METAR KCLM 251553Z AUTO VRB04KT 10SM FEW017 BKN095 BKN120 09/04 A3035 RMK AO2 SLP278 T00890044=
201004251453 METAR KCLM 251453Z AUTO 00000KT 10SM FEW016 SCT024 OVC100 07/04 A3036 RMK AO2 SLP281 T00670039 51004=
201004251451 SPECI KCLM 251451Z AUTO 00000KT 10SM FEW016 SCT024 OVC100 07/04 A3035 RMK AO2=
201004251451 SPECI KCLM 251451Z AUTO 00000KT 10SM FEW016 SCT024 OVC100 07/04 A3035 RMK AO2=
201004251353 METAR KCLM 251353Z AUTO 00000KT 10SM BKN018 BKN024 OVC039 05/03 A3036 RMK AO2 SLP281 T00500033=
201004251318 SPECI KCLM 251318Z AUTO 24006KT 10SM BKN015 BKN023 OVC110 04/02 A3035 RMK AO2=
201004251318 SPECI KCLM 251318Z AUTO 24006KT 10SM BKN015 BKN023 OVC110 04/02 A3035 RMK AO2=
201004251253 METAR KCLM 251253Z AUTO 24005KT 10SM OVC110 04/02 A3034 RMK AO2 SLP277 T00390022=
201004251153 METAR KCLM 251153Z AUTO 24004KT 10SM FEW031 SCT055 OVC120 04/03 A3034 RMK AO2 SLP277 70001 T00440028 10067 20044 52009=
201004251053 METAR KCLM 251053Z AUTO 22004KT 10SM OVC060 05/03 A3033 RMK AO2 SLP274 T00500033=
201004251021 SPECI KCLM 251021Z AUTO 00000KT 10SM FEW029 SCT037 OVC060 05/03 A3033 RMK AO2=
201004251021 SPECI KCLM 251021Z AUTO 00000KT 10SM FEW029 SCT037 OVC060 05/03 A3033 RMK AO2=
201004250953 METAR KCLM 250953Z AUTO 23004KT 10SM BKN027 OVC035 05/03 A3033 RMK AO2 SLP272 T00500028=
201004250938 SPECI KCLM 250938Z AUTO 23005KT 10SM BKN027 05/03 A3033 RMK AO2=
201004250938 SPECI KCLM 250938Z AUTO 23005KT 10SM BKN027 05/03 A3033 RMK AO2=
201004250853 METAR KCLM 250853Z AUTO 23003KT 10SM BKN070 06/03 A3032 RMK AO2 SLP268 T00560028 53004=
201004250753 METAR KCLM 250753Z AUTO 27006KT 10SM OVC060 06/03 A3031 RMK AO2 SLP267 T00610028 401060022=
201004250653 METAR KCLM 250653Z AUTO 24003KT 10SM BKN070 OVC080 06/03 A3031 RMK AO2 SLP265 T00560033=
201004250553 METAR KCLM 250553Z AUTO 00000KT 10SM SCT031 OVC065 06/04 A3031 RMK AO2 SLP264 T00610039 10106 20056 51017=
201004250453 METAR KCLM 250453Z AUTO 21003KT 10SM BKN060 OVC080 06/03 A3029 RMK AO2 SLP260 T00610033=
201004250353 METAR KCLM 250353Z AUTO 27005KT 10SM FEW060 06/03 A3027 RMK AO2 SLP253 T00610028=
201004250253 METAR KCLM 250253Z AUTO 29005KT 10SM FEW080 08/03 A3026 RMK AO2 SLP247 T00780028 53012=
201004250153 METAR KCLM 250153Z AUTO 32005KT 10SM FEW038 09/04 A3024 RMK AO2 SLP242 T00890039=
201004250053 METAR KCLM 250053Z AUTO 28008KT 10SM BKN039 BKN047 OVC060 09/04 A3023 RMK AO2 SLP239 T00940039=
201004242353 METAR KCLM 242353Z AUTO 00000KT 10SM FEW029 SCT040 BKN050 10/05 A3022 RMK AO2 RAB12E33 SLP236 P0000 60001 T01000050 10106 20083 51009=
201004242253 METAR KCLM 242253Z AUTO 35005KT 10SM FEW027 BKN045 OVC055 09/05 A3022 RMK AO2 RAB33E44 SLP234 P0000 T00940050=
201004242153 METAR KCLM 242153Z AUTO 09004KT 10SM SCT048 BKN060 10/04 A3021 RMK AO2 RAE14B42E53 SLP231 P0000 T01000044=
201004242053 METAR KCLM 242053Z AUTO VRB03KT 10SM -RA FEW023 BKN039 OVC060 10/05 A3019 RMK AO2 RAE13B49 SLP226 P0001 60001 T01000050 51017=
201004242016 SPECI KCLM 242016Z AUTO 09003KT 10SM SCT030 BKN095 09/05 A3019 RMK AO2 RAE13 P0001=
201004242016 SPECI KCLM 242016Z AUTO 09003KT 10SM SCT030 BKN095 09/05 A3019 RMK AO2 RAE13 P0001=
201004241953 METAR KCLM 241953Z AUTO 15010KT 6SM -RA FEW023 OVC029 08/05 A3019 RMK AO2 RAB26 SLP225 P0000 T00830050=
201004241853 METAR KCLM 241853Z AUTO 05004KT 10SM FEW046 BKN065 09/03 A3017 RMK AO2 RAE13 SLP218 P0000 T00940033=
201004241753 METAR KCLM 241753Z AUTO 04004KT 10SM -RA SCT027 BKN032 OVC039 08/04 A3014 RMK AO2 RAB45 SLP210 P0000 60000 T00830039 10100 20033 51019=
201004241723 SPECI KCLM 241723Z AUTO 03004KT 10SM BKN024 BKN039 OVC090 10/05 A3014 RMK AO2=
201004241723 SPECI KCLM 241723Z AUTO 03004KT 10SM BKN024 BKN039 OVC090 10/05 A3014 RMK AO2=
201004241653 METAR KCLM 241653Z AUTO 01004KT 10SM FEW022 BKN050 OVC090 08/04 A3013 RMK AO2 SLP205 T00830044=
201004241553 METAR KCLM 241553Z AUTO 25007KT 10SM BKN060 BKN075 OVC095 07/03 A3012 RMK AO2 SLP200 T00720033=
201004241453 METAR KCLM 241453Z AUTO 24006KT 10SM BKN075 OVC100 07/03 A3009 RMK AO2 RAB1354E03 SLP191 P0000 60000 T00670028 51008=
201004241353 METAR KCLM 241353Z AUTO 23007KT 10SM SCT042 BKN050 OVC100 06/03 A3008 RMK AO2 RAB1255E18B38E51 SLP189 P0000 T00610028=
201004241253 METAR KCLM 241253Z AUTO 23005KT 10SM FEW045 BKN060 OVC095 04/03 A3007 RMK AO2 SLP185 T00440033=
201004241153 METAR KCLM 241153Z AUTO 00000KT 10SM FEW044 BKN070 OVC095 03/02 A3007 RMK AO2 SLP183 T00330022 10061 20022 53013=
201004241053 METAR KCLM 241053Z AUTO 00000KT 10SM BKN070 OVC100 03/02 A3006 RMK AO2 SLP180 T00330022=
201004240953 METAR KCLM 240953Z AUTO 23006KT 10SM OVC060 04/03 A3004 RMK AO2 SLP173 T00390028=
201004240853 METAR KCLM 240853Z AUTO 28006KT 10SM CLR 04/02 A3003 RMK AO2 SLP170 T00440017 53004=
201004240753 METAR KCLM 240753Z AUTO 27006KT 10SM CLR 03/02 A3002 RMK AO2 SLP168 T00280022 401060022=
201004240653 METAR KCLM 240653Z AUTO 20004KT 10SM SCT060 05/04 A3002 RMK AO2 SLP167 T00500039=
201004240553 METAR KCLM 240553Z AUTO 00000KT 10SM SCT034 06/05 A3002 RMK AO2 RAE0454 SLP166 60000 T00610050 10089 20061 52008=
201004240453 METAR KCLM 240453Z AUTO 00000KT 10SM -RA OVC031 07/06 A3001 RMK AO2 RAB40 SLP164 P0000 T00670061=
201004240435 SPECI KCLM 240435Z AUTO 20003KT 10SM FEW023 OVC035 07/06 A3001 RMK AO2=
201004240435 SPECI KCLM 240435Z AUTO 20003KT 10SM FEW023 OVC035 07/06 A3001 RMK AO2=
201004240411 SPECI KCLM 240411Z AUTO 00000KT 10SM SCT017 BKN022 OVC043 07/06 A3000 RMK AO2=
201004240411 SPECI KCLM 240411Z AUTO 00000KT 10SM SCT017 BKN022 OVC043 07/06 A3000 RMK AO2=
201004240353 METAR KCLM 240353Z AUTO 32005KT 10SM FEW017 OVC045 07/06 A3000 RMK AO2 RAE50 SLP161 P0000 T00670056=
201004240300 SPECI KCLM 240300Z AUTO 17003KT 10SM -RA SCT018 BKN039 OVC049 07/06 A2999 RMK AO2 P0000=
201004240300 SPECI KCLM 240300Z AUTO 17003KT 10SM -RA SCT018 BKN039 OVC049 07/06 A2999 RMK AO2 P0000=
201004240253 METAR KCLM 240253Z AUTO 17003KT 5SM -RA BR BKN016 BKN032 OVC049 07/06 A2999 RMK AO2 SLP158 P0000 60000 T00720061 53002=
201004240236 SPECI KCLM 240236Z AUTO 31003KT 10SM -RA BKN016 OVC031 07/06 A3000 RMK AO2 P0000=
201004240236 SPECI KCLM 240236Z AUTO 31003KT 10SM -RA BKN016 OVC031 07/06 A3000 RMK AO2 P0000=
201004240225 SPECI KCLM 240225Z AUTO 32003KT 9SM -RA BKN014 OVC031 07/06 A3000 RMK AO2 P0000=
201004240225 SPECI KCLM 240225Z AUTO 32003KT 9SM -RA BKN014 OVC031 07/06 A3000 RMK AO2 P0000=
201004240153 METAR KCLM 240153Z AUTO 00000KT 10SM -RA OVC055 08/05 A2999 RMK AO2 RAB0056 SLP157 P0000 T00780050=
201004240053 METAR KCLM 240053Z AUTO 35003KT 10SM BKN060 08/04 A2999 RMK AO2 SLP157 T00780044=
201004232353 METAR KCLM 232353Z AUTO 01005KT 10SM FEW055 BKN070 08/05 A2999 RMK AO2 RAB2258E42 SLP156 P0000 60000 T00830050 10106 20083 58012=
201004232253 METAR KCLM 232253Z AUTO 00000KT 10SM BKN055 OVC070 09/03 A3000 RMK AO2 RAB22E35 SLP162 P0000 T00890033=
201004232153 METAR KCLM 232153Z AUTO 31005KT 10SM BKN060 09/03 A3002 RMK AO2 SLP169 T00890033=
201004232053 METAR KCLM 232053Z AUTO 35008KT 10SM FEW100 10/03 A3002 RMK AO2 SLP168 T01000028 58011=
201004231953 METAR KCLM 231953Z AUTO 35006KT 10SM SCT085 09/03 A3003 RMK AO2 SLP171 T00940033=
201004231853 METAR KCLM 231853Z AUTO VRB06KT 10SM FEW029 BKN085 09/03 A3005 RMK AO2 SLP179 T00940033=
201004231753 METAR KCLM 231753Z AUTO VRB04KT 10SM OVC090 09/02 A3005 RMK AO2 SLP179 T00890022 10089 20022 58016=
201004231653 METAR KCLM 231653Z AUTO 00000KT 10SM OVC110 08/02 A3007 RMK AO2 SLP184 T00830022=
201004231553 METAR KCLM 231553Z AUTO 24003KT 10SM FEW026 OVC110 08/02 A3010 RMK AO2 SLP193 T00780017=
201004231453 METAR KCLM 231453Z AUTO 24006KT 10SM OVC100 06/00 A3010 RMK AO2 SLP195 T00560000 55001=
201004231353 METAR KCLM 231353Z AUTO 22004KT 10SM BKN100 BKN120 03/01 A3009 RMK AO2 SLP190 T00330006 $=
201004231253 METAR KCLM 231253Z AUTO 21005KT 10SM CLR 03/M01 A3009 RMK AO2 SLP190 T00331011 $=
201004231153 METAR KCLM 231153Z AUTO 25006KT 10SM SCT120 04/M01 A3011 RMK AO2 SLP196 T00391006 10056 20028 55001 $=
201004231053 METAR KCLM 231053Z AUTO 24007KT 10SM CLR 04/01 A3010 RMK AO2 SLP196 T00440006 $=
201004230953 METAR KCLM 230953Z AUTO 24006KT 10SM CLR 04/01 A3011 RMK AO2 SLP196 T00440011 $=
201004230853 METAR KCLM 230853Z AUTO 25008KT 10SM CLR 04/02 A3011 RMK AO2 SLP198 T00440017 58003 $=
201004230753 METAR KCLM 230753Z AUTO 24008KT 10SM CLR 04/02 A3012 RMK AO2 SLP200 T00440022 401170028 $=
201004230653 METAR KCLM 230653Z AUTO 21003KT 10SM CLR 04/02 A3012 RMK AO2 SLP203 T00390022 $=
201004230553 METAR KCLM 230553Z AUTO 29005KT 10SM CLR 06/02 A3012 RMK AO2 SLP201 T00560017 10106 20056 51011 $=
201004230453 METAR KCLM 230453Z AUTO 28008KT 10SM CLR 07/03 A3012 RMK AO2 SLP199 T00670028 $=
201004230353 METAR KCLM 230353Z AUTO 29011G18KT 10SM CLR 07/04 A3011 RMK AO2 SLP195 T00720044 $=
201004230253 METAR KCLM 230253Z AUTO 29011KT 10SM CLR 08/04 A3009 RMK AO2 SLP190 T00830039 51003 $=
201004230153 METAR KCLM 230153Z AUTO 31014G21KT 10SM CLR 09/04 A3008 RMK AO2 SLP189 T00890044 $=
201004230053 METAR KCLM 230053Z AUTO 32007G18KT 290V360 10SM CLR 10/04 A3008 RMK AO2 SLP189 T01000044 $=
201004222353 METAR KCLM 222353Z AUTO 31015G22KT 10SM CLR 11/05 A3008 RMK AO2 SLP186 T01060050 10117 20100 58009 $=
201004222253 METAR KCLM 222253Z AUTO 30014G19KT 10SM FEW100 11/05 A3009 RMK AO2 SLP190 T01110050 $=
201004222153 METAR KCLM 222153Z AUTO 31013G18KT 10SM FEW044 11/06 A3010 RMK AO2 SLP195 T01110056 $=
201004222053 METAR KCLM 222053Z AUTO 32011G17KT 10SM CLR 11/05 A3010 RMK AO2 SLP195 T01110050 53001 $=
201004221953 METAR KCLM 221953Z AUTO VRB04KT 10SM CLR 11/06 A3010 RMK AO2 SLP192 T01110056 $=
201004221853 METAR KCLM 221853Z AUTO 32008G14KT 10SM CLR 11/06 A3011 RMK AO2 SLP196 T01110056 $=
201004221753 METAR KCLM 221753Z AUTO VRB06KT 10SM CLR 10/06 A3010 RMK AO2 SLP194 T01000061 10106 20050 50001 $=
201004221653 METAR KCLM 221653Z AUTO 33008G18KT 10SM FEW100 10/04 A3010 RMK AO2 SLP195 T01000044 $=
201004221553 METAR KCLM 221553Z AUTO VRB06KT 10SM FEW026 09/04 A3010 RMK AO2 SLP193 T00940039 $=
201004221453 METAR KCLM 221453Z AUTO 26006KT 10SM CLR 07/02 A3010 RMK AO2 SLP194 T00720022 53012 $=
201004221353 METAR KCLM 221353Z AUTO 25006KT 10SM CLR 05/02 A3008 RMK AO2 SLP188 T00500017 $=
201004221253 METAR KCLM 221253Z AUTO 25008KT 10SM CLR 05/02 A3007 RMK AO2 SLP184 T00500017 $=
201004221153 METAR KCLM 221153Z AUTO 24009KT 10SM CLR 06/02 A3006 RMK AO2 SLP180 T00560017 10067 20050 53003 $=
201004221053 METAR KCLM 221053Z AUTO 26009KT 10SM CLR 06/02 A3006 RMK AO2 SLP179 T00560022 $=
201004220953 METAR KCLM 220953Z AUTO 26008KT 10SM CLR 05/02 A3005 RMK AO2 SLP179 T00500022 $=
201004220853 METAR KCLM 220853Z AUTO 27008KT 10SM FEW050 05/02 A3005 RMK AO2 SLP178 T00500022 53007 $=
201004220753 METAR KCLM 220753Z AUTO 26007KT 10SM SCT055 06/03 A3005 RMK AO2 SLP175 T00610028 401110056 $=
201004220653 METAR KCLM 220653Z AUTO 25008KT 10SM CLR 06/03 A3004 RMK AO2 SLP173 T00610028 $=
201004220553 METAR KCLM 220553Z AUTO 28012KT 10SM CLR 07/03 A3003 RMK AO2 SLP170 T00670028 10106 20067 51008 $=
201004220453 METAR KCLM 220453Z AUTO 28008KT 10SM CLR 07/03 A3002 RMK AO2 SLP168 T00670028 $=
201004220353 METAR KCLM 220353Z AUTO 27008KT 10SM CLR 07/03 A3002 RMK AO2 SLP167 T00720033=
201004220253 METAR KCLM 220253Z AUTO 29010KT 10SM CLR 08/06 A3001 RMK AO2 SLP162 T00830056 51004=
201004220153 METAR KCLM 220153Z AUTO 30012G17KT 10SM CLR 09/05 A3000 RMK AO2 SLP161 T00940050=
201004220053 METAR KCLM 220053Z AUTO 29009KT 10SM CLR 10/05 A3000 RMK AO2 SLP160 T01000050=
201004212353 METAR KCLM 212353Z AUTO 32010KT 10SM CLR 11/04 A2999 RMK AO2 SLP158 T01060039 10111 20094 52005=
201004212253 METAR KCLM 212253Z AUTO 30011G16KT 10SM CLR 11/03 A2999 RMK AO2 SLP156 T01060033=
201004212153 METAR KCLM 212153Z AUTO 29008G16KT 10SM CLR 11/04 A2998 RMK AO2 SLP154 T01060044=
201004212053 METAR KCLM 212053Z AUTO 30010G15KT 10SM CLR 11/04 A2998 RMK AO2 SLP153 T01060039 51016=
201004211953 METAR KCLM 211953Z AUTO 30014G21KT 10SM CLR 10/04 A2997 RMK AO2 SLP149 T01000039=
201004211853 METAR KCLM 211853Z AUTO 32015G23KT 10SM CLR 09/03 A2995 RMK AO2 SLP143 T00940033=
201004211753 METAR KCLM 211753Z AUTO 31011G21KT 10SM CLR 11/03 A2993 RMK AO2 SLP136 T01060028 10106 20078 53001=
201004211653 METAR KCLM 211653Z AUTO 32010KT 10SM CLR 09/02 A2993 RMK AO2 SLP136 T00940022=
201004211553 METAR KCLM 211553Z AUTO 30010KT 10SM CLR 08/01 A2993 RMK AO2 SLP135 T00780006=
201004211453 METAR KCLM 211453Z AUTO 31010KT 10SM FEW100 08/01 A2993 RMK AO2 SLP135 T00830006 53013=
201004211353 METAR KCLM 211353Z AUTO 29012KT 10SM FEW120 08/01 A2991 RMK AO2 SLP128 T00830006=
201004211253 METAR KCLM 211253Z AUTO 30010KT 10SM OVC120 08/01 A2989 RMK AO2 SLP123 T00830011=
201004211153 METAR KCLM 211153Z AUTO 29009KT 10SM OVC120 08/02 A2989 RMK AO2 SLP122 T00780022 10089 20078 56000=
201004211053 METAR KCLM 211053Z AUTO 29012G21KT 10SM BKN070 OVC120 08/03 A2989 RMK AO2 SLP122 T00830033=
201004210953 METAR KCLM 210953Z AUTO 29012KT 10SM OVC070 08/04 A2988 RMK AO2 SLP120 T00830039=
201004210853 METAR KCLM 210853Z AUTO 30011KT 10SM OVC060 08/04 A2989 RMK AO2 SLP122 T00830044 50000=
201004210753 METAR KCLM 210753Z AUTO 29014G18KT 10SM OVC060 08/04 A2990 RMK AO2 SLP124 T00830044 401110078=
201004210653 METAR KCLM 210653Z AUTO 30012KT 10SM FEW055 BKN075 08/04 A2989 RMK AO2 SLP121 T00830044=
201004210553 METAR KCLM 210553Z AUTO 31009KT 10SM BKN070 08/05 A2989 RMK AO2 SLP122 T00780050 10094 20078 51002=
201004210453 METAR KCLM 210453Z AUTO 30011KT 10SM OVC070 08/06 A2988 RMK AO2 SLP120 T00830056=
201004210353 METAR KCLM 210353Z AUTO 29010KT 10SM OVC070 09/06 A2990 RMK AO2 SLP124 T00890061=
201004210253 METAR KCLM 210253Z AUTO 29010KT 10SM OVC065 09/06 A2988 RMK AO2 SLP121 T00890061 53004=
201004210153 METAR KCLM 210153Z AUTO 30010G18KT 10SM OVC070 09/07 A2988 RMK AO2 SLP117 T00940067=
201004210118 SPECI KCLM 210118Z AUTO 30011KT 10SM SCT013 OVC065 09/07 A2988 RMK AO2=
201004210118 SPECI KCLM 210118Z AUTO 30011KT 10SM SCT013 OVC065 09/07 A2988 RMK AO2=
201004210100 SPECI KCLM 210100Z AUTO 30012G20KT 10SM FEW007 BKN013 OVC017 09/07 A2988 RMK AO2=
201004210100 SPECI KCLM 210100Z AUTO 30012G20KT 10SM FEW007 BKN013 OVC017 09/07 A2988 RMK AO2=
201004210053 METAR KCLM 210053Z AUTO 30015G20KT 10SM OVC010 09/07 A2988 RMK AO2 CIG 006V014 SLP119 T00890072=
201004202353 METAR KCLM 202353Z AUTO 31010KT 10SM OVC006 09/08 A2987 RMK AO2 SLP116 60000 T00890078 10111 20089 53013=
201004202253 METAR KCLM 202253Z AUTO 31007KT 10SM OVC006 09/08 A2986 RMK AO2 RAE19 SLP111 P0000 T00890078=
201004202153 METAR KCLM 202153Z AUTO 30009KT 10SM -RA OVC006 09/08 A2985 RMK AO2 RAB09 SLP108 P0000 T00940083=
201004202053 METAR KCLM 202053Z AUTO 30011KT 10SM OVC005 10/08 A2983 RMK AO2 CIG 003V009 SLP103 T01000083 53006=
201004202033 SPECI KCLM 202033Z AUTO 30009G15KT 10SM BKN007 OVC036 10/09 A2983 RMK AO2 CIG 004V010=
201004202033 SPECI KCLM 202033Z AUTO 30009G15KT 10SM BKN007 OVC036 10/09 A2983 RMK AO2 CIG 004V010=
201004201953 METAR KCLM 201953Z AUTO 36004KT 10SM FEW007 SCT011 OVC034 11/09 A2982 RMK AO2 SLP100 T01060094=
201004201943 SPECI KCLM 201943Z AUTO VRB03KT 10SM SCT009 SCT012 OVC031 11/09 A2982 RMK AO2=
201004201943 SPECI KCLM 201943Z AUTO VRB03KT 10SM SCT009 SCT012 OVC031 11/09 A2982 RMK AO2=
201004201853 METAR KCLM 201853Z AUTO VRB04KT 10SM SCT003 OVC027 10/09 A2982 RMK AO2 SLP097 T01000089=
201004201851 SPECI KCLM 201851Z AUTO VRB04KT 10SM SCT003 OVC027 10/09 A2982 RMK AO2=
201004201851 SPECI KCLM 201851Z AUTO VRB04KT 10SM SCT003 OVC027 10/09 A2982 RMK AO2=
201004201753 METAR KCLM 201753Z AUTO 33004KT 10SM OVC003 09/09 A2981 RMK AO2 CIG 001V007 SLP096 60000 T00940089 10100 20089 51003=
201004201751 SPECI KCLM 201751Z AUTO 33005KT 9SM OVC003 10/09 A2981 RMK AO2 CIG 001V007=
201004201751 SPECI KCLM 201751Z AUTO 33005KT 9SM OVC003 10/09 A2981 RMK AO2 CIG 001V007=
201004201653 METAR KCLM 201653Z AUTO 00000KT 10SM OVC007 09/09 A2981 RMK AO2 CIG 003V010 SLP095 T00940089=
201004201622 SPECI KCLM 201622Z AUTO 31003KT 10SM BKN005 BKN014 OVC027 09/09 A2981 RMK AO2 CIG 004V009=
201004201622 SPECI KCLM 201622Z AUTO 31003KT 10SM BKN005 BKN014 OVC027 09/09 A2981 RMK AO2 CIG 004V009=
201004201611 SPECI KCLM 201611Z AUTO 00000KT 10SM FEW005 SCT015 OVC022 09/08 A2981 RMK AO2=
201004201611 SPECI KCLM 201611Z AUTO 00000KT 10SM FEW005 SCT015 OVC022 09/08 A2981 RMK AO2=
201004201553 METAR KCLM 201553Z AUTO 00000KT 10SM BKN015 OVC020 09/08 A2980 RMK AO2 RAE31 SLP093 P0000 T00940083=
201004201503 SPECI KCLM 201503Z AUTO 00000KT 7SM -RA SCT006 BKN013 OVC031 09/09 A2980 RMK AO2 P0000=
201004201503 SPECI KCLM 201503Z AUTO 00000KT 7SM -RA SCT006 BKN013 OVC031 09/09 A2980 RMK AO2 P0000=
201004201453 METAR KCLM 201453Z AUTO 00000KT 8SM -RA BKN006 BKN013 OVC031 09/08 A2981 RMK AO2 RAB1357 SLP095 P0000 60000 T00940083 55000=
201004201353 METAR KCLM 201353Z AUTO 00000KT 10SM OVC008 09/08 A2981 RMK AO2 SLP094 T00940083=
201004201253 METAR KCLM 201253Z AUTO 00000KT 10SM OVC008 09/08 A2980 RMK AO2 RAE26 SLP091 P0000 T00890083=
201004201217 SPECI KCLM 201217Z AUTO 00000KT 10SM -RA OVC008 09/08 A2980 RMK AO2 P0000=
201004201217 SPECI KCLM 201217Z AUTO 00000KT 10SM -RA OVC008 09/08 A2980 RMK AO2 P0000=
201004201153 METAR KCLM 201153Z AUTO 00000KT 10SM -RA OVC010 09/08 A2981 RMK AO2 SLP094 P0001 60006 70006 T00890083 10106 20089 52000=
201004201111 SPECI KCLM 201111Z AUTO 09003KT 8SM -RA BKN010 OVC020 09/08 A2981 RMK AO2 P0001=
201004201111 SPECI KCLM 201111Z AUTO 09003KT 8SM -RA BKN010 OVC020 09/08 A2981 RMK AO2 P0001=
201004201100 SPECI KCLM 201100Z AUTO 00000KT 9SM -RA SCT010 OVC018 09/08 A2981 RMK AO2 P0000=
201004201100 SPECI KCLM 201100Z AUTO 00000KT 9SM -RA SCT010 OVC018 09/08 A2981 RMK AO2 P0000=
201004201053 METAR KCLM 201053Z AUTO 00000KT 10SM -RA BKN010 OVC018 09/08 A2981 RMK AO2 SLP094 P0000 T00940083=
201004201042 SPECI KCLM 201042Z AUTO 00000KT 10SM -RA SCT010 BKN016 OVC022 09/08 A2981 RMK AO2 P0000=
201004201042 SPECI KCLM 201042Z AUTO 00000KT 10SM -RA SCT010 BKN016 OVC022 09/08 A2981 RMK AO2 P0000=
201004200953 METAR KCLM 200953Z AUTO 00000KT 10SM -RA OVC012 09/08 A2981 RMK AO2 SLP094 P0000 T00940078=
201004200916 SPECI KCLM 200916Z AUTO 28004KT 10SM -RA BKN012 BKN032 OVC075 09/08 A2981 RMK AO2 P0000=
201004200916 SPECI KCLM 200916Z AUTO 28004KT 10SM -RA BKN012 BKN032 OVC075 09/08 A2981 RMK AO2 P0000=
201004200853 METAR KCLM 200853Z AUTO 28004KT 10SM -RA BKN034 OVC050 09/08 A2980 RMK AO2 SLP093 P0001 60005 T00940083 53002=
201004200753 METAR KCLM 200753Z AUTO 00000KT 7SM -RA BKN045 OVC060 09/08 A2980 RMK AO2 SLP091 P0004 T00940083 401670078=
201004200653 METAR KCLM 200653Z AUTO 30007KT 10SM -RA OVC065 09/08 A2980 RMK AO2 SLP091 P0000 T00940078=
201004200553 METAR KCLM 200553Z AUTO 23004KT 10SM -RA BKN070 OVC090 11/07 A2980 RMK AO2 RAB19 SLP091 P0000 60000 T01060072 10161 20100 53008=
201004200453 METAR KCLM 200453Z AUTO 33006KT 10SM OVC090 12/07 A2978 RMK AO2 RAE27 SLP085 P0000 T01170067=
201004200353 METAR KCLM 200353Z AUTO 28008KT 10SM -RA BKN085 OVC110 12/07 A2978 RMK AO2 RAB52 SLP083 P0000 T01170067=
201004200253 METAR KCLM 200253Z AUTO 29005KT 10SM BKN100 12/07 A2977 RMK AO2 SLP083 T01170072 51011=
201004200153 METAR KCLM 200153Z AUTO 29011G20KT 10SM BKN100 13/07 A2977 RMK AO2 SLP081 T01280072=
201004200053 METAR KCLM 200053Z AUTO 29014G19KT 10SM FEW090 14/06 A2975 RMK AO2 SLP076 T01390061=
201004192353 METAR KCLM 192353Z AUTO 31008KT 10SM FEW095 16/08 A2974 RMK AO2 SLP072 T01610083 10167 20139 56002=
201004192253 METAR KCLM 192253Z AUTO 29006KT 10SM CLR 16/07 A2974 RMK AO2 SLP073 T01560072=
201004192153 METAR KCLM 192153Z AUTO VRB04KT 10SM SCT095 16/08 A2974 RMK AO2 SLP071 T01610078=
201004192053 METAR KCLM 192053Z AUTO VRB04KT 10SM FEW100 14/08 A2975 RMK AO2 SLP074 T01440078 51003=
201004191953 METAR KCLM 191953Z AUTO VRB03KT 10SM FEW095 16/06 A2975 RMK AO2 SLP072 T01610061=
201004191853 METAR KCLM 191853Z AUTO 35003KT 10SM SCT095 14/06 A2975 RMK AO2 SLP074 T01440061=
201004191753 METAR KCLM 191753Z AUTO VRB04KT 10SM CLR 14/07 A2974 RMK AO2 SLP070 T01390067 10144 20078 55001=
201004191653 METAR KCLM 191653Z AUTO 09004KT 10SM CLR 13/07 A2973 RMK AO2 SLP069 T01330072=
201004191553 METAR KCLM 191553Z AUTO 00000KT 10SM CLR 12/08 A2973 RMK AO2 SLP069 T01170078=
201004191453 METAR KCLM 191453Z AUTO 00000KT 10SM CLR 09/07 A2974 RMK AO2 SLP072 T00940072 56010=
201004191353 METAR KCLM 191353Z AUTO 24003KT 10SM CLR 08/07 A2974 RMK AO2 SLP073 T00830067=
201004191253 METAR KCLM 191253Z AUTO 00000KT 10SM CLR 09/07 A2975 RMK AO2 SLP076 T00890072=
201004191153 METAR KCLM 191153Z AUTO 00000KT 10SM CLR 08/07 A2977 RMK AO2 SLP082 T00830072 10117 20083 56022=
201004191053 METAR KCLM 191053Z AUTO 20003KT 10SM CLR 09/07 A2979 RMK AO2 SLP089 T00890072=
201004190953 METAR KCLM 190953Z AUTO 23005KT 10SM CLR 10/07 A2981 RMK AO2 SLP096 T01000067=
201004190853 METAR KCLM 190853Z AUTO 23006KT 10SM CLR 10/07 A2984 RMK AO2 SLP105 T01000072 58010=
201004190753 METAR KCLM 190753Z AUTO 23005KT 10SM FEW120 11/08 A2985 RMK AO2 SLP110 T01060083 401500078=
201004190653 METAR KCLM 190653Z AUTO 25004KT 10SM CLR 12/07 A2986 RMK AO2 SLP112 T01170067=
201004190553 METAR KCLM 190553Z AUTO 23004KT 10SM CLR 11/08 A2987 RMK AO2 SLP115 T01110083 10150 20106 58005=
201004190453 METAR KCLM 190453Z AUTO 00000KT 10SM CLR 11/09 A2988 RMK AO2 SLP118 T01110089=
201004190353 METAR KCLM 190353Z AUTO 00000KT 10SM CLR 12/09 A2989 RMK AO2 SLP121 T01220089=
201004190253 METAR KCLM 190253Z AUTO 00000KT 10SM CLR 13/08 A2988 RMK AO2 SLP120 T01280083 56010=
201004190153 METAR KCLM 190153Z AUTO 00000KT 10SM CLR 14/08 A2989 RMK AO2 SLP122 T01440083=
201004190053 METAR KCLM 190053Z AUTO 00000KT 10SM CLR 15/08 A2991 RMK AO2 SLP128 T01500078=
201004182353 METAR KCLM 182353Z AUTO 00000KT 10SM CLR 14/07 A2991 RMK AO2 SLP131 T01390067 10144 20106 56016=
201004182253 METAR KCLM 182253Z AUTO 36004KT 10SM CLR 14/08 A2992 RMK AO2 SLP133 T01390078=
201004182153 METAR KCLM 182153Z AUTO 36004KT 10SM CLR 14/08 A2994 RMK AO2 SLP139 T01440083=
201004182053 METAR KCLM 182053Z AUTO 31006KT 10SM FEW028 BKN034 13/09 A2996 RMK AO2 SLP147 T01280089 55007=
201004182046 SPECI KCLM 182046Z AUTO 33005KT 10SM FEW026 BKN032 12/09 A2996 RMK AO2=
201004182046 SPECI KCLM 182046Z AUTO 33005KT 10SM FEW026 BKN032 12/09 A2996 RMK AO2=
201004181953 METAR KCLM 181953Z AUTO VRB04KT 10SM OVC026 12/09 A2995 RMK AO2 SLP143 T01170089=
201004181853 METAR KCLM 181853Z AUTO 09006KT 10SM OVC028 12/08 A2996 RMK AO2 SLP146 T01220083=
201004181840 SPECI KCLM 181840Z AUTO 10006KT 10SM OVC028 12/08 A2996 RMK AO2=
201004181840 SPECI KCLM 181840Z AUTO 10006KT 10SM OVC028 12/08 A2996 RMK AO2=
201004181806 SPECI KCLM 181806Z AUTO 09006KT 10SM BKN030 12/08 A2998 RMK AO2=
201004181806 SPECI KCLM 181806Z AUTO 09006KT 10SM BKN030 12/08 A2998 RMK AO2=
201004181753 METAR KCLM 181753Z AUTO 10007KT 10SM BKN028 12/08 A2998 RMK AO2 SLP154 T01170083 10117 20083 58013=
201004181653 METAR KCLM 181653Z AUTO VRB03KT 10SM OVC028 11/08 A3001 RMK AO2 SLP163 T01110083=
201004181553 METAR KCLM 181553Z AUTO 00000KT 10SM OVC028 10/07 A3002 RMK AO2 SLP165 T01000072=
201004181453 METAR KCLM 181453Z AUTO 23006KT 10SM FEW012 OVC028 09/06 A3002 RMK AO2 SLP168 T00890056 55004=
201004181353 METAR KCLM 181353Z AUTO 24005KT 10SM SCT013 OVC028 09/06 A3002 RMK AO2 SLP166 T00890061=
201004181339 SPECI KCLM 181339Z AUTO 24006KT 10SM BKN013 OVC021 09/06 A3002 RMK AO2=
201004181339 SPECI KCLM 181339Z AUTO 24006KT 10SM BKN013 OVC021 09/06 A3002 RMK AO2=
201004181253 METAR KCLM 181253Z AUTO 23004KT 10SM BKN019 OVC028 09/06 A3003 RMK AO2 SLP169 T00890061=
201004181220 SPECI KCLM 181220Z AUTO 24007KT 10SM BKN017 08/06 A3004 RMK AO2=
201004181220 SPECI KCLM 181220Z AUTO 24007KT 10SM BKN017 08/06 A3004 RMK AO2=
201004181153 METAR KCLM 181153Z AUTO 23004KT 10SM CLR 08/06 A3004 RMK AO2 SLP172 T00830061 10100 20072 51005=
201004181116 SPECI KCLM 181116Z AUTO 00000KT 10SM SCT017 08/06 A3003 RMK AO2=
201004181116 SPECI KCLM 181116Z AUTO 00000KT 10SM SCT017 08/06 A3003 RMK AO2=
201004181053 METAR KCLM 181053Z AUTO 25006KT 10SM SCT017 BKN025 09/06 A3003 RMK AO2 SLP171 T00940061=
201004180953 METAR KCLM 180953Z AUTO 25006KT 10SM BKN020 OVC024 09/07 A3003 RMK AO2 SLP170 T00940072=
201004180853 METAR KCLM 180853Z AUTO 22004KT 10SM OVC022 09/08 A3002 RMK AO2 SLP166 T00940083 58001=
201004180826 SPECI KCLM 180826Z AUTO 23004KT 10SM FEW015 BKN022 OVC032 08/08 A3002 RMK AO2=
201004180826 SPECI KCLM 180826Z AUTO 23004KT 10SM FEW015 BKN022 OVC032 08/08 A3002 RMK AO2=
201004180808 SPECI KCLM 180808Z AUTO 00000KT 10SM FEW024 OVC032 09/08 A3002 RMK AO2=
201004180808 SPECI KCLM 180808Z AUTO 00000KT 10SM FEW024 OVC032 09/08 A3002 RMK AO2=
201004180753 METAR KCLM 180753Z AUTO 21003KT 10SM FEW013 BKN026 OVC032 09/08 A3002 RMK AO2 SLP168 T00940083 401390061=
201004180743 SPECI KCLM 180743Z AUTO 23004KT 10SM SCT013 BKN026 OVC032 09/08 A3003 RMK AO2=
201004180743 SPECI KCLM 180743Z AUTO 23004KT 10SM SCT013 BKN026 OVC032 09/08 A3003 RMK AO2=
201004180653 METAR KCLM 180653Z AUTO 25004KT 10SM BKN013 OVC024 08/07 A3002 RMK AO2 SLP167 T00830072=
201004180631 SPECI KCLM 180631Z AUTO 00000KT 10SM BKN013 BKN025 08/07 A3002 RMK AO2=
201004180631 SPECI KCLM 180631Z AUTO 00000KT 10SM BKN013 BKN025 08/07 A3002 RMK AO2=
201004180553 METAR KCLM 180553Z AUTO 24003KT 8SM CLR 08/07 A3002 RMK AO2 SLP167 60000 T00830072 10133 20078 52004=
201004180453 METAR KCLM 180453Z AUTO 00000KT 10SM FEW015 SCT031 OVC075 11/09 A3002 RMK AO2 SLP167 T01060094=
201004180446 SPECI KCLM 180446Z AUTO 00000KT 10SM SCT015 OVC075 10/09 A3002 RMK AO2=
201004180446 SPECI KCLM 180446Z AUTO 00000KT 10SM SCT015 OVC075 10/09 A3002 RMK AO2=
201004180353 METAR KCLM 180353Z AUTO 00000KT 10SM BKN015 OVC075 11/09 A3001 RMK AO2 SLP163 T01060094=
201004180325 SPECI KCLM 180325Z AUTO 00000KT 10SM SCT013 OVC070 11/09 A3000 RMK AO2=
201004180325 SPECI KCLM 180325Z AUTO 00000KT 10SM SCT013 OVC070 11/09 A3000 RMK AO2=
201004180317 SPECI KCLM 180317Z AUTO 00000KT 10SM BKN013 OVC070 11/09 A3000 RMK AO2=
201004180317 SPECI KCLM 180317Z AUTO 00000KT 10SM BKN013 OVC070 11/09 A3000 RMK AO2=
201004180253 METAR KCLM 180253Z AUTO 00000KT 10SM FEW013 OVC070 11/09 A3000 RMK AO2 SLP158 60000 T01110094 51007=
201004180153 METAR KCLM 180153Z AUTO 30004KT 10SM OVC070 12/09 A2999 RMK AO2 RAB0055E12 SLP156 P0000 T01170094=
201004180053 METAR KCLM 180053Z AUTO 29004KT 10SM FEW040 OVC060 13/09 A2998 RMK AO2 RAE48 SLP154 P0000 T01280089=
201004172353 METAR KCLM 172353Z AUTO 00000KT 10SM -RA OVC070 13/08 A2997 RMK AO2 RAB47 SLP151 P0000 60000 T01330078 10139 20106 53005=
201004172253 METAR KCLM 172253Z AUTO 04004KT 10SM FEW050 13/08 A2997 RMK AO2 RAB25E52 SLP149 P0000 T01280078=
201004172153 METAR KCLM 172153Z AUTO 36005KT 10SM CLR 13/08 A2996 RMK AO2 SLP146 T01280083=
201004172053 METAR KCLM 172053Z AUTO 35005KT 10SM FEW070 11/08 A2996 RMK AO2 SLP146 60000 T01110083 53003=
201004171953 METAR KCLM 171953Z AUTO 00000KT 10SM FEW007 12/08 A2995 RMK AO2 RAB12E35 SLP142 P0000 T01170083=
201004171936 SPECI KCLM 171936Z AUTO 04004KT 10SM FEW007 SCT032 12/09 A2996 RMK AO2 RAB12E35 P0000=
201004171936 SPECI KCLM 171936Z AUTO 04004KT 10SM FEW007 SCT032 12/09 A2996 RMK AO2 RAB12E35 P0000=
201004171853 METAR KCLM 171853Z AUTO 05004KT 10SM FEW040 12/08 A2995 RMK AO2 RAE10B43E52 SLP142 P0000 T01170083=
201004171753 METAR KCLM 171753Z AUTO 03004KT 10SM -RA FEW042 BKN060 12/07 A2995 RMK AO2 RAB12 SLP143 P0000 60000 T01220067 10128 20083 58001=
201004171653 METAR KCLM 171653Z AUTO 10005KT 10SM BKN070 12/06 A2995 RMK AO2 SLP144 T01220061=
201004171553 METAR KCLM 171553Z AUTO 00000KT 10SM FEW070 BKN090 11/07 A2996 RMK AO2 SLP145 T01060067=
201004171453 METAR KCLM 171453Z AUTO 12004KT 10SM BKN070 OVC090 09/07 A2995 RMK AO2 SLP144 60000 T00890067 56005=
201004171353 METAR KCLM 171353Z AUTO 00000KT 10SM FEW060 SCT095 09/06 A2996 RMK AO2 RAE1254 SLP146 T00890061=
201004171253 METAR KCLM 171253Z AUTO 29005KT 10SM -RA OVC070 09/06 A2996 RMK AO2 RAB36 SLP145 P0000 T00890056=
201004171153 METAR KCLM 171153Z AUTO 26009KT 10SM FEW080 OVC110 08/05 A2997 RMK AO2 SLP149 T00830050 10106 20056 55003=
201004171053 METAR KCLM 171053Z AUTO 21004KT 10SM CLR 07/05 A2996 RMK AO2 SLP146 T00720050=
201004170953 METAR KCLM 170953Z AUTO 00000KT 10SM SCT075 07/05 A2997 RMK AO2 SLP149 T00670050=
201004170853 METAR KCLM 170853Z AUTO 21003KT 10SM CLR 06/04 A2998 RMK AO2 SLP152 T00610044 58012=
201004170753 METAR KCLM 170753Z AUTO 23004KT 10SM CLR 07/05 A3000 RMK AO2 SLP158 T00670050 401670022=
201004170653 METAR KCLM 170653Z AUTO 22003KT 10SM CLR 08/06 A3001 RMK AO2 SLP162 T00830056=
201004170553 METAR KCLM 170553Z AUTO 25007KT 10SM CLR 11/06 A3001 RMK AO2 SLP164 T01060061 10167 20089 50002=
201004170453 METAR KCLM 170453Z AUTO 24003KT 10SM CLR 10/06 A3002 RMK AO2 SLP166 T01000061=
201004170353 METAR KCLM 170353Z AUTO 00000KT 10SM CLR 10/07 A3002 RMK AO2 SLP166 T01000067=
201004170253 METAR KCLM 170253Z AUTO 00000KT 10SM CLR 11/07 A3001 RMK AO2 SLP162 T01110067 53006=
201004170153 METAR KCLM 170153Z AUTO 35003KT 10SM CLR 13/06 A3000 RMK AO2 SLP161 T01330061=
201004170053 METAR KCLM 170053Z AUTO 04004KT 10SM CLR 17/06 A2999 RMK AO2 SLP156 T01670056=
201004162353 METAR KCLM 162353Z AUTO 04003KT 10SM CLR 16/06 A2999 RMK AO2 SLP156 T01610061 10161 20117 58009=
201004162253 METAR KCLM 162253Z AUTO 00000KT 10SM CLR 16/06 A3000 RMK AO2 SLP161 T01560056=
201004162153 METAR KCLM 162153Z AUTO 09006KT 10SM FEW100 15/07 A3001 RMK AO2 SLP163 T01500067=
201004162053 METAR KCLM 162053Z AUTO VRB04KT 10SM CLR 14/06 A3002 RMK AO2 SLP165 T01390061 56013=
201004161953 METAR KCLM 161953Z AUTO VRB04KT 10SM CLR 13/06 A3003 RMK AO2 SLP168 T01330061=
201004161853 METAR KCLM 161853Z AUTO 09005KT 10SM CLR 12/06 A3004 RMK AO2 SLP174 T01220061=
201004161753 METAR KCLM 161753Z AUTO 10005KT 10SM CLR 12/07 A3005 RMK AO2 SLP178 T01170067 10117 20039 56002=
201004161653 METAR KCLM 161653Z AUTO 08005KT 10SM CLR 11/07 A3006 RMK AO2 SLP178 T01110072=
201004161624 SPECI KCLM 161624Z AUTO 10004KT 10SM SCT023 11/07 A3005 RMK AO2=
201004161624 SPECI KCLM 161624Z AUTO 10004KT 10SM SCT023 11/07 A3005 RMK AO2=
201004161553 METAR KCLM 161553Z AUTO 11005KT 10SM BKN021 11/07 A3005 RMK AO2 SLP176 T01060072=
201004161528 SPECI KCLM 161528Z AUTO 00000KT 10SM BKN017 09/07 A3005 RMK AO2=
201004161528 SPECI KCLM 161528Z AUTO 00000KT 10SM BKN017 09/07 A3005 RMK AO2=
201004161453 METAR KCLM 161453Z AUTO 22004KT 10SM FEW100 07/05 A3006 RMK AO2 SLP180 T00720050 56010=
201004161353 METAR KCLM 161353Z AUTO 22003KT 10SM CLR 04/03 A3006 RMK AO2 SLP182 T00390028=
201004161253 METAR KCLM 161253Z AUTO 23004KT 10SM CLR 05/04 A3007 RMK AO2 SLP184 T00500039=
201004161153 METAR KCLM 161153Z AUTO 22004KT 10SM CLR 04/03 A3009 RMK AO2 SLP191 T00390028 10061 20022 56015=
201004161053 METAR KCLM 161053Z AUTO 18004KT 10SM CLR 03/03 A3010 RMK AO2 SLP195 T00330028=
201004160953 METAR KCLM 160953Z AUTO 00000KT 10SM CLR 04/03 A3012 RMK AO2 SLP200 T00390028=
201004160853 METAR KCLM 160853Z AUTO 23006KT 10SM CLR 05/04 A3013 RMK AO2 SLP205 T00500039 58010=
201004160753 METAR KCLM 160753Z AUTO 24004KT 10SM CLR 05/04 A3015 RMK AO2 SLP211 T00500039 401220022=
201004160653 METAR KCLM 160653Z AUTO 27004KT 10SM CLR 05/04 A3015 RMK AO2 SLP212 T00500039=
201004160553 METAR KCLM 160553Z AUTO 22004KT 10SM CLR 06/04 A3016 RMK AO2 SLP216 T00560044 10122 20056 51004=
201004160453 METAR KCLM 160453Z AUTO 28007KT 10SM CLR 08/07 A3016 RMK AO2 SLP215 T00780067=
201004160353 METAR KCLM 160353Z AUTO 26005KT 10SM CLR 08/07 A3016 RMK AO2 SLP213 T00830067=
201004160253 METAR KCLM 160253Z AUTO 30004KT 10SM CLR 09/07 A3015 RMK AO2 SLP211 T00890067 58002=
201004160153 METAR KCLM 160153Z AUTO 31006KT 10SM CLR 11/07 A3015 RMK AO2 SLP212 T01110067=
201004160053 METAR KCLM 160053Z AUTO 30005KT 10SM FEW075 12/06 A3016 RMK AO2 SLP215 T01170061=
201004152353 METAR KCLM 152353Z AUTO 33006KT 10SM CLR 12/06 A3016 RMK AO2 SLP215 60000 T01170056 10122 20089 51003=
201004152253 METAR KCLM 152253Z AUTO 01004KT 10SM FEW100 12/07 A3016 RMK AO2 RAE2158 SLP212 P0000 T01170067=
201004152153 METAR KCLM 152153Z AUTO 36004KT 10SM -RA SCT043 BKN055 BKN070 10/06 A3016 RMK AO2 RAB49 SLP215 P0000 T01000061=
201004152053 METAR KCLM 152053Z AUTO 02003KT 10SM FEW095 12/07 A3015 RMK AO2 RAB02E16 SLP210 P0000 60000 T01170067 51001=
201004151953 METAR KCLM 151953Z AUTO 06003KT 10SM SCT060 SCT095 09/07 A3015 RMK AO2 RAE1854 SLP211 T00940067=
201004151853 METAR KCLM 151853Z AUTO 00000KT 10SM -RA SCT047 09/07 A3015 RMK AO2 RAB35 SLP213 P0000 T00940067=
201004151753 METAR KCLM 151753Z AUTO 00000KT 10SM BKN090 09/06 A3014 RMK AO2 SLP210 T00890061 10111 20022 51015=
201004151653 METAR KCLM 151653Z AUTO 36003KT 10SM BKN090 09/06 A3013 RMK AO2 SLP206 T00890056=
201004151553 METAR KCLM 151553Z AUTO 00000KT 10SM FEW100 10/04 A3012 RMK AO2 SLP200 T01000039=
201004151453 METAR KCLM 151453Z AUTO 25004KT 10SM BKN120 08/03 A3010 RMK AO2 SLP193 T00780033 53010=
201004151353 METAR KCLM 151353Z AUTO 22004KT 10SM CLR 03/02 A3009 RMK AO2 SLP191 T00330017=
201004151253 METAR KCLM 151253Z AUTO 23006KT 10SM CLR 04/02 A3007 RMK AO2 SLP182 T00440022=
201004151153 METAR KCLM 151153Z AUTO 22003KT 10SM FEW120 04/02 A3007 RMK AO2 SLP183 T00390022 10067 20028 55000=
201004151053 METAR KCLM 151053Z AUTO 23005KT 10SM CLR 06/02 A3006 RMK AO2 SLP181 T00560022=
201004150953 METAR KCLM 150953Z AUTO 23006KT 10SM CLR 06/03 A3007 RMK AO2 SLP182 T00610028=
201004150853 METAR KCLM 150853Z AUTO 22006KT 10SM CLR 05/03 A3007 RMK AO2 SLP184 T00500028 53003=
201004150753 METAR KCLM 150753Z AUTO 19003KT 10SM CLR 04/03 A3006 RMK AO2 SLP181 T00390028 401280039=
201004150653 METAR KCLM 150653Z AUTO 00000KT 10SM CLR 04/03 A3005 RMK AO2 SLP179 T00390028=
201004150553 METAR KCLM 150553Z AUTO 15003KT 9SM CLR 06/04 A3006 RMK AO2 SLP181 T00610039 10128 20061 51006=
201004150453 METAR KCLM 150453Z AUTO 00000KT 10SM CLR 07/03 A3005 RMK AO2 SLP178 T00670033=
201004150353 METAR KCLM 150353Z AUTO 24004KT 10SM CLR 08/03 A3005 RMK AO2 SLP175 T00780033=
201004150253 METAR KCLM 150253Z AUTO 13003KT 10SM CLR 11/02 A3004 RMK AO2 SLP173 T01060022 55002=
201004150153 METAR KCLM 150153Z AUTO 11003KT 10SM CLR 12/03 A3004 RMK AO2 SLP173 T01220028=
201004150053 METAR KCLM 150053Z AUTO 02003KT 10SM CLR 12/05 A3004 RMK AO2 SLP175 T01220050=
201004142353 METAR KCLM 142353Z AUTO 03003KT 10SM CLR 12/05 A3005 RMK AO2 SLP175 T01220050 10128 20094 56018=
201004142253 METAR KCLM 142253Z AUTO 02005KT 10SM FEW100 12/06 A3006 RMK AO2 SLP178 T01170056=
201004142153 METAR KCLM 142153Z AUTO 03004KT 10SM CLR 12/06 A3007 RMK AO2 SLP183 T01170056=
201004142053 METAR KCLM 142053Z AUTO 02004KT 10SM 11/05 A3010 RMK AO2 SLP193 T01060050 58001=
201004141953 METAR KCLM 141953Z AUTO VRB04KT 10SM 11/05 A3010 RMK AO2 SLP193 T01060050 PWINO $=
201004141853 METAR KCLM 141853Z AUTO 34006KT 10SM 10/05 A3010 RMK AO2 SLP195 T01000050 $=
201004141753 METAR KCLM 141753Z AUTO 36006KT 10SM FEW100 09/04 A3010 RMK AO2 SLP194 T00940044 10100 20061 51004=
201004141653 METAR KCLM 141653Z AUTO VRB04KT 10SM FEW018 BKN036 09/05 A3010 RMK AO2 SLP192 T00940050=
201004141625 SPECI KCLM 141625Z AUTO 00000KT 10SM SCT022 BKN036 09/04 A3009 RMK AO2=
201004141625 SPECI KCLM 141625Z AUTO 00000KT 10SM SCT022 BKN036 09/04 A3009 RMK AO2=
201004141553 METAR KCLM 141553Z AUTO 30005KT 10SM OVC022 09/05 A3010 RMK AO2 SLP193 T00890050=
201004141453 METAR KCLM 141453Z AUTO 26004KT 10SM OVC022 07/04 A3009 RMK AO2 SLP190 T00720044 51009=
201004141438 SPECI KCLM 141438Z AUTO 27004KT 10SM BKN022 07/04 A3008 RMK AO2=
201004141438 SPECI KCLM 141438Z AUTO 27004KT 10SM BKN022 07/04 A3008 RMK AO2=
201004141405 SPECI KCLM 141405Z AUTO 24003KT 10SM SCT024 BKN031 BKN042 06/04 A3008 RMK AO2=
201004141405 SPECI KCLM 141405Z AUTO 24003KT 10SM SCT024 BKN031 BKN042 06/04 A3008 RMK AO2=
201004141353 METAR KCLM 141353Z AUTO 24003KT 10SM BKN024 BKN031 OVC044 07/04 A3008 RMK AO2 SLP188 T00670044=
201004141308 SPECI KCLM 141308Z AUTO 26004KT 10SM SCT024 BKN030 OVC044 07/04 A3008 RMK AO2=
201004141308 SPECI KCLM 141308Z AUTO 26004KT 10SM SCT024 BKN030 OVC044 07/04 A3008 RMK AO2=
201004141253 METAR KCLM 141253Z AUTO 27004KT 10SM BKN024 OVC030 07/04 A3008 RMK AO2 SLP186 T00670044=
201004141153 METAR KCLM 141153Z AUTO 25006KT 10SM BKN024 BKN045 07/04 A3006 RMK AO2 SLP181 T00670044 10083 20067 51001=
201004141146 SPECI KCLM 141146Z AUTO 24005KT 10SM BKN024 OVC045 07/04 A3006 RMK AO2=
201004141146 SPECI KCLM 141146Z AUTO 24005KT 10SM BKN024 OVC045 07/04 A3006 RMK AO2=
201004141134 SPECI KCLM 141134Z AUTO 27005KT 10SM SCT028 OVC045 07/04 A3006 RMK AO2=
201004141134 SPECI KCLM 141134Z AUTO 27005KT 10SM SCT028 OVC045 07/04 A3006 RMK AO2=
201004141121 SPECI KCLM 141121Z AUTO 28004KT 10SM BKN028 BKN033 OVC045 07/05 A3006 RMK AO2=
201004141121 SPECI KCLM 141121Z AUTO 28004KT 10SM BKN028 BKN033 OVC045 07/05 A3006 RMK AO2=
201004141053 METAR KCLM 141053Z AUTO 28003KT 10SM FEW028 SCT035 OVC045 07/05 A3006 RMK AO2 SLP180 T00720050=
201004140953 METAR KCLM 140953Z AUTO 27006KT 10SM OVC033 08/05 A3006 RMK AO2 SLP181 T00780050=
201004140853 METAR KCLM 140853Z AUTO 26005KT 10SM OVC037 08/05 A3006 RMK AO2 SLP180 T00780050 51013=
201004140753 METAR KCLM 140753Z AUTO 26005KT 10SM OVC040 08/05 A3005 RMK AO2 SLP178 T00780050 401170072=
201004140653 METAR KCLM 140653Z AUTO 27005KT 10SM FEW026 BKN033 OVC046 08/06 A3004 RMK AO2 SLP173 T00780056=
201004140553 METAR KCLM 140553Z AUTO 25004KT 10SM BKN032 OVC040 08/06 A3002 RMK AO2 SLP167 T00830061 10111 20078 51014=
201004140453 METAR KCLM 140453Z AUTO 25003KT 10SM BKN038 OVC060 08/06 A3001 RMK AO2 SLP163 T00780056=
201004140353 METAR KCLM 140353Z AUTO 23003KT 10SM SCT038 SCT047 BKN060 09/06 A3000 RMK AO2 SLP160 T00890056=
201004140253 METAR KCLM 140253Z AUTO 00000KT 10SM FEW038 OVC080 09/05 A2998 RMK AO2 SLP153 T00890050 53016=
201004140153 METAR KCLM 140153Z AUTO 31004KT 10SM FEW060 OVC080 09/05 A2997 RMK AO2 SLP148 T00940050=
201004140053 METAR KCLM 140053Z AUTO 35003KT 10SM OVC065 11/05 A2995 RMK AO2 SLP142 T01060050=
201004132353 METAR KCLM 132353Z AUTO VRB03KT 10SM FEW060 BKN075 OVC095 11/05 A2993 RMK AO2 SLP137 T01110050 10117 20100 51006=
201004132253 METAR KCLM 132253Z AUTO 36004KT 10SM FEW029 BKN075 11/05 A2993 RMK AO2 SLP135 T01110050=
201004132153 METAR KCLM 132153Z AUTO 01004KT 10SM FEW055 11/04 A2992 RMK AO2 SLP134 T01110039=
201004132053 METAR KCLM 132053Z AUTO 30003KT 10SM FEW060 OVC085 11/05 A2992 RMK AO2 SLP131 T01110050 53009=
201004131953 METAR KCLM 131953Z AUTO 36006KT 10SM FEW090 11/05 A2990 RMK AO2 SLP126 T01060050=
201004131853 METAR KCLM 131853Z AUTO 01007KT 10SM FEW065 OVC090 11/05 A2989 RMK AO2 SLP124 T01060050=
201004131832 SPECI KCLM 131832Z AUTO 30006KT 10SM SCT015 OVC085 11/06 A2989 RMK AO2=
201004131832 SPECI KCLM 131832Z AUTO 30006KT 10SM SCT015 OVC085 11/06 A2989 RMK AO2=
201004131824 SPECI KCLM 131824Z AUTO VRB05KT 10SM BKN015 OVC080 10/06 A2989 RMK AO2=
201004131824 SPECI KCLM 131824Z AUTO VRB05KT 10SM BKN015 OVC080 10/06 A2989 RMK AO2=
201004131814 SPECI KCLM 131814Z AUTO 35006KT 10SM SCT015 OVC080 10/06 A2989 RMK AO2=
201004131814 SPECI KCLM 131814Z AUTO 35006KT 10SM SCT015 OVC080 10/06 A2989 RMK AO2=
201004131804 SPECI KCLM 131804Z AUTO VRB04KT 10SM BKN015 OVC080 10/06 A2989 RMK AO2=
201004131804 SPECI KCLM 131804Z AUTO VRB04KT 10SM BKN015 OVC080 10/06 A2989 RMK AO2=
201004131753 METAR KCLM 131753Z AUTO 32004KT 10SM SCT015 SCT065 OVC080 10/06 A2989 RMK AO2 SLP122 60000 T01000056 10100 20072 53009=
201004131706 SPECI KCLM 131706Z AUTO 32006KT 10SM SCT012 OVC070 09/06 A2988 RMK AO2=
201004131706 SPECI KCLM 131706Z AUTO 32006KT 10SM SCT012 OVC070 09/06 A2988 RMK AO2=
201004131653 METAR KCLM 131653Z AUTO 32007KT 10SM BKN012 OVC070 09/06 A2988 RMK AO2 SLP118 T00940061=
201004131617 SPECI KCLM 131617Z AUTO 29008KT 10SM BKN012 OVC060 09/07 A2987 RMK AO2=
201004131617 SPECI KCLM 131617Z AUTO 29008KT 10SM BKN012 OVC060 09/07 A2987 RMK AO2=
201004131610 SPECI KCLM 131610Z AUTO 29005KT 10SM SCT012 BKN060 OVC075 09/07 A2987 RMK AO2=
201004131610 SPECI KCLM 131610Z AUTO 29005KT 10SM SCT012 BKN060 OVC075 09/07 A2987 RMK AO2=
201004131603 SPECI KCLM 131603Z AUTO 31004KT 10SM SCT012 BKN016 OVC065 09/07 A2987 RMK AO2=
201004131603 SPECI KCLM 131603Z AUTO 31004KT 10SM SCT012 BKN016 OVC065 09/07 A2987 RMK AO2=
201004131553 METAR KCLM 131553Z AUTO 29006KT 10SM FEW012 BKN065 OVC075 09/07 A2987 RMK AO2 SLP116 T00890067=
201004131453 METAR KCLM 131453Z AUTO 28006KT 10SM OVC060 09/07 A2986 RMK AO2 SLP113 60000 T00890067 53009=
201004131353 METAR KCLM 131353Z AUTO 25004KT 10SM SCT065 OVC090 08/04 A2984 RMK AO2 SLP107 T00780044=
201004131253 METAR KCLM 131253Z AUTO 24003KT 10SM BKN075 BKN110 08/05 A2985 RMK AO2 RAB01E44 SLP107 P0000 T00780050=
201004131153 METAR KCLM 131153Z AUTO 24003KT 10SM OVC055 08/04 A2984 RMK AO2 RAB39E51 SLP105 P0000 60000 T00830044 10100 20083 51007=
201004131053 METAR KCLM 131053Z AUTO 27006KT 10SM OVC060 09/04 A2983 RMK AO2 SLP102 T00890044=
201004130953 METAR KCLM 130953Z AUTO 25007KT 10SM FEW050 BKN090 OVC120 09/04 A2983 RMK AO2 SLP102 T00890044=
201004130853 METAR KCLM 130853Z AUTO 25007KT 10SM OVC085 09/04 A2982 RMK AO2 SLP097 T00940044 51003=
201004130753 METAR KCLM 130753Z AUTO 26007KT 10SM BKN065 OVC080 09/05 A2981 RMK AO2 SLP097 T00940050 401390050=
201004130653 METAR KCLM 130653Z AUTO 24010KT 10SM BKN075 OVC085 10/05 A2981 RMK AO2 SLP096 T01000050=
201004130553 METAR KCLM 130553Z AUTO 27006KT 10SM OVC080 10/06 A2981 RMK AO2 SLP094 T01000056 10139 20100 53008=
201004130453 METAR KCLM 130453Z AUTO 25006KT 10SM BKN080 OVC100 11/06 A2980 RMK AO2 SLP090 T01060056=
201004130353 METAR KCLM 130353Z AUTO 24006KT 10SM FEW070 BKN090 OVC110 10/06 A2978 RMK AO2 SLP087 T01000061=
201004130253 METAR KCLM 130253Z AUTO 00000KT 10SM FEW055 BKN070 OVC085 11/06 A2978 RMK AO2 SLP085 T01110061 51011=
201004130153 METAR KCLM 130153Z AUTO 00000KT 10SM OVC070 11/06 A2978 RMK AO2 SLP084 T01110056=
201004130053 METAR KCLM 130053Z AUTO 31008KT 10SM SCT065 OVC090 12/04 A2978 RMK AO2 SLP083 T01170044=
201004122353 METAR KCLM 122353Z AUTO 30004KT 10SM BKN065 14/04 A2975 RMK AO2 SLP074 T01390039 10139 20128 51008=
201004122253 METAR KCLM 122253Z AUTO VRB04KT 10SM SCT085 13/02 A2974 RMK AO2 SLP071 T01330017=
201004122153 METAR KCLM 122153Z AUTO 00000KT 10SM SCT065 OVC080 13/00 A2974 RMK AO2 SLP070 T01330000=
201004122053 METAR KCLM 122053Z AUTO 09004KT 10SM OVC070 13/M01 A2972 RMK AO2 SLP066 T01281011 53004=
201004121953 METAR KCLM 121953Z AUTO 09003KT 10SM OVC075 13/M01 A2972 RMK AO2 SLP064 T01331011=
201004121853 METAR KCLM 121853Z AUTO 09003KT 10SM CLR 14/M01 A2971 RMK AO2 SLP061 T01391006=
201004121753 METAR KCLM 121753Z AUTO 12004KT 10SM BKN090 13/00 A2971 RMK AO2 SLP062 T01280000 10128 20056 50000=
201004121653 METAR KCLM 121653Z AUTO 14006KT 10SM SCT110 12/M02 A2972 RMK AO2 SLP063 T01221017=
201004121553 METAR KCLM 121553Z AUTO 00000KT 10SM BKN100 11/03 A2971 RMK AO2 SLP063 T01060028=
201004121453 METAR KCLM 121453Z AUTO 23005KT 10SM BKN110 07/02 A2971 RMK AO2 SLP062 T00720022 53002=
201004121353 METAR KCLM 121353Z AUTO 23007KT 10SM OVC110 06/01 A2971 RMK AO2 SLP060 T00610011=
201004121253 METAR KCLM 121253Z AUTO 23008KT 10SM OVC120 06/02 A2970 RMK AO2 SLP058 T00610017=
201004121153 METAR KCLM 121153Z AUTO 24005KT 10SM BKN120 06/01 A2971 RMK AO2 SLP060 T00560011 10072 20050 56006=
201004121053 METAR KCLM 121053Z AUTO 23007KT 10SM BKN120 06/01 A2971 RMK AO2 SLP060 T00560011=
201004120953 METAR KCLM 120953Z AUTO 23009KT 10SM CLR 06/01 A2972 RMK AO2 SLP063 T00560011=
201004120853 METAR KCLM 120853Z AUTO 23008KT 10SM BKN110 06/01 A2972 RMK AO2 SLP066 T00560011 56008=
201004120753 METAR KCLM 120753Z AUTO 00000KT 10SM FEW110 06/01 A2973 RMK AO2 SLP067 T00560011 401170039=
201004120653 METAR KCLM 120653Z AUTO 22005KT 10SM SCT120 07/01 A2974 RMK AO2 SLP070 T00670011=
201004120553 METAR KCLM 120553Z AUTO 22006KT 10SM FEW120 07/01 A2975 RMK AO2 SLP074 T00720011 10117 20050 58004=
201004120453 METAR KCLM 120453Z AUTO 22003KT 10SM CLR 07/02 A2975 RMK AO2 SLP076 T00670017=
201004120353 METAR KCLM 120353Z AUTO 21004KT 10SM CLR 08/01 A2976 RMK AO2 SLP078 T00780011=
201004120253 METAR KCLM 120253Z AUTO 20003KT 10SM CLR 09/M01 A2976 RMK AO2 SLP078 T00941006 56013=
201004120153 METAR KCLM 120153Z AUTO 07003KT 10SM OVC080 10/M01 A2977 RMK AO2 SLP082 T01001011=
201004120053 METAR KCLM 120053Z AUTO 00000KT 10SM OVC080 11/M01 A2978 RMK AO2 SLP085 T01061006=
201004112353 METAR KCLM 112353Z AUTO 09005KT 10SM OVC085 11/M01 A2979 RMK AO2 SLP091 T01061006 10117 20094 58021=
201004112253 METAR KCLM 112253Z AUTO 08007KT 10SM CLR 12/M01 A2982 RMK AO2 SLP101 T01171011=
201004112153 METAR KCLM 112153Z AUTO VRB04KT 10SM OVC110 12/M01 A2983 RMK AO2 SLP104 T01171011=
201004112053 METAR KCLM 112053Z AUTO 06005KT 10SM CLR 11/M02 A2986 RMK AO2 SLP112 T01061017 58011=
201004111953 METAR KCLM 111953Z AUTO 07007KT 10SM SCT100 11/01 A2987 RMK AO2 SLP115 T01060011=
201004111853 METAR KCLM 111853Z AUTO 06006KT 10SM BKN100 09/02 A2989 RMK AO2 SLP122 T00940017=
201004111753 METAR KCLM 111753Z AUTO 05005KT 10SM FEW100 09/02 A2989 RMK AO2 SLP123 T00940017 10100 20044 58009=
201004111653 METAR KCLM 111653Z AUTO VRB04KT 10SM OVC100 09/01 A2990 RMK AO2 SLP127 T00940006=
201004111553 METAR KCLM 111553Z AUTO 24003KT 10SM OVC100 07/02 A2991 RMK AO2 SLP131 T00670017=
201004111453 METAR KCLM 111453Z AUTO 23005KT 10SM OVC110 06/01 A2992 RMK AO2 SLP133 T00560011 53005=
201004111353 METAR KCLM 111353Z AUTO 23007KT 10SM BKN080 OVC100 04/01 A2991 RMK AO2 SLP131 T00440006=
201004111253 METAR KCLM 111253Z AUTO 23007KT 10SM BKN085 04/01 A2991 RMK AO2 SLP129 T00440006=
201004111153 METAR KCLM 111153Z AUTO 24008KT 10SM SCT095 BKN120 04/00 A2990 RMK AO2 SLP127 T00440000 10044 20039 53000=
201004111053 METAR KCLM 111053Z AUTO 23004KT 10SM CLR 04/00 A2990 RMK AO2 SLP125 T00390000=
201004110953 METAR KCLM 110953Z AUTO 23008KT 10SM CLR 04/00 A2990 RMK AO2 SLP127 T00390000=
201004110853 METAR KCLM 110853Z AUTO 23007KT 10SM CLR 04/00 A2990 RMK AO2 SLP127 T00440000 56007=
201004110753 METAR KCLM 110753Z AUTO 24006KT 10SM CLR 04/00 A2990 RMK AO2 SLP128 T00440000 401001022=
201004110653 METAR KCLM 110653Z AUTO 24007KT 10SM CLR 04/00 A2991 RMK AO2 SLP130 T00440000=
201004110553 METAR KCLM 110553Z AUTO 23007KT 10SM CLR 04/00 A2992 RMK AO2 SLP134 T00390000 10100 20028 50002=
201004110453 METAR KCLM 110453Z AUTO 23006KT 10SM CLR 03/00 A2992 RMK AO2 SLP134 T00330000=
201004110353 METAR KCLM 110353Z AUTO 00000KT 10SM CLR 05/01 A2992 RMK AO2 SLP134 T00500006=
201004110253 METAR KCLM 110253Z AUTO 00000KT 10SM CLR 07/00 A2992 RMK AO2 SLP132 T00720000 56011=
201004110153 METAR KCLM 110153Z AUTO 11007KT 10SM CLR 09/M01 A2992 RMK AO2 SLP134 T00891006=
201004110053 METAR KCLM 110053Z AUTO 10009KT 10SM CLR 10/M01 A2993 RMK AO2 SLP137 T01001006=
201004102353 METAR KCLM 102353Z AUTO 11006KT 10SM CLR 10/00 A2995 RMK AO2 SLP143 T01000000 10100 20061 58025=
201004102253 METAR KCLM 102253Z AUTO 09008KT 060V120 10SM CLR 10/01 A2997 RMK AO2 SLP152 T01000006=
201004102153 METAR KCLM 102153Z AUTO 09008KT 10SM CLR 09/M02 A3000 RMK AO2 SLP161 T00941017=
201004102053 METAR KCLM 102053Z AUTO 11007G15KT 10SM CLR 08/M03 A3002 RMK AO2 SLP168 T00831028 58019=
201004101953 METAR KCLM 101953Z AUTO 07007KT 10SM CLR 08/M03 A3005 RMK AO2 SLP179 T00781028=
201004101853 METAR KCLM 101853Z AUTO 12009KT 10SM CLR 07/M01 A3007 RMK AO2 SLP183 T00721011=
201004101753 METAR KCLM 101753Z AUTO VRB06KT 10SM FEW031 07/M02 A3008 RMK AO2 SLP187 T00671022 10067 21022 58016=
201004101653 METAR KCLM 101653Z AUTO 08006KT 10SM CLR 06/M01 A3010 RMK AO2 SLP194 T00611011=
201004101553 METAR KCLM 101553Z AUTO 09006KT 10SM CLR 05/M01 A3011 RMK AO2 SLP199 T00501006=
201004101453 METAR KCLM 101453Z AUTO 13004KT 10SM CLR 01/M01 A3012 RMK AO2 SLP204 T00111006 57004=
201004101353 METAR KCLM 101353Z AUTO 00000KT 10SM SCT021 M01/M02 A3013 RMK AO2 SLP206 T10061017=
201004101253 METAR KCLM 101253Z AUTO 00000KT 10SM BKN019 01/M02 A3014 RMK AO2 SLP207 T00061017=
201004101230 SPECI KCLM 101230Z AUTO 22005KT 10SM BKN017 M01/M02 A3014 RMK AO2=
201004101230 SPECI KCLM 101230Z AUTO 22005KT 10SM BKN017 M01/M02 A3014 RMK AO2=
201004101153 METAR KCLM 101153Z AUTO 22003KT 10SM CLR M01/M02 A3014 RMK AO2 SLP210 T10111022 10017 21022 56016=
201004101053 METAR KCLM 101053Z AUTO 22004KT 10SM CLR M01/M03 A3016 RMK AO2 SLP215 T10111028=
201004100953 METAR KCLM 100953Z AUTO 23005KT 10SM CLR 00/M02 A3018 RMK AO2 SLP221 T00001022=
201004100853 METAR KCLM 100853Z AUTO 23005KT 10SM CLR 00/M02 A3019 RMK AO2 SLP226 T00001022 58011=
201004100753 METAR KCLM 100753Z AUTO 23005KT 10SM CLR M01/M02 A3021 RMK AO2 SLP232 T10061022 400831006=
201004100653 METAR KCLM 100653Z AUTO 23006KT 10SM CLR 01/M02 A3022 RMK AO2 SLP236 T00061017=
201004100553 METAR KCLM 100553Z AUTO 22005KT 10SM CLR 02/M02 A3023 RMK AO2 SLP237 T00171017 10083 20011 58000=
201004100453 METAR KCLM 100453Z AUTO 22005KT 10SM CLR 02/M02 A3023 RMK AO2 SLP240 T00171022=
201004100353 METAR KCLM 100353Z AUTO 22003KT 10SM CLR 02/M01 A3023 RMK AO2 SLP241 T00221011=
201004100253 METAR KCLM 100253Z AUTO 29003KT 10SM CLR 06/M03 A3023 RMK AO2 SLP238 T00561028 55008=
201004100153 METAR KCLM 100153Z AUTO 32005KT 10SM FEW065 07/M03 A3023 RMK AO2 SLP238 T00721028=
201004100053 METAR KCLM 100053Z AUTO 31008KT 10SM CLR 07/M04 A3024 RMK AO2 SLP241 T00721039=
201004092353 METAR KCLM 092353Z AUTO 32007KT 300V360 10SM FEW100 08/M03 A3025 RMK AO2 SLP246 T00831033 10083 20056 58008=
201004092253 METAR KCLM 092253Z AUTO 33010KT 10SM FEW100 08/M02 A3027 RMK AO2 SLP251 T00781017=
201004092153 METAR KCLM 092153Z AUTO 32010G16KT 10SM CLR 07/M03 A3028 RMK AO2 SLP254 T00721028=
201004092053 METAR KCLM 092053Z AUTO 33011G17KT 310V010 10SM CLR 07/M02 A3028 RMK AO2 SLP254 T00721022 58001=
201004091953 METAR KCLM 091953Z AUTO 32013G18KT 10SM FEW046 SCT060 07/M01 A3028 RMK AO2 SLP256 T00721006=
201004091853 METAR KCLM 091853Z AUTO 31009KT 10SM FEW044 SCT050 BKN065 06/01 A3029 RMK AO2 SLP258 T00610006=
201004091753 METAR KCLM 091753Z AUTO 32007KT 10SM BKN041 BKN048 OVC060 06/01 A3028 RMK AO2 SLP255 60000 T00610006 10067 20017 51006=
201004091653 METAR KCLM 091653Z AUTO 24006KT 10SM FEW050 06/M01 A3028 RMK AO2 SLP254 T00561006=
201004091553 METAR KCLM 091553Z AUTO 27007KT 10SM FEW050 SCT060 SCT075 04/M01 A3028 RMK AO2 SLP254 T00441006=
201004091453 METAR KCLM 091453Z AUTO 25009KT 10SM BKN065 03/M01 A3026 RMK AO2 SLP251 60000 T00281011 53006 $=
201004091353 METAR KCLM 091353Z AUTO 26006KT 10SM BKN050 02/M01 A3025 RMK AO2 SLP246 T00221011 $=
201004091253 METAR KCLM 091253Z AUTO 24007KT 10SM CLR 02/M01 A3025 RMK AO2 RAE1158 SLP246 P0000 T00221006 $=
201004091153 METAR KCLM 091153Z AUTO 29009G17KT 10SM -RA BKN060 03/M02 A3025 RMK AO2 RAB48 SLP244 P0000 60000 70003 T00281022 10044 20022 52009 $=
201004091053 METAR KCLM 091053Z AUTO 24007KT 10SM BKN065 02/01 A3023 RMK AO2 RAB00E10 SLP241 P0000 T00220006 $=
201004090953 METAR KCLM 090953Z AUTO 24008G18KT 10SM FEW027 BKN036 OVC070 03/01 A3023 RMK AO2 RAB23E50 SLP238 P0000 T00330006 $=
201004090853 METAR KCLM 090853Z AUTO 25008KT 10SM FEW043 OVC055 03/01 A3022 RMK AO2 RAE10 SLP235 P0000 60000 T00330006 50000 $=
201004090753 METAR KCLM 090753Z AUTO 25005KT 10SM -RA BKN033 BKN044 OVC055 03/01 A3024 RMK AO2 RAB31 SLP240 P0000 T00330011 400940022 $=
201004090653 METAR KCLM 090653Z AUTO 24010G19KT 10SM FEW036 BKN045 OVC090 03/01 A3021 RMK AO2 RAB01E21 SLP234 P0000 T00330006 $=
201004090553 METAR KCLM 090553Z AUTO 25007KT 10SM BKN050 OVC090 04/00 A3022 RMK AO2 SLP235 60000 T00390000 10078 20028 55001 $=
201004090453 METAR KCLM 090453Z AUTO 28007KT 10SM BKN100 OVC110 03/01 A3021 RMK AO2 RAB03E20 SLP232 P0000 T00330006 $=
201004090353 METAR KCLM 090353Z AUTO 28009KT 10SM BKN060 BKN075 03/M01 A3021 RMK AO2 RAE03 SLP234 P0000 T00331006 $=
201004090253 METAR KCLM 090253Z AUTO 24012G20KT 10SM -RA FEW037 BKN050 OVC070 04/00 A3022 RMK AO2 RAB44 SLP236 P0000 60000 T00390000 53001 $=
201004090153 METAR KCLM 090153Z AUTO 25009KT 10SM FEW060 05/00 A3021 RMK AO2 SLP233 T00500000 $=
201004090053 METAR KCLM 090053Z AUTO 25016G21KT 10SM CLR 07/M01 A3022 RMK AO2 SLP234 T00671006 $=
201004082353 METAR KCLM 082353Z AUTO 26012G20KT 10SM CLR 07/00 A3022 RMK AO2 SLP235 60002 T00720000 10094 20028 50007 $=
201004082253 METAR KCLM 082253Z AUTO 23010G17KT 10SM SCT014 04/02 A3024 RMK AO2 PK WND 28033/2227 RAB28E50 SLP243 P0002 T00440017 $=
201004082245 SPECI KCLM 082245Z AUTO 23012G22KT 8SM -RA FEW008 BKN014 BKN050 03/01 A3025 RMK AO2 PK WND 28033/2227 RAB28 P0002 $=
201004082245 SPECI KCLM 082245Z AUTO 23012G22KT 8SM -RA FEW008 BKN014 BKN050 03/01 A3025 RMK AO2 PK WND 28033/2227 RAB28 P0002 $=
201004082235 SPECI KCLM 082235Z AUTO 24015G33KT 3SM RA BR BKN014 OVC055 03/01 A3026 RMK AO2 PK WND 28033/2227 RAB28 P0002 $=
201004082235 SPECI KCLM 082235Z AUTO 24015G33KT 3SM RA BR BKN014 OVC055 03/01 A3026 RMK AO2 PK WND 28033/2227 RAB28 P0002 $=
201004082153 METAR KCLM 082153Z AUTO 26019G28KT 10SM FEW050 09/M04 A3022 RMK AO2 PK WND 26032/2106 SLP235 T00891039 $=
201004082053 METAR KCLM 082053Z AUTO 28016G27KT 10SM FEW047 09/M02 A3020 RMK AO2 PK WND 26028/2004 SLP228 60000 T00891017 51025 $=
201004081953 METAR KCLM 081953Z AUTO 26019G27KT 10SM SCT049 08/M02 A3018 RMK AO2 PK WND 26034/1912 SLP223 T00831022 $=
201004081853 METAR KCLM 081853Z AUTO 27019G26KT 10SM FEW100 07/M02 A3017 RMK AO2 PK WND 27030/1806 RAE17 SLP217 P0000 T00721017=
201004081753 METAR KCLM 081753Z AUTO 28018G29KT 10SM -RA SCT050 06/M02 A3012 RMK AO2 PK WND 26034/1737 RAB50 SLP203 P0000 60001 T00611017 10072 20022 53030=
201004081653 METAR KCLM 081653Z AUTO 27019G29KT 10SM CLR 06/M02 A3009 RMK AO2 SLP191 P0001 T00611022 $=
201004081553 METAR KCLM 081553Z AUTO 28021G30KT 10SM SCT038 06/M02 A3006 RMK AO2 PK WND 28030/1551 RAE1456 SLP181 P0000 T00561017 $=
201004081453 METAR KCLM 081453Z AUTO 26017G23KT 10SM -RA FEW016 SCT021 03/M02 A3003 RMK AO2 PK WND 28030/1427 RAB1355E06B29UPB1359E05SNE1355 SLP172 P0000 60000 T00331017 51033=
201004081353 METAR KCLM 081353Z AUTO 28011G29KT 7SM -SN SCT022 BKN032 BKN047 03/M01 A3002 RMK AO2 PK WND 26030/1338 SNB43 PRESRR SLP168 P0000 T00281006=
201004081253 METAR KCLM 081253Z AUTO 26016G23KT 10SM FEW055 03/M02 A2997 RMK AO2 PK WND 25034/1157 RAE03 SLP149 P0000 T00331017=
201004081153 METAR KCLM 081153Z AUTO 27026G35KT 9SM -RA BKN038 04/M01 A2994 RMK AO2 PK WND 26035/1149 RAB48 PRESRR SLP139 P0000 60017 70017 T00441006 10067 20039 53034=
201004081053 METAR KCLM 081053Z AUTO 27017G27KT 10SM FEW025 04/00 A2987 RMK AO2 PK WND 26090/1019 RAB42E52 SLP118 P0000 T00440000=
201004080953 METAR KCLM 080953Z AUTO 26017G30KT 10SM BKN055 OVC100 04/00 A2984 RMK AO2 PK WND 26030/0950 RAE40 SLP107 P0001 T00440000=
201004080940 SPECI KCLM 080940Z AUTO 26019G30KT 10SM BKN045 OVC055 04/01 A2984 RMK AO2 PK WND 25030/0934 RAE40 P0001=
201004080940 SPECI KCLM 080940Z AUTO 26019G30KT 10SM BKN045 OVC055 04/01 A2984 RMK AO2 PK WND 25030/0934 RAE40 P0001=
201004080853 METAR KCLM 080853Z AUTO 26016G22KT 8SM -RA OVC021 04/02 A2983 RMK AO2 SLP104 P0005 60016 T00390017 53013=
201004080753 METAR KCLM 080753Z AUTO 27015G20KT 7SM -RA OVC021 04/03 A2981 RMK AO2 PK WND 28034/0714 SLP097 P0010 T00440028 401000022=
201004080730 SPECI KCLM 080730Z AUTO 30016G27KT 6SM RA BR SCT005 SCT011 OVC019 04/03 A2980 RMK AO2 PK WND 28034/0714 P0007=
201004080730 SPECI KCLM 080730Z AUTO 30016G27KT 6SM RA BR SCT005 SCT011 OVC019 04/03 A2980 RMK AO2 PK WND 28034/0714 P0007=
201004080653 METAR KCLM 080653Z AUTO 29007KT 6SM -RA BR OVC005 07/06 A2978 RMK AO2 SLP084 P0001 T00670056=
201004080634 SPECI KCLM 080634Z AUTO 26003KT 6SM -RA BR BKN007 BKN015 OVC030 06/06 A2977 RMK AO2 P0000=
201004080634 SPECI KCLM 080634Z AUTO 26003KT 6SM -RA BR BKN007 BKN015 OVC030 06/06 A2977 RMK AO2 P0000=
201004080626 SPECI KCLM 080626Z AUTO 00000KT 5SM -RA BR FEW007 SCT015 OVC030 06/06 A2978 RMK AO2 P0000=
201004080626 SPECI KCLM 080626Z AUTO 00000KT 5SM -RA BR FEW007 SCT015 OVC030 06/06 A2978 RMK AO2 P0000=
201004080616 SPECI KCLM 080616Z AUTO 00000KT 6SM -RA BR SCT007 BKN015 OVC028 06/06 A2979 RMK AO2 P0000=
201004080616 SPECI KCLM 080616Z AUTO 00000KT 6SM -RA BR SCT007 BKN015 OVC028 06/06 A2979 RMK AO2 P0000=
201004080553 METAR KCLM 080553Z AUTO 29003KT 8SM -RA SCT007 BKN032 OVC050 07/06 A2979 RMK AO2 SLP091 P0000 60000 T00670056 10089 20061 56019=
201004080551 SPECI KCLM 080551Z AUTO 29003KT 8SM -RA SCT007 BKN034 OVC050 07/06 A2980 RMK AO2 P0000=
201004080551 SPECI KCLM 080551Z AUTO 29003KT 8SM -RA SCT007 BKN034 OVC050 07/06 A2980 RMK AO2 P0000=
201004080453 METAR KCLM 080453Z AUTO 26004KT 10SM -RA BKN038 OVC055 07/06 A2983 RMK AO2 RAB02 SLP101 P0000 T00670056=
201004080353 METAR KCLM 080353Z AUTO 00000KT 10SM BKN060 OVC090 07/05 A2985 RMK AO2 SLP110 T00670050=
201004080253 METAR KCLM 080253Z AUTO 00000KT 10SM OVC043 08/05 A2988 RMK AO2 RAE52 PRESFR SLP120 P0000 60000 T00780050 56052=
201004080153 METAR KCLM 080153Z AUTO 00000KT 10SM -RA BKN043 BKN050 BKN060 08/04 A2993 RMK AO2 RAE17B48 SLP137 P0000 T00830044=
201004080053 METAR KCLM 080053Z AUTO 00000KT 10SM -RA FEW027 BKN036 BKN050 09/04 A2998 RMK AO2 RAE11B44 SLP155 P0000 T00890044=
201004080019 SPECI KCLM 080019Z AUTO 00000KT 10SM SCT028 SCT043 09/04 A3001 RMK AO2 RAE11 P0000=
201004080019 SPECI KCLM 080019Z AUTO 00000KT 10SM SCT028 SCT043 09/04 A3001 RMK AO2 RAE11 P0000=
201004072353 METAR KCLM 072353Z AUTO 00000KT 10SM -RA BKN028 OVC039 09/04 A3003 RMK AO2 RAB02 SLP172 P0000 60000 T00890039 10100 20078 56022=
201004072351 SPECI KCLM 072351Z AUTO 00000KT 10SM -RA BKN028 OVC039 09/04 A3004 RMK AO2 RAB02 P0000=
201004072351 SPECI KCLM 072351Z AUTO 00000KT 10SM -RA BKN028 OVC039 09/04 A3004 RMK AO2 RAB02 P0000=
201004072253 METAR KCLM 072253Z AUTO 35003KT 10SM BKN037 BKN050 BKN065 08/04 A3007 RMK AO2 RAB07E19 SLP183 P0000 T00830044=
201004072153 METAR KCLM 072153Z AUTO 00000KT 10SM BKN055 BKN070 08/04 A3010 RMK AO2 SLP195 T00780044=
201004072053 METAR KCLM 072053Z AUTO 02003KT 10SM BKN095 09/05 A3013 RMK AO2 SLP203 T00890050 57033=
201004071953 METAR KCLM 071953Z AUTO 06006KT 10SM SCT060 SCT100 09/03 A3016 RMK AO2 SLP213 T00940033=
201004071853 METAR KCLM 071853Z AUTO 11005KT 10SM BKN065 10/04 A3019 RMK AO2 SLP224 T01000039=
201004071753 METAR KCLM 071753Z AUTO 08006KT 10SM OVC065 09/04 A3022 RMK AO2 SLP235 T00890039 10089 20022 56013=
201004071653 METAR KCLM 071653Z AUTO 09004KT 10SM OVC065 08/04 A3023 RMK AO2 SLP239 T00780044=
201004071553 METAR KCLM 071553Z AUTO 00000KT 10SM OVC060 07/03 A3025 RMK AO2 SLP245 T00720033=
201004071453 METAR KCLM 071453Z AUTO 00000KT 10SM OVC070 05/03 A3026 RMK AO2 SLP249 T00500033 58015=
201004071353 METAR KCLM 071353Z AUTO 23005KT 10SM SCT075 BKN100 OVC120 03/03 A3027 RMK AO2 SLP253 T00330028=
201004071253 METAR KCLM 071253Z AUTO 00000KT 10SM FEW028 03/02 A3029 RMK AO2 SLP261 T00280017=
201004071153 METAR KCLM 071153Z AUTO 00000KT 10SM FEW018 SCT080 BKN120 03/02 A3031 RMK AO2 SLP264 70002 T00330022 10078 20033 58011=
201004071053 METAR KCLM 071053Z AUTO 00000KT 10SM BKN065 OVC080 06/03 A3032 RMK AO2 SLP270 T00560033=
201004070953 METAR KCLM 070953Z AUTO 00000KT 10SM FEW026 OVC060 06/04 A3033 RMK AO2 SLP273 T00610039=
201004070946 SPECI KCLM 070946Z AUTO 12003KT 10SM SCT026 OVC060 06/04 A3033 RMK AO2=
201004070946 SPECI KCLM 070946Z AUTO 12003KT 10SM SCT026 OVC060 06/04 A3033 RMK AO2=
201004070900 SPECI KCLM 070900Z AUTO 13005KT 10SM BKN024 OVC060 07/03 A3034 RMK AO2=
201004070900 SPECI KCLM 070900Z AUTO 13005KT 10SM BKN024 OVC060 07/03 A3034 RMK AO2=
201004070853 METAR KCLM 070853Z AUTO 12005KT 10SM SCT024 OVC060 07/03 A3034 RMK AO2 SLP275 T00670033 56003=
201004070846 SPECI KCLM 070846Z AUTO 11005KT 10SM BKN024 OVC060 07/03 A3034 RMK AO2=
201004070846 SPECI KCLM 070846Z AUTO 11005KT 10SM BKN024 OVC060 07/03 A3034 RMK AO2=
201004070753 METAR KCLM 070753Z AUTO 13006KT 10SM BKN065 OVC080 07/03 A3034 RMK AO2 SLP276 T00670033 401060022=
201004070653 METAR KCLM 070653Z AUTO 11007KT 10SM FEW031 SCT075 OVC095 07/03 A3034 RMK AO2 SLP275 T00670033=
201004070642 SPECI KCLM 070642Z AUTO 11008KT 10SM SCT031 SCT065 OVC085 07/03 A3034 RMK AO2=
201004070642 SPECI KCLM 070642Z AUTO 11008KT 10SM SCT031 SCT065 OVC085 07/03 A3034 RMK AO2=
201004070601 SPECI KCLM 070601Z AUTO 00000KT 10SM FEW021 BKN025 OVC044 07/03 A3035 RMK AO2=
201004070601 SPECI KCLM 070601Z AUTO 00000KT 10SM FEW021 BKN025 OVC044 07/03 A3035 RMK AO2=
201004070553 METAR KCLM 070553Z AUTO 00000KT 10SM SCT021 SCT025 OVC046 08/02 A3035 RMK AO2 SLP277 T00780022 10106 20067 51015=
201004070453 METAR KCLM 070453Z AUTO 24003KT 10SM FEW075 SCT085 BKN110 07/01 A3033 RMK AO2 SLP274 T00720006=
201004070353 METAR KCLM 070353Z AUTO 28004KT 10SM FEW060 BKN080 OVC120 07/01 A3032 RMK AO2 SLP270 T00720006=
201004070253 METAR KCLM 070253Z AUTO 31004KT 10SM OVC100 08/00 A3030 RMK AO2 SLP263 T00830000 51014=
201004070153 METAR KCLM 070153Z AUTO 30008KT 10SM BKN110 09/01 A3029 RMK AO2 SLP260 T00890006=
201004070053 METAR KCLM 070053Z AUTO 32009KT 10SM FEW110 10/02 A3028 RMK AO2 SLP254 T01000017=
201004062353 METAR KCLM 062353Z AUTO 30010G16KT 10SM BKN110 10/02 A3026 RMK AO2 SLP250 60002 T01000017 10106 20072 51010=
201004062253 METAR KCLM 062253Z AUTO 30015G20KT 10SM SCT070 10/03 A3026 RMK AO2 SLP248 T01000028=
201004062153 METAR KCLM 062153Z AUTO 31009KT 10SM BKN046 BKN060 BKN075 09/03 A3025 RMK AO2 SLP244 T00940028=
201004062053 METAR KCLM 062053Z AUTO 27009G18KT 10SM BKN047 OVC080 09/01 A3023 RMK AO2 PK WND 29026/2032 SLP239 60002 T00890006 51026=
201004061953 METAR KCLM 061953Z AUTO VRB05KT 10SM BKN050 BKN060 OVC080 09/06 A3021 RMK AO2 RAB08E28 SLP231 P0002 T00890056=
201004061853 METAR KCLM 061853Z AUTO 00000KT 10SM SCT044 BKN055 BKN080 08/05 A3018 RMK AO2 RAB11E45 SLP222 P0000 T00830050=
201004061753 METAR KCLM 061753Z AUTO 22005KT 10SM SCT042 BKN049 OVC055 09/04 A3015 RMK AO2 SLP213 60000 T00890039 10094 20028 53032=
201004061653 METAR KCLM 061653Z AUTO 11004KT 10SM OVC050 08/03 A3012 RMK AO2 SLP200 T00830028=
201004061553 METAR KCLM 061553Z AUTO 00000KT 10SM FEW026 OVC055 07/04 A3008 RMK AO2 RAB19E44 SLP189 P0000 T00670039=
201004061453 METAR KCLM 061453Z AUTO 22003KT 10SM FEW055 OVC075 04/03 A3006 RMK AO2 SLP181 T00440028 53034=
201004061353 METAR KCLM 061353Z AUTO 23004KT 10SM SCT060 BKN080 OVC090 03/02 A3002 RMK AO2 SLP169 T00330022=
201004061253 METAR KCLM 061253Z AUTO 00000KT 10SM SCT075 OVC095 03/02 A2998 RMK AO2 SLP155 T00280017=
201004061153 METAR KCLM 061153Z AUTO 22008KT 10SM SCT070 BKN085 04/02 A2996 RMK AO2 SLP146 60002 70002 T00390017 10050 20022 53029=
201004061053 METAR KCLM 061053Z AUTO 25004KT 10SM CLR 03/02 A2992 RMK AO2 SLP135 T00330017=
201004060953 METAR KCLM 060953Z AUTO 26005KT 10SM FEW045 BKN055 03/02 A2990 RMK AO2 SLP127 T00330022=
201004060853 METAR KCLM 060853Z AUTO 30004KT 10SM OVC055 04/03 A2987 RMK AO2 SLP117 60002 T00390028 53019=
201004060753 METAR KCLM 060753Z AUTO 26005KT 10SM BKN090 BKN110 04/02 A2984 RMK AO2 RAE30 SLP108 P0000 T00390022 401000028=
201004060708 SPECI KCLM 060708Z AUTO 27005KT 10SM -RA FEW029 BKN038 OVC090 04/03 A2982 RMK AO2 P0000=
201004060708 SPECI KCLM 060708Z AUTO 27005KT 10SM -RA FEW029 BKN038 OVC090 04/03 A2982 RMK AO2 P0000=
201004060653 METAR KCLM 060653Z AUTO 29006KT 6SM -RA BR BKN026 OVC045 04/03 A2982 RMK AO2 SLP098 P0002 T00440028=
201004060624 SPECI KCLM 060624Z AUTO 28006KT 9SM -RA BKN030 OVC034 05/03 A2980 RMK AO2 P0001=
201004060624 SPECI KCLM 060624Z AUTO 28006KT 9SM -RA BKN030 OVC034 05/03 A2980 RMK AO2 P0001=
201004060553 METAR KCLM 060553Z AUTO 28007KT 10SM -RA OVC026 05/03 A2979 RMK AO2 SLP089 P0000 60000 T00500033 10089 20050 51032=
201004060503 SPECI KCLM 060503Z AUTO 28007KT 8SM -RA OVC029 06/04 A2976 RMK AO2 P0000=
201004060503 SPECI KCLM 060503Z AUTO 28007KT 8SM -RA OVC029 06/04 A2976 RMK AO2 P0000=
201004060453 METAR KCLM 060453Z AUTO 28007KT 8SM -RA SCT024 OVC032 06/04 A2976 RMK AO2 SLP080 P0000 T00560039=
201004060353 METAR KCLM 060353Z AUTO 28008KT 10SM -RA OVC034 06/04 A2973 RMK AO2 RAE0259B46 SLP068 P0000 T00610039=
201004060339 SPECI KCLM 060339Z AUTO 28007KT 10SM SCT012 OVC034 06/04 A2972 RMK AO2 RAE0259 P0000=
201004060339 SPECI KCLM 060339Z AUTO 28007KT 10SM SCT012 OVC034 06/04 A2972 RMK AO2 RAE0259 P0000=
201004060316 SPECI KCLM 060316Z AUTO 28007KT 10SM BKN014 OVC032 06/04 A2970 RMK AO2 RAE0259 P0000=
201004060316 SPECI KCLM 060316Z AUTO 28007KT 10SM BKN014 OVC032 06/04 A2970 RMK AO2 RAE0259 P0000=
201004060309 SPECI KCLM 060309Z AUTO 30005KT 10SM SCT011 BKN016 OVC046 06/04 A2970 RMK AO2 RAE0259 P0000=
201004060309 SPECI KCLM 060309Z AUTO 30005KT 10SM SCT011 BKN016 OVC046 06/04 A2970 RMK AO2 RAE0259 P0000=
201004060253 METAR KCLM 060253Z AUTO 30007KT 10SM -RA SCT014 BKN044 OVC080 06/04 A2969 RMK AO2 RAB45 SLP057 P0000 60000 T00610039 53021=
201004060153 METAR KCLM 060153Z AUTO 31009KT 10SM FEW060 OVC070 07/04 A2967 RMK AO2 SLP048 T00720039=
201004060053 METAR KCLM 060053Z AUTO 26011KT 10SM FEW070 BKN090 BKN110 08/02 A2964 RMK AO2 SLP040 T00830017=
201004052353 METAR KCLM 052353Z AUTO 26012KT 10SM SCT070 SCT080 09/02 A2963 RMK AO2 SLP036 60000 T00890017 10100 20078 55000=
201004052253 METAR KCLM 052253Z AUTO 25007KT 10SM SCT044 10/00 A2963 RMK AO2 SLP035 T01000000=
201004052153 METAR KCLM 052153Z AUTO 00000KT 10SM FEW090 10/M01 A2963 RMK AO2 RAE06 SLP035 P0000 T01001006=
201004052053 METAR KCLM 052053Z AUTO 00000KT 10SM -RA BKN032 BKN085 09/03 A2963 RMK AO2 RAE1955B25 SLP036 P0000 60000 T00940033 51008=
201004051953 METAR KCLM 051953Z AUTO 00000KT 10SM -RA FEW038 SCT050 09/03 A2963 RMK AO2 RAB37 SLP035 P0000 T00890033=
201004051853 METAR KCLM 051853Z AUTO VRB03KT 10SM FEW080 08/03 A2962 RMK AO2 SLP030 T00830028=
201004051753 METAR KCLM 051753Z AUTO VRB04KT 10SM SCT019 BKN075 08/03 A2961 RMK AO2 SLP027 T00830033 10083 20028 53016=
201004051653 METAR KCLM 051653Z AUTO 35005KT 10SM SCT016 08/04 A2959 RMK AO2 SLP020 T00780039=
201004051553 METAR KCLM 051553Z AUTO 25008KT 10SM CLR 05/01 A2958 RMK AO2 SLP017 T00500011=
201004051453 METAR KCLM 051453Z AUTO 26011G14KT 10SM SCT080 04/01 A2956 RMK AO2 SLP012 T00440006 53014=
201004051353 METAR KCLM 051353Z AUTO 25010KT 10SM SCT070 04/01 A2954 RMK AO2 SLP006 T00390006=
201004051253 METAR KCLM 051253Z AUTO 25004KT 10SM CLR 03/01 A2953 RMK AO2 SLP002 T00280006=
201004051153 METAR KCLM 051153Z AUTO 25004KT 10SM CLR 04/01 A2952 RMK AO2 SLP997 T00440011 10056 20039 53002=
201004051053 METAR KCLM 051053Z AUTO 27010KT 10SM FEW095 05/01 A2952 RMK AO2 SLP996 T00500011=
201004050953 METAR KCLM 050953Z AUTO 25007KT 10SM CLR 04/02 A2951 RMK AO2 SLP994 T00440017=
201004050853 METAR KCLM 050853Z AUTO 22003KT 10SM SCT120 05/03 A2951 RMK AO2 SLP995 T00500028 53006=
201004050753 METAR KCLM 050753Z AUTO 17003KT 10SM BKN120 05/03 A2950 RMK AO2 SLP991 T00500033 401281006=
201004050653 METAR KCLM 050653Z AUTO 00000KT 10SM OVC120 04/03 A2950 RMK AO2 SLP991 T00440028=
201004050553 METAR KCLM 050553Z AUTO 00000KT 10SM BKN120 05/03 A2950 RMK AO2 SLP990 T00500033 10106 20050 51018=
201004050453 METAR KCLM 050453Z AUTO 08003KT 10SM BKN110 06/02 A2949 RMK AO2 SLP987 T00560022=
201004050353 METAR KCLM 050353Z AUTO 24005KT 10SM FEW037 BKN080 OVC100 07/03 A2948 RMK AO2 SLP984 T00720028=
201004050253 METAR KCLM 050253Z AUTO 28009KT 10SM FEW038 OVC080 08/02 A2944 RMK AO2 SLP971 T00830022 53016=
201004050153 METAR KCLM 050153Z AUTO 14005KT 10SM BKN080 09/02 A2941 RMK AO2 SLP961 T00940017=
201004050053 METAR KCLM 050053Z AUTO 14009G14KT 10SM FEW080 09/02 A2940 RMK AO2 SLP956 T00940017=
201004042353 METAR KCLM 042353Z AUTO 11012G21KT 10SM FEW080 11/01 A2939 RMK AO2 SLP955 T01060011 10128 20106 58007=
201004042253 METAR KCLM 042253Z AUTO 12011KT 10SM SCT080 12/00 A2941 RMK AO2 PK WND 13027/2210 SLP960 T01170000=
201004042153 METAR KCLM 042153Z AUTO 11015G24KT 10SM FEW075 SCT090 BKN110 13/M01 A2942 RMK AO2 PK WND 10028/2120 SLP963 T01281006=
201004042053 METAR KCLM 042053Z AUTO 09020G28KT 10SM SCT075 12/M01 A2942 RMK AO2 PK WND 10031/2004 SLP963 T01221006 58023=
201004041953 METAR KCLM 041953Z AUTO 10019G26KT 10SM CLR 12/01 A2944 RMK AO2 PK WND 10026/1952 SLP972 T01220011=
201004041853 METAR KCLM 041853Z AUTO 10015G21KT 10SM FEW085 11/01 A2947 RMK AO2 SLP982 T01110011=
201004041753 METAR KCLM 041753Z AUTO 11013KT 10SM SCT080 11/02 A2949 RMK AO2 SLP986 T01060017 10106 21006 56026=
201004041653 METAR KCLM 041653Z AUTO VRB03KT 10SM SCT080 08/02 A2951 RMK AO2 SLP993 T00780022=
201004041553 METAR KCLM 041553Z AUTO 00000KT 10SM FEW075 06/02 A2953 RMK AO2 SLP003 T00560022=
201004041453 METAR KCLM 041453Z AUTO 00000KT 10SM FEW070 02/01 A2956 RMK AO2 SLP013 T00170006 56021=
201004041353 METAR KCLM 041353Z AUTO 22005KT 10SM FEW070 01/M01 A2959 RMK AO2 SLP021 T00061006=
201004041253 METAR KCLM 041253Z AUTO 00000KT 10SM FEW075 00/M01 A2959 RMK AO2 SLP024 T00001011=
201004041153 METAR KCLM 041153Z AUTO 23006KT 10SM SCT070 01/00 A2962 RMK AO2 SLP033 70003 T00110000 10017 21006 56020=
201004041053 METAR KCLM 041053Z AUTO 22003KT 10SM BKN075 01/00 A2964 RMK AO2 SLP037 T00110000=
201004040953 METAR KCLM 040953Z AUTO 22006KT 10SM BKN075 01/00 A2967 RMK AO2 SLP048 T00110000=
201004040853 METAR KCLM 040853Z AUTO 00000KT 10SM FEW070 01/00 A2968 RMK AO2 SLP053 T00060000 56017=
201004040753 METAR KCLM 040753Z AUTO 00000KT 10SM BKN070 01/00 A2970 RMK AO2 SLP059 T00110000 400831006=
201004040653 METAR KCLM 040653Z AUTO 24004KT 10SM CLR 00/M01 A2971 RMK AO2 SLP063 T00001011=
201004040553 METAR KCLM 040553Z AUTO 19003KT 10SM FEW075 01/M01 A2973 RMK AO2 SLP070 T00061006 10067 20006 58007=
201004040453 METAR KCLM 040453Z AUTO 00000KT 10SM FEW070 SCT110 01/00 A2974 RMK AO2 SLP075 T00110000=
201004040353 METAR KCLM 040353Z AUTO 23003KT 10SM BKN080 OVC100 03/01 A2976 RMK AO2 SLP079 T00280011=
201004040253 METAR KCLM 040253Z AUTO 24003KT 10SM SCT065 BKN095 OVC110 05/01 A2975 RMK AO2 SLP077 T00500011 56013=
201004040153 METAR KCLM 040153Z AUTO 19003KT 10SM BKN060 OVC080 06/02 A2977 RMK AO2 SLP082 T00610017=
201004040053 METAR KCLM 040053Z AUTO 13003KT 10SM FEW034 SCT065 OVC080 07/01 A2978 RMK AO2 SLP085 T00670006=
201004040007 SPECI KCLM 040007Z AUTO 12003KT 10SM SCT036 BKN044 OVC090 06/01 A2979 RMK AO2=
201004040007 SPECI KCLM 040007Z AUTO 12003KT 10SM SCT036 BKN044 OVC090 06/01 A2979 RMK AO2=
201004032353 METAR KCLM 032353Z AUTO 10004KT 10SM BKN027 OVC038 06/01 A2979 RMK AO2 RAE2254 SLP090 60000 T00610011 10083 20061 58004=
201004032335 SPECI KCLM 032335Z AUTO 14006KT 10SM BKN027 OVC033 06/02 A2979 RMK AO2 RAE2254=
201004032335 SPECI KCLM 032335Z AUTO 14006KT 10SM BKN027 OVC033 06/02 A2979 RMK AO2 RAE2254=
201004032305 SPECI KCLM 032305Z AUTO 35003KT 10SM FEW021 OVC030 06/02 A2980 RMK AO2 RAE2254=
201004032305 SPECI KCLM 032305Z AUTO 35003KT 10SM FEW021 OVC030 06/02 A2980 RMK AO2 RAE2254=
201004032253 METAR KCLM 032253Z AUTO 00000KT 10SM -RA SCT021 OVC028 07/02 A2980 RMK AO2 RAB2155 SLP093 P0000 T00670017=
201004032238 SPECI KCLM 032238Z AUTO 36005KT 10SM -RA FEW021 BKN026 OVC050 06/01 A2980 RMK AO2 RAB2155 P0000=
201004032238 SPECI KCLM 032238Z AUTO 36005KT 10SM -RA FEW021 BKN026 OVC050 06/01 A2980 RMK AO2 RAB2155 P0000=
201004032223 SPECI KCLM 032223Z AUTO 04003KT 10SM BKN031 OVC040 06/01 A2980 RMK AO2 RAB2155E15 P0000=
201004032223 SPECI KCLM 032223Z AUTO 04003KT 10SM BKN031 OVC040 06/01 A2980 RMK AO2 RAB2155E15 P0000=
201004032203 SPECI KCLM 032203Z AUTO VRB04KT 10SM -RA OVC029 07/01 A2980 RMK AO2 RAB2155 P0000=
201004032203 SPECI KCLM 032203Z AUTO VRB04KT 10SM -RA OVC029 07/01 A2980 RMK AO2 RAB2155 P0000=
201004032153 METAR KCLM 032153Z AUTO 06004KT 10SM BKN031 OVC049 07/02 A2980 RMK AO2 SLP094 T00670017=
201004032053 METAR KCLM 032053Z AUTO VRB06KT 10SM FEW025 BKN090 08/02 A2981 RMK AO2 SLP095 T00780017 53003=
201004031953 METAR KCLM 031953Z AUTO VRB06KT 10SM FEW039 08/02 A2981 RMK AO2 SLP095 T00780017=
201004031853 METAR KCLM 031853Z AUTO 08007KT 10SM CLR 08/02 A2980 RMK AO2 SLP092 T00780017=
201004031753 METAR KCLM 031753Z AUTO 24007KT 10SM BKN060 07/01 A2980 RMK AO2 SLP092 60003 T00670011 10067 20022 53009=
201004031653 METAR KCLM 031653Z AUTO 27007KT 10SM FEW110 06/01 A2978 RMK AO2 SLP086 T00560011=
201004031553 METAR KCLM 031553Z AUTO 25010G14KT 10SM FEW060 SCT110 04/01 A2977 RMK AO2 SLP084 T00390011=
201004031453 METAR KCLM 031453Z AUTO 26006KT 10SM FEW038 SCT060 SCT110 02/01 A2977 RMK AO2 UPE14RAB14E16 SLP084 P0000 60003 T00220011 51025=
201004031353 METAR KCLM 031353Z AUTO 28007KT 10SM UP BKN038 OVC055 02/01 A2975 RMK AO2 UPB39 SLP077 P0000 T00220011=
201004031253 METAR KCLM 031253Z AUTO 25011KT 10SM FEW019 BKN032 BKN050 02/01 A2972 RMK AO2 RAE44 SLP065 P0003 T00220006=
201004031227 SPECI KCLM 031227Z AUTO 25010KT 7SM -RA BKN019 OVC027 03/01 A2972 RMK AO2 P0003=
201004031227 SPECI KCLM 031227Z AUTO 25010KT 7SM -RA BKN019 OVC027 03/01 A2972 RMK AO2 P0003=
201004031153 METAR KCLM 031153Z AUTO 26010KT 10SM -RA FEW033 BKN044 03/01 A2970 RMK AO2 SLP058 P0000 60016 70058 T00280011 10044 20028 53022=
201004031104 SPECI KCLM 031104Z AUTO 24009KT 10SM BKN041 BKN090 03/01 A2967 RMK AO2 RAE1059 P0000=
201004031104 SPECI KCLM 031104Z AUTO 24009KT 10SM BKN041 BKN090 03/01 A2967 RMK AO2 RAE1059 P0000=
201004031053 METAR KCLM 031053Z AUTO 22008KT 10SM -RA BKN029 BKN041 BKN090 03/02 A2967 RMK AO2 RAE01B19 SLP049 P0001 T00330017=
201004031021 SPECI KCLM 031021Z AUTO 29008KT 10SM -RA SCT021 BKN027 OVC075 04/02 A2967 RMK AO2 RAE01B19 P0000=
201004031021 SPECI KCLM 031021Z AUTO 29008KT 10SM -RA SCT021 BKN027 OVC075 04/02 A2967 RMK AO2 RAE01B19 P0000=
201004030953 METAR KCLM 030953Z AUTO 25009KT 8SM -RA BKN034 BKN049 OVC100 04/02 A2965 RMK AO2 RAB17 SLP043 P0003 T00390017=
201004030928 SPECI KCLM 030928Z AUTO 25010KT 6SM -RA BKN022 BKN030 OVC046 04/02 A2965 RMK AO2 RAB17 P0002=
201004030928 SPECI KCLM 030928Z AUTO 25010KT 6SM -RA BKN022 BKN030 OVC046 04/02 A2965 RMK AO2 RAB17 P0002=
201004030853 METAR KCLM 030853Z AUTO 23008KT 10SM SCT037 BKN050 BKN065 04/02 A2963 RMK AO2 RAB02E43 SLP035 P0000 60012 T00390017 51040=
201004030753 METAR KCLM 030753Z AUTO 23009KT 10SM SCT032 BKN042 BKN060 04/02 A2959 RMK AO2 RAE53 SLP021 P0004 T00390017 401110028=
201004030653 METAR KCLM 030653Z AUTO 22007KT 5SM RA BR OVC021 04/02 A2956 RMK AO2 SLP010 P0008 T00390022=
201004030604 SPECI KCLM 030604Z AUTO 26010G15KT 9SM -RA BKN023 BKN039 OVC050 04/02 A2953 RMK AO2 PRESRR P0001=
201004030604 SPECI KCLM 030604Z AUTO 26010G15KT 9SM -RA BKN023 BKN039 OVC050 04/02 A2953 RMK AO2 PRESRR P0001=
201004030553 METAR KCLM 030553Z AUTO 21008KT 10SM -RA SCT027 BKN039 OVC055 04/02 A2951 RMK AO2 SLP994 P0002 60026 T00440022 10072 20039 51044=
201004030524 SPECI KCLM 030524Z AUTO 26007KT 10SM -RA SCT025 SCT050 OVC090 04/02 A2950 RMK AO2 P0002=
201004030524 SPECI KCLM 030524Z AUTO 26007KT 10SM -RA SCT025 SCT050 OVC090 04/02 A2950 RMK AO2 P0002=
201004030453 METAR KCLM 030453Z AUTO 21007KT 5SM RA BR BKN019 OVC028 04/02 A2948 RMK AO2 SLP983 P0005 T00440022=
201004030446 SPECI KCLM 030446Z AUTO 22008KT 6SM RA BR BKN021 BKN028 OVC037 04/02 A2947 RMK AO2 P0003=
201004030446 SPECI KCLM 030446Z AUTO 22008KT 6SM RA BR BKN021 BKN028 OVC037 04/02 A2947 RMK AO2 P0003=
201004030353 METAR KCLM 030353Z AUTO 26006KT 10SM -RA SCT028 BKN040 OVC055 04/02 A2943 RMK AO2 PRESRR SLP967 P0007 T00440022=
201004030253 METAR KCLM 030253Z AUTO 22006KT 7SM -RA OVC022 04/02 A2938 RMK AO2 SLP950 P0011 60012 T00440022 53043=
201004030153 METAR KCLM 030153Z AUTO 27008KT 9SM -RA OVC028 06/03 A2933 RMK AO2 SLP933 P0001 T00610028=
201004030053 METAR KCLM 030053Z AUTO 22011G21KT 10SM -RA OVC028 07/02 A2929 RMK AO2 SLP919 P0000 T00720017=
201004022353 METAR KCLM 022353Z AUTO 21011G18KT 8SM -RA OVC028 07/02 A2925 RMK AO2 SLP906 P0000 60015 T00720022 10111 20067 51033=
201004022316 SPECI KCLM 022316Z AUTO 29007KT 10SM -RA OVC030 07/03 A2924 RMK AO2 P0000=
201004022316 SPECI KCLM 022316Z AUTO 29007KT 10SM -RA OVC030 07/03 A2924 RMK AO2 P0000=
201004022253 METAR KCLM 022253Z AUTO 23008G17KT 190V270 10SM -RA OVC028 07/02 A2922 RMK AO2 SLP896 P0006 T00720022=
201004022153 METAR KCLM 022153Z AUTO 19008G20KT 5SM -RA OVC024 07/03 A2919 RMK AO2 SLP886 P0005 T00720028=
201004022053 METAR KCLM 022053Z AUTO 16008KT 090V190 6SM -RA OVC024 07/03 A2915 RMK AO2 SLP873 P0004 60004 T00670033 53029=
201004022001 SPECI KCLM 022001Z AUTO 19006KT 5SM RA FEW023 OVC028 07/02 A2913 RMK AO2 P0002=
201004022001 SPECI KCLM 022001Z AUTO 19006KT 5SM RA FEW023 OVC028 07/02 A2913 RMK AO2 P0002=
201004021953 METAR KCLM 021953Z AUTO 18005KT 8SM -RA OVC030 08/02 A2912 RMK AO2 SLP861 P0000 T00780017=
201004021853 METAR KCLM 021853Z AUTO VRB06G18KT 10SM -RA SCT044 BKN060 11/00 A2909 RMK AO2 PK WND 16033/1806 WSHFT 1815 RAB53 SLP851 P0000 T01060000=
201004021835 SPECI KCLM 021835Z AUTO 17011G25KT 140V230 10SM BKN060 11/01 A2907 RMK AO2 PK WND 16033/1806 WSHFT 1815=
201004021835 SPECI KCLM 021835Z AUTO 17011G25KT 140V230 10SM BKN060 11/01 A2907 RMK AO2 PK WND 16033/1806 WSHFT 1815=
201004021753 METAR KCLM 021753Z AUTO VRB06G19KT 10SM BKN060 09/01 A2906 RMK AO2 SLP843 60001 T00940011 10094 20033 56064=
201004021653 METAR KCLM 021653Z AUTO 09009KT 10SM OVC060 06/02 A2908 RMK AO2 RAE10 SLP849 P0000 T00560017=
201004021605 SPECI KCLM 021605Z AUTO VRB03KT 10SM -RA SCT030 BKN045 OVC050 04/02 A2913 RMK AO2 P0000=
201004021605 SPECI KCLM 021605Z AUTO VRB03KT 10SM -RA SCT030 BKN045 OVC050 04/02 A2913 RMK AO2 P0000=
201004021553 METAR KCLM 021553Z AUTO 12007KT 10SM -RA BKN028 BKN038 OVC046 04/02 A2915 RMK AO2 SLP871 P0000 T00390017=
201004021453 METAR KCLM 021453Z AUTO 12013G22KT 10SM -RA OVC024 04/02 A2926 RMK AO2 PRESFR SLP908 P0001 60001 T00390017 58047=
201004021353 METAR KCLM 021353Z AUTO 10011KT 10SM -RA OVC028 05/02 A2934 RMK AO2 RAB31 SLP938 P0000 T00500017=
201004021253 METAR KCLM 021253Z AUTO 20004KT 10SM BKN050 OVC060 06/02 A2940 RMK AO2 RAB01E10 PRESFR SLP956 P0000 T00610022=
201004021153 METAR KCLM 021153Z AUTO 09003KT 10SM OVC045 06/04 A2951 RMK AO2 SLP994 T00610039 10083 20022 56042=
201004021053 METAR KCLM 021053Z AUTO 00000KT 10SM OVC100 05/03 A2955 RMK AO2 SLP009 T00500028=
201004020953 METAR KCLM 020953Z AUTO 25007KT 190V290 10SM OVC100 06/02 A2959 RMK AO2 SLP020 T00560022=
201004020853 METAR KCLM 020853Z AUTO 00000KT 10SM BKN075 04/02 A2963 RMK AO2 SLP037 T00390022 58047=
201004020753 METAR KCLM 020753Z AUTO 22003KT 10SM FEW070 03/02 A2968 RMK AO2 SLP053 T00280022 400890017=
201004020653 METAR KCLM 020653Z AUTO 00000KT 10SM CLR 03/02 A2974 RMK AO2 SLP071 T00280022=
201004020553 METAR KCLM 020553Z AUTO 00000KT 10SM BKN060 BKN100 04/03 A2978 RMK AO2 SLP084 60000 T00390028 10072 20033 58026=
201004020453 METAR KCLM 020453Z AUTO 00000KT 10SM SCT110 04/03 A2980 RMK AO2 SLP094 T00390028=
201004020353 METAR KCLM 020353Z AUTO 00000KT 10SM OVC110 04/04 A2984 RMK AO2 SLP107 T00440039=
201004020253 METAR KCLM 020253Z AUTO 00000KT 10SM BKN095 06/03 A2985 RMK AO2 SLP111 60000 T00560028 58020=
201004020153 METAR KCLM 020153Z AUTO 00000KT 10SM FEW055 SCT070 OVC100 07/04 A2988 RMK AO2 RAB0055E02 SLP121 P0000 T00670039=
201004020102 SPECI KCLM 020102Z AUTO 00000KT 10SM FEW023 BKN033 OVC070 07/04 A2991 RMK AO2 RAB0055E02 P0000=
201004020102 SPECI KCLM 020102Z AUTO 00000KT 10SM FEW023 BKN033 OVC070 07/04 A2991 RMK AO2 RAB0055E02 P0000=
201004020053 METAR KCLM 020053Z AUTO 00000KT 10SM BKN023 BKN032 OVC041 07/04 A2991 RMK AO2 RAB05E48 SLP131 P0000 T00670039=
201004020048 SPECI KCLM 020048Z AUTO 00000KT 10SM SCT026 BKN034 OVC045 07/04 A2991 RMK AO2 RAB05E48 P0000=
201004020048 SPECI KCLM 020048Z AUTO 00000KT 10SM SCT026 BKN034 OVC045 07/04 A2991 RMK AO2 RAB05E48 P0000=
201004020025 SPECI KCLM 020025Z AUTO 00000KT 10SM -RA BKN026 BKN033 OVC046 07/03 A2992 RMK AO2 RAB05 P0000=
201004020025 SPECI KCLM 020025Z AUTO 00000KT 10SM -RA BKN026 BKN033 OVC046 07/03 A2992 RMK AO2 RAB05 P0000=
201004012353 METAR KCLM 012353Z AUTO VRB03KT 10SM SCT032 BKN044 OVC060 07/03 A2992 RMK AO2 RAB09E51 SLP135 P0000 60000 T00720033 10089 20067 55005=
201004012253 METAR KCLM 012253Z AUTO 11005KT 10SM FEW070 SCT095 08/03 A2992 RMK AO2 SLP134 T00780033=
201004012153 METAR KCLM 012153Z AUTO 13009KT 10SM SCT039 SCT047 07/04 A2993 RMK AO2 RAB33E47 SLP139 P0000 T00720044=
201004012121 SPECI KCLM 012121Z AUTO 12007KT 10SM SCT015 BKN038 OVC049 07/03 A2994 RMK AO2=
201004012121 SPECI KCLM 012121Z AUTO 12007KT 10SM SCT015 BKN038 OVC049 07/03 A2994 RMK AO2=
201004012053 METAR KCLM 012053Z AUTO VRB03KT 10SM OVC017 08/04 A2994 RMK AO2 RAB1955E41 SLP140 P0000 60000 T00780044 53001=
201004012039 SPECI KCLM 012039Z AUTO 03003KT 10SM -RA BKN017 BKN029 OVC034 07/03 A2994 RMK AO2 RAB1955 P0000=
201004012039 SPECI KCLM 012039Z AUTO 03003KT 10SM -RA BKN017 BKN029 OVC034 07/03 A2994 RMK AO2 RAB1955 P0000=
201004011953 METAR KCLM 011953Z AUTO VRB03KT 10SM FEW032 BKN046 BKN055 07/02 A2993 RMK AO2 SLP138 T00720022=
201004011853 METAR KCLM 011853Z AUTO 08005KT 10SM SCT034 BKN044 07/02 A2994 RMK AO2 SLP139 T00720022=
201004011753 METAR KCLM 011753Z AUTO 04004KT 10SM SCT065 09/03 A2994 RMK AO2 SLP140 T00890033 10089 20017 53005=
201004011653 METAR KCLM 011653Z AUTO 24004KT 10SM FEW065 07/01 A2993 RMK AO2 SLP136 T00670011=
201004011553 METAR KCLM 011553Z AUTO 23005KT 10SM SCT080 06/01 A2992 RMK AO2 SLP135 T00560006=
201004011453 METAR KCLM 011453Z AUTO 24006KT 10SM FEW090 03/00 A2992 RMK AO2 SLP134 T00330000 55000=
201004011353 METAR KCLM 011353Z AUTO 24007KT 10SM CLR 02/00 A2992 RMK AO2 SLP133 T00220000=
201004011253 METAR KCLM 011253Z AUTO 23007KT 10SM FEW040 02/00 A2992 RMK AO2 SLP134 T00170000=
201004011153 METAR KCLM 011153Z AUTO 24006KT 10SM FEW035 02/00 A2992 RMK AO2 SLP134 T00170000 10050 20017 56007=
201004011053 METAR KCLM 011053Z AUTO 23007KT 10SM FEW036 03/01 A2993 RMK AO2 SLP135 T00280006=
201004010953 METAR KCLM 010953Z AUTO 00000KT 10SM BKN038 03/01 A2993 RMK AO2 SLP137 T00330011=
201004010853 METAR KCLM 010853Z AUTO 24007KT 10SM SCT031 BKN055 OVC070 04/02 A2994 RMK AO2 SLP142 T00440017 53005=
201004010753 METAR KCLM 010753Z AUTO 24011KT 10SM CLR 04/02 A2993 RMK AO2 SLP138 T00390017 400940006=
201004010653 METAR KCLM 010653Z AUTO 24006KT 10SM OVC070 04/02 A2992 RMK AO2 SLP134 T00440017=
201004010553 METAR KCLM 010553Z AUTO 24007KT 10SM FEW020 BKN065 04/02 A2993 RMK AO2 SLP137 T00440022 10094 20028 53011=
201004010453 METAR KCLM 010453Z AUTO 24004KT 10SM CLR 03/01 A2991 RMK AO2 SLP131 T00330011=
201004010353 METAR KCLM 010353Z AUTO 23005KT 10SM CLR 04/02 A2991 RMK AO2 SLP129 T00390017=
201004010253 METAR KCLM 010253Z AUTO 25003KT 10SM CLR 06/02 A2990 RMK AO2 SLP126 T00610022 51007=
201004010153 METAR KCLM 010153Z AUTO 29005KT 10SM CLR 07/01 A2990 RMK AO2 SLP126 T00670006=
201004010053 METAR KCLM 010053Z AUTO 02003KT 10SM CLR 09/01 A2989 RMK AO2 SLP122 T00890006=

# No short TAF reports from KCLM in databse.

###################################
#  large TAF from KCLM
###################################
201004302336 TAF KCLM 302336Z 0100/0124 30010G18KT P6SM SCT035 BKN110
                      TEMPO 0100/0102 -RA BKN035 OVC060 FM010200
                       29005KT P6SM -RA OVC035 FM011200 VRB03KT
                       P6SM -SHRA BKN012 OVC025 FM011500 28014G22KT
                       P6SM VCSH BKN025 OVC050=
201004301742 TAF KCLM 301742Z 3018/0118 31015G20KT P6SM SCT035 FM302100 32010KT
                       P6SM SCT060 BKN110 OVC200 FM010400 29005KT
                       P6SM -RA BKN040 FM011200 00000KT P6SM -SHRA
                       OVC025=
201004301120 TAF KCLM 301120Z 3012/0112 26010KT P6SM FEW020 SCT200 FM301800
                       32010KT P6SM SCT110 BKN200 FM302100 32010KT
                       P6SM SCT060 BKN110 OVC200 FM010400 29005KT
                       P6SM -SHRA BKN040
                      TEMPO 0104/0108 -RA=
201004300520 TAF KCLM 300520Z 3006/0106 29008KT P6SM SKC FM301200 28008KT P6SM
                       FEW020 SCT200 FM301800 32010KT P6SM SCT110
                       BKN200 FM302100 32010KT P6SM SCT060 BKN110
                       OVC200 FM010400 29005KT P6SM VCSH BKN040=
201004292325 TAF KCLM 292325Z 3000/3024 29013KT P6SM FEW060 FM300200 27009KT
                       P6SM SKC FM301200 25005KT P6SM FEW022 SCT200
                       FM301800 32008KT P6SM SCT110 BKN200 FM302100
                       32008KT P6SM SCT060 BKN110 OVC200=
201004292048 KCLM 292048Z 2921/3018 31013G22KT P6SM VCSH SCT050 FM300000 28013KT
                       P6SM SCT050 FM300600 25008KT P6SM SKC FM301200
                       25005KT P6SM FEW022=
201004291731 TAF KCLM 291731Z 2918/3018 31013KT P6SM VCSH SCT050
                      TEMPO 2918/2921 BKN050 FM300000 28013KT P6SM
                       SCT050 FM300600 25008KT P6SM SKC FM301200
                       25005KT P6SM FEW022=
201004291120 TAF KCLM 291120Z 2912/3012 27010KT P6SM SCT050 FM291800 31015G25KT
                       P6SM SCT080 FM300300 28010KT P6SM BKN080
                       FM300900 26008KT P6SM BKN080=
201004290520 TAF KCLM 290520Z 2906/3006 27010KT P6SM SCT050 FM291800 31013G20KT
                       P6SM SCT080 FM300300 28010KT P6SM SCT080=
201004282339 TAF KCLM 282339Z 2900/2924 30010KT P6SM VCSH SCT030 BKN060 FM290400
                       25005KT P6SM SCT050 FM291800 32013G20KT
                       P6SM SCT080=
201004282053 KCLM 282053Z 2821/2918 32007KT P6SM SCT030 BKN045
                      TEMPO 2821/2824 -SHRA BKN030 OVC045 FM290400
                       25005KT P6SM SKC=
201004281738 TAF KCLM 281738Z 2818/2918 32007KT P6SM VCSH SCT035 BKN060 FM290400
                       25005KT P6SM SKC=
201004281140 TAF KCLM 281140Z 2812/2912 VRB03KT P6SM BKN060 FM282000 26006KT
                       P6SM VCSH SCT030 OVC050 FM290200 26010KT
                       P6SM BKN060=
201004280538 TAF KCLM 280538Z 2806/2906 VRB03KT P6SM BKN060 FM282000 26006KT
                       P6SM VCSH SCT030 OVC050 FM290300 26010KT
                       P6SM BKN060=
201004272327 TAF KCLM 272327Z 2800/2824 VRB03KT P6SM VCSH BKN040 OVC070 FM280600
                       25005KT P6SM BKN040 FM281000 23003KT P6SM
                       VCSH OVC025 FM281500 26006KT P6SM VCSH SCT030
                       OVC050=
201004271737 TAF KCLM 271737Z 2718/2818 00000KT P6SM VCSH SCT020 BKN060
                      TEMPO 2718/2722 -SHRA BKN020 OVC045 FM272200
                       30008KT P6SM VCSH BKN045 BKN060 FM280600
                       25005KT P6SM BKN040=
201004271157 KCLM 271157Z 2712/2812 29006KT P6SM FEW050 SCT070 BKN100 FM272200
                       30008KT P6SM VCSH BKN045 BKN060 FM280600
                       25005KT P6SM BKN040=
201004271120 TAF KCLM 271120Z 2712/2812 29006KT P6SM FEW050 SCT070 BKN100 FM272200
                       30008KT P6SM VCSH BKN045 BKN060 FM280600
                       25005KT P6SM BKN040=
201004270901 KCLM 270901Z 2709/2806 26010KT P6SM VCSH SCT015 BKN050
                      TEMPO 2709/2712 -RA OVC015 FM271200 28008KT
                       P6SM VCSH BKN035 BKN060 FM272200 30008KT
                       P6SM BKN045 BKN060=
201004270520 TAF KCLM 270520Z 2706/2806 14012G22KT P6SM VCSH BKN050 FM271200
                       VRB06KT P6SM VCSH BKN035 BKN060 FM272200
                       30008KT P6SM BKN045 BKN060=
201004262335 TAF KCLM 262335Z 2700/2724 VRB06KT P6SM OVC050
                      TEMPO 2700/2703 -RA FM270600 24005KT P6SM
                       -SHRA OVC035 FM271200 VRB06KT P6SM BKN035
                       BKN060
                      PROB30 2712/2722 -SHRA FM272200 30008KT P6SM
                       BKN045 BKN060
                      PROB30 2722/2724 -SHRA=
201004261733 TAF KCLM 261733Z 2618/2718 VRB06KT P6SM OVC100 FM262300 09008KT
                       P6SM -RA OVC050 FM270600 24005KT P6SM -SHRA
                       OVC035 FM271200 VRB06KT P6SM BKN035 BKN060
                       PROB30 2712/2718 -SHRA=
201004261134 TAF KCLM 261134Z 2612/2712 VRB04KT P6SM OVC200 FM261500 09006KT
                       P6SM BKN080 OVC150 FM261800 09008KT P6SM
                       SCT040 OVC080 FM262300 09008KT P6SM -RA
                       OVC040 FM270600 24005KT P6SM -SHRA OVC030=
201004260530 TAF KCLM 260530Z 2606/2706 VRB04KT P6SM BKN200 FM261400 09006KT
                       P6SM BKN080 OVC150 FM261700 09008KT P6SM
                       SCT040 OVC080 FM262200 09006KT P6SM -RA
                       OVC040=
201004252320 TAF KCLM 252320Z 2600/2624 VRB04KT P6SM BKN200 FM261400 09006KT
                       P6SM BKN080 OVC150 FM261700 09008KT P6SM
                       SCT040 OVC080 FM262200 09006KT P6SM -RA
                       OVC040=
201004251720 TAF KCLM 251720Z 2518/2618 VRB03KT P6SM SCT030 BKN200 FM252100
                       09006KT P6SM BKN200 FM261400 09006KT P6SM
                       BKN080 OVC150 FM261700 09008KT P6SM SCT040
                       OVC080=
201004251406 KCLM 251406Z 2514/2612 00000KT P6SM SCT015 BKN025 OVC040
                      TEMPO 2514/2518 BKN015 OVC022 FM251800 VRB04KT
                       P6SM SCT030 BKN060 FM252000 VRB04KT P6SM
                       SCT040 BKN200 FM252200 VRB04KT P6SM BKN200=
201004251131 TAF KCLM 251131Z 2512/2612 25004KT P6SM SCT030 BKN060 FM251600
                       VRB04KT P6SM SCT040 BKN200 FM252100 VRB04KT
                       P6SM BKN200=
201004251012 KCLM 251012Z 2510/2606 25004KT P6SM BKN025 FM251600 VRB04KT P6SM
                       SCT040 BKN200 FM252200 VRB04KT P6SM BKN200=
201004250540 TAF KCLM 250540Z 2506/2606 25004KT P6SM SCT040 BKN060 FM250900
                       VRB04KT P6SM SCT060 FM251700 VRB04KT P6SM
                       SCT040 BKN200 FM252200 VRB04KT P6SM BKN200=
201004242320 TAF KCLM 242320Z 2500/2524 30008KT P6SM VCSH SCT030 BKN050 FM250600
                       VRB03KT P6SM SCT025 BKN040
                      TEMPO 2511/2515 BKN025 FM251700 VRB03KT P6SM
                       SCT040 BKN200=
201004241720 TAF KCLM 241720Z 2418/2518 22008KT P6SM VCSH SCT025 BKN040 FM250600
                       VRB03KT P6SM SCT025 BKN040
                      TEMPO 2511/2515 BKN025 FM251700 VRB03KT P6SM
                       SCT040 BKN200=
201004241127 TAF KCLM 241127Z 2412/2512 29006KT P6SM VCSH SCT040 BKN070 FM241900
                       30007KT P6SM VCSH BKN030 BKN050 FM250400
                       26004KT P6SM BKN040 FM250700 26004KT P6SM
                       SCT040 SCT200=
201004240539 TAF KCLM 240539Z 2406/2506 29008KT P6SM -SHRA OVC030 FM240900 27008KT
                       P6SM VCSH SCT030 BKN040 FM250300 30007KT
                       P6SM BKN040=
201004232320 TAF KCLM 232320Z 2400/2424 30007KT P6SM -RA BKN050 OVC100 FM240200
                       29008KT P6SM -SHRA OVC040 FM240900 27008KT
                       P6SM VCSH BKN040=
201004231720 TAF KCLM 231720Z 2318/2418 VRB04KT P6SM BKN100 FM232000 VRB05KT
                       P6SM BKN060 BKN090 FM232200 30007KT P6SM
                       -RA BKN050 OVC100 FM240200 29008KT P6SM
                       -SHRA OVC040 FM240900 27008KT P6SM VCSH
                       BKN040=
201004231137 TAF KCLM 231137Z 2312/2412 28007KT P6SM SCT250 FM231800 VRB04KT
                       P6SM SCT100 BKN250 FM232200 VRB05KT P6SM
                       BKN060 BKN120 OVC200 FM240000 30007KT P6SM
                       -RA BKN050 OVC100 FM240600 29008KT P6SM
                       -SHRA OVC040=
201004230525 TAF KCLM 230525Z 2306/2406 28007KT P6SM SCT250 FM231100 VRB04KT
                       P6SM BKN250 FM232200 VRB05KT P6SM BKN060
                       OVC100
                      PROB30 2400/2404 -RA=
201004222320 TAF KCLM 222320Z 2300/2324 30011G18KT P6SM FEW045 FM230400 28007KT
                       P6SM SCT250 FM231100 VRB04KT P6SM BKN250
                       FM232000 VRB05KT P6SM BKN090 OVC150
                      PROB30 2322/2324 -RA=
201004221807 TAF KCLM 221807Z 2218/2318 33009G18KT P6SM SKC FM222300 29010G19KT
                       P6SM SCT250 FM230400 28007KT P6SM SCT250
                       FM231100 VRB04KT P6SM BKN250=
201004221127 TAF KCLM 221127Z 2212/2312 27008KT P6SM SCT030 FM221400 26006KT
                       P6SM BKN030 FM222000 30010KT P6SM SCT040=
201004220528 TAF KCLM 220528Z 2206/2306 30008KT P6SM SKC FM221200 26006KT P6SM
                       BKN030 FM221800 34010KT P6SM SCT050=
201004212328 TAF KCLM 212328Z 2200/2224 30010G16KT P6SM FEW200 FM220300 30008KT
                       P6SM SKC FM221200 26006KT P6SM BKN030 FM221800
                       34010KT P6SM SCT050=
201004211903 KCLM 211903Z 2119/2218 32012G20KT P6SM FEW050 SCT100 FM221300 26006KT
                       P6SM BKN030=
201004211736 TAF KCLM 211736Z 2118/2218 29010KT P6SM FEW100 FM212200 30012KT
                       P6SM SCT050 FM221300 26006KT P6SM BKN030=
201004211120 TAF KCLM 211120Z 2112/2212 29012KT P6SM OVC070 FM211900 32012KT
                       P6SM SCT040=
201004210528 TAF KCLM 210528Z 2106/2206 30011KT P6SM OVC070 FM211600 26009KT
                       P6SM BKN050 FM212200 32012KT P6SM SCT040=
201004210215 KCLM 210215Z 2102/2124 30010G18KT P6SM VCSH SCT020 OVC070 FM210500
                       30007KT P6SM VCSH SCT008 BKN020 OVC050 FM211200
                       26009KT P6SM BKN008 OVC020 FM211800 32012KT
                       P6SM SCT040=
201004210110 KCLM 210110Z 2101/2124 32009KT P6SM VCSH SCT007 BKN012
                      TEMPO 2101/2105 BKN007 FM210500 30007KT P6SM
                       VCSH OVC005 FM211500 26009KT P6SM BKN010
                       FM211800 32012KT P6SM SCT040=
201004202320 TAF KCLM 202320Z 2100/2124 32009KT P6SM VCSH BKN005 FM210500 30007KT
                       P6SM VCSH OVC005 FM211500 26009KT P6SM BKN010
                       FM211800 32012KT P6SM SCT040=
201004202026 KCLM 202026Z 2020/2118 36004KT P6SM FEW007 SCT010 OVC035
                      TEMPO 2020/2022 BKN010 OVC035 FM202200 28010KT
                       P6SM -SHRA SCT015 BKN035 FM210500 26006KT
                       P6SM VCSH BKN018 FM211500 26009KT P6SM SCT020=
201004201734 TAF KCLM 201734Z 2018/2118 27003KT P6SM -RA BKN006 OVC022 FM202200
                       28010KT P6SM -SHRA BKN015 BKN035 FM210500
                       26006KT P6SM VCSH BKN018 FM211500 26009KT
                       P6SM SCT020=
201004201120 TAF KCLM 201120Z 2012/2112 00000KT P6SM -RA BKN010 OVC018 FM201800
                       28012KT P6SM -SHRA BKN020 OVC040 FM202200
                       28012G20KT P6SM VCSH SCT025 BKN050 FM210500
                       26008KT P6SM SCT025 BKN050=
201004201009 KCLM 201009Z 2010/2106 00000KT P6SM -RA OVC012 FM201500 28012KT
                       P6SM -SHRA BKN020 OVC040 FM202000 28012G20KT
                       P6SM VCSH SCT025 BKN050=
201004200520 TAF KCLM 200520Z 2006/2106 33006KT P6SM BKN070 OVC100 FM200800
                       VRB04KT P6SM -RA SCT025 OVC050
                      TEMPO 2008/2012 5SM -RA BR BKN025 OVC050
                       FM201200 28012KT P6SM -SHRA BKN020 OVC040
                       FM202000 28012G20KT P6SM VCSH SCT025 BKN050=
201004192320 TAF KCLM 192320Z 2000/2024 27007KT P6SM VCSH SCT040 BKN080 OVC120
                       FM200400 27007KT P6SM -RA SCT030 OVC050
                       TEMPO 2006/2010 5SM -RA BR BKN025 OVC050
                       FM201000 28012KT P6SM -SHRA BKN020 OVC040
                       FM201700 28012G20KT P6SM VCSH SCT025 BKN050=
201004191720 TAF KCLM 191720Z 1918/2018 09005KT P6SM BKN120 BKN200 FM200200
                       VRB03KT P6SM -RA SCT030 OVC060 FM200700
                       27010KT P6SM -RA BKN025 OVC040 FM201000
                       27010KT 5SM -RA BR BKN015 OVC040 FM201700
                       30012KT P6SM -SHRA BKN020 OVC040=
201004191120 TAF KCLM 191120Z 1912/2012 20003KT P6SM SKC FM192300 VRB03KT P6SM
                       SCT070 OVC120 FM200200 VRB03KT P6SM -RA
                       SCT025 OVC040 FM200800 27010KT P6SM VCSH
                       SCT025 BKN045=
201004190520 TAF KCLM 190520Z 1906/2006 VRB03KT P6SM SCT100 OVC200 FM192300
                       VRB03KT P6SM SCT070 OVC120 FM200200 VRB03KT
                       P6SM -RA SCT025 OVC040=
201004182320 TAF KCLM 182320Z 1900/1924 VRB03KT P6SM BKN200 FM190900 VRB03KT
                       P6SM SCT070 BKN120 FM191400 VRB03KT P6SM
                       SCT035 OVC070 FM191800 VRB03KT P6SM VCSH
                       BKN035 OVC050 FM192200 VRB03KT P6SM -RA
                       BKN030 OVC045=
201004182059 KCLM 182059Z 1821/1918 VRB03KT P6SM BKN035 BKN200
                      TEMPO 1821/1901 SCT035 BKN200 FM190100 VRB03KT
                       P6SM SCT070 BKN120 FM190900 VRB03KT P6SM
                       SCT035 OVC070 FM191600 VRB03KT P6SM VCSH
                       BKN035 OVC050=
201004181730 TAF KCLM 181730Z 1818/1918 VRB03KT P6SM BKN030 BKN200
                      TEMPO 1818/1820 SCT030 BKN200 FM182100 VRB03KT
                       P6SM BKN200 FM190300 VRB03KT P6SM SCT070
                       BKN120 FM190900 VRB03KT P6SM SCT035 OVC070
                       FM191600 VRB03KT P6SM VCSH BKN035 OVC050=
201004181634 KCLM 181634Z 1817/1912 VRB03KT P6SM OVC028
                      TEMPO 1817/1819 SCT030 BKN200 FM182100 VRB03KT
                       P6SM SCT045 BKN200 FM190300 22003KT P6SM
                       OVC150 FM190900 23004KT P6SM VCSH OVC080=
201004181120 TAF KCLM 181120Z 1812/1912 24005KT P6SM SCT018 BKN200
                      TEMPO 1812/1816 BKN018 FM181600 04003KT 6SM
                       BR BKN009 OVC200 FM182100 04004KT P6SM SCT045
                       OVC150 FM190300 22003KT P6SM OVC100 FM190900
                       23004KT P6SM VCSH OVC060=
201004180530 TAF KCLM 180530Z 1806/1906 22003KT P6SM SCT015 SCT035 OVC070
                      TEMPO 1806/1808 BKN015 OVC070 FM180900 VRB03KT
                       P6SM SCT050 BKN250 FM181600 04003KT 6SM
                       BR BKN009 OVC200 FM182100 04004KT P6SM SCT045
                       OVC150 FM190300 22003KT P6SM OVC100=
201004180419 KCLM 180419Z 1804/1824 VRB03KT P6SM SCT015 BKN060
                      TEMPO 1804/1808 BKN015 OVC060 FM180900 VRB03KT
                       P6SM SCT060 BKN250 FM181800 VRB05KT P6SM
                       SCT120 BKN250=
201004172321 TAF KCLM 172321Z 1800/1824 VRB05KT P6SM VCSH SCT050 BKN080 FM180400
                       VRB03KT P6SM SCT030 BKN090 FM180900 VRB03KT
                       P6SM SCT060 BKN250 FM181800 VRB05KT P6SM
                       SCT120 BKN250=
201004171747 TAF KCLM 171747Z 1718/1818 VRB05KT P6SM VCSH BKN070 FM180100 VRB03KT
                       P6SM SCT030 BKN060 FM180900 VRB03KT P6SM
                       SCT060 OVC200=
201004171124 TAF KCLM 171124Z 1712/1812 21004KT P6SM BKN070 OVC120 FM171600
                       VRB03KT P6SM VCSH BKN040 OVC100 FM172000
                       08005KT P6SM -SHRA BKN035 OVC080 FM180100
                       VRB03KT P6SM SCT030 BKN060=
201004170522 TAF KCLM 170522Z 1706/1806 VRB03KT P6SM BKN120 BKN200 FM171600
                       VRB03KT P6SM VCSH BKN040 OVC100 FM172000
                       08005KT P6SM -SHRA BKN035 OVC080 FM180100
                       VRB03KT P6SM SCT030 BKN060=
201004162336 TAF KCLM 162336Z 1700/1724 08005KT P6SM SCT200 FM170200 26004KT
                       P6SM BKN100 BKN200 FM170800 28004KT P6SM
                       BKN070 OVC120 FM171500 VRB03KT P6SM VCSH
                       BKN040 OVC100 FM171800 08005KT P6SM SHRA
                       BKN060 OVC100=
201004161737 TAF KCLM 161737Z 1618/1718 08005KT P6SM SCT200 FM170200 26004KT
                       P6SM BKN100 BKN200 FM170800 28004KT P6SM
                       BKN070 OVC120 FM171500 VRB03KT P6SM VCSH
                       BKN040 OVC100=
201004161126 TAF KCLM 161126Z 1612/1712 18004KT P6SM SCT200
                      TEMPO 1612/1616 2SM BR SCT002 FM161600 VRB03KT
                       P6SM BKN200 FM170200 VRB03KT P6SM BKN100
                       BKN200 FM170800 28004KT P6SM VCSH BKN070
                       OVC120=
201004160520 TAF KCLM 160520Z 1606/1706 28007KT P6SM SKC FM161600 VRB03KT P6SM
                       BKN200 FM170200 VRB03KT P6SM BKN100 BKN200=
201004152320 TAF KCLM 152320Z 1600/1624 VRB03KT P6SM SCT070 FM160200 23004KT
                       P6SM SKC FM160500 23006KT P6SM SKC FM161600
                       VRB03KT P6SM BKN200=
201004151736 TAF KCLM 151736Z 1518/1618 36003KT P6SM VCSH BKN090 FM152000 02005KT
                       P6SM -SHRA BKN050 OVC070 FM152300 VRB03KT
                       P6SM SCT050 BKN070 FM160200 23004KT P6SM
                       SCT070 FM160500 23006KT P6SM SKC FM161600
                       VRB03KT P6SM SCT120 BKN250=
201004151120 TAF KCLM 151120Z 1512/1612 23005KT P6SM SCT200 FM151400 24005KT
                       P6SM BKN100 OVC200 FM151800 02005KT P6SM
                       VCSH BKN050 OVC080 FM160000 VRB03KT P6SM
                       SCT050 BKN090 FM160600 23004KT P6SM BKN250=
201004150527 TAF KCLM 150527Z 1506/1606 00000KT P6SM SCT250 FM151400 24005KT
                       P6SM BKN100 OVC200 FM151800 02005KT P6SM
                       VCSH BKN050 OVC080 FM160300 23004KT P6SM
                       SCT250=
201004142320 TAF KCLM 142320Z 1500/1524 01005KT P6SM FEW050 FM150400 24005KT
                       P6SM BKN250 FM151400 24005KT P6SM BKN100
                       FM151800 02005KT P6SM VCSH BKN050 OVC080=
201004141735 TAF KCLM 141735Z 1418/1518 VRB04KT P6SM SCT035 FM142000 36005KT
                       P6SM FEW025 FM150400 24005KT P6SM BKN250
                       FM151200 24005KT P6SM BKN120=
201004141409 KCLM 141409Z 1414/1512 28003KT P6SM SCT024 BKN035
                      TEMPO 1414/1416 BKN024 OVC035 FM141800 VRB03KT
                       P6SM SCT250 FM150700 36007KT P6SM SCT090
                       BKN200=
201004141120 TAF KCLM 141120Z 1412/1512 28003KT P6SM SCT030 OVC045 FM141800
                       VRB03KT P6SM SCT250 FM150700 36007KT P6SM
                       SCT090 BKN200=
201004140527 TAF KCLM 140527Z 1406/1506 25003KT P6SM BKN040 OVC060 FM141600
                       VRB03KT P6SM SKC=
201004132320 TAF KCLM 132320Z 1400/1424 30004KT P6SM SCT050 BKN090 FM140400
                       24005KT P6SM SKC FM141600 VRB03KT P6SM SKC=
201004131744 TAF KCLM 131744Z 1318/1418 32006KT P6SM OVC070 FM132000 32007KT
                       P6SM BKN070 FM132300 30006KT P6SM SCT070
                       FM140400 24004KT P6SM SCT100 FM140800 24006KT
                       P6SM SKC=
201004131120 TAF KCLM 131120Z 1312/1412 27006KT P6SM OVC060 FM131300 27004KT
                       P6SM SCT020 BKN070 OVC150 FM131800 30006KT
                       P6SM SCT030 BKN150 FM140400 27005KT P6SM
                       SCT050 BKN120 FM141100 28003KT P6SM SCT120=
201004130530 TAF KCLM 130530Z 1306/1406 25006KT P6SM BKN080 OVC100 FM131300
                       27004KT P6SM SCT020 BKN070 OVC150 FM131800
                       35006KT P6SM SCT030 BKN150=
201004122320 TAF KCLM 122320Z 1300/1324 VRB03KT P6SM BKN080 OVC150 FM130200
                       25005KT P6SM BKN070 OVC150 FM131300 27004KT
                       P6SM SCT020 BKN070 OVC150 FM131800 35006KT
                       P6SM SCT030 BKN150=
201004121741 TAF KCLM 121741Z 1218/1318 14006KT P6SM BKN100 OVC200 FM122200
                       08006KT P6SM BKN070 OVC120 FM130100 25003KT
                       P6SM -RA OVC060 FM131100 27004KT P6SM -RA
                       OVC025=
201004121124 TAF KCLM 121124Z 1212/1312 23007KT P6SM BKN120 OVC200 FM122000
                       08006KT P6SM BKN070 OVC120 FM130100 25003KT
                       P6SM VCSH OVC070 FM131100 27004KT P6SM VCSH
                       OVC050=
201004120601 KCLM 120601Z 1206/1306 22003KT P6SM BKN200 FM121200 24005KT P6SM
                       BKN100 BKN200 FM122000 08006KT P6SM BKN070
                       OVC120 FM130100 25003KT P6SM VCSH OVC070=
201004112320 TAF KCLM 112320Z 1200/1224 06006KT P6SM SCT100 BKN200 FM121200
                       24005KT P6SM BKN100 BKN200 FM122000 08006KT
                       P6SM BKN070 OVC120=
201004111731 TAF KCLM 111731Z 1118/1218 06004KT P6SM BKN100 FM112000 VRB04KT
                       P6SM SCT120 BKN200 FM120900 24005KT P6SM
                       BKN120 BKN200=
201004111120 TAF KCLM 111120Z 1112/1212 23006KT P6SM BKN120 BKN200 FM111900
                       06004KT P6SM SCT120 BKN200 FM120400 24005KT
                       P6SM SCT120 BKN200 FM120900 24005KT P6SM
                       BKN120 BKN200=
201004110520 TAF KCLM 110520Z 1106/1206 VRB03KT P6SM BKN200 FM111200 VRB03KT
                       P6SM BKN120 BKN200 FM111900 06005KT P6SM
                       SCT120 BKN200 FM120400 VRB03KT P6SM SCT120
                       BKN200=
201004102330 TAF KCLM 102330Z 1100/1124 09008KT P6SM SCT200 FM110300 VRB03KT
                       P6SM BKN250 FM111800 VRB04KT P6SM SCT150
                       BKN250=
201004101736 TAF KCLM 101736Z 1018/1118 22005KT P6SM SCT250 FM101900 08004KT
                       P6SM SCT250 FM110300 VRB03KT P6SM BKN250=
201004101238 KCLM 101238Z 1013/1112 22005KT P6SM SKC
                      TEMPO 1013/1017 BKN015 FM101900 05010KT P6SM
                       SCT250 FM110300 10006KT P6SM SCT250=
201004101120 TAF KCLM 101120Z 1012/1112 02005KT P6SM SKC FM101900 05010KT P6SM
                       SCT250 FM110300 10006KT P6SM SCT250=
201004100526 TAF KCLM 100526Z 1006/1106 22005KT P6SM SKC FM101600 06005KT P6SM
                       SCT015 SCT250 FM101900 05010KT P6SM SCT250
                       FM110300 10006KT P6SM SCT250=
201004092320 TAF KCLM 092320Z 1000/1024 32010KT P6SM SKC FM100300 25005KT P6SM
                       SKC FM100600 22005KT P6SM SKC FM101600 06005KT
                       P6SM SCT015 SCT250 FM101900 05010KT P6SM
                       SCT250=
201004091743 TAF KCLM 091743Z 0918/1018 26007KT P6SM VCSH SCT050
                      TEMPO 0918/0922 BKN050 FM092200 33005KT P6SM
                       SCT050 FM100300 25003KT P6SM SKC FM100600
                       22005KT P6SM SKC=
201004091120 TAF KCLM 091120Z 0912/1012 25007KT P6SM VCSH SCT025 BKN035 FM091400
                       33005KT P6SM BKN040 FM092000 VRB03KT P6SM
                       FEW060=
201004090520 TAF KCLM 090520Z 0906/1006 26007KT P6SM -SHRASN SCT030 BKN050 FM091000
                       25007KT P6SM VCSH SCT035 BKN050 FM091400
                       33005KT P6SM SKC FM092000 02005KT P6SM SKC=
201004082336 TAF KCLM 082336Z 0900/0924 27013G22KT P6SM VCSH SCT025 BKN050
                      TEMPO 0900/0904 4SM -SHRA BR SCT015 BKN025
                       FM090500 26007KT 6SM -SHRASN BR SCT015 BKN030
                       BKN050 FM091000 25007KT P6SM VCSH SCT035
                       BKN050 FM091400 33005KT P6SM SKC FM092000
                       02005KT P6SM SKC=
201004081746 TAF KCLM 081746Z 0818/0918 29018G28KT P6SM SCT030 SCT050
                      TEMPO 0818/0822 6SM -SHRA BR SCT020 BKN030
                       FM082200 29013G22KT P6SM VCSH BKN050 FM090500
                       26007KT 6SM -SHRASN BR SCT015 BKN030 BKN050
                       FM091000 25007KT P6SM VCSH SCT035 BKN050
                       FM091600 33005KT P6SM SCT120=
201004081121 TAF KCLM 081121Z 0812/0912 27017G27KT P6SM -SHRA BKN025 BKN040
                       FM081600 30015G25KT P6SM VCSH SCT030 BKN050
                       FM090000 30012KT P6SM SCT030 BKN050 FM090400
                       30010KT P6SM -SHRASN BKN030 BKN050=
201004080758 KCLM 080758Z 0808/0906 27015G25KT 6SM -RA SCT012 OVC025 FM081100
                       27015G25KT P6SM -SHRA BKN025 BKN040 FM081600
                       30015G25KT P6SM VCSH SCT030 BKN050 FM090000
                       30012KT P6SM SCT030 BKN050 FM090500 30010KT
                       P6SM -SHRASN BKN030 BKN050=
201004080700 KCLM 080700Z 0807/0906 27010KT 5SM -RA BR BKN005 BKN025 FM080800
                       27013G20KT 5SM -RA BR BKN005 OVC025 FM081000
                       28015G25KT P6SM -SHRA BKN030 FM081800 30015G25KT
                       P6SM VCSH SCT030 BKN050 FM090000 30012KT
                       P6SM SCT030 BKN050 FM090500 30010KT P6SM
                       -SHRASN BKN030 BKN050=
201004080527 TAF KCLM 080527Z 0806/0906 25006KT 5SM -RA BR SCT015 OVC030 FM080700
                       27020G30KT P6SM -RA SCT015 BKN025 FM081000
                       28015G25KT P6SM -SHRA BKN030 FM081800 30015G25KT
                       P6SM VCSH SCT030 BKN050 FM090000 30012KT
                       P6SM SCT030 BKN050 FM090500 30010KT P6SM
                       -SHRASN BKN030 BKN050=
201004072347 TAF KCLM 072347Z 0800/0824 10005KT P6SM -RA BKN040 OVC050 FM080200
                       25006KT 5SM -RA BR SCT015 OVC025 FM080700
                       27018G28KT P6SM -SHRA SCT018 BKN035=
201004071743 TAF KCLM 071743Z 0718/0818 10005KT P6SM VCSH SCT040 BKN060 FM080200
                       25006KT P6SM -RA BKN040 OVC060 FM080900
                       27018G28KT P6SM -SHRA SCT018 BKN035=
201004071120 TAF KCLM 071120Z 0712/0812 10005KT P6SM VCSH SCT040 BKN060 FM072000
                       02005KT P6SM -RA BKN040 OVC060 FM080800
                       26007KT P6SM -RA OVC030=
201004070545 TAF KCLM 070545Z 0706/0806 24005KT P6SM VCSH SCT060 OVC100 FM071200
                       10005KT P6SM SCT060 BKN100 FM080200 12005KT
                       P6SM -RA BKN060 OVC100=
201004062339 TAF KCLM 062339Z 0700/0724 31008KT P6SM VCSH SCT045 BKN060 FM070500
                       24005KT P6SM -RA SCT035 OVC050 FM071900
                       VRB03KT P6SM -RA SCT025 BKN040 OVC050=
201004061744 TAF KCLM 061744Z 0618/0718 31006KT P6SM VCSH SCT030 BKN050 FM062200
                       31006KT P6SM OVC090 FM070500 27008KT P6SM
                       -RA SCT035 OVC050=
201004061120 TAF KCLM 061120Z 0612/0712 27006KT P6SM VCSH SCT045 BKN060 FM061800
                       32004KT P6SM VCSH SCT030 BKN060 FM070300
                       27008KT P6SM -RA SCT030 OVC045 FM070600
                       28008KT P6SM -RA OVC030=
201004060537 TAF KCLM 060537Z 0606/0706 27007KT P6SM VCSH BKN030 BKN060 FM061800
                       32004KT P6SM VCSH SCT030 BKN060 FM070300
                       19012KT P6SM -RA SCT020 OVC035=
201004052336 TAF KCLM 052336Z 0600/0624 24005KT P6SM SCT030 BKN045 OVC100
                      TEMPO 0600/0604 6SM -SHRA BR SCT020 BKN030
                       OVC045 FM060500 23005KT P6SM VCSH BKN050
                       FM061800 32004KT P6SM VCSH SCT050 BKN120=
201004051743 TAF KCLM 051743Z 0518/0618 02005KT P6SM VCSH SCT025 BKN050 FM060100
                       VRB03KT P6SM -SHRA SCT035 OVC045 FM060500
                       23005KT P6SM VCSH BKN050=
201004051132 TAF KCLM 051132Z 0512/0612 26008KT P6SM VCSH SCT080 FM051500 VRB04KT
                       P6SM VCSH SCT012 OVC050 FM052100 03004KT
                       P6SM VCSH FEW025 BKN050 FM060100 21004KT
                       P6SM VCSH SCT020 OVC040 FM060600 VRB04KT
                       6SM -SHRA BKN025 OVC040=
201004050531 TAF KCLM 050531Z 0506/0606 23004KT P6SM -SHRA SCT045 OVC080 FM051100
                       22004KT P6SM VCSH SCT012 OVC050 FM052100
                       03004KT P6SM VCSH SCT050=
201004042341 TAF KCLM 042341Z 0500/0524 12010KT P6SM VCSH BKN070 OVC150 FM050400
                       23004KT P6SM -SHRA SCT045 OVC060
                      TEMPO 0507/0511 BKN010 FM051100 22004KT P6SM
                       VCSH SCT012 OVC050 FM052100 03004KT P6SM
                       VCSH SCT050=
201004042025 KCLM 042025Z 0420/0518 11015G22KT P6SM BKN080 FM050400 23004KT
                       P6SM -SHRA SCT045 OVC060
                      TEMPO 0507/0511 BKN010 FM051100 22004KT P6SM
                       VCSH BKN050=
201004041745 TAF KCLM 041745Z 0418/0518 07005KT P6SM BKN080 FM050400 23004KT
                       P6SM -SHRA SCT045 OVC060
                      TEMPO 0507/0511 BKN010 FM051100 22004KT P6SM
                       VCSH BKN050=
201004041121 TAF KCLM 041121Z 0412/0512 VRB03KT P6SM BKN070 OVC120
                      TEMPO 0412/0415 4SM BR FM041800 09006KT P6SM
                       SCT060 BKN120=
201004040520 TAF KCLM 040520Z 0406/0506 00000KT P6SM BKN060 OVC120 FM041800
                       07007KT P6SM SCT060 BKN120=
201004032320 TAF KCLM 032320Z 0400/0424 VRB03KT P6SM VCSH BKN035 BKN060 OVC200
                       TEMPO 0400/0402 -SHRA FM040200 VRB03KT P6SM
                       VCSH SCT035 BKN060 OVC200 FM040600 VRB03KT
                       P6SM SCT060 BKN120 OVC200 FM041800 07007KT
                       P6SM FEW060 SCT120 OVC200=
201004032210 KCLM 032210Z 0322/0418 VRB04KT P6SM VCSH SCT028 BKN050 OVC200
                      TEMPO 0322/0324 -SHRA BKN028 OVC050 FM040000
                       22006KT P6SM VCSH SCT060 OVC200 FM040600
                       VRB03KT P6SM SCT060 BKN120 OVC200=
201004031720 TAF KCLM 031720Z 0318/0418 25009KT P6SM VCSH SCT035 SCT060 OVC200
                       TEMPO 0318/0320 -SHRA BKN035 BKN060 OVC200
                       FM032000 25007KT P6SM VCSH SCT060 OVC200
                       TEMPO 0320/0322 -SHRA BKN060 OVC200 FM040000
                       22006KT P6SM VCSH SCT060 OVC200 FM040600
                       VRB03KT P6SM SCT060 BKN120 OVC200=
201004031407 KCLM 031407Z 0314/0412 27009KT P6SM VCSH BKN035 OVC050
                      TEMPO 0314/0318 6SM SHRASN OVC025 FM031900
                       VRB04KT P6SM VCSH SCT030 BKN050 FM040200
                       09004KT P6SM VCSH BKN030 BKN050 BKN100=
201004031120 TAF KCLM 031120Z 0312/0412 25008KT P6SM VCSH BKN030 BKN080
                      TEMPO 0312/0316 5SM -SHRA BR OVC025 FM031900
                       VRB04KT P6SM VCSH SCT030 BKN050 FM040200
                       09004KT P6SM VCSH BKN030 BKN050 BKN100=
201004030522 TAF KCLM 030522Z 0306/0406 23012KT P6SM -SHRA BKN025 BKN050
                      TEMPO 0306/0310 3SM SHRA BR BKN015 OVC030
                       FM031200 28008KT P6SM VCSH BKN030 FM031900
                       24005KT P6SM VCSH SCT030 BKN045=
201004030048 KCLM 030048Z 0301/0324 23012G22KT P6SM SHRA OVC025 FM030200 27012KT
                       P6SM -SHRA BKN025 BKN040 FM031200 28008KT
                       P6SM VCSH BKN030 FM031900 24005KT P6SM VCSH
                       SCT030 BKN045=
201004022321 TAF KCLM 022321Z 0300/0324 25012G22KT P6SM SHRA OVC025 FM030200
                       27012KT P6SM -SHRA BKN025 BKN040 FM031200
                       28008KT P6SM VCSH BKN030 FM031900 24005KT
                       P6SM VCSH SCT030 BKN045=
201004021731 TAF KCLM 021731Z 0218/0318 09012G18KT P6SM -RA OVC050 FM022000
                       27022G30KT 5SM SHRA BKN025 OVC050 FM030200
                       28012KT P6SM -SHRA BKN030 BKN050 FM030500
                       28008KT P6SM VCSH BKN030=
201004021422 KCLM 021422Z 0214/0312 10011KT P6SM -RA OVC028 FM021900 27015G25KT
                       P6SM -SHRA BKN030 FM030500 28008KT P6SM
                       VCSH BKN030=
201004021120 TAF KCLM 021120Z 0212/0312 VRB03KT P6SM -RA SCT025 OVC050 FM021500
                       VRB03KT 5SM -RA BR OVC025 FM021900 27015G25KT
                       P6SM -SHRA BKN030 FM030500 28008KT P6SM
                       VCSH BKN030=
201004020520 TAF KCLM 020520Z 0206/0306 00000KT P6SM BKN050 OVC100 FM021200
                       09005KT P6SM -RA SCT025 OVC050 FM021500
                       VRB05KT 4SM -RA BR OVC020 FM021900 27015G25KT
                       P6SM -SHRA BKN030 FM030500 28008KT P6SM
                       VCSH BKN030=
201004012356 TAF KCLM 012356Z 0200/0224 VRB04KT P6SM VCSH SCT060
                      TEMPO 0200/0202 BKN060 FM020300 VRB03KT P6SM
                       SCT050 BKN100 OVC200 FM020600 VRB03KT P6SM
                       SCT050 OVC100 FM021200 VRB03KT P6SM -RA
                       SCT025 OVC050 FM021800 VRB05KT 4SM -RA BR
                       OVC020 FM022100 27020G30KT P6SM -SHRA BKN028
                       BKN050=
201004012053 KCLM 012053Z 0121/0218 VRB04KT P6SM VCSH SCT020 SCT035 BKN050
                      TEMPO 0121/0124 -SHRA BKN020 BKN035 OVC050
                       FM020300 VRB03KT P6SM SCT050 BKN100 OVC200
                       FM020600 VRB03KT P6SM SCT050 OVC100
                      PROB30 0206/0212 -RA FM021200 VRB03KT P6SM
                       -RA SCT025 OVC050=
201004011802 TAF KCLM 011802Z 0118/0218 VRB04KT P6SM VCSH SCT050
                      TEMPO 0118/0120 BKN050 FM012000 VRB04KT P6SM
                       VCSH BKN050 FM020300 VRB03KT P6SM SCT050
                       BKN100 OVC200 FM020600 VRB03KT P6SM SCT050
                       OVC100
                      PROB30 0206/0212 -RA FM021200 VRB03KT P6SM
                       -RA SCT025 OVC050=
201004011120 TAF KCLM 011120Z 0112/0212 23006KT P6SM SCT035 BKN200
                      TEMPO 0112/0116 5SM BR BKN035 FM011800 18007KT
                       P6SM BKN040 BKN150 FM020500 09006KT P6SM
                       -RA BKN040 OVC080 FM021000 09006KT 4SM -RA
                       BR OVC025=
201004010520 TAF KCLM 010520Z 0106/0206 24004KT P6SM SCT040 FM012000 VRB05KT
                       P6SM SCT040 BKN150 FM020500 09006KT P6SM
                       -RA BKN040 OVC080=