##########################################################
# Query made at 02/16/2025 02:00:27 UTC
# Time interval: from 05/01/2011 00:00  to 05/31/2011 23:59  UTC
##########################################################

##########################################################
# KCLM, Port Angeles, William R. Fairchild International Airport (United States)
# WMO index: -----. WIGOS ID: Unknown
# Latitude 48-07-20N. Longitude 123-30-19W. Altitude 87 m.
##########################################################

###################################
#  METAR/SPECI from KCLM
###################################
201105312353 METAR KCLM 312353Z AUTO 09005KT 10SM CLR 15/08 A2992 RMK AO2 SLP132 60000 T01500078 10167 20133 55003=
201105312253 METAR KCLM 312253Z AUTO VRB03KT 10SM CLR 17/08 A2991 RMK AO2 SLP130 T01670078=
201105312153 METAR KCLM 312153Z AUTO 35004KT 10SM BKN100 16/08 A2992 RMK AO2 RAB15E24 SLP131 P0000 T01610083=
201105312053 METAR KCLM 312053Z AUTO 12006KT 10SM BKN034 OVC065 14/08 A2993 RMK AO2 SLP136 60000 T01440083 50000=
201105311953 METAR KCLM 311953Z AUTO 12003KT 10SM OVC070 14/09 A2993 RMK AO2 SLP136 T01390089=
201105311853 METAR KCLM 311853Z AUTO 09007KT 10SM OVC070 13/08 A2993 RMK AO2 RAB1755E06 SLP136 P0000 T01330083=
201105311753 METAR KCLM 311753Z AUTO VRB04KT 10SM FEW040 SCT046 BKN100 13/08 A2993 RMK AO2 SLP136 6//// T01330083 10144 20083 58007=
201105311653 METAR KCLM 311653Z AUTO 10005KT 10SM FEW027 SCT033 OVC041 13/07 A2994 RMK AO2 SLP140 T01330067=
201105311553 METAR KCLM 311553Z AUTO 24003KT 10SM OVC037 11/07 A2995 RMK AO2 SLP142 T01110072=
201105311453 METAR KCLM 311453Z AUTO 00000KT 10SM OVC035 11/07 A2995 RMK AO2 SLP143 6//// T01060067 58001=
201105311353 METAR KCLM 311353Z AUTO 24006KT 10SM OVC033 10/06 A2995 RMK AO2 SLP143 T01000061=
201105311253 METAR KCLM 311253Z AUTO 00000KT 10SM FEW033 OVC040 09/07 A2996 RMK AO2 SLP145 T00890067 PNO $=
201105311153 METAR KCLM 311153Z AUTO 00000KT 10SM OVC040 08/06 A2995 RMK AO2 SLP144 6//// 7//// T00830061 10083 20061 50000 PNO $=
201105311053 METAR KCLM 311053Z AUTO 23003KT 10SM FEW040 BKN085 OVC110 08/06 A2996 RMK AO2 SLP146 T00780056 PNO $=
201105310953 METAR KCLM 310953Z AUTO 00000KT 10SM CLR 06/04 A2996 RMK AO2 SLP146 T00610044 PNO $=
201105310853 METAR KCLM 310853Z AUTO 23005KT 10SM CLR 07/05 A2995 RMK AO2 SLP144 6//// T00720050 56005 PNO $=
201105310753 METAR KCLM 310753Z AUTO 22003KT 10SM CLR 08/06 A2996 RMK AO2 SLP145 T00830056 401280072 PNO $=
201105310653 METAR KCLM 310653Z AUTO 22003KT 10SM CLR 08/05 A2996 RMK AO2 SLP147 T00780050 PNO $=
201105310553 METAR KCLM 310553Z AUTO 23004KT 10SM FEW038 08/05 A2997 RMK AO2 SLP149 6//// T00830050 10128 20083 52006 PNO $=
201105310453 METAR KCLM 310453Z AUTO 00000KT 10SM SCT038 09/04 A2997 RMK AO2 SLP148 T00940039 PNO $=
201105310353 METAR KCLM 310353Z AUTO 27004KT 10SM OVC038 11/04 A2995 RMK AO2 SLP144 T01060044 PNO $=
201105310253 METAR KCLM 310253Z AUTO 30005KT 10SM BKN038 11/05 A2995 RMK AO2 SLP143 6//// T01110050 53004 PNO $=
201105310153 METAR KCLM 310153Z AUTO 00000KT 10SM OVC038 12/05 A2995 RMK AO2 SLP141 T01170050 PNO $=
201105310053 METAR KCLM 310053Z AUTO 35005KT 10SM OVC038 12/05 A2994 RMK AO2 SLP140 T01220050 PNO $=
201105302353 METAR KCLM 302353Z AUTO 01005KT 10SM OVC036 13/06 A2994 RMK AO2 SLP139 6//// T01280056 10128 20111 58001 PNO $=
201105302253 METAR KCLM 302253Z AUTO 36004KT 10SM OVC034 12/06 A2994 RMK AO2 SLP139 T01220056 TSNO PNO $=
201105302200 METAR KCLM NIL=
201105302053 METAR KCLM 302053Z AUTO VRB03KT 10SM OVC032 12/06 A2994 RMK AO2 SLP140 6//// T01220061 53006 PNO $=
201105301953 METAR KCLM 301953Z AUTO VRB04KT 10SM OVC032 12/05 A2994 RMK AO2 SLP138 T01220050 PNO $=
201105301853 METAR KCLM 301853Z AUTO VRB04KT 10SM OVC030 12/05 A2992 RMK AO2 SLP134 T01220050 PNO $=
201105301829 SPECI KCLM 301829Z AUTO 33003KT 10SM OVC030 12/05 A2992 RMK AO2 PNO $=
201105301829 SPECI KCLM 301829Z AUTO 33003KT 10SM OVC030 12/05 A2992 RMK AO2 PNO $=
201105301753 METAR KCLM 301753Z AUTO 29005KT 10SM OVC028 11/04 A2992 RMK AO2 SLP133 6//// T01110044 10117 20094 52008 PNO $=
201105301653 METAR KCLM 301653Z AUTO 30003KT 10SM OVC028 11/04 A2991 RMK AO2 SLP130 T01110044 PNO $=
201105301553 METAR KCLM 301553Z AUTO 29004KT 10SM OVC028 11/05 A2991 RMK AO2 SLP128 T01060050 PNO $=
201105301453 METAR KCLM 301453Z AUTO 25004KT 10SM OVC026 11/05 A2990 RMK AO2 SLP125 6//// T01060050 51003 PNO $=
201105301353 METAR KCLM 301353Z AUTO 25003KT 10SM OVC024 09/06 A2990 RMK AO2 SLP124 T00940056 PNO $=
201105301253 METAR KCLM 301253Z AUTO 25004KT 10SM OVC026 09/06 A2989 RMK AO2 SLP123 T00940056 PNO $=
201105301153 METAR KCLM 301153Z AUTO 26006KT 10SM OVC026 09/06 A2989 RMK AO2 SLP122 6//// 7//// T00940056 10100 20094 57005 PNO $=
201105301053 METAR KCLM 301053Z AUTO 27007KT 10SM OVC026 09/06 A2989 RMK AO2 SLP124 T00940061 PNO $=
201105300953 METAR KCLM 300953Z AUTO 28007KT 10SM OVC026 09/06 A2990 RMK AO2 SLP125 T00940061 PNO $=
201105300853 METAR KCLM 300853Z AUTO 30007KT 10SM BKN015 OVC020 09/07 A2990 RMK AO2 SLP127 6//// T00940067 56006 PNO $=
201105300753 METAR KCLM 300753Z AUTO 31008G17KT 10SM SCT008 OVC013 09/07 A2991 RMK AO2 SLP129 T00940072 401440083 PNO $=
201105300653 METAR KCLM 300653Z AUTO 31009KT 10SM OVC006 09/08 A2991 RMK AO2 CIG 004V010 SLP130 T00940078 PNO $=
201105300611 SPECI KCLM 300611Z AUTO 30008KT 10SM OVC008 09/08 A2992 RMK AO2 CIG 005V013 PNO $=
201105300611 SPECI KCLM 300611Z AUTO 30008KT 10SM OVC008 09/08 A2992 RMK AO2 CIG 005V013 PNO $=
201105300553 METAR KCLM 300553Z AUTO 30007KT 10SM FEW006 BKN011 OVC024 10/08 A2992 RMK AO2 SLP133 6//// T01000078 10133 20100 58001 PNO $=
201105300545 SPECI KCLM 300545Z AUTO 30007KT 10SM FEW008 BKN011 OVC024 10/08 A2992 RMK AO2 PNO $=
201105300545 SPECI KCLM 300545Z AUTO 30007KT 10SM FEW008 BKN011 OVC024 10/08 A2992 RMK AO2 PNO $=
201105300453 METAR KCLM 300453Z AUTO 30009KT 10SM OVC008 10/08 A2993 RMK AO2 CIG 006V011 SLP136 T01000078 PNO $=
201105300437 SPECI KCLM 300437Z AUTO 30011KT 10SM BKN008 OVC011 10/08 A2993 RMK AO2 CIG 006V010 PNO $=
201105300437 SPECI KCLM 300437Z AUTO 30011KT 10SM BKN008 OVC011 10/08 A2993 RMK AO2 CIG 006V010 PNO $=
201105300353 METAR KCLM 300353Z AUTO 31011G17KT 10SM FEW009 OVC013 10/08 A2993 RMK AO2 SLP135 T01000078 PNO $=
201105300253 METAR KCLM 300253Z AUTO 30011KT 10SM OVC018 11/08 A2992 RMK AO2 SLP134 6//// T01060078 55002 TSNO PNO $=
201105300153 METAR KCLM 300153Z AUTO 31013G19KT 10SM OVC022 11/08 A2992 RMK AO2 SLP133 T01110078 TSNO PNO $=
201105300053 METAR KCLM 300053Z AUTO 31015G20KT 10SM BKN024 OVC060 12/08 A2993 RMK AO2 SLP135 T01220078 PNO $=
201105300046 SPECI KCLM 300046Z AUTO 32009G20KT 290V350 10SM BKN024 OVC060 12/08 A2993 RMK AO2 PNO $=
201105300046 SPECI KCLM 300046Z AUTO 32009G20KT 290V350 10SM BKN024 OVC060 12/08 A2993 RMK AO2 PNO $=
201105292353 METAR KCLM 292353Z AUTO 30012G18KT 10SM CLR 13/08 A2993 RMK AO2 SLP136 6//// T01330083 10144 20128 55003 PNO $=
201105292253 METAR KCLM 292253Z AUTO 31014G21KT 10SM BKN055 13/08 A2993 RMK AO2 SLP135 T01330083 PNO $=
201105292153 METAR KCLM 292153Z AUTO 31011G20KT 10SM FEW021 14/08 A2993 RMK AO2 SLP138 T01390083 PNO $=
201105292053 METAR KCLM 292053Z AUTO 31011KT 10SM CLR 14/09 A2994 RMK AO2 SLP138 6//// T01390089 56003 PNO $=
201105291953 METAR KCLM 291953Z AUTO 32010G17KT 10SM FEW026 14/09 A2994 RMK AO2 SLP138 T01390089 PNO $=
201105291853 METAR KCLM 291853Z AUTO 31008G14KT 10SM CLR 14/09 A2994 RMK AO2 SLP139 T01440089 PNO $=
201105291753 METAR KCLM 291753Z AUTO 33007KT 10SM CLR 13/08 A2994 RMK AO2 SLP141 6//// T01330078 10133 20083 58008 PNO $=
201105291653 METAR KCLM 291653Z AUTO 31005KT 10SM BKN080 12/08 A2996 RMK AO2 SLP144 T01220078 PNO $=
201105291613 SPECI KCLM 291613Z AUTO 34005KT 10SM FEW011 12/08 A2997 RMK AO2 PNO $=
201105291613 SPECI KCLM 291613Z AUTO 34005KT 10SM FEW011 12/08 A2997 RMK AO2 PNO $=
201105291553 METAR KCLM 291553Z AUTO 33007KT 10SM BKN011 11/08 A2997 RMK AO2 SLP150 T01110078 PNO $=
201105291530 SPECI KCLM 291530Z AUTO 32005KT 10SM OVC011 11/08 A2997 RMK AO2 PNO $=
201105291530 SPECI KCLM 291530Z AUTO 32005KT 10SM OVC011 11/08 A2997 RMK AO2 PNO $=
201105291503 SPECI KCLM 291503Z AUTO 30005KT 10SM BKN009 11/08 A2997 RMK AO2 PNO $=
201105291503 SPECI KCLM 291503Z AUTO 30005KT 10SM BKN009 11/08 A2997 RMK AO2 PNO $=
201105291453 METAR KCLM 291453Z AUTO 30007KT 10SM SCT009 SCT100 10/07 A2997 RMK AO2 SLP149 6//// T01000072 51007 PNO $=
201105291353 METAR KCLM 291353Z AUTO 26011KT 10SM CLR 09/04 A2995 RMK AO2 SLP144 T00940044 PNO $=
201105291253 METAR KCLM 291253Z AUTO 28010G16KT 10SM CLR 09/04 A2995 RMK AO2 SLP141 T00890039 PNO $=
201105291153 METAR KCLM 291153Z AUTO 28009KT 10SM BKN080 09/04 A2994 RMK AO2 SLP140 6//// 7//// T00940039 10106 20089 56004 PNO $=
201105291053 METAR KCLM 291053Z AUTO 27008KT 10SM OVC075 09/04 A2995 RMK AO2 SLP142 T00940039 PNO $=
201105290953 METAR KCLM 290953Z AUTO 24010KT 10SM FEW090 OVC120 11/04 A2995 RMK AO2 SLP142 T01060039 PNO $=
201105290853 METAR KCLM 290853Z AUTO 25009KT 10SM BKN090 OVC110 10/04 A2996 RMK AO2 SLP144 6//// T01000039 56006 PNO $=
201105290753 METAR KCLM 290753Z AUTO 25011KT 10SM OVC110 11/04 A2996 RMK AO2 SLP145 T01060044 401390072 PNO $=
201105290653 METAR KCLM 290653Z AUTO 25010KT 10SM BKN100 10/04 A2996 RMK AO2 SLP147 T01000044 PNO $=
201105290553 METAR KCLM 290553Z AUTO 26007KT 10SM BKN100 09/05 A2997 RMK AO2 SLP151 6//// T00940050 10133 20089 50002 PNO $=
201105290453 METAR KCLM 290453Z AUTO 28007KT 10SM CLR 10/04 A2998 RMK AO2 SLP152 T01000039 PNO $=
201105290353 METAR KCLM 290353Z AUTO 27007KT 10SM CLR 10/03 A2997 RMK AO2 SLP150 T01000033 PNO $=
201105290253 METAR KCLM 290253Z AUTO 30005KT 10SM CLR 12/05 A2997 RMK AO2 SLP149 6//// T01170050 56005 PNO $=
201105290153 METAR KCLM 290153Z AUTO 31008KT 10SM CLR 12/04 A2997 RMK AO2 SLP150 T01220044 PNO $=
201105290053 METAR KCLM 290053Z AUTO 30009KT 10SM CLR 13/04 A2998 RMK AO2 SLP153 T01330039 PNO $=
201105282353 METAR KCLM 282353Z AUTO 33009KT 10SM CLR 13/04 A2998 RMK AO2 SLP154 6//// T01330039 10139 20106 58003 PNO $=
201105282253 METAR KCLM 282253Z AUTO 31005KT 10SM CLR 13/06 A2999 RMK AO2 SLP157 T01280056 PNO $=
201105282153 METAR KCLM 282153Z AUTO 34009KT 10SM FEW100 12/06 A2999 RMK AO2 SLP158 T01220061 PNO $=
201105282053 METAR KCLM 282053Z AUTO VRB05KT 10SM FEW100 12/06 A2999 RMK AO2 SLP158 6//// T01220056 50002 PNO $=
201105281953 METAR KCLM 281953Z AUTO 36005KT 10SM FEW110 11/06 A3000 RMK AO2 SLP159 T01110061 PNO $=
201105281853 METAR KCLM 281853Z AUTO 02007KT 10SM CLR 11/06 A2999 RMK AO2 SLP158 T01060056 PNO $=
201105281753 METAR KCLM 281753Z AUTO 02006KT 10SM FEW019 BKN060 11/07 A2999 RMK AO2 SLP156 6//// T01110067 10117 20072 51003 PNO $=
201105281653 METAR KCLM 281653Z AUTO 02003KT 10SM OVC055 11/07 A2999 RMK AO2 SLP156 T01060067 PNO $=
201105281553 METAR KCLM 281553Z AUTO 31005KT 10SM FEW020 SCT041 OVC055 10/06 A2999 RMK AO2 SLP155 T01000061 PNO $=
201105281453 METAR KCLM 281453Z AUTO 25003KT 10SM BKN041 OVC060 09/06 A2998 RMK AO2 SLP152 6//// T00940056 53004 PNO $=
201105281353 METAR KCLM 281353Z AUTO 24004KT 10SM BKN042 BKN050 OVC070 08/06 A2997 RMK AO2 SLP150 T00830056 PNO $=
201105281253 METAR KCLM 281253Z AUTO 21004KT 10SM OVC042 07/05 A2997 RMK AO2 SLP149 T00720050 PNO $=
201105281153 METAR KCLM 281153Z AUTO 24005KT 10SM OVC055 08/05 A2997 RMK AO2 SLP149 6//// 7//// T00780050 10089 20078 58001 PNO $=
201105281053 METAR KCLM 281053Z AUTO 24004KT 10SM OVC048 08/06 A2997 RMK AO2 SLP149 T00830056 PNO $=
201105280953 METAR KCLM 280953Z AUTO 25004KT 10SM OVC048 08/06 A2997 RMK AO2 SLP150 T00830056 PNO $=
201105280853 METAR KCLM 280853Z AUTO 24005KT 10SM OVC042 08/05 A2997 RMK AO2 SLP150 6//// T00780050 52000 PNO $=
201105280753 METAR KCLM 280753Z AUTO 26004KT 10SM OVC050 08/06 A2997 RMK AO2 SLP149 T00830056 401170078 PNO $=
201105280653 METAR KCLM 280653Z AUTO 25004KT 10SM OVC048 08/06 A2997 RMK AO2 SLP149 T00830056 PNO $=
201105280553 METAR KCLM 280553Z AUTO 00000KT 10SM BKN050 BKN075 OVC090 08/06 A2997 RMK AO2 SLP149 6//// T00830061 10106 20083 53001 PNO $=
201105280453 METAR KCLM 280453Z AUTO 24004KT 10SM OVC060 09/06 A2997 RMK AO2 SLP150 T00890061 PNO $=
201105280353 METAR KCLM 280353Z AUTO 30005KT 10SM OVC055 09/07 A2996 RMK AO2 SLP146 T00890072 PNO $=
201105280253 METAR KCLM 280253Z AUTO 00000KT 10SM FEW041 OVC055 11/07 A2996 RMK AO2 SLP148 6//// T01060072 55003 PNO $=
201105280153 METAR KCLM 280153Z AUTO 28003KT 10SM FEW011 BKN045 OVC110 10/07 A2996 RMK AO2 SLP147 T01000072 PNO $=
201105280053 METAR KCLM 280053Z AUTO 29004KT 10SM BKN055 11/07 A2997 RMK AO2 RAE17 SLP148 T01060072 PNO $=
201105280009 SPECI KCLM 280009Z AUTO 31004KT 4SM -RA BR SCT028 BKN038 OVC045 09/07 A2997 RMK AO2 PNO $=
201105280009 SPECI KCLM 280009Z AUTO 31004KT 4SM -RA BR SCT028 BKN038 OVC045 09/07 A2997 RMK AO2 PNO $=
201105280002 SPECI KCLM 280002Z AUTO 30003KT 2 1/2SM RA BR BKN028 OVC040 09/07 A2997 RMK AO2 PNO $=
201105280002 SPECI KCLM 280002Z AUTO 30003KT 2 1/2SM RA BR BKN028 OVC040 09/07 A2997 RMK AO2 PNO $=
201105272353 METAR KCLM 272353Z AUTO 29004KT 6SM -RA OVC038 09/06 A2997 RMK AO2 RAB38 SLP151 6//// T00890061 10117 20089 51004 PNO $=
201105272253 METAR KCLM 272253Z AUTO VRB04KT 10SM SCT020 BKN042 12/07 A2997 RMK AO2 RAE2157 SLP149 T01170072 PNO $=
201105272230 SPECI KCLM 272230Z AUTO 35003KT 10SM BKN015 BKN022 OVC055 10/07 A2997 RMK AO2 RAE2157 PNO $=
201105272230 SPECI KCLM 272230Z AUTO 35003KT 10SM BKN015 BKN022 OVC055 10/07 A2997 RMK AO2 RAE2157 PNO $=
201105272153 METAR KCLM 272153Z AUTO 02003KT 10SM -RA FEW029 BKN040 OVC048 09/07 A2997 RMK AO2 SLP150 T00940072 PNO $=
201105272124 SPECI KCLM 272124Z AUTO 00000KT 9SM -RA SCT022 BKN042 OVC050 10/07 A2997 RMK AO2 TSNO PNO $=
201105272124 SPECI KCLM 272124Z AUTO 00000KT 9SM -RA SCT022 BKN042 OVC050 10/07 A2997 RMK AO2 TSNO PNO $=
201105272053 METAR KCLM 272053Z AUTO 08003KT 4SM -RA BKN026 OVC040 09/06 A2996 RMK AO2 SLP147 6//// T00940061 51018 PNO $=
201105271953 METAR KCLM 271953Z AUTO 00000KT 5SM -RA FEW009 BKN037 OVC048 10/06 A2995 RMK AO2 SLP142 T01000061 PNO $=
201105271934 SPECI KCLM 271934Z AUTO 00000KT 10SM FEW009 BKN034 OVC050 10/06 A2994 RMK AO2 RAE33 PNO $=
201105271934 SPECI KCLM 271934Z AUTO 00000KT 10SM FEW009 BKN034 OVC050 10/06 A2994 RMK AO2 RAE33 PNO $=
201105271853 METAR KCLM 271853Z AUTO 06003KT 9SM -RA FEW021 BKN034 OVC041 09/07 A2993 RMK AO2 RAB18 SLP137 T00940072 PNO $=
201105271843 SPECI KCLM 271843Z AUTO 36003KT 7SM -RA FEW015 SCT023 OVC038 09/07 A2993 RMK AO2 RAB18 PNO $=
201105271843 SPECI KCLM 271843Z AUTO 36003KT 7SM -RA FEW015 SCT023 OVC038 09/07 A2993 RMK AO2 RAB18 PNO $=
201105271834 SPECI KCLM 271834Z AUTO 00000KT 2SM RA BR BKN017 BKN026 OVC038 09/07 A2993 RMK AO2 RAB18 PNO $=
201105271834 SPECI KCLM 271834Z AUTO 00000KT 2SM RA BR BKN017 BKN026 OVC038 09/07 A2993 RMK AO2 RAB18 PNO $=
201105271753 METAR KCLM 271753Z AUTO VRB04KT 10SM OVC019 11/06 A2991 RMK AO2 RAB26E39 SLP129 P0000 60000 T01060056 10111 20078 53012=
201105271735 SPECI KCLM 271735Z AUTO VRB04KT 10SM -RA BKN019 OVC040 10/06 A2990 RMK AO2 RAB26 P0000=
201105271735 SPECI KCLM 271735Z AUTO VRB04KT 10SM -RA BKN019 OVC040 10/06 A2990 RMK AO2 RAB26 P0000=
201105271720 SPECI KCLM 271720Z AUTO 03004KT 10SM SCT019 SCT024 BKN040 11/06 A2990 RMK AO2=
201105271720 SPECI KCLM 271720Z AUTO 03004KT 10SM SCT019 SCT024 BKN040 11/06 A2990 RMK AO2=
201105271653 METAR KCLM 271653Z AUTO VRB03KT 10SM BKN019 OVC044 11/06 A2990 RMK AO2 SLP124 T01060061=
201105271646 SPECI KCLM 271646Z AUTO 34005KT 10SM BKN019 OVC044 11/06 A2989 RMK AO2=
201105271646 SPECI KCLM 271646Z AUTO 34005KT 10SM BKN019 OVC044 11/06 A2989 RMK AO2=
201105271603 SPECI KCLM 271603Z AUTO 01003KT 10SM FEW018 SCT024 BKN060 10/06 A2988 RMK AO2=
201105271603 SPECI KCLM 271603Z AUTO 01003KT 10SM FEW018 SCT024 BKN060 10/06 A2988 RMK AO2=
201105271553 METAR KCLM 271553Z AUTO 00000KT 10SM SCT018 BKN024 BKN060 10/06 A2988 RMK AO2 SLP118 T01000061=
201105271549 SPECI KCLM 271549Z AUTO 00000KT 10SM SCT018 SCT024 BKN060 10/06 A2988 RMK AO2=
201105271549 SPECI KCLM 271549Z AUTO 00000KT 10SM SCT018 SCT024 BKN060 10/06 A2988 RMK AO2=
201105271536 SPECI KCLM 271536Z AUTO 05003KT 10SM BKN018 BKN026 OVC060 10/06 A2987 RMK AO2=
201105271536 SPECI KCLM 271536Z AUTO 05003KT 10SM BKN018 BKN026 OVC060 10/06 A2987 RMK AO2=
201105271453 METAR KCLM 271453Z AUTO 00000KT 10SM CLR 10/06 A2985 RMK AO2 SLP109 60000 T01000061 53012=
201105271353 METAR KCLM 271353Z AUTO 24004KT 10SM SCT110 08/06 A2984 RMK AO2 SLP105 T00830061=
201105271303 SPECI KCLM 271303Z AUTO 00000KT 10SM FEW007 BKN085 OVC110 08/06 A2982 RMK AO2=
201105271303 SPECI KCLM 271303Z AUTO 00000KT 10SM FEW007 BKN085 OVC110 08/06 A2982 RMK AO2=
201105271253 METAR KCLM 271253Z AUTO 26005KT 10SM BKN085 OVC100 08/06 A2982 RMK AO2 RAE17 SLP098 P0000 T00780061=
201105271153 METAR KCLM 271153Z AUTO 26003KT 10SM -RA BKN038 BKN047 OVC060 08/07 A2981 RMK AO2 SLP096 P0000 60000 T00830067 10083 20061 53003=
201105271053 METAR KCLM 271053Z AUTO 31004KT 10SM -RA BKN046 OVC060 08/06 A2981 RMK AO2 SLP094 P0000 T00780061=
201105270953 METAR KCLM 270953Z AUTO 25005KT 10SM -RA OVC048 08/06 A2980 RMK AO2 RAB37 SLP093 P0000 T00830061=
201105270853 METAR KCLM 270853Z AUTO 00000KT 10SM BKN035 BKN070 OVC110 08/05 A2981 RMK AO2 SLP094 T00780050 58010=
201105270753 METAR KCLM 270753Z AUTO 24004KT 10SM BKN035 OVC120 08/05 A2982 RMK AO2 SLP098 T00830050 401390050=
201105270653 METAR KCLM 270653Z AUTO 00000KT 10SM OVC110 07/04 A2983 RMK AO2 SLP101 T00670044=
201105270553 METAR KCLM 270553Z AUTO 00000KT 10SM BKN110 07/04 A2984 RMK AO2 SLP104 T00720044 10133 20067 56008=
201105270453 METAR KCLM 270453Z AUTO 00000KT 10SM BKN070 BKN080 OVC100 08/05 A2985 RMK AO2 SLP107 T00830050=
201105270353 METAR KCLM 270353Z AUTO 00000KT 10SM SCT070 OVC100 10/04 A2985 RMK AO2 SLP109 T01000044=
201105270253 METAR KCLM 270253Z AUTO 00000KT 10SM SCT070 BKN090 11/04 A2986 RMK AO2 SLP113 T01110039 58010=
201105270153 METAR KCLM 270153Z AUTO 00000KT 10SM OVC060 13/03 A2988 RMK AO2 SLP118 T01280028=
201105270053 METAR KCLM 270053Z AUTO 08005KT 10SM SCT055 BKN075 BKN090 13/02 A2989 RMK AO2 SLP121 T01280022=
201105262353 METAR KCLM 262353Z AUTO 09006KT 10SM BKN070 13/02 A2989 RMK AO2 SLP123 60000 T01280022 10139 20100 58010=
201105262253 METAR KCLM 262253Z AUTO 11007KT 10SM CLR 13/03 A2990 RMK AO2 SLP126 T01330033=
201105262153 METAR KCLM 262153Z AUTO 08003KT 10SM SCT034 BKN046 OVC100 12/04 A2992 RMK AO2 RAB38E53 SLP131 P0000 T01220039=
201105262053 METAR KCLM 262053Z AUTO 05004KT 10SM BKN049 BKN085 12/04 A2992 RMK AO2 SLP133 T01170044 55001=
201105261953 METAR KCLM 261953Z AUTO 02004KT 10SM FEW080 12/05 A2992 RMK AO2 SLP132 T01170050=
201105261853 METAR KCLM 261853Z AUTO 08005KT 10SM CLR 11/06 A2992 RMK AO2 SLP133 T01110061=
201105261753 METAR KCLM 261753Z AUTO 06005KT 10SM OVC042 10/06 A2993 RMK AO2 SLP134 T01000056 10111 20050 53003=
201105261653 METAR KCLM 261653Z AUTO 02006KT 10SM SCT039 10/06 A2992 RMK AO2 SLP131 T01000061=
201105261553 METAR KCLM 261553Z AUTO 03003KT 10SM CLR 10/06 A2992 RMK AO2 SLP131 T01000056=
201105261535 SPECI KCLM 261535Z AUTO VRB03KT 10SM SCT013 10/06 A2992 RMK AO2=
201105261535 SPECI KCLM 261535Z AUTO VRB03KT 10SM SCT013 10/06 A2992 RMK AO2=
201105261512 SPECI KCLM 261512Z AUTO 09004KT 10SM BKN013 10/06 A2991 RMK AO2=
201105261512 SPECI KCLM 261512Z AUTO 09004KT 10SM BKN013 10/06 A2991 RMK AO2=
201105261453 SPECI KCLM 261453Z AUTO 00000KT 10SM FEW015 09/06 A2992 RMK AO2 SLP131 T00940056 51003=
201105261353 METAR KCLM 261353Z AUTO 00000KT 10SM FEW020 07/04 A2991 RMK AO2 SLP131 T00670039=
201105261348 SPECI KCLM 261348Z AUTO 00000KT 10SM SCT020 SCT100 06/04 A2991 RMK AO2=
201105261348 SPECI KCLM 261348Z AUTO 00000KT 10SM SCT020 SCT100 06/04 A2991 RMK AO2=
201105261336 SPECI KCLM 261336Z AUTO 00000KT 10SM BKN020 06/04 A2991 RMK AO2=
201105261336 SPECI KCLM 261336Z AUTO 00000KT 10SM BKN020 06/04 A2991 RMK AO2=
201105261253 METAR KCLM 261253Z AUTO 00000KT 10SM CLR 05/02 A2991 RMK AO2 SLP129 T00500022=
201105261153 METAR KCLM 261153Z AUTO 00000KT 10SM CLR 07/02 A2990 RMK AO2 SLP125 T00670022 10100 20067 51014=
201105261053 METAR KCLM 261053Z AUTO 27004KT 10SM CLR 07/02 A2989 RMK AO2 SLP123 T00720022=
201105260953 METAR KCLM 260953Z AUTO 30008KT 10SM CLR 08/02 A2987 RMK AO2 SLP114 T00780022=
201105260853 METAR KCLM 260853Z AUTO 29012KT 250V310 10SM FEW055 09/04 A2985 RMK AO2 SLP110 T00890039 51008=
201105260753 METAR KCLM 260753Z AUTO 26009KT 10SM FEW055 09/06 A2984 RMK AO2 SLP107 T00890061 401390089=
201105260653 METAR KCLM 260653Z AUTO 32003KT 10SM FEW012 SCT026 BKN031 09/08 A2984 RMK AO2 SLP106 T00940078=
201105260625 SPECI KCLM 260625Z AUTO 00000KT 10SM FEW014 SCT018 SCT025 09/08 A2984 RMK AO2=
201105260625 SPECI KCLM 260625Z AUTO 00000KT 10SM FEW014 SCT018 SCT025 09/08 A2984 RMK AO2=
201105260611 SPECI KCLM 260611Z AUTO 00000KT 10SM BKN014 OVC023 10/08 A2984 RMK AO2=
201105260611 SPECI KCLM 260611Z AUTO 00000KT 10SM BKN014 OVC023 10/08 A2984 RMK AO2=
201105260553 METAR KCLM 260553Z AUTO 00000KT 10SM OVC016 10/08 A2983 RMK AO2 SLP102 60000 T01000083 10106 20100 53014=
201105260544 SPECI KCLM 260544Z AUTO 00000KT 10SM BKN016 OVC080 11/08 A2983 RMK AO2=
201105260544 SPECI KCLM 260544Z AUTO 00000KT 10SM BKN016 OVC080 11/08 A2983 RMK AO2=
201105260512 SPECI KCLM 260512Z AUTO 00000KT 10SM SCT021 BKN075 OVC110 11/09 A2982 RMK AO2=
201105260512 SPECI KCLM 260512Z AUTO 00000KT 10SM SCT021 BKN075 OVC110 11/09 A2982 RMK AO2=
201105260453 METAR KCLM 260453Z AUTO 00000KT 10SM BKN021 OVC110 11/09 A2982 RMK AO2 RAB15E25 SLP097 P0000 T01060089=
201105260353 METAR KCLM 260353Z AUTO 00000KT 10SM OVC022 11/09 A2980 RMK AO2 SLP091 T01060089=
201105260301 SPECI KCLM 260301Z AUTO 00000KT 10SM FEW018 BKN028 OVC100 11/09 A2979 RMK AO2=
201105260301 SPECI KCLM 260301Z AUTO 00000KT 10SM FEW018 BKN028 OVC100 11/09 A2979 RMK AO2=
201105260253 METAR KCLM 260253Z AUTO 00000KT 10SM SCT018 SCT026 OVC100 11/08 A2979 RMK AO2 RAB03E19 SLP088 P0000 60000 T01060083 51007=
201105260205 SPECI KCLM 260205Z AUTO 00000KT 10SM -RA FEW013 BKN037 OVC055 11/09 A2978 RMK AO2 RAB03 P0000=
201105260205 SPECI KCLM 260205Z AUTO 00000KT 10SM -RA FEW013 BKN037 OVC055 11/09 A2978 RMK AO2 RAB03 P0000=
201105260153 METAR KCLM 260153Z AUTO 00000KT 10SM BKN011 BKN038 OVC060 11/09 A2979 RMK AO2 SLP087 T01060089=
201105260137 SPECI KCLM 260137Z AUTO 28003KT 10SM OVC011 11/09 A2978 RMK AO2=
201105260137 SPECI KCLM 260137Z AUTO 28003KT 10SM OVC011 11/09 A2978 RMK AO2=
201105260053 METAR KCLM 260053Z AUTO 30005KT 10SM OVC007 11/09 A2977 RMK AO2 RAE02 CIG 004V010 SLP083 P0000 T01060089=
201105260040 SPECI KCLM 260040Z AUTO 30003KT 10SM OVC005 11/09 A2977 RMK AO2 RAE02 CIG 003V009 P0000=
201105260040 SPECI KCLM 260040Z AUTO 30003KT 10SM OVC005 11/09 A2977 RMK AO2 RAE02 CIG 003V009 P0000=
201105252353 METAR KCLM 252353Z AUTO 00000KT 10SM -RA OVC003 11/09 A2976 RMK AO2 SLP080 P0000 60000 T01060089 10139 20100 58003=
201105252344 SPECI KCLM 252344Z AUTO 00000KT 7SM -RA BKN003 OVC020 10/09 A2977 RMK AO2 P0000=
201105252344 SPECI KCLM 252344Z AUTO 00000KT 7SM -RA BKN003 OVC020 10/09 A2977 RMK AO2 P0000=
201105252335 SPECI KCLM 252335Z AUTO VRB03KT 5SM -RA BR SCT003 BKN018 OVC023 10/09 A2977 RMK AO2 P0000=
201105252335 SPECI KCLM 252335Z AUTO VRB03KT 5SM -RA BR SCT003 BKN018 OVC023 10/09 A2977 RMK AO2 P0000=
201105252253 METAR KCLM 252253Z AUTO 31005KT 10SM -RA OVC024 11/09 A2978 RMK AO2 RAB31 SLP085 P0000 T01060089=
201105252153 METAR KCLM 252153Z AUTO 03004KT 10SM OVC026 12/08 A2978 RMK AO2 SLP084 T01170083=
201105252053 METAR KCLM 252053Z AUTO 09004KT 10SM OVC026 13/08 A2977 RMK AO2 SLP083 T01330078 56007=
201105252028 SPECI KCLM 252028Z AUTO 10005KT 10SM OVC028 13/08 A2977 RMK AO2=
201105252028 SPECI KCLM 252028Z AUTO 10005KT 10SM OVC028 13/08 A2977 RMK AO2=
201105251953 METAR KCLM 251953Z AUTO 08007KT 10SM BKN032 13/08 A2978 RMK AO2 SLP084 T01280078=
201105251853 METAR KCLM 251853Z AUTO 10007KT 10SM FEW021 SCT031 13/08 A2978 RMK AO2 SLP085 T01330078=
201105251753 METAR KCLM 251753Z AUTO 14005KT 10SM CLR 12/08 A2979 RMK AO2 SLP089 T01220078 10128 20094 56012=
201105251653 METAR KCLM 251653Z AUTO 11003KT 10SM FEW048 12/08 A2981 RMK AO2 SLP094 T01170078=
201105251623 SPECI KCLM 251623Z AUTO 14003KT 10SM SCT022 11/07 A2982 RMK AO2=
201105251623 SPECI KCLM 251623Z AUTO 14003KT 10SM SCT022 11/07 A2982 RMK AO2=
201105251601 SPECI KCLM 251601Z AUTO 00000KT 10SM BKN022 BKN095 11/08 A2981 RMK AO2=
201105251601 SPECI KCLM 251601Z AUTO 00000KT 10SM BKN022 BKN095 11/08 A2981 RMK AO2=
201105251553 METAR KCLM 251553Z AUTO 00000KT 10SM SCT022 BKN095 11/08 A2982 RMK AO2 SLP097 T01060078=
201105251453 METAR KCLM 251453Z AUTO 00000KT 10SM SCT100 11/08 A2983 RMK AO2 SLP102 T01060078 58019=
201105251353 METAR KCLM 251353Z AUTO 00000KT 10SM FEW100 10/07 A2985 RMK AO2 SLP109 T01000067=
201105251253 METAR KCLM 251253Z AUTO 23003KT 10SM FEW080 SCT100 10/07 A2987 RMK AO2 SLP115 T01000067=
201105251153 METAR KCLM 251153Z AUTO 00000KT 10SM OVC090 10/07 A2989 RMK AO2 SLP121 T01000067 10106 20094 58014=
201105251053 METAR KCLM 251053Z AUTO 22003KT 10SM OVC100 11/07 A2990 RMK AO2 SLP126 T01060067=
201105250953 METAR KCLM 250953Z AUTO 25003KT 10SM OVC120 10/07 A2992 RMK AO2 SLP131 T01000072=
201105250853 METAR KCLM 250853Z AUTO 00000KT 10SM OVC120 10/08 A2993 RMK AO2 SLP135 T01000078 58016=
201105250753 METAR KCLM 250753Z AUTO 00000KT 10SM BKN120 10/08 A2995 RMK AO2 SLP143 T01000078 401560056=
201105250653 METAR KCLM 250653Z AUTO 00000KT 10SM CLR 11/08 A2996 RMK AO2 SLP146 T01060078=
201105250553 METAR KCLM 250553Z AUTO 24004KT 10SM FEW120 11/08 A2998 RMK AO2 SLP152 T01060078 10150 20100 56006=
201105250453 METAR KCLM 250453Z AUTO 16003KT 10SM CLR 11/07 A2998 RMK AO2 SLP154 T01110067=
201105250353 METAR KCLM 250353Z AUTO 00000KT 10SM BKN036 12/08 A2999 RMK AO2 SLP155 T01170078=
201105250253 METAR KCLM 250253Z AUTO 00000KT 10SM OVC032 12/06 A3000 RMK AO2 SLP158 T01220061 56010=
201105250153 METAR KCLM 250153Z AUTO 01003KT 10SM FEW100 13/07 A3000 RMK AO2 SLP159 T01280072=
201105250053 METAR KCLM 250053Z AUTO 04005KT 10SM FEW075 14/05 A3001 RMK AO2 SLP163 T01440050=
201105242353 METAR KCLM 242353Z AUTO VRB03KT 10SM FEW075 14/05 A3003 RMK AO2 SLP169 T01440050 10156 20117 56010=
201105242253 METAR KCLM 242253Z AUTO 08006KT 10SM CLR 14/07 A3003 RMK AO2 SLP170 T01440067=
201105242153 METAR KCLM 242153Z AUTO VRB05KT 10SM FEW080 15/06 A3005 RMK AO2 SLP175 T01500056=
201105242053 METAR KCLM 242053Z AUTO 07005KT 10SM SCT080 14/06 A3006 RMK AO2 SLP179 T01440056 58003=
201105241953 METAR KCLM 241953Z AUTO 09006KT 10SM SCT060 14/06 A3006 RMK AO2 SLP181 T01390061=
201105241853 METAR KCLM 241853Z AUTO 02005KT 10SM SCT065 12/05 A3007 RMK AO2 SLP183 T01220050=
201105241753 METAR KCLM 241753Z AUTO VRB06KT 10SM FEW100 12/05 A3007 RMK AO2 SLP183 T01220050 10122 20061 55003=
201105241715 SPECI KCLM 241715Z AUTO 35007KT 10SM SCT023 12/05 A3006 RMK AO2=
201105241715 SPECI KCLM 241715Z AUTO 35007KT 10SM SCT023 12/05 A3006 RMK AO2=
201105241653 METAR KCLM 241653Z AUTO VRB04KT 10SM OVC021 11/06 A3007 RMK AO2 SLP182 T01110056=
201105241604 SPECI KCLM 241604Z AUTO 33005KT 10SM BKN021 11/06 A3007 RMK AO2=
201105241604 SPECI KCLM 241604Z AUTO 33005KT 10SM BKN021 11/06 A3007 RMK AO2=
201105241553 METAR KCLM 241553Z AUTO 00000KT 10SM SCT021 11/06 A3007 RMK AO2 SLP183 T01060056=
201105241453 METAR KCLM 241453Z AUTO 26004KT 10SM CLR 09/06 A3008 RMK AO2 SLP186 T00940056 51003=
201105241353 METAR KCLM 241353Z AUTO 25006KT 10SM CLR 08/05 A3007 RMK AO2 SLP185 T00780050=
201105241253 METAR KCLM 241253Z AUTO 24006KT 10SM CLR 06/04 A3007 RMK AO2 SLP184 T00610039=
201105241153 METAR KCLM 241153Z AUTO 26006KT 10SM CLR 06/04 A3007 RMK AO2 SLP183 T00610039 10083 20056 58000=
201105241053 METAR KCLM 241053Z AUTO 25004KT 10SM CLR 07/04 A3008 RMK AO2 SLP185 T00670044=
201105240953 METAR KCLM 240953Z AUTO 24004KT 10SM CLR 07/05 A3006 RMK AO2 SLP181 T00670050=
201105240853 METAR KCLM 240853Z AUTO 26005KT 10SM CLR 07/06 A3007 RMK AO2 SLP183 T00720056 58006=
201105240753 METAR KCLM 240753Z AUTO 26005KT 10SM CLR 08/06 A3009 RMK AO2 SLP189 T00780056 401440039=
201105240653 METAR KCLM 240653Z AUTO 25006KT 10SM CLR 08/06 A3008 RMK AO2 SLP186 T00780056=
201105240553 METAR KCLM 240553Z AUTO 26004KT 10SM CLR 08/06 A3009 RMK AO2 SLP189 T00830061 10139 20083 50003=
201105240453 METAR KCLM 240453Z AUTO 27006KT 10SM CLR 09/06 A3009 RMK AO2 SLP191 T00890061=
201105240353 METAR KCLM 240353Z AUTO 29005KT 10SM CLR 09/06 A3008 RMK AO2 SLP188 T00940061=
201105240253 METAR KCLM 240253Z AUTO 31006KT 10SM CLR 11/06 A3008 RMK AO2 SLP186 T01110061 51001=
201105240153 METAR KCLM 240153Z AUTO 31008KT 10SM FEW048 12/06 A3008 RMK AO2 SLP185 T01220056=
201105240053 METAR KCLM 240053Z AUTO 31009G15KT 10SM SCT090 13/06 A3008 RMK AO2 SLP186 T01330056=
201105232353 METAR KCLM 232353Z AUTO 32007KT 10SM OVC095 13/06 A3007 RMK AO2 SLP185 T01280061 10144 20117 56007=
201105232253 METAR KCLM 232253Z AUTO 33009KT 10SM BKN090 13/06 A3008 RMK AO2 SLP185 T01330061=
201105232153 METAR KCLM 232153Z AUTO 29007KT 10SM BKN055 13/06 A3008 RMK AO2 SLP188 T01330061=
201105232053 METAR KCLM 232053Z AUTO 36006KT 10SM CLR 13/07 A3009 RMK AO2 SLP192 T01280067 53001=
201105231953 METAR KCLM 231953Z AUTO 36007KT 10SM CLR 12/07 A3009 RMK AO2 SLP189 T01220067=
201105231853 METAR KCLM 231853Z AUTO VRB06KT 10SM FEW100 12/06 A3009 RMK AO2 SLP190 T01220061=
201105231753 METAR KCLM 231753Z AUTO 32007KT 10SM FEW095 12/06 A3009 RMK AO2 SLP191 T01220056 10122 20044 51004=
201105231653 METAR KCLM 231653Z AUTO 33008KT 10SM FEW100 11/05 A3009 RMK AO2 SLP190 T01110050=
201105231553 METAR KCLM 231553Z AUTO 31005KT 10SM FEW100 11/05 A3009 RMK AO2 SLP190 T01060050=
201105231453 METAR KCLM 231453Z AUTO 24007KT 10SM BKN050 09/04 A3008 RMK AO2 SLP187 T00940044 50003=
201105231353 METAR KCLM 231353Z AUTO 24005KT 10SM BKN048 08/04 A3008 RMK AO2 SLP188 T00780044=
201105231253 METAR KCLM 231253Z AUTO 25005KT 10SM SCT045 06/03 A3007 RMK AO2 SLP184 T00560033=
201105231153 METAR KCLM 231153Z AUTO 25004KT 10SM BKN043 BKN095 05/03 A3007 RMK AO2 SLP184 T00500033 10078 20039 58004=
201105231053 METAR KCLM 231053Z AUTO 23006KT 10SM SCT034 SCT110 05/03 A3008 RMK AO2 SLP185 T00500033=
201105230953 METAR KCLM 230953Z AUTO 00000KT 10SM OVC120 06/03 A3008 RMK AO2 SLP188 T00560033=
201105230853 METAR KCLM 230853Z AUTO 00000KT 10SM OVC120 06/04 A3008 RMK AO2 SLP187 T00560039 58002=
201105230753 METAR KCLM 230753Z AUTO 24003KT 10SM FEW032 OVC110 07/04 A3008 RMK AO2 SLP188 T00670044 401110056=
201105230653 METAR KCLM 230653Z AUTO 00000KT 10SM OVC110 07/04 A3009 RMK AO2 SLP189 T00720044=
201105230553 METAR KCLM 230553Z AUTO 27005KT 10SM OVC110 08/04 A3009 RMK AO2 SLP190 T00780044 10106 20078 53004=
201105230453 METAR KCLM 230453Z AUTO 28007KT 10SM SCT039 OVC110 08/04 A3009 RMK AO2 SLP189 T00830039=
201105230353 METAR KCLM 230353Z AUTO 28009KT 10SM BKN042 OVC120 09/04 A3008 RMK AO2 SLP185 T00890039=
201105230253 METAR KCLM 230253Z AUTO 28009KT 10SM OVC040 09/04 A3008 RMK AO2 SLP185 T00940039 55002=
201105230153 METAR KCLM 230153Z AUTO 28012KT 10SM OVC042 11/04 A3007 RMK AO2 SLP185 T01060044=
201105230053 METAR KCLM 230053Z AUTO 30006KT 10SM OVC034 11/04 A3008 RMK AO2 SLP186 T01060039=
201105222353 METAR KCLM 222353Z AUTO 32006KT 10SM OVC032 11/04 A3008 RMK AO2 SLP188 T01060039 10111 20100 58001=
201105222319 SPECI KCLM 222319Z AUTO 30006KT 10SM OVC030 11/05 A3009 RMK AO2=
201105222319 SPECI KCLM 222319Z AUTO 30006KT 10SM OVC030 11/05 A3009 RMK AO2=
201105222308 SPECI KCLM 222308Z AUTO 29006KT 10SM OVC028 11/05 A3009 RMK AO2=
201105222308 SPECI KCLM 222308Z AUTO 29006KT 10SM OVC028 11/05 A3009 RMK AO2=
201105222253 METAR KCLM 222253Z AUTO 28008KT 10SM OVC030 11/05 A3009 RMK AO2 SLP189 T01110050=
201105222153 METAR KCLM 222153Z AUTO 27007KT 10SM OVC030 11/05 A3009 RMK AO2 SLP190 T01110050=
201105222053 METAR KCLM 222053Z AUTO 29004KT 10SM OVC032 11/04 A3009 RMK AO2 SLP189 T01060039 51009=
201105221953 METAR KCLM 221953Z AUTO 32009KT 10SM OVC038 11/04 A3008 RMK AO2 SLP186 T01060044=
201105221853 METAR KCLM 221853Z AUTO 31009KT 10SM OVC038 11/05 A3007 RMK AO2 SLP185 T01060050=
201105221753 METAR KCLM 221753Z AUTO 31008KT 10SM OVC036 10/05 A3006 RMK AO2 SLP180 T01000050 10111 20083 53005=
201105221653 METAR KCLM 221653Z AUTO 31010KT 10SM SCT034 OVC048 11/06 A3005 RMK AO2 SLP177 T01060056=
201105221553 METAR KCLM 221553Z AUTO 28004KT 10SM OVC032 11/05 A3005 RMK AO2 SLP176 T01060050=
201105221453 METAR KCLM 221453Z AUTO 27005KT 10SM OVC036 09/04 A3004 RMK AO2 SLP175 T00940044 53002=
201105221353 METAR KCLM 221353Z AUTO 00000KT 10SM OVC038 09/05 A3004 RMK AO2 SLP174 T00890050=
201105221253 METAR KCLM 221253Z AUTO 26004KT 10SM OVC038 08/06 A3004 RMK AO2 SLP173 T00830056=
201105221153 METAR KCLM 221153Z AUTO 29007KT 10SM OVC036 08/05 A3004 RMK AO2 SLP173 60000 T00830050 10094 20078 56007=
201105221053 METAR KCLM 221053Z AUTO 27008KT 10SM OVC036 08/06 A3004 RMK AO2 SLP174 T00830056=
201105220953 METAR KCLM 220953Z AUTO 28007KT 10SM OVC044 08/06 A3005 RMK AO2 SLP177 T00830056=
201105220853 METAR KCLM 220853Z AUTO 27007KT 10SM OVC060 09/06 A3006 RMK AO2 RAE0757 SLP180 P0000 60000 T00890061 57004=
201105220753 METAR KCLM 220753Z AUTO 26008KT 10SM -RA OVC055 09/06 A3006 RMK AO2 RAB48 SLP181 P0000 T00890061 401220083=
201105220653 METAR KCLM 220653Z AUTO 26006KT 10SM FEW046 OVC060 09/07 A3007 RMK AO2 RAB11E20 SLP183 P0000 T00940067=
201105220609 SPECI KCLM 220609Z AUTO 24003KT 10SM SCT027 OVC060 09/07 A3007 RMK AO2=
201105220609 SPECI KCLM 220609Z AUTO 24003KT 10SM SCT027 OVC060 09/07 A3007 RMK AO2=
201105220553 METAR KCLM 220553Z AUTO 00000KT 10SM BKN025 OVC060 09/07 A3007 RMK AO2 RAB15E39 SLP184 P0000 60000 T00890072 10122 20083 58002=
201105220544 SPECI KCLM 220544Z AUTO 00000KT 10SM BKN025 OVC055 09/07 A3007 RMK AO2 RAB15E39 P0000=
201105220544 SPECI KCLM 220544Z AUTO 00000KT 10SM BKN025 OVC055 09/07 A3007 RMK AO2 RAB15E39 P0000=
201105220516 SPECI KCLM 220516Z AUTO 26004KT 10SM -RA SCT025 BKN039 OVC055 09/07 A3008 RMK AO2 RAB15 P0000=
201105220516 SPECI KCLM 220516Z AUTO 26004KT 10SM -RA SCT025 BKN039 OVC055 09/07 A3008 RMK AO2 RAB15 P0000=
201105220501 SPECI KCLM 220501Z AUTO 26006KT 10SM BKN025 BKN039 OVC047 09/07 A3008 RMK AO2=
201105220501 SPECI KCLM 220501Z AUTO 26006KT 10SM BKN025 BKN039 OVC047 09/07 A3008 RMK AO2=
201105220453 METAR KCLM 220453Z AUTO 26006KT 10SM SCT025 BKN039 OVC046 09/07 A3008 RMK AO2 RAE07 SLP186 P0000 T00940067=
201105220409 SPECI KCLM 220409Z AUTO 26008KT 10SM OVC031 09/06 A3008 RMK AO2 RAE07 P0000=
201105220409 SPECI KCLM 220409Z AUTO 26008KT 10SM OVC031 09/06 A3008 RMK AO2 RAE07 P0000=
201105220353 METAR KCLM 220353Z AUTO 26007KT 7SM -RA FEW007 BKN025 OVC029 08/07 A3008 RMK AO2 RAB36 SLP186 P0000 T00830067=
201105220345 SPECI KCLM 220345Z AUTO 27010KT 5SM -RA BR FEW007 BKN025 OVC029 08/07 A3008 RMK AO2 RAB36 P0000=
201105220345 SPECI KCLM 220345Z AUTO 27010KT 5SM -RA BR FEW007 BKN025 OVC029 08/07 A3008 RMK AO2 RAB36 P0000=
201105220253 METAR KCLM 220253Z AUTO 29010KT 10SM OVC007 10/08 A3008 RMK AO2 SLP186 T01000078 55002=
201105220231 SPECI KCLM 220231Z AUTO 30008KT 10SM BKN007 OVC035 11/08 A3007 RMK AO2 CIG 006V010=
201105220231 SPECI KCLM 220231Z AUTO 30008KT 10SM BKN007 OVC035 11/08 A3007 RMK AO2 CIG 006V010=
201105220220 SPECI KCLM 220220Z AUTO 32007KT 10SM SCT009 OVC035 11/08 A3007 RMK AO2=
201105220220 SPECI KCLM 220220Z AUTO 32007KT 10SM SCT009 OVC035 11/08 A3007 RMK AO2=
201105220153 METAR KCLM 220153Z AUTO 31005KT 10SM OVC037 12/08 A3007 RMK AO2 SLP184 T01170083=
201105220053 METAR KCLM 220053Z AUTO 31004KT 10SM OVC040 12/08 A3008 RMK AO2 SLP187 T01170083=
201105212353 METAR KCLM 212353Z AUTO 00000KT 10SM OVC038 12/08 A3008 RMK AO2 SLP188 T01170078 10122 20106 58005=
201105212253 METAR KCLM 212253Z AUTO 00000KT 10SM OVC042 12/08 A3009 RMK AO2 SLP190 T01170078=
201105212153 METAR KCLM 212153Z AUTO 00000KT 10SM OVC040 12/08 A3010 RMK AO2 SLP193 T01220083=
201105212053 METAR KCLM 212053Z AUTO 00000KT 10SM OVC046 12/08 A3010 RMK AO2 SLP194 T01220083 55000=
201105211953 METAR KCLM 211953Z AUTO 01003KT 10SM OVC050 11/07 A3010 RMK AO2 SLP193 T01110072=
201105211853 METAR KCLM 211853Z AUTO 01004KT 10SM OVC060 12/08 A3010 RMK AO2 SLP194 T01220083=
201105211753 METAR KCLM 211753Z AUTO 03003KT 10SM FEW009 OVC055 11/08 A3010 RMK AO2 SLP194 60000 T01110083 10117 20094 58001=
201105211714 SPECI KCLM 211714Z AUTO 00000KT 10SM SCT009 BKN060 OVC080 11/08 A3010 RMK AO2=
201105211714 SPECI KCLM 211714Z AUTO 00000KT 10SM SCT009 BKN060 OVC080 11/08 A3010 RMK AO2=
201105211653 METAR KCLM 211653Z AUTO 00000KT 10SM BKN009 OVC060 11/08 A3011 RMK AO2 RAE08 SLP196 P0000 T01060083=
201105211633 SPECI KCLM 211633Z AUTO 01003KT 10SM BKN009 OVC060 11/08 A3011 RMK AO2 RAE08 CIG 007V011 P0000=
201105211633 SPECI KCLM 211633Z AUTO 01003KT 10SM BKN009 OVC060 11/08 A3011 RMK AO2 RAE08 CIG 007V011 P0000=
201105211624 SPECI KCLM 211624Z AUTO 00000KT 10SM SCT009 BKN060 11/08 A3011 RMK AO2 RAE08 P0000=
201105211624 SPECI KCLM 211624Z AUTO 00000KT 10SM SCT009 BKN060 11/08 A3011 RMK AO2 RAE08 P0000=
201105211553 METAR KCLM 211553Z AUTO 00000KT 10SM -RA OVC055 11/07 A3011 RMK AO2 RAB50 SLP197 P0000 T01060067=
201105211453 METAR KCLM 211453Z AUTO 30003KT 10SM FEW060 BKN090 10/07 A3011 RMK AO2 RAE16 SLP195 P0000 60000 T01000072 58001=
201105211353 METAR KCLM 211353Z AUTO 00000KT 10SM -RA SCT039 OVC060 09/08 A3011 RMK AO2 RAB1258 SLP196 P0000 T00940078=
201105211253 METAR KCLM 211253Z AUTO 00000KT 10SM OVC060 09/07 A3011 RMK AO2 RAB07E43 SLP196 P0000 T00940067=
201105211153 METAR KCLM 211153Z AUTO 26004KT 10SM OVC060 09/06 A3011 RMK AO2 RAB11E32 SLP197 P0000 60000 T00940061 10122 20094 53001=
201105211053 METAR KCLM 211053Z AUTO 25004KT 10SM OVC070 11/04 A3011 RMK AO2 SLP195 T01060039=
201105210953 METAR KCLM 210953Z AUTO 28006KT 10SM BKN080 OVC095 11/03 A3010 RMK AO2 SLP194 T01110033=
201105210853 METAR KCLM 210853Z AUTO 29007KT 10SM OVC095 11/04 A3011 RMK AO2 SLP194 T01060039 55001=
201105210753 METAR KCLM 210753Z AUTO 28008KT 10SM OVC110 11/03 A3010 RMK AO2 SLP194 T01110028 401560083=
201105210653 METAR KCLM 210653Z AUTO 27009KT 10SM BKN110 11/02 A3011 RMK AO2 SLP195 T01110017=
201105210553 METAR KCLM 210553Z AUTO 28010KT 10SM CLR 11/02 A3011 RMK AO2 SLP197 T01060022 10144 20100 53006=
201105210453 METAR KCLM 210453Z AUTO 28010KT 10SM CLR 11/04 A3010 RMK AO2 SLP194 T01060039=
201105210353 METAR KCLM 210353Z AUTO 28010KT 10SM CLR 11/04 A3009 RMK AO2 SLP191 T01060044=
201105210253 METAR KCLM 210253Z AUTO 28013KT 10SM BKN080 12/04 A3009 RMK AO2 SLP191 T01170039 50001=
201105210153 METAR KCLM 210153Z AUTO 29016G23KT 10SM CLR 12/03 A3009 RMK AO2 SLP191 T01170033=
201105210053 METAR KCLM 210053Z AUTO 29014G22KT 10SM CLR 12/01 A3009 RMK AO2 SLP191 T01220011=
201105202353 METAR KCLM 202353Z AUTO 30010KT 10SM CLR 14/01 A3009 RMK AO2 SLP190 T01390006 10156 20128 56008=
201105202253 METAR KCLM 202253Z AUTO 31011KT 10SM CLR 15/03 A3009 RMK AO2 SLP192 T01500028=
201105202153 METAR KCLM 202153Z AUTO 31013G17KT 10SM CLR 15/04 A3010 RMK AO2 SLP194 T01500044=
201105202053 METAR KCLM 202053Z AUTO 30010KT 10SM CLR 14/08 A3011 RMK AO2 SLP197 T01440078 50001=
201105201953 METAR KCLM 201953Z AUTO 30009KT 10SM CLR 14/08 A3011 RMK AO2 SLP198 T01390078=
201105201853 METAR KCLM 201853Z AUTO 35006KT 10SM FEW100 14/06 A3012 RMK AO2 SLP200 T01390061=
201105201753 METAR KCLM 201753Z AUTO VRB04KT 10SM FEW100 13/08 A3011 RMK AO2 SLP197 T01330078 10133 20083 58002=
201105201653 METAR KCLM 201653Z AUTO 36005KT 10SM CLR 13/07 A3011 RMK AO2 SLP198 T01280072=
201105201553 METAR KCLM 201553Z AUTO 31005KT 10SM CLR 12/07 A3012 RMK AO2 SLP199 T01220067=
201105201453 METAR KCLM 201453Z AUTO 33004KT 10SM CLR 11/06 A3012 RMK AO2 SLP199 T01110061 51003=
201105201353 METAR KCLM 201353Z AUTO 25006KT 10SM CLR 09/02 A3012 RMK AO2 SLP199 T00940022=
201105201253 METAR KCLM 201253Z AUTO 28007KT 10SM CLR 09/02 A3011 RMK AO2 SLP198 T00890022=
201105201153 METAR KCLM 201153Z AUTO 29006KT 10SM CLR 09/03 A3011 RMK AO2 SLP196 T00890028 10106 20083 56001=
201105201053 METAR KCLM 201053Z AUTO 28013KT 10SM CLR 09/02 A3011 RMK AO2 SLP196 T00940022=
201105200953 METAR KCLM 200953Z AUTO 29010KT 10SM CLR 09/03 A3011 RMK AO2 SLP195 T00940028=
201105200853 METAR KCLM 200853Z AUTO 26010KT 10SM CLR 11/03 A3011 RMK AO2 SLP198 T01060028 58006=
201105200753 METAR KCLM 200753Z AUTO 26009KT 10SM CLR 11/03 A3012 RMK AO2 SLP199 T01060033 401610039=
201105200653 METAR KCLM 200653Z AUTO 26010KT 10SM CLR 11/04 A3012 RMK AO2 SLP202 T01060039=
201105200553 METAR KCLM 200553Z AUTO 28006KT 10SM CLR 09/04 A3013 RMK AO2 SLP204 T00940044 10150 20094 50001=
201105200453 METAR KCLM 200453Z AUTO 29008KT 10SM CLR 10/04 A3013 RMK AO2 SLP205 T01000039=
201105200353 METAR KCLM 200353Z AUTO 29009KT 10SM CLR 11/04 A3014 RMK AO2 SLP206 T01060039=
201105200253 METAR KCLM 200253Z AUTO 28011KT 10SM CLR 13/03 A3013 RMK AO2 SLP203 T01280033 56004=
201105200153 METAR KCLM 200153Z AUTO 29008KT 10SM CLR 14/03 A3013 RMK AO2 SLP203 T01440033=
201105200053 METAR KCLM 200053Z AUTO 32007KT 10SM CLR 15/02 A3013 RMK AO2 SLP205 T01500022=
201105192353 METAR KCLM 192353Z AUTO 34006KT 10SM CLR 14/04 A3014 RMK AO2 SLP208 T01440039 10161 20117 55003=
201105192253 METAR KCLM 192253Z AUTO 30006KT 10SM FEW100 15/04 A3014 RMK AO2 SLP207 T01500039=
201105192153 METAR KCLM 192153Z AUTO 01004KT 10SM FEW100 16/06 A3014 RMK AO2 SLP208 T01560061=
201105192053 METAR KCLM 192053Z AUTO 02005KT 10SM FEW100 13/05 A3015 RMK AO2 SLP211 T01330050 56006=
201105191953 METAR KCLM 191953Z AUTO 35003KT 10SM FEW100 16/01 A3015 RMK AO2 SLP211 T01560011=
201105191853 METAR KCLM 191853Z AUTO 01004KT 10SM CLR 13/05 A3017 RMK AO2 SLP216 T01280050=
201105191753 METAR KCLM 191753Z AUTO VRB04KT 10SM CLR 12/06 A3017 RMK AO2 SLP218 T01170061 10122 20039 53006=
201105191653 METAR KCLM 191653Z AUTO 36005KT 10SM CLR 11/06 A3017 RMK AO2 SLP216 T01110056=
201105191553 METAR KCLM 191553Z AUTO 30003KT 10SM CLR 12/02 A3016 RMK AO2 SLP213 T01220022=
201105191453 METAR KCLM 191453Z AUTO 23003KT 10SM CLR 09/03 A3015 RMK AO2 SLP212 T00940033 50006=
201105191353 METAR KCLM 191353Z AUTO 26006KT 10SM CLR 08/03 A3016 RMK AO2 SLP213 T00780028 TSNO=
201105191253 METAR KCLM 191253Z AUTO 26006KT 10SM CLR 07/02 A3015 RMK AO2 SLP209 T00720022=
201105191153 METAR KCLM 191153Z AUTO 24003KT 10SM CLR 04/02 A3014 RMK AO2 SLP206 T00440022 10100 20044 51010=
201105191053 METAR KCLM 191053Z AUTO 00000KT 10SM CLR 07/02 A3013 RMK AO2 SLP205 T00720022=
201105190953 METAR KCLM 190953Z AUTO 27012KT 10SM CLR 08/03 A3011 RMK AO2 SLP197 T00830028=
201105190853 METAR KCLM 190853Z AUTO 27012KT 10SM CLR 09/03 A3010 RMK AO2 SLP195 T00890028 50002=
201105190753 METAR KCLM 190753Z AUTO 27009KT 10SM CLR 10/03 A3011 RMK AO2 SLP196 T01000028 401720028=
201105190653 METAR KCLM 190653Z AUTO 26008KT 10SM CLR 08/03 A3010 RMK AO2 SLP194 T00830028=
201105190553 METAR KCLM 190553Z AUTO 29008KT 10SM CLR 08/04 A3010 RMK AO2 SLP193 T00830039 10144 20078 51017=
201105190453 METAR KCLM 190453Z AUTO 26006KT 10SM CLR 09/03 A3009 RMK AO2 SLP190 T00890033=
201105190353 METAR KCLM 190353Z AUTO 28006KT 10SM CLR 09/02 A3007 RMK AO2 SLP182 T00940017=
201105190253 METAR KCLM 190253Z AUTO 29008KT 10SM CLR 12/02 A3005 RMK AO2 SLP177 T01220022 53007=
201105190153 METAR KCLM 190153Z AUTO VRB05KT 10SM CLR 14/03 A3004 RMK AO2 SLP173 T01390033=
201105190053 METAR KCLM 190053Z AUTO 33006KT 10SM CLR 14/03 A3004 RMK AO2 SLP173 T01390028=
201105182353 METAR KCLM 182353Z AUTO 33007KT 10SM CLR 14/04 A3003 RMK AO2 SLP170 T01440039 10172 20122 53007=
201105182253 METAR KCLM 182253Z AUTO VRB03KT 10SM CLR 17/01 A3002 RMK AO2 SLP166 T01670006=
201105182153 METAR KCLM 182153Z AUTO 08003KT 10SM CLR 17/02 A3001 RMK AO2 SLP164 T01670022=
201105182053 METAR KCLM 182053Z AUTO 08006KT 10SM CLR 16/04 A3001 RMK AO2 SLP163 T01560044 51008=
201105181953 METAR KCLM 181953Z AUTO VRB05KT 10SM CLR 14/04 A3000 RMK AO2 SLP161 T01440039=
201105181853 METAR KCLM 181853Z AUTO 09007KT 10SM CLR 13/03 A3000 RMK AO2 SLP159 T01330033=
201105181753 METAR KCLM 181753Z AUTO 09008KT 10SM CLR 13/03 A2999 RMK AO2 SLP155 T01280028 10128 20028 53013=
201105181653 METAR KCLM 181653Z AUTO 09007KT 10SM CLR 12/03 A2997 RMK AO2 SLP150 T01220028=
201105181553 METAR KCLM 181553Z AUTO 00000KT 10SM CLR 12/02 A2996 RMK AO2 SLP144 T01220022=
201105181453 METAR KCLM 181453Z AUTO 00000KT 10SM CLR 10/01 A2995 RMK AO2 SLP142 T01000006 53017=
201105181353 METAR KCLM 181353Z AUTO 24003KT 10SM CLR 07/00 A2993 RMK AO2 SLP136 T00720000=
201105181253 METAR KCLM 181253Z AUTO 00000KT 10SM CLR 03/M01 A2992 RMK AO2 SLP131 T00331006=
201105181153 METAR KCLM 181153Z AUTO 24006KT 10SM CLR 04/M01 A2990 RMK AO2 SLP125 T00441006 10078 20028 51012=
201105181053 METAR KCLM 181053Z AUTO 24005KT 10SM CLR 03/00 A2989 RMK AO2 SLP123 T00330000=
201105180953 METAR KCLM 180953Z AUTO 25009KT 10SM CLR 06/M01 A2988 RMK AO2 SLP118 T00611006=
201105180853 METAR KCLM 180853Z AUTO 24009KT 10SM CLR 07/M01 A2986 RMK AO2 SLP113 T00671006 52009=
201105180753 METAR KCLM 180753Z AUTO 22006KT 10SM CLR 06/00 A2985 RMK AO2 SLP109 T00610000 401390039=
201105180653 METAR KCLM 180653Z AUTO 27003KT 10SM CLR 07/00 A2985 RMK AO2 SLP107 T00720000=
201105180553 METAR KCLM 180553Z AUTO 27006KT 10SM CLR 07/01 A2984 RMK AO2 SLP104 T00670006 10139 20056 53013=
201105180453 METAR KCLM 180453Z AUTO 25004KT 10SM CLR 06/03 A2982 RMK AO2 SLP100 T00610028=
201105180353 METAR KCLM 180353Z AUTO 00000KT 10SM CLR 09/03 A2981 RMK AO2 SLP094 T00940033=
201105180253 METAR KCLM 180253Z AUTO 00000KT 10SM CLR 12/01 A2980 RMK AO2 SLP091 T01220011 53002=
201105180153 METAR KCLM 180153Z AUTO 08004KT 10SM CLR 13/00 A2979 RMK AO2 SLP088 T01330000=
201105180053 METAR KCLM 180053Z AUTO 11004KT 10SM CLR 13/00 A2979 RMK AO2 SLP088 T01330000=
201105172353 METAR KCLM 172353Z AUTO 10007KT 10SM CLR 13/01 A2979 RMK AO2 SLP089 T01280011 10133 20094 58002=
201105172253 METAR KCLM 172253Z AUTO 07007KT 020V100 10SM CLR 13/03 A2979 RMK AO2 SLP089 T01280033=
201105172153 METAR KCLM 172153Z AUTO VRB06KT 10SM FEW100 13/05 A2980 RMK AO2 SLP091 T01280050=
201105172053 METAR KCLM 172053Z AUTO 07006KT 10SM FEW100 12/05 A2980 RMK AO2 SLP091 T01170050 50004=
201105171953 METAR KCLM 171953Z AUTO 06006KT 10SM FEW100 11/05 A2980 RMK AO2 SLP092 T01110050=
201105171853 METAR KCLM 171853Z AUTO 03005KT 10SM CLR 11/05 A2979 RMK AO2 SLP089 T01060050=
201105171753 METAR KCLM 171753Z AUTO 35005KT 10SM CLR 09/04 A2979 RMK AO2 SLP087 T00940044 10100 20044 56005=
201105171653 METAR KCLM 171653Z AUTO VRB05KT 10SM FEW100 09/04 A2979 RMK AO2 SLP089 T00890044=
201105171553 METAR KCLM 171553Z AUTO 00000KT 10SM CLR 09/03 A2979 RMK AO2 SLP089 T00940028=
201105171453 METAR KCLM 171453Z AUTO 25005KT 10SM CLR 07/02 A2980 RMK AO2 SLP092 T00720022 58007=
201105171353 METAR KCLM 171353Z AUTO 24008KT 10SM CLR 06/02 A2981 RMK AO2 SLP096 T00560017=
201105171253 METAR KCLM 171253Z AUTO 23004KT 10SM BKN040 04/02 A2981 RMK AO2 SLP097 T00440017=
201105171153 METAR KCLM 171153Z AUTO 25005KT 10SM SCT036 05/02 A2982 RMK AO2 SLP100 70003 T00500017 10072 20039 56009=
201105171053 METAR KCLM 171053Z AUTO 24007KT 10SM OVC036 06/03 A2983 RMK AO2 SLP103 T00610028=
201105170953 METAR KCLM 170953Z AUTO 25010KT 10SM BKN044 06/03 A2984 RMK AO2 SLP105 T00610033=
201105170853 METAR KCLM 170853Z AUTO 24004KT 10SM OVC045 06/04 A2985 RMK AO2 SLP108 T00610044 56013=
201105170753 METAR KCLM 170753Z AUTO 00000KT 10SM CLR 04/03 A2986 RMK AO2 SLP112 T00440033 401280044=
201105170653 METAR KCLM 170653Z AUTO 25004KT 10SM CLR 06/04 A2987 RMK AO2 SLP115 T00610044=
201105170553 METAR KCLM 170553Z AUTO 26005KT 10SM CLR 07/05 A2989 RMK AO2 SLP122 60001 T00720050 10100 20072 58003=
201105170527 SPECI KCLM 170527Z AUTO 25006KT 10SM SCT019 07/05 A2989 RMK AO2=
201105170527 SPECI KCLM 170527Z AUTO 25006KT 10SM SCT019 07/05 A2989 RMK AO2=
201105170453 METAR KCLM 170453Z AUTO 25006KT 10SM OVC017 08/06 A2990 RMK AO2 SLP126 T00780056=
201105170400 SPECI KCLM 170400Z AUTO 28007KT 10SM SCT011 OVC015 08/06 A2990 RMK AO2=
201105170400 SPECI KCLM 170400Z AUTO 28007KT 10SM SCT011 OVC015 08/06 A2990 RMK AO2=
201105170353 METAR KCLM 170353Z AUTO 27006KT 10SM BKN013 OVC018 08/06 A2990 RMK AO2 SLP124 T00830056=
201105170350 SPECI KCLM 170350Z AUTO 26006KT 10SM BKN013 OVC018 08/06 A2990 RMK AO2=
201105170350 SPECI KCLM 170350Z AUTO 26006KT 10SM BKN013 OVC018 08/06 A2990 RMK AO2=
201105170309 SPECI KCLM 170309Z AUTO 27006KT 10SM BKN015 BKN070 09/06 A2990 RMK AO2=
201105170309 SPECI KCLM 170309Z AUTO 27006KT 10SM BKN015 BKN070 09/06 A2990 RMK AO2=
201105170253 METAR KCLM 170253Z AUTO 28006KT 10SM SCT015 BKN075 09/06 A2990 RMK AO2 SLP126 60001 T00890056 58004=
201105170153 METAR KCLM 170153Z AUTO 29008KT 10SM FEW012 SCT023 BKN080 08/06 A2991 RMK AO2 SLP129 P0001 T00830056=
201105170126 SPECI KCLM 170126Z AUTO 29012KT 10SM SCT010 BKN041 OVC080 10/07 A2991 RMK AO2=
201105170126 SPECI KCLM 170126Z AUTO 29012KT 10SM SCT010 BKN041 OVC080 10/07 A2991 RMK AO2=
201105170109 SPECI KCLM 170109Z AUTO 30009KT 10SM SCT010 BKN023 OVC033 09/06 A2991 RMK AO2=
201105170109 SPECI KCLM 170109Z AUTO 30009KT 10SM SCT010 BKN023 OVC033 09/06 A2991 RMK AO2=
201105170053 METAR KCLM 170053Z AUTO 30010G16KT 10SM FEW015 SCT022 OVC032 09/06 A2992 RMK AO2 SLP131 T00940061=
201105170043 SPECI KCLM 170043Z AUTO 30012KT 10SM BKN022 BKN032 BKN055 09/06 A2992 RMK AO2=
201105170043 SPECI KCLM 170043Z AUTO 30012KT 10SM BKN022 BKN032 BKN055 09/06 A2992 RMK AO2=
201105170012 SPECI KCLM 170012Z AUTO 29008G16KT 10SM FEW021 BKN030 OVC048 10/06 A2991 RMK AO2=
201105170012 SPECI KCLM 170012Z AUTO 29008G16KT 10SM FEW021 BKN030 OVC048 10/06 A2991 RMK AO2=
201105162353 METAR KCLM 162353Z AUTO 30011G19KT 10SM FEW014 BKN025 OVC044 09/06 A2991 RMK AO2 SLP130 T00940061 10128 20094 51011=
201105162332 SPECI KCLM 162332Z AUTO 31011G17KT 10SM FEW014 BKN025 OVC044 09/06 A2991 RMK AO2=
201105162332 SPECI KCLM 162332Z AUTO 31011G17KT 10SM FEW014 BKN025 OVC044 09/06 A2991 RMK AO2=
201105162253 METAR KCLM 162253Z AUTO 30005KT 10SM SCT033 OVC047 09/06 A2991 RMK AO2 SLP129 T00940061=
201105162153 METAR KCLM 162153Z AUTO 32011G20KT 10SM BKN047 OVC060 10/06 A2990 RMK AO2 SLP124 T01000061=
201105162053 METAR KCLM 162053Z AUTO 32012G19KT 10SM FEW040 BKN049 OVC065 11/06 A2988 RMK AO2 SLP119 T01060061 51009=
201105161953 METAR KCLM 161953Z AUTO VRB04KT 10SM BKN048 BKN065 12/06 A2987 RMK AO2 SLP116 T01220061=
201105161853 METAR KCLM 161853Z AUTO 05003KT 10SM FEW020 BKN050 OVC060 11/07 A2986 RMK AO2 SLP113 T01110067=
201105161753 METAR KCLM 161753Z AUTO 03005KT 10SM SCT015 BKN038 OVC050 10/07 A2985 RMK AO2 SLP109 P0001 60002 T01000067 10106 20061 51006=
201105161748 SPECI KCLM 161748Z AUTO VRB03KT 10SM BKN015 OVC050 10/07 A2985 RMK AO2 P0001=
201105161748 SPECI KCLM 161748Z AUTO VRB03KT 10SM BKN015 OVC050 10/07 A2985 RMK AO2 P0001=
201105161653 METAR KCLM 161653Z AUTO 12005KT 10SM BKN060 BKN075 OVC090 10/07 A2985 RMK AO2 SLP108 T01000072=
201105161553 METAR KCLM 161553Z AUTO 13003KT 10SM OVC070 09/07 A2983 RMK AO2 SLP103 T00890067=
201105161453 METAR KCLM 161453Z AUTO 00000KT 10SM OVC075 08/06 A2982 RMK AO2 SLP097 60001 T00830061 52009=
201105161353 METAR KCLM 161353Z AUTO 00000KT 10SM OVC070 07/06 A2981 RMK AO2 SLP094 T00720061 $=
201105161253 METAR KCLM 161253Z AUTO 24003KT 10SM SCT060 OVC085 07/06 A2980 RMK AO2 SLP091 P0001 T00670056 $=
201105161153 METAR KCLM 161153Z AUTO 00000KT 10SM CLR 07/06 A2979 RMK AO2 SLP088 60001 70005 T00670056 10083 20067 53005 $=
201105161053 METAR KCLM 161053Z AUTO 00000KT 10SM SCT060 BKN095 07/06 A2978 RMK AO2 SLP085 T00720061 $=
201105160953 METAR KCLM 160953Z AUTO 14004KT 10SM OVC100 08/07 A2978 RMK AO2 SLP084 T00780067 $=
201105160853 METAR KCLM 160853Z AUTO 00000KT 10SM SCT017 OVC085 08/07 A2977 RMK AO2 SLP083 60001 T00830067 53002 $=
201105160801 SPECI KCLM 160801Z AUTO 00000KT 10SM BKN017 BKN022 OVC070 08/07 A2977 RMK AO2 $=
201105160801 SPECI KCLM 160801Z AUTO 00000KT 10SM BKN017 BKN022 OVC070 08/07 A2977 RMK AO2 $=
201105160753 METAR KCLM 160753Z AUTO 00000KT 10SM SCT017 BKN070 OVC100 08/07 A2977 RMK AO2 SLP082 P0001 T00830067 401060078 $=
201105160653 METAR KCLM 160653Z AUTO 00000KT 10SM FEW080 OVC090 08/07 A2976 RMK AO2 SLP080 T00830072 $=
201105160553 METAR KCLM 160553Z AUTO 00000KT 10SM OVC060 08/07 A2977 RMK AO2 SLP081 60001 T00830067 10100 20078 51021 $=
201105160526 SPECI KCLM 160526Z AUTO 00000KT 10SM FEW022 OVC060 09/07 A2976 RMK AO2 $=
201105160526 SPECI KCLM 160526Z AUTO 00000KT 10SM FEW022 OVC060 09/07 A2976 RMK AO2 $=
201105160453 METAR KCLM 160453Z AUTO 00000KT 10SM BKN020 OVC026 09/06 A2975 RMK AO2 SLP075 T00890061 $=
201105160433 SPECI KCLM 160433Z AUTO 00000KT 10SM BKN020 BKN025 OVC070 08/07 A2974 RMK AO2 $=
201105160433 SPECI KCLM 160433Z AUTO 00000KT 10SM BKN020 BKN025 OVC070 08/07 A2974 RMK AO2 $=
201105160353 METAR KCLM 160353Z AUTO 30005KT 10SM FEW022 BKN065 OVC085 08/06 A2972 RMK AO2 SLP066 T00830056 $=
201105160253 METAR KCLM 160253Z AUTO 29003KT 10SM BKN015 BKN070 OVC090 09/07 A2970 RMK AO2 SLP060 P0001 60001 T00940067 51020 $=
201105160153 METAR KCLM 160153Z AUTO 28003KT 10SM FEW060 OVC085 09/07 A2970 RMK AO2 SLP057 T00940067 $=
201105160053 METAR KCLM 160053Z AUTO 31010KT 10SM BKN080 OVC090 10/08 A2968 RMK AO2 SLP049 T01000078 $=
201105152353 METAR KCLM 152353Z AUTO 31008KT 10SM OVC065 09/08 A2965 RMK AO2 RAE13 SLP040 P0000 60001 T00940078 10100 20094 51024 $=
201105152253 METAR KCLM 152253Z AUTO 31007KT 10SM -RA SCT006 BKN031 OVC065 10/08 A2963 RMK AO2 SLP034 P0000 T01000083 $=
201105152250 SPECI KCLM 152250Z AUTO 30006KT 10SM -RA SCT006 BKN031 OVC050 10/09 A2963 RMK AO2 P0000 $=
201105152250 SPECI KCLM 152250Z AUTO 30006KT 10SM -RA SCT006 BKN031 OVC050 10/09 A2963 RMK AO2 P0000 $=
201105152153 METAR KCLM 152153Z AUTO 32005KT 10SM -RA OVC006 10/09 A2961 RMK AO2 CIG 004V009 SLP027 P0001 T01000089 $=
201105152053 METAR KCLM 152053Z AUTO 31007KT 10SM -RA OVC004 10/09 A2958 RMK AO2 RAB22 SLP016 P0000 60000 T01000089 53007 $=
201105151953 METAR KCLM 151953Z AUTO 33007KT 10SM OVC004 10/09 A2957 RMK AO2 RAE27 CIG 002V006 SLP013 P0000 T01000089 $=
201105151931 SPECI KCLM 151931Z AUTO 32006KT 10SM BKN004 OVC008 10/09 A2956 RMK AO2 RAE27 P0000 $=
201105151931 SPECI KCLM 151931Z AUTO 32006KT 10SM BKN004 OVC008 10/09 A2956 RMK AO2 RAE27 P0000 $=
201105151921 SPECI KCLM 151921Z AUTO 32006KT 10SM -RA SCT004 BKN008 OVC050 09/09 A2956 RMK AO2 P0000 $=
201105151921 SPECI KCLM 151921Z AUTO 32006KT 10SM -RA SCT004 BKN008 OVC050 09/09 A2956 RMK AO2 P0000 $=
201105151853 METAR KCLM 151853Z AUTO 31009KT 9SM -RA OVC004 09/08 A2956 RMK AO2 CIG 001V008 SLP010 P0000 T00940083 $=
201105151753 METAR KCLM 151753Z AUTO 29007KT 4SM -RA BR OVC004 10/09 A2955 RMK AO2 CIG 001V008 SLP009 P0000 60002 T01000089 10100 20094 58000 $=
201105151700 SPECI KCLM 151700Z AUTO 30003KT 6SM -RA BR BKN004 BKN021 OVC031 10/09 A2956 RMK AO2 P0000 $=
201105151700 SPECI KCLM 151700Z AUTO 30003KT 6SM -RA BR BKN004 BKN021 OVC031 10/09 A2956 RMK AO2 P0000 $=
201105151653 METAR KCLM 151653Z AUTO 27003KT 5SM -RA BR BKN006 BKN021 OVC031 10/09 A2956 RMK AO2 SLP010 P0001 T01000089 $=
201105151625 SPECI KCLM 151625Z AUTO 27009KT 8SM -RA SCT008 SCT014 OVC021 10/08 A2956 RMK AO2 P0000 $=
201105151625 SPECI KCLM 151625Z AUTO 27009KT 8SM -RA SCT008 SCT014 OVC021 10/08 A2956 RMK AO2 P0000 $=
201105151553 METAR KCLM 151553Z AUTO 23003KT 5SM -RA BR BKN006 OVC018 10/08 A2956 RMK AO2 SLP010 P0000 T01000083 $=
201105151545 SPECI KCLM 151545Z AUTO 24005KT 5SM -RA BR BKN008 OVC018 10/08 A2956 RMK AO2 P0000 $=
201105151545 SPECI KCLM 151545Z AUTO 24005KT 5SM -RA BR BKN008 OVC018 10/08 A2956 RMK AO2 P0000 $=
201105151533 SPECI KCLM 151533Z AUTO 26010KT 7SM -RA BKN018 BKN031 OVC041 10/08 A2955 RMK AO2 P0000 $=
201105151533 SPECI KCLM 151533Z AUTO 26010KT 7SM -RA BKN018 BKN031 OVC041 10/08 A2955 RMK AO2 P0000 $=
201105151524 SPECI KCLM 151524Z AUTO 28010KT 6SM -RA BR SCT020 BKN031 OVC055 10/08 A2955 RMK AO2 P0000 $=
201105151524 SPECI KCLM 151524Z AUTO 28010KT 6SM -RA BR SCT020 BKN031 OVC055 10/08 A2955 RMK AO2 P0000 $=
201105151453 METAR KCLM 151453Z AUTO 28007KT 6SM -RA BR FEW019 BKN027 OVC055 10/08 A2956 RMK AO2 SLP009 P0000 60001 T01000078 56009 $=
201105151450 SPECI KCLM 151450Z AUTO 26007KT 5SM -RA BR FEW019 BKN027 OVC039 10/08 A2956 RMK AO2 P0000 $=
201105151450 SPECI KCLM 151450Z AUTO 26007KT 5SM -RA BR FEW019 BKN027 OVC039 10/08 A2956 RMK AO2 P0000 $=
201105151353 METAR KCLM 151353Z AUTO 26004KT 10SM -RA SCT035 OVC050 10/09 A2957 RMK AO2 RAE19B37 SLP015 P0001 T01000089 $=
201105151323 SPECI KCLM 151323Z AUTO 25007KT 10SM FEW003 SCT008 OVC060 09/08 A2957 RMK AO2 RAE19 P0001 $=
201105151323 SPECI KCLM 151323Z AUTO 25007KT 10SM FEW003 SCT008 OVC060 09/08 A2957 RMK AO2 RAE19 P0001 $=
201105151312 SPECI KCLM 151312Z AUTO 28003KT 9SM -RA SCT003 BKN010 OVC060 09/09 A2958 RMK AO2 P0000 $=
201105151312 SPECI KCLM 151312Z AUTO 28003KT 9SM -RA SCT003 BKN010 OVC060 09/09 A2958 RMK AO2 P0000 $=
201105151308 SPECI KCLM 151308Z AUTO 27003KT 6SM -RA BR BKN003 OVC060 09/08 A2958 RMK AO2 CIG 002V007 P0000 $=
201105151308 SPECI KCLM 151308Z AUTO 27003KT 6SM -RA BR BKN003 OVC060 09/08 A2958 RMK AO2 CIG 002V007 P0000 $=
201105151300 SPECI KCLM 151300Z AUTO 00000KT 6SM -RA BR BKN005 OVC055 09/08 A2958 RMK AO2 CIG 002V007 P0000 $=
201105151300 SPECI KCLM 151300Z AUTO 00000KT 6SM -RA BR BKN005 OVC055 09/08 A2958 RMK AO2 CIG 002V007 P0000 $=
201105151253 METAR KCLM 151253Z AUTO 00000KT 10SM -RA BKN003 OVC050 09/09 A2958 RMK AO2 CIG 003V007 SLP017 P0000 T00940089 $=
201105151203 SPECI KCLM 151203Z AUTO 02004KT 10SM -RA FEW002 OVC049 10/08 A2960 RMK AO2 P0000 $=
201105151203 SPECI KCLM 151203Z AUTO 02004KT 10SM -RA FEW002 OVC049 10/08 A2960 RMK AO2 P0000 $=
201105151153 METAR KCLM 151153Z AUTO VRB04KT 10SM -RA OVC049 10/08 A2960 RMK AO2 SLP024 P0000 6//// 7//// T01000083 10106 20094 56019 $=
201105151053 METAR KCLM 151053Z AUTO 24009KT 10SM -RA OVC060 10/08 A2962 RMK AO2 SLP029 P0001 T01000083 $=
201105150953 METAR KCLM 150953Z AUTO 24003KT 7SM -RA OVC060 11/09 A2964 RMK AO2 SLP035 P0000 T01060094 $=
201105150920 SPECI KCLM 150920Z AUTO 00000KT 4SM -RA BR FEW003 SCT027 OVC065 10/09 A2965 RMK AO2 P0000 $=
201105150920 SPECI KCLM 150920Z AUTO 00000KT 4SM -RA BR FEW003 SCT027 OVC065 10/09 A2965 RMK AO2 P0000 $=
201105150853 METAR KCLM 150853Z AUTO 00000KT 10SM -RA OVC065 10/09 A2966 RMK AO2 SLP043 P0001 6//// T01000094 58014 $=
201105150753 METAR KCLM 150753Z AUTO 00000KT 3SM -RA BR FEW003 BKN055 OVC070 11/09 A2968 RMK AO2 SLP051 P0000 T01060094 401780083 $=
201105150748 SPECI KCLM 150748Z AUTO 00000KT 2 1/2SM -RA BR FEW003 BKN050 OVC065 10/09 A2968 RMK AO2 P0000 401780083 $=
201105150748 SPECI KCLM 150748Z AUTO 00000KT 2 1/2SM -RA BR FEW003 BKN050 OVC065 10/09 A2968 RMK AO2 P0000 401780083 $=
201105150739 SPECI KCLM 150739Z AUTO 00000KT 2 1/2SM -RA BR FEW035 OVC055 10/09 A2969 RMK AO2 P0000 $=
201105150739 SPECI KCLM 150739Z AUTO 00000KT 2 1/2SM -RA BR FEW035 OVC055 10/09 A2969 RMK AO2 P0000 $=
201105150715 SPECI KCLM 150715Z AUTO 00000KT 1SM -RA BR SCT031 OVC050 10/09 A2970 RMK AO2 P0000 $=
201105150715 SPECI KCLM 150715Z AUTO 00000KT 1SM -RA BR SCT031 OVC050 10/09 A2970 RMK AO2 P0000 $=
201105150710 SPECI KCLM 150710Z AUTO 00000KT 3/4SM -RA BR BKN028 OVC050 10/09 A2970 RMK AO2 P0000 $=
201105150710 SPECI KCLM 150710Z AUTO 00000KT 3/4SM -RA BR BKN028 OVC050 10/09 A2970 RMK AO2 P0000 $=
201105150707 SPECI KCLM 150707Z AUTO 00000KT 1SM -RA BR BKN030 BKN050 OVC070 10/09 A2970 RMK AO2 P0000 $=
201105150707 SPECI KCLM 150707Z AUTO 00000KT 1SM -RA BR BKN030 BKN050 OVC070 10/09 A2970 RMK AO2 P0000 $=
201105150653 METAR KCLM 150653Z AUTO 00000KT 2 1/2SM -RA BR BKN046 BKN055 OVC075 11/09 A2970 RMK AO2 SLP059 T01060094 $=
201105150608 SPECI KCLM 150608Z AUTO 25003KT 4SM -RA BR FEW044 OVC060 10/09 A2971 RMK AO2 PNO $=
201105150608 SPECI KCLM 150608Z AUTO 25003KT 4SM -RA BR FEW044 OVC060 10/09 A2971 RMK AO2 PNO $=
201105150553 METAR KCLM 150553Z AUTO 00000KT 2 1/2SM -RA BR FEW001 SCT027 OVC065 10/09 A2972 RMK AO2 SLP064 6//// T01000089 10167 20100 55001 PNO $=
201105150546 SPECI KCLM 150546Z AUTO 00000KT 2 1/2SM -RA BR FEW001 SCT029 OVC065 10/09 A2972 RMK AO2 PNO $=
201105150546 SPECI KCLM 150546Z AUTO 00000KT 2 1/2SM -RA BR FEW001 SCT029 OVC065 10/09 A2972 RMK AO2 PNO $=
201105150536 SPECI KCLM 150536Z AUTO 00000KT 2SM -RA BR FEW003 BKN012 OVC065 10/09 A2972 RMK AO2 PNO $=
201105150536 SPECI KCLM 150536Z AUTO 00000KT 2SM -RA BR FEW003 BKN012 OVC065 10/09 A2972 RMK AO2 PNO $=
201105150520 SPECI KCLM 150520Z AUTO 00000KT 2 1/2SM RA BR FEW003 BKN026 OVC065 10/09 A2973 RMK AO2 PNO $=
201105150520 SPECI KCLM 150520Z AUTO 00000KT 2 1/2SM RA BR FEW003 BKN026 OVC065 10/09 A2973 RMK AO2 PNO $=
201105150506 SPECI KCLM 150506Z AUTO 00000KT 3SM RA BR FEW006 BKN028 OVC070 11/10 A2972 RMK AO2 P0000 $=
201105150506 SPECI KCLM 150506Z AUTO 00000KT 3SM RA BR FEW006 BKN028 OVC070 11/10 A2972 RMK AO2 P0000 $=
201105150457 SPECI KCLM 150457Z AUTO 00000KT 4SM -RA BR BKN031 OVC070 11/10 A2972 RMK AO2 P0000 $=
201105150457 SPECI KCLM 150457Z AUTO 00000KT 4SM -RA BR BKN031 OVC070 11/10 A2972 RMK AO2 P0000 $=
201105150453 METAR KCLM 150453Z AUTO 00000KT 2 1/2SM RA BR OVC027 11/10 A2971 RMK AO2 SLP062 T01060100 $=
201105150448 SPECI KCLM 150448Z AUTO 29004KT 2 1/2SM RA BR FEW001 OVC024 11/10 A2971 RMK AO2 $=
201105150448 SPECI KCLM 150448Z AUTO 29004KT 2 1/2SM RA BR FEW001 OVC024 11/10 A2971 RMK AO2 $=
201105150441 SPECI KCLM 150441Z AUTO 30005KT 7SM -RA FEW005 OVC033 11/10 A2971 RMK AO2 $=
201105150441 SPECI KCLM 150441Z AUTO 30005KT 7SM -RA FEW005 OVC033 11/10 A2971 RMK AO2 $=
201105150427 SPECI KCLM 150427Z AUTO 27003KT 3SM RA BR BKN023 OVC070 11/10 A2971 RMK AO2 $=
201105150427 SPECI KCLM 150427Z AUTO 27003KT 3SM RA BR BKN023 OVC070 11/10 A2971 RMK AO2 $=
201105150353 METAR KCLM 150353Z AUTO 14003KT 7SM -RA SCT030 OVC075 12/10 A2972 RMK AO2 SLP063 T01170100 PNO $=
201105150338 SPECI KCLM 150338Z AUTO 00000KT 4SM RA BR BKN025 BKN045 OVC050 11/11 A2972 RMK AO2 PNO $=
201105150338 SPECI KCLM 150338Z AUTO 00000KT 4SM RA BR BKN025 BKN045 OVC050 11/11 A2972 RMK AO2 PNO $=
201105150305 SPECI KCLM 150305Z AUTO 00000KT 3SM -RA BR OVC043 12/10 A2972 RMK AO2 P0000 $=
201105150305 SPECI KCLM 150305Z AUTO 00000KT 3SM -RA BR OVC043 12/10 A2972 RMK AO2 P0000 $=
201105150253 METAR KCLM 150253Z AUTO 26003KT 2 1/2SM RA BR FEW029 BKN043 OVC055 12/10 A2972 RMK AO2 SLP065 6//// T01170100 56007 $=
201105150240 SPECI KCLM 150240Z AUTO 00000KT 3SM -RA BR SCT031 BKN045 OVC055 12/10 A2972 RMK AO2 $=
201105150240 SPECI KCLM 150240Z AUTO 00000KT 3SM -RA BR SCT031 BKN045 OVC055 12/10 A2972 RMK AO2 $=
201105150218 SPECI KCLM 150218Z AUTO 19005KT 3SM RA BKN023 BKN047 OVC060 12/09 A2973 RMK AO2 PNO $=
201105150218 SPECI KCLM 150218Z AUTO 19005KT 3SM RA BKN023 BKN047 OVC060 12/09 A2973 RMK AO2 PNO $=
201105150204 SPECI KCLM 150204Z AUTO 11009KT 2SM RA BKN017 BKN047 OVC060 13/08 A2973 RMK AO2 PNO $=
201105150204 SPECI KCLM 150204Z AUTO 11009KT 2SM RA BKN017 BKN047 OVC060 13/08 A2973 RMK AO2 PNO $=
201105150153 METAR KCLM 150153Z AUTO 00000KT 8SM -RA SCT049 OVC060 14/06 A2972 RMK AO2 RAB51 SLP065 P0000 T01440061=
201105150053 METAR KCLM 150053Z AUTO 09003KT 10SM OVC060 16/06 A2973 RMK AO2 LTG DSNT SE SLP066 T01610056=
201105142353 METAR KCLM 142353Z AUTO VRB03KT 10SM BKN090 17/06 A2974 RMK AO2 SLP071 T01670056 10178 20133 58011=
201105142253 METAR KCLM 142253Z AUTO 12007KT 10SM OVC095 17/06 A2976 RMK AO2 SLP076 T01670061=
201105142153 METAR KCLM 142153Z AUTO 09005KT 10SM CLR 17/04 A2977 RMK AO2 SLP081 T01720044=
201105142053 METAR KCLM 142053Z AUTO VRB03KT 10SM CLR 17/05 A2978 RMK AO2 SLP083 T01720050 57017=
201105141953 METAR KCLM 141953Z AUTO VRB04KT 10SM FEW060 17/07 A2979 RMK AO2 SLP087 T01720067=
201105141853 METAR KCLM 141853Z AUTO VRB04KT 10SM OVC050 13/07 A2981 RMK AO2 SLP096 T01330072=
201105141753 METAR KCLM 141753Z AUTO VRB03KT 10SM BKN055 OVC070 13/06 A2983 RMK AO2 SLP101 60000 T01330061 10133 20083 58007=
201105141653 METAR KCLM 141653Z AUTO 06003KT 10SM OVC070 13/06 A2984 RMK AO2 SLP104 T01280061=
201105141553 METAR KCLM 141553Z AUTO 34003KT 10SM OVC075 13/07 A2984 RMK AO2 RAE1455 SLP106 P0000 T01280067=
201105141453 METAR KCLM 141453Z AUTO 00000KT 10SM -RA SCT070 BKN080 BKN100 11/07 A2985 RMK AO2 RAB42 SLP108 P0000 60000 T01110072 55007=
201105141353 METAR KCLM 141353Z AUTO 24003KT 10SM SCT080 BKN095 09/07 A2984 RMK AO2 SLP106 T00890067=
201105141253 METAR KCLM 141253Z AUTO 00000KT 10SM FEW070 BKN085 OVC100 09/07 A2987 RMK AO2 RAB11E21 SLP116 P0000 T00890067=
201105141153 METAR KCLM 141153Z AUTO 22004KT 10SM BKN080 OVC095 11/04 A2987 RMK AO2 SLP115 T01060044 10122 20094 58009=
201105141053 METAR KCLM 141053Z AUTO 24007KT 10SM OVC090 11/04 A2989 RMK AO2 SLP120 T01060044=
201105140953 METAR KCLM 140953Z AUTO 24008KT 10SM BKN100 OVC120 11/04 A2989 RMK AO2 SLP121 T01110044=
201105140853 METAR KCLM 140853Z AUTO 26007KT 10SM OVC095 11/04 A2990 RMK AO2 SLP125 T01110039 58012=
201105140753 METAR KCLM 140753Z AUTO 27010KT 10SM OVC110 12/03 A2991 RMK AO2 SLP129 T01220033 401560011=
201105140653 METAR KCLM 140653Z AUTO 28005KT 10SM OVC110 10/03 A2992 RMK AO2 SLP133 T01000033=
201105140553 METAR KCLM 140553Z AUTO 29003KT 10SM FEW100 09/04 A2993 RMK AO2 SLP137 T00940039 10144 20094 58010=
201105140453 METAR KCLM 140453Z AUTO 30005KT 10SM FEW120 09/04 A2995 RMK AO2 SLP143 T00940044=
201105140353 METAR KCLM 140353Z AUTO 29007KT 10SM FEW110 09/04 A2995 RMK AO2 SLP144 T00940039=
201105140253 METAR KCLM 140253Z AUTO 30004KT 10SM SCT120 11/04 A2997 RMK AO2 SLP148 T01060044 56018=
201105140153 METAR KCLM 140153Z AUTO 29004KT 10SM BKN100 13/03 A2997 RMK AO2 SLP150 T01330033=
201105140053 METAR KCLM 140053Z AUTO 21003KT 10SM FEW090 14/00 A2999 RMK AO2 SLP158 T01440000=
201105132353 METAR KCLM 132353Z AUTO 00000KT 10SM SCT110 14/02 A3002 RMK AO2 SLP166 T01440022 10156 20083 58030=
201105132253 METAR KCLM 132253Z AUTO 03007KT 10SM FEW100 15/02 A3005 RMK AO2 SLP178 T01500017=
201105132153 METAR KCLM 132153Z AUTO VRB04KT 10SM CLR 14/03 A3008 RMK AO2 SLP186 T01390028=
201105132053 METAR KCLM 132053Z AUTO 09004KT 10SM CLR 13/03 A3011 RMK AO2 SLP196 T01330028 56033=
201105131953 METAR KCLM 131953Z AUTO 03003KT 10SM CLR 10/04 A3014 RMK AO2 SLP209 T01000039=
201105131853 METAR KCLM 131853Z AUTO VRB05KT 10SM CLR 11/06 A3017 RMK AO2 SLP218 T01060061=
201105131801 SPECI KCLM 131801Z AUTO VRB04KT 10SM SCT012 09/05 A3020 RMK AO2=
201105131801 SPECI KCLM 131801Z AUTO VRB04KT 10SM SCT012 09/05 A3020 RMK AO2=
201105131753 METAR KCLM 131753Z AUTO 03003KT 10SM BKN012 09/05 A3020 RMK AO2 SLP230 T00890050 10089 20011 58020=
201105131653 METAR KCLM 131653Z AUTO VRB04KT 10SM BKN010 08/05 A3022 RMK AO2 SLP236 T00830050=
201105131553 METAR KCLM 131553Z AUTO 00000KT 10SM OVC010 08/05 A3025 RMK AO2 SLP245 T00780050=
201105131522 SPECI KCLM 131522Z AUTO 00000KT 10SM OVC010 07/05 A3026 RMK AO2 CIG 007V012=
201105131522 SPECI KCLM 131522Z AUTO 00000KT 10SM OVC010 07/05 A3026 RMK AO2 CIG 007V012=
201105131453 METAR KCLM 131453Z AUTO 00000KT 10SM OVC006 07/05 A3026 RMK AO2 SLP250 T00720050 56007=
201105131420 SPECI KCLM 131420Z AUTO 00000KT 10SM BKN006 06/03 A3026 RMK AO2=
201105131420 SPECI KCLM 131420Z AUTO 00000KT 10SM BKN006 06/03 A3026 RMK AO2=
201105131406 SPECI KCLM 131406Z AUTO 00000KT 10SM SCT006 05/03 A3027 RMK AO2=
201105131406 SPECI KCLM 131406Z AUTO 00000KT 10SM SCT006 05/03 A3027 RMK AO2=
201105131353 METAR KCLM 131353Z AUTO 00000KT 10SM CLR 04/03 A3027 RMK AO2 SLP251 T00440028=
201105131253 METAR KCLM 131253Z AUTO 00000KT 10SM CLR 02/01 A3027 RMK AO2 SLP254 T00170006=
201105131153 METAR KCLM 131153Z AUTO 22003KT 10SM CLR 02/01 A3029 RMK AO2 SLP257 T00220011 10044 20022 55000=
201105131053 METAR KCLM 131053Z AUTO 23003KT 10SM CLR 03/02 A3029 RMK AO2 SLP258 T00280017=
201105130953 METAR KCLM 130953Z AUTO 23006KT 10SM CLR 04/02 A3028 RMK AO2 SLP256 T00390017=
201105130853 METAR KCLM 130853Z AUTO 00000KT 10SM CLR 03/02 A3029 RMK AO2 SLP257 T00280017 58002=
201105130753 METAR KCLM 130753Z AUTO 20003KT 10SM BKN075 03/02 A3029 RMK AO2 SLP260 T00280017 401170011=
201105130653 METAR KCLM 130653Z AUTO 00000KT 10SM CLR 03/02 A3029 RMK AO2 SLP260 T00280017=
201105130553 METAR KCLM 130553Z AUTO 00000KT 10SM CLR 04/02 A3029 RMK AO2 SLP259 T00390022 10111 20039 51008=
201105130453 METAR KCLM 130453Z AUTO 15004KT 10SM FEW110 05/03 A3029 RMK AO2 SLP259 T00500028=
201105130353 METAR KCLM 130353Z AUTO 19003KT 10SM CLR 06/03 A3028 RMK AO2 SLP255 T00610028=
201105130253 METAR KCLM 130253Z AUTO 30004KT 10SM FEW060 08/03 A3027 RMK AO2 SLP251 T00830033 53013=
201105130153 METAR KCLM 130153Z AUTO 30008KT 10SM FEW070 09/02 A3025 RMK AO2 SLP245 T00940022=
201105130053 METAR KCLM 130053Z AUTO VRB03KT 10SM BKN065 BKN080 10/04 A3024 RMK AO2 SLP242 T01000044=
201105122353 METAR KCLM 122353Z AUTO 29009KT 10SM SCT036 SCT050 10/05 A3023 RMK AO2 RAB10E41 SLP237 P0000 60000 T01000050 10117 20083 53010=
201105122253 METAR KCLM 122253Z AUTO 32008KT 10SM SCT060 OVC075 10/03 A3021 RMK AO2 SLP233 T01000033=
201105122153 METAR KCLM 122153Z AUTO VRB05KT 10SM FEW060 BKN080 11/03 A3020 RMK AO2 SLP229 T01110033=
201105122053 METAR KCLM 122053Z AUTO 01005KT 10SM BKN090 10/02 A3020 RMK AO2 SLP227 T01000017 50001=
201105121953 METAR KCLM 121953Z AUTO 02005KT 10SM BKN075 09/04 A3020 RMK AO2 SLP227 T00940044=
201105121853 METAR KCLM 121853Z AUTO 03005KT 10SM BKN070 09/04 A3020 RMK AO2 SLP228 T00890044=
201105121829 SPECI KCLM 121829Z AUTO VRB05KT 10SM FEW008 SCT075 09/05 A3020 RMK AO2=
201105121829 SPECI KCLM 121829Z AUTO VRB05KT 10SM FEW008 SCT075 09/05 A3020 RMK AO2=
201105121807 SPECI KCLM 121807Z AUTO 01005KT 10SM SCT010 BKN075 08/06 A3019 RMK AO2=
201105121807 SPECI KCLM 121807Z AUTO 01005KT 10SM SCT010 BKN075 08/06 A3019 RMK AO2=
201105121753 METAR KCLM 121753Z AUTO 36006KT 10SM BKN010 08/05 A3019 RMK AO2 CIG 007V012 SLP226 T00780050 10089 20022 53010=
201105121730 SPECI KCLM 121730Z AUTO 01004KT 10SM BKN010 08/05 A3018 RMK AO2=
201105121730 SPECI KCLM 121730Z AUTO 01004KT 10SM BKN010 08/05 A3018 RMK AO2=
201105121717 SPECI KCLM 121717Z AUTO 05003KT 10SM SCT008 09/06 A3018 RMK AO2=
201105121717 SPECI KCLM 121717Z AUTO 05003KT 10SM SCT008 09/06 A3018 RMK AO2=
201105121653 METAR KCLM 121653Z AUTO 03004KT 10SM CLR 08/05 A3018 RMK AO2 SLP221 T00830050=
201105121553 METAR KCLM 121553Z AUTO VRB04KT 10SM CLR 08/03 A3017 RMK AO2 SLP217 T00830028=
201105121453 METAR KCLM 121453Z AUTO 00000KT 10SM CLR 07/03 A3016 RMK AO2 SLP216 T00720028 53011=
201105121353 METAR KCLM 121353Z AUTO 00000KT 10SM CLR 04/03 A3015 RMK AO2 SLP212 T00390028=
201105121253 METAR KCLM 121253Z AUTO 24005KT 10SM FEW027 SCT080 03/01 A3014 RMK AO2 SLP208 T00280011=
201105121153 METAR KCLM 121153Z AUTO 00000KT 10SM BKN075 03/01 A3013 RMK AO2 SLP205 70007 T00280011 10056 20011 51013=
201105121053 METAR KCLM 121053Z AUTO 24005KT 10SM FEW080 02/01 A3013 RMK AO2 SLP203 T00170006=
201105120953 METAR KCLM 120953Z AUTO 24004KT 10SM FEW070 02/01 A3011 RMK AO2 SLP198 T00220011=
201105120853 METAR KCLM 120853Z AUTO 25003KT 10SM CLR 02/01 A3009 RMK AO2 SLP192 T00220006 53023=
201105120753 METAR KCLM 120753Z AUTO 00000KT 10SM CLR 02/01 A3006 RMK AO2 SLP183 T00220011 401170022=
201105120653 METAR KCLM 120653Z AUTO 23005KT 10SM CLR 04/02 A3004 RMK AO2 SLP175 T00440022=
201105120553 METAR KCLM 120553Z AUTO 27005KT 10SM CLR 05/02 A3002 RMK AO2 SLP168 60001 T00500022 10094 20050 51022=
201105120453 METAR KCLM 120453Z AUTO 26006KT 10SM CLR 06/02 A3000 RMK AO2 SLP160 T00560022=
201105120353 METAR KCLM 120353Z AUTO 26005KT 10SM FEW039 OVC055 07/03 A2998 RMK AO2 SLP152 T00720033=
201105120253 METAR KCLM 120253Z AUTO 30011G19KT 10SM BKN039 BKN060 OVC075 07/04 A2996 RMK AO2 SLP145 60001 T00720039 53023=
201105120153 METAR KCLM 120153Z AUTO 31007KT 10SM FEW013 BKN043 OVC060 08/06 A2992 RMK AO2 SLP134 P0001 T00830056=
201105120053 METAR KCLM 120053Z AUTO 31007KT 10SM FEW007 08/07 A2989 RMK AO2 RAE18 SLP123 P0000 T00830067=
201105120032 SPECI KCLM 120032Z AUTO VRB05KT 10SM SCT027 BKN060 08/07 A2988 RMK AO2 RAE18 P0000=
201105120032 SPECI KCLM 120032Z AUTO VRB05KT 10SM SCT027 BKN060 08/07 A2988 RMK AO2 RAE18 P0000=
201105112353 METAR KCLM 112353Z AUTO 31008KT 8SM -RA BKN027 OVC036 08/06 A2989 RMK AO2 RAB24 SLP121 P0001 60006 T00780061 10106 20078 53017=
201105112334 SPECI KCLM 112334Z AUTO 31010KT 10SM -RA BKN029 BKN039 BKN047 09/07 A2988 RMK AO2 RAB24 PRESRR P0000=
201105112334 SPECI KCLM 112334Z AUTO 31010KT 10SM -RA BKN029 BKN039 BKN047 09/07 A2988 RMK AO2 RAB24 PRESRR P0000=
201105112253 METAR KCLM 112253Z AUTO 21007KT 10SM FEW055 BKN085 10/07 A2984 RMK AO2 RAE08 SLP106 P0002 T01000072=
201105112220 SPECI KCLM 112220Z AUTO 14006KT 10SM FEW005 SCT039 SCT048 09/08 A2983 RMK AO2 RAE08 P0001=
201105112220 SPECI KCLM 112220Z AUTO 14006KT 10SM FEW005 SCT039 SCT048 09/08 A2983 RMK AO2 RAE08 P0001=
201105112153 METAR KCLM 112153Z AUTO 00000KT 3SM -RA BR OVC005 08/07 A2986 RMK AO2 CIG 003V011 SLP111 P0001 T00830072=
201105112123 SPECI KCLM 112123Z AUTO 32004KT 6SM -RA BR BKN005 BKN010 OVC028 09/07 A2984 RMK AO2 CIG 002V008 P0001=
201105112123 SPECI KCLM 112123Z AUTO 32004KT 6SM -RA BR BKN005 BKN010 OVC028 09/07 A2984 RMK AO2 CIG 002V008 P0001=
201105112053 METAR KCLM 112053Z AUTO 31004KT 3SM -RA BR OVC003 08/07 A2984 RMK AO2 CIG 002V006 SLP104 P0002 60002 T00830072 53011=
201105112046 SPECI KCLM 112046Z AUTO 31005KT 4SM -RA BR OVC003 08/07 A2984 RMK AO2 CIG 002V006 P0002=
201105112046 SPECI KCLM 112046Z AUTO 31005KT 4SM -RA BR OVC003 08/07 A2984 RMK AO2 CIG 002V006 P0002=
201105112017 SPECI KCLM 112017Z AUTO 30008KT 5SM -RA BR BKN005 BKN015 OVC030 08/07 A2982 RMK AO2 CIG 004V008 P0000=
201105112017 SPECI KCLM 112017Z AUTO 30008KT 5SM -RA BR BKN005 BKN015 OVC030 08/07 A2982 RMK AO2 CIG 004V008 P0000=
201105112010 SPECI KCLM 112010Z AUTO 29008KT 5SM -RA BR SCT005 BKN019 OVC030 08/07 A2982 RMK AO2 P0000=
201105112010 SPECI KCLM 112010Z AUTO 29008KT 5SM -RA BR SCT005 BKN019 OVC030 08/07 A2982 RMK AO2 P0000=
201105111953 METAR KCLM 111953Z AUTO 31007KT 7SM -RA FEW007 OVC030 09/07 A2981 RMK AO2 SLP097 P0000 T00890072=
201105111853 METAR KCLM 111853Z AUTO 35004KT 10SM -RA SCT030 09/07 A2980 RMK AO2 RAB1755 SLP091 P0000 T00940067=
201105111844 SPECI KCLM 111844Z AUTO 36003KT 10SM SCT026 10/07 A2980 RMK AO2 RAB1755E38 P0000=
201105111844 SPECI KCLM 111844Z AUTO 36003KT 10SM SCT026 10/07 A2980 RMK AO2 RAB1755E38 P0000=
201105111830 SPECI KCLM 111830Z AUTO VRB03KT 10SM -RA BKN026 10/07 A2980 RMK AO2 RAB1755 P0000=
201105111830 SPECI KCLM 111830Z AUTO VRB03KT 10SM -RA BKN026 10/07 A2980 RMK AO2 RAB1755 P0000=
201105111802 SPECI KCLM 111802Z AUTO 02003KT 10SM -RA SCT023 BKN037 OVC055 10/06 A2980 RMK AO2 RAB1755 P0000=
201105111802 SPECI KCLM 111802Z AUTO 02003KT 10SM -RA SCT023 BKN037 OVC055 10/06 A2980 RMK AO2 RAB1755 P0000=
201105111753 METAR KCLM 111753Z AUTO 35004KT 10SM BKN023 BKN055 11/06 A2980 RMK AO2 SLP093 T01060056 10117 20083 55000=
201105111714 SPECI KCLM 111714Z AUTO VRB03KT 10SM BKN023 BKN060 11/06 A2979 RMK AO2=
201105111714 SPECI KCLM 111714Z AUTO VRB03KT 10SM BKN023 BKN060 11/06 A2979 RMK AO2=
201105111653 METAR KCLM 111653Z AUTO 08003KT 10SM FEW023 OVC060 11/06 A2979 RMK AO2 SLP088 T01110061=
201105111553 METAR KCLM 111553Z AUTO 09005KT 10SM BKN055 BKN095 11/06 A2980 RMK AO2 SLP093 T01060061=
201105111453 METAR KCLM 111453Z AUTO 15004KT 10SM OVC055 09/06 A2981 RMK AO2 SLP094 T00940056 56005=
201105111401 SPECI KCLM 111401Z AUTO 20003KT 10SM SCT021 OVC060 08/06 A2981 RMK AO2=
201105111401 SPECI KCLM 111401Z AUTO 20003KT 10SM SCT021 OVC060 08/06 A2981 RMK AO2=
201105111353 METAR KCLM 111353Z AUTO 21003KT 10SM BKN021 OVC060 08/06 A2981 RMK AO2 SLP094 T00830056=
201105111253 METAR KCLM 111253Z AUTO 00000KT 10SM OVC019 09/06 A2981 RMK AO2 SLP095 T00890056=
201105111153 METAR KCLM 111153Z AUTO 24003KT 10SM OVC019 08/06 A2982 RMK AO2 SLP099 T00830056 10083 20083 56014=
201105111053 METAR KCLM 111053Z AUTO 24004KT 10SM OVC019 08/06 A2983 RMK AO2 SLP103 T00830056=
201105110953 METAR KCLM 110953Z AUTO 00000KT 10SM OVC017 08/06 A2984 RMK AO2 SLP105 T00830056=
201105110853 METAR KCLM 110853Z AUTO 00000KT 10SM OVC015 08/06 A2986 RMK AO2 SLP113 T00830061 56012=
201105110753 METAR KCLM 110753Z AUTO 27003KT 10SM OVC015 08/06 A2987 RMK AO2 SLP117 T00830061 401220078=
201105110653 METAR KCLM 110653Z AUTO 28007KT 10SM OVC015 08/06 A2989 RMK AO2 SLP122 T00830061=
201105110553 METAR KCLM 110553Z AUTO 29006KT 10SM OVC013 08/06 A2990 RMK AO2 SLP125 T00830061 10111 20083 58008=
201105110453 METAR KCLM 110453Z AUTO 28006KT 10SM OVC013 08/07 A2991 RMK AO2 SLP130 T00830067=
201105110448 SPECI KCLM 110448Z AUTO 28006KT 10SM OVC013 08/07 A2992 RMK AO2=
201105110448 SPECI KCLM 110448Z AUTO 28006KT 10SM OVC013 08/07 A2992 RMK AO2=
201105110423 SPECI KCLM 110423Z AUTO 28004KT 10SM BKN015 OVC065 08/06 A2992 RMK AO2=
201105110423 SPECI KCLM 110423Z AUTO 28004KT 10SM BKN015 OVC065 08/06 A2992 RMK AO2=
201105110353 METAR KCLM 110353Z AUTO 29006KT 10SM OVC060 08/06 A2992 RMK AO2 SLP133 T00830061=
201105110253 METAR KCLM 110253Z AUTO 29007KT 10SM OVC070 09/06 A2994 RMK AO2 SLP138 T00940056 56017=
201105110153 METAR KCLM 110153Z AUTO 31005KT 10SM OVC075 09/06 A2995 RMK AO2 SLP144 T00940056=
201105110053 METAR KCLM 110053Z AUTO 31006KT 10SM OVC080 10/05 A2997 RMK AO2 SLP150 T01000050=
201105102353 METAR KCLM 102353Z AUTO 34004KT 10SM OVC080 11/05 A2999 RMK AO2 SLP155 T01110050 10122 20094 58021=
201105102253 METAR KCLM 102253Z AUTO 34005KT 10SM OVC080 11/05 A3001 RMK AO2 SLP162 T01110050=
201105102153 METAR KCLM 102153Z AUTO 35006KT 10SM BKN080 11/04 A3003 RMK AO2 SLP171 T01060044=
201105102133 SPECI KCLM 102133Z AUTO VRB05KT 10SM SCT025 SCT080 12/05 A3004 RMK AO2=
201105102133 SPECI KCLM 102133Z AUTO VRB05KT 10SM SCT025 SCT080 12/05 A3004 RMK AO2=
201105102053 METAR KCLM 102053Z AUTO 33005KT 10SM OVC027 11/05 A3005 RMK AO2 SLP176 T01110050 58014=
201105101953 METAR KCLM 101953Z AUTO 35006KT 10SM OVC029 10/04 A3008 RMK AO2 SLP186 T01000044=
201105101943 SPECI KCLM 101943Z AUTO VRB05KT 10SM BKN029 OVC075 11/05 A3008 RMK AO2=
201105101943 SPECI KCLM 101943Z AUTO VRB05KT 10SM BKN029 OVC075 11/05 A3008 RMK AO2=
201105101853 METAR KCLM 101853Z AUTO 35007KT 10SM SCT023 OVC075 09/04 A3009 RMK AO2 SLP189 T00940044=
201105101753 METAR KCLM 101753Z AUTO 35007KT 10SM FEW022 10/04 A3009 RMK AO2 SLP190 T01000044 10106 20078 56012=
201105101725 SPECI KCLM 101725Z AUTO 34006KT 10SM SCT022 10/04 A3009 RMK AO2=
201105101725 SPECI KCLM 101725Z AUTO 34006KT 10SM SCT022 10/04 A3009 RMK AO2=
201105101653 METAR KCLM 101653Z AUTO 36004KT 10SM OVC020 10/04 A3009 RMK AO2 SLP191 T01000044=
201105101553 METAR KCLM 101553Z AUTO 00000KT 10SM OVC018 09/04 A3011 RMK AO2 SLP198 T00890044=
201105101453 METAR KCLM 101453Z AUTO 31003KT 10SM OVC020 08/04 A3012 RMK AO2 SLP202 T00830044 55003=
201105101353 METAR KCLM 101353Z AUTO 25003KT 10SM OVC020 08/04 A3012 RMK AO2 SLP200 T00780044=
201105101253 METAR KCLM 101253Z AUTO 27004KT 10SM OVC022 08/04 A3012 RMK AO2 SLP201 T00780039=
201105101153 METAR KCLM 101153Z AUTO 25005KT 10SM OVC022 08/04 A3013 RMK AO2 SLP205 T00780039 10089 20078 58002=
201105101053 METAR KCLM 101053Z AUTO 25006KT 10SM OVC022 08/04 A3014 RMK AO2 SLP207 T00780039=
201105100953 METAR KCLM 100953Z AUTO 27006KT 10SM OVC022 08/04 A3014 RMK AO2 SLP207 T00780044=
201105100853 METAR KCLM 100853Z AUTO 27006KT 10SM OVC020 08/04 A3014 RMK AO2 SLP207 T00780044 56006=
201105100753 METAR KCLM 100753Z AUTO 28009KT 10SM OVC020 08/04 A3014 RMK AO2 SLP208 T00830044 401280083=
201105100653 METAR KCLM 100653Z AUTO 28008KT 10SM OVC020 08/05 A3015 RMK AO2 SLP209 T00830050=
201105100553 METAR KCLM 100553Z AUTO 29010KT 10SM OVC020 09/05 A3016 RMK AO2 SLP213 T00890050 10117 20089 58003=
201105100453 METAR KCLM 100453Z AUTO 28007KT 10SM OVC020 09/06 A3017 RMK AO2 SLP216 T00890056=
201105100353 METAR KCLM 100353Z AUTO 31007KT 10SM OVC020 09/06 A3016 RMK AO2 SLP215 T00890061=
201105100253 METAR KCLM 100253Z AUTO 30008KT 10SM OVC018 09/06 A3017 RMK AO2 SLP216 T00940061 53006=
201105100234 SPECI KCLM 100234Z AUTO 30009KT 10SM BKN018 OVC037 09/06 A3016 RMK AO2=
201105100234 SPECI KCLM 100234Z AUTO 30009KT 10SM BKN018 OVC037 09/06 A3016 RMK AO2=
201105100153 METAR KCLM 100153Z AUTO 30009KT 10SM FEW015 SCT021 OVC037 09/06 A3016 RMK AO2 SLP213 T00940061=
201105100053 METAR KCLM 100053Z AUTO 31010KT 10SM OVC037 11/07 A3015 RMK AO2 SLP212 T01060067=
201105092353 METAR KCLM 092353Z AUTO 31007KT 10SM OVC039 11/07 A3015 RMK AO2 SLP210 T01110067 10128 20106 58002=
201105092253 METAR KCLM 092253Z AUTO 31010KT 10SM OVC043 11/07 A3016 RMK AO2 SLP212 T01110067=
201105092153 METAR KCLM 092153Z AUTO 31009KT 10SM OVC043 11/07 A3016 RMK AO2 SLP214 T01110067=
201105092053 METAR KCLM 092053Z AUTO 30011KT 10SM OVC045 12/07 A3015 RMK AO2 SLP212 T01170067 51007=
201105091953 METAR KCLM 091953Z AUTO 33008G15KT 10SM BKN050 13/07 A3015 RMK AO2 SLP210 T01280072=
201105091853 METAR KCLM 091853Z AUTO 32008KT 10SM OVC050 12/07 A3014 RMK AO2 SLP208 T01170072=
201105091753 METAR KCLM 091753Z AUTO 33009KT 10SM OVC055 11/07 A3013 RMK AO2 SLP205 T01060067 10111 20089 53003=
201105091653 METAR KCLM 091653Z AUTO 30007KT 10SM OVC055 11/06 A3013 RMK AO2 SLP203 T01060061=
201105091553 METAR KCLM 091553Z AUTO 31006KT 10SM OVC055 10/06 A3013 RMK AO2 SLP202 T01000061=
201105091453 METAR KCLM 091453Z AUTO 28005KT 10SM OVC055 09/06 A3013 RMK AO2 SLP202 T00940056 51012=
201105091353 METAR KCLM 091353Z AUTO 26006KT 10SM OVC050 09/05 A3012 RMK AO2 SLP201 T00890050=
201105091253 METAR KCLM 091253Z AUTO 27006KT 10SM OVC050 09/05 A3011 RMK AO2 SLP196 T00890050=
201105091153 METAR KCLM 091153Z AUTO 28009KT 10SM OVC055 09/05 A3009 RMK AO2 SLP190 T00890050 10089 20083 51012=
201105091053 METAR KCLM 091053Z AUTO 27006KT 10SM OVC055 09/06 A3008 RMK AO2 SLP186 T00890056=
201105090953 METAR KCLM 090953Z AUTO 26006KT 10SM OVC060 09/06 A3007 RMK AO2 SLP182 T00890056=
201105090853 METAR KCLM 090853Z AUTO 27007KT 10SM BKN048 OVC060 09/05 A3005 RMK AO2 SLP178 T00890050 51006=
201105090753 METAR KCLM 090753Z AUTO 28008KT 10SM OVC060 09/05 A3005 RMK AO2 SLP177 T00890050 401220050=
201105090653 METAR KCLM 090653Z AUTO 28008KT 10SM OVC060 09/06 A3005 RMK AO2 SLP176 T00890056=
201105090553 METAR KCLM 090553Z AUTO 27009KT 10SM OVC060 09/06 A3004 RMK AO2 SLP172 T00890061 10111 20083 51012=
201105090453 METAR KCLM 090453Z AUTO 29005KT 10SM OVC060 08/06 A3003 RMK AO2 SLP169 T00830061=
201105090432 SPECI KCLM 090432Z AUTO 27004KT 10SM FEW016 OVC060 09/06 A3002 RMK AO2=
201105090432 SPECI KCLM 090432Z AUTO 27004KT 10SM FEW016 OVC060 09/06 A3002 RMK AO2=
201105090353 METAR KCLM 090353Z AUTO 29005KT 10SM OVC016 09/06 A3001 RMK AO2 SLP164 T00890061=
201105090333 SPECI KCLM 090333Z AUTO 29005KT 10SM BKN016 OVC060 09/06 A3001 RMK AO2=
201105090333 SPECI KCLM 090333Z AUTO 29005KT 10SM BKN016 OVC060 09/06 A3001 RMK AO2=
201105090253 METAR KCLM 090253Z AUTO 31008KT 10SM OVC060 09/06 A3000 RMK AO2 SLP160 T00940061 53010=
201105090153 METAR KCLM 090153Z AUTO 30012KT 10SM OVC060 10/06 A2999 RMK AO2 SLP155 T01000056=
201105090053 METAR KCLM 090053Z AUTO 31014G22KT 10SM OVC060 10/06 A2998 RMK AO2 SLP152 T01000061=
201105082353 METAR KCLM 082353Z AUTO 31010G20KT 10SM OVC060 11/06 A2997 RMK AO2 SLP150 T01060056 10122 20100 51007=
201105082253 METAR KCLM 082253Z AUTO 32012G18KT 10SM FEW039 BKN060 11/05 A2997 RMK AO2 SLP148 T01110050=
201105082153 METAR KCLM 082153Z AUTO 30012G16KT 10SM SCT070 12/05 A2996 RMK AO2 SLP146 T01170050=
201105082053 METAR KCLM 082053Z AUTO 32010G15KT 10SM OVC060 11/05 A2995 RMK AO2 SLP143 T01110050 53008=
201105081953 METAR KCLM 081953Z AUTO 33009KT 10SM CLR 11/04 A2994 RMK AO2 SLP138 T01110044=
201105081853 METAR KCLM 081853Z AUTO 30009KT 10SM FEW100 11/04 A2993 RMK AO2 SLP137 T01110044=
201105081753 METAR KCLM 081753Z AUTO 33010KT 10SM CLR 10/03 A2993 RMK AO2 SLP135 T01000033 10106 20050 53004=
201105081653 METAR KCLM 081653Z AUTO 32009KT 10SM CLR 10/03 A2992 RMK AO2 SLP133 T01000033=
201105081553 METAR KCLM 081553Z AUTO 32007KT 10SM CLR 09/03 A2992 RMK AO2 SLP132 T00890028=
201105081453 METAR KCLM 081453Z AUTO 26007KT 10SM FEW033 08/04 A2991 RMK AO2 SLP131 T00830039 51008=
201105081353 METAR KCLM 081353Z AUTO 26004KT 10SM OVC033 06/04 A2991 RMK AO2 SLP131 T00610039=
201105081253 METAR KCLM 081253Z AUTO 26003KT 10SM OVC033 05/04 A2990 RMK AO2 SLP125 T00500039=
201105081153 METAR KCLM 081153Z AUTO 00000KT 10SM OVC033 06/04 A2989 RMK AO2 SLP123 60000 70001 T00560044 10067 20056 52004=
201105081053 METAR KCLM 081053Z AUTO 28004KT 10SM OVC031 06/04 A2988 RMK AO2 SLP121 T00610044=
201105080953 METAR KCLM 080953Z AUTO 24003KT 10SM OVC031 07/05 A2988 RMK AO2 SLP119 T00670050=
201105080853 METAR KCLM 080853Z AUTO 00000KT 10SM OVC033 07/04 A2987 RMK AO2 SLP118 60000 T00670044 50001=
201105080753 METAR KCLM 080753Z AUTO 26003KT 10SM OVC033 07/04 A2988 RMK AO2 SLP118 T00670044 401110039=
201105080653 METAR KCLM 080653Z AUTO 24003KT 10SM OVC090 06/05 A2987 RMK AO2 RAE15 SLP117 P0000 T00610050=
201105080553 METAR KCLM 080553Z AUTO 26003KT 10SM -RA FEW030 BKN080 OVC100 07/05 A2987 RMK AO2 RAB34 SLP117 P0000 60000 T00670050 10089 20067 50006=
201105080453 METAR KCLM 080453Z AUTO 27004KT 10SM OVC032 07/05 A2987 RMK AO2 SLP118 T00670050=
201105080353 METAR KCLM 080353Z AUTO 28006KT 10SM OVC100 07/04 A2986 RMK AO2 SLP115 T00670044=
201105080304 SPECI KCLM 080304Z AUTO 00000KT 10SM SCT015 BKN032 OVC090 07/05 A2986 RMK AO2=
201105080304 SPECI KCLM 080304Z AUTO 00000KT 10SM SCT015 BKN032 OVC090 07/05 A2986 RMK AO2=
201105080253 METAR KCLM 080253Z AUTO 31005KT 10SM SCT015 BKN028 OVC090 07/05 A2985 RMK AO2 SLP111 T00720050 52004=
201105080223 SPECI KCLM 080223Z AUTO 32006KT 10SM BKN017 OVC026 08/04 A2985 RMK AO2=
201105080223 SPECI KCLM 080223Z AUTO 32006KT 10SM BKN017 OVC026 08/04 A2985 RMK AO2=
201105080153 METAR KCLM 080153Z AUTO 32008KT 10SM BKN012 BKN036 OVC100 08/05 A2985 RMK AO2 SLP110 T00780050=
201105080148 SPECI KCLM 080148Z AUTO 31008KT 10SM BKN010 BKN036 OVC100 08/06 A2985 RMK AO2=
201105080148 SPECI KCLM 080148Z AUTO 31008KT 10SM BKN010 BKN036 OVC100 08/06 A2985 RMK AO2=
201105080053 METAR KCLM 080053Z AUTO 32009G14KT 10SM FEW075 SCT090 SCT110 08/05 A2985 RMK AO2 SLP109 T00830050=
201105072353 METAR KCLM 072353Z AUTO VRB05KT 10SM BKN031 BKN041 OVC095 08/05 A2984 RMK AO2 SLP107 60001 T00830050 10111 20083 51008=
201105072253 METAR KCLM 072253Z AUTO 29005KT 10SM FEW036 SCT075 BKN110 08/05 A2983 RMK AO2 SLP104 T00830050=
201105072153 METAR KCLM 072153Z AUTO 32009G16KT 10SM FEW075 08/04 A2983 RMK AO2 SLP103 T00830039=
201105072053 METAR KCLM 072053Z AUTO 31013G18KT 10SM BKN041 BKN095 09/05 A2982 RMK AO2 SLP099 60001 T00890050 53006=
201105071953 METAR KCLM 071953Z AUTO 32008G18KT 10SM FEW028 BKN110 11/06 A2980 RMK AO2 SLP092 T01060056=
201105071853 METAR KCLM 071853Z AUTO 30013G18KT 10SM BKN110 10/07 A2980 RMK AO2 RAE21 SLP091 P0001 T01000067=
201105071753 METAR KCLM 071753Z AUTO 31010G18KT 10SM -RA SCT028 BKN048 OVC060 09/07 A2980 RMK AO2 RAE07B30 SLP093 P0000 60000 T00890067 10089 20056 51012=
201105071653 METAR KCLM 071653Z AUTO 30011G15KT 10SM -RA OVC049 08/06 A2979 RMK AO2 RAE17B45 SLP090 P0000 T00830061=
201105071553 METAR KCLM 071553Z AUTO 29007KT 10SM -RA BKN046 OVC055 08/06 A2978 RMK AO2 RAB51 SLP086 P0000 T00780056=
201105071453 METAR KCLM 071453Z AUTO 25005KT 10SM FEW070 OVC090 08/06 A2976 RMK AO2 SLP081 60000 T00780061 53001=
201105071353 METAR KCLM 071353Z AUTO 25004KT 10SM BKN075 OVC090 07/06 A2976 RMK AO2 RAE37 SLP078 P0000 T00670056=
201105071253 METAR KCLM 071253Z AUTO 27006KT 10SM -RA SCT050 BKN065 OVC080 07/06 A2976 RMK AO2 RAE14B35 SLP081 P0000 T00670056=
201105071153 METAR KCLM 071153Z AUTO 00000KT 10SM -RA BKN050 OVC065 06/06 A2976 RMK AO2 RAB17 SLP080 P0001 60001 70003 T00610056 10067 20039 55008=
201105071053 METAR KCLM 071053Z AUTO 00000KT 8SM FEW055 SCT075 BKN095 05/04 A2976 RMK AO2 SLP079 T00500044=
201105071013 SPECI KCLM 071013Z AUTO 15003KT 3SM BR FEW055 BKN100 04/04 A2976 RMK AO2=
201105071013 SPECI KCLM 071013Z AUTO 15003KT 3SM BR FEW055 BKN100 04/04 A2976 RMK AO2=
201105070956 SPECI KCLM 070956Z AUTO 16004KT 1 3/4SM BR FEW055 SCT080 04/04 A2977 RMK AO2=
201105070956 SPECI KCLM 070956Z AUTO 16004KT 1 3/4SM BR FEW055 SCT080 04/04 A2977 RMK AO2=
201105070953 METAR KCLM 070953Z AUTO 16004KT 3SM BR FEW080 04/04 A2977 RMK AO2 SLP081 T00440044=
201105070951 SPECI KCLM 070951Z AUTO 16004KT 3SM BR FEW080 05/04 A2977 RMK AO2=
201105070951 SPECI KCLM 070951Z AUTO 16004KT 3SM BR FEW080 05/04 A2977 RMK AO2=
201105070944 SPECI KCLM 070944Z AUTO 00000KT 1 3/4SM BR FEW060 05/04 A2977 RMK AO2=
201105070944 SPECI KCLM 070944Z AUTO 00000KT 1 3/4SM BR FEW060 05/04 A2977 RMK AO2=
201105070853 METAR KCLM 070853Z AUTO 13003KT 10SM BKN085 OVC110 06/06 A2979 RMK AO2 SLP088 T00610056 56010=
201105070753 METAR KCLM 070753Z AUTO 18003KT 10SM SCT070 OVC110 06/06 A2980 RMK AO2 SLP092 T00610056 400940061=
201105070653 METAR KCLM 070653Z AUTO 00000KT 10SM FEW070 OVC100 06/06 A2980 RMK AO2 SLP093 T00610056=
201105070553 METAR KCLM 070553Z AUTO 24003KT 10SM OVC090 07/06 A2982 RMK AO2 SLP099 60001 T00670056 10089 20067 58009=
201105070453 METAR KCLM 070453Z AUTO 00000KT 10SM OVC085 07/07 A2983 RMK AO2 SLP104 T00720067=
201105070436 SPECI KCLM 070436Z AUTO 00000KT 10SM SCT009 OVC090 07/07 A2984 RMK AO2=
201105070436 SPECI KCLM 070436Z AUTO 00000KT 10SM SCT009 OVC090 07/07 A2984 RMK AO2=
201105070353 METAR KCLM 070353Z AUTO 26003KT 10SM BKN007 OVC016 07/07 A2984 RMK AO2 RAE0257B15E32 SLP108 P0000 T00720067=
201105070348 SPECI KCLM 070348Z AUTO 00000KT 10SM SCT007 OVC016 07/07 A2984 RMK AO2 RAE0257B15E32 P0000=
201105070348 SPECI KCLM 070348Z AUTO 00000KT 10SM SCT007 OVC016 07/07 A2984 RMK AO2 RAE0257B15E32 P0000=
201105070336 SPECI KCLM 070336Z AUTO 29004KT 10SM BKN016 OVC042 07/06 A2985 RMK AO2 RAE0257B15E32 P0000=
201105070336 SPECI KCLM 070336Z AUTO 29004KT 10SM BKN016 OVC042 07/06 A2985 RMK AO2 RAE0257B15E32 P0000=
201105070253 METAR KCLM 070253Z AUTO 00000KT 10SM -RA BKN040 OVC049 08/07 A2985 RMK AO2 SLP111 P0000 60001 T00780067 58013=
201105070209 SPECI KCLM 070209Z AUTO 29004KT 8SM -RA FEW001 SCT020 OVC030 08/07 A2986 RMK AO2 P0000=
201105070209 SPECI KCLM 070209Z AUTO 29004KT 8SM -RA FEW001 SCT020 OVC030 08/07 A2986 RMK AO2 P0000=
201105070202 SPECI KCLM 070202Z AUTO 29003KT 7SM -RA FEW001 BKN020 OVC030 08/07 A2987 RMK AO2 P0000=
201105070202 SPECI KCLM 070202Z AUTO 29003KT 7SM -RA FEW001 BKN020 OVC030 08/07 A2987 RMK AO2 P0000=
201105070153 METAR KCLM 070153Z AUTO 00000KT 8SM -RA SCT001 BKN013 OVC030 08/07 A2987 RMK AO2 SLP115 P0001 T00780072=
201105070146 SPECI KCLM 070146Z AUTO 31003KT 6SM -RA BR SCT001 BKN013 OVC030 08/07 A2987 RMK AO2 P0001=
201105070146 SPECI KCLM 070146Z AUTO 31003KT 6SM -RA BR SCT001 BKN013 OVC030 08/07 A2987 RMK AO2 P0001=
201105070116 SPECI KCLM 070116Z AUTO 00000KT 8SM -RA SCT003 BKN017 OVC040 08/07 A2988 RMK AO2 P0000=
201105070116 SPECI KCLM 070116Z AUTO 00000KT 8SM -RA SCT003 BKN017 OVC040 08/07 A2988 RMK AO2 P0000=
201105070104 SPECI KCLM 070104Z AUTO 33003KT 7SM -RA SCT003 BKN031 OVC040 08/07 A2989 RMK AO2 P0000=
201105070104 SPECI KCLM 070104Z AUTO 33003KT 7SM -RA SCT003 BKN031 OVC040 08/07 A2989 RMK AO2 P0000=
201105070053 METAR KCLM 070053Z AUTO 01003KT 7SM -RA SCT003 BKN022 OVC042 08/07 A2989 RMK AO2 SLP123 P0000 T00830072=
201105070049 SPECI KCLM 070049Z AUTO 00000KT 10SM -RA SCT003 BKN022 OVC042 08/07 A2989 RMK AO2 P0000=
201105070049 SPECI KCLM 070049Z AUTO 00000KT 10SM -RA SCT003 BKN022 OVC042 08/07 A2989 RMK AO2 P0000=
201105070033 SPECI KCLM 070033Z AUTO 00000KT 6SM -RA BR BKN003 BKN022 OVC046 08/07 A2989 RMK AO2 P0000=
201105070033 SPECI KCLM 070033Z AUTO 00000KT 6SM -RA BR BKN003 BKN022 OVC046 08/07 A2989 RMK AO2 P0000=
201105070025 SPECI KCLM 070025Z AUTO 00000KT 6SM -RA BR SCT003 BKN026 OVC046 08/07 A2990 RMK AO2 P0000=
201105070025 SPECI KCLM 070025Z AUTO 00000KT 6SM -RA BR SCT003 BKN026 OVC046 08/07 A2990 RMK AO2 P0000=
201105070012 SPECI KCLM 070012Z AUTO 00000KT 7SM -RA BKN003 OVC044 08/07 A2991 RMK AO2 P0000=
201105070012 SPECI KCLM 070012Z AUTO 00000KT 7SM -RA BKN003 OVC044 08/07 A2991 RMK AO2 P0000=
201105070005 SPECI KCLM 070005Z AUTO 00000KT 6SM -RA BR FEW003 SCT008 OVC044 09/07 A2991 RMK AO2 P0000=
201105070005 SPECI KCLM 070005Z AUTO 00000KT 6SM -RA BR FEW003 SCT008 OVC044 09/07 A2991 RMK AO2 P0000=
201105062353 METAR KCLM 062353Z AUTO 00000KT 6SM -RA BR BKN005 OVC042 08/07 A2991 RMK AO2 SLP131 P0001 60001 T00830072 10094 20083 58016=
201105062253 METAR KCLM 062253Z AUTO 04003KT 10SM -RA OVC005 08/07 A2993 RMK AO2 SLP137 P0000 T00830067=
201105062234 SPECI KCLM 062234Z AUTO 02004KT 10SM -RA BKN007 BKN027 OVC047 09/07 A2994 RMK AO2 P0000=
201105062234 SPECI KCLM 062234Z AUTO 02004KT 10SM -RA BKN007 BKN027 OVC047 09/07 A2994 RMK AO2 P0000=
201105062226 SPECI KCLM 062226Z AUTO 06003KT 9SM -RA SCT007 BKN027 OVC047 08/07 A2994 RMK AO2 P0000=
201105062226 SPECI KCLM 062226Z AUTO 06003KT 9SM -RA SCT007 BKN027 OVC047 08/07 A2994 RMK AO2 P0000=
201105062214 SPECI KCLM 062214Z AUTO 00000KT 10SM -RA BKN007 BKN034 OVC045 09/07 A2994 RMK AO2 P0000=
201105062214 SPECI KCLM 062214Z AUTO 00000KT 10SM -RA BKN007 BKN034 OVC045 09/07 A2994 RMK AO2 P0000=
201105062153 METAR KCLM 062153Z AUTO 06004KT 10SM -RA SCT007 OVC044 08/07 A2995 RMK AO2 RAB2059 SLP142 P0000 T00830067=
201105062138 SPECI KCLM 062138Z AUTO 05003KT 10SM -RA SCT009 BKN030 OVC045 09/07 A2995 RMK AO2 RAB2059 P0000=
201105062138 SPECI KCLM 062138Z AUTO 05003KT 10SM -RA SCT009 BKN030 OVC045 09/07 A2995 RMK AO2 RAB2059 P0000=
201105062118 SPECI KCLM 062118Z AUTO 08005KT 10SM -RA FEW011 SCT018 OVC030 09/07 A2995 RMK AO2 RAB2059 P0000=
201105062118 SPECI KCLM 062118Z AUTO 08005KT 10SM -RA FEW011 SCT018 OVC030 09/07 A2995 RMK AO2 RAB2059 P0000=
201105062053 METAR KCLM 062053Z AUTO 12004KT 10SM SCT009 BKN018 OVC032 09/06 A2996 RMK AO2 SLP146 T00940061 58013=
201105061953 METAR KCLM 061953Z AUTO 07004KT 10SM OVC009 09/07 A2998 RMK AO2 SLP153 T00890067=
201105061853 METAR KCLM 061853Z AUTO 10003KT 10SM BKN009 OVC015 08/06 A2999 RMK AO2 CIG 006V013 SLP158 T00830061=
201105061755 SPECI KCLM 061755Z AUTO 07003KT 10SM BKN009 OVC020 09/07 A3000 RMK AO2 CIG 006V013=
201105061755 SPECI KCLM 061755Z AUTO 07003KT 10SM BKN009 OVC020 09/07 A3000 RMK AO2 CIG 006V013=
201105061753 METAR KCLM 061753Z AUTO 00000KT 10SM SCT007 SCT011 OVC020 09/07 A3000 RMK AO2 SLP159 60000 T00890067 10089 20067 58007=
201105061745 SPECI KCLM 061745Z AUTO 08003KT 10SM SCT006 SCT011 OVC020 08/07 A3000 RMK AO2=
201105061745 SPECI KCLM 061745Z AUTO 08003KT 10SM SCT006 SCT011 OVC020 08/07 A3000 RMK AO2=
201105061715 SPECI KCLM 061715Z AUTO VRB03KT 10SM SCT006 OVC013 08/07 A3000 RMK AO2=
201105061715 SPECI KCLM 061715Z AUTO VRB03KT 10SM SCT006 OVC013 08/07 A3000 RMK AO2=
201105061653 METAR KCLM 061653Z AUTO 04003KT 10SM BKN006 OVC013 08/07 A3001 RMK AO2 CIG 005V008 SLP162 T00830067=
201105061553 METAR KCLM 061553Z AUTO 08003KT 10SM BKN008 OVC016 08/07 A3001 RMK AO2 CIG 006V012 SLP164 T00830067=
201105061544 SPECI KCLM 061544Z AUTO 00000KT 10SM BKN008 OVC017 08/06 A3001 RMK AO2=
201105061544 SPECI KCLM 061544Z AUTO 00000KT 10SM BKN008 OVC017 08/06 A3001 RMK AO2=
201105061526 SPECI KCLM 061526Z AUTO 00000KT 10SM FEW006 OVC016 08/06 A3001 RMK AO2=
201105061526 SPECI KCLM 061526Z AUTO 00000KT 10SM FEW006 OVC016 08/06 A3001 RMK AO2=
201105061453 METAR KCLM 061453Z AUTO 00000KT 10SM FEW009 OVC014 08/06 A3002 RMK AO2 RAB37E53 SLP167 P0000 60000 T00780061 56006=
201105061423 SPECI KCLM 061423Z AUTO 00000KT 10SM SCT009 OVC014 07/07 A3002 RMK AO2=
201105061423 SPECI KCLM 061423Z AUTO 00000KT 10SM SCT009 OVC014 07/07 A3002 RMK AO2=
201105061353 METAR KCLM 061353Z AUTO 00000KT 10SM BKN009 OVC014 07/06 A3002 RMK AO2 SLP168 T00720061=
201105061338 SPECI KCLM 061338Z AUTO 00000KT 10SM SCT009 OVC014 07/06 A3002 RMK AO2=
201105061338 SPECI KCLM 061338Z AUTO 00000KT 10SM SCT009 OVC014 07/06 A3002 RMK AO2=
201105061253 METAR KCLM 061253Z AUTO 00000KT 10SM BKN014 OVC020 07/06 A3003 RMK AO2 RAE06 SLP170 P0000 T00720061=
201105061225 SPECI KCLM 061225Z AUTO 00000KT 10SM FEW008 OVC014 07/06 A3003 RMK AO2 RAE06 P0000=
201105061225 SPECI KCLM 061225Z AUTO 00000KT 10SM FEW008 OVC014 07/06 A3003 RMK AO2 RAE06 P0000=
201105061216 SPECI KCLM 061216Z AUTO 00000KT 10SM BKN014 OVC070 07/06 A3003 RMK AO2 RAE06 P0000=
201105061216 SPECI KCLM 061216Z AUTO 00000KT 10SM BKN014 OVC070 07/06 A3003 RMK AO2 RAE06 P0000=
201105061153 METAR KCLM 061153Z AUTO 00000KT 10SM -RA BKN050 OVC075 07/06 A3004 RMK AO2 SLP172 P0000 60000 70001 T00720061 10078 20067 56010=
201105061104 SPECI KCLM 061104Z AUTO 00000KT 10SM -RA SCT012 BKN048 OVC060 07/06 A3004 RMK AO2 P0000=
201105061104 SPECI KCLM 061104Z AUTO 00000KT 10SM -RA SCT012 BKN048 OVC060 07/06 A3004 RMK AO2 P0000=
201105061053 METAR KCLM 061053Z AUTO 00000KT 10SM -RA BKN012 OVC046 07/06 A3004 RMK AO2 RAB32 SLP173 P0000 T00720056=
201105061007 SPECI KCLM 061007Z AUTO 00000KT 10SM BKN014 OVC025 07/06 A3005 RMK AO2=
201105061007 SPECI KCLM 061007Z AUTO 00000KT 10SM BKN014 OVC025 07/06 A3005 RMK AO2=
201105060953 METAR KCLM 060953Z AUTO 26003KT 10SM SCT014 OVC025 07/06 A3006 RMK AO2 SLP179 T00720056=
201105060903 SPECI KCLM 060903Z AUTO 28005KT 10SM SCT014 OVC023 07/06 A3007 RMK AO2=
201105060903 SPECI KCLM 060903Z AUTO 28005KT 10SM SCT014 OVC023 07/06 A3007 RMK AO2=
201105060853 METAR KCLM 060853Z AUTO 28004KT 10SM BKN014 OVC023 07/06 A3007 RMK AO2 SLP183 T00720056 56011=
201105060835 SPECI KCLM 060835Z AUTO 28005KT 10SM BKN014 OVC023 07/06 A3007 RMK AO2=
201105060835 SPECI KCLM 060835Z AUTO 28005KT 10SM BKN014 OVC023 07/06 A3007 RMK AO2=
201105060753 METAR KCLM 060753Z AUTO 26003KT 10SM SCT014 OVC023 07/06 A3008 RMK AO2 SLP186 T00720056 401330067=
201105060653 METAR KCLM 060653Z AUTO 29005KT 10SM OVC014 07/06 A3009 RMK AO2 SLP191 T00720056=
201105060638 SPECI KCLM 060638Z AUTO 29004KT 10SM OVC014 07/06 A3009 RMK AO2=
201105060638 SPECI KCLM 060638Z AUTO 29004KT 10SM OVC014 07/06 A3009 RMK AO2=
201105060553 METAR KCLM 060553Z AUTO 27006KT 10SM OVC018 08/06 A3010 RMK AO2 SLP194 60000 T00780061 10089 20078 58005=
201105060453 METAR KCLM 060453Z AUTO 25005KT 10SM OVC016 08/06 A3011 RMK AO2 SLP198 T00780061=
201105060353 METAR KCLM 060353Z AUTO 26006KT 10SM OVC016 08/06 A3012 RMK AO2 SLP202 T00780061=
201105060253 METAR KCLM 060253Z AUTO 27005KT 5SM BR BKN016 BKN029 OVC034 08/07 A3012 RMK AO2 RAE26 SLP200 P0000 60000 T00780067 56007=
201105060244 SPECI KCLM 060244Z AUTO 27006KT 5SM BR FEW007 SCT016 OVC034 08/07 A3012 RMK AO2 RAE26 P0000=
201105060244 SPECI KCLM 060244Z AUTO 27006KT 5SM BR FEW007 SCT016 OVC034 08/07 A3012 RMK AO2 RAE26 P0000=
201105060227 SPECI KCLM 060227Z AUTO 28006KT 4SM BR FEW005 BKN016 OVC032 08/07 A3012 RMK AO2 RAE26 P0000=
201105060227 SPECI KCLM 060227Z AUTO 28006KT 4SM BR FEW005 BKN016 OVC032 08/07 A3012 RMK AO2 RAE26 P0000=
201105060219 SPECI KCLM 060219Z AUTO 28008KT 3SM -RA BR BKN005 BKN010 OVC016 08/07 A3012 RMK AO2 CIG 003V006 P0000=
201105060219 SPECI KCLM 060219Z AUTO 28008KT 3SM -RA BR BKN005 BKN010 OVC016 08/07 A3012 RMK AO2 CIG 003V006 P0000=
201105060209 SPECI KCLM 060209Z AUTO 29005KT 2 1/2SM -RA BR BKN005 OVC010 08/07 A3013 RMK AO2 P0000=
201105060209 SPECI KCLM 060209Z AUTO 29005KT 2 1/2SM -RA BR BKN005 OVC010 08/07 A3013 RMK AO2 P0000=
201105060202 SPECI KCLM 060202Z AUTO 31006KT 3SM -RA BR SCT005 OVC010 08/07 A3013 RMK AO2 CIG 008V012 P0000=
201105060202 SPECI KCLM 060202Z AUTO 31006KT 3SM -RA BR SCT005 OVC010 08/07 A3013 RMK AO2 CIG 008V012 P0000=
201105060153 METAR KCLM 060153Z AUTO 30006KT 6SM -RA BR OVC010 08/07 A3013 RMK AO2 RAB52 CIG 005V014 SLP206 P0000 T00780067=
201105060148 SPECI KCLM 060148Z AUTO 31006KT 9SM SCT005 OVC010 08/07 A3014 RMK AO2 CIG 008V014=
201105060148 SPECI KCLM 060148Z AUTO 31006KT 9SM SCT005 OVC010 08/07 A3014 RMK AO2 CIG 008V014=
201105060117 SPECI KCLM 060117Z AUTO 31007KT 10SM BKN005 OVC011 08/07 A3014 RMK AO2=
201105060117 SPECI KCLM 060117Z AUTO 31007KT 10SM BKN005 OVC011 08/07 A3014 RMK AO2=
201105060053 METAR KCLM 060053Z AUTO 30007KT 10SM SCT005 OVC013 08/07 A3014 RMK AO2 RAE00 SLP208 P0000 T00830072=
201105052353 METAR KCLM 052353Z AUTO 31009KT 10SM -RA BKN005 BKN009 OVC025 09/07 A3014 RMK AO2 RAB02E20B44 SLP208 P0000 60000 T00890072 10133 20083 53003=
201105052351 SPECI KCLM 052351Z AUTO 31008KT 10SM -RA BKN005 OVC025 09/07 A3014 RMK AO2 RAB02E20B44 CIG 004V010 P0000=
201105052351 SPECI KCLM 052351Z AUTO 31008KT 10SM -RA BKN005 OVC025 09/07 A3014 RMK AO2 RAB02E20B44 CIG 004V010 P0000=
201105052342 SPECI KCLM 052342Z AUTO 31006KT 10SM SCT005 SCT009 OVC025 09/07 A3014 RMK AO2 RAB02E20 P0000=
201105052342 SPECI KCLM 052342Z AUTO 31006KT 10SM SCT005 SCT009 OVC025 09/07 A3014 RMK AO2 RAB02E20 P0000=
201105052323 SPECI KCLM 052323Z AUTO 30006KT 10SM OVC028 09/07 A3014 RMK AO2 RAB02E20 P0000=
201105052323 SPECI KCLM 052323Z AUTO 30006KT 10SM OVC028 09/07 A3014 RMK AO2 RAB02E20 P0000=
201105052253 METAR KCLM 052253Z AUTO 04003KT 10SM OVC030 11/07 A3013 RMK AO2 SLP203 T01060072=
201105052228 SPECI KCLM 052228Z AUTO 01006KT 10SM OVC030 12/07 A3013 RMK AO2=
201105052228 SPECI KCLM 052228Z AUTO 01006KT 10SM OVC030 12/07 A3013 RMK AO2=
201105052201 SPECI KCLM 052201Z AUTO 12006KT 10SM SCT023 BKN029 BKN065 13/07 A3013 RMK AO2=
201105052201 SPECI KCLM 052201Z AUTO 12006KT 10SM SCT023 BKN029 BKN065 13/07 A3013 RMK AO2=
201105052153 METAR KCLM 052153Z AUTO 11005KT 10SM SCT023 SCT027 BKN065 13/07 A3013 RMK AO2 SLP204 T01280072=
201105052053 METAR KCLM 052053Z AUTO 06004KT 10SM SCT031 OVC060 11/07 A3014 RMK AO2 SLP207 T01110072 50004=
201105052000 SPECI KCLM 052000Z AUTO 03003KT 10SM FEW027 BKN032 OVC055 09/07 A3014 RMK AO2=
201105052000 SPECI KCLM 052000Z AUTO 03003KT 10SM FEW027 BKN032 OVC055 09/07 A3014 RMK AO2=
201105051953 METAR KCLM 051953Z AUTO 03004KT 10SM BKN029 OVC060 09/06 A3014 RMK AO2 SLP208 T00940061=
201105051912 SPECI KCLM 051912Z AUTO VRB03KT 10SM BKN027 OVC070 10/07 A3014 RMK AO2=
201105051912 SPECI KCLM 051912Z AUTO VRB03KT 10SM BKN027 OVC070 10/07 A3014 RMK AO2=
201105051853 METAR KCLM 051853Z AUTO 00000KT 10SM FEW012 SCT027 OVC070 10/07 A3014 RMK AO2 SLP206 T01000072=
201105051841 SPECI KCLM 051841Z AUTO 02004KT 10SM FEW010 BKN025 OVC065 09/07 A3014 RMK AO2=
201105051841 SPECI KCLM 051841Z AUTO 02004KT 10SM FEW010 BKN025 OVC065 09/07 A3014 RMK AO2=
201105051800 SPECI KCLM 051800Z AUTO 35003KT 10SM SCT009 BKN012 OVC026 09/07 A3013 RMK AO2=
201105051800 SPECI KCLM 051800Z AUTO 35003KT 10SM SCT009 BKN012 OVC026 09/07 A3013 RMK AO2=
201105051753 METAR KCLM 051753Z AUTO 35004KT 10SM BKN009 BKN012 OVC026 08/06 A3013 RMK AO2 CIG 006V012 SLP203 60001 T00830061 10089 20067 55000=
201105051728 SPECI KCLM 051728Z AUTO 34004KT 10SM BKN007 OVC014 08/07 A3013 RMK AO2 CIG 005V009=
201105051728 SPECI KCLM 051728Z AUTO 34004KT 10SM BKN007 OVC014 08/07 A3013 RMK AO2 CIG 005V009=
201105051720 SPECI KCLM 051720Z AUTO 00000KT 10SM SCT007 OVC016 08/07 A3013 RMK AO2=
201105051720 SPECI KCLM 051720Z AUTO 00000KT 10SM SCT007 OVC016 08/07 A3013 RMK AO2=
201105051703 SPECI KCLM 051703Z AUTO 36004KT 10SM SCT007 BKN014 OVC050 08/06 A3013 RMK AO2=
201105051703 SPECI KCLM 051703Z AUTO 36004KT 10SM SCT007 BKN014 OVC050 08/06 A3013 RMK AO2=
201105051653 METAR KCLM 051653Z AUTO 34005KT 10SM BKN014 OVC055 08/07 A3013 RMK AO2 SLP202 T00830067=
201105051636 SPECI KCLM 051636Z AUTO 32003KT 10SM BKN014 OVC021 08/06 A3013 RMK AO2=
201105051636 SPECI KCLM 051636Z AUTO 32003KT 10SM BKN014 OVC021 08/06 A3013 RMK AO2=
201105051553 METAR KCLM 051553Z AUTO 30004KT 10SM SCT009 BKN027 OVC065 08/06 A3013 RMK AO2 SLP204 T00780061=
201105051539 SPECI KCLM 051539Z AUTO 00000KT 10SM SCT009 OVC050 07/06 A3013 RMK AO2=
201105051539 SPECI KCLM 051539Z AUTO 00000KT 10SM SCT009 OVC050 07/06 A3013 RMK AO2=
201105051535 SPECI KCLM 051535Z AUTO 00000KT 10SM BKN009 OVC055 07/06 A3013 RMK AO2=
201105051535 SPECI KCLM 051535Z AUTO 00000KT 10SM BKN009 OVC055 07/06 A3013 RMK AO2=
201105051524 SPECI KCLM 051524Z AUTO 27004KT 10SM SCT009 SCT030 OVC055 07/06 A3013 RMK AO2=
201105051524 SPECI KCLM 051524Z AUTO 27004KT 10SM SCT009 SCT030 OVC055 07/06 A3013 RMK AO2=
201105051502 SPECI KCLM 051502Z AUTO 27004KT 10SM FEW015 BKN030 OVC050 07/06 A3013 RMK AO2=
201105051502 SPECI KCLM 051502Z AUTO 27004KT 10SM FEW015 BKN030 OVC050 07/06 A3013 RMK AO2=
201105051453 METAR KCLM 051453Z AUTO 27005KT 10SM SCT015 OVC028 07/06 A3013 RMK AO2 RAB24E42 SLP203 P0000 60001 T00670056 53002=
201105051412 SPECI KCLM 051412Z AUTO 25003KT 10SM SCT010 BKN021 OVC030 07/06 A3012 RMK AO2=
201105051412 SPECI KCLM 051412Z AUTO 25003KT 10SM SCT010 BKN021 OVC030 07/06 A3012 RMK AO2=
201105051353 METAR KCLM 051353Z AUTO 25003KT 10SM BKN010 OVC014 07/06 A3012 RMK AO2 RAE33 CIG 008V013 SLP200 P0000 T00670056=
201105051341 SPECI KCLM 051341Z AUTO 27004KT 10SM SCT007 OVC012 07/06 A3012 RMK AO2 RAE33 P0000=
201105051341 SPECI KCLM 051341Z AUTO 27004KT 10SM SCT007 OVC012 07/06 A3012 RMK AO2 RAE33 P0000=
201105051258 SPECI KCLM 051258Z AUTO 00000KT 6SM -RA BR BKN008 OVC018 07/06 A3012 RMK AO2 P0000=
201105051258 SPECI KCLM 051258Z AUTO 00000KT 6SM -RA BR BKN008 OVC018 07/06 A3012 RMK AO2 P0000=
201105051253 METAR KCLM 051253Z AUTO 27003KT 7SM -RA SCT010 OVC018 07/06 A3012 RMK AO2 SLP199 P0001 T00670056=
201105051153 METAR KCLM 051153Z AUTO 26005KT 7SM -RA BKN020 BKN038 OVC060 07/05 A3012 RMK AO2 SLP202 P0000 60000 T00670050 10089 20067 55001=
201105051053 METAR KCLM 051053Z AUTO 28006KT 10SM -RA FEW050 OVC060 07/06 A3012 RMK AO2 SLP199 P0000 T00720056=
201105050953 METAR KCLM 050953Z AUTO 30004KT 9SM -RA BKN037 OVC060 07/06 A3012 RMK AO2 RAB27 SLP200 P0000 T00720056=
201105050853 METAR KCLM 050853Z AUTO 32005KT 10SM FEW065 OVC080 08/05 A3013 RMK AO2 SLP203 T00780050 56014=
201105050753 METAR KCLM 050753Z AUTO 29006KT 10SM OVC100 08/04 A3014 RMK AO2 SLP207 T00830044 401280033=
201105050653 METAR KCLM 050653Z AUTO 29005KT 10SM OVC110 08/03 A3015 RMK AO2 SLP211 T00830033=
201105050553 METAR KCLM 050553Z AUTO 29006KT 10SM CLR 08/03 A3017 RMK AO2 SLP217 T00830033 10128 20078 58011=
201105050453 METAR KCLM 050453Z AUTO 28007KT 10SM CLR 08/04 A3018 RMK AO2 SLP222 T00830044=
201105050353 METAR KCLM 050353Z AUTO 28007KT 10SM CLR 08/05 A3020 RMK AO2 SLP229 T00830050=
201105050253 METAR KCLM 050253Z AUTO 34003KT 10SM FEW100 11/04 A3020 RMK AO2 SLP228 T01060044 56025=
201105050153 METAR KCLM 050153Z AUTO 12003KT 10SM CLR 12/02 A3022 RMK AO2 SLP234 T01220017=
201105050053 METAR KCLM 050053Z AUTO 08003KT 10SM CLR 13/02 A3025 RMK AO2 SLP244 T01280017=
201105042353 METAR KCLM 042353Z AUTO 08006KT 10SM CLR 12/02 A3028 RMK AO2 SLP253 T01220022 10128 20094 58030=
201105042253 METAR KCLM 042253Z AUTO 02006KT 10SM CLR 12/03 A3031 RMK AO2 SLP265 T01220033=
201105042153 METAR KCLM 042153Z AUTO 02006KT 10SM CLR 12/03 A3035 RMK AO2 SLP277 T01170033=
201105042053 METAR KCLM 042053Z AUTO VRB03KT 10SM CLR 11/04 A3037 RMK AO2 SLP284 T01110039 58018=
201105041953 METAR KCLM 041953Z AUTO VRB03KT 10SM CLR 10/04 A3039 RMK AO2 SLP292 T01000039=
201105041853 METAR KCLM 041853Z AUTO 03005KT 10SM CLR 10/03 A3041 RMK AO2 SLP299 T01000028=
201105041753 METAR KCLM 041753Z AUTO 03004KT 10SM CLR 09/03 A3042 RMK AO2 SLP303 T00940033 10094 20033 56013=
201105041653 METAR KCLM 041653Z AUTO 04005KT 10SM FEW110 09/03 A3042 RMK AO2 SLP304 T00940028=
201105041553 METAR KCLM 041553Z AUTO 00000KT 10SM CLR 08/02 A3044 RMK AO2 SLP311 T00830017=
201105041453 METAR KCLM 041453Z AUTO 25006KT 10SM CLR 07/01 A3046 RMK AO2 SLP316 T00670011 56003=
201105041353 METAR KCLM 041353Z AUTO 24004KT 10SM CLR 04/01 A3046 RMK AO2 SLP317 T00390006=
201105041253 METAR KCLM 041253Z AUTO 24006KT 10SM CLR 03/00 A3046 RMK AO2 SLP317 T00330000=
201105041153 METAR KCLM 041153Z AUTO 24007KT 10SM CLR 04/01 A3047 RMK AO2 SLP319 T00440006 10061 20033 56010=
201105041053 METAR KCLM 041053Z AUTO 24008KT 10SM CLR 04/01 A3047 RMK AO2 SLP321 T00440006=
201105040953 METAR KCLM 040953Z AUTO 24007KT 10SM CLR 04/01 A3049 RMK AO2 SLP326 T00440011=
201105040853 METAR KCLM 040853Z AUTO 24007KT 10SM CLR 05/02 A3050 RMK AO2 SLP330 T00500017 56004=
201105040753 METAR KCLM 040753Z AUTO 25006KT 10SM CLR 05/02 A3050 RMK AO2 SLP330 T00500017 401170050=
201105040653 METAR KCLM 040653Z AUTO 26008KT 10SM CLR 06/02 A3050 RMK AO2 SLP331 T00560022=
201105040553 METAR KCLM 040553Z AUTO 25007KT 10SM CLR 06/02 A3051 RMK AO2 SLP333 T00560017 10100 20056 50004=
201105040453 METAR KCLM 040453Z AUTO 24006KT 10SM CLR 06/03 A3052 RMK AO2 SLP336 T00610033=
201105040353 METAR KCLM 040353Z AUTO VRB06KT 10SM CLR 07/03 A3051 RMK AO2 SLP331 T00720033=
201105040253 METAR KCLM 040253Z AUTO 30013G19KT 10SM CLR 08/03 A3050 RMK AO2 SLP329 T00780033 52004=
201105040153 METAR KCLM 040153Z AUTO 31016G22KT 10SM CLR 08/04 A3049 RMK AO2 PK WND 30028/0112 SLP327 T00830039=
201105040053 METAR KCLM 040053Z AUTO 31016G25KT 10SM CLR 09/04 A3049 RMK AO2 PK WND 31028/0005 SLP327 T00940044=
201105032353 METAR KCLM 032353Z AUTO 31015G28KT 10SM CLR 09/04 A3049 RMK AO2 PK WND 30028/2344 SLP325 T00940039 10117 20094 53000=
201105032253 METAR KCLM 032253Z AUTO 31019G26KT 10SM CLR 10/04 A3049 RMK AO2 PK WND 33028/2222 SLP324 T01000044=
201105032153 METAR KCLM 032153Z AUTO 31015G26KT 10SM CLR 11/04 A3048 RMK AO2 PK WND 31026/2153 SLP324 T01110044=
201105032053 METAR KCLM 032053Z AUTO 32016G27KT 10SM FEW055 10/04 A3049 RMK AO2 PK WND 30027/2050 SLP325 T01000044 53003=
201105031953 METAR KCLM 031953Z AUTO 31012G22KT 10SM CLR 11/05 A3048 RMK AO2 SLP321 T01110050=
201105031921 SPECI KCLM 031921Z AUTO 31013G20KT 10SM SCT028 11/04 A3048 RMK AO2=
201105031921 SPECI KCLM 031921Z AUTO 31013G20KT 10SM SCT028 11/04 A3048 RMK AO2=
201105031912 SPECI KCLM 031912Z AUTO 32014G19KT 10SM BKN028 11/03 A3048 RMK AO2=
201105031912 SPECI KCLM 031912Z AUTO 32014G19KT 10SM BKN028 11/03 A3048 RMK AO2=
201105031853 METAR KCLM 031853Z AUTO 33010G17KT 10SM FEW025 BKN060 BKN110 11/04 A3048 RMK AO2 SLP323 T01060044=
201105031753 METAR KCLM 031753Z AUTO 31015G21KT 10SM BKN060 09/05 A3048 RMK AO2 SLP322 T00940050 10106 20067 51012=
201105031653 METAR KCLM 031653Z AUTO 30011G17KT 10SM FEW033 OVC060 09/03 A3047 RMK AO2 SLP319 T00940028=
201105031553 METAR KCLM 031553Z AUTO 28014G20KT 10SM SCT035 SCT048 BKN065 09/03 A3045 RMK AO2 SLP313 T00940028=
201105031453 METAR KCLM 031453Z AUTO 29007KT 10SM BKN046 OVC100 08/03 A3044 RMK AO2 SLP310 T00830028 53019=
201105031353 METAR KCLM 031353Z AUTO 28010KT 10SM OVC100 07/02 A3043 RMK AO2 SLP304 T00720017=
201105031253 METAR KCLM 031253Z AUTO 29007KT 10SM FEW065 OVC110 07/02 A3040 RMK AO2 SLP297 T00720017=
201105031153 METAR KCLM 031153Z AUTO 29008KT 10SM BKN100 07/02 A3039 RMK AO2 SLP292 70002 T00670017 10072 20061 53009=
201105031053 METAR KCLM 031053Z AUTO 27011KT 10SM FEW050 SCT065 OVC100 07/02 A3037 RMK AO2 SLP288 T00720022=
201105030953 METAR KCLM 030953Z AUTO 26008KT 10SM FEW075 OVC090 07/03 A3036 RMK AO2 SLP283 T00670028=
201105030853 METAR KCLM 030853Z AUTO 26004KT 10SM SCT045 OVC070 07/03 A3036 RMK AO2 SLP283 T00670028 52015=
201105030753 METAR KCLM 030753Z AUTO 28004KT 10SM BKN060 OVC080 06/03 A3035 RMK AO2 SLP278 T00610028 401060061 TSNO=
201105030653 METAR KCLM 030653Z AUTO 29005KT 10SM FEW055 OVC080 07/02 A3033 RMK AO2 SLP273 T00720022=
201105030553 METAR KCLM 030553Z AUTO 29009KT 10SM OVC055 07/02 A3032 RMK AO2 SLP268 T00720022 10106 20072 51017=
201105030453 METAR KCLM 030453Z AUTO 27008KT 10SM BKN060 OVC080 07/03 A3031 RMK AO2 SLP265 T00720028=
201105030353 METAR KCLM 030353Z AUTO 26008KT 10SM BKN060 OVC080 08/03 A3029 RMK AO2 SLP257 T00780028=
201105030253 METAR KCLM 030253Z AUTO 28008KT 10SM BKN065 08/03 A3026 RMK AO2 SLP250 T00830033 53009=
201105030153 METAR KCLM 030153Z AUTO 31007KT 10SM BKN042 BKN050 BKN060 11/05 A3025 RMK AO2 SLP245 T01060050=
201105030053 METAR KCLM 030053Z AUTO VRB04KT 10SM FEW040 BKN060 BKN075 09/06 A3025 RMK AO2 SLP243 T00940056=
201105030042 SPECI KCLM 030042Z AUTO 00000KT 10SM FEW011 BKN038 BKN055 09/07 A3024 RMK AO2=
201105030042 SPECI KCLM 030042Z AUTO 00000KT 10SM FEW011 BKN038 BKN055 09/07 A3024 RMK AO2=
201105030008 SPECI KCLM 030008Z AUTO VRB05KT 10SM FEW009 BKN014 OVC020 08/06 A3024 RMK AO2=
201105030008 SPECI KCLM 030008Z AUTO VRB05KT 10SM FEW009 BKN014 OVC020 08/06 A3024 RMK AO2=
201105022353 METAR KCLM 022353Z AUTO 19003KT 10SM BKN018 BKN023 OVC034 08/06 A3024 RMK AO2 RAB19E45 SLP240 P0000 60000 T00830061 10083 20072 51012=
201105022305 SPECI KCLM 022305Z AUTO 36003KT 10SM FEW009 BKN018 OVC023 08/06 A3023 RMK AO2=
201105022305 SPECI KCLM 022305Z AUTO 36003KT 10SM FEW009 BKN018 OVC023 08/06 A3023 RMK AO2=
201105022253 METAR KCLM 022253Z AUTO 34004KT 10SM OVC018 08/06 A3023 RMK AO2 RAB30E51 SLP237 P0000 T00780056=
201105022153 METAR KCLM 022153Z AUTO 34004KT 10SM OVC012 08/05 A3020 RMK AO2 RAE18 SLP229 P0000 T00780050=
201105022108 SPECI KCLM 022108Z AUTO VRB04KT 10SM -RA OVC010 07/06 A3018 RMK AO2 P0000=
201105022108 SPECI KCLM 022108Z AUTO VRB04KT 10SM -RA OVC010 07/06 A3018 RMK AO2 P0000=
201105022053 METAR KCLM 022053Z AUTO 36003KT 10SM -RA OVC008 07/05 A3017 RMK AO2 RAE25B50 SLP220 P0000 60000 T00720050 53016=
201105021957 SPECI KCLM 021957Z AUTO 34003KT 10SM -RA BKN008 OVC013 08/06 A3015 RMK AO2 CIG 006V009 P0000=
201105021957 SPECI KCLM 021957Z AUTO 34003KT 10SM -RA BKN008 OVC013 08/06 A3015 RMK AO2 CIG 006V009 P0000=
201105021953 METAR KCLM 021953Z AUTO 00000KT 10SM -RA SCT008 OVC015 07/06 A3015 RMK AO2 RAB04 SLP213 P0000 T00720056=
201105021946 SPECI KCLM 021946Z AUTO 31005KT 10SM -RA FEW009 OVC015 07/05 A3015 RMK AO2 RAB04 P0000=
201105021946 SPECI KCLM 021946Z AUTO 31005KT 10SM -RA FEW009 OVC015 07/05 A3015 RMK AO2 RAB04 P0000=
201105021902 SPECI KCLM 021902Z AUTO 30006KT 10SM FEW010 OVC017 08/05 A3014 RMK AO2=
201105021902 SPECI KCLM 021902Z AUTO 30006KT 10SM FEW010 OVC017 08/05 A3014 RMK AO2=
201105021853 METAR KCLM 021853Z AUTO 31008KT 10SM OVC013 07/05 A3014 RMK AO2 RAE24 SLP207 P0000 T00720050=
201105021830 SPECI KCLM 021830Z AUTO 31004KT 10SM FEW009 BKN013 BKN028 08/06 A3013 RMK AO2 RAE24 P0000=
201105021830 SPECI KCLM 021830Z AUTO 31004KT 10SM FEW009 BKN013 BKN028 08/06 A3013 RMK AO2 RAE24 P0000=
201105021825 SPECI KCLM 021825Z AUTO 31006KT 10SM FEW008 SCT013 BKN039 08/06 A3013 RMK AO2 RAE24 P0000=
201105021825 SPECI KCLM 021825Z AUTO 31006KT 10SM FEW008 SCT013 BKN039 08/06 A3013 RMK AO2 RAE24 P0000=
201105021753 METAR KCLM 021753Z AUTO 29009KT 10SM -RA SCT011 BKN029 BKN035 07/06 A3013 RMK AO2 SLP204 P0001 60002 T00720056 10083 20067 51015=
201105021737 SPECI KCLM 021737Z AUTO 30008KT 10SM -RA SCT011 BKN029 OVC055 07/06 A3012 RMK AO2 P0001=
201105021737 SPECI KCLM 021737Z AUTO 30008KT 10SM -RA SCT011 BKN029 OVC055 07/06 A3012 RMK AO2 P0001=
201105021706 SPECI KCLM 021706Z AUTO 32008KT 10SM BKN011 OVC014 07/05 A3012 RMK AO2 RAE02 CIG 007V013 P0001=
201105021706 SPECI KCLM 021706Z AUTO 32008KT 10SM BKN011 OVC014 07/05 A3012 RMK AO2 RAE02 CIG 007V013 P0001=
201105021653 METAR KCLM 021653Z AUTO 32007KT 10SM -RA BKN008 OVC013 07/06 A3012 RMK AO2 CIG 006V011 SLP201 P0000 T00670056=
201105021630 SPECI KCLM 021630Z AUTO 31007KT 7SM -RA BKN008 OVC016 07/05 A3012 RMK AO2 CIG 006V012 P0000=
201105021630 SPECI KCLM 021630Z AUTO 31007KT 7SM -RA BKN008 OVC016 07/05 A3012 RMK AO2 CIG 006V012 P0000=
201105021618 SPECI KCLM 021618Z AUTO 30009KT 10SM -RA BKN010 OVC015 07/05 A3012 RMK AO2 CIG 007V013 P0000=
201105021618 SPECI KCLM 021618Z AUTO 30009KT 10SM -RA BKN010 OVC015 07/05 A3012 RMK AO2 CIG 007V013 P0000=
201105021553 METAR KCLM 021553Z AUTO 29010KT 10SM -RA BKN007 OVC014 07/05 A3010 RMK AO2 SLP195 P0000 T00670050=
201105021536 SPECI KCLM 021536Z AUTO 30010G17KT 10SM BKN007 OVC041 07/06 A3010 RMK AO2 RAE28 P0000=
201105021536 SPECI KCLM 021536Z AUTO 30010G17KT 10SM BKN007 OVC041 07/06 A3010 RMK AO2 RAE28 P0000=
201105021523 SPECI KCLM 021523Z AUTO 31009KT 10SM -RA SCT007 BKN041 OVC049 07/06 A3010 RMK AO2 P0000=
201105021523 SPECI KCLM 021523Z AUTO 31009KT 10SM -RA SCT007 BKN041 OVC049 07/06 A3010 RMK AO2 P0000=
201105021453 METAR KCLM 021453Z AUTO 29007KT 10SM -RA BKN055 OVC075 07/06 A3009 RMK AO2 SLP189 P0001 60001 T00670056 53008=
201105021353 METAR KCLM 021353Z AUTO VRB03KT 8SM -RA FEW041 BKN048 OVC060 07/05 A3006 RMK AO2 RAB11E22B52 SLP181 P0000 T00720050=
201105021323 SPECI KCLM 021323Z AUTO 28007KT 10SM SCT015 BKN048 07/05 A3008 RMK AO2 RAB11E22 P0000=
201105021323 SPECI KCLM 021323Z AUTO 28007KT 10SM SCT015 BKN048 07/05 A3008 RMK AO2 RAB11E22 P0000=
201105021310 SPECI KCLM 021310Z AUTO 30010G18KT 10SM BKN015 BKN060 OVC085 08/05 A3008 RMK AO2=
201105021310 SPECI KCLM 021310Z AUTO 30010G18KT 10SM BKN015 BKN060 OVC085 08/05 A3008 RMK AO2=
201105021253 METAR KCLM 021253Z AUTO 28006KT 10SM SCT015 BKN070 OVC090 08/05 A3007 RMK AO2 SLP185 T00780050=
201105021153 METAR KCLM 021153Z AUTO 30005KT 10SM BKN090 OVC110 08/04 A3006 RMK AO2 SLP180 T00780039 10083 20067 55013=
201105021053 METAR KCLM 021053Z AUTO 27005KT 10SM BKN110 07/04 A3006 RMK AO2 SLP180 T00720044=
201105020953 METAR KCLM 020953Z AUTO 00000KT 10SM FEW120 07/04 A3008 RMK AO2 SLP186 T00720044=
201105020853 METAR KCLM 020853Z AUTO 00000KT 10SM SCT120 07/05 A3010 RMK AO2 SLP193 T00720050 56017=
201105020753 METAR KCLM 020753Z AUTO 00000KT 10SM CLR 08/05 A3011 RMK AO2 SLP198 T00780050 401280039=
201105020653 METAR KCLM 020653Z AUTO 00000KT 10SM BKN120 07/05 A3013 RMK AO2 SLP205 T00720050=
201105020553 METAR KCLM 020553Z AUTO 00000KT 10SM OVC110 08/05 A3015 RMK AO2 SLP210 T00780050 10128 20072 58018=
201105020453 METAR KCLM 020453Z AUTO 00000KT 10SM CLR 07/04 A3017 RMK AO2 SLP217 T00720044=
201105020353 METAR KCLM 020353Z AUTO 00000KT 10SM CLR 08/04 A3019 RMK AO2 SLP223 T00830044=
201105020253 METAR KCLM 020253Z AUTO 00000KT 10SM CLR 09/04 A3020 RMK AO2 SLP229 T00940044 58023=
201105020153 METAR KCLM 020153Z AUTO 00000KT 10SM CLR 12/02 A3023 RMK AO2 SLP237 T01170022=
201105020053 METAR KCLM 020053Z AUTO 00000KT 10SM FEW100 13/02 A3025 RMK AO2 SLP246 T01280017=
201105012353 METAR KCLM 012353Z AUTO 02004KT 10SM CLR 12/03 A3027 RMK AO2 SLP251 T01220033 10128 20089 56025=
201105012253 METAR KCLM 012253Z AUTO VRB04KT 10SM CLR 13/04 A3029 RMK AO2 SLP258 T01280039=
201105012153 METAR KCLM 012153Z AUTO VRB05KT 10SM CLR 12/04 A3032 RMK AO2 SLP270 T01170039=
201105012053 METAR KCLM 012053Z AUTO 05004KT 10SM CLR 12/04 A3034 RMK AO2 SLP276 T01170039 58012=
201105011953 METAR KCLM 011953Z AUTO VRB04KT 10SM CLR 11/04 A3036 RMK AO2 SLP281 T01060039=
201105011853 METAR KCLM 011853Z AUTO VRB05KT 10SM CLR 11/04 A3037 RMK AO2 SLP286 T01060039=
201105011753 METAR KCLM 011753Z AUTO VRB04KT 10SM CLR 09/03 A3038 RMK AO2 SLP290 T00890033 10100 20039 55007=
201105011653 METAR KCLM 011653Z AUTO 01003KT 10SM CLR 09/04 A3037 RMK AO2 SLP288 T00940039=
201105011553 METAR KCLM 011553Z AUTO 00000KT 10SM CLR 09/02 A3039 RMK AO2 SLP291 T00890017=
201105011453 METAR KCLM 011453Z AUTO 26007KT 10SM CLR 06/02 A3040 RMK AO2 SLP297 T00610017 55001=
201105011353 METAR KCLM 011353Z AUTO 24008KT 10SM CLR 04/01 A3040 RMK AO2 SLP297 T00440006=
201105011253 METAR KCLM 011253Z AUTO 24010KT 10SM CLR 04/01 A3040 RMK AO2 SLP296 T00440006=
201105011153 METAR KCLM 011153Z AUTO 24007KT 10SM CLR 04/01 A3041 RMK AO2 SLP299 T00440011 10061 20044 58009=
201105011053 METAR KCLM 011053Z AUTO 25007KT 10SM CLR 04/01 A3042 RMK AO2 SLP305 T00440011=
201105010953 METAR KCLM 010953Z AUTO 24007KT 10SM CLR 04/02 A3042 RMK AO2 SLP305 T00440017=
201105010853 METAR KCLM 010853Z AUTO 26006KT 10SM CLR 05/02 A3043 RMK AO2 SLP306 T00500022 58004=
201105010753 METAR KCLM 010753Z AUTO 27009KT 10SM CLR 06/02 A3044 RMK AO2 SLP312 T00560022 401220033=
201105010653 METAR KCLM 010653Z AUTO 28010KT 10SM CLR 06/02 A3045 RMK AO2 SLP312 T00560022=
201105010553 METAR KCLM 010553Z AUTO 28007KT 10SM CLR 06/03 A3044 RMK AO2 SLP311 T00560033 10111 20056 58001=
201105010453 METAR KCLM 010453Z AUTO 27008KT 10SM CLR 06/03 A3045 RMK AO2 SLP314 T00610033=
201105010353 METAR KCLM 010353Z AUTO 26007KT 10SM CLR 07/03 A3045 RMK AO2 SLP314 T00670033=
201105010253 METAR KCLM 010253Z AUTO 29009G16KT 10SM BKN055 08/04 A3045 RMK AO2 SLP312 T00830039 58005=
201105010153 METAR KCLM 010153Z AUTO 28013KT 10SM OVC050 09/03 A3045 RMK AO2 SLP315 T00940033=
201105010053 METAR KCLM 010053Z AUTO 29006KT 10SM OVC050 10/04 A3046 RMK AO2 SLP315 T01000044=

# No short TAF reports from KCLM in databse.

###################################
#  large TAF from KCLM
###################################
201105312320 TAF KCLM 312320Z 0100/0124 VRB05KT P6SM VCSH SCT035 BKN070 FM010200
                       28006KT P6SM VCSH SCT035 BKN070 FM011100
                       24005KT P6SM VCSH BKN015 OVC030 FM011800
                       31005KT P6SM VCSH SCT030 BKN050=
201105311742 TAF KCLM 311742Z 3118/0118 VRB05KT P6SM SCT035 OVC070
                      TEMPO 3118/3122 -SHRA BKN030 OVC050 FM312200
                       VRB05KT P6SM -SHRA BKN030 OVC060 FM010000
                       29008KT P6SM -SHRA BKN030 OVC050 FM010600
                       25004KT P6SM -SHRA BKN015 OVC030=
201105311528 KCLM 311528Z 3115/0112 23003KT P6SM SCT035 OVC070
                      TEMPO 3115/3118 BKN035 BKN070 FM311800 31006KT
                       P6SM -SHRA SCT035 OVC060 FM010000 29010KT
                       P6SM VCSH SCT020 BKN040 OVC080 FM010900
                       26006KT P6SM VCSH OVC015=
201105311125 TAF KCLM 311125Z 3112/0112 23003KT P6SM SCT040 OVC080 FM311800
                       31006KT P6SM -SHRA OVC015 FM010000 29010KT
                       P6SM VCSH SCT020 BKN040 OVC080 FM010900
                       26006KT P6SM VCSH OVC015=
201105310535 TAF KCLM 310535Z 3106/0106 00000KT P6SM SCT040 BKN200 FM311500
                       27006KT P6SM BKN090 OVC200 FM311800 31006KT
                       P6SM -SHRA OVC015 FM010000 31005KT P6SM
                       VCSH SCT020 BKN040 OVC080=
201105302320 TAF KCLM 302320Z 3100/3124 VRB04KT P6SM BKN035 BKN250 FM310200
                       30005KT P6SM SCT035 BKN060 BKN250 FM310400
                       25005KT P6SM SCT100 BKN250 FM311700 33007KT
                       P6SM VCSH BKN060 BKN100=
201105301736 TAF KCLM 301736Z 3018/3118 33004KT P6SM OVC028 FM302000 34005KT
                       P6SM OVC035 FM302300 31007KT P6SM SCT040
                       SCT250 FM310400 26006KT P6SM SCT100 BKN250=
201105301451 KCLM 301451Z 3015/3112 27007KT P6SM OVC024 FM302000 34006KT P6SM
                       BKN035 FM302300 31007KT P6SM SCT040 SCT250
                       FM310400 26005KT P6SM SCT100 BKN250=
201105301120 TAF KCLM 301120Z 3012/3112 27007KT P6SM SCT008 OVC026
                      TEMPO 3013/3017 BKN008 OVC020 FM302000 34006KT
                       P6SM BKN035 FM302300 31007KT P6SM SCT040
                       SCT250 FM310400 26005KT P6SM SCT100 BKN250=
201105300520 TAF KCLM 300520Z 3006/3106 30009KT P6SM OVC008 FM301700 26005KT
                       P6SM SCT011 OVC018 FM302000 VRB03KT P6SM
                       BKN025 FM302200 VRB03KT P6SM SCT030=
201105292320 TAF KCLM 292320Z 3000/3024 31012G22KT P6SM FEW026 FM300300 29009KT
                       P6SM OVC020 FM300800 27006KT P6SM OVC012
                       FM302000 VRB03KT P6SM BKN025 FM302200 VRB03KT
                       P6SM SCT030=
201105292027 KCLM 292027Z 2920/3018 32010G17KT P6SM SCT025 FM300300 29009KT
                       P6SM OVC020 FM300800 29006KT P6SM OVC012=
201105291720 TAF KCLM 291720Z 2918/3018 31005KT P6SM SCT080 FM292100 29012KT
                       P6SM SCT080 FM300600 29009KT P6SM OVC012=
201105291522 KCLM 291522Z 2915/3012 30005KT P6SM SCT009 SCT100
                      TEMPO 2915/2917 BKN009 OVC100 FM292100 29010KT
                       P6SM SCT080 BKN250 FM300400 29006KT P6SM
                       BKN100 FM300900 26005KT P6SM OVC015=
201105291120 TAF KCLM 291120Z 2912/3012 27008KT P6SM OVC080 FM291400 VRB04KT
                       P6SM BKN050 FM292100 29010KT P6SM SCT080
                       BKN250 FM300400 29006KT P6SM BKN100 FM300900
                       26005KT P6SM OVC015=
201105290520 TAF KCLM 290520Z 2906/3006 28007KT P6SM SKC FM291000 26005KT P6SM
                       BKN100 FM291400 VRB04KT P6SM BKN050 FM292100
                       29010KT P6SM SCT080 BKN250=
201105282320 TAF KCLM 282320Z 2900/2924 28008KT P6SM SCT045 BKN200 FM290900
                       25003KT P6SM SCT045 BKN200 FM292200 29009KT
                       P6SM SCT045 BKN200=
201105281720 TAF KCLM 281720Z 2818/2918 VRB03KT P6SM VCSH SCT040 BKN060 FM282300
                       29012KT P6SM VCSH SCT040 BKN060 FM290600
                       27006KT P6SM BKN060 FM291300 25003KT P6SM
                       BKN040=
201105281120 TAF KCLM 281120Z 2812/2912 24004KT P6SM OVC050 FM282200 29012KT
                       P6SM SCT040 BKN070 FM290600 27006KT P6SM
                       OVC100=
201105280520 TAF KCLM 280520Z 2806/2906 24004KT P6SM OVC060 FM281300 25003KT
                       P6SM SCT030 BKN090 FM282200 29012KT P6SM
                       SCT040 BKN070=
201105272323 TAF KCLM 272323Z 2800/2824 VRB04KT P6SM VCSH SCT020 BKN040 FM280200
                       29010KT P6SM BKN050 BKN090 FM281300 25003KT
                       P6SM SCT030 BKN090 FM282200 29012KT P6SM
                       SCT040 SCT070=
201105272002 KCLM 272002Z 2720/2818 00000KT P6SM VCSH SCT015 BKN040 BKN060
                      TEMPO 2720/2724 5SM -SHRA FM280000 29006KT
                       P6SM SCT050 BKN090 FM280300 29010KT P6SM
                       SCT050 BKN090 FM281300 25003KT P6SM SCT030
                       BKN090=
201105271722 TAF KCLM 271722Z 2718/2818 VRB03KT P6SM VCSH BKN019 OVC045 FM272100
                       29006KT P6SM SCT050 BKN090 FM280300 29010KT
                       P6SM SCT050 BKN090 FM281300 25003KT P6SM
                       SCT030 BKN090=
201105271126 TAF KCLM 271126Z 2712/2812 31004KT P6SM -SHRA OVC050
                      TEMPO 2712/2716 -SHRA BKN025 OVC040 FM271600
                       VRB04KT P6SM SCT040 BKN060 BKN100 FM272100
                       29006KT P6SM SCT050 BKN090
                      PROB30 2721/2803 -SHRA BKN050 OVC090 FM280300
                       29010KT P6SM SCT050 BKN100=
201105270524 TAF KCLM 270524Z 2706/2806 00000KT P6SM SCT040 BKN070 BKN120
                      TEMPO 2706/2710 -SHRA BKN040 OVC070 FM271500
                       VRB04KT P6SM SCT040 BKN060 OVC100
                      PROB30 2715/2721 -SHRA BKN040 OVC060 FM272100
                       31006KT P6SM SCT050 BKN090=
201105262332 TAF KCLM 262332Z 2700/2724 11006KT P6SM VCSH SCT035 BKN050 FM270600
                       VRB05KT P6SM -SHRA BKN030 OVC070 FM271500
                       27006KT P6SM VCSH SCT025 BKN050=
201105261725 TAF KCLM 261725Z 2618/2718 VRB05KT P6SM SCT040 BKN060 FM270000
                       VRB05KT P6SM BKN040 BKN060 FM270800 26006KT
                       P6SM -SHRA BKN030 OVC090=
201105261120 TAF KCLM 261120Z 2612/2712 27005KT P6SM SCT060 BKN120 FM261800
                       34006KT P6SM SCT060 BKN120 FM270800 VRB03KT
                       P6SM -SHRA BKN050 OVC100=
201105260522 TAF KCLM 260522Z 2606/2706 00000KT P6SM SCT022 BKN080
                      TEMPO 2606/2610 -SHRA BKN022 OVC080 FM261800
                       34006KT P6SM SCT060 BKN120=
201105260303 KCLM 260303Z 2603/2624 00000KT P6SM SCT020 OVC100
                      TEMPO 2603/2606 -SHRA BKN013 OVC020 FM260600
                       27008KT P6SM -SHRA SCT025 OVC045 FM261500
                       26006KT P6SM BKN050=
201105260057 KCLM 260057Z 2601/2624 30005KT P6SM BKN007 OVC012
                      TEMPO 2601/2605 5SM -RA BR OVC003 FM260800
                       27008KT P6SM -SHRA SCT025 OVC045 FM261500
                       26006KT P6SM BKN050=
201105260036 KCLM 260036Z 2601/2624 31006KT 5SM -RA BR BKN015 OVC020
                      TEMPO 2601/2605 5SM -RA BR BKN003 OVC010
                       FM260800 27008KT P6SM -SHRA SCT025 OVC045
                       FM261500 26006KT P6SM BKN050=
201105252353 TAF KCLM 252353Z 2600/2624 31006KT 5SM -RA BR BKN015 OVC020 FM260800
                       27008KT P6SM -SHRA SCT025 OVC045 FM261500
                       26006KT P6SM BKN050=
201105251750 TAF KCLM 251750Z 2518/2618 VRB04KT P6SM -RA BKN030 OVC070 FM252100
                       34004KT P6SM -RA BKN020 OVC040 FM260800
                       25006KT P6SM -SHRA SCT025 OVC045 FM261500
                       27008KT P6SM BKN050=
201105251120 TAF KCLM 251120Z 2512/2612 22003KT P6SM OVC100 FM251500 VRB03KT
                       P6SM BKN060 OVC100 FM251800 VRB04KT P6SM
                       -RA BKN030 OVC070 FM252100 34004KT P6SM
                       -RA BKN020 OVC040 FM260800 25006KT P6SM
                       -SHRA SCT025 OVC045=
201105250527 TAF KCLM 250527Z 2506/2606 VRB03KT P6SM FEW070 BKN250 FM251400
                       VRB03KT P6SM BKN060 BKN120 FM251800 VRB04KT
                       P6SM -RA BKN030 OVC070 FM252100 34004KT
                       P6SM -RA BKN020 OVC040=
201105242333 TAF KCLM 242333Z 2500/2524 08005KT P6SM SCT045 SCT200 FM250500
                       VRB03KT P6SM SCT045 BKN200 FM251200 VRB03KT
                       P6SM BKN060 BKN120 FM251800 30008KT P6SM
                       -RA BKN030 OVC070=
201105241733 TAF KCLM 241733Z 2418/2518 VRB05KT P6SM SCT025 FM242000 VRB05KT
                       P6SM SCT030 FM250500 VRB03KT P6SM SCT080
                       BKN200 FM251200 VRB03KT P6SM BKN060 BKN120=
201105241120 TAF KCLM 241120Z 2412/2512 25004KT P6SM FEW020 SCT050
                      TEMPO 2414/2417 BKN020 BKN050 FM241700 35005KT
                       P6SM SCT025 SCT200 FM250200 VRB03KT P6SM
                       SCT080 BKN200 FM250800 VRB03KT P6SM BKN060
                       BKN120=
201105240521 TAF KCLM 240521Z 2406/2506 26005KT P6SM SCT060 FM241100 26004KT
                       P6SM BKN025 FM241700 35005KT P6SM SCT035
                       SCT200 FM250200 VRB03KT P6SM SCT080 BKN200=
201105232329 TAF KCLM 232329Z 2400/2424 33009KT P6SM SCT040 BKN090 FM240200
                       32008KT P6SM SCT090 FM241100 27004KT P6SM
                       BKN025 FM241700 26003KT P6SM SCT035 SCT200=
201105231725 TAF KCLM 231725Z 2318/2418 33008KT P6SM SCT100 FM232100 30008KT
                       P6SM SCT060 FM241100 27004KT P6SM BKN025
                       FM241700 26003KT P6SM SCT035 SCT200=
201105231120 TAF KCLM 231120Z 2312/2412 26006KT P6SM SCT030 BKN080 FM232100
                       30008KT P6SM SCT060 FM241100 VRB03KT P6SM
                       BKN030=
201105230520 TAF KCLM 230520Z 2306/2406 28008KT P6SM SCT040 BKN080
                      TEMPO 2308/2312 BKN040 OVC080 FM231200 23005KT
                       P6SM SCT030 BKN060 FM240100 31008KT P6SM
                       SCT060=
201105222320 TAF KCLM 222320Z 2300/2324 29006KT P6SM OVC028 FM230900 28005KT
                       P6SM OVC020 FM231800 27005KT P6SM SCT025
                       BKN045=
201105221738 TAF KCLM 221738Z 2218/2318 31010KT P6SM SCT035 OVC050 FM222100
                       28008KT P6SM SCT030 BKN060 FM231200 28005KT
                       P6SM OVC020=
201105221120 TAF KCLM 221120Z 2212/2312 28008KT P6SM SCT020 OVC035 FM222100
                       28008KT P6SM SCT030 BKN060=
201105220902 KCLM 220902Z 2209/2306 26006KT P6SM SCT025 OVC060
                      TEMPO 2209/2212 BKN025 OVC060 FM221200 28008KT
                       P6SM BKN025 OVC050 FM221700 27006KT P6SM
                       SCT030 BKN060=
201105220520 TAF KCLM 220520Z 2206/2306 26006KT P6SM SCT007 BKN025 OVC045 FM220900
                       28008KT P6SM BKN007 OVC025 FM221100 28008KT
                       P6SM SCT005 OVC015 FM221700 27006KT P6SM
                       SCT020 OVC045 FM222100 29007KT P6SM SCT030
                       BKN045=
201105220239 KCLM 220239Z 2203/2224 30008KT P6SM BKN007 OVC035
                      TEMPO 2203/2207 SCT010 OVC040 FM220700 28008KT
                       P6SM BKN007 OVC025 FM221000 28008KT P6SM
                       SCT005 OVC015 FM221700 27006KT P6SM SCT020
                       OVC045 FM222100 29007KT P6SM SCT030 BKN045=
201105212329 TAF KCLM 212329Z 2200/2224 00000KT P6SM OVC040 FM220600 28008KT
                       P6SM OVC025 FM221000 28008KT P6SM OVC015
                       FM221700 27006KT P6SM SCT020 OVC045 FM222100
                       29007KT P6SM SCT030 BKN045=
201105211734 TAF KCLM 211734Z 2118/2218 00000KT P6SM SCT009 BKN060 OVC080
                      TEMPO 2118/2120 BKN009 BKN060 FM220600 28008KT
                       P6SM OVC025 FM221000 28008KT P6SM OVC015
                       FM221700 27006KT P6SM SCT020 OVC045=
201105211120 TAF KCLM 211120Z 2112/2212 25005KT P6SM -RA OVC050 FM211800 27007KT
                       P6SM SCT025 OVC040 FM220600 28008KT P6SM
                       OVC025 FM221000 28008KT P6SM OVC015=
201105210527 TAF KCLM 210527Z 2106/2206 28010KT P6SM SCT030 OVC080
                      TEMPO 2112/2116 BKN025 OVC050 FM211600 28008KT
                       P6SM BKN025 OVC040 FM212000 28008KT P6SM
                       VCSH SCT025 BKN040 FM220500 28010KT P6SM
                       SCT020 OVC040=
201105210305 KCLM 210305Z 2103/2124 28015KT P6SM BKN080 OVC150 FM210900 29012KT
                       P6SM SCT015 BKN050
                      TEMPO 2112/2116 BKN015 OVC050 FM211700 28006KT
                       P6SM SCT020 BKN040=
201105202336 TAF KCLM 202336Z 2100/2124 31011KT P6SM BKN250 FM210900 29012KT
                       P6SM OVC012 FM211700 28006KT P6SM SCT020
                       BKN035=
201105201734 TAF KCLM 201734Z 2018/2118 VRB03KT P6SM FEW250 FM210000 29012KT
                       P6SM BKN120 BKN200 FM210900 29012KT P6SM
                       OVC012=
201105201120 TAF KCLM 201120Z 2012/2112 28010KT P6SM SCT250 FM202100 29012KT
                       P6SM BKN200 FM210000 29012KT P6SM BKN120
                       BKN200 FM210800 29012KT P6SM BKN050=
201105200520 TAF KCLM 200520Z 2006/2106 29008KT P6SM SCT250 FM201200 VRB03KT
                       P6SM SCT250 FM202100 29008KT P6SM BKN200
                       FM210400 29012KT P6SM BKN120 BKN200=
201105192320 TAF KCLM 192320Z 2000/2024 29008KT P6SM FEW100 SCT250=
201105191720 TAF KCLM 191720Z 1918/2018 VRB04KT P6SM SCT250 FM200000 28008KT
                       P6SM SCT250=
201105191120 TAF KCLM 191120Z 1912/2012 00000KT P6SM SKC FM200000 28008KT P6SM
                       SCT250=
201105190520 TAF KCLM 190520Z 1906/2006 VRB03KT P6SM SKC=
201105182323 TAF KCLM 182323Z 1900/1924 VRB03KT P6SM SCT250 FM190200 27006KT
                       P6SM SCT250 FM190500 VRB03KT P6SM SCT250=
201105181720 TAF KCLM 181720Z 1818/1918 09007KT P6SM SCT250 FM190200 27006KT
                       P6SM SCT250 FM190500 VRB03KT P6SM SCT250=
201105181120 TAF KCLM 181120Z 1812/1912 25005KT P6SM SCT200 FM181800 30010KT
                       P6SM SCT200 FM190500 25006KT P6SM SKC=
201105180530 TAF KCLM 180530Z 1806/1906 25005KT P6SM SCT250 FM181800 30008KT
                       P6SM SKC=
201105172329 TAF KCLM 172329Z 1800/1824 VRB05KT P6SM SCT100 FM180100 27006KT
                       P6SM SCT100 FM181500 28008KT P6SM SKC=
201105171720 TAF KCLM 171720Z 1718/1818 VRB05KT P6SM FEW040 FEW100 FM172000
                       29005KT P6SM FEW040 FM180000 26007KT P6SM
                       FEW040 SCT100 SCT200 FM180400 27004KT P6SM
                       SCT100=
201105171120 TAF KCLM 171120Z 1712/1812 25006KT P6SM BKN035
                      TEMPO 1714/1718 SCT040 FM171800 33006KT P6SM
                       SCT040 SCT120=
201105170522 TAF KCLM 170522Z 1706/1806 25006KT P6SM SCT017 BKN035
                      TEMPO 1706/1710 BKN017 FM171600 VRB04KT P6SM
                       SCT040 SCT120=
201105162352 KCLM 162352Z 1700/1724 30010KT P6SM VCSH SCT030 BKN045
                      TEMPO 1700/1704 31012G20KT SCT015 BKN025
                       FM170600 30006KT P6SM BKN030 FM171500 VRB04KT
                       P6SM SCT040 SCT120=
201105162324 TAF KCLM 162324Z 1700/1724 30008KT P6SM SCT030 BKN045 FM170600
                       30006KT P6SM BKN030 FM171500 VRB04KT P6SM
                       SCT040 SCT120=
201105161722 TAF KCLM 161722Z 1618/1718 VRB05KT P6SM SCT030 BKN060 FM162000
                       27008KT P6SM BKN030 BKN070 FM170600 30006KT
                       P6SM SCT030 SCT070=
201105161120 TAF KCLM 161120Z 1612/1712 VRB04KT P6SM BKN080 FM161800 31008KT
                       P6SM BKN030 BKN070 FM162200 30008KT P6SM
                       SCT030 SCT070=
201105161008 KCLM 161008Z 1610/1706 VRB04KT P6SM BKN070 FM161600 29005KT P6SM
                       SCT025 BKN070 FM161800 31008KT P6SM BKN070
                       FM162000 30008KT P6SM SCT060=
201105160520 TAF KCLM 160520Z 1606/1706 28008KT P6SM -SHRA BKN022 OVC050 FM161000
                       26004KT P6SM VCSH BKN015 OVC030 FM161600
                       29007KT P6SM BKN025 BKN050 FM161800 31008KT
                       P6SM SCT030 BKN060 FM162000 30008KT P6SM
                       SCT060=
201105152339 TAF KCLM 152339Z 1600/1624 31007KT P6SM -RA SCT006 BKN030 OVC070
                       FM160200 28008KT P6SM -SHRA BKN025 OVC050
                       FM161000 26004KT P6SM BKN015 OVC030 FM161800
                       29009KT P6SM BKN035 BKN050=
201105152009 KCLM 152009Z 1520/1618 33007KT P6SM BKN004 OVC008 FM160200 28008KT
                       P6SM VCSH BKN030 OVC050 FM160800 26004KT
                       P6SM BKN020=
201105151741 TAF KCLM 151741Z 1518/1618 30003KT 6SM -RA BR SCT005 BKN020 OVC030
                       TEMPO 1518/1520 4SM -RA BR OVC005 FM152000
                       VRB03KT P6SM -SHRA BKN025 OVC050 FM160200
                       28008KT P6SM VCSH BKN030 OVC050 FM160800
                       26004KT P6SM BKN020=
201105151257 KCLM 151257Z 1513/1612 VRB03KT P6SM -RA SCT003 SCT025 OVC050
                      TEMPO 1513/1516 5SM -RA BR OVC003 FM151600
                       VRB03KT P6SM -RA BKN018 OVC050 FM151900
                       VRB03KT P6SM -RA BKN025 OVC050 FM160000
                       28008KT P6SM -SHRA BKN030 OVC050=
201105151120 TAF KCLM 151120Z 1512/1612 VRB03KT P6SM -RA SCT025 OVC050 FM151600
                       VRB03KT P6SM -RA BKN020 OVC050 FM151900
                       VRB03KT P6SM -RA BKN025 OVC050 FM160000
                       28008KT P6SM -SHRA BKN030 OVC050=
201105150537 TAF KCLM 150537Z 1506/1606 00000KT 3SM -RA BR BKN025 OVC060 FM151200
                       00000KT 4SM -RA BR BKN015 OVC025 FM151800
                       25006KT P6SM -RA BKN025 OVC050 FM152200
                       28008KT P6SM -SHRA BKN030 OVC050=
201105150212 KCLM 150212Z 1502/1524 VRB05KT P6SM -RA SCT015 OVC040
                      TEMPO 1502/1504 2SM RA BR BKN015 OVC040 FM150400
                       29008KT P6SM -RA BKN040 OVC060 FM151200
                       26004KT P6SM -RA BKN020 OVC040 FM152000
                       31008KT P6SM -SHRA BKN035=
201105142333 TAF KCLM 142333Z 1500/1524 12007KT P6SM VCSH OVC090 FM150200 30004KT
                       P6SM VCSH BKN060CB OVC080 FM150400 30008KT
                       P6SM -RA BKN050 OVC100 FM151200 26004KT
                       P6SM -RA BKN030 OVC050 FM152000 31008KT
                       P6SM -SHRA BKN035=
201105141738 TAF KCLM 141738Z 1418/1518 06003KT P6SM VCSH FEW050 BKN070 FM142100
                       31010KT P6SM VCSH BKN070 OVC100 FM150100
                       30012KT P6SM -RA BKN050 OVC100 FM150800
                       28008KT P6SM -RA BKN045 OVC070=
201105141121 TAF KCLM 141121Z 1412/1512 24006KT P6SM BKN090 OVC150 FM141500
                       27005KT P6SM BKN070 OVC100 FM142100 31010KT
                       P6SM BKN070 OVC100 FM150100 30012KT P6SM
                       -RA BKN050 OVC100 FM150800 28008KT P6SM
                       -RA BKN045 OVC070=
201105140543 TAF KCLM 140543Z 1406/1506 30006KT P6SM SCT100 OVC200 FM140800
                       28006KT P6SM BKN100 OVC200 FM141400 27005KT
                       P6SM BKN070 OVC100 FM141900 31010KT P6SM
                       BKN070 OVC100 FM150100 30012KT P6SM -RA
                       BKN050 OVC100=
201105132333 TAF KCLM 132333Z 1400/1424 03006KT P6SM SCT100 BKN200 FM140700
                       VRB03KT P6SM SCT100 BKN200 FM141200 29006KT
                       P6SM BKN050 OVC100 FM142000 30009KT P6SM
                       BKN050 OVC100
                      PROB30 1420/1424 -RA OVC050=
201105131739 TAF KCLM 131739Z 1318/1418 VRB04KT P6SM BKN010 BKN200
                      TEMPO 1318/1320 SCT010 BKN200 FM132000 28006KT
                       P6SM BKN100 FM140700 VRB03KT P6SM SCT120
                       BKN200 FM141200 29006KT P6SM BKN050 OVC100=
201105131457 KCLM 131457Z 1315/1412 VRB03KT P6SM SCT006 SCT200
                      TEMPO 1315/1317 BKN006 FM132300 28006KT P6SM
                       BKN100 FM140700 VRB03KT P6SM SCT120 BKN200=
201105131445 KCLM 131445Z 1315/1412 VRB03KT P6SM SCT006 SCT200 FM132300 28006KT
                       P6SM BKN100 FM140700 VRB03KT P6SM SCT120
                       BKN200=
201105131141 TAF KCLM 131141Z 1312/1412 VRB03KT P6SM SCT200 FM132300 28006KT
                       P6SM BKN100 FM140700 VRB03KT P6SM SCT120
                       BKN200=
201105130534 TAF KCLM 130534Z 1306/1406 VRB03KT P6SM SCT200 FM132300 28006KT
                       P6SM BKN100=
201105122320 TAF KCLM 122320Z 1300/1324 VRB04KT P6SM VCSH BKN050 BKN200 FM130600
                       VRB04KT P6SM SCT050 FM131200 04006KT P6SM
                       SCT200 FM132300 30010KT P6SM BKN120=
201105121729 TAF KCLM 121729Z 1218/1318 03004KT P6SM FEW050 FM122000 VRB03KT
                       P6SM SCT035 BKN050 FM130600 20003KT P6SM
                       SCT060 FM131500 08007KT P6SM FEW060=
201105121425 KCLM 121425Z 1214/1312 VRB03KT P6SM SCT030 FM121800 10005KT P6SM
                       FEW050 FM122200 VRB03KT P6SM SCT035 BKN050
                       FM130400 VRB03KT P6SM SCT060=
201105121138 TAF KCLM 121138Z 1212/1312 VRB03KT P6SM SCT050
                      TEMPO 1212/1216 BKN050 FM122200 VRB03KT P6SM
                       SCT035 BKN050 FM130400 VRB03KT P6SM SCT060=
201105120538 TAF KCLM 120538Z 1206/1306 27006KT P6SM SCT050 FM121200 VRB03KT
                       P6SM SCT050 FM121800 VRB03KT P6SM SCT035
                       BKN050=
201105112326 TAF KCLM 112326Z 1200/1224 22008KT P6SM VCSH SCT030 BKN050 OVC080
                       FM120200 28009KT P6SM VCSH SCT030 BKN050
                       FM120700 25005KT P6SM SCT030 SCT050 FM121400
                       VRB04KT P6SM VCSH SCT030 BKN050=
201105112114 KCLM 112114Z 1121/1218 31005KT 5SM -RA BR SCT003 OVC018
                      TEMPO 1121/1123 3SM -RA BR BKN003 OVC012
                       FM112300 28009KT P6SM BKN025 BKN050
                      TEMPO 1123/1202 -SHRA FM120200 28009KT P6SM
                       VCSH SCT030 BKN050 FM120900 25005KT P6SM
                       SCT030 SCT050=
201105111758 KCLM 111758Z 1118/1218 35005KT P6SM BKN022 OVC050
                      TEMPO 1118/1120 -RA FM112000 31005KT 5SM
                       -RA BR SCT007 OVC018 FM112300 28009KT P6SM
                       BKN025 BKN050
                      TEMPO 1123/1202 -SHRA FM120200 28009KT P6SM
                       VCSH SCT030 BKN050 FM120900 25005KT P6SM
                       SCT030 SCT050=
201105111741 TAF KCLM 111741Z 1118/1218 VRB03KT P6SM SCT022 OVC050
                      TEMPO 1118/1120 -RA BKN022 OVC050 FM112000
                       VRB03KT 5SM -RA SCT008 BKN015 OVC025 FM120000
                       28010KT P6SM SCT035 BKN050=
201105111640 KCLM 111640Z 1117/1212 VRB03KT P6SM VCSH SCT035 OVC070 FM112000
                       VRB03KT 5SM -RA SCT008 BKN015 OVC025 FM120000
                       28010KT P6SM SCT035 BKN050=
201105111415 KCLM 111415Z 1114/1212 VRB03KT P6SM SCT025 OVC050
                      TEMPO 1114/1116 -RA BKN025 OVC050 FM111600
                       VRB03KT 6SM -RA BR OVC020 FM112000 VRB03KT
                       5SM -RA SCT008 BKN015 OVC025 FM120000 28010KT
                       P6SM SCT035 BKN050=
201105111140 TAF KCLM 111140Z 1112/1212 27006KT P6SM OVC022 FM111600 VRB03KT
                       P6SM -RA BKN022 OVC040 FM112000 VRB03KT
                       5SM -RA SCT008 BKN015 OVC025 FM120000 28010KT
                       P6SM SCT035 BKN050=
201105110538 TAF KCLM 110538Z 1106/1206 27006KT P6SM SCT015 OVC060
                      TEMPO 1106/1110 BKN015 OVC050 FM111400 VRB03KT
                       P6SM -RA BKN022 OVC040 FM112000 VRB03KT
                       5SM -RA SCT008 BKN015 OVC025 FM120000 28010KT
                       P6SM SCT035 BKN050=
201105102330 TAF KCLM 102330Z 1100/1124 32005KT P6SM OVC100 FM110300 VRB03KT
                       P6SM SCT050 OVC100 FM110900 VRB03KT P6SM
                       FEW022 BKN050 OVC100
                      PROB30 1109/1112 -RA FM111200 VRB03KT P6SM
                       -RA BKN022 OVC050 FM111500 VRB03KT 5SM -RA
                       BR FEW009 OVC018 FM112100 29008KT P6SM -SHRA
                       BKN022 OVC040=
201105102104 KCLM 102104Z 1021/1118 32006KT P6SM SCT028 BKN070 BKN250
                      TEMPO 1021/1024 BKN028 OVC070 FM110200 27006KT
                       P6SM FEW100 BKN250 FM110500 VRB03KT P6SM
                       OVC100 FM111100 VRB03KT P6SM SCT020 OVC050
                       PROB30 1111/1115 -RA FM111500 VRB03KT P6SM
                       -RA OVC020=
201105101933 KCLM 101933Z 1020/1118 32006KT P6SM SCT030 BKN070 BKN250 FM110200
                       27006KT P6SM FEW100 BKN250 FM110500 VRB03KT
                       P6SM OVC100 FM111100 VRB03KT P6SM SCT020
                       OVC050
                      PROB30 1111/1115 -RA FM111500 VRB03KT P6SM
                       -RA OVC020=
201105101743 TAF KCLM 101743Z 1018/1118 32006KT P6SM SCT028
                      TEMPO 1018/1020 BKN028 FM102000 32006KT P6SM
                       FEW035 SCT250 FM110200 27006KT P6SM FEW100
                       BKN250 FM110500 VRB03KT P6SM OVC100 FM111100
                       VRB03KT P6SM SCT020 OVC050
                      PROB30 1111/1115 -RA FM111500 VRB03KT P6SM
                       -RA OVC020=
201105101616 KCLM 101616Z 1016/1112 VRB03KT P6SM BKN018 FM101800 32007KT P6SM
                       FEW040 SCT250 FM102300 28008KT P6SM SCT060
                       FM110700 VRB03KT P6SM OVC100=
201105101438 KCLM 101438Z 1015/1112 VRB03KT P6SM BKN020 FM101700 32007KT P6SM
                       FEW040 SCT250 FM102300 28008KT P6SM SCT060
                       FM110700 VRB03KT P6SM OVC100=
201105101138 TAF KCLM 101138Z 1012/1112 VRB03KT P6SM OVC025 FM101800 VRB03KT
                       P6SM SCT060 FM102300 28008KT P6SM SCT060
                       FM110700 VRB03KT P6SM OVC100=
201105100538 TAF KCLM 100538Z 1006/1106 28008KT P6SM BKN022 FM101100 VRB03KT
                       P6SM SCT030 FM101900 VRB03KT P6SM SCT250=
201105092329 TAF KCLM 092329Z 1000/1024 30009KT P6SM BKN040 FM100600 27007KT
                       P6SM SCT040 FM101200 VRB03KT P6SM FEW011
                       FM101800 32007KT P6SM SCT250=
201105092002 KCLM 092002Z 0920/1018 32011KT P6SM BKN060 FM092300 32011KT P6SM
                       SCT060 FM100100 28009KT P6SM FEW060 FM100600
                       25005KT P6SM SKC=
201105091720 TAF KCLM 091720Z 0918/1018 32009KT P6SM FEW017 BKN060 FM092000
                       32009KT P6SM SCT060
                      TEMPO 0920/0922 BKN060 FM100100 28009KT P6SM
                       FEW060 FM100600 25005KT P6SM SKC=
201105091120 TAF KCLM 091120Z 0912/1012 26006KT P6SM BKN050 FM091900 33007KT
                       P6SM SCT050 FM092200 29007KT P6SM SCT060=
201105090520 TAF KCLM 090520Z 0906/1006 29008KT P6SM SCT015 BKN060
                      TEMPO 0906/0908 BKN015 FM090900 26006KT P6SM
                       BKN045 FM091900 33007KT P6SM SCT050 FM092200
                       30009KT P6SM SCT060=
201105090339 KCLM 090339Z 0904/0924 29008KT P6SM SCT015 BKN060
                      TEMPO 0904/0908 BKN015 FM090900 28006KT P6SM
                       BKN040 FM091900 33008KT P6SM SCT050 FM092200
                       30010KT P6SM SCT060=
201105090116 KCLM 090116Z 0901/0924 31012G22KT P6SM BKN060 FM090400 29010KT
                       P6SM SCT060 FM090900 25005KT P6SM BKN040
                       FM091900 33008KT P6SM SCT050 FM092200 30010KT
                       P6SM SCT060=
201105082322 TAF KCLM 082322Z 0900/0924 29010KT P6SM BKN060 FM090600 26004KT
                       P6SM BKN040 FM091900 33008KT P6SM SCT050
                       FM092200 30010KT P6SM SCT060=
201105081725 TAF KCLM 081725Z 0818/0918 32008KT P6SM SCT035
                      TEMPO 0820/0824 BKN035 FM090600 26004KT P6SM
                       BKN040=
201105081120 TAF KCLM 081120Z 0812/0912 24005KT P6SM SCT030 BKN100
                      TEMPO 0812/0816 BKN030 FM081800 30005KT P6SM
                       SCT045 SCT100 FM090300 28004KT P6SM SCT045=
201105080520 TAF KCLM 080520Z 0806/0906 28005KT P6SM SCT060 BKN100 FM081800
                       30006KT P6SM SCT100 FM090300 28004KT P6SM
                       FEW100=
201105072328 TAF KCLM 072328Z 0800/0824 29007KT P6SM FEW035 SCT080
                      TEMPO 0800/0804 -SHRA BKN035 BKN080 FM080400
                       24005KT P6SM BKN045 BKN080 FM081800 33008KT
                       P6SM BKN028 BKN045=
201105071728 TAF KCLM 071728Z 0718/0818 30010KT P6SM SCT020 BKN050 BKN090
                      TEMPO 0718/0722 -SHRA BKN020 OVC050 FM080300
                       24005KT P6SM BKN045=
201105071155 TAF KCLM 071155Z 0712/0812 VRB04KT P6SM -SHRA BKN030
                      TEMPO 0712/0714 2SM BR FM071500 32008KT P6SM
                       -SHRA BKN030 BKN060 FM071900 27008KT P6SM
                       BKN045=
201105070520 TAF KCLM 070520Z 0706/0806 04003KT P6SM -RA SCT013 OVC030
                      TEMPO 0706/0707 5SM -RA BR BKN013 OVC030
                       FM071000 26006KT P6SM -SHRA BKN010 OVC040
                       FM071800 32008KT P6SM BKN030 BKN060=
201105070233 KCLM 070233Z 0703/0724 04003KT P6SM -RA SCT013 OVC030
                      TEMPO 0703/0707 5SM -RA BR BKN013 OVC030
                       FM071000 26006KT P6SM -SHRA BKN010 OVC040
                       FM071800 32008KT P6SM BKN030 BKN060=
201105070035 KCLM 070035Z 0701/0724 04003KT P6SM -RA SCT003 BKN025 OVC045
                      TEMPO 0701/0705 4SM -RA BR BKN003 OVC025
                       FM071000 26006KT P6SM -SHRA BKN010 OVC040
                       FM071800 32008KT P6SM BKN030 BKN060=
201105062321 TAF KCLM 062321Z 0700/0724 04003KT P6SM -RA OVC005 FM071000 26006KT
                       P6SM -SHRA BKN010 OVC040 FM071800 32008KT
                       P6SM BKN030 BKN060=
201105062203 KCLM 062203Z 0622/0718 06004KT P6SM -RA SCT007 OVC045
                      TEMPO 0622/0624 -RA BKN007 OVC028 FM070000
                       22005KT P6SM -RA OVC015 FM071000 26006KT
                       P6SM -SHRA BKN025 OVC040=
201105061728 TAF KCLM 061728Z 0618/0718 05003KT P6SM -RA SCT006 OVC013 FM062000
                       VRB03KT P6SM -RA BKN015 OVC040 FM070200
                       22005KT P6SM -RA OVC015 FM071000 26006KT
                       P6SM -SHRA BKN025 OVC040=
201105061120 TAF KCLM 061120Z 0612/0712 28008KT P6SM -SHRA BKN018 FM061700 VRB03KT
                       P6SM VCSH BKN025 OVC050 FM062300 22005KT
                       P6SM -SHRA OVC025=
201105060520 TAF KCLM 060520Z 0606/0706 28006KT P6SM VCSH SCT006 SCT018 BKN028
                       FM060900 28008KT P6SM BKN018 FM061600 VRB03KT
                       P6SM BKN025 OVC050 FM062300 22005KT P6SM
                       -SHRA OVC025=
201105060216 KCLM 060216Z 0602/0624 30005KT P6SM SCT006 BKN025 BKN040
                      TEMPO 0602/0605 2SM -RA BR BKN006 BKN025
                       OVC040 FM060700 28008KT P6SM BKN020 FM061200
                       26006KT P6SM OVC020 FM061600 VRB03KT P6SM
                       -RA BKN025 OVC050=
201105060003 KCLM 060003Z 0600/0624 VRB04KT P6SM SCT006 BKN025 BKN040
                      TEMPO 0600/0602 -SHRA BKN006 BKN025 OVC040
                       FM060700 28008KT P6SM BKN020 FM061200 26006KT
                       P6SM OVC020 FM061600 VRB03KT P6SM -RA BKN025
                       OVC050=
201105052320 TAF KCLM 052320Z 0600/0624 VRB04KT P6SM BKN040 BKN070
                      TEMPO 0600/0604 -SHRA BKN025 OVC050 FM060700
                       28008KT P6SM BKN020 FM061200 26006KT P6SM
                       OVC020 FM061600 VRB03KT P6SM -RA BKN025
                       OVC050=
201105051759 KCLM 051759Z 0518/0618 VRB04KT P6SM SCT015 BKN030
                      TEMPO 0518/0521 -SHRA BKN010 OVC025 FM052100
                       27007KT P6SM SCT020 BKN040 FM060700 27007KT
                       P6SM BKN020 FM061200 27007KT P6SM OVC020
                       TEMPO 0615/0618 5SM -RA BR OVC015=
201105051722 TAF KCLM 051722Z 0518/0618 VRB04KT P6SM SCT020 BKN040
                      TEMPO 0518/0521 -SHRA BKN020 OVC040 FM052100
                       27007KT P6SM SCT025 BKN050 FM060700 27007KT
                       P6SM BKN025 FM061200 27007KT P6SM OVC020
                       TEMPO 0615/0618 5SM -RA BR OVC015=
201105051313 KCLM 051313Z 0513/0612 29006KT P6SM -RA SCT008 OVC018
                      TEMPO 0513/0516 BKN008 OVC018 FM051600 24008KT
                       P6SM VCSH BKN040 FM051800 31008KT P6SM BKN040=
201105051120 TAF KCLM 051120Z 0512/0612 29006KT P6SM -RA OVC030 FM051600 24008KT
                       P6SM VCSH BKN040 FM051800 31008KT P6SM BKN040=
201105050525 TAF KCLM 050525Z 0506/0606 28008KT P6SM BKN120 FM051000 28008KT
                       P6SM BKN040 BKN100 FM051200 24006KT P6SM
                       -DZ OVC030 FM051600 24008KT P6SM VCSH BKN040
                       FM051800 31008KT P6SM BKN040=
201105042320 TAF KCLM 042320Z 0500/0524 VRB04KT P6SM BKN200 FM050600 28008KT
                       P6SM SCT030 BKN100 FM050900 28008KT P6SM
                       VCSH BKN040 BKN100 FM051200 28008KT P6SM
                       -DZ OVC030 FM051700 28008KT P6SM VCSH BKN040=
201105041720 TAF KCLM 041720Z 0418/0518 VRB04KT P6SM SCT100 SCT250 FM050400
                       30007KT P6SM BKN120 BKN200 FM050700 30007KT
                       P6SM SCT030 BKN100 FM051100 28007KT P6SM
                       VCSH BKN030 OVC050=
201105041137 TAF KCLM 041137Z 0412/0512 25006KT P6SM FEW250 FM041700 02005KT
                       P6SM SCT250 FM050000 28008KT P6SM SCT120
                       BKN200 FM050900 27009KT P6SM BKN070 BKN100=
201105040539 TAF KCLM 040539Z 0406/0506 25006KT P6SM SKC FM041700 02005KT P6SM
                       SCT250=
201105032327 TAF KCLM 032327Z 0400/0424 31015G25KT P6SM SCT060 FM040200 29013KT
                       P6SM FEW060 FM040600 25007KT P6SM SKC FM041700
                       02005KT P6SM SCT250=
201105031720 TAF KCLM 031720Z 0318/0418 31013G20KT P6SM VCSH SCT035 BKN060
                      TEMPO 0318/0320 -SHRA BKN035 BKN060 FM032000
                       31013G20KT P6SM SCT060
                      TEMPO 0320/0322 BKN060 FM040100 29010KT P6SM
                       FEW060 FM040600 25006KT P6SM SKC=
201105031649 KCLM 031649Z 0317/0412 29013KT P6SM SCT035 BKN060
                      TEMPO 0317/0318 -SHRA BKN035 BKN060 FM031800
                       29013KT P6SM SCT060
                      TEMPO 0318/0320 BKN060 FM040000 30012KT P6SM
                       SCT030=
201105031609 KCLM 031609Z 0316/0412 29013KT P6SM SCT035 BKN060
                      TEMPO 0316/0318 BKN035 BKN060 FM031800 29013KT
                       P6SM SCT060
                      TEMPO 0318/0320 BKN060 FM040000 30012KT P6SM
                       SCT030=
201105031339 KCLM 031339Z 0314/0412 29007KT P6SM VCSH SCT045 BKN080 FM040000
                       30012KT P6SM SCT030=
201105031135 TAF KCLM 031135Z 0312/0412 28010KT P6SM VCSH SCT030 BKN050
                      TEMPO 0312/0316 -SHRA BKN030 FM040000 30012KT
                       P6SM SCT030=
201105030522 TAF KCLM 030522Z 0306/0406 26009KT P6SM VCSH SCT030 BKN060 FM030900
                       28008KT P6SM BKN030 FM032000 31011KT P6SM
                       SCT060
                      TEMPO 0320/0324 BKN060=
201105022320 TAF KCLM 022320Z 0300/0324 32008KT P6SM BKN015 OVC030
                      TEMPO 0300/0302 -SHRA FM030200 28013KT P6SM
                       VCSH SCT025 BKN050
                      TEMPO 0302/0304 28013G22KT BKN025 OVC050
                       FM030600 26009KT P6SM SCT030 BKN050 FM031800
                       31011KT P6SM VCSH SCT060
                      TEMPO 0318/0322 BKN060=
201105022217 KCLM 022217Z 0222/0318 32010KT P6SM SCT015 OVC030
                      TEMPO 0222/0224 -SHRA BKN015 OVC030 FM030000
                       29013G22KT P6SM VCSH BKN030 BKN050
                      TEMPO 0300/0302 -SHRA FM030600 26009KT P6SM
                       SCT030 BKN050=
201105021730 TAF KCLM 021730Z 0218/0318 31008KT P6SM -RA OVC015
                      TEMPO 0219/0221 5SM -RA BR BKN008 OVC015
                       FM022100 31012KT P6SM SCT015 OVC030
                      TEMPO 0221/0224 -SHRA BKN015 OVC030 FM030000
                       29013G22KT P6SM VCSH BKN030 BKN050
                      TEMPO 0300/0302 -SHRA FM030600 26009KT P6SM
                       SCT030 BKN050=
201105021612 KCLM 021612Z 0216/0312 28007KT P6SM -RA SCT007 OVC015
                      TEMPO 0216/0219 6SM -RA BR BKN007 OVC015
                       FM022000 29012KT P6SM -SHRA BKN030 BKN050
                       FM030600 26008KT P6SM VCSH OVC030=
201105021510 TAF AMD KCLM 021510Z 0215/0312 28005KT P6SM -RA OVC050 FM022000
                       29012KT P6SM -SHRA BKN030 BKN050 FM030600
                       26008KT P6SM VCSH OVC030=
201105021132 TAF KCLM 021132Z 0212/0312 24004KT P6SM BKN100 OVC150 FM021300
                       VRB03KT P6SM -RA BKN050 OVC070 FM022000
                       29012KT P6SM -SHRA BKN030 BKN050 FM030600
                       26008KT P6SM VCSH OVC030=
201105020521 TAF KCLM 020521Z 0206/0306 VRB05KT P6SM BKN200 FM021000 24004KT
                       P6SM BKN100 OVC150 FM021300 VRB03KT P6SM
                       -RA BKN050 OVC070 FM022000 29012KT P6SM
                       -SHRA BKN030 BKN050=
201105012320 TAF KCLM 012320Z 0200/0224 VRB05KT P6SM BKN200 FM021000 24004KT
                       P6SM BKN100 OVC150 FM021300 VRB03KT P6SM
                       -RA BKN050 OVC070 FM022000 29012KT P6SM
                       -SHRA BKN030 BKN050=
201105011722 TAF KCLM 011722Z 0118/0218 36005KT P6SM SKC FM020000 30005KT P6SM
                       BKN200 FM021000 24004KT P6SM BKN100 OVC150
                       FM021300 VRB03KT P6SM -RA BKN050 OVC070=
201105011123 TAF KCLM 011123Z 0112/0212 25007KT P6SM SKC FM011800 VRB04KT P6SM
                       SCT250 FM020000 28005KT P6SM SCT150 BKN250
                       FM020600 25005KT P6SM BKN070 OVC120=
201105010521 TAF KCLM 010521Z 0106/0206 30010KT P6SM SKC FM010700 24006KT P6SM
                       SKC FM011700 04006KT P6SM SCT250 FM020000
                       28005KT P6SM SCT150 BKN250=