##########################################################
# Query made at 02/16/2025 02:01:36 UTC
# Time interval: from 06/01/2011 00:00  to 06/30/2011 23:59  UTC
##########################################################

##########################################################
# KCLM, Port Angeles, William R. Fairchild International Airport (United States)
# WMO index: -----. WIGOS ID: Unknown
# Latitude 48-07-20N. Longitude 123-30-19W. Altitude 87 m.
##########################################################

###################################
#  METAR/SPECI from KCLM
###################################
201106302353 METAR KCLM 302353Z AUTO VRB03KT 10SM FEW013 BKN030 OVC070 13/09 A3017 RMK AO2 SLP217 T01280089 10139 20117 51005=
201106302351 SPECI KCLM 302351Z AUTO 00000KT 10SM SCT019 BKN030 OVC070 13/09 A3017 RMK AO2=
201106302351 SPECI KCLM 302351Z AUTO 00000KT 10SM SCT019 BKN030 OVC070 13/09 A3017 RMK AO2=
201106302253 METAR KCLM 302253Z AUTO 31009KT 10SM OVC017 12/08 A3017 RMK AO2 SLP218 T01170078=
201106302153 METAR KCLM 302153Z AUTO VRB03KT 10SM SCT015 BKN022 OVC034 13/09 A3016 RMK AO2 SLP213 T01330089=
201106302114 SPECI KCLM 302114Z AUTO 33004KT 10SM BKN022 OVC032 12/09 A3015 RMK AO2=
201106302114 SPECI KCLM 302114Z AUTO 33004KT 10SM BKN022 OVC032 12/09 A3015 RMK AO2=
201106302053 METAR KCLM 302053Z AUTO VRB05KT 10SM FEW024 OVC032 12/08 A3015 RMK AO2 SLP211 T01220083 51013=
201106302050 SPECI KCLM 302050Z AUTO 36005KT 10SM SCT024 OVC032 12/08 A3015 RMK AO2=
201106302050 SPECI KCLM 302050Z AUTO 36005KT 10SM SCT024 OVC032 12/08 A3015 RMK AO2=
201106301953 METAR KCLM 301953Z AUTO 35004KT 10SM OVC026 13/08 A3013 RMK AO2 SLP204 T01330078=
201106301923 SPECI KCLM 301923Z AUTO 01004KT 10SM BKN026 OVC036 12/08 A3013 RMK AO2=
201106301923 SPECI KCLM 301923Z AUTO 01004KT 10SM BKN026 OVC036 12/08 A3013 RMK AO2=
201106301853 METAR KCLM 301853Z AUTO 08005KT 10SM BKN035 OVC046 14/07 A3011 RMK AO2 SLP198 T01390072=
201106301753 METAR KCLM 301753Z AUTO VRB03KT 10SM FEW030 BKN046 OVC060 14/08 A3010 RMK AO2 SLP192 T01390078 10139 20094 53012=
201106301653 METAR KCLM 301653Z AUTO 35004KT 10SM BKN041 OVC049 12/08 A3009 RMK AO2 SLP189 T01220083=
201106301553 METAR KCLM 301553Z AUTO 00000KT 10SM FEW041 OVC060 13/08 A3007 RMK AO2 SLP183 T01280083=
201106301453 METAR KCLM 301453Z AUTO 36003KT 10SM SCT027 BKN036 BKN070 11/08 A3006 RMK AO2 SLP181 T01110078 53018=
201106301353 METAR KCLM 301353Z AUTO 00000KT 10SM OVC060 11/08 A3004 RMK AO2 SLP174 T01060083=
201106301253 METAR KCLM 301253Z AUTO 00000KT 10SM OVC060 10/07 A3003 RMK AO2 SLP169 T01000072=
201106301153 METAR KCLM 301153Z AUTO VRB03KT 10SM SCT060 10/07 A3001 RMK AO2 SLP162 T01000067 10111 20094 53013=
201106301053 METAR KCLM 301053Z AUTO 15003KT 10SM SCT060 09/07 A2999 RMK AO2 SLP157 T00940067=
201106300953 METAR KCLM 300953Z AUTO 25004KT 10SM BKN060 10/07 A2998 RMK AO2 SLP151 T01000072=
201106300927 SPECI KCLM 300927Z AUTO 00000KT 10SM SCT010 10/08 A2997 RMK AO2=
201106300927 SPECI KCLM 300927Z AUTO 00000KT 10SM SCT010 10/08 A2997 RMK AO2=
201106300920 SPECI KCLM 300920Z AUTO 00000KT 10SM BKN010 BKN060 10/08 A2997 RMK AO2 CIG 008V012=
201106300920 SPECI KCLM 300920Z AUTO 00000KT 10SM BKN010 BKN060 10/08 A2997 RMK AO2 CIG 008V012=
201106300853 METAR KCLM 300853Z AUTO 28006KT 10SM OVC065 10/07 A2997 RMK AO2 SLP149 T01000067 53015=
201106300753 METAR KCLM 300753Z AUTO 28009KT 10SM CLR 10/07 A2995 RMK AO2 SLP143 T01000067 401560100=
201106300653 METAR KCLM 300653Z AUTO 29008KT 10SM CLR 11/06 A2993 RMK AO2 SLP137 T01060061=
201106300553 METAR KCLM 300553Z AUTO 27008KT 10SM CLR 11/07 A2993 RMK AO2 SLP134 T01060067 10139 20100 53018=
201106300453 METAR KCLM 300453Z AUTO 27007KT 10SM CLR 11/08 A2991 RMK AO2 SLP128 T01060078=
201106300353 METAR KCLM 300353Z AUTO 29010G17KT 10SM CLR 11/08 A2989 RMK AO2 SLP120 T01110078=
201106300253 METAR KCLM 300253Z AUTO 29014G23KT 10SM CLR 12/08 A2987 RMK AO2 PK WND 30026/0231 SLP116 T01170083 53012=
201106300153 METAR KCLM 300153Z AUTO 31010G19KT 10SM FEW012 12/09 A2986 RMK AO2 PK WND 31027/0116 SLP110 T01220089=
201106300053 METAR KCLM 300053Z AUTO 30011G20KT 10SM CLR 14/09 A2983 RMK AO2 SLP103 T01390094=
201106300040 SPECI KCLM 300040Z AUTO 30009G22KT 10SM SCT018 14/09 A2984 RMK AO2=
201106300040 SPECI KCLM 300040Z AUTO 30009G22KT 10SM SCT018 14/09 A2984 RMK AO2=
201106300012 SPECI KCLM 300012Z AUTO 31012G22KT 10SM OVC016 13/09 A2984 RMK AO2=
201106300012 SPECI KCLM 300012Z AUTO 31012G22KT 10SM OVC016 13/09 A2984 RMK AO2=
201106292353 METAR KCLM 292353Z AUTO 31010G19KT 10SM OVC014 13/10 A2984 RMK AO2 SLP104 60000 T01280100 10133 20111 50007=
201106292253 METAR KCLM 292253Z AUTO 31012G19KT 10SM OVC010 12/09 A2985 RMK AO2 CIG 007V013 SLP107 T01170094=
201106292153 METAR KCLM 292153Z AUTO 30012KT 9SM OVC008 12/10 A2984 RMK AO2 CIG 007V013 SLP104 T01170100=
201106292053 METAR KCLM 292053Z AUTO 31013G20KT 10SM OVC010 12/10 A2982 RMK AO2 RAE1959 CIG 007V013 SLP098 P0000 60000 T01170100 51017=
201106291953 METAR KCLM 291953Z AUTO 30009KT 5SM -RA BR OVC010 12/11 A2980 RMK AO2 RAE29B46 CIG 005V012 SLP092 P0000 T01170106=
201106291933 SPECI KCLM 291933Z AUTO 30011G18KT 4SM BR SCT004 OVC010 12/11 A2980 RMK AO2 RAE29 CIG 008V012 P0000=
201106291933 SPECI KCLM 291933Z AUTO 30011G18KT 4SM BR SCT004 OVC010 12/11 A2980 RMK AO2 RAE29 CIG 008V012 P0000=
201106291853 METAR KCLM 291853Z AUTO 31007KT 5SM -RA BR OVC004 12/11 A2979 RMK AO2 RAB1758 CIG 003V009 SLP088 P0000 T01170106=
201106291807 SPECI KCLM 291807Z AUTO 31011G17KT 6SM -RA BR BKN004 OVC014 12/11 A2978 RMK AO2 RAB1758 CIG 002V007 P0000=
201106291807 SPECI KCLM 291807Z AUTO 31011G17KT 6SM -RA BR BKN004 OVC014 12/11 A2978 RMK AO2 RAB1758 CIG 002V007 P0000=
201106291753 METAR KCLM 291753Z AUTO 31012G16KT 9SM FEW006 BKN014 OVC060 13/11 A2977 RMK AO2 SLP080 T01330106 10156 20122 53013 TSNO=
201106291653 METAR KCLM 291653Z AUTO 02004KT 10SM BKN055 OVC080 15/11 A2974 RMK AO2 SLP069 T01500111=
201106291553 METAR KCLM 291553Z AUTO VRB04KT 10SM SCT015 OVC075 14/12 A2973 RMK AO2 SLP066 T01440117=
201106291453 METAR KCLM 291453Z AUTO 00000KT 10SM SCT018 OVC060 13/11 A2973 RMK AO2 SLP067 T01330111 51002=
201106291353 METAR KCLM 291353Z AUTO 00000KT 10SM FEW023 OVC060 13/11 A2973 RMK AO2 SLP067 T01280111=
201106291342 SPECI KCLM 291342Z AUTO 00000KT 10SM SCT016 SCT023 OVC060 13/11 A2973 RMK AO2=
201106291342 SPECI KCLM 291342Z AUTO 00000KT 10SM SCT016 SCT023 OVC060 13/11 A2973 RMK AO2=
201106291253 METAR KCLM 291253Z AUTO 30004KT 10SM OVC012 12/11 A2973 RMK AO2 SLP066 T01220111=
201106291236 SPECI KCLM 291236Z AUTO 00000KT 10SM BKN012 BKN038 OVC070 12/11 A2972 RMK AO2=
201106291236 SPECI KCLM 291236Z AUTO 00000KT 10SM BKN012 BKN038 OVC070 12/11 A2972 RMK AO2=
201106291228 SPECI KCLM 291228Z AUTO 00000KT 10SM SCT012 BKN029 OVC070 12/11 A2972 RMK AO2=
201106291228 SPECI KCLM 291228Z AUTO 00000KT 10SM SCT012 BKN029 OVC070 12/11 A2972 RMK AO2=
201106291218 SPECI KCLM 291218Z AUTO 00000KT 10SM FEW010 BKN034 OVC070 12/11 A2972 RMK AO2=
201106291218 SPECI KCLM 291218Z AUTO 00000KT 10SM FEW010 BKN034 OVC070 12/11 A2972 RMK AO2=
201106291205 SPECI KCLM 291205Z AUTO 00000KT 10SM SCT012 BKN026 OVC031 12/11 A2972 RMK AO2=
201106291205 SPECI KCLM 291205Z AUTO 00000KT 10SM SCT012 BKN026 OVC031 12/11 A2972 RMK AO2=
201106291153 METAR KCLM 291153Z AUTO 26003KT 10SM FEW004 BKN012 OVC024 12/11 A2972 RMK AO2 SLP065 T01220111 10139 20122 56007=
201106291144 SPECI KCLM 291144Z AUTO 26004KT 10SM FEW006 OVC010 12/11 A2973 RMK AO2=
201106291144 SPECI KCLM 291144Z AUTO 26004KT 10SM FEW006 OVC010 12/11 A2973 RMK AO2=
201106291136 SPECI KCLM 291136Z AUTO 27007KT 10SM BKN006 OVC010 12/11 A2973 RMK AO2 CIG 003V010=
201106291136 SPECI KCLM 291136Z AUTO 27007KT 10SM BKN006 OVC010 12/11 A2973 RMK AO2 CIG 003V010=
201106291053 METAR KCLM 291053Z AUTO 28005KT 10SM OVC004 13/12 A2973 RMK AO2 SLP067 T01280117=
201106290953 METAR KCLM 290953Z AUTO 27004KT 10SM OVC004 13/12 A2974 RMK AO2 SLP069 T01280117=
201106290853 METAR KCLM 290853Z AUTO 32005KT 10SM OVC004 13/12 A2975 RMK AO2 SLP073 T01280117 58003=
201106290753 METAR KCLM 290753Z AUTO 29004KT 10SM OVC004 13/12 A2975 RMK AO2 SLP074 T01330122 401940111=
201106290653 METAR KCLM 290653Z AUTO 29008KT 10SM OVC004 14/12 A2976 RMK AO2 SLP076 T01390122=
201106290638 SPECI KCLM 290638Z AUTO 30007KT 10SM OVC004 14/12 A2976 RMK AO2=
201106290638 SPECI KCLM 290638Z AUTO 30007KT 10SM OVC004 14/12 A2976 RMK AO2=
201106290553 METAR KCLM 290553Z AUTO 29005KT 10SM OVC006 14/12 A2976 RMK AO2 SLP076 60000 T01390122 10172 20139 53001=
201106290453 METAR KCLM 290453Z AUTO 29006KT 10SM OVC006 14/13 A2975 RMK AO2 SLP074 T01440128=
201106290353 METAR KCLM 290353Z AUTO 28004KT 10SM BKN006 OVC010 14/13 A2975 RMK AO2 SLP074 T01440128=
201106290253 METAR KCLM 290253Z AUTO 30006KT 10SM OVC008 14/13 A2975 RMK AO2 RAE0158 SLP075 P0000 60000 T01440128 50005=
201106290220 SPECI KCLM 290220Z AUTO 29007KT 10SM OVC008 14/13 A2975 RMK AO2 RAE0158 P0000=
201106290220 SPECI KCLM 290220Z AUTO 29007KT 10SM OVC008 14/13 A2975 RMK AO2 RAE0158 P0000=
201106290153 METAR KCLM 290153Z AUTO 31006KT 10SM -RA BKN010 OVC018 15/13 A2976 RMK AO2 RAB47 SLP077 P0000 T01500128=
201106290053 METAR KCLM 290053Z AUTO 28008KT 10SM BKN018 BKN060 OVC070 16/13 A2975 RMK AO2 SLP074 T01610133=
201106282353 METAR KCLM 282353Z AUTO 29007KT 10SM SCT027 BKN050 OVC060 17/13 A2974 RMK AO2 SLP069 T01720133 10194 20167 53004=
201106282253 METAR KCLM 282253Z AUTO 31008KT 10SM OVC060 17/13 A2973 RMK AO2 SLP065 T01720133=
201106282203 SPECI KCLM 282203Z AUTO 28009KT 10SM OVC030 19/13 A2973 RMK AO2=
201106282203 SPECI KCLM 282203Z AUTO 28009KT 10SM OVC030 19/13 A2973 RMK AO2=
201106282153 METAR KCLM 282153Z AUTO 28009KT 10SM OVC028 19/13 A2973 RMK AO2 SLP066 T01890133=
201106282110 SPECI KCLM 282110Z AUTO 31006KT 10SM BKN028 OVC070 18/14 A2973 RMK AO2=
201106282110 SPECI KCLM 282110Z AUTO 31006KT 10SM BKN028 OVC070 18/14 A2973 RMK AO2=
201106282053 METAR KCLM 282053Z AUTO 31009KT 10SM OVC075 17/13 A2972 RMK AO2 SLP065 T01720133 53005=
201106281953 METAR KCLM 281953Z AUTO 30009KT 10SM FEW028 BKN070 BKN085 18/13 A2971 RMK AO2 SLP062 T01780128=
201106281930 SPECI KCLM 281930Z AUTO 31008KT 10SM BKN028 18/13 A2971 RMK AO2=
201106281930 SPECI KCLM 281930Z AUTO 31008KT 10SM BKN028 18/13 A2971 RMK AO2=
201106281853 METAR KCLM 281853Z AUTO 31007KT 10SM SCT110 17/13 A2971 RMK AO2 SLP060 T01720128=
201106281753 METAR KCLM 281753Z AUTO 34004KT 10SM BKN110 17/13 A2969 RMK AO2 SLP055 T01670128 10167 20122 58006=
201106281653 METAR KCLM 281653Z AUTO 34006KT 10SM BKN110 16/13 A2970 RMK AO2 SLP058 T01610128=
201106281553 METAR KCLM 281553Z AUTO 28003KT 10SM OVC100 16/12 A2971 RMK AO2 SLP061 T01560122=
201106281453 METAR KCLM 281453Z AUTO 30005KT 10SM BKN110 16/13 A2971 RMK AO2 SLP061 T01610128 50002=
201106281353 METAR KCLM 281353Z AUTO 00000KT 10SM OVC100 13/12 A2972 RMK AO2 SLP064 T01330117=
201106281253 METAR KCLM 281253Z AUTO 27004KT 10SM OVC110 12/11 A2972 RMK AO2 SLP062 T01220111=
201106281236 SPECI KCLM 281236Z AUTO 00000KT 10SM FEW004 OVC110 12/11 A2972 RMK AO2=
201106281236 SPECI KCLM 281236Z AUTO 00000KT 10SM FEW004 OVC110 12/11 A2972 RMK AO2=
201106281153 METAR KCLM 281153Z AUTO 28005KT 10SM FEW075 OVC120 13/11 A2971 RMK AO2 SLP059 T01280111 10161 20111 56007=
201106281053 METAR KCLM 281053Z AUTO 00000KT 10SM SCT080 OVC120 13/11 A2971 RMK AO2 SLP061 T01280111=
201106280953 METAR KCLM 280953Z AUTO 00000KT 10SM CLR 12/10 A2972 RMK AO2 SLP063 T01170100=
201106280853 METAR KCLM 280853Z AUTO 16003KT 10SM CLR 12/11 A2973 RMK AO2 SLP066 T01220106 58007=
201106280753 METAR KCLM 280753Z AUTO 15003KT 10SM FEW065 SCT120 14/12 A2974 RMK AO2 SLP069 T01390117 401720122=
201106280653 METAR KCLM 280653Z AUTO 00000KT 10SM FEW090 OVC110 15/12 A2975 RMK AO2 SLP072 T01500117=
201106280553 METAR KCLM 280553Z AUTO 00000KT 10SM BKN070 OVC110 16/12 A2975 RMK AO2 SLP073 60000 T01610122 10172 20144 56000=
201106280453 METAR KCLM 280453Z AUTO 00000KT 10SM BKN075 OVC110 16/12 A2975 RMK AO2 SLP074 T01560122=
201106280353 METAR KCLM 280353Z AUTO 00000KT 10SM OVC070 16/13 A2974 RMK AO2 SLP071 T01610128=
201106280253 METAR KCLM 280253Z AUTO 00000KT 10SM BKN075 OVC100 17/11 A2975 RMK AO2 SLP073 60000 T01720111 57006=
201106280200 METAR KCLM NIL=
201106280153 METAR KCLM 280153Z AUTO 00000KT 10SM OVC070 17/11 A2975 RMK AO2 SLP075 T01670111=
201106280053 METAR KCLM 280053Z AUTO 25003KT 10SM BKN080 17/11 A2976 RMK AO2 RAE16 SLP077 P0000 T01670111=
201106272353 METAR KCLM 272353Z AUTO 00000KT 10SM -RA BKN080 BKN090 17/11 A2977 RMK AO2 RAB33 SLP079 P0000 60000 T01670111 10172 20150 56004=
201106272253 METAR KCLM 272253Z AUTO 00000KT 10SM SCT095 17/10 A2977 RMK AO2 SLP081 T01670100=
201106272153 METAR KCLM 272153Z AUTO 36004KT 10SM FEW090 16/10 A2977 RMK AO2 SLP080 T01610100=
201106272053 METAR KCLM 272053Z AUTO 36003KT 10SM OVC100 16/09 A2978 RMK AO2 SLP083 T01560094 56005=
201106271953 METAR KCLM 271953Z AUTO 00000KT 10SM OVC085 16/08 A2978 RMK AO2 SLP084 T01560083=
201106271853 METAR KCLM 271853Z AUTO 00000KT 10SM OVC100 15/10 A2979 RMK AO2 SLP087 T01500100=
201106271753 METAR KCLM 271753Z AUTO 00000KT 10SM BKN100 15/10 A2979 RMK AO2 RAB1655E05 SLP088 P0000 60000 T01500100 10150 20128 57009=
201106271653 METAR KCLM 271653Z AUTO 00000KT 10SM BKN085 BKN110 14/12 A2980 RMK AO2 SLP092 T01440117=
201106271553 METAR KCLM 271553Z AUTO 00000KT 10SM FEW095 13/11 A2981 RMK AO2 SLP093 T01330111=
201106271453 METAR KCLM 271453Z AUTO 00000KT 10SM BKN100 14/12 A2982 RMK AO2 RAE1357 SLP097 P0000 60000 T01390122 56010=
201106271353 METAR KCLM 271353Z AUTO 00000KT 10SM -RA FEW032 BKN090 13/12 A2983 RMK AO2 SLP100 P0000 T01330117=
201106271253 METAR KCLM 271253Z AUTO 00000KT 10SM -RA FEW075 OVC100 13/11 A2984 RMK AO2 RAB49 SLP104 P0000 T01280106=
201106271153 METAR KCLM 271153Z AUTO 00000KT 10SM FEW070 OVC100 13/10 A2985 RMK AO2 SLP108 T01280100 10139 20122 56016=
201106271053 METAR KCLM 271053Z AUTO 00000KT 10SM OVC100 13/10 A2986 RMK AO2 SLP111 T01280100=
201106270953 METAR KCLM 270953Z AUTO 00000KT 10SM OVC100 13/09 A2988 RMK AO2 SLP118 T01280094=
201106270853 METAR KCLM 270853Z AUTO 00000KT 10SM FEW100 13/09 A2990 RMK AO2 SLP124 T01330094 57015=
201106270753 METAR KCLM 270753Z AUTO 00000KT 10SM OVC110 12/09 A2991 RMK AO2 SLP129 T01220094 402000056=
201106270653 METAR KCLM 270653Z AUTO 00000KT 10SM OVC110 13/11 A2993 RMK AO2 SLP134 T01280106=
201106270553 METAR KCLM 270553Z AUTO 00000KT 10SM OVC110 14/10 A2994 RMK AO2 SLP139 T01390100 10200 20133 56011=
201106270453 METAR KCLM 270453Z AUTO 00000KT 10SM OVC120 14/10 A2996 RMK AO2 SLP144 T01390100=
201106270353 METAR KCLM 270353Z AUTO 00000KT 10SM FEW100 14/09 A2996 RMK AO2 SLP144 T01390089=
201106270253 METAR KCLM 270253Z AUTO 00000KT 10SM FEW120 14/09 A2998 RMK AO2 SLP150 T01390089 58010=
201106270153 METAR KCLM 270153Z AUTO 31003KT 10SM CLR 14/09 A2999 RMK AO2 SLP155 T01440089=
201106270053 METAR KCLM 270053Z AUTO 32005KT 10SM CLR 16/09 A3000 RMK AO2 SLP158 T01610094=
201106262353 METAR KCLM 262353Z AUTO 09003KT 10SM CLR 19/08 A3001 RMK AO2 SLP161 T01890083 10200 20150 58011=
201106262253 METAR KCLM 262253Z AUTO VRB04KT 10SM CLR 18/07 A3002 RMK AO2 SLP166 T01830072=
201106262153 METAR KCLM 262153Z AUTO 03006KT 10SM CLR 18/07 A3003 RMK AO2 SLP167 T01830072=
201106262053 METAR KCLM 262053Z AUTO 09007KT 10SM FEW100 19/07 A3004 RMK AO2 SLP172 T01890072 58007=
201106261953 METAR KCLM 261953Z AUTO 08007KT 030V100 10SM CLR 19/08 A3005 RMK AO2 SLP175 T01890078=
201106261853 METAR KCLM 261853Z AUTO 02005KT 10SM CLR 17/09 A3006 RMK AO2 SLP179 T01720094=
201106261753 METAR KCLM 261753Z AUTO VRB03KT 10SM FEW100 16/09 A3006 RMK AO2 SLP178 T01560089 10156 20056 50000=
201106261653 METAR KCLM 261653Z AUTO VRB03KT 10SM CLR 14/08 A3007 RMK AO2 SLP181 T01440083=
201106261553 METAR KCLM 261553Z AUTO 02003KT 10SM CLR 13/09 A3006 RMK AO2 SLP179 T01280089=
201106261453 METAR KCLM 261453Z AUTO 00000KT 10SM CLR 13/07 A3006 RMK AO2 SLP178 T01280072 53004=
201106261353 METAR KCLM 261353Z AUTO 00000KT 10SM CLR 10/07 A3005 RMK AO2 SLP176 T01000072=
201106261253 METAR KCLM 261253Z AUTO 00000KT 10SM CLR 06/04 A3004 RMK AO2 SLP174 T00610044=
201106261153 METAR KCLM 261153Z AUTO 00000KT 10SM CLR 06/05 A3005 RMK AO2 SLP175 T00610050 10100 20061 55004=
201106261053 METAR KCLM 261053Z AUTO 00000KT 10SM CLR 08/06 A3005 RMK AO2 SLP175 T00830061=
201106260953 METAR KCLM 260953Z AUTO 25004KT 10SM CLR 09/07 A3006 RMK AO2 SLP178 T00890067=
201106260853 METAR KCLM 260853Z AUTO 00000KT 9SM CLR 08/06 A3006 RMK AO2 SLP180 T00830061 56003=
201106260753 METAR KCLM 260753Z AUTO 24003KT 10SM CLR 09/06 A3006 RMK AO2 SLP180 T00890061 401670072=
201106260653 METAR KCLM 260653Z AUTO 00000KT 10SM CLR 10/07 A3006 RMK AO2 SLP182 T01000067=
201106260553 METAR KCLM 260553Z AUTO 29006KT 10SM CLR 10/07 A3007 RMK AO2 SLP182 T01000067 10156 20100 53002=
201106260453 METAR KCLM 260453Z AUTO 30006KT 10SM CLR 11/06 A3006 RMK AO2 SLP181 T01060061=
201106260353 METAR KCLM 260353Z AUTO 29006KT 10SM CLR 13/06 A3006 RMK AO2 SLP178 T01280061=
201106260253 METAR KCLM 260253Z AUTO 29009KT 10SM BKN060 14/07 A3006 RMK AO2 SLP180 T01440067 55003=
201106260153 METAR KCLM 260153Z AUTO 28006KT 10SM OVC060 15/08 A3006 RMK AO2 SLP179 T01500083=
201106260053 METAR KCLM 260053Z AUTO 33006KT 10SM OVC055 14/08 A3006 RMK AO2 SLP182 T01440083=
201106252353 METAR KCLM 252353Z AUTO 30008KT 10SM OVC055 14/09 A3007 RMK AO2 SLP184 T01390089 10167 20133 53002=
201106252253 METAR KCLM 252253Z AUTO 35007KT 10SM OVC055 15/09 A3006 RMK AO2 SLP181 T01500089=
201106252153 METAR KCLM 252153Z AUTO 30005KT 10SM OVC060 16/09 A3006 RMK AO2 SLP180 T01560089=
201106252053 METAR KCLM 252053Z AUTO 30008KT 10SM BKN060 15/09 A3006 RMK AO2 SLP182 T01500094 50002=
201106251953 METAR KCLM 251953Z AUTO 33007KT 10SM OVC055 14/09 A3007 RMK AO2 SLP183 T01390094=
201106251853 METAR KCLM 251853Z AUTO 31007KT 10SM BKN055 14/09 A3007 RMK AO2 SLP184 T01390094=
201106251753 METAR KCLM 251753Z AUTO 33007KT 10SM CLR 13/09 A3006 RMK AO2 SLP180 T01330089 10139 20089 50000=
201106251653 METAR KCLM 251653Z AUTO 31009KT 10SM CLR 13/08 A3006 RMK AO2 SLP181 T01280078=
201106251553 METAR KCLM 251553Z AUTO 26005KT 10SM FEW100 12/06 A3006 RMK AO2 SLP178 T01220061=
201106251453 METAR KCLM 251453Z AUTO 24010KT 10SM CLR 11/05 A3006 RMK AO2 SLP179 T01110050 51002=
201106251353 METAR KCLM 251353Z AUTO 24007KT 10SM SCT036 OVC047 11/05 A3006 RMK AO2 SLP179 T01060050=
201106251253 METAR KCLM 251253Z AUTO 26007KT 10SM FEW031 09/05 A3006 RMK AO2 SLP178 T00940050=
201106251153 METAR KCLM 251153Z AUTO 25007KT 10SM FEW027 09/05 A3005 RMK AO2 SLP177 T00940050 10100 20072 56006=
201106251053 METAR KCLM 251053Z AUTO 24008KT 10SM CLR 09/05 A3005 RMK AO2 SLP177 T00940050=
201106250953 METAR KCLM 250953Z AUTO 25007KT 10SM CLR 09/06 A3006 RMK AO2 SLP181 T00940056=
201106250853 METAR KCLM 250853Z AUTO 25005KT 10SM CLR 08/06 A3007 RMK AO2 SLP183 T00780056 56006=
201106250753 METAR KCLM 250753Z AUTO 29007KT 10SM CLR 08/06 A3007 RMK AO2 SLP184 T00830056 401560078=
201106250653 METAR KCLM 250653Z AUTO 25005KT 10SM CLR 09/07 A3008 RMK AO2 SLP186 T00940067=
201106250553 METAR KCLM 250553Z AUTO 28007KT 10SM CLR 10/07 A3009 RMK AO2 SLP189 T01000072 10150 20094 55000=
201106250453 METAR KCLM 250453Z AUTO 27009KT 10SM CLR 11/07 A3008 RMK AO2 SLP188 T01060072=
201106250353 METAR KCLM 250353Z AUTO 29010KT 10SM CLR 12/07 A3008 RMK AO2 SLP187 T01170072=
201106250253 METAR KCLM 250253Z AUTO 29013G18KT 10SM CLR 13/07 A3009 RMK AO2 SLP189 T01280072 55000=
201106250153 METAR KCLM 250153Z AUTO 31011G22KT 10SM CLR 14/08 A3009 RMK AO2 SLP188 T01390083=
201106250053 METAR KCLM 250053Z AUTO 31009G20KT 10SM FEW095 15/08 A3008 RMK AO2 SLP187 T01500083=
201106242353 METAR KCLM 242353Z AUTO 31013G20KT 10SM SCT065 BKN095 15/08 A3009 RMK AO2 SLP189 60000 T01500083 10156 20128 56005=
201106242253 METAR KCLM 242253Z AUTO 31012G20KT 10SM BKN080 15/09 A3009 RMK AO2 SLP191 T01500089=
201106242153 METAR KCLM 242153Z AUTO 31010G15KT 10SM FEW065 BKN095 15/10 A3009 RMK AO2 RAE29 SLP191 P0000 T01500100=
201106242053 METAR KCLM 242053Z AUTO 28006KT 10SM -RA FEW030 SCT060 14/09 A3010 RMK AO2 RAE14B34 SLP194 P0000 60000 T01390094 50000=
201106241953 METAR KCLM 241953Z AUTO 26007KT 10SM -RA SCT032 SCT070 BKN110 14/09 A3010 RMK AO2 RAE18B39 SLP194 P0000 T01390094=
201106241853 METAR KCLM 241853Z AUTO 30005KT 10SM -RA FEW039 SCT050 BKN060 13/09 A3011 RMK AO2 RAB45 SLP196 P0000 T01280094=
201106241753 METAR KCLM 241753Z AUTO 32010KT 10SM BKN065 14/09 A3010 RMK AO2 SLP193 T01390089 10144 20078 50001=
201106241653 METAR KCLM 241653Z AUTO 30006KT 10SM OVC050 13/08 A3010 RMK AO2 SLP194 T01330083=
201106241553 METAR KCLM 241553Z AUTO 30006KT 10SM OVC055 12/09 A3011 RMK AO2 SLP196 T01170089=
201106241453 METAR KCLM 241453Z AUTO 28005KT 10SM OVC060 12/08 A3010 RMK AO2 SLP193 T01170083 51003=
201106241353 METAR KCLM 241353Z AUTO 25006KT 10SM BKN065 11/08 A3010 RMK AO2 SLP193 T01110078=
201106241253 METAR KCLM 241253Z AUTO 14003KT 10SM OVC049 09/07 A3009 RMK AO2 SLP191 T00890067=
201106241153 METAR KCLM 241153Z AUTO 00000KT 10SM SCT045 08/06 A3009 RMK AO2 SLP190 T00780061 10117 20078 55001=
201106241053 METAR KCLM 241053Z AUTO 25004KT 10SM SCT045 09/07 A3008 RMK AO2 SLP187 T00940067=
201106240953 METAR KCLM 240953Z AUTO 26005KT 10SM SCT050 10/07 A3008 RMK AO2 SLP187 T01000072=
201106240853 METAR KCLM 240853Z AUTO 31003KT 10SM OVC060 11/07 A3009 RMK AO2 SLP190 T01060067 56005=
201106240753 METAR KCLM 240753Z AUTO 29005KT 10SM BKN050 OVC060 11/07 A3010 RMK AO2 SLP191 T01110072 401560078=
201106240653 METAR KCLM 240653Z AUTO 27005KT 10SM BKN055 OVC120 12/07 A3010 RMK AO2 SLP192 T01170072=
201106240553 METAR KCLM 240553Z AUTO 26005KT 10SM FEW055 OVC110 11/08 A3011 RMK AO2 SLP196 60000 T01110083 10156 20111 53002=
201106240453 METAR KCLM 240453Z AUTO 27005KT 10SM OVC055 12/08 A3011 RMK AO2 SLP194 T01170083=
201106240353 METAR KCLM 240353Z AUTO 30006KT 10SM SCT060 OVC120 12/08 A3010 RMK AO2 SLP194 T01170083=
201106240253 METAR KCLM 240253Z AUTO 30009G14KT 10SM OVC065 13/08 A3010 RMK AO2 SLP193 60000 T01280083 55001=
201106240153 METAR KCLM 240153Z AUTO 30006KT 10SM FEW028 BKN065 BKN100 13/09 A3009 RMK AO2 RAB19E33 SLP192 P0000 T01280089=
201106240053 METAR KCLM 240053Z AUTO 31012G18KT 10SM SCT100 14/08 A3010 RMK AO2 SLP194 T01390083=
201106232353 METAR KCLM 232353Z AUTO 31008KT 290V350 10SM BKN060 15/08 A3011 RMK AO2 SLP195 T01500078 10156 20133 50004=
201106232253 METAR KCLM 232253Z AUTO 31010G18KT 10SM BKN050 BKN095 15/08 A3011 RMK AO2 SLP196 T01500078=
201106232153 METAR KCLM 232153Z AUTO 31010G17KT 10SM FEW100 15/07 A3010 RMK AO2 SLP195 T01500067=
201106232053 METAR KCLM 232053Z AUTO 30011G16KT 10SM FEW100 15/07 A3009 RMK AO2 SLP191 T01500072 51009=
201106231953 METAR KCLM 231953Z AUTO 32010G17KT 10SM FEW055 SCT100 15/08 A3009 RMK AO2 SLP188 T01500078=
201106231853 METAR KCLM 231853Z AUTO 32009G19KT 290V350 10SM FEW060 BKN110 14/08 A3008 RMK AO2 SLP187 T01390083=
201106231753 METAR KCLM 231753Z AUTO 33006KT 10SM BKN060 13/07 A3007 RMK AO2 SLP182 T01330072 10150 20094 51004=
201106231653 METAR KCLM 231653Z AUTO 33007KT 10SM SCT041 BKN055 14/08 A3006 RMK AO2 SLP180 T01440078=
201106231553 METAR KCLM 231553Z AUTO 31006KT 10SM OVC047 13/07 A3006 RMK AO2 SLP180 T01280072=
201106231453 METAR KCLM 231453Z AUTO 27005KT 10SM OVC049 12/07 A3005 RMK AO2 SLP178 T01220072 53007=
201106231353 METAR KCLM 231353Z AUTO 26004KT 10SM SCT042 BKN049 OVC060 12/06 A3004 RMK AO2 SLP175 T01170061=
201106231253 METAR KCLM 231253Z AUTO 28004KT 10SM BKN060 09/06 A3004 RMK AO2 SLP173 T00940056=
201106231153 METAR KCLM 231153Z AUTO 29004KT 10SM OVC060 09/06 A3003 RMK AO2 SLP170 T00940056 10106 20078 53006=
201106231053 METAR KCLM 231053Z AUTO 26005KT 10SM OVC049 09/06 A3003 RMK AO2 SLP168 T00940056=
201106230953 METAR KCLM 230953Z AUTO 26005KT 10SM SCT049 08/05 A3002 RMK AO2 SLP165 T00780050=
201106230853 METAR KCLM 230853Z AUTO 28006KT 10SM CLR 09/05 A3001 RMK AO2 SLP164 T00890050 53012=
201106230753 METAR KCLM 230753Z AUTO 28010KT 10SM CLR 10/06 A3000 RMK AO2 SLP160 T01000056 401440100=
201106230653 METAR KCLM 230653Z AUTO 28011KT 10SM CLR 10/06 A2999 RMK AO2 SLP157 T01000056=
201106230553 METAR KCLM 230553Z AUTO 28008KT 10SM CLR 11/06 A2998 RMK AO2 SLP153 T01060056 10133 20100 53006=
201106230453 METAR KCLM 230453Z AUTO 29006KT 10SM CLR 11/06 A2997 RMK AO2 SLP149 T01060056=
201106230353 METAR KCLM 230353Z AUTO 31010G17KT 10SM FEW029 11/07 A2996 RMK AO2 SLP145 T01060072=
201106230253 METAR KCLM 230253Z AUTO 30016G24KT 10SM FEW029 11/07 A2996 RMK AO2 PK WND 30028/0219 SLP146 T01110072 51001=
201106230153 METAR KCLM 230153Z AUTO 30013G23KT 10SM CLR 12/07 A2996 RMK AO2 SLP146 T01170072=
201106230053 METAR KCLM 230053Z AUTO 30015G21KT 10SM CLR 12/07 A2996 RMK AO2 SLP146 T01220072=
201106222353 METAR KCLM 222353Z AUTO 31013G22KT 10SM CLR 13/08 A2996 RMK AO2 SLP145 T01330078 10144 20117 58002=
201106222253 METAR KCLM 222253Z AUTO 31014G21KT 10SM FEW027 14/08 A2996 RMK AO2 SLP146 T01390078=
201106222209 SPECI KCLM 222209Z AUTO 31013G20KT 10SM FEW022 SCT100 14/08 A2996 RMK AO2=
201106222209 SPECI KCLM 222209Z AUTO 31013G20KT 10SM FEW022 SCT100 14/08 A2996 RMK AO2=
201106222153 METAR KCLM 222153Z AUTO 31014G23KT 10SM BKN020 14/09 A2996 RMK AO2 SLP146 T01390089=
201106222053 METAR KCLM 222053Z AUTO 30011G20KT 10SM OVC015 13/08 A2996 RMK AO2 SLP147 T01280083 58002=
201106222024 SPECI KCLM 222024Z AUTO 32010G18KT 10SM OVC015 13/09 A2996 RMK AO2=
201106222024 SPECI KCLM 222024Z AUTO 32010G18KT 10SM OVC015 13/09 A2996 RMK AO2=
201106221953 METAR KCLM 221953Z AUTO 31011KT 10SM OVC013 12/09 A2997 RMK AO2 SLP149 T01220089=
201106221853 METAR KCLM 221853Z AUTO 31009KT 10SM OVC013 12/09 A2997 RMK AO2 SLP150 T01220089=
201106221753 METAR KCLM 221753Z AUTO 31011G17KT 10SM OVC011 12/09 A2997 RMK AO2 SLP149 T01170089 10122 20111 50000=
201106221719 SPECI KCLM 221719Z AUTO 31009KT 10SM OVC011 12/09 A2997 RMK AO2=
201106221719 SPECI KCLM 221719Z AUTO 31009KT 10SM OVC011 12/09 A2997 RMK AO2=
201106221653 METAR KCLM 221653Z AUTO 32007KT 10SM OVC009 12/09 A2997 RMK AO2 SLP150 T01170089=
201106221553 METAR KCLM 221553Z AUTO 30008KT 10SM OVC007 11/09 A2997 RMK AO2 SLP149 T01110094=
201106221453 METAR KCLM 221453Z AUTO 28009KT 10SM OVC007 12/09 A2997 RMK AO2 SLP148 T01170094 53002=
201106221353 METAR KCLM 221353Z AUTO 29010KT 10SM BKN007 OVC011 12/10 A2996 RMK AO2 CIG 005V010 SLP145 T01170100=
201106221253 METAR KCLM 221253Z AUTO 29009KT 10SM OVC005 12/10 A2996 RMK AO2 SLP145 T01170100=
201106221153 METAR KCLM 221153Z AUTO 28008KT 10SM OVC005 12/11 A2996 RMK AO2 SLP146 T01170106 10128 20100 51002=
201106221053 METAR KCLM 221053Z AUTO 29009KT 10SM OVC007 12/11 A2996 RMK AO2 SLP145 T01170106=
201106220953 METAR KCLM 220953Z AUTO 29009KT 10SM OVC009 12/11 A2996 RMK AO2 CIG 005V011 SLP146 T01170106=
201106220922 SPECI KCLM 220922Z AUTO 29011KT 10SM BKN009 11/10 A2996 RMK AO2=
201106220922 SPECI KCLM 220922Z AUTO 29011KT 10SM BKN009 11/10 A2996 RMK AO2=
201106220853 METAR KCLM 220853Z AUTO 29007KT 10SM SCT003 11/09 A2996 RMK AO2 SLP144 T01060094 58003=
201106220844 SPECI KCLM 220844Z AUTO 29006KT 10SM BKN003 11/09 A2996 RMK AO2=
201106220844 SPECI KCLM 220844Z AUTO 29006KT 10SM BKN003 11/09 A2996 RMK AO2=
201106220811 SPECI KCLM 220811Z AUTO 28005KT 10SM SCT002 10/09 A2996 RMK AO2=
201106220811 SPECI KCLM 220811Z AUTO 28005KT 10SM SCT002 10/09 A2996 RMK AO2=
201106220753 METAR KCLM 220753Z AUTO 28004KT 10SM BKN002 10/09 A2996 RMK AO2 SLP147 T01000089 401780078=
201106220742 SPECI KCLM 220742Z AUTO 30004KT 3SM BR BKN002 11/09 A2996 RMK AO2=
201106220742 SPECI KCLM 220742Z AUTO 30004KT 3SM BR BKN002 11/09 A2996 RMK AO2=
201106220733 SPECI KCLM 220733Z AUTO 30004KT 8SM SCT002 10/09 A2996 RMK AO2=
201106220733 SPECI KCLM 220733Z AUTO 30004KT 8SM SCT002 10/09 A2996 RMK AO2=
201106220653 METAR KCLM 220653Z AUTO 29006KT 10SM CLR 12/11 A2996 RMK AO2 SLP146 T01220106=
201106220553 METAR KCLM 220553Z AUTO 29008KT 10SM CLR 13/11 A2997 RMK AO2 SLP147 T01280106 10172 20122 53001=
201106220453 METAR KCLM 220453Z AUTO 30008KT 10SM CLR 13/11 A2996 RMK AO2 SLP147 T01280106=
201106220353 METAR KCLM 220353Z AUTO 30007KT 10SM CLR 14/11 A2996 RMK AO2 SLP145 T01390111=
201106220253 METAR KCLM 220253Z AUTO 30007KT 10SM CLR 15/11 A2996 RMK AO2 SLP146 T01500111 57010=
201106220153 METAR KCLM 220153Z AUTO 31007KT 10SM CLR 16/11 A2997 RMK AO2 SLP150 T01610111=
201106220053 METAR KCLM 220053Z AUTO 31006KT 10SM CLR 17/12 A2998 RMK AO2 SLP152 T01720117=
201106212353 METAR KCLM 212353Z AUTO 31007KT 10SM CLR 17/11 A2999 RMK AO2 SLP156 T01720111 10178 20139 58008=
201106212253 METAR KCLM 212253Z AUTO 30005KT 10SM CLR 17/12 A3000 RMK AO2 SLP160 T01720117=
201106212153 METAR KCLM 212153Z AUTO VRB06KT 10SM CLR 17/12 A3001 RMK AO2 SLP162 T01720117=
201106212053 METAR KCLM 212053Z AUTO 35005KT 10SM CLR 16/11 A3002 RMK AO2 SLP165 T01610106 58005=
201106211953 METAR KCLM 211953Z AUTO VRB04KT 10SM CLR 17/11 A3002 RMK AO2 SLP167 T01670106=
201106211853 METAR KCLM 211853Z AUTO 36004KT 10SM CLR 15/11 A3003 RMK AO2 SLP170 T01500106=
201106211753 METAR KCLM 211753Z AUTO VRB05KT 10SM CLR 14/11 A3003 RMK AO2 SLP170 T01440106 10150 20078 57004=
201106211653 METAR KCLM 211653Z AUTO 34005KT 10SM CLR 14/11 A3004 RMK AO2 SLP172 T01440106=
201106211553 METAR KCLM 211553Z AUTO VRB03KT 10SM CLR 14/11 A3004 RMK AO2 SLP172 T01440106=
201106211453 METAR KCLM 211453Z AUTO 32003KT 10SM CLR 13/11 A3004 RMK AO2 SLP174 T01280106 53002=
201106211353 METAR KCLM 211353Z AUTO 00000KT 10SM CLR 11/10 A3004 RMK AO2 SLP171 T01110100=
201106211253 METAR KCLM 211253Z AUTO 00000KT 10SM CLR 08/07 A3004 RMK AO2 SLP172 T00830072=
201106211153 METAR KCLM 211153Z AUTO 00000KT 10SM CLR 08/07 A3004 RMK AO2 SLP173 T00830067 10122 20083 56002=
201106211053 METAR KCLM 211053Z AUTO 00000KT 10SM CLR 09/08 A3005 RMK AO2 SLP174 T00940078=
201106210953 METAR KCLM 210953Z AUTO 00000KT 10SM CLR 10/09 A3004 RMK AO2 SLP172 T01000089=
201106210853 METAR KCLM 210853Z AUTO 27003KT 10SM OVC075 11/09 A3005 RMK AO2 SLP174 T01110094 58001=
201106210753 METAR KCLM 210753Z AUTO 25003KT 10SM OVC080 12/09 A3005 RMK AO2 SLP176 T01170094 401720106=
201106210653 METAR KCLM 210653Z AUTO 25003KT 10SM OVC080 12/09 A3006 RMK AO2 SLP178 T01220094=
201106210553 METAR KCLM 210553Z AUTO 00000KT 10SM SCT080 11/09 A3005 RMK AO2 SLP176 T01110094 10161 20106 50001=
201106210453 METAR KCLM 210453Z AUTO 00000KT 10SM OVC085 12/09 A3005 RMK AO2 SLP176 T01220094=
201106210353 METAR KCLM 210353Z AUTO 29003KT 10SM BKN085 12/09 A3005 RMK AO2 SLP177 T01220094=
201106210253 METAR KCLM 210253Z AUTO 31003KT 10SM FEW050 OVC090 13/09 A3005 RMK AO2 SLP175 T01330094 55002=
201106210153 METAR KCLM 210153Z AUTO 29005KT 10SM OVC055 15/09 A3004 RMK AO2 SLP174 T01500094=
201106210053 METAR KCLM 210053Z AUTO 30004KT 10SM FEW060 SCT090 15/09 A3005 RMK AO2 SLP176 T01500094=
201106202353 METAR KCLM 202353Z AUTO 36005KT 10SM CLR 16/09 A3005 RMK AO2 SLP177 T01560094 10172 20139 53000=
201106202253 METAR KCLM 202253Z AUTO VRB03KT 10SM CLR 16/10 A3005 RMK AO2 SLP175 T01560100=
201106202153 METAR KCLM 202153Z AUTO VRB05KT 10SM FEW100 15/10 A3005 RMK AO2 SLP175 T01500100=
201106202053 METAR KCLM 202053Z AUTO 02006KT 10SM BKN070 16/10 A3005 RMK AO2 SLP176 T01610100 50001=
201106201953 METAR KCLM 201953Z AUTO VRB03KT 10SM CLR 16/10 A3005 RMK AO2 SLP177 T01560100=
201106201853 METAR KCLM 201853Z AUTO VRB04KT 10SM FEW100 15/09 A3005 RMK AO2 SLP176 T01500094=
201106201753 METAR KCLM 201753Z AUTO 01004KT 10SM CLR 14/09 A3005 RMK AO2 SLP175 T01390094 10144 20106 52003=
201106201653 METAR KCLM 201653Z AUTO 35004KT 10SM CLR 13/10 A3005 RMK AO2 SLP174 T01330100=
201106201553 METAR KCLM 201553Z AUTO 34003KT 10SM OVC049 13/09 A3004 RMK AO2 SLP174 T01280094=
201106201453 METAR KCLM 201453Z AUTO 00000KT 10SM OVC049 12/09 A3004 RMK AO2 SLP173 T01170094 53002=
201106201353 METAR KCLM 201353Z AUTO 00000KT 10SM BKN049 11/09 A3003 RMK AO2 SLP169 T01110094=
201106201253 METAR KCLM 201253Z AUTO 00000KT 10SM OVC049 11/09 A3003 RMK AO2 SLP169 T01110094=
201106201153 METAR KCLM 201153Z AUTO 00000KT 10SM OVC049 11/09 A3003 RMK AO2 SLP171 T01110094 10117 20106 58004=
201106201104 SPECI KCLM 201104Z AUTO 23003KT 10SM FEW019 OVC049 11/09 A3004 RMK AO2=
201106201104 SPECI KCLM 201104Z AUTO 23003KT 10SM FEW019 OVC049 11/09 A3004 RMK AO2=
201106201053 METAR KCLM 201053Z AUTO 00000KT 10SM BKN019 OVC049 11/09 A3004 RMK AO2 SLP174 T01110094=
201106200953 METAR KCLM 200953Z AUTO 24003KT 10SM OVC019 11/09 A3005 RMK AO2 SLP176 T01110094=
201106200853 METAR KCLM 200853Z AUTO 00000KT 10SM OVC019 11/09 A3005 RMK AO2 SLP175 T01110094 53001=
201106200753 METAR KCLM 200753Z AUTO 00000KT 10SM BKN021 OVC042 11/09 A3004 RMK AO2 SLP174 T01060089 401390100=
201106200748 SPECI KCLM 200748Z AUTO 00000KT 10SM BKN021 OVC042 11/09 A3004 RMK AO2 401390100=
201106200748 SPECI KCLM 200748Z AUTO 00000KT 10SM BKN021 OVC042 11/09 A3004 RMK AO2 401390100=
201106200730 SPECI KCLM 200730Z AUTO 25003KT 10SM SCT021 OVC042 11/09 A3004 RMK AO2=
201106200730 SPECI KCLM 200730Z AUTO 25003KT 10SM SCT021 OVC042 11/09 A3004 RMK AO2=
201106200653 METAR KCLM 200653Z AUTO 24004KT 10SM BKN021 OVC041 11/09 A3004 RMK AO2 SLP174 T01110094=
201106200616 SPECI KCLM 200616Z AUTO 24004KT 10SM SCT021 OVC041 12/09 A3005 RMK AO2=
201106200616 SPECI KCLM 200616Z AUTO 24004KT 10SM SCT021 OVC041 12/09 A3005 RMK AO2=
201106200553 METAR KCLM 200553Z AUTO 24005KT 10SM BKN021 OVC041 12/09 A3005 RMK AO2 SLP176 T01170094 10128 20117 58005=
201106200453 METAR KCLM 200453Z AUTO 24004KT 10SM BKN023 OVC035 12/09 A3006 RMK AO2 SLP181 T01170094=
201106200353 METAR KCLM 200353Z AUTO 25004KT 10SM OVC017 12/09 A3006 RMK AO2 SLP181 T01170094=
201106200253 METAR KCLM 200253Z AUTO 26005KT 10SM OVC017 12/09 A3006 RMK AO2 SLP182 T01220089 56004=
201106200153 METAR KCLM 200153Z AUTO 27005KT 10SM OVC017 12/09 A3007 RMK AO2 SLP183 T01220094=
201106200053 METAR KCLM 200053Z AUTO 30006KT 10SM OVC017 13/09 A3007 RMK AO2 SLP183 T01280089=
201106192353 METAR KCLM 192353Z AUTO 28006KT 10SM OVC017 13/09 A3008 RMK AO2 SLP186 T01280094 10139 20122 50000 TSNO=
201106192253 METAR KCLM 192253Z AUTO 28006KT 10SM OVC015 13/09 A3008 RMK AO2 SLP188 T01280094=
201106192153 METAR KCLM 192153Z AUTO 30008KT 10SM BKN015 OVC030 13/09 A3008 RMK AO2 SLP188 T01280094=
201106192143 SPECI KCLM 192143Z AUTO 28006KT 10SM BKN015 BKN022 OVC030 13/09 A3008 RMK AO2=
201106192143 SPECI KCLM 192143Z AUTO 28006KT 10SM BKN015 BKN022 OVC030 13/09 A3008 RMK AO2=
201106192053 METAR KCLM 192053Z AUTO 30007KT 10SM OVC013 13/10 A3008 RMK AO2 SLP185 T01280100 51003=
201106192018 SPECI KCLM 192018Z AUTO 27004KT 10SM OVC011 12/10 A3007 RMK AO2=
201106192018 SPECI KCLM 192018Z AUTO 27004KT 10SM OVC011 12/10 A3007 RMK AO2=
201106191953 METAR KCLM 191953Z AUTO 00000KT 10SM BKN009 OVC013 13/11 A3007 RMK AO2 CIG 008V011 SLP184 T01280106=
201106191932 SPECI KCLM 191932Z AUTO 29006KT 10SM OVC009 12/09 A3008 RMK AO2=
201106191932 SPECI KCLM 191932Z AUTO 29006KT 10SM OVC009 12/09 A3008 RMK AO2=
201106191905 SPECI KCLM 191905Z AUTO 30008KT 10SM BKN011 BKN016 OVC025 12/10 A3007 RMK AO2 CIG 008V012=
201106191905 SPECI KCLM 191905Z AUTO 30008KT 10SM BKN011 BKN016 OVC025 12/10 A3007 RMK AO2 CIG 008V012=
201106191853 METAR KCLM 191853Z AUTO 32007KT 10SM SCT009 SCT016 OVC025 12/10 A3007 RMK AO2 SLP185 T01220100=
201106191824 SPECI KCLM 191824Z AUTO 32007KT 10SM FEW008 OVC025 12/10 A3007 RMK AO2=
201106191824 SPECI KCLM 191824Z AUTO 32007KT 10SM FEW008 OVC025 12/10 A3007 RMK AO2=
201106191753 METAR KCLM 191753Z AUTO 30009KT 10SM OVC025 13/10 A3006 RMK AO2 SLP182 T01280100 10133 20100 58000=
201106191653 METAR KCLM 191653Z AUTO 31006KT 10SM BKN019 OVC026 12/09 A3007 RMK AO2 SLP183 T01220089=
201106191604 SPECI KCLM 191604Z AUTO 32009KT 10SM FEW015 BKN026 OVC065 12/09 A3007 RMK AO2=
201106191604 SPECI KCLM 191604Z AUTO 32009KT 10SM FEW015 BKN026 OVC065 12/09 A3007 RMK AO2=
201106191553 METAR KCLM 191553Z AUTO 33007KT 10SM FEW016 SCT028 OVC065 13/09 A3007 RMK AO2 SLP182 T01280089=
201106191453 METAR KCLM 191453Z AUTO 26006KT 10SM OVC065 12/08 A3007 RMK AO2 SLP182 T01170083 51006=
201106191353 METAR KCLM 191353Z AUTO 25005KT 10SM OVC065 11/08 A3006 RMK AO2 SLP181 T01060083=
201106191253 METAR KCLM 191253Z AUTO 27007KT 10SM OVC060 11/08 A3005 RMK AO2 SLP178 T01060083=
201106191153 METAR KCLM 191153Z AUTO 27006KT 10SM OVC065 11/08 A3005 RMK AO2 SLP175 70001 T01060078 10111 20094 51005=
201106191053 METAR KCLM 191053Z AUTO 28007KT 10SM OVC065 11/08 A3004 RMK AO2 SLP174 T01110078=
201106190953 METAR KCLM 190953Z AUTO 26006KT 10SM OVC070 11/08 A3004 RMK AO2 SLP173 T01060078=
201106190853 METAR KCLM 190853Z AUTO 28009KT 10SM SCT055 BKN070 10/08 A3003 RMK AO2 SLP170 T01000078 50007=
201106190753 METAR KCLM 190753Z AUTO 29004KT 10SM OVC065 10/08 A3004 RMK AO2 SLP172 T01000078 401330094=
201106190653 METAR KCLM 190653Z AUTO 28007KT 10SM CLR 10/08 A3002 RMK AO2 SLP168 T01000083=
201106190553 METAR KCLM 190553Z AUTO 28008KT 10SM FEW065 10/08 A3001 RMK AO2 SLP162 T01000083 10128 20100 51011=
201106190453 METAR KCLM 190453Z AUTO 29008KT 10SM FEW070 11/09 A3000 RMK AO2 SLP159 T01110089=
201106190353 METAR KCLM 190353Z AUTO 27010KT 10SM OVC070 12/09 A2999 RMK AO2 SLP157 T01170094=
201106190336 SPECI KCLM 190336Z AUTO 28012G17KT 10SM SCT012 OVC065 12/09 A2999 RMK AO2=
201106190336 SPECI KCLM 190336Z AUTO 28012G17KT 10SM SCT012 OVC065 12/09 A2999 RMK AO2=
201106190253 METAR KCLM 190253Z AUTO 30007KT 10SM OVC010 12/09 A2998 RMK AO2 CIG 008V012 SLP151 T01220094 53008=
201106190153 METAR KCLM 190153Z AUTO 29011KT 10SM OVC012 13/10 A2996 RMK AO2 SLP147 T01280100=
201106190053 METAR KCLM 190053Z AUTO 31011G17KT 10SM OVC010 13/10 A2996 RMK AO2 SLP144 T01280100=
201106182353 METAR KCLM 182353Z AUTO 31013G20KT 10SM BKN010 OVC055 12/10 A2995 RMK AO2 SLP143 T01220100 10133 20111 53008=
201106182253 METAR KCLM 182253Z AUTO 32007G15KT 10SM BKN010 OVC100 13/11 A2994 RMK AO2 SLP138 T01280106=
201106182153 METAR KCLM 182153Z AUTO 30009KT 10SM OVC008 13/11 A2993 RMK AO2 SLP135 T01330111=
201106182053 METAR KCLM 182053Z AUTO 29007KT 10SM OVC008 12/11 A2993 RMK AO2 CIG 006V010 SLP135 T01220106 52008=
201106182034 SPECI KCLM 182034Z AUTO 28011KT 10SM OVC008 12/11 A2992 RMK AO2 CIG 004V010=
201106182034 SPECI KCLM 182034Z AUTO 28011KT 10SM OVC008 12/11 A2992 RMK AO2 CIG 004V010=
201106181953 METAR KCLM 181953Z AUTO 31009KT 10SM OVC004 12/11 A2992 RMK AO2 SLP132 T01170106=
201106181853 METAR KCLM 181853Z AUTO 29009KT 10SM OVC004 12/10 A2991 RMK AO2 SLP129 T01170100=
201106181838 SPECI KCLM 181838Z AUTO 30006KT 10SM OVC004 11/10 A2991 RMK AO2=
201106181838 SPECI KCLM 181838Z AUTO 30006KT 10SM OVC004 11/10 A2991 RMK AO2=
201106181808 SPECI KCLM 181808Z AUTO 31008KT 10SM OVC006 12/10 A2990 RMK AO2 CIG 004V009=
201106181808 SPECI KCLM 181808Z AUTO 31008KT 10SM OVC006 12/10 A2990 RMK AO2 CIG 004V009=
201106181753 METAR KCLM 181753Z AUTO 30008KT 10SM OVC004 11/11 A2990 RMK AO2 RAB1654E14 CIG 001V009 SLP126 P0000 60001 T01110106 10117 20106 57001=
201106181653 METAR KCLM 181653Z AUTO 33005KT 9SM BKN004 OVC009 11/10 A2990 RMK AO2 RAE25 CIG 001V007 SLP126 P0000 T01110100=
201106181619 SPECI KCLM 181619Z AUTO 32003KT 8SM -RA BKN006 OVC010 11/10 A2990 RMK AO2 CIG 002V008 P0000=
201106181619 SPECI KCLM 181619Z AUTO 32003KT 8SM -RA BKN006 OVC010 11/10 A2990 RMK AO2 CIG 002V008 P0000=
201106181607 SPECI KCLM 181607Z AUTO 00000KT 5SM BR BKN004 OVC010 11/10 A2990 RMK AO2 RAE05 CIG 002V007 P0000=
201106181607 SPECI KCLM 181607Z AUTO 00000KT 5SM BR BKN004 OVC010 11/10 A2990 RMK AO2 RAE05 CIG 002V007 P0000=
201106181600 SPECI KCLM 181600Z AUTO 30003KT 2 1/2SM -RA BR OVC002 11/10 A2990 RMK AO2 CIG 001V007 P0000=
201106181600 SPECI KCLM 181600Z AUTO 30003KT 2 1/2SM -RA BR OVC002 11/10 A2990 RMK AO2 CIG 001V007 P0000=
201106181553 METAR KCLM 181553Z AUTO 28004KT 1 3/4SM -RA BR OVC002 11/10 A2990 RMK AO2 RAB07 CIG 001V007 SLP127 P0001 T01060100=
201106181514 SPECI KCLM 181514Z AUTO 30004KT 2SM -RA BR OVC002 11/10 A2991 RMK AO2 RAB07 P0000=
201106181514 SPECI KCLM 181514Z AUTO 30004KT 2SM -RA BR OVC002 11/10 A2991 RMK AO2 RAB07 P0000=
201106181503 SPECI KCLM 181503Z AUTO 29003KT 4SM BR OVC002 11/10 A2990 RMK AO2=
201106181503 SPECI KCLM 181503Z AUTO 29003KT 4SM BR OVC002 11/10 A2990 RMK AO2=
201106181453 METAR KCLM 181453Z AUTO 31005KT 2 1/2SM BR OVC002 11/10 A2990 RMK AO2 RAB11E24 SLP127 P0000 60000 T01060100 56005=
201106181416 SPECI KCLM 181416Z AUTO 30003KT 2SM -RA BR OVC004 11/10 A2990 RMK AO2 RAB11 CIG 001V006 P0000=
201106181416 SPECI KCLM 181416Z AUTO 30003KT 2SM -RA BR OVC004 11/10 A2990 RMK AO2 RAB11 CIG 001V006 P0000=
201106181353 METAR KCLM 181353Z AUTO 30005KT 4SM BR OVC004 11/10 A2991 RMK AO2 CIG 001V005 SLP129 T01060100=
201106181328 SPECI KCLM 181328Z AUTO 31003KT 3SM BR OVC004 11/10 A2991 RMK AO2 CIG 003V006=
201106181328 SPECI KCLM 181328Z AUTO 31003KT 3SM BR OVC004 11/10 A2991 RMK AO2 CIG 003V006=
201106181301 SPECI KCLM 181301Z AUTO VRB04KT 8SM OVC006 11/10 A2991 RMK AO2 CIG 002V009=
201106181301 SPECI KCLM 181301Z AUTO VRB04KT 8SM OVC006 11/10 A2991 RMK AO2 CIG 002V009=
201106181253 METAR KCLM 181253Z AUTO 30004KT 9SM BKN004 OVC008 11/10 A2991 RMK AO2 RAE38 CIG 002V007 SLP129 P0000 T01110100=
201106181153 METAR KCLM 181153Z AUTO 00000KT 8SM -RA BKN006 OVC038 11/10 A2992 RMK AO2 RAE21B50 SLP131 P0000 60000 T01110100 10117 20111 57006=
201106181126 SPECI KCLM 181126Z AUTO 00000KT 10SM BKN008 BKN016 OVC044 11/10 A2992 RMK AO2 RAE21 P0000=
201106181126 SPECI KCLM 181126Z AUTO 00000KT 10SM BKN008 BKN016 OVC044 11/10 A2992 RMK AO2 RAE21 P0000=
201106181116 SPECI KCLM 181116Z AUTO 00000KT 10SM -RA SCT008 BKN016 OVC046 11/10 A2992 RMK AO2 P0000=
201106181116 SPECI KCLM 181116Z AUTO 00000KT 10SM -RA SCT008 BKN016 OVC046 11/10 A2992 RMK AO2 P0000=
201106181053 METAR KCLM 181053Z AUTO 25003KT 10SM -RA BKN048 OVC065 11/10 A2992 RMK AO2 SLP133 P0000 T01110100=
201106180953 METAR KCLM 180953Z AUTO 25003KT 10SM -RA BKN070 OVC080 12/09 A2993 RMK AO2 RAB38 SLP135 P0000 T01170094=
201106180853 METAR KCLM 180853Z AUTO 26004KT 10SM OVC055 12/09 A2994 RMK AO2 SLP137 T01170094 56010=
201106180753 METAR KCLM 180753Z AUTO 25004KT 10SM OVC055 12/09 A2995 RMK AO2 SLP141 T01170089 401610056=
201106180653 METAR KCLM 180653Z AUTO 28008KT 10SM OVC055 12/09 A2995 RMK AO2 SLP143 T01170089=
201106180553 METAR KCLM 180553Z AUTO 28007KT 10SM OVC060 12/09 A2997 RMK AO2 SLP148 T01170089 10144 20117 58005=
201106180453 METAR KCLM 180453Z AUTO 29008KT 10SM OVC060 12/08 A2998 RMK AO2 SLP151 T01220083=
201106180353 METAR KCLM 180353Z AUTO 27008KT 10SM OVC060 12/08 A2998 RMK AO2 SLP154 T01220083=
201106180253 METAR KCLM 180253Z AUTO 27010KT 10SM OVC080 12/08 A2998 RMK AO2 SLP154 T01220078 58004=
201106180153 METAR KCLM 180153Z AUTO 27010KT 10SM OVC080 13/08 A2999 RMK AO2 SLP156 T01330078=
201106180053 METAR KCLM 180053Z AUTO 30007KT 10SM OVC080 14/08 A2999 RMK AO2 SLP158 T01390078=
201106172353 METAR KCLM 172353Z AUTO 31009KT 10SM SCT085 BKN110 14/07 A3000 RMK AO2 SLP158 T01440072 10161 20128 56003=
201106172253 METAR KCLM 172253Z AUTO 30006KT 10SM BKN080 16/07 A3000 RMK AO2 SLP158 T01560067=
201106172153 METAR KCLM 172153Z AUTO 31010KT 10SM BKN110 14/07 A3000 RMK AO2 SLP160 T01440067=
201106172053 METAR KCLM 172053Z AUTO 30009KT 10SM SCT110 14/07 A3001 RMK AO2 SLP162 T01440072 53000=
201106171953 METAR KCLM 171953Z AUTO 32007KT 10SM BKN110 14/07 A3000 RMK AO2 SLP160 T01390072=
201106171853 METAR KCLM 171853Z AUTO VRB05KT 10SM SCT110 13/08 A3000 RMK AO2 SLP161 T01330078=
201106171753 METAR KCLM 171753Z AUTO 34007KT 10SM BKN110 13/07 A3000 RMK AO2 SLP161 T01330067 10133 20056 50001=
201106171653 METAR KCLM 171653Z AUTO 32006KT 10SM CLR 13/07 A3001 RMK AO2 SLP162 T01280067=
201106171553 METAR KCLM 171553Z AUTO 31008KT 10SM CLR 12/06 A3001 RMK AO2 SLP162 T01220061=
201106171453 METAR KCLM 171453Z AUTO 28003KT 10SM CLR 12/06 A3000 RMK AO2 SLP160 T01170061 58003=
201106171353 METAR KCLM 171353Z AUTO 26004KT 10SM CLR 10/07 A3002 RMK AO2 SLP165 T01000067=
201106171253 METAR KCLM 171253Z AUTO 21004KT 10SM CLR 07/05 A3001 RMK AO2 SLP163 T00670050=
201106171153 METAR KCLM 171153Z AUTO 24004KT 10SM CLR 06/04 A3001 RMK AO2 SLP163 T00560044 10094 20056 58004=
201106171053 METAR KCLM 171053Z AUTO 23003KT 10SM CLR 07/04 A3001 RMK AO2 SLP163 T00670044=
201106170953 METAR KCLM 170953Z AUTO 25007KT 10SM CLR 08/05 A3003 RMK AO2 SLP169 T00780050=
201106170853 METAR KCLM 170853Z AUTO 24004KT 10SM CLR 08/05 A3002 RMK AO2 SLP168 T00780050 56002=
201106170753 METAR KCLM 170753Z AUTO 28005KT 10SM CLR 08/06 A3003 RMK AO2 SLP168 T00830056 401440083=
201106170653 METAR KCLM 170653Z AUTO 27007KT 10SM CLR 09/06 A3002 RMK AO2 SLP167 T00890056=
201106170553 METAR KCLM 170553Z AUTO 27009G17KT 10SM CLR 09/07 A3003 RMK AO2 SLP170 T00940067 10133 20094 58001=
201106170453 METAR KCLM 170453Z AUTO 28011KT 10SM CLR 09/07 A3004 RMK AO2 SLP173 T00940067=
201106170353 METAR KCLM 170353Z AUTO 28012KT 10SM CLR 10/07 A3004 RMK AO2 SLP172 T01000067=
201106170253 METAR KCLM 170253Z AUTO 30008KT 10SM FEW100 12/07 A3003 RMK AO2 SLP171 T01170067 56006=
201106170153 METAR KCLM 170153Z AUTO 31008G16KT 10SM CLR 12/06 A3004 RMK AO2 SLP172 T01220061=
201106170053 METAR KCLM 170053Z AUTO 31010G18KT 10SM CLR 13/07 A3004 RMK AO2 SLP175 T01280072=
201106162353 METAR KCLM 162353Z AUTO 31013G20KT 10SM CLR 13/07 A3005 RMK AO2 SLP177 T01280072 10144 20128 58006=
201106162329 SPECI KCLM 162329Z AUTO 30009G21KT 10SM FEW029 13/08 A3006 RMK AO2=
201106162329 SPECI KCLM 162329Z AUTO 30009G21KT 10SM FEW029 13/08 A3006 RMK AO2=
201106162253 METAR KCLM 162253Z AUTO 31012G21KT 10SM BKN029 14/08 A3006 RMK AO2 SLP181 T01390078=
201106162153 METAR KCLM 162153Z AUTO 31010G18KT 10SM OVC031 13/07 A3007 RMK AO2 SLP183 T01330072=
201106162053 METAR KCLM 162053Z AUTO 31013G21KT 10SM BKN031 13/08 A3007 RMK AO2 SLP184 T01330078 58003=
201106162028 SPECI KCLM 162028Z AUTO 30014G19KT 10SM SCT026 14/08 A3007 RMK AO2=
201106162028 SPECI KCLM 162028Z AUTO 30014G19KT 10SM SCT026 14/08 A3007 RMK AO2=
201106162015 SPECI KCLM 162015Z AUTO 31011G17KT 10SM BKN026 13/08 A3007 RMK AO2=
201106162015 SPECI KCLM 162015Z AUTO 31011G17KT 10SM BKN026 13/08 A3007 RMK AO2=
201106161953 METAR KCLM 161953Z AUTO 32010G19KT 10SM FEW026 14/09 A3007 RMK AO2 SLP185 T01440089=
201106161853 METAR KCLM 161853Z AUTO 31012G21KT 10SM FEW110 14/08 A3008 RMK AO2 SLP187 T01390078=
201106161816 SPECI KCLM 161816Z AUTO 33006G16KT 10SM SCT023 SCT100 13/08 A3008 RMK AO2=
201106161816 SPECI KCLM 161816Z AUTO 33006G16KT 10SM SCT023 SCT100 13/08 A3008 RMK AO2=
201106161805 SPECI KCLM 161805Z AUTO 33007KT 10SM BKN023 13/08 A3008 RMK AO2=
201106161805 SPECI KCLM 161805Z AUTO 33007KT 10SM BKN023 13/08 A3008 RMK AO2=
201106161753 METAR KCLM 161753Z AUTO 32009KT 10SM SCT023 13/07 A3008 RMK AO2 SLP187 T01330072 10133 20083 58008=
201106161653 METAR KCLM 161653Z AUTO 32011G17KT 10SM CLR 13/07 A3009 RMK AO2 SLP192 T01280072=
201106161553 METAR KCLM 161553Z AUTO 32009KT 10SM CLR 12/07 A3009 RMK AO2 SLP191 T01220072 TSNO=
201106161453 METAR KCLM 161453Z AUTO VRB04KT 10SM CLR 12/06 A3010 RMK AO2 SLP195 T01170061 55009=
201106161353 METAR KCLM 161353Z AUTO 27009KT 10SM FEW055 10/04 A3010 RMK AO2 SLP194 T01000044=
201106161253 METAR KCLM 161253Z AUTO 24005KT 10SM SCT060 08/04 A3012 RMK AO2 SLP200 T00830044=
201106161153 METAR KCLM 161153Z AUTO 28008KT 10SM BKN060 09/04 A3013 RMK AO2 SLP204 T00890044 10100 20078 55007=
201106161053 METAR KCLM 161053Z AUTO 29007KT 10SM BKN060 09/06 A3013 RMK AO2 SLP204 T00890061=
201106160953 METAR KCLM 160953Z AUTO 29009KT 10SM CLR 08/06 A3014 RMK AO2 SLP206 T00830061=
201106160853 METAR KCLM 160853Z AUTO 28008KT 10SM SCT060 09/06 A3015 RMK AO2 SLP211 T00890061 55005=
201106160753 METAR KCLM 160753Z AUTO 30010KT 10SM CLR 09/06 A3015 RMK AO2 SLP209 T00940056 401500078=
201106160653 METAR KCLM 160653Z AUTO 28008KT 10SM CLR 09/06 A3016 RMK AO2 SLP213 T00940061=
201106160553 METAR KCLM 160553Z AUTO 26003KT 10SM CLR 10/07 A3017 RMK AO2 SLP216 T01000067 10139 20094 55003=
201106160453 METAR KCLM 160453Z AUTO 27008KT 10SM CLR 10/07 A3016 RMK AO2 SLP215 T01000072=
201106160353 METAR KCLM 160353Z AUTO 28007KT 10SM CLR 11/07 A3017 RMK AO2 SLP218 T01110072=
201106160253 METAR KCLM 160253Z AUTO 29007KT 10SM CLR 12/07 A3017 RMK AO2 SLP219 T01220072 56007=
201106160153 METAR KCLM 160153Z AUTO 31010G17KT 10SM CLR 13/07 A3018 RMK AO2 SLP220 T01280072=
201106160053 METAR KCLM 160053Z AUTO 31012G20KT 10SM CLR 13/07 A3018 RMK AO2 SLP221 T01330072=
201106152353 METAR KCLM 152353Z AUTO 30012G19KT 10SM CLR 13/07 A3019 RMK AO2 SLP226 T01330072 10150 20122 50003=
201106152253 METAR KCLM 152253Z AUTO 31013G19KT 10SM CLR 13/08 A3020 RMK AO2 SLP228 T01330078=
201106152153 METAR KCLM 152153Z AUTO 31015G22KT 10SM CLR 13/08 A3020 RMK AO2 SLP227 T01330078=
201106152053 METAR KCLM 152053Z AUTO 31013G19KT 10SM FEW100 14/07 A3019 RMK AO2 SLP223 T01440072 58001=
201106151953 METAR KCLM 151953Z AUTO 33014G20KT 300V360 10SM FEW100 14/08 A3019 RMK AO2 SLP223 T01390078=
201106151853 METAR KCLM 151853Z AUTO 33012G18KT 10SM FEW100 13/08 A3019 RMK AO2 SLP224 T01330078=
201106151753 METAR KCLM 151753Z AUTO 31008G17KT 10SM CLR 14/07 A3019 RMK AO2 SLP223 T01440067 10150 20089 58009=
201106151653 METAR KCLM 151653Z AUTO 31009G18KT 10SM CLR 14/06 A3020 RMK AO2 SLP227 T01390061=
201106151553 METAR KCLM 151553Z AUTO 31011KT 10SM FEW060 12/07 A3021 RMK AO2 SLP232 T01220067=
201106151453 METAR KCLM 151453Z AUTO 30006KT 10SM OVC060 11/06 A3022 RMK AO2 SLP234 T01110061 57000=
201106151353 METAR KCLM 151353Z AUTO 27006KT 10SM BKN060 11/06 A3022 RMK AO2 SLP234 T01060056=
201106151253 METAR KCLM 151253Z AUTO 25006KT 10SM OVC055 10/05 A3022 RMK AO2 SLP233 T01000050=
201106151153 METAR KCLM 151153Z AUTO 25007KT 10SM BKN060 09/04 A3022 RMK AO2 SLP234 T00890044 10106 20078 58006=
201106151053 METAR KCLM 151053Z AUTO 31006KT 10SM CLR 08/05 A3023 RMK AO2 SLP237 T00830050=
201106150953 METAR KCLM 150953Z AUTO 28009KT 10SM FEW048 09/05 A3023 RMK AO2 SLP238 T00940050=
201106150853 METAR KCLM 150853Z AUTO 28010G17KT 10SM OVC043 10/06 A3024 RMK AO2 SLP241 T01000056 58003=
201106150753 METAR KCLM 150753Z AUTO 28009KT 10SM OVC050 10/06 A3024 RMK AO2 SLP242 T01000056 401390089=
201106150653 METAR KCLM 150653Z AUTO 29008KT 10SM OVC050 10/06 A3025 RMK AO2 SLP244 T01000061=
201106150553 METAR KCLM 150553Z AUTO 30009KT 10SM OVC048 11/06 A3025 RMK AO2 SLP243 T01060056 10111 20094 56006=
201106150453 METAR KCLM 150453Z AUTO 29007KT 10SM OVC110 10/07 A3025 RMK AO2 SLP244 T01000067=
201106150353 METAR KCLM 150353Z AUTO 27006KT 10SM FEW044 OVC110 10/07 A3025 RMK AO2 SLP245 T01000072=
201106150340 SPECI KCLM 150340Z AUTO 29006KT 10SM SCT015 BKN043 OVC110 10/07 A3025 RMK AO2=
201106150340 SPECI KCLM 150340Z AUTO 29006KT 10SM SCT015 BKN043 OVC110 10/07 A3025 RMK AO2=
201106150253 METAR KCLM 150253Z AUTO 30011G17KT 10SM FEW015 BKN020 OVC110 11/07 A3026 RMK AO2 SLP249 T01060067 56007=
201106150153 METAR KCLM 150153Z AUTO 30009G16KT 10SM BKN030 OVC041 11/07 A3027 RMK AO2 SLP250 T01060072=
201106150122 SPECI KCLM 150122Z AUTO 30013G18KT 10SM SCT019 OVC030 11/07 A3027 RMK AO2=
201106150122 SPECI KCLM 150122Z AUTO 30013G18KT 10SM SCT019 OVC030 11/07 A3027 RMK AO2=
201106150053 METAR KCLM 150053Z AUTO 30007KT 10SM BKN015 OVC020 11/08 A3027 RMK AO2 SLP251 T01060078=
201106150045 SPECI KCLM 150045Z AUTO 31004KT 10SM OVC015 11/08 A3027 RMK AO2=
201106150045 SPECI KCLM 150045Z AUTO 31004KT 10SM OVC015 11/08 A3027 RMK AO2=
201106150023 SPECI KCLM 150023Z AUTO 31006KT 10SM OVC013 11/08 A3028 RMK AO2=
201106150023 SPECI KCLM 150023Z AUTO 31006KT 10SM OVC013 11/08 A3028 RMK AO2=
201106142353 METAR KCLM 142353Z AUTO 28005KT 10SM OVC015 11/08 A3029 RMK AO2 SLP257 60000 T01110083 10139 20100 58001=
201106142253 METAR KCLM 142253Z AUTO 28008KT 10SM OVC016 11/08 A3030 RMK AO2 RAB17E43 SLP260 P0000 T01060083=
201106142153 METAR KCLM 142153Z AUTO 31007KT 10SM SCT019 BKN026 OVC031 11/08 A3029 RMK AO2 SLP258 T01110078=
201106142116 SPECI KCLM 142116Z AUTO 31010KT 10SM BKN017 OVC041 12/07 A3029 RMK AO2=
201106142116 SPECI KCLM 142116Z AUTO 31010KT 10SM BKN017 OVC041 12/07 A3029 RMK AO2=
201106142053 METAR KCLM 142053Z AUTO 30010KT 10SM OVC041 12/07 A3029 RMK AO2 SLP258 T01170072 55001=
201106141953 METAR KCLM 141953Z AUTO 32011KT 10SM FEW021 BKN041 13/07 A3028 RMK AO2 SLP256 T01280072=
201106141853 METAR KCLM 141853Z AUTO 27005KT 10SM BKN037 12/08 A3028 RMK AO2 SLP254 T01220078=
201106141753 METAR KCLM 141753Z AUTO 30010G17KT 10SM OVC044 12/07 A3029 RMK AO2 SLP259 T01220072 10139 20089 53006=
201106141653 METAR KCLM 141653Z AUTO 31009KT 10SM FEW038 SCT050 14/07 A3028 RMK AO2 SLP256 T01390072=
201106141553 METAR KCLM 141553Z AUTO 31010KT 10SM FEW045 12/07 A3028 RMK AO2 SLP256 T01220072=
201106141453 METAR KCLM 141453Z AUTO 28006KT 10SM BKN047 11/06 A3027 RMK AO2 SLP253 T01110061 51007=
201106141353 METAR KCLM 141353Z AUTO 26009KT 10SM SCT039 OVC046 10/05 A3027 RMK AO2 SLP252 T01000050=
201106141253 METAR KCLM 141253Z AUTO 26007KT 10SM OVC038 09/05 A3026 RMK AO2 SLP248 T00890050=
201106141153 METAR KCLM 141153Z AUTO 24003KT 10SM OVC038 09/07 A3025 RMK AO2 SLP245 T00940072 10106 20089 50003=
201106141116 SPECI KCLM 141116Z AUTO 29005KT 10SM OVC031 10/07 A3025 RMK AO2=
201106141116 SPECI KCLM 141116Z AUTO 29005KT 10SM OVC031 10/07 A3025 RMK AO2=
201106141053 METAR KCLM 141053Z AUTO 28005KT 10SM OVC029 09/08 A3025 RMK AO2 SLP246 T00940078=
201106140953 METAR KCLM 140953Z AUTO 31003KT 10SM BKN025 09/08 A3025 RMK AO2 SLP243 T00940078=
201106140853 METAR KCLM 140853Z AUTO 29005KT 10SM SCT017 SCT021 OVC029 09/08 A3024 RMK AO2 SLP242 T00940078 51013=
201106140812 SPECI KCLM 140812Z AUTO 28004KT 10SM FEW008 BKN027 09/08 A3023 RMK AO2=
201106140812 SPECI KCLM 140812Z AUTO 28004KT 10SM FEW008 BKN027 09/08 A3023 RMK AO2=
201106140800 SPECI KCLM 140800Z AUTO 28007KT 10SM SCT011 OVC027 09/08 A3023 RMK AO2=
201106140800 SPECI KCLM 140800Z AUTO 28007KT 10SM SCT011 OVC027 09/08 A3023 RMK AO2=
201106140753 METAR KCLM 140753Z AUTO 29010KT 10SM BKN011 OVC027 10/08 A3023 RMK AO2 SLP238 T01000078 401560100=
201106140738 SPECI KCLM 140738Z AUTO 30006KT 10SM BKN010 OVC013 10/08 A3023 RMK AO2 CIG 006V012=
201106140738 SPECI KCLM 140738Z AUTO 30006KT 10SM BKN010 OVC013 10/08 A3023 RMK AO2 CIG 006V012=
201106140653 METAR KCLM 140653Z AUTO VRB03KT 10SM BKN008 OVC011 10/08 A3023 RMK AO2 CIG 006V010 SLP237 T01000083=
201106140614 SPECI KCLM 140614Z AUTO 29004KT 10SM OVC011 10/08 A3022 RMK AO2=
201106140614 SPECI KCLM 140614Z AUTO 29004KT 10SM OVC011 10/08 A3022 RMK AO2=
201106140553 METAR KCLM 140553Z AUTO 29012G18KT 10SM OVC006 10/08 A3021 RMK AO2 SLP229 T01000083 10128 20100 51014=
201106140453 METAR KCLM 140453Z AUTO 31007KT 10SM OVC008 11/08 A3020 RMK AO2 SLP227 T01060083=
201106140410 SPECI KCLM 140410Z AUTO 31008KT 10SM OVC008 11/08 A3019 RMK AO2 CIG 006V011=
201106140410 SPECI KCLM 140410Z AUTO 31008KT 10SM OVC008 11/08 A3019 RMK AO2 CIG 006V011=
201106140353 METAR KCLM 140353Z AUTO 31010G18KT 10SM OVC010 11/08 A3018 RMK AO2 CIG 007V012 SLP221 T01060083=
201106140253 METAR KCLM 140253Z AUTO 31010G17KT 10SM BKN014 11/08 A3016 RMK AO2 SLP215 T01110083 51010=
201106140251 SPECI KCLM 140251Z AUTO 31010G17KT 10SM BKN014 11/08 A3016 RMK AO2=
201106140251 SPECI KCLM 140251Z AUTO 31010G17KT 10SM BKN014 11/08 A3016 RMK AO2=
201106140241 SPECI KCLM 140241Z AUTO 31012KT 10SM SCT016 11/08 A3016 RMK AO2=
201106140241 SPECI KCLM 140241Z AUTO 31012KT 10SM SCT016 11/08 A3016 RMK AO2=
201106140153 METAR KCLM 140153Z AUTO 29015G20KT 10SM BKN016 12/08 A3014 RMK AO2 SLP207 T01170083=
201106140129 SPECI KCLM 140129Z AUTO 30014G22KT 10SM SCT008 OVC016 12/08 A3013 RMK AO2=
201106140129 SPECI KCLM 140129Z AUTO 30014G22KT 10SM SCT008 OVC016 12/08 A3013 RMK AO2=
201106140117 SPECI KCLM 140117Z AUTO 29010G19KT 10SM BKN008 OVC014 11/09 A3013 RMK AO2 CIG 006V012=
201106140117 SPECI KCLM 140117Z AUTO 29010G19KT 10SM BKN008 OVC014 11/09 A3013 RMK AO2 CIG 006V012=
201106140109 SPECI KCLM 140109Z AUTO 31012G19KT 10SM BKN010 OVC016 12/09 A3014 RMK AO2 CIG 007V011=
201106140109 SPECI KCLM 140109Z AUTO 31012G19KT 10SM BKN010 OVC016 12/09 A3014 RMK AO2 CIG 007V011=
201106140053 METAR KCLM 140053Z AUTO 30008G22KT 10SM FEW009 OVC016 12/09 A3013 RMK AO2 SLP205 T01220089=
201106132353 METAR KCLM 132353Z AUTO 31016G23KT 10SM FEW007 OVC018 12/09 A3012 RMK AO2 SLP199 T01220089 10156 20117 53021=
201106132342 SPECI KCLM 132342Z AUTO 33009G20KT 10SM FEW007 BKN018 13/09 A3011 RMK AO2=
201106132342 SPECI KCLM 132342Z AUTO 33009G20KT 10SM FEW007 BKN018 13/09 A3011 RMK AO2=
201106132253 METAR KCLM 132253Z AUTO 32011G20KT 10SM BKN018 OVC028 13/09 A3009 RMK AO2 SLP191 T01280094=
201106132232 SPECI KCLM 132232Z AUTO 32009G16KT 300V010 10SM SCT012 OVC016 12/09 A3009 RMK AO2=
201106132232 SPECI KCLM 132232Z AUTO 32009G16KT 300V010 10SM SCT012 OVC016 12/09 A3009 RMK AO2=
201106132203 SPECI KCLM 132203Z AUTO 31011KT 10SM SCT007 OVC013 12/09 A3008 RMK AO2=
201106132203 SPECI KCLM 132203Z AUTO 31011KT 10SM SCT007 OVC013 12/09 A3008 RMK AO2=
201106132153 METAR KCLM 132153Z AUTO 32011G18KT 300V360 10SM BKN010 OVC013 12/09 A3008 RMK AO2 CIG 007V013 SLP185 T01170094=
201106132109 SPECI KCLM 132109Z AUTO 31010G19KT 10SM OVC010 12/09 A3006 RMK AO2 CIG 008V012=
201106132109 SPECI KCLM 132109Z AUTO 31010G19KT 10SM OVC010 12/09 A3006 RMK AO2 CIG 008V012=
201106132053 METAR KCLM 132053Z AUTO 31010G18KT 10SM OVC008 12/09 A3005 RMK AO2 CIG 006V011 SLP178 T01170094 51032=
201106131953 METAR KCLM 131953Z AUTO 31011G18KT 10SM OVC006 12/09 A3003 RMK AO2 SLP170 T01170094=
201106131902 SPECI KCLM 131902Z AUTO 30009KT 10SM BKN006 BKN012 OVC018 12/10 A3001 RMK AO2 CIG 005V008=
201106131902 SPECI KCLM 131902Z AUTO 30009KT 10SM BKN006 BKN012 OVC018 12/10 A3001 RMK AO2 CIG 005V008=
201106131853 METAR KCLM 131853Z AUTO 31008KT 10SM BKN010 OVC020 13/09 A3000 RMK AO2 CIG 007V013 SLP159 T01280094=
201106131826 SPECI KCLM 131826Z AUTO VRB04KT 10SM SCT022 BKN028 BKN065 14/10 A2998 RMK AO2=
201106131826 SPECI KCLM 131826Z AUTO VRB04KT 10SM SCT022 BKN028 BKN065 14/10 A2998 RMK AO2=
201106131753 METAR KCLM 131753Z AUTO 36006KT 10SM BKN065 14/10 A2996 RMK AO2 SLP144 T01390100 10144 20111 51022=
201106131653 METAR KCLM 131653Z AUTO VRB05KT 10SM OVC085 13/10 A2994 RMK AO2 SLP139 T01280100=
201106131553 METAR KCLM 131553Z AUTO 35003KT 10SM OVC075 13/10 A2992 RMK AO2 SLP131 T01280100=
201106131453 METAR KCLM 131453Z AUTO 00000KT 10SM BKN055 BKN085 13/10 A2989 RMK AO2 SLP123 T01280100 51008=
201106131443 SPECI KCLM 131443Z AUTO 00000KT 10SM SCT027 BKN060 13/10 A2989 RMK AO2=
201106131443 SPECI KCLM 131443Z AUTO 00000KT 10SM SCT027 BKN060 13/10 A2989 RMK AO2=
201106131353 METAR KCLM 131353Z AUTO 00000KT 10SM BKN027 OVC055 12/10 A2988 RMK AO2 SLP120 T01220100=
201106131348 SPECI KCLM 131348Z AUTO 00000KT 10SM BKN027 OVC055 12/10 A2988 RMK AO2=
201106131348 SPECI KCLM 131348Z AUTO 00000KT 10SM BKN027 OVC055 12/10 A2988 RMK AO2=
201106131253 METAR KCLM 131253Z AUTO 00000KT 10SM OVC065 11/10 A2987 RMK AO2 SLP115 T01110100=
201106131153 METAR KCLM 131153Z AUTO 16003KT 10SM OVC060 11/09 A2986 RMK AO2 SLP112 60000 T01110094 10117 20111 52002=
201106131053 METAR KCLM 131053Z AUTO 00000KT 10SM OVC060 11/09 A2985 RMK AO2 SLP109 T01110094=
201106130953 METAR KCLM 130953Z AUTO 00000KT 10SM SCT013 OVC075 11/09 A2986 RMK AO2 SLP110 T01110094=
201106130911 SPECI KCLM 130911Z AUTO 00000KT 10SM SCT013 BKN050 OVC065 11/09 A2985 RMK AO2=
201106130911 SPECI KCLM 130911Z AUTO 00000KT 10SM SCT013 BKN050 OVC065 11/09 A2985 RMK AO2=
201106130853 METAR KCLM 130853Z AUTO 00000KT 10SM OVC013 11/09 A2985 RMK AO2 SLP108 60000 T01110094 58001=
201106130753 METAR KCLM 130753Z AUTO 26003KT 10SM OVC013 11/09 A2986 RMK AO2 RAE12 SLP110 P0000 T01110094 401560072=
201106130715 SPECI KCLM 130715Z AUTO 26006KT 10SM BKN011 BKN018 OVC065 11/09 A2986 RMK AO2 RAE12 P0000=
201106130715 SPECI KCLM 130715Z AUTO 26006KT 10SM BKN011 BKN018 OVC065 11/09 A2986 RMK AO2 RAE12 P0000=
201106130653 METAR KCLM 130653Z AUTO 27005KT 9SM -RA BKN018 OVC065 11/09 A2986 RMK AO2 RAB13 SLP112 P0000 T01110094=
201106130553 METAR KCLM 130553Z AUTO 27006KT 10SM OVC020 12/09 A2986 RMK AO2 SLP111 60000 T01170089 10133 20117 53001=
201106130453 METAR KCLM 130453Z AUTO 25005KT 10SM BKN018 OVC070 12/09 A2985 RMK AO2 SLP110 T01170089=
201106130445 SPECI KCLM 130445Z AUTO 26004KT 10SM BKN018 OVC070 12/09 A2985 RMK AO2=
201106130445 SPECI KCLM 130445Z AUTO 26004KT 10SM BKN018 OVC070 12/09 A2985 RMK AO2=
201106130353 METAR KCLM 130353Z AUTO 27005KT 10SM OVC070 12/09 A2985 RMK AO2 SLP109 T01170089=
201106130253 METAR KCLM 130253Z AUTO 25005KT 10SM FEW070 OVC085 12/09 A2985 RMK AO2 RAE15 SLP110 P0000 60000 T01170094 58005=
201106130153 METAR KCLM 130153Z AUTO 29005KT 10SM -RA OVC043 12/09 A2986 RMK AO2 SLP112 P0000 T01170094=
201106130053 METAR KCLM 130053Z AUTO 28006KT 9SM -RA BKN034 BKN060 OVC070 12/09 A2986 RMK AO2 RAB08 SLP114 P0000 T01220089=
201106122353 METAR KCLM 122353Z AUTO 30008KT 10SM SCT046 BKN070 13/08 A2987 RMK AO2 SLP114 T01330078 10156 20122 57002=
201106122253 METAR KCLM 122253Z AUTO 31010KT 10SM BKN070 OVC090 14/08 A2987 RMK AO2 SLP115 T01390078=
201106122153 METAR KCLM 122153Z AUTO 33006KT 10SM FEW060 SCT080 15/08 A2987 RMK AO2 SLP116 T01500083=
201106122053 METAR KCLM 122053Z AUTO 33006KT 10SM FEW070 16/09 A2987 RMK AO2 SLP116 T01560089 58004=
201106121953 METAR KCLM 121953Z AUTO 35007KT 10SM CLR 14/08 A2988 RMK AO2 SLP119 T01390083=
201106121853 METAR KCLM 121853Z AUTO VRB06KT 10SM CLR 13/08 A2988 RMK AO2 SLP119 T01330083=
201106121753 METAR KCLM 121753Z AUTO 33006KT 10SM CLR 13/08 A2988 RMK AO2 SLP121 T01280083 10133 20078 55003=
201106121653 METAR KCLM 121653Z AUTO 31006KT 10SM CLR 13/08 A2988 RMK AO2 SLP119 T01280078=
201106121553 METAR KCLM 121553Z AUTO 32004KT 10SM FEW016 12/08 A2989 RMK AO2 SLP123 T01220078=
201106121453 METAR KCLM 121453Z AUTO 31004KT 10SM CLR 12/08 A2989 RMK AO2 SLP124 T01170078 58001=
201106121353 METAR KCLM 121353Z AUTO 27005KT 10SM CLR 10/07 A2990 RMK AO2 SLP127 T01000072=
201106121253 METAR KCLM 121253Z AUTO 25004KT 10SM CLR 08/06 A2990 RMK AO2 SLP125 T00830061=
201106121153 METAR KCLM 121153Z AUTO 26003KT 10SM CLR 08/06 A2990 RMK AO2 SLP124 T00780056 10100 20072 56014=
201106121053 METAR KCLM 121053Z AUTO 25004KT 10SM CLR 08/06 A2991 RMK AO2 SLP128 T00830061=
201106120953 METAR KCLM 120953Z AUTO 26007KT 10SM CLR 09/07 A2992 RMK AO2 SLP132 T00890067=
201106120853 METAR KCLM 120853Z AUTO 27005KT 10SM CLR 08/07 A2994 RMK AO2 SLP138 T00830067 55005=
201106120753 METAR KCLM 120753Z AUTO 26006KT 10SM CLR 09/08 A2993 RMK AO2 SLP137 T00940078 401560094=
201106120653 METAR KCLM 120653Z AUTO 30008KT 10SM CLR 10/08 A2994 RMK AO2 SLP140 T01000078=
201106120553 METAR KCLM 120553Z AUTO 28008KT 10SM CLR 10/08 A2995 RMK AO2 SLP143 T01000078 10150 20100 50002=
201106120453 METAR KCLM 120453Z AUTO 27007KT 10SM FEW080 11/08 A2995 RMK AO2 SLP144 T01060078=
201106120353 METAR KCLM 120353Z AUTO 28006KT 10SM OVC085 12/07 A2995 RMK AO2 SLP143 T01170067=
201106120253 METAR KCLM 120253Z AUTO 31007KT 10SM BKN085 13/08 A2995 RMK AO2 SLP142 T01280078 55002=
201106120153 METAR KCLM 120153Z AUTO 31008KT 10SM CLR 14/08 A2995 RMK AO2 SLP141 T01390078=
201106120053 METAR KCLM 120053Z AUTO 31008G17KT 280V340 10SM CLR 14/08 A2995 RMK AO2 SLP143 T01440078=
201106112353 METAR KCLM 112353Z AUTO 30012KT 10SM FEW100 15/08 A2995 RMK AO2 SLP143 T01500078 10156 20122 57007=
201106112253 METAR KCLM 112253Z AUTO 31009KT 10SM CLR 15/07 A2996 RMK AO2 SLP145 T01500072=
201106112153 METAR KCLM 112153Z AUTO 33009KT 10SM CLR 15/08 A2997 RMK AO2 SLP148 T01500078=
201106112053 METAR KCLM 112053Z AUTO 33012KT 10SM FEW100 14/08 A2997 RMK AO2 SLP151 T01390078 55003=
201106111953 METAR KCLM 111953Z AUTO 33008KT 300V360 10SM CLR 14/08 A2997 RMK AO2 SLP149 T01440078=
201106111853 METAR KCLM 111853Z AUTO 30011KT 10SM FEW047 14/08 A2998 RMK AO2 SLP153 T01440078=
201106111753 METAR KCLM 111753Z AUTO 32007KT 10SM OVC045 13/08 A2998 RMK AO2 SLP154 T01280078 10128 20100 56000=
201106111653 METAR KCLM 111653Z AUTO 32008KT 10SM OVC043 13/08 A2998 RMK AO2 SLP154 T01280078=
201106111553 METAR KCLM 111553Z AUTO 34007KT 10SM OVC043 12/07 A2998 RMK AO2 SLP153 T01220067=
201106111453 METAR KCLM 111453Z AUTO 28006KT 10SM OVC039 12/07 A2998 RMK AO2 SLP154 T01170067 56002=
201106111353 METAR KCLM 111353Z AUTO 27005KT 10SM SCT034 OVC041 11/06 A2999 RMK AO2 SLP155 T01060061=
201106111253 METAR KCLM 111253Z AUTO 27004KT 10SM OVC036 10/06 A2998 RMK AO2 SLP154 T01000056=
201106111153 METAR KCLM 111153Z AUTO 27005KT 10SM SCT034 OVC050 11/06 A2999 RMK AO2 SLP156 T01060056 10106 20100 58009=
201106111053 METAR KCLM 111053Z AUTO 27006KT 10SM OVC048 10/06 A3000 RMK AO2 SLP161 T01000061=
201106110953 METAR KCLM 110953Z AUTO 28006KT 10SM OVC037 10/06 A3001 RMK AO2 SLP163 T01000061=
201106110853 METAR KCLM 110853Z AUTO 30007KT 10SM SCT026 SCT042 OVC050 10/07 A3002 RMK AO2 SLP166 T01000067 57007=
201106110753 METAR KCLM 110753Z AUTO 27005KT 10SM OVC026 11/07 A3002 RMK AO2 SLP168 T01060067 401390100=
201106110653 METAR KCLM 110653Z AUTO 28005KT 10SM OVC026 10/07 A3003 RMK AO2 SLP171 T01000072=
201106110553 METAR KCLM 110553Z AUTO 29006KT 10SM OVC026 11/07 A3004 RMK AO2 SLP173 T01060072 10128 20100 58005=
201106110453 METAR KCLM 110453Z AUTO 27006KT 10SM OVC026 11/07 A3005 RMK AO2 SLP176 T01060067=
201106110420 SPECI KCLM 110420Z AUTO 27005KT 10SM BKN028 OVC065 11/07 A3005 RMK AO2=
201106110420 SPECI KCLM 110420Z AUTO 27005KT 10SM BKN028 OVC065 11/07 A3005 RMK AO2=
201106110353 METAR KCLM 110353Z AUTO 28008KT 10SM SCT065 11/07 A3005 RMK AO2 SLP176 T01060067=
201106110253 METAR KCLM 110253Z AUTO 28010KT 10SM OVC065 12/07 A3006 RMK AO2 SLP179 T01170072 56012=
201106110153 METAR KCLM 110153Z AUTO 28009KT 10SM FEW018 OVC060 12/08 A3006 RMK AO2 SLP182 T01220078=
201106110053 METAR KCLM 110053Z AUTO 30007KT 10SM FEW039 OVC055 12/08 A3008 RMK AO2 SLP186 T01220078=
201106102353 METAR KCLM 102353Z AUTO 31011KT 10SM BKN030 OVC038 12/07 A3009 RMK AO2 SLP190 T01220072 10139 20122 57005=
201106102253 METAR KCLM 102253Z AUTO 31009KT 10SM OVC030 13/08 A3010 RMK AO2 SLP193 T01330078=
201106102248 SPECI KCLM 102248Z AUTO 29007KT 10SM OVC030 13/08 A3010 RMK AO2=
201106102248 SPECI KCLM 102248Z AUTO 29007KT 10SM OVC030 13/08 A3010 RMK AO2=
201106102153 METAR KCLM 102153Z AUTO 29009KT 9SM OVC028 13/07 A3011 RMK AO2 SLP196 T01280067=
201106102130 SPECI KCLM 102130Z AUTO 30009KT 10SM BKN028 OVC039 13/07 A3011 RMK AO2=
201106102130 SPECI KCLM 102130Z AUTO 30009KT 10SM BKN028 OVC039 13/07 A3011 RMK AO2=
201106102053 METAR KCLM 102053Z AUTO 32009KT 10SM FEW026 OVC037 14/07 A3011 RMK AO2 SLP194 T01390067 55004=
201106101953 METAR KCLM 101953Z AUTO 31008KT 10SM FEW025 OVC033 13/07 A3010 RMK AO2 SLP195 T01330067=
201106101902 SPECI KCLM 101902Z AUTO 30010G16KT 10SM OVC031 13/08 A3011 RMK AO2=
201106101902 SPECI KCLM 101902Z AUTO 30010G16KT 10SM OVC031 13/08 A3011 RMK AO2=
201106101853 METAR KCLM 101853Z AUTO 29008KT 10SM OVC029 13/09 A3011 RMK AO2 SLP197 T01330089=
201106101753 METAR KCLM 101753Z AUTO 32006KT 10SM OVC025 12/08 A3012 RMK AO2 SLP200 T01220083 10122 20106 50000=
201106101653 METAR KCLM 101653Z AUTO 32008KT 10SM OVC023 12/07 A3012 RMK AO2 SLP201 T01220072=
201106101553 METAR KCLM 101553Z AUTO 00000KT 10SM OVC023 12/08 A3012 RMK AO2 SLP201 T01220078=
201106101453 METAR KCLM 101453Z AUTO 29005KT 10SM OVC021 12/08 A3012 RMK AO2 SLP200 T01170078 50002=
201106101353 METAR KCLM 101353Z AUTO 29005KT 10SM OVC019 11/08 A3012 RMK AO2 SLP200 T01110078=
201106101253 METAR KCLM 101253Z AUTO 27003KT 10SM OVC019 11/08 A3012 RMK AO2 SLP199 T01110083=
201106101153 METAR KCLM 101153Z AUTO 26005KT 10SM OVC019 11/08 A3011 RMK AO2 SLP198 T01060083 10111 20106 55003=
201106101053 METAR KCLM 101053Z AUTO 27004KT 10SM OVC015 11/08 A3011 RMK AO2 SLP197 T01110083=
201106100953 METAR KCLM 100953Z AUTO 28008KT 10SM OVC015 11/09 A3012 RMK AO2 SLP198 T01110089=
201106100911 SPECI KCLM 100911Z AUTO 28008KT 10SM OVC015 11/09 A3012 RMK AO2=
201106100911 SPECI KCLM 100911Z AUTO 28008KT 10SM OVC015 11/09 A3012 RMK AO2=
201106100853 METAR KCLM 100853Z AUTO 29007KT 10SM OVC013 11/09 A3012 RMK AO2 SLP201 T01110089 56006=
201106100753 METAR KCLM 100753Z AUTO 28009KT 10SM OVC013 11/09 A3013 RMK AO2 SLP204 T01110089 401500106=
201106100653 METAR KCLM 100653Z AUTO 29008KT 10SM OVC015 11/09 A3014 RMK AO2 SLP207 T01110089=
201106100553 METAR KCLM 100553Z AUTO 29007KT 10SM OVC015 11/08 A3014 RMK AO2 SLP207 T01060083 10128 20106 55003=
201106100453 METAR KCLM 100453Z AUTO 28006KT 10SM BKN015 BKN120 11/09 A3014 RMK AO2 SLP207 T01110089=
201106100445 SPECI KCLM 100445Z AUTO 28007KT 10SM BKN015 BKN120 11/09 A3014 RMK AO2=
201106100445 SPECI KCLM 100445Z AUTO 28007KT 10SM BKN015 BKN120 11/09 A3014 RMK AO2=
201106100353 METAR KCLM 100353Z AUTO 31004KT 10SM CLR 12/09 A3014 RMK AO2 SLP206 T01170089=
201106100324 SPECI KCLM 100324Z AUTO 29004KT 10SM SCT014 BKN110 12/09 A3014 RMK AO2=
201106100324 SPECI KCLM 100324Z AUTO 29004KT 10SM SCT014 BKN110 12/09 A3014 RMK AO2=
201106100253 METAR KCLM 100253Z AUTO 30005KT 10SM OVC014 12/09 A3015 RMK AO2 SLP210 T01220094 58007=
201106100214 SPECI KCLM 100214Z AUTO 29008KT 10SM OVC014 12/09 A3016 RMK AO2=
201106100214 SPECI KCLM 100214Z AUTO 29008KT 10SM OVC014 12/09 A3016 RMK AO2=
201106100153 METAR KCLM 100153Z AUTO 28009KT 10SM SCT010 OVC016 12/09 A3016 RMK AO2 SLP214 T01220094=
201106100149 SPECI KCLM 100149Z AUTO 28008KT 10SM SCT010 OVC016 12/09 A3016 RMK AO2=
201106100149 SPECI KCLM 100149Z AUTO 28008KT 10SM SCT010 OVC016 12/09 A3016 RMK AO2=
201106100122 SPECI KCLM 100122Z AUTO 28011KT 10SM OVC008 12/09 A3016 RMK AO2=
201106100122 SPECI KCLM 100122Z AUTO 28011KT 10SM OVC008 12/09 A3016 RMK AO2=
201106100053 METAR KCLM 100053Z AUTO 29008KT 10SM OVC010 12/09 A3016 RMK AO2 SLP215 T01220094=
201106092353 METAR KCLM 092353Z AUTO 31009KT 10SM BKN014 OVC022 13/09 A3017 RMK AO2 SLP216 T01280094 10150 20128 56003=
201106092253 METAR KCLM 092253Z AUTO 31007KT 10SM OVC024 13/09 A3018 RMK AO2 SLP218 T01330094=
201106092209 SPECI KCLM 092209Z AUTO 29005KT 10SM SCT016 OVC024 14/10 A3017 RMK AO2=
201106092209 SPECI KCLM 092209Z AUTO 29005KT 10SM SCT016 OVC024 14/10 A3017 RMK AO2=
201106092153 METAR KCLM 092153Z AUTO 32006KT 10SM BKN014 OVC026 14/10 A3017 RMK AO2 SLP216 T01440100=
201106092053 METAR KCLM 092053Z AUTO 28004KT 10SM OVC014 13/09 A3018 RMK AO2 SLP219 T01330094 58004=
201106091953 METAR KCLM 091953Z AUTO VRB05KT 10SM OVC014 13/09 A3019 RMK AO2 SLP224 T01280089=
201106091853 METAR KCLM 091853Z AUTO 30006KT 10SM OVC014 13/09 A3019 RMK AO2 SLP224 T01280089=
201106091845 SPECI KCLM 091845Z AUTO 30006KT 10SM BKN014 OVC020 13/09 A3019 RMK AO2=
201106091845 SPECI KCLM 091845Z AUTO 30006KT 10SM BKN014 OVC020 13/09 A3019 RMK AO2=
201106091753 METAR KCLM 091753Z AUTO VRB04KT 10SM OVC015 13/09 A3019 RMK AO2 SLP224 T01280089 10128 20117 53002=
201106091653 METAR KCLM 091653Z AUTO VRB03KT 10SM FEW008 OVC015 12/09 A3018 RMK AO2 SLP222 T01170089=
201106091637 SPECI KCLM 091637Z AUTO VRB03KT 10SM FEW008 OVC013 12/09 A3019 RMK AO2=
201106091637 SPECI KCLM 091637Z AUTO VRB03KT 10SM FEW008 OVC013 12/09 A3019 RMK AO2=
201106091553 METAR KCLM 091553Z AUTO 33003KT 9SM OVC011 12/09 A3018 RMK AO2 SLP222 T01170094=
201106091537 SPECI KCLM 091537Z AUTO 00000KT 10SM OVC011 12/09 A3018 RMK AO2 CIG 007V013=
201106091537 SPECI KCLM 091537Z AUTO 00000KT 10SM OVC011 12/09 A3018 RMK AO2 CIG 007V013=
201106091453 METAR KCLM 091453Z AUTO 00000KT 10SM OVC009 12/09 A3018 RMK AO2 CIG 006V012 SLP221 T01170094 53007=
201106091425 SPECI KCLM 091425Z AUTO 00000KT 10SM OVC009 12/09 A3018 RMK AO2=
201106091425 SPECI KCLM 091425Z AUTO 00000KT 10SM OVC009 12/09 A3018 RMK AO2=
201106091353 METAR KCLM 091353Z AUTO 25003KT 10SM OVC011 12/09 A3017 RMK AO2 CIG 009V014 SLP217 T01170094=
201106091253 METAR KCLM 091253Z AUTO 25003KT 10SM OVC013 12/09 A3017 RMK AO2 SLP215 T01170094=
201106091241 SPECI KCLM 091241Z AUTO 24004KT 10SM OVC013 12/09 A3017 RMK AO2=
201106091241 SPECI KCLM 091241Z AUTO 24004KT 10SM OVC013 12/09 A3017 RMK AO2=
201106091201 SPECI KCLM 091201Z AUTO 28005KT 10SM OVC018 12/09 A3016 RMK AO2=
201106091201 SPECI KCLM 091201Z AUTO 28005KT 10SM OVC018 12/09 A3016 RMK AO2=
201106091153 METAR KCLM 091153Z AUTO 29005KT 10SM BKN014 OVC021 12/09 A3016 RMK AO2 SLP213 T01170089 10117 20117 50000=
201106091053 METAR KCLM 091053Z AUTO 24003KT 10SM OVC012 12/09 A3017 RMK AO2 SLP215 T01170094=
201106090953 METAR KCLM 090953Z AUTO 25004KT 10SM OVC012 12/09 A3017 RMK AO2 SLP215 T01170094=
201106090853 METAR KCLM 090853Z AUTO 28006KT 10SM OVC014 12/09 A3016 RMK AO2 SLP213 T01170094 53003=
201106090753 METAR KCLM 090753Z AUTO 29006KT 10SM OVC014 12/09 A3015 RMK AO2 SLP210 T01170094 401670089=
201106090653 METAR KCLM 090653Z AUTO 28007KT 10SM OVC014 12/09 A3015 RMK AO2 SLP210 T01170094=
201106090553 METAR KCLM 090553Z AUTO 28008KT 10SM OVC014 12/09 A3015 RMK AO2 SLP210 T01170094 10167 20117 53009=
201106090453 METAR KCLM 090453Z AUTO 29006KT 10SM OVC012 12/09 A3014 RMK AO2 SLP207 T01220094=
201106090419 SPECI KCLM 090419Z AUTO 29003KT 10SM BKN014 12/09 A3013 RMK AO2=
201106090419 SPECI KCLM 090419Z AUTO 29003KT 10SM BKN014 12/09 A3013 RMK AO2=
201106090353 METAR KCLM 090353Z AUTO 28005KT 10SM CLR 12/09 A3013 RMK AO2 SLP202 T01220094=
201106090253 METAR KCLM 090253Z AUTO 30004KT 10SM CLR 12/09 A3012 RMK AO2 SLP202 T01220094 51007=
201106090153 METAR KCLM 090153Z AUTO 30007KT 10SM BKN090 14/09 A3011 RMK AO2 SLP198 T01390094=
201106090053 METAR KCLM 090053Z AUTO VRB04KT 10SM CLR 16/09 A3012 RMK AO2 SLP198 T01560089=
201106082353 METAR KCLM 082353Z AUTO 05004KT 10SM FEW100 16/08 A3010 RMK AO2 SLP193 T01610083 10167 20144 50002=
201106082253 METAR KCLM 082253Z AUTO VRB05KT 10SM FEW100 16/08 A3011 RMK AO2 SLP195 T01560083=
201106082153 METAR KCLM 082153Z AUTO 36006KT 10SM CLR 15/08 A3010 RMK AO2 SLP193 T01500083=
201106082053 METAR KCLM 082053Z AUTO VRB05KT 10SM CLR 15/08 A3010 RMK AO2 SLP192 T01500083 52005=
201106081953 METAR KCLM 081953Z AUTO 35005KT 10SM CLR 15/08 A3009 RMK AO2 SLP188 T01500083=
201106081853 METAR KCLM 081853Z AUTO 32007KT 10SM CLR 15/09 A3009 RMK AO2 SLP189 T01500089=
201106081753 METAR KCLM 081753Z AUTO 33008G14KT 10SM FEW100 14/08 A3008 RMK AO2 SLP187 T01440083 10150 20089 51003=
201106081653 METAR KCLM 081653Z AUTO 34006KT 10SM FEW100 14/09 A3008 RMK AO2 SLP186 T01390089=
201106081553 METAR KCLM 081553Z AUTO 32006KT 10SM CLR 13/08 A3008 RMK AO2 SLP184 T01330083=
201106081453 METAR KCLM 081453Z AUTO 31007KT 10SM CLR 12/08 A3007 RMK AO2 SLP183 T01220083 51010=
201106081353 METAR KCLM 081353Z AUTO 28007KT 10SM FEW055 10/08 A3007 RMK AO2 SLP182 T01000078=
201106081300 METAR KCLM NIL=
201106081253 METAR KCLM 081253Z AUTO 26005KT 10SM SCT014 BKN060 09/07 A3006 RMK AO2 SLP178 T00940072=
201106081153 METAR KCLM 081153Z AUTO 28009KT 10SM FEW060 09/07 A3004 RMK AO2 SLP173 T00940072 10106 20089 51001=
201106081053 METAR KCLM 081053Z AUTO 28011KT 10SM FEW070 09/07 A3003 RMK AO2 SLP171 T00940072=
201106080953 METAR KCLM 080953Z AUTO 29008G16KT 10SM OVC075 10/08 A3005 RMK AO2 SLP175 T01000078=
201106080853 METAR KCLM 080853Z AUTO 28010KT 10SM CLR 09/08 A3004 RMK AO2 SLP172 T00940078 56002=
201106080753 METAR KCLM 080753Z AUTO 29008KT 10SM SCT075 10/08 A3004 RMK AO2 SLP174 T01000078 401610100=
201106080653 METAR KCLM 080653Z AUTO 29008KT 10SM BKN110 11/08 A3004 RMK AO2 SLP173 T01060083=
201106080553 METAR KCLM 080553Z AUTO 29005KT 10SM CLR 10/08 A3004 RMK AO2 SLP174 T01000083 10161 20100 50008=
201106080453 METAR KCLM 080453Z AUTO 28009KT 10SM FEW090 11/08 A3005 RMK AO2 SLP177 T01060083=
201106080353 METAR KCLM 080353Z AUTO 29007KT 10SM OVC090 12/07 A3003 RMK AO2 SLP169 T01220072=
201106080253 METAR KCLM 080253Z AUTO 29007KT 10SM CLR 13/07 A3002 RMK AO2 SLP165 T01330067 53008=
201106080153 METAR KCLM 080153Z AUTO 31007KT 10SM CLR 14/06 A3000 RMK AO2 SLP160 T01440061=
201106080053 METAR KCLM 080053Z AUTO 34006KT 10SM CLR 16/07 A3000 RMK AO2 SLP157 T01560067=
201106072353 METAR KCLM 072353Z AUTO 31007G14KT 270V360 10SM FEW100 16/07 A3000 RMK AO2 SLP157 T01560067 10156 20122 51012=
201106072253 METAR KCLM 072253Z AUTO 33010G19KT 10SM FEW100 15/07 A3000 RMK AO2 SLP157 T01500072=
201106072153 METAR KCLM 072153Z AUTO 33011G19KT 10SM FEW060 14/08 A2998 RMK AO2 SLP151 T01440078=
201106072053 METAR KCLM 072053Z AUTO 32014G19KT 10SM CLR 14/07 A2996 RMK AO2 SLP145 T01440072 51010=
201106071953 METAR KCLM 071953Z AUTO 31015G25KT 10SM BKN060 BKN085 14/06 A2996 RMK AO2 PK WND 30026/1942 SLP146 T01390061=
201106071853 METAR KCLM 071853Z AUTO 32015G22KT 10SM BKN050 OVC070 14/06 A2994 RMK AO2 SLP141 T01390056=
201106071753 METAR KCLM 071753Z AUTO VRB06KT 10SM FEW049 BKN060 16/06 A2993 RMK AO2 SLP135 T01560061 10161 20106 58002=
201106071653 METAR KCLM 071653Z AUTO 31007KT 10SM SCT024 SCT035 13/07 A2994 RMK AO2 SLP140 T01330067=
201106071553 METAR KCLM 071553Z AUTO 03005KT 10SM CLR 13/08 A2994 RMK AO2 SLP137 T01280083=
201106071453 METAR KCLM 071453Z AUTO 36005KT 10SM FEW035 12/08 A2994 RMK AO2 SLP137 T01220083 53002=
201106071353 METAR KCLM 071353Z AUTO 08004KT 10SM CLR 12/09 A2993 RMK AO2 SLP134 T01170089=
201106071340 SPECI KCLM 071340Z AUTO 13003KT 10SM SCT021 11/08 A2994 RMK AO2=
201106071340 SPECI KCLM 071340Z AUTO 13003KT 10SM SCT021 11/08 A2994 RMK AO2=
201106071253 METAR KCLM 071253Z AUTO 00000KT 10SM OVC019 11/08 A2993 RMK AO2 SLP136 T01060083=
201106071153 METAR KCLM 071153Z AUTO 00000KT 10SM OVC019 12/09 A2993 RMK AO2 SLP135 T01170089 10117 20106 58008=
201106071053 METAR KCLM 071053Z AUTO 24003KT 10SM OVC019 12/09 A2994 RMK AO2 SLP139 T01170089=
201106070953 METAR KCLM 070953Z AUTO 25004KT 10SM OVC019 12/09 A2995 RMK AO2 SLP142 T01170089=
201106070901 SPECI KCLM 070901Z AUTO 23003KT 10SM BKN019 11/08 A2995 RMK AO2=
201106070901 SPECI KCLM 070901Z AUTO 23003KT 10SM BKN019 11/08 A2995 RMK AO2=
201106070853 METAR KCLM 070853Z AUTO 22003KT 10SM SCT019 11/08 A2996 RMK AO2 SLP143 T01060083 53005=
201106070753 METAR KCLM 070753Z AUTO 26007KT 10SM CLR 11/08 A2993 RMK AO2 SLP136 T01060083 401830094=
201106070653 METAR KCLM 070653Z AUTO 28006KT 10SM CLR 11/09 A2993 RMK AO2 SLP136 T01060089=
201106070553 METAR KCLM 070553Z AUTO 27009KT 10SM CLR 11/09 A2994 RMK AO2 SLP138 T01110089 10172 20111 51010=
201106070453 METAR KCLM 070453Z AUTO 28011G18KT 10SM CLR 11/09 A2994 RMK AO2 SLP137 T01110089=
201106070353 METAR KCLM 070353Z AUTO 29007KT 10SM CLR 12/09 A2992 RMK AO2 SLP130 T01220094=
201106070253 METAR KCLM 070253Z AUTO 28010G21KT 10SM CLR 13/09 A2991 RMK AO2 SLP127 T01330094 53008=
201106070153 METAR KCLM 070153Z AUTO 29008G16KT 10SM CLR 15/11 A2990 RMK AO2 SLP124 T01500106=
201106070053 METAR KCLM 070053Z AUTO 31006KT 10SM CLR 16/11 A2989 RMK AO2 SLP120 T01560106=
201106062353 METAR KCLM 062353Z AUTO 31009KT 10SM CLR 17/11 A2988 RMK AO2 SLP119 T01670111 10183 20150 55008=
201106062253 METAR KCLM 062253Z AUTO 29007KT 10SM FEW100 18/11 A2988 RMK AO2 SLP119 T01780106=
201106062153 METAR KCLM 062153Z AUTO 31008KT 10SM FEW100 18/11 A2990 RMK AO2 SLP123 T01780111=
201106062053 METAR KCLM 062053Z AUTO 31009G14KT 10SM CLR 16/11 A2991 RMK AO2 SLP127 T01610106 56004=
201106061953 METAR KCLM 061953Z AUTO 33007KT 10SM CLR 17/11 A2991 RMK AO2 SLP129 T01670106=
201106061853 METAR KCLM 061853Z AUTO 35006KT 10SM CLR 15/10 A2991 RMK AO2 SLP128 T01500100=
201106061753 METAR KCLM 061753Z AUTO VRB03KT 10SM CLR 15/11 A2992 RMK AO2 SLP131 T01500106 10156 20094 56006=
201106061653 METAR KCLM 061653Z AUTO VRB05KT 10SM CLR 14/10 A2992 RMK AO2 SLP132 T01390100=
201106061553 METAR KCLM 061553Z AUTO 00000KT 10SM CLR 14/11 A2992 RMK AO2 SLP132 T01440106=
201106061453 METAR KCLM 061453Z AUTO 00000KT 10SM SCT003 SCT100 12/10 A2994 RMK AO2 SLP137 T01170100 53003=
201106061408 SPECI KCLM 061408Z AUTO 28004KT 8SM FEW003 11/10 A2993 RMK AO2=
201106061408 SPECI KCLM 061408Z AUTO 28004KT 8SM FEW003 11/10 A2993 RMK AO2=
201106061353 METAR KCLM 061353Z AUTO 29004KT 10SM CLR 11/09 A2993 RMK AO2 SLP134 T01060094=
201106061302 SPECI KCLM 061302Z AUTO 00000KT 6SM BR SCT001 09/08 A2993 RMK AO2=
201106061302 SPECI KCLM 061302Z AUTO 00000KT 6SM BR SCT001 09/08 A2993 RMK AO2=
201106061253 METAR KCLM 061253Z AUTO 00000KT 3SM BR BKN001 10/09 A2993 RMK AO2 SLP134 T01000089=
201106061251 SPECI KCLM 061251Z AUTO 00000KT 2 1/2SM BR BKN001 10/09 A2993 RMK AO2=
201106061251 SPECI KCLM 061251Z AUTO 00000KT 2 1/2SM BR BKN001 10/09 A2993 RMK AO2=
201106061243 SPECI KCLM 061243Z AUTO 00000KT 3SM BR BKN001 09/09 A2993 RMK AO2=
201106061243 SPECI KCLM 061243Z AUTO 00000KT 3SM BR BKN001 09/09 A2993 RMK AO2=
201106061202 SPECI KCLM 061202Z AUTO 28004KT 7SM SCT003 10/09 A2992 RMK AO2=
201106061202 SPECI KCLM 061202Z AUTO 28004KT 7SM SCT003 10/09 A2992 RMK AO2=
201106061153 METAR KCLM 061153Z AUTO 26005KT 8SM BKN003 10/09 A2992 RMK AO2 SLP132 T01000089 10122 20100 50002=
201106061151 SPECI KCLM 061151Z AUTO 27004KT 9SM BKN003 10/09 A2992 RMK AO2=
201106061151 SPECI KCLM 061151Z AUTO 27004KT 9SM BKN003 10/09 A2992 RMK AO2=
201106061124 SPECI KCLM 061124Z AUTO 26005KT 8SM SCT003 10/09 A2992 RMK AO2=
201106061124 SPECI KCLM 061124Z AUTO 26005KT 8SM SCT003 10/09 A2992 RMK AO2=
201106061053 METAR KCLM 061053Z AUTO 28007KT 10SM CLR 11/09 A2992 RMK AO2 SLP132 T01060094=
201106060953 METAR KCLM 060953Z AUTO 25004KT 10SM CLR 11/09 A2992 RMK AO2 SLP130 T01060089=
201106060853 METAR KCLM 060853Z AUTO 29007KT 10SM CLR 12/10 A2991 RMK AO2 SLP129 T01170100 56007=
201106060753 METAR KCLM 060753Z AUTO 30011KT 10SM CLR 12/10 A2991 RMK AO2 SLP129 T01220100 402220078=
201106060653 METAR KCLM 060653Z AUTO 30011KT 10SM CLR 12/09 A2992 RMK AO2 SLP132 T01220094=
201106060553 METAR KCLM 060553Z AUTO 29006KT 10SM CLR 12/09 A2993 RMK AO2 SLP136 T01220094 10217 20122 53003=
201106060453 METAR KCLM 060453Z AUTO 29007KT 10SM CLR 12/08 A2993 RMK AO2 SLP135 T01220083=
201106060353 METAR KCLM 060353Z AUTO 31004KT 10SM CLR 14/08 A2992 RMK AO2 SLP132 T01390083=
201106060253 METAR KCLM 060253Z AUTO 28006KT 10SM CLR 16/10 A2992 RMK AO2 SLP133 T01560100 58002=
201106060153 METAR KCLM 060153Z AUTO 30004KT 10SM CLR 15/10 A2993 RMK AO2 SLP135 T01500100=
201106060053 METAR KCLM 060053Z AUTO 30004KT 10SM FEW100 16/09 A2993 RMK AO2 SLP138 T01610094=
201106052353 METAR KCLM 052353Z AUTO 07003KT 10SM CLR 22/08 A2993 RMK AO2 SLP135 T02170078 10222 20183 56013=
201106052253 METAR KCLM 052253Z AUTO 07006KT 10SM CLR 22/07 A2994 RMK AO2 SLP138 T02170072=
201106052153 METAR KCLM 052153Z AUTO 08006KT 10SM CLR 21/09 A2995 RMK AO2 SLP143 T02110089=
201106052053 METAR KCLM 052053Z AUTO 10007KT 10SM CLR 21/09 A2997 RMK AO2 SLP148 T02110089 58008=
201106051953 METAR KCLM 051953Z AUTO 08008KT 10SM FEW100 20/09 A2998 RMK AO2 SLP151 T02000089=
201106051853 METAR KCLM 051853Z AUTO 08007KT 10SM FEW100 19/09 A2999 RMK AO2 SLP155 T01890094=
201106051753 METAR KCLM 051753Z AUTO 09010KT 10SM CLR 19/09 A2999 RMK AO2 SLP156 T01890094 10189 20078 50000=
201106051653 METAR KCLM 051653Z AUTO 10007KT 10SM CLR 18/09 A3000 RMK AO2 SLP158 T01830089=
201106051553 METAR KCLM 051553Z AUTO 10007KT 10SM CLR 18/08 A2999 RMK AO2 SLP156 T01780078=
201106051453 METAR KCLM 051453Z AUTO 13004KT 10SM CLR 18/08 A2999 RMK AO2 SLP155 T01780078 50003=
201106051353 METAR KCLM 051353Z AUTO 23005KT 10SM CLR 13/07 A2999 RMK AO2 SLP157 T01330067=
201106051253 METAR KCLM 051253Z AUTO 00000KT 10SM CLR 08/06 A3000 RMK AO2 SLP157 T00830061=
201106051153 METAR KCLM 051153Z AUTO 15003KT 10SM CLR 10/06 A2999 RMK AO2 SLP154 T01000061 10139 20089 55004=
201106051053 METAR KCLM 051053Z AUTO 24008KT 10SM CLR 12/05 A2998 RMK AO2 SLP153 T01220050=
201106050953 METAR KCLM 050953Z AUTO 24007KT 10SM CLR 12/06 A2998 RMK AO2 SLP153 T01220056=
201106050853 METAR KCLM 050853Z AUTO 22006KT 10SM CLR 12/06 A3000 RMK AO2 SLP158 T01220056 58000=
201106050753 METAR KCLM 050753Z AUTO 23008KT 10SM CLR 12/06 A3000 RMK AO2 SLP158 T01170056 402110078=
201106050653 METAR KCLM 050653Z AUTO 00000KT 10SM CLR 12/07 A3000 RMK AO2 SLP159 T01170067=
201106050553 METAR KCLM 050553Z AUTO 00000KT 10SM CLR 12/07 A3000 RMK AO2 SLP158 T01170072 10211 20117 50001=
201106050453 METAR KCLM 050453Z AUTO 00000KT 10SM CLR 13/08 A3000 RMK AO2 SLP160 T01280083=
201106050353 METAR KCLM 050353Z AUTO 15004KT 10SM CLR 17/07 A3000 RMK AO2 SLP158 T01670067=
201106050253 METAR KCLM 050253Z AUTO 14005KT 10SM CLR 20/08 A3000 RMK AO2 SLP156 T02000078 58005=
201106050153 METAR KCLM 050153Z AUTO 08004KT 10SM FEW100 21/07 A3000 RMK AO2 SLP159 T02060072=
201106050053 METAR KCLM 050053Z AUTO 10006KT 10SM CLR 20/08 A3001 RMK AO2 SLP161 T02000083=
201106042353 METAR KCLM 042353Z AUTO 07006KT 10SM CLR 21/08 A3001 RMK AO2 SLP162 T02110078 10211 20156 58019=
201106042253 METAR KCLM 042253Z AUTO 10005KT 10SM CLR 21/08 A3003 RMK AO2 SLP169 T02060083=
201106042153 METAR KCLM 042153Z AUTO 08005KT 10SM FEW095 20/08 A3004 RMK AO2 SLP173 T02000083=
201106042053 METAR KCLM 042053Z AUTO 08004KT 10SM CLR 18/09 A3006 RMK AO2 SLP180 T01830089 58014=
201106041953 METAR KCLM 041953Z AUTO 08008KT 10SM CLR 17/08 A3008 RMK AO2 SLP186 T01670083=
201106041853 METAR KCLM 041853Z AUTO 10007KT 10SM CLR 17/09 A3009 RMK AO2 SLP190 T01670089=
201106041753 METAR KCLM 041753Z AUTO VRB03KT 10SM CLR 16/09 A3011 RMK AO2 SLP195 T01610089 10161 20083 58005=
201106041653 METAR KCLM 041653Z AUTO 07007KT 10SM CLR 16/09 A3012 RMK AO2 SLP198 T01560089=
201106041553 METAR KCLM 041553Z AUTO 09005KT 10SM CLR 16/09 A3012 RMK AO2 SLP200 T01560089=
201106041453 METAR KCLM 041453Z AUTO 08007KT 10SM CLR 15/08 A3012 RMK AO2 SLP200 T01500083 50000=
201106041353 METAR KCLM 041353Z AUTO 00000KT 10SM CLR 12/07 A3012 RMK AO2 SLP201 T01170067=
201106041253 METAR KCLM 041253Z AUTO 23006KT 10SM CLR 09/06 A3012 RMK AO2 SLP200 T00890056=
201106041153 METAR KCLM 041153Z AUTO 23007KT 10SM CLR 09/05 A3012 RMK AO2 SLP200 T00890050 10106 20078 58008=
201106041053 METAR KCLM 041053Z AUTO 23005KT 10SM CLR 09/06 A3013 RMK AO2 SLP203 T00890056=
201106040953 METAR KCLM 040953Z AUTO 22005KT 10SM CLR 09/06 A3014 RMK AO2 SLP208 T00890056=
201106040853 METAR KCLM 040853Z AUTO 23005KT 10SM CLR 09/06 A3015 RMK AO2 SLP210 T00940056 53001=
201106040753 METAR KCLM 040753Z AUTO 21004KT 10SM CLR 09/06 A3014 RMK AO2 SLP208 T00940056 401720061=
201106040653 METAR KCLM 040653Z AUTO 23006KT 10SM CLR 10/06 A3014 RMK AO2 SLP208 T01000056=
201106040553 METAR KCLM 040553Z AUTO 22005KT 10SM CLR 11/07 A3014 RMK AO2 SLP208 T01060067 10172 20100 51006=
201106040453 METAR KCLM 040453Z AUTO 23003KT 10SM CLR 12/07 A3014 RMK AO2 SLP206 T01170067=
201106040353 METAR KCLM 040353Z AUTO 12005KT 10SM CLR 15/04 A3013 RMK AO2 SLP203 T01500044=
201106040253 METAR KCLM 040253Z AUTO 12006KT 10SM CLR 17/06 A3013 RMK AO2 SLP201 T01670056 52002=
201106040153 METAR KCLM 040153Z AUTO 10005KT 10SM CLR 17/06 A3012 RMK AO2 SLP200 T01720056=
201106040053 METAR KCLM 040053Z AUTO 10007KT 10SM CLR 17/05 A3012 RMK AO2 SLP200 T01720050=
201106032353 METAR KCLM 032353Z AUTO 10007KT 10SM CLR 17/08 A3012 RMK AO2 SLP199 T01720083 10172 20128 58003=
201106032253 METAR KCLM 032253Z AUTO 08006KT 10SM FEW039 17/07 A3013 RMK AO2 SLP201 T01670067=
201106032153 METAR KCLM 032153Z AUTO VRB06KT 10SM FEW041 16/08 A3012 RMK AO2 SLP201 T01560078=
201106032053 METAR KCLM 032053Z AUTO 03006KT 10SM CLR 13/08 A3013 RMK AO2 SLP203 T01330083 57001=
201106031953 METAR KCLM 031953Z AUTO 05005KT 10SM FEW100 15/09 A3012 RMK AO2 SLP201 T01500094=
201106031853 METAR KCLM 031853Z AUTO 09003KT 10SM FEW010 14/09 A3014 RMK AO2 SLP206 T01390089=
201106031824 SPECI KCLM 031824Z AUTO 09007KT 10SM FEW007 13/09 A3014 RMK AO2=
201106031824 SPECI KCLM 031824Z AUTO 09007KT 10SM FEW007 13/09 A3014 RMK AO2=
201106031753 METAR KCLM 031753Z AUTO 05005KT 10SM CLR 13/09 A3013 RMK AO2 SLP204 T01330089 10139 20083 53007=
201106031735 SPECI KCLM 031735Z AUTO VRB05KT 10SM SCT017 13/09 A3013 RMK AO2=
201106031735 SPECI KCLM 031735Z AUTO VRB05KT 10SM SCT017 13/09 A3013 RMK AO2=
201106031713 SPECI KCLM 031713Z AUTO 09006KT 10SM OVC015 13/09 A3013 RMK AO2=
201106031713 SPECI KCLM 031713Z AUTO 09006KT 10SM OVC015 13/09 A3013 RMK AO2=
201106031700 SPECI KCLM 031700Z AUTO 09005KT 10SM BKN013 OVC050 14/09 A3013 RMK AO2=
201106031700 SPECI KCLM 031700Z AUTO 09005KT 10SM BKN013 OVC050 14/09 A3013 RMK AO2=
201106031653 METAR KCLM 031653Z AUTO 09005KT 10SM SCT013 OVC050 13/09 A3012 RMK AO2 SLP202 T01330089=
201106031553 METAR KCLM 031553Z AUTO 07005KT 10SM FEW020 BKN050 12/08 A3011 RMK AO2 SLP197 T01220078=
201106031550 SPECI KCLM 031550Z AUTO 08005KT 10SM FEW020 BKN050 12/08 A3011 RMK AO2=
201106031550 SPECI KCLM 031550Z AUTO 08005KT 10SM FEW020 BKN050 12/08 A3011 RMK AO2=
201106031453 METAR KCLM 031453Z AUTO 03004KT 10SM BKN016 OVC060 11/08 A3010 RMK AO2 SLP195 T01060078 53010=
201106031353 METAR KCLM 031353Z AUTO 00000KT 10SM FEW019 OVC060 10/08 A3009 RMK AO2 SLP191 T01000083=
201106031253 METAR KCLM 031253Z AUTO 00000KT 10SM OVC060 09/07 A3008 RMK AO2 SLP188 T00890072=
201106031153 METAR KCLM 031153Z AUTO 23005KT 10SM OVC060 08/07 A3007 RMK AO2 SLP185 T00830067 10100 20061 53003=
201106031053 METAR KCLM 031053Z AUTO 22003KT 10SM OVC060 08/06 A3007 RMK AO2 SLP184 T00830061=
201106030953 METAR KCLM 030953Z AUTO 23004KT 10SM FEW024 08/06 A3006 RMK AO2 SLP181 T00780061=
201106030930 SPECI KCLM 030930Z AUTO 24005KT 10SM SCT019 08/06 A3006 RMK AO2=
201106030930 SPECI KCLM 030930Z AUTO 24005KT 10SM SCT019 08/06 A3006 RMK AO2=
201106030853 METAR KCLM 030853Z AUTO 22004KT 10SM BKN019 07/06 A3007 RMK AO2 SLP182 T00720056 53007=
201106030753 METAR KCLM 030753Z AUTO 00000KT 10SM SCT042 08/06 A3005 RMK AO2 SLP178 T00780061 401330072=
201106030653 METAR KCLM 030653Z AUTO 00000KT 10SM CLR 09/07 A3005 RMK AO2 SLP175 T00890067=
201106030553 METAR KCLM 030553Z AUTO 27003KT 10SM OVC060 10/08 A3004 RMK AO2 SLP174 T01000078 10122 20100 50004=
201106030453 METAR KCLM 030453Z AUTO 27004KT 10SM OVC060 11/08 A3004 RMK AO2 SLP175 T01060078=
201106030353 METAR KCLM 030353Z AUTO 26003KT 10SM SCT028 BKN036 OVC055 11/08 A3004 RMK AO2 SLP173 T01110078=
201106030318 SPECI KCLM 030318Z AUTO 27003KT 10SM SCT023 SCT037 OVC060 11/08 A3004 RMK AO2=
201106030318 SPECI KCLM 030318Z AUTO 27003KT 10SM SCT023 SCT037 OVC060 11/08 A3004 RMK AO2=
201106030253 METAR KCLM 030253Z AUTO 28004KT 10SM OVC021 12/08 A3003 RMK AO2 SLP171 T01170078 53004=
201106030153 METAR KCLM 030153Z AUTO 32009KT 10SM FEW019 BKN024 OVC060 12/08 A3002 RMK AO2 SLP167 T01170078=
201106030053 METAR KCLM 030053Z AUTO 32005KT 10SM OVC024 12/08 A3002 RMK AO2 SLP167 T01220083=
201106030036 SPECI KCLM 030036Z AUTO 31005KT 10SM BKN026 BKN037 OVC045 12/08 A3002 RMK AO2=
201106030036 SPECI KCLM 030036Z AUTO 31005KT 10SM BKN026 BKN037 OVC045 12/08 A3002 RMK AO2=
201106030007 SPECI KCLM 030007Z AUTO 32008KT 10SM SCT024 OVC047 12/08 A3002 RMK AO2=
201106030007 SPECI KCLM 030007Z AUTO 32008KT 10SM SCT024 OVC047 12/08 A3002 RMK AO2=
201106022353 METAR KCLM 022353Z AUTO 32006KT 10SM BKN024 OVC045 12/08 A3002 RMK AO2 SLP167 60000 T01220078 10133 20111 51000=
201106022323 SPECI KCLM 022323Z AUTO 34008KT 10SM BKN024 BKN041 OVC060 13/08 A3002 RMK AO2=
201106022323 SPECI KCLM 022323Z AUTO 34008KT 10SM BKN024 BKN041 OVC060 13/08 A3002 RMK AO2=
201106022253 METAR KCLM 022253Z AUTO 33007KT 10SM FEW024 BKN043 OVC085 13/08 A3002 RMK AO2 SLP167 T01280083=
201106022250 SPECI KCLM 022250Z AUTO 31005KT 10SM FEW024 BKN041 OVC085 13/08 A3002 RMK AO2=
201106022250 SPECI KCLM 022250Z AUTO 31005KT 10SM FEW024 BKN041 OVC085 13/08 A3002 RMK AO2=
201106022240 SPECI KCLM 022240Z AUTO 32006KT 10SM FEW024 BKN028 OVC085 13/09 A3002 RMK AO2=
201106022240 SPECI KCLM 022240Z AUTO 32006KT 10SM FEW024 BKN028 OVC085 13/09 A3002 RMK AO2=
201106022224 SPECI KCLM 022224Z AUTO 34006KT 10SM FEW026 BKN030 OVC042 12/08 A3002 RMK AO2=
201106022224 SPECI KCLM 022224Z AUTO 34006KT 10SM FEW026 BKN030 OVC042 12/08 A3002 RMK AO2=
201106022213 SPECI KCLM 022213Z AUTO 33005KT 10SM BKN026 OVC042 12/08 A3002 RMK AO2=
201106022213 SPECI KCLM 022213Z AUTO 33005KT 10SM BKN026 OVC042 12/08 A3002 RMK AO2=
201106022153 METAR KCLM 022153Z AUTO 30005KT 10SM SCT028 OVC044 12/08 A3002 RMK AO2 SLP166 T01220083=
201106022053 METAR KCLM 022053Z AUTO 32006KT 10SM BKN046 OVC060 12/08 A3001 RMK AO2 SLP164 60000 T01220083 51008=
201106021953 METAR KCLM 021953Z AUTO 36006KT 10SM SCT042 OVC080 12/08 A3001 RMK AO2 SLP162 T01170083=
201106021853 METAR KCLM 021853Z AUTO VRB04KT 10SM BKN060 BKN075 OVC090 13/09 A3000 RMK AO2 RAB29E40 SLP159 P0000 T01280089=
201106021753 METAR KCLM 021753Z AUTO VRB03KT 10SM FEW023 SCT034 OVC055 12/08 A2999 RMK AO2 SLP156 60000 T01220083 10133 20100 53006=
201106021653 METAR KCLM 021653Z AUTO 34004KT 10SM FEW039 OVC055 12/08 A2998 RMK AO2 SLP152 T01220083=
201106021553 METAR KCLM 021553Z AUTO 30004KT 10SM BKN060 12/08 A2998 RMK AO2 RAB28E37 SLP151 P0000 T01170078=
201106021453 METAR KCLM 021453Z AUTO 30004KT 10SM BKN050 OVC090 12/08 A2997 RMK AO2 SLP150 T01170078 52007=
201106021353 METAR KCLM 021353Z AUTO 27007KT 10SM OVC075 12/07 A2996 RMK AO2 SLP147 T01170072 TSNO=
201106021253 METAR KCLM 021253Z AUTO 26007KT 10SM BKN075 OVC100 10/07 A2996 RMK AO2 SLP146 T01000067=
201106021153 METAR KCLM 021153Z AUTO 28006KT 10SM OVC060 10/07 A2995 RMK AO2 SLP143 T01000067 10106 20083 53003=
201106021053 METAR KCLM 021053Z AUTO 29004KT 10SM BKN050 OVC075 09/06 A2994 RMK AO2 SLP140 T00890061=
201106020953 METAR KCLM 020953Z AUTO 27005KT 10SM BKN055 09/06 A2994 RMK AO2 SLP139 T00890061=
201106020853 METAR KCLM 020853Z AUTO 28003KT 10SM OVC050 09/07 A2994 RMK AO2 SLP140 T00940067 56008=
201106020753 METAR KCLM 020753Z AUTO 28006KT 10SM OVC060 10/07 A2995 RMK AO2 SLP142 T01000067 401440100=
201106020653 METAR KCLM 020653Z AUTO 29006KT 10SM OVC055 11/07 A2996 RMK AO2 SLP146 T01060072=
201106020553 METAR KCLM 020553Z AUTO 27004KT 10SM BKN055 11/07 A2997 RMK AO2 SLP149 T01060072 10139 20100 56000=
201106020453 METAR KCLM 020453Z AUTO 26005KT 10SM OVC055 11/08 A2997 RMK AO2 SLP149 T01060078=
201106020353 METAR KCLM 020353Z AUTO 24005KT 10SM CLR 11/08 A2997 RMK AO2 SLP148 T01060078=
201106020253 METAR KCLM 020253Z AUTO 28007KT 10SM SCT047 12/07 A2997 RMK AO2 SLP149 T01170072 53004=
201106020153 METAR KCLM 020153Z AUTO 29009G19KT 10SM OVC049 12/07 A2996 RMK AO2 SLP147 T01170072=
201106020053 METAR KCLM 020053Z AUTO 30008G16KT 10SM CLR 12/08 A2996 RMK AO2 SLP146 T01220083=
201106012353 METAR KCLM 012353Z AUTO 30011G20KT 10SM SCT080 14/08 A2996 RMK AO2 SLP145 T01390083 10144 20122 58005=
201106012253 METAR KCLM 012253Z AUTO 31013G20KT 10SM BKN065 13/08 A2997 RMK AO2 SLP149 T01330083=
201106012153 METAR KCLM 012153Z AUTO 31010KT 10SM FEW038 OVC060 13/08 A2998 RMK AO2 SLP152 T01280083=
201106012135 SPECI KCLM 012135Z AUTO 32009KT 10SM SCT022 BKN036 OVC075 13/08 A2997 RMK AO2=
201106012135 SPECI KCLM 012135Z AUTO 32009KT 10SM SCT022 BKN036 OVC075 13/08 A2997 RMK AO2=
201106012124 SPECI KCLM 012124Z AUTO 31011KT 10SM BKN022 BKN029 BKN060 13/08 A2997 RMK AO2=
201106012124 SPECI KCLM 012124Z AUTO 31011KT 10SM BKN022 BKN029 BKN060 13/08 A2997 RMK AO2=
201106012053 METAR KCLM 012053Z AUTO 31011KT 10SM SCT060 BKN075 14/09 A2997 RMK AO2 SLP150 T01390089 58001=
201106011953 METAR KCLM 011953Z AUTO 31009G15KT 10SM SCT060 14/09 A2998 RMK AO2 SLP151 T01440089=
201106011853 METAR KCLM 011853Z AUTO 32011KT 10SM SCT030 SCT070 14/08 A2998 RMK AO2 SLP151 T01390083=
201106011753 METAR KCLM 011753Z AUTO 30008KT 10SM OVC065 12/09 A2998 RMK AO2 SLP152 T01220089 10128 20100 50000=
201106011653 METAR KCLM 011653Z AUTO 32007KT 10SM OVC065 13/09 A2998 RMK AO2 SLP152 T01280089=
201106011553 METAR KCLM 011553Z AUTO VRB03KT 10SM OVC065 12/09 A2998 RMK AO2 SLP152 T01170089=
201106011453 METAR KCLM 011453Z AUTO 26004KT 10SM OVC049 11/07 A2998 RMK AO2 SLP151 T01110072 50001=
201106011353 METAR KCLM 011353Z AUTO 26005KT 10SM FEW039 OVC047 11/07 A2998 RMK AO2 SLP152 T01060072=
201106011253 METAR KCLM 011253Z AUTO 25006KT 10SM OVC032 10/07 A2997 RMK AO2 SLP151 T01000067=
201106011246 SPECI KCLM 011246Z AUTO 24006KT 10SM OVC030 10/07 A2997 RMK AO2=
201106011246 SPECI KCLM 011246Z AUTO 24006KT 10SM OVC030 10/07 A2997 RMK AO2=
201106011153 METAR KCLM 011153Z AUTO 26006KT 10SM OVC024 10/07 A2997 RMK AO2 SLP149 7//// T01000072 10111 20100 57003=
201106011107 SPECI KCLM 011107Z AUTO 25007KT 10SM OVC028 10/08 A2998 RMK AO2=
201106011107 SPECI KCLM 011107Z AUTO 25007KT 10SM OVC028 10/08 A2998 RMK AO2=
201106011053 METAR KCLM 011053Z AUTO 28006KT 10SM BKN030 OVC047 10/08 A2997 RMK AO2 SLP150 T01000078=
201106011006 SPECI KCLM 011006Z AUTO 25003KT 10SM SCT017 BKN042 OVC070 11/09 A2998 RMK AO2=
201106011006 SPECI KCLM 011006Z AUTO 25003KT 10SM SCT017 BKN042 OVC070 11/09 A2998 RMK AO2=
201106010953 METAR KCLM 010953Z AUTO 28004KT 10SM BKN017 BKN033 OVC070 11/09 A2998 RMK AO2 SLP152 T01060089=
201106010945 SPECI KCLM 010945Z AUTO 28004KT 10SM BKN017 BKN033 OVC070 11/09 A2998 RMK AO2=
201106010945 SPECI KCLM 010945Z AUTO 28004KT 10SM BKN017 BKN033 OVC070 11/09 A2998 RMK AO2=
201106010853 METAR KCLM 010853Z AUTO 23005KT 10SM FEW025 SCT031 OVC060 11/09 A2998 RMK AO2 SLP153 T01060089 53000=
201106010753 METAR KCLM 010753Z AUTO 28004KT 10SM SCT022 BKN032 OVC070 11/09 A2998 RMK AO2 SLP151 T01060089 401670061=
201106010653 METAR KCLM 010653Z AUTO 27004KT 10SM SCT016 OVC044 11/09 A2999 RMK AO2 SLP155 T01110089=
201106010553 METAR KCLM 010553Z AUTO 26005KT 10SM OVC050 11/09 A2998 RMK AO2 SLP154 60000 T01110089 10156 20106 51009=
201106010453 METAR KCLM 010453Z AUTO 27004KT 10SM BKN050 BKN065 OVC080 11/09 A2998 RMK AO2 SLP151 T01110094=
201106010353 METAR KCLM 010353Z AUTO 28003KT 10SM FEW029 OVC060 11/09 A2997 RMK AO2 RAE03 SLP148 P0000 T01110094=
201106010253 METAR KCLM 010253Z AUTO 25003KT 10SM -RA FEW049 OVC070 12/10 A2996 RMK AO2 RAB0156 SLP145 P0000 60000 T01170100 51012=
201106010153 METAR KCLM 010153Z AUTO 29005KT 10SM BKN038 BKN048 OVC055 13/08 A2995 RMK AO2 SLP142 T01280083=
201106010053 METAR KCLM 010053Z AUTO 35003KT 10SM FEW050 OVC075 13/09 A2993 RMK AO2 SLP137 T01280089=

# No short TAF reports from KCLM in databse.

###################################
#  large TAF from KCLM
###################################
201106302321 TAF KCLM 302321Z 0100/0124 31009KT P6SM OVC017 FM010800 27004KT
                       P6SM OVC015 FM011800 28004KT P6SM SCT030=
201106301738 TAF KCLM 301738Z 3018/0118 32004KT P6SM BKN040 OVC050 FM010000
                       30012KT P6SM SCT035 FM010800 27004KT P6SM
                       SCT015 BKN030=
201106301120 TAF KCLM 301120Z 3012/0112 VRB04KT P6SM SCT030 BKN060
                      TEMPO 3013/3017 -SHRA BKN030 FM301800 30007KT
                       P6SM VCSH BKN035 BKN060 FM010000 30012KT
                       P6SM SCT035 FM010700 25004KT P6SM SCT015
                       BKN030=
201106300530 TAF KCLM 300530Z 3006/0106 27010KT P6SM SCT030
                      TEMPO 3006/3010 BKN022 FM301000 27008KT P6SM
                       BKN022 FM301900 27006KT P6SM BKN030 FM010000
                       30012KT P6SM SCT035=
201106300348 TAF AMD KCLM 300348Z 3004/3024 30012G20KT P6SM SCT030
                      TEMPO 3004/3008 SCT012 BKN027 FM300800 27008KT
                       P6SM OVC015 FM301900 27006KT P6SM BKN030=
201106292329 TAF KCLM 292329Z 3000/3024 31012G19KT P6SM VCSH OVC010
                      TEMPO 3000/3004 SCT012 BKN030 FM300400 27008KT
                       P6SM OVC015 FM301900 27006KT P6SM BKN030=
201106292021 KCLM 292021Z 2920/3018 30009KT 5SM -RA BR OVC010 FM292300 30009KT
                       P6SM VCSH BKN045 BKN060 FM300500 27008KT
                       P6SM OVC015=
201106291743 TAF KCLM 291743Z 2918/3018 02004KT P6SM VCSH BKN060 OVC080 FM292100
                       30009KT P6SM VCSH BKN045 BKN060 FM300500
                       27008KT P6SM OVC015=
201106291406 KCLM 291406Z 2914/3012 00000KT P6SM SCT025 OVC060
                      TEMPO 2914/2918 BKN020 OVC050 FM291800 29010KT
                       P6SM VCSH SCT025 BKN060 BKN120 FM292300
                       30009KT P6SM BKN045 BKN060 FM300500 27008KT
                       P6SM OVC015=
201106291123 TAF KCLM 291123Z 2912/3012 31005KT P6SM OVC004
                      TEMPO 2912/2916 5SM -DZ FM291800 29010KT
                       P6SM VCSH BKN015 BKN060 BKN120 FM292100
                       30008KT P6SM BKN025 BKN060 FM292300 30009KT
                       P6SM BKN045 BKN060=
201106290520 TAF KCLM 290520Z 2906/3006 29005KT P6SM OVC006
                      TEMPO 2911/2915 5SM -DZ OVC002 FM291800 29010KT
                       P6SM VCSH BKN015 BKN060 BKN120 FM292100
                       30008KT P6SM BKN025 BKN060=
201106290132 KCLM 290132Z 2902/2924 29008KT P6SM SCT018 OVC060
                      TEMPO 2902/2905 OVC018 FM290500 29006KT P6SM
                       OVC018 FM292100 29012KT P6SM VCSH BKN025
                       BKN120=
201106282334 TAF KCLM 282334Z 2900/2924 31008KT P6SM OVC060 FM290900 29006KT
                       P6SM OVC020 FM292100 29012KT P6SM VCSH BKN025
                       BKN120=
201106282108 KCLM 282108Z 2821/2918 31009KT P6SM VCSH OVC080 FM290900 29006KT
                       P6SM OVC020=
201106281939 KCLM 281939Z 2820/2918 30008KT P6SM VCSH BKN028 FM290900 29006KT
                       P6SM OVC020=
201106281720 TAF KCLM 281720Z 2818/2918 29006KT P6SM VCSH BKN110 OVC200 FM290400
                       29009KT P6SM SCT080 BKN120 FM290900 29006KT
                       P6SM OVC020=
201106281120 TAF KCLM 281120Z 2812/2912 VRB04KT P6SM SCT070 OVC120 FM282200
                       26006KT P6SM VCSH BKN080 BKN120 FM290400
                       26006KT P6SM SCT080 BKN120 FM290900 29006KT
                       P6SM OVC020=
201106280520 TAF KCLM 280520Z 2806/2906 00000KT P6SM -SHRA BKN070 OVC150 FM281400
                       VRB03KT P6SM VCSH BKN040 OVC080=
201106272320 TAF KCLM 272320Z 2800/2824 00000KT P6SM BKN090 OVC150 FM281400
                       VRB03KT P6SM -SHRA BKN040 OVC080=
201106271726 TAF KCLM 271726Z 2718/2818 VRB03KT P6SM BKN090 BKN150 FM281400
                       VRB03KT P6SM VCSH BKN040 OVC080=
201106271136 TAF KCLM 271136Z 2712/2812 VRB03KT P6SM OVC100 FM280900 VRB03KT
                       P6SM SCT035 OVC060=
201106270536 TAF KCLM 270536Z 2706/2806 VRB03KT P6SM BKN150 FM280200 VRB03KT
                       P6SM SCT050 OVC100=
201106262334 TAF KCLM 262334Z 2700/2724 28006KT P6SM FEW050 BKN250 FM270700
                       VRB03KT P6SM SCT130 BKN250 FM271500 00000KT
                       P6SM BKN130 OVC250=
201106261727 TAF KCLM 261727Z 2618/2718 VRB03KT P6SM SKC FM262100 28008KT P6SM
                       SKC FM270700 VRB03KT P6SM BKN200 FM271500
                       00000KT P6SM BKN130 OVC250=
201106261130 TAF KCLM 261130Z 2612/2712 00000KT P6SM SKC FM262100 28008KT P6SM
                       SKC FM270800 VRB03KT P6SM BKN200=
201106260528 TAF KCLM 260528Z 2606/2706 28008KT P6SM SKC=
201106252332 TAF KCLM 252332Z 2600/2624 33008KT P6SM BKN060 FM260600 28008KT
                       P6SM SCT060 FM261500 VRB04KT P6SM FEW100=
201106251731 TAF KCLM 251731Z 2518/2618 31009KT P6SM SCT080 FM260300 28008KT
                       P6SM SCT050=
201106251139 TAF KCLM 251139Z 2512/2612 25008KT P6SM SCT050 FM251800 28008KT
                       P6SM BKN050 FM260300 28008KT P6SM SCT050=
201106250539 TAF KCLM 250539Z 2506/2606 28008KT P6SM SCT050 FM252100 28008KT
                       P6SM BKN050 FM260300 28008KT P6SM SCT050=
201106242320 TAF KCLM 242320Z 2500/2524 31015KT P6SM VCSH SCT035 BKN050 FM250800
                       31008KT P6SM BKN040 FM251200 VRB03KT P6SM
                       BKN025 FM251800 27007KT P6SM BKN040 FM252100
                       31007KT P6SM SCT035 BKN050=
201106241727 TAF KCLM 241727Z 2418/2518 30006KT P6SM VCSH OVC050 FM250000 29008KT
                       P6SM SCT045 BKN100 FM250900 25005KT P6SM
                       SCT025 OVC050
                      TEMPO 2510/2514 OVC025=
201106241130 TAF KCLM 241130Z 2412/2512 25004KT P6SM SCT020 SCT045
                      TEMPO 2412/2416 BKN020 OVC040 FM241800 31007KT
                       P6SM VCSH SCT025 BKN050 FM250000 29008KT
                       P6SM SCT045 BKN100 FM251000 25005KT P6SM
                       OVC025=
201106240520 TAF KCLM 240520Z 2406/2506 27005KT P6SM VCSH OVC060 FM240900 26004KT
                       P6SM OVC015 FM241700 31007KT P6SM SCT015
                       BKN030 FM241900 32008KT P6SM VCSH SCT030
                       BKN060=
201106232326 TAF KCLM 232326Z 2400/2424 31010KT P6SM VCSH SCT015 OVC035 FM240800
                       26004KT P6SM OVC015 FM241700 31007KT P6SM
                       VCSH SCT015 BKN030=
201106231726 TAF KCLM 231726Z 2318/2418 30010KT P6SM SCT015 BKN040 FM232100
                       31008KT P6SM VCSH SCT015 OVC035 FM240800
                       26004KT P6SM VCSH OVC015 FM241700 31007KT
                       P6SM VCSH SCT015 BKN030=
201106231130 TAF KCLM 231130Z 2312/2412 26007KT P6SM SCT007 OVC050
                      TEMPO 2313/2317 OVC007 FM231700 30010KT P6SM
                       BKN010 OVC020 FM232100 31008KT P6SM VCSH
                       SCT015 OVC025 FM240900 26004KT P6SM VCSH
                       OVC015=
201106230850 KCLM 230850Z 2309/2406 28010KT P6SM SKC FM231200 26010KT P6SM OVC007
                       FM231700 30010KT P6SM BKN010 OVC020 FM232100
                       31008KT P6SM VCSH SCT015 OVC025=
201106230530 TAF KCLM 230530Z 2306/2406 29006KT P6SM SCT040 SCT200 FM230700
                       27010KT P6SM OVC007 FM231700 30010G20KT
                       P6SM BKN010 OVC020=
201106222335 TAF KCLM 222335Z 2300/2324 30012G22KT P6SM SCT025 BKN050 FM230700
                       27010KT P6SM OVC007 FM231700 30010G20KT
                       P6SM BKN010 OVC020=
201106222230 KCLM 222230Z 2223/2318 30012G22KT P6SM BKN025 BKN050
                      TEMPO 2223/2303 SCT025 BKN050 FM230800 27010KT
                       P6SM OVC007 FM231700 30010G20KT P6SM BKN010
                       OVC020=
201106222101 TAF AMD KCLM 222101Z 2221/2318 30010G20KT P6SM BKN015 OVC050 FM222300
                       30012G22KT P6SM BKN025 BKN050 FM230800 27010KT
                       P6SM OVC007 FM231700 30010G20KT P6SM BKN010
                       OVC020=
201106221732 TAF KCLM 221732Z 2218/2318 30008KT P6SM BKN012 OVC020 FM222100
                       30010KT P6SM SCT020 OVC050 FM222300 30012G22KT
                       P6SM BKN050 BKN100 FM230800 27010KT P6SM
                       OVC007 FM231700 30010G20KT P6SM BKN010 OVC020=
201106221130 TAF KCLM 221130Z 2212/2312 29009KT P6SM OVC007 FM221800 30008KT
                       P6SM SCT010 BKN020 FM222000 30010KT P6SM
                       SCT023 OVC050 FM222300 30012G18KT P6SM BKN050
                       BKN100 FM230800 27010KT P6SM OVC007=
201106220800 KCLM 220800Z 2208/2306 28004KT P6SM BKN002
                      TEMPO 2208/2212 SCT002 OVC010 FM221200 28005KT
                       P6SM OVC006 FM221700 31009KT P6SM BKN020
                       BKN050 FM222000 31014KT P6SM BKN050 OVC100
                       FM230000 29014KT P6SM OVC050=
201106220530 TAF KCLM 220530Z 2206/2306 30008KT P6SM SCT050 SCT250 FM221000
                       28005KT P6SM OVC015 FM221700 31009KT P6SM
                       BKN020 BKN050 FM222000 31014KT P6SM BKN050
                       OVC100 FM230000 29014KT P6SM OVC050=
201106212328 TAF KCLM 212328Z 2200/2224 28010KT P6SM SCT050 OVC200 FM220600
                       28007KT P6SM OVC050=
201106211720 TAF KCLM 211720Z 2118/2218 VRB03KT P6SM SCT045 SCT150 FM220000
                       28010KT P6SM BKN060 OVC120 FM220600 28007KT
                       P6SM OVC050=
201106211124 TAF KCLM 211124Z 2112/2212 00000KT P6SM SCT045 BKN070 FM220000
                       28010KT P6SM BKN060 OVC100 FM220600 28007KT
                       P6SM OVC050=
201106210520 TAF KCLM 210520Z 2106/2206 27004KT P6SM OVC080 FM211100 28003KT
                       P6SM BKN015 FM211700 VRB03KT P6SM SCT020
                       BKN100 FM211800 34004KT P6SM BKN100 FM220000
                       28009KT P6SM BKN060 OVC100=
201106202328 TAF KCLM 202328Z 2100/2124 30008KT P6SM SCT080 FM210500 27004KT
                       P6SM OVC020 FM211600 28005KT P6SM SCT025
                       BKN040 FM212200 32006KT P6SM SCT050=
201106201738 TAF KCLM 201738Z 2018/2118 27008KT P6SM SCT030 BKN050 FM202000
                       30008KT P6SM SCT040 SCT050 FM210500 27004KT
                       P6SM OVC020 FM211600 28005KT P6SM SCT025
                       BKN040=
201106201122 TAF KCLM 201122Z 2012/2112 25004KT P6SM FEW020 OVC050
                      TEMPO 2012/2015 BKN020 FM201800 27008KT P6SM
                       SCT030 BKN050 FM202000 30008KT P6SM SCT040
                       SCT050 FM210500 27004KT P6SM OVC030=
201106200527 TAF KCLM 200527Z 2006/2106 25004KT P6SM OVC023 FM201000 26004KT
                       P6SM OVC017 FM201800 27008KT P6SM BKN025
                       OVC040 FM202000 30008KT P6SM SCT030 SCT050=
201106192320 TAF KCLM 192320Z 2000/2024 29008KT P6SM BKN015 OVC040 FM201000
                       27008KT P6SM OVC010 FM201600 27008KT P6SM
                       BKN015 OVC040 FM202000 30008KT P6SM SCT020
                       BKN050=
201106191918 KCLM 191918Z 1919/2018 30008KT P6SM BKN010 OVC025
                      TEMPO 1919/1922 SCT015 BKN030 FM192200 30010KT
                       P6SM SCT015 BKN030 FM200500 30010KT P6SM
                       SCT010 OVC025=
201106191720 TAF KCLM 191720Z 1918/2018 30007KT P6SM BKN020 OVC035 FM192100
                       30007KT P6SM SCT025 BKN050 FM200500 30007KT
                       P6SM OVC025=
201106191121 TAF KCLM 191121Z 1912/2012 28008KT P6SM SCT025 OVC060 FM191900
                       32009KT P6SM SCT030 BKN060 FM200500 28005KT
                       P6SM OVC030=
201106190528 TAF KCLM 190528Z 1906/2006 28008KT P6SM SCT070
                      TEMPO 1906/1909 SCT015 BKN030 FM190900 32008KT
                       P6SM OVC012 FM191500 27007KT P6SM BKN020
                       OVC040 FM191900 32008KT P6SM SCT025 BKN050=
201106182331 TAF KCLM 182331Z 1900/1924 32012KT P6SM BKN010 OVC050 FM190800
                       32008KT P6SM OVC012 FM191500 27007KT P6SM
                       BKN020 OVC040 FM191900 32008KT P6SM SCT025
                       BKN050=
201106182217 KCLM 182217Z 1822/1918 30010KT P6SM BKN008 OVC015 FM190000 30012KT
                       P6SM BKN015 BKN035 FM190600 30007KT P6SM
                       OVC015 FM191700 VRB04KT P6SM SCT020 BKN040=
201106181720 TAF KCLM 181720Z 1818/1918 30007KT P6SM SCT005 BKN012 OVC030
                      TEMPO 1818/1821 3SM -SHRA BR BKN005 OVC010
                       FM182100 30007KT P6SM VCSH BKN020 OVC040
                       FM190600 30007KT P6SM OVC020=
201106181602 KCLM 181602Z 1816/1912 27007KT 4SM -RA BR BKN004 OVC012
                      TEMPO 1816/1818 1SM -RA BR OVC002 FM182000
                       30008KT P6SM VCSH BKN020 OVC040 FM190400
                       28006KT P6SM OVC020=
201106181353 KCLM 181353Z 1814/1912 27007KT P6SM -SHRA BKN020 OVC040
                      TEMPO 1814/1816 3SM -RA BR BKN004 FM182000
                       30008KT P6SM VCSH BKN030 BKN050 FM190400
                       28006KT P6SM OVC025=
201106181142 KCLM 181142Z 1812/1912 27007KT P6SM -SHRA BKN020 OVC040
                      TEMPO 1812/1816 5SM -RA BR BKN008 FM182000
                       30008KT P6SM VCSH BKN030 BKN050 FM190400
                       28006KT P6SM OVC025=
201106181128 KCLM 181128Z 1811/1912 27007KT P6SM -SHRA BKN020 OVC040
                      TEMPO 1812/1816 5SM -RA BR BKN015 FM182000
                       30008KT P6SM VCSH BKN030 BKN050 FM190400
                       28006KT P6SM OVC025=
201106181120 TAF KCLM 181120Z 1812/1912 27007KT P6SM -SHRA BKN035 OVC040
                      TEMPO 1812/1816 5SM -RA BR BKN025 FM182000
                       30008KT P6SM VCSH BKN030 BKN050 FM190400
                       28006KT P6SM OVC025=
201106180903 KCLM 180903Z 1809/1906 30008KT P6SM -RA BKN030 OVC060 FM181000
                       27007KT P6SM -SHRA BKN020 OVC040 FM182000
                       30008KT P6SM VCSH BKN025 BKN050=
201106180526 TAF KCLM 180526Z 1806/1906 30007KT P6SM SCT040 BKN060 FM180700
                       30010KT P6SM BKN035 OVC060 FM181000 27007KT
                       P6SM -SHRA BKN020 OVC040 FM182000 30008KT
                       P6SM VCSH BKN025 BKN050=
201106172320 TAF KCLM 172320Z 1800/1824 30007KT P6SM SCT040 BKN080 FM180700
                       30010KT P6SM BKN035 OVC070 FM181000 27007KT
                       P6SM -SHRA BKN020 OVC040 FM182000 30008KT
                       P6SM VCSH BKN025 BKN050=
201106171725 TAF KCLM 171725Z 1718/1818 32006KT P6SM SCT050 BKN200 FM180000
                       27007KT P6SM SCT040 BKN100 FM180400 30010KT
                       P6SM BKN035 OVC070 FM181000 27007KT P6SM
                       -SHRA BKN020 OVC040=
201106171120 TAF KCLM 171120Z 1712/1812 26005KT P6SM SCT120 FM171800 27005KT
                       P6SM SCT120 FM180000 30010KT P6SM SCT070
                       BKN120=
201106170520 TAF KCLM 170520Z 1706/1806 28010KT P6SM SKC FM171000 26005KT P6SM
                       SCT020
                      TEMPO 1710/1714 BKN020 FM171800 27005KT P6SM
                       SCT050 SCT200=
201106162331 TAF KCLM 162331Z 1700/1724 31012G21KT P6SM SCT030 FM171000 26005KT
                       P6SM OVC015 FM171800 27005KT P6SM SCT200=
201106161737 TAF KCLM 161737Z 1618/1718 32011G17KT P6SM SKC FM162000 26009KT
                       P6SM SCT060 FM170000 27012KT P6SM SKC FM170700
                       26005KT P6SM SKC FM171200 27005KT P6SM BKN015=
201106161120 TAF KCLM 161120Z 1612/1712 29007KT P6SM BKN060 FM162000 26009KT
                       P6SM SCT030 SCT060 FM170000 27012KT P6SM
                       SKC FM170700 26005KT P6SM SKC=
201106160520 TAF KCLM 160520Z 1606/1706 29006KT P6SM SKC
                      TEMPO 1609/1613 BKN015 FM161300 27004KT P6SM
                       BKN015 OVC040 FM162000 26009KT P6SM SCT030
                       BKN060=
201106152325 TAF KCLM 152325Z 1600/1624 31013G19KT P6SM SCT045 FM160500 29006KT
                       P6SM SCT025 BKN040 FM161200 27004KT P6SM
                       BKN015 OVC040 FM162000 24012KT P6SM SCT030
                       BKN060=
201106151740 TAF KCLM 151740Z 1518/1618 31011KT P6SM VCSH SCT050 BKN200 FM160000
                       30010G19KT P6SM SCT050 BKN200 FM160500 29006KT
                       P6SM SCT025 BKN040 FM161200 27004KT P6SM
                       BKN015 OVC040=
201106151120 TAF KCLM 151120Z 1512/1612 31006KT P6SM VCSH SCT045 SCT200 FM160000
                       30010G19KT P6SM SCT045 FM160500 29006KT
                       P6SM BKN015 BKN040=
201106150902 TAF AMD KCLM 150902Z 1509/1606 28010G17KT P6SM VCSH OVC045 FM152200
                       30008KT P6SM SCT050 SCT250=
201106150523 TAF KCLM 150523Z 1506/1606 29007KT P6SM SCT040 BKN120 FM150800
                       27009KT P6SM VCSH BKN030 BKN120 FM152200
                       30008KT P6SM SCT050 SCT250=
201106150251 KCLM 150251Z 1503/1524 30009G16KT P6SM BKN030 OVC040 FM150700 27009KT
                       P6SM VCSH OVC025 FM151600 30011KT P6SM BKN025
                       BKN200 FM152200 32008KT P6SM SCT250=
201106142325 TAF KCLM 142325Z 1500/1524 28008KT P6SM OVC016 FM150400 28010G17KT
                       P6SM BKN015 OVC050 FM150700 27009KT P6SM
                       VCSH OVC025 FM151600 30011KT P6SM BKN025
                       BKN200 FM152200 32008KT P6SM SCT250=
201106141733 TAF KCLM 141733Z 1418/1518 31009KT P6SM SCT040 BKN050 FM142300
                       30012G19KT P6SM BKN050 FM150400 28010G17KT
                       P6SM OVC050 FM150700 27009KT P6SM VCSH OVC025
                       FM151600 30011KT P6SM BKN025=
201106141601 KCLM 141601Z 1416/1512 31010KT P6SM SCT045 FM150000 30014G24KT
                       P6SM VCSH BKN030=
201106141120 TAF KCLM 141120Z 1412/1512 28005KT P6SM OVC029 FM141900 27007KT
                       P6SM SCT030 FM150000 30014G24KT P6SM VCSH
                       BKN030=
201106140839 KCLM 140839Z 1409/1506 28004KT P6SM SCT008 BKN027 FM141900 27007KT
                       P6SM SCT030 FM150000 30014G24KT P6SM BKN030=
201106140520 TAF KCLM 140520Z 1406/1506 31007KT P6SM OVC008 FM141200 VRB04KT
                       P6SM BKN008 FM141900 27007KT P6SM SCT030
                       FM150000 30014G24KT P6SM BKN030=
201106140405 KCLM 140405Z 1404/1424 31010G18KT P6SM BKN010 OVC025 FM140800 30010KT
                       P6SM BKN010 BKN040 FM141200 VRB04KT P6SM
                       BKN010 FM141900 27007KT P6SM SCT030=
201106132320 TAF KCLM 132320Z 1400/1424 31012G20KT P6SM SCT020 BKN040
                      TEMPO 1400/1404 BKN018 BKN030 FM140600 30010KT
                       P6SM BKN020 BKN040 FM141200 VRB04KT P6SM
                       BKN025 FM141900 27007KT P6SM SCT030=
201106131907 KCLM 131907Z 1319/1418 30012KT P6SM VCSH SCT006 BKN015 OVC030
                      TEMPO 1319/1321 -SHRA BKN006 OVC015 FM140000
                       29012G20KT P6SM SCT020 BKN040 FM140600 26008KT
                       P6SM BKN020=
201106131725 TAF KCLM 131725Z 1318/1418 27012KT P6SM VCSH SCT025 BKN050
                      TEMPO 1320/1324 -SHRA BKN025 OVC050 FM140000
                       29012G20KT P6SM SCT025 BKN050 FM140600 26008KT
                       P6SM BKN020=
201106131120 TAF KCLM 131120Z 1312/1412 00000KT P6SM SCT015 OVC060
                      TEMPO 1312/1316 BKN015 OVC060 FM131600 27004KT
                       P6SM -SHRA BKN025 OVC040 FM132200 31009KT
                       P6SM VCSH BKN050 FM140100 29012G20KT P6SM
                       SCT050 FM140600 26008KT P6SM BKN020=
201106131042 KCLM 131042Z 1311/1406 00000KT P6SM SCT013 OVC080 FM131600 27004KT
                       P6SM -SHRA BKN025 OVC040 FM132200 31009KT
                       P6SM VCSH BKN050=
201106130522 TAF KCLM 130522Z 1306/1406 25005KT P6SM -RA BKN018 OVC050 FM131600
                       27004KT P6SM -SHRA BKN025 OVC040 FM132200
                       31009KT P6SM VCSH BKN050=
201106122327 TAF KCLM 122327Z 1300/1324 30008KT P6SM BKN060 OVC090 FM130100
                       27008KT P6SM VCSH SCT030 OVC060 FM130400
                       VRB04KT P6SM -RA BKN030 OVC060 FM131400
                       27004KT P6SM -SHRA OVC025 FM132200 31009KT
                       P6SM VCSH BKN040=
201106121736 TAF KCLM 121736Z 1218/1318 30005KT P6SM SCT200 FM130100 27008KT
                       P6SM SCT060 BKN100 FM130500 VRB04KT P6SM
                       BKN040 OVC060 FM131000 VRB03KT P6SM VCSH
                       OVC025=
201106121120 TAF KCLM 121120Z 1212/1312 25004KT P6SM SCT030 SCT090 FM121900
                       30008KT P6SM SCT050 SCT090 FM130000 27008KT
                       P6SM OVC080 FM130600 24005KT P6SM BKN035
                       OVC060=
201106120524 TAF KCLM 120524Z 1206/1306 27007KT P6SM SCT070 FM120800 30006KT
                       P6SM OVC035 FM121900 30008KT P6SM SCT045
                       FM130000 27008KT P6SM OVC080=
201106112320 TAF KCLM 112320Z 1200/1224 30010KT P6SM SCT045 FM120800 30006KT
                       P6SM OVC035 FM121900 30008KT P6SM SCT045=
201106111738 TAF KCLM 111738Z 1118/1218 29008KT P6SM OVC040 FM112300 29008KT
                       P6SM SCT045 FM120800 29006KT P6SM OVC035=
201106111259 KCLM 111259Z 1113/1212 27005KT P6SM OVC035 FM111900 27006KT P6SM
                       SCT020 BKN040 FM112300 28009KT P6SM SCT040=
201106111120 TAF KCLM 111120Z 1112/1212 27006KT P6SM SCT025 OVC050
                      TEMPO 1112/1114 BKN025 OVC050 FM111400 26005KT
                       P6SM BKN020 OVC040 FM111900 27006KT P6SM
                       SCT020 BKN040 FM112300 28009KT P6SM SCT040=
201106110909 KCLM 110909Z 1109/1206 30007KT P6SM SCT026 SCT040 OVC050 FM111200
                       28005KT P6SM BKN020 OVC040 FM111900 27006KT
                       P6SM SCT020 BKN040 FM112300 28009KT P6SM
                       SCT040=
201106110725 KCLM 110725Z 1107/1206 28005KT P6SM OVC026 FM111100 28005KT P6SM
                       OVC018 FM111900 27006KT P6SM SCT020 BKN035
                       FM112300 28009KT P6SM SCT040=
201106110527 TAF KCLM 110527Z 1106/1206 27006KT P6SM OVC026 FM110700 27006KT
                       P6SM OVC015 FM111900 27006KT P6SM SCT020
                       BKN035 FM112300 28009KT P6SM SCT040=
201106102336 TAF KCLM 102336Z 1100/1124 29010KT P6SM SCT025 BKN040 FM110700
                       27006KT P6SM OVC015 FM111900 27006KT P6SM
                       SCT020 BKN035=
201106101736 TAF KCLM 101736Z 1018/1118 29008KT P6SM OVC025 FM102200 29008KT
                       P6SM SCT025 BKN040 FM110100 29010G15KT P6SM
                       SCT025 BKN050 FM110700 27006KT P6SM OVC015=
201106101120 TAF KCLM 101120Z 1012/1112 27004KT P6SM OVC015 FM102000 31007KT
                       P6SM SCT025 BKN040 FM110100 27010G15KT P6SM
                       BKN050 FM110500 27007KT P6SM OVC015=
201106100520 TAF KCLM 100520Z 1006/1106 28006KT P6SM BKN015 BKN120 FM100700
                       28008KT P6SM BKN015 OVC200 FM102000 31007KT
                       P6SM SCT025 BKN040=
201106092320 TAF KCLM 092320Z 1000/1024 29007KT P6SM BKN025 OVC200 FM100700
                       28008KT P6SM BKN015 OVC200 FM102000 31007KT
                       P6SM SCT025 BKN030=
201106092118 KCLM 092118Z 0921/1018 VRB03KT P6SM BKN015 OVC030 FM100000 30008KT
                       P6SM SCT015 BKN030 FM100700 28008KT P6SM
                       OVC020=
201106091740 TAF KCLM 091740Z 0918/1018 VRB03KT P6SM BKN015 OVC030 FM092000
                       VRB03KT P6SM SCT015 OVC030 FM092200 33005KT
                       P6SM FEW015 BKN030 FM100000 30008KT P6SM
                       FEW015 SCT030 FM100700 28008KT P6SM OVC020=
201106091531 KCLM 091531Z 0916/1012 VRB03KT P6SM OVC009 FM091700 34004KT P6SM
                       OVC012 FM092000 34005KT P6SM FEW012 SCT030
                       SCT050 FM100000 31008KT P6SM BKN090 BKN250
                       FM100700 28008KT P6SM BKN050=
201106091120 TAF KCLM 091120Z 0912/1012 24003KT P6SM OVC012 FM091700 34005KT
                       P6SM SCT030 SCT050 FM092100 31008KT P6SM
                       BKN090 BKN250 FM100700 28008KT P6SM BKN050=
201106090523 TAF KCLM 090523Z 0906/1006 29006KT P6SM OVC012 FM091700 34005KT
                       P6SM SCT030 SCT050 FM092100 31008KT P6SM
                       SCT035 BKN050=
201106082323 TAF KCLM 082323Z 0900/0924 30005KT P6SM SKC FM090200 28008KT P6SM
                       SKC FM091200 28007KT P6SM BKN025 FM091700
                       34005KT P6SM SCT030 SCT050 FM092100 31008KT
                       P6SM SCT035 BKN050=
201106081742 TAF KCLM 081742Z 0818/0918 34006KT P6SM SKC FM082200 30008KT P6SM
                       SKC FM090100 28012KT P6SM SKC FM090600 28009KT
                       P6SM SKC FM091200 28007KT P6SM BKN025 FM091700
                       34005KT P6SM SCT250=
201106081120 TAF KCLM 081120Z 0812/0912 28011KT P6SM FEW070 OVC120 FM081300
                       27006KT P6SM OVC050 FM081600 28004KT P6SM
                       OVC025 FM081800 26006KT P6SM BKN035 FM082100
                       28009KT P6SM SCT050 FM090800 28007KT P6SM
                       OVC015=
201106080522 TAF KCLM 080522Z 0806/0906 28009KT P6SM SCT090 OVC120 FM080900
                       26006KT P6SM OVC020 FM081800 26006KT P6SM
                       BKN035 FM082100 28009KT P6SM SCT050=
201106072329 TAF KCLM 072329Z 0800/0824 32010G20KT P6SM BKN045 FM080900 26006KT
                       P6SM OVC020 FM081800 26006KT P6SM BKN035
                       FM082100 30009KT P6SM SCT050=
201106071720 TAF KCLM 071720Z 0718/0818 29008KT P6SM BKN040 FM072200 29010KT
                       P6SM BKN045 FM080900 26006KT P6SM OVC020=
201106071120 TAF KCLM 071120Z 0712/0812 25004KT P6SM OVC020
                      TEMPO 0712/0715 OVC010 FM071600 29008KT P6SM
                       OVC035 FM072200 29010KT P6SM BKN045 FM080900
                       26006KT P6SM OVC020=
201106070550 TAF KCLM 070550Z 0706/0806 28011G18KT P6SM SKC
                      TEMPO 0706/0709 BKN015 FM070900 26007KT P6SM
                       OVC015
                      TEMPO 0712/0715 OVC010 FM071600 29008KT P6SM
                       OVC035 FM072000 29010KT P6SM BKN045=
201106062320 TAF KCLM 062320Z 0700/0724 29012G20KT P6SM FEW100 SCT250
                      TEMPO 0706/0709 BKN015 FM070900 26007KT P6SM
                       OVC015
                      TEMPO 0712/0715 OVC010 FM071600 29008KT P6SM
                       OVC035 FM072000 29010KT P6SM BKN045=
201106061732 TAF KCLM 061732Z 0618/0718 35005KT P6SM SCT250 FM070000 28012KT
                       P6SM SCT250 FM070900 27010KT P6SM OVC020
                       TEMPO 0712/0716 OVC008 FM071700 30010KT
                       P6SM BKN025=
201106061120 TAF KCLM 061120Z 0612/0712 28007KT P6SM FEW008 BKN200
                      TEMPO 0613/0617 BKN008 BKN200 FM061800 31012KT
                       P6SM SCT200 FM070200 28012KT P6SM FEW025
                       FM070600 25009KT P6SM SCT025
                      TEMPO 0706/0709 BKN025 FM070900 25009KT P6SM
                       OVC020=
201106060541 TAF KCLM 060541Z 0606/0706 27006KT P6SM OVC200 FM061000 25006KT
                       P6SM FEW009 BKN200
                      TEMPO 0612/0614 BKN009 BKN200 FM061400 28007KT
                       P6SM BKN013 BKN200 FM062000 31012KT P6SM
                       SCT200 FM070200 28012KT P6SM FEW025=
201106060308 TAF AMD KCLM 060308Z 0603/0624 28008KT P6SM SCT100 BKN200 FM060800
                       25006KT P6SM SCT010 BKN250
                      TEMPO 0610/0614 BKN010 FM061800 27009KT P6SM
                       SCT030 SCT250=
201106052320 TAF KCLM 052320Z 0600/0624 07006KT P6SM SCT130 SCT200 FM060300
                       28009KT P6SM SCT100 SCT200 FM060800 25006KT
                       P6SM SCT010 BKN250
                      TEMPO 0610/0614 BKN010 FM061800 27009KT P6SM
                       SCT030 SCT250=
201106051720 TAF KCLM 051720Z 0518/0618 10007KT P6SM SCT250 FM060100 28009KT
                       P6SM SCT250 FM060800 25006KT P6SM SCT010
                       BKN250
                      TEMPO 0610/0614 BKN010=
201106051123 TAF KCLM 051123Z 0512/0612 25006KT P6SM SKC FM051800 33009KT P6SM
                       SCT250 FM060100 28009KT P6SM SCT250 FM061000
                       25006KT P6SM SCT010 BKN250=
201106050520 TAF KCLM 050520Z 0506/0606 VRB03KT P6SM FEW250 FM051800 33009KT
                       P6SM SCT250 FM060000 28009KT P6SM BKN250=
201106042320 TAF KCLM 042320Z 0500/0524 07007KT P6SM SKC FM050200 29006KT P6SM
                       SKC FM050900 25005KT P6SM SKC FM051400 03004KT
                       P6SM SKC FM052300 30005KT P6SM SKC=
201106041720 TAF KCLM 041720Z 0418/0518 06008KT P6SM SKC FM050200 29006KT P6SM
                       SKC FM050900 25005KT P6SM SKC FM051400 03004KT
                       P6SM SKC=
201106041120 TAF KCLM 041120Z 0412/0512 VRB03KT P6SM SKC FM041700 05008KT P6SM
                       SKC FM042100 35008KT P6SM SKC FM050200 29006KT
                       P6SM SKC FM050900 25005KT P6SM VCFG FEW006=
201106040520 TAF KCLM 040520Z 0406/0506 VRB03KT P6SM SKC FM041700 05008KT P6SM
                       SKC FM042100 35008KT P6SM SKC FM050200 29006KT
                       P6SM SKC=
201106032320 TAF KCLM 032320Z 0400/0424 04006KT P6SM SCT250 FM040600 VRB04KT
                       P6SM SKC FM041700 04007KT P6SM SKC=
201106031720 TAF KCLM 031720Z 0318/0418 05008KT P6SM FEW020 SCT250 FM032100
                       02008KT P6SM SCT250 FM040300 28005KT P6SM
                       SKC FM041400 04005KT P6SM SKC=
201106031120 TAF KCLM 031120Z 0312/0412 VRB03KT P6SM SCT020 SCT050
                      TEMPO 0312/0316 BKN020 BKN050 FM031800 02008KT
                       P6SM SCT250 FM032100 35009KT P6SM SCT250
                       FM040300 28005KT P6SM SKC=
201106031007 KCLM 031007Z 0310/0406 VRB03KT P6SM SCT020
                      TEMPO 0310/0314 BKN020 FM031800 02006KT P6SM
                       FEW050 SCT250 FM032000 35009KT P6SM SCT250
                       FM040300 29006KT P6SM SKC=
201106030902 KCLM 030902Z 0309/0406 VRB03KT P6SM BKN020 FM031800 02006KT P6SM
                       FEW050 SCT250 FM032000 35009KT P6SM SCT250
                       FM040300 29006KT P6SM SKC=
201106030520 TAF KCLM 030520Z 0306/0406 VRB03KT P6SM VCSH SCT035 BKN070
                      TEMPO 0306/0309 BKN035 BKN070 FM030900 VRB03KT
                       P6SM SCT025
                      TEMPO 0311/0315 BKN025 FM031800 02006KT P6SM
                       FEW050 SCT250 FM032000 35009KT P6SM SCT250
                       FM040300 29006KT P6SM SKC=
201106022320 TAF KCLM 022320Z 0300/0324 32006KT P6SM VCSH SCT030 OVC070
                      TEMPO 0300/0304 BKN030 OVC070 FM030400 24005KT
                       P6SM SCT035 BKN070 FM031200 24005KT P6SM
                       BKN025 BKN070 FM031700 36005KT P6SM SCT060
                       FM032100 01007KT P6SM SKC=
201106021742 TAF KCLM 021742Z 0218/0318 33004KT P6SM SCT030 BKN050
                      TEMPO 0218/0222 -SHRA BKN030 OVC050 FM022200
                       30006KT P6SM SCT035 OVC050
                      TEMPO 0222/0302 -SHRA BKN035 OVC050 FM030200
                       24005KT P6SM VCSH SCT035 BKN050 FM030600
                       24005KT P6SM BKN025 OVC060 FM031700 34005KT
                       P6SM SCT060=
201106021619 KCLM 021619Z 0216/0312 30004KT P6SM SCT025 OVC050
                      TEMPO 0216/0220 -SHRA BKN025 OVC050 FM022000
                       VRB03KT P6SM -SHRA BKN025 OVC050 FM030200
                       VRB03KT P6SM VCSH BKN035 BKN050 FM030600
                       VRB03KT P6SM OVC020=
201106021134 TAF KCLM 021134Z 0212/0312 VRB03KT P6SM VCSH SCT020 OVC050
                      TEMPO 0212/0215 BKN020 OVC050 FM021500 VRB03KT
                       P6SM VCSH OVC020 FM022100 VRB03KT P6SM VCSH
                       BKN025 OVC050 FM030200 VRB03KT P6SM VCSH
                       BKN035 BKN050 FM030600 VRB03KT P6SM OVC020=
201106020520 TAF KCLM 020520Z 0206/0306 25005KT P6SM VCSH OVC050 FM020900 VRB03KT
                       P6SM VCSH SCT022 OVC040
                      TEMPO 0209/0212 BKN022 OVC040 FM021200 VRB03KT
                       P6SM VCSH OVC018 FM021800 VRB03KT P6SM VCSH
                       BKN018 OVC030 FM022100 VRB03KT P6SM VCSH
                       BKN025 OVC050 FM030200 VRB03KT P6SM VCSH
                       BKN035 BKN050=
201106020304 KCLM 020304Z 0203/0224 27008KT P6SM VCSH SCT050 OVC130
                      TEMPO 0204/0208 BKN050 OVC130 FM020800 28008KT
                       P6SM -SHRA BKN020 OVC050 FM021800 26005KT
                       P6SM VCSH SCT030 BKN050=
201106012321 TAF KCLM 012321Z 0200/0224 29012G20KT P6SM SCT030 BKN060 FM020800
                       28008KT P6SM -SHRA BKN020 OVC050 FM021800
                       26005KT P6SM VCSH SCT030 BKN050=
201106011735 TAF KCLM 011735Z 0118/0218 32007KT P6SM SCT025 BKN050 FM012200
                       29010KT P6SM VCSH SCT030 BKN050 FM020600
                       28008KT P6SM VCSH SCT025 OVC050 FM021200
                       26005KT P6SM VCSH OVC020=
201106011626 KCLM 011626Z 0116/0212 28004KT P6SM VCSH OVC050 FM020000 28013KT
                       P6SM VCSH BKN022 OVC040 FM020600 28008KT
                       P6SM VCSH SCT025 OVC050 FM021000 26005KT
                       P6SM VCSH OVC020=
201106011130 TAF KCLM 011130Z 0112/0212 28006KT P6SM BKN030 OVC045 FM011800
                       32011KT P6SM VCSH OVC020 FM020000 28013KT
                       P6SM VCSH BKN022 OVC040 FM020600 28008KT
                       P6SM VCSH SCT025 OVC050 FM021000 26005KT
                       P6SM VCSH OVC020=
201106010535 TAF KCLM 010535Z 0106/0206 27004KT P6SM VCSH BKN050 OVC080 FM011100
                       24005KT P6SM VCSH BKN015 OVC030 FM011800
                       31005KT P6SM VCSH SCT030 BKN050=