##########################################################
# Query made at 02/16/2025 01:59:18 UTC
# Time interval: from 04/01/2011 00:00  to 04/30/2011 23:59  UTC
##########################################################

##########################################################
# KCLM, Port Angeles, William R. Fairchild International Airport (United States)
# WMO index: -----. WIGOS ID: Unknown
# Latitude 48-07-20N. Longitude 123-30-19W. Altitude 87 m.
##########################################################

###################################
#  METAR/SPECI from KCLM
###################################
201104302353 METAR KCLM 302353Z AUTO 31009KT 10SM OVC048 11/03 A3046 RMK AO2 SLP317 T01110033 10122 20094 58009=
201104302253 METAR KCLM 302253Z AUTO VRB05KT 10SM OVC049 11/02 A3047 RMK AO2 SLP321 T01110022=
201104302153 METAR KCLM 302153Z AUTO 36004KT 10SM BKN049 BKN065 11/M01 A3048 RMK AO2 SLP323 T01061011=
201104302053 METAR KCLM 302053Z AUTO VRB05KT 10SM SCT049 11/00 A3049 RMK AO2 SLP327 T01110000 54000=
201104301953 METAR KCLM 301953Z AUTO 35006KT 10SM FEW047 10/02 A3049 RMK AO2 SLP327 T01000017=
201104301853 METAR KCLM 301853Z AUTO VRB05KT 10SM FEW100 10/03 A3049 RMK AO2 SLP326 T01000028=
201104301753 METAR KCLM 301753Z AUTO 34009KT 10SM FEW100 09/03 A3049 RMK AO2 SLP326 T00940028 10100 20033 58003=
201104301653 METAR KCLM 301653Z AUTO 34010KT 10SM CLR 09/02 A3049 RMK AO2 SLP326 T00940017=
201104301553 METAR KCLM 301553Z AUTO 25004KT 10SM OVC060 08/01 A3050 RMK AO2 SLP330 T00780006=
201104301453 METAR KCLM 301453Z AUTO 26009KT 10SM CLR 05/M01 A3050 RMK AO2 SLP329 T00501011 53007=
201104301353 METAR KCLM 301353Z AUTO 25009KT 10SM CLR 04/M01 A3048 RMK AO2 SLP325 T00391011=
201104301253 METAR KCLM 301253Z AUTO 25012KT 10SM CLR 04/M01 A3047 RMK AO2 SLP322 T00391006=
201104301153 METAR KCLM 301153Z AUTO 26009KT 10SM CLR 04/M01 A3047 RMK AO2 SLP322 T00441006 10061 20039 55000=
201104301053 METAR KCLM 301053Z AUTO 25010KT 10SM CLR 04/M01 A3047 RMK AO2 SLP320 T00441006=
201104300953 METAR KCLM 300953Z AUTO 26010KT 10SM CLR 04/00 A3047 RMK AO2 SLP318 T00440000=
201104300853 METAR KCLM 300853Z AUTO 25011KT 10SM CLR 04/01 A3047 RMK AO2 SLP322 T00440006 51008=
201104300753 METAR KCLM 300753Z AUTO 26007KT 10SM CLR 05/01 A3047 RMK AO2 SLP322 T00500006 401110028=
201104300653 METAR KCLM 300653Z AUTO 25006KT 10SM CLR 04/01 A3046 RMK AO2 SLP316 T00440006=
201104300553 METAR KCLM 300553Z AUTO 30007KT 10SM CLR 06/01 A3045 RMK AO2 SLP314 T00610011 10106 20061 51013=
201104300453 METAR KCLM 300453Z AUTO 30009KT 10SM CLR 07/04 A3044 RMK AO2 SLP310 T00670039=
201104300353 METAR KCLM 300353Z AUTO 29011KT 10SM CLR 07/05 A3043 RMK AO2 SLP306 T00720050=
201104300253 METAR KCLM 300253Z AUTO 30010G18KT 10SM CLR 08/04 A3041 RMK AO2 SLP301 T00830039 51014=
201104300153 METAR KCLM 300153Z AUTO 30011KT 10SM FEW055 09/04 A3040 RMK AO2 SLP297 T00890044=
201104300053 METAR KCLM 300053Z AUTO 31014G19KT 10SM CLR 10/03 A3039 RMK AO2 SLP293 T01000028=
201104292353 METAR KCLM 292353Z AUTO 31015G22KT 10SM CLR 10/03 A3037 RMK AO2 SLP287 T01000028 10111 20089 52006=
201104292253 METAR KCLM 292253Z AUTO 32012G19KT 10SM CLR 10/03 A3036 RMK AO2 SLP284 T01000033=
201104292153 METAR KCLM 292153Z AUTO 32014G20KT 10SM CLR 10/03 A3036 RMK AO2 SLP283 T01000033=
201104292053 METAR KCLM 292053Z AUTO 30007G15KT 270V330 10SM CLR 11/04 A3035 RMK AO2 SLP281 T01060044 50008=
201104291953 METAR KCLM 291953Z AUTO 31011G20KT 280V340 10SM CLR 10/04 A3036 RMK AO2 SLP281 T01000044=
201104291853 METAR KCLM 291853Z AUTO 32011G17KT 10SM CLR 09/04 A3034 RMK AO2 SLP277 T00940039=
201104291753 METAR KCLM 291753Z AUTO 32008KT 10SM CLR 09/04 A3033 RMK AO2 SLP273 T00940044 10094 20028 53012=
201104291653 METAR KCLM 291653Z AUTO VRB06G14KT 10SM CLR 09/02 A3031 RMK AO2 SLP266 T00890022=
201104291553 METAR KCLM 291553Z AUTO 26009KT 10SM CLR 07/M01 A3030 RMK AO2 SLP261 T00721006=
201104291453 METAR KCLM 291453Z AUTO 24011KT 10SM CLR 05/M01 A3030 RMK AO2 SLP261 T00501011 51017=
201104291353 METAR KCLM 291353Z AUTO 24011KT 10SM CLR 03/M01 A3028 RMK AO2 SLP257 T00281011=
201104291253 METAR KCLM 291253Z AUTO 25012KT 10SM OVC055 03/M01 A3027 RMK AO2 SLP251 T00281011=
201104291153 METAR KCLM 291153Z AUTO 25010KT 10SM BKN048 03/M01 A3025 RMK AO2 SLP244 70003 T00281006 10039 20028 53013=
201104291053 METAR KCLM 291053Z AUTO 25009KT 10SM FEW039 03/M01 A3023 RMK AO2 SLP239 T00281006=
201104290953 METAR KCLM 290953Z AUTO 25009KT 10SM CLR 04/M01 A3022 RMK AO2 SLP234 T00391006=
201104290853 METAR KCLM 290853Z AUTO 25007KT 10SM CLR 03/00 A3021 RMK AO2 SLP231 T00330000 51017=
201104290753 METAR KCLM 290753Z AUTO 25007KT 10SM CLR 04/01 A3020 RMK AO2 SLP228 T00390006 400940028=
201104290653 METAR KCLM 290653Z AUTO 27006KT 10SM CLR 03/01 A3018 RMK AO2 SLP221 T00330006=
201104290553 METAR KCLM 290553Z AUTO 23003KT 10SM CLR 03/02 A3016 RMK AO2 SLP214 T00330017 10094 20033 52005=
201104290453 METAR KCLM 290453Z AUTO 00000KT 10SM BKN060 04/02 A3016 RMK AO2 SLP214 T00390022=
201104290414 SPECI KCLM 290414Z AUTO 24003KT 10SM FEW026 SCT031 BKN060 05/02 A3015 RMK AO2=
201104290414 SPECI KCLM 290414Z AUTO 24003KT 10SM FEW026 SCT031 BKN060 05/02 A3015 RMK AO2=
201104290353 METAR KCLM 290353Z AUTO 29006KT 10SM OVC029 06/02 A3014 RMK AO2 SLP209 T00560022=
201104290351 SPECI KCLM 290351Z AUTO 29005KT 10SM OVC029 06/03 A3014 RMK AO2=
201104290351 SPECI KCLM 290351Z AUTO 29005KT 10SM OVC029 06/03 A3014 RMK AO2=
201104290253 METAR KCLM 290253Z AUTO 30003KT 10SM SCT039 07/02 A3012 RMK AO2 SLP200 T00670022 53008=
201104290153 METAR KCLM 290153Z AUTO 35004KT 10SM FEW031 BKN055 08/02 A3011 RMK AO2 SLP197 T00780017=
201104290053 METAR KCLM 290053Z AUTO 06004KT 10SM FEW032 09/02 A3010 RMK AO2 SLP193 T00890017=
201104282353 METAR KCLM 282353Z AUTO 00000KT 10SM SCT070 BKN090 08/03 A3009 RMK AO2 RAB17E31 SLP192 P0000 60002 T00830028 10094 20067 51004=
201104282253 METAR KCLM 282253Z AUTO VRB03KT 10SM FEW024 OVC043 08/03 A3009 RMK AO2 RAB28E52 SLP191 P0000 T00780028=
201104282153 METAR KCLM 282153Z AUTO VRB03KT 10SM FEW070 09/02 A3008 RMK AO2 RAB04E35 SLP188 P0000 T00940022=
201104282053 METAR KCLM 282053Z AUTO 00000KT 10SM SCT047 BKN075 08/02 A3008 RMK AO2 RAE09 SLP188 P0001 60002 T00780017 51004=
201104281953 METAR KCLM 281953Z AUTO 08003KT 10SM -RA BKN045 OVC060 07/03 A3008 RMK AO2 RAB41 SLP188 P0001 T00670033=
201104281853 METAR KCLM 281853Z AUTO 07006KT 10SM FEW035 SCT044 BKN050 09/02 A3007 RMK AO2 SLP185 T00890017=
201104281753 METAR KCLM 281753Z AUTO 27007KT 250V310 10SM SCT028 BKN036 BKN065 08/02 A3007 RMK AO2 SLP183 60001 T00830017 10089 20033 53012=
201104281737 SPECI KCLM 281737Z AUTO 00000KT 10SM BKN028 BKN036 OVC060 08/02 A3006 RMK AO2=
201104281737 SPECI KCLM 281737Z AUTO 00000KT 10SM BKN028 BKN036 OVC060 08/02 A3006 RMK AO2=
201104281653 METAR KCLM 281653Z AUTO 00000KT 10SM BKN060 09/02 A3004 RMK AO2 SLP175 T00890022=
201104281553 METAR KCLM 281553Z AUTO 18003KT 10SM CLR 07/03 A3004 RMK AO2 SLP173 T00720033=
201104281453 METAR KCLM 281453Z AUTO 27006KT 10SM BKN044 06/02 A3003 RMK AO2 SLP171 60001 T00560017 53013=
201104281353 METAR KCLM 281353Z AUTO 24004KT 10SM BKN070 OVC090 04/02 A3001 RMK AO2 RAE30 SLP166 P0000 T00390017=
201104281253 METAR KCLM 281253Z AUTO 19004KT 10SM -RA BKN032 BKN045 OVC060 03/02 A3000 RMK AO2 RAB22 SLP161 P0001 T00330017=
201104281153 METAR KCLM 281153Z AUTO 29008KT 10SM FEW028 SCT042 BKN055 03/01 A2999 RMK AO2 RAE1057 SLP158 P0000 60004 70020 T00330011 10050 20022 53004=
201104281053 METAR KCLM 281053Z AUTO 00000KT 10SM -RA BKN043 BKN055 OVC080 03/02 A2998 RMK AO2 SLP153 P0003 T00330017=
201104281036 SPECI KCLM 281036Z AUTO 26009KT 10SM BKN034 BKN047 OVC075 03/01 A2999 RMK AO2 RAE31 P0002=
201104281036 SPECI KCLM 281036Z AUTO 26009KT 10SM BKN034 BKN047 OVC075 03/01 A2999 RMK AO2 RAE31 P0002=
201104280953 METAR KCLM 280953Z AUTO 21004KT 9SM -RA BKN022 BKN034 OVC050 04/02 A2998 RMK AO2 RAE03B36 SLP153 P0000 T00390017=
201104280951 SPECI KCLM 280951Z AUTO 22005KT 9SM -RA BKN022 BKN034 OVC050 04/02 A2998 RMK AO2 RAE03B36 P0000=
201104280951 SPECI KCLM 280951Z AUTO 22005KT 9SM -RA BKN022 BKN034 OVC050 04/02 A2998 RMK AO2 RAE03B36 P0000=
201104280853 METAR KCLM 280853Z AUTO 15004KT 10SM -RA BKN034 OVC100 04/02 A2995 RMK AO2 RAB39 SLP145 P0001 60001 T00390017 50002=
201104280753 METAR KCLM 280753Z AUTO 22003KT 10SM BKN060 BKN090 03/02 A2996 RMK AO2 SLP149 T00330017 400940022=
201104280721 SPECI KCLM 280721Z AUTO 24004KT 10SM SCT010 SCT045 OVC060 05/01 A2996 RMK AO2=
201104280721 SPECI KCLM 280721Z AUTO 24004KT 10SM SCT010 SCT045 OVC060 05/01 A2996 RMK AO2=
201104280653 METAR KCLM 280653Z AUTO 00000KT 10SM BKN010 BKN100 03/01 A2996 RMK AO2 SLP147 T00280011=
201104280553 METAR KCLM 280553Z AUTO 00000KT 10SM BKN100 04/01 A2995 RMK AO2 SLP143 60001 T00390011 10061 20033 53002=
201104280453 METAR KCLM 280453Z AUTO 20007KT 10SM SCT100 SCT120 04/02 A2994 RMK AO2 SLP141 T00440017=
201104280353 METAR KCLM 280353Z AUTO 21005KT 10SM OVC085 04/02 A2994 RMK AO2 SLP139 P0001 T00440017=
201104280253 METAR KCLM 280253Z AUTO 26006KT 10SM OVC085 04/03 A2994 RMK AO2 SLP142 60000 T00440028 58005=
201104280153 METAR KCLM 280153Z AUTO 27004KT 10SM FEW050 SCT090 06/03 A2995 RMK AO2 RAB0059E41 SLP143 P0000 T00560033=
201104280144 SPECI KCLM 280144Z AUTO 23005KT 10SM FEW027 05/03 A2995 RMK AO2 RAB0059E41 P0000=
201104280144 SPECI KCLM 280144Z AUTO 23005KT 10SM FEW027 05/03 A2995 RMK AO2 RAB0059E41 P0000=
201104280114 SPECI KCLM 280114Z AUTO 28010KT 10SM -RA SCT013 BKN020 OVC033 06/04 A2996 RMK AO2 RAB0059 P0000=
201104280114 SPECI KCLM 280114Z AUTO 28010KT 10SM -RA SCT013 BKN020 OVC033 06/04 A2996 RMK AO2 RAB0059 P0000=
201104280053 METAR KCLM 280053Z AUTO 28011G16KT 10SM BKN045 06/03 A2996 RMK AO2 RAE16 SLP148 P0000 T00560033=
201104280021 SPECI KCLM 280021Z AUTO VRB03KT 10SM BKN032 BKN060 06/03 A2995 RMK AO2 RAE16 P0000=
201104280021 SPECI KCLM 280021Z AUTO VRB03KT 10SM BKN032 BKN060 06/03 A2995 RMK AO2 RAE16 P0000=
201104272353 METAR KCLM 272353Z AUTO 25007KT 10SM -RA OVC028 05/03 A2996 RMK AO2 RAB2257 SLP147 P0000 60015 T00500033 10094 20050 56004=
201104272324 SPECI KCLM 272324Z AUTO 27009KT 10SM -RA BKN029 OVC034 06/03 A2997 RMK AO2 RAB2257 P0000=
201104272324 SPECI KCLM 272324Z AUTO 27009KT 10SM -RA BKN029 OVC034 06/03 A2997 RMK AO2 RAB2257 P0000=
201104272253 METAR KCLM 272253Z AUTO 26009KT 10SM BKN033 06/04 A2996 RMK AO2 RAE47 SLP149 P0003 T00610044=
201104272243 SPECI KCLM 272243Z AUTO 24005KT 10SM -RA BKN028 07/04 A2996 RMK AO2 P0002=
201104272243 SPECI KCLM 272243Z AUTO 24005KT 10SM -RA BKN028 07/04 A2996 RMK AO2 P0002=
201104272230 SPECI KCLM 272230Z AUTO 17005KT 10SM -RA BKN030 OVC041 07/04 A2996 RMK AO2 P0002=
201104272230 SPECI KCLM 272230Z AUTO 17005KT 10SM -RA BKN030 OVC041 07/04 A2996 RMK AO2 P0002=
201104272153 METAR KCLM 272153Z AUTO 00000KT 4SM -RA BR FEW006 BKN018 OVC025 05/04 A2997 RMK AO2 SLP152 P0005 T00500044=
201104272150 SPECI KCLM 272150Z AUTO 00000KT 4SM -RA BR SCT006 BKN018 OVC025 05/04 A2998 RMK AO2 P0004=
201104272150 SPECI KCLM 272150Z AUTO 00000KT 4SM -RA BR SCT006 BKN018 OVC025 05/04 A2998 RMK AO2 P0004=
201104272126 SPECI KCLM 272126Z AUTO 31005KT 5SM -RA BR BKN006 BKN013 OVC026 05/04 A2999 RMK AO2 P0003=
201104272126 SPECI KCLM 272126Z AUTO 31005KT 5SM -RA BR BKN006 BKN013 OVC026 05/04 A2999 RMK AO2 P0003=
201104272114 SPECI KCLM 272114Z AUTO 30005KT 10SM -RA FEW008 OVC026 06/04 A2999 RMK AO2 P0002=
201104272114 SPECI KCLM 272114Z AUTO 30005KT 10SM -RA FEW008 OVC026 06/04 A2999 RMK AO2 P0002=
201104272053 METAR KCLM 272053Z AUTO 29005KT 3SM -RA BR BKN021 OVC026 06/04 A2999 RMK AO2 SLP158 P0007 60007 T00560039 53003=
201104271953 METAR KCLM 271953Z AUTO 26009KT 10SM -RA OVC029 07/04 A2998 RMK AO2 RAB28 SLP153 P0000 T00720039=
201104271853 METAR KCLM 271853Z AUTO 00000KT 10SM CLR 09/05 A2996 RMK AO2 SLP148 T00890050=
201104271753 METAR KCLM 271753Z AUTO 11007KT 10SM BKN060 08/04 A2998 RMK AO2 SLP155 60000 T00830044 10089 20050 58018=
201104271653 METAR KCLM 271653Z AUTO 09007KT 10SM SCT014 09/05 A3001 RMK AO2 SLP162 T00890050=
201104271636 SPECI KCLM 271636Z AUTO 09008G16KT 10SM BKN014 08/05 A3001 RMK AO2=
201104271636 SPECI KCLM 271636Z AUTO 09008G16KT 10SM BKN014 08/05 A3001 RMK AO2=
201104271625 SPECI KCLM 271625Z AUTO 09009KT 10SM SCT015 09/06 A3001 RMK AO2=
201104271625 SPECI KCLM 271625Z AUTO 09009KT 10SM SCT015 09/06 A3001 RMK AO2=
201104271611 SPECI KCLM 271611Z AUTO 09007KT 10SM BKN016 08/06 A3001 RMK AO2=
201104271611 SPECI KCLM 271611Z AUTO 09007KT 10SM BKN016 08/06 A3001 RMK AO2=
201104271553 METAR KCLM 271553Z AUTO 11008KT 10SM FEW014 SCT019 08/06 A3001 RMK AO2 SLP166 T00830056=
201104271453 METAR KCLM 271453Z AUTO 14006KT 10SM BKN060 07/05 A3004 RMK AO2 SLP173 60000 T00670050 56009=
201104271437 SPECI KCLM 271437Z AUTO 21003KT 10SM SCT011 OVC060 06/04 A3005 RMK AO2=
201104271437 SPECI KCLM 271437Z AUTO 21003KT 10SM SCT011 OVC060 06/04 A3005 RMK AO2=
201104271353 METAR KCLM 271353Z AUTO 25003KT 10SM BKN011 OVC015 06/04 A3005 RMK AO2 SLP177 T00560044=
201104271253 METAR KCLM 271253Z AUTO 00000KT 10SM BKN013 OVC065 06/04 A3005 RMK AO2 RAB15E40 SLP176 P0000 T00560044=
201104271200 SPECI KCLM 271200Z AUTO 24003KT 10SM FEW008 BKN013 OVC017 06/05 A3006 RMK AO2=
201104271200 SPECI KCLM 271200Z AUTO 24003KT 10SM FEW008 BKN013 OVC017 06/05 A3006 RMK AO2=
201104271153 METAR KCLM 271153Z AUTO 00000KT 10SM BKN013 OVC018 06/05 A3006 RMK AO2 RAB10E19 SLP182 P0000 60000 70004 T00610050 10061 20044 57005=
201104271127 SPECI KCLM 271127Z AUTO 24003KT 10SM SCT013 BKN018 OVC030 06/04 A3006 RMK AO2 RAB10E19 P0000=
201104271127 SPECI KCLM 271127Z AUTO 24003KT 10SM SCT013 BKN018 OVC030 06/04 A3006 RMK AO2 RAB10E19 P0000=
201104271118 SPECI KCLM 271118Z AUTO 00000KT 10SM -RA BKN013 BKN018 OVC030 06/05 A3006 RMK AO2 RAB10 P0000=
201104271118 SPECI KCLM 271118Z AUTO 00000KT 10SM -RA BKN013 BKN018 OVC030 06/05 A3006 RMK AO2 RAB10 P0000=
201104271053 METAR KCLM 271053Z AUTO 00000KT 10SM BKN015 OVC080 06/05 A3007 RMK AO2 RAB0959E08 SLP183 P0000 T00610050=
201104270953 METAR KCLM 270953Z AUTO 00000KT 10SM OVC019 06/06 A3007 RMK AO2 SLP185 T00610056=
201104270853 METAR KCLM 270853Z AUTO 00000KT 10SM OVC024 06/05 A3008 RMK AO2 SLP186 T00560050 58007=
201104270832 SPECI KCLM 270832Z AUTO 23003KT 10SM BKN026 OVC070 06/04 A3008 RMK AO2=
201104270832 SPECI KCLM 270832Z AUTO 23003KT 10SM BKN026 OVC070 06/04 A3008 RMK AO2=
201104270753 METAR KCLM 270753Z AUTO 00000KT 10SM OVC080 05/04 A3009 RMK AO2 SLP192 T00500044 401110033=
201104270653 METAR KCLM 270653Z AUTO 00000KT 10SM FEW019 BKN080 05/04 A3010 RMK AO2 SLP196 T00500044=
201104270645 SPECI KCLM 270645Z AUTO 21003KT 10SM SCT026 BKN080 05/04 A3010 RMK AO2=
201104270645 SPECI KCLM 270645Z AUTO 21003KT 10SM SCT026 BKN080 05/04 A3010 RMK AO2=
201104270616 SPECI KCLM 270616Z AUTO 24003KT 10SM BKN026 05/04 A3010 RMK AO2=
201104270616 SPECI KCLM 270616Z AUTO 24003KT 10SM BKN026 05/04 A3010 RMK AO2=
201104270601 SPECI KCLM 270601Z AUTO 19004KT 3SM BR FEW028 05/04 A3010 RMK AO2=
201104270601 SPECI KCLM 270601Z AUTO 19004KT 3SM BR FEW028 05/04 A3010 RMK AO2=
201104270553 METAR KCLM 270553Z AUTO 18004KT 1SM BR CLR 04/04 A3010 RMK AO2 VIS 1/2V3 RAE16 SLP194 P0000 60004 T00440039 10089 20044 58005=
201104270550 SPECI KCLM 270550Z AUTO 00000KT 3/4SM BR CLR 05/04 A3010 RMK AO2 VIS 1/2V3 RAE16 P0000=
201104270550 SPECI KCLM 270550Z AUTO 00000KT 3/4SM BR CLR 05/04 A3010 RMK AO2 VIS 1/2V3 RAE16 P0000=
201104270540 SPECI KCLM 270540Z AUTO 00000KT 1 3/4SM BR CLR 05/04 A3010 RMK AO2 VIS 1/2V5 RAE16 P0000=
201104270540 SPECI KCLM 270540Z AUTO 00000KT 1 3/4SM BR CLR 05/04 A3010 RMK AO2 VIS 1/2V5 RAE16 P0000=
201104270453 METAR KCLM 270453Z AUTO 24003KT 10SM -RA FEW045 OVC055 07/06 A3011 RMK AO2 RAB16E32B49 SLP198 P0000 T00720061=
201104270353 METAR KCLM 270353Z AUTO 27004KT 10SM OVC035 07/06 A3011 RMK AO2 SLP199 T00720056=
201104270253 METAR KCLM 270253Z AUTO 00000KT 10SM OVC033 08/06 A3011 RMK AO2 RAE14 SLP198 P0000 60004 T00780061 58008=
201104270153 METAR KCLM 270153Z AUTO 29003KT 7SM -RA OVC039 08/06 A3012 RMK AO2 RAB39 SLP202 P0000 T00830061=
201104270053 METAR KCLM 270053Z AUTO 00000KT 10SM FEW032 OVC045 09/06 A3013 RMK AO2 RAB2356E47 SLP204 P0004 T00890061=
201104270031 SPECI KCLM 270031Z AUTO 00000KT 10SM -RA SCT028 BKN041 OVC049 08/06 A3013 RMK AO2 RAB2356 P0004=
201104270031 SPECI KCLM 270031Z AUTO 00000KT 10SM -RA SCT028 BKN041 OVC049 08/06 A3013 RMK AO2 RAB2356 P0004=
201104270020 SPECI KCLM 270020Z AUTO 00000KT 5SM -RA BR BKN028 BKN039 OVC049 08/06 A3013 RMK AO2 RAB2356 P0003=
201104270020 SPECI KCLM 270020Z AUTO 00000KT 5SM -RA BR BKN028 BKN039 OVC049 08/06 A3013 RMK AO2 RAB2356 P0003=
201104270011 SPECI KCLM 270011Z AUTO 30003KT 2 1/2SM RA BR BKN026 BKN039 OVC047 08/06 A3013 RMK AO2 RAB2356 P0002=
201104270011 SPECI KCLM 270011Z AUTO 30003KT 2 1/2SM RA BR BKN026 BKN039 OVC047 08/06 A3013 RMK AO2 RAB2356 P0002=
201104262353 METAR KCLM 262353Z AUTO 29004KT 10SM BKN039 OVC047 08/06 A3013 RMK AO2 RAB00E40 SLP206 P0000 60000 T00830061 10111 20083 51004=
201104262253 METAR KCLM 262253Z AUTO 29006KT 10SM OVC045 09/05 A3013 RMK AO2 SLP206 T00940050=
201104262153 METAR KCLM 262153Z AUTO 34006KT 10SM BKN032 OVC043 09/04 A3014 RMK AO2 SLP207 T00940044=
201104262053 METAR KCLM 262053Z AUTO VRB04KT 10SM FEW065 BKN075 11/03 A3012 RMK AO2 SLP202 T01060033 58001=
201104261953 METAR KCLM 261953Z AUTO VRB04KT 10SM BKN046 11/04 A3013 RMK AO2 SLP203 T01060044=
201104261853 METAR KCLM 261853Z AUTO VRB03KT 10SM SCT035 09/05 A3013 RMK AO2 SLP205 T00890050=
201104261753 METAR KCLM 261753Z AUTO 36005KT 10SM CLR 09/04 A3013 RMK AO2 SLP202 T00940044 10106 20044 53020=
201104261653 METAR KCLM 261653Z AUTO VRB03KT 10SM CLR 10/03 A3010 RMK AO2 SLP192 T01000028=
201104261553 METAR KCLM 261553Z AUTO 25005KT 10SM CLR 08/02 A3008 RMK AO2 SLP187 T00830017=
201104261453 METAR KCLM 261453Z AUTO 25007KT 10SM FEW044 06/02 A3007 RMK AO2 SLP183 T00610022 53019=
201104261353 METAR KCLM 261353Z AUTO 24005KT 10SM OVC042 04/02 A3004 RMK AO2 SLP175 T00440017=
201104261253 METAR KCLM 261253Z AUTO 22004KT 10SM OVC042 05/02 A3002 RMK AO2 SLP168 T00500022=
201104261153 METAR KCLM 261153Z AUTO 00000KT 10SM OVC044 04/03 A3001 RMK AO2 SLP163 T00440028 10067 20033 53017=
201104261053 METAR KCLM 261053Z AUTO 00000KT 10SM OVC050 03/02 A2999 RMK AO2 SLP157 T00330022=
201104260953 METAR KCLM 260953Z AUTO 23004KT 10SM SCT019 SCT060 BKN100 04/02 A2998 RMK AO2 SLP152 T00440022=
201104260853 METAR KCLM 260853Z AUTO 29003KT 10SM BKN017 OVC036 05/03 A2996 RMK AO2 SLP146 T00500033 51012=
201104260851 SPECI KCLM 260851Z AUTO 00000KT 10SM BKN017 OVC036 05/03 A2996 RMK AO2=
201104260851 SPECI KCLM 260851Z AUTO 00000KT 10SM BKN017 OVC036 05/03 A2996 RMK AO2=
201104260818 SPECI KCLM 260818Z AUTO 24005KT 10SM FEW022 OVC031 06/04 A2995 RMK AO2=
201104260818 SPECI KCLM 260818Z AUTO 24005KT 10SM FEW022 OVC031 06/04 A2995 RMK AO2=
201104260753 METAR KCLM 260753Z AUTO 23004KT 10SM OVC025 06/04 A2994 RMK AO2 SLP141 T00560039 400940044=
201104260653 METAR KCLM 260653Z AUTO 22003KT 10SM FEW016 BKN020 05/04 A2992 RMK AO2 SLP134 T00500039=
201104260648 SPECI KCLM 260648Z AUTO 22003KT 10SM BKN020 BKN038 06/03 A2992 RMK AO2=
201104260648 SPECI KCLM 260648Z AUTO 22003KT 10SM BKN020 BKN038 06/03 A2992 RMK AO2=
201104260621 SPECI KCLM 260621Z AUTO 24003KT 10SM SCT013 BKN038 06/03 A2991 RMK AO2=
201104260621 SPECI KCLM 260621Z AUTO 24003KT 10SM SCT013 BKN038 06/03 A2991 RMK AO2=
201104260553 METAR KCLM 260553Z AUTO 00000KT 10SM BKN017 BKN025 07/03 A2989 RMK AO2 SLP124 60000 T00670033 10089 20061 51016=
201104260549 SPECI KCLM 260549Z AUTO 00000KT 10SM BKN017 BKN025 BKN030 07/03 A2989 RMK AO2=
201104260549 SPECI KCLM 260549Z AUTO 00000KT 10SM BKN017 BKN025 BKN030 07/03 A2989 RMK AO2=
201104260453 METAR KCLM 260453Z AUTO 23004KT 10SM OVC100 06/03 A2987 RMK AO2 SLP117 T00610033=
201104260353 METAR KCLM 260353Z AUTO 28007KT 10SM CLR 07/03 A2984 RMK AO2 SLP108 T00670028=
201104260253 METAR KCLM 260253Z AUTO 24011KT 10SM SCT100 BKN110 08/04 A2982 RMK AO2 RAB05E17 SLP100 P0000 60000 T00780039 51020=
201104260153 METAR KCLM 260153Z AUTO 25005KT 10SM SCT050 BKN060 BKN095 09/04 A2981 RMK AO2 RAB0056E29 SLP097 P0000 T00890044=
201104260053 METAR KCLM 260053Z AUTO 29010KT 10SM BKN046 OVC055 08/06 A2979 RMK AO2 SLP091 T00830061=
201104260013 SPECI KCLM 260013Z AUTO 32013G18KT 10SM SCT009 08/06 A2977 RMK AO2=
201104260013 SPECI KCLM 260013Z AUTO 32013G18KT 10SM SCT009 08/06 A2977 RMK AO2=
201104252353 METAR KCLM 252353Z AUTO 32009G20KT 10SM BKN009 BKN013 BKN048 08/06 A2976 RMK AO2 SLP080 60000 T00830056 10094 20072 53014=
201104252336 SPECI KCLM 252336Z AUTO 32014G22KT 10SM BKN007 BKN028 OVC039 09/06 A2975 RMK AO2=
201104252336 SPECI KCLM 252336Z AUTO 32014G22KT 10SM BKN007 BKN028 OVC039 09/06 A2975 RMK AO2=
201104252329 SPECI KCLM 252329Z AUTO 31015G22KT 10SM SCT007 BKN028 OVC039 08/06 A2975 RMK AO2=
201104252329 SPECI KCLM 252329Z AUTO 31015G22KT 10SM SCT007 BKN028 OVC039 08/06 A2975 RMK AO2=
201104252322 SPECI KCLM 252322Z AUTO 32011G18KT 10SM SCT007 SCT028 OVC039 08/06 A2975 RMK AO2=
201104252322 SPECI KCLM 252322Z AUTO 32011G18KT 10SM SCT007 SCT028 OVC039 08/06 A2975 RMK AO2=
201104252253 METAR KCLM 252253Z AUTO 32011G17KT 290V360 10SM SCT035 BKN044 BKN085 09/06 A2975 RMK AO2 SLP074 T00940061=
201104252153 METAR KCLM 252153Z AUTO 29004KT 10SM FEW033 BKN041 BKN055 09/06 A2973 RMK AO2 RAB32E49 SLP070 P0000 T00940061=
201104252126 SPECI KCLM 252126Z AUTO 31006KT 10SM FEW016 BKN055 OVC075 09/06 A2973 RMK AO2=
201104252126 SPECI KCLM 252126Z AUTO 31006KT 10SM FEW016 BKN055 OVC075 09/06 A2973 RMK AO2=
201104252053 METAR KCLM 252053Z AUTO 32010KT 10SM BKN016 OVC022 08/06 A2972 RMK AO2 SLP065 60000 T00780056 51021=
201104252025 SPECI KCLM 252025Z AUTO 31009KT 10SM SCT008 BKN015 OVC019 08/06 A2971 RMK AO2=
201104252025 SPECI KCLM 252025Z AUTO 31009KT 10SM SCT008 BKN015 OVC019 08/06 A2971 RMK AO2=
201104251953 METAR KCLM 251953Z AUTO 31006G17KT 10SM BKN006 OVC010 08/06 A2970 RMK AO2 RAE04 CIG 004V008 SLP058 P0000 T00780061=
201104251921 SPECI KCLM 251921Z AUTO 31008KT 10SM BKN008 BKN049 OVC065 08/06 A2969 RMK AO2 RAE04 P0000=
201104251921 SPECI KCLM 251921Z AUTO 31008KT 10SM BKN008 BKN049 OVC065 08/06 A2969 RMK AO2 RAE04 P0000=
201104251853 METAR KCLM 251853Z AUTO 32008KT 10SM -RA FEW006 BKN028 OVC045 08/06 A2968 RMK AO2 SLP052 P0000 T00780061=
201104251753 METAR KCLM 251753Z AUTO 28008KT 10SM -RA SCT007 BKN028 OVC040 08/06 A2966 RMK AO2 SLP044 P0000 60000 T00830061 10083 20061 53010=
201104251718 SPECI KCLM 251718Z AUTO 27005KT 10SM -RA FEW005 BKN030 OVC037 07/06 A2965 RMK AO2 P0000=
201104251718 SPECI KCLM 251718Z AUTO 27005KT 10SM -RA FEW005 BKN030 OVC037 07/06 A2965 RMK AO2 P0000=
201104251706 SPECI KCLM 251706Z AUTO 26006KT 10SM -RA FEW005 BKN029 OVC035 07/06 A2964 RMK AO2 P0000=
201104251706 SPECI KCLM 251706Z AUTO 26006KT 10SM -RA FEW005 BKN029 OVC035 07/06 A2964 RMK AO2 P0000=
201104251653 METAR KCLM 251653Z AUTO 28006KT 10SM -RA OVC035 08/06 A2964 RMK AO2 SLP039 P0000 T00780061=
201104251641 SPECI KCLM 251641Z AUTO 27004KT 10SM -RA SCT013 OVC035 07/06 A2964 RMK AO2 P0000=
201104251641 SPECI KCLM 251641Z AUTO 27004KT 10SM -RA SCT013 OVC035 07/06 A2964 RMK AO2 P0000=
201104251617 SPECI KCLM 251617Z AUTO 26004KT 10SM -RA BKN013 OVC033 07/06 A2964 RMK AO2 P0000=
201104251617 SPECI KCLM 251617Z AUTO 26004KT 10SM -RA BKN013 OVC033 07/06 A2964 RMK AO2 P0000=
201104251553 METAR KCLM 251553Z AUTO 25004KT 10SM -RA FEW005 SCT025 OVC035 07/06 A2964 RMK AO2 SLP037 P0000 T00670056=
201104251540 SPECI KCLM 251540Z AUTO 25003KT 10SM -RA FEW006 SCT027 OVC035 07/06 A2964 RMK AO2 P0000=
201104251540 SPECI KCLM 251540Z AUTO 25003KT 10SM -RA FEW006 SCT027 OVC035 07/06 A2964 RMK AO2 P0000=
201104251516 SPECI KCLM 251516Z AUTO 26004KT 10SM -RA BKN027 OVC035 07/05 A2963 RMK AO2 P0000=
201104251516 SPECI KCLM 251516Z AUTO 26004KT 10SM -RA BKN027 OVC035 07/05 A2963 RMK AO2 P0000=
201104251453 METAR KCLM 251453Z AUTO 30004KT 10SM -RA FEW027 OVC035 06/05 A2963 RMK AO2 RAB13 SLP034 P0000 60000 T00610050 56003=
201104251450 SPECI KCLM 251450Z AUTO 30003KT 10SM -RA SCT029 OVC035 06/05 A2963 RMK AO2 RAB13 P0000=
201104251450 SPECI KCLM 251450Z AUTO 30003KT 10SM -RA SCT029 OVC035 06/05 A2963 RMK AO2 RAB13 P0000=
201104251353 METAR KCLM 251353Z AUTO 00000KT 10SM OVC029 06/04 A2962 RMK AO2 SLP033 T00610044=
201104251253 METAR KCLM 251253Z AUTO 23005KT 10SM OVC029 06/05 A2964 RMK AO2 RAB37E46 SLP037 P0000 T00610050=
201104251153 METAR KCLM 251153Z AUTO 00000KT 10SM BKN027 OVC034 06/05 A2967 RMK AO2 SLP047 T00610050 10072 20039 56034=
201104251144 SPECI KCLM 251144Z AUTO 00000KT 10SM BKN027 OVC034 06/04 A2967 RMK AO2=
201104251144 SPECI KCLM 251144Z AUTO 00000KT 10SM BKN027 OVC034 06/04 A2967 RMK AO2=
201104251053 METAR KCLM 251053Z AUTO 14005KT 10SM BKN032 BKN075 OVC090 07/05 A2970 RMK AO2 SLP058 T00720050=
201104251020 SPECI KCLM 251020Z AUTO 12004KT 10SM SCT012 BKN090 07/05 A2971 RMK AO2=
201104251020 SPECI KCLM 251020Z AUTO 12004KT 10SM SCT012 BKN090 07/05 A2971 RMK AO2=
201104250953 METAR KCLM 250953Z AUTO 12004KT 10SM BKN014 BKN021 OVC080 06/05 A2973 RMK AO2 SLP070 T00610050=
201104250943 SPECI KCLM 250943Z AUTO 13004KT 10SM BKN014 OVC021 07/05 A2974 RMK AO2=
201104250943 SPECI KCLM 250943Z AUTO 13004KT 10SM BKN014 OVC021 07/05 A2974 RMK AO2=
201104250931 SPECI KCLM 250931Z AUTO 15003KT 10SM OVC016 07/05 A2975 RMK AO2=
201104250931 SPECI KCLM 250931Z AUTO 15003KT 10SM OVC016 07/05 A2975 RMK AO2=
201104250905 SPECI KCLM 250905Z AUTO 27003KT 10SM BKN013 OVC020 06/05 A2976 RMK AO2=
201104250905 SPECI KCLM 250905Z AUTO 27003KT 10SM BKN013 OVC020 06/05 A2976 RMK AO2=
201104250853 METAR KCLM 250853Z AUTO 00000KT 10SM BKN018 BKN031 OVC085 06/04 A2977 RMK AO2 SLP082 T00560044 56007=
201104250851 SPECI KCLM 250851Z AUTO 30003KT 10SM BKN018 BKN024 OVC085 05/04 A2977 RMK AO2=
201104250851 SPECI KCLM 250851Z AUTO 30003KT 10SM BKN018 BKN024 OVC085 05/04 A2977 RMK AO2=
201104250753 METAR KCLM 250753Z AUTO 00000KT 10SM SCT020 SCT031 04/03 A2979 RMK AO2 SLP088 T00440033 401170039=
201104250711 SPECI KCLM 250711Z AUTO 18003KT 10SM FEW020 06/04 A2979 RMK AO2=
201104250711 SPECI KCLM 250711Z AUTO 18003KT 10SM FEW020 06/04 A2979 RMK AO2=
201104250703 SPECI KCLM 250703Z AUTO 00000KT 2 1/2SM BR CLR 06/04 A2979 RMK AO2 VIS 1V5=
201104250703 SPECI KCLM 250703Z AUTO 00000KT 2 1/2SM BR CLR 06/04 A2979 RMK AO2 VIS 1V5=
201104250653 METAR KCLM 250653Z AUTO 00000KT 6SM BR FEW020 SCT060 06/04 A2979 RMK AO2 SLP090 T00560044=
201104250553 METAR KCLM 250553Z AUTO 00000KT 10SM BKN060 06/05 A2981 RMK AO2 SLP096 60000 T00560050 10111 20056 58003=
201104250453 METAR KCLM 250453Z AUTO 00000KT 10SM FEW038 BKN050 OVC060 07/06 A2982 RMK AO2 SLP098 T00720061=
201104250353 METAR KCLM 250353Z AUTO 00000KT 10SM FEW043 BKN050 07/06 A2982 RMK AO2 SLP100 T00720056=
201104250253 METAR KCLM 250253Z AUTO 30003KT 10SM BKN044 OVC090 08/06 A2982 RMK AO2 RAB0155E23 SLP098 P0000 60000 T00830061 58004=
201104250153 METAR KCLM 250153Z AUTO 00000KT 10SM OVC048 09/06 A2982 RMK AO2 SLP099 T00890056=
201104250053 METAR KCLM 250053Z AUTO 00000KT 10SM OVC045 09/06 A2983 RMK AO2 SLP103 T00890056=
201104242353 METAR KCLM 242353Z AUTO VRB03KT 10SM SCT036 BKN047 OVC060 11/06 A2983 RMK AO2 SLP102 60000 T01110061 10117 20083 58005=
201104242253 METAR KCLM 242253Z AUTO 00000KT 10SM BKN046 OVC060 10/07 A2984 RMK AO2 RAE15B33E43 SLP105 P0000 T01000067=
201104242153 METAR KCLM 242153Z AUTO 00000KT 10SM -RA OVC040 09/06 A2985 RMK AO2 RAB48 SLP107 P0000 T00940061=
201104242053 METAR KCLM 242053Z AUTO VRB04KT 10SM SCT010 OVC040 09/06 A2984 RMK AO2 SLP108 60000 T00890061 51003=
201104242023 SPECI KCLM 242023Z AUTO 04004KT 10SM FEW008 SCT012 BKN046 10/07 A2984 RMK AO2=
201104242023 SPECI KCLM 242023Z AUTO 04004KT 10SM FEW008 SCT012 BKN046 10/07 A2984 RMK AO2=
201104242010 SPECI KCLM 242010Z AUTO 35004KT 10SM BKN012 09/06 A2984 RMK AO2=
201104242010 SPECI KCLM 242010Z AUTO 35004KT 10SM BKN012 09/06 A2984 RMK AO2=
201104241953 METAR KCLM 241953Z AUTO 35004KT 10SM BKN009 BKN012 OVC047 09/06 A2984 RMK AO2 RAE02 CIG 007V012 SLP107 P0000 T00890061=
201104241946 SPECI KCLM 241946Z AUTO VRB04KT 10SM SCT009 BKN012 OVC047 09/06 A2984 RMK AO2 RAE02 P0000=
201104241946 SPECI KCLM 241946Z AUTO VRB04KT 10SM SCT009 BKN012 OVC047 09/06 A2984 RMK AO2 RAE02 P0000=
201104241853 METAR KCLM 241853Z AUTO 36004KT 9SM -RA FEW009 OVC040 09/06 A2985 RMK AO2 RAB46 SLP107 P0000 T00890061=
201104241838 SPECI KCLM 241838Z AUTO 35003KT 10SM FEW009 OVC038 09/06 A2984 RMK AO2=
201104241838 SPECI KCLM 241838Z AUTO 35003KT 10SM FEW009 OVC038 09/06 A2984 RMK AO2=
201104241753 METAR KCLM 241753Z AUTO VRB04KT 10SM OVC038 09/06 A2984 RMK AO2 SLP104 T00940061 10094 20072 53007=
201104241653 METAR KCLM 241653Z AUTO 02003KT 10SM SCT020 OVC042 09/05 A2982 RMK AO2 SLP100 T00940050=
201104241625 SPECI KCLM 241625Z AUTO 33004KT 10SM BKN020 BKN044 09/05 A2982 RMK AO2=
201104241625 SPECI KCLM 241625Z AUTO 33004KT 10SM BKN020 BKN044 09/05 A2982 RMK AO2=
201104241553 METAR KCLM 241553Z AUTO 00000KT 10SM SCT100 09/05 A2982 RMK AO2 SLP099 T00890050=
201104241453 METAR KCLM 241453Z AUTO 24003KT 10SM SCT060 BKN075 OVC095 08/05 A2982 RMK AO2 SLP097 T00830050 53003=
201104241353 METAR KCLM 241353Z AUTO 27005KT 10SM OVC100 07/04 A2981 RMK AO2 SLP093 T00720039=
201104241253 METAR KCLM 241253Z AUTO 24005KT 10SM OVC090 07/03 A2980 RMK AO2 SLP092 T00720033=
201104241153 METAR KCLM 241153Z AUTO 24006KT 10SM OVC100 07/03 A2981 RMK AO2 SLP093 T00720033 10083 20061 58002=
201104241053 METAR KCLM 241053Z AUTO 26006KT 10SM BKN100 OVC110 07/03 A2981 RMK AO2 SLP096 T00720033=
201104240953 METAR KCLM 240953Z AUTO 27007KT 10SM OVC110 07/02 A2981 RMK AO2 SLP094 T00720022=
201104240853 METAR KCLM 240853Z AUTO 27006KT 10SM SCT110 06/02 A2981 RMK AO2 SLP096 T00610017 55000=
201104240753 METAR KCLM 240753Z AUTO 27008KT 10SM CLR 07/03 A2981 RMK AO2 SLP096 T00720028 401391006=
201104240653 METAR KCLM 240653Z AUTO 27006KT 10SM CLR 07/01 A2981 RMK AO2 SLP094 T00720011=
201104240553 METAR KCLM 240553Z AUTO 28007KT 10SM CLR 08/01 A2981 RMK AO2 SLP096 T00780011 10139 20061 58003=
201104240453 METAR KCLM 240453Z AUTO 24006KT 10SM CLR 07/01 A2982 RMK AO2 SLP098 T00720011=
201104240353 METAR KCLM 240353Z AUTO 22003KT 10SM CLR 08/02 A2982 RMK AO2 SLP100 T00780022=
201104240253 METAR KCLM 240253Z AUTO 00000KT 10SM CLR 12/00 A2982 RMK AO2 SLP099 T01170000 58015=
201104240153 METAR KCLM 240153Z AUTO 09004KT 10SM CLR 13/00 A2984 RMK AO2 SLP106 T01280000=
201104240053 METAR KCLM 240053Z AUTO 08004KT 10SM CLR 13/00 A2985 RMK AO2 SLP110 T01330000=
201104232353 METAR KCLM 232353Z AUTO 08005KT 10SM FEW100 13/02 A2987 RMK AO2 SLP115 T01330017 10133 20089 58019=
201104232253 METAR KCLM 232253Z AUTO 03004KT 10SM FEW095 13/02 A2989 RMK AO2 SLP124 T01280022=
201104232153 METAR KCLM 232153Z AUTO 08006KT 10SM FEW100 12/03 A2991 RMK AO2 SLP130 T01170028=
201104232053 METAR KCLM 232053Z AUTO VRB05KT 10SM FEW100 11/02 A2992 RMK AO2 SLP135 T01110022 58013=
201104231953 METAR KCLM 231953Z AUTO 07006KT 10SM CLR 10/04 A2994 RMK AO2 SLP140 T01000039=
201104231853 METAR KCLM 231853Z AUTO VRB05KT 10SM CLR 11/03 A2995 RMK AO2 SLP145 T01060033=
201104231753 METAR KCLM 231753Z AUTO 04006KT 10SM FEW015 09/04 A2996 RMK AO2 SLP147 T00890039 10089 21006 57008=
201104231729 SPECI KCLM 231729Z AUTO 04005KT 10SM SCT015 08/04 A2996 RMK AO2=
201104231729 SPECI KCLM 231729Z AUTO 04005KT 10SM SCT015 08/04 A2996 RMK AO2=
201104231653 METAR KCLM 231653Z AUTO 04006KT 10SM BKN015 BKN100 09/04 A2997 RMK AO2 SLP150 T00890039=
201104231553 METAR KCLM 231553Z AUTO 10005KT 10SM CLR 08/03 A2998 RMK AO2 SLP153 T00780033=
201104231453 METAR KCLM 231453Z AUTO 00000KT 10SM CLR 06/01 A2999 RMK AO2 SLP156 T00560011 56010=
201104231353 METAR KCLM 231353Z AUTO 23006KT 10SM CLR 02/M01 A2999 RMK AO2 SLP158 T00221011=
201104231253 METAR KCLM 231253Z AUTO 22005KT 10SM CLR 02/M01 A3000 RMK AO2 SLP161 T00171011=
201104231153 METAR KCLM 231153Z AUTO 23006KT 10SM CLR 02/M01 A3002 RMK AO2 SLP166 T00171011 10039 20011 56012=
201104231053 METAR KCLM 231053Z AUTO 23006KT 10SM CLR 02/M01 A3003 RMK AO2 SLP170 T00221011=
201104230953 METAR KCLM 230953Z AUTO 23006KT 10SM CLR 02/M01 A3004 RMK AO2 SLP173 T00221006=
201104230853 METAR KCLM 230853Z AUTO 23005KT 10SM CLR 03/M01 A3005 RMK AO2 SLP179 T00281006 56006=
201104230753 METAR KCLM 230753Z AUTO 22004KT 10SM CLR 03/M01 A3006 RMK AO2 SLP181 T00281006 401060017=
201104230653 METAR KCLM 230653Z AUTO 22003KT 10SM CLR 02/M01 A3006 RMK AO2 SLP182 T00171006=
201104230553 METAR KCLM 230553Z AUTO 20003KT 10SM CLR 03/00 A3007 RMK AO2 SLP185 T00280000 10106 20028 58008=
201104230453 METAR KCLM 230453Z AUTO 23006KT 10SM CLR 04/01 A3009 RMK AO2 SLP190 T00390006=
201104230353 METAR KCLM 230353Z AUTO 00000KT 10SM CLR 06/01 A3009 RMK AO2 SLP192 T00560011=
201104230253 METAR KCLM 230253Z AUTO 14004KT 10SM CLR 08/00 A3010 RMK AO2 SLP193 T00780000 57016=
201104230153 METAR KCLM 230153Z AUTO 10006KT 10SM CLR 10/01 A3011 RMK AO2 SLP198 T01000006=
201104230053 METAR KCLM 230053Z AUTO 10006KT 10SM CLR 10/01 A3013 RMK AO2 SLP205 T01000006=
201104222353 METAR KCLM 222353Z AUTO 09007KT 10SM FEW100 11/01 A3014 RMK AO2 SLP209 T01060011 10106 20083 56029=
201104222253 METAR KCLM 222253Z AUTO 09010KT 10SM FEW100 10/01 A3017 RMK AO2 SLP217 T01000006=
201104222153 METAR KCLM 222153Z AUTO 07012KT 10SM CLR 10/01 A3020 RMK AO2 SLP230 T01000006=
201104222053 METAR KCLM 222053Z AUTO 10010KT 10SM CLR 10/01 A3023 RMK AO2 SLP238 T01000011 58012=
201104221953 METAR KCLM 221953Z AUTO 08009KT 10SM FEW100 11/02 A3025 RMK AO2 SLP245 T01060022=
201104221853 METAR KCLM 221853Z AUTO VRB05KT 10SM CLR 09/02 A3026 RMK AO2 SLP250 T00940017=
201104221753 METAR KCLM 221753Z AUTO 04004KT 10SM CLR 09/02 A3026 RMK AO2 SLP250 T00890017 10094 20022 55003=
201104221653 METAR KCLM 221653Z AUTO 36005KT 10SM FEW100 09/01 A3026 RMK AO2 SLP249 T00890006=
201104221553 METAR KCLM 221553Z AUTO 27004KT 10SM BKN040 07/M02 A3027 RMK AO2 SLP253 T00721022=
201104221453 METAR KCLM 221453Z AUTO 24008KT 10SM OVC042 04/M02 A3027 RMK AO2 SLP253 T00391022 53001 $=
201104221353 METAR KCLM 221353Z AUTO 24007KT 10SM CLR 02/M03 A3027 RMK AO2 SLP253 T00221033=
201104221253 METAR KCLM 221253Z AUTO 24009KT 10SM BKN046 BKN070 03/M03 A3027 RMK AO2 SLP251 T00281028=
201104221153 METAR KCLM 221153Z AUTO 25006KT 10SM BKN050 OVC075 04/M04 A3027 RMK AO2 SLP252 T00391039 10050 20033 53003=
201104221053 METAR KCLM 221053Z AUTO 24009KT 10SM FEW060 04/M03 A3026 RMK AO2 SLP250 T00391033=
201104221000 METAR KCLM NIL=
201104220853 METAR KCLM 220853Z AUTO 25008KT 10SM CLR 04/M03 A3026 RMK AO2 SLP249 T00391028 51007=
201104220753 METAR KCLM 220753Z AUTO 25012KT 10SM CLR 04/M03 A3026 RMK AO2 SLP248 T00441028 401000022=
201104220653 METAR KCLM 220653Z AUTO 26010KT 10SM CLR 05/M02 A3024 RMK AO2 SLP243 T00501022=
201104220553 METAR KCLM 220553Z AUTO 29008KT 10SM CLR 04/M02 A3024 RMK AO2 SLP242 T00441017 10089 20044 51012=
201104220453 METAR KCLM 220453Z AUTO 28009KT 10SM CLR 06/M02 A3024 RMK AO2 SLP241 T00561017=
201104220353 METAR KCLM 220353Z AUTO 30008KT 10SM CLR 06/M02 A3022 RMK AO2 SLP236 T00611022=
201104220253 METAR KCLM 220253Z AUTO 30012G17KT 10SM CLR 08/M02 A3020 RMK AO2 SLP230 T00781022 53015=
201104220153 METAR KCLM 220153Z AUTO 28016G21KT 10SM FEW060 09/M03 A3019 RMK AO2 SLP224 T00891028=
201104220053 METAR KCLM 220053Z AUTO 31014G20KT 10SM CLR 09/02 A3017 RMK AO2 SLP219 T00890017=
201104212353 METAR KCLM 212353Z AUTO 30017G26KT 10SM CLR 09/02 A3016 RMK AO2 PK WND 29028/2309 SLP215 T00890017 10100 20083 51016=
201104212253 METAR KCLM 212253Z AUTO 31013G26KT 10SM FEW100 09/02 A3015 RMK AO2 PK WND 31028/2239 SLP212 T00890017=
201104212153 METAR KCLM 212153Z AUTO 31016G21KT 10SM FEW100 09/02 A3014 RMK AO2 PK WND 30027/2057 SLP207 T00940017=
201104212053 METAR KCLM 212053Z AUTO 31014G21KT 10SM CLR 09/02 A3011 RMK AO2 SLP199 T00940017 53017=
201104211953 METAR KCLM 211953Z AUTO 33013G20KT 10SM FEW100 09/02 A3009 RMK AO2 SLP192 T00940022=
201104211853 METAR KCLM 211853Z AUTO 33015G22KT 10SM FEW100 09/00 A3008 RMK AO2 SLP188 T00940000=
201104211753 METAR KCLM 211753Z AUTO 32013G19KT 10SM FEW044 09/M02 A3006 RMK AO2 SLP182 T00941022 10094 20022 51011=
201104211653 METAR KCLM 211653Z AUTO 30011G18KT 10SM BKN044 09/M02 A3005 RMK AO2 SLP178 T00891022=
201104211553 METAR KCLM 211553Z AUTO 29013G19KT 10SM CLR 07/M02 A3005 RMK AO2 SLP177 T00721022=
201104211453 METAR KCLM 211453Z AUTO 28006KT 10SM CLR 05/M02 A3003 RMK AO2 SLP171 T00501017 53016=
201104211353 METAR KCLM 211353Z AUTO 26010KT 10SM CLR 03/M02 A3001 RMK AO2 SLP164 T00331022=
201104211253 METAR KCLM 211253Z AUTO 25007KT 10SM CLR 03/M02 A2999 RMK AO2 SLP156 T00281022=
201104211153 METAR KCLM 211153Z AUTO 25007KT 10SM SCT037 OVC050 03/M02 A2998 RMK AO2 SLP155 T00281022 10039 20022 53009=
201104211053 METAR KCLM 211053Z AUTO 26007KT 10SM BKN037 BKN045 OVC060 03/M02 A2997 RMK AO2 SLP150 T00331022=
201104210953 METAR KCLM 210953Z AUTO 27009KT 10SM FEW045 SCT055 OVC085 04/M02 A2995 RMK AO2 SLP145 T00391022=
201104210853 METAR KCLM 210853Z AUTO 25009KT 10SM CLR 03/M02 A2995 RMK AO2 SLP145 T00281017 53002=
201104210753 METAR KCLM 210753Z AUTO 25008KT 10SM CLR 03/M02 A2995 RMK AO2 SLP144 T00281017 400890011=
201104210653 METAR KCLM 210653Z AUTO 26007KT 10SM CLR 03/M02 A2995 RMK AO2 SLP143 T00281017=
201104210553 METAR KCLM 210553Z AUTO 29009KT 10SM CLR 03/M01 A2995 RMK AO2 SLP143 T00331011 10072 20033 51007=
201104210453 METAR KCLM 210453Z AUTO 29013KT 10SM CLR 04/M02 A2994 RMK AO2 SLP141 T00441022=
201104210353 METAR KCLM 210353Z AUTO 29010G20KT 10SM SCT090 04/M01 A2993 RMK AO2 SLP138 T00391006=
201104210310 SPECI KCLM 210310Z AUTO 30010G18KT 10SM FEW025 06/01 A2993 RMK AO2=
201104210310 SPECI KCLM 210310Z AUTO 30010G18KT 10SM FEW025 06/01 A2993 RMK AO2=
201104210253 METAR KCLM 210253Z AUTO 29015KT 10SM BKN025 06/01 A2993 RMK AO2 SLP136 T00610006 55001=
201104210153 METAR KCLM 210153Z AUTO 31013G22KT 10SM OVC027 06/01 A2992 RMK AO2 SLP135 T00610006=
201104210053 METAR KCLM 210053Z AUTO 30013G20KT 10SM BKN029 BKN080 OVC095 07/01 A2993 RMK AO2 SLP137 T00670011=
201104210010 SPECI KCLM 210010Z AUTO 30013G18KT 10SM BKN024 BKN030 OVC085 07/02 A2993 RMK AO2=
201104210010 SPECI KCLM 210010Z AUTO 30013G18KT 10SM BKN024 BKN030 OVC085 07/02 A2993 RMK AO2=
201104202353 METAR KCLM 202353Z AUTO 30012KT 10SM SCT029 BKN070 OVC090 07/02 A2993 RMK AO2 SLP137 T00720022 10089 20067 55002=
201104202253 METAR KCLM 202253Z AUTO 32011G19KT 10SM BKN080 BKN110 08/M01 A2993 RMK AO2 SLP136 T00781006=
201104202153 METAR KCLM 202153Z AUTO 31009G18KT 10SM OVC110 08/01 A2993 RMK AO2 SLP137 T00830006=
201104202053 METAR KCLM 202053Z AUTO 32007KT 10SM OVC100 08/M01 A2994 RMK AO2 SLP139 T00781011 58011=
201104201953 METAR KCLM 201953Z AUTO 31007KT 10SM OVC095 08/M01 A2995 RMK AO2 SLP142 T00781006=
201104201853 METAR KCLM 201853Z AUTO 31008KT 10SM OVC100 07/01 A2996 RMK AO2 SLP147 T00720011=
201104201753 METAR KCLM 201753Z AUTO VRB03KT 10SM OVC100 07/01 A2997 RMK AO2 SLP150 T00720011 10072 20017 58007=
201104201653 METAR KCLM 201653Z AUTO 30005KT 10SM SCT100 06/01 A2998 RMK AO2 SLP152 T00610006=
201104201553 METAR KCLM 201553Z AUTO 25008KT 10SM FEW110 05/M01 A2999 RMK AO2 SLP156 T00501011=
201104201453 METAR KCLM 201453Z AUTO 25006KT 10SM CLR 04/M01 A2999 RMK AO2 SLP158 T00391011 56012=
201104201353 METAR KCLM 201353Z AUTO 24010KT 10SM CLR 03/M02 A2999 RMK AO2 SLP158 T00281017=
201104201253 METAR KCLM 201253Z AUTO 26008KT 10SM CLR 02/M01 A3000 RMK AO2 SLP160 T00221006=
201104201153 METAR KCLM 201153Z AUTO 25008KT 10SM CLR 03/M01 A3003 RMK AO2 SLP170 T00281006 10044 20011 58020=
201104201053 METAR KCLM 201053Z AUTO 25007KT 10SM CLR 02/M01 A3005 RMK AO2 SLP177 T00221006=
201104200953 METAR KCLM 200953Z AUTO 23004KT 10SM CLR 02/M01 A3007 RMK AO2 SLP184 T00171006=
201104200853 METAR KCLM 200853Z AUTO 24005KT 10SM SCT065 02/00 A3009 RMK AO2 SLP190 T00170000 58012=
201104200753 METAR KCLM 200753Z AUTO 22004KT 10SM BKN070 02/00 A3011 RMK AO2 SLP197 T00220000 400940017=
201104200653 METAR KCLM 200653Z AUTO 22004KT 10SM CLR 03/01 A3012 RMK AO2 SLP200 T00280006=
201104200553 METAR KCLM 200553Z AUTO 27005KT 10SM FEW028 05/01 A3012 RMK AO2 SLP202 60000 T00500011 10078 20050 58006=
201104200453 METAR KCLM 200453Z AUTO 25004KT 10SM OVC030 06/02 A3013 RMK AO2 SLP206 T00560017=
201104200439 SPECI KCLM 200439Z AUTO 26006KT 10SM OVC030 06/02 A3014 RMK AO2=
201104200439 SPECI KCLM 200439Z AUTO 26006KT 10SM OVC030 06/02 A3014 RMK AO2=
201104200353 METAR KCLM 200353Z AUTO 28006KT 10SM OVC026 06/02 A3014 RMK AO2 SLP209 T00560017=
201104200316 SPECI KCLM 200316Z AUTO 27004KT 10SM BKN024 BKN070 06/02 A3014 RMK AO2=
201104200316 SPECI KCLM 200316Z AUTO 27004KT 10SM BKN024 BKN070 06/02 A3014 RMK AO2=
201104200253 METAR KCLM 200253Z AUTO 28005KT 10SM FEW022 BKN070 06/02 A3014 RMK AO2 SLP208 60000 T00610017 56011=
201104200216 SPECI KCLM 200216Z AUTO 31006KT 10SM SCT024 BKN070 07/02 A3015 RMK AO2=
201104200216 SPECI KCLM 200216Z AUTO 31006KT 10SM SCT024 BKN070 07/02 A3015 RMK AO2=
201104200153 METAR KCLM 200153Z AUTO 31008KT 10SM OVC024 08/02 A3015 RMK AO2 SLP212 T00780022=
201104200053 METAR KCLM 200053Z AUTO 14004KT 10SM BKN024 OVC031 07/03 A3016 RMK AO2 RAB11E23 SLP215 P0000 T00720033=
201104200029 SPECI KCLM 200029Z AUTO VRB03KT 10SM BKN028 OVC035 07/03 A3017 RMK AO2 RAB11E23 P0000=
201104200029 SPECI KCLM 200029Z AUTO VRB03KT 10SM BKN028 OVC035 07/03 A3017 RMK AO2 RAB11E23 P0000=
201104192353 METAR KCLM 192353Z AUTO 28004KT 10SM BKN033 OVC044 07/02 A3017 RMK AO2 SLP220 60000 T00720022 10094 20072 58008=
201104192253 METAR KCLM 192253Z AUTO 12005KT 10SM BKN032 OVC065 07/02 A3019 RMK AO2 RAE20 SLP224 P0000 T00720022=
201104192153 METAR KCLM 192153Z AUTO 31009G17KT 10SM -RA FEW035 BKN050 07/02 A3020 RMK AO2 RAB46 SLP228 P0000 T00720017 TSNO=
201104192053 METAR KCLM 192053Z AUTO 31009G16KT 10SM FEW048 SCT075 OVC090 08/M01 A3020 RMK AO2 SLP228 T00781006 50002=
201104191953 METAR KCLM 191953Z AUTO 32014G21KT 10SM FEW046 SCT070 08/01 A3020 RMK AO2 SLP228 T00830011=
201104191853 METAR KCLM 191853Z AUTO 35009G15KT 10SM BKN080 BKN100 08/00 A3019 RMK AO2 SLP226 T00830000=
201104191753 METAR KCLM 191753Z AUTO 32011G17KT 10SM BKN055 08/00 A3019 RMK AO2 SLP225 T00780000 10083 20017 53006=
201104191653 METAR KCLM 191653Z AUTO 32006KT 10SM FEW045 08/00 A3018 RMK AO2 SLP222 T00830000=
201104191553 METAR KCLM 191553Z AUTO 25007KT 10SM CLR 07/M03 A3018 RMK AO2 SLP222 T00671033=
201104191453 METAR KCLM 191453Z AUTO 24009KT 10SM CLR 04/M03 A3017 RMK AO2 SLP220 T00441033 53005=
201104191353 METAR KCLM 191353Z AUTO 23011KT 10SM CLR 03/M04 A3016 RMK AO2 SLP216 T00331044=
201104191253 METAR KCLM 191253Z AUTO 24009KT 10SM CLR 02/M03 A3016 RMK AO2 SLP214 T00221033=
201104191153 METAR KCLM 191153Z AUTO 25006KT 10SM CLR 03/M03 A3016 RMK AO2 SLP215 T00281033 10044 20028 53004=
201104191053 METAR KCLM 191053Z AUTO 25009KT 10SM CLR 03/M03 A3016 RMK AO2 SLP214 T00331033=
201104190953 METAR KCLM 190953Z AUTO 25010KT 10SM CLR 03/M03 A3015 RMK AO2 SLP211 T00331028=
201104190853 METAR KCLM 190853Z AUTO 25010KT 10SM CLR 03/M02 A3015 RMK AO2 SLP210 T00331022 53007=
201104190753 METAR KCLM 190753Z AUTO 25008KT 10SM CLR 04/M02 A3014 RMK AO2 SLP207 T00391017 400940017=
201104190653 METAR KCLM 190653Z AUTO 25007KT 10SM CLR 04/M01 A3013 RMK AO2 SLP205 T00391011=
201104190553 METAR KCLM 190553Z AUTO 24008KT 10SM CLR 04/M01 A3013 RMK AO2 SLP204 T00441006 10083 20044 51015=
201104190453 METAR KCLM 190453Z AUTO 28011KT 10SM CLR 06/M02 A3012 RMK AO2 SLP200 T00611017=
201104190353 METAR KCLM 190353Z AUTO 29009KT 10SM CLR 06/M02 A3010 RMK AO2 SLP194 T00561017=
201104190253 METAR KCLM 190253Z AUTO 30013G19KT 10SM CLR 07/02 A3008 RMK AO2 SLP189 T00720022 50003=
201104190153 METAR KCLM 190153Z AUTO 31010G16KT 10SM SCT039 08/02 A3009 RMK AO2 SLP190 T00830017=
201104190053 METAR KCLM 190053Z AUTO 31011G17KT 10SM FEW031 08/02 A3009 RMK AO2 SLP190 T00780022=
201104190036 SPECI KCLM 190036Z AUTO 32008KT 10SM SCT027 BKN055 08/02 A3008 RMK AO2=
201104190036 SPECI KCLM 190036Z AUTO 32008KT 10SM SCT027 BKN055 08/02 A3008 RMK AO2=
201104190000 SPECI KCLM 190000Z AUTO 32008KT 10SM BKN028 08/02 A3007 RMK AO2=
201104190000 SPECI KCLM 190000Z AUTO 32008KT 10SM BKN028 08/02 A3007 RMK AO2=
201104182353 METAR KCLM 182353Z AUTO 31006KT 10SM SCT028 BKN033 08/02 A3007 RMK AO2 SLP185 T00830022 10094 20072 51006=
201104182323 SPECI KCLM 182323Z AUTO 36006KT 10SM FEW020 08/04 A3007 RMK AO2=
201104182323 SPECI KCLM 182323Z AUTO 36006KT 10SM FEW020 08/04 A3007 RMK AO2=
201104182316 SPECI KCLM 182316Z AUTO VRB05KT 10SM BKN020 08/04 A3007 RMK AO2=
201104182316 SPECI KCLM 182316Z AUTO VRB05KT 10SM BKN020 08/04 A3007 RMK AO2=
201104182253 METAR KCLM 182253Z AUTO 36006KT 10SM SCT018 08/04 A3007 RMK AO2 SLP185 T00830039=
201104182153 METAR KCLM 182153Z AUTO VRB05KT 10SM CLR 09/03 A3007 RMK AO2 SLP183 T00890033=
201104182053 METAR KCLM 182053Z AUTO VRB05KT 10SM CLR 09/02 A3005 RMK AO2 SLP179 T00890017 50000=
201104181953 METAR KCLM 181953Z AUTO 32005KT 10SM CLR 08/03 A3006 RMK AO2 SLP180 T00830028=
201104181853 METAR KCLM 181853Z AUTO 01004KT 10SM CLR 08/03 A3006 RMK AO2 SLP180 T00780028=
201104181753 METAR KCLM 181753Z AUTO 35006KT 10SM CLR 07/02 A3005 RMK AO2 SLP179 T00720022 10078 20017 52012=
201104181653 METAR KCLM 181653Z AUTO 02005KT 10SM CLR 07/02 A3004 RMK AO2 SLP175 T00720017=
201104181553 METAR KCLM 181553Z AUTO 25006KT 10SM FEW055 06/M03 A3003 RMK AO2 SLP171 T00561028=
201104181453 METAR KCLM 181453Z AUTO 24013KT 10SM CLR 03/M03 A3002 RMK AO2 SLP167 T00331033 53006=
201104181353 METAR KCLM 181353Z AUTO 25011KT 10SM SCT050 02/M04 A3001 RMK AO2 SLP165 T00221039=
201104181253 METAR KCLM 181253Z AUTO 24011KT 10SM FEW047 SCT055 02/M04 A3000 RMK AO2 SLP161 T00221039=
201104181153 METAR KCLM 181153Z AUTO 25010KT 10SM BKN060 02/M03 A3000 RMK AO2 SLP161 T00221033 10033 20017 56001=
201104181053 METAR KCLM 181053Z AUTO 25013KT 10SM BKN070 03/M04 A3000 RMK AO2 SLP161 T00281039=
201104180953 METAR KCLM 180953Z AUTO 25010KT 10SM BKN065 03/M03 A3001 RMK AO2 SLP162 T00281033=
201104180853 METAR KCLM 180853Z AUTO 26011KT 10SM CLR 03/M03 A3001 RMK AO2 SLP163 T00281028 57001=
201104180753 METAR KCLM 180753Z AUTO 25008KT 10SM CLR 03/M02 A3001 RMK AO2 SLP163 T00281022 400940017=
201104180653 METAR KCLM 180653Z AUTO 24009KT 10SM CLR 03/M01 A3001 RMK AO2 SLP164 T00281011=
201104180553 METAR KCLM 180553Z AUTO 25008KT 10SM CLR 03/M01 A3001 RMK AO2 SLP164 T00331006 10083 20028 50000=
201104180453 METAR KCLM 180453Z AUTO 26007KT 10SM CLR 03/01 A3001 RMK AO2 SLP164 T00330006=
201104180353 METAR KCLM 180353Z AUTO 24004KT 10SM CLR 04/01 A3001 RMK AO2 SLP164 T00440006=
201104180253 METAR KCLM 180253Z AUTO 28010KT 10SM FEW027 06/01 A3001 RMK AO2 SLP163 T00560006 58006=
201104180153 METAR KCLM 180153Z AUTO 30012G20KT 10SM SCT033 BKN045 07/01 A3002 RMK AO2 SLP168 T00670006=
201104180134 SPECI KCLM 180134Z AUTO 31011G19KT 10SM FEW027 BKN034 BKN040 07/01 A3003 RMK AO2=
201104180134 SPECI KCLM 180134Z AUTO 31011G19KT 10SM FEW027 BKN034 BKN040 07/01 A3003 RMK AO2=
201104180122 SPECI KCLM 180122Z AUTO 32011G17KT 10SM BKN029 BKN037 OVC100 07/01 A3003 RMK AO2=
201104180122 SPECI KCLM 180122Z AUTO 32011G17KT 10SM BKN029 BKN037 OVC100 07/01 A3003 RMK AO2=
201104180053 METAR KCLM 180053Z AUTO 30010G19KT 10SM SCT034 07/01 A3003 RMK AO2 SLP171 T00670011=
201104172353 METAR KCLM 172353Z AUTO 31014G18KT 10SM SCT110 08/01 A3003 RMK AO2 SLP170 T00780011 10094 20072 58002=
201104172253 METAR KCLM 172253Z AUTO 29011G17KT 10SM FEW085 SCT110 08/01 A3004 RMK AO2 SLP173 T00780006=
201104172153 METAR KCLM 172153Z AUTO 30014KT 10SM FEW120 08/01 A3003 RMK AO2 SLP172 T00830011=
201104172053 METAR KCLM 172053Z AUTO 34008G14KT 10SM CLR 09/02 A3004 RMK AO2 SLP173 T00940017 58008=
201104171953 METAR KCLM 171953Z AUTO 29012KT 10SM CLR 09/02 A3006 RMK AO2 SLP179 T00890017=
201104171853 METAR KCLM 171853Z AUTO 35008KT 320V030 10SM FEW024 08/02 A3006 RMK AO2 SLP182 T00780017=
201104171753 METAR KCLM 171753Z AUTO 33008G14KT 10SM CLR 08/01 A3006 RMK AO2 SLP180 T00830006 10083 20017 58001=
201104171653 METAR KCLM 171653Z AUTO VRB05KT 10SM SCT035 08/00 A3006 RMK AO2 SLP180 T00780000=
201104171553 METAR KCLM 171553Z AUTO 25008KT 10SM BKN044 05/M03 A3006 RMK AO2 SLP182 T00501033=
201104171453 METAR KCLM 171453Z AUTO 24009KT 10SM FEW038 03/M04 A3006 RMK AO2 SLP181 T00331039 51003=
201104171353 METAR KCLM 171353Z AUTO 26010KT 10SM CLR 02/M04 A3006 RMK AO2 SLP181 T00221039=
201104171253 METAR KCLM 171253Z AUTO 25011KT 10SM CLR 02/M04 A3005 RMK AO2 SLP179 T00221039=
201104171153 METAR KCLM 171153Z AUTO 24010KT 10SM BKN060 02/M03 A3005 RMK AO2 SLP178 70001 T00221033 10039 20017 58005=
201104171053 METAR KCLM 171053Z AUTO 25011KT 10SM BKN055 BKN090 02/M03 A3006 RMK AO2 SLP181 T00221033=
201104170953 METAR KCLM 170953Z AUTO 25010KT 10SM CLR 02/M03 A3006 RMK AO2 SLP180 T00221028=
201104170853 METAR KCLM 170853Z AUTO 25010KT 10SM SCT080 03/M03 A3006 RMK AO2 SLP183 T00281028 50001=
201104170753 METAR KCLM 170753Z AUTO 25010KT 10SM BKN085 03/M02 A3007 RMK AO2 SLP185 T00281022 400830022=
201104170653 METAR KCLM 170653Z AUTO 26009KT 10SM CLR 03/M02 A3006 RMK AO2 SLP182 T00281017=
201104170553 METAR KCLM 170553Z AUTO 27011KT 10SM CLR 04/M02 A3006 RMK AO2 SLP182 T00391022 10078 20039 50004=
201104170453 METAR KCLM 170453Z AUTO 25007KT 10SM CLR 04/M02 A3007 RMK AO2 SLP183 T00391022=
201104170353 METAR KCLM 170353Z AUTO 29010KT 10SM CLR 04/M01 A3005 RMK AO2 SLP179 T00441011=
201104170253 METAR KCLM 170253Z AUTO 29008KT 10SM CLR 06/00 A3005 RMK AO2 SLP178 T00560000 55001=
201104170153 METAR KCLM 170153Z AUTO 30014G19KT 10SM CLR 07/00 A3004 RMK AO2 SLP176 T00670000=
201104170053 METAR KCLM 170053Z AUTO 30017G21KT 10SM CLR 07/M01 A3005 RMK AO2 SLP176 T00721006=
201104162353 METAR KCLM 162353Z AUTO 31015G22KT 10SM CLR 08/00 A3005 RMK AO2 SLP179 60000 T00780000 10083 20050 58002=
201104162253 METAR KCLM 162253Z AUTO 30018G25KT 10SM SCT060 08/01 A3006 RMK AO2 PK WND 30029/2237 SLP182 T00780006=
201104162153 METAR KCLM 162153Z AUTO 31015G25KT 10SM BKN050 BKN060 07/00 A3006 RMK AO2 PK WND 31028/2130 SLP182 T00670000=
201104162053 METAR KCLM 162053Z AUTO 31015G24KT 10SM BKN036 OVC045 07/01 A3006 RMK AO2 SLP181 60000 T00720011 51007=
201104162017 SPECI KCLM 162017Z AUTO 31012G20KT 10SM OVC030 07/02 A3006 RMK AO2=
201104162017 SPECI KCLM 162017Z AUTO 31012G20KT 10SM OVC030 07/02 A3006 RMK AO2=
201104161953 METAR KCLM 161953Z AUTO 32010G21KT 10SM OVC026 07/01 A3005 RMK AO2 SLP178 T00670011=
201104161853 METAR KCLM 161853Z AUTO 31011G19KT 10SM BKN017 OVC023 06/03 A3005 RMK AO2 RAE19 SLP177 P0000 T00610028=
201104161814 SPECI KCLM 161814Z AUTO 30011KT 10SM -RA BKN015 OVC021 06/03 A3004 RMK AO2 P0000=
201104161814 SPECI KCLM 161814Z AUTO 30011KT 10SM -RA BKN015 OVC021 06/03 A3004 RMK AO2 P0000=
201104161753 METAR KCLM 161753Z AUTO 32011G18KT 10SM -RA BKN014 BKN021 OVC028 05/03 A3004 RMK AO2 RAB41 SLP174 P0001 60001 T00500028 10083 20050 51005=
201104161750 SPECI KCLM 161750Z AUTO 32011G22KT 9SM -RA BKN014 BKN021 OVC028 05/03 A3004 RMK AO2 RAB41 P0001=
201104161750 SPECI KCLM 161750Z AUTO 32011G22KT 9SM -RA BKN014 BKN021 OVC028 05/03 A3004 RMK AO2 RAB41 P0001=
201104161702 SPECI KCLM 161702Z AUTO 32014G21KT 10SM FEW017 BKN029 OVC065 06/03 A3003 RMK AO2=
201104161702 SPECI KCLM 161702Z AUTO 32014G21KT 10SM FEW017 BKN029 OVC065 06/03 A3003 RMK AO2=
201104161653 METAR KCLM 161653Z AUTO 31012G22KT 10SM FEW015 BKN032 OVC065 06/03 A3003 RMK AO2 SLP170 T00610033=
201104161553 METAR KCLM 161553Z AUTO 00000KT 10SM FEW031 SCT042 07/04 A3002 RMK AO2 RAE1458 SLP169 P0000 T00670044=
201104161545 SPECI KCLM 161545Z AUTO 00000KT 10SM SCT029 BKN044 06/04 A3002 RMK AO2 RAE1458 P0000=
201104161545 SPECI KCLM 161545Z AUTO 00000KT 10SM SCT029 BKN044 06/04 A3002 RMK AO2 RAE1458 P0000=
201104161453 METAR KCLM 161453Z AUTO 25004KT 10SM -RA OVC022 06/04 A3002 RMK AO2 SLP169 P0000 60000 T00560044 51005=
201104161417 SPECI KCLM 161417Z AUTO 24004KT 7SM -RA OVC015 06/04 A3003 RMK AO2 P0000=
201104161417 SPECI KCLM 161417Z AUTO 24004KT 7SM -RA OVC015 06/04 A3003 RMK AO2 P0000=
201104161406 SPECI KCLM 161406Z AUTO 28004KT 8SM -RA SCT005 BKN012 OVC017 06/04 A3003 RMK AO2 P0000=
201104161406 SPECI KCLM 161406Z AUTO 28004KT 8SM -RA SCT005 BKN012 OVC017 06/04 A3003 RMK AO2 P0000=
201104161353 METAR KCLM 161353Z AUTO 28006KT 8SM -RA BKN005 BKN013 OVC018 06/04 A3002 RMK AO2 RAB15 SLP169 P0000 T00560044=
201104161253 METAR KCLM 161253Z AUTO 26003KT 6SM BR OVC005 05/04 A3002 RMK AO2 RAB05E51 SLP166 P0000 T00500044=
201104161153 METAR KCLM 161153Z AUTO 00000KT 5SM BR OVC009 05/04 A3001 RMK AO2 CIG 006V011 SLP164 60000 T00500044 10056 20050 53003=
201104161138 SPECI KCLM 161138Z AUTO 00000KT 3SM BR SCT004 OVC009 05/04 A3001 RMK AO2=
201104161138 SPECI KCLM 161138Z AUTO 00000KT 3SM BR SCT004 OVC009 05/04 A3001 RMK AO2=
201104161053 METAR KCLM 161053Z AUTO 00000KT 2 1/2SM BR OVC004 05/04 A3000 RMK AO2 CIG 001V007 SLP161 T00500044=
201104161051 SPECI KCLM 161051Z AUTO 00000KT 2 1/2SM BR OVC004 05/04 A3000 RMK AO2 CIG 001V007=
201104161051 SPECI KCLM 161051Z AUTO 00000KT 2 1/2SM BR OVC004 05/04 A3000 RMK AO2 CIG 001V007=
201104160953 METAR KCLM 160953Z AUTO 00000KT 4SM BR OVC004 05/04 A3000 RMK AO2 RAB28E45 SLP160 P0000 T00500039=
201104160900 SPECI KCLM 160900Z AUTO 00000KT 10SM OVC004 05/04 A2999 RMK AO2=
201104160900 SPECI KCLM 160900Z AUTO 00000KT 10SM OVC004 05/04 A2999 RMK AO2=
201104160853 METAR KCLM 160853Z AUTO 00000KT 10SM OVC006 05/04 A2999 RMK AO2 RAE0757 SLP159 P0000 60000 T00500044 50001=
201104160753 METAR KCLM 160753Z AUTO 00000KT 10SM -RA OVC006 05/04 A3000 RMK AO2 RAE0657B35 SLP160 P0000 T00500039 400780000=
201104160653 METAR KCLM 160653Z AUTO 00000KT 10SM -RA OVC006 06/04 A3000 RMK AO2 RAB37 SLP160 P0000 T00560039=
201104160553 METAR KCLM 160553Z AUTO 12004KT 10SM OVC006 06/04 A2999 RMK AO2 SLP158 T00560039 10078 20056 53000=
201104160504 SPECI KCLM 160504Z AUTO 06003KT 10SM BKN009 OVC013 06/03 A2999 RMK AO2 CIG 006V012=
201104160504 SPECI KCLM 160504Z AUTO 06003KT 10SM BKN009 OVC013 06/03 A2999 RMK AO2 CIG 006V012=
201104160453 METAR KCLM 160453Z AUTO VRB04KT 10SM FEW007 BKN012 OVC016 06/03 A2999 RMK AO2 SLP157 T00560033=
201104160450 SPECI KCLM 160450Z AUTO 07004KT 10SM FEW007 BKN012 OVC016 06/03 A2999 RMK AO2=
201104160450 SPECI KCLM 160450Z AUTO 07004KT 10SM FEW007 BKN012 OVC016 06/03 A2999 RMK AO2=
201104160353 METAR KCLM 160353Z AUTO VRB04KT 10SM OVC018 06/03 A2999 RMK AO2 SLP156 T00610028=
201104160253 METAR KCLM 160253Z AUTO 04005KT 10SM OVC024 06/03 A2999 RMK AO2 SLP157 T00610028 56004=
201104160153 METAR KCLM 160153Z AUTO 06004KT 10SM OVC024 07/02 A2999 RMK AO2 SLP157 T00720022=
201104160053 METAR KCLM 160053Z AUTO 07004KT 10SM OVC026 08/03 A2999 RMK AO2 SLP159 T00780028=
201104152353 METAR KCLM 152353Z AUTO VRB03KT 10SM OVC026 08/02 A3000 RMK AO2 SLP162 T00780017 10078 20056 56015=
201104152253 METAR KCLM 152253Z AUTO 08005KT 10SM OVC026 07/02 A3002 RMK AO2 SLP166 T00720017=
201104152153 METAR KCLM 152153Z AUTO VRB05KT 10SM OVC024 07/02 A3003 RMK AO2 SLP171 T00720022=
201104152053 METAR KCLM 152053Z AUTO 08006KT 10SM BKN022 OVC030 08/03 A3005 RMK AO2 SLP177 T00780028 57016=
201104152025 SPECI KCLM 152025Z AUTO 06007KT 10SM BKN018 OVC035 07/02 A3006 RMK AO2=
201104152025 SPECI KCLM 152025Z AUTO 06007KT 10SM BKN018 OVC035 07/02 A3006 RMK AO2=
201104151953 METAR KCLM 151953Z AUTO 09009KT 10SM FEW016 SCT023 BKN041 07/03 A3006 RMK AO2 SLP182 T00720028=
201104151942 SPECI KCLM 151942Z AUTO 09010KT 10SM SCT026 BKN043 BKN055 07/03 A3007 RMK AO2=
201104151942 SPECI KCLM 151942Z AUTO 09010KT 10SM SCT026 BKN043 BKN055 07/03 A3007 RMK AO2=
201104151930 SPECI KCLM 151930Z AUTO 05005KT 10SM BKN026 BKN041 OVC090 08/02 A3007 RMK AO2=
201104151930 SPECI KCLM 151930Z AUTO 05005KT 10SM BKN026 BKN041 OVC090 08/02 A3007 RMK AO2=
201104151853 METAR KCLM 151853Z AUTO 07005KT 10SM FEW065 BKN095 BKN110 07/00 A3008 RMK AO2 SLP188 T00670000=
201104151753 METAR KCLM 151753Z AUTO 09004KT 10SM FEW047 BKN055 BKN070 06/01 A3010 RMK AO2 SLP193 T00610011 10061 20000 58016=
201104151653 METAR KCLM 151653Z AUTO 00000KT 10SM FEW046 OVC055 06/01 A3012 RMK AO2 SLP200 T00560011=
201104151553 METAR KCLM 151553Z AUTO 00000KT 10SM BKN075 OVC110 04/00 A3013 RMK AO2 SLP205 T00390000=
201104151453 METAR KCLM 151453Z AUTO 25004KT 10SM CLR 02/M01 A3014 RMK AO2 SLP210 T00171011 58017=
201104151353 METAR KCLM 151353Z AUTO 00000KT 10SM SCT032 00/M01 A3016 RMK AO2 SLP217 T00001011=
201104151253 METAR KCLM 151253Z AUTO 23004KT 10SM CLR 01/M02 A3018 RMK AO2 SLP221 T00061017=
201104151153 METAR KCLM 151153Z AUTO 22003KT 10SM CLR 01/M02 A3019 RMK AO2 SLP226 70006 T00111017 10022 20000 58011=
201104151053 METAR KCLM 151053Z AUTO 23005KT 10SM CLR 00/M01 A3021 RMK AO2 SLP233 T00001011=
201104150953 METAR KCLM 150953Z AUTO 24004KT 10SM CLR 00/M01 A3022 RMK AO2 SLP235 T00001011=
201104150853 METAR KCLM 150853Z AUTO 26005KT 10SM CLR 02/M01 A3023 RMK AO2 SLP237 T00171011 51013=
201104150753 METAR KCLM 150753Z AUTO 24008KT 10SM CLR 02/M01 A3022 RMK AO2 SLP234 T00221006 400670000=
201104150653 METAR KCLM 150653Z AUTO 22004KT 10SM CLR 01/M01 A3021 RMK AO2 SLP231 T00111006=
201104150553 METAR KCLM 150553Z AUTO 28007KT 10SM CLR 02/M01 A3019 RMK AO2 SLP224 60004 T00171006 10067 20017 51023=
201104150453 METAR KCLM 150453Z AUTO 26008KT 10SM CLR 02/01 A3017 RMK AO2 SLP218 T00220006=
201104150353 METAR KCLM 150353Z AUTO 27008KT 10SM FEW065 SCT090 03/01 A3015 RMK AO2 SLP211 T00330011=
201104150253 METAR KCLM 150253Z AUTO 29006KT 10SM FEW017 SCT070 04/03 A3012 RMK AO2 RAE00B17E32 SLP202 P0000 60004 T00390028 51017=
201104150211 SPECI KCLM 150211Z AUTO 30005KT 10SM BKN035 BKN042 OVC050 05/03 A3011 RMK AO2 RAE00 P0000=
201104150211 SPECI KCLM 150211Z AUTO 30005KT 10SM BKN035 BKN042 OVC050 05/03 A3011 RMK AO2 RAE00 P0000=
201104150153 METAR KCLM 150153Z AUTO 27004KT 9SM -RA FEW010 BKN023 OVC034 05/03 A3010 RMK AO2 RAB06 SLP195 P0004 T00500028=
201104150146 SPECI KCLM 150146Z AUTO 25005KT 3SM -RA BR FEW008 BKN018 OVC023 04/03 A3010 RMK AO2 RAB06 P0004=
201104150146 SPECI KCLM 150146Z AUTO 25005KT 3SM -RA BR FEW008 BKN018 OVC023 04/03 A3010 RMK AO2 RAB06 P0004=
201104150135 SPECI KCLM 150135Z AUTO 27005KT 2 1/2SM -RA BR SCT010 BKN014 OVC023 05/03 A3010 RMK AO2 VIS 1 3/4V4 RAB06 P0002=
201104150135 SPECI KCLM 150135Z AUTO 27005KT 2 1/2SM -RA BR SCT010 BKN014 OVC023 05/03 A3010 RMK AO2 VIS 1 3/4V4 RAB06 P0002=
201104150128 SPECI KCLM 150128Z AUTO 31004KT 4SM -RA BR SCT010 OVC016 05/03 A3010 RMK AO2 RAB06 P0000=
201104150128 SPECI KCLM 150128Z AUTO 31004KT 4SM -RA BR SCT010 OVC016 05/03 A3010 RMK AO2 RAB06 P0000=
201104150053 METAR KCLM 150053Z AUTO 29005KT 10SM BKN010 BKN014 OVC038 06/04 A3009 RMK AO2 RAB01E43 SLP190 P0000 T00560039=
201104150038 SPECI KCLM 150038Z AUTO 32004KT 10SM -RA OVC014 06/04 A3008 RMK AO2 RAB01 P0000=
201104150038 SPECI KCLM 150038Z AUTO 32004KT 10SM -RA OVC014 06/04 A3008 RMK AO2 RAB01 P0000=
201104150018 SPECI KCLM 150018Z AUTO 00000KT 10SM -RA BKN016 OVC031 06/03 A3007 RMK AO2 RAB01 P0000=
201104150018 SPECI KCLM 150018Z AUTO 00000KT 10SM -RA BKN016 OVC031 06/03 A3007 RMK AO2 RAB01 P0000=
201104142353 METAR KCLM 142353Z AUTO 22003KT 10SM OVC037 06/03 A3007 RMK AO2 RAE34 SLP183 P0000 60001 T00610033 10067 20056 51010=
201104142348 SPECI KCLM 142348Z AUTO 23004KT 10SM BKN037 OVC060 06/03 A3007 RMK AO2 RAE34 P0000=
201104142348 SPECI KCLM 142348Z AUTO 23004KT 10SM BKN037 OVC060 06/03 A3007 RMK AO2 RAE34 P0000=
201104142253 METAR KCLM 142253Z AUTO 21003KT 10SM -RA OVC023 06/03 A3006 RMK AO2 SLP181 P0001 T00560033=
201104142153 METAR KCLM 142153Z AUTO 26007KT 10SM -RA BKN029 OVC036 06/03 A3004 RMK AO2 RAB46 SLP173 P0000 T00610028=
201104142053 METAR KCLM 142053Z AUTO 31003KT 10SM OVC031 07/03 A3003 RMK AO2 SLP171 T00670033 58025=
201104141953 METAR KCLM 141953Z AUTO 00000KT 10SM FEW038 SCT050 06/03 A3005 RMK AO2 SLP177 T00610028=
201104141853 METAR KCLM 141853Z AUTO 00000KT 10SM BKN060 06/03 A3009 RMK AO2 SLP193 T00560028=
201104141753 METAR KCLM 141753Z AUTO 12005KT 10SM SCT014 06/03 A3011 RMK AO2 SLP196 60001 T00560028 10056 20006 50001=
201104141653 METAR KCLM 141653Z AUTO 11007KT 10SM SCT010 05/02 A3012 RMK AO2 SLP203 T00500022=
201104141634 SPECI KCLM 141634Z AUTO 11007KT 10SM BKN010 05/03 A3012 RMK AO2=
201104141634 SPECI KCLM 141634Z AUTO 11007KT 10SM BKN010 05/03 A3012 RMK AO2=
201104141553 METAR KCLM 141553Z AUTO 11006KT 10SM CLR 04/02 A3012 RMK AO2 SLP201 T00390022=
201104141513 SPECI KCLM 141513Z AUTO 12007KT 10SM FEW005 04/02 A3011 RMK AO2=
201104141513 SPECI KCLM 141513Z AUTO 12007KT 10SM FEW005 04/02 A3011 RMK AO2=
201104141453 METAR KCLM 141453Z AUTO 11004KT 10SM CLR 03/01 A3010 RMK AO2 SLP196 60001 T00280011 53006=
201104141353 METAR KCLM 141353Z AUTO 00000KT 10SM CLR 01/00 A3009 RMK AO2 SLP191 T00060000=
201104141253 METAR KCLM 141253Z AUTO 00000KT 10SM BKN046 OVC070 02/00 A3007 RMK AO2 RAE41UPB22E40 SLP186 P0001 T00170000=
201104141238 SPECI KCLM 141238Z AUTO 00000KT 10SM -RA SCT028 BKN045 OVC075 02/01 A3008 RMK AO2 UPB22E29 P0001=
201104141238 SPECI KCLM 141238Z AUTO 00000KT 10SM -RA SCT028 BKN045 OVC075 02/01 A3008 RMK AO2 UPB22E29 P0001=
201104141209 SPECI KCLM 141209Z AUTO 29003KT 10SM -RA FEW005 BKN016 OVC038 02/01 A3008 RMK AO2 P0001=
201104141209 SPECI KCLM 141209Z AUTO 29003KT 10SM -RA FEW005 BKN016 OVC038 02/01 A3008 RMK AO2 P0001=
201104141153 METAR KCLM 141153Z AUTO 25005KT 8SM -RA FEW005 BKN014 OVC019 02/01 A3009 RMK AO2 UPB10E12 SLP190 P0002 60012 70016 T00220011 10039 20022 51014=
201104141151 SPECI KCLM 141151Z AUTO 26006KT 9SM -RA FEW005 OVC016 02/01 A3009 RMK AO2 UPB10E12 P0002=
201104141151 SPECI KCLM 141151Z AUTO 26006KT 9SM -RA FEW005 OVC016 02/01 A3009 RMK AO2 UPB10E12 P0002=
201104141125 SPECI KCLM 141125Z AUTO 31005KT 10SM -RA BKN018 BKN026 OVC050 02/01 A3007 RMK AO2 UPB10E12 P0001=
201104141125 SPECI KCLM 141125Z AUTO 31005KT 10SM -RA BKN018 BKN026 OVC050 02/01 A3007 RMK AO2 UPB10E12 P0001=
201104141114 SPECI KCLM 141114Z AUTO 25005KT 10SM SCT018 BKN034 OVC048 03/01 A3006 RMK AO2 RAE10UPB10E12 P0001=
201104141114 SPECI KCLM 141114Z AUTO 25005KT 10SM SCT018 BKN034 OVC048 03/01 A3006 RMK AO2 RAE10UPB10E12 P0001=
201104141053 METAR KCLM 141053Z AUTO 00000KT 7SM -RA BKN020 OVC025 03/02 A3006 RMK AO2 RAB31 SLP179 P0000 T00280017=
201104141041 SPECI KCLM 141041Z AUTO 21003KT 10SM -RA SCT020 BKN027 OVC035 02/02 A3006 RMK AO2 RAB31 P0000=
201104141041 SPECI KCLM 141041Z AUTO 21003KT 10SM -RA SCT020 BKN027 OVC035 02/02 A3006 RMK AO2 RAB31 P0000=
201104140953 METAR KCLM 140953Z AUTO 00000KT 10SM BKN041 OVC048 02/01 A3004 RMK AO2 RAE11 SLP176 P0001 T00220011=
201104140911 SPECI KCLM 140911Z AUTO 26005KT 10SM FEW024 BKN048 BKN090 02/01 A3005 RMK AO2 RAE11 P0001=
201104140911 SPECI KCLM 140911Z AUTO 26005KT 10SM FEW024 BKN048 BKN090 02/01 A3005 RMK AO2 RAE11 P0001=
201104140853 METAR KCLM 140853Z AUTO 24005KT 8SM -RA BKN018 OVC024 02/01 A3006 RMK AO2 SLP179 P0007 60009 T00220011 53016=
201104140753 METAR KCLM 140753Z AUTO 25006G14KT 10SM -RA OVC018 03/01 A3004 RMK AO2 RAB24 SLP175 P0002 T00330011 400830006=
201104140734 SPECI KCLM 140734Z AUTO 26009G14KT 10SM -RA OVC026 04/01 A3003 RMK AO2 RAB24 P0001=
201104140734 SPECI KCLM 140734Z AUTO 26009G14KT 10SM -RA OVC026 04/01 A3003 RMK AO2 RAB24 P0001=
201104140653 METAR KCLM 140653Z AUTO 25004KT 10SM CLR 03/01 A3001 RMK AO2 SLP166 T00280006=
201104140553 METAR KCLM 140553Z AUTO 28006KT 10SM SCT034 BKN043 BKN085 04/01 A3001 RMK AO2 SLP164 60000 T00390011 10083 20028 51010=
201104140453 METAR KCLM 140453Z AUTO 25004KT 10SM SCT080 SCT100 03/01 A3000 RMK AO2 RAB0357E17 SLP159 P0000 T00280011=
201104140419 SPECI KCLM 140419Z AUTO 22006KT 10SM SCT025 SCT034 04/01 A2999 RMK AO2 RAB0357E17 P0000=
201104140419 SPECI KCLM 140419Z AUTO 22006KT 10SM SCT025 SCT034 04/01 A2999 RMK AO2 RAB0357E17 P0000=
201104140408 SPECI KCLM 140408Z AUTO 25003KT 10SM -RA BKN027 BKN034 OVC055 05/01 A2999 RMK AO2 RAB0357 P0000=
201104140408 SPECI KCLM 140408Z AUTO 25003KT 10SM -RA BKN027 BKN034 OVC055 05/01 A2999 RMK AO2 RAB0357 P0000=
201104140353 METAR KCLM 140353Z AUTO 24007KT 10SM FEW019 BKN050 OVC070 05/02 A3000 RMK AO2 RAB08E20 SLP162 P0000 T00500017=
201104140342 SPECI KCLM 140342Z AUTO 24009KT 10SM FEW019 SCT026 BKN055 05/01 A3000 RMK AO2 RAB08E20 P0000=
201104140342 SPECI KCLM 140342Z AUTO 24009KT 10SM FEW019 SCT026 BKN055 05/01 A3000 RMK AO2 RAB08E20 P0000=
201104140312 SPECI KCLM 140312Z AUTO 19003KT 10SM -RA BKN015 BKN031 OVC050 07/04 A2998 RMK AO2 RAB08 P0000=
201104140312 SPECI KCLM 140312Z AUTO 19003KT 10SM -RA BKN015 BKN031 OVC050 07/04 A2998 RMK AO2 RAB08 P0000=
201104140253 METAR KCLM 140253Z AUTO 00000KT 10SM FEW029 BKN036 BKN050 07/03 A2998 RMK AO2 SLP153 60000 T00670033 52012=
201104140203 SPECI KCLM 140203Z AUTO 10006KT 10SM FEW024 BKN039 OVC060 08/03 A2997 RMK AO2=
201104140203 SPECI KCLM 140203Z AUTO 10006KT 10SM FEW024 BKN039 OVC060 08/03 A2997 RMK AO2=
201104140153 METAR KCLM 140153Z AUTO VRB05KT 10SM SCT024 BKN028 OVC039 08/03 A2997 RMK AO2 SLP149 T00780033=
201104140135 SPECI KCLM 140135Z AUTO 12006KT 10SM BKN024 BKN050 BKN065 08/03 A2996 RMK AO2=
201104140135 SPECI KCLM 140135Z AUTO 12006KT 10SM BKN024 BKN050 BKN065 08/03 A2996 RMK AO2=
201104140053 METAR KCLM 140053Z AUTO 00000KT 10SM FEW015 08/03 A2996 RMK AO2 RAE02 SLP146 P0000 T00830033=
201104140007 SPECI KCLM 140007Z AUTO VRB03KT 10SM FEW020 SCT024 08/04 A2994 RMK AO2 RAE02 P0000=
201104140007 SPECI KCLM 140007Z AUTO VRB03KT 10SM FEW020 SCT024 08/04 A2994 RMK AO2 RAE02 P0000=
201104132353 METAR KCLM 132353Z AUTO 00000KT 6SM -RA FEW020 BKN025 OVC045 07/04 A2994 RMK AO2 RAB35 SLP142 P0000 60004 T00720044 10083 20061 51004=
201104132323 SPECI KCLM 132323Z AUTO 32004KT 10SM FEW016 SCT029 BKN050 07/03 A2995 RMK AO2=
201104132323 SPECI KCLM 132323Z AUTO 32004KT 10SM FEW016 SCT029 BKN050 07/03 A2995 RMK AO2=
201104132253 METAR KCLM 132253Z AUTO VRB03KT 10SM SCT009 BKN016 OVC100 07/05 A2994 RMK AO2 RAE17 SLP139 P0002 T00720050=
201104132220 SPECI KCLM 132220Z AUTO 17004KT 10SM FEW024 BKN034 OVC100 07/05 A2993 RMK AO2 RAE17 P0002=
201104132220 SPECI KCLM 132220Z AUTO 17004KT 10SM FEW024 BKN034 OVC100 07/05 A2993 RMK AO2 RAE17 P0002=
201104132209 SPECI KCLM 132209Z AUTO 00000KT 5SM -RA BR BKN025 OVC031 06/04 A2993 RMK AO2 P0002=
201104132209 SPECI KCLM 132209Z AUTO 00000KT 5SM -RA BR BKN025 OVC031 06/04 A2993 RMK AO2 P0002=
201104132153 METAR KCLM 132153Z AUTO 00000KT 2SM RA BR FEW014 BKN026 OVC030 06/04 A2993 RMK AO2 RAB2054E16B36 SLP138 P0002 T00610044=
201104132053 METAR KCLM 132053Z AUTO 32006KT 10SM FEW019 BKN026 OVC031 07/04 A2991 RMK AO2 RAE15 SLP132 P0000 60000 T00720039 51008=
201104132048 SPECI KCLM 132048Z AUTO 33004KT 10SM FEW019 BKN026 OVC039 07/04 A2991 RMK AO2 RAE15 P0000=
201104132048 SPECI KCLM 132048Z AUTO 33004KT 10SM FEW019 BKN026 OVC039 07/04 A2991 RMK AO2 RAE15 P0000=
201104132038 SPECI KCLM 132038Z AUTO 32005KT 10SM FEW019 BKN030 OVC039 07/04 A2991 RMK AO2 RAE15 P0000=
201104132038 SPECI KCLM 132038Z AUTO 32005KT 10SM FEW019 BKN030 OVC039 07/04 A2991 RMK AO2 RAE15 P0000=
201104131953 METAR KCLM 131953Z AUTO 30008KT 10SM -RA OVC028 07/03 A2990 RMK AO2 RAB44 SLP128 P0000 T00670033=
201104131853 METAR KCLM 131853Z AUTO 32004KT 10SM OVC026 08/04 A2989 RMK AO2 SLP123 T00780039=
201104131753 METAR KCLM 131753Z AUTO 34006KT 10SM SCT015 BKN024 OVC095 08/04 A2987 RMK AO2 SLP118 T00780039 10083 20006 53005=
201104131744 SPECI KCLM 131744Z AUTO 33006KT 10SM FEW017 BKN024 OVC090 08/04 A2988 RMK AO2=
201104131744 SPECI KCLM 131744Z AUTO 33006KT 10SM FEW017 BKN024 OVC090 08/04 A2988 RMK AO2=
201104131653 METAR KCLM 131653Z AUTO 00000KT 10SM SCT090 07/03 A2987 RMK AO2 SLP116 T00670028=
201104131553 METAR KCLM 131553Z AUTO 27006KT 10SM BKN070 BKN090 OVC100 06/03 A2986 RMK AO2 SLP114 T00610028=
201104131453 METAR KCLM 131453Z AUTO 25006KT 10SM OVC075 04/02 A2986 RMK AO2 SLP113 T00440017 55001=
201104131353 METAR KCLM 131353Z AUTO 00000KT 10SM BKN080 01/M01 A2985 RMK AO2 SLP109 T00111006=
201104131253 METAR KCLM 131253Z AUTO 00000KT 10SM CLR 01/M01 A2985 RMK AO2 SLP110 T00061006=
201104131153 METAR KCLM 131153Z AUTO 20003KT 10SM FEW120 01/00 A2986 RMK AO2 SLP114 T00110000 10044 20011 58016=
201104131053 METAR KCLM 131053Z AUTO 23007KT 10SM CLR 03/01 A2989 RMK AO2 SLP122 T00280006=
201104130953 METAR KCLM 130953Z AUTO 23006KT 10SM CLR 03/01 A2990 RMK AO2 SLP126 T00330006=
201104130853 METAR KCLM 130853Z AUTO 23004KT 10SM CLR 02/01 A2991 RMK AO2 SLP130 T00220006 56014=
201104130753 METAR KCLM 130753Z AUTO 23004KT 10SM SCT075 BKN095 BKN120 03/01 A2993 RMK AO2 SLP135 T00330011 400941006=
201104130653 METAR KCLM 130653Z AUTO 23004KT 10SM BKN075 OVC110 04/01 A2994 RMK AO2 SLP139 T00390011=
201104130553 METAR KCLM 130553Z AUTO 00000KT 10SM SCT080 OVC100 04/02 A2995 RMK AO2 SLP145 T00440017 10083 20039 58008=
201104130453 METAR KCLM 130453Z AUTO 23004KT 10SM FEW075 OVC110 06/03 A2996 RMK AO2 SLP148 T00560028=
201104130353 METAR KCLM 130353Z AUTO 00000KT 10SM OVC120 07/03 A2998 RMK AO2 SLP153 T00670028=
201104130253 METAR KCLM 130253Z AUTO 00000KT 10SM BKN110 07/03 A2998 RMK AO2 SLP153 T00670028 56017=
201104130153 METAR KCLM 130153Z AUTO 28003KT 10SM CLR 07/02 A2999 RMK AO2 SLP158 T00720022=
201104130053 METAR KCLM 130053Z AUTO 00000KT 10SM FEW110 08/02 A3001 RMK AO2 SLP163 T00780022=
201104122353 METAR KCLM 122353Z AUTO 00000KT 10SM CLR 08/03 A3003 RMK AO2 SLP170 T00780028 10094 20056 56019=
201104122253 METAR KCLM 122253Z AUTO VRB04KT 10SM CLR 09/02 A3004 RMK AO2 SLP176 T00890022=
201104122153 METAR KCLM 122153Z AUTO 00000KT 10SM SCT050 SCT060 09/M01 A3006 RMK AO2 SLP182 T00891011=
201104122053 METAR KCLM 122053Z AUTO VRB03KT 10SM BKN060 07/01 A3009 RMK AO2 SLP190 T00720006 57016=
201104121953 METAR KCLM 121953Z AUTO 34005KT 10SM SCT110 06/02 A3010 RMK AO2 SLP196 T00610022=
201104121853 METAR KCLM 121853Z AUTO 04004KT 10SM SCT110 07/02 A3012 RMK AO2 SLP200 T00670022=
201104121753 METAR KCLM 121753Z AUTO 03005KT 10SM FEW110 06/02 A3013 RMK AO2 SLP205 T00560022 10061 21006 58015=
201104121653 METAR KCLM 121653Z AUTO 00000KT 10SM CLR 06/02 A3015 RMK AO2 SLP211 T00610022=
201104121553 METAR KCLM 121553Z AUTO 24003KT 10SM CLR 04/00 A3017 RMK AO2 SLP218 T00440000=
201104121453 METAR KCLM 121453Z AUTO 24005KT 10SM CLR 02/00 A3018 RMK AO2 SLP221 T00170000 56014=
201104121353 METAR KCLM 121353Z AUTO 22004KT 10SM CLR 01/M01 A3019 RMK AO2 SLP224 T00111011=
201104121253 METAR KCLM 121253Z AUTO 23003KT 10SM OVC095 00/M01 A3020 RMK AO2 SLP230 T00001011=
201104121153 METAR KCLM 121153Z AUTO 23004KT 10SM BKN100 00/M01 A3022 RMK AO2 SLP234 T00001011 10028 21006 58015=
201104121053 METAR KCLM 121053Z AUTO 24004KT 10SM CLR 01/M01 A3023 RMK AO2 SLP238 T00111011=
201104120953 METAR KCLM 120953Z AUTO 24006KT 10SM FEW023 02/M01 A3025 RMK AO2 SLP245 T00171006=
201104120938 SPECI KCLM 120938Z AUTO 24006KT 10SM SCT021 02/M01 A3025 RMK AO2=
201104120938 SPECI KCLM 120938Z AUTO 24006KT 10SM SCT021 02/M01 A3025 RMK AO2=
201104120853 METAR KCLM 120853Z AUTO 24006KT 10SM BKN024 02/00 A3026 RMK AO2 SLP249 T00170000 56007=
201104120848 SPECI KCLM 120848Z AUTO 24006KT 10SM BKN024 01/00 A3026 RMK AO2=
201104120848 SPECI KCLM 120848Z AUTO 24006KT 10SM BKN024 01/00 A3026 RMK AO2=
201104120753 METAR KCLM 120753Z AUTO 23003KT 10SM SCT025 02/00 A3027 RMK AO2 SLP254 T00170000 401000011=
201104120734 SPECI KCLM 120734Z AUTO 00000KT 10SM BKN025 02/00 A3028 RMK AO2=
201104120734 SPECI KCLM 120734Z AUTO 00000KT 10SM BKN025 02/00 A3028 RMK AO2=
201104120653 METAR KCLM 120653Z AUTO 23005KT 10SM FEW029 02/00 A3028 RMK AO2 SLP256 T00220000=
201104120553 METAR KCLM 120553Z AUTO 23004KT 10SM FEW027 03/01 A3029 RMK AO2 SLP258 T00280006 10094 20017 51007=
201104120453 METAR KCLM 120453Z AUTO 00000KT 10SM FEW025 BKN033 03/00 A3028 RMK AO2 SLP257 T00280000=
201104120353 METAR KCLM 120353Z AUTO 00000KT 10SM CLR 05/01 A3028 RMK AO2 SLP255 T00500006=
201104120253 METAR KCLM 120253Z AUTO 28006KT 10SM FEW065 05/01 A3027 RMK AO2 SLP251 T00500006 53003=
201104120153 METAR KCLM 120153Z AUTO 32007KT 10SM CLR 06/02 A3026 RMK AO2 SLP248 T00610022=
201104120053 METAR KCLM 120053Z AUTO 31012G18KT 10SM OVC080 08/01 A3026 RMK AO2 SLP249 T00780006=
201104112353 METAR KCLM 112353Z AUTO 32009KT 10SM FEW037 BKN046 OVC060 08/02 A3026 RMK AO2 SLP248 60000 T00780017 10100 20061 51003=
201104112253 METAR KCLM 112253Z AUTO 34008KT 10SM FEW033 SCT050 BKN060 08/02 A3026 RMK AO2 RAE00 SLP247 P0000 T00830017=
201104112153 METAR KCLM 112153Z AUTO 30006KT 10SM -RA SCT027 BKN044 OVC055 08/03 A3026 RMK AO2 RAB50 SLP249 P0000 T00830028=
201104112053 METAR KCLM 112053Z AUTO 30007KT 10SM SCT041 BKN048 BKN065 09/00 A3025 RMK AO2 SLP245 60000 T00940000 51012=
201104111953 METAR KCLM 111953Z AUTO 25008KT 10SM FEW027 BKN060 OVC095 09/01 A3025 RMK AO2 RAB10E23 SLP244 P0000 T00890011=
201104111853 METAR KCLM 111853Z AUTO 31011G16KT 10SM BKN042 BKN049 BKN060 07/01 A3024 RMK AO2 SLP241 T00720006=
201104111753 METAR KCLM 111753Z AUTO 29008KT 10SM FEW037 SCT055 BKN070 08/00 A3021 RMK AO2 SLP233 60000 T00780000 10083 20028 51017=
201104111653 METAR KCLM 111653Z AUTO 24010KT 10SM SCT035 BKN065 BKN075 07/01 A3020 RMK AO2 SLP228 T00720006=
201104111553 METAR KCLM 111553Z AUTO 25006KT 10SM SCT027 BKN060 06/01 A3018 RMK AO2 RAB35E45 SLP223 P0000 T00610006=
201104111453 METAR KCLM 111453Z AUTO 26009KT 10SM FEW032 SCT095 BKN120 04/01 A3016 RMK AO2 RAB15E25 SLP216 P0000 60000 T00390011 53030=
201104111353 METAR KCLM 111353Z AUTO 25009KT 10SM FEW049 SCT080 BKN110 04/01 A3013 RMK AO2 SLP205 T00440006=
201104111253 METAR KCLM 111253Z AUTO 30007KT 10SM FEW041 BKN055 03/01 A3010 RMK AO2 SLP196 T00330011=
201104111153 METAR KCLM 111153Z AUTO 28007KT 10SM FEW043 BKN070 BKN085 03/01 A3007 RMK AO2 RAB16E26 SLP186 P0000 60002 70011 T00280011 10067 20028 53025=
201104111053 METAR KCLM 111053Z AUTO 29003KT 10SM SCT060 BKN075 BKN090 03/02 A3005 RMK AO2 SLP177 T00330017=
201104110953 METAR KCLM 110953Z AUTO 26007KT 10SM SCT060 BKN100 04/02 A3002 RMK AO2 SLP166 T00440017=
201104110853 METAR KCLM 110853Z AUTO 27010KT 10SM CLR 04/02 A3000 RMK AO2 SLP160 60002 T00440022 51026=
201104110753 METAR KCLM 110753Z AUTO 26010KT 10SM BKN043 BKN055 BKN070 05/03 A2997 RMK AO2 RAB02E12 SLP151 P0000 T00500028 401110050=
201104110653 METAR KCLM 110653Z AUTO 28013G22KT 10SM BKN032 OVC046 06/03 A2995 RMK AO2 RAE42 SLP144 P0002 T00610033=
201104110645 SPECI KCLM 110645Z AUTO 29016G23KT 10SM OVC030 06/03 A2995 RMK AO2 RAE42 P0002=
201104110645 SPECI KCLM 110645Z AUTO 29016G23KT 10SM OVC030 06/03 A2995 RMK AO2 RAE42 P0002=
201104110553 METAR KCLM 110553Z AUTO 29012G23KT 5SM RA BR FEW008 BKN018 OVC026 07/04 A2992 RMK AO2 PK WND 30029/0539 SLP134 P0008 60009 T00670044 10100 20067 53025=
201104110542 SPECI KCLM 110542Z AUTO 31017G29KT 10SM -RA SCT008 BKN018 OVC026 07/04 A2991 RMK AO2 PK WND 30029/0539 P0005=
201104110542 SPECI KCLM 110542Z AUTO 31017G29KT 10SM -RA SCT008 BKN018 OVC026 07/04 A2991 RMK AO2 PK WND 30029/0539 P0005=
201104110530 SPECI KCLM 110530Z AUTO 28010G18KT 5SM -RA BR BKN008 BKN013 OVC038 07/06 A2990 RMK AO2 P0005=
201104110530 SPECI KCLM 110530Z AUTO 28010G18KT 5SM -RA BR BKN008 BKN013 OVC038 07/06 A2990 RMK AO2 P0005=
201104110524 SPECI KCLM 110524Z AUTO VRB05KT 5SM RA BR SCT008 BKN025 OVC037 08/06 A2990 RMK AO2 P0005=
201104110524 SPECI KCLM 110524Z AUTO VRB05KT 5SM RA BR SCT008 BKN025 OVC037 08/06 A2990 RMK AO2 P0005=
201104110453 METAR KCLM 110453Z AUTO 27008KT 9SM -RA FEW010 OVC045 08/05 A2987 RMK AO2 SLP116 P0001 T00780050=
201104110353 METAR KCLM 110353Z AUTO 00000KT 10SM -RA OVC049 08/07 A2983 RMK AO2 SLP104 P0000 T00780067=
201104110253 METAR KCLM 110253Z AUTO 00000KT 10SM -RA BKN042 OVC049 08/07 A2985 RMK AO2 SLP109 P0000 60000 T00830067 56014=
201104110153 METAR KCLM 110153Z AUTO 26003KT 10SM -RA FEW016 BKN033 OVC040 08/07 A2985 RMK AO2 SLP110 P0000 T00830072=
201104110139 SPECI KCLM 110139Z AUTO 27003KT 10SM -RA FEW010 BKN033 OVC055 08/07 A2986 RMK AO2 P0000=
201104110139 SPECI KCLM 110139Z AUTO 27003KT 10SM -RA FEW010 BKN033 OVC055 08/07 A2986 RMK AO2 P0000=
201104110112 SPECI KCLM 110112Z AUTO 00000KT 7SM -RA FEW008 BKN020 OVC033 08/07 A2988 RMK AO2 P0000=
201104110112 SPECI KCLM 110112Z AUTO 00000KT 7SM -RA FEW008 BKN020 OVC033 08/07 A2988 RMK AO2 P0000=
201104110100 SPECI KCLM 110100Z AUTO 33003KT 9SM -RA SCT020 BKN029 OVC043 09/07 A2987 RMK AO2 P0000=
201104110100 SPECI KCLM 110100Z AUTO 33003KT 9SM -RA SCT020 BKN029 OVC043 09/07 A2987 RMK AO2 P0000=
201104110053 METAR KCLM 110053Z AUTO 30003KT 6SM -RA BR FEW022 BKN036 OVC045 09/07 A2987 RMK AO2 SLP118 P0000 T00890072=
201104102353 METAR KCLM 102353Z AUTO 00000KT 10SM -RA SCT034 OVC044 09/06 A2989 RMK AO2 RAB43 SLP123 P0000 60000 T00940061 10111 20078 58012=
201104102253 METAR KCLM 102253Z AUTO 00000KT 10SM BKN055 11/06 A2990 RMK AO2 RAE28 SLP126 P0000 T01060061=
201104102153 METAR KCLM 102153Z AUTO 00000KT 8SM -RA SCT029 OVC046 09/08 A2992 RMK AO2 SLP135 P0000 T00890078=
201104102133 SPECI KCLM 102133Z AUTO 34003KT 9SM -RA BKN029 OVC046 09/07 A2992 RMK AO2 P0000=
201104102133 SPECI KCLM 102133Z AUTO 34003KT 9SM -RA BKN029 OVC046 09/07 A2992 RMK AO2 P0000=
201104102053 METAR KCLM 102053Z AUTO 00000KT 9SM -RA SCT031 OVC048 08/06 A2992 RMK AO2 RAB30 SLP135 P0000 60000 T00830061 51002=
201104101953 METAR KCLM 101953Z AUTO 02004KT 10SM OVC055 09/06 A2992 RMK AO2 SLP134 T00890061=
201104101853 METAR KCLM 101853Z AUTO 00000KT 10SM BKN035 BKN050 BKN065 09/07 A2993 RMK AO2 SLP136 T00940067=
201104101753 METAR KCLM 101753Z AUTO 00000KT 10SM FEW035 08/06 A2992 RMK AO2 RAB02E12 SLP133 P0000 60000 T00780056 10083 20050 51006=
201104101653 METAR KCLM 101653Z AUTO 12003KT 10SM SCT009 08/06 A2992 RMK AO2 SLP132 T00830056=
201104101627 SPECI KCLM 101627Z AUTO 00000KT 10SM BKN009 08/06 A2991 RMK AO2 CIG 006V011=
201104101627 SPECI KCLM 101627Z AUTO 00000KT 10SM BKN009 08/06 A2991 RMK AO2 CIG 006V011=
201104101553 METAR KCLM 101553Z AUTO 00000KT 10SM SCT007 BKN013 07/05 A2991 RMK AO2 SLP129 T00720050=
201104101543 SPECI KCLM 101543Z AUTO 00000KT 10SM BKN007 BKN044 07/06 A2991 RMK AO2=
201104101543 SPECI KCLM 101543Z AUTO 00000KT 10SM BKN007 BKN044 07/06 A2991 RMK AO2=
201104101509 SPECI KCLM 101509Z AUTO 00000KT 10SM FEW005 BKN090 BKN110 07/05 A2991 RMK AO2=
201104101509 SPECI KCLM 101509Z AUTO 00000KT 10SM FEW005 BKN090 BKN110 07/05 A2991 RMK AO2=
201104101453 METAR KCLM 101453Z AUTO 00000KT 10SM BKN005 BKN065 OVC110 07/05 A2990 RMK AO2 SLP127 T00670050 56005=
201104101441 SPECI KCLM 101441Z AUTO 21003KT 10SM BKN005 OVC032 06/04 A2990 RMK AO2=
201104101441 SPECI KCLM 101441Z AUTO 21003KT 10SM BKN005 OVC032 06/04 A2990 RMK AO2=
201104101415 SPECI KCLM 101415Z AUTO 24004KT 10SM SCT003 SCT047 OVC070 06/04 A2991 RMK AO2=
201104101415 SPECI KCLM 101415Z AUTO 24004KT 10SM SCT003 SCT047 OVC070 06/04 A2991 RMK AO2=
201104101353 METAR KCLM 101353Z AUTO 24003KT 10SM BKN075 06/04 A2990 RMK AO2 SLP128 T00560039=
201104101253 METAR KCLM 101253Z AUTO 00000KT 10SM OVC090 05/04 A2990 RMK AO2 SLP127 T00500039=
201104101153 METAR KCLM 101153Z AUTO 00000KT 10SM BKN075 OVC090 06/04 A2992 RMK AO2 SLP132 T00560044 10067 20056 58018=
201104101053 METAR KCLM 101053Z AUTO 00000KT 10SM OVC100 06/04 A2994 RMK AO2 SLP139 T00610039=
201104100953 METAR KCLM 100953Z AUTO 13003KT 10SM SCT085 OVC110 06/04 A2995 RMK AO2 SLP144 T00610044=
201104100853 METAR KCLM 100853Z AUTO 00000KT 10SM OVC075 06/04 A2997 RMK AO2 SLP150 T00610044 58002=
201104100753 METAR KCLM 100753Z AUTO 00000KT 10SM OVC070 06/04 A2998 RMK AO2 SLP153 T00610044 401000061=
201104100653 METAR KCLM 100653Z AUTO 00000KT 10SM OVC070 06/05 A2998 RMK AO2 SLP152 T00610050=
201104100553 METAR KCLM 100553Z AUTO 00000KT 10SM FEW029 BKN038 OVC080 07/05 A2997 RMK AO2 SLP151 T00670050 10083 20061 53005=
201104100535 SPECI KCLM 100535Z AUTO 00000KT 10SM SCT029 BKN038 OVC080 07/05 A2997 RMK AO2=
201104100535 SPECI KCLM 100535Z AUTO 00000KT 10SM SCT029 BKN038 OVC080 07/05 A2997 RMK AO2=
201104100521 SPECI KCLM 100521Z AUTO 00000KT 10SM BKN029 BKN038 OVC080 07/05 A2997 RMK AO2=
201104100521 SPECI KCLM 100521Z AUTO 00000KT 10SM BKN029 BKN038 OVC080 07/05 A2997 RMK AO2=
201104100505 SPECI KCLM 100505Z AUTO 00000KT 10SM SCT029 OVC038 07/05 A2997 RMK AO2=
201104100505 SPECI KCLM 100505Z AUTO 00000KT 10SM SCT029 OVC038 07/05 A2997 RMK AO2=
201104100453 METAR KCLM 100453Z AUTO 00000KT 10SM BKN029 OVC038 07/05 A2997 RMK AO2 SLP150 T00720050=
201104100426 SPECI KCLM 100426Z AUTO 00000KT 10SM SCT021 OVC036 07/05 A2996 RMK AO2=
201104100426 SPECI KCLM 100426Z AUTO 00000KT 10SM SCT021 OVC036 07/05 A2996 RMK AO2=
201104100353 METAR KCLM 100353Z AUTO 00000KT 10SM OVC019 07/05 A2996 RMK AO2 SLP147 T00720050=
201104100253 METAR KCLM 100253Z AUTO 00000KT 10SM OVC025 07/05 A2996 RMK AO2 SLP147 T00720050 51001=
201104100211 SPECI KCLM 100211Z AUTO 31003KT 10SM BKN018 BKN025 OVC033 07/05 A2996 RMK AO2=
201104100211 SPECI KCLM 100211Z AUTO 31003KT 10SM BKN018 BKN025 OVC033 07/05 A2996 RMK AO2=
201104100153 METAR KCLM 100153Z AUTO 31003KT 10SM OVC033 07/05 A2996 RMK AO2 SLP147 T00720050=
201104100124 SPECI KCLM 100124Z AUTO 29005KT 10SM OVC031 08/05 A2996 RMK AO2=
201104100124 SPECI KCLM 100124Z AUTO 29005KT 10SM OVC031 08/05 A2996 RMK AO2=
201104100053 METAR KCLM 100053Z AUTO 31004KT 10SM OVC027 08/04 A2996 RMK AO2 SLP147 T00780044=
201104092353 METAR KCLM 092353Z AUTO 35003KT 10SM OVC027 08/04 A2996 RMK AO2 SLP146 T00830039 10100 20078 50002=
201104092253 METAR KCLM 092253Z AUTO 00000KT 10SM OVC029 08/04 A2996 RMK AO2 SLP148 T00830039=
201104092206 SPECI KCLM 092206Z AUTO 00000KT 10SM FEW021 OVC029 08/04 A2996 RMK AO2=
201104092206 SPECI KCLM 092206Z AUTO 00000KT 10SM FEW021 OVC029 08/04 A2996 RMK AO2=
201104092153 METAR KCLM 092153Z AUTO 00000KT 10SM FEW021 OVC031 08/03 A2996 RMK AO2 SLP148 T00830033=
201104092053 METAR KCLM 092053Z AUTO 00000KT 10SM OVC033 08/03 A2995 RMK AO2 SLP144 T00830033 58001=
201104091953 METAR KCLM 091953Z AUTO VRB05KT 10SM OVC033 09/03 A2995 RMK AO2 SLP145 T00890028=
201104091853 METAR KCLM 091853Z AUTO VRB04KT 10SM CLR 09/01 A2995 RMK AO2 SLP145 T00940011=
201104091753 METAR KCLM 091753Z AUTO 36005KT 10SM BKN100 09/02 A2995 RMK AO2 SLP145 T00940022 10094 20061 50004=
201104091653 METAR KCLM 091653Z AUTO 32004KT 10SM OVC100 08/02 A2996 RMK AO2 SLP147 T00780017=
201104091553 METAR KCLM 091553Z AUTO 24003KT 10SM BKN060 OVC090 08/02 A2994 RMK AO2 SLP142 T00780017=
201104091453 METAR KCLM 091453Z AUTO 25005KT 10SM OVC060 07/01 A2994 RMK AO2 SLP141 T00670011 53006=
201104091353 METAR KCLM 091353Z AUTO 26007KT 10SM OVC065 07/02 A2993 RMK AO2 SLP137 T00670017=
201104091253 METAR KCLM 091253Z AUTO 27010KT 10SM OVC070 07/02 A2992 RMK AO2 SLP133 T00670022=
201104091153 METAR KCLM 091153Z AUTO 28011KT 10SM OVC070 06/03 A2993 RMK AO2 SLP135 T00610028 10067 20061 58006=
201104091053 METAR KCLM 091053Z AUTO 28007KT 10SM SCT070 OVC110 06/01 A2993 RMK AO2 SLP135 T00610011=
201104090953 METAR KCLM 090953Z AUTO 26007KT 10SM FEW070 OVC080 06/01 A2995 RMK AO2 SLP142 T00610011=
201104090853 METAR KCLM 090853Z AUTO 28009KT 10SM OVC080 07/02 A2995 RMK AO2 SLP141 T00670017 58005=
201104090753 METAR KCLM 090753Z AUTO 28010KT 10SM OVC080 06/02 A2996 RMK AO2 SLP147 T00610017 401171006=
201104090653 METAR KCLM 090653Z AUTO 27008KT 10SM SCT100 OVC120 06/03 A2996 RMK AO2 SLP147 T00610033=
201104090553 METAR KCLM 090553Z AUTO 28007KT 10SM FEW120 06/04 A2996 RMK AO2 SLP147 T00610039 10106 20061 55002=
201104090453 METAR KCLM 090453Z AUTO 29008KT 10SM BKN120 07/04 A2996 RMK AO2 SLP147 T00670039=
201104090353 METAR KCLM 090353Z AUTO 29008KT 10SM OVC100 07/02 A2997 RMK AO2 SLP150 T00720017=
201104090253 METAR KCLM 090253Z AUTO 28010KT 10SM CLR 08/M01 A2997 RMK AO2 SLP150 T00781006 56006=
201104090153 METAR KCLM 090153Z AUTO 32006KT 10SM FEW100 09/M01 A2997 RMK AO2 SLP150 T00891011=
201104090053 METAR KCLM 090053Z AUTO 29007KT 10SM FEW100 11/M01 A2998 RMK AO2 SLP152 T01061006=
201104082353 METAR KCLM 082353Z AUTO 33004KT 10SM CLR 11/M01 A2999 RMK AO2 SLP156 T01111006 10117 20089 56015=
201104082253 METAR KCLM 082253Z AUTO 09003KT 10SM CLR 11/01 A2999 RMK AO2 SLP157 T01110006=
201104082153 METAR KCLM 082153Z AUTO VRB03KT 10SM CLR 11/M01 A3001 RMK AO2 SLP165 T01061006=
201104082053 METAR KCLM 082053Z AUTO 10007KT 10SM CLR 11/M01 A3003 RMK AO2 SLP171 T01061011 58012=
201104081953 METAR KCLM 081953Z AUTO 11007KT 10SM CLR 10/02 A3005 RMK AO2 SLP178 T01000017=
201104081853 METAR KCLM 081853Z AUTO 08007KT 10SM FEW095 09/01 A3007 RMK AO2 SLP183 T00940011=
201104081753 METAR KCLM 081753Z AUTO 10006KT 10SM CLR 09/01 A3007 RMK AO2 SLP183 T00890011 10094 21006 55003=
201104081653 METAR KCLM 081653Z AUTO 12008KT 10SM CLR 09/01 A3007 RMK AO2 SLP183 T00890011=
201104081553 METAR KCLM 081553Z AUTO 00000KT 10SM CLR 07/M01 A3007 RMK AO2 SLP186 T00671006=
201104081453 METAR KCLM 081453Z AUTO 00000KT 10SM CLR 02/00 A3008 RMK AO2 SLP186 T00220000 50002=
201104081353 METAR KCLM 081353Z AUTO 21004KT 10SM CLR 01/M02 A3009 RMK AO2 SLP190 T00061022=
201104081253 METAR KCLM 081253Z AUTO 23006KT 10SM CLR 01/M02 A3009 RMK AO2 SLP190 T00061022=
201104081153 METAR KCLM 081153Z AUTO 24008KT 10SM CLR 02/M02 A3007 RMK AO2 SLP185 T00221017 10056 20017 50002=
201104081053 METAR KCLM 081053Z AUTO 23007KT 10SM CLR 03/M01 A3008 RMK AO2 SLP186 T00281011=
201104080953 METAR KCLM 080953Z AUTO 23009KT 10SM CLR 03/M01 A3007 RMK AO2 SLP183 T00281011=
201104080853 METAR KCLM 080853Z AUTO 23008KT 10SM CLR 03/M01 A3006 RMK AO2 SLP183 T00281011 50001=
201104080753 METAR KCLM 080753Z AUTO 24009KT 10SM CLR 03/M01 A3007 RMK AO2 SLP184 T00331006 401000006=
201104080653 METAR KCLM 080653Z AUTO 23007KT 10SM CLR 04/00 A3007 RMK AO2 SLP183 T00390000=
201104080553 METAR KCLM 080553Z AUTO 25009KT 10SM CLR 05/00 A3006 RMK AO2 SLP181 T00500000 10094 20039 51012=
201104080453 METAR KCLM 080453Z AUTO 25010KT 10SM CLR 05/01 A3006 RMK AO2 SLP179 T00500006=
201104080353 METAR KCLM 080353Z AUTO 29006KT 10SM CLR 04/01 A3004 RMK AO2 SLP173 T00390006=
201104080253 METAR KCLM 080253Z AUTO 27006KT 10SM CLR 06/00 A3003 RMK AO2 SLP169 T00560000 53007=
201104080153 METAR KCLM 080153Z AUTO 30004KT 10SM CLR 07/01 A3002 RMK AO2 SLP167 T00720006 TSNO=
201104080053 METAR KCLM 080053Z AUTO 35004KT 10SM CLR 08/00 A3001 RMK AO2 SLP163 T00830000=
201104072353 METAR KCLM 072353Z AUTO 35004KT 10SM CLR 09/M01 A3001 RMK AO2 SLP162 T00941011 10100 20067 58002=
201104072253 METAR KCLM 072253Z AUTO VRB04KT 10SM CLR 09/00 A3001 RMK AO2 SLP163 T00940000=
201104072153 METAR KCLM 072153Z AUTO 06004KT 10SM CLR 09/M01 A3001 RMK AO2 SLP164 T00941011=
201104072053 METAR KCLM 072053Z AUTO 01006KT 10SM CLR 09/M01 A3001 RMK AO2 SLP164 T00891011 50002=
201104071953 METAR KCLM 071953Z AUTO VRB03KT 10SM SCT050 08/00 A3002 RMK AO2 SLP166 T00830000=
201104071853 METAR KCLM 071853Z AUTO VRB04KT 10SM FEW038 08/M01 A3001 RMK AO2 SLP165 T00831011=
201104071753 METAR KCLM 071753Z AUTO 00000KT 10SM OVC055 07/M01 A3001 RMK AO2 SLP163 T00721011 10078 20006 53011=
201104071653 METAR KCLM 071653Z AUTO 13004KT 10SM BKN050 07/M01 A2999 RMK AO2 SLP157 T00671006=
201104071553 METAR KCLM 071553Z AUTO 24004KT 10SM CLR 03/M01 A2998 RMK AO2 SLP154 T00331006=
201104071453 METAR KCLM 071453Z AUTO 23004KT 10SM OVC060 02/M01 A2997 RMK AO2 SLP153 T00171011 53013=
201104071353 METAR KCLM 071353Z AUTO 23005KT 10SM BKN037 OVC055 01/M01 A2996 RMK AO2 SLP148 T00111011=
201104071253 METAR KCLM 071253Z AUTO 23006KT 10SM FEW050 01/M02 A2995 RMK AO2 SLP144 T00111017=
201104071153 METAR KCLM 071153Z AUTO 24007KT 10SM FEW050 01/M02 A2994 RMK AO2 SLP140 70005 T00111017 10022 20011 51007=
201104071053 METAR KCLM 071053Z AUTO 24009KT 10SM BKN049 02/M01 A2993 RMK AO2 SLP138 T00221011=
201104070953 METAR KCLM 070953Z AUTO 25008KT 10SM FEW047 02/M01 A2992 RMK AO2 SLP134 T00221011=
201104070853 METAR KCLM 070853Z AUTO 25010KT 10SM SCT060 02/M01 A2992 RMK AO2 SLP133 T00221011 53006=
201104070753 METAR KCLM 070753Z AUTO 25009KT 10SM CLR 02/M01 A2991 RMK AO2 SLP130 T00171006 400720017=
201104070653 METAR KCLM 070653Z AUTO 25007KT 10SM CLR 02/M01 A2991 RMK AO2 SLP130 T00221006=
201104070553 METAR KCLM 070553Z AUTO 24006KT 10SM CLR 02/M01 A2990 RMK AO2 SLP126 T00221006 10061 20022 53014=
201104070453 METAR KCLM 070453Z AUTO 24005KT 10SM CLR 02/00 A2988 RMK AO2 SLP120 T00220000=
201104070353 METAR KCLM 070353Z AUTO 24006KT 10SM OVC070 03/01 A2987 RMK AO2 SLP117 T00330006=
201104070253 METAR KCLM 070253Z AUTO 25005KT 10SM CLR 04/00 A2986 RMK AO2 SLP112 T00390000 53005=
201104070153 METAR KCLM 070153Z AUTO 31006KT 10SM SCT070 06/M01 A2985 RMK AO2 SLP108 T00561006=
201104070053 METAR KCLM 070053Z AUTO 18007KT 10SM FEW024 SCT035 BKN043 05/02 A2984 RMK AO2 SLP108 T00500017=
201104070033 SPECI KCLM 070033Z AUTO 30010KT 10SM SCT027 BKN037 BKN070 06/02 A2984 RMK AO2=
201104070033 SPECI KCLM 070033Z AUTO 30010KT 10SM SCT027 BKN037 BKN070 06/02 A2984 RMK AO2=
201104062353 METAR KCLM 062353Z AUTO 30009G15KT 10SM BKN021 OVC027 05/01 A2984 RMK AO2 SLP106 60004 T00500011 10072 20022 56007=
201104062253 METAR KCLM 062253Z AUTO 07006KT 10SM SCT013 BKN017 OVC022 06/02 A2984 RMK AO2 SLP107 T00560022=
201104062229 SPECI KCLM 062229Z AUTO 07004KT 10SM BKN013 OVC020 06/03 A2984 RMK AO2=
201104062229 SPECI KCLM 062229Z AUTO 07004KT 10SM BKN013 OVC020 06/03 A2984 RMK AO2=
201104062153 METAR KCLM 062153Z AUTO 12008KT 10SM FEW011 SCT016 BKN021 06/03 A2985 RMK AO2 RAB2057E13 SLP108 P0003 T00610033=
201104062053 METAR KCLM 062053Z AUTO 33006KT 10SM BKN017 BKN028 OVC080 04/01 A2986 RMK AO2 SLP113 60001 T00440011 58002=
201104062046 SPECI KCLM 062046Z AUTO 34009KT 10SM SCT015 BKN020 OVC075 05/02 A2986 RMK AO2=
201104062046 SPECI KCLM 062046Z AUTO 34009KT 10SM SCT015 BKN020 OVC075 05/02 A2986 RMK AO2=
201104062027 SPECI KCLM 062027Z AUTO 28004KT 10SM SCT009 OVC070 06/02 A2985 RMK AO2=
201104062027 SPECI KCLM 062027Z AUTO 28004KT 10SM SCT009 OVC070 06/02 A2985 RMK AO2=
201104061953 METAR KCLM 061953Z AUTO 24003KT 10SM BKN009 OVC065 04/02 A2987 RMK AO2 RAE21UPB21E24 SLP115 P0001 T00440022=
201104061943 SPECI KCLM 061943Z AUTO 30003KT 10SM BKN008 BKN055 OVC070 04/02 A2987 RMK AO2 RAE21UPB21E24 P0001=
201104061943 SPECI KCLM 061943Z AUTO 30003KT 10SM BKN008 BKN055 OVC070 04/02 A2987 RMK AO2 RAE21UPB21E24 P0001=
201104061933 SPECI KCLM 061933Z AUTO 29004KT 10SM SCT008 BKN011 OVC070 03/02 A2987 RMK AO2 RAE21UPB21E24 P0001=
201104061933 SPECI KCLM 061933Z AUTO 29004KT 10SM SCT008 BKN011 OVC070 03/02 A2987 RMK AO2 RAE21UPB21E24 P0001=
201104061923 SPECI KCLM 061923Z AUTO 26004KT 10SM UP SCT008 OVC016 03/02 A2988 RMK AO2 RAE21UPB21 P0001=
201104061923 SPECI KCLM 061923Z AUTO 26004KT 10SM UP SCT008 OVC016 03/02 A2988 RMK AO2 RAE21UPB21 P0001=
201104061916 SPECI KCLM 061916Z AUTO 26006KT 10SM -RA SCT010 OVC016 03/02 A2988 RMK AO2 P0001=
201104061916 SPECI KCLM 061916Z AUTO 26006KT 10SM -RA SCT010 OVC016 03/02 A2988 RMK AO2 P0001=
201104061900 SPECI KCLM 061900Z AUTO 29008KT 8SM -RA BKN014 OVC028 02/01 A2988 RMK AO2 P0001=
201104061900 SPECI KCLM 061900Z AUTO 29008KT 8SM -RA BKN014 OVC028 02/01 A2988 RMK AO2 P0001=
201104061853 METAR KCLM 061853Z AUTO 28010KT 9SM -RA BKN016 BKN025 OVC030 02/01 A2988 RMK AO2 RAB30 SLP120 P0000 T00220006=
201104061829 SPECI KCLM 061829Z AUTO 31007KT 10SM BKN021 BKN029 OVC055 04/01 A2987 RMK AO2=
201104061829 SPECI KCLM 061829Z AUTO 31007KT 10SM BKN021 BKN029 OVC055 04/01 A2987 RMK AO2=
201104061753 METAR KCLM 061753Z AUTO 00000KT 10SM FEW031 SCT039 OVC070 06/01 A2986 RMK AO2 SLP114 60001 T00610006 10067 20017 51003=
201104061653 METAR KCLM 061653Z AUTO VRB03KT 10SM SCT060 06/03 A2986 RMK AO2 SLP114 T00610028=
201104061553 METAR KCLM 061553Z AUTO 27007KT 10SM FEW027 BKN070 05/01 A2986 RMK AO2 SLP114 T00500011=
201104061453 METAR KCLM 061453Z AUTO 27008KT 10SM SCT075 03/01 A2986 RMK AO2 UPB14E25 SLP112 P0001 60001 T00280011 55003=
201104061353 METAR KCLM 061353Z AUTO 26007KT 10SM SCT055 SCT070 02/00 A2985 RMK AO2 SLP111 T00220000=
201104061253 METAR KCLM 061253Z AUTO 28003KT 10SM SCT047 BKN070 02/00 A2985 RMK AO2 RAE15UPB15E23 SLP111 P0000 T00170000 TSNO=
201104061225 SPECI KCLM 061225Z AUTO 27009KT 10SM SCT026 BKN050 OVC075 02/01 A2985 RMK AO2 RAE15UPB15E23 P0000=
201104061225 SPECI KCLM 061225Z AUTO 27009KT 10SM SCT026 BKN050 OVC075 02/01 A2985 RMK AO2 RAE15UPB15E23 P0000=
201104061213 SPECI KCLM 061213Z AUTO 25008KT 10SM -RA BKN024 OVC050 03/01 A2986 RMK AO2 P0000=
201104061213 SPECI KCLM 061213Z AUTO 25008KT 10SM -RA BKN024 OVC050 03/01 A2986 RMK AO2 P0000=
201104061202 SPECI KCLM 061202Z AUTO 27009KT 10SM -RA BKN014 BKN026 OVC047 03/01 A2986 RMK AO2 P0000=
201104061202 SPECI KCLM 061202Z AUTO 27009KT 10SM -RA BKN014 BKN026 OVC047 03/01 A2986 RMK AO2 P0000=
201104061153 METAR KCLM 061153Z AUTO 29011G23KT 9SM -RA SCT014 BKN029 OVC047 03/01 A2986 RMK AO2 RAB46 SLP114 P0001 60005 70005 T00280006 10050 20022 53003=
201104061100 METAR KCLM NIL=
201104061053 METAR KCLM 061053Z AUTO 28007KT 10SM SCT050 BKN065 BKN075 03/01 A2985 RMK AO2 SLP111 T00280011=
201104060953 METAR KCLM 060953Z AUTO 27004KT 10SM BKN034 BKN041 OVC065 04/02 A2986 RMK AO2 RAE03B27E49 SLP112 P0000 T00390022=
201104060905 SPECI KCLM 060905Z AUTO 23005KT 10SM SCT023 BKN033 BKN044 04/02 A2985 RMK AO2 RAE03 P0000=
201104060905 SPECI KCLM 060905Z AUTO 23005KT 10SM SCT023 BKN033 BKN044 04/02 A2985 RMK AO2 RAE03 P0000=
201104060853 METAR KCLM 060853Z AUTO 25005KT 8SM -RA BKN021 OVC035 04/02 A2985 RMK AO2 RAB29 SLP111 P0001 60004 T00390017 56003=
201104060851 SPECI KCLM 060851Z AUTO 25005KT 8SM -RA BKN021 BKN030 OVC035 04/02 A2985 RMK AO2 RAB29 P0001=
201104060851 SPECI KCLM 060851Z AUTO 25005KT 8SM -RA BKN021 BKN030 OVC035 04/02 A2985 RMK AO2 RAB29 P0001=
201104060753 METAR KCLM 060753Z AUTO 00000KT 10SM FEW070 OVC090 04/02 A2985 RMK AO2 RAE04 SLP110 P0000 T00390022 401000022=
201104060653 METAR KCLM 060653Z AUTO 20007KT 9SM -RA OVC037 04/02 A2986 RMK AO2 RAB12 SLP114 P0003 T00440022=
201104060634 SPECI KCLM 060634Z AUTO VRB05KT 10SM -RA FEW019 OVC037 04/02 A2987 RMK AO2 RAB12 P0003=
201104060634 SPECI KCLM 060634Z AUTO VRB05KT 10SM -RA FEW019 OVC037 04/02 A2987 RMK AO2 RAB12 P0003=
201104060623 SPECI KCLM 060623Z AUTO 17009KT 5SM RA FEW019 BKN024 OVC055 05/02 A2987 RMK AO2 RAB12 P0002=
201104060623 SPECI KCLM 060623Z AUTO 17009KT 5SM RA FEW019 BKN024 OVC055 05/02 A2987 RMK AO2 RAB12 P0002=
201104060553 METAR KCLM 060553Z AUTO 27004KT 10SM FEW060 OVC090 04/02 A2988 RMK AO2 SLP120 60000 T00440022 10089 20028 55008=
201104060453 METAR KCLM 060453Z AUTO 14003KT 10SM BKN070 BKN080 OVC095 04/03 A2988 RMK AO2 RAE38 SLP119 P0000 T00440028=
201104060353 METAR KCLM 060353Z AUTO 26008KT 10SM -RA BKN039 OVC050 05/03 A2990 RMK AO2 RAB38 SLP127 P0000 T00500028=
201104060253 METAR KCLM 060253Z AUTO 25005KT 10SM BKN045 OVC065 06/02 A2990 RMK AO2 SLP128 T00610022 58012=
201104060153 METAR KCLM 060153Z AUTO 24006KT 10SM SCT036 BKN060 BKN100 07/02 A2993 RMK AO2 SLP135 T00670017=
201104060053 METAR KCLM 060053Z AUTO 24010G18KT 10SM FEW060 08/00 A2994 RMK AO2 SLP140 T00830000=
201104052353 METAR KCLM 052353Z AUTO 25013G20KT 10SM FEW060 BKN100 09/M01 A2994 RMK AO2 SLP140 60000 T00891006 10100 20067 58014=
201104052253 METAR KCLM 052253Z AUTO 28008KT 10SM BKN100 09/01 A2996 RMK AO2 SLP146 T00940011=
201104052153 METAR KCLM 052153Z AUTO 33006KT 10SM FEW050 SCT090 SCT110 09/02 A2998 RMK AO2 SLP155 T00940022=
201104052053 METAR KCLM 052053Z AUTO 25010KT 10SM BKN060 BKN085 BKN100 09/02 A2998 RMK AO2 RAB00E10 SLP155 P0000 60000 T00890022 51004=
201104051953 METAR KCLM 051953Z AUTO 26009KT 10SM SCT047 BKN065 08/02 A2998 RMK AO2 SLP154 T00830022=
201104051853 METAR KCLM 051853Z AUTO VRB06KT 10SM FEW045 BKN060 BKN090 08/02 A2998 RMK AO2 SLP153 T00830022=
201104051838 SPECI KCLM 051838Z AUTO 24008KT 10SM SCT024 BKN044 OVC065 08/03 A2998 RMK AO2=
201104051838 SPECI KCLM 051838Z AUTO 24008KT 10SM SCT024 BKN044 OVC065 08/03 A2998 RMK AO2=
201104051825 SPECI KCLM 051825Z AUTO VRB05KT 10SM BKN024 BKN036 OVC043 08/03 A2998 RMK AO2=
201104051825 SPECI KCLM 051825Z AUTO VRB05KT 10SM BKN024 BKN036 OVC043 08/03 A2998 RMK AO2=
201104051753 METAR KCLM 051753Z AUTO 02006KT 10SM FEW018 BKN037 BKN060 07/04 A2997 RMK AO2 RAB33E48 SLP151 P0000 60000 T00720039 10078 20028 55001=
201104051653 METAR KCLM 051653Z AUTO 04003KT 10SM BKN060 BKN085 07/03 A2996 RMK AO2 SLP148 T00670028=
201104051553 METAR KCLM 051553Z AUTO 13003KT 10SM FEW040 BKN065 OVC095 06/02 A2997 RMK AO2 SLP150 T00610017=
201104051453 METAR KCLM 051453Z AUTO 22003KT 10SM SCT060 OVC095 04/01 A2997 RMK AO2 SLP152 T00390011 50003=
201104051353 METAR KCLM 051353Z AUTO 25008KT 10SM SCT075 BKN090 OVC110 04/00 A2998 RMK AO2 SLP152 T00440000=
201104051253 METAR KCLM 051253Z AUTO 23006KT 10SM BKN090 04/M01 A2997 RMK AO2 SLP150 T00391006=
201104051153 METAR KCLM 051153Z AUTO 23008KT 10SM BKN110 03/01 A2996 RMK AO2 SLP148 70005 T00280011 10050 20022 51012=
201104051053 METAR KCLM 051053Z AUTO 24004KT 10SM FEW042 OVC055 04/01 A2996 RMK AO2 SLP147 T00390011=
201104050953 METAR KCLM 050953Z AUTO 29008KT 10SM OVC065 04/01 A2995 RMK AO2 SLP143 T00390011=
201104050853 METAR KCLM 050853Z AUTO 27011KT 10SM BKN033 BKN045 05/01 A2993 RMK AO2 SLP137 T00500011 53016=
201104050753 METAR KCLM 050753Z AUTO 24007KT 10SM SCT060 BKN080 BKN090 04/02 A2991 RMK AO2 SLP130 T00440017 400720033=
201104050653 METAR KCLM 050653Z AUTO 30008KT 10SM FEW085 04/02 A2989 RMK AO2 SLP122 T00390022=
201104050553 METAR KCLM 050553Z AUTO 26009KT 10SM FEW042 BKN090 05/02 A2988 RMK AO2 SLP121 60004 T00500022 10067 20044 50008=
201104050453 METAR KCLM 050453Z AUTO 25008KT 10SM FEW030 SCT036 BKN046 05/03 A2989 RMK AO2 RAE43 SLP122 P0001 T00500033=
201104050408 SPECI KCLM 050408Z AUTO 27004KT 10SM -RA BKN035 OVC044 06/04 A2989 RMK AO2 P0000=
201104050408 SPECI KCLM 050408Z AUTO 27004KT 10SM -RA BKN035 OVC044 06/04 A2989 RMK AO2 P0000=
201104050353 METAR KCLM 050353Z AUTO 26004KT 10SM -RA FEW014 BKN029 OVC041 06/05 A2989 RMK AO2 RAB06 SLP123 P0003 T00560050=
201104050340 SPECI KCLM 050340Z AUTO 28007KT 4SM -RA BR FEW016 BKN025 OVC039 06/05 A2989 RMK AO2 RAB06 P0003=
201104050340 SPECI KCLM 050340Z AUTO 28007KT 4SM -RA BR FEW016 BKN025 OVC039 06/05 A2989 RMK AO2 RAB06 P0003=
201104050253 METAR KCLM 050253Z AUTO 14004KT 10SM FEW019 BKN046 OVC060 06/05 A2986 RMK AO2 RAE00B20E30 SLP112 P0000 60000 T00610050 58023=
201104050212 SPECI KCLM 050212Z AUTO 13005KT 10SM SCT008 BKN050 OVC070 06/06 A2987 RMK AO2 RAE00 P0000=
201104050212 SPECI KCLM 050212Z AUTO 13005KT 10SM SCT008 BKN050 OVC070 06/06 A2987 RMK AO2 RAE00 P0000=
201104050203 SPECI KCLM 050203Z AUTO 13004KT 10SM BKN008 BKN012 OVC050 06/06 A2988 RMK AO2 RAE00 P0000=
201104050203 SPECI KCLM 050203Z AUTO 13004KT 10SM BKN008 BKN012 OVC050 06/06 A2988 RMK AO2 RAE00 P0000=
201104050153 METAR KCLM 050153Z AUTO 00000KT 10SM -RA SCT008 BKN012 OVC026 06/06 A2988 RMK AO2 SLP121 P0000 T00610056=
201104050113 SPECI KCLM 050113Z AUTO 00000KT 6SM -RA BR BKN012 OVC023 06/06 A2991 RMK AO2 P0000=
201104050113 SPECI KCLM 050113Z AUTO 00000KT 6SM -RA BR BKN012 OVC023 06/06 A2991 RMK AO2 P0000=
201104050053 METAR KCLM 050053Z AUTO 00000KT 9SM -RA FEW002 OVC023 07/06 A2992 RMK AO2 SLP132 P0000 T00670056=
201104050016 SPECI KCLM 050016Z AUTO 00000KT 9SM -RA SCT002 OVC016 06/06 A2992 RMK AO2 P0000=
201104050016 SPECI KCLM 050016Z AUTO 00000KT 9SM -RA SCT002 OVC016 06/06 A2992 RMK AO2 P0000=
201104042353 METAR KCLM 042353Z AUTO 00000KT 6SM -RA BR BKN002 OVC016 06/06 A2993 RMK AO2 SLP136 P0000 60001 T00610056 10072 20061 57020=
201104042253 METAR KCLM 042253Z AUTO 03003KT 5SM -RA BR BKN002 BKN016 OVC027 06/06 A2994 RMK AO2 SLP141 P0000 T00610056=
201104042153 METAR KCLM 042153Z AUTO 03003KT 4SM -RA BR BKN004 OVC031 07/06 A2997 RMK AO2 CIG 001V007 SLP150 P0000 T00670056=
201104042053 METAR KCLM 042053Z AUTO 08003KT 9SM -RA BKN004 OVC034 07/06 A2999 RMK AO2 SLP156 P0000 60001 T00720056 56015=
201104042038 SPECI KCLM 042038Z AUTO 11003KT 10SM -RA FEW004 SCT029 OVC036 07/06 A2999 RMK AO2 P0000=
201104042038 SPECI KCLM 042038Z AUTO 11003KT 10SM -RA FEW004 SCT029 OVC036 07/06 A2999 RMK AO2 P0000=
201104042011 SPECI KCLM 042011Z AUTO 10003KT 10SM -RA SCT004 BKN029 OVC038 07/06 A3000 RMK AO2 P0000=
201104042011 SPECI KCLM 042011Z AUTO 10003KT 10SM -RA SCT004 BKN029 OVC038 07/06 A3000 RMK AO2 P0000=
201104041953 METAR KCLM 041953Z AUTO 11005KT 10SM -RA SCT004 BKN031 OVC038 07/06 A3000 RMK AO2 SLP161 P0001 T00670056=
201104041948 SPECI KCLM 041948Z AUTO 11005KT 10SM -RA BKN004 OVC035 07/06 A3000 RMK AO2 P0001=
201104041948 SPECI KCLM 041948Z AUTO 11005KT 10SM -RA BKN004 OVC035 07/06 A3000 RMK AO2 P0001=
201104041909 SPECI KCLM 041909Z AUTO 10004KT 8SM -RA SCT004 BKN030 OVC038 06/05 A3002 RMK AO2 P0000=
201104041909 SPECI KCLM 041909Z AUTO 10004KT 8SM -RA SCT004 BKN030 OVC038 06/05 A3002 RMK AO2 P0000=
201104041853 METAR KCLM 041853Z AUTO 00000KT 7SM -RA BKN004 OVC038 06/05 A3003 RMK AO2 SLP171 P0000 T00610050=
201104041821 SPECI KCLM 041821Z AUTO 05003KT 4SM -RA BR BKN004 OVC035 06/05 A3004 RMK AO2 P0000=
201104041821 SPECI KCLM 041821Z AUTO 05003KT 4SM -RA BR BKN004 OVC035 06/05 A3004 RMK AO2 P0000=
201104041753 METAR KCLM 041753Z AUTO 00000KT 7SM -RA SCT004 BKN034 OVC041 06/05 A3003 RMK AO2 SLP172 P0000 60000 T00610050 10061 20044 50001=
201104041653 METAR KCLM 041653Z AUTO 00000KT 10SM -RA FEW028 BKN043 OVC055 06/04 A3004 RMK AO2 SLP173 P0000 T00560044=
201104041553 METAR KCLM 041553Z AUTO 00000KT 8SM -RA OVC040 05/04 A3005 RMK AO2 RAB1455 SLP177 P0000 T00500044=
201104041453 METAR KCLM 041453Z AUTO 00000KT 10SM OVC046 06/04 A3003 RMK AO2 RAE53 SLP171 P0000 60000 T00560039 56012=
201104041353 METAR KCLM 041353Z AUTO 00000KT 10SM -RA BKN055 OVC080 05/04 A3003 RMK AO2 RAB18 SLP172 P0000 T00500039=
201104041253 METAR KCLM 041253Z AUTO 15003KT 9SM OVC060 04/03 A3004 RMK AO2 RAE17B35E51 SLP176 P0000 T00440033=
201104041153 METAR KCLM 041153Z AUTO 00000KT 10SM -RA OVC040 05/04 A3006 RMK AO2 SLP182 P0000 60000 T00500039 10050 20033 56014=
201104041053 METAR KCLM 041053Z AUTO 00000KT 9SM -RA BKN042 OVC060 04/04 A3008 RMK AO2 RAB23 SLP188 P0000 T00440039=
201104040953 METAR KCLM 040953Z AUTO 00000KT 10SM FEW016 SCT055 OVC070 04/03 A3009 RMK AO2 SLP190 T00440033=
201104040853 METAR KCLM 040853Z AUTO 00000KT 10SM SCT015 OVC070 04/03 A3010 RMK AO2 SLP196 T00440033 56017=
201104040822 SPECI KCLM 040822Z AUTO 00000KT 10SM BKN015 OVC070 04/03 A3012 RMK AO2=
201104040822 SPECI KCLM 040822Z AUTO 00000KT 10SM BKN015 OVC070 04/03 A3012 RMK AO2=
201104040753 METAR KCLM 040753Z AUTO 00000KT 10SM OVC075 04/03 A3012 RMK AO2 SLP201 T00440033 400890017=
201104040653 METAR KCLM 040653Z AUTO 00000KT 10SM BKN075 OVC095 04/03 A3014 RMK AO2 SLP208 T00390033=
201104040553 METAR KCLM 040553Z AUTO 00000KT 10SM OVC100 04/04 A3016 RMK AO2 SLP213 60000 T00440039 10072 20044 58011=
201104040453 METAR KCLM 040453Z AUTO 00000KT 10SM FEW018 BKN031 OVC047 05/04 A3018 RMK AO2 SLP222 T00500039=
201104040449 SPECI KCLM 040449Z AUTO 00000KT 10SM SCT018 BKN031 OVC043 05/04 A3018 RMK AO2=
201104040449 SPECI KCLM 040449Z AUTO 00000KT 10SM SCT018 BKN031 OVC043 05/04 A3018 RMK AO2=
201104040413 SPECI KCLM 040413Z AUTO 00000KT 10SM BKN027 BKN050 OVC095 05/04 A3018 RMK AO2=
201104040413 SPECI KCLM 040413Z AUTO 00000KT 10SM BKN027 BKN050 OVC095 05/04 A3018 RMK AO2=
201104040353 METAR KCLM 040353Z AUTO 00000KT 10SM BKN030 OVC100 05/04 A3019 RMK AO2 RAE16 SLP225 P0000 T00500044=
201104040346 SPECI KCLM 040346Z AUTO 00000KT 10SM FEW013 SCT025 OVC032 06/04 A3019 RMK AO2 RAE16 P0000=
201104040346 SPECI KCLM 040346Z AUTO 00000KT 10SM FEW013 SCT025 OVC032 06/04 A3019 RMK AO2 RAE16 P0000=
201104040338 SPECI KCLM 040338Z AUTO 00000KT 10SM SCT009 BKN024 OVC031 05/04 A3019 RMK AO2 RAE16 P0000=
201104040338 SPECI KCLM 040338Z AUTO 00000KT 10SM SCT009 BKN024 OVC031 05/04 A3019 RMK AO2 RAE16 P0000=
201104040313 SPECI KCLM 040313Z AUTO 00000KT 10SM -RA BKN009 BKN012 OVC033 06/04 A3019 RMK AO2 P0000=
201104040313 SPECI KCLM 040313Z AUTO 00000KT 10SM -RA BKN009 BKN012 OVC033 06/04 A3019 RMK AO2 P0000=
201104040303 SPECI KCLM 040303Z AUTO 00000KT 10SM -RA SCT009 BKN024 OVC031 06/04 A3019 RMK AO2 P0000=
201104040303 SPECI KCLM 040303Z AUTO 00000KT 10SM -RA SCT009 BKN024 OVC031 06/04 A3019 RMK AO2 P0000=
201104040253 METAR KCLM 040253Z AUTO 00000KT 10SM -RA SCT024 OVC031 06/04 A3019 RMK AO2 RAE07B42 SLP225 P0000 60000 T00560039 58023=
201104040213 SPECI KCLM 040213Z AUTO 32004KT 10SM FEW009 OVC022 06/04 A3022 RMK AO2 RAE07 P0000=
201104040213 SPECI KCLM 040213Z AUTO 32004KT 10SM FEW009 OVC022 06/04 A3022 RMK AO2 RAE07 P0000=
201104040153 METAR KCLM 040153Z AUTO 00000KT 9SM -RA SCT013 BKN022 OVC030 06/04 A3022 RMK AO2 RAB30 SLP236 P0000 T00610039=
201104040053 METAR KCLM 040053Z AUTO 00000KT 10SM OVC039 07/03 A3024 RMK AO2 RAB15E32 SLP243 P0000 T00720028=
201104032353 METAR KCLM 032353Z AUTO 00000KT 10SM OVC035 07/03 A3026 RMK AO2 SLP248 T00720028 10089 20072 55009=
201104032253 METAR KCLM 032253Z AUTO 03005KT 10SM FEW039 BKN100 08/03 A3026 RMK AO2 SLP248 T00780028=
201104032153 METAR KCLM 032153Z AUTO 00000KT 10SM OVC041 08/03 A3027 RMK AO2 SLP251 T00780033=
201104032053 METAR KCLM 032053Z AUTO 06003KT 10SM FEW044 BKN055 08/03 A3028 RMK AO2 SLP257 T00780033 51003=
201104031953 METAR KCLM 031953Z AUTO 09007KT 10SM SCT042 BKN070 07/03 A3028 RMK AO2 SLP256 T00720033=
201104031853 METAR KCLM 031853Z AUTO VRB03KT 10SM SCT065 08/02 A3029 RMK AO2 SLP259 T00780017=
201104031753 METAR KCLM 031753Z AUTO 05003KT 10SM CLR 08/01 A3027 RMK AO2 SLP254 T00780006 10083 20017 50009=
201104031653 METAR KCLM 031653Z AUTO 00000KT 10SM CLR 07/M01 A3028 RMK AO2 SLP254 T00721006=
201104031553 METAR KCLM 031553Z AUTO 25004KT 10SM CLR 06/00 A3026 RMK AO2 SLP249 T00610000=
201104031453 METAR KCLM 031453Z AUTO 00000KT 10SM FEW100 04/M01 A3025 RMK AO2 SLP244 T00391006 53010=
201104031353 METAR KCLM 031353Z AUTO 24005KT 10SM CLR 03/M01 A3023 RMK AO2 SLP239 T00281011=
201104031253 METAR KCLM 031253Z AUTO 23004KT 10SM FEW050 02/M01 A3022 RMK AO2 SLP234 T00171011=
201104031153 METAR KCLM 031153Z AUTO 25013KT 10SM CLR 04/M01 A3022 RMK AO2 SLP234 70001 T00441011 10056 20039 53016=
201104031053 METAR KCLM 031053Z AUTO 26010KT 10SM CLR 04/M01 A3019 RMK AO2 SLP224 T00441006=
201104030953 METAR KCLM 030953Z AUTO 26009G18KT 10SM BKN075 05/M01 A3018 RMK AO2 SLP222 T00501006=
201104030853 METAR KCLM 030853Z AUTO 27010KT 10SM BKN070 05/M01 A3017 RMK AO2 SLP218 T00501006 53021=
201104030753 METAR KCLM 030753Z AUTO 28009KT 10SM SCT070 05/00 A3015 RMK AO2 SLP211 T00500000 401060044=
201104030653 METAR KCLM 030653Z AUTO 27009KT 10SM CLR 04/00 A3013 RMK AO2 SLP204 T00440000=
201104030553 METAR KCLM 030553Z AUTO 24012KT 10SM CLR 05/01 A3011 RMK AO2 SLP197 T00500006 10100 20050 51019=
201104030453 METAR KCLM 030453Z AUTO 25010KT 10SM CLR 06/01 A3009 RMK AO2 SLP193 T00560006=
201104030353 METAR KCLM 030353Z AUTO 28009KT 10SM CLR 06/M01 A3008 RMK AO2 SLP187 T00561006=
201104030253 METAR KCLM 030253Z AUTO 27009G16KT 10SM CLR 07/M01 A3005 RMK AO2 SLP178 T00671006 51018=
201104030153 METAR KCLM 030153Z AUTO 29019G23KT 10SM FEW045 BKN055 08/00 A3005 RMK AO2 SLP176 T00780000=
201104030053 METAR KCLM 030053Z AUTO 29017G23KT 10SM SCT055 09/01 A3002 RMK AO2 SLP169 T00890006=
201104022353 METAR KCLM 022353Z AUTO 28015G21KT 10SM CLR 10/00 A3000 RMK AO2 PK WND 29027/2258 SLP160 60000 T01000000 10106 20072 53019=
201104022253 METAR KCLM 022253Z AUTO 28023G29KT 10SM CLR 10/01 A2997 RMK AO2 PK WND 28029/2248 LTG DSNT N SLP151 T01000006=
201104022153 METAR KCLM 022153Z AUTO 30019G24KT 10SM FEW046 11/01 A2995 RMK AO2 SLP144 T01060011=
201104022053 METAR KCLM 022053Z AUTO 29018G23KT 10SM BKN047 BKN080 10/02 A2994 RMK AO2 PK WND 26026/2031 SLP140 60000 T01000017 51011=
201104021953 METAR KCLM 021953Z AUTO 27014KT 10SM FEW035 BKN060 BKN085 08/02 A2993 RMK AO2 RAB19E36 SLP137 P0000 T00830022=
201104021853 METAR KCLM 021853Z AUTO 29015G26KT 10SM FEW034 SCT050 BKN080 08/02 A2992 RMK AO2 PK WND 29028/1825 SLP133 T00830017=
201104021753 METAR KCLM 021753Z AUTO 28009G17KT 10SM SCT034 BKN049 OVC060 08/03 A2991 RMK AO2 RAE03 SLP129 P0000 60001 T00780028 10083 20044 51019=
201104021702 SPECI KCLM 021702Z AUTO 28009KT 10SM -RA BKN032 OVC047 06/03 A2990 RMK AO2 P0000=
201104021702 SPECI KCLM 021702Z AUTO 28009KT 10SM -RA BKN032 OVC047 06/03 A2990 RMK AO2 P0000=
201104021653 METAR KCLM 021653Z AUTO 29007KT 10SM -RA BKN029 OVC047 06/03 A2990 RMK AO2 SLP125 P0001 T00610033=
201104021646 SPECI KCLM 021646Z AUTO 28008KT 10SM -RA SCT029 OVC047 06/03 A2989 RMK AO2 P0001=
201104021646 SPECI KCLM 021646Z AUTO 28008KT 10SM -RA SCT029 OVC047 06/03 A2989 RMK AO2 P0001=
201104021604 SPECI KCLM 021604Z AUTO 27014G21KT 10SM -RA BKN025 OVC037 06/02 A2988 RMK AO2 P0000=
201104021604 SPECI KCLM 021604Z AUTO 27014G21KT 10SM -RA BKN025 OVC037 06/02 A2988 RMK AO2 P0000=
201104021553 METAR KCLM 021553Z AUTO 27016G21KT 10SM -RA BKN030 BKN039 OVC055 07/02 A2987 RMK AO2 RAB49 SLP117 P0000 T00670022=
201104021453 METAR KCLM 021453Z AUTO 28013G19KT 10SM BKN060 06/01 A2985 RMK AO2 RAB12E21 SLP110 P0000 60000 T00610011 53010=
201104021353 METAR KCLM 021353Z AUTO 27013KT 10SM SCT038 BKN055 06/01 A2984 RMK AO2 SLP105 T00560011=
201104021253 METAR KCLM 021253Z AUTO 25008KT 10SM SCT040 SCT050 04/01 A2982 RMK AO2 SLP100 T00440006=
201104021153 METAR KCLM 021153Z AUTO 26010KT 10SM FEW045 OVC085 05/02 A2982 RMK AO2 SLP099 70062 T00500017 10050 20044 53002=
201104021053 METAR KCLM 021053Z AUTO 26009KT 10SM FEW038 SCT055 BKN100 04/02 A2981 RMK AO2 SLP097 T00440022=
201104020953 METAR KCLM 020953Z AUTO 25011KT 10SM SCT033 SCT050 OVC090 05/02 A2981 RMK AO2 SLP097 T00500022=
201104020853 METAR KCLM 020853Z AUTO 26009KT 10SM BKN050 04/02 A2981 RMK AO2 SLP097 T00440017 58008=
201104020753 METAR KCLM 020753Z AUTO 26009KT 10SM SCT095 04/02 A2982 RMK AO2 SLP100 T00440017 400720044=
201104020653 METAR KCLM 020653Z AUTO 24009KT 10SM OVC060 05/03 A2983 RMK AO2 SLP103 T00500028=
201104020607 SPECI KCLM 020607Z AUTO 25008KT 10SM SCT029 BKN034 OVC060 05/03 A2983 RMK AO2=
201104020607 SPECI KCLM 020607Z AUTO 25008KT 10SM SCT029 BKN034 OVC060 05/03 A2983 RMK AO2=
201104020553 METAR KCLM 020553Z AUTO 25009KT 10SM OVC028 05/03 A2984 RMK AO2 RAE03 SLP105 P0000 60003 T00500033 10056 20044 56003=
201104020453 METAR KCLM 020453Z AUTO 26009KT 10SM -RA BKN019 OVC025 05/03 A2984 RMK AO2 SLP106 P0000 T00500033=
201104020413 SPECI KCLM 020413Z AUTO 25006KT 8SM -RA BKN017 BKN033 OVC085 05/03 A2984 RMK AO2 P0000=
201104020413 SPECI KCLM 020413Z AUTO 25006KT 8SM -RA BKN017 BKN033 OVC085 05/03 A2984 RMK AO2 P0000=
201104020353 METAR KCLM 020353Z AUTO 25005KT 10SM -RA FEW019 BKN049 OVC085 04/03 A2984 RMK AO2 SLP107 P0001 T00440033=
201104020327 SPECI KCLM 020327Z AUTO 24004KT 10SM -RA BKN032 OVC060 04/03 A2985 RMK AO2 P0001=
201104020327 SPECI KCLM 020327Z AUTO 24004KT 10SM -RA BKN032 OVC060 04/03 A2985 RMK AO2 P0001=
201104020253 METAR KCLM 020253Z AUTO 28007KT 7SM -RA OVC025 04/03 A2985 RMK AO2 SLP109 P0001 60002 T00440033 55003=
201104020220 SPECI KCLM 020220Z AUTO 26004KT 5SM -RA BR SCT003 BKN025 OVC033 04/03 A2985 RMK AO2 P0000=
201104020220 SPECI KCLM 020220Z AUTO 26004KT 5SM -RA BR SCT003 BKN025 OVC033 04/03 A2985 RMK AO2 P0000=
201104020153 METAR KCLM 020153Z AUTO 29003KT 6SM -RA BR BKN003 OVC025 04/04 A2985 RMK AO2 SLP108 P0001 T00440039=
201104020111 SPECI KCLM 020111Z AUTO 00000KT 2 1/2SM -RA BR BKN003 OVC008 04/03 A2985 RMK AO2 P0000=
201104020111 SPECI KCLM 020111Z AUTO 00000KT 2 1/2SM -RA BR BKN003 OVC008 04/03 A2985 RMK AO2 P0000=
201104020053 METAR KCLM 020053Z AUTO 33003KT 2 1/2SM -RA BR BKN005 BKN009 OVC012 04/03 A2985 RMK AO2 SLP109 P0000 T00440033=
201104020027 SPECI KCLM 020027Z AUTO 00000KT 2 1/2SM -RA BR OVC008 04/03 A2985 RMK AO2 CIG 005V012 P0000=
201104020027 SPECI KCLM 020027Z AUTO 00000KT 2 1/2SM -RA BR OVC008 04/03 A2985 RMK AO2 CIG 005V012 P0000=
201104012353 METAR KCLM 012353Z AUTO 00000KT 8SM -RA OVC006 05/03 A2986 RMK AO2 CIG 004V009 SLP112 P0000 60039 T00500033 10061 20044 58022=
201104012253 METAR KCLM 012253Z AUTO 00000KT 10SM -RA BKN006 OVC011 05/03 A2988 RMK AO2 CIG 006V009 SLP119 P0002 T00500033=
201104012153 METAR KCLM 012153Z AUTO 00000KT 5SM -RA BR OVC008 05/03 A2990 RMK AO2 SLP128 P0009 T00500033=
201104012053 METAR KCLM 012053Z AUTO 00000KT 3SM RA BR BKN008 OVC015 05/03 A2992 RMK AO2 CIG 005V012 SLP134 P0010 60028 T00500033 56017=
201104011953 METAR KCLM 011953Z AUTO 00000KT 4SM -RA BR BKN006 OVC010 06/04 A2993 RMK AO2 SLP138 P0011 T00560044=
201104011934 SPECI KCLM 011934Z AUTO 00000KT 6SM -RA BR OVC006 06/04 A2993 RMK AO2 P0008=
201104011934 SPECI KCLM 011934Z AUTO 00000KT 6SM -RA BR OVC006 06/04 A2993 RMK AO2 P0008=
201104011902 SPECI KCLM 011902Z AUTO 08003KT 3SM RA BR BKN004 OVC018 06/04 A2995 RMK AO2 CIG 003V009 P0002=
201104011902 SPECI KCLM 011902Z AUTO 08003KT 3SM RA BR BKN004 OVC018 06/04 A2995 RMK AO2 CIG 003V009 P0002=
201104011853 SPECI KCLM 011853Z AUTO 00000KT 4SM -RA BR SCT004 BKN008 OVC025 06/05 A2996 RMK AO2 SLP146 P0007 T00610050=
201104011851 SPECI KCLM 011851Z AUTO 00000KT 5SM -RA BR SCT004 BKN008 OVC025 06/04 A2996 RMK AO2 P0007=
201104011851 SPECI KCLM 011851Z AUTO 00000KT 5SM -RA BR SCT004 BKN008 OVC025 06/04 A2996 RMK AO2 P0007=
201104011753 METAR KCLM 011753Z AUTO 00000KT 9SM -RA FEW008 BKN018 OVC023 06/04 A2997 RMK AO2 SLP151 P0004 60020 T00610044 10067 20056 58014=
201104011732 SPECI KCLM 011732Z AUTO 09004KT 9SM -RA FEW008 BKN018 OVC023 06/04 A2997 RMK AO2 P0003=
201104011732 SPECI KCLM 011732Z AUTO 09004KT 9SM -RA FEW008 BKN018 OVC023 06/04 A2997 RMK AO2 P0003=
201104011653 METAR KCLM 011653Z AUTO 07003KT 8SM -RA SCT018 OVC023 06/04 A2999 RMK AO2 SLP158 P0006 T00560044=
201104011633 SPECI KCLM 011633Z AUTO 06004KT 6SM -RA BR FEW006 SCT010 OVC019 06/04 A3000 RMK AO2 P0005=
201104011633 SPECI KCLM 011633Z AUTO 06004KT 6SM -RA BR FEW006 SCT010 OVC019 06/04 A3000 RMK AO2 P0005=
201104011622 SPECI KCLM 011622Z AUTO 08004KT 4SM -RA BR FEW005 BKN010 OVC030 06/05 A3000 RMK AO2 P0004=
201104011622 SPECI KCLM 011622Z AUTO 08004KT 4SM -RA BR FEW005 BKN010 OVC030 06/05 A3000 RMK AO2 P0004=
201104011553 METAR KCLM 011553Z AUTO 04003KT 4SM -RA BR SCT003 OVC008 06/05 A3001 RMK AO2 SLP163 P0005 T00610050=
201104011532 SPECI KCLM 011532Z AUTO 00000KT 5SM -RA BR BKN008 BKN016 OVC026 06/06 A3001 RMK AO2 CIG 006V013 P0002=
201104011532 SPECI KCLM 011532Z AUTO 00000KT 5SM -RA BR BKN008 BKN016 OVC026 06/06 A3001 RMK AO2 CIG 006V013 P0002=
201104011522 SPECI KCLM 011522Z AUTO 00000KT 6SM -RA BR SCT008 BKN014 OVC031 06/06 A3000 RMK AO2 P0002=
201104011522 SPECI KCLM 011522Z AUTO 00000KT 6SM -RA BR SCT008 BKN014 OVC031 06/06 A3000 RMK AO2 P0002=
201104011453 METAR KCLM 011453Z AUTO 00000KT 5SM -RA BR BKN016 OVC026 06/05 A3001 RMK AO2 SLP165 P0002 60005 T00610050 56020=
201104011353 METAR KCLM 011353Z AUTO 00000KT 8SM -RA OVC016 06/05 A3003 RMK AO2 SLP172 P0003 T00610050=
201104011308 SPECI KCLM 011308Z AUTO 00000KT 10SM -RA BKN018 OVC055 06/05 A3004 RMK AO2 P0000=
201104011308 SPECI KCLM 011308Z AUTO 00000KT 10SM -RA BKN018 OVC055 06/05 A3004 RMK AO2 P0000=
201104011253 METAR KCLM 011253Z AUTO 00000KT 10SM -RA FEW018 OVC060 06/06 A3004 RMK AO2 SLP176 P0000 T00610056=
201104011153 METAR KCLM 011153Z AUTO 00000KT 10SM -RA FEW020 BKN046 OVC070 07/05 A3007 RMK AO2 RAB40 SLP186 P0000 60000 T00670050 10072 20067 56014=
201104011149 SPECI KCLM 011149Z AUTO 00000KT 10SM -RA FEW020 BKN046 OVC070 07/05 A3007 RMK AO2 RAB40 P0000=
201104011149 SPECI KCLM 011149Z AUTO 00000KT 10SM -RA FEW020 BKN046 OVC070 07/05 A3007 RMK AO2 RAB40 P0000=
201104011053 METAR KCLM 011053Z AUTO 00000KT 10SM BKN016 OVC021 07/05 A3009 RMK AO2 SLP191 T00670050=
201104010953 METAR KCLM 010953Z AUTO 00000KT 10SM OVC012 07/05 A3012 RMK AO2 SLP200 T00670050=
201104010939 SPECI KCLM 010939Z AUTO 00000KT 10SM BKN012 OVC019 07/05 A3012 RMK AO2=
201104010939 SPECI KCLM 010939Z AUTO 00000KT 10SM BKN012 OVC019 07/05 A3012 RMK AO2=
201104010853 METAR KCLM 010853Z AUTO 27005KT 10SM OVC016 07/05 A3015 RMK AO2 SLP209 T00720050 56016=
201104010843 SPECI KCLM 010843Z AUTO 28004KT 10SM OVC016 07/04 A3014 RMK AO2=
201104010843 SPECI KCLM 010843Z AUTO 28004KT 10SM OVC016 07/04 A3014 RMK AO2=
201104010810 SPECI KCLM 010810Z AUTO 00000KT 10SM OVC014 07/04 A3016 RMK AO2=
201104010810 SPECI KCLM 010810Z AUTO 00000KT 10SM OVC014 07/04 A3016 RMK AO2=
201104010753 METAR KCLM 010753Z AUTO 00000KT 10SM SCT013 OVC019 07/04 A3016 RMK AO2 SLP214 T00720044 401170072=
201104010741 SPECI KCLM 010741Z AUTO 25003KT 10SM BKN013 OVC018 07/04 A3016 RMK AO2=
201104010741 SPECI KCLM 010741Z AUTO 25003KT 10SM BKN013 OVC018 07/04 A3016 RMK AO2=
201104010720 SPECI KCLM 010720Z AUTO 00000KT 10SM SCT013 BKN020 OVC100 07/05 A3017 RMK AO2=
201104010720 SPECI KCLM 010720Z AUTO 00000KT 10SM SCT013 BKN020 OVC100 07/05 A3017 RMK AO2=
201104010653 METAR KCLM 010653Z AUTO 24003KT 10SM OVC100 07/04 A3017 RMK AO2 SLP218 T00720044=
201104010553 METAR KCLM 010553Z AUTO 28006KT 10SM FEW021 OVC110 07/05 A3019 RMK AO2 SLP225 T00720050 10089 20072 58002=
201104010523 SPECI KCLM 010523Z AUTO 28003KT 10SM FEW019 OVC100 07/05 A3019 RMK AO2=
201104010523 SPECI KCLM 010523Z AUTO 28003KT 10SM FEW019 OVC100 07/05 A3019 RMK AO2=
201104010453 METAR KCLM 010453Z AUTO 29006KT 10SM OVC019 07/04 A3020 RMK AO2 SLP226 T00720044=
201104010435 SPECI KCLM 010435Z AUTO 28005KT 10SM SCT014 BKN019 BKN120 07/05 A3020 RMK AO2=
201104010435 SPECI KCLM 010435Z AUTO 28005KT 10SM SCT014 BKN019 BKN120 07/05 A3020 RMK AO2=
201104010410 SPECI KCLM 010410Z AUTO 29007G16KT 10SM BKN014 OVC120 07/04 A3019 RMK AO2=
201104010410 SPECI KCLM 010410Z AUTO 29007G16KT 10SM BKN014 OVC120 07/04 A3019 RMK AO2=
201104010353 METAR KCLM 010353Z AUTO 29009KT 10SM SCT016 OVC120 07/05 A3020 RMK AO2 SLP226 T00720050=
201104010253 METAR KCLM 010253Z AUTO 29011KT 10SM BKN016 OVC120 08/05 A3020 RMK AO2 SLP226 T00780050 58002=
201104010153 METAR KCLM 010153Z AUTO 29010G20KT 10SM BKN018 08/05 A3020 RMK AO2 SLP227 T00830050=
201104010118 SPECI KCLM 010118Z AUTO 30012G18KT 10SM FEW020 08/05 A3020 RMK AO2=
201104010118 SPECI KCLM 010118Z AUTO 30012G18KT 10SM FEW020 08/05 A3020 RMK AO2=
201104010053 SPECI KCLM 010053Z AUTO 30014G21KT 10SM OVC018 09/04 A3020 RMK AO2 SLP228 T00890044=

# No short TAF reports from KCLM in databse.

###################################
#  large TAF from KCLM
###################################
201104302320 TAF KCLM 302320Z 0100/0124 34005KT P6SM SCT050
                      TEMPO 0100/0102 BKN050 FM010200 30010KT P6SM
                       SKC FM010700 24006KT P6SM SKC FM011700 04006KT
                       P6SM SCT250=
201104301734 TAF KCLM 301734Z 3018/0118 34008KT P6SM SKC FM302100 30010KT P6SM
                       SKC FM010600 24006KT P6SM SKC=
201104301138 TAF KCLM 301138Z 3012/0112 26010KT P6SM SCT040 FM301700 34005KT
                       P6SM SCT040 FM302000 30010KT P6SM SKC=
201104300530 TAF KCLM 300530Z 3006/0106 26010KT P6SM SCT040 FM300800 24005KT
                       P6SM SCT030 FM301700 34005KT P6SM SKC FM302000
                       30010KT P6SM SKC=
201104292320 TAF KCLM 292320Z 3000/3024 31012G22KT P6SM SKC FM300500 26010KT
                       P6SM SKC FM300800 24005KT P6SM SKC FM301700
                       34005KT P6SM SKC FM302000 30010KT P6SM SKC=
201104292005 KCLM 292005Z 2920/3018 31011G20KT P6SM FEW050 FM292300 30012G22KT
                       P6SM SCT050 FM300500 25005KT P6SM FEW050=
201104291740 TAF KCLM 291740Z 2918/3018 29010KT P6SM SKC FM292100 31011KT P6SM
                       SCT050 FM292300 30012G20KT P6SM SCT050 FM300500
                       25005KT P6SM FEW050=
201104291443 KCLM 291443Z 2915/3012 25012KT P6SM FEW050 FM291900 VRB03KT P6SM
                       SCT060=
201104291305 KCLM 291305Z 2913/3012 25012KT P6SM OVC060 FM291900 VRB03KT P6SM
                       SCT060=
201104291140 TAF KCLM 291140Z 2912/3012 26006KT P6SM SCT040 FM291900 VRB03KT
                       P6SM SCT060=
201104290524 TAF KCLM 290524Z 2906/3006 VRB03KT P6SM SCT035 BKN060 FM291700
                       VRB03KT P6SM SCT060=
201104282325 TAF KCLM 282325Z 2900/2924 26006KT P6SM VCSH BKN040 BKN120 FM291200
                       VRB03KT P6SM BKN030 FM291900 30008KT P6SM
                       SCT040=
201104281720 TAF KCLM 281720Z 2818/2918 VRB04KT P6SM VCSH SCT030 BKN070 FM282100
                       28008KT P6SM VCSH BKN040CB BKN100 FM290500
                       28008KT P6SM VCSH BKN030 FM291200 VRB03KT
                       P6SM BKN020 FM291700 VRB03KT P6SM BKN040=
201104281138 TAF KCLM 281138Z 2812/2912 VRB03KT P6SM SCT025 BKN040 BKN060
                      TEMPO 2812/2816 -SHRA BKN025 OVC040 FM282200
                       26008KT P6SM VCSH BKN040CB FM290600 VRB03KT
                       P6SM SCT040 BKN060=
201104280530 TAF KCLM 280530Z 2806/2906 23006KT P6SM SCT040 BKN060 FM282000
                       VRB04KT P6SM VCSH BKN040CB=
201104272320 TAF KCLM 272320Z 2800/2824 27010KT P6SM SCT020 BKN035
                      TEMPO 2800/2802 5SM -SHRA BKN020 OVC035 FM281000
                       VRB04KT P6SM VCSH BKN040 FM282000 VRB04KT
                       P6SM VCSH BKN040CB=
201104272225 KCLM 272225Z 2722/2818 VRB04KT P6SM -SHRA SCT015 OVC030
                      TEMPO 2722/2802 4SM -RA BR BKN015 OVC025
                       FM280200 27007KT P6SM -SHRA BKN040 FM281000
                       VRB04KT P6SM VCSH BKN040=
201104271726 TAF KCLM 271726Z 2718/2818 VRB04KT P6SM -SHRA SCT015 BKN040 OVC080
                       TEMPO 2718/2722 5SM -RA BR BKN015 OVC040
                       FM280100 27007KT P6SM -SHRA BKN030 BKN060=
201104271131 TAF KCLM 271131Z 2712/2812 00000KT P6SM BKN015 OVC060
                      TEMPO 2713/2717 SCT015 OVC030 FM271800 VRB04KT
                       P6SM -RA BKN020 OVC050 FM280100 27007KT
                       P6SM -SHRA BKN030 BKN060=
201104270522 TAF KCLM 270522Z 2706/2806 27004KT P6SM SCT030 BKN050
                      TEMPO 2706/2710 -SHRA OVC030 FM271000 VRB03KT
                       P6SM SCT025 BKN040 FM271700 09005KT P6SM
                       -RA BKN025 OVC050 FM280100 27007KT P6SM
                       -SHRA BKN030 BKN060=
201104262320 TAF KCLM 262320Z 2700/2724 27007KT P6SM VCSH BKN050 FM270800 VRB03KT
                       P6SM VCSH BKN040 FM271500 09005KT P6SM -RA
                       BKN025 OVC050=
201104261720 TAF KCLM 261720Z 2618/2718 VRB04KT P6SM SCT040 BKN080 FM270300
                       27007KT P6SM VCSH SCT030 BKN060 FM271200
                       09005KT P6SM -RA BKN030 OVC060=
201104261125 TAF KCLM 261125Z 2612/2712 00000KT P6SM SCT020 OVC050
                      TEMPO 2612/2616 BKN020 BKN040 FM261700 VRB04KT
                       P6SM SCT040 BKN080 FM262300 25005KT P6SM
                       VCSH BKN030 BKN060=
201104260617 KCLM 260617Z 2606/2706 00000KT P6SM BKN017 BKN025
                      TEMPO 2610/2614 SCT020 BKN040 FM261400 25005KT
                       P6SM VCSH SCT025 BKN050 FM261800 VRB04KT
                       P6SM SCT040 BKN080 FM262300 25005KT P6SM
                       -SHRA BKN030 BKN060=
201104260522 TAF KCLM 260522Z 2606/2706 25007KT P6SM OVC100 FM261000 25005KT
                       P6SM VCSH SCT035 BKN070 FM261800 VRB04KT
                       P6SM SCT040 BKN080 FM262300 25005KT P6SM
                       -SHRA BKN030 BKN060=
201104260151 KCLM 260151Z 2602/2624 30010G20KT P6SM VCSH SCT018 BKN050 FM260600
                       27010KT P6SM VCSH BKN025 BKN050 FM261800
                       VRB04KT P6SM SCT030 BKN050=
201104260010 KCLM 260010Z 2600/2624 30010G20KT P6SM VCSH SCT009 BKN018 BKN050
                       TEMPO 2600/2603 BKN009 FM260600 27010KT
                       P6SM VCSH BKN025 BKN050 FM261800 VRB04KT
                       P6SM SCT030 BKN050=
201104252320 TAF KCLM 252320Z 2600/2624 30010G20KT P6SM VCSH SCT030 BKN050 FM260600
                       27010KT P6SM VCSH BKN025 BKN050 FM261800
                       VRB04KT P6SM SCT030 BKN050=
201104252000 KCLM 252000Z 2520/2618 30010KT P6SM -RA SCT006 OVC015
                      TEMPO 2520/2522 4SM -RA BR BKN006 OVC010
                       FM252200 30012G22KT P6SM -SHRA BKN020 BKN040
                       FM260600 27010KT P6SM VCSH BKN025 BKN050=
201104251720 TAF KCLM 251720Z 2518/2618 27007KT P6SM -RA SCT015 OVC035
                      TEMPO 2518/2522 4SM -RA BR BKN015 OVC030
                       FM252200 27012G22KT P6SM -SHRA BKN020 BKN040
                       FM260600 27010KT P6SM VCSH BKN025 BKN050=
201104251135 TAF KCLM 251135Z 2512/2612 14005KT P6SM VCSH BKN030 BKN080 OVC090
                       FM251800 10003KT P6SM -RA OVC025
                      TEMPO 2520/2524 4SM -RA BR FM260000 29010KT
                       P6SM -SHRA OVC025=
201104250535 TAF KCLM 250535Z 2506/2606 00000KT P6SM VCSH SCT040 OVC060 FM251800
                       10003KT P6SM -RA OVC025
                      TEMPO 2520/2524 4SM -RA FM260000 29010KT
                       P6SM -SHRA OVC025=
201104242336 TAF KCLM 242336Z 2500/2524 VRB03KT P6SM SCT030 BKN050 FM251900
                       VRB03KT P6SM -SHRA BKN040 BKN060=
201104241736 TAF KCLM 241736Z 2418/2518 VRB03KT P6SM SCT025 OVC045
                      TEMPO 2418/2422 -SHRA BKN025 OVC045 FM250000
                       VRB03KT P6SM SCT030 BKN050=
201104241148 TAF KCLM 241148Z 2412/2512 27006KT P6SM BKN120 FM241300 27006KT
                       P6SM BKN060 OVC100 FM241800 27008KT P6SM
                       -SHRA BKN025 OVC040 FM250000 VRB03KT P6SM
                       -SHRA BKN030 OVC050=
201104240544 TAF KCLM 240544Z 2406/2506 24006KT P6SM SKC FM240900 27006KT P6SM
                       BKN120 FM241300 27006KT P6SM BKN060 OVC100
                       FM241800 27008KT P6SM -SHRA BKN025 OVC040=
201104232340 TAF KCLM 232340Z 2400/2424 05006KT P6SM SKC FM240600 27006KT P6SM
                       SCT200 FM240900 27006KT P6SM BKN120 FM241300
                       27006KT P6SM BKN060 OVC100 FM241600 27008KT
                       P6SM BKN040 OVC060=
201104231740 TAF KCLM 231740Z 2318/2418 05006KT P6SM SKC FM240200 27006KT P6SM
                       SCT200 FM240900 27004KT P6SM BKN120 FM241300
                       27004KT P6SM BKN060 OVC100 FM241600 27008KT
                       P6SM -SHRA BKN040 OVC060=
201104231143 TAF KCLM 231143Z 2312/2412 23006KT P6SM SKC FM231900 05006KT P6SM
                       SKC FM240200 27006KT P6SM SCT200 FM240900
                       27004KT P6SM BKN080 OVC100=
201104230543 TAF KCLM 230543Z 2306/2406 23006KT P6SM SKC FM231900 05006KT P6SM
                       SKC FM240200 27006KT P6SM SCT200=
201104222334 TAF KCLM 222334Z 2300/2324 08006KT P6SM SKC FM231900 VRB03KT P6SM
                       SKC=
201104221732 TAF KCLM 221732Z 2218/2318 VRB03KT P6SM SCT050 FM230200 VRB03KT
                       P6SM SKC=
201104221153 TAF KCLM 221153Z 2212/2312 24008KT P6SM FEW060 FM221800 05006KT
                       P6SM SKC FM230000 VRB03KT P6SM SKC=
201104220550 TAF KCLM 220550Z 2206/2306 28008KT P6SM SKC FM221800 32008KT P6SM
                       SKC FM230000 VRB03KT P6SM SKC=
201104212338 TAF KCLM 212338Z 2200/2224 31014G24KT P6SM SCT050 FM220600 28010KT
                       P6SM SKC FM221800 32008KT P6SM SKC=
201104211739 TAF KCLM 211739Z 2118/2218 31011G18KT P6SM VCSH SCT050 FM220400
                       24005KT P6SM SKC=
201104211153 TAF KCLM 211153Z 2112/2212 26007KT P6SM VCSH BKN035 FM211800 30008KT
                       P6SM VCSH BKN040 FM220000 30010KT P6SM BKN080
                       FM220600 27006KT P6SM BKN060=
201104210544 TAF KCLM 210544Z 2106/2206 29012G20KT P6SM FEW025 OVC080 FM210900
                       30010KT P6SM -SHRA BKN025 OVC050 FM211800
                       30009KT P6SM VCSH BKN040 FM220000 30007KT
                       P6SM BKN080=
201104202320 TAF KCLM 202320Z 2100/2124 31010G20KT P6SM SCT040 OVC080 FM210300
                       30012G20KT P6SM VCSH BKN040 OVC080 FM210800
                       30010KT P6SM -SHRA BKN025 OVC050 FM211800
                       30007KT P6SM VCSH BKN040=
201104202217 KCLM 202217Z 2022/2118 31010G20KT P6SM SCT050 BKN100 BKN200 FM210300
                       30012G20KT P6SM VCSH BKN050 BKN100 FM210800
                       30010KT P6SM -SHRA BKN025 OVC050 FM211600
                       30007KT P6SM VCSH BKN040=
201104201720 TAF KCLM 201720Z 2018/2118 32007KT P6SM SCT030 BKN100 OVC200 FM202200
                       32007KT P6SM SCT040 OVC080 FM210300 30012KT
                       P6SM VCSH BKN040 OVC080 FM210800 30010KT
                       P6SM -SHRA BKN025 OVC050 FM211600 23007KT
                       P6SM VCSH BKN040=
201104201135 TAF KCLM 201135Z 2012/2112 25006KT P6SM FEW080 BKN200 FM201800
                       32012KT P6SM SCT080 OVC200 FM210000 29013G20KT
                       P6SM VCSH SCT050 BKN080 FM210600 26011KT
                       P6SM VCSH BKN050 OVC080
                      PROB30 2109/2112 -SHRASN OVC030=
201104200839 KCLM 200839Z 2009/2106 23005KT P6SM SCT080
                      TEMPO 2009/2012 BKN080 FM201800 31009KT P6SM
                       SCT080 BKN200 FM210200 28013KT P6SM VCSH
                       SCT050 BKN080=
201104200701 KCLM 200701Z 2007/2106 23005KT P6SM SCT030 SCT080 SCT200 FM201800
                       31009KT P6SM SCT080 BKN200 FM210200 28013KT
                       P6SM VCSH SCT050 BKN080=
201104200540 TAF KCLM 200540Z 2006/2106 25005KT P6SM BKN030 BKN080 FM200900
                       25005KT P6SM SCT030 SCT080 SCT200 FM201800
                       31009KT P6SM SCT080 BKN200 FM210200 28013KT
                       P6SM VCSH SCT050 BKN080=
201104200231 KCLM 200231Z 2003/2024 30009KT P6SM SCT025 BKN060
                      TEMPO 2003/2006 BKN025 BKN060 FM200600 28008KT
                       P6SM SCT060 FM200900 25006KT P6SM SKC FM201700
                       35006KT P6SM BKN120 BKN200=
201104192322 TAF KCLM 192322Z 2000/2024 30010G18KT P6SM SCT035 BKN060 FM200300
                       28008KT P6SM SCT060 FM200600 25006KT P6SM
                       SKC FM201700 35006KT P6SM BKN120 BKN200=
201104192034 KCLM 192034Z 1921/2018 32012G22KT P6SM VCSH SCT045 BKN070 FM200300
                       28012KT P6SM FEW060 FM200600 27007KT P6SM
                       SKC FM200900 25005KT P6SM FEW060=
201104191732 TAF KCLM 191732Z 1918/2018 30007KT P6SM SCT030 SCT050
                      TEMPO 1918/1921 -SHRA BKN030 BKN050 FM192100
                       32009KT P6SM VCSH SCT040 SCT060 FM200300
                       28010KT P6SM FEW060 FM200900 25005KT P6SM
                       FEW060=
201104191123 TAF KCLM 191123Z 1912/2012 25008KT P6SM VCSH SCT028 SCT050 FM191800
                       32010KT P6SM SCT060 FM200300 28010KT P6SM
                       FEW060 FM200900 25005KT P6SM FEW060=
201104191102 KCLM 191102Z 1911/2006 25009KT P6SM SCT050 FM191300 25006KT P6SM
                       VCSH BKN050 FM191800 32008KT P6SM BKN035
                       BKN060 FM192000 32011KT P6SM SCT035 SCT060=
201104190810 KCLM 190810Z 1908/2006 25009KT P6SM SCT030 SCT050
                      TEMPO 1910/1912 BKN030 BKN050 FM191200 25006KT
                       P6SM VCSH BKN025 OVC050 FM191800 32008KT
                       P6SM BKN035 BKN060 FM192000 32011KT P6SM
                       SCT035 SCT060=
201104190540 TAF KCLM 190540Z 1906/2006 28009KT P6SM SCT035 SCT060
                      TEMPO 1907/1909 BKN035 BKN060 FM190900 25009KT
                       P6SM VCSH BKN035 BKN060 FM191200 25006KT
                       P6SM VCSH BKN025 OVC050 FM191800 32008KT
                       P6SM BKN035 BKN060 FM192000 32011KT P6SM
                       SCT035 SCT060=
201104190315 KCLM 190315Z 1903/1924 30013G20KT P6SM SCT035 SCT050 FM190600 28009KT
                       P6SM SCT035 SCT050 FM191200 VRB03KT P6SM
                       SCT030 FM191800 30006KT P6SM SCT040=
201104182320 TAF KCLM 182320Z 1900/1924 33007KT P6SM VCSH SCT050 SCT200
                      TEMPO 1902/1906 BKN050 FM191200 VRB03KT P6SM
                       SCT030 FM191800 30006KT P6SM SCT040=
201104181720 TAF KCLM 181720Z 1818/1918 VRB05KT P6SM SCT050 FM182200 30008KT
                       P6SM VCSH BKN040CB BKN120 FM190300 32008KT
                       P6SM VCSH BKN040 FM190700 VRB03KT P6SM SCT040=
201104181143 TAF KCLM 181143Z 1812/1912 25009KT P6SM VCSH SCT030 BKN060 FM181500
                       25009KT P6SM VCSH BKN030 BKN050
                      TEMPO 1815/1818 -SHRA FM181800 31012KT P6SM
                       VCSH SCT035 BKN050
                      TEMPO 1818/1821 -SHRA BKN025 OVC050 FM182100
                       31012G20KT P6SM VCSH SCT050 FM190100 28008KT
                       P6SM VCSH SCT050 FM190600 25005KT P6SM SCT030
                       SCT050=
201104181007 KCLM 181007Z 1810/1906 25009KT P6SM VCSH SCT030 BKN060
                      TEMPO 1810/1814 BKN030 BKN050 FM181400 25006KT
                       P6SM VCSH BKN030 BKN050 FM181800 31012KT
                       P6SM VCSH SCT030 BKN050 FM190100 28008KT
                       P6SM VCSH SCT035 SCT050=
201104180556 KCLM 180556Z 1806/1906 25006KT P6SM FEW050 FM180900 25006KT P6SM
                       VCSH SCT030 SCT050
                      TEMPO 1809/1812 BKN030 BKN050 FM181200 25006KT
                       P6SM VCSH BKN030 BKN050 FM181800 31012KT
                       P6SM VCSH SCT030 BKN050 FM190100 28008KT
                       P6SM VCSH SCT035 SCT050=
201104180542 TAF KCLM 180542Z 1806/1906 VRB03KT P6SM SCT080 BKN120 FM180900
                       VRB03KT P6SM SCT060 SCT120 FM181200 16005KT
                       P6SM VCSH SCT035 BKN060
                      TEMPO 1812/1816 BKN035 BKN060 FM181800 20006KT
                       P6SM BKN060 FM182000 25006KT P6SM BKN060
                       FM190300 19006KT P6SM SCT035 BKN050=
201104172330 TAF KCLM 172330Z 1800/1824 30010G17KT P6SM FEW060 SCT120 FM180400
                       28008KT P6SM FEW060 FM181200 28006KT P6SM
                       SCT030 FM182000 30010KT P6SM BKN040 BKN050=
201104171720 TAF KCLM 171720Z 1718/1818 25009KT P6SM SCT035 FM172000 32010KT
                       P6SM SCT050 FM180200 28008KT P6SM SCT050=
201104171139 TAF KCLM 171139Z 1712/1812 25009KT P6SM BKN050 BKN090 FM171800
                       32010KT P6SM VCSH SCT060 FM180200 28008KT
                       P6SM VCSH SCT060 FM180600 25008KT P6SM BKN050
                       BKN090=
201104170901 KCLM 170901Z 1709/1806 25008KT P6SM SCT070
                      TEMPO 1709/1713 BKN070 FM171800 32010KT P6SM
                       VCSH SCT050 SCT200 FM180200 28008KT P6SM
                       VCSH SCT050 SCT200=
201104170532 TAF KCLM 170532Z 1706/1806 25007KT P6SM SKC FM171800 32010KT P6SM
                       VCSH SCT050 SCT200 FM180200 28008KT P6SM
                       VCSH SCT050 SCT200=
201104162332 TAF KCLM 162332Z 1700/1724 29015G25KT P6SM FEW050 FM170300 28012KT
                       P6SM FEW050 FM170900 26008KT P6SM SCT050
                       FM172000 31012KT P6SM SCT050=
201104161727 TAF KCLM 161727Z 1618/1718 31012G20KT P6SM VCSH SCT020 BKN030 OVC060
                       FM162100 31015G23KT P6SM VCSH BKN050 BKN120
                       FM170200 28012KT P6SM SCT050 SCT200 FM170600
                       26008KT P6SM SCT050 SCT200=
201104161143 KCLM 161143Z 1612/1712 VRB03KT 5SM BR VCSH SCT004 OVC010
                      TEMPO 1612/1615 2SM -DZ BR BKN004 OVC010
                       FM161500 27007KT P6SM VCSH BKN012 OVC030
                       FM161800 31012KT P6SM VCSH BKN030 BKN050
                       FM162100 31015G23KT P6SM VCSH BKN050 BKN200
                       FM170200 28012KT P6SM SCT050 SCT200 FM170600
                       26008KT P6SM SCT050 SCT200=
201104161140 TAF KCLM 161140Z 1612/1712 VRB03KT 5SM BR VCSH BKN004 OVC010
                      TEMPO 1612/1615 2SM BR FM161500 27007KT P6SM
                       VCSH BKN012 OVC030 FM161800 31012KT P6SM
                       VCSH BKN030 BKN050 FM162100 31015G23KT P6SM
                       VCSH BKN050 BKN200 FM170200 28012KT P6SM
                       SCT050 SCT200 FM170600 26008KT P6SM SCT050
                       SCT200=
201104161050 KCLM 161050Z 1611/1706 VRB03KT P6SM VCSH BKN004 OVC010
                      TEMPO 1611/1613 4SM BR FM161300 VRB03KT P6SM
                       BKN010 OVC030 FM161500 27006KT P6SM VCSH
                       BKN025 BKN050 FM161800 31012KT P6SM VCSH
                       BKN050 BKN200 FM162100 31015G23KT P6SM VCSH
                       SCT050 BKN200 FM170200 28013KT P6SM FEW050
                       SCT200=
201104161001 KCLM 161001Z 1610/1706 VRB03KT P6SM VCSH BKN004 OVC010
                      TEMPO 1610/1612 4SM BR FM161200 VRB03KT P6SM
                       BKN010 OVC030 FM161500 27006KT P6SM VCSH
                       BKN025 BKN050 FM161800 31012KT P6SM VCSH
                       BKN050 BKN200 FM162100 31015G23KT P6SM VCSH
                       SCT050 BKN200 FM170200 28013KT P6SM FEW050
                       SCT200=
201104160909 TAF AMD KCLM 160909Z 1609/1706 VRB03KT P6SM VCSH BKN004 OVC010
                       FM161200 VRB03KT P6SM BKN010 OVC030 FM161500
                       27006KT P6SM VCSH BKN025 BKN050 FM161800
                       31012KT P6SM VCSH BKN050 BKN200 FM162100
                       31015G23KT P6SM VCSH SCT050 BKN200 FM170200
                       28013KT P6SM FEW050 SCT200=
201104160530 TAF KCLM 160530Z 1606/1706 VRB03KT P6SM VCSH SCT008 OVC015
                      TEMPO 1606/1609 BKN008 OVC015 FM161500 27006KT
                       P6SM VCSH BKN025 BKN050 FM161800 31012KT
                       P6SM VCSH BKN050 BKN200 FM162100 31015G23KT
                       P6SM VCSH SCT050 BKN200 FM170200 28013KT
                       P6SM FEW050 SCT200=
201104160407 KCLM 160407Z 1604/1624 VRB03KT P6SM OVC018 FM161200 27004KT P6SM
                       OVC025 FM161900 30010KT P6SM BKN030=
201104152320 TAF KCLM 152320Z 1600/1624 09007KT P6SM OVC025 FM160600 27004KT
                       P6SM OVC025 FM161900 30010KT P6SM BKN030=
201104152137 TAF AMD KCLM 152137Z 1522/1618 09007KT P6SM SCT025 BKN030 OVC100
                       FM160600 27004KT P6SM OVC030=
201104151722 TAF KCLM 151722Z 1518/1618 VRB04KT P6SM SCT040 BKN050 OVC100 FM160600
                       27004KT P6SM OVC030=
201104151135 TAF KCLM 151135Z 1512/1612 23005KT P6SM BKN120 FM151700 VRB03KT
                       P6SM SCT040 BKN100 FM160600 27004KT P6SM
                       OVC030=
201104150535 TAF KCLM 150535Z 1506/1606 26008KT P6SM SCT035 OVC080 FM151000
                       23003KT P6SM SCT010
                      TEMPO 1512/1516 BKN010 FM151700 VRB03KT P6SM
                       SCT040 BKN100=
201104142320 TAF KCLM 142320Z 1500/1524 21006KT P6SM -SHRA OVC025 FM150100 27012KT
                       P6SM -SHRA BKN035 FM150800 24006KT P6SM
                       SCT050 BKN100 FM151600 12005KT P6SM BKN100=
201104141738 TAF KCLM 141738Z 1418/1518 10004KT P6SM -SHRA BKN040 OVC070 FM142200
                       09003KT P6SM -SHRA OVC025 FM150000 27010G18KT
                       P6SM -SHRA OVC015 FM150800 21003KT P6SM
                       SCT050 BKN100=
201104141125 TAF KCLM 141125Z 1412/1512 00000KT P6SM VCSH SCT020 BKN040 OVC060
                       TEMPO 1412/1416 -SHRA BKN020 OVC035 FM141800
                       10004KT P6SM -SHRA BKN040 OVC070 FM142200
                       09003KT P6SM -SHRA OVC025 FM150000 27010G18KT
                       P6SM -SHRA OVC015 FM150800 21003KT P6SM
                       SCT050 BKN100=
201104140535 TAF KCLM 140535Z 1406/1506 25004KT P6SM VCSH SCT060 BKN100 FM140800
                       VRB03KT P6SM VCSH SCT035 OVC060 FM142100
                       28007KT P6SM -SHRA BKN040 FM150000 27003KT
                       P6SM -SHRA OVC015 FM150300 29003KT P6SM
                       VCSH OVC050=
201104132337 TAF KCLM 132337Z 1400/1424 32005KT P6SM VCSH BKN030 BKN080
                      TEMPO 1400/1404 -SHRA BKN020 FM140800 VRB03KT
                       P6SM VCSH SCT035 OVC060 FM142100 28007KT
                       P6SM -SHRA BKN040=
201104131817 TAF AMD KCLM 131817Z 1318/1418 34006KT P6SM BKN025 OVC100 FM132000
                       30006KT P6SM -SHRA OVC025 FM140200 27004KT
                       P6SM VCSH SCT030 OVC050 FM140800 VRB03KT
                       P6SM VCSH SCT035 OVC060=
201104131730 TAF KCLM 131730Z 1318/1418 00000KT P6SM BKN090 FM132000 30006KT
                       P6SM -SHRA OVC030 FM140200 27004KT P6SM
                       VCSH SCT030 OVC050 FM140800 VRB03KT P6SM
                       VCSH SCT035 OVC060=
201104131135 TAF KCLM 131135Z 1312/1412 23007KT P6SM SCT040 OVC100 FM131600
                       06003KT P6SM -RA OVC040 FM132000 30006KT
                       P6SM -SHRA OVC025 FM140200 27004KT P6SM
                       VCSH SCT030 OVC050 FM140800 VRB03KT P6SM
                       VCSH SCT035 OVC060=
201104130535 TAF KCLM 130535Z 1306/1406 23004KT P6SM SCT070 OVC110 FM131600
                       06003KT P6SM -RA OVC040 FM132000 30006KT
                       P6SM -SHRA OVC025 FM140200 27004KT P6SM
                       VCSH SCT030 OVC050=
201104122320 TAF KCLM 122320Z 1300/1324 VRB04KT P6SM BKN200 FM130300 20002KT
                       P6SM OVC100 FM130900 14004KT P6SM OVC100
                       FM131600 VRB04KT P6SM -RA OVC050=
201104121720 TAF KCLM 121720Z 1218/1318 24005KT P6SM SCT100 BKN250 FM130300
                       20002KT P6SM OVC100 FM130900 14004KT P6SM
                       OVC100 FM131200 VRB04KT P6SM -RA OVC050=
201104121130 TAF KCLM 121130Z 1212/1312 24004KT P6SM SCT060 BKN120 OVC250 FM121600
                       22003KT P6SM SCT100 BKN250 FM130300 20002KT
                       P6SM OVC100=
201104120535 TAF KCLM 120535Z 1206/1306 00000KT P6SM BKN035
                      TEMPO 1206/1210 SCT035 FM121000 23004KT P6SM
                       BKN100 FM121600 22003KT P6SM SCT100 BKN250
                       FM130300 20002KT P6SM OVC100=
201104112327 TAF KCLM 112327Z 1200/1224 25010KT P6SM VCSH SCT040 BKN060
                      TEMPO 1200/1202 BKN040 FM120600 24006KT P6SM
                       SCT040 SCT080 FM121200 12005KT P6SM SCT080
                       FM122000 07005KT P6SM BKN080=
201104111728 TAF KCLM 111728Z 1118/1218 25010KT P6SM SCT040 BKN070 FM120600
                       24006KT P6SM SCT040 SCT070 FM121200 12005KT
                       P6SM SCT070=
201104111128 TAF KCLM 111128Z 1112/1212 27008KT P6SM SCT040 BKN090
                      TEMPO 1112/1116 -SHRA BKN025 OVC040 FM120100
                       24005KT P6SM SCT035 BKN060=
201104110526 TAF KCLM 110526Z 1106/1206 27012G20KT P6SM -SHRA OVC045
                      TEMPO 1106/1110 -SHRA OVC025 FM111000 26012KT
                       P6SM VCSH SCT030 BKN060 FM111500 29010KT
                       P6SM SCT035 SCT070=
201104110143 KCLM 110143Z 1102/1124 VRB03KT 6SM -RA FEW008 SCT020 OVC035
                      TEMPO 1102/1106 FEW008 BKN020 OVC035 FM110700
                       26012KT P6SM VCSH SCT025 BKN040=
201104102320 TAF KCLM 102320Z 1100/1124 00000KT P6SM VCSH SCT025 BKN060 FM110200
                       VRB03KT 5SM -RA BKN015 OVC025 FM110700 26012KT
                       P6SM VCSH SCT025 BKN040=
201104101738 TAF KCLM 101738Z 1018/1118 12003KT P6SM SCT009
                      TEMPO 1018/1020 BKN009 FM102000 11006KT P6SM
                       SCT025 OVC060 FM110100 VRB03KT 5SM -RA BKN015
                       OVC025 FM110700 26012KT P6SM VCSH SCT025
                       BKN040=
201104101627 KCLM 101627Z 1016/1112 00000KT P6SM SCT007 BKN013 FM102000 11006KT
                       P6SM SCT025 OVC060 FM110400 VRB03KT 5SM
                       -RA BKN015 OVC025=
201104101418 KCLM 101418Z 1014/1112 24003KT P6SM SCT025 BKN080 FM101900 11006KT
                       P6SM SCT025 OVC060 FM110400 VRB03KT 5SM
                       -RA BKN015 OVC025=
201104101123 TAF KCLM 101123Z 1012/1112 00000KT P6SM OVC070
                      TEMPO 1012/1014 -RA OVC040 FM101400 11005KT
                       P6SM -RA BKN025 OVC040 FM101800 11006KT
                       P6SM SCT025 OVC060 FM110400 VRB03KT 5SM
                       -RA BKN015 OVC025=
201104100529 TAF KCLM 100529Z 1006/1106 00000KT P6SM SCT028 OVC040
                      TEMPO 1006/1010 OVC028 FM101000 23003KT P6SM
                       OVC025
                      TEMPO 1010/1014 -RA FM101400 11006KT P6SM
                       -RA OVC015 FM101800 11006KT P6SM VCSH SCT025
                       BKN060 FM110500 VRB03KT 5SM -RA BKN015 OVC025=
201104092336 TAF KCLM 092336Z 1000/1024 00000KT P6SM OVC029 FM100800 23003KT
                       P6SM OVC025
                      TEMPO 1010/1014 -RA FM101400 VRB03KT P6SM
                       -RA OVC020 FM101800 VRB03KT P6SM VCSH SCT025
                       BKN060=
201104091724 TAF KCLM 091724Z 0918/1018 32004KT P6SM OVC100 FM100200 28004KT
                       P6SM BKN035 OVC070 FM101000 23003KT P6SM
                       BKN025 OVC050
                      TEMPO 1010/1014 -RA FM101400 VRB03KT P6SM
                       -RA OVC020=
201104091507 KCLM 091507Z 0915/1012 25005KT P6SM OVC060=
201104091128 TAF KCLM 091128Z 0911/1006 26006KT P6SM OVC090 FM091800 32005KT
                       P6SM OVC070 FM100100 27005KT P6SM OVC060=
201104090802 TAF KCLM 090802Z 0908/1006 28010KT P6SM OVC080 FM090900 27010KT
                       P6SM OVC100 FM091500 VRB03KT P6SM OVC050=
201104082320 TAF KCLM 082320Z 0900/0924 09003KT P6SM BKN200 FM090200 27012KT
                       P6SM BKN200 FM090900 27010KT P6SM OVC100
                       FM091500 VRB03KT P6SM OVC050=
201104081735 TAF KCLM 081735Z 0818/0918 12008KT P6SM SKC FM082100 36006KT P6SM
                       SCT250 FM090200 27012KT P6SM BKN200 FM090900
                       27010KT P6SM OVC100 FM091500 VRB03KT P6SM
                       OVC050=
201104081123 TAF KCLM 081123Z 0812/0912 23007KT P6SM SKC FM082000 36006KT P6SM
                       SCT250 FM090200 27006KT P6SM BKN200=
201104080520 TAF KCLM 080520Z 0806/0906 24007KT P6SM SKC FM082000 36006KT P6SM
                       SKC FM090200 27006KT P6SM BKN200=
201104072322 TAF KCLM 072322Z 0800/0824 VRB04KT P6SM FEW030 FM080300 24005KT
                       P6SM FEW030 FM081800 VRB04KT P6SM SKC=
201104071721 TAF KCLM 071721Z 0718/0818 VRB04KT P6SM BKN050 FM072000 35006KT
                       P6SM BKN050 FM080200 24005KT P6SM FEW060=
201104071124 TAF KCLM 071124Z 0712/0812 24006KT P6SM BKN050 FM071900 35006KT
                       P6SM SCT050 FM080200 24005KT P6SM FEW060=
201104070525 TAF KCLM 070525Z 0706/0806 24005KT P6SM SCT050 FM071900 35006KT
                       P6SM SCT050 FM080200 24005KT P6SM FEW060=
201104070045 KCLM 070045Z 0701/0724 29010KT P6SM VCSH BKN035CB BKN070
                      TEMPO 0701/0704 -SHRA BKN025CB OVC040 FM070400
                       24005KT P6SM SCT030 BKN040 FM071200 24005KT
                       P6SM BKN040 FM071900 VRB04KT P6SM SCT030=
201104062321 TAF KCLM 062321Z 0700/0724 27007KT P6SM VCSH SCT017 BKN030
                      TEMPO 0700/0704 -SHRA BKN020CB FM070400 24005KT
                       P6SM SCT030 BKN040 FM071200 24005KT P6SM
                       BKN040 FM071900 VRB04KT P6SM SCT030=
201104061732 TAF KCLM 061732Z 0618/0718 28007KT P6SM -SHRA SCT030 BKN060 FM062000
                       27007KT P6SM VCSH BKN030CB BKN060 FM070300
                       VRB05KT P6SM SCT030 BKN060=
201104061200 KCLM 061200Z 0612/0712 29010G20KT P6SM SCT025 BKN050
                      TEMPO 0612/0616 5SM -SHRA BR BKN025 OVC045
                       FM062000 27007KT P6SM VCSH BKN030CB BKN060
                       FM070300 VRB05KT P6SM SCT030 BKN060=
201104061120 TAF KCLM 061120Z 0612/0712 28008KT P6SM VCSH SCT030 BKN060 FM062000
                       27007KT P6SM VCSH BKN030CB BKN060 FM070300
                       VRB05KT P6SM SCT030 BKN060=
201104060520 TAF KCLM 060520Z 0606/0706 28008KT P6SM VCSH SCT030 BKN050 FM062000
                       VRB05KT P6SM VCSH BKN030CB BKN070 FM070300
                       VRB05KT P6SM SCT030 BKN050=
201104052322 TAF KCLM 052322Z 0600/0624 28005KT P6SM SCT045 FM060200 29010KT
                       P6SM -SHRA BKN025 OVC040 FM060900 30012KT
                       P6SM VCSH BKN045 FM061800 30012KT P6SM VCSH
                       SCT045=
201104051720 TAF KCLM 051720Z 0518/0618 VRB05KT P6SM -SHRA BKN040 BKN060 FM052000
                       28005KT P6SM -SHRA BKN030 BKN045 FM060200
                       29010KT P6SM -SHRA BKN025 OVC040 FM060900
                       30012KT P6SM VCSH BKN045=
201104051120 TAF KCLM 051120Z 0512/0612 27007KT P6SM VCSH SCT025 BKN050 FM051600
                       VRB05KT P6SM -SHRA BKN020 OVC040 FM052000
                       28012KT P6SM VCSH SCT025 BKN050 FM060600
                       VRB05KT P6SM -SHRA BKN020 OVC040=
201104050520 TAF KCLM 050520Z 0506/0606 27008KT P6SM VCSH SCT020 BKN050 FM051600
                       VRB05KT P6SM -SHRA BKN020 OVC040 FM052000
                       28012KT P6SM VCSH SCT025 BKN050=
201104050209 KCLM 050209Z 0502/0524 VRB04KT P6SM SCT008 BKN015 OVC050
                      TEMPO 0502/0506 -SHRA BKN008 OVC012 FM050600
                       27008KT P6SM VCSH SCT020 BKN050 FM051600
                       VRB05KT P6SM -SHRA BKN025 BKN040=
201104042320 TAF KCLM 042320Z 0500/0524 03004KT 4SM -RA BR BKN004 OVC025 FM050200
                       27011KT P6SM VCSH SCT015 OVC045 FM050800
                       29009KT P6SM -SHRA BKN025 BKN040=
201104042106 KCLM 042106Z 0421/0518 10005KT P6SM -RA BKN004 OVC035 FM050400
                       27011KT P6SM -SHRA SCT015 OVC035 FM051000
                       19009KT P6SM -SHRA BKN025 BKN040=
201104041830 KCLM 041830Z 0419/0518 VRB04KT P6SM -RA SCT004 OVC035
                      TEMPO 0419/0421 4SM -RA BR OVC004 FM042100
                       27007KT P6SM -SHRA BKN020 OVC040 FM050000
                       27011KT P6SM VCSH SCT025 OVC050 FM051000
                       19009KT P6SM -SHRA BKN025 BKN040=
201104041726 TAF KCLM 041726Z 0418/0518 VRB04KT P6SM -RA SCT020 OVC040 FM042100
                       27007KT P6SM -SHRA BKN020 OVC040 FM050000
                       27011KT P6SM VCSH SCT025 OVC050 FM051000
                       19009KT P6SM -SHRA BKN025 BKN040=
201104041120 TAF KCLM 041120Z 0412/0512 VRB04KT P6SM -RA SCT020 OVC040 FM041900
                       27007KT P6SM -SHRA BKN020 OVC040 FM050000
                       27007KT P6SM VCSH BKN025 OVC050=
201104040520 TAF KCLM 040520Z 0406/0506 VRB04KT P6SM -RA SCT025 OVC040
                      TEMPO 0406/0410 BKN025 OVC040 FM041000 VRB04KT
                       6SM -RA BR OVC025 FM041700 27007KT P6SM
                       -SHRA BKN020 OVC040 FM050000 27007KT P6SM
                       VCSH BKN025 OVC050=
201104032324 TAF KCLM 032324Z 0400/0424 VRB03KT P6SM BKN050 OVC100
                      TEMPO 0402/0404 -RA FM040400 VRB03KT P6SM
                       -RA SCT030 OVC050 FM040600 VRB03KT P6SM
                       -RA OVC030 FM042000 VRB03KT 4SM -RA BR OVC018=
201104032013 KCLM 032013Z 0320/0418 VRB03KT P6SM SCT040 OVC070 FM040000 VRB03KT
                       P6SM -RA SCT030 OVC050 FM040600 VRB03KT
                       P6SM -RA SCT015 OVC030 FM040900 VRB03KT
                       5SM -RA BR OVC015 FM041500 25005KT P6SM
                       -RA BKN022 OVC040=
201104031727 TAF KCLM 031727Z 0318/0418 VRB03KT P6SM OVC150 FM032100 VRB03KT
                       P6SM SCT050 OVC100 FM040000 VRB03KT P6SM
                       -RA OVC050 FM040600 VRB03KT P6SM -RA SCT015
                       OVC030 FM040900 VRB03KT 5SM -RA BR OVC015
                       FM041500 25005KT P6SM -RA BKN022 OVC040=
201104031122 TAF KCLM 031122Z 0312/0412 27007KT P6SM SCT040 FM031800 VRB04KT
                       P6SM SCT040 OVC150 FM040000 09006KT P6SM
                       BKN040 OVC090 FM040400 09006KT P6SM -RA
                       OVC025=
201104030520 TAF KCLM 030520Z 0306/0406 VRB04KT P6SM SCT040 FM031800 VRB04KT
                       P6SM SCT040 OVC150 FM040000 09006KT P6SM
                       BKN040 OVC090 FM040400 09006KT P6SM -RA
                       OVC025=
201104022345 TAF KCLM 022345Z 0300/0324 29018G28KT P6SM SCT050 FM030300 27015G23KT
                       P6SM SCT050 FM030600 25008KT P6SM SCT200
                       FM031800 33006KT P6SM SCT100 BKN200 FM032100
                       33006KT P6SM SCT050 BKN100 OVC200=
201104021741 TAF KCLM 021741Z 0218/0318 29013KT P6SM VCSH SCT030 BKN050
                      TEMPO 0218/0221 29013G22KT -SHRA BKN030 OVC050
                       FM022100 29013G23KT P6SM VCSH SCT035 BKN050
                       TEMPO 0221/0224 BKN035 BKN050 FM030000 29013KT
                       P6SM VCSH SCT050
                      TEMPO 0300/0302 BKN050 FM030600 25006KT P6SM
                       SCT050 SCT200 FM031200 VRB03KT P6SM SCT050
                       BKN200=
201104021640 KCLM 021640Z 0217/0312 28013G23KT P6SM VCSH SCT025 BKN050
                      TEMPO 0217/0219 -SHRA BKN025 OVC050 FM021900
                       28013G23KT P6SM VCSH SCT035 SCT050
                      TEMPO 0219/0221 BKN035 BKN050 FM031000 27007KT
                       P6SM BKN030 BKN050=
201104021120 TAF KCLM 021120Z 0212/0312 26012KT P6SM SCT030 BKN050 FM031000
                       27007KT P6SM BKN030 BKN050=
201104020520 TAF KCLM 020520Z 0206/0306 26009KT P6SM BKN028 BKN050
                      TEMPO 0206/0209 -SHRA FM020900 26012KT P6SM
                       VCSH SCT035 BKN050 FM021800 30013G20KT P6SM
                       VCSH SCT050=
201104012335 TAF KCLM 012335Z 0200/0224 31005KT P6SM -RA BKN007 OVC015
                      TEMPO 0200/0203 4SM -RA BR FM020300 28007KT
                       P6SM -RA BKN015 OVC030 FM020600 26009KT
                       P6SM BKN028 BKN050
                      TEMPO 0206/0209 -SHRA FM020900 26012KT P6SM
                       VCSH SCT035 BKN050
                      PROB30 0209/0215 -SHRA OVC035 FM021800 30013G20KT
                       P6SM VCSH SCT050=
201104012113 KCLM 012113Z 0121/0218 VRB03KT 4SM -RA BR BKN007 OVC020 FM020000
                       31007KT P6SM -RA SCT015 OVC030 FM020300
                       27009KT P6SM -RA BKN025 OVC040 FM020600
                       27009KT P6SM BKN035 BKN050
                      TEMPO 0206/0209 -SHRA FM020900 27009KT P6SM
                       VCSH SCT035 BKN050
                      PROB30 0209/0215 -SHRA FM021500 27013G20KT
                       P6SM VCSH SCT050=
201104011745 TAF KCLM 011745Z 0118/0218 VRB03KT P6SM -RA SCT008 OVC022
                      TEMPO 0118/0122 5SM -RA BR BKN008 OVC022
                       FM020000 31007KT P6SM -RA SCT015 OVC030
                       FM020300 27009KT P6SM -RA BKN025 OVC040
                       FM020600 27009KT P6SM BKN035 BKN050
                      TEMPO 0206/0209 -SHRA FM020900 27009KT P6SM
                       VCSH SCT035 BKN050
                      PROB30 0209/0215 -SHRA FM021500 27013G20KT
                       P6SM VCSH SCT050=
201104011648 KCLM 011648Z 0117/0212 00000KT 6SM -RA BR SCT006 OVC015
                      TEMPO 0117/0119 4SM -RA BR BKN006 OVC015
                       FM012100 30005KT P6SM -RA BKN022 OVC040
                       FM020300 27010KT P6SM -RA BKN020 OVC040=
201104011428 KCLM 011428Z 0114/0212 00000KT P6SM -RA SCT006 OVC015 FM011600
                       00000KT 4SM -RA BR BKN006 OVC015 FM012100
                       30005KT P6SM -RA BKN022 OVC040 FM020300
                       27010KT P6SM -RA BKN020 OVC040=
201104011129 TAF KCLM 011129Z 0112/0212 25004KT P6SM BKN017 OVC025 FM011600
                       VRB04KT P6SM -RA SCT017 OVC027 FM012100
                       30005KT P6SM -RA BKN022 OVC040 FM020300
                       27010KT P6SM -RA BKN020 OVC040=
201104010535 TAF KCLM 010535Z 0106/0206 27005KT P6SM SCT018 BKN100
                      TEMPO 0106/0110 BKN018 FM011000 25004KT P6SM
                       BKN022 BKN100 FM011700 VRB04KT P6SM VCSH
                       SCT022 OVC040 FM012100 31005KT P6SM -RA
                       BKN035 OVC050=
201104010328 KCLM 010328Z 0103/0124 30012KT P6SM BKN016
                      TEMPO 0103/0106 SCT016 BKN100 FM010600 30008KT
                       P6SM BKN018 BKN100 FM011400 VRB04KT P6SM
                       SCT035 OVC090=