##########################################################
# Query made at 02/16/2025 01:55:43 UTC
# Time interval: from 01/01/2011 00:00  to 01/31/2011 23:59  UTC
##########################################################

##########################################################
# KCLM, Port Angeles, William R. Fairchild International Airport (United States)
# WMO index: -----. WIGOS ID: Unknown
# Latitude 48-07-20N. Longitude 123-30-19W. Altitude 87 m.
##########################################################

###################################
#  METAR/SPECI from KCLM
###################################
201101312353 METAR KCLM 312353Z AUTO 00000KT 10SM CLR 03/M06 A3049 RMK AO2 SLP329 T00331056 10044 20022 53007=
201101312253 METAR KCLM 312253Z AUTO VRB04KT 10SM CLR 03/M07 A3048 RMK AO2 SLP325 T00331067=
201101312153 METAR KCLM 312153Z AUTO VRB04KT 10SM CLR 04/M06 A3047 RMK AO2 SLP322 T00391061=
201101312053 METAR KCLM 312053Z AUTO 06005KT 10SM CLR 04/M06 A3047 RMK AO2 SLP322 T00391056 50002=
201101311953 METAR KCLM 311953Z AUTO VRB03KT 10SM CLR 03/M06 A3048 RMK AO2 SLP326 T00331061=
201101311853 METAR KCLM 311853Z AUTO 05005KT 10SM CLR 03/M07 A3048 RMK AO2 SLP326 T00281072=
201101311753 METAR KCLM 311753Z AUTO 24004KT 10SM CLR 02/M06 A3047 RMK AO2 SLP320 T00221056 10022 21017 53009=
201101311653 METAR KCLM 311653Z AUTO 23005KT 10SM CLR 01/M04 A3045 RMK AO2 SLP314 T00061039=
201101311553 METAR KCLM 311553Z AUTO 24005KT 10SM CLR 00/M04 A3044 RMK AO2 SLP312 T00001039=
201101311453 METAR KCLM 311453Z AUTO 22003KT 10SM CLR M01/M03 A3044 RMK AO2 SLP311 T10061028 51011=
201101311353 METAR KCLM 311353Z AUTO 23004KT 10SM CLR M01/M03 A3043 RMK AO2 SLP306 T10061033=
201101311253 METAR KCLM 311253Z AUTO 24005KT 10SM CLR M01/M03 A3042 RMK AO2 SLP305 T10111033=
201101311153 METAR KCLM 311153Z AUTO 23005KT 10SM CLR M01/M03 A3041 RMK AO2 SLP300 T10111033 10006 21017 51014=
201101311053 METAR KCLM 311053Z AUTO 22005KT 10SM CLR M01/M04 A3040 RMK AO2 SLP299 T10061039=
201101310953 METAR KCLM 310953Z AUTO 23005KT 10SM CLR M01/M04 A3039 RMK AO2 SLP294 T10111039=
201101310853 METAR KCLM 310853Z AUTO 23005KT 10SM CLR M01/M04 A3037 RMK AO2 SLP286 T10061039 51007=
201101310753 METAR KCLM 310753Z AUTO 24005KT 10SM CLR M01/M04 A3037 RMK AO2 SLP286 T10061039 400441011=
201101310653 METAR KCLM 310653Z AUTO 25005KT 10SM FEW070 00/M04 A3036 RMK AO2 SLP284 T00001044=
201101310553 METAR KCLM 310553Z AUTO 26007KT 10SM OVC070 01/M03 A3034 RMK AO2 SLP279 T00061033 10039 21006 53007=
201101310453 METAR KCLM 310453Z AUTO 25007KT 10SM CLR 01/M04 A3033 RMK AO2 SLP275 T00061039=
201101310353 METAR KCLM 310353Z AUTO 23004KT 10SM SCT070 01/M05 A3032 RMK AO2 SLP272 T00061050=
201101310253 METAR KCLM 310253Z AUTO 00000KT 10SM OVC070 02/M04 A3032 RMK AO2 SLP271 T00171039 53015=
201101310153 METAR KCLM 310153Z AUTO 00000KT 10SM BKN060 OVC080 03/M08 A3030 RMK AO2 SLP265 T00331078=
201101310053 METAR KCLM 310053Z AUTO 00000KT 10SM OVC055 03/M08 A3029 RMK AO2 SLP260 T00331078=
201101302353 METAR KCLM 302353Z AUTO 00000KT 10SM OVC049 04/M07 A3028 RMK AO2 SLP255 T00391072 10044 20028 53016=
201101302253 METAR KCLM 302253Z AUTO 00000KT 10SM OVC049 04/M06 A3026 RMK AO2 SLP249 T00391056=
201101302153 METAR KCLM 302153Z AUTO 32003KT 10SM OVC049 04/M07 A3024 RMK AO2 SLP243 T00391067=
201101302053 METAR KCLM 302053Z AUTO VRB03KT 10SM OVC047 04/M07 A3023 RMK AO2 SLP239 T00391067 51009=
201101301953 METAR KCLM 301953Z AUTO 09005KT 10SM OVC047 04/M06 A3023 RMK AO2 SLP239 T00391056=
201101301853 METAR KCLM 301853Z AUTO 07004KT 10SM OVC047 04/M06 A3023 RMK AO2 SLP237 T00391056=
201101301753 METAR KCLM 301753Z AUTO 07004KT 10SM OVC047 03/M07 A3021 RMK AO2 SLP231 T00281067 10039 20017 53022=
201101301653 METAR KCLM 301653Z AUTO 12009KT 10SM OVC047 02/M06 A3018 RMK AO2 SLP222 T00221056=
201101301553 METAR KCLM 301553Z AUTO 14004KT 10SM BKN049 OVC070 02/M01 A3015 RMK AO2 SLP213 T00221011=
201101301453 METAR KCLM 301453Z AUTO 00000KT 10SM SCT050 BKN060 OVC070 02/01 A3014 RMK AO2 SLP209 T00170006 53014=
201101301353 METAR KCLM 301353Z AUTO 09003KT 10SM FEW047 OVC060 03/M03 A3012 RMK AO2 SLP202 T00331033=
201101301253 METAR KCLM 301253Z AUTO 00000KT 10SM SCT045 BKN075 OVC090 03/M02 A3011 RMK AO2 SLP198 T00281022=
201101301153 METAR KCLM 301153Z AUTO 08005KT 10SM FEW037 OVC048 04/M04 A3010 RMK AO2 SLP194 60000 70002 T00391044 10044 20033 51017=
201101301053 METAR KCLM 301053Z AUTO 07007KT 10SM OVC050 04/M04 A3008 RMK AO2 SLP189 T00441039=
201101300953 METAR KCLM 300953Z AUTO 00000KT 10SM BKN046 OVC055 04/01 A3006 RMK AO2 SLP182 T00390011=
201101300853 METAR KCLM 300853Z AUTO 23003KT 10SM OVC040 03/02 A3005 RMK AO2 SLP177 60000 T00330022 51010=
201101300753 METAR KCLM 300753Z AUTO 22005KT 10SM FEW014 OVC038 03/02 A3004 RMK AO2 RAB03E12 SLP174 P0000 T00330022 400830033=
201101300743 SPECI KCLM 300743Z AUTO 22004KT 8SM SCT014 SCT028 OVC036 03/02 A3004 RMK AO2 RAB03E12 P0000=
201101300743 SPECI KCLM 300743Z AUTO 22004KT 8SM SCT014 SCT028 OVC036 03/02 A3004 RMK AO2 RAB03E12 P0000=
201101300732 SPECI KCLM 300732Z AUTO 00000KT 4SM BR BKN014 BKN020 OVC027 03/02 A3004 RMK AO2 RAB03E12 P0000=
201101300732 SPECI KCLM 300732Z AUTO 00000KT 4SM BR BKN014 BKN020 OVC027 03/02 A3004 RMK AO2 RAB03E12 P0000=
201101300714 SPECI KCLM 300714Z AUTO 00000KT 5SM BR BKN018 OVC025 03/02 A3004 RMK AO2 RAB03E12 P0000=
201101300714 SPECI KCLM 300714Z AUTO 00000KT 5SM BR BKN018 OVC025 03/02 A3004 RMK AO2 RAB03E12 P0000=
201101300653 METAR KCLM 300653Z AUTO 00000KT 6SM BR FEW008 OVC014 04/02 A3003 RMK AO2 RAB0557E53 SLP172 P0000 T00390022=
201101300553 METAR KCLM 300553Z AUTO 00000KT 10SM OVC014 04/02 A3002 RMK AO2 RAE42 SLP167 P0000 60002 T00390022 10083 20039 52013=
201101300522 SPECI KCLM 300522Z AUTO VRB03KT 10SM -RA OVC010 04/02 A3001 RMK AO2 P0000=
201101300522 SPECI KCLM 300522Z AUTO VRB03KT 10SM -RA OVC010 04/02 A3001 RMK AO2 P0000=
201101300453 METAR KCLM 300453Z AUTO 03003KT 10SM -RA OVC006 04/03 A3000 RMK AO2 RAE14B30 CIG 005V010 SLP162 P0000 T00440028=
201101300433 SPECI KCLM 300433Z AUTO 06006KT 5SM -RA BR OVC006 04/03 A3000 RMK AO2 RAE14B30 P0000=
201101300433 SPECI KCLM 300433Z AUTO 06006KT 5SM -RA BR OVC006 04/03 A3000 RMK AO2 RAE14B30 P0000=
201101300353 METAR KCLM 300353Z AUTO VRB03KT 5SM -RA BR OVC004 04/03 A3000 RMK AO2 SLP160 P0000 T00440033=
201101300253 METAR KCLM 300253Z AUTO VRB03KT 4SM -RA BR OVC002 05/04 A2998 RMK AO2 SLP154 P0002 60002 T00500039 53015=
201101300153 METAR KCLM 300153Z AUTO VRB04KT 4SM -RA BR BKN002 OVC006 06/06 A2996 RMK AO2 RAB34 CIG 001V004 SLP148 P0000 T00610056=
201101300141 SPECI KCLM 300141Z AUTO VRB05KT 7SM -RA BKN004 OVC010 07/06 A2996 RMK AO2 RAB34 CIG 001V008 P0000=
201101300141 SPECI KCLM 300141Z AUTO VRB05KT 7SM -RA BKN004 OVC010 07/06 A2996 RMK AO2 RAB34 CIG 001V008 P0000=
201101300128 SPECI KCLM 300128Z AUTO 00000KT 10SM BKN006 OVC010 08/07 A2995 RMK AO2 CIG 005V009=
201101300128 SPECI KCLM 300128Z AUTO 00000KT 10SM BKN006 OVC010 08/07 A2995 RMK AO2 CIG 005V009=
201101300053 METAR KCLM 300053Z AUTO 00000KT 10SM OVC010 08/07 A2994 RMK AO2 SLP141 T00780067=
201101292353 METAR KCLM 292353Z AUTO 00000KT 10SM OVC010 08/07 A2994 RMK AO2 SLP139 60000 T00830067 10083 20067 55001=
201101292253 METAR KCLM 292253Z AUTO 00000KT 10SM OVC010 08/07 A2994 RMK AO2 SLP139 T00830067=
201101292153 METAR KCLM 292153Z AUTO 00000KT 10SM OVC010 08/07 A2993 RMK AO2 SLP137 T00830067=
201101292100 SPECI KCLM 292100Z AUTO 00000KT 10SM FEW007 OVC012 08/07 A2994 RMK AO2=
201101292100 SPECI KCLM 292100Z AUTO 00000KT 10SM FEW007 OVC012 08/07 A2994 RMK AO2=
201101292053 METAR KCLM 292053Z AUTO 00000KT 10SM OVC010 08/07 A2994 RMK AO2 CIG 005V013 SLP141 60000 T00830067 58003=
201101291953 METAR KCLM 291953Z AUTO 29003KT 10SM SCT006 OVC012 08/07 A2995 RMK AO2 SLP142 T00830067=
201101291948 SPECI KCLM 291948Z AUTO 00000KT 10SM FEW006 OVC012 08/07 A2995 RMK AO2=
201101291948 SPECI KCLM 291948Z AUTO 00000KT 10SM FEW006 OVC012 08/07 A2995 RMK AO2=
201101291909 SPECI KCLM 291909Z AUTO 00000KT 10SM BKN012 OVC070 08/07 A2995 RMK AO2=
201101291909 SPECI KCLM 291909Z AUTO 00000KT 10SM BKN012 OVC070 08/07 A2995 RMK AO2=
201101291853 METAR KCLM 291853Z AUTO 00000KT 10SM SCT012 OVC070 08/07 A2995 RMK AO2 RAB1756E08 SLP143 P0000 T00780067=
201101291753 METAR KCLM 291753Z AUTO 23003KT 10SM FEW008 OVC013 07/06 A2994 RMK AO2 SLP142 T00670056 10067 20039 53008=
201101291739 SPECI KCLM 291739Z AUTO 23003KT 10SM FEW008 BKN013 OVC060 07/06 A2994 RMK AO2=
201101291739 SPECI KCLM 291739Z AUTO 23003KT 10SM FEW008 BKN013 OVC060 07/06 A2994 RMK AO2=
201101291703 SPECI KCLM 291703Z AUTO 00000KT 10SM BKN011 OVC060 06/05 A2993 RMK AO2=
201101291703 SPECI KCLM 291703Z AUTO 00000KT 10SM BKN011 OVC060 06/05 A2993 RMK AO2=
201101291653 METAR KCLM 291653Z AUTO 00000KT 10SM SCT011 OVC060 06/05 A2993 RMK AO2 SLP136 T00560050=
201101291553 METAR KCLM 291553Z AUTO 24004KT 10SM OVC070 05/04 A2992 RMK AO2 SLP133 T00500039=
201101291508 SPECI KCLM 291508Z AUTO 20004KT 10SM FEW009 SCT032 BKN065 04/04 A2992 RMK AO2=
201101291508 SPECI KCLM 291508Z AUTO 20004KT 10SM FEW009 SCT032 BKN065 04/04 A2992 RMK AO2=
201101291453 METAR KCLM 291453Z AUTO 21004KT 10SM BKN007 BKN012 OVC032 05/04 A2992 RMK AO2 CIG 006V011 SLP134 T00500044 56003=
201101291406 SPECI KCLM 291406Z AUTO 00000KT 10SM BKN007 OVC055 06/04 A2992 RMK AO2=
201101291406 SPECI KCLM 291406Z AUTO 00000KT 10SM BKN007 OVC055 06/04 A2992 RMK AO2=
201101291353 METAR KCLM 291353Z AUTO 00000KT 10SM FEW007 BKN055 OVC080 05/04 A2992 RMK AO2 SLP135 T00500039=
201101291315 SPECI KCLM 291315Z AUTO 24004KT 10SM BKN007 BKN023 06/04 A2992 RMK AO2=
201101291315 SPECI KCLM 291315Z AUTO 24004KT 10SM BKN007 BKN023 06/04 A2992 RMK AO2=
201101291305 SPECI KCLM 291305Z AUTO 23004KT 10SM SCT007 BKN023 06/04 A2993 RMK AO2=
201101291305 SPECI KCLM 291305Z AUTO 23004KT 10SM SCT007 BKN023 06/04 A2993 RMK AO2=
201101291253 METAR KCLM 291253Z AUTO 23003KT 10SM OVC023 06/05 A2993 RMK AO2 SLP136 T00560050=
201101291153 METAR KCLM 291153Z AUTO 00000KT 10SM SCT011 OVC021 06/05 A2992 RMK AO2 SLP135 T00610050 10061 20017 50003=
201101291053 METAR KCLM 291053Z AUTO 00000KT 10SM FEW010 OVC021 06/05 A2993 RMK AO2 SLP137 T00610050=
201101290953 METAR KCLM 290953Z AUTO 22004KT 10SM BKN021 OVC031 06/05 A2993 RMK AO2 SLP136 T00560050=
201101290853 METAR KCLM 290853Z AUTO 22004KT 10SM OVC021 05/04 A2992 RMK AO2 SLP132 T00500044 51004=
201101290819 SPECI KCLM 290819Z AUTO 00000KT 10SM BKN016 OVC021 04/04 A2991 RMK AO2=
201101290819 SPECI KCLM 290819Z AUTO 00000KT 10SM BKN016 OVC021 04/04 A2991 RMK AO2=
201101290802 SPECI KCLM 290802Z AUTO 22004KT 10SM BKN014 OVC060 05/04 A2991 RMK AO2=
201101290802 SPECI KCLM 290802Z AUTO 22004KT 10SM BKN014 OVC060 05/04 A2991 RMK AO2=
201101290753 METAR KCLM 290753Z AUTO 00000KT 10SM SCT016 OVC060 04/03 A2991 RMK AO2 SLP130 T00390033 400890017=
201101290749 SPECI KCLM 290749Z AUTO 00000KT 8SM SCT016 OVC060 03/03 A2991 RMK AO2 400890017=
201101290749 SPECI KCLM 290749Z AUTO 00000KT 8SM SCT016 OVC060 03/03 A2991 RMK AO2 400890017=
201101290730 SPECI KCLM 290730Z AUTO 22004KT 10SM BKN016 OVC055 04/03 A2991 RMK AO2=
201101290730 SPECI KCLM 290730Z AUTO 22004KT 10SM BKN016 OVC055 04/03 A2991 RMK AO2=
201101290702 SPECI KCLM 290702Z AUTO 21003KT 10SM BKN014 03/03 A2990 RMK AO2=
201101290702 SPECI KCLM 290702Z AUTO 21003KT 10SM BKN014 03/03 A2990 RMK AO2=
201101290653 METAR KCLM 290653Z AUTO 24003KT 8SM BKN016 03/03 A2990 RMK AO2 SLP128 T00330028=
201101290626 SPECI KCLM 290626Z AUTO 23003KT 6SM BR FEW060 04/04 A2990 RMK AO2=
201101290626 SPECI KCLM 290626Z AUTO 23003KT 6SM BR FEW060 04/04 A2990 RMK AO2=
201101290616 SPECI KCLM 290616Z AUTO 00000KT 2SM BR FEW060 03/03 A2989 RMK AO2 VIS 3/4V5=
201101290616 SPECI KCLM 290616Z AUTO 00000KT 2SM BR FEW060 03/03 A2989 RMK AO2 VIS 3/4V5=
201101290602 SPECI KCLM 290602Z AUTO 00000KT 10SM FEW055 04/03 A2989 RMK AO2=
201101290602 SPECI KCLM 290602Z AUTO 00000KT 10SM FEW055 04/03 A2989 RMK AO2=
201101290553 METAR KCLM 290553Z AUTO 23004KT 2 1/2SM BR FEW055 04/03 A2989 RMK AO2 SLP124 T00390033 10078 20028 51002=
201101290544 SPECI KCLM 290544Z AUTO 21003KT 4SM BR FEW055 04/03 A2989 RMK AO2=
201101290544 SPECI KCLM 290544Z AUTO 21003KT 4SM BR FEW055 04/03 A2989 RMK AO2=
201101290532 SPECI KCLM 290532Z AUTO 23003KT 1SM BR SCT055 03/03 A2989 RMK AO2 VIS 1/2V2=
201101290532 SPECI KCLM 290532Z AUTO 23003KT 1SM BR SCT055 03/03 A2989 RMK AO2 VIS 1/2V2=
201101290515 SPECI KCLM 290515Z AUTO 23003KT 3/4SM BR FEW001 BKN050 03/03 A2989 RMK AO2=
201101290515 SPECI KCLM 290515Z AUTO 23003KT 3/4SM BR FEW001 BKN050 03/03 A2989 RMK AO2=
201101290509 SPECI KCLM 290509Z AUTO 00000KT 2SM BR FEW001 SCT050 04/04 A2989 RMK AO2 VIS 3/4V5=
201101290509 SPECI KCLM 290509Z AUTO 00000KT 2SM BR FEW001 SCT050 04/04 A2989 RMK AO2 VIS 3/4V5=
201101290501 SPECI KCLM 290501Z AUTO 00000KT 1/2SM FG FEW001 04/04 A2989 RMK AO2=
201101290501 SPECI KCLM 290501Z AUTO 00000KT 1/2SM FG FEW001 04/04 A2989 RMK AO2=
201101290453 METAR KCLM 290453Z AUTO 00000KT 3/4SM BR FEW050 04/03 A2989 RMK AO2 VIS 1/4V5 SLP123 T00390033=
201101290444 SPECI KCLM 290444Z AUTO 00000KT 2 1/2SM BR FEW055 05/04 A2989 RMK AO2=
201101290444 SPECI KCLM 290444Z AUTO 00000KT 2 1/2SM BR FEW055 05/04 A2989 RMK AO2=
201101290428 SPECI KCLM 290428Z AUTO 23003KT 3/4SM BR FEW001 BKN050 BKN065 05/04 A2988 RMK AO2=
201101290428 SPECI KCLM 290428Z AUTO 23003KT 3/4SM BR FEW001 BKN050 BKN065 05/04 A2988 RMK AO2=
201101290420 SPECI KCLM 290420Z AUTO 00000KT 1SM BR FEW001 OVC050 06/05 A2989 RMK AO2=
201101290420 SPECI KCLM 290420Z AUTO 00000KT 1SM BR FEW001 OVC050 06/05 A2989 RMK AO2=
201101290410 SPECI KCLM 290410Z AUTO 16003KT 2SM BR SCT001 BKN047 OVC055 06/05 A2989 RMK AO2=
201101290410 SPECI KCLM 290410Z AUTO 16003KT 2SM BR SCT001 BKN047 OVC055 06/05 A2989 RMK AO2=
201101290407 SPECI KCLM 290407Z AUTO 14003KT 1 3/4SM BR BKN001 BKN047 OVC055 06/04 A2989 RMK AO2=
201101290407 SPECI KCLM 290407Z AUTO 14003KT 1 3/4SM BR BKN001 BKN047 OVC055 06/04 A2989 RMK AO2=
201101290353 METAR KCLM 290353Z AUTO 00000KT 2 1/2SM BR BKN001 OVC047 06/06 A2989 RMK AO2 SLP124 T00610056=
201101290343 SPECI KCLM 290343Z AUTO 00000KT 1 3/4SM BR BKN001 OVC047 06/06 A2989 RMK AO2=
201101290343 SPECI KCLM 290343Z AUTO 00000KT 1 3/4SM BR BKN001 OVC047 06/06 A2989 RMK AO2=
201101290337 SPECI KCLM 290337Z AUTO 00000KT 4SM BR BKN001 BKN047 OVC060 06/06 A2989 RMK AO2=
201101290337 SPECI KCLM 290337Z AUTO 00000KT 4SM BR BKN001 BKN047 OVC060 06/06 A2989 RMK AO2=
201101290328 SPECI KCLM 290328Z AUTO 00000KT 2SM BR SCT003 BKN049 OVC065 06/05 A2989 RMK AO2=
201101290328 SPECI KCLM 290328Z AUTO 00000KT 2SM BR SCT003 BKN049 OVC065 06/05 A2989 RMK AO2=
201101290253 METAR KCLM 290253Z AUTO 00000KT 7SM SCT005 BKN060 OVC070 06/06 A2988 RMK AO2 SLP121 T00610056 51008=
201101290250 SPECI KCLM 290250Z AUTO 00000KT 7SM SCT005 BKN060 OVC070 06/05 A2988 RMK AO2=
201101290250 SPECI KCLM 290250Z AUTO 00000KT 7SM SCT005 BKN060 OVC070 06/05 A2988 RMK AO2=
201101290153 METAR KCLM 290153Z AUTO 00000KT 7SM OVC065 06/05 A2987 RMK AO2 SLP117 T00610050=
201101290053 METAR KCLM 290053Z AUTO 00000KT 10SM OVC065 07/06 A2986 RMK AO2 SLP113 T00720056=
201101282353 METAR KCLM 282353Z AUTO 00000KT 10SM BKN060 08/06 A2986 RMK AO2 SLP112 60000 T00780061 10089 20067 53002=
201101282253 METAR KCLM 282253Z AUTO 14003KT 10SM OVC060 08/06 A2985 RMK AO2 SLP109 T00830056=
201101282218 SPECI KCLM 282218Z AUTO 00000KT 10SM SCT005 SCT050 OVC060 08/06 A2985 RMK AO2=
201101282218 SPECI KCLM 282218Z AUTO 00000KT 10SM SCT005 SCT050 OVC060 08/06 A2985 RMK AO2=
201101282210 SPECI KCLM 282210Z AUTO 00000KT 10SM BKN005 OVC060 08/06 A2985 RMK AO2=
201101282210 SPECI KCLM 282210Z AUTO 00000KT 10SM BKN005 OVC060 08/06 A2985 RMK AO2=
201101282200 SPECI KCLM 282200Z AUTO 03003KT 10SM SCT005 SCT009 OVC055 08/06 A2985 RMK AO2=
201101282200 SPECI KCLM 282200Z AUTO 03003KT 10SM SCT005 SCT009 OVC055 08/06 A2985 RMK AO2=
201101282153 METAR KCLM 282153Z AUTO 00000KT 10SM BKN008 OVC060 08/06 A2985 RMK AO2 RAE09 SLP110 P0000 T00780061=
201101282053 METAR KCLM 282053Z AUTO 00000KT 8SM -RA FEW004 BKN008 OVC048 07/06 A2985 RMK AO2 SLP110 P0000 60000 T00720056 58015=
201101282022 SPECI KCLM 282022Z AUTO 00000KT 10SM FEW006 SCT049 OVC065 07/05 A2986 RMK AO2 RAE18 P0000=
201101282022 SPECI KCLM 282022Z AUTO 00000KT 10SM FEW006 SCT049 OVC065 07/05 A2986 RMK AO2 RAE18 P0000=
201101281953 METAR KCLM 281953Z AUTO 05004KT 10SM -RA BKN034 BKN048 BKN065 07/05 A2987 RMK AO2 SLP116 P0000 T00720050=
201101281853 METAR KCLM 281853Z AUTO 00000KT 10SM -RA BKN045 OVC055 08/05 A2988 RMK AO2 RAB23 SLP121 P0000 T00780050=
201101281753 METAR KCLM 281753Z AUTO 00000KT 10SM SCT049 OVC055 07/04 A2990 RMK AO2 SLP125 T00720044 10078 20039 58002=
201101281653 METAR KCLM 281653Z AUTO 11004KT 10SM SCT016 BKN065 06/04 A2990 RMK AO2 SLP127 T00560039=
201101281606 SPECI KCLM 281606Z AUTO 13007KT 10SM SCT005 BKN016 OVC065 05/04 A2991 RMK AO2=
201101281606 SPECI KCLM 281606Z AUTO 13007KT 10SM SCT005 BKN016 OVC065 05/04 A2991 RMK AO2=
201101281553 METAR KCLM 281553Z AUTO 14008KT 10SM BKN005 OVC070 04/03 A2990 RMK AO2 SLP127 T00440033=
201101281453 METAR KCLM 281453Z AUTO 00000KT 10SM OVC005 04/04 A2990 RMK AO2 SLP127 T00440039 58006=
201101281353 METAR KCLM 281353Z AUTO 20004KT 10SM OVC005 05/03 A2991 RMK AO2 SLP131 T00500033=
201101281253 METAR KCLM 281253Z AUTO 27006KT 10SM OVC005 04/04 A2993 RMK AO2 SLP137 T00440039=
201101281153 METAR KCLM 281153Z AUTO 28006KT 6SM BR OVC003 04/04 A2992 RMK AO2 SLP133 T00440039 10050 20044 58021=
201101281053 METAR KCLM 281053Z AUTO 00000KT 6SM BR OVC003 04/04 A2994 RMK AO2 SLP142 T00440039=
201101280953 METAR KCLM 280953Z AUTO 14003KT 7SM OVC003 04/04 A2996 RMK AO2 SLP148 T00440044=
201101280939 SPECI KCLM 280939Z AUTO 16004KT 5SM BR OVC003 04/04 A2996 RMK AO2=
201101280939 SPECI KCLM 280939Z AUTO 16004KT 5SM BR OVC003 04/04 A2996 RMK AO2=
201101280910 SPECI KCLM 280910Z AUTO 18003KT 3SM BR OVC001 04/04 A2998 RMK AO2=
201101280910 SPECI KCLM 280910Z AUTO 18003KT 3SM BR OVC001 04/04 A2998 RMK AO2=
201101280901 SPECI KCLM 280901Z AUTO 00000KT 2 1/2SM BR OVC001 04/04 A2998 RMK AO2=
201101280901 SPECI KCLM 280901Z AUTO 00000KT 2 1/2SM BR OVC001 04/04 A2998 RMK AO2=
201101280853 METAR KCLM 280853Z AUTO 00000KT 1 3/4SM BR OVC001 04/04 A2998 RMK AO2 SLP154 T00440039 58010=
201101280828 SPECI KCLM 280828Z AUTO 17004KT 1/2SM FG VV001 04/04 A2999 RMK AO2=
201101280828 SPECI KCLM 280828Z AUTO 17004KT 1/2SM FG VV001 04/04 A2999 RMK AO2=
201101280753 METAR KCLM 280753Z AUTO 16003KT 1/4SM FG VV001 04/04 A3000 RMK AO2 SLP160 T00440044 400720006=
201101280653 METAR KCLM 280653Z AUTO 00000KT 1/4SM FG VV001 04/04 A3001 RMK AO2 SLP165 T00440039=
201101280553 METAR KCLM 280553Z AUTO 16004KT 1/4SM FG VV001 04/04 A3001 RMK AO2 SLP165 T00440039 10056 20044 58018=
201101280453 METAR KCLM 280453Z AUTO 10003KT 1/4SM FG VV001 04/04 A3003 RMK AO2 SLP170 T00440044=
201101280353 METAR KCLM 280353Z AUTO 12005KT 1/4SM FG VV001 05/04 A3005 RMK AO2 SLP178 T00500044=
201101280253 METAR KCLM 280253Z AUTO 00000KT 1/4SM FG VV001 05/04 A3007 RMK AO2 SLP183 T00500044 56023=
201101280153 METAR KCLM 280153Z AUTO 00000KT 1/4SM FG VV001 05/04 A3009 RMK AO2 SLP190 T00500044=
201101280053 METAR KCLM 280053Z AUTO 00000KT 1/4SM FG VV001 06/05 A3011 RMK AO2 SLP197 T00560050=
201101280030 SPECI KCLM 280030Z AUTO 00000KT 1/4SM FG OVC001 06/05 A3012 RMK AO2=
201101280030 SPECI KCLM 280030Z AUTO 00000KT 1/4SM FG OVC001 06/05 A3012 RMK AO2=
201101280006 SPECI KCLM 280006Z AUTO 00000KT 3/4SM BR OVC001 06/05 A3013 RMK AO2=
201101280006 SPECI KCLM 280006Z AUTO 00000KT 3/4SM BR OVC001 06/05 A3013 RMK AO2=
201101272353 METAR KCLM 272353Z AUTO 00000KT 1/4SM FG OVC001 06/05 A3013 RMK AO2 SLP207 T00560050 10072 20044 56006=
201101272339 SPECI KCLM 272339Z AUTO 00000KT 1/2SM FG OVC001 06/05 A3014 RMK AO2=
201101272339 SPECI KCLM 272339Z AUTO 00000KT 1/2SM FG OVC001 06/05 A3014 RMK AO2=
201101272313 SPECI KCLM 272313Z AUTO 00000KT 1/4SM FG VV001 06/05 A3014 RMK AO2=
201101272313 SPECI KCLM 272313Z AUTO 00000KT 1/4SM FG VV001 06/05 A3014 RMK AO2=
201101272253 METAR KCLM 272253Z AUTO 00000KT 1/2SM FG OVC001 06/06 A3014 RMK AO2 SLP206 T00610056=
201101272223 SPECI KCLM 272223Z AUTO 00000KT 1/2SM FG OVC001 06/05 A3013 RMK AO2=
201101272223 SPECI KCLM 272223Z AUTO 00000KT 1/2SM FG OVC001 06/05 A3013 RMK AO2=
201101272209 SPECI KCLM 272209Z AUTO 00000KT 1/4SM FG VV001 06/05 A3014 RMK AO2=
201101272209 SPECI KCLM 272209Z AUTO 00000KT 1/4SM FG VV001 06/05 A3014 RMK AO2=
201101272153 METAR KCLM 272153Z AUTO 00000KT 1/2SM FG OVC001 06/05 A3015 RMK AO2 SLP211 T00560050=
201101272145 SPECI KCLM 272145Z AUTO VRB03KT 1/4SM FG OVC001 06/05 A3014 RMK AO2=
201101272145 SPECI KCLM 272145Z AUTO VRB03KT 1/4SM FG OVC001 06/05 A3014 RMK AO2=
201101272141 SPECI KCLM 272141Z AUTO 00000KT 1/2SM FG OVC003 06/06 A3014 RMK AO2=
201101272141 SPECI KCLM 272141Z AUTO 00000KT 1/2SM FG OVC003 06/06 A3014 RMK AO2=
201101272131 SPECI KCLM 272131Z AUTO VRB03KT 1 3/4SM BR OVC003 06/06 A3014 RMK AO2 CIG 001V005=
201101272131 SPECI KCLM 272131Z AUTO VRB03KT 1 3/4SM BR OVC003 06/06 A3014 RMK AO2 CIG 001V005=
201101272053 METAR KCLM 272053Z AUTO 00000KT 7SM OVC003 06/05 A3015 RMK AO2 SLP213 T00560050 58019=
201101272034 SPECI KCLM 272034Z AUTO 00000KT 3SM BR OVC001 06/05 A3017 RMK AO2=
201101272034 SPECI KCLM 272034Z AUTO 00000KT 3SM BR OVC001 06/05 A3017 RMK AO2=
201101272016 SPECI KCLM 272016Z AUTO 00000KT 1 1/4SM BR OVC001 06/05 A3018 RMK AO2=
201101272016 SPECI KCLM 272016Z AUTO 00000KT 1 1/4SM BR OVC001 06/05 A3018 RMK AO2=
201101271953 METAR KCLM 271953Z AUTO 13004KT 1/2SM FG OVC001 05/05 A3018 RMK AO2 SLP224 T00500050=
201101271951 SPECI KCLM 271951Z AUTO 00000KT 1/2SM FG OVC001 05/05 A3019 RMK AO2=
201101271951 SPECI KCLM 271951Z AUTO 00000KT 1/2SM FG OVC001 05/05 A3019 RMK AO2=
201101271853 METAR KCLM 271853Z AUTO 00000KT 1/4SM FG VV001 05/05 A3021 RMK AO2 SLP232 T00500050=
201101271753 METAR KCLM 271753Z AUTO 06004KT 1/4SM FG VV001 04/04 A3018 RMK AO2 SLP223 T00440039 10044 20006 58003=
201101271653 METAR KCLM 271653Z AUTO 17004KT M1/4SM FG VV001 04/03 A3020 RMK AO2 SLP231 T00390033=
201101271553 METAR KCLM 271553Z AUTO 00000KT 1/4SM FG VV001 03/02 A3020 RMK AO2 SLP229 T00280022=
201101271453 METAR KCLM 271453Z AUTO 16005KT 1/4SM FG VV001 02/02 A3019 RMK AO2 SLP227 T00220017 56012=
201101271402 SPECI KCLM 271402Z AUTO 00000KT 1/4SM FG BKN001 OVC009 02/02 A3021 RMK AO2=
201101271402 SPECI KCLM 271402Z AUTO 00000KT 1/4SM FG BKN001 OVC009 02/02 A3021 RMK AO2=
201101271353 METAR KCLM 271353Z AUTO 01003KT 1/2SM FG BKN001 OVC009 02/01 A3020 RMK AO2 SLP230 T00170011=
201101271328 SPECI KCLM 271328Z AUTO 16003KT 1/4SM FG VV001 02/01 A3019 RMK AO2=
201101271328 SPECI KCLM 271328Z AUTO 16003KT 1/4SM FG VV001 02/01 A3019 RMK AO2=
201101271314 SPECI KCLM 271314Z AUTO 20003KT 1/2SM FG OVC002 01/01 A3019 RMK AO2=
201101271314 SPECI KCLM 271314Z AUTO 20003KT 1/2SM FG OVC002 01/01 A3019 RMK AO2=
201101271253 METAR KCLM 271253Z AUTO 00000KT 1/4SM FG VV001 02/02 A3021 RMK AO2 SLP230 T00220022=
201101271153 METAR KCLM 271153Z AUTO 00000KT 1/4SM FG VV001 01/01 A3023 RMK AO2 SLP238 T00110011 10028 20006 56009=
201101271148 SPECI KCLM 271148Z AUTO 00000KT 1/4SM FG VV001 02/01 A3023 RMK AO2=
201101271148 SPECI KCLM 271148Z AUTO 00000KT 1/4SM FG VV001 02/01 A3023 RMK AO2=
201101271140 SPECI KCLM 271140Z AUTO 00000KT 1/4SM FG VV002 01/01 A3023 RMK AO2=
201101271140 SPECI KCLM 271140Z AUTO 00000KT 1/4SM FG VV002 01/01 A3023 RMK AO2=
201101271135 SPECI KCLM 271135Z AUTO 00000KT 1/2SM FG OVC001 01/01 A3024 RMK AO2=
201101271135 SPECI KCLM 271135Z AUTO 00000KT 1/2SM FG OVC001 01/01 A3024 RMK AO2=
201101271111 SPECI KCLM 271111Z AUTO 12003KT 1SM BR OVC001 01/01 A3023 RMK AO2=
201101271111 SPECI KCLM 271111Z AUTO 12003KT 1SM BR OVC001 01/01 A3023 RMK AO2=
201101271101 SPECI KCLM 271101Z AUTO 14003KT 1/2SM FG OVC001 01/01 A3023 RMK AO2=
201101271101 SPECI KCLM 271101Z AUTO 14003KT 1/2SM FG OVC001 01/01 A3023 RMK AO2=
201101271053 METAR KCLM 271053Z AUTO 00000KT 1/4SM FG OVC001 01/01 A3025 RMK AO2 SLP244 T00110011=
201101271048 SPECI KCLM 271048Z AUTO 00000KT 1/2SM FG OVC001 02/01 A3024 RMK AO2=
201101271048 SPECI KCLM 271048Z AUTO 00000KT 1/2SM FG OVC001 02/01 A3024 RMK AO2=
201101271044 SPECI KCLM 271044Z AUTO 18003KT 1SM BR BKN003 02/01 A3024 RMK AO2=
201101271044 SPECI KCLM 271044Z AUTO 18003KT 1SM BR BKN003 02/01 A3024 RMK AO2=
201101271036 SPECI KCLM 271036Z AUTO 19003KT 3/4SM BR OVC003 01/01 A3024 RMK AO2=
201101271036 SPECI KCLM 271036Z AUTO 19003KT 3/4SM BR OVC003 01/01 A3024 RMK AO2=
201101271029 SPECI KCLM 271029Z AUTO 00000KT 1/4SM FG OVC003 02/01 A3025 RMK AO2=
201101271029 SPECI KCLM 271029Z AUTO 00000KT 1/4SM FG OVC003 02/01 A3025 RMK AO2=
201101270953 METAR KCLM 270953Z AUTO 18003KT 1/4SM FG VV001 02/01 A3025 RMK AO2 SLP247 T00170011=
201101270947 SPECI KCLM 270947Z AUTO 00000KT 3/4SM BR VV001 02/01 A3026 RMK AO2=
201101270947 SPECI KCLM 270947Z AUTO 00000KT 3/4SM BR VV001 02/01 A3026 RMK AO2=
201101270945 SPECI KCLM 270945Z AUTO 00000KT 2SM BR BKN002 01/01 A3026 RMK AO2=
201101270945 SPECI KCLM 270945Z AUTO 00000KT 2SM BR BKN002 01/01 A3026 RMK AO2=
201101270938 SPECI KCLM 270938Z AUTO 14003KT 6SM BR SCT002 02/01 A3025 RMK AO2=
201101270938 SPECI KCLM 270938Z AUTO 14003KT 6SM BR SCT002 02/01 A3025 RMK AO2=
201101270853 METAR KCLM 270853Z AUTO 00000KT 10SM CLR 01/01 A3024 RMK AO2 SLP244 T00110011 51003=
201101270753 METAR KCLM 270753Z AUTO 23004KT 4SM BR CLR 01/01 A3025 RMK AO2 SLP244 T00110006 400940006=
201101270653 METAR KCLM 270653Z AUTO 00000KT 3SM BR CLR 01/01 A3024 RMK AO2 SLP242 T00110006=
201101270553 METAR KCLM 270553Z AUTO 23004KT 9SM CLR 03/02 A3024 RMK AO2 SLP241 T00280022 10083 20006 50001=
201101270544 SPECI KCLM 270544Z AUTO 23003KT 3SM BR CLR 02/02 A3024 RMK AO2=
201101270544 SPECI KCLM 270544Z AUTO 23003KT 3SM BR CLR 02/02 A3024 RMK AO2=
201101270539 SPECI KCLM 270539Z AUTO 23003KT 1 1/2SM BR FEW001 02/02 A3023 RMK AO2=
201101270539 SPECI KCLM 270539Z AUTO 23003KT 1 1/2SM BR FEW001 02/02 A3023 RMK AO2=
201101270515 SPECI KCLM 270515Z AUTO 00000KT 1 3/4SM BR CLR 02/01 A3023 RMK AO2=
201101270515 SPECI KCLM 270515Z AUTO 00000KT 1 3/4SM BR CLR 02/01 A3023 RMK AO2=
201101270502 SPECI KCLM 270502Z AUTO 22005KT 3SM BR CLR 03/02 A3024 RMK AO2=
201101270502 SPECI KCLM 270502Z AUTO 22005KT 3SM BR CLR 03/02 A3024 RMK AO2=
201101270453 METAR KCLM 270453Z AUTO 21003KT 1 3/4SM BR CLR 02/02 A3024 RMK AO2 SLP243 T00170017=
201101270441 SPECI KCLM 270441Z AUTO 00000KT 3SM BR CLR 03/02 A3024 RMK AO2=
201101270441 SPECI KCLM 270441Z AUTO 00000KT 3SM BR CLR 03/02 A3024 RMK AO2=
201101270432 SPECI KCLM 270432Z AUTO 00000KT 1 3/4SM BR FEW010 02/02 A3024 RMK AO2=
201101270432 SPECI KCLM 270432Z AUTO 00000KT 1 3/4SM BR FEW010 02/02 A3024 RMK AO2=
201101270425 SPECI KCLM 270425Z AUTO 20003KT 3SM BR FEW010 03/02 A3024 RMK AO2=
201101270425 SPECI KCLM 270425Z AUTO 20003KT 3SM BR FEW010 03/02 A3024 RMK AO2=
201101270408 SPECI KCLM 270408Z AUTO 00000KT 1 3/4SM BR SCT010 03/02 A3024 RMK AO2=
201101270408 SPECI KCLM 270408Z AUTO 00000KT 1 3/4SM BR SCT010 03/02 A3024 RMK AO2=
201101270353 METAR KCLM 270353Z AUTO 23003KT 9SM FEW010 03/02 A3024 RMK AO2 SLP241 T00330022=
201101270323 SPECI KCLM 270323Z AUTO 21003KT 3SM BR FEW008 04/03 A3023 RMK AO2=
201101270323 SPECI KCLM 270323Z AUTO 21003KT 3SM BR FEW008 04/03 A3023 RMK AO2=
201101270300 SPECI KCLM 270300Z AUTO 00000KT 1 1/2SM BR FEW008 03/03 A3024 RMK AO2 VIS 1/2V5=
201101270300 SPECI KCLM 270300Z AUTO 00000KT 1 1/2SM BR FEW008 03/03 A3024 RMK AO2 VIS 1/2V5=
201101270253 METAR KCLM 270253Z AUTO 00000KT 7SM SCT008 04/04 A3023 RMK AO2 SLP240 T00390039 55006=
201101270239 SPECI KCLM 270239Z AUTO 27004KT 9SM FEW001 04/04 A3025 RMK AO2=
201101270239 SPECI KCLM 270239Z AUTO 27004KT 9SM FEW001 04/04 A3025 RMK AO2=
201101270233 SPECI KCLM 270233Z AUTO 27004KT 2SM BR FEW010 04/04 A3024 RMK AO2=
201101270233 SPECI KCLM 270233Z AUTO 27004KT 2SM BR FEW010 04/04 A3024 RMK AO2=
201101270230 SPECI KCLM 270230Z AUTO 25004KT 1SM BR VV010 04/04 A3024 RMK AO2=
201101270230 SPECI KCLM 270230Z AUTO 25004KT 1SM BR VV010 04/04 A3024 RMK AO2=
201101270225 SPECI KCLM 270225Z AUTO 27004KT 1/2SM FG VV007 04/03 A3024 RMK AO2=
201101270225 SPECI KCLM 270225Z AUTO 27004KT 1/2SM FG VV007 04/03 A3024 RMK AO2=
201101270215 SPECI KCLM 270215Z AUTO 00000KT 1/2SM FG VV010 04/03 A3023 RMK AO2=
201101270215 SPECI KCLM 270215Z AUTO 00000KT 1/2SM FG VV010 04/03 A3023 RMK AO2=
201101270203 SPECI KCLM 270203Z AUTO 00000KT 3/4SM BR VV001 04/04 A3023 RMK AO2=
201101270203 SPECI KCLM 270203Z AUTO 00000KT 3/4SM BR VV001 04/04 A3023 RMK AO2=
201101270200 SPECI KCLM 270200Z AUTO 00000KT 1 1/4SM BR FEW001 06/04 A3023 RMK AO2=
201101270200 SPECI KCLM 270200Z AUTO 00000KT 1 1/4SM BR FEW001 06/04 A3023 RMK AO2=
201101270153 METAR KCLM 270153Z AUTO 00000KT 3SM BR CLR 05/04 A3023 RMK AO2 SLP239 T00500039=
201101270053 METAR KCLM 270053Z AUTO 00000KT 10SM CLR 07/06 A3024 RMK AO2 SLP242 T00720056=
201101262353 METAR KCLM 262353Z AUTO 00000KT 10SM FEW120 08/06 A3025 RMK AO2 SLP246 T00830056 10094 20067 56004=
201101262253 METAR KCLM 262253Z AUTO 00000KT 10SM BKN110 08/06 A3025 RMK AO2 SLP247 T00830056=
201101262153 METAR KCLM 262153Z AUTO 00000KT 10SM FEW011 08/05 A3026 RMK AO2 SLP248 T00780050=
201101262130 SPECI KCLM 262130Z AUTO 07003KT 10SM SCT013 08/06 A3026 RMK AO2=
201101262130 SPECI KCLM 262130Z AUTO 07003KT 10SM SCT013 08/06 A3026 RMK AO2=
201101262107 SPECI KCLM 262107Z AUTO VRB04KT 10SM BKN011 09/06 A3027 RMK AO2=
201101262107 SPECI KCLM 262107Z AUTO VRB04KT 10SM BKN011 09/06 A3027 RMK AO2=
201101262100 SPECI KCLM 262100Z AUTO 00000KT 10SM SCT011 09/06 A3027 RMK AO2=
201101262100 SPECI KCLM 262100Z AUTO 00000KT 10SM SCT011 09/06 A3027 RMK AO2=
201101262053 METAR KCLM 262053Z AUTO 14003KT 10SM BKN009 09/06 A3026 RMK AO2 SLP249 T00940061 58007=
201101262042 SPECI KCLM 262042Z AUTO VRB03KT 10SM BKN009 09/06 A3027 RMK AO2=
201101262042 SPECI KCLM 262042Z AUTO VRB03KT 10SM BKN009 09/06 A3027 RMK AO2=
201101262033 SPECI KCLM 262033Z AUTO 00000KT 10SM SCT009 09/06 A3028 RMK AO2=
201101262033 SPECI KCLM 262033Z AUTO 00000KT 10SM SCT009 09/06 A3028 RMK AO2=
201101261953 METAR KCLM 261953Z AUTO 00000KT 10SM OVC009 08/06 A3030 RMK AO2 SLP262 T00830056=
201101261853 METAR KCLM 261853Z AUTO 00000KT 10SM OVC009 08/06 A3029 RMK AO2 SLP257 T00780056=
201101261753 METAR KCLM 261753Z AUTO 00000KT 10SM OVC009 07/06 A3028 RMK AO2 SLP256 T00670056 10067 20044 53006=
201101261653 METAR KCLM 261653Z AUTO 00000KT 10SM BKN009 06/04 A3027 RMK AO2 SLP252 T00560044=
201101261553 METAR KCLM 261553Z AUTO 24004KT 10SM OVC009 05/04 A3027 RMK AO2 SLP251 T00500039=
201101261524 SPECI KCLM 261524Z AUTO 00000KT 10SM BKN009 05/04 A3027 RMK AO2=
201101261524 SPECI KCLM 261524Z AUTO 00000KT 10SM BKN009 05/04 A3027 RMK AO2=
201101261453 METAR KCLM 261453Z AUTO 00000KT 10SM SCT009 05/04 A3027 RMK AO2 SLP251 T00500039 58005=
201101261422 SPECI KCLM 261422Z AUTO 20005KT 10SM BKN009 BKN017 06/04 A3028 RMK AO2=
201101261422 SPECI KCLM 261422Z AUTO 20005KT 10SM BKN009 BKN017 06/04 A3028 RMK AO2=
201101261410 SPECI KCLM 261410Z AUTO 25007KT 10SM SCT009 BKN017 BKN110 06/04 A3029 RMK AO2=
201101261410 SPECI KCLM 261410Z AUTO 25007KT 10SM SCT009 BKN017 BKN110 06/04 A3029 RMK AO2=
201101261400 SPECI KCLM 261400Z AUTO 26003KT 10SM SCT009 SCT017 BKN100 05/04 A3028 RMK AO2=
201101261400 SPECI KCLM 261400Z AUTO 26003KT 10SM SCT009 SCT017 BKN100 05/04 A3028 RMK AO2=
201101261353 METAR KCLM 261353Z AUTO 25003KT 10SM BKN009 BKN100 06/04 A3028 RMK AO2 SLP256 T00560044=
201101261342 SPECI KCLM 261342Z AUTO 23004KT 10SM OVC009 06/04 A3028 RMK AO2=
201101261342 SPECI KCLM 261342Z AUTO 23004KT 10SM OVC009 06/04 A3028 RMK AO2=
201101261253 METAR KCLM 261253Z AUTO 00000KT 10SM OVC011 05/04 A3028 RMK AO2 SLP256 T00500044=
201101261235 SPECI KCLM 261235Z AUTO 22004KT 10SM OVC013 05/04 A3028 RMK AO2=
201101261235 SPECI KCLM 261235Z AUTO 22004KT 10SM OVC013 05/04 A3028 RMK AO2=
201101261209 SPECI KCLM 261209Z AUTO 26004KT 10SM OVC015 04/04 A3029 RMK AO2=
201101261209 SPECI KCLM 261209Z AUTO 26004KT 10SM OVC015 04/04 A3029 RMK AO2=
201101261153 METAR KCLM 261153Z AUTO 24003KT 10SM BKN013 OVC100 04/04 A3028 RMK AO2 SLP256 T00440039 10067 20039 50005=
201101261149 SPECI KCLM 261149Z AUTO 26004KT 10SM BKN013 OVC100 04/03 A3028 RMK AO2=
201101261149 SPECI KCLM 261149Z AUTO 26004KT 10SM BKN013 OVC100 04/03 A3028 RMK AO2=
201101261108 SPECI KCLM 261108Z AUTO 00000KT 3SM BR FEW013 BKN100 04/04 A3028 RMK AO2=
201101261108 SPECI KCLM 261108Z AUTO 00000KT 3SM BR FEW013 BKN100 04/04 A3028 RMK AO2=
201101261101 SPECI KCLM 261101Z AUTO 00000KT 1 3/4SM BR FEW013 BKN100 04/03 A3028 RMK AO2=
201101261101 SPECI KCLM 261101Z AUTO 00000KT 1 3/4SM BR FEW013 BKN100 04/03 A3028 RMK AO2=
201101261053 METAR KCLM 261053Z AUTO 16003KT 10SM SCT013 05/04 A3028 RMK AO2 SLP254 T00500039=
201101260953 METAR KCLM 260953Z AUTO 20004KT 10SM OVC013 06/05 A3026 RMK AO2 SLP250 T00610050=
201101260853 METAR KCLM 260853Z AUTO 23003KT 9SM OVC013 06/05 A3027 RMK AO2 SLP254 T00610050 57010=
201101260821 SPECI KCLM 260821Z AUTO 00000KT 4SM BR OVC013 06/05 A3028 RMK AO2=
201101260821 SPECI KCLM 260821Z AUTO 00000KT 4SM BR OVC013 06/05 A3028 RMK AO2=
201101260813 SPECI KCLM 260813Z AUTO 00000KT 2SM BR OVC013 06/05 A3028 RMK AO2=
201101260813 SPECI KCLM 260813Z AUTO 00000KT 2SM BR OVC013 06/05 A3028 RMK AO2=
201101260801 SPECI KCLM 260801Z AUTO 00000KT 1 3/4SM BR OVC015 05/05 A3029 RMK AO2=
201101260801 SPECI KCLM 260801Z AUTO 00000KT 1 3/4SM BR OVC015 05/05 A3029 RMK AO2=
201101260753 METAR KCLM 260753Z AUTO 00000KT 2 1/2SM BR OVC015 05/05 A3029 RMK AO2 SLP259 T00500050 400830044=
201101260741 SPECI KCLM 260741Z AUTO 15003KT 2 1/2SM BR OVC015 06/04 A3029 RMK AO2=
201101260741 SPECI KCLM 260741Z AUTO 15003KT 2 1/2SM BR OVC015 06/04 A3029 RMK AO2=
201101260712 SPECI KCLM 260712Z AUTO 00000KT 1 3/4SM BR OVC017 06/05 A3031 RMK AO2=
201101260712 SPECI KCLM 260712Z AUTO 00000KT 1 3/4SM BR OVC017 06/05 A3031 RMK AO2=
201101260706 SPECI KCLM 260706Z AUTO 00000KT 4SM BR OVC017 06/05 A3030 RMK AO2=
201101260706 SPECI KCLM 260706Z AUTO 00000KT 4SM BR OVC017 06/05 A3030 RMK AO2=
201101260659 SPECI KCLM 260659Z AUTO 00000KT 2 1/2SM BR BKN017 06/05 A3030 RMK AO2=
201101260659 SPECI KCLM 260659Z AUTO 00000KT 2 1/2SM BR BKN017 06/05 A3030 RMK AO2=
201101260653 METAR KCLM 260653Z AUTO 00000KT 1/2SM FG FEW002 BKN017 OVC090 05/04 A3030 RMK AO2 SLP264 T00500044=
201101260646 SPECI KCLM 260646Z AUTO 00000KT 3/4SM BR BKN017 OVC085 06/05 A3031 RMK AO2=
201101260646 SPECI KCLM 260646Z AUTO 00000KT 3/4SM BR BKN017 OVC085 06/05 A3031 RMK AO2=
201101260642 SPECI KCLM 260642Z AUTO 00000KT 2 1/2SM BR BKN017 OVC085 06/05 A3031 RMK AO2=
201101260642 SPECI KCLM 260642Z AUTO 00000KT 2 1/2SM BR BKN017 OVC085 06/05 A3031 RMK AO2=
201101260634 SPECI KCLM 260634Z AUTO 00000KT 9SM SCT015 OVC085 06/05 A3031 RMK AO2=
201101260634 SPECI KCLM 260634Z AUTO 00000KT 9SM SCT015 OVC085 06/05 A3031 RMK AO2=
201101260553 METAR KCLM 260553Z AUTO 00000KT 6SM BR OVC015 06/06 A3031 RMK AO2 SLP266 T00610056 10078 20061 58000=
201101260453 METAR KCLM 260453Z AUTO 00000KT 9SM OVC015 07/06 A3030 RMK AO2 SLP263 T00670061=
201101260405 SPECI KCLM 260405Z AUTO 00000KT 10SM OVC015 07/06 A3032 RMK AO2=
201101260405 SPECI KCLM 260405Z AUTO 00000KT 10SM OVC015 07/06 A3032 RMK AO2=
201101260353 METAR KCLM 260353Z AUTO 00000KT 10SM OVC013 07/06 A3033 RMK AO2 SLP273 T00670061=
201101260312 SPECI KCLM 260312Z AUTO 00000KT 8SM BKN011 OVC019 07/06 A3032 RMK AO2=
201101260312 SPECI KCLM 260312Z AUTO 00000KT 8SM BKN011 OVC019 07/06 A3032 RMK AO2=
201101260304 SPECI KCLM 260304Z AUTO 00000KT 2SM BR BKN011 OVC019 06/06 A3032 RMK AO2=
201101260304 SPECI KCLM 260304Z AUTO 00000KT 2SM BR BKN011 OVC019 06/06 A3032 RMK AO2=
201101260300 METAR KCLM NIL=
201101260259 SPECI KCLM 260259Z AUTO 00000KT 1 3/4SM BR SCT011 OVC019 06/06 A3032 RMK AO2=
201101260259 SPECI KCLM 260259Z AUTO 00000KT 1 3/4SM BR SCT011 OVC019 06/06 A3032 RMK AO2=
201101260248 METAR KCLM 260248Z AUTO 00000KT 5SM BR OVC021 07/06 A3031=
201101260247 SPECI KCLM 260247Z AUTO 00000KT 3SM BR OVC021 07/06 A3031 RMK AO2=
201101260247 SPECI KCLM 260247Z AUTO 00000KT 3SM BR OVC021 07/06 A3031 RMK AO2=
201101260240 SPECI KCLM 260240Z AUTO 00000KT 1 3/4SM BR OVC021 06/06 A3031 RMK AO2 VIS 3/4V5=
201101260240 SPECI KCLM 260240Z AUTO 00000KT 1 3/4SM BR OVC021 06/06 A3031 RMK AO2 VIS 3/4V5=
201101260153 METAR KCLM 260153Z AUTO 00000KT 10SM SCT012 BKN020 OVC095 07/06 A3032 RMK AO2 SLP269 T00720061=
201101260150 SPECI KCLM 260150Z AUTO 00000KT 10SM FEW012 SCT020 OVC095 07/06 A3032 RMK AO2=
201101260150 SPECI KCLM 260150Z AUTO 00000KT 10SM FEW012 SCT020 OVC095 07/06 A3032 RMK AO2=
201101260053 METAR KCLM 260053Z AUTO 00000KT 10SM FEW009 OVC015 07/07 A3032 RMK AO2 SLP270 T00720067=
201101252353 METAR KCLM 252353Z AUTO 13006KT 10SM SCT005 SCT015 OVC021 08/07 A3031 RMK AO2 SLP265 T00780067 10083 20072 56018=
201101252333 SPECI KCLM 252333Z AUTO 11003KT 10SM BKN005 BKN015 OVC021 08/07 A3031 RMK AO2=
201101252333 SPECI KCLM 252333Z AUTO 11003KT 10SM BKN005 BKN015 OVC021 08/07 A3031 RMK AO2=
201101252316 SPECI KCLM 252316Z AUTO 00000KT 10SM FEW005 SCT010 OVC015 08/06 A3032 RMK AO2=
201101252316 SPECI KCLM 252316Z AUTO 00000KT 10SM FEW005 SCT010 OVC015 08/06 A3032 RMK AO2=
201101252305 SPECI KCLM 252305Z AUTO 00000KT 10SM FEW005 BKN010 OVC015 08/07 A3032 RMK AO2 CIG 008V011 PRESFR=
201101252305 SPECI KCLM 252305Z AUTO 00000KT 10SM FEW005 BKN010 OVC015 08/07 A3032 RMK AO2 CIG 008V011 PRESFR=
201101252253 METAR KCLM 252253Z AUTO 00000KT 10SM BKN005 OVC009 08/07 A3033 RMK AO2 CIG 002V009 SLP273 T00780067=
201101252153 METAR KCLM 252153Z AUTO 32005KT 4SM BR BKN003 OVC014 08/07 A3036 RMK AO2 CIG 001V007 SLP283 T00780067=
201101252148 SPECI KCLM 252148Z AUTO 31004KT 4SM BR BKN003 BKN006 OVC014 08/07 A3036 RMK AO2 CIG 001V004=
201101252148 SPECI KCLM 252148Z AUTO 31004KT 4SM BR BKN003 BKN006 OVC014 08/07 A3036 RMK AO2 CIG 001V004=
201101252123 SPECI KCLM 252123Z AUTO 30006KT 2 1/2SM BR OVC003 08/07 A3038 RMK AO2 CIG 001V006=
201101252123 SPECI KCLM 252123Z AUTO 30006KT 2 1/2SM BR OVC003 08/07 A3038 RMK AO2 CIG 001V006=
201101252053 METAR KCLM 252053Z AUTO 00000KT 4SM BR OVC008 08/07 A3036 RMK AO2 CIG 004V010 SLP284 T00780067 58000=
201101252012 SPECI KCLM 252012Z AUTO 00000KT 10SM BKN008 OVC011 08/06 A3036 RMK AO2 CIG 008V011=
201101252012 SPECI KCLM 252012Z AUTO 00000KT 10SM BKN008 OVC011 08/06 A3036 RMK AO2 CIG 008V011=
201101251953 METAR KCLM 251953Z AUTO 00000KT 10SM OVC013 08/07 A3036 RMK AO2 SLP284 T00830067=
201101251929 SPECI KCLM 251929Z AUTO 00000KT 10SM OVC013 08/07 A3038 RMK AO2=
201101251929 SPECI KCLM 251929Z AUTO 00000KT 10SM OVC013 08/07 A3038 RMK AO2=
201101251853 METAR KCLM 251853Z AUTO 00000KT 10SM BKN015 OVC019 08/06 A3038 RMK AO2 SLP291 T00830061=
201101251753 METAR KCLM 251753Z AUTO 25003KT 10SM OVC019 07/06 A3037 RMK AO2 SLP285 T00720056 10072 20050 52014=
201101251716 SPECI KCLM 251716Z AUTO 00000KT 10SM BKN017 OVC023 07/05 A3035 RMK AO2=
201101251716 SPECI KCLM 251716Z AUTO 00000KT 10SM BKN017 OVC023 07/05 A3035 RMK AO2=
201101251653 METAR KCLM 251653Z AUTO 24004KT 10SM OVC013 06/04 A3035 RMK AO2 SLP280 T00610044=
201101251553 METAR KCLM 251553Z AUTO 23005KT 10SM BKN019 OVC024 06/04 A3034 RMK AO2 SLP275 T00560044=
201101251453 METAR KCLM 251453Z AUTO 25008KT 10SM BKN021 OVC025 06/04 A3032 RMK AO2 SLP271 T00560044 51012=
201101251353 METAR KCLM 251353Z AUTO 26004KT 10SM OVC023 06/04 A3031 RMK AO2 SLP266 T00560044=
201101251253 METAR KCLM 251253Z AUTO 25005KT 10SM OVC025 06/05 A3031 RMK AO2 SLP265 T00610050=
201101251153 METAR KCLM 251153Z AUTO 20003KT 10SM BKN021 OVC027 07/06 A3029 RMK AO2 SLP259 70005 T00670056 10067 20044 50019=
201101251101 SPECI KCLM 251101Z AUTO 24006KT 10SM OVC016 07/06 A3030 RMK AO2=
201101251101 SPECI KCLM 251101Z AUTO 24006KT 10SM OVC016 07/06 A3030 RMK AO2=
201101251053 METAR KCLM 251053Z AUTO 24005KT 10SM OVC014 07/06 A3030 RMK AO2 SLP261 T00670056=
201101251034 SPECI KCLM 251034Z AUTO 24004KT 10SM BKN014 OVC027 06/06 A3028 RMK AO2=
201101251034 SPECI KCLM 251034Z AUTO 24004KT 10SM BKN014 OVC027 06/06 A3028 RMK AO2=
201101250953 METAR KCLM 250953Z AUTO 00000KT 10SM OVC025 06/06 A3025 RMK AO2 SLP246 T00560056=
201101250914 SPECI KCLM 250914Z AUTO 00000KT 7SM BKN027 OVC032 04/04 A3024 RMK AO2=
201101250914 SPECI KCLM 250914Z AUTO 00000KT 7SM BKN027 OVC032 04/04 A3024 RMK AO2=
201101250906 SPECI KCLM 250906Z AUTO 00000KT 2SM BR BKN027 BKN032 06/05 A3023 RMK AO2=
201101250906 SPECI KCLM 250906Z AUTO 00000KT 2SM BR BKN027 BKN032 06/05 A3023 RMK AO2=
201101250858 SPECI KCLM 250858Z AUTO 00000KT 1 3/4SM BR SCT025 BKN032 05/05 A3023 RMK AO2 VIS 1V5=
201101250858 SPECI KCLM 250858Z AUTO 00000KT 1 3/4SM BR SCT025 BKN032 05/05 A3023 RMK AO2 VIS 1V5=
201101250853 METAR KCLM 250853Z AUTO 00000KT 4SM BR FEW025 BKN034 06/05 A3023 RMK AO2 SLP240 T00560050 50006=
201101250851 SPECI KCLM 250851Z AUTO 00000KT 2SM BR FEW025 BKN034 06/05 A3023 RMK AO2=
201101250851 SPECI KCLM 250851Z AUTO 00000KT 2SM BR FEW025 BKN034 06/05 A3023 RMK AO2=
201101250839 SPECI KCLM 250839Z AUTO 00000KT 3/4SM BR FEW009 SCT023 SCT027 04/04 A3023 RMK AO2=
201101250839 SPECI KCLM 250839Z AUTO 00000KT 3/4SM BR FEW009 SCT023 SCT027 04/04 A3023 RMK AO2=
201101250836 SPECI KCLM 250836Z AUTO 00000KT 1SM BR SCT023 05/04 A3023 RMK AO2 VIS 1/2V5=
201101250836 SPECI KCLM 250836Z AUTO 00000KT 1SM BR SCT023 05/04 A3023 RMK AO2 VIS 1/2V5=
201101250817 SPECI KCLM 250817Z AUTO 28003KT 5SM BR BKN021 OVC029 06/05 A3024 RMK AO2=
201101250817 SPECI KCLM 250817Z AUTO 28003KT 5SM BR BKN021 OVC029 06/05 A3024 RMK AO2=
201101250809 SPECI KCLM 250809Z AUTO 29003KT 2SM BR BKN021 OVC029 06/05 A3024 RMK AO2=
201101250809 SPECI KCLM 250809Z AUTO 29003KT 2SM BR BKN021 OVC029 06/05 A3024 RMK AO2=
201101250802 SPECI KCLM 250802Z AUTO 29003KT 3/4SM BR BKN021 OVC050 06/05 A3024 RMK AO2=
201101250802 SPECI KCLM 250802Z AUTO 29003KT 3/4SM BR BKN021 OVC050 06/05 A3024 RMK AO2=
201101250753 METAR KCLM 250753Z AUTO 00000KT 1/4SM FG SCT023 BKN028 OVC055 06/05 A3023 RMK AO2 SLP240 T00560050 400890056=
201101250738 SPECI KCLM 250738Z AUTO 00000KT 1 1/4SM BR OVC055 06/06 A3022 RMK AO2 VIS 1/2V4=
201101250738 SPECI KCLM 250738Z AUTO 00000KT 1 1/4SM BR OVC055 06/06 A3022 RMK AO2 VIS 1/2V4=
201101250712 SPECI KCLM 250712Z AUTO 00000KT 8SM FEW027 OVC055 06/06 A3022 RMK AO2=
201101250712 SPECI KCLM 250712Z AUTO 00000KT 8SM FEW027 OVC055 06/06 A3022 RMK AO2=
201101250702 SPECI KCLM 250702Z AUTO 00000KT 10SM BKN025 OVC055 06/06 A3021 RMK AO2=
201101250702 SPECI KCLM 250702Z AUTO 00000KT 10SM BKN025 OVC055 06/06 A3021 RMK AO2=
201101250653 METAR KCLM 250653Z AUTO 26003KT 5SM BR SCT025 OVC055 06/06 A3021 RMK AO2 SLP233 T00610056=
201101250637 SPECI KCLM 250637Z AUTO 29004KT 5SM BR BKN021 BKN029 OVC055 06/06 A3021 RMK AO2=
201101250637 SPECI KCLM 250637Z AUTO 29004KT 5SM BR BKN021 BKN029 OVC055 06/06 A3021 RMK AO2=
201101250616 SPECI KCLM 250616Z AUTO 00000KT 4SM BR FEW013 SCT021 OVC050 06/06 A3020 RMK AO2=
201101250616 SPECI KCLM 250616Z AUTO 00000KT 4SM BR FEW013 SCT021 OVC050 06/06 A3020 RMK AO2=
201101250609 SPECI KCLM 250609Z AUTO 00000KT 6SM BR FEW013 BKN021 OVC055 06/06 A3019 RMK AO2=
201101250609 SPECI KCLM 250609Z AUTO 00000KT 6SM BR FEW013 BKN021 OVC055 06/06 A3019 RMK AO2=
201101250601 SPECI KCLM 250601Z AUTO 00000KT 10SM FEW004 SCT013 OVC055 07/06 A3019 RMK AO2=
201101250601 SPECI KCLM 250601Z AUTO 00000KT 10SM FEW004 SCT013 OVC055 07/06 A3019 RMK AO2=
201101250553 METAR KCLM 250553Z AUTO 00000KT 6SM BR SCT004 BKN013 OVC050 07/06 A3018 RMK AO2 SLP223 60000 T00670061 10072 20061 51024=
201101250533 SPECI KCLM 250533Z AUTO 00000KT 3SM BR BKN004 OVC050 06/06 A3018 RMK AO2=
201101250533 SPECI KCLM 250533Z AUTO 00000KT 3SM BR BKN004 OVC050 06/06 A3018 RMK AO2=
201101250529 SPECI KCLM 250529Z AUTO 00000KT 1 1/2SM BR BKN004 OVC050 06/06 A3018 RMK AO2 VIS 3/4V5=
201101250529 SPECI KCLM 250529Z AUTO 00000KT 1 1/2SM BR BKN004 OVC050 06/06 A3018 RMK AO2 VIS 3/4V5=
201101250522 SPECI KCLM 250522Z AUTO 00000KT 3/4SM BR BKN004 OVC050 06/06 A3017 RMK AO2=
201101250522 SPECI KCLM 250522Z AUTO 00000KT 3/4SM BR BKN004 OVC050 06/06 A3017 RMK AO2=
201101250513 SPECI KCLM 250513Z AUTO 00000KT 1SM BR BKN006 OVC050 07/06 A3017 RMK AO2 CIG 003V008=
201101250513 SPECI KCLM 250513Z AUTO 00000KT 1SM BR BKN006 OVC050 07/06 A3017 RMK AO2 CIG 003V008=
201101250500 SPECI KCLM 250500Z AUTO 00000KT 1/2SM FG BKN006 OVC055 07/06 A3017 RMK AO2 CIG 003V008=
201101250500 SPECI KCLM 250500Z AUTO 00000KT 1/2SM FG BKN006 OVC055 07/06 A3017 RMK AO2 CIG 003V008=
201101250453 METAR KCLM 250453Z AUTO 00000KT 1/4SM FG BKN006 OVC055 07/06 A3016 RMK AO2 CIG 004V008 SLP217 T00670061=
201101250438 SPECI KCLM 250438Z AUTO 00000KT 1/4SM FG FEW001 SCT006 OVC055 07/06 A3016 RMK AO2=
201101250438 SPECI KCLM 250438Z AUTO 00000KT 1/4SM FG FEW001 SCT006 OVC055 07/06 A3016 RMK AO2=
201101250433 SPECI KCLM 250433Z AUTO 00000KT 1/2SM FG SCT001 BKN006 OVC055 07/06 A3016 RMK AO2=
201101250433 SPECI KCLM 250433Z AUTO 00000KT 1/2SM FG SCT001 BKN006 OVC055 07/06 A3016 RMK AO2=
201101250407 SPECI KCLM 250407Z AUTO 00000KT 1/2SM FG BKN001 BKN005 OVC048 07/06 A3015 RMK AO2=
201101250407 SPECI KCLM 250407Z AUTO 00000KT 1/2SM FG BKN001 BKN005 OVC048 07/06 A3015 RMK AO2=
201101250353 METAR KCLM 250353Z AUTO 00000KT 1/2SM FG SCT001 BKN005 OVC048 07/06 A3014 RMK AO2 RAB44E53 SLP208 P0000 T00670061=
201101250350 SPECI KCLM 250350Z AUTO 00000KT 1/2SM -RA FG SCT001 BKN005 OVC048 07/06 A3014 RMK AO2 RAB44 P0000=
201101250350 SPECI KCLM 250350Z AUTO 00000KT 1/2SM -RA FG SCT001 BKN005 OVC048 07/06 A3014 RMK AO2 RAB44 P0000=
201101250345 SPECI KCLM 250345Z AUTO 00000KT 1/4SM -RA FG BKN001 BKN005 OVC050 07/06 A3014 RMK AO2 RAB44 P0000=
201101250345 SPECI KCLM 250345Z AUTO 00000KT 1/4SM -RA FG BKN001 BKN005 OVC050 07/06 A3014 RMK AO2 RAB44 P0000=
201101250337 SPECI KCLM 250337Z AUTO 00000KT 1/4SM FG VV003 07/07 A3013 RMK AO2=
201101250337 SPECI KCLM 250337Z AUTO 00000KT 1/4SM FG VV003 07/07 A3013 RMK AO2=
201101250253 METAR KCLM 250253Z AUTO 00000KT 1/4SM FG VV001 07/06 A3011 RMK AO2 SLP198 60000 T00670061 51019=
201101250224 SPECI KCLM 250224Z AUTO 00000KT 1/4SM FG BKN001 BKN019 OVC024 07/06 A3010 RMK AO2=
201101250224 SPECI KCLM 250224Z AUTO 00000KT 1/4SM FG BKN001 BKN019 OVC024 07/06 A3010 RMK AO2=
201101250211 SPECI KCLM 250211Z AUTO 07003KT 3/4SM BR FEW001 BKN022 OVC050 07/06 A3010 RMK AO2=
201101250211 SPECI KCLM 250211Z AUTO 07003KT 3/4SM BR FEW001 BKN022 OVC050 07/06 A3010 RMK AO2=
201101250204 SPECI KCLM 250204Z AUTO 00000KT 1 3/4SM BR OVC022 07/07 A3009 RMK AO2=
201101250204 SPECI KCLM 250204Z AUTO 00000KT 1 3/4SM BR OVC022 07/07 A3009 RMK AO2=
201101250153 METAR KCLM 250153Z AUTO 00000KT 4SM BR OVC022 07/07 A3009 RMK AO2 RAE37 SLP192 P0000 T00720067=
201101250125 SPECI KCLM 250125Z AUTO 23003KT 5SM -RA BR SCT002 BKN022 OVC055 07/07 A3008 RMK AO2 P0000=
201101250125 SPECI KCLM 250125Z AUTO 23003KT 5SM -RA BR SCT002 BKN022 OVC055 07/07 A3008 RMK AO2 P0000=
201101250053 METAR KCLM 250053Z AUTO 00000KT 3SM -RA BR BKN002 OVC018 07/07 A3008 RMK AO2 RAB37 SLP186 P0000 T00720067=
201101250044 SPECI KCLM 250044Z AUTO 00000KT 2SM -RA BR BKN002 OVC018 07/07 A3007 RMK AO2 RAB37 P0000=
201101250044 SPECI KCLM 250044Z AUTO 00000KT 2SM -RA BR BKN002 OVC018 07/07 A3007 RMK AO2 RAB37 P0000=
201101250032 SPECI KCLM 250032Z AUTO 00000KT 4SM BR BKN002 OVC016 07/07 A3006 RMK AO2=
201101250032 SPECI KCLM 250032Z AUTO 00000KT 4SM BR BKN002 OVC016 07/07 A3006 RMK AO2=
201101250022 SPECI KCLM 250022Z AUTO 00000KT 2 1/2SM BR BKN002 OVC013 07/07 A3006 RMK AO2=
201101250022 SPECI KCLM 250022Z AUTO 00000KT 2 1/2SM BR BKN002 OVC013 07/07 A3006 RMK AO2=
201101250015 SPECI KCLM 250015Z AUTO 00000KT 3SM BR BKN002 OVC013 07/07 A3006 RMK AO2=
201101250015 SPECI KCLM 250015Z AUTO 00000KT 3SM BR BKN002 OVC013 07/07 A3006 RMK AO2=
201101250006 SPECI KCLM 250006Z AUTO 00000KT 5SM BR SCT004 BKN013 OVC070 07/07 A3006 RMK AO2=
201101250006 SPECI KCLM 250006Z AUTO 00000KT 5SM BR SCT004 BKN013 OVC070 07/07 A3006 RMK AO2=
201101242353 METAR KCLM 242353Z AUTO 00000KT 10SM BKN004 BKN011 OVC070 07/07 A3005 RMK AO2 RAB31E52 SLP179 P0000 60005 T00720067 10089 20067 53015=
201101242253 METAR KCLM 242253Z AUTO 30003KT 10SM OVC002 07/06 A3004 RMK AO2 SLP174 T00720061=
201101242153 METAR KCLM 242153Z AUTO VRB03KT 9SM BKN002 OVC095 08/07 A3001 RMK AO2 CIG 001V004 SLP164 T00780072=
201101242053 METAR KCLM 242053Z AUTO 13006KT 10SM BKN002 OVC006 08/07 A3002 RMK AO2 RAE42 CIG 001V006 SLP168 P0003 60005 T00780067 58016=
201101242047 SPECI KCLM 242047Z AUTO 12003KT 10SM OVC006 08/07 A3003 RMK AO2 RAE42 CIG 001V007 P0003=
201101242047 SPECI KCLM 242047Z AUTO 12003KT 10SM OVC006 08/07 A3003 RMK AO2 RAE42 CIG 001V007 P0003=
201101242032 SPECI KCLM 242032Z AUTO 00000KT 6SM -RA BR BKN001 OVC006 07/07 A3004 RMK AO2 CIG 001V004 P0003=
201101242032 SPECI KCLM 242032Z AUTO 00000KT 6SM -RA BR BKN001 OVC006 07/07 A3004 RMK AO2 CIG 001V004 P0003=
201101242023 SPECI KCLM 242023Z AUTO 00000KT 2 1/2SM -RA BR OVC001 07/06 A3004 RMK AO2 CIG 001V004 PRESFR P0003=
201101242023 SPECI KCLM 242023Z AUTO 00000KT 2 1/2SM -RA BR OVC001 07/06 A3004 RMK AO2 CIG 001V004 PRESFR P0003=
201101241953 METAR KCLM 241953Z AUTO 33004KT 4SM -RA BR OVC003 07/06 A3006 RMK AO2 SLP183 P0002 T00720061=
201101241910 SPECI KCLM 241910Z AUTO 28003KT 5SM -RA BR BKN003 OVC014 07/06 A3006 RMK AO2 P0000=
201101241910 SPECI KCLM 241910Z AUTO 28003KT 5SM -RA BR BKN003 OVC014 07/06 A3006 RMK AO2 P0000=
201101241853 METAR KCLM 241853Z AUTO 31003KT 9SM -RA FEW003 BKN014 BKN070 07/06 A3006 RMK AO2 RAB53 SLP183 P0000 T00720061=
201101241834 SPECI KCLM 241834Z AUTO 00000KT 10SM SCT001 SCT020 BKN070 07/07 A3006 RMK AO2=
201101241834 SPECI KCLM 241834Z AUTO 00000KT 10SM SCT001 SCT020 BKN070 07/07 A3006 RMK AO2=
201101241821 SPECI KCLM 241821Z AUTO 00000KT 4SM BR FEW001 BKN018 BKN029 07/06 A3007 RMK AO2=
201101241821 SPECI KCLM 241821Z AUTO 00000KT 4SM BR FEW001 BKN018 BKN029 07/06 A3007 RMK AO2=
201101241813 SPECI KCLM 241813Z AUTO 32004KT 4SM BR BKN001 BKN029 BKN110 07/06 A3008 RMK AO2=
201101241813 SPECI KCLM 241813Z AUTO 32004KT 4SM BR BKN001 BKN029 BKN110 07/06 A3008 RMK AO2=
201101241805 SPECI KCLM 241805Z AUTO 31004KT 9SM FEW001 SCT018 BKN080 07/06 A3008 RMK AO2=
201101241805 SPECI KCLM 241805Z AUTO 31004KT 9SM FEW001 SCT018 BKN080 07/06 A3008 RMK AO2=
201101241753 METAR KCLM 241753Z AUTO 00000KT 6SM BR SCT001 BKN019 BKN110 07/06 A3007 RMK AO2 SLP185 60000 T00670061 10067 20056 56008=
201101241740 SPECI KCLM 241740Z AUTO 00000KT 3SM BR SCT001 OVC019 07/06 A3007 RMK AO2=
201101241740 SPECI KCLM 241740Z AUTO 00000KT 3SM BR SCT001 OVC019 07/06 A3007 RMK AO2=
201101241733 SPECI KCLM 241733Z AUTO 00000KT 1 1/2SM BR SCT001 OVC019 07/06 A3007 RMK AO2=
201101241733 SPECI KCLM 241733Z AUTO 00000KT 1 1/2SM BR SCT001 OVC019 07/06 A3007 RMK AO2=
201101241724 SPECI KCLM 241724Z AUTO 00000KT 3/4SM BR BKN001 OVC019 06/06 A3008 RMK AO2=
201101241724 SPECI KCLM 241724Z AUTO 00000KT 3/4SM BR BKN001 OVC019 06/06 A3008 RMK AO2=
201101241653 METAR KCLM 241653Z AUTO 00000KT 1/4SM FG OVC001 06/06 A3009 RMK AO2 RAB17E31 SLP190 P0000 T00610061=
201101241648 SPECI KCLM 241648Z AUTO 00000KT 1/4SM FG OVC001 06/06 A3008 RMK AO2 RAB17E31 P0000=
201101241648 SPECI KCLM 241648Z AUTO 00000KT 1/4SM FG OVC001 06/06 A3008 RMK AO2 RAB17E31 P0000=
201101241640 SPECI KCLM 241640Z AUTO 28004KT 1/2SM FG OVC001 06/06 A3009 RMK AO2 RAB17E31 P0000=
201101241640 SPECI KCLM 241640Z AUTO 28004KT 1/2SM FG OVC001 06/06 A3009 RMK AO2 RAB17E31 P0000=
201101241633 SPECI KCLM 241633Z AUTO 00000KT 1SM BR OVC001 06/06 A3009 RMK AO2 RAB17E31 P0000=
201101241633 SPECI KCLM 241633Z AUTO 00000KT 1SM BR OVC001 06/06 A3009 RMK AO2 RAB17E31 P0000=
201101241622 SPECI KCLM 241622Z AUTO 11003KT 3/4SM -RA BR BKN001 OVC100 06/06 A3008 RMK AO2 RAB17 P0000=
201101241622 SPECI KCLM 241622Z AUTO 11003KT 3/4SM -RA BR BKN001 OVC100 06/06 A3008 RMK AO2 RAB17 P0000=
201101241610 SPECI KCLM 241610Z AUTO 00000KT 1 3/4SM BR OVC001 06/05 A3010 RMK AO2=
201101241610 SPECI KCLM 241610Z AUTO 00000KT 1 3/4SM BR OVC001 06/05 A3010 RMK AO2=
201101241553 METAR KCLM 241553Z AUTO 00000KT 4SM BR OVC001 06/06 A3010 RMK AO2 SLP194 T00610056=
201101241526 SPECI KCLM 241526Z AUTO 14005KT 4SM BR OVC001 06/06 A3010 RMK AO2=
201101241526 SPECI KCLM 241526Z AUTO 14005KT 4SM BR OVC001 06/06 A3010 RMK AO2=
201101241519 SPECI KCLM 241519Z AUTO 15006KT 2 1/2SM BR OVC001 06/05 A3011 RMK AO2=
201101241519 SPECI KCLM 241519Z AUTO 15006KT 2 1/2SM BR OVC001 06/05 A3011 RMK AO2=
201101241508 SPECI KCLM 241508Z AUTO 00000KT 3SM BR BKN003 BKN080 OVC090 06/06 A3011 RMK AO2=
201101241508 SPECI KCLM 241508Z AUTO 00000KT 3SM BR BKN003 BKN080 OVC090 06/06 A3011 RMK AO2=
201101241453 METAR KCLM 241453Z AUTO 00000KT 4SM BR SCT003 BKN080 OVC090 06/05 A3012 RMK AO2 SLP203 T00560050 58002=
201101241438 SPECI KCLM 241438Z AUTO 00000KT 9SM SCT003 OVC090 06/06 A3013 RMK AO2=
201101241438 SPECI KCLM 241438Z AUTO 00000KT 9SM SCT003 OVC090 06/06 A3013 RMK AO2=
201101241424 SPECI KCLM 241424Z AUTO 33003KT 9SM BKN001 OVC085 06/06 A3014 RMK AO2=
201101241424 SPECI KCLM 241424Z AUTO 33003KT 9SM BKN001 OVC085 06/06 A3014 RMK AO2=
201101241416 SPECI KCLM 241416Z AUTO 28005KT 2SM BR OVC001 06/05 A3015 RMK AO2=
201101241416 SPECI KCLM 241416Z AUTO 28005KT 2SM BR OVC001 06/05 A3015 RMK AO2=
201101241403 SPECI KCLM 241403Z AUTO 00000KT 1/2SM FG OVC001 06/06 A3014 RMK AO2=
201101241403 SPECI KCLM 241403Z AUTO 00000KT 1/2SM FG OVC001 06/06 A3014 RMK AO2=
201101241353 METAR KCLM 241353Z AUTO 00000KT 1 1/4SM BR OVC001 06/06 A3014 RMK AO2 SLP207 T00610056=
201101241338 SPECI KCLM 241338Z AUTO 27003KT 1 1/4SM BR BKN001 BKN006 OVC031 06/06 A3015 RMK AO2=
201101241338 SPECI KCLM 241338Z AUTO 27003KT 1 1/4SM BR BKN001 BKN006 OVC031 06/06 A3015 RMK AO2=
201101241310 SPECI KCLM 241310Z AUTO 00000KT 1/2SM FG VV001 06/06 A3014 RMK AO2=
201101241310 SPECI KCLM 241310Z AUTO 00000KT 1/2SM FG VV001 06/06 A3014 RMK AO2=
201101241303 SPECI KCLM 241303Z AUTO 00000KT 1/2SM FG OVC002 06/06 A3013 RMK AO2=
201101241303 SPECI KCLM 241303Z AUTO 00000KT 1/2SM FG OVC002 06/06 A3013 RMK AO2=
201101241253 METAR KCLM 241253Z AUTO 00000KT 1 1/4SM BR OVC002 06/06 A3013 RMK AO2 CIG 001V004 SLP205 T00610056=
201101241250 SPECI KCLM 241250Z AUTO 00000KT 1 3/4SM BR OVC002 06/06 A3013 RMK AO2=
201101241250 SPECI KCLM 241250Z AUTO 00000KT 1 3/4SM BR OVC002 06/06 A3013 RMK AO2=
201101241153 METAR KCLM 241153Z AUTO 27003KT 5SM BR OVC002 06/06 A3017 RMK AO2 CIG 001V004 SLP218 60000 T00610056 10067 20056 55007=
201101241132 SPECI KCLM 241132Z AUTO 00000KT 5SM BR BKN004 OVC110 06/06 A3016 RMK AO2=
201101241132 SPECI KCLM 241132Z AUTO 00000KT 5SM BR BKN004 OVC110 06/06 A3016 RMK AO2=
201101241124 SPECI KCLM 241124Z AUTO 00000KT 5SM BR SCT004 OVC100 06/05 A3015 RMK AO2=
201101241124 SPECI KCLM 241124Z AUTO 00000KT 5SM BR SCT004 OVC100 06/05 A3015 RMK AO2=
201101241053 METAR KCLM 241053Z AUTO 00000KT 8SM FEW075 OVC100 06/06 A3016 RMK AO2 SLP217 T00610056=
201101241024 SPECI KCLM 241024Z AUTO 15004KT 10SM FEW005 SCT055 OVC085 06/06 A3017 RMK AO2=
201101241024 SPECI KCLM 241024Z AUTO 15004KT 10SM FEW005 SCT055 OVC085 06/06 A3017 RMK AO2=
201101241017 SPECI KCLM 241017Z AUTO 00000KT 10SM BKN005 BKN055 OVC080 06/06 A3017 RMK AO2 CIG 002V008=
201101241017 SPECI KCLM 241017Z AUTO 00000KT 10SM BKN005 BKN055 OVC080 06/06 A3017 RMK AO2 CIG 002V008=
201101241005 SPECI KCLM 241005Z AUTO 00000KT 10SM SCT003 OVC055 07/06 A3019 RMK AO2=
201101241005 SPECI KCLM 241005Z AUTO 00000KT 10SM SCT003 OVC055 07/06 A3019 RMK AO2=
201101240953 METAR KCLM 240953Z AUTO 00000KT 10SM BKN003 OVC060 07/06 A3019 RMK AO2 CIG 002V007 SLP224 T00670056=
201101240948 SPECI KCLM 240948Z AUTO 00000KT 10SM BKN003 OVC060 06/06 A3019 RMK AO2 CIG 002V009=
201101240948 SPECI KCLM 240948Z AUTO 00000KT 10SM BKN003 OVC060 06/06 A3019 RMK AO2 CIG 002V009=
201101240925 SPECI KCLM 240925Z AUTO 21003KT 9SM SCT003 OVC007 06/06 A3020 RMK AO2=
201101240925 SPECI KCLM 240925Z AUTO 21003KT 9SM SCT003 OVC007 06/06 A3020 RMK AO2=
201101240853 METAR KCLM 240853Z AUTO 30003KT 8SM OVC003 06/06 A3021 RMK AO2 RAE44 SLP231 P0000 60000 T00610056 58005=
201101240823 SPECI KCLM 240823Z AUTO 00000KT 8SM -RA OVC003 07/06 A3021 RMK AO2 P0000=
201101240823 SPECI KCLM 240823Z AUTO 00000KT 8SM -RA OVC003 07/06 A3021 RMK AO2 P0000=
201101240803 SPECI KCLM 240803Z AUTO 25003KT 5SM -RA BR BKN001 OVC007 06/06 A3022 RMK AO2 P0000=
201101240803 SPECI KCLM 240803Z AUTO 25003KT 5SM -RA BR BKN001 OVC007 06/06 A3022 RMK AO2 P0000=
201101240753 METAR KCLM 240753Z AUTO 27004KT 4SM -RA BR BKN003 OVC007 06/06 A3022 RMK AO2 CIG 001V005 SLP237 P0000 T00610056 400720044=
201101240653 METAR KCLM 240653Z AUTO 00000KT 3SM -RA BR OVC003 06/06 A3022 RMK AO2 CIG 001V005 SLP234 P0000 T00610056=
201101240641 SPECI KCLM 240641Z AUTO 00000KT 3SM -RA BR OVC003 07/06 A3022 RMK AO2 CIG 001V005 P0000=
201101240641 SPECI KCLM 240641Z AUTO 00000KT 3SM -RA BR OVC003 07/06 A3022 RMK AO2 CIG 001V005 P0000=
201101240634 SPECI KCLM 240634Z AUTO 00000KT 1 1/4SM -RA BR OVC003 07/06 A3022 RMK AO2 CIG 001V005 P0000=
201101240634 SPECI KCLM 240634Z AUTO 00000KT 1 1/4SM -RA BR OVC003 07/06 A3022 RMK AO2 CIG 001V005 P0000=
201101240613 SPECI KCLM 240613Z AUTO 00000KT 2 1/2SM -RA BR OVC003 06/06 A3022 RMK AO2 CIG 001V006 P0000=
201101240613 SPECI KCLM 240613Z AUTO 00000KT 2 1/2SM -RA BR OVC003 06/06 A3022 RMK AO2 CIG 001V006 P0000=
201101240553 METAR KCLM 240553Z AUTO 00000KT 4SM -RA BR BKN001 OVC006 07/06 A3022 RMK AO2 SLP237 P0000 60000 T00670061 10067 20067 58005=
201101240528 SPECI KCLM 240528Z AUTO 00000KT 4SM -RA BR OVC001 07/06 A3023 RMK AO2 P0000=
201101240528 SPECI KCLM 240528Z AUTO 00000KT 4SM -RA BR OVC001 07/06 A3023 RMK AO2 P0000=
201101240509 SPECI KCLM 240509Z AUTO 00000KT 2SM -RA BR OVC001 07/06 A3023 RMK AO2 P0000=
201101240509 SPECI KCLM 240509Z AUTO 00000KT 2SM -RA BR OVC001 07/06 A3023 RMK AO2 P0000=
201101240453 METAR KCLM 240453Z AUTO 00000KT 1SM -RA BR OVC001 07/06 A3023 RMK AO2 RAB24 SLP240 P0000 T00670056=
201101240435 SPECI KCLM 240435Z AUTO 00000KT 2SM -RA BR OVC001 07/06 A3023 RMK AO2 RAB24 P0000=
201101240435 SPECI KCLM 240435Z AUTO 00000KT 2SM -RA BR OVC001 07/06 A3023 RMK AO2 RAB24 P0000=
201101240422 SPECI KCLM 240422Z AUTO 00000KT 2 1/2SM BR OVC003 07/06 A3023 RMK AO2=
201101240422 SPECI KCLM 240422Z AUTO 00000KT 2 1/2SM BR OVC003 07/06 A3023 RMK AO2=
201101240353 METAR KCLM 240353Z AUTO 00000KT 4SM BR OVC003 07/06 A3024 RMK AO2 CIG 001V005 SLP241 T00670061=
201101240253 METAR KCLM 240253Z AUTO 00000KT 6SM BR OVC003 07/06 A3024 RMK AO2 CIG 001V005 SLP242 T00670056 51003=
201101240222 SPECI KCLM 240222Z AUTO 09003KT 4SM BR OVC003 07/06 A3024 RMK AO2=
201101240222 SPECI KCLM 240222Z AUTO 09003KT 4SM BR OVC003 07/06 A3024 RMK AO2=
201101240153 METAR KCLM 240153Z AUTO 08004KT 7SM OVC005 07/06 A3024 RMK AO2 SLP241 T00670056=
201101240149 SPECI KCLM 240149Z AUTO 08005KT 7SM OVC005 07/06 A3024 RMK AO2=
201101240149 SPECI KCLM 240149Z AUTO 08005KT 7SM OVC005 07/06 A3024 RMK AO2=
201101240053 METAR KCLM 240053Z AUTO 00000KT 7SM OVC003 07/06 A3023 RMK AO2 SLP238 T00670056=
201101232353 METAR KCLM 232353Z AUTO 11004KT 10SM OVC003 07/06 A3023 RMK AO2 SLP239 T00670056 10072 20056 58000=
201101232253 METAR KCLM 232253Z AUTO 06003KT 10SM OVC003 07/06 A3024 RMK AO2 SLP241 T00670056=
201101232153 METAR KCLM 232153Z AUTO 00000KT 10SM OVC003 07/06 A3024 RMK AO2 CIG 001V005 SLP241 T00670056=
201101232122 SPECI KCLM 232122Z AUTO 00000KT 10SM OVC003 07/06 A3024 RMK AO2 CIG 002V007=
201101232122 SPECI KCLM 232122Z AUTO 00000KT 10SM OVC003 07/06 A3024 RMK AO2 CIG 002V007=
201101232053 METAR KCLM 232053Z AUTO 06003KT 10SM OVC007 07/06 A3023 RMK AO2 CIG 002V010 SLP239 T00720056 52000=
201101231953 METAR KCLM 231953Z AUTO 00000KT 10SM OVC005 07/06 A3023 RMK AO2 CIG 003V009 SLP239 T00670056=
201101231951 SPECI KCLM 231951Z AUTO 00000KT 10SM OVC005 07/06 A3023 RMK AO2 CIG 003V009=
201101231951 SPECI KCLM 231951Z AUTO 00000KT 10SM OVC005 07/06 A3023 RMK AO2 CIG 003V009=
201101231853 METAR KCLM 231853Z AUTO 00000KT 10SM BKN003 OVC050 07/06 A3023 RMK AO2 SLP239 T00670056=
201101231821 SPECI KCLM 231821Z AUTO 00000KT 9SM SCT003 BKN041 OVC050 06/05 A3024 RMK AO2=
201101231821 SPECI KCLM 231821Z AUTO 00000KT 9SM SCT003 BKN041 OVC050 06/05 A3024 RMK AO2=
201101231753 METAR KCLM 231753Z AUTO 00000KT 3SM BR OVC003 06/05 A3024 RMK AO2 SLP242 60000 T00560050 10056 20044 52010=
201101231735 SPECI KCLM 231735Z AUTO 00000KT 3SM BR OVC003 06/05 A3025 RMK AO2=
201101231735 SPECI KCLM 231735Z AUTO 00000KT 3SM BR OVC003 06/05 A3025 RMK AO2=
201101231713 SPECI KCLM 231713Z AUTO 00000KT 2SM BR BKN003 OVC017 06/04 A3024 RMK AO2 CIG 001V006=
201101231713 SPECI KCLM 231713Z AUTO 00000KT 2SM BR BKN003 OVC017 06/04 A3024 RMK AO2 CIG 001V006=
201101231659 SPECI KCLM 231659Z AUTO 00000KT 2 1/2SM BR FEW003 BKN017 OVC024 05/04 A3024 RMK AO2=
201101231659 SPECI KCLM 231659Z AUTO 00000KT 2 1/2SM BR FEW003 BKN017 OVC024 05/04 A3024 RMK AO2=
201101231653 METAR KCLM 231653Z AUTO 00000KT 4SM BR SCT019 OVC024 05/04 A3024 RMK AO2 SLP242 T00500044=
201101231553 METAR KCLM 231553Z AUTO 00000KT 10SM BKN024 OVC032 05/04 A3021 RMK AO2 RAE09 SLP233 P0000 T00500039=
201101231550 SPECI KCLM 231550Z AUTO 00000KT 10SM BKN024 OVC032 05/04 A3021 RMK AO2 RAE09 P0000=
201101231550 SPECI KCLM 231550Z AUTO 00000KT 10SM BKN024 OVC032 05/04 A3021 RMK AO2 RAE09 P0000=
201101231538 SPECI KCLM 231538Z AUTO 00000KT 3SM BR SCT024 OVC032 05/04 A3020 RMK AO2 RAE09 P0000=
201101231538 SPECI KCLM 231538Z AUTO 00000KT 3SM BR SCT024 OVC032 05/04 A3020 RMK AO2 RAE09 P0000=
201101231529 SPECI KCLM 231529Z AUTO 00000KT 1 3/4SM BR SCT024 BKN032 OVC040 05/04 A3020 RMK AO2 RAE09 P0000=
201101231529 SPECI KCLM 231529Z AUTO 00000KT 1 3/4SM BR SCT024 BKN032 OVC040 05/04 A3020 RMK AO2 RAE09 P0000=
201101231520 SPECI KCLM 231520Z AUTO 00000KT 10SM SCT024 BKN032 OVC040 05/04 A3020 RMK AO2 RAE09 P0000=
201101231520 SPECI KCLM 231520Z AUTO 00000KT 10SM SCT024 BKN032 OVC040 05/04 A3020 RMK AO2 RAE09 P0000=
201101231453 METAR KCLM 231453Z AUTO 19003KT 9SM -RA BKN022 OVC032 05/04 A3021 RMK AO2 RAB1359E21B50 SLP231 P0000 60000 T00500039 55003=
201101231353 METAR KCLM 231353Z AUTO 00000KT 9SM OVC043 05/04 A3020 RMK AO2 RAE42 SLP229 P0000 T00500044=
201101231253 METAR KCLM 231253Z AUTO 00000KT 6SM -RA BR BKN041 OVC049 04/04 A3021 RMK AO2 RAB1157 SLP232 P0000 T00440044=
201101231153 METAR KCLM 231153Z AUTO 00000KT 6SM BR FEW037 BKN060 OVC080 05/04 A3022 RMK AO2 RAE52 SLP235 P0000 60000 T00500039 10061 20050 58002=
201101231053 METAR KCLM 231053Z AUTO 00000KT 10SM -RA FEW050 OVC065 05/04 A3023 RMK AO2 RAB22 SLP240 P0000 T00500039=
201101230953 METAR KCLM 230953Z AUTO 23004KT 10SM BKN048 OVC060 05/04 A3023 RMK AO2 RAB0854E06 SLP238 P0000 T00500039=
201101230853 METAR KCLM 230853Z AUTO 20003KT 10SM OVC050 05/04 A3022 RMK AO2 RAE37 SLP237 P0000 60000 T00500039 57019=
201101230837 SPECI KCLM 230837Z AUTO 19003KT 10SM SCT022 OVC050 05/04 A3023 RMK AO2 RAE37 P0000=
201101230837 SPECI KCLM 230837Z AUTO 19003KT 10SM SCT022 OVC050 05/04 A3023 RMK AO2 RAE37 P0000=
201101230803 SPECI KCLM 230803Z AUTO 00000KT 10SM -RA BKN022 OVC060 05/03 A3025 RMK AO2 P0000=
201101230803 SPECI KCLM 230803Z AUTO 00000KT 10SM -RA BKN022 OVC060 05/03 A3025 RMK AO2 P0000=
201101230753 METAR KCLM 230753Z AUTO 00000KT 10SM -RA SCT022 OVC060 05/03 A3026 RMK AO2 RAB19 SLP248 P0000 T00500033 400780011=
201101230715 SPECI KCLM 230715Z AUTO 21003KT 10SM FEW023 OVC060 06/03 A3025 RMK AO2=
201101230715 SPECI KCLM 230715Z AUTO 21003KT 10SM FEW023 OVC060 06/03 A3025 RMK AO2=
201101230653 METAR KCLM 230653Z AUTO 00000KT 10SM BKN023 OVC065 05/03 A3025 RMK AO2 SLP246 T00500028=
201101230553 METAR KCLM 230553Z AUTO 20003KT 10SM OVC025 06/03 A3028 RMK AO2 SLP256 T00610028 10072 20050 51012=
201101230453 METAR KCLM 230453Z AUTO 00000KT 10SM BKN023 OVC090 06/03 A3028 RMK AO2 SLP255 T00560033=
201101230448 SPECI KCLM 230448Z AUTO 24003KT 10SM BKN023 OVC090 06/03 A3028 RMK AO2=
201101230448 SPECI KCLM 230448Z AUTO 24003KT 10SM BKN023 OVC090 06/03 A3028 RMK AO2=
201101230401 SPECI KCLM 230401Z AUTO 00000KT 10SM SCT022 OVC090 06/03 A3025 RMK AO2=
201101230401 SPECI KCLM 230401Z AUTO 00000KT 10SM SCT022 OVC090 06/03 A3025 RMK AO2=
201101230353 METAR KCLM 230353Z AUTO 12003KT 10SM BKN022 OVC090 06/03 A3025 RMK AO2 SLP244 T00560033=
201101230253 METAR KCLM 230253Z AUTO 20004KT 10SM OVC024 06/04 A3031 RMK AO2 SLP264 T00610039 56006=
201101230153 METAR KCLM 230153Z AUTO 00000KT 10SM OVC022 06/04 A3031 RMK AO2 SLP264 T00610039=
201101230053 METAR KCLM 230053Z AUTO 00000KT 10SM OVC022 07/04 A3032 RMK AO2 SLP268 T00670039=
201101222353 METAR KCLM 222353Z AUTO 00000KT 10SM OVC022 07/03 A3032 RMK AO2 SLP270 T00720033 10078 20050 58015=
201101222253 METAR KCLM 222253Z AUTO 00000KT 10SM OVC024 08/04 A3034 RMK AO2 SLP276 T00780039=
201101222153 METAR KCLM 222153Z AUTO 00000KT 10SM OVC028 07/03 A3037 RMK AO2 SLP288 T00720033=
201101222053 METAR KCLM 222053Z AUTO 00000KT 10SM OVC026 08/04 A3037 RMK AO2 SLP286 T00780039 58006=
201101221953 METAR KCLM 221953Z AUTO 00000KT 10SM SCT018 OVC028 08/04 A3038 RMK AO2 SLP290 T00780039=
201101221853 METAR KCLM 221853Z AUTO 21003KT 10SM BKN026 OVC030 07/02 A3041 RMK AO2 SLP301 T00670022=
201101221753 METAR KCLM 221753Z AUTO 26003KT 10SM OVC022 05/02 A3039 RMK AO2 SLP292 T00500017 10061 20022 55002=
201101221653 METAR KCLM 221653Z AUTO 25007KT 10SM OVC022 05/01 A3038 RMK AO2 SLP290 T00500006=
201101221640 SPECI KCLM 221640Z AUTO 24008KT 10SM BKN022 04/00 A3037 RMK AO2=
201101221640 SPECI KCLM 221640Z AUTO 24008KT 10SM BKN022 04/00 A3037 RMK AO2=
201101221629 SPECI KCLM 221629Z AUTO 25008KT 10SM SCT022 03/01 A3037 RMK AO2=
201101221629 SPECI KCLM 221629Z AUTO 25008KT 10SM SCT022 03/01 A3037 RMK AO2=
201101221553 METAR KCLM 221553Z AUTO 20005KT 10SM OVC024 06/02 A3036 RMK AO2 PRESFR SLP282 T00610017=
201101221453 METAR KCLM 221453Z AUTO 23006KT 10SM OVC026 03/01 A3039 RMK AO2 SLP294 T00280006 51014=
201101221419 SPECI KCLM 221419Z AUTO 25006KT 10SM BKN026 03/00 A3040 RMK AO2=
201101221419 SPECI KCLM 221419Z AUTO 25006KT 10SM BKN026 03/00 A3040 RMK AO2=
201101221353 METAR KCLM 221353Z AUTO 24009KT 10SM CLR 03/00 A3039 RMK AO2 SLP293 T00280000=
201101221253 METAR KCLM 221253Z AUTO 23006KT 10SM CLR 03/00 A3036 RMK AO2 SLP283 T00280000=
201101221153 METAR KCLM 221153Z AUTO 24007KT 10SM CLR 03/01 A3035 RMK AO2 SLP280 70007 T00280006 10061 20011 51017=
201101221053 METAR KCLM 221053Z AUTO 24007KT 10SM CLR 02/01 A3034 RMK AO2 SLP275 T00220006=
201101220953 METAR KCLM 220953Z AUTO 28004KT 10SM CLR 02/00 A3033 RMK AO2 SLP273 T00170000=
201101220853 METAR KCLM 220853Z AUTO 24006KT 10SM CLR 01/00 A3030 RMK AO2 SLP263 T00110000 53020=
201101220753 METAR KCLM 220753Z AUTO 00000KT 10SM CLR 03/01 A3028 RMK AO2 SLP256 T00330011 401000033=
201101220653 METAR KCLM 220653Z AUTO 25005KT 10SM CLR 05/02 A3026 RMK AO2 SLP250 T00500017=
201101220553 METAR KCLM 220553Z AUTO 27010KT 10SM CLR 06/03 A3024 RMK AO2 SLP243 T00610028 10089 20056 51023=
201101220453 METAR KCLM 220453Z AUTO 25008KT 10SM CLR 06/03 A3022 RMK AO2 SLP236 T00560033=
201101220401 SPECI KCLM 220401Z AUTO 29009G14KT 10SM FEW013 06/04 A3021 RMK AO2=
201101220401 SPECI KCLM 220401Z AUTO 29009G14KT 10SM FEW013 06/04 A3021 RMK AO2=
201101220353 METAR KCLM 220353Z AUTO 27005KT 10SM BKN013 06/04 A3021 RMK AO2 SLP231 T00560039=
201101220330 SPECI KCLM 220330Z AUTO 31005KT 10SM BKN013 07/05 A3020 RMK AO2=
201101220330 SPECI KCLM 220330Z AUTO 31005KT 10SM BKN013 07/05 A3020 RMK AO2=
201101220253 METAR KCLM 220253Z AUTO 30009G19KT 10SM CLR 07/04 A3017 RMK AO2 PRESRR SLP220 T00720044 53019=
201101220153 METAR KCLM 220153Z AUTO 32006KT 10SM CLR 07/04 A3014 RMK AO2 SLP209 T00670044=
201101220053 METAR KCLM 220053Z AUTO 30007G16KT 10SM FEW008 08/06 A3012 RMK AO2 PK WND 29029/0005 SLP202 T00780061=
201101220010 SPECI KCLM 220010Z AUTO 30019G29KT 10SM FEW008 08/07 A3012 RMK AO2 PK WND 29029/0005=
201101220010 SPECI KCLM 220010Z AUTO 30019G29KT 10SM FEW008 08/07 A3012 RMK AO2 PK WND 29029/0005=
201101212353 METAR KCLM 212353Z AUTO 31017G28KT 10SM CLR 09/07 A3012 RMK AO2 PK WND 31028/2349 SLP200 60001 T00890067 10100 20050 53027=
201101212253 METAR KCLM 212253Z AUTO 31015G20KT 10SM SCT010 09/07 A3006 RMK AO2 SLP182 T00940072=
201101212248 SPECI KCLM 212248Z AUTO 30013G18KT 10SM SCT010 09/07 A3006 RMK AO2=
201101212248 SPECI KCLM 212248Z AUTO 30013G18KT 10SM SCT010 09/07 A3006 RMK AO2=
201101212202 SPECI KCLM 212202Z AUTO 30016G20KT 10SM SCT005 BKN009 OVC013 09/08 A3006 RMK AO2 CIG 008V012=
201101212202 SPECI KCLM 212202Z AUTO 30016G20KT 10SM SCT005 BKN009 OVC013 09/08 A3006 RMK AO2 CIG 008V012=
201101212153 METAR KCLM 212153Z AUTO 30013KT 10SM SCT006 OVC011 09/08 A3006 RMK AO2 SLP180 T00890078=
201101212110 SPECI KCLM 212110Z AUTO 31008KT 10SM BKN008 09/08 A3004 RMK AO2 CIG 007V011=
201101212110 SPECI KCLM 212110Z AUTO 31008KT 10SM BKN008 09/08 A3004 RMK AO2 CIG 007V011=
201101212102 SPECI KCLM 212102Z AUTO 31005KT 10SM BKN010 10/08 A3003 RMK AO2 CIG 007V011=
201101212102 SPECI KCLM 212102Z AUTO 31005KT 10SM BKN010 10/08 A3003 RMK AO2 CIG 007V011=
201101212053 METAR KCLM 212053Z AUTO 30007G17KT 10SM SCT010 10/08 A3004 RMK AO2 SLP173 60001 T01000078 53003=
201101211953 METAR KCLM 211953Z AUTO 31004KT 10SM SCT075 07/06 A3002 RMK AO2 RAE1855 SLP166 P0000 T00670056=
201101211915 SPECI KCLM 211915Z AUTO 17006KT 10SM SCT005 BKN048 OVC070 06/05 A3001 RMK AO2 RAE1855 PRESFR P0000=
201101211915 SPECI KCLM 211915Z AUTO 17006KT 10SM SCT005 BKN048 OVC070 06/05 A3001 RMK AO2 RAE1855 PRESFR P0000=
201101211853 METAR KCLM 211853Z AUTO 27004KT 10SM -RA OVC005 06/05 A3004 RMK AO2 SLP174 P0001 T00610050=
201101211817 SPECI KCLM 211817Z AUTO 21003KT 9SM -RA BKN005 BKN025 OVC065 06/04 A3002 RMK AO2 P0001=
201101211817 SPECI KCLM 211817Z AUTO 21003KT 9SM -RA BKN005 BKN025 OVC065 06/04 A3002 RMK AO2 P0001=
201101211805 SPECI KCLM 211805Z AUTO 00000KT 7SM -RA SCT007 BKN013 OVC060 06/04 A3003 RMK AO2 P0001=
201101211805 SPECI KCLM 211805Z AUTO 00000KT 7SM -RA SCT007 BKN013 OVC060 06/04 A3003 RMK AO2 P0001=
201101211753 METAR KCLM 211753Z AUTO 00000KT 6SM -RA BR BKN007 BKN028 OVC060 06/04 A3003 RMK AO2 RAB1658 SLP170 P0002 60006 T00560044 10056 20044 55007=
201101211721 SPECI KCLM 211721Z AUTO 22003KT 10SM -RA BKN007 BKN020 OVC060 05/04 A3003 RMK AO2 RAB1658 P0000=
201101211721 SPECI KCLM 211721Z AUTO 22003KT 10SM -RA BKN007 BKN020 OVC060 05/04 A3003 RMK AO2 RAB1658 P0000=
201101211718 SPECI KCLM 211718Z AUTO 25004KT 9SM -RA SCT007 SCT018 OVC060 05/04 A3003 RMK AO2 RAB1658 P0000=
201101211718 SPECI KCLM 211718Z AUTO 25004KT 9SM -RA SCT007 SCT018 OVC060 05/04 A3003 RMK AO2 RAB1658 P0000=
201101211653 METAR KCLM 211653Z AUTO 00000KT 10SM FEW055 BKN070 OVC080 05/04 A3001 RMK AO2 RAE37 SLP164 P0001 T00500044=
201101211623 SPECI KCLM 211623Z AUTO 00000KT 10SM -RA FEW004 BKN047 OVC095 05/04 A3001 RMK AO2 P0001=
201101211623 SPECI KCLM 211623Z AUTO 00000KT 10SM -RA FEW004 BKN047 OVC095 05/04 A3001 RMK AO2 P0001=
201101211614 SPECI KCLM 211614Z AUTO 20004KT 9SM -RA SCT004 BKN011 OVC090 04/04 A3002 RMK AO2 P0001=
201101211614 SPECI KCLM 211614Z AUTO 20004KT 9SM -RA SCT004 BKN011 OVC090 04/04 A3002 RMK AO2 P0001=
201101211552 METAR KCLM 211552Z AUTO 26004KT 5SM -RA BR BKN006 BKN026 OVC090 04/04 A3005 RMK AO2 SLP178 P0001 T00440039=
201101211551 SPECI KCLM 211551Z AUTO 27004KT 5SM -RA BR BKN006 BKN026 OVC090 04/04 A3005 RMK AO2 P0001=
201101211551 SPECI KCLM 211551Z AUTO 27004KT 5SM -RA BR BKN006 BKN026 OVC090 04/04 A3005 RMK AO2 P0001=
201101211545 SPECI KCLM 211545Z AUTO 29005KT 5SM -RA BR SCT006 BKN055 OVC090 04/03 A3005 RMK AO2 P0000=
201101211545 SPECI KCLM 211545Z AUTO 29005KT 5SM -RA BR SCT006 BKN055 OVC090 04/03 A3005 RMK AO2 P0000=
201101211453 METAR KCLM 211453Z AUTO 00000KT 4SM -RA BR FEW033 BKN050 OVC065 04/04 A3005 RMK AO2 SLP177 P0002 60002 T00440039 58032=
201101211416 SPECI KCLM 211416Z AUTO 00000KT 8SM -RA FEW006 BKN050 OVC075 04/04 A3007 RMK AO2 P0001=
201101211416 SPECI KCLM 211416Z AUTO 00000KT 8SM -RA FEW006 BKN050 OVC075 04/04 A3007 RMK AO2 P0001=
201101211409 SPECI KCLM 211409Z AUTO 00000KT 8SM -RA SCT006 BKN011 OVC070 04/04 A3008 RMK AO2 P0001=
201101211409 SPECI KCLM 211409Z AUTO 00000KT 8SM -RA SCT006 BKN011 OVC070 04/04 A3008 RMK AO2 P0001=
201101211353 METAR KCLM 211353Z AUTO 00000KT 8SM -RA BKN006 OVC027 04/04 A3008 RMK AO2 SLP189 P0000 T00440039=
201101211253 METAR KCLM 211253Z AUTO 00000KT 7SM -RA BKN006 OVC023 04/04 A3011 RMK AO2 SLP198 P0000 T00440039=
201101211245 SPECI KCLM 211245Z AUTO 00000KT 7SM -RA BKN006 OVC025 04/04 A3011 RMK AO2 P0000=
201101211245 SPECI KCLM 211245Z AUTO 00000KT 7SM -RA BKN006 OVC025 04/04 A3011 RMK AO2 P0000=
201101211237 SPECI KCLM 211237Z AUTO 00000KT 6SM -RA BR SCT006 OVC025 04/04 A3012 RMK AO2 P0000=
201101211237 SPECI KCLM 211237Z AUTO 00000KT 6SM -RA BR SCT006 OVC025 04/04 A3012 RMK AO2 P0000=
201101211201 SPECI KCLM 211201Z AUTO 00000KT 9SM -RA SCT018 OVC028 04/04 A3014 RMK AO2 P0000=
201101211201 SPECI KCLM 211201Z AUTO 00000KT 9SM -RA SCT018 OVC028 04/04 A3014 RMK AO2 P0000=
201101211153 METAR KCLM 211153Z AUTO 00000KT 10SM -RA SCT018 OVC030 04/04 A3014 RMK AO2 SLP209 P0001 60006 70007 T00440039 10044 20039 58018=
201101211136 SPECI KCLM 211136Z AUTO 00000KT 10SM -RA FEW007 BKN016 OVC032 04/04 A3015 RMK AO2 P0001=
201101211136 SPECI KCLM 211136Z AUTO 00000KT 10SM -RA FEW007 BKN016 OVC032 04/04 A3015 RMK AO2 P0001=
201101211129 SPECI KCLM 211129Z AUTO 23003KT 9SM -RA SCT007 BKN014 OVC050 04/04 A3016 RMK AO2 P0001=
201101211129 SPECI KCLM 211129Z AUTO 23003KT 9SM -RA SCT007 BKN014 OVC050 04/04 A3016 RMK AO2 P0001=
201101211053 METAR KCLM 211053Z AUTO 22003KT 5SM -RA BR BKN005 OVC014 04/04 A3017 RMK AO2 SLP220 P0002 T00440039=
201101211017 SPECI KCLM 211017Z AUTO 28003KT 4SM -RA BR BKN007 OVC014 04/03 A3018 RMK AO2 P0000=
201101211017 SPECI KCLM 211017Z AUTO 28003KT 4SM -RA BR BKN007 OVC014 04/03 A3018 RMK AO2 P0000=
201101211000 SPECI KCLM 211000Z AUTO 00000KT 7SM -RA FEW009 BKN014 OVC049 04/03 A3018 RMK AO2 P0000=
201101211000 SPECI KCLM 211000Z AUTO 00000KT 7SM -RA FEW009 BKN014 OVC049 04/03 A3018 RMK AO2 P0000=
201101210953 METAR KCLM 210953Z AUTO 00000KT 7SM -RA FEW005 SCT014 OVC049 04/03 A3018 RMK AO2 SLP222 P0000 T00440033=
201101210932 SPECI KCLM 210932Z AUTO 00000KT 7SM -RA FEW006 OVC013 04/03 A3019 RMK AO2 P0000=
201101210932 SPECI KCLM 210932Z AUTO 00000KT 7SM -RA FEW006 OVC013 04/03 A3019 RMK AO2 P0000=
201101210901 SPECI KCLM 210901Z AUTO 00000KT 4SM -RA BR BKN011 OVC050 04/03 A3020 RMK AO2 P0000=
201101210901 SPECI KCLM 210901Z AUTO 00000KT 4SM -RA BR BKN011 OVC050 04/03 A3020 RMK AO2 P0000=
201101210853 METAR KCLM 210853Z AUTO 00000KT 6SM -RA BR SCT011 OVC048 04/03 A3020 RMK AO2 SLP227 P0003 60003 T00440033 58015=
201101210833 SPECI KCLM 210833Z AUTO 00000KT 4SM -RA BR SCT006 SCT037 OVC046 04/03 A3021 RMK AO2 P0003=
201101210833 SPECI KCLM 210833Z AUTO 00000KT 4SM -RA BR SCT006 SCT037 OVC046 04/03 A3021 RMK AO2 P0003=
201101210753 METAR KCLM 210753Z AUTO 00000KT 5SM -RA BR OVC006 04/03 A3023 RMK AO2 RAB21 SLP239 P0000 T00390033 400500000=
201101210739 SPECI KCLM 210739Z AUTO 00000KT 5SM -RA BR BKN006 OVC038 04/03 A3023 RMK AO2 RAB21 P0000=
201101210739 SPECI KCLM 210739Z AUTO 00000KT 5SM -RA BR BKN006 OVC038 04/03 A3023 RMK AO2 RAB21 P0000=
201101210730 SPECI KCLM 210730Z AUTO 00000KT 4SM -RA BR SCT006 OVC036 04/04 A3023 RMK AO2 RAB21 P0000=
201101210730 SPECI KCLM 210730Z AUTO 00000KT 4SM -RA BR SCT006 OVC036 04/04 A3023 RMK AO2 RAB21 P0000=
201101210712 SPECI KCLM 210712Z AUTO 00000KT 9SM SCT024 OVC036 04/03 A3023 RMK AO2=
201101210712 SPECI KCLM 210712Z AUTO 00000KT 9SM SCT024 OVC036 04/03 A3023 RMK AO2=
201101210653 METAR KCLM 210653Z AUTO 23003KT 5SM BR BKN024 OVC029 04/03 A3024 RMK AO2 RAE03 SLP241 P0000 T00390033=
201101210644 SPECI KCLM 210644Z AUTO 00000KT 2 1/2SM BR FEW007 BKN024 OVC030 04/03 A3024 RMK AO2 RAE03 P0000=
201101210644 SPECI KCLM 210644Z AUTO 00000KT 2 1/2SM BR FEW007 BKN024 OVC030 04/03 A3024 RMK AO2 RAE03 P0000=
201101210620 SPECI KCLM 210620Z AUTO 00000KT 3SM BR FEW007 BKN022 OVC037 04/03 A3024 RMK AO2 RAE03 P0000=
201101210620 SPECI KCLM 210620Z AUTO 00000KT 3SM BR FEW007 BKN022 OVC037 04/03 A3024 RMK AO2 RAE03 P0000=
201101210553 METAR KCLM 210553Z AUTO 00000KT 4SM -RA BR OVC036 04/04 A3024 RMK AO2 RAE09B51 SLP242 P0000 60000 T00440039 10050 20039 57002=
201101210544 SPECI KCLM 210544Z AUTO 00000KT 4SM BR OVC036 04/03 A3024 RMK AO2 RAE09 P0000=
201101210544 SPECI KCLM 210544Z AUTO 00000KT 4SM BR OVC036 04/03 A3024 RMK AO2 RAE09 P0000=
201101210533 SPECI KCLM 210533Z AUTO 00000KT 2SM BR OVC036 04/03 A3024 RMK AO2 RAE09 P0000=
201101210533 SPECI KCLM 210533Z AUTO 00000KT 2SM BR OVC036 04/03 A3024 RMK AO2 RAE09 P0000=
201101210453 METAR KCLM 210453Z AUTO 00000KT 7SM -RA OVC043 04/03 A3024 RMK AO2 RAB45 SLP244 P0000 T00440033=
201101210353 METAR KCLM 210353Z AUTO 21003KT 8SM FEW007 OVC043 04/03 A3025 RMK AO2 SLP245 T00390033=
201101210348 SPECI KCLM 210348Z AUTO 00000KT 8SM SCT007 OVC043 04/03 A3025 RMK AO2=
201101210348 SPECI KCLM 210348Z AUTO 00000KT 8SM SCT007 OVC043 04/03 A3025 RMK AO2=
201101210305 SPECI KCLM 210305Z AUTO 00000KT 7SM BKN007 BKN034 OVC041 04/03 A3025 RMK AO2=
201101210305 SPECI KCLM 210305Z AUTO 00000KT 7SM BKN007 BKN034 OVC041 04/03 A3025 RMK AO2=
201101210253 METAR KCLM 210253Z AUTO 00000KT 8SM FEW007 SCT034 OVC043 04/03 A3024 RMK AO2 SLP244 60000 T00390033 55001=
201101210237 SPECI KCLM 210237Z AUTO 00000KT 6SM BR SCT028 OVC043 04/03 A3024 RMK AO2=
201101210237 SPECI KCLM 210237Z AUTO 00000KT 6SM BR SCT028 OVC043 04/03 A3024 RMK AO2=
201101210153 METAR KCLM 210153Z AUTO 00000KT 7SM SCT008 OVC026 04/03 A3024 RMK AO2 RAE39 SLP243 P0000 T00440033=
201101210138 SPECI KCLM 210138Z AUTO 00000KT 9SM -RA FEW008 BKN026 OVC048 04/03 A3024 RMK AO2 P0000=
201101210138 SPECI KCLM 210138Z AUTO 00000KT 9SM -RA FEW008 BKN026 OVC048 04/03 A3024 RMK AO2 P0000=
201101210053 METAR KCLM 210053Z AUTO 00000KT 10SM -RA FEW025 OVC046 04/03 A3024 RMK AO2 RAB43 SLP243 P0000 T00440028=
201101202353 METAR KCLM 202353Z AUTO 00000KT 10SM BKN046 OVC055 04/03 A3025 RMK AO2 SLP245 60000 T00440028 10050 20033 55003=
201101202311 SPECI KCLM 202311Z AUTO 00000KT 10SM FEW009 OVC044 05/03 A3025 RMK AO2=
201101202311 SPECI KCLM 202311Z AUTO 00000KT 10SM FEW009 OVC044 05/03 A3025 RMK AO2=
201101202253 METAR KCLM 202253Z AUTO 00000KT 10SM OVC044 05/03 A3024 RMK AO2 SLP245 T00500028=
201101202153 METAR KCLM 202153Z AUTO 00000KT 10SM OVC044 05/03 A3025 RMK AO2 SLP246 T00500028=
201101202053 METAR KCLM 202053Z AUTO 00000KT 10SM OVC042 05/03 A3026 RMK AO2 SLP247 60000 T00500033 58014=
201101201953 METAR KCLM 201953Z AUTO 13003KT 10SM OVC042 04/03 A3026 RMK AO2 RAE01 SLP250 P0000 T00440033=
201101201920 SPECI KCLM 201920Z AUTO 00000KT 10SM SCT025 OVC042 04/03 A3029 RMK AO2 RAE01 P0000=
201101201920 SPECI KCLM 201920Z AUTO 00000KT 10SM SCT025 OVC042 04/03 A3029 RMK AO2 RAE01 P0000=
201101201853 METAR KCLM 201853Z AUTO 00000KT 10SM -RA OVC025 04/03 A3030 RMK AO2 RAE02B32 SLP265 P0000 T00390033=
201101201818 SPECI KCLM 201818Z AUTO 00000KT 10SM BKN025 OVC050 04/03 A3030 RMK AO2 RAE02 P0000=
201101201818 SPECI KCLM 201818Z AUTO 00000KT 10SM BKN025 OVC050 04/03 A3030 RMK AO2 RAE02 P0000=
201101201753 METAR KCLM 201753Z AUTO 00000KT 10SM -RA SCT025 BKN050 OVC085 03/03 A3030 RMK AO2 UPB43E47 SLP263 P0000 60001 T00330028 10033 20006 56008=
201101201748 SPECI KCLM 201748Z AUTO 00000KT 10SM SCT025 BKN050 OVC085 03/03 A3030 RMK AO2 RAE48UPB43E47 P0000=
201101201748 SPECI KCLM 201748Z AUTO 00000KT 10SM SCT025 BKN050 OVC085 03/03 A3030 RMK AO2 RAE48UPB43E47 P0000=
201101201653 METAR KCLM 201653Z AUTO 00000KT 10SM -RA BKN027 OVC048 02/02 A3031 RMK AO2 UPB30E48 SLP268 P0000 T00220017=
201101201553 METAR KCLM 201553Z AUTO 23005KT 10SM -RA BKN055 OVC080 02/01 A3032 RMK AO2 UPB1457E06RAB06 SLP271 P0001 T00220011=
201101201453 METAR KCLM 201453Z AUTO 28003KT 10SM OVC055 02/01 A3035 RMK AO2 RAB21E30B51E52UPB32E51 SLP280 P0000 60000 T00220006 55024=
201101201353 METAR KCLM 201353Z AUTO 13005KT 10SM FEW060 OVC085 01/00 A3033 RMK AO2 PRESFR SLP274 T00110000=
201101201253 METAR KCLM 201253Z AUTO 24004KT 10SM BKN075 OVC095 01/00 A3039 RMK AO2 SLP294 T00110000=
201101201153 METAR KCLM 201153Z AUTO 23005KT 10SM BKN085 OVC120 02/M01 A3042 RMK AO2 SLP304 T00171006 10022 21006 58001=
201101201053 METAR KCLM 201053Z AUTO 22006KT 10SM BKN090 01/M01 A3045 RMK AO2 SLP313 T00061006=
201101200953 METAR KCLM 200953Z AUTO 00000KT 10SM BKN095 01/M01 A3040 RMK AO2 SLP299 T00111006=
201101200853 METAR KCLM 200853Z AUTO 24004KT 10SM OVC100 02/M01 A3042 RMK AO2 SLP305 T00221006 58019=
201101200753 METAR KCLM 200753Z AUTO 24005KT 10SM OVC095 01/M01 A3047 RMK AO2 SLP320 T00111006 400611033=
201101200653 METAR KCLM 200653Z AUTO 23005KT 10SM SCT120 01/M01 A3046 RMK AO2 SLP318 T00111011=
201101200553 METAR KCLM 200553Z AUTO 00000KT 10SM OVC110 01/M01 A3048 RMK AO2 SLP325 T00111006 10044 21006 58005=
201101200453 METAR KCLM 200453Z AUTO 00000KT 10SM BKN110 00/M01 A3049 RMK AO2 SLP329 T00001011=
201101200353 METAR KCLM 200353Z AUTO 00000KT 10SM BKN110 01/00 A3049 RMK AO2 SLP328 T00060000=
201101200253 METAR KCLM 200253Z AUTO 22003KT 10SM OVC110 01/00 A3050 RMK AO2 SLP330 T00110000 55001=
201101200153 METAR KCLM 200153Z AUTO 00000KT 10SM FEW120 01/00 A3049 RMK AO2 SLP329 T00110000=
201101200053 METAR KCLM 200053Z AUTO 12003KT 10SM CLR 03/00 A3049 RMK AO2 SLP329 T00280000=
201101192353 METAR KCLM 192353Z AUTO 13005KT 10SM CLR 04/01 A3050 RMK AO2 SLP331 T00440006 10061 20011 50003=
201101192253 METAR KCLM 192253Z AUTO 10004KT 10SM BKN031 05/01 A3050 RMK AO2 SLP332 T00500006=
201101192153 METAR KCLM 192153Z AUTO 04004KT 10SM SCT033 06/01 A3049 RMK AO2 SLP329 T00560006=
201101192053 METAR KCLM 192053Z AUTO 07005KT 10SM BKN033 06/00 A3049 RMK AO2 SLP328 T00560000 51007 $=
201101191953 METAR KCLM 191953Z AUTO 12007KT 10SM CLR 05/00 A3048 RMK AO2 SLP326 T00500000 $=
201101191853 METAR KCLM 191853Z AUTO 10006KT 10SM CLR 04/00 A3048 RMK AO2 SLP325 T00440000 $=
201101191753 METAR KCLM 191753Z AUTO 00000KT 10SM CLR 01/00 A3047 RMK AO2 SLP320 T00110000 10011 21033 53020 PWINO FZRANO $=
201101191653 METAR KCLM 191653Z AUTO 00000KT 10SM CLR M02/M02 A3045 RMK AO2 SLP315 T10171022 $=
201101191553 METAR KCLM 191553Z AUTO 00000KT 10SM CLR M03/M04 A3041 RMK AO2 SLP302 T10281039 $=
201101191453 METAR KCLM 191453Z AUTO 24007KT 10SM CLR M02/M03 A3041 RMK AO2 SLP300 T10171028 51019 $=
201101191353 METAR KCLM 191353Z AUTO 10SM CLR M02/M03 A3040 RMK AO2 SLP298 T10171028 $=
201101191253 METAR KCLM 191253Z AUTO 10SM CLR M01/M02 A3037 RMK AO2 SLP288 T10061022 $=
201101191153 METAR KCLM 191153Z AUTO 10SM CLR M02/M03 A3035 RMK AO2 SLP280 70004 T10221033 10006 21022 50007 $=
201101191053 METAR KCLM 191053Z AUTO 10SM CLR M01/M02 A3036 RMK AO2 SLP283 T10061022 $=
201101190953 METAR KCLM 190953Z AUTO 10SM CLR M01/M02 A3035 RMK AO2 SLP279 T10061017 $=
201101190853 METAR KCLM 190853Z AUTO 10SM CLR M02/M03 A3033 RMK AO2 SLP273 T10171028 51030 $=
201101190753 METAR KCLM 190753Z AUTO 00000KT 10SM CLR M02/M02 A3030 RMK AO2 SLP264 T10171022 400611017 $=
201101190653 METAR KCLM 190653Z AUTO 22003KT 10SM CLR 00/M01 A3027 RMK AO2 SLP253 T00001011 $=
201101190553 METAR KCLM 190553Z AUTO 00000KT 10SM CLR 01/M01 A3024 RMK AO2 SLP242 60001 T00061006 10039 21006 51013=
201101190453 METAR KCLM 190453Z AUTO 00000KT 9SM CLR 01/M01 A3023 RMK AO2 SLP238 T00061006=
201101190353 METAR KCLM 190353Z AUTO 00000KT 10SM OVC048 02/02 A3022 RMK AO2 SLP236 T00220017=
201101190253 METAR KCLM 190253Z AUTO 00000KT 10SM OVC042 03/02 A3020 RMK AO2 SLP229 60001 T00280022 53011=
201101190219 SPECI KCLM 190219Z AUTO 00000KT 10SM FEW013 SCT019 OVC032 03/02 A3019 RMK AO2=
201101190219 SPECI KCLM 190219Z AUTO 00000KT 10SM FEW013 SCT019 OVC032 03/02 A3019 RMK AO2=
201101190204 SPECI KCLM 190204Z AUTO 00000KT 10SM SCT013 BKN019 OVC030 03/02 A3019 RMK AO2=
201101190204 SPECI KCLM 190204Z AUTO 00000KT 10SM SCT013 BKN019 OVC030 03/02 A3019 RMK AO2=
201101190153 METAR KCLM 190153Z AUTO 00000KT 10SM SCT019 OVC030 03/02 A3018 RMK AO2 RAE31 SLP223 P0000 T00330022=
201101190115 SPECI KCLM 190115Z AUTO 17004KT 8SM -RA SCT015 OVC022 03/02 A3017 RMK AO2 P0000=
201101190115 SPECI KCLM 190115Z AUTO 17004KT 8SM -RA SCT015 OVC022 03/02 A3017 RMK AO2 P0000=
201101190053 METAR KCLM 190053Z AUTO 17003KT 5SM -RA BR SCT007 OVC014 03/02 A3017 RMK AO2 SLP220 P0001 T00330017=
201101190045 SPECI KCLM 190045Z AUTO 16003KT 5SM -RA BR BKN007 OVC014 03/02 A3017 RMK AO2 CIG 006V009 P0001=
201101190045 SPECI KCLM 190045Z AUTO 16003KT 5SM -RA BR BKN007 OVC014 03/02 A3017 RMK AO2 CIG 006V009 P0001=
201101190038 SPECI KCLM 190038Z AUTO 18004KT 5SM -RA BR SCT007 OVC014 03/02 A3017 RMK AO2 P0001=
201101190038 SPECI KCLM 190038Z AUTO 18004KT 5SM -RA BR SCT007 OVC014 03/02 A3017 RMK AO2 P0001=
201101190012 SPECI KCLM 190012Z AUTO 09004KT 5SM -RA BR BKN010 OVC014 03/02 A3017 RMK AO2 CIG 006V011 P0000=
201101190012 SPECI KCLM 190012Z AUTO 09004KT 5SM -RA BR BKN010 OVC014 03/02 A3017 RMK AO2 CIG 006V011 P0000=
201101182353 METAR KCLM 182353Z AUTO 07005KT 6SM -RA BR BKN006 OVC011 04/02 A3017 RMK AO2 RAB01 CIG 004V009 SLP217 P0003 60003 T00390022 10061 20039 53004=
201101182335 SPECI KCLM 182335Z AUTO VRB04KT 4SM RA BR BKN006 OVC017 04/03 A3017 RMK AO2 RAB01 P0002=
201101182335 SPECI KCLM 182335Z AUTO VRB04KT 4SM RA BR BKN006 OVC017 04/03 A3017 RMK AO2 RAB01 P0002=
201101182320 SPECI KCLM 182320Z AUTO 00000KT 8SM -RA FEW006 BKN022 OVC032 04/03 A3016 RMK AO2 RAB01 P0000=
201101182320 SPECI KCLM 182320Z AUTO 00000KT 8SM -RA FEW006 BKN022 OVC032 04/03 A3016 RMK AO2 RAB01 P0000=
201101182253 METAR KCLM 182253Z AUTO 27004KT 10SM FEW015 BKN030 OVC035 04/03 A3015 RMK AO2 RAE52 SLP213 P0000 T00440028=
201101182234 SPECI KCLM 182234Z AUTO 26005KT 10SM -RA BKN016 BKN020 OVC026 04/03 A3015 RMK AO2 P0000=
201101182234 SPECI KCLM 182234Z AUTO 26005KT 10SM -RA BKN016 BKN020 OVC026 04/03 A3015 RMK AO2 P0000=
201101182153 METAR KCLM 182153Z AUTO 34004KT 10SM -RA BKN013 BKN019 OVC028 06/02 A3015 RMK AO2 RAB31 SLP211 P0000 T00560022=
201101182140 SPECI KCLM 182140Z AUTO 33005KT 9SM -RA BKN013 BKN019 OVC026 06/03 A3015 RMK AO2 RAB31 P0000=
201101182140 SPECI KCLM 182140Z AUTO 33005KT 9SM -RA BKN013 BKN019 OVC026 06/03 A3015 RMK AO2 RAB31 P0000=
201101182124 SPECI KCLM 182124Z AUTO 35004KT 10SM FEW013 BKN026 OVC085 06/03 A3015 RMK AO2=
201101182124 SPECI KCLM 182124Z AUTO 35004KT 10SM FEW013 BKN026 OVC085 06/03 A3015 RMK AO2=
201101182053 METAR KCLM 182053Z AUTO 33003KT 10SM BKN042 OVC075 06/02 A3016 RMK AO2 SLP213 T00560022 58018=
201101181953 METAR KCLM 181953Z AUTO VRB03KT 10SM SCT040 OVC075 06/02 A3018 RMK AO2 SLP222 T00610022=
201101181853 METAR KCLM 181853Z AUTO 00000KT 10SM BKN060 OVC080 06/02 A3020 RMK AO2 SLP228 T00610017=
201101181753 METAR KCLM 181753Z AUTO 00000KT 10SM BKN055 OVC070 04/02 A3021 RMK AO2 SLP231 T00440022 10044 20022 58015=
201101181653 METAR KCLM 181653Z AUTO 00000KT 10SM OVC100 03/02 A3022 RMK AO2 SLP235 T00330017=
201101181553 METAR KCLM 181553Z AUTO 00000KT 10SM OVC100 02/02 A3024 RMK AO2 SLP242 T00220017=
201101181453 METAR KCLM 181453Z AUTO 00000KT 10SM OVC100 03/01 A3025 RMK AO2 SLP246 T00280011 58014=
201101181353 METAR KCLM 181353Z AUTO 22003KT 10SM OVC110 03/01 A3027 RMK AO2 SLP252 T00280011=
201101181253 METAR KCLM 181253Z AUTO 24003KT 10SM BKN110 03/02 A3029 RMK AO2 SLP260 T00280017=
201101181153 METAR KCLM 181153Z AUTO 23004KT 10SM FEW025 BKN040 03/01 A3029 RMK AO2 SLP260 70001 T00330011 10044 20022 58005=
201101181053 METAR KCLM 181053Z AUTO 00000KT 10SM OVC034 03/01 A3030 RMK AO2 SLP263 T00330011=
201101180953 METAR KCLM 180953Z AUTO 00000KT 10SM BKN036 OVC043 03/01 A3031 RMK AO2 SLP266 T00280011=
201101180853 METAR KCLM 180853Z AUTO 00000KT 10SM CLR 03/01 A3031 RMK AO2 SLP265 T00330011 50001=
201101180753 METAR KCLM 180753Z AUTO 15004KT 10SM CLR 02/01 A3032 RMK AO2 SLP269 T00220006 400940022=
201101180653 METAR KCLM 180653Z AUTO 24005KT 10SM CLR 04/01 A3032 RMK AO2 SLP268 T00390006=
201101180553 METAR KCLM 180553Z AUTO 17003KT 10SM CLR 04/01 A3030 RMK AO2 SLP264 T00390006 10067 20039 51009=
201101180453 METAR KCLM 180453Z AUTO 29008KT 10SM CLR 05/00 A3030 RMK AO2 SLP261 T00500000=
201101180353 METAR KCLM 180353Z AUTO 31012G18KT 10SM CLR 06/02 A3029 RMK AO2 SLP259 T00560017=
201101180253 METAR KCLM 180253Z AUTO 26006KT 10SM CLR 04/00 A3028 RMK AO2 SLP255 T00440000 51017=
201101180153 METAR KCLM 180153Z AUTO 27006KT 10SM CLR 05/01 A3027 RMK AO2 SLP253 T00500006=
201101180053 METAR KCLM 180053Z AUTO 29009KT 10SM CLR 06/01 A3026 RMK AO2 SLP248 T00560011=
201101172353 METAR KCLM 172353Z AUTO 29014G23KT 10SM CLR 07/02 A3023 RMK AO2 PK WND 31028/2319 SLP238 T00670022 10094 20067 53030=
201101172253 METAR KCLM 172253Z AUTO 30017G24KT 10SM CLR 08/03 A3019 RMK AO2 PK WND 30027/2158 SLP223 T00780033=
201101172153 METAR KCLM 172153Z AUTO 31012G22KT 10SM CLR 09/03 A3016 RMK AO2 PK WND 31029/2054 SLP214 T00890028=
201101172053 METAR KCLM 172053Z AUTO 30019G27KT 10SM CLR 09/03 A3014 RMK AO2 PK WND 29032/2003 SLP206 T00890033 51016=
201101171953 METAR KCLM 171953Z AUTO 30018G23KT 10SM CLR 08/04 A3012 RMK AO2 PK WND 31027/1936 SLP201 T00830044=
201101171853 METAR KCLM 171853Z AUTO 31014G24KT 10SM CLR 09/04 A3012 RMK AO2 SLP200 T00890039=
201101171753 METAR KCLM 171753Z AUTO 31010G16KT 10SM BKN040 08/06 A3009 RMK AO2 SLP191 60001 T00830056 10094 20078 51058=
201101171653 METAR KCLM 171653Z AUTO 28006KT 10SM FEW035 BKN046 OVC060 08/06 A3005 RMK AO2 PRESRR SLP178 T00830056=
201101171553 METAR KCLM 171553Z AUTO 28013KT 10SM BKN065 09/06 A2999 RMK AO2 SLP155 T00890056=
201101171453 METAR KCLM 171453Z AUTO 29014KT 10SM FEW070 08/05 A2992 RMK AO2 SLP132 60001 T00830050 53012=
201101171353 METAR KCLM 171353Z AUTO 29014KT 10SM FEW110 09/04 A2990 RMK AO2 SLP125 T00890044=
201101171253 METAR KCLM 171253Z AUTO 28012G18KT 10SM FEW044 BKN070 OVC090 08/06 A2990 RMK AO2 RAE39 SLP127 P0001 T00830061=
201101171153 METAR KCLM 171153Z AUTO 29012G16KT 10SM -RA FEW039 BKN050 OVC065 08/07 A2988 RMK AO2 RAB07 SLP120 P0000 60000 70002 T00830067 10100 20083 53017=
201101171053 METAR KCLM 171053Z AUTO 30007KT 10SM BKN060 OVC075 08/07 A2986 RMK AO2 SLP112 T00830067=
201101170953 METAR KCLM 170953Z AUTO 29006KT 10SM FEW033 OVC080 09/07 A2984 RMK AO2 SLP106 T00890067=
201101170853 METAR KCLM 170853Z AUTO 30004KT 10SM FEW032 BKN060 OVC085 09/07 A2983 RMK AO2 SLP103 60000 T00890072 51024=
201101170822 SPECI KCLM 170822Z AUTO 32005KT 7SM SCT007 BKN032 OVC055 09/08 A2982 RMK AO2=
201101170822 SPECI KCLM 170822Z AUTO 32005KT 7SM SCT007 BKN032 OVC055 09/08 A2982 RMK AO2=
201101170806 SPECI KCLM 170806Z AUTO 00000KT 3SM BR BKN005 BKN013 OVC055 09/08 A2982 RMK AO2=
201101170806 SPECI KCLM 170806Z AUTO 00000KT 3SM BR BKN005 BKN013 OVC055 09/08 A2982 RMK AO2=
201101170753 METAR KCLM 170753Z AUTO 00000KT 7SM SCT005 BKN037 OVC055 09/09 A2982 RMK AO2 RAB08E19 SLP097 P0000 T00940089 401170078=
201101170736 SPECI KCLM 170736Z AUTO 00000KT 9SM FEW005 BKN030 OVC050 09/08 A2982 RMK AO2 RAB08E19 P0000=
201101170736 SPECI KCLM 170736Z AUTO 00000KT 9SM FEW005 BKN030 OVC050 09/08 A2982 RMK AO2 RAB08E19 P0000=
201101170727 SPECI KCLM 170727Z AUTO 00000KT 10SM BKN005 BKN017 OVC055 09/09 A2981 RMK AO2 RAB08E19 P0000=
201101170727 SPECI KCLM 170727Z AUTO 00000KT 10SM BKN005 BKN017 OVC055 09/09 A2981 RMK AO2 RAB08E19 P0000=
201101170708 SPECI KCLM 170708Z AUTO 00000KT 9SM -RA SCT005 BKN028 OVC075 09/08 A2980 RMK AO2 RAB08 P0000=
201101170708 SPECI KCLM 170708Z AUTO 00000KT 9SM -RA SCT005 BKN028 OVC075 09/08 A2980 RMK AO2 RAB08 P0000=
201101170653 METAR KCLM 170653Z AUTO 00000KT 10SM FEW025 BKN060 OVC075 09/08 A2979 RMK AO2 SLP088 T00940083=
201101170553 METAR KCLM 170553Z AUTO 06003KT 10SM FEW009 BKN050 OVC060 10/09 A2976 RMK AO2 SLP079 60000 T01000089 10117 20094 53024=
201101170539 SPECI KCLM 170539Z AUTO 08004KT 5SM BR SCT009 BKN050 OVC060 09/09 A2976 RMK AO2=
201101170539 SPECI KCLM 170539Z AUTO 08004KT 5SM BR SCT009 BKN050 OVC060 09/09 A2976 RMK AO2=
201101170512 SPECI KCLM 170512Z AUTO 07004KT 10SM BKN009 BKN014 OVC060 10/09 A2974 RMK AO2=
201101170512 SPECI KCLM 170512Z AUTO 07004KT 10SM BKN009 BKN014 OVC060 10/09 A2974 RMK AO2=
201101170504 SPECI KCLM 170504Z AUTO 00000KT 10SM SCT009 BKN014 OVC075 10/09 A2974 RMK AO2=
201101170504 SPECI KCLM 170504Z AUTO 00000KT 10SM SCT009 BKN014 OVC075 10/09 A2974 RMK AO2=
201101170453 METAR KCLM 170453Z AUTO 09003KT 8SM FEW005 BKN060 OVC075 10/09 A2973 RMK AO2 SLP069 T01000089=
201101170430 SPECI KCLM 170430Z AUTO 16006KT 6SM BR FEW002 BKN060 OVC075 09/09 A2973 RMK AO2=
201101170430 SPECI KCLM 170430Z AUTO 16006KT 6SM BR FEW002 BKN060 OVC075 09/09 A2973 RMK AO2=
201101170353 METAR KCLM 170353Z AUTO 00000KT 10SM SCT039 BKN060 OVC085 11/08 A2971 RMK AO2 SLP061 T01060083=
201101170253 METAR KCLM 170253Z AUTO 00000KT 10SM FEW047 SCT060 OVC095 10/09 A2969 RMK AO2 SLP054 60000 T01000089 55001=
201101170153 METAR KCLM 170153Z AUTO 12003KT 10SM BKN065 OVC100 09/08 A2968 RMK AO2 RAB12E53 SLP050 P0000 T00940083=
201101170053 METAR KCLM 170053Z AUTO 30005KT 10SM FEW003 BKN060 BKN085 10/09 A2968 RMK AO2 RAB25E35 SLP051 P0000 T01000089=
201101170026 SPECI KCLM 170026Z AUTO 01003KT 10SM -RA FEW004 BKN060 OVC090 10/09 A2968 RMK AO2 RAB25 P0000=
201101170026 SPECI KCLM 170026Z AUTO 01003KT 10SM -RA FEW004 BKN060 OVC090 10/09 A2968 RMK AO2 RAB25 P0000=
201101162353 METAR KCLM 162353Z AUTO 13003KT 10SM BKN044 BKN065 11/10 A2969 RMK AO2 RAB2255E45 SLP055 P0000 60002 T01110100 10117 20094 58007=
201101162316 SPECI KCLM 162316Z AUTO 00000KT 8SM -RA FEW001 SCT048 OVC065 11/10 A2971 RMK AO2 RAB2255 P0000=
201101162316 SPECI KCLM 162316Z AUTO 00000KT 8SM -RA FEW001 SCT048 OVC065 11/10 A2971 RMK AO2 RAB2255 P0000=
201101162253 METAR KCLM 162253Z AUTO 00000KT 10SM FEW047 OVC060 11/10 A2971 RMK AO2 RAB13E24 SLP061 P0000 T01110100=
201101162216 SPECI KCLM 162216Z AUTO 00000KT 8SM -RA FEW001 OVC060 11/10 A2971 RMK AO2 RAB13 P0000=
201101162216 SPECI KCLM 162216Z AUTO 00000KT 8SM -RA FEW001 OVC060 11/10 A2971 RMK AO2 RAB13 P0000=
201101162153 METAR KCLM 162153Z AUTO 00000KT 10SM SCT049 BKN065 OVC100 12/10 A2971 RMK AO2 RAB01E44 SLP062 P0000 T01170100=
201101162053 METAR KCLM 162053Z AUTO 14003KT 10SM FEW002 BKN038 BKN060 11/10 A2971 RMK AO2 SLP063 60002 T01060100 53001=
201101162019 SPECI KCLM 162019Z AUTO 00000KT 6SM BR BKN002 BKN055 10/09 A2972 RMK AO2=
201101162019 SPECI KCLM 162019Z AUTO 00000KT 6SM BR BKN002 BKN055 10/09 A2972 RMK AO2=
201101162002 SPECI KCLM 162002Z AUTO 00000KT 8SM SCT002 BKN055 BKN080 11/10 A2971 RMK AO2=
201101162002 SPECI KCLM 162002Z AUTO 00000KT 8SM SCT002 BKN055 BKN080 11/10 A2971 RMK AO2=
201101161953 METAR KCLM 161953Z AUTO 00000KT 10SM FEW050 SCT060 BKN110 11/11 A2971 RMK AO2 RAE32 SLP060 P0002 T01110106=
201101161853 METAR KCLM 161853Z AUTO 14004KT 8SM -RA SCT004 BKN044 OVC065 10/09 A2971 RMK AO2 SLP062 P0000 T01000094=
201101161834 SPECI KCLM 161834Z AUTO 00000KT 9SM -RA BKN004 BKN040 OVC065 10/09 A2972 RMK AO2 P0000=
201101161834 SPECI KCLM 161834Z AUTO 00000KT 9SM -RA BKN004 BKN040 OVC065 10/09 A2972 RMK AO2 P0000=
201101161802 SPECI KCLM 161802Z AUTO 14006KT 9SM -RA SCT002 BKN050 OVC060 09/09 A2972 RMK AO2 P0000=
201101161802 SPECI KCLM 161802Z AUTO 14006KT 9SM -RA SCT002 BKN050 OVC060 09/09 A2972 RMK AO2 P0000=
201101161753 METAR KCLM 161753Z AUTO 15004KT 10SM -RA BKN002 BKN047 OVC070 09/09 A2971 RMK AO2 RAB02E18B39 SLP062 P0000 60000 T00940089 10111 20078 53011=
201101161751 SPECI KCLM 161751Z AUTO 14003KT 10SM -RA BKN002 BKN050 OVC070 09/09 A2971 RMK AO2 RAB02E18B39 P0000=
201101161751 SPECI KCLM 161751Z AUTO 14003KT 10SM -RA BKN002 BKN050 OVC070 09/09 A2971 RMK AO2 RAB02E18B39 P0000=
201101161653 METAR KCLM 161653Z AUTO 30003KT 10SM FEW003 BKN075 OVC085 09/08 A2968 RMK AO2 SLP050 T00940083=
201101161651 SPECI KCLM 161651Z AUTO VRB03KT 10SM FEW003 BKN075 OVC085 09/08 A2968 RMK AO2=
201101161651 SPECI KCLM 161651Z AUTO VRB03KT 10SM FEW003 BKN075 OVC085 09/08 A2968 RMK AO2=
201101161553 METAR KCLM 161553Z AUTO VRB04KT 10SM FEW060 BKN080 OVC095 10/09 A2967 RMK AO2 RAB1454E33 SLP048 P0000 T01000089=
201101161453 METAR KCLM 161453Z AUTO 23003KT 10SM BKN070 OVC080 08/08 A2969 RMK AO2 RAE49 SLP057 P0000 60000 T00830078 56018=
201101161353 METAR KCLM 161353Z AUTO 16005KT 10SM -RA OVC075 08/08 A2972 RMK AO2 RAB12 SLP065 P0000 T00830078=
201101161253 METAR KCLM 161253Z AUTO VRB03KT 10SM OVC085 09/08 A2970 RMK AO2 RAE12 SLP059 P0000 T00890078=
201101161153 METAR KCLM 161153Z AUTO 00000KT 10SM -RA FEW007 OVC080 08/07 A2975 RMK AO2 SLP074 P0000 60022 70035 T00780072 10083 20078 53004=
201101161053 METAR KCLM 161053Z AUTO 13003KT 9SM -RA FEW005 BKN060 OVC070 08/07 A2973 RMK AO2 RAB06 SLP068 P0001 T00780072=
201101161006 SPECI KCLM 161006Z AUTO 04003KT 10SM -RA FEW009 BKN050 OVC065 08/07 A2972 RMK AO2 RAB06 P0000=
201101161006 SPECI KCLM 161006Z AUTO 04003KT 10SM -RA FEW009 BKN050 OVC065 08/07 A2972 RMK AO2 RAB06 P0000=
201101160953 METAR KCLM 160953Z AUTO 00000KT 10SM FEW040 BKN050 OVC095 08/07 A2971 RMK AO2 RAE53 SLP060 P0003 T00830072=
201101160928 SPECI KCLM 160928Z AUTO 00000KT 10SM -RA SCT011 SCT021 OVC040 08/07 A2971 RMK AO2 P0003=
201101160928 SPECI KCLM 160928Z AUTO 00000KT 10SM -RA SCT011 SCT021 OVC040 08/07 A2971 RMK AO2 P0003=
201101160915 SPECI KCLM 160915Z AUTO 19004KT 6SM -RA BR SCT001 BKN014 OVC019 08/08 A2973 RMK AO2 P0003=
201101160915 SPECI KCLM 160915Z AUTO 19004KT 6SM -RA BR SCT001 BKN014 OVC019 08/08 A2973 RMK AO2 P0003=
201101160853 METAR KCLM 160853Z AUTO 26005KT 3SM -RA BR OVC001 08/07 A2973 RMK AO2 RAB20 SLP069 P0007 60018 T00780072 53012=
201101160850 SPECI KCLM 160850Z AUTO 30006KT 2SM RA BR OVC001 08/07 A2973 RMK AO2 VIS 1 1/4V4 RAB20 P0007=
201101160850 SPECI KCLM 160850Z AUTO 30006KT 2SM RA BR OVC001 08/07 A2973 RMK AO2 VIS 1 1/4V4 RAB20 P0007=
201101160849 SPECI KCLM 160849Z AUTO 31005G15KT 1 3/4SM RA BR OVC001 08/07 A2973 RMK AO2 RAB20 P0006=
201101160849 SPECI KCLM 160849Z AUTO 31005G15KT 1 3/4SM RA BR OVC001 08/07 A2973 RMK AO2 RAB20 P0006=
201101160841 SPECI KCLM 160841Z AUTO 33008G15KT 2 1/2SM -RA BR OVC003 08/07 A2973 RMK AO2 RAB20 PRESRR P0003=
201101160841 SPECI KCLM 160841Z AUTO 33008G15KT 2 1/2SM -RA BR OVC003 08/07 A2973 RMK AO2 RAB20 PRESRR P0003=
201101160832 SPECI KCLM 160832Z AUTO 34006KT 6SM -RA BR BKN005 BKN050 OVC060 08/07 A2971 RMK AO2 LTG DSNT S RAB20 CIG 003V007 PRESRR P0001=
201101160832 SPECI KCLM 160832Z AUTO 34006KT 6SM -RA BR BKN005 BKN050 OVC060 08/07 A2971 RMK AO2 LTG DSNT S RAB20 CIG 003V007 PRESRR P0001=
201101160820 SPECI KCLM 160820Z AUTO 00000KT 10SM -RA SCT005 SCT048 BKN060 08/08 A2969 RMK AO2 RAB20 P0000=
201101160820 SPECI KCLM 160820Z AUTO 00000KT 10SM -RA SCT005 SCT048 BKN060 08/08 A2969 RMK AO2 RAB20 P0000=
201101160753 METAR KCLM 160753Z AUTO 15005KT 10SM SCT055 SCT070 OVC120 08/07 A2966 RMK AO2 RAB24E39 SLP045 P0000 T00780072 401170061=
201101160653 METAR KCLM 160653Z AUTO 15005KT 10SM FEW020 SCT080 OVC095 08/07 A2970 RMK AO2 RAE49 PRESFR SLP057 P0011 T00780072=
201101160644 SPECI KCLM 160644Z AUTO 14006KT 10SM -RA FEW021 SCT032 OVC095 08/07 A2971 RMK AO2 PRESFR P0011=
201101160644 SPECI KCLM 160644Z AUTO 14006KT 10SM -RA FEW021 SCT032 OVC095 08/07 A2971 RMK AO2 PRESFR P0011=
201101160626 SPECI KCLM 160626Z AUTO 14005KT 4SM -RA BR BKN023 OVC100 08/07 A2973 RMK AO2 PRESFR P0011=
201101160626 SPECI KCLM 160626Z AUTO 14005KT 4SM -RA BR BKN023 OVC100 08/07 A2973 RMK AO2 PRESFR P0011=
201101160617 SPECI KCLM 160617Z AUTO 16003KT 2 1/2SM RA BR FEW009 OVC023 08/07 A2977 RMK AO2 PRESFR P0009=
201101160617 SPECI KCLM 160617Z AUTO 16003KT 2 1/2SM RA BR FEW009 OVC023 08/07 A2977 RMK AO2 PRESFR P0009=
201101160610 SPECI KCLM 160610Z AUTO 00000KT 3SM RA BR SCT007 OVC023 08/07 A2980 RMK AO2 P0005=
201101160610 SPECI KCLM 160610Z AUTO 00000KT 3SM RA BR SCT007 OVC023 08/07 A2980 RMK AO2 P0005=
201101160553 METAR KCLM 160553Z AUTO 00000KT 6SM -RA BR OVC007 08/07 A2978 RMK AO2 CIG 005V010 SLP086 P0008 60012 T00830072 10083 20067 56004=
201101160453 METAR KCLM 160453Z AUTO 25003KT 4SM RA BR OVC007 08/07 A2979 RMK AO2 RAB30 SLP088 P0003 T00780072=
201101160353 METAR KCLM 160353Z AUTO 27007KT 10SM OVC007 08/07 A2978 RMK AO2 RAB27E40 SLP086 P0000 T00780067=
201101160307 SPECI KCLM 160307Z AUTO 27006KT 10SM OVC005 07/07 A2979 RMK AO2 CIG 003V007=
201101160307 SPECI KCLM 160307Z AUTO 27006KT 10SM OVC005 07/07 A2979 RMK AO2 CIG 003V007=
201101160253 METAR KCLM 160253Z AUTO 25005KT 10SM OVC003 07/07 A2980 RMK AO2 RAE48 CIG 001V007 SLP091 P0000 60001 T00720067 55014=
201101160229 SPECI KCLM 160229Z AUTO 24005KT 10SM -RA OVC001 07/07 A2978 RMK AO2 P0000=
201101160229 SPECI KCLM 160229Z AUTO 24005KT 10SM -RA OVC001 07/07 A2978 RMK AO2 P0000=
201101160210 SPECI KCLM 160210Z AUTO 28007KT 10SM -RA OVC003 07/06 A2977 RMK AO2 P0000=
201101160210 SPECI KCLM 160210Z AUTO 28007KT 10SM -RA OVC003 07/06 A2977 RMK AO2 P0000=
201101160157 SPECI KCLM 160157Z AUTO 30005KT 3SM -RA BR OVC001 07/06 A2976 RMK AO2 PRESFR P0000=
201101160157 SPECI KCLM 160157Z AUTO 30005KT 3SM -RA BR OVC001 07/06 A2976 RMK AO2 PRESFR P0000=
201101160153 SPECI KCLM 160153Z AUTO 28005KT 1 3/4SM -RA BR BKN001 OVC005 07/06 A2977 RMK AO2 PRESFR SLP081 P0001 T00670061=
201101160138 SPECI KCLM 160138Z AUTO 30004KT 1 1/4SM -RA BR BKN001 BKN010 OVC070 07/06 A2979 RMK AO2 PRESFR P0000=
201101160138 SPECI KCLM 160138Z AUTO 30004KT 1 1/4SM -RA BR BKN001 BKN010 OVC070 07/06 A2979 RMK AO2 PRESFR P0000=
201101160126 SPECI KCLM 160126Z AUTO 31005KT 1 1/2SM -RA BR SCT001 BKN013 OVC070 07/06 A2981 RMK AO2 P0000=
201101160126 SPECI KCLM 160126Z AUTO 31005KT 1 1/2SM -RA BR SCT001 BKN013 OVC070 07/06 A2981 RMK AO2 P0000=
201101160112 SPECI KCLM 160112Z AUTO 00000KT 2 1/2SM BR FEW003 SCT017 OVC070 07/06 A2981 RMK AO2 RAE06 P0000=
201101160112 SPECI KCLM 160112Z AUTO 00000KT 2 1/2SM BR FEW003 SCT017 OVC070 07/06 A2981 RMK AO2 RAE06 P0000=
201101160104 SPECI KCLM 160104Z AUTO 00000KT 3SM -RA BR SCT003 BKN017 OVC070 07/07 A2982 RMK AO2 PRESFR P0000=
201101160104 SPECI KCLM 160104Z AUTO 00000KT 3SM -RA BR SCT003 BKN017 OVC070 07/07 A2982 RMK AO2 PRESFR P0000=
201101160053 METAR KCLM 160053Z AUTO 30003KT 2 1/2SM -RA BR SCT003 BKN012 OVC020 07/07 A2983 RMK AO2 RAB50 SLP103 P0000 T00720067=
201101160050 SPECI KCLM 160050Z AUTO 29004KT 3SM -RA BR BKN003 BKN012 OVC020 07/07 A2984 RMK AO2 RAB50 P0000=
201101160050 SPECI KCLM 160050Z AUTO 29004KT 3SM -RA BR BKN003 BKN012 OVC020 07/07 A2984 RMK AO2 RAB50 P0000=
201101160030 SPECI KCLM 160030Z AUTO 00000KT 9SM SCT001 BKN012 OVC060 07/07 A2985 RMK AO2=
201101160030 SPECI KCLM 160030Z AUTO 00000KT 9SM SCT001 BKN012 OVC060 07/07 A2985 RMK AO2=
201101152353 METAR KCLM 152353Z AUTO 00000KT 4SM BR OVC001 07/07 A2989 RMK AO2 RAE43 SLP123 P0001 60001 T00720067 10094 20072 58059=
201101152328 SPECI KCLM 152328Z AUTO 10004KT 3SM -RA BR OVC001 07/07 A2991 RMK AO2 PRESFR P0001=
201101152328 SPECI KCLM 152328Z AUTO 10004KT 3SM -RA BR OVC001 07/07 A2991 RMK AO2 PRESFR P0001=
201101152306 SPECI KCLM 152306Z AUTO 08005KT 1 1/2SM -RA BR BKN001 OVC006 07/07 A2994 RMK AO2 PRESFR P0000=
201101152306 SPECI KCLM 152306Z AUTO 08005KT 1 1/2SM -RA BR BKN001 OVC006 07/07 A2994 RMK AO2 PRESFR P0000=
201101152259 SPECI KCLM 152259Z AUTO 08004KT 1SM -RA BR SCT001 OVC006 07/07 A2996 RMK AO2 P0000=
201101152259 SPECI KCLM 152259Z AUTO 08004KT 1SM -RA BR SCT001 OVC006 07/07 A2996 RMK AO2 P0000=
201101152253 METAR KCLM 152253Z AUTO 08003KT 1/2SM -RA FG SCT001 BKN004 OVC016 08/07 A2996 RMK AO2 PRESFR SLP147 P0000 T00780067=
201101152246 SPECI KCLM 152246Z AUTO 00000KT 3/4SM -RA BR BKN004 OVC030 08/07 A2997 RMK AO2 PRESFR P0000=
201101152246 SPECI KCLM 152246Z AUTO 00000KT 3/4SM -RA BR BKN004 OVC030 08/07 A2997 RMK AO2 PRESFR P0000=
201101152242 SPECI KCLM 152242Z AUTO 00000KT 1 3/4SM -RA BR SCT004 OVC030 08/07 A2998 RMK AO2 PRESFR P0000=
201101152242 SPECI KCLM 152242Z AUTO 00000KT 1 3/4SM -RA BR SCT004 OVC030 08/07 A2998 RMK AO2 PRESFR P0000=
201101152240 SPECI KCLM 152240Z AUTO 02004KT 3SM -RA BR SCT006 BKN030 OVC049 08/07 A2998 RMK AO2 P0000=
201101152240 SPECI KCLM 152240Z AUTO 02004KT 3SM -RA BR SCT006 BKN030 OVC049 08/07 A2998 RMK AO2 P0000=
201101152153 METAR KCLM 152153Z AUTO 00000KT 9SM -RA BKN040 OVC046 08/07 A3003 RMK AO2 RAB10 SLP171 P0000 T00830072=
201101152053 METAR KCLM 152053Z AUTO 00000KT 10SM BKN080 OVC095 08/07 A3007 RMK AO2 SLP183 T00830067 58039=
201101151953 METAR KCLM 151953Z AUTO 06003KT 10SM FEW110 09/07 A3010 RMK AO2 SLP195 T00890067=
201101151853 METAR KCLM 151853Z AUTO 00000KT 10SM CLR 08/07 A3016 RMK AO2 SLP214 T00830067=
201101151753 METAR KCLM 151753Z AUTO 00000KT 10SM OVC080 09/07 A3019 RMK AO2 SLP222 T00890072 10117 20061 58004=
201101151734 SPECI KCLM 151734Z AUTO 23003KT 10SM FEW022 OVC080 08/07 A3019 RMK AO2=
201101151734 SPECI KCLM 151734Z AUTO 23003KT 10SM FEW022 OVC080 08/07 A3019 RMK AO2=
201101151653 METAR KCLM 151653Z AUTO 21003KT 10SM OVC018 08/07 A3020 RMK AO2 SLP229 T00830067=
201101151612 SPECI KCLM 151612Z AUTO 00000KT 10SM BKN018 BKN080 07/06 A3021 RMK AO2=
201101151612 SPECI KCLM 151612Z AUTO 00000KT 10SM BKN018 BKN080 07/06 A3021 RMK AO2=
201101151553 METAR KCLM 151553Z AUTO 00000KT 10SM SCT080 BKN090 07/06 A3019 RMK AO2 SLP225 T00670056=
201101151453 METAR KCLM 151453Z AUTO 15004KT 10SM FEW070 OVC090 07/05 A3020 RMK AO2 SLP227 T00670050 50004=
201101151353 METAR KCLM 151353Z AUTO 28003KT 10SM FEW080 OVC100 08/06 A3021 RMK AO2 SLP231 T00830061=
201101151253 METAR KCLM 151253Z AUTO VRB03KT 10SM OVC110 09/06 A3019 RMK AO2 SLP225 T00940061=
201101151153 METAR KCLM 151153Z AUTO 18005KT 10SM OVC110 11/06 A3019 RMK AO2 SLP223 70002 T01060061 10106 20072 58018=
201101151053 METAR KCLM 151053Z AUTO 09003KT 10SM OVC120 09/07 A3023 RMK AO2 SLP237 T00890067=
201101150953 METAR KCLM 150953Z AUTO VRB04KT 10SM FEW090 OVC110 09/07 A3020 RMK AO2 SLP229 T00940067=
201101150900 SPECI KCLM 150900Z AUTO 00000KT 10SM FEW012 SCT027 BKN110 08/07 A3024 RMK AO2=
201101150900 SPECI KCLM 150900Z AUTO 00000KT 10SM FEW012 SCT027 BKN110 08/07 A3024 RMK AO2=
201101150853 METAR KCLM 150853Z AUTO 13006KT 10SM SCT012 BKN027 BKN100 08/07 A3024 RMK AO2 SLP241 T00780067 53008=
201101150804 SPECI KCLM 150804Z AUTO 08006KT 10SM BKN014 BKN019 09/07 A3022 RMK AO2=
201101150804 SPECI KCLM 150804Z AUTO 08006KT 10SM BKN014 BKN019 09/07 A3022 RMK AO2=
201101150753 METAR KCLM 150753Z AUTO 07004KT 10SM SCT014 SCT110 08/06 A3020 RMK AO2 SLP228 T00780061 401440061=
201101150751 SPECI KCLM 150751Z AUTO 10007KT 10SM FEW014 SCT110 08/06 A3020 RMK AO2 401440061=
201101150751 SPECI KCLM 150751Z AUTO 10007KT 10SM FEW014 SCT110 08/06 A3020 RMK AO2 401440061=
201101150742 SPECI KCLM 150742Z AUTO 13005KT 10SM BKN014 BKN110 09/07 A3022 RMK AO2=
201101150742 SPECI KCLM 150742Z AUTO 13005KT 10SM BKN014 BKN110 09/07 A3022 RMK AO2=
201101150653 METAR KCLM 150653Z AUTO 00000KT 10SM SCT110 08/07 A3022 RMK AO2 SLP233 T00830067=
201101150553 METAR KCLM 150553Z AUTO 17003KT 10SM FEW120 08/07 A3019 RMK AO2 SLP225 T00830067 10144 20072 51023=
201101150453 METAR KCLM 150453Z AUTO 21003KT 10SM CLR 08/06 A3018 RMK AO2 SLP223 T00780061=
201101150353 METAR KCLM 150353Z AUTO 36003KT 10SM FEW120 11/07 A3016 RMK AO2 SLP215 T01060067=
201101150253 METAR KCLM 150253Z AUTO 13006KT 10SM CLR 11/07 A3012 RMK AO2 SLP201 T01060072 50018=
201101150153 METAR KCLM 150153Z AUTO 00000KT 10SM CLR 10/07 A3014 RMK AO2 SLP207 T01000072=
201101150053 METAR KCLM 150053Z AUTO 03007G21KT 120V120 10SM CLR 14/02 A3009 RMK AO2 SLP191 T01390022=
201101142353 METAR KCLM 142353Z AUTO 31011KT 10SM CLR 11/07 A3007 RMK AO2 SLP183 60001 T01110072 10139 20078 51017=
201101142253 METAR KCLM 142253Z AUTO 32011G18KT 10SM FEW065 11/08 A3006 RMK AO2 SLP180 T01110083=
201101142153 METAR KCLM 142153Z AUTO 31005KT 10SM CLR 13/09 A3004 RMK AO2 SLP172 T01330089=
201101142053 METAR KCLM 142053Z AUTO 24011KT 10SM SCT039 13/08 A3002 RMK AO2 SLP167 60001 T01280083 58002=
201101141953 METAR KCLM 141953Z AUTO 27005KT 10SM FEW001 BKN060 09/08 A3003 RMK AO2 SLP171 T00940078=
201101141949 SPECI KCLM 141949Z AUTO 29005KT 10SM SCT001 BKN055 09/08 A3004 RMK AO2=
201101141949 SPECI KCLM 141949Z AUTO 29005KT 10SM SCT001 BKN055 09/08 A3004 RMK AO2=
201101141853 METAR KCLM 141853Z AUTO VRB03KT 5SM BR OVC001 08/08 A3003 RMK AO2 RAE31 SLP169 P0001 T00830078=
201101141841 SPECI KCLM 141841Z AUTO VRB04KT 5SM BR BKN001 BKN045 OVC065 08/07 A3001 RMK AO2 RAE31 P0001=
201101141841 SPECI KCLM 141841Z AUTO VRB04KT 5SM BR BKN001 BKN045 OVC065 08/07 A3001 RMK AO2 RAE31 P0001=
201101141833 SPECI KCLM 141833Z AUTO VRB05KT 6SM BR SCT001 BKN047 OVC065 08/07 A3001 RMK AO2 RAE31 P0001=
201101141833 SPECI KCLM 141833Z AUTO VRB05KT 6SM BR SCT001 BKN047 OVC065 08/07 A3001 RMK AO2 RAE31 P0001=
201101141753 METAR KCLM 141753Z AUTO VRB04KT 10SM -RA SCT055 OVC075 08/07 A2997 RMK AO2 RAE20B45 SLP151 P0000 60001 T00830072 10083 20061 53001=
201101141653 METAR KCLM 141653Z AUTO 00000KT 5SM -RA BR FEW001 BKN050 OVC100 07/07 A2996 RMK AO2 SLP149 P0000 T00720067=
201101141651 SPECI KCLM 141651Z AUTO 00000KT 6SM -RA BR FEW001 BKN046 OVC100 07/07 A2995 RMK AO2 P0000=
201101141651 SPECI KCLM 141651Z AUTO 00000KT 6SM -RA BR FEW001 BKN046 OVC100 07/07 A2995 RMK AO2 P0000=
201101141553 METAR KCLM 141553Z AUTO 15004KT 10SM -RA BKN048 OVC095 07/06 A2997 RMK AO2 SLP150 P0000 T00670056=
201101141453 METAR KCLM 141453Z AUTO 00000KT 10SM -RA SCT039 SCT060 OVC090 08/07 A3000 RMK AO2 PK WND 34029/1440 SLP161 P0001 60001 T00780067 58020=
201101141444 SPECI KCLM 141444Z AUTO 07013G29KT 330V150 8SM -RA SQ BKN039 BKN060 OVC090 08/07 A3000 RMK AO2 PK WND 34029/1440 PRESFR P0001=
201101141444 SPECI KCLM 141444Z AUTO 07013G29KT 330V150 8SM -RA SQ BKN039 BKN060 OVC090 08/07 A3000 RMK AO2 PK WND 34029/1440 PRESFR P0001=
201101141426 SPECI KCLM 141426Z AUTO 16004KT 10SM -RA SCT010 OVC060 08/07 A3003 RMK AO2 P0000=
201101141426 SPECI KCLM 141426Z AUTO 16004KT 10SM -RA SCT010 OVC060 08/07 A3003 RMK AO2 P0000=
201101141353 METAR KCLM 141353Z AUTO 12005KT 10SM -RA BKN010 BKN016 OVC070 08/07 A3004 RMK AO2 RAB22 SLP173 P0000 T00830067=
201101141301 SPECI KCLM 141301Z AUTO 14005KT 10SM BKN012 BKN042 OVC090 08/07 A3006 RMK AO2=
201101141301 SPECI KCLM 141301Z AUTO 14005KT 10SM BKN012 BKN042 OVC090 08/07 A3006 RMK AO2=
201101141253 METAR KCLM 141253Z AUTO 14005KT 10SM SCT012 BKN042 OVC085 08/07 A3006 RMK AO2 RAB01E32 SLP181 P0000 T00830067=
201101141153 METAR KCLM 141153Z AUTO 12007KT 10SM FEW007 BKN070 OVC085 08/07 A3006 RMK AO2 RAB18E49 SLP180 P0000 60000 70004 T00830067 10089 20067 56002=
201101141139 SPECI KCLM 141139Z AUTO 09004KT 10SM -RA FEW007 SCT012 OVC060 08/07 A3007 RMK AO2 RAB18 P0000=
201101141139 SPECI KCLM 141139Z AUTO 09004KT 10SM -RA FEW007 SCT012 OVC060 08/07 A3007 RMK AO2 RAB18 P0000=
201101141130 SPECI KCLM 141130Z AUTO 00000KT 10SM -RA SCT007 BKN014 OVC060 08/07 A3008 RMK AO2 RAB18 P0000=
201101141130 SPECI KCLM 141130Z AUTO 00000KT 10SM -RA SCT007 BKN014 OVC060 08/07 A3008 RMK AO2 RAB18 P0000=
201101141116 SPECI KCLM 141116Z AUTO 10004KT 10SM BKN007 BKN020 OVC060 08/07 A3008 RMK AO2 CIG 006V013=
201101141116 SPECI KCLM 141116Z AUTO 10004KT 10SM BKN007 BKN020 OVC060 08/07 A3008 RMK AO2 CIG 006V013=
201101141053 METAR KCLM 141053Z AUTO 09005KT 10SM BKN012 BKN022 OVC100 08/07 A3006 RMK AO2 SLP181 T00830067=
201101141044 SPECI KCLM 141044Z AUTO 12006KT 10SM SCT010 BKN070 OVC110 08/07 A3006 RMK AO2=
201101141044 SPECI KCLM 141044Z AUTO 12006KT 10SM SCT010 BKN070 OVC110 08/07 A3006 RMK AO2=
201101141035 SPECI KCLM 141035Z AUTO 13008KT 10SM BKN010 BKN110 08/07 A3006 RMK AO2=
201101141035 SPECI KCLM 141035Z AUTO 13008KT 10SM BKN010 BKN110 08/07 A3006 RMK AO2=
201101141010 SPECI KCLM 141010Z AUTO 14013KT 10SM SCT010 BKN080 BKN100 08/07 A3006 RMK AO2=
201101141010 SPECI KCLM 141010Z AUTO 14013KT 10SM SCT010 BKN080 BKN100 08/07 A3006 RMK AO2=
201101140953 METAR KCLM 140953Z AUTO 13008KT 10SM BKN010 OVC015 08/07 A3007 RMK AO2 SLP182 T00780067=
201101140853 METAR KCLM 140853Z AUTO 08004KT 10SM OVC012 08/07 A3006 RMK AO2 SLP180 T00830067 53016=
201101140753 METAR KCLM 140753Z AUTO 06004KT 10SM OVC012 08/07 A3004 RMK AO2 SLP174 T00830072 401170033=
201101140653 METAR KCLM 140653Z AUTO 00000KT 10SM OVC012 08/07 A3002 RMK AO2 SLP167 T00780067=
201101140553 METAR KCLM 140553Z AUTO 00000KT 10SM OVC012 07/06 A3001 RMK AO2 SLP166 T00670061 10089 20056 53031=
201101140512 SPECI KCLM 140512Z AUTO 00000KT 10SM BKN012 BKN021 OVC060 07/07 A2999 RMK AO2=
201101140512 SPECI KCLM 140512Z AUTO 00000KT 10SM BKN012 BKN021 OVC060 07/07 A2999 RMK AO2=
201101140453 METAR KCLM 140453Z AUTO 00000KT 10SM SCT012 OVC065 06/06 A2998 RMK AO2 SLP155 T00610056=
201101140353 METAR KCLM 140353Z AUTO 00000KT 5SM BR BKN065 OVC080 07/06 A2995 RMK AO2 SLP144 T00670056=
201101140253 METAR KCLM 140253Z AUTO 00000KT 4SM BR BKN060 BKN100 07/06 A2992 RMK AO2 SLP134 T00670061 53014=
201101140240 SPECI KCLM 140240Z AUTO 00000KT 5SM BR BKN060 07/07 A2992 RMK AO2=
201101140240 SPECI KCLM 140240Z AUTO 00000KT 5SM BR BKN060 07/07 A2992 RMK AO2=
201101140230 SPECI KCLM 140230Z AUTO 00000KT 2 1/2SM BR BKN060 OVC080 07/06 A2992 RMK AO2 VIS 1 1/4V5=
201101140230 SPECI KCLM 140230Z AUTO 00000KT 2 1/2SM BR BKN060 OVC080 07/06 A2992 RMK AO2 VIS 1 1/4V5=
201101140153 METAR KCLM 140153Z AUTO 00000KT 3SM BR BKN060 OVC090 07/06 A2990 RMK AO2 SLP127 T00670061=
201101140053 METAR KCLM 140053Z AUTO 00000KT 10SM OVC065 08/07 A2990 RMK AO2 SLP125 T00780072=
201101132353 METAR KCLM 132353Z AUTO 00000KT 10SM BKN060 OVC075 09/07 A2988 RMK AO2 SLP120 60000 T00890072 10117 20061 53013=
201101132253 METAR KCLM 132253Z AUTO 06004KT 10SM BKN060 OVC085 09/08 A2985 RMK AO2 SLP108 T00940078=
201101132153 METAR KCLM 132153Z AUTO 14006KT 10SM OVC060 10/08 A2982 RMK AO2 RAB2057E45 SLP101 P0000 T01000078=
201101132053 METAR KCLM 132053Z AUTO 13006KT 10SM FEW010 OVC060 09/07 A2984 RMK AO2 RAB17E45 SLP107 P0000 60000 T00890072 53018=
201101132044 SPECI KCLM 132044Z AUTO 12007KT 10SM -RA FEW010 OVC060 09/07 A2984 RMK AO2 RAB17 P0000=
201101132044 SPECI KCLM 132044Z AUTO 12007KT 10SM -RA FEW010 OVC060 09/07 A2984 RMK AO2 RAB17 P0000=
201101132036 SPECI KCLM 132036Z AUTO 11006KT 10SM -RA BKN010 OVC065 09/07 A2984 RMK AO2 RAB17 P0000=
201101132036 SPECI KCLM 132036Z AUTO 11006KT 10SM -RA BKN010 OVC065 09/07 A2984 RMK AO2 RAB17 P0000=
201101132020 SPECI KCLM 132020Z AUTO 12004KT 10SM -RA BKN008 OVC060 09/07 A2984 RMK AO2 RAB17 P0000=
201101132020 SPECI KCLM 132020Z AUTO 12004KT 10SM -RA BKN008 OVC060 09/07 A2984 RMK AO2 RAB17 P0000=
201101132006 SPECI KCLM 132006Z AUTO 00000KT 10SM SCT008 OVC065 08/07 A2983 RMK AO2=
201101132006 SPECI KCLM 132006Z AUTO 00000KT 10SM SCT008 OVC065 08/07 A2983 RMK AO2=
201101131953 METAR KCLM 131953Z AUTO 13004KT 10SM BKN070 OVC100 08/06 A2982 RMK AO2 SLP100 T00780061=
201101131853 METAR KCLM 131853Z AUTO 15003KT 7SM SCT001 07/06 A2980 RMK AO2 RAE1759 SLP094 P0000 T00670061=
201101131842 SPECI KCLM 131842Z AUTO 00000KT 5SM BR BKN001 BKN005 07/06 A2981 RMK AO2 RAE1759 CIG 001V004 P0000=
201101131842 SPECI KCLM 131842Z AUTO 00000KT 5SM BR BKN001 BKN005 07/06 A2981 RMK AO2 RAE1759 CIG 001V004 P0000=
201101131823 SPECI KCLM 131823Z AUTO 00000KT 5SM BR OVC003 07/06 A2979 RMK AO2 RAE1759 CIG 001V007 P0000=
201101131823 SPECI KCLM 131823Z AUTO 00000KT 5SM BR OVC003 07/06 A2979 RMK AO2 RAE1759 CIG 001V007 P0000=
201101131753 METAR KCLM 131753Z AUTO 04006KT 5SM -RA BR BKN001 OVC042 06/06 A2979 RMK AO2 RAB1659 SLP089 P0000 60004 T00610056 10067 20033 51022=
201101131653 METAR KCLM 131653Z AUTO 26004KT 9SM FEW002 BKN065 OVC080 05/04 A2977 RMK AO2 RAE42 SLP082 P0000 T00500044=
201101131643 SPECI KCLM 131643Z AUTO 19004KT 8SM SCT002 SCT038 OVC070 05/04 A2976 RMK AO2 RAE42 P0000=
201101131643 SPECI KCLM 131643Z AUTO 19004KT 8SM SCT002 SCT038 OVC070 05/04 A2976 RMK AO2 RAE42 P0000=
201101131553 METAR KCLM 131553Z AUTO 18003KT 4SM -RA BR OVC002 05/04 A2975 RMK AO2 RAB1456E09B36 SLP077 P0000 T00500044=
201101131453 METAR KCLM 131453Z AUTO 00000KT 10SM OVC004 04/04 A2972 RMK AO2 RAE41 SLP067 P0000 60004 T00440039 56026=
201101131353 METAR KCLM 131353Z AUTO 00000KT 10SM -RA OVC004 04/03 A2974 RMK AO2 SLP071 P0000 T00440033 $=
201101131253 METAR KCLM 131253Z AUTO 20003KT 10SM -RA BKN004 OVC008 04/03 A2976 RMK AO2 SLP080 P0004 T00440033 $=
201101131243 SPECI KCLM 131243Z AUTO 00000KT 7SM -RA BKN006 OVC040 04/04 A2976 RMK AO2 P0004 $=
201101131243 SPECI KCLM 131243Z AUTO 00000KT 7SM -RA BKN006 OVC040 04/04 A2976 RMK AO2 P0004 $=
201101131222 SPECI KCLM 131222Z AUTO 18004KT 4SM -RA BR SCT008 OVC032 04/04 A2978 RMK AO2 PRESFR P0003 $=
201101131222 SPECI KCLM 131222Z AUTO 18004KT 4SM -RA BR SCT008 OVC032 04/04 A2978 RMK AO2 PRESFR P0003 $=
201101131153 METAR KCLM 131153Z AUTO 00000KT 6SM -RA BR BKN008 OVC060 04/03 A2980 RMK AO2 RAB23 SLP093 P0000 60008 70022 T00390033 10050 20033 56038 $=
201101131145 SPECI KCLM 131145Z AUTO 00000KT 7SM -RA BKN008 OVC060 04/04 A2979 RMK AO2 RAB23 P0000 $=
201101131145 SPECI KCLM 131145Z AUTO 00000KT 7SM -RA BKN008 OVC060 04/04 A2979 RMK AO2 RAB23 P0000 $=
201101131137 SPECI KCLM 131137Z AUTO 00000KT 2SM BR OVC008 04/03 A2980 RMK AO2 VIS 1 1/2V5 RAB23E32 P0000 $=
201101131137 SPECI KCLM 131137Z AUTO 00000KT 2SM BR OVC008 04/03 A2980 RMK AO2 VIS 1 1/2V5 RAB23E32 P0000 $=
201101131120 SPECI KCLM 131120Z AUTO 00000KT 1 3/4SM BR BKN010 BKN065 04/03 A2980 RMK AO2 VIS 1V4 $=
201101131120 SPECI KCLM 131120Z AUTO 00000KT 1 3/4SM BR BKN010 BKN065 04/03 A2980 RMK AO2 VIS 1V4 $=
201101131101 SPECI KCLM 131101Z AUTO 00000KT 1 3/4SM BR FEW003 BKN095 BKN120 04/03 A2982 RMK AO2 $=
201101131101 SPECI KCLM 131101Z AUTO 00000KT 1 3/4SM BR FEW003 BKN095 BKN120 04/03 A2982 RMK AO2 $=
201101131053 METAR KCLM 131053Z AUTO 00000KT 9SM FEW001 SCT007 OVC100 04/03 A2982 RMK AO2 RAE19 SLP100 P0000 T00390033 $=
201101131050 SPECI KCLM 131050Z AUTO 19003KT 8SM SCT001 SCT007 OVC100 04/03 A2983 RMK AO2 RAE19 P0000 $=
201101131050 SPECI KCLM 131050Z AUTO 19003KT 8SM SCT001 SCT007 OVC100 04/03 A2983 RMK AO2 RAE19 P0000 $=
201101131026 SPECI KCLM 131026Z AUTO 12003KT 4SM BR BKN003 OVC007 04/03 A2984 RMK AO2 RAE19 PRESFR P0000 $=
201101131026 SPECI KCLM 131026Z AUTO 12003KT 4SM BR BKN003 OVC007 04/03 A2984 RMK AO2 RAE19 PRESFR P0000 $=
201101130953 METAR KCLM 130953Z AUTO 00000KT 10SM -RA BKN005 OVC055 04/03 A2988 RMK AO2 SLP119 P0001 T00390033 $=
201101130946 SPECI KCLM 130946Z AUTO 00000KT 10SM -RA BKN005 OVC049 04/03 A2988 RMK AO2 P0001 $=
201101130946 SPECI KCLM 130946Z AUTO 00000KT 10SM -RA BKN005 OVC049 04/03 A2988 RMK AO2 P0001 $=
201101130939 SPECI KCLM 130939Z AUTO 19003KT 10SM -RA SCT005 OVC050 04/03 A2989 RMK AO2 P0001 $=
201101130939 SPECI KCLM 130939Z AUTO 19003KT 10SM -RA SCT005 OVC050 04/03 A2989 RMK AO2 P0001 $=
201101130853 METAR KCLM 130853Z AUTO 00000KT 5SM -RA BR OVC005 04/04 A2991 RMK AO2 PRESFR SLP131 P0004 60007 T00440039 58027 $=
201101130815 SPECI KCLM 130815Z AUTO 00000KT 5SM -RA BR BKN005 OVC033 04/03 A2996 RMK AO2 P0001 $=
201101130815 SPECI KCLM 130815Z AUTO 00000KT 5SM -RA BR BKN005 OVC033 04/03 A2996 RMK AO2 P0001 $=
201101130807 SPECI KCLM 130807Z AUTO 00000KT 4SM -RA BR SCT007 BKN035 OVC044 04/04 A2996 RMK AO2 P0001 $=
201101130807 SPECI KCLM 130807Z AUTO 00000KT 4SM -RA BR SCT007 BKN035 OVC044 04/04 A2996 RMK AO2 P0001 $=
201101130753 METAR KCLM 130753Z AUTO 00000KT 3SM -RA BR BKN035 OVC044 04/03 A2997 RMK AO2 SLP150 P0002 T00440033 400830000 $=
201101130653 METAR KCLM 130653Z AUTO 15003KT 10SM -RA FEW009 BKN038 OVC060 04/03 A2999 RMK AO2 SLP158 P0001 T00440033 $=
201101130648 SPECI KCLM 130648Z AUTO 11003KT 10SM -RA SCT009 BKN038 OVC060 05/04 A3000 RMK AO2 P0001 $=
201101130648 SPECI KCLM 130648Z AUTO 11003KT 10SM -RA SCT009 BKN038 OVC060 05/04 A3000 RMK AO2 P0001 $=
201101130630 SPECI KCLM 130630Z AUTO 00000KT 10SM -RA OVC009 04/04 A3001 RMK AO2 P0001 $=
201101130630 SPECI KCLM 130630Z AUTO 00000KT 10SM -RA OVC009 04/04 A3001 RMK AO2 P0001 $=
201101130553 METAR KCLM 130553Z AUTO 00000KT 4SM -RA BR OVC012 04/03 A3003 RMK AO2 SLP170 P0001 60001 T00390033 10067 20039 58003 $=
201101130453 METAR KCLM 130453Z AUTO 00000KT 10SM -RA OVC014 04/03 A3004 RMK AO2 RAB40 SLP173 P0000 T00390033 $=
201101130353 METAR KCLM 130353Z AUTO 00000KT 10SM OVC014 04/03 A3003 RMK AO2 SLP172 T00440033 $=
201101130309 SPECI KCLM 130309Z AUTO 00000KT 10SM BKN011 OVC018 04/03 A3004 RMK AO2 $=
201101130309 SPECI KCLM 130309Z AUTO 00000KT 10SM BKN011 OVC018 04/03 A3004 RMK AO2 $=
201101130253 METAR KCLM 130253Z AUTO 00000KT 10SM OVC018 06/03 A3004 RMK AO2 SLP173 T00560033 50009 $=
201101130153 METAR KCLM 130153Z AUTO 25003KT 10SM OVC018 06/04 A3005 RMK AO2 SLP177 T00560039 $=
201101130053 METAR KCLM 130053Z AUTO VRB04KT 10SM OVC018 07/04 A3004 RMK AO2 SLP174 T00670039 $=
201101130015 SPECI KCLM 130015Z AUTO 29006KT 10SM OVC016 07/04 A3002 RMK AO2 $=
201101130015 SPECI KCLM 130015Z AUTO 29006KT 10SM OVC016 07/04 A3002 RMK AO2 $=
201101122353 METAR KCLM 122353Z AUTO 29007KT 10SM OVC014 07/04 A3001 RMK AO2 SLP164 T00670039 10083 20067 53035 $=
201101122253 METAR KCLM 122253Z AUTO 35005KT 10SM BKN016 BKN022 OVC044 08/05 A2996 RMK AO2 SLP147 T00780050 $=
201101122153 METAR KCLM 122153Z AUTO 06003KT 10SM FEW017 BKN021 OVC055 08/05 A2991 RMK AO2 SLP130 T00830050 $=
201101122149 SPECI KCLM 122149Z AUTO 00000KT 10SM SCT019 BKN025 OVC055 08/05 A2990 RMK AO2 $=
201101122149 SPECI KCLM 122149Z AUTO 00000KT 10SM SCT019 BKN025 OVC055 08/05 A2990 RMK AO2 $=
201101122053 METAR KCLM 122053Z AUTO 12004KT 10SM FEW020 OVC060 08/06 A2987 RMK AO2 SLP116 T00830056 51045 $=
201101121953 METAR KCLM 121953Z AUTO 09004KT 10SM OVC060 07/04 A2983 RMK AO2 SLP104 T00720044 $=
201101121853 METAR KCLM 121853Z AUTO 00000KT 10SM BKN060 07/04 A2978 RMK AO2 SLP087 T00720039 $=
201101121753 METAR KCLM 121753Z AUTO 10006KT 10SM OVC060 06/04 A2973 RMK AO2 SLP071 60013 T00560039 10067 20006 53045 $=
201101121653 METAR KCLM 121653Z AUTO 15005KT 10SM SCT060 03/03 A2968 RMK AO2 SLP052 T00330028 $=
201101121553 METAR KCLM 121553Z AUTO 25010G17KT 10SM BKN060 07/04 A2963 RMK AO2 RAE1458 SLP034 P0000 T00670039 $=
201101121453 METAR KCLM 121453Z AUTO 27008KT 10SM -RA BKN039 OVC055 03/02 A2960 RMK AO2 SLP026 P0003 60013 T00330022 $=
201101121353 METAR KCLM 121353Z AUTO 19005KT 6SM -RA BR OVC035 01/00 A2961 RMK AO2 SLP028 P0005 T00060000 $=
201101121253 METAR KCLM 121253Z AUTO 00000KT 5SM -RA BR OVC033 01/00 A2960 RMK AO2 RAB21 SLP026 P0005 T00060000 $=
201101121154 METAR KCLM 121154Z AUTO 16005KT -RA 01/M01 A2960 RMK AO2 RAB47 SLP026 P0005 60027 70034 T00061006 10006 21006 $=
201101121053 METAR KCLM 121053Z AUTO 4SM -RA BR BKN033 OVC044 01/00 A2962 RMK AO2 SLP032 P0007 T00060000 $=
201101121016 SPECI KCLM 121016Z AUTO 5SM -RA BR FEW004 OVC038 01/M01 A2963 RMK AO2 P0002 $=
201101121016 SPECI KCLM 121016Z AUTO 5SM -RA BR FEW004 OVC038 01/M01 A2963 RMK AO2 P0002 $=
201101120953 METAR KCLM 120953Z AUTO 7SM -RA BKN038 OVC046 01/M01 A2962 RMK AO2 UPE37RAB37 SLP034 P0005 T00061006 $=
201101120853 METAR KCLM 120853Z AUTO 00000KT 8SM UP SCT036 OVC049 00/M01 A2964 RMK AO2 UPB48FZRAE48 PRESFR SLP039 P0004 60010 T00001006 $=
201101120753 METAR KCLM 120753Z AUTO 00000KT 7SM -FZRA OVC030 00/M01 A2968 RMK AO2 RAB19E23FZRAB23 SLP053 P0003 T00001011 400111039 $=
201101120729 SPECI KCLM 120729Z AUTO 25003KT 9SM -FZRA 00/M01 A2971 RMK AO2 RAB19E23FZRAB23 P0001 $=
201101120729 SPECI KCLM 120729Z AUTO 25003KT 9SM -FZRA 00/M01 A2971 RMK AO2 RAB19E23FZRAB23 P0001 $=
201101120653 METAR KCLM 120653Z AUTO 25003KT 10SM -FZRA SCT004 OVC032 M01/M01 A2974 RMK AO2 UPB27E44FZRAB44SNE27 SLP074 P0003 T10061011 $=
201101120650 SPECI KCLM 120650Z AUTO 23003KT 10SM -FZRA BKN004 OVC032 M01/M01 A2975 RMK AO2 UPB27E44FZRAB44SNE27 P0003 $=
201101120650 SPECI KCLM 120650Z AUTO 23003KT 10SM -FZRA BKN004 OVC032 M01/M01 A2975 RMK AO2 UPB27E44FZRAB44SNE27 P0003 $=
201101120617 SPECI KCLM 120617Z AUTO 00000KT 5SM -SN BR BKN004 BKN021 OVC031 M01/M01 A2977 RMK AO2 P0002 $=
201101120617 SPECI KCLM 120617Z AUTO 00000KT 5SM -SN BR BKN004 BKN021 OVC031 M01/M01 A2977 RMK AO2 P0002 $=
201101120608 SPECI KCLM 120608Z AUTO 00000KT 3SM -SN BR SCT004 BKN012 OVC021 M01/M02 A2978 RMK AO2 P0001 $=
201101120608 SPECI KCLM 120608Z AUTO 00000KT 3SM -SN BR SCT004 BKN012 OVC021 M01/M02 A2978 RMK AO2 P0001 $=
201101120601 SPECI KCLM 120601Z AUTO 00000KT 1 1/2SM -SN BR SCT006 BKN014 OVC033 M01/M01 A2978 RMK AO2 PRESFR P0001 $=
201101120601 SPECI KCLM 120601Z AUTO 00000KT 1 1/2SM -SN BR SCT006 BKN014 OVC033 M01/M01 A2978 RMK AO2 PRESFR P0001 $=
201101120553 METAR KCLM 120553Z AUTO 00000KT 3/4SM -SN BR SCT004 BKN009 OVC014 M01/M02 A2979 RMK AO2 SNB19 PRESFR SLP091 P0004 60007 T10061017 10011 21011 $=
201101120551 SPECI KCLM 120551Z AUTO 19003KT 3/4SM -SN BR SCT004 BKN009 OVC014 M01/M01 A2981 RMK AO2 SNB19 P0004 $=
201101120551 SPECI KCLM 120551Z AUTO 19003KT 3/4SM -SN BR SCT004 BKN009 OVC014 M01/M01 A2981 RMK AO2 SNB19 P0004 $=
201101120534 SPECI KCLM 120534Z AUTO 00000KT 1SM -SN BR M01/M02 A2983 RMK AO2 SNB19 P0002 $=
201101120534 SPECI KCLM 120534Z AUTO 00000KT 1SM -SN BR M01/M02 A2983 RMK AO2 SNB19 P0002 $=
201101120511 SPECI KCLM 120511Z AUTO 00000KT 3/4SM -SN BR VV004 M01/M02 A2984 RMK AO2 P0001 $=
201101120511 SPECI KCLM 120511Z AUTO 00000KT 3/4SM -SN BR VV004 M01/M02 A2984 RMK AO2 P0001 $=
201101120453 METAR KCLM 120453Z AUTO 20003KT 1SM -SN BR VV004 M01/M02 A2985 RMK AO2 PRESFR SLP113 P0003 T10061017 $=
201101120448 SPECI KCLM 120448Z AUTO 00000KT 1 1/4SM -SN BR OVC004 M01/M02 A2986 RMK AO2 PRESFR P0003 $=
201101120448 SPECI KCLM 120448Z AUTO 00000KT 1 1/4SM -SN BR OVC004 M01/M02 A2986 RMK AO2 PRESFR P0003 $=
201101120421 SPECI KCLM 120421Z AUTO 25005KT 3/4SM -SN BR VV004 M01/M02 A2989 RMK AO2 P0001 $=
201101120421 SPECI KCLM 120421Z AUTO 25005KT 3/4SM -SN BR VV004 M01/M02 A2989 RMK AO2 P0001 $=
201101120406 SPECI KCLM 120406Z AUTO 24005KT 1 1/4SM -SN BR OVC008 M01/M02 A2990 RMK AO2 P0000 $=
201101120406 SPECI KCLM 120406Z AUTO 24005KT 1 1/4SM -SN BR OVC008 M01/M02 A2990 RMK AO2 P0000 $=
201101120353 METAR KCLM 120353Z AUTO 25005KT 1 1/2SM -SN BR BKN010 OVC029 M01/M02 A2991 RMK AO2 SLP132 P0000 T10111022 $=
201101120343 SPECI KCLM 120343Z AUTO 25006KT 2SM -SN BR BKN014 BKN021 OVC029 M01/M02 A2992 RMK AO2 P0000 $=
201101120343 SPECI KCLM 120343Z AUTO 25006KT 2SM -SN BR BKN014 BKN021 OVC029 M01/M02 A2992 RMK AO2 P0000 $=
201101120328 SPECI KCLM 120328Z AUTO 24006KT 3SM -SN BR BKN016 BKN020 OVC031 M01/M02 A2992 RMK AO2 P0000 $=
201101120328 SPECI KCLM 120328Z AUTO 24006KT 3SM -SN BR BKN016 BKN020 OVC031 M01/M02 A2992 RMK AO2 P0000 $=
201101120313 SPECI KCLM 120313Z AUTO 2 1/2SM -SN BR OVC012 M01/M02 A2993 RMK AO2 P0000 $=
201101120313 SPECI KCLM 120313Z AUTO 2 1/2SM -SN BR OVC012 M01/M02 A2993 RMK AO2 P0000 $=
201101120303 SPECI KCLM 120303Z AUTO 25007KT 2SM -SN BR OVC016 M01/M03 A2993 RMK AO2 P0000=
201101120303 SPECI KCLM 120303Z AUTO 25007KT 2SM -SN BR OVC016 M01/M03 A2993 RMK AO2 P0000=
201101120253 METAR KCLM 120253Z AUTO 24007KT 4SM -SN OVC022 M01/M03 A2993 RMK AO2 SNB46 SLP139 P0000 60000 T10061033 56042=
201101120232 SPECI KCLM 120232Z AUTO 24004KT 10SM OVC028 00/M04 A2994 RMK AO2=
201101120232 SPECI KCLM 120232Z AUTO 24004KT 10SM OVC028 00/M04 A2994 RMK AO2=
201101120153 METAR KCLM 120153Z AUTO 25003KT 10SM BKN046 OVC060 00/M04 A2997 RMK AO2 SLP151 T00001044=
201101120053 METAR KCLM 120053Z AUTO 00000KT 10SM BKN065 OVC090 01/M05 A3001 RMK AO2 SLP164 T00061050=
201101112353 METAR KCLM 112353Z AUTO 00000KT 10SM BKN042 OVC049 01/M06 A3006 RMK AO2 SLP180 T00061061 10011 21011 58017=
201101112253 METAR KCLM 112253Z AUTO 00000KT 10SM BKN047 OVC060 01/M07 A3008 RMK AO2 SLP187 T00111067=
201101112153 METAR KCLM 112153Z AUTO 23004KT 10SM BKN070 01/M04 A3009 RMK AO2 SLP192 T00061044=
201101112053 METAR KCLM 112053Z AUTO 00000KT 10SM BKN090 00/M07 A3011 RMK AO2 SLP197 T00001067=
201101111954 METAR KCLM 111954Z AUTO 00000KT 10SM 00/M06 A3013 RMK AO2 SLP207 T00001061 $=
201101111853 METAR KCLM 111853Z AUTO 00000KT 10SM OVC090 M01/M06 A3016 RMK AO2 SLP216 T10061056 $=
201101111753 METAR KCLM 111753Z AUTO 00000KT 10SM OVC100 M01/M04 A3018 RMK AO2 SLP222 T10111044 11011 21039 50000 PWINO FZRANO $=
201101111653 METAR KCLM 111653Z AUTO 17003KT 10SM M02/M05 A3018 RMK AO2 SLP223 T10171050 $=
201101111553 METAR KCLM 111553Z AUTO 16003KT 10SM OVC110 M02/M06 A3017 RMK AO2 SLP220 T10221056 $=
201101111453 METAR KCLM 111453Z AUTO 15004KT 10SM BKN110 M03/M04 A3018 RMK AO2 SLP222 T10331044 56016 $=
201101111353 METAR KCLM 111353Z AUTO 13005KT 10SM FEW120 M02/M04 A3018 RMK AO2 SLP224 T10221044 $=
201101111253 METAR KCLM 111253Z AUTO 00000KT 10SM BKN120 M02/M03 A3020 RMK AO2 SLP228 T10221033 $=
201101111153 METAR KCLM 111153Z AUTO 00000KT 10SM CLR M02/M03 A3022 RMK AO2 SLP237 T10171028 10000 21028 $=
201101111053 METAR KCLM 111053Z AUTO 00000KT 10SM M02/M03 A3023 RMK AO2 SLP240 T10221033 $=
201101110953 METAR KCLM 110953Z AUTO 00000KT 10SM SCT090 M02/M03 A3023 RMK AO2 SLP239 T10221028 $=
201101110853 METAR KCLM 110853Z AUTO 00000KT 10SM OVC090 M01/M02 A3024 RMK AO2 SLP242 T10111022 58011 $=
201101110753 METAR KCLM 110753Z AUTO 00000KT 10SM OVC090 M01/M02 A3025 RMK AO2 SLP246 T10061017 400171044 $=
201101110653 METAR KCLM 110653Z AUTO 00000KT 10SM OVC090 M01/M02 A3027 RMK AO2 SLP253 T10061017 $=
201101110605 SPECI KCLM 110605Z AUTO 00000KT 10SM SCT017 OVC095 M01/M02 A3027 RMK AO2 $=
201101110605 SPECI KCLM 110605Z AUTO 00000KT 10SM SCT017 OVC095 M01/M02 A3027 RMK AO2 $=
201101110553 METAR KCLM 110553Z AUTO 22003KT 10SM BKN017 OVC095 00/M02 A3027 RMK AO2 SLP253 60000 T00001017 10011 21006 56004 $=
201101110529 SPECI KCLM 110529Z AUTO 00000KT 10SM BKN017 OVC090 00/M02 A3027 RMK AO2 $=
201101110529 SPECI KCLM 110529Z AUTO 00000KT 10SM BKN017 OVC090 00/M02 A3027 RMK AO2 $=
201101110500 SPECI KCLM 110500Z AUTO 00000KT 10SM SCT019 OVC090 01/M02 A3027 RMK AO2 $=
201101110500 SPECI KCLM 110500Z AUTO 00000KT 10SM SCT019 OVC090 01/M02 A3027 RMK AO2 $=
201101110453 METAR KCLM 110453Z AUTO 00000KT 10SM BKN019 OVC090 01/M02 A3027 RMK AO2 SLP253 T00061022 $=
201101110353 METAR KCLM 110353Z AUTO 22003KT 10SM OVC023 01/M02 A3028 RMK AO2 SLP255 T00061022 $=
201101110253 METAR KCLM 110253Z AUTO 00000KT 10SM FEW016 SCT021 OVC025 01/M02 A3028 RMK AO2 SNB18E28 SLP257 P0000 60000 T00061022 56007 $=
201101110153 METAR KCLM 110153Z AUTO 23003KT 10SM OVC021 01/M02 A3029 RMK AO2 SLP259 T00061022 $=
201101110053 METAR KCLM 110053Z AUTO 00000KT 10SM OVC021 01/M02 A3029 RMK AO2 SLP261 T00111022 $=
201101102353 METAR KCLM 102353Z AUTO 00000KT 10SM OVC019 01/M02 A3030 RMK AO2 SLP264 T00111022 10017 21006 58004 $=
201101102253 METAR KCLM 102253Z AUTO 00000KT 10SM OVC019 01/M03 A3031 RMK AO2 SLP267 T00111028 $=
201101102153 METAR KCLM 102153Z AUTO 00000KT 10SM SCT019 OVC025 02/M02 A3031 RMK AO2 SLP266 T00171022 $=
201101102053 METAR KCLM 102053Z AUTO 13004KT 10SM OVC027 02/M03 A3031 RMK AO2 SLP268 T00171028 58013 $=
201101101953 METAR KCLM 101953Z AUTO 00000KT 10SM SCT022 OVC027 01/M03 A3033 RMK AO2 SLP272 T00111033 $=
201101101853 METAR KCLM 101853Z AUTO 00000KT 10SM BKN025 OVC030 00/M04 A3035 RMK AO2 SLP279 T00001039 $=
201101101844 SPECI KCLM 101844Z AUTO 00000KT 10SM BKN027 OVC085 00/M04 A3035 RMK AO2 $=
201101101844 SPECI KCLM 101844Z AUTO 00000KT 10SM BKN027 OVC085 00/M04 A3035 RMK AO2 $=
201101101753 METAR KCLM 101753Z AUTO 23003KT 10SM FEW021 BKN034 OVC085 00/M04 A3035 RMK AO2 SLP281 T00001044 10000 21044 $=
201101101700 METAR KCLM NIL=
201101101553 METAR KCLM 101553Z AUTO 24004KT 10SM OVC036 M02/M05 A3035 RMK AO2 SLP280 T10171050 $=
201101101530 SPECI KCLM 101530Z AUTO 24005KT 10SM SCT023 OVC036 M02/M05 A3034 RMK AO2 $=
201101101530 SPECI KCLM 101530Z AUTO 24005KT 10SM SCT023 OVC036 M02/M05 A3034 RMK AO2 $=
201101101453 METAR KCLM 101453Z AUTO 24006KT 10SM BKN023 OVC031 M02/M05 A3034 RMK AO2 SLP277 T10171050 53006 $=
201101101426 SPECI KCLM 101426Z AUTO 23004KT 10SM OVC028 M02/M05 A3033 RMK AO2 $=
201101101426 SPECI KCLM 101426Z AUTO 23004KT 10SM OVC028 M02/M05 A3033 RMK AO2 $=
201101101353 METAR KCLM 101353Z AUTO 22003KT 10SM BKN032 M03/M06 A3032 RMK AO2 SLP272 T10281056 $=
201101101253 METAR KCLM 101253Z AUTO 23006KT 10SM OVC032 M03/M06 A3032 RMK AO2 SLP271 T10281056 TSNO $=
201101101153 METAR KCLM 101153Z AUTO 00000KT 10SM SCT032 SCT050 M03/M06 A3032 RMK AO2 SLP271 T10331061 11017 21044 50004 TSNO $=
201101101053 METAR KCLM 101053Z AUTO 23004KT 10SM CLR M02/M06 A3033 RMK AO2 SLP272 T10221061 TSNO=
201101100953 METAR KCLM 100953Z AUTO 24006KT 10SM BKN049 M02/M06 A3032 RMK AO2 SLP270 T10221056 TSNO=
201101100853 METAR KCLM 100853Z AUTO 25007KT 10SM OVC049 M02/M06 A3031 RMK AO2 SLP267 T10171061 51007 TSNO=
201101100753 METAR KCLM 100753Z AUTO 24005KT 10SM BKN049 M02/M06 A3031 RMK AO2 SLP266 T10171061 400281033 TSNO=
201101100653 METAR KCLM 100653Z AUTO 25006KT 10SM CLR M02/M06 A3030 RMK AO2 SLP263 T10171061 TSNO=
201101100553 METAR KCLM 100553Z AUTO 24009KT 10SM CLR M02/M06 A3029 RMK AO2 SLP259 T10171056 10022 21033 51010 TSNO=
201101100453 METAR KCLM 100453Z AUTO 25005KT 10SM CLR M03/M06 A3028 RMK AO2 SLP257 T10281056 TSNO=
201101100353 METAR KCLM 100353Z AUTO 22005KT 10SM CLR M02/M05 A3027 RMK AO2 SLP253 T10221050 TSNO=
201101100253 METAR KCLM 100253Z AUTO 21003KT 10SM CLR M02/M06 A3026 RMK AO2 SLP249 T10171056 53013 TSNO=
201101100153 METAR KCLM 100153Z AUTO 18003KT 10SM CLR M01/M05 A3024 RMK AO2 SLP243 T10111050 TSNO=
201101100053 METAR KCLM 100053Z AUTO 22003KT 10SM CLR M01/M06 A3023 RMK AO2 SLP239 T10111056=
201101092353 METAR KCLM 092353Z AUTO 00000KT 10SM FEW065 02/M07 A3022 RMK AO2 SLP236 T00171072 10028 20017 53016=
201101092253 METAR KCLM 092253Z AUTO 00000KT 10SM OVC060 02/M06 A3020 RMK AO2 SLP231 T00221056 TSNO=
201101092153 METAR KCLM 092153Z AUTO 31003KT 10SM OVC060 02/M06 A3018 RMK AO2 SLP224 T00221056 TSNO=
201101092053 METAR KCLM 092053Z AUTO 29003KT 10SM OVC060 02/M04 A3017 RMK AO2 SLP220 T00221044 58000 TSNO=
201101091953 METAR KCLM 091953Z AUTO 34004KT 10SM FEW036 OVC055 02/M05 A3017 RMK AO2 SLP220 T00221050 TSNO=
201101091853 METAR KCLM 091853Z AUTO VRB04KT 10SM SCT032 OVC049 02/M04 A3018 RMK AO2 SLP223 T00221044 TSNO=
201101091753 METAR KCLM 091753Z AUTO 00000KT 10SM SCT022 OVC041 02/M03 A3017 RMK AO2 SLP220 60000 T00171028 10022 20011 51020 TSNO=
201101091703 SPECI KCLM 091703Z AUTO VRB03KT 10SM BKN017 BKN024 OVC047 02/M02 A3016 RMK AO2=
201101091703 SPECI KCLM 091703Z AUTO VRB03KT 10SM BKN017 BKN024 OVC047 02/M02 A3016 RMK AO2=
201101091653 METAR KCLM 091653Z AUTO VRB05KT 10SM SCT017 BKN038 OVC049 02/M02 A3015 RMK AO2 SLP213 T00171022=
201101091650 SPECI KCLM 091650Z AUTO VRB06KT 10SM SCT017 BKN038 OVC047 02/M02 A3015 RMK AO2=
201101091650 SPECI KCLM 091650Z AUTO VRB06KT 10SM SCT017 BKN038 OVC047 02/M02 A3015 RMK AO2=
201101091553 METAR KCLM 091553Z AUTO VRB06G14KT 10SM SCT014 OVC027 02/M01 A3012 RMK AO2 SLP201 T00171011=
201101091506 SPECI KCLM 091506Z AUTO VRB06KT 10SM SCT013 OVC017 02/M01 A3010 RMK AO2=
201101091506 SPECI KCLM 091506Z AUTO VRB06KT 10SM SCT013 OVC017 02/M01 A3010 RMK AO2=
201101091453 METAR KCLM 091453Z AUTO VRB03KT 10SM OVC013 02/00 A3009 RMK AO2 SLP194 60000 T00220000 51006=
201101091449 SPECI KCLM 091449Z AUTO 03006KT 10SM BKN013 OVC020 02/00 A3009 RMK AO2=
201101091449 SPECI KCLM 091449Z AUTO 03006KT 10SM BKN013 OVC020 02/00 A3009 RMK AO2=
201101091407 SPECI KCLM 091407Z AUTO VRB03KT 10SM OVC015 02/M01 A3009 RMK AO2=
201101091407 SPECI KCLM 091407Z AUTO VRB03KT 10SM OVC015 02/M01 A3009 RMK AO2=
201101091353 METAR KCLM 091353Z AUTO VRB03KT 10SM OVC013 01/00 A3009 RMK AO2 RAE06 SLP191 P0000 T00110000=
201101091320 SPECI KCLM 091320Z AUTO 00000KT 10SM OVC011 01/00 A3008 RMK AO2 RAE06 P0000=
201101091320 SPECI KCLM 091320Z AUTO 00000KT 10SM OVC011 01/00 A3008 RMK AO2 RAE06 P0000=
201101091253 METAR KCLM 091253Z AUTO 00000KT 10SM -RA OVC007 01/01 A3008 RMK AO2 RAB14 CIG 006V011 SLP188 P0000 T00110006=
201101091217 SPECI KCLM 091217Z AUTO 00000KT 10SM -RA OVC009 01/00 A3008 RMK AO2 RAB14 CIG 007V013 P0000=
201101091217 SPECI KCLM 091217Z AUTO 00000KT 10SM -RA OVC009 01/00 A3008 RMK AO2 RAB14 CIG 007V013 P0000=
201101091200 SPECI KCLM 091200Z AUTO 00000KT 10SM OVC013 01/00 A3007 RMK AO2=
201101091200 SPECI KCLM 091200Z AUTO 00000KT 10SM OVC013 01/00 A3007 RMK AO2=
201101091153 METAR KCLM 091153Z AUTO 23003KT 10SM OVC015 01/00 A3008 RMK AO2 RAE1058 SLP187 P0000 60008 70008 T00110000 10028 20006 51006=
201101091108 SPECI KCLM 091108Z AUTO 00000KT 10SM BKN018 BKN029 OVC034 01/00 A3007 RMK AO2 RAE1058 P0000=
201101091108 SPECI KCLM 091108Z AUTO 00000KT 10SM BKN018 BKN029 OVC034 01/00 A3007 RMK AO2 RAE1058 P0000=
201101091053 METAR KCLM 091053Z AUTO 00000KT 10SM -RA OVC032 01/00 A3007 RMK AO2 RAB0959UPB32E36SNE18 SLP186 P0002 T00060000=
201101091034 SPECI KCLM 091034Z AUTO 14005KT 10SM UP SCT011 BKN029 OVC055 01/00 A3007 RMK AO2 RAB0959E32UPB32SNE18 P0002=
201101091034 SPECI KCLM 091034Z AUTO 14005KT 10SM UP SCT011 BKN029 OVC055 01/00 A3007 RMK AO2 RAB0959E32UPB32SNE18 P0002=
201101091011 SPECI KCLM 091011Z AUTO 17003KT 3SM -SN BR BKN011 OVC019 01/M01 A3007 RMK AO2 RAB0959E07 P0001=
201101091011 SPECI KCLM 091011Z AUTO 17003KT 3SM -SN BR BKN011 OVC019 01/M01 A3007 RMK AO2 RAB0959E07 P0001=
201101090953 METAR KCLM 090953Z AUTO 00000KT 9SM -SN SCT015 BKN021 OVC034 01/00 A3007 RMK AO2 RAB03E07B35E45 SLP184 P0001 T00060000=
201101090942 SPECI KCLM 090942Z AUTO 00000KT 10SM -RA SCT009 BKN017 OVC034 01/M01 A3006 RMK AO2 RAB03E07B35SNE35 P0001=
201101090942 SPECI KCLM 090942Z AUTO 00000KT 10SM -RA SCT009 BKN017 OVC034 01/M01 A3006 RMK AO2 RAB03E07B35SNE35 P0001=
201101090853 METAR KCLM 090853Z AUTO 00000KT 5SM -SN BR BKN009 OVC015 01/01 A3006 RMK AO2 RAE02B31E43SNB43 SLP180 P0001 60005 T00110006 58003=
201101090851 SPECI KCLM 090851Z AUTO 00000KT 6SM -SN BR BKN009 OVC015 01/01 A3006 RMK AO2 RAE02B31E43SNB43 P0001=
201101090851 SPECI KCLM 090851Z AUTO 00000KT 6SM -SN BR BKN009 OVC015 01/01 A3006 RMK AO2 RAE02B31E43SNB43 P0001=
201101090840 SPECI KCLM 090840Z AUTO 17005KT 7SM -RA SCT009 BKN012 OVC037 01/00 A3006 RMK AO2 RAE02B31 P0000=
201101090840 SPECI KCLM 090840Z AUTO 17005KT 7SM -RA SCT009 BKN012 OVC037 01/00 A3006 RMK AO2 RAE02B31 P0000=
201101090833 SPECI KCLM 090833Z AUTO 13003KT 9SM -RA SCT014 BKN023 OVC060 01/00 A3006 RMK AO2 RAE02B31 P0000=
201101090833 SPECI KCLM 090833Z AUTO 13003KT 9SM -RA SCT014 BKN023 OVC060 01/00 A3006 RMK AO2 RAE02B31 P0000=
201101090806 SPECI KCLM 090806Z AUTO 14006KT 10SM FEW003 SCT023 OVC060 01/00 A3006 RMK AO2 RAE02 P0000=
201101090806 SPECI KCLM 090806Z AUTO 14006KT 10SM FEW003 SCT023 OVC060 01/00 A3006 RMK AO2 RAE02 P0000=
201101090753 METAR KCLM 090753Z AUTO 09004KT 6SM -RA BR SCT011 SCT024 OVC060 01/00 A3007 RMK AO2 UPB10E29RAB29 SLP185 P0004 T00110000 400720011=
201101090750 SPECI KCLM 090750Z AUTO 08004KT 5SM -RA BR SCT011 BKN024 OVC060 01/00 A3007 RMK AO2 UPB10E29RAB29 P0004 400720011=
201101090750 SPECI KCLM 090750Z AUTO 08004KT 5SM -RA BR SCT011 BKN024 OVC060 01/00 A3007 RMK AO2 UPB10E29RAB29 P0004 400720011=
201101090728 SPECI KCLM 090728Z AUTO 04006KT 8SM UP FEW008 BKN014 OVC031 02/00 A3007 RMK AO2 UPB10 P0000=
201101090728 SPECI KCLM 090728Z AUTO 04006KT 8SM UP FEW008 BKN014 OVC031 02/00 A3007 RMK AO2 UPB10 P0000=
201101090725 SPECI KCLM 090725Z AUTO 01004KT 10SM UP BKN014 BKN022 OVC031 02/00 A3006 RMK AO2 UPB10 P0000=
201101090725 SPECI KCLM 090725Z AUTO 01004KT 10SM UP BKN014 BKN022 OVC031 02/00 A3006 RMK AO2 UPB10 P0000=
201101090700 METAR KCLM NIL=
201101090647 SPECI KCLM 090647Z AUTO 13006KT 10SM SCT009 BKN041 OVC055 02/00 A3005 RMK AO2 SNB25E34 P0000=
201101090647 SPECI KCLM 090647Z AUTO 13006KT 10SM SCT009 BKN041 OVC055 02/00 A3005 RMK AO2 SNB25E34 P0000=
201101090645 SPECI KCLM 090645Z AUTO 13007KT 10SM SCT009 BKN013 OVC055 02/00 A3005 RMK AO2 SNB25E34 P0000=
201101090645 SPECI KCLM 090645Z AUTO 13007KT 10SM SCT009 BKN013 OVC055 02/00 A3005 RMK AO2 SNB25E34 P0000=
201101090613 SPECI KCLM 090613Z AUTO 09005KT 10SM BKN009 BKN028 OVC042 03/01 A3006 RMK AO2 CIG 006V013=
201101090613 SPECI KCLM 090613Z AUTO 09005KT 10SM BKN009 BKN028 OVC042 03/01 A3006 RMK AO2 CIG 006V013=
201101090605 SPECI KCLM 090605Z AUTO 09003KT 10SM SCT009 BKN028 OVC040 02/01 A3006 RMK AO2=
201101090605 SPECI KCLM 090605Z AUTO 09003KT 10SM SCT009 BKN028 OVC040 02/01 A3006 RMK AO2=
201101090553 METAR KCLM 090553Z AUTO 13004KT 10SM FEW013 BKN028 OVC049 03/01 A3005 RMK AO2 SLP180 T00280006 10039 20017 51006=
201101090453 METAR KCLM 090453Z AUTO 25007KT 10SM BKN046 OVC070 03/M01 A3004 RMK AO2 SLP175 T00281011=
201101090353 METAR KCLM 090353Z AUTO 25008KT 10SM SCT065 02/M01 A3004 RMK AO2 SLP174 T00221011=
201101090253 METAR KCLM 090253Z AUTO 24007KT 10SM CLR 02/M01 A3005 RMK AO2 SLP177 T00221011 58006=
201101090153 METAR KCLM 090153Z AUTO 24007KT 10SM CLR 02/M01 A3005 RMK AO2 SLP180 T00221006=
201101090053 METAR KCLM 090053Z AUTO 24007KT 10SM CLR 03/M01 A3006 RMK AO2 SLP181 T00281011=
201101082353 METAR KCLM 082353Z AUTO 27005KT 10SM FEW039 04/M01 A3006 RMK AO2 SLP183 60000 T00391006 10072 20039 50001=
201101082253 METAR KCLM 082253Z AUTO 28009KT 10SM FEW034 05/M01 A3007 RMK AO2 WSHFT 2140 RAE01 SLP184 P0000 T00501006=
201101082200 SPECI KCLM 082200Z AUTO 29008G16KT 10SM -RA BKN034 OVC046 06/00 A3006 RMK AO2 WSHFT 2140 P0000=
201101082200 SPECI KCLM 082200Z AUTO 29008G16KT 10SM -RA BKN034 OVC046 06/00 A3006 RMK AO2 WSHFT 2140 P0000=
201101082153 METAR KCLM 082153Z AUTO 30011KT 10SM -RA BKN034 OVC044 06/01 A3006 RMK AO2 WSHFT 2139 RAB48 SLP180 P0000 T00610006=
201101082053 METAR KCLM 082053Z AUTO 27009KT 10SM CLR 06/00 A3006 RMK AO2 SLP181 T00610000 58010=
201101081953 METAR KCLM 081953Z AUTO 24008KT 10SM FEW029 05/00 A3007 RMK AO2 SLP185 T00500000=
201101081853 METAR KCLM 081853Z AUTO 25007KT 10SM BKN048 04/00 A3008 RMK AO2 SLP189 T00390000=
201101081753 METAR KCLM 081753Z AUTO 25010KT 10SM OVC040 04/M01 A3009 RMK AO2 SLP191 T00391006 10039 20017 53007=
201101081653 METAR KCLM 081653Z AUTO 25010KT 10SM SCT041 03/M01 A3008 RMK AO2 SLP189 T00281011=
201101081553 METAR KCLM 081553Z AUTO 24008KT 10SM CLR 02/M01 A3007 RMK AO2 SLP186 T00221011=
201101081453 METAR KCLM 081453Z AUTO 26006KT 10SM CLR 02/M01 A3007 RMK AO2 SLP185 T00221011 56005=
201101081353 METAR KCLM 081353Z AUTO 26010KT 10SM CLR 02/M01 A3007 RMK AO2 SLP187 T00221006=
201101081253 METAR KCLM 081253Z AUTO 24010KT 10SM FEW110 03/M01 A3008 RMK AO2 SLP186 T00281006=
201101081153 METAR KCLM 081153Z AUTO 26008KT 10SM CLR 03/M01 A3008 RMK AO2 SLP189 70009 T00281006 10044 20022 50005=
201101081053 METAR KCLM 081053Z AUTO 25009KT 10SM CLR 03/M01 A3009 RMK AO2 SLP190 T00281006=
201101080953 METAR KCLM 080953Z AUTO 26008KT 10SM FEW039 03/M01 A3008 RMK AO2 SLP187 T00281006=
201101080853 METAR KCLM 080853Z AUTO 26008KT 10SM CLR 03/M01 A3007 RMK AO2 SLP184 T00281011 53002=
201101080753 METAR KCLM 080753Z AUTO 28010KT 10SM CLR 04/M02 A3007 RMK AO2 SLP184 T00391017 400780028=
201101080653 METAR KCLM 080653Z AUTO 26010G19KT 10SM CLR 04/M02 A3006 RMK AO2 SLP181 T00441017=
201101080553 METAR KCLM 080553Z AUTO 26013G21KT 10SM CLR 04/M01 A3006 RMK AO2 SLP182 60002 T00391006 10056 20033 53001=
201101080453 METAR KCLM 080453Z AUTO 26012KT 10SM CLR 04/M01 A3005 RMK AO2 SLP178 T00391006=
201101080353 METAR KCLM 080353Z AUTO 26011G18KT 10SM CLR 04/00 A3006 RMK AO2 RAE0254 SLP180 T00390000=
201101080253 METAR KCLM 080253Z AUTO 26008KT 10SM -RA SCT016 SCT024 BKN060 03/02 A3006 RMK AO2 RAB0155 SLP181 P0000 60002 T00330017 50009=
201101080243 SPECI KCLM 080243Z AUTO 28009G18KT 10SM SCT015 BKN019 BKN027 04/02 A3006 RMK AO2 RAB0155E32 P0000=
201101080243 SPECI KCLM 080243Z AUTO 28009G18KT 10SM SCT015 BKN019 BKN027 04/02 A3006 RMK AO2 RAB0155E32 P0000=
201101080153 METAR KCLM 080153Z AUTO 29011KT 10SM SCT032 BKN047 BKN070 04/02 A3006 RMK AO2 RAE32 SLP182 P0002 T00390017=
201101080142 SPECI KCLM 080142Z AUTO 28011KT 10SM SCT027 SCT039 BKN049 04/02 A3006 RMK AO2 RAE32 P0002=
201101080142 SPECI KCLM 080142Z AUTO 28011KT 10SM SCT027 SCT039 BKN049 04/02 A3006 RMK AO2 RAE32 P0002=
201101080125 SPECI KCLM 080125Z AUTO 27012G24KT 8SM -RA FEW021 BKN026 OVC041 04/02 A3006 RMK AO2 P0002=
201101080125 SPECI KCLM 080125Z AUTO 27012G24KT 8SM -RA FEW021 BKN026 OVC041 04/02 A3006 RMK AO2 P0002=
201101080100 SPECI KCLM 080100Z AUTO 29011KT 10SM -RA SCT025 BKN041 OVC080 05/02 A3006 RMK AO2 P0000=
201101080100 SPECI KCLM 080100Z AUTO 29011KT 10SM -RA SCT025 BKN041 OVC080 05/02 A3006 RMK AO2 P0000=
201101080053 METAR KCLM 080053Z AUTO 29011KT 10SM -RA BKN025 BKN041 OVC080 04/02 A3006 RMK AO2 PK WND 29026/0031 RAB26 SLP180 P0000 T00440017=
201101080042 SPECI KCLM 080042Z AUTO 28013G21KT 9SM -RA BKN025 BKN035 BKN042 05/01 A3005 RMK AO2 PK WND 29026/0031 RAB26 P0000=
201101080042 SPECI KCLM 080042Z AUTO 28013G21KT 9SM -RA BKN025 BKN035 BKN042 05/01 A3005 RMK AO2 PK WND 29026/0031 RAB26 P0000=
201101072353 METAR KCLM 072353Z AUTO 29011KT 10SM FEW037 06/01 A3003 RMK AO2 SLP172 60002 T00560011 10072 20056 53021=
201101072253 METAR KCLM 072253Z AUTO 29012KT 10SM FEW060 06/02 A3001 RMK AO2 PK WND 30028/2203 SLP164 T00610017=
201101072153 METAR KCLM 072153Z AUTO 30018G25KT 10SM SCT060 07/03 A2998 RMK AO2 PK WND 31028/2132 SLP156 T00670028=
201101072053 METAR KCLM 072053Z AUTO 30015G22KT 10SM FEW011 BKN046 OVC060 07/04 A2997 RMK AO2 SLP151 60002 T00670044 53002=
201101072025 SPECI KCLM 072025Z AUTO 29012G18KT 10SM SCT006 BKN010 OVC060 07/05 A2997 RMK AO2 CIG 007V012=
201101072025 SPECI KCLM 072025Z AUTO 29012G18KT 10SM SCT006 BKN010 OVC060 07/05 A2997 RMK AO2 CIG 007V012=
201101071953 METAR KCLM 071953Z AUTO 31016G22KT 10SM BKN006 BKN038 OVC055 07/06 A2997 RMK AO2 RAE18 SLP150 P0000 T00670056=
201101071946 SPECI KCLM 071946Z AUTO 31016G22KT 10SM BKN006 BKN016 OVC055 07/06 A2997 RMK AO2 RAE18 P0000=
201101071946 SPECI KCLM 071946Z AUTO 31016G22KT 10SM BKN006 BKN016 OVC055 07/06 A2997 RMK AO2 RAE18 P0000=
201101071943 SPECI KCLM 071943Z AUTO 31015G21KT 10SM SCT006 BKN034 OVC055 07/06 A2997 RMK AO2 RAE18 P0000=
201101071943 SPECI KCLM 071943Z AUTO 31015G21KT 10SM SCT006 BKN034 OVC055 07/06 A2997 RMK AO2 RAE18 P0000=
201101071853 METAR KCLM 071853Z AUTO 30009KT 10SM -RA BKN035 OVC043 07/06 A2996 RMK AO2 SLP148 P0002 T00720056=
201101071832 SPECI KCLM 071832Z AUTO 30013G17KT 10SM -RA FEW009 SCT021 OVC040 07/06 A2996 RMK AO2 P0002=
201101071832 SPECI KCLM 071832Z AUTO 30013G17KT 10SM -RA FEW009 SCT021 OVC040 07/06 A2996 RMK AO2 P0002=
201101071823 SPECI KCLM 071823Z AUTO 30009KT 10SM -RA SCT009 BKN021 OVC043 07/06 A2996 RMK AO2 P0002=
201101071823 SPECI KCLM 071823Z AUTO 30009KT 10SM -RA SCT009 BKN021 OVC043 07/06 A2996 RMK AO2 P0002=
201101071800 SPECI KCLM 071800Z AUTO 31007KT 8SM -RA BKN009 OVC012 08/07 A2996 RMK AO2 CIG 005V011 P0001=
201101071800 SPECI KCLM 071800Z AUTO 31007KT 8SM -RA BKN009 OVC012 08/07 A2996 RMK AO2 CIG 005V011 P0001=
201101071753 METAR KCLM 071753Z AUTO 30005KT 6SM -RA BR OVC012 08/07 A2997 RMK AO2 SLP149 P0003 60005 T00780067 10078 20056 53020=
201101071729 SPECI KCLM 071729Z AUTO 30005KT 5SM -RA BR SCT003 BKN012 OVC031 08/07 A2996 RMK AO2 P0001=
201101071729 SPECI KCLM 071729Z AUTO 30005KT 5SM -RA BR SCT003 BKN012 OVC031 08/07 A2996 RMK AO2 P0001=
201101071717 SPECI KCLM 071717Z AUTO 31004KT 6SM -RA BR BKN003 BKN032 OVC046 07/07 A2996 RMK AO2 P0000=
201101071717 SPECI KCLM 071717Z AUTO 31004KT 6SM -RA BR BKN003 BKN032 OVC046 07/07 A2996 RMK AO2 P0000=
201101071700 SPECI KCLM 071700Z AUTO 00000KT 3SM -RA BR BKN001 OVC046 07/07 A2994 RMK AO2 P0000=
201101071700 SPECI KCLM 071700Z AUTO 00000KT 3SM -RA BR BKN001 OVC046 07/07 A2994 RMK AO2 P0000=
201101071653 METAR KCLM 071653Z AUTO 19003KT 1SM -RA BR OVC001 07/06 A2993 RMK AO2 SLP138 P0001 T00720061=
201101071638 SPECI KCLM 071638Z AUTO 00000KT 3/4SM -RA BR OVC001 07/07 A2992 RMK AO2 P0000=
201101071638 SPECI KCLM 071638Z AUTO 00000KT 3/4SM -RA BR OVC001 07/07 A2992 RMK AO2 P0000=
201101071625 SPECI KCLM 071625Z AUTO 00000KT 1 3/4SM -RA BR OVC001 07/06 A2992 RMK AO2 P0000=
201101071625 SPECI KCLM 071625Z AUTO 00000KT 1 3/4SM -RA BR OVC001 07/06 A2992 RMK AO2 P0000=
201101071553 METAR KCLM 071553Z AUTO 00000KT 6SM -RA BR OVC001 07/07 A2992 RMK AO2 RAB06 SLP132 P0000 T00720067=
201101071540 SPECI KCLM 071540Z AUTO 00000KT 8SM -RA OVC001 07/07 A2992 RMK AO2 RAB06 P0000=
201101071540 SPECI KCLM 071540Z AUTO 00000KT 8SM -RA OVC001 07/07 A2992 RMK AO2 RAB06 P0000=
201101071524 SPECI KCLM 071524Z AUTO VRB04KT 10SM -RA BKN003 OVC060 07/07 A2991 RMK AO2 RAB06 P0000=
201101071524 SPECI KCLM 071524Z AUTO VRB04KT 10SM -RA BKN003 OVC060 07/07 A2991 RMK AO2 RAB06 P0000=
201101071516 SPECI KCLM 071516Z AUTO 00000KT 10SM -RA SCT003 OVC060 07/06 A2991 RMK AO2 RAB06 P0000=
201101071516 SPECI KCLM 071516Z AUTO 00000KT 10SM -RA SCT003 OVC060 07/06 A2991 RMK AO2 RAB06 P0000=
201101071453 METAR KCLM 071453Z AUTO VRB04KT 10SM SCT060 07/06 A2991 RMK AO2 SLP129 60001 T00720061 56035=
201101071353 METAR KCLM 071353Z AUTO 15004KT 10SM SCT044 SCT075 BKN100 06/06 A2993 RMK AO2 RAE1258 SLP136 P0000 T00610056=
201101071253 METAR KCLM 071253Z AUTO 16005KT 10SM -RA FEW031 BKN070 OVC090 06/06 A2996 RMK AO2 RAB00 SLP147 P0001 T00610056=
201101071204 SPECI KCLM 071204Z AUTO 13006KT 5SM -RA BR FEW027 BKN050 OVC070 06/05 A2999 RMK AO2 RAB00 PRESFR P0001=
201101071204 SPECI KCLM 071204Z AUTO 13006KT 5SM -RA BR FEW027 BKN050 OVC070 06/05 A2999 RMK AO2 RAB00 PRESFR P0001=
201101071153 METAR KCLM 071153Z AUTO 00000KT 2 1/2SM BR SCT055 OVC070 06/05 A3001 RMK AO2 VIS 1 1/4V5 RAB00E49 SLP164 P0000 60000 70004 T00560050 10067 20056 58015=
201101071147 SPECI KCLM 071147Z AUTO 15006KT 3SM -RA BR SCT060 OVC075 06/05 A3002 RMK AO2 RAB00 P0000=
201101071147 SPECI KCLM 071147Z AUTO 15006KT 3SM -RA BR SCT060 OVC075 06/05 A3002 RMK AO2 RAB00 P0000=
201101071137 SPECI KCLM 071137Z AUTO 16003KT 1 1/4SM -RA BR SCT005 BKN055 OVC075 06/05 A3003 RMK AO2 RAB00 P0000=
201101071137 SPECI KCLM 071137Z AUTO 16003KT 1 1/4SM -RA BR SCT005 BKN055 OVC075 06/05 A3003 RMK AO2 RAB00 P0000=
201101071125 SPECI KCLM 071125Z AUTO 15003KT 3/4SM -RA BR SCT005 BKN060 OVC075 06/05 A3003 RMK AO2 RAB00 P0000=
201101071125 SPECI KCLM 071125Z AUTO 15003KT 3/4SM -RA BR SCT005 BKN060 OVC075 06/05 A3003 RMK AO2 RAB00 P0000=
201101071118 SPECI KCLM 071118Z AUTO 00000KT 3/4SM -RA BR BKN005 BKN019 OVC060 06/06 A3004 RMK AO2 RAB00 P0000=
201101071118 SPECI KCLM 071118Z AUTO 00000KT 3/4SM -RA BR BKN005 BKN019 OVC060 06/06 A3004 RMK AO2 RAB00 P0000=
201101071100 SPECI KCLM 071100Z AUTO 22003KT 1/2SM -RA FG SCT001 OVC060 06/06 A3005 RMK AO2 RAB00 P0000=
201101071100 SPECI KCLM 071100Z AUTO 22003KT 1/2SM -RA FG SCT001 OVC060 06/06 A3005 RMK AO2 RAB00 P0000=
201101071053 METAR KCLM 071053Z AUTO 23004KT 1/4SM FG BKN001 OVC060 06/06 A3005 RMK AO2 RAB31E43 SLP177 P0000 T00560056=
201101071041 SPECI KCLM 071041Z AUTO 22003KT 1/2SM -RA FG OVC001 06/06 A3005 RMK AO2 RAB31 P0000=
201101071041 SPECI KCLM 071041Z AUTO 22003KT 1/2SM -RA FG OVC001 06/06 A3005 RMK AO2 RAB31 P0000=
201101071030 SPECI KCLM 071030Z AUTO 00000KT 1 1/4SM BR OVC001 06/06 A3004 RMK AO2=
201101071030 SPECI KCLM 071030Z AUTO 00000KT 1 1/4SM BR OVC001 06/06 A3004 RMK AO2=
201101071014 SPECI KCLM 071014Z AUTO 00000KT 2 1/2SM BR OVC001 06/06 A3005 RMK AO2=
201101071014 SPECI KCLM 071014Z AUTO 00000KT 2 1/2SM BR OVC001 06/06 A3005 RMK AO2=
201101071006 SPECI KCLM 071006Z AUTO 00000KT 1SM BR OVC001 06/06 A3005 RMK AO2=
201101071006 SPECI KCLM 071006Z AUTO 00000KT 1SM BR OVC001 06/06 A3005 RMK AO2=
201101070953 METAR KCLM 070953Z AUTO 00000KT 1/4SM FG BKN001 OVC060 06/06 A3006 RMK AO2 SLP182 T00610061=
201101070932 SPECI KCLM 070932Z AUTO 32003KT 1/4SM FG BKN001 BKN065 OVC090 06/06 A3006 RMK AO2=
201101070932 SPECI KCLM 070932Z AUTO 32003KT 1/4SM FG BKN001 BKN065 OVC090 06/06 A3006 RMK AO2=
201101070926 SPECI KCLM 070926Z AUTO 00000KT 1/2SM FG FEW001 BKN065 OVC090 06/06 A3006 RMK AO2=
201101070926 SPECI KCLM 070926Z AUTO 00000KT 1/2SM FG FEW001 BKN065 OVC090 06/06 A3006 RMK AO2=
201101070916 SPECI KCLM 070916Z AUTO 00000KT 1 1/2SM BR FEW001 SCT060 OVC090 06/06 A3006 RMK AO2=
201101070916 SPECI KCLM 070916Z AUTO 00000KT 1 1/2SM BR FEW001 SCT060 OVC090 06/06 A3006 RMK AO2=
201101070901 SPECI KCLM 070901Z AUTO 00000KT 5SM BR FEW001 SCT060 OVC095 06/06 A3005 RMK AO2=
201101070901 SPECI KCLM 070901Z AUTO 00000KT 5SM BR FEW001 SCT060 OVC095 06/06 A3005 RMK AO2=
201101070853 METAR KCLM 070853Z AUTO 00000KT 4SM BR SCT060 OVC095 06/05 A3005 RMK AO2 SLP179 60000 T00560050 58017=
201101070817 SPECI KCLM 070817Z AUTO 22004KT 6SM BR SCT060 OVC090 06/05 A3008 RMK AO2=
201101070817 SPECI KCLM 070817Z AUTO 22004KT 6SM BR SCT060 OVC090 06/05 A3008 RMK AO2=
201101070809 SPECI KCLM 070809Z AUTO 00000KT 2SM BR SCT060 BKN080 OVC095 06/05 A3008 RMK AO2 VIS 1V5=
201101070809 SPECI KCLM 070809Z AUTO 00000KT 2SM BR SCT060 BKN080 OVC095 06/05 A3008 RMK AO2 VIS 1V5=
201101070753 METAR KCLM 070753Z AUTO 00000KT 3/4SM BR BKN065 OVC095 06/05 A3008 RMK AO2 SLP189 T00560050 400670050=
201101070744 SPECI KCLM 070744Z AUTO 00000KT 1/4SM FG BKN041 OVC060 06/05 A3009 RMK AO2=
201101070744 SPECI KCLM 070744Z AUTO 00000KT 1/4SM FG BKN041 OVC060 06/05 A3009 RMK AO2=
201101070735 SPECI KCLM 070735Z AUTO 00000KT 1/4SM FG BKN018 OVC060 06/06 A3009 RMK AO2=
201101070735 SPECI KCLM 070735Z AUTO 00000KT 1/4SM FG BKN018 OVC060 06/06 A3009 RMK AO2=
201101070723 SPECI KCLM 070723Z AUTO 00000KT 1/4SM FG BKN002 OVC060 06/06 A3010 RMK AO2=
201101070723 SPECI KCLM 070723Z AUTO 00000KT 1/4SM FG BKN002 OVC060 06/06 A3010 RMK AO2=
201101070714 SPECI KCLM 070714Z AUTO 00000KT 1/2SM FG BKN004 OVC060 06/06 A3010 RMK AO2=
201101070714 SPECI KCLM 070714Z AUTO 00000KT 1/2SM FG BKN004 OVC060 06/06 A3010 RMK AO2=
201101070708 SPECI KCLM 070708Z AUTO 00000KT 1/2SM FG FEW001 BKN011 OVC060 06/06 A3011 RMK AO2=
201101070708 SPECI KCLM 070708Z AUTO 00000KT 1/2SM FG FEW001 BKN011 OVC060 06/06 A3011 RMK AO2=
201101070700 SPECI KCLM 070700Z AUTO 33003KT 3/4SM BR FEW001 SCT049 OVC060 06/06 A3011 RMK AO2=
201101070700 SPECI KCLM 070700Z AUTO 33003KT 3/4SM BR FEW001 SCT049 OVC060 06/06 A3011 RMK AO2=
201101070653 METAR KCLM 070653Z AUTO 00000KT 2 1/2SM BR FEW001 BKN065 OVC095 06/06 A3010 RMK AO2 RAE08 SLP196 P0000 T00610056=
201101070642 SPECI KCLM 070642Z AUTO 00000KT 2SM BR FEW001 BKN080 OVC095 06/05 A3010 RMK AO2 RAE08 P0000=
201101070642 SPECI KCLM 070642Z AUTO 00000KT 2SM BR FEW001 BKN080 OVC095 06/05 A3010 RMK AO2 RAE08 P0000=
201101070553 METAR KCLM 070553Z AUTO 23004KT 9SM -RA SCT050 OVC070 06/06 A3012 RMK AO2 RAE0454B15 SLP201 P0000 60000 T00610056 10061 20050 56005=
201101070544 SPECI KCLM 070544Z AUTO 24005KT 3SM -RA BR SCT050 OVC070 06/06 A3012 RMK AO2 RAE0454B15 P0000=
201101070544 SPECI KCLM 070544Z AUTO 24005KT 3SM -RA BR SCT050 OVC070 06/06 A3012 RMK AO2 RAE0454B15 P0000=
201101070453 METAR KCLM 070453Z AUTO 00000KT 1 1/2SM -RA BR BKN055 OVC080 06/06 A3012 RMK AO2 SLP202 P0000 T00610056=
201101070353 METAR KCLM 070353Z AUTO 00000KT 7SM -RA FEW001 OVC060 06/05 A3013 RMK AO2 SLP203 P0000 T00610050=
201101070253 METAR KCLM 070253Z AUTO 00000KT 5SM -RA BR BKN055 OVC065 06/05 A3014 RMK AO2 RAB36 SLP207 P0000 60000 T00560050 56008=
201101070225 SPECI KCLM 070225Z AUTO 00000KT 2SM BR FEW065 OVC080 06/05 A3014 RMK AO2 VIS 1 1/4V5=
201101070225 SPECI KCLM 070225Z AUTO 00000KT 2SM BR FEW065 OVC080 06/05 A3014 RMK AO2 VIS 1 1/4V5=
201101070201 SPECI KCLM 070201Z AUTO 00000KT 3SM BR OVC080 06/06 A3014 RMK AO2=
201101070201 SPECI KCLM 070201Z AUTO 00000KT 3SM BR OVC080 06/06 A3014 RMK AO2=
201101070153 METAR KCLM 070153Z AUTO 17004KT 2SM BR BKN080 06/05 A3015 RMK AO2 VIS 1V4 RAE0055 SLP210 P0000 T00560050=
201101070151 SPECI KCLM 070151Z AUTO 17004KT 1 3/4SM BR FEW065 OVC080 06/05 A3015 RMK AO2 VIS 1V4 RAE0055 P0000=
201101070151 SPECI KCLM 070151Z AUTO 17004KT 1 3/4SM BR FEW065 OVC080 06/05 A3015 RMK AO2 VIS 1V4 RAE0055 P0000=
201101070130 SPECI KCLM 070130Z AUTO 00000KT 1/2SM FG SCT001 BKN065 OVC080 06/06 A3015 RMK AO2 RAE0055 P0000=
201101070130 SPECI KCLM 070130Z AUTO 00000KT 1/2SM FG SCT001 BKN065 OVC080 06/06 A3015 RMK AO2 RAE0055 P0000=
201101070053 METAR KCLM 070053Z AUTO 00000KT 3/4SM -RA BR OVC001 06/06 A3016 RMK AO2 RAB01 SLP214 P0000 T00610056=
201101070034 SPECI KCLM 070034Z AUTO 00000KT 3/4SM -RA BR OVC001 06/06 A3017 RMK AO2 RAB01 P0000=
201101070034 SPECI KCLM 070034Z AUTO 00000KT 3/4SM -RA BR OVC001 06/06 A3017 RMK AO2 RAB01 P0000=
201101070002 SPECI KCLM 070002Z AUTO 00000KT 1SM -RA BR OVC001 07/06 A3017 RMK AO2 RAB01 P0000=
201101070002 SPECI KCLM 070002Z AUTO 00000KT 1SM -RA BR OVC001 07/06 A3017 RMK AO2 RAB01 P0000=
201101062353 METAR KCLM 062353Z AUTO 00000KT 1SM BR OVC003 07/06 A3017 RMK AO2 RAB26E39 SLP219 P0000 60000 T00670061 10067 20061 55002=
201101062344 SPECI KCLM 062344Z AUTO 13003KT 1 3/4SM BR OVC003 07/06 A3017 RMK AO2 RAB26E39 P0000=
201101062344 SPECI KCLM 062344Z AUTO 13003KT 1 3/4SM BR OVC003 07/06 A3017 RMK AO2 RAB26E39 P0000=
201101062253 METAR KCLM 062253Z AUTO 00000KT 7SM OVC003 07/06 A3017 RMK AO2 SLP217 T00670061=
201101062217 SPECI KCLM 062217Z AUTO 14003KT 10SM OVC003 07/06 A3016 RMK AO2 CIG 001V005=
201101062217 SPECI KCLM 062217Z AUTO 14003KT 10SM OVC003 07/06 A3016 RMK AO2 CIG 001V005=
201101062207 SPECI KCLM 062207Z AUTO 14004KT 6SM BR OVC001 07/06 A3017 RMK AO2 CIG 001V005=
201101062207 SPECI KCLM 062207Z AUTO 14004KT 6SM BR OVC001 07/06 A3017 RMK AO2 CIG 001V005=
201101062153 METAR KCLM 062153Z AUTO 00000KT 2 1/2SM BR OVC001 07/06 A3017 RMK AO2 SLP220 T00670061=
201101062053 METAR KCLM 062053Z AUTO 00000KT 4SM BR OVC001 07/06 A3018 RMK AO2 SLP221 60000 T00670061 58013=
201101061953 METAR KCLM 061953Z AUTO 00000KT 10SM OVC001 07/06 A3020 RMK AO2 RAE33 SLP228 P0000 T00670061=
201101061946 SPECI KCLM 061946Z AUTO 00000KT 10SM OVC001 07/06 A3020 RMK AO2 RAE33 P0000=
201101061946 SPECI KCLM 061946Z AUTO 00000KT 10SM OVC001 07/06 A3020 RMK AO2 RAE33 P0000=
201101061853 METAR KCLM 061853Z AUTO 16003KT 10SM -RA OVC003 07/06 A3022 RMK AO2 SLP235 P0000 T00670056=
201101061753 METAR KCLM 061753Z AUTO VRB04KT 10SM -RA OVC003 06/06 A3022 RMK AO2 SLP235 P0000 60004 T00610056 10067 20050 53010=
201101061730 SPECI KCLM 061730Z AUTO VRB03KT 10SM -RA OVC003 07/06 A3021 RMK AO2 P0000=
201101061730 SPECI KCLM 061730Z AUTO VRB03KT 10SM -RA OVC003 07/06 A3021 RMK AO2 P0000=
201101061709 SPECI KCLM 061709Z AUTO 08004KT 10SM -RA OVC001 06/06 A3020 RMK AO2 P0000=
201101061709 SPECI KCLM 061709Z AUTO 08004KT 10SM -RA OVC001 06/06 A3020 RMK AO2 P0000=
201101061702 SPECI KCLM 061702Z AUTO 00000KT 2SM -RA BR OVC001 06/06 A3020 RMK AO2 P0000=
201101061702 SPECI KCLM 061702Z AUTO 00000KT 2SM -RA BR OVC001 06/06 A3020 RMK AO2 P0000=
201101061653 METAR KCLM 061653Z AUTO 00000KT 3/4SM -RA BR OVC001 06/05 A3020 RMK AO2 RAE18B38 SLP228 P0000 T00610050=
201101061651 SPECI KCLM 061651Z AUTO 00000KT 3/4SM -RA BR OVC001 06/05 A3020 RMK AO2 RAE18B38 P0000=
201101061651 SPECI KCLM 061651Z AUTO 00000KT 3/4SM -RA BR OVC001 06/05 A3020 RMK AO2 RAE18B38 P0000=
201101061626 SPECI KCLM 061626Z AUTO 23004KT 1 1/2SM BR OVC001 06/05 A3020 RMK AO2 RAE18 P0000=
201101061626 SPECI KCLM 061626Z AUTO 23004KT 1 1/2SM BR OVC001 06/05 A3020 RMK AO2 RAE18 P0000=
201101061611 SPECI KCLM 061611Z AUTO 00000KT 2SM -RA BR OVC001 06/05 A3019 RMK AO2 P0000=
201101061611 SPECI KCLM 061611Z AUTO 00000KT 2SM -RA BR OVC001 06/05 A3019 RMK AO2 P0000=
201101061553 METAR KCLM 061553Z AUTO 00000KT 1 1/2SM -RA BR OVC001 06/05 A3019 RMK AO2 SLP224 P0001 T00560050=
201101061546 SPECI KCLM 061546Z AUTO 00000KT 1 1/4SM -RA BR OVC001 06/05 A3019 RMK AO2 P0000=
201101061546 SPECI KCLM 061546Z AUTO 00000KT 1 1/4SM -RA BR OVC001 06/05 A3019 RMK AO2 P0000=
201101061519 SPECI KCLM 061519Z AUTO 00000KT 3/4SM -RA BR OVC001 06/05 A3019 RMK AO2 P0000=
201101061519 SPECI KCLM 061519Z AUTO 00000KT 3/4SM -RA BR OVC001 06/05 A3019 RMK AO2 P0000=
201101061504 SPECI KCLM 061504Z AUTO 00000KT 1 3/4SM -RA BR OVC001 06/05 A3019 RMK AO2 P0000=
201101061504 SPECI KCLM 061504Z AUTO 00000KT 1 3/4SM -RA BR OVC001 06/05 A3019 RMK AO2 P0000=
201101061453 METAR KCLM 061453Z AUTO 00000KT 4SM -RA BR OVC001 06/05 A3019 RMK AO2 SLP224 P0000 60003 T00560050 58006=
201101061353 METAR KCLM 061353Z AUTO 26003KT 10SM -RA BKN001 BKN033 OVC080 06/05 A3020 RMK AO2 SLP230 P0001 T00560050=
201101061348 SPECI KCLM 061348Z AUTO 28004KT 10SM -RA SCT003 BKN032 OVC075 06/05 A3020 RMK AO2 P0001=
201101061348 SPECI KCLM 061348Z AUTO 28004KT 10SM -RA SCT003 BKN032 OVC075 06/05 A3020 RMK AO2 P0001=
201101061253 METAR KCLM 061253Z AUTO 29003KT 10SM -RA FEW032 BKN060 OVC070 06/05 A3020 RMK AO2 SLP230 P0002 T00560050=
201101061153 METAR KCLM 061153Z AUTO 11003KT 10SM -RA OVC055 06/06 A3021 RMK AO2 SLP233 P0001 60001 70003 T00610056 10067 20050 58004=
201101061100 SPECI KCLM 061100Z AUTO 00000KT 10SM -RA SCT028 SCT035 OVC055 06/06 A3022 RMK AO2 P0000=
201101061100 SPECI KCLM 061100Z AUTO 00000KT 10SM -RA SCT028 SCT035 OVC055 06/06 A3022 RMK AO2 P0000=
201101061053 METAR KCLM 061053Z AUTO 00000KT 10SM -RA FEW022 BKN029 OVC065 06/06 A3022 RMK AO2 SLP237 P0000 T00610056=
201101061021 SPECI KCLM 061021Z AUTO 13003KT 9SM -RA BKN019 BKN025 OVC060 06/06 A3021 RMK AO2 P0000=
201101061021 SPECI KCLM 061021Z AUTO 13003KT 9SM -RA BKN019 BKN025 OVC060 06/06 A3021 RMK AO2 P0000=
201101061001 SPECI KCLM 061001Z AUTO 12003KT 4SM -RA BR FEW019 BKN030 OVC060 06/05 A3022 RMK AO2 P0000=
201101061001 SPECI KCLM 061001Z AUTO 12003KT 4SM -RA BR FEW019 BKN030 OVC060 06/05 A3022 RMK AO2 P0000=
201101060953 METAR KCLM 060953Z AUTO 13003KT 5SM -RA BR BKN017 BKN023 OVC030 06/05 A3022 RMK AO2 SLP235 P0000 T00560050=
201101060928 SPECI KCLM 060928Z AUTO 15004KT 4SM -RA BR OVC017 05/04 A3022 RMK AO2 P0000=
201101060928 SPECI KCLM 060928Z AUTO 15004KT 4SM -RA BR OVC017 05/04 A3022 RMK AO2 P0000=
201101060853 METAR KCLM 060853Z AUTO 00000KT 4SM -RA BR OVC013 05/04 A3022 RMK AO2 SLP236 P0000 60000 T00500044 50006=
201101060813 SPECI KCLM 060813Z AUTO 14003KT 6SM -RA BR SCT003 OVC011 05/04 A3023 RMK AO2 P0000=
201101060813 SPECI KCLM 060813Z AUTO 14003KT 6SM -RA BR SCT003 OVC011 05/04 A3023 RMK AO2 P0000=
201101060753 METAR KCLM 060753Z AUTO 00000KT 4SM -RA BR OVC003 05/04 A3022 RMK AO2 SLP237 P0000 T00500044 400610011=
201101060653 METAR KCLM 060653Z AUTO 00000KT 6SM -RA BR OVC003 05/04 A3022 RMK AO2 RAB05 SLP237 P0000 T00500044=
201101060620 SPECI KCLM 060620Z AUTO 24004KT 5SM -RA BR BKN003 BKN043 OVC055 05/04 A3022 RMK AO2 RAB05 P0000=
201101060620 SPECI KCLM 060620Z AUTO 24004KT 5SM -RA BR BKN003 BKN043 OVC055 05/04 A3022 RMK AO2 RAB05 P0000=
201101060553 METAR KCLM 060553Z AUTO 28006KT 7SM FEW002 SCT030 OVC055 05/04 A3021 RMK AO2 RAB37E46 SLP230 P0000 60001 T00500039 10061 20039 53005=
201101060551 SPECI KCLM 060551Z AUTO 26005KT 6SM BR FEW002 BKN030 OVC055 04/04 A3020 RMK AO2 RAB37E46 P0000=
201101060551 SPECI KCLM 060551Z AUTO 26005KT 6SM BR FEW002 BKN030 OVC055 04/04 A3020 RMK AO2 RAB37E46 P0000=
201101060505 SPECI KCLM 060505Z AUTO 00000KT 3SM BR BKN060 OVC080 04/04 A3018 RMK AO2=
201101060505 SPECI KCLM 060505Z AUTO 00000KT 3SM BR BKN060 OVC080 04/04 A3018 RMK AO2=
201101060453 METAR KCLM 060453Z AUTO 00000KT 2SM BR BKN060 OVC075 04/03 A3018 RMK AO2 VIS 1 1/4V3 RAE46 SLP221 P0000 T00390033=
201101060410 SPECI KCLM 060410Z AUTO 00000KT 2 1/2SM -RA BR BKN060 OVC075 04/04 A3019 RMK AO2 VIS 1 3/4V4 P0000=
201101060410 SPECI KCLM 060410Z AUTO 00000KT 2 1/2SM -RA BR BKN060 OVC075 04/04 A3019 RMK AO2 VIS 1 3/4V4 P0000=
201101060401 SPECI KCLM 060401Z AUTO 00000KT 3SM -RA BR BKN060 OVC080 04/04 A3019 RMK AO2 P0000=
201101060401 SPECI KCLM 060401Z AUTO 00000KT 3SM -RA BR BKN060 OVC080 04/04 A3019 RMK AO2 P0000=
201101060353 METAR KCLM 060353Z AUTO 00000KT 2 1/2SM -RA BR BKN060 OVC080 05/04 A3019 RMK AO2 SLP226 P0000 T00500044=
201101060342 SPECI KCLM 060342Z AUTO 00000KT 1 3/4SM -RA BR BKN055 OVC075 04/04 A3020 RMK AO2 P0000=
201101060342 SPECI KCLM 060342Z AUTO 00000KT 1 3/4SM -RA BR BKN055 OVC075 04/04 A3020 RMK AO2 P0000=
201101060304 SPECI KCLM 060304Z AUTO 00000KT 2SM -RA BR OVC060 05/04 A3019 RMK AO2 P0000=
201101060304 SPECI KCLM 060304Z AUTO 00000KT 2SM -RA BR OVC060 05/04 A3019 RMK AO2 P0000=
201101060253 METAR KCLM 060253Z AUTO 00000KT 1 1/2SM -RA BR BKN060 OVC070 05/04 A3018 RMK AO2 VIS 1V3 SLP223 P0001 60001 T00500044 51013=
201101060250 SPECI KCLM 060250Z AUTO 00000KT 1 3/4SM -RA BR FEW003 BKN060 OVC070 05/04 A3019 RMK AO2 P0001=
201101060250 SPECI KCLM 060250Z AUTO 00000KT 1 3/4SM -RA BR FEW003 BKN060 OVC070 05/04 A3019 RMK AO2 P0001=
201101060245 SPECI KCLM 060245Z AUTO 00000KT 3SM -RA BR FEW003 BKN060 OVC075 05/04 A3018 RMK AO2 P0001=
201101060245 SPECI KCLM 060245Z AUTO 00000KT 3SM -RA BR FEW003 BKN060 OVC075 05/04 A3018 RMK AO2 P0001=
201101060234 SPECI KCLM 060234Z AUTO 22003KT 1 3/4SM -RA BR FEW003 OVC060 05/04 A3018 RMK AO2 P0001=
201101060234 SPECI KCLM 060234Z AUTO 22003KT 1 3/4SM -RA BR FEW003 OVC060 05/04 A3018 RMK AO2 P0001=
201101060229 SPECI KCLM 060229Z AUTO 00000KT 3SM -RA BR SCT003 OVC055 06/05 A3018 RMK AO2 P0001=
201101060229 SPECI KCLM 060229Z AUTO 00000KT 3SM -RA BR SCT003 OVC055 06/05 A3018 RMK AO2 P0001=
201101060219 SPECI KCLM 060219Z AUTO 00000KT 1 1/4SM -RA BR FEW003 BKN055 OVC070 05/04 A3019 RMK AO2 P0000=
201101060219 SPECI KCLM 060219Z AUTO 00000KT 1 1/4SM -RA BR FEW003 BKN055 OVC070 05/04 A3019 RMK AO2 P0000=
201101060211 SPECI KCLM 060211Z AUTO 00000KT 2SM -RA BR FEW001 BKN055 OVC070 05/04 A3018 RMK AO2 P0000=
201101060211 SPECI KCLM 060211Z AUTO 00000KT 2SM -RA BR FEW001 BKN055 OVC070 05/04 A3018 RMK AO2 P0000=
201101060153 METAR KCLM 060153Z AUTO 00000KT 3SM -RA BR FEW001 BKN050 OVC065 06/04 A3018 RMK AO2 SLP222 P0000 T00560044=
201101060132 SPECI KCLM 060132Z AUTO 00000KT 6SM -RA BR SCT003 SCT048 OVC065 06/05 A3017 RMK AO2 P0000=
201101060132 SPECI KCLM 060132Z AUTO 00000KT 6SM -RA BR SCT003 SCT048 OVC065 06/05 A3017 RMK AO2 P0000=
201101060107 SPECI KCLM 060107Z AUTO 00000KT 7SM -RA BKN003 OVC070 06/05 A3017 RMK AO2 P0000=
201101060107 SPECI KCLM 060107Z AUTO 00000KT 7SM -RA BKN003 OVC070 06/05 A3017 RMK AO2 P0000=
201101060053 METAR KCLM 060053Z AUTO 00000KT 10SM -RA FEW005 OVC065 06/05 A3017 RMK AO2 RAB2358 SLP217 P0000 T00610050=
201101060045 SPECI KCLM 060045Z AUTO 00000KT 10SM -RA FEW005 OVC065 06/05 A3016 RMK AO2 RAB2358 P0000=
201101060045 SPECI KCLM 060045Z AUTO 00000KT 10SM -RA FEW005 OVC065 06/05 A3016 RMK AO2 RAB2358 P0000=
201101052353 METAR KCLM 052353Z AUTO 00000KT 10SM OVC055 06/05 A3015 RMK AO2 SLP210 60001 T00610050 10061 20039 51016=
201101052253 METAR KCLM 052253Z AUTO 00000KT 10SM FEW031 BKN060 OVC075 06/05 A3013 RMK AO2 RAB2158E50 SLP205 P0001 T00610050=
201101052224 SPECI KCLM 052224Z AUTO 19007KT 4SM RA BR FEW004 BKN047 OVC060 05/04 A3015 RMK AO2 RAB2158 P0001=
201101052224 SPECI KCLM 052224Z AUTO 19007KT 4SM RA BR FEW004 BKN047 OVC060 05/04 A3015 RMK AO2 RAB2158 P0001=
201101052200 SPECI KCLM 052200Z AUTO 26003KT 8SM -RA BKN004 BKN060 OVC080 06/04 A3015 RMK AO2 RAB2158 P0000=
201101052200 SPECI KCLM 052200Z AUTO 26003KT 8SM -RA BKN004 BKN060 OVC080 06/04 A3015 RMK AO2 RAB2158 P0000=
201101052153 METAR KCLM 052153Z AUTO 29004KT 10SM SCT004 BKN060 OVC075 06/04 A3014 RMK AO2 RAE49 PRESRR SLP209 P0000 T00560044=
201101052053 METAR KCLM 052053Z AUTO 00000KT 10SM -RA SCT004 BKN033 OVC080 05/04 A3010 RMK AO2 PRESFR SLP195 P0000 60000 T00500039 58006=
201101051953 METAR KCLM 051953Z AUTO VRB03KT 10SM -RA BKN004 OVC060 05/04 A3012 RMK AO2 RAE23B40 CIG 002V006 SLP203 P0000 T00500039=
201101051933 SPECI KCLM 051933Z AUTO 00000KT 10SM BKN004 BKN060 OVC075 05/04 A3011 RMK AO2 RAE23 P0000=
201101051933 SPECI KCLM 051933Z AUTO 00000KT 10SM BKN004 BKN060 OVC075 05/04 A3011 RMK AO2 RAE23 P0000=
201101051853 METAR KCLM 051853Z AUTO 00000KT 10SM -RA SCT004 BKN045 OVC085 05/04 A3012 RMK AO2 SLP201 P0000 T00500039=
201101051819 SPECI KCLM 051819Z AUTO 00000KT 10SM -RA SCT004 BKN035 OVC075 04/03 A3012 RMK AO2 P0000=
201101051819 SPECI KCLM 051819Z AUTO 00000KT 10SM -RA SCT004 BKN035 OVC075 04/03 A3012 RMK AO2 P0000=
201101051811 SPECI KCLM 051811Z AUTO 00000KT 10SM -RA BKN004 BKN038 OVC090 04/03 A3012 RMK AO2 P0000=
201101051811 SPECI KCLM 051811Z AUTO 00000KT 10SM -RA BKN004 BKN038 OVC090 04/03 A3012 RMK AO2 P0000=
201101051753 METAR KCLM 051753Z AUTO 21003KT 9SM -RA OVC006 04/03 A3012 RMK AO2 RAB39 SLP201 P0000 60000 T00390028 10039 20022 55008=
201101051737 SPECI KCLM 051737Z AUTO 00000KT 10SM BKN006 BKN070 OVC090 03/03 A3012 RMK AO2=
201101051737 SPECI KCLM 051737Z AUTO 00000KT 10SM BKN006 BKN070 OVC090 03/03 A3012 RMK AO2=
201101051725 SPECI KCLM 051725Z AUTO 00000KT 10SM FEW006 BKN070 OVC090 03/03 A3012 RMK AO2=
201101051725 SPECI KCLM 051725Z AUTO 00000KT 10SM FEW006 BKN070 OVC090 03/03 A3012 RMK AO2=
201101051653 METAR KCLM 051653Z AUTO 00000KT 9SM BKN070 OVC085 03/03 A3010 RMK AO2 RAE26UPB26E33 SLP197 P0000 T00330028=
201101051553 METAR KCLM 051553Z AUTO 00000KT 6SM -RA BR SCT060 OVC080 02/02 A3011 RMK AO2 RAB13 SLP200 P0000 T00220017=
201101051453 METAR KCLM 051453Z AUTO 00000KT 9SM SCT006 BKN050 OVC075 02/02 A3014 RMK AO2 UPE03RAB32E47 SLP209 P0000 60000 T00220017 56013 $=
201101051449 SPECI KCLM 051449Z AUTO 00000KT 9SM SCT006 BKN050 OVC075 02/02 A3014 RMK AO2 UPE03RAB32E47 P0000 $=
201101051449 SPECI KCLM 051449Z AUTO 00000KT 9SM SCT006 BKN050 OVC075 02/02 A3014 RMK AO2 UPE03RAB32E47 P0000 $=
201101051353 METAR KCLM 051353Z AUTO 24004KT 10SM UP OVC006 03/02 A3016 RMK AO2 RAE22UPB51 SLP217 P0000 T00280017 $=
201101051253 METAR KCLM 051253Z AUTO 26005KT 10SM -RA OVC006 03/02 A3018 RMK AO2 SLP222 P0000 T00280017 $=
201101051153 METAR KCLM 051153Z AUTO 26005KT 8SM -RA BKN006 OVC038 02/02 A3020 RMK AO2 UPE1058RAB1058 SLP228 P0002 60002 70003 T00220017 10028 20011 50004 $=
201101051151 SPECI KCLM 051151Z AUTO 26006KT 7SM -RA BKN006 OVC038 02/02 A3020 RMK AO2 UPE1058RAB1058 P0001 $=
201101051151 SPECI KCLM 051151Z AUTO 26006KT 7SM -RA BKN006 OVC038 02/02 A3020 RMK AO2 UPE1058RAB1058 P0001 $=
201101051142 SPECI KCLM 051142Z AUTO 27007KT 7SM -RA SCT008 OVC038 03/02 A3020 RMK AO2 UPE1058RAB1058 P0001 $=
201101051142 SPECI KCLM 051142Z AUTO 27007KT 7SM -RA SCT008 OVC038 03/02 A3020 RMK AO2 UPE1058RAB1058 P0001 $=
201101051053 METAR KCLM 051053Z AUTO 26006KT 10SM UP BKN050 BKN065 OVC080 02/01 A3020 RMK AO2 UPB52 SLP228 P0000 T00220011 $=
201101051020 SPECI KCLM 051020Z AUTO 24006KT 10SM FEW007 OVC070 02/01 A3019 RMK AO2 $=
201101051020 SPECI KCLM 051020Z AUTO 24006KT 10SM FEW007 OVC070 02/01 A3019 RMK AO2 $=
201101050953 METAR KCLM 050953Z AUTO 24004KT 10SM BKN070 BKN090 02/01 A3018 RMK AO2 SLP224 T00170006 $=
201101050853 METAR KCLM 050853Z AUTO 00000KT 5SM BR OVC065 01/01 A3019 RMK AO2 SLP227 T00110006 56006 $=
201101050804 SPECI KCLM 050804Z AUTO 13003KT 3SM BR OVC065 01/00 A3020 RMK AO2 $=
201101050804 SPECI KCLM 050804Z AUTO 13003KT 3SM BR OVC065 01/00 A3020 RMK AO2 $=
201101050753 METAR KCLM 050753Z AUTO 00000KT 2 1/2SM BR OVC065 01/01 A3020 RMK AO2 SLP229 T00110006 400501033 $=
201101050750 SPECI KCLM 050750Z AUTO 00000KT 2SM BR OVC065 01/01 A3020 RMK AO2 400501033 $=
201101050750 SPECI KCLM 050750Z AUTO 00000KT 2SM BR OVC065 01/01 A3020 RMK AO2 400501033 $=
201101050653 METAR KCLM 050653Z AUTO 00000KT 3SM BR OVC060 01/01 A3021 RMK AO2 SLP233 T00110006 $=
201101050553 METAR KCLM 050553Z AUTO 00000KT 4SM BR BKN070 OVC100 02/01 A3022 RMK AO2 RAE50 SLP237 P0000 60001 T00170006 10039 20011 55001 $=
201101050548 SPECI KCLM 050548Z AUTO 00000KT 4SM -RA BR BKN070 OVC095 01/01 A3022 RMK AO2 P0000 $=
201101050548 SPECI KCLM 050548Z AUTO 00000KT 4SM -RA BR BKN070 OVC095 01/01 A3022 RMK AO2 P0000 $=
201101050540 SPECI KCLM 050540Z AUTO 00000KT 2 1/2SM -RA BR BKN070 OVC095 01/01 A3022 RMK AO2 P0000 $=
201101050540 SPECI KCLM 050540Z AUTO 00000KT 2 1/2SM -RA BR BKN070 OVC095 01/01 A3022 RMK AO2 P0000 $=
201101050453 METAR KCLM 050453Z AUTO 00000KT 5SM -RA BR BKN031 BKN041 OVC050 02/01 A3023 RMK AO2 SLP238 P0000 T00170011 $=
201101050400 SPECI KCLM 050400Z AUTO 14003KT 3SM -RA BR SCT028 OVC038 02/01 A3022 RMK AO2 P0000 $=
201101050400 SPECI KCLM 050400Z AUTO 14003KT 3SM -RA BR SCT028 OVC038 02/01 A3022 RMK AO2 P0000 $=
201101050353 METAR KCLM 050353Z AUTO 13003KT 3SM -RA BR BKN028 OVC038 02/01 A3023 RMK AO2 SLP238 P0001 T00170011 $=
201101050351 SPECI KCLM 050351Z AUTO 14003KT 3SM -RA BR BKN028 OVC038 02/01 A3023 RMK AO2 P0001 $=
201101050351 SPECI KCLM 050351Z AUTO 14003KT 3SM -RA BR BKN028 OVC038 02/01 A3023 RMK AO2 P0001 $=
201101050322 SPECI KCLM 050322Z AUTO 00000KT 4SM -RA BR FEW029 BKN045 OVC060 02/01 A3023 RMK AO2 P0000 $=
201101050322 SPECI KCLM 050322Z AUTO 00000KT 4SM -RA BR FEW029 BKN045 OVC060 02/01 A3023 RMK AO2 P0000 $=
201101050313 SPECI KCLM 050313Z AUTO 00000KT 2 1/2SM -RA BR BKN047 OVC060 02/01 A3022 RMK AO2 P0000 $=
201101050313 SPECI KCLM 050313Z AUTO 00000KT 2 1/2SM -RA BR BKN047 OVC060 02/01 A3022 RMK AO2 P0000 $=
201101050253 METAR KCLM 050253Z AUTO 00000KT 3SM -RA BR SCT010 BKN050 OVC070 02/02 A3021 RMK AO2 SLP232 P0000 60000 T00220017 58004 $=
201101050153 METAR KCLM 050153Z AUTO 00000KT 4SM -RA BR OVC010 02/02 A3021 RMK AO2 SLP233 P0000 T00220017 $=
201101050053 METAR KCLM 050053Z AUTO 23003KT 7SM -RA FEW010 BKN014 OVC020 03/02 A3022 RMK AO2 SLP236 P0000 T00280017 $=
201101050049 SPECI KCLM 050049Z AUTO 23003KT 7SM -RA FEW010 BKN016 OVC022 03/02 A3022 RMK AO2 P0000 $=
201101050049 SPECI KCLM 050049Z AUTO 23003KT 7SM -RA FEW010 BKN016 OVC022 03/02 A3022 RMK AO2 P0000 $=
201101050034 SPECI KCLM 050034Z AUTO 00000KT 8SM -RA BKN014 OVC024 03/02 A3022 RMK AO2 P0000 $=
201101050034 SPECI KCLM 050034Z AUTO 00000KT 8SM -RA BKN014 OVC024 03/02 A3022 RMK AO2 P0000 $=
201101050020 SPECI KCLM 050020Z AUTO 00000KT 10SM -RA FEW011 BKN024 OVC034 03/02 A3022 RMK AO2 P0000 $=
201101050020 SPECI KCLM 050020Z AUTO 00000KT 10SM -RA FEW011 BKN024 OVC034 03/02 A3022 RMK AO2 P0000 $=
201101042353 METAR KCLM 042353Z AUTO 27004KT 10SM -RA SCT035 OVC042 04/01 A3022 RMK AO2 RAB42 SLP235 P0000 60000 T00390011 10050 20011 53006 $=
201101042253 METAR KCLM 042253Z AUTO 00000KT 10SM BKN060 05/01 A3019 RMK AO2 SLP228 T00500006 $=
201101042153 METAR KCLM 042153Z AUTO 00000KT 10SM SCT075 05/01 A3019 RMK AO2 SLP227 T00500006 $=
201101042053 METAR KCLM 042053Z AUTO 00000KT 10SM SCT100 04/01 A3020 RMK AO2 SLP229 T00440011 $=
201101041953 METAR KCLM 041953Z AUTO 00000KT 10SM BKN032 OVC038 04/01 A3020 RMK AO2 SLP230 T00390006 $=
201101041853 METAR KCLM 041853Z AUTO 00000KT 10SM 03/00 A3021 RMK AO2 SLP233 T00280000 $=
201101041753 METAR KCLM 041753Z AUTO 00000KT 10SM BKN029 01/M01 A3021 RMK AO2 SLP234 T00111011 10011 21028 56002 $=
201101041751 SPECI KCLM 041751Z AUTO 00000KT 10SM BKN029 01/M01 A3021 RMK AO2 $=
201101041751 SPECI KCLM 041751Z AUTO 00000KT 10SM BKN029 01/M01 A3021 RMK AO2 $=
201101041653 METAR KCLM 041653Z AUTO 00000KT 10SM CLR M01/M02 A3021 RMK AO2 SLP232 T10061017 $=
201101041553 METAR KCLM 041553Z AUTO 23005KT 10SM FEW120 00/M02 A3022 RMK AO2 SLP236 T00001022=
201101041453 METAR KCLM 041453Z AUTO 10SM SCT120 00/M02 A3021 RMK AO2 SLP232 T00001022 58005 $=
201101041353 METAR KCLM 041353Z AUTO 10SM BKN120 M01/M02 A3022 RMK AO2 SLP238 T10061022 $=
201101041253 METAR KCLM 041253Z AUTO 10SM CLR M03/M04 A3021 RMK AO2 SLP235 T10281039 $=
201101041153 METAR KCLM 041153Z AUTO 23006KT 10SM CLR M02/M03 A3022 RMK AO2 SLP236 T10171033 10000 21039 50000 $=
201101041053 METAR KCLM 041053Z AUTO 24004KT 10SM OVC120 M02/M03 A3023 RMK AO2 SLP240 T10171028=
201101040953 METAR KCLM 040953Z AUTO 00000KT 10SM CLR M01/M03 A3021 RMK AO2 SLP235 T10111028=
201101040853 METAR KCLM 040853Z AUTO 23003KT 10SM CLR M01/M02 A3022 RMK AO2 SLP236 T10111022 58007=
201101040753 METAR KCLM 040753Z AUTO 00000KT 10SM CLR M02/M03 A3023 RMK AO2 SLP241 T10171033 400441050=
201101040653 METAR KCLM 040653Z AUTO 00000KT 10SM CLR M04/M05 A3023 RMK AO2 SLP240 T10391050=
201101040553 METAR KCLM 040553Z AUTO 20003KT 10SM CLR M02/M04 A3024 RMK AO2 SLP242 T10221039 10033 21033 56000=
201101040453 METAR KCLM 040453Z AUTO 23006KT 10SM CLR M01/M03 A3024 RMK AO2 SLP245 T10061028=
201101040353 METAR KCLM 040353Z AUTO 23003KT 10SM CLR M02/M03 A3022 RMK AO2 SLP236 T10221033=
201101040253 METAR KCLM 040253Z AUTO 21003KT 10SM CLR M02/M04 A3024 RMK AO2 SLP244 T10221039 53008=
201101040153 METAR KCLM 040153Z AUTO 00000KT 10SM CLR M02/M03 A3024 RMK AO2 SLP243 T10171033=
201101040053 METAR KCLM 040053Z AUTO 00000KT 10SM CLR M01/M02 A3022 RMK AO2 SLP235 T10061022=
201101032353 METAR KCLM 032353Z AUTO 11003KT 10SM CLR 03/M01 A3021 RMK AO2 SLP235 T00331011 10044 20006 50001=
201101032253 METAR KCLM 032253Z AUTO 00000KT 10SM CLR 04/M01 A3022 RMK AO2 SLP237 T00441011=
201101032153 METAR KCLM 032153Z AUTO 04004KT 10SM CLR 04/M01 A3022 RMK AO2 SLP236 T00441011=
201101032053 METAR KCLM 032053Z AUTO 11004KT 10SM CLR 04/M02 A3021 RMK AO2 SLP234 T00391017 58004=
201101032031 SPECI KCLM 032031Z AUTO 13005KT 10SM SCT019 04/M01 A3022 RMK AO2=
201101032031 SPECI KCLM 032031Z AUTO 13005KT 10SM SCT019 04/M01 A3022 RMK AO2=
201101031953 METAR KCLM 031953Z AUTO 00000KT 10SM OVC017 03/M01 A3024 RMK AO2 SLP245 T00331011=
201101031853 METAR KCLM 031853Z AUTO 22005KT 10SM OVC019 01/M02 A3026 RMK AO2 SLP251 T00111017 $=
201101031812 SPECI KCLM 031812Z AUTO 00000KT 10SM BKN017 02/M01 A3025 RMK AO2 PRESRR $=
201101031812 SPECI KCLM 031812Z AUTO 00000KT 10SM BKN017 02/M01 A3025 RMK AO2 PRESRR $=
201101031753 METAR KCLM 031753Z AUTO 10SM CLR 01/M01 A3023 RMK AO2 SLP238 T00111011 10011 21050 55001 $=
201101031653 METAR KCLM 031653Z AUTO 16003KT 10SM CLR M03/M05 A3022 RMK AO2 SLP237 T10331050 $=
201101031609 SPECI KCLM 031609Z AUTO 21003KT 10SM SCT017 M03/M04 A3023 RMK AO2 $=
201101031609 SPECI KCLM 031609Z AUTO 21003KT 10SM SCT017 M03/M04 A3023 RMK AO2 $=
201101031553 METAR KCLM 031553Z AUTO 00000KT 10SM BKN019 M04/M05 A3023 RMK AO2 SLP239 T10391050=
201101031512 SPECI KCLM 031512Z AUTO 10SM BKN019 M03/M04 A3024 RMK AO2 $=
201101031512 SPECI KCLM 031512Z AUTO 10SM BKN019 M03/M04 A3024 RMK AO2 $=
201101031453 METAR KCLM 031453Z AUTO 17003KT 10SM SCT019 M03/M05 A3023 RMK AO2 SLP241 T10331050 56005=
201101031353 METAR KCLM 031353Z AUTO 10SM OVC019 M02/M04 A3023 RMK AO2 SLP242 T10221039 $=
201101031339 SPECI KCLM 031339Z AUTO 10SM BKN019 M02/M04 A3023 RMK AO2 $=
201101031339 SPECI KCLM 031339Z AUTO 10SM BKN019 M02/M04 A3023 RMK AO2 $=
201101031316 SPECI KCLM 031316Z AUTO 10SM SCT017 M02/M04 A3023 RMK AO2 $=
201101031316 SPECI KCLM 031316Z AUTO 10SM SCT017 M02/M04 A3023 RMK AO2 $=
201101031253 METAR KCLM 031253Z AUTO 10SM OVC017 M01/M03 A3023 RMK AO2 SLP240 T10111028 $=
201101031153 METAR KCLM 031153Z AUTO 10SM OVC017 M01/M03 A3024 RMK AO2 SLP245 T10111033 10000 21033 53008 $=
201101031053 METAR KCLM 031053Z AUTO 10SM OVC019 M02/M04 A3024 RMK AO2 SLP243 T10171039 $=
201101030953 METAR KCLM 030953Z AUTO 10SM OVC019 M02/M04 A3022 RMK AO2 SLP236 T10221039 $=
201101030853 METAR KCLM 030853Z AUTO 10SM OVC019 M02/M04 A3022 RMK AO2 SLP237 T10221039 56002 $=
201101030753 METAR KCLM 030753Z AUTO 10SM BKN019 M03/M04 A3022 RMK AO2 SLP237 T10281039 400391061 $=
201101030745 SPECI KCLM 030745Z AUTO 10SM BKN019 M03/M04 A3022 RMK AO2 $=
201101030745 SPECI KCLM 030745Z AUTO 10SM BKN019 M03/M04 A3022 RMK AO2 $=
201101030653 METAR KCLM 030653Z AUTO 10SM CLR M01/M03 A3021 RMK AO2 SLP232 T10111033 $=
201101030639 SPECI KCLM 030639Z AUTO 10SM FEW020 M02/M04 A3021 RMK AO2 $=
201101030639 SPECI KCLM 030639Z AUTO 10SM FEW020 M02/M04 A3021 RMK AO2 $=
201101030553 METAR KCLM 030553Z AUTO 10SM BKN020 M02/M03 A3023 RMK AO2 SLP240 T10171033 10022 21039 $=
201101030453 METAR KCLM 030453Z AUTO 12005KT 10SM M03/M04 A3022 RMK AO2 SLP237 T10281044 $=
201101030353 METAR KCLM 030353Z AUTO 13005KT CLR M02/M04 A3021 RMK AO2 SLP235 T10171039 $=
201101030253 METAR KCLM 030253Z AUTO 14004KT 10SM CLR M03/M04 A3021 RMK AO2 SLP234 T10281039 51003 $=
201101030153 METAR KCLM 030153Z AUTO 00000KT 10SM CLR M02/M03 A3021 RMK AO2 SLP233 T10171028 $=
201101030100 SPECI KCLM 030100Z AUTO 00000KT 10SM SCT017 M01/M03 A3021 RMK AO2 $=
201101030100 SPECI KCLM 030100Z AUTO 00000KT 10SM SCT017 M01/M03 A3021 RMK AO2 $=
201101030053 METAR KCLM 030053Z AUTO 00000KT 10SM BKN017 M01/M03 A3021 RMK AO2 SLP234 T10061028 $=
201101030025 SPECI KCLM 030025Z AUTO 00000KT 10SM BKN017 01/M02 A3021 RMK AO2 $=
201101030025 SPECI KCLM 030025Z AUTO 00000KT 10SM BKN017 01/M02 A3021 RMK AO2 $=
201101022353 METAR KCLM 022353Z AUTO 10003KT 10SM FEW017 02/M02 A3020 RMK AO2 SLP232 T00221017 10039 21011 56006 $=
201101022253 METAR KCLM 022253Z AUTO 08005KT 10SM FEW019 03/M02 A3020 RMK AO2 SLP231 T00331017 $=
201101022232 SPECI KCLM 022232Z AUTO 09005KT 10SM SCT019 03/M01 A3020 RMK AO2 $=
201101022232 SPECI KCLM 022232Z AUTO 09005KT 10SM SCT019 03/M01 A3020 RMK AO2 $=
201101022223 SPECI KCLM 022223Z AUTO 08006KT 10SM BKN019 03/M02 A3020 RMK AO2 $=
201101022223 SPECI KCLM 022223Z AUTO 08006KT 10SM BKN019 03/M02 A3020 RMK AO2 $=
201101022153 METAR KCLM 022153Z AUTO 09006KT 10SM FEW021 03/M02 A3021 RMK AO2 SLP233 T00331017 $=
201101022053 METAR KCLM 022053Z AUTO VRB04KT 10SM CLR 03/M03 A3022 RMK AO2 SLP237 T00331028 $=
201101021953 METAR KCLM 021953Z AUTO 15004KT 10SM SCT021 03/M02 A3024 RMK AO2 SLP242 T00281017 $=
201101021942 SPECI KCLM 021942Z AUTO 13005KT 10SM BKN021 03/M02 A3024 RMK AO2 $=
201101021942 SPECI KCLM 021942Z AUTO 13005KT 10SM BKN021 03/M02 A3024 RMK AO2 $=
201101021853 METAR KCLM 021853Z AUTO 13003KT 10SM OVC019 02/M01 A3024 RMK AO2 SLP243 T00171011=
201101021753 METAR KCLM 021753Z AUTO 00000KT 10SM OVC021 M01/M03 A3024 RMK AO2 SLP244 T10111028 11011 21061 53005 $=
201101021715 SPECI KCLM 021715Z AUTO 00000KT 10SM BKN019 M04/M05 A3023 RMK AO2=
201101021715 SPECI KCLM 021715Z AUTO 00000KT 10SM BKN019 M04/M05 A3023 RMK AO2=
201101021653 METAR KCLM 021653Z AUTO 00000KT 10SM FEW021 M04/M06 A3023 RMK AO2 SLP242 T10441056=
201101021634 SPECI KCLM 021634Z AUTO 10SM SCT021 M04/M06 A3023 RMK AO2 $=
201101021634 SPECI KCLM 021634Z AUTO 10SM SCT021 M04/M06 A3023 RMK AO2 $=
201101021553 METAR KCLM 021553Z AUTO 10SM BKN021 M04/M05 A3023 RMK AO2 SLP239 T10391050 $=
201101021453 METAR KCLM 021453Z AUTO 10SM BKN018 M04/M05 A3023 RMK AO2 SLP239 T10391050 53002 $=
201101021353 METAR KCLM 021353Z AUTO 10SM CLR M05/M06 A3022 RMK AO2 SLP238 T10501061 $=
201101021253 METAR KCLM 021253Z AUTO 10SM CLR M04/M06 A3022 RMK AO2 SLP237 T10441061 $=
201101021153 METAR KCLM 021153Z AUTO 00000KT 10SM CLR M06/M07 A3022 RMK AO2 SLP237 T10561072 11028 21061 $=
201101021053 METAR KCLM 021053Z AUTO 10SM CLR M04/M06 A3022 RMK AO2 SLP239 T10441056 $=
201101020953 METAR KCLM 020953Z AUTO 10SM CLR M04/M06 A3022 RMK AO2 SLP237 T10441061 $=
201101020853 METAR KCLM 020853Z AUTO 10SM CLR M04/M06 A3022 RMK AO2 SLP235 T10391061 50006 $=
201101020753 METAR KCLM 020753Z AUTO 10SM CLR M03/M05 A3022 RMK AO2 SLP237 T10331050 400281072 $=
201101020653 METAR KCLM 020653Z AUTO 10SM CLR M04/M06 A3021 RMK AO2 SLP235 T10391061 $=
201101020553 METAR KCLM 020553Z AUTO 10SM CLR M04/M06 A3020 RMK AO2 SLP230 T10391061 10006 21050 53008 $=
201101020453 METAR KCLM 020453Z AUTO 10SM CLR M04/M06 A3018 RMK AO2 SLP225 T10391061 $=
201101020353 METAR KCLM 020353Z AUTO 10SM CLR M03/M06 A3018 RMK AO2 SLP223 T10331056 $=
201101020253 METAR KCLM 020253Z AUTO 10SM CLR M03/M05 A3017 RMK AO2 SLP221 T10281050 52008 $=
201101020153 METAR KCLM 020153Z AUTO 9SM CLR M03/M05 A3016 RMK AO2 SLP218 T10281050 $=
201101020053 METAR KCLM 020053Z AUTO 10SM CLR M01/M04 A3016 RMK AO2 SLP216 T10111044 $=
201101012353 METAR KCLM 012353Z AUTO 10SM CLR 01/M04 A3015 RMK AO2 SLP213 T00111039 10028 21011 50000 $=
201101012253 METAR KCLM 012253Z AUTO 10SM FEW100 02/M06 A3016 RMK AO2 SLP216 T00221056 $=
201101012153 METAR KCLM 012153Z AUTO 10SM CLR 02/M04 A3015 RMK AO2 SLP214 T00221044 $=
201101012053 METAR KCLM 012053Z AUTO 10SM CLR 02/M04 A3015 RMK AO2 SLP213 T00221039 50003 $=
201101011953 METAR KCLM 011953Z AUTO 10SM CLR 02/M04 A3016 RMK AO2 SLP218 T00171044 $=
201101011853 METAR KCLM 011853Z AUTO 10SM CLR 01/M05 A3016 RMK AO2 SLP216 T00111050 $=
201101011753 METAR KCLM 011753Z AUTO 10SM CLR M02/M04 A3014 RMK AO2 SLP210 T10171044 11017 21072 53015 $=
201101011653 METAR KCLM 011653Z AUTO 10SM CLR M06/M07 A3012 RMK AO2 SLP202 T10561072 $=
201101011553 METAR KCLM 011553Z AUTO 23006KT 10SM CLR M06/M07 A3010 RMK AO2 SLP197 T10561072 $=
201101011453 METAR KCLM 011453Z AUTO 10SM CLR M07/M08 A3009 RMK AO2 SLP196 T10671078 53009 $=
201101011353 METAR KCLM 011353Z AUTO 10SM CLR M06/M08 A3008 RMK AO2 SLP190 T10611078 $=
201101011253 METAR KCLM 011253Z AUTO 10SM CLR M05/M07 A3007 RMK AO2 SLP187 T10501072 $=
201101011153 METAR KCLM 011153Z AUTO 10SM CLR M03/M07 A3007 RMK AO2 SLP185 T10331067 11033 21067 53006 $=
201101011053 METAR KCLM 011053Z AUTO 10SM CLR M06/M07 A3005 RMK AO2 SLP181 T10561072 $=
201101010953 METAR KCLM 010953Z AUTO 10SM CLR M06/M08 A3005 RMK AO2 SLP180 T10611078 $=
201101010853 METAR KCLM 010853Z AUTO 10SM CLR M05/M08 A3005 RMK AO2 SLP179 T10501078 51003 $=
201101010753 METAR KCLM 010753Z AUTO 15004KT 10SM CLR M06/M08 A3004 RMK AO2 SLP178 T10561083 400061067 $=
201101010653 METAR KCLM 010653Z AUTO 16003KT 10SM CLR M06/M07 A3004 RMK AO2 SLP178 T10561072 $=
201101010553 METAR KCLM 010553Z AUTO 14005KT 10SM CLR M03/M07 A3004 RMK AO2 SLP176 T10331072 10000 21050 53004 $=
201101010453 METAR KCLM 010453Z AUTO 15005KT 10SM CLR M04/M08 A3003 RMK AO2 SLP173 T10391078 $=
201101010353 METAR KCLM 010353Z AUTO 15005KT 10SM CLR M03/M07 A3003 RMK AO2 SLP172 T10281072 $=
201101010253 METAR KCLM 010253Z AUTO 17004KT 10SM CLR M04/M07 A3003 RMK AO2 SLP172 T10441067 58002 $=
201101010153 METAR KCLM 010153Z AUTO 16004KT 10SM CLR M03/M07 A3003 RMK AO2 SLP173 T10281067 $=
201101010053 METAR KCLM 010053Z AUTO 14004KT 10SM CLR M02/M07 A3003 RMK AO2 SLP173 T10221067 $=
201101010015 SPECI KCLM 010015Z AUTO 14004KT 10SM SCT027 M01/M07 A3003 RMK AO2 $=
201101010015 SPECI KCLM 010015Z AUTO 14004KT 10SM SCT027 M01/M07 A3003 RMK AO2 $=
201101010001 SPECI KCLM 010001Z AUTO 13004KT 10SM BKN027 00/M06 A3003 RMK AO2 $=
201101010001 SPECI KCLM 010001Z AUTO 13004KT 10SM BKN027 00/M06 A3003 RMK AO2 $=

# No short TAF reports from KCLM in databse.

###################################
#  large TAF from KCLM
###################################
201101312333 TAF KCLM 312333Z 0100/0124 VRB04KT P6SM BKN150=
201101311720 TAF KCLM 311720Z 3118/0118 VRB04KT P6SM BKN120 FM010600 VRB04KT
                       P6SM BKN200 FM011700 VRB04KT P6SM SCT200=
201101311140 TAF KCLM 311140Z 3112/0112 22005KT P6SM SKC FM312000 VRB03KT P6SM
                       SCT250=
201101310525 TAF KCLM 310525Z 3106/0106 25007KT P6SM SKC FM311200 VRB03KT P6SM
                       SCT250=
201101302339 TAF KCLM 302339Z 3100/3124 VRB03KT P6SM OVC050 FM311200 VRB03KT
                       P6SM SCT250=
201101301730 TAF KCLM 301730Z 3018/3118 10008KT P6SM BKN050 FM302200 VRB03KT
                       P6SM SCT250=
201101301135 TAF KCLM 301135Z 3012/3112 06010KT P6SM VCSH OVC050 FM301800 06008KT
                       P6SM BKN050 FM310000 VRB03KT P6SM SCT250=
201101300800 KCLM 300800Z 3008/3106 VRB04KT P6SM SCT010 OVC040
                      TEMPO 3008/3012 3SM -RA OVC010 FM301200 04014KT
                       P6SM VCSH BKN010 BKN040 FM301800 04014KT
                       P6SM SCT050=
201101300530 TAF KCLM 300530Z 3006/3106 03003KT P6SM -RA OVC006 FM300800 02010KT
                       5SM -RA OVC007
                      TEMPO 3008/3012 3SM -RASN OVC005 FM301200
                       04014KT P6SM VCSH BKN010 BKN040 FM301800
                       04014KT P6SM SCT050=
201101300201 KCLM 300201Z 3002/3024 VRB03KT P6SM OVC010
                      TEMPO 3002/3005 3SM -RA BR OVC002 FM300500
                       02010KT 5SM -RA OVC007
                      TEMPO 3008/3012 3SM -RASN OVC005 FM301200
                       04014KT P6SM VCSH BKN010 BKN040 FM301800
                       04014KT P6SM SCT050=
201101292320 TAF KCLM 292320Z 3000/3024 VRB03KT P6SM OVC010
                      TEMPO 3000/3004 5SM -RA BR OVC007 FM300400
                       02010KT 5SM -RA OVC007
                      TEMPO 3008/3012 3SM -RASN OVC005 FM301200
                       04014KT P6SM VCSH BKN010 BKN040 FM301800
                       04014KT P6SM SCT050=
201101292004 KCLM 292004Z 2920/3018 VRB03KT P6SM SCT006 OVC012 FM292300 VRB03KT
                       5SM -RA BR OVC010 FM300600 02010KT 5SM -RASN
                       BR BKN010 OVC030 FM301200 04014KT P6SM VCSH
                       SCT020 BKN040=
201101291736 TAF KCLM 291736Z 2918/3018 VRB03KT P6SM -RA SCT010 OVC040
                      TEMPO 2918/2922 4SM -RA BR BKN010 OVC030
                       FM292200 VRB03KT 3SM -RA BR OVC010 FM300600
                       02010KT P6SM -RASN BKN020 OVC040 FM301200
                       02012KT P6SM VCSH SCT020 BKN040=
201101291140 TAF KCLM 291140Z 2912/3012 00000KT P6SM SCT010 OVC021
                      TEMPO 2912/2916 BKN010 OVC021 FM291700 VRB03KT
                       P6SM -RA OVC020 FM300600 36006KT P6SM OVC050=
201101290526 TAF KCLM 290526Z 2906/3006 VRB03KT 2SM BR SCT001 BKN050
                      TEMPO 2906/2910 1/2SM FG BKN001 OVC050 FM291000
                       VRB03KT P6SM VCSH BKN020 OVC040 FM291700
                       VRB03KT P6SM -RA OVC020=
201101290400 KCLM 290400Z 2904/2924 00000KT 2SM BR BKN001 OVC045
                      TEMPO 2904/2908 5SM BR SCT001 OVC045 FM290900
                       VRB03KT P6SM VCSH BKN020 OVC040 FM291700
                       VRB03KT P6SM -RA OVC020=
201101282320 TAF KCLM 282320Z 2900/2924 VRB03KT P6SM SCT025 BKN050
                      TEMPO 2900/2904 -SHRA BKN025 OVC040 FM290900
                       VRB03KT P6SM VCSH BKN020 OVC040 FM291700
                       VRB03KT P6SM -RA OVC020=
201101282106 KCLM 282106Z 2821/2918 VRB03KT P6SM SCT008 OVC050
                      TEMPO 2821/2824 5SM -RA BR BKN008 OVC035
                       FM290000 VRB04KT P6SM VCSH BKN020 BKN040=
201101281720 TAF KCLM 281720Z 2818/2918 09005KT P6SM SCT015 OVC060
                      TEMPO 2819/2823 5SM -RA BR BKN015 OVC040
                       FM290000 VRB04KT P6SM VCSH BKN020 BKN040=
201101281502 KCLM 281502Z 2815/2912 00000KT 5SM BR OVC005 FM281800 VRB03KT 4SM
                       -RA BR SCT005 OVC020 FM290100 VRB03KT 4SM
                       -SHRA BR BKN020 OVC100 FM290700 23004KT
                       P6SM VCSH SCT025 BKN060=
201101281135 TAF KCLM 281135Z 2812/2912 00000KT 6SM BR SCT003 OVC150
                      TEMPO 2812/2814 1SM BR OVC001 FM281400 VRB03KT
                       P6SM OVC040 FM281800 VRB03KT 2SM -RA BR
                       OVC020 FM290100 VRB03KT 4SM -SHRA BR BKN020
                       OVC100 FM290700 23004KT P6SM VCSH SCT025
                       BKN060=
201101280910 KCLM 280910Z 2809/2906 00000KT 3SM BR OVC001
                      TEMPO 2809/2813 1/4SM FG VV001 FM281800 22003KT
                       2SM -RA BR OVC020 FM290100 10003KT 4SM -SHRA
                       BR BKN020 OVC100=
201101280535 TAF KCLM 280535Z 2806/2906 10003KT 1/4SM FG VV001 FM281800 22003KT
                       2SM -RA BR OVC020 FM290100 10003KT 4SM -SHRA
                       BR BKN020 OVC100=
201101272336 TAF KCLM 272336Z 2800/2824 00000KT 1/2SM FG OVC001 FM281000 21004KT
                       P6SM SCT003 BKN120 OVC200 FM281400 VRB03KT
                       P6SM -RA OVC040 FM281700 VRB03KT P6SM -RA
                       BKN020 OVC035=
201101272201 KCLM 272201Z 2722/2818 00000KT 1/2SM FG OVC001
                      TEMPO 2722/2724 3SM BR SCT001 BKN250 FM280000
                       VRB03KT P6SM BKN250 FM280300 21003KT P6SM
                       SCT120 OVC250 FM281400 VRB03KT P6SM -RA
                       OVC040=
201101272002 KCLM 272002Z 2720/2818 13004KT 1/2SM FG OVC001
                      TEMPO 2720/2721 3SM BR SCT001 BKN250 FM272100
                       VRB03KT P6SM BKN250
                      TEMPO 2721/2722 3SM BR BKN002 BKN250 FM280300
                       21003KT P6SM SCT120 OVC250 FM281400 VRB03KT
                       P6SM -RA OVC040=
201101271721 TAF KCLM 271721Z 2718/2818 17004KT 1/4SM FG VV001
                      TEMPO 2718/2720 2SM BR SCT001 BKN250 FM272000
                       10003KT P6SM BKN250 FM280300 21003KT P6SM
                       SCT120 OVC250 FM281400 VRB03KT P6SM -RA
                       OVC040=
201101271130 TAF KCLM 271130Z 2712/2812 14003KT 1/2SM FG OVC001
                      TEMPO 2712/2716 1SM BR BKN003 FM271600 00000KT
                       1/4SM FG OVC001
                      TEMPO 2716/2718 3SM BR SCT004 FM271800 11003KT
                       3SM BR SCT004 FM271900 10003KT P6SM BKN250
                       FM280300 21003KT P6SM SCT120 OVC250=
201101271105 KCLM 271105Z 2711/2806 VRB03KT 1/2SM FG OVC001
                      TEMPO 2714/2718 1SM BR BKN003 FM271800 14003KT
                       1SM BR BKN005 FM271900 10003KT P6SM BKN250=
201101270535 TAF KCLM 270535Z 2706/2806 21003KT 3SM BR SKC
                      TEMPO 2706/2710 1SM BR FM271000 21003KT 4SM
                       BR SCT004
                      TEMPO 2710/2714 1SM BR OVC004 FM271800 18005KT
                       P6SM BKN250=
201101270206 KCLM 270206Z 2702/2724 23003KT P6SM SCT120
                      TEMPO 2702/2705 1SM BR BKN002 BKN120=
201101262328 TAF KCLM 262328Z 2700/2724 23003KT P6SM BKN120=
201101262101 KCLM 262101Z 2621/2718 24004KT P6SM SCT009 BKN150
                      TEMPO 2621/2623 BKN009 BKN150 FM270100 VRB03KT
                       P6SM BKN200=
201101261720 TAF KCLM 261720Z 2618/2718 24004KT P6SM BKN009
                      TEMPO 2618/2620 SCT009 BKN100 FM262000 VRB03KT
                       P6SM BKN120=
201101261616 KCLM 261616Z 2616/2712 24004KT P6SM OVC009
                      TEMPO 2616/2619 SCT009 BKN100 FM261900 VRB03KT
                       P6SM BKN120=
201101261120 TAF KCLM 261120Z 2612/2712 00000KT 4SM BR FEW013 BKN100
                      TEMPO 2612/2616 1SM BR BKN013 OVC100 FM261800
                       VRB03KT P6SM BKN120=
201101260748 KCLM 260748Z 2608/2706 00000KT 3SM BR OVC015 FM261700 VRB03KT P6SM
                       SCT035 SCT050 BKN120=
201101260527 TAF KCLM 260527Z 2606/2706 00000KT P6SM OVC015 FM261700 VRB03KT
                       P6SM SCT035 SCT050 BKN120=
201101260304 KCLM 260304Z 2603/2624 00000KT 5SM BR SCT011 OVC019
                      TEMPO 2603/2605 2SM BR BKN010 OVC019 FM260500
                       21003KT 2SM BR BKN002 OVC005 FM262000 VRB03KT
                       P6SM SCT050 BKN200=
201101252356 KCLM 252356Z 2600/2624 13006KT P6SM SCT005 SCT015 OVC021 FM260500
                       21003KT 2SM BR BKN002 OVC005 FM262000 VRB03KT
                       P6SM SCT050 BKN200=
201101252323 TAF KCLM 252323Z 2600/2624 VRB03KT P6SM BKN005 OVC009 FM260500
                       21003KT 2SM BR BKN002 OVC005 FM262000 VRB03KT
                       P6SM SCT050 BKN200=
201101252147 KCLM 252147Z 2522/2618 30006KT 2SM BR OVC003 FM252300 VRB03KT P6SM
                       BKN013 OVC030 FM260500 00000KT 1/2SM FG
                       VV001=
201101251721 TAF KCLM 251721Z 2518/2618 24003KT P6SM BKN017 OVC023 FM252000
                       VRB03KT P6SM BKN050 FM260500 00000KT 1/2SM
                       FG VV001=
201101251120 TAF KCLM 251120Z 2512/2612 24006KT P6SM SCT005 OVC016
                      TEMPO 2513/2517 2SM BR OVC005 FM252000 VRB03KT
                       P6SM BKN050 FM260500 00000KT 1/2SM FG VV001=
201101250826 KCLM 250826Z 2508/2606 28003KT 5SM BR BKN021 OVC029 FM251100 VRB03KT
                       2SM BR BKN005 OVC012
                      TEMPO 2512/2516 1/2SM FG VV001 FM251700 00000KT
                       5SM BR OVC007 FM252000 VRB03KT P6SM SCT005
                       BKN050=
201101250522 TAF KCLM 250522Z 2506/2606 00000KT 1SM BR BKN006 OVC060 FM250900
                       00000KT 1/4SM FG VV001 FM251600 00000KT
                       5SM BR OVC007 FM252000 VRB03KT P6SM SCT005
                       BKN050=
201101250306 KCLM 250306Z 2503/2524 00000KT 1/4SM FG VV001 FM251600 00000KT
                       5SM BR OVC007 FM252000 VRB03KT P6SM SCT005
                       BKN050=
201101242325 TAF KCLM 242325Z 2500/2524 30003KT P6SM OVC002 FM250400 23004KT
                       2SM BR OVC002 FM251800 VRB03KT P6SM SCT005
                       BKN050=
201101241820 KCLM 241820Z 2418/2518 31004KT P6SM FEW001 SCT018 BKN080
                      TEMPO 2418/2420 1SM BR BKN001 OVC018 FM242000
                       VRB03KT 5SM -RA BR BKN004 OVC045 FM250200
                       25005KT P6SM BKN015 BKN045=
201101241809 KCLM 241809Z 2418/2518 31004KT P6SM FEW001 SCT018 BKN080 FM242000
                       VRB03KT 5SM -RA BR BKN004 OVC045 FM250200
                       25005KT P6SM BKN015 BKN045=
201101241724 TAF KCLM 241724Z 2418/2518 00000KT 1/4SM FG OVC001 FM242000 VRB03KT
                       5SM -RA BR BKN004 OVC045 FM250200 25005KT
                       P6SM BKN015 BKN045=
201101241647 KCLM 241647Z 2417/2512 28004KT 1/2SM FG OVC001
                      TEMPO 2417/2421 4SM BR SCT002 BKN080 FM242100
                       VRB03KT 5SM -RA BR BKN020 OVC045 FM250200
                       25005KT P6SM VCSH SCT020 BKN045=
201101241601 KCLM 241601Z 2416/2512 00000KT 4SM BR OVC001
                      TEMPO 2416/2418 P6SM NSW SCT003 BKN080 FM241800
                       00000KT P6SM SCT020 BKN045 FM242100 VRB03KT
                       5SM -RA BR BKN020 OVC045 FM250200 25005KT
                       P6SM VCSH SCT020 BKN045=
201101241449 KCLM 241449Z 2415/2512 00000KT P6SM SCT004 OVC070
                      TEMPO 2415/2416 1/2SM FG VV001 FM241600 VRB03KT
                       P6SM SCT020 BKN045 FM242100 VRB03KT 5SM
                       -RA BR BKN020 OVC045 FM250200 25005KT P6SM
                       VCSH SCT020 BKN045=
201101241316 KCLM 241316Z 2413/2512 00000KT 4SM BR BKN004 OVC070
                      TEMPO 2413/2416 1/2SM FG VV001 FM241600 VRB03KT
                       P6SM SCT020 BKN045 FM242100 VRB03KT 5SM
                       -RA BR BKN020 OVC045 FM250200 25005KT P6SM
                       VCSH SCT020 BKN045=
201101241157 KCLM 241157Z 2412/2512 27003KT 5SM BR OVC002 FM241500 VRB03KT P6SM
                       SCT020 BKN045 FM242100 VRB03KT 5SM -RA BR
                       BKN020 OVC045 FM250200 25005KT P6SM VCSH
                       SCT020 BKN045=
201101241121 TAF KCLM 241121Z 2412/2512 00000KT P6SM SCT050 OVC100 FM242100
                       VRB03KT 5SM -RA BR BKN020 OVC045 FM250200
                       25005KT P6SM VCSH SCT020 BKN045=
201101240826 KCLM 240826Z 2408/2506 00000KT P6SM -RA OVC003 FM241400 21003KT
                       P6SM VCSH SCT015 BKN045 FM242100 VRB03KT
                       5SM -RA BR BKN020 OVC045 FM250200 25005KT
                       P6SM VCSH SCT020 BKN045=
201101240520 TAF KCLM 240520Z 2406/2506 00000KT 1SM -RA BR OVC001 FM241400 21003KT
                       P6SM VCSH SCT015 BKN045 FM242100 VRB03KT
                       5SM -RA BR BKN020 OVC045 FM250200 25005KT
                       P6SM VCSH SCT020 BKN045=
201101240427 KCLM 240427Z 2404/2424 00000KT 2SM BR OVC003
                      TEMPO 2406/2410 2SM -RA BR FM241200 21003KT
                       P6SM VCSH SCT015 BKN045 FM241700 VRB03KT
                       5SM -RA BR SCT020 OVC045=
201101232337 TAF KCLM 232337Z 2400/2424 07003KT P6SM OVC004
                      TEMPO 2400/2404 3SM BR OVC002 FM240400 VRB03KT
                       5SM -RA BR OVC004 FM240800 21003KT P6SM
                       VCSH SCT015 BKN045 FM241700 VRB03KT 5SM
                       -RA BR SCT020 OVC045=
201101232154 KCLM 232154Z 2322/2418 07003KT P6SM SCT004 OVC008
                      TEMPO 2322/2402 5SM BR BKN004 OVC008 FM240300
                       VRB03KT 5SM -RA BR BKN012 OVC025 FM240900
                       21003KT P6SM VCSH SCT015 BKN045=
201101231739 TAF KCLM 231739Z 2318/2418 VRB03KT 5SM BR SCT004 OVC015
                      TEMPO 2318/2322 1 1/2SM -DZ BR BKN004 OVC015
                       FM240300 VRB03KT 5SM -RA BR BKN012 OVC025
                       FM240900 21003KT P6SM VCSH SCT015 BKN045=
201101231122 TAF KCLM 231122Z 2312/2412 00000KT P6SM -RA BKN050 OVC070 FM231500
                       VRB03KT P6SM VCSH SCT012 OVC025 FM240000
                       VRB03KT 5SM -RA BR BKN012 OVC020=
201101230803 KCLM 230803Z 2308/2406 00000KT P6SM -RA SCT022 OVC050
                      TEMPO 2308/2310 BKN020 OVC050 FM231000 VRB03KT
                       P6SM -RA OVC020 FM231600 VRB03KT P6SM VCSH
                       SCT012 OVC020 FM232300 VRB03KT 5SM -RA BR
                       BKN012 OVC020=
201101230527 TAF KCLM 230527Z 2306/2406 00000KT P6SM BKN023 OVC090 FM230900
                       VRB03KT P6SM -RA OVC020 FM231600 VRB03KT
                       P6SM VCSH SCT012 OVC020 FM232300 VRB03KT
                       5SM -RA BR BKN012 OVC020=
201101222340 TAF KCLM 222340Z 2300/2324 VRB03KT P6SM BKN025 FM230900 21003KT
                       P6SM SCT012 OVC018
                      TEMPO 2309/2313 -RA=
201101221744 TAF KCLM 221744Z 2218/2318 VRB03KT P6SM SCT015 OVC020 FM230900
                       21003KT P6SM -RA SCT012 OVC018=
201101221434 KCLM 221434Z 2215/2312 25005KT P6SM SCT025 BKN200
                      TEMPO 2215/2219 BKN025 BKN200 FM222000 VRB04KT
                       P6SM SCT020 SCT040 BKN150 FM230300 VRB04KT
                       P6SM OVC050 FM230800 VRB04KT P6SM OVC035=
201101221120 TAF KCLM 221120Z 2212/2312 24007KT P6SM SCT020 SCT040 FM222000
                       VRB04KT P6SM SCT020 SCT040 BKN150 FM230300
                       VRB04KT P6SM OVC050 FM230800 VRB04KT P6SM
                       OVC035=
201101220528 TAF KCLM 220528Z 2206/2306 25008KT P6SM SCT015 FM220900 24007KT
                       P6SM SCT008 BKN035 FM222000 VRB04KT P6SM
                       SCT020 SCT040 BKN150 FM230300 VRB04KT P6SM
                       OVC050=
201101212341 TAF KCLM 212341Z 2200/2224 29014G20KT P6SM SCT010 FM220900 24007KT
                       P6SM SCT008 BKN045 FM221700 VRB03KT P6SM
                       BKN006=
201101212206 KCLM 212206Z 2122/2218 29014G20KT P6SM VCSH SCT012 SCT080
                      TEMPO 2122/2124 BKN008 OVC012 FM220500 24007KT
                       P6SM SCT200 FM221600 22005KT P6SM BKN006=
201101212035 KCLM 212035Z 2121/2218 31004KT P6SM VCSH SCT015 SCT080 FM220500
                       24007KT P6SM SCT200 FM221600 22005KT P6SM
                       BKN006=
201101211736 TAF KCLM 211736Z 2118/2218 25004KT 4SM -RA BR OVC007 FM212000 29011KT
                       P6SM VCSH BKN015 BKN035 FM220500 24007KT
                       P6SM SCT200 FM221600 22005KT P6SM BKN006=
201101211424 KCLM 211424Z 2114/2212 00000KT P6SM -RA SCT006 OVC050
                      TEMPO 2114/2116 5SM -RA BR BKN006 OVC020
                       FM211800 26004KT 4SM -RA BR OVC007 FM212200
                       29007KT P6SM VCSH BKN015 BKN035 FM220600
                       26007KT P6SM BKN015=
201101211157 KCLM 211157Z 2112/2212 22003KT 5SM -RA BR BKN005 OVC014
                      TEMPO 2112/2116 2SM -RA BR SCT005 OVC030
                       FM211800 26004KT 4SM -RA BR OVC007 FM212200
                       29007KT P6SM VCSH BKN015 BKN035 FM220600
                       26007KT P6SM BKN015=
201101211124 TAF KCLM 211124Z 2112/2212 22003KT 5SM -RA BR BKN005 OVC014
                      TEMPO 2114/2118 2SM -RA BR OVC005 FM211800
                       26004KT 4SM -RA BR OVC007 FM212200 29007KT
                       P6SM VCSH BKN015 BKN035 FM220600 26007KT
                       P6SM BKN015=
201101210742 KCLM 210742Z 2108/2206 00000KT 5SM -RA BR BKN006 OVC040 FM210900
                       VRB03KT P6SM -RA OVC022 FM212000 26008KT
                       P6SM SCT020 BKN035=
201101210532 TAF KCLM 210532Z 2106/2206 00000KT P6SM -RA OVC045 FM210900 VRB03KT
                       P6SM -RA OVC022 FM212000 26008KT P6SM SCT020
                       BKN035=
201101202344 TAF KCLM 202344Z 2100/2124 VRB03KT P6SM SCT012 OVC040
                      TEMPO 2100/2104 -RA BKN012 OVC040 FM210900
                       VRB03KT P6SM -RA OVC022 FM212000 26008KT
                       P6SM SCT020 BKN035=
201101201737 TAF KCLM 201737Z 2018/2118 VRB03KT P6SM -RA BKN022 OVC040 FM210200
                       VRB03KT P6SM -SHRA SCT020 OVC035 FM210900
                       VRB03KT P6SM -RA OVC015=
201101201128 TAF KCLM 201128Z 2012/2112 22006KT P6SM OVC090 FM201600 VRB03KT
                       P6SM -RA OVC040 FM210200 VRB03KT P6SM -SHRA
                       OVC030 FM210900 23003KT P6SM -RA OVC015=
201101200536 TAF KCLM 200536Z 2006/2106 00000KT P6SM BKN110 FM200800 VRB03KT
                       P6SM BKN050 OVC120 FM201600 VRB03KT P6SM
                       -RA OVC040 FM210200 VRB03KT P6SM -RA OVC030=
201101192339 TAF KCLM 192339Z 2000/2024 VRB03KT P6SM SCT035
                      TEMPO 2000/2003 BKN035 FM200800 VRB03KT P6SM
                       BKN050 OVC120 FM201400 VRB03KT P6SM -RA
                       OVC040=
201101191741 TAF KCLM 191741Z 1918/2018 VRB03KT P6SM SCT040 FM200800 21004KT
                       P6SM BKN050 OVC120 FM201100 24004KT P6SM
                       -RA OVC040=
201101191520 KCLM 191520Z 1915/2012 24006KT P6SM SCT015 FM191800 VRB03KT P6SM
                       SCT040 SCT200 FM200800 21004KT P6SM BKN050
                       OVC120=
201101191136 TAF KCLM 191136Z 1912/2012 VRB03KT P6SM BKN030 FM191400 24006KT
                       P6SM BKN007 FM191800 VRB03KT P6SM SCT015
                       SCT200 FM200800 21004KT P6SM BKN050 OVC120=
201101190536 TAF KCLM 190536Z 1906/2006 00000KT P6SM SKC FM191400 24006KT P6SM
                       BKN007 FM191800 VRB03KT P6SM SCT015 SCT200=
201101182345 TAF KCLM 182345Z 1900/1924 VRB03KT P6SM -RA SCT006 BKN020 OVC035
                       TEMPO 1900/1902 BKN006 OVC018 FM190200 24003KT
                       P6SM SCT022 BKN050 FM190400 24004KT P6SM
                       SCT250 FM191400 24006KT P6SM BKN007 FM191800
                       VRB03KT P6SM SCT015 SCT200=
201101182201 KCLM 182201Z 1822/1918 34005KT P6SM -RA BKN012 OVC030 FM190100
                       30003KT P6SM SCT015 BKN030 BKN070
                      TEMPO 1901/1904 BKN015 BKN030 BKN070 FM191200
                       24005KT P6SM BKN012=
201101181746 TAF KCLM 181746Z 1818/1918 00000KT P6SM SCT050 OVC100 FM182000
                       VRB03KT P6SM -RA BKN045 OVC070 FM190100
                       30003KT P6SM SCT035 BKN070 FM191400 24005KT
                       P6SM BKN015=
201101181716 KCLM 181716Z 1817/1912 00000KT P6SM SCT050 OVC100 FM182000 VRB03KT
                       P6SM -RA BKN045 OVC070 FM190200 35006KT
                       P6SM VCSH BKN035 BKN060 FM190600 27006KT
                       P6SM BKN025=
201101181131 TAF KCLM 181131Z 1812/1912 00000KT P6SM OVC035 FM181600 24005KT
                       P6SM BKN015 OVC030 FM181800 VRB03KT P6SM
                       -RA BKN030 OVC050 FM190200 35006KT P6SM
                       VCSH BKN015 BKN030 FM190600 27006KT P6SM
                       BKN025=
201101180531 TAF KCLM 180531Z 1806/1906 29008KT P6SM SCT200 FM180700 25007KT
                       P6SM BKN030 FM181600 24005KT P6SM BKN015
                       OVC030 FM181800 VRB03KT P6SM -RA BKN030
                       OVC050 FM190200 35006KT P6SM VCSH BKN015
                       BKN030=
201101172341 TAF KCLM 172341Z 1800/1824 29015G25KT P6SM FEW025 SCT060 FM180400
                       29011KT P6SM SCT030 FM180700 25007KT P6SM
                       BKN030 FM181600 24005KT P6SM BKN015 OVC030
                       FM181800 VRB03KT P6SM -RA BKN030 OVC050=
201101171946 KCLM 171946Z 1720/1818 29015G25KT P6SM FEW025 SCT060
                      TEMPO 1720/1724 SCT025 BKN060 FM180200 26012G20KT
                       P6SM BKN070 BKN150 FM180600 26009KT P6SM
                       SCT050 BKN150=
201101171752 TAF KCLM 171752Z 1718/1818 26015G25KT P6SM SCT025 BKN045 OVC060
                       FM180200 26012G20KT P6SM BKN070 BKN150 FM180600
                       26009KT P6SM SCT050 BKN150=
201101171553 KCLM 171553Z 1716/1812 29015G22KT P6SM SCT040 SCT070
                      TEMPO 1716/1719 BKN040 BKN070 FM171900 26015G22KT
                       P6SM SCT025 BKN050 BKN150 FM172000 26015G25KT
                       P6SM VCSH SCT050 BKN150 FM180000 26012G20KT
                       P6SM SCT050 BKN150 FM180300 26009KT P6SM
                       SCT050 BKN150=
201101171144 TAF KCLM 171144Z 1712/1812 28008KT P6SM SCT025 OVC050
                      TEMPO 1712/1714 -SHRA BKN025 OVC050 FM171400
                       26008KT P6SM -SHRA SCT010 OVC025
                      TEMPO 1714/1718 5SM SHRA BKN010 OVC025 FM171800
                       26013KT P6SM SCT025 BKN050 BKN150
                      TEMPO 1718/1720 -SHRA BKN025 OVC050 FM172000
                       26015G25KT P6SM VCSH SCT050 BKN150 FM180000
                       26012G20KT P6SM SCT050 BKN150 FM180300 26009KT
                       P6SM SCT050 BKN150=
201101170645 KCLM 170645Z 1707/1806 VRB04KT P6SM VCSH SCT009 OVC060
                      TEMPO 1707/1709 BKN009 OVC060 FM170900 25006KT
                       P6SM VCSH SCT015 BKN060
                      TEMPO 1709/1713 BKN015 OVC060 FM171800 25009KT
                       P6SM SCT025 BKN050
                      PROB30 1718/1722 -SHRA FM172200 27015G23KT
                       P6SM VCSH SCT050
                      TEMPO 1722/1802 BKN050 FM180200 25013KT P6SM
                       SCT050=
201101170546 TAF KCLM 170546Z 1706/1806 VRB04KT P6SM VCSH SCT009 BKN015 OVC060
                       TEMPO 1706/1709 BKN009 OVC015 FM170900 25006KT
                       P6SM VCSH SCT015 BKN060
                      TEMPO 1709/1713 BKN015 OVC060 FM171800 25009KT
                       P6SM SCT025 BKN050
                      PROB30 1718/1722 -SHRA FM172200 27015G23KT
                       P6SM VCSH SCT050
                      TEMPO 1722/1802 BKN050 FM180200 25013KT P6SM
                       SCT050=
201101162346 TAF KCLM 162346Z 1700/1724 25006KT P6SM -SHRA FEW003 BKN045 FM170600
                       27010G18KT P6SM -SHRA BKN018 BKN060 BKN200
                       FM171200 27012G20KT P6SM VCSH BKN025 BKN060
                       FM171800 28010KT P6SM BKN060=
201101161745 TAF KCLM 161745Z 1618/1718 30005KT P6SM VCSH FEW003 BKN060 OVC200
                       TEMPO 1618/1621 BKN003 FM170000 25006KT
                       P6SM VCSH SCT060 BKN200 FM170600 VRB03KT
                       P6SM SCT018 BKN060 BKN200
                      TEMPO 1708/1712 BKN018 OVC060=
201101161152 TAF KCLM 161152Z 1612/1712 VRB03KT P6SM SCT005 OVC060
                      TEMPO 1612/1616 -SHRA BKN005 OVC030 FM161800
                       25006KT P6SM VCSH FEW011 BKN060 OVC200 FM170000
                       25006KT P6SM VCSH SCT060 BKN200 FM170600
                       VRB03KT P6SM SCT018 BKN060 BKN200
                      TEMPO 1708/1712 BKN018 OVC060=
201101160837 KCLM 160837Z 1609/1706 VRB05KT P6SM -RA SCT005 SCT020CB OVC050
                       TEMPO 1609/1612 4SM -RA BR BKN005 OVC020CB
                       FM161200 VRB05KT P6SM SCT012 OVC030
                      TEMPO 1612/1616 -SHRA BKN012 OVC030 FM161800
                       25006KT P6SM VCSH SCT022 BKN040 BKN060 FM170000
                       25006KT P6SM VCSH SCT040 BKN060 BKN200=
201101160833 KCLM 160833Z 1609/1706 VRB05KT P6SM -RA SCT005 SCT020 OVC050
                      TEMPO 1609/1612 4SM -RA BR BKN005 OVC020
                       FM161200 VRB05KT P6SM SCT012 OVC030
                      TEMPO 1612/1616 -SHRA BKN012 OVC030 FM161800
                       25006KT P6SM VCSH SCT022 BKN040 BKN060 FM170000
                       25006KT P6SM VCSH SCT040 BKN060 BKN200=
201101160549 TAF KCLM 160549Z 1606/1706 VRB05KT 5SM -RA BR SCT005 OVC012
                      TEMPO 1606/1610 2SM -RA BR BKN005 OVC012
                       FM161200 VRB05KT P6SM SCT012 OVC030
                      TEMPO 1612/1616 -SHRA BKN012 OVC030 FM161800
                       25006KT P6SM VCSH SCT022 BKN040 BKN060 FM170000
                       25006KT P6SM VCSH SCT040 BKN060 BKN200=
201101160244 KCLM 160244Z 1603/1624 24005KT P6SM -RA BKN002 OVC012
                      TEMPO 1603/1606 2SM -RA BR FM160600 10006KT
                       2SM -RA BR BKN003 OVC015 FM161200 24010KT
                       P6SM -SHRA OVC035=
201101160122 KCLM 160122Z 1601/1624 09006KT 4SM -RA BR SCT003 BKN015 OVC040
                       TEMPO 1601/1604 2SM -RA BR BKN003 OVC015
                       FM160400 10006KT 2SM -RA BR BKN003 OVC015
                       FM160600 12006KT 5SM -RA BR BKN012 BKN025
                       FM161200 24010KT P6SM -SHRA OVC035=
201101152343 TAF KCLM 152343Z 1600/1624 09006KT 5SM -RA BR SCT004 OVC018
                      TEMPO 1600/1604 1SM -RA BR OVC001 FM160400
                       10006KT 3SM -RA BR OVC008 FM160600 12006KT
                       5SM -RA BR BKN012 BKN025 FM161200 24010KT
                       P6SM -SHRA OVC035=
201101152247 KCLM 152247Z 1523/1618 09006KT 5SM -RA BR SCT008 OVC030
                      TEMPO 1523/1602 2SM -RA BR OVC008 FM160200
                       12006KT 5SM -RA BR OVC025 FM161200 24010KT
                       P6SM -SHRA OVC030=
201101152027 KCLM 152027Z 1520/1618 06005KT P6SM SCT018 BKN080 FM152200 09006KT
                       P6SM -RA SCT018 SCT030 BKN045
                      TEMPO 1523/1602 6SM -RA BR OVC030 FM160200
                       12006KT 5SM -RA BR OVC025 FM161200 24010KT
                       P6SM -SHRA OVC030=
201101151744 TAF KCLM 151744Z 1518/1618 21004KT P6SM BKN018 BKN050 FM152100
                       23006KT P6SM -RA SCT030 BKN045
                      TEMPO 1521/1524 6SM -RA BR OVC030 FM160000
                       12006KT 5SM -RA BR OVC025 FM161300 24010KT
                       P6SM -SHRA OVC030=
201101151143 TAF KCLM 151143Z 1512/1612 VRB03KT P6SM FEW040 SCT090 OVC150 FM151700
                       VRB03KT P6SM SCT040 OVC090 FM152100 VRB03KT
                       P6SM SCT020 OVC040
                      PROB30 1521/1524 -RA FM160000 VRB03KT P6SM
                       -RA FEW008 BKN020 OVC040 FM160600 VRB03KT
                       3SM -RA BR BKN008 OVC015=
201101150903 KCLM 150903Z 1509/1606 10005KT P6SM VCFG SCT012 SCT090 OVC150
                      TEMPO 1509/1513 BKN012 BKN090 OVC150 FM151800
                       VRB03KT P6SM SCT090 OVC150 FM152100 VRB03KT
                       P6SM SCT040 OVC090
                      PROB30 1521/1602 -RA BKN040 OVC090 FM160200
                       VRB03KT 6SM -RA BR SCT015 OVC040=
201101150600 KCLM 150600Z 1506/1606 VRB03KT P6SM VCFG FEW005 FEW090 OVC150 FM151800
                       VRB03KT P6SM SCT090 OVC150 FM152100 VRB03KT
                       P6SM SCT040 OVC090
                      PROB30 1521/1602 -RA BKN040 OVC090 FM160200
                       VRB03KT 6SM -RA BR SCT015 OVC040=
201101150544 TAF KCLM 150544Z 1506/1606 VRB04KT P6SM SCT060 BKN200 FM151500
                       12004KT P6SM SCT060 OVC200 FM152100 12005KT
                       P6SM BKN080 OVC200=
201101150208 KCLM 150208Z 1502/1524 VRB04KT P6SM SCT060 BKN200 FM151500 12004KT
                       P6SM SCT060 OVC200 FM152100 12005KT P6SM
                       BKN080 OVC200=
201101142341 TAF KCLM 142341Z 1500/1524 30010G20KT P6SM BKN060 FM150600 25005KT
                       P6SM SCT060 BKN200 FM151500 12004KT P6SM
                       SCT060 OVC200 FM152100 12005KT P6SM BKN080
                       OVC200=
201101141846 KCLM 141846Z 1419/1518 15004KT P6SM -RA SCT001 BKN040
                      TEMPO 1419/1420 4SM RA BR OVC001 FM142000
                       25011KT P6SM OVC030
                      TEMPO 1420/1424 -SHRA FM150000 25005KT P6SM
                       VCSH BKN030 BKN060 FM150600 VRB03KT P6SM
                       VCSH SCT030 SCT060 BKN200=
201101141720 TAF KCLM 141720Z 1418/1518 15004KT P6SM -RA FEW025 BKN040
                      TEMPO 1418/1420 4SM RA BR OVC025 FM142000
                       25011KT P6SM OVC030
                      TEMPO 1420/1424 -SHRA FM150000 25005KT P6SM
                       VCSH BKN030 BKN060 FM150600 VRB03KT P6SM
                       VCSH SCT030 SCT060 BKN200=
201101141646 KCLM 141646Z 1417/1512 15004KT P6SM -RA FEW025 BKN040
                      TEMPO 1418/1420 4SM RA BR OVC025 FM142000
                       25011KT P6SM OVC030
                      TEMPO 1420/1424 -SHRA FM150000 25005KT P6SM
                       VCSH BKN030 BKN060 FM150600 VRB03KT 4SM
                       BR SCT030 SCT060 BKN200=
201101141134 TAF KCLM 141134Z 1412/1512 10005KT P6SM SCT007 BKN020 OVC050
                      TEMPO 1412/1415 BKN007 OVC020 FM141500 VRB03KT
                       4SM -RA BR SCT007 OVC012
                      TEMPO 1415/1419 BKN007 OVC012 FM142200 25006KT
                       P6SM BKN015 OVC030
                      TEMPO 1422/1502 -SHRA FM150200 25005KT P6SM
                       VCSH BKN030 BKN060 FM150600 VRB03KT 4SM
                       BR SCT030 SCT060 BKN200=
201101141034 KCLM 141034Z 1411/1506 14008KT P6SM SCT015 BKN060
                      TEMPO 1411/1413 BKN015 OVC060 FM141500 VRB03KT
                       4SM -RA BR SCT007 OVC012
                      TEMPO 1415/1419 BKN007 OVC012 FM142200 VRB03KT
                       P6SM BKN015 OVC030
                      TEMPO 1422/1424 -SHRA FM150000 25005KT P6SM
                       VCSH BKN030 BKN060=
201101140633 KCLM 140633Z 1407/1506 00000KT P6SM SCT012 BKN060 OVC130
                      TEMPO 1407/1410 BKN012 OVC060 FM141000 00000KT
                       P6SM BKN012 OVC050 FM141500 VRB03KT 4SM
                       -RA BR SCT007 OVC012
                      TEMPO 1415/1419 BKN007 OVC012 FM142200 VRB03KT
                       P6SM BKN015 OVC030
                      TEMPO 1422/1424 -SHRA FM150000 25005KT P6SM
                       VCSH BKN030 BKN060=
201101140546 TAF KCLM 140546Z 1406/1506 09005KT P6SM BKN015 BKN040 BKN100 FM141200
                       09005KT 4SM -RA BR SCT007 OVC012 FM142000
                       27012KT P6SM -SHRA BKN015 OVC040=
201101140313 KCLM 140313Z 1403/1424 00000KT 4SM BR BKN060 BKN100 FM140600 09005KT
                       P6SM BKN015 BKN040 BKN100 FM141200 09005KT
                       4SM -RA BR SCT007 OVC012 FM142000 27012KT
                       P6SM -SHRA BKN015 OVC040=
201101132320 TAF KCLM 132320Z 1400/1424 VRB04KT P6SM SCT030 BKN050 OVC090 FM140600
                       09005KT P6SM BKN015 BKN040 BKN100 FM141200
                       09005KT 4SM -RA BR SCT007 OVC012 FM142000
                       27012KT P6SM -SHRA BKN015 OVC040=
201101131723 TAF KCLM 131723Z 1318/1418 26007KT P6SM SCT005 BKN040 OVC080
                      TEMPO 1318/1321 5SM -SHRA BR BKN005 OVC040
                       FM132100 26007KT P6SM VCSH SCT020 BKN050
                       BKN100 FM140600 09004KT P6SM BKN050 BKN100
                       FM141200 09004KT 4SM -RA BR SCT005 OVC015=
201101131649 KCLM 131649Z 1317/1412 22007KT P6SM SCT005 BKN040 OVC080
                      TEMPO 1317/1321 5SM -SHRA BR BKN005 OVC040
                       FM132100 25007KT P6SM VCSH FEW028 BKN050
                       BKN100 FM140000 VRB03KT P6SM SCT050 BKN100=
201101131640 KCLM 131640Z 1317/1412 VRB03KT 4SM -RA BR BKN002 OVC015 FM131800
                       25007KT P6SM SCT015 BKN040 OVC080
                      TEMPO 1318/1321 -SHRA BKN015 OVC040 FM132100
                       25007KT P6SM VCSH FEW028 BKN050 BKN100 FM140000
                       VRB03KT P6SM SCT050 BKN100=
201101131219 KCLM 131219Z 1312/1412 VRB03KT 6SM -RA BR SCT007 BKN050 BKN120
                       TEMPO 1312/1316 2SM -RA BR BKN007 BKN050
                       BKN120 FM131600 22005KT 4SM -RA BR SCT007
                       BKN015 OVC040 FM131800 25007KT P6SM SCT015
                       BKN040 BKN100
                      TEMPO 1318/1321 -SHRA BKN015 OVC040 FM132100
                       25007KT P6SM VCSH FEW028 BKN050 BKN100 FM140000
                       VRB03KT P6SM SCT050 BKN100=
201101131142 TAF KCLM 131142Z 1312/1412 VRB03KT 2SM BR SCT007 BKN050 BKN120
                       TEMPO 1312/1316 2SM -RA BR BKN007 BKN050
                       BKN120 FM131600 22005KT 4SM -RA BR SCT007
                       BKN015 OVC040 FM131800 25007KT P6SM SCT015
                       BKN040 BKN100
                      TEMPO 1318/1321 -SHRA BKN015 OVC040 FM132100
                       25007KT P6SM VCSH FEW028 BKN050 BKN100 FM140000
                       VRB03KT P6SM SCT050 BKN100=
201101130846 KCLM 130846Z 1309/1406 VRB03KT 6SM -RA BR SCT005 OVC020
                      TEMPO 1309/1313 3SM -RA BR BKN005 OVC020
                       FM131300 22005KT 5SM -RA BR BKN015 OVC030
                       FM131800 25006KT P6SM SCT028 OVC050
                      TEMPO 1318/1321 P6SM -SHRA BKN028 OVC050
                       FM132100 25006KT P6SM VCSH SCT035 BKN050
                       BKN100 FM140000 VRB03KT P6SM SCT035 BKN050
                       BKN100=
201101130541 TAF KCLM 130541Z 1306/1406 00000KT P6SM -RA OVC015 FM130900 VRB03KT
                       5SM -RA BR SCT005 OVC012
                      TEMPO 1309/1313 3SM -RA BR BKN005 OVC012
                       FM131300 22005KT 5SM -RA BR BKN015 OVC030
                       FM131800 25006KT P6SM SCT028 OVC050
                      TEMPO 1318/1321 P6SM -SHRA BKN028 OVC050
                       FM132100 25006KT P6SM VCSH SCT035 BKN050
                       BKN100 FM140000 VRB03KT P6SM SCT035 BKN050
                       BKN100=
201101122320 TAF KCLM 122320Z 1300/1324 VRB05KT P6SM SCT015 SCT040 OVC100
                      TEMPO 1300/1304 BKN015 BKN040 OVC100 FM130400
                       VRB05KT P6SM BKN015 OVC035 FM130800 09006KT
                       4SM -RA BR OVC015 FM131600 22010KT P6SM
                       VCSH BKN015 OVC040 FM132000 22012KT P6SM
                       VCSH BKN020 BKN040 BKN120=
201101121726 TAF KCLM 121726Z 1218/1318 24012G20KT P6SM VCSH SCT030 BKN050
                      TEMPO 1218/1222 5SM -SHRA BKN025 OVC050 FM122200
                       26010KT P6SM SCT025 OVC050 FM130600 VRB03KT
                       4SM -RA BR OVC020=
201101121135 TAF KCLM 121135Z 1212/1312 VRB06KT 4SM -RA BR BKN035 OVC045 FM121400
                       24012G20KT P6SM -RA BKN020 OVC040 FM122000
                       26010KT P6SM BKN040 FM130600 21002KT P6SM
                       -RA OVC015=
201101120900 KCLM 120900Z 1209/1306 00000KT P6SM -RA SCT004 OVC030
                      TEMPO 1209/1212 5SM -FZRA BR BKN004 OVC030
                       FM121200 24004KT 4SM -RA BR OVC015 FM121400
                       24012G20KT P6SM -RA BKN020 OVC040 FM122000
                       26010KT P6SM BKN040=
201101120535 TAF KCLM 120535Z 1206/1306 00000KT 3/4SM -SN BR VV004
                      TEMPO 1206/1210 3SM -SN SCT006 OVC014 FM121000
                       07003KT P6SM -RA OVC015 FM121400 24012G20KT
                       P6SM -RA BKN020 OVC040 FM122000 26010KT
                       P6SM BKN040=
201101112348 TAF KCLM 112348Z 1200/1224 09006KT P6SM BKN045 OVC060 FM120200
                       10005KT P6SM -SN BKN025 OVC040
                      TEMPO 1203/1207 1SM -SN VV006 FM120900 07003KT
                       P6SM -RA OVC015 FM121400 24012G20KT P6SM
                       -RA BKN020 OVC040 FM122000 26010KT P6SM
                       BKN040=
201101111743 TAF KCLM 111743Z 1118/1218 VRB03KT P6SM OVC100 FM112300 09008KT
                       P6SM BKN050 OVC080 FM120100 10006KT P6SM
                       -SN BKN025 OVC040
                      TEMPO 1202/1206 2SM -SN VV008 FM120900 07003KT
                       P6SM -RA OVC015=
201101111135 TAF KCLM 111135Z 1112/1212 00000KT P6SM SCT019 OVC090
                      TEMPO 1112/1116 BKN019 OVC090 FM112200 09008KT
                       P6SM SCT025 OVC050 FM120000 10006KT P6SM
                       -SN BKN025 OVC040
                      TEMPO 1202/1206 2SM -SN VV008 FM120900 07003KT
                       P6SM -RA OVC015=
201101110535 TAF KCLM 110535Z 1106/1206 00000KT P6SM SCT019 OVC090 FM111400
                       23005KT P6SM BKN020 BKN080 OVC150 FM112200
                       09008KT P6SM BKN020 OVC050 FM120000 10006KT
                       P6SM -SN BKN025 OVC040
                      TEMPO 1202/1206 2SM -SN VV008=
201101102350 TAF KCLM 102350Z 1100/1124 09004KT P6SM BKN020 OVC040 FM110600
                       23004KT P6SM SCT020 BKN060 OVC150 FM111400
                       23005KT P6SM BKN020 BKN080 OVC150 FM112200
                       09008KT P6SM BKN020 OVC050=
201101102021 KCLM 102021Z 1020/1118 09004KT P6SM BKN028 OVC080 FM110000 09006KT
                       P6SM SCT035 OVC080 FM110300 12004KT P6SM
                       BKN100 FM110600 23004KT P6SM SCT100 BKN200
                       FM111400 VRB03KT P6SM SCT025 BKN100=
201101101739 TAF KCLM 101739Z 1018/1118 09005KT P6SM BKN035 OVC080 FM102000
                       09006KT P6SM SCT035 OVC080 FM110300 12004KT
                       P6SM BKN100 FM110600 23004KT P6SM SCT100
                       BKN200 FM111400 VRB03KT P6SM SCT025 BKN100=
201101101525 KCLM 101525Z 1015/1112 23005KT P6SM BKN023 OVC030 FM101800 09005KT
                       P6SM BKN030 FM102000 09006KT P6SM SCT030
                       BKN200 FM110300 12004KT P6SM BKN250=
201101101135 TAF KCLM 101135Z 1012/1112 23004KT P6SM SKC FM101800 09005KT P6SM
                       SKC FM110300 12004KT P6SM BKN250=
201101100535 TAF KCLM 100535Z 1006/1106 25005KT P6SM SKC FM101800 09005KT P6SM
                       SKC FM110300 12004KT P6SM BKN250=
201101092331 TAF KCLM 092331Z 1000/1024 00000KT P6SM SCT035 OVC060 FM101000
                       09006KT P6SM SCT060=
201101091945 KCLM 091945Z 0920/1018 VRB04KT P6SM VCSH SCT030 OVC050 FM101000
                       09006KT P6SM BKN050=
201101091735 TAF KCLM 091735Z 0918/1018 VRB03KT P6SM VCSH BKN017 BKN024 OVC045
                       TEMPO 0918/0922 2SM -SHSN OVC010 FM092200
                       VRB05KT P6SM SCT020 BKN050 FM101000 09006KT
                       P6SM BKN050=
201101091135 TAF KCLM 091135Z 0912/1012 00000KT P6SM SCT010 BKN018 OVC035
                      TEMPO 0912/0916 4SM -SHSN OVC010 FM091600
                       VRB03KT P6SM SCT013 BKN022
                      TEMPO 0916/0920 4SM -SHSN OVC010 FM092000
                       VRB05KT P6SM SCT020 BKN050 FM100000 09006KT
                       P6SM SCT250=
201101090530 TAF KCLM 090530Z 0906/1006 23005KT P6SM VCSH BKN050 FM090800 23006KT
                       P6SM BKN030
                      TEMPO 0908/0912 -SHSN FM091200 24004KT P6SM
                       OVC015
                      TEMPO 0912/0916 -SHSN FM091800 25005KT P6SM
                       BKN015 BKN040 FM092100 33006KT P6SM BKN050
                       FM100000 VRB05KT P6SM BKN250=
201101082335 TAF KCLM 082335Z 0900/0924 28005KT P6SM -SHRA SCT035 BKN050 FM090200
                       23005KT P6SM VCSH BKN050 FM090800 23006KT
                       P6SM -SHSN BKN030 FM091700 05006KT P6SM
                       BKN030=
201101081734 TAF KCLM 081734Z 0818/0918 25010KT P6SM SCT040 FM082000 28005KT
                       P6SM BKN100 FM090200 23005KT P6SM VCSH OVC050
                       FM090800 23006KT P6SM BKN050=
201101081140 TAF KCLM 081140Z 0812/0912 25009KT P6SM SKC FM082000 28005KT P6SM
                       BKN100 FM090200 23005KT P6SM VCSH OVC050
                       FM090800 23006KT P6SM BKN050
                      TEMPO 0908/0912 -SN=
201101080540 TAF KCLM 080540Z 0806/0906 26012KT P6SM VCSH SCT015
                      TEMPO 0806/0807 OVC015 FM080700 27009KT P6SM
                       SCT025 BKN060 FM081400 VRB04KT P6SM SCT025
                       SCT060=
201101080254 KCLM 080254Z 0803/0824 28010G20KT P6SM VCSH SCT015 BKN027
                      TEMPO 0803/0807 OVC015 FM080700 27009KT P6SM
                       SCT025 BKN060 FM081400 VRB04KT P6SM SCT025
                       SCT060=
201101072329 TAF KCLM 072329Z 0800/0824 29012KT P6SM VCSH SCT040 BKN060 FM080700
                       27009KT P6SM SCT025 BKN060 FM081400 VRB04KT
                       P6SM SCT025 SCT060=
201101071738 TAF KCLM 071738Z 0718/0818 00000KT 3SM -RA BR BKN001 OVC045 FM071900
                       27013G20KT P6SM VCSH SCT025 BKN060 FM080700
                       27009KT P6SM SCT025 BKN060 FM081400 VRB04KT
                       P6SM SCT025 SCT060=
201101071606 KCLM 071606Z 0716/0812 00000KT 6SM -RA BR OVC001 FM071800 28010KT
                       P6SM -SHRA OVC020 FM072300 27013G20KT P6SM
                       SCT025 BKN060=
201101071127 TAF KCLM 071127Z 0712/0812 22003KT 3SM -RA BR SCT001 OVC060
                      TEMPO 0712/0716 1/2SM -RA FG BKN001 OVC060
                       FM071800 28010KT P6SM -SHRA OVC020 FM072300
                       27013G20KT P6SM SCT025 BKN060=
201101070935 KCLM 070935Z 0710/0806 32003KT 1/4SM FG BKN001 BKN070 OVC090
                      TEMPO 0710/0714 5SM -RA BR SCT001 OVC090
                       FM071800 28010KT P6SM -SHRA OVC020 FM072300
                       27013G20KT P6SM SCT025 BKN060=
201101070813 KCLM 070813Z 0708/0806 00000KT 2SM BR SCT060 BKN080 OVC100 FM071000
                       VRB03KT 2SM -RA BR OVC060 FM071800 28010KT
                       P6SM -SHRA OVC020 FM072300 27013G20KT P6SM
                       SCT025 BKN060=
201101070716 KCLM 070716Z 0707/0806 00000KT 1/2SM FG BKN004 OVC060 FM070900
                       VRB03KT 2SM -RA BR OVC003 FM071800 28010KT
                       P6SM -SHRA OVC020 FM072300 27013G20KT P6SM
                       SCT025 BKN060=
201101070524 TAF KCLM 070524Z 0706/0806 00000KT 2SM -RA BR OVC050 FM070900 VRB03KT
                       2SM -RA BR OVC003 FM071800 28010KT P6SM
                       -SHRA OVC020 FM072300 27013G20KT P6SM SCT025
                       BKN060=
201101070306 KCLM 070306Z 0703/0724 00000KT 5SM -RA BR OVC060 FM071200 24006KT
                       4SM -RA BR OVC008 FM071800 28010KT P6SM
                       -SHRA OVC020=
201101070146 KCLM 070146Z 0702/0724 00000KT 1SM BR VCSH SCT003 OVC070
                      TEMPO 0702/0704 1/2SM FG VV001 FM071200 24006KT
                       4SM -RA BR OVC008 FM071800 28010KT P6SM
                       -SHRA OVC020=
201101070050 KCLM 070050Z 0701/0724 00000KT 2SM -RA OVC003
                      TEMPO 0701/0704 1SM -RA BR OVC001 FM071200
                       24006KT 4SM -RA BR OVC008 FM071800 28010KT
                       P6SM -SHRA OVC020=
201101062328 TAF KCLM 062328Z 0700/0724 00000KT P6SM -RA OVC003
                      TEMPO 0700/0704 3SM -RA BR OVC001 FM071200
                       24006KT 4SM -RA BR OVC008 FM071800 28010KT
                       P6SM -SHRA OVC020=
201101061733 TAF KCLM 061733Z 0618/0718 00000KT 3SM -RA BR BKN001 OVC015
                      TEMPO 0618/0620 2SM -RA BR OVC001 FM062000
                       00000KT 4SM -RA BR BKN009 OVC020 FM070200
                       00000KT 4SM BR OVC009 FM071200 24006KT 4SM
                       -RA BR OVC012=
201101061507 KCLM 061507Z 0615/0712 00000KT P6SM -RA SCT001 OVC030
                      TEMPO 0615/0618 2SM -RA BR BKN001 OVC030
                       FM062100 VRB03KT P6SM SCT030 OVC070=
201101061402 KCLM 061402Z 0614/0712 00000KT P6SM -RA SCT001 OVC030
                      TEMPO 0614/0617 5SM -RA BR BKN001 OVC030
                       FM062100 VRB03KT P6SM SCT030 OVC070=
201101061120 TAF KCLM 061120Z 0612/0712 00000KT P6SM -RA BKN022 OVC060 FM062100
                       VRB03KT P6SM SCT030 OVC070=
201101061004 KCLM 061004Z 0610/0706 12003KT 4SM -RA BR SCT018 BKN030 OVC060
                       FM061700 VRB03KT 3SM -RA BR OVC020=
201101060734 KCLM 060734Z 0608/0706 00000KT 5SM -RA BR OVC003 FM061700 VRB03KT
                       3SM -RA BR OVC020=
201101060523 TAF KCLM 060523Z 0606/0706 00000KT 3SM BR OVC070 FM061700 VRB03KT
                       3SM -RA BR OVC020=
201101060212 KCLM 060212Z 0602/0624 00000KT P6SM -RA FEW003 OVC050
                      TEMPO 0602/0604 3SM -RA BR BKN003 OVC050
                       FM060400 24003KT 5SM -RA BR BKN020 OVC025
                       FM060900 VRB03KT 4SM -RA BR OVC015=
201101052335 TAF KCLM 052335Z 0600/0624 21003KT P6SM -RA SCT025 OVC040
                      TEMPO 0600/0604 5SM -RA BR SCT006 BKN020
                       FM060400 24003KT 5SM -RA BR BKN020 OVC025
                       FM060900 VRB03KT 4SM -RA BR OVC015=
201101052011 KCLM 052011Z 0520/0618 VRB03KT P6SM -RA SCT010 SCT025 BKN040
                      TEMPO 0520/0524 BKN004 BKN025 FM060000 VRB03KT
                       5SM -RA BR BKN010 OVC025=
201101051724 TAF KCLM 051724Z 0518/0618 VRB03KT P6SM -RA SCT025 BKN040
                      TEMPO 0518/0522 BKN025 FM052200 VRB03KT 5SM
                       -RA BR OVC025=
201101051300 KCLM 051300Z 0513/0612 24004KT P6SM -RA BKN006 OVC040
                      TEMPO 0513/0517 4SM -RA BR SCT006 OVC040
                       FM051700 VRB03KT 5SM -RA BR SCT010 OVC020
                       FM052200 VRB03KT 5SM -RA BR OVC015=
201101051124 TAF KCLM 051124Z 0512/0612 24004KT P6SM -RA BKN050 OVC080
                      TEMPO 0512/0514 4SM -RA BR BKN020 OVC050
                       FM051400 VRB03KT 5SM -RA BR BKN018 OVC028
                       FM052200 VRB03KT 5SM -RA BR OVC015=
201101050752 KCLM 050752Z 0508/0606 00000KT 5SM BR OVC060
                      TEMPO 0508/0512 3SM -RA BR BKN025 OVC050
                       FM051200 VRB03KT P6SM -RA BKN025 OVC050
                       FM052200 VRB03KT 5SM -RA BR OVC015=
201101050535 TAF KCLM 050535Z 0506/0606 12003KT 5SM -RA BR BKN030 OVC050 FM051500
                       VRB03KT P6SM -RA BKN025 OVC050 FM052200
                       VRB03KT 5SM -RA BR OVC015=
201101050216 KCLM 050216Z 0502/0524 VRB03KT 6SM -RA BR BKN012 OVC030
                      TEMPO 0502/0506 3SM -RASN BR BKN007 OVC025
                       FM050600 VRB04KT P6SM -RA BKN020 OVC035
                       FM050800 VRB04KT 4SM -RA BR SCT015 BKN025
                       OVC030=
201101050114 KCLM 050114Z 0501/0524 VRB03KT P6SM -RA SCT012 OVC030
                      TEMPO 0501/0503 BKN012 OVC030 FM050300 VRB04KT
                       P6SM -RA BKN020 OVC035 FM050800 VRB04KT
                       4SM -RA BR SCT015 BKN025 OVC030=
201101050031 KCLM 050031Z 0501/0524 VRB04KT P6SM -RA BKN025 BKN060 OVC120
                      TEMPO 0501/0503 -RA BKN020 OVC035 FM050300
                       VRB04KT P6SM -RA BKN020 OVC035 FM050800
                       VRB04KT 4SM -RA BR SCT015 BKN025 OVC030=
201101042328 TAF KCLM 042328Z 0500/0524 VRB04KT P6SM BKN060 OVC120
                      TEMPO 0500/0503 -RA BKN035 FM050300 VRB04KT
                       P6SM -RA BKN035 OVC060 FM050800 VRB04KT
                       4SM -RA BR SCT015 BKN025 OVC030=
201101041720 TAF KCLM 041720Z 0418/0518 VRB04KT P6SM BKN120 OVC200 FM050300
                       VRB03KT P6SM -RA BKN035 OVC060 FM050800
                       11004KT 3SM -RA BR BKN008 OVC015=
201101041126 TAF KCLM 041126Z 0412/0512 24004KT P6SM BKN120 FM041800 VRB04KT
                       P6SM BKN080 BKN120 FM050300 VRB03KT P6SM
                       -RA BKN035 OVC060 FM050800 11004KT 3SM -RA
                       BR BKN008 OVC015=
201101040520 TAF KCLM 040520Z 0406/0506 23005KT P6SM SCT250 FM040900 22004KT
                       P6SM BKN200 FM041800 12004KT P6SM SCT100
                       BKN150 FM050000 VRB03KT P6SM SCT060 OVC100=
201101032331 TAF KCLM 032331Z 0400/0424 VRB03KT P6SM SCT200 FM040900 00000KT
                       P6SM BKN200 FM041800 12004KT P6SM SCT120
                       BKN150=
201101032012 KCLM 032012Z 0320/0418 12005KT P6SM BKN020 FM040000 VRB03KT P6SM
                       SKC FM040800 00000KT 5SM BR BKN005=
201101031722 TAF KCLM 031722Z 0318/0418 12005KT P6SM SCT020
                      TEMPO 0318/0320 BKN020 FM040800 00000KT 5SM
                       BR BKN005=
201101031120 TAF KCLM 031120Z 0312/0412 12005KT P6SM BKN018
                      TEMPO 0312/0316 SCT020 FM031600 12005KT P6SM
                       SCT020 FM040800 00000KT 5SM BR BKN005=
201101031101 KCLM 031101Z 0311/0406 12005KT P6SM BKN018
                      TEMPO 0311/0315 SCT020 FM031500 12005KT P6SM
                       SCT020 FM040500 00000KT 5SM BR BKN005=
201101030921 KCLM 030921Z 0309/0406 12005KT P6SM BKN018
                      TEMPO 0309/0311 SCT020 FM031100 12005KT P6SM
                       SCT020 FM040500 00000KT 5SM BR BKN005=
201101030628 KCLM 030628Z 0306/0406 12005KT P6SM SCT020
                      TEMPO 0306/0310 BKN020=
201101030520 TAF KCLM 030520Z 0306/0406 12005KT P6SM SKC=
201101022337 TAF KCLM 022337Z 0300/0324 08005KT P6SM FEW019 FM030400 VRB03KT
                       P6SM SKC=
201101021816 TAF KCLM 021816Z 0218/0318 00000KT P6SM OVC021 FM022100 00000KT
                       P6SM SCT025=
201101021502 TAF AMD KCLM 021502Z 0215/0312 07004KT P6SM BKN018 BKN200 FM021800
                       VRB04KT P6SM SCT200=
201101021120 TAF KCLM 021120Z 0212/0312 00000KT P6SM BKN200 FM021800 VRB04KT
                       P6SM SCT200=
201101020520 TAF KCLM 020520Z 0206/0306 00000KT P6SM BKN200 FM021800 VRB04KT
                       P6SM SCT200=
201101012335 TAF KCLM 012335Z 0200/0224 VRB02KT P6SM SCT200 FM020800 00000KT
                       P6SM SCT200=
201101011739 TAF KCLM 011739Z 0118/0218 07004KT P6SM SKC FM020800 22005KT P6SM
                       SCT200=
201101011120 TAF KCLM 011120Z 0112/0212 15005KT P6SM SKC FM011800 09005KT P6SM
                       SKC FM020800 22005KT P6SM SCT200=
201101010520 TAF KCLM 010520Z 0106/0206 13005KT P6SM SKC=