##########################################################
# Query made at 02/16/2025 02:05:02 UTC
# Time interval: from 09/01/2011 00:00  to 09/30/2011 23:59  UTC
##########################################################

##########################################################
# KCLM, Port Angeles, William R. Fairchild International Airport (United States)
# WMO index: -----. WIGOS ID: Unknown
# Latitude 48-07-20N. Longitude 123-30-19W. Altitude 87 m.
##########################################################

###################################
#  METAR/SPECI from KCLM
###################################
201109302353 METAR KCLM 302353Z AUTO 30003KT 10SM OVC044 13/09 A2994 RMK AO2 SLP137 60000 T01330089 10150 20128 58005=
201109302253 METAR KCLM 302253Z AUTO 36004KT 10SM OVC040 13/09 A2995 RMK AO2 SLP142 T01330089=
201109302153 METAR KCLM 302153Z AUTO 26005KT 10SM OVC040 14/09 A2995 RMK AO2 SLP141 T01390089=
201109302117 SPECI KCLM 302117Z AUTO 31006KT 10SM SCT025 OVC042 13/08 A2995 RMK AO2=
201109302117 SPECI KCLM 302117Z AUTO 31006KT 10SM SCT025 OVC042 13/08 A2995 RMK AO2=
201109302053 METAR KCLM 302053Z AUTO 31008KT 10SM OVC023 14/09 A2995 RMK AO2 RAB22E33 SLP143 P0000 60000 T01390089 50005=
201109301953 METAR KCLM 301953Z AUTO 30010KT 10SM BKN019 BKN100 14/09 A2997 RMK AO2 SLP148 T01390089=
201109301853 METAR KCLM 301853Z AUTO 30007KT 10SM SCT100 13/08 A2996 RMK AO2 SLP144 T01330083=
201109301806 SPECI KCLM 301806Z AUTO 28008KT 10SM FEW012 SCT016 BKN100 14/10 A2994 RMK AO2=
201109301806 SPECI KCLM 301806Z AUTO 28008KT 10SM FEW012 SCT016 BKN100 14/10 A2994 RMK AO2=
201109301753 METAR KCLM 301753Z AUTO 28005KT 10SM BKN010 BKN100 14/11 A2994 RMK AO2 SLP137 T01390106 10139 20117 51012=
201109301653 METAR KCLM 301653Z AUTO 30008KT 10SM FEW009 SCT013 13/10 A2993 RMK AO2 SLP134 T01330100=
201109301650 SPECI KCLM 301650Z AUTO 29008KT 10SM SCT009 SCT013 13/10 A2992 RMK AO2=
201109301650 SPECI KCLM 301650Z AUTO 29008KT 10SM SCT009 SCT013 13/10 A2992 RMK AO2=
201109301642 SPECI KCLM 301642Z AUTO 30009KT 10SM BKN011 13/10 A2992 RMK AO2=
201109301642 SPECI KCLM 301642Z AUTO 30009KT 10SM BKN011 13/10 A2992 RMK AO2=
201109301631 SPECI KCLM 301631Z AUTO 30010KT 10SM SCT008 13/10 A2992 RMK AO2=
201109301631 SPECI KCLM 301631Z AUTO 30010KT 10SM SCT008 13/10 A2992 RMK AO2=
201109301608 SPECI KCLM 301608Z AUTO 28010KT 10SM BKN008 13/10 A2992 RMK AO2=
201109301608 SPECI KCLM 301608Z AUTO 28010KT 10SM BKN008 13/10 A2992 RMK AO2=
201109301553 METAR KCLM 301553Z AUTO 29008KT 10SM OVC010 13/10 A2992 RMK AO2 CIG 008V012 SLP130 T01280100=
201109301542 SPECI KCLM 301542Z AUTO 28009KT 10SM BKN010 OVC017 13/10 A2992 RMK AO2 CIG 008V013=
201109301542 SPECI KCLM 301542Z AUTO 28009KT 10SM BKN010 OVC017 13/10 A2992 RMK AO2 CIG 008V013=
201109301532 SPECI KCLM 301532Z AUTO 30008KT 10SM SCT010 BKN017 13/10 A2992 RMK AO2=
201109301532 SPECI KCLM 301532Z AUTO 30008KT 10SM SCT010 BKN017 13/10 A2992 RMK AO2=
201109301525 SPECI KCLM 301525Z AUTO 29009G16KT 10SM BKN013 BKN018 13/10 A2992 RMK AO2=
201109301525 SPECI KCLM 301525Z AUTO 29009G16KT 10SM BKN013 BKN018 13/10 A2992 RMK AO2=
201109301453 METAR KCLM 301453Z AUTO 24006KT 10SM CLR 12/09 A2990 RMK AO2 SLP125 T01220094 50001=
201109301427 SPECI KCLM 301427Z AUTO 24005KT 10SM SCT018 12/09 A2990 RMK AO2=
201109301427 SPECI KCLM 301427Z AUTO 24005KT 10SM SCT018 12/09 A2990 RMK AO2=
201109301408 SPECI KCLM 301408Z AUTO 24007KT 10SM BKN018 12/10 A2991 RMK AO2=
201109301408 SPECI KCLM 301408Z AUTO 24007KT 10SM BKN018 12/10 A2991 RMK AO2=
201109301353 METAR KCLM 301353Z AUTO 26007KT 10SM FEW018 12/10 A2990 RMK AO2 SLP126 T01220100=
201109301345 SPECI KCLM 301345Z AUTO 27006KT 10SM SCT016 12/10 A2990 RMK AO2=
201109301345 SPECI KCLM 301345Z AUTO 27006KT 10SM SCT016 12/10 A2990 RMK AO2=
201109301329 SPECI KCLM 301329Z AUTO 27008KT 10SM OVC016 12/10 A2990 RMK AO2=
201109301329 SPECI KCLM 301329Z AUTO 27008KT 10SM OVC016 12/10 A2990 RMK AO2=
201109301253 METAR KCLM 301253Z AUTO 28010KT 10SM OVC010 12/11 A2991 RMK AO2 CIG 006V013 SLP127 T01220106=
201109301242 SPECI KCLM 301242Z AUTO 28012KT 10SM OVC008 13/11 A2991 RMK AO2 CIG 006V012=
201109301242 SPECI KCLM 301242Z AUTO 28012KT 10SM OVC008 13/11 A2991 RMK AO2 CIG 006V012=
201109301202 SPECI KCLM 301202Z AUTO 26009KT 10SM FEW006 BKN013 12/10 A2990 RMK AO2=
201109301202 SPECI KCLM 301202Z AUTO 26009KT 10SM FEW006 BKN013 12/10 A2990 RMK AO2=
201109301153 METAR KCLM 301153Z AUTO 26009G15KT 10SM BKN015 12/09 A2990 RMK AO2 SLP124 T01220094 10128 20100 51008=
201109301053 METAR KCLM 301053Z AUTO 22006KT 10SM CLR 12/08 A2989 RMK AO2 SLP120 T01170083=
201109300953 METAR KCLM 300953Z AUTO 24005KT 10SM CLR 12/08 A2989 RMK AO2 SLP122 T01170078=
201109300853 METAR KCLM 300853Z AUTO 00000KT 10SM CLR 11/08 A2987 RMK AO2 SLP116 T01060078 53007=
201109300753 METAR KCLM 300753Z AUTO 25004KT 10SM CLR 11/07 A2986 RMK AO2 SLP110 T01060072 401830044=
201109300653 METAR KCLM 300653Z AUTO 23006KT 10SM CLR 12/09 A2985 RMK AO2 SLP107 T01220089=
201109300553 METAR KCLM 300553Z AUTO 25004KT 10SM CLR 12/09 A2985 RMK AO2 SLP108 T01220094 10183 20111 50007=
201109300453 METAR KCLM 300453Z AUTO 21004KT 10SM CLR 14/09 A2986 RMK AO2 SLP110 T01390094=
201109300353 METAR KCLM 300353Z AUTO 23003KT 10SM CLR 14/09 A2984 RMK AO2 SLP103 T01440094=
201109300253 METAR KCLM 300253Z AUTO 22004KT 10SM CLR 14/09 A2983 RMK AO2 SLP102 T01390089 56008=
201109300153 METAR KCLM 300153Z AUTO 23003KT 10SM CLR 16/08 A2983 RMK AO2 SLP102 T01560083=
201109300053 METAR KCLM 300053Z AUTO 00000KT 10SM CLR 17/06 A2983 RMK AO2 SLP103 T01720061=
201109292353 METAR KCLM 292353Z AUTO 00000KT 10SM CLR 18/06 A2985 RMK AO2 SLP110 T01780061 10178 20133 56022=
201109292253 METAR KCLM 292253Z AUTO 04003KT 10SM FEW100 18/08 A2987 RMK AO2 SLP115 T01780078=
201109292153 METAR KCLM 292153Z AUTO VRB03KT 10SM CLR 17/07 A2990 RMK AO2 SLP124 T01720072=
201109292053 METAR KCLM 292053Z AUTO VRB03KT 10SM CLR 16/07 A2992 RMK AO2 SLP132 T01560067 56019=
201109291953 METAR KCLM 291953Z AUTO VRB04KT 10SM CLR 14/07 A2993 RMK AO2 SLP137 T01440072=
201109291853 METAR KCLM 291853Z AUTO 07004KT 10SM CLR 14/07 A2995 RMK AO2 SLP144 T01440072=
201109291753 METAR KCLM 291753Z AUTO 01004KT 10SM CLR 13/08 A2998 RMK AO2 SLP151 T01330078 10139 20044 56009=
201109291653 METAR KCLM 291653Z AUTO 02004KT 10SM CLR 13/08 A2998 RMK AO2 SLP154 T01280083=
201109291553 METAR KCLM 291553Z AUTO 00000KT 10SM CLR 11/08 A2998 RMK AO2 SLP154 T01060083=
201109291453 METAR KCLM 291453Z AUTO 23003KT 10SM CLR 06/05 A3000 RMK AO2 SLP160 T00610050 56012=
201109291353 METAR KCLM 291353Z AUTO 22003KT 10SM CLR 06/05 A3001 RMK AO2 SLP163 T00610050=
201109291253 METAR KCLM 291253Z AUTO 00000KT 10SM CLR 05/03 A3002 RMK AO2 SLP167 T00500033=
201109291153 METAR KCLM 291153Z AUTO 18003KT 10SM CLR 06/04 A3004 RMK AO2 SLP173 T00560039 10089 20050 57016=
201109291053 METAR KCLM 291053Z AUTO 00000KT 10SM CLR 05/03 A3006 RMK AO2 SLP179 T00500033=
201109290953 METAR KCLM 290953Z AUTO 00000KT 10SM CLR 06/04 A3007 RMK AO2 SLP182 T00610044=
201109290853 METAR KCLM 290853Z AUTO 00000KT 10SM CLR 07/06 A3009 RMK AO2 SLP189 T00720056 58018=
201109290753 METAR KCLM 290753Z AUTO 00000KT 10SM CLR 07/06 A3010 RMK AO2 SLP195 T00720056 401560067=
201109290653 METAR KCLM 290653Z AUTO 00000KT 10SM CLR 08/06 A3012 RMK AO2 SLP202 T00780056=
201109290553 METAR KCLM 290553Z AUTO 00000KT 10SM CLR 07/06 A3014 RMK AO2 SLP207 T00720056 10150 20067 56021=
201109290453 METAR KCLM 290453Z AUTO 16003KT 10SM CLR 08/06 A3016 RMK AO2 SLP213 T00830061=
201109290353 METAR KCLM 290353Z AUTO 15004KT 10SM CLR 09/06 A3017 RMK AO2 SLP218 T00890061=
201109290253 METAR KCLM 290253Z AUTO 15004KT 10SM CLR 11/07 A3020 RMK AO2 SLP228 T01060072 56023=
201109290153 METAR KCLM 290153Z AUTO 12006KT 10SM CLR 12/07 A3022 RMK AO2 SLP235 T01220067=
201109290053 METAR KCLM 290053Z AUTO 11007KT 10SM FEW100 14/07 A3024 RMK AO2 SLP240 T01440067=
201109282353 METAR KCLM 282353Z AUTO 08008KT 10SM CLR 15/07 A3027 RMK AO2 SLP250 T01500067 10156 20128 56031=
201109282253 METAR KCLM 282253Z AUTO 08005KT 10SM CLR 15/07 A3031 RMK AO2 SLP262 T01500072=
201109282153 METAR KCLM 282153Z AUTO 07006KT 10SM CLR 15/07 A3032 RMK AO2 SLP268 T01500072=
201109282053 METAR KCLM 282053Z AUTO 09008KT 10SM CLR 15/07 A3036 RMK AO2 SLP281 T01500072 58016=
201109281953 METAR KCLM 281953Z AUTO VRB04KT 10SM CLR 14/07 A3038 RMK AO2 SLP287 T01390072=
201109281853 METAR KCLM 281853Z AUTO 02005KT 10SM CLR 13/07 A3040 RMK AO2 SLP295 T01280067=
201109281753 METAR KCLM 281753Z AUTO 10003KT 10SM FEW011 14/07 A3041 RMK AO2 SLP297 T01390072 10139 20089 50001=
201109281743 SPECI KCLM 281743Z AUTO 10005KT 10SM SCT013 14/07 A3041 RMK AO2=
201109281743 SPECI KCLM 281743Z AUTO 10005KT 10SM SCT013 14/07 A3041 RMK AO2=
201109281731 SPECI KCLM 281731Z AUTO 08005KT 10SM BKN013 13/07 A3042 RMK AO2=
201109281731 SPECI KCLM 281731Z AUTO 08005KT 10SM BKN013 13/07 A3042 RMK AO2=
201109281707 SPECI KCLM 281707Z AUTO 10005KT 10SM BKN015 13/06 A3042 RMK AO2=
201109281707 SPECI KCLM 281707Z AUTO 10005KT 10SM BKN015 13/06 A3042 RMK AO2=
201109281653 METAR KCLM 281653Z AUTO 10005KT 10SM FEW015 13/06 A3042 RMK AO2 SLP302 T01330056=
201109281553 METAR KCLM 281553Z AUTO 22004KT 10SM CLR 11/06 A3041 RMK AO2 SLP299 T01060056=
201109281453 METAR KCLM 281453Z AUTO 25009KT 10SM CLR 09/05 A3041 RMK AO2 SLP297 T00940050 53015=
201109281353 METAR KCLM 281353Z AUTO 25010KT 10SM CLR 09/05 A3038 RMK AO2 SLP290 T00940050=
201109281253 METAR KCLM 281253Z AUTO 26010KT 10SM CLR 10/05 A3037 RMK AO2 SLP285 T01000050=
201109281153 METAR KCLM 281153Z AUTO 25010KT 10SM CLR 10/06 A3036 RMK AO2 SLP281 60000 T01000061 10122 20100 51006=
201109281053 METAR KCLM 281053Z AUTO 25009KT 10SM CLR 11/06 A3035 RMK AO2 SLP278 T01060061=
201109280953 METAR KCLM 280953Z AUTO 25007KT 10SM BKN060 12/06 A3036 RMK AO2 SLP282 T01170061=
201109280853 METAR KCLM 280853Z AUTO 25008KT 10SM SCT048 OVC060 12/07 A3034 RMK AO2 SLP275 60000 T01220067 53017=
201109280753 METAR KCLM 280753Z AUTO 27007KT 10SM CLR 11/07 A3031 RMK AO2 SLP265 T01110067 401890111=
201109280653 METAR KCLM 280653Z AUTO 27010KT 10SM CLR 11/07 A3030 RMK AO2 RAB10E19 SLP259 P0000 T01110072=
201109280553 METAR KCLM 280553Z AUTO 26009KT 10SM SCT080 12/07 A3029 RMK AO2 SLP258 T01170072 10172 20117 53022=
201109280453 METAR KCLM 280453Z AUTO 26009KT 10SM BKN075 12/08 A3027 RMK AO2 SLP249 T01170078=
201109280353 METAR KCLM 280353Z AUTO 26007KT 10SM FEW065 BKN080 13/08 A3025 RMK AO2 SLP242 T01280078=
201109280253 METAR KCLM 280253Z AUTO 25008KT 10SM SCT065 BKN080 13/08 A3023 RMK AO2 SLP235 T01280078 53018=
201109280153 METAR KCLM 280153Z AUTO 28008KT 10SM SCT070 14/07 A3020 RMK AO2 SLP226 T01390072=
201109280053 METAR KCLM 280053Z AUTO 28010KT 10SM FEW065 SCT080 16/07 A3019 RMK AO2 SLP222 T01560072=
201109272353 METAR KCLM 272353Z AUTO 30006KT 10SM BKN070 OVC085 16/09 A3017 RMK AO2 SLP217 T01560089 10189 20144 51012=
201109272253 METAR KCLM 272253Z AUTO 30004KT 10SM SCT065 18/07 A3016 RMK AO2 SLP212 T01830072=
201109272153 METAR KCLM 272153Z AUTO 33005KT 10SM BKN065 15/08 A3016 RMK AO2 SLP212 T01500083=
201109272053 METAR KCLM 272053Z AUTO 35007G15KT 10SM FEW050 SCT070 16/08 A3014 RMK AO2 SLP205 T01610083 53016=
201109271953 METAR KCLM 271953Z AUTO 25008KT 10SM BKN060 BKN075 18/06 A3012 RMK AO2 SLP198 T01780056=
201109271853 METAR KCLM 271853Z AUTO VRB06KT 10SM BKN085 16/07 A3010 RMK AO2 PK WND 32029/1832 SLP193 T01560067=
201109271753 METAR KCLM 271753Z AUTO 00000KT 10SM BKN070 OVC090 15/10 A3009 RMK AO2 RAE16 SLP189 P0000 60000 T01500100 10150 20111 53029=
201109271653 METAR KCLM 271653Z AUTO 30008KT 10SM -RA SCT041 BKN065 14/10 A3006 RMK AO2 RAB50 SLP181 P0000 T01390100=
201109271553 METAR KCLM 271553Z AUTO VRB03KT 10SM FEW065 13/10 A3003 RMK AO2 RAE09 SLP167 P0000 T01280100=
201109271453 METAR KCLM 271453Z AUTO 28009KT 10SM -RA BKN060 BKN075 12/09 A3000 RMK AO2 RAB30 SLP160 P0000 60000 T01220094 53015=
201109271353 METAR KCLM 271353Z AUTO 25006KT 10SM BKN070 12/09 A2997 RMK AO2 RAB1257E20 SLP147 P0000 T01220089=
201109271253 METAR KCLM 271253Z AUTO 23004KT 10SM BKN070 OVC110 12/10 A2996 RMK AO2 RAE34 SLP146 P0000 T01170100=
201109271153 METAR KCLM 271153Z AUTO 25008KT 10SM -RA OVC055 12/10 A2996 RMK AO2 RAB26 SLP145 P0000 60000 70017 T01220100 10139 20117 53017=
201109271053 METAR KCLM 271053Z AUTO VRB03KT 10SM OVC060 12/10 A2994 RMK AO2 SLP137 T01220100=
201109270953 METAR KCLM 270953Z AUTO 08003KT 10SM BKN070 OVC095 13/11 A2992 RMK AO2 SLP132 T01280106=
201109270853 METAR KCLM 270853Z AUTO 00000KT 10SM BKN070 BKN090 13/11 A2991 RMK AO2 SLP127 60000 T01280111 51020=
201109270753 METAR KCLM 270753Z AUTO 15004KT 10SM FEW065 SCT080 13/11 A2990 RMK AO2 SLP123 T01280111 401440089=
201109270653 METAR KCLM 270653Z AUTO 00000KT 10SM FEW003 BKN043 OVC060 13/12 A2988 RMK AO2 RAB18E46 SLP119 P0000 T01330122=
201109270644 SPECI KCLM 270644Z AUTO 00000KT 10SM -RA FEW003 BKN023 OVC070 13/12 A2988 RMK AO2 RAB18 P0000=
201109270644 SPECI KCLM 270644Z AUTO 00000KT 10SM -RA FEW003 BKN023 OVC070 13/12 A2988 RMK AO2 RAB18 P0000=
201109270553 METAR KCLM 270553Z AUTO 00000KT 10SM BKN060 BKN075 OVC090 13/12 A2985 RMK AO2 RAE18 SLP107 P0000 60001 T01330117 10144 20128 51018=
201109270453 METAR KCLM 270453Z AUTO 13007KT 4SM -RA BR FEW001 SCT005 OVC060 13/12 A2983 RMK AO2 RAB53 SLP104 P0000 T01330117=
201109270444 SPECI KCLM 270444Z AUTO 12005KT 3SM BR BKN001 OVC065 13/12 A2983 RMK AO2=
201109270444 SPECI KCLM 270444Z AUTO 12005KT 3SM BR BKN001 OVC065 13/12 A2983 RMK AO2=
201109270442 SPECI KCLM 270442Z AUTO 12006KT 2 1/2SM BR FEW001 BKN005 OVC070 13/12 A2982 RMK AO2=
201109270442 SPECI KCLM 270442Z AUTO 12006KT 2 1/2SM BR FEW001 BKN005 OVC070 13/12 A2982 RMK AO2=
201109270434 SPECI KCLM 270434Z AUTO 15004KT 1/2SM FG VV003 13/12 A2983 RMK AO2=
201109270434 SPECI KCLM 270434Z AUTO 15004KT 1/2SM FG VV003 13/12 A2983 RMK AO2=
201109270425 SPECI KCLM 270425Z AUTO 11003KT 1/4SM FG VV001 13/12 A2982 RMK AO2=
201109270425 SPECI KCLM 270425Z AUTO 11003KT 1/4SM FG VV001 13/12 A2982 RMK AO2=
201109270421 SPECI KCLM 270421Z AUTO 00000KT 1/2SM FG BKN002 OVC070 13/12 A2982 RMK AO2=
201109270421 SPECI KCLM 270421Z AUTO 00000KT 1/2SM FG BKN002 OVC070 13/12 A2982 RMK AO2=
201109270410 SPECI KCLM 270410Z AUTO 00000KT 1 3/4SM BR BKN002 BKN070 OVC090 13/12 A2982 RMK AO2 VIS 1V3=
201109270410 SPECI KCLM 270410Z AUTO 00000KT 1 3/4SM BR BKN002 BKN070 OVC090 13/12 A2982 RMK AO2 VIS 1V3=
201109270407 SPECI KCLM 270407Z AUTO 00000KT 3SM BR SCT002 BKN070 BKN090 13/12 A2981 RMK AO2=
201109270407 SPECI KCLM 270407Z AUTO 00000KT 3SM BR SCT002 BKN070 BKN090 13/12 A2981 RMK AO2=
201109270353 METAR KCLM 270353Z AUTO 00000KT 10SM SCT070 BKN090 13/12 A2981 RMK AO2 SLP095 T01330122=
201109270253 METAR KCLM 270253Z AUTO 00000KT 10SM SCT070 BKN095 BKN110 14/12 A2979 RMK AO2 RAE39 SLP090 P0000 60001 T01390122 53016=
201109270153 METAR KCLM 270153Z AUTO 00000KT 10SM -RA SCT050 OVC060 14/13 A2977 RMK AO2 RAB21 SLP082 P0000 T01440128=
201109270053 METAR KCLM 270053Z AUTO VRB04KT 10SM FEW041 BKN065 OVC090 14/13 A2974 RMK AO2 RAE42 SLP071 P0001 T01440128=
201109262353 METAR KCLM 262353Z AUTO 15007KT 6SM -RA BR SCT009 OVC033 14/12 A2975 RMK AO2 SLP073 P0002 60011 T01440122 10144 20122 50013=
201109262314 SPECI KCLM 262314Z AUTO 14003KT 4SM -RA BR OVC009 14/12 A2976 RMK AO2 P0001=
201109262314 SPECI KCLM 262314Z AUTO 14003KT 4SM -RA BR OVC009 14/12 A2976 RMK AO2 P0001=
201109262303 SPECI KCLM 262303Z AUTO 14003KT 2 1/2SM -RA BR OVC009 13/12 A2975 RMK AO2 CIG 007V012 P0001=
201109262303 SPECI KCLM 262303Z AUTO 14003KT 2 1/2SM -RA BR OVC009 13/12 A2975 RMK AO2 CIG 007V012 P0001=
201109262253 METAR KCLM 262253Z AUTO 00000KT 4SM -RA BR OVC009 13/12 A2976 RMK AO2 CIG 007V012 SLP077 P0003 T01330117=
201109262234 SPECI KCLM 262234Z AUTO 00000KT 4SM -RA BR OVC009 13/11 A2974 RMK AO2 CIG 005V012 P0002=
201109262234 SPECI KCLM 262234Z AUTO 00000KT 4SM -RA BR OVC009 13/11 A2974 RMK AO2 CIG 005V012 P0002=
201109262223 SPECI KCLM 262223Z AUTO 00000KT 2SM -RA BR BKN006 OVC011 13/11 A2975 RMK AO2 CIG 004V009 P0002=
201109262223 SPECI KCLM 262223Z AUTO 00000KT 2SM -RA BR BKN006 OVC011 13/11 A2975 RMK AO2 CIG 004V009 P0002=
201109262153 METAR KCLM 262153Z AUTO 00000KT 4SM -RA BR BKN006 BKN013 OVC034 13/11 A2971 RMK AO2 PRESFR SLP061 P0003 T01280111=
201109262150 SPECI KCLM 262150Z AUTO 00000KT 2 1/2SM -RA BR BKN006 BKN013 OVC021 13/11 A2971 RMK AO2 P0003=
201109262150 SPECI KCLM 262150Z AUTO 00000KT 2 1/2SM -RA BR BKN006 BKN013 OVC021 13/11 A2971 RMK AO2 P0003=
201109262120 SPECI KCLM 262120Z AUTO 29006KT 3SM -RA BR BKN008 OVC027 13/11 A2972 RMK AO2 P0002=
201109262120 SPECI KCLM 262120Z AUTO 29006KT 3SM -RA BR BKN008 OVC027 13/11 A2972 RMK AO2 P0002=
201109262111 SPECI KCLM 262111Z AUTO 28008KT 5SM -RA BR SCT008 OVC027 12/11 A2972 RMK AO2 PRESRR P0001=
201109262111 SPECI KCLM 262111Z AUTO 28008KT 5SM -RA BR SCT008 OVC027 12/11 A2972 RMK AO2 PRESRR P0001=
201109262053 METAR KCLM 262053Z AUTO 31008KT 4SM -RA BR FEW006 OVC031 12/11 A2969 RMK AO2 RAB02 SLP054 P0003 60003 T01220106 53012=
201109262042 SPECI KCLM 262042Z AUTO 28008KT 8SM -RA FEW003 OVC031 12/11 A2969 RMK AO2 RAB02 PRESRR P0002=
201109262042 SPECI KCLM 262042Z AUTO 28008KT 8SM -RA FEW003 OVC031 12/11 A2969 RMK AO2 RAB02 PRESRR P0002=
201109262028 SPECI KCLM 262028Z AUTO 31009KT 7SM -RA SCT003 OVC027 12/11 A2967 RMK AO2 RAB02 P0002=
201109262028 SPECI KCLM 262028Z AUTO 31009KT 7SM -RA SCT003 OVC027 12/11 A2967 RMK AO2 RAB02 P0002=
201109262012 SPECI KCLM 262012Z AUTO 30004KT 4SM -RA BR BKN003 OVC029 13/11 A2966 RMK AO2 RAB02 P0001=
201109262012 SPECI KCLM 262012Z AUTO 30004KT 4SM -RA BR BKN003 OVC029 13/11 A2966 RMK AO2 RAB02 P0001=
201109261953 METAR KCLM 261953Z AUTO 30006KT 10SM SCT003 BKN031 OVC050 14/12 A2964 RMK AO2 RAE1856B29E48 SLP036 P0000 T01390122=
201109261931 SPECI KCLM 261931Z AUTO VRB04KT 9SM -RA SCT003 BKN035 OVC055 14/12 A2964 RMK AO2 RAE1856B29 P0000=
201109261931 SPECI KCLM 261931Z AUTO VRB04KT 9SM -RA SCT003 BKN035 OVC055 14/12 A2964 RMK AO2 RAE1856B29 P0000=
201109261911 SPECI KCLM 261911Z AUTO 35004KT 10SM BKN003 BKN028 BKN038 14/12 A2964 RMK AO2 RAE1856 P0000=
201109261911 SPECI KCLM 261911Z AUTO 35004KT 10SM BKN003 BKN028 BKN038 14/12 A2964 RMK AO2 RAE1856 P0000=
201109261858 SPECI KCLM 261858Z AUTO 00000KT 10SM FEW005 BKN030 BKN038 14/12 A2965 RMK AO2 RAE56 P0000=
201109261858 SPECI KCLM 261858Z AUTO 00000KT 10SM FEW005 BKN030 BKN038 14/12 A2965 RMK AO2 RAE56 P0000=
201109261853 METAR KCLM 261853Z AUTO 00000KT 10SM -RA BKN028 BKN034 OVC041 14/12 A2965 RMK AO2 SLP041 P0000 T01390117=
201109261850 SPECI KCLM 261850Z AUTO 00000KT 10SM -RA BKN028 BKN034 OVC041 14/12 A2966 RMK AO2 P0000=
201109261850 SPECI KCLM 261850Z AUTO 00000KT 10SM -RA BKN028 BKN034 OVC041 14/12 A2966 RMK AO2 P0000=
201109261843 SPECI KCLM 261843Z AUTO 34003KT 10SM -RA BKN030 OVC038 13/11 A2966 RMK AO2 P0000=
201109261843 SPECI KCLM 261843Z AUTO 34003KT 10SM -RA BKN030 OVC038 13/11 A2966 RMK AO2 P0000=
201109261753 METAR KCLM 261753Z AUTO 00000KT 4SM -RA BR BKN026 OVC035 12/10 A2966 RMK AO2 RAE1654B12 SLP044 P0001 60005 T01220100 10122 20100 56026=
201109261741 SPECI KCLM 261741Z AUTO 00000KT 9SM -RA BKN026 OVC035 12/10 A2966 RMK AO2 RAE1654B12 P0000=
201109261741 SPECI KCLM 261741Z AUTO 00000KT 9SM -RA BKN026 OVC035 12/10 A2966 RMK AO2 RAE1654B12 P0000=
201109261653 METAR KCLM 261653Z AUTO 00000KT 10SM -RA SCT003 BKN034 BKN043 11/09 A2968 RMK AO2 SLP053 P0002 T01110094=
201109261625 SPECI KCLM 261625Z AUTO 00000KT 4SM -RA BR BKN003 OVC037 11/09 A2967 RMK AO2 P0001=
201109261625 SPECI KCLM 261625Z AUTO 00000KT 4SM -RA BR BKN003 OVC037 11/09 A2967 RMK AO2 P0001=
201109261613 SPECI KCLM 261613Z AUTO 00000KT 9SM -RA SCT003 BKN034 OVC090 11/09 A2969 RMK AO2 P0000=
201109261613 SPECI KCLM 261613Z AUTO 00000KT 9SM -RA SCT003 BKN034 OVC090 11/09 A2969 RMK AO2 P0000=
201109261553 METAR KCLM 261553Z AUTO 05005KT 4SM -RA BR BKN034 BKN050 OVC090 11/09 A2969 RMK AO2 PK WND 34044/1530 SLP054 P0002 T01060089=
201109261537 SPECI KCLM 261537Z AUTO 00000KT 10SM FEW055 SCT070 OVC090 11/09 A2970 RMK AO2 PK WND 34044/1530 RAE25 P0000=
201109261537 SPECI KCLM 261537Z AUTO 00000KT 10SM FEW055 SCT070 OVC090 11/09 A2970 RMK AO2 PK WND 34044/1530 RAE25 P0000=
201109261453 METAR KCLM 261453Z AUTO 00000KT 10SM -RA BKN060 OVC100 11/09 A2974 RMK AO2 SLP071 P0000 60000 T01060089 56031=
201109261353 METAR KCLM 261353Z AUTO 24004KT 10SM -RA FEW065 OVC090 11/09 A2977 RMK AO2 RAB23 PRESFR SLP080 P0000 T01060089=
201109261253 METAR KCLM 261253Z AUTO 24003KT 10SM FEW065 OVC100 10/09 A2979 RMK AO2 SLP089 T01000089=
201109261153 METAR KCLM 261153Z AUTO 24003KT 10SM SCT003 BKN070 BKN085 10/08 A2983 RMK AO2 SLP102 70018 T01000083 10106 20089 56024=
201109261053 METAR KCLM 261053Z AUTO 00000KT 10SM BKN080 10/08 A2983 RMK AO2 SLP102 T01000083=
201109260953 METAR KCLM 260953Z AUTO 00000KT 10SM CLR 09/08 A2987 RMK AO2 SLP116 T00940078=
201109260853 METAR KCLM 260853Z AUTO 02004KT 10SM FEW060 SCT075 SCT100 09/08 A2990 RMK AO2 SLP127 T00940078 56013=
201109260753 METAR KCLM 260753Z AUTO 22003KT 10SM OVC080 10/08 A2991 RMK AO2 SLP129 T01000078 401670078=
201109260653 METAR KCLM 260653Z AUTO 00000KT 10SM FEW060 SCT080 09/07 A2993 RMK AO2 SLP135 T00940072=
201109260553 METAR KCLM 260553Z AUTO 00000KT 10SM FEW070 BKN120 09/08 A2994 RMK AO2 SLP139 T00940078 10150 20078 50003=
201109260453 METAR KCLM 260453Z AUTO 00000KT 10SM CLR 09/07 A2994 RMK AO2 SLP140 T00890067=
201109260353 METAR KCLM 260353Z AUTO 00000KT 10SM CLR 10/07 A2995 RMK AO2 SLP142 T01000072=
201109260253 METAR KCLM 260253Z AUTO 25006KT 10SM CLR 11/08 A2993 RMK AO2 SLP137 T01110083 51022=
201109260153 METAR KCLM 260153Z AUTO 31007KT 10SM CLR 12/08 A2991 RMK AO2 SLP131 T01220083=
201109260053 METAR KCLM 260053Z AUTO 35006KT 10SM CLR 14/08 A2989 RMK AO2 SLP122 T01440083=
201109252353 METAR KCLM 252353Z AUTO 30009KT 10SM CLR 15/08 A2987 RMK AO2 SLP114 60018 T01500083 10167 20122 51027=
201109252253 METAR KCLM 252253Z AUTO 28014G20KT 10SM CLR 16/09 A2984 RMK AO2 SLP106 T01610094=
201109252153 METAR KCLM 252153Z AUTO 30014G22KT 10SM BKN047 OVC060 14/09 A2982 RMK AO2 RAE24 SLP097 P0001 T01390094=
201109252122 SPECI KCLM 252122Z AUTO 28010G17KT 10SM -RA FEW007 BKN037 OVC045 14/11 A2980 RMK AO2 P0001=
201109252122 SPECI KCLM 252122Z AUTO 28010G17KT 10SM -RA FEW007 BKN037 OVC045 14/11 A2980 RMK AO2 P0001=
201109252058 SPECI KCLM 252058Z AUTO 31008G19KT 3SM -RA BR FEW007 BKN017 OVC027 12/11 A2979 RMK AO2 PRESRR P0000=
201109252058 SPECI KCLM 252058Z AUTO 31008G19KT 3SM -RA BR FEW007 BKN017 OVC027 12/11 A2979 RMK AO2 PRESRR P0000=
201109252053 METAR KCLM 252053Z AUTO 32010G22KT 1 1/2SM -RA BR FEW007 BKN019 OVC060 13/11 A2979 RMK AO2 VIS 3/4V3 RAE16B33 PRESRR SLP087 P0017 60017 T01280111 53055=
201109252050 SPECI KCLM 252050Z AUTO 32013G22KT 1SM RA BR FEW007 BKN019 OVC060 13/12 A2978 RMK AO2 VIS 1/2V2 1/2 RAE16B33 PRESRR P0016=
201109252050 SPECI KCLM 252050Z AUTO 32013G22KT 1SM RA BR FEW007 BKN019 OVC060 13/12 A2978 RMK AO2 VIS 1/2V2 1/2 RAE16B33 PRESRR P0016=
201109252044 SPECI KCLM 252044Z AUTO 31017G23KT 3/4SM +RA BKN017 BKN025 OVC060 14/12 A2977 RMK AO2 RAE16B33 PRESRR P0014=
201109252044 SPECI KCLM 252044Z AUTO 31017G23KT 3/4SM +RA BKN017 BKN025 OVC060 14/12 A2977 RMK AO2 RAE16B33 PRESRR P0014=
201109252039 SPECI KCLM 252039Z AUTO 29017G23KT 1 3/4SM +RA SCT021 BKN060 OVC075 14/12 A2976 RMK AO2 RAE16B33 PRESRR P0006=
201109252039 SPECI KCLM 252039Z AUTO 29017G23KT 1 3/4SM +RA SCT021 BKN060 OVC075 14/12 A2976 RMK AO2 RAE16B33 PRESRR P0006=
201109251953 METAR KCLM 251953Z AUTO 00000KT 10SM -RA SCT050 BKN070 16/11 A2970 RMK AO2 RAB42 SLP057 P0000 T01610106=
201109251853 METAR KCLM 251853Z AUTO 00000KT 10SM SCT046 BKN070 BKN085 16/10 A2967 RMK AO2 SLP045 T01560100=
201109251753 METAR KCLM 251753Z AUTO 30008KT 10SM FEW043 17/12 A2963 RMK AO2 RAB31E40 SLP032 P0000 60000 T01670117 10167 20100 53004=
201109251653 METAR KCLM 251653Z AUTO 25007KT 10SM BKN046 BKN080 16/11 A2960 RMK AO2 SLP023 T01610106=
201109251553 METAR KCLM 251553Z AUTO 23006KT 10SM BKN044 BKN075 13/11 A2961 RMK AO2 SLP027 T01280106=
201109251453 METAR KCLM 251453Z AUTO 00000KT 10SM CLR 10/08 A2961 RMK AO2 SLP028 T01000083 50013=
201109251353 METAR KCLM 251353Z AUTO 31003KT 10SM CLR 12/09 A2962 RMK AO2 SLP030 T01220094=
201109251253 METAR KCLM 251253Z AUTO 13003KT 10SM CLR 11/09 A2961 RMK AO2 SLP026 T01060089=
201109251153 METAR KCLM 251153Z AUTO 31004KT 10SM FEW095 14/10 A2958 RMK AO2 RAE32 SLP015 P0000 60009 70009 T01390100 10161 20128 51018=
201109251053 METAR KCLM 251053Z AUTO 24014G24KT 10SM -RA OVC055 16/11 A2956 RMK AO2 SLP009 P0006 T01610106=
201109251029 SPECI KCLM 251029Z AUTO 16003KT 9SM -RA BKN044 OVC060 14/12 A2957 RMK AO2 P0006=
201109251029 SPECI KCLM 251029Z AUTO 16003KT 9SM -RA BKN044 OVC060 14/12 A2957 RMK AO2 P0006=
201109251020 SPECI KCLM 251020Z AUTO 00000KT 5SM -RA BR BKN024 OVC060 14/12 A2957 RMK AO2 P0006=
201109251020 SPECI KCLM 251020Z AUTO 00000KT 5SM -RA BR BKN024 OVC060 14/12 A2957 RMK AO2 P0006=
201109251005 SPECI KCLM 251005Z AUTO 22004KT 4SM -RA BR SCT025 OVC060 14/12 A2957 RMK AO2 P0003=
201109251005 SPECI KCLM 251005Z AUTO 22004KT 4SM -RA BR SCT025 OVC060 14/12 A2957 RMK AO2 P0003=
201109250958 SPECI KCLM 250958Z AUTO 23004KT 2 1/2SM RA BR BKN017 BKN055 OVC070 14/12 A2957 RMK AO2 P0002=
201109250958 SPECI KCLM 250958Z AUTO 23004KT 2 1/2SM RA BR BKN017 BKN055 OVC070 14/12 A2957 RMK AO2 P0002=
201109250953 METAR KCLM 250953Z AUTO 27003KT 3SM RA BR SCT022 BKN055 OVC070 14/12 A2956 RMK AO2 RAB45 SLP009 P0003 T01390117=
201109250853 METAR KCLM 250853Z AUTO 32003KT 10SM CLR 14/12 A2952 RMK AO2 SLP996 T01390117 56014=
201109250753 METAR KCLM 250753Z AUTO 00000KT 10SM CLR 14/11 A2953 RMK AO2 SLP998 T01390111 402170100=
201109250653 METAR KCLM 250653Z AUTO 00000KT 10SM CLR 16/12 A2955 RMK AO2 SLP007 T01560117=
201109250553 METAR KCLM 250553Z AUTO 00000KT 10SM CLR 13/12 A2956 RMK AO2 SLP010 T01330117 10183 20128 57020=
201109250453 METAR KCLM 250453Z AUTO 00000KT 10SM CLR 14/12 A2958 RMK AO2 SLP017 T01390122=
201109250353 METAR KCLM 250353Z AUTO 00000KT 10SM CLR 15/13 A2960 RMK AO2 SLP024 T01500128=
201109250253 METAR KCLM 250253Z AUTO 26004KT 10SM CLR 16/13 A2962 RMK AO2 SLP031 T01610128 58012=
201109250153 METAR KCLM 250153Z AUTO 28008KT 10SM FEW100 16/13 A2964 RMK AO2 SLP036 T01610128=
201109250053 METAR KCLM 250053Z AUTO 31004KT 10SM CLR 18/13 A2965 RMK AO2 SLP039 T01780128=
201109242353 METAR KCLM 242353Z AUTO 31006KT 10SM CLR 18/12 A2966 RMK AO2 SLP043 T01830122 10217 20183 55016=
201109242253 METAR KCLM 242253Z AUTO VRB04KT 10SM CLR 20/13 A2965 RMK AO2 SLP041 T02000128=
201109242153 METAR KCLM 242153Z AUTO 35005KT 10SM CLR 21/13 A2967 RMK AO2 SLP048 T02060128=
201109242053 METAR KCLM 242053Z AUTO 02005KT 10SM CLR 19/13 A2971 RMK AO2 SLP059 T01940128 58021=
201109241953 METAR KCLM 241953Z AUTO 01005KT 10SM CLR 19/13 A2973 RMK AO2 SLP068 T01890128=
201109241853 METAR KCLM 241853Z AUTO 32008KT 10SM CLR 18/13 A2975 RMK AO2 SLP075 T01830133=
201109241753 METAR KCLM 241753Z AUTO VRB05KT 10SM FEW015 19/14 A2977 RMK AO2 SLP080 T01890139 10189 20100 58007=
201109241700 SPECI KCLM 241700Z AUTO 31006KT 10SM SCT023 17/14 A2978 RMK AO2=
201109241700 SPECI KCLM 241700Z AUTO 31006KT 10SM SCT023 17/14 A2978 RMK AO2=
201109241653 METAR KCLM 241653Z AUTO 31006KT 10SM BKN023 17/14 A2978 RMK AO2 SLP085 T01720139=
201109241643 SPECI KCLM 241643Z AUTO 31006KT 10SM BKN023 17/13 A2979 RMK AO2=
201109241643 SPECI KCLM 241643Z AUTO 31006KT 10SM BKN023 17/13 A2979 RMK AO2=
201109241553 METAR KCLM 241553Z AUTO 28003KT 10SM SCT015 17/12 A2978 RMK AO2 SLP085 T01670122=
201109241453 METAR KCLM 241453Z AUTO 00000KT 10SM CLR 12/10 A2979 RMK AO2 SLP087 T01170100 58008=
201109241353 METAR KCLM 241353Z AUTO 26007KT 10SM CLR 12/10 A2980 RMK AO2 SLP091 T01170100=
201109241312 SPECI KCLM 241312Z AUTO 29003KT 10SM FEW008 12/11 A2981 RMK AO2=
201109241312 SPECI KCLM 241312Z AUTO 29003KT 10SM FEW008 12/11 A2981 RMK AO2=
201109241305 SPECI KCLM 241305Z AUTO 24003KT 2SM BR FEW005 SCT014 12/11 A2981 RMK AO2=
201109241305 SPECI KCLM 241305Z AUTO 24003KT 2SM BR FEW005 SCT014 12/11 A2981 RMK AO2=
201109241300 SPECI KCLM 241300Z AUTO 24004KT 1SM BR FEW005 BKN016 BKN100 12/11 A2981 RMK AO2=
201109241300 SPECI KCLM 241300Z AUTO 24004KT 1SM BR FEW005 BKN016 BKN100 12/11 A2981 RMK AO2=
201109241253 METAR KCLM 241253Z AUTO 25004KT 1/2SM FG FEW005 BKN010 11/11 A2981 RMK AO2 SLP095 T01110106=
201109241251 SPECI KCLM 241251Z AUTO 25004KT 1/2SM FG BKN005 BKN008 11/11 A2981 RMK AO2=
201109241251 SPECI KCLM 241251Z AUTO 25004KT 1/2SM FG BKN005 BKN008 11/11 A2981 RMK AO2=
201109241224 SPECI KCLM 241224Z AUTO 00000KT 1/4SM FG VV001 12/11 A2981 RMK AO2=
201109241224 SPECI KCLM 241224Z AUTO 00000KT 1/4SM FG VV001 12/11 A2981 RMK AO2=
201109241212 SPECI KCLM 241212Z AUTO 00000KT 1/4SM FG VV003 12/12 A2982 RMK AO2=
201109241212 SPECI KCLM 241212Z AUTO 00000KT 1/4SM FG VV003 12/12 A2982 RMK AO2=
201109241203 SPECI KCLM 241203Z AUTO 00000KT 3/4SM BR VV004 12/11 A2982 RMK AO2=
201109241203 SPECI KCLM 241203Z AUTO 00000KT 3/4SM BR VV004 12/11 A2982 RMK AO2=
201109241159 SPECI KCLM 241159Z AUTO VRB03KT 1 3/4SM BR FEW001 SCT009 13/11 A2981 RMK AO2=
201109241159 SPECI KCLM 241159Z AUTO VRB03KT 1 3/4SM BR FEW001 SCT009 13/11 A2981 RMK AO2=
201109241153 METAR KCLM 241153Z AUTO 01003KT 10SM CLR 13/12 A2981 RMK AO2 SLP095 T01280117 10167 20122 58020=
201109241053 METAR KCLM 241053Z AUTO 23004KT 10SM CLR 13/12 A2983 RMK AO2 SLP101 T01330117=
201109240953 METAR KCLM 240953Z AUTO 22003KT 10SM CLR 14/13 A2986 RMK AO2 SLP111 T01390128=
201109240853 METAR KCLM 240853Z AUTO 15005KT 10SM CLR 15/13 A2987 RMK AO2 SLP115 T01500133 50004=
201109240753 METAR KCLM 240753Z AUTO 00000KT 10SM CLR 14/12 A2988 RMK AO2 SLP115 T01390122 402280133=
201109240653 METAR KCLM 240653Z AUTO 25004KT 10SM CLR 15/13 A2988 RMK AO2 SLP117 T01500133=
201109240553 METAR KCLM 240553Z AUTO 26005KT 10SM CLR 16/13 A2986 RMK AO2 SLP111 T01560133 10222 20150 55000=
201109240453 METAR KCLM 240453Z AUTO 23004KT 10SM CLR 15/14 A2985 RMK AO2 SLP107 T01500139=
201109240353 METAR KCLM 240353Z AUTO 26003KT 10SM CLR 17/14 A2985 RMK AO2 SLP108 T01670144=
201109240253 METAR KCLM 240253Z AUTO 26004KT 10SM CLR 18/15 A2986 RMK AO2 SLP112 T01780150 56015=
201109240153 METAR KCLM 240153Z AUTO 29003KT 10SM CLR 19/16 A2987 RMK AO2 SLP113 T01940156=
201109240053 METAR KCLM 240053Z AUTO 31005KT 10SM CLR 21/16 A2989 RMK AO2 SLP121 T02060156=
201109232353 METAR KCLM 232353Z AUTO 33004KT 10SM FEW075 22/16 A2991 RMK AO2 SLP126 T02170156 10228 20200 58020=
201109232253 METAR KCLM 232253Z AUTO 36005KT 10SM CLR 22/16 A2993 RMK AO2 SLP133 T02170156=
201109232153 METAR KCLM 232153Z AUTO 35006KT 10SM FEW100 21/16 A2995 RMK AO2 SLP142 T02110156=
201109232053 METAR KCLM 232053Z AUTO 34006KT 10SM FEW070 22/15 A2997 RMK AO2 SLP146 T02170150 58003=
201109231953 METAR KCLM 231953Z AUTO 36005KT 10SM FEW100 22/15 A2997 RMK AO2 SLP147 T02170150=
201109231853 METAR KCLM 231853Z AUTO 03004KT 10SM CLR 22/15 A2998 RMK AO2 SLP150 T02170150=
201109231753 METAR KCLM 231753Z AUTO 34003KT 10SM CLR 21/16 A2998 RMK AO2 SLP150 T02060156 10206 20144 51008=
201109231653 METAR KCLM 231653Z AUTO 00000KT 10SM CLR 20/16 A2997 RMK AO2 SLP148 T02000161=
201109231553 METAR KCLM 231553Z AUTO 00000KT 10SM CLR 18/16 A2996 RMK AO2 SLP147 T01830161=
201109231453 METAR KCLM 231453Z AUTO 00000KT 10SM CLR 16/14 A2995 RMK AO2 SLP142 T01610144 50006=
201109231353 METAR KCLM 231353Z AUTO 00000KT 10SM SCT014 16/14 A2995 RMK AO2 SLP143 T01560139=
201109231253 METAR KCLM 231253Z AUTO 23005KT 10SM CLR 17/14 A2995 RMK AO2 SLP141 T01670144=
201109231153 METAR KCLM 231153Z AUTO 29004KT 10SM CLR 16/14 A2993 RMK AO2 SLP135 70002 T01560139 10161 20144 53004=
201109231053 METAR KCLM 231053Z AUTO 13004KT 10SM CLR 16/14 A2992 RMK AO2 SLP129 T01560139=
201109230953 METAR KCLM 230953Z AUTO 00000KT 10SM FEW060 15/13 A2993 RMK AO2 SLP134 T01500133=
201109230853 METAR KCLM 230853Z AUTO 00000KT 10SM FEW100 15/13 A2992 RMK AO2 SLP132 T01500133 56005=
201109230753 METAR KCLM 230753Z AUTO 00000KT 10SM CLR 15/13 A2993 RMK AO2 SLP135 T01500133 402170133=
201109230653 METAR KCLM 230653Z AUTO 25003KT 10SM CLR 15/13 A2992 RMK AO2 SLP133 T01500128=
201109230553 METAR KCLM 230553Z AUTO 00000KT 10SM CLR 15/13 A2994 RMK AO2 SLP137 T01500128 10211 20144 57001=
201109230453 METAR KCLM 230453Z AUTO 00000KT 10SM FEW065 14/12 A2994 RMK AO2 SLP137 T01440122 TSNO=
201109230353 METAR KCLM 230353Z AUTO 08003KT 10SM FEW070 14/12 A2994 RMK AO2 SLP137 T01440122=
201109230253 METAR KCLM 230253Z AUTO 00000KT 10SM FEW120 18/15 A2994 RMK AO2 SLP138 T01780150 58003=
201109230153 METAR KCLM 230153Z AUTO 00000KT 10SM BKN120 18/14 A2995 RMK AO2 SLP141 T01830144=
201109230053 METAR KCLM 230053Z AUTO 00000KT 10SM FEW070 BKN110 20/15 A2995 RMK AO2 SLP141 T02000150=
201109222353 METAR KCLM 222353Z AUTO 36003KT 10SM FEW070 21/15 A2995 RMK AO2 SLP140 T02060150 10217 20150 50002=
201109222253 METAR KCLM 222253Z AUTO 36005KT 10SM CLR 21/15 A2995 RMK AO2 SLP141 T02060150=
201109222153 METAR KCLM 222153Z AUTO 01003KT 10SM FEW070 20/14 A2996 RMK AO2 SLP144 T02000139=
201109222053 METAR KCLM 222053Z AUTO 00000KT 10SM FEW065 19/13 A2994 RMK AO2 SLP138 T01890133 57001=
201109221953 METAR KCLM 221953Z AUTO 36003KT 10SM BKN060 18/14 A2994 RMK AO2 SLP140 T01830139=
201109221853 METAR KCLM 221853Z AUTO 35005KT 4SM BR FEW049 BKN070 16/14 A2994 RMK AO2 SLP139 T01560139=
201109221837 SPECI KCLM 221837Z AUTO 05003KT 10SM SCT003 SCT065 17/14 A2993 RMK AO2=
201109221837 SPECI KCLM 221837Z AUTO 05003KT 10SM SCT003 SCT065 17/14 A2993 RMK AO2=
201109221825 SPECI KCLM 221825Z AUTO 10003KT 6SM BR BKN003 17/14 A2993 RMK AO2=
201109221825 SPECI KCLM 221825Z AUTO 10003KT 6SM BR BKN003 17/14 A2993 RMK AO2=
201109221814 SPECI KCLM 221814Z AUTO 03003KT 4SM BR OVC001 16/14 A2993 RMK AO2=
201109221814 SPECI KCLM 221814Z AUTO 03003KT 4SM BR OVC001 16/14 A2993 RMK AO2=
201109221753 METAR KCLM 221753Z AUTO 00000KT 2SM BR OVC001 15/14 A2994 RMK AO2 SLP139 60002 T01500139 10156 20133 53011=
201109221653 METAR KCLM 221653Z AUTO 00000KT 1 1/4SM BR OVC001 14/13 A2992 RMK AO2 SLP130 T01440133=
201109221643 SPECI KCLM 221643Z AUTO 00000KT 1SM BR OVC001 14/13 A2992 RMK AO2=
201109221643 SPECI KCLM 221643Z AUTO 00000KT 1SM BR OVC001 14/13 A2992 RMK AO2=
201109221557 SPECI KCLM 221557Z AUTO 00000KT 1/4SM FG VV001 14/13 A2990 RMK AO2=
201109221557 SPECI KCLM 221557Z AUTO 00000KT 1/4SM FG VV001 14/13 A2990 RMK AO2=
201109221553 METAR KCLM 221553Z AUTO 00000KT 1/2SM FG BKN002 OVC100 14/13 A2990 RMK AO2 RAE1457 SLP126 P0000 T01390128=
201109221543 SPECI KCLM 221543Z AUTO 00000KT 1 1/2SM BR BKN002 BKN022 BKN100 14/13 A2991 RMK AO2 RAE1457 P0000=
201109221543 SPECI KCLM 221543Z AUTO 00000KT 1 1/2SM BR BKN002 BKN022 BKN100 14/13 A2991 RMK AO2 RAE1457 P0000=
201109221536 SPECI KCLM 221536Z AUTO 00000KT 1SM BR FEW002 SCT020 BKN100 14/13 A2991 RMK AO2 RAE1457 P0000=
201109221536 SPECI KCLM 221536Z AUTO 00000KT 1SM BR FEW002 SCT020 BKN100 14/13 A2991 RMK AO2 RAE1457 P0000=
201109221534 SPECI KCLM 221534Z AUTO 06004KT 3/4SM BR FEW002 BKN020 BKN100 14/13 A2991 RMK AO2 RAE1457 P0000=
201109221534 SPECI KCLM 221534Z AUTO 06004KT 3/4SM BR FEW002 BKN020 BKN100 14/13 A2991 RMK AO2 RAE1457 P0000=
201109221453 METAR KCLM 221453Z AUTO 00000KT 1 1/4SM -RA BR FEW001 OVC060 14/13 A2991 RMK AO2 SLP128 P0001 60002 T01390128 56001=
201109221449 SPECI KCLM 221449Z AUTO 00000KT 1 1/2SM -RA BR FEW001 OVC060 14/13 A2991 RMK AO2 P0001=
201109221449 SPECI KCLM 221449Z AUTO 00000KT 1 1/2SM -RA BR FEW001 OVC060 14/13 A2991 RMK AO2 P0001=
201109221441 SPECI KCLM 221441Z AUTO 26003KT 2SM -RA BR BKN060 OVC075 14/13 A2991 RMK AO2 P0001=
201109221441 SPECI KCLM 221441Z AUTO 26003KT 2SM -RA BR BKN060 OVC075 14/13 A2991 RMK AO2 P0001=
201109221353 METAR KCLM 221353Z AUTO 00000KT 4SM -RA BR SCT045 OVC070 15/13 A2990 RMK AO2 SLP126 P0001 T01500133=
201109221253 METAR KCLM 221253Z AUTO 23003KT 10SM -RA FEW032 BKN070 OVC100 14/13 A2991 RMK AO2 RAE08B47 SLP129 P0000 T01440128=
201109221153 METAR KCLM 221153Z AUTO 12003KT 10SM -RA FEW047 SCT065 OVC120 15/13 A2989 RMK AO2 RAB16 SLP121 P0000 60000 T01500128 10150 20139 58005=
201109221053 METAR KCLM 221053Z AUTO 00000KT 10SM FEW028 BKN070 OVC110 14/13 A2990 RMK AO2 SLP126 T01440128=
201109220953 METAR KCLM 220953Z AUTO 17003KT 10SM FEW055 SCT070 BKN090 14/13 A2990 RMK AO2 SLP126 T01440128=
201109220853 METAR KCLM 220853Z AUTO 00000KT 10SM BKN070 OVC080 14/13 A2990 RMK AO2 RAE02B25E34 SLP126 P0000 60000 T01440128 55003=
201109220753 METAR KCLM 220753Z AUTO 32003KT 10SM -RA BKN070 OVC090 14/13 A2990 RMK AO2 RAB53 SLP125 P0000 T01440128 402170106=
201109220653 METAR KCLM 220653Z AUTO 00000KT 10SM FEW070 SCT110 14/13 A2990 RMK AO2 SLP123 T01440128=
201109220553 METAR KCLM 220553Z AUTO 00000KT 10SM SCT080 SCT095 15/13 A2991 RMK AO2 SLP129 60000 T01500128 10183 20150 58001=
201109220453 METAR KCLM 220453Z AUTO 17004KT 10SM FEW070 15/14 A2991 RMK AO2 RAB12E24 SLP130 P0000 T01500139=
201109220353 METAR KCLM 220353Z AUTO 00000KT 10SM FEW070 SCT095 15/13 A2993 RMK AO2 RAE21 SLP136 P0000 T01500133=
201109220253 METAR KCLM 220253Z AUTO 00000KT 10SM -RA SCT075 OVC100 16/12 A2991 RMK AO2 RAB10 SLP130 P0000 60000 T01560122 58002=
201109220153 METAR KCLM 220153Z AUTO 00000KT 10SM FEW070 OVC110 16/10 A2992 RMK AO2 RAB43E52 SLP132 P0000 T01610100=
201109220053 METAR KCLM 220053Z AUTO 00000KT 10SM BKN070 OVC090 17/09 A2991 RMK AO2 SLP130 T01720094=
201109212353 METAR KCLM 212353Z AUTO 00000KT 10SM FEW100 17/09 A2992 RMK AO2 SLP131 T01670094 10217 20161 55011=
201109212253 METAR KCLM 212253Z AUTO 00000KT 10SM CLR 18/09 A2990 RMK AO2 SLP123 T01830089=
201109212153 METAR KCLM 212153Z AUTO 00000KT 10SM CLR 19/09 A2992 RMK AO2 SLP132 T01940094=
201109212053 METAR KCLM 212053Z AUTO 36003KT 10SM CLR 17/09 A2995 RMK AO2 SLP143 T01670089 56010=
201109211953 METAR KCLM 211953Z AUTO VRB03KT 10SM FEW100 18/09 A2996 RMK AO2 SLP146 T01830089=
201109211853 METAR KCLM 211853Z AUTO 07004KT 10SM CLR 18/09 A2997 RMK AO2 SLP149 T01780089=
201109211753 METAR KCLM 211753Z AUTO 00000KT 10SM CLR 18/09 A2998 RMK AO2 SLP153 T01780089 10178 20117 55002=
201109211653 METAR KCLM 211653Z AUTO 00000KT 10SM BKN110 16/09 A2998 RMK AO2 SLP150 T01560089=
201109211553 METAR KCLM 211553Z AUTO 12004KT 10SM FEW120 16/08 A2997 RMK AO2 SLP150 T01610083=
201109211453 METAR KCLM 211453Z AUTO 00000KT 10SM SCT110 13/09 A2999 RMK AO2 SLP155 T01330094 51003=
201109211353 METAR KCLM 211353Z AUTO 00000KT 10SM FEW110 12/08 A2999 RMK AO2 SLP155 T01170078=
201109211253 METAR KCLM 211253Z AUTO 24004KT 10SM BKN110 13/08 A2999 RMK AO2 SLP156 T01280083=
201109211153 METAR KCLM 211153Z AUTO 15003KT 10SM BKN100 12/08 A2998 RMK AO2 SLP152 T01220083 10144 20106 56008=
201109211053 METAR KCLM 211053Z AUTO 00000KT 10SM FEW110 12/08 A2998 RMK AO2 SLP153 T01170083=
201109210953 METAR KCLM 210953Z AUTO 00000KT 10SM OVC100 14/08 A2998 RMK AO2 SLP151 T01440078=
201109210853 METAR KCLM 210853Z AUTO 00000KT 10SM CLR 13/08 A3000 RMK AO2 SLP160 T01280078 56004=
201109210753 METAR KCLM 210753Z AUTO 00000KT 10SM CLR 12/08 A3000 RMK AO2 SLP160 T01220078 401940050=
201109210653 METAR KCLM 210653Z AUTO 00000KT 10SM CLR 11/07 A3001 RMK AO2 SLP161 T01110072=
201109210553 METAR KCLM 210553Z AUTO 00000KT 10SM CLR 11/07 A3002 RMK AO2 SLP164 T01110072 10189 20111 58007=
201109210453 METAR KCLM 210453Z AUTO 00000KT 10SM CLR 13/08 A3003 RMK AO2 SLP168 T01280078=
201109210353 METAR KCLM 210353Z AUTO 23003KT 10SM CLR 13/09 A3004 RMK AO2 SLP171 T01330089=
201109210253 METAR KCLM 210253Z AUTO 00000KT 10SM CLR 13/09 A3004 RMK AO2 SLP172 T01330094 55013=
201109210153 METAR KCLM 210153Z AUTO 00000KT 10SM FEW100 15/09 A3004 RMK AO2 SLP172 T01500089=
201109210053 METAR KCLM 210053Z AUTO 00000KT 10SM CLR 18/09 A3004 RMK AO2 SLP174 T01830089=
201109202353 METAR KCLM 202353Z AUTO 03004KT 10SM FEW100 19/08 A3007 RMK AO2 SLP184 T01890083 10194 20150 56015=
201109202253 METAR KCLM 202253Z AUTO 10003KT 10SM CLR 19/08 A3008 RMK AO2 SLP186 T01890083=
201109202153 METAR KCLM 202153Z AUTO VRB04KT 10SM CLR 19/08 A3011 RMK AO2 SLP194 T01890078=
201109202053 METAR KCLM 202053Z AUTO 10007KT 10SM CLR 18/08 A3012 RMK AO2 SLP199 T01830078 56005=
201109201953 METAR KCLM 201953Z AUTO 00000KT 10SM FEW100 17/08 A3013 RMK AO2 SLP201 T01670083=
201109201853 METAR KCLM 201853Z AUTO 09006KT CLR 16/09 A3012 RMK AO2 SLP200 T01610089 PWINO $=
201109201753 METAR KCLM 201753Z AUTO 04004KT 10SM CLR 15/09 A3013 RMK AO2 SLP205 T01500089 10156 20050 55003=
201109201653 METAR KCLM 201653Z AUTO 10004KT 10SM CLR 15/09 A3013 RMK AO2 SLP203 T01500089=
201109201553 METAR KCLM 201553Z AUTO 00000KT 10SM CLR 13/08 A3014 RMK AO2 SLP208 T01330078=
201109201453 METAR KCLM 201453Z AUTO 00000KT 10SM CLR 08/06 A3015 RMK AO2 SLP209 T00830061 57007=
201109201353 METAR KCLM 201353Z AUTO 22004KT 10SM CLR 07/05 A3015 RMK AO2 SLP211 T00720050=
201109201253 METAR KCLM 201253Z AUTO 00000KT 10SM CLR 07/05 A3016 RMK AO2 SLP213 T00720050=
201109201153 METAR KCLM 201153Z AUTO 00000KT 10SM CLR 07/04 A3017 RMK AO2 SLP216 T00670044 10100 20056 55002=
201109201053 METAR KCLM 201053Z AUTO 23003KT 10SM CLR 06/04 A3016 RMK AO2 SLP214 T00610044=
201109200953 METAR KCLM 200953Z AUTO 00000KT 10SM CLR 07/04 A3016 RMK AO2 SLP214 T00720044=
201109200853 METAR KCLM 200853Z AUTO 21003KT 10SM CLR 08/05 A3017 RMK AO2 SLP217 T00780050 58006=
201109200753 METAR KCLM 200753Z AUTO 23005KT 10SM CLR 10/06 A3018 RMK AO2 SLP220 T01000056 401890067=
201109200653 METAR KCLM 200653Z AUTO 00000KT 10SM CLR 09/06 A3019 RMK AO2 SLP223 T00940056=
201109200553 METAR KCLM 200553Z AUTO 22003KT 10SM CLR 09/06 A3019 RMK AO2 SLP225 T00890061 10183 20089 56003=
201109200453 METAR KCLM 200453Z AUTO 00000KT 10SM CLR 11/07 A3019 RMK AO2 SLP224 T01060072=
201109200353 METAR KCLM 200353Z AUTO 00000KT 10SM CLR 11/07 A3020 RMK AO2 SLP225 T01060067=
201109200253 METAR KCLM 200253Z AUTO 00000KT 10SM CLR 12/07 A3020 RMK AO2 SLP227 T01220067 58008=
201109200153 METAR KCLM 200153Z AUTO 00000KT 10SM CLR 17/06 A3021 RMK AO2 SLP229 T01670061=
201109200053 METAR KCLM 200053Z AUTO 09004KT 10SM CLR 18/06 A3022 RMK AO2 SLP232 T01780056=
201109192353 METAR KCLM 192353Z AUTO 09007KT 10SM CLR 18/06 A3022 RMK AO2 SLP235 T01780061 10189 20139 58008=
201109192253 METAR KCLM 192253Z AUTO 09008KT 10SM FEW100 18/07 A3023 RMK AO2 SLP238 T01830067=
201109192153 METAR KCLM 192153Z AUTO 09009KT 10SM FEW100 18/07 A3024 RMK AO2 SLP241 T01830067=
201109192053 METAR KCLM 192053Z AUTO 03005KT 10SM FEW100 17/08 A3025 RMK AO2 SLP243 T01720083 53004=
201109191953 METAR KCLM 191953Z AUTO 34005KT 10SM FEW100 16/09 A3024 RMK AO2 SLP242 T01610089=
201109191853 METAR KCLM 191853Z AUTO 01004KT 10SM CLR 17/09 A3024 RMK AO2 SLP239 T01670094=
201109191753 METAR KCLM 191753Z AUTO 36005KT 10SM CLR 14/09 A3024 RMK AO2 SLP239 T01440094 10172 20111 51013=
201109191653 METAR KCLM 191653Z AUTO 27003KT 10SM CLR 16/08 A3023 RMK AO2 SLP236 T01610078=
201109191553 METAR KCLM 191553Z AUTO 25007KT 10SM CLR 14/07 A3022 RMK AO2 SLP233 T01440072=
201109191453 METAR KCLM 191453Z AUTO 24007KT 10SM FEW100 13/07 A3020 RMK AO2 SLP226 T01280072 53012=
201109191353 METAR KCLM 191353Z AUTO 28005KT 10SM CLR 11/07 A3019 RMK AO2 SLP223 T01110072=
201109191253 METAR KCLM 191253Z AUTO 25008KT 10SM CLR 13/08 A3017 RMK AO2 SLP217 T01280078=
201109191153 METAR KCLM 191153Z AUTO 26007KT 10SM CLR 13/08 A3016 RMK AO2 SLP214 70002 T01280083 10156 20122 53006=
201109191053 METAR KCLM 191053Z AUTO 25007KT 10SM CLR 13/08 A3015 RMK AO2 SLP211 T01330083=
201109190953 METAR KCLM 190953Z AUTO 25007KT 10SM CLR 14/07 A3014 RMK AO2 SLP207 T01390072=
201109190853 METAR KCLM 190853Z AUTO 28008KT 10SM BKN055 15/07 A3015 RMK AO2 SLP208 T01500072 51014=
201109190753 METAR KCLM 190753Z AUTO 29012G15KT 10SM OVC055 15/08 A3014 RMK AO2 SLP205 T01500078 401890106=
201109190653 METAR KCLM 190653Z AUTO 27005KT 10SM SCT055 15/09 A3012 RMK AO2 SLP200 T01500094=
201109190553 METAR KCLM 190553Z AUTO 30006KT 10SM SCT060 14/11 A3011 RMK AO2 SLP194 T01440106 10172 20144 51002=
201109190453 METAR KCLM 190453Z AUTO 27006KT 10SM BKN038 OVC049 16/11 A3011 RMK AO2 SLP195 T01560106=
201109190353 METAR KCLM 190353Z AUTO 26005KT 10SM OVC034 16/10 A3011 RMK AO2 SLP194 T01560100=
201109190308 SPECI KCLM 190308Z AUTO 27005KT 10SM OVC030 16/09 A3010 RMK AO2=
201109190308 SPECI KCLM 190308Z AUTO 27005KT 10SM OVC030 16/09 A3010 RMK AO2=
201109190253 METAR KCLM 190253Z AUTO 26005KT 10SM OVC028 16/09 A3010 RMK AO2 SLP192 T01560094 56008=
201109190153 METAR KCLM 190153Z AUTO 26005KT 10SM OVC027 16/09 A3011 RMK AO2 SLP194 T01610094=
201109190131 SPECI KCLM 190131Z AUTO 28006KT 10SM BKN027 BKN034 16/09 A3011 RMK AO2=
201109190131 SPECI KCLM 190131Z AUTO 28006KT 10SM BKN027 BKN034 16/09 A3011 RMK AO2=
201109190120 SPECI KCLM 190120Z AUTO 27005KT 10SM SCT027 BKN036 17/09 A3010 RMK AO2=
201109190120 SPECI KCLM 190120Z AUTO 27005KT 10SM SCT027 BKN036 17/09 A3010 RMK AO2=
201109190053 METAR KCLM 190053Z AUTO 29004KT 10SM BKN027 OVC038 17/09 A3010 RMK AO2 SLP193 T01670094=
201109182353 METAR KCLM 182353Z AUTO 27005KT 10SM BKN029 OVC044 17/10 A3012 RMK AO2 SLP201 T01720100 10189 20161 51006=
201109182320 SPECI KCLM 182320Z AUTO 28006KT 10SM BKN029 OVC039 17/10 A3012 RMK AO2=
201109182320 SPECI KCLM 182320Z AUTO 28006KT 10SM BKN029 OVC039 17/10 A3012 RMK AO2=
201109182253 METAR KCLM 182253Z AUTO 27007KT 10SM OVC036 17/10 A3012 RMK AO2 SLP199 T01670100=
201109182241 SPECI KCLM 182241Z AUTO 27007KT 10SM BKN030 OVC039 17/10 A3013 RMK AO2=
201109182241 SPECI KCLM 182241Z AUTO 27007KT 10SM BKN030 OVC039 17/10 A3013 RMK AO2=
201109182206 SPECI KCLM 182206Z AUTO 32007KT 10SM BKN026 OVC037 17/11 A3012 RMK AO2=
201109182206 SPECI KCLM 182206Z AUTO 32007KT 10SM BKN026 OVC037 17/11 A3012 RMK AO2=
201109182153 METAR KCLM 182153Z AUTO 32007KT 10SM SCT026 OVC037 17/12 A3011 RMK AO2 SLP197 T01670117=
201109182127 SPECI KCLM 182127Z AUTO 34004KT 10SM FEW025 OVC037 17/12 A3011 RMK AO2=
201109182127 SPECI KCLM 182127Z AUTO 34004KT 10SM FEW025 OVC037 17/12 A3011 RMK AO2=
201109182053 METAR KCLM 182053Z AUTO 36005KT 10SM BKN025 18/12 A3011 RMK AO2 SLP195 T01780117 51010=
201109181953 METAR KCLM 181953Z AUTO 36003KT 10SM FEW100 17/11 A3010 RMK AO2 SLP192 T01720111=
201109181903 SPECI KCLM 181903Z AUTO 34004KT 10SM SCT018 BKN033 17/11 A3010 RMK AO2=
201109181903 SPECI KCLM 181903Z AUTO 34004KT 10SM SCT018 BKN033 17/11 A3010 RMK AO2=
201109181853 METAR KCLM 181853Z AUTO 00000KT 10SM BKN018 17/12 A3010 RMK AO2 SLP192 T01670117=
201109181827 SPECI KCLM 181827Z AUTO 06003KT 10SM BKN016 BKN037 17/12 A3009 RMK AO2=
201109181827 SPECI KCLM 181827Z AUTO 06003KT 10SM BKN016 BKN037 17/12 A3009 RMK AO2=
201109181753 METAR KCLM 181753Z AUTO VRB03KT 10SM FEW014 SCT048 18/12 A3008 RMK AO2 SLP185 60002 T01780122 10178 20106 53026=
201109181653 METAR KCLM 181653Z AUTO 00000KT 10SM CLR 14/12 A3004 RMK AO2 SLP171 T01440117=
201109181553 METAR KCLM 181553Z AUTO 00000KT 8SM SCT001 SCT008 12/11 A3001 RMK AO2 SLP162 T01220106=
201109181538 SPECI KCLM 181538Z AUTO 00000KT 3SM BR BKN001 OVC008 12/11 A3000 RMK AO2=
201109181538 SPECI KCLM 181538Z AUTO 00000KT 3SM BR BKN001 OVC008 12/11 A3000 RMK AO2=
201109181514 SPECI KCLM 181514Z AUTO 00000KT 1SM BR OVC001 12/11 A3001 RMK AO2=
201109181514 SPECI KCLM 181514Z AUTO 00000KT 1SM BR OVC001 12/11 A3001 RMK AO2=
201109181453 METAR KCLM 181453Z AUTO VRB03KT 1/4SM FG VV001 11/11 A3000 RMK AO2 SLP160 60002 T01110106 53010=
201109181442 SPECI KCLM 181442Z AUTO VRB04KT 1/4SM FG OVC001 11/10 A2999 RMK AO2=
201109181442 SPECI KCLM 181442Z AUTO VRB04KT 1/4SM FG OVC001 11/10 A2999 RMK AO2=
201109181422 SPECI KCLM 181422Z AUTO 00000KT 1/2SM FG OVC001 11/09 A2998 RMK AO2=
201109181422 SPECI KCLM 181422Z AUTO 00000KT 1/2SM FG OVC001 11/09 A2998 RMK AO2=
201109181412 SPECI KCLM 181412Z AUTO 00000KT 1 1/2SM BR OVC001 11/09 A2997 RMK AO2=
201109181412 SPECI KCLM 181412Z AUTO 00000KT 1 1/2SM BR OVC001 11/09 A2997 RMK AO2=
201109181353 METAR KCLM 181353Z AUTO 25004KT 5SM BR BKN001 OVC060 11/10 A2998 RMK AO2 SLP151 T01110100=
201109181342 SPECI KCLM 181342Z AUTO 28005KT 6SM BR BKN001 OVC065 11/10 A2998 RMK AO2=
201109181342 SPECI KCLM 181342Z AUTO 28005KT 6SM BR BKN001 OVC065 11/10 A2998 RMK AO2=
201109181324 SPECI KCLM 181324Z AUTO 30004KT 3SM BR SCT001 OVC065 11/10 A2997 RMK AO2=
201109181324 SPECI KCLM 181324Z AUTO 30004KT 3SM BR SCT001 OVC065 11/10 A2997 RMK AO2=
201109181319 SPECI KCLM 181319Z AUTO 30003KT 2SM BR BKN001 OVC065 11/10 A2997 RMK AO2=
201109181319 SPECI KCLM 181319Z AUTO 30003KT 2SM BR BKN001 OVC065 11/10 A2997 RMK AO2=
201109181304 SPECI KCLM 181304Z AUTO 29004KT 3/4SM BR BKN001 OVC070 11/10 A2997 RMK AO2=
201109181304 SPECI KCLM 181304Z AUTO 29004KT 3/4SM BR BKN001 OVC070 11/10 A2997 RMK AO2=
201109181300 SPECI KCLM 181300Z AUTO 29004KT 1 1/4SM BR SCT001 BKN005 OVC070 11/10 A2997 RMK AO2=
201109181300 SPECI KCLM 181300Z AUTO 29004KT 1 1/4SM BR SCT001 BKN005 OVC070 11/10 A2997 RMK AO2=
201109181251 METAR KCLM 181251Z AUTO 00000KT 1 3/4SM BR SCT001 SCT026 OVC070 11/10 A2997 RMK AO2 RAB17E44 SLP147 P0002 T01110100=
201109181250 SPECI KCLM 181250Z AUTO 33003KT 1 3/4SM BR SCT001 SCT026 OVC070 11/10 A2996 RMK AO2 RAB17E44 P0002=
201109181250 SPECI KCLM 181250Z AUTO 33003KT 1 3/4SM BR SCT001 SCT026 OVC070 11/10 A2996 RMK AO2 RAB17E44 P0002=
201109181216 SPECI KCLM 181216Z AUTO 00000KT 5SM BR FEW001 BKN080 OVC095 12/10 A2997 RMK AO2=
201109181216 SPECI KCLM 181216Z AUTO 00000KT 5SM BR FEW001 BKN080 OVC095 12/10 A2997 RMK AO2=
201109181153 METAR KCLM 181153Z AUTO 00000KT 3SM BR BKN001 BKN060 OVC080 11/10 A2997 RMK AO2 RAB18E46 SLP149 P0000 60000 T01110100 10128 20111 57012=
201109181139 SPECI KCLM 181139Z AUTO 35006KT 3SM -RA BR SCT001 OVC055 11/09 A2999 RMK AO2 RAB18 P0000=
201109181139 SPECI KCLM 181139Z AUTO 35006KT 3SM -RA BR SCT001 OVC055 11/09 A2999 RMK AO2 RAB18 P0000=
201109181053 METAR KCLM 181053Z AUTO 00000KT 4SM BR BKN055 OVC070 12/10 A2999 RMK AO2 SLP154 T01170100=
201109180953 METAR KCLM 180953Z AUTO 00000KT 7SM SCT060 BKN070 OVC090 12/11 A2999 RMK AO2 SLP155 T01170106=
201109180853 METAR KCLM 180853Z AUTO 00000KT 8SM FEW027 OVC050 12/11 A3001 RMK AO2 SLP161 T01220106 55000=
201109180753 METAR KCLM 180753Z AUTO 11003KT 9SM FEW026 OVC050 12/11 A3000 RMK AO2 SLP160 T01220106 401670083=
201109180653 METAR KCLM 180653Z AUTO 00000KT 10SM SCT060 OVC085 12/11 A3000 RMK AO2 SLP158 T01220106=
201109180553 METAR KCLM 180553Z AUTO 00000KT 10SM FEW027 OVC095 12/11 A3001 RMK AO2 RAE08 SLP161 P0000 60000 T01220106 10150 20122 58000=
201109180453 METAR KCLM 180453Z AUTO 23005KT 10SM -RA FEW030 OVC070 13/11 A3002 RMK AO2 RAB0359 SLP164 P0000 T01280106=
201109180353 METAR KCLM 180353Z AUTO 00000KT 10SM BKN090 OVC110 13/10 A3001 RMK AO2 SLP161 T01280100=
201109180253 METAR KCLM 180253Z AUTO 00000KT 10SM FEW080 13/10 A3001 RMK AO2 SLP162 T01330100 58006=
201109180153 METAR KCLM 180153Z AUTO 00000KT 10SM BKN065 OVC085 14/10 A3002 RMK AO2 SLP165 T01390100=
201109180053 METAR KCLM 180053Z AUTO 29004KT 10SM BKN070 14/09 A3003 RMK AO2 SLP169 T01390094=
201109172353 METAR KCLM 172353Z AUTO 32004KT 10SM SCT100 15/09 A3002 RMK AO2 SLP168 T01500094 10167 20139 53002=
201109172253 METAR KCLM 172253Z AUTO 34005KT 10SM SCT065 SCT095 BKN120 16/09 A3002 RMK AO2 SLP166 T01560094=
201109172153 METAR KCLM 172153Z AUTO 35003KT 10SM SCT085 15/09 A3002 RMK AO2 SLP165 T01500089=
201109172053 METAR KCLM 172053Z AUTO 36004KT 10SM BKN060 15/08 A3002 RMK AO2 SLP165 T01500083 53004=
201109171953 METAR KCLM 171953Z AUTO 00000KT 10SM SCT070 16/08 A3001 RMK AO2 SLP161 T01610078=
201109171853 METAR KCLM 171853Z AUTO 01003KT 10SM CLR 14/07 A3001 RMK AO2 SLP164 T01440072=
201109171753 METAR KCLM 171753Z AUTO 34004KT 10SM CLR 14/09 A3000 RMK AO2 SLP161 T01390089 10144 20083 51008=
201109171653 METAR KCLM 171653Z AUTO 00000KT 10SM CLR 13/09 A2999 RMK AO2 SLP158 T01330089=
201109171553 METAR KCLM 171553Z AUTO 27003KT 10SM CLR 12/09 A2999 RMK AO2 SLP157 T01170089=
201109171453 METAR KCLM 171453Z AUTO 00000KT 10SM FEW110 10/08 A2998 RMK AO2 SLP153 T01000078 53003=
201109171353 METAR KCLM 171353Z AUTO 24003KT 10SM CLR 09/07 A2998 RMK AO2 SLP152 T00890072=
201109171253 METAR KCLM 171253Z AUTO 18003KT 10SM CLR 09/07 A2997 RMK AO2 SLP149 T00940072=
201109171153 METAR KCLM 171153Z AUTO 00000KT 10SM FEW080 09/07 A2997 RMK AO2 SLP150 T00940072 10111 20089 58006=
201109171053 METAR KCLM 171053Z AUTO 00000KT 10SM SCT060 09/07 A2998 RMK AO2 SLP152 T00940072=
201109170953 METAR KCLM 170953Z AUTO 00000KT 10SM BKN080 BKN095 11/08 A2999 RMK AO2 SLP154 T01060078=
201109170853 METAR KCLM 170853Z AUTO 00000KT 10SM OVC085 10/07 A2999 RMK AO2 SLP156 T01000072 56009=
201109170753 METAR KCLM 170753Z AUTO 00000KT 10SM OVC070 11/08 A3000 RMK AO2 SLP158 T01060083 401560083=
201109170653 METAR KCLM 170653Z AUTO 00000KT 10SM BKN090 10/08 A3000 RMK AO2 SLP161 T01000078=
201109170553 METAR KCLM 170553Z AUTO 00000KT 10SM OVC095 11/08 A3001 RMK AO2 SLP164 T01060083 10144 20106 50000=
201109170453 METAR KCLM 170453Z AUTO 00000KT 10SM OVC095 11/08 A3002 RMK AO2 SLP166 T01110078=
201109170353 METAR KCLM 170353Z AUTO 26003KT 10SM OVC100 12/08 A3002 RMK AO2 SLP166 T01170083=
201109170253 METAR KCLM 170253Z AUTO 19003KT 10SM SCT065 BKN100 12/08 A3002 RMK AO2 SLP165 T01170078 55000=
201109170153 METAR KCLM 170153Z AUTO 00000KT 10SM OVC060 14/08 A3001 RMK AO2 SLP164 T01390078=
201109170053 METAR KCLM 170053Z AUTO 00000KT 10SM OVC065 14/08 A3001 RMK AO2 SLP162 T01440078=
201109162353 METAR KCLM 162353Z AUTO 36004KT 10SM BKN070 14/08 A3002 RMK AO2 SLP165 T01390078 10156 20133 56005=
201109162253 METAR KCLM 162253Z AUTO 34005KT 10SM BKN065 OVC080 15/08 A3002 RMK AO2 SLP166 T01500078=
201109162153 METAR KCLM 162153Z AUTO 24006KT 10SM FEW022 OVC065 15/08 A3002 RMK AO2 SLP166 T01500078=
201109162053 METAR KCLM 162053Z AUTO 29004KT 10SM OVC060 14/08 A3003 RMK AO2 SLP170 T01390078 53006=
201109161953 METAR KCLM 161953Z AUTO 32007KT 10SM OVC070 14/08 A3002 RMK AO2 SLP166 T01390078=
201109161853 METAR KCLM 161853Z AUTO 34007KT 10SM BKN075 14/07 A3001 RMK AO2 SLP163 T01440072=
201109161753 METAR KCLM 161753Z AUTO VRB04KT 10SM CLR 15/04 A3001 RMK AO2 SLP162 T01500044 10150 20089 55001=
201109161653 METAR KCLM 161653Z AUTO 26004KT 10SM CLR 13/05 A3001 RMK AO2 SLP162 T01330050=
201109161553 METAR KCLM 161553Z AUTO 24006KT 10SM CLR 12/03 A3001 RMK AO2 SLP161 T01220033=
201109161453 METAR KCLM 161453Z AUTO 26011KT 10SM CLR 11/03 A3001 RMK AO2 SLP164 T01110028 51002=
201109161353 METAR KCLM 161353Z AUTO 25008KT 10SM CLR 10/03 A3001 RMK AO2 SLP164 T01000028=
201109161253 METAR KCLM 161253Z AUTO 26012KT 10SM CLR 09/03 A3001 RMK AO2 SLP164 T00940033=
201109161153 METAR KCLM 161153Z AUTO 26009KT 10SM CLR 09/04 A3001 RMK AO2 SLP162 T00940039 10122 20083 58002=
201109161053 METAR KCLM 161053Z AUTO 26008KT 10SM CLR 10/04 A3001 RMK AO2 SLP162 T01000044=
201109160953 METAR KCLM 160953Z AUTO 26009KT 10SM CLR 10/05 A3001 RMK AO2 SLP162 T01000050=
201109160853 METAR KCLM 160853Z AUTO 25008KT 10SM CLR 10/05 A3001 RMK AO2 SLP163 T01000050 52004=
201109160753 METAR KCLM 160753Z AUTO 26005KT 10SM CLR 09/05 A3001 RMK AO2 SLP163 T00890050 401670089=
201109160653 METAR KCLM 160653Z AUTO 22004KT 10SM CLR 11/06 A3001 RMK AO2 SLP161 T01060056=
201109160553 METAR KCLM 160553Z AUTO 29011KT 10SM CLR 12/06 A3000 RMK AO2 SLP159 T01220061 10150 20111 51012=
201109160453 METAR KCLM 160453Z AUTO 29005KT 10SM CLR 12/05 A3000 RMK AO2 SLP157 T01220050=
201109160353 METAR KCLM 160353Z AUTO 28011G18KT 10SM CLR 13/06 A2998 RMK AO2 SLP151 T01280061=
201109160253 METAR KCLM 160253Z AUTO 27011KT 10SM CLR 12/08 A2997 RMK AO2 SLP147 T01220083 56003=
201109160153 METAR KCLM 160153Z AUTO 28012KT 10SM CLR 13/09 A2997 RMK AO2 SLP147 T01330094=
201109160118 SPECI KCLM 160118Z AUTO 31008KT 10SM FEW007 SCT011 BKN039 13/11 A2997 RMK AO2=
201109160118 SPECI KCLM 160118Z AUTO 31008KT 10SM FEW007 SCT011 BKN039 13/11 A2997 RMK AO2=
201109160110 SPECI KCLM 160110Z AUTO 32006KT 10SM SCT007 BKN011 OVC046 13/11 A2997 RMK AO2=
201109160110 SPECI KCLM 160110Z AUTO 32006KT 10SM SCT007 BKN011 OVC046 13/11 A2997 RMK AO2=
201109160053 METAR KCLM 160053Z AUTO 30009KT 10SM BKN007 OVC042 13/11 A2997 RMK AO2 CIG 006V010 SLP148 T01330106=
201109160040 SPECI KCLM 160040Z AUTO 31009KT 10SM BKN007 OVC032 14/11 A2997 RMK AO2 CIG 005V011=
201109160040 SPECI KCLM 160040Z AUTO 31009KT 10SM BKN007 OVC032 14/11 A2997 RMK AO2 CIG 005V011=
201109160018 SPECI KCLM 160018Z AUTO 31007KT 10SM SCT007 BKN032 14/12 A2997 RMK AO2=
201109160018 SPECI KCLM 160018Z AUTO 31007KT 10SM SCT007 BKN032 14/12 A2997 RMK AO2=
201109160015 SPECI KCLM 160015Z AUTO 30007KT 10SM BKN007 BKN011 BKN032 14/12 A2997 RMK AO2=
201109160015 SPECI KCLM 160015Z AUTO 30007KT 10SM BKN007 BKN011 BKN032 14/12 A2997 RMK AO2=
201109160003 SPECI KCLM 160003Z AUTO 29007G15KT 10SM SCT007 BKN011 OVC034 14/12 A2997 RMK AO2=
201109160003 SPECI KCLM 160003Z AUTO 29007G15KT 10SM SCT007 BKN011 OVC034 14/12 A2997 RMK AO2=
201109152353 METAR KCLM 152353Z AUTO 31007KT 10SM SCT007 BKN015 OVC022 15/12 A2998 RMK AO2 SLP150 60000 T01500122 10167 20133 53001=
201109152331 SPECI KCLM 152331Z AUTO 31007KT 10SM SCT008 BKN019 BKN060 15/12 A2998 RMK AO2=
201109152331 SPECI KCLM 152331Z AUTO 31007KT 10SM SCT008 BKN019 BKN060 15/12 A2998 RMK AO2=
201109152253 METAR KCLM 152253Z AUTO 31005KT 10SM FEW015 BKN060 16/12 A2997 RMK AO2 SLP150 T01560117=
201109152153 METAR KCLM 152153Z AUTO 01003KT 10SM SCT046 BKN080 16/12 A2997 RMK AO2 SLP150 T01610117=
201109152053 METAR KCLM 152053Z AUTO 30003KT 10SM OVC046 15/12 A2997 RMK AO2 SLP150 60000 T01500117 51007=
201109151953 METAR KCLM 151953Z AUTO 33006KT 10SM OVC042 14/12 A2997 RMK AO2 RAB38E53 SLP148 P0000 T01440117=
201109151853 METAR KCLM 151853Z AUTO 00000KT 10SM FEW029 SCT041 OVC075 14/12 A2996 RMK AO2 RAE53 SLP146 P0000 T01440117=
201109151753 METAR KCLM 151753Z AUTO 29003KT 10SM -RA SCT045 OVC070 13/11 A2995 RMK AO2 RAB47 SLP142 P0000 60000 T01330106 10150 20122 53004=
201109151653 METAR KCLM 151653Z AUTO 30006KT 10SM FEW043 BKN050 BKN095 14/09 A2994 RMK AO2 SLP138 T01440094=
201109151553 METAR KCLM 151553Z AUTO 30004KT 10SM FEW042 14/09 A2994 RMK AO2 SLP138 T01440089=
201109151453 METAR KCLM 151453Z AUTO 26006KT 10SM FEW110 13/09 A2994 RMK AO2 SLP138 T01330089 53001=
201109151353 METAR KCLM 151353Z AUTO 28005KT 10SM FEW065 12/08 A2993 RMK AO2 SLP136 T01220078=
201109151253 METAR KCLM 151253Z AUTO 29009KT 10SM BKN060 BKN110 14/08 A2992 RMK AO2 SLP133 T01390078=
201109151153 METAR KCLM 151153Z AUTO 29006KT 10SM OVC060 13/09 A2994 RMK AO2 SLP137 T01280089 10139 20122 56005=
201109151053 METAR KCLM 151053Z AUTO 29005KT 10SM OVC060 13/09 A2994 RMK AO2 SLP139 T01280089=
201109150953 METAR KCLM 150953Z AUTO 28006KT 10SM OVC060 14/08 A2994 RMK AO2 SLP139 T01390083=
201109150853 METAR KCLM 150853Z AUTO 28009KT 10SM OVC065 13/09 A2995 RMK AO2 SLP142 T01330089 56005=
201109150753 METAR KCLM 150753Z AUTO 27005KT 10SM OVC065 13/09 A2995 RMK AO2 SLP142 T01330094 401890117=
201109150653 METAR KCLM 150653Z AUTO 30006KT 10SM OVC060 13/10 A2995 RMK AO2 SLP143 T01280100=
201109150625 SPECI KCLM 150625Z AUTO 30004KT 10SM SCT005 OVC060 13/11 A2996 RMK AO2=
201109150625 SPECI KCLM 150625Z AUTO 30004KT 10SM SCT005 OVC060 13/11 A2996 RMK AO2=
201109150609 SPECI KCLM 150609Z AUTO 29003KT 10SM BKN005 OVC060 13/11 A2996 RMK AO2=
201109150609 SPECI KCLM 150609Z AUTO 29003KT 10SM BKN005 OVC060 13/11 A2996 RMK AO2=
201109150553 METAR KCLM 150553Z AUTO 27007KT 10SM BKN003 OVC060 13/11 A2996 RMK AO2 SLP147 T01280106 10161 20122 58000=
201109150504 SPECI KCLM 150504Z AUTO 31006KT 10SM BKN003 OVC060 12/11 A2997 RMK AO2=
201109150504 SPECI KCLM 150504Z AUTO 31006KT 10SM BKN003 OVC060 12/11 A2997 RMK AO2=
201109150453 METAR KCLM 150453Z AUTO 31004KT 10SM FEW003 OVC060 12/11 A2997 RMK AO2 SLP147 T01220106=
201109150353 METAR KCLM 150353Z AUTO 00000KT 10SM OVC060 13/11 A2997 RMK AO2 SLP148 T01330111=
201109150253 METAR KCLM 150253Z AUTO 29003KT 10SM OVC060 14/12 A2997 RMK AO2 SLP147 T01390117 56011=
201109150153 METAR KCLM 150153Z AUTO 00000KT 10SM OVC055 15/12 A2998 RMK AO2 SLP150 T01500117=
201109150053 METAR KCLM 150053Z AUTO 30004KT 10SM OVC050 16/12 A2998 RMK AO2 SLP153 T01560117=
201109142353 METAR KCLM 142353Z AUTO 33004KT 10SM OVC055 16/12 A3000 RMK AO2 SLP158 T01560117 10189 20150 56011=
201109142253 METAR KCLM 142253Z AUTO 32005KT 10SM OVC055 17/12 A3001 RMK AO2 SLP162 T01670117=
201109142153 METAR KCLM 142153Z AUTO 01004KT 10SM BKN055 17/12 A3002 RMK AO2 SLP165 T01720117=
201109142053 METAR KCLM 142053Z AUTO 35004KT 10SM BKN060 BKN100 18/12 A3003 RMK AO2 SLP170 T01830117 57009=
201109141953 METAR KCLM 141953Z AUTO 34003KT 10SM OVC055 17/12 A3004 RMK AO2 SLP173 T01720117=
201109141853 METAR KCLM 141853Z AUTO 33005KT 10SM OVC055 16/11 A3005 RMK AO2 SLP176 T01560111=
201109141753 METAR KCLM 141753Z AUTO 32006KT 10SM OVC049 15/11 A3006 RMK AO2 SLP178 T01500111 10161 20117 55002=
201109141653 METAR KCLM 141653Z AUTO 00000KT 10SM OVC049 16/12 A3005 RMK AO2 SLP177 T01560117 $=
201109141553 METAR KCLM 141553Z AUTO 00000KT 10SM FEW002 OVC047 13/11 A3006 RMK AO2 SLP179 T01280111 $=
201109141522 SPECI KCLM 141522Z AUTO 29004KT 10SM SCT002 OVC047 12/11 A3007 RMK AO2 $=
201109141522 SPECI KCLM 141522Z AUTO 29004KT 10SM SCT002 OVC047 12/11 A3007 RMK AO2 $=
201109141453 METAR KCLM 141453Z AUTO 00000KT 10SM OVC002 12/11 A3007 RMK AO2 SLP181 T01220106 55001=
201109141432 SPECI KCLM 141432Z AUTO 00000KT 10SM BKN002 OVC045 12/11 A3006 RMK AO2=
201109141432 SPECI KCLM 141432Z AUTO 00000KT 10SM BKN002 OVC045 12/11 A3006 RMK AO2=
201109141353 METAR KCLM 141353Z AUTO 00000KT 10SM SCT002 OVC045 12/11 A3006 RMK AO2 SLP179 T01220106=
201109141333 SPECI KCLM 141333Z AUTO 27003G25KT 10SM OVC002 12/11 A3006 RMK AO2=
201109141333 SPECI KCLM 141333Z AUTO 27003G25KT 10SM OVC002 12/11 A3006 RMK AO2=
201109141253 METAR KCLM 141253Z AUTO 29003KT 10SM OVC002 12/11 A3007 RMK AO2 SLP182 T01170106=
201109141153 METAR KCLM 141153Z AUTO 31003KT 10SM OVC002 12/11 A3008 RMK AO2 SLP184 T01170106 10156 20117 58005=
201109141101 SPECI KCLM 141101Z AUTO 31003KT 10SM BKN002 OVC043 12/11 A3008 RMK AO2=
201109141101 SPECI KCLM 141101Z AUTO 31003KT 10SM BKN002 OVC043 12/11 A3008 RMK AO2=
201109141053 METAR KCLM 141053Z AUTO 30003KT 10SM SCT002 OVC043 12/11 A3008 RMK AO2 SLP185 T01220106=
201109141029 SPECI KCLM 141029Z AUTO 30003KT 10SM SCT002 OVC043 12/11 A3008 RMK AO2=
201109141029 SPECI KCLM 141029Z AUTO 30003KT 10SM SCT002 OVC043 12/11 A3008 RMK AO2=
201109140953 METAR KCLM 140953Z AUTO 28004KT 10SM BKN002 OVC041 12/11 A3009 RMK AO2 SLP188 T01220111=
201109140945 SPECI KCLM 140945Z AUTO 30005KT 10SM BKN002 OVC041 12/11 A3009 RMK AO2=
201109140945 SPECI KCLM 140945Z AUTO 30005KT 10SM BKN002 OVC041 12/11 A3009 RMK AO2=
201109140932 SPECI KCLM 140932Z AUTO 30004KT 10SM FEW002 OVC041 13/11 A3009 RMK AO2=
201109140932 SPECI KCLM 140932Z AUTO 30004KT 10SM FEW002 OVC041 13/11 A3009 RMK AO2=
201109140853 METAR KCLM 140853Z AUTO 00000KT 10SM OVC041 13/11 A3009 RMK AO2 SLP189 T01280111 56007=
201109140753 METAR KCLM 140753Z AUTO 32004KT 10SM OVC041 13/11 A3010 RMK AO2 SLP191 T01330111 401780133=
201109140653 METAR KCLM 140653Z AUTO 28003KT 10SM OVC039 15/12 A3010 RMK AO2 SLP193 T01500117=
201109140553 METAR KCLM 140553Z AUTO 30006KT 10SM OVC037 15/12 A3011 RMK AO2 SLP196 T01500117 10172 20150 58002=
201109140453 METAR KCLM 140453Z AUTO 29008KT 10SM OVC033 15/12 A3012 RMK AO2 SLP199 T01500122=
201109140446 SPECI KCLM 140446Z AUTO 29006KT 10SM OVC031 15/12 A3012 RMK AO2=
201109140446 SPECI KCLM 140446Z AUTO 29006KT 10SM OVC031 15/12 A3012 RMK AO2=
201109140353 METAR KCLM 140353Z AUTO 29005KT 10SM OVC026 16/13 A3012 RMK AO2 SLP200 T01560128=
201109140253 METAR KCLM 140253Z AUTO 00000KT 10SM OVC024 16/12 A3012 RMK AO2 SLP198 T01560122 56006=
201109140153 METAR KCLM 140153Z AUTO 30004KT 10SM OVC026 15/12 A3012 RMK AO2 SLP200 T01500122=
201109140053 METAR KCLM 140053Z AUTO 35004KT 10SM OVC028 16/13 A3013 RMK AO2 SLP203 T01560128=
201109132353 METAR KCLM 132353Z AUTO 00000KT 10SM OVC030 17/12 A3014 RMK AO2 SLP205 T01720122 10178 20161 56009=
201109132336 SPECI KCLM 132336Z AUTO 30003KT 10SM OVC030 17/12 A3014 RMK AO2=
201109132336 SPECI KCLM 132336Z AUTO 30003KT 10SM OVC030 17/12 A3014 RMK AO2=
201109132253 METAR KCLM 132253Z AUTO 00000KT 10SM OVC028 17/13 A3014 RMK AO2 SLP206 T01670128=
201109132153 METAR KCLM 132153Z AUTO 36004KT 10SM OVC028 17/13 A3015 RMK AO2 SLP211 T01670128=
201109132120 SPECI KCLM 132120Z AUTO 00000KT 10SM OVC028 18/12 A3016 RMK AO2=
201109132120 SPECI KCLM 132120Z AUTO 00000KT 10SM OVC028 18/12 A3016 RMK AO2=
201109132053 METAR KCLM 132053Z AUTO 31004KT 10SM OVC030 17/13 A3016 RMK AO2 SLP214 T01720128 55000=
201109131953 METAR KCLM 131953Z AUTO 01004KT 10SM OVC030 17/13 A3016 RMK AO2 SLP214 T01670128=
201109131853 METAR KCLM 131853Z AUTO 00000KT 10SM OVC028 17/12 A3016 RMK AO2 SLP213 T01720122=
201109131753 METAR KCLM 131753Z AUTO 35003KT 10SM OVC024 17/12 A3016 RMK AO2 SLP214 T01720117 10178 20144 53002=
201109131653 METAR KCLM 131653Z AUTO 00000KT 10SM OVC027 17/11 A3015 RMK AO2 SLP210 T01720111=
201109131553 METAR KCLM 131553Z AUTO 00000KT 10SM OVC025 16/12 A3016 RMK AO2 SLP211 T01610122=
201109131453 METAR KCLM 131453Z AUTO 00000KT 10SM OVC027 16/12 A3016 RMK AO2 SLP212 T01560122 53008=
201109131353 METAR KCLM 131353Z AUTO 00000KT 10SM OVC023 15/12 A3015 RMK AO2 SLP208 T01500122=
201109131253 METAR KCLM 131253Z AUTO 00000KT 10SM OVC021 16/12 A3014 RMK AO2 SLP205 T01560117=
201109131153 METAR KCLM 131153Z AUTO 00000KT 10SM OVC021 16/12 A3013 RMK AO2 SLP204 T01560122 10161 20156 50001=
201109131053 METAR KCLM 131053Z AUTO 00000KT 10SM OVC019 16/12 A3014 RMK AO2 SLP205 T01560117=
201109130953 METAR KCLM 130953Z AUTO VRB03KT 10SM OVC017 16/12 A3014 RMK AO2 SLP205 T01560122=
201109130853 METAR KCLM 130853Z AUTO 27004KT 10SM OVC017 16/12 A3013 RMK AO2 SLP203 T01560122 51009=
201109130753 METAR KCLM 130753Z AUTO 25004KT 10SM OVC017 16/12 A3013 RMK AO2 SLP202 T01560122 402000106=
201109130653 METAR KCLM 130653Z AUTO 25003KT 10SM OVC017 16/12 A3011 RMK AO2 SLP197 T01560122=
201109130553 METAR KCLM 130553Z AUTO 26005KT 10SM OVC019 16/12 A3010 RMK AO2 SLP194 T01560122 10189 20150 51007=
201109130453 METAR KCLM 130453Z AUTO 28007KT 10SM OVC019 16/12 A3010 RMK AO2 SLP191 T01560122=
201109130353 METAR KCLM 130353Z AUTO 28008KT 10SM OVC019 16/12 A3009 RMK AO2 SLP189 T01560122=
201109130253 METAR KCLM 130253Z AUTO 27009KT 10SM OVC019 16/12 A3008 RMK AO2 SLP186 T01560122 51003=
201109130243 SPECI KCLM 130243Z AUTO 28010KT 10SM BKN019 16/12 A3008 RMK AO2=
201109130243 SPECI KCLM 130243Z AUTO 28010KT 10SM BKN019 16/12 A3008 RMK AO2=
201109130153 METAR KCLM 130153Z AUTO 28008KT 10SM CLR 17/12 A3008 RMK AO2 SLP185 T01670122=
201109130053 METAR KCLM 130053Z AUTO 30007G15KT 10SM CLR 18/12 A3007 RMK AO2 SLP184 T01830122=
201109122353 METAR KCLM 122353Z AUTO 30009G14KT 10SM CLR 19/13 A3007 RMK AO2 SLP183 T01890128 10200 20161 56007=
201109122253 METAR KCLM 122253Z AUTO 33008KT 10SM CLR 19/13 A3008 RMK AO2 SLP184 T01940128=
201109122153 METAR KCLM 122153Z AUTO 33010KT 10SM CLR 19/13 A3008 RMK AO2 SLP187 T01940128=
201109122132 SPECI KCLM 122132Z AUTO 32010G16KT 10SM SCT020 19/13 A3009 RMK AO2=
201109122132 SPECI KCLM 122132Z AUTO 32010G16KT 10SM SCT020 19/13 A3009 RMK AO2=
201109122053 METAR KCLM 122053Z AUTO 32008KT 10SM OVC016 19/13 A3009 RMK AO2 SLP190 T01890128 50000=
201109122014 SPECI KCLM 122014Z AUTO 30007KT 10SM OVC016 18/12 A3010 RMK AO2=
201109122014 SPECI KCLM 122014Z AUTO 30007KT 10SM OVC016 18/12 A3010 RMK AO2=
201109121953 METAR KCLM 121953Z AUTO 00000KT 10SM OVC014 17/12 A3010 RMK AO2 SLP191 T01720122=
201109121853 METAR KCLM 121853Z AUTO VRB03KT 10SM OVC012 17/12 A3009 RMK AO2 SLP190 T01670122=
201109121753 METAR KCLM 121753Z AUTO 00000KT 10SM OVC012 16/12 A3009 RMK AO2 SLP190 T01610122 10161 20106 53014=
201109121653 METAR KCLM 121653Z AUTO 00000KT 10SM OVC012 16/12 A3008 RMK AO2 SLP185 T01560117=
201109121630 SPECI KCLM 121630Z AUTO 00000KT 10SM BKN012 16/12 A3007 RMK AO2=
201109121630 SPECI KCLM 121630Z AUTO 00000KT 10SM BKN012 16/12 A3007 RMK AO2=
201109121553 METAR KCLM 121553Z AUTO 29004KT 10SM CLR 15/12 A3006 RMK AO2 SLP178 T01500122=
201109121513 SPECI KCLM 121513Z AUTO 29005KT 10SM SCT004 13/12 A3005 RMK AO2=
201109121513 SPECI KCLM 121513Z AUTO 29005KT 10SM SCT004 13/12 A3005 RMK AO2=
201109121453 METAR KCLM 121453Z AUTO 27007KT 10SM BKN004 13/11 A3005 RMK AO2 SLP176 T01280111 51018=
201109121439 SPECI KCLM 121439Z AUTO 29007KT 10SM SCT004 12/11 A3005 RMK AO2=
201109121439 SPECI KCLM 121439Z AUTO 29007KT 10SM SCT004 12/11 A3005 RMK AO2=
201109121353 METAR KCLM 121353Z AUTO 00000KT 10SM CLR 11/10 A3003 RMK AO2 SLP169 T01110100=
201109121253 METAR KCLM 121253Z AUTO 27003KT 10SM CLR 12/09 A3002 RMK AO2 SLP163 T01170094=
201109121153 METAR KCLM 121153Z AUTO 26005KT 10SM CLR 14/11 A3000 RMK AO2 SLP157 T01440111 10189 20133 51014=
201109121053 METAR KCLM 121053Z AUTO 25004KT 10SM CLR 14/11 A2999 RMK AO2 SLP153 T01390111=
201109120953 METAR KCLM 120953Z AUTO 25004KT 10SM CLR 14/11 A2997 RMK AO2 SLP147 T01390111=
201109120853 METAR KCLM 120853Z AUTO 00000KT 10SM CLR 14/11 A2996 RMK AO2 SLP143 T01390111 53017=
201109120753 METAR KCLM 120753Z AUTO 23003KT 10SM CLR 14/12 A2993 RMK AO2 SLP135 T01440117 402890117=
201109120653 METAR KCLM 120653Z AUTO 00000KT 10SM CLR 16/11 A2992 RMK AO2 SLP130 T01610111=
201109120553 METAR KCLM 120553Z AUTO 28004KT 10SM CLR 18/12 A2991 RMK AO2 SLP126 T01830117 10289 20161 51020=
201109120453 METAR KCLM 120453Z AUTO 29010KT 10SM CLR 18/12 A2989 RMK AO2 SLP122 T01780117=
201109120353 METAR KCLM 120353Z AUTO 28004KT 10SM CLR 18/11 A2987 RMK AO2 SLP114 T01830111=
201109120253 METAR KCLM 120253Z AUTO 26003KT 10SM CLR 21/14 A2985 RMK AO2 SLP106 T02110139 55001=
201109120153 METAR KCLM 120153Z AUTO 00000KT 10SM CLR 26/11 A2984 RMK AO2 SLP104 T02610111=
201109120053 METAR KCLM 120053Z AUTO 36003KT 10SM CLR 27/11 A2985 RMK AO2 SLP105 T02720111=
201109112353 METAR KCLM 112353Z AUTO 06008G23KT 340V130 10SM CLR 28/11 A2985 RMK AO2 PK WND 36026/2348 SLP106 T02780111 10278 20233 58005=
201109112253 METAR KCLM 112253Z AUTO VRB06KT 10SM CLR 27/09 A2987 RMK AO2 SLP112 T02720094=
201109112153 METAR KCLM 112153Z AUTO 08004KT 10SM CLR 27/11 A2987 RMK AO2 SLP112 T02670111=
201109112053 METAR KCLM 112053Z AUTO 09006KT 10SM CLR 27/12 A2986 RMK AO2 SLP112 T02670117 58013=
201109111953 METAR KCLM 111953Z AUTO 10007KT 10SM CLR 25/12 A2988 RMK AO2 SLP117 T02500117=
201109111853 METAR KCLM 111853Z AUTO 08010G14KT 10SM FEW100 24/12 A2990 RMK AO2 SLP122 T02440117=
201109111753 METAR KCLM 111753Z AUTO 08006KT 10SM CLR 24/12 A2990 RMK AO2 SLP125 T02390117 10239 20122 58001=
201109111653 METAR KCLM 111653Z AUTO 10007KT 10SM CLR 23/11 A2991 RMK AO2 SLP126 T02330111=
201109111553 METAR KCLM 111553Z AUTO 14007KT 10SM CLR 23/11 A2991 RMK AO2 SLP126 T02330111=
201109111453 METAR KCLM 111453Z AUTO 12006KT 10SM CLR 21/11 A2991 RMK AO2 SLP126 T02060111 53006=
201109111353 METAR KCLM 111353Z AUTO 14005KT 10SM CLR 16/10 A2989 RMK AO2 SLP121 T01560100=
201109111253 METAR KCLM 111253Z AUTO 27003KT 10SM CLR 14/09 A2989 RMK AO2 SLP120 T01390089=
201109111153 METAR KCLM 111153Z AUTO 00000KT 10SM CLR 13/09 A2989 RMK AO2 SLP119 T01280089 10150 20117 56002=
201109111053 METAR KCLM 111053Z AUTO 15003KT 10SM CLR 13/08 A2989 RMK AO2 SLP119 T01280083=
201109110953 METAR KCLM 110953Z AUTO 00000KT 10SM CLR 13/08 A2989 RMK AO2 SLP119 T01330083=
201109110853 METAR KCLM 110853Z AUTO 00000KT 10SM CLR 13/09 A2989 RMK AO2 SLP122 T01330094 58003=
201109110753 METAR KCLM 110753Z AUTO 00000KT 10SM CLR 13/09 A2991 RMK AO2 SLP128 T01280094 402610100=
201109110653 METAR KCLM 110653Z AUTO 16004KT 10SM CLR 13/11 A2991 RMK AO2 SLP128 T01330106=
201109110553 METAR KCLM 110553Z AUTO 00000KT 10SM CLR 14/10 A2990 RMK AO2 SLP125 T01440100 10261 20144 50001 TSNO=
201109110453 METAR KCLM 110453Z AUTO 00000KT 10SM CLR 16/12 A2991 RMK AO2 SLP127 T01610117=
201109110353 METAR KCLM 110353Z AUTO 17003KT 10SM CLR 17/12 A2990 RMK AO2 SLP125 T01670117=
201109110253 METAR KCLM 110253Z AUTO 14003KT 10SM CLR 22/11 A2990 RMK AO2 SLP124 T02170106 56011=
201109110153 METAR KCLM 110153Z AUTO 08004KT 10SM CLR 25/11 A2990 RMK AO2 SLP124 T02500106=
201109110053 METAR KCLM 110053Z AUTO 11006KT 10SM CLR 26/11 A2992 RMK AO2 SLP130 T02560111=
201109102353 METAR KCLM 102353Z AUTO 10008KT 10SM CLR 26/12 A2993 RMK AO2 SLP135 T02560117 10261 20228 58019=
201109102253 METAR KCLM 102253Z AUTO 09008KT 10SM CLR 25/12 A2995 RMK AO2 SLP141 T02500122=
201109102153 METAR KCLM 102153Z AUTO 10008KT 10SM CLR 26/12 A2998 RMK AO2 SLP149 T02610117=
201109102053 METAR KCLM 102053Z AUTO 07005KT 10SM CLR 26/11 A2999 RMK AO2 SLP154 T02610111 56017=
201109101953 METAR KCLM 101953Z AUTO VRB05KT 10SM CLR 25/12 A3000 RMK AO2 SLP158 T02500117=
201109101853 METAR KCLM 101853Z AUTO 08006KT 10SM CLR 24/12 A3003 RMK AO2 SLP167 T02440122=
201109101753 METAR KCLM 101753Z AUTO 10007KT 10SM CLR 23/13 A3004 RMK AO2 SLP171 T02330128 10233 20106 58008=
201109101653 METAR KCLM 101653Z AUTO 09007KT 10SM CLR 22/13 A3006 RMK AO2 SLP178 T02220128=
201109101553 METAR KCLM 101553Z AUTO 10010KT 10SM CLR 22/12 A3006 RMK AO2 SLP178 T02220117=
201109101453 METAR KCLM 101453Z AUTO 14006KT 10SM CLR 18/11 A3006 RMK AO2 SLP181 T01780106 53002=
201109101353 METAR KCLM 101353Z AUTO 14007KT 10SM CLR 15/10 A3006 RMK AO2 SLP178 T01500100=
201109101253 METAR KCLM 101253Z AUTO 00000KT 10SM CLR 12/09 A3006 RMK AO2 SLP178 T01170089=
201109101153 METAR KCLM 101153Z AUTO 00000KT 10SM CLR 11/09 A3006 RMK AO2 SLP177 T01110089 10144 20100 56005=
201109101053 METAR KCLM 101053Z AUTO 00000KT 10SM CLR 12/09 A3006 RMK AO2 SLP179 T01170094=
201109100953 METAR KCLM 100953Z AUTO 00000KT 10SM CLR 13/10 A3007 RMK AO2 SLP180 T01280100=
201109100853 METAR KCLM 100853Z AUTO 00000KT 10SM CLR 13/10 A3007 RMK AO2 SLP182 T01280100 56004=
201109100753 METAR KCLM 100753Z AUTO 00000KT 10SM CLR 13/11 A3008 RMK AO2 SLP184 T01330106 402780094=
201109100653 METAR KCLM 100653Z AUTO 00000KT 10SM CLR 13/11 A3008 RMK AO2 SLP185 T01330111=
201109100553 METAR KCLM 100553Z AUTO 00000KT 10SM CLR 14/12 A3009 RMK AO2 SLP187 T01440117 10250 20133 58002=
201109100453 METAR KCLM 100453Z AUTO 00000KT 10SM CLR 14/11 A3009 RMK AO2 SLP188 T01390111=
201109100353 METAR KCLM 100353Z AUTO 00000KT 10SM CLR 15/11 A3010 RMK AO2 SLP191 T01500111=
201109100253 METAR KCLM 100253Z AUTO 00000KT 10SM CLR 16/11 A3009 RMK AO2 SLP190 T01610111 56008=
201109100153 METAR KCLM 100153Z AUTO 00000KT 10SM CLR 18/12 A3009 RMK AO2 SLP190 T01830117=
201109100053 METAR KCLM 100053Z AUTO 00000KT 10SM CLR 23/12 A3010 RMK AO2 SLP192 T02280117=
201109092353 METAR KCLM 092353Z AUTO 07006KT 10SM CLR 24/12 A3012 RMK AO2 SLP197 T02440122 10278 20222 58019=
201109092253 METAR KCLM 092253Z AUTO 07007KT 10SM CLR 25/12 A3014 RMK AO2 SLP204 T02500122=
201109092153 METAR KCLM 092153Z AUTO 08009KT 10SM CLR 26/12 A3016 RMK AO2 SLP210 T02610117=
201109092053 METAR KCLM 092053Z AUTO 10008KT 10SM CLR 27/11 A3017 RMK AO2 SLP216 T02720111 58017=
201109091953 METAR KCLM 091953Z AUTO 08006KT 10SM CLR 26/12 A3020 RMK AO2 SLP225 T02560122=
201109091853 METAR KCLM 091853Z AUTO 09008KT 10SM CLR 24/13 A3022 RMK AO2 SLP231 T02440128=
201109091753 METAR KCLM 091753Z AUTO 09008KT 10SM CLR 23/12 A3022 RMK AO2 SLP233 T02280122 10228 20094 58002=
201109091653 METAR KCLM 091653Z AUTO 05003KT 10SM CLR 21/12 A3022 RMK AO2 SLP234 T02110117=
201109091553 METAR KCLM 091553Z AUTO 00000KT 10SM CLR 19/12 A3023 RMK AO2 SLP237 T01890122=
201109091453 METAR KCLM 091453Z AUTO 00000KT 10SM CLR 13/11 A3023 RMK AO2 SLP237 T01330106 53003=
201109091353 METAR KCLM 091353Z AUTO 00000KT 10SM CLR 11/09 A3023 RMK AO2 SLP237 T01060089=
201109091253 METAR KCLM 091253Z AUTO 00000KT 10SM CLR 10/08 A3022 RMK AO2 SLP232 T01000078=
201109091153 METAR KCLM 091153Z AUTO 00000KT 10SM CLR 11/09 A3022 RMK AO2 SLP234 T01110089 10128 20100 51007=
201109091053 METAR KCLM 091053Z AUTO 26004KT 10SM CLR 11/09 A3022 RMK AO2 SLP231 T01110089=
201109090953 METAR KCLM 090953Z AUTO 00000KT 10SM CLR 11/09 A3021 RMK AO2 SLP230 T01110089=
201109090853 METAR KCLM 090853Z AUTO 00000KT 10SM CLR 10/08 A3020 RMK AO2 SLP226 T01000083 51006=
201109090753 METAR KCLM 090753Z AUTO 00000KT 10SM CLR 12/09 A3020 RMK AO2 SLP225 T01170094 402780106=
201109090653 METAR KCLM 090653Z AUTO 00000KT 10SM CLR 12/10 A3019 RMK AO2 SLP222 T01220100=
201109090553 METAR KCLM 090553Z AUTO 00000KT 10SM CLR 13/11 A3018 RMK AO2 SLP220 T01280106 10228 20122 50003=
201109090453 METAR KCLM 090453Z AUTO 28004KT 10SM CLR 14/11 A3019 RMK AO2 SLP223 T01390111=
201109090353 METAR KCLM 090353Z AUTO 31004KT 10SM CLR 16/10 A3019 RMK AO2 SLP222 T01560100=
201109090253 METAR KCLM 090253Z AUTO 24003KT 10SM CLR 18/11 A3017 RMK AO2 SLP218 T01830106 51006=
201109090153 METAR KCLM 090153Z AUTO 31007KT 10SM CLR 19/10 A3017 RMK AO2 SLP216 T01940100=
201109090053 METAR KCLM 090053Z AUTO 30005KT 10SM CLR 19/09 A3017 RMK AO2 SLP215 T01940089=
201109082353 METAR KCLM 082353Z AUTO 36004KT 10SM CLR 23/11 A3016 RMK AO2 SLP211 T02330106 10278 20217 56008=
201109082253 METAR KCLM 082253Z AUTO 34003KT 10SM CLR 24/11 A3016 RMK AO2 SLP213 T02390111=
201109082153 METAR KCLM 082153Z AUTO 06005KT 10SM CLR 27/12 A3016 RMK AO2 SLP213 T02720117=
201109082053 METAR KCLM 082053Z AUTO 09007KT 10SM FEW100 27/12 A3018 RMK AO2 SLP219 T02670117 53002=
201109081953 METAR KCLM 081953Z AUTO 10007KT 10SM FEW100 28/11 A3017 RMK AO2 SLP217 T02780106=
201109081853 METAR KCLM 081853Z AUTO 09007KT 10SM CLR 26/11 A3018 RMK AO2 SLP217 T02610106=
201109081753 METAR KCLM 081753Z AUTO 04004KT 10SM CLR 23/09 A3017 RMK AO2 SLP217 T02280094 10256 20106 51006=
201109081653 METAR KCLM 081653Z AUTO 10004KT 10SM CLR 25/09 A3017 RMK AO2 SLP215 T02500089=
201109081553 METAR KCLM 081553Z AUTO 00000KT 10SM CLR 22/08 A3017 RMK AO2 SLP214 T02170078=
201109081453 METAR KCLM 081453Z AUTO 21003KT 10SM CLR 14/08 A3016 RMK AO2 SLP212 T01440083 51014=
201109081353 METAR KCLM 081353Z AUTO 00000KT 10SM CLR 11/06 A3015 RMK AO2 SLP207 T01060061=
201109081253 METAR KCLM 081253Z AUTO 17003KT 10SM CLR 11/06 A3013 RMK AO2 SLP203 T01110061=
201109081153 METAR KCLM 081153Z AUTO 00000KT 10SM CLR 11/06 A3011 RMK AO2 SLP196 T01060061 10150 20106 53003=
201109081053 METAR KCLM 081053Z AUTO 00000KT 10SM CLR 12/07 A3011 RMK AO2 SLP194 T01220067=
201109080953 METAR KCLM 080953Z AUTO 00000KT 10SM CLR 13/05 A3010 RMK AO2 SLP192 T01330050=
201109080853 METAR KCLM 080853Z AUTO 00000KT 10SM CLR 15/04 A3010 RMK AO2 SLP193 T01500044 53006=
201109080753 METAR KCLM 080753Z AUTO 00000KT 10SM CLR 12/07 A3010 RMK AO2 SLP190 T01220067 402780061=
201109080653 METAR KCLM 080653Z AUTO 00000KT 10SM CLR 13/07 A3009 RMK AO2 SLP188 T01280072=
201109080553 METAR KCLM 080553Z AUTO 00000KT 10SM CLR 14/08 A3009 RMK AO2 SLP187 T01390078 10278 20122 51009=
201109080453 METAR KCLM 080453Z AUTO 00000KT 10SM CLR 13/08 A3008 RMK AO2 SLP185 T01330078=
201109080353 METAR KCLM 080353Z AUTO 00000KT 10SM CLR 15/09 A3007 RMK AO2 SLP183 T01500094=
201109080253 METAR KCLM 080253Z AUTO 30004KT 10SM CLR 17/09 A3006 RMK AO2 SLP179 T01720089 55005=
201109080153 SPECI KCLM 080153Z AUTO 00000KT 10SM CLR 26/06 A3005 RMK AO2 SLP177 T02560056=
201109080053 METAR KCLM 080053Z AUTO 11006KT 10SM CLR 27/06 A3006 RMK AO2 SLP178 T02720061=
201109072353 METAR KCLM 072353Z AUTO 11005KT 10SM CLR 28/06 A3008 RMK AO2 SLP183 T02780061 10278 20211 57018=
201109072253 METAR KCLM 072253Z AUTO 08006KT 10SM CLR 27/06 A3009 RMK AO2 SLP191 T02670061=
201109072153 METAR KCLM 072153Z AUTO 09007KT 10SM CLR 27/06 A3011 RMK AO2 SLP196 T02670061=
201109072053 METAR KCLM 072053Z AUTO VRB06KT 10SM CLR 26/08 A3013 RMK AO2 SLP202 T02610083 56015=
201109071953 METAR KCLM 071953Z AUTO 08006KT 10SM CLR 23/09 A3014 RMK AO2 SLP206 T02330094=
201109071853 METAR KCLM 071853Z AUTO 09006KT 10SM CLR 22/10 A3016 RMK AO2 SLP212 T02220100=
201109071753 METAR KCLM 071753Z AUTO 08007KT 10SM CLR 22/10 A3017 RMK AO2 SLP217 T02170100 10217 20067 58000=
201109071653 METAR KCLM 071653Z AUTO 07006KT 10SM CLR 21/10 A3018 RMK AO2 SLP219 T02110100=
201109071553 METAR KCLM 071553Z AUTO 10003KT 10SM CLR 20/11 A3018 RMK AO2 SLP218 T02000106=
201109071453 METAR KCLM 071453Z AUTO 00000KT 10SM CLR 12/10 A3017 RMK AO2 SLP218 T01220100 53006=
201109071353 METAR KCLM 071353Z AUTO 00000KT 10SM CLR 09/07 A3017 RMK AO2 SLP215 T00890067=
201109071253 METAR KCLM 071253Z AUTO 00000KT 10SM CLR 08/06 A3016 RMK AO2 SLP214 T00780056=
201109071153 METAR KCLM 071153Z AUTO 00000KT 10SM CLR 08/07 A3016 RMK AO2 SLP212 T00830067 10122 20061 50000=
201109071053 METAR KCLM 071053Z AUTO 00000KT 10SM CLR 07/06 A3016 RMK AO2 SLP212 T00720056=
201109070953 METAR KCLM 070953Z AUTO 00000KT 10SM FEW001 07/06 A3016 RMK AO2 SLP213 T00720061=
201109070943 SPECI KCLM 070943Z AUTO 16003KT 4SM BR FEW001 09/07 A3016 RMK AO2=
201109070943 SPECI KCLM 070943Z AUTO 16003KT 4SM BR FEW001 09/07 A3016 RMK AO2=
201109070936 SPECI KCLM 070936Z AUTO 00000KT 1 3/4SM BR FEW001 09/07 A3016 RMK AO2 VIS 3/4V5=
201109070936 SPECI KCLM 070936Z AUTO 00000KT 1 3/4SM BR FEW001 09/07 A3016 RMK AO2 VIS 3/4V5=
201109070917 SPECI KCLM 070917Z AUTO 00000KT 10SM FEW001 SCT008 07/06 A3016 RMK AO2=
201109070917 SPECI KCLM 070917Z AUTO 00000KT 10SM FEW001 SCT008 07/06 A3016 RMK AO2=
201109070907 SPECI KCLM 070907Z AUTO 00000KT 1SM BR SCT001 BKN008 BKN100 08/08 A3016 RMK AO2=
201109070907 SPECI KCLM 070907Z AUTO 00000KT 1SM BR SCT001 BKN008 BKN100 08/08 A3016 RMK AO2=
201109070905 SPECI KCLM 070905Z AUTO 00000KT 3/4SM BR BKN001 BKN008 BKN100 09/08 A3016 RMK AO2=
201109070905 SPECI KCLM 070905Z AUTO 00000KT 3/4SM BR BKN001 BKN008 BKN100 09/08 A3016 RMK AO2=
201109070853 METAR KCLM 070853Z AUTO 00000KT 1/4SM FG BKN001 OVC008 09/08 A3016 RMK AO2 SLP212 T00890078 53003=
201109070834 SPECI KCLM 070834Z AUTO 00000KT 1/4SM FG BKN001 BKN007 10/08 A3016 RMK AO2=
201109070834 SPECI KCLM 070834Z AUTO 00000KT 1/4SM FG BKN001 BKN007 10/08 A3016 RMK AO2=
201109070830 SPECI KCLM 070830Z AUTO 00000KT 1/2SM FG SCT001 BKN007 10/08 A3016 RMK AO2=
201109070830 SPECI KCLM 070830Z AUTO 00000KT 1/2SM FG SCT001 BKN007 10/08 A3016 RMK AO2=
201109070821 SPECI KCLM 070821Z AUTO 00000KT 1 1/2SM BR SCT001 10/09 A3016 RMK AO2=
201109070821 SPECI KCLM 070821Z AUTO 00000KT 1 1/2SM BR SCT001 10/09 A3016 RMK AO2=
201109070810 SPECI KCLM 070810Z AUTO 00000KT 7SM SCT001 SCT008 10/09 A3016 RMK AO2=
201109070810 SPECI KCLM 070810Z AUTO 00000KT 7SM SCT001 SCT008 10/09 A3016 RMK AO2=
201109070800 SPECI KCLM 070800Z AUTO 00000KT 3SM BR BKN001 BKN008 10/09 A3015 RMK AO2=
201109070800 SPECI KCLM 070800Z AUTO 00000KT 3SM BR BKN001 BKN008 10/09 A3015 RMK AO2=
201109070753 METAR KCLM 070753Z AUTO 00000KT 1SM BR BKN001 BKN008 09/08 A3015 RMK AO2 SLP210 T00940083 402170089=
201109070750 SPECI KCLM 070750Z AUTO 24003KT 3/4SM BR BKN001 BKN008 09/09 A3015 RMK AO2 402170089=
201109070750 SPECI KCLM 070750Z AUTO 24003KT 3/4SM BR BKN001 BKN008 09/09 A3015 RMK AO2 402170089=
201109070714 SPECI KCLM 070714Z AUTO 28004KT 1/4SM FG VV001 11/09 A3015 RMK AO2=
201109070714 SPECI KCLM 070714Z AUTO 28004KT 1/4SM FG VV001 11/09 A3015 RMK AO2=
201109070700 SPECI KCLM 070700Z AUTO 27003KT 3/4SM BR VV001 11/10 A3015 RMK AO2 VIS 1/2V2=
201109070700 SPECI KCLM 070700Z AUTO 27003KT 3/4SM BR VV001 11/10 A3015 RMK AO2 VIS 1/2V2=
201109070658 SPECI KCLM 070658Z AUTO 27003KT 1 1/4SM BR FEW001 11/10 A3015 RMK AO2 VIS 3/4V5=
201109070658 SPECI KCLM 070658Z AUTO 27003KT 1 1/4SM BR FEW001 11/10 A3015 RMK AO2 VIS 3/4V5=
201109070653 METAR KCLM 070653Z AUTO 00000KT 2 1/2SM BR CLR 11/09 A3015 RMK AO2 VIS 3/4V5 SLP210 T01060094=
201109070553 METAR KCLM 070553Z AUTO 30005KT 10SM CLR 12/11 A3015 RMK AO2 SLP209 T01220106 10189 20122 51005=
201109070453 METAR KCLM 070453Z AUTO 29005KT 10SM CLR 13/11 A3015 RMK AO2 SLP208 T01280106=
201109070353 METAR KCLM 070353Z AUTO 27004KT 10SM CLR 13/11 A3014 RMK AO2 SLP207 T01280111=
201109070253 METAR KCLM 070253Z AUTO 30004KT 10SM CLR 13/11 A3013 RMK AO2 SLP204 T01330111 56007=
201109070153 METAR KCLM 070153Z AUTO 31005KT 10SM CLR 16/12 A3013 RMK AO2 SLP204 T01610117=
201109070053 METAR KCLM 070053Z AUTO 32004KT 10SM CLR 17/12 A3014 RMK AO2 SLP206 T01720117=
201109062353 METAR KCLM 062353Z AUTO 30004KT 10SM CLR 18/12 A3015 RMK AO2 SLP210 T01830117 10217 20150 56004=
201109062253 METAR KCLM 062253Z AUTO 33005KT 10SM CLR 21/12 A3015 RMK AO2 SLP210 T02060117=
201109062153 METAR KCLM 062153Z AUTO 01004KT 10SM CLR 21/12 A3016 RMK AO2 SLP211 T02110122=
201109062053 METAR KCLM 062053Z AUTO 32007KT 10SM CLR 17/12 A3017 RMK AO2 SLP215 T01720117 53000=
201109062000 METAR KCLM NIL=
201109061953 METAR KCLM 061953Z AUTO 29008KT 10SM CLR 16/11 A3017 RMK AO2 SLP215 T01610111=
201109061853 METAR KCLM 061853Z AUTO 35003KT 10SM CLR 17/11 A3016 RMK AO2 SLP214 T01720111=
201109061753 METAR KCLM 061753Z AUTO 35005KT 10SM CLR 17/11 A3016 RMK AO2 SLP214 T01670111 10172 20089 51008=
201109061653 METAR KCLM 061653Z AUTO 32003KT 10SM CLR 15/11 A3016 RMK AO2 SLP213 T01500111=
201109061553 METAR KCLM 061553Z AUTO 35003KT 10SM CLR 13/10 A3015 RMK AO2 SLP210 T01330100=
201109061453 METAR KCLM 061453Z AUTO 00000KT 10SM CLR 12/09 A3014 RMK AO2 SLP206 T01170094 53009=
201109061353 METAR KCLM 061353Z AUTO 00000KT 10SM CLR 09/07 A3013 RMK AO2 SLP201 T00890072=
201109061253 METAR KCLM 061253Z AUTO 23004KT 10SM CLR 10/08 A3012 RMK AO2 SLP198 T01000078=
201109061153 METAR KCLM 061153Z AUTO 24004KT 10SM CLR 12/09 A3011 RMK AO2 SLP196 T01170094 10144 20106 53010=
201109061053 METAR KCLM 061053Z AUTO 25004KT 10SM CLR 12/09 A3010 RMK AO2 SLP193 T01170094=
201109060953 METAR KCLM 060953Z AUTO 25005KT 10SM CLR 13/10 A3009 RMK AO2 SLP188 T01280100=
201109060853 METAR KCLM 060853Z AUTO 27007KT 10SM CLR 14/11 A3008 RMK AO2 SLP186 T01390106 53011=
201109060753 METAR KCLM 060753Z AUTO 28007KT 10SM CLR 14/11 A3006 RMK AO2 SLP181 T01440106 402000078=
201109060653 METAR KCLM 060653Z AUTO 27010KT 10SM CLR 14/11 A3006 RMK AO2 SLP178 T01440111=
201109060553 METAR KCLM 060553Z AUTO 29008KT 10SM CLR 14/11 A3005 RMK AO2 SLP175 T01440106 10189 20144 51013=
201109060453 METAR KCLM 060453Z AUTO 30010KT 10SM CLR 15/11 A3003 RMK AO2 SLP170 T01500106=
201109060353 METAR KCLM 060353Z AUTO 28010KT 10SM CLR 14/11 A3003 RMK AO2 SLP169 T01440106=
201109060253 METAR KCLM 060253Z AUTO 27011KT 10SM CLR 16/11 A3001 RMK AO2 SLP161 T01560106 51005=
201109060153 METAR KCLM 060153Z AUTO 30008KT 10SM CLR 17/11 A3000 RMK AO2 SLP159 T01720106=
201109060053 METAR KCLM 060053Z AUTO 30011KT 10SM CLR 18/11 A3000 RMK AO2 SLP159 T01830106=
201109052353 METAR KCLM 052353Z AUTO 31007KT 280V340 10SM CLR 19/11 A2999 RMK AO2 SLP156 T01890111 10200 20156 52004=
201109052253 METAR KCLM 052253Z AUTO 31008KT 10SM CLR 18/11 A2999 RMK AO2 SLP154 T01830111=
201109052153 METAR KCLM 052153Z AUTO 30008KT 10SM CLR 18/11 A2999 RMK AO2 SLP154 T01830111=
201109052053 METAR KCLM 052053Z AUTO 34007KT 10SM CLR 18/11 A2998 RMK AO2 SLP152 T01780111 58000=
201109051953 METAR KCLM 051953Z AUTO VRB06KT 10SM CLR 17/11 A2998 RMK AO2 SLP152 T01720111=
201109051853 METAR KCLM 051853Z AUTO 31006KT 10SM CLR 16/11 A2999 RMK AO2 SLP154 T01610111=
201109051753 METAR KCLM 051753Z AUTO 36006KT 10SM CLR 16/11 A2998 RMK AO2 SLP152 T01610106 10167 20078 53006=
201109051653 METAR KCLM 051653Z AUTO 29006KT 10SM SCT005 15/11 A2997 RMK AO2 SLP148 T01500106=
201109051626 SPECI KCLM 051626Z AUTO 28006KT 10SM OVC003 13/11 A2997 RMK AO2=
201109051626 SPECI KCLM 051626Z AUTO 28006KT 10SM OVC003 13/11 A2997 RMK AO2=
201109051553 METAR KCLM 051553Z AUTO 28008KT 4SM BR OVC001 12/11 A2997 RMK AO2 SLP149 T01170106=
201109051549 SPECI KCLM 051549Z AUTO 29005KT 3SM BR OVC001 12/11 A2997 RMK AO2=
201109051549 SPECI KCLM 051549Z AUTO 29005KT 3SM BR OVC001 12/11 A2997 RMK AO2=
201109051453 METAR KCLM 051453Z AUTO 25004KT 1SM BR OVC001 11/09 A2996 RMK AO2 SLP146 T01060094 53014=
201109051425 SPECI KCLM 051425Z AUTO 29005KT 1/2SM FG OVC001 10/09 A2995 RMK AO2=
201109051425 SPECI KCLM 051425Z AUTO 29005KT 1/2SM FG OVC001 10/09 A2995 RMK AO2=
201109051410 SPECI KCLM 051410Z AUTO 23003KT 1/4SM FG VV001 10/08 A2995 RMK AO2=
201109051410 SPECI KCLM 051410Z AUTO 23003KT 1/4SM FG VV001 10/08 A2995 RMK AO2=
201109051358 SPECI KCLM 051358Z AUTO 25003KT 3/4SM BR OVC001 09/08 A2994 RMK AO2=
201109051358 SPECI KCLM 051358Z AUTO 25003KT 3/4SM BR OVC001 09/08 A2994 RMK AO2=
201109051353 METAR KCLM 051353Z AUTO 00000KT 2 1/2SM BR OVC001 09/08 A2994 RMK AO2 VIS 1V5 SLP138 T00940078=
201109051300 SPECI KCLM 051300Z AUTO 19003KT 8SM BKN001 09/08 A2992 RMK AO2=
201109051300 SPECI KCLM 051300Z AUTO 19003KT 8SM BKN001 09/08 A2992 RMK AO2=
201109051253 METAR KCLM 051253Z AUTO 00000KT 10SM BKN003 09/08 A2992 RMK AO2 SLP132 T00940078=
201109051250 SPECI KCLM 051250Z AUTO 00000KT 10SM SCT003 09/07 A2992 RMK AO2=
201109051250 SPECI KCLM 051250Z AUTO 00000KT 10SM SCT003 09/07 A2992 RMK AO2=
201109051153 METAR KCLM 051153Z AUTO 26003KT 10SM CLR 09/08 A2992 RMK AO2 SLP130 T00940078 10150 20094 53004=
201109051053 METAR KCLM 051053Z AUTO 26005KT 10SM CLR 10/08 A2991 RMK AO2 SLP128 T01000083=
201109050953 METAR KCLM 050953Z AUTO 30005KT 10SM CLR 10/08 A2990 RMK AO2 SLP126 T01000078=
201109050853 METAR KCLM 050853Z AUTO 29003KT 10SM CLR 10/08 A2990 RMK AO2 SLP126 T01000083 53001=
201109050753 METAR KCLM 050753Z AUTO 32006KT 10SM CLR 11/08 A2990 RMK AO2 SLP126 T01110083 402500083=
201109050653 METAR KCLM 050653Z AUTO 30007KT 10SM CLR 14/09 A2990 RMK AO2 SLP123 T01440089=
201109050553 METAR KCLM 050553Z AUTO 30007KT 10SM CLR 14/08 A2990 RMK AO2 SLP124 T01440083 10239 20139 51005=
201109050453 METAR KCLM 050453Z AUTO 29006KT 10SM CLR 14/08 A2990 RMK AO2 SLP124 T01440083=
201109050353 METAR KCLM 050353Z AUTO 26003KT 10SM CLR 16/09 A2990 RMK AO2 SLP123 T01560089=
201109050253 METAR KCLM 050253Z AUTO 00000KT 10SM CLR 15/09 A2989 RMK AO2 SLP120 T01500089 58006=
201109050153 METAR KCLM 050153Z AUTO 29003KT 10SM CLR 19/09 A2989 RMK AO2 SLP123 T01940089=
201109050053 METAR KCLM 050053Z AUTO 29004KT 10SM CLR 19/09 A2991 RMK AO2 SLP127 T01940089=
201109042353 METAR KCLM 042353Z AUTO 34004KT 10SM CLR 24/07 A2990 RMK AO2 SLP125 T02390067 10250 20206 57008=
201109042253 METAR KCLM 042253Z AUTO VRB03KT 10SM CLR 24/06 A2991 RMK AO2 SLP128 T02440061=
201109042153 METAR KCLM 042153Z AUTO 35004KT 10SM CLR 24/08 A2992 RMK AO2 SLP132 T02390078=
201109042053 METAR KCLM 042053Z AUTO VRB03KT 10SM CLR 23/09 A2993 RMK AO2 SLP134 T02280089 58009=
201109041953 METAR KCLM 041953Z AUTO 00000KT 10SM CLR 22/09 A2994 RMK AO2 SLP138 T02170094=
201109041853 METAR KCLM 041853Z AUTO 02004KT 10SM CLR 21/09 A2996 RMK AO2 SLP143 T02110089=
201109041753 METAR KCLM 041753Z AUTO 09005KT 10SM CLR 21/07 A2996 RMK AO2 SLP144 T02060067 10217 20083 50000=
201109041653 METAR KCLM 041653Z AUTO 10007KT 10SM CLR 21/07 A2996 RMK AO2 SLP144 T02110072=
201109041553 METAR KCLM 041553Z AUTO 11006KT 10SM CLR 20/07 A2996 RMK AO2 SLP144 T02000072=
201109041453 METAR KCLM 041453Z AUTO 00000KT 10SM CLR 14/09 A2996 RMK AO2 SLP144 T01390089 53002=
201109041353 METAR KCLM 041353Z AUTO 00000KT 10SM CLR 09/06 A2995 RMK AO2 SLP140 T00890061=
201109041253 METAR KCLM 041253Z AUTO 00000KT 10SM CLR 11/06 A2994 RMK AO2 SLP139 T01060061=
201109041153 METAR KCLM 041153Z AUTO 22005KT 10SM CLR 12/07 A2995 RMK AO2 SLP142 T01170067 10133 20089 56005=
201109041053 METAR KCLM 041053Z AUTO 24005KT 10SM CLR 12/07 A2995 RMK AO2 SLP142 T01170067=
201109040953 METAR KCLM 040953Z AUTO 00000KT 10SM CLR 10/07 A2996 RMK AO2 SLP145 T01000067=
201109040853 METAR KCLM 040853Z AUTO 00000KT 10SM CLR 10/07 A2996 RMK AO2 SLP147 T01000072 58008=
201109040753 METAR KCLM 040753Z AUTO 21003KT 10SM CLR 12/08 A2998 RMK AO2 SLP150 T01170078 402330078=
201109040653 METAR KCLM 040653Z AUTO 00000KT 10SM CLR 11/08 A2998 RMK AO2 SLP153 T01110078=
201109040553 METAR KCLM 040553Z AUTO 00000KT 10SM CLR 12/09 A2999 RMK AO2 SLP155 T01220089 10233 20122 58003=
201109040453 METAR KCLM 040453Z AUTO 23003KT 10SM CLR 16/08 A2999 RMK AO2 SLP157 T01610083=
201109040353 METAR KCLM 040353Z AUTO 20003KT 10SM CLR 14/08 A3000 RMK AO2 SLP157 T01440083=
201109040253 METAR KCLM 040253Z AUTO 00000KT 10SM CLR 17/09 A3000 RMK AO2 SLP158 T01720094 56019=
201109040153 METAR KCLM 040153Z AUTO 00000KT 10SM CLR 22/08 A3001 RMK AO2 SLP163 T02220078=
201109040053 METAR KCLM 040053Z AUTO 08003KT 10SM CLR 23/07 A3003 RMK AO2 SLP170 T02330072=
201109032353 METAR KCLM 032353Z AUTO 09003KT 10SM CLR 23/09 A3006 RMK AO2 SLP178 T02280089 10228 20178 58027=
201109032253 METAR KCLM 032253Z AUTO VRB04KT 10SM CLR 22/09 A3008 RMK AO2 SLP187 T02170089=
201109032153 METAR KCLM 032153Z AUTO 08006KT 10SM CLR 21/09 A3012 RMK AO2 SLP198 T02060094=
201109032053 METAR KCLM 032053Z AUTO VRB05KT 10SM CLR 20/10 A3014 RMK AO2 SLP205 T02000100 58019=
201109031953 METAR KCLM 031953Z AUTO 08007KT 10SM FEW100 19/09 A3016 RMK AO2 SLP212 T01890094=
201109031853 METAR KCLM 031853Z AUTO 08007KT 010V100 10SM CLR 19/10 A3018 RMK AO2 SLP219 T01890100=
201109031753 METAR KCLM 031753Z AUTO 08007KT 10SM CLR 18/11 A3019 RMK AO2 SLP224 T01780106 10178 20078 58008=
201109031653 METAR KCLM 031653Z AUTO 11005KT 10SM CLR 17/10 A3020 RMK AO2 SLP228 T01720100=
201109031553 METAR KCLM 031553Z AUTO 10004KT 10SM CLR 17/09 A3021 RMK AO2 SLP229 T01670094=
201109031453 METAR KCLM 031453Z AUTO 23004KT 10SM CLR 12/06 A3022 RMK AO2 SLP233 T01220056 56002=
201109031353 METAR KCLM 031353Z AUTO 23005KT 10SM CLR 11/05 A3022 RMK AO2 SLP232 T01060050=
201109031253 METAR KCLM 031253Z AUTO 00000KT 10SM CLR 08/04 A3021 RMK AO2 SLP231 T00830044=
201109031153 METAR KCLM 031153Z AUTO 22004KT 10SM CLR 08/04 A3022 RMK AO2 SLP234 T00830044 10111 20067 58003=
201109031053 METAR KCLM 031053Z AUTO 22005KT 10SM CLR 11/05 A3023 RMK AO2 SLP236 T01110050=
201109030953 METAR KCLM 030953Z AUTO 23005KT 10SM CLR 10/05 A3023 RMK AO2 SLP235 T01000050=
201109030853 METAR KCLM 030853Z AUTO 22005KT 10SM CLR 09/05 A3023 RMK AO2 SLP237 T00890050 56003=
201109030753 METAR KCLM 030753Z AUTO 00000KT 10SM CLR 08/05 A3023 RMK AO2 SLP239 T00780050 402000067=
201109030653 METAR KCLM 030653Z AUTO 00000KT 10SM CLR 07/05 A3024 RMK AO2 SLP241 T00720050=
201109030553 METAR KCLM 030553Z AUTO 00000KT 10SM CLR 09/06 A3024 RMK AO2 SLP241 T00890061 10200 20083 50003=
201109030453 METAR KCLM 030453Z AUTO 00000KT 10SM CLR 10/07 A3024 RMK AO2 SLP242 T01000072=
201109030353 METAR KCLM 030353Z AUTO 00000KT 10SM CLR 10/08 A3024 RMK AO2 SLP241 T01000078=
201109030253 METAR KCLM 030253Z AUTO 29004KT 10SM CLR 11/08 A3023 RMK AO2 SLP238 T01110078 56007=
201109030153 METAR KCLM 030153Z AUTO 35003KT 10SM CLR 15/08 A3024 RMK AO2 SLP240 T01500083=
201109030053 METAR KCLM 030053Z AUTO 03003KT 10SM CLR 20/07 A3024 RMK AO2 SLP241 T02000067=
201109022353 METAR KCLM 022353Z AUTO 00000KT 10SM CLR 19/06 A3025 RMK AO2 SLP245 T01940061 10200 20133 58010=
201109022253 METAR KCLM 022253Z AUTO 09007KT 10SM CLR 19/07 A3027 RMK AO2 SLP249 T01890067=
201109022153 METAR KCLM 022153Z AUTO 10006KT 10SM CLR 19/07 A3028 RMK AO2 SLP252 T01890067=
201109022053 METAR KCLM 022053Z AUTO 09008KT 10SM CLR 18/06 A3028 RMK AO2 SLP255 T01780061 51003=
201109021953 METAR KCLM 021953Z AUTO VRB04KT 10SM CLR 16/09 A3028 RMK AO2 SLP254 T01610089=
201109021853 METAR KCLM 021853Z AUTO VRB04KT 10SM CLR 14/10 A3028 RMK AO2 SLP253 T01440100=
201109021753 METAR KCLM 021753Z AUTO VRB04KT 10SM CLR 14/10 A3027 RMK AO2 SLP251 T01390100 10144 20089 53014=
201109021653 METAR KCLM 021653Z AUTO 34003KT 10SM CLR 13/11 A3025 RMK AO2 SLP245 T01330106=
201109021553 METAR KCLM 021553Z AUTO 36003KT 10SM CLR 13/10 A3024 RMK AO2 SLP240 T01330100=
201109021453 METAR KCLM 021453Z AUTO 25005KT 10SM FEW048 12/08 A3023 RMK AO2 SLP238 T01170078 53014=
201109021353 METAR KCLM 021353Z AUTO 00000KT 10SM CLR 09/08 A3021 RMK AO2 SLP232 T00940078=
201109021253 METAR KCLM 021253Z AUTO 23003KT 10SM CLR 11/08 A3020 RMK AO2 SLP226 T01060083=
201109021153 METAR KCLM 021153Z AUTO 28005KT 10SM SCT006 BKN035 12/10 A3019 RMK AO2 SLP223 T01170100 10128 20111 50003=
201109021053 METAR KCLM 021053Z AUTO 27005KT 10SM OVC006 13/11 A3019 RMK AO2 CIG 004V009 SLP224 T01280106=
201109021048 SPECI KCLM 021048Z AUTO 27006KT 10SM OVC006 13/11 A3019 RMK AO2 CIG 004V009=
201109021048 SPECI KCLM 021048Z AUTO 27006KT 10SM OVC006 13/11 A3019 RMK AO2 CIG 004V009=
201109021022 SPECI KCLM 021022Z AUTO 27006KT 10SM OVC004 13/11 A3019 RMK AO2=
201109021022 SPECI KCLM 021022Z AUTO 27006KT 10SM OVC004 13/11 A3019 RMK AO2=
201109020953 METAR KCLM 020953Z AUTO 26007KT 10SM OVC006 12/11 A3018 RMK AO2 CIG 005V010 SLP220 T01220106=
201109020853 METAR KCLM 020853Z AUTO 29006KT 10SM BKN006 12/10 A3016 RMK AO2 SLP214 T01170100 53005=
201109020846 SPECI KCLM 020846Z AUTO 28007KT 10SM SCT006 11/09 A3016 RMK AO2=
201109020846 SPECI KCLM 020846Z AUTO 28007KT 10SM SCT006 11/09 A3016 RMK AO2=
201109020753 METAR KCLM 020753Z AUTO 29008KT 10SM FEW045 12/09 A3015 RMK AO2 SLP210 T01170094 401780067=
201109020653 METAR KCLM 020653Z AUTO 29009KT 10SM BKN045 12/09 A3015 RMK AO2 SLP211 T01220094=
201109020553 METAR KCLM 020553Z AUTO 30009KT 10SM CLR 12/09 A3015 RMK AO2 SLP210 T01220094 10150 20117 58004=
201109020453 METAR KCLM 020453Z AUTO 31007KT 10SM CLR 12/09 A3016 RMK AO2 SLP215 T01220094=
201109020353 METAR KCLM 020353Z AUTO 28007KT 10SM BKN060 12/09 A3017 RMK AO2 SLP217 T01220089=
201109020253 METAR KCLM 020253Z AUTO 30010KT 10SM BKN046 OVC065 13/09 A3016 RMK AO2 SLP215 T01280089 58011=
201109020153 METAR KCLM 020153Z AUTO 29009KT 10SM OVC060 14/09 A3018 RMK AO2 SLP220 T01440089=
201109020053 METAR KCLM 020053Z AUTO 30008KT 10SM OVC060 14/09 A3018 RMK AO2 SLP222 T01440094=
201109012353 METAR KCLM 012353Z AUTO 27010KT 10SM OVC070 15/09 A3020 RMK AO2 SLP226 T01500094 10178 20133 53002=
201109012253 METAR KCLM 012253Z AUTO 31010KT 10SM OVC080 17/10 A3018 RMK AO2 SLP221 T01670100=
201109012153 METAR KCLM 012153Z AUTO 33008KT 10SM BKN085 17/10 A3019 RMK AO2 SLP222 T01720100=
201109012053 METAR KCLM 012053Z AUTO 31009G17KT 10SM CLR 16/09 A3019 RMK AO2 SLP223 T01610094 55003=
201109011953 METAR KCLM 011953Z AUTO 28004KT 10SM BKN110 16/09 A3019 RMK AO2 SLP222 T01610094=
201109011853 METAR KCLM 011853Z AUTO 01005KT 10SM BKN110 14/09 A3018 RMK AO2 SLP221 T01390094=
201109011753 METAR KCLM 011753Z AUTO 35004KT 10SM CLR 13/09 A3020 RMK AO2 SLP227 T01330094 10144 20067 53002=
201109011653 METAR KCLM 011653Z AUTO VRB03KT 10SM CLR 12/10 A3018 RMK AO2 SLP222 T01220100=
201109011619 SPECI KCLM 011619Z AUTO 00000KT 10SM SCT001 11/09 A3019 RMK AO2=
201109011619 SPECI KCLM 011619Z AUTO 00000KT 10SM SCT001 11/09 A3019 RMK AO2=
201109011600 SPECI KCLM 011600Z AUTO 00000KT 3SM BR BKN001 11/10 A3019 RMK AO2=
201109011600 SPECI KCLM 011600Z AUTO 00000KT 3SM BR BKN001 11/10 A3019 RMK AO2=
201109011557 SPECI KCLM 011557Z AUTO 24003KT 1SM BR OVC001 11/09 A3019 RMK AO2=
201109011557 SPECI KCLM 011557Z AUTO 24003KT 1SM BR OVC001 11/09 A3019 RMK AO2=
201109011553 METAR KCLM 011553Z AUTO 26003KT 1/4SM FG OVC001 11/09 A3019 RMK AO2 SLP225 T01060094=
201109011551 SPECI KCLM 011551Z AUTO 25004KT 1/4SM FG OVC001 11/09 A3019 RMK AO2=
201109011551 SPECI KCLM 011551Z AUTO 25004KT 1/4SM FG OVC001 11/09 A3019 RMK AO2=
201109011540 SPECI KCLM 011540Z AUTO 28004KT 1/2SM FG OVC001 11/09 A3020 RMK AO2=
201109011540 SPECI KCLM 011540Z AUTO 28004KT 1/2SM FG OVC001 11/09 A3020 RMK AO2=
201109011453 METAR KCLM 011453Z AUTO 00000KT 1/4SM FG VV001 09/08 A3018 RMK AO2 SLP219 T00940083 51009=
201109011353 METAR KCLM 011353Z AUTO 00000KT M1/4SM FG VV001 09/08 A3017 RMK AO2 SLP216 T00940083=
201109011307 SPECI KCLM 011307Z AUTO 00000KT 1/4SM FG VV001 09/08 A3017 RMK AO2=
201109011307 SPECI KCLM 011307Z AUTO 00000KT 1/4SM FG VV001 09/08 A3017 RMK AO2=
201109011253 METAR KCLM 011253Z AUTO 00000KT 1/2SM FG VV001 09/08 A3016 RMK AO2 SLP213 T00940083=
201109011250 SPECI KCLM 011250Z AUTO 00000KT 1SM BR VV001 09/08 A3016 RMK AO2=
201109011250 SPECI KCLM 011250Z AUTO 00000KT 1SM BR VV001 09/08 A3016 RMK AO2=
201109011247 SPECI KCLM 011247Z AUTO 28003KT 2 1/2SM BR BKN002 09/07 A3016 RMK AO2=
201109011247 SPECI KCLM 011247Z AUTO 28003KT 2 1/2SM BR BKN002 09/07 A3016 RMK AO2=
201109011242 SPECI KCLM 011242Z AUTO 27003KT 10SM SCT002 08/07 A3016 RMK AO2=
201109011242 SPECI KCLM 011242Z AUTO 27003KT 10SM SCT002 08/07 A3016 RMK AO2=
201109011153 METAR KCLM 011153Z AUTO 00000KT 10SM CLR 08/06 A3015 RMK AO2 SLP209 T00830061 10117 20078 51006=
201109011053 METAR KCLM 011053Z AUTO 00000KT 10SM CLR 08/06 A3014 RMK AO2 SLP208 T00830061=
201109010953 METAR KCLM 010953Z AUTO 29006KT 10SM CLR 11/09 A3013 RMK AO2 SLP204 T01110089=
201109010853 METAR KCLM 010853Z AUTO 27005KT 10SM CLR 11/09 A3013 RMK AO2 SLP202 T01110089 53010=
201109010753 METAR KCLM 010753Z AUTO 28005KT 10SM CLR 11/09 A3011 RMK AO2 SLP196 T01110089 402000083=
201109010653 METAR KCLM 010653Z AUTO 29007KT 10SM CLR 12/09 A3010 RMK AO2 SLP193 T01170094=
201109010553 METAR KCLM 010553Z AUTO 00000KT 10SM CLR 11/09 A3010 RMK AO2 SLP192 T01110089 10178 20106 51009=
201109010453 METAR KCLM 010453Z AUTO 00000KT 10SM CLR 11/09 A3009 RMK AO2 SLP190 T01110089=
201109010353 METAR KCLM 010353Z AUTO 00000KT 10SM CLR 12/09 A3009 RMK AO2 SLP187 T01170089=
201109010253 METAR KCLM 010253Z AUTO 26004KT 10SM CLR 12/09 A3007 RMK AO2 SLP184 T01220089 53008=
201109010153 METAR KCLM 010153Z AUTO 30006KT 10SM CLR 14/09 A3006 RMK AO2 SLP179 T01390089=
201109010053 METAR KCLM 010053Z AUTO VRB04KT 10SM CLR 16/09 A3004 RMK AO2 SLP173 T01610094=

# No short TAF reports from KCLM in databse.

###################################
#  large TAF from KCLM
###################################
201109302320 TAF KCLM 302320Z 0100/0124 36004KT P6SM OVC040 FM011200 26003KT
                       P6SM -SHRA SCT013 OVC040
                      TEMPO 0113/0117 BKN013 FM011800 34003KT P6SM
                       -SHRA OVC025=
201109301735 TAF KCLM 301735Z 3018/0118 30008KT P6SM SCT013
                      TEMPO 3018/3020 BKN013 FM302000 29006KT P6SM
                       BKN120 BKN250 FM011200 26003KT P6SM -SHRA
                       SCT013 OVC040
                      TEMPO 0113/0117 BKN013=
201109301541 KCLM 301541Z 3016/0112 24006KT P6SM SCT015 BKN250
                      TEMPO 3016/3019 SCT010 BKN015 FM301900 28008KT
                       P6SM BKN120 OVC200=
201109301157 KCLM 301157Z 3012/0112 24006KT P6SM SCT015 BKN250
                      TEMPO 3012/3015 BKN015 FM301900 28008KT P6SM
                       BKN120 OVC200=
201109301134 TAF KCLM 301134Z 3012/0112 24006KT P6SM BKN250 FM301900 28008KT
                       P6SM BKN120 OVC200=
201109300537 TAF KCLM 300537Z 3006/0106 24006KT P6SM BKN250 FM302100 28008KT
                       P6SM BKN100 OVC200=
201109292338 TAF KCLM 292338Z 3000/3024 04003KT P6SM FEW100 BKN250 FM301200
                       29006KT P6SM OVC100 FM302100 31011KT P6SM
                       VCSH BKN080 OVC120=
201109291737 TAF KCLM 291737Z 2918/3018 02004KT P6SM SCT250 FM301000 VRB03KT
                       P6SM SKC FM301700 27004KT P6SM BKN120 OVC250=
201109291136 TAF KCLM 291136Z 2912/3012 VRB03KT P6SM SKC=
201109290534 TAF KCLM 290534Z 2906/3006 12006KT P6SM SKC FM291800 VRB03KT P6SM
                       SKC=
201109282324 TAF KCLM 282324Z 2900/2924 08006KT P6SM FEW250 FM291800 VRB03KT
                       P6SM FEW200=
201109281731 TAF KCLM 281731Z 2818/2918 10005KT P6SM FEW015
                      TEMPO 2818/2819 BKN015 FM282100 04008KT P6SM
                       SKC FM290400 09008KT P6SM SKC FM291200 VRB03KT
                       P6SM SKC=
201109281140 TAF KCLM 281140Z 2812/2912 26006KT P6SM SCT060 FM281600 VRB03KT
                       P6SM SKC FM290400 07008KT P6SM SKC=
201109280539 TAF KCLM 280539Z 2806/2906 26006KT P6SM BKN070 FM281200 07008KT
                       P6SM SKC=
201109272328 TAF KCLM 272328Z 2800/2824 30005KT P6SM VCSH SCT045 BKN060 FM280500
                       24004KT P6SM SKC FM281800 07008KT P6SM SKC=
201109271741 TAF KCLM 271741Z 2718/2818 30008KT P6SM VCSH SCT045 BKN060 FM280500
                       24004KT P6SM SKC=
201109271136 TAF KCLM 271136Z 2712/2812 VRB03KT P6SM SCT035 BKN060 FM280000
                       28006KT P6SM SCT060 FM280600 VRB03KT P6SM
                       SCT060=
201109270540 TAF KCLM 270540Z 2706/2806 VRB03KT P6SM SCT006 BKN050
                      TEMPO 2706/2710 5SM -SHRA BKN006 OVC050 FM271200
                       VRB03KT P6SM SCT035 BKN060 FM272100 28006KT
                       P6SM SCT050=
201109270320 KCLM 270320Z 2703/2724 26006KT P6SM SCT035 BKN060 FM271200 VRB03KT
                       P6SM VCSH SCT035 BKN060 FM271800 30006KT
                       P6SM SCT050=
201109262343 TAF KCLM 262343Z 2700/2724 VRB03KT 4SM -RA BR BKN009 OVC015 FM270200
                       25006KT P6SM VCSH BKN015 OVC030
                      TEMPO 2702/2706 -SHRA FM270600 25006KT P6SM
                       VCSH BKN030 BKN050 FM271200 VRB03KT P6SM
                       VCSH SCT035 BKN050 FM271800 30006KT P6SM
                       VCSH SCT050=
201109262310 KCLM 262310Z 2623/2718 25005KT 2SM -RA BR BKN009 OVC020 FM270200
                       25006KT P6SM VCSH SCT050
                      TEMPO 2702/2706 BKN050=
201109261810 KCLM 261810Z 2618/2718 VRB03KT 6SM -RA BR SCT003 SCT020 OVC040
                       TEMPO 2618/2621 4SM -RA BR BKN003 OVC020
                       FM262100 21005KT 4SM -RA BR SCT003 BKN015
                       OVC040
                      TEMPO 2621/2623 BKN003 OVC025 FM262300 25006KT
                       P6SM VCSH SCT020 BKN050
                      TEMPO 2623/2701 -SHRA FM270200 25006KT P6SM
                       VCSH SCT050
                      TEMPO 2702/2706 BKN050=
201109261741 TAF KCLM 261741Z 2618/2718 05006KT 6SM -RA BR SCT003 SCT020 OVC035
                       TEMPO 2618/2619 4SM -RA BR BKN003 OVC020
                       FM261900 10006KT 4SM -RA BR SCT009 OVC020
                       FM262200 29008KT P6SM RA OVC020 FM270000
                       28010G20KT P6SM -SHRA BKN035 FM270400 28010KT
                       P6SM SCT035 BKN045=
201109261638 KCLM 261638Z 2617/2712 05006KT 6SM -RA BR SCT003 SCT020 OVC035
                       TEMPO 2617/2619 4SM -RA BR BKN003 OVC020
                       FM261900 10006KT 4SM -RA BR SCT009 OVC020
                       FM262200 29008KT P6SM RA OVC020 FM270000
                       28010G20KT P6SM -SHRA BKN035 FM270400 28010KT
                       P6SM SCT035 BKN045=
201109261608 KCLM 261608Z 2616/2712 05006KT 6SM -RA BR SCT020 OVC035
                      TEMPO 2616/2618 4SM -RA BR BKN020 OVC035
                       FM261800 10006KT 4SM -RA BR SCT009 OVC020
                       FM262200 29008KT P6SM RA OVC020 FM270000
                       28010G20KT P6SM -SHRA BKN035 FM270400 28010KT
                       P6SM SCT035 BKN045=
201109261120 TAF KCLM 261120Z 2612/2712 10004KT P6SM SCT050 BKN080 FM261300
                       VRB04KT P6SM -RA OVC035
                      TEMPO 2614/2617 5SM -RA BR BKN020 OVC030
                       FM261800 27008KT P6SM -RA OVC030 FM262200
                       29008KT P6SM RA OVC020 FM270000 28010G20KT
                       P6SM -SHRA BKN035 FM270400 28010KT P6SM
                       SCT035 BKN045=
201109260521 TAF KCLM 260521Z 2606/2706 10004KT P6SM BKN120 FM261200 10004KT
                       P6SM BKN060 FM261300 VRB04KT P6SM -RA OVC035
                       TEMPO 2614/2617 4SM -RA BR BKN020 OVC030
                       FM261800 27008KT P6SM -RA OVC030 FM262200
                       29008KT P6SM RA OVC020 FM270000 28010G20KT
                       P6SM -SHRA BKN035=
201109260104 KCLM 260104Z 2601/2624 32006KT P6SM FEW045 FEW070 FM260600 09005KT
                       P6SM OVC100 FM261200 10004KT P6SM BKN060
                       FM261500 VRB04KT P6SM -RA OVC035 FM261800
                       27008KT P6SM -RA OVC030=
201109252355 TAF KCLM 252355Z 2600/2624 28015G25KT P6SM SCT060 FM260300 27006KT
                       P6SM SCT100 FM261200 10004KT P6SM BKN060
                       FM261500 VRB04KT P6SM -RA OVC035 FM261800
                       27008KT P6SM -RA OVC030=
201109252103 KCLM 252103Z 2521/2618 32010G20KT 3SM -RA BR BKN025 OVC060
                      TEMPO 2521/2524 1SM RA BR FEW008 BKN015 FM260000
                       28012G22KT P6SM SCT060 SCT100 FM260500 28006KT
                       P6SM SCT100 FM260900 10004KT P6SM BKN080
                       FM261500 VRB04KT P6SM -RA OVC035=
201109251755 TAF KCLM 251755Z 2518/2618 24006KT P6SM BKN045 OVC080
                      TEMPO 2518/2520 -SHRA FM252000 28010KT P6SM
                       VCSH BKN060 BKN110 FM260000 28012G22KT P6SM
                       SCT060 SCT100 FM260500 28006KT P6SM SCT100
                       FM260900 10004KT P6SM BKN080 FM261500 VRB04KT
                       P6SM -RA OVC035=
201109251125 TAF KCLM 251125Z 2512/2612 27012G20KT P6SM -RA FEW035 BKN050 OVC120
                       FM251600 24006KT P6SM BKN035 OVC060
                      TEMPO 2516/2520 -SHRA FM252000 28010KT P6SM
                       VCSH BKN060 BKN110 FM260000 28012G22KT P6SM
                       SCT060 SCT100 FM260500 28006KT P6SM SCT100
                       FM260900 10004KT P6SM BKN080=
201109250520 TAF KCLM 250520Z 2506/2606 VRB03KT P6SM SCT120 OVC200 FM251200
                       VRB03KT P6SM FEW035 SCT060 OVC120 FM251800
                       VRB03KT P6SM BKN035 OVC060
                      TEMPO 2518/2520 -SHRA FM252000 28007KT P6SM
                       VCSH BKN060 BKN110 FM260000 28012G22KT P6SM
                       SCT060 SCT100 FM260500 28006KT P6SM SCT100=
201109242340 TAF KCLM 242340Z 2500/2524 VRB03KT P6SM SCT120 OVC200 FM251200
                       VRB03KT P6SM FEW035 SCT060 OVC120
                      PROB30 2514/2518 -RA SCT035 OVC060 FM251800
                       VRB03KT P6SM BKN035 OVC060
                      TEMPO 2518/2520 -SHRA FM252000 28007KT P6SM
                       VCSH BKN060 BKN110=
201109241741 TAF KCLM 241741Z 2418/2518 31005KT P6SM SCT025 SCT200 FM241900
                       31005KT P6SM BKN200 FM250000 VRB03KT P6SM
                       SCT120 OVC200 FM251200 VRB03KT P6SM FEW035
                       SCT060 OVC120
                      PROB30 2514/2518 -RA SCT035 OVC060=
201109241701 KCLM 241701Z 2417/2512 VRB04KT P6SM SCT022 SCT200
                      TEMPO 2417/2418 BKN022 BKN200 FM241800 VRB04KT
                       P6SM SCT100 BKN200 FM250000 VRB04KT P6SM
                       OVC100 FM250600 VRB04KT P6SM BKN050 OVC090
                       FM251000 09005KT P6SM VCSH BKN040 BKN060=
201109241439 KCLM 241439Z 2415/2512 25005KT P6SM VCFG FEW005 SCT200 FM241700
                       VRB04KT P6SM SCT100 BKN200 FM250000 VRB04KT
                       P6SM OVC100 FM250600 VRB04KT P6SM BKN050
                       OVC090 FM251000 09005KT P6SM VCSH BKN040
                       BKN060=
201109241205 KCLM 241205Z 2412/2512 VRB04KT P6SM SCT006 SCT120
                      TEMPO 2412/2416 1SM BR FEW001 BKN006 FM241700
                       VRB04KT P6SM SCT150 FM250000 VRB04KT P6SM
                       OVC100 FM250600 VRB04KT P6SM BKN050 OVC090
                       FM251000 09005KT P6SM VCSH BKN040 BKN060=
201109241120 TAF KCLM 241120Z 2412/2512 VRB04KT P6SM SCT006 SCT120
                      TEMPO 2413/2416 3SM BR BKN006 FM241700 VRB04KT
                       P6SM SCT150 FM250000 VRB04KT P6SM OVC100
                       FM250600 VRB04KT P6SM BKN050 OVC090 FM251000
                       09005KT P6SM VCSH BKN040 BKN060=
201109240520 TAF KCLM 240520Z 2406/2506 VRB04KT P6SM SCT060 BKN120 FM241000
                       VRB03KT P6SM SCT005 SCT120
                      TEMPO 2412/2416 3SM BR BKN005 FM241700 09005KT
                       P6SM SCT150 FM250000 09005KT P6SM OVC100=
201109232320 TAF KCLM 232320Z 2400/2424 VRB05KT P6SM SCT060 BKN120 FM241000
                       09005KT P6SM SCT005 SCT120
                      TEMPO 2412/2416 3SM BR BKN005 FM241700 09005KT
                       P6SM SCT150=
201109231734 TAF KCLM 231734Z 2318/2418 VRB03KT P6SM SCT050 BKN150 FM232100
                       VRB05KT P6SM BKN060 BKN200 FM241000 09005KT
                       P6SM SCT005 SCT060
                      TEMPO 2412/2416 3SM BR BKN005 FM241700 09005KT
                       P6SM SCT150=
201109231120 TAF KCLM 231120Z 2312/2412 VRB03KT P6SM BKN050 OVC100 FM231800
                       VRB03KT P6SM SCT050 SCT100=
201109230520 TAF KCLM 230520Z 2306/2406 VRB04KT P6SM SCT060 BKN120 FM230900
                       VRB03KT P6SM BKN050 OVC100 FM231800 VRB03KT
                       P6SM SCT050 SCT100=
201109222340 TAF KCLM 222340Z 2300/2324 VRB04KT P6SM SCT040 BKN090 FM230900
                       VRB03KT P6SM BKN060 OVC090 FM232000 VRB03KT
                       P6SM FEW120=
201109221836 KCLM 221836Z 2219/2318 00000KT P6SM SCT005 OVC020
                      TEMPO 2219/2220 1SM -RA BR OVC005 FM222300
                       VRB03KT P6SM SCT060 OVC100 FM230900 VRB03KT
                       P6SM BKN060 OVC090=
201109221739 TAF KCLM 221739Z 2218/2318 00000KT 1SM BR SCT001 OVC020
                      TEMPO 2218/2220 1SM -RA BR OVC001 FM222300
                       VRB03KT P6SM SCT060 OVC100 FM230900 VRB03KT
                       P6SM BKN060 OVC090=
201109221547 KCLM 221547Z 2216/2312 00000KT 4SM -RA BKN030 OVC060
                      TEMPO 2216/2218 1SM -RA BR BKN006 OVC060
                       FM221900 VRB03KT P6SM BKN050 BKN080 FM222300
                       VRB04KT P6SM SCT060 OVC100=
201109221456 KCLM 221456Z 2215/2312 00000KT 4SM -RA SCT040 OVC060
                      TEMPO 2215/2217 2SM -RA BR BKN040 OVC060
                       FM221900 VRB03KT P6SM BKN050 BKN080 FM222300
                       VRB04KT P6SM SCT060 OVC100=
201109221120 TAF KCLM 221120Z 2212/2312 VRB04KT P6SM BKN035 OVC050
                      TEMPO 2212/2215 -RA FM221900 VRB03KT P6SM
                       BKN050 BKN080 FM222300 VRB04KT P6SM SCT060
                       OVC100=
201109220520 TAF KCLM 220520Z 2206/2306 VRB03KT P6SM BKN060 OVC100 FM221000
                       VRB04KT P6SM BKN035 OVC050
                      TEMPO 2210/2214 -RA FM222000 VRB03KT P6SM
                       BKN050 FM222300 VRB04KT P6SM SCT060 OVC100=
201109212346 TAF KCLM 212346Z 2200/2224 VRB03KT P6SM OVC120 FM220600 VRB03KT
                       P6SM BKN060 OVC100 FM221000 VRB04KT P6SM
                       BKN035 OVC050
                      TEMPO 2210/2213 -RA FM222000 VRB03KT P6SM
                       BKN050=
201109211740 TAF KCLM 211740Z 2118/2218 VRB03KT P6SM OVC120 FM212000 VRB04KT
                       P6SM OVC100 FM220600 VRB04KT P6SM BKN060
                       OVC100 FM221000 VRB04KT P6SM BKN025 OVC050
                       TEMPO 2210/2214 -RA=
201109211120 TAF KCLM 211120Z 2112/2212 VRB03KT P6SM SCT120 BKN200 FM212200
                       VRB03KT P6SM BKN120 BKN200 FM220000 VRB03KT
                       P6SM SCT080 BKN120 OVC200 FM220600 VRB03KT
                       P6SM BKN060 BKN100 OVC150=
201109210523 TAF KCLM 210523Z 2106/2206 VRB03KT P6SM BKN250 FM211200 VRB03KT
                       P6SM SCT080 BKN120 BKN250 FM212200 VRB03KT
                       P6SM BKN120 BKN200=
201109202326 TAF KCLM 202326Z 2100/2124 VRB03KT P6SM BKN250 FM210500 VRB03KT
                       P6SM SCT250 FM211100 VRB03KT P6SM BKN120
                       FM212000 VRB03KT P6SM SCT120 BKN200=
201109201836 TAF KCLM 201836Z 2019/2118 04004KT P6SM SKC FM210300 22004KT P6SM
                       SCT250 FM211200 VRB03KT P6SM BKN120=
201109201120 TAF KCLM 201120Z 2012/2112 VRB03KT P6SM SKC FM210300 22004KT P6SM
                       SCT250=
201109200520 TAF KCLM 200520Z 2006/2106 VRB04KT P6SM SKC=
201109192327 TAF KCLM 192327Z 2000/2024 VRB04KT P6SM SCT250 FM201200 20003KT
                       P6SM FEW020 FM201800 VRB03KT P6SM SKC=
201109191737 TAF KCLM 191737Z 1918/2018 VRB04KT P6SM SKC FM201200 20003KT P6SM
                       FEW020=
201109191120 TAF KCLM 191120Z 1912/2012 27007KT P6SM SCT050 FM191800 VRB04KT
                       P6SM SCT050 FM192100 VRB04KT P6SM SKC=
201109190834 KCLM 190834Z 1909/2006 27012KT P6SM BKN050 FM191200 VRB03KT P6SM
                       BKN030 FM191800 02004KT P6SM SCT030 FM192100
                       02004KT P6SM SKC=
201109190533 TAF KCLM 190533Z 1906/2006 27007KT P6SM SCT025 BKN035 FM190800
                       25005KT P6SM BKN025 FM191300 VRB03KT P6SM
                       OVC015 FM191800 02004KT P6SM SCT030 FM192100
                       02004KT P6SM SKC=
201109182340 TAF KCLM 182340Z 1900/1924 27007KT P6SM SCT025 BKN040
                      TEMPO 1900/1904 BKN025 BKN040 FM190800 25005KT
                       P6SM BKN025 FM191300 VRB03KT P6SM OVC015
                       FM191800 02004KT P6SM SCT020 SCT200=
201109181842 KCLM 181842Z 1819/1918 29006KT P6SM SCT020 BKN040
                      TEMPO 1819/1821 BKN020 BKN040 FM182100 30010KT
                       P6SM SCT025 BKN045 FM190800 27004KT P6SM
                       OVC020 FM191100 VRB03KT P6SM BKN006=
201109181740 TAF KCLM 181740Z 1818/1918 29006KT P6SM SCT010 SCT025 BKN050 FM182100
                       30010KT P6SM SCT030 BKN050 FM190800 27004KT
                       P6SM OVC020 FM191100 VRB03KT P6SM BKN006=
201109181429 KCLM 181429Z 1814/1912 00000KT 5SM BR SCT001 SCT025 OVC040
                      TEMPO 1814/1817 1/2SM -RA FG BKN001 OVC030
                       FM181800 31006KT P6SM VCSH BKN025 OVC040
                       FM182100 30010KT P6SM BKN030 BKN050 FM190600
                       27004KT P6SM OVC020=
201109181200 KCLM 181200Z 1812/1912 00000KT 5SM BR SCT001 SCT025 OVC040
                      TEMPO 1812/1816 2SM -RA BR BKN001 OVC030
                       FM181800 31006KT P6SM VCSH BKN025 OVC040
                       FM182100 30010KT P6SM BKN030 BKN050 FM190600
                       27004KT P6SM OVC020=
201109181121 TAF KCLM 181121Z 1812/1912 00000KT 5SM -RA SCT025 OVC040
                      TEMPO 1812/1816 2SM BR SCT010 OVC025 FM181800
                       31006KT P6SM VCSH BKN025 OVC040 FM182100
                       30010KT P6SM BKN030 BKN050 FM190600 27004KT
                       P6SM OVC020=
201109180520 TAF KCLM 180520Z 1806/1906 VRB03KT P6SM -RA SCT030 OVC070 FM180900
                       00000KT P6SM -RA OVC025 FM181600 31006KT
                       P6SM VCSH BKN020 OVC040 FM182000 30010KT
                       P6SM BKN050=
201109172321 TAF KCLM 172321Z 1800/1824 VRB04KT P6SM BKN060 OVC100 FM180400
                       VRB03KT P6SM -RA OVC050 FM180900 00000KT
                       P6SM -RA OVC025 FM181600 31006KT P6SM BKN020
                       OVC040 FM182000 30010KT P6SM BKN050=
201109171745 TAF KCLM 171745Z 1718/1818 VRB04KT P6SM BKN080 FM180000 VRB03KT
                       P6SM BKN060 OVC080 FM180300 VRB03KT P6SM
                       -RA OVC050 FM180800 00000KT P6SM -RA OVC030
                       FM181500 VRB03KT P6SM BKN030 BKN060=
201109171120 TAF KCLM 171120Z 1712/1812 VRB04KT P6SM VCSH SCT040 BKN070 OVC100
                       TEMPO 1712/1716 -SHRA BKN030 FM171600 VRB03KT
                       P6SM SCT030 OVC060 FM172100 VRB03KT P6SM
                       BKN030 OVC060=
201109170525 TAF KCLM 170525Z 1706/1806 VRB04KT P6SM SCT070 OVC090 FM170900
                       VRB03KT P6SM OVC035
                      TEMPO 1709/1713 -RA FM171600 VRB03KT P6SM
                       SCT050 BKN150 FM172100 VRB03KT P6SM BKN030
                       OVC060=
201109162320 TAF KCLM 162320Z 1700/1724 29006KT P6SM BKN060 OVC100 FM170500
                       24003KT P6SM BKN050 OVC080
                      TEMPO 1705/1709 -RA FM170900 VRB03KT P6SM
                       OVC035
                      TEMPO 1709/1711 -RA FM171600 VRB03KT P6SM
                       SCT050 BKN150 FM171900 VRB03KT P6SM SCT050
                       BKN100=
201109161742 TAF KCLM 161742Z 1618/1718 32007KT P6SM SCT060 BKN150 FM170000
                       30007KT P6SM SCT050 BKN100 FM170400 25004KT
                       P6SM BKN040 OVC080
                      PROB30 1704/1708 -RA FM170800 VRB03KT P6SM
                       OVC035
                      TEMPO 1708/1712 -RA FM171200 VRB03KT P6SM
                       -RA BKN015 OVC030=
201109161120 TAF KCLM 161120Z 1612/1712 26008KT P6SM SCT025 SCT045 FM161800
                       32005KT P6SM SCT050 BKN120 OVC200 FM170400
                       25005KT P6SM OVC040=
201109160907 TAF AMD KCLM 160907Z 1609/1706 25008KT P6SM SKC FM161100 25005KT
                       P6SM SCT025 BKN040
                      TEMPO 1612/1616 BKN025 BKN040 FM161800 01005KT
                       P6SM SCT050 BKN200 FM162200 29005KT P6SM
                       SCT050 BKN150 FM170400 25005KT P6SM OVC040=
201109160520 TAF KCLM 160520Z 1606/1706 29005KT P6SM SKC FM161100 25005KT P6SM
                       BKN020 FM161800 01005KT P6SM SCT050 BKN200
                       FM162200 29005KT P6SM SCT050 BKN150 FM170400
                       25005KT P6SM OVC040=
201109160406 KCLM 160406Z 1604/1624 28011G18KT P6SM SKC FM161100 25005KT P6SM
                       BKN020 FM161800 01005KT P6SM SCT050 BKN200=
201109152343 KCLM 152343Z 1600/1624 30005KT P6SM SCT020 BKN060
                      TEMPO 1600/1602 BKN020 BKN060 FM160200 28007KT
                       P6SM SCT060 FM161200 25005KT P6SM BKN020
                       FM161800 01005KT P6SM SCT050 BKN200=
201109152320 TAF KCLM 152320Z 1600/1624 30005KT P6SM BKN060 FM160200 28007KT
                       P6SM SCT060 FM161200 25005KT P6SM BKN020
                       FM161800 01005KT P6SM SCT050 BKN200=
201109151723 TAF KCLM 151723Z 1518/1618 30006KT P6SM VCSH BKN045 OVC090 FM152100
                       30006KT P6SM BKN060 BKN090 FM160000 28010KT
                       P6SM SCT060 BKN200 FM161200 25005KT P6SM
                       BKN025=
201109151444 KCLM 151444Z 1515/1612 29005KT P6SM BKN060 FM151600 29005KT P6SM
                       VCSH BKN040 OVC060 FM152100 30006KT P6SM
                       BKN060 FM160000 28010KT P6SM BKN060=
201109151120 TAF KCLM 151120Z 1512/1612 29005KT P6SM SCT025 OVC060 FM151500
                       29005KT P6SM BKN025 OVC050 FM152100 30006KT
                       P6SM VCSH BKN025 OVC040 FM160000 28010KT
                       P6SM SCT025 OVC040=
201109150902 KCLM 150902Z 1509/1606 28009KT P6SM OVC070 FM151200 25005KT P6SM
                       BKN012 OVC040 FM152100 30006KT P6SM BKN025
                       OVC040 FM160000 28010KT P6SM SCT025 OVC040=
201109150521 TAF KCLM 150521Z 1506/1606 31006KT P6SM SCT003 OVC060
                      TEMPO 1506/1510 BKN003 OVC060 FM151000 25005KT
                       P6SM SCT005 BKN010 OVC025 FM152100 30006KT
                       P6SM BKN025 OVC040 FM160000 28010KT P6SM
                       SCT025 OVC040=
201109142332 TAF KCLM 142332Z 1500/1524 28006KT P6SM BKN060 FM150700 25005KT
                       P6SM BKN020 OVC035
                      TEMPO 1513/1517 OVC015 FM152100 30006KT P6SM
                       BKN030 OVC040=
201109141734 TAF KCLM 141734Z 1418/1518 30006KT P6SM OVC050 FM142200 28006KT
                       P6SM BKN060 FM150700 25005KT P6SM BKN020
                       OVC035
                      TEMPO 1513/1517 OVC015=
201109141120 TAF KCLM 141120Z 1412/1512 28004KT P6SM SCT003 OVC035
                      TEMPO 1412/1416 5SM BR BKN002 OVC035 FM141600
                       28005KT P6SM SCT005 OVC035 FM141800 30006KT
                       P6SM OVC040 FM142200 28006KT P6SM BKN040
                       BKN060 FM150700 25005KT P6SM BKN020 OVC035=
201109140958 KCLM 140958Z 1410/1506 28004KT P6SM SCT003 OVC035
                      TEMPO 1410/1414 5SM BR BKN002 OVC035 FM141400
                       28005KT P6SM SCT005 OVC035
                      TEMPO 1414/1417 BKN004 FM142000 30006KT P6SM
                       OVC035 FM142300 28006KT P6SM BKN040=
201109140520 TAF KCLM 140520Z 1406/1506 25005KT P6SM OVC022 FM141000 27004KT
                       P6SM OVC017 FM142000 30006KT P6SM OVC025
                       FM142300 28006KT P6SM OVC027=
201109132331 TAF KCLM 132331Z 1400/1424 32006KT P6SM OVC028 FM140400 VRB03KT
                       P6SM OVC022 FM141000 28004KT P6SM OVC015
                       FM141800 32006KT P6SM OVC020=
201109131744 TAF KCLM 131744Z 1318/1418 32003KT P6SM OVC025 FM132200 32006KT
                       P6SM BKN030 FM140400 VRB03KT P6SM OVC022
                       FM141000 28004KT P6SM OVC015=
201109131120 TAF KCLM 131120Z 1312/1412 00000KT P6SM OVC019 FM132000 32006KT
                       P6SM OVC025 FM132200 32006KT P6SM BKN030
                       FM140400 VRB03KT P6SM OVC022=
201109130522 TAF KCLM 130522Z 1306/1406 28007KT P6SM OVC019 FM131000 28006KT
                       P6SM OVC012 FM132000 32006KT P6SM OVC020
                       FM132200 32006KT P6SM SCT025=
201109130301 KCLM 130301Z 1303/1324 27009KT P6SM OVC019 FM130800 29006KT P6SM
                       OVC008 FM131800 32006KT P6SM OVC015 FM132200
                       34006KT P6SM SCT020=
201109122344 TAF KCLM 122344Z 1300/1324 33008KT P6SM SKC FM130600 29006KT P6SM
                       SCT008 FM131200 26003KT P6SM OVC008 FM131800
                       32006KT P6SM OVC015 FM132000 34006KT P6SM
                       SKC=
201109122230 KCLM 122230Z 1223/1318 32005KT P6SM SKC FM130600 29006KT P6SM BKN020
                       FM131200 26003KT P6SM OVC012=
201109121735 TAF KCLM 121735Z 1218/1318 29004KT P6SM OVC012 FM122200 32005KT
                       P6SM BKN015 FM130000 28008KT P6SM SKC FM130600
                       29006KT P6SM BKN020 FM131200 26003KT P6SM
                       OVC012=
201109121312 KCLM 121312Z 1213/1312 VRB03KT P6SM VCFG FEW005
                      TEMPO 1214/1217 BKN005 FM121800 32008KT P6SM
                       SKC FM130000 28008KT P6SM SKC=
201109121136 TAF KCLM 121136Z 1212/1312 28008KT P6SM SKC=
201109120532 TAF KCLM 120532Z 1206/1306 28010KT P6SM SKC=
201109112328 TAF KCLM 112328Z 1200/1224 VRB05KT P6SM SKC FM120300 28008KT P6SM
                       SKC FM120800 28010KT 3SM BR SCT002
                      TEMPO 1212/1216 1/2SM FG VV001 FM121700 27007KT
                       P6SM SCT005=
201109111720 TAF KCLM 111720Z 1118/1218 10006KT P6SM SKC FM120000 27007KT P6SM
                       SKC FM121000 27010KT 3SM BR SCT002
                      TEMPO 1212/1216 1/2SM FG VV001 FM121700 27007KT
                       P6SM SKC=
201109111132 TAF KCLM 111132Z 1112/1212 VRB03KT P6SM SKC FM111500 07006KT P6SM
                       SKC FM120000 VRB03KT P6SM SKC FM120600 28008KT
                       P6SM SKC=
201109110526 TAF KCLM 110526Z 1106/1206 VRB03KT P6SM SKC FM111300 07006KT P6SM
                       SKC FM120000 VRB03KT P6SM SKC=
201109102340 TAF KCLM 102340Z 1100/1124 09005KT P6SM SKC FM110200 VRB03KT P6SM
                       SKC FM111600 07004KT P6SM SKC=
201109101730 TAF KCLM 101730Z 1018/1118 07006KT P6SM SKC FM110000 VRB03KT P6SM
                       SKC=
201109101128 TAF KCLM 101128Z 1012/1112 VRB03KT P6SM SKC FM101800 07006KT P6SM
                       SKC FM110000 VRB03KT P6SM SKC=
201109100524 TAF KCLM 100524Z 1006/1106 VRB03KT P6SM SKC FM101800 07006KT P6SM
                       SKC FM110000 VRB03KT P6SM SKC=
201109092320 TAF KCLM 092320Z 1000/1024 VRB04KT P6SM SKC=
201109091720 TAF KCLM 091720Z 0918/1018 VRB04KT P6SM SKC=
201109091124 TAF KCLM 091124Z 0912/1012 26004KT P6SM SKC FM091300 25003KT P6SM
                       SCT002
                      TEMPO 0914/0917 2SM BR BKN002 FM091700 VRB03KT
                       P6SM VCFG SCT002 FM091800 07005KT P6SM SKC
                       FM100300 27005KT P6SM SKC=
201109090520 TAF KCLM 090520Z 0906/1006 28004KT P6SM SKC FM091000 28008KT 1/2SM
                       FG VV002
                      TEMPO 0915/0918 2SM BR BKN002 FM091800 VRB04KT
                       P6SM VCFG SCT002 FM092000 04005KT P6SM SKC
                       FM100300 27003KT P6SM SKC=
201109082320 TAF KCLM 082320Z 0900/0924 32008KT P6SM SKC FM091000 28008KT 1/2SM
                       FG VV002
                      TEMPO 0915/0918 2SM BR BKN002 FM091800 VRB04KT
                       P6SM VCFG SCT002 FM092000 32008KT P6SM SKC=
201109081720 TAF KCLM 081720Z 0818/0918 VRB04KT P6SM SKC FM090000 28010KT P6SM
                       SKC FM091000 28008KT 1/2SM FG VV002 FM091700
                       VRB04KT P6SM SCT002=
201109081134 TAF KCLM 081134Z 0812/0912 VRB03KT P6SM SKC FM082100 29008KT P6SM
                       SKC=
201109080532 TAF KCLM 080532Z 0806/0906 VRB03KT P6SM SKC FM082100 29008KT P6SM
                       SKC=
201109072320 TAF KCLM 072320Z 0800/0824 VRB04KT P6SM SKC=
201109071720 TAF KCLM 071720Z 0718/0818 VRB04KT P6SM SKC
                      TEMPO 0812/0816 3SM BR=
201109071129 TAF KCLM 071129Z 0712/0812 VRB03KT 6SM BR SKC
                      TEMPO 0712/0716 1/2SM FG VV001 FM071700 04005KT
                       P6SM SKC FM080000 35005KT P6SM SKC FM080400
                       28005KT P6SM SKC=
201109070921 KCLM 070921Z 0709/0806 VRB03KT 6SM BR SKC
                      TEMPO 0709/0712 1/4SM FG VV001 FM071200 VRB03KT
                       1SM BR VV001
                      TEMPO 0712/0716 1/4SM FG VV001 FM071700 04005KT
                       P6SM VCFG FEW004 FM071800 04005KT P6SM SKC
                       FM080000 34005KT P6SM SKC=
201109070733 KCLM 070733Z 0708/0806 VRB03KT 1SM BR VV001
                      TEMPO 0708/0712 1/4SM FG VV001 FM071200 VRB03KT
                       1SM BR VV001
                      TEMPO 0712/0716 1/4SM FG VV001 FM071700 04005KT
                       P6SM VCFG FEW004 FM071800 04005KT P6SM SKC
                       FM080000 34005KT P6SM SKC=
201109070709 KCLM 070709Z 0707/0806 VRB03KT 2SM BR BKN003
                      TEMPO 0707/0710 1/2SM FG VV001 FM071000 VRB03KT
                       1SM BR VV001
                      TEMPO 0710/0714 1/4SM FG VV001 FM071700 04005KT
                       P6SM VCFG FEW006 FM071800 04005KT P6SM SKC
                       FM080000 34005KT P6SM SKC=
201109070701 KCLM 070701Z 0707/0806 VRB03KT 5SM BR FEW003
                      TEMPO 0707/0709 1 1/2SM BR BKN003 FM070900
                       VRB03KT 2SM BR OVC003
                      TEMPO 0712/0716 1/4SM FG VV001 FM071700 04005KT
                       P6SM VCFG FEW006 FM071800 04005KT P6SM SKC
                       FM080000 34005KT P6SM SKC=
201109070541 TAF KCLM 070541Z 0706/0806 29005KT P6SM VCFG SKC FM070800 VRB03KT
                       6SM BR FEW003
                      TEMPO 0708/0712 2SM BR BKN003 FM071200 VRB03KT
                       2SM BR BKN003
                      TEMPO 0712/0716 1/4SM FG VV001 FM071700 04005KT
                       P6SM VCFG FEW006 FM071800 04005KT P6SM SKC
                       FM080000 34005KT P6SM SKC=
201109062320 TAF KCLM 062320Z 0700/0724 32007KT P6SM SKC
                      TEMPO 0712/0716 1/2SM FG=
201109061720 TAF KCLM 061720Z 0618/0718 32007KT P6SM SKC
                      TEMPO 0712/0716 1/2SM FG=
201109061458 KCLM 061458Z 0615/0712 VRB03KT P6SM SKC FM062200 30008KT P6SM SKC
                       FM070600 VRB03KT P6SM SKC=
201109061132 TAF KCLM 061132Z 0612/0712 26005KT P6SM VCFG SKC
                      TEMPO 0612/0616 1/2SM FG VV002 FM061700 35007KT
                       P6SM SKC FM070200 28007KT P6SM SKC FM070600
                       VRB03KT P6SM SKC=
201109060525 TAF KCLM 060525Z 0606/0706 29009KT P6SM SKC FM060900 26005KT P6SM
                       VCFG SKC FM061700 35007KT P6SM SKC FM070200
                       28007KT P6SM SKC=
201109060458 KCLM 060458Z 0605/0624 29009KT P6SM SKC FM060800 29007KT 1/2SM
                       FG VV002 FM061600 VRB03KT 3SM BR BKN003
                       FM062000 30007KT P6SM SCT005=
201109052320 TAF KCLM 052320Z 0600/0624 30010KT P6SM SKC FM060400 30008KT P6SM
                       VCFG SCT005 FM060800 30012KT 1/2SM FG VV002
                       FM061600 VRB03KT 3SM BR BKN003 FM062000
                       30007KT P6SM SCT005=
201109051915 KCLM 051915Z 0519/0618 30008KT P6SM VCFG SCT005 FM060500 30012KT
                       1/2SM FG VV002 FM061600 VRB03KT 3SM BR BKN003=
201109051720 TAF KCLM 051720Z 0518/0618 28012KT P6SM VCFG SCT005 FM060500 29005KT
                       1/2SM FG VV002 FM061600 VRB03KT 3SM BR BKN003=
201109051637 KCLM 051637Z 0517/0612 00000KT 5SM BR BKN003 FM051800 32006KT P6SM
                       SCT005 FM060100 28012KT P6SM VCFG SCT005
                       FM060500 29005KT 1/2SM FG VV001=
201109051439 KCLM 051439Z 0515/0612 00000KT 1/2SM FG VV001
                      TEMPO 0515/0518 2SM BR BKN002 FM051800 32006KT
                       P6SM SKC FM060100 28012KT P6SM SKC FM060900
                       29005KT 1/2SM FG VV001=
201109051257 KCLM 051257Z 0513/0612 00000KT P6SM SCT003
                      TEMPO 0513/0516 1SM BR OVC003 FM051800 32009KT
                       P6SM SKC FM060100 28009KT P6SM SKC FM060600
                       26005KT P6SM SKC=
201109051121 TAF KCLM 051121Z 0512/0612 28005KT P6SM VCFG SCT250 FM051800 32009KT
                       P6SM SKC FM060100 28009KT P6SM SKC FM060600
                       26005KT P6SM SKC=
201109050533 TAF KCLM 050533Z 0506/0606 27005KT P6SM VCFG SCT250 FM051800 32009KT
                       P6SM SCT250 FM060100 28009KT P6SM SKC=
201109042320 TAF KCLM 042320Z 0500/0524 27004KT P6SM SKC FM050200 28007KT P6SM
                       SKC FM051000 25004KT P6SM SCT005
                      TEMPO 0510/0514 BKN005=
201109041720 TAF KCLM 041720Z 0418/0518 VRB03KT P6SM SKC FM050200 28007KT P6SM
                       SKC FM051000 25004KT P6SM SKC=
201109041124 TAF KCLM 041124Z 0412/0512 VRB03KT P6SM SKC FM050200 28007KT P6SM
                       SKC FM051000 25004KT P6SM SKC=
201109040525 TAF KCLM 040525Z 0406/0506 VRB03KT P6SM SKC FM050200 28007KT P6SM
                       SKC=
201109032335 TAF KCLM 032335Z 0400/0424 09006KT P6SM SKC FM040300 VRB03KT P6SM
                       SKC FM042100 27006KT P6SM SKC=
201109031720 TAF KCLM 031720Z 0318/0418 09006KT P6SM SKC FM040300 VRB03KT P6SM
                       SKC=
201109031134 TAF KCLM 031134Z 0312/0412 VRB03KT P6SM SKC FM031700 07006KT P6SM
                       SKC FM040000 VRB03KT P6SM SKC=
201109030530 TAF KCLM 030530Z 0306/0406 VRB03KT P6SM VCFG SKC FM031700 07006KT
                       P6SM SKC FM040000 VRB03KT P6SM SKC=
201109022325 TAF KCLM 022325Z 0300/0324 VRB05KT P6SM SKC=
201109021720 TAF KCLM 021720Z 0218/0318 31004KT P6SM SKC FM021900 30005KT P6SM
                       SKC FM030300 28007KT P6SM SKC FM030700 VRB03KT
                       P6SM SKC=
201109021203 KCLM 021203Z 0212/0312 27006KT P6SM SCT006 BKN035
                      TEMPO 0212/0216 BKN006 FM021800 VRB03KT P6SM
                       SCT012 FM021900 VRB03KT P6SM SKC FM030300
                       28006KT P6SM SKC=
201109021120 TAF KCLM 021120Z 0212/0312 27006KT P6SM OVC004 FM021800 VRB03KT
                       P6SM SCT012 FM021900 VRB03KT P6SM SKC FM030300
                       28006KT P6SM SKC=
201109020859 KCLM 020859Z 0209/0306 29006KT P6SM BKN006
                      TEMPO 0209/0212 SCT006 FM021200 26004KT P6SM
                       OVC006 FM021900 27005KT P6SM SCT020 FM022100
                       27007KT P6SM SKC=
201109020525 TAF KCLM 020525Z 0206/0306 31007KT P6SM SKC
                      TEMPO 0209/0212 BKN015 FM021200 26004KT P6SM
                       OVC015 FM021900 27005KT P6SM SCT020 FM022100
                       27007KT P6SM SKC=
201109012330 TAF KCLM 012330Z 0200/0224 28010KT P6SM BKN080 BKN120 FM020500
                       26007KT P6SM SCT070
                      TEMPO 0209/0212 BKN015 FM021200 26004KT P6SM
                       OVC015 FM021900 27005KT P6SM SCT020 FM022100
                       27007KT P6SM SKC=
201109011721 TAF KCLM 011721Z 0118/0218 27006KT P6SM SCT150 BKN200 FM012300
                       28010KT P6SM SCT120 BKN200 FM021000 26004KT
                       P6SM OVC015=
201109011607 KCLM 011607Z 0116/0212 VRB03KT 3SM BR SCT001
                      TEMPO 0116/0118 1/2SM FG BKN001 FM011800
                       VRB03KT P6SM BKN200 FM012300 28010KT P6SM
                       SCT120 BKN200 FM021000 26004KT P6SM OVC015=
201109011256 KCLM 011256Z 0113/0212 VRB03KT 3SM BR SCT002
                      TEMPO 0113/0116 1/2SM FG VV001 FM011700 VRB03KT
                       P6SM BKN200 FM012300 28010KT P6SM SCT120
                       BKN200 FM021000 26004KT P6SM OVC015=
201109011123 TAF KCLM 011123Z 0112/0212 00000KT P6SM SKC FM011300 VRB03KT P6SM
                       SCT004
                      TEMPO 0113/0116 BKN004 FM011700 VRB03KT P6SM
                       BKN200 FM012300 28010KT P6SM SCT120 BKN200
                       FM021000 26004KT P6SM OVC015=
201109010525 TAF KCLM 010525Z 0106/0206 00000KT P6SM SKC FM011300 VRB03KT P6SM
                       SCT018 BKN250 FM011800 VRB03KT P6SM BKN200
                       FM012300 28006KT P6SM SCT120 BKN200=