##########################################################
# Query made at 02/16/2025 02:06:11 UTC
# Time interval: from 10/01/2011 00:00  to 10/31/2011 23:59  UTC
##########################################################

##########################################################
# KCLM, Port Angeles, William R. Fairchild International Airport (United States)
# WMO index: -----. WIGOS ID: Unknown
# Latitude 48-07-20N. Longitude 123-30-19W. Altitude 87 m.
##########################################################

###################################
#  METAR/SPECI from KCLM
###################################
201110312353 METAR KCLM 312353Z AUTO 31008KT 10SM CLR 10/03 A3039 RMK AO2 SLP293 T01000033 10128 20100 53008=
201110312253 METAR KCLM 312253Z AUTO 31011G16KT 10SM CLR 11/04 A3038 RMK AO2 SLP290 T01110039=
201110312153 METAR KCLM 312153Z AUTO 32011G17KT 10SM CLR 11/04 A3038 RMK AO2 SLP288 T01110044=
201110312053 METAR KCLM 312053Z AUTO 30014G24KT 10SM BKN050 12/00 A3037 RMK AO2 SLP285 T01170000 51003=
201110311953 METAR KCLM 311953Z AUTO 26011G21KT 10SM FEW046 BKN055 12/01 A3037 RMK AO2 SLP285 T01220006=
201110311853 METAR KCLM 311853Z AUTO 30015G22KT 10SM SCT044 12/02 A3037 RMK AO2 SLP287 T01220017=
201110311753 METAR KCLM 311753Z AUTO 30011G18KT 10SM CLR 11/02 A3036 RMK AO2 SLP282 T01110017 10111 20072 51017=
201110311653 METAR KCLM 311653Z AUTO 26008KT 10SM BKN037 BKN050 11/03 A3035 RMK AO2 SLP280 T01060033=
201110311553 METAR KCLM 311553Z AUTO 26010KT 10SM CLR 09/03 A3034 RMK AO2 SLP274 T00890028=
201110311453 METAR KCLM 311453Z AUTO 25009KT 10SM CLR 08/03 A3031 RMK AO2 SLP265 T00780028 53015=
201110311353 METAR KCLM 311353Z AUTO 24009KT 10SM CLR 08/03 A3030 RMK AO2 SLP261 T00780033=
201110311253 METAR KCLM 311253Z AUTO 25012KT 10SM CLR 08/03 A3028 RMK AO2 SLP255 T00780033=
201110311153 METAR KCLM 311153Z AUTO 25008KT 10SM FEW048 08/03 A3027 RMK AO2 SLP250 T00780033 10089 20078 51014=
201110311053 METAR KCLM 311053Z AUTO 25011KT 10SM CLR 08/03 A3026 RMK AO2 SLP248 T00780028=
201110310953 METAR KCLM 310953Z AUTO 25011KT 10SM CLR 08/03 A3024 RMK AO2 SLP241 T00780033=
201110310853 METAR KCLM 310853Z AUTO 25010KT 10SM FEW038 08/03 A3022 RMK AO2 SLP236 T00780033 53014=
201110310753 METAR KCLM 310753Z AUTO 26009KT 10SM SCT039 08/03 A3021 RMK AO2 SLP232 T00830028 401220033=
201110310653 METAR KCLM 310653Z AUTO 26008KT 10SM FEW043 08/02 A3019 RMK AO2 SLP225 T00780022 TSNO=
201110310553 METAR KCLM 310553Z AUTO 28003KT 10SM FEW045 08/01 A3018 RMK AO2 SLP221 60000 T00830011 10100 20078 53018 TSNO=
201110310453 METAR KCLM 310453Z AUTO 24009KT 10SM SCT050 09/02 A3016 RMK AO2 SLP214 T00890017 TSNO=
201110310353 METAR KCLM 310353Z AUTO 24010KT 10SM CLR 09/03 A3014 RMK AO2 SLP207 T00890028 TSNO=
201110310253 METAR KCLM 310253Z AUTO 27012KT 10SM CLR 09/03 A3013 RMK AO2 PK WND 29028/0221 SLP204 60000 T00940028 53013 TSNO=
201110310153 METAR KCLM 310153Z AUTO 28010G18KT 10SM CLR 09/04 A3011 RMK AO2 SLP196 T00940044 TSNO=
201110310053 METAR KCLM 310053Z AUTO 25009G15KT 10SM FEW026 BKN070 OVC080 10/06 A3009 RMK AO2 RAE31 SLP191 P0000 T01000061 TSNO=
201110310045 SPECI KCLM 310045Z AUTO 28010KT 10SM SCT026 OVC070 10/07 A3009 RMK AO2 RAE31 P0000 TSNO=
201110310045 SPECI KCLM 310045Z AUTO 28010KT 10SM SCT026 OVC070 10/07 A3009 RMK AO2 RAE31 P0000 TSNO=
201110302353 METAR KCLM 302353Z AUTO 28010KT 6SM -RA BR OVC019 09/07 A3009 RMK AO2 PK WND 29026/2308 RAB20 SLP190 P0000 60000 T00940072 10122 20094 53016 TSNO=
201110302334 SPECI KCLM 302334Z AUTO 29012G20KT 4SM -RA BR OVC017 09/07 A3009 RMK AO2 PK WND 29026/2308 RAB20 P0000 TSNO=
201110302334 SPECI KCLM 302334Z AUTO 29012G20KT 4SM -RA BR OVC017 09/07 A3009 RMK AO2 PK WND 29026/2308 RAB20 P0000 TSNO=
201110302327 SPECI KCLM 302327Z AUTO 29011G20KT 2 1/2SM -RA BR FEW008 OVC015 09/07 A3009 RMK AO2 PK WND 29026/2308 RAB20 P0000 TSNO=
201110302327 SPECI KCLM 302327Z AUTO 29011G20KT 2 1/2SM -RA BR FEW008 OVC015 09/07 A3009 RMK AO2 PK WND 29026/2308 RAB20 P0000 TSNO=
201110302320 SPECI KCLM 302320Z AUTO 29012G25KT 2 1/2SM -RA BR SCT006 OVC013 09/07 A3009 RMK AO2 PK WND 29026/2308 RAB20 P0000 TSNO=
201110302320 SPECI KCLM 302320Z AUTO 29012G25KT 2 1/2SM -RA BR SCT006 OVC013 09/07 A3009 RMK AO2 PK WND 29026/2308 RAB20 P0000 TSNO=
201110302301 SPECI KCLM 302301Z AUTO 29016G24KT 5SM BR BKN006 OVC011 09/08 A3008 RMK AO2 CIG 003V008 TSNO=
201110302301 SPECI KCLM 302301Z AUTO 29016G24KT 5SM BR BKN006 OVC011 09/08 A3008 RMK AO2 CIG 003V008 TSNO=
201110302253 METAR KCLM 302253Z AUTO 29017G29KT 5SM BR OVC004 09/08 A3008 RMK AO2 PK WND 30029/2245 CIG 002V007 SLP187 T00940078 TSNO=
201110302226 SPECI KCLM 302226Z AUTO 30011G24KT 10SM BKN004 BKN008 OVC060 10/08 A3006 RMK AO2=
201110302226 SPECI KCLM 302226Z AUTO 30011G24KT 10SM BKN004 BKN008 OVC060 10/08 A3006 RMK AO2=
201110302219 SPECI KCLM 302219Z AUTO 30016G24KT 10SM SCT004 BKN008 OVC060 11/08 A3006 RMK AO2=
201110302219 SPECI KCLM 302219Z AUTO 30016G24KT 10SM SCT004 BKN008 OVC060 11/08 A3006 RMK AO2=
201110302203 SPECI KCLM 302203Z AUTO 00000KT 10SM SCT008 OVC060 12/09 A3004 RMK AO2=
201110302203 SPECI KCLM 302203Z AUTO 00000KT 10SM SCT008 OVC060 12/09 A3004 RMK AO2=
201110302153 METAR KCLM 302153Z AUTO 02003KT 10SM BKN008 OVC060 12/09 A3004 RMK AO2 SLP172 T01220094=
201110302139 SPECI KCLM 302139Z AUTO 00000KT 10SM SCT008 OVC060 12/09 A3004 RMK AO2=
201110302139 SPECI KCLM 302139Z AUTO 00000KT 10SM SCT008 OVC060 12/09 A3004 RMK AO2=
201110302120 SPECI KCLM 302120Z AUTO 00000KT 10SM SCT004 BKN010 OVC090 12/09 A3004 RMK AO2=
201110302120 SPECI KCLM 302120Z AUTO 00000KT 10SM SCT004 BKN010 OVC090 12/09 A3004 RMK AO2=
201110302100 SPECI KCLM 302100Z AUTO VRB03KT 10SM OVC004 11/09 A3004 RMK AO2=
201110302100 SPECI KCLM 302100Z AUTO VRB03KT 10SM OVC004 11/09 A3004 RMK AO2=
201110302053 METAR KCLM 302053Z AUTO 33003KT 10SM OVC006 11/09 A3004 RMK AO2 CIG 004V008 SLP175 60000 T01110089 50004=
201110301953 METAR KCLM 301953Z AUTO 31007KT 10SM OVC006 11/09 A3005 RMK AO2 SLP177 T01110089 TSNO=
201110301853 METAR KCLM 301853Z AUTO 00000KT 10SM OVC006 10/08 A3005 RMK AO2 RAE21 CIG 005V009 SLP176 P0000 T01000083=
201110301840 SPECI KCLM 301840Z AUTO 00000KT 10SM FEW004 OVC008 10/08 A3005 RMK AO2 RAE21 P0000=
201110301840 SPECI KCLM 301840Z AUTO 00000KT 10SM FEW004 OVC008 10/08 A3005 RMK AO2 RAE21 P0000=
201110301816 SPECI KCLM 301816Z AUTO 00000KT 9SM -RA SCT004 OVC014 10/08 A3004 RMK AO2 P0000=
201110301816 SPECI KCLM 301816Z AUTO 00000KT 9SM -RA SCT004 OVC014 10/08 A3004 RMK AO2 P0000=
201110301807 SPECI KCLM 301807Z AUTO 00000KT 5SM -RA BR BKN004 OVC016 10/08 A3003 RMK AO2 P0000=
201110301807 SPECI KCLM 301807Z AUTO 00000KT 5SM -RA BR BKN004 OVC016 10/08 A3003 RMK AO2 P0000=
201110301753 METAR KCLM 301753Z AUTO 30003KT 9SM -RA SCT004 BKN018 OVC041 10/08 A3003 RMK AO2 RAB51 SLP170 P0000 60000 T01000083 10100 20078 53010=
201110301653 METAR KCLM 301653Z AUTO 35004KT 10SM FEW005 SCT090 09/07 A3000 RMK AO2 SLP161 T00890072=
201110301642 SPECI KCLM 301642Z AUTO 00000KT 10SM SCT005 SCT055 BKN090 09/07 A3000 RMK AO2=
201110301642 SPECI KCLM 301642Z AUTO 00000KT 10SM SCT005 SCT055 BKN090 09/07 A3000 RMK AO2=
201110301603 SPECI KCLM 301603Z AUTO 00000KT 8SM OVC005 08/07 A3001 RMK AO2 CIG 003V007=
201110301603 SPECI KCLM 301603Z AUTO 00000KT 8SM OVC005 08/07 A3001 RMK AO2 CIG 003V007=
201110301553 METAR KCLM 301553Z AUTO 00000KT 7SM OVC003 08/07 A3001 RMK AO2 RAB41E52 SLP163 P0000 T00830072=
201110301540 SPECI KCLM 301540Z AUTO 24003KT 5SM BR OVC003 08/07 A3001 RMK AO2=
201110301540 SPECI KCLM 301540Z AUTO 24003KT 5SM BR OVC003 08/07 A3001 RMK AO2=
201110301527 SPECI KCLM 301527Z AUTO 00000KT 8SM BKN005 OVC065 08/07 A3002 RMK AO2=
201110301527 SPECI KCLM 301527Z AUTO 00000KT 8SM BKN005 OVC065 08/07 A3002 RMK AO2=
201110301516 SPECI KCLM 301516Z AUTO 33003KT 6SM BR SCT005 OVC060 08/07 A3000 RMK AO2=
201110301516 SPECI KCLM 301516Z AUTO 33003KT 6SM BR SCT005 OVC060 08/07 A3000 RMK AO2=
201110301453 METAR KCLM 301453Z AUTO 00000KT 10SM OVC060 08/07 A3000 RMK AO2 SLP160 T00830067 56018=
201110301427 SPECI KCLM 301427Z AUTO 00000KT 6SM BR FEW007 OVC055 08/07 A3001 RMK AO2=
201110301427 SPECI KCLM 301427Z AUTO 00000KT 6SM BR FEW007 OVC055 08/07 A3001 RMK AO2=
201110301353 METAR KCLM 301353Z AUTO 00000KT 8SM OVC005 08/07 A3002 RMK AO2 CIG 005V009 SLP165 T00830067=
201110301324 SPECI KCLM 301324Z AUTO 14003KT 9SM OVC005 08/07 A3002 RMK AO2=
201110301324 SPECI KCLM 301324Z AUTO 14003KT 9SM OVC005 08/07 A3002 RMK AO2=
201110301253 METAR KCLM 301253Z AUTO 19003KT 10SM OVC003 08/07 A3003 RMK AO2 SLP169 T00830067=
201110301153 METAR KCLM 301153Z AUTO 23003KT 10SM OVC003 08/06 A3005 RMK AO2 RAB15E29 SLP178 P0000 60000 T00780061 10078 20033 55017=
201110301121 SPECI KCLM 301121Z AUTO 25003KT 10SM -RA BKN003 OVC060 07/06 A3005 RMK AO2 RAB15 P0000=
201110301121 SPECI KCLM 301121Z AUTO 25003KT 10SM -RA BKN003 OVC060 07/06 A3005 RMK AO2 RAB15 P0000=
201110301112 SPECI KCLM 301112Z AUTO 27004KT 10SM SCT003 OVC060 07/06 A3005 RMK AO2=
201110301112 SPECI KCLM 301112Z AUTO 27004KT 10SM SCT003 OVC060 07/06 A3005 RMK AO2=
201110301053 METAR KCLM 301053Z AUTO 29003KT 10SM OVC060 07/06 A3004 RMK AO2 SLP174 T00720056=
201110300953 METAR KCLM 300953Z AUTO 00000KT 10SM SCT080 BKN095 BKN120 04/03 A3005 RMK AO2 SLP178 T00440033=
201110300906 SPECI KCLM 300906Z AUTO 00000KT 8SM FEW010 SCT080 04/03 A3010 RMK AO2=
201110300906 SPECI KCLM 300906Z AUTO 00000KT 8SM FEW010 SCT080 04/03 A3010 RMK AO2=
201110300853 METAR KCLM 300853Z AUTO 25003KT 2SM BR CLR 04/03 A3010 RMK AO2 SLP196 T00390028 56027=
201110300815 SPECI KCLM 300815Z AUTO 23005KT 10SM FEW011 06/04 A3011 RMK AO2=
201110300815 SPECI KCLM 300815Z AUTO 23005KT 10SM FEW011 06/04 A3011 RMK AO2=
201110300804 SPECI KCLM 300804Z AUTO 23003KT 2SM BR SCT011 04/03 A3012 RMK AO2 VIS 1V3=
201110300804 SPECI KCLM 300804Z AUTO 23003KT 2SM BR SCT011 04/03 A3012 RMK AO2 VIS 1V3=
201110300753 METAR KCLM 300753Z AUTO 00000KT 1 1/4SM BR BKN012 05/04 A3012 RMK AO2 VIS 1/2V5 SLP201 T00500039 401220050=
201110300750 SPECI KCLM 300750Z AUTO 00000KT 2 1/2SM BR BKN012 06/05 A3012 RMK AO2 VIS 3/4V5 401220056=
201110300750 SPECI KCLM 300750Z AUTO 00000KT 2 1/2SM BR BKN012 06/05 A3012 RMK AO2 VIS 3/4V5 401220056=
201110300653 METAR KCLM 300653Z AUTO 23004KT 7SM OVC012 07/05 A3016 RMK AO2 SLP215 T00670050=
201110300553 METAR KCLM 300553Z AUTO 22003KT 9SM FEW006 BKN012 OVC022 07/05 A3019 RMK AO2 SLP223 T00670050 10106 20061 58008=
201110300546 SPECI KCLM 300546Z AUTO 23003KT 10SM SCT006 BKN012 OVC022 07/06 A3019 RMK AO2=
201110300546 SPECI KCLM 300546Z AUTO 23003KT 10SM SCT006 BKN012 OVC022 07/06 A3019 RMK AO2=
201110300514 SPECI KCLM 300514Z AUTO 24004KT 10SM BKN006 07/06 A3020 RMK AO2=
201110300514 SPECI KCLM 300514Z AUTO 24004KT 10SM BKN006 07/06 A3020 RMK AO2=
201110300453 METAR KCLM 300453Z AUTO 00000KT 8SM FEW006 07/06 A3021 RMK AO2 SLP229 T00670056=
201110300449 SPECI KCLM 300449Z AUTO 00000KT 7SM FEW006 07/05 A3020 RMK AO2=
201110300449 SPECI KCLM 300449Z AUTO 00000KT 7SM FEW006 07/05 A3020 RMK AO2=
201110300353 METAR KCLM 300353Z AUTO 00000KT 4SM BR OVC095 07/06 A3021 RMK AO2 SLP232 T00670056=
201110300346 SPECI KCLM 300346Z AUTO 00000KT 4SM BR BKN095 07/06 A3021 RMK AO2=
201110300346 SPECI KCLM 300346Z AUTO 00000KT 4SM BR BKN095 07/06 A3021 RMK AO2=
201110300339 SPECI KCLM 300339Z AUTO 00000KT 2 1/2SM BR BKN095 07/06 A3021 RMK AO2 VIS 3/4V5=
201110300339 SPECI KCLM 300339Z AUTO 00000KT 2 1/2SM BR BKN095 07/06 A3021 RMK AO2 VIS 3/4V5=
201110300334 SPECI KCLM 300334Z AUTO 00000KT 3/4SM BR BKN095 07/06 A3021 RMK AO2=
201110300334 SPECI KCLM 300334Z AUTO 00000KT 3/4SM BR BKN095 07/06 A3021 RMK AO2=
201110300326 SPECI KCLM 300326Z AUTO 00000KT 1 3/4SM BR SCT095 07/06 A3021 RMK AO2=
201110300326 SPECI KCLM 300326Z AUTO 00000KT 1 3/4SM BR SCT095 07/06 A3021 RMK AO2=
201110300253 METAR KCLM 300253Z AUTO 00000KT 6SM BR OVC100 08/07 A3022 RMK AO2 SLP235 T00780067 58015=
201110300153 METAR KCLM 300153Z AUTO 24003KT 10SM BKN080 09/07 A3025 RMK AO2 SLP243 T00890072=
201110300053 METAR KCLM 300053Z AUTO 00000KT 10SM OVC080 09/07 A3025 RMK AO2 SLP245 T00940072=
201110292353 METAR KCLM 292353Z AUTO 00000KT 10SM BKN075 11/08 A3027 RMK AO2 SLP250 T01060078 10122 20094 58013=
201110292253 METAR KCLM 292253Z AUTO 34003KT 10SM BKN044 OVC080 11/08 A3029 RMK AO2 SLP257 T01060078=
201110292153 METAR KCLM 292153Z AUTO 00000KT 10SM OVC080 12/07 A3029 RMK AO2 SLP258 T01220072=
201110292053 METAR KCLM 292053Z AUTO 00000KT 10SM OVC100 11/07 A3030 RMK AO2 SLP263 T01110072 50002=
201110291953 METAR KCLM 291953Z AUTO 02003KT 10SM BKN085 OVC100 12/07 A3031 RMK AO2 SLP263 T01170072=
201110291853 METAR KCLM 291853Z AUTO 00000KT 10SM OVC100 11/06 A3031 RMK AO2 SLP265 T01110056=
201110291753 METAR KCLM 291753Z AUTO 33003KT 10SM OVC110 09/06 A3030 RMK AO2 PRESRR SLP260 T00940056 10106 20056 53019=
201110291653 METAR KCLM 291653Z AUTO 00000KT 10SM OVC100 11/06 A3026 RMK AO2 SLP249 T01060061=
201110291553 METAR KCLM 291553Z AUTO 00000KT 10SM SCT100 06/04 A3026 RMK AO2 SLP247 T00610044=
201110291453 METAR KCLM 291453Z AUTO 00000KT 10SM BKN100 06/04 A3024 RMK AO2 SLP242 T00610039 51018=
201110291353 METAR KCLM 291353Z AUTO 22003KT 10SM SCT060 OVC110 07/04 A3023 RMK AO2 SLP237 T00720039=
201110291253 METAR KCLM 291253Z AUTO 21005KT 10SM FEW060 SCT120 07/04 A3022 RMK AO2 SLP234 T00720039=
201110291153 METAR KCLM 291153Z AUTO 25008KT 10SM CLR 08/04 A3019 RMK AO2 SLP223 7//// T00830044 10094 20072 53015=
201110291053 METAR KCLM 291053Z AUTO 27008KT 10SM FEW055 08/05 A3017 RMK AO2 SLP217 T00780050=
201110290953 METAR KCLM 290953Z AUTO 24005KT 10SM CLR 08/04 A3015 RMK AO2 SLP211 T00830044=
201110290853 METAR KCLM 290853Z AUTO 24008KT 10SM FEW060 08/06 A3014 RMK AO2 SLP208 T00830056 51024=
201110290753 METAR KCLM 290753Z AUTO 27008KT 10SM CLR 08/05 A3012 RMK AO2 SLP201 T00830050 401110083=
201110290653 METAR KCLM 290653Z AUTO 24009KT 10SM OVC060 09/06 A3010 RMK AO2 SLP193 T00940061=
201110290553 METAR KCLM 290553Z AUTO 25007KT 10SM OVC070 09/06 A3007 RMK AO2 SLP184 60000 T00940061 10111 20094 53030=
201110290453 METAR KCLM 290453Z AUTO 24007KT 10SM OVC060 10/06 A3004 RMK AO2 SLPNO T01000061=
201110290353 METAR KCLM 290353Z AUTO 24005KT 10SM FEW050 OVC065 10/06 A3001 RMK AO2 RAE0255 SLPNO P0000 T01000056=
201110290253 METAR KCLM 290253Z AUTO 29006KT 10SM -RA OVC050 09/07 A2998 RMK AO2 RAB42 SLPNO P0000 60000 T00940072 51031=
201110290153 METAR KCLM 290153Z AUTO 29006KT 10SM FEW014 SCT045 OVC065 10/08 A2995 RMK AO2 RAB0055E32 SLPNO P0000 T01000078=
201110290053 METAR KCLM 290053Z AUTO 30010KT 10SM BKN050 OVC060 10/07 A2992 RMK AO2 SLPNO T01000072=
201110282353 METAR KCLM 282353Z AUTO 28006KT 10SM BKN048 11/07 A2989 RMK AO2 SLPNO 60023 T01110072 10111 20083 51033=
201110282253 METAR KCLM 282253Z AUTO 25006KT 10SM FEW032 BKN060 11/08 A2986 RMK AO2 RAE31 SLPNO P0002 T01060083=
201110282237 SPECI KCLM 282237Z AUTO 23003KT 10SM SCT011 BKN031 OVC060 10/08 A2986 RMK AO2 RAE31 P0002=
201110282237 SPECI KCLM 282237Z AUTO 23003KT 10SM SCT011 BKN031 OVC060 10/08 A2986 RMK AO2 RAE31 P0002=
201110282227 SPECI KCLM 282227Z AUTO 00000KT 6SM -RA BR FEW005 BKN012 OVC060 09/08 A2986 RMK AO2 P0002=
201110282227 SPECI KCLM 282227Z AUTO 00000KT 6SM -RA BR FEW005 BKN012 OVC060 09/08 A2986 RMK AO2 P0002=
201110282213 SPECI KCLM 282213Z AUTO 00000KT 2SM -RA BR FEW005 OVC010 09/08 A2986 RMK AO2 P0002=
201110282213 SPECI KCLM 282213Z AUTO 00000KT 2SM -RA BR FEW005 OVC010 09/08 A2986 RMK AO2 P0002=
201110282204 SPECI KCLM 282204Z AUTO 30004KT 3SM -RA BR FEW005 OVC012 09/07 A2987 RMK AO2 P0001=
201110282204 SPECI KCLM 282204Z AUTO 30004KT 3SM -RA BR FEW005 OVC012 09/07 A2987 RMK AO2 P0001=
201110282153 METAR KCLM 282153Z AUTO 25004KT 2 1/2SM -RA BR FEW002 BKN012 OVC018 09/07 A2985 RMK AO2 RAB01 SLPNO P0002 T00890072=
201110282146 SPECI KCLM 282146Z AUTO 23004KT 2 1/2SM -RA BR FEW002 BKN014 OVC043 09/07 A2985 RMK AO2 RAB01 P0001=
201110282146 SPECI KCLM 282146Z AUTO 23004KT 2 1/2SM -RA BR FEW002 BKN014 OVC043 09/07 A2985 RMK AO2 RAB01 P0001=
201110282144 SPECI KCLM 282144Z AUTO 23004KT 3SM -RA BR FEW002 BKN016 OVC043 09/07 A2985 RMK AO2 RAB01 P0001=
201110282144 SPECI KCLM 282144Z AUTO 23004KT 3SM -RA BR FEW002 BKN016 OVC043 09/07 A2985 RMK AO2 RAB01 P0001=
201110282053 METAR KCLM 282053Z AUTO 14005KT 10SM FEW006 SCT046 BKN065 09/08 A2979 RMK AO2 RAE51 PRESFR SLPNO P0007 60019 T00940078 58010=
201110282046 SPECI KCLM 282046Z AUTO 14006KT 10SM -RA SCT004 BKN044 BKN070 09/08 A2981 RMK AO2 P0007=
201110282046 SPECI KCLM 282046Z AUTO 14006KT 10SM -RA SCT004 BKN044 BKN070 09/08 A2981 RMK AO2 P0007=
201110282025 SPECI KCLM 282025Z AUTO 14007KT 3SM -RA BR OVC004 09/07 A2984 RMK AO2 PRESFR P0007=
201110282025 SPECI KCLM 282025Z AUTO 14007KT 3SM -RA BR OVC004 09/07 A2984 RMK AO2 PRESFR P0007=
201110282006 SPECI KCLM 282006Z AUTO 28003KT 1 3/4SM RA BR BKN004 OVC017 08/07 A2987 RMK AO2 P0003=
201110282006 SPECI KCLM 282006Z AUTO 28003KT 1 3/4SM RA BR BKN004 OVC017 08/07 A2987 RMK AO2 P0003=
201110281959 SPECI KCLM 281959Z AUTO 32007KT 2SM RA BR BKN006 OVC021 08/07 A2988 RMK AO2 PRESRR P0001=
201110281959 SPECI KCLM 281959Z AUTO 32007KT 2SM RA BR BKN006 OVC021 08/07 A2988 RMK AO2 PRESRR P0001=
201110281953 METAR KCLM 281953Z AUTO 30007KT 1 3/4SM -RA BR FEW006 BKN021 OVC060 08/07 A2986 RMK AO2 PRESRR SLPNO P0011 T00830067=
201110281947 SPECI KCLM 281947Z AUTO 00000KT 1 3/4SM RA BR BKN021 OVC060 08/07 A2985 RMK AO2 P0009=
201110281947 SPECI KCLM 281947Z AUTO 00000KT 1 3/4SM RA BR BKN021 OVC060 08/07 A2985 RMK AO2 P0009=
201110281853 METAR KCLM 281853Z AUTO 06004KT 4SM -RA BR OVC029 09/07 A2980 RMK AO2 SLPNO P0001 T00890067=
201110281805 SPECI KCLM 281805Z AUTO 10004KT 7SM -RA BKN029 BKN037 BKN047 09/06 A2982 RMK AO2 P0000=
201110281805 SPECI KCLM 281805Z AUTO 10004KT 7SM -RA BKN029 BKN037 BKN047 09/06 A2982 RMK AO2 P0000=
201110281753 METAR KCLM 281753Z AUTO 08003KT 9SM -RA BKN031 BKN049 09/06 A2982 RMK AO2 RAB53 SLPNO 6//// T00940061=
201110281700 METAR KCLM NIL=
201110281553 METAR KCLM 281553Z AUTO 28003KT 10SM OVC100 07/05 A2988 RMK AO2 SLP120 T00720050=
201110281453 METAR KCLM 281453Z AUTO 00000KT 10SM OVC095 07/04 A2989 RMK AO2 SLP124 T00720044 58028=
201110281353 METAR KCLM 281353Z AUTO 00000KT 10SM SCT011 OVC110 07/04 A2993 RMK AO2 SLP137 T00670044=
201110281253 METAR KCLM 281253Z AUTO 00000KT 10SM OVC011 07/04 A2997 RMK AO2 SLP150 T00670039=
201110281235 SPECI KCLM 281235Z AUTO 29004KT 10SM BKN011 OVC100 07/04 A2998 RMK AO2=
201110281235 SPECI KCLM 281235Z AUTO 29004KT 10SM BKN011 OVC100 07/04 A2998 RMK AO2=
201110281153 METAR KCLM 281153Z AUTO 13007KT 10SM FEW013 BKN100 07/04 A2998 RMK AO2 SLP152 T00670039 10072 20050 58019=
201110281143 SPECI KCLM 281143Z AUTO 14004KT 10SM SCT013 OVC100 07/04 A2999 RMK AO2=
201110281143 SPECI KCLM 281143Z AUTO 14004KT 10SM SCT013 OVC100 07/04 A2999 RMK AO2=
201110281053 METAR KCLM 281053Z AUTO 20003KT 10SM BKN017 OVC120 07/04 A3002 RMK AO2 SLP169 T00670044=
201110281042 SPECI KCLM 281042Z AUTO 24005KT 10SM SCT017 BKN120 07/04 A3002 RMK AO2=
201110281042 SPECI KCLM 281042Z AUTO 24005KT 10SM SCT017 BKN120 07/04 A3002 RMK AO2=
201110281025 SPECI KCLM 281025Z AUTO 23004KT 10SM BKN015 OVC110 07/04 A3002 RMK AO2=
201110281025 SPECI KCLM 281025Z AUTO 23004KT 10SM BKN015 OVC110 07/04 A3002 RMK AO2=
201110280953 METAR KCLM 280953Z AUTO 28006KT 10SM OVC013 07/04 A3003 RMK AO2 PRESRR SLP171 T00670044=
201110280929 SPECI KCLM 280929Z AUTO 15003KT 10SM BKN013 BKN110 06/04 A3001 RMK AO2=
201110280929 SPECI KCLM 280929Z AUTO 15003KT 10SM BKN013 BKN110 06/04 A3001 RMK AO2=
201110280853 METAR KCLM 280853Z AUTO 16003KT 10SM FEW013 OVC110 06/04 A3003 RMK AO2 SLP169 T00610039 56020=
201110280753 METAR KCLM 280753Z AUTO 12003KT 10SM CLR 06/03 A3003 RMK AO2 SLP172 T00560033 401000011=
201110280653 METAR KCLM 280653Z AUTO 00000KT 10SM CLR 05/03 A3006 RMK AO2 SLP182 T00500033=
201110280553 METAR KCLM 280553Z AUTO 00000KT 10SM CLR 06/03 A3009 RMK AO2 SLP190 T00560033 10078 20056 56023=
201110280453 METAR KCLM 280453Z AUTO 12006KT 10SM CLR 06/03 A3010 RMK AO2 SLP196 T00560033=
201110280353 METAR KCLM 280353Z AUTO 13005KT 10SM FEW014 SCT018 06/03 A3013 RMK AO2 SLP204 T00610033=
201110280253 METAR KCLM 280253Z AUTO 12005KT 10SM OVC020 07/04 A3016 RMK AO2 SLP214 T00720044 58023=
201110280153 METAR KCLM 280153Z AUTO 12006KT 10SM OVC022 08/04 A3019 RMK AO2 SLP224 T00780044=
201110280053 METAR KCLM 280053Z AUTO 12004KT 10SM OVC022 08/05 A3021 RMK AO2 SLP230 T00780050=
201110280044 SPECI KCLM 280044Z AUTO 13004KT 10SM BKN022 07/05 A3021 RMK AO2=
201110280044 SPECI KCLM 280044Z AUTO 13004KT 10SM BKN022 07/05 A3021 RMK AO2=
201110280013 SPECI KCLM 280013Z AUTO 09005KT 10SM FEW020 SCT029 SCT100 08/04 A3022 RMK AO2=
201110280013 SPECI KCLM 280013Z AUTO 09005KT 10SM FEW020 SCT029 SCT100 08/04 A3022 RMK AO2=
201110272353 METAR KCLM 272353Z AUTO 09004KT 10SM BKN029 08/04 A3023 RMK AO2 SLP237 T00780039 10100 20078 56017=
201110272351 SPECI KCLM 272351Z AUTO 09004KT 10SM OVC029 08/04 A3023 RMK AO2=
201110272351 SPECI KCLM 272351Z AUTO 09004KT 10SM OVC029 08/04 A3023 RMK AO2=
201110272253 METAR KCLM 272253Z AUTO 12006KT 10SM OVC031 08/05 A3025 RMK AO2 SLP246 T00780050=
201110272225 SPECI KCLM 272225Z AUTO 11006KT 10SM SCT006 OVC031 08/05 A3027 RMK AO2=
201110272225 SPECI KCLM 272225Z AUTO 11006KT 10SM SCT006 OVC031 08/05 A3027 RMK AO2=
201110272153 METAR KCLM 272153Z AUTO 09006KT 10SM BKN006 OVC031 08/06 A3028 RMK AO2 CIG 005V009 SLP255 T00780056=
201110272053 METAR KCLM 272053Z AUTO 09008KT 10SM BKN006 OVC012 08/06 A3030 RMK AO2 CIG 005V008 SLP261 T00830056 58014=
201110271953 METAR KCLM 271953Z AUTO 10005KT 10SM BKN008 BKN013 09/06 A3031 RMK AO2 CIG 007V011 SLP267 T00890056=
201110271938 SPECI KCLM 271938Z AUTO 08005KT 10SM BKN010 09/06 A3032 RMK AO2 CIG 007V012=
201110271938 SPECI KCLM 271938Z AUTO 08005KT 10SM BKN010 09/06 A3032 RMK AO2 CIG 007V012=
201110271853 METAR KCLM 271853Z AUTO VRB05KT 10SM FEW100 09/04 A3033 RMK AO2 SLP272 T00940044=
201110271753 METAR KCLM 271753Z AUTO 09007KT 10SM FEW100 10/03 A3034 RMK AO2 SLP274 T01000028 10100 20011 53005=
201110271653 METAR KCLM 271653Z AUTO 00000KT 10SM CLR 07/03 A3033 RMK AO2 SLP273 T00720028=
201110271553 METAR KCLM 271553Z AUTO 22004KT 10SM FEW100 03/01 A3032 RMK AO2 SLP269 T00330011=
201110271453 METAR KCLM 271453Z AUTO 22004KT 10SM CLR 02/M01 A3032 RMK AO2 SLP270 T00171006 51002=
201110271353 METAR KCLM 271353Z AUTO 00000KT 10SM CLR 02/00 A3031 RMK AO2 SLP266 T00170000=
201110271253 METAR KCLM 271253Z AUTO 24006KT 10SM SCT031 04/01 A3033 RMK AO2 SLP273 T00390011=
201110271153 METAR KCLM 271153Z AUTO 24008KT 10SM CLR 04/01 A3032 RMK AO2 SLP268 T00390011 10067 20017 57002=
201110271053 METAR KCLM 271053Z AUTO 24007KT 10SM CLR 04/01 A3032 RMK AO2 SLP268 T00390011=
201110270953 METAR KCLM 270953Z AUTO 13003KT 10SM CLR 02/00 A3033 RMK AO2 SLP271 T00220000=
201110270853 METAR KCLM 270853Z AUTO 25004KT 10SM CLR 05/01 A3032 RMK AO2 SLP271 T00500011 51014=
201110270753 METAR KCLM 270753Z AUTO 24009KT 10SM BKN055 07/02 A3032 RMK AO2 SLP269 T00670017 400890011=
201110270653 METAR KCLM 270653Z AUTO 25008KT 10SM OVC055 07/02 A3030 RMK AO2 SLP263 T00670022=
201110270553 METAR KCLM 270553Z AUTO 25009KT 10SM BKN055 06/03 A3028 RMK AO2 SLP256 60000 T00610028 10083 20061 51010=
201110270453 METAR KCLM 270453Z AUTO 26007KT 10SM FEW030 07/03 A3027 RMK AO2 SLP253 T00720028=
201110270353 METAR KCLM 270353Z AUTO 25009KT 10SM CLR 08/03 A3028 RMK AO2 SLP254 T00780033=
201110270253 METAR KCLM 270253Z AUTO 24007KT 10SM CLR 08/04 A3025 RMK AO2 SLP246 60000 T00780039 53011=
201110270153 METAR KCLM 270153Z AUTO 24006KT 10SM CLR 07/04 A3022 RMK AO2 RAE0055 SLP236 P0000 T00720039=
201110270053 METAR KCLM 270053Z AUTO 21003KT 10SM -RA BKN038 OVC049 08/06 A3021 RMK AO2 RAB20 SLP232 P0000 T00830056=
201110270033 SPECI KCLM 270033Z AUTO 18003KT 10SM -RA SCT014 SCT025 OVC034 08/06 A3022 RMK AO2 RAB20 P0000=
201110270033 SPECI KCLM 270033Z AUTO 18003KT 10SM -RA SCT014 SCT025 OVC034 08/06 A3022 RMK AO2 RAB20 P0000=
201110270005 SPECI KCLM 270005Z AUTO 00000KT 10SM BKN011 BKN016 OVC023 08/06 A3022 RMK AO2=
201110270005 SPECI KCLM 270005Z AUTO 00000KT 10SM BKN011 BKN016 OVC023 08/06 A3022 RMK AO2=
201110262353 METAR KCLM 262353Z AUTO 19003KT 10SM BKN009 OVC023 08/06 A3022 RMK AO2 CIG 008V013 SLP235 60000 T00830061 10089 20078 53016=
201110262308 SPECI KCLM 262308Z AUTO 30006KT 10SM BKN009 BKN050 08/06 A3021 RMK AO2=
201110262308 SPECI KCLM 262308Z AUTO 30006KT 10SM BKN009 BKN050 08/06 A3021 RMK AO2=
201110262300 SPECI KCLM 262300Z AUTO VRB06KT 10SM SCT009 BKN050 BKN070 08/06 A3021 RMK AO2 PRESRR=
201110262300 SPECI KCLM 262300Z AUTO VRB06KT 10SM SCT009 BKN050 BKN070 08/06 A3021 RMK AO2 PRESRR=
201110262253 METAR KCLM 262253Z AUTO 32006KT 10SM SCT050 BKN070 08/05 A3020 RMK AO2 SLP228 T00830050=
201110262153 METAR KCLM 262153Z AUTO 34004KT 10SM OVC050 08/06 A3017 RMK AO2 SLP219 T00830056=
201110262053 METAR KCLM 262053Z AUTO 00000KT 10SM OVC050 08/05 A3017 RMK AO2 RAE1957 SLP220 P0000 60000 T00830050 58018=
201110262020 SPECI KCLM 262020Z AUTO 00000KT 10SM FEW007 OVC050 08/06 A3019 RMK AO2 RAE1957 P0000=
201110262020 SPECI KCLM 262020Z AUTO 00000KT 10SM FEW007 OVC050 08/06 A3019 RMK AO2 RAE1957 P0000=
201110261953 METAR KCLM 261953Z AUTO 00000KT 10SM -RA FEW011 OVC055 08/05 A3021 RMK AO2 RAB27 SLP230 P0000 T00780050=
201110261918 SPECI KCLM 261918Z AUTO 00000KT 10SM BKN009 OVC060 08/04 A3022 RMK AO2=
201110261918 SPECI KCLM 261918Z AUTO 00000KT 10SM BKN009 OVC060 08/04 A3022 RMK AO2=
201110261853 METAR KCLM 261853Z AUTO 00000KT 10SM FEW009 SCT013 OVC060 08/04 A3023 RMK AO2 SLP238 T00780039=
201110261838 SPECI KCLM 261838Z AUTO 00000KT 10SM FEW009 OVC060 08/05 A3023 RMK AO2=
201110261838 SPECI KCLM 261838Z AUTO 00000KT 10SM FEW009 OVC060 08/05 A3023 RMK AO2=
201110261753 METAR KCLM 261753Z AUTO 00000KT 10SM OVC065 08/05 A3023 RMK AO2 SLP237 T00780050 10078 20028 55015=
201110261653 METAR KCLM 261653Z AUTO 11009KT 10SM FEW080 07/05 A3021 RMK AO2 PRESFR SLP231 T00720050=
201110261553 METAR KCLM 261553Z AUTO 00000KT 10SM OVC085 06/04 A3026 RMK AO2 SLP250 T00560039=
201110261453 METAR KCLM 261453Z AUTO 00000KT 10SM OVC090 05/03 A3027 RMK AO2 SLP253 T00500033 58017=
201110261353 METAR KCLM 261353Z AUTO 21003KT 10SM FEW009 OVC110 04/02 A3030 RMK AO2 SLP262 T00440022=
201110261327 SPECI KCLM 261327Z AUTO 22004KT 10SM FEW009 OVC110 05/02 A3030 RMK AO2=
201110261327 SPECI KCLM 261327Z AUTO 22004KT 10SM FEW009 OVC110 05/02 A3030 RMK AO2=
201110261253 METAR KCLM 261253Z AUTO 23005KT 10SM BKN120 04/02 A3031 RMK AO2 SLP267 T00440017=
201110261153 METAR KCLM 261153Z AUTO 23004KT 10SM CLR 04/01 A3032 RMK AO2 SLP270 T00390011 10044 20011 58016=
201110261053 METAR KCLM 261053Z AUTO 00000KT 10SM CLR 02/00 A3033 RMK AO2 SLP273 T00220000=
201110260953 METAR KCLM 260953Z AUTO 24007KT 10SM CLR 04/01 A3036 RMK AO2 SLP283 T00390011=
201110260853 METAR KCLM 260853Z AUTO 24004KT 10SM CLR 01/00 A3037 RMK AO2 SLP286 T00110000 58014=
201110260753 METAR KCLM 260753Z AUTO 24005KT 10SM CLR 02/01 A3039 RMK AO2 SLP293 T00220006 401110011=
201110260653 METAR KCLM 260653Z AUTO 00000KT 10SM CLR 02/00 A3040 RMK AO2 SLP296 T00170000=
201110260553 METAR KCLM 260553Z AUTO 21003KT 10SM CLR 03/01 A3041 RMK AO2 SLP300 T00280011 10100 20017 58009=
201110260453 METAR KCLM 260453Z AUTO 00000KT 10SM CLR 03/02 A3042 RMK AO2 SLP303 T00280017=
201110260353 METAR KCLM 260353Z AUTO 15003KT 10SM CLR 03/02 A3043 RMK AO2 SLP307 T00330017=
201110260253 METAR KCLM 260253Z AUTO 00000KT 10SM CLR 03/02 A3044 RMK AO2 SLP309 T00280017 55005=
201110260153 METAR KCLM 260153Z AUTO 00000KT 10SM CLR 05/03 A3044 RMK AO2 SLP309 T00500028=
201110260053 METAR KCLM 260053Z AUTO 12004KT 10SM CLR 08/04 A3044 RMK AO2 SLP309 T00830039=
201110252353 METAR KCLM 252353Z AUTO 09003KT 10SM CLR 10/04 A3045 RMK AO2 SLP313 T01000044 10111 20094 56012=
201110252253 METAR KCLM 252253Z AUTO 11004KT 10SM CLR 11/04 A3046 RMK AO2 SLP316 T01060044=
201110252153 METAR KCLM 252153Z AUTO 07006KT 10SM CLR 11/04 A3047 RMK AO2 SLP319 T01060044=
201110252053 METAR KCLM 252053Z AUTO 07005KT 10SM FEW019 11/04 A3049 RMK AO2 SLP325 T01060044 58004=
201110251953 METAR KCLM 251953Z AUTO VRB03KT 10SM CLR 09/04 A3050 RMK AO2 SLP331 T00940044=
201110251853 METAR KCLM 251853Z AUTO VRB04KT 10SM CLR 11/05 A3050 RMK AO2 SLP328 T01060050=
201110251820 SPECI KCLM 251820Z AUTO 05004KT 10SM FEW018 SCT043 11/06 A3050 RMK AO2=
201110251820 SPECI KCLM 251820Z AUTO 05004KT 10SM FEW018 SCT043 11/06 A3050 RMK AO2=
201110251753 METAR KCLM 251753Z AUTO 00000KT 10SM FEW018 BKN028 OVC042 11/06 A3050 RMK AO2 SLP329 T01060056 10106 20044 51010=
201110251703 SPECI KCLM 251703Z AUTO 09004KT 10SM BKN024 BKN033 OVC045 09/05 A3049 RMK AO2=
201110251703 SPECI KCLM 251703Z AUTO 09004KT 10SM BKN024 BKN033 OVC045 09/05 A3049 RMK AO2=
201110251653 METAR KCLM 251653Z AUTO 10005KT 10SM SCT024 BKN031 BKN045 09/05 A3049 RMK AO2 SLP326 T00890050=
201110251553 METAR KCLM 251553Z AUTO 00000KT 10SM FEW046 04/02 A3048 RMK AO2 SLP325 T00440022=
201110251453 METAR KCLM 251453Z AUTO 24006KT 10SM OVC046 05/02 A3047 RMK AO2 SLP319 T00500017 53013 TSNO=
201110251353 METAR KCLM 251353Z AUTO 24006KT 10SM OVC044 05/02 A3045 RMK AO2 SLP314 T00500017=
201110251253 METAR KCLM 251253Z AUTO 22005KT 10SM SCT042 BKN055 06/02 A3044 RMK AO2 SLP310 T00560017 TSNO=
201110251153 METAR KCLM 251153Z AUTO 23008KT 10SM OVC042 06/02 A3043 RMK AO2 SLP306 T00610017 10072 20050 53007=
201110251053 METAR KCLM 251053Z AUTO 22004KT 10SM OVC037 06/02 A3042 RMK AO2 SLP303 T00610017=
201110250953 METAR KCLM 250953Z AUTO 23007KT 10SM SCT043 06/02 A3041 RMK AO2 SLP300 T00560017=
201110250853 METAR KCLM 250853Z AUTO 24009KT 10SM CLR 06/02 A3041 RMK AO2 SLP298 T00560017 52005=
201110250753 METAR KCLM 250753Z AUTO 25006KT 10SM CLR 06/02 A3040 RMK AO2 SLP297 T00610017 401280061=
201110250653 METAR KCLM 250653Z AUTO 25009KT 10SM CLR 07/02 A3040 RMK AO2 SLP294 T00670022=
201110250553 METAR KCLM 250553Z AUTO 27007KT 10SM CLR 07/03 A3039 RMK AO2 SLP293 T00670028 10111 20061 51013=
201110250453 METAR KCLM 250453Z AUTO 24005KT 10SM CLR 07/03 A3038 RMK AO2 SLP290 T00670028=
201110250353 METAR KCLM 250353Z AUTO 26006KT 10SM CLR 07/04 A3037 RMK AO2 SLP286 T00720039=
201110250253 METAR KCLM 250253Z AUTO 25008KT 10SM CLR 07/04 A3035 RMK AO2 SLP281 T00720044 53009=
201110250153 METAR KCLM 250153Z AUTO 29006KT 10SM CLR 09/05 A3035 RMK AO2 SLP277 T00890050=
201110250053 METAR KCLM 250053Z AUTO 27009KT 10SM CLR 09/05 A3033 RMK AO2 SLP272 T00940050=
201110242353 METAR KCLM 242353Z AUTO 29006KT 10SM CLR 11/04 A3033 RMK AO2 SLP270 T01110044 10128 20111 52006=
201110242253 METAR KCLM 242253Z AUTO 31007KT 10SM CLR 12/05 A3032 RMK AO2 SLP269 T01220050=
201110242153 METAR KCLM 242153Z AUTO 31008G16KT 10SM CLR 12/06 A3031 RMK AO2 SLP265 T01220056=
201110242053 METAR KCLM 242053Z AUTO 35007KT 10SM CLR 12/07 A3031 RMK AO2 SLP264 T01220067 51006=
201110241953 METAR KCLM 241953Z AUTO 31011G16KT 10SM CLR 12/06 A3031 RMK AO2 SLP264 T01220056=
201110241853 METAR KCLM 241853Z AUTO 30011KT 10SM FEW041 12/04 A3030 RMK AO2 SLP263 T01220044=
201110241753 METAR KCLM 241753Z AUTO 28006KT 10SM CLR 12/03 A3029 RMK AO2 SLP258 T01170033 10117 20067 51016=
201110241653 METAR KCLM 241653Z AUTO 26008KT 10SM CLR 10/03 A3028 RMK AO2 SLP253 T01000033=
201110241553 METAR KCLM 241553Z AUTO 26008KT 10SM FEW038 08/03 A3026 RMK AO2 SLP249 T00830028=
201110241453 METAR KCLM 241453Z AUTO 26008KT 10SM CLR 07/02 A3024 RMK AO2 SLP243 T00720022 53012=
201110241353 METAR KCLM 241353Z AUTO 27008KT 10SM FEW047 07/03 A3023 RMK AO2 SLP238 T00720028=
201110241253 METAR KCLM 241253Z AUTO 25009KT 10SM CLR 07/03 A3022 RMK AO2 SLP234 T00720028=
201110241153 METAR KCLM 241153Z AUTO 25008KT 10SM CLR 07/03 A3021 RMK AO2 SLP231 T00720028 10083 20067 53009=
201110241053 METAR KCLM 241053Z AUTO 26009KT 10SM CLR 08/03 A3020 RMK AO2 SLP226 T00780033=
201110240953 METAR KCLM 240953Z AUTO 26010KT 10SM CLR 07/04 A3019 RMK AO2 SLP223 T00720039=
201110240853 METAR KCLM 240853Z AUTO 26008KT 10SM CLR 08/04 A3018 RMK AO2 SLP221 T00780039 53008=
201110240753 METAR KCLM 240753Z AUTO 25008KT 10SM FEW050 08/04 A3017 RMK AO2 SLP217 T00830044 401390067=
201110240653 METAR KCLM 240653Z AUTO 25008KT 10SM CLR 08/05 A3016 RMK AO2 SLP214 T00830050=
201110240553 METAR KCLM 240553Z AUTO 26005KT 10SM CLR 08/04 A3016 RMK AO2 SLP214 T00780044 10122 20078 50002=
201110240453 METAR KCLM 240453Z AUTO 26007KT 10SM OVC100 09/06 A3016 RMK AO2 SLP214 T00890061=
201110240353 METAR KCLM 240353Z AUTO 25006KT 10SM BKN110 09/06 A3015 RMK AO2 SLP212 T00890061=
201110240253 METAR KCLM 240253Z AUTO 24008KT 10SM CLR 09/06 A3015 RMK AO2 SLP212 T00940061 55003=
201110240153 METAR KCLM 240153Z AUTO 00000KT 10SM BKN075 09/07 A3014 RMK AO2 SLP208 T00940067=
201110240053 METAR KCLM 240053Z AUTO 26005KT 10SM BKN030 BKN041 11/07 A3015 RMK AO2 SLP210 T01060067=
201110240042 SPECI KCLM 240042Z AUTO 28003KT 10SM BKN030 11/07 A3015 RMK AO2=
201110240042 SPECI KCLM 240042Z AUTO 28003KT 10SM BKN030 11/07 A3015 RMK AO2=
201110232353 METAR KCLM 232353Z AUTO 30009KT 10SM SCT021 BKN028 OVC033 12/07 A3016 RMK AO2 SLP215 T01220067 10139 20117 56007=
201110232334 SPECI KCLM 232334Z AUTO 32004KT 10SM BKN027 BKN033 OVC060 12/07 A3016 RMK AO2=
201110232334 SPECI KCLM 232334Z AUTO 32004KT 10SM BKN027 BKN033 OVC060 12/07 A3016 RMK AO2=
201110232253 METAR KCLM 232253Z AUTO 33004KT 10SM OVC055 13/07 A3016 RMK AO2 SLP215 T01280067=
201110232153 METAR KCLM 232153Z AUTO 33003KT 10SM CLR 12/06 A3017 RMK AO2 SLP218 T01220061=
201110232053 METAR KCLM 232053Z AUTO 34004KT 10SM CLR 13/07 A3018 RMK AO2 SLP222 T01280072 58009=
201110231953 METAR KCLM 231953Z AUTO VRB04KT 10SM CLR 13/08 A3020 RMK AO2 SLP227 T01280078=
201110231853 METAR KCLM 231853Z AUTO VRB03KT 10SM CLR 12/07 A3022 RMK AO2 SLP233 T01220067=
201110231753 METAR KCLM 231753Z AUTO 25006KT 10SM FEW110 12/06 A3021 RMK AO2 SLP231 T01170061 10117 20078 50001=
201110231653 METAR KCLM 231653Z AUTO 25009KT 10SM CLR 10/05 A3021 RMK AO2 SLP232 T01000050=
201110231553 METAR KCLM 231553Z AUTO 25008KT 10SM CLR 09/05 A3021 RMK AO2 SLP232 T00890050=
201110231453 METAR KCLM 231453Z AUTO 25010KT 10SM CLR 08/05 A3021 RMK AO2 SLP230 T00830050 58000=
201110231353 METAR KCLM 231353Z AUTO 26009KT 10SM CLR 08/06 A3021 RMK AO2 SLP231 T00830056=
201110231253 METAR KCLM 231253Z AUTO 23004KT 10SM CLR 08/06 A3020 RMK AO2 SLP229 T00780056=
201110231153 METAR KCLM 231153Z AUTO 24006KT 10SM CLR 08/06 A3021 RMK AO2 SLP230 70024 T00780061 10111 20067 50002=
201110231053 METAR KCLM 231053Z AUTO 22003KT 10SM CLR 08/06 A3021 RMK AO2 SLP231 T00780061=
201110230953 METAR KCLM 230953Z AUTO 23006KT 10SM CLR 09/07 A3021 RMK AO2 SLP232 T00890072=
201110230936 SPECI KCLM 230936Z AUTO 26004KT 8SM CLR 07/06 A3021 RMK AO2=
201110230936 SPECI KCLM 230936Z AUTO 26004KT 8SM CLR 07/06 A3021 RMK AO2=
201110230927 SPECI KCLM 230927Z AUTO 25003KT 2SM BR CLR 08/07 A3021 RMK AO2=
201110230927 SPECI KCLM 230927Z AUTO 25003KT 2SM BR CLR 08/07 A3021 RMK AO2=
201110230920 SPECI KCLM 230920Z AUTO 23003KT 3SM BR CLR 07/06 A3020 RMK AO2=
201110230920 SPECI KCLM 230920Z AUTO 23003KT 3SM BR CLR 07/06 A3020 RMK AO2=
201110230913 SPECI KCLM 230913Z AUTO 23003KT 2 1/2SM BR CLR 08/07 A3020 RMK AO2=
201110230913 SPECI KCLM 230913Z AUTO 23003KT 2 1/2SM BR CLR 08/07 A3020 RMK AO2=
201110230910 SPECI KCLM 230910Z AUTO 21004KT 1SM BR VV001 08/07 A3020 RMK AO2=
201110230910 SPECI KCLM 230910Z AUTO 21004KT 1SM BR VV001 08/07 A3020 RMK AO2=
201110230901 SPECI KCLM 230901Z AUTO 23004KT 1 3/4SM BR FEW001 07/06 A3020 RMK AO2=
201110230901 SPECI KCLM 230901Z AUTO 23004KT 1 3/4SM BR FEW001 07/06 A3020 RMK AO2=
201110230853 METAR KCLM 230853Z AUTO 00000KT 9SM CLR 08/07 A3020 RMK AO2 SLP227 T00780067 53011=
201110230832 SPECI KCLM 230832Z AUTO 00000KT 9SM CLR 09/08 A3020 RMK AO2=
201110230832 SPECI KCLM 230832Z AUTO 00000KT 9SM CLR 09/08 A3020 RMK AO2=
201110230821 SPECI KCLM 230821Z AUTO 00000KT 2 1/2SM BR FEW001 08/07 A3019 RMK AO2 VIS 1V5=
201110230821 SPECI KCLM 230821Z AUTO 00000KT 2 1/2SM BR FEW001 08/07 A3019 RMK AO2 VIS 1V5=
201110230816 SPECI KCLM 230816Z AUTO 00000KT 2SM BR CLR 08/07 A3019 RMK AO2=
201110230816 SPECI KCLM 230816Z AUTO 00000KT 2SM BR CLR 08/07 A3019 RMK AO2=
201110230753 METAR KCLM 230753Z AUTO 20005KT 9SM CLR 09/08 A3019 RMK AO2 SLP224 T00890078 401390078=
201110230742 SPECI KCLM 230742Z AUTO 00000KT 3SM BR FEW028 09/08 A3019 RMK AO2=
201110230742 SPECI KCLM 230742Z AUTO 00000KT 3SM BR FEW028 09/08 A3019 RMK AO2=
201110230735 SPECI KCLM 230735Z AUTO 20004KT 1 1/4SM BR FEW037 08/07 A3019 RMK AO2=
201110230735 SPECI KCLM 230735Z AUTO 20004KT 1 1/4SM BR FEW037 08/07 A3019 RMK AO2=
201110230728 SPECI KCLM 230728Z AUTO 00000KT 3/4SM BR FEW048 08/07 A3018 RMK AO2=
201110230728 SPECI KCLM 230728Z AUTO 00000KT 3/4SM BR FEW048 08/07 A3018 RMK AO2=
201110230718 SPECI KCLM 230718Z AUTO 00000KT 1 1/2SM BR FEW042 09/08 A3018 RMK AO2 VIS 1/2V5=
201110230718 SPECI KCLM 230718Z AUTO 00000KT 1 1/2SM BR FEW042 09/08 A3018 RMK AO2 VIS 1/2V5=
201110230710 SPECI KCLM 230710Z AUTO 00000KT 3SM BR FEW065 09/08 A3018 RMK AO2=
201110230710 SPECI KCLM 230710Z AUTO 00000KT 3SM BR FEW065 09/08 A3018 RMK AO2=
201110230653 METAR KCLM 230653Z AUTO 00000KT 1 3/4SM BR FEW033 09/08 A3017 RMK AO2 SLP218 T00940083=
201110230553 METAR KCLM 230553Z AUTO 24005KT 10SM CLR 11/09 A3017 RMK AO2 SLP216 T01110094 10139 20094 53011=
201110230536 SPECI KCLM 230536Z AUTO 27004KT 10SM FEW016 11/09 A3017 RMK AO2=
201110230536 SPECI KCLM 230536Z AUTO 27004KT 10SM FEW016 11/09 A3017 RMK AO2=
201110230522 SPECI KCLM 230522Z AUTO 22006KT 10SM FEW010 BKN016 11/10 A3016 RMK AO2=
201110230522 SPECI KCLM 230522Z AUTO 22006KT 10SM FEW010 BKN016 11/10 A3016 RMK AO2=
201110230517 SPECI KCLM 230517Z AUTO 21005KT 2 1/2SM BR BKN014 11/09 A3016 RMK AO2=
201110230517 SPECI KCLM 230517Z AUTO 21005KT 2 1/2SM BR BKN014 11/09 A3016 RMK AO2=
201110230502 SPECI KCLM 230502Z AUTO 29003KT 3/4SM BR BKN011 BKN060 10/09 A3016 RMK AO2=
201110230502 SPECI KCLM 230502Z AUTO 29003KT 3/4SM BR BKN011 BKN060 10/09 A3016 RMK AO2=
201110230455 SPECI KCLM 230455Z AUTO 00000KT 1 3/4SM BR SCT013 SCT060 10/09 A3016 RMK AO2 VIS 1/2V5=
201110230455 SPECI KCLM 230455Z AUTO 00000KT 1 3/4SM BR SCT013 SCT060 10/09 A3016 RMK AO2 VIS 1/2V5=
201110230453 METAR KCLM 230453Z AUTO 00000KT 3SM BR SCT013 BKN060 10/09 A3016 RMK AO2 SLP213 T01000089=
201110230448 SPECI KCLM 230448Z AUTO 00000KT 2SM BR SCT015 BKN060 11/10 A3015 RMK AO2 VIS 1V5=
201110230448 SPECI KCLM 230448Z AUTO 00000KT 2SM BR SCT015 BKN060 11/10 A3015 RMK AO2 VIS 1V5=
201110230426 SPECI KCLM 230426Z AUTO 00000KT 1 3/4SM BR BKN015 BKN070 11/09 A3014 RMK AO2=
201110230426 SPECI KCLM 230426Z AUTO 00000KT 1 3/4SM BR BKN015 BKN070 11/09 A3014 RMK AO2=
201110230417 SPECI KCLM 230417Z AUTO 00000KT 5SM BR FEW015 BKN065 12/10 A3014 RMK AO2=
201110230417 SPECI KCLM 230417Z AUTO 00000KT 5SM BR FEW015 BKN065 12/10 A3014 RMK AO2=
201110230407 SPECI KCLM 230407Z AUTO 00000KT 1 3/4SM BR FEW004 SCT014 BKN065 11/09 A3014 RMK AO2 VIS 1/2V5=
201110230407 SPECI KCLM 230407Z AUTO 00000KT 1 3/4SM BR FEW004 SCT014 BKN065 11/09 A3014 RMK AO2 VIS 1/2V5=
201110230359 SPECI KCLM 230359Z AUTO 00000KT 10SM FEW007 SCT011 BKN065 12/10 A3014 RMK AO2=
201110230359 SPECI KCLM 230359Z AUTO 00000KT 10SM FEW007 SCT011 BKN065 12/10 A3014 RMK AO2=
201110230353 METAR KCLM 230353Z AUTO 00000KT 10SM BKN009 BKN012 OVC060 12/11 A3014 RMK AO2 CIG 007V010 SLP207 T01220106=
201110230333 SPECI KCLM 230333Z AUTO 00000KT 10SM BKN009 OVC070 12/11 A3014 RMK AO2=
201110230333 SPECI KCLM 230333Z AUTO 00000KT 10SM BKN009 OVC070 12/11 A3014 RMK AO2=
201110230324 SPECI KCLM 230324Z AUTO 00000KT 10SM SCT009 BKN070 12/11 A3014 RMK AO2=
201110230324 SPECI KCLM 230324Z AUTO 00000KT 10SM SCT009 BKN070 12/11 A3014 RMK AO2=
201110230253 METAR KCLM 230253Z AUTO 31008KT 10SM OVC065 13/11 A3013 RMK AO2 SLP205 T01280106 53002=
201110230206 SPECI KCLM 230206Z AUTO 00000KT 10SM SCT008 BKN042 OVC060 12/11 A3013 RMK AO2=
201110230206 SPECI KCLM 230206Z AUTO 00000KT 10SM SCT008 BKN042 OVC060 12/11 A3013 RMK AO2=
201110230153 METAR KCLM 230153Z AUTO 00000KT 3SM BR BKN008 BKN040 OVC065 12/11 A3013 RMK AO2 SLP203 T01220106=
201110230102 SPECI KCLM 230102Z AUTO 27006KT 10SM SCT008 SCT026 BKN065 12/11 A3012 RMK AO2=
201110230102 SPECI KCLM 230102Z AUTO 27006KT 10SM SCT008 SCT026 BKN065 12/11 A3012 RMK AO2=
201110230053 METAR KCLM 230053Z AUTO 31005KT 10SM BKN008 BKN065 12/11 A3012 RMK AO2 CIG 006V012 SLP201 T01220106=
201110230026 SPECI KCLM 230026Z AUTO 34004KT 10SM OVC008 13/11 A3012 RMK AO2=
201110230026 SPECI KCLM 230026Z AUTO 34004KT 10SM OVC008 13/11 A3012 RMK AO2=
201110222353 METAR KCLM 222353Z AUTO 29004KT 10SM BKN012 OVC031 13/11 A3013 RMK AO2 SLP203 60001 T01330111 10139 20111 53002=
201110222343 SPECI KCLM 222343Z AUTO 31003KT 10SM BKN014 BKN026 OVC034 14/11 A3013 RMK AO2=
201110222343 SPECI KCLM 222343Z AUTO 31003KT 10SM BKN014 BKN026 OVC034 14/11 A3013 RMK AO2=
201110222253 METAR KCLM 222253Z AUTO 00000KT 10SM SCT011 OVC060 13/11 A3012 RMK AO2 SLP202 T01280111=
201110222248 SPECI KCLM 222248Z AUTO 00000KT 9SM BKN011 OVC060 13/12 A3012 RMK AO2=
201110222248 SPECI KCLM 222248Z AUTO 00000KT 9SM BKN011 OVC060 13/12 A3012 RMK AO2=
201110222217 SPECI KCLM 222217Z AUTO 00000KT 8SM FEW001 SCT060 OVC070 13/11 A3013 RMK AO2=
201110222217 SPECI KCLM 222217Z AUTO 00000KT 8SM FEW001 SCT060 OVC070 13/11 A3013 RMK AO2=
201110222205 SPECI KCLM 222205Z AUTO 00000KT 9SM FEW001 BKN014 OVC065 12/11 A3013 RMK AO2=
201110222205 SPECI KCLM 222205Z AUTO 00000KT 9SM FEW001 BKN014 OVC065 12/11 A3013 RMK AO2=
201110222153 METAR KCLM 222153Z AUTO 00000KT 10SM SCT003 BKN016 BKN070 13/11 A3012 RMK AO2 RAE38 SLP201 P0001 T01280111=
201110222053 METAR KCLM 222053Z AUTO 33003KT 9SM -RA FEW009 OVC020 11/09 A3014 RMK AO2 RAB26 SLP206 P0000 60000 T01110094 53004=
201110222036 SPECI KCLM 222036Z AUTO 35003KT 10SM -RA FEW009 OVC020 13/11 A3013 RMK AO2 RAB26 P0000=
201110222036 SPECI KCLM 222036Z AUTO 35003KT 10SM -RA FEW009 OVC020 13/11 A3013 RMK AO2 RAB26 P0000=
201110221953 METAR KCLM 221953Z AUTO 03004KT 10SM BKN009 13/11 A3012 RMK AO2 CIG 007V012 SLP200 T01330106=
201110221950 SPECI KCLM 221950Z AUTO 01004KT 10SM BKN009 13/11 A3012 RMK AO2 CIG 007V012=
201110221950 SPECI KCLM 221950Z AUTO 01004KT 10SM BKN009 13/11 A3012 RMK AO2 CIG 007V012=
201110221930 SPECI KCLM 221930Z AUTO 11006KT 10SM SCT006 BKN011 13/11 A3012 RMK AO2=
201110221930 SPECI KCLM 221930Z AUTO 11006KT 10SM SCT006 BKN011 13/11 A3012 RMK AO2=
201110221910 SPECI KCLM 221910Z AUTO 08005KT 10SM BKN006 BKN011 13/11 A3012 RMK AO2 CIG 004V010=
201110221910 SPECI KCLM 221910Z AUTO 08005KT 10SM BKN006 BKN011 13/11 A3012 RMK AO2 CIG 004V010=
201110221853 METAR KCLM 221853Z AUTO 12007KT 10SM BKN004 13/11 A3012 RMK AO2 SLP201 T01330106=
201110221815 SPECI KCLM 221815Z AUTO 09006KT 10SM OVC004 12/10 A3014 RMK AO2=
201110221815 SPECI KCLM 221815Z AUTO 09006KT 10SM OVC004 12/10 A3014 RMK AO2=
201110221753 METAR KCLM 221753Z AUTO 08005KT 10SM OVC006 12/09 A3013 RMK AO2 SLP204 60023 T01170094 10122 20106 51000=
201110221653 METAR KCLM 221653Z AUTO 09005KT 10SM OVC006 11/09 A3012 RMK AO2 RAE20 CIG 004V009 PRESFR SLP201 P0001 T01110094=
201110221633 SPECI KCLM 221633Z AUTO 14003KT 10SM OVC006 11/09 A3014 RMK AO2 RAE20 CIG 001V010 P0001=
201110221633 SPECI KCLM 221633Z AUTO 14003KT 10SM OVC006 11/09 A3014 RMK AO2 RAE20 CIG 001V010 P0001=
201110221620 SPECI KCLM 221620Z AUTO 15003KT 6SM BR OVC004 11/09 A3015 RMK AO2 RAE20 CIG 001V008 P0001=
201110221620 SPECI KCLM 221620Z AUTO 15003KT 6SM BR OVC004 11/09 A3015 RMK AO2 RAE20 CIG 001V008 P0001=
201110221607 SPECI KCLM 221607Z AUTO 00000KT 3SM -RA BR OVC001 11/09 A3016 RMK AO2 P0001=
201110221607 SPECI KCLM 221607Z AUTO 00000KT 3SM -RA BR OVC001 11/09 A3016 RMK AO2 P0001=
201110221553 METAR KCLM 221553Z AUTO 00000KT 1 1/2SM -RA BR OVC001 11/10 A3016 RMK AO2 SLP215 P0003 T01060100=
201110221517 SPECI KCLM 221517Z AUTO 00000KT 1SM -RA BR VV001 11/09 A3014 RMK AO2 P0002=
201110221517 SPECI KCLM 221517Z AUTO 00000KT 1SM -RA BR VV001 11/09 A3014 RMK AO2 P0002=
201110221453 METAR KCLM 221453Z AUTO VRB03KT 1/2SM -RA FG VV001 11/09 A3013 RMK AO2 SLP204 P0008 60019 T01060089 53004=
201110221434 SPECI KCLM 221434Z AUTO VRB04KT 3/4SM -RA BR BKN001 OVC020 11/09 A3012 RMK AO2 P0007=
201110221434 SPECI KCLM 221434Z AUTO VRB04KT 3/4SM -RA BR BKN001 OVC020 11/09 A3012 RMK AO2 P0007=
201110221429 SPECI KCLM 221429Z AUTO 00000KT 2SM -RA BR BKN001 OVC020 11/09 A3012 RMK AO2 P0006=
201110221429 SPECI KCLM 221429Z AUTO 00000KT 2SM -RA BR BKN001 OVC020 11/09 A3012 RMK AO2 P0006=
201110221420 SPECI KCLM 221420Z AUTO 00000KT 1 3/4SM RA BR BKN001 OVC022 11/09 A3011 RMK AO2 P0005=
201110221420 SPECI KCLM 221420Z AUTO 00000KT 1 3/4SM RA BR BKN001 OVC022 11/09 A3011 RMK AO2 P0005=
201110221411 SPECI KCLM 221411Z AUTO 00000KT 1 3/4SM -RA BR SCT001 OVC022 11/09 A3011 RMK AO2 P0003=
201110221411 SPECI KCLM 221411Z AUTO 00000KT 1 3/4SM -RA BR SCT001 OVC022 11/09 A3011 RMK AO2 P0003=
201110221401 SPECI KCLM 221401Z AUTO VRB04KT 2 1/2SM -RA BR SCT001 OVC024 11/09 A3010 RMK AO2 P0001=
201110221401 SPECI KCLM 221401Z AUTO VRB04KT 2 1/2SM -RA BR SCT001 OVC024 11/09 A3010 RMK AO2 P0001=
201110221353 METAR KCLM 221353Z AUTO 03003KT 7SM -RA BKN024 OVC060 11/09 A3010 RMK AO2 SLP193 P0001 T01060094=
201110221351 SPECI KCLM 221351Z AUTO 02003KT 9SM -RA BKN024 OVC060 11/09 A3010 RMK AO2 P0001=
201110221351 SPECI KCLM 221351Z AUTO 02003KT 9SM -RA BKN024 OVC060 11/09 A3010 RMK AO2 P0001=
201110221253 METAR KCLM 221253Z AUTO 11006KT 7SM -RA FEW042 OVC060 11/09 A3012 RMK AO2 SLP199 P0010 T01110094=
201110221153 METAR KCLM 221153Z AUTO 11006KT 7SM -RA BKN043 OVC060 11/09 A3015 RMK AO2 RAE01B24 SLP211 P0001 60001 70001 T01110089 10117 20089 57016=
201110221053 METAR KCLM 221053Z AUTO 14004KT 5SM -RA BR BKN043 OVC055 10/08 A3017 RMK AO2 RAB42 SLP217 P0000 T01000083=
201110220953 METAR KCLM 220953Z AUTO 00000KT 10SM OVC065 10/08 A3018 RMK AO2 SLP220 T01000083=
201110220853 METAR KCLM 220853Z AUTO 17003KT 10SM CLR 09/07 A3020 RMK AO2 SLP227 T00940072 58004=
201110220834 SPECI KCLM 220834Z AUTO 23006KT 10SM SCT016 10/08 A3021 RMK AO2=
201110220834 SPECI KCLM 220834Z AUTO 23006KT 10SM SCT016 10/08 A3021 RMK AO2=
201110220807 SPECI KCLM 220807Z AUTO 00000KT 10SM BKN016 09/07 A3020 RMK AO2=
201110220807 SPECI KCLM 220807Z AUTO 00000KT 10SM BKN016 09/07 A3020 RMK AO2=
201110220753 METAR KCLM 220753Z AUTO 22006KT 10SM FEW018 09/08 A3021 RMK AO2 SLP230 T00940078 401390083=
201110220732 SPECI KCLM 220732Z AUTO 24004KT 10SM SCT020 09/08 A3021 RMK AO2=
201110220732 SPECI KCLM 220732Z AUTO 24004KT 10SM SCT020 09/08 A3021 RMK AO2=
201110220711 SPECI KCLM 220711Z AUTO 00000KT 10SM FEW014 BKN022 10/08 A3021 RMK AO2=
201110220711 SPECI KCLM 220711Z AUTO 00000KT 10SM FEW014 BKN022 10/08 A3021 RMK AO2=
201110220653 METAR KCLM 220653Z AUTO 25003KT 10SM SCT020 BKN035 11/08 A3021 RMK AO2 SLP233 T01060083=
201110220553 METAR KCLM 220553Z AUTO 00000KT 10SM OVC016 12/10 A3021 RMK AO2 SLP231 T01170100 10139 20100 50004=
201110220453 METAR KCLM 220453Z AUTO 26003KT 10SM OVC016 12/10 A3021 RMK AO2 SLP231 T01170100=
201110220448 SPECI KCLM 220448Z AUTO 25003KT 10SM OVC016 11/10 A3021 RMK AO2=
201110220448 SPECI KCLM 220448Z AUTO 25003KT 10SM OVC016 11/10 A3021 RMK AO2=
201110220429 SPECI KCLM 220429Z AUTO 23003KT 10SM OVC014 11/09 A3021 RMK AO2=
201110220429 SPECI KCLM 220429Z AUTO 23003KT 10SM OVC014 11/09 A3021 RMK AO2=
201110220353 METAR KCLM 220353Z AUTO 00000KT 9SM BKN016 11/09 A3020 RMK AO2 SLP227 T01110094=
201110220323 SPECI KCLM 220323Z AUTO 00000KT 10SM BKN016 BKN031 12/10 A3019 RMK AO2=
201110220323 SPECI KCLM 220323Z AUTO 00000KT 10SM BKN016 BKN031 12/10 A3019 RMK AO2=
201110220253 METAR KCLM 220253Z AUTO 00000KT 10SM SCT014 SCT033 11/09 A3020 RMK AO2 SLP226 T01110094 51011=
201110220250 SPECI KCLM 220250Z AUTO 00000KT 10SM SCT014 SCT035 11/09 A3020 RMK AO2=
201110220250 SPECI KCLM 220250Z AUTO 00000KT 10SM SCT014 SCT035 11/09 A3020 RMK AO2=
201110220236 SPECI KCLM 220236Z AUTO 00000KT 10SM BKN014 12/10 A3018 RMK AO2=
201110220236 SPECI KCLM 220236Z AUTO 00000KT 10SM BKN014 12/10 A3018 RMK AO2=
201110220209 SPECI KCLM 220209Z AUTO 13003KT 10SM BKN016 BKN028 12/10 A3017 RMK AO2=
201110220209 SPECI KCLM 220209Z AUTO 13003KT 10SM BKN016 BKN028 12/10 A3017 RMK AO2=
201110220202 SPECI KCLM 220202Z AUTO 00000KT 10SM FEW016 SCT026 12/10 A3017 RMK AO2=
201110220202 SPECI KCLM 220202Z AUTO 00000KT 10SM FEW016 SCT026 12/10 A3017 RMK AO2=
201110220153 METAR KCLM 220153Z AUTO 00000KT 10SM BKN026 13/10 A3017 RMK AO2 SLP218 T01280100=
201110220121 SPECI KCLM 220121Z AUTO 32005KT 10SM FEW014 OVC021 14/11 A3017 RMK AO2=
201110220121 SPECI KCLM 220121Z AUTO 32005KT 10SM FEW014 OVC021 14/11 A3017 RMK AO2=
201110220053 METAR KCLM 220053Z AUTO 00000KT 10SM OVC014 14/11 A3016 RMK AO2 SLP215 T01390111=
201110220008 SPECI KCLM 220008Z AUTO 16005KT 10SM BKN010 OVC014 13/11 A3015 RMK AO2 CIG 007V011=
201110220008 SPECI KCLM 220008Z AUTO 16005KT 10SM BKN010 OVC014 13/11 A3015 RMK AO2 CIG 007V011=
201110212353 METAR KCLM 212353Z AUTO 00000KT 10SM OVC007 13/11 A3015 RMK AO2 CIG 005V010 SLP209 60000 T01330106 10139 20106 51023=
201110212317 SPECI KCLM 212317Z AUTO 00000KT 10SM BKN009 OVC014 13/10 A3013 RMK AO2 CIG 007V012=
201110212317 SPECI KCLM 212317Z AUTO 00000KT 10SM BKN009 OVC014 13/10 A3013 RMK AO2 CIG 007V012=
201110212306 SPECI KCLM 212306Z AUTO 00000KT 10SM BKN012 BKN050 OVC060 13/10 A3013 RMK AO2=
201110212306 SPECI KCLM 212306Z AUTO 00000KT 10SM BKN012 BKN050 OVC060 13/10 A3013 RMK AO2=
201110212253 METAR KCLM 212253Z AUTO 00000KT 10SM FEW016 BKN050 OVC060 13/10 A3012 RMK AO2 SLP201 T01330100=
201110212153 METAR KCLM 212153Z AUTO 00000KT 10SM FEW005 OVC055 12/09 A3011 RMK AO2 SLP196 T01170094=
201110212128 SPECI KCLM 212128Z AUTO VRB04KT 10SM FEW004 BKN060 BKN080 12/09 A3009 RMK AO2=
201110212128 SPECI KCLM 212128Z AUTO VRB04KT 10SM FEW004 BKN060 BKN080 12/09 A3009 RMK AO2=
201110212053 METAR KCLM 212053Z AUTO 00000KT 10SM BKN085 BKN110 12/10 A3008 RMK AO2 RAE15 SLP186 P0000 60000 T01220100 53000=
201110211953 METAR KCLM 211953Z AUTO 24003KT 8SM -RA BKN035 BKN065 12/09 A3008 RMK AO2 RAB44 SLP187 P0000 T01220089=
201110211853 METAR KCLM 211853Z AUTO 00000KT 10SM BKN100 12/08 A3006 RMK AO2 RAB12E23 SLP181 P0000 T01220078=
201110211753 METAR KCLM 211753Z AUTO 33003KT 10SM FEW070 BKN090 11/08 A3008 RMK AO2 SLP185 T01110078 10111 20083 51003=
201110211653 METAR KCLM 211653Z AUTO 10003KT 10SM FEW075 OVC095 10/08 A3007 RMK AO2 SLP182 T01000078=
201110211636 SPECI KCLM 211636Z AUTO 00000KT 10SM SCT010 OVC090 10/08 A3007 RMK AO2=
201110211636 SPECI KCLM 211636Z AUTO 00000KT 10SM SCT010 OVC090 10/08 A3007 RMK AO2=
201110211620 SPECI KCLM 211620Z AUTO 00000KT 10SM SCT007 BKN012 OVC095 09/08 A3007 RMK AO2=
201110211620 SPECI KCLM 211620Z AUTO 00000KT 10SM SCT007 BKN012 OVC095 09/08 A3007 RMK AO2=
201110211553 METAR KCLM 211553Z AUTO 25003KT 10SM BKN005 BKN012 09/07 A3008 RMK AO2 SLP186 T00940072=
201110211543 SPECI KCLM 211543Z AUTO 00000KT 10SM BKN005 BKN095 OVC110 09/07 A3007 RMK AO2=
201110211543 SPECI KCLM 211543Z AUTO 00000KT 10SM BKN005 BKN095 OVC110 09/07 A3007 RMK AO2=
201110211519 SPECI KCLM 211519Z AUTO 26003KT 10SM FEW005 BKN060 OVC110 09/07 A3007 RMK AO2=
201110211519 SPECI KCLM 211519Z AUTO 26003KT 10SM FEW005 BKN060 OVC110 09/07 A3007 RMK AO2=
201110211453 METAR KCLM 211453Z AUTO 26003KT 10SM SCT060 OVC100 08/07 A3007 RMK AO2 SLP182 T00830067 55005=
201110211353 METAR KCLM 211353Z AUTO 00000KT 10SM BKN065 OVC100 09/07 A3006 RMK AO2 SLP181 T00890067=
201110211253 METAR KCLM 211253Z AUTO 12003KT 10SM FEW012 BKN065 BKN110 09/07 A3007 RMK AO2 SLP184 T00890067=
201110211245 SPECI KCLM 211245Z AUTO 11004KT 10SM FEW012 BKN065 OVC095 09/06 A3007 RMK AO2=
201110211245 SPECI KCLM 211245Z AUTO 11004KT 10SM FEW012 BKN065 OVC095 09/06 A3007 RMK AO2=
201110211209 SPECI KCLM 211209Z AUTO 00000KT 10SM BKN012 BKN100 09/07 A3007 RMK AO2=
201110211209 SPECI KCLM 211209Z AUTO 00000KT 10SM BKN012 BKN100 09/07 A3007 RMK AO2=
201110211153 METAR KCLM 211153Z AUTO 00000KT 10SM SCT014 BKN100 09/07 A3008 RMK AO2 SLP187 T00890072 10094 20083 58007=
201110211053 METAR KCLM 211053Z AUTO 00000KT 10SM FEW070 OVC090 09/07 A3009 RMK AO2 SLP189 T00890067=
201110210953 METAR KCLM 210953Z AUTO 14003KT 10SM FEW016 BKN070 OVC085 09/07 A3010 RMK AO2 SLP194 T00890067=
201110210950 SPECI KCLM 210950Z AUTO 15003KT 10SM SCT016 BKN070 OVC085 09/07 A3010 RMK AO2=
201110210950 SPECI KCLM 210950Z AUTO 15003KT 10SM SCT016 BKN070 OVC085 09/07 A3010 RMK AO2=
201110210903 SPECI KCLM 210903Z AUTO 13004KT 10SM BKN018 BKN065 OVC095 09/07 A3011 RMK AO2=
201110210903 SPECI KCLM 210903Z AUTO 13004KT 10SM BKN018 BKN065 OVC095 09/07 A3011 RMK AO2=
201110210853 METAR KCLM 210853Z AUTO 14003KT 10SM SCT018 BKN065 OVC095 08/07 A3011 RMK AO2 SLP196 T00830067 58002=
201110210753 METAR KCLM 210753Z AUTO 00000KT 10SM OVC090 09/07 A3011 RMK AO2 SLP197 T00890067 401330083=
201110210653 METAR KCLM 210653Z AUTO 25003KT 10SM BKN085 08/07 A3012 RMK AO2 SLP201 T00830072=
201110210553 METAR KCLM 210553Z AUTO 23003KT 10SM OVC070 08/07 A3011 RMK AO2 SLP198 60000 T00830072 10128 20083 53001=
201110210453 METAR KCLM 210453Z AUTO 14003KT 10SM FEW065 OVC080 09/07 A3010 RMK AO2 RAE42 SLP195 P0000 T00940067=
201110210353 METAR KCLM 210353Z AUTO 00000KT 10SM -RA OVC070 10/07 A3012 RMK AO2 RAB46 SLP199 P0000 T01000067=
201110210253 METAR KCLM 210253Z AUTO 22003KT 10SM SCT070 OVC090 10/06 A3011 RMK AO2 SLP197 T01000056 53005=
201110210153 METAR KCLM 210153Z AUTO 00000KT 10SM BKN090 10/04 A3010 RMK AO2 SLP192 T01000044=
201110210053 METAR KCLM 210053Z AUTO 00000KT 10SM OVC080 12/05 A3010 RMK AO2 SLP194 T01170050=
201110202353 METAR KCLM 202353Z AUTO 00000KT 10SM FEW021 OVC080 13/05 A3010 RMK AO2 SLP192 T01280050 10133 20117 58007=
201110202344 SPECI KCLM 202344Z AUTO 00000KT 10SM SCT021 BKN080 13/04 A3010 RMK AO2=
201110202344 SPECI KCLM 202344Z AUTO 00000KT 10SM SCT021 BKN080 13/04 A3010 RMK AO2=
201110202314 SPECI KCLM 202314Z AUTO 00000KT 10SM BKN023 OVC095 13/04 A3011 RMK AO2=
201110202314 SPECI KCLM 202314Z AUTO 00000KT 10SM BKN023 OVC095 13/04 A3011 RMK AO2=
201110202253 METAR KCLM 202253Z AUTO 00000KT 10SM SCT025 BKN100 13/04 A3011 RMK AO2 SLP197 T01280039=
201110202240 SPECI KCLM 202240Z AUTO 30003KT 10SM FEW022 SCT028 BKN095 13/03 A3011 RMK AO2=
201110202240 SPECI KCLM 202240Z AUTO 30003KT 10SM FEW022 SCT028 BKN095 13/03 A3011 RMK AO2=
201110202153 METAR KCLM 202153Z AUTO 34003KT 10SM BKN028 BKN095 13/05 A3011 RMK AO2 SLP197 T01280050=
201110202053 METAR KCLM 202053Z AUTO 36003KT 10SM BKN030 OVC095 13/05 A3012 RMK AO2 SLP199 T01330050 58002=
201110201953 METAR KCLM 201953Z AUTO 00000KT 10SM OVC030 13/06 A3013 RMK AO2 SLP202 T01330061=
201110201911 SPECI KCLM 201911Z AUTO 00000KT 10SM OVC030 12/05 A3013 RMK AO2=
201110201911 SPECI KCLM 201911Z AUTO 00000KT 10SM OVC030 12/05 A3013 RMK AO2=
201110201853 METAR KCLM 201853Z AUTO 00000KT 10SM OVC028 12/06 A3013 RMK AO2 SLP204 T01220061=
201110201753 METAR KCLM 201753Z AUTO 25005KT 10SM OVC026 12/07 A3012 RMK AO2 SLP201 60000 T01170072 10117 20100 51014=
201110201653 METAR KCLM 201653Z AUTO VRB04KT 10SM OVC022 11/08 A3011 RMK AO2 SLP197 T01110078=
201110201553 METAR KCLM 201553Z AUTO 26003KT 10SM OVC017 11/08 A3010 RMK AO2 SLP192 T01060078=
201110201453 METAR KCLM 201453Z AUTO 24005KT 10SM OVC017 11/08 A3008 RMK AO2 SLP187 60000 T01060083 51003=
201110201353 METAR KCLM 201353Z AUTO 26007KT 10SM FEW010 BKN021 OVC046 10/09 A3008 RMK AO2 SLP187 T01000089=
201110201334 SPECI KCLM 201334Z AUTO 28007KT 10SM FEW004 BKN010 OVC023 11/09 A3008 RMK AO2 CIG 007V013=
201110201334 SPECI KCLM 201334Z AUTO 28007KT 10SM FEW004 BKN010 OVC023 11/09 A3008 RMK AO2 CIG 007V013=
201110201310 SPECI KCLM 201310Z AUTO 27004KT 10SM SCT004 OVC008 10/09 A3008 RMK AO2 CIG 007V012=
201110201310 SPECI KCLM 201310Z AUTO 27004KT 10SM SCT004 OVC008 10/09 A3008 RMK AO2 CIG 007V012=
201110201253 METAR KCLM 201253Z AUTO 30005KT 8SM BKN004 BKN008 OVC014 11/09 A3008 RMK AO2 RAB1159E16 CIG 002V007 SLP186 P0000 T01060089=
201110201245 SPECI KCLM 201245Z AUTO 30008KT 4SM BR BKN004 OVC008 11/09 A3008 RMK AO2 RAB1159E16 CIG 002V007 P0000=
201110201245 SPECI KCLM 201245Z AUTO 30008KT 4SM BR BKN004 OVC008 11/09 A3008 RMK AO2 RAB1159E16 CIG 002V007 P0000=
201110201203 SPECI KCLM 201203Z AUTO 25003KT 6SM -RA BR OVC006 11/09 A3007 RMK AO2 RAB1159 CIG 001V008 P0000=
201110201203 SPECI KCLM 201203Z AUTO 25003KT 6SM -RA BR OVC006 11/09 A3007 RMK AO2 RAB1159 CIG 001V008 P0000=
201110201153 METAR KCLM 201153Z AUTO 25004KT 7SM BKN001 OVC006 11/09 A3007 RMK AO2 SLP184 60000 T01060094 10111 20094 53003=
201110201133 SPECI KCLM 201133Z AUTO 25003KT 7SM OVC001 11/09 A3007 RMK AO2=
201110201133 SPECI KCLM 201133Z AUTO 25003KT 7SM OVC001 11/09 A3007 RMK AO2=
201110201125 SPECI KCLM 201125Z AUTO 00000KT 7SM OVC003 11/09 A3007 RMK AO2 CIG 001V006=
201110201125 SPECI KCLM 201125Z AUTO 00000KT 7SM OVC003 11/09 A3007 RMK AO2 CIG 001V006=
201110201110 SPECI KCLM 201110Z AUTO 00000KT 6SM BR BKN005 OVC011 11/09 A3007 RMK AO2 CIG 003V006=
201110201110 SPECI KCLM 201110Z AUTO 00000KT 6SM BR BKN005 OVC011 11/09 A3007 RMK AO2 CIG 003V006=
201110201100 METAR KCLM NIL=
201110201051 SPECI KCLM 201051Z AUTO 00000KT 3SM BR FEW005 OVC011 10/09 A3006 RMK AO2=
201110201051 SPECI KCLM 201051Z AUTO 00000KT 3SM BR FEW005 OVC011 10/09 A3006 RMK AO2=
201110201048 METAR KCLM 201048Z AUTO 00000KT 1 3/4SM BR FEW005 BKN011 OVC075 10/09 A3006=
201110201047 SPECI KCLM 201047Z AUTO 00000KT 1 3/4SM BR FEW005 BKN011 OVC075 10/09 A3006 RMK AO2 RAE13 P0000=
201110201047 SPECI KCLM 201047Z AUTO 00000KT 1 3/4SM BR FEW005 BKN011 OVC075 10/09 A3006 RMK AO2 RAE13 P0000=
201110201040 SPECI KCLM 201040Z AUTO 00000KT 2SM BR BKN011 BKN080 OVC110 10/09 A3006 RMK AO2 VIS 1 1/4V4 RAE13 P0000=
201110201040 SPECI KCLM 201040Z AUTO 00000KT 2SM BR BKN011 BKN080 OVC110 10/09 A3006 RMK AO2 VIS 1 1/4V4 RAE13 P0000=
201110201033 SPECI KCLM 201033Z AUTO 28003KT 2SM BR SCT011 BKN075 OVC110 10/09 A3006 RMK AO2 RAE13 P0000=
201110201033 SPECI KCLM 201033Z AUTO 28003KT 2SM BR SCT011 BKN075 OVC110 10/09 A3006 RMK AO2 RAE13 P0000=
201110201019 SPECI KCLM 201019Z AUTO 00000KT 3SM BR FEW060 BKN080 OVC100 10/09 A3005 RMK AO2 RAE13 P0000=
201110201019 SPECI KCLM 201019Z AUTO 00000KT 3SM BR FEW060 BKN080 OVC100 10/09 A3005 RMK AO2 RAE13 P0000=
201110201009 SPECI KCLM 201009Z AUTO 00000KT 1 3/4SM -RA BR SCT065 BKN080 OVC110 10/09 A3005 RMK AO2 P0000=
201110201009 SPECI KCLM 201009Z AUTO 00000KT 1 3/4SM -RA BR SCT065 BKN080 OVC110 10/09 A3005 RMK AO2 P0000=
201110200953 METAR KCLM 200953Z AUTO 00000KT 8SM -RA SCT060 OVC080 11/09 A3006 RMK AO2 RAE01B25 SLP179 P0000 T01110094=
201110200942 SPECI KCLM 200942Z AUTO 00000KT 8SM -RA SCT014 BKN055 OVC080 11/09 A3006 RMK AO2 RAE01B25 P0000=
201110200942 SPECI KCLM 200942Z AUTO 00000KT 8SM -RA SCT014 BKN055 OVC080 11/09 A3006 RMK AO2 RAE01B25 P0000=
201110200853 METAR KCLM 200853Z AUTO 10003KT 9SM -RA OVC014 11/09 A3006 RMK AO2 RAB50 SLP181 P0000 60000 T01110094 56001=
201110200810 SPECI KCLM 200810Z AUTO 00000KT 8SM OVC014 11/09 A3007 RMK AO2=
201110200810 SPECI KCLM 200810Z AUTO 00000KT 8SM OVC014 11/09 A3007 RMK AO2=
201110200753 METAR KCLM 200753Z AUTO 00000KT 9SM OVC016 11/09 A3006 RMK AO2 RAE00 SLP181 P0000 T01060094 401500044=
201110200653 METAR KCLM 200653Z AUTO 00000KT 10SM -RA BKN015 OVC022 11/09 A3006 RMK AO2 RAB39 SLP180 P0000 T01060089 TSNO=
201110200633 SPECI KCLM 200633Z AUTO 00000KT 10SM SCT015 BKN022 OVC075 11/09 A3007 RMK AO2=
201110200633 SPECI KCLM 200633Z AUTO 00000KT 10SM SCT015 BKN022 OVC075 11/09 A3007 RMK AO2=
201110200553 METAR KCLM 200553Z AUTO 00000KT 10SM BKN100 OVC110 10/08 A3006 RMK AO2 SLP181 T01000083 10128 20100 51006 TSNO=
201110200453 METAR KCLM 200453Z AUTO 00000KT 10SM SCT055 BKN095 11/09 A3006 RMK AO2 SLP181 T01060089=
201110200353 METAR KCLM 200353Z AUTO 00000KT 10SM OVC055 11/08 A3005 RMK AO2 SLP177 T01060083=
201110200253 METAR KCLM 200253Z AUTO 00000KT 10SM FEW055 BKN085 11/09 A3005 RMK AO2 SLP175 T01110089 55000=
201110200232 SPECI KCLM 200232Z AUTO 00000KT 10SM FEW007 BKN060 12/09 A3005 RMK AO2=
201110200232 SPECI KCLM 200232Z AUTO 00000KT 10SM FEW007 BKN060 12/09 A3005 RMK AO2=
201110200153 METAR KCLM 200153Z AUTO 26005KT 10SM SCT070 OVC090 12/09 A3004 RMK AO2 SLP175 T01170089=
201110200053 METAR KCLM 200053Z AUTO 28006KT 10SM SCT028 SCT034 OVC075 12/08 A3004 RMK AO2 SLP175 T01220083=
201110200023 SPECI KCLM 200023Z AUTO 28006KT 10SM OVC030 13/08 A3005 RMK AO2=
201110200023 SPECI KCLM 200023Z AUTO 28006KT 10SM OVC030 13/08 A3005 RMK AO2=
201110192353 METAR KCLM 192353Z AUTO 28005KT 10SM OVC024 13/08 A3005 RMK AO2 SLP175 T01280078 10150 20128 53013=
201110192253 METAR KCLM 192253Z AUTO VRB03KT 10SM BKN020 13/08 A3002 RMK AO2 SLP167 T01330078=
201110192153 METAR KCLM 192153Z AUTO 31008KT 10SM OVC016 13/08 A3003 RMK AO2 SLP170 T01280083=
201110192053 METAR KCLM 192053Z AUTO 30009KT 10SM OVC018 13/09 A3001 RMK AO2 SLP162 T01330089 51012=
201110192043 SPECI KCLM 192043Z AUTO 31009G16KT 10SM BKN018 14/09 A3001 RMK AO2=
201110192043 SPECI KCLM 192043Z AUTO 31009G16KT 10SM BKN018 14/09 A3001 RMK AO2=
201110191953 METAR KCLM 191953Z AUTO 32008KT 10SM CLR 14/09 A3000 RMK AO2 SLP160 T01390094=
201110191853 METAR KCLM 191853Z AUTO 31009KT 10SM CLR 15/09 A3000 RMK AO2 SLP160 T01500094=
201110191753 METAR KCLM 191753Z AUTO 28003KT 10SM SCT120 14/08 A2997 RMK AO2 SLP150 T01440078 10144 20044 51010=
201110191653 METAR KCLM 191653Z AUTO 00000KT 10SM CLR 12/08 A2996 RMK AO2 SLP146 T01170078=
201110191553 METAR KCLM 191553Z AUTO 26003KT 10SM CLR 08/07 A2996 RMK AO2 SLP146 T00830067=
201110191453 METAR KCLM 191453Z AUTO 00000KT 10SM CLR 07/06 A2994 RMK AO2 SLP141 T00720056 53005=
201110191353 METAR KCLM 191353Z AUTO 27003KT 10SM CLR 07/06 A2992 RMK AO2 SLP133 T00720056=
201110191253 METAR KCLM 191253Z AUTO 15005KT 10SM CLR 06/04 A2990 RMK AO2 SLP125 T00560044=
201110191153 METAR KCLM 191153Z AUTO 22003KT 10SM CLR 06/04 A2993 RMK AO2 SLP135 T00610044 10083 20056 58005=
201110191053 METAR KCLM 191053Z AUTO 00000KT 10SM CLR 07/05 A2994 RMK AO2 SLP138 T00670050=
201110190953 METAR KCLM 190953Z AUTO 19003KT 10SM CLR 07/06 A2995 RMK AO2 SLP141 T00720056=
201110190853 METAR KCLM 190853Z AUTO 00000KT 10SM CLR 07/06 A2994 RMK AO2 SLP140 T00720056 56008=
201110190753 METAR KCLM 190753Z AUTO 00000KT 10SM CLR 08/06 A2994 RMK AO2 SLP140 T00780061 401440033=
201110190653 METAR KCLM 190653Z AUTO 00000KT 10SM CLR 08/06 A2996 RMK AO2 SLP146 T00780061=
201110190553 METAR KCLM 190553Z AUTO 00000KT 10SM CLR 08/06 A2997 RMK AO2 SLP148 T00780061 10139 20072 56009=
201110190453 METAR KCLM 190453Z AUTO 00000KT 10SM CLR 08/06 A2997 RMK AO2 SLP150 T00780061=
201110190353 METAR KCLM 190353Z AUTO 00000KT 10SM CLR 07/06 A2997 RMK AO2 SLP150 T00720056=
201110190253 METAR KCLM 190253Z AUTO 00000KT 10SM CLR 08/06 A2999 RMK AO2 SLP157 T00830061 56017=
201110190153 METAR KCLM 190153Z AUTO 00000KT 10SM CLR 09/07 A3000 RMK AO2 SLP161 T00940072=
201110190053 METAR KCLM 190053Z AUTO 00000KT 10SM CLR 12/07 A3002 RMK AO2 SLP169 T01170067=
201110182353 METAR KCLM 182353Z AUTO 10004KT 10SM CLR 14/07 A3004 RMK AO2 SLP175 T01390072 10144 20100 56025=
201110182253 METAR KCLM 182253Z AUTO 11006KT 10SM CLR 14/07 A3007 RMK AO2 SLP183 T01390072=
201110182153 METAR KCLM 182153Z AUTO 09006KT 10SM CLR 14/08 A3009 RMK AO2 SLP191 T01390078=
201110182053 METAR KCLM 182053Z AUTO 08004KT 10SM CLR 13/08 A3012 RMK AO2 SLP200 T01280078 58029=
201110182039 SPECI KCLM 182039Z AUTO 08005KT 10SM FEW011 13/08 A3013 RMK AO2=
201110182039 SPECI KCLM 182039Z AUTO 08005KT 10SM FEW011 13/08 A3013 RMK AO2=
201110182025 SPECI KCLM 182025Z AUTO 09006KT 10SM BKN011 13/08 A3014 RMK AO2=
201110182025 SPECI KCLM 182025Z AUTO 09006KT 10SM BKN011 13/08 A3014 RMK AO2=
201110181953 METAR KCLM 181953Z AUTO 08005KT 10SM BKN009 12/08 A3015 RMK AO2 SLP212 T01170078=
201110181853 METAR KCLM 181853Z AUTO 09005KT 10SM BKN005 BKN100 11/08 A3018 RMK AO2 SLP221 T01060078=
201110181753 METAR KCLM 181753Z AUTO 09006KT 10SM BKN007 11/08 A3021 RMK AO2 CIG 006V011 SLP231 T01060078 10117 20033 56013=
201110181746 SPECI KCLM 181746Z AUTO 09007KT 10SM BKN009 11/08 A3021 RMK AO2=
201110181746 SPECI KCLM 181746Z AUTO 09007KT 10SM BKN009 11/08 A3021 RMK AO2=
201110181727 SPECI KCLM 181727Z AUTO 08006KT 10SM FEW009 11/08 A3021 RMK AO2=
201110181727 SPECI KCLM 181727Z AUTO 08006KT 10SM FEW009 11/08 A3021 RMK AO2=
201110181653 METAR KCLM 181653Z AUTO 09007KT 10SM CLR 11/08 A3022 RMK AO2 SLP233 T01110083=
201110181553 METAR KCLM 181553Z AUTO 11006KT 10SM CLR 09/07 A3023 RMK AO2 SLP239 T00940072=
201110181453 METAR KCLM 181453Z AUTO 15003KT 10SM CLR 08/06 A3025 RMK AO2 SLP245 T00780056 58017=
201110181418 SPECI KCLM 181418Z AUTO 15005KT 10SM SCT015 07/05 A3025 RMK AO2=
201110181418 SPECI KCLM 181418Z AUTO 15005KT 10SM SCT015 07/05 A3025 RMK AO2=
201110181401 SPECI KCLM 181401Z AUTO 15006KT 10SM OVC015 07/06 A3026 RMK AO2=
201110181401 SPECI KCLM 181401Z AUTO 15006KT 10SM OVC015 07/06 A3026 RMK AO2=
201110181353 METAR KCLM 181353Z AUTO 16005KT 10SM OVC013 07/06 A3027 RMK AO2 SLP250 T00720056=
201110181253 METAR KCLM 181253Z AUTO 17003KT 10SM BKN011 04/03 A3028 RMK AO2 SLP257 T00390028=
201110181231 SPECI KCLM 181231Z AUTO 14003KT 10SM BKN013 04/02 A3029 RMK AO2=
201110181231 SPECI KCLM 181231Z AUTO 14003KT 10SM BKN013 04/02 A3029 RMK AO2=
201110181153 METAR KCLM 181153Z AUTO 15003KT 9SM CLR 04/03 A3030 RMK AO2 SLP261 T00390028 10078 20039 56015=
201110181053 METAR KCLM 181053Z AUTO 14004KT 10SM CLR 06/04 A3031 RMK AO2 SLP264 T00560039=
201110180953 METAR KCLM 180953Z AUTO 13007KT 10SM CLR 06/04 A3032 RMK AO2 SLP269 T00610039=
201110180853 METAR KCLM 180853Z AUTO 16003KT 10SM CLR 05/03 A3034 RMK AO2 SLP276 T00500033 58010=
201110180753 METAR KCLM 180753Z AUTO 17004KT 10SM CLR 04/03 A3036 RMK AO2 SLP282 T00440028 401330039=
201110180653 METAR KCLM 180653Z AUTO 16003KT 10SM CLR 04/02 A3037 RMK AO2 SLP284 T00440022=
201110180553 METAR KCLM 180553Z AUTO 17003KT 10SM CLR 05/03 A3037 RMK AO2 SLP287 T00500033 10128 20050 58003=
201110180453 METAR KCLM 180453Z AUTO 00000KT 10SM CLR 06/04 A3038 RMK AO2 SLP288 T00610044=
201110180353 METAR KCLM 180353Z AUTO 15004KT 10SM CLR 07/06 A3038 RMK AO2 SLP290 T00720056=
201110180253 METAR KCLM 180253Z AUTO 00000KT 10SM CLR 08/06 A3038 RMK AO2 SLP291 T00780056 55004=
201110180153 METAR KCLM 180153Z AUTO 16004KT 10SM CLR 09/06 A3037 RMK AO2 SLP287 T00890056=
201110180053 METAR KCLM 180053Z AUTO 09004KT 10SM CLR 12/05 A3038 RMK AO2 SLP287 T01170050=
201110172353 METAR KCLM 172353Z AUTO 00000KT 10SM CLR 13/06 A3039 RMK AO2 SLP293 T01280061 10133 20106 58009=
201110172253 METAR KCLM 172253Z AUTO 00000KT 10SM CLR 12/07 A3042 RMK AO2 SLP301 T01170067=
201110172153 METAR KCLM 172153Z AUTO VRB04KT 10SM CLR 13/06 A3041 RMK AO2 SLP297 T01280061=
201110172053 METAR KCLM 172053Z AUTO VRB03KT 10SM CLR 12/07 A3042 RMK AO2 SLP303 T01220067 58010=
201110171953 METAR KCLM 171953Z AUTO 06005KT 10SM CLR 12/07 A3044 RMK AO2 SLP310 T01170072=
201110171853 METAR KCLM 171853Z AUTO VRB04KT 10SM SCT008 OVC065 12/08 A3045 RMK AO2 SLP313 T01170078=
201110171836 SPECI KCLM 171836Z AUTO VRB03KT 10SM SCT008 BKN065 11/07 A3045 RMK AO2=
201110171836 SPECI KCLM 171836Z AUTO VRB03KT 10SM SCT008 BKN065 11/07 A3045 RMK AO2=
201110171753 METAR KCLM 171753Z AUTO VRB03KT 10SM FEW065 11/07 A3045 RMK AO2 SLP314 T01060072 10111 20044 53011=
201110171653 METAR KCLM 171653Z AUTO 00000KT 10SM FEW065 OVC100 11/05 A3043 RMK AO2 SLP305 T01060050=
201110171553 METAR KCLM 171553Z AUTO 25004KT 10SM OVC085 08/04 A3042 RMK AO2 SLP304 T00830039=
201110171453 METAR KCLM 171453Z AUTO 24005KT 10SM SCT095 06/03 A3042 RMK AO2 SLP303 T00610028 53010=
201110171353 METAR KCLM 171353Z AUTO 00000KT 10SM BKN090 07/03 A3041 RMK AO2 SLP298 T00720028=
201110171253 METAR KCLM 171253Z AUTO 23007KT 10SM SCT080 BKN100 OVC120 08/03 A3039 RMK AO2 SLP293 T00780033=
201110171153 METAR KCLM 171153Z AUTO 24005KT 10SM OVC070 08/04 A3039 RMK AO2 SLP291 T00830039 10083 20044 51008=
201110171053 METAR KCLM 171053Z AUTO 24005KT 10SM OVC080 07/04 A3039 RMK AO2 SLP291 T00720044=
201110171012 SPECI KCLM 171012Z AUTO 23004KT 10SM SCT024 OVC085 07/04 A3038 RMK AO2=
201110171012 SPECI KCLM 171012Z AUTO 23004KT 10SM SCT024 OVC085 07/04 A3038 RMK AO2=
201110170953 METAR KCLM 170953Z AUTO 23005KT 10SM OVC022 07/04 A3038 RMK AO2 SLP289 T00670039=
201110170905 SPECI KCLM 170905Z AUTO 23005KT 10SM BKN022 06/04 A3036 RMK AO2=
201110170905 SPECI KCLM 170905Z AUTO 23005KT 10SM BKN022 06/04 A3036=
201110170853 METAR KCLM 170853Z AUTO 22005KT 10SM FEW022 06/03 A3036 RMK AO2 SLP283 T00610033 51016=
201110170753 METAR KCLM 170753Z AUTO 23005KT 10SM CLR 06/03 A3034 RMK AO2 SLP276 T00560033 401280006=
201110170653 METAR KCLM 170653Z AUTO 23006KT 10SM CLR 06/03 A3034 RMK AO2 SLP274 T00610033=
201110170553 METAR KCLM 170553Z AUTO 00000KT 10SM CLR 04/03 A3031 RMK AO2 SLP267 T00440028 10128 20039 51010=
201110170453 METAR KCLM 170453Z AUTO 22005KT 10SM CLR 06/04 A3031 RMK AO2 SLP265 T00610039=
201110170353 METAR KCLM 170353Z AUTO 24004KT 10SM CLR 06/03 A3030 RMK AO2 SLP261 T00610033=
201110170253 METAR KCLM 170253Z AUTO 25004KT 10SM CLR 06/04 A3028 RMK AO2 SLP257 T00610039 53015=
201110170153 METAR KCLM 170153Z AUTO 23003KT 10SM CLR 08/05 A3027 RMK AO2 SLP251 T00780050=
201110170053 METAR KCLM 170053Z AUTO 00000KT 10SM CLR 11/05 A3024 RMK AO2 SLP244 T01060050=
201110162353 METAR KCLM 162353Z AUTO 00000KT 10SM CLR 13/04 A3024 RMK AO2 SLP241 T01280044 10128 20106 53007=
201110162253 METAR KCLM 162253Z AUTO 05004KT 10SM CLR 12/04 A3023 RMK AO2 SLP237 T01220044=
201110162153 METAR KCLM 162153Z AUTO VRB03KT 10SM CLR 12/05 A3022 RMK AO2 SLP235 T01170050=
201110162053 METAR KCLM 162053Z AUTO 09005KT 10SM CLR 12/04 A3022 RMK AO2 SLP234 T01170044 50013=
201110161953 METAR KCLM 161953Z AUTO 05005KT 10SM CLR 11/05 A3022 RMK AO2 SLP236 T01110050=
201110161853 METAR KCLM 161853Z AUTO 09006KT 10SM CLR 11/05 A3020 RMK AO2 SLP227 T01060050=
201110161753 METAR KCLM 161753Z AUTO 08008KT 10SM CLR 11/05 A3018 RMK AO2 SLP221 T01060050 10106 20006 51016=
201110161653 METAR KCLM 161653Z AUTO 10006KT 10SM CLR 09/05 A3017 RMK AO2 SLP217 T00940050=
201110161553 METAR KCLM 161553Z AUTO 23004KT 10SM CLR 04/02 A3016 RMK AO2 SLP214 T00440022=
201110161453 METAR KCLM 161453Z AUTO 22004KT 10SM CLR 03/01 A3013 RMK AO2 SLP204 T00330011 53011=
201110161353 METAR KCLM 161353Z AUTO 22006KT 10SM CLR 04/01 A3012 RMK AO2 SLP200 T00390011=
201110161253 METAR KCLM 161253Z AUTO 23005KT 10SM CLR 03/01 A3010 RMK AO2 SLP195 T00330011=
201110161153 METAR KCLM 161153Z AUTO 00000KT 10SM CLR 03/01 A3010 RMK AO2 SLP193 T00280011 10050 20022 51001=
201110161053 METAR KCLM 161053Z AUTO 23005KT 10SM CLR 04/02 A3009 RMK AO2 SLP193 T00440022=
201110160953 METAR KCLM 160953Z AUTO 00000KT 10SM CLR 03/02 A3010 RMK AO2 SLP194 T00330017=
201110160853 METAR KCLM 160853Z AUTO 22003KT 10SM CLR 03/02 A3009 RMK AO2 SLP192 T00330017 53005=
201110160753 METAR KCLM 160753Z AUTO 00000KT 10SM CLR 03/02 A3008 RMK AO2 SLP188 T00280017 401170011=
201110160653 METAR KCLM 160653Z AUTO 00000KT 10SM CLR 04/02 A3008 RMK AO2 SLP187 T00390022=
201110160553 METAR KCLM 160553Z AUTO 00000KT 10SM CLR 04/03 A3008 RMK AO2 SLP187 T00440028 10111 20044 53001=
201110160453 METAR KCLM 160453Z AUTO 00000KT 10SM CLR 04/03 A3007 RMK AO2 SLP186 T00440028=
201110160353 METAR KCLM 160353Z AUTO 00000KT 10SM CLR 05/03 A3007 RMK AO2 SLP183 T00500028=
201110160253 METAR KCLM 160253Z AUTO 00000KT 10SM CLR 06/04 A3007 RMK AO2 SLP186 T00610039 56005=
201110160153 METAR KCLM 160153Z AUTO 00000KT 10SM CLR 06/04 A3008 RMK AO2 SLP186 T00610044=
201110160053 METAR KCLM 160053Z AUTO 11004KT 10SM CLR 10/06 A3008 RMK AO2 SLP186 T01000056=
201110152353 METAR KCLM 152353Z AUTO 12004KT 10SM CLR 11/06 A3009 RMK AO2 SLP191 T01110056 10117 20094 58013=
201110152253 METAR KCLM 152253Z AUTO 09005KT 10SM CLR 11/06 A3010 RMK AO2 SLP196 T01110056=
201110152153 METAR KCLM 152153Z AUTO VRB04KT 10SM CLR 12/06 A3012 RMK AO2 SLP199 T01170056=
201110152132 SPECI KCLM 152132Z AUTO 00000KT 10SM SCT016 11/06 A3012 RMK AO2=
201110152132 SPECI KCLM 152132Z AUTO 00000KT 10SM SCT016 11/06 A3012 RMK AO2=
201110152053 METAR KCLM 152053Z AUTO 09004KT 10SM OVC016 11/06 A3013 RMK AO2 SLP204 T01060056 58006=
201110151953 METAR KCLM 151953Z AUTO 09005KT 10SM OVC016 11/05 A3015 RMK AO2 SLP211 T01060050=
201110151918 SPECI KCLM 151918Z AUTO VRB04KT 10SM OVC016 09/05 A3015 RMK AO2=
201110151918 SPECI KCLM 151918Z AUTO VRB04KT 10SM OVC016 09/05 A3015 RMK AO2=
201110151853 METAR KCLM 151853Z AUTO VRB04KT 10SM OVC014 10/06 A3015 RMK AO2 SLP211 T01000056=
201110151820 SPECI KCLM 151820Z AUTO VRB04KT 10SM BKN014 09/06 A3015 RMK AO2=
201110151820 SPECI KCLM 151820Z AUTO VRB04KT 10SM BKN014 09/06 A3015 RMK AO2=
201110151753 METAR KCLM 151753Z AUTO VRB05KT 10SM FEW014 10/06 A3015 RMK AO2 SLP211 T01000056 10106 20011 52011=
201110151653 METAR KCLM 151653Z AUTO 09005KT 10SM CLR 10/06 A3014 RMK AO2 SLP208 T01000056=
201110151553 METAR KCLM 151553Z AUTO 14004KT 10SM CLR 07/04 A3012 RMK AO2 SLP203 T00670044=
201110151453 METAR KCLM 151453Z AUTO 00000KT 10SM CLR 02/01 A3011 RMK AO2 SLP200 T00220011 53007=
201110151353 METAR KCLM 151353Z AUTO 00000KT 10SM CLR 03/01 A3010 RMK AO2 SLP195 T00280011=
201110151253 METAR KCLM 151253Z AUTO 00000KT 10SM CLR 03/01 A3010 RMK AO2 SLP194 T00280011=
201110151153 METAR KCLM 151153Z AUTO 00000KT 10SM CLR 03/01 A3009 RMK AO2 SLP193 T00280011 10061 20017 53010=
201110151053 METAR KCLM 151053Z AUTO 00000KT 10SM CLR 02/01 A3008 RMK AO2 SLP188 T00220006=
201110150953 METAR KCLM 150953Z AUTO 21003KT 10SM CLR 05/02 A3007 RMK AO2 SLP183 T00500022=
201110150853 METAR KCLM 150853Z AUTO 23006KT 10SM CLR 04/02 A3006 RMK AO2 SLP182 T00440022 51011=
201110150753 METAR KCLM 150753Z AUTO 21003KT 10SM CLR 04/01 A3005 RMK AO2 SLP179 T00390011 401170033=
201110150653 METAR KCLM 150653Z AUTO 21003KT 10SM CLR 04/02 A3004 RMK AO2 SLP174 T00390017=
201110150553 METAR KCLM 150553Z AUTO 23006KT 10SM CLR 06/03 A3003 RMK AO2 SLP170 T00560028 10111 20044 53006=
201110150453 METAR KCLM 150453Z AUTO 00000KT 10SM CLR 06/03 A3002 RMK AO2 SLP167 T00560033=
201110150353 METAR KCLM 150353Z AUTO 00000KT 10SM CLR 06/04 A3002 RMK AO2 SLP166 T00560044=
201110150253 METAR KCLM 150253Z AUTO 00000KT 10SM CLR 07/05 A3001 RMK AO2 SLP164 T00670050 55001=
201110150153 METAR KCLM 150153Z AUTO 00000KT 10SM CLR 08/06 A3001 RMK AO2 SLP162 T00780061=
201110150053 METAR KCLM 150053Z AUTO 15003KT 10SM CLR 10/07 A3001 RMK AO2 SLP162 T01000072=
201110142353 METAR KCLM 142353Z AUTO 09003KT 10SM CLR 11/07 A3002 RMK AO2 SLP166 T01110072 10117 20100 58004=
201110142308 SPECI KCLM 142308Z AUTO 10003KT 10SM SCT017 11/07 A3002 RMK AO2=
201110142308 SPECI KCLM 142308Z AUTO 10003KT 10SM SCT017 11/07 A3002 RMK AO2=
201110142253 METAR KCLM 142253Z AUTO 09003KT 10SM BKN019 11/07 A3003 RMK AO2 SLP169 T01110067=
201110142153 METAR KCLM 142153Z AUTO 10005KT 10SM OVC021 11/07 A3003 RMK AO2 SLP170 T01110067=
201110142053 METAR KCLM 142053Z AUTO 07003KT 10SM OVC021 11/07 A3003 RMK AO2 SLP169 T01110072 58011=
201110141953 METAR KCLM 141953Z AUTO 10005KT 10SM OVC016 11/07 A3004 RMK AO2 SLP174 T01060067=
201110141853 METAR KCLM 141853Z AUTO 11004KT 10SM OVC016 10/07 A3006 RMK AO2 SLP179 T01000067=
201110141753 METAR KCLM 141753Z AUTO 10006KT 10SM OVC018 11/06 A3006 RMK AO2 SLP181 T01060061 10106 20094 51007=
201110141653 METAR KCLM 141653Z AUTO 13004KT 10SM OVC021 11/06 A3006 RMK AO2 SLP180 T01060061=
201110141553 METAR KCLM 141553Z AUTO 11004KT 10SM OVC024 10/06 A3005 RMK AO2 SLP177 T01000061=
201110141453 METAR KCLM 141453Z AUTO 11004KT 10SM SCT022 OVC028 10/06 A3004 RMK AO2 SLP174 T01000061 51000=
201110141353 METAR KCLM 141353Z AUTO 13003KT 10SM OVC026 10/06 A3004 RMK AO2 SLP174 T01000056=
201110141253 METAR KCLM 141253Z AUTO 11004KT 10SM OVC028 10/06 A3005 RMK AO2 SLP175 T01000056=
201110141153 METAR KCLM 141153Z AUTO 13006KT 10SM BKN030 OVC120 09/06 A3004 RMK AO2 SLP174 T00940056 10094 20072 58010=
201110141053 METAR KCLM 141053Z AUTO 11003KT 10SM OVC110 09/05 A3006 RMK AO2 SLP179 T00890050=
201110140953 METAR KCLM 140953Z AUTO 14004KT 10SM OVC120 09/06 A3006 RMK AO2 SLP180 T00890056=
201110140853 METAR KCLM 140853Z AUTO 00000KT 10SM BKN120 08/06 A3007 RMK AO2 SLP184 T00780056 55007=
201110140753 METAR KCLM 140753Z AUTO 16003KT 10SM CLR 07/06 A3007 RMK AO2 SLP183 T00720056 401220028=
201110140653 METAR KCLM 140653Z AUTO 17003KT 10SM CLR 08/05 A3009 RMK AO2 SLP189 T00830050=
201110140553 METAR KCLM 140553Z AUTO 14003KT 10SM CLR 07/04 A3009 RMK AO2 SLP191 T00720044 10111 20072 56006=
201110140453 METAR KCLM 140453Z AUTO 12003KT 10SM CLR 07/06 A3010 RMK AO2 SLP192 T00720056=
201110140353 METAR KCLM 140353Z AUTO 00000KT 10SM CLR 08/06 A3010 RMK AO2 SLP196 T00830061=
201110140253 METAR KCLM 140253Z AUTO 15003KT 10SM CLR 08/06 A3011 RMK AO2 SLP198 T00830061 56018=
201110140153 METAR KCLM 140153Z AUTO 00000KT 10SM CLR 09/06 A3012 RMK AO2 SLP202 T00940061=
201110140053 METAR KCLM 140053Z AUTO 16004KT 10SM CLR 11/07 A3014 RMK AO2 SLP207 T01060067=
201110132353 METAR KCLM 132353Z AUTO 09006KT 10SM CLR 11/07 A3016 RMK AO2 SLP215 T01110067 10122 20094 56015=
201110132253 METAR KCLM 132253Z AUTO 08005KT 10SM CLR 12/06 A3017 RMK AO2 SLP218 T01170061=
201110132153 METAR KCLM 132153Z AUTO 10006KT 10SM CLR 12/06 A3019 RMK AO2 SLP223 T01170061=
201110132106 SPECI KCLM 132106Z AUTO 11006KT 10SM SCT009 11/07 A3020 RMK AO2=
201110132106 SPECI KCLM 132106Z AUTO 11006KT 10SM SCT009 11/07 A3020 RMK AO2=
201110132053 METAR KCLM 132053Z AUTO 08004KT 10SM BKN009 11/07 A3021 RMK AO2 SLP230 T01060067 58014=
201110131953 METAR KCLM 131953Z AUTO 07004KT 10SM OVC009 10/07 A3022 RMK AO2 SLP236 T01000067=
201110131853 METAR KCLM 131853Z AUTO VRB03KT 10SM OVC007 10/07 A3024 RMK AO2 SLP240 T01000067=
201110131823 SPECI KCLM 131823Z AUTO 05005KT 10SM OVC007 10/07 A3025 RMK AO2 CIG 006V012=
201110131823 SPECI KCLM 131823Z AUTO 05005KT 10SM OVC007 10/07 A3025 RMK AO2 CIG 006V012=
201110131753 METAR KCLM 131753Z AUTO VRB05KT 10SM BKN012 11/07 A3025 RMK AO2 SLP244 T01060067 10111 20028 50000=
201110131706 SPECI KCLM 131706Z AUTO 13003KT 10SM BKN010 11/07 A3025 RMK AO2 CIG 006V013=
201110131706 SPECI KCLM 131706Z AUTO 13003KT 10SM BKN010 11/07 A3025 RMK AO2 CIG 006V013=
201110131653 METAR KCLM 131653Z AUTO 00000KT 10SM BKN007 BKN010 09/07 A3025 RMK AO2 SLP246 T00940067=
201110131626 SPECI KCLM 131626Z AUTO 00000KT 10SM BKN007 09/05 A3025 RMK AO2=
201110131626 SPECI KCLM 131626Z AUTO 00000KT 10SM BKN007 09/05 A3025 RMK AO2=
201110131616 SPECI KCLM 131616Z AUTO 00000KT 10SM SCT007 08/04 A3025 RMK AO2=
201110131616 SPECI KCLM 131616Z AUTO 00000KT 10SM SCT007 08/04 A3025 RMK AO2=
201110131553 METAR KCLM 131553Z AUTO 00000KT 10SM CLR 07/04 A3025 RMK AO2 SLP244 T00720039=
201110131453 METAR KCLM 131453Z AUTO 22003KT 10SM CLR 06/03 A3025 RMK AO2 SLP245 T00560028 53003=
201110131353 METAR KCLM 131353Z AUTO 23006KT 10SM CLR 06/03 A3024 RMK AO2 SLP242 T00610028=
201110131253 METAR KCLM 131253Z AUTO 23006KT 10SM BKN100 06/03 A3024 RMK AO2 SLP240 T00560028=
201110131153 METAR KCLM 131153Z AUTO 23008KT 10SM SCT100 07/03 A3024 RMK AO2 SLP242 T00670033 10083 20056 58006=
201110131053 METAR KCLM 131053Z AUTO 23006KT 10SM CLR 07/03 A3025 RMK AO2 SLP244 T00670033=
201110130953 METAR KCLM 130953Z AUTO 24008KT 10SM SCT100 07/04 A3026 RMK AO2 SLP246 T00720039=
201110130853 METAR KCLM 130853Z AUTO 23007KT 10SM CLR 08/04 A3026 RMK AO2 SLP248 T00780039 51003=
201110130753 METAR KCLM 130753Z AUTO 23007KT 10SM CLR 08/04 A3026 RMK AO2 SLP247 T00780039 401330072=
201110130653 METAR KCLM 130653Z AUTO 24007KT 10SM CLR 08/04 A3026 RMK AO2 SLP247 T00830044=
201110130553 METAR KCLM 130553Z AUTO 23007KT 10SM CLR 08/05 A3025 RMK AO2 SLP245 T00830050 10133 20072 53005=
201110130453 METAR KCLM 130453Z AUTO 24006KT 10SM CLR 08/06 A3025 RMK AO2 SLP244 T00830056=
201110130353 METAR KCLM 130353Z AUTO 23005KT 10SM CLR 09/06 A3023 RMK AO2 SLP239 T00890061=
201110130253 METAR KCLM 130253Z AUTO 00000KT 10SM CLR 08/06 A3023 RMK AO2 SLP239 T00780056 53003=
201110130153 METAR KCLM 130153Z AUTO 26003KT 10SM CLR 09/07 A3023 RMK AO2 SLP237 T00890072=
201110130053 METAR KCLM 130053Z AUTO 00000KT 10SM CLR 13/07 A3022 RMK AO2 SLP234 T01280072=
201110122353 METAR KCLM 122353Z AUTO 00000KT 10SM CLR 13/07 A3022 RMK AO2 SLP236 60000 T01280072 10133 20111 50004=
201110122253 METAR KCLM 122253Z AUTO 32003KT 10SM OVC060 12/07 A3023 RMK AO2 RAB2158E18 SLP236 P0000 T01220072=
201110122153 METAR KCLM 122153Z AUTO 33003KT 10SM OVC060 12/07 A3022 RMK AO2 SLP235 T01170072=
201110122053 METAR KCLM 122053Z AUTO 00000KT 10SM OVC065 12/09 A3021 RMK AO2 RAE31 SLP232 P0000 60000 T01220089 50002=
201110121953 METAR KCLM 121953Z AUTO 33004KT 10SM -RA FEW030 OVC044 11/08 A3022 RMK AO2 RAB1855E07B35 SLP235 P0000 T01110078=
201110121853 METAR KCLM 121853Z AUTO 35004KT 10SM BKN050 13/07 A3022 RMK AO2 SLP236 T01280067=
201110121753 METAR KCLM 121753Z AUTO 00000KT 10SM OVC060 13/07 A3021 RMK AO2 RAB04E13 SLP230 P0000 60000 T01280067 10128 20089 51014=
201110121653 METAR KCLM 121653Z AUTO 00000KT 10SM OVC055 12/07 A3020 RMK AO2 SLP227 T01170072=
201110121553 METAR KCLM 121553Z AUTO 21003KT 10SM OVC060 10/07 A3019 RMK AO2 SLP223 T01000072=
201110121453 METAR KCLM 121453Z AUTO 22003KT 10SM BKN060 09/07 A3017 RMK AO2 SLP216 60000 T00890067 51015=
201110121353 METAR KCLM 121353Z AUTO 00000KT 10SM OVC060 09/06 A3015 RMK AO2 RAE1259 SLP211 P0000 T00940061=
201110121253 METAR KCLM 121253Z AUTO 23006KT 10SM -RA OVC055 10/07 A3014 RMK AO2 RAB39 SLP206 P0000 T01000067=
201110121153 METAR KCLM 121153Z AUTO 26007KT 10SM BKN060 OVC085 11/06 A3012 RMK AO2 SLP201 60000 70016 T01060061 10111 20078 51013=
201110121053 METAR KCLM 121053Z AUTO 26009KT 10SM BKN060 OVC075 10/06 A3012 RMK AO2 RAB37E46 SLP199 P0000 T01000061=
201110120953 METAR KCLM 120953Z AUTO 25008KT 10SM BKN060 OVC095 11/06 A3011 RMK AO2 SLP195 T01060061=
201110120853 METAR KCLM 120853Z AUTO 27003KT 10SM BKN065 10/07 A3008 RMK AO2 SLP188 60000 T01000067 51023=
201110120753 METAR KCLM 120753Z AUTO 21004KT 10SM OVC065 10/07 A3006 RMK AO2 RAB13E24 SLP180 P0000 T01000067 401560094=
201110120653 METAR KCLM 120653Z AUTO 25005KT 10SM FEW049 OVC060 11/07 A3005 RMK AO2 SLP176 T01060067=
201110120553 METAR KCLM 120553Z AUTO 00000KT 10SM OVC060 09/07 A3001 RMK AO2 SLP163 60001 T00940072 10133 20094 51028=
201110120453 METAR KCLM 120453Z AUTO 26003KT 10SM OVC065 11/07 A3000 RMK AO2 SLP160 T01060072=
201110120400 METAR KCLM NIL=
201110120353 METAR KCLM 120353Z AUTO 00000KT 10SM SCT065 BKN090 11/07 A2996 RMK AO2 SLP147 T01060072=
201110120253 METAR KCLM 120253Z AUTO 21004KT 10SM CLR 11/08 A2993 RMK AO2 RAE02 SLP136 P0000 60001 T01060078 51021=
201110120153 METAR KCLM 120153Z AUTO 25007KT 10SM -RA SCT049 BKN065 OVC110 11/09 A2991 RMK AO2 RAB0056 SLP129 P0001 T01110089=
201110120053 METAR KCLM 120053Z AUTO 25010KT 10SM FEW045 BKN065 12/09 A2989 RMK AO2 SLP123 T01220089=
201110112353 METAR KCLM 112353Z AUTO 24004KT 10SM FEW049 BKN065 OVC110 13/10 A2987 RMK AO2 RAE43 SLP114 P0000 60007 T01280100 10156 20128 51013=
201110112253 METAR KCLM 112253Z AUTO 00000KT 10SM -RA SCT039 SCT049 OVC060 13/10 A2985 RMK AO2 SLP109 P0006 T01330100=
201110112251 SPECI KCLM 112251Z AUTO 00000KT 10SM -RA SCT037 BKN049 OVC060 13/11 A2985 RMK AO2 P0006=
201110112251 SPECI KCLM 112251Z AUTO 00000KT 10SM -RA SCT037 BKN049 OVC060 13/11 A2985 RMK AO2 P0006=
201110112244 SPECI KCLM 112244Z AUTO 16004KT 10SM -RA BKN029 BKN050 OVC060 13/11 A2985 RMK AO2 P0006=
201110112244 SPECI KCLM 112244Z AUTO 16004KT 10SM -RA BKN029 BKN050 OVC060 13/11 A2985 RMK AO2 P0006=
201110112225 SPECI KCLM 112225Z AUTO 17005KT 7SM -RA SCT019 OVC055 13/11 A2984 RMK AO2 P0006=
201110112225 SPECI KCLM 112225Z AUTO 17005KT 7SM -RA SCT019 OVC055 13/11 A2984 RMK AO2 P0006=
201110112216 SPECI KCLM 112216Z AUTO 18003KT 2 1/2SM RA BR BKN021 OVC050 13/11 A2984 RMK AO2 P0006=
201110112216 SPECI KCLM 112216Z AUTO 18003KT 2 1/2SM RA BR BKN021 OVC050 13/11 A2984 RMK AO2 P0006=
201110112153 METAR KCLM 112153Z AUTO 13004KT 10SM -RA OVC050 13/10 A2983 RMK AO2 RAB10 SLP101 P0000 T01330100=
201110112053 METAR KCLM 112053Z AUTO 07003KT 10SM BKN060 13/09 A2980 RMK AO2 RAB02E35 SLP091 P0001 60001 T01330094 51025=
201110111953 METAR KCLM 111953Z AUTO 32007KT 10SM FEW033 SCT040 OVC060 14/10 A2979 RMK AO2 RAB36E50 SLP087 P0000 T01440100=
201110111853 METAR KCLM 111853Z AUTO 32003KT 10SM BKN060 15/09 A2975 RMK AO2 RAB33E43 SLP075 P0000 T01500089=
201110111753 METAR KCLM 111753Z AUTO 00000KT 10SM FEW065 SCT090 BKN110 16/07 A2972 RMK AO2 SLP064 60008 T01560072 10156 20094 51033=
201110111653 METAR KCLM 111653Z AUTO 00000KT 10SM SCT060 13/09 A2970 RMK AO2 RAE03 SLP058 P0000 T01280094=
201110111553 METAR KCLM 111553Z AUTO 00000KT 10SM -RA FEW041 OVC060 11/09 A2967 RMK AO2 RAE07B38 SLP046 P0000 T01110089=
201110111453 METAR KCLM 111453Z AUTO VRB05KT 9SM -RA FEW047 BKN060 11/08 A2963 RMK AO2 RAB49 SLP032 P0000 60008 T01110078 51029=
201110111353 METAR KCLM 111353Z AUTO 27006KT 10SM SCT060 BKN090 11/08 A2959 RMK AO2 RAE18 SLP020 P0001 T01060083=
201110111253 METAR KCLM 111253Z AUTO VRB06KT 10SM -RA BKN055 BKN070 OVC095 11/09 A2958 RMK AO2 PRESRR SLP018 P0007 T01060089=
201110111230 SPECI KCLM 111230Z AUTO 00000KT 10SM -RA BKN037 BKN046 OVC080 11/09 A2956 RMK AO2 P0007=
201110111230 SPECI KCLM 111230Z AUTO 00000KT 10SM -RA BKN037 BKN046 OVC080 11/09 A2956 RMK AO2 P0007=
201110111221 SPECI KCLM 111221Z AUTO 24005KT 4SM RA BR BKN026 OVC044 12/09 A2955 RMK AO2 P0007=
201110111221 SPECI KCLM 111221Z AUTO 24005KT 4SM RA BR BKN026 OVC044 12/09 A2955 RMK AO2 P0007=
201110111153 METAR KCLM 111153Z AUTO 28007KT 10SM -RA FEW033 SCT055 BKN070 11/09 A2954 RMK AO2 RAB52 SLP003 P0000 60032 70034 T01110089 10117 20106 53013=
201110111053 METAR KCLM 111053Z AUTO 23006KT 10SM BKN060 BKN075 OVC100 11/09 A2950 RMK AO2 RAE35 SLP991 P0012 T01060094=
201110111040 SPECI KCLM 111040Z AUTO 22005KT 10SM SCT019 OVC065 11/09 A2950 RMK AO2 RAE35 P0012=
201110111040 SPECI KCLM 111040Z AUTO 22005KT 10SM SCT019 OVC065 11/09 A2950 RMK AO2 RAE35 P0012=
201110111029 SPECI KCLM 111029Z AUTO 15005KT 6SM -RA BR BKN020 OVC065 11/09 A2950 RMK AO2 P0012=
201110111029 SPECI KCLM 111029Z AUTO 15005KT 6SM -RA BR BKN020 OVC065 11/09 A2950 RMK AO2 P0012=
201110111016 SPECI KCLM 111016Z AUTO 23004KT 2 1/2SM RA BR OVC028 11/09 A2952 RMK AO2 P0008=
201110111016 SPECI KCLM 111016Z AUTO 23004KT 2 1/2SM RA BR OVC028 11/09 A2952 RMK AO2 P0008=
201110110953 METAR KCLM 110953Z AUTO 00000KT 9SM -RA BKN044 BKN080 OVC100 11/09 A2949 RMK AO2 SLP988 P0009 T01110094=
201110110853 METAR KCLM 110853Z AUTO 15003KT 5SM RA BR SCT035 OVC060 11/09 A2950 RMK AO2 RAB31 SLP990 P0003 60011 T01110094 53002=
201110110753 METAR KCLM 110753Z AUTO 00000KT 10SM BKN060 BKN110 12/09 A2948 RMK AO2 RAE48 SLP985 P0003 T01170094 401440067=
201110110653 METAR KCLM 110653Z AUTO 20003KT 8SM -RA BKN046 OVC070 12/10 A2949 RMK AO2 SLP986 P0005 T01170100=
201110110553 METAR KCLM 110553Z AUTO 00000KT 10SM -RA OVC060 11/10 A2950 RMK AO2 RAB22 SLP989 P0000 60002 T01110100 10128 20111 58007=
201110110453 METAR KCLM 110453Z AUTO 00000KT 10SM FEW060 BKN070 11/10 A2950 RMK AO2 RAE47 SLP991 P0002 T01110100=
201110110353 METAR KCLM 110353Z AUTO 24005KT 10SM -RA OVC065 12/10 A2952 RMK AO2 RAE03B20 SLP997 P0000 T01170100=
201110110253 METAR KCLM 110253Z AUTO 00000KT 9SM -RA OVC065 12/11 A2952 RMK AO2 RAB0155E19B48 SLP996 P0000 60000 T01170106 51001=
201110110153 METAR KCLM 110153Z AUTO 12003KT 10SM OVC070 12/11 A2952 RMK AO2 RAB12E50 SLP996 P0000 T01220106=
201110110053 METAR KCLM 110053Z AUTO 10003KT 10SM OVC060 13/11 A2952 RMK AO2 RAE14 SLP998 P0000 T01280106=
201110102353 METAR KCLM 102353Z AUTO 00000KT 10SM -RA OVC060 13/10 A2951 RMK AO2 RAE05B45 SLP994 P0000 60000 T01330100 10144 20106 53009=
201110102308 SPECI KCLM 102308Z AUTO 00000KT 10SM SCT031 OVC065 13/10 A2950 RMK AO2 RAE05 P0000=
201110102308 SPECI KCLM 102308Z AUTO 00000KT 10SM SCT031 OVC065 13/10 A2950 RMK AO2 RAE05 P0000=
201110102253 METAR KCLM 102253Z AUTO 00000KT 10SM -RA BKN026 BKN070 13/10 A2949 RMK AO2 RAB26 SLP987 P0000 T01330100=
201110102153 METAR KCLM 102153Z AUTO 00000KT 10SM FEW009 SCT070 13/09 A2947 RMK AO2 RAE22 SLP980 P0000 T01330094=
201110102108 SPECI KCLM 102108Z AUTO 29005KT 8SM -RA FEW009 BKN039 OVC055 12/10 A2949 RMK AO2 P0000=
201110102108 SPECI KCLM 102108Z AUTO 29005KT 8SM -RA FEW009 BKN039 OVC055 12/10 A2949 RMK AO2 P0000=
201110102053 METAR KCLM 102053Z AUTO 28009KT 10SM -RA SCT038 OVC055 12/09 A2949 RMK AO2 RAB37 SLP986 P0000 60000 T01170089 53003=
201110102028 SPECI KCLM 102028Z AUTO 30006KT 10SM SCT008 OVC060 12/09 A2947 RMK AO2=
201110102028 SPECI KCLM 102028Z AUTO 30006KT 10SM SCT008 OVC060 12/09 A2947 RMK AO2=
201110101953 METAR KCLM 101953Z AUTO 31003KT 10SM OVC006 11/08 A2946 RMK AO2 RAB33E44 SLP976 P0000 T01060083=
201110101911 SPECI KCLM 101911Z AUTO 01003KT 10SM OVC004 11/08 A2947 RMK AO2 CIG 004V008=
201110101911 SPECI KCLM 101911Z AUTO 01003KT 10SM OVC004 11/08 A2947 RMK AO2 CIG 004V008=
201110101853 METAR KCLM 101853Z AUTO 35004KT 10SM BKN006 OVC080 11/08 A2948 RMK AO2 SLP983 T01060083=
201110101848 SPECI KCLM 101848Z AUTO 34004KT 10SM BKN006 BKN080 11/08 A2948 RMK AO2=
201110101848 SPECI KCLM 101848Z AUTO 34004KT 10SM BKN006 BKN080 11/08 A2948 RMK AO2=
201110101753 METAR KCLM 101753Z AUTO 00000KT 10SM SCT008 BKN065 12/09 A2949 RMK AO2 SLP985 60000 T01170089 10117 20078 56035=
201110101743 SPECI KCLM 101743Z AUTO VRB03KT 10SM SCT008 OVC065 12/09 A2949 RMK AO2=
201110101743 SPECI KCLM 101743Z AUTO VRB03KT 10SM SCT008 OVC065 12/09 A2949 RMK AO2=
201110101733 SPECI KCLM 101733Z AUTO 02003KT 10SM BKN008 OVC065 11/08 A2949 RMK AO2=
201110101733 SPECI KCLM 101733Z AUTO 02003KT 10SM BKN008 OVC065 11/08 A2949 RMK AO2=
201110101717 SPECI KCLM 101717Z AUTO 00000KT 10SM FEW008 OVC065 12/09 A2950 RMK AO2=
201110101717 SPECI KCLM 101717Z AUTO 00000KT 10SM FEW008 OVC065 12/09 A2950 RMK AO2=
201110101653 METAR KCLM 101653Z AUTO 11003KT 10SM BKN060 BKN070 11/09 A2952 RMK AO2 RAB29E45 SLP995 P0000 T01110089=
201110101614 SPECI KCLM 101614Z AUTO 11003KT 10SM FEW008 OVC075 11/08 A2954 RMK AO2=
201110101614 SPECI KCLM 101614Z AUTO 11003KT 10SM FEW008 OVC075 11/08 A2954 RMK AO2=
201110101553 METAR KCLM 101553Z AUTO 00000KT 10SM BKN008 OVC080 10/08 A2955 RMK AO2 RAB1454E07 SLP006 P0000 T01000083=
201110101542 SPECI KCLM 101542Z AUTO 00000KT 10SM OVC008 09/08 A2956 RMK AO2 RAB1454E07 P0000=
201110101542 SPECI KCLM 101542Z AUTO 00000KT 10SM OVC008 09/08 A2956 RMK AO2 RAB1454E07 P0000=
201110101453 METAR KCLM 101453Z AUTO 00000KT 10SM BKN010 OVC070 08/07 A2959 RMK AO2 RAE06 CIG 008V012 SLP020 P0000 60000 T00830072 58020=
201110101353 METAR KCLM 101353Z AUTO 23003KT 10SM -RA SCT011 OVC065 08/07 A2962 RMK AO2 SLP029 P0000 T00830067=
201110101253 METAR KCLM 101253Z AUTO 00000KT 10SM -RA BKN075 09/07 A2964 RMK AO2 RAB44 SLP036 P0000 T00890067=
201110101153 METAR KCLM 101153Z AUTO 00000KT 10SM OVC095 09/07 A2965 RMK AO2 SLP040 T00890067 10089 20067 56034=
201110101128 SPECI KCLM 101128Z AUTO 22003KT 10SM SCT008 SCT022 OVC095 08/07 A2967 RMK AO2=
201110101128 SPECI KCLM 101128Z AUTO 22003KT 10SM SCT008 SCT022 OVC095 08/07 A2967 RMK AO2=
201110101121 SPECI KCLM 101121Z AUTO 24003KT 10SM SCT005 BKN010 OVC100 08/07 A2967 RMK AO2=
201110101121 SPECI KCLM 101121Z AUTO 24003KT 10SM SCT005 BKN010 OVC100 08/07 A2967 RMK AO2=
201110101103 SPECI KCLM 101103Z AUTO 00000KT 10SM OVC005 08/07 A2968 RMK AO2 CIG 003V008=
201110101103 SPECI KCLM 101103Z AUTO 00000KT 10SM OVC005 08/07 A2968 RMK AO2 CIG 003V008=
201110101053 METAR KCLM 101053Z AUTO 00000KT 10SM OVC003 08/07 A2968 RMK AO2 CIG 002V008 SLP049 T00780067=
201110101010 SPECI KCLM 101010Z AUTO 13003KT 10SM BKN003 07/05 A2970 RMK AO2=
201110101010 SPECI KCLM 101010Z AUTO 13003KT 10SM BKN003 07/05 A2970 RMK AO2=
201110101000 SPECI KCLM 101000Z AUTO 00000KT 10SM SCT003 07/05 A2971 RMK AO2=
201110101000 SPECI KCLM 101000Z AUTO 00000KT 10SM SCT003 07/05 A2971 RMK AO2=
201110100953 METAR KCLM 100953Z AUTO 00000KT 10SM CLR 07/05 A2972 RMK AO2 SLP063 T00720050=
201110100853 METAR KCLM 100853Z AUTO 00000KT 10SM CLR 08/06 A2975 RMK AO2 SLP075 T00780056 58028=
201110100753 METAR KCLM 100753Z AUTO 16003KT 10SM CLR 08/05 A2977 RMK AO2 SLP082 T00780050 401500061=
201110100653 METAR KCLM 100653Z AUTO 15003KT 10SM FEW110 08/06 A2981 RMK AO2 SLP096 T00780056=
201110100553 METAR KCLM 100553Z AUTO 00000KT 10SM CLR 08/06 A2983 RMK AO2 SLP103 T00780056 10133 20061 56022=
201110100453 METAR KCLM 100453Z AUTO 14005KT 10SM CLR 07/05 A2983 RMK AO2 SLP103 T00720050=
201110100353 METAR KCLM 100353Z AUTO 00000KT 10SM CLR 07/06 A2987 RMK AO2 SLP116 T00720056=
201110100253 METAR KCLM 100253Z AUTO 00000KT 10SM OVC050 10/06 A2990 RMK AO2 SLP125 T01000061 56018=
201110100153 METAR KCLM 100153Z AUTO 00000KT 10SM OVC050 10/06 A2992 RMK AO2 SLP132 T01000061=
201110100053 METAR KCLM 100053Z AUTO 00000KT 10SM SCT048 12/06 A2993 RMK AO2 SLP135 T01220056=
201110092353 METAR KCLM 092353Z AUTO 00000KT 10SM SCT050 13/05 A2995 RMK AO2 SLP144 T01280050 10150 20122 58023=
201110092253 METAR KCLM 092253Z AUTO 03004KT 10SM CLR 14/05 A2997 RMK AO2 SLP149 T01390050=
201110092153 METAR KCLM 092153Z AUTO 30006KT 10SM FEW048 14/05 A3001 RMK AO2 SLP161 T01440050=
201110092053 METAR KCLM 092053Z AUTO 02004KT 10SM OVC050 13/08 A3002 RMK AO2 SLP167 T01330078 58011=
201110091953 METAR KCLM 091953Z AUTO 36005KT 10SM FEW100 13/08 A3003 RMK AO2 SLP170 T01330083=
201110091853 METAR KCLM 091853Z AUTO VRB03KT 10SM BKN050 13/07 A3005 RMK AO2 SLP177 T01330067=
201110091753 METAR KCLM 091753Z AUTO 33004KT 10SM CLR 14/07 A3005 RMK AO2 SLP177 T01390067 10139 20089 58008=
201110091653 METAR KCLM 091653Z AUTO 00000KT 10SM BKN049 13/07 A3006 RMK AO2 SLP181 T01280067=
201110091553 METAR KCLM 091553Z AUTO 23005KT 10SM OVC049 11/07 A3008 RMK AO2 SLP185 T01110072=
201110091453 METAR KCLM 091453Z AUTO 22003KT 10SM OVC049 09/07 A3008 RMK AO2 SLP187 T00940067 50000=
201110091353 METAR KCLM 091353Z AUTO 24003KT 10SM OVC047 09/07 A3009 RMK AO2 SLP189 T00940067=
201110091253 METAR KCLM 091253Z AUTO 00000KT 10SM BKN047 09/06 A3009 RMK AO2 SLP190 T00940056=
201110091153 METAR KCLM 091153Z AUTO 25009KT 10SM CLR 11/06 A3008 RMK AO2 SLP186 60000 T01060061 10117 20100 58005=
201110091053 METAR KCLM 091053Z AUTO 26010KT 10SM CLR 11/07 A3008 RMK AO2 SLP187 T01110067=
201110090953 METAR KCLM 090953Z AUTO 25008KT 10SM BKN065 OVC075 11/07 A3009 RMK AO2 SLP191 T01110072=
201110090853 METAR KCLM 090853Z AUTO 25008KT 10SM OVC031 11/08 A3009 RMK AO2 RAE17 SLP191 P0000 60000 T01110083 51004=
201110090848 SPECI KCLM 090848Z AUTO 24008KT 10SM OVC031 11/08 A3009 RMK AO2 RAE17 P0000=
201110090848 SPECI KCLM 090848Z AUTO 24008KT 10SM OVC031 11/08 A3009 RMK AO2 RAE17 P0000=
201110090753 METAR KCLM 090753Z AUTO 26008KT 10SM -RA BKN022 OVC026 11/09 A3009 RMK AO2 RAB20 SLP190 P0000 T01110089 401220044=
201110090736 SPECI KCLM 090736Z AUTO 28011KT 10SM SCT008 BKN020 OVC060 11/09 A3009 RMK AO2 RAB20E35 P0000=
201110090736 SPECI KCLM 090736Z AUTO 28011KT 10SM SCT008 BKN020 OVC060 11/09 A3009 RMK AO2 RAB20E35 P0000=
201110090715 SPECI KCLM 090715Z AUTO 30011KT 10SM BKN008 OVC022 12/09 A3009 RMK AO2=
201110090715 SPECI KCLM 090715Z AUTO 30011KT 10SM BKN008 OVC022 12/09 A3009 RMK AO2=
201110090703 SPECI KCLM 090703Z AUTO 29006KT 10SM BKN010 BKN022 OVC070 12/09 A3008 RMK AO2=
201110090703 SPECI KCLM 090703Z AUTO 29006KT 10SM BKN010 BKN022 OVC070 12/09 A3008 RMK AO2=
201110090653 METAR KCLM 090653Z AUTO 29005KT 10SM FEW012 SCT022 OVC070 11/09 A3008 RMK AO2 SLP187 T01110094=
201110090553 METAR KCLM 090553Z AUTO 22003KT 10SM OVC075 12/09 A3006 RMK AO2 SLP181 60000 T01170094 10122 20106 51007=
201110090453 METAR KCLM 090453Z AUTO 27005KT 10SM OVC075 11/09 A3006 RMK AO2 SLP180 T01110094=
201110090353 METAR KCLM 090353Z AUTO 26004KT 10SM BKN100 11/09 A3007 RMK AO2 RAB05E17 SLP182 P0000 T01060089=
201110090253 METAR KCLM 090253Z AUTO 00000KT 10SM SCT080 OVC100 12/09 A3004 RMK AO2 RAB20E49 SLP174 P0000 60000 T01170094 58014=
201110090153 METAR KCLM 090153Z AUTO 17003KT 10SM OVC070 12/09 A3007 RMK AO2 RAB34E50 SLP183 P0000 T01170094=
201110090053 METAR KCLM 090053Z AUTO 00000KT 10SM SCT065 BKN100 12/08 A3008 RMK AO2 SLP187 T01220083=
201110082353 METAR KCLM 082353Z AUTO 00000KT 10SM BKN085 12/08 A3008 RMK AO2 SLP188 T01170083 10117 20094 56013=
201110082309 SPECI KCLM 082309Z AUTO 00000KT 10SM SCT007 11/08 A3008 RMK AO2=
201110082309 SPECI KCLM 082309Z AUTO 00000KT 10SM SCT007 11/08 A3008 RMK AO2=
201110082253 METAR KCLM 082253Z AUTO 31003KT 10SM BKN007 11/08 A3009 RMK AO2 SLP190 T01110083=
201110082153 METAR KCLM 082153Z AUTO 00000KT 10SM OVC005 11/08 A3011 RMK AO2 SLP196 T01060083=
201110082124 SPECI KCLM 082124Z AUTO 34003KT 10SM OVC005 11/08 A3011 RMK AO2=
201110082124 SPECI KCLM 082124Z AUTO 34003KT 10SM OVC005 11/08 A3011 RMK AO2=
201110082053 METAR KCLM 082053Z AUTO 00000KT 10SM OVC003 11/08 A3012 RMK AO2 SLP201 T01060083 58016=
201110082000 SPECI KCLM 082000Z AUTO 00000KT 8SM OVC003 10/08 A3014 RMK AO2 CIG 001V005=
201110082000 SPECI KCLM 082000Z AUTO 00000KT 8SM OVC003 10/08 A3014 RMK AO2 CIG 001V005=
201110081953 METAR KCLM 081953Z AUTO 36003KT 2 1/2SM BR OVC003 10/08 A3014 RMK AO2 CIG 001V005 SLP207 T01000083=
201110081932 SPECI KCLM 081932Z AUTO 00000KT 1 1/4SM BR OVC003 10/08 A3015 RMK AO2 VIS 3/4V3=
201110081932 SPECI KCLM 081932Z AUTO 00000KT 1 1/4SM BR OVC003 10/08 A3015 RMK AO2 VIS 3/4V3=
201110081917 SPECI KCLM 081917Z AUTO 00000KT 2 1/2SM BR OVC003 10/08 A3015 RMK AO2 VIS 1 1/2V5 CIG 001V006=
201110081917 SPECI KCLM 081917Z AUTO 00000KT 2 1/2SM BR OVC003 10/08 A3015 RMK AO2 VIS 1 1/2V5 CIG 001V006=
201110081853 METAR KCLM 081853Z AUTO 36003KT 10SM OVC005 10/08 A3015 RMK AO2 SLP212 T01000078=
201110081827 SPECI KCLM 081827Z AUTO 00000KT 10SM BKN005 10/08 A3016 RMK AO2 CIG 001V007=
201110081827 SPECI KCLM 081827Z AUTO 00000KT 10SM BKN005 10/08 A3016 RMK AO2 CIG 001V007=
201110081810 SPECI KCLM 081810Z AUTO 00000KT 10SM OVC003 09/08 A3017 RMK AO2=
201110081810 SPECI KCLM 081810Z AUTO 00000KT 10SM OVC003 09/08 A3017 RMK AO2=
201110081807 SPECI KCLM 081807Z AUTO 00000KT 2 1/2SM BR OVC001 09/08 A3017 RMK AO2=
201110081807 SPECI KCLM 081807Z AUTO 00000KT 2 1/2SM BR OVC001 09/08 A3017 RMK AO2=
201110081800 SPECI KCLM 081800Z AUTO VRB03KT 1/2SM FG OVC001 09/08 A3017 RMK AO2=
201110081800 SPECI KCLM 081800Z AUTO VRB03KT 1/2SM FG OVC001 09/08 A3017 RMK AO2=
201110081753 METAR KCLM 081753Z AUTO 34003KT 1 1/4SM BR OVC001 09/08 A3017 RMK AO2 VIS 1/2V4 SLP217 T00940083 10100 20050 56011=
201110081735 SPECI KCLM 081735Z AUTO 00000KT 1/4SM FG OVC003 09/08 A3017 RMK AO2=
201110081735 SPECI KCLM 081735Z AUTO 00000KT 1/4SM FG OVC003 09/08 A3017 RMK AO2=
201110081728 SPECI KCLM 081728Z AUTO 36003KT 1 1/2SM BR OVC003 09/08 A3017 RMK AO2 CIG 001V005=
201110081728 SPECI KCLM 081728Z AUTO 36003KT 1 1/2SM BR OVC003 09/08 A3017 RMK AO2 CIG 001V005=
201110081653 METAR KCLM 081653Z AUTO 00000KT 10SM OVC003 09/08 A3017 RMK AO2 SLP218 T00940078=
201110081553 METAR KCLM 081553Z AUTO 09003KT 10SM OVC003 09/08 A3019 RMK AO2 SLP223 T00940078=
201110081543 SPECI KCLM 081543Z AUTO 11005KT 4SM BR OVC001 09/08 A3018 RMK AO2=
201110081543 SPECI KCLM 081543Z AUTO 11005KT 4SM BR OVC001 09/08 A3018 RMK AO2=
201110081540 SPECI KCLM 081540Z AUTO 10005KT 1 1/4SM BR OVC001 09/08 A3018 RMK AO2=
201110081540 SPECI KCLM 081540Z AUTO 10005KT 1 1/4SM BR OVC001 09/08 A3018 RMK AO2=
201110081526 SPECI KCLM 081526Z AUTO 12003KT 1/4SM FG VV001 09/08 A3019 RMK AO2=
201110081526 SPECI KCLM 081526Z AUTO 12003KT 1/4SM FG VV001 09/08 A3019 RMK AO2=
201110081518 SPECI KCLM 081518Z AUTO 09003KT 3/4SM BR OVC001 09/07 A3019 RMK AO2=
201110081518 SPECI KCLM 081518Z AUTO 09003KT 3/4SM BR OVC001 09/07 A3019 RMK AO2=
201110081509 SPECI KCLM 081509Z AUTO 00000KT 2 1/2SM BR OVC001 09/08 A3020 RMK AO2=
201110081509 SPECI KCLM 081509Z AUTO 00000KT 2 1/2SM BR OVC001 09/08 A3020 RMK AO2=
201110081453 METAR KCLM 081453Z AUTO 00000KT 8SM BKN001 OVC013 08/07 A3020 RMK AO2 SLP229 T00830072 56003=
201110081451 SPECI KCLM 081451Z AUTO 00000KT 8SM BKN001 OVC013 08/07 A3020 RMK AO2=
201110081451 SPECI KCLM 081451Z AUTO 00000KT 8SM BKN001 OVC013 08/07 A3020 RMK AO2=
201110081430 SPECI KCLM 081430Z AUTO 10003KT 7SM FEW001 BKN013 07/06 A3020 RMK AO2=
201110081430 SPECI KCLM 081430Z AUTO 10003KT 7SM FEW001 BKN013 07/06 A3020 RMK AO2=
201110081423 SPECI KCLM 081423Z AUTO 00000KT 1 1/4SM BR SCT013 06/05 A3021 RMK AO2=
201110081423 SPECI KCLM 081423Z AUTO 00000KT 1 1/4SM BR SCT013 06/05 A3021 RMK AO2=
201110081415 SPECI KCLM 081415Z AUTO 00000KT 3/4SM BR VV013 06/04 A3021 RMK AO2=
201110081415 SPECI KCLM 081415Z AUTO 00000KT 3/4SM BR VV013 06/04 A3021 RMK AO2=
201110081411 SPECI KCLM 081411Z AUTO 00000KT 1 3/4SM BR CLR 06/04 A3021 RMK AO2=
201110081411 SPECI KCLM 081411Z AUTO 00000KT 1 3/4SM BR CLR 06/04 A3021 RMK AO2=
201110081353 METAR KCLM 081353Z AUTO 00000KT 10SM CLR 07/06 A3021 RMK AO2 SLP230 T00720056=
201110081313 SPECI KCLM 081313Z AUTO 00000KT 5SM BR SCT014 08/06 A3021 RMK AO2=
201110081313 SPECI KCLM 081313Z AUTO 00000KT 5SM BR SCT014 08/06 A3021 RMK AO2=
201110081253 METAR KCLM 081253Z AUTO 00000KT 10SM OVC014 08/07 A3021 RMK AO2 SLP232 T00830067=
201110081153 METAR KCLM 081153Z AUTO 13003KT 10SM OVC016 07/06 A3022 RMK AO2 SLP234 T00720061 10089 20044 56005=
201110081126 SPECI KCLM 081126Z AUTO 26004KT 10SM BKN016 06/05 A3023 RMK AO2=
201110081126 SPECI KCLM 081126Z AUTO 26004KT 10SM BKN016 06/05 A3023 RMK AO2=
201110081053 METAR KCLM 081053Z AUTO 00000KT 8SM FEW016 06/04 A3022 RMK AO2 SLP234 T00610044=
201110080953 METAR KCLM 080953Z AUTO 00000KT 6SM BR CLR 06/04 A3023 RMK AO2 SLP236 T00560044=
201110080853 METAR KCLM 080853Z AUTO 00000KT 9SM CLR 06/05 A3023 RMK AO2 SLP239 T00610050 51004=
201110080753 METAR KCLM 080753Z AUTO 00000KT 10SM CLR 06/05 A3023 RMK AO2 SLP237 T00610050 401610061=
201110080653 METAR KCLM 080653Z AUTO 15003KT 10SM CLR 07/06 A3023 RMK AO2 SLP238 T00720056=
201110080553 METAR KCLM 080553Z AUTO 23003KT 10SM CLR 09/07 A3022 RMK AO2 SLP235 T00890072 10139 20083 51004=
201110080453 METAR KCLM 080453Z AUTO 00000KT 10SM CLR 10/08 A3022 RMK AO2 SLP234 T01000083=
201110080435 SPECI KCLM 080435Z AUTO 00000KT 10SM SCT019 12/09 A3021 RMK AO2=
201110080435 SPECI KCLM 080435Z AUTO 00000KT 10SM SCT019 12/09 A3021 RMK AO2=
201110080353 METAR KCLM 080353Z AUTO 22003KT 10SM OVC019 13/09 A3022 RMK AO2 SLP233 T01280094=
201110080253 METAR KCLM 080253Z AUTO 00000KT 10SM OVC017 12/09 A3021 RMK AO2 SLP230 T01220094 51013=
201110080233 SPECI KCLM 080233Z AUTO 26003KT 10SM BKN017 12/09 A3021 RMK AO2=
201110080233 SPECI KCLM 080233Z AUTO 26003KT 10SM BKN017 12/09 A3021 RMK AO2=
201110080153 METAR KCLM 080153Z AUTO 24003KT 10SM FEW019 OVC041 13/09 A3020 RMK AO2 SLP227 T01280094=
201110080139 SPECI KCLM 080139Z AUTO 26003KT 10SM SCT019 SCT026 OVC037 13/09 A3020 RMK AO2=
201110080139 SPECI KCLM 080139Z AUTO 26003KT 10SM SCT019 SCT026 OVC037 13/09 A3020 RMK AO2=
201110080053 METAR KCLM 080053Z AUTO 32003KT 10SM OVC018 13/10 A3019 RMK AO2 SLP224 T01280100=
201110080025 SPECI KCLM 080025Z AUTO 02003KT 10SM BKN020 13/11 A3019 RMK AO2=
201110080025 SPECI KCLM 080025Z AUTO 02003KT 10SM BKN020 13/11 A3019 RMK AO2=
201110072353 METAR KCLM 072353Z AUTO VRB03KT 10SM CLR 14/10 A3017 RMK AO2 SLP218 T01390100 10161 20117 51005=
201110072253 METAR KCLM 072253Z AUTO 36003KT 10SM BKN050 14/10 A3017 RMK AO2 SLP216 T01440100=
201110072153 METAR KCLM 072153Z AUTO 33005KT 10SM SCT023 16/09 A3016 RMK AO2 SLP214 T01560094=
201110072103 SPECI KCLM 072103Z AUTO 34003KT 10SM BKN018 16/11 A3016 RMK AO2=
201110072103 SPECI KCLM 072103Z AUTO 34003KT 10SM BKN018 16/11 A3016 RMK AO2=
201110072053 METAR KCLM 072053Z AUTO VRB06KT 10SM SCT016 16/11 A3016 RMK AO2 SLP212 T01560106 50000=
201110072023 SPECI KCLM 072023Z AUTO 29004KT 10SM SCT016 SCT060 14/11 A3016 RMK AO2=
201110072023 SPECI KCLM 072023Z AUTO 29004KT 10SM SCT016 SCT060 14/11 A3016 RMK AO2=
201110071953 METAR KCLM 071953Z AUTO 00000KT 10SM BKN010 BKN015 OVC060 14/11 A3016 RMK AO2 CIG 009V012 SLP212 T01440106=
201110071951 SPECI KCLM 071951Z AUTO VRB03KT 10SM BKN010 OVC015 14/11 A3016 RMK AO2 CIG 009V012=
201110071951 SPECI KCLM 071951Z AUTO VRB03KT 10SM BKN010 OVC015 14/11 A3016 RMK AO2 CIG 009V012=
201110071853 METAR KCLM 071853Z AUTO 00000KT 10SM OVC009 13/10 A3015 RMK AO2 CIG 004V013 SLP212 T01280100=
201110071827 SPECI KCLM 071827Z AUTO 00000KT 10SM SCT005 OVC011 12/10 A3015 RMK AO2=
201110071827 SPECI KCLM 071827Z AUTO 00000KT 10SM SCT005 OVC011 12/10 A3015 RMK AO2=
201110071815 SPECI KCLM 071815Z AUTO 00000KT 10SM BKN005 OVC009 12/10 A3015 RMK AO2 CIG 003V008=
201110071815 SPECI KCLM 071815Z AUTO 00000KT 10SM BKN005 OVC009 12/10 A3015 RMK AO2 CIG 003V008=
201110071753 METAR KCLM 071753Z AUTO 00000KT 10SM OVC003 12/10 A3014 RMK AO2 CIG 003V008 SLP206 60000 T01220100 10122 20106 51014=
201110071713 SPECI KCLM 071713Z AUTO 00000KT 6SM BR OVC003 12/10 A3014 RMK AO2=
201110071713 SPECI KCLM 071713Z AUTO 00000KT 6SM BR OVC003 12/10 A3014 RMK AO2=
201110071653 METAR KCLM 071653Z AUTO 00000KT 2 1/2SM BR OVC003 11/10 A3013 RMK AO2 SLP205 T01110100=
201110071608 SPECI KCLM 071608Z AUTO 00000KT 3SM BR OVC003 12/10 A3012 RMK AO2 CIG 001V005 TSNO=
201110071608 SPECI KCLM 071608Z AUTO 00000KT 3SM BR OVC003 12/10 A3012 RMK AO2 CIG 001V005 TSNO=
201110071553 METAR KCLM 071553Z AUTO 00000KT 9SM OVC005 11/10 A3011 RMK AO2 SLP197 T01110100 TSNO=
201110071453 METAR KCLM 071453Z AUTO 00000KT 9SM OVC009 11/10 A3010 RMK AO2 CIG 006V011 SLP192 60000 T01110100 51010=
201110071424 SPECI KCLM 071424Z AUTO 00000KT 10SM SCT003 OVC007 11/09 A3009 RMK AO2=
201110071424 SPECI KCLM 071424Z AUTO 00000KT 10SM SCT003 OVC007 11/09 A3009 RMK AO2=
201110071353 METAR KCLM 071353Z AUTO 00000KT 10SM OVC003 11/09 A3009 RMK AO2 RAE37 SLP191 P0000 T01110094=
201110071253 METAR KCLM 071253Z AUTO 00000KT 9SM -RA BKN005 BKN013 OVC017 11/09 A3009 RMK AO2 RAB50 CIG 004V009 SLP189 P0000 T01060094=
201110071203 SPECI KCLM 071203Z AUTO 22003KT 10SM BKN007 OVC049 11/09 A3007 RMK AO2 CIG 006V011=
201110071203 SPECI KCLM 071203Z AUTO 22003KT 10SM BKN007 OVC049 11/09 A3007 RMK AO2 CIG 006V011=
201110071153 METAR KCLM 071153Z AUTO 23003KT 10SM SCT007 BKN047 OVC060 11/09 A3007 RMK AO2 SLP182 60000 T01060089 10111 20100 55003=
201110071053 METAR KCLM 071053Z AUTO 00000KT 10SM OVC048 11/09 A3006 RMK AO2 RAB0958E27 SLP182 P0000 T01060089=
201110070953 METAR KCLM 070953Z AUTO 00000KT 10SM OVC075 10/09 A3007 RMK AO2 RAE43 SLP184 P0000 T01000089=
201110070853 METAR KCLM 070853Z AUTO 23005KT 10SM -RA OVC085 11/09 A3008 RMK AO2 RAB03E22B43 SLP185 P0000 60000 T01060089 53007=
201110070753 METAR KCLM 070753Z AUTO 00000KT 10SM FEW025 OVC090 11/08 A3006 RMK AO2 SLP181 T01110083 401560083=
201110070708 SPECI KCLM 070708Z AUTO 27003KT 10SM BKN021 OVC110 11/08 A3006 RMK AO2=
201110070708 SPECI KCLM 070708Z AUTO 27003KT 10SM BKN021 OVC110 11/08 A3006 RMK AO2=
201110070653 METAR KCLM 070653Z AUTO 24003KT 10SM FEW023 OVC110 10/08 A3006 RMK AO2 SLP179 T01000083=
201110070553 METAR KCLM 070553Z AUTO 00000KT 10SM SCT028 08/07 A3005 RMK AO2 SLP178 T00830067 10133 20083 51001=
201110070453 METAR KCLM 070453Z AUTO 25003KT 10SM CLR 11/08 A3005 RMK AO2 SLP177 T01060078=
201110070434 SPECI KCLM 070434Z AUTO 23003KT 10SM SCT023 BKN030 11/08 A3005 RMK AO2=
201110070434 SPECI KCLM 070434Z AUTO 23003KT 10SM SCT023 BKN030 11/08 A3005 RMK AO2=
201110070400 SPECI KCLM 070400Z AUTO 23003KT 10SM BKN027 11/08 A3006 RMK AO2=
201110070400 SPECI KCLM 070400Z AUTO 23003KT 10SM BKN027 11/08 A3006 RMK AO2=
201110070353 METAR KCLM 070353Z AUTO 23003KT 10SM SCT027 11/08 A3006 RMK AO2 SLP179 T01060083=
201110070320 SPECI KCLM 070320Z AUTO 00000KT 10SM FEW025 12/09 A3005 RMK AO2=
201110070320 SPECI KCLM 070320Z AUTO 00000KT 10SM FEW025 12/09 A3005 RMK AO2=
201110070253 METAR KCLM 070253Z AUTO 00000KT 10SM BKN016 OVC023 12/09 A3005 RMK AO2 SLP177 T01220089 53012=
201110070153 METAR KCLM 070153Z AUTO 28006KT 10SM OVC018 13/09 A3004 RMK AO2 SLP173 T01280089=
201110070053 METAR KCLM 070053Z AUTO 31005KT 10SM OVC028 13/09 A3002 RMK AO2 SLP167 T01330089=
201110062353 METAR KCLM 062353Z AUTO 31007KT 10SM OVC017 13/09 A3001 RMK AO2 SLP165 T01330094 10156 20128 51012=
201110062253 METAR KCLM 062253Z AUTO 32007KT 10SM OVC019 14/09 A3001 RMK AO2 SLP161 T01390094=
201110062243 SPECI KCLM 062243Z AUTO 32005KT 10SM BKN021 OVC031 14/09 A3001 RMK AO2=
201110062243 SPECI KCLM 062243Z AUTO 32005KT 10SM BKN021 OVC031 14/09 A3001 RMK AO2=
201110062223 SPECI KCLM 062223Z AUTO 32005KT 10SM OVC031 14/09 A3000 RMK AO2=
201110062223 SPECI KCLM 062223Z AUTO 32005KT 10SM OVC031 14/09 A3000 RMK AO2=
201110062153 METAR KCLM 062153Z AUTO 30004KT 10SM OVC029 14/09 A2999 RMK AO2 SLP156 T01440094=
201110062053 METAR KCLM 062053Z AUTO VRB04KT 10SM BKN025 15/09 A2998 RMK AO2 SLP152 T01500089 51008=
201110062023 SPECI KCLM 062023Z AUTO 00000KT 10SM SCT026 15/09 A2998 RMK AO2=
201110062023 SPECI KCLM 062023Z AUTO 00000KT 10SM SCT026 15/09 A2998 RMK AO2=
201110061953 METAR KCLM 061953Z AUTO 34004KT 10SM OVC024 14/09 A2998 RMK AO2 SLP151 T01440089=
201110061853 METAR KCLM 061853Z AUTO 01003KT 10SM OVC020 13/09 A2997 RMK AO2 SLP151 T01280089=
201110061804 SPECI KCLM 061804Z AUTO 01004KT 10SM BKN018 14/08 A2996 RMK AO2=
201110061804 SPECI KCLM 061804Z AUTO 01004KT 10SM BKN018 14/08 A2996 RMK AO2=
201110061753 METAR KCLM 061753Z AUTO 01004KT 10SM SCT018 SCT100 14/08 A2996 RMK AO2 SLP144 T01390083 10144 20106 53016=
201110061745 SPECI KCLM 061745Z AUTO VRB03KT 10SM BKN018 14/09 A2995 RMK AO2=
201110061745 SPECI KCLM 061745Z AUTO VRB03KT 10SM BKN018 14/09 A2995 RMK AO2=
201110061653 METAR KCLM 061653Z AUTO 29004KT 10SM CLR 13/09 A2994 RMK AO2 SLP140 T01330089=
201110061553 METAR KCLM 061553Z AUTO 25005KT 10SM CLR 12/09 A2992 RMK AO2 SLP134 T01220089=
201110061453 METAR KCLM 061453Z AUTO 25004KT 10SM OVC035 11/09 A2991 RMK AO2 SLP129 T01110089 53020=
201110061353 METAR KCLM 061353Z AUTO 24005KT 10SM OVC033 11/08 A2989 RMK AO2 SLP121 T01060083=
201110061253 METAR KCLM 061253Z AUTO 25004KT 10SM OVC045 11/08 A2987 RMK AO2 SLP116 T01110083=
201110061153 METAR KCLM 061153Z AUTO 24007KT 10SM FEW049 OVC060 11/08 A2985 RMK AO2 SLP109 60000 T01110083 10117 20111 53017=
201110061053 METAR KCLM 061053Z AUTO 25005KT 10SM OVC050 11/08 A2983 RMK AO2 SLP101 T01110083=
201110060953 METAR KCLM 060953Z AUTO 27004KT 10SM OVC048 11/09 A2982 RMK AO2 SLP098 T01110089=
201110060853 METAR KCLM 060853Z AUTO 25007KT 10SM FEW026 OVC050 11/09 A2980 RMK AO2 RAE25 SLP092 P0000 60000 T01110089 51018=
201110060753 METAR KCLM 060753Z AUTO 24005KT 8SM -RA SCT042 OVC055 11/09 A2979 RMK AO2 RAB15E27B46 SLP088 P0000 T01110089 401330083=
201110060653 METAR KCLM 060653Z AUTO 25005KT 10SM OVC040 11/09 A2977 RMK AO2 RAB17E50 SLP082 P0000 T01110089=
201110060553 METAR KCLM 060553Z AUTO 24004KT 10SM OVC046 11/09 A2975 RMK AO2 SLP074 60000 T01110089 10128 20106 51021=
201110060453 METAR KCLM 060453Z AUTO 24004KT 10SM OVC050 11/09 A2974 RMK AO2 SLP070 T01110089=
201110060353 METAR KCLM 060353Z AUTO 00000KT 10SM OVC060 11/09 A2972 RMK AO2 SLP063 T01060089=
201110060253 METAR KCLM 060253Z AUTO 00000KT 10SM OVC060 11/09 A2969 RMK AO2 RAB27E50 SLP053 P0000 60000 T01110089 53024=
201110060153 METAR KCLM 060153Z AUTO 00000KT 10SM OVC070 12/08 A2966 RMK AO2 SLP045 T01220083=
201110060053 METAR KCLM 060053Z AUTO 00000KT 10SM SCT055 OVC080 13/08 A2964 RMK AO2 SLP036 T01280083=
201110052353 METAR KCLM 052353Z AUTO 00000KT 10SM BKN055 OVC065 12/08 A2962 RMK AO2 SLP029 60000 T01220083 10133 20122 53018=
201110052253 METAR KCLM 052253Z AUTO 00000KT 10SM OVC060 13/09 A2959 RMK AO2 RAE03 SLP021 P0000 T01280089=
201110052153 METAR KCLM 052153Z AUTO 00000KT 10SM -RA OVC055 12/08 A2958 RMK AO2 RAB42 SLP016 P0000 T01220083=
201110052053 METAR KCLM 052053Z AUTO 00000KT 10SM OVC060 13/08 A2956 RMK AO2 SLP011 T01280083 51016=
201110051953 METAR KCLM 051953Z AUTO 00000KT 10SM FEW050 OVC065 13/07 A2955 RMK AO2 SLP006 T01280072=
201110051853 METAR KCLM 051853Z AUTO 35003KT 10SM FEW041 13/07 A2953 RMK AO2 SLP999 T01330072=
201110051753 METAR KCLM 051753Z AUTO 00000KT 10SM SCT060 13/08 A2951 RMK AO2 SLP994 T01280078 10128 20083 52015=
201110051653 METAR KCLM 051653Z AUTO 00000KT 10SM SCT033 SCT060 12/08 A2950 RMK AO2 SLP989 T01220078=
201110051553 METAR KCLM 051553Z AUTO 00000KT 10SM FEW070 SCT100 11/07 A2948 RMK AO2 SLP984 T01060072=
201110051453 METAR KCLM 051453Z AUTO 23005KT 10SM BKN033 OVC070 09/07 A2947 RMK AO2 SLP979 T00940067 53013=
201110051438 SPECI KCLM 051438Z AUTO 00000KT 10SM FEW025 OVC031 09/07 A2947 RMK AO2=
201110051438 SPECI KCLM 051438Z AUTO 00000KT 10SM FEW025 OVC031 09/07 A2947 RMK AO2=
201110051424 SPECI KCLM 051424Z AUTO 00000KT 10SM SCT020 OVC029 08/06 A2947 RMK AO2=
201110051424 SPECI KCLM 051424Z AUTO 00000KT 10SM SCT020 OVC029 08/06 A2947 RMK AO2=
201110051353 METAR KCLM 051353Z AUTO 23004KT 10SM FEW031 BKN070 09/06 A2945 RMK AO2 SLP974 T00890061=
201110051253 METAR KCLM 051253Z AUTO 26006KT 10SM BKN070 BKN100 10/07 A2944 RMK AO2 SLP968 T01000067=
201110051153 METAR KCLM 051153Z AUTO 27003KT 10SM BKN070 10/07 A2943 RMK AO2 SLP966 T01000067 10117 20089 53008=
201110051053 METAR KCLM 051053Z AUTO 27006KT 10SM OVC070 11/07 A2941 RMK AO2 SLP960 T01060067=
201110050953 METAR KCLM 050953Z AUTO 24004KT 10SM OVC070 11/07 A2941 RMK AO2 SLP958 T01060067=
201110050853 METAR KCLM 050853Z AUTO 24003KT 10SM OVC075 10/07 A2940 RMK AO2 SLP958 T01000067 56006=
201110050753 METAR KCLM 050753Z AUTO 21004KT 10SM SCT075 SCT110 10/07 A2940 RMK AO2 SLP958 T01000067 401440056=
201110050653 METAR KCLM 050653Z AUTO 25005KT 10SM OVC075 12/07 A2941 RMK AO2 SLP958 T01170067=
201110050553 METAR KCLM 050553Z AUTO 23003KT 10SM OVC075 11/07 A2942 RMK AO2 SLP964 T01110072 10128 20094 51005=
201110050453 METAR KCLM 050453Z AUTO 08003KT 10SM OVC075 10/07 A2942 RMK AO2 SLP963 T01000067=
201110050353 METAR KCLM 050353Z AUTO 23005KT 10SM BKN070 BKN100 11/07 A2941 RMK AO2 SLP960 T01060067=
201110050253 METAR KCLM 050253Z AUTO 08003KT 10SM BKN070 11/07 A2941 RMK AO2 SLP959 T01060067 56013=
201110050153 METAR KCLM 050153Z AUTO 23005KT 10SM BKN075 11/07 A2942 RMK AO2 SLP963 T01110067=
201110050053 METAR KCLM 050053Z AUTO 32004KT 10SM FEW070 12/07 A2943 RMK AO2 SLP966 T01220067=
201110042353 METAR KCLM 042353Z AUTO 01003KT 10SM SCT075 13/06 A2945 RMK AO2 SLP972 T01280061 10144 20111 58021=
201110042253 METAR KCLM 042253Z AUTO 00000KT 10SM BKN070 13/08 A2947 RMK AO2 SLP981 T01280078=
201110042153 METAR KCLM 042153Z AUTO 00000KT 10SM OVC070 12/08 A2949 RMK AO2 SLP987 T01220078=
201110042053 METAR KCLM 042053Z AUTO 00000KT 10SM SCT070 14/07 A2951 RMK AO2 SLP993 T01440067 58029=
201110041953 METAR KCLM 041953Z AUTO 36004KT 10SM SCT100 13/08 A2955 RMK AO2 SLP006 T01280083=
201110041853 METAR KCLM 041853Z AUTO 00000KT 10SM CLR 12/08 A2956 RMK AO2 SLP012 T01220083=
201110041753 METAR KCLM 041753Z AUTO 00000KT 10SM FEW065 SCT110 12/08 A2959 RMK AO2 SLP022 T01170078 10117 20056 58010=
201110041653 METAR KCLM 041653Z AUTO 15003KT 10SM FEW065 10/08 A2961 RMK AO2 SLP026 T01000078=
201110041618 SPECI KCLM 041618Z AUTO 00000KT 10SM SCT002 09/08 A2961 RMK AO2=
201110041618 SPECI KCLM 041618Z AUTO 00000KT 10SM SCT002 09/08 A2961 RMK AO2=
201110041600 SPECI KCLM 041600Z AUTO 14003KT 4SM BR BKN002 09/08 A2962 RMK AO2=
201110041600 SPECI KCLM 041600Z AUTO 14003KT 4SM BR BKN002 09/08 A2962 RMK AO2=
201110041553 METAR KCLM 041553Z AUTO 13004KT 5SM BR SCT002 09/07 A2962 RMK AO2 SLP031 T00890072=
201110041545 SPECI KCLM 041545Z AUTO 09004KT 9SM SCT002 SCT095 09/07 A2962 RMK AO2=
201110041545 SPECI KCLM 041545Z AUTO 09004KT 9SM SCT002 SCT095 09/07 A2962 RMK AO2=
201110041453 METAR KCLM 041453Z AUTO 00000KT 10SM CLR 07/06 A2963 RMK AO2 SLP033 T00720056 58013=
201110041353 METAR KCLM 041353Z AUTO 00000KT 10SM CLR 06/05 A2964 RMK AO2 SLP038 T00610050=
201110041253 METAR KCLM 041253Z AUTO 00000KT 10SM SCT110 06/05 A2966 RMK AO2 SLP043 T00610050=
201110041153 METAR KCLM 041153Z AUTO 00000KT 10SM CLR 07/05 A2966 RMK AO2 SLP045 T00670050 10106 20061 58016=
201110041053 METAR KCLM 041053Z AUTO 00000KT 10SM SCT080 07/06 A2968 RMK AO2 SLP051 T00720056=
201110040953 METAR KCLM 040953Z AUTO 00000KT 10SM CLR 07/06 A2969 RMK AO2 SLP056 T00720061=
201110040853 METAR KCLM 040853Z AUTO 00000KT 9SM CLR 06/05 A2971 RMK AO2 SLP062 T00610050 58015=
201110040753 METAR KCLM 040753Z AUTO 19004KT 10SM CLR 07/06 A2973 RMK AO2 SLP067 T00720056 401500072=
201110040653 METAR KCLM 040653Z AUTO 00000KT 10SM FEW075 09/07 A2974 RMK AO2 SLP072 T00890072=
201110040553 METAR KCLM 040553Z AUTO 00000KT 10SM SCT075 10/08 A2975 RMK AO2 SLP076 T01000078 10150 20094 56010=
201110040453 METAR KCLM 040453Z AUTO 07004KT 10SM SCT070 11/08 A2976 RMK AO2 SLP077 T01060083=
201110040353 METAR KCLM 040353Z AUTO 00000KT 10SM SCT070 11/09 A2977 RMK AO2 SLP080 T01060089=
201110040253 METAR KCLM 040253Z AUTO 00000KT 10SM FEW075 12/09 A2978 RMK AO2 SLP086 T01170089 58001=
201110040153 METAR KCLM 040153Z AUTO 00000KT 10SM BKN070 13/10 A2979 RMK AO2 SLP087 T01330100=
201110040053 METAR KCLM 040053Z AUTO 00000KT 10SM BKN065 OVC075 14/10 A2979 RMK AO2 SLP087 T01440100=
201110032353 METAR KCLM 032353Z AUTO 00000KT 10SM OVC065 15/09 A2979 RMK AO2 RAB13E22 SLP087 P0000 60000 T01500094 10150 20122 50001=
201110032253 METAR KCLM 032253Z AUTO 00000KT 10SM OVC060 15/10 A2980 RMK AO2 SLP090 T01500100=
201110032153 METAR KCLM 032153Z AUTO 00000KT 10SM OVC065 15/10 A2979 RMK AO2 SLP087 T01500100=
201110032053 METAR KCLM 032053Z AUTO 10005KT 10SM FEW012 OVC060 14/11 A2979 RMK AO2 SLP087 T01440106 50005=
201110031953 METAR KCLM 031953Z AUTO 08004KT 10SM OVC060 14/11 A2979 RMK AO2 SLP089 T01390106=
201110031853 METAR KCLM 031853Z AUTO 00000KT 10SM SCT009 OVC070 13/10 A2979 RMK AO2 SLP088 T01280100=
201110031753 METAR KCLM 031753Z AUTO 00000KT 10SM BKN005 13/10 A2977 RMK AO2 SLP082 60000 T01280100 10128 20106 50001=
201110031737 SPECI KCLM 031737Z AUTO 00000KT 10SM BKN005 12/10 A2977 RMK AO2 CIG 003V007=
201110031737 SPECI KCLM 031737Z AUTO 00000KT 10SM BKN005 12/10 A2977 RMK AO2 CIG 003V007=
201110031653 METAR KCLM 031653Z AUTO 04003KT 10SM FEW004 SCT070 12/10 A2978 RMK AO2 SLP084 T01170100=
201110031553 METAR KCLM 031553Z AUTO 31005KT 10SM CLR 13/10 A2977 RMK AO2 SLP081 T01280100=
201110031453 METAR KCLM 031453Z AUTO 24006KT 10SM FEW070 11/08 A2977 RMK AO2 SLP081 60000 T01060083 56003=
201110031353 METAR KCLM 031353Z AUTO 33005KT 10SM SCT070 BKN090 11/09 A2977 RMK AO2 SLP082 T01110089=
201110031253 METAR KCLM 031253Z AUTO 13012KT 10SM FEW070 12/09 A2974 RMK AO2 RAE32 SLP073 P0000 T01170094=
201110031153 METAR KCLM 031153Z AUTO 00000KT 10SM -RA SCT050 OVC070 11/10 A2978 RMK AO2 SLP084 P0000 60000 T01110100 10117 20094 53009=
201110031053 METAR KCLM 031053Z AUTO 26006KT 10SM -RA SCT065 OVC080 12/09 A2977 RMK AO2 RAB22 SLP082 P0000 T01170094=
201110030953 METAR KCLM 030953Z AUTO 27006KT 10SM BKN080 OVC100 11/09 A2976 RMK AO2 SLP077 T01060089=
201110030853 METAR KCLM 030853Z AUTO 00000KT 9SM BKN080 BKN100 10/08 A2975 RMK AO2 SLP075 T01000083 56013=
201110030753 METAR KCLM 030753Z AUTO 00000KT 10SM OVC065 10/08 A2976 RMK AO2 SLP078 T01000083 401280067=
201110030653 METAR KCLM 030653Z AUTO 00000KT 10SM FEW060 10/08 A2978 RMK AO2 SLP085 T01000083=
201110030553 METAR KCLM 030553Z AUTO 00000KT 10SM CLR 10/08 A2979 RMK AO2 SLP088 T01000083 10122 20100 58016=
201110030453 METAR KCLM 030453Z AUTO 00000KT 10SM FEW110 11/08 A2981 RMK AO2 SLP096 T01060083=
201110030353 METAR KCLM 030353Z AUTO 00000KT 10SM FEW080 SCT120 11/08 A2983 RMK AO2 SLP100 T01060083=
201110030253 METAR KCLM 030253Z AUTO 00000KT 10SM BKN075 11/09 A2984 RMK AO2 SLP104 T01110089 58008=
201110030153 METAR KCLM 030153Z AUTO 00000KT 10SM OVC080 12/09 A2985 RMK AO2 SLP109 T01170089=
201110030053 METAR KCLM 030053Z AUTO 00000KT 10SM SCT012 BKN080 12/09 A2985 RMK AO2 SLP110 T01220089=
201110030036 SPECI KCLM 030036Z AUTO 00000KT 10SM BKN012 12/09 A2986 RMK AO2=
201110030036 SPECI KCLM 030036Z AUTO 00000KT 10SM BKN012 12/09 A2986 RMK AO2=
201110022353 METAR KCLM 022353Z AUTO 12004KT 10SM SCT008 SCT012 12/09 A2986 RMK AO2 SLP113 T01220089 10122 20100 58009=
201110022346 SPECI KCLM 022346Z AUTO 12003KT 10SM SCT008 12/09 A2986 RMK AO2=
201110022346 SPECI KCLM 022346Z AUTO 12003KT 10SM SCT008 12/09 A2986 RMK AO2=
201110022335 SPECI KCLM 022335Z AUTO 13003KT 10SM BKN008 12/09 A2987 RMK AO2 CIG 008V012=
201110022335 SPECI KCLM 022335Z AUTO 13003KT 10SM BKN008 12/09 A2987 RMK AO2 CIG 008V012=
201110022309 SPECI KCLM 022309Z AUTO 00000KT 10SM SCT008 BKN080 BKN100 12/08 A2988 RMK AO2=
201110022309 SPECI KCLM 022309Z AUTO 00000KT 10SM SCT008 BKN080 BKN100 12/08 A2988 RMK AO2=
201110022253 METAR KCLM 022253Z AUTO 00000KT 10SM SCT075 BKN090 12/08 A2989 RMK AO2 SLP122 T01170083=
201110022221 SPECI KCLM 022221Z AUTO 00000KT 10SM SCT005 SCT024 BKN085 12/08 A2990 RMK AO2=
201110022221 SPECI KCLM 022221Z AUTO 00000KT 10SM SCT005 SCT024 BKN085 12/08 A2990 RMK AO2=
201110022153 METAR KCLM 022153Z AUTO 11005KT 10SM OVC005 11/08 A2989 RMK AO2 CIG 002V009 SLP122 T01060083=
201110022053 METAR KCLM 022053Z AUTO 09005KT 6SM BR OVC003 10/08 A2991 RMK AO2 CIG 001V007 SLP129 T01000083 56010=
201110022048 SPECI KCLM 022048Z AUTO 08004KT 5SM BR OVC003 10/08 A2991 RMK AO2 CIG 001V007=
201110022048 SPECI KCLM 022048Z AUTO 08004KT 5SM BR OVC003 10/08 A2991 RMK AO2 CIG 001V007=
201110022037 SPECI KCLM 022037Z AUTO 11004KT 3SM BR OVC001 10/08 A2992 RMK AO2=
201110022037 SPECI KCLM 022037Z AUTO 11004KT 3SM BR OVC001 10/08 A2992 RMK AO2=
201110022032 SPECI KCLM 022032Z AUTO 09004KT 1 1/2SM BR OVC001 10/08 A2992 RMK AO2=
201110022032 SPECI KCLM 022032Z AUTO 09004KT 1 1/2SM BR OVC001 10/08 A2992 RMK AO2=
201110022020 SPECI KCLM 022020Z AUTO 09003KT 2SM BR OVC001 10/08 A2992 RMK AO2 VIS 1 1/4V4=
201110022020 SPECI KCLM 022020Z AUTO 09003KT 2SM BR OVC001 10/08 A2992 RMK AO2 VIS 1 1/4V4=
201110022005 SPECI KCLM 022005Z AUTO 00000KT 3SM BR OVC001 10/08 A2992 RMK AO2=
201110022005 SPECI KCLM 022005Z AUTO 00000KT 3SM BR OVC001 10/08 A2992 RMK AO2=
201110021953 METAR KCLM 021953Z AUTO 08005KT 1SM BR OVC001 10/08 A2992 RMK AO2 SLP133 T01000083=
201110021947 SPECI KCLM 021947Z AUTO 07004KT 2 1/2SM BR OVC001 10/08 A2993 RMK AO2 VIS 1 1/2V5=
201110021947 SPECI KCLM 021947Z AUTO 07004KT 2 1/2SM BR OVC001 10/08 A2993 RMK AO2 VIS 1 1/2V5=
201110021853 METAR KCLM 021853Z AUTO 07007KT 10SM OVC003 11/08 A2994 RMK AO2 SLP139 T01060083=
201110021827 SPECI KCLM 021827Z AUTO 09005KT 10SM BKN005 BKN085 11/08 A2994 RMK AO2=
201110021827 SPECI KCLM 021827Z AUTO 09005KT 10SM BKN005 BKN085 11/08 A2994 RMK AO2=
201110021819 SPECI KCLM 021819Z AUTO VRB04KT 10SM SCT005 BKN085 11/08 A2994 RMK AO2=
201110021819 SPECI KCLM 021819Z AUTO VRB04KT 10SM SCT005 BKN085 11/08 A2994 RMK AO2=
201110021753 METAR KCLM 021753Z AUTO VRB05KT 10SM CLR 12/08 A2994 RMK AO2 SLP140 T01220083 10128 20067 58005=
201110021653 METAR KCLM 021653Z AUTO VRB03KT 10SM BKN075 12/08 A2995 RMK AO2 SLP142 T01220078=
201110021641 SPECI KCLM 021641Z AUTO 00000KT 10SM SCT028 BKN075 12/08 A2995 RMK AO2=
201110021641 SPECI KCLM 021641Z AUTO 00000KT 10SM SCT028 BKN075 12/08 A2995 RMK AO2=
201110021553 METAR KCLM 021553Z AUTO 00000KT 10SM OVC028 09/08 A2996 RMK AO2 SLP145 T00940078=
201110021527 SPECI KCLM 021527Z AUTO 00000KT 10SM BKN028 07/06 A2996 RMK AO2=
201110021527 SPECI KCLM 021527Z AUTO 00000KT 10SM BKN028 07/06 A2996 RMK AO2=
201110021509 SPECI KCLM 021509Z AUTO 00000KT 10SM SCT028 07/06 A2996 RMK AO2=
201110021509 SPECI KCLM 021509Z AUTO 00000KT 10SM SCT028 07/06 A2996 RMK AO2=
201110021453 METAR KCLM 021453Z AUTO 00000KT 10SM BKN028 07/06 A2996 RMK AO2 SLP146 T00720056 51001=
201110021414 SPECI KCLM 021414Z AUTO 00000KT 10SM BKN028 08/06 A2996 RMK AO2=
201110021414 SPECI KCLM 021414Z AUTO 00000KT 10SM BKN028 08/06 A2996 RMK AO2=
201110021353 METAR KCLM 021353Z AUTO 23004KT 10SM SCT028 08/07 A2996 RMK AO2 SLP146 T00830067=
201110021350 SPECI KCLM 021350Z AUTO 24004KT 10SM SCT028 08/07 A2996 RMK AO2=
201110021350 SPECI KCLM 021350Z AUTO 24004KT 10SM SCT028 08/07 A2996 RMK AO2=
201110021253 METAR KCLM 021253Z AUTO 00000KT 10SM OVC028 09/08 A2996 RMK AO2 SLP145 T00940078=
201110021153 METAR KCLM 021153Z AUTO 00000KT 10SM OVC026 10/08 A2996 RMK AO2 SLP145 T01000078 10111 20083 58006=
201110021053 METAR KCLM 021053Z AUTO 00000KT 10SM BKN028 OVC085 09/07 A2997 RMK AO2 SLP151 T00890067=
201110021044 SPECI KCLM 021044Z AUTO 00000KT 10SM BKN028 OVC085 08/07 A2997 RMK AO2=
201110021044 SPECI KCLM 021044Z AUTO 00000KT 10SM BKN028 OVC085 08/07 A2997 RMK AO2=
201110020953 METAR KCLM 020953Z AUTO 00000KT 10SM SCT024 OVC085 09/07 A2997 RMK AO2 SLP151 T00890067=
201110020853 METAR KCLM 020853Z AUTO 00000KT 10SM OVC090 11/07 A2998 RMK AO2 SLP152 T01060067 58003=
201110020753 METAR KCLM 020753Z AUTO 28005KT 10SM SCT021 OVC100 11/07 A2999 RMK AO2 SLP155 T01110072 401560083=
201110020653 METAR KCLM 020653Z AUTO 26004KT 10SM FEW039 OVC095 11/08 A2999 RMK AO2 SLP156 T01110078=
201110020553 METAR KCLM 020553Z AUTO 00000KT 10SM SCT029 OVC034 11/08 A2999 RMK AO2 SLP154 T01110078 10156 20111 55001=
201110020506 SPECI KCLM 020506Z AUTO 26003KT 10SM BKN029 OVC110 11/08 A2999 RMK AO2=
201110020506 SPECI KCLM 020506Z AUTO 26003KT 10SM BKN029 OVC110 11/08 A2999 RMK AO2=
201110020453 METAR KCLM 020453Z AUTO 27003KT 10SM SCT029 OVC110 11/08 A2999 RMK AO2 SLP155 T01110078=
201110020448 SPECI KCLM 020448Z AUTO 27004KT 10SM SCT029 OVC110 11/08 A2998 RMK AO2=
201110020448 SPECI KCLM 020448Z AUTO 27004KT 10SM SCT029 OVC110 11/08 A2998 RMK AO2=
201110020353 METAR KCLM 020353Z AUTO 26004KT 10SM OVC027 12/08 A2999 RMK AO2 SLP156 T01220078=
201110020253 METAR KCLM 020253Z AUTO 24004KT 10SM BKN029 BKN042 12/08 A2999 RMK AO2 SLP155 T01170078 53008=
201110020216 SPECI KCLM 020216Z AUTO 00000KT 10SM BKN029 OVC070 12/08 A2998 RMK AO2=
201110020216 SPECI KCLM 020216Z AUTO 00000KT 10SM BKN029 OVC070 12/08 A2998 RMK AO2=
201110020153 METAR KCLM 020153Z AUTO 30005KT 10SM FEW031 SCT049 OVC070 12/08 A2997 RMK AO2 SLP151 T01220078=
201110020053 METAR KCLM 020053Z AUTO 29004KT 10SM OVC047 14/08 A2997 RMK AO2 SLP149 T01440078=
201110012353 METAR KCLM 012353Z AUTO 14004KT 10SM FEW075 BKN110 15/08 A2996 RMK AO2 SLP145 60000 T01500083 10150 20117 51008=
201110012253 METAR KCLM 012253Z AUTO 11004KT 10SM OVC060 14/08 A2996 RMK AO2 SLP145 T01390078=
201110012153 METAR KCLM 012153Z AUTO 11004KT 10SM OVC049 13/09 A2994 RMK AO2 RAB20E40 SLP141 P0000 T01280094=
201110012053 METAR KCLM 012053Z AUTO 02003KT 10SM OVC045 12/08 A2994 RMK AO2 SLP138 T01220078 51014=
201110011953 METAR KCLM 011953Z AUTO 00000KT 10SM OVC037 12/08 A2993 RMK AO2 SLP136 T01220083=
201110011853 METAR KCLM 011853Z AUTO 34004KT 10SM FEW037 BKN100 14/08 A2991 RMK AO2 SLP131 T01390078=
201110011753 METAR KCLM 011753Z AUTO 05004KT 10SM BKN060 14/08 A2990 RMK AO2 SLP124 T01390078 10144 20100 51008=
201110011653 METAR KCLM 011653Z AUTO 00000KT 10SM SCT110 13/09 A2989 RMK AO2 SLP123 T01280089=
201110011553 METAR KCLM 011553Z AUTO 00000KT 10SM FEW038 12/07 A2988 RMK AO2 SLP120 T01170072=
201110011453 METAR KCLM 011453Z AUTO 12005KT 10SM OVC042 11/08 A2987 RMK AO2 SLP116 T01110078 53003=
201110011353 METAR KCLM 011353Z AUTO 00000KT 10SM FEW040 OVC110 10/08 A2987 RMK AO2 SLP115 T01000078=
201110011253 METAR KCLM 011253Z AUTO 13003KT 10SM OVC100 10/08 A2986 RMK AO2 SLP112 T01000078=
201110011153 METAR KCLM 011153Z AUTO 00000KT 10SM OVC110 10/07 A2986 RMK AO2 SLP113 T01000072 10106 20083 57006=
201110011053 METAR KCLM 011053Z AUTO 00000KT 10SM OVC100 09/08 A2987 RMK AO2 SLP116 T00940078=
201110010953 METAR KCLM 010953Z AUTO 00000KT 10SM SCT100 09/07 A2987 RMK AO2 SLP115 T00940072=
201110010853 METAR KCLM 010853Z AUTO 23003KT 10SM FEW120 09/07 A2988 RMK AO2 SLP119 T00940072 58004=
201110010753 METAR KCLM 010753Z AUTO 00000KT 10SM FEW120 09/07 A2988 RMK AO2 SLP120 T00890072 401500089=
201110010653 METAR KCLM 010653Z AUTO 22004KT 10SM CLR 09/08 A2989 RMK AO2 SLP122 T00940078=
201110010553 METAR KCLM 010553Z AUTO 15003KT 10SM CLR 09/07 A2989 RMK AO2 SLP123 T00890072 10139 20089 58003=
201110010453 METAR KCLM 010453Z AUTO 00000KT 10SM BKN031 09/07 A2990 RMK AO2 SLP125 T00890072=
201110010353 METAR KCLM 010353Z AUTO 00000KT 10SM CLR 10/08 A2990 RMK AO2 SLP125 T01000083=
201110010253 METAR KCLM 010253Z AUTO 00000KT 10SM CLR 11/09 A2990 RMK AO2 SLP126 T01110089 55012=
201110010153 METAR KCLM 010153Z AUTO 17004KT 10SM CLR 13/09 A2990 RMK AO2 SLP124 T01280089=
201110010053 METAR KCLM 010053Z AUTO 00000KT 10SM CLR 14/09 A2991 RMK AO2 SLP129 T01390089=

# No short TAF reports from KCLM in databse.

###################################
#  large TAF from KCLM
###################################
201110312330 TAF KCLM 312330Z 0100/0124 31011G16KT P6SM SKC FM011200 VRB03KT
                       P6SM VCFG SCT001 FM011800 00000KT P6SM SCT250=
201110311731 TAF KCLM 311731Z 3118/0118 26008KT P6SM VCSH BKN035 BKN050 FM312000
                       27004KT P6SM SCT050=
201110311120 TAF KCLM 311120Z 3112/0112 25011KT P6SM VCSH SCT040 FM312000 VRB03KT
                       P6SM SCT050=
201110310541 TAF KCLM 310541Z 3106/0106 24009KT P6SM SCT050 FM310800 25006KT
                       P6SM SCT050 FM311800 VRB03KT P6SM SCT050=
201110310113 KCLM 310113Z 3101/3124 26012G22KT P6SM SCT015 OVC060
                      TEMPO 3101/3103 -SHRA BKN015 FM310430 26008KT
                       P6SM SCT010 BKN050 FM310800 25006KT P6SM
                       SCT050=
201110302335 TAF KCLM 302335Z 3100/3124 26012KT P6SM SCT008 BKN012 OVC020 FM310200
                       26008KT P6SM SCT010 BKN050 FM310800 25006KT
                       P6SM SCT050=
201110302103 KCLM 302103Z 3021/3118 26008KT P6SM OVC006 FM310100 26008KT P6SM
                       SCT010 BKN050 FM310800 25006KT P6SM SCT050=
201110301741 TAF KCLM 301741Z 3018/3118 26008KT P6SM SCT010 BKN050 FM310200
                       28012KT P6SM SCT025 SCT040 FM310800 25006KT
                       P6SM SCT050=
201110301637 KCLM 301637Z 3017/3112 26008KT P6SM OVC005 FM301900 26008KT P6SM
                       SCT025 BKN040 FM310200 28012KT P6SM SCT025
                       SCT040=
201110301253 KCLM 301253Z 3013/3112 VRB03KT P6SM SCT003 OVC040
                      TEMPO 3013/3016 6SM -RA BR BKN003 OVC040
                       FM301700 26008KT P6SM SCT025 BKN040 FM302200
                       28012KT P6SM SCT025 SCT040=
201110301120 TAF KCLM 301120Z 3012/3112 29003KT P6SM OVC060 FM301300 VRB03KT
                       P6SM -RA SCT025 BKN040 FM301700 26008KT
                       P6SM SCT025 BKN040 FM302200 28012KT P6SM
                       SCT025 SCT040=
201110300829 KCLM 300829Z 3008/3106 23005KT P6SM FEW011 OVC090 FM301000 VRB03KT
                       5SM -RA BR SCT010 OVC035 FM301200 VRB03KT
                       5SM -RA SCT006 BKN012 OVC020 FM301700 26008KT
                       P6SM SCT025 BKN040 FM302200 28012KT P6SM
                       SCT025 SCT040=
201110300828 KCLM 300828Z 3008/3106 23005KT P6SM FEW011 OVC090 FM300900 VRB03KT
                       5SM -RA BR SCT010 OVC035 FM301200 VRB03KT
                       5SM -RA SCT006 BKN012 OVC020 FM301700 26008KT
                       P6SM SCT025 BKN040 FM302200 28012KT P6SM
                       SCT025 SCT040=
201110300533 TAF KCLM 300533Z 3006/3106 24004KT P6SM BKN006 BKN100
                      TEMPO 3006/3008 3SM BR FM300900 VRB03KT 5SM
                       -RA BR SCT010 OVC035 FM301200 VRB03KT 5SM
                       -RA SCT006 BKN012 OVC020 FM301700 26008KT
                       P6SM SCT025 BKN040 FM302200 28012KT P6SM
                       SCT025 SCT040=
201110300335 KCLM 300335Z 3004/3024 00000KT 2SM BR BKN100
                      TEMPO 3004/3008 3/4SM BR FM300900 VRB03KT
                       5SM -RA BR SCT010 OVC035 FM301200 VRB03KT
                       5SM -RA SCT006 BKN012 OVC020 FM301700 26008KT
                       P6SM SCT025 BKN040=
201110292334 TAF KCLM 292334Z 3000/3024 VRB03KT P6SM SCT045 OVC080 FM300900
                       VRB03KT P6SM -RA OVC035 FM301200 VRB03KT
                       5SM -RA SCT006 BKN012 OVC020 FM301700 26008KT
                       P6SM SCT025 BKN040=
201110291741 TAF KCLM 291741Z 2918/3018 VRB03KT P6SM BKN200 FM300500 VRB03KT
                       P6SM SCT040 OVC080 FM300900 VRB03KT P6SM
                       -RA OVC035 FM301200 VRB03KT 5SM -RA SCT006
                       BKN012 OVC020 FM301600 VRB03KT P6SM SCT020
                       BKN040=
201110291120 TAF KCLM 291120Z 2912/3012 27008KT P6SM SCT060 SCT200 FM291800
                       VRB03KT P6SM SCT060 BKN200 FM300900 VRB03KT
                       P6SM -RA BKN035 OVC070=
201110290528 TAF KCLM 290528Z 2906/3006 24007KT P6SM OVC060 FM291800 VRB03KT
                       P6SM SCT060 BKN200=
201110282339 TAF KCLM 282339Z 2900/2924 26008KT P6SM SCT035 BKN050 FM290400
                       26008KT P6SM SCT050 FM291300 VRB03KT P6SM
                       BKN200=
201110281742 TAF KCLM 281742Z 2818/2918 26004KT P6SM OVC100 FM282000 26004KT
                       P6SM -RA OVC025 FM290100 27008KT P6SM SCT025
                       BKN040 FM291100 VRB03KT P6SM SCT200=
201110281506 KCLM 281506Z 2815/2912 00000KT P6SM OVC090 FM281700 26003KT 4SM
                       -RA BR OVC015 FM290100 27008KT P6SM VCSH
                       OVC035=
201110281505 KCLM 281505Z 2815/2912 00000KT 6SM -RA OVC015 FM281800 26003KT
                       4SM -RA BR OVC015 FM290100 27008KT P6SM
                       VCSH OVC035=
201110281201 KCLM 281201Z 2812/2912 14006KT P6SM SCT017 OVC120
                      TEMPO 2812/2814 BKN015 OVC090 FM281400 13006KT
                       6SM -RA OVC015 FM281600 26003KT 4SM -RA
                       BR OVC015 FM290100 27008KT P6SM VCSH OVC035=
201110281120 TAF KCLM 281120Z 2812/2912 20003KT P6SM BKN017 OVC120 FM281400
                       20003KT 6SM -RA OVC015 FM281600 26003KT
                       4SM -RA BR OVC015 FM290100 27008KT P6SM
                       VCSH OVC035=
201110280529 TAF KCLM 280529Z 2806/2906 12006KT P6SM OVC200 FM281000 10007KT
                       P6SM OVC100 FM281400 VRB03KT P6SM -RA OVC050
                       FM282000 27005KT P6SM -SHRA BKN030 BKN050
                       FM290200 27007KT P6SM -SHRA BKN025 BKN035=
201110272320 TAF KCLM 272320Z 2800/2824 11006KT P6SM SCT030
                      TEMPO 2800/2801 BKN030 FM280200 09007KT P6SM
                       BKN200 FM281000 10007KT P6SM OVC100 FM281400
                       VRB03KT P6SM -RA OVC050 FM282000 27005KT
                       P6SM -SHRA BKN030 BKN050=
201110272105 KCLM 272105Z 2721/2818 10007KT P6SM BKN007 FM280000 09006KT P6SM
                       SCT010 FM280100 09007KT P6SM BKN200 FM280900
                       10007KT P6SM OVC120 FM281100 11007KT P6SM
                       OVC070 FM281400 VRB03KT P6SM -RA OVC050=
201110272009 KCLM 272009Z 2720/2818 10005KT P6SM SCT008
                      TEMPO 2720/2721 BKN008 FM272200 09006KT P6SM
                       SCT250 FM280100 09007KT P6SM BKN200 FM280900
                       10007KT P6SM OVC120 FM281100 11007KT P6SM
                       OVC070 FM281400 VRB03KT P6SM -RA OVC050=
201110271734 TAF KCLM 271734Z 2718/2818 06005KT P6SM SCT250 FM280100 09007KT
                       P6SM BKN200 FM280900 10007KT P6SM OVC120
                       FM281100 11007KT P6SM OVC070 FM281400 VRB03KT
                       P6SM -RA OVC050=
201110271120 TAF KCLM 271120Z 2712/2812 24007KT P6SM SKC
                      TEMPO 2712/2715 BKN005 FM271900 06005KT P6SM
                       SCT250 FM280400 07007KT P6SM BKN200 FM280800
                       10005KT P6SM -RA BKN050 OVC090=
201110270526 TAF KCLM 270526Z 2706/2806 26007KT P6SM FEW030 BKN200 FM271000
                       23005KT P6SM SCT005 SCT200
                      TEMPO 2711/2715 BKN005 FM271900 06005KT P6SM
                       SCT250=
201110262320 TAF KCLM 262320Z 2700/2724 25006KT P6SM SCT009 BKN060 BKN200
                      TEMPO 2700/2702 BKN009 OVC060 FM270400 VRB03KT
                       P6SM SCT060 SCT200 FM271000 23005KT P6SM
                       SCT005
                      TEMPO 2711/2715 BKN005 FM271900 06005KT P6SM
                       SCT250=
201110261722 TAF KCLM 261722Z 2618/2718 11006KT P6SM OVC080 FM262300 27005KT
                       P6SM BKN050 OVC090 FM270400 VRB03KT P6SM
                       SCT050 SCT200 FM271000 23005KT P6SM SCT005
                       TEMPO 2711/2715 BKN005=
201110261120 TAF KCLM 261120Z 2612/2712 00000KT P6SM VCFG BKN200 FM261500 20006KT
                       P6SM BKN120 OVC200 FM262300 27005KT P6SM
                       -RA BKN050 OVC090 FM270400 VRB03KT P6SM
                       SCT200=
201110260549 TAF KCLM 260549Z 2606/2706 00000KT P6SM VCFG SKC FM261500 20006KT
                       P6SM BKN120 OVC200 FM262300 19005KT P6SM
                       -RA BKN050 OVC090=
201110252320 TAF KCLM 252320Z 2600/2624 VRB04KT P6SM SKC FM260400 23005KT P6SM
                       SKC FM261100 23005KT P6SM BKN100 FM261600
                       VRB03KT P6SM BKN050 OVC080
                      PROB30 2617/2623 -RA=
201110251902 KCLM 251902Z 2519/2618 VRB04KT P6SM SKC FM260400 23005KT P6SM SKC
                       FM261100 23005KT P6SM BKN100=
201110251720 TAF KCLM 251720Z 2518/2618 09005KT P6SM SCT024 BKN035 FM252100
                       VRB04KT P6SM SKC FM260400 23005KT P6SM SKC
                       FM261100 23005KT P6SM BKN100=
201110251120 TAF KCLM 251120Z 2512/2612 22004KT P6SM OVC035 FM251900 VRB03KT
                       P6SM SKC=
201110250521 TAF KCLM 250521Z 2506/2606 24005KT P6SM SKC FM251600 VRB03KT P6SM
                       SKC=
201110242320 TAF KCLM 242320Z 2500/2524 32006KT P6SM SKC FM250200 24005KT P6SM
                       SKC FM251600 VRB03KT P6SM SKC=
201110242004 KCLM 242004Z 2420/2518 32010G16KT P6SM SKC FM250100 24006KT P6SM
                       SKC FM251600 VRB03KT P6SM SCT250=
201110241720 TAF KCLM 241720Z 2418/2518 27008KT P6SM SKC FM242100 32008KT P6SM
                       SKC FM250100 24006KT P6SM SKC FM251600 VRB03KT
                       P6SM SCT250=
201110241124 TAF KCLM 241124Z 2412/2512 27008KT P6SM FEW050 FM241800 32008KT
                       P6SM SKC FM250100 26006KT P6SM SKC FM250600
                       VRB03KT P6SM SKC=
201110240846 TAF AMD KCLM 240846Z 2409/2506 27008KT P6SM FEW050 FM241800 32006KT
                       P6SM SKC FM250000 26005KT P6SM SKC=
201110240541 TAF KCLM 240541Z 2406/2506 26008KT P6SM VCSH SCT035 BKN070
                      TEMPO 2406/2409 BKN035 BKN070 FM241000 28008KT
                       P6SM FEW050 FM241800 32006KT P6SM SKC FM250000
                       26005KT P6SM SKC=
201110240019 KCLM 240019Z 2400/2424 30009KT P6SM SCT021 BKN028 BKN035 FM240200
                       28007KT P6SM SCT030 SCT050 FM240500 25007KT
                       P6SM VCSH BKN025 BKN050 BKN200 FM241100
                       25005KT P6SM BKN050 BKN200 FM241800 28005KT
                       P6SM FEW050 SCT200=
201110232320 TAF KCLM 232320Z 2400/2424 28007KT P6SM BKN200 FM240500 25007KT
                       P6SM VCSH BKN050 BKN200 FM241100 25005KT
                       P6SM BKN050 BKN200 FM241800 28005KT P6SM
                       FEW050 SCT200=
201110231720 TAF KCLM 231720Z 2318/2418 26008KT P6SM BKN200 FM240000 28007KT
                       P6SM BKN200 FM240600 25007KT P6SM SCT050
                       BKN200=
201110231139 TAF KCLM 231139Z 2312/2412 VRB03KT P6SM VCFG BKN200
                      TEMPO 2312/2316 1SM MIFG VV001 FM231800 32007KT
                       P6SM BKN200 FM240000 28007KT P6SM BKN200
                       FM240600 25007KT P6SM SCT050 BKN200=
201110230643 KCLM 230643Z 2307/2406 25005KT P6SM VCFG SCT012 SCT040
                      TEMPO 2307/2311 4SM BR BKN012 BKN040 FM231100
                       VRB03KT 4SM BR BKN007 BKN028
                      TEMPO 2311/2314 1/2SM FG VV003 FM231700 29005KT
                       P6SM BKN015 BKN035 FM232000 32007KT P6SM
                       SCT035 SCT050 FM240000 28007KT P6SM FEW050
                       SCT200=
201110230537 TAF KCLM 230537Z 2306/2406 25005KT 6SM BR BKN015 BKN040
                      TEMPO 2306/2310 1SM BR FM231000 VRB03KT 4SM
                       BR BKN007 BKN028
                      TEMPO 2310/2314 1/2SM FG VV003 FM231700 29005KT
                       P6SM BKN015 BKN035 FM232000 32007KT P6SM
                       SCT035 SCT050 FM240000 28007KT P6SM FEW050
                       SCT200=
201110230448 KCLM 230448Z 2305/2324 25004KT 5SM BR BKN015 BKN060
                      TEMPO 2305/2309 1SM BR BKN005 OVC015 FM231800
                       27006KT P6SM SCT012 BKN022 FM232000 30006KT
                       P6SM SCT022 SCT070=
201110230208 KCLM 230208Z 2302/2324 VRB04KT 6SM BR VCSH SCT008 OVC040
                      TEMPO 2302/2305 2SM BR BKN008 OVC025 FM230500
                       25008KT P6SM SCT003 OVC008
                      TEMPO 2312/2316 VRB04KT 4SM BR OVC003 FM231800
                       27006KT P6SM SCT012 BKN022 FM232000 30006KT
                       P6SM SCT022 SCT070=
201110230112 KCLM 230112Z 2301/2324 27006KT P6SM VCSH SCT008 SCT026 BKN070
                      TEMPO 2301/2305 BKN008 OVC025 FM230500 25008KT
                       P6SM SCT003 OVC008
                      TEMPO 2312/2316 VRB04KT 4SM BR OVC003 FM231800
                       27006KT P6SM SCT012 BKN022 FM232000 30006KT
                       P6SM SCT022 SCT070=
201110222320 TAF KCLM 222320Z 2300/2324 25008KT P6SM VCSH SCT003 BKN020 BKN070
                       FM230600 25008KT P6SM SCT003 OVC012
                      TEMPO 2312/2316 VRB04KT 4SM BR OVC003 FM231800
                       27006KT P6SM SCT012 BKN022 FM232000 30006KT
                       P6SM SCT022 SCT070=
201110221911 KCLM 221911Z 2219/2318 12007KT P6SM VCSH SCT004 OVC030
                      TEMPO 2219/2222 -SHRA OVC004 FM222200 26006KT
                       P6SM VCSH BKN025 OVC050
                      TEMPO 2222/2224 -SHRA FM230000 25008KT P6SM
                       VCSH BKN022 FM230600 25008KT P6SM OVC012=
201110221720 TAF KCLM 221720Z 2218/2318 09005KT 6SM -SHRA BR SCT006 OVC022
                      TEMPO 2218/2219 3SM -RA BR BKN006 OVC015
                       FM221900 VRB03KT P6SM -SHRA SCT008 OVC030
                       FM222100 VRB03KT P6SM VCSH BKN025 OVC050
                       TEMPO 2221/2224 -SHRA FM230000 25008KT P6SM
                       VCSH BKN022 FM230600 25008KT P6SM OVC012=
201110221630 KCLM 221630Z 2217/2312 VRB03KT 4SM -RA BR SCT003 OVC022
                      TEMPO 2217/2219 1SM -RA BR BKN003 OVC015
                       FM221900 VRB03KT P6SM VCSH SCT008 OVC030
                       TEMPO 2219/2221 -SHRA BKN008 FM222100 VRB03KT
                       P6SM VCSH BKN025 OVC050
                      TEMPO 2221/2224 -SHRA FM230000 25008KT P6SM
                       VCSH SCT030 BKN050 FM230600 25008KT P6SM
                       SCT050=
201110221443 KCLM 221443Z 2215/2312 VRB03KT 1SM -RA BR SCT001 OVC022
                      TEMPO 2215/2218 2SM -RA BR BKN001 OVC015
                       FM221800 VRB03KT P6SM VCSH BKN015 OVC030
                       TEMPO 2218/2221 -SHRA FM222100 VRB03KT P6SM
                       VCSH BKN025 OVC050
                      TEMPO 2221/2224 -SHRA FM230000 25008KT P6SM
                       VCSH SCT030 BKN050
                      PROB30 2300/2303 -SHRA BKN030 OVC050 FM230600
                       25008KT P6SM SCT050=
201110221417 KCLM 221417Z 2214/2312 VRB03KT 4SM -RA BR SCT006 OVC022
                      TEMPO 2214/2218 2SM -RA BR BKN006 OVC015
                       FM221800 VRB03KT P6SM VCSH BKN015 OVC030
                       TEMPO 2218/2221 -SHRA FM222100 VRB03KT P6SM
                       VCSH BKN025 OVC050
                      TEMPO 2221/2224 -SHRA FM230000 25008KT P6SM
                       VCSH SCT030 BKN050
                      PROB30 2300/2303 -SHRA BKN030 OVC050 FM230600
                       25008KT P6SM SCT050=
201110221142 TAF KCLM 221142Z 2212/2312 VRB03KT 5SM -RA BR SCT012 OVC040
                      TEMPO 2212/2214 3SM -RA BR BKN012 OVC030
                       FM221400 VRB03KT 4SM -RA BR SCT006 OVC015
                       TEMPO 2214/2218 2SM -RA BR BKN006 OVC015
                       FM221800 VRB03KT P6SM VCSH BKN015 OVC030
                       TEMPO 2218/2221 -SHRA FM222100 VRB03KT P6SM
                       VCSH BKN025 OVC050
                      TEMPO 2221/2224 -SHRA FM230000 25008KT P6SM
                       VCSH SCT030 BKN050
                      PROB30 2300/2303 -SHRA BKN030 OVC050 FM230600
                       25008KT P6SM SCT050=
201110220901 KCLM 220901Z 2209/2306 VRB03KT P6SM FEW015 SCT080 OVC130
                      TEMPO 2210/2212 FEW015 BKN080 OVC130 FM221200
                       VRB03KT 5SM -RA BR SCT006 OVC015
                      TEMPO 2214/2218 2SM -RA BR BKN006 OVC015
                       FM221800 VRB03KT P6SM VCSH BKN015 OVC030
                       TEMPO 2218/2222 -SHRA FM222200 VRB03KT P6SM
                       BKN022 OVC040
                      TEMPO 2222/2302 -SHRA FM230200 25005KT P6SM
                       VCSH BKN030 BKN050
                      PROB30 2302/2306 -SHRA=
201110220548 TAF KCLM 220548Z 2206/2306 VRB03KT P6SM VCSH BKN015 OVC030
                      TEMPO 2210/2212 -RA FM221200 VRB03KT 5SM
                       -RA BR SCT006 OVC015
                      TEMPO 2214/2218 2SM -RA BR BKN006 OVC015
                       FM221800 VRB03KT P6SM VCSH BKN015 OVC030
                       TEMPO 2218/2222 -SHRA FM222200 VRB03KT P6SM
                       BKN022 OVC040
                      TEMPO 2222/2302 -SHRA FM230200 25005KT P6SM
                       VCSH BKN030 BKN050
                      PROB30 2302/2306 -SHRA=
201110220346 KCLM 220346Z 2204/2224 00000KT P6SM BKN016 BKN030 FM221500 24005KT
                       P6SM -RA BKN025 OVC050=
201110212336 TAF KCLM 212336Z 2200/2224 VRB03KT P6SM SCT010 OVC050
                      TEMPO 2200/2203 BKN009 BKN050 FM220300 27005KT
                       P6SM SCT010 OVC050
                      TEMPO 2211/2215 BKN010 OVC050 FM221500 24005KT
                       P6SM -RA BKN030 OVC050=
201110211736 TAF KCLM 211736Z 2118/2218 VRB03KT P6SM BKN090
                      TEMPO 2118/2121 -RA BKN035 OVC060 FM212100
                       29006KT P6SM VCSH BKN050 FM220000 28007KT
                       P6SM VCSH SCT050 BKN080 FM220600 25005KT
                       P6SM SCT020 FM221200 24003KT P6SM BKN012=
201110211212 KCLM 211212Z 2112/2212 00000KT P6SM SCT012 OVC080
                      TEMPO 2112/2115 -RA BKN012 OVC060 FM211500
                       VRB03KT P6SM -RA SCT018 OVC035
                      TEMPO 2115/2118 5SM -RA BR BKN018 OVC035
                       FM211800 VRB03KT 5SM -RA BR SCT007 OVC018
                       TEMPO 2118/2122 2SM -RA BR BKN005 OVC012
                       FM220000 VRB03KT P6SM VCSH BKN020 OVC050
                       PROB30 2200/2206 -SHRA FM220600 25005KT
                       P6SM VCSH SCT020 BKN050 OVC090
                      PROB30 2206/2212 -RA BKN020 OVC050=
201110211123 TAF KCLM 211123Z 2112/2212 VRB03KT P6SM FEW018 SCT035 OVC060
                      TEMPO 2112/2115 -RA FEW018 BKN035 OVC060
                       FM211500 VRB03KT P6SM -RA SCT018 OVC035
                       TEMPO 2115/2118 5SM -RA BR BKN018 OVC035
                       FM211800 VRB03KT 5SM -RA BR SCT007 OVC018
                       TEMPO 2118/2122 2SM -RA BR BKN005 OVC012
                       FM220000 VRB03KT P6SM VCSH BKN020 OVC050
                       PROB30 2200/2206 -SHRA FM220600 25005KT
                       P6SM VCSH SCT020 BKN050 OVC090
                      PROB30 2206/2212 -RA BKN020 OVC050=
201110210952 KCLM 210952Z 2110/2206 VRB03KT P6SM SCT018 SCT030 OVC050
                      TEMPO 2110/2112 BKN018 BKN030 OVC050 FM211200
                       VRB03KT P6SM BKN030 OVC050
                      TEMPO 2112/2115 -RA FM211500 VRB03KT P6SM
                       -RA BKN025 OVC050 FM211800 VRB03KT 5SM -RA
                       BR SCT007 OVC020
                      TEMPO 2118/2122 2SM -RA BR BKN005 OVC012
                       FM220000 VRB03KT P6SM VCSH BKN020 OVC050
                       PROB30 2200/2206 -SHRA=
201110210543 TAF KCLM 210543Z 2106/2206 VRB03KT P6SM BKN080 OVC150 FM210900
                       VRB03KT P6SM SCT030 OVC050 FM211200 VRB03KT
                       P6SM BKN030 OVC050
                      TEMPO 2112/2115 -RA FM211500 VRB03KT P6SM
                       -RA BKN025 OVC050 FM211800 VRB03KT 5SM -RA
                       BR SCT007 OVC020
                      TEMPO 2118/2122 2SM -RA BR BKN005 OVC012
                       FM220000 VRB03KT P6SM VCSH BKN020 OVC050
                       PROB30 2200/2206 -SHRA=
201110202341 TAF KCLM 202341Z 2100/2124 VRB03KT P6SM SCT050 BKN100
                      TEMPO 2100/2102 BKN025 FM210900 21003KT P6SM
                       -RA BKN050 OVC070 FM211800 30003KT 5SM -RA
                       BR SCT025 OVC045=
201110201744 TAF KCLM 201744Z 2018/2118 03003KT P6SM SCT015 BKN025 FM210000
                       VRB03KT P6SM SCT050 SCT100 BKN200 FM211000
                       21003KT 6SM -RA BR BKN050 OVC070=
201110201223 KCLM 201223Z 2012/2112 25003KT P6SM OVC006
                      TEMPO 2012/2016 2SM -DZ BR BKN010 OVC028
                       FM201800 VRB03KT P6SM SCT020 BKN050 BKN100
                       FM202100 VRB03KT P6SM SCT050 BKN100 BKN200
                       FM210000 VRB03KT P6SM SCT050 SCT100 BKN200
                       FM210300 00000KT 4SM BR SCT050 SCT100 OVC200
                       FM210900 00000KT 6SM BR SCT050 BKN100 OVC200=
201110201133 TAF KCLM 201133Z 2012/2112 VRB03KT 5SM BR SCT010 BKN050 OVC100
                       TEMPO 2012/2016 2SM -DZ BR BKN010 OVC028
                       FM201800 VRB03KT P6SM SCT020 BKN050 BKN100
                       FM202100 VRB03KT P6SM SCT050 BKN100 BKN200
                       FM210000 VRB03KT P6SM SCT050 SCT100 BKN200
                       FM210300 00000KT 4SM BR SCT050 SCT100 OVC200
                       FM210900 00000KT 6SM BR SCT050 BKN100 OVC200=
201110201002 KCLM 201002Z 2010/2106 VRB03KT P6SM -RA SCT015 SCT030 OVC060
                      TEMPO 2010/2012 6SM -RA BR BKN015 OVC030
                       FM201200 VRB03KT 4SM -RA BR BKN007 OVC015
                       TEMPO 2012/2015 2SM -RA BR FM201500 VRB03KT
                       P6SM VCSH SCT011 BKN025 OVC050 FM201900
                       VRB03KT P6SM BKN030 BKN050 FM202200 VRB03KT
                       P6SM SCT035 BKN050 BKN100=
201110200718 KCLM 200718Z 2007/2106 VRB03KT P6SM SCT018 OVC040
                      TEMPO 2007/2009 -RA BKN018 OVC040 FM200900
                       VRB03KT 6SM -RA BR FEW007 BKN012 OVC030
                       TEMPO 2009/2011 4SM -RA BR FM201100 VRB03KT
                       4SM -RA BR BKN007 OVC015
                      TEMPO 2011/2015 2SM -RA BR FM201500 VRB03KT
                       P6SM VCSH SCT011 BKN025 OVC050 FM201900
                       VRB03KT P6SM BKN030 BKN050 FM202200 VRB03KT
                       P6SM SCT035 BKN050 BKN100=
201110200552 TAF KCLM 200552Z 2006/2106 VRB03KT P6SM SCT050 BKN090 FM200900
                       VRB03KT P6SM SCT020 OVC050
                      TEMPO 2009/2011 5SM -RA BR BKN020 OVC050
                       FM201100 VRB03KT 5SM -RA BR SCT007 OVC020
                       TEMPO 2011/2015 2SM -RA BR BKN007 OVC020
                       FM201500 VRB03KT P6SM VCSH SCT011 BKN025
                       OVC050 FM201900 VRB03KT P6SM BKN030 BKN050
                       FM202200 VRB03KT P6SM SCT035 BKN050 BKN100=
201110200307 TAF AMD KCLM 200307Z 2003/2024 VRB03KT P6SM FEW007 BKN060 FM200700
                       24003KT P6SM -RA OVC015 FM201200 24003KT
                       P6SM -RA OVC008 FM201700 28004KT P6SM VCSH
                       BKN020 OVC080 FM202000 01003KT P6SM BKN040=
201110192321 TAF KCLM 192321Z 2000/2024 31009KT P6SM BKN020 OVC200 FM200300
                       25004KT P6SM OVC020 FM200700 24003KT P6SM
                       -RA OVC015 FM201200 24003KT P6SM -RA OVC008
                       FM201700 28004KT P6SM VCSH BKN020 OVC080
                       FM202000 01003KT P6SM BKN040=
201110192050 TAF AMD KCLM 192050Z 1921/2018 31009KT P6SM BKN020 OVC200 FM200300
                       25004KT P6SM OVC020 FM200700 24003KT P6SM
                       -RA OVC015 FM201700 24004KT P6SM VCSH BKN020
                       OVC080=
201110191735 TAF KCLM 191735Z 1918/2018 27004KT P6SM SCT200 FM192100 28008KT
                       P6SM SCT080 BKN200 FM200300 25004KT P6SM
                       OVC050 FM200700 24003KT P6SM -RA OVC015
                       FM201700 24004KT P6SM VCSH BKN020 OVC080=
201110191135 TAF KCLM 191135Z 1912/2012 00000KT P6SM SKC FM191600 27004KT P6SM
                       BKN250 FM192100 28008KT P6SM SCT050 BKN100
                       FM200300 25004KT P6SM OVC050 FM200800 24003KT
                       P6SM -RA OVC015=
201110190520 TAF KCLM 190520Z 1906/2006 00000KT P6SM SKC FM191600 27004KT P6SM
                       BKN250 FM192100 28008KT P6SM SCT050 BKN100=
201110182320 TAF KCLM 182320Z 1900/1924 10006KT P6SM SKC FM190400 24004KT P6SM
                       SCT250 FM191600 27004KT P6SM BKN250 FM192100
                       28008KT P6SM SCT050 BKN100=
201110181846 KCLM 181846Z 1819/1918 10006KT P6SM SCT007
                      TEMPO 1819/1821 BKN007 FM190400 24004KT P6SM
                       SCT250 FM191600 31004KT P6SM BKN250=
201110181728 TAF KCLM 181728Z 1818/1918 10006KT P6SM SKC FM190400 24004KT P6SM
                       SCT250 FM191600 31004KT P6SM BKN250=
201110181609 KCLM 181609Z 1816/1912 10006KT P6SM SKC FM190400 24004KT P6SM BKN250=
201110181303 TAF AMD KCLM 181303Z 1813/1912 17003KT P6SM SCT010
                      TEMPO 1813/1816 5SM BR BKN010 FM181800 10006KT
                       P6SM SCT250 FM190400 24004KT P6SM BKN250=
201110181120 TAF KCLM 181120Z 1812/1912 14004KT P6SM SKC
                      TEMPO 1813/1816 5SM BR FM181800 10006KT P6SM
                       SCT250 FM190400 24004KT P6SM BKN250=
201110180525 TAF KCLM 180525Z 1806/1906 00000KT P6SM SKC
                      TEMPO 1813/1816 5SM BR FM181800 10006KT P6SM
                       SCT250 FM190300 00000KT P6SM SCT250=
201110172320 TAF KCLM 172320Z 1800/1824 VRB03KT P6SM SCT250 FM180300 23005KT
                       P6SM SCT250 FM181800 10006KT P6SM SCT250=
201110171730 TAF KCLM 171730Z 1718/1818 VRB03KT P6SM FEW100 FEW250 FM172000
                       04004KT P6SM FEW250 FM180300 23005KT P6SM
                       SKC=
201110171130 TAF KCLM 171130Z 1712/1812 24005KT P6SM OVC080
                      TEMPO 1713/1717 5SM BR SCT080 BKN250 FM171800
                       VRB03KT P6SM SCT250=
201110170540 TAF KCLM 170540Z 1706/1806 22005KT P6SM SKC FM171300 VRB03KT P6SM
                       SCT150 FM172100 03006KT P6SM BKN250=
201110162320 TAF KCLM 162320Z 1700/1724 VRB04KT P6SM SKC FM170500 24005KT P6SM
                       BKN100 OVC200 FM171300 VRB03KT P6SM SCT150=
201110161722 TAF KCLM 161722Z 1618/1718 10006KT P6SM SKC FM162300 27007KT P6SM
                       SKC FM170500 24005KT P6SM BKN100 OVC200=
201110161120 TAF KCLM 161120Z 1612/1712 23005KT P6SM SKC FM161900 VRB04KT P6SM
                       SCT015 FM162300 27007KT P6SM SKC=
201110160520 TAF KCLM 160520Z 1606/1706 00000KT P6SM BKN200 FM161900 VRB04KT
                       P6SM SCT015 FM162300 27007KT P6SM SKC=
201110152322 TAF KCLM 152322Z 1600/1624 VRB04KT P6SM SKC FM160400 22005KT P6SM
                       SKC FM161900 VRB04KT P6SM SCT015 FM162300
                       27007KT P6SM SKC=
201110151730 TAF KCLM 151730Z 1518/1618 09005KT P6SM SCT015
                      TEMPO 1518/1522 BKN015 FM152200 25004KT P6SM
                       SKC FM160400 22005KT P6SM SKC=
201110151120 TAF KCLM 151120Z 1512/1612 00000KT P6SM SKC FM151800 VRB03KT P6SM
                       SCT250 FM160300 25004KT P6SM SKC=
201110150520 TAF KCLM 150520Z 1506/1606 00000KT P6SM SCT100 BKN200 FM150800
                       23006KT P6SM SCT250 FM151800 VRB03KT P6SM
                       SCT250=
201110142320 TAF KCLM 142320Z 1500/1524 09003KT P6SM BKN019 FM150200 27005KT
                       P6SM SCT025 SCT250 FM150800 23006KT P6SM
                       SCT250 FM151800 VRB03KT P6SM SCT250=
201110142020 KCLM 142020Z 1420/1518 10005KT P6SM OVC016 FM150000 25005KT P6SM
                       SCT025 SCT100 BKN250 FM150800 23006KT P6SM
                       BKN250=
201110141720 TAF KCLM 141720Z 1418/1518 13004KT P6SM BKN022 OVC150 FM142200
                       10003KT P6SM SCT090 BKN150 FM150000 25005KT
                       P6SM SCT100 BKN250 FM150800 23006KT P6SM
                       BKN250=
201110141507 KCLM 141507Z 1415/1512 11004KT P6SM SCT022 OVC028 FM142000 35006KT
                       P6SM SCT035 SCT060 BKN150 FM150000 25005KT
                       P6SM SCT250=
201110141120 TAF KCLM 141120Z 1412/1512 VRB03KT P6SM OVC100 FM142000 35006KT
                       P6SM SCT120 BKN200 FM150000 25005KT P6SM
                       SCT250=
201110140522 TAF KCLM 140522Z 1406/1506 23004KT P6SM BKN250 FM141900 35006KT
                       P6SM SCT120 BKN200 FM150000 25005KT P6SM
                       BKN250=
201110132334 TAF KCLM 132334Z 1400/1424 07005KT P6SM SCT120 BKN200 FM140600
                       24005KT P6SM BKN120 BKN200 FM141800 VRB04KT
                       P6SM SCT100 SCT200=
201110132002 KCLM 132002Z 1320/1418 06005KT P6SM SCT009
                      TEMPO 1320/1322 BKN009 FM132300 07005KT P6SM
                       FEW120 BKN200 FM140200 24005KT P6SM BKN120
                       BKN200=
201110131723 TAF KCLM 131723Z 1318/1418 VRB03KT P6SM SCT010 SCT200
                      TEMPO 1318/1320 BKN010 FM132000 04005KT P6SM
                       FEW120 BKN200 FM140200 24005KT P6SM BKN120
                       BKN200=
201110131120 TAF KCLM 131120Z 1312/1412 23006KT P6SM BKN200 FM131800 04005KT
                       P6SM SCT120 BKN200 FM140200 24005KT P6SM
                       BKN120 BKN200=
201110130522 TAF KCLM 130522Z 1306/1406 23005KT P6SM BKN200
                      TEMPO 1312/1316 2SM BR BKN003 BKN200 FM131800
                       04005KT P6SM SCT120 BKN200 FM140200 24005KT
                       P6SM BKN100 BKN150=
201110122325 TAF KCLM 122325Z 1300/1324 28005KT P6SM BKN060 FM130300 27003KT
                       P6SM SCT060 SCT200 FM130900 VRB03KT P6SM
                       SCT200
                      TEMPO 1312/1316 2SM BR SCT004 FM131800 06004KT
                       P6SM SCT200=
201110121728 TAF KCLM 121728Z 1218/1318 25006KT P6SM VCSH BKN050 BKN080 FM122100
                       28005KT P6SM FEW050 BKN080 FM130100 VRB03KT
                       P6SM FEW040 SCT080=
201110121120 TAF KCLM 121120Z 1212/1312 25006KT P6SM SCT040 BKN080
                      TEMPO 1212/1216 -SHRA OVC040 FM121800 33005KT
                       P6SM FEW040 BKN080 FM130100 VRB03KT P6SM
                       FEW040 SCT080=
201110120527 TAF KCLM 120527Z 1206/1306 24004KT P6SM FEW035 BKN070
                      TEMPO 1206/1210 -SHRA BKN030 OVC050 FM121800
                       33005KT P6SM FEW040 BKN080=
201110112320 TAF KCLM 112320Z 1200/1224 24005KT P6SM VCSH SCT040 BKN060
                      TEMPO 1200/1204 -SHRA BKN035 FM120400 30005KT
                       P6SM VCSH BKN040 BKN060 FM120600 27005KT
                       P6SM SCT035 BKN060 FM121500 VRB04KT P6SM
                       SCT040=
201110111726 TAF KCLM 111726Z 1118/1218 23006KT P6SM VCSH SCT040 BKN060
                      TEMPO 1118/1122 -SHRA BKN035 FM120200 30005KT
                       P6SM VCSH BKN050 BKN070 FM120600 27005KT
                       P6SM SCT035 BKN060=
201110111120 TAF KCLM 111120Z 1112/1212 23006KT P6SM BKN060 OVC100
                      TEMPO 1112/1116 -SHRA BKN020 OVC060 FM111600
                       30005KT P6SM -SHRA BKN050 OVC090 FM120100
                       26005KT P6SM OVC070=
201110110522 TAF KCLM 110522Z 1106/1206 00000KT P6SM BKN070
                      TEMPO 1106/1110 -SHRA BKN025 OVC070 FM111900
                       30005KT P6SM -SHRA BKN050 FM120100 VRB03KT
                       P6SM BKN070=
201110102324 TAF KCLM 102324Z 1100/1124 27004KT P6SM VCSH SCT030 OVC070 FM111300
                       27006KT P6SM -RA OVC025 FM111700 29005KT
                       P6SM -RA OVC050 FM111900 30005KT P6SM -SHRA
                       BKN050=
201110102101 KCLM 102101Z 1021/1118 28009KT P6SM -RA SCT040 OVC060 FM110400
                       28006KT P6SM -RA OVC015 FM111000 27010G17KT
                       4SM -RA BR OVC015 FM111700 27010G16KT P6SM
                       -RA OVC025=
201110101932 KCLM 101932Z 1020/1118 01003KT P6SM OVC004 FM110400 28006KT P6SM
                       -RA OVC015 FM111000 27010G17KT 4SM -RA BR
                       OVC015 FM111700 27010G16KT P6SM -RA OVC025=
201110101731 TAF KCLM 101731Z 1018/1118 09003KT P6SM FEW008 OVC070 FM102000
                       07005KT P6SM -RA OVC025 FM110400 28006KT
                       P6SM -RA OVC015 FM111000 27010G17KT 4SM
                       -RA BR OVC015 FM111700 27010G16KT P6SM -RA
                       OVC025=
201110101547 KCLM 101547Z 1016/1112 00000KT P6SM -RA OVC008 FM102200 04005KT
                       P6SM VCSH SCT008 BKN050 FM110300 24004KT
                       P6SM VCSH BKN050=
201110101203 KCLM 101203Z 1012/1112 VRB03KT P6SM SCT005 SCT045 OVC090
                      TEMPO 1012/1014 -RA FM101400 VRB03KT P6SM
                       -RA SCT005 BKN045 OVC090 FM102200 04005KT
                       P6SM VCSH SCT008 BKN050 FM110300 24004KT
                       P6SM VCSH BKN050=
201110101129 TAF KCLM 101129Z 1012/1112 VRB03KT P6SM VCSH OVC005 FM101400 06005KT
                       5SM -RA BR SCT005 BKN008 OVC045 FM102200
                       04005KT P6SM VCSH SCT008 BKN050 FM110300
                       24004KT P6SM VCSH BKN050=
201110101016 KCLM 101016Z 1010/1106 14005KT P6SM VCSH BKN003 OVC045 FM101400
                       06005KT 5SM -RA BR SCT005 BKN008 OVC045
                       FM102100 04005KT P6SM VCSH SCT008 BKN050=
201110100534 TAF KCLM 100534Z 1006/1106 VRB03KT P6SM SCT050 OVC120 FM101000
                       14005KT P6SM -RA OVC045 FM101500 06005KT
                       5SM -RA BR SCT005 BKN008 OVC045 FM102100
                       04005KT P6SM VCSH SCT008 BKN050=
201110092331 TAF KCLM 092331Z 1000/1024 03004KT P6SM SCT080 FM101300 09005KT
                       P6SM -RA OVC040 FM101700 VRB03KT P6SM -RA
                       OVC025=
201110091736 TAF KCLM 091736Z 0918/1018 00000KT P6SM BKN050 BKN120 FM100000
                       09005KT P6SM BKN060 OVC120 FM101300 09005KT
                       P6SM -RA OVC040=
201110091120 TAF KCLM 091120Z 0912/1012 27008KT P6SM SCT040 BKN120 BKN200 FM100000
                       09005KT P6SM BKN060 OVC120 FM100900 09005KT
                       P6SM -RA OVC040=
201110090720 KCLM 090720Z 0907/1006 30010KT P6SM SCT008 BKN025
                      TEMPO 0907/0911 BKN008 OVC022 FM091800 VRB03KT
                       P6SM SCT040 SCT200=
201110090520 TAF KCLM 090520Z 0906/1006 27007KT P6SM BKN050 BKN150 FM091800
                       VRB03KT P6SM SCT040 SCT200=
201110082331 TAF KCLM 082331Z 0900/0924 00000KT P6SM SCT007 OVC080 FM090200
                       27003KT P6SM -RA BKN025 OVC050 FM090800
                       27007KT P6SM BKN030 FM091300 27004KT 4SM
                       BR OVC004 FM092000 33003KT P6SM BKN120=
201110082136 KCLM 082136Z 0822/0918 34003KT P6SM OVC005 FM090000 18012KT P6SM
                       -RA SCT025 OVC050 FM090800 27007KT P6SM
                       BKN030 FM091300 27004KT 4SM BR OVC004=
201110081738 TAF KCLM 081738Z 0818/0918 00000KT P6SM OVC003 FM082000 00000KT
                       P6SM SCT050 OVC120 FM090000 18012KT P6SM
                       -RA SCT025 OVC050 FM090800 27007KT P6SM
                       BKN030 FM091300 27004KT 4SM BR OVC004=
201110081458 KCLM 081458Z 0815/0912 00000KT P6SM BKN001 OVC013
                      TEMPO 0815/0817 3SM BR BKN015 FM081700 09006KT
                       P6SM SCT015 BKN120 FM090000 18012KT P6SM
                       -RA SCT025 OVC050 FM090800 27007KT P6SM
                       BKN030=
201110081126 TAF KCLM 081126Z 0812/0912 00000KT P6SM SCT015 SCT200
                      TEMPO 0812/0816 3SM BR BKN015 FM082000 09006KT
                       P6SM SCT015 BKN120 FM090000 18012KT P6SM
                       -RA SCT025 OVC050 FM090800 27007KT P6SM
                       BKN030=
201110081004 KCLM 081004Z 0810/0906 00000KT 5SM BR SCT002 SCT200
                      TEMPO 0810/0814 3SM BR BKN002 FM081700 09006KT
                       P6SM SCT015 BKN050 BKN200 FM090000 18012KT
                       P6SM -RA SCT025 OVC050=
201110080521 TAF KCLM 080521Z 0806/0906 00000KT P6SM SCT010
                      TEMPO 0806/0809 4SM BR BKN010 FM080900 09005KT
                       P6SM BKN010 BKN050
                      TEMPO 0812/0816 4SM BR OVC010 FM081700 09006KT
                       P6SM SCT015 BKN050 BKN200 FM090000 18012KT
                       P6SM -RA SCT025 OVC050=
201110080204 KCLM 080204Z 0802/0824 VRB03KT P6SM SCT018 BKN040
                      TEMPO 0802/0806 BKN018 OVC040 FM081800 VRB03KT
                       P6SM SCT025 BKN040 BKN200=
201110080137 KCLM 080137Z 0802/0824 VRB03KT P6SM BKN018 BKN040 FM081800 VRB03KT
                       P6SM SCT025 BKN040 BKN200=
201110072340 TAF KCLM 072340Z 0800/0824 VRB03KT P6SM SCT025 BKN050 FM080700
                       VRB03KT P6SM BKN015 BKN030 FM081800 VRB03KT
                       P6SM BKN035 BKN200=
201110072016 KCLM 072016Z 0720/0818 00000KT P6SM SCT010 BKN015 OVC060
                      TEMPO 0720/0722 BKN010 OVC015 FM072200 VRB03KT
                       P6SM BKN030 OVC050 FM080600 VRB03KT P6SM
                       OVC003=
201110071738 TAF KCLM 071738Z 0718/0818 00000KT 3SM BR OVC003 FM072200 VRB03KT
                       P6SM BKN025 OVC040 FM080600 VRB03KT P6SM
                       OVC003=
201110071630 KCLM 071630Z 0717/0812 VRB03KT P6SM SCT003 OVC009
                      TEMPO 0717/0718 6SM -RA BR BKN003 OVC009
                       FM071800 VRB03KT P6SM SCT010 BKN018 OVC030
                       FM072200 VRB03KT P6SM BKN025 OVC040=
201110071508 KCLM 071508Z 0715/0812 VRB03KT P6SM SCT006 OVC010
                      TEMPO 0715/0718 6SM -RA BR BKN006 OVC010
                       FM071800 VRB03KT P6SM SCT010 BKN018 OVC030
                       FM072200 VRB03KT P6SM BKN025 OVC040=
201110071314 KCLM 071314Z 0713/0812 VRB03KT P6SM SCT005 OVC012
                      TEMPO 0713/0716 -RA BKN005 OVC012 FM071800
                       VRB03KT P6SM SCT010 BKN018 OVC030 FM072200
                       VRB03KT P6SM BKN025 OVC040=
201110071120 TAF KCLM 071120Z 0712/0812 VRB03KT P6SM SCT025 OVC050
                      TEMPO 0712/0716 -RA BKN025 OVC050 FM072200
                       VRB03KT P6SM BKN025 OVC040=
201110070913 KCLM 070913Z 0709/0806 23005KT P6SM -RA SCT025 OVC060
                      TEMPO 0709/0712 BKN025 OVC050 FM071200 VRB03KT
                       P6SM -RA OVC025 FM072200 VRB03KT P6SM BKN025
                       OVC040=
201110070529 TAF KCLM 070529Z 0706/0806 25007KT P6SM SCT025
                      TEMPO 0706/0709 BKN020 FM070900 28005KT P6SM
                       OVC018 FM071400 25004KT 6SM -DZ BR OVC015
                       FM071800 VRB03KT P6SM BKN025 OVC035 FM072200
                       VRB03KT P6SM BKN035 BKN050=
201110070354 KCLM 070354Z 0704/0724 32007KT P6SM SCT025
                      TEMPO 0704/0708 BKN020 FM070800 28005KT P6SM
                       OVC018 FM071400 25004KT 6SM -DZ BR OVC015
                       FM071800 VRB03KT P6SM BKN025 OVC035 FM072200
                       VRB03KT P6SM BKN035 BKN050=
201110062331 TAF KCLM 062331Z 0700/0724 32007KT P6SM OVC019 FM070500 28005KT
                       P6SM OVC018 FM071000 25004KT 6SM BR OVC015
                       PROB30 0710/0716 -RA FM071800 VRB03KT P6SM
                       BKN025 OVC035 FM072200 VRB03KT P6SM BKN035
                       BKN050=
201110061739 TAF KCLM 061739Z 0618/0718 29004KT P6SM SCT035
                      TEMPO 0618/0620 BKN035 FM062100 29006KT P6SM
                       SCT045 FM070500 27004KT P6SM BKN030 FM071000
                       VRB03KT P6SM BKN015=
201110061120 TAF KCLM 061120Z 0612/0712 24004KT P6SM SCT020 BKN050=
201110060520 TAF KCLM 060520Z 0606/0706 24004KT P6SM SCT020 BKN050=
201110052324 TAF KCLM 052324Z 0600/0624 24003KT P6SM VCSH SCT030 BKN060 FM060600
                       27004KT P6SM BKN030=
201110051731 TAF KCLM 051731Z 0518/0618 24003KT P6SM VCSH SCT030 BKN060 OVC200
                       FM060200 26005KT P6SM SCT040 BKN070 FM060600
                       27004KT P6SM BKN030=
201110051121 TAF KCLM 051121Z 0512/0612 24004KT P6SM VCSH BKN070 OVC100 FM051800
                       VRB03KT P6SM VCSH SCT040 BKN070 BKN100 FM060200
                       24003KT P6SM SCT040 BKN070=
201110050532 TAF KCLM 050532Z 0506/0606 VRB03KT P6SM VCSH BKN070 OVC100 FM051200
                       VRB03KT P6SM VCSH BKN040 OVC070 FM051800
                       VRB03KT P6SM SCT040 BKN060=
201110042336 TAF KCLM 042336Z 0500/0524 VRB04KT P6SM VCSH BKN070 BKN100
                      TEMPO 0500/0504 -RA BKN040 FM050400 VRB03KT
                       P6SM -SHRA BKN040 OVC080 FM051200 24004KT
                       P6SM VCSH BKN040 BKN060 FM051800 VRB03KT
                       P6SM SCT040 BKN060=
201110041730 TAF KCLM 041730Z 0418/0518 VRB03KT P6SM VCSH SCT050 BKN080 FM042100
                       VRB04KT P6SM VCSH BKN050 BKN080 FM050300
                       VRB03KT P6SM -SHRA BKN040 OVC080=
201110041121 TAF KCLM 041121Z 0412/0512 VRB03KT P6SM VCSH SCT045 BKN080 FM042100
                       VRB03KT P6SM OVC090
                      PROB30 0421/0424 -RA FM050000 VRB03KT P6SM
                       -RA BKN050 OVC080=
201110040537 TAF KCLM 040537Z 0406/0506 VRB03KT P6SM SCT070 FM041100 VRB03KT
                       P6SM VCSH FEW045 BKN100 FM042100 VRB03KT
                       P6SM OVC090
                      PROB30 0421/0424 -RA FM050000 VRB03KT P6SM
                       -RA BKN050 OVC080=
201110032323 TAF KCLM 032323Z 0400/0424 VRB04KT P6SM VCSH SCT040 OVC060 FM040900
                       VRB04KT P6SM VCSH BKN040 OVC080 FM041800
                       VRB04KT P6SM BKN030 OVC060=
201110031802 KCLM 031802Z 0318/0418 VRB04KT P6SM VCSH SCT005 SCT040 BKN070
                      TEMPO 0318/0320 BKN005 FM040500 VRB03KT P6SM
                       BKN040 OVC070=
201110031725 TAF KCLM 031725Z 0318/0418 VRB04KT P6SM VCSH SCT040 BKN070 FM040500
                       VRB03KT P6SM BKN040 OVC070=
201110031324 KCLM 031324Z 0313/0412 12010KT P6SM -RA BKN050 OVC080 FM031500
                       VRB03KT P6SM -RA BKN040 BKN060 FM031800
                       VRB03KT P6SM VCSH SCT040 BKN060 FM032000
                       VRB03KT P6SM VCSH SCT040 BKN080 FM040100
                       VRB03KT P6SM -SHRA BKN040 OVC070=
201110031122 TAF KCLM 031122Z 0312/0412 26005KT P6SM -RA BKN045 OVC080 FM031500
                       VRB03KT P6SM -RA BKN040 BKN060 FM031800
                       VRB03KT P6SM VCSH SCT040 BKN060 FM032000
                       VRB03KT P6SM VCSH SCT040 BKN080 FM040100
                       VRB03KT P6SM -SHRA BKN040 OVC070=
201110030520 TAF KCLM 030520Z 0306/0406 00000KT P6SM SCT012 BKN080 FM030800
                       00000KT P6SM -RA SCT030 OVC050 FM031100
                       VRB03KT 6SM -RA BKN025 OVC035 FM031500 VRB03KT
                       P6SM VCSH BKN035 BKN050 FM031800 VRB03KT
                       P6SM VCSH SCT040 BKN060=
201110030041 KCLM 030041Z 0301/0324 00000KT P6SM BKN012 BKN080
                      TEMPO 0301/0304 SCT012 BKN080 FM030400 VRB03KT
                       P6SM -RA OVC060 FM030800 VRB04KT P6SM -RA
                       BKN030 OVC050 FM031000 VRB04KT 6SM -RA BKN025
                       OVC035 FM031500 VRB04KT P6SM -SHRA BKN035
                       BKN050=
201110022324 TAF KCLM 022324Z 0300/0324 00000KT P6SM BKN070 OVC100 FM030400
                       VRB03KT P6SM -RA OVC060 FM030800 VRB04KT
                       P6SM -RA BKN030 OVC050 FM031000 VRB04KT
                       6SM -RA BKN025 OVC035 FM031500 VRB04KT P6SM
                       -SHRA BKN035 BKN050=
201110022205 KCLM 022205Z 0222/0318 11005KT P6SM OVC005 FM022330 11005KT P6SM
                       SCT008 OVC060 FM030100 VRB03KT P6SM -RA
                       OVC060 FM030800 VRB04KT P6SM -RA BKN030
                       OVC050 FM031000 VRB04KT 6SM -RA BKN025 OVC035=
201110022008 KCLM 022008Z 0220/0318 08005KT 4SM BR OVC005
                      TEMPO 0220/0222 1SM BR OVC001 FM022200 09005KT
                       P6SM OVC070 FM030100 VRB03KT P6SM -RA OVC060
                       FM030800 VRB04KT P6SM -RA BKN030 OVC050
                       FM031000 VRB04KT 6SM -RA BKN025 OVC035=
201110021835 KCLM 021835Z 0219/0318 09005KT P6SM BKN005 BKN090 FM022030 09005KT
                       P6SM OVC070 FM030100 VRB03KT P6SM -RA OVC060
                       FM030800 VRB04KT P6SM -RA BKN030 OVC050
                       FM031000 VRB04KT 6SM -RA BKN025 OVC035=
201110021734 TAF KCLM 021734Z 0218/0318 VRB03KT P6SM BKN080 FM030100 VRB03KT
                       P6SM -RA OVC060 FM030800 VRB04KT P6SM -RA
                       BKN030 OVC050 FM031000 VRB04KT 6SM -RA BKN025
                       OVC035=
201110021121 TAF KCLM 021121Z 0212/0312 VRB03KT P6SM SCT025 BKN080
                      TEMPO 0212/0216 BKN025 FM030100 VRB03KT P6SM
                       -RA OVC060 FM030600 VRB04KT P6SM -RA BKN035
                       OVC060=
201110020523 TAF KCLM 020523Z 0206/0306 24005KT P6SM SCT027 BKN100
                      TEMPO 0206/0210 BKN025 OVC080 FM021000 25005KT
                       P6SM SCT025 BKN080 FM022000 VRB03KT P6SM
                       BKN100 FM030200 VRB04KT P6SM -RA BKN050
                       OVC080=
201110012327 TAF KCLM 012327Z 0200/0224 11004KT P6SM VCSH OVC060 FM020500 24005KT
                       P6SM SCT040 BKN120 FM022000 VRB03KT P6SM
                       BKN100=
201110011738 TAF KCLM 011738Z 0118/0218 00000KT P6SM BKN100 OVC200 FM012300
                       25003KT P6SM -SHRA BKN035 OVC060 FM020500
                       VRB03KT P6SM VCSH BKN020 OVC035 FM021500
                       VRB03KT P6SM SCT035 BKN150=
201110011121 TAF KCLM 011121Z 0112/0212 25003KT P6SM VCSH SCT035 OVC070
                      TEMPO 0114/0118 -SHRA BKN030 FM011800 31003KT
                       P6SM -SHRA BKN030 OVC060 FM020200 25003KT
                       P6SM -SHRA OVC025=
201110010527 TAF KCLM 010527Z 0106/0206 VRB03KT P6SM SCT035 BKN120 OVC200
                      TEMPO 0106/0110 BKN030 FM011000 25003KT P6SM
                       VCSH SCT030 OVC050
                      TEMPO 0114/0118 -SHRA BKN025 FM011800 34003KT
                       P6SM -SHRA OVC025=