##########################################################
# Query made at 02/16/2025 02:12:01 UTC
# Time interval: from 03/01/2012 00:00  to 03/31/2012 23:59  UTC
##########################################################

##########################################################
# KCLM, Port Angeles, William R. Fairchild International Airport (United States)
# WMO index: -----. WIGOS ID: Unknown
# Latitude 48-07-20N. Longitude 123-30-19W. Altitude 87 m.
##########################################################

###################################
#  METAR/SPECI from KCLM
###################################
201203312353 METAR KCLM 312353Z AUTO 11003KT 10SM FEW009 OVC014 06/03 A2948 RMK AO2 RAB15E35 SLPNO P0000 6//// T00560033 51008=
201203312338 SPECI KCLM 312338Z AUTO 00000KT 10SM FEW007 OVC015 06/04 A2948 RMK AO2 RAB15E35 P0000 T00560039=
201203312338 SPECI KCLM 312338Z AUTO 00000KT 10SM FEW007 OVC015 06/04 A2948 RMK AO2 RAB15E35 P0000 T00560039=
201203312308 SPECI KCLM 312308Z AUTO 10SM BKN010 OVC015 06/03 A2947 RMK AO2 CIG 007V011 T00560033=
201203312308 SPECI KCLM 312308Z AUTO 10SM BKN010 OVC015 06/03 A2947 RMK AO2 CIG 007V011 T00560033=
201203312253 METAR KCLM 312253Z AUTO 00000KT 10SM FEW009 OVC015 06/03 A2947 RMK AO2 RAE09 SLPNO P0000 T00560033=
201203312248 SPECI KCLM 312248Z AUTO VRB03KT 10SM SCT009 OVC014 06/03 A2947 RMK AO2 RAE09 P0000=
201203312248 SPECI KCLM 312248Z AUTO VRB03KT 10SM SCT009 OVC014 06/03 A2947 RMK AO2 RAE09 P0000=
201203312153 METAR KCLM 312153Z AUTO 00000KT 10SM -RA OVC009 05/03 A2946 RMK AO2 RAE2054B28 SLPNO P0000 T00500028=
201203312151 SPECI KCLM 312151Z AUTO 00000KT 10SM -RA OVC009 05/03 A2946 RMK AO2 RAE2054B28 P0000=
201203312151 SPECI KCLM 312151Z AUTO 00000KT 10SM -RA OVC009 05/03 A2946 RMK AO2 RAE2054B28 P0000=
201203312053 METAR KCLM 312053Z AUTO 07004KT 10SM -RA OVC013 05/03 A2946 RMK AO2 RAB31 SLPNO 6//// T00500028 PNO=
201203312045 SPECI KCLM 312045Z AUTO 09003KT 10SM -RA FEW009 BKN013 OVC024 05/02 A2946 RMK AO2 RAB31 T00500022 PNO=
201203312045 SPECI KCLM 312045Z AUTO 09003KT 10SM -RA FEW009 BKN013 OVC024 05/02 A2946 RMK AO2 RAB31 T00500022 PNO=
201203311953 METAR KCLM 311953Z AUTO RMK AO2 SLPNO PWINO FZRANO TSNO PNO $=
201203311900 METAR KCLM NIL=
201203311810 SPECI KCLM 311810Z AUTO 14005KT 10SM -RA FEW016 OVC029 05/02 A2946 RMK AO2 P0000=
201203311810 SPECI KCLM 311810Z AUTO 14005KT 10SM -RA FEW016 OVC029 05/02 A2946 RMK AO2 P0000=
201203311753 METAR KCLM 311753Z AUTO 13004KT 10SM -RA BKN035 OVC046 05/02 A2945 RMK AO2 RAE33B50 SLP974 P0000 60014 T00500022 10050 20028 55014=
201203311653 METAR KCLM 311653Z AUTO 13008KT 10SM -RA BKN048 OVC060 04/02 A2944 RMK AO2 RAE22B47 SLP971 P0000 T00440017=
201203311607 SPECI KCLM 311607Z AUTO 15007KT 6SM -RA BR BKN036 OVC050 03/01 A2947 RMK AO2 P0000=
201203311607 SPECI KCLM 311607Z AUTO 15007KT 6SM -RA BR BKN036 OVC050 03/01 A2947 RMK AO2 P0000=
201203311553 METAR KCLM 311553Z AUTO 15008KT 10SM -RA BKN022 OVC047 03/01 A2947 RMK AO2 SLP980 P0003 T00330011=
201203311453 METAR KCLM 311453Z AUTO 13011KT 6SM -RA BR SCT010 OVC016 03/01 A2949 RMK AO2 SLP988 P0010 60011 T00280011 56022=
201203311417 SPECI KCLM 311417Z AUTO 10008KT 7SM -RA OVC014 04/02 A2950 RMK AO2 P0003=
201203311417 SPECI KCLM 311417Z AUTO 10008KT 7SM -RA OVC014 04/02 A2950 RMK AO2 P0003=
201203311353 METAR KCLM 311353Z AUTO 10007KT 9SM -RA BKN016 OVC021 05/02 A2951 RMK AO2 RAB1258 SLP995 P0001 T00500022=
201203311304 SPECI KCLM 311304Z AUTO 12006KT 10SM -RA BKN027 OVC035 05/02 A2954 RMK AO2 RAB1258 P0000=
201203311304 SPECI KCLM 311304Z AUTO 12006KT 10SM -RA BKN027 OVC035 05/02 A2954 RMK AO2 RAB1258 P0000=
201203311253 METAR KCLM 311253Z AUTO 11007KT 10SM OVC035 05/02 A2953 RMK AO2 SLP003 T00500022=
201203311219 SPECI KCLM 311219Z AUTO 11007KT 10SM FEW017 OVC031 05/02 A2954 RMK AO2=
201203311219 SPECI KCLM 311219Z AUTO 11007KT 10SM FEW017 OVC031 05/02 A2954 RMK AO2=
201203311153 METAR KCLM 311153Z AUTO 11008KT 10SM FEW017 OVC026 05/02 A2956 RMK AO2 SLP011 60000 70023 T00500022 10056 20044 58035=
201203311053 METAR KCLM 311053Z AUTO 12006KT 10SM BKN026 BKN031 OVC100 05/02 A2960 RMK AO2 SLP024 T00500022=
201203311026 SPECI KCLM 311026Z AUTO 12006KT 10SM SCT014 BKN020 OVC028 05/03 A2961 RMK AO2=
201203311026 SPECI KCLM 311026Z AUTO 12006KT 10SM SCT014 BKN020 OVC028 05/03 A2961 RMK AO2=
201203311007 SPECI KCLM 311007Z AUTO 11006KT 10SM BKN014 OVC022 05/03 A2962 RMK AO2=
201203311007 SPECI KCLM 311007Z AUTO 11006KT 10SM BKN014 OVC022 05/03 A2962 RMK AO2=
201203310953 METAR KCLM 310953Z AUTO 12006KT 10SM BKN016 OVC023 06/03 A2963 RMK AO2 SLP036 T00560028=
201203310853 METAR KCLM 310853Z AUTO 12003KT 10SM OVC018 04/03 A2966 RMK AO2 CIG 010V023 SLP046 60000 T00440028 58023=
201203310753 METAR KCLM 310753Z AUTO 17003KT 10SM OVC024 04/02 A2969 RMK AO2 PRESFR SLP056 T00440022 400830028=
201203310653 METAR KCLM 310653Z AUTO 00000KT 10SM OVC024 05/02 A2973 RMK AO2 RAB22E28 SLP070 P0000 T00500022=
201203310553 METAR KCLM 310553Z AUTO 00000KT 10SM OVC028 04/03 A2973 RMK AO2 SLP069 T00440028 10078 20039 58004=
201203310453 METAR KCLM 310453Z AUTO 23005KT 10SM BKN028 04/02 A2975 RMK AO2 SLP075 T00440022=
201203310421 SPECI KCLM 310421Z AUTO 24004KT 10SM BKN028 04/02 A2975 RMK AO2=
201203310421 SPECI KCLM 310421Z AUTO 24004KT 10SM BKN028 04/02 A2975 RMK AO2=
201203310353 METAR KCLM 310353Z AUTO 24005KT 10SM CLR 05/02 A2975 RMK AO2 SLP076 T00500022=
201203310253 METAR KCLM 310253Z AUTO 29003KT 10SM CLR 04/02 A2974 RMK AO2 SLP074 T00440017 53014=
201203310153 METAR KCLM 310153Z AUTO 31011KT 10SM CLR 07/03 A2972 RMK AO2 SLP067 T00670033=
201203310053 METAR KCLM 310053Z AUTO 31013G18KT 10SM FEW007 07/04 A2970 RMK AO2 SLP060 T00670044=
201203310051 SPECI KCLM 310051Z AUTO 31011G18KT 10SM FEW007 07/04 A2970 RMK AO2=
201203310051 SPECI KCLM 310051Z AUTO 31011G18KT 10SM FEW007 07/04 A2970 RMK AO2=
201203302353 METAR KCLM 302353Z AUTO 30010KT 10SM FEW095 08/04 A2969 RMK AO2 RAB2254E03 SLP055 P0000 60020 T00830044 10083 20028 51018=
201203302301 SPECI KCLM 302301Z AUTO 28009KT 10SM -RA FEW008 OVC044 06/04 A2969 RMK AO2 RAB2254 P0000=
201203302301 SPECI KCLM 302301Z AUTO 28009KT 10SM -RA FEW008 OVC044 06/04 A2969 RMK AO2 RAB2254 P0000=
201203302253 METAR KCLM 302253Z AUTO 29007KT 10SM SCT010 BKN039 OVC050 06/04 A2968 RMK AO2 RAE46 SLP053 P0001 T00560039=
201203302237 SPECI KCLM 302237Z AUTO 29011KT 10SM -RA FEW029 BKN035 OVC048 05/03 A2967 RMK AO2 P0001=
201203302237 SPECI KCLM 302237Z AUTO 29011KT 10SM -RA FEW029 BKN035 OVC048 05/03 A2967 RMK AO2 P0001=
201203302153 METAR KCLM 302153Z AUTO 27009KT 7SM -RA OVC019 03/02 A2966 RMK AO2 SLP044 P0014 T00330022=
201203302053 METAR KCLM 302053Z AUTO 29011KT 4SM -RA BR SCT012 SCT020 OVC025 06/03 A2963 RMK AO2 RAB12 SLP036 P0005 60005 T00560033 53013=
201203302046 SPECI KCLM 302046Z AUTO 30010G17KT 5SM -RA BR FEW009 SCT015 OVC025 06/03 A2964 RMK AO2 RAB12 PRESRR P0003=
201203302046 SPECI KCLM 302046Z AUTO 30010G17KT 5SM -RA BR FEW009 SCT015 OVC025 06/03 A2964 RMK AO2 RAB12 PRESRR P0003=
201203302036 SPECI KCLM 302036Z AUTO 31011G17KT 5SM -RA FEW009 BKN013 OVC023 06/03 A2962 RMK AO2 RAB12 P0002=
201203302036 SPECI KCLM 302036Z AUTO 31011G17KT 5SM -RA FEW009 BKN013 OVC023 06/03 A2962 RMK AO2 RAB12 P0002=
201203301953 METAR KCLM 301953Z AUTO 00000KT 10SM OVC023 08/03 A2960 RMK AO2 RAB03E35 SLP024 P0000 T00780033=
201203301853 METAR KCLM 301853Z AUTO 00000KT 10SM OVC023 08/03 A2960 RMK AO2 SLP023 T00780033=
201203301753 METAR KCLM 301753Z AUTO VRB04KT 10SM OVC022 08/04 A2960 RMK AO2 SLP024 60003 T00780039 10083 20044 53016=
201203301736 SPECI KCLM 301736Z AUTO VRB03KT 10SM BKN020 08/03 A2959 RMK AO2=
201203301736 SPECI KCLM 301736Z AUTO VRB03KT 10SM BKN020 08/03 A2959 RMK AO2=
201203301653 METAR KCLM 301653Z AUTO VRB05KT 10SM FEW120 08/04 A2957 RMK AO2 SLP016 T00830039=
201203301553 METAR KCLM 301553Z AUTO 25003KT 10SM CLR 07/04 A2956 RMK AO2 SLP012 T00670039=
201203301453 METAR KCLM 301453Z AUTO 28007KT 10SM FEW060 BKN070 OVC095 05/03 A2955 RMK AO2 RAE36 SLP008 P0002 60003 T00500028 52020=
201203301353 METAR KCLM 301353Z AUTO 28008KT 10SM -RA FEW016 OVC030 06/03 A2953 RMK AO2 SLP001 P0001 T00560033=
201203301253 METAR KCLM 301253Z AUTO 24005KT 10SM -RA OVC046 06/04 A2951 RMK AO2 SLP994 P0000 T00560039=
201203301240 SPECI KCLM 301240Z AUTO 26006KT 10SM -RA SCT015 OVC050 06/04 A2951 RMK AO2 P0000=
201203301240 SPECI KCLM 301240Z AUTO 26006KT 10SM -RA SCT015 OVC050 06/04 A2951 RMK AO2 P0000=
201203301153 METAR KCLM 301153Z AUTO 25005KT 10SM -RA BKN017 BKN060 OVC080 06/04 A2949 RMK AO2 RAB25 SLP987 P0000 60000 7//// T00560039 10056 20050 53001=
201203301053 METAR KCLM 301053Z AUTO 00000KT 10SM SCT022 BKN065 OVC090 05/04 A2948 RMK AO2 RAE46 SLP986 P0000 T00500039=
201203301039 SPECI KCLM 301039Z AUTO 00000KT 10SM -RA BKN024 BKN028 OVC050 06/04 A2948 RMK AO2 P0000=
201203301039 SPECI KCLM 301039Z AUTO 00000KT 10SM -RA BKN024 BKN028 OVC050 06/04 A2948 RMK AO2 P0000=
201203300953 METAR KCLM 300953Z AUTO 00000KT 7SM -RA SCT026 OVC033 06/04 A2949 RMK AO2 SLP986 P0000 T00560044=
201203300902 SPECI KCLM 300902Z AUTO 22003KT 10SM -RA SCT014 OVC041 06/04 A2947 RMK AO2 P0000=
201203300902 SPECI KCLM 300902Z AUTO 22003KT 10SM -RA SCT014 OVC041 06/04 A2947 RMK AO2 P0000=
201203300853 METAR KCLM 300853Z AUTO 23005KT 10SM -RA BKN014 OVC049 05/04 A2946 RMK AO2 RAE09B39 SLP978 P0000 60000 T00500039 53003=
201203300819 SPECI KCLM 300819Z AUTO 00000KT 10SM BKN014 BKN031 OVC046 05/04 A2946 RMK AO2 RAE09 P0000=
201203300819 SPECI KCLM 300819Z AUTO 00000KT 10SM BKN014 BKN031 OVC046 05/04 A2946 RMK AO2 RAE09 P0000=
201203300815 SPECI KCLM 300815Z AUTO 21003KT 10SM SCT016 BKN031 OVC055 05/04 A2946 RMK AO2 RAE09 P0000=
201203300815 SPECI KCLM 300815Z AUTO 21003KT 10SM SCT016 BKN031 OVC055 05/04 A2946 RMK AO2 RAE09 P0000=
201203300753 METAR KCLM 300753Z AUTO 00000KT 10SM -RA BKN016 BKN060 OVC075 05/04 A2945 RMK AO2 RAB26 SLP974 P0000 T00500039 400890050=
201203300733 SPECI KCLM 300733Z AUTO 00000KT 8SM -RA SCT016 BKN055 OVC075 05/04 A2945 RMK AO2 RAB26 P0000=
201203300733 SPECI KCLM 300733Z AUTO 00000KT 8SM -RA SCT016 BKN055 OVC075 05/04 A2945 RMK AO2 RAB26 P0000=
201203300653 METAR KCLM 300653Z AUTO 00000KT 9SM BKN016 OVC060 05/04 A2945 RMK AO2 SLP975 T00500039=
201203300553 METAR KCLM 300553Z AUTO 00000KT 10SM OVC014 06/04 A2945 RMK AO2 SLP975 60000 T00610044 10078 20056 51009=
201203300453 METAR KCLM 300453Z AUTO 00000KT 10SM OVC010 06/04 A2945 RMK AO2 CIG 008V012 SLP975 T00610044=
201203300353 METAR KCLM 300353Z AUTO 26004KT 10SM OVC010 06/04 A2944 RMK AO2 RAE15 SLP972 P0000 T00560039=
201203300343 SPECI KCLM 300343Z AUTO 28006KT 10SM BKN012 BKN017 OVC025 06/04 A2944 RMK AO2 RAE15 P0000=
201203300343 SPECI KCLM 300343Z AUTO 28006KT 10SM BKN012 BKN017 OVC025 06/04 A2944 RMK AO2 RAE15 P0000=
201203300320 SPECI KCLM 300320Z AUTO 30007KT 10SM FEW008 BKN017 OVC027 06/04 A2944 RMK AO2 RAE15 P0000=
201203300320 SPECI KCLM 300320Z AUTO 30007KT 10SM FEW008 BKN017 OVC027 06/04 A2944 RMK AO2 RAE15 P0000=
201203300310 SPECI KCLM 300310Z AUTO 30006KT 10SM -RA SCT004 BKN010 OVC019 06/04 A2943 RMK AO2 P0000=
201203300310 SPECI KCLM 300310Z AUTO 30006KT 10SM -RA SCT004 BKN010 OVC019 06/04 A2943 RMK AO2 P0000=
201203300253 METAR KCLM 300253Z AUTO 31008KT 10SM -RA BKN004 OVC010 06/05 A2943 RMK AO2 RAE27B47 CIG 003V008 SLP966 P0000 60000 T00610050 53002=
201203300153 METAR KCLM 300153Z AUTO 29009KT 7SM -RA BKN004 BKN008 OVC013 07/05 A2942 RMK AO2 RAB09 SLP964 P0000 T00670050=
201203300139 SPECI KCLM 300139Z AUTO 29008KT 8SM -RA BKN004 BKN013 OVC026 07/06 A2942 RMK AO2 RAB09 P0000=
201203300139 SPECI KCLM 300139Z AUTO 29008KT 8SM -RA BKN004 BKN013 OVC026 07/06 A2942 RMK AO2 RAB09 P0000=
201203300132 SPECI KCLM 300132Z AUTO 30007KT 10SM -RA SCT004 BKN013 OVC026 07/06 A2942 RMK AO2 RAB09 P0000=
201203300132 SPECI KCLM 300132Z AUTO 30007KT 10SM -RA SCT004 BKN013 OVC026 07/06 A2942 RMK AO2 RAB09 P0000=
201203300109 SPECI KCLM 300109Z AUTO 31009KT 10SM -RA BKN004 BKN009 OVC034 07/06 A2941 RMK AO2 RAB09 CIG 003V007 P0000=
201203300109 SPECI KCLM 300109Z AUTO 31009KT 10SM -RA BKN004 BKN009 OVC034 07/06 A2941 RMK AO2 RAB09 CIG 003V007 P0000=
201203300053 METAR KCLM 300053Z AUTO 32006KT 10SM SCT006 BKN009 OVC034 07/06 A2941 RMK AO2 RAE42 CIG 008V012 SLP961 P0000 T00720056=
201203300032 SPECI KCLM 300032Z AUTO 30005KT 10SM -RA BKN008 BKN041 OVC050 08/06 A2941 RMK AO2 P0000=
201203300032 SPECI KCLM 300032Z AUTO 30005KT 10SM -RA BKN008 BKN041 OVC050 08/06 A2941 RMK AO2 P0000=
201203300005 SPECI KCLM 300005Z AUTO 00000KT 10SM -RA SCT008 BKN043 OVC050 08/06 A2941 RMK AO2 P0000=
201203300005 SPECI KCLM 300005Z AUTO 00000KT 10SM -RA SCT008 BKN043 OVC050 08/06 A2941 RMK AO2 P0000=
201203292353 METAR KCLM 292353Z AUTO 34003KT 10SM -RA SCT006 BKN010 OVC041 08/06 A2942 RMK AO2 SLP964 P0001 6//// T00780061 10089 20072 56031=
201203292306 SPECI KCLM 292306Z AUTO 00000KT 10SM -RA BKN006 BKN022 OVC038 08/06 A2944 RMK AO2 P0000=
201203292306 SPECI KCLM 292306Z AUTO 00000KT 10SM -RA BKN006 BKN022 OVC038 08/06 A2944 RMK AO2 P0000=
201203292253 METAR KCLM 292253Z AUTO 34004KT 10SM -RA SCT006 BKN024 OVC047 08/06 A2944 RMK AO2 RAB2156 SLP971 P0000 T00780056=
201203292153 METAR KCLM 292153Z AUTO VRB03KT 10SM SCT006 BKN020 OVC029 08/06 A2948 RMK AO2 RAE18 SLP984 P0000 T00830061=
201203292124 SPECI KCLM 292124Z AUTO 07003KT 10SM FEW006 BKN016 OVC048 08/06 A2949 RMK AO2 RAE18 P0000 TSNO=
201203292124 SPECI KCLM 292124Z AUTO 07003KT 10SM FEW006 BKN016 OVC048 08/06 A2949 RMK AO2 RAE18 P0000 TSNO=
201203292103 SPECI KCLM 292103Z AUTO 00000KT 10SM -RA FEW006 BKN035 OVC043 08/06 A2951 RMK AO2 P0000=
201203292103 SPECI KCLM 292103Z AUTO 00000KT 10SM -RA FEW006 BKN035 OVC043 08/06 A2951 RMK AO2 P0000=
201203292053 METAR KCLM 292053Z AUTO 00000KT 10SM -RA FEW006 BKN029 OVC040 08/06 A2951 RMK AO2 UPB14E24RAB41 SLP995 6//// T00780056=
201203292048 SPECI KCLM 292048Z AUTO 31003KT 10SM -RA FEW006 BKN029 OVC038 08/06 A2952 RMK AO2 UPB14E24RAB41=
201203292048 SPECI KCLM 292048Z AUTO 31003KT 10SM -RA FEW006 BKN029 OVC038 08/06 A2952 RMK AO2 UPB14E24RAB41=
201203292000 METAR KCLM NIL=
201203291853 METAR KCLM 291853Z AUTO 00000KT 10SM SCT020 OVC070 08/05 A2956 RMK AO2 SLP011 T00830050=
201203291753 METAR KCLM 291753Z AUTO 12005KT 10SM BKN016 OVC075 08/06 A2956 RMK AO2 SLP011 60008 T00830061 10083 20067 50000=
201203291745 SPECI KCLM 291745Z AUTO 11006KT 10SM FEW009 BKN016 OVC075 08/06 A2956 RMK AO2=
201203291745 SPECI KCLM 291745Z AUTO 11006KT 10SM FEW009 BKN016 OVC075 08/06 A2956 RMK AO2=
201203291653 METAR KCLM 291653Z AUTO 08005KT 10SM FEW007 SCT011 BKN075 08/07 A2956 RMK AO2 RAE11 SLP013 P0000 T00830067=
201203291639 SPECI KCLM 291639Z AUTO 12005KT 10SM OVC011 08/06 A2957 RMK AO2 RAE11 P0000=
201203291639 SPECI KCLM 291639Z AUTO 12005KT 10SM OVC011 08/06 A2957 RMK AO2 RAE11 P0000=
201203291624 SPECI KCLM 291624Z AUTO 11006KT 10SM BKN009 BKN033 OVC044 08/06 A2956 RMK AO2 RAE11 P0000=
201203291624 SPECI KCLM 291624Z AUTO 11006KT 10SM BKN009 BKN033 OVC044 08/06 A2956 RMK AO2 RAE11 P0000=
201203291605 SPECI KCLM 291605Z AUTO 13005KT 10SM -RA SCT007 BKN044 OVC060 08/06 A2957 RMK AO2 P0000=
201203291605 SPECI KCLM 291605Z AUTO 13005KT 10SM -RA SCT007 BKN044 OVC060 08/06 A2957 RMK AO2 P0000=
201203291553 METAR KCLM 291553Z AUTO 14003KT 10SM -RA BKN007 BKN045 OVC055 07/06 A2957 RMK AO2 SLP014 P0001 T00720061=
201203291546 SPECI KCLM 291546Z AUTO 15003KT 10SM -RA SCT009 BKN034 OVC050 07/06 A2957 RMK AO2 P0001=
201203291546 SPECI KCLM 291546Z AUTO 15003KT 10SM -RA SCT009 BKN034 OVC050 07/06 A2957 RMK AO2 P0001=
201203291501 SPECI KCLM 291501Z AUTO 00000KT 4SM -RA BR SCT013 OVC034 07/06 A2956 RMK AO2 P0001=
201203291501 SPECI KCLM 291501Z AUTO 00000KT 4SM -RA BR SCT013 OVC034 07/06 A2956 RMK AO2 P0001=
201203291453 METAR KCLM 291453Z AUTO 00000KT 2 1/2SM -RA BR BKN013 OVC032 07/06 A2956 RMK AO2 SLP011 P0007 60007 T00670056 51026=
201203291423 SPECI KCLM 291423Z AUTO 00000KT 6SM -RA BR BKN013 OVC039 07/06 A2955 RMK AO2 P0002=
201203291423 SPECI KCLM 291423Z AUTO 00000KT 6SM -RA BR BKN013 OVC039 07/06 A2955 RMK AO2 P0002=
201203291353 METAR KCLM 291353Z AUTO 00000KT 10SM -RA FEW011 OVC047 07/06 A2953 RMK AO2 SLP002 P0000 T00670056=
201203291253 METAR KCLM 291253Z AUTO 00000KT 10SM -RA FEW034 OVC045 07/05 A2952 RMK AO2 SLP998 P0000 T00720050 TSNO=
201203291153 METAR KCLM 291153Z AUTO 24007KT 10SM -RA BKN049 OVC065 08/04 A2948 RMK AO2 SLP984 P0001 60001 70004 T00780044 10078 20056 55002=
201203291053 METAR KCLM 291053Z AUTO 00000KT 10SM -RA SCT042 OVC050 07/04 A2945 RMK AO2 SLP974 P0000 T00720044=
201203290953 METAR KCLM 290953Z AUTO 02005KT 10SM -RA OVC042 07/04 A2943 RMK AO2 SLP969 P0000 T00720044=
201203290853 METAR KCLM 290853Z AUTO 22004KT 10SM -RA OVC040 07/04 A2949 RMK AO2 RAB23 SLP985 P0000 60000 T00670044 56030=
201203290753 METAR KCLM 290753Z AUTO 00000KT 10SM OVC055 06/04 A2949 RMK AO2 RAE17 SLP988 P0000 T00610044 401000056=
201203290653 METAR KCLM 290653Z AUTO 00000KT 10SM -RA OVC046 06/04 A2953 RMK AO2 RAB46 SLP001 P0000 T00610044=
201203290553 METAR KCLM 290553Z AUTO 26004KT 10SM FEW044 OVC055 06/04 A2958 RMK AO2 RAE11 PRESFR SLP016 P0000 60000 T00610044 10094 20061 58039=
201203290453 METAR KCLM 290453Z AUTO 12006KT 10SM -RA OVC044 07/05 A2964 RMK AO2 RAB23 SLP037 P0000 T00720050=
201203290353 METAR KCLM 290353Z AUTO 17005KT 10SM SCT049 BKN060 OVC075 07/05 A2966 RMK AO2 SLP045 T00720050=
201203290253 METAR KCLM 290253Z AUTO 25005KT 10SM FEW047 OVC055 07/05 A2969 RMK AO2 RAB25E52 SLP055 P0000 60000 T00720050 51004=
201203290153 METAR KCLM 290153Z AUTO 28004KT 10SM SCT049 BKN065 OVC080 08/05 A2968 RMK AO2 RAB0058E12 SLP052 P0000 T00780050=
201203290053 METAR KCLM 290053Z AUTO 29003KT 10SM FEW018 BKN055 OVC070 09/05 A2969 RMK AO2 SLP055 T00890050=
201203282353 METAR KCLM 282353Z AUTO 00000KT 10SM FEW038 SCT050 09/06 A2968 RMK AO2 RAE43 SLP050 P0000 60003 T00940056 10100 20078 50011=
201203282253 METAR KCLM 282253Z AUTO 27004KT 8SM -RA FEW029 BKN036 OVC047 08/05 A2969 RMK AO2 RAE16B37 SLP055 P0000 T00830050=
201203282153 METAR KCLM 282153Z AUTO 25005KT 10SM -RA BKN039 BKN055 BKN070 08/04 A2967 RMK AO2 RAB08E18B48 SLP048 P0000 T00830044=
201203282053 METAR KCLM 282053Z AUTO 19004KT 10SM BKN046 OVC060 09/05 A2965 RMK AO2 RAE41 SLP040 P0003 60003 T00940050 51017=
201203281953 METAR KCLM 281953Z AUTO 25013KT 10SM -RA BKN042 OVC055 08/04 A2964 RMK AO2 RAB01E12B51 PRESRR SLP039 P0000 T00830039=
201203281853 METAR KCLM 281853Z AUTO 02003KT 10SM BKN047 OVC055 09/04 A2961 RMK AO2 SLP027 T00890039=
201203281800 SPECI KCLM 281800Z AUTO 00000KT 10SM SCT016 OVC055 08/04 A2960 RMK AO2=
201203281800 SPECI KCLM 281800Z AUTO 00000KT 10SM SCT016 OVC055 08/04 A2960 RMK AO2=
201203281753 METAR KCLM 281753Z AUTO 04005KT 10SM BKN016 BKN055 OVC070 09/04 A2960 RMK AO2 SLP023 60000 T00890044 10089 20056 53004=
201203281724 SPECI KCLM 281724Z AUTO 13004KT 10SM BKN014 OVC055 08/05 A2960 RMK AO2=
201203281724 SPECI KCLM 281724Z AUTO 13004KT 10SM BKN014 OVC055 08/05 A2960 RMK AO2=
201203281653 METAR KCLM 281653Z AUTO 12005KT 10SM SCT014 BKN055 OVC070 08/05 A2958 RMK AO2 SLP019 T00830050=
201203281553 METAR KCLM 281553Z AUTO 00000KT 10SM FEW032 BKN049 OVC065 08/04 A2957 RMK AO2 RAB12E31 SLP016 P0000 T00780039=
201203281506 SPECI KCLM 281506Z AUTO 27006KT 10SM SCT018 OVC050 08/03 A2959 RMK AO2=
201203281506 SPECI KCLM 281506Z AUTO 27006KT 10SM SCT018 OVC050 08/03 A2959 RMK AO2=
201203281453 METAR KCLM 281453Z AUTO 24004KT 10SM BKN018 OVC055 07/04 A2958 RMK AO2 SLP020 60000 T00720039 53013=
201203281353 METAR KCLM 281353Z AUTO 22003KT 10SM SCT048 SCT065 06/04 A2956 RMK AO2 RAB07E14 SLP012 P0000 T00610044=
201203281253 METAR KCLM 281253Z AUTO 13004KT 10SM FEW018 BKN065 BKN075 07/05 A2956 RMK AO2 SLP009 T00720050=
201203281220 SPECI KCLM 281220Z AUTO 19005KT 10SM SCT014 BKN048 OVC060 08/06 A2955 RMK AO2=
201203281220 SPECI KCLM 281220Z AUTO 19005KT 10SM SCT014 BKN048 OVC060 08/06 A2955 RMK AO2=
201203281211 SPECI KCLM 281211Z AUTO 00000KT 10SM BKN014 OVC046 08/06 A2955 RMK AO2=
201203281211 SPECI KCLM 281211Z AUTO 00000KT 10SM BKN014 OVC046 08/06 A2955 RMK AO2=
201203281153 METAR KCLM 281153Z AUTO 31003KT 10SM SCT014 BKN050 BKN060 07/05 A2955 RMK AO2 SLP006 60001 70001 T00720050 10089 20056 51023=
201203281053 METAR KCLM 281053Z AUTO 16005KT 10SM CLR 06/04 A2953 RMK AO2 SLP000 T00610039=
201203280953 METAR KCLM 280953Z AUTO 27009KT 10SM OVC060 08/04 A2951 RMK AO2 SLP992 T00830044=
201203280853 METAR KCLM 280853Z AUTO 22003G14KT 10SM OVC060 08/06 A2948 RMK AO2 SLP983 60001 T00780056 50008=
201203280753 METAR KCLM 280753Z AUTO 25006KT 10SM BKN060 BKN080 08/07 A2949 RMK AO2 RAE37 SLP985 P0001 T00830067 401330044=
201203280653 METAR KCLM 280653Z AUTO 30005KT 8SM -RA OVC050 08/07 A2948 RMK AO2 RAB28 SLP983 P0000 T00830067=
201203280553 METAR KCLM 280553Z AUTO 22003KT 10SM OVC065 08/06 A2946 RMK AO2 SLP975 60000 T00780056 10106 20067 55006=
201203280453 METAR KCLM 280453Z AUTO 00000KT 10SM BKN065 07/06 A2945 RMK AO2 SLP974 T00720056=
201203280353 METAR KCLM 280353Z AUTO 00000KT 10SM SCT070 08/06 A2946 RMK AO2 SLP976 T00780056=
201203280253 METAR KCLM 280253Z AUTO 19003KT 10SM FEW065 08/06 A2947 RMK AO2 SLP982 60000 T00780056 56015=
201203280153 METAR KCLM 280153Z AUTO 00000KT 10SM BKN070 09/06 A2949 RMK AO2 SLP986 T00940061=
201203280053 METAR KCLM 280053Z AUTO 30003KT 10SM FEW048 OVC065 11/06 A2950 RMK AO2 RAE04 SLP991 P0000 T01060061=
201203272353 METAR KCLM 272353Z AUTO 33004KT 10SM -RA OVC055 10/06 A2952 RMK AO2 RAB34 SLP997 P0000 60000 T01000056 10133 20094 56017=
201203272253 METAR KCLM 272253Z AUTO 00000KT 10SM OVC075 13/05 A2952 RMK AO2 SLP996 T01280050=
201203272153 METAR KCLM 272153Z AUTO VRB03KT 10SM SCT070 13/06 A2954 RMK AO2 SLP004 T01280056=
201203272053 METAR KCLM 272053Z AUTO 36005KT 10SM BKN065 12/06 A2957 RMK AO2 RAB19E29 SLP014 P0000 60000 T01170056 58014=
201203271953 METAR KCLM 271953Z AUTO 33003KT 10SM OVC060 11/05 A2959 RMK AO2 SLP021 T01060050=
201203271853 METAR KCLM 271853Z AUTO 02003KT 10SM SCT060 BKN080 11/04 A2960 RMK AO2 RAE03 SLP026 P0000 T01060039=
201203271753 METAR KCLM 271753Z AUTO 00000KT 10SM -RA SCT041 BKN055 OVC070 09/06 A2961 RMK AO2 RAB52 SLP028 P0000 60000 T00940061 10106 20056 56002=
201203271653 METAR KCLM 271653Z AUTO 16004KT 10SM OVC060 09/05 A2961 RMK AO2 RAB35E44 SLP030 P0000 T00890050=
201203271553 METAR KCLM 271553Z AUTO 00000KT 10SM FEW040 SCT065 BKN080 07/06 A2961 RMK AO2 RAE27 SLP028 P0000 T00720056=
201203271453 METAR KCLM 271453Z AUTO 26005KT 10SM -RA BKN055 OVC070 07/04 A2962 RMK AO2 RAB42 SLP030 P0000 60000 T00670039 55000=
201203271353 METAR KCLM 271353Z AUTO 00000KT 10SM FEW060 BKN080 06/03 A2960 RMK AO2 SLP026 T00560033=
201203271253 METAR KCLM 271253Z AUTO 00000KT 10SM OVC075 06/04 A2961 RMK AO2 SLP027 T00610039=
201203271153 METAR KCLM 271153Z AUTO 00000KT 10SM SCT070 OVC080 06/04 A2962 RMK AO2 SLP030 70001 T00560039 10067 20044 56012=
201203271053 METAR KCLM 271053Z AUTO 00000KT 10SM OVC065 07/04 A2962 RMK AO2 SLP031 T00670044=
201203270953 METAR KCLM 270953Z AUTO 18003KT 10SM BKN060 OVC080 06/04 A2964 RMK AO2 SLP039 T00610044=
201203270853 METAR KCLM 270853Z AUTO 11003KT 10SM BKN055 OVC080 05/04 A2965 RMK AO2 SLP042 T00500039 56020=
201203270753 METAR KCLM 270753Z AUTO 22004KT 10SM BKN080 BKN095 05/03 A2967 RMK AO2 SLP049 T00500033 401000044=
201203270720 SPECI KCLM 270720Z AUTO 00000KT 10SM FEW009 SCT100 06/03 A2968 RMK AO2=
201203270720 SPECI KCLM 270720Z AUTO 00000KT 10SM FEW009 SCT100 06/03 A2968 RMK AO2=
201203270653 METAR KCLM 270653Z AUTO 00000KT 10SM CLR 05/03 A2969 RMK AO2 SLP054 T00500033=
201203270553 METAR KCLM 270553Z AUTO 08003KT 10SM SCT070 06/04 A2971 RMK AO2 SLP062 T00560039 10100 20044 58018=
201203270453 METAR KCLM 270453Z AUTO 11003KT 10SM SCT080 06/03 A2973 RMK AO2 SLP068 T00560033=
201203270353 METAR KCLM 270353Z AUTO 17003KT 10SM FEW080 06/04 A2975 RMK AO2 SLP075 T00610039=
201203270253 METAR KCLM 270253Z AUTO 10004KT 10SM FEW075 07/03 A2976 RMK AO2 SLP080 T00720033 58012=
201203270153 METAR KCLM 270153Z AUTO 11007KT 10SM CLR 09/04 A2977 RMK AO2 SLP084 T00890039=
201203270053 METAR KCLM 270053Z AUTO 08004KT 10SM BKN033 10/04 A2979 RMK AO2 SLP089 T01000044=
201203270001 SPECI KCLM 270001Z AUTO 00000KT 10SM FEW026 BKN035 OVC048 09/05 A2980 RMK AO2=
201203270001 SPECI KCLM 270001Z AUTO 00000KT 10SM FEW026 BKN035 OVC048 09/05 A2980 RMK AO2=
201203262353 METAR KCLM 262353Z AUTO 00000KT 10SM FEW020 BKN026 OVC033 09/05 A2980 RMK AO2 RAB25E52 SLP091 P0000 60000 T00890050 10100 20078 53002=
201203262253 METAR KCLM 262253Z AUTO 03003KT 10SM BKN020 OVC026 10/04 A2980 RMK AO2 SLP090 T01000039=
201203262153 METAR KCLM 262153Z AUTO 28003KT 10SM OVC024 09/04 A2979 RMK AO2 SLP089 T00890039=
201203262053 METAR KCLM 262053Z AUTO 31006KT 10SM OVC022 08/04 A2979 RMK AO2 SLP089 T00830044 51005=
201203261953 METAR KCLM 261953Z AUTO 32005KT 10SM OVC018 09/05 A2979 RMK AO2 SLP088 T00890050=
201203261853 METAR KCLM 261853Z AUTO 35005KT 10SM OVC018 09/05 A2979 RMK AO2 SLP088 T00940050=
201203261810 SPECI KCLM 261810Z AUTO 32005KT 10SM OVC016 09/06 A2978 RMK AO2=
201203261810 SPECI KCLM 261810Z AUTO 32005KT 10SM OVC016 09/06 A2978 RMK AO2=
201203261753 METAR KCLM 261753Z AUTO 34005KT 10SM OVC014 09/06 A2978 RMK AO2 SLP084 60001 T00890056 10089 20067 53007=
201203261736 SPECI KCLM 261736Z AUTO 32005KT 10SM BKN012 OVC065 09/06 A2978 RMK AO2=
201203261736 SPECI KCLM 261736Z AUTO 32005KT 10SM BKN012 OVC065 09/06 A2978 RMK AO2=
201203261653 METAR KCLM 261653Z AUTO 00000KT 10SM OVC025 08/06 A2977 RMK AO2 SLP081 T00830061=
201203261553 METAR KCLM 261553Z AUTO 27003KT 10SM OVC021 08/06 A2977 RMK AO2 SLP080 T00780056=
201203261453 METAR KCLM 261453Z AUTO 23003KT 10SM OVC015 07/06 A2976 RMK AO2 RAE22 SLP077 P0000 60001 T00720061 53006=
201203261353 METAR KCLM 261353Z AUTO 00000KT 10SM -RA BKN011 OVC070 07/06 A2975 RMK AO2 RAE31B49 SLP074 P0000 T00670056=
201203261349 SPECI KCLM 261349Z AUTO 00000KT 10SM -RA BKN009 OVC070 07/06 A2975 RMK AO2 RAE31B49 CIG 006V012 P0000=
201203261349 SPECI KCLM 261349Z AUTO 00000KT 10SM -RA BKN009 OVC070 07/06 A2975 RMK AO2 RAE31B49 CIG 006V012 P0000=
201203261340 SPECI KCLM 261340Z AUTO 00000KT 10SM SCT007 OVC065 07/06 A2975 RMK AO2 RAE31 P0000=
201203261340 SPECI KCLM 261340Z AUTO 00000KT 10SM SCT007 OVC065 07/06 A2975 RMK AO2 RAE31 P0000=
201203261253 METAR KCLM 261253Z AUTO 24003KT 10SM -RA OVC047 07/06 A2974 RMK AO2 SLP071 P0001 T00670056=
201203261153 METAR KCLM 261153Z AUTO 00000KT 9SM -RA FEW033 OVC043 07/05 A2974 RMK AO2 SLP072 P0000 60000 T00720050 10089 20072 53005=
201203261053 METAR KCLM 261053Z AUTO 26006KT 10SM -RA BKN048 OVC060 07/05 A2973 RMK AO2 SLP068 P0000 T00720050=
201203260953 METAR KCLM 260953Z AUTO 00000KT 10SM -RA OVC060 08/05 A2974 RMK AO2 RAB46 SLP071 P0000 T00830050=
201203260853 METAR KCLM 260853Z AUTO 27006KT 10SM BKN070 OVC090 08/04 A2973 RMK AO2 SLP067 T00830044 50001=
201203260753 METAR KCLM 260753Z AUTO 30006KT 10SM OVC100 08/04 A2973 RMK AO2 SLP067 T00830044 401330006=
201203260653 METAR KCLM 260653Z AUTO 30005KT 10SM BKN085 OVC110 08/03 A2973 RMK AO2 SLP067 T00780033=
201203260553 METAR KCLM 260553Z AUTO 31004KT 10SM OVC095 08/04 A2972 RMK AO2 SLP065 T00830039 10122 20083 53008=
201203260453 METAR KCLM 260453Z AUTO 00000KT 10SM OVC100 09/04 A2972 RMK AO2 SLP063 T00890044=
201203260353 METAR KCLM 260353Z AUTO 22003KT 10SM BKN100 09/04 A2970 RMK AO2 SLP059 T00940039=
201203260253 METAR KCLM 260253Z AUTO 17003KT 10SM OVC100 11/01 A2970 RMK AO2 SLP059 T01110011 56004=
201203260153 METAR KCLM 260153Z AUTO 13005KT 10SM OVC100 12/01 A2970 RMK AO2 SLP059 T01170006=
201203260053 METAR KCLM 260053Z AUTO 09004KT 10SM BKN110 12/00 A2970 RMK AO2 SLP059 T01220000=
201203252353 METAR KCLM 252353Z AUTO 00000KT 10SM BKN110 12/M01 A2971 RMK AO2 SLP063 T01221006 10133 20100 56019=
201203252253 METAR KCLM 252253Z AUTO 09006KT 10SM BKN110 13/M01 A2973 RMK AO2 SLP067 T01281006=
201203252153 METAR KCLM 252153Z AUTO 08006KT 10SM CLR 13/M01 A2974 RMK AO2 SLP073 T01331011=
201203252053 METAR KCLM 252053Z AUTO 11007KT 10SM CLR 12/01 A2977 RMK AO2 SLP081 T01170006 56013=
201203251953 METAR KCLM 251953Z AUTO 08006KT 10SM CLR 11/02 A2978 RMK AO2 SLP086 T01110017=
201203251853 METAR KCLM 251853Z AUTO 07005KT 10SM CLR 11/01 A2979 RMK AO2 SLP091 T01060011=
201203251753 METAR KCLM 251753Z AUTO 12007KT 10SM CLR 10/01 A2981 RMK AO2 SLP095 T01000011 10100 20006 58016=
201203251653 METAR KCLM 251653Z AUTO 09006KT 10SM CLR 09/01 A2983 RMK AO2 SLP102 T00940006=
201203251553 METAR KCLM 251553Z AUTO 00000KT 10SM CLR 07/02 A2984 RMK AO2 SLP106 T00720017=
201203251453 METAR KCLM 251453Z AUTO 00000KT 10SM CLR 02/M01 A2986 RMK AO2 SLP112 T00171006 56008=
201203251353 METAR KCLM 251353Z AUTO 23004KT 10SM CLR 03/M01 A2986 RMK AO2 SLP113 T00281006=
201203251253 METAR KCLM 251253Z AUTO 20003KT 10SM FEW100 02/M01 A2988 RMK AO2 SLP118 T00221006=
201203251153 METAR KCLM 251153Z AUTO 24005KT 10SM BKN100 OVC110 03/00 A2988 RMK AO2 SLP120 T00330000 10056 20022 58007=
201203251053 METAR KCLM 251053Z AUTO 22004KT 10SM CLR 04/00 A2989 RMK AO2 SLP123 T00390000=
201203250953 METAR KCLM 250953Z AUTO 23005KT 10SM CLR 03/00 A2989 RMK AO2 SLP124 T00280000=
201203250853 METAR KCLM 250853Z AUTO 23005KT 10SM CLR 04/02 A2990 RMK AO2 SLP127 T00440017 56011=
201203250753 METAR KCLM 250753Z AUTO 00000KT 10SM OVC110 03/01 A2991 RMK AO2 SLP130 T00280011 401001011=
201203250653 METAR KCLM 250653Z AUTO 23007KT 10SM CLR 05/02 A2992 RMK AO2 SLP133 T00500017=
201203250553 METAR KCLM 250553Z AUTO 23006KT 10SM CLR 03/01 A2993 RMK AO2 SLP138 T00280011 10094 20022 58005=
201203250453 METAR KCLM 250453Z AUTO 22003KT 10SM CLR 04/01 A2994 RMK AO2 SLP142 T00390011=
201203250353 METAR KCLM 250353Z AUTO 22004KT 10SM CLR 04/02 A2995 RMK AO2 SLP143 T00440017=
201203250253 METAR KCLM 250253Z AUTO 20003KT 10SM CLR 06/01 A2995 RMK AO2 SLP143 T00610011 55001=
201203250153 METAR KCLM 250153Z AUTO 14003KT 10SM CLR 09/00 A2994 RMK AO2 SLP140 T00890000=
201203250053 METAR KCLM 250053Z AUTO 11003KT 10SM BKN100 09/00 A2995 RMK AO2 SLP142 T00940000=
201203242353 METAR KCLM 242353Z AUTO 12005KT 10SM BKN090 09/01 A2995 RMK AO2 SLP144 T00890011 10100 20072 56008=
201203242253 METAR KCLM 242253Z AUTO 08006KT 10SM OVC100 09/01 A2995 RMK AO2 SLP144 T00940011=
201203242153 METAR KCLM 242153Z AUTO 07006KT 10SM CLR 09/02 A2995 RMK AO2 SLP145 T00940017=
201203242053 METAR KCLM 242053Z AUTO VRB06KT 10SM CLR 10/02 A2998 RMK AO2 SLP152 T01000017 56010=
201203241953 METAR KCLM 241953Z AUTO 09008KT 10SM FEW019 09/02 A2999 RMK AO2 SLP157 T00890022=
201203241948 SPECI KCLM 241948Z AUTO 08008KT 030V110 10SM SCT019 09/02 A2999 RMK AO2=
201203241948 SPECI KCLM 241948Z AUTO 08008KT 030V110 10SM SCT019 09/02 A2999 RMK AO2=
201203241930 SPECI KCLM 241930Z AUTO 10008G14KT 10SM BKN019 09/02 A3000 RMK AO2=
201203241930 SPECI KCLM 241930Z AUTO 10008G14KT 10SM BKN019 09/02 A3000 RMK AO2=
201203241853 METAR KCLM 241853Z AUTO 09006KT 10SM SCT019 08/02 A3001 RMK AO2 SLP163 T00780017=
201203241753 METAR KCLM 241753Z AUTO 09006KT 10SM BKN019 07/02 A3002 RMK AO2 SLP167 T00720022 10072 21011 58004=
201203241737 SPECI KCLM 241737Z AUTO 08008KT 10SM BKN016 OVC023 07/02 A3002 RMK AO2=
201203241737 SPECI KCLM 241737Z AUTO 08008KT 10SM BKN016 OVC023 07/02 A3002 RMK AO2=
201203241653 METAR KCLM 241653Z AUTO 11008KT 10SM BKN014 OVC020 07/03 A3002 RMK AO2 SLP168 T00670028=
201203241629 SPECI KCLM 241629Z AUTO 09007KT 10SM OVC014 06/02 A3003 RMK AO2=
201203241629 SPECI KCLM 241629Z AUTO 09007KT 10SM OVC014 06/02 A3003 RMK AO2=
201203241608 SPECI KCLM 241608Z AUTO 12006KT 10SM OVC016 06/02 A3003 RMK AO2=
201203241608 SPECI KCLM 241608Z AUTO 12006KT 10SM OVC016 06/02 A3003 RMK AO2=
201203241553 METAR KCLM 241553Z AUTO 11005KT 10SM OVC014 06/02 A3003 RMK AO2 SLP172 T00560022=
201203241542 SPECI KCLM 241542Z AUTO 12004KT 10SM BKN014 OVC020 06/02 A3003 RMK AO2=
201203241542 SPECI KCLM 241542Z AUTO 12004KT 10SM BKN014 OVC020 06/02 A3003 RMK AO2=
201203241453 METAR KCLM 241453Z AUTO 14003KT 10SM BKN016 OVC021 05/02 A3003 RMK AO2 SLP172 T00500022 56006=
201203241409 SPECI KCLM 241409Z AUTO VRB04KT 10SM OVC014 06/02 A3004 RMK AO2=
201203241409 SPECI KCLM 241409Z AUTO VRB04KT 10SM OVC014 06/02 A3004 RMK AO2=
201203241353 METAR KCLM 241353Z AUTO 10006KT 10SM OVC016 06/02 A3004 RMK AO2 SLP173 T00560022=
201203241253 METAR KCLM 241253Z AUTO 13003KT 10SM OVC020 02/01 A3004 RMK AO2 SLP174 T00220006=
201203241200 SPECI KCLM 241200Z AUTO 00000KT 10SM BKN020 M01/M02 A3005 RMK AO2=
201203241200 SPECI KCLM 241200Z AUTO 00000KT 10SM BKN020 M01/M02 A3005 RMK AO2=
201203241153 METAR KCLM 241153Z AUTO 00000KT 10SM SCT020 M01/M02 A3005 RMK AO2 SLP177 T10061022 10033 21011 58012=
201203241053 METAR KCLM 241053Z AUTO 00000KT 10SM CLR M01/M02 A3006 RMK AO2 SLP180 T10061022=
201203240953 METAR KCLM 240953Z AUTO 16003KT 10SM CLR 02/M01 A3008 RMK AO2 SLP186 T00171006=
201203240853 METAR KCLM 240853Z AUTO 14007KT 10SM CLR 02/M01 A3008 RMK AO2 SLP189 T00221006 58006=
201203240753 METAR KCLM 240753Z AUTO 15005KT 10SM CLR 02/M01 A3009 RMK AO2 SLP191 T00171006 400941006=
201203240653 METAR KCLM 240653Z AUTO 15004KT 10SM CLR 01/M02 A3010 RMK AO2 SLP196 T00061017=
201203240553 METAR KCLM 240553Z AUTO 00000KT 10SM CLR 01/M01 A3010 RMK AO2 SLP195 T00111011 10094 20011 51006=
201203240453 METAR KCLM 240453Z AUTO 22003KT 10SM CLR 03/00 A3010 RMK AO2 SLP195 T00330000=
201203240353 METAR KCLM 240353Z AUTO 15004KT 10SM CLR 04/M01 A3009 RMK AO2 SLP193 T00391006=
201203240253 METAR KCLM 240253Z AUTO 16003KT 10SM CLR 06/M01 A3008 RMK AO2 SLP188 T00611006 53004=
201203240153 METAR KCLM 240153Z AUTO 11004KT 10SM CLR 08/M01 A3007 RMK AO2 SLP185 T00781006=
201203240053 METAR KCLM 240053Z AUTO 11005KT 10SM OVC075 09/M01 A3007 RMK AO2 SLP183 T00941006=
201203232353 METAR KCLM 232353Z AUTO 00000KT 10SM SCT065 OVC080 09/01 A3007 RMK AO2 SLP184 T00890006 10094 20061 53005=
201203232253 METAR KCLM 232253Z AUTO VRB03KT 10SM BKN075 OVC090 09/02 A3006 RMK AO2 SLP180 T00890017=
201203232153 METAR KCLM 232153Z AUTO VRB03KT 10SM SCT020 OVC080 08/02 A3005 RMK AO2 SLP178 T00780017=
201203232144 SPECI KCLM 232144Z AUTO 04004KT 10SM SCT020 OVC080 07/02 A3005 RMK AO2=
201203232144 SPECI KCLM 232144Z AUTO 04004KT 10SM SCT020 OVC080 07/02 A3005 RMK AO2=
201203232135 SPECI KCLM 232135Z AUTO 02004KT 10SM BKN020 OVC085 08/02 A3005 RMK AO2=
201203232135 SPECI KCLM 232135Z AUTO 02004KT 10SM BKN020 OVC085 08/02 A3005 RMK AO2=
201203232053 METAR KCLM 232053Z AUTO 10004KT 10SM CLR 08/02 A3005 RMK AO2 SLP179 T00780022 51007=
201203232032 SPECI KCLM 232032Z AUTO 07005KT 10SM SCT021 07/02 A3005 RMK AO2=
201203232032 SPECI KCLM 232032Z AUTO 07005KT 10SM SCT021 07/02 A3005 RMK AO2=
201203231953 METAR KCLM 231953Z AUTO VRB06KT 10SM OVC023 07/01 A3004 RMK AO2 SLP176 T00670011=
201203231853 METAR KCLM 231853Z AUTO VRB05KT 10SM BKN023 07/01 A3004 RMK AO2 SLP175 T00670006=
201203231753 METAR KCLM 231753Z AUTO 10SM BKN021 06/01 A3003 RMK AO2 SLP171 T00610006 10067 20006 51010 $=
201203231703 SPECI KCLM 231703Z AUTO 10SM BKN021 06/M01 A3002 RMK AO2 $=
201203231703 SPECI KCLM 231703Z AUTO 10SM BKN021 06/M01 A3002 RMK AO2 $=
201203231653 METAR KCLM 231653Z AUTO 10SM SCT021 06/00 A3002 RMK AO2 SLP169 T00610000 $=
201203231553 METAR KCLM 231553Z AUTO 10SM CLR 04/M02 A3001 RMK AO2 SLP165 T00391017 $=
201203231453 METAR KCLM 231453Z AUTO 10SM CLR 01/M02 A3000 RMK AO2 SLP162 T00111022 51009 $=
201203231353 METAR KCLM 231353Z AUTO 10SM CLR 01/M03 A3000 RMK AO2 SLP159 T00111028 $=
201203231253 METAR KCLM 231253Z AUTO 24008KT 10SM CLR 02/M02 A2999 RMK AO2 PK WND 24060/1244 SLP157 T00171022 $=
201203231153 METAR KCLM 231153Z AUTO 22004KT 10SM CLR 02/M02 A2997 RMK AO2 SLP152 T00171017 10033 20011 51006=
201203231053 METAR KCLM 231053Z AUTO 23005KT 10SM CLR 02/M02 A2997 RMK AO2 SLP151 T00171017=
201203230953 METAR KCLM 230953Z AUTO 25005KT 10SM CLR 03/M01 A2996 RMK AO2 SLP147 T00281006=
201203230853 METAR KCLM 230853Z AUTO 23005KT 10SM CLR 02/00 A2995 RMK AO2 SLP145 T00220000 57003=
201203230753 METAR KCLM 230753Z AUTO 27004KT 10SM FEW029 02/00 A2996 RMK AO2 SLP147 T00220000 400891006=
201203230653 METAR KCLM 230653Z AUTO 00000KT 10SM SCT027 02/01 A2996 RMK AO2 SLP147 T00220006=
201203230553 METAR KCLM 230553Z AUTO 20003KT 10SM CLR 03/01 A2996 RMK AO2 SLP148 T00280006 10078 20028 51004=
201203230453 METAR KCLM 230453Z AUTO 26004KT 10SM FEW039 04/01 A2996 RMK AO2 SLP148 T00440011=
201203230353 METAR KCLM 230353Z AUTO 28007KT 10SM FEW070 05/01 A2996 RMK AO2 SLP146 T00500011=
201203230253 METAR KCLM 230253Z AUTO 28007KT 10SM FEW110 06/01 A2995 RMK AO2 SLP145 T00560011 53000=
201203230153 METAR KCLM 230153Z AUTO 31005KT 10SM CLR 06/02 A2995 RMK AO2 SLP144 T00610017=
201203230053 METAR KCLM 230053Z AUTO 30005KT 10SM BKN110 08/02 A2995 RMK AO2 SLP143 T00780017=
201203222353 METAR KCLM 222353Z AUTO 30007KT 10SM SCT070 OVC080 08/01 A2995 RMK AO2 SLP144 T00780011 10089 20067 55012=
201203222253 METAR KCLM 222253Z AUTO 31006KT 10SM BKN075 BKN100 08/00 A2995 RMK AO2 SLP143 T00830000=
201203222153 METAR KCLM 222153Z AUTO 31007KT 10SM FEW070 SCT120 08/M01 A2997 RMK AO2 SLP149 T00781011=
201203222053 METAR KCLM 222053Z AUTO 32005KT 10SM SCT100 08/01 A2999 RMK AO2 SLP156 T00830006 50001=
201203221953 METAR KCLM 221953Z AUTO 36008KT 10SM SCT055 BKN080 BKN095 07/02 A2999 RMK AO2 SLP158 T00720017=
201203221853 METAR KCLM 221853Z AUTO 35006KT 10SM FEW065 BKN080 07/00 A2999 RMK AO2 SLP159 T00720000=
201203221753 METAR KCLM 221753Z AUTO 09008KT 10SM BKN100 07/M01 A2998 RMK AO2 SLP155 T00721011 10072 21006 51014=
201203221653 METAR KCLM 221653Z AUTO 09006KT 10SM CLR 07/M03 A2997 RMK AO2 SLP151 T00721028=
201203221553 METAR KCLM 221553Z AUTO 00000KT 10SM CLR 05/M02 A2996 RMK AO2 SLP146 T00501022=
201203221453 METAR KCLM 221453Z AUTO 25003KT 10SM CLR 02/M03 A2994 RMK AO2 SLP141 T00171033 51022=
201203221353 METAR KCLM 221353Z AUTO 23007KT 10SM CLR 02/M03 A2992 RMK AO2 SLP133 T00171033=
201203221253 METAR KCLM 221253Z AUTO 10SM CLR 02/M03 A2990 RMK AO2 SLP128 T00221028 $=
201203221153 METAR KCLM 221153Z AUTO 10SM CLR 03/M03 A2988 RMK AO2 SLP118 T00281028 10033 20017 53014 $=
201203221053 METAR KCLM 221053Z AUTO 10SM CLR 02/M02 A2984 RMK AO2 SLP108 T00221017 $=
201203220953 METAR KCLM 220953Z AUTO 10SM SCT110 03/M01 A2984 RMK AO2 SLP108 T00281011 $=
201203220853 METAR KCLM 220853Z AUTO 10SM FEW120 03/M01 A2983 RMK AO2 SLP104 T00281006 56003 $=
201203220753 METAR KCLM 220753Z AUTO 10SM CLR 03/M01 A2983 RMK AO2 SLP104 T00281006 400941006 $=
201203220653 METAR KCLM 220653Z AUTO 10SM CLR 03/M01 A2984 RMK AO2 SLP105 T00281006 $=
201203220553 METAR KCLM 220553Z AUTO 10SM CLR 03/M01 A2984 RMK AO2 SLP107 T00281006 10078 20022 58015 $=
201203220453 METAR KCLM 220453Z AUTO 10SM CLR 03/M01 A2986 RMK AO2 SLP116 T00281006 $=
201203220353 METAR KCLM 220353Z AUTO 10SM CLR 03/00 A2988 RMK AO2 SLP120 T00330000 $=
201203220253 METAR KCLM 220253Z AUTO 10SM CLR 05/00 A2989 RMK AO2 SLP123 T00500000 56015 $=
201203220153 METAR KCLM 220153Z AUTO 10SM CLR 07/00 A2990 RMK AO2 SLP127 T00670000 $=
201203220053 METAR KCLM 220053Z AUTO 10SM CLR 07/00 A2991 RMK AO2 SLP131 T00720000 $=
201203212353 METAR KCLM 212353Z AUTO 10SM FEW065 08/M02 A2993 RMK AO2 SLP138 T00781017 10094 20056 56012 $=
201203212253 METAR KCLM 212253Z AUTO 10SM CLR 08/00 A2995 RMK AO2 SLP143 T00830000 $=
201203212153 METAR KCLM 212153Z AUTO 10SM CLR 09/M01 A2995 RMK AO2 SLP144 T00941006 $=
201203212053 METAR KCLM 212053Z AUTO 10SM FEW075 08/00 A2997 RMK AO2 SLP150 T00830000 58012 $=
201203211953 METAR KCLM 211953Z AUTO 10SM CLR 08/01 A2999 RMK AO2 SLP156 T00780006 $=
201203211853 METAR KCLM 211853Z AUTO 10SM CLR 08/M02 A2999 RMK AO2 SLP158 T00781022 $=
201203211753 METAR KCLM 211753Z AUTO 10SM CLR 06/M02 A3000 RMK AO2 SLP162 T00561022 10061 21006 53001 $=
201203211653 METAR KCLM 211653Z AUTO 10SM CLR 04/M02 A3000 RMK AO2 SLP160 T00391017 $=
201203211553 METAR KCLM 211553Z AUTO 10SM CLR 02/M02 A3000 RMK AO2 SLP161 T00221022 $=
201203211453 METAR KCLM 211453Z AUTO 10SM SCT055 01/M03 A3000 RMK AO2 SLP162 T00111033 53009 $=
201203211353 METAR KCLM 211353Z AUTO 10SM CLR 00/M03 A2999 RMK AO2 SLP158 T00001028 $=
201203211253 METAR KCLM 211253Z AUTO 00000KT 10SM CLR 01/M03 A2998 RMK AO2 SLP156 T00061033=
201203211153 METAR KCLM 211153Z AUTO 26009KT 10SM CLR 02/M02 A2997 RMK AO2 SLP153 60004 70049 T00171022 10028 20017 53008=
201203211053 METAR KCLM 211053Z AUTO 26010KT 10SM CLR 02/M02 A2996 RMK AO2 SLP150 T00171022=
201203210953 METAR KCLM 210953Z AUTO 25008KT 10SM CLR 02/M02 A2995 RMK AO2 SLP145 T00221022=
201203210853 METAR KCLM 210853Z AUTO 25008KT 10SM FEW027 02/M01 A2995 RMK AO2 RAB15E25SNE15 SLP143 P0002 60004 T00221006 50008=
201203210844 SPECI KCLM 210844Z AUTO 23006KT 10SM SCT030 02/00 A2995 RMK AO2 RAB15E25SNE15 P0002=
201203210844 SPECI KCLM 210844Z AUTO 23006KT 10SM SCT030 02/00 A2995 RMK AO2 RAB15E25SNE15 P0002=
201203210818 SPECI KCLM 210818Z AUTO 26006KT 9SM -RA OVC020 02/00 A2994 RMK AO2 RAB15SNE15 P0002=
201203210818 SPECI KCLM 210818Z AUTO 26006KT 9SM -RA OVC020 02/00 A2994 RMK AO2 RAB15SNE15 P0002=
201203210805 SPECI KCLM 210805Z AUTO 25005KT 4SM -SN BR OVC014 02/M01 A2995 RMK AO2 P0002=
201203210805 SPECI KCLM 210805Z AUTO 25005KT 4SM -SN BR OVC014 02/M01 A2995 RMK AO2 P0002=
201203210753 METAR KCLM 210753Z AUTO 26007KT 5SM -SN BR OVC016 02/00 A2996 RMK AO2 RAB21E47UPB42E44SNB47 SLP147 P0002 T00170000 400560017=
201203210741 SPECI KCLM 210741Z AUTO 28008KT 10SM -RA FEW019 OVC024 02/00 A2995 RMK AO2 RAB21 P0000=
201203210741 SPECI KCLM 210741Z AUTO 28008KT 10SM -RA FEW019 OVC024 02/00 A2995 RMK AO2 RAB21 P0000=
201203210653 METAR KCLM 210653Z AUTO VRB04KT 10SM BKN043 BKN070 02/00 A2992 RMK AO2 UPB0558E15B32E44RAB15E29 SLP136 P0000 T00220000=
201203210553 METAR KCLM 210553Z AUTO 23006KT 10SM OVC048 03/00 A2993 RMK AO2 RAE0454UPB19E22SNB0454E19 SLP135 P0003 60008 T00280000 10044 20017 51024=
201203210533 SPECI KCLM 210533Z AUTO 22003KT 10SM OVC037 02/00 A2992 RMK AO2 RAE0454UPB19E22SNB0454E19 P0003=
201203210533 SPECI KCLM 210533Z AUTO 22003KT 10SM OVC037 02/00 A2992 RMK AO2 RAE0454UPB19E22SNB0454E19 P0003=
201203210453 METAR KCLM 210453Z AUTO 24006KT 7SM -RA FEW014 BKN028 OVC070 03/01 A2991 RMK AO2 RAB14 SLP132 P0001 T00280006=
201203210353 METAR KCLM 210353Z AUTO 00000KT 10SM BKN055 OVC070 03/01 A2988 RMK AO2 SLP121 T00280006=
201203210253 METAR KCLM 210253Z AUTO 30006KT 10SM BKN060 OVC075 02/01 A2985 RMK AO2 RAE33UPB0155E0157 SLP112 P0000 60004 T00220006 51012=
201203210232 SPECI KCLM 210232Z AUTO 29003KT 10SM -RA BKN034 OVC070 03/01 A2985 RMK AO2 UPB0155E0157 P0000=
201203210232 SPECI KCLM 210232Z AUTO 29003KT 10SM -RA BKN034 OVC070 03/01 A2985 RMK AO2 UPB0155E0157 P0000=
201203210225 SPECI KCLM 210225Z AUTO 27004KT 10SM -RA BKN028 OVC070 03/01 A2985 RMK AO2 UPB0155E0157 P0000=
201203210225 SPECI KCLM 210225Z AUTO 27004KT 10SM -RA BKN028 OVC070 03/01 A2985 RMK AO2 UPB0155E0157 P0000=
201203210153 METAR KCLM 210153Z AUTO 28006KT 10SM -RA BKN030 OVC050 03/01 A2985 RMK AO2 SLP108 P0001 T00280006=
201203210139 SPECI KCLM 210139Z AUTO 25008KT 10SM -RA OVC026 03/01 A2985 RMK AO2 P0001=
201203210139 SPECI KCLM 210139Z AUTO 25008KT 10SM -RA OVC026 03/01 A2985 RMK AO2 P0001=
201203210125 SPECI KCLM 210125Z AUTO 23007KT 10SM BKN035 OVC047 03/01 A2985 RMK AO2 RAE16 P0001=
201203210125 SPECI KCLM 210125Z AUTO 23007KT 10SM BKN035 OVC047 03/01 A2985 RMK AO2 RAE16 P0001=
201203210053 METAR KCLM 210053Z AUTO 20005KT 5SM -RA OVC016 03/01 A2983 RMK AO2 RAE2354B13 SLP103 P0003 T00330006=
201203210020 SPECI KCLM 210020Z AUTO 32005KT 9SM -RA BKN024 BKN050 OVC075 04/01 A2983 RMK AO2 RAE2354B13 P0000=
201203210020 SPECI KCLM 210020Z AUTO 32005KT 9SM -RA BKN024 BKN050 OVC075 04/01 A2983 RMK AO2 RAE2354B13 P0000=
201203202353 METAR KCLM 202353Z AUTO 01003KT 10SM -RA FEW038 BKN047 OVC075 04/02 A2982 RMK AO2 SLP098 P0002 60017 T00440017 10056 20028 51023=
201203202336 SPECI KCLM 202336Z AUTO 24005KT 10SM SCT034 BKN047 OVC060 04/02 A2982 RMK AO2 RAE26 P0002=
201203202336 SPECI KCLM 202336Z AUTO 24005KT 10SM SCT034 BKN047 OVC060 04/02 A2982 RMK AO2 RAE26 P0002=
201203202253 METAR KCLM 202253Z AUTO 20005KT 10SM -RA BKN023 OVC055 04/01 A2979 RMK AO2 SLP091 P0003 T00390011=
201203202204 SPECI KCLM 202204Z AUTO 23004KT 5SM -RA SCT014 OVC019 04/01 A2978 RMK AO2 P0002=
201203202204 SPECI KCLM 202204Z AUTO 23004KT 5SM -RA SCT014 OVC019 04/01 A2978 RMK AO2 P0002=
201203202153 METAR KCLM 202153Z AUTO 24006KT 9SM -RA SCT017 BKN031 OVC075 04/01 A2977 RMK AO2 RAE18B42 SLP084 P0002 T00440011=
201203202131 SPECI KCLM 202131Z AUTO 29007KT 10SM BKN032 BKN039 OVC075 04/02 A2976 RMK AO2 RAE18 P0001=
201203202131 SPECI KCLM 202131Z AUTO 29007KT 10SM BKN032 BKN039 OVC075 04/02 A2976 RMK AO2 RAE18 P0001=
201203202053 METAR KCLM 202053Z AUTO 24011G15KT 9SM -RA FEW014 BKN026 OVC048 05/01 A2975 RMK AO2 RAE09B44 SLP075 P0001 60010 T00500006 51027=
201203202023 SPECI KCLM 202023Z AUTO 04005KT 10SM SCT028 SCT047 05/02 A2971 RMK AO2 RAE09 P0001=
201203202023 SPECI KCLM 202023Z AUTO 04005KT 10SM SCT028 SCT047 05/02 A2971 RMK AO2 RAE09 P0001=
201203202001 SPECI KCLM 202001Z AUTO 00000KT 4SM -RA BR BKN016 OVC048 03/01 A2972 RMK AO2 P0001=
201203202001 SPECI KCLM 202001Z AUTO 00000KT 4SM -RA BR BKN016 OVC048 03/01 A2972 RMK AO2 P0001=
201203201953 METAR KCLM 201953Z AUTO 25005KT 2 1/2SM RA OVC014 03/01 A2973 RMK AO2 RAB1858 SLP069 P0005 T00330006=
201203201951 SPECI KCLM 201951Z AUTO 26004KT 2 1/2SM RA OVC014 03/01 A2973 RMK AO2 RAB1858 P0005=
201203201951 SPECI KCLM 201951Z AUTO 26004KT 2 1/2SM RA OVC014 03/01 A2973 RMK AO2 RAB1858 P0005=
201203201905 SPECI KCLM 201905Z AUTO 29013G18KT 8SM -RA FEW015 BKN028 OVC060 04/01 A2970 RMK AO2 RAB1858 P0000=
201203201905 SPECI KCLM 201905Z AUTO 29013G18KT 8SM -RA FEW015 BKN028 OVC060 04/01 A2970 RMK AO2 RAB1858 P0000=
201203201853 METAR KCLM 201853Z AUTO 27007KT 10SM BKN030 BKN041 OVC065 04/01 A2969 RMK AO2 RAB12E44 SLP057 P0004 T00390011=
201203201818 SPECI KCLM 201818Z AUTO 22007KT 6SM RA FEW013 BKN021 OVC075 03/01 A2969 RMK AO2 RAB12 P0002=
201203201818 SPECI KCLM 201818Z AUTO 22007KT 6SM RA FEW013 BKN021 OVC075 03/01 A2969 RMK AO2 RAB12 P0002=
201203201753 METAR KCLM 201753Z AUTO 20003KT 10SM FEW027 BKN080 OVC095 06/02 A2967 RMK AO2 SLP048 60020 T00560017 10056 20028 53029=
201203201653 METAR KCLM 201653Z AUTO 20006KT 10SM SCT032 BKN055 OVC070 04/01 A2964 RMK AO2 RAE49 SLP037 P0007 T00390011=
201203201625 SPECI KCLM 201625Z AUTO 19005KT 5SM -RA BR OVC015 03/01 A2962 RMK AO2 P0007=
201203201625 SPECI KCLM 201625Z AUTO 19005KT 5SM -RA BR OVC015 03/01 A2962 RMK AO2 P0007=
201203201604 SPECI KCLM 201604Z AUTO 26006KT 2SM RA OVC015 04/01 A2962 RMK AO2 P0003=
201203201604 SPECI KCLM 201604Z AUTO 26006KT 2SM RA OVC015 04/01 A2962 RMK AO2 P0003=
201203201553 METAR KCLM 201553Z AUTO 24004KT 4SM -RA BR FEW014 OVC020 04/02 A2960 RMK AO2 SLP026 P0001 T00390017=
201203201543 SPECI KCLM 201543Z AUTO 24004KT 7SM -RA FEW015 OVC026 04/02 A2960 RMK AO2 P0000=
201203201543 SPECI KCLM 201543Z AUTO 24004KT 7SM -RA FEW015 OVC026 04/02 A2960 RMK AO2 P0000=
201203201520 SPECI KCLM 201520Z AUTO 24004KT 10SM -RA OVC033 04/02 A2958 RMK AO2 P0000=
201203201520 SPECI KCLM 201520Z AUTO 24004KT 10SM -RA OVC033 04/02 A2958 RMK AO2 P0000=
201203201453 METAR KCLM 201453Z AUTO 20004KT 7SM -RA FEW018 OVC023 04/02 A2958 RMK AO2 SLP018 P0004 60012 T00390017 51033=
201203201353 METAR KCLM 201353Z AUTO 24006KT 7SM -RA OVC023 04/02 A2955 RMK AO2 SLP009 P0004 T00440017=
201203201317 SPECI KCLM 201317Z AUTO 21006KT 6SM -RA BR OVC027 04/02 A2953 RMK AO2 P0002=
201203201317 SPECI KCLM 201317Z AUTO 21006KT 6SM -RA BR OVC027 04/02 A2953 RMK AO2 P0002=
201203201305 SPECI KCLM 201305Z AUTO 28009KT 10SM -RA OVC031 04/01 A2952 RMK AO2 P0000=
201203201305 SPECI KCLM 201305Z AUTO 28009KT 10SM -RA OVC031 04/01 A2952 RMK AO2 P0000=
201203201253 METAR KCLM 201253Z AUTO 27005KT 10SM -RA OVC029 04/01 A2952 RMK AO2 SLP996 P0004 T00440011=
201203201153 METAR KCLM 201153Z AUTO 00000KT 5SM -RA BR FEW009 BKN026 OVC034 05/03 A2948 RMK AO2 SLP985 P0004 60008 70008 T00500028 10056 20028 53018=
201203201138 SPECI KCLM 201138Z AUTO 30004KT 5SM -RA BR SCT009 BKN024 OVC030 05/03 A2948 RMK AO2 P0003=
201203201138 SPECI KCLM 201138Z AUTO 30004KT 5SM -RA BR SCT009 BKN024 OVC030 05/03 A2948 RMK AO2 P0003=
201203201128 SPECI KCLM 201128Z AUTO 28006KT 4SM -RA BR BKN009 BKN028 06/03 A2948 RMK AO2 P0002=
201203201128 SPECI KCLM 201128Z AUTO 28006KT 4SM -RA BR BKN009 BKN028 06/03 A2948 RMK AO2 P0002=
201203201117 SPECI KCLM 201117Z AUTO 31004KT 8SM -RA SCT009 SCT018 OVC034 06/03 A2948 RMK AO2 P0001=
201203201117 SPECI KCLM 201117Z AUTO 31004KT 8SM -RA SCT009 SCT018 OVC034 06/03 A2948 RMK AO2 P0001=
201203201053 METAR KCLM 201053Z AUTO 24004KT 6SM -RA BR FEW015 BKN030 OVC037 06/03 A2946 RMK AO2 SLP977 P0004 T00560033=
201203200953 METAR KCLM 200953Z AUTO 29009KT 10SM -RA OVC040 04/01 A2944 RMK AO2 PRESRR SLP971 P0000 T00390011=
201203200853 METAR KCLM 200853Z AUTO 23004KT 10SM -RA BKN046 OVC100 03/00 A2943 RMK AO2 RAE0755B53 SLP967 P0000 60000 T00330000 56036=
201203200753 METAR KCLM 200753Z AUTO 27005KT 10SM -RA OVC048 03/M01 A2945 RMK AO2 RAB40 SLP975 P0000 T00331011 400671022=
201203200653 METAR KCLM 200653Z AUTO 00000KT 10SM SCT060 BKN110 03/M02 A2948 RMK AO2 SLP985 T00331022=
201203200553 METAR KCLM 200553Z AUTO 00000KT 10SM BKN055 BKN075 03/M02 A2954 RMK AO2 SLP004 T00331017 10067 20033 58053=
201203200453 METAR KCLM 200453Z AUTO 00000KT 10SM SCT055 BKN070 OVC100 04/M02 A2960 RMK AO2 SLP024 T00391022=
201203200353 METAR KCLM 200353Z AUTO 21003KT 10SM OVC070 04/M02 A2966 RMK AO2 SLP045 T00391017=
201203200253 METAR KCLM 200253Z AUTO 00000KT 10SM OVC070 04/M03 A2970 RMK AO2 SLP059 T00441028 58026=
201203200153 METAR KCLM 200153Z AUTO 12003KT 10SM SCT080 BKN100 06/M04 A2973 RMK AO2 SLP070 T00561039=
201203200053 METAR KCLM 200053Z AUTO 00000KT 10SM BKN075 OVC095 06/M04 A2975 RMK AO2 SLP078 T00611039=
201203192353 METAR KCLM 192353Z AUTO 02003KT 10SM OVC070 06/M04 A2977 RMK AO2 SLP085 T00611039 10067 20044 58015=
201203192253 METAR KCLM 192253Z AUTO 01004KT 10SM BKN065 OVC075 06/M03 A2979 RMK AO2 SLP090 T00611033=
201203192153 METAR KCLM 192153Z AUTO 36004KT 10SM FEW060 SCT070 OVC110 06/M02 A2980 RMK AO2 SLP094 T00611022=
201203192053 METAR KCLM 192053Z AUTO VRB03KT 10SM SCT070 BKN120 06/M01 A2982 RMK AO2 SLP099 T00561011 56009=
201203191953 METAR KCLM 191953Z AUTO VRB04KT 10SM CLR 06/M02 A2982 RMK AO2 SLP100 T00561017=
201203191853 METAR KCLM 191853Z AUTO 01003KT 10SM OVC100 05/M01 A2982 RMK AO2 SLP102 T00501011=
201203191753 METAR KCLM 191753Z AUTO 06003KT 10SM SCT080 OVC100 04/M03 A2984 RMK AO2 SLP109 T00441028 10050 21017 55005=
201203191653 METAR KCLM 191653Z AUTO 00000KT 10SM OVC100 03/M04 A2984 RMK AO2 SLP108 T00331039=
201203191553 METAR KCLM 191553Z AUTO 00000KT 10SM OVC095 02/M03 A2985 RMK AO2 SLP109 T00221028=
201203191453 METAR KCLM 191453Z AUTO 00000KT 10SM OVC070 00/M04 A2986 RMK AO2 SLP114 T00001044 51002=
201203191353 METAR KCLM 191353Z AUTO 24004KT 10SM OVC100 00/M04 A2985 RMK AO2 SLP112 T00001044=
201203191253 METAR KCLM 191253Z AUTO 23005KT 10SM OVC110 M01/M04 A2986 RMK AO2 SLP116 T10061044=
201203191153 METAR KCLM 191153Z AUTO 23005KT 10SM OVC110 00/M06 A2985 RMK AO2 SLP112 T00001056 10017 21022 51003=
201203191053 METAR KCLM 191053Z AUTO 22005KT 10SM BKN120 00/M06 A2985 RMK AO2 SLP111 T00001056=
201203190953 METAR KCLM 190953Z AUTO 00000KT 10SM CLR M01/M04 A2985 RMK AO2 SLP110 T10111044=
201203190853 METAR KCLM 190853Z AUTO 00000KT 10SM CLR M01/M05 A2984 RMK AO2 SLP109 T10061050 51010=
201203190753 METAR KCLM 190753Z AUTO 23005KT 10SM CLR 00/M04 A2984 RMK AO2 SLP106 T00001039 400671006=
201203190653 METAR KCLM 190653Z AUTO 24007KT 10SM CLR 01/M03 A2983 RMK AO2 SLP103 T00111028=
201203190553 METAR KCLM 190553Z AUTO 26007KT 10SM CLR 01/M03 A2981 RMK AO2 SLP098 T00061028 10056 20006 51014=
201203190453 METAR KCLM 190453Z AUTO 24006KT 10SM CLR 01/M02 A2981 RMK AO2 SLP097 T00111017=
201203190353 METAR KCLM 190353Z AUTO 26008KT 10SM FEW048 02/M02 A2979 RMK AO2 SLP091 T00221017=
201203190253 METAR KCLM 190253Z AUTO 26009KT 10SM FEW050 BKN065 03/M02 A2977 RMK AO2 SLP084 T00331022 53017=
201203190153 METAR KCLM 190153Z AUTO 00000KT 10SM BKN060 04/M01 A2975 RMK AO2 SLP075 T00441011=
201203190053 METAR KCLM 190053Z AUTO 31009KT 10SM FEW026 SCT037 BKN120 05/M01 A2973 RMK AO2 SLP071 T00501006=
201203182353 METAR KCLM 182353Z AUTO 25006KT 10SM BKN065 OVC075 04/01 A2972 RMK AO2 RAE23 SLP066 P0000 60000 T00440011 10067 20028 53009=
201203182329 SPECI KCLM 182329Z AUTO 24005KT 10SM FEW023 BKN040 OVC065 04/01 A2972 RMK AO2 RAE23 P0000=
201203182329 SPECI KCLM 182329Z AUTO 24005KT 10SM FEW023 BKN040 OVC065 04/01 A2972 RMK AO2 RAE23 P0000=
201203182253 METAR KCLM 182253Z AUTO 25007KT 8SM -RA OVC022 03/00 A2972 RMK AO2 RAB11 SLP065 P0000 T00330000=
201203182225 SPECI KCLM 182225Z AUTO 26005KT 10SM -RA BKN027 OVC036 04/00 A2971 RMK AO2 RAB11 P0000=
201203182225 SPECI KCLM 182225Z AUTO 26005KT 10SM -RA BKN027 OVC036 04/00 A2971 RMK AO2 RAB11 P0000=
201203182213 SPECI KCLM 182213Z AUTO 28006KT 10SM -RA BKN031 OVC046 04/00 A2970 RMK AO2 RAB11 P0000=
201203182213 SPECI KCLM 182213Z AUTO 28006KT 10SM -RA BKN031 OVC046 04/00 A2970 RMK AO2 RAB11 P0000=
201203182153 METAR KCLM 182153Z AUTO 28009KT 10SM FEW022 BKN027 OVC048 04/00 A2970 RMK AO2 RAB07E17B36E52 SLP057 P0000 T00440000=
201203182150 SPECI KCLM 182150Z AUTO 28011KT 10SM -RA FEW022 BKN033 OVC050 04/00 A2969 RMK AO2 RAB07E17B36 P0000=
201203182150 SPECI KCLM 182150Z AUTO 28011KT 10SM -RA FEW022 BKN033 OVC050 04/00 A2969 RMK AO2 RAB07E17B36 P0000=
201203182142 SPECI KCLM 182142Z AUTO 28011KT 10SM -RA SCT022 BKN027 OVC032 04/00 A2969 RMK AO2 RAB07E17B36 P0000=
201203182142 SPECI KCLM 182142Z AUTO 28011KT 10SM -RA SCT022 BKN027 OVC032 04/00 A2969 RMK AO2 RAB07E17B36 P0000=
201203182053 METAR KCLM 182053Z AUTO 30010KT 10SM SCT065 OVC080 06/M03 A2967 RMK AO2 SLP050 T00611028 53007=
201203181953 METAR KCLM 181953Z AUTO 34005KT 10SM FEW033 BKN070 OVC090 06/M03 A2967 RMK AO2 SLP048 T00611028=
201203181853 METAR KCLM 181853Z AUTO 30009KT 10SM BKN095 06/M02 A2966 RMK AO2 SLP044 T00561017=
201203181753 METAR KCLM 181753Z AUTO VRB04KT 10SM FEW024 BKN080 OVC095 06/00 A2965 RMK AO2 SLP043 60000 T00560000 10056 20022 55000=
201203181653 METAR KCLM 181653Z AUTO 27003KT 10SM FEW080 05/00 A2964 RMK AO2 SLP039 T00500000=
201203181553 METAR KCLM 181553Z AUTO 19003KT 10SM OVC070 03/01 A2965 RMK AO2 UPE16 SLP041 P0000 T00330006=
201203181517 SPECI KCLM 181517Z AUTO 20004KT 10SM BKN036 OVC050 02/00 A2965 RMK AO2 UPE16 P0000=
201203181517 SPECI KCLM 181517Z AUTO 20004KT 10SM BKN036 OVC050 02/00 A2965 RMK AO2 UPE16 P0000=
201203181453 METAR KCLM 181453Z AUTO 00000KT 10SM UP OVC022 02/00 A2966 RMK AO2 UPE12B30RAB12E19SNB19E30 SLP044 P0000 60000 T00220000 53004=
201203181353 METAR KCLM 181353Z AUTO 27004KT 10SM UP OVC016 03/00 A2965 RMK AO2 RAE12UPB24SNB26E39 SLP042 P0000 T00280000=
201203181331 SPECI KCLM 181331Z AUTO 27004KT 6SM -SN SCT014 SCT019 OVC025 02/M01 A2965 RMK AO2 RAE12UPB24E26SNB26 P0000=
201203181331 SPECI KCLM 181331Z AUTO 27004KT 6SM -SN SCT014 SCT019 OVC025 02/M01 A2965 RMK AO2 RAE12UPB24E26SNB26 P0000=
201203181323 SPECI KCLM 181323Z AUTO 27006KT 10SM FEW015 SCT022 OVC030 03/M01 A2965 RMK AO2 RAE12 P0000=
201203181323 SPECI KCLM 181323Z AUTO 27006KT 10SM FEW015 SCT022 OVC030 03/M01 A2965 RMK AO2 RAE12 P0000=
201203181253 METAR KCLM 181253Z AUTO 24005KT 10SM -RA FEW023 OVC028 03/M01 A2964 RMK AO2 RAB48 SLP040 P0000 T00331011=
201203181153 METAR KCLM 181153Z AUTO 25005KT 10SM OVC055 03/M01 A2963 RMK AO2 SLP035 70008 T00331011 10039 20028 56005=
201203181127 SPECI KCLM 181127Z AUTO 26005KT 10SM SCT026 SCT032 OVC046 03/M01 A2963 RMK AO2=
201203181127 SPECI KCLM 181127Z AUTO 26005KT 10SM SCT026 SCT032 OVC046 03/M01 A2963 RMK AO2=
201203181117 SPECI KCLM 181117Z AUTO 27004KT 10SM BKN026 BKN032 OVC048 03/M01 A2963 RMK AO2=
201203181117 SPECI KCLM 181117Z AUTO 27004KT 10SM BKN026 BKN032 OVC048 03/M01 A2963 RMK AO2=
201203181053 METAR KCLM 181053Z AUTO 23003KT 10SM OVC050 03/M01 A2963 RMK AO2 SLP035 T00281006=
201203180953 METAR KCLM 180953Z AUTO 24004KT 10SM FEW048 OVC070 03/M01 A2964 RMK AO2 SLP039 T00331011=
201203180853 METAR KCLM 180853Z AUTO 25004KT 10SM OVC100 04/M02 A2964 RMK AO2 SLP040 T00391017 56004=
201203180753 METAR KCLM 180753Z AUTO 24006KT 10SM OVC100 04/M01 A2964 RMK AO2 SLP040 T00391011 400890028=
201203180653 METAR KCLM 180653Z AUTO 25007KT 10SM BKN090 OVC100 04/M02 A2965 RMK AO2 SLP042 T00391017=
201203180553 METAR KCLM 180553Z AUTO 25006KT 10SM BKN110 04/M02 A2965 RMK AO2 SLP044 60000 T00391017 10072 20039 50005=
201203180453 METAR KCLM 180453Z AUTO 25005KT 10SM CLR 04/M03 A2966 RMK AO2 SLP044 T00391028=
201203180353 METAR KCLM 180353Z AUTO 27006KT 10SM BKN039 04/M02 A2965 RMK AO2 SLP043 T00441017=
201203180253 METAR KCLM 180253Z AUTO 30009KT 10SM OVC035 06/M01 A2964 RMK AO2 SLP038 60000 T00611011 51008=
201203180153 METAR KCLM 180153Z AUTO 30009KT 10SM SCT035 06/01 A2963 RMK AO2 SLP036 T00610011=
201203180053 METAR KCLM 180053Z AUTO 30008KT 10SM FEW027 BKN044 OVC055 07/01 A2962 RMK AO2 RAB13E31 SLP033 P0000 T00720011=
201203172353 METAR KCLM 172353Z AUTO 30008KT 10SM OVC041 07/01 A2962 RMK AO2 SLP030 60000 T00720006 10089 20067 53018=
201203172303 SPECI KCLM 172303Z AUTO 31012G17KT 10SM FEW025 OVC037 07/02 A2960 RMK AO2=
201203172303 SPECI KCLM 172303Z AUTO 31012G17KT 10SM FEW025 OVC037 07/02 A2960 RMK AO2=
201203172253 METAR KCLM 172253Z AUTO 26010G20KT 230V300 10SM BKN025 OVC035 07/01 A2959 RMK AO2 SLP023 T00720011=
201203172153 METAR KCLM 172153Z AUTO 31011G18KT 10SM SCT030 BKN038 OVC050 08/01 A2957 RMK AO2 RAB34E42 SLP016 P0000 T00780006=
201203172053 METAR KCLM 172053Z AUTO VRB05KT 10SM SCT031 BKN040 OVC060 08/01 A2956 RMK AO2 SLP012 T00780011 51012=
201203171953 METAR KCLM 171953Z AUTO 31006KT 10SM FEW025 08/02 A2955 RMK AO2 SLP008 T00830017=
201203171939 SPECI KCLM 171939Z AUTO 33007KT 10SM SCT025 08/02 A2955 RMK AO2=
201203171939 SPECI KCLM 171939Z AUTO 33007KT 10SM SCT025 08/02 A2955 RMK AO2=
201203171930 SPECI KCLM 171930Z AUTO 33007KT 10SM FEW017 BKN025 07/02 A2955 RMK AO2=
201203171930 SPECI KCLM 171930Z AUTO 33007KT 10SM FEW017 BKN025 07/02 A2955 RMK AO2=
201203171853 METAR KCLM 171853Z AUTO 00000KT 10SM SCT014 07/02 A2954 RMK AO2 SLP005 T00720022=
201203171753 METAR KCLM 171753Z AUTO 26006KT 10SM CLR 07/02 A2953 RMK AO2 SLP000 60008 T00670022 10067 20028 53015=
201203171653 METAR KCLM 171653Z AUTO 25007KT 10SM CLR 05/02 A2950 RMK AO2 SLP991 T00500017=
201203171553 METAR KCLM 171553Z AUTO 20006KT 10SM OVC049 04/02 A2948 RMK AO2 RAE28 SLP985 P0000 T00440017 $=
201203171453 METAR KCLM 171453Z AUTO 22005KT 10SM -RA OVC032 03/01 A2948 RMK AO2 SLP986 P0001 60008 T00330011 53015 $=
201203171426 SPECI KCLM 171426Z AUTO 24006KT 10SM -RA FEW013 SCT017 OVC026 03/01 A2948 RMK AO2 P0001 $=
201203171426 SPECI KCLM 171426Z AUTO 24006KT 10SM -RA FEW013 SCT017 OVC026 03/01 A2948 RMK AO2 P0001 $=
201203171353 METAR KCLM 171353Z AUTO 23004KT 10SM -RA OVC011 03/01 A2947 RMK AO2 SLP981 P0006 T00280011 $=
201203171344 SPECI KCLM 171344Z AUTO 25005KT 7SM -RA OVC011 03/01 A2947 RMK AO2 P0006 $=
201203171344 SPECI KCLM 171344Z AUTO 25005KT 7SM -RA OVC011 03/01 A2947 RMK AO2 P0006 $=
201203171326 SPECI KCLM 171326Z AUTO 25006KT 5SM RA BR OVC009 03/01 A2946 RMK AO2 P0004 $=
201203171326 SPECI KCLM 171326Z AUTO 25006KT 5SM RA BR OVC009 03/01 A2946 RMK AO2 P0004 $=
201203171253 METAR KCLM 171253Z AUTO 25006KT 9SM -RA OVC013 03/01 A2945 RMK AO2 SLP974 P0001 T00330011 $=
201203171204 SPECI KCLM 171204Z AUTO 25004KT 10SM -RA BKN015 OVC032 03/02 A2944 RMK AO2 P0000 $=
201203171204 SPECI KCLM 171204Z AUTO 25004KT 10SM -RA BKN015 OVC032 03/02 A2944 RMK AO2 P0000 $=
201203171153 METAR KCLM 171153Z AUTO 26004KT 10SM -RA SCT015 OVC030 03/01 A2944 RMK AO2 SLP970 P0000 60008 70009 T00330011 10067 20033 51001 $=
201203171148 SPECI KCLM 171148Z AUTO 24003KT 10SM -RA FEW023 OVC030 03/02 A2944 RMK AO2 P0000 $=
201203171148 SPECI KCLM 171148Z AUTO 24003KT 10SM -RA FEW023 OVC030 03/02 A2944 RMK AO2 P0000 $=
201203171053 METAR KCLM 171053Z AUTO 00000KT 5SM -RA BKN017 OVC023 04/01 A2944 RMK AO2 SLP971 P0006 T00440011 $=
201203170953 METAR KCLM 170953Z AUTO 00000KT 10SM -RA OVC024 06/01 A2943 RMK AO2 RAB0858 SLP969 P0000 T00560011 $=
201203170933 SPECI KCLM 170933Z AUTO 00000KT 10SM -RA OVC028 06/02 A2944 RMK AO2 RAB0858 P0000 $=
201203170933 SPECI KCLM 170933Z AUTO 00000KT 10SM -RA OVC028 06/02 A2944 RMK AO2 RAB0858 P0000 $=
201203170853 METAR KCLM 170853Z AUTO VRB04KT 10SM -RA SCT014 BKN018 OVC024 06/02 A2943 RMK AO2 SLP967 P0002 60002 T00560022 56019=
201203170827 SPECI KCLM 170827Z AUTO VRB04KT 10SM -RA BKN012 OVC019 06/03 A2943 RMK AO2 P0002=
201203170827 SPECI KCLM 170827Z AUTO VRB04KT 10SM -RA BKN012 OVC019 06/03 A2943 RMK AO2 P0002=
201203170813 SPECI KCLM 170813Z AUTO 04003KT 6SM -RA BR SCT010 BKN015 OVC022 06/03 A2943 RMK AO2 P0002=
201203170813 SPECI KCLM 170813Z AUTO 04003KT 6SM -RA BR SCT010 BKN015 OVC022 06/03 A2943 RMK AO2 P0002=
201203170753 METAR KCLM 170753Z AUTO VRB03KT 6SM -RA BKN009 OVC016 06/03 A2943 RMK AO2 RAB28 CIG 008V013 SLP968 P0000 T00610033 400830028=
201203170745 SPECI KCLM 170745Z AUTO 00000KT 10SM -RA BKN011 OVC016 06/03 A2943 RMK AO2 RAB28 CIG 008V013 P0000=
201203170745 SPECI KCLM 170745Z AUTO 00000KT 10SM -RA BKN011 OVC016 06/03 A2943 RMK AO2 RAB28 CIG 008V013 P0000=
201203170653 METAR KCLM 170653Z AUTO 06006KT 10SM BKN023 BKN045 OVC050 07/03 A2945 RMK AO2 SLP973 T00670028=
201203170620 SPECI KCLM 170620Z AUTO VRB03KT 10SM SCT013 OVC019 06/03 A2947 RMK AO2=
201203170620 SPECI KCLM 170620Z AUTO VRB03KT 10SM SCT013 OVC019 06/03 A2947 RMK AO2=
201203170608 SPECI KCLM 170608Z AUTO 00000KT 10SM OVC013 07/03 A2947 RMK AO2=
201203170608 SPECI KCLM 170608Z AUTO 00000KT 10SM OVC013 07/03 A2947 RMK AO2=
201203170553 METAR KCLM 170553Z AUTO 00000KT 10SM OVC015 06/02 A2949 RMK AO2 SLP986 60000 T00560017 10083 20050 58024=
201203170453 METAR KCLM 170453Z AUTO 22003KT 10SM BKN021 OVC042 06/02 A2953 RMK AO2 SLP001 T00560022=
201203170448 SPECI KCLM 170448Z AUTO 23003KT 10SM BKN021 OVC042 06/02 A2953 RMK AO2=
201203170448 SPECI KCLM 170448Z AUTO 23003KT 10SM BKN021 OVC042 06/02 A2953 RMK AO2=
201203170353 METAR KCLM 170353Z AUTO 22005KT 10SM BKN050 OVC080 06/02 A2956 RMK AO2 RAB27E38 SLP011 P0000 T00560017=
201203170253 METAR KCLM 170253Z AUTO 00000KT 10SM OVC045 06/03 A2957 RMK AO2 SLP015 T00610028 56019=
201203170153 METAR KCLM 170153Z AUTO 00000KT 10SM FEW044 BKN060 07/03 A2958 RMK AO2 SLP017 T00670028=
201203170053 METAR KCLM 170053Z AUTO 00000KT 10SM CLR 08/02 A2960 RMK AO2 SLP024 T00830022=
201203162353 METAR KCLM 162353Z AUTO 00000KT 10SM FEW065 08/02 A2963 RMK AO2 SLP034 T00780017 10083 20067 58007=
201203162253 METAR KCLM 162253Z AUTO 00000KT 10SM FEW022 BKN065 OVC080 08/02 A2965 RMK AO2 SLP044 T00780022=
201203162153 METAR KCLM 162153Z AUTO 07003KT 10SM FEW048 BKN060 OVC075 07/02 A2966 RMK AO2 SLP044 T00720022=
201203162053 METAR KCLM 162053Z AUTO 12005KT 10SM FEW018 BKN055 08/03 A2965 RMK AO2 SLP042 T00830028 50004=
201203161953 METAR KCLM 161953Z AUTO VRB03KT 10SM SCT017 BKN036 BKN046 07/02 A2966 RMK AO2 SLP044 T00670022=
201203161946 SPECI KCLM 161946Z AUTO 00000KT 10SM SCT017 BKN032 OVC046 07/03 A2966 RMK AO2=
201203161946 SPECI KCLM 161946Z AUTO 00000KT 10SM SCT017 BKN032 OVC046 07/03 A2966 RMK AO2=
201203161909 SPECI KCLM 161909Z AUTO VRB03KT 10SM FEW014 BKN020 OVC065 08/03 A2965 RMK AO2=
201203161909 SPECI KCLM 161909Z AUTO VRB03KT 10SM FEW014 BKN020 OVC065 08/03 A2965 RMK AO2=
201203161853 METAR KCLM 161853Z AUTO 09005KT 10SM SCT014 SCT047 BKN070 08/04 A2965 RMK AO2 SLP041 T00780039=
201203161753 METAR KCLM 161753Z AUTO 00000KT 10SM FEW020 BKN048 BKN060 07/03 A2964 RMK AO2 SLP037 60001 T00720028 10072 20028 53017=
201203161653 METAR KCLM 161653Z AUTO 00000KT 10SM FEW040 BKN060 06/03 A2961 RMK AO2 RAB09E33 SLP030 P0000 T00560028=
201203161553 METAR KCLM 161553Z AUTO 00000KT 10SM BKN050 OVC065 05/03 A2960 RMK AO2 RAE33 SLP026 P0001 T00500028=
201203161529 SPECI KCLM 161529Z AUTO 22004KT 10SM -RA FEW008 SCT014 OVC032 05/03 A2959 RMK AO2 P0001=
201203161529 SPECI KCLM 161529Z AUTO 22004KT 10SM -RA FEW008 SCT014 OVC032 05/03 A2959 RMK AO2 P0001=
201203161525 SPECI KCLM 161525Z AUTO 00000KT 10SM -RA SCT008 BKN014 OVC036 05/03 A2959 RMK AO2 P0001=
201203161525 SPECI KCLM 161525Z AUTO 00000KT 10SM -RA SCT008 BKN014 OVC036 05/03 A2959 RMK AO2 P0001=
201203161453 METAR KCLM 161453Z AUTO 00000KT 10SM -RA BKN008 OVC022 04/03 A2959 RMK AO2 RAB34 SLP020 P0000 60000 T00440028 53018=
201203161440 SPECI KCLM 161440Z AUTO 23004KT 10SM -RA BKN010 BKN014 OVC050 04/03 A2958 RMK AO2 RAB34 P0000=
201203161440 SPECI KCLM 161440Z AUTO 23004KT 10SM -RA BKN010 BKN014 OVC050 04/03 A2958 RMK AO2 RAB34 P0000=
201203161432 SPECI KCLM 161432Z AUTO 00000KT 10SM SCT014 BKN022 OVC050 04/03 A2958 RMK AO2=
201203161432 SPECI KCLM 161432Z AUTO 00000KT 10SM SCT014 BKN022 OVC050 04/03 A2958 RMK AO2=
201203161353 METAR KCLM 161353Z AUTO 00000KT 9SM OVC012 04/03 A2956 RMK AO2 SLP013 T00440028=
201203161322 SPECI KCLM 161322Z AUTO 00000KT 10SM SCT007 OVC012 04/02 A2955 RMK AO2=
201203161322 SPECI KCLM 161322Z AUTO 00000KT 10SM SCT007 OVC012 04/02 A2955 RMK AO2=
201203161253 METAR KCLM 161253Z AUTO 00000KT 10SM BKN007 OVC012 04/02 A2954 RMK AO2 RAB1156E06 SLP005 P0000 T00390022=
201203161246 SPECI KCLM 161246Z AUTO 21003KT 10SM BKN007 OVC014 04/02 A2954 RMK AO2 RAB1156E06 P0000=
201203161246 SPECI KCLM 161246Z AUTO 21003KT 10SM BKN007 OVC014 04/02 A2954 RMK AO2 RAB1156E06 P0000=
201203161237 SPECI KCLM 161237Z AUTO 00000KT 10SM SCT007 BKN014 04/02 A2954 RMK AO2 RAB1156E06 P0000=
201203161237 SPECI KCLM 161237Z AUTO 00000KT 10SM SCT007 BKN014 04/02 A2954 RMK AO2 RAB1156E06 P0000=
201203161227 SPECI KCLM 161227Z AUTO 00000KT 10SM BKN016 03/02 A2953 RMK AO2 RAB1156E06 P0000=
201203161227 SPECI KCLM 161227Z AUTO 00000KT 10SM BKN016 03/02 A2953 RMK AO2 RAB1156E06 P0000=
201203161153 METAR KCLM 161153Z AUTO 24005KT 10SM FEW014 SCT046 BKN065 04/02 A2953 RMK AO2 SLP002 60000 70035 T00390017 10056 20028 56008=
201203161110 SPECI KCLM 161110Z AUTO 24004KT 10SM SCT022 BKN060 03/02 A2953 RMK AO2=
201203161110 SPECI KCLM 161110Z AUTO 24004KT 10SM SCT022 BKN060 03/02 A2953 RMK AO2=
201203161053 METAR KCLM 161053Z AUTO 00000KT 10SM BKN022 BKN065 04/03 A2954 RMK AO2 RAB30E45 SLP003 P0000 T00440028=
201203161014 SPECI KCLM 161014Z AUTO 00000KT 5SM BR BKN022 BKN036 OVC070 04/03 A2954 RMK AO2=
201203161014 SPECI KCLM 161014Z AUTO 00000KT 5SM BR BKN022 BKN036 OVC070 04/03 A2954 RMK AO2=
201203161000 SPECI KCLM 161000Z AUTO 00000KT 9SM SCT022 BKN037 OVC046 04/03 A2954 RMK AO2=
201203161000 SPECI KCLM 161000Z AUTO 00000KT 9SM SCT022 BKN037 OVC046 04/03 A2954 RMK AO2=
201203160953 METAR KCLM 160953Z AUTO 00000KT 10SM BKN022 OVC046 04/03 A2954 RMK AO2 RAE18 SLP005 P0000 T00440028=
201203160926 SPECI KCLM 160926Z AUTO 00000KT 10SM BKN022 BKN045 OVC055 05/03 A2955 RMK AO2 RAE18 P0000=
201203160926 SPECI KCLM 160926Z AUTO 00000KT 10SM BKN022 BKN045 OVC055 05/03 A2955 RMK AO2 RAE18 P0000=
201203160853 METAR KCLM 160853Z AUTO 00000KT 10SM -RA SCT017 OVC034 06/04 A2955 RMK AO2 SLP010 P0000 60000 T00560039 57018=
201203160851 SPECI KCLM 160851Z AUTO 00000KT 10SM -RA SCT017 OVC032 06/04 A2956 RMK AO2 P0000=
201203160851 SPECI KCLM 160851Z AUTO 00000KT 10SM -RA SCT017 OVC032 06/04 A2956 RMK AO2 P0000=
201203160804 SPECI KCLM 160804Z AUTO 00000KT 10SM -RA BKN012 OVC018 06/04 A2957 RMK AO2 P0000=
201203160804 SPECI KCLM 160804Z AUTO 00000KT 10SM -RA BKN012 OVC018 06/04 A2957 RMK AO2 P0000=
201203160753 METAR KCLM 160753Z AUTO 11003KT 8SM -RA BKN016 OVC021 06/04 A2957 RMK AO2 SLP015 P0000 T00560039 401110039=
201203160653 METAR KCLM 160653Z AUTO 00000KT 10SM -RA OVC019 05/03 A2959 RMK AO2 RAB51 SLP021 P0000 T00500033=
201203160553 METAR KCLM 160553Z AUTO 00000KT 10SM OVC021 04/03 A2961 RMK AO2 SLP027 60003 T00440028 10078 20039 56002=
201203160453 METAR KCLM 160453Z AUTO 00000KT 10SM BKN020 BKN060 04/02 A2961 RMK AO2 SLP028 T00440022=
201203160353 METAR KCLM 160353Z AUTO 27006KT 10SM SCT039 04/02 A2961 RMK AO2 RAE27 SLP030 P0000 T00440022=
201203160253 METAR KCLM 160253Z AUTO 30005KT 10SM -RA FEW020 OVC042 06/03 A2961 RMK AO2 RAB21 SLP030 P0000 60003 T00560033 51010=
201203160153 METAR KCLM 160153Z AUTO 30009KT 10SM SCT049 BKN070 OVC100 07/04 A2961 RMK AO2 RAE43 SLP027 P0002 T00670039=
201203160113 SPECI KCLM 160113Z AUTO 25004KT 6SM -RA SCT027 OVC032 07/04 A2961 RMK AO2 P0002=
201203160113 SPECI KCLM 160113Z AUTO 25004KT 6SM -RA SCT027 OVC032 07/04 A2961 RMK AO2 P0002=
201203160053 METAR KCLM 160053Z AUTO 30010KT 10SM -RA BKN027 BKN034 OVC048 07/04 A2961 RMK AO2 RAE24B41 SLP028 P0001 T00720039=
201203152353 METAR KCLM 152353Z AUTO 31008KT 6SM -RA BKN036 OVC048 08/04 A2958 RMK AO2 SLP019 P0002 60002 T00780044 10111 20078 53036=
201203152253 METAR KCLM 152253Z AUTO 28008KT 9SM -RA FEW027 BKN043 OVC050 09/06 A2955 RMK AO2 RAB14 PRESRR SLP008 P0000 T00890061=
201203152153 METAR KCLM 152153Z AUTO 01005KT 10SM FEW049 BKN070 OVC110 11/07 A2949 RMK AO2 RAE11 SLP987 P0000 T01060072=
201203152053 METAR KCLM 152053Z AUTO 27010KT 8SM -RA BKN048 BKN055 OVC070 09/06 A2948 RMK AO2 RAB14E25B43 PRESRR SLP983 P0000 60000 T00940061 53017=
201203151953 METAR KCLM 151953Z AUTO 10004KT 10SM FEW050 BKN065 OVC080 11/08 A2945 RMK AO2 SLP973 T01060078=
201203151853 METAR KCLM 151853Z AUTO 00000KT 10SM SCT046 BKN070 OVC085 11/07 A2945 RMK AO2 RAE00B19E40 SLP974 P0000 T01060072=
201203151753 METAR KCLM 151753Z AUTO 17005KT 10SM -RA FEW035 BKN047 OVC060 09/07 A2943 RMK AO2 SLP966 P0002 60030 T00890067 10089 20056 51024=
201203151653 METAR KCLM 151653Z AUTO 00000KT 10SM -RA FEW037 BKN048 OVC075 08/07 A2939 RMK AO2 SLP954 P0002 T00830067=
201203151553 METAR KCLM 151553Z AUTO 27008KT 4SM -RA BR FEW020 BKN041 OVC050 08/06 A2939 RMK AO2 SLP954 P0002 T00780056=
201203151453 METAR KCLM 151453Z AUTO 16003KT 8SM -RA OVC050 07/05 A2935 RMK AO2 SLP942 P0005 60024 T00670050 56006=
201203151353 METAR KCLM 151353Z AUTO 13004KT 3SM RA BR BKN042 OVC050 07/04 A2935 RMK AO2 SLP942 P0010 T00670044=
201203151253 METAR KCLM 151253Z AUTO 02003KT 4SM -RA BR OVC044 06/04 A2937 RMK AO2 SLP947 P0009 T00560039=
201203151153 METAR KCLM 151153Z AUTO 24003KT 5SM -RA BR OVC048 06/04 A2941 RMK AO2 SLP961 P0005 60009 70009 T00560039 10056 20044 58030=
201203151053 METAR KCLM 151053Z AUTO 00000KT 4SM -RA BR OVC042 06/03 A2944 RMK AO2 SLP971 P0004 T00560033=
201203150953 METAR KCLM 150953Z AUTO 00000KT 10SM -RA OVC050 05/03 A2948 RMK AO2 RAB0858 SLP983 P0000 T00500033=
201203150853 METAR KCLM 150853Z AUTO 22006KT 10SM FEW009 OVC060 05/03 A2950 RMK AO2 RAB24E34 SLP992 P0000 60000 T00500033 56035=
201203150753 METAR KCLM 150753Z AUTO 18005KT 10SM BKN050 OVC065 05/03 A2952 RMK AO2 SLP998 T00500028 400891011=
201203150653 METAR KCLM 150653Z AUTO 23003KT 10SM BKN060 OVC080 04/03 A2957 RMK AO2 SLP016 T00440028=
201203150553 METAR KCLM 150553Z AUTO 00000KT 10SM SCT009 BKN055 OVC110 04/02 A2961 RMK AO2 SLP027 T00440022 10089 20044 58027=
201203150530 SPECI KCLM 150530Z AUTO 00000KT 10SM BKN009 BKN041 OVC070 05/03 A2962 RMK AO2 PRESFR=
201203150530 SPECI KCLM 150530Z AUTO 00000KT 10SM BKN009 BKN041 OVC070 05/03 A2962 RMK AO2 PRESFR=
201203150517 SPECI KCLM 150517Z AUTO 00000KT 10SM SCT009 SCT060 OVC075 05/03 A2964 RMK AO2=
201203150517 SPECI KCLM 150517Z AUTO 00000KT 10SM SCT009 SCT060 OVC075 05/03 A2964 RMK AO2=
201203150453 METAR KCLM 150453Z AUTO 00000KT 10SM BKN080 OVC110 05/03 A2965 RMK AO2 SLP042 T00500028=
201203150353 METAR KCLM 150353Z AUTO 00000KT 10SM BKN065 OVC080 06/03 A2967 RMK AO2 SLP049 T00560028=
201203150253 METAR KCLM 150253Z AUTO 00000KT 10SM OVC065 06/03 A2969 RMK AO2 SLP055 T00610028 58000=
201203150153 METAR KCLM 150153Z AUTO 11004KT 10SM SCT047 BKN055 07/02 A2970 RMK AO2 SLP060 T00670022=
201203150053 METAR KCLM 150053Z AUTO 07004KT 10SM OVC050 08/03 A2971 RMK AO2 SLP063 T00830028=
201203150003 SPECI KCLM 150003Z AUTO 10003KT 10SM SCT031 BKN039 BKN046 08/03 A2969 RMK AO2=
201203150003 SPECI KCLM 150003Z AUTO 10003KT 10SM SCT031 BKN039 BKN046 08/03 A2969 RMK AO2=
201203142353 METAR KCLM 142353Z AUTO 08005KT 10SM BKN028 BKN035 BKN045 08/03 A2969 RMK AO2 SLP055 60000 T00780028 10083 20044 53019=
201203142310 SPECI KCLM 142310Z AUTO 13003KT 10SM SCT014 BKN037 08/03 A2967 RMK AO2=
201203142310 SPECI KCLM 142310Z AUTO 13003KT 10SM SCT014 BKN037 08/03 A2967 RMK AO2=
201203142253 METAR KCLM 142253Z AUTO 09003KT 10SM BKN014 BKN029 08/03 A2966 RMK AO2 RAE2155 SLP046 P0000 T00780028=
201203142153 METAR KCLM 142153Z AUTO 00000KT 10SM -RA BKN041 BKN049 OVC055 07/03 A2965 RMK AO2 RAB35 SLP042 P0000 T00720028=
201203142129 SPECI KCLM 142129Z AUTO 34003KT 10SM FEW021 SCT026 OVC046 07/03 A2964 RMK AO2=
201203142129 SPECI KCLM 142129Z AUTO 34003KT 10SM FEW021 SCT026 OVC046 07/03 A2964 RMK AO2=
201203142106 SPECI KCLM 142106Z AUTO 32004KT 10SM FEW015 BKN022 OVC050 08/03 A2963 RMK AO2=
201203142106 SPECI KCLM 142106Z AUTO 32004KT 10SM FEW015 BKN022 OVC050 08/03 A2963 RMK AO2=
201203142053 METAR KCLM 142053Z AUTO 33004KT 10SM FEW015 OVC055 08/03 A2963 RMK AO2 SLP036 60000 T00780033=
201203141953 METAR KCLM 141953Z AUTO 26004KT 10SM OVC055 07/03 A2961 RMK AO2 RAE01 SLP030 P0000 T00670028=
201203141853 METAR KCLM 141853Z AUTO 26004KT 10SM -RA 04/02 A2961 RMK AO2 RAB45 SLP029 P0000 T00440022 $=
201203141753 METAR KCLM 141753Z AUTO 00000KT 10SM OVC043 05/00 A2957 RMK AO2 SLP016 T00500000 10050 20006 56018=
201203141653 METAR KCLM 141653Z AUTO 00000KT 10SM BKN041 OVC050 04/M02 A2958 RMK AO2 SLP018 T00391022=
201203141553 METAR KCLM 141553Z AUTO VRB04KT 10SM OVC065 03/M02 A2959 RMK AO2 SLP022 T00281022=
201203141453 METAR KCLM 141453Z AUTO 22004KT 10SM SCT065 OVC080 01/M02 A2962 RMK AO2 SLP034 T00111022 58027=
201203141353 METAR KCLM 141353Z AUTO 11003KT 10SM OVC085 02/M02 A2966 RMK AO2 SLP046 T00171022=
201203141253 METAR KCLM 141253Z AUTO 00000KT 10SM OVC100 02/M03 A2969 RMK AO2 SLP055 T00221028=
201203141153 METAR KCLM 141153Z AUTO VRB04KT 10SM BKN100 01/M03 A2971 RMK AO2 SLP062 T00061028 10017 21011 58027=
201203141053 METAR KCLM 141053Z AUTO 23006KT 10SM BKN120 01/M03 A2974 RMK AO2 SLP074 T00061028=
201203140953 METAR KCLM 140953Z AUTO 19003KT 10SM CLR 00/M02 A2977 RMK AO2 SLP082 T00001022=
201203140853 METAR KCLM 140853Z AUTO 00000KT 10SM SCT110 00/M02 A2979 RMK AO2 SLP089 T00001017 58015=
201203140753 METAR KCLM 140753Z AUTO 22005KT 10SM CLR 01/M01 A2981 RMK AO2 SLP096 T00061011 400500000=
201203140653 METAR KCLM 140653Z AUTO 14003KT 10SM BKN070 01/M02 A2982 RMK AO2 SLP100 T00061017=
201203140553 METAR KCLM 140553Z AUTO 23004KT 10SM FEW110 01/M01 A2983 RMK AO2 SLP104 T00061011 10044 20000 51012=
201203140453 METAR KCLM 140453Z AUTO 21003KT 10SM CLR 01/M02 A2983 RMK AO2 SLP103 T00061017=
201203140353 METAR KCLM 140353Z AUTO 20003KT 10SM FEW090 00/M02 A2981 RMK AO2 SLP096 T00001017=
201203140253 METAR KCLM 140253Z AUTO 24004KT 10SM CLR 02/M01 A2980 RMK AO2 SLP092 T00171006 53023=
201203140153 METAR KCLM 140153Z AUTO 18003KT 10SM CLR 04/M01 A2977 RMK AO2 SLP083 T00391006=
201203140053 METAR KCLM 140053Z AUTO 30006KT 10SM CLR 04/01 A2975 RMK AO2 SLP076 T00390006=
201203132353 METAR KCLM 132353Z AUTO 32007KT 10SM FEW007 SCT036 04/02 A2973 RMK AO2 RAE32 SLP069 P0000 60000 T00440017 10050 20033 53025=
201203132335 SPECI KCLM 132335Z AUTO 32006KT 10SM FEW007 BKN034 OVC055 03/01 A2972 RMK AO2 RAE32 P0000=
201203132335 SPECI KCLM 132335Z AUTO 32006KT 10SM FEW007 BKN034 OVC055 03/01 A2972 RMK AO2 RAE32 P0000=
201203132324 SPECI KCLM 132324Z AUTO 31009KT 10SM -RA FEW011 BKN037 OVC050 04/01 A2971 RMK AO2 P0000=
201203132324 SPECI KCLM 132324Z AUTO 31009KT 10SM -RA FEW011 BKN037 OVC050 04/01 A2971 RMK AO2 P0000=
201203132253 METAR KCLM 132253Z AUTO 33006KT 10SM -RA FEW009 OVC018 04/01 A2970 RMK AO2 RAB01 SLP060 P0000 T00390011=
201203132228 SPECI KCLM 132228Z AUTO 32006KT 10SM -RA SCT009 OVC016 03/01 A2968 RMK AO2 RAB01 P0000=
201203132228 SPECI KCLM 132228Z AUTO 32006KT 10SM -RA SCT009 OVC016 03/01 A2968 RMK AO2 RAB01 P0000=
201203132223 SPECI KCLM 132223Z AUTO 31006KT 10SM BKN014 OVC021 04/01 A2968 RMK AO2 RAB01E18 P0000=
201203132223 SPECI KCLM 132223Z AUTO 31006KT 10SM BKN014 OVC021 04/01 A2968 RMK AO2 RAB01E18 P0000=
201203132200 SPECI KCLM 132200Z AUTO 30009KT 10SM SCT014 BKN022 OVC044 04/01 A2966 RMK AO2=
201203132200 SPECI KCLM 132200Z AUTO 30009KT 10SM SCT014 BKN022 OVC044 04/01 A2966 RMK AO2=
201203132153 METAR KCLM 132153Z AUTO 31007KT 10SM BKN014 BKN025 OVC040 05/01 A2965 RMK AO2 RAB38E53 SLP042 P0000 T00500011=
201203132150 SPECI KCLM 132150Z AUTO VRB04KT 10SM -RA BKN014 BKN022 OVC046 05/01 A2965 RMK AO2 RAB38 P0000=
201203132150 SPECI KCLM 132150Z AUTO VRB04KT 10SM -RA BKN014 BKN022 OVC046 05/01 A2965 RMK AO2 RAB38 P0000=
201203132116 SPECI KCLM 132116Z AUTO VRB03KT 10SM FEW020 BKN026 OVC033 04/01 A2963 RMK AO2=
201203132116 SPECI KCLM 132116Z AUTO VRB03KT 10SM FEW020 BKN026 OVC033 04/01 A2963 RMK AO2=
201203132053 METAR KCLM 132053Z AUTO 35004KT 10SM SCT025 SCT034 BKN042 04/01 A2961 RMK AO2 SLP028 60000 T00440011 51018=
201203132037 SPECI KCLM 132037Z AUTO 31003KT 10SM SCT010 BKN025 05/01 A2960 RMK AO2=
201203132037 SPECI KCLM 132037Z AUTO 31003KT 10SM SCT010 BKN025 05/01 A2960 RMK AO2=
201203131956 SPECI KCLM 131956Z AUTO 00000KT 10SM BKN008 OVC022 04/01 A2958 RMK AO2=
201203131956 SPECI KCLM 131956Z AUTO 00000KT 10SM BKN008 OVC022 04/01 A2958 RMK AO2=
201203131953 METAR KCLM 131953Z AUTO 00000KT 10SM SCT008 SCT013 OVC022 04/01 A2958 RMK AO2 RAB12E52 SLP018 P0000 T00390011=
201203131912 SPECI KCLM 131912Z AUTO 31006KT 10SM -RA BKN016 BKN060 OVC070 04/01 A2956 RMK AO2 RAB12 P0000=
201203131912 SPECI KCLM 131912Z AUTO 31006KT 10SM -RA BKN016 BKN060 OVC070 04/01 A2956 RMK AO2 RAB12 P0000=
201203131853 METAR KCLM 131853Z AUTO 00000KT 10SM BKN065 OVC075 04/00 A2955 RMK AO2 SLP009 T00440000=
201203131753 METAR KCLM 131753Z AUTO 26004KT 10SM BKN044 OVC055 03/01 A2952 RMK AO2 SNE20 SLP998 P0000 60000 T00330006 10033 20000 53018=
201203131732 SPECI KCLM 131732Z AUTO 24005KT 10SM BKN037 BKN045 OVC055 03/01 A2951 RMK AO2 SNE20 P0000=
201203131732 SPECI KCLM 131732Z AUTO 24005KT 10SM BKN037 BKN045 OVC055 03/01 A2951 RMK AO2 SNE20 P0000=
201203131710 SPECI KCLM 131710Z AUTO 24003KT 3SM -SN BKN025 BKN032 OVC039 02/M01 A2951 RMK AO2 P0000=
201203131710 SPECI KCLM 131710Z AUTO 24003KT 3SM -SN BKN025 BKN032 OVC039 02/M01 A2951 RMK AO2 P0000=
201203131701 SPECI KCLM 131701Z AUTO 24006KT 1 3/4SM -SN BR FEW019 BKN025 OVC075 02/M01 A2950 RMK AO2 P0000=
201203131701 SPECI KCLM 131701Z AUTO 24006KT 1 3/4SM -SN BR FEW019 BKN025 OVC075 02/M01 A2950 RMK AO2 P0000=
201203131653 METAR KCLM 131653Z AUTO 24004KT 5SM -SN BR BKN029 OVC075 02/M01 A2950 RMK AO2 SNB50 SLP992 P0000 T00171006=
201203131604 SPECI KCLM 131604Z AUTO 22005KT 10SM BKN037 BKN045 OVC085 02/M01 A2948 RMK AO2=
201203131604 SPECI KCLM 131604Z AUTO 22005KT 10SM BKN037 BKN045 OVC085 02/M01 A2948 RMK AO2=
201203131553 METAR KCLM 131553Z AUTO 00000KT 9SM BKN025 OVC039 02/00 A2947 RMK AO2 SNB16E49 SLP983 P0000 T00170000=
201203131544 SPECI KCLM 131544Z AUTO 16003KT 3SM -SN BR BKN021 OVC046 02/M01 A2948 RMK AO2 SNB16 P0000=
201203131544 SPECI KCLM 131544Z AUTO 16003KT 3SM -SN BR BKN021 OVC046 02/M01 A2948 RMK AO2 SNB16 P0000=
201203131522 SPECI KCLM 131522Z AUTO 20005KT 1 3/4SM -SN OVC028 02/M02 A2948 RMK AO2 VIS 3/4V5 SNB16 P0000=
201203131522 SPECI KCLM 131522Z AUTO 20005KT 1 3/4SM -SN OVC028 02/M02 A2948 RMK AO2 VIS 3/4V5 SNB16 P0000=
201203131453 METAR KCLM 131453Z AUTO 00000KT 10SM FEW023 OVC065 01/M02 A2947 RMK AO2 SLP981 T00111017 53023=
201203131438 SPECI KCLM 131438Z AUTO 16003KT 10SM FEW021 BKN065 01/M02 A2946 RMK AO2=
201203131438 SPECI KCLM 131438Z AUTO 16003KT 10SM FEW021 BKN065 01/M02 A2946 RMK AO2=
201203131414 SPECI KCLM 131414Z AUTO 22005KT 10SM BKN019 OVC050 01/M03 A2945 RMK AO2 $=
201203131414 SPECI KCLM 131414Z AUTO 22005KT 10SM BKN019 OVC050 01/M03 A2945 RMK AO2 $=
201203131353 METAR KCLM 131353Z AUTO 25004KT 10SM BKN050 BKN110 01/M03 A2944 RMK AO2 SLP973 T00111028 $=
201203131253 METAR KCLM 131253Z AUTO 25009KT 10SM CLR 02/M03 A2941 RMK AO2 SLP963 T00221033 $=
201203131153 METAR KCLM 131153Z AUTO 22004KT 10SM FEW044 01/M03 A2940 RMK AO2 SLP957 60000 7//// T00111033 10033 20000 53017 $=
201203131053 METAR KCLM 131053Z AUTO 31004KT 10SM CLR 02/M03 A2938 RMK AO2 SLP950 T00171028 $=
201203130953 METAR KCLM 130953Z AUTO 28009KT 10SM BKN110 03/M02 A2937 RMK AO2 SLP947 T00281022 $=
201203130853 METAR KCLM 130853Z AUTO 27006KT 10SM BKN080 OVC095 02/M01 A2935 RMK AO2 UPB0758E12 SLP941 P0000 60000 T00221006 53010 $=
201203130753 METAR KCLM 130753Z AUTO 25006KT 10SM FEW018 OVC034 02/01 A2934 RMK AO2 RAE40UPB21E45 SLP936 P0000 T00220006 400720022 $=
201203130653 METAR KCLM 130653Z AUTO 29012KT 10SM -RA OVC046 03/01 A2932 RMK AO2 RAB40 SLP928 P0000 T00280006 $=
201203130553 METAR KCLM 130553Z AUTO 28006KT 10SM OVC070 03/01 A2932 RMK AO2 SLP929 6//// T00330011 10056 20033 52013 $=
201203130453 METAR KCLM 130453Z AUTO 25010KT 10SM SCT055 OVC070 04/01 A2930 RMK AO2 SLP923 T00390006 $=
201203130353 METAR KCLM 130353Z AUTO 27006KT 10SM OVC048 03/02 A2930 RMK AO2 RAB01E34 SLP922 P0000 T00330017 $=
201203130253 METAR KCLM 130253Z AUTO 30005KT 10SM OVC037 04/02 A2928 RMK AO2 RAE48 SLP916 P0000 6//// T00390017 53001 $=
201203130153 METAR KCLM 130153Z AUTO 26007KT 10SM -RA OVC033 04/02 A2928 RMK AO2 RAB12 SLP915 P0000 T00440022 $=
201203130053 METAR KCLM 130053Z AUTO 25006KT 10SM OVC049 04/02 A2927 RMK AO2 SLP912 T00440022 $=
201203122353 METAR KCLM 122353Z AUTO 27005KT 10SM FEW004 BKN049 OVC055 06/03 A2928 RMK AO2 RAE29 SLP915 P0000 60024 T00560033 10056 20044 56017=
201203122315 SPECI KCLM 122315Z AUTO 12004KT 10SM SCT004 SCT008 OVC036 06/03 A2928 RMK AO2 RAE05 P0000=
201203122315 SPECI KCLM 122315Z AUTO 12004KT 10SM SCT004 SCT008 OVC036 06/03 A2928 RMK AO2 RAE05 P0000=
201203122253 METAR KCLM 122253Z AUTO 12006KT 7SM -RA OVC004 05/03 A2929 RMK AO2 SLP919 P0000 T00500033=
201203122153 METAR KCLM 122153Z AUTO 00000KT 5SM -RA BR OVC008 04/03 A2931 RMK AO2 SLP925 P0002 T00440028=
201203122139 SPECI KCLM 122139Z AUTO 00000KT 6SM -RA BR BKN008 OVC013 04/03 A2931 RMK AO2 P0002=
201203122139 SPECI KCLM 122139Z AUTO 00000KT 6SM -RA BR BKN008 OVC013 04/03 A2931 RMK AO2 P0002=
201203122127 SPECI KCLM 122127Z AUTO 24004KT 6SM -RA BR FEW008 BKN013 OVC022 04/03 A2932 RMK AO2 P0001=
201203122127 SPECI KCLM 122127Z AUTO 24004KT 6SM -RA BR FEW008 BKN013 OVC022 04/03 A2932 RMK AO2 P0001=
201203122111 SPECI KCLM 122111Z AUTO 00000KT 6SM -RA BR FEW006 BKN015 OVC022 04/03 A2932 RMK AO2 P0001=
201203122111 SPECI KCLM 122111Z AUTO 00000KT 6SM -RA BR FEW006 BKN015 OVC022 04/03 A2932 RMK AO2 P0001=
201203122053 METAR KCLM 122053Z AUTO VRB03KT 3SM -RA BR FEW012 OVC018 04/02 A2933 RMK AO2 SLP932 P0007 60022 T00440022 51024=
201203122046 SPECI KCLM 122046Z AUTO 30003KT 4SM -RA BR BKN015 OVC020 04/03 A2932 RMK AO2 P0006=
201203122046 SPECI KCLM 122046Z AUTO 30003KT 4SM -RA BR BKN015 OVC020 04/03 A2932 RMK AO2 P0006=
201203122021 SPECI KCLM 122021Z AUTO 18003KT 5SM -RA BR FEW009 BKN013 OVC021 05/03 A2932 RMK AO2 P0002=
201203122021 SPECI KCLM 122021Z AUTO 18003KT 5SM -RA BR FEW009 BKN013 OVC021 05/03 A2932 RMK AO2 P0002=
201203122004 SPECI KCLM 122004Z AUTO 22003KT 8SM -RA BKN009 BKN015 OVC021 05/03 A2932 RMK AO2 P0000=
201203122004 SPECI KCLM 122004Z AUTO 22003KT 8SM -RA BKN009 BKN015 OVC021 05/03 A2932 RMK AO2 P0000=
201203121953 METAR KCLM 121953Z AUTO 00000KT 5SM -RA BR FEW007 BKN015 OVC020 05/03 A2932 RMK AO2 SLP929 P0007 T00500033=
201203121921 SPECI KCLM 121921Z AUTO 00000KT 5SM -RA BR FEW007 SCT013 OVC020 06/03 A2930 RMK AO2 P0003=
201203121921 SPECI KCLM 121921Z AUTO 00000KT 5SM -RA BR FEW007 SCT013 OVC020 06/03 A2930 RMK AO2 P0003=
201203121853 METAR KCLM 121853Z AUTO 00000KT 3SM -RA BR OVC020 06/03 A2929 RMK AO2 SLP919 P0008 T00560033=
201203121834 SPECI KCLM 121834Z AUTO 00000KT 3SM -RA BR OVC020 06/03 A2928 RMK AO2 P0005=
201203121834 SPECI KCLM 121834Z AUTO 00000KT 3SM -RA BR OVC020 06/03 A2928 RMK AO2 P0005=
201203121824 SPECI KCLM 121824Z AUTO 00000KT 2 1/2SM -RA BR OVC020 06/03 A2928 RMK AO2 P0004=
201203121824 SPECI KCLM 121824Z AUTO 00000KT 2 1/2SM -RA BR OVC020 06/03 A2928 RMK AO2 P0004=
201203121753 METAR KCLM 121753Z AUTO 07004KT 8SM -RA OVC024 06/03 A2926 RMK AO2 SLP908 P0001 60001 T00560028 10072 20056 53019=
201203121732 SPECI KCLM 121732Z AUTO 06003KT 8SM -RA FEW020 BKN026 OVC033 06/02 A2924 RMK AO2 P0000=
201203121732 SPECI KCLM 121732Z AUTO 06003KT 8SM -RA FEW020 BKN026 OVC033 06/02 A2924 RMK AO2 P0000=
201203121653 METAR KCLM 121653Z AUTO 32005KT 8SM -RA BKN030 OVC037 07/02 A2923 RMK AO2 RAE01B32 SLP898 P0000 T00720017=
201203121553 METAR KCLM 121553Z AUTO 11013G18KT 10SM -RA BKN045 OVC060 07/01 A2919 RMK AO2 PK WND 17031/1510 SLP886 P0000 T00670011=
201203121453 METAR KCLM 121453Z AUTO 16019G26KT 10SM -RA OVC030 07/00 A2920 RMK AO2 PK WND 16036/1413 SLP888 P0000 60000 T00670000 56045=
201203121353 METAR KCLM 121353Z AUTO 11015G31KT 10SM -RA OVC034 07/00 A2921 RMK AO2 PK WND 15031/1345 SLP893 P0000 T00670000=
201203121253 METAR KCLM 121253Z AUTO 12009G35KT 090V190 10SM -RA OVC032 07/00 A2926 RMK AO2 PK WND 10035/1247 SLP910 P0000 T00670000=
201203121246 SPECI KCLM 121246Z AUTO 12009G15KT 10SM -RA OVC030 07/01 A2927 RMK AO2 PK WND 13028/1229 P0000=
201203121246 SPECI KCLM 121246Z AUTO 12009G15KT 10SM -RA OVC030 07/01 A2927 RMK AO2 PK WND 13028/1229 P0000=
201203121216 SPECI KCLM 121216Z AUTO 15013G25KT 9SM -RA OVC028 06/00 A2930 RMK AO2 PK WND 15027/1204 PRESFR P0000=
201203121216 SPECI KCLM 121216Z AUTO 15013G25KT 9SM -RA OVC028 06/00 A2930 RMK AO2 PK WND 15027/1204 PRESFR P0000=
201203121153 METAR KCLM 121153Z AUTO 16011G21KT 090V200 10SM -RA OVC036 07/M01 A2933 RMK AO2 SLP934 P0000 60000 T00671006 10067 20028 56048=
201203121053 METAR KCLM 121053Z AUTO 16011G19KT 10SM -RA OVC040 06/M01 A2938 RMK AO2 RAB35 SLP949 P0000 T00611006=
201203120953 METAR KCLM 120953Z AUTO 09008KT 10SM OVC060 04/00 A2943 RMK AO2 RAE0856 PRESFR SLP966 P0000 T00390000=
201203120853 METAR KCLM 120853Z AUTO 00000KT 10SM -RA FEW031 OVC042 03/01 A2947 RMK AO2 PRESFR SLP982 P0000 60000 T00330011 58027=
201203120814 SPECI KCLM 120814Z AUTO 00000KT 10SM -RA OVC030 03/01 A2951 RMK AO2 P0000=
201203120814 SPECI KCLM 120814Z AUTO 00000KT 10SM -RA OVC030 03/01 A2951 RMK AO2 P0000=
201203120753 METAR KCLM 120753Z AUTO 00000KT 10SM -RA OVC028 03/02 A2953 RMK AO2 UPB30E31 SLP000 P0000 T00330017 400830022=
201203120713 SPECI KCLM 120713Z AUTO 00000KT 10SM -RA OVC026 03/01 A2955 RMK AO2 P0000=
201203120713 SPECI KCLM 120713Z AUTO 00000KT 10SM -RA OVC026 03/01 A2955 RMK AO2 P0000=
201203120653 METAR KCLM 120653Z AUTO 22003KT 10SM -RA OVC032 03/01 A2956 RMK AO2 RAB0555 SLP010 P0000 T00330011=
201203120650 SPECI KCLM 120650Z AUTO 21003KT 10SM -RA OVC032 03/01 A2956 RMK AO2 RAB0555 P0000=
201203120650 SPECI KCLM 120650Z AUTO 21003KT 10SM -RA OVC032 03/01 A2956 RMK AO2 RAB0555 P0000=
201203120613 SPECI KCLM 120613Z AUTO 00000KT 10SM -RA OVC026 04/01 A2957 RMK AO2 RAB0555 P0000=
201203120613 SPECI KCLM 120613Z AUTO 00000KT 10SM -RA OVC026 04/01 A2957 RMK AO2 RAB0555 P0000=
201203120553 METAR KCLM 120553Z AUTO 00000KT 10SM OVC032 04/00 A2957 RMK AO2 SLP016 T00390000 10061 20033 56027=
201203120453 METAR KCLM 120453Z AUTO 23004KT 10SM OVC050 04/M01 A2959 RMK AO2 SLP022 T00391006=
201203120437 SPECI KCLM 120437Z AUTO 27004KT 10SM SCT016 OVC050 04/M01 A2961 RMK AO2=
201203120437 SPECI KCLM 120437Z AUTO 27004KT 10SM SCT016 OVC050 04/M01 A2961 RMK AO2=
201203120424 SPECI KCLM 120424Z AUTO 22006KT 10SM BKN016 BKN027 OVC060 04/M01 A2962 RMK AO2=
201203120424 SPECI KCLM 120424Z AUTO 22006KT 10SM BKN016 BKN027 OVC060 04/M01 A2962 RMK AO2=
201203120353 METAR KCLM 120353Z AUTO VRB03KT 10SM FEW039 OVC070 04/M01 A2963 RMK AO2 SLP034 T00391011=
201203120253 METAR KCLM 120253Z AUTO 12005KT 10SM FEW049 05/M02 A2965 RMK AO2 SLP043 T00501017 58005=
201203120153 METAR KCLM 120153Z AUTO 18005KT 10SM CLR 06/M02 A2966 RMK AO2 SLP046 T00561022=
201203120053 METAR KCLM 120053Z AUTO 27008KT 10SM CLR 06/M02 A2967 RMK AO2 SLP048 T00611022=
201203112353 METAR KCLM 112353Z AUTO 26013KT 10SM SCT042 BKN055 06/M01 A2967 RMK AO2 SLP048 60000 T00561006 10083 20044 51012=
201203112253 METAR KCLM 112253Z AUTO 28010KT 10SM CLR 07/01 A2966 RMK AO2 RAE03 SLP046 P0000 T00720006=
201203112153 METAR KCLM 112153Z AUTO 26010KT 10SM -RA BKN034 BKN047 OVC055 05/01 A2966 RMK AO2 RAB46 SLP044 P0000 T00500006=
201203112053 METAR KCLM 112053Z AUTO 26011KT 10SM FEW110 07/00 A2963 RMK AO2 SLP036 T00720000 51019=
201203111953 METAR KCLM 111953Z AUTO 25009KT 10SM SCT100 07/M01 A2962 RMK AO2 PK WND 25026/1858 WSHFT 1847 SLP032 T00671006=
201203111907 SPECI KCLM 111907Z AUTO 25013G26KT 10SM FEW032 BKN045 BKN060 07/00 A2961 RMK AO2 PK WND 25026/1858 WSHFT 1847=
201203111907 SPECI KCLM 111907Z AUTO 25013G26KT 10SM FEW032 BKN045 BKN060 07/00 A2961 RMK AO2 PK WND 25026/1858 WSHFT 1847=
201203111853 METAR KCLM 111853Z AUTO 29013G17KT 10SM FEW030 BKN055 08/02 A2960 RMK AO2 SLP025 T00780017=
201203111753 METAR KCLM 111753Z AUTO 31008KT 10SM FEW029 07/01 A2958 RMK AO2 SLP017 60000 T00720011 10072 20022 51008=
201203111653 METAR KCLM 111653Z AUTO 27012G21KT 10SM CLR 07/01 A2957 RMK AO2 SLP016 T00670006=
201203111553 METAR KCLM 111553Z AUTO 26006KT 10SM FEW085 04/01 A2956 RMK AO2 SLP011 T00440006=
201203111453 METAR KCLM 111453Z AUTO 24011KT 10SM CLR 04/01 A2955 RMK AO2 SLP008 60000 T00440006 53003=
201203111353 METAR KCLM 111353Z AUTO 27005KT 10SM FEW030 BKN044 BKN070 04/01 A2955 RMK AO2 RAB37E50 SLP007 P0000 T00440011=
201203111319 SPECI KCLM 111319Z AUTO 00000KT 10SM SCT023 BKN035 BKN044 04/02 A2954 RMK AO2=
201203111319 SPECI KCLM 111319Z AUTO 00000KT 10SM SCT023 BKN035 BKN044 04/02 A2954 RMK AO2=
201203111253 METAR KCLM 111253Z AUTO 27005KT 10SM BKN015 BKN022 OVC070 04/02 A2954 RMK AO2 SLP005 T00440022=
201203111226 SPECI KCLM 111226Z AUTO 24004KT 10SM SCT017 BKN022 BKN029 04/02 A2954 RMK AO2=
201203111226 SPECI KCLM 111226Z AUTO 24004KT 10SM SCT017 BKN022 BKN029 04/02 A2954 RMK AO2=
201203111153 METAR KCLM 111153Z AUTO 00000KT 10SM SCT095 03/02 A2954 RMK AO2 RAE1055 SLP006 P0000 60000 T00330017 10067 20028 58005=
201203111053 METAR KCLM 111053Z AUTO 00000KT 10SM -RA FEW035 OVC048 05/03 A2955 RMK AO2 RAB33 SLP010 P0000 T00500028=
201203111020 SPECI KCLM 111020Z AUTO 21003KT 10SM SCT023 BKN038 OVC070 05/03 A2956 RMK AO2=
201203111020 SPECI KCLM 111020Z AUTO 21003KT 10SM SCT023 BKN038 OVC070 05/03 A2956 RMK AO2=
201203111003 SPECI KCLM 111003Z AUTO 00000KT 10SM SCT021 BKN027 OVC047 05/03 A2956 RMK AO2=
201203111003 SPECI KCLM 111003Z AUTO 00000KT 10SM SCT021 BKN027 OVC047 05/03 A2956 RMK AO2=
201203110953 METAR KCLM 110953Z AUTO 24004KT 10SM SCT021 BKN047 04/03 A2957 RMK AO2 SLP014 T00390028=
201203110853 METAR KCLM 110853Z AUTO 15004KT 10SM FEW021 03/02 A2956 RMK AO2 RAB0759E11 SLP011 P0000 60000 T00330017 58008=
201203110753 METAR KCLM 110753Z AUTO 18005KT 10SM FEW030 SCT037 OVC060 04/03 A2958 RMK AO2 SLP016 T00440028 400890028=
201203110653 METAR KCLM 110653Z AUTO 00000KT 10SM FEW007 04/03 A2958 RMK AO2 SLP018 T00440028=
201203110649 SPECI KCLM 110649Z AUTO 00000KT 9SM SCT007 04/02 A2958 RMK AO2=
201203110649 SPECI KCLM 110649Z AUTO 00000KT 9SM SCT007 04/02 A2958 RMK AO2=
201203110628 SPECI KCLM 110628Z AUTO 19004KT 9SM BKN007 04/03 A2959 RMK AO2=
201203110628 SPECI KCLM 110628Z AUTO 19004KT 9SM BKN007 04/03 A2959 RMK AO2=
201203110617 SPECI KCLM 110617Z AUTO 15005KT 8SM SCT007 04/03 A2959 RMK AO2=
201203110617 SPECI KCLM 110617Z AUTO 15005KT 8SM SCT007 04/03 A2959 RMK AO2=
201203110551 METAR KCLM 110551Z AUTO 00000KT 4SM BR BKN007 03/02 A2959 RMK AO2 SLP023 60000 T00330017 10067 20033 55012=
201203110550 SPECI KCLM 110550Z AUTO 00000KT 4SM BR BKN007 03/02 A2959 RMK AO2=
201203110550 SPECI KCLM 110550Z AUTO 00000KT 4SM BR BKN007 03/02 A2959 RMK AO2=
201203110538 SPECI KCLM 110538Z AUTO 00000KT 2 1/2SM BR FEW005 03/02 A2959 RMK AO2=
201203110538 SPECI KCLM 110538Z AUTO 00000KT 2 1/2SM BR FEW005 03/02 A2959 RMK AO2=
201203110453 METAR KCLM 110453Z AUTO 00000KT 8SM FEW055 05/03 A2959 RMK AO2 RAE19 SLP022 P0000 T00500028=
201203110353 METAR KCLM 110353Z AUTO 00000KT 10SM -RA OVC047 06/04 A2961 RMK AO2 RAB36 SLP030 P0000 T00610039=
201203110253 METAR KCLM 110253Z AUTO 16004KT 10SM FEW012 BKN050 OVC075 06/03 A2963 RMK AO2 RAE03 SLP034 P0000 60000 T00560033 58020=
201203110238 SPECI KCLM 110238Z AUTO 18003KT 10SM BKN012 OVC055 06/03 A2964 RMK AO2 RAE03 P0000=
201203110238 SPECI KCLM 110238Z AUTO 18003KT 10SM BKN012 OVC055 06/03 A2964 RMK AO2 RAE03 P0000=
201203110153 METAR KCLM 110153Z AUTO 13003KT 10SM -RA FEW014 BKN047 OVC055 06/04 A2966 RMK AO2 RAB07 SLP044 P0000 T00610039=
201203110110 SPECI KCLM 110110Z AUTO 00000KT 10SM -RA SCT010 SCT017 OVC047 07/03 A2968 RMK AO2 RAB07 P0000=
201203110110 SPECI KCLM 110110Z AUTO 00000KT 10SM -RA SCT010 SCT017 OVC047 07/03 A2968 RMK AO2 RAB07 P0000=
201203110053 METAR KCLM 110053Z AUTO 33003KT 10SM BKN010 OVC065 07/03 A2969 RMK AO2 SLP055 T00670033=
201203110041 SPECI KCLM 110041Z AUTO 00000KT 10SM SCT010 OVC070 07/04 A2969 RMK AO2=
201203110041 SPECI KCLM 110041Z AUTO 00000KT 10SM SCT010 OVC070 07/04 A2969 RMK AO2=
201203110022 SPECI KCLM 110022Z AUTO 00000KT 10SM BKN010 OVC070 07/03 A2969 RMK AO2=
201203110022 SPECI KCLM 110022Z AUTO 00000KT 10SM BKN010 OVC070 07/03 A2969 RMK AO2=
201203102353 METAR KCLM 102353Z AUTO 00000KT 10SM SCT014 SCT060 OVC070 07/04 A2969 RMK AO2 SLP057 T00720039 10089 20061 56034=
201203102315 SPECI KCLM 102315Z AUTO 10005KT 10SM OVC014 07/03 A2972 RMK AO2=
201203102315 SPECI KCLM 102315Z AUTO 10005KT 10SM OVC014 07/03 A2972 RMK AO2=
201203102253 METAR KCLM 102253Z AUTO 11006KT 10SM BKN016 07/03 A2973 RMK AO2 SLP068 T00670028=
201203102153 METAR KCLM 102153Z AUTO 10006KT 10SM BKN020 BKN043 BKN050 07/03 A2976 RMK AO2 SLP079 T00720028=
201203102053 METAR KCLM 102053Z AUTO VRB06KT 10SM BKN015 BKN021 OVC055 08/03 A2979 RMK AO2 SLP091 T00830033 58015=
201203102018 SPECI KCLM 102018Z AUTO 07005KT 10SM SCT015 BKN023 BKN055 08/03 A2981 RMK AO2=
201203102018 SPECI KCLM 102018Z AUTO 07005KT 10SM SCT015 BKN023 BKN055 08/03 A2981 RMK AO2=
201203102004 SPECI KCLM 102004Z AUTO 12005KT 10SM SCT013 SCT021 BKN055 08/03 A2981 RMK AO2=
201203102004 SPECI KCLM 102004Z AUTO 12005KT 10SM SCT013 SCT021 BKN055 08/03 A2981 RMK AO2=
201203101953 METAR KCLM 101953Z AUTO 00000KT 10SM BKN013 BKN020 BKN090 07/03 A2982 RMK AO2 SLP098 T00720028=
201203101925 SPECI KCLM 101925Z AUTO VRB05KT 10SM BKN011 BKN025 BKN070 07/03 A2982 RMK AO2=
201203101925 SPECI KCLM 101925Z AUTO VRB05KT 10SM BKN011 BKN025 BKN070 07/03 A2982 RMK AO2=
201203101901 SPECI KCLM 101901Z AUTO 00000KT 10SM FEW012 SCT025 BKN070 07/03 A2983 RMK AO2=
201203101901 SPECI KCLM 101901Z AUTO 00000KT 10SM FEW012 SCT025 BKN070 07/03 A2983 RMK AO2=
201203101853 METAR KCLM 101853Z AUTO 00000KT 10SM FEW011 BKN025 07/03 A2984 RMK AO2 SLP105 T00670028=
201203101851 SPECI KCLM 101851Z AUTO 00000KT 10SM FEW011 BKN025 07/03 A2984 RMK AO2=
201203101851 SPECI KCLM 101851Z AUTO 00000KT 10SM FEW011 BKN025 07/03 A2984 RMK AO2=
201203101820 SPECI KCLM 101820Z AUTO 36005KT 10SM BKN011 BKN027 BKN032 07/03 A2984 RMK AO2=
201203101820 SPECI KCLM 101820Z AUTO 36005KT 10SM BKN011 BKN027 BKN032 07/03 A2984 RMK AO2=
201203101753 METAR KCLM 101753Z AUTO 35005KT 10SM SCT011 OVC027 07/03 A2984 RMK AO2 SLP108 60000 T00670028 10067 20039 56005=
201203101737 SPECI KCLM 101737Z AUTO 08003KT 10SM FEW009 BKN027 07/03 A2984 RMK AO2=
201203101737 SPECI KCLM 101737Z AUTO 08003KT 10SM FEW009 BKN027 07/03 A2984 RMK AO2=
201203101705 SPECI KCLM 101705Z AUTO 00000KT 10SM FEW009 SCT031 BKN110 06/03 A2984 RMK AO2 $=
201203101705 SPECI KCLM 101705Z AUTO 00000KT 10SM FEW009 SCT031 BKN110 06/03 A2984 RMK AO2 $=
201203101653 METAR KCLM 101653Z AUTO 00000KT 10SM SCT025 BKN065 BKN110 06/03 A2985 RMK AO2 SLP109 T00610028 $=
201203101613 SPECI KCLM 101613Z AUTO 22003KT 10SM BKN023 BKN040 OVC090 05/03 A2986 RMK AO2 $=
201203101613 SPECI KCLM 101613Z AUTO 22003KT 10SM BKN023 BKN040 OVC090 05/03 A2986 RMK AO2 $=
201203101553 METAR KCLM 101553Z AUTO 24003KT 10SM FEW020 BKN040 OVC055 04/03 A2985 RMK AO2 RAE1457 SLP111 P0000 T00440028 $=
201203101516 SPECI KCLM 101516Z AUTO 23003KT 10SM SCT025 BKN040 OVC047 04/02 A2985 RMK AO2 RAE1457 P0000 $=
201203101516 SPECI KCLM 101516Z AUTO 23003KT 10SM SCT025 BKN040 OVC047 04/02 A2985 RMK AO2 RAE1457 P0000 $=
201203101453 METAR KCLM 101453Z AUTO 25003KT 10SM -RA FEW018 BKN026 OVC042 04/02 A2986 RMK AO2 RAB1356 SLP113 P0000 60000 T00390022 56011 $=
201203101406 SPECI KCLM 101406Z AUTO 00000KT 10SM -RA BKN026 OVC038 04/02 A2987 RMK AO2 RAB1356 P0000 $=
201203101406 SPECI KCLM 101406Z AUTO 00000KT 10SM -RA BKN026 OVC038 04/02 A2987 RMK AO2 RAB1356 P0000 $=
201203101353 METAR KCLM 101353Z AUTO 26004KT 10SM SCT026 BKN036 OVC043 04/02 A2987 RMK AO2 RAB1254E15 SLP115 P0000 T00390022 $=
201203101301 SPECI KCLM 101301Z AUTO 25003KT 10SM -RA FEW024 BKN039 OVC049 04/02 A2988 RMK AO2 RAB1254 P0000 $=
201203101301 SPECI KCLM 101301Z AUTO 25003KT 10SM -RA FEW024 BKN039 OVC049 04/02 A2988 RMK AO2 RAB1254 P0000 $=
201203101253 METAR KCLM 101253Z AUTO 25003KT 10SM BKN024 OVC035 04/02 A2988 RMK AO2 RAB01E35 SLP121 P0000 T00390022 $=
201203101153 METAR KCLM 101153Z AUTO 27006KT 10SM BKN024 OVC033 04/02 A2989 RMK AO2 RAE01B32E46 SLP124 P0000 60000 7//// T00390017 10056 20039 58009 $=
201203101053 METAR KCLM 101053Z AUTO 27007KT 10SM -RA OVC020 04/02 A2990 RMK AO2 SLP128 P0000 T00440022 $=
201203101023 SPECI KCLM 101023Z AUTO 27007KT 10SM -RA SCT010 OVC016 04/02 A2991 RMK AO2 P0000 $=
201203101023 SPECI KCLM 101023Z AUTO 27007KT 10SM -RA SCT010 OVC016 04/02 A2991 RMK AO2 P0000 $=
201203101015 SPECI KCLM 101015Z AUTO 28007KT 10SM -RA BKN010 OVC016 04/02 A2991 RMK AO2 CIG 006V013 P0000 $=
201203101015 SPECI KCLM 101015Z AUTO 28007KT 10SM -RA BKN010 OVC016 04/02 A2991 RMK AO2 CIG 006V013 P0000 $=
201203100953 METAR KCLM 100953Z AUTO 28005KT 10SM -RA FEW010 OVC016 04/03 A2992 RMK AO2 SLP133 P0000 T00440028 $=
201203100853 METAR KCLM 100853Z AUTO 26003KT 10SM -RA BKN016 OVC020 04/03 A2992 RMK AO2 SLP133 P0000 60000 T00440028 58019 $=
201203100834 SPECI KCLM 100834Z AUTO 28004KT 10SM -RA SCT009 OVC022 05/03 A2993 RMK AO2 P0000 $=
201203100834 SPECI KCLM 100834Z AUTO 28004KT 10SM -RA SCT009 OVC022 05/03 A2993 RMK AO2 P0000 $=
201203100753 METAR KCLM 100753Z AUTO 27004KT 10SM -RA BKN007 OVC022 05/03 A2995 RMK AO2 CIG 005V010 SLP142 P0000 T00500033 400890033 $=
201203100653 METAR KCLM 100653Z AUTO 29005KT 10SM -RA FEW007 BKN018 OVC024 05/03 A2996 RMK AO2 SLP148 P0000 T00500033 $=
201203100625 SPECI KCLM 100625Z AUTO 28005KT 10SM -RA FEW006 SCT011 OVC016 06/03 A2998 RMK AO2 P0000 $=
201203100625 SPECI KCLM 100625Z AUTO 28005KT 10SM -RA FEW006 SCT011 OVC016 06/03 A2998 RMK AO2 P0000 $=
201203100617 SPECI KCLM 100617Z AUTO 29005KT 10SM -RA SCT008 OVC014 06/03 A2997 RMK AO2 P0000 $=
201203100617 SPECI KCLM 100617Z AUTO 29005KT 10SM -RA SCT008 OVC014 06/03 A2997 RMK AO2 P0000 $=
201203100553 METAR KCLM 100553Z AUTO 29005KT 10SM -RA OVC006 06/04 A2998 RMK AO2 RAB06 CIG 004V012 SLP153 P0000 60000 T00560039 10089 20056 58019 $=
201203100524 SPECI KCLM 100524Z AUTO 30005KT 10SM -RA BKN006 OVC014 06/04 A2999 RMK AO2 RAB06 CIG 004V008 P0000 $=
201203100524 SPECI KCLM 100524Z AUTO 30005KT 10SM -RA BKN006 OVC014 06/04 A2999 RMK AO2 RAB06 CIG 004V008 P0000 $=
201203100509 SPECI KCLM 100509Z AUTO 29005KT 10SM -RA SCT006 OVC014 06/04 A2999 RMK AO2 RAB06 P0000 $=
201203100509 SPECI KCLM 100509Z AUTO 29005KT 10SM -RA SCT006 OVC014 06/04 A2999 RMK AO2 RAB06 P0000 $=
201203100453 METAR KCLM 100453Z AUTO 29005KT 10SM BKN006 OVC014 06/04 A3000 RMK AO2 CIG 004V008 SLP161 T00610044 $=
201203100430 SPECI KCLM 100430Z AUTO 30004KT 10SM BKN006 BKN015 OVC030 06/04 A3000 RMK AO2 CIG 004V010 $=
201203100430 SPECI KCLM 100430Z AUTO 30004KT 10SM BKN006 BKN015 OVC030 06/04 A3000 RMK AO2 CIG 004V010 $=
201203100353 METAR KCLM 100353Z AUTO 27004KT 10SM FEW009 OVC028 07/04 A3002 RMK AO2 SLP167 T00670044 $=
201203100253 METAR KCLM 100253Z AUTO 26003KT 10SM SCT005 OVC020 07/05 A3003 RMK AO2 RAE49 SLP172 P0000 60000 T00670050 58015 $=
201203100220 SPECI KCLM 100220Z AUTO 00000KT 10SM -RA SCT004 OVC015 07/05 A3005 RMK AO2 P0000 $=
201203100220 SPECI KCLM 100220Z AUTO 00000KT 10SM -RA SCT004 OVC015 07/05 A3005 RMK AO2 P0000 $=
201203100153 METAR KCLM 100153Z AUTO 31003KT 10SM -RA BKN004 OVC013 07/05 A3005 RMK AO2 CIG 003V007 SLP178 P0000 T00670050 $=
201203100053 METAR KCLM 100053Z AUTO 31005KT 10SM -RA BKN004 OVC010 07/05 A3007 RMK AO2 RAB46 SLP186 P0000 T00720050 $=
201203100039 SPECI KCLM 100039Z AUTO 32006KT 10SM BKN006 OVC014 08/05 A3008 RMK AO2 CIG 004V009 $=
201203100039 SPECI KCLM 100039Z AUTO 32006KT 10SM BKN006 OVC014 08/05 A3008 RMK AO2 CIG 004V009 $=
201203100032 SPECI KCLM 100032Z AUTO 00000KT 10SM BKN011 OVC016 08/05 A3008 RMK AO2 $=
201203100032 SPECI KCLM 100032Z AUTO 00000KT 10SM BKN011 OVC016 08/05 A3008 RMK AO2 $=
201203100013 SPECI KCLM 100013Z AUTO 34003KT 10SM BKN016 OVC065 08/04 A3008 RMK AO2 $=
201203100013 SPECI KCLM 100013Z AUTO 34003KT 10SM BKN016 OVC065 08/04 A3008 RMK AO2 $=
201203092353 METAR KCLM 092353Z AUTO 00000KT 10SM FEW047 OVC065 09/04 A3008 RMK AO2 SLP187 6//// T00890039 10089 20078 56012 $=
201203092253 METAR KCLM 092253Z AUTO 00000KT 10SM 08/04 A3009 RMK AO2 SLP191 T00830039 $=
201203092229 SPECI KCLM 092229Z AUTO 33003KT 10SM SCT007 BKN065 08/05 A3009 RMK AO2=
201203092229 SPECI KCLM 092229Z AUTO 33003KT 10SM SCT007 BKN065 08/05 A3009 RMK AO2=
201203092221 SPECI KCLM 092221Z AUTO 34004KT 10SM BKN007 BKN050 BKN065 08/06 A3009 RMK AO2=
201203092221 SPECI KCLM 092221Z AUTO 34004KT 10SM BKN007 BKN050 BKN065 08/06 A3009 RMK AO2=
201203092153 METAR KCLM 092153Z AUTO VRB04KT 10SM SCT006 SCT033 BKN042 08/06 A3009 RMK AO2 RAE30 SLP192 P0000 T00780056=
201203092053 METAR KCLM 092053Z AUTO 00000KT 10SM -RA FEW040 BKN050 OVC070 08/05 A3011 RMK AO2 RAB51 SLP200 P0000 60000 T00830050 56014=
201203091953 METAR KCLM 091953Z AUTO 08004KT 10SM FEW009 OVC085 08/05 A3013 RMK AO2 SLP203 T00830050=
201203091935 SPECI KCLM 091935Z AUTO VRB03KT 10SM SCT009 OVC080 08/05 A3013 RMK AO2=
201203091935 SPECI KCLM 091935Z AUTO VRB03KT 10SM SCT009 OVC080 08/05 A3013 RMK AO2=
201203091853 METAR KCLM 091853Z AUTO 12004KT 10SM OVC080 08/06 A3014 RMK AO2 SLP209 T00830056=
201203091753 METAR KCLM 091753Z AUTO 00000KT 10SM FEW004 BKN041 OVC055 08/06 A3015 RMK AO2 SLP213 T00830056 10089 20044 50003=
201203091726 SPECI KCLM 091726Z AUTO 00000KT 10SM SCT004 BKN049 OVC080 08/06 A3016 RMK AO2=
201203091726 SPECI KCLM 091726Z AUTO 00000KT 10SM SCT004 BKN049 OVC080 08/06 A3016 RMK AO2=
201203091653 METAR KCLM 091653Z AUTO 00000KT 10SM BKN055 OVC070 09/04 A3016 RMK AO2 SLP215 T00890039=
201203091553 METAR KCLM 091553Z AUTO 00000KT 10SM SCT050 BKN070 OVC080 07/04 A3016 RMK AO2 SLP214 T00670039=
201203091453 METAR KCLM 091453Z AUTO 00000KT 10SM OVC060 06/03 A3015 RMK AO2 SLP210 T00610028 55003=
201203091353 METAR KCLM 091353Z AUTO 00000KT 10SM BKN075 06/03 A3014 RMK AO2 SLP208 T00560028=
201203091253 METAR KCLM 091253Z AUTO 16004KT 10SM CLR 05/02 A3015 RMK AO2 SLP211 T00500022=
201203091153 METAR KCLM 091153Z AUTO 15008KT 10SM CLR 06/03 A3016 RMK AO2 SLP214 T00610033 10067 20028 58009=
201203091053 METAR KCLM 091053Z AUTO 14005KT 10SM CLR 05/02 A3017 RMK AO2 SLP217 T00500022=
201203090953 METAR KCLM 090953Z AUTO 00000KT 10SM CLR 04/02 A3018 RMK AO2 SLP222 T00440017=
201203090853 METAR KCLM 090853Z AUTO 00000KT 10SM CLR 06/02 A3018 RMK AO2 SLP223 T00610017 53005=
201203090753 METAR KCLM 090753Z AUTO 23006KT 10SM CLR 05/01 A3018 RMK AO2 SLP220 T00500011 400831017=
201203090653 METAR KCLM 090653Z AUTO 21003KT 10SM CLR 05/01 A3016 RMK AO2 SLP216 T00500011=
201203090553 METAR KCLM 090553Z AUTO 26007KT 10SM CLR 04/01 A3017 RMK AO2 SLP218 T00390011 10083 20028 53000=
201203090453 METAR KCLM 090453Z AUTO 23003KT 10SM CLR 04/02 A3017 RMK AO2 SLP217 T00390017=
201203090353 METAR KCLM 090353Z AUTO 24004KT 10SM CLR 04/01 A3016 RMK AO2 SLP216 T00390011=
201203090253 METAR KCLM 090253Z AUTO 00000KT 10SM CLR 06/02 A3017 RMK AO2 SLP218 T00560017 53005=
201203090153 METAR KCLM 090153Z AUTO 00000KT 10SM CLR 06/02 A3016 RMK AO2 SLP215 T00610017=
201203090053 METAR KCLM 090053Z AUTO 08005KT 10SM CLR 08/02 A3014 RMK AO2 SLP209 T00830017=
201203082353 METAR KCLM 082353Z AUTO VRB03KT 10SM CLR 08/01 A3015 RMK AO2 SLP212 T00830011 10083 20056 56020=
201203082253 METAR KCLM 082253Z AUTO 10004KT 10SM CLR 07/02 A3016 RMK AO2 SLP216 T00720017=
201203082153 METAR KCLM 082153Z AUTO VRB03KT 10SM CLR 08/02 A3018 RMK AO2 SLP221 T00780017=
201203082053 METAR KCLM 082053Z AUTO 05005KT 10SM CLR 07/01 A3021 RMK AO2 SLP232 T00720011 56021=
201203081953 METAR KCLM 081953Z AUTO 05008KT 020V080 10SM CLR 07/02 A3023 RMK AO2 SLP238 T00720017=
201203081853 METAR KCLM 081853Z AUTO 07007KT 040V110 10SM FEW013 06/01 A3025 RMK AO2 SLP247 T00610011=
201203081753 METAR KCLM 081753Z AUTO 07006KT 10SM CLR 06/01 A3027 RMK AO2 SLP253 T00610011 10061 21017 56009=
201203081653 METAR KCLM 081653Z AUTO 09007KT 10SM CLR 05/00 A3028 RMK AO2 SLP256 T00500000=
201203081553 METAR KCLM 081553Z AUTO 10004KT 10SM CLR 03/M02 A3028 RMK AO2 SLP257 T00331017=
201203081453 METAR KCLM 081453Z AUTO 12005KT 10SM CLR 01/M02 A3030 RMK AO2 SLP263 T00111022 56018=
201203081353 METAR KCLM 081353Z AUTO 13005KT 10SM CLR M01/M03 A3031 RMK AO2 SLP268 T10061028=
201203081253 METAR KCLM 081253Z AUTO 13004KT 10SM CLR 00/M03 A3033 RMK AO2 SLP273 T00001028=
201203081153 METAR KCLM 081153Z AUTO 13004KT 10SM CLR 01/M02 A3035 RMK AO2 SLP280 T00111017 10017 21011 56017=
201203081053 METAR KCLM 081053Z AUTO 13004KT 10SM CLR 00/M02 A3037 RMK AO2 SLP286 T00001022=
201203080953 METAR KCLM 080953Z AUTO 00000KT 10SM CLR 01/M02 A3039 RMK AO2 SLP292 T00061017 TSNO=
201203080853 METAR KCLM 080853Z AUTO 00000KT 10SM CLR 01/M01 A3040 RMK AO2 SLP298 T00111011 56014=
201203080753 METAR KCLM 080753Z AUTO 23003KT 10SM CLR 01/M02 A3041 RMK AO2 SLP300 T00061017 400831011=
201203080653 METAR KCLM 080653Z AUTO 00000KT 10SM CLR 01/M02 A3042 RMK AO2 SLP302 T00061017=
201203080553 METAR KCLM 080553Z AUTO 00000KT 10SM CLR 01/M02 A3045 RMK AO2 SLP312 T00111017 10078 20006 56008=
201203080453 METAR KCLM 080453Z AUTO 00000KT 10SM CLR 02/M01 A3045 RMK AO2 SLP316 T00171011=
201203080353 METAR KCLM 080353Z AUTO 00000KT 10SM OVC036 06/00 A3045 RMK AO2 SLP315 T00560000=
201203080253 METAR KCLM 080253Z AUTO 00000KT 10SM OVC038 06/00 A3047 RMK AO2 SLP320 T00610000 53002=
201203080153 METAR KCLM 080153Z AUTO 09003KT 10SM OVC038 07/M01 A3045 RMK AO2 SLP314 T00671006=
201203080053 METAR KCLM 080053Z AUTO 08004KT 10SM OVC040 07/M01 A3046 RMK AO2 SLP317 T00721011=
201203072353 METAR KCLM 072353Z AUTO 09005KT 10SM FEW040 08/M01 A3046 RMK AO2 SLP318 T00781006 10083 20061 53005=
201203072253 METAR KCLM 072253Z AUTO 09004KT 10SM CLR 08/M01 A3046 RMK AO2 SLP316 T00831006=
201203072153 METAR KCLM 072153Z AUTO 00000KT 10SM CLR 07/M01 A3045 RMK AO2 SLP315 T00721006=
201203072053 METAR KCLM 072053Z AUTO VRB05KT 10SM CLR 07/00 A3045 RMK AO2 SLP313 T00720000 58001=
201203071953 METAR KCLM 071953Z AUTO VRB04KT 10SM CLR 07/M01 A3046 RMK AO2 SLP316 T00721006=
201203071853 METAR KCLM 071853Z AUTO 02003KT 10SM CLR 07/M02 A3045 RMK AO2 SLP313 T00671022=
201203071753 METAR KCLM 071753Z AUTO 26004KT 10SM CLR 07/M04 A3045 RMK AO2 SLP314 T00671044 10067 20006 50014=
201203071653 METAR KCLM 071653Z AUTO 25010KT 10SM CLR 04/M04 A3045 RMK AO2 SLP316 T00391044=
201203071553 METAR KCLM 071553Z AUTO 26008KT 10SM BKN065 02/M05 A3043 RMK AO2 SLP307 T00171050=
201203071453 METAR KCLM 071453Z AUTO 24009KT 10SM SCT070 01/M05 A3041 RMK AO2 SLP301 T00111050 53013=
201203071353 METAR KCLM 071353Z AUTO 24009KT 10SM CLR 01/M05 A3038 RMK AO2 SLP291 T00061050=
201203071253 METAR KCLM 071253Z AUTO 24009KT 10SM CLR 01/M04 A3038 RMK AO2 SLP288 T00111044=
201203071153 METAR KCLM 071153Z AUTO 25010KT 10SM CLR 02/M05 A3037 RMK AO2 SLP287 T00171050 10028 20017 53004=
201203071053 METAR KCLM 071053Z AUTO 25009KT 10SM CLR 02/M04 A3036 RMK AO2 SLP284 T00171044=
201203070953 METAR KCLM 070953Z AUTO 24011KT 10SM CLR 02/M04 A3037 RMK AO2 SLP285 T00171044=
201203070853 METAR KCLM 070853Z AUTO 24009KT 10SM CLR 02/M04 A3036 RMK AO2 SLP282 T00221039 51007=
201203070753 METAR KCLM 070753Z AUTO 24010KT 10SM CLR 02/M04 A3035 RMK AO2 SLP280 T00221039 400670006=
201203070653 METAR KCLM 070653Z AUTO 25009KT 10SM FEW085 03/M04 A3035 RMK AO2 SLP280 T00281039=
201203070553 METAR KCLM 070553Z AUTO 25010KT 10SM CLR 02/M03 A3034 RMK AO2 SLP276 T00221033 10061 20006 50013=
201203070453 METAR KCLM 070453Z AUTO 25006KT 10SM CLR 02/M03 A3034 RMK AO2 SLP277 T00221033=
201203070353 METAR KCLM 070353Z AUTO 25006KT 10SM CLR 01/M04 A3031 RMK AO2 SLP267 T00111039=
201203070253 METAR KCLM 070253Z AUTO 00000KT 10SM CLR 01/M04 A3030 RMK AO2 SLP263 T00061044 51015=
201203070153 METAR KCLM 070153Z AUTO 00000KT 10SM CLR 03/M06 A3029 RMK AO2 SLP260 T00331061=
201203070053 METAR KCLM 070053Z AUTO 04003KT 10SM CLR 06/M06 A3028 RMK AO2 SLP255 T00611056=
201203062353 METAR KCLM 062353Z AUTO VRB04KT 10SM CLR 06/M06 A3025 RMK AO2 SLP247 T00611056 10067 20039 53013=
201203062253 METAR KCLM 062253Z AUTO VRB04KT 10SM FEW050 06/M07 A3024 RMK AO2 SLP242 T00611067=
201203062153 METAR KCLM 062153Z AUTO VRB03KT 10SM CLR 06/M06 A3023 RMK AO2 SLP237 T00611061=
201203062053 METAR KCLM 062053Z AUTO 00000KT 10SM CLR 05/M07 A3021 RMK AO2 SLP234 T00501067 51021=
201203061953 METAR KCLM 061953Z AUTO 01003KT 10SM CLR 06/M06 A3021 RMK AO2 SLP233 T00561056=
201203061853 METAR KCLM 061853Z AUTO 05006KT 10SM FEW050 04/M07 A3018 RMK AO2 SLP223 T00391072=
201203061753 METAR KCLM 061753Z AUTO 04003KT 10SM OVC050 04/M07 A3015 RMK AO2 SLP212 T00391072 10044 20017 51025=
201203061653 METAR KCLM 061653Z AUTO 00000KT 10SM OVC050 04/M07 A3014 RMK AO2 SLP209 T00391067=
201203061553 METAR KCLM 061553Z AUTO 00000KT 10SM BKN048 OVC060 02/M03 A3011 RMK AO2 SLP199 T00221033=
201203061453 METAR KCLM 061453Z AUTO 23005KT 10SM BKN050 OVC065 02/M03 A3008 RMK AO2 SLP187 T00171033 51030=
201203061353 METAR KCLM 061353Z AUTO 00000KT 10SM OVC060 02/M04 A3005 RMK AO2 SLP178 T00171039=
201203061253 METAR KCLM 061253Z AUTO 24004KT 10SM OVC050 03/M05 A3001 RMK AO2 SLP166 T00281050=
201203061153 METAR KCLM 061153Z AUTO 26007KT 10SM OVC060 03/M04 A2999 RMK AO2 SLP156 60000 70015 T00281044 10033 20022 53019=
201203061053 METAR KCLM 061053Z AUTO 25007KT 10SM OVC050 03/M04 A2996 RMK AO2 SLP148 T00281044=
201203060953 METAR KCLM 060953Z AUTO 26005KT 10SM OVC034 02/M03 A2995 RMK AO2 SNB05E15 SLP143 P0000 T00221033=
201203060853 METAR KCLM 060853Z AUTO 29010G22KT 8SM BKN036 BKN042 OVC049 03/M05 A2993 RMK AO2 SLP136 T00281050 53023=
201203060753 METAR KCLM 060753Z AUTO 24010KT 10SM BKN060 BKN075 BKN095 02/M03 A2989 RMK AO2 SLP124 T00221033 400780022=
201203060653 METAR KCLM 060653Z AUTO 25012G16KT 10SM FEW080 03/M04 A2987 RMK AO2 SLP117 T00281039=
201203060553 METAR KCLM 060553Z AUTO 24009G16KT 10SM FEW100 03/M04 A2986 RMK AO2 SLP112 T00331044 10078 20033 53011=
201203060453 METAR KCLM 060453Z AUTO 24010G18KT 10SM FEW043 SCT070 03/M04 A2984 RMK AO2 SLP106 T00331039=
201203060353 METAR KCLM 060353Z AUTO 24011KT 10SM BKN048 BKN065 03/M04 A2984 RMK AO2 SLP105 T00331039=
201203060253 METAR KCLM 060253Z AUTO 27011G20KT 10SM FEW045 SCT060 04/M05 A2983 RMK AO2 SLP101 T00441050 51011=
201203060153 METAR KCLM 060153Z AUTO 28012KT 10SM CLR 04/M06 A2982 RMK AO2 SLP100 T00441056=
201203060053 METAR KCLM 060053Z AUTO 28011KT 10SM CLR 06/M06 A2981 RMK AO2 SLP095 T00611056=
201203052353 METAR KCLM 052353Z AUTO 28015G22KT 10SM FEW050 08/M05 A2979 RMK AO2 PK WND 25027/2335 SLP090 T00781050 10078 20056 51018=
201203052253 METAR KCLM 052253Z AUTO 29016G24KT 10SM CLR 08/M06 A2978 RMK AO2 PK WND 31028/2155 SLP085 T00781056=
201203052153 METAR KCLM 052153Z AUTO 29015G24KT 10SM CLR 08/M05 A2976 RMK AO2 PK WND 29027/2137 SLP079 T00781050=
201203052053 METAR KCLM 052053Z AUTO 28018G28KT 10SM CLR 08/M05 A2974 RMK AO2 PK WND 29032/2033 SLP072 T00781050 53005=
201203051953 METAR KCLM 051953Z AUTO 29020G31KT 10SM CLR 07/M02 A2972 RMK AO2 PK WND 29031/1953 SLP066 T00721022=
201203051853 METAR KCLM 051853Z AUTO 31014KT 10SM CLR 07/01 A2972 RMK AO2 SLP066 T00720006=
201203051753 METAR KCLM 051753Z AUTO 30014G21KT 10SM OVC070 06/01 A2973 RMK AO2 SLP068 60015 T00610011 10072 20039 51008=
201203051653 METAR KCLM 051653Z AUTO 28014KT 10SM FEW055 OVC070 05/01 A2972 RMK AO2 RAE33 SLP066 P0002 T00500011=
201203051637 SPECI KCLM 051637Z AUTO 28017G23KT 7SM SCT007 BKN039 OVC070 04/02 A2972 RMK AO2 RAE33 P0002=
201203051637 SPECI KCLM 051637Z AUTO 28017G23KT 7SM SCT007 BKN039 OVC070 04/02 A2972 RMK AO2 RAE33 P0002=
201203051553 METAR KCLM 051553Z AUTO 29011KT 4SM -RA BR SCT009 OVC014 04/02 A2971 RMK AO2 SLP064 P0005 T00390017=
201203051453 METAR KCLM 051453Z AUTO 31016G23KT 6SM -RA BR BKN005 BKN010 OVC036 06/04 A2970 RMK AO2 SLP059 P0005 60008 T00560039 55017=
201203051446 SPECI KCLM 051446Z AUTO 32011G23KT 5SM -RA BR BKN005 BKN021 OVC036 06/04 A2970 RMK AO2 P0004=
201203051446 SPECI KCLM 051446Z AUTO 32011G23KT 5SM -RA BR BKN005 BKN021 OVC036 06/04 A2970 RMK AO2 P0004=
201203051353 METAR KCLM 051353Z AUTO 16005KT 8SM -RA FEW004 SCT011 OVC034 07/05 A2969 RMK AO2 SLP054 P0003 T00670050=
201203051253 METAR KCLM 051253Z AUTO 28003KT 7SM -RA FEW006 OVC040 07/04 A2974 RMK AO2 SLP072 P0000 T00670044=
201203051153 METAR KCLM 051153Z AUTO 12005KT 10SM -RA OVC038 07/05 A2975 RMK AO2 PRESFR SLP076 P0001 60001 70001 T00670050 10078 20050 58028=
201203051132 SPECI KCLM 051132Z AUTO VRB03KT 9SM -RA FEW005 OVC036 07/06 A2978 RMK AO2 P0000=
201203051132 SPECI KCLM 051132Z AUTO VRB03KT 9SM -RA FEW005 OVC036 07/06 A2978 RMK AO2 P0000=
201203051117 SPECI KCLM 051117Z AUTO 25008KT 8SM -RA SCT005 BKN025 OVC036 07/05 A2980 RMK AO2 P0000=
201203051117 SPECI KCLM 051117Z AUTO 25008KT 8SM -RA SCT005 BKN025 OVC036 07/05 A2980 RMK AO2 P0000=
201203051102 SPECI KCLM 051102Z AUTO 25005KT 6SM -RA BR BKN005 BKN028 OVC038 07/05 A2981 RMK AO2 P0000=
201203051102 SPECI KCLM 051102Z AUTO 25005KT 6SM -RA BR BKN005 BKN028 OVC038 07/05 A2981 RMK AO2 P0000=
201203051053 METAR KCLM 051053Z AUTO 28003KT 7SM -RA FEW005 SCT028 OVC038 07/05 A2981 RMK AO2 SLP095 P0000 T00670050=
201203051048 SPECI KCLM 051048Z AUTO 00000KT 7SM -RA FEW003 OVC038 07/04 A2981 RMK AO2 P0000=
201203051048 SPECI KCLM 051048Z AUTO 00000KT 7SM -RA FEW003 OVC038 07/04 A2981 RMK AO2 P0000=
201203050953 METAR KCLM 050953Z AUTO 13007KT 10SM -RA OVC046 08/05 A2983 RMK AO2 RAB16 SLP103 P0000 T00780050=
201203050853 METAR KCLM 050853Z AUTO 13004KT 10SM SCT060 BKN075 OVC090 06/04 A2987 RMK AO2 SLP116 T00610044 58025=
201203050753 METAR KCLM 050753Z AUTO 00000KT 10SM BKN090 BKN110 06/04 A2990 RMK AO2 SLP128 T00560039 401000044=
201203050653 METAR KCLM 050653Z AUTO 00000KT 10SM SCT100 06/04 A2993 RMK AO2 SLP136 T00610039=
201203050601 SPECI KCLM 050601Z AUTO 00000KT 10SM SCT016 BKN110 06/04 A2994 RMK AO2=
201203050601 SPECI KCLM 050601Z AUTO 00000KT 10SM SCT016 BKN110 06/04 A2994 RMK AO2=
201203050553 METAR KCLM 050553Z AUTO 11004KT 10SM BKN016 BKN110 07/04 A2994 RMK AO2 SLP141 T00670044 10083 20067 58017=
201203050501 SPECI KCLM 050501Z AUTO 00000KT 10SM BKN016 07/04 A2997 RMK AO2=
201203050501 SPECI KCLM 050501Z AUTO 00000KT 10SM BKN016 07/04 A2997 RMK AO2=
201203050453 METAR KCLM 050453Z AUTO 00000KT 10SM SCT016 BKN065 07/04 A2996 RMK AO2 SLP147 T00720044=
201203050353 METAR KCLM 050353Z AUTO 16003KT 10SM FEW060 BKN075 BKN100 07/04 A2998 RMK AO2 SLP153 T00720044=
201203050253 METAR KCLM 050253Z AUTO 13005KT 10SM BKN034 OVC060 07/05 A2999 RMK AO2 SLP159 T00720050 58030=
201203050236 SPECI KCLM 050236Z AUTO 14006KT 10SM FEW017 OVC032 08/05 A3000 RMK AO2=
201203050236 SPECI KCLM 050236Z AUTO 14006KT 10SM FEW017 OVC032 08/05 A3000 RMK AO2=
201203050153 METAR KCLM 050153Z AUTO 13005KT 10SM OVC017 07/05 A3002 RMK AO2 SLP169 T00720050=
201203050139 SPECI KCLM 050139Z AUTO 12005KT 10SM SCT008 OVC015 08/05 A3003 RMK AO2=
201203050139 SPECI KCLM 050139Z AUTO 12005KT 10SM SCT008 OVC015 08/05 A3003 RMK AO2=
201203050053 METAR KCLM 050053Z AUTO 12003KT 10SM BKN008 OVC012 08/06 A3006 RMK AO2 CIG 007V011 SLP182 T00830056=
201203042353 METAR KCLM 042353Z AUTO 00000KT 10SM BKN010 OVC036 08/06 A3008 RMK AO2 RAE03 SLP189 P0000 60000 T00830056 10100 20083 56030=
201203042321 SPECI KCLM 042321Z AUTO 03004KT 10SM BKN010 BKN027 OVC080 09/06 A3010 RMK AO2 RAE03 P0000=
201203042321 SPECI KCLM 042321Z AUTO 03004KT 10SM BKN010 BKN027 OVC080 09/06 A3010 RMK AO2 RAE03 P0000=
201203042300 SPECI KCLM 042300Z AUTO 04003KT 10SM -RA SCT023 BKN070 OVC090 08/06 A3011 RMK AO2 P0000=
201203042300 SPECI KCLM 042300Z AUTO 04003KT 10SM -RA SCT023 BKN070 OVC090 08/06 A3011 RMK AO2 P0000=
201203042253 METAR KCLM 042253Z AUTO 02004KT 10SM -RA BKN020 BKN034 OVC070 09/06 A3011 RMK AO2 RAB31 SLP198 P0000 T00890056=
201203042153 METAR KCLM 042153Z AUTO 08004KT 10SM SCT011 OVC018 09/06 A3013 RMK AO2 RAB29E39 SLP206 P0000 T00890056=
201203042132 SPECI KCLM 042132Z AUTO 11006KT 10SM -RA OVC013 08/06 A3014 RMK AO2 RAB29 P0000=
201203042132 SPECI KCLM 042132Z AUTO 11006KT 10SM -RA OVC013 08/06 A3014 RMK AO2 RAB29 P0000=
201203042053 METAR KCLM 042053Z AUTO 00000KT 10SM OVC017 08/06 A3017 RMK AO2 SLP219 T00830061 58019=
201203042033 SPECI KCLM 042033Z AUTO 00000KT 10SM OVC017 09/06 A3019 RMK AO2=
201203042033 SPECI KCLM 042033Z AUTO 00000KT 10SM OVC017 09/06 A3019 RMK AO2=
201203041953 METAR KCLM 041953Z AUTO 09006KT 10SM BKN013 OVC020 09/06 A3019 RMK AO2 SLP226 T00890056=
201203041914 SPECI KCLM 041914Z AUTO 12008KT 10SM BKN011 BKN018 OVC023 09/06 A3020 RMK AO2=
201203041914 SPECI KCLM 041914Z AUTO 12008KT 10SM BKN011 BKN018 OVC023 09/06 A3020 RMK AO2=
201203041853 METAR KCLM 041853Z AUTO 08006KT 10SM SCT011 OVC019 09/06 A3021 RMK AO2 SLP232 T00940056=
201203041753 METAR KCLM 041753Z AUTO 00000KT 10SM OVC017 09/05 A3023 RMK AO2 SLP237 T00890050 10089 20061 57001=
201203041736 SPECI KCLM 041736Z AUTO 00000KT 10SM OVC015 09/04 A3023 RMK AO2=
201203041736 SPECI KCLM 041736Z AUTO 00000KT 10SM OVC015 09/04 A3023 RMK AO2=
201203041713 SPECI KCLM 041713Z AUTO 00000KT 10SM BKN011 OVC100 08/04 A3023 RMK AO2=
201203041713 SPECI KCLM 041713Z AUTO 00000KT 10SM BKN011 OVC100 08/04 A3023 RMK AO2=
201203041653 METAR KCLM 041653Z AUTO 00000KT 10SM SCT036 OVC100 08/04 A3023 RMK AO2 SLP237 T00780044=
201203041605 SPECI KCLM 041605Z AUTO 23003KT 10SM SCT012 OVC110 07/05 A3023 RMK AO2=
201203041605 SPECI KCLM 041605Z AUTO 23003KT 10SM SCT012 OVC110 07/05 A3023 RMK AO2=
201203041553 METAR KCLM 041553Z AUTO 26003KT 10SM SCT009 BKN012 OVC110 07/05 A3023 RMK AO2 SLP239 T00720050=
201203041453 METAR KCLM 041453Z AUTO 00000KT 10SM OVC008 06/04 A3025 RMK AO2 SLP244 T00610044 56011=
201203041353 METAR KCLM 041353Z AUTO 00000KT 10SM OVC006 07/05 A3025 RMK AO2 SLP246 T00670050=
201203041253 METAR KCLM 041253Z AUTO 00000KT 10SM OVC006 07/05 A3027 RMK AO2 SLP251 T00670050=
201203041232 SPECI KCLM 041232Z AUTO 00000KT 10SM OVC006 07/04 A3027 RMK AO2 CIG 004V009=
201203041232 SPECI KCLM 041232Z AUTO 00000KT 10SM OVC006 07/04 A3027 RMK AO2 CIG 004V009=
201203041153 METAR KCLM 041153Z AUTO 19003KT 10SM OVC004 06/05 A3028 RMK AO2 CIG 002V006 SLP254 60000 T00610050 10083 20044 56015=
201203041134 SPECI KCLM 041134Z AUTO 23004KT 3SM BR OVC004 06/05 A3029 RMK AO2=
201203041134 SPECI KCLM 041134Z AUTO 23004KT 3SM BR OVC004 06/05 A3029 RMK AO2=
201203041131 SPECI KCLM 041131Z AUTO 27003KT 1 3/4SM BR OVC004 07/06 A3029 RMK AO2=
201203041131 SPECI KCLM 041131Z AUTO 27003KT 1 3/4SM BR OVC004 07/06 A3029 RMK AO2=
201203041119 SPECI KCLM 041119Z AUTO 00000KT 1/2SM FG OVC004 06/04 A3029 RMK AO2=
201203041119 SPECI KCLM 041119Z AUTO 00000KT 1/2SM FG OVC004 06/04 A3029 RMK AO2=
201203041109 SPECI KCLM 041109Z AUTO 00000KT 1 1/2SM BR BKN002 06/04 A3028 RMK AO2 VIS 1/2V5=
201203041109 SPECI KCLM 041109Z AUTO 00000KT 1 1/2SM BR BKN002 06/04 A3028 RMK AO2 VIS 1/2V5=
201203041053 METAR KCLM 041053Z AUTO 00000KT 10SM OVC004 07/05 A3028 RMK AO2 SLP255 T00670050=
201203041028 SPECI KCLM 041028Z AUTO 00000KT 10SM BKN004 OVC060 07/06 A3030 RMK AO2=
201203041028 SPECI KCLM 041028Z AUTO 00000KT 10SM BKN004 OVC060 07/06 A3030 RMK AO2=
201203041005 SPECI KCLM 041005Z AUTO 00000KT 10SM BKN006 06/04 A3031 RMK AO2=
201203041005 SPECI KCLM 041005Z AUTO 00000KT 10SM BKN006 06/04 A3031 RMK AO2=
201203040953 METAR KCLM 040953Z AUTO 00000KT 10SM FEW008 BKN060 05/04 A3032 RMK AO2 SLP268 T00500039=
201203040924 SPECI KCLM 040924Z AUTO 00000KT 7SM FEW001 BKN065 06/04 A3032 RMK AO2=
201203040924 SPECI KCLM 040924Z AUTO 00000KT 7SM FEW001 BKN065 06/04 A3032=
201203040917 SPECI KCLM 040917Z AUTO 00000KT 2 1/2SM BR FEW001 SCT065 06/04 A3032 RMK AO2 VIS 1 1/4V5=
201203040917 SPECI KCLM 040917Z AUTO 00000KT 2 1/2SM BR FEW001 SCT065 06/04 A3032 RMK AO2 VIS 1 1/4V5=
201203040905 SPECI KCLM 040905Z AUTO 00000KT 1SM BR VV001 05/03 A3032 RMK AO2=
201203040905 SPECI KCLM 040905Z AUTO 00000KT 1SM BR VV001 05/03 A3032 RMK AO2=
201203040901 SPECI KCLM 040901Z AUTO 00000KT 2SM BR FEW002 05/04 A3032 RMK AO2=
201203040901 SPECI KCLM 040901Z AUTO 00000KT 2SM BR FEW002 05/04 A3032 RMK AO2=
201203040853 METAR KCLM 040853Z AUTO 00000KT 10SM CLR 06/04 A3032 RMK AO2 SLP269 60000 T00610044 58005=
201203040753 METAR KCLM 040753Z AUTO 00000KT 10SM FEW014 OVC085 07/05 A3034 RMK AO2 RAB22E31 SLP274 P0000 T00720050 401440044=
201203040653 METAR KCLM 040653Z AUTO 00000KT 10SM SCT008 BKN060 OVC085 08/06 A3034 RMK AO2 SLP274 T00780061=
201203040553 METAR KCLM 040553Z AUTO 00000KT 10SM BKN008 BKN060 OVC085 08/06 A3034 RMK AO2 CIG 005V010 SLP274 T00780061 10100 20072 51001=
201203040551 SPECI KCLM 040551Z AUTO 00000KT 10SM BKN008 BKN060 OVC085 08/06 A3034 RMK AO2 CIG 006V010=
201203040551 SPECI KCLM 040551Z AUTO 00000KT 10SM BKN008 BKN060 OVC085 08/06 A3034 RMK AO2 CIG 006V010=
201203040520 SPECI KCLM 040520Z AUTO 00000KT 10SM SCT007 BKN065 OVC080 08/06 A3034 RMK AO2=
201203040520 SPECI KCLM 040520Z AUTO 00000KT 10SM SCT007 BKN065 OVC080 08/06 A3034 RMK AO2=
201203040453 METAR KCLM 040453Z AUTO 28004KT 10SM OVC005 08/06 A3034 RMK AO2 CIG 004V008 SLP275 T00830061=
201203040424 SPECI KCLM 040424Z AUTO 28004KT 10SM BKN005 OVC011 08/07 A3034 RMK AO2=
201203040424 SPECI KCLM 040424Z AUTO 28004KT 10SM BKN005 OVC011 08/07 A3034 RMK AO2=
201203040353 METAR KCLM 040353Z AUTO 31006KT 10SM SCT005 BKN013 OVC060 08/06 A3033 RMK AO2 SLP273 T00830061=
201203040253 METAR KCLM 040253Z AUTO 32005KT 10SM BKN007 OVC060 08/06 A3033 RMK AO2 SLP272 T00830061 53003=
201203040153 METAR KCLM 040153Z AUTO VRB04KT 10SM OVC007 09/07 A3032 RMK AO2 SLP271 T00890067=
201203040104 SPECI KCLM 040104Z AUTO 00000KT 10SM BKN007 OVC060 09/07 A3032 RMK AO2=
201203040104 SPECI KCLM 040104Z AUTO 00000KT 10SM BKN007 OVC060 09/07 A3032 RMK AO2=
201203040053 METAR KCLM 040053Z AUTO 31004KT 10SM SCT007 BKN060 OVC070 09/06 A3032 RMK AO2 SLP270 T00890061=
201203040043 SPECI KCLM 040043Z AUTO VRB03KT 10SM FEW009 BKN065 OVC075 09/06 A3032 RMK AO2=
201203040043 SPECI KCLM 040043Z AUTO VRB03KT 10SM FEW009 BKN065 OVC075 09/06 A3032 RMK AO2=
201203032353 METAR KCLM 032353Z AUTO 32008KT 10SM BKN060 OVC080 10/06 A3032 RMK AO2 SLP270 60000 T01000061 10144 20100 53001=
201203032253 METAR KCLM 032253Z AUTO 31009G14KT 10SM SCT060 OVC075 11/06 A3032 RMK AO2 SLP267 T01060061=
201203032153 METAR KCLM 032153Z AUTO 31011G15KT 10SM OVC060 11/06 A3031 RMK AO2 RAE2055 SLP266 P0000 T01060061=
201203032053 METAR KCLM 032053Z AUTO 29007KT 10SM -RA OVC070 11/06 A3032 RMK AO2 RAB36 SLP268 P0000 60000 T01110061 53007=
201203031953 METAR KCLM 031953Z AUTO 31011G18KT 10SM SCT049 SCT060 BKN080 14/04 A3031 RMK AO2 SLP266 T01390044=
201203031853 METAR KCLM 031853Z AUTO VRB05KT 10SM FEW050 13/04 A3030 RMK AO2 SLP262 T01330044=
201203031753 METAR KCLM 031753Z AUTO 30010G16KT 10SM CLR 13/04 A3030 RMK AO2 SLP261 60000 T01280044 10128 20044 53007=
201203031653 METAR KCLM 031653Z AUTO 30009G19KT 10SM FEW085 BKN110 11/04 A3029 RMK AO2 SLP259 T01060044=
201203031553 METAR KCLM 031553Z AUTO 31009G17KT 10SM SCT060 11/04 A3027 RMK AO2 SLP251 T01060039=
201203031453 METAR KCLM 031453Z AUTO 26005KT 10SM BKN100 09/04 A3028 RMK AO2 SLP255 60000 T00940039 58006=
201203031353 METAR KCLM 031353Z AUTO 00000KT 10SM SCT050 05/02 A3028 RMK AO2 SLP257 T00500022=
201203031253 METAR KCLM 031253Z AUTO 00000KT 10SM BKN048 BKN055 OVC070 06/03 A3030 RMK AO2 RAB14E24 SLP262 P0000 T00560033=
201203031153 METAR KCLM 031153Z AUTO 00000KT 10SM FEW045 OVC070 06/03 A3030 RMK AO2 SLP261 T00560028 10067 20050 55005=
201203031053 METAR KCLM 031053Z AUTO 00000KT 10SM SCT045 OVC065 06/03 A3029 RMK AO2 SLP260 T00610028=
201203031002 SPECI KCLM 031002Z AUTO 16003KT 10SM FEW009 OVC044 06/02 A3030 RMK AO2=
201203031002 SPECI KCLM 031002Z AUTO 16003KT 10SM FEW009 OVC044 06/02 A3030 RMK AO2=
201203030953 METAR KCLM 030953Z AUTO 00000KT 10SM OVC044 06/03 A3031 RMK AO2 SLP266 T00560033=
201203030853 METAR KCLM 030853Z AUTO 00000KT 10SM OVC042 06/03 A3031 RMK AO2 SLP266 T00560033 55004=
201203030753 METAR KCLM 030753Z AUTO 00000KT 10SM OVC046 06/03 A3030 RMK AO2 SLP263 T00560028 400720028=
201203030653 METAR KCLM 030653Z AUTO 00000KT 10SM OVC046 06/03 A3031 RMK AO2 SLP266 T00560028=
201203030553 METAR KCLM 030553Z AUTO 00000KT 10SM OVC050 06/03 A3032 RMK AO2 SLP270 60000 T00560028 10067 20050 53002=
201203030453 METAR KCLM 030453Z AUTO 00000KT 10SM OVC050 06/03 A3032 RMK AO2 SLP269 T00560028=
201203030353 METAR KCLM 030353Z AUTO 00000KT 10SM OVC055 06/03 A3031 RMK AO2 SLP266 T00560028=
201203030253 METAR KCLM 030253Z AUTO 27003KT 10SM OVC060 05/03 A3031 RMK AO2 SLP267 60000 T00500028 55003=
201203030153 METAR KCLM 030153Z AUTO 00000KT 10SM BKN046 OVC055 06/03 A3031 RMK AO2 SLP266 T00560028=
201203030053 METAR KCLM 030053Z AUTO 00000KT 10SM OVC065 06/02 A3031 RMK AO2 RAE35 SLP267 P0000 T00610022=
201203022353 METAR KCLM 022353Z AUTO 00000KT 10SM -RA FEW043 OVC060 07/02 A3032 RMK AO2 RAB47 SLP270 P0000 60000 T00670022 10072 20061 56010=
201203022253 METAR KCLM 022253Z AUTO 03003KT 10SM OVC060 07/02 A3033 RMK AO2 SLP272 T00670017=
201203022153 METAR KCLM 022153Z AUTO 00000KT 10SM SCT055 BKN070 OVC100 07/02 A3033 RMK AO2 SLP272 T00670022=
201203022053 METAR KCLM 022053Z AUTO 00000KT 10SM BKN070 OVC095 06/02 A3035 RMK AO2 SLP280 T00610022 53003=
201203021953 METAR KCLM 021953Z AUTO 32006KT 10SM SCT060 BKN100 07/02 A3035 RMK AO2 SLP280 T00720022=
201203021853 METAR KCLM 021853Z AUTO 30006KT 10SM OVC060 07/02 A3034 RMK AO2 SLP277 T00720017=
201203021753 METAR KCLM 021753Z AUTO 29005KT 10SM OVC060 07/01 A3034 RMK AO2 SLP277 T00670011 10067 20028 56008=
201203021653 METAR KCLM 021653Z AUTO 00000KT 10SM OVC055 06/00 A3034 RMK AO2 SLP277 T00610000=
201203021553 METAR KCLM 021553Z AUTO 00000KT 10SM FEW050 BKN080 04/M01 A3034 RMK AO2 SLP275 T00441011=
201203021453 METAR KCLM 021453Z AUTO 00000KT 10SM OVC055 04/M01 A3037 RMK AO2 SLP285 T00391006 53005=
201203021353 METAR KCLM 021353Z AUTO 23003KT 10SM OVC060 03/M01 A3035 RMK AO2 SLP279 T00331006=
201203021253 METAR KCLM 021253Z AUTO 00000KT 10SM OVC060 03/M01 A3035 RMK AO2 SLP279 T00331006=
201203021153 METAR KCLM 021153Z AUTO 22003KT 10SM OVC070 04/M01 A3035 RMK AO2 SLP280 T00391011 10050 20033 50011=
201203021053 METAR KCLM 021053Z AUTO 22005KT 10SM OVC080 05/M02 A3035 RMK AO2 SLP280 T00501017=
201203020953 METAR KCLM 020953Z AUTO 25004KT 10SM SCT050 OVC080 05/M02 A3036 RMK AO2 SLP282 T00501017=
201203020853 METAR KCLM 020853Z AUTO 23006KT 10SM FEW050 BKN065 OVC100 04/M02 A3032 RMK AO2 SLP269 T00441017 51005=
201203020753 METAR KCLM 020753Z AUTO 26009KT 10SM BKN049 OVC110 05/M01 A3031 RMK AO2 SLP267 T00501011 400830006=
201203020653 METAR KCLM 020653Z AUTO 26010KT 10SM FEW047 04/M02 A3032 RMK AO2 SLP269 T00391017=
201203020553 METAR KCLM 020553Z AUTO 28007KT 10SM CLR 05/M01 A3030 RMK AO2 SLP264 T00501011 10072 20028 51019=
201203020453 METAR KCLM 020453Z AUTO 25007KT 10SM CLR 04/M01 A3029 RMK AO2 SLP259 T00391011=
201203020353 METAR KCLM 020353Z AUTO 25007KT 10SM FEW045 04/M01 A3027 RMK AO2 SLP252 T00391011=
201203020253 METAR KCLM 020253Z AUTO 00000KT 10SM CLR 05/01 A3025 RMK AO2 SLP244 T00500011 53019=
201203020153 METAR KCLM 020153Z AUTO 26003KT 10SM CLR 06/02 A3022 RMK AO2 SLP234 T00560017=
201203020053 METAR KCLM 020053Z AUTO 31007KT 10SM CLR 07/02 A3020 RMK AO2 SLP230 T00720017=
201203012353 METAR KCLM 012353Z AUTO 31010KT 10SM FEW042 07/02 A3019 RMK AO2 SLP225 T00720017 10083 20067 53025=
201203012253 METAR KCLM 012253Z AUTO 31014G18KT 10SM FEW022 07/02 A3016 RMK AO2 SLP216 T00720017=
201203012153 METAR KCLM 012153Z AUTO 32010KT 10SM FEW040 07/02 A3013 RMK AO2 SLP206 T00720017=
201203012053 METAR KCLM 012053Z AUTO 33008KT 10SM FEW043 07/02 A3011 RMK AO2 SLP199 T00720017 51027=
201203011953 METAR KCLM 011953Z AUTO 32011G17KT 10SM BKN039 08/01 A3009 RMK AO2 SLP192 T00780006=
201203011853 METAR KCLM 011853Z AUTO 33011G16KT 10SM SCT035 07/01 A3007 RMK AO2 SLP184 T00720006=
201203011753 METAR KCLM 011753Z AUTO 26007KT 10SM CLR 07/00 A3003 RMK AO2 SLP172 T00670000 10067 20017 51030=
201203011653 METAR KCLM 011653Z AUTO 27008KT 10SM OVC039 04/M01 A3001 RMK AO2 SLP165 T00441011=
201203011553 METAR KCLM 011553Z AUTO 25009KT 10SM SCT030 BKN039 OVC047 03/M02 A2998 RMK AO2 SLP155 T00281017=
201203011453 METAR KCLM 011453Z AUTO 25006KT 10SM OVC037 03/M01 A2994 RMK AO2 SLP143 T00281011 51032 TSNO=
201203011353 METAR KCLM 011353Z AUTO 10SM OVC035 02/M01 A2992 RMK AO2 SLP133 T00221011 $=
201203011253 METAR KCLM 011253Z AUTO 10SM FEW031 02/M01 A2989 RMK AO2 SLP122 T00171011 $=
201203011153 METAR KCLM 011153Z AUTO 10SM CLR 02/M01 A2985 RMK AO2 SLP109 60000 70001 T00221011 10033 20006 51020 $=
201203011053 METAR KCLM 011053Z AUTO 10SM FEW041 SCT070 02/M01 A2983 RMK AO2 SLP103 T00171011 $=
201203010953 METAR KCLM 010953Z AUTO 26005KT 10SM FEW045 SCT055 OVC090 02/M01 A2981 RMK AO2 SLP098 T00171006 $=
201203010853 METAR KCLM 010853Z AUTO 24005KT 10SM BKN050 01/M01 A2979 RMK AO2 SLP089 60000 T00061011 53019=
201203010753 METAR KCLM 010753Z AUTO 00000KT 10SM BKN050 01/M01 A2977 RMK AO2 SLP083 T00111006 400780000=
201203010653 METAR KCLM 010653Z AUTO 22003KT 10SM FEW017 SCT060 SCT080 02/00 A2975 RMK AO2 RAE02 SLP076 P0000 T00170000=
201203010553 METAR KCLM 010553Z AUTO 00000KT 10SM -RA FEW032 OVC041 03/02 A2973 RMK AO2 RAB49 SLP070 P0000 60001 T00330017 10067 20028 53019=
201203010453 METAR KCLM 010453Z AUTO 00000KT 10SM BKN055 OVC070 03/01 A2971 RMK AO2 SLP063 T00330011=
201203010353 METAR KCLM 010353Z AUTO 00000KT 10SM OVC070 03/01 A2969 RMK AO2 RAE17 SLP057 P0000 T00330011=
201203010318 SPECI KCLM 010318Z AUTO 30003KT 10SM OVC037 03/01 A2968 RMK AO2 RAE17 P0000=
201203010318 SPECI KCLM 010318Z AUTO 30003KT 10SM OVC037 03/01 A2968 RMK AO2 RAE17 P0000=
201203010253 METAR KCLM 010253Z AUTO 30006KT 9SM -RA OVC019 04/01 A2968 RMK AO2 RAB24 SLP052 P0001 60001 T00390006 53022=
201203010245 SPECI KCLM 010245Z AUTO 30009KT 9SM -RA BKN019 OVC037 04/01 A2968 RMK AO2 RAB24 P0001=
201203010245 SPECI KCLM 010245Z AUTO 30009KT 9SM -RA BKN019 OVC037 04/01 A2968 RMK AO2 RAB24 P0001=
201203010153 METAR KCLM 010153Z AUTO 00000KT 10SM OVC060 06/01 A2965 RMK AO2 RAB02E11 SLP042 P0000 T00560006=
201203010053 METAR KCLM 010053Z AUTO VRB04KT 10SM BKN040 OVC070 06/01 A2963 RMK AO2 SLP035 T00610006=

# No short TAF reports from KCLM in databse.

###################################
#  large TAF from KCLM
###################################
201203312340 TAF KCLM 312340Z 0100/0124 VRB04KT P6SM BKN010 OVC015 FM010800
                       26012KT P6SM -SHRA BKN020 BKN040 FM011200
                       26015G25KT P6SM VCSH BKN030 FM012000 26010G20KT
                       P6SM VCSH BKN030 OVC060=
201203312121 KCLM 312121Z 3121/0118 07004KT P6SM BKN012 OVC025 FM312300 VRB04KT
                       P6SM -SHRA BKN040 OVC060 FM010800 26012KT
                       P6SM VCSH SCT040 BKN060 FM011200 26015G25KT
                       P6SM -SHRA BKN040 BKN060=
201203311738 TAF KCLM 311738Z 3118/0118 13008KT P6SM -RA BKN050 OVC060
                      TEMPO 3118/3120 6SM -RA BR BKN035 OVC050
                       FM312000 VRB04KT P6SM -SHRA BKN040 OVC060
                       FM010800 26012KT P6SM VCSH SCT040 BKN060
                       FM011200 26015G25KT P6SM -SHRA BKN040 BKN060=
201203311450 KCLM 311450Z 3115/0112 11008KT P6SM -RA SCT015 OVC025
                      TEMPO 3115/3118 5SM -RA BR OVC015 FM312000
                       VRB03KT P6SM -SHRA BKN040 OVC060 FM010600
                       26012KT P6SM SCT040 BKN060=
201203311137 TAF KCLM 311137Z 3112/0112 11008KT P6SM BKN030 OVC100 FM311400
                       11008KT P6SM -RA OVC040 FM312000 VRB03KT
                       P6SM -SHRA BKN040 OVC060 FM010600 26012KT
                       P6SM SCT040 BKN060=
201203310536 TAF KCLM 310536Z 3106/0106 VRB03KT P6SM SCT030 BKN200
                      TEMPO 3106/3109 BKN030 OVC200 FM310900 VRB03KT
                       P6SM SCT060 OVC100 FM311400 VRB03KT P6SM
                       -RA OVC040 FM312000 VRB03KT P6SM -SHRA BKN040
                       OVC060=
201203302322 TAF KCLM 302322Z 3100/3124 27007KT P6SM SCT010 BKN040 OVC070 FM310300
                       VRB03KT P6SM SCT040 BKN070 BKN200 FM311300
                       06005KT P6SM -RA OVC040 FM312000 VRB04KT
                       P6SM -SHRA BKN035 OVC050=
201203302212 KCLM 302212Z 3022/3118 27008KT P6SM SCT020 BKN040
                      TEMPO 3022/3024 -SHRA OVC020 FM310100 VRB03KT
                       P6SM SCT040 BKN070 BKN200 FM310700 VRB03KT
                       P6SM BKN080 BKN200 FM311300 06005KT P6SM
                       -RA OVC040=
201203302016 KCLM 302016Z 3020/3118 00000KT P6SM SCT023 BKN060
                      TEMPO 3020/3023 -SHRA OVC023 FM310100 VRB03KT
                       P6SM SCT070 BKN200 FM310700 VRB03KT P6SM
                       BKN080 BKN200 FM311300 06005KT P6SM -RA
                       OVC040=
201203301727 TAF KCLM 301727Z 3018/3118 32005KT P6SM SCT060 BKN200 FM310100
                       VRB03KT P6SM FEW070 BKN200 FM310700 VRB03KT
                       P6SM BKN080 BKN200 FM311300 06005KT P6SM
                       -RA OVC040=
201203301120 TAF KCLM 301120Z 3012/3112 VRB04KT P6SM -SHRA SCT022 OVC035
                      TEMPO 3012/3016 -RA OVC022 FM301600 24006KT
                       P6SM -SHRA BKN035 BKN080 FM302100 29008KT
                       P6SM VCSH BKN050 BKN100 FM310600 VRB04KT
                       P6SM BKN050 BKN100=
201203300527 TAF KCLM 300527Z 3006/3106 00000KT P6SM -RA BKN012 OVC035 FM300800
                       16005KT P6SM -RA OVC012 FM301600 26006KT
                       P6SM -SHRA BKN035 BKN080 FM302100 29012KT
                       P6SM VCSH BKN050 BKN100=
201203300150 KCLM 300150Z 3002/3024 00000KT P6SM -RA BKN006 BKN022 OVC040
                      TEMPO 3002/3005 P6SM -RA BKN004 BKN025 OVC040
                       FM300800 VRB04KT P6SM -RA OVC015 FM301600
                       26006KT P6SM -SHRA BKN035 BKN080 FM302100
                       29012KT P6SM VCSH BKN050 BKN100=
201203292335 TAF KCLM 292335Z 3000/3024 00000KT P6SM -RA BKN006 BKN022 OVC040
                       TEMPO 3000/3004 P6SM -RA SCT006 BKN025 OVC040
                       FM300800 VRB04KT P6SM -RA OVC015 FM301600
                       26006KT P6SM -SHRA BKN035 BKN080 FM302100
                       29012KT P6SM VCSH BKN050 BKN100=
201203291735 TAF KCLM 291735Z 2918/3018 08005KT P6SM SCT011 BKN080
                      TEMPO 2918/2922 -SHRA BKN011 OVC060 FM292200
                       02004KT P6SM VCSH SCT020 BKN060 BKN100 FM300600
                       VRB04KT P6SM -RA OVC015 FM301600 26006KT
                       P6SM -SHRA BKN035 BKN080=
201203291120 TAF KCLM 291120Z 2912/3012 VRB04KT P6SM -RA BKN040 OVC070 FM291600
                       26006KT P6SM -SHRA BKN045 BKN080 FM292100
                       30006KT P6SM -SHRA BKN045 BKN080 FM300300
                       VRB04KT P6SM VCSH BKN045 BKN080=
201203290520 TAF KCLM 290520Z 2906/3006 VRB04KT P6SM -RA BKN040 OVC070 FM291600
                       26006KT P6SM -SHRA BKN045 BKN080 FM292100
                       30006KT P6SM -SHRA BKN045 BKN080=
201203282320 TAF KCLM 282320Z 2900/2924 26005KT P6SM -SHRA SCT025 BKN040 BKN070
                       FM290400 VRB04KT P6SM -RA OVC030 FM291600
                       26006KT P6SM -SHRA BKN040 BKN080=
201203281730 TAF KCLM 281730Z 2818/2918 12005KT P6SM -SHRA SCT020 BKN045 OVC070
                       FM290300 VRB04KT P6SM -RA OVC030 FM291600
                       26006KT P6SM -SHRA BKN040 BKN080=
201203281120 TAF KCLM 281120Z 2812/2912 27008KT P6SM -SHRA BKN060 FM281800 VRB04KT
                       P6SM -SHRA BKN045 BKN080 FM290300 VRB04KT
                       P6SM -RA OVC030=
201203280520 TAF KCLM 280520Z 2806/2906 VRB04KT P6SM -SHRA BKN060 FM281800 VRB04KT
                       P6SM -SHRA BKN045 BKN080=
201203272335 TAF KCLM 272335Z 2800/2824 00000KT P6SM -SHRA SCT035 OVC070
                      TEMPO 2800/2804 OVC035 FM280400 VRB04KT P6SM
                       -SHRA BKN035 OVC080 FM280900 VRB04KT P6SM
                       -SHRA OVC030 FM281800 VRB04KT P6SM -SHRA
                       BKN045 BKN080=
201203271735 TAF KCLM 271735Z 2718/2818 16004KT P6SM -SHRA OVC060 FM280000 VRB04KT
                       P6SM -SHRA SCT045 OVC100 FM280900 VRB03KT
                       P6SM -SHRA OVC030=
201203271120 TAF KCLM 271120Z 2712/2812 VRB03KT P6SM -SHRA OVC050
                      TEMPO 2712/2716 -RA OVC030 FM271800 VRB03KT
                       P6SM -SHRA OVC050
                      TEMPO 2718/2722 -RA FM280900 VRB03KT P6SM
                       -RA OVC035=
201203270520 TAF KCLM 270520Z 2706/2806 VRB03KT P6SM SCT050 BKN120 BKN250 FM271200
                       VRB03KT P6SM -RA OVC050
                      TEMPO 2712/2716 -RA OVC030 FM271800 VRB03KT
                       P6SM VCSH OVC050
                      TEMPO 2718/2722 -RA=
201203270103 KCLM 270103Z 2701/2724 03003KT P6SM SCT025 BKN035 BKN050 FM270400
                       VRB03KT P6SM SCT050 BKN120 BKN250 FM271000
                       VRB03KT P6SM -RA OVC050
                      TEMPO 2710/2714 -RA OVC030 FM271800 VRB03KT
                       P6SM OVC050
                      TEMPO 2718/2722 -RA=
201203262335 TAF KCLM 262335Z 2700/2724 03003KT P6SM BKN020 OVC026
                      TEMPO 2700/2704 SCT030 OVC070 FM270400 VRB03KT
                       P6SM SCT070 BKN120 BKN250 FM271000 VRB03KT
                       P6SM -RA OVC050
                      TEMPO 2710/2714 -RA OVC030 FM271800 VRB03KT
                       P6SM OVC050
                      TEMPO 2718/2722 -RA=
201203261740 TAF KCLM 261740Z 2618/2718 00000KT P6SM OVC025 FM262100 03004KT
                       P6SM BKN050 BKN120 FM270200 03003KT P6SM
                       BKN120 BKN250 FM271000 VRB03KT P6SM -RA
                       OVC050
                      TEMPO 2710/2714 -RA OVC030=
201203261121 TAF KCLM 261121Z 2612/2712 27007KT P6SM -SHRA BKN045 OVC060
                      TEMPO 2612/2616 SCT020 BKN030 FM262000 VRB03KT
                       P6SM SCT040 BKN100 FM270300 12005KT P6SM
                       BKN040 OVC120 FM270700 12007KT P6SM -RA
                       OVC030=
201203260533 TAF KCLM 260533Z 2606/2706 27005KT P6SM OVC100 FM261200 27007KT
                       P6SM VCSH BKN030 OVC060 FM261400 27007KT
                       P6SM -SHRA BKN020 OVC040 FM262000 VRB03KT
                       P6SM SCT040 BKN050 FM270300 12005KT P6SM
                       BKN040 OVC120=
201203252320 TAF KCLM 252320Z 2600/2624 VRB04KT P6SM BKN100 OVC200 FM260400
                       27007KT P6SM VCSH SCT040 BKN070 OVC120 FM260800
                       27007KT P6SM VCSH BKN030 OVC060 FM261400
                       27007KT P6SM -SHRA BKN020 OVC040 FM262000
                       VRB03KT P6SM SCT025 BKN050=
201203251720 TAF KCLM 251720Z 2518/2618 09006KT P6SM SCT120 SCT200 FM252200
                       VRB04KT P6SM BKN120 BKN200 FM260400 27007KT
                       P6SM VCSH SCT040 BKN070 OVC120 FM260800
                       27007KT P6SM VCSH BKN030 OVC060 FM261400
                       27007KT P6SM -SHRA BKN020 OVC040=
201203251120 TAF KCLM 251120Z 2512/2612 22003KT P6SM FEW100 BKN200 FM252100
                       VRB04KT P6SM SCT070 BKN100 BKN200 FM260600
                       VRB04KT P6SM SCT040 BKN070 OVC200=
201203250524 TAF KCLM 250524Z 2506/2606 22003KT P6SM FEW100 SCT200 FM252000
                       VRB04KT P6SM SCT070 BKN100 BKN200=
201203242320 TAF KCLM 242320Z 2500/2524 08008KT P6SM BKN120 FM250400 VRB03KT
                       P6SM SCT050 BKN120 FM251000 VRB03KT P6SM
                       SCT015 SCT040 OVC100
                      TEMPO 2514/2518 BKN015 BKN040 FM252000 26006KT
                       P6SM VCSH SCT025 BKN050 BKN100=
201203241720 TAF KCLM 241720Z 2418/2518 09008KT P6SM SCT020 BKN200
                      TEMPO 2418/2421 BKN015 BKN150 FM250400 09006KT
                       P6SM SCT120 BKN200 FM251200 27007KT P6SM
                       SCT010 SCT040 OVC100=
201203241611 KCLM 241611Z 2416/2512 11005KT P6SM OVC014
                      TEMPO 2416/2419 BKN020 FM241900 04006KT P6SM
                       SCT020 BKN200 FM250300 23004KT P6SM SCT120
                       SCT250=
201203241218 KCLM 241218Z 2412/2512 00000KT P6SM SCT020
                      TEMPO 2412/2416 BKN020 FM241800 04006KT P6SM
                       SCT250 FM250300 23004KT P6SM SCT120 SCT250=
201203241120 TAF KCLM 241120Z 2412/2512 VRB04KT P6SM SKC FM241800 04006KT P6SM
                       SCT250 FM250300 23004KT P6SM SCT120 SCT250=
201203240520 TAF KCLM 240520Z 2406/2506 VRB04KT P6SM SKC FM241800 04006KT P6SM
                       SCT250 FM250300 23004KT P6SM SCT120=
201203232334 TAF KCLM 232334Z 2400/2424 05005KT P6SM VCSH SCT060 FM240300 23004KT
                       P6SM SKC FM241800 04006KT P6SM BKN150=
201203231734 TAF KCLM 231734Z 2318/2418 04004KT P6SM BKN020 FM232000 04005KT
                       P6SM SCT060 FM240300 23004KT P6SM SKC=
201203231120 TAF KCLM 231120Z 2312/2412 23005KT P6SM SCT070 BKN100 BKN250 FM231800
                       VRB04KT P6SM SCT120 SCT250 FM240300 VRB04KT
                       P6SM SCT250=
201203230520 TAF KCLM 230520Z 2306/2406 26005KT P6SM FEW040 BKN070 BKN250 FM231000
                       05003KT P6SM BKN100 BKN250 FM231700 VRB04KT
                       P6SM SCT100 BKN250=
201203222320 TAF KCLM 222320Z 2300/2324 31006KT P6SM VCSH BKN080 BKN100 BKN250
                       FM230500 27003KT P6SM BKN100 BKN250 FM231300
                       05003KT P6SM BKN250=
201203221733 TAF KCLM 221733Z 2218/2318 09006KT P6SM VCSH SCT080 OVC120 FM230300
                       00000KT P6SM SCT080 BKN200 FM230600 21003KT
                       P6SM SCT080 BKN200=
201203221123 TAF KCLM 221123Z 2212/2312 23004KT P6SM BKN100 FM221500 VRB03KT
                       P6SM SCT040 BKN100 FM222100 03004KT P6SM
                       SCT050 BKN100=
201203220520 TAF KCLM 220520Z 2206/2306 24003KT P6SM BKN100 FM220900 23004KT
                       P6SM OVC050 FM221500 VRB03KT P6SM BKN060
                       FM222100 03004KT P6SM SCT050 BKN100=
201203212339 TAF KCLM 212339Z 2200/2224 VRB03KT P6SM SCT060 BKN100 OVC200 FM220300
                       24003KT P6SM BKN090 FM220900 23004KT P6SM
                       VCSH OVC050 FM221500 VRB03KT P6SM BKN060
                       FM222100 03004KT P6SM SCT050 BKN100=
201203211734 TAF KCLM 211734Z 2118/2218 06004KT P6SM SCT050 SCT120 FM220300
                       24003KT P6SM BKN090 FM220900 23004KT P6SM
                       VCSH OVC050 FM221500 VRB03KT P6SM SCT060=
201203211120 TAF KCLM 211120Z 2112/2212 26010KT P6SM SCT025 SCT050 FM212100
                       05005KT P6SM SCT060 SCT120 FM220400 VRB03KT
                       P6SM SCT020 BKN050=
201203210820 KCLM 210820Z 2108/2206 25005KT 4SM -SN BR OVC014 FM211000 24005KT
                       P6SM VCSH SCT015 BKN040 BKN060
                      TEMPO 2110/2114 4SM -SHRASN BKN015 OVC025
                       FM212100 05005KT P6SM SCT060 SCT120=
201203210520 TAF KCLM 210520Z 2106/2206 24006KT P6SM -SHRA FEW014 BKN028 OVC070
                       FM211100 24005KT P6SM BKN040 BKN060 FM212100
                       05005KT P6SM SCT060 SCT120=
201203202342 TAF KCLM 202342Z 2100/2124 24008KT P6SM -SHRA SCT025 OVC050
                      TEMPO 2100/2104 5SM -SHRA BR SCT015 BKN020
                       FM210400 24007KT P6SM VCSH SCT035 BKN050
                       FM211100 24005KT P6SM BKN060 FM211800 04004KT
                       P6SM SCT060 SCT120=
201203201741 TAF KCLM 201741Z 2018/2118 29011G18KT P6SM -SHRA SCT035 BKN050
                       TEMPO 2018/2022 5SM -SHRA BR SCT015 OVC030
                       FM210300 26008KT P6SM VCSH SCT035 BKN050
                       FM211100 24005KT P6SM BKN080=
201203201120 TAF KCLM 201120Z 2012/2112 24004KT 6SM -SHRA FEW015 BKN030 OVC035
                       FM201300 25011KT P6SM -SHRA BKN035 BKN050
                       FM202000 27012KT P6SM VCSH BKN050=
201203201012 KCLM 201012Z 2010/2106 29009KT P6SM -RA OVC040 FM201200 25012KT
                       P6SM -SHRA BKN050 FM202000 27012KT P6SM
                       VCSH BKN050=
201203200532 TAF KCLM 200532Z 2006/2106 00000KT P6SM BKN060 OVC100 FM200900
                       VRB03KT P6SM -RA OVC020 FM201200 25012KT
                       P6SM -SHRA BKN050 FM202000 27012KT P6SM
                       VCSH BKN050=
201203192337 TAF KCLM 192337Z 2000/2024 01004KT P6SM OVC070 FM200200 08003KT
                       P6SM OVC050 FM200300 00000KT P6SM -RA OVC050
                       FM200700 29003KT P6SM -RA OVC025 FM201300
                       27009KT P6SM -RA BKN050 FM202000 27012KT
                       P6SM VCSH OVC050=
201203191734 TAF KCLM 191734Z 1918/2018 00000KT P6SM OVC100 FM192300 06003KT
                       P6SM OVC050 FM200300 00000KT P6SM -RA OVC050
                       FM200800 27007KT P6SM -RA OVC025 FM201400
                       27012KT P6SM VCSH BKN050=
201203191120 TAF KCLM 191120Z 1912/2012 22005KT P6SM BKN120 FM200000 12005KT
                       5SM -RA BR BKN015 OVC030 FM200900 23008KT
                       P6SM -SHRA BKN030 BKN050=
201203190525 TAF KCLM 190525Z 1906/2006 24006KT P6SM SCT050 FM191000 VRB03KT
                       P6SM BKN040 FM200000 12005KT 5SM -RA BR
                       BKN015 OVC030=
201203182320 TAF KCLM 182320Z 1900/1924 27007KT P6SM SCT022 BKN050
                      TEMPO 1900/1904 5SM -SHRASN BKN022 OVC040
                       FM190400 27007KT P6SM SCT025 BKN050 FM191000
                       VRB03KT P6SM VCSH BKN040=
201203181720 TAF KCLM 181720Z 1818/1918 VRB04KT P6SM SCT030 BKN060 FM190400
                       28008KT P6SM SCT050 FM191000 VRB03KT P6SM
                       VCSH BKN040=
201203181602 KCLM 181602Z 1816/1912 VRB03KT P6SM SCT020 OVC050 FM182000 28008KT
                       P6SM VCSH SCT020 BKN050 FM190400 25005KT
                       P6SM SCT040=
201203181421 KCLM 181421Z 1814/1912 26006KT P6SM -SHRASN BKN015 OVC030 FM182000
                       28008KT P6SM VCSH SCT020 BKN050 FM190400
                       25005KT P6SM SCT040=
201203181120 TAF KCLM 181120Z 1812/1912 23003KT P6SM OVC050 FM182000 28007KT
                       P6SM VCSH BKN050 FM190400 25005KT P6SM SCT040=
201203180520 TAF KCLM 180520Z 1806/1906 25005KT P6SM SCT040 FM182000 28007KT
                       P6SM VCSH BKN050 FM190400 25005KT P6SM SCT040=
201203172320 TAF KCLM 172320Z 1800/1824 30010KT P6SM -SHRA BKN035 BKN060 FM180300
                       24008KT P6SM SCT060 BKN100 FM182000 28007KT
                       P6SM VCSH BKN050=
201203171744 TAF KCLM 171744Z 1718/1818 25007KT P6SM VCSH SCT045 SCT100 FM172300
                       28010KT P6SM SCT040 BKN060 FM180500 24005KT
                       P6SM SCT040 BKN100=
201203171120 TAF KCLM 171120Z 1712/1812 00000KT P6SM -RA OVC024 FM171400 24004KT
                       P6SM -RA BKN020 OVC030 FM171700 28010KT
                       P6SM VCSH BKN040 BKN060 FM172300 28010KT
                       P6SM SCT040 BKN060 FM180500 24005KT P6SM
                       SCT040 BKN100=
201203170520 TAF KCLM 170520Z 1706/1806 22003KT P6SM BKN020 OVC040 FM171300
                       24004KT P6SM -RA BKN015 OVC035 FM171700
                       28010KT P6SM VCSH BKN040 BKN060 FM172300
                       28010KT P6SM SCT040 BKN060=
201203162320 TAF KCLM 162320Z 1700/1724 VRB03KT P6SM BKN060 OVC080 FM170600
                       23004KT P6SM BKN120 OVC200 FM171300 24004KT
                       P6SM OVC050
                      PROB30 1714/1718 -RA FM171800 25008KT P6SM
                       BKN035 BKN060=
201203161753 TAF KCLM 161753Z 1618/1718 VRB03KT P6SM VCSH SCT022 BKN060 FM162100
                       32004KT P6SM SCT060 FM170600 23004KT P6SM
                       BKN140 FM171300 24004KT P6SM OVC050
                      PROB30 1714/1718 -RA=
201203161516 KCLM 161516Z 1615/1712 VRB04KT P6SM VCSH BKN022 BKN070
                      TEMPO 1615/1618 -SHRA BKN008 OVC025 FM161900
                       32004KT P6SM BKN120 FM170600 23004KT P6SM
                       OVC120 FM171000 24004KT P6SM VCSH OVC050=
201203161120 TAF KCLM 161120Z 1612/1712 00000KT P6SM VCSH BKN022 BKN070
                      TEMPO 1612/1616 -SHRA SCT025 BKN070 FM161900
                       32004KT P6SM BKN120 FM170600 23004KT P6SM
                       OVC120 FM171000 24004KT P6SM VCSH OVC050=
201203160532 TAF KCLM 160532Z 1606/1706 00000KT P6SM VCSH BKN020 BKN060 FM161800
                       33004KT P6SM BKN050 FM162200 32003KT P6SM
                       SCT120 BKN250 FM170500 22004KT P6SM OVC120=
201203152323 TAF KCLM 152323Z 1600/1624 28007KT P6SM -SHRA BKN045 BKN070 FM160400
                       25005KT P6SM VCSH SCT025 BKN050 FM161500
                       VRB03KT P6SM VCSH BKN030 BKN050 FM161900
                       VRB03KT P6SM SCT030 SCT050 BKN080=
201203151740 TAF KCLM 151740Z 1518/1618 29005KT P6SM -SHRA SCT025 OVC045
                      TEMPO 1518/1522 BKN025 OVC045 FM160400 25004KT
                       P6SM -SHRA SCT025 BKN050 FM161500 VRB03KT
                       P6SM VCSH BKN030 BKN050=
201203151120 TAF KCLM 151120Z 1512/1612 00000KT 4SM -RA BR OVC040 FM151600 29005KT
                       6SM -RA OVC025 FM152000 29005KT P6SM -SHRA
                       BKN025 OVC060 FM160200 VRB03KT P6SM OVC050=
201203150530 TAF KCLM 150530Z 1506/1606 00000KT P6SM BKN080 OVC110 FM151100
                       22002KT 4SM -RA OVC025 FM151900 29005KT
                       P6SM -SHRA OVC050=
201203142320 TAF KCLM 142320Z 1500/1524 VRB03KT P6SM SCT015 BKN025 OVC040
                      TEMPO 1500/1504 -RA BKN015 OVC025 FM151600
                       27006KT P6SM -SHRA SCT015 BKN030 OVC050=
201203141749 TAF KCLM 141749Z 1418/1518 02003KT P6SM BKN035 OVC050
                      TEMPO 1418/1421 -RA FM150000 VRB05KT P6SM
                       -RA BKN030 OVC050 FM150600 VRB03KT P6SM
                       -RA BKN025 OVC040=
201203141120 TAF KCLM 141120Z 1412/1512 23006KT P6SM BKN120 OVC200 FM141500
                       11002KT 5SM -RASN OVC050 FM141800 02003KT
                       P6SM -RA OVC025 FM150600 15002KT P6SM -RA
                       OVC050=
201203140523 TAF KCLM 140523Z 1406/1506 21003KT P6SM SCT120 OVC200 FM140700
                       20003KT P6SM OVC100 FM141100 18003KT P6SM
                       -SN OVC050 FM141500 18004KT 6SM -SN OVC025
                       FM141600 28004KT 4SM -RA OVC015 FM142300
                       32004KT P6SM -RA OVC015=
201203132343 TAF KCLM 132343Z 1400/1424 31007KT P6SM VCSH SCT012 BKN040 FM140300
                       VRB03KT P6SM SCT050 BKN200 FM140900 VRB03KT
                       6SM -RASN BR OVC050
                      TEMPO 1413/1417 3SM -SN BR SCT012 BKN030
                       FM141800 VRB03KT 6SM -RA BR OVC045=
201203131748 TAF KCLM 131748Z 1318/1418 VRB03KT P6SM BKN025 OVC040
                      TEMPO 1318/1322 4SM -SHRASN BR FM132300 VRB03KT
                       P6SM SCT050 BKN200 FM140900 VRB03KT 6SM
                       -RASN BR OVC050=
201203131126 TAF KCLM 131126Z 1312/1412 31004KT P6SM VCSH SCT050 BKN100 FM131500
                       24006KT P6SM -SHRASN BKN025 OVC050 FM132000
                       26006KT P6SM VCSH SCT025 BKN050=
201203130530 TAF KCLM 130530Z 1306/1406 25010KT P6SM SCT035 OVC070 FM131000
                       24008KT P6SM VCSH SCT020 BKN040 OVC060 FM131500
                       24006KT P6SM -SHRA BKN025 OVC050 FM132000
                       26006KT P6SM VCSH SCT025 BKN050=
201203122328 TAF KCLM 122328Z 1300/1324 VRB05KT P6SM -RA SCT006 BKN020 OVC035
                       TEMPO 1300/1303 5SM -RA BR BKN006 OVC020
                       FM130500 26005KT P6SM -SHRA SCT020 OVC035
                       FM130700 24006KT P6SM VCSH SCT020 BKN040
                       OVC060 FM131200 24006KT P6SM -SHRA BKN025
                       BKN050=
201203121739 TAF KCLM 121739Z 1218/1318 VRB05KT P6SM -RA OVC030
                      TEMPO 1218/1221 5SM -RA BR BKN015 OVC030
                       FM130200 28008KT P6SM -SHRA SCT020 OVC030=
201203121429 KCLM 121429Z 1214/1312 13015G34KT P6SM -RA OVC030 FM121900 24009KT
                       P6SM -SHRA OVC030 FM130200 28008KT P6SM
                       -SHRA SCT020 OVC045=
201203121122 TAF KCLM 121122Z 1212/1312 13010KT P6SM SCT030 OVC060
                      TEMPO 1213/1217 -RA OVC030 FM121700 10009KT
                       P6SM -SHRA OVC030 FM130200 28008KT P6SM
                       -SHRA SCT020 OVC045=
201203120534 TAF KCLM 120534Z 1206/1306 23004KT P6SM OVC050 FM121200 12006KT
                       P6SM -RA OVC035 FM121800 10009KT P6SM -SHRA
                       OVC030 FM130200 28008KT P6SM -SHRA SCT020
                       OVC045=
201203112320 TAF KCLM 112320Z 1200/1224 27012G22KT P6SM -SHRA BKN035 BKN070
                       FM120400 23009KT P6SM SCT050 BKN070 FM120900
                       VRB04KT P6SM -RA BKN050 FM121200 12006KT
                       P6SM -RA OVC035 FM121500 06007KT P6SM -RA
                       OVC030=
201203111757 TAF KCLM 111757Z 1118/1218 27012G22KT P6SM VCSH SCT035 BKN070 FM120200
                       23009KT P6SM SCT050 BKN070 FM120900 VRB04KT
                       P6SM -RA BKN050 FM121200 12006KT P6SM -RA
                       OVC035=
201203111211 KCLM 111211Z 1112/1212 25005KT P6SM VCSH SCT050 BKN200
                      TEMPO 1112/1116 -SHRA OVC050 FM111700 29006KT
                       P6SM VCSH SCT050 BKN200 FM120200 VRB03KT
                       P6SM SCT100 OVC200 FM120900 VRB03KT P6SM
                       SCT050 OVC100
                      PROB30 1209/1212 -RA OVC050=
201203111147 TAF KCLM 111147Z 1112/1212 25006KT P6SM BKN030 BKN050
                      TEMPO 1112/1115 -SHRA FM111700 29006KT P6SM
                       VCSH SCT035 BKN050 FM111900 29006KT P6SM
                       VCSH SCT050 BKN200 FM120200 VRB03KT P6SM
                       SCT100 OVC200=
201203110558 KCLM 110558Z 1106/1206 VRB03KT 3SM BR VCSH FEW005 SCT050 OVC130
                       TEMPO 1106/1108 BKN005 BKN050 OVC130 FM110800
                       22005KT P6SM SCT030 OVC050
                      TEMPO 1108/1112 5SM SHRA BKN030 OVC050 FM111200
                       25006KT P6SM BKN030 BKN050
                      TEMPO 1112/1115 -SHRA FM111700 29006KT P6SM
                       VCSH SCT035 BKN050 FM111900 29006KT P6SM
                       VCSH SCT050 BKN200 FM120200 VRB03KT P6SM
                       SCT100 OVC200=
201203110543 TAF KCLM 110543Z 1106/1206 VRB03KT P6SM -RA SCT012 OVC030
                      TEMPO 1106/1110 5SM -RA BR BKN012 OVC030
                       FM111000 25005KT P6SM -SHRA BKN025 OVC050=
201203110258 KCLM 110258Z 1103/1124 VRB03KT P6SM VCSH SCT012 OVC050
                      TEMPO 1103/1106 BKN012 OVC050 FM110600 VRB03KT
                       P6SM -RA SCT012 OVC030
                      TEMPO 1106/1110 5SM -RA BR BKN012 OVC030
                       FM111000 25005KT P6SM -SHRA BKN025 OVC050=
201203102324 TAF KCLM 102324Z 1100/1124 10006KT P6SM -RA OVC015 FM110600 VRB03KT
                       P6SM -SHRA SCT025 OVC050
                      TEMPO 1106/1109 -RA BKN015 FM110900 25005KT
                       P6SM -SHRA BKN025 OVC050=
201203102105 KCLM 102105Z 1021/1118 VRB03KT P6SM SCT015 BKN024
                      TEMPO 1021/1024 -RA OVC015 FM110000 VRB04KT
                       P6SM -RA OVC015 FM110600 VRB03KT P6SM SCT025
                       OVC050
                      TEMPO 1106/1109 -RA FM110900 25005KT P6SM
                       -SHRA BKN025 OVC050=
201203101743 TAF KCLM 101743Z 1018/1118 VRB03KT P6SM FEW012 SCT030 OVC090
                      TEMPO 1018/1020 BKN012 FM102000 VRB03KT P6SM
                       SCT050 BKN090 OVC130 FM110600 VRB03KT P6SM
                       SCT025 OVC050
                      TEMPO 1106/1109 -RA FM110900 25005KT P6SM
                       -SHRA BKN025 OVC050=
201203101208 KCLM 101208Z 1012/1112 25006KT P6SM VCSH BKN025 OVC040 FM101500
                       25006KT P6SM VCSH BKN030 BKN050 OVC090 FM101800
                       VRB03KT P6SM SCT035 BKN050 OVC090 FM102100
                       VRB03KT P6SM SCT050 BKN090 OVC130 FM110600
                       VRB03KT P6SM SCT025 OVC050
                      TEMPO 1106/1109 -RA FM110900 25005KT P6SM
                       -SHRA BKN025 OVC050=
201203101148 TAF KCLM 101148Z 1012/1112 VRB03KT P6SM SCT005 BKN012 OVC030
                      TEMPO 1012/1016 5SM -DZ BR BKN005 OVC012
                       FM101800 VRB03KT P6SM BKN018 OVC030 FM102000
                       VRB03KT P6SM BKN028 OVC050 FM102200 VRB03KT
                       P6SM VCSH SCT035 BKN050 OVC100=
201203100901 KCLM 100901Z 1009/1106 VRB03KT 6SM -RA BR SCT005 OVC012 FM101200
                       VRB03KT P6SM SCT005 BKN012 OVC030
                      TEMPO 1012/1016 5SM -DZ BR BKN005 OVC012
                       FM101800 VRB03KT P6SM BKN018 OVC030 FM102000
                       VRB03KT P6SM BKN028 OVC050 FM102200 VRB03KT
                       P6SM VCSH SCT035 BKN050 OVC100=
201203100717 KCLM 100717Z 1007/1106 27005KT P6SM -RA SCT005 OVC015
                      TEMPO 1007/1009 5SM -RA BR BKN005 OVC015
                       FM100900 25005KT 5SM -RA BR BKN005 OVC012
                       FM101200 VRB03KT P6SM SCT005 BKN012 OVC030
                       TEMPO 1012/1016 5SM -DZ BR BKN005 OVC012
                       FM101800 VRB03KT P6SM BKN018 OVC030 FM102000
                       VRB03KT P6SM BKN028 OVC050 FM102200 VRB03KT
                       P6SM VCSH SCT035 BKN050 OVC100=
201203100546 TAF KCLM 100546Z 1006/1106 29005KT P6SM -RA BKN006 OVC015 FM101200
                       09004KT P6SM BKN040 OVC100 FM101800 09004KT
                       P6SM -RA SCT020 OVC040=
201203100206 KCLM 100206Z 1002/1024 VRB04KT P6SM SCT004 OVC014
                      TEMPO 1002/1005 5SM -RA BR OVC004 FM100600
                       27007KT P6SM VCSH BKN025 BKN050 BKN100 FM101200
                       09004KT P6SM BKN040 OVC100 FM101800 09004KT
                       P6SM -RA SCT020 OVC040=
201203100036 KCLM 100036Z 1001/1024 VRB04KT P6SM SCT015 OVC050
                      TEMPO 1001/1005 5SM -RA BR BKN015 OVC040
                       FM100500 27007KT P6SM VCSH BKN025 BKN050
                       BKN100 FM101200 09004KT P6SM BKN040 OVC100
                       FM101800 09004KT P6SM -RA SCT020 OVC040=
201203092320 TAF KCLM 092320Z 1000/1024 27007KT P6SM VCSH SCT025 OVC050 FM100600
                       25005KT P6SM VCSH BKN025 BKN050 BKN100 FM101200
                       09004KT P6SM BKN040 OVC100 FM101800 09004KT
                       P6SM -RA SCT020 OVC040=
201203091720 TAF KCLM 091720Z 0918/1018 VRB03KT P6SM -RA SCT025 OVC050
                      TEMPO 0920/0924 5SM -RA BR BKN020 OVC040
                       FM100000 VRB03KT 5SM -RA BR SCT008 OVC015
                       TEMPO 1002/1006 BKN008 OVC015 FM100600 VRB03KT
                       P6SM VCSH BKN015 OVC030 FM101600 09004KT
                       P6SM SCT015 BKN040=
201203091230 KCLM 091230Z 0913/1012 15006KT P6SM SCT090 OVC150 FM091500 15006KT
                       P6SM VCSH SCT050 OVC090 FM091800 VRB03KT
                       P6SM -RA SCT025 OVC050 FM092100 VRB03KT
                       P6SM -RA OVC025 FM100000 VRB03KT 5SM -RA
                       BR SCT008 OVC015
                      TEMPO 1002/1006 BKN008 OVC015 FM100600 VRB03KT
                       P6SM VCSH BKN015 OVC030=
201203091144 TAF KCLM 091144Z 0912/1012 VRB03KT P6SM SCT090 OVC150 FM091500
                       VRB03KT P6SM VCSH SCT050 OVC090 FM091800
                       VRB03KT P6SM -RA SCT025 OVC050 FM092100
                       VRB03KT P6SM -RA OVC025 FM100000 VRB03KT
                       5SM -RA BR SCT008 OVC015
                      TEMPO 1002/1006 BKN008 OVC015 FM100600 VRB03KT
                       P6SM VCSH BKN015 OVC030=
201203090542 TAF KCLM 090542Z 0906/1006 VRB03KT P6SM FEW120 OVC250 FM091200
                       VRB03KT P6SM SCT090 OVC150 FM091500 VRB03KT
                       P6SM VCSH SCT050 OVC090 FM091800 VRB03KT
                       P6SM -RA SCT025 OVC050 FM092100 VRB03KT
                       P6SM -RA OVC025 FM100000 VRB03KT 5SM -RA
                       BR SCT008 OVC015=
201203082341 TAF KCLM 082341Z 0900/0924 VRB03KT P6SM OVC200 FM091000 VRB03KT
                       P6SM BKN050 OVC200 FM091500 VRB03KT P6SM
                       -RA OVC050 FM092000 03003KT 6SM -RA BR SCT006
                       OVC012=
201203081740 TAF KCLM 081740Z 0818/0918 07006KT P6SM OVC200 FM090200 VRB03KT
                       P6SM OVC200 FM091000 VRB03KT P6SM BKN050
                       OVC120 FM091500 VRB03KT P6SM -RA OVC050=
201203081136 TAF KCLM 081136Z 0812/0912 VRB03KT P6SM BKN200 FM081700 07006KT
                       P6SM BKN200 FM090200 VRB03KT P6SM OVC200
                       FM090600 VRB03KT P6SM SCT090 OVC150=
201203080534 TAF KCLM 080534Z 0806/0906 VRB03KT P6SM SCT040 BKN200 FM080900
                       VRB03KT P6SM SCT200 FM081800 07006KT P6SM
                       SCT200 FM090200 VRB03KT P6SM BKN200=
201203080305 KCLM 080305Z 0803/0824 VRB03KT P6SM BKN040 BKN200 FM080600 VRB03KT
                       P6SM SCT040 BKN200 FM080900 VRB03KT P6SM
                       SCT200=
201203072336 TAF KCLM 072336Z 0800/0824 07006KT P6SM SCT040 BKN200 FM080300
                       VRB03KT P6SM BKN200=
201203071740 TAF KCLM 071740Z 0718/0818 28006KT P6SM SCT060 BKN200 FM072200
                       03006KT P6SM BKN200 FM080300 VRB03KT P6SM
                       BKN200=
201203071210 TAF KCLM 071210Z 0712/0812 25009KT P6SM SKC FM072000 VRB03KT P6SM
                       SKC=
201203070530 TAF KCLM 070530Z 0706/0806 25006KT P6SM SCT070 BKN250 FM071800
                       VRB03KT P6SM BKN250=
201203062320 TAF KCLM 062320Z 0700/0724 VRB03KT P6SM FEW040 FM070400 23005KT
                       P6SM SKC FM071800 05003KT P6SM SCT250=
201203061733 TAF KCLM 061733Z 0618/0718 06005KT P6SM SCT050
                      TEMPO 0618/0621 BKN050 FM070000 VRB03KT P6SM
                       FEW250 FM070400 23005KT P6SM SCT250=
201203061135 TAF KCLM 061135Z 0612/0712 25007KT P6SM VCSH OVC050 FM061900 25010KT
                       P6SM SCT250 FM070000 VRB06KT P6SM FEW250=
201203060535 TAF KCLM 060535Z 0606/0706 24012G18KT P6SM VCSH SCT040 BKN100 FM061400
                       25010KT P6SM SCT250 FM062100 VRB06KT P6SM
                       FEW250=
201203052350 TAF KCLM 052350Z 0600/0624 29015G25KT P6SM SKC FM060800 26014KT
                       P6SM SKC FM061400 25010KT P6SM SKC=
201203051720 TAF KCLM 051720Z 0518/0618 29014G24KT P6SM VCSH SCT040 BKN070
                      TEMPO 0518/0522 BKN040 BKN070 FM060000 28014G24KT
                       P6SM VCSH SCT040 BKN070=
201203051135 TAF KCLM 051135Z 0512/0612 25008KT P6SM -RA SCT005 BKN020 OVC035
                       TEMPO 0513/0517 4SM -RA BR OVC005 FM051700
                       29014G24KT P6SM VCSH SCT020 BKN040 FM060000
                       28014G24KT P6SM VCSH SCT040 BKN070=
201203050535 TAF KCLM 050535Z 0506/0606 00000KT P6SM BKN016 FM051200 27010KT
                       4SM -RA BR OVC008 FM051600 29014G25KT P6SM
                       VCSH SCT020 BKN040=
201203042320 TAF KCLM 042320Z 0500/0524 08004KT P6SM SCT011 BKN020 OVC090
                      TEMPO 0500/0504 -RA FM050400 25005KT P6SM
                       -RA OVC015 FM051200 27010KT 4SM RASN OVC008
                       FM051600 29014G25KT P6SM VCSH SCT020 BKN040=
201203041943 KCLM 041943Z 0420/0518 12008KT P6SM BKN011 BKN018 OVC023 FM042200
                       VRB03KT P6SM SCT015 OVC050
                      TEMPO 0422/0502 BKN015 OVC050 FM050200 VRB03KT
                       P6SM BKN015 OVC050
                      TEMPO 0502/0506 -RA FM050600 25005KT P6SM
                       -RA OVC015 FM051200 27010KT 4SM RASN OVC008
                       FM051600 29014G25KT P6SM VCSH SCT020 BKN040=
201203041736 TAF KCLM 041736Z 0418/0518 00000KT P6SM BKN011 OVC100 FM042000
                       VRB03KT P6SM SCT015 OVC100 FM042300 VRB03KT
                       P6SM OVC050
                      TEMPO 0502/0506 -RA FM050600 25005KT P6SM
                       -RA OVC015 FM051200 27010KT 4SM RASN OVC008
                       FM051600 29014G25KT P6SM VCSH SCT020 BKN040=
201203041615 KCLM 041615Z 0416/0512 23003KT P6SM SCT015 OVC110 FM042200 VRB03KT
                       P6SM OVC050
                      TEMPO 0502/0506 -RA FM050600 25005KT P6SM
                       -RA OVC015=
201203041402 KCLM 041402Z 0414/0512 00000KT P6SM VCSH OVC006
                      TEMPO 0414/0417 3SM BR FM041700 VRB02KT P6SM
                       OVC017 FM042200 VRB03KT P6SM OVC050
                      TEMPO 0502/0506 -RA FM050600 25005KT P6SM
                       -RA OVC015=
201203041135 TAF KCLM 041135Z 0412/0512 00000KT 3SM BR OVC004
                      TEMPO 0412/0416 1/2SM FG VV001 FM041800 VRB02KT
                       P6SM OVC025 FM042200 VRB03KT P6SM OVC050
                       TEMPO 0502/0506 -RA FM050600 25005KT P6SM
                       -RA OVC015=
201203040905 KCLM 040905Z 0409/0506 23003KT P6SM OVC007
                      TEMPO 0409/0413 1SM BR VV001 FM041800 35002KT
                       P6SM OVC025 FM042200 02003KT P6SM OVC050
                       TEMPO 0500/0504 -RA=
201203040535 TAF KCLM 040535Z 0406/0506 00000KT P6SM SCT007 BKN070 OVC080 FM041000
                       23003KT P6SM OVC007 FM041800 35002KT P6SM
                       OVC025 FM042200 02003KT P6SM OVC050
                      TEMPO 0500/0504 -RA=
201203032326 TAF KCLM 032326Z 0400/0424 31009G14KT P6SM SCT060 OVC080 FM040400
                       VRB03KT P6SM SCT030 BKN080 FM041000 VRB03KT
                       P6SM OVC025 FM041800 VRB03KT P6SM SCT035
                       BKN100=
201203031720 TAF KCLM 031720Z 0318/0418 30009G19KT P6SM FEW090 BKN110 FM040400
                       VRB03KT P6SM BKN030 FM041000 VRB03KT P6SM
                       OVC025=
201203031623 KCLM 031623Z 0316/0412 31009G17KT P6SM SCT060 FM040400 VRB03KT
                       P6SM BKN030 FM040800 VRB03KT P6SM OVC025=
201203031622 KCLM 031622Z 0316/0412 31010G17KT P6SM SCT060 FM031800 VRB03KT
                       P6SM SCT030 BKN050 FM040400 VRB03KT P6SM
                       BKN030 FM040800 VRB03KT P6SM OVC025=
201203031120 TAF KCLM 031120Z 0312/0412 VRB03KT P6SM SCT020 OVC050 FM031800
                       VRB03KT P6SM SCT030 BKN050 FM040400 VRB03KT
                       P6SM BKN030 FM040800 VRB03KT P6SM OVC025=
201203030520 TAF KCLM 030520Z 0306/0406 00000KT P6SM OVC040 FM031200 VRB05KT
                       P6SM SCT015 BKN035 FM031800 VRB05KT P6SM
                       SCT030 BKN050=
201203022320 TAF KCLM 022320Z 0300/0324 03003KT P6SM OVC060 FM030300 VRB05KT
                       P6SM -RA SCT006 OVC015 FM031200 VRB05KT
                       P6SM SCT015 BKN035 FM031800 VRB05KT P6SM
                       SCT030 BKN050=
201203021731 TAF KCLM 021731Z 0218/0318 00000KT P6SM OVC060 FM030100 VRB05KT
                       P6SM -RA SCT006 OVC012 FM031200 VRB05KT
                       P6SM BKN015 OVC030=
201203021131 TAF KCLM 021131Z 0212/0312 22005KT P6SM OVC080 FM021600 22005KT
                       P6SM BKN030 OVC060 FM021800 VRB03KT P6SM
                       -RA OVC015 FM030100 VRB05KT P6SM -RA SCT006
                       OVC012=
201203020535 TAF KCLM 020535Z 0206/0306 25007KT P6SM SCT050 OVC100 FM021300
                       VRB03KT P6SM BKN025 OVC050 FM021800 VRB03KT
                       P6SM -RA OVC015=
201203020204 TAF AMD KCLM 020204Z 0202/0224 VRB03KT P6SM FEW050 BKN250 FM020600
                       18004KT P6SM BKN050 OVC120 FM021500 VRB03KT
                       P6SM BKN025 OVC040 FM021800 VRB03KT P6SM
                       -RA OVC015=
201203012340 TAF KCLM 012340Z 0200/0224 31010KT P6SM SCT030 BKN250 FM020600
                       18004KT P6SM BKN050 OVC120 FM021500 VRB03KT
                       P6SM BKN025 OVC040 FM021800 VRB03KT P6SM
                       -RA OVC015=
201203011740 TAF KCLM 011740Z 0118/0218 27008KT P6SM BKN040
                      TEMPO 0118/0120 SCT040 FM012000 30006KT P6SM
                       SCT060 FM020400 24005KT P6SM BKN050 FM020900
                       25003KT P6SM BKN035 OVC050
                      TEMPO 0214/0218 -RA BKN025 OVC040=
201203011121 TAF KCLM 011121Z 0112/0212 24005KT P6SM SCT040 BKN070 FM012000
                       30006KT P6SM SCT050 FM020200 24005KT P6SM
                       BKN050=
201203010525 TAF KCLM 010525Z 0106/0206 00000KT P6SM OVC060
                      TEMPO 0106/0110 -SHRASN BKN020 OVC060 FM012000
                       30006KT P6SM SCT050 FM020200 24005KT P6SM
                       BKN050=