##########################################################
# Query made at 02/16/2025 02:16:38 UTC
# Time interval: from 07/01/2012 00:00  to 07/31/2012 23:59  UTC
##########################################################

##########################################################
# KCLM, Port Angeles, William R. Fairchild International Airport (United States)
# WMO index: -----. WIGOS ID: Unknown
# Latitude 48-07-20N. Longitude 123-30-19W. Altitude 87 m.
##########################################################

###################################
#  METAR/SPECI from KCLM
###################################
201207312353 METAR KCLM 312353Z AUTO 30008KT 10SM CLR 18/12 A3018 RMK AO2 SLP220 T01780117 10183 20167 58002=
201207312253 METAR KCLM 312253Z AUTO 32010G18KT 10SM CLR 17/12 A3019 RMK AO2 SLP222 T01720117=
201207312153 METAR KCLM 312153Z AUTO 32012G18KT 10SM CLR 18/12 A3019 RMK AO2 SLP222 T01780117=
201207312053 METAR KCLM 312053Z AUTO 31011KT 10SM CLR 18/12 A3019 RMK AO2 SLP223 T01830117 51002=
201207311953 METAR KCLM 311953Z AUTO 31012G15KT 10SM CLR 17/12 A3019 RMK AO2 SLP223 T01720117=
201207311853 METAR KCLM 311853Z AUTO 30008KT 10SM CLR 18/12 A3019 RMK AO2 SLP222 T01780117=
201207311753 METAR KCLM 311753Z AUTO 31007KT 10SM CLR 17/11 A3018 RMK AO2 SLP220 T01720106 10178 20100 51004=
201207311653 METAR KCLM 311653Z AUTO 30006KT 10SM CLR 16/11 A3018 RMK AO2 SLP220 T01560106=
201207311553 METAR KCLM 311553Z AUTO 29005KT 10SM CLR 14/10 A3018 RMK AO2 SLP221 T01390100=
201207311453 METAR KCLM 311453Z AUTO 30005KT 10SM CLR 14/10 A3017 RMK AO2 SLP217 T01390100 53005=
201207311353 METAR KCLM 311353Z AUTO 30004KT 9SM CLR 13/09 A3016 RMK AO2 SLP214 T01280094=
201207311331 SPECI KCLM 311331Z AUTO 27005KT 10SM SCT023 12/10 A3016 RMK AO2 T01220100=
201207311253 METAR KCLM 311253Z AUTO 24003KT 10SM OVC023 10/08 A3016 RMK AO2 SLP212 T01000083=
201207311233 SPECI KCLM 311233Z AUTO 00000KT 10SM BKN023 12/09 A3016 RMK AO2 T01170089=
201207311153 METAR KCLM 311153Z AUTO 23004KT 10SM CLR 11/09 A3016 RMK AO2 SLP212 T01110089 10139 20111 58001=
201207311053 METAR KCLM 311053Z AUTO 24003KT 10SM CLR 12/09 A3016 RMK AO2 SLP213 T01170089=
201207311043 SPECI KCLM 311043Z AUTO 25004KT 10SM SCT019 12/09 A3016 RMK AO2 T01170089=
201207310953 METAR KCLM 310953Z AUTO 27005KT 10SM OVC021 13/09 A3016 RMK AO2 SLP213 T01330094=
201207310853 METAR KCLM 310853Z AUTO 28007KT 10SM OVC020 13/10 A3016 RMK AO2 SLP213 T01330100 56004=
201207310753 METAR KCLM 310753Z AUTO 27005KT 10SM OVC020 13/10 A3016 RMK AO2 SLP214 T01330100 401720111=
201207310653 METAR KCLM 310653Z AUTO 27005KT 10SM OVC021 13/10 A3017 RMK AO2 SLP215 T01330100=
201207310553 METAR KCLM 310553Z AUTO 29008KT 10SM OVC021 14/10 A3017 RMK AO2 SLP217 T01390100 10156 20139 50002=
201207310453 METAR KCLM 310453Z AUTO 10SM OVC022 14/09 A3018 RMK AO2 SLP218 T01390094=
201207310353 METAR KCLM 310353Z AUTO 28008KT 10SM OVC024 14/09 A3017 RMK AO2 SLP217 T01440094=
201207310253 METAR KCLM 310253Z AUTO 27007KT 10SM OVC021 14/10 A3016 RMK AO2 SLP214 T01440100 55000=
201207310153 METAR KCLM 310153Z AUTO 28010KT 10SM OVC021 16/11 A3016 RMK AO2 SLP214 T01560106=
201207310053 METAR KCLM 310053Z AUTO 30011KT 10SM OVC019 16/11 A3016 RMK AO2 SLP213 T01560106=
201207302353 METAR KCLM 302353Z AUTO 28008KT 10SM OVC018 16/11 A3016 RMK AO2 SLP214 T01560106 10172 20144 55002=
201207302253 METAR KCLM 302253Z AUTO 31007KT 10SM OVC018 17/12 A3016 RMK AO2 SLP214 T01670117=
201207302153 METAR KCLM 302153Z AUTO 29008KT 10SM OVC016 17/12 A3017 RMK AO2 SLP215 T01670117=
201207302141 SPECI KCLM 302141Z AUTO 32007KT 10SM OVC015 16/12 A3017 RMK AO2 T01610117=
201207302053 METAR KCLM 302053Z AUTO 31006KT 10SM OVC014 16/12 A3017 RMK AO2 SLP216 T01610122 50004=
201207302019 SPECI KCLM 302019Z AUTO 31006KT 10SM OVC014 16/12 A3017 RMK AO2 T01560117=
201207301953 METAR KCLM 301953Z AUTO VRB03KT 10SM OVC016 16/12 A3017 RMK AO2 SLP216 T01560117=
201207301853 METAR KCLM 301853Z AUTO VRB05KT 10SM OVC017 16/12 A3017 RMK AO2 SLP215 T01560117=
201207301753 METAR KCLM 301753Z AUTO 36005KT 10SM OVC015 15/11 A3016 RMK AO2 SLP212 T01500111 10161 20111 51004=
201207301746 SPECI KCLM 301746Z AUTO 01003KT 10SM OVC015 15/11 A3016=
201207301653 METAR KCLM 301653Z AUTO 05003KT 10SM OVC013 15/11 A3015 RMK AO2 SLP211 T01500111=
201207301553 METAR KCLM 301553Z AUTO 22003KT 10SM OVC013 15/11 A3015 RMK AO2 SLP209 T01500111=
201207301527 SPECI KCLM 301527Z AUTO 21003KT 10SM OVC014 14/11 A3015 RMK AO2 T01440111=
201207301505 SPECI KCLM 301505Z AUTO 26004KT 10SM OVC015 14/11 A3015 RMK AO2 T01390111=
201207301453 METAR KCLM 301453Z AUTO 27005KT 10SM OVC014 14/11 A3014 RMK AO2 SLP208 T01390106 53005=
201207301404 SPECI KCLM 301404Z AUTO 28007KT 10SM OVC014 13/11 A3014 RMK AO2 T01330106=
201207301353 METAR KCLM 301353Z AUTO 26006KT 10SM BKN015 OVC060 13/11 A3014 RMK AO2 SLP205 T01280106=
201207301345 SPECI KCLM 301345Z AUTO 26006KT 10SM BKN015 OVC060 13/11 A3013 RMK AO2 T01280106=
201207301253 METAR KCLM 301253Z AUTO 29007KT 10SM CLR 12/09 A3013 RMK AO2 SLP204 T01170094=
201207301153 METAR KCLM 301153Z AUTO 29009KT 10SM CLR 12/09 A3013 RMK AO2 SLP202 T01170094 10128 20111 53002=
201207301053 METAR KCLM 301053Z AUTO 28008KT 10SM CLR 12/09 A3012 RMK AO2 SLP200 T01170094=
201207300953 METAR KCLM 300953Z AUTO 27009KT 10SM CLR 12/10 A3012 RMK AO2 SLP201 T01220100=
201207300853 METAR KCLM 300853Z AUTO 28008KT 10SM CLR 12/10 A3012 RMK AO2 SLP200 T01220100 56003=
201207300753 METAR KCLM 300753Z AUTO 27008KT 10SM CLR 12/10 A3013 RMK AO2 SLP202 T01220100 401890111=
201207300653 METAR KCLM 300653Z AUTO 28011KT 10SM CLR 12/10 A3012 RMK AO2 SLP200 T01220100=
201207300553 METAR KCLM 300553Z AUTO 28013KT 10SM CLR 12/09 A3013 RMK AO2 SLP203 T01220094 10178 20122 50001=
201207300453 METAR KCLM 300453Z AUTO 28013KT 10SM CLR 13/09 A3013 RMK AO2 SLP203 T01280094=
201207300353 METAR KCLM 300353Z AUTO 29008KT 10SM CLR 13/09 A3013 RMK AO2 SLP201 T01330094=
201207300253 METAR KCLM 300253Z AUTO 29013G20KT 10SM CLR 15/10 A3013 RMK AO2 SLP201 T01500100 55003=
201207300153 METAR KCLM 300153Z AUTO 31012KT 10SM CLR 17/10 A3012 RMK AO2 SLP201 T01670100=
201207300053 METAR KCLM 300053Z AUTO 31009KT 10SM CLR 17/11 A3013 RMK AO2 SLP202 T01720106=
201207292353 METAR KCLM 292353Z AUTO 31012G19KT 10SM CLR 17/11 A3013 RMK AO2 SLP204 T01720106 10189 20167 58011=
201207292253 METAR KCLM 292253Z AUTO 31011KT 10SM CLR 18/11 A3015 RMK AO2 SLP209 T01830111=
201207292153 METAR KCLM 292153Z AUTO 31011KT 10SM CLR 18/11 A3016 RMK AO2 SLP213 T01830111=
201207292053 METAR KCLM 292053Z AUTO 31010G17KT 10SM CLR 18/11 A3017 RMK AO2 SLP215 T01780111 58003=
201207291953 METAR KCLM 291953Z AUTO 32009KT 10SM CLR 17/11 A3017 RMK AO2 SLP217 T01720111=
201207291853 METAR KCLM 291853Z AUTO 32008KT 280V350 10SM CLR 17/11 A3018 RMK AO2 SLP218 T01720111=
201207291753 METAR KCLM 291753Z AUTO 30008KT 10SM FEW018 17/11 A3018 RMK AO2 SLP219 T01670106 10172 20111 50001=
201207291744 SPECI KCLM 291744Z AUTO 29009KT 10SM SCT018 17/11 A3018 RMK AO2 T01720111=
201207291653 METAR KCLM 291653Z AUTO 30007KT 10SM OVC017 17/11 A3018 RMK AO2 SLP220 T01670106=
201207291553 METAR KCLM 291553Z AUTO VRB04KT 10SM OVC016 16/11 A3018 RMK AO2 SLP219 T01560106=
201207291453 METAR KCLM 291453Z AUTO 29005KT 10SM OVC017 14/11 A3017 RMK AO2 SLP218 T01440106 51005=
201207291353 METAR KCLM 291353Z AUTO 29007KT 10SM OVC020 14/11 A3017 RMK AO2 SLP216 T01390106=
201207291253 METAR KCLM 291253Z AUTO 28005KT 10SM BKN020 12/09 A3016 RMK AO2 SLP214 T01170094=
201207291246 SPECI KCLM 291246Z AUTO 28005KT 10SM BKN021 12/09 A3016 RMK AO2 T01220094=
201207291153 METAR KCLM 291153Z AUTO 26004KT 10SM CLR 12/09 A3016 RMK AO2 SLP212 T01170094 10133 20111 53002=
201207291053 METAR KCLM 291053Z AUTO 25005KT 10SM CLR 12/09 A3015 RMK AO2 SLP210 T01170094=
201207290953 METAR KCLM 290953Z AUTO 27005KT 10SM CLR 12/09 A3015 RMK AO2 SLP209 T01220094=
201207290853 METAR KCLM 290853Z AUTO 27006KT 10SM CLR 13/09 A3015 RMK AO2 SLP210 T01280094 55002=
201207290753 METAR KCLM 290753Z AUTO 27007KT 10SM CLR 13/10 A3015 RMK AO2 SLP209 T01280100 401890122=
201207290653 METAR KCLM 290653Z AUTO 26006KT 10SM CLR 13/11 A3015 RMK AO2 SLP209 T01280106=
201207290553 METAR KCLM 290553Z AUTO 28008KT 10SM CLR 13/10 A3016 RMK AO2 SLP212 T01330100 10183 20128 50004=
201207290453 METAR KCLM 290453Z AUTO 28009KT 10SM CLR 14/10 A3016 RMK AO2 SLP212 T01390100=
201207290353 METAR KCLM 290353Z AUTO 28009KT 10SM CLR 14/10 A3015 RMK AO2 SLP209 T01440100=
201207290253 METAR KCLM 290253Z AUTO 30009KT 10SM CLR 16/11 A3014 RMK AO2 SLP207 T01610111 56006=
201207290153 METAR KCLM 290153Z AUTO 30008KT 10SM FEW048 17/11 A3014 RMK AO2 SLP208 T01670106=
201207290053 METAR KCLM 290053Z AUTO 31008KT 10SM OVC049 18/12 A3015 RMK AO2 SLP210 T01780117=
201207282353 METAR KCLM 282353Z AUTO 31012KT 10SM CLR 18/12 A3016 RMK AO2 SLP213 T01780117 10189 20161 58004=
201207282253 METAR KCLM 282253Z AUTO 31011KT 10SM CLR 18/12 A3017 RMK AO2 SLP215 T01780117=
201207282153 METAR KCLM 282153Z AUTO 33010G15KT 10SM CLR 18/12 A3017 RMK AO2 SLP217 T01830117=
201207282053 METAR KCLM 282053Z AUTO 32009KT 10SM SCT022 18/11 A3017 RMK AO2 SLP218 T01780111 50001=
201207281953 METAR KCLM 281953Z AUTO 32008KT 10SM OVC021 18/12 A3017 RMK AO2 SLP218 T01830117=
201207281853 METAR KCLM 281853Z AUTO 32008KT 10SM OVC019 17/12 A3018 RMK AO2 SLP219 T01670117=
201207281753 METAR KCLM 281753Z AUTO 32007KT 10SM OVC018 16/11 A3017 RMK AO2 SLP216 T01610111 10161 20133 53005=
201207281653 METAR KCLM 281653Z AUTO 32007KT 10SM OVC019 16/12 A3016 RMK AO2 SLP214 T01560117=
201207281553 METAR KCLM 281553Z AUTO 32005KT 10SM OVC020 15/11 A3016 RMK AO2 SLP213 T01500111=
201207281453 METAR KCLM 281453Z AUTO 00000KT 10SM OVC019 14/11 A3016 RMK AO2 SLP212 T01390111 53008=
201207281353 METAR KCLM 281353Z AUTO 00000KT 10SM OVC018 14/11 A3014 RMK AO2 SLP207 T01390111=
201207281253 METAR KCLM 281253Z AUTO 00000KT 10SM OVC018 14/11 A3013 RMK AO2 SLP204 T01390111=
201207281153 METAR KCLM 281153Z AUTO 00000KT 10SM OVC017 14/11 A3013 RMK AO2 SLP204 T01390111 10139 20133 51004=
201207281053 METAR KCLM 281053Z AUTO 00000KT 10SM OVC018 13/11 A3013 RMK AO2 SLP202 T01330111=
201207280953 METAR KCLM 280953Z AUTO 00000KT 10SM OVC018 14/12 A3013 RMK AO2 SLP203 T01390117=
201207280853 METAR KCLM 280853Z AUTO 00000KT 10SM OVC017 14/12 A3012 RMK AO2 SLP200 T01390117 52001=
201207280753 METAR KCLM 280753Z AUTO 29004KT 10SM OVC016 14/12 A3012 RMK AO2 SLP201 T01390117 401670117=
201207280713 SPECI KCLM 280713Z AUTO 28007KT 10SM OVC015 14/12 A3012 RMK AO2 T01390117=
201207280653 METAR KCLM 280653Z AUTO 29008KT 10SM OVC014 14/12 A3012 RMK AO2 SLP199 T01390117=
201207280553 METAR KCLM 280553Z AUTO 28006KT 10SM OVC014 14/12 A3012 RMK AO2 SLP199 T01390117 10161 20139 51010=
201207280453 METAR KCLM 280453Z AUTO 28007KT 10SM FEW008 OVC014 14/12 A3012 RMK AO2 SLP198 T01390117=
201207280404 SPECI KCLM 280404Z AUTO 27008KT 10SM SCT008 OVC014 14/12 A3011 RMK AO2 T01390117=
201207280353 METAR KCLM 280353Z AUTO 28006KT 10SM BKN008 OVC014 14/12 A3010 RMK AO2 SLP193 T01390117=
201207280327 SPECI KCLM 280327Z AUTO 27007KT 10SM BKN009 OVC014 14/12 A3010 RMK AO2 T01390117=
201207280317 SPECI KCLM 280317Z AUTO 27006KT 10SM SCT009 OVC013 14/12 A3009 RMK AO2 T01390117=
201207280253 METAR KCLM 280253Z AUTO 29008KT 10SM OVC011 14/12 A3009 RMK AO2 SLP189 T01440117 53003=
201207280243 SPECI KCLM 280243Z AUTO 28009KT 10SM BKN009 OVC016 14/12 A3009 RMK AO2 T01440117=
201207280225 SPECI KCLM 280225Z AUTO 30008KT 10SM OVC016 15/12 A3008 RMK AO2 T01500117=
201207280153 METAR KCLM 280153Z AUTO 29009KT 10SM BKN013 OVC020 15/12 A3008 RMK AO2 SLP186 T01500117=
201207280053 METAR KCLM 280053Z AUTO 31007KT 10SM OVC020 16/12 A3008 RMK AO2 SLP187 T01560117=
201207280004 SPECI KCLM 280004Z AUTO 30008KT 280V340 10SM SCT014 OVC021 16/12 A3008 RMK AO2 T01610117=
201207272353 METAR KCLM 272353Z AUTO 31008KT 10SM BKN014 OVC021 16/12 A3008 RMK AO2 SLP186 T01610117 10167 20139 58002=
201207272351 SPECI KCLM 272351Z AUTO 31008KT 10SM BKN014 OVC021 16/12 A3008 RMK AO2=
201207272309 SPECI KCLM 272309Z AUTO 29010KT 10SM SCT013 OVC023 16/12 A3009 RMK AO2 T01610117=
201207272253 METAR KCLM 272253Z AUTO 29008KT 10SM BKN013 OVC022 16/12 A3009 RMK AO2 SLP188 T01610117=
201207272153 METAR KCLM 272153Z AUTO 28006KT 10SM OVC013 16/12 A3009 RMK AO2 SLP188 T01610117=
201207272053 METAR KCLM 272053Z AUTO 31008KT 10SM OVC014 15/11 A3008 RMK AO2 SLP186 T01500111 53012=
201207272029 SPECI KCLM 272029Z AUTO 31010KT 10SM OVC013 16/11 A3008 RMK AO2 T01560111=
201207272000 SPECI KCLM 272000Z AUTO 31006KT 10SM OVC015 16/12 A3007 RMK AO2 T01560117=
201207271953 METAR KCLM 271953Z AUTO 31006KT 10SM OVC014 16/11 A3006 RMK AO2 SLP181 T01560111=
201207271903 SPECI KCLM 271903Z AUTO 31004KT 10SM OVC010 15/11 A3006 RMK AO2 T01500111=
201207271853 METAR KCLM 271853Z AUTO 28007KT 10SM OVC009 14/11 A3006 RMK AO2 SLP179 T01440111=
201207271753 METAR KCLM 271753Z AUTO 34005KT 10SM OVC009 14/11 A3005 RMK AO2 SLP174 T01390106 10139 20117 51012=
201207271653 METAR KCLM 271653Z AUTO VRB05KT 10SM OVC008 13/11 A3004 RMK AO2 SLP171 T01330106=
201207271553 METAR KCLM 271553Z AUTO 29006KT 10SM OVC007 13/11 A3003 RMK AO2 SLP169 T01280106=
201207271503 SPECI KCLM 271503Z AUTO 29006KT 10SM OVC005 12/11 A3002 RMK AO2 T01220106=
201207271453 METAR KCLM 271453Z AUTO 29004KT 10SM OVC004 12/11 A3001 RMK AO2 SLP163 T01220106 53012=
201207271353 METAR KCLM 271353Z AUTO 29008KT 10SM OVC004 12/11 A3000 RMK AO2 SLP157 T01220106=
201207271253 METAR KCLM 271253Z AUTO 29007KT 10SM OVC004 12/11 A2999 RMK AO2 SLP154 T01170106=
201207271153 METAR KCLM 271153Z AUTO 29008KT 10SM OVC005 12/11 A2998 RMK AO2 SLP151 T01220106 10128 20117 53005=
201207271106 SPECI KCLM 271106Z AUTO 29006KT 10SM OVC005 12/11 A2997 RMK AO2 T01170106=
201207271053 METAR KCLM 271053Z AUTO 28008KT 10SM OVC004 12/11 A2997 RMK AO2 SLP148 T01220106=
201207270953 METAR KCLM 270953Z AUTO 29009KT 10SM OVC004 12/11 A2997 RMK AO2 SLP147 T01220106=
201207270853 METAR KCLM 270853Z AUTO 29011KT 10SM OVC003 12/11 A2996 RMK AO2 SLP146 T01220106 53005=
201207270753 METAR KCLM 270753Z AUTO 29012KT 10SM OVC002 12/11 A2995 RMK AO2 SLP142 T01220106 402000100=
201207270653 METAR KCLM 270653Z AUTO 29012KT 10SM OVC002 12/11 A2995 RMK AO2 SLP141 T01220111=
201207270553 METAR KCLM 270553Z AUTO 29011KT 10SM OVC002 12/11 A2995 RMK AO2 SLP141 T01220111 10200 20122 53005=
201207270453 METAR KCLM 270453Z AUTO 29009G17KT 6SM BR OVC002 12/11 A2994 RMK AO2 SLP139 T01220111=
201207270353 METAR KCLM 270353Z AUTO 29008KT 10SM BKN004 OVC075 12/11 A2993 RMK AO2 SLP137 T01220111=
201207270327 SPECI KCLM 270327Z AUTO 30012KT 10SM BKN005 OVC070 13/11 A2993 RMK AO2 T01280111=
201207270312 SPECI KCLM 270312Z AUTO 30010KT 10SM SCT005 BKN065 13/11 A2993 RMK AO2 T01330111=
201207270253 METAR KCLM 270253Z AUTO 29009KT 10SM FEW065 14/11 A2992 RMK AO2 SLP131 T01390111 55003=
201207270153 METAR KCLM 270153Z AUTO 29007KT 10SM CLR 17/12 A2991 RMK AO2 SLP128 T01720122=
201207270053 METAR KCLM 270053Z AUTO 31006KT 10SM CLR 19/13 A2992 RMK AO2 SLP131 T01940133=
201207262353 METAR KCLM 262353Z AUTO 31006KT 10SM CLR 19/13 A2993 RMK AO2 SLP134 T01890128 10194 20161 58012=
201207262253 METAR KCLM 262253Z AUTO VRB06KT 10SM CLR 19/13 A2994 RMK AO2 SLP138 T01890128=
201207262153 METAR KCLM 262153Z AUTO 30007KT 10SM CLR 18/13 A2995 RMK AO2 SLP143 T01830128=
201207262053 METAR KCLM 262053Z AUTO 35005KT 10SM CLR 17/12 A2996 RMK AO2 SLP146 T01720122 58007=
201207261953 METAR KCLM 261953Z AUTO 31006KT 10SM CLR 17/12 A2997 RMK AO2 SLP149 T01720122=
201207261853 METAR KCLM 261853Z AUTO VRB04KT 10SM CLR 18/13 A2998 RMK AO2 SLP151 T01780128=
201207261753 METAR KCLM 261753Z AUTO VRB03KT 10SM CLR 16/12 A2998 RMK AO2 SLP153 T01610117 10161 20100 55002=
201207261653 METAR KCLM 261653Z AUTO VRB04KT 10SM FEW004 14/12 A2998 RMK AO2 SLP153 T01440117=
201207261651 SPECI KCLM 261651Z AUTO 34003KT 10SM SCT003 14/12 A2998 RMK AO2=
201207261613 SPECI KCLM 261613Z AUTO 30004KT 3SM BR OVC002 12/11 A2999 RMK AO2 T01220111=
201207261611 SPECI KCLM 261611Z AUTO 32003KT 1 1/2SM BR OVC002 12/12 A2999 RMK AO2 VIS 1/2V5 T01220117=
201207261605 SPECI KCLM 261605Z AUTO VRB03KT 3/4SM BR OVC001 12/11 A2999 RMK AO2 T01220111=
201207261553 METAR KCLM 261553Z AUTO 34003KT 1SM BR OVC001 12/11 A2999 RMK AO2 SLP155 T01220111=
201207261545 SPECI KCLM 261545Z AUTO 32004KT 1 1/4SM BR OVC001 12/11 A2999 RMK AO2 VIS 3/4V3 T01220111=
201207261537 SPECI KCLM 261537Z AUTO 00000KT 2SM BR OVC001 12/12 A2998 RMK AO2 T01220117=
201207261528 SPECI KCLM 261528Z AUTO VRB03KT 1 1/4SM BR OVC002 12/11 A2998 RMK AO2 T01220111=
201207261506 SPECI KCLM 261506Z AUTO 29004KT 1/2SM FG VV002 12/11 A2998 RMK AO2 T01170111=
201207261453 METAR KCLM 261453Z AUTO 28004KT 1/4SM FG VV002 12/11 A2998 RMK AO2 SLP151 T01170106 53005=
201207261353 METAR KCLM 261353Z AUTO 30004KT 1/4SM FG VV002 11/10 A2997 RMK AO2 SLP148 T01060100=
201207261350 SPECI KCLM 261350Z AUTO 30004KT 1/4SM FG VV002 11/10 A2997 RMK AO2=
201207261333 SPECI KCLM 261333Z AUTO 29004KT 3/4SM BR OVC001 11/10 A2997 RMK AO2 T01060100=
201207261328 SPECI KCLM 261328Z AUTO 28004KT 1 1/2SM BR OVC002 11/09 A2997 RMK AO2 T01060094=
201207261307 SPECI KCLM 261307Z AUTO 28005KT 3SM BR OVC002 10/09 A2997 RMK AO2 T01000094=
201207261303 SPECI KCLM 261303Z AUTO 28004KT 1SM BR OVC002 10/09 A2997 RMK AO2 T01000094=
201207261253 METAR KCLM 261253Z AUTO 29005KT 1/4SM FG VV002 10/09 A2997 RMK AO2 SLP148 T01000094=
201207261247 SPECI KCLM 261247Z AUTO 28005KT 1 1/4SM BR OVC002 10/09 A2997 RMK AO2 VIS 1/4V5=
201207261241 SPECI KCLM 261241Z AUTO 28004KT 5SM BR OVC002 10/09 A2997 RMK AO2 T01000094=
201207261233 SPECI KCLM 261233Z AUTO 28003KT 2SM BR OVC002 10/09 A2996 RMK AO2 T01000094=
201207261226 SPECI KCLM 261226Z AUTO 28003KT 3/4SM BR VV002 10/09 A2996 RMK AO2 T01000094=
201207261217 SPECI KCLM 261217Z AUTO 29004KT 1 1/4SM BR OVC002 10/09 A2996 RMK AO2 T01000094=
201207261202 SPECI KCLM 261202Z AUTO 28005KT 1/2SM FG VV002 10/09 A2996 RMK AO2 T01000094=
201207261153 METAR KCLM 261153Z AUTO 29004KT 1/4SM FG VV001 10/09 A2996 RMK AO2 SLP146 T01000094 10144 20100 51006=
201207261053 METAR KCLM 261053Z AUTO 00000KT 1/4SM FG VV001 11/10 A2996 RMK AO2 SLP146 T01060100=
201207260953 METAR KCLM 260953Z AUTO 28003KT 1/4SM FG VV001 11/09 A2995 RMK AO2 SLP143 T01060094=
201207260945 SPECI KCLM 260945Z AUTO 29004KT 1/4SM FG VV001 11/09 A2995 RMK AO2 T01060094=
201207260938 SPECI KCLM 260938Z AUTO 30004KT 1SM BR VV001 11/09 A2995 RMK AO2 T01060094=
201207260934 SPECI KCLM 260934Z AUTO 31005KT 2 1/2SM BR SCT001 11/09 A2995 RMK AO2 T01060094=
201207260853 METAR KCLM 260853Z AUTO 28006KT 10SM CLR 11/10 A2995 RMK AO2 SLP141 T01060100 56002=
201207260753 METAR KCLM 260753Z AUTO 27003KT 10SM CLR 13/12 A2995 RMK AO2 SLP140 T01330117 402220100=
201207260653 METAR KCLM 260653Z AUTO 00000KT 10SM CLR 14/12 A2995 RMK AO2 SLP141 T01390117=
201207260553 METAR KCLM 260553Z AUTO 25004KT 10SM CLR 14/12 A2995 RMK AO2 SLP141 T01440122 10183 20144 53004=
201207260453 METAR KCLM 260453Z AUTO 26005KT 10SM CLR 16/12 A2995 RMK AO2 SLP141 T01560122=
201207260353 METAR KCLM 260353Z AUTO 27004KT 10SM CLR 14/12 A2994 RMK AO2 SLP138 T01440117=
201207260253 METAR KCLM 260253Z AUTO 30006KT 10SM CLR 16/12 A2994 RMK AO2 SLP139 T01560117 56011=
201207260153 METAR KCLM 260153Z AUTO 32007KT 10SM CLR 18/12 A2995 RMK AO2 SLP141 T01780122=
201207260053 METAR KCLM 260053Z AUTO 29004KT 10SM CLR 18/12 A2996 RMK AO2 SLP145 T01780122=
201207252353 METAR KCLM 252353Z AUTO 31007KT 10SM CLR 18/12 A2997 RMK AO2 SLP150 T01780122 10222 20178 56008=
201207252253 METAR KCLM 252253Z AUTO 35004KT 10SM CLR 21/13 A2998 RMK AO2 SLP151 T02060128=
201207252153 METAR KCLM 252153Z AUTO VRB04KT 10SM CLR 21/13 A2999 RMK AO2 SLP155 T02060128=
201207252053 METAR KCLM 252053Z AUTO 05005KT 10SM CLR 21/13 A3000 RMK AO2 SLP158 T02060128 58012=
201207251953 METAR KCLM 251953Z AUTO 02005KT 10SM CLR 22/13 A3002 RMK AO2 SLP165 T02170133=
201207251853 METAR KCLM 251853Z AUTO VRB06KT 10SM CLR 21/13 A3003 RMK AO2 SLP169 T02110128=
201207251753 METAR KCLM 251753Z AUTO 10007KT 10SM CLR 21/12 A3003 RMK AO2 SLP170 T02060122 10206 20100 58000=
201207251653 METAR KCLM 251653Z AUTO 08008KT 10SM CLR 19/12 A3004 RMK AO2 SLP173 T01940122=
201207251553 METAR KCLM 251553Z AUTO VRB03KT 10SM CLR 18/12 A3004 RMK AO2 SLP172 T01780122=
201207251453 METAR KCLM 251453Z AUTO 00000KT 10SM CLR 17/13 A3004 RMK AO2 SLP170 T01670128 51006=
201207251353 METAR KCLM 251353Z AUTO 00000KT 10SM CLR 13/12 A3003 RMK AO2 SLP170 T01280117=
201207251253 METAR KCLM 251253Z AUTO 00000KT 10SM CLR 10/09 A3003 RMK AO2 SLP169 T01000094=
201207251153 METAR KCLM 251153Z AUTO 00000KT 10SM CLR 10/08 A3002 RMK AO2 SLP165 T01000083 10122 20100 55002=
201207251053 METAR KCLM 251053Z AUTO 00000KT 10SM CLR 11/09 A3002 RMK AO2 SLP164 T01060089=
201207250953 METAR KCLM 250953Z AUTO 24004KT 10SM CLR 10/09 A3002 RMK AO2 SLP166 T01000089=
201207250853 METAR KCLM 250853Z AUTO 22003KT 10SM CLR 11/09 A3002 RMK AO2 SLP166 T01060094 56005=
201207250753 METAR KCLM 250753Z AUTO 00000KT 10SM CLR 11/10 A3003 RMK AO2 SLP168 T01110100 402110106=
201207250653 METAR KCLM 250653Z AUTO 25003KT 10SM CLR 12/10 A3003 RMK AO2 SLP169 T01220100=
201207250553 METAR KCLM 250553Z AUTO 23003KT 10SM CLR 12/10 A3004 RMK AO2 SLP172 T01170100 10211 20111 50003=
201207250453 METAR KCLM 250453Z AUTO 30003KT 10SM CLR 12/11 A3004 RMK AO2 SLP173 T01220106=
201207250353 METAR KCLM 250353Z AUTO 30004KT 10SM CLR 13/11 A3003 RMK AO2 SLP168 T01330106=
201207250253 METAR KCLM 250253Z AUTO 11004KT 10SM CLR 19/11 A3003 RMK AO2 SLP169 T01940111 56014=
201207250153 METAR KCLM 250153Z AUTO 11006KT 10SM CLR 21/11 A3004 RMK AO2 SLP171 T02060106=
201207250053 METAR KCLM 250053Z AUTO 08005KT 10SM SCT037 21/10 A3005 RMK AO2 SLP176 T02060100=
201207242353 METAR KCLM 242353Z AUTO 08007KT 10SM OVC038 21/12 A3007 RMK AO2 SLP183 T02060117 10211 20156 58013=
201207242253 METAR KCLM 242253Z AUTO VRB05KT 10SM OVC039 21/12 A3009 RMK AO2 SLP188 T02060122=
201207242153 METAR KCLM 242153Z AUTO 08006KT 10SM OVC041 20/12 A3010 RMK AO2 SLP192 T02000117=
201207242053 METAR KCLM 242053Z AUTO 09007KT 10SM OVC042 19/12 A3011 RMK AO2 SLP196 T01940122 56009=
201207241953 METAR KCLM 241953Z AUTO 10006KT 10SM OVC044 19/12 A3012 RMK AO2 SLP198 T01890122=
201207241853 METAR KCLM 241853Z AUTO 05005KT 10SM OVC044 18/12 A3013 RMK AO2 SLP202 T01830122=
201207241753 METAR KCLM 241753Z AUTO 00000KT 10SM OVC042 16/12 A3014 RMK AO2 SLP205 T01560117 10156 20111 58008=
201207241653 METAR KCLM 241653Z AUTO 34003KT 10SM OVC043 13/11 A3015 RMK AO2 SLP208 T01330111=
201207241553 METAR KCLM 241553Z AUTO 00000KT 10SM OVC044 13/11 A3016 RMK AO2 SLP212 T01280106=
201207241453 METAR KCLM 241453Z AUTO 26003KT 10SM OVC044 12/11 A3016 RMK AO2 SLP213 T01170106 53001=
201207241408 SPECI KCLM 241408Z AUTO 26004KT 10SM FEW002 OVC046 12/11 A3016 RMK AO2 T01170106=
201207241353 METAR KCLM 241353Z AUTO 28003KT 10SM BKN002 OVC046 11/11 A3016 RMK AO2 SLP212 T01110106=
201207241339 SPECI KCLM 241339Z AUTO 30004KT 5SM BR OVC002 11/11 A3015 RMK AO2 T01110106=
201207241332 SPECI KCLM 241332Z AUTO 29005KT 3SM BR OVC001 11/10 A3016 RMK AO2 T01110100=
201207241323 SPECI KCLM 241323Z AUTO 30005KT 2 1/2SM BR OVC001 11/10 A3016 RMK AO2 T01110100=
201207241303 SPECI KCLM 241303Z AUTO 29005KT 2 1/2SM BR OVC002 11/10 A3015 RMK AO2 T01110100=
201207241253 METAR KCLM 241253Z AUTO 29003KT 3SM BR OVC002 11/11 A3016 RMK AO2 SLP212 T01110106=
201207241251 SPECI KCLM 241251Z AUTO 31003KT 4SM BR OVC002 11/11 A3016 RMK AO2=
201207241234 SPECI KCLM 241234Z AUTO 28003KT 5SM BR OVC001 11/11 A3016 RMK AO2 T01110106=
201207241153 METAR KCLM 241153Z AUTO 32004KT 7SM OVC002 11/11 A3016 RMK AO2 SLP213 T01110106 10122 20106 58006=
201207241111 SPECI KCLM 241111Z AUTO 30003KT 10SM BKN002 OVC048 11/10 A3017 RMK AO2 T01110100=
201207241103 SPECI KCLM 241103Z AUTO 29004KT 8SM SCT002 OVC048 11/10 A3017 RMK AO2 T01110100=
201207241053 METAR KCLM 241053Z AUTO 31004KT 7SM BKN002 OVC049 11/10 A3017 RMK AO2 SLP217 T01110100=
201207241014 SPECI KCLM 241014Z AUTO 27006KT 4SM BR OVC002 11/10 A3018 RMK AO2 T01110100=
201207241003 SPECI KCLM 241003Z AUTO 24004KT 2 1/2SM BR OVC001 11/11 A3018 RMK AO2 VIS 1 1/2V3 T01110106=
201207240953 METAR KCLM 240953Z AUTO 26005KT 1 1/2SM BR OVC001 11/11 A3018 RMK AO2 SLP221 T01110106=
201207240943 SPECI KCLM 240943Z AUTO 29005KT 2 1/2SM BR OVC001 11/11 A3018 RMK AO2 VIS 1 3/4V4 T01110106=
201207240938 SPECI KCLM 240938Z AUTO VRB04KT 3SM BR OVC002 11/11 A3018 RMK AO2 T01110106=
201207240930 SPECI KCLM 240930Z AUTO VRB04KT 2 1/2SM BR OVC002 11/11 A3018 RMK AO2 T01110106=
201207240914 SPECI KCLM 240914Z AUTO 00000KT 1/2SM FG VV002 11/10 A3018 RMK AO2 T01060100=
201207240853 METAR KCLM 240853Z AUTO 00000KT 1/4SM FG VV001 11/10 A3018 RMK AO2 SLP218 T01060100 58009=
201207240815 SPECI KCLM 240815Z AUTO 29003KT 1/4SM FG VV001 11/11 A3018 RMK AO2 T01110106=
201207240808 SPECI KCLM 240808Z AUTO 27003KT 1/2SM FG VV002 11/11 A3018 RMK AO2 T01110106=
201207240800 SPECI KCLM 240800Z AUTO 00000KT 1SM BR VV002 11/11 A3018 RMK AO2 T01110106=
201207240750 METAR KCLM 240750Z AUTO 26004KT 3/4SM BR OVC001 11/11 A3019 RMK AO2 SLP221 T01110106 401670106=
201207240749 SPECI KCLM 240749Z AUTO 27004KT 3/4SM BR OVC001 11/11 A3019 RMK AO2=
201207240743 SPECI KCLM 240743Z AUTO 28004KT 1 3/4SM BR OVC002 11/11 A3019 RMK AO2 T01110106=
201207240739 SPECI KCLM 240739Z AUTO 30005KT 3SM BR OVC002 11/11 A3019 RMK AO2 T01110106=
201207240729 SPECI KCLM 240729Z AUTO 30004KT 2 1/2SM BR BKN002 11/10 A3019 RMK AO2 T01060100=
201207240720 SPECI KCLM 240720Z AUTO 29003KT 7SM SCT002 11/10 A3019 RMK AO2 T01110100=
201207240703 SPECI KCLM 240703Z AUTO 00000KT 5SM BR CLR 11/10 A3020 RMK AO2 T01110100=
201207240653 METAR KCLM 240653Z AUTO 00000KT 2SM BR CLR 11/10 A3020 RMK AO2 VIS 1 3/4V4 SLP226 T01110100=
201207240637 SPECI KCLM 240637Z AUTO 32003KT 8SM SCT020 11/10 A3020=
201207240553 METAR KCLM 240553Z AUTO 29003KT 10SM OVC021 12/11 A3020 RMK AO2 SLP228 T01220111 10150 20117 56006=
201207240506 SPECI KCLM 240506Z AUTO 27004KT 10SM BKN026 12/11 A3021 RMK AO2 T01220106=
201207240453 METAR KCLM 240453Z AUTO 28004KT 10SM FEW021 SCT027 12/11 A3021 RMK AO2 SLP230 T01170106=
201207240403 SPECI KCLM 240403Z AUTO 30004KT 10SM FEW008 OVC028 13/11 A3021 RMK AO2 T01280111=
201207240353 METAR KCLM 240353Z AUTO 30004KT 10SM OVC028 13/11 A3021 RMK AO2 SLP230 T01330111=
201207240253 METAR KCLM 240253Z AUTO 33003KT 10SM SCT011 OVC018 14/11 A3022 RMK AO2 SLP234 T01390111 55003=
201207240153 METAR KCLM 240153Z AUTO 28005KT 10SM OVC011 14/11 A3022 RMK AO2 SLP233 T01390111=
201207240053 METAR KCLM 240053Z AUTO 10SM OVC011 14/11 A3023 RMK AO2 SLP236 T01440111=
201207240018 SPECI KCLM 240018Z AUTO 33007KT 10SM OVC010 14/11 A3023 RMK AO2 T01440111=
201207232353 METAR KCLM 232353Z AUTO 28005KT 10SM OVC009 14/11 A3023 RMK AO2 SLP237 T01440111 10167 20133 58004=
201207232328 SPECI KCLM 232328Z AUTO 33004KT 10SM OVC009 14/11 A3024 RMK AO2 T01390111=
201207232253 METAR KCLM 232253Z AUTO 29005KT 10SM OVC011 14/11 A3025 RMK AO2 CIG 009V013 SLP243 T01390111=
201207232235 SPECI KCLM 232235Z AUTO 30006KT 10SM BKN013 OVC021 13/11 A3025 RMK AO2 T01330111=
201207232153 METAR KCLM 232153Z AUTO 32005KT 10SM BKN019 OVC026 14/11 A3025 RMK AO2 SLP242 T01390111=
201207232121 SPECI KCLM 232121Z AUTO 32009G14KT 10SM SCT013 BKN022 OVC050 14/11 A3024 RMK AO2 T01440111=
201207232053 METAR KCLM 232053Z AUTO 30008G15KT 10SM BKN012 BKN017 BKN047 16/11 A3024 RMK AO2 SLP241 T01610111 53016=
201207232032 SPECI KCLM 232032Z AUTO VRB03KT 10SM BKN014 BKN020 15/11 A3024 RMK AO2 T01500111=
201207231953 METAR KCLM 231953Z AUTO 01007KT 10SM CLR 16/11 A3022 RMK AO2 SLP232 T01610111=
201207231853 METAR KCLM 231853Z AUTO VRB05KT 10SM FEW050 16/11 A3019 RMK AO2 SLP224 T01560106=
201207231753 METAR KCLM 231753Z AUTO 35007KT 310V010 10SM FEW015 OVC047 15/11 A3019 RMK AO2 SLP224 T01500106 10161 20117 51014=
201207231703 SPECI KCLM 231703Z AUTO 32004KT 10SM SCT018 OVC050 14/11 A3017 RMK AO2 T01440106=
201207231653 METAR KCLM 231653Z AUTO 36005KT 10SM BKN018 OVC050 14/11 A3018 RMK AO2 SLP219 T01440106=
201207231642 SPECI KCLM 231642Z AUTO VRB03KT 10SM BKN019 OVC050 15/11 A3018 RMK AO2 T01500111=
201207231553 METAR KCLM 231553Z AUTO 10005KT 10SM OVC047 14/11 A3018 RMK AO2 SLP220 T01390106=
201207231453 METAR KCLM 231453Z AUTO 04003KT 10SM OVC044 13/11 A3015 RMK AO2 SLP211 T01330106 53002=
201207231353 METAR KCLM 231353Z AUTO 14005KT 10SM OVC038 13/10 A3015 RMK AO2 SLP208 T01280100=
201207231253 METAR KCLM 231253Z AUTO 35003KT 10SM OVC042 12/09 A3015 RMK AO2 SLP209 T01220094=
201207231153 METAR KCLM 231153Z AUTO 00000KT 10SM OVC041 13/09 A3015 RMK AO2 SLP208 T01280089 10128 20100 53003=
201207231053 METAR KCLM 231053Z AUTO 25004KT 10SM OVC080 12/09 A3014 RMK AO2 SLP207 T01220094=
201207230953 METAR KCLM 230953Z AUTO 27006KT 10SM FEW095 11/08 A3013 RMK AO2 SLP202 T01110078=
201207230853 METAR KCLM 230853Z AUTO 27008KT 10SM SCT037 BKN075 12/08 A3014 RMK AO2 SLP205 T01220083 51003=
201207230753 METAR KCLM 230753Z AUTO 26008KT 10SM FEW035 11/08 A3013 RMK AO2 SLP204 T01110078 401500100=
201207230653 METAR KCLM 230653Z AUTO 29007KT 10SM BKN065 11/08 A3014 RMK AO2 SLP204 T01110083=
201207230553 METAR KCLM 230553Z AUTO 31003KT 10SM OVC070 11/09 A3013 RMK AO2 SLP202 T01110094 10150 20111 50008=
201207230453 METAR KCLM 230453Z AUTO 30007KT 10SM SCT050 12/09 A3013 RMK AO2 SLP204 T01170094=
201207230353 METAR KCLM 230353Z AUTO 31009KT 10SM FEW120 12/09 A3012 RMK AO2 SLP200 T01170094=
201207230253 METAR KCLM 230253Z AUTO 30008KT 10SM FEW050 BKN120 13/10 A3010 RMK AO2 SLP194 T01330100 51001=
201207230153 METAR KCLM 230153Z AUTO 30009KT 10SM OVC110 13/10 A3010 RMK AO2 SLP193 T01330100=
201207230053 METAR KCLM 230053Z AUTO 29013G23KT 10SM FEW022 SCT031 BKN050 13/10 A3011 RMK AO2 SLP195 T01330100=
201207222353 METAR KCLM 222353Z AUTO 29008KT 10SM BKN049 BKN055 OVC075 15/12 A3010 RMK AO2 RAE2254B03E16 SLP193 P0000 60000 T01500117 10150 20133 53001=
201207222301 SPECI KCLM 222301Z AUTO 31006KT 10SM SCT009 BKN032 OVC060 15/12 A3010 RMK AO2 RAE2254 P0000 T01500117=
201207222253 METAR KCLM 222253Z AUTO VRB04KT 10SM -RA BKN009 BKN042 OVC060 15/12 A3010 RMK AO2 SLP191 P0000 T01500122=
201207222248 SPECI KCLM 222248Z AUTO VRB03KT 10SM -RA SCT009 BKN040 OVC060 15/12 A3010 RMK AO2 P0000=
201207222236 SPECI KCLM 222236Z AUTO 00000KT 4SM -RA BR FEW021 BKN040 OVC049 14/12 A3009 RMK AO2 P0000 T01440122=
201207222206 SPECI KCLM 222206Z AUTO 00000KT 9SM -RA FEW014 BKN020 OVC042 14/12 A3010 RMK AO2 P0000 T01390117=
201207222153 METAR KCLM 222153Z AUTO 33003KT 10SM -RA FEW014 BKN030 OVC042 14/11 A3010 RMK AO2 RAE23B44 SLP192 P0000 T01390111=
201207222053 METAR KCLM 222053Z AUTO 30009KT 5SM -RA BR BKN015 OVC037 14/12 A3009 RMK AO2 RAB14 SLP191 P0000 60000 T01390117 53006=
201207222045 SPECI KCLM 222045Z AUTO 30009KT 5SM -RA SCT015 SCT020 OVC035 14/11 A3009 RMK AO2 RAB14 P0000 T01390111=
201207222017 SPECI KCLM 222017Z AUTO 31005KT 9SM -RA FEW013 BKN019 OVC043 14/11 A3009 RMK AO2 RAB14 P0000 T01440111=
201207221953 METAR KCLM 221953Z AUTO VRB04KT 10SM FEW013 OVC038 14/11 A3008 RMK AO2 SLP187 T01440111=
201207221853 METAR KCLM 221853Z AUTO 29007KT 10SM BKN030 OVC037 14/11 A3008 RMK AO2 SLP184 T01440106=
201207221851 SPECI KCLM 221851Z AUTO 30006KT 10SM BKN030 OVC040 15/11 A3008 RMK AO2=
201207221753 METAR KCLM 221753Z AUTO 32006KT 10SM BKN019 OVC028 14/11 A3007 RMK AO2 SLP183 T01390106 10150 20133 53004=
201207221653 METAR KCLM 221653Z AUTO 31008KT 10SM OVC015 14/11 A3006 RMK AO2 SLP181 T01440106=
201207221553 METAR KCLM 221553Z AUTO 32004KT 10SM OVC017 14/11 A3006 RMK AO2 SLP179 T01390106=
201207221453 METAR KCLM 221453Z AUTO 31005KT 10SM BKN019 OVC047 14/11 A3006 RMK AO2 SLP179 T01440106 50001=
201207221409 SPECI KCLM 221409Z AUTO 27004KT 10SM BKN018 OVC042 14/11 A3006 RMK AO2 T01390106=
201207221353 METAR KCLM 221353Z AUTO 28004KT 10SM OVC041 14/11 A3006 RMK AO2 SLP179 T01390106=
201207221253 METAR KCLM 221253Z AUTO 26003KT 10SM FEW015 OVC036 13/11 A3006 RMK AO2 SLP178 T01330111=
201207221153 METAR KCLM 221153Z AUTO 26003KT 10SM FEW017 OVC030 13/11 A3006 RMK AO2 SLP178 T01330111 10139 20128 55001=
201207221148 SPECI KCLM 221148Z AUTO 26004KT 10SM SCT017 OVC030 13/11 A3005 RMK AO2=
201207221053 METAR KCLM 221053Z AUTO 27004KT 10SM OVC017 14/11 A3006 RMK AO2 SLP178 T01390106=
201207220953 METAR KCLM 220953Z AUTO 28007KT 10SM OVC017 14/11 A3006 RMK AO2 SLP179 T01390106=
201207220853 METAR KCLM 220853Z AUTO 27006KT 10SM OVC016 14/11 A3007 RMK AO2 SLP181 T01390106 58006=
201207220753 METAR KCLM 220753Z AUTO 28007KT 10SM OVC016 14/11 A3008 RMK AO2 SLP185 T01390106 401890128=
201207220653 METAR KCLM 220653Z AUTO 27006KT 10SM OVC020 14/11 A3008 RMK AO2 SLP185 T01390106=
201207220623 SPECI KCLM 220623Z AUTO 27008KT 10SM BKN021 14/11 A3009 RMK AO2 T01390106=
201207220553 METAR KCLM 220553Z AUTO 27007KT 10SM CLR 13/10 A3008 RMK AO2 SLP187 T01280100 10183 20128 56007=
201207220453 METAR KCLM 220453Z AUTO 28006KT 10SM CLR 13/11 A3009 RMK AO2 SLP189 T01330106=
201207220353 METAR KCLM 220353Z AUTO 29005KT 10SM CLR 14/11 A3010 RMK AO2 SLP191 T01440106=
201207220253 METAR KCLM 220253Z AUTO 28007KT 10SM CLR 16/11 A3011 RMK AO2 SLP195 T01610106 56013=
201207220153 METAR KCLM 220153Z AUTO 32008KT 10SM CLR 17/11 A3011 RMK AO2 SLP197 T01720111=
201207220053 METAR KCLM 220053Z AUTO 30009KT 10SM CLR 17/11 A3012 RMK AO2 SLP201 T01720111=
201207212353 METAR KCLM 212353Z AUTO 32009KT 10SM CLR 18/11 A3014 RMK AO2 SLP207 T01780111 10189 20156 57015=
201207212253 METAR KCLM 212253Z AUTO 32008KT 10SM FEW055 18/12 A3016 RMK AO2 SLP213 T01830117=
201207212153 METAR KCLM 212153Z AUTO 32007KT 10SM BKN039 19/12 A3017 RMK AO2 SLP217 T01890117=
201207212139 SPECI KCLM 212139Z AUTO 32007KT 10SM SCT024 OVC039 18/12 A3018 RMK AO2 T01830117=
201207212053 METAR KCLM 212053Z AUTO 32006KT 10SM OVC024 18/11 A3019 RMK AO2 SLP222 T01780111 58003=
201207211953 METAR KCLM 211953Z AUTO 33007KT 10SM OVC023 17/11 A3019 RMK AO2 SLP224 T01670111=
201207211853 METAR KCLM 211853Z AUTO 31007KT 10SM FEW016 OVC023 16/11 A3020 RMK AO2 SLP226 T01610111=
201207211816 SPECI KCLM 211816Z AUTO 32007KT 10SM SCT015 OVC024 16/11 A3020 RMK AO2 T01560111=
201207211753 METAR KCLM 211753Z AUTO 33006KT 10SM BKN014 OVC028 16/12 A3020 RMK AO2 SLP226 60000 T01560117 10156 20133 50002=
201207211708 SPECI KCLM 211708Z AUTO 30007KT 10SM OVC010 15/12 A3020 RMK AO2 T01500117=
201207211653 METAR KCLM 211653Z AUTO 31007KT 10SM OVC009 15/12 A3020 RMK AO2 SLP227 T01500117=
201207211553 METAR KCLM 211553Z AUTO 28006KT 10SM OVC009 14/12 A3020 RMK AO2 CIG 005V012 SLP228 T01390122=
201207211521 SPECI KCLM 211521Z AUTO 29008KT 10SM OVC005 14/12 A3020 RMK AO2 CIG 002V008 T01390122=
201207211453 METAR KCLM 211453Z AUTO 30005KT 9SM OVC003 13/12 A3019 RMK AO2 RAE18 CIG 003V008 SLP224 P0000 60000 T01330122 50002=
201207211424 SPECI KCLM 211424Z AUTO 30007KT 4SM BR OVC003 13/12 A3020 RMK AO2 RAE18 P0000 T01330122=
201207211353 METAR KCLM 211353Z AUTO 30006KT 2 1/2SM -RA BR OVC004 13/12 A3020 RMK AO2 RAB27 SLP226 P0000 T01330122=
201207211341 SPECI KCLM 211341Z AUTO 29006KT 2 1/2SM -RA BR OVC003 13/13 A3019 RMK AO2 RAB27 P0000 T01330128=
201207211253 METAR KCLM 211253Z AUTO 29006KT 7SM OVC003 13/13 A3019 RMK AO2 RAB15E35 SLP223 P0000 T01330128=
201207211153 METAR KCLM 211153Z AUTO 31004KT 4SM BR OVC002 14/13 A3019 RMK AO2 SLP222 T01390128 10150 20133 53003=
201207211105 SPECI KCLM 211105Z AUTO 32006KT 8SM BKN002 OVC009 14/13 A3018 RMK AO2 T01390128=
201207211053 METAR KCLM 211053Z AUTO 32006KT 10SM FEW002 BKN009 OVC014 14/13 A3018 RMK AO2 CIG 005V011 SLP220 T01390128=
201207211046 SPECI KCLM 211046Z AUTO 32006KT 10SM SCT007 OVC014 14/13 A3018 RMK AO2 T01440128=
201207210953 METAR KCLM 210953Z AUTO 00000KT 10SM OVC014 15/13 A3018 RMK AO2 SLP219 T01500133=
201207210853 METAR KCLM 210853Z AUTO 24003KT 10SM OVC012 14/13 A3018 RMK AO2 SLP219 T01440128 58001=
201207210753 METAR KCLM 210753Z AUTO 24004KT 10SM OVC013 14/13 A3018 RMK AO2 SLP220 T01440128 401720128=
201207210721 SPECI KCLM 210721Z AUTO 22003KT 10SM BKN013 OVC022 13/12 A3018 RMK AO2 T01330122=
201207210705 SPECI KCLM 210705Z AUTO 00000KT 10SM FEW012 BKN022 OVC085 14/13 A3018 RMK AO2 T01390128=
201207210653 METAR KCLM 210653Z AUTO 23003KT 10SM BKN013 BKN022 OVC085 14/13 A3018 RMK AO2 SLP220 T01390128=
201207210632 SPECI KCLM 210632Z AUTO 28003KT 10SM BKN013 14/13 A3018 RMK AO2 T01390128=
201207210553 METAR KCLM 210553Z AUTO 00000KT 10SM SCT014 OVC070 15/13 A3018 RMK AO2 SLP219 T01500128 10167 20150 50008=
201207210453 METAR KCLM 210453Z AUTO 00000KT 10SM OVC014 16/13 A3018 RMK AO2 SLP220 T01560133=
201207210353 METAR KCLM 210353Z AUTO 00000KT 10SM BKN013 OVC060 16/13 A3016 RMK AO2 SLP213 T01560128=
201207210253 METAR KCLM 210253Z AUTO 00000KT 10SM OVC014 16/12 A3016 RMK AO2 SLP212 T01560122 51016=
201207210153 METAR KCLM 210153Z AUTO VRB03KT 10SM OVC015 16/12 A3014 RMK AO2 SLP208 T01560122=
201207210131 SPECI KCLM 210131Z AUTO 32003KT 10SM OVC015 16/13 A3013 RMK AO2 T01610128=
201207210053 METAR KCLM 210053Z AUTO 32003KT 10SM OVC013 16/13 A3013 RMK AO2 SLP201 T01610128=
201207202353 METAR KCLM 202353Z AUTO 31005KT 10SM OVC013 17/13 A3011 RMK AO2 SLP195 T01670128 10172 20139 51007=
201207202253 METAR KCLM 202253Z AUTO 31006KT 10SM OVC014 17/13 A3010 RMK AO2 SLP194 T01670128=
201207202230 SPECI KCLM 202230Z AUTO 34007KT 10SM OVC014 17/13 A3010 RMK AO2 T01670133=
201207202153 METAR KCLM 202153Z AUTO 00000KT 10SM OVC019 17/13 A3010 RMK AO2 SLP192 T01720133=
201207202053 METAR KCLM 202053Z AUTO 28004KT 10SM OVC016 16/13 A3009 RMK AO2 SLP188 T01610128 51011=
201207202043 SPECI KCLM 202043Z AUTO 00000KT 10SM OVC016 17/13 A3009 RMK AO2 T01670128=
201207201953 METAR KCLM 201953Z AUTO 23005KT 10SM OVC012 16/13 A3008 RMK AO2 SLP185 T01560128=
201207201853 METAR KCLM 201853Z AUTO 26007KT 10SM OVC010 14/13 A3007 RMK AO2 SLP182 T01440128=
201207201753 METAR KCLM 201753Z AUTO 27006KT 10SM OVC005 14/13 A3005 RMK AO2 SLP177 60000 T01390128 10139 20128 50008=
201207201749 SPECI KCLM 201749Z AUTO 27005KT 10SM OVC005 14/13 A3005 RMK AO2=
201207201653 METAR KCLM 201653Z AUTO 28011KT 10SM OVC003 14/12 A3003 RMK AO2 SLP170 T01390122=
201207201553 METAR KCLM 201553Z AUTO 29005KT 10SM OVC003 13/12 A3003 RMK AO2 RAE07 SLP169 P0000 T01330122=
201207201453 METAR KCLM 201453Z AUTO 33004KT 8SM -RA BKN003 OVC015 13/12 A3002 RMK AO2 RAE22B51 SLP166 P0000 60000 T01280122 51019=
201207201353 METAR KCLM 201353Z AUTO 30004KT 4SM -RA BR BKN003 OVC100 13/12 A3000 RMK AO2 RAB42 SLP158 P0000 T01280117=
201207201348 SPECI KCLM 201348Z AUTO 32004KT 6SM -RA BR BKN003 OVC100 13/12 A3000 RMK AO2 RAB42 P0000=
201207201253 METAR KCLM 201253Z AUTO 25007KT 10SM SCT003 BKN070 OVC110 13/12 A2996 RMK AO2 RAB1158E49 SLP146 P0000 T01280117=
201207201207 SPECI KCLM 201207Z AUTO 32003KT 7SM -RA SCT003 BKN045 OVC110 13/12 A3001 RMK AO2 RAB1158 P0000 T01330117=
201207201153 METAR KCLM 201153Z AUTO 00000KT 10SM BKN003 OVC110 13/12 A3001 RMK AO2 RAE00 SLP161 P0000 60000 T01330122 10156 20133 53011=
201207201132 SPECI KCLM 201132Z AUTO 27004KT 10SM SCT003 OVC110 13/12 A3000 RMK AO2 RAE00 P0000 T01330122=
201207201053 METAR KCLM 201053Z AUTO 30006KT 9SM -RA BKN003 OVC110 13/12 A2998 RMK AO2 RAB24 SLP150 P0000 T01330122=
201207201027 SPECI KCLM 201027Z AUTO 30004KT 8SM -RA FEW002 BKN110 13/12 A2997 RMK AO2 RAB24 P0000 T01330122=
201207200953 METAR KCLM 200953Z AUTO 00000KT 10SM FEW100 14/13 A2997 RMK AO2 RAE23 SLP150 P0000 T01390128=
201207200853 METAR KCLM 200853Z AUTO VRB03KT 10SM -RA FEW080 BKN110 14/13 A2996 RMK AO2 LTG DSNT E RAE05B41 SLP143 P0000 60000 T01390128 53002=
201207200753 METAR KCLM 200753Z AUTO 29006KT 10SM -RA FEW049 SCT085 BKN110 14/13 A2994 RMK AO2 RAB04E27B53 SLP138 P0000 T01440128 402170144=
201207200653 METAR KCLM 200653Z AUTO 24004KT 10SM SCT120 16/13 A2995 RMK AO2 LTG DSNT S SLP143 T01560128=
201207200553 METAR KCLM 200553Z AUTO 28003KT 10SM CLR 16/13 A2995 RMK AO2 SLP142 T01560128 10194 20150 53007=
201207200453 METAR KCLM 200453Z AUTO 30005KT 10SM CLR 15/12 A2994 RMK AO2 SLP138 T01500122=
201207200353 METAR KCLM 200353Z AUTO 30003KT 10SM CLR 16/12 A2993 RMK AO2 SLP135 T01560122=
201207200253 METAR KCLM 200253Z AUTO 31005KT 10SM CLR 16/12 A2993 RMK AO2 SLP135 T01610122 55008=
201207200153 METAR KCLM 200153Z AUTO 33004KT 10SM CLR 17/12 A2993 RMK AO2 SLP134 T01670122=
201207200053 METAR KCLM 200053Z AUTO 31004KT 10SM CLR 17/13 A2995 RMK AO2 SLP140 T01720128=
201207192353 METAR KCLM 192353Z AUTO 31004KT 10SM CLR 19/13 A2995 RMK AO2 SLP143 T01940133 10217 20161 56020=
201207192253 METAR KCLM 192253Z AUTO 36005KT 10SM CLR 19/13 A2997 RMK AO2 SLP148 T01940133=
201207192153 METAR KCLM 192153Z AUTO 35004KT 10SM CLR 18/13 A2999 RMK AO2 SLP156 T01830128=
201207192053 METAR KCLM 192053Z AUTO VRB05KT 10SM CLR 21/13 A3001 RMK AO2 SLP161 T02110133 58015=
201207191953 METAR KCLM 191953Z AUTO 05005KT 10SM CLR 19/13 A3003 RMK AO2 SLP169 T01890133=
201207191853 METAR KCLM 191853Z AUTO VRB03KT 10SM CLR 18/13 A3004 RMK AO2 SLP174 T01830133=
201207191753 METAR KCLM 191753Z AUTO 36006KT 10SM CLR 17/13 A3006 RMK AO2 SLP177 T01670128 10172 20144 58006=
201207191653 METAR KCLM 191653Z AUTO 36005KT 10SM CLR 16/12 A3006 RMK AO2 SLP179 T01610122=
201207191638 SPECI KCLM 191638Z AUTO 34005KT 10SM SCT010 17/13 A3006 RMK AO2 T01670128=
201207191608 SPECI KCLM 191608Z AUTO 34004KT 10SM OVC010 16/13 A3007 RMK AO2 T01610128=
201207191553 METAR KCLM 191553Z AUTO 00000KT 10SM OVC009 16/13 A3007 RMK AO2 SLP183 T01610128=
201207191453 METAR KCLM 191453Z AUTO 25004KT 10SM OVC009 15/12 A3007 RMK AO2 SLP183 T01500122 51002=
201207191428 SPECI KCLM 191428Z AUTO 00000KT 10SM OVC009 15/12 A3007 RMK AO2 T01500122=
201207191353 METAR KCLM 191353Z AUTO 00000KT 10SM OVC010 15/12 A3007 RMK AO2 SLP183 T01500122=
201207191253 METAR KCLM 191253Z AUTO 00000KT 10SM OVC011 14/12 A3007 RMK AO2 SLP182 T01440122=
201207191153 METAR KCLM 191153Z AUTO 29005KT 10SM OVC010 14/12 A3007 RMK AO2 SLP181 7//// T01440117 10156 20139 58003=
201207191053 METAR KCLM 191053Z AUTO 30004KT 10SM OVC011 14/12 A3007 RMK AO2 SLP182 T01440117=
201207190953 METAR KCLM 190953Z AUTO 26003KT 10SM OVC012 14/12 A3007 RMK AO2 SLP183 T01440117=
201207190853 METAR KCLM 190853Z AUTO 26003KT 10SM OVC013 14/12 A3007 RMK AO2 SLP184 T01440117 50005=
201207190753 METAR KCLM 190753Z AUTO 00000KT 10SM OVC014 14/12 A3007 RMK AO2 SLPNO T01440117 401830139=
201207190653 METAR KCLM 190653Z AUTO 27003KT 10SM OVC014 14/12 A3006 RMK AO2 SLPNO T01390117=
201207190553 METAR KCLM 190553Z AUTO 27004KT 10SM OVC014 14/11 A3006 RMK AO2 SLPNO T01390111 10172 20139 51013=
201207190546 SPECI KCLM 190546Z AUTO 28005KT 10SM OVC014 14/11 A3006 RMK AO2 T01390111=
201207190453 METAR KCLM 190453Z AUTO 29006KT 10SM OVC018 14/11 A3006 RMK AO2 SLPNO T01390111=
201207190429 SPECI KCLM 190429Z AUTO 28011KT 10SM BKN018 14/11 A3005 RMK AO2 T01390111=
201207190353 METAR KCLM 190353Z AUTO 29007KT 10SM CLR 14/12 A3003 RMK AO2 SLPNO T01440117=
201207190253 METAR KCLM 190253Z AUTO 30006KT 10SM CLR 16/12 A3002 RMK AO2 SLPNO T01610117 55000=
201207190153 METAR KCLM 190153Z AUTO 32007KT 10SM CLR 17/12 A3001 RMK AO2 SLPNO T01670122=
201207190053 METAR KCLM 190053Z AUTO 33004KT 10SM BKN031 17/12 A3002 RMK AO2 SLPNO T01720122=
201207182353 METAR KCLM 182353Z AUTO 35005KT 10SM OVC032 17/12 A3002 RMK AO2 SLPNO 6//// T01720122 58001=
201207182253 METAR KCLM 182253Z AUTO 32006KT 10SM OVC030 17/12 A3003 RMK AO2 SLPNO T01670117=
201207182219 SPECI KCLM 182219Z AUTO 33005KT 10SM OVC030 17/12 A3003 RMK AO2 T01720117=
201207182153 METAR KCLM 182153Z AUTO 32005KT 10SM OVC029 17/12 A3003 RMK AO2 SLPNO T01720122=
201207182053 METAR KCLM 182053Z AUTO 36006KT 10SM OVC031 16/12 A3003 RMK AO2 SLPNO 6//// T01610117=
201207181954 METAR KCLM 181954Z VRB03KT 15SM OVC010 17/12 A3003=
201207181953 METAR KCLM 181953Z AUTO A3003 RMK AO2 SLPNO PWINO FZRANO $=
201207181853 METAR KCLM 181853Z AUTO 01003KT 10SM SCT008 OVC020 16/13 A3002 RMK AO2 SLP167 T01560128 TSNO $=
201207181804 SPECI KCLM 181804Z AUTO 33004KT OVC009 15/13 A3002 RMK AO2 TSNO $=
201207181755 METAR KCLM 181755Z 32004KT 7SM OVC010 14/12 A3002=
201207181753 METAR KCLM 181753Z AUTO 33005KT OVC010 14/12 A3002 RMK AO2 SLP167 T01440122 10150 20133 53008 TSNO $=
201207181716 SPECI KCLM 181716Z AUTO 30007KT OVC010 14/12 A3002 RMK AO2 TSNO $=
201207181653 METAR KCLM 181653Z AUTO 31005KT OVC009 15/12 A3001 RMK AO2 SLP163 T01500122 TSNO $=
201207181649 METAR KCLM 181649Z 30007KT 15SM OVC009 15/12 A3001=
201207181621 SPECI KCLM 181621Z AUTO 29005KT OVC009 14/13 A3000 RMK AO2 CIG 007V011 TSNO $=
201207181605 SPECI KCLM 181605Z AUTO 28004KT OVC010 14/13 A3000 RMK AO2 TSNO $=
201207181553 METAR KCLM 181553Z AUTO 26004KT OVC008 14/13 A3000 RMK AO2 CIG 004V011 SLP160 T01440128 TSNO $=
201207181550 METAR KCLM 181550Z 24004KT 10SM OVC008 14/13 A3000=
201207181537 SPECI KCLM 181537Z AUTO 27004KT OVC006 14/13 A3000 RMK AO2 CIG 003V010 TSNO $=
201207181453 METAR KCLM 181453Z AUTO 28003KT OVC004 14/13 A3000 RMK AO2 SLP159 T01390128 53021 TSNO $=
201207181447 METAR KCLM 181447Z 27004KT 3SM BR OVC005 14/13 A3000=
201207181440 SPECI KCLM 181440Z AUTO 27004KT OVC005 14/13 A2999 RMK AO2 TSNO $=
201207181423 SPECI KCLM 181423Z AUTO 29004KT OVC004 14/13 A2999 RMK AO2 CIG 003V008 TSNO $=
201207181353 METAR KCLM 181353Z AUTO 27003KT OVC007 13/12 A2998 RMK AO2 SLP151 T01330122 TSNO $=
201207181350 METAR KCLM 181350Z 25004KT 3SM BR OVC007 13/12 A2997=
201207181253 METAR KCLM 181253Z AUTO 29005KT OVC007 14/12 A2995 RMK AO2 SLP143 T01390122 TSNO $=
201207181222 SPECI KCLM 181222Z 26005KT 7SM OVC007 14/12 A2994=
201207181153 METAR KCLM 181153Z AUTO 29005KT OVC006 14/12 A2994 RMK AO2 SLP138 T01390122 10139 20133 51005 TSNO $=
201207181053 METAR KCLM 181053Z AUTO VRB04KT OVC006 14/12 A2994 RMK AO2 SLP137 T01390122 TSNO $=
201207180953 METAR KCLM 180953Z AUTO 27008KT OVC005 14/12 A2993 RMK AO2 SLP136 T01390122 TSNO $=
201207180853 METAR KCLM 180853Z AUTO 29008KT OVC006 13/12 A2992 RMK AO2 SLP133 T01330117 51010 TSNO $=
201207180753 METAR KCLM 180753Z AUTO 28008KT OVC005 13/12 A2992 RMK AO2 SLP132 T01330117 402170111 TSNO $=
201207180653 METAR KCLM 180653Z AUTO 30009KT OVC005 13/12 A2991 RMK AO2 SLP127 T01330117 TSNO $=
201207180635 SPECI KCLM 180635Z AUTO 28010KT OVC005 13/12 A2990 RMK AO2 TSNO $=
201207180553 METAR KCLM 180553Z AUTO 29007KT OVC004 13/12 A2989 RMK AO2 SLP122 T01330117 10189 20128 51022 TSNO $=
201207180513 SPECI KCLM 180513Z AUTO 27006KT BKN004 13/12 A2988 RMK AO2 TSNO $=
201207180507 SPECI KCLM 180507Z AUTO 27007KT SCT005 13/12 A2988 RMK AO2 TSNO $=
201207180453 METAR KCLM 180453Z AUTO 29009KT CLR 13/12 A2987 RMK AO2 SLP116 T01330117 TSNO $=
201207180353 METAR KCLM 180353Z AUTO 29011KT CLR 14/12 A2986 RMK AO2 SLP110 T01440122 TSNO $=
201207180253 METAR KCLM 180253Z AUTO 31003KT CLR 17/13 A2983 RMK AO2 SLP101 T01720133 55000 TSNO $=
201207180153 METAR KCLM 180153Z AUTO 31006KT BKN070 18/13 A2981 RMK AO2 SLP096 T01830133 TSNO $=
201207180053 METAR KCLM 180053Z AUTO 29006KT CLR 18/13 A2981 RMK AO2 SLP094 T01830133 TSNO $=
201207172353 METAR KCLM 172353Z AUTO 33004KT CLR 17/13 A2983 RMK AO2 SLP101 T01670128 10217 20161 55003 TSNO $=
201207172253 METAR KCLM 172253Z AUTO VRB04KT CLR 19/13 A2983 RMK AO2 SLP100 T01940133 TSNO $=
201207172153 METAR KCLM 172153Z AUTO 30007KT CLR 18/13 A2983 RMK AO2 SLP101 T01830128 TSNO $=
201207172053 METAR KCLM 172053Z AUTO 35005KT CLR 18/12 A2984 RMK AO2 SLP104 T01830122 55000 TSNO $=
201207171953 METAR KCLM 171953Z AUTO 02004KT CLR 19/13 A2984 RMK AO2 SLP104 T01890128 TSNO $=
201207171853 METAR KCLM 171853Z AUTO 36004KT CLR 19/13 A2984 RMK AO2 SLP104 T01940133 TSNO $=
201207171753 METAR KCLM 171753Z AUTO 35003KT CLR 18/13 A2984 RMK AO2 SLP105 T01780128 10178 20111 53000 TSNO $=
201207171653 METAR KCLM 171653Z AUTO 35004KT CLR 17/13 A2984 RMK AO2 SLP104 T01670128 TSNO=
201207171553 METAR KCLM 171553Z AUTO 28004KT CLR 14/12 A2984 RMK AO2 SLP104 T01440122 TSNO $=
201207171453 METAR KCLM 171453Z AUTO 20004KT CLR 14/12 A2984 RMK AO2 SLP104 T01440122 53008 TSNO $=
201207171353 METAR KCLM 171353Z AUTO 00000KT 10SM CLR 12/11 A2983 RMK AO2 SLP100 T01220111 TSNO=
201207171253 METAR KCLM 171253Z AUTO 00000KT 10SM SCT002 12/11 A2982 RMK AO2 SLP099 T01170106 TSNO=
201207171217 SPECI KCLM 171217Z AUTO 00000KT 10SM BKN003 12/11 A2982 RMK AO2 TSNO=
201207171153 METAR KCLM 171153Z AUTO 24004KT 10SM CLR 11/10 A2982 RMK AO2 SLP096 T01110100 10144 20111 53003 TSNO=
201207171105 SPECI KCLM 171105Z AUTO 00000KT 10SM SCT001 12/11 A2980 RMK AO2 TSNO=
201207171053 METAR KCLM 171053Z AUTO 00000KT 9SM BKN001 12/11 A2981 RMK AO2 SLP093 T01170106 TSNO=
201207171020 SPECI KCLM 171020Z AUTO 24005KT 3SM BR OVC001 12/11 A2980 RMK AO2 TSNO=
201207171002 SPECI KCLM 171002Z AUTO 31003KT 1SM BR OVC001 12/11 A2981 RMK AO2 TSNO=
201207170953 METAR KCLM 170953Z AUTO 00000KT 1 1/4SM BR OVC002 12/11 A2981 RMK AO2 SLP095 T01170106 TSNO=
201207170945 SPECI KCLM 170945Z AUTO 26003KT 1 3/4SM BR OVC002 12/11 A2981 RMK AO2 TSNO=
201207170931 SPECI KCLM 170931Z AUTO 28003KT 10SM OVC002 12/11 A2981 RMK AO2 TSNO=
201207170905 SPECI KCLM 170905Z AUTO 27004KT 3SM BR OVC001 12/11 A2981 RMK AO2 TSNO=
201207170853 METAR KCLM 170853Z AUTO 27003KT 1 1/2SM BR OVC001 12/11 A2981 RMK AO2 SLP094 T01170106 53002 TSNO=
201207170849 SPECI KCLM 170849Z AUTO 29004KT 1 3/4SM BR OVC002 12/11 A2981 RMK AO2 TSNO=
201207170805 SPECI KCLM 170805Z AUTO 00000KT 9SM BKN002 12/11 A2981 RMK AO2 TSNO=
201207170753 METAR KCLM 170753Z AUTO 00000KT 10SM FEW003 12/11 A2980 RMK AO2 SLP092 T01220111 402390117 TSNO=
201207170653 METAR KCLM 170653Z AUTO 29004KT 10SM CLR 14/12 A2980 RMK AO2 SLP092 T01390122 TSNO=
201207170553 METAR KCLM 170553Z AUTO 30008KT 10SM CLR 14/12 A2980 RMK AO2 SLP091 T01440122 10194 20144 58001 TSNO=
201207170453 METAR KCLM 170453Z AUTO 31006KT 10SM CLR 16/12 A2981 RMK AO2 SLP094 T01560122 TSNO=
201207170353 METAR KCLM 170353Z AUTO 30009KT 10SM CLR 18/13 A2980 RMK AO2 SLP091 T01830133 TSNO=
201207170253 METAR KCLM 170253Z AUTO 30008KT 10SM CLR 19/13 A2981 RMK AO2 SLP093 T01890133 56009 TSNO=
201207170153 METAR KCLM 170153Z AUTO 30008KT 10SM CLR 19/13 A2981 RMK AO2 SLP093 T01940128 TSNO=
201207170053 METAR KCLM 170053Z AUTO 31006KT 10SM CLR 19/13 A2982 RMK AO2 SLP097 T01890128 TSNO=
201207162353 METAR KCLM 162353Z AUTO 31007KT 10SM CLR 18/13 A2983 RMK AO2 SLP102 T01830128 10239 20161 58013 TSNO=
201207162253 METAR KCLM 162253Z AUTO 30006KT 10SM CLR 19/13 A2984 RMK AO2 SLP106 T01890128 TSNO=
201207162153 METAR KCLM 162153Z AUTO 36005KT 10SM CLR 19/13 A2986 RMK AO2 SLP112 T01890133 TSNO=
201207162053 METAR KCLM 162053Z AUTO 02004KT 10SM CLR 23/13 A2987 RMK AO2 SLP114 T02280133 58008 TSNO=
201207161953 METAR KCLM 161953Z AUTO 02005KT 10SM CLR 21/14 A2988 RMK AO2 SLP119 T02060139 TSNO=
201207161853 METAR KCLM 161853Z AUTO VRB04KT 10SM CLR 18/13 A2989 RMK AO2 SLP123 T01780133 TSNO=
201207161753 METAR KCLM 161753Z AUTO 02003KT 10SM CLR 18/14 A2990 RMK AO2 SLP123 T01830139 10194 20122 58007 TSNO=
201207161653 METAR KCLM 161653Z AUTO VRB03KT 10SM CLR 17/14 A2991 RMK AO2 SLP129 T01720144 TSNO=
201207161553 METAR KCLM 161553Z AUTO 10003KT 10SM FEW004 15/14 A2992 RMK AO2 SLP132 T01500139 TSNO=
201207161541 SPECI KCLM 161541Z AUTO 13004KT 10SM SCT002 SCT045 14/13 A2992 RMK AO2 TSNO=
201207161532 SPECI KCLM 161532Z AUTO 13003KT 8SM BKN002 BKN045 14/13 A2992 RMK AO2 TSNO=
201207161517 SPECI KCLM 161517Z AUTO 09003KT 3SM BR OVC001 13/12 A2993 RMK AO2 TSNO=
201207161509 SPECI KCLM 161509Z AUTO VRB03KT 1 1/2SM BR OVC001 13/12 A2992 RMK AO2 TSNO=
201207161459 SPECI KCLM 161459Z AUTO 03003KT 2SM BR OVC001 14/13 A2992 RMK AO2 TSNO=
201207161453 METAR KCLM 161453Z AUTO 00000KT 1/2SM FG VV001 13/13 A2992 RMK AO2 SLP130 T01330128 TSNO=
201207161409 SPECI KCLM 161409Z AUTO 00000KT 1/4SM FG VV001 12/12 RMK AO2 TSNO=
201207161400 SPECI KCLM 161400Z AUTO 03003KT 3/4SM BR VV001 13/12 RMK AO2 TSNO $=
201207161353 METAR KCLM 161353Z AUTO 00000KT 1 1/2SM BR FEW001 FEW048 12/12 RMK AO2 SLPNO T01220117 TSNO $=
201207161351 SPECI KCLM 161351Z AUTO 00000KT 1 3/4SM BR FEW001 FEW048 12/12 RMK AO2 TSNO $=
201207161343 SPECI KCLM 161343Z AUTO 00000KT 3SM BR FEW001 SCT048 13/12 RMK AO2 TSNO $=
201207161341 SPECI KCLM 161341Z AUTO 22003KT 1 1/4SM BR FEW001 SCT048 13/12 RMK AO2 TSNO $=
201207161337 SPECI KCLM 161337Z AUTO 00000KT 1/4SM FG SCT001 BKN048 13/12 RMK AO2 TSNO $=
201207161330 SPECI KCLM 161330Z AUTO 00000KT 1/2SM FG FEW001 SCT049 13/12 RMK AO2 TSNO $=
201207161317 SPECI KCLM 161317Z AUTO 00000KT 1 1/2SM BR FEW039 13/12 RMK AO2 TSNO $=
201207161253 METAR KCLM 161253Z AUTO 00000KT 5SM BR OVC040 13/13 RMK AO2 SLPNO T01330128 TSNO $=
201207161153 METAR KCLM 161153Z AUTO 00000KT 7SM OVC041 14/13 RMK AO2 SLPNO 60000 70003 T01390128 10144 20117 TSNO $=
201207161053 METAR KCLM 161053Z AUTO 00000KT 7SM OVC046 13/12 RMK AO2 SLPNO T01330122 TSNO $=
201207161024 SPECI KCLM 161024Z AUTO 15004KT 3SM BR FEW001 OVC046 13/12 RMK AO2 TSNO $=
201207161004 SPECI KCLM 161004Z AUTO 17003KT 1 3/4SM BR SCT001 BKN046 12/12 RMK AO2 TSNO $=
201207161002 SPECI KCLM 161002Z AUTO 00000KT 4SM BR FEW001 BKN046 12/12 RMK AO2 TSNO $=
201207160953 METAR KCLM 160953Z AUTO 15004KT 8SM SCT046 12/12 RMK AO2 SLPNO T01220117 TSNO $=
201207160938 SPECI KCLM 160938Z AUTO 14003KT 3SM BR CLR 12/12 RMK AO2 TSNO $=
201207160931 SPECI KCLM 160931Z AUTO 00000KT 1SM BR FEW070 12/11 RMK AO2 TSNO $=
201207160900 SPECI KCLM 160900Z AUTO 00000KT 9SM CLR 13/12 A2994 RMK AO2 TSNO=
201207160853 METAR KCLM 160853Z AUTO 00000KT 2 1/2SM BR FEW065 FEW120 13/12 A2993 RMK AO2 VIS 1/2V5 SLP136 60000 T01280117 55005 TSNO=
201207160840 SPECI KCLM 160840Z AUTO 00000KT 1 3/4SM BR FEW065 SCT120 12/12 A2993 RMK AO2 TSNO=
201207160753 METAR KCLM 160753Z AUTO 30003KT 10SM FEW008 OVC070 13/12 A2993 RMK AO2 SLP136 T01330122 401890133 TSNO=
201207160734 SPECI KCLM 160734Z AUTO 00000KT 10SM FEW008 OVC065 14/13 A2992 RMK AO2 TSNO=
201207160653 METAR KCLM 160653Z AUTO 00000KT 10SM OVC070 14/13 A2991 RMK AO2 RAE01 SLP130 P0000 T01390128 TSNO=
201207160553 METAR KCLM 160553Z AUTO 00000KT 10SM -RA SCT042 OVC050 14/13 A2995 RMK AO2 SLP141 P0000 60002 T01390128 10189 20133 58002 TSNO=
201207160453 METAR KCLM 160453Z AUTO 00000KT 6SM -RA BR BKN060 OVC070 14/13 A2995 RMK AO2 RAE01B22 SLP141 P0002 T01390128 TSNO=
201207160353 METAR KCLM 160353Z AUTO 35004KT 10SM -RA FEW028 BKN055 OVC110 14/12 A2996 RMK AO2 RAB46 SLP144 P0000 T01440122 TSNO=
201207160349 SPECI KCLM 160349Z AUTO 01003KT 10SM -RA SCT028 BKN060 OVC100 14/12 A2995 RMK AO2 RAB46 P0000 TSNO=
201207160324 SPECI KCLM 160324Z AUTO 31003KT 10SM BKN028 15/12 A2995 RMK AO2 TSNO=
201207160253 METAR KCLM 160253Z AUTO 00000KT 10SM SCT085 16/12 A2995 RMK AO2 SLP142 T01610122 55003 TSNO=
201207160211 SPECI KCLM 160211Z AUTO 02003KT 10SM SCT027 OVC090 17/14 A2994 RMK AO2 TSNO=
201207160153 METAR KCLM 160153Z AUTO 35005KT 10SM BKN026 OVC090 17/14 A2994 RMK AO2 SLP139 T01720144 TSNO=
201207160132 SPECI KCLM 160132Z AUTO 00000KT 10SM SCT022 BKN090 OVC110 19/14 A2994 RMK AO2 TSNO=
201207160053 METAR KCLM 160053Z AUTO 00000KT 10SM OVC021 17/14 A2996 RMK AO2 SLP145 T01720144 TSNO=
201207152353 METAR KCLM 152353Z AUTO 00000KT 10SM OVC020 16/14 A2996 RMK AO2 SLP144 60001 T01610139 10189 20139 50007 TSNO=
201207152253 METAR KCLM 152253Z AUTO 23003KT 10SM BKN027 OVC034 15/13 A2997 RMK AO2 RAE08 SLP147 P0000 T01500133 TSNO=
201207152227 SPECI KCLM 152227Z AUTO 25004KT 4SM BR FEW006 BKN015 OVC034 14/13 A2997 RMK AO2 RAE08 P0000 TSNO=
201207152220 SPECI KCLM 152220Z AUTO 26005KT 4SM BR FEW005 BKN014 OVC036 14/13 A2997 RMK AO2 RAE08 P0000 TSNO=
201207152204 SPECI KCLM 152204Z AUTO 27005KT 3SM -RA BR BKN014 OVC020 14/12 A2996 RMK AO2 P0000 TSNO=
201207152153 METAR KCLM 152153Z AUTO 31005KT 2SM -RA BR SCT016 OVC022 14/12 A2996 RMK AO2 RAB29 SLP146 P0001 T01390122 TSNO=
201207152146 SPECI KCLM 152146Z AUTO 32005KT 1 3/4SM -RA BR OVC023 14/12 A2996 RMK AO2 RAB29 P0001 TSNO=
201207152053 METAR KCLM 152053Z AUTO 00000KT 10SM OVC028 17/11 A2994 RMK AO2 SLP138 T01670111 53006 TSNO=
201207152049 SPECI KCLM 152049Z AUTO 04004KT 10SM OVC028 16/11 A2994 RMK AO2 TSNO=
201207151953 METAR KCLM 151953Z AUTO 00000KT 10SM FEW023 BKN035 OVC060 18/12 A2991 RMK AO2 SLP129 T01830117 TSNO=
201207151946 SPECI KCLM 151946Z AUTO 00000KT 10SM SCT023 BKN035 OVC060 18/12 A2992 RMK AO2 TSNO=
201207151902 SPECI KCLM 151902Z AUTO VRB04KT 10SM OVC028 17/11 A2992 RMK AO2 TSNO=
201207151853 METAR KCLM 151853Z AUTO 31005KT 10SM OVC030 16/11 A2992 RMK AO2 SLP131 T01610106 TSNO=
201207151753 METAR KCLM 151753Z AUTO VRB05KT 10SM BKN031 17/11 A2990 RMK AO2 SLP126 T01670111 10167 20133 53006 TSNO=
201207151653 METAR KCLM 151653Z AUTO VRB05KT 10SM FEW032 16/12 A2989 RMK AO2 SLP122 T01610117 TSNO=
201207151616 SPECI KCLM 151616Z AUTO 30005KT 10SM SCT012 BKN033 15/12 A2989 RMK AO2 TSNO=
201207151553 METAR KCLM 151553Z AUTO VRB04KT 10SM BKN013 OVC032 15/12 A2989 RMK AO2 SLP121 T01500117 TSNO=
201207151522 SPECI KCLM 151522Z AUTO 30007KT 10SM FEW010 OVC015 15/12 A2988 RMK AO2 TSNO=
201207151453 METAR KCLM 151453Z AUTO 28006KT 10SM OVC014 14/12 A2989 RMK AO2 SLP120 T01440117 56002 TSNO=
201207151353 METAR KCLM 151353Z AUTO 29003KT 10SM OVC011 13/11 A2989 RMK AO2 SLP122 T01330111 TSNO=
201207151253 METAR KCLM 151253Z AUTO 31004KT 10SM OVC011 13/11 A2988 RMK AO2 SLP117 T01330111 TSNO=
201207151153 METAR KCLM 151153Z AUTO 27005KT 10SM OVC010 13/11 A2989 RMK AO2 SLP122 7//// T01330111 10139 20133 55006 TSNO=
201207151127 SPECI KCLM 151127Z AUTO 26005KT 10SM OVC010 13/11 A2990 RMK AO2 CIG 007V012 TSNO=
201207151053 METAR KCLM 151053Z AUTO 29007KT 10SM OVC008 13/12 A2989 RMK AO2 SLP121 T01330117 TSNO=
201207150953 METAR KCLM 150953Z AUTO 29008KT 10SM OVC007 13/12 A2990 RMK AO2 SLP123 T01330117 TSNO=
201207150853 METAR KCLM 150853Z AUTO 29009KT 10SM OVC005 14/12 A2991 RMK AO2 SLPNO T01390122 56005 TSNO=
201207150812 SPECI KCLM 150812Z AUTO 28009KT 10SM OVC005 14/12 A2992 RMK AO2 TSNO=
201207150753 METAR KCLM 150753Z AUTO 28008KT 10SM OVC004 14/12 A2992 RMK AO2 SLPNO T01390122 402060133 TSNO=
201207150653 METAR KCLM 150653Z AUTO 29012KT 9SM OVC002 14/12 A2992 RMK AO2 SLPNO T01390122 TSNO=
201207150553 METAR KCLM 150553Z AUTO 29008KT 6SM BR OVC002 13/12 A2993 RMK AO2 SLPNO T01330122 10200 20133 53001 TSNO=
201207150453 METAR KCLM 150453Z AUTO 29008KT 9SM OVC003 14/12 A2992 RMK AO2 SLPNO T01390122 TSNO=
201207150423 SPECI KCLM 150423Z AUTO 28008KT 10SM BKN004 14/12 A2992 RMK AO2 TSNO=
201207150414 SPECI KCLM 150414Z AUTO 30008KT 10SM SCT004 14/12 A2992 RMK AO2 TSNO=
201207150353 METAR KCLM 150353Z AUTO 29006KT 10SM CLR 14/12 A2991 RMK AO2 SLPNO T01440122 TSNO=
201207150253 METAR KCLM 150253Z AUTO 31006KT 10SM CLR 17/13 A2993 RMK AO2 SLPNO T01670133 56006 TSNO=
201207150153 METAR KCLM 150153Z AUTO 32005KT 10SM CLR 18/13 A2993 RMK AO2 SLPNO T01830133 TSNO=
201207150053 METAR KCLM 150053Z AUTO 32005KT 10SM CLR 19/14 A2993 RMK AO2 SLPNO T01940139 TSNO=
201207142353 METAR KCLM 142353Z AUTO 32004KT 10SM CLR 18/13 A2995 RMK AO2 SLPNO 6//// T01830133 TSNO=
201207142253 METAR KCLM 142253Z AUTO VRB05KT 10SM CLR 21/14 A2995 RMK AO2 SLPNO T02060144 TSNO=
201207142153 METAR KCLM 142153Z AUTO 30008KT 10SM 19/13 A2996 RMK AO2 SLPNO T01890133 TSNO=
201207142100 METAR KCLM NIL=
201207142045 METAR KCLM 142045Z 28004KT 25SM SCT200 17/14 A2997=
201207141950 METAR KCLM 141950Z 00000KT 25SM BKN200 18/13 A2997=
201207141900 METAR KCLM NIL=
201207141855 METAR KCLM 141855Z 00000KT 25SM BKN200 17/14 A2999=
201207141800 METAR KCLM NIL=
201207141700 METAR KCLM NIL=
201207141645 METAR KCLM 141645Z 00000KT 25SM BKN200 17/15 A2999=
201207141600 METAR KCLM NIL=
201207141500 METAR KCLM NIL=
201207141400 METAR KCLM NIL=
201207141300 METAR KCLM NIL=
201207141200 METAR KCLM NIL=
201207141100 METAR KCLM NIL=
201207141000 METAR KCLM NIL=
201207140900 METAR KCLM NIL=
201207140800 METAR KCLM NIL=
201207140700 METAR KCLM NIL=
201207140600 METAR KCLM NIL=
201207140500 METAR KCLM NIL=
201207140400 METAR KCLM NIL=
201207140300 METAR KCLM NIL=
201207140200 METAR KCLM NIL=
201207140100 METAR KCLM NIL=
201207140000 METAR KCLM NIL=
201207132320 SPECI KCLM 132320Z 00000KT 10SM SCT008 BKN015 18/16 A3003 RMK CIG VSBY LWR S=
201207132250 METAR KCLM 132250Z 00000KT 7SM TS BKN006 16/15 A3004 RMK VIS/CIG HIR NW=
201207132200 METAR KCLM NIL=
201207132155 METAR KCLM 132155Z 00000KT 5SM -TSRA BR BKN003 OVC008 15/13 A3005 RMK BINOVC=
201207132050 METAR KCLM 132050Z 00000KT 4SM -TSRA BR OVC003 14/13 A3005 RMK VIS LWR E=
201207131955 METAR KCLM 131955Z 00000KT 5SM -TSRA BR BKN003 OVC080 15/14 A3005=
201207131855 METAR KCLM 131855Z 35004KT 2SM -TSRA BR OVC001 15/15 A3006=
201207131755 METAR KCLM 131755Z 18003KT 3SM -TSRA BKN002 OVC005 14/13 A3006=
201207131735 SPECI KCLM 131735Z 00000KT 3SM -RA BR OVC002 14/13 A3005=
201207131652 METAR KCLM 131652Z 00000KT 7SM OVC005 15/13 A3004=
201207131600 METAR KCLM NIL=
201207131500 METAR KCLM NIL=
201207131400 METAR KCLM NIL=
201207131300 METAR KCLM NIL=
201207131200 METAR KCLM NIL=
201207131000 METAR KCLM NIL=
201207130900 METAR KCLM NIL=
201207130800 METAR KCLM NIL=
201207130700 METAR KCLM NIL=
201207130600 METAR KCLM NIL=
201207130500 METAR KCLM NIL=
201207130400 METAR KCLM NIL=
201207130300 METAR KCLM NIL=
201207130200 METAR KCLM NIL=
201207130100 METAR KCLM NIL=
201207130000 METAR KCLM NIL=
201207122300 METAR KCLM NIL=
201207122200 METAR KCLM NIL=
201207122053 METAR KCLM 122053Z AUTO 32009KT 10SM 19/13 RMK AO2 SLPNO T01890128 TSNO $=
201207121953 METAR KCLM 121953Z AUTO 30005KT 10SM 19/13 RMK AO2 SLPNO T01940128 TSNO $=
201207121853 METAR KCLM 121853Z AUTO 31007KT 10SM CLR 17/12 A3000 RMK AO2 SLP158 T01670122 TSNO=
201207121753 METAR KCLM 121753Z AUTO 36005KT 10SM CLR 16/12 A3000 RMK AO2 SLP159 T01610122 10172 20106 50001 TSNO=
201207121653 METAR KCLM 121653Z AUTO 01003KT 10SM CLR 17/12 A3000 RMK AO2 SLP160 T01670122 TSNO=
201207121600 METAR KCLM NIL=
201207121453 METAR KCLM 121453Z AUTO 30004KT 10SM BKN002 12/12 A3000 RMK AO2 SLP158 T01220117 53003 TSNO=
201207121432 SPECI KCLM 121432Z AUTO 29006KT 10SM BKN002 12/11 A2999 RMK AO2 T01170111 TSNO=
201207121417 SPECI KCLM 121417Z AUTO 28004KT 2SM BR OVC001 12/11 A2999 RMK AO2 T01170111 TSNO=
201207121412 SPECI KCLM 121412Z AUTO 29005KT 1 1/4SM BR OVC002 11/11 A2999 RMK AO2 T01110106 TSNO=
201207121402 SPECI KCLM 121402Z AUTO 27004KT 2 1/2SM BR OVC002 11/11 A2999 RMK AO2 T01110106 TSNO=
201207121353 METAR KCLM 121353Z AUTO 27005KT 1 1/4SM BR OVC002 11/11 A2999 RMK AO2 SLP155 T01110106 TSNO=
201207121350 SPECI KCLM 121350Z AUTO 27006KT 1SM BR OVC002 11/11 A2999 RMK AO2 TSNO=
201207121304 SPECI KCLM 121304Z AUTO 26005KT 1/4SM FG VV002 11/10 A2999 RMK AO2 T01060100 TSNO $=
201207121253 METAR KCLM 121253Z AUTO 27004KT M1/4SM FG VV001 11/11 A2999 RMK AO2 SLP155 T01110106 TSNO $=
201207121200 SPECI KCLM 121200Z AUTO 27004KT 1/4SM FG VV002 11/10 A2999 RMK AO2 T01110100 TSNO $=
201207121153 METAR KCLM 121153Z AUTO 31003KT 1/2SM FG VV002 11/11 A2998 RMK AO2 SLP153 7//// T01110106 10117 20111 53000 TSNO $=
201207121100 METAR KCLM NIL=
201207121000 METAR KCLM NIL=
201207120939 SPECI KCLM 120939Z AUTO 29005KT 1/2SM FG 12/11 A2998 RMK AO2 T01170111 TSNO $=
201207120914 SPECI KCLM 120914Z AUTO 29004KT 1/4SM FG VV002 12/11 RMK AO2 T01170111 TSNO $=
201207120907 SPECI KCLM 120907Z AUTO 29005KT 1/4SM FG VV001 12/11 RMK AO2 T01170111 TSNO=
201207120853 METAR KCLM 120853Z AUTO 29006KT 1/2SM FG VV002 12/11 RMK AO2 SLPNO T01170106 TSNO=
201207120845 SPECI KCLM 120845Z AUTO 29006KT 1/2SM FG VV002 12/11 RMK AO2 T01170106 TSNO=
201207120834 SPECI KCLM 120834Z AUTO 30007KT 1 3/4SM BR OVC001 12/11 RMK AO2 T01170106 TSNO=
201207120828 SPECI KCLM 120828Z AUTO 29007KT 3SM BR OVC001 12/11 RMK AO2 T01170106 TSNO=
201207120803 SPECI KCLM 120803Z AUTO 29006KT 4SM BR OVC002 12/11 RMK AO2 T01170106 TSNO=
201207120753 METAR KCLM 120753Z AUTO 29007KT 8SM OVC001 12/11 RMK AO2 SLPNO T01170106 402000111 TSNO=
201207120711 SPECI KCLM 120711Z AUTO 29005KT 8SM OVC001 12/11 RMK AO2 T01170106 TSNO=
201207120653 METAR KCLM 120653Z AUTO 29006KT 8SM BKN002 12/11 RMK AO2 SLPNO T01170106 TSNO=
201207120609 SPECI KCLM 120609Z AUTO 30007KT 10SM FEW002 12/11 RMK AO2 T01170106 TSNO=
201207120553 METAR KCLM 120553Z AUTO 31007KT 10SM CLR 11/11 RMK AO2 SLPNO T01110106 10194 20111 TSNO=
201207120453 METAR KCLM 120453Z AUTO 31005KT 10SM CLR 12/11 RMK AO2 SLPNO T01170106 TSNO $=
201207120353 METAR KCLM 120353Z AUTO 00000KT 10SM CLR 14/12 RMK AO2 SLPNO T01390117 TSNO $=
201207120300 METAR KCLM NIL=
201207120153 METAR KCLM 120153Z AUTO 33005KT 10SM CLR 18/13 A3002 RMK AO2 SLPNO T01780128 TSNO=
201207120053 METAR KCLM 120053Z AUTO 30006KT 10SM CLR 18/13 A3003 RMK AO2 SLP169 T01830128 TSNO=
201207112353 METAR KCLM 112353Z AUTO 33006KT 10SM CLR 17/12 A3004 RMK AO2 SLP173 6//// T01720122 10200 20133 TSNO=
201207112253 METAR KCLM 112253Z AUTO 33005KT 10SM 19/13 A3005 RMK AO2 SLP177 T01940133 TSNO=
201207112153 METAR KCLM 112153Z AUTO VRB04KT 10SM CLR 19/13 RMK AO2 SLPNO T01890133 TSNO PNO $=
201207112053 METAR KCLM 112053Z AUTO VRB06KT 10SM CLR 17/13 RMK AO2 SLPNO 6//// T01720128 TSNO PNO $=
201207112010 METAR KCLM 112010Z 27003KT 25SM SKC 18/13 A3010 RMK MIFB NW=
201207112000 METAR KCLM NIL=
201207111853 METAR KCLM 111853Z AUTO 31007KT 10SM FEW006 16/12 RMK AO2 SLPNO T01560122 TSNO=
201207111834 SPECI KCLM 111834Z AUTO 30007KT 10SM SCT006 16/12 RMK AO2 T01560122 TSNO $=
201207111653 METAR KCLM 111653Z AUTO 32005KT 10SM OVC003 14/12 RMK AO2 SLPNO T01390122 TSNO $=
201207111553 METAR KCLM 111553Z AUTO 00000KT 10SM OVC002 13/13 RMK AO2 SLPNO T01330128 TSNO $=
201207111530 SPECI KCLM 111530Z AUTO 31004KT 4SM BR OVC002 13/12 RMK AO2 T01330122 TSNO $=
201207111523 SPECI KCLM 111523Z AUTO 30006KT 2 1/2SM BR OVC002 13/12 RMK AO2 T01280122 TSNO $=
201207111511 SPECI KCLM 111511Z AUTO 30007KT 1 1/2SM BR OVC002 13/12 RMK AO2 VIS 1 1/4V2 1/2 T01280122 TSNO $=
201207111453 METAR KCLM 111453Z AUTO 31005KT 1/2SM FG VV002 13/12 RMK AO2 SLPNO 6//// T01280122 TSNO $=
201207111444 SPECI KCLM 111444Z AUTO 30008KT 1/2SM FG VV002 13/12 RMK AO2 T01280122 TSNO $=
201207111427 SPECI KCLM 111427Z AUTO 29005KT 1/4SM FG VV002 13/12 RMK AO2 T01280122 TSNO $=
201207111406 SPECI KCLM 111406Z AUTO 30006KT 1/4SM FG 12/12 RMK AO2 T01220117 TSNO $=
201207111400 METAR KCLM NIL=
201207111300 METAR KCLM NIL=
201207111209 SPECI KCLM 111209Z AUTO 28006KT 3/4SM BR 12/12 RMK AO2 T01220117 TSNO $=
201207111200 METAR KCLM NIL=
201207111126 SPECI KCLM 111126Z AUTO VRB05KT 1/2SM FG 12/12 A3009 RMK AO2 T01220117 TSNO $=
201207111053 METAR KCLM 111053Z AUTO 28006KT 1/2SM FG 12/12 A3010 RMK AO2 SLP191 T01220117 TSNO $=
201207111049 SPECI KCLM 111049Z AUTO 28007KT 1/2SM FG 12/12 A3010 RMK AO2 TSNO $=
201207111022 SPECI KCLM 111022Z AUTO 28008KT 1/2SM FG 12/11 RMK AO2 T01220111 TSNO $=
201207110953 METAR KCLM 110953Z AUTO 30011G15KT 3/4SM BR VV002 12/12 RMK AO2 SLPNO T01220117 TSNO $=
201207110920 SPECI KCLM 110920Z AUTO 30007KT 3/4SM BR VV002 12/12 A3009 RMK AO2 T01220117 TSNO $=
201207110910 SPECI KCLM 110910Z AUTO 30009KT 1 1/4SM BR OVC001 12/12 A3008 RMK AO2 T01220117 TSNO $=
201207110853 METAR KCLM 110853Z AUTO 31008KT 1 1/2SM BR 12/12 A3008 RMK AO2 SLP186 T01220117 TSNO $=
201207110849 SPECI KCLM 110849Z AUTO 31008KT 1 1/2SM BR 12/12 A3008 RMK AO2 TSNO $=
201207110812 SPECI KCLM 110812Z AUTO 31011KT 2SM BR OVC001 13/12 A3009 RMK AO2 T01280117 TSNO=
201207110753 METAR KCLM 110753Z AUTO 31010KT 6SM BR OVC002 13/12 A3008 RMK AO2 SLP187 T01280117 401780111 TSNO=
201207110737 SPECI KCLM 110737Z AUTO 31011KT 7SM BKN002 13/12 A3009 RMK AO2 T01280117 TSNO=
201207110725 SPECI KCLM 110725Z AUTO 31011KT 10SM SCT001 13/12 A3008 RMK AO2 T01280117 TSNO=
201207110718 SPECI KCLM 110718Z AUTO 31010KT 9SM BKN001 13/12 A3008 RMK AO2 T01280117 TSNO=
201207110711 SPECI KCLM 110711Z AUTO 31011KT 9SM SCT002 13/12 A3008 RMK AO2 T01280117 TSNO=
201207110653 METAR KCLM 110653Z AUTO 31009KT 10SM CLR 13/12 A3008 RMK AO2 SLP187 T01330122 TSNO=
201207110553 METAR KCLM 110553Z AUTO 31009KT 10SM CLR 13/12 A3009 RMK AO2 SLP190 T01330122 10178 20133 56001 TSNO=
201207110453 METAR KCLM 110453Z AUTO 29007KT 10SM CLR 14/12 A3010 RMK AO2 SLP191 T01390122 TSNO=
201207110353 METAR KCLM 110353Z AUTO 29006KT 10SM CLR 15/13 A3009 RMK AO2 SLP190 T01500128 TSNO=
201207110253 METAR KCLM 110253Z AUTO 31007KT 10SM CLR 16/12 A3010 RMK AO2 SLP191 T01610122 56013 TSNO=
201207110153 METAR KCLM 110153Z AUTO 30006KT 10SM CLR 17/13 A3010 RMK AO2 SLP192 T01720128 TSNO=
201207110053 METAR KCLM 110053Z AUTO 31008KT 10SM CLR 17/13 A3011 RMK AO2 SLP196 T01720128 TSNO=
201207102353 METAR KCLM 102353Z AUTO 32009KT 10SM CLR 17/12 A3014 RMK AO2 SLP205 T01670122 10172 20150 58014 TSNO=
201207102253 METAR KCLM 102253Z AUTO 31010KT 10SM CLR 16/12 A3016 RMK AO2 SLP212 T01610117 TSNO=
201207102153 METAR KCLM 102153Z AUTO 31008KT 10SM CLR 17/12 A3017 RMK AO2 SLP215 T01720122 TSNO=
201207102053 METAR KCLM 102053Z AUTO 34008KT 10SM CLR 16/12 A3018 RMK AO2 SLP219 T01610117 58007 TSNO=
201207101953 METAR KCLM 101953Z AUTO 35006KT 10SM CLR 17/12 A3019 RMK AO2 SLP222 T01670117 TSNO=
201207101853 METAR KCLM 101853Z AUTO VRB06KT 10SM CLR 16/12 A3019 RMK AO2 SLP224 T01560117 TSNO=
201207101807 SPECI KCLM 101807Z AUTO 30008KT 10SM SCT010 16/11 A3020 RMK AO2 T01560111 TSNO=
201207101800 METAR KCLM NIL=
201207101653 METAR KCLM 101653Z AUTO 32006KT 10SM OVC010 14/11 A3021 RMK AO2 SLP230 T01390111 TSNO=
201207101553 METAR KCLM 101553Z AUTO 31006KT 10SM OVC009 13/11 A3020 RMK AO2 SLP228 T01330106 TSNO=
201207101453 METAR KCLM 101453Z AUTO 32004KT 10SM BKN009 13/11 A3020 RMK AO2 SLP226 T01280106 52013 TSNO=
201207101427 SPECI KCLM 101427Z AUTO 28010KT 10SM BKN009 12/10 A3020 RMK AO2 T01220100 TSNO=
201207101416 SPECI KCLM 101416Z AUTO 30009KT 10SM SCT009 13/10 A3019 RMK AO2 T01280100 TSNO=
201207101353 METAR KCLM 101353Z AUTO 30007KT 10SM CLR 12/10 A3018 RMK AO2 SLP221 T01220100 TSNO=
201207101253 METAR KCLM 101253Z AUTO 29009KT 10SM CLR 11/09 A3018 RMK AO2 SLP218 T01110094 TSNO=
201207101153 METAR KCLM 101153Z AUTO 26010KT 10SM CLR 12/09 A3016 RMK AO2 SLP213 T01170094 10117 20111 53003 TSNO=
201207101053 METAR KCLM 101053Z AUTO 29012KT 10SM CLR 11/09 A3016 RMK AO2 SLP213 T01110094 TSNO=
201207100953 METAR KCLM 100953Z AUTO 28011KT 10SM CLR 11/09 A3016 RMK AO2 SLP211 T01110094 TSNO=
201207100853 METAR KCLM 100853Z AUTO 29010G22KT 10SM CLR 11/09 A3015 RMK AO2 SLP211 T01110094 51011 TSNO=
201207100753 METAR KCLM 100753Z AUTO 29014G19KT 10SM CLR 11/09 A3015 RMK AO2 SLP208 T01110089 401670111 TSNO=
201207100653 METAR KCLM 100653Z AUTO 29011KT 10SM CLR 12/09 A3013 RMK AO2 SLP203 T01170089 TSNO=
201207100553 METAR KCLM 100553Z AUTO 29014G22KT 10SM CLR 12/09 A3012 RMK AO2 SLP199 T01170094 10167 20117 50007 TSNO=
201207100453 METAR KCLM 100453Z AUTO 30014G21KT 10SM CLR 12/09 A3012 RMK AO2 SLP200 T01170094 TSNO=
201207100353 METAR KCLM 100353Z AUTO 29012G17KT 10SM CLR 13/09 A3011 RMK AO2 SLP195 T01280094 TSNO=
201207100253 METAR KCLM 100253Z AUTO 29014G18KT 10SM CLR 14/09 A3010 RMK AO2 SLP192 T01390094 53003 TSNO=
201207100153 METAR KCLM 100153Z AUTO 29011G19KT 10SM CLR 15/10 A3009 RMK AO2 SLP189 T01500100 TSNO=
201207100053 METAR KCLM 100053Z AUTO 30013KT 10SM CLR 16/11 A3009 RMK AO2 SLP189 T01560106 TSNO=
201207092353 METAR KCLM 092353Z AUTO 30014G21KT 10SM CLR 17/11 A3009 RMK AO2 SLP188 T01670106 10167 20150 58004 TSNO=
201207092253 METAR KCLM 092253Z AUTO 31014G21KT 10SM CLR 16/11 A3010 RMK AO2 SLP192 T01610106 TSNO=
201207092153 METAR KCLM 092153Z AUTO 30016G20KT 10SM CLR 17/11 A3010 RMK AO2 SLP193 T01670111 TSNO=
201207092053 METAR KCLM 092053Z AUTO 31009G17KT 10SM CLR 17/12 A3010 RMK AO2 SLP193 T01670117 51004 TSNO=
201207091953 METAR KCLM 091953Z AUTO 30014G19KT 10SM CLR 16/11 A3010 RMK AO2 SLP192 T01610111 TSNO=
201207091853 METAR KCLM 091853Z AUTO 32010KT 10SM CLR 16/11 A3009 RMK AO2 SLP191 T01560111 TSNO=
201207091753 METAR KCLM 091753Z AUTO 33010KT 10SM CLR 15/11 A3009 RMK AO2 SLP188 T01500111 10156 20117 58004 TSNO=
201207091707 SPECI KCLM 091707Z AUTO 31010G17KT 10SM SCT009 15/11 A3009 RMK AO2 T01500106 TSNO=
201207091653 METAR KCLM 091653Z AUTO 30010KT 10SM BKN010 15/11 A3009 RMK AO2 SLP191 T01500111 TSNO=
201207091553 METAR KCLM 091553Z AUTO 32008KT 10SM OVC010 14/11 A3011 RMK AO2 SLP194 T01390106 TSNO=
201207091529 SPECI KCLM 091529Z AUTO 31011KT 10SM OVC010 13/11 A3010 RMK AO2 T01330106 TSNO=
201207091509 SPECI KCLM 091509Z AUTO 32009KT 10SM BKN009 13/11 A3010 RMK AO2 T01330106 TSNO=
201207091453 METAR KCLM 091453Z AUTO 31007KT 10SM FEW009 13/11 A3010 RMK AO2 SLP192 T01330106 53010 TSNO=
201207091353 METAR KCLM 091353Z AUTO 29008KT 10SM CLR 12/10 A3008 RMK AO2 SLP186 T01220100 TSNO=
201207091253 METAR KCLM 091253Z AUTO 29012KT 10SM CLR 12/10 A3007 RMK AO2 SLP183 T01170100 TSNO=
201207091153 METAR KCLM 091153Z AUTO 29013KT 10SM CLR 12/10 A3007 RMK AO2 SLP182 T01220100 10133 20117 50005 TSNO=
201207091053 METAR KCLM 091053Z AUTO 29012KT 10SM CLR 12/10 A3007 RMK AO2 SLP184 T01220100 TSNO=
201207090953 METAR KCLM 090953Z AUTO 29008KT 10SM CLR 12/10 A3008 RMK AO2 SLP186 T01220100 TSNO=
201207090853 METAR KCLM 090853Z AUTO 10SM CLR 13/10 A3006 RMK AO2 SLP178 T01280100 53008 TSNO=
201207090753 METAR KCLM 090753Z AUTO 29013KT 10SM CLR 13/10 A3004 RMK AO2 SLP172 T01280100 401890111 TSNO=
201207090653 METAR KCLM 090653Z AUTO 28011KT 10SM CLR 13/11 A3003 RMK AO2 SLP169 T01330106 TSNO=
201207090553 METAR KCLM 090553Z AUTO 30013KT 10SM CLR 13/11 A3003 RMK AO2 SLP170 T01330106 10183 20133 50007 TSNO=
201207090453 METAR KCLM 090453Z AUTO 29012KT 10SM CLR 14/11 A3003 RMK AO2 SLP170 T01390106 TSNO=
201207090353 METAR KCLM 090353Z AUTO 30013G19KT 10SM CLR 14/11 A3002 RMK AO2 SLP166 T01440106 TSNO=
201207090253 METAR KCLM 090253Z AUTO 30012G21KT 10SM CLR 16/11 A3001 RMK AO2 SLP163 T01560111 56008 TSNO=
201207090153 METAR KCLM 090153Z AUTO 31009KT 10SM CLR 17/12 A3001 RMK AO2 SLP163 T01720117 TSNO=
201207090053 METAR KCLM 090053Z AUTO 30008KT 280V340 10SM CLR 18/12 A3002 RMK AO2 SLP167 T01830122 TSNO=
201207082353 METAR KCLM 082353Z AUTO 32007KT 10SM CLR 17/12 A3004 RMK AO2 SLP171 T01720122 10189 20156 57011 TSNO=
201207082253 METAR KCLM 082253Z AUTO 31010KT 10SM CLR 17/12 A3005 RMK AO2 SLP174 T01720122 TSNO=
201207082153 METAR KCLM 082153Z AUTO 30008KT 10SM CLR 18/13 A3006 RMK AO2 SLP179 T01830128 TSNO=
201207082053 METAR KCLM 082053Z AUTO 32008KT 10SM CLR 17/12 A3007 RMK AO2 SLP183 T01720122 58008 TSNO=
201207081953 METAR KCLM 081953Z AUTO 30009KT 10SM CLR 17/12 A3008 RMK AO2 SLP186 T01670122 TSNO=
201207081853 METAR KCLM 081853Z AUTO 33006KT 10SM CLR 16/12 A3009 RMK AO2 SLP190 T01560122 TSNO=
201207081753 METAR KCLM 081753Z AUTO 34007KT 10SM CLR 16/12 A3010 RMK AO2 SLP191 T01560117 10156 20111 58001 TSNO=
201207081653 METAR KCLM 081653Z AUTO 31006KT 10SM CLR 16/12 A3010 RMK AO2 SLP191 T01560122 TSNO=
201207081600 METAR KCLM NIL=
201207081453 METAR KCLM 081453Z AUTO 30005KT 10SM FEW004 13/11 A3010 RMK AO2 SLP192 T01280111 53007 TSNO=
201207081353 METAR KCLM 081353Z AUTO 31006KT 10SM FEW003 12/11 A3009 RMK AO2 SLP189 T01170106 TSNO=
201207081338 SPECI KCLM 081338Z AUTO 29004KT 9SM FEW003 12/11 A3009 RMK AO2 T01170106 TSNO=
201207081253 METAR KCLM 081253Z AUTO 29005KT 10SM CLR 12/10 A3008 RMK AO2 SLP187 T01170100 TSNO=
201207081153 METAR KCLM 081153Z AUTO 29006KT 10SM CLR 12/10 A3008 RMK AO2 SLP185 T01220100 10139 20122 51003 TSNO=
201207081053 METAR KCLM 081053Z AUTO 30007KT 10SM CLR 12/11 A3007 RMK AO2 SLP184 T01220106 TSNO=
201207080953 METAR KCLM 080953Z AUTO 29009KT 10SM CLR 13/11 A3007 RMK AO2 SLP183 T01280106 TSNO=
201207080853 METAR KCLM 080853Z AUTO VRB06KT 10SM CLR 13/11 A3007 RMK AO2 SLP182 T01280106 58003 TSNO=
201207080753 METAR KCLM 080753Z AUTO 31006KT 10SM CLR 12/10 A3007 RMK AO2 SLP183 T01220100 401940106 TSNO=
201207080653 METAR KCLM 080653Z AUTO 30008KT 10SM CLR 13/10 A3007 RMK AO2 SLP183 T01330100 TSNO=
201207080553 METAR KCLM 080553Z AUTO 30008KT 10SM CLR 14/10 A3008 RMK AO2 SLP185 T01390100 10178 20133 53002 TSNO=
201207080453 METAR KCLM 080453Z AUTO 29011KT 10SM CLR 14/11 A3007 RMK AO2 SLP183 T01390106 TSNO=
201207080353 METAR KCLM 080353Z AUTO 29007KT 10SM CLR 14/11 A3007 RMK AO2 SLP182 T01440106 TSNO=
201207080253 METAR KCLM 080253Z AUTO 29008KT 10SM CLR 16/11 A3007 RMK AO2 SLP182 T01610106 56011 TSNO=
201207080153 METAR KCLM 080153Z AUTO 30009KT 10SM CLR 17/11 A3008 RMK AO2 SLP184 T01670106 TSNO=
201207080053 METAR KCLM 080053Z AUTO 31007KT 10SM CLR 18/11 A3009 RMK AO2 SLP189 T01780111 TSNO=
201207072353 METAR KCLM 072353Z AUTO 31007KT 10SM CLR 18/11 A3010 RMK AO2 SLP194 T01780111 10194 20167 56013 TSNO=
201207072253 METAR KCLM 072253Z AUTO 32008KT 10SM CLR 18/11 A3011 RMK AO2 SLP198 T01780111 TSNO=
201207072153 METAR KCLM 072153Z AUTO VRB05KT 10SM CLR 19/12 A3013 RMK AO2 SLP202 T01940117 TSNO=
201207072053 METAR KCLM 072053Z AUTO 01005KT 10SM CLR 19/12 A3014 RMK AO2 SLP207 T01890117 58007 TSNO=
201207071953 METAR KCLM 071953Z AUTO 03005KT 10SM CLR 18/12 A3015 RMK AO2 SLP209 T01830117 TSNO=
201207071853 METAR KCLM 071853Z AUTO 36006KT 10SM CLR 17/11 A3016 RMK AO2 SLP212 T01720111 TSNO=
201207071753 METAR KCLM 071753Z AUTO 36005KT 10SM CLR 17/11 A3016 RMK AO2 SLP213 T01670111 10172 20106 58004 TSNO=
201207071653 METAR KCLM 071653Z AUTO 29006KT 10SM CLR 17/11 A3017 RMK AO2 SLP217 T01670106 TSNO=
201207071553 METAR KCLM 071553Z AUTO 31005KT 10SM CLR 16/11 A3017 RMK AO2 SLP217 T01560106 TSNO=
201207071453 METAR KCLM 071453Z AUTO 30007KT 10SM CLR 14/10 A3017 RMK AO2 SLP217 T01440100 51006 TSNO=
201207071353 METAR KCLM 071353Z AUTO 28009KT 10SM CLR 13/09 A3017 RMK AO2 SLP217 T01280094 TSNO=
201207071253 METAR KCLM 071253Z AUTO 29005KT 10SM CLR 11/08 A3016 RMK AO2 SLPNO T01110083 TSNO=
201207071153 METAR KCLM 071153Z AUTO 26005KT 10SM CLR 12/08 A3016 RMK AO2 SLPNO 7//// T01170083 10128 20117 53002 TSNO=
201207071053 METAR KCLM 071053Z AUTO 27007KT 10SM CLR 12/08 A3014 RMK AO2 SLPNO T01170083 TSNO=
201207070953 METAR KCLM 070953Z AUTO 28009KT 10SM CLR 12/08 A3015 RMK AO2 SLPNO T01220083 TSNO=
201207070853 METAR KCLM 070853Z AUTO 28009KT 10SM CLR 13/08 A3015 RMK AO2 SLPNO T01280083 53004 TSNO=
201207070753 METAR KCLM 070753Z AUTO 28013KT 10SM CLR 13/08 A3015 RMK AO2 SLPNO T01280083 401670128 TSNO=
201207070653 METAR KCLM 070653Z AUTO 29011KT 10SM CLR 13/08 A3014 RMK AO2 SLPNO T01280083 TSNO=
201207070553 METAR KCLM 070553Z AUTO 28009KT 10SM CLR 13/08 A3014 RMK AO2 SLPNO 6//// T01280083 50008 TSNO=
201207070453 METAR KCLM 070453Z AUTO 29010KT 10SM CLR 13/08 A3014 RMK AO2 SLPNO T01280083 TSNO=
201207070353 METAR KCLM 070353Z AUTO 29011KT 10SM CLR 14/08 A3012 RMK AO2 SLPNO T01390083 TSNO=
201207070253 METAR KCLM 070253Z AUTO 29011KT 10SM CLR 15/08 A3012 RMK AO2 SLPNO 6//// T01500083 TSNO=
201207070153 METAR KCLM 070153Z AUTO 29011G19KT 10SM 17/09 RMK AO2 SLPNO T01670089 TSNO=
201207070100 METAR KCLM NIL=
201207062353 METAR KCLM 062353Z AUTO 31010G18KT 10SM CLR 18/09 RMK AO2 SLPNO 6//// T01780089 TSNO $=
201207062253 METAR KCLM 062253Z AUTO 31011KT 10SM CLR 17/09 RMK AO2 SLPNO T01720089 TSNO $=
201207062153 METAR KCLM 062153Z AUTO 31012G19KT 10SM CLR 18/09 RMK AO2 SLPNO T01780094 TSNO $=
201207062053 METAR KCLM 062053Z AUTO 31008KT 10SM CLR 18/11 RMK AO2 SLPNO 6//// T01780111 TSNO $=
201207062050 METAR KCLM 062050Z 29006KT 25SM SKC 19/13 A3010=
201207062000 METAR KCLM NIL=
201207061947 METAR KCLM 061947Z 29005KT 25SM SKC 18/12 A3010=
201207061850 METAR KCLM 061850Z 29005KT 25SM SKC 18/16 A3010=
201207061752 METAR KCLM 061752Z 26004KT 25SM SKC 17/12 A3013=
201207061700 METAR KCLM NIL=
201207061600 METAR KCLM NIL=
201207061453 METAR KCLM 061453Z AUTO RMK AO2 SLPNO 6//// PWINO FZRANO TSNO PNO $=
201207061400 METAR KCLM NIL=
201207061300 METAR KCLM NIL=
201207061200 METAR KCLM NIL=
201207061100 METAR KCLM NIL=
201207061000 METAR KCLM NIL=
201207060900 METAR KCLM NIL=
201207060800 METAR KCLM NIL=
201207060700 METAR KCLM NIL=
201207060600 METAR KCLM NIL=
201207060500 METAR KCLM NIL=
201207060400 METAR KCLM NIL=
201207060300 METAR KCLM NIL=
201207060200 METAR KCLM NIL=
201207060054 METAR KCLM 060054Z AUTO 31008KT 17/08 RMK AO2 SLPNO T01670078 $=
201207052353 METAR KCLM 052353Z AUTO 36005KT 10SM 18/10 RMK AO2 SLPNO 6//// T01830100 10183 20144 $=
201207052300 METAR KCLM NIL=
201207052153 METAR KCLM 052153Z AUTO 02005KT 10SM CLR 17/08 RMK AO2 SLPNO T01720078 $=
201207052053 METAR KCLM 052053Z AUTO 03005KT 10SM CLR 18/07 RMK AO2 SLPNO T01780072 $=
201207051953 METAR KCLM 051953Z AUTO VRB04KT 18/08 RMK AO2 SLPNO T01780083 $=
201207051853 METAR KCLM 051853Z AUTO 35005KT 16/08 RMK AO2 SLPNO T01610078 $=
201207051753 METAR KCLM 051753Z AUTO VRB04KT 10SM CLR 16/09 A3006 RMK AO2 SLP177 T01560094 10161 20094 50004=
201207051653 METAR KCLM 051653Z AUTO 36004KT 10SM CLR 15/09 A3006 RMK AO2 SLP178 T01500094=
201207051553 METAR KCLM 051553Z AUTO 02004KT 10SM CLR 14/09 A3005 RMK AO2 SLP176 T01440089=
201207051453 METAR KCLM 051453Z AUTO 27007KT 10SM CLR 14/08 A3004 RMK AO2 SLP173 T01390078=
201207051353 METAR KCLM 051353Z AUTO 27006KT 10SM CLR 12/07 RMK AO2 SLPNO T01170072 $=
201207051253 METAR KCLM 051253Z AUTO 25005KT 10SM CLR 10/07 RMK AO2 SLPNO T01000067 $=
201207051153 METAR KCLM 051153Z AUTO 26007KT 10SM CLR 11/07 RMK AO2 SLPNO T01060067 10111 20094 $=
201207051053 METAR KCLM 051053Z AUTO 26007KT 10SM CLR 11/07 RMK AO2 SLPNO T01060067 $=
201207050953 METAR KCLM 050953Z AUTO 25006KT 10SM CLR 11/07 RMK AO2 SLPNO T01060067 $=
201207050853 METAR KCLM 050853Z AUTO 26006KT 10SM CLR 11/07 RMK AO2 SLPNO T01060067 $=
201207050753 METAR KCLM 050753Z AUTO 25006KT 10SM CLR 11/07 RMK AO2 SLPNO T01060067 401720094 $=
201207050653 METAR KCLM 050653Z AUTO 26008KT 10SM CLR 11/07 RMK AO2 SLPNO T01110067 $=
201207050553 METAR KCLM 050553Z AUTO 27006KT 10SM CLR 11/06 RMK AO2 SLPNO T01110061 10161 20106 $=
201207050453 METAR KCLM 050453Z AUTO 28006KT 10SM CLR 11/04 RMK AO2 SLPNO T01110044 $=
201207050353 METAR KCLM 050353Z AUTO 27005KT 10SM CLR 13/05 RMK AO2 SLPNO T01280050 $=
201207050253 METAR KCLM 050253Z AUTO 29006KT 10SM CLR 14/06 RMK AO2 SLPNO T01440061 $=
201207050153 METAR KCLM 050153Z AUTO 30008KT 10SM CLR 15/06 RMK AO2 SLPNO T01500056 $=
201207050053 METAR KCLM 050053Z AUTO 31009KT 10SM CLR 16/07 RMK AO2 SLPNO T01560067 $=
201207042353 METAR KCLM 042353Z AUTO 34008KT 10SM CLR 17/07 RMK AO2 SLPNO T01670067 10172 20144 $=
201207042253 METAR KCLM 042253Z AUTO 36004KT 10SM CLR 17/07 RMK AO2 SLPNO T01720067 $=
201207042153 METAR KCLM 042153Z AUTO 35005KT 10SM CLR 16/07 RMK AO2 SLPNO T01560067 $=
201207042053 METAR KCLM 042053Z AUTO VRB06KT 10SM FEW043 16/06 RMK AO2 SLPNO T01560061 $=
201207041953 METAR KCLM 041953Z AUTO 34006KT 10SM CLR 16/05 RMK AO2 SLPNO T01560050 $=
201207041853 METAR KCLM 041853Z AUTO VRB04KT 10SM 15/07 A3009 RMK AO2 SLP188 T01500072 $=
201207041753 METAR KCLM 041753Z AUTO 34004KT 10SM FEW040 14/07 RMK AO2 SLPNO T01440072 10144 20094 $=
201207041653 METAR KCLM 041653Z AUTO 35005KT 10SM SCT043 14/08 RMK AO2 SLPNO T01390083 $=
201207041553 METAR KCLM 041553Z AUTO 01006KT 10SM CLR 13/08 RMK AO2 SLPNO T01330078 $=
201207041453 METAR KCLM 041453Z AUTO 26004KT 10SM OVC050 12/07 RMK AO2 SLPNO T01220067 $=
201207041353 METAR KCLM 041353Z AUTO 25008KT 10SM BKN045 11/06 RMK AO2 SLPNO T01060056 $=
201207041253 METAR KCLM 041253Z AUTO 24007KT 10SM OVC045 10/07 RMK AO2 SLPNO T01000067 $=
201207041153 METAR KCLM 041153Z AUTO 24004KT 10SM OVC047 09/07 A3010 RMK AO2 SLP195 70002 T00940067 10106 20094 58013 $=
201207041053 METAR KCLM 041053Z AUTO 24007KT 10SM OVC050 10/07 A3012 RMK AO2 SLP198 T01000067 $=
201207040953 METAR KCLM 040953Z AUTO 23003KT 10SM OVC050 11/07 A3013 RMK AO2 SLP203 T01060072 $=
201207040853 METAR KCLM 040853Z AUTO 24007KT 10SM OVC050 11/07 A3014 RMK AO2 SLP208 T01060072 58006 $=
201207040753 METAR KCLM 040753Z AUTO 24005KT 10SM OVC048 11/08 A3015 RMK AO2 SLP210 T01060078 401560094 $=
201207040653 METAR KCLM 040653Z AUTO 26007KT 10SM OVC050 09/08 A3015 RMK AO2 SLP212 T00940078 $=
201207040553 METAR KCLM 040553Z AUTO 27003KT 10SM CLR 11/08 A3016 RMK AO2 SLP214 T01060078 10139 20100 53003 $=
201207040453 METAR KCLM 040453Z AUTO 24003KT 10SM CLR 11/08 A3016 RMK AO2 SLP213 T01060078 $=
201207040353 METAR KCLM 040353Z AUTO 27008KT 10SM FEW019 12/08 A3015 RMK AO2 SLP209 T01170083 $=
201207040253 METAR KCLM 040253Z AUTO 28008KT 10SM FEW013 12/09 A3015 RMK AO2 SLP211 T01220089 53015 $=
201207040153 METAR KCLM 040153Z AUTO 29009G18KT 10SM CLR 13/08 A3013 RMK AO2 SLP203 T01330083 $=
201207040053 METAR KCLM 040053Z AUTO 31012G19KT 10SM CLR 14/09 A3011 RMK AO2 PK WND 30028/2355 SLP197 T01390089 $=
201207032353 METAR KCLM 032353Z AUTO 30017G24KT 10SM CLR 14/09 A3011 RMK AO2 PK WND 30027/2317 SLP195 60001 T01390089 10156 20133 53013 $=
201207032253 METAR KCLM 032253Z AUTO 31018G26KT 10SM FEW047 15/09 A3009 RMK AO2 PK WND 32026/2253 SLP190 T01500089 $=
201207032153 METAR KCLM 032153Z AUTO 30018G25KT 10SM FEW048 BKN065 14/09 A3008 RMK AO2 PK WND 29025/2148 SLP186 T01440089 $=
201207032053 METAR KCLM 032053Z AUTO 32012G26KT 10SM BKN055 BKN070 14/09 A3007 RMK AO2 PK WND 30026/2050 SLP182 60001 T01390094 $=
201207031953 METAR KCLM 031953Z AUTO 30013KT 10SM BKN050 OVC060 14/10 A3005 RMK AO2 SLP175 P0001 T01440100 $=
201207031853 METAR KCLM 031853Z AUTO 30007G17KT 10SM FEW017 SCT038 OVC055 15/11 A3003 RMK AO2 RAE14 SLP167 P0000 T01500111=
201207031753 METAR KCLM 031753Z AUTO 30008KT 10SM -RA OVC041 14/11 A3001 RMK AO2 RAE31B52 SLP163 P0000 60001 T01390111 10144 20111 53037=
201207031653 METAR KCLM 031653Z AUTO VRB03KT 3SM RA FEW035 BKN046 OVC055 12/09 A2998 RMK AO2 RAB48 SLP153 P0001 T01220094=
201207031553 METAR KCLM 031553Z AUTO 13007KT 10SM FEW095 14/11 A2993 RMK AO2 SLP135 T01440106=
201207031453 METAR KCLM 031453Z AUTO 28006KT 10SM CLR 13/11 A2990 RMK AO2 SLP127 60000 T01280106 53020=
201207031353 METAR KCLM 031353Z AUTO 25007KT 10SM FEW033 12/09 A2987 RMK AO2 RAE28 SLP117 P0000 T01170094=
201207031253 METAR KCLM 031253Z AUTO 26010KT 10SM -RA FEW035 OVC049 12/09 A2986 RMK AO2 RAB52 SLP113 P0000 T01170089=
201207031153 METAR KCLM 031153Z AUTO 24005KT 10SM SCT048 BKN075 OVC085 11/09 A2984 RMK AO2 RAE16 SLP106 P0000 60019 70021 T01110094 10111 20100 50001=
201207031053 METAR KCLM 031053Z AUTO 00000KT 4SM RA BR OVC050 11/10 A2985 RMK AO2 RAB02 SLP110 P0019 T01060100=
201207031040 SPECI KCLM 031040Z AUTO 15003KT 4SM RA BR FEW027 BKN046 OVC055 11/09 A2985 RMK AO2 RAB02 P0017 T01060094=
201207031029 SPECI KCLM 031029Z AUTO 00000KT 2SM +RA BR FEW008 SCT028 OVC044 11/10 A2986 RMK AO2 RAB02 P0013 T01060100=
201207031021 SPECI KCLM 031021Z AUTO 29004KT 1 3/4SM +RA BR SCT008 OVC028 11/10 A2986 RMK AO2 RAB02 P0009 T01060100=
201207031018 SPECI KCLM 031018Z AUTO 30006KT 2SM +RA BR BKN008 OVC026 11/10 A2986 RMK AO2 RAB02 P0007 T01060100=
201207030957 SPECI KCLM 030957Z AUTO 27007KT 3SM BR BKN008 BKN055 11/09 A2985 RMK AO2 T01060094=
201207030953 METAR KCLM 030953Z AUTO 28004KT 1 3/4SM BR BKN008 BKN060 11/09 A2984 RMK AO2 VIS 3/4V5 SLP107 T01060094=
201207030938 SPECI KCLM 030938Z AUTO 00000KT 2 1/2SM BR FEW001 SCT055 BKN120 11/09 A2983 RMK AO2 VIS 1 1/2V5 T01060094=
201207030932 SPECI KCLM 030932Z AUTO 00000KT 4SM BR SCT055 BKN120 11/10 A2983 RMK AO2 T01060100=
201207030924 SPECI KCLM 030924Z AUTO 00000KT 2SM BR FEW001 FEW090 SCT110 11/09 A2984 RMK AO2 T01060094=
201207030918 SPECI KCLM 030918Z AUTO 00000KT 1 3/4SM BR FEW085 SCT110 10/09 A2984 RMK AO2 T01000094=
201207030853 METAR KCLM 030853Z AUTO 00000KT 4SM BR FEW090 BKN120 11/09 A2984 RMK AO2 RAB08E17 SLP106 P0000 60000 T01060094 56012=
201207030848 SPECI KCLM 030848Z AUTO 00000KT 2SM BR FEW014 BKN120 11/09 A2984 RMK AO2 VIS 3/4V4 RAB08E17 P0000=
201207030802 SPECI KCLM 030802Z AUTO 00000KT 8SM SCT060 SCT075 OVC090 11/10 A2986 RMK AO2 T01110100=
201207030753 METAR KCLM 030753Z AUTO 00000KT 2 1/2SM BR FEW065 BKN090 OVC100 11/10 A2986 RMK AO2 RAB0654E23B41E52 SLP112 P0000 T01060100 401440106=
201207030731 SPECI KCLM 030731Z AUTO 00000KT 5SM BR FEW006 BKN080 OVC090 11/10 A2987 RMK AO2 RAB0654E23 P0000 T01110100=
201207030653 METAR KCLM 030653Z AUTO 12003KT 10SM BKN075 OVC090 11/10 A2988 RMK AO2 RAE39 SLP117 P0000 T01110100=
201207030553 METAR KCLM 030553Z AUTO 00000KT 6SM -RA BR OVC055 11/10 A2990 RMK AO2 RAB15 SLP124 P0001 60002 T01110100 10144 20106 58010=
201207030514 SPECI KCLM 030514Z AUTO 00000KT 10SM SCT020 OVC041 11/10 A2991 RMK AO2 T01110100=
201207030453 METAR KCLM 030453Z AUTO 00000KT 10SM OVC020 11/09 A2991 RMK AO2 RAE36 SLP129 P0000 T01110094=
201207030439 SPECI KCLM 030439Z AUTO 27003KT 10SM BKN021 OVC080 11/09 A2991 RMK AO2 RAE36 P0000 T01060094=
201207030353 METAR KCLM 030353Z AUTO 29003KT 10SM -RA FEW003 BKN050 OVC075 11/09 A2992 RMK AO2 SLP131 P0000 T01060094=
201207030338 SPECI KCLM 030338Z AUTO 30004KT 7SM -RA FEW003 BKN048 OVC075 11/09 A2992 RMK AO2 P0000 T01060094=
201207030253 METAR KCLM 030253Z AUTO 31003KT 4SM RA BR FEW043 BKN050 OVC070 11/10 A2993 RMK AO2 SLP135 P0001 60001 T01110100 56011=
201207030153 METAR KCLM 030153Z AUTO 00000KT 9SM -RA BKN060 OVC075 12/09 A2993 RMK AO2 RAB17 SLP135 P0000 T01170089=
201207030053 METAR KCLM 030053Z AUTO 35003KT 10SM OVC075 13/09 A2994 RMK AO2 RAE08 SLP138 P0000 T01280089=
201207022353 METAR KCLM 022353Z AUTO 10004KT 10SM -RA FEW033 OVC070 14/09 A2996 RMK AO2 RAB48 SLP145 P0000 60000 T01440089 10144 20122 58011=
201207022253 METAR KCLM 022253Z AUTO 00000KT 10SM SCT019 OVC032 13/09 A2998 RMK AO2 RAE48 SLP152 P0000 T01280094=
201207022229 SPECI KCLM 022229Z AUTO VRB03KT 10SM -RA FEW021 OVC030 13/10 A2998 RMK AO2 P0000 T01280100=
201207022153 METAR KCLM 022153Z AUTO 00000KT 10SM -RA FEW021 OVC029 13/09 A2998 RMK AO2 RAB52 SLP153 P0000 T01330089=
201207022053 METAR KCLM 022053Z AUTO 35004KT 10SM OVC023 13/08 A2999 RMK AO2 SLP157 T01280083 58000=
201207021953 METAR KCLM 021953Z AUTO VRB03KT 10SM OVC025 13/08 A3000 RMK AO2 SLP160 T01280083=
201207021853 METAR KCLM 021853Z AUTO VRB04KT 10SM OVC026 13/08 A3000 RMK AO2 SLP159 T01280083=
201207021753 METAR KCLM 021753Z AUTO 30007KT 270V330 10SM BKN027 BKN036 OVC075 13/09 A2999 RMK AO2 SLP156 60000 T01330089 10133 20111 58003=
201207021653 METAR KCLM 021653Z AUTO 34003KT 10SM FEW034 BKN070 OVC085 12/09 A3000 RMK AO2 RAB10E28 SLP159 P0000 T01220089=
201207021553 METAR KCLM 021553Z AUTO 32005KT 10SM OVC030 12/08 A3001 RMK AO2 SLP163 T01220078=
201207021453 METAR KCLM 021453Z AUTO 32004KT 10SM OVC030 12/07 A3000 RMK AO2 SLP160 T01220072 56003=
201207021353 METAR KCLM 021353Z AUTO 26003KT 10SM OVC030 12/07 A3001 RMK AO2 SLP162 T01170072=
201207021328 SPECI KCLM 021328Z AUTO 25004KT 10SM OVC030 12/07 A3001 RMK AO2 T01170072=
201207021315 SPECI KCLM 021315Z AUTO 22004KT 10SM OVC029 12/07 A3001 RMK AO2 T01170072=
201207021253 METAR KCLM 021253Z AUTO 26004KT 10SM OVC031 12/07 A3001 RMK AO2 SLP160 T01170067=
201207021208 SPECI KCLM 021208Z AUTO 00000KT 10SM OVC030 12/07 A3000 RMK AO2 T01170072=
201207021153 METAR KCLM 021153Z AUTO 27004KT 10SM OVC029 11/07 A3001 RMK AO2 SLP163 T01110072 10122 20111 56006=
201207021053 METAR KCLM 021053Z AUTO 28005KT 10SM OVC029 12/07 A3001 RMK AO2 SLP164 T01170072=
201207020953 METAR KCLM 020953Z AUTO 27004KT 10SM OVC029 12/07 A3003 RMK AO2 SLP167 T01170072=
201207020853 METAR KCLM 020853Z AUTO 28004KT 10SM OVC029 12/07 A3003 RMK AO2 SLP170 T01170072 58011=
201207020841 SPECI KCLM 020841Z AUTO 24003KT 10SM OVC029 12/07 A3004 RMK AO2 T01170072=
201207020821 SPECI KCLM 020821Z AUTO 26004KT 10SM OVC030 12/07 A3004 RMK AO2 T01170072=
201207020753 METAR KCLM 020753Z AUTO 28005KT 10SM OVC029 12/07 A3006 RMK AO2 SLP177 T01170072 401500117=
201207020733 SPECI KCLM 020733Z AUTO 28006KT 10SM OVC029 12/07 A3005 RMK AO2 T01170072=
201207020653 METAR KCLM 020653Z AUTO 26006KT 10SM OVC030 12/08 A3006 RMK AO2 SLP178 T01220078=
201207020634 SPECI KCLM 020634Z AUTO 26007KT 10SM OVC030 12/08 A3006 RMK AO2 T01220078=
201207020553 METAR KCLM 020553Z AUTO 27008KT 10SM OVC029 12/08 A3007 RMK AO2 SLP181 T01220083 10144 20122 55004=
201207020453 METAR KCLM 020453Z AUTO 27005KT 10SM OVC027 12/08 A3006 RMK AO2 SLP180 T01220078=
201207020353 METAR KCLM 020353Z AUTO 28006KT 10SM OVC027 12/07 A3008 RMK AO2 SLP185 T01220072=
201207020328 SPECI KCLM 020328Z AUTO 28009KT 10SM BKN027 OVC033 13/07 A3008 RMK AO2 T01280067=
201207020253 METAR KCLM 020253Z AUTO 28010KT 10SM OVC033 13/07 A3008 RMK AO2 SLP185 T01330072 56007=
201207020153 METAR KCLM 020153Z AUTO 27010KT 10SM FEW028 OVC035 14/08 A3008 RMK AO2 SLP187 T01390083=
201207020141 SPECI KCLM 020141Z AUTO 28010KT 10SM SCT028 OVC035 13/08 A3008 RMK AO2 T01330078=
201207020053 METAR KCLM 020053Z AUTO 28006KT 10SM OVC028 14/08 A3009 RMK AO2 SLP188 T01390083=
201207012353 METAR KCLM 012353Z AUTO 30009KT 10SM OVC027 14/08 A3010 RMK AO2 SLP192 T01440078 10150 20133 53003=
201207012253 METAR KCLM 012253Z AUTO 30009KT 10SM BKN026 OVC037 14/08 A3009 RMK AO2 SLP190 T01440078=
201207012153 METAR KCLM 012153Z AUTO 31009KT 10SM OVC028 14/08 A3008 RMK AO2 SLP187 T01440083=
201207012132 SPECI KCLM 012132Z AUTO 30008KT 10SM OVC028 14/08 A3008 RMK AO2 T01440083=
201207012053 METAR KCLM 012053Z AUTO 31011G16KT 10SM OVC030 14/08 A3009 RMK AO2 SLP188 T01390078 53004=
201207011953 METAR KCLM 011953Z AUTO 30010KT 10SM OVC033 14/09 A3008 RMK AO2 SLP186 T01440089=
201207011853 METAR KCLM 011853Z AUTO 31008KT 10SM OVC033 14/09 A3008 RMK AO2 SLP184 T01390094=
201207011753 METAR KCLM 011753Z AUTO 31010G14KT 10SM OVC033 13/09 A3007 RMK AO2 SLP184 T01330089 10144 20128 53013=
201207011653 METAR KCLM 011653Z AUTO 31008KT 10SM OVC034 14/09 A3006 RMK AO2 SLP178 T01390089=
201207011553 METAR KCLM 011553Z AUTO VRB04KT 10SM OVC035 14/08 A3005 RMK AO2 SLP175 T01390083=
201207011453 METAR KCLM 011453Z AUTO VRB03KT 10SM OVC035 13/08 A3004 RMK AO2 SLP171 T01330083 51009=
201207011353 METAR KCLM 011353Z AUTO VRB03KT 10SM OVC034 13/09 A3003 RMK AO2 SLP170 T01330089=
201207011253 METAR KCLM 011253Z AUTO 28008KT 10SM OVC032 13/09 A3002 RMK AO2 SLP166 T01280089=
201207011153 METAR KCLM 011153Z AUTO 25003KT 10SM FEW012 OVC032 13/10 A3001 RMK AO2 SLP162 70001 T01280100 10128 20122 53005=
201207011144 SPECI KCLM 011144Z AUTO 28004KT 10SM SCT012 OVC031 13/10 A3001 RMK AO2 T01280100=
201207011053 METAR KCLM 011053Z AUTO 32003KT 10SM OVC010 12/10 A3000 RMK AO2 CIG 009V014 SLP158 T01220100=
201207011007 SPECI KCLM 011007Z AUTO 32006KT 10SM OVC011 13/10 A3000 RMK AO2 T01280100=
201207010953 METAR KCLM 010953Z AUTO 31006KT 10SM OVC009 13/10 A3000 RMK AO2 CIG 007V012 SLP158 T01280100=
201207010939 SPECI KCLM 010939Z AUTO 32004KT 10SM OVC009 13/11 A3000 RMK AO2 T01280106=
201207010907 SPECI KCLM 010907Z AUTO 29005KT 10SM BKN012 OVC030 13/11 A3000 RMK AO2 T01280106=
201207010853 METAR KCLM 010853Z AUTO 30006KT 10SM FEW010 OVC030 13/10 A2999 RMK AO2 SLP157 T01280100 53004=
201207010825 SPECI KCLM 010825Z AUTO 29004KT 10SM OVC030 13/10 A2999 RMK AO2 T01280100=
201207010753 METAR KCLM 010753Z AUTO 27007KT 10SM OVC029 13/10 A2999 RMK AO2 SLP155 T01280100 401610122=
201207010653 METAR KCLM 010653Z AUTO 29006KT 10SM OVC027 12/10 A2998 RMK AO2 SLP153 T01220100=
201207010553 METAR KCLM 010553Z AUTO 28011KT 10SM OVC023 13/10 A2998 RMK AO2 SLP152 60000 T01280100 10144 20128 53006=
201207010453 METAR KCLM 010453Z AUTO 28010KT 10SM OVC021 13/11 A2997 RMK AO2 SLP150 T01280106=
201207010353 METAR KCLM 010353Z AUTO 27011KT 10SM OVC020 13/11 A2997 RMK AO2 RAB0256E07 SLP147 P0000 T01330106=
201207010253 METAR KCLM 010253Z AUTO 28011KT 10SM FEW015 BKN023 OVC038 14/11 A2996 RMK AO2 SLP147 60000 T01390111 53001=
201207010153 METAR KCLM 010153Z AUTO 28009KT 10SM OVC015 14/11 A2996 RMK AO2 RAE0057 SLP146 P0000 T01390111=
201207010151 SPECI KCLM 010151Z AUTO 27010KT 10SM OVC015 14/11 A2996 RMK AO2 RAE0057 P0000=
201207010053 METAR KCLM 010053Z AUTO 28011KT 10SM -RA OVC011 14/12 A2996 RMK AO2 RAB48 SLP146 P0000 T01390117=
201207010025 SPECI KCLM 010025Z AUTO 29011KT 10SM OVC010 14/12 A2997 RMK AO2 T01440117=

# No short TAF reports from KCLM in databse.

###################################
#  large TAF from KCLM
###################################
201207312320 TAF KCLM 312320Z 0100/0124 31012G20KT P6SM SKC FM010500 28009KT
                       P6SM SKC FM010900 28007KT P6SM OVC010 FM011700
                       33008KT P6SM SCT015 SCT250=
201207311721 TAF KCLM 311721Z 3118/0118 30006KT P6SM FEW030 SCT250 FM312100
                       31010KT P6SM SKC FM010900 28009KT P6SM BKN015
                       FM011700 33005KT P6SM SCT020 SCT250=
201207311120 TAF KCLM 311120Z 3112/0112 24003KT P6SM SCT020
                      TEMPO 3112/3116 BKN020 FM311800 30006KT P6SM
                       SCT040 FM010200 28010KT P6SM FEW050=
201207310944 KCLM 310944Z 3110/0106 28007KT P6SM OVC020
                      TEMPO 3112/3116 BKN010 OVC020 FM311700 28006KT
                       P6SM OVC015 FM312200 30007KT P6SM SCT030=
201207310523 TAF KCLM 310523Z 3106/0106 28006KT P6SM OVC020 FM310900 28006KT
                       P6SM OVC007 FM311700 28006KT P6SM OVC015
                       FM312200 30007KT P6SM SCT030=
201207302324 TAF KCLM 302324Z 3100/3124 28008KT P6SM BKN018
                      TEMPO 3100/3104 SCT020 FM310900 28007KT P6SM
                       OVC007 FM311700 28006KT P6SM OVC015 FM312200
                       30007KT P6SM SCT030=
201207301724 TAF KCLM 301724Z 3018/3118 29008KT P6SM BKN018 BKN060 BKN100 FM302000
                       31011KT P6SM BKN025 BKN060 BKN100 FM310200
                       28013KT P6SM SCT035 BKN060 BKN100 FM310900
                       28008KT P6SM SCT020 SCT035 SCT060 FM311200
                       28006KT P6SM OVC009=
201207301124 TAF KCLM 301124Z 3012/3112 28008KT P6SM SCT012 SCT035
                      TEMPO 3012/3014 SCT012 BKN035 FM301400 31006KT
                       P6SM BKN012 OVC035 FM301800 31009KT P6SM
                       BKN020 BKN060 OVC100 FM302000 31011KT P6SM
                       BKN035 BKN060 BKN100 FM310200 28013KT P6SM
                       SCT035 BKN060 BKN100 FM310900 28008KT P6SM
                       SCT020 SCT035 SCT060=
201207300531 TAF KCLM 300531Z 3006/3106 28012KT P6SM FEW035 FM300900 28008KT
                       P6SM BKN035 FM301100 28008KT P6SM SCT015
                       BKN035
                      TEMPO 3011/3013 BKN015 BKN035 FM301300 31005KT
                       P6SM OVC015 FM301800 31009KT P6SM BKN022
                       OVC070 FM302000 31012KT P6SM SCT035 BKN070
                       FM310200 28012KT P6SM SCT035 BKN070=
201207300306 KCLM 300306Z 3003/3024 28011KT P6SM SKC
                      TEMPO 3003/3006 28010G20KT FM300800 28007KT
                       P6SM SCT022 SCT090 FM301000 28007KT P6SM
                       OVC015 FM301900 29006KT P6SM OVC025 FM302100
                       31010KT P6SM SCT030=
201207292320 TAF KCLM 292320Z 3000/3024 31010KT P6SM SCT250 FM300200 30010KT
                       P6SM FEW090 SCT250 FM300800 28007KT P6SM
                       SCT022 SCT090 FM301000 28007KT P6SM OVC015
                       FM301900 29006KT P6SM OVC025 FM302100 31010KT
                       P6SM SCT030=
201207291720 TAF KCLM 291720Z 2918/3018 31010KT P6SM SCT018
                      TEMPO 2918/2920 OVC018 FM300200 30010KT P6SM
                       FEW090 SCT250 FM300900 28007KT P6SM SCT022
                       SCT090 FM301100 28007KT P6SM OVC015=
201207291616 KCLM 291616Z 2916/3012 29006KT P6SM VCFG BKN015 FM291800 32010KT
                       P6SM SCT020 SCT250 FM300200 28010KT P6SM
                       FEW090 SCT250 FM300900 28007KT P6SM SCT022
                       SCT090=
201207291120 TAF KCLM 291120Z 2912/3012 26006KT P6SM VCFG FEW015 FM291700 32006KT
                       P6SM FEW022 SCT250 FM291800 32010KT P6SM
                       FEW090 SCT250 FM300200 28010KT P6SM FEW090
                       SCT250 FM300900 28007KT P6SM SCT022 SCT090=
201207290525 TAF KCLM 290525Z 2906/3006 28009KT P6SM SCT030 FM290800 28006KT
                       P6SM VCFG FEW018 FM291700 32006KT P6SM FEW022
                       FM291800 32009KT P6SM FEW250 FM300200 28009KT
                       P6SM SCT250=
201207282320 TAF KCLM 282320Z 2900/2924 32010KT P6SM SCT020 FM290900 28006KT
                       P6SM OVC012 FM291700 30006KT P6SM BKN022
                       FM291800 31010KT P6SM FEW025=
201207281724 TAF KCLM 281724Z 2818/2918 32005KT P6SM BKN018 OVC025 FM282200
                       31006KT P6SM SCT030 FM290700 28006KT P6SM
                       OVC012=
201207281120 TAF KCLM 281120Z 2812/2912 VRB03KT P6SM OVC015 FM281700 VRB03KT
                       P6SM BKN018 BKN030 FM282100 32008KT P6SM
                       SCT035 FM290700 28006KT P6SM OVC012=
201207280523 TAF KCLM 280523Z 2806/2906 28008KT P6SM SCT008 OVC014 FM281000
                       27006KT P6SM OVC006 FM281700 VRB03KT P6SM
                       BKN012 BKN025 FM282100 32008KT P6SM SCT035=
201207272320 TAF KCLM 272320Z 2800/2824 28007KT P6SM OVC013 FM280600 30010KT
                       P6SM OVC011 FM281000 32006KT P6SM OVC004
                       FM281600 33005KT P6SM BKN008 FM281800 VRB03KT
                       P6SM BKN018 FM281900 31006KT P6SM BKN030
                       FM282100 32007KT P6SM SCT030=
201207271909 KCLM 271909Z 2719/2818 28006KT P6SM SCT008 OVC015
                      TEMPO 2719/2721 OVC008 FM272200 30007KT P6SM
                       BKN022 FM280600 30010KT P6SM OVC012 FM281000
                       32006KT P6SM OVC004 FM281600 33005KT P6SM
                       BKN008=
201207271720 TAF KCLM 271720Z 2718/2818 28006KT P6SM SCT008 OVC015
                      TEMPO 2718/2719 OVC008 FM272200 30007KT P6SM
                       BKN022 FM280600 30010KT P6SM OVC012 FM281000
                       32006KT P6SM OVC004 FM281600 33005KT P6SM
                       BKN008=
201207271120 TAF KCLM 271120Z 2712/2812 29009KT P6SM OVC004 FM271600 27005KT
                       P6SM OVC010 FM272100 30007KT P6SM BKN025
                       FM280600 30010KT P6SM OVC008=
201207270711 KCLM 270711Z 2707/2806 30009KT P6SM OVC002
                      TEMPO 2709/2713 3SM BR FM271600 27006KT P6SM
                       OVC010 FM272100 31008KT P6SM BKN025=
201207270525 TAF KCLM 270525Z 2706/2806 30009KT 3SM BR OVC002 FM271600 27006KT
                       P6SM OVC010 FM272100 31008KT P6SM BKN025=
201207270331 KCLM 270331Z 2704/2724 30010KT P6SM SCT005 BKN050
                      TEMPO 2704/2706 OVC005 FM270600 28008KT 3SM
                       BR OVC003 FM271700 31007KT P6SM OVC012 FM272100
                       31006KT P6SM BKN025=
201207262320 TAF KCLM 262320Z 2700/2724 29010KT P6SM SKC FM270600 28008KT 3SM
                       BR OVC003 FM271700 31007KT P6SM OVC012 FM272100
                       31006KT P6SM BKN025=
201207261732 TAF KCLM 261732Z 2618/2718 32005KT P6SM SKC FM262200 30010KT P6SM
                       SKC FM270600 30009KT 4SM BR OVC003 FM271700
                       31007KT P6SM OVC007=
201207261447 KCLM 261447Z 2615/2712 30004KT 1/2SM FG OVC002
                      TEMPO 2616/2618 5SM BR BKN004 FM261800 VRB03KT
                       P6SM BKN006 FM261900 29006KT P6SM VCFG SKC
                       FM270800 30009KT P6SM BKN010=
201207261313 KCLM 261313Z 2613/2712 28005KT 4SM BR OVC002
                      TEMPO 2613/2615 1/4SM FG VV001 FM261500 00000KT
                       P6SM BKN006 FM261800 30007KT P6SM SCT040
                       FM270800 30009KT P6SM BKN010=
201207261120 TAF KCLM 261120Z 2612/2712 00000KT 1/4SM FG VV001 FM261500 00000KT
                       P6SM BKN006 FM261800 30007KT P6SM SCT040
                       FM270800 30009KT P6SM BKN010=
201207260946 KCLM 260946Z 2610/2706 29004KT 2SM BR OVC002 FM261500 34005KT P6SM
                       BKN015 FM261800 34007KT P6SM FEW035=
201207260531 TAF KCLM 260531Z 2606/2706 26005KT P6SM FEW005
                      TEMPO 2607/2610 5SM BR OVC005 FM261000 29004KT
                       P6SM OVC005 FM261500 34005KT P6SM BKN015
                       FM261800 34007KT P6SM FEW035=
201207252320 TAF KCLM 252320Z 2600/2624 29006KT P6SM SKC FM261200 29004KT P6SM
                       OVC007 FM261700 34005KT P6SM SKC=
201207251727 TAF KCLM 251727Z 2518/2618 05006KT P6SM SKC FM260000 29006KT P6SM
                       SKC FM261500 31006KT P6SM FEW010=
201207251120 TAF KCLM 251120Z 2512/2612 00000KT P6SM SKC
                      TEMPO 2513/2516 SCT002 FM251700 05005KT P6SM
                       SKC FM260000 29006KT P6SM SKC=
201207251015 KCLM 251015Z 2510/2606 24004KT P6SM SKC
                      TEMPO 2513/2516 SCT002 FM251700 05005KT P6SM
                       SKC FM260000 29006KT P6SM SKC=
201207250535 TAF KCLM 250535Z 2506/2606 30003KT P6SM SKC FM251200 28004KT P6SM
                       BKN009 OVC020 FM251800 02004KT P6SM OVC030
                       FM252100 01005KT P6SM SCT035=
201207242320 TAF KCLM 242320Z 2500/2524 VRB05KT P6SM BKN040 FM250200 29006KT
                       P6SM SCT040 FM251200 28004KT P6SM BKN009
                       OVC020 FM251800 02004KT P6SM OVC030 FM252100
                       01005KT P6SM SCT035=
201207242205 KCLM 242205Z 2422/2518 08005KT P6SM BKN040 FM250200 29006KT P6SM
                       SCT040 FM251200 28005KT P6SM BKN015=
201207241738 TAF KCLM 241738Z 2418/2518 34005KT P6SM OVC045 FM242000 36005KT
                       P6SM SCT020 BKN045 FM242200 36005KT P6SM
                       SCT025 FM250200 29006KT P6SM SKC FM251200
                       28005KT P6SM BKN015=
201207241442 KCLM 241442Z 2415/2512 28004KT P6SM SCT002 OVC045
                      TEMPO 2415/2417 BKN002 OVC045 FM241800 32005KT
                       P6SM SCT020 BKN045 FM242100 31006KT P6SM
                       SCT045=
201207241302 KCLM 241302Z 2413/2512 29003KT 3SM BR OVC002
                      TEMPO 2413/2416 P6SM NSW BKN004 OVC050 FM241600
                       27005KT P6SM BKN008 FM241800 32005KT P6SM
                       SCT012 FM242000 31006KT P6SM SKC=
201207241125 TAF KCLM 241125Z 2412/2512 30003KT P6SM BKN002 OVC050
                      TEMPO 2412/2413 2SM BR OVC002 FM241600 27005KT
                       P6SM BKN008 FM241800 32005KT P6SM SCT012
                       FM242000 31006KT P6SM SKC=
201207240820 KCLM 240820Z 2408/2506 29003KT 1/4SM FG VV001
                      TEMPO 2409/2413 2SM BR BKN002 FM241600 27005KT
                       P6SM BKN012 FM241800 32005KT P6SM BKN025
                       FM242000 34005KT P6SM SKC=
201207240530 TAF KCLM 240530Z 2406/2506 27004KT P6SM BKN026 FM241000 27005KT
                       P6SM BKN012 FM241600 32005KT P6SM BKN025
                       FM241900 34005KT P6SM SKC=
201207232344 KCLM 232344Z 2400/2424 29008KT P6SM FEW009 BKN015 BKN050
                      TEMPO 2400/2404 BKN009 BKN015 BKN050 FM241000
                       27005KT P6SM BKN012 FM241600 32005KT P6SM
                       BKN025 FM241900 34005KT P6SM SCT250=
201207232334 TAF KCLM 232334Z 2400/2424 29008KT P6SM SCT015 BKN050
                      TEMPO 2400/2404 BKN015 BKN050 FM241000 27005KT
                       P6SM BKN012 FM241600 32005KT P6SM BKN025
                       FM241900 34005KT P6SM SCT250=
201207231725 TAF KCLM 231725Z 2318/2418 VRB03KT P6SM SCT018 BKN045
                      TEMPO 2318/2320 BKN018 BKN045 FM232000 33008KT
                       P6SM BKN050 FM240200 29008KT P6SM SCT250
                       FM241000 28006KT P6SM OVC012=
201207231419 KCLM 231419Z 2314/2412 VRB03KT P6SM BKN040 OVC080 FM232000 33008KT
                       P6SM SCT020 BKN050 FM240200 29008KT P6SM
                       SCT080 BKN250 FM241000 28006KT P6SM OVC012=
201207231120 TAF KCLM 231120Z 2312/2412 25004KT P6SM OVC080 FM231400 28005KT
                       P6SM SCT012
                      TEMPO 2314/2318 OVC012 FM232000 33008KT P6SM
                       SCT020 BKN050 FM240200 29008KT P6SM SCT080
                       BKN250 FM241000 28006KT P6SM OVC012=
201207230525 TAF KCLM 230525Z 2306/2406 30007KT P6SM SCT050 FM230900 32015KT
                       P6SM OVC010 FM232000 27007KT P6SM BKN035
                       FM240000 29009KT P6SM SCT040 BKN120=
201207222341 TAF KCLM 222341Z 2300/2324 31006KT P6SM VCSH SCT010 BKN030 OVC060
                       TEMPO 2300/2303 4SM -SHRA BR BKN010 OVC030
                       FM230300 32010KT P6SM -SHRA BKN010 OVC030
                       FM230900 32015KT P6SM OVC010 FM232000 27007KT
                       P6SM BKN035=
201207221739 TAF KCLM 221739Z 2218/2318 31008KT P6SM VCSH OVC018 FM222200 30008KT
                       P6SM -SHRA BKN025 BKN080 FM230200 32010KT
                       P6SM -SHRA OVC025 FM230900 27013KT P6SM
                       OVC010=
201207221128 TAF KCLM 221128Z 2212/2312 27004KT P6SM OVC017 FM221400 28006KT
                       P6SM OVC015 FM222200 29012KT P6SM -SHRA
                       BKN025 BKN080 FM230900 27010KT P6SM OVC010=
201207220520 TAF KCLM 220520Z 2206/2306 28006KT P6SM SKC FM220800 31006KT P6SM
                       OVC025 FM221200 28006KT P6SM OVC015 FM222200
                       32010KT P6SM -SHRA BKN025 BKN080=
201207212337 TAF KCLM 212337Z 2200/2224 32010KT P6SM SCT060 FM220800 31006KT
                       P6SM OVC025 FM221200 28006KT P6SM OVC015
                       FM222200 32010KT P6SM -SHRA BKN025 BKN080=
201207211729 TAF KCLM 211729Z 2118/2218 29007KT P6SM SCT010 BKN015 FM211900
                       29007KT P6SM SCT015 BKN025 FM220000 31009KT
                       P6SM SCT045 FM220800 31007KT P6SM OVC010
                       FM221200 28006KT P6SM OVC005=
201207211605 KCLM 211605Z 2116/2212 30006KT P6SM SCT010 BKN015
                      TEMPO 2116/2118 OVC010 FM211900 32008KT P6SM
                       SCT015 BKN025 FM220300 29009KT P6SM SCT035
                       FM220800 29008KT P6SM OVC010=
201207211120 TAF KCLM 211120Z 2112/2212 32006KT P6SM BKN002 OVC009
                      TEMPO 2112/2115 4SM -DZ OVC001 FM211900 32008KT
                       P6SM SCT010 BKN025 FM220300 29009KT P6SM
                       SCT035 FM220800 29008KT P6SM OVC010=
201207210525 TAF KCLM 210525Z 2106/2206 00000KT P6SM OVC014 FM210900 24002KT
                       P6SM OVC004
                      TEMPO 2112/2115 4SM -DZ OVC001 FM211900 32008KT
                       P6SM SCT010 BKN025 FM220300 29009KT P6SM
                       BKN050=
201207202337 TAF KCLM 202337Z 2100/2124 31007KT P6SM OVC015 FM210800 28004KT
                       P6SM OVC006 FM211800 30005KT P6SM BKN025
                       FM212200 32008KT P6SM SCT050=
201207201859 KCLM 201859Z 2019/2118 28007KT P6SM -SHRA OVC009 FM202100 30007KT
                       P6SM VCSH SCT010 BKN020 FM210600 31006KT
                       P6SM OVC012 FM211700 30005KT P6SM BKN025=
201207201739 TAF KCLM 201739Z 2018/2118 28007KT P6SM -SHRA OVC003 FM202100 30007KT
                       P6SM VCSH SCT010 BKN020 FM210600 31006KT
                       P6SM OVC012 FM211700 30005KT P6SM BKN025=
201207201608 KCLM 201608Z 2016/2112 30006KT P6SM -RA VCTS SCT003 BKN040CB OVC090
                       TEMPO 2016/2018 4SM -TSRA BKN003 BKN040CB
                       FM202100 31005KT P6SM BKN040=
201207201403 KCLM 201403Z 2014/2112 30006KT P6SM -RA VCTS SCT003 BKN040CB OVC090
                       TEMPO 2014/2016 4SM -TSRA BKN003 BKN040CB
                       FM202100 31005KT P6SM BKN040=
201207201128 TAF KCLM 201128Z 2012/2112 30006KT P6SM VCSH SCT004 OVC090
                      TEMPO 2012/2016 -SHRA OVC004 FM202100 31005KT
                       P6SM BKN040=
201207201100 KCLM 201100Z 2011/2106 30006KT P6SM -RA BKN003 OVC110 FM201200
                       31006KT P6SM SCT003 OVC030
                      TEMPO 2012/2016 -SHRA OVC003 FM202100 31005KT
                       P6SM BKN040=
201207200525 TAF KCLM 200525Z 2006/2106 30005KT P6SM SKC FM200900 29005KT P6SM
                       SCT070 BKN120 OVC150 FM201200 31006KT P6SM
                       OVC030 FM202100 31005KT P6SM BKN040=
201207192330 TAF KCLM 192330Z 2000/2024 30005KT P6SM SCT120 BKN200 FM200900
                       29005KT P6SM SCT070 BKN120 OVC150 FM201200
                       31006KT P6SM OVC030 FM202000 31005KT P6SM
                       BKN040=
201207191733 TAF KCLM 191733Z 1918/2018 30005KT P6SM SKC FM192300 27008KT P6SM
                       FEW070 SCT250 FM200900 29005KT P6SM SCT070
                       BKN120=
201207191120 TAF KCLM 191120Z 1912/2012 26003KT P6SM OVC012 FM191600 29004KT
                       P6SM OVC022
                      TEMPO 1916/1919 BKN035 FM191900 29007KT P6SM
                       SCT040 FM200500 29009KT P6SM VCSH BKN040=
201207190529 TAF KCLM 190529Z 1906/2006 29006KT P6SM OVC018 FM191600 29004KT
                       P6SM OVC022 FM191900 VRB04KT P6SM SCT030=
201207182320 TAF KCLM 182320Z 1900/1924 29008KT P6SM OVC030 FM190700 29008KT
                       P6SM OVC022 FM192000 VRB04KT P6SM SCT030=
201207182204 KCLM 182204Z 1822/1918 29008KT P6SM OVC030 FM190200 29008KT P6SM
                       SCT030 FM190700 29008KT P6SM OVC011=
201207181725 TAF KCLM 181725Z 1818/1918 29008KT P6SM OVC009 FM181900 29008KT
                       P6SM SCT030 FM190700 29008KT P6SM OVC011=
201207181132 TAF KCLM 181132Z 1812/1912 29006KT P6SM OVC006 FM181600 29008KT
                       P6SM OVC011 FM181900 29008KT P6SM SCT030
                       SCT200 FM190700 29008KT P6SM OVC011=
201207180538 TAF KCLM 180538Z 1806/1906 29006KT P6SM SCT004
                      TEMPO 1806/1810 BKN004 FM181000 29006KT P6SM
                       SCT004
                      TEMPO 1810/1812 BKN004 FM181600 29008KT P6SM
                       SCT200=
201207172325 TAF KCLM 172325Z 1800/1824 30006KT P6SM SCT200
                      TEMPO 1809/1813 BKN012 FM181300 28005KT P6SM
                       SCT008 OVC012 FM181900 30006KT P6SM SCT025=
201207171721 TAF KCLM 171721Z 1718/1818 30006KT P6SM SCT150 BKN200 FM172200
                       27008KT P6SM SCT200=
201207171134 TAF KCLM 171134Z 1712/1812 VRB03KT P6SM SCT001
                      TEMPO 1712/1715 3SM BR OVC001 FM171700 30006KT
                       P6SM BKN200=
201207170905 KCLM 170905Z 1709/1806 VRB03KT 4SM BR OVC002
                      TEMPO 1709/1713 1SM BR OVC001 FM171600 VRB03KT
                       P6SM BKN004 FM171700 30006KT P6SM BKN200=
201207170530 TAF KCLM 170530Z 1706/1806 30006KT P6SM SCT200=
201207162325 TAF KCLM 162325Z 1700/1724 30006KT P6SM SKC FM171000 27007KT P6SM
                       SCT100=
201207161725 TAF KCLM 161725Z 1618/1718 27005KT P6SM SCT030 SCT080 FM171000
                       27007KT P6SM SCT100=
201207161341 KCLM 161341Z 1614/1712 00000KT 1/4SM FG SCT001 BKN050
                      TEMPO 1614/1616 2SM BR BKN001 OVC050 FM161600
                       VRB03KT P6SM BKN010 BKN050
                      TEMPO 1616/1618 2SM BR BKN004 OVC010 FM161800
                       27005KT P6SM SCT020 BKN080 FM171000 27007KT
                       P6SM BKN010=
201207161120 TAF KCLM 161120Z 1612/1712 00000KT 5SM BR SCT010 OVC050
                      TEMPO 1612/1616 2SM BR BKN010 OVC040 FM161600
                       VRB03KT P6SM BKN010 BKN050 FM161800 27005KT
                       P6SM SCT020 BKN080 FM171000 27007KT P6SM
                       BKN010=
201207160816 KCLM 160816Z 1608/1706 VRB03KT P6SM SCT008 BKN060
                      TEMPO 1610/1614 4SM BR BKN008 OVC050 FM161800
                       VRB04KT P6SM SCT030 BKN080 FM170200 28008KT
                       P6SM SCT030 BKN080=
201207160523 TAF KCLM 160523Z 1606/1706 VRB04KT P6SM -SHRA SCT025 OVC060
                      TEMPO 1606/1610 4SM -SHRA BR BKN025 OVC050
                       FM161000 00000KT P6SM BKN015 BKN050 FM161800
                       VRB04KT P6SM SCT030 BKN080 FM170200 28008KT
                       P6SM SCT030 BKN080=
201207160345 KCLM 160345Z 1604/1624 VRB03KT P6SM -SHRA BKN025 BKN050 BKN120
                       FM160900 VRB03KT P6SM VCSH SCT025 BKN050
                       BKN120 FM161200 VRB03KT P6SM BKN015 BKN050
                       FM161800 33007KT P6SM SCT030 BKN080=
201207152337 TAF KCLM 152337Z 1600/1624 23003KT P6SM BKN027 OVC035 FM160300
                       32002KT P6SM VCSH SCT025 OVC050 FM160900
                       26005KT P6SM VCSH OVC007 FM161500 00000KT
                       P6SM OVC015 FM162100 35007KT P6SM OVC025=
201207151801 KCLM 151801Z 1518/1618 28005KT P6SM BKN035 FM160000 31006KT P6SM
                       SCT035 FM160500 29004KT P6SM BKN015=
201207151737 TAF KCLM 151737Z 1518/1618 28005KT P6SM FEW030 FM160000 31006KT
                       P6SM SCT035 FM160500 29004KT P6SM BKN015=
201207151120 TAF KCLM 151120Z 1512/1612 29010KT P6SM OVC010
                      TEMPO 1512/1516 4SM -DZ BR OVC006 FM151800
                       29008KT P6SM -SHRA BKN015 OVC040 FM152200
                       30006KT P6SM VCSH BKN030 OVC050 FM160600
                       VRB04KT P6SM -RA OVC030=
201207150520 TAF KCLM 150520Z 1506/1606 29010KT P6SM BKN003 OVC015 FM151200
                       29012KT P6SM VCSH BKN005 OVC015 FM151800
                       29008KT P6SM -SHRA BKN020 OVC040 FM152200
                       30006KT P6SM VCSH BKN030 OVC050=
201207150421 KCLM 150421Z 1504/1524 30010KT P6SM SCT004
                      TEMPO 1504/1506 3SM BR BKN004 FM150600 30010KT
                       P6SM BKN004 OVC015 FM152100 32006KT P6SM
                       BKN025 OVC050=
201207142331 TAF KCLM 142331Z 1500/1524 27005KT P6SM FEW050 BKN120 FM150700
                       29008KT P6SM OVC015 FM152100 32006KT P6SM
                       BKN050 BKN120=
201207141736 TAF KCLM 141736Z 1418/1518 00000KT P6SM BKN200 FM141900 27004KT
                       P6SM VCTS BKN045CB FM150600 29007KT P6SM
                       OVC007 FM151500 28006KT P6SM OVC015=
201207141126 TAF KCLM 141126Z 1412/1512 VRB03KT 5SM BR BKN007
                      TEMPO 1412/1416 1/2SM FG VV002 FM141800 VRB03KT
                       P6SM SCT050 SCT120 FM150400 29012KT P6SM
                       BKN025 BKN050 AMD NOT SKED=
201207140520 TAF KCLM 140520Z 1406/1506 27005KT P6SM VCSH BKN040 BKN080 FM141100
                       32002KT P6SM BKN007 FM141800 28004KT P6SM
                       VCSH BKN040 BKN080 AMD NOT SKED=
201207140136 KCLM 140136Z 1402/1424 00000KT P6SM VCTS SCT005 BKN015 BKN040CB
                       FM140500 27005KT P6SM VCSH BKN040 BKN080
                       FM141100 32002KT P6SM BKN007 FM141800 28004KT
                       P6SM VCSH BKN040 BKN080=
201207132331 TAF KCLM 132331Z 1400/1424 00000KT P6SM TS BKN006 BKN040CB BKN080
                       FM140300 27005KT P6SM VCSH BKN040 BKN080
                       FM141100 32002KT P6SM BKN007 FM141800 28004KT
                       P6SM VCSH BKN040 BKN080=
201207132130 KCLM 132130Z 1322/1418 00000KT 4SM -TSRA BR BKN003 BKN040CB BKN080
                       FM140100 27005KT P6SM VCSH BKN040 BKN080
                       FM141100 32002KT P6SM BKN007=
201207131741 TAF KCLM 131741Z 1318/1418 00000KT P6SM OVC005 FM131900 31003KT
                       P6SM TS SCT006 BKN040CB BKN080 FM140100
                       27005KT P6SM VCSH BKN040 BKN080 FM141100
                       32002KT P6SM BKN007=
201207131120 TAF KCLM 131120Z 1312/1412 27007KT 3SM BR BKN005 BKN070 FM131900
                       29008KT P6SM SCT015 BKN050 AMD NOT SKED=
201207130520 TAF KCLM 130520Z 1306/1406 27012KT P6SM SCT060 SCT120 FM130800
                       25005KT 3SM BR BKN005 FM131900 29008KT P6SM
                       SCT015 SCT090 AMD NOT SKED=
201207122333 TAF KCLM 122333Z 1300/1324 27006KT P6SM SCT200 FM130800 29007KT
                       2SM BR OVC004
                      TEMPO 1314/1318 3/4SM -DZ BR OVC002 FM132000
                       29007KT P6SM SCT015 SCT090 AMD NOT SKED=
201207121733 TAF KCLM 121733Z 1218/1318 01003KT P6SM BKN200 FM122000 29007KT
                       P6SM BKN200 FM130800 29007KT 2SM BR OVC004
                       TEMPO 1314/1318 3/4SM -DZ BR OVC002=
201207121512 KCLM 121512Z 1215/1312 30004KT P6SM BKN002 FM121800 30005KT 5SM
                       BR BKN008 FM121900 29007KT P6SM SCT015 SCT120
                       FM130800 29007KT P6SM BKN015=
201207121123 TAF KCLM 121123Z 1212/1312 28007KT 1/2SM FG VV002 FM121600 30005KT
                       5SM BR OVC008 FM121900 29007KT P6SM SCT015
                       SCT120 FM130800 29007KT P6SM BKN015=
201207120901 KCLM 120901Z 1209/1306 28007KT 1/2SM FG VV002 FM121600 30005KT
                       5SM BR OVC008 FM121900 29007KT P6SM SCT015
                       SCT120=
201207120520 TAF KCLM 120520Z 1206/1306 33005KT P6SM SKC
                      TEMPO 1207/1210 3SM BR BKN003 FM121000 28007KT
                       1/2SM FG VV002 FM121600 30005KT 5SM BR OVC008
                       FM121900 29007KT P6SM SCT015 SCT120=
201207112320 TAF KCLM 112320Z 1200/1224 33005KT P6SM SKC FM121000 28007KT 3/4SM
                       BR OVC002 FM121600 30005KT 5SM BR OVC008
                       FM121900 29007KT P6SM SCT015 SCT120=
201207111728 TAF KCLM 111728Z 1118/1218 32005KT P6SM BKN005 FM111900 32008KT
                       P6SM SKC FM120000 29012KT P6SM SKC FM121000
                       28007KT 3/4SM BR OVC002 FM121600 30005KT
                       5SM BR OVC008=
201207111120 TAF KCLM 111120Z 1112/1212 28006KT 1/2SM FG OVC002 FM111600 30006KT
                       3SM BR BKN004 FM111800 33008KT P6SM SCT006
                       FM111900 32008KT P6SM SKC FM120100 29008KT
                       P6SM SKC=
201207110901 KCLM 110901Z 1109/1206 31008KT 1 1/2SM BR BKN001
                      TEMPO 1109/1111 6SM BR SCT001 FM111100 30007KT
                       3SM BR OVC002 FM111700 32007KT P6SM SKC
                       FM120100 29008KT P6SM SKC=
201207110723 KCLM 110723Z 1107/1206 29007KT P6SM SCT001
                      TEMPO 1107/1111 BKN001 FM111100 30007KT P6SM
                       BKN005 FM111700 32007KT P6SM SKC FM120100
                       29008KT P6SM SKC=
201207110521 TAF KCLM 110521Z 1106/1206 29007KT P6SM SKC FM111200 30007KT P6SM
                       BKN005 FM111700 32007KT P6SM SKC FM120100
                       29008KT P6SM SKC=
201207102320 TAF KCLM 102320Z 1100/1124 31010KT P6SM FEW005 FM111200 30007KT
                       P6SM BKN005 FM111700 29007KT P6SM SKC=
201207101728 TAF KCLM 101728Z 1018/1118 32006KT P6SM OVC010 FM101900 32009KT
                       P6SM SKC FM110100 28010KT P6SM SKC FM111400
                       30007KT P6SM BKN009=
201207101502 KCLM 101502Z 1015/1112 32004KT P6SM BKN009 FM101900 32009KT P6SM
                       SKC FM110100 29010KT P6SM SKC=
201207101120 TAF KCLM 101120Z 1012/1112 29012KT P6SM SKC
                      TEMPO 1014/1018 4SM BR BKN006 FM101900 32008KT
                       P6SM SCT008 FM102000 32010KT P6SM SKC FM110100
                       29010KT P6SM SKC=
201207100801 KCLM 100801Z 1008/1106 29014G19KT P6SM SKC FM101000 29010KT P6SM
                       SCT008
                      TEMPO 1010/1012 BKN008 FM101200 27008KT P6SM
                       OVC004 FM101900 32008KT P6SM SCT008 FM102000
                       32010KT P6SM SKC FM110100 29010KT P6SM SKC=
201207100520 TAF KCLM 100520Z 1006/1106 29012G20KT P6SM SKC FM100800 28010KT
                       P6SM BKN006 FM101000 27008KT P6SM OVC004
                       FM101900 32008KT P6SM SCT008 FM102000 32010KT
                       P6SM SKC FM110100 29010KT P6SM SKC=
201207092322 TAF KCLM 092322Z 1000/1024 31014G21KT P6SM SKC FM100800 28010KT
                       P6SM BKN006 FM101000 27008KT P6SM OVC004
                       FM101900 29008KT P6SM SCT008 FM102000 29010KT
                       P6SM SKC=
201207091720 TAF KCLM 091720Z 0918/1018 30010KT P6SM BKN010 FM091830 30010KT
                       P6SM SKC FM100000 29012G18KT P6SM SCT120
                       FM100800 28010KT P6SM BKN006 FM101000 27008KT
                       P6SM OVC004=
201207091120 TAF KCLM 091120Z 0912/1012 29012KT P6SM SCT005
                      TEMPO 0913/0917 BKN005 FM091800 32008KT P6SM
                       SCT150 FM100000 29012G18KT P6SM SCT150 FM100800
                       28010KT P6SM BKN006 FM101000 27008KT P6SM
                       OVC004=
201207090520 TAF KCLM 090520Z 0906/1006 29012KT P6SM SCT150 FM091000 29010KT
                       P6SM SCT004
                      TEMPO 0910/0912 BKN004 FM091200 29010KT P6SM
                       OVC004 FM091800 32008KT P6SM SCT150 FM100000
                       29012G18KT P6SM SCT150=
201207082320 TAF KCLM 082320Z 0900/0924 30010KT P6SM VCFG SKC FM091300 29010KT
                       P6SM SCT004
                      TEMPO 0913/0917 BKN004 FM091800 29008KT P6SM
                       VCFG SKC=
201207081720 TAF KCLM 081720Z 0818/0918 31006KT P6SM SKC FM090200 29010KT P6SM
                       SCT250 FM091300 29010KT P6SM SCT006
                      TEMPO 0913/0917 BKN006=
201207081120 TAF KCLM 081120Z 0812/0912 29006KT P6SM SKC FM081800 33008KT P6SM
                       SKC FM090200 29010KT P6SM SCT250=
201207080521 TAF KCLM 080521Z 0806/0906 29008KT P6SM SKC FM081200 28006KT P6SM
                       SKC FM081800 33008KT P6SM SKC FM090200 29010KT
                       P6SM SCT250=
201207072330 TAF KCLM 072330Z 0800/0824 32010KT P6SM SKC FM081200 28006KT P6SM
                       SKC FM082100 32010KT P6SM SKC=
201207071720 TAF KCLM 071720Z 0718/0818 29008KT P6SM SKC FM080000 29012G18KT
                       P6SM SKC FM080700 28008KT P6SM SKC=
201207071120 TAF KCLM 071120Z 0712/0812 27007KT P6SM SKC FM071700 32010KT P6SM
                       SKC FM080000 29012G18KT P6SM SKC FM080700
                       28008KT P6SM SKC=
201207070520 TAF KCLM 070520Z 0706/0806 29010KT P6SM SKC FM071000 29010KT P6SM
                       SCT004 FM071800 29012G18KT P6SM SKC=
201207062330 TAF KCLM 062330Z 0700/0724 31012G18KT P6SM SKC FM071000 29010KT
                       P6SM SCT004 FM071800 29012G18KT P6SM SKC=
201207061735 TAF KCLM 061735Z 0618/0718 29006KT P6SM SKC=
201207061138 TAF KCLM 061138Z 0612/0712 29006KT P6SM SKC AMD NOT SKED=
201207060528 TAF KCLM 060528Z 0606/0706 29006KT P6SM SKC=
201207052320 TAF KCLM 052320Z 0600/0624 31006KT P6SM SKC FM060300 28006KT P6SM
                       SKC FM061800 32009KT P6SM SKC=
201207051720 TAF KCLM 051720Z 0518/0618 35006KT P6SM SKC FM060000 31006KT P6SM
                       SKC FM060300 28006KT P6SM SKC=
201207051122 TAF KCLM 051122Z 0512/0612 28006KT P6SM SKC=
201207050532 TAF KCLM 050532Z 0506/0606 28006KT P6SM SKC=
201207042320 TAF KCLM 042320Z 0500/0524 33006KT P6SM SCT250 FM050600 28004KT
                       P6SM SCT250 FM051300 28004KT P6SM FEW012
                       SCT250 FM051700 34007KT P6SM SCT250=
201207041724 TAF KCLM 041724Z 0418/0518 34007KT P6SM SCT050 SCT250 FM050000
                       31007KT P6SM SCT250 FM050600 28005KT P6SM
                       SCT250 FM051300 28005KT P6SM FEW012 SCT250=
201207041134 TAF KCLM 041134Z 0412/0512 25006KT P6SM BKN050 FM041700 28008KT
                       P6SM SCT200=
201207040538 TAF KCLM 040538Z 0406/0506 VRB03KT P6SM SCT250
                      TEMPO 0411/0414 4SM BR FM042000 29008KT P6SM
                       SCT250=
201207032320 TAF KCLM 032320Z 0400/0424 29013G22KT P6SM SCT040 SCT060
                      TEMPO 0400/0403 SCT040 BKN060 FM040300 28009KT
                       P6SM SCT060 FM040900 26005KT P6SM FEW011
                       SCT060 FM041700 35006KT P6SM SCT250=
201207031928 KCLM 031928Z 0319/0418 30013G22KT P6SM VCSH SCT035 BKN050 FM040000
                       28013KT P6SM SCT050 FM040900 28005KT P6SM
                       FEW011=
201207031744 TAF KCLM 031744Z 0318/0418 30007KT P6SM VCSH SCT030 OVC050
                      TEMPO 0318/0320 3SM SHRA OVC030 FM032000
                       30013G22KT P6SM VCSH BKN050 FM040000 28013KT
                       P6SM SCT050 FM040900 28005KT P6SM FEW011=
201207031702 KCLM 031702Z 0317/0412 VRB04KT P6SM VCSH SCT025 BKN050
                      TEMPO 0317/0319 5SM SHRA OVC025 FM031900
                       31012G20KT P6SM VCSH SCT035 SCT050 FM032100
                       28012KT P6SM SCT050 FM040500 28004KT P6SM
                       SCT050=
201207031408 KCLM 031408Z 0314/0412 27009KT P6SM VCSH SCT035 SCT050
                      TEMPO 0314/0317 BKN035 BKN050 FM031700 30013G20KT
                       P6SM VCSH SCT050 FM032100 28012KT P6SM SCT050
                       FM040500 28004KT P6SM SCT050=
201207031138 TAF KCLM 031138Z 0312/0412 28006KT P6SM SCT025 OVC040 FM031300
                       28012KT P6SM SCT030 BKN050 FM032100 28012KT
                       P6SM SCT050 FM040500 28004KT P6SM SCT050=
201207030541 TAF KCLM 030541Z 0306/0406 28006KT P6SM -SHRA BKN022 OVC040 FM031400
                       28006KT P6SM SCT030 BKN050 FM032100 28012KT
                       P6SM SCT050=
201207030121 KCLM 030121Z 0301/0324 VRB03KT P6SM SCT030 OVC050
                      TEMPO 0301/0304 5SM -SHRA BKN030 OVC050 FM030400
                       VRB03KT P6SM -RA SCT009 OVC018
                      TEMPO 0304/0306 4SM -RA BR BKN009 OVC012
                       FM030600 28006KT P6SM -SHRA BKN022 OVC040
                       FM031000 28006KT P6SM VCSH BKN030 OVC050
                       TEMPO 0310/0314 -SHRA FM031500 28010KT P6SM
                       VCSH SCT030 BKN050
                      PROB30 0315/0318 -SHRA OVC030 FM031800 31013G20KT
                       P6SM VCSH SCT050=
201207022358 KCLM 022358Z 0300/0324 VRB03KT P6SM VCSH SCT018 OVC030
                      TEMPO 0300/0302 -RA BKN018 OVC030 FM030200
                       VRB03KT P6SM -RA SCT009 OVC018
                      TEMPO 0302/0306 4SM -RA BR BKN009 OVC012
                       FM030600 28006KT P6SM -SHRA BKN022 OVC040
                       FM031000 28006KT P6SM VCSH BKN030 OVC050
                       TEMPO 0310/0314 -SHRA FM031500 28010KT P6SM
                       VCSH SCT030 BKN050
                      PROB30 0315/0318 -SHRA OVC030 FM031800 31013G20KT
                       P6SM VCSH SCT050=
201207022345 TAF KCLM 022345Z 0300/0324 VRB03KT P6SM -RA SCT008 OVC015 FM030600
                       28007KT P6SM BKN020 OVC040
                      TEMPO 0306/0310 -SHRA FM031500 28010KT P6SM
                       VCSH SCT028 BKN040
                      PROB30 0315/0318 -SHRA BKN028 OVC040=
201207021725 TAF KCLM 021725Z 0218/0318 VRB03KT P6SM VCSH SCT030 BKN050 OVC130
                       TEMPO 0218/0221 BKN030 OVC050 FM022100 VRB03KT
                       P6SM VCSH SCT018 OVC030
                      TEMPO 0221/0224 -RA BKN018 OVC030 FM030000
                       VRB03KT P6SM -RA SCT008 OVC015 FM030600
                       28007KT P6SM BKN020 OVC040
                      TEMPO 0306/0310 -SHRA FM031500 28010KT P6SM
                       VCSH SCT028 BKN040
                      PROB30 0315/0318 -SHRA BKN028 OVC040=
201207021526 KCLM 021526Z 0215/0312 VRB03KT P6SM VCSH OVC030 FM022100 VRB03KT
                       P6SM VCSH SCT015 OVC030
                      TEMPO 0221/0224 -RA BKN015 OVC030 FM030000
                       VRB03KT P6SM -RA SCT008 OVC015 FM030600
                       28006KT P6SM VCSH BKN025 OVC040
                      TEMPO 0306/0310 -SHRA=
201207021120 TAF KCLM 021120Z 0212/0312 28006KT P6SM OVC028 FM021600 28006KT
                       P6SM BKN035 BKN050 FM021900 32008KT P6SM
                       SCT030 BKN120 FM030100 30008KT P6SM BKN040
                       OVC070 FM030500 28008KT P6SM -RA OVC030
                       FM030700 29008KT P6SM -RA OVC020
                      TEMPO 0309/0312 3SM -RA OVC012=
201207020544 TAF KCLM 020544Z 0206/0306 28008KT P6SM OVC025 FM021000 28008KT
                       P6SM OVC018
                      TEMPO 0212/0215 5SM BR OVC003 FM021900 32008KT
                       P6SM SCT030 BKN150 FM030100 30008KT P6SM
                       BKN040 OVC070 FM030500 28008KT P6SM -RA
                       OVC030=
201207012344 TAF KCLM 012344Z 0200/0224 30010KT P6SM BKN025 OVC035 FM020400
                       32010KT P6SM FEW025 BKN040 FM021000 28008KT
                       P6SM BKN025
                      TEMPO 0212/0215 5SM BR OVC003 FM021900 32008KT
                       P6SM SCT030 BKN150=
201207012106 TAF AMD KCLM 012106Z 0121/0218 31012KT P6SM OVC030 FM012300 30010KT
                       P6SM BKN035 FM020200 29012KT P6SM FEW035
                       BKN050 FM021000 28008KT P6SM BKN030
                      TEMPO 0212/0215 5SM BR OVC003=
201207011747 TAF KCLM 011747Z 0118/0218 31008KT P6SM OVC035 FM012000 30010KT
                       P6SM SCT035 BKN050 FM020100 29012KT P6SM
                       FEW035 SCT050 FM021000 28008KT P6SM BKN030
                       TEMPO 0212/0215 5SM BR OVC003=
201207011120 TAF KCLM 011120Z 0112/0212 30006KT P6SM SCT008 OVC012
                      TEMPO 0112/0116 OVC008 FM011600 31012KT P6SM
                       SCT012 BKN025 FM012000 30008KT P6SM SCT030
                       BKN050 FM012100 30008KT P6SM SCT050 FM020100
                       29012KT P6SM SCT020 SCT050=
201207011008 TAF AMD KCLM 011008Z 0110/0206 30006KT P6SM OVC009 FM011600 31012KT
                       P6SM SCT012 BKN025 FM012000 30008KT P6SM
                       SCT030 BKN050 FM012100 30008KT P6SM SCT050
                       FM020100 29012KT P6SM SCT020 SCT050=
201207010520 TAF KCLM 010520Z 0106/0206 28010KT P6SM OVC020 FM010800 28010KT
                       P6SM OVC015
                      TEMPO 0112/0115 3SM BR BKN002 FM011800 31012KT
                       P6SM BKN025 FM012000 30008KT P6SM SCT030
                       BKN050 FM012100 30008KT P6SM SCT050 FM020100
                       29012KT P6SM SCT020 SCT050=
201207010349 KCLM 010349Z 0104/0124 29010KT P6SM SCT015 BKN025 BKN035 FM010900
                       28010KT P6SM OVC015
                      TEMPO 0112/0115 3SM BR BKN002 FM011800 31012KT
                       P6SM BKN025=