##########################################################
# Query made at 02/16/2025 02:24:38 UTC
# Time interval: from 02/01/2013 00:00  to 02/28/2013 23:59  UTC
##########################################################

##########################################################
# KCLM, Port Angeles, William R. Fairchild International Airport (United States)
# WMO index: -----. WIGOS ID: Unknown
# Latitude 48-07-20N. Longitude 123-30-19W. Altitude 87 m.
##########################################################

###################################
#  METAR/SPECI from KCLM
###################################
201302282353 METAR KCLM 282353Z AUTO 00000KT 10SM OVC003 07/06 A3021 RMK AO2 SLP230 60000 T00720061 10078 20067 51007=
201302282253 METAR KCLM 282253Z AUTO 08004KT 10SM OVC004 07/06 A3021 RMK AO2 SLP230 T00720061=
201302282153 METAR KCLM 282153Z AUTO 06004KT 10SM OVC002 07/06 A3019 RMK AO2 CIG 002V006 SLP226 T00720061=
201302282053 METAR KCLM 282053Z AUTO 32003KT 10SM OVC003 07/06 A3019 RMK AO2 RAE26 SLP223 P0000 60000 T00670056 53015=
201302282011 SPECI KCLM 282011Z AUTO 34008KT 10SM -RA BKN004 OVC009 07/06 A3018 RMK AO2 CIG 002V005 P0000 T00720061=
201302281953 METAR KCLM 281953Z AUTO VRB05KT 10SM -RA BKN006 OVC014 07/06 A3017 RMK AO2 CIG 003V009 SLP219 P0000 T00720061=
201302281942 SPECI KCLM 281942Z AUTO 29006KT 10SM -RA BKN006 OVC014 08/06 A3017 RMK AO2 CIG 004V009 P0000 T00780061=
201302281914 SPECI KCLM 281914Z AUTO 26005KT 10SM -RA SCT007 BKN013 OVC060 08/06 A3015 RMK AO2 P0000 T00780056=
201302281906 SPECI KCLM 281906Z AUTO 28006KT 10SM -RA FEW009 BKN055 OVC080 07/06 A3014 RMK AO2 P0000 T00720056=
201302281853 METAR KCLM 281853Z AUTO 26005KT 10SM -RA SCT009 BKN021 OVC080 07/05 A3014 RMK AO2 SLP208 P0000 T00720050=
201302281753 METAR KCLM 281753Z AUTO 00000KT 10SM -RA OVC070 07/05 A3014 RMK AO2 SLP206 P0001 60001 T00670050 10067 20044 56005=
201302281653 METAR KCLM 281653Z AUTO 25005KT 10SM -RA OVC060 06/04 A3014 RMK AO2 SLP208 P0000 T00560039=
201302281553 METAR KCLM 281553Z AUTO 00000KT 10SM -RA OVC065 05/04 A3014 RMK AO2 SLP209 P0000 T00500039=
201302281455 SPECI KCLM 281455Z AUTO 23004KT 10SM -RA FEW009 BKN050 OVC060 05/04 A3015 RMK AO2 P0000 T00500039=
201302281453 METAR KCLM 281453Z AUTO 23004KT 10SM -RA FEW009 BKN014 OVC055 05/04 A3015 RMK AO2 SLP212 P0000 60000 T00500039 58017=
201302281447 SPECI KCLM 281447Z AUTO 22003KT 10SM -RA BKN012 BKN018 OVC055 05/04 A3015 RMK AO2 P0000=
201302281428 SPECI KCLM 281428Z AUTO 22004KT 10SM -RA BKN017 OVC060 05/03 A3016 RMK AO2 P0000 T00500033=
201302281403 SPECI KCLM 281403Z AUTO 23003KT 10SM -RA SCT019 SCT049 OVC060 04/04 A3017 RMK AO2 P0000 T00440039=
201302281353 METAR KCLM 281353Z AUTO 00000KT 10SM -RA BKN019 BKN033 OVC060 04/03 A3018 RMK AO2 SLP220 P0000 T00440033=
201302281253 METAR KCLM 281253Z AUTO 00000KT 10SM -RA OVC040 04/03 A3019 RMK AO2 SLP225 P0000 T00440033=
201302281153 METAR KCLM 281153Z AUTO 00000KT 10SM -RA OVC048 04/03 A3020 RMK AO2 RAB26 SLP229 P0000 60000 T00440028 10056 20022 58013=
201302281053 METAR KCLM 281053Z AUTO 00000KT 10SM BKN070 OVC095 04/03 A3022 RMK AO2 SLP234 T00440028=
201302280953 METAR KCLM 280953Z AUTO 13004KT 10SM OVC110 05/02 A3023 RMK AO2 SLP237 T00500022=
201302280853 METAR KCLM 280853Z AUTO 00000KT 10SM CLR 03/02 A3024 RMK AO2 SLP241 T00330017 58009=
201302280753 METAR KCLM 280753Z AUTO 16003KT 10SM SCT085 BKN110 03/02 A3025 RMK AO2 SLP246 T00280017 400890017=
201302280653 METAR KCLM 280653Z AUTO 00000KT 10SM BKN090 04/02 A3026 RMK AO2 SLP250 T00390022 TSNO=
201302280553 METAR KCLM 280553Z AUTO 17003KT 10SM OVC085 05/02 A3027 RMK AO2 SLP251 60000 T00500022 10078 20044 53002=
201302280453 METAR KCLM 280453Z AUTO 10006KT 10SM OVC085 06/03 A3025 RMK AO2 SLP245 T00560028 TSNO=
201302280353 METAR KCLM 280353Z AUTO 14004KT 10SM OVC085 04/03 A3027 RMK AO2 SLP253 T00440028=
201302280253 METAR KCLM 280253Z AUTO 00000KT 10SM FEW060 SCT075 OVC090 06/04 A3026 RMK AO2 RAB0158E35 SLP249 P0000 60000 T00560039 50002=
201302280153 METAR KCLM 280153Z AUTO 31003KT 10SM BKN037 OVC050 06/04 A3028 RMK AO2 RAB22E37 SLP256 P0000 T00610039=
201302280053 METAR KCLM 280053Z AUTO 00000KT 10SM BKN047 OVC060 07/04 A3028 RMK AO2 SLP255 T00720039=
201302272353 METAR KCLM 272353Z AUTO 08003KT 10SM OVC085 07/03 A3025 RMK AO2 SLP247 T00720033 10089 20072 58008=
201302272253 METAR KCLM 272253Z AUTO 03003KT 10SM FEW047 OVC095 07/02 A3027 RMK AO2 SLP251 T00720022=
201302272153 METAR KCLM 272153Z AUTO VRB03KT 10SM BKN090 BKN120 08/03 A3028 RMK AO2 SLP254 T00780033=
201302272053 METAR KCLM 272053Z AUTO 11006KT 10SM BKN100 OVC110 08/03 A3028 RMK AO2 SLP255 T00780033 50006=
201302271953 METAR KCLM 271953Z AUTO VRB05KT 10SM BKN100 09/03 A3028 RMK AO2 SLP256 T00890033=
201302271853 METAR KCLM 271853Z AUTO 09007KT 10SM SCT120 08/02 A3028 RMK AO2 SLP255 T00830017=
201302271753 METAR KCLM 271753Z AUTO 09005KT 10SM FEW120 08/02 A3026 RMK AO2 SLP248 T00780017 10083 20017 58002=
201302271653 METAR KCLM 271653Z AUTO 13006KT 10SM FEW120 06/03 A3026 RMK AO2 SLP248 T00610028=
201302271553 METAR KCLM 271553Z AUTO 00000KT 10SM CLR 03/02 A3027 RMK AO2 SLP253 T00280017=
201302271453 METAR KCLM 271453Z AUTO 22004KT 10SM CLR 02/02 A3026 RMK AO2 SLP251 T00220017 51015=
201302271353 METAR KCLM 271353Z AUTO 20003KT 10SM CLR 02/01 A3026 RMK AO2 SLP250 T00220006=
201302271253 METAR KCLM 271253Z AUTO 18003KT 10SM OVC060 04/02 A3024 RMK AO2 SLP243 T00390022=
201302271153 METAR KCLM 271153Z AUTO 22005KT 10SM OVC060 03/02 A3022 RMK AO2 SLP234 60002 70002 T00280017 10044 20028 51013=
201302271053 METAR KCLM 271053Z AUTO 15004KT 10SM OVC060 03/02 A3021 RMK AO2 RAB00E44 SLP231 P0000 T00330022=
201302270953 METAR KCLM 270953Z AUTO 20004KT 10SM OVC060 04/02 A3020 RMK AO2 SLP230 T00390022=
201302270853 METAR KCLM 270853Z AUTO 24009KT 10SM FEW070 SCT100 03/02 A3018 RMK AO2 RAE0755 SLP221 P0000 60002 T00330017 51017=
201302270753 METAR KCLM 270753Z AUTO 23006KT 10SM -RA BKN041 OVC060 04/03 A3016 RMK AO2 SLP213 P0002 T00440028 400721011=
201302270725 SPECI KCLM 270725Z AUTO 21005KT 10SM -RA OVC033 04/03 A3016 RMK AO2 P0002 T00440028=
201302270653 METAR KCLM 270653Z AUTO 26006KT 8SM -RA FEW022 OVC027 04/02 A3016 RMK AO2 SLP215 P0000 T00440022=
201302270553 METAR KCLM 270553Z AUTO 28005KT 10SM -RA FEW039 OVC046 04/02 A3013 RMK AO2 RAB13 SLP203 P0000 60000 T00390017 10067 20011 53003=
201302270453 METAR KCLM 270453Z AUTO 15004KT 10SM BKN050 BKN070 OVC090 02/01 A3011 RMK AO2 SLP198 T00220006=
201302270353 METAR KCLM 270353Z AUTO 23005KT 10SM SCT060 BKN080 OVC095 03/01 A3011 RMK AO2 SLP199 T00280006=
201302270253 METAR KCLM 270253Z AUTO 00000KT 10SM CLR 03/01 A3012 RMK AO2 SLP201 T00330011 56017=
201302270153 METAR KCLM 270153Z AUTO 28004KT 10SM BKN060 BKN100 04/01 A3013 RMK AO2 SLP207 T00440011=
201302270053 METAR KCLM 270053Z AUTO 00000KT 10SM BKN065 OVC075 06/02 A3015 RMK AO2 SLP210 T00560017=
201302262353 METAR KCLM 262353Z AUTO 00000KT 10SM BKN055 OVC070 07/02 A3017 RMK AO2 SLP217 T00670017 10072 20056 58021=
201302262253 METAR KCLM 262253Z AUTO 00000KT 10SM BKN055 OVC065 07/01 A3020 RMK AO2 SLP228 T00720006=
201302262153 METAR KCLM 262153Z AUTO 01005KT 10SM SCT060 BKN120 06/01 A3022 RMK AO2 SLP235 T00610011=
201302262053 METAR KCLM 262053Z AUTO 04003KT 10SM SCT110 06/02 A3023 RMK AO2 SLP238 T00610017 56013=
201302261953 METAR KCLM 261953Z AUTO 00000KT 10SM FEW120 07/02 A3023 RMK AO2 SLP240 T00720017=
201302261853 METAR KCLM 261853Z AUTO 07005KT 10SM SCT110 07/01 A3025 RMK AO2 SLP245 T00670006=
201302261753 METAR KCLM 261753Z AUTO 10003KT 10SM SCT120 07/M01 A3027 RMK AO2 SLP251 T00671011 10067 21011 58009=
201302261653 METAR KCLM 261653Z AUTO 21003KT 10SM CLR 03/M02 A3028 RMK AO2 SLP254 T00331017=
201302261553 METAR KCLM 261553Z AUTO 25006KT 10SM CLR 02/M02 A3030 RMK AO2 SLP262 T00221022=
201302261453 METAR KCLM 261453Z AUTO 24006KT 10SM CLR 02/M03 A3029 RMK AO2 SLP260 T00171028 50001=
201302261353 METAR KCLM 261353Z AUTO 23006KT 10SM CLR 02/M03 A3030 RMK AO2 SLP261 T00221028=
201302261253 METAR KCLM 261253Z AUTO 23006KT 10SM CLR 03/M03 A3029 RMK AO2 SLP258 T00281028=
201302261153 METAR KCLM 261153Z AUTO 24010KT 10SM CLR 03/M02 A3029 RMK AO2 SLP259 T00331022 10056 20028 51005=
201302261053 METAR KCLM 261053Z AUTO 23007KT 10SM CLR 03/M03 A3028 RMK AO2 SLP256 T00281028=
201302260953 METAR KCLM 260953Z AUTO 23010KT 10SM FEW050 04/M02 A3029 RMK AO2 SLP258 T00391022=
201302260853 METAR KCLM 260853Z AUTO 23007KT 10SM FEW110 03/M02 A3027 RMK AO2 SLP254 T00281017 50008=
201302260753 METAR KCLM 260753Z AUTO 23005KT 10SM CLR 03/M02 A3028 RMK AO2 SLP255 T00331017 400940033=
201302260653 METAR KCLM 260653Z AUTO 27010KT 10SM CLR 04/M02 A3027 RMK AO2 SLP252 T00441017=
201302260553 METAR KCLM 260553Z AUTO 25010KT 10SM CLR 06/M02 A3025 RMK AO2 SLP246 T00561017 10083 20050 51019=
201302260453 METAR KCLM 260453Z AUTO 26012KT 10SM FEW048 06/M02 A3023 RMK AO2 SLP239 T00611022=
201302260353 METAR KCLM 260353Z AUTO 26012KT 10SM FEW046 FEW055 06/M02 A3022 RMK AO2 PK WND 29027/0254 SLP234 T00611022=
201302260253 METAR KCLM 260253Z AUTO 27018G25KT 10SM FEW038 SCT048 07/M02 A3019 RMK AO2 SLP227 T00671022 51024=
201302260153 METAR KCLM 260153Z AUTO 28016KT 10SM BKN055 07/M02 A3018 RMK AO2 SLP220 T00671017=
201302260053 METAR KCLM 260053Z AUTO 28017G24KT 10SM CLR 08/M02 A3015 RMK AO2 PK WND 26029/0002 SLP212 T00781017=
201302252353 METAR KCLM 252353Z AUTO 28018KT 10SM FEW038 08/M02 A3012 RMK AO2 PK WND 28033/2304 SLP203 T00831017 10094 20078 53016=
201302252253 METAR KCLM 252253Z AUTO 28014G27KT 10SM CLR 09/M02 A3010 RMK AO2 PK WND 26033/2215 SLP194 T00941022=
201302252153 METAR KCLM 252153Z AUTO 27023G29KT 10SM FEW050 09/M02 A3008 RMK AO2 PK WND 27034/2108 SLP189 T00941022=
201302252053 METAR KCLM 252053Z AUTO 26014G27KT 10SM FEW041 FEW050 09/M01 A3008 RMK AO2 PK WND 27037/2026 SLP187 T00941011 51034=
201302251953 METAR KCLM 251953Z AUTO 26020G31KT 10SM FEW046 09/M01 A3005 RMK AO2 PK WND 27034/1858 SLP178 T00941006=
201302251853 METAR KCLM 251853Z AUTO 27021G31KT 10SM SCT049 08/M01 A3002 RMK AO2 PK WND 27037/1820 SLP167 T00831011=
201302251753 METAR KCLM 251753Z AUTO 27024G33KT 10SM SCT049 BKN060 08/01 A2998 RMK AO2 PK WND 26038/1724 SLP153 60000 T00780006 10078 20050 53023=
201302251653 METAR KCLM 251653Z AUTO 26023G33KT 10SM OVC060 07/01 A2994 RMK AO2 PK WND 27033/1652 SLP142 T00670011=
201302251553 METAR KCLM 251553Z AUTO 26009KT 10SM FEW032 SCT042 OVC085 06/02 A2992 RMK AO2 RAE42 SLP134 P0000 T00560017=
201302251453 METAR KCLM 251453Z AUTO 25011KT 10SM -RA FEW031 BKN038 OVC055 06/02 A2991 RMK AO2 RAB21 SLP129 P0000 60000 T00560022 53021=
201302251353 METAR KCLM 251353Z AUTO 25015G20KT 10SM BKN100 OVC120 05/02 A2987 RMK AO2 RAB02E25 SLP116 P0000 T00500022=
201302251253 METAR KCLM 251253Z AUTO 21007KT 10SM BKN055 OVC070 06/03 A2987 RMK AO2 RAE28 SLP115 P0000 T00560028=
201302251153 METAR KCLM 251153Z AUTO 25005KT 10SM -RA OVC035 06/03 A2984 RMK AO2 RAB06 SLP108 P0001 60004 70004 T00560028 10067 20044 51012=
201302251053 METAR KCLM 251053Z AUTO 27012KT 10SM FEW028 SCT036 06/03 A2984 RMK AO2 RAE38 SLP106 P0000 T00610028=
201302250953 METAR KCLM 250953Z AUTO 30005KT 10SM -RA FEW024 BKN035 OVC041 06/04 A2983 RMK AO2 SLP104 P0001 T00610044=
201302250853 METAR KCLM 250853Z AUTO VRB03KT 10SM -RA BKN035 OVC043 06/04 A2981 RMK AO2 SLP096 P0002 60002 T00610039 56017=
201302250753 METAR KCLM 250753Z AUTO 00000KT 8SM -RA OVC038 06/04 A2982 RMK AO2 SLP099 P0000 T00560044 400940028=
201302250653 METAR KCLM 250653Z AUTO 00000KT 10SM -RA OVC048 05/03 A2984 RMK AO2 SLP106 P0000 T00500028=
201302250553 METAR KCLM 250553Z AUTO VRB03KT 10SM -RA BKN055 OVC075 06/03 A2986 RMK AO2 RAB29 SLP113 P0000 60000 T00560028 10083 20028 58035=
201302250453 METAR KCLM 250453Z AUTO 22003KT 10SM SCT065 BKN120 03/02 A2990 RMK AO2 SLP127 T00330017=
201302250353 METAR KCLM 250353Z AUTO 17003KT 10SM CLR 04/02 A2993 RMK AO2 SLP137 T00390022=
201302250253 METAR KCLM 250253Z AUTO 07004KT 10SM BKN060 05/03 A2996 RMK AO2 SLP149 60000 T00500028 58040=
201302250153 METAR KCLM 250153Z AUTO 17003KT 10SM SCT060 BKN120 06/03 A3001 RMK AO2 RAB38E48 SLP163 P0000 T00610028=
201302250053 METAR KCLM 250053Z AUTO 02003KT 10SM OVC060 07/03 A3005 RMK AO2 SLP177 T00720028=
201302242353 METAR KCLM 242353Z AUTO 11003KT 10SM OVC090 08/03 A3008 RMK AO2 SLP189 T00780028 10094 20067 56033=
201302242253 METAR KCLM 242253Z AUTO 03004KT 10SM FEW055 BKN095 07/03 A3011 RMK AO2 SLP199 T00720028=
201302242153 METAR KCLM 242153Z AUTO 10004KT 10SM OVC065 09/02 A3014 RMK AO2 PRESFR SLP207 T00940022=
201302242053 METAR KCLM 242053Z AUTO 35004KT 10SM OVC065 07/03 A3018 RMK AO2 SLP222 T00720028 58019=
201302241953 METAR KCLM 241953Z AUTO VRB03KT 10SM OVC060 07/02 A3020 RMK AO2 SLP228 T00720022=
201302241853 METAR KCLM 241853Z AUTO VRB03KT 10SM OVC065 07/01 A3022 RMK AO2 SLP235 T00670011=
201302241753 METAR KCLM 241753Z AUTO 00000KT 10SM OVC070 07/02 A3024 RMK AO2 SLP241 T00670017 10067 20039 56012=
201302241653 METAR KCLM 241653Z AUTO 00000KT 10SM OVC075 06/02 A3025 RMK AO2 SLP245 T00560022=
201302241553 METAR KCLM 241553Z AUTO 00000KT 10SM OVC075 04/01 A3026 RMK AO2 SLP248 T00440011=
201302241453 METAR KCLM 241453Z AUTO 00000KT 10SM OVC060 04/01 A3027 RMK AO2 SLP253 T00390006 56017=
201302241353 METAR KCLM 241353Z AUTO 12003KT 10SM OVC060 04/01 A3028 RMK AO2 SLP257 T00440006=
201302241253 METAR KCLM 241253Z AUTO 00000KT 10SM OVC060 04/01 A3031 RMK AO2 SLP266 T00390006=
201302241153 METAR KCLM 241153Z AUTO 00000KT 10SM OVC055 04/00 A3032 RMK AO2 SLP270 70002 T00390000 10056 20039 58006=
201302241053 METAR KCLM 241053Z AUTO 20004KT 10SM BKN047 OVC055 04/00 A3034 RMK AO2 SLP276 T00440000=
201302240953 METAR KCLM 240953Z AUTO 00000KT 10SM OVC050 05/M01 A3035 RMK AO2 SLP278 T00501006=
201302240853 METAR KCLM 240853Z AUTO 25009KT 10SM OVC050 06/M01 A3034 RMK AO2 SLP276 T00561006 53002=
201302240753 METAR KCLM 240753Z AUTO 26009KT 10SM OVC055 06/M01 A3033 RMK AO2 SLP274 T00561006 400830039=
201302240653 METAR KCLM 240653Z AUTO 26008KT 10SM FEW050 BKN060 OVC100 05/00 A3034 RMK AO2 SLP275 T00500000=
201302240553 METAR KCLM 240553Z AUTO 24008KT 10SM BKN055 OVC070 06/M01 A3033 RMK AO2 SLP274 T00561006 10083 20044 51011=
201302240453 METAR KCLM 240453Z AUTO 25009KT 10SM FEW050 BKN060 BKN100 06/00 A3032 RMK AO2 SLP270 T00560000=
201302240353 METAR KCLM 240353Z AUTO 27006KT 10SM FEW100 05/00 A3032 RMK AO2 SLP268 T00500000=
201302240253 METAR KCLM 240253Z AUTO 27004KT 10SM FEW050 05/M01 A3030 RMK AO2 SLP262 T00501006 51016=
201302240153 METAR KCLM 240153Z AUTO 28010KT 10SM FEW050 06/M01 A3029 RMK AO2 SLP259 T00611006=
201302240053 METAR KCLM 240053Z AUTO 28012G18KT 10SM SCT055 07/M01 A3027 RMK AO2 SLP251 T00721011=
201302232353 METAR KCLM 232353Z AUTO 30013G24KT 10SM SCT065 08/M01 A3025 RMK AO2 SLP246 60000 T00831006 10083 20067 51013=
201302232253 METAR KCLM 232253Z AUTO 27016G25KT 10SM BKN060 07/00 A3025 RMK AO2 PK WND 28029/2223 RAB26E37 SLP246 P0000 T00720000=
201302232153 METAR KCLM 232153Z AUTO 27016G20KT 10SM FEW060 08/00 A3022 RMK AO2 PK WND 30027/2109 RAB11E23 SLP235 P0000 T00830000=
201302232053 METAR KCLM 232053Z AUTO 28012G20KT 10SM FEW036 SCT060 08/01 A3021 RMK AO2 SLP233 T00780006 51022=
201302231953 METAR KCLM 231953Z AUTO 28012KT 10SM FEW065 08/00 A3020 RMK AO2 SLP229 T00780000=
201302231853 METAR KCLM 231853Z AUTO 28016G19KT 10SM OVC090 08/01 A3018 RMK AO2 SLP221 T00830011=
201302231753 METAR KCLM 231753Z AUTO 27015G19KT 10SM FEW060 BKN100 08/01 A3015 RMK AO2 SLP210 60002 T00780011 10078 20039 53030=
201302231653 METAR KCLM 231653Z AUTO 26011KT 10SM OVC100 06/01 A3011 RMK AO2 SLP199 T00610011=
201302231553 METAR KCLM 231553Z AUTO 24011KT 10SM FEW034 SCT090 05/02 A3008 RMK AO2 RAE05 SLP187 P0000 T00500017=
201302231453 METAR KCLM 231453Z AUTO 26014G23KT 10SM -RA SCT030 BKN038 OVC045 04/02 A3006 RMK AO2 PK WND 27031/1403 RAB00 SLP179 P0002 60002 T00440017 53036=
201302231441 SPECI KCLM 231441Z AUTO 27019G27KT 10SM -RA BKN033 04/02 A3004 RMK AO2 PK WND 27031/1403 RAB00 P0002 T00440017=
201302231410 SPECI KCLM 231410Z AUTO 28017G31KT 6SM -RA BKN022 05/01 A3002 RMK AO2 PK WND 27031/1403 RAB00 P0002 T00500011=
201302231353 METAR KCLM 231353Z AUTO 26014G25KT 10SM CLR 06/01 A3000 RMK AO2 PK WND 26031/1310 SLP161 T00560006=
201302231253 METAR KCLM 231253Z AUTO 27015G24KT 10SM FEW020 SCT031 BKN110 05/01 A2997 RMK AO2 PK WND 27028/1230 RAB26E45 SLP152 P0000 T00500011=
201302231153 METAR KCLM 231153Z AUTO 26011KT 10SM FEW024 BKN043 OVC080 04/01 A2995 RMK AO2 RAB16E39 SLP143 P0000 60000 70018 T00440011 10056 20039 51027=
201302231145 SPECI KCLM 231145Z AUTO 25013KT 10SM SCT023 SCT038 BKN046 04/01 A2994 RMK AO2 RAB16E39 P0000 T00390011=
201302231126 SPECI KCLM 231126Z AUTO 26012G19KT 10SM -RA SCT023 BKN028 OVC060 05/01 A2995 RMK AO2 RAB16 P0000 T00500011=
201302231053 METAR KCLM 231053Z AUTO 24014G20KT 10SM FEW030 SCT065 SCT120 04/01 A2992 RMK AO2 RAB19E53 SLP135 P0000 T00440006=
201302230953 METAR KCLM 230953Z AUTO 25009KT 10SM BKN035 OVC043 05/M01 A2990 RMK AO2 SLP128 T00501006=
201302230853 METAR KCLM 230853Z AUTO 26011KT 10SM SCT055 04/M01 A2987 RMK AO2 SLP116 T00391006 51019=
201302230753 METAR KCLM 230753Z AUTO 28011G19KT 10SM BKN050 OVC080 04/00 A2986 RMK AO2 SLP112 T00390000 401000028=
201302230653 METAR KCLM 230653Z AUTO 26011KT 10SM BKN050 04/00 A2985 RMK AO2 SLP109 T00390000=
201302230553 METAR KCLM 230553Z AUTO 27017G23KT 10SM FEW060 03/00 A2981 RMK AO2 RAE09 SLP098 P0000 60004 T00330000 10072 20028 53020=
201302230453 METAR KCLM 230453Z AUTO 24016G22KT 10SM -RA BKN043 03/01 A2979 RMK AO2 RAB31 SLP088 P0000 T00330006=
201302230353 METAR KCLM 230353Z AUTO 27013KT 10SM SCT036 SCT060 BKN075 03/01 A2977 RMK AO2 RAB0256E52 SLP083 P0000 T00330006=
201302230253 METAR KCLM 230253Z AUTO 28010KT 10SM SCT043 BKN070 03/01 A2975 RMK AO2 RAE32 SLP077 P0002 60004 T00330011 51017=
201302230226 SPECI KCLM 230226Z AUTO 25011KT 10SM -RA FEW015 BKN032 BKN075 03/01 A2975 RMK AO2 P0002 T00330011=
201302230153 METAR KCLM 230153Z AUTO 28016G27KT 9SM RA BKN021 BKN045 OVC095 04/01 A2975 RMK AO2 PK WND 28027/0147 RAB43 SLP076 P0001 T00440006=
201302230053 METAR KCLM 230053Z AUTO 27005KT 10SM SCT037 BKN048 BKN060 06/02 A2972 RMK AO2 PK WND 30026/0006 RAB08E32 SLP065 P0001 T00560022=
201302230039 SPECI KCLM 230039Z AUTO 24006KT 10SM SCT025 BKN035 OVC045 06/02 A2971 RMK AO2 PK WND 30026/0006 RAB08E32 P0001 T00560022=
201302230020 SPECI KCLM 230020Z AUTO 28008G20KT 9SM -RA BKN027 BKN032 OVC047 06/02 A2971 RMK AO2 PK WND 30026/0006 RAB08 P0001 T00610017=
201302222353 METAR KCLM 222353Z AUTO 27012G17KT 10SM FEW030 BKN047 07/02 A2970 RMK AO2 RAE21B28E44 SLP060 P0000 60001 T00720017 10100 20056 53026=
201302222253 METAR KCLM 222253Z AUTO 28013G22KT 10SM -RA FEW031 BKN041 OVC050 08/02 A2968 RMK AO2 RAE2159B45 PRESRR SLP051 P0000 T00780022=
201302222153 METAR KCLM 222153Z AUTO 26007KT 10SM -RA BKN037 OVC048 09/05 A2962 RMK AO2 RAB42 SLP033 P0000 T00940050=
201302222053 METAR KCLM 222053Z AUTO 29008KT 10SM CLR 09/06 A2963 RMK AO2 RAE13 SLP033 P0000 60001 T00890056 56021=
201302221953 METAR KCLM 221953Z AUTO 27005KT 6SM RA BR BKN041 BKN050 OVC055 07/05 A2967 RMK AO2 SLP047 P0001 T00670050=
201302221853 METAR KCLM 221853Z AUTO 19007KT 10SM -RA SCT055 BKN070 OVC090 07/04 A2964 RMK AO2 SLP040 P0000 T00670039=
201302221753 METAR KCLM 221753Z AUTO 15009KT 8SM -RA FEW030 BKN036 OVC046 06/04 A2969 RMK AO2 SLP055 P0001 60013 T00560039 10056 20044 58016=
201302221732 SPECI KCLM 221732Z AUTO 15005KT 10SM -RA FEW026 OVC033 05/04 A2969 RMK AO2 P0001 T00500039=
201302221653 METAR KCLM 221653Z AUTO VRB03KT 5SM RA BR FEW011 BKN025 OVC030 05/03 A2971 RMK AO2 SLP064 P0006 T00500033=
201302221649 SPECI KCLM 221649Z AUTO 09003KT 5SM RA BR FEW011 SCT022 OVC028 05/03 A2971 RMK AO2 P0005=
201302221639 SPECI KCLM 221639Z AUTO 00000KT 5SM -RA BR SCT004 BKN012 OVC024 05/04 A2972 RMK AO2 P0004 T00500039=
201302221553 METAR KCLM 221553Z AUTO VRB03KT 6SM -RA BR OVC003 06/04 A2974 RMK AO2 CIG 001V007 PRESFR SLP071 P0006 T00560044=
201302221537 SPECI KCLM 221537Z AUTO 34009KT 5SM -RA BR BKN004 BKN008 OVC030 06/04 A2976 RMK AO2 P0003 T00560044=
201302221453 METAR KCLM 221453Z AUTO 30006KT 10SM -RA BKN008 OVC050 05/03 A2976 RMK AO2 RAB19 SLP079 P0000 60000 T00500033 56047=
201302221445 SPECI KCLM 221445Z AUTO VRB04KT 10SM -RA FEW008 OVC050 05/03 A2975 RMK AO2 RAB19 P0000 T00500033=
201302221353 METAR KCLM 221353Z AUTO 00000KT 10SM OVC080 05/04 A2977 RMK AO2 SLP083 T00500039=
201302221253 METAR KCLM 221253Z AUTO 12006KT 10SM FEW017 OVC090 05/03 A2982 RMK AO2 RAB36E49 PRESFR SLP100 P0000 T00500033=
201302221227 SPECI KCLM 221227Z AUTO 12005KT 10SM SCT014 BKN065 OVC080 05/04 A2986 RMK AO2 T00500039=
201302221153 METAR KCLM 221153Z AUTO 10003KT 10SM SCT015 BKN025 OVC065 05/04 A2990 RMK AO2 RAB08E19 SLP126 P0000 60000 70001 T00500039 10061 20044 58024=
201302221136 SPECI KCLM 221136Z AUTO 15004KT 10SM BKN017 BKN024 OVC090 05/04 A2991 RMK AO2 RAB08E19 P0000 T00500039=
201302221118 SPECI KCLM 221118Z AUTO 13006KT 10SM -RA SCT014 BKN033 OVC090 05/04 A2991 RMK AO2 RAB08 PRESFR P0000 T00500039=
201302221053 METAR KCLM 221053Z AUTO 00000KT 10SM OVC014 05/04 A2995 RMK AO2 RAE05 SLP143 P0000 T00500039=
201302221044 SPECI KCLM 221044Z AUTO 14003KT 10SM OVC014 05/04 A2995 RMK AO2 RAE05 P0000 T00500039=
201302221033 SPECI KCLM 221033Z AUTO 00000KT 10SM OVC015 05/04 A2995 RMK AO2 RAE05 P0000 T00500039=
201302221023 SPECI KCLM 221023Z AUTO 00000KT 10SM BKN013 BKN018 OVC070 04/03 A2996 RMK AO2 RAE05 P0000 T00440033=
201302221004 SPECI KCLM 221004Z AUTO 00000KT 10SM -RA SCT012 BKN018 OVC070 05/04 A2997 RMK AO2 P0000 T00500039=
201302220953 METAR KCLM 220953Z AUTO 00000KT 10SM -RA BKN012 BKN023 OVC070 05/04 A2997 RMK AO2 RAE12B27 SLP150 P0000 T00500039=
201302220951 SPECI KCLM 220951Z AUTO 00000KT 10SM -RA BKN012 BKN023 OVC040 06/04 A2997 RMK AO2 RAE12B27 P0000=
201302220921 SPECI KCLM 220921Z AUTO 00000KT 10SM FEW023 BKN029 OVC070 05/04 A2998 RMK AO2 RAE12 P0000 T00500039=
201302220913 SPECI KCLM 220913Z AUTO 00000KT 10SM SCT024 BKN032 OVC070 05/04 A2999 RMK AO2 RAE12 P0000 T00500039=
201302220853 METAR KCLM 220853Z AUTO 00000KT 10SM -RA FEW020 BKN028 OVC037 05/03 A3000 RMK AO2 RAB05 SLP161 P0000 60000 T00500033 55003=
201302220849 SPECI KCLM 220849Z AUTO 00000KT 10SM -RA FEW020 BKN030 OVC039 05/03 A3000 RMK AO2 RAB05 P0000=
201302220842 SPECI KCLM 220842Z AUTO 00000KT 10SM -RA FEW020 BKN029 OVC039 05/03 A3000 RMK AO2 RAB05 P0000 T00500033=
201302220753 METAR KCLM 220753Z AUTO 25005KT 10SM BKN060 OVC075 04/03 A3001 RMK AO2 SLP162 T00440028 400940022=
201302220700 METAR KCLM NIL=
201302220553 METAR KCLM 220553Z AUTO 13005KT 10SM BKN080 OVC100 05/03 A3001 RMK AO2 SLP164 T00500033 10078 20050 50000=
201302220453 METAR KCLM 220453Z AUTO 14003KT 10SM OVC100 05/03 A3004 RMK AO2 SLP173 T00500033=
201302220353 METAR KCLM 220353Z AUTO 00000KT 10SM FEW055 BKN110 06/03 A3001 RMK AO2 SLP165 T00560033=
201302220253 METAR KCLM 220253Z AUTO 00000KT 10SM OVC050 06/03 A3001 RMK AO2 SLP164 T00610033 50006=
201302220153 METAR KCLM 220153Z AUTO 19003KT 10SM OVC050 07/03 A3002 RMK AO2 SLP169 T00720028=
201302220125 SPECI KCLM 220125Z AUTO 16004KT 10SM SCT021 BKN032 OVC055 07/03 A3003 RMK AO2 T00670033=
201302220108 SPECI KCLM 220108Z AUTO 15005KT 10SM SCT021 BKN028 OVC060 07/03 A3002 RMK AO2 T00720033=
201302220053 METAR KCLM 220053Z AUTO 11003KT 10SM FEW025 BKN049 OVC060 07/03 A3001 RMK AO2 SLP165 T00720033=
201302212353 METAR KCLM 212353Z AUTO 13003KT 10SM FEW038 OVC060 07/04 A2999 RMK AO2 SLP157 60000 T00720039 10094 20056 52010=
201302212253 METAR KCLM 212253Z AUTO 00000KT 10SM BKN049 OVC065 07/04 A2998 RMK AO2 RAB2155E07 SLP154 P0000 T00720039=
201302212153 METAR KCLM 212153Z AUTO 36005KT 10SM FEW033 OVC046 06/04 A2997 RMK AO2 RAB21E52 SLP151 P0000 T00610044=
201302212053 METAR KCLM 212053Z AUTO 25010KT 10SM BKN055 BKN070 BKN080 09/04 A2996 RMK AO2 RAE10 SLP147 P0000 60000 T00940039 58002=
201302211953 METAR KCLM 211953Z AUTO 33003KT 10SM -RA FEW031 BKN041 OVC070 07/03 A2998 RMK AO2 RAB18 SLP153 P0000 T00670033=
201302211953 SPECI KCLM 211953Z AUTO 33003KT 10SM -RA FEW031 BKN041 OVC070 07/03 A2998 RMK AO2 RAB18 SLP153 P0000 T00670033=
201302211853 METAR KCLM 211853Z AUTO 04003KT 10SM SCT050 OVC070 06/03 A2997 RMK AO2 RAE1755 SLP150 P0000 T00610028=
201302211753 METAR KCLM 211753Z AUTO 21004KT 10SM -RA BKN033 BKN070 06/03 A2997 RMK AO2 SLP149 P0000 60001 T00560033 10056 20022 58007=
201302211704 SPECI KCLM 211704Z AUTO 12005KT 10SM -RA BKN030 OVC042 05/03 A2998 RMK AO2 P0000 T00500028=
201302211653 METAR KCLM 211653Z AUTO 13008KT 9SM -RA FEW021 OVC028 05/02 A2998 RMK AO2 RAB15 SLP153 P0001 T00500022=
201302211639 SPECI KCLM 211639Z AUTO 11009KT 10SM -RA OVC024 04/02 A2999 RMK AO2 RAB15 P0000 T00440022=
201302211553 METAR KCLM 211553Z AUTO 19003KT 10SM SCT065 BKN075 OVC090 04/02 A2999 RMK AO2 SLP157 T00390017=
201302211453 METAR KCLM 211453Z AUTO 16004KT 10SM FEW018 BKN060 OVC070 03/02 A2999 RMK AO2 RAB04E52 SLP157 P0000 60000 T00330017 50001=
201302211353 METAR KCLM 211353Z AUTO 21003KT 10SM FEW035 SCT045 OVC060 03/01 A2999 RMK AO2 SLP158 T00330011=
201302211253 METAR KCLM 211253Z AUTO 00000KT 10SM BKN060 OVC100 03/01 A2998 RMK AO2 SLP155 T00280006=
201302211153 METAR KCLM 211153Z AUTO 23006KT 10SM BKN110 03/00 A2998 RMK AO2 SLP155 T00330000 10050 20022 56007=
201302211053 METAR KCLM 211053Z AUTO 18003KT 10SM FEW016 03/00 A2999 RMK AO2 SLP157 T00330000=
201302211002 SPECI KCLM 211002Z AUTO 28006KT 10SM SCT019 03/00 A2999 RMK AO2 T00280000=
201302210953 METAR KCLM 210953Z AUTO 25004KT 10SM BKN019 04/01 A2998 RMK AO2 SLP155 T00390006=
201302210916 SPECI KCLM 210916Z AUTO 26006KT 10SM SCT014 BKN021 OVC027 04/02 A2999 RMK AO2 T00390017=
201302210853 METAR KCLM 210853Z AUTO 27006KT 10SM OVC014 04/02 A3000 RMK AO2 SLP162 T00440022 53007=
201302210753 METAR KCLM 210753Z AUTO 26007KT 10SM BKN013 OVC021 05/02 A2999 RMK AO2 SLP159 T00500022 400721006=
201302210653 METAR KCLM 210653Z AUTO 25008KT 10SM OVC017 05/03 A2998 RMK AO2 SLP154 T00500028=
201302210601 SPECI KCLM 210601Z AUTO 26007KT 10SM BKN015 04/02 A2999 RMK AO2 T00440022=
201302210553 METAR KCLM 210553Z AUTO 25006KT 10SM SCT017 BKN075 04/02 A2998 RMK AO2 SLP155 60000 T00440022 10061 20028 51004=
201302210453 METAR KCLM 210453Z AUTO 26007KT 10SM OVC080 04/02 A2998 RMK AO2 SLP155 T00440017=
201302210353 METAR KCLM 210353Z AUTO 25007KT 10SM OVC080 05/02 A2998 RMK AO2 SLP153 T00500022=
201302210253 METAR KCLM 210253Z AUTO 25004KT 10SM OVC080 03/02 A2997 RMK AO2 SLP152 60000 T00330017 53003 TSNO=
201302210153 METAR KCLM 210153Z AUTO 00000KT 10SM BKN080 05/02 A2996 RMK AO2 SLP149 T00500017=
201302210053 METAR KCLM 210053Z AUTO 12004KT 10SM OVC070 06/03 A2996 RMK AO2 RAE19 SLP148 P0000 T00610028=
201302202353 METAR KCLM 202353Z AUTO 12008KT 10SM -RA BKN037 OVC048 06/03 A2996 RMK AO2 SLP148 P0000 60000 T00610028 10072 20044 55003=
201302202253 METAR KCLM 202253Z AUTO 08006KT 10SM -RA BKN047 OVC060 07/02 A2996 RMK AO2 RAB47 SLP146 P0000 T00670017=
201302202153 METAR KCLM 202153Z AUTO 08007KT 10SM BKN090 07/01 A2996 RMK AO2 SLP147 T00720011=
201302202053 METAR KCLM 202053Z AUTO 10006KT 10SM FEW042 BKN070 OVC090 07/02 A2997 RMK AO2 SLP151 T00720022 56006=
201302201953 METAR KCLM 201953Z AUTO 08004KT 10SM BKN075 OVC085 07/02 A2998 RMK AO2 SLP153 T00670022=
201302201900 METAR KCLM NIL=
201302201853 METAR KCLM 201853Z AUTO 00000KT 10SM BKN060 07/00 A2998 RMK AO2 SLP155 T00670000=
201302201753 METAR KCLM 201753Z AUTO 26003KT 10SM FEW060 04/01 A2999 RMK AO2 SLP157 T00440006 10044 21006 56002=
201302201653 METAR KCLM 201653Z AUTO 24005KT 10SM CLR 03/M01 A2999 RMK AO2 SLP159 T00281006=
201302201553 METAR KCLM 201553Z AUTO 23006KT 10SM FEW044 02/M01 A2999 RMK AO2 SLP159 T00171011=
201302201453 METAR KCLM 201453Z AUTO 23006KT 10SM CLR 01/M02 A3000 RMK AO2 SLP160 T00111017 58004=
201302201353 METAR KCLM 201353Z AUTO 24005KT 10SM CLR 00/M02 A3000 RMK AO2 SLP163 T00001022=
201302201253 METAR KCLM 201253Z AUTO 23008KT 10SM CLR 03/M02 A3001 RMK AO2 SLP164 T00331017=
201302201153 METAR KCLM 201153Z AUTO 24009KT 10SM FEW019 03/M02 A3001 RMK AO2 SLP163 T00281017 10033 20017 50005=
201302201143 SPECI KCLM 201143Z AUTO 25008KT 10SM SCT019 02/M02 A3001 RMK AO2 T00221017=
201302201134 SPECI KCLM 201134Z AUTO 24009KT 10SM BKN018 02/M02 A3001 RMK AO2 T00221017=
201302201053 METAR KCLM 201053Z AUTO 25011KT 10SM CLR 03/M02 A3001 RMK AO2 SLP165 T00331017=
201302200953 METAR KCLM 200953Z AUTO 25009KT 10SM CLR 03/M01 A3001 RMK AO2 SLP163 T00331011=
201302200853 METAR KCLM 200853Z AUTO 25008KT 10SM CLR 02/M01 A2999 RMK AO2 SLP159 T00221006 51007=
201302200753 METAR KCLM 200753Z AUTO 24008KT 10SM CLR 03/M01 A2999 RMK AO2 SLP158 T00281006 400830028=
201302200653 METAR KCLM 200653Z AUTO 24008KT 10SM CLR 03/00 A2999 RMK AO2 SLP156 T00330000=
201302200553 METAR KCLM 200553Z AUTO 25009KT 10SM CLR 03/01 A2997 RMK AO2 SLP152 T00330006 10083 20028 51018=
201302200453 METAR KCLM 200453Z AUTO 25008KT 10SM CLR 03/01 A2996 RMK AO2 SLP148 T00330006=
201302200353 METAR KCLM 200353Z AUTO 25008KT 10SM CLR 04/01 A2995 RMK AO2 SLP142 T00390011=
201302200253 METAR KCLM 200253Z AUTO 23005KT 10SM CLR 03/01 A2992 RMK AO2 SLP134 T00280011 53011=
201302200153 METAR KCLM 200153Z AUTO 23005KT 10SM CLR 04/02 A2991 RMK AO2 SLP129 T00440022=
201302200053 METAR KCLM 200053Z AUTO 00000KT 10SM OVC060 07/01 A2990 RMK AO2 SLP127 T00720006=
201302192353 METAR KCLM 192353Z AUTO 17004KT 10SM FEW028 BKN055 08/01 A2989 RMK AO2 SLP123 60000 T00830011 10083 20044 53004=
201302192253 METAR KCLM 192253Z AUTO 12004KT 10SM FEW029 08/01 A2988 RMK AO2 SLP121 T00830011=
201302192238 SPECI KCLM 192238Z AUTO 14004KT 10SM SCT027 08/01 A2988 RMK AO2 T00780006=
201302192215 SPECI KCLM 192215Z AUTO 15003KT 10SM BKN024 BKN120 08/02 A2988 RMK AO2 T00780022=
201302192153 METAR KCLM 192153Z AUTO 15005KT 10SM FEW050 BKN120 07/03 A2988 RMK AO2 SLP119 T00720028=
201302192106 SPECI KCLM 192106Z AUTO 14007KT 10SM OVC030 07/02 A2988 RMK AO2 T00670022=
201302192053 METAR KCLM 192053Z AUTO 16005KT 10SM FEW024 OVC028 06/02 A2988 RMK AO2 RAE43 SLP118 P0000 60000 T00610022 51019=
201302191953 METAR KCLM 191953Z AUTO VRB03KT 10SM -RA OVC023 06/03 A2986 RMK AO2 RAB27 SLP114 P0000 T00560033=
201302191926 SPECI KCLM 191926Z AUTO 00000KT 10SM BKN016 OVC022 05/03 A2985 RMK AO2 T00500033=
201302191853 METAR KCLM 191853Z AUTO 23003KT 10SM OVC013 04/03 A2984 RMK AO2 RAB1756E38 SLP105 P0000 T00440028=
201302191817 SPECI KCLM 191817Z AUTO VRB03KT 10SM -RA OVC011 05/03 A2983 RMK AO2 RAB1756 P0000 T00500028=
201302191800 METAR KCLM NIL=
201302191738 SPECI KCLM 191738Z AUTO 25008KT 10SM -RA OVC009 04/03 A2981 RMK AO2 CIG 008V012 P0000 T00440028=
201302191653 METAR KCLM 191653Z AUTO 25009KT 10SM -RA OVC011 04/03 A2981 RMK AO2 RAB42 SLP095 P0000 T00440028=
201302191609 SPECI KCLM 191609Z AUTO 25008KT 10SM BKN014 OVC024 04/02 A2980 RMK AO2 T00440017=
201302191553 METAR KCLM 191553Z AUTO 25008KT 10SM SCT016 BKN024 OVC031 04/02 A2979 RMK AO2 SLP092 T00440017=
201302191548 SPECI KCLM 191548Z AUTO 25007KT 10SM SCT016 BKN024 OVC030 04/02 A2979 RMK AO2=
201302191513 SPECI KCLM 191513Z AUTO 26007KT 10SM SCT016 BKN033 OVC044 04/02 A2978 RMK AO2 T00440017=
201302191453 METAR KCLM 191453Z AUTO 25005KT 10SM BKN016 OVC035 05/02 A2978 RMK AO2 SLP084 T00500022 51012=
201302191436 SPECI KCLM 191436Z AUTO 24006KT 10SM OVC015 05/02 A2977 RMK AO2 T00500022=
201302191353 METAR KCLM 191353Z AUTO 24007KT 10SM BKN014 OVC020 04/02 A2976 RMK AO2 SLP080 T00440017=
201302191351 SPECI KCLM 191351Z AUTO 25007KT 10SM BKN014 OVC020 04/02 A2976 RMK AO2=
201302191253 METAR KCLM 191253Z AUTO 24008KT 10SM BKN026 OVC090 04/02 A2974 RMK AO2 SLP072 T00440017=
201302191153 METAR KCLM 191153Z AUTO 27007KT 10SM OVC018 05/02 A2973 RMK AO2 SLP069 T00500017 10050 20028 53006=
201302191053 METAR KCLM 191053Z AUTO 24006KT 10SM OVC017 04/02 A2972 RMK AO2 SLP066 T00440022=
201302191021 SPECI KCLM 191021Z AUTO 25004KT 10SM BKN017 04/02 A2972 RMK AO2 T00390017=
201302190953 METAR KCLM 190953Z AUTO 25006KT 10SM CLR 03/02 A2971 RMK AO2 SLP063 T00330017=
201302190853 METAR KCLM 190853Z AUTO 25005KT 10SM FEW013 OVC110 04/02 A2971 RMK AO2 SLP063 T00390017 53000=
201302190753 METAR KCLM 190753Z AUTO 26006KT 10SM SCT075 BKN110 04/01 A2971 RMK AO2 SLP062 T00390011 400780000=
201302190653 METAR KCLM 190653Z AUTO 27006KT 10SM OVC070 04/01 A2971 RMK AO2 SLP061 T00390011=
201302190553 METAR KCLM 190553Z AUTO 22004KT 10SM BKN070 BKN110 03/01 A2971 RMK AO2 SLP063 T00280011 10072 20017 56011=
201302190453 METAR KCLM 190453Z AUTO 23006KT 10SM OVC110 03/01 A2972 RMK AO2 SLP066 T00280011=
201302190353 METAR KCLM 190353Z AUTO 16003KT 10SM BKN100 02/01 A2973 RMK AO2 SLP069 T00220006=
201302190253 METAR KCLM 190253Z AUTO 00000KT 10SM SCT100 02/01 A2975 RMK AO2 SLP075 T00220006 56020=
201302190153 METAR KCLM 190153Z AUTO 00000KT 10SM BKN110 04/01 A2976 RMK AO2 SLP080 T00440011=
201302190053 METAR KCLM 190053Z AUTO 00000KT 10SM BKN100 06/02 A2978 RMK AO2 SLP088 T00610017=
201302182353 METAR KCLM 182353Z AUTO 00000KT 10SM OVC080 07/02 A2981 RMK AO2 SLP095 T00720017 10078 20056 58023=
201302182253 METAR KCLM 182253Z AUTO 33004KT 10SM OVC055 07/02 A2984 RMK AO2 SLP106 T00670017=
201302182153 METAR KCLM 182153Z AUTO VRB03KT 10SM BKN070 OVC085 07/02 A2985 RMK AO2 SLP109 T00670017=
201302182053 METAR KCLM 182053Z AUTO VRB05KT 10SM FEW013 OVC070 06/02 A2987 RMK AO2 SLP118 T00610022 58020=
201302181953 METAR KCLM 181953Z AUTO 05006KT 10SM BKN080 OVC100 07/02 A2990 RMK AO2 SLP126 T00670022=
201302181853 METAR KCLM 181853Z AUTO 08004KT 10SM BKN065 OVC095 06/02 A2992 RMK AO2 SLP133 T00610017=
201302181753 METAR KCLM 181753Z AUTO 14003KT 10SM FEW070 BKN110 06/02 A2994 RMK AO2 RAB05E20 SLP139 P0000 60000 T00560017 10056 20022 57015=
201302181653 METAR KCLM 181653Z AUTO 23003KT 10SM OVC050 03/01 A2995 RMK AO2 SLP145 T00330006=
201302181553 METAR KCLM 181553Z AUTO 00000KT 10SM SCT070 BKN090 OVC110 03/00 A2996 RMK AO2 SLP147 T00280000=
201302181453 METAR KCLM 181453Z AUTO 25006KT 10SM OVC110 03/M01 A2998 RMK AO2 SLP154 T00331006 56014=
201302181353 METAR KCLM 181353Z AUTO 25004KT 10SM OVC110 03/M01 A2999 RMK AO2 SLP157 T00281006=
201302181253 METAR KCLM 181253Z AUTO 25005KT 10SM OVC110 03/M01 A3000 RMK AO2 SLP162 T00331006=
201302181153 METAR KCLM 181153Z AUTO 24006KT 10SM BKN100 BKN120 03/M01 A3002 RMK AO2 SLP167 T00281006 10044 20000 58020=
201302181053 METAR KCLM 181053Z AUTO 24007KT 10SM BKN110 03/00 A3005 RMK AO2 SLP176 T00330000 TSNO=
201302180953 METAR KCLM 180953Z AUTO 24008KT 10SM FEW120 03/01 A3007 RMK AO2 SLP183 T00280006=
201302180853 METAR KCLM 180853Z AUTO 22004KT 10SM BKN016 02/01 A3008 RMK AO2 SLP188 T00220006 56019=
201302180840 SPECI KCLM 180840Z AUTO 23006KT 10SM BKN015 01/00 A3008 RMK AO2 T00110000=
201302180753 METAR KCLM 180753Z AUTO 00000KT 10SM CLR 02/01 A3009 RMK AO2 SLP191 T00170006 400830011=
201302180653 METAR KCLM 180653Z AUTO 23004KT 10SM SCT060 04/01 A3012 RMK AO2 SLP200 T00390011=
201302180553 METAR KCLM 180553Z AUTO 26003KT 10SM OVC060 04/02 A3014 RMK AO2 SLP207 T00440017 10072 20044 58007=
201302180500 METAR KCLM NIL=
201302180353 METAR KCLM 180353Z AUTO 22003KT 10SM OVC055 05/02 A3015 RMK AO2 SLP211 T00500017=
201302180253 METAR KCLM 180253Z AUTO 00000KT 10SM OVC049 06/02 A3016 RMK AO2 SLP214 T00560017 56008=
201302180153 METAR KCLM 180153Z AUTO 12004KT 10SM OVC048 06/02 A3016 RMK AO2 SLP214 T00610017=
201302180053 METAR KCLM 180053Z AUTO 00000KT 10SM BKN050 07/01 A3017 RMK AO2 SLP219 T00670011=
201302172353 METAR KCLM 172353Z AUTO 07004KT 10SM FEW024 07/02 A3018 RMK AO2 SLP222 T00720017 10083 20067 56009=
201302172253 METAR KCLM 172253Z AUTO 13008KT 10SM CLR 08/02 A3018 RMK AO2 SLP223 T00780017=
201302172153 METAR KCLM 172153Z AUTO 09007KT 10SM FEW027 SCT042 BKN060 07/01 A3020 RMK AO2 SLP230 T00720011=
201302172053 METAR KCLM 172053Z AUTO 08006KT 10SM BKN045 OVC060 07/02 A3021 RMK AO2 SLP231 T00720017 58002=
201302171953 METAR KCLM 171953Z AUTO 09008KT 10SM FEW050 07/02 A3021 RMK AO2 SLP233 T00720017=
201302171853 METAR KCLM 171853Z AUTO 08005KT 10SM FEW055 07/01 A3022 RMK AO2 SLP234 T00670011=
201302171753 METAR KCLM 171753Z AUTO 00000KT 10SM FEW029 07/01 A3021 RMK AO2 SLP234 T00670006 10072 20011 51007=
201302171653 METAR KCLM 171653Z AUTO 24004KT 10SM CLR 04/00 A3021 RMK AO2 SLP232 T00440000=
201302171553 METAR KCLM 171553Z AUTO 23007KT 10SM CLR 02/M01 A3020 RMK AO2 SLP229 T00221011=
201302171453 METAR KCLM 171453Z AUTO 24008KT 10SM CLR 03/M01 A3019 RMK AO2 SLP226 T00281011 53000=
201302171353 METAR KCLM 171353Z AUTO 24005KT 10SM CLR 03/M01 A3019 RMK AO2 SLP224 T00281006=
201302171253 METAR KCLM 171253Z AUTO 25007KT 10SM CLR 03/M01 A3020 RMK AO2 SLP227 T00281006=
201302171153 METAR KCLM 171153Z AUTO 25009KT 10SM CLR 03/00 A3019 RMK AO2 SLP226 60000 T00330000 10067 20033 50001=
201302171053 METAR KCLM 171053Z AUTO 25006KT 10SM CLR 04/00 A3020 RMK AO2 SLP227 T00390000=
201302170953 METAR KCLM 170953Z AUTO 26009KT 10SM CLR 04/00 A3019 RMK AO2 SLP227 T00440000=
201302170853 METAR KCLM 170853Z AUTO 26008KT 10SM CLR 05/01 A3019 RMK AO2 SLP225 60000 T00500006 53006=
201302170753 METAR KCLM 170753Z AUTO 29013KT 10SM CLR 06/01 A3018 RMK AO2 SLP220 T00610006 401110017=
201302170653 METAR KCLM 170653Z AUTO 28015G21KT 10SM FEW080 07/01 A3017 RMK AO2 RAB04E07 SLP217 P0000 T00670011=
201302170553 METAR KCLM 170553Z AUTO 28010KT 10SM SCT046 BKN070 OVC080 07/01 A3017 RMK AO2 SLP219 60000 T00670011 10089 20056 51001=
201302170453 METAR KCLM 170453Z AUTO 27012KT 10SM FEW040 OVC080 07/02 A3017 RMK AO2 RAE0357 SLP218 P0000 T00670017=
201302170353 METAR KCLM 170353Z AUTO 30013G19KT 10SM -RA FEW036 SCT060 OVC080 07/02 A3017 RMK AO2 RAB06 SLP219 P0000 T00670017=
201302170253 METAR KCLM 170253Z AUTO 28012KT 10SM SCT030 SCT035 BKN085 06/02 A3017 RMK AO2 RAE45 SLP217 P0000 60000 T00560022 53006=
201302170153 METAR KCLM 170153Z AUTO 29013KT 10SM -RA BKN039 07/02 A3016 RMK AO2 RAB0059E15B34 SLP214 P0000 T00670022=
201302170123 SPECI KCLM 170123Z AUTO 29011G20KT 10SM SCT026 SCT036 06/02 A3014 RMK AO2 RAB0059E15 P0000 T00610022=
201302170114 SPECI KCLM 170114Z AUTO 28015G23KT 10SM -RA BKN028 BKN037 06/02 A3014 RMK AO2 RAB0059 P0000 T00610022=
201302170053 METAR KCLM 170053Z AUTO 29011G22KT 10SM BKN033 OVC043 07/03 A3014 RMK AO2 RAE53 SLP210 P0000 T00670033=
201302162353 METAR KCLM 162353Z AUTO 29015G22KT 10SM -RA BKN038 BKN050 08/03 A3015 RMK AO2 RAE2254B15 SLP211 P0000 60000 T00830028 10111 20078 53004=
201302162253 METAR KCLM 162253Z AUTO 31018G23KT 10SM -RA SCT055 OVC070 08/03 A3014 RMK AO2 RAB41 SLP208 P0000 T00830033=
201302162153 METAR KCLM 162153Z AUTO 30015G23KT 10SM CLR 10/02 A3013 RMK AO2 SLP203 T01000017=
201302162053 METAR KCLM 162053Z AUTO 30014G22KT 10SM SCT065 10/03 A3014 RMK AO2 SLP208 T01000028 58003=
201302161953 METAR KCLM 161953Z AUTO 30008KT 10SM FEW026 BKN033 BKN043 10/04 A3015 RMK AO2 SLP211 T01000039=
201302161921 SPECI KCLM 161921Z AUTO 31008KT 10SM SCT024 SCT031 BKN043 09/04 A3016 RMK AO2 T00890044=
201302161913 SPECI KCLM 161913Z AUTO 31007KT 10SM FEW020 BKN029 BKN060 09/04 A3015 RMK AO2 T00890044=
201302161853 METAR KCLM 161853Z AUTO VRB06KT 10SM SCT021 BKN045 10/05 A3014 RMK AO2 SLP208 T01000050=
201302161753 METAR KCLM 161753Z AUTO 25011KT 10SM OVC050 08/05 A3015 RMK AO2 RAB19E52 SLP210 P0000 60000 T00780050 10078 20050 51010=
201302161735 SPECI KCLM 161735Z AUTO 30008KT 10SM -RA SCT012 BKN050 OVC060 08/06 A3016 RMK AO2 RAB19 P0000 T00780056=
201302161727 SPECI KCLM 161727Z AUTO 29006KT 10SM -RA SCT010 BKN014 OVC055 08/06 A3016 RMK AO2 RAB19 P0000 T00780056=
201302161717 SPECI KCLM 161717Z AUTO 30009KT 10SM FEW010 BKN015 OVC050 08/06 A3015 RMK AO2 T00780056=
201302161653 METAR KCLM 161653Z AUTO 28007KT 10SM OVC060 08/05 A3014 RMK AO2 RAB11E25 SLP209 P0000 T00780050=
201302161553 METAR KCLM 161553Z AUTO 27015KT 10SM SCT090 07/05 A3013 RMK AO2 SLP204 T00720050=
201302161519 SPECI KCLM 161519Z AUTO 28010KT 10SM FEW008 SCT012 BKN110 07/05 A3012 RMK AO2 T00670050=
201302161453 METAR KCLM 161453Z AUTO 28012KT 10SM OVC005 07/06 A3012 RMK AO2 CIG 004V008 SLP200 60000 T00720056 58005=
201302161433 SPECI KCLM 161433Z AUTO 28010KT 10SM OVC005 07/06 A3012 RMK AO2 T00720056=
201302161353 METAR KCLM 161353Z AUTO 27009KT 10SM OVC004 07/06 A3012 RMK AO2 SLP203 T00670056=
201302161350 SPECI KCLM 161350Z AUTO 27006KT 10SM OVC004 07/06 A3012 RMK AO2=
201302161316 SPECI KCLM 161316Z AUTO 26006KT 10SM OVC008 07/05 A3013 RMK AO2 CIG 006V010 T00670050=
201302161253 METAR KCLM 161253Z AUTO 00000KT 10SM OVC011 06/05 A3013 RMK AO2 RAB11E37 SLP205 P0000 T00610050=
201302161231 SPECI KCLM 161231Z AUTO 26003KT 10SM -RA OVC014 06/04 A3013 RMK AO2 RAB11 P0000 T00610044=
201302161153 METAR KCLM 161153Z AUTO 27003KT 10SM OVC020 04/04 A3014 RMK AO2 SLP208 T00440039 10050 20017 56010=
201302161053 METAR KCLM 161053Z AUTO 00000KT 10SM SCT015 BKN024 BKN029 04/03 A3015 RMK AO2 SLP211 T00390033=
201302161040 SPECI KCLM 161040Z AUTO 00000KT 10SM FEW008 BKN015 BKN085 04/03 A3015 RMK AO2 T00440033=
201302161032 SPECI KCLM 161032Z AUTO 00000KT 10SM SCT008 BKN014 OVC085 04/03 A3015 RMK AO2 T00390033=
201302160953 METAR KCLM 160953Z AUTO 26003KT 8SM BKN008 03/02 A3015 RMK AO2 SLP213 T00280022=
201302160926 SPECI KCLM 160926Z AUTO 00000KT 10SM BKN008 03/02 A3016 RMK AO2 T00280022=
201302160915 SPECI KCLM 160915Z AUTO 00000KT 10SM SCT009 03/03 A3016 RMK AO2 T00330028=
201302160853 METAR KCLM 160853Z AUTO 21003KT 7SM CLR 03/02 A3017 RMK AO2 SLP218 T00280017 56010=
201302160821 SPECI KCLM 160821Z AUTO 00000KT 3SM BR CLR 03/02 A3017 RMK AO2 T00280017=
201302160759 SPECI KCLM 160759Z AUTO 00000KT 1 3/4SM BR CLR 02/02 A3017 RMK AO2 T00220017=
201302160753 METAR KCLM 160753Z AUTO 00000KT 8SM CLR 03/03 A3017 RMK AO2 SLP220 T00330028 400780028=
201302160653 METAR KCLM 160653Z AUTO 00000KT 10SM CLR 04/03 A3018 RMK AO2 SLP223 T00440033=
201302160553 METAR KCLM 160553Z AUTO 13004KT 10SM CLR 04/04 A3020 RMK AO2 SLP228 T00440039 10078 20044 57019=
201302160453 METAR KCLM 160453Z AUTO 15003KT 10SM CLR 06/04 A3022 RMK AO2 SLP235 T00560039=
201302160415 SPECI KCLM 160415Z AUTO 17004KT 10SM SCT016 07/04 A3023 RMK AO2 T00670044=
201302160405 SPECI KCLM 160405Z AUTO 18004KT 10SM BKN016 06/04 A3023 RMK AO2 T00610044=
201302160353 METAR KCLM 160353Z AUTO 15004KT 10SM OVC014 07/05 A3024 RMK AO2 SLP241 T00670050=
201302160253 METAR KCLM 160253Z AUTO 16004KT 10SM OVC013 07/05 A3025 RMK AO2 SLP247 T00720050 56021=
201302160153 METAR KCLM 160153Z AUTO 00000KT 10SM OVC013 07/06 A3028 RMK AO2 SLP254 T00720056=
201302160053 METAR KCLM 160053Z AUTO 12004KT 10SM OVC014 08/06 A3029 RMK AO2 SLP260 T00780056=
201302152353 METAR KCLM 152353Z AUTO 11003KT 10SM OVC013 08/06 A3032 RMK AO2 SLP269 T00780056 10078 20072 56022=
201302152253 METAR KCLM 152253Z AUTO 11006KT 10SM FEW007 OVC013 08/06 A3034 RMK AO2 SLP275 T00780061=
201302152232 SPECI KCLM 152232Z AUTO 08004KT 10SM SCT007 OVC013 08/06 A3035 RMK AO2 T00780061=
201302152153 METAR KCLM 152153Z AUTO 08007KT 8SM OVC005 07/06 A3036 RMK AO2 CIG 003V007 SLP281 T00720061=
201302152053 METAR KCLM 152053Z AUTO 07005KT 4SM BR OVC003 08/06 A3038 RMK AO2 SLP291 T00780061 58024=
201302151953 METAR KCLM 151953Z AUTO 09005KT 3SM BR OVC002 07/07 A3041 RMK AO2 SLP301 T00720067=
201302151939 SPECI KCLM 151939Z AUTO 09005KT 3SM BR OVC002 07/06 A3042 RMK AO2 T00720061=
201302151928 SPECI KCLM 151928Z AUTO 08005KT 2 1/2SM BR OVC002 07/07 A3043 RMK AO2 T00720067=
201302151908 SPECI KCLM 151908Z AUTO 09005KT 1 1/2SM BR OVC002 07/07 A3043 RMK AO2 T00720067=
201302151900 SPECI KCLM 151900Z AUTO 08007KT 2SM BR OVC002 07/06 A3044 RMK AO2 T00720061=
201302151853 METAR KCLM 151853Z AUTO 09008KT 1 3/4SM BR OVC002 07/06 A3044 RMK AO2 SLP309 T00720061=
201302151753 METAR KCLM 151753Z AUTO 09006KT 1SM BR OVC002 07/06 A3046 RMK AO2 RAE26 SLP315 P0000 60000 T00720061 10072 20072 58009=
201302151726 SPECI KCLM 151726Z AUTO 08005KT 1SM BR OVC002 07/06 A3046 RMK AO2 RAE26 P0000 T00720061=
201302151719 SPECI KCLM 151719Z AUTO 09006KT 1SM -RA BR OVC001 07/06 A3046 RMK AO2 P0000 T00720061=
201302151706 SPECI KCLM 151706Z AUTO 08005KT 3/4SM -RA BR OVC001 07/06 A3047 RMK AO2 P0000 T00720061=
201302151653 METAR KCLM 151653Z AUTO 09005KT 1SM -RA BR OVC001 07/06 A3047 RMK AO2 RAB05 SLP321 P0000 T00720061=
201302151624 SPECI KCLM 151624Z AUTO 08004KT 1SM -RA BR OVC001 07/06 A3047 RMK AO2 RAB05 P0000 T00720061=
201302151610 SPECI KCLM 151610Z AUTO 09004KT 1 1/4SM -RA BR OVC002 07/06 A3047 RMK AO2 VIS 1V2 RAB05 P0000 T00720061=
201302151603 SPECI KCLM 151603Z AUTO 09005KT 2SM BR OVC002 07/06 A3048 RMK AO2 T00720061=
201302151553 METAR KCLM 151553Z AUTO 08004KT 1 3/4SM BR OVC002 07/06 A3048 RMK AO2 RAE1458 SLP323 P0000 T00720061=
201302151529 SPECI KCLM 151529Z AUTO 06004KT 1 1/2SM BR OVC002 07/06 A3048 RMK AO2 RAE1458 P0000 T00720061=
201302151505 SPECI KCLM 151505Z AUTO 08004KT 1/2SM FG VV002 07/06 A3048 RMK AO2 RAE1458 P0000 T00720061=
201302151453 METAR KCLM 151453Z AUTO 08005KT 1 1/2SM -RA BR OVC002 07/06 A3048 RMK AO2 RAB41 SLP325 P0000 60000 T00720061 57005=
201302151439 SPECI KCLM 151439Z AUTO 10004KT 1 1/4SM BR OVC002 07/06 A3049 RMK AO2 T00720061=
201302151403 SPECI KCLM 151403Z AUTO 00000KT 3/4SM BR OVC002 07/06 A3050 RMK AO2 T00720061=
201302151353 METAR KCLM 151353Z AUTO 00000KT 1 1/4SM BR OVC002 07/06 A3050 RMK AO2 SLP330 T00720061=
201302151351 SPECI KCLM 151351Z AUTO 00000KT 1 1/2SM BR OVC002 07/06 A3050 RMK AO2=
201302151344 SPECI KCLM 151344Z AUTO 00000KT 2SM BR OVC003 07/06 A3050 RMK AO2 T00720061=
201302151253 METAR KCLM 151253Z AUTO 00000KT 6SM BR OVC004 07/06 A3051 RMK AO2 SLP334 T00720061=
201302151242 SPECI KCLM 151242Z AUTO 00000KT 7SM OVC005 07/06 A3051 RMK AO2 T00720061=
201302151153 METAR KCLM 151153Z AUTO 00000KT 7SM OVC004 07/06 A3052 RMK AO2 SLP336 70001 T00720061 10072 20067 56014=
201302151128 SPECI KCLM 151128Z AUTO 00000KT 7SM BKN003 OVC008 07/06 A3052 RMK AO2 T00720061=
201302151117 SPECI KCLM 151117Z AUTO 11003KT 9SM FEW003 OVC008 07/06 A3052 RMK AO2 CIG 006V012 T00720061=
201302151101 SPECI KCLM 151101Z AUTO 11003KT 10SM SCT006 OVC010 07/06 A3053 RMK AO2 T00720061=
201302151053 METAR KCLM 151053Z AUTO 11003KT 10SM BKN006 OVC010 07/06 A3053 RMK AO2 CIG 003V007 SLP340 T00720061=
201302150953 METAR KCLM 150953Z AUTO 00000KT 10SM OVC007 07/06 A3054 RMK AO2 SLP344 T00720061=
201302150924 SPECI KCLM 150924Z AUTO 00000KT 10SM BKN009 OVC013 07/06 A3055 RMK AO2 T00720056=
201302150853 METAR KCLM 150853Z AUTO 00000KT 10SM FEW003 BKN011 OVC029 07/06 A3056 RMK AO2 SLP350 T00720056 50001=
201302150845 SPECI KCLM 150845Z AUTO 00000KT 10SM SCT003 BKN011 OVC030 07/06 A3056 RMK AO2 T00720056=
201302150832 SPECI KCLM 150832Z AUTO 00000KT 10SM BKN003 BKN011 OVC030 07/06 A3056 RMK AO2 T00670056=
201302150823 SPECI KCLM 150823Z AUTO 00000KT 10SM SCT004 OVC030 07/06 A3056 RMK AO2 T00670056=
201302150753 METAR KCLM 150753Z AUTO 28003KT 10SM OVC030 07/06 A3056 RMK AO2 SLP351 T00670056 400890056=
201302150711 SPECI KCLM 150711Z AUTO 00000KT 10SM SCT004 SCT010 OVC032 07/06 A3056 RMK AO2 T00670056=
201302150653 METAR KCLM 150653Z AUTO 25003KT 10SM BKN004 OVC010 07/06 A3056 RMK AO2 SLP350 T00670056=
201302150633 SPECI KCLM 150633Z AUTO 24003KT 10SM BKN004 OVC008 07/05 A3056 RMK AO2 CIG 003V007 T00670050=
201302150553 METAR KCLM 150553Z AUTO 00000KT 10SM OVC005 07/06 A3055 RMK AO2 SLP349 T00670056 10078 20067 53001=
201302150544 SPECI KCLM 150544Z AUTO 00000KT 10SM BKN005 OVC034 07/06 A3055 RMK AO2 T00670056=
201302150531 SPECI KCLM 150531Z AUTO 00000KT 10SM FEW005 OVC034 07/06 A3055 RMK AO2 T00670056=
201302150453 METAR KCLM 150453Z AUTO 23003KT 10SM OVC035 07/06 A3055 RMK AO2 SLP346 T00670056=
201302150353 METAR KCLM 150353Z AUTO 00000KT 10SM OVC034 07/06 A3055 RMK AO2 SLP348 T00720056=
201302150253 METAR KCLM 150253Z AUTO 00000KT 10SM OVC034 07/06 A3055 RMK AO2 SLP347 T00720056 51006=
201302150153 METAR KCLM 150153Z AUTO 26003KT 10SM BKN035 OVC044 07/06 A3054 RMK AO2 SLP345 T00720056=
201302150053 METAR KCLM 150053Z AUTO 00000KT 10SM FEW006 OVC038 07/06 A3054 RMK AO2 SLP344 T00720056=
201302150027 SPECI KCLM 150027Z AUTO 32003KT 10SM FEW005 OVC041 07/06 A3054 RMK AO2 T00720056=
201302142353 METAR KCLM 142353Z AUTO 00000KT 10SM BKN043 OVC055 08/06 A3053 RMK AO2 SLP341 T00780056 10089 20078 50003=
201302142253 METAR KCLM 142253Z AUTO 00000KT 10SM FEW007 FEW015 OVC043 08/05 A3054 RMK AO2 SLP343 T00780050=
201302142228 SPECI KCLM 142228Z AUTO 00000KT 10SM FEW007 SCT014 OVC042 08/06 A3054 RMK AO2 T00780056=
201302142221 SPECI KCLM 142221Z AUTO 35003KT 10SM SCT014 OVC042 08/06 A3054 RMK AO2 T00780056=
201302142153 METAR KCLM 142153Z AUTO 36003KT 10SM BKN013 OVC042 08/04 A3053 RMK AO2 SLP342 T00780039=
201302142116 SPECI KCLM 142116Z AUTO 07003KT 10SM SCT007 OVC013 08/05 A3053 RMK AO2 T00780050=
201302142053 METAR KCLM 142053Z AUTO VRB03KT 10SM BKN006 OVC013 08/06 A3052 RMK AO2 SLP339 T00780061 50007=
201302142028 SPECI KCLM 142028Z AUTO VRB03KT 10SM BKN006 BKN013 OVC044 08/06 A3053 RMK AO2 T00780061=
201302142009 SPECI KCLM 142009Z AUTO 04004KT 10SM FEW006 SCT013 OVC044 08/06 A3053 RMK AO2 T00780061=
201302141953 METAR KCLM 141953Z AUTO 03003KT 10SM OVC044 08/06 A3053 RMK AO2 SLP340 T00830061=
201302141853 METAR KCLM 141853Z AUTO 11003KT 10SM FEW008 SCT013 OVC044 08/05 A3052 RMK AO2 SLP336 T00830050=
201302141833 SPECI KCLM 141833Z AUTO 00000KT 10SM FEW007 SCT028 OVC048 09/06 A3051 RMK AO2 T00890061=
201302141824 SPECI KCLM 141824Z AUTO VRB03KT 10SM SCT006 BKN028 BKN047 08/06 A3051 RMK AO2 T00830056=
201302141810 SPECI KCLM 141810Z AUTO 00000KT 10SM SCT008 SCT028 BKN047 08/06 A3051 RMK AO2 T00780061=
201302141803 SPECI KCLM 141803Z AUTO 03003KT 10SM SCT012 BKN100 BKN120 08/06 A3051 RMK AO2 T00780061=
201302141753 METAR KCLM 141753Z AUTO 05003KT 10SM BKN012 BKN100 08/06 A3050 RMK AO2 SLP332 60001 T00780056 10078 20056 58001=
201302141718 SPECI KCLM 141718Z AUTO 00000KT 10SM OVC013 07/06 A3050 RMK AO2 T00720056=
201302141711 SPECI KCLM 141711Z AUTO 00000KT 10SM FEW007 OVC015 07/06 A3050 RMK AO2 T00670056=
201302141703 SPECI KCLM 141703Z AUTO 13004KT 10SM SCT007 OVC013 07/05 A3051 RMK AO2 T00670050=
201302141653 METAR KCLM 141653Z AUTO 15003KT 10SM BKN007 OVC015 07/05 A3051 RMK AO2 SLP335 T00670050=
201302141649 SPECI KCLM 141649Z AUTO 14003KT 10SM BKN007 OVC015 07/06 A3052 RMK AO2=
201302141634 SPECI KCLM 141634Z AUTO 14003KT 10SM FEW006 BKN012 OVC019 07/05 A3052 RMK AO2 T00670050=
201302141616 SPECI KCLM 141616Z AUTO 15003KT 10SM FEW010 BKN020 OVC040 07/05 A3052 RMK AO2 T00670050=
201302141553 METAR KCLM 141553Z AUTO 10003KT 10SM OVC041 06/05 A3051 RMK AO2 SLP333 T00610050=
201302141453 METAR KCLM 141453Z AUTO 13004KT 10SM FEW020 OVC047 06/05 A3048 RMK AO2 RAE18 SLP324 P0000 60001 T00560050 50001=
201302141434 SPECI KCLM 141434Z AUTO 14004KT 8SM SCT010 SCT022 OVC047 06/05 A3048 RMK AO2 RAE18 P0000 T00560050=
201302141409 SPECI KCLM 141409Z AUTO 15003KT 9SM -RA BKN010 OVC050 06/05 A3048 RMK AO2 P0000 T00560050=
201302141353 METAR KCLM 141353Z AUTO 14003KT 9SM -RA SCT012 OVC055 06/05 A3048 RMK AO2 SLP325 P0000 T00560050=
201302141341 SPECI KCLM 141341Z AUTO 14003KT 9SM -RA SCT011 OVC050 06/05 A3049 RMK AO2 P0000 T00560050=
201302141253 METAR KCLM 141253Z AUTO 22003KT 8SM -RA BKN015 OVC022 06/05 A3050 RMK AO2 SLP330 P0001 T00610050=
201302141153 METAR KCLM 141153Z AUTO 00000KT 7SM -RA BKN018 OVC023 06/05 A3048 RMK AO2 SLP323 P0000 60000 T00560050 10067 20056 55000=
201302141053 METAR KCLM 141053Z AUTO 00000KT 10SM -RA OVC017 06/04 A3048 RMK AO2 RAB01 SLP322 P0000 T00610044=
201302140953 METAR KCLM 140953Z AUTO 00000KT 10SM BKN020 OVC048 06/04 A3047 RMK AO2 SLP322 T00610044=
201302140853 METAR KCLM 140853Z AUTO 00000KT 10SM OVC017 06/04 A3048 RMK AO2 SLP322 T00610044 50000=
201302140753 METAR KCLM 140753Z AUTO 00000KT 10SM OVC017 07/04 A3048 RMK AO2 SLP321 T00670039 400940050=
201302140653 METAR KCLM 140653Z AUTO 26003KT 10SM OVC020 07/04 A3048 RMK AO2 SLP324 T00670044=
201302140553 METAR KCLM 140553Z AUTO 23003KT 10SM OVC023 07/04 A3048 RMK AO2 SLP322 T00670044 10078 20061 53010=
201302140506 SPECI KCLM 140506Z AUTO 00000KT 10SM BKN025 BKN060 OVC090 07/05 A3046 RMK AO2 T00670050=
201302140453 METAR KCLM 140453Z AUTO 00000KT 10SM SCT025 OVC085 07/05 A3046 RMK AO2 SLP316 T00670050=
201302140413 SPECI KCLM 140413Z AUTO 00000KT 10SM SCT013 OVC060 07/05 A3046 RMK AO2 T00720050=
201302140353 METAR KCLM 140353Z AUTO 00000KT 10SM BKN014 OVC065 07/05 A3046 RMK AO2 SLP318 T00720050=
201302140253 METAR KCLM 140253Z AUTO 00000KT 10SM BKN010 BKN014 OVC080 07/05 A3045 RMK AO2 SLP312 T00720050 51007=
201302140241 SPECI KCLM 140241Z AUTO 00000KT 10SM BKN010 OVC075 07/06 A3045 RMK AO2 T00720056=
201302140153 METAR KCLM 140153Z AUTO 00000KT 10SM FEW012 OVC080 07/05 A3043 RMK AO2 SLP308 T00720050=
201302140053 METAR KCLM 140053Z AUTO 30006KT 10SM FEW018 OVC090 08/05 A3044 RMK AO2 SLP311 T00780050=
201302132353 METAR KCLM 132353Z AUTO 29008KT 10SM SCT038 OVC095 08/04 A3043 RMK AO2 SLP305 T00780044 10094 20078 51001=
201302132253 METAR KCLM 132253Z AUTO 31007KT 10SM OVC034 09/02 A3042 RMK AO2 SLP303 T00940022=
201302132153 METAR KCLM 132153Z AUTO VRB06G16KT 10SM OVC030 09/04 A3043 RMK AO2 SLP306 T00890039=
201302132118 SPECI KCLM 132118Z AUTO 33009KT 10SM OVC030 09/03 A3043 RMK AO2 T00890033=
201302132053 METAR KCLM 132053Z AUTO 00000KT 10SM OVC026 09/03 A3042 RMK AO2 SLP303 T00940033 50003=
201302132011 SPECI KCLM 132011Z AUTO 33007KT 10SM BKN021 BKN028 BKN060 09/04 A3044 RMK AO2 T00890044=
201302131953 METAR KCLM 131953Z AUTO 01006KT 10SM BKN060 BKN110 09/04 A3043 RMK AO2 SLP305 T00940044=
201302131853 METAR KCLM 131853Z AUTO 00000KT 10SM OVC100 08/04 A3043 RMK AO2 SLP304 T00830039=
201302131753 METAR KCLM 131753Z AUTO 00000KT 10SM BKN049 OVC110 08/03 A3041 RMK AO2 SLP300 T00780028 10078 20050 51018=
201302131653 METAR KCLM 131653Z AUTO 00000KT 10SM OVC046 07/03 A3040 RMK AO2 SLP296 T00670028=
201302131553 METAR KCLM 131553Z AUTO 25005KT 10SM BKN048 06/02 A3038 RMK AO2 SLP290 T00560017=
201302131453 METAR KCLM 131453Z AUTO 27007KT 10SM CLR 06/02 A3036 RMK AO2 SLP283 T00560017 51008=
201302131353 METAR KCLM 131353Z AUTO 27004KT 10SM FEW050 05/02 A3036 RMK AO2 SLP281 T00500017=
201302131253 METAR KCLM 131253Z AUTO VRB03KT 10SM SCT055 06/02 A3035 RMK AO2 SLP278 T00560017=
201302131153 METAR KCLM 131153Z AUTO 25007KT 10SM CLR 07/02 A3034 RMK AO2 SLP274 T00670017 10083 20061 51017=
201302131053 METAR KCLM 131053Z AUTO 26009KT 10SM CLR 07/01 A3032 RMK AO2 SLP271 T00670011=
201302130953 METAR KCLM 130953Z AUTO 27009KT 10SM CLR 07/03 A3031 RMK AO2 SLP263 T00670028=
201302130853 METAR KCLM 130853Z AUTO 29011KT 10SM CLR 07/04 A3028 RMK AO2 SLP257 T00720039 53010=
201302130753 METAR KCLM 130753Z AUTO 27006KT 10SM CLR 07/04 A3028 RMK AO2 SLP254 T00720044 401000044=
201302130723 SPECI KCLM 130723Z AUTO 30011KT 10SM SCT012 08/05 A3026 RMK AO2 T00780050=
201302130713 SPECI KCLM 130713Z AUTO 28011KT 10SM FEW007 BKN012 08/06 A3026 RMK AO2 T00780056=
201302130653 METAR KCLM 130653Z AUTO 31015G25KT 10SM FEW007 SCT013 08/06 A3026 RMK AO2 PK WND 30025/0651 SLP248 T00780061=
201302130627 SPECI KCLM 130627Z AUTO 30012KT 10SM SCT006 08/06 A3025 RMK AO2 T00780061=
201302130553 METAR KCLM 130553Z AUTO 31007G17KT 10SM CLR 09/06 A3026 RMK AO2 SLP246 60000 T00890061 10094 20072 55005=
201302130453 METAR KCLM 130453Z AUTO 27010KT 10SM CLR 09/04 A3023 RMK AO2 SLP239 T00940039=
201302130353 METAR KCLM 130353Z AUTO 26007KT 10SM OVC060 08/06 A3027 RMK AO2 RAE52 SLP251 P0000 T00830056=
201302130253 METAR KCLM 130253Z AUTO 25006KT 10SM -RA OVC065 08/06 A3027 RMK AO2 SLP253 P0000 60000 T00780056 58015=
201302130224 SPECI KCLM 130224Z AUTO 00000KT 10SM -RA FEW011 OVC070 08/06 A3028 RMK AO2 P0000 T00780056=
201302130202 SPECI KCLM 130202Z AUTO 25003KT 10SM -RA BKN010 BKN065 OVC080 08/05 A3029 RMK AO2 P0000 T00780050=
201302130153 METAR KCLM 130153Z AUTO 24003KT 10SM -RA SCT012 OVC080 08/05 A3030 RMK AO2 RAE02B51 SLP261 P0000 T00780050=
201302130053 METAR KCLM 130053Z AUTO 17005KT 10SM -RA FEW060 OVC090 08/05 A3030 RMK AO2 RAB49 SLP263 P0000 T00830050=
201302130002 SPECI KCLM 130002Z AUTO 00000KT 10SM SCT022 SCT060 OVC110 08/05 A3032 RMK AO2 T00830050=
201302122353 METAR KCLM 122353Z AUTO 00000KT 10SM BKN022 OVC100 08/04 A3031 RMK AO2 SLP267 T00830044 10100 20078 56007=
201302122305 SPECI KCLM 122305Z AUTO 00000KT 10SM FEW008 BKN029 OVC080 08/05 A3033 RMK AO2 T00780050=
201302122253 METAR KCLM 122253Z AUTO VRB03KT 10SM FEW029 OVC080 08/06 A3033 RMK AO2 SLP272 T00780056=
201302122215 SPECI KCLM 122215Z AUTO 33006KT 10SM FEW008 SCT080 08/06 A3032 RMK AO2 PRESRR T00780056=
201302122153 METAR KCLM 122153Z AUTO 04006KT 10SM CLR 09/06 A3029 RMK AO2 SLP259 T00940056=
201302122053 METAR KCLM 122053Z AUTO 03005KT 10SM OVC060 08/04 A3034 RMK AO2 SLP275 T00830044 56013=
201302121953 METAR KCLM 121953Z AUTO 08006KT 10SM BKN075 BKN095 10/05 A3035 RMK AO2 SLP277 T01000050=
201302121853 METAR KCLM 121853Z AUTO 11004KT 10SM BKN075 OVC090 09/05 A3036 RMK AO2 SLP283 T00890050=
201302121753 METAR KCLM 121753Z AUTO 00000KT 10SM BKN047 OVC075 08/04 A3038 RMK AO2 RAB1655E09 SLP288 P0000 60000 T00780039 10078 20044 53007=
201302121653 METAR KCLM 121653Z AUTO 14003KT 10SM OVC046 07/04 A3035 RMK AO2 SLP281 T00670044=
201302121641 SPECI KCLM 121641Z AUTO 00000KT 10SM SCT016 OVC046 07/04 A3036 RMK AO2 T00670044=
201302121553 METAR KCLM 121553Z AUTO 23004KT 10SM OVC017 06/03 A3036 RMK AO2 SLP284 T00560028=
201302121523 SPECI KCLM 121523Z AUTO 25003KT 10SM BKN016 BKN060 OVC085 06/03 A3035 RMK AO2 T00560028=
201302121453 METAR KCLM 121453Z AUTO 25004KT 10SM FEW060 OVC090 05/03 A3035 RMK AO2 SLP281 T00500033 53005=
201302121353 METAR KCLM 121353Z AUTO 00000KT 10SM OVC110 04/03 A3033 RMK AO2 SLP274 T00440033=
201302121253 METAR KCLM 121253Z AUTO 24003KT 10SM OVC080 05/03 A3033 RMK AO2 SLP273 T00500033=
201302121153 METAR KCLM 121153Z AUTO 22003KT 10SM FEW023 OVC085 06/03 A3034 RMK AO2 SLP276 T00560033 10067 20050 50002=
201302121053 METAR KCLM 121053Z AUTO 20003KT 10SM OVC085 06/03 A3034 RMK AO2 SLP277 T00560033=
201302120953 METAR KCLM 120953Z AUTO 24005KT 10SM FEW017 SCT023 OVC090 06/03 A3034 RMK AO2 SLP277 T00610033=
201302120853 METAR KCLM 120853Z AUTO 00000KT 10SM OVC110 06/03 A3033 RMK AO2 SLP274 T00610033 55001=
201302120753 METAR KCLM 120753Z AUTO 23004KT 10SM SCT013 SCT019 OVC100 06/03 A3033 RMK AO2 SLP273 T00610033 400830044=
201302120733 SPECI KCLM 120733Z AUTO 24003KT 10SM BKN013 OVC095 06/04 A3033 RMK AO2 T00610039=
201302120653 METAR KCLM 120653Z AUTO 21003KT 10SM BKN015 OVC095 06/04 A3033 RMK AO2 SLP273 T00610039=
201302120553 METAR KCLM 120553Z AUTO 26004KT 10SM BKN018 OVC120 06/04 A3034 RMK AO2 SLP274 T00560044 10078 20050 53004=
201302120546 SPECI KCLM 120546Z AUTO 26003KT 10SM BKN019 OVC120 05/04 A3033 RMK AO2 T00500044=
201302120515 SPECI KCLM 120515Z AUTO 00000KT 10SM SCT009 SCT023 06/04 A3032 RMK AO2 T00560044=
201302120453 METAR KCLM 120453Z AUTO 23004KT 10SM BKN009 06/05 A3032 RMK AO2 SLP270 T00610050=
201302120450 SPECI KCLM 120450Z AUTO 24003KT 10SM BKN009 06/05 A3032 RMK AO2=
201302120439 SPECI KCLM 120439Z AUTO 21003KT 10SM FEW009 SCT017 06/05 A3032 RMK AO2 T00610050=
201302120420 SPECI KCLM 120420Z AUTO 30003KT 10SM FEW009 OVC017 06/04 A3032 RMK AO2 T00610044=
201302120401 SPECI KCLM 120401Z AUTO 00000KT 10SM SCT010 BKN015 07/06 A3031 RMK AO2 T00670056=
201302120353 METAR KCLM 120353Z AUTO 00000KT 10SM BKN009 BKN017 07/06 A3031 RMK AO2 SLP266 T00670056=
201302120311 SPECI KCLM 120311Z AUTO 32005KT 10SM OVC008 07/06 A3032 RMK AO2 T00720056=
201302120253 METAR KCLM 120253Z AUTO 29006KT 10SM OVC010 07/06 A3032 RMK AO2 CIG 007V013 SLP270 T00720056 50000=
201302120239 SPECI KCLM 120239Z AUTO 30004KT 10SM BKN011 OVC017 07/06 A3032 RMK AO2 CIG 007V013 T00720056=
201302120153 METAR KCLM 120153Z AUTO 28004KT 10SM OVC008 08/06 A3032 RMK AO2 SLP270 T00780056=
201302120135 SPECI KCLM 120135Z AUTO 00000KT 10SM OVC008 08/06 A3032 RMK AO2 T00780056=
201302120053 METAR KCLM 120053Z AUTO 30004KT 10SM OVC011 08/06 A3032 RMK AO2 SLP270 T00780056=
201302120029 SPECI KCLM 120029Z AUTO 33003KT 10SM OVC009 07/06 A3032 RMK AO2 T00720056=
201302112353 METAR KCLM 112353Z AUTO 04003KT 10SM OVC011 08/06 A3031 RMK AO2 SLP265 60000 T00780056 10083 20061 56001=
201302112300 SPECI KCLM 112300Z AUTO 00000KT 10SM BKN010 OVC017 08/06 A3031 RMK AO2 T00830061=
201302112253 METAR KCLM 112253Z AUTO 00000KT 10SM OVC009 08/06 A3031 RMK AO2 CIG 007V013 SLP265 T00830056=
201302112153 METAR KCLM 112153Z AUTO 09003KT 10SM OVC007 08/06 A3030 RMK AO2 SLP264 T00830056=
201302112053 METAR KCLM 112053Z AUTO 04004KT 10SM OVC009 08/06 A3031 RMK AO2 CIG 004V010 SLP266 60000 T00780061 56004=
201302112024 SPECI KCLM 112024Z AUTO 00000KT 10SM OVC009 08/06 A3031 RMK AO2 CIG 004V012 T00780056=
201302111953 METAR KCLM 111953Z AUTO 00000KT 10SM FEW003 OVC011 07/06 A3032 RMK AO2 SLP269 T00670056=
201302111932 SPECI KCLM 111932Z AUTO 00000KT 10SM FEW002 OVC010 07/06 A3032 RMK AO2 T00670056=
201302111914 SPECI KCLM 111914Z AUTO 03004KT 10SM OVC009 07/06 A3032 RMK AO2 CIG 004V012 T00670056=
201302111853 METAR KCLM 111853Z AUTO VRB03KT 10SM SCT007 BKN011 OVC032 08/06 A3031 RMK AO2 RAB1754E09B31E40 SLP265 P0000 T00830056=
201302111836 SPECI KCLM 111836Z AUTO 00000KT 10SM -RA FEW006 SCT012 OVC034 07/06 A3031 RMK AO2 RAB1754E09B31 P0000 T00720056=
201302111821 SPECI KCLM 111821Z AUTO 00000KT 5SM BR FEW006 BKN020 OVC032 07/05 A3031 RMK AO2 RAB1754E09 P0000 T00670050=
201302111814 SPECI KCLM 111814Z AUTO 27003KT 5SM BR FEW006 BKN013 OVC030 07/05 A3032 RMK AO2 RAB1754E09 P0000 T00670050=
201302111753 METAR KCLM 111753Z AUTO 28004KT 3SM BR OVC013 06/05 A3032 RMK AO2 RAB13E37 SLP270 P0000 60000 T00610050 10061 20050 53005=
201302111741 SPECI KCLM 111741Z AUTO 25003KT 3SM BR OVC015 06/05 A3032 RMK AO2 RAB13E37 P0000 T00610050=
201302111729 SPECI KCLM 111729Z AUTO 25003KT 2SM -RA BR OVC014 06/05 A3032 RMK AO2 RAB13 P0000 T00610050=
201302111706 SPECI KCLM 111706Z AUTO 00000KT 1 1/2SM BR OVC014 06/05 A3031 RMK AO2 T00560050=
201302111653 METAR KCLM 111653Z AUTO 00000KT 2 1/2SM BR OVC014 06/04 A3031 RMK AO2 RAB37E51 SLP266 P0000 T00560044=
201302111613 SPECI KCLM 111613Z AUTO 15003KT 1 3/4SM BR OVC010 05/04 A3031 RMK AO2 T00500039=
201302111553 METAR KCLM 111553Z AUTO 12004KT 6SM BR OVC011 06/04 A3030 RMK AO2 RAB1459E31 SLP264 P0000 T00560039=
201302111501 SPECI KCLM 111501Z AUTO 00000KT 10SM -RA OVC013 06/03 A3030 RMK AO2 RAB1459 P0000 T00610033=
201302111453 METAR KCLM 111453Z AUTO 00000KT 10SM OVC015 06/03 A3030 RMK AO2 SLP263 T00610028 58001=
201302111353 METAR KCLM 111353Z AUTO 26003KT 10SM SCT021 BKN026 OVC060 06/02 A3031 RMK AO2 SLP265 T00560022=
201302111253 METAR KCLM 111253Z AUTO 25005KT 10SM FEW022 OVC065 06/02 A3030 RMK AO2 SLP264 T00610022=
201302111251 SPECI KCLM 111251Z AUTO 25006KT 10SM SCT022 OVC065 06/02 A3030 RMK AO2=
201302111153 METAR KCLM 111153Z AUTO 30003KT 10SM BKN018 BKN029 OVC110 06/03 A3031 RMK AO2 SLP266 T00560028 10067 20044 58007=
201302111114 SPECI KCLM 111114Z AUTO 23003KT 10SM OVC028 06/03 A3032 RMK AO2 T00560028=
201302111053 METAR KCLM 111053Z AUTO 00000KT 10SM OVC030 05/03 A3032 RMK AO2 SLP271 T00500028=
201302111003 SPECI KCLM 111003Z AUTO 00000KT 10SM FEW017 SCT024 BKN032 05/02 A3033 RMK AO2 T00500022=
201302110953 METAR KCLM 110953Z AUTO 23003KT 10SM FEW017 BKN023 OVC032 06/03 A3033 RMK AO2 SLP273 T00560028=
201302110853 METAR KCLM 110853Z AUTO 28004KT 10SM OVC032 06/03 A3033 RMK AO2 SLP273 T00610033 53000=
201302110831 SPECI KCLM 110831Z AUTO 23003KT 10SM OVC030 06/03 A3032 RMK AO2 T00560028=
201302110753 METAR KCLM 110753Z AUTO 26006KT 10SM BKN025 OVC029 06/03 A3033 RMK AO2 SLP271 T00610033 400890028=
201302110653 METAR KCLM 110653Z AUTO 28004KT 10SM OVC019 06/04 A3033 RMK AO2 SLP273 T00610039=
201302110553 METAR KCLM 110553Z AUTO 26004KT 10SM OVC021 06/03 A3033 RMK AO2 SLP272 T00610028 10072 20061 58005=
201302110453 METAR KCLM 110453Z AUTO 10SM OVC022 06/03 A3034 RMK AO2 SLP274 T00610028=
201302110353 METAR KCLM 110353Z AUTO 21003KT 10SM OVC019 06/03 A3034 RMK AO2 SLP277 T00610028=
201302110253 METAR KCLM 110253Z AUTO 00000KT 10SM OVC021 06/03 A3034 RMK AO2 SLP277 T00610033 51001=
201302110153 METAR KCLM 110153Z AUTO 00000KT 10SM OVC022 07/03 A3034 RMK AO2 SLP277 T00670033=
201302110053 METAR KCLM 110053Z AUTO 00000KT 10SM OVC023 07/03 A3034 RMK AO2 SLP277 T00670028=
201302102353 METAR KCLM 102353Z AUTO 00000KT 10SM OVC024 07/03 A3034 RMK AO2 SLP276 T00720028 10089 20072 58004=
201302102253 METAR KCLM 102253Z AUTO 00000KT 10SM OVC026 07/03 A3035 RMK AO2 SLP279 T00720028=
201302102204 SPECI KCLM 102204Z AUTO VRB03KT 10SM OVC027 08/03 A3035 RMK AO2 T00780033=
201302102153 METAR KCLM 102153Z AUTO 09005KT 10SM OVC030 08/03 A3035 RMK AO2 SLP279 T00780033=
201302102141 SPECI KCLM 102141Z AUTO 09004KT 10SM OVC030 08/04 A3035 RMK AO2 T00780039=
201302102103 SPECI KCLM 102103Z AUTO 05005KT 10SM BKN025 08/04 A3036 RMK AO2 T00780039=
201302102053 METAR KCLM 102053Z AUTO 05004KT 10SM SCT025 07/04 A3035 RMK AO2 SLP281 T00720039 58006=
201302101953 METAR KCLM 101953Z AUTO 00000KT 10SM CLR 07/03 A3036 RMK AO2 SLP284 T00720033=
201302101933 SPECI KCLM 101933Z AUTO 06003KT 10SM SCT027 08/04 A3037 RMK AO2 T00780039=
201302101853 METAR KCLM 101853Z AUTO 00000KT 10SM BKN027 08/03 A3037 RMK AO2 SLP287 T00780028=
201302101811 SPECI KCLM 101811Z AUTO 00000KT 10SM BKN028 08/02 A3038 RMK AO2 T00830017=
201302101753 METAR KCLM 101753Z AUTO 00000KT 10SM FEW027 08/01 A3037 RMK AO2 SLP287 T00780011 10078 20028 53003=
201302101736 SPECI KCLM 101736Z AUTO 14003KT 10SM SCT027 08/02 A3037=
201302101722 SPECI KCLM 101722Z AUTO 17004KT 10SM BKN027 08/03 A3037 RMK AO2 T00780028=
201302101653 METAR KCLM 101653Z AUTO 00000KT 10SM CLR 05/03 A3037 RMK AO2 SLP285 T00500028=
201302101553 METAR KCLM 101553Z AUTO 19003KT 10SM CLR 03/02 A3037 RMK AO2 SLP284 T00280017=
201302101453 METAR KCLM 101453Z AUTO 00000KT 10SM OVC031 05/03 A3036 RMK AO2 SLP284 T00500028 53003=
201302101353 METAR KCLM 101353Z AUTO 24003KT 10SM OVC030 05/03 A3036 RMK AO2 SLP282 T00500028=
201302101253 METAR KCLM 101253Z AUTO 24004KT 10SM OVC030 05/03 A3036 RMK AO2 SLP282 T00500033=
201302101153 METAR KCLM 101153Z AUTO 00000KT 10SM OVC031 05/04 A3035 RMK AO2 SLP281 T00500039 10061 20044 50001=
201302101053 METAR KCLM 101053Z AUTO 00000KT 10SM OVC032 05/04 A3036 RMK AO2 SLP282 T00500039=
201302100953 METAR KCLM 100953Z AUTO 00000KT 10SM OVC034 05/04 A3035 RMK AO2 SLP281 T00500039=
201302100853 METAR KCLM 100853Z AUTO 18003KT 10SM OVC035 05/04 A3035 RMK AO2 SLP280 T00500039 51009=
201302100753 METAR KCLM 100753Z AUTO 00000KT 10SM OVC035 05/04 A3034 RMK AO2 SLP278 T00500039 400720044=
201302100653 METAR KCLM 100653Z AUTO 00000KT 10SM BKN032 OVC040 06/04 A3034 RMK AO2 SLP275 T00560044=
201302100617 SPECI KCLM 100617Z AUTO 14003KT 10SM OVC030 06/04 A3033 RMK AO2 T00560044=
201302100553 METAR KCLM 100553Z AUTO 00000KT 10SM OVC029 06/04 A3033 RMK AO2 SLP271 60000 T00610039 10072 20061 53010=
201302100453 METAR KCLM 100453Z AUTO 18005KT 8SM SCT018 OVC025 06/04 A3032 RMK AO2 RAB34E50 SLP268 P0000 T00610044=
201302100400 SPECI KCLM 100400Z AUTO 09003KT 10SM BKN015 OVC021 06/04 A3030 RMK AO2 T00610044=
201302100353 METAR KCLM 100353Z AUTO 10003KT 10SM BKN013 OVC021 06/04 A3030 RMK AO2 SLP261 T00610044=
201302100342 SPECI KCLM 100342Z AUTO 11005KT 10SM BKN014 OVC023 06/04 A3030 RMK AO2 T00610044=
201302100253 METAR KCLM 100253Z AUTO 09005KT 10SM FEW007 OVC021 06/04 A3030 RMK AO2 SLP261 T00610044 51005=
201302100153 METAR KCLM 100153Z AUTO 00000KT 10SM OVC020 07/05 A3029 RMK AO2 SLP260 T00670050=
201302100116 SPECI KCLM 100116Z AUTO 12004KT 10SM FEW014 BKN020 OVC033 07/05 A3029 RMK AO2 T00670050=
201302100053 METAR KCLM 100053Z AUTO 09003KT 10SM BKN031 OVC048 07/05 A3029 RMK AO2 SLP259 T00670050=
201302100024 SPECI KCLM 100024Z AUTO 11003KT 10SM FEW006 OVC032 07/05 A3029 RMK AO2 T00720050=
201302100007 SPECI KCLM 100007Z AUTO 11003KT 10SM SCT014 OVC033 07/05 A3028 RMK AO2 T00670050=
201302092353 METAR KCLM 092353Z AUTO 11003KT 10SM BKN013 OVC033 07/05 A3028 RMK AO2 SLP256 60000 T00670050 10072 20056 53005=
201302092303 SPECI KCLM 092303Z AUTO 00000KT 10SM FEW006 BKN012 OVC018 07/05 A3028 RMK AO2 T00670050=
201302092253 METAR KCLM 092253Z AUTO 00000KT 10SM BKN006 OVC013 07/05 A3027 RMK AO2 CIG 004V010 SLP254 T00670050=
201302092236 SPECI KCLM 092236Z AUTO 00000KT 10SM BKN006 OVC009 07/05 A3027 RMK AO2 CIG 004V008 T00720050=
201302092153 METAR KCLM 092153Z AUTO 00000KT 10SM OVC004 07/05 A3026 RMK AO2 SLP249 T00670050=
201302092053 METAR KCLM 092053Z AUTO 10003KT 10SM OVC002 06/05 A3027 RMK AO2 SLP251 60000 T00610050 58004=
201302091953 METAR KCLM 091953Z AUTO 06003KT 4SM BR OVC003 06/05 A3027 RMK AO2 RAE04 SLP252 P0000 T00610050=
201302091922 SPECI KCLM 091922Z AUTO 07003KT 6SM BR OVC003 06/05 A3028 RMK AO2 RAE04 P0000 T00610050=
201302091853 METAR KCLM 091853Z AUTO 00000KT 6SM -RA BR OVC005 06/05 A3028 RMK AO2 RAB04 SLP255 P0000 T00610050=
201302091840 SPECI KCLM 091840Z AUTO 00000KT 9SM -RA OVC004 06/04 A3028 RMK AO2 RAB04 P0000 T00610044=
201302091753 METAR KCLM 091753Z AUTO 00000KT 10SM OVC007 06/03 A3028 RMK AO2 SLP255 T00610033 10061 20044 53008=
201302091653 METAR KCLM 091653Z AUTO 00000KT 10SM OVC008 06/02 A3026 RMK AO2 SLP249 T00560022=
201302091635 SPECI KCLM 091635Z AUTO 27004KT 10SM OVC009 06/02 A3026 RMK AO2 CIG 008V013 T00560017=
201302091553 METAR KCLM 091553Z AUTO 25004KT 10SM FEW009 BKN014 OVC025 05/02 A3025 RMK AO2 SLP246 T00500017=
201302091544 SPECI KCLM 091544Z AUTO 26003KT 10SM SCT009 BKN014 OVC027 05/02 A3025 RMK AO2 T00500017=
201302091453 METAR KCLM 091453Z AUTO 23003KT 9SM OVC006 05/02 A3025 RMK AO2 SLP247 T00500017 58002=
201302091442 SPECI KCLM 091442Z AUTO 24003KT 10SM OVC009 05/02 A3026 RMK AO2 T00500017=
201302091401 SPECI KCLM 091401Z AUTO 00000KT 10SM OVC010 05/02 A3026 RMK AO2 T00500022=
201302091353 METAR KCLM 091353Z AUTO 00000KT 10SM OVC008 05/02 A3026 RMK AO2 CIG 007V012 SLP249 T00500017=
201302091253 METAR KCLM 091253Z AUTO 26006KT 10SM OVC009 06/02 A3026 RMK AO2 SLP248 T00560017=
201302091243 SPECI KCLM 091243Z AUTO 29003KT 10SM OVC009 05/02 A3026 RMK AO2 T00500017=
201302091153 METAR KCLM 091153Z AUTO 24006KT 10SM OVC011 06/01 A3026 RMK AO2 SLP248 T00560011 10056 20033 55002=
201302091143 SPECI KCLM 091143Z AUTO 25007KT 10SM OVC013 06/01 A3026 RMK AO2 T00560011=
201302091135 SPECI KCLM 091135Z AUTO 27006KT 10SM BKN015 OVC029 05/01 A3026 RMK AO2 T00500011=
201302091124 SPECI KCLM 091124Z AUTO 26006KT 10SM SCT017 OVC030 06/01 A3026 RMK AO2 T00560006=
201302091053 METAR KCLM 091053Z AUTO 26007KT 10SM BKN029 OVC075 06/01 A3026 RMK AO2 SLP248 T00560011=
201302091049 SPECI KCLM 091049Z AUTO 26008KT 10SM BKN029 OVC070 06/01 A3026 RMK AO2=
201302090953 METAR KCLM 090953Z AUTO 27004KT 10SM FEW026 OVC075 05/01 A3026 RMK AO2 SLP251 T00500011=
201302090853 METAR KCLM 090853Z AUTO 26006KT 10SM SCT065 OVC085 05/01 A3027 RMK AO2 SLP251 T00500011 50000=
201302090753 METAR KCLM 090753Z AUTO 25008KT 10SM OVC065 04/01 A3027 RMK AO2 SLP251 T00440011 400781017=
201302090653 METAR KCLM 090653Z AUTO 25006KT 10SM OVC070 04/01 A3027 RMK AO2 SLP252 T00440011=
201302090553 METAR KCLM 090553Z AUTO 25007KT 10SM BKN110 04/01 A3027 RMK AO2 SLP251 T00440011 10067 20033 58004=
201302090510 SPECI KCLM 090510Z AUTO 25003KT 10SM FEW010 BKN070 OVC085 04/02 A3028 RMK AO2 T00440017=
201302090453 METAR KCLM 090453Z AUTO 23004KT 10SM BKN010 BKN014 OVC070 04/02 A3028 RMK AO2 SLP256 T00440022=
201302090422 SPECI KCLM 090422Z AUTO 26006KT 10SM BKN013 BKN019 04/02 A3028 RMK AO2 T00390017=
201302090403 SPECI KCLM 090403Z AUTO 22005KT 10SM BKN015 BKN021 OVC120 04/02 A3027 RMK AO2 T00390022=
201302090353 METAR KCLM 090353Z AUTO 23005KT 10SM BKN014 BKN021 BKN120 04/02 A3028 RMK AO2 SLP257 T00390022=
201302090253 METAR KCLM 090253Z AUTO 00000KT 10SM OVC012 04/02 A3028 RMK AO2 SLP256 T00390017 56001=
201302090216 SPECI KCLM 090216Z AUTO 22003KT 10SM OVC014 04/02 A3028 RMK AO2 T00390022=
201302090201 SPECI KCLM 090201Z AUTO 21003KT 10SM BKN015 04/02 A3028 RMK AO2 T00390022=
201302090153 METAR KCLM 090153Z AUTO 00000KT 10SM SCT017 04/02 A3028 RMK AO2 SLP257 T00390022=
201302090150 SPECI KCLM 090150Z AUTO 00000KT 10SM SCT017 04/02 A3028 RMK AO2=
201302090114 SPECI KCLM 090114Z AUTO 00000KT 10SM BKN023 05/02 A3028 RMK AO2 T00500022=
201302090103 SPECI KCLM 090103Z AUTO 00000KT 10SM SCT023 06/02 A3028 RMK AO2 T00560022=
201302090053 METAR KCLM 090053Z AUTO 00000KT 10SM BKN023 06/02 A3028 RMK AO2 SLP256 T00610022=
201302082353 METAR KCLM 082353Z AUTO 00000KT 10SM FEW029 06/03 A3028 RMK AO2 SLP256 T00610028 10078 20044 56001=
201302082312 SPECI KCLM 082312Z AUTO 36004KT 10SM FEW029 07/02 A3028 RMK AO2 T00670022=
201302082253 METAR KCLM 082253Z AUTO 00000KT 10SM BKN029 07/02 A3028 RMK AO2 SLP257 T00720017=
201302082248 SPECI KCLM 082248Z AUTO 00000KT 10SM BKN029 07/02 A3028 RMK AO2=
201302082153 METAR KCLM 082153Z AUTO 01005KT 10SM CLR 07/02 A3028 RMK AO2 SLP257 T00720017=
201302082053 METAR KCLM 082053Z AUTO VRB03KT 10SM CLR 07/02 A3029 RMK AO2 SLP259 T00720022 58002=
201302081953 METAR KCLM 081953Z AUTO 01004KT 10SM CLR 07/01 A3029 RMK AO2 SLP260 T00670011=
201302081853 METAR KCLM 081853Z AUTO 10SM CLR 07/01 A3029 RMK AO2 SLP261 T00670006 $=
201302081753 METAR KCLM 081753Z AUTO 10SM CLR 04/M01 A3030 RMK AO2 SLP261 T00441006 10044 21017 53010 $=
201302081653 METAR KCLM 081653Z AUTO 10SM CLR 02/M01 A3028 RMK AO2 SLP258 T00221011 $=
201302081553 METAR KCLM 081553Z AUTO 10SM CLR 01/M02 A3027 RMK AO2 SLP254 T00061022 $=
201302081453 METAR KCLM 081453Z AUTO 24007KT 10SM CLR 01/M02 A3027 RMK AO2 SLP252 T00061022 53009 $=
201302081353 METAR KCLM 081353Z AUTO 23006KT 10SM CLR 01/M02 A3026 RMK AO2 SLP249 T00111017 $=
201302081253 METAR KCLM 081253Z AUTO 23008KT 10SM CLR 02/M02 A3024 RMK AO2 SLP243 T00171017 $=
201302081153 METAR KCLM 081153Z AUTO 25009KT 10SM CLR 02/M01 A3024 RMK AO2 SLP242 T00221011 10033 20022 51012=
201302081053 METAR KCLM 081053Z AUTO 26011KT 10SM CLR 03/M01 A3023 RMK AO2 SLP239 T00281006=
201302080953 METAR KCLM 080953Z AUTO 24011KT 10SM CLR 03/M01 A3022 RMK AO2 SLP234 T00281006=
201302080853 METAR KCLM 080853Z AUTO 24010KT 10SM CLR 03/00 A3021 RMK AO2 SLP230 T00280000 51009=
201302080753 METAR KCLM 080753Z AUTO 25009KT 10SM CLR 03/01 A3020 RMK AO2 SLP230 T00280006 400780006=
201302080653 METAR KCLM 080653Z AUTO 24008KT 10SM CLR 03/01 A3019 RMK AO2 SLP225 T00280006=
201302080553 METAR KCLM 080553Z AUTO 24007KT 10SM CLR 03/01 A3018 RMK AO2 SLP221 T00330011 10072 20006 53018=
201302080453 METAR KCLM 080453Z AUTO 25007KT 10SM CLR 03/01 A3016 RMK AO2 SLP215 T00280006=
201302080353 METAR KCLM 080353Z AUTO 23006KT 10SM FEW037 02/01 A3014 RMK AO2 SLP208 T00220011=
201302080253 METAR KCLM 080253Z AUTO 21004KT 10SM CLR 02/01 A3013 RMK AO2 SLP204 T00170006 53021=
201302080153 METAR KCLM 080153Z AUTO 23004KT 10SM CLR 03/01 A3010 RMK AO2 SLP196 T00280011=
201302080053 METAR KCLM 080053Z AUTO 00000KT 10SM CLR 06/02 A3007 RMK AO2 SLP185 T00610022=
201302072353 METAR KCLM 072353Z AUTO 25003KT 10SM CLR 07/02 A3006 RMK AO2 SLP182 60000 T00670022 10078 20056 53013=
201302072253 METAR KCLM 072253Z AUTO VRB03KT 10SM CLR 07/02 A3005 RMK AO2 SLP178 T00720022=
201302072153 METAR KCLM 072153Z AUTO 04003KT 10SM SCT024 07/02 A3004 RMK AO2 SLP173 T00670022=
201302072053 METAR KCLM 072053Z AUTO 00000KT 10SM SCT040 SCT060 07/03 A3003 RMK AO2 RAB1956E12B24E49 SLP169 P0000 60000 T00670028 51017=
201302072015 SPECI KCLM 072015Z AUTO 23004KT 10SM SCT023 BKN040 OVC065 06/03 A3003 RMK AO2 RAB1956E12 P0000 T00610028=
201302072007 SPECI KCLM 072007Z AUTO 26004KT 10SM -RA FEW006 BKN023 OVC070 06/03 A3003 RMK AO2 RAB1956 P0000 T00610028=
201302071953 METAR KCLM 071953Z AUTO VRB04KT 10SM BKN024 OVC042 06/02 A3003 RMK AO2 SLP170 T00610022=
201302071939 SPECI KCLM 071939Z AUTO 31004KT 10SM SCT026 SCT031 OVC041 06/02 A3003 RMK AO2 T00610022=
201302071903 SPECI KCLM 071903Z AUTO 34007KT 10SM BKN026 BKN035 07/02 A3001 RMK AO2 T00670017=
201302071853 METAR KCLM 071853Z AUTO VRB05KT 10SM SCT028 SCT036 07/03 A3001 RMK AO2 SLP163 T00720028=
201302071753 METAR KCLM 071753Z AUTO 25006KT 10SM OVC055 07/02 A2997 RMK AO2 SLP152 60000 T00670022 10067 20028 51028=
201302071653 METAR KCLM 071653Z AUTO 00000KT 10SM CLR 04/02 A2995 RMK AO2 SLP143 T00390017=
201302071553 METAR KCLM 071553Z AUTO 06004KT 10SM OVC060 06/01 A2992 RMK AO2 SLP134 T00560011=
201302071453 METAR KCLM 071453Z AUTO 23004KT 10SM OVC060 05/01 A2989 RMK AO2 SLP123 60000 T00500011 53027=
201302071353 METAR KCLM 071353Z AUTO 26016G23KT 10SM CLR 06/01 A2985 RMK AO2 RAE1255 SLP108 P0000 T00610006=
201302071253 METAR KCLM 071253Z AUTO 27011G18KT 10SM -RA SCT028 05/01 A2981 RMK AO2 SLP097 P0000 T00500011=
201302071153 METAR KCLM 071153Z AUTO 32007KT 10SM -RA OVC032 05/02 A2977 RMK AO2 RAB15 SLP081 P0000 60000 T00500017 10072 20028 53023=
201302071053 METAR KCLM 071053Z AUTO 00000KT 10SM CLR 03/02 A2971 RMK AO2 SLP063 T00330022=
201302070953 METAR KCLM 070953Z AUTO 14004KT 10SM CLR 04/03 A2970 RMK AO2 RAE06 SLP059 P0000 T00390028=
201302070853 METAR KCLM 070853Z AUTO 27008KT 10SM -RA BKN045 BKN049 OVC065 07/04 A2970 RMK AO2 RAB40 SLP058 P0000 60000 T00670039 55001=
201302070753 METAR KCLM 070753Z AUTO 00000KT 10SM SCT055 SCT070 04/03 A2966 RMK AO2 SLP044 T00440028 400830028=
201302070653 METAR KCLM 070653Z AUTO 00000KT 10SM OVC065 04/03 A2967 RMK AO2 SLP049 T00440028=
201302070553 METAR KCLM 070553Z AUTO 00000KT 10SM OVC065 06/03 A2970 RMK AO2 SLP059 60000 T00610033 10072 20044 56027=
201302070453 METAR KCLM 070453Z AUTO 00000KT 10SM BKN060 OVC080 05/03 A2972 RMK AO2 SLP067 T00500033=
201302070353 METAR KCLM 070353Z AUTO 00000KT 10SM BKN065 OVC085 06/04 A2975 RMK AO2 SLP075 T00560039=
201302070253 METAR KCLM 070253Z AUTO 00000KT 10SM BKN060 OVC080 06/04 A2978 RMK AO2 RAB07E33 SLP086 P0000 60000 T00560044 58033=
201302070153 METAR KCLM 070153Z AUTO 00000KT 10SM BKN060 OVC080 06/04 A2982 RMK AO2 RAE0059 SLP099 P0000 T00610044=
201302070134 SPECI KCLM 070134Z AUTO 00000KT 10SM SCT011 BKN055 OVC080 07/04 A2982 RMK AO2 RAE0059 P0000 T00670044=
201302070110 SPECI KCLM 070110Z AUTO 00000KT 10SM BKN011 OVC055 07/04 A2984 RMK AO2 RAE0059 P0000 T00720044=
201302070053 METAR KCLM 070053Z AUTO 15003KT 10SM -RA BKN050 OVC060 07/04 A2985 RMK AO2 RAE16B45 SLP110 P0000 T00670044=
201302062353 METAR KCLM 062353Z AUTO 00000KT 10SM -RA SCT012 BKN047 OVC055 07/04 A2988 RMK AO2 RAB11 SLP120 P0000 60000 T00720044 10083 20072 56017=
201302062253 METAR KCLM 062253Z AUTO 00000KT 10SM OVC065 08/04 A2989 RMK AO2 SLP123 T00780044=
201302062153 METAR KCLM 062153Z AUTO 00000KT 10SM OVC070 08/05 A2991 RMK AO2 SLP129 T00780050=
201302062135 SPECI KCLM 062135Z AUTO 00000KT 10SM FEW008 SCT020 OVC070 07/05 A2991 RMK AO2 T00720050=
201302062120 SPECI KCLM 062120Z AUTO 35004KT 10SM FEW008 BKN020 OVC070 07/05 A2992 RMK AO2 T00720050=
201302062053 METAR KCLM 062053Z AUTO 34004KT 10SM BKN009 OVC060 07/05 A2993 RMK AO2 SLP136 T00720050 58011=
201302061953 METAR KCLM 061953Z AUTO 05003KT 10SM SCT070 08/04 A2994 RMK AO2 SLP140 T00830039=
201302061853 METAR KCLM 061853Z AUTO 00000KT 10SM BKN080 BKN120 08/04 A2996 RMK AO2 SLP145 T00780039=
201302061753 METAR KCLM 061753Z AUTO 00000KT 10SM OVC070 07/04 A2996 RMK AO2 SLP147 60000 T00670044 10067 20028 51002=
201302061653 METAR KCLM 061653Z AUTO 00000KT 10SM CLR 04/03 A2996 RMK AO2 SLP146 T00440033=
201302061553 METAR KCLM 061553Z AUTO 24003KT 7SM BKN065 03/02 A2997 RMK AO2 SLP149 T00280022=
201302061453 METAR KCLM 061453Z AUTO 00000KT 10SM BKN065 BKN090 04/03 A2996 RMK AO2 SLP145 60000 T00390033 50008=
201302061353 METAR KCLM 061353Z AUTO 00000KT 10SM FEW045 OVC065 04/03 A2996 RMK AO2 RAB05E24 SLP147 P0000 T00440033=
201302061253 METAR KCLM 061253Z AUTO 23004KT 10SM FEW041 OVC065 05/03 A2995 RMK AO2 RAB23E40 SLP145 P0000 T00500033=
201302061153 METAR KCLM 061153Z AUTO 22005KT 10SM OVC075 04/03 A2993 RMK AO2 SLP138 60000 70013 T00390028 10067 20028 53009=
201302061053 METAR KCLM 061053Z AUTO 00000KT 10SM OVC060 04/03 A2992 RMK AO2 SLP134 T00440033=
201302060953 METAR KCLM 060953Z AUTO 18005KT 10SM FEW041 SCT050 BKN070 05/03 A2991 RMK AO2 RAB00E09 SLP132 P0000 T00500033=
201302060853 METAR KCLM 060853Z AUTO 19003KT 10SM BKN047 OVC070 04/03 A2991 RMK AO2 SLP129 60000 T00440033 53020=
201302060753 METAR KCLM 060753Z AUTO 23005KT 10SM FEW043 06/03 A2987 RMK AO2 RAE41 SLP118 P0000 T00560028 401060022=
201302060653 METAR KCLM 060653Z AUTO 25008KT 10SM -RA BKN046 OVC070 06/03 A2986 RMK AO2 SLP113 P0000 T00560033=
201302060553 METAR KCLM 060553Z AUTO 21007KT 10SM -RA BKN045 OVC060 06/03 A2985 RMK AO2 SLP109 P0000 60013 T00610033 10078 20056 53014=
201302060453 METAR KCLM 060453Z AUTO 24008KT 10SM -RA FEW039 06/03 A2982 RMK AO2 SLP101 P0000 T00610033=
201302060353 METAR KCLM 060353Z AUTO 27005KT 10SM -RA BKN041 OVC050 06/04 A2981 RMK AO2 SLP097 P0006 T00560044=
201302060253 METAR KCLM 060253Z AUTO 24009KT 10SM -RA OVC045 06/04 A2980 RMK AO2 SLP094 P0000 60007 T00610044 53011=
201302060153 METAR KCLM 060153Z AUTO 23004KT 10SM -RA OVC060 07/05 A2979 RMK AO2 RAE18B37 SLP088 P0000 T00670050=
201302060053 METAR KCLM 060053Z AUTO 23003KT 10SM -RA FEW033 BKN049 OVC060 07/06 A2978 RMK AO2 SLP085 P0007 T00720061=
201302060026 SPECI KCLM 060026Z AUTO 16003KT 3SM -RA BR OVC032 07/06 A2978 RMK AO2 P0007 T00720056=
201302060019 SPECI KCLM 060019Z AUTO 30003KT 1 3/4SM +RA BR OVC032 07/06 A2978 RMK AO2 P0006 T00720056=
201302052353 METAR KCLM 052353Z AUTO 27003KT 10SM -RA BKN046 OVC070 08/06 A2977 RMK AO2 RAE2255B30 SLP083 P0000 60000 T00830056 10106 20083 55002=
201302052253 METAR KCLM 052253Z AUTO 00000KT 10SM -RA BKN037 BKN047 BKN060 09/05 A2977 RMK AO2 RAB2158 SLP081 P0000 T00890050=
201302052153 METAR KCLM 052153Z AUTO 00000KT 10SM OVC065 08/05 A2977 RMK AO2 SLP083 T00830050=
201302052053 METAR KCLM 052053Z AUTO 34003KT 10SM CLR 11/04 A2978 RMK AO2 RAE03 SLP084 P0000 60000 T01060039 58006=
201302051953 METAR KCLM 051953Z AUTO 00000KT 10SM -RA FEW026 BKN038 OVC095 09/06 A2980 RMK AO2 RAB43 SLP094 P0000 T00940061=
201302051853 METAR KCLM 051853Z AUTO 06003KT 10SM SCT065 BKN080 09/06 A2980 RMK AO2 SLP093 T00890056=
201302051753 METAR KCLM 051753Z AUTO 11004KT 10SM FEW065 SCT090 OVC110 08/05 A2979 RMK AO2 SLP090 60000 T00830050 10083 20044 53011=
201302051653 METAR KCLM 051653Z AUTO 17004KT 10SM SCT047 SCT055 BKN075 05/04 A2978 RMK AO2 RAB26E42 SLP087 P0000 T00500039=
201302051553 METAR KCLM 051553Z AUTO VRB03KT 10SM FEW050 05/04 A2977 RMK AO2 SLP081 T00500039=
201302051453 METAR KCLM 051453Z AUTO 25006KT 10SM BKN050 BKN070 05/04 A2976 RMK AO2 RAE53 SLP079 P0000 60000 T00500039 58004=
201302051353 METAR KCLM 051353Z AUTO 24003KT 10SM -RA BKN055 OVC070 06/04 A2977 RMK AO2 RAE06B22 SLP083 P0000 T00560044=
201302051253 METAR KCLM 051253Z AUTO 15004KT 9SM -RA BKN050 OVC065 06/04 A2977 RMK AO2 RAB47 SLP084 P0000 T00560044=
201302051153 METAR KCLM 051153Z AUTO 11003KT 10SM SCT036 05/04 A2977 RMK AO2 RAB14E50 SLP083 P0000 60000 T00500044 10067 20022 58009=
201302051112 SPECI KCLM 051112Z AUTO 00000KT 10SM FEW012 BKN055 OVC070 04/03 A2981 RMK AO2 T00440033=
201302051053 METAR KCLM 051053Z AUTO 00000KT 10SM OVC014 04/03 A2980 RMK AO2 SLP094 T00440033=
201302051051 SPECI KCLM 051051Z AUTO 00000KT 10SM OVC014 04/03 A2981 RMK AO2=
201302050953 METAR KCLM 050953Z AUTO 24004KT 10SM BKN015 03/03 A2980 RMK AO2 SLP092 T00330028=
201302050853 METAR KCLM 050853Z AUTO 18003KT 10SM FEW016 BKN100 04/03 A2980 RMK AO2 SLP093 T00440033 55013=
201302050850 SPECI KCLM 050850Z AUTO 16003KT 10SM FEW016 BKN100 04/03 A2980 RMK AO2=
201302050823 SPECI KCLM 050823Z AUTO 15003KT 10SM OVC016 06/04 A2981 RMK AO2 T00610039=
201302050753 METAR KCLM 050753Z AUTO 25004KT 10SM OVC013 06/04 A2984 RMK AO2 SLP105 T00610044 400830033=
201302050653 METAR KCLM 050653Z AUTO 22003KT 10SM OVC012 07/04 A2984 RMK AO2 SLP107 T00670044=
201302050553 METAR KCLM 050553Z AUTO 30005KT 10SM OVC014 07/04 A2987 RMK AO2 SLP118 T00670044 10078 20061 56008=
201302050550 SPECI KCLM 050550Z AUTO 28006KT 10SM OVC014 07/04 A2987 RMK AO2=
201302050512 SPECI KCLM 050512Z AUTO 24006KT 10SM OVC015 06/04 A2989 RMK AO2 T00610044=
201302050502 SPECI KCLM 050502Z AUTO 28004KT 10SM OVC014 06/04 A2989 RMK AO2 T00610044=
201302050453 METAR KCLM 050453Z AUTO 29005KT 10SM OVC015 06/04 A2990 RMK AO2 SLP125 T00610044=
201302050451 SPECI KCLM 050451Z AUTO 29005KT 10SM OVC015 06/04 A2990 RMK AO2=
201302050400 SPECI KCLM 050400Z AUTO 10004KT 10SM OVC013 06/04 A2990 RMK AO2 T00610044=
201302050353 METAR KCLM 050353Z AUTO 09003KT 10SM OVC015 06/04 A2990 RMK AO2 SLP128 T00610044=
201302050306 SPECI KCLM 050306Z AUTO 14004KT 10SM BKN015 OVC070 07/04 A2992 RMK AO2 T00670044=
201302050253 METAR KCLM 050253Z AUTO 14006KT 10SM SCT019 OVC070 07/04 A2992 RMK AO2 PRESFR SLP135 T00670044 58034=
201302050230 SPECI KCLM 050230Z AUTO 16005KT 10SM BKN015 OVC023 07/04 A2995 RMK AO2 T00670044=
201302050153 METAR KCLM 050153Z AUTO 00000KT 10SM OVC013 07/05 A2997 RMK AO2 SLP151 T00720050=
201302050053 METAR KCLM 050053Z AUTO 00000KT 10SM OVC013 07/05 A3000 RMK AO2 SLP160 T00720050=
201302050042 SPECI KCLM 050042Z AUTO 00000KT 10SM OVC014 07/05 A3000 RMK AO2 T00720050=
201302042353 METAR KCLM 042353Z AUTO 15003KT 10SM OVC018 08/05 A3002 RMK AO2 SLP168 T00780050 10083 20072 56020=
201302042253 METAR KCLM 042253Z AUTO 12004KT 10SM BKN015 OVC020 08/05 A3003 RMK AO2 SLP170 T00830050=
201302042222 SPECI KCLM 042222Z AUTO 13003KT 10SM BKN015 OVC095 08/05 A3005 RMK AO2 T00830050=
201302042153 METAR KCLM 042153Z AUTO 08003KT 10SM OVC014 08/05 A3006 RMK AO2 SLP179 T00780050=
201302042053 METAR KCLM 042053Z AUTO 00000KT 10SM OVC013 08/05 A3008 RMK AO2 SLP189 T00780050 58012=
201302041953 METAR KCLM 041953Z AUTO 00000KT 10SM OVC010 08/06 A3011 RMK AO2 CIG 008V013 SLP197 T00780056=
201302041932 SPECI KCLM 041932Z AUTO 30003KT 10SM SCT009 OVC013 08/06 A3012 RMK AO2 T00780056=
201302041853 METAR KCLM 041853Z AUTO 00000KT 10SM OVC013 08/06 A3013 RMK AO2 SLP204 T00780056=
201302041753 METAR KCLM 041753Z AUTO 00000KT 10SM OVC012 07/06 A3012 RMK AO2 SLP201 T00720056 10072 20033 56002=
201302041653 METAR KCLM 041653Z AUTO 00000KT 10SM OVC010 06/04 A3012 RMK AO2 SLP201 T00560044=
201302041627 SPECI KCLM 041627Z AUTO 22003KT 10SM BKN010 OVC085 05/04 A3012 RMK AO2 T00500039=
201302041553 METAR KCLM 041553Z AUTO 00000KT 10SM OVC085 05/03 A3011 RMK AO2 SLP199 T00500033=
201302041453 METAR KCLM 041453Z AUTO 25005KT 10SM FEW055 OVC080 04/03 A3012 RMK AO2 SLP203 T00440033 57008=
201302041438 SPECI KCLM 041438Z AUTO 00000KT 10SM OVC080 04/03 A3012 RMK AO2 T00440033=
201302041431 SPECI KCLM 041431Z AUTO 00000KT 2 1/2SM BR OVC080 04/03 A3011 RMK AO2 T00390033=
201302041353 METAR KCLM 041353Z AUTO 16005KT 10SM OVC090 04/03 A3013 RMK AO2 SLP204 T00390033=
201302041253 METAR KCLM 041253Z AUTO 25003KT 10SM OVC085 05/04 A3015 RMK AO2 SLP210 T00500039=
201302041153 METAR KCLM 041153Z AUTO 35003KT 10SM BKN090 05/04 A3015 RMK AO2 SLP211 T00500039 10067 20044 58009=
201302041053 METAR KCLM 041053Z AUTO 28004KT 10SM FEW004 SCT048 BKN100 06/04 A3017 RMK AO2 SLP218 T00560044=
201302040953 METAR KCLM 040953Z AUTO 00000KT 9SM BKN110 04/04 A3016 RMK AO2 SLP215 T00440039=
201302040853 METAR KCLM 040853Z AUTO 00000KT 10SM OVC120 04/04 A3018 RMK AO2 SLP221 T00440039 55008=
201302040837 SPECI KCLM 040837Z AUTO 00000KT 9SM OVC120 05/04 A3018 RMK AO2 T00500044=
201302040828 SPECI KCLM 040828Z AUTO 31003KT 2SM BR OVC120 04/04 A3017 RMK AO2 VIS 1V5 T00440039=
201302040753 METAR KCLM 040753Z AUTO 12003KT 10SM OVC110 05/04 A3017 RMK AO2 SLP219 T00500044 401000022=
201302040700 METAR KCLM NIL=
201302040653 METAR KCLM 040653Z AUTO 15003KT 10SM OVC044 06/05 A3020 RMK AO2 SLP228 T00610050=
201302040628 SPECI KCLM 040628Z AUTO 00000KT 4SM BR FEW006 OVC044 06/05 A3020 RMK AO2 T00610050=
201302040625 SPECI KCLM 040625Z AUTO 00000KT 1 3/4SM BR FEW006 OVC046 06/06 A3020 RMK AO2 T00610056=
201302040617 SPECI KCLM 040617Z AUTO 00000KT 2 1/2SM BR SCT006 BKN017 OVC044 07/06 A3021 RMK AO2 T00670056=
201302040612 SPECI KCLM 040612Z AUTO 00000KT 10SM BKN006 BKN017 OVC044 07/06 A3021 RMK AO2 T00670056=
201302040605 SPECI KCLM 040605Z AUTO 00000KT 10SM SCT008 BKN017 OVC044 07/06 A3020 RMK AO2 T00670056=
201302040553 METAR KCLM 040553Z AUTO 18003KT 10SM BKN009 OVC017 07/06 A3020 RMK AO2 SLP229 60000 T00670056 10078 20067 55003=
201302040549 SPECI KCLM 040549Z AUTO 00000KT 10SM OVC009 07/06 A3020 RMK AO2=
201302040524 SPECI KCLM 040524Z AUTO 00000KT 9SM SCT006 OVC010 07/06 A3021 RMK AO2 T00670056=
201302040453 METAR KCLM 040453Z AUTO 00000KT 10SM OVC006 07/06 A3021 RMK AO2 RAE50 SLP231 P0000 T00670061=
201302040353 METAR KCLM 040353Z AUTO 00000KT 10SM -RA OVC007 07/06 A3021 RMK AO2 SLP233 P0000 T00670056=
201302040253 METAR KCLM 040253Z AUTO 00000KT 9SM -RA OVC008 07/06 A3023 RMK AO2 SLP237 P0000 60000 T00670056 56005=
201302040153 METAR KCLM 040153Z AUTO 00000KT 10SM -RA OVC009 07/06 A3023 RMK AO2 SLP237 P0000 T00670056=
201302040107 SPECI KCLM 040107Z AUTO 00000KT 10SM -RA BKN009 OVC060 07/06 A3022 RMK AO2 P0000 T00720061=
201302040100 SPECI KCLM 040100Z AUTO 00000KT 10SM -RA SCT009 BKN013 OVC060 07/06 A3023 RMK AO2 P0000 T00720061=
201302040053 METAR KCLM 040053Z AUTO 00000KT 10SM -RA FEW011 SCT047 OVC060 07/06 A3023 RMK AO2 SLP238 P0000 T00720061=
201302032353 METAR KCLM 032353Z AUTO 00000KT 10SM -RA SCT021 OVC038 08/05 A3024 RMK AO2 RAB20 SLP242 P0000 60000 T00780050 10100 20056 53000=
201302032305 SPECI KCLM 032305Z AUTO 00000KT 10SM BKN021 BKN029 OVC060 08/04 A3024 RMK AO2 T00830044=
201302032253 METAR KCLM 032253Z AUTO 00000KT 10SM SCT029 OVC060 08/04 A3024 RMK AO2 SLP242 T00830044=
201302032153 METAR KCLM 032153Z AUTO 03003KT 10SM FEW017 OVC028 09/04 A3023 RMK AO2 SLP240 T00890044=
201302032135 SPECI KCLM 032135Z AUTO 01004KT 10SM SCT020 BKN027 09/04 A3024 RMK AO2 T00890044=
201302032053 METAR KCLM 032053Z AUTO VRB03KT 10SM FEW022 BKN055 09/04 A3024 RMK AO2 SLP242 T00940044 58019=
201302032034 SPECI KCLM 032034Z AUTO 00000KT 10SM SCT022 BKN060 BKN090 09/04 A3025 RMK AO2 T00890044=
201302032012 SPECI KCLM 032012Z AUTO 00000KT 10SM BKN021 BKN065 OVC080 08/04 A3027 RMK AO2 T00780044=
201302031953 METAR KCLM 031953Z AUTO 00000KT 10SM FEW022 BKN075 07/04 A3028 RMK AO2 SLP255 T00720039=
201302031918 SPECI KCLM 031918Z AUTO 00000KT 10SM FEW025 BKN070 07/03 A3027 RMK AO2 T00720033=
201302031853 METAR KCLM 031853Z AUTO 25003KT 10SM BKN023 OVC070 07/04 A3029 RMK AO2 SLP261 T00670039=
201302031753 METAR KCLM 031753Z AUTO 00000KT 10SM CLR 06/03 A3025 RMK AO2 SLP246 T00560033 10056 20022 58003=
201302031653 METAR KCLM 031653Z AUTO 22003KT 10SM CLR 03/03 A3026 RMK AO2 SLP249 T00330028=
201302031610 SPECI KCLM 031610Z AUTO 23006KT 10SM SCT020 03/02 A3026 RMK AO2 T00280017=
201302031553 METAR KCLM 031553Z AUTO 25006KT 10SM BKN019 03/02 A3026 RMK AO2 SLP249 T00280017=
201302031453 METAR KCLM 031453Z AUTO 22004KT 10SM OVC018 03/02 A3026 RMK AO2 SLP250 T00280017 50002=
201302031410 SPECI KCLM 031410Z AUTO 17003KT 10SM SCT011 OVC018 02/01 A3026 RMK AO2 T00220006=
201302031353 METAR KCLM 031353Z AUTO 22003KT 10SM BKN012 OVC019 03/02 A3027 RMK AO2 SLP251 T00280022=
201302031351 SPECI KCLM 031351Z AUTO 21003KT 10SM BKN012 OVC019 03/02 A3027 RMK AO2=
201302031315 SPECI KCLM 031315Z AUTO 17006KT 3SM BR SCT003 OVC015 03/02 A3025 RMK AO2 T00280022=
201302031311 SPECI KCLM 031311Z AUTO 17005KT 2SM BR BKN003 OVC016 03/02 A3025 RMK AO2 T00280022=
201302031253 METAR KCLM 031253Z AUTO 17004KT 1/2SM FG VV003 03/02 A3025 RMK AO2 SLP247 T00330022=
201302031242 SPECI KCLM 031242Z AUTO 12004KT 1/2SM FG VV002 03/02 A3025 RMK AO2 T00330022=
201302031221 SPECI KCLM 031221Z AUTO 00000KT 1/4SM FG VV002 03/03 A3025 RMK AO2 T00330028=
201302031213 SPECI KCLM 031213Z AUTO 00000KT 1/2SM FG VV002 03/02 A3026 RMK AO2 T00330022=
201302031204 SPECI KCLM 031204Z AUTO 00000KT 1 1/2SM BR OVC002 03/02 A3026 RMK AO2 T00280022=
201302031153 METAR KCLM 031153Z AUTO 00000KT 4SM BR OVC002 03/02 A3025 RMK AO2 SLP246 T00330022 10039 20033 56013=
201302031131 SPECI KCLM 031131Z AUTO VRB03KT 3SM BR OVC002 03/03 A3026 RMK AO2 T00330033=
201302031119 SPECI KCLM 031119Z AUTO 20004KT 1SM BR VV002 03/03 A3025 RMK AO2 T00330028=
201302031107 SPECI KCLM 031107Z AUTO 22004KT 1/2SM FG VV002 03/03 A3025 RMK AO2 T00330028=
201302031053 METAR KCLM 031053Z AUTO 21004KT 1/4SM FG VV002 03/03 A3025 RMK AO2 SLP247 T00330028=
201302031020 SPECI KCLM 031020Z AUTO 18004KT 1/2SM FG VV002 04/03 A3026 RMK AO2 T00390028=
201302031002 SPECI KCLM 031002Z AUTO 17004KT 1/4SM FG VV002 04/03 A3026 RMK AO2 T00390028=
201302030953 METAR KCLM 030953Z AUTO 15003KT 1/2SM FG VV002 04/03 A3025 RMK AO2 SLP246 T00390028=
201302030853 METAR KCLM 030853Z AUTO 23005KT 1/2SM FG VV003 03/03 A3029 RMK AO2 SLP259 T00330028 53010=
201302030846 SPECI KCLM 030846Z AUTO 23003KT 1/2SM FG VV002 03/03 A3028 RMK AO2 T00330028=
201302030753 METAR KCLM 030753Z AUTO 00000KT 1/4SM FG VV002 04/03 A3025 RMK AO2 SLP247 T00390033 400780006=
201302030653 METAR KCLM 030653Z AUTO 00000KT 3/4SM BR OVC002 03/03 A3025 RMK AO2 SLP246 T00330033=
201302030628 SPECI KCLM 030628Z AUTO 12003KT 1 1/4SM BR OVC003 03/03 A3025 RMK AO2 T00330028=
201302030618 SPECI KCLM 030618Z AUTO 17006KT 2 1/2SM BR OVC003 03/02 A3025 RMK AO2 T00330022=
201302030553 METAR KCLM 030553Z AUTO 00000KT 7SM OVC003 02/01 A3026 RMK AO2 CIG 002V007 SLP249 T00170011 10056 20006 55002=
201302030550 SPECI KCLM 030550Z AUTO 00000KT 6SM BR BKN003 01/01 A3026 RMK AO2 CIG 002V007=
201302030542 SPECI KCLM 030542Z AUTO 16003KT 6SM BR BKN005 02/01 A3025 RMK AO2 CIG 003V007 T00170011=
201302030453 METAR KCLM 030453Z AUTO 00000KT 4SM BR FEW005 01/00 A3024 RMK AO2 SLP243 T00110000=
201302030353 METAR KCLM 030353Z AUTO 00000KT 8SM CLR 02/01 A3026 RMK AO2 SLP250 T00220011=
201302030319 SPECI KCLM 030319Z AUTO 00000KT 6SM BR SCT006 03/02 A3027 RMK AO2 T00280017=
201302030253 METAR KCLM 030253Z AUTO 19003KT 8SM BKN007 03/02 A3026 RMK AO2 SLP250 T00280017 53005=
201302030238 SPECI KCLM 030238Z AUTO 21003KT 10SM SCT007 03/02 A3027 RMK AO2 T00280022=
201302030153 METAR KCLM 030153Z AUTO 00000KT 10SM CLR 04/03 A3025 RMK AO2 SLP245 T00440028=
201302030053 METAR KCLM 030053Z AUTO 00000KT 10SM CLR 06/03 A3024 RMK AO2 SLP243 T00560033=
201302022353 METAR KCLM 022353Z AUTO 08004KT 10SM CLR 07/04 A3025 RMK AO2 SLP245 T00720039 10078 20061 56016=
201302022324 SPECI KCLM 022324Z AUTO 00000KT 10SM SCT009 07/04 A3025 RMK AO2 T00720044=
201302022253 METAR KCLM 022253Z AUTO 08003KT 10SM OVC010 07/04 A3025 RMK AO2 SLP247 T00720039=
201302022238 SPECI KCLM 022238Z AUTO 07003KT 10SM OVC009 07/04 A3026 RMK AO2 T00720044=
201302022153 METAR KCLM 022153Z AUTO 10004KT 10SM OVC010 07/04 A3027 RMK AO2 SLP251 T00720039=
201302022121 SPECI KCLM 022121Z AUTO 08005KT 10SM OVC010 07/04 A3028 RMK AO2 CIG 008V012 T00670039=
201302022053 METAR KCLM 022053Z AUTO 08005KT 10SM OVC008 07/04 A3030 RMK AO2 SLP261 T00670039 58013=
201302021953 METAR KCLM 021953Z AUTO 12004KT 10SM OVC009 07/04 A3031 RMK AO2 SLP267 T00670039=
201302021853 METAR KCLM 021853Z AUTO 11003KT 10SM OVC008 07/04 A3033 RMK AO2 SLP273 T00670039=
201302021801 SPECI KCLM 021801Z AUTO 10004KT 10SM OVC009 07/04 A3033 RMK AO2 T00670039=
201302021753 METAR KCLM 021753Z AUTO 08004KT 10SM OVC010 07/04 A3033 RMK AO2 SLP274 T00670039 10067 20061 56003=
201302021723 SPECI KCLM 021723Z AUTO 08005KT 10SM OVC010 06/04 A3034 RMK AO2 CIG 008V011 T00610039=
201302021705 SPECI KCLM 021705Z AUTO 09004KT 10SM OVC009 06/04 A3034 RMK AO2 CIG 008V013 T00610039=
201302021653 METAR KCLM 021653Z AUTO 11004KT 10SM OVC011 07/04 A3034 RMK AO2 CIG 008V013 SLP276 T00670039=
201302021645 SPECI KCLM 021645Z AUTO 12003KT 10SM OVC011 07/04 A3034 RMK AO2 T00670039=
201302021553 METAR KCLM 021553Z AUTO 10005KT 10SM OVC007 06/04 A3034 RMK AO2 SLP275 T00610044=
201302021511 SPECI KCLM 021511Z AUTO 10005KT 10SM OVC009 06/04 A3034 RMK AO2 T00610039=
201302021453 METAR KCLM 021453Z AUTO 10003KT 10SM OVC010 06/04 A3034 RMK AO2 SLP277 T00610044 56012=
201302021442 SPECI KCLM 021442Z AUTO 11003KT 10SM OVC010 07/04 A3034 RMK AO2 T00670044=
201302021353 METAR KCLM 021353Z AUTO 12004KT 10SM OVC005 06/04 A3035 RMK AO2 CIG 004V008 SLP278 T00610044=
201302021327 SPECI KCLM 021327Z AUTO 12004KT 10SM OVC005 07/05 A3035 RMK AO2 T00670050=
201302021253 METAR KCLM 021253Z AUTO 09006KT 10SM OVC004 06/05 A3036 RMK AO2 SLP283 T00610050=
201302021206 SPECI KCLM 021206Z AUTO 09007KT 10SM OVC003 06/05 A3037 RMK AO2 CIG 003V008 T00610050=
201302021153 METAR KCLM 021153Z AUTO 10006KT 10SM OVC005 07/05 A3038 RMK AO2 CIG 003V008 SLP289 T00670050 10072 20067 58008=
201302021134 SPECI KCLM 021134Z AUTO 09006KT 10SM BKN005 OVC012 07/05 A3038 RMK AO2 CIG 004V009 T00670050=
201302021105 SPECI KCLM 021105Z AUTO 10004KT 10SM FEW007 OVC013 07/04 A3039 RMK AO2 T00670044=
201302021053 METAR KCLM 021053Z AUTO 09005KT 10SM OVC014 07/04 A3039 RMK AO2 SLP294 T00670044=
201302021011 SPECI KCLM 021011Z AUTO 09004KT 10SM OVC014 07/04 A3040 RMK AO2 T00670039=
201302020953 METAR KCLM 020953Z AUTO 09005KT 10SM OVC015 07/04 A3040 RMK AO2 SLP297 T00670039=
201302020853 METAR KCLM 020853Z AUTO 09003KT 10SM OVC015 07/03 A3040 RMK AO2 SLP298 T00670033 57001=
201302020844 SPECI KCLM 020844Z AUTO 00000KT 10SM OVC015 07/03 A3040 RMK AO2 T00670033=
201302020753 METAR KCLM 020753Z AUTO 11005KT 10SM OVC014 07/04 A3040 RMK AO2 SLP297 T00670044 400830017=
201302020653 METAR KCLM 020653Z AUTO 08004KT 10SM FEW009 OVC016 07/05 A3041 RMK AO2 SLP299 T00720050=
201302020553 METAR KCLM 020553Z AUTO 11004KT 10SM OVC019 07/04 A3041 RMK AO2 SLP299 T00720044 10078 20072 50000=
201302020453 METAR KCLM 020453Z AUTO 12004KT 10SM OVC020 07/05 A3040 RMK AO2 SLP297 T00720050=
201302020353 METAR KCLM 020353Z AUTO 12003KT 10SM OVC020 07/05 A3041 RMK AO2 SLP301 T00720050=
201302020253 METAR KCLM 020253Z AUTO 10005KT 10SM OVC018 08/05 A3041 RMK AO2 SLP299 T00780050 53002=
201302020153 METAR KCLM 020153Z AUTO 10003KT 10SM OVC019 08/06 A3041 RMK AO2 SLP299 T00780056=
201302020053 METAR KCLM 020053Z AUTO 09005KT 10SM FEW005 FEW009 OVC021 08/06 A3040 RMK AO2 SLP297 T00780061=
201302020009 SPECI KCLM 020009Z AUTO 09006KT 10SM SCT007 OVC019 08/06 A3040 RMK AO2 T00780056=
201302012353 METAR KCLM 012353Z AUTO 07004KT 10SM BKN007 OVC019 08/06 A3040 RMK AO2 CIG 004V010 SLP297 T00780061 10083 20056 50003=
201302012351 SPECI KCLM 012351Z AUTO 06004KT 10SM BKN007 OVC019 08/06 A3040 RMK AO2 CIG 004V010=
201302012307 SPECI KCLM 012307Z AUTO 08006KT 10SM FEW008 OVC019 08/06 A3040 RMK AO2 T00780056=
201302012253 METAR KCLM 012253Z AUTO 08006KT 10SM OVC019 08/06 A3040 RMK AO2 SLP295 T00780056=
201302012239 SPECI KCLM 012239Z AUTO 08005KT 10SM FEW007 OVC020 08/06 A3040 RMK AO2 T00780056=
201302012153 METAR KCLM 012153Z AUTO VRB03KT 10SM OVC018 08/05 A3039 RMK AO2 SLP295 T00830050=
201302012053 METAR KCLM 012053Z AUTO 09005KT 10SM OVC016 08/04 A3040 RMK AO2 SLP296 T00830044 58004=
201302011953 METAR KCLM 011953Z AUTO 11003KT 10SM OVC017 08/04 A3041 RMK AO2 SLP299 T00780044=
201302011853 METAR KCLM 011853Z AUTO 00000KT 10SM OVC019 07/04 A3042 RMK AO2 SLP304 T00670039=
201302011753 METAR KCLM 011753Z AUTO 23004KT 10SM OVC017 06/03 A3041 RMK AO2 SLP301 T00560033 10056 20017 53015=
201302011653 METAR KCLM 011653Z AUTO 24005KT 10SM OVC019 04/03 A3039 RMK AO2 SLP293 T00440028=
201302011553 METAR KCLM 011553Z AUTO 22003KT 10SM OVC018 03/02 A3038 RMK AO2 SLP288 T00330022=
201302011453 METAR KCLM 011453Z AUTO 24004KT 10SM OVC018 02/02 A3037 RMK AO2 SLP285 T00220017 56002=
201302011435 SPECI KCLM 011435Z AUTO 00000KT 10SM BKN020 03/01 A3037 RMK AO2 T00280011=
201302011353 METAR KCLM 011353Z AUTO 24004KT 10SM CLR 02/01 A3037 RMK AO2 SLP286 T00220011=
201302011253 METAR KCLM 011253Z AUTO 24004KT 10SM SCT017 03/02 A3037 RMK AO2 SLP285 T00280022=
201302011153 METAR KCLM 011153Z AUTO 23005KT 10SM OVC018 05/03 A3037 RMK AO2 SLP287 60000 T00500028 10072 20050 50006=
201302011053 METAR KCLM 011053Z AUTO 24006KT 10SM OVC017 06/04 A3037 RMK AO2 SLP287 T00560039=
201302011023 SPECI KCLM 011023Z AUTO 24004KT 10SM FEW007 OVC017 06/04 A3037 RMK AO2 T00560044=
201302011010 SPECI KCLM 011010Z AUTO 24005KT 10SM BKN008 OVC017 06/05 A3037 RMK AO2 T00560050=
201302011001 SPECI KCLM 011001Z AUTO 25004KT 10SM SCT007 BKN015 OVC022 06/05 A3037 RMK AO2 T00610050=
201302010953 METAR KCLM 010953Z AUTO 26003KT 10SM BKN007 OVC012 06/05 A3036 RMK AO2 SLP283 T00610050=
201302010931 SPECI KCLM 010931Z AUTO 21003KT 5SM BR BKN008 OVC015 06/06 A3035 RMK AO2 T00610056=
201302010853 METAR KCLM 010853Z AUTO 27006KT 8SM SCT007 OVC023 07/05 A3035 RMK AO2 RAB18E28 SLP280 P0000 60000 T00670050 51014=
201302010850 SPECI KCLM 010850Z AUTO 27005KT 10SM SCT008 BKN020 OVC026 07/05 A3036 RMK AO2 RAB18E28 P0000=
201302010842 SPECI KCLM 010842Z AUTO 27005KT 10SM BKN008 BKN014 OVC021 07/05 A3036 RMK AO2 RAB18E28 P0000 T00670050=
201302010835 SPECI KCLM 010835Z AUTO 25005KT 10SM FEW006 SCT010 OVC021 07/05 A3035 RMK AO2 RAB18E28 P0000 T00670050=
201302010753 METAR KCLM 010753Z AUTO 00000KT 10SM OVC008 07/05 A3034 RMK AO2 CIG 007V011 SLP278 T00670050 401060061=
201302010721 SPECI KCLM 010721Z AUTO 24003KT 10SM OVC008 07/05 A3033 RMK AO2 CIG 006V010 T00670050=
201302010653 METAR KCLM 010653Z AUTO 26004KT 10SM OVC011 07/06 A3033 RMK AO2 CIG 007V012 SLP270 T00720056=
201302010553 METAR KCLM 010553Z AUTO 29003KT 10SM OVC012 07/06 A3031 RMK AO2 SLP267 T00670056 10100 20067 54000=
201302010453 METAR KCLM 010453Z AUTO 27006KT 10SM SCT008 OVC014 07/06 A3031 RMK AO2 SLP267 T00720056=
201302010450 SPECI KCLM 010450Z AUTO 28007KT 10SM SCT008 OVC014 07/06 A3031 RMK AO2=
201302010430 SPECI KCLM 010430Z AUTO 26005KT 10SM BKN006 OVC012 07/06 A3031 RMK AO2 CIG 003V009 T00720061=
201302010414 SPECI KCLM 010414Z AUTO 28007KT 10SM OVC004 07/06 A3031 RMK AO2 CIG 003V009 T00720061=
201302010353 METAR KCLM 010353Z AUTO 29006KT 7SM BKN007 OVC012 07/06 A3031 RMK AO2 CIG 004V009 SLP267 T00720061=
201302010316 SPECI KCLM 010316Z AUTO 32008KT 9SM BKN005 OVC009 08/07 A3031 RMK AO2 CIG 003V008 T00780067=
201302010253 METAR KCLM 010253Z AUTO 32007KT 10SM OVC003 08/07 A3030 RMK AO2 SLP263 T00780067 51006=
201302010153 METAR KCLM 010153Z AUTO 31006KT 10SM OVC003 08/07 A3030 RMK AO2 SLP261 T00830072=
201302010142 SPECI KCLM 010142Z AUTO 30006KT 10SM BKN004 BKN008 OVC013 08/07 A3030 RMK AO2 T00830072=
201302010123 SPECI KCLM 010123Z AUTO 32004KT 10SM FEW006 OVC013 09/07 A3030 RMK AO2 T00890072=
201302010053 METAR KCLM 010053Z AUTO 00000KT 10SM OVC012 09/07 A3030 RMK AO2 SLP260 T00890072=
201302010034 SPECI KCLM 010034Z AUTO 00000KT 10SM OVC013 09/07 A3029 RMK AO2 T00940072=
201302010010 SPECI KCLM 010010Z AUTO 00000KT 10SM OVC015 10/07 A3029 RMK AO2 T01000067=

# No short TAF reports from KCLM in databse.

###################################
#  large TAF from KCLM
###################################
201302282336 TAF KCLM 282336Z 0100/0124 08004KT P6SM VCSH OVC004 FM010200 27002KT
                       4SM -RA BR OVC003 FM011700 VRB03KT P6SM
                       VCSH OVC003 FM012100 33005KT P6SM OVC007=
201302282018 TAF AMD KCLM 282018Z 2820/0118 34008KT P6SM -RA BKN004 OVC009 FM282300
                       VRB03KT 5SM -RA BR OVC025=
201302281724 TAF KCLM 281724Z 2818/0118 25005KT P6SM -RA OVC060 FM282100 VRB03KT
                       5SM -RA BR OVC025=
201302281120 TAF KCLM 281120Z 2812/0112 VRB03KT P6SM -RA BKN050 OVC070 FM281800
                       VRB03KT P6SM -RA OVC030 FM282100 VRB03KT
                       5SM -RA BR OVC025=
201302280531 TAF KCLM 280531Z 2806/0106 VRB03KT P6SM SCT050 OVC080 FM281000
                       VRB03KT P6SM -RA OVC050 FM281800 VRB03KT
                       P6SM -RA OVC030=
201302280306 TAF AMD KCLM 280306Z 2803/2824 VRB03KT P6SM -RA BKN040 OVC070 FM281000
                       12002KT P6SM -RA OVC040 FM281800 05002KT
                       4SM -RA BR OVC015=
201302272331 TAF KCLM 272331Z 2800/2824 03003KT P6SM VCSH BKN045 OVC100 FM281000
                       12002KT P6SM -RA OVC040 FM281800 05002KT
                       4SM -RA BR OVC015=
201302271739 TAF KCLM 271739Z 2718/2818 13006KT P6SM SCT120 BKN250 FM280100
                       17002KT P6SM BKN070 OVC120 FM281100 21003KT
                       P6SM -RA BKN025 OVC050 FM281600 12002KT
                       4SM -RA BR OVC025=
201302271142 TAF KCLM 271142Z 2712/2812 VRB04KT P6SM OVC060 FM271800 VRB03KT
                       P6SM BKN060 OVC120 FM280300 VRB03KT P6SM
                       OVC050 FM280500 VRB03KT P6SM -RA OVC040=
201302270529 TAF KCLM 270529Z 2706/2806 23004KT P6SM SCT030 BKN050 OVC070
                      TEMPO 2706/2708 -RA BKN030 OVC050 FM270800
                       24006KT P6SM SCT025 BKN045 FM271500 24005KT
                       P6SM BKN035 BKN100 FM272100 VRB02KT P6SM
                       SCT050 BKN100=
201302262332 TAF KCLM 262332Z 2700/2724 00000KT P6SM BKN060 OVC070 FM270300
                       23004KT P6SM -RA BKN025 OVC050 FM270800
                       27006KT P6SM -SHRA SCT025 BKN045 FM271500
                       27005KT P6SM SCT035 BKN100 FM272100 VRB02KT
                       P6SM SCT050 BKN200=
201302261732 TAF KCLM 261732Z 2618/2718 21003KT P6SM BKN120 FM262100 VRB03KT
                       P6SM BKN050 OVC080 FM270200 VRB03KT P6SM
                       VCSH BKN040 OVC070 FM270700 16008KT P6SM
                       -RA BKN025 OVC040=
201302261131 TAF KCLM 261131Z 2612/2712 24008KT P6SM BKN200 FM262100 VRB03KT
                       P6SM BKN050 OVC080
                      TEMPO 2622/2702 -RA FM270200 VRB03KT P6SM
                       -RA BKN040 OVC070=
201302260532 TAF KCLM 260532Z 2606/2706 26011KT P6SM FEW045 SCT200 FM261200
                       24008KT P6SM BKN050 BKN200 FM262200 VRB03KT
                       P6SM BKN050 OVC080
                      TEMPO 2622/2702 -RA FM270200 VRB03KT P6SM
                       -RA BKN040 OVC070=
201302252331 TAF KCLM 252331Z 2600/2624 28014G27KT P6SM SKC FM260600 24011KT
                       P6SM SCT250 FM261700 15002KT P6SM SCT250
                       FM261900 03003KT P6SM BKN050 OVC120=
201302251727 TAF KCLM 251727Z 2518/2618 26023G33KT P6SM VCSH OVC060 FM252300
                       26015KT P6SM BKN060 FM260300 24005KT P6SM
                       SCT200=
201302251141 TAF KCLM 251141Z 2512/2612 27016G26KT P6SM -SHRA SCT025 BKN040
                       FM251800 28018G28KT P6SM VCSH SCT030 FM260300
                       24005KT P6SM SCT200=
201302250544 TAF KCLM 250544Z 2506/2606 19005KT P6SM -RA BKN060 FM251000 27020G30KT
                       P6SM -SHRA SCT025 BKN040 FM251800 28018G28KT
                       P6SM VCSH SCT030 FM260300 26008KT P6SM SKC=
201302242350 TAF KCLM 242350Z 2500/2524 VRB04KT P6SM OVC050 FM250600 24010KT
                       P6SM -RA SCT025 BKN040 FM251000 27020G30KT
                       P6SM -SHRA SCT025 BKN040 FM251800 28018G28KT
                       P6SM VCSH SCT025 BKN060=
201302241743 TAF KCLM 241743Z 2418/2518 VRB04KT P6SM OVC050 FM250600 27013G24KT
                       P6SM -SHRA SCT025 BKN040 FM251000 27016G28KT
                       P6SM -SHRA SCT025 BKN040=
201302241142 TAF KCLM 241142Z 2412/2512 20004KT P6SM VCSH SCT035 OVC050 FM241500
                       VRB03KT P6SM -RA OVC050 FM250700 27015G25KT
                       P6SM -SHRA SCT025 BKN040=
201302240548 TAF KCLM 240548Z 2406/2506 24008KT P6SM VCSH SCT030 BKN050 FM241500
                       VRB03KT P6SM -RA OVC050=
201302232338 TAF KCLM 232338Z 2400/2424 27014G22KT P6SM SCT030 BKN080 BKN200
                       FM240400 24008KT P6SM SCT030 BKN070 FM240900
                       24004KT P6SM -RA OVC050 FM241500 VRB04KT
                       P6SM VCSH BKN050 BKN080 FM242000 VRB04KT
                       P6SM -RA OVC045=
201302231753 TAF KCLM 231753Z 2318/2418 25010KT P6SM SCT030 SCT080 BKN200 FM240400
                       24005KT P6SM BKN070 FM240900 24004KT P6SM
                       -RA OVC050 FM241500 VRB04KT P6SM VCSH BKN050
                       BKN080=
201302231633 TAF AMD KCLM 231633Z 2317/2412 25013G22KT P6SM SCT030 SCT080 BKN200
                       FM240400 24005KT P6SM BKN070 FM240900 19004KT
                       P6SM -RA OVC050=
201302231145 TAF KCLM 231145Z 2312/2412 26012G20KT P6SM -SHRA SCT020 BKN030
                       BKN060 FM231700 27013G22KT P6SM BKN200 FM240400
                       24005KT P6SM BKN070 FM240900 19004KT P6SM
                       -RA OVC050=
201302230539 TAF KCLM 230539Z 2306/2406 26012G20KT P6SM SCT035 BKN060
                      TEMPO 2306/2310 6SM -SHRA BR SCT020 BKN035
                       FM231700 27013G22KT P6SM SCT100 FM240400
                       24005KT P6SM BKN070=
201302222336 TAF KCLM 222336Z 2300/2324 28013G22KT P6SM VCSH BKN040 OVC050
                      TEMPO 2300/2304 -SHRA OVC030 FM230600 27011KT
                       P6SM BKN050=
201302221728 TAF KCLM 221728Z 2218/2318 VRB03KT 5SM RA BR FEW011 BKN025 OVC030
                       TEMPO 2218/2219 5SM -RA BR BKN014 OVC030
                       FM222000 27015G25KT P6SM VCSH SCT025 BKN045
                       FM230300 26012KT P6SM -SHRA SCT018 BKN035
                       FM231200 27007KT P6SM VCSH SCT020 BKN035=
201302221143 TAF KCLM 221143Z 2212/2312 13005KT P6SM -RA SCT015 BKN025 OVC060
                       TEMPO 2215/2219 5SM -RA BR BKN014 OVC030
                       FM222000 27015G25KT P6SM VCSH SCT025 BKN045
                       FM230300 26012KT P6SM -SHRA SCT018 BKN035=
201302220551 TAF KCLM 220551Z 2206/2306 VRB03KT P6SM VCSH BKN050 OVC100 FM221000
                       VRB03KT P6SM -RA OVC050
                      TEMPO 2215/2219 5SM -RA BR BKN035 OVC050
                       FM222000 27015G25KT P6SM -SHRA SCT025 BKN045
                       FM230300 26012KT P6SM -SHRA SCT018 BKN035=
201302212335 TAF KCLM 212335Z 2200/2224 00000KT P6SM VCSH BKN050 OVC070 FM220600
                       VRB03KT P6SM -RA OVC045 FM222200 27015G25KT
                       P6SM -SHRA BKN035 BKN060=
201302211730 TAF KCLM 211730Z 2118/2218 12005KT P6SM -RA BKN030 OVC040 FM212000
                       28008KT P6SM VCSH SCT050 BKN080 FM220600
                       VRB03KT P6SM -RA OVC045=
201302211146 TAF KCLM 211146Z 2112/2212 23003KT P6SM VCSH OVC080 FM211600 24005KT
                       P6SM -RA OVC045 FM212000 28008KT P6SM VCSH
                       SCT050 BKN080 FM220600 VRB03KT P6SM -RA
                       OVC045=
201302210541 TAF KCLM 210541Z 2106/2206 23005KT P6SM VCSH SCT035 OVC060 FM211600
                       24005KT P6SM -RA OVC045 FM212000 28008KT
                       P6SM VCSH SCT050 BKN080=
201302202345 TAF KCLM 202345Z 2100/2124 VRB04KT P6SM -RA SCT030 OVC050
                      TEMPO 2100/2102 BKN030 OVC050 FM210200 VRB04KT
                       P6SM -RA SCT015 OVC030 FM210600 23005KT
                       6SM BR BKN015 OVC030
                      TEMPO 2106/2110 4SM -DZ BR FM211800 25007KT
                       4SM -RA BR SCT008 OVC015=
201302202138 KCLM 202138Z 2022/2118 VRB03KT P6SM FEW030 OVC050
                      TEMPO 2022/2024 -RA FM210000 VRB03KT P6SM
                       VCSH SCT030 OVC050
                      TEMPO 2100/2104 BKN030 OVC050 FM211200 23005KT
                       P6SM SCT015 OVC030
                      PROB30 2112/2118 -RA AMD NOT SKED=
201302201736 TAF KCLM 201736Z 2018/2118 25005KT P6SM SCT050 OVC130 FM202000
                       VRB03KT P6SM FEW030 OVC050
                      TEMPO 2020/2024 -RA FM210000 VRB03KT P6SM
                       VCSH SCT030 OVC050
                      TEMPO 2100/2104 BKN030 OVC050 FM211200 23005KT
                       P6SM SCT015 OVC030
                      PROB30 2112/2118 -RA=
201302201519 TAF AMD KCLM 201519Z 2015/2112 23006KT P6SM FEW030 SCT060 OVC130
                       TEMPO 2016/2018 FEW030 BKN060 OVC130 FM201800
                       VRB04KT P6SM FEW030 BKN060 FM202200 VRB04KT
                       P6SM -RA SCT030 OVC060 FM210400 24006KT
                       P6SM VCSH BKN035 BKN080=
201302201133 TAF KCLM 201133Z 2012/2112 25009KT P6SM SCT025 SCT100 BKN200
                      TEMPO 2012/2014 BKN025 FM201800 VRB04KT P6SM
                       FEW030 BKN060 FM202200 VRB04KT P6SM -RA
                       SCT030 OVC060 FM210400 24006KT P6SM VCSH
                       BKN035 BKN080=
201302200547 TAF KCLM 200547Z 2006/2106 25007KT P6SM FEW070 SCT200 FM201200
                       VRB04KT P6SM SCT070 BKN100 OVC200 FM201800
                       VRB04KT P6SM FEW030 BKN060 FM202200 VRB04KT
                       P6SM -RA SCT030 OVC060 FM210400 24006KT
                       P6SM VCSH SCT030 BKN080=
201302192335 TAF KCLM 192335Z 2000/2024 VRB03KT P6SM SCT030 SCT070
                      TEMPO 2000/2002 BKN030 BKN070 FM200200 VRB03KT
                       P6SM FEW070 SCT200 FM201200 VRB03KT P6SM
                       BKN060 BKN110 OVC200 FM201800 VRB03KT P6SM
                       SCT030 OVC060
                      PROB30 2018/2024 -RA BKN030 OVC060=
201302192230 TAF AMD KCLM 192230Z 1923/2018 VRB05KT P6SM SCT028 BKN070
                      TEMPO 1923/1924 BKN028 BKN070 FM200000 29005KT
                       P6SM SCT070 FM200600 VRB03KT P6SM SCT070
                       SCT200 FM201200 VRB03KT P6SM BKN060 BKN110
                       OVC200=
201302192124 TAF AMD KCLM 192124Z 1921/2018 VRB05KT P6SM VCSH BKN028 BKN050
                       FM192200 29008KT P6SM VCSH SCT035 BKN070
                       FM200000 29005KT P6SM SCT070 FM200600 VRB03KT
                       P6SM SCT070 SCT200 FM201200 VRB03KT P6SM
                       BKN060 BKN110 OVC200=
201302191743 TAF KCLM 191743Z 1918/2018 25008KT P6SM VCSH SCT012 OVC028
                      TEMPO 1918/1920 -SHRA BKN012 OVC028 FM192000
                       29008KT P6SM VCSH BKN028 BKN050 FM192200
                       29008KT P6SM VCSH SCT035 BKN070 FM200000
                       29005KT P6SM SCT070 FM200600 VRB03KT P6SM
                       SCT070 SCT200 FM201200 VRB03KT P6SM BKN060
                       BKN110 OVC200=
201302191137 TAF KCLM 191137Z 1912/2012 20003KT P6SM SCT018 BKN100
                      TEMPO 1912/1916 OVC018 FM191800 30007KT P6SM
                       BKN100 FM192000 31006KT P6SM SCT100 FM200300
                       25006KT P6SM FEW100=
201302190537 TAF KCLM 190537Z 1906/2006 VRB04KT P6SM VCSH SCT045 OVC080
                      TEMPO 1906/1910 -SHRA OVC045 FM191200 20003KT
                       P6SM SCT050 BKN100 FM191800 30007KT P6SM
                       BKN100 FM192000 31006KT P6SM SCT100=
201302182320 TAF KCLM 182320Z 1900/1924 33004KT P6SM VCSH SCT025 OVC060 FM190800
                       20003KT P6SM OVC050 FM191800 30007KT P6SM
                       OVC250=
201302181743 TAF KCLM 181743Z 1818/1918 23003KT P6SM OVC050 FM182200 14002KT
                       P6SM -RA BKN025 OVC050 FM190500 19003KT
                       P6SM OVC050 FM191100 22003KT P6SM SCT050
                       BKN100=
201302181405 TAF AMD KCLM 181405Z 1814/1912 25004KT P6SM OVC110 FM181600 VRB04KT
                       P6SM BKN025 BKN100 BKN200 FM182000 09004KT
                       P6SM -RA SCT025 BKN050 OVC100 FM190500 04004KT
                       P6SM SCT050 BKN100 FM190900 01004KT P6SM
                       SCT100=
201302181130 TAF KCLM 181130Z 1812/1912 24006KT P6SM FEW025 BKN100 BKN200
                      TEMPO 1812/1815 BKN025 OVC100 FM181500 12004KT
                       P6SM BKN025 BKN100 BKN200 FM182000 09004KT
                       P6SM -RA SCT025 BKN050 OVC100 FM190500 04004KT
                       P6SM SCT050 BKN100 FM190900 01004KT P6SM
                       SCT100=
201302180956 TAF AMD KCLM 180956Z 1810/1906 VRB03KT P6SM SCT016 BKN200
                      TEMPO 1810/1814 BKN016 FM181400 09004KT P6SM
                       BKN015 BKN100 BKN200 FM181800 09006KT P6SM
                       SCT020 BKN080 FM182000 09004KT P6SM -RA
                       SCT020 OVC050=
201302180525 TAF KCLM 180525Z 1806/1906 22005KT P6SM BKN050 BKN200 FM180900
                       VRB03KT P6SM SCT020 BKN040 BKN200 FM181400
                       09004KT P6SM BKN018 BKN120 BKN200 FM182000
                       09004KT P6SM -RA SCT020 OVC050=
201302172320 TAF KCLM 172320Z 1800/1824 VRB05KT P6SM SCT040 BKN200 FM180900
                       VRB03KT P6SM SCT015 BKN040 BKN200 FM181400
                       09004KT P6SM BKN015 BKN120 BKN200 FM182000
                       09004KT P6SM -RA SCT020 OVC050=
201302171720 TAF KCLM 171720Z 1718/1818 24004KT P6SM SCT040 FM180600 VRB03KT
                       P6SM SCT015 BKN040 BKN200 FM181200 09004KT
                       P6SM BKN015 BKN120 BKN200=
201302171137 TAF KCLM 171137Z 1712/1812 25007KT P6SM SCT040 FM171300 24005KT
                       P6SM SCT060 FM171800 VRB04KT P6SM SCT060=
201302170541 TAF KCLM 170541Z 1706/1806 19013G20KT P6SM VCSH SCT035 BKN060 FM170900
                       31008KT P6SM BKN035 FM171300 30005KT P6SM
                       SCT035 BKN045 FM171800 VRB04KT P6SM SCT045=
201302162320 TAF KCLM 162320Z 1700/1724 30016G24KT P6SM VCSH SCT025 BKN060 FM170800
                       31008KT P6SM BKN040 FM172000 30006KT P6SM
                       SCT040=
201302161720 TAF KCLM 161720Z 1618/1718 27010KT P6SM SCT025 BKN050 FM162300
                       30012G22KT P6SM VCSH BKN025 BKN050 FM170600
                       31008KT P6SM SCT050=
201302161358 TAF AMD KCLM 161358Z 1614/1712 27006KT P6SM -SHRA SCT008 BKN020
                       TEMPO 1614/1618 BKN004 OVC008 FM161800 27012G20KT
                       P6SM -SHRA BKN025 BKN040 FM162300 30012G22KT
                       P6SM VCSH SCT030 BKN050 FM170600 31008KT
                       P6SM SCT050=
201302161140 TAF KCLM 161140Z 1612/1712 VRB03KT P6SM SCT012 BKN025 FM161300
                       VRB04KT P6SM -RA SCT012 BKN025 OVC040 FM161900
                       27012G20KT P6SM -SHRA BKN025 BKN040 FM162300
                       30012G22KT P6SM VCSH SCT030 BKN050 FM170600
                       31008KT P6SM SCT050=
201302160959 TAF AMD KCLM 160959Z 1610/1706 VRB03KT P6SM SCT008 SCT025
                      TEMPO 1610/1614 6SM BR OVC008 FM161500 VRB04KT
                       P6SM -RA BKN025 OVC040 FM161900 27012G20KT
                       P6SM -SHRA BKN025 BKN040 FM162300 30012G22KT
                       P6SM VCSH SCT030 BKN050=
201302160822 TAF AMD KCLM 160822Z 1608/1706 VRB03KT P6SM SCT005 SCT015
                      TEMPO 1608/1610 1SM BR SCT005 FM161400 VRB04KT
                       P6SM -RA SCT025 OVC040 FM161900 27012G20KT
                       P6SM -SHRA BKN025 BKN040 FM162300 30012G22KT
                       P6SM VCSH SCT030 BKN050=
201302160520 TAF KCLM 160520Z 1606/1706 14004KT P6SM SCT016 BKN120 FM161400
                       VRB04KT P6SM -RA SCT025 OVC040 FM161900
                       27012G20KT P6SM -SHRA BKN025 BKN040 FM162300
                       30012G22KT P6SM VCSH SCT030 BKN050=
201302152320 TAF KCLM 152320Z 1600/1624 09004KT P6SM BKN012 BKN200
                      TEMPO 1602/1606 SCT015 BKN200 FM160600 09004KT
                       P6SM SCT020 BKN120 FM161400 VRB04KT P6SM
                       -RA SCT025 OVC040 FM161700 27012G20KT P6SM
                       -SHRA BKN025 BKN040 FM162200 30012G22KT
                       P6SM VCSH SCT030 BKN050=
201302152221 TAF AMD KCLM 152221Z 1522/1618 08006KT P6SM OVC005 FM152300 03004KT
                       P6SM BKN010 FM160200 VRB03KT P6SM SCT100
                       BKN200 FM161000 VRB03KT P6SM -RA OVC030
                       FM161600 27008KT P6SM -SHRA BKN030 BKN045=
201302151732 TAF KCLM 151732Z 1518/1618 08004KT 1SM BR OVC003
                      TEMPO 1520/1522 4SM BR BKN006 FM152200 06006KT
                       P6SM BKN012 FM152300 03004KT P6SM SCT100
                       FM160200 VRB03KT P6SM SCT100 BKN200 FM161000
                       VRB03KT P6SM -RA OVC030 FM161600 27008KT
                       P6SM -SHRA BKN030 BKN045=
201302151511 TAF AMD KCLM 151511Z 1515/1612 VRB03KT 1/2SM FG OVC002
                      TEMPO 1515/1517 2SM BR OVC004 FM151700 VRB03KT
                       P6SM BKN008 OVC020 FM151900 06004KT P6SM
                       BKN020 FM152200 03004KT P6SM SCT025=
201302151352 TAF AMD KCLM 151352Z 1514/1612 00000KT 2SM BR OVC003 FM151600 00000KT
                       P6SM BKN008 OVC020 FM151900 06004KT P6SM
                       BKN020 FM152200 03004KT P6SM SCT025=
201302151147 TAF AMD KCLM 151147Z 1512/1612 09003KT P6SM SCT003 OVC010
                      TEMPO 1512/1516 BKN003 FM151900 06004KT P6SM
                       BKN020 FM152200 03004KT P6SM SCT025=
201302151123 TAF KCLM 151123Z 1512/1612 09003KT P6SM SCT003 OVC010 FM151900
                       06004KT P6SM BKN020 FM152200 03004KT P6SM
                       SCT025=
201302150806 TAF AMD KCLM 150806Z 1508/1606 VRB03KT P6SM SCT004 OVC030 FM151900
                       06004KT P6SM SCT010 BKN030 FM152100 03004KT
                       P6SM SCT030=
201302150600 TAF AMD KCLM 150600Z 1506/1606 VRB03KT P6SM BKN005 OVC035 FM150900
                       00000KT P6SM BKN005 OVC020 FM151900 06004KT
                       P6SM SCT010 BKN025 FM152100 03004KT P6SM
                       SCT030=
201302150520 TAF KCLM 150520Z 1506/1606 VRB03KT P6SM OVC035 FM150900 00000KT
                       P6SM SCT007 OVC020 FM151900 06004KT P6SM
                       SCT010 BKN025 FM152100 03004KT P6SM SCT030=
201302142324 TAF KCLM 142324Z 1500/1524 00000KT P6SM SCT007 SCT015 OVC045
                      TEMPO 1500/1504 BKN007 OVC015 FM150400 00000KT
                       P6SM SCT006 OVC012 FM150900 00000KT P6SM
                       BKN005 OVC010 FM151900 06004KT P6SM SCT010
                       BKN025 FM152100 03004KT P6SM SCT030=
201302141920 TAF AMD KCLM 141920Z 1419/1518 11003KT P6SM FEW008 SCT013 OVC045
                       TEMPO 1419/1421 -RA OVC013 FM142200 VRB03KT
                       P6SM BKN020 OVC035=
201302141720 TAF KCLM 141720Z 1418/1518 15003KT P6SM SCT007 OVC015
                      TEMPO 1418/1421 5SM -RA BR OVC007 FM142200
                       VRB03KT P6SM BKN020 OVC035=
201302141405 TAF AMD KCLM 141405Z 1414/1512 14003KT P6SM -RA SCT012 OVC060
                      TEMPO 1414/1418 BKN012 OVC035 FM142200 VRB03KT
                       P6SM BKN020 OVC035=
201302141134 TAF KCLM 141134Z 1412/1512 VRB03KT P6SM -RA BKN017 OVC030 FM141400
                       VRB03KT 4SM -RA BR BKN012 OVC025 FM142200
                       VRB03KT P6SM BKN020 OVC035=
201302140520 TAF KCLM 140520Z 1406/1506 VRB03KT P6SM BKN025 OVC110 FM141400
                       VRB03KT 4SM -RA BR BKN012 OVC025 FM142200
                       VRB03KT P6SM BKN020 OVC035=
201302132323 TAF KCLM 132323Z 1400/1424 31007KT P6SM BKN040 BKN100 FM140300
                       VRB03KT P6SM SCT035 BKN100 FM141100 VRB03KT
                       P6SM -RA BKN012 OVC025 FM142200 VRB03KT
                       P6SM BKN020 OVC035=
201302131730 TAF KCLM 131730Z 1318/1418 25005KT P6SM OVC045 FM132200 25005KT
                       P6SM OVC035 FM140300 VRB03KT P6SM SCT035
                       BKN100 FM141100 VRB03KT P6SM -RA BKN012
                       OVC025=
201302131123 TAF KCLM 131123Z 1312/1412 27010KT P6SM SCT015 OVC100 FM132000
                       27006KT P6SM SCT025 OVC100=
201302130521 TAF KCLM 130521Z 1306/1406 27010KT P6SM VCSH SCT015 BKN030 OVC060
                       FM131200 24006KT P6SM SCT010 OVC025 FM132000
                       27005KT P6SM VCSH BKN025 BKN100=
201302122325 TAF KCLM 122325Z 1300/1324 26010KT P6SM VCSH BKN030 OVC060 FM131000
                       24006KT P6SM SCT010 OVC025 FM132000 33005KT
                       P6SM VCSH BKN025 OVC040=
201302121720 TAF KCLM 121720Z 1218/1318 VRB04KT P6SM SCT015 SCT025 OVC050 FM121900
                       31006KT P6SM SCT008 OVC020 FM130000 26010KT
                       P6SM VCSH BKN008 OVC015 FM131000 24006KT
                       P6SM SCT008 OVC015=
201302121123 TAF KCLM 121123Z 1212/1312 25004KT P6SM SCT015 SCT025 OVC100
                      TEMPO 1212/1216 BKN013 FM121900 25006KT P6SM
                       SCT008 OVC020 FM130000 27010KT P6SM VCSH
                       BKN008 OVC015=
201302120903 TAF AMD KCLM 120903Z 1209/1306 25004KT P6SM SCT013 OVC100
                      TEMPO 1209/1212 BKN013 FM121200 23003KT 5SM
                       -DZ BR BKN005 OVC013 FM121900 VRB03KT P6SM
                       SCT008 OVC015=
201302120520 TAF KCLM 120520Z 1206/1306 25004KT P6SM OVC009 FM120800 23003KT
                       5SM -DZ BR OVC005 FM121900 VRB03KT P6SM
                       SCT008 OVC015=
201302112330 TAF KCLM 112330Z 1200/1224 00000KT P6SM BKN010 OVC022 FM120300
                       23003KT P6SM OVC008 FM120600 23003KT 5SM
                       -DZ BR OVC005 FM121900 VRB03KT P6SM SCT008
                       OVC015=
201302111807 KCLM 111807Z 1118/1218 VRB03KT 5SM BR SCT012 OVC025
                      TEMPO 1118/1121 2SM BR OVC012 FM112100 VRB03KT
                       P6SM BKN025 OVC060 FM120000 VRB02KT P6SM
                       -RA OVC012=
201302111621 TAF AMD KCLM 111621Z 1116/1212 15003KT 5SM BR SCT010 OVC025
                      TEMPO 1116/1119 1SM BR OVC008 FM112000 VRB03KT
                       P6SM BKN025 OVC060 FM120000 VRB02KT P6SM
                       -RA OVC012=
201302111222 TAF AMD KCLM 111222Z 1112/1212 30003KT P6SM BKN018 BKN029 OVC110
                       FM120000 VRB02KT P6SM -RA OVC012=
201302111120 TAF KCLM 111120Z 1112/1212 00000KT P6SM OVC030 FM120000 VRB02KT
                       P6SM -RA OVC012=
201302110520 TAF KCLM 110520Z 1106/1206 VRB03KT P6SM OVC022 FM110900 24003KT
                       P6SM OVC018=
201302102325 TAF KCLM 102325Z 1100/1124 VRB03KT P6SM OVC025 FM110900 24003KT
                       P6SM OVC018=
201302101737 TAF KCLM 101737Z 1018/1118 VRB03KT P6SM BKN028 BKN250 FM102000
                       VRB03KT P6SM SCT030 SCT250 FM110900 24004KT
                       P6SM BKN018=
201302101132 TAF KCLM 101132Z 1012/1112 00000KT P6SM OVC035 FM101900 26005KT
                       P6SM SCT035 FM110900 24005KT P6SM BKN018=
201302100902 TAF AMD KCLM 100902Z 1009/1106 18003KT P6SM OVC035 FM101100 VRB03KT
                       P6SM SCT015 OVC025
                      TEMPO 1012/1016 OVC015 FM101900 06003KT P6SM
                       SCT010 BKN025 FM102200 07005KT P6SM SCT035
                       FM110200 24005KT P6SM SCT035=
201302100520 TAF KCLM 100520Z 1006/1106 VRB03KT P6SM SCT018 OVC025
                      TEMPO 1007/1011 BKN015 OVC025 FM101100 VRB03KT
                       P6SM BKN015 OVC025
                      TEMPO 1012/1016 OVC005 FM101900 06003KT P6SM
                       SCT010 BKN025 FM102200 07005KT P6SM SCT035
                       FM110200 24005KT P6SM SCT035=
201302092333 TAF KCLM 092333Z 1000/1024 VRB03KT P6SM SCT008 OVC015 FM100200
                       VRB03KT P6SM SCT015 BKN025 FM101000 00000KT
                       P6SM OVC010
                      TEMPO 1012/1016 OVC005 FM101900 06003KT P6SM
                       SCT010 BKN020 FM102200 07005KT P6SM SCT020
                       BKN035=
201302092102 TAF AMD KCLM 092102Z 0921/1018 VRB05KT P6SM BKN008 OVC015
                      TEMPO 0921/1001 BKN002 OVC008 FM100100 25006KT
                       P6SM BKN015 BKN030 FM101000 24004KT P6SM
                       OVC015=
201302091901 TAF AMD KCLM 091901Z 0919/1018 26005KT P6SM BKN008 OVC015
                      TEMPO 0919/0921 -RA FM092100 25006KT P6SM
                       BKN015 BKN030 FM092200 25006KT P6SM BKN035
                       FM101000 24004KT P6SM OVC015=
201302091730 TAF KCLM 091730Z 0918/1018 26005KT P6SM BKN008 OVC015 FM091900
                       25006KT P6SM BKN015 BKN030 FM092200 25006KT
                       P6SM BKN035 FM101000 24004KT P6SM OVC015=
201302091538 TAF AMD KCLM 091538Z 0916/1012 26005KT P6SM BKN006 OVC015 FM091900
                       25006KT P6SM BKN015 BKN030 FM092200 25006KT
                       P6SM BKN035 FM101000 24004KT P6SM OVC015=
201302091120 TAF KCLM 091120Z 0912/1012 26007KT P6SM BKN025 OVC080 FM092200
                       25006KT P6SM BKN035 FM101000 24004KT P6SM
                       OVC015=
201302090901 TAF AMD KCLM 090901Z 0909/1006 26006KT P6SM OVC060 FM091200 24005KT
                       P6SM OVC030 FM092200 25006KT P6SM BKN035=
201302090614 TAF AMD KCLM 090614Z 0906/1006 25007KT P6SM SCT015 BKN110
                      TEMPO 0908/0912 BKN015 OVC070 FM091200 24005KT
                       P6SM OVC015 FM091900 24005KT P6SM OVC025
                       FM092200 25006KT P6SM BKN035=
201302090520 TAF KCLM 090520Z 0906/1006 23004KT P6SM BKN010 BKN014 OVC070 FM091200
                       24005KT P6SM OVC015 FM091900 24005KT P6SM
                       OVC025 FM092200 25006KT P6SM BKN035=
201302090440 TAF AMD KCLM 090440Z 0905/0924 26006KT P6SM BKN013 BKN019 FM091600
                       24005KT P6SM BKN025=
201302082324 TAF KCLM 082324Z 0900/0924 VRB03KT P6SM SCT030 BKN250 FM090800
                       VRB03KT P6SM OVC020 FM091600 24005KT P6SM
                       BKN025=
201302081729 TAF KCLM 081729Z 0818/0918 26006KT P6SM SKC FM090300 VRB03KT P6SM
                       OVC030 FM090800 VRB03KT P6SM OVC020 FM091600
                       24005KT P6SM BKN025=
201302081120 TAF KCLM 081120Z 0812/0912 26011KT P6SM SKC FM090300 VRB03KT P6SM
                       OVC030 FM090800 VRB03KT P6SM OVC020=
201302080520 TAF KCLM 080520Z 0806/0906 25007KT P6SM SCT035 FM090300 VRB03KT
                       P6SM OVC030=
201302072328 TAF KCLM 072328Z 0800/0824 22003KT P6SM SCT030 SCT250 FM081600
                       22005KT P6SM BKN035 FM082000 24005KT P6SM
                       SCT040=
201302071729 TAF KCLM 071729Z 0718/0818 25005KT P6SM SCT035 BKN050 FM072200
                       22003KT P6SM SCT050 FM081600 22005KT P6SM
                       BKN050=
201302071409 TAF AMD KCLM 071409Z 0714/0812 26013KT P6SM VCSH SCT030 SCT050
                       BKN200
                      TEMPO 0714/0716 26015G25KT -SHRA BKN030 OVC050
                       FM071900 25005KT P6SM SCT035 BKN050 FM072200
                       22004KT P6SM SCT060=
201302071120 TAF KCLM 071120Z 0712/0812 00000KT P6SM VCSH SCT045
                      TEMPO 0712/0716 -SHRA SCT025 BKN040 FM071900
                       25005KT P6SM SCT035 BKN050 FM072200 22004KT
                       P6SM SCT060=
201302070533 TAF KCLM 070533Z 0706/0806 00000KT P6SM BKN060 OVC080 FM070700
                       VRB03KT P6SM -RA SCT015 BKN035
                      TEMPO 0708/0710 4SM -RA BR BKN015 OVC030
                       FM071000 25006KT P6SM -SHRA BKN018 BKN035
                       FM071900 25005KT P6SM SCT035 BKN050 FM072200
                       22004KT P6SM SCT060=
201302070455 TAF AMD KCLM 070455Z 0705/0724 00000KT P6SM BKN070 OVC090 FM070700
                       VRB03KT P6SM -RA SCT015 BKN035 FM071000
                       25006KT P6SM -SHRA BKN018 BKN035 FM071900
                       25005KT P6SM SCT020 BKN035=
201302062325 TAF KCLM 062325Z 0700/0724 09006KT P6SM -RA SCT020 OVC040 FM070300
                       VRB06KT P6SM -RA OVC025 FM071000 25006KT
                       P6SM -SHRA BKN018 BKN035 FM071900 25005KT
                       P6SM SCT020 BKN035=
201302061722 TAF KCLM 061722Z 0618/0718 VRB03KT P6SM OVC060 FM062200 09006KT
                       P6SM -RA SCT020 OVC040 FM070300 VRB06KT
                       P6SM -RA OVC025 FM071000 25006KT P6SM -SHRA
                       BKN035=
201302061404 TAF AMD KCLM 061404Z 0614/0712 VRB03KT P6SM OVC070 FM062200 09006KT
                       P6SM -RA SCT020 OVC040 FM070300 VRB06KT
                       P6SM -RA OVC027 FM071000 25006KT P6SM -SHRA
                       BKN035=
201302061120 TAF KCLM 061120Z 0612/0712 24006KT P6SM VCSH SCT030 BKN050 FM062200
                       09006KT P6SM -RA SCT020 OVC040 FM070300
                       VRB06KT P6SM -RA OVC027 FM071000 25006KT
                       P6SM -SHRA BKN035=
201302060520 TAF KCLM 060520Z 0606/0706 24007KT P6SM VCSH SCT030 BKN050 FM062200
                       09006KT P6SM -RA SCT020 OVC040 FM070200
                       VRB06KT P6SM -RA OVC027=
201302052321 TAF KCLM 052321Z 0600/0624 VRB04KT P6SM -SHRA BKN035 BKN050 BKN100
                       FM060600 26006KT P6SM VCSH SCT030 BKN050
                       BKN100 FM062200 09006KT P6SM -RA SCT020
                       OVC040=
201302051720 TAF KCLM 051720Z 0518/0618 VRB04KT P6SM VCSH SCT030 BKN050 BKN100
                       FM060600 VRB04KT P6SM VCSH BKN030 BKN050
                       OVC100=
201302051140 TAF KCLM 051140Z 0512/0612 00000KT P6SM -RA SCT012 OVC040 FM051800
                       24003KT P6SM -SHRA BKN035 FM060600 VRB03KT
                       P6SM VCSH OVC015=
201302050906 TAF AMD KCLM 050906Z 0509/0606 18003KT P6SM VCSH FEW016 BKN100
                       FM051600 VRB04KT P6SM -SHRA BKN020 BKN040
                       FM051900 30005KT P6SM VCSH BKN040=
201302050520 TAF KCLM 050520Z 0506/0606 28004KT P6SM VCSH OVC014 FM050900 VRB04KT
                       4SM -RA BR BKN015 OVC040 FM051600 VRB04KT
                       P6SM -SHRA BKN020 BKN040 FM051900 30005KT
                       P6SM VCSH BKN040=
201302042320 TAF KCLM 042320Z 0500/0524 12004KT P6SM BKN015 OVC060
                      TEMPO 0500/0504 SCT020 OVC060 FM050900 VRB04KT
                       4SM -RA BR BKN015 OVC040 FM051600 VRB04KT
                       P6SM -SHRA BKN020 BKN040 FM051900 30005KT
                       P6SM VCSH BKN040=
201302041720 TAF KCLM 041720Z 0418/0518 VRB03KT P6SM BKN010 OVC080 FM042100
                       VRB03KT P6SM SCT015 OVC050 FM050900 VRB03KT
                       P6SM -RA BKN015 OVC040=
201302041126 TAF KCLM 041126Z 0412/0512 28004KT P6SM FEW004 SCT050 BKN100
                      TEMPO 0412/0416 OVC004 FM042100 21002KT P6SM
                       OVC050 FM050900 23003KT P6SM -RA OVC025=
201302040810 TAF AMD KCLM 040810Z 0408/0506 12003KT P6SM OVC110
                      TEMPO 0409/0413 4SM BR OVC012 FM041700 VRB03KT
                       P6SM SCT015 BKN040=
201302040531 TAF KCLM 040531Z 0406/0506 00000KT P6SM OVC006 FM040800 26003KT
                       P6SM OVC012 FM041700 VRB03KT P6SM SCT015
                       BKN040=
201302040243 TAF AMD KCLM 040243Z 0403/0424 VRB03KT P6SM -RA BKN020 OVC060
                      TEMPO 0403/0407 -RA OVC009 FM040800 26003KT
                       P6SM OVC012 FM041700 VRB03KT P6SM SCT015
                       BKN040=
201302040101 TAF AMD KCLM 040101Z 0401/0424 VRB03KT P6SM -RA BKN020 OVC060 FM040300
                       25003KT P6SM BKN025 OVC040 FM040800 26003KT
                       P6SM OVC012 FM041700 VRB03KT P6SM SCT015
                       BKN040=
201302032342 TAF KCLM 032342Z 0400/0424 VRB03KT P6SM BKN020 OVC060 FM040300
                       25003KT P6SM BKN025 OVC040 FM040800 26003KT
                       P6SM OVC012 FM041700 VRB03KT P6SM SCT015
                       BKN040=
201302032132 TAF AMD KCLM 032132Z 0322/0418 VRB03KT P6SM BKN050 FM040300 25003KT
                       P6SM BKN025 OVC040 FM040600 26003KT P6SM
                       OVC012 FM041500 VRB03KT P6SM SCT015 BKN030=
201302031751 TAF KCLM 031751Z 0318/0418 17006KT P6SM OVC040 FM032000 06003KT
                       P6SM BKN012 OVC040 FM040600 26003KT P6SM
                       OVC012=
201302031353 TAF AMD KCLM 031353Z 0314/0412 17006KT 3SM BR SCT003 OVC015
                      TEMPO 0314/0318 1/2SM FG OVC003 FM032000
                       06003KT P6SM OVC012=
201302031125 TAF KCLM 031125Z 0312/0412 22004KT 1/2SM FG VV002 FM031700 20003KT
                       2SM BR OVC003 FM032000 06003KT P6SM OVC012=
201302030733 TAF AMD KCLM 030733Z 0308/0406 00000KT 3/4SM BR OVC002
                      TEMPO 0311/0315 4SM BR OVC004 FM032200 21005KT
                       P6SM BKN080 OVC200=
201302030529 TAF KCLM 030529Z 0306/0406 00000KT 4SM BR FEW005
                      TEMPO 0311/0315 P6SM NSW OVC004 FM032200
                       21005KT P6SM BKN080 OVC200=
201302030301 TAF AMD KCLM 030301Z 0303/0324 19003KT P6SM BKN007
                      TEMPO 0311/0315 5SM BR FM032200 21005KT P6SM
                       BKN080=
201302022324 TAF KCLM 022324Z 0300/0324 09004KT P6SM SCT011 SCT200
                      TEMPO 0300/0302 BKN011 FM030200 VRB04KT P6SM
                       SCT011 SCT200
                      TEMPO 0311/0315 5SM BR OVC015 FM032200 21005KT
                       P6SM BKN080=
201302022102 TAF AMD KCLM 022102Z 0221/0318 VRB03KT P6SM OVC008 FM022300 08005KT
                       P6SM BKN012 FM030000 12005KT P6SM SCT200
                       TEMPO 0311/0315 5SM BR OVC015=
201302021726 TAF KCLM 021726Z 0218/0318 09004KT P6SM OVC009 FM022000 10004KT
                       P6SM BKN012 FM022100 VRB03KT P6SM SCT200
                       TEMPO 0311/0315 5SM BR OVC015=
201302021121 TAF KCLM 021121Z 0212/0312 10004KT P6SM FEW007 OVC013 FM021300
                       11003KT P6SM OVC007 FM021900 10004KT P6SM
                       OVC015 FM022000 VRB03KT P6SM SCT200=
201302020520 TAF KCLM 020520Z 0206/0306 12004KT P6SM OVC020 FM021500 20004KT
                       1/4SM FG OVC018 FM021800 16003KT P6SM SCT200=
201302012337 TAF KCLM 012337Z 0200/0224 10005KT P6SM SCT008 BKN018 FM020400
                       19003KT P6SM SCT012 SCT250 FM020700 22004KT
                       P6SM SCT250 FM022000 08004KT P6SM SCT008=
201302011729 TAF KCLM 011729Z 0118/0218 24004KT P6SM SCT008 OVC018
                      TEMPO 0118/0120 SCT018 BKN250 FM012000 VRB04KT
                       P6SM SCT025 BKN250=
201302011139 TAF KCLM 011139Z 0112/0212 26006KT P6SM SCT008 OVC015 FM011900
                       VRB03KT P6SM SCT030 BKN250=
201302010540 TAF KCLM 010540Z 0106/0206 29006KT P6SM SCT004 BKN008 OVC015 FM011500
                       VRB03KT P6SM SCT008 OVC015 FM012000 VRB03KT
                       P6SM SCT030 BKN250=
201302010308 TAF AMD KCLM 010308Z 0103/0124 29006KT P6SM OVC003 FM011600 VRB03KT
                       P6SM SCT004 BKN008 OVC015 FM012000 VRB03KT
                       P6SM SCT008 OVC015 FM012200 VRB03KT P6SM
                       BKN025 BKN250=