##########################################################
# Query made at 02/16/2025 02:31:27 UTC
# Time interval: from 08/01/2013 00:00  to 08/31/2013 23:59  UTC
##########################################################

##########################################################
# KCLM, Port Angeles, William R. Fairchild International Airport (United States)
# WMO index: -----. WIGOS ID: Unknown
# Latitude 48-07-20N. Longitude 123-30-19W. Altitude 87 m.
##########################################################

###################################
#  METAR/SPECI from KCLM
###################################
201308312353 METAR KCLM 312353Z AUTO 07003KT 10SM CLR 22/12 A2991 RMK AO2 SLP128 T02170122 10222 20178 58025 TSNO=
201308312253 METAR KCLM 312253Z AUTO VRB03KT 10SM CLR 22/12 A2994 RMK AO2 SLP137 T02170117 TSNO=
201308312153 METAR KCLM 312153Z AUTO VRB05KT 10SM CLR 22/12 A2996 RMK AO2 SLP146 T02170122 TSNO=
201308312053 METAR KCLM 312053Z AUTO 05005KT 10SM CLR 21/13 A2998 RMK AO2 SLP153 T02060133 56018 TSNO=
201308311953 METAR KCLM 311953Z AUTO VRB05KT 10SM CLR 19/13 A3000 RMK AO2 SLP158 T01940133 TSNO=
201308311853 METAR KCLM 311853Z AUTO 03006KT 10SM CLR 19/14 A3002 RMK AO2 SLP165 T01890139 TSNO=
201308311815 SPECI KCLM 311815Z AUTO VRB04KT 10SM SCT015 18/13 A3003 RMK AO2 T01830133 TSNO=
201308311753 METAR KCLM 311753Z AUTO 08007KT 10SM OVC016 18/14 A3004 RMK AO2 SLP171 T01780139 10178 20111 58011 TSNO=
201308311653 METAR KCLM 311653Z AUTO 09006KT 10SM OVC016 17/14 A3005 RMK AO2 SLP175 T01670139 TSNO=
201308311553 METAR KCLM 311553Z AUTO 12005KT 10SM OVC016 17/14 A3006 RMK AO2 SLP180 T01670139 TSNO=
201308311453 METAR KCLM 311453Z AUTO 00000KT 10SM OVC018 14/13 A3007 RMK AO2 SLP182 T01440133 55004 TSNO=
201308311403 SPECI KCLM 311403Z AUTO 00000KT 10SM BKN017 12/11 A3007 RMK AO2 T01220111 TSNO=
201308311353 METAR KCLM 311353Z AUTO 00000KT 10SM SCT016 12/11 A3007 RMK AO2 SLP181 T01170111 TSNO=
201308311253 METAR KCLM 311253Z AUTO 00000KT 10SM CLR 11/10 A3007 RMK AO2 SLP183 T01110100 TSNO=
201308311153 METAR KCLM 311153Z AUTO 17004KT 10SM CLR 12/11 A3008 RMK AO2 SLP186 T01170106 10144 20111 56006 TSNO=
201308311053 METAR KCLM 311053Z AUTO 00000KT 10SM CLR 12/11 A3008 RMK AO2 SLP187 T01170106 TSNO=
201308310953 METAR KCLM 310953Z AUTO 21003KT 10SM CLR 12/11 A3009 RMK AO2 SLP189 T01220111 TSNO=
201308310853 METAR KCLM 310853Z AUTO 00000KT 10SM BKN042 14/12 A3010 RMK AO2 SLP192 T01390122 58008 TSNO=
201308310753 METAR KCLM 310753Z AUTO 23004KT 10SM CLR 12/11 A3011 RMK AO2 SLP194 T01220111 402170117 TSNO=
201308310653 METAR KCLM 310653Z AUTO 00000KT 10SM CLR 13/12 A3011 RMK AO2 SLP197 T01330122 TSNO=
201308310553 METAR KCLM 310553Z AUTO 23005KT 10SM CLR 14/13 A3012 RMK AO2 SLP200 T01440128 10211 20133 58005 TSNO=
201308310453 METAR KCLM 310453Z AUTO 23004KT 10SM FEW037 15/13 A3013 RMK AO2 SLP203 T01500133 TSNO=
201308310353 METAR KCLM 310353Z AUTO 00000KT 10SM CLR 16/13 A3013 RMK AO2 SLP204 T01560133 TSNO=
201308310253 METAR KCLM 310253Z AUTO 27005KT 10SM BKN070 17/13 A3014 RMK AO2 SLP205 T01670133 56005 TSNO=
201308310153 METAR KCLM 310153Z AUTO 30004KT 10SM SCT070 18/13 A3014 RMK AO2 SLP206 T01830133 TSNO=
201308310053 METAR KCLM 310053Z AUTO 33007KT 10SM BKN049 BKN065 19/13 A3014 RMK AO2 SLP207 T01890133 TSNO=
201308302353 METAR KCLM 302353Z AUTO 36006KT 10SM BKN060 OVC080 21/13 A3015 RMK AO2 SLP210 T02060133 10217 20178 58003 TSNO=
201308302253 METAR KCLM 302253Z AUTO 35005KT 10SM OVC075 20/13 A3017 RMK AO2 SLP215 T02000128 TSNO=
201308302153 METAR KCLM 302153Z AUTO 35005KT 10SM BKN070 20/13 A3016 RMK AO2 SLP215 T02000128 TSNO=
201308302053 METAR KCLM 302053Z AUTO 36005KT 10SM CLR 21/13 A3016 RMK AO2 SLP213 T02060128 50005 TSNO=
201308301953 METAR KCLM 301953Z AUTO VRB04KT 10SM BKN034 19/13 A3016 RMK AO2 SLP213 T01940128 TSNO=
201308301853 METAR KCLM 301853Z AUTO 02004KT 10SM CLR 18/13 A3016 RMK AO2 SLP213 T01780128 TSNO=
201308301753 METAR KCLM 301753Z AUTO 05003KT 10SM CLR 19/14 A3015 RMK AO2 SLP207 T01890139 10194 20133 51018 TSNO=
201308301653 METAR KCLM 301653Z AUTO 35004KT 10SM CLR 16/13 A3013 RMK AO2 SLP204 T01610133 TSNO=
201308301553 METAR KCLM 301553Z AUTO VRB03KT 10SM CLR 18/13 A3011 RMK AO2 SLP194 T01830128 TSNO=
201308301453 METAR KCLM 301453Z AUTO 23004KT 10SM FEW065 BKN090 16/14 A3009 RMK AO2 SLP190 T01610139 52012 TSNO=
201308301353 METAR KCLM 301353Z AUTO 27007KT 10SM OVC090 14/13 A3008 RMK AO2 SLP184 T01390128 TSNO=
201308301253 METAR KCLM 301253Z AUTO 23003KT 9SM SCT065 BKN085 13/13 A3007 RMK AO2 SLP183 T01330128 TSNO=
201308301153 METAR KCLM 301153Z AUTO 00000KT 10SM BKN065 OVC090 14/13 A3006 RMK AO2 SLP178 60000 70031 T01390133 10167 20122 51017 TSNO=
201308301053 METAR KCLM 301053Z AUTO 19005KT 10SM BKN065 OVC090 14/13 A3005 RMK AO2 SLP175 T01390128 TSNO=
201308300953 METAR KCLM 300953Z AUTO VRB04KT 10SM BKN080 13/12 A3003 RMK AO2 SLP168 T01330122 TSNO=
201308300853 METAR KCLM 300853Z AUTO 18003KT 9SM SCT075 13/13 A3001 RMK AO2 SLP160 60000 T01280128 53023 TSNO=
201308300753 METAR KCLM 300753Z AUTO 20003KT 10SM FEW070 14/13 A2998 RMK AO2 SLP151 T01390128 402000133 TSNO=
201308300653 METAR KCLM 300653Z AUTO 36003KT 10SM SCT006 SCT037 BKN090 15/14 A2996 RMK AO2 RAE21 SLP144 P0000 T01500139 TSNO=
201308300649 SPECI KCLM 300649Z AUTO 36004KT 4SM BR SCT006 SCT037 BKN090 15/14 A2996 RMK AO2 RAE21 P0000 TSNO=
201308300642 SPECI KCLM 300642Z AUTO 02004KT 1SM BR SCT006 BKN055 OVC085 15/14 A2995 RMK AO2 RAE21 P0000 T01500144 TSNO=
201308300635 SPECI KCLM 300635Z AUTO 00000KT 1/2SM FG BKN001 BKN055 OVC085 15/14 A2995 RMK AO2 RAE21 P0000 T01500144 TSNO=
201308300633 SPECI KCLM 300633Z AUTO 00000KT 1/4SM FG BKN003 BKN049 OVC065 15/14 A2995 RMK AO2 RAE21 P0000 T01500144 TSNO=
201308300627 SPECI KCLM 300627Z AUTO 35004KT 3/4SM BR SCT005 SCT050 OVC060 16/15 A2995 RMK AO2 RAE21 P0000 T01560150 TSNO=
201308300603 SPECI KCLM 300603Z AUTO 30007KT 10SM -RA FEW007 BKN060 OVC080 17/16 A2994 RMK AO2 P0000 T01670161 TSNO=
201308300553 METAR KCLM 300553Z AUTO 28006KT 4SM -RA BR SCT011 BKN060 OVC075 17/16 A2994 RMK AO2 RAE14B29 SLP137 P0006 60014 T01670161 10200 20161 53012 TSNO=
201308300540 SPECI KCLM 300540Z AUTO 29009KT 6SM -RA BR FEW008 BKN034 OVC075 17/16 A2993 RMK AO2 RAE14B29 P0002 T01670161 TSNO=
201308300534 SPECI KCLM 300534Z AUTO 30007KT 7SM -RA FEW003 BKN014 OVC070 17/16 A2993 RMK AO2 RAE14B29 P0001 T01670161 TSNO=
201308300526 SPECI KCLM 300526Z AUTO 29009KT 3SM BR SCT001 BKN006 OVC065 17/16 A2993 RMK AO2 RAE14 P0000 T01670161 TSNO=
201308300522 SPECI KCLM 300522Z AUTO 29009KT 1SM BR BKN001 OVC075 17/16 A2993 RMK AO2 RAE14 P0000 T01670156 TSNO=
201308300517 SPECI KCLM 300517Z AUTO 31005KT 1/2SM FG BKN003 OVC075 16/16 A2992 RMK AO2 RAE14 P0000 T01610156 TSNO=
201308300510 SPECI KCLM 300510Z AUTO 00000KT 1SM -RA BR BKN003 OVC090 17/16 A2991 RMK AO2 P0000 T01670161 TSNO=
201308300501 SPECI KCLM 300501Z AUTO 00000KT 2SM -RA BR BKN003 BKN028 OVC065 17/16 A2991 RMK AO2 P0000 T01670161 TSNO=
201308300453 METAR KCLM 300453Z AUTO 00000KT 3/4SM -RA BR BKN003 OVC060 16/16 A2990 RMK AO2 RAB44 SLP126 P0002 T01610156 TSNO=
201308300450 SPECI KCLM 300450Z AUTO 00000KT 3/4SM -RA BR BKN003 BKN060 OVC080 16/16 A2990 RMK AO2 RAB44 P0002 TSNO=
201308300420 SPECI KCLM 300420Z AUTO VRB03KT 1 3/4SM BR FEW001 OVC060 16/16 A2990 RMK AO2 T01610156 TSNO=
201308300416 SPECI KCLM 300416Z AUTO 00000KT 3SM BR FEW001 BKN060 OVC070 16/16 A2989 RMK AO2 T01610156 TSNO=
201308300400 SPECI KCLM 300400Z AUTO 00000KT 7SM BKN065 OVC080 17/16 A2989 RMK AO2 T01670161 TSNO=
201308300353 METAR KCLM 300353Z AUTO 25003KT 2 1/2SM BR BKN065 OVC080 17/16 A2989 RMK AO2 RAE00 SLP120 P0000 T01670161 TSNO=
201308300342 SPECI KCLM 300342Z AUTO 00000KT 1 1/2SM BR BKN065 BKN080 OVC090 17/17 A2989 RMK AO2 RAE00 P0000 T01720167 TSNO=
201308300253 METAR KCLM 300253Z AUTO 26004KT 8SM -RA FEW042 BKN055 OVC070 18/17 A2990 RMK AO2 RAB06 SLP124 P0006 60006 T01780167 53004 TSNO=
201308300250 SPECI KCLM 300250Z AUTO 28005KT 4SM -RA BR FEW042 OVC060 18/17 A2990 RMK AO2 RAB06 P0006 TSNO=
201308300241 SPECI KCLM 300241Z AUTO 30004KT 1 3/4SM +RA BR FEW042 BKN055 OVC070 18/17 A2990 RMK AO2 RAB06 P0005 T01780167 TSNO=
201308300153 METAR KCLM 300153Z AUTO 00000KT 7SM BKN060 OVC075 17/17 A2989 RMK AO2 RAB34E46 SLP120 P0000 T01720167 TSNO=
201308300053 METAR KCLM 300053Z AUTO 36004KT 10SM BKN060 OVC085 19/18 A2988 RMK AO2 RAE02 SLP119 P0000 T01890178 TSNO=
201308292353 METAR KCLM 292353Z AUTO 00000KT 10SM -RA BKN065 OVC080 19/18 A2989 RMK AO2 RAE12B29 SLP120 P0001 60016 T01940178 10194 20150 51005 TSNO=
201308292253 METAR KCLM 292253Z AUTO 00000KT 9SM -RA SCT050 BKN070 OVC095 18/17 A2989 RMK AO2 SLP120 P0005 T01830172 TSNO=
201308292153 METAR KCLM 292153Z AUTO 00000KT 4SM -RA BR FEW028 BKN080 OVC095 18/17 A2988 RMK AO2 RAB29 SLP118 P0003 T01780167 TSNO=
201308292124 SPECI KCLM 292124Z AUTO 33003KT 10SM SCT006 SCT055 BKN090 18/16 A2987 RMK AO2 T01780161 TSNO=
201308292111 SPECI KCLM 292111Z AUTO 35005KT 10SM BKN005 18/16 A2987 RMK AO2 CIG 003V009 T01830161 TSNO=
201308292053 METAR KCLM 292053Z AUTO 00000KT 10SM OVC002 18/17 A2987 RMK AO2 RAE1957 SLP115 P0000 60007 T01780172 53004 TSNO=
201308292045 SPECI KCLM 292045Z AUTO 33004KT 4SM BR OVC002 17/17 A2987 RMK AO2 RAE1957 P0000 T01720167 TSNO=
201308292042 SPECI KCLM 292042Z AUTO 30003KT 1 1/4SM BR OVC002 17/17 A2987 RMK AO2 RAE1957 P0000 T01720167 TSNO=
201308291958 SPECI KCLM 291958Z AUTO 34006KT 1/4SM FG BKN004 BKN040 OVC070 16/15 A2986 RMK AO2 RAE57 P0000 T01560150 TSNO=
201308291953 METAR KCLM 291953Z AUTO 34005KT 1/4SM -RA FG FEW003 BKN012 OVC090 16/15 A2985 RMK AO2 SLP108 P0001 T01610150 TSNO=
201308291950 SPECI KCLM 291950Z AUTO 36005KT 1 1/2SM -RA BR FEW003 BKN021 OVC095 17/16 A2985 RMK AO2 P0001 TSNO=
201308291912 SPECI KCLM 291912Z AUTO 26004KT 10SM -RA FEW003 SCT025 OVC100 17/16 A2985 RMK AO2 P0000 T01670156 TSNO=
201308291853 METAR KCLM 291853Z AUTO 00000KT 9SM -RA BKN002 BKN025 OVC100 16/16 A2985 RMK AO2 SLP106 P0006 T01610156 TSNO=
201308291821 SPECI KCLM 291821Z AUTO 31004KT 3SM -RA BR BKN002 BKN040 OVC080 16/15 A2986 RMK AO2 P0005 T01560150 TSNO=
201308291810 SPECI KCLM 291810Z AUTO 00000KT 1 3/4SM RA BR BKN002 OVC027 16/15 A2986 RMK AO2 P0005 T01560150 TSNO=
201308291800 SPECI KCLM 291800Z AUTO 00000KT 4SM -RA BR BKN002 OVC007 16/15 A2986 RMK AO2 P0000 T01560150 TSNO=
201308291753 METAR KCLM 291753Z AUTO 00000KT 2 1/2SM -RA BR OVC002 16/15 A2986 RMK AO2 RAB20E40B51 SLP111 P0001 60001 T01560150 10156 20139 53008 TSNO=
201308291749 SPECI KCLM 291749Z AUTO 29003KT 1 1/2SM BR OVC002 16/15 A2985 RMK AO2 RAB20E40 P0001 TSNO=
201308291732 SPECI KCLM 291732Z AUTO 00000KT 3/4SM -RA BR VV002 15/14 A2985 RMK AO2 RAB20 P0001 T01500144 TSNO=
201308291708 SPECI KCLM 291708Z AUTO 00000KT 1 1/2SM BR OVC001 15/14 A2983 RMK AO2 T01500144 TSNO=
201308291656 SPECI KCLM 291656Z AUTO 00000KT 3/4SM BR OVC001 15/14 A2984 RMK AO2 T01500144 TSNO=
201308291653 METAR KCLM 291653Z AUTO 00000KT 1SM BR OVC002 15/14 A2984 RMK AO2 RAB44E53 SLP103 P0000 T01500144 TSNO=
201308291650 SPECI KCLM 291650Z AUTO 00000KT 1 1/4SM -RA BR OVC002 15/14 A2984 RMK AO2 RAB44 P0000 TSNO=
201308291643 SPECI KCLM 291643Z AUTO 00000KT 3/4SM BR BKN002 OVC095 15/14 A2983 RMK AO2 T01500144 TSNO=
201308291623 SPECI KCLM 291623Z AUTO 00000KT M1/4SM FG VV002 14/14 A2984 RMK AO2 T01440139 TSNO=
201308291553 METAR KCLM 291553Z AUTO 00000KT M1/4SM FG VV001 14/14 A2985 RMK AO2 SLP107 T01440139 TSNO=
201308291549 SPECI KCLM 291549Z AUTO 00000KT M1/4SM FG VV001 14/14 A2985 RMK AO2 TSNO=
201308291540 SPECI KCLM 291540Z AUTO 00000KT 1/4SM FG BKN002 OVC085 14/14 A2985 RMK AO2 T01440139 TSNO=
201308291529 SPECI KCLM 291529Z AUTO 00000KT 3/4SM BR BKN002 BKN007 OVC085 14/14 A2985 RMK AO2 T01440139 TSNO=
201308291518 SPECI KCLM 291518Z AUTO 00000KT 1 1/2SM BR SCT002 BKN007 OVC012 15/14 A2985 RMK AO2 T01500139 TSNO=
201308291505 SPECI KCLM 291505Z AUTO 00000KT 2 1/2SM BR OVC007 15/14 A2985 RMK AO2 T01500144 TSNO=
201308291453 METAR KCLM 291453Z AUTO 00000KT 3SM BR OVC007 15/14 A2985 RMK AO2 RAE1355 SLP108 P0000 60000 T01500144 58003 TSNO=
201308291448 SPECI KCLM 291448Z AUTO 00000KT 2SM BR OVC007 14/14 A2985 RMK AO2 RAE1355 P0000 TSNO=
201308291442 SPECI KCLM 291442Z AUTO 00000KT 3/4SM BR FEW001 OVC007 14/14 A2985 RMK AO2 RAE1355 P0000 T01440139 TSNO=
201308291353 METAR KCLM 291353Z AUTO 00000KT 1/4SM -RA FG BKN007 OVC100 14/13 A2986 RMK AO2 RAB1259 SLP110 P0000 T01390133 TSNO=
201308291347 SPECI KCLM 291347Z AUTO 00000KT 1/4SM -RA FG BKN005 BKN100 OVC120 14/13 A2986 RMK AO2 RAB1259 P0000 TSNO=
201308291306 SPECI KCLM 291306Z AUTO 00000KT 3/4SM -RA BR FEW001 OVC090 15/14 A2986 RMK AO2 RAB1259 P0000 T01500144 TSNO=
201308291300 SPECI KCLM 291300Z AUTO 32004KT 2 1/2SM -RA BR SCT001 OVC095 15/15 A2985 RMK AO2 RAB1259 P0000 T01500150 TSNO=
201308291253 METAR KCLM 291253Z AUTO 13003KT 4SM BR BKN001 OVC090 16/15 A2986 RMK AO2 SLP110 T01560150 TSNO=
201308291251 SPECI KCLM 291251Z AUTO 12004KT 3SM BR BKN001 OVC090 16/15 A2986 RMK AO2 TSNO=
201308291248 SPECI KCLM 291248Z AUTO 11003KT 1 1/2SM BR BKN001 BKN021 OVC090 16/15 A2986 RMK AO2 TSNO=
201308291230 SPECI KCLM 291230Z AUTO 09004KT 3/4SM BR BKN001 OVC021 16/15 A2986 RMK AO2 T01560150 TSNO=
201308291228 SPECI KCLM 291228Z AUTO 09003KT 1SM BR SCT001 BKN021 16/15 A2986 RMK AO2 T01560150 TSNO=
201308291219 SPECI KCLM 291219Z AUTO 08003KT 2SM BR FEW002 BKN020 BKN110 16/15 A2986 RMK AO2 VIS 1V4 T01560150 TSNO=
201308291206 SPECI KCLM 291206Z AUTO 00000KT 1 3/4SM BR FEW020 SCT100 BKN120 15/15 A2986 RMK AO2 T01500150 TSNO=
201308291153 METAR KCLM 291153Z AUTO 00000KT 5SM BR BKN120 16/14 A2986 RMK AO2 SLP110 60000 70006 T01560144 10161 20156 58008 TSNO=
201308291103 SPECI KCLM 291103Z AUTO 00000KT 7SM SCT110 16/15 A2987 RMK AO2 T01560150 TSNO=
201308291053 METAR KCLM 291053Z AUTO 00000KT 2 1/2SM BR FEW110 16/14 A2987 RMK AO2 VIS 1 1/2V5 SLP112 T01560144 TSNO=
201308290953 METAR KCLM 290953Z AUTO 00000KT 10SM BKN090 16/15 A2988 RMK AO2 SLP118 T01560150 TSNO=
201308290853 METAR KCLM 290853Z AUTO 14003KT 10SM FEW085 16/15 A2988 RMK AO2 SLP119 60000 T01560150 58002 TSNO=
201308290753 METAR KCLM 290753Z AUTO 15003KT 10SM BKN080 OVC100 16/16 A2990 RMK AO2 RAB18E33 SLP124 P0000 T01610156 402170144 TSNO=
201308290727 SPECI KCLM 290727Z AUTO 00000KT 10SM -RA SCT010 BKN090 OVC110 16/15 A2990 RMK AO2 RAB18 P0000 T01610150 TSNO=
201308290653 METAR KCLM 290653Z AUTO 24003KT 10SM OVC010 16/16 A2990 RMK AO2 RAE12 SLP124 P0000 T01610156 TSNO=
201308290617 SPECI KCLM 290617Z AUTO 00000KT 10SM FEW003 BKN013 OVC065 16/15 A2989 RMK AO2 RAE12 P0000 T01610150 TSNO=
201308290606 SPECI KCLM 290606Z AUTO 00000KT 10SM -RA FEW003 BKN015 OVC110 16/14 A2990 RMK AO2 P0000 T01560144 TSNO=
201308290553 METAR KCLM 290553Z AUTO 00000KT 10SM -RA FEW015 SCT070 OVC110 16/14 A2989 RMK AO2 SLP122 P0005 60006 T01560144 10200 20150 50003 TSNO=
201308290453 METAR KCLM 290453Z AUTO 00000KT 10SM -RA OVC095 16/14 A2991 RMK AO2 RAB23 SLP127 P0001 T01560144 TSNO=
201308290353 METAR KCLM 290353Z AUTO 00000KT 10SM OVC085 17/15 A2989 RMK AO2 SLP121 T01720150 TSNO=
201308290253 METAR KCLM 290253Z AUTO 00000KT 10SM CLR 17/14 A2988 RMK AO2 SLP118 T01720139 55005 TSNO=
201308290153 METAR KCLM 290153Z AUTO 00000KT 10SM CLR 19/15 A2988 RMK AO2 SLP118 T01940150 TSNO=
201308290053 METAR KCLM 290053Z AUTO 00000KT 10SM FEW095 19/14 A2989 RMK AO2 SLP122 T01940144 TSNO=
201308282353 METAR KCLM 282353Z AUTO 03003KT 10SM CLR 19/14 A2989 RMK AO2 SLP123 T01940144 10217 20161 55001 TSNO=
201308282253 METAR KCLM 282253Z AUTO 35003KT 10SM CLR 19/14 A2989 RMK AO2 SLP122 T01940144 TSNO=
201308282153 METAR KCLM 282153Z AUTO 02004KT 10SM CLR 18/14 A2990 RMK AO2 SLP124 T01780139 TSNO=
201308282053 METAR KCLM 282053Z AUTO VRB03KT 10SM CLR 19/15 A2990 RMK AO2 SLP123 T01940150 51004 TSNO=
201308281953 METAR KCLM 281953Z AUTO VRB03KT 10SM FEW065 16/14 A2990 RMK AO2 SLP124 T01610139 TSNO=
201308281853 METAR KCLM 281853Z AUTO VRB03KT 10SM CLR 18/15 A2989 RMK AO2 SLP122 T01780150 TSNO=
201308281753 METAR KCLM 281753Z AUTO 00000KT 10SM SCT005 SCT060 17/15 A2989 RMK AO2 SLP120 60000 T01720150 10172 20144 53006 TSNO=
201308281727 SPECI KCLM 281727Z AUTO 00000KT 10SM OVC005 16/15 A2989 RMK AO2 T01610150 TSNO=
201308281653 METAR KCLM 281653Z AUTO 21003KT 8SM OVC003 16/15 A2988 RMK AO2 SLP119 T01610150 TSNO=
201308281553 METAR KCLM 281553Z AUTO 04003KT 7SM BKN004 BKN060 BKN080 16/14 A2987 RMK AO2 SLP114 T01560139 TSNO=
201308281525 SPECI KCLM 281525Z AUTO 00000KT 10SM FEW004 FEW010 OVC016 16/14 A2987 RMK AO2 T01560144 TSNO=
201308281515 SPECI KCLM 281515Z AUTO VRB03KT 10SM SCT006 SCT010 OVC014 16/14 A2987 RMK AO2 T01560144 TSNO=
201308281453 METAR KCLM 281453Z AUTO 12004KT 10SM OVC007 15/14 A2987 RMK AO2 SLP113 60000 T01500139 53012 TSNO=
201308281438 SPECI KCLM 281438Z AUTO 11004KT 9SM OVC007 16/14 A2986 RMK AO2 CIG 006V010 T01560144 TSNO=
201308281353 METAR KCLM 281353Z AUTO 00000KT 8SM OVC010 15/14 A2985 RMK AO2 RAB14E27 SLP109 P0000 T01500139 TSNO=
201308281342 SPECI KCLM 281342Z AUTO 00000KT 10SM FEW003 OVC010 15/14 A2985 RMK AO2 RAB14E27 CIG 006V011 P0000 T01500139 TSNO=
201308281253 METAR KCLM 281253Z AUTO 00000KT 10SM OVC007 14/14 A2984 RMK AO2 RAE00B12E29 SLP103 P0000 T01440139 TSNO $=
201308281212 SPECI KCLM 281212Z AUTO 00000KT 10SM -RA BKN007 OVC065 15/14 A2983 RMK AO2 RAE00B12 P0000 T01500139 TSNO $=
201308281203 SPECI KCLM 281203Z AUTO 00000KT 10SM SCT007 BKN065 OVC075 15/14 A2983 RMK AO2 RAE00 P0000 T01500139 TSNO $=
201308281153 METAR KCLM 281153Z AUTO 23003KT 10SM -RA SCT007 BKN020 OVC085 15/14 A2983 RMK AO2 RAB30 CIG 016V027 SLP102 P0000 60001 70028 T01500139 10156 20144 55003 TSNO $=
201308281146 SPECI KCLM 281146Z AUTO 00000KT 10SM -RA FEW007 BKN018 OVC075 15/14 A2983 RMK AO2 RAB30 CIG 014V027 P0000 T01500139 TSNO $=
201308281134 SPECI KCLM 281134Z AUTO 28003KT 10SM -RA SCT010 BKN018 OVC090 15/14 A2983 RMK AO2 RAB30 P0000 T01500139 TSNO $=
201308281053 METAR KCLM 281053Z AUTO 00000KT 10SM OVC008 14/14 A2983 RMK AO2 RAB29E38 SLP101 P0000 T01440139 TSNO $=
201308281033 SPECI KCLM 281033Z AUTO 00000KT 10SM -RA BKN009 OVC013 15/14 A2983 RMK AO2 RAB29 P0000 T01500139 TSNO $=
201308280953 METAR KCLM 280953Z AUTO 00000KT 10SM BKN012 OVC016 15/14 A2983 RMK AO2 SLP102 T01500139 TSNO $=
201308280909 SPECI KCLM 280909Z AUTO 13004KT 10SM OVC014 15/14 A2983 RMK AO2 T01500139 TSNO $=
201308280853 METAR KCLM 280853Z AUTO 12003KT 10SM OVC015 16/14 A2984 RMK AO2 RAE46 SLP105 P0000 60001 T01560139 50001 TSNO $=
201308280753 METAR KCLM 280753Z AUTO 14004KT 10SM -RA OVC017 15/14 A2984 RMK AO2 RAE05B28 SLP106 P0001 T01500139 402170117 TSNO $=
201308280710 SPECI KCLM 280710Z AUTO 15004KT 10SM BKN021 BKN100 OVC120 15/14 A2984 RMK AO2 RAE05 P0000 T01500139 TSNO $=
201308280653 METAR KCLM 280653Z AUTO 00000KT 10SM -RA BKN095 OVC110 15/14 A2984 RMK AO2 RAB09 SLP106 P0000 T01500139 TSNO $=
201308280553 METAR KCLM 280553Z AUTO 26003KT 10SM FEW049 BKN090 OVC110 15/14 A2984 RMK AO2 RAE38 SLP104 P0001 60027 T01500139 10178 20150 50003 TSNO $=
201308280453 METAR KCLM 280453Z AUTO 20003KT 10SM -RA OVC100 15/14 A2984 RMK AO2 SLP106 P0009 T01500139 TSNO=
201308280353 METAR KCLM 280353Z AUTO 23005KT 3SM RA BR BKN055 OVC075 16/14 A2986 RMK AO2 RAB15 SLP110 P0017 T01560139 TSNO=
201308280253 METAR KCLM 280253Z AUTO 27006KT 10SM OVC070 17/12 A2983 RMK AO2 SLP101 T01720117 58011 TSNO=
201308280153 METAR KCLM 280153Z AUTO 26005KT 10SM OVC080 17/13 A2984 RMK AO2 SLP104 T01720128 TSNO=
201308280053 METAR KCLM 280053Z AUTO 29008KT 10SM FEW060 BKN080 BKN110 16/12 A2986 RMK AO2 SLP113 T01560117 TSNO=
201308272353 METAR KCLM 272353Z AUTO 32006KT 10SM FEW110 18/11 A2986 RMK AO2 SLP112 T01830111 10217 20161 56008 TSNO=
201308272253 METAR KCLM 272253Z AUTO 36005KT 10SM CLR 20/11 A2986 RMK AO2 SLP112 T02000111 TSNO=
201308272153 METAR KCLM 272153Z AUTO 00000KT 10SM CLR 19/11 A2988 RMK AO2 SLP118 T01890106 TSNO=
201308272053 METAR KCLM 272053Z AUTO 34004KT 10SM CLR 17/12 A2989 RMK AO2 SLP120 T01720117 58006 TSNO=
201308271953 METAR KCLM 271953Z AUTO 01003KT 10SM CLR 19/12 A2989 RMK AO2 SLP122 T01890117 TSNO=
201308271853 METAR KCLM 271853Z AUTO 34004KT 10SM CLR 17/11 A2991 RMK AO2 SLP127 T01720111 TSNO=
201308271753 METAR KCLM 271753Z AUTO 00000KT 10SM CLR 17/12 A2990 RMK AO2 SLP126 T01670117 10172 20117 58003 TSNO=
201308271653 METAR KCLM 271653Z AUTO 08004KT 10SM CLR 16/12 A2991 RMK AO2 SLP129 T01560117 TSNO=
201308271553 METAR KCLM 271553Z AUTO 00000KT 10SM CLR 15/12 A2992 RMK AO2 SLP130 T01500122 TSNO=
201308271453 METAR KCLM 271453Z AUTO 00000KT 10SM CLR 13/11 A2991 RMK AO2 SLP129 T01330111 53002 TSNO=
201308271353 METAR KCLM 271353Z AUTO 00000KT 10SM CLR 12/10 A2991 RMK AO2 SLP128 T01170100 TSNO=
201308271253 METAR KCLM 271253Z AUTO 00000KT 10SM CLR 12/11 A2990 RMK AO2 SLP125 T01220106 TSNO=
201308271153 METAR KCLM 271153Z AUTO 00000KT 10SM CLR 13/11 A2991 RMK AO2 SLP126 T01280106 10150 20122 56007 TSNO=
201308271053 METAR KCLM 271053Z AUTO 00000KT 10SM FEW070 13/11 A2991 RMK AO2 SLP129 T01280106 TSNO=
201308270953 METAR KCLM 270953Z AUTO 00000KT 10SM CLR 13/11 A2992 RMK AO2 SLP130 T01330106 TSNO=
201308270853 METAR KCLM 270853Z AUTO 23004KT 10SM CLR 14/11 A2993 RMK AO2 SLP134 T01390111 50005 TSNO=
201308270753 METAR KCLM 270753Z AUTO 22003KT 10SM SCT080 14/11 A2993 RMK AO2 SLP135 T01390106 402280083 TSNO=
201308270653 METAR KCLM 270653Z AUTO 22003KT 10SM CLR 14/11 A2992 RMK AO2 SLP130 T01390106 TSNO=
201308270553 METAR KCLM 270553Z AUTO 22006KT 10SM CLR 14/11 A2991 RMK AO2 SLP129 60000 T01440111 10228 20133 53016 TSNO=
201308270453 METAR KCLM 270453Z AUTO 15003KT 10SM OVC065 15/11 A2989 RMK AO2 SLP120 T01500106 TSNO=
201308270353 METAR KCLM 270353Z AUTO 30003KT 10SM BKN070 14/10 A2988 RMK AO2 SLP118 T01440100 TSNO=
201308270253 METAR KCLM 270253Z AUTO 34004KT 10SM CLR 15/11 A2987 RMK AO2 SLP113 60000 T01500106 51009 TSNO=
201308270153 METAR KCLM 270153Z AUTO 29004KT 10SM CLR 17/10 A2986 RMK AO2 RAE0058 SLP111 P0000 T01670100 TSNO=
201308270053 METAR KCLM 270053Z AUTO VRB04KT 10SM -RA FEW065 OVC090 14/09 A2986 RMK AO2 RAB47 SLP112 P0000 T01390094 TSNO=
201308262353 METAR KCLM 262353Z AUTO 17011G17KT 10SM SCT070 22/07 A2984 RMK AO2 RAE2257 SLP104 P0000 60000 T02220072 10222 20161 58001 TSNO=
201308262253 METAR KCLM 262253Z AUTO 00000KT 10SM -RA BKN070 OVC090 19/11 A2985 RMK AO2 RAB37 SLP108 P0000 T01940106 TSNO=
201308262153 METAR KCLM 262153Z AUTO VRB05KT 10SM FEW085 21/09 A2984 RMK AO2 SLP106 T02060094 TSNO=
201308262053 METAR KCLM 262053Z AUTO 35005KT 10SM CLR 19/09 A2984 RMK AO2 SLP105 T01940094 56009 TSNO=
201308261953 METAR KCLM 261953Z AUTO VRB03KT 10SM BKN110 18/09 A2985 RMK AO2 SLP108 T01780089 TSNO=
201308261853 METAR KCLM 261853Z AUTO 04005KT 10SM FEW075 17/09 A2986 RMK AO2 SLP111 T01720094 TSNO=
201308261753 METAR KCLM 261753Z AUTO 07004KT 10SM FEW075 SCT110 16/09 A2987 RMK AO2 SLP114 T01610094 10172 20083 58005 TSNO=
201308261653 METAR KCLM 261653Z AUTO 02003KT 10SM OVC110 15/09 A2988 RMK AO2 SLP118 T01500089 TSNO=
201308261553 METAR KCLM 261553Z AUTO 02004KT 10SM CLR 17/10 A2988 RMK AO2 SLP118 T01670100 TSNO=
201308261453 METAR KCLM 261453Z AUTO 10SM CLR 14/11 A2989 RMK AO2 SLP120 T01390106 58001 TSNO=
201308261353 METAR KCLM 261353Z AUTO 23005KT 10SM CLR 09/08 A2989 RMK AO2 SLP121 T00940083 TSNO=
201308261253 METAR KCLM 261253Z AUTO 23005KT 10SM CLR 10/08 A2989 RMK AO2 SLP120 T01000078 TSNO=
201308261153 METAR KCLM 261153Z AUTO 00000KT 10SM CLR 09/08 A2989 RMK AO2 SLP121 T00940078 10122 20089 51002 TSNO=
201308261053 METAR KCLM 261053Z AUTO 23007KT 10SM CLR 10/08 A2989 RMK AO2 SLP121 T01000083 TSNO=
201308260953 METAR KCLM 260953Z AUTO 22005KT 10SM CLR 11/08 A2989 RMK AO2 SLP120 T01060083 TSNO=
201308260853 METAR KCLM 260853Z AUTO 23006KT 10SM CLR 11/09 A2988 RMK AO2 SLP119 T01060089 55005 TSNO=
201308260753 METAR KCLM 260753Z AUTO 23003KT 10SM CLR 12/09 A2988 RMK AO2 SLP118 T01220094 402060111 TSNO=
201308260653 METAR KCLM 260653Z AUTO 23006KT 10SM CLR 12/09 A2988 RMK AO2 SLP117 T01170094 TSNO=
201308260553 METAR KCLM 260553Z AUTO 21004KT 10SM CLR 12/09 A2990 RMK AO2 SLP124 T01220094 10172 20117 53004 TSNO=
201308260453 METAR KCLM 260453Z AUTO 00000KT 10SM CLR 12/09 A2988 RMK AO2 SLP119 T01170089 TSNO=
201308260353 METAR KCLM 260353Z AUTO 22003KT 10SM CLR 15/09 A2989 RMK AO2 SLP123 T01500089 TSNO=
201308260253 METAR KCLM 260253Z AUTO 00000KT 10SM CLR 16/10 A2989 RMK AO2 SLP120 T01610100 55004 TSNO=
201308260153 METAR KCLM 260153Z AUTO 31003KT 10SM BKN070 BKN100 17/09 A2988 RMK AO2 SLP119 T01670094 TSNO=
201308260053 METAR KCLM 260053Z AUTO 31005KT 10SM FEW075 17/10 A2989 RMK AO2 SLP121 T01670100 TSNO=
201308252353 METAR KCLM 252353Z AUTO 29005KT 10SM BKN095 17/09 A2990 RMK AO2 SLP124 T01670094 10206 20167 56006 TSNO=
201308252253 METAR KCLM 252253Z AUTO 35004KT 10SM CLR 17/09 A2990 RMK AO2 SLP124 T01720094 TSNO=
201308252153 METAR KCLM 252153Z AUTO 05005KT 10SM CLR 21/08 A2990 RMK AO2 SLP126 T02060078 TSNO=
201308252053 METAR KCLM 252053Z AUTO 05006KT 10SM CLR 18/09 A2992 RMK AO2 SLP130 T01830094 58010 TSNO=
201308251953 METAR KCLM 251953Z AUTO 34006KT 10SM CLR 17/11 A2993 RMK AO2 SLP134 T01670106 TSNO=
201308251853 METAR KCLM 251853Z AUTO 02005KT 10SM CLR 18/09 A2994 RMK AO2 SLP138 T01830089 TSNO=
201308251753 METAR KCLM 251753Z AUTO VRB04KT 10SM CLR 17/11 A2995 RMK AO2 SLP140 T01670111 10167 20111 56001 TSNO=
201308251653 METAR KCLM 251653Z AUTO 35005KT 10SM CLR 16/11 A2995 RMK AO2 SLP141 T01610106 TSNO=
201308251553 METAR KCLM 251553Z AUTO 27007KT 10SM CLR 16/09 A2994 RMK AO2 SLP139 T01610094 TSNO=
201308251453 METAR KCLM 251453Z AUTO 25010KT 10SM CLR 14/09 A2995 RMK AO2 SLP142 T01390094 53003 TSNO=
201308251353 METAR KCLM 251353Z AUTO 26007KT 10SM CLR 12/09 A2995 RMK AO2 SLP142 T01220094 TSNO=
201308251253 METAR KCLM 251253Z AUTO 27007KT 10SM CLR 12/09 A2994 RMK AO2 SLP139 T01220094 TSNO=
201308251153 METAR KCLM 251153Z AUTO 28006KT 10SM FEW038 12/10 A2994 RMK AO2 SLP139 70001 T01170100 10133 20111 50001 TSNO=
201308251053 METAR KCLM 251053Z AUTO 29004KT 10SM FEW040 12/11 A2994 RMK AO2 SLP139 T01170106 TSNO=
201308250953 METAR KCLM 250953Z AUTO 25005KT 10SM CLR 12/11 A2994 RMK AO2 SLP139 T01170106 TSNO=
201308250853 METAR KCLM 250853Z AUTO 27005KT 10SM CLR 12/11 A2994 RMK AO2 SLP138 T01220111 51005 TSNO=
201308250753 METAR KCLM 250753Z AUTO 24004KT 10SM CLR 12/12 A2994 RMK AO2 SLP138 T01220117 402060122 TSNO=
201308250653 METAR KCLM 250653Z AUTO 25004KT 10SM CLR 13/12 A2993 RMK AO2 SLP136 T01280117 TSNO=
201308250553 METAR KCLM 250553Z AUTO 29005KT 10SM CLR 13/12 A2993 RMK AO2 SLP133 60000 T01330117 10178 20122 51007 TSNO=
201308250453 METAR KCLM 250453Z AUTO 29007KT 10SM BKN060 15/12 A2992 RMK AO2 SLP133 T01500122 TSNO=
201308250353 METAR KCLM 250353Z AUTO 27009KT 10SM OVC060 16/13 A2992 RMK AO2 SLP131 T01560128 TSNO=
201308250253 METAR KCLM 250253Z AUTO 28008KT 10SM BKN055 OVC070 16/13 A2990 RMK AO2 SLP126 60000 T01610128 55003 TSNO=
201308250153 METAR KCLM 250153Z AUTO 31006KT 10SM SCT060 SCT085 17/13 A2990 RMK AO2 SLP124 T01670133 TSNO=
201308250053 METAR KCLM 250053Z AUTO 29005KT 10SM BKN041 OVC060 16/13 A2991 RMK AO2 RAB2354E12 SLP129 P0000 T01610133 TSNO=
201308242353 METAR KCLM 242353Z AUTO 28007KT 10SM OVC041 18/13 A2991 RMK AO2 SLP129 T01780133 10206 20172 58002 TSNO=
201308242253 METAR KCLM 242253Z AUTO 29011KT 10SM SCT033 BKN048 OVC100 18/13 A2992 RMK AO2 SLP130 T01830128 TSNO=
201308242153 METAR KCLM 242153Z AUTO 30008KT 10SM SCT036 BKN100 19/12 A2992 RMK AO2 SLP130 T01890122 TSNO=
201308242053 METAR KCLM 242053Z AUTO 36006KT 10SM FEW028 FEW040 SCT100 19/13 A2992 RMK AO2 SLP130 T01940128 53002 TSNO=
201308241953 METAR KCLM 241953Z AUTO 36006KT 10SM FEW023 SCT080 20/12 A2991 RMK AO2 SLP126 T02000122 TSNO=
201308241853 METAR KCLM 241853Z AUTO 06004KT 10SM SCT080 19/13 A2991 RMK AO2 SLP129 T01890133 TSNO=
201308241753 METAR KCLM 241753Z AUTO 09003KT 10SM SCT014 BKN055 BKN070 18/14 A2991 RMK AO2 SLP129 60001 T01780139 10183 20150 53002 TSNO=
201308241701 SPECI KCLM 241701Z AUTO 07003KT 10SM FEW010 SCT017 17/14 A2991 RMK AO2 T01720139 TSNO=
201308241653 METAR KCLM 241653Z AUTO 00000KT 10SM SCT014 BKN020 17/14 A2991 RMK AO2 SLP127 T01670139 TSNO=
201308241651 SPECI KCLM 241651Z AUTO 00000KT 10SM FEW010 BKN017 17/14 A2991 RMK AO2 TSNO=
201308241613 SPECI KCLM 241613Z AUTO VRB03KT 10SM BKN012 17/14 A2990 RMK AO2 T01720144 TSNO=
201308241553 METAR KCLM 241553Z AUTO VRB03KT 10SM SCT013 17/14 A2990 RMK AO2 SLP126 T01670139 TSNO=
201308241500 SPECI KCLM 241500Z AUTO 00000KT 10SM BKN014 BKN065 16/14 A2990 RMK AO2 T01610144 TSNO=
201308241453 METAR KCLM 241453Z AUTO 00000KT 10SM SCT014 BKN019 BKN065 16/14 A2990 RMK AO2 SLP125 60001 T01610139 53004 TSNO=
201308241436 SPECI KCLM 241436Z AUTO 00000KT 10SM SCT013 BKN018 BKN065 16/14 A2990 RMK AO2 T01560144 TSNO=
201308241353 METAR KCLM 241353Z AUTO 00000KT 10SM OVC013 15/14 A2989 RMK AO2 SLP121 T01500139 TSNO=
201308241253 METAR KCLM 241253Z AUTO 00000KT 10SM OVC011 15/14 A2988 RMK AO2 RAE23 SLP119 P0001 T01500139 TSNO=
201308241206 SPECI KCLM 241206Z AUTO 00000KT 10SM -RA OVC011 15/14 A2989 RMK AO2 P0000 T01500139 TSNO=
201308241153 METAR KCLM 241153Z AUTO 00000KT 10SM -RA OVC009 15/14 A2989 RMK AO2 RAE1056B42 SLP120 P0000 60000 70002 T01500139 10156 20144 56001 TSNO=
201308241150 SPECI KCLM 241150Z AUTO 00000KT 10SM -RA OVC009 15/14 A2989 RMK AO2 RAE1056B42 P0000 TSNO=
201308241053 METAR KCLM 241053Z AUTO 23003KT 10SM -RA OVC013 15/14 A2989 RMK AO2 RAB43 SLP121 P0000 T01500139 TSNO=
201308241022 SPECI KCLM 241022Z AUTO 00000KT 10SM BKN014 BKN034 OVC060 14/14 A2989 RMK AO2 T01440139 TSNO=
201308240953 METAR KCLM 240953Z AUTO 00000KT 10SM FEW031 OVC065 14/14 A2989 RMK AO2 SLP122 T01440139 TSNO=
201308240853 METAR KCLM 240853Z AUTO 00000KT 10SM OVC060 16/14 A2989 RMK AO2 SLP120 T01560139 58000 TSNO=
201308240753 METAR KCLM 240753Z AUTO 00000KT 10SM FEW019 OVC033 16/14 A2989 RMK AO2 SLP122 T01560139 402110122 TSNO=
201308240653 METAR KCLM 240653Z AUTO 00000KT 10SM OVC030 16/14 A2989 RMK AO2 SLP120 T01560144 TSNO=
201308240645 SPECI KCLM 240645Z AUTO 00000KT 10SM OVC030 16/14 A2989 RMK AO2 T01560144 TSNO=
201308240630 SPECI KCLM 240630Z AUTO 26004KT 10SM SCT014 OVC028 16/14 A2989 RMK AO2 T01560144 TSNO=
201308240618 SPECI KCLM 240618Z AUTO 29004KT 10SM BKN014 BKN018 OVC028 16/14 A2989 RMK AO2 T01560144 TSNO=
201308240553 METAR KCLM 240553Z AUTO 28003KT 10SM SCT013 BKN018 OVC055 16/14 A2989 RMK AO2 SLP121 60002 T01560139 10200 20156 50005 TSNO=
201308240539 SPECI KCLM 240539Z AUTO 00000KT 10SM SCT013 SCT028 OVC055 16/14 A2989 RMK AO2 T01560144 TSNO=
201308240531 SPECI KCLM 240531Z AUTO 28004KT 10SM SCT013 BKN028 OVC055 16/14 A2989 RMK AO2 T01560144 TSNO=
201308240517 SPECI KCLM 240517Z AUTO 26003KT 10SM FEW006 BKN012 OVC046 16/14 A2990 RMK AO2 T01560144 TSNO=
201308240453 METAR KCLM 240453Z AUTO 32004KT 10SM FEW007 BKN026 OVC044 16/14 A2990 RMK AO2 SLP123 T01560144 TSNO=
201308240428 SPECI KCLM 240428Z AUTO 25004KT 10SM SCT007 BKN015 OVC041 16/14 A2989 RMK AO2 T01560144 TSNO=
201308240414 SPECI KCLM 240414Z AUTO 29003KT 10SM BKN008 OVC013 16/14 A2989 RMK AO2 T01560144 TSNO=
201308240401 SPECI KCLM 240401Z AUTO 28004KT 10SM SCT008 BKN014 OVC080 16/14 A2989 RMK AO2 T01560144 TSNO=
201308240353 METAR KCLM 240353Z AUTO 29005KT 10SM BKN012 BKN050 OVC080 16/14 A2989 RMK AO2 RAE41 SLP120 P0001 T01560144 TSNO=
201308240253 METAR KCLM 240253Z AUTO 31007KT 4SM -RA BR BKN047 OVC055 16/14 A2987 RMK AO2 RAB37 SLP116 P0001 60001 T01560139 53001 TSNO=
201308240153 METAR KCLM 240153Z AUTO 31005KT 10SM OVC040 18/12 A2987 RMK AO2 SLP114 T01780122 TSNO=
201308240053 METAR KCLM 240053Z AUTO 36003KT 10SM BKN070 OVC095 19/12 A2987 RMK AO2 SLP114 T01940122 TSNO=
201308232353 METAR KCLM 232353Z AUTO 08006KT 10SM SCT070 BKN120 20/12 A2987 RMK AO2 SLP114 T02000122 10211 20172 58006 TSNO=
201308232253 METAR KCLM 232253Z AUTO 09003KT 10SM SCT028 SCT036 21/12 A2988 RMK AO2 SLP117 T02060122 TSNO=
201308232218 SPECI KCLM 232218Z AUTO VRB04KT 10SM OVC029 20/12 A2989 RMK AO2 T02000122 TSNO=
201308232153 METAR KCLM 232153Z AUTO VRB03KT 10SM OVC031 19/12 A2989 RMK AO2 SLP122 T01890122 TSNO=
201308232109 SPECI KCLM 232109Z AUTO 00000KT 10SM OVC030 18/12 A2989 RMK AO2 T01830122 TSNO=
201308232053 METAR KCLM 232053Z AUTO 00000KT 10SM OVC029 18/12 A2989 RMK AO2 SLP120 T01830122 50003 TSNO=
201308231953 METAR KCLM 231953Z AUTO VRB03KT 10SM OVC028 18/12 A2989 RMK AO2 SLP121 T01830122 TSNO=
201308231853 METAR KCLM 231853Z AUTO 31005KT 10SM OVC024 18/13 A2989 RMK AO2 SLP121 T01780128 TSNO=
201308231753 METAR KCLM 231753Z AUTO 01006KT 10SM BKN023 19/13 A2988 RMK AO2 SLP117 T01890128 10194 20122 53009 TSNO=
201308231745 SPECI KCLM 231745Z AUTO VRB05KT 10SM BKN024 19/13 A2988 RMK AO2 T01890128 TSNO=
201308231728 SPECI KCLM 231728Z AUTO 04004KT 10SM SCT024 18/13 A2987 RMK AO2 T01830128 TSNO=
201308231719 SPECI KCLM 231719Z AUTO VRB04KT 10SM BKN022 18/13 A2987 RMK AO2 T01780128 TSNO=
201308231710 SPECI KCLM 231710Z AUTO VRB04KT 10SM SCT019 SCT024 16/13 A2987 RMK AO2 T01610128 TSNO=
201308231653 METAR KCLM 231653Z AUTO 00000KT 10SM BKN018 17/13 A2987 RMK AO2 SLP113 T01720128 TSNO=
201308231639 SPECI KCLM 231639Z AUTO 03004KT 10SM BKN018 17/13 A2986 RMK AO2 T01720128 TSNO=
201308231553 METAR KCLM 231553Z AUTO 12004KT 10SM CLR 17/13 A2986 RMK AO2 SLP111 T01720128 TSNO=
201308231453 METAR KCLM 231453Z AUTO 13003KT 10SM CLR 16/13 A2985 RMK AO2 SLP107 T01610128 53000 TSNO=
201308231353 METAR KCLM 231353Z AUTO 00000KT 10SM CLR 13/12 A2984 RMK AO2 SLP105 T01280117 TSNO=
201308231253 METAR KCLM 231253Z AUTO 24005KT 10SM CLR 13/12 A2984 RMK AO2 SLP105 T01330117 TSNO=
201308231153 METAR KCLM 231153Z AUTO 28007KT 10SM CLR 14/13 A2985 RMK AO2 SLP106 T01440128 10150 20139 50001 TSNO=
201308231053 METAR KCLM 231053Z AUTO 29011KT 10SM CLR 14/13 A2986 RMK AO2 SLP110 T01440128 TSNO=
201308231008 SPECI KCLM 231008Z AUTO 28009KT 10SM FEW007 14/13 A2985 RMK AO2 T01440128 TSNO=
201308230953 METAR KCLM 230953Z AUTO 28011KT 10SM CLR 14/13 A2985 RMK AO2 SLP107 T01440128 TSNO=
201308230853 METAR KCLM 230853Z AUTO 30011KT 10SM CLR 14/13 A2985 RMK AO2 SLP106 T01440128 53001 TSNO=
201308230753 METAR KCLM 230753Z AUTO 30013KT 10SM CLR 15/13 A2984 RMK AO2 SLP105 T01500128 402610083 TSNO=
201308230653 METAR KCLM 230653Z AUTO 28008KT 10SM CLR 14/13 A2984 RMK AO2 SLP103 T01440128 TSNO=
201308230553 METAR KCLM 230553Z AUTO 27007KT 10SM CLR 14/13 A2984 RMK AO2 SLP105 T01440128 10217 20139 50005 TSNO=
201308230453 METAR KCLM 230453Z AUTO 29008KT 10SM CLR 16/13 A2984 RMK AO2 SLP105 T01560128 TSNO=
201308230353 METAR KCLM 230353Z AUTO 29009KT 10SM CLR 17/13 A2984 RMK AO2 SLP104 T01720128 TSNO=
201308230253 METAR KCLM 230253Z AUTO 30006KT 10SM CLR 19/12 A2983 RMK AO2 SLP100 T01940117 58005 TSNO=
201308230153 METAR KCLM 230153Z AUTO 31005KT 10SM CLR 20/10 A2983 RMK AO2 SLP102 T02000100 TSNO=
201308230053 METAR KCLM 230053Z AUTO 31003KT 10SM CLR 18/09 A2984 RMK AO2 SLP105 T01830094 TSNO=
201308222353 METAR KCLM 222353Z AUTO 32005KT 10SM CLR 22/09 A2984 RMK AO2 SLP106 T02170094 10261 20217 58014 TSNO=
201308222253 METAR KCLM 222253Z AUTO 01004KT 10SM CLR 25/10 A2985 RMK AO2 SLP108 T02500100 TSNO=
201308222153 METAR KCLM 222153Z AUTO 02004KT 10SM CLR 24/11 A2988 RMK AO2 SLP118 T02440106 TSNO=
201308222053 METAR KCLM 222053Z AUTO VRB06KT 10SM CLR 26/11 A2988 RMK AO2 SLP119 T02560111 58014 TSNO=
201308221953 METAR KCLM 221953Z AUTO 10004KT 10SM CLR 24/11 A2990 RMK AO2 SLP126 T02390111 TSNO=
201308221853 METAR KCLM 221853Z AUTO 08007KT 10SM CLR 24/10 A2992 RMK AO2 SLP130 T02390100 TSNO=
201308221753 METAR KCLM 221753Z AUTO 09007KT 10SM CLR 24/09 A2993 RMK AO2 SLP132 T02440089 10244 20083 58008 TSNO=
201308221653 METAR KCLM 221653Z AUTO 09008KT 10SM CLR 23/09 A2993 RMK AO2 SLP134 T02280089 TSNO=
201308221553 METAR KCLM 221553Z AUTO 00000KT 10SM CLR 19/08 A2995 RMK AO2 SLP140 T01940083 TSNO=
201308221453 METAR KCLM 221453Z AUTO 00000KT 10SM CLR 16/07 A2995 RMK AO2 SLP141 T01560072 53004 TSNO=
201308221353 METAR KCLM 221353Z AUTO 00000KT 10SM CLR 09/06 A2994 RMK AO2 SLP140 T00890056 TSNO=
201308221253 METAR KCLM 221253Z AUTO 17003KT 10SM CLR 09/05 A2994 RMK AO2 SLP137 T00890050 TSNO=
201308221153 METAR KCLM 221153Z AUTO 00000KT 10SM CLR 09/05 A2994 RMK AO2 SLP136 T00890050 10139 20083 58006 TSNO=
201308221053 METAR KCLM 221053Z AUTO 00000KT 10SM CLR 11/05 A2995 RMK AO2 SLP140 T01060050 TSNO=
201308220953 METAR KCLM 220953Z AUTO 00000KT 10SM CLR 09/05 A2995 RMK AO2 SLP141 T00890050 TSNO=
201308220853 METAR KCLM 220853Z AUTO 00000KT 10SM CLR 09/06 A2995 RMK AO2 SLP143 T00940056 56009 TSNO=
201308220753 METAR KCLM 220753Z AUTO 23004KT 10SM CLR 10/07 A2996 RMK AO2 SLP145 T01000067 402720083 TSNO=
201308220653 METAR KCLM 220653Z AUTO 15003KT 10SM CLR 12/07 A2997 RMK AO2 SLP149 T01170072 TSNO=
201308220553 METAR KCLM 220553Z AUTO 22004KT 10SM CLR 14/08 A2998 RMK AO2 SLP151 T01390083 10261 20128 58000 TSNO=
201308220453 METAR KCLM 220453Z AUTO 00000KT 10SM CLR 14/09 A2998 RMK AO2 SLP153 T01390094 TSNO=
201308220400 METAR KCLM NIL=
201308220353 METAR KCLM 220353Z AUTO 00000KT 10SM CLR 16/09 A2998 RMK AO2 SLP151 T01610094 TSNO=
201308220253 METAR KCLM 220253Z AUTO 25004KT 10SM CLR 18/09 A2998 RMK AO2 SLP152 T01830089 56009 TSNO=
201308220153 METAR KCLM 220153Z AUTO 31005KT 10SM CLR 20/09 A2999 RMK AO2 SLP155 T02000089 TSNO=
201308220053 METAR KCLM 220053Z AUTO 35006KT 10SM CLR 21/09 A3000 RMK AO2 SLP158 T02060089 TSNO=
201308212353 METAR KCLM 212353Z AUTO 04006KT 10SM CLR 26/08 A3001 RMK AO2 SLP160 T02610078 10272 20206 57020 TSNO=
201308212253 METAR KCLM 212253Z AUTO VRB03KT 10SM CLR 26/05 A3003 RMK AO2 SLP169 T02560050 TSNO=
201308212153 METAR KCLM 212153Z AUTO 09007KT 10SM CLR 25/06 A3004 RMK AO2 SLP173 T02500061 TSNO=
201308212053 METAR KCLM 212053Z AUTO VRB05KT 10SM CLR 23/09 A3007 RMK AO2 SLP182 T02280089 58015 TSNO=
201308211953 METAR KCLM 211953Z AUTO VRB05KT 10SM CLR 22/10 A3009 RMK AO2 SLP188 T02220100 TSNO=
201308211853 METAR KCLM 211853Z AUTO 09008KT 10SM CLR 21/10 A3010 RMK AO2 SLP191 T02110100 TSNO=
201308211753 METAR KCLM 211753Z AUTO 11007KT 10SM CLR 21/10 A3011 RMK AO2 SLP195 T02110100 10217 20100 50000 TSNO=
201308211653 METAR KCLM 211653Z AUTO 09006KT 10SM CLR 20/09 A3011 RMK AO2 SLP196 T02000094 TSNO=
201308211553 METAR KCLM 211553Z AUTO 10006KT 10SM CLR 19/09 A3012 RMK AO2 SLP200 T01940089 TSNO=
201308211453 METAR KCLM 211453Z AUTO 00000KT 10SM CLR 16/09 A3011 RMK AO2 SLP197 T01610089 51004 TSNO=
201308211353 METAR KCLM 211353Z AUTO 00000KT 10SM CLR 10/07 A3011 RMK AO2 SLP196 T01000067 TSNO=
201308211253 METAR KCLM 211253Z AUTO 24010KT 10SM CLR 13/07 A3010 RMK AO2 SLP193 T01280072 TSNO=
201308211153 METAR KCLM 211153Z AUTO 23009KT 10SM CLR 13/07 A3010 RMK AO2 SLP192 T01280072 10150 20083 58005 TSNO=
201308211053 METAR KCLM 211053Z AUTO 00000KT 10SM CLR 09/07 A3011 RMK AO2 SLP194 T00940067 TSNO=
201308210953 METAR KCLM 210953Z AUTO 00000KT 10SM CLR 08/07 A3011 RMK AO2 SLP195 T00830067 TSNO=
201308210853 METAR KCLM 210853Z AUTO 00000KT 10SM CLR 11/08 A3011 RMK AO2 SLP197 T01060083 55000 TSNO=
201308210753 METAR KCLM 210753Z AUTO 23003KT 10SM CLR 12/09 A3011 RMK AO2 SLP197 T01220089 402060094 TSNO=
201308210653 METAR KCLM 210653Z AUTO 26007KT 10SM CLR 14/09 A3011 RMK AO2 SLP195 T01440089 TSNO=
201308210553 METAR KCLM 210553Z AUTO 25009KT 10SM CLR 15/09 A3011 RMK AO2 SLP197 T01500094 10194 20111 58004 TSNO=
201308210453 METAR KCLM 210453Z AUTO 23006KT 10SM CLR 12/09 A3013 RMK AO2 SLP202 T01220089 TSNO=
201308210353 METAR KCLM 210353Z AUTO 27003KT 10SM CLR 13/09 A3013 RMK AO2 SLP203 T01280089 TSNO=
201308210253 METAR KCLM 210253Z AUTO 28003KT 10SM CLR 15/10 A3013 RMK AO2 SLP201 T01500100 56005 TSNO=
201308210153 METAR KCLM 210153Z AUTO 31006KT 10SM CLR 16/10 A3013 RMK AO2 SLP202 T01560100 TSNO=
201308210053 METAR KCLM 210053Z AUTO 32006KT 10SM CLR 18/11 A3013 RMK AO2 SLP204 T01780111 TSNO=
201308202353 METAR KCLM 202353Z AUTO 01005KT 10SM CLR 19/11 A3014 RMK AO2 SLP207 T01940106 10206 20161 58013 TSNO=
201308202253 METAR KCLM 202253Z AUTO 36005KT 10SM CLR 19/11 A3016 RMK AO2 SLP211 T01940106 TSNO=
201308202153 METAR KCLM 202153Z AUTO VRB05KT 10SM CLR 20/10 A3017 RMK AO2 SLP217 T02000100 TSNO=
201308202053 METAR KCLM 202053Z AUTO 36004KT 10SM CLR 19/11 A3018 RMK AO2 SLP219 T01890106 58004 TSNO=
201308201953 METAR KCLM 201953Z AUTO 01007KT 10SM CLR 19/11 A3018 RMK AO2 SLP220 T01890106 TSNO=
201308201853 METAR KCLM 201853Z AUTO 02004KT 10SM CLR 17/11 A3019 RMK AO2 SLP223 T01720106 TSNO=
201308201753 METAR KCLM 201753Z AUTO 33007KT 300V360 10SM CLR 16/11 A3019 RMK AO2 SLP223 T01610106 10172 20094 51005 TSNO=
201308201653 METAR KCLM 201653Z AUTO 34004KT 10SM CLR 17/11 A3019 RMK AO2 SLP221 T01670106 TSNO=
201308201553 METAR KCLM 201553Z AUTO VRB04KT 10SM CLR 16/10 A3018 RMK AO2 SLP221 T01610100 TSNO $=
201308201453 METAR KCLM 201453Z AUTO 27006KT 10SM CLR 13/11 A3018 RMK AO2 SLP218 T01330106 51010 TSNO $=
201308201353 METAR KCLM 201353Z AUTO 00000KT 10SM CLR 09/09 A3017 RMK AO2 SLP216 T00940089 TSNO $=
201308201335 SPECI KCLM 201335Z AUTO 23003KT 10SM SCT001 10/09 A3017 RMK AO2 T01000094 TSNO $=
201308201328 SPECI KCLM 201328Z AUTO 26005KT 1SM BR VV001 10/09 A3017 RMK AO2 T01000094 TSNO $=
201308201313 SPECI KCLM 201313Z AUTO 29007KT 1/4SM FG VV001 11/10 A3016 RMK AO2 T01060100 TSNO $=
201308201305 SPECI KCLM 201305Z AUTO 31008KT 1/2SM FG VV001 11/10 A3016 RMK AO2 T01060100 TSNO $=
201308201253 METAR KCLM 201253Z AUTO 30008KT 1/2SM FG VV002 11/10 A3016 RMK AO2 SLP214 T01060100 TSNO $=
201308201245 SPECI KCLM 201245Z AUTO 29007KT 3/4SM BR VV002 11/10 A3016 RMK AO2 T01110100 TSNO $=
201308201242 SPECI KCLM 201242Z AUTO 30007KT 1SM BR VV001 11/10 A3016 RMK AO2 T01110100 TSNO $=
201308201237 SPECI KCLM 201237Z AUTO 30007KT 2 1/2SM BR BKN002 11/10 A3016 RMK AO2 VIS 1V5 T01060100 TSNO $=
201308201233 SPECI KCLM 201233Z AUTO 31007KT 5SM BR SCT002 11/10 A3016 RMK AO2 T01060100 TSNO $=
201308201153 METAR KCLM 201153Z AUTO 31007KT 10SM CLR 12/09 A3014 RMK AO2 SLP207 T01170089 10150 20111 51004 TSNO $=
201308201053 METAR KCLM 201053Z AUTO 32006KT 10SM CLR 11/08 A3014 RMK AO2 SLP207 T01110083 TSNO $=
201308200953 METAR KCLM 200953Z AUTO 30008KT 10SM CLR 12/08 A3013 RMK AO2 SLP204 T01170083 TSNO $=
201308200853 METAR KCLM 200853Z AUTO 26008KT 10SM CLR 13/09 A3013 RMK AO2 SLP203 T01330089 56002 TSNO $=
201308200753 METAR KCLM 200753Z AUTO 27010KT 10SM CLR 14/09 A3013 RMK AO2 SLP203 T01390094 402060122 TSNO $=
201308200653 METAR KCLM 200653Z AUTO 27010KT 10SM CLR 14/09 A3013 RMK AO2 SLP204 T01390094 TSNO=
201308200553 METAR KCLM 200553Z AUTO 29011KT 10SM CLR 15/09 A3014 RMK AO2 SLP205 T01500094 10194 20139 51009 TSNO=
201308200453 METAR KCLM 200453Z AUTO 28007KT 10SM CLR 14/09 A3014 RMK AO2 SLP205 T01440094 TSNO=
201308200353 METAR KCLM 200353Z AUTO 28012KT 10SM CLR 15/10 A3013 RMK AO2 SLP201 T01500100 TSNO=
201308200253 METAR KCLM 200253Z AUTO 28013KT 10SM CLR 16/10 A3011 RMK AO2 SLP196 T01610100 58006 TSNO=
201308200153 METAR KCLM 200153Z AUTO 27010G20KT 10SM CLR 18/10 A3012 RMK AO2 SLP199 T01780100 TSNO=
201308200053 METAR KCLM 200053Z AUTO 29011G19KT 10SM CLR 18/11 A3013 RMK AO2 SLP202 T01830111 TSNO=
201308192353 METAR KCLM 192353Z AUTO 31011KT 10SM SCT040 19/12 A3013 RMK AO2 SLP202 T01940117 10206 20172 58002 TSNO=
201308192253 METAR KCLM 192253Z AUTO 29006KT 10SM OVC033 18/13 A3014 RMK AO2 SLP205 T01780133 TSNO=
201308192234 SPECI KCLM 192234Z AUTO 31009KT 10SM OVC031 17/13 A3014 RMK AO2 T01720133 TSNO=
201308192153 METAR KCLM 192153Z AUTO 29005KT 10SM OVC024 17/13 A3014 RMK AO2 SLP207 T01720128 TSNO=
201308192141 SPECI KCLM 192141Z AUTO 32005KT 10SM BKN022 OVC032 17/13 A3014 RMK AO2 T01720128 TSNO=
201308192053 METAR KCLM 192053Z AUTO 32008KT 290V360 10SM BKN036 19/13 A3014 RMK AO2 SLP205 T01940128 51008 TSNO=
201308191953 METAR KCLM 191953Z AUTO 31009KT 10SM FEW065 SCT080 20/11 A3013 RMK AO2 SLP202 T02000111 TSNO=
201308191853 METAR KCLM 191853Z AUTO VRB06KT 10SM OVC065 19/11 A3012 RMK AO2 SLP201 T01940111 TSNO=
201308191753 METAR KCLM 191753Z AUTO 34005KT 10SM OVC065 18/12 A3011 RMK AO2 SLP196 T01830117 10189 20139 53008 TSNO=
201308191653 METAR KCLM 191653Z AUTO 35007KT 10SM BKN065 19/12 A3010 RMK AO2 SLP191 T01890122 TSNO=
201308191553 METAR KCLM 191553Z AUTO 28003KT 10SM OVC065 17/12 A3010 RMK AO2 SLP192 T01720122 TSNO=
201308191453 METAR KCLM 191453Z AUTO 00000KT 10SM OVC060 16/12 A3009 RMK AO2 SLP188 T01610122 51003 TSNO=
201308191353 METAR KCLM 191353Z AUTO 22004KT 10SM OVC055 14/12 A3009 RMK AO2 SLP188 T01440122 TSNO=
201308191253 METAR KCLM 191253Z AUTO 22003KT 10SM OVC060 14/12 A3008 RMK AO2 SLP186 T01440122 TSNO=
201308191153 METAR KCLM 191153Z AUTO 00000KT 10SM OVC055 14/12 A3008 RMK AO2 SLP185 T01440122 10150 20122 55001 TSNO=
201308191053 METAR KCLM 191053Z AUTO 29003KT 10SM OVC080 14/12 A3007 RMK AO2 SLP183 T01390122 TSNO=
201308190953 METAR KCLM 190953Z AUTO 25004KT 10SM FEW080 13/12 A3008 RMK AO2 SLP184 T01330117 TSNO=
201308190853 METAR KCLM 190853Z AUTO 00000KT 10SM CLR 14/12 A3008 RMK AO2 SLP186 T01390117 56009 TSNO=
201308190753 METAR KCLM 190753Z AUTO 30003KT 10SM OVC034 14/12 A3009 RMK AO2 SLP189 T01440122 402110128 TSNO=
201308190653 METAR KCLM 190653Z AUTO 26003KT 10SM FEW034 14/12 A3009 RMK AO2 SLP188 T01440122 TSNO=
201308190553 METAR KCLM 190553Z AUTO 28007KT 10SM OVC036 16/12 A3011 RMK AO2 SLP195 T01560122 10194 20150 58000 TSNO=
201308190453 METAR KCLM 190453Z AUTO 26006KT 10SM BKN036 16/12 A3011 RMK AO2 SLP196 T01560122 TSNO=
201308190353 METAR KCLM 190353Z AUTO 28006KT 10SM OVC037 16/11 A3011 RMK AO2 SLP195 T01610111 TSNO=
201308190253 METAR KCLM 190253Z AUTO 28010KT 10SM OVC035 18/11 A3011 RMK AO2 SLP195 T01780106 56007 TSNO=
201308190153 METAR KCLM 190153Z AUTO 28011KT 10SM OVC034 18/11 A3011 RMK AO2 SLP196 T01830111 TSNO=
201308190053 METAR KCLM 190053Z AUTO 28010KT 10SM OVC033 19/12 A3012 RMK AO2 SLP200 T01890117 TSNO=
201308182353 METAR KCLM 182353Z AUTO 30011KT 10SM OVC045 19/11 A3013 RMK AO2 SLP202 T01940111 10211 20167 58004 TSNO=
201308182253 METAR KCLM 182253Z AUTO 31007KT 10SM FEW016 OVC037 18/13 A3014 RMK AO2 SLP206 T01830128 TSNO=
201308182153 METAR KCLM 182153Z AUTO 30007KT 10SM OVC031 17/13 A3015 RMK AO2 SLP208 T01670133 TSNO=
201308182053 METAR KCLM 182053Z AUTO VRB04KT 10SM BKN033 OVC042 17/14 A3014 RMK AO2 SLP206 T01720139 51007 TSNO=
201308182003 SPECI KCLM 182003Z AUTO 31007KT 280V340 10SM BKN030 BKN041 OVC049 19/13 A3013 RMK AO2 T01940133 TSNO=
201308181953 METAR KCLM 181953Z AUTO 31008G14KT 10SM BKN029 OVC041 20/13 A3013 RMK AO2 SLP202 T02000133 TSNO=
201308181853 METAR KCLM 181853Z AUTO 33009KT 10SM FEW010 SCT041 BKN070 18/13 A3013 RMK AO2 SLP203 T01780133 TSNO=
201308181753 METAR KCLM 181753Z AUTO VRB05KT 10SM FEW033 19/13 A3012 RMK AO2 SLP198 T01890128 10189 20128 53006 TSNO=
201308181653 METAR KCLM 181653Z AUTO VRB04KT 10SM CLR 18/13 A3011 RMK AO2 SLP195 T01780128 TSNO=
201308181553 METAR KCLM 181553Z AUTO 00000KT 10SM FEW055 18/13 A3010 RMK AO2 SLP192 T01830128 TSNO=
201308181453 METAR KCLM 181453Z AUTO 24004KT 10SM FEW026 OVC060 16/13 A3010 RMK AO2 SLP193 T01610128 53006 TSNO=
201308181353 METAR KCLM 181353Z AUTO 23003KT 10SM OVC050 15/13 A3010 RMK AO2 SLP191 T01500128 TSNO=
201308181327 SPECI KCLM 181327Z AUTO 24004KT 10SM SCT026 OVC050 14/13 A3009 RMK AO2 T01390128 TSNO=
201308181253 METAR KCLM 181253Z AUTO 00000KT 10SM BKN026 OVC055 14/12 A3009 RMK AO2 SLP188 T01390122 TSNO=
201308181153 METAR KCLM 181153Z AUTO 00000KT 10SM OVC025 15/13 A3008 RMK AO2 SLP187 T01500128 10161 20150 50001 TSNO=
201308181053 METAR KCLM 181053Z AUTO 00000KT 10SM OVC027 15/13 A3009 RMK AO2 SLP188 T01500128 TSNO=
201308181021 SPECI KCLM 181021Z AUTO 00000KT 10SM OVC028 15/13 A3008 RMK AO2 T01500128 TSNO=
201308180953 METAR KCLM 180953Z AUTO 26005KT 10SM OVC030 15/13 A3009 RMK AO2 SLP187 T01500128 TSNO=
201308180936 SPECI KCLM 180936Z AUTO 00000KT 10SM OVC030 15/13 A3008 RMK AO2 T01500128 TSNO=
201308180921 SPECI KCLM 180921Z AUTO 00000KT 10SM BKN029 OVC070 15/13 A3008 RMK AO2 T01500128 TSNO=
201308180853 METAR KCLM 180853Z AUTO 30004KT 10SM OVC070 15/13 A3008 RMK AO2 SLP185 T01500128 58001 TSNO=
201308180812 SPECI KCLM 180812Z AUTO 28003KT 10SM SCT025 OVC075 16/13 A3009 RMK AO2 T01560128 TSNO=
201308180753 METAR KCLM 180753Z AUTO 00000KT 10SM OVC025 16/13 A3009 RMK AO2 SLP188 T01560128 402000150 TSNO=
201308180653 METAR KCLM 180653Z AUTO 30003KT 10SM OVC023 16/13 A3009 RMK AO2 SLP187 T01560128 TSNO=
201308180553 METAR KCLM 180553Z AUTO 29009KT 10SM OVC022 16/13 A3008 RMK AO2 SLP185 T01610133 10200 20156 51004 TSNO=
201308180453 METAR KCLM 180453Z AUTO 28008KT 10SM OVC024 16/13 A3008 RMK AO2 SLP186 T01610128 TSNO=
201308180353 METAR KCLM 180353Z AUTO 27007KT 10SM OVC025 17/12 A3007 RMK AO2 SLP183 T01670122 TSNO=
201308180253 METAR KCLM 180253Z AUTO 27009KT 10SM BKN022 OVC090 18/12 A3007 RMK AO2 SLP182 T01780117 55002 TSNO=
201308180204 SPECI KCLM 180204Z AUTO 26010KT 10SM BKN021 18/12 A3007 RMK AO2 T01830117 TSNO=
201308180153 METAR KCLM 180153Z AUTO 29009KT 10SM SCT021 18/12 A3006 RMK AO2 SLP180 T01830117 TSNO=
201308180053 METAR KCLM 180053Z AUTO 30011KT 10SM FEW020 19/11 A3007 RMK AO2 SLP182 T01940111 TSNO=
201308180046 SPECI KCLM 180046Z AUTO 31010KT 10SM SCT020 19/12 A3007 RMK AO2 T01940117 TSNO=
201308172353 METAR KCLM 172353Z AUTO 30008KT 10SM OVC020 19/12 A3008 RMK AO2 SLP183 T01940122 10200 20172 58005 TSNO=
201308172253 METAR KCLM 172253Z AUTO 31008KT 10SM OVC019 19/12 A3009 RMK AO2 SLP187 T01940122 TSNO=
201308172153 METAR KCLM 172153Z AUTO 31010KT 10SM OVC017 19/13 A3009 RMK AO2 SLP189 T01940133 TSNO=
201308172129 SPECI KCLM 172129Z AUTO 31012KT 10SM BKN016 OVC022 19/14 A3009 RMK AO2 T01890139 TSNO=
201308172053 METAR KCLM 172053Z AUTO 30010KT 10SM OVC013 19/14 A3009 RMK AO2 SLP188 T01890139 50009 TSNO=
201308172042 SPECI KCLM 172042Z AUTO 30009KT 10SM BKN014 OVC021 19/14 A3009 RMK AO2 T01890139 TSNO=
201308171953 METAR KCLM 171953Z AUTO 32008KT 10SM OVC020 18/14 A3009 RMK AO2 SLP189 T01780139 TSNO=
201308171853 METAR KCLM 171853Z AUTO 34008KT 10SM BKN018 19/14 A3008 RMK AO2 SLP186 T01890139 TSNO=
201308171840 SPECI KCLM 171840Z AUTO 31005KT 10SM BKN018 18/14 A3008 RMK AO2 T01830139 TSNO=
201308171753 METAR KCLM 171753Z AUTO 32006KT 10SM FEW060 19/14 A3006 RMK AO2 SLP179 T01890144 10194 20150 51012 TSNO=
201308171653 METAR KCLM 171653Z AUTO 31006KT 10SM OVC060 18/14 A3005 RMK AO2 SLP176 T01830144 TSNO=
201308171553 METAR KCLM 171553Z AUTO 36003KT 10SM FEW070 18/14 A3004 RMK AO2 SLP171 T01780144 TSNO=
201308171453 METAR KCLM 171453Z AUTO 00000KT 10SM CLR 17/14 A3003 RMK AO2 SLP167 T01670139 51010 TSNO=
201308171353 METAR KCLM 171353Z AUTO 25005KT 10SM CLR 16/13 A3002 RMK AO2 SLP165 T01610133 TSNO=
201308171253 METAR KCLM 171253Z AUTO 22004KT 10SM BKN060 16/13 A3000 RMK AO2 SLP159 T01560133 TSNO=
201308171153 METAR KCLM 171153Z AUTO 26003KT 10SM FEW065 16/13 A3000 RMK AO2 SLP157 T01560133 10183 20156 58003 TSNO=
201308171053 METAR KCLM 171053Z AUTO 25006KT 10SM SCT080 17/14 A3001 RMK AO2 SLP161 T01670139 TSNO=
201308170953 METAR KCLM 170953Z AUTO 28006KT 10SM OVC080 17/13 A3001 RMK AO2 SLP160 T01720133 TSNO=
201308170853 METAR KCLM 170853Z AUTO 27007KT 10SM BKN080 OVC095 18/13 A3001 RMK AO2 SLP160 T01780128 55002 TSNO=
201308170753 METAR KCLM 170753Z AUTO 28005KT 10SM OVC085 18/13 A3000 RMK AO2 SLP158 T01780128 402330111 TSNO=
201308170653 METAR KCLM 170653Z AUTO 26006KT 10SM OVC080 18/13 A3000 RMK AO2 SLP159 T01830128 TSNO=
201308170553 METAR KCLM 170553Z AUTO 27006KT 10SM OVC075 18/13 A3001 RMK AO2 SLP162 T01830128 10217 20183 53004 TSNO=
201308170453 METAR KCLM 170453Z AUTO 27006KT 10SM BKN075 OVC110 18/13 A3000 RMK AO2 SLP160 T01830128 TSNO=
201308170353 METAR KCLM 170353Z AUTO 25007KT 10SM SCT080 BKN120 19/13 A3000 RMK AO2 SLP157 T01890128 TSNO=
201308170253 METAR KCLM 170253Z AUTO 27007KT 10SM CLR 19/13 A3000 RMK AO2 SLP157 T01890128 53001 TSNO=
201308170153 METAR KCLM 170153Z AUTO 28008KT 10SM SCT120 21/13 A2999 RMK AO2 SLP156 T02060133 TSNO=
201308170053 METAR KCLM 170053Z AUTO 30008KT 10SM CLR 21/13 A2999 RMK AO2 SLP157 T02110128 TSNO=
201308162353 METAR KCLM 162353Z AUTO 32008KT 10SM CLR 21/14 A3000 RMK AO2 SLP157 T02110139 10233 20161 58002 TSNO=
201308162253 METAR KCLM 162253Z AUTO VRB05KT 10SM CLR 23/14 A3000 RMK AO2 SLP157 T02280144 TSNO=
201308162153 METAR KCLM 162153Z AUTO 34007KT 10SM CLR 20/14 A3001 RMK AO2 SLP162 T02000144 TSNO=
201308162053 METAR KCLM 162053Z AUTO VRB04KT 10SM CLR 21/15 A3000 RMK AO2 SLP160 T02110150 58004 TSNO=
201308161953 METAR KCLM 161953Z AUTO 03004KT 10SM FEW110 18/14 A3001 RMK AO2 SLP163 T01830144 TSNO=
201308161853 METAR KCLM 161853Z AUTO 02005KT 10SM OVC110 19/14 A3001 RMK AO2 SLP163 T01940139 TSNO=
201308161803 SPECI KCLM 161803Z AUTO VRB04KT 10SM SCT002 BKN110 17/13 A3002 RMK AO2 T01670133 TSNO=
201308161753 METAR KCLM 161753Z AUTO 00000KT 10SM BKN002 OVC110 16/13 A3002 RMK AO2 SLP164 T01610133 10183 20117 51007 TSNO=
201308161745 SPECI KCLM 161745Z AUTO 00000KT 3SM BR OVC002 15/13 A3002 RMK AO2 T01500133 TSNO=
201308161743 SPECI KCLM 161743Z AUTO 00000KT 1SM BR OVC002 14/13 A3002 RMK AO2 VIS M1/4V5 T01440133 TSNO=
201308161735 SPECI KCLM 161735Z AUTO 00000KT 1/4SM FG VV002 14/13 A3002 RMK AO2 T01440133 TSNO=
201308161717 SPECI KCLM 161717Z AUTO 00000KT 1/2SM FG OVC002 13/13 A3002 RMK AO2 T01330128 TSNO=
201308161710 SPECI KCLM 161710Z AUTO 35003KT 1/4SM FG OVC001 13/12 A3002 RMK AO2 T01330122 TSNO=
201308161659 SPECI KCLM 161659Z AUTO 35006KT 3/4SM BR VV001 14/12 A3002 RMK AO2 T01390122 TSNO=
201308161656 SPECI KCLM 161656Z AUTO 35007KT 1 1/2SM BR BKN002 14/13 A3001 RMK AO2 VIS 1/2V5 T01440128 TSNO=
201308161653 METAR KCLM 161653Z AUTO 02006KT 2 1/2SM BR SCT002 15/13 A3001 RMK AO2 VIS 3/4V5 SLP162 T01500133 TSNO=
201308161650 SPECI KCLM 161650Z AUTO VRB04KT 3SM BR SCT002 15/13 A3001 RMK AO2 TSNO=
201308161553 METAR KCLM 161553Z AUTO 00000KT 10SM CLR 17/14 A2999 RMK AO2 SLP157 T01720144 TSNO=
201308161453 METAR KCLM 161453Z AUTO 00000KT 10SM CLR 17/14 A2998 RMK AO2 SLP153 T01670144 50001 TSNO=
201308161353 METAR KCLM 161353Z AUTO 23004KT 10SM CLR 13/12 A2999 RMK AO2 SLP156 T01280117 TSNO=
201308161253 METAR KCLM 161253Z AUTO 23005KT 10SM CLR 13/12 A2998 RMK AO2 SLP153 T01330117 TSNO $=
201308161153 METAR KCLM 161153Z AUTO VRB03KT 10SM FEW065 13/12 A2998 RMK AO2 SLP152 70002 T01280117 10144 20111 56003 TSNO $=
201308161053 METAR KCLM 161053Z AUTO 22003KT 10SM CLR 12/11 A2998 RMK AO2 SLP153 T01170111 TSNO $=
201308160953 METAR KCLM 160953Z AUTO 23005KT 10SM CLR 13/12 A2999 RMK AO2 SLP154 T01330122 TSNO $=
201308160926 SPECI KCLM 160926Z AUTO 15004KT 10SM SCT011 13/12 A2999 RMK AO2 T01280122 TSNO $=
201308160853 METAR KCLM 160853Z AUTO 00000KT 10SM BKN011 13/12 A2999 RMK AO2 SLP155 T01280122 55003 TSNO $=
201308160753 METAR KCLM 160753Z AUTO 15005KT 10SM CLR 12/11 A2998 RMK AO2 SLP153 T01220111 401940122 TSNO $=
201308160653 METAR KCLM 160653Z AUTO 19003KT 10SM CLR 13/12 A2999 RMK AO2 SLP155 T01330122 TSNO $=
201308160553 METAR KCLM 160553Z AUTO 00000KT 10SM CLR 14/13 A3000 RMK AO2 SLP158 T01440133 10189 20128 50006 TSNO $=
201308160500 METAR KCLM NIL=
201308160353 METAR KCLM 160353Z AUTO 00000KT 10SM FEW100 14/13 A2999 RMK AO2 SLP156 T01440133 TSNO $=
201308160253 METAR KCLM 160253Z AUTO 35003KT 10SM SCT080 17/14 A2998 RMK AO2 SLP152 T01670144 56004 TSNO $=
201308160205 SPECI KCLM 160205Z AUTO 19/16 A2998 RMK AO2 T01890156 TSNO $=
201308160153 METAR KCLM 160153Z AUTO 00000KT 10SM BKN015 OVC100 19/16 A2998 RMK AO2 SLP151 T01890156 TSNO=
201308160136 SPECI KCLM 160136Z AUTO 00000KT 10SM BKN015 BKN095 18/16 A2998 RMK AO2 T01780156 TSNO=
201308160053 METAR KCLM 160053Z AUTO 35003KT 10SM BKN100 17/16 A2999 RMK AO2 SLP154 T01720156 TSNO=
201308152353 METAR KCLM 152353Z AUTO 29003KT 10SM FEW015 OVC100 18/16 A2999 RMK AO2 SLP155 60002 T01780156 10194 20172 50001 TSNO=
201308152330 SPECI KCLM 152330Z AUTO 00000KT 10SM BKN015 OVC110 17/16 A2999 RMK AO2 T01720156 TSNO=
201308152253 METAR KCLM 152253Z AUTO 00000KT 10SM FEW038 OVC100 18/16 A3000 RMK AO2 RAE22 SLP158 P0001 T01780161 TSNO=
201308152153 METAR KCLM 152153Z AUTO 32003KT 10SM -RA OVC100 17/16 A3000 RMK AO2 RAB2058 SLP158 P0001 T01720156 TSNO=
201308152053 METAR KCLM 152053Z AUTO 34003KT 10SM SCT037 BKN100 OVC120 19/14 A2999 RMK AO2 SLP154 T01890144 53007 TSNO=
201308151953 METAR KCLM 151953Z AUTO 35003KT 10SM FEW015 BKN038 19/14 A2997 RMK AO2 SLP150 T01890144 TSNO=
201308151937 SPECI KCLM 151937Z AUTO 35003KT 10SM FEW015 BKN034 19/15 A2997 RMK AO2 T01890150 TSNO=
201308151853 METAR KCLM 151853Z AUTO 31003KT 10SM OVC017 18/15 A2997 RMK AO2 SLP149 T01830150 TSNO=
201308151753 METAR KCLM 151753Z AUTO 01003KT 10SM OVC016 17/15 A2997 RMK AO2 SLP147 T01720150 10178 20161 53005 TSNO=
201308151718 SPECI KCLM 151718Z AUTO 28003KT 10SM FEW008 BKN016 OVC032 18/16 A2996 RMK AO2 T01780156 TSNO=
201308151707 SPECI KCLM 151707Z AUTO 30004KT 10SM FEW008 BKN014 OVC032 18/16 A2996 RMK AO2 T01780156 TSNO=
201308151653 METAR KCLM 151653Z AUTO 30004KT 10SM BKN014 OVC032 18/16 A2996 RMK AO2 SLP144 T01780156 TSNO=
201308151635 SPECI KCLM 151635Z AUTO 27004KT 10SM OVC014 17/16 A2996 RMK AO2 T01720156 TSNO=
201308151553 METAR KCLM 151553Z AUTO 29004KT 10SM OVC015 17/16 A2996 RMK AO2 SLP144 T01720156 TSNO=
201308151453 METAR KCLM 151453Z AUTO 26003KT 10SM OVC012 17/16 A2995 RMK AO2 SLP142 T01670156 53005 TSNO=
201308151353 METAR KCLM 151353Z AUTO 25005KT 10SM OVC011 16/15 A2994 RMK AO2 SLP139 T01610150 TSNO $=
201308151306 SPECI KCLM 151306Z AUTO 26004KT 10SM OVC013 16/15 A2993 RMK AO2 T01610150 TSNO $=
201308151253 METAR KCLM 151253Z AUTO 27003KT 10SM SCT009 OVC016 16/15 A2993 RMK AO2 SLP136 T01610150 TSNO $=
201308151153 METAR KCLM 151153Z AUTO 26005KT 10SM SCT009 OVC016 15/14 A2994 RMK AO2 SLP137 70005 T01500139 10156 20133 53001 TSNO $=
201308151141 SPECI KCLM 151141Z AUTO 24003KT 10SM SCT009 OVC014 15/14 A2994 RMK AO2 T01500139 TSNO $=
201308151116 SPECI KCLM 151116Z AUTO 22003KT 10SM BKN014 OVC060 15/14 A2994 RMK AO2 T01500139 TSNO $=
201308151053 METAR KCLM 151053Z AUTO 21004KT 10SM FEW002 OVC070 14/13 A2994 RMK AO2 SLP137 T01440133 TSNO $=
201308151038 SPECI KCLM 151038Z AUTO 24003KT 10SM SCT004 BKN075 14/14 A2994 RMK AO2 T01440139 TSNO $=
201308150953 METAR KCLM 150953Z AUTO 00000KT 10SM SCT080 14/14 A2993 RMK AO2 SLP134 T01440139 TSNO $=
201308150924 SPECI KCLM 150924Z AUTO 00000KT 10SM FEW006 15/14 A2993 RMK AO2 T01500139 TSNO $=
201308150902 SPECI KCLM 150902Z AUTO 27004KT 10SM OVC008 16/14 A2993 RMK AO2 CIG 004V011 T01560139 TSNO $=
201308150853 METAR KCLM 150853Z AUTO 26003KT 8SM BKN010 OVC014 14/14 A2993 RMK AO2 CIG 007V011 SLP136 T01440139 58001 TSNO $=
201308150829 SPECI KCLM 150829Z AUTO 00000KT 6SM BR BKN013 14/13 A2994 RMK AO2 T01390128 TSNO $=
201308150753 METAR KCLM 150753Z AUTO 00000KT 5SM BR CLR 14/13 A2994 RMK AO2 SLP138 T01440128 402060106 TSNO=
201308150653 METAR KCLM 150653Z AUTO 33003KT 7SM FEW008 14/13 A2994 RMK AO2 SLP138 T01390133 TSNO=
201308150634 SPECI KCLM 150634Z AUTO 29003KT 4SM BR FEW007 14/13 A2994 RMK AO2 T01390133 TSNO=
201308150553 METAR KCLM 150553Z AUTO 00000KT 4SM BR CLR 14/13 A2994 RMK AO2 SLP137 60003 T01390133 10183 20139 51004 TSNO=
201308150453 METAR KCLM 150453Z AUTO 00000KT 5SM BR CLR 15/14 A2993 RMK AO2 SLP136 T01500139 TSNO=
201308150353 METAR KCLM 150353Z AUTO 04003KT 10SM OVC085 16/15 A2993 RMK AO2 SLP134 T01610150 TSNO=
201308150253 METAR KCLM 150253Z AUTO 15003KT 10SM SCT100 BKN110 17/15 A2992 RMK AO2 SLP132 60003 T01670150 58001 TSNO=
201308150153 METAR KCLM 150153Z AUTO 00000KT 10SM FEW046 FEW090 SCT120 16/14 A2993 RMK AO2 RAE41 SLP136 P0003 T01610144 TSNO=
201308150053 METAR KCLM 150053Z AUTO 07003KT 10SM -RA BKN100 OVC110 17/15 A2993 RMK AO2 RAE02B35 SLP134 P0000 T01670150 TSNO=
201308142353 METAR KCLM 142353Z AUTO 31004KT 10SM -RA OVC110 18/14 A2993 RMK AO2 RAB34 SLP133 P0002 60002 T01830144 10206 20172 58002 TSNO=
201308142253 METAR KCLM 142253Z AUTO 00000KT 10SM OVC085 19/12 A2993 RMK AO2 SLP136 T01940122 TSNO=
201308142153 METAR KCLM 142153Z AUTO VRB05KT 10SM FEW095 20/12 A2993 RMK AO2 SLP135 T02000122 TSNO=
201308142053 METAR KCLM 142053Z AUTO 34004KT 10SM FEW110 19/11 A2993 RMK AO2 SLP135 T01890111 55000 TSNO=
201308141953 METAR KCLM 141953Z AUTO 00000KT 10SM CLR 18/11 A2993 RMK AO2 SLP136 T01830111 TSNO=
201308141853 METAR KCLM 141853Z AUTO 02003KT 10SM CLR 18/11 A2992 RMK AO2 SLP132 T01830111 TSNO=
201308141753 METAR KCLM 141753Z AUTO 36004KT 10SM SCT110 18/11 A2993 RMK AO2 SLP135 T01780111 10183 20117 58001 TSNO=
201308141653 METAR KCLM 141653Z AUTO 05003KT 10SM CLR 16/12 A2993 RMK AO2 SLP135 T01610117 TSNO=
201308141553 METAR KCLM 141553Z AUTO 00000KT 10SM CLR 15/12 A2994 RMK AO2 SLP137 T01500117 TSNO=
201308141453 METAR KCLM 141453Z AUTO 00000KT 10SM CLR 14/12 A2994 RMK AO2 SLP137 T01390117 53001 TSNO=
201308141353 METAR KCLM 141353Z AUTO 00000KT 10SM CLR 14/12 A2993 RMK AO2 SLP135 T01390122 TSNO=
201308141253 METAR KCLM 141253Z AUTO 00000KT 10SM CLR 13/11 A2993 RMK AO2 SLP135 T01280111 TSNO=
201308141153 METAR KCLM 141153Z AUTO 00000KT 10SM CLR 12/11 A2993 RMK AO2 SLP136 T01220106 10128 20106 58003 TSNO=
201308141053 METAR KCLM 141053Z AUTO 00000KT 10SM CLR 12/10 A2994 RMK AO2 SLP137 T01170100 TSNO=
201308140953 METAR KCLM 140953Z AUTO 00000KT 10SM CLR 12/10 A2994 RMK AO2 SLP139 T01170100 TSNO=
201308140853 METAR KCLM 140853Z AUTO 00000KT 10SM CLR 11/10 A2994 RMK AO2 SLP139 T01110100 58003 TSNO=
201308140753 METAR KCLM 140753Z AUTO 00000KT 10SM CLR 12/10 A2995 RMK AO2 SLP141 T01170100 402110106 TSNO=
201308140653 METAR KCLM 140653Z AUTO 21003KT 10SM CLR 11/09 A2995 RMK AO2 SLP143 T01110094 TSNO=
201308140553 METAR KCLM 140553Z AUTO 00000KT 10SM CLR 12/09 A2995 RMK AO2 SLP142 T01170089 10200 20117 56011 TSNO=
201308140453 METAR KCLM 140453Z AUTO 25004KT 10SM CLR 13/10 A2996 RMK AO2 SLP144 T01330100 TSNO=
201308140353 METAR KCLM 140353Z AUTO 24003KT 10SM CLR 14/10 A2997 RMK AO2 SLP149 T01440100 TSNO=
201308140253 METAR KCLM 140253Z AUTO 30003KT 10SM CLR 16/09 A2998 RMK AO2 SLP153 T01610094 58018 TSNO=
201308140153 METAR KCLM 140153Z AUTO 32006KT 10SM CLR 18/10 A3000 RMK AO2 SLP159 T01830100 TSNO=
201308140053 METAR KCLM 140053Z AUTO 30009KT 10SM CLR 19/10 A3003 RMK AO2 SLP169 T01890100 TSNO=
201308132353 METAR KCLM 132353Z AUTO 30010KT 10SM CLR 20/11 A3004 RMK AO2 SLP172 T02000106 10211 20172 58016 TSNO=
201308132253 METAR KCLM 132253Z AUTO 31006KT 10SM CLR 20/11 A3006 RMK AO2 SLP178 T02000106 TSNO=
201308132153 METAR KCLM 132153Z AUTO 35007KT 10SM CLR 21/11 A3007 RMK AO2 SLP183 T02060111 TSNO=
201308132053 METAR KCLM 132053Z AUTO 33005KT 10SM CLR 20/11 A3009 RMK AO2 SLP188 T02000111 58007 TSNO=
201308131953 METAR KCLM 131953Z AUTO 01005KT 10SM CLR 19/11 A3010 RMK AO2 SLP192 T01940111 TSNO=
201308131853 METAR KCLM 131853Z AUTO VRB05KT 10SM CLR 18/11 A3011 RMK AO2 SLP195 T01830111 TSNO=
201308131753 METAR KCLM 131753Z AUTO 33007KT 310V010 10SM CLR 18/11 A3011 RMK AO2 SLP195 T01830106 10183 20117 52002 TSNO=
201308131653 METAR KCLM 131653Z AUTO VRB03KT 10SM CLR 18/11 A3011 RMK AO2 SLP195 T01830111 TSNO=
201308131553 METAR KCLM 131553Z AUTO VRB04KT 10SM CLR 17/12 A3010 RMK AO2 SLP193 T01720117 TSNO=
201308131453 METAR KCLM 131453Z AUTO 27007KT 10SM SCT042 16/12 A3010 RMK AO2 SLP193 T01560122 52003 TSNO=
201308131353 METAR KCLM 131353Z AUTO 23004KT 10SM CLR 12/11 A3010 RMK AO2 SLP193 T01220111 TSNO $=
201308131253 METAR KCLM 131253Z AUTO 25003KT 10SM CLR 12/11 A3009 RMK AO2 SLP190 T01170106 TSNO $=
201308131153 METAR KCLM 131153Z AUTO 00000KT 10SM BKN043 13/11 A3009 RMK AO2 SLP190 T01280111 10144 20117 53004 TSNO $=
201308131053 METAR KCLM 131053Z AUTO 24004KT 10SM OVC038 14/12 A3009 RMK AO2 SLP189 T01390117 TSNO $=
201308130953 METAR KCLM 130953Z AUTO 27004KT 10SM CLR 12/11 A3008 RMK AO2 SLP186 T01220106 TSNO $=
201308130853 METAR KCLM 130853Z AUTO 26006KT 10SM OVC045 14/11 A3008 RMK AO2 SLP186 T01390111 50002 TSNO $=
201308130753 METAR KCLM 130753Z AUTO 27008KT 10SM FEW042 14/11 A3008 RMK AO2 SLP186 T01390111 402060117 TSNO $=
201308130653 METAR KCLM 130653Z AUTO 27007KT 10SM CLR 14/12 A3008 RMK AO2 SLP186 T01390117 TSNO $=
201308130553 METAR KCLM 130553Z AUTO 28007KT 10SM CLR 14/12 A3007 RMK AO2 SLP184 T01390117 10183 20139 51006 TSNO $=
201308130453 METAR KCLM 130453Z AUTO 28010KT 10SM CLR 14/12 A3007 RMK AO2 SLP182 T01390117 TSNO $=
201308130353 METAR KCLM 130353Z AUTO 28009KT 10SM CLR 14/11 A3006 RMK AO2 SLP180 T01440111 TSNO $=
201308130253 METAR KCLM 130253Z AUTO 28009KT 10SM CLR 16/12 A3006 RMK AO2 SLP178 T01610117 53000 TSNO $=
201308130153 METAR KCLM 130153Z AUTO 30011KT 10SM CLR 17/12 A3005 RMK AO2 SLP177 T01670117 TSNO=
201308130053 METAR KCLM 130053Z AUTO 31009KT 10SM SCT070 17/12 A3005 RMK AO2 SLP175 T01720117 TSNO=
201308122353 METAR KCLM 122353Z AUTO 32010G18KT 10SM FEW070 18/12 A3006 RMK AO2 SLP177 T01780117 10206 20167 58006 TSNO=
201308122253 METAR KCLM 122253Z AUTO 30012KT 10SM CLR 19/12 A3006 RMK AO2 SLP180 T01890122 TSNO=
201308122153 METAR KCLM 122153Z AUTO 34009KT 10SM BKN037 19/12 A3008 RMK AO2 SLP184 T01890117 TSNO=
201308122053 METAR KCLM 122053Z AUTO 32010KT 10SM CLR 18/12 A3007 RMK AO2 SLP183 T01830122 56002 TSNO=
201308121953 METAR KCLM 121953Z AUTO 32009KT 10SM CLR 18/12 A3007 RMK AO2 SLP183 T01830122 TSNO=
201308121853 METAR KCLM 121853Z AUTO VRB06KT 10SM BKN050 18/12 A3008 RMK AO2 SLP185 T01830122 TSNO=
201308121753 METAR KCLM 121753Z AUTO VRB04KT 10SM OVC050 17/12 A3008 RMK AO2 SLP185 T01670122 10167 20133 51008 TSNO=
201308121653 METAR KCLM 121653Z AUTO 33004KT 10SM BKN050 16/12 A3008 RMK AO2 SLP185 T01560122 TSNO=
201308121553 METAR KCLM 121553Z AUTO 30005KT 10SM BKN035 OVC050 16/12 A3006 RMK AO2 SLP178 T01610117 TSNO=
201308121453 METAR KCLM 121453Z AUTO 30003KT 10SM OVC033 15/12 A3005 RMK AO2 SLP177 T01500122 53003 TSNO=
201308121353 METAR KCLM 121353Z AUTO 27006KT 10SM OVC040 14/12 A3005 RMK AO2 SLP176 T01440117 TSNO=
201308121253 METAR KCLM 121253Z AUTO 28007KT 10SM OVC040 14/12 A3005 RMK AO2 SLP174 T01390117 TSNO=
201308121153 METAR KCLM 121153Z AUTO 27005KT 10SM BKN043 OVC060 13/12 A3005 RMK AO2 SLP174 T01330117 10133 20117 53005 TSNO=
201308121053 METAR KCLM 121053Z AUTO 28005KT 10SM CLR 13/11 A3003 RMK AO2 SLP170 T01280111 TSNO=
201308120953 METAR KCLM 120953Z AUTO 30004KT 10SM CLR 12/11 A3003 RMK AO2 SLP168 T01170106 TSNO=
201308120853 METAR KCLM 120853Z AUTO 31005KT 10SM CLR 12/11 A3003 RMK AO2 SLP169 T01220111 58003 TSNO=
201308120753 METAR KCLM 120753Z AUTO 29005KT 10SM BKN070 13/11 A3003 RMK AO2 SLP170 T01280111 401830128 TSNO=
201308120653 METAR KCLM 120653Z AUTO 00000KT 10SM OVC070 13/12 A3004 RMK AO2 SLP172 T01330117 TSNO=
201308120553 METAR KCLM 120553Z AUTO 29006KT 10SM FEW017 SCT070 SCT110 13/12 A3004 RMK AO2 SLP172 60000 T01330117 10167 20133 50001 TSNO=
201308120453 METAR KCLM 120453Z AUTO 29007KT 10SM FEW016 SCT060 BKN075 14/12 A3004 RMK AO2 SLP173 T01390117 TSNO=
201308120441 SPECI KCLM 120441Z AUTO 29007KT 10SM SCT016 BKN065 OVC085 14/12 A3004 RMK AO2 T01390117 TSNO=
201308120403 SPECI KCLM 120403Z AUTO 28008KT 10SM BKN016 BKN060 OVC080 14/12 A3004 RMK AO2 T01390117 TSNO=
201308120353 METAR KCLM 120353Z AUTO 29006KT 10SM SCT016 BKN060 BKN080 14/12 A3004 RMK AO2 RAB05E21 SLP173 P0000 T01390117 TSNO=
201308120253 METAR KCLM 120253Z AUTO 29004KT 10SM BKN080 BKN120 14/12 A3003 RMK AO2 SLP170 T01440117 58001 TSNO=
201308120153 METAR KCLM 120153Z AUTO 30008KT 10SM OVC080 16/12 A3004 RMK AO2 SLP171 T01560117 TSNO=
201308120053 METAR KCLM 120053Z AUTO 30010KT 10SM SCT080 16/12 A3004 RMK AO2 SLP172 T01610117 TSNO=
201308112353 METAR KCLM 112353Z AUTO 32010G15KT 10SM SCT075 17/11 A3004 RMK AO2 SLP171 T01670111 10183 20156 58013 TSNO=
201308112253 METAR KCLM 112253Z AUTO 31009KT 10SM SCT085 17/11 A3005 RMK AO2 SLP175 T01670111 TSNO=
201308112153 METAR KCLM 112153Z AUTO 31010KT 10SM CLR 18/12 A3006 RMK AO2 SLP181 T01780117 TSNO=
201308112053 METAR KCLM 112053Z AUTO 33007KT 290V360 10SM CLR 18/12 A3008 RMK AO2 SLP184 T01830122 53001 TSNO=
201308111953 METAR KCLM 111953Z AUTO 02006KT 10SM FEW016 17/12 A3007 RMK AO2 SLP182 T01720122 TSNO=
201308111942 SPECI KCLM 111942Z AUTO 36006KT 10SM FEW017 17/12 A3007 RMK AO2 T01720122 TSNO=
201308111853 METAR KCLM 111853Z AUTO 30006KT 10SM OVC017 16/12 A3007 RMK AO2 SLP182 T01610117 TSNO=
201308111753 METAR KCLM 111753Z AUTO VRB04KT 10SM OVC016 16/12 A3007 RMK AO2 SLP184 60000 T01610117 10167 20128 51006 TSNO=
201308111653 METAR KCLM 111653Z AUTO 28004KT 10SM OVC016 15/12 A3007 RMK AO2 SLP183 T01500117 TSNO=
201308111633 SPECI KCLM 111633Z AUTO 29005KT 10SM OVC015 15/12 A3007 RMK AO2 T01500117 TSNO=
201308111553 METAR KCLM 111553Z AUTO 25005KT 10SM OVC014 14/12 A3008 RMK AO2 SLP184 T01390117 TSNO=
201308111544 SPECI KCLM 111544Z AUTO 23004KT 10SM SCT009 OVC014 14/11 A3008 RMK AO2 T01390111 TSNO=
201308111523 SPECI KCLM 111523Z AUTO 24003KT 10SM SCT009 OVC015 14/12 A3007 RMK AO2 T01390117 TSNO=
201308111503 SPECI KCLM 111503Z AUTO 31005KT 10SM OVC015 13/12 A3006 RMK AO2 T01330117 TSNO=
201308111453 METAR KCLM 111453Z AUTO 31007KT 10SM OVC014 13/12 A3006 RMK AO2 SLP178 60000 T01330117 51009 TSNO=
201308111353 METAR KCLM 111353Z AUTO 29007KT 10SM FEW006 OVC014 13/12 A3005 RMK AO2 SLP177 T01330117 TSNO=
201308111340 SPECI KCLM 111340Z AUTO 29006KT 10SM SCT006 BKN014 13/12 A3005 RMK AO2 T01280117 TSNO=
201308111319 SPECI KCLM 111319Z AUTO 29010KT 10SM FEW008 SCT014 BKN120 13/11 A3004 RMK AO2 T01330111 TSNO=
201308111312 SPECI KCLM 111312Z AUTO 29009KT 10SM SCT008 BKN015 BKN120 13/11 A3004 RMK AO2 T01330111 TSNO=
201308111253 METAR KCLM 111253Z AUTO 29004KT 10SM BKN007 OVC015 13/12 A3005 RMK AO2 RAB1154E06 SLP177 P0000 T01280117 TSNO=
201308111230 SPECI KCLM 111230Z AUTO 10SM BKN007 BKN120 13/12 A3004 RMK AO2 RAB1154E06 P0000 T01280117 TSNO=
201308111214 SPECI KCLM 111214Z AUTO 30008KT 10SM FEW008 BKN110 13/12 A3004 RMK AO2 RAB1154E06 P0000 T01280117 TSNO=
201308111153 METAR KCLM 111153Z AUTO 30008KT 10SM BKN100 BKN110 13/11 A3003 RMK AO2 SLP169 T01330111 10133 20128 58002 TSNO=
201308111104 SPECI KCLM 111104Z AUTO 29011KT 10SM FEW006 SCT060 13/11 A3003 RMK AO2 T01330111 TSNO=
201308111053 METAR KCLM 111053Z AUTO 28010KT 10SM FEW015 SCT060 13/11 A3004 RMK AO2 SLP172 T01330111 TSNO=
201308110953 METAR KCLM 110953Z AUTO 31003KT 10SM CLR 13/12 A3005 RMK AO2 SLP176 T01330117 TSNO=
201308110853 METAR KCLM 110853Z AUTO 29008KT 10SM CLR 13/12 A3003 RMK AO2 SLP170 T01330117 53003 TSNO=
201308110753 METAR KCLM 110753Z AUTO 28010KT 10SM CLR 13/12 A3003 RMK AO2 SLP168 T01330117 401890117 TSNO=
201308110653 METAR KCLM 110653Z AUTO 28012KT 10SM CLR 13/11 A3002 RMK AO2 SLP165 T01330111 TSNO=
201308110553 METAR KCLM 110553Z AUTO 29011KT 10SM CLR 13/12 A3003 RMK AO2 SLP168 T01330117 10183 20133 51013 TSNO=
201308110453 METAR KCLM 110453Z AUTO 30011KT 10SM CLR 13/12 A3002 RMK AO2 SLP166 T01330117 TSNO=
201308110416 SPECI KCLM 110416Z AUTO 29008KT 10SM FEW006 14/12 A3002 RMK AO2 T01390117 TSNO=
201308110353 METAR KCLM 110353Z AUTO 28009KT 10SM CLR 14/12 A3001 RMK AO2 SLP164 T01390117 TSNO=
201308110253 METAR KCLM 110253Z AUTO 29012KT 10SM CLR 15/12 A2999 RMK AO2 SLP154 T01500122 53001 TSNO=
201308110153 METAR KCLM 110153Z AUTO 30011KT 10SM CLR 17/13 A2998 RMK AO2 SLP151 T01720128 TSNO=
201308110053 METAR KCLM 110053Z AUTO 31010KT 10SM CLR 17/13 A2998 RMK AO2 SLP153 T01720128 TSNO=
201308102353 METAR KCLM 102353Z AUTO 30013KT 10SM CLR 18/13 A2998 RMK AO2 SLP153 T01780128 10189 20139 58009 TSNO=
201308102253 METAR KCLM 102253Z AUTO 33008KT 10SM CLR 18/13 A3000 RMK AO2 SLP158 T01830133 TSNO=
201308102153 METAR KCLM 102153Z AUTO 32010KT 10SM CLR 19/13 A3001 RMK AO2 SLP160 T01890133 TSNO=
201308102053 METAR KCLM 102053Z AUTO 32008KT 10SM CLR 18/13 A3001 RMK AO2 SLP162 T01830128 53005 TSNO=
201308101953 METAR KCLM 101953Z AUTO 34006KT 10SM CLR 18/13 A3000 RMK AO2 SLP158 T01780128 TSNO=
201308101853 METAR KCLM 101853Z AUTO 00000KT 10SM CLR 17/13 A3000 RMK AO2 SLP158 T01670128 TSNO=
201308101753 METAR KCLM 101753Z AUTO 33003KT 10SM SCT110 14/12 A2999 RMK AO2 SLP157 60000 T01390122 10161 20122 55003 TSNO=
201308101653 METAR KCLM 101653Z AUTO 32004KT 10SM CLR 16/13 A2998 RMK AO2 SLP152 T01560133 TSNO=
201308101553 METAR KCLM 101553Z AUTO 26007KT 10SM CLR 14/12 A2998 RMK AO2 SLP151 T01390122 TSNO=
201308101522 SPECI KCLM 101522Z AUTO 00000KT 10SM SCT003 14/12 A3000 RMK AO2 T01390122 TSNO=
201308101453 METAR KCLM 101453Z AUTO 28003KT 10SM OVC003 13/12 A3000 RMK AO2 SLP160 60000 T01280117 53027 TSNO=
201308101427 SPECI KCLM 101427Z AUTO 31006KT 10SM BKN003 12/12 A2999 RMK AO2 PRESRR T01220117 TSNO=
201308101418 SPECI KCLM 101418Z AUTO 32007KT 10SM SCT004 SCT110 13/12 A2997 RMK AO2 PRESRR T01280117 TSNO=
201308101353 METAR KCLM 101353Z AUTO 33005KT 10SM FEW110 13/12 A2994 RMK AO2 SLP138 T01280122 TSNO=
201308101341 SPECI KCLM 101341Z AUTO 26006KT 10SM SCT006 13/12 A2994 RMK AO2 T01280117 TSNO=
201308101253 METAR KCLM 101253Z AUTO 30005KT 10SM OVC005 13/12 A2995 RMK AO2 RAB01E10 SLP141 P0000 T01280117 TSNO=
201308101239 SPECI KCLM 101239Z AUTO 00000KT 10SM OVC005 12/11 A2994 RMK AO2 RAB01E10 CIG 002V008 P0000 T01220111 TSNO=
201308101153 METAR KCLM 101153Z AUTO 29012KT 8SM OVC002 12/12 A2992 RMK AO2 RAB1057E44 SLP132 P0001 60001 70001 T01220117 10128 20117 58004 TSNO=
201308101053 METAR KCLM 101053Z AUTO 27010KT 10SM OVC002 12/11 A2993 RMK AO2 SLP134 T01220111 TSNO=
201308101025 SPECI KCLM 101025Z AUTO 29006KT 10SM BKN002 OVC120 12/11 A2995 RMK AO2 T01220111 TSNO=
201308101018 SPECI KCLM 101018Z AUTO 28006KT 10SM SCT002 OVC120 12/11 A2996 RMK AO2 T01220111 TSNO=
201308101003 SPECI KCLM 101003Z AUTO 27003KT 10SM BKN002 12/11 A2995 RMK AO2 T01220111 TSNO=
201308100953 METAR KCLM 100953Z AUTO 25005KT 10SM SCT002 12/11 A2995 RMK AO2 SLP142 T01220111 TSNO=
201308100927 SPECI KCLM 100927Z AUTO 31003KT 10SM SCT003 12/11 A2994 RMK AO2 T01170106 TSNO=
201308100853 METAR KCLM 100853Z AUTO 00000KT 10SM OVC004 12/11 A2994 RMK AO2 SLP137 T01220111 53017 TSNO=
201308100832 SPECI KCLM 100832Z AUTO 00000KT 10SM BKN003 12/12 A2992 RMK AO2 T01220117 TSNO=
201308100753 METAR KCLM 100753Z AUTO 28003KT 10SM SCT002 12/11 A2990 RMK AO2 SLP124 T01220111 402170117 TSNO=
201308100744 SPECI KCLM 100744Z AUTO 28003KT 10SM SCT002 12/11 A2990 RMK AO2 T01220111 TSNO=
201308100653 METAR KCLM 100653Z AUTO 30008KT 10SM BKN003 13/12 A2987 RMK AO2 SLP114 T01280117 TSNO=
201308100609 SPECI KCLM 100609Z AUTO 29007KT 10SM BKN003 13/12 A2988 RMK AO2 T01280117 TSNO=
201308100553 METAR KCLM 100553Z AUTO 29008KT 10SM SCT003 13/12 A2988 RMK AO2 SLP119 T01280117 10194 20128 51002 TSNO=
201308100551 SPECI KCLM 100551Z AUTO 29007KT 10SM FEW003 13/12 A2988 RMK AO2 TSNO=
201308100453 METAR KCLM 100453Z AUTO 29006KT 10SM CLR 13/12 A2989 RMK AO2 SLP122 T01330117 TSNO=
201308100353 METAR KCLM 100353Z AUTO 29005KT 10SM CLR 14/11 A2988 RMK AO2 SLP118 T01440111 TSNO=
201308100253 METAR KCLM 100253Z AUTO 29008KT 10SM CLR 18/12 A2987 RMK AO2 SLP114 T01830122 55006 TSNO=
201308100153 METAR KCLM 100153Z AUTO 30007KT 10SM CLR 19/13 A2986 RMK AO2 SLP110 T01940128 TSNO=
201308100053 METAR KCLM 100053Z AUTO 31006KT 10SM CLR 18/13 A2987 RMK AO2 SLP115 T01830128 TSNO=
201308092353 METAR KCLM 092353Z AUTO 30008KT 10SM CLR 18/12 A2989 RMK AO2 SLP120 T01780122 10217 20161 56009 TSNO=
201308092253 METAR KCLM 092253Z AUTO 30005KT 10SM CLR 18/12 A2990 RMK AO2 SLP123 T01830122 TSNO=
201308092153 METAR KCLM 092153Z AUTO 29007KT 10SM CLR 21/12 A2990 RMK AO2 SLP126 T02060122 TSNO=
201308092053 METAR KCLM 092053Z AUTO 35005KT 10SM CLR 21/13 A2991 RMK AO2 SLP130 T02110128 56010 TSNO=
201308091953 METAR KCLM 091953Z AUTO 01004KT 10SM CLR 21/12 A2992 RMK AO2 SLP132 T02110122 TSNO=
201308091853 METAR KCLM 091853Z AUTO 35005KT 10SM CLR 18/12 A2993 RMK AO2 SLP136 T01830117 TSNO=
201308091753 METAR KCLM 091753Z AUTO 01003KT 10SM CLR 17/12 A2994 RMK AO2 SLP140 T01720122 10178 20117 56005 TSNO=
201308091653 METAR KCLM 091653Z AUTO 02003KT 10SM CLR 15/12 A2995 RMK AO2 SLP141 T01500117 TSNO=
201308091553 METAR KCLM 091553Z AUTO 34003KT 10SM CLR 14/12 A2995 RMK AO2 SLP143 T01440122 TSNO=
201308091542 SPECI KCLM 091542Z AUTO 31003KT 10SM SCT002 13/12 A2995 RMK AO2 T01330122 TSNO=
201308091532 SPECI KCLM 091532Z AUTO 00000KT 10SM BKN002 13/12 A2995 RMK AO2 T01280122 TSNO=
201308091520 SPECI KCLM 091520Z AUTO 00000KT 4SM BR OVC001 12/12 A2995 RMK AO2 T01220122 TSNO=
201308091516 SPECI KCLM 091516Z AUTO 00000KT 1 3/4SM BR OVC001 12/12 A2995 RMK AO2 VIS 1V5 T01220122 TSNO=
201308091453 METAR KCLM 091453Z AUTO 30004KT 1 3/4SM BR OVC002 12/12 A2996 RMK AO2 VIS 1V4 SLP145 T01170117 53000 TSNO=
201308091424 SPECI KCLM 091424Z AUTO 29004KT 1/4SM FG VV002 12/12 A2996 RMK AO2 T01170117 TSNO=
201308091413 SPECI KCLM 091413Z AUTO 30004KT 1/2SM FG VV002 12/11 A2996 RMK AO2 T01170111 TSNO=
201308091353 METAR KCLM 091353Z AUTO 30005KT 1/4SM FG VV002 12/11 A2996 RMK AO2 SLP145 T01170111 TSNO=
201308091316 SPECI KCLM 091316Z AUTO 29006KT 1/4SM FG VV002 12/11 A2996 RMK AO2 T01170111 TSNO=
201308091253 METAR KCLM 091253Z AUTO 28004KT 3/4SM BR VV002 12/11 A2996 RMK AO2 SLP144 T01170111 TSNO=
201308091244 SPECI KCLM 091244Z AUTO 27006KT 1SM BR VV002 12/11 A2996 RMK AO2 T01170111 TSNO=
201308091223 SPECI KCLM 091223Z AUTO 29006KT 3/4SM BR VV002 12/12 A2996 RMK AO2 T01170117 TSNO=
201308091205 SPECI KCLM 091205Z AUTO 28004KT 1SM BR VV002 12/12 A2996 RMK AO2 T01170117 TSNO=
201308091153 METAR KCLM 091153Z AUTO 28005KT 3/4SM BR VV002 12/12 A2996 RMK AO2 SLP145 T01220117 10128 20117 56005 TSNO=
201308091102 SPECI KCLM 091102Z AUTO 29005KT 3/4SM BR VV002 12/12 A2996 RMK AO2 T01220117 TSNO=
201308091053 METAR KCLM 091053Z AUTO 28007KT 1SM BR VV002 12/12 A2996 RMK AO2 SLP146 T01220117 TSNO=
201308091013 SPECI KCLM 091013Z AUTO 28006KT 1SM BR VV002 12/12 A2997 RMK AO2 T01220117 TSNO=
201308090953 METAR KCLM 090953Z AUTO 28007KT 1 1/2SM BR OVC001 12/12 A2997 RMK AO2 SLP148 T01220117 TSNO=
201308090853 METAR KCLM 090853Z AUTO 28005KT 1 1/2SM BR OVC001 12/12 A2998 RMK AO2 SLP151 T01220117 53002 TSNO=
201308090811 SPECI KCLM 090811Z AUTO 29008KT 1SM BR OVC001 12/12 A2997 RMK AO2 T01220117 TSNO=
201308090800 SPECI KCLM 090800Z AUTO 29008KT 1 1/4SM BR OVC002 12/12 A2998 RMK AO2 T01170117 TSNO=
201308090753 METAR KCLM 090753Z AUTO 29008KT 2SM BR OVC002 12/12 A2998 RMK AO2 SLP151 T01220117 402060117 TSNO=
201308090653 METAR KCLM 090653Z AUTO 29009KT 3SM BR OVC002 12/12 A2997 RMK AO2 SLP148 T01220117 TSNO=
201308090553 METAR KCLM 090553Z AUTO 31010KT 10SM BKN002 13/12 A2997 RMK AO2 SLP148 T01280117 10189 20128 55002 TSNO=
201308090541 SPECI KCLM 090541Z AUTO 30011KT 10SM SCT002 13/12 A2997 RMK AO2 T01280122 TSNO=
201308090453 METAR KCLM 090453Z AUTO 30005KT 10SM CLR 13/12 A2997 RMK AO2 SLP148 T01330117 TSNO=
201308090353 METAR KCLM 090353Z AUTO 28007KT 10SM CLR 14/12 A2997 RMK AO2 SLP149 T01390122 TSNO=
201308090253 METAR KCLM 090253Z AUTO 30011G19KT 10SM CLR 16/12 A2998 RMK AO2 SLP150 T01560122 56010 TSNO=
201308090153 METAR KCLM 090153Z AUTO 30013G22KT 10SM CLR 17/13 A2998 RMK AO2 SLP153 T01670128 TSNO=
201308090053 METAR KCLM 090053Z AUTO 31009KT 10SM CLR 17/13 A3000 RMK AO2 SLP157 T01720128 TSNO=
201308082353 METAR KCLM 082353Z AUTO 32005KT 10SM CLR 18/13 A3001 RMK AO2 SLP160 T01830128 10206 20167 58007 TSNO=
201308082253 METAR KCLM 082253Z AUTO 32010KT 10SM CLR 18/12 A3002 RMK AO2 SLP164 T01830122 TSNO=
201308082153 METAR KCLM 082153Z AUTO 31012KT 10SM CLR 18/12 A3003 RMK AO2 SLP167 T01830122 TSNO=
201308082053 METAR KCLM 082053Z AUTO 31007KT 10SM CLR 20/13 A3003 RMK AO2 SLP168 T02000128 56003 TSNO=
201308081953 METAR KCLM 081953Z AUTO 33007KT 10SM CLR 18/13 A3003 RMK AO2 SLP168 T01830128 TSNO=
201308081853 METAR KCLM 081853Z AUTO 30006KT 10SM CLR 19/13 A3003 RMK AO2 SLP170 T01890128 TSNO=
201308081753 METAR KCLM 081753Z AUTO 33004KT 10SM CLR 17/13 A3004 RMK AO2 SLP171 T01670128 10172 20117 56000 TSNO=
201308081653 METAR KCLM 081653Z AUTO 31006KT 10SM SCT004 15/12 A3004 RMK AO2 SLP171 T01500122 TSNO=
201308081553 METAR KCLM 081553Z AUTO 31005KT 7SM OVC002 13/13 A3003 RMK AO2 SLP169 T01330128 TSNO=
201308081546 SPECI KCLM 081546Z AUTO 31003KT 4SM BR OVC001 13/12 A3003 RMK AO2 T01280122 TSNO=
201308081521 SPECI KCLM 081521Z AUTO 27004KT 2SM BR OVC001 13/12 A3003 RMK AO2 T01280122 TSNO=
201308081509 SPECI KCLM 081509Z AUTO 29006KT 1 1/4SM BR OVC002 13/12 A3004 RMK AO2 T01280122 TSNO=
201308081453 METAR KCLM 081453Z AUTO 30007KT 3/4SM BR VV002 13/12 A3004 RMK AO2 SLP171 T01280122 51004 TSNO=
201308081353 METAR KCLM 081353Z AUTO 31005KT 1/4SM FG VV002 12/12 A3003 RMK AO2 SLP169 T01220117 TSNO=
201308081341 SPECI KCLM 081341Z AUTO 32003KT 1/4SM FG OVC002 12/12 A3003 RMK AO2 T01220117 TSNO=
201308081326 SPECI KCLM 081326Z AUTO 27005KT 1SM BR VV002 12/12 A3003 RMK AO2 T01220117 TSNO=
201308081312 SPECI KCLM 081312Z AUTO 27003KT 1/4SM FG VV002 12/12 A3002 RMK AO2 T01220117 TSNO=
201308081253 METAR KCLM 081253Z AUTO 00000KT 1/4SM FG VV001 12/12 A3002 RMK AO2 SLP166 T01170117 TSNO=
201308081217 SPECI KCLM 081217Z AUTO 32003KT 1/4SM FG VV001 12/11 A3002 RMK AO2 T01170111 TSNO=
201308081153 METAR KCLM 081153Z AUTO 31004KT 1/2SM FG VV001 12/11 A3001 RMK AO2 SLP164 T01170111 10144 20117 52003 TSNO=
201308081132 SPECI KCLM 081132Z AUTO 30005KT 3/4SM BR VV001 12/12 A3001 RMK AO2 T01220117 TSNO=
201308081128 SPECI KCLM 081128Z AUTO 30006KT 1 1/2SM BR SCT001 12/12 A3001 RMK AO2 T01220117 TSNO=
201308081053 METAR KCLM 081053Z AUTO 28008KT 10SM FEW001 13/12 A3001 RMK AO2 SLP161 T01280122 TSNO=
201308081043 SPECI KCLM 081043Z AUTO 29009KT 10SM SCT001 13/12 A3001 RMK AO2 T01280122 TSNO=
201308081034 SPECI KCLM 081034Z AUTO 30007KT 10SM BKN001 13/12 A3002 RMK AO2 T01280122 TSNO=
201308081026 SPECI KCLM 081026Z AUTO 29007KT 10SM SCT001 13/12 A3001 RMK AO2 T01280122 TSNO=
201308080953 METAR KCLM 080953Z AUTO 28009KT 10SM CLR 13/12 A3001 RMK AO2 SLP163 T01330122 TSNO=
201308080853 METAR KCLM 080853Z AUTO 29008KT 10SM CLR 14/12 A3001 RMK AO2 SLP160 T01390122 51003 TSNO=
201308080753 METAR KCLM 080753Z AUTO 30009KT 10SM CLR 14/12 A3000 RMK AO2 SLP160 T01390122 402060106 TSNO=
201308080653 METAR KCLM 080653Z AUTO 29009KT 10SM CLR 14/12 A3000 RMK AO2 SLP159 T01390122 TSNO=
201308080553 METAR KCLM 080553Z AUTO 28006KT 10SM CLR 13/12 A3000 RMK AO2 SLP157 T01330117 10206 20122 51006 TSNO=
201308080453 METAR KCLM 080453Z AUTO VRB06KT 10SM CLR 13/11 A3000 RMK AO2 SLP157 T01280111 TSNO=
201308080353 METAR KCLM 080353Z AUTO 00000KT 10SM CLR 14/11 A2998 RMK AO2 SLP153 T01390111 TSNO=
201308080253 METAR KCLM 080253Z AUTO 28004KT 10SM CLR 14/12 A2998 RMK AO2 SLP151 T01440117 55007 TSNO=
201308080153 METAR KCLM 080153Z AUTO 32005KT 10SM CLR 18/12 A2998 RMK AO2 SLP151 T01780122 TSNO=
201308080053 METAR KCLM 080053Z AUTO 31006KT 10SM CLR 19/13 A2999 RMK AO2 SLP156 T01940128 TSNO=
201308072353 METAR KCLM 072353Z AUTO 31006KT 10SM CLR 18/12 A3000 RMK AO2 SLP158 T01830122 10200 20167 58010 TSNO=
201308072253 METAR KCLM 072253Z AUTO 30008KT 10SM CLR 18/12 A3001 RMK AO2 SLP162 T01830117 TSNO=
201308072153 METAR KCLM 072153Z AUTO VRB05KT 10SM CLR 20/12 A3002 RMK AO2 SLP165 T02000122 TSNO=
201308072053 METAR KCLM 072053Z AUTO 30007KT 10SM CLR 19/12 A3003 RMK AO2 SLP168 T01890117 50002 TSNO=
201308071953 METAR KCLM 071953Z AUTO 32006KT 10SM CLR 17/11 A3003 RMK AO2 SLP169 T01670111 TSNO=
201308071853 METAR KCLM 071853Z AUTO 29006KT 10SM CLR 17/12 A3003 RMK AO2 SLP169 T01670117 TSNO=
201308071753 METAR KCLM 071753Z AUTO 36004KT 10SM CLR 17/12 A3002 RMK AO2 SLP166 T01670117 10172 20106 53005 TSNO=
201308071653 METAR KCLM 071653Z AUTO 33005KT 10SM CLR 16/11 A3002 RMK AO2 SLP164 T01610111 TSNO=
201308071553 METAR KCLM 071553Z AUTO 31003KT 10SM SCT003 12/11 A3001 RMK AO2 SLP165 T01220111 TSNO=
201308071505 SPECI KCLM 071505Z AUTO 31005KT 3SM BR OVC002 11/11 A3001 RMK AO2 T01110106 TSNO=
201308071453 METAR KCLM 071453Z AUTO 27005KT 1 1/4SM BR OVC002 11/11 A3001 RMK AO2 SLP162 T01110106 53009 TSNO=
201308071446 SPECI KCLM 071446Z AUTO 28005KT 2SM BR OVC002 11/11 A3001 RMK AO2 VIS 1 1/4V3 T01110106 TSNO=
201308071438 SPECI KCLM 071438Z AUTO 28004KT 1 1/2SM BR OVC002 11/11 A3000 RMK AO2 T01110106 TSNO=
201308071413 SPECI KCLM 071413Z AUTO 28006KT 3/4SM BR OVC002 11/10 A3000 RMK AO2 T01060100 TSNO=
201308071353 METAR KCLM 071353Z AUTO 29004KT 1/4SM FG VV002 11/10 A2999 RMK AO2 SLP156 T01060100 TSNO=
201308071322 SPECI KCLM 071322Z AUTO 28004KT 1/4SM FG VV002 11/10 A2999 RMK AO2 T01060100 TSNO=
201308071302 SPECI KCLM 071302Z AUTO 28005KT 1/4SM FG VV001 11/10 A2998 RMK AO2 T01060100 TSNO=
201308071253 METAR KCLM 071253Z AUTO 29006KT 1/4SM FG VV002 11/10 A2999 RMK AO2 SLP154 T01060100 TSNO=
201308071243 SPECI KCLM 071243Z AUTO 29005KT 1/4SM FG VV001 11/10 A2999 RMK AO2 T01060100 TSNO=
201308071217 SPECI KCLM 071217Z AUTO 28004KT 3/4SM BR VV002 11/10 A2998 RMK AO2 T01060100 TSNO=
201308071209 SPECI KCLM 071209Z AUTO 29004KT 1SM BR VV002 11/10 A2998 RMK AO2 T01060100 TSNO=
201308071153 METAR KCLM 071153Z AUTO 28004KT 2SM BR OVC002 11/10 A2998 RMK AO2 VIS 1 1/4V3 SLP153 T01060100 10111 20106 58002 TSNO=
201308071142 SPECI KCLM 071142Z AUTO 28004KT 1 3/4SM BR OVC002 11/10 A2998 RMK AO2 T01060100 TSNO=
201308071132 SPECI KCLM 071132Z AUTO 28004KT 3SM BR OVC002 11/11 A2998 RMK AO2 T01060106 TSNO=
201308071053 METAR KCLM 071053Z AUTO 28007KT 1 1/2SM BR OVC002 11/10 A2999 RMK AO2 SLP155 T01110100 TSNO=
201308071043 SPECI KCLM 071043Z AUTO 27006KT 1 1/2SM BR OVC002 11/11 A2999 RMK AO2 T01110106 TSNO=
201308071036 SPECI KCLM 071036Z AUTO 28006KT 2SM BR OVC002 11/11 A2999 RMK AO2 T01110106 TSNO=
201308071018 SPECI KCLM 071018Z AUTO 28007KT 4SM BR OVC002 11/11 A2999 RMK AO2 T01110106 TSNO=
201308071004 SPECI KCLM 071004Z AUTO 28006KT 2 1/2SM BR OVC002 11/11 A2999 RMK AO2 T01110106 TSNO=
201308070953 METAR KCLM 070953Z AUTO 29006KT 1 3/4SM BR OVC001 11/11 A2999 RMK AO2 SLP155 T01110106 TSNO=
201308070951 SPECI KCLM 070951Z AUTO 29006KT 2SM BR OVC001 11/11 A2999 RMK AO2 TSNO=
201308070938 SPECI KCLM 070938Z AUTO 29006KT 1 1/2SM BR OVC001 11/11 A2998 RMK AO2 T01110106 TSNO=
201308070925 SPECI KCLM 070925Z AUTO 29006KT 2SM BR OVC001 11/10 A2998 RMK AO2 T01110100 TSNO=
201308070853 METAR KCLM 070853Z AUTO 28008KT 1 3/4SM BR OVC001 11/10 A2998 RMK AO2 SLP150 T01110100 53004 TSNO=
201308070847 SPECI KCLM 070847Z AUTO 29006KT 2SM BR OVC001 11/10 A2997 RMK AO2 TSNO=
201308070840 SPECI KCLM 070840Z AUTO 29007KT 1 3/4SM BR OVC002 11/10 A2997 RMK AO2 T01060100 TSNO=
201308070824 SPECI KCLM 070824Z AUTO 29007KT 5SM BR OVC002 11/10 A2997 RMK AO2 T01060100 TSNO=
201308070753 METAR KCLM 070753Z AUTO 29007KT 3SM BR OVC001 11/10 A2997 RMK AO2 SLP148 T01060100 401940100 TSNO=
201308070715 SPECI KCLM 070715Z AUTO 30007KT 4SM BR OVC001 11/10 A2997 RMK AO2 T01060100 TSNO=
201308070653 METAR KCLM 070653Z AUTO 31005KT 10SM OVC002 11/10 A2996 RMK AO2 SLP146 T01060100 TSNO=
201308070638 SPECI KCLM 070638Z AUTO 29006KT 10SM OVC002 11/10 A2996 RMK AO2 T01110100 TSNO=
201308070611 SPECI KCLM 070611Z AUTO 30006KT 9SM OVC001 11/10 A2996 RMK AO2 T01060100 TSNO=
201308070604 SPECI KCLM 070604Z AUTO 31005KT 2 1/2SM BR OVC001 11/10 A2996 RMK AO2 T01060100 TSNO=
201308070553 METAR KCLM 070553Z AUTO 30005KT 3/4SM BR VV001 11/11 A2996 RMK AO2 SLP146 T01060106 10189 20106 50003 TSNO=
201308070543 SPECI KCLM 070543Z AUTO 31006KT 1 1/2SM BR OVC001 11/09 A2997 RMK AO2 T01060094 TSNO=
201308070537 SPECI KCLM 070537Z AUTO 31005KT 6SM BR BKN001 11/10 A2996 RMK AO2 T01060100 TSNO=
201308070522 SPECI KCLM 070522Z AUTO 31003KT 10SM SCT001 11/09 A2997 RMK AO2 T01060094 TSNO=
201308070453 METAR KCLM 070453Z AUTO 27004KT 10SM CLR 11/10 A2996 RMK AO2 SLP147 T01110100 TSNO=
201308070353 METAR KCLM 070353Z AUTO 30004KT 10SM CLR 12/11 A2996 RMK AO2 SLP145 T01170106 TSNO=
201308070253 METAR KCLM 070253Z AUTO 31004KT 10SM CLR 16/12 A2995 RMK AO2 SLP143 T01560117 56010 TSNO=
201308070153 METAR KCLM 070153Z AUTO 29004KT 10SM CLR 18/12 A2996 RMK AO2 SLP146 T01780122 TSNO=
201308070053 METAR KCLM 070053Z AUTO 32005KT 10SM CLR 18/12 A2997 RMK AO2 SLP150 T01780117 TSNO=
201308062353 METAR KCLM 062353Z AUTO 30009KT 10SM CLR 19/12 A2998 RMK AO2 SLP153 T01890117 10194 20144 58009 TSNO=
201308062253 METAR KCLM 062253Z AUTO 31007KT 10SM CLR 18/11 A2999 RMK AO2 SLP156 T01830111 TSNO=
201308062153 METAR KCLM 062153Z AUTO 31008KT 10SM CLR 19/11 A3001 RMK AO2 SLP161 T01890111 TSNO=
201308062053 METAR KCLM 062053Z AUTO 36006KT 10SM CLR 18/11 A3001 RMK AO2 SLP162 T01830111 58003 TSNO=
201308061953 METAR KCLM 061953Z AUTO 33007KT 10SM CLR 17/11 A3001 RMK AO2 SLP163 T01720106 TSNO=
201308061853 METAR KCLM 061853Z AUTO VRB04KT 10SM CLR 17/11 A3002 RMK AO2 SLP166 T01670106 TSNO=
201308061753 METAR KCLM 061753Z AUTO 01006KT 10SM CLR 14/11 A3002 RMK AO2 SLP166 T01440106 10161 20100 52002 TSNO=
201308061653 METAR KCLM 061653Z AUTO 34005KT 10SM CLR 15/11 A3002 RMK AO2 SLP165 T01500106 TSNO=
201308061553 METAR KCLM 061553Z AUTO 31004KT 10SM FEW003 13/11 A3002 RMK AO2 SLP164 T01330106 TSNO=
201308061548 SPECI KCLM 061548Z AUTO 31005KT 10SM SCT003 12/11 A3002 RMK AO2 TSNO=
201308061458 SPECI KCLM 061458Z AUTO 28004KT 3SM BR OVC002 11/10 A3001 RMK AO2 T01060100 TSNO=
201308061453 METAR KCLM 061453Z AUTO 27005KT 1 3/4SM BR OVC002 11/10 A3001 RMK AO2 SLP164 T01060100 53008 TSNO=
201308061444 SPECI KCLM 061444Z AUTO 27003KT 2 1/2SM BR OVC002 10/09 A3002 RMK AO2 VIS 3/4V5 T01000094 TSNO=
201308061435 SPECI KCLM 061435Z AUTO 29005KT 1/2SM FG OVC002 11/10 A3001 RMK AO2 T01060100 TSNO=
201308061426 SPECI KCLM 061426Z AUTO 27004KT 1 1/2SM BR OVC002 10/09 A3001 RMK AO2 T01000094 TSNO=
201308061353 METAR KCLM 061353Z AUTO 28003KT 3SM BR OVC002 10/09 A3000 RMK AO2 SLP159 T01000094 TSNO=
201308061315 SPECI KCLM 061315Z AUTO 28008KT 3/4SM BR OVC001 10/09 A2999 RMK AO2 T01000094 TSNO=
201308061253 METAR KCLM 061253Z AUTO 29006KT 1SM BR VV002 10/09 A2999 RMK AO2 SLP156 T01000094 TSNO=
201308061153 METAR KCLM 061153Z AUTO 30006KT 3/4SM BR VV002 10/09 A2999 RMK AO2 SLP156 T01000094 10106 20100 53003 TSNO=
201308061134 SPECI KCLM 061134Z AUTO 29007KT 1SM BR VV002 10/09 A2999 RMK AO2 T01000094 TSNO=
201308061119 SPECI KCLM 061119Z AUTO 28005KT 3/4SM BR VV002 10/10 A2998 RMK AO2 T01000100 TSNO=
201308061112 SPECI KCLM 061112Z AUTO 28006KT 1SM BR VV002 10/09 A2999 RMK AO2 T01000094 TSNO=
201308061053 METAR KCLM 061053Z AUTO 28005KT 3/4SM BR VV002 10/10 A2998 RMK AO2 SLP153 T01000100 TSNO=
201308061015 SPECI KCLM 061015Z AUTO 28008KT 3/4SM BR VV002 11/10 A2998 RMK AO2 T01060100 TSNO=
201308060953 METAR KCLM 060953Z AUTO 30007KT 1SM BR VV002 11/10 A2999 RMK AO2 SLP154 T01060100 TSNO=
201308060937 SPECI KCLM 060937Z AUTO 27007KT 1SM BR VV002 11/10 A2999 RMK AO2 T01060100 TSNO=
201308060853 METAR KCLM 060853Z AUTO 28005KT 3/4SM BR VV002 11/10 A2998 RMK AO2 SLP152 T01060100 53002 TSNO=
201308060836 SPECI KCLM 060836Z AUTO 29006KT 3/4SM BR VV002 11/10 A2998 RMK AO2 T01060100 TSNO=
201308060825 SPECI KCLM 060825Z AUTO 30006KT 1SM BR VV002 11/10 A2998 RMK AO2 T01060100 TSNO=
201308060753 METAR KCLM 060753Z AUTO 30007KT 1 1/2SM BR OVC001 11/10 A2998 RMK AO2 SLP151 T01060100 401940100 TSNO=
201308060748 SPECI KCLM 060748Z AUTO 29008KT 2SM BR OVC001 11/10 A2998 RMK AO2 TSNO=
201308060736 SPECI KCLM 060736Z AUTO 30006KT 3SM BR OVC001 11/10 A2998 RMK AO2 T01060100 TSNO=
201308060725 SPECI KCLM 060725Z AUTO 28007KT 1 1/4SM BR OVC001 11/10 A2997 RMK AO2 T01060100 TSNO=
201308060703 SPECI KCLM 060703Z AUTO 28009KT 1SM BR OVC002 11/10 A2997 RMK AO2 T01060100 TSNO=
201308060653 METAR KCLM 060653Z AUTO 28007KT 2 1/2SM BR OVC002 11/10 A2998 RMK AO2 SLP150 T01060100 TSNO=
201308060628 SPECI KCLM 060628Z AUTO 29006KT 6SM BR BKN002 11/10 A2998 RMK AO2 T01060100 TSNO=
201308060615 SPECI KCLM 060615Z AUTO 30008KT 10SM SCT003 11/10 A2998 RMK AO2 T01060100 TSNO=
201308060553 METAR KCLM 060553Z AUTO 28007KT 10SM CLR 11/10 A2998 RMK AO2 SLP150 T01110100 10183 20106 50003 TSNO=
201308060453 METAR KCLM 060453Z AUTO 29006KT 10SM SCT003 11/10 A2998 RMK AO2 SLP151 T01110100 TSNO=
201308060446 SPECI KCLM 060446Z AUTO 29006KT 10SM SCT004 11/10 A2998 RMK AO2 T01110100 TSNO=
201308060353 METAR KCLM 060353Z AUTO 32003KT 10SM CLR 12/11 A2997 RMK AO2 SLP149 T01220106 TSNO=
201308060253 METAR KCLM 060253Z AUTO 31005KT 10SM CLR 14/11 A2997 RMK AO2 SLP147 T01440111 55008 TSNO=
201308060153 METAR KCLM 060153Z AUTO 31005KT 10SM CLR 17/12 A2997 RMK AO2 SLP147 T01720117 TSNO=
201308060053 METAR KCLM 060053Z AUTO 30006KT 10SM CLR 17/11 A2998 RMK AO2 SLP150 T01720111 TSNO=
201308052353 METAR KCLM 052353Z AUTO 31006KT 10SM CLR 18/11 A2999 RMK AO2 SLP155 T01780111 10194 20150 58013 TSNO=
201308052253 METAR KCLM 052253Z AUTO 30006KT 10SM CLR 18/11 A3000 RMK AO2 SLP160 T01830106 TSNO=
201308052153 METAR KCLM 052153Z AUTO 32006KT 10SM CLR 17/11 A3002 RMK AO2 SLP166 T01720106 TSNO=
201308052053 METAR KCLM 052053Z AUTO 32006KT 10SM CLR 18/11 A3003 RMK AO2 SLP168 T01830111 58004 TSNO=
201308051953 METAR KCLM 051953Z AUTO 30011KT 10SM CLR 16/11 A3004 RMK AO2 SLP171 T01610106 TSNO=
201308051853 METAR KCLM 051853Z AUTO 32005KT 10SM CLR 17/11 A3004 RMK AO2 SLP171 T01670111 TSNO=
201308051753 METAR KCLM 051753Z AUTO 36005KT 10SM CLR 16/11 A3004 RMK AO2 SLP172 T01560111 10167 20106 52004 TSNO=
201308051653 METAR KCLM 051653Z AUTO 34005KT 10SM CLR 15/12 A3004 RMK AO2 SLP171 T01500117 TSNO=
201308051606 SPECI KCLM 051606Z AUTO 35004KT 10SM SCT002 13/11 A3003 RMK AO2 T01280111 TSNO=
201308051553 METAR KCLM 051553Z AUTO 34003KT 10SM BKN002 13/11 A3003 RMK AO2 SLP169 T01280111 TSNO=
201308051538 SPECI KCLM 051538Z AUTO 00000KT 9SM OVC002 12/12 A3003 RMK AO2 T01170117 TSNO=
201308051525 SPECI KCLM 051525Z AUTO 00000KT 3SM BR OVC001 12/11 A3003 RMK AO2 T01170111 TSNO=
201308051518 SPECI KCLM 051518Z AUTO 00000KT 1 1/4SM BR OVC001 11/11 A3003 RMK AO2 T01110111 TSNO=
201308051510 SPECI KCLM 051510Z AUTO 00000KT 3/4SM BR OVC001 11/11 A3003 RMK AO2 T01110106 TSNO=
201308051508 SPECI KCLM 051508Z AUTO 33003KT 1SM BR OVC001 11/11 A3003 RMK AO2 T01110106 TSNO=
201308051502 SPECI KCLM 051502Z AUTO 27004KT 3/4SM BR VV002 11/11 A3003 RMK AO2 T01110106 TSNO=
201308051453 METAR KCLM 051453Z AUTO 28004KT 1/4SM FG VV002 11/11 A3003 RMK AO2 SLP168 T01110106 53006 TSNO=
201308051446 SPECI KCLM 051446Z AUTO 29004KT 1/4SM FG VV002 11/11 A3002 RMK AO2 T01060106 TSNO=
201308051353 METAR KCLM 051353Z AUTO 30005KT M1/4SM FG VV001 11/10 A3002 RMK AO2 SLP165 T01060100 TSNO=
201308051308 SPECI KCLM 051308Z AUTO 28005KT 1/4SM FG VV002 11/10 A3001 RMK AO2 T01060100 TSNO=
201308051253 METAR KCLM 051253Z AUTO 28004KT 1/2SM FG VV002 11/10 A3001 RMK AO2 SLP162 T01060100 TSNO=
201308051250 SPECI KCLM 051250Z AUTO 28005KT 1/2SM FG VV001 11/10 A3001 RMK AO2 TSNO=
201308051233 SPECI KCLM 051233Z AUTO 29006KT 1/4SM FG VV001 11/10 A3001 RMK AO2 T01060100 TSNO=
201308051153 METAR KCLM 051153Z AUTO 28004KT 1/2SM FG VV002 11/11 A3000 RMK AO2 SLP159 T01110106 10128 20106 53003 TSNO=
201308051053 METAR KCLM 051053Z AUTO 28003KT 1/2SM FG VV002 11/11 A3000 RMK AO2 SLP159 T01110106 TSNO=
201308051012 SPECI KCLM 051012Z AUTO 30003KT 1/4SM FG VV001 11/11 A3000 RMK AO2 T01110106 TSNO=
201308050953 METAR KCLM 050953Z AUTO 29003KT 1/2SM FG VV002 11/11 A2999 RMK AO2 SLP156 T01110106 TSNO=
201308050904 SPECI KCLM 050904Z AUTO 29004KT 1 1/2SM BR OVC002 11/11 A2999 RMK AO2 T01110106 TSNO=
201308050853 METAR KCLM 050853Z AUTO 29005KT 3/4SM BR VV002 11/11 A2999 RMK AO2 SLP156 T01110106 58003 TSNO=
201308050804 SPECI KCLM 050804Z AUTO 30004KT 3/4SM BR VV002 11/11 A3000 RMK AO2 T01110106 TSNO=
201308050757 SPECI KCLM 050757Z AUTO 30004KT 1 3/4SM BR BKN001 11/11 A3000 RMK AO2 T01110106 TSNO=
201308050753 METAR KCLM 050753Z AUTO 30004KT 3SM BR BKN001 11/11 A3000 RMK AO2 SLP159 T01110106 402220111 TSNO=
201308050748 SPECI KCLM 050748Z AUTO 29004KT 6SM BR BKN001 11/11 A3000 RMK AO2 TSNO=
201308050743 SPECI KCLM 050743Z AUTO 31004KT 7SM SCT002 11/11 A3000 RMK AO2 T01110106 TSNO=
201308050653 METAR KCLM 050653Z AUTO 29004KT 10SM CLR 12/11 A3000 RMK AO2 SLP159 T01220111 TSNO=
201308050553 METAR KCLM 050553Z AUTO 27005KT 10SM CLR 14/12 A3000 RMK AO2 SLP160 T01390117 10194 20139 53006 TSNO=
201308050453 METAR KCLM 050453Z AUTO 29006KT 10SM CLR 15/12 A3000 RMK AO2 SLP157 T01500122 TSNO=
201308050353 METAR KCLM 050353Z AUTO 29009KT 10SM CLR 17/13 A2999 RMK AO2 SLP156 T01670128 TSNO=
201308050253 METAR KCLM 050253Z AUTO 28008KT 10SM CLR 19/14 A2999 RMK AO2 SLP154 T01890139 56006 TSNO=
201308050153 METAR KCLM 050153Z AUTO 32004KT 10SM CLR 19/13 A2999 RMK AO2 SLP155 T01890133 TSNO=
201308050053 METAR KCLM 050053Z AUTO 30007KT 10SM CLR 18/13 A3000 RMK AO2 SLP158 T01830128 TSNO=
201308042353 METAR KCLM 042353Z AUTO 30004KT 10SM CLR 19/12 A3000 RMK AO2 SLP160 T01940122 10222 20156 56016 TSNO=
201308042253 METAR KCLM 042253Z AUTO 01005KT 10SM CLR 20/12 A3002 RMK AO2 SLP164 T02000122 TSNO=
201308042153 METAR KCLM 042153Z AUTO 03005KT 10SM CLR 19/12 A3003 RMK AO2 SLP170 T01940122 TSNO=
201308042053 METAR KCLM 042053Z AUTO 06005KT 10SM CLR 22/13 A3005 RMK AO2 SLP176 T02170133 58009 TSNO=
201308041953 METAR KCLM 041953Z AUTO VRB05KT 10SM CLR 21/14 A3007 RMK AO2 SLP181 T02060144 TSNO=
201308041853 METAR KCLM 041853Z AUTO 04003KT 10SM CLR 19/13 A3007 RMK AO2 SLP183 T01940128 TSNO=
201308041753 METAR KCLM 041753Z AUTO 36005KT 10SM CLR 16/12 A3008 RMK AO2 SLP185 T01610117 10189 20111 56002 TSNO=
201308041653 METAR KCLM 041653Z AUTO 36003KT 10SM CLR 16/12 A3008 RMK AO2 SLP185 T01560117 TSNO=
201308041553 METAR KCLM 041553Z AUTO 00000KT 10SM CLR 14/12 A3008 RMK AO2 SLP186 T01440122 TSNO=
201308041534 SPECI KCLM 041534Z AUTO 33003KT 10SM FEW003 SCT034 13/12 A3008 RMK AO2 T01330122 TSNO=
201308041453 METAR KCLM 041453Z AUTO 00000KT 5SM BR OVC002 13/12 A3009 RMK AO2 SLP188 T01280122 53006 TSNO=
201308041443 SPECI KCLM 041443Z AUTO 00000KT 3SM BR OVC002 12/12 A3008 RMK AO2 T01220117 TSNO=
201308041430 SPECI KCLM 041430Z AUTO 00000KT 1SM BR OVC002 12/12 A3008 RMK AO2 T01220117 TSNO=
201308041420 SPECI KCLM 041420Z AUTO 00000KT 1/4SM FG VV002 12/12 A3008 RMK AO2 T01170117 TSNO=
201308041353 METAR KCLM 041353Z AUTO 30003KT M1/4SM FG VV001 12/11 A3008 RMK AO2 SLP186 T01170111 TSNO=
201308041312 SPECI KCLM 041312Z AUTO 28003KT M1/4SM FG VV001 12/11 A3007 RMK AO2 T01170111 TSNO=
201308041300 SPECI KCLM 041300Z AUTO 00000KT 1/4SM FG VV002 11/11 A3007 RMK AO2 T01110111 TSNO=
201308041253 METAR KCLM 041253Z AUTO 00000KT 1 1/2SM BR OVC001 11/11 A3007 RMK AO2 SLP182 T01110106 TSNO=
201308041248 SPECI KCLM 041248Z AUTO 27003KT 1 1/2SM BR OVC001 12/11 A3007 RMK AO2 TSNO=
201308041229 SPECI KCLM 041229Z AUTO 27003KT 1SM BR VV002 12/11 A3007 RMK AO2 T01170111 TSNO=
201308041213 SPECI KCLM 041213Z AUTO 28005KT 1SM BR OVC001 12/11 A3007 RMK AO2 T01170111 TSNO=
201308041153 METAR KCLM 041153Z AUTO 30007KT 1SM BR VV002 12/11 A3007 RMK AO2 SLP182 T01170111 10128 20111 50003 TSNO=
201308041145 SPECI KCLM 041145Z AUTO 28006KT 2SM BR OVC002 12/11 A3007 RMK AO2 T01170111 TSNO=
201308041138 SPECI KCLM 041138Z AUTO 27004KT 1/2SM FG OVC002 12/11 A3007 RMK AO2 T01170111 TSNO=
201308041130 SPECI KCLM 041130Z AUTO 29004KT 1 1/4SM BR OVC002 12/11 A3007 RMK AO2 VIS 1/2V5 T01170106 TSNO=
201308041053 METAR KCLM 041053Z AUTO 00000KT 10SM BKN002 12/11 A3007 RMK AO2 SLP183 T01170111 TSNO=
201308041049 SPECI KCLM 041049Z AUTO 00000KT 10SM BKN002 12/11 A3007 RMK AO2 TSNO=
201308041011 SPECI KCLM 041011Z AUTO 30003KT 10SM SCT001 11/11 A3007 RMK AO2 T01110106 TSNO=
201308041002 SPECI KCLM 041002Z AUTO 29005KT 3SM BR BKN001 12/11 A3006 RMK AO2 T01170111 TSNO=
201308040953 METAR KCLM 040953Z AUTO 29005KT 1 1/4SM BR OVC001 12/11 A3006 RMK AO2 SLP180 T01170106 TSNO=
201308040950 SPECI KCLM 040950Z AUTO 28006KT 1 3/4SM BR OVC001 11/11 A3006 RMK AO2 TSNO=
201308040942 SPECI KCLM 040942Z AUTO 29004KT 3SM BR OVC001 11/11 A3006 RMK AO2 T01110111 TSNO=
201308040938 SPECI KCLM 040938Z AUTO 30004KT 1SM BR VV001 11/11 A3006 RMK AO2 T01110111 TSNO=
201308040904 SPECI KCLM 040904Z AUTO 31003KT 1/4SM FG VV001 12/11 A3007 RMK AO2 T01170111 TSNO=
201308040853 METAR KCLM 040853Z AUTO 31004KT 1/4SM FG VV002 11/11 A3007 RMK AO2 SLP182 T01110106 58008 TSNO=
201308040840 SPECI KCLM 040840Z AUTO 30003KT 1/2SM FG VV002 12/11 A3007 RMK AO2 T01170111 TSNO=
201308040832 SPECI KCLM 040832Z AUTO 28004KT 3/4SM BR VV001 12/11 A3007 RMK AO2 T01170111 TSNO=
201308040824 SPECI KCLM 040824Z AUTO 31004KT 1 3/4SM BR OVC002 12/11 A3008 RMK AO2 T01220111 TSNO=
201308040753 METAR KCLM 040753Z AUTO 24005KT 4SM BR OVC002 12/12 A3008 RMK AO2 SLP185 T01220122 401940117 TSNO=
201308040653 METAR KCLM 040653Z AUTO 29005KT 10SM BKN004 12/12 A3009 RMK AO2 SLP189 T01220117 TSNO=
201308040633 SPECI KCLM 040633Z AUTO 30005KT 10SM FEW005 12/11 A3009 RMK AO2 T01220111 TSNO=
201308040553 METAR KCLM 040553Z AUTO 32006KT 10SM CLR 13/12 A3009 RMK AO2 SLP190 T01330117 10172 20133 58000 TSNO=
201308040453 METAR KCLM 040453Z AUTO 28003KT 10SM OVC039 14/12 A3010 RMK AO2 SLP191 T01390122 TSNO=
201308040353 METAR KCLM 040353Z AUTO 32004KT 10SM OVC041 14/12 A3009 RMK AO2 SLP190 T01440122 TSNO=
201308040253 METAR KCLM 040253Z AUTO 30004KT 10SM OVC042 16/12 A3009 RMK AO2 SLP190 T01560122 56007 TSNO=
201308040153 METAR KCLM 040153Z AUTO 30007KT 10SM SCT041 16/12 A3010 RMK AO2 SLP191 T01560122 TSNO=
201308040053 METAR KCLM 040053Z AUTO 31006KT 10SM OVC042 17/13 A3010 RMK AO2 SLP193 T01670128 TSNO=
201308032353 METAR KCLM 032353Z AUTO 31007KT 10SM OVC043 17/12 A3012 RMK AO2 SLP198 T01670122 10194 20156 56011 TSNO=
201308032253 METAR KCLM 032253Z AUTO 31005KT 10SM OVC044 18/12 A3012 RMK AO2 SLP200 T01830122 TSNO=
201308032153 METAR KCLM 032153Z AUTO 36005KT 10SM OVC043 18/13 A3013 RMK AO2 SLP204 T01830128 TSNO=
201308032053 METAR KCLM 032053Z AUTO 01006KT 10SM OVC045 19/13 A3015 RMK AO2 SLP209 T01890128 58001 TSNO=
201308031953 METAR KCLM 031953Z AUTO 01006KT 10SM OVC045 18/13 A3015 RMK AO2 SLP210 T01780128 TSNO=
201308031853 METAR KCLM 031853Z AUTO 36005KT 10SM OVC043 17/13 A3015 RMK AO2 SLP210 T01670128 TSNO=
201308031753 METAR KCLM 031753Z AUTO 31004KT 10SM OVC041 16/13 A3015 RMK AO2 SLP210 T01560128 10156 20139 53003 TSNO=
201308031732 SPECI KCLM 031732Z AUTO 30005KT 10SM SCT014 OVC041 15/13 A3015 RMK AO2 T01500128 TSNO=
201308031712 SPECI KCLM 031712Z AUTO 34004KT 10SM BKN014 OVC038 16/13 A3015 RMK AO2 T01560128 TSNO=
201308031653 METAR KCLM 031653Z AUTO 01003KT 10SM FEW014 OVC036 15/13 A3015 RMK AO2 SLP209 T01500128 TSNO=
201308031606 SPECI KCLM 031606Z AUTO 30004KT 10SM SCT012 OVC041 15/12 A3014 RMK AO2 T01500122 TSNO=
201308031553 METAR KCLM 031553Z AUTO 29004KT 10SM BKN011 OVC040 14/13 A3014 RMK AO2 SLP207 T01440128 TSNO=
201308031453 METAR KCLM 031453Z AUTO 30003KT 10SM SCT012 OVC039 14/12 A3014 RMK AO2 SLP207 T01440122 53004 TSNO=
201308031402 SPECI KCLM 031402Z AUTO 00000KT 10SM SCT010 OVC035 14/13 A3014 RMK AO2 T01440128 TSNO=
201308031353 METAR KCLM 031353Z AUTO 00000KT 10SM BKN009 OVC036 14/13 A3014 RMK AO2 CIG 008V012 SLP206 T01390128 TSNO=
201308031337 SPECI KCLM 031337Z AUTO 21003KT 10SM SCT008 OVC037 14/13 A3013 RMK AO2 T01390128 TSNO=
201308031253 METAR KCLM 031253Z AUTO 00000KT 10SM OVC038 14/12 A3013 RMK AO2 SLP202 T01390122 TSNO=
201308031208 SPECI KCLM 031208Z AUTO 00000KT 10SM SCT013 OVC037 14/13 A3013 RMK AO2 T01390128 TSNO=
201308031153 METAR KCLM 031153Z AUTO 00000KT 10SM BKN013 OVC039 14/13 A3013 RMK AO2 SLP203 70007 T01390128 10144 20133 55000 TSNO=
201308031053 METAR KCLM 031053Z AUTO 29003KT 10SM OVC014 13/12 A3013 RMK AO2 SLP201 T01330122 TSNO=
201308031000 SPECI KCLM 031000Z AUTO 00000KT 10SM OVC014 14/12 A3013 RMK AO2 T01390122 TSNO=
201308030953 METAR KCLM 030953Z AUTO 01003KT 10SM OVC015 14/12 A3013 RMK AO2 SLP202 T01390122 TSNO=
201308030853 METAR KCLM 030853Z AUTO 00000KT 10SM OVC015 14/13 A3013 RMK AO2 SLP203 T01440133 57002 TSNO=
201308030816 SPECI KCLM 030816Z AUTO 25003KT 10SM OVC015 14/13 A3013 RMK AO2 T01440128 TSNO=
201308030753 METAR KCLM 030753Z AUTO 00000KT 10SM OVC014 14/13 A3013 RMK AO2 SLP203 T01440128 401560128 TSNO=
201308030653 METAR KCLM 030653Z AUTO 23005KT 10SM OVC014 14/13 A3013 RMK AO2 SLP204 T01390128 TSNO=
201308030635 SPECI KCLM 030635Z AUTO 23003KT 10SM BKN014 14/13 A3014 RMK AO2 T01390128 TSNO=
201308030553 METAR KCLM 030553Z AUTO 00000KT 10SM OVC017 14/13 A3014 RMK AO2 SLP205 T01440128 10156 20144 50005 TSNO=
201308030453 METAR KCLM 030453Z AUTO 23003KT 10SM SCT012 OVC019 14/13 A3014 RMK AO2 SLP206 T01440128 TSNO=
201308030353 METAR KCLM 030353Z AUTO 27003KT 10SM OVC012 15/13 A3014 RMK AO2 SLP206 T01500128 TSNO=
201308030253 METAR KCLM 030253Z AUTO 29005KT 10SM OVC010 15/13 A3012 RMK AO2 SLP200 T01500128 58001 TSNO=
201308030153 METAR KCLM 030153Z AUTO 29005KT 10SM OVC012 15/13 A3013 RMK AO2 SLP202 T01500133 TSNO=
201308030125 SPECI KCLM 030125Z AUTO 28004KT 10SM SCT008 OVC012 16/13 A3013 RMK AO2 T01560133 TSNO=
201308030053 METAR KCLM 030053Z AUTO 31005KT 10SM OVC008 15/13 A3012 RMK AO2 SLP200 T01500128 TSNO=
201308022353 METAR KCLM 022353Z AUTO 00000KT 10SM OVC008 16/13 A3012 RMK AO2 SLP200 60000 T01560133 10156 20139 58001 TSNO=
201308022253 METAR KCLM 022253Z AUTO 32003KT 10SM OVC007 15/13 A3013 RMK AO2 SLP202 T01500133 TSNO=
201308022153 METAR KCLM 022153Z AUTO 00000KT 10SM OVC007 15/13 A3013 RMK AO2 SLP203 T01500133 TSNO=
201308022110 SPECI KCLM 022110Z AUTO 32004KT 10SM OVC009 14/13 A3013 RMK AO2 CIG 006V011 T01440128 TSNO=
201308022053 METAR KCLM 022053Z AUTO 31007KT 10SM OVC010 15/13 A3013 RMK AO2 RAB27E38 SLP201 P0000 60000 T01500133 53005 TSNO=
201308021953 METAR KCLM 021953Z AUTO 32005KT 10SM OVC010 15/13 A3012 RMK AO2 SLP200 T01500128 TSNO=
201308021922 SPECI KCLM 021922Z AUTO 00000KT 10SM SCT008 OVC014 15/13 A3012 RMK AO2 T01500133 TSNO $=
201308021912 SPECI KCLM 021912Z AUTO VRB03KT 10SM OVC014 15/13 A3011 RMK AO2 T01500128 TSNO $=
201308021853 METAR KCLM 021853Z AUTO 29003KT 10SM OVC015 14/13 A3011 RMK AO2 RAE14 SLP197 P0000 T01440128 TSNO $=
201308021851 SPECI KCLM 021851Z AUTO 29004KT 10SM OVC015 15/13 A3011 RMK AO2 RAE14 P0000 TSNO $=
201308021818 SPECI KCLM 021818Z AUTO 00000KT 10SM FEW006 OVC014 14/13 A3011 RMK AO2 RAE14 P0000 T01440133 TSNO $=
201308021753 METAR KCLM 021753Z AUTO 00000KT 9SM -RA BKN014 OVC090 14/12 A3011 RMK AO2 RAB38 SLP195 P0001 60007 T01390122 10150 20128 51007 TSNO $=
201308021748 SPECI KCLM 021748Z AUTO 01004KT 10SM -RA FEW006 BKN014 OVC085 14/13 A3011 RMK AO2 RAB38 P0000 TSNO $=
201308021732 SPECI KCLM 021732Z AUTO 30004KT 10SM SCT008 OVC085 14/13 A3010 RMK AO2 T01440128 TSNO $=
201308021707 SPECI KCLM 021707Z AUTO 31003KT 10SM FEW006 BKN011 OVC090 14/13 A3010 RMK AO2 T01440128 TSNO $=
201308021653 METAR KCLM 021653Z AUTO VRB03KT 10SM BKN011 BKN022 OVC095 14/13 A3010 RMK AO2 SLP192 T01440128 TSNO $=
201308021630 SPECI KCLM 021630Z AUTO 00000KT 10SM BKN008 OVC100 14/12 A3009 RMK AO2 T01390122 TSNO $=
201308021621 SPECI KCLM 021621Z AUTO VRB03KT 10SM SCT008 SCT035 OVC100 14/13 A3009 RMK AO2 T01440128 TSNO $=
201308021553 METAR KCLM 021553Z AUTO 00000KT 10SM FEW013 OVC100 14/13 A3009 RMK AO2 RAB08E33 SLP188 P0001 T01390128 TSNO $=
201308021541 SPECI KCLM 021541Z AUTO 00000KT 10SM SCT013 SCT050 OVC100 14/12 A3009 RMK AO2 RAB08E33 P0001 T01390122 TSNO $=
201308021531 SPECI KCLM 021531Z AUTO 00000KT 10SM -RA SCT008 BKN016 OVC100 14/12 A3009 RMK AO2 RAB08 CIG 013V025 P0001 T01390122 TSNO $=
201308021518 SPECI KCLM 021518Z AUTO 00000KT 10SM -RA BKN008 BKN018 OVC100 13/12 A3009 RMK AO2 RAB08 P0000 T01330122 TSNO $=
201308021507 SPECI KCLM 021507Z AUTO 00000KT 10SM SCT008 BKN018 OVC026 13/12 A3009 RMK AO2 T01330117 TSNO $=
201308021453 METAR KCLM 021453Z AUTO 29004KT 10SM SCT017 BKN027 OVC100 13/12 A3009 RMK AO2 RAE33 SLP188 P0000 60005 T01330122 50007 TSNO $=
201308021448 SPECI KCLM 021448Z AUTO 29003KT 10SM SCT017 BKN025 OVC095 13/12 A3009 RMK AO2 RAE33 P0000 TSNO $=
201308021353 METAR KCLM 021353Z AUTO 00000KT 10SM -RA SCT075 OVC090 13/12 A3007 RMK AO2 RAB31 SLP182 P0005 T01330122 TSNO $=
201308021341 SPECI KCLM 021341Z AUTO 00000KT 6SM RA BR SCT024 OVC075 14/12 A3007 RMK AO2 RAB31 P0003 T01390117 TSNO $=
201308021253 METAR KCLM 021253Z AUTO 26005KT 10SM OVC017 14/11 A3007 RMK AO2 SLP181 T01390111 TSNO $=
201308021219 SPECI KCLM 021219Z AUTO 24006KT 10SM OVC015 14/11 A3006 RMK AO2 T01390111 TSNO $=
201308021153 METAR KCLM 021153Z AUTO 26004KT 10SM OVC014 14/12 A3007 RMK AO2 SLP182 T01390117 10139 20139 53000 TSNO $=
201308021110 SPECI KCLM 021110Z AUTO 27005KT 10SM OVC010 14/12 A3007 RMK AO2 T01390117 TSNO $=
201308021053 METAR KCLM 021053Z AUTO 25003KT 10SM OVC009 14/12 A3006 RMK AO2 SLP180 T01390117 TSNO $=
201308021030 SPECI KCLM 021030Z AUTO 24003KT 10SM OVC009 14/12 A3006 RMK AO2 T01390117 TSNO $=
201308020953 METAR KCLM 020953Z AUTO 28006KT 10SM OVC010 14/12 A3006 RMK AO2 SLP178 T01390117 TSNO $=
201308020853 METAR KCLM 020853Z AUTO 28005KT 10SM OVC010 14/12 A3007 RMK AO2 SLP182 T01390117 53006 TSNO $=
201308020753 METAR KCLM 020753Z AUTO 26007KT 10SM OVC010 14/12 A3006 RMK AO2 SLP180 T01390117 401890117 TSNO $=
201308020653 METAR KCLM 020653Z AUTO 28009KT 10SM OVC012 14/12 A3005 RMK AO2 SLP176 T01390117 TSNO $=
201308020553 METAR KCLM 020553Z AUTO 28009KT 10SM OVC011 14/12 A3005 RMK AO2 SLP176 T01390117 10189 20139 50003 TSNO $=
201308020453 METAR KCLM 020453Z AUTO 28007KT 10SM OVC012 14/12 A3006 RMK AO2 SLP178 T01390117 TSNO $=
201308020353 METAR KCLM 020353Z AUTO 28010KT 10SM OVC013 14/11 A3004 RMK AO2 SLP173 T01390111 TSNO $=
201308020253 METAR KCLM 020253Z AUTO 30008KT 10SM OVC012 14/11 A3004 RMK AO2 SLP173 T01440111 53003 TSNO $=
201308020205 SPECI KCLM 020205Z AUTO 31009KT 10SM BKN013 14/11 A3004 RMK AO2 T01440111 TSNO $=
201308020153 METAR KCLM 020153Z AUTO 30012G17KT 10SM FEW013 15/11 A3004 RMK AO2 SLP172 T01500111 TSNO $=
201308020053 METAR KCLM 020053Z AUTO 31012KT 10SM CLR 17/11 A3003 RMK AO2 SLP170 T01720111 TSNO $=
201308012353 METAR KCLM 012353Z AUTO 34005KT 10SM CLR 18/12 A3003 RMK AO2 SLP169 T01780117 10178 20139 58003 TSNO $=
201308012253 METAR KCLM 012253Z AUTO 33006KT 10SM CLR 17/12 A3003 RMK AO2 SLP169 T01720117 TSNO $=
201308012153 METAR KCLM 012153Z AUTO 32007KT 10SM CLR 17/11 A3005 RMK AO2 SLP174 T01670111 TSNO $=
201308012053 METAR KCLM 012053Z AUTO 33008G16KT 10SM CLR 16/11 A3004 RMK AO2 SLP173 T01610111 58002 TSNO $=
201308012022 SPECI KCLM 012022Z AUTO 31006KT 10SM SCT012 16/12 A3005 RMK AO2 T01610117 TSNO=
201308011953 METAR KCLM 011953Z AUTO 33008KT 10SM OVC011 17/12 A3005 RMK AO2 SLP176 T01670117 TSNO=
201308011931 SPECI KCLM 011931Z AUTO 32006KT 10SM OVC010 16/12 A3006 RMK AO2 T01560117 TSNO=
201308011853 METAR KCLM 011853Z AUTO 30006KT 10SM OVC008 15/11 A3006 RMK AO2 SLP178 T01500111 TSNO=
201308011753 METAR KCLM 011753Z AUTO 31005KT 10SM OVC006 14/11 A3005 RMK AO2 SLP175 T01390111 10139 20117 55002 TSNO=
201308011729 SPECI KCLM 011729Z AUTO 31006KT 10SM OVC005 13/11 A3005 RMK AO2 T01330111 TSNO=
201308011653 METAR KCLM 011653Z AUTO 30006KT 10SM OVC004 13/11 A3004 RMK AO2 SLP173 T01330111 TSNO=
201308011553 METAR KCLM 011553Z AUTO 00000KT 10SM OVC004 13/12 A3005 RMK AO2 SLP176 T01330117 TSNO=
201308011453 METAR KCLM 011453Z AUTO 28006KT 8SM OVC003 12/11 A3005 RMK AO2 SLP177 T01220111 53002 TSNO=
201308011353 METAR KCLM 011353Z AUTO 29004KT 3SM BR OVC003 12/11 A3005 RMK AO2 SLP176 T01170111 TSNO=
201308011345 SPECI KCLM 011345Z AUTO 33003KT 3SM BR OVC003 12/11 A3005 RMK AO2 T01170111 TSNO=
201308011331 SPECI KCLM 011331Z AUTO 00000KT 1 3/4SM BR OVC003 12/11 A3005 RMK AO2 T01170111 TSNO=
201308011253 METAR KCLM 011253Z AUTO 00000KT 8SM OVC003 12/11 A3005 RMK AO2 SLP176 T01170106 TSNO=
201308011200 SPECI KCLM 011200Z AUTO 25003KT 5SM BR OVC002 12/11 A3005 RMK AO2 T01170111 TSNO=
201308011153 METAR KCLM 011153Z AUTO 25003KT 2 1/2SM BR OVC002 12/11 A3005 RMK AO2 SLP175 T01170111 10117 20111 51006 TSNO=
201308011124 SPECI KCLM 011124Z AUTO 28004KT 2SM BR OVC002 12/11 A3005 RMK AO2 T01170111 TSNO=
201308011053 METAR KCLM 011053Z AUTO 29006KT 1 1/4SM BR OVC001 12/11 A3004 RMK AO2 SLP174 T01170111 TSNO=
201308011041 SPECI KCLM 011041Z AUTO 29007KT 1 1/4SM BR OVC001 12/11 A3005 RMK AO2 T01170111 TSNO=
201308011003 SPECI KCLM 011003Z AUTO 29009KT 1SM BR VV002 12/11 A3005 RMK AO2 T01170111 TSNO=
201308010953 METAR KCLM 010953Z AUTO 29009KT 3/4SM BR VV002 12/11 A3005 RMK AO2 SLP174 T01170111 TSNO=
201308010853 METAR KCLM 010853Z AUTO 30013G20KT 3/4SM BR VV002 12/11 A3003 RMK AO2 SLP169 T01170111 58005 TSNO=
201308010813 SPECI KCLM 010813Z AUTO 29010KT 1/2SM FG VV002 12/11 A3004 RMK AO2 T01170106 TSNO=
201308010753 METAR KCLM 010753Z AUTO 28007KT 1 1/2SM BR OVC002 12/11 A3004 RMK AO2 SLP174 T01170106 401830111 TSNO=
201308010726 SPECI KCLM 010726Z AUTO 28006KT 1SM BR VV002 11/11 A3005 RMK AO2 T01110106 TSNO=
201308010709 SPECI KCLM 010709Z AUTO 29005KT 1 3/4SM BR OVC001 12/11 A3005 RMK AO2 T01170106 TSNO=
201308010653 METAR KCLM 010653Z AUTO 31003KT 2SM BR OVC002 11/11 A3005 RMK AO2 SLP176 T01110106 TSNO=
201308010629 SPECI KCLM 010629Z AUTO 28003KT 4SM BR OVC002 12/11 A3005 RMK AO2 T01170106 TSNO=
201308010619 SPECI KCLM 010619Z AUTO 28004KT 2 1/2SM BR OVC002 11/11 A3005 RMK AO2 VIS 1 3/4V5 T01110106 TSNO=
201308010553 METAR KCLM 010553Z AUTO 00000KT 9SM OVC002 12/11 A3005 RMK AO2 SLP175 T01170106 10167 20117 55000 TSNO=
201308010453 METAR KCLM 010453Z AUTO 29008KT 10SM OVC003 12/11 A3003 RMK AO2 SLP170 T01170106 TSNO=
201308010437 SPECI KCLM 010437Z AUTO 30007KT 10SM BKN003 12/11 A3003 RMK AO2 T01170106 TSNO=
201308010414 SPECI KCLM 010414Z AUTO 30009KT 10SM FEW004 12/11 A3003 RMK AO2 T01170106 TSNO=
201308010353 METAR KCLM 010353Z AUTO 30005KT 10SM CLR 12/11 A3002 RMK AO2 SLP166 T01220106 TSNO=
201308010253 METAR KCLM 010253Z AUTO 33004KT 10SM CLR 13/11 A3005 RMK AO2 SLP175 T01330106 53002 TSNO=
201308010153 METAR KCLM 010153Z AUTO 33003KT 10SM CLR 15/11 A3004 RMK AO2 SLP172 T01500111 TSNO=
201308010053 METAR KCLM 010053Z AUTO 32003KT 10SM CLR 16/12 A3003 RMK AO2 SLP169 T01560117 TSNO=

# No short TAF reports from KCLM in databse.

###################################
#  large TAF from KCLM
###################################
201308312320 TAF KCLM 312320Z 0100/0124 VRB04KT P6SM SKC FM011600 28006KT P6SM
                       SCT120=
201308311720 TAF KCLM 311720Z 3118/0118 09005KT P6SM BKN015 FM312100 09005KT
                       P6SM SCT020 FM010300 28004KT P6SM SCT200=
201308311120 TAF KCLM 311120Z 3112/0112 22003KT P6SM BCFG SCT002 BKN200
                      TEMPO 3113/3116 5SM BR FM311700 06004KT P6SM
                       BKN200 FM010300 28004KT P6SM BKN200=
201308310529 TAF KCLM 310529Z 3106/0106 23004KT P6SM BKN200 FM311000 26003KT
                       P6SM BCFG SCT002 BKN200
                      TEMPO 3113/3116 5SM BR BKN002 BKN200 FM311700
                       06004KT P6SM BKN200=
201308302320 TAF KCLM 302320Z 3100/3124 35005KT P6SM OVC080 FM310400 26006KT
                       P6SM SCT200 FM311000 26003KT P6SM VCFG SCT002
                       SCT200 FM311900 29005KT P6SM SCT200=
201308301729 TAF KCLM 301729Z 3018/3118 35004KT P6SM SCT060 BKN200 FM301900
                       29006KT P6SM SCT060 SCT200 FM310600 26003KT
                       P6SM SCT200 FM311000 26003KT P6SM VCFG SCT002
                       BKN007 BKN200=
201308301136 TAF KCLM 301136Z 3012/3112 VRB03KT P6SM SCT035 BKN060 FM301900
                       29006KT P6SM SCT060 SCT200=
201308300539 TAF KCLM 300539Z 3006/3106 29008KT P6SM SCT003 BKN015 OVC060
                      TEMPO 3006/3010 3SM BR BKN003 OVC015 FM301200
                       VRB03KT P6SM SCT008 BKN025 BKN050 FM301500
                       VRB03KT P6SM SCT030 BKN050 FM302100 29006KT
                       P6SM SCT050 SCT200=
201308300121 TAF AMD KCLM 300121Z 3001/3024 VRB03KT P6SM VCSH BKN050 OVC100
                       TEMPO 3001/3005 -RA FM300500 VRB03KT P6SM
                       VCSH SCT020 OVC035
                      TEMPO 3005/3009 -RA BKN020 OVC035 FM300900
                       VRB03KT P6SM VCSH SCT007 OVC020 FM301800
                       VRB03KT P6SM BKN030 BKN050=
201308292345 TAF KCLM 292345Z 3000/3024 VRB03KT P6SM -RA SCT028 SCT050 OVC090
                       TEMPO 3000/3003 4SM -RA BR BKN028 OVC050
                       FM300300 VRB03KT 5SM -RA BR BKN011 OVC035
                       FM301200 VRB03KT 2SM BR BKN007 OVC015=
201308292213 TAF AMD KCLM 292213Z 2922/3018 VRB03KT P6SM -RA SCT028 SCT050 OVC090
                       TEMPO 2922/3002 4SM -RA BR BKN028 OVC050
                       FM300300 VRB03KT 5SM -RA BR BKN011 OVC035
                       FM301200 VRB03KT 2SM BR BKN007 OVC015=
201308292005 TAF AMD KCLM 292005Z 2920/3018 VRB03KT 6SM -RA BR SCT006 SCT030
                       OVC090
                      TEMPO 2920/2922 1/2SM -RA FG BKN004 OVC030
                       FM292200 VRB03KT 5SM -RA BR BKN007 BKN050
                       OVC090
                      TEMPO 2922/2924 2SM RA BR BKN003 OVC030 FM300300
                       VRB03KT 5SM -RA BR BKN011 OVC035 FM301200
                       VRB03KT 2SM BR BKN007 OVC015=
201308291917 TAF AMD KCLM 291917Z 2919/3018 VRB03KT P6SM -RA VCFG SCT006 SCT030
                       OVC090
                      TEMPO 2919/2921 2SM -RA BR BKN006 OVC030
                       FM292100 VRB03KT 5SM -RA BR BKN007 BKN050
                       OVC090
                      TEMPO 2921/2924 2SM RA BR BKN003 OVC030 FM300300
                       VRB03KT 5SM -RA BR BKN011 OVC035 FM301200
                       VRB03KT 2SM BR BKN007 OVC015=
201308291749 TAF KCLM 291749Z 2918/3018 VRB03KT 3SM BR BKN003 BKN050 OVC090
                       TEMPO 2918/2920 3/4SM -RA BR FM292100 VRB03KT
                       5SM -RA BR BKN007 BKN050 OVC090
                      TEMPO 2921/2924 2SM RA BR BKN003 OVC030 FM300300
                       VRB03KT 5SM -RA BR BKN011 OVC035 FM301200
                       VRB03KT 2SM BR BKN007 OVC015=
201308291702 TAF AMD KCLM 291702Z 2917/3012 VRB03KT 2SM BR BKN005 OVC070
                      TEMPO 2917/2918 1/2SM -RA FG BKN001 OVC010
                       FM292000 VRB03KT P6SM -RA SCT035 OVC050
                       FM292300 VRB03KT P6SM -RA SCT006 BKN015
                       OVC030 FM300300 28006KT P6SM SCT040 BKN070=
201308291556 TAF AMD KCLM 291556Z 2916/3012 VRB03KT 2SM BR BKN007 OVC070
                      TEMPO 2916/2918 1/4SM -RA FG BKN002 OVC010
                       FM292000 VRB03KT P6SM -RA SCT035 OVC050
                       FM292300 VRB03KT P6SM -RA SCT006 BKN015
                       OVC030 FM300300 28006KT P6SM SCT040 BKN070=
201308291402 TAF AMD KCLM 291402Z 2914/3012 VRB03KT 2SM -RA BR SCT007 OVC070
                       TEMPO 2914/2918 1/4SM -RA FG BKN007 OVC030
                       FM292000 VRB03KT P6SM -RA SCT035 OVC050
                       FM292300 VRB03KT P6SM -RA SCT006 BKN015
                       OVC030 FM300300 28006KT P6SM SCT040 BKN070=
201308291353 TAF AMD KCLM 291353Z 2914/3012 VRB03KT 5SM -SHRA BR SCT006 SCT050
                       BKN090
                      TEMPO 2914/2916 1SM RA BR OVC006 FM292000
                       VRB03KT P6SM -RA SCT035 OVC050 FM292300
                       VRB03KT P6SM -RA SCT006 BKN015 OVC030 FM300300
                       28006KT P6SM SCT040 BKN070=
201308291211 TAF AMD KCLM 291211Z 2912/3012 VRB03KT 5SM -SHRA BR SCT050 BKN090
                       TEMPO 2912/2913 1SM BR FM292000 VRB03KT
                       P6SM -RA SCT035 OVC050 FM292300 VRB03KT
                       P6SM -RA SCT006 BKN015 OVC030 FM300300 28006KT
                       P6SM SCT040 BKN070=
201308291134 TAF KCLM 291134Z 2912/3012 VRB03KT P6SM -SHRA SCT050 BKN090 FM292000
                       VRB03KT P6SM -RA SCT035 OVC050 FM292300
                       VRB03KT P6SM -RA SCT006 BKN015 OVC030 FM300300
                       28006KT P6SM SCT040 BKN070=
201308290540 TAF KCLM 290540Z 2906/3006 VRB03KT P6SM -SHRA SCT050 BKN090 FM291400
                       VRB03KT P6SM -RA SCT035 OVC050 FM291800
                       VRB03KT P6SM -RA SCT006 BKN015 OVC030 FM300300
                       28006KT P6SM SCT040 BKN070=
201308282344 TAF KCLM 282344Z 2900/2924 VRB03KT P6SM SCT050 SCT100 OVC200 FM290300
                       VRB03KT P6SM VCSH SCT050 BKN100 OVC200 FM290600
                       VRB03KT P6SM -RA SCT015 OVC030 FM291200
                       VRB03KT P6SM -RA SCT006 OVC015
                      TEMPO 2914/2918 4SM -RA BR BKN006 OVC015
                       FM291800 VRB03KT P6SM -RA SCT006 BKN015
                       OVC030=
201308281746 TAF KCLM 281746Z 2818/2918 VRB03KT P6SM SCT007 BKN050 BKN100
                      TEMPO 2818/2820 BKN007 OVC050 FM282000 VRB03KT
                       P6SM VCSH FEW015 SCT050 BKN100 FM290000
                       VRB03KT P6SM VCSH FEW030 BKN050 OVC100
                      PROB30 2903/2906 -SHRA FM290600 VRB03KT P6SM
                       -RA SCT015 OVC030 FM291200 VRB03KT P6SM
                       -RA BKN006 OVC015=
201308281600 TAF AMD KCLM 281600Z 2816/2912 VRB03KT P6SM VCFG SCT004 BKN050
                       BKN200
                      TEMPO 2816/2818 4SM BR BKN004 OVC050 FM282100
                       29006KT P6SM SCT050 SCT100 BKN200 FM290800
                       VRB03KT P6SM -SHRA BKN022 OVC040=
201308281507 TAF AMD KCLM 281507Z 2815/2912 VRB03KT P6SM VCFG BKN007 OVC020
                       FM282100 29006KT P6SM SCT050 SCT100 BKN200
                       FM290800 VRB03KT P6SM -SHRA BKN022 OVC040=
201308281139 TAF KCLM 281139Z 2812/2912 VRB03KT P6SM VCSH SCT008 BKN020 OVC040
                       FM281500 VRB03KT P6SM SCT050 BKN100 FM282100
                       29006KT P6SM SCT050 SCT100 BKN200 FM290800
                       VRB03KT P6SM -SHRA BKN022 OVC040=
201308281101 TAF AMD KCLM 281101Z 2811/2906 VRB03KT P6SM VCSH OVC008 FM281400
                       VRB03KT P6SM SCT008 BKN020 OVC040 FM281600
                       VRB03KT P6SM SCT050 BKN100 FM282100 29006KT
                       P6SM SCT050 SCT100 OVC200=
201308280530 TAF KCLM 280530Z 2806/2906 VRB03KT P6SM VCSH SCT050 BKN100 FM282100
                       29006KT P6SM SCT050 SCT100 OVC200=
201308272347 TAF KCLM 272347Z 2800/2824 VRB03KT P6SM VCSH SCT060 BKN110 OVC200
                       FM280200 VRB03KT P6SM VCSH SCT035 BKN050
                       OVC110
                      TEMPO 2802/2806 -SHRA FM280600 VRB03KT P6SM
                       VCSH BKN035 BKN050 OVC110 FM281000 VRB03KT
                       P6SM BKN028 OVC050 FM281800 VRB03KT P6SM
                       SCT035 BKN060 BKN110 FM282100 33005KT P6SM
                       SCT060 SCT110 OVC200=
201308271738 TAF KCLM 271738Z 2718/2818 VRB03KT P6SM FEW060 SCT110 OVC200 FM272100
                       VRB03KT P6SM VCSH SCT060 BKN110 OVC200 FM280000
                       VRB03KT P6SM VCSH BKN060 OVC110
                      PROB30 2803/2809 -SHRA FM281500 VRB03KT P6SM
                       FEW025 BKN060 BKN110=
201308271504 TAF AMD KCLM 271504Z 2715/2812 VRB03KT P6SM FEW050 SCT110 OVC200
                       FM280300 VRB03KT P6SM -SHRA BKN035 OVC050=
201308271122 TAF KCLM 271122Z 2712/2812 VRB03KT P6SM SCT050 BKN090 FM280300
                       VRB03KT P6SM -SHRA BKN035 OVC050=
201308270532 TAF KCLM 270532Z 2706/2806 VRB03KT P6SM SCT035 BKN050 BKN070 FM271800
                       VRB03KT P6SM SCT050 BKN090=
201308262320 TAF KCLM 262320Z 2700/2724 VRB03KT P6SM -RA SCT035 OVC060
                      TEMPO 2702/2706 BKN035 OVC060 FM270600 VRB03KT
                       P6SM VCSH FEW018 BKN035 OVC050 FM271200
                       VRB03KT P6SM VCSH SCT009 BKN028 BKN110 FM271800
                       VRB03KT P6SM VCSH SCT035 SCT110 BKN200=
201308261739 TAF KCLM 261739Z 2618/2718 VRB03KT P6SM SCT060 SCT110 OVC200
                      TEMPO 2618/2622 SCT060 BKN110 OVC200 FM262200
                       VRB03KT P6SM VCSH BKN060 OVC110 FM270000
                       VRB03KT P6SM -RA SCT028 OVC060
                      TEMPO 2702/2706 BKN028 OVC060 FM270600 VRB03KT
                       P6SM VCSH FEW009 OVC028 FM271200 VRB03KT
                       P6SM BKN009 OVC028=
201308261512 TAF AMD KCLM 261512Z 2615/2712 VRB04KT P6SM FEW050 SCT110 OVC200
                       FM261800 35005KT P6SM FEW050 BKN100 FM270000
                       29005KT P6SM VCSH BKN060 OVC080=
201308261135 TAF KCLM 261135Z 2612/2712 23006KT P6SM FEW050 SCT100 FM261800
                       35005KT P6SM FEW050 BKN100 FM270000 29005KT
                       P6SM VCSH BKN060 OVC080=
201308260520 TAF KCLM 260520Z 2606/2706 24004KT P6SM FEW050 BKN100 FM261200
                       VRB03KT P6SM BKN050 BKN100 FM261800 35005KT
                       P6SM SCT050 BKN100 FM270000 29005KT P6SM
                       VCSH BKN060 OVC080=
201308252320 TAF KCLM 252320Z 2600/2624 29004KT P6SM FEW050 BKN100 FM261200
                       VRB03KT P6SM BKN050 BKN100 FM261800 35005KT
                       P6SM BKN050 BKN100=
201308251720 TAF KCLM 251720Z 2518/2618 35005KT P6SM FEW050 SCT200 FM260000
                       28005KT P6SM SCT050 BKN200 FM260600 27004KT
                       P6SM SCT050 BKN120=
201308251120 TAF KCLM 251120Z 2512/2612 25004KT P6SM FEW011 SCT060
                      TEMPO 2512/2516 VRB03KT BKN011 FM251700 34005KT
                       P6SM SCT150 FM260300 29005KT P6SM SCT100
                       BKN150 FM261100 VRB03KT P6SM SCT050 BKN100=
201308250520 TAF KCLM 250520Z 2506/2606 29008KT P6SM BKN060 FM251000 27004KT
                       P6SM FEW011 SCT060
                      TEMPO 2512/2516 BKN011 FM251900 34005KT P6SM
                       SCT150 FM260300 29005KT P6SM SCT100 BKN150=
201308242320 TAF KCLM 242320Z 2500/2524 29010KT P6SM SCT035 SCT050 BKN100
                      TEMPO 2500/2502 SCT035 BKN050 OVC100 FM250400
                       29008KT P6SM FEW050 SCT100 FM251000 27004KT
                       P6SM FEW010 SCT100
                      TEMPO 2512/2516 BKN010 FM251900 34005KT P6SM
                       FEW100=
201308241720 TAF KCLM 241720Z 2418/2518 33004KT P6SM SCT020 BKN060
                      TEMPO 2418/2420 BKN020 FM242200 31005KT P6SM
                       SCT050 SCT100 FM250300 29007KT P6SM SCT100
                       FM251000 27004KT P6SM FEW010 SCT100
                      TEMPO 2512/2516 BKN010=
201308241120 TAF KCLM 241120Z 2412/2512 VRB03KT P6SM SCT012 BKN035
                      TEMPO 2412/2416 BKN012 BKN022 FM241600 VRB03KT
                       P6SM SCT018 OVC025 FM241900 33005KT P6SM
                       BKN030 FM242200 31005KT P6SM SCT035 SCT100
                       FM250300 VRB03KT P6SM SCT035 SCT100=
201308241017 TAF AMD KCLM 241017Z 2410/2506 VRB03KT P6SM SCT025 BKN050
                      TEMPO 2411/2413 SCT012 BKN022 FM241300 VRB03KT
                       P6SM SCT012 OVC022 FM241900 33005KT P6SM
                       BKN030 FM242200 31005KT P6SM SCT035 SCT100
                       FM250300 VRB03KT P6SM FEW035 SCT100=
201308240816 TAF AMD KCLM 240816Z 2408/2506 VRB03KT P6SM SCT012 BKN025
                      TEMPO 2409/2412 OVC012 FM241200 VRB03KT P6SM
                       OVC012 FM241900 33005KT P6SM BKN030 FM242200
                       31005KT P6SM SCT035 SCT100 FM250300 VRB03KT
                       P6SM FEW035 SCT100=
201308240520 TAF KCLM 240520Z 2406/2506 28004KT P6SM SCT008 OVC014
                      TEMPO 2406/2408 BKN008 FM240800 30005KT P6SM
                       SCT008 OVC012
                      TEMPO 2410/2414 OVC008 FM241900 33005KT P6SM
                       BKN030 FM242200 31005KT P6SM SCT035 SCT100
                       FM250300 VRB03KT P6SM FEW035 SCT100=
201308240417 TAF AMD KCLM 240417Z 2404/2424 28004KT P6SM SCT012 OVC022
                      TEMPO 2404/2408 BKN012 FM240800 30005KT P6SM
                       SCT008 OVC012
                      TEMPO 2410/2414 OVC008 FM241900 33005KT P6SM
                       BKN030 FM242200 31005KT P6SM SCT035 SCT100=
201308232320 TAF KCLM 232320Z 2400/2424 28004KT P6SM SCT035 SCT100
                      TEMPO 2400/2402 BKN035 BKN100 FM240900 VRB03KT
                       P6SM OVC020 FM241900 33005KT P6SM BKN030
                       FM242200 31005KT P6SM SCT035 SCT100=
201308231724 TAF KCLM 231724Z 2318/2418 31005KT P6SM SCT020
                      TEMPO 2318/2320 BKN020 FM240300 28006KT P6SM
                       BKN050 FM240900 VRB03KT P6SM BKN020=
201308231123 TAF KCLM 231123Z 2312/2412 29010KT P6SM FEW007 BKN100
                      TEMPO 2313/2315 OVC007 FM231600 28008KT P6SM
                       BKN010 BKN100 FM232100 28007KT P6SM SCT015
                       BKN100 FM240300 29010KT P6SM SCT030 BKN080=
201308231014 TAF AMD KCLM 231014Z 2310/2406 28009KT P6SM FEW007 FM231200 28006KT
                       5SM BR OVC007 FM231700 28008KT P6SM BKN010
                       BKN100 FM232100 28008KT P6SM SCT015 BKN100
                       FM240300 29010KT P6SM SCT030 BKN080=
201308230520 TAF KCLM 230520Z 2306/2406 28011KT P6SM BKN150 FM231000 28006KT
                       5SM BR BKN010 FM231200 28006KT 3SM BR OVC005
                       FM231700 28008KT P6SM BKN010 BKN100 FM232100
                       28008KT P6SM SCT015 BKN100 FM240300 29010KT
                       P6SM SCT030 BKN080=
201308221720 TAF KCLM 221720Z 2218/2318 VRB05KT P6SM SCT250 FM230600 28012KT
                       P6SM BKN150 FM230900 28006KT 5SM BR BKN010
                       FM231200 28006KT 3SM BR OVC005 FM231700
                       28008KT P6SM BKN010 BKN120=
201308221120 TAF KCLM 221120Z 2212/2312 VRB04KT P6SM SCT250 FM230200 29010KT
                       P6SM SCT100 SCT250 FM231000 28007KT P6SM
                       OVC012=
201308220520 TAF KCLM 220520Z 2206/2306 VRB04KT P6SM SCT250 FM230200 29010KT
                       P6SM SCT100 SCT250=
201308212320 TAF KCLM 212320Z 2200/2224 VRB04KT P6SM SCT250=
201308211720 TAF KCLM 211720Z 2118/2218 VRB04KT P6SM SCT250=
201308211120 TAF KCLM 211120Z 2112/2212 VRB04KT P6SM SKC=
201308210520 TAF KCLM 210520Z 2106/2206 26004KT P6SM SKC FM211200 VRB05KT P6SM
                       SKC=
201308202320 TAF KCLM 202320Z 2100/2124 33010KT P6SM SKC=
201308201720 TAF KCLM 201720Z 2018/2118 30008KT P6SM SKC=
201308201340 TAF AMD KCLM 201340Z 2014/2112 VRB03KT P6SM SCT005
                      TEMPO 2014/2015 3/4SM BR VV001 FM201800 30008KT
                       P6SM SKC=
201308201248 TAF AMD KCLM 201248Z 2013/2112 30007KT 3SM BR BKN005
                      TEMPO 2013/2015 3/4SM BR VV001 FM201500 31007KT
                       P6SM SCT005 FM201800 30008KT P6SM SKC=
201308201120 TAF KCLM 201120Z 2012/2112 29007KT P6SM SCT050 FM201800 30008KT
                       P6SM SKC=
201308200528 TAF KCLM 200528Z 2006/2106 28007KT P6SM SCT025
                      TEMPO 2012/2016 2SM BR BKN002 FM201700 33008KT
                       P6SM SKC=
201308192320 TAF KCLM 192320Z 2000/2024 30008KT P6SM BKN035 FM200600 33008KT
                       P6SM SCT040 FM201200 VRB03KT P6SM SCT002
                       TEMPO 2012/2016 2SM BR BKN002 FM201700 33008KT
                       P6SM SKC=
201308192201 TAF AMD KCLM 192201Z 1922/2018 32006KT P6SM BKN030 FM200200 32010KT
                       P6SM SCT040 FM200600 32008KT P6SM SKC=
201308191720 TAF KCLM 191720Z 1918/2018 33007KT P6SM BKN070 FM192200 30008KT
                       P6SM SCT050 FM200300 30012KT P6SM SKC=
201308191120 TAF KCLM 191120Z 1912/2012 27005KT P6SM BKN080 FM191900 27005KT
                       P6SM BKN080 FM200000 27008KT P6SM SKC=
201308190520 TAF KCLM 190520Z 1906/2006 27007KT P6SM BKN035 FM190800 26006KT
                       P6SM SCT015 BKN030 FM191700 32005KT P6SM
                       SCT050=
201308182324 TAF KCLM 182324Z 1900/1924 31007KT P6SM BKN035 OVC060 FM190300
                       27009KT P6SM SCT060 FM190800 26006KT P6SM
                       SCT015 BKN050 FM191700 32005KT P6SM SCT050=
201308182027 TAF AMD KCLM 182027Z 1820/1918 33008KT P6SM BKN030 BKN050 FM182300
                       29008KT P6SM SCT050 FM190300 27008KT P6SM
                       SKC FM190800 25005KT P6SM BKN050=
201308181913 TAF AMD KCLM 181913Z 1819/1918 33009KT P6SM BKN050 FM182300 28008KT
                       P6SM SCT050 FM190300 27008KT P6SM SKC FM190800
                       25005KT P6SM BKN050=
201308181739 TAF KCLM 181739Z 1818/1918 VRB04KT P6SM BKN050 FM182000 34006KT
                       P6SM BKN050 FM182300 28008KT P6SM SCT050
                       FM190300 27008KT P6SM SKC FM190800 25005KT
                       P6SM BKN050=
201308181429 TAF AMD KCLM 181429Z 1814/1912 VRB04KT P6SM SCT025 BKN050 FM181800
                       28006KT P6SM SCT030 FM182100 28006KT P6SM
                       SKC=
201308181120 TAF KCLM 181120Z 1812/1912 VRB04KT P6SM OVC025 FM181800 28006KT
                       P6SM SCT030 FM182100 28006KT P6SM SKC=
201308180522 TAF KCLM 180522Z 1806/1906 28008KT P6SM BKN025 FM181200 VRB04KT
                       P6SM BKN015 FM181800 30006KT P6SM SCT030=
201308180103 TAF AMD KCLM 180103Z 1801/1824 31010KT P6SM SCT020
                      TEMPO 1801/1803 BKN020 FM181200 VRB04KT P6SM
                       BKN015 FM181800 30006KT P6SM SCT030=
201308172320 TAF KCLM 172320Z 1800/1824 31010KT P6SM BKN020 FM181200 VRB04KT
                       P6SM BKN015 FM181800 30006KT P6SM SCT030=
201308172207 TAF AMD KCLM 172207Z 1722/1818 31010KT P6SM BKN020 BKN060 BKN120
                       TEMPO 1722/1802 OVC017 FM181200 VRB04KT
                       P6SM BKN010 OVC030 FM181700 30006KT P6SM
                       BKN015 BKN040=
201308171857 TAF AMD KCLM 171857Z 1719/1818 33008KT P6SM SCT020 BKN060 BKN120
                       TEMPO 1719/1722 BKN018 BKN050 FM180000 30008KT
                       P6SM SCT030 BKN060 FM181200 VRB04KT P6SM
                       BKN030=
201308171720 TAF KCLM 171720Z 1718/1818 30006KT P6SM BKN050 BKN120=
201308171120 TAF KCLM 171120Z 1712/1812 27007KT P6SM VCSH SCT040 SCT070 OVC100
                       FM171400 27005KT P6SM VCSH SCT020 BKN040
                       OVC100
                      TEMPO 1714/1718 -RA SCT007 BKN012 FM171900
                       27004KT P6SM SCT020 BKN050 FM172100 27007KT
                       P6SM SCT040=
201308171000 TAF AMD KCLM 171000Z 1710/1806 27007KT P6SM SCT070 BKN120 FM171400
                       27005KT 5SM BR BKN005 BKN040
                      TEMPO 1714/1718 2SM -DZ BR OVC005 FM171800
                       VRB04KT P6SM SCT020 BKN050 FM172100 27007KT
                       P6SM SCT040=
201308170521 TAF KCLM 170521Z 1706/1806 27007KT P6SM SCT070 BKN120 FM171000
                       27005KT 5SM BR BKN005 BKN040
                      TEMPO 1712/1716 2SM -DZ BR OVC005 FM171700
                       VRB04KT P6SM SCT020 BKN050 FM172100 27007KT
                       P6SM SCT040=
201308162320 TAF KCLM 162320Z 1700/1724 VRB04KT P6SM SCT050 SCT120 FM170600
                       27007KT P6SM VCFG SCT005 BKN050 FM171000
                       VRB04KT 5SM BR BKN005 BKN050
                      TEMPO 1712/1716 2SM -DZ BR OVC005 FM171700
                       VRB04KT P6SM SCT020 BKN050 FM172100 27007KT
                       P6SM SCT040=
201308161720 TAF KCLM 161720Z 1618/1718 36006KT 5SM BR SCT001 BKN120
                      TEMPO 1618/1620 1/4SM FG VV001 FM162000 VRB04KT
                       P6SM VCFG SCT005 BKN050 BKN100 FM170000
                       30006KT P6SM VCSH SCT020 BKN040 OVC080 FM170600
                       27007KT 5SM -SHRA BR BKN015 OVC040 FM171700
                       VRB04KT P6SM SCT020 BKN050=
201308161703 TAF AMD KCLM 161703Z 1617/1712 36006KT 5SM BR SCT001
                      TEMPO 1617/1619 1/2SM FG VV001 FM161900 VRB04KT
                       P6SM VCFG SCT005 BKN050 BKN100 FM170000
                       30006KT P6SM VCSH SCT020 BKN040 OVC080 FM170600
                       27007KT 5SM -SHRA BR BKN015 OVC040=
201308161126 TAF KCLM 161126Z 1612/1712 VRB03KT P6SM SCT015 BKN050
                      TEMPO 1612/1616 BKN010 FM161800 VRB04KT P6SM
                       SCT020 BKN050 FM162300 30006KT P6SM SCT035
                       BKN120 FM170800 28005KT P6SM BKN035 BKN070=
201308160536 TAF KCLM 160536Z 1606/1706 00000KT P6SM VCSH SCT030 BKN100
                      TEMPO 1608/1612 BKN015 OVC030 FM161200 VRB03KT
                       P6SM SCT015 BKN050
                      TEMPO 1612/1616 BKN010 FM161800 VRB04KT P6SM
                       SCT020 BKN050 FM162300 27007KT P6SM SCT035
                       BKN120=
201308152320 TAF KCLM 152320Z 1600/1624 VRB03KT P6SM VCSH SCT015 OVC070 FM160400
                       00000KT P6SM VCSH BKN015 OVC050 FM161800
                       VRB04KT P6SM SCT020 BKN050=
201308152107 TAF AMD KCLM 152107Z 1521/1618 VRB03KT P6SM SCT020 OVC070 FM160000
                       VRB03KT P6SM -RA BKN015 OVC050 FM161500
                       VRB03KT P6SM SCT020 BKN050=
201308151720 TAF KCLM 151720Z 1518/1618 30004KT P6SM BKN015 OVC040 FM161700
                       VRB04KT P6SM VCSH SCT020 BKN050=
201308151309 TAF AMD KCLM 151309Z 1513/1612 27003KT P6SM SCT009 OVC016 FM151700
                       31004KT P6SM SCT016 OVC060 FM151900 VRB04KT
                       P6SM VCSH SCT045 BKN090 FM160300 29006KT
                       P6SM SCT050 BKN120=
201308151122 TAF KCLM 151122Z 1512/1612 VRB04KT P6SM VCSH SCT010 BKN050 OVC090
                       TEMPO 1512/1513 5SM BR BKN005 FM151300 VRB04KT
                       P6SM VCSH SCT020 BKN050 FM151900 VRB04KT
                       P6SM VCSH SCT045 BKN090 FM160300 29006KT
                       P6SM SCT050 BKN120=
201308150926 TAF AMD KCLM 150926Z 1509/1606 VRB04KT P6SM VCSH SCT010 BKN050
                       OVC090
                      TEMPO 1509/1513 5SM BR BKN008 FM151300 VRB04KT
                       P6SM VCSH SCT020 BKN050 FM151800 VRB04KT
                       P6SM SCT050 BKN100 FM160200 29006KT P6SM
                       SCT050 BKN120=
201308150526 TAF KCLM 150526Z 1506/1606 VRB04KT P6SM -SHRA BKN050 OVC090 FM151200
                       VRB04KT P6SM VCSH SCT020 BKN050 FM151800
                       VRB04KT P6SM SCT050 BKN100 FM160200 29006KT
                       P6SM SCT050 BKN120=
201308142320 TAF KCLM 142320Z 1500/1524 VRB04KT P6SM -SHRA BKN050 OVC090 FM151200
                       VRB04KT P6SM SCT020 BKN050 FM151800 VRB04KT
                       P6SM SCT050=
201308141720 TAF KCLM 141720Z 1418/1518 VRB04KT P6SM BKN150 FM150000 VRB04KT
                       P6SM VCSH BKN070 OVC120 FM150600 VRB04KT
                       P6SM -SHRA BKN040 OVC070 FM151200 VRB04KT
                       P6SM BKN040=
201308141210 TAF AMD KCLM 141210Z 1412/1512 00000KT P6SM BKN250 FM141800 VRB03KT
                       P6SM FEW100 OVC200 FM150000 VRB03KT P6SM
                       VCSH BKN100 OVC200 FM150600 VRB03KT P6SM
                       VCSH SCT070 OVC100
                      PROB30 1506/1512 -RA OVC070=
201308141121 TAF KCLM 141121Z 1412/1512 00000KT P6SM SCT250 FM141500 00000KT
                       P6SM BKN250 FM142100 VRB03KT P6SM SCT120
                       BKN200 FM150400 25006KT P6SM OVC100=
201308140521 TAF KCLM 140521Z 1406/1506 25004KT P6SM SKC FM142100 VRB03KT P6SM
                       SCT120 BKN200 FM150400 25006KT P6SM OVC100=
201308132320 TAF KCLM 132320Z 1400/1424 28006KT P6SM SCT250 FM142100 VRB03KT
                       P6SM SCT120 BKN200=
201308131739 TAF KCLM 131739Z 1318/1418 28006KT P6SM SCT250=
201308131309 TAF AMD KCLM 131309Z 1313/1412 VRB03KT P6SM SCT050
                      TEMPO 1313/1317 BKN050 FM131900 33007KT P6SM
                       SCT250 FM140500 VRB04KT P6SM FEW200=
201308131120 TAF KCLM 131120Z 1312/1412 27004KT P6SM BKN040
                      TEMPO 1312/1315 OVC015 FM131900 33007KT P6SM
                       SCT250 FM140500 VRB04KT P6SM FEW200=
201308130531 TAF KCLM 130531Z 1306/1406 28010KT P6SM SKC FM130900 28006KT P6SM
                       SCT020
                      TEMPO 1311/1315 OVC012 FM131900 33007KT P6SM
                       SCT250 FM140500 VRB04KT P6SM FEW200=
201308122347 TAF KCLM 122347Z 1300/1324 32010KT P6SM SKC FM130300 29006KT P6SM
                       FEW060 SCT250 FM130800 28006KT P6SM BKN020
                       TEMPO 1312/1315 OVC015 FM132000 33006KT
                       P6SM FEW250=
201308121757 TAF KCLM 121757Z 1218/1318 32004KT P6SM BKN050 FM122000 33006KT
                       P6SM SCT060 SCT200 FM130100 29006KT P6SM
                       FEW060 SCT200 FM130800 28006KT P6SM BKN030
                       TEMPO 1312/1315 OVC010=
201308121121 TAF KCLM 121121Z 1212/1312 30004KT P6SM BKN060
                      TEMPO 1213/1217 OVC025 FM121900 33006KT P6SM
                       SCT060 SCT150 FM130100 29006KT P6SM FEW060
                       SCT150=
201308120522 TAF KCLM 120522Z 1206/1306 29007KT P6SM FEW016 SCT060 BKN080 FM121200
                       27006KT P6SM SCT002 SCT150 FM121600 27006KT
                       P6SM FEW050 SCT150=
201308112339 TAF KCLM 112339Z 1200/1224 28010KT P6SM SCT080 FM121200 27006KT
                       P6SM SCT002 SCT150 FM121600 27006KT P6SM
                       SCT150=
201308111730 TAF KCLM 111730Z 1118/1218 27006KT P6SM OVC016 FM112000 27008KT
                       P6SM SCT080 FM121100 27008KT P6SM OVC016=
201308111328 TAF AMD KCLM 111328Z 1113/1212 29009KT P6SM VCSH SCT008 SCT015
                       BKN120
                      TEMPO 1113/1115 BKN008 BKN015 OVC120 FM111500
                       29007KT P6SM BKN008 OVC050
                      TEMPO 1115/1117 SCT008 BKN050 FM111700 27006KT
                       P6SM SCT050 SCT100 BKN200=
201308111121 TAF KCLM 111121Z 1112/1212 31003KT P6SM FEW006 SCT050 BKN150
                      TEMPO 1112/1114 -SHRA BKN006 OVC050 FM111400
                       27006KT P6SM BKN008 OVC050
                      TEMPO 1114/1117 SCT008 BKN050 FM111700 27006KT
                       P6SM SCT050 SCT100 BKN200=
201308110523 TAF KCLM 110523Z 1106/1206 29008KT P6SM FEW050 SCT100
                      TEMPO 1109/1113 -SHRA SCT050 BKN100 FM111300
                       27006KT P6SM OVC003 FM111700 27006KT P6SM
                       SCT050 SCT100 BKN200=
201308102334 TAF KCLM 102334Z 1100/1124 33006KT P6SM SKC FM110500 33006KT P6SM
                       SCT050CB BKN100 BKN150
                      TEMPO 1105/1109 -TSRA FM111300 27006KT P6SM
                       OVC003 FM111700 27006KT P6SM SCT100 BKN200=
201308101736 TAF KCLM 101736Z 1018/1118 33006KT P6SM BKN200 FM111100 27006KT
                       P6SM OVC003 FM111700 27006KT P6SM SCT100
                       BKN200=
201308101352 TAF AMD KCLM 101352Z 1014/1112 27007KT P6SM VCSH SCT007 BKN110
                       OVC200
                      TEMPO 1014/1018 BKN007 OVC110 FM101800 33006KT
                       P6SM FEW040 SCT100 BKN150 FM110100 29010KT
                       P6SM FEW050 SCT100 BKN200 FM110700 28007KT
                       P6SM BKN010 BKN100=
201308101307 TAF AMD KCLM 101307Z 1013/1112 29009KT P6SM VCTS BKN005 OVC110CB
                       TEMPO 1013/1015 -SHRA FM101600 30004KT P6SM
                       OVC005 FM101800 33006KT P6SM FEW040 SCT100
                       BKN150 FM110100 29010KT P6SM FEW050 SCT100
                       BKN200 FM110700 28007KT P6SM BKN010 BKN100=
201308101239 TAF AMD KCLM 101239Z 1013/1112 29009KT P6SM VCTS BKN002 OVC110CB
                       TEMPO 1013/1015 -SHRA FM101600 30004KT P6SM
                       BKN004 BKN120 FM101800 33006KT P6SM FEW040
                       SCT100 BKN150 FM110100 29010KT P6SM FEW050
                       SCT100 BKN200 FM110700 28007KT P6SM BKN010
                       BKN100=
201308101120 TAF KCLM 101120Z 1012/1112 28008KT P6SM BKN002 OVC120
                      TEMPO 1012/1015 -SHRA SCT002 BKN120 FM101600
                       30004KT P6SM BKN004 BKN120 FM101800 33006KT
                       P6SM FEW040 SCT100 BKN150 FM110100 29010KT
                       P6SM FEW050 SCT100 BKN200 FM110700 28007KT
                       P6SM BKN010 BKN100=
201308100627 TAF AMD KCLM 100627Z 1006/1106 29007KT P6SM BKN003
                      TEMPO 1007/1009 SCT003 FM101100 30004KT 1/2SM
                       FG VV001 FM101600 30004KT 3SM BR BKN004
                       FM101700 30004KT P6SM SCT100 BKN150=
201308100520 TAF KCLM 100520Z 1006/1106 29006KT P6SM BKN250 FM101100 30004KT
                       1/2SM FG VV001 FM101600 30004KT 3SM BR BKN004
                       FM101700 30004KT P6SM SCT100 BKN150=
201308092338 TAF KCLM 092338Z 1000/1024 30008KT P6SM SCT200 FM101100 30004KT
                       1/2SM FG VV001 FM101600 30004KT 3SM BR BKN004
                       FM101700 30004KT P6SM SCT100 BKN150=
201308091732 TAF KCLM 091732Z 0918/1018 30008KT P6SM SCT200 FM101100 30004KT
                       1/2SM FG VV001 FM101600 30004KT 3SM BR BKN004
                       FM101700 30004KT P6SM BKN150=
201308091602 TAF AMD KCLM 091602Z 0916/1012 30008KT P6SM BKN200 FM100400 31007KT
                       P6SM SCT090 BKN150 FM101000 28005KT P6SM
                       VCSH SCT010 BKN090=
201308091310 TAF AMD KCLM 091310Z 0913/1012 28007KT 1SM BR OVC002
                      TEMPO 0914/0918 3SM BR BKN003 FM091800 30008KT
                       P6SM BKN200 FM100400 31007KT P6SM SCT090
                       BKN150 FM101000 28005KT P6SM VCSH SCT010
                       BKN090=
201308091121 TAF KCLM 091121Z 0912/1012 28007KT 1SM BR OVC001
                      TEMPO 0915/0918 3SM BR BKN003 FM091800 30008KT
                       P6SM BKN200 FM100400 31007KT P6SM SCT090
                       BKN150 FM101000 28005KT P6SM VCSH SCT010
                       BKN090=
201308090901 TAF AMD KCLM 090901Z 0909/1006 28005KT 1 1/2SM BR OVC001 FM091200
                       30008KT 1/2SM FG VV001
                      TEMPO 0915/0918 3SM BR BKN004 FM091800 30008KT
                       P6SM BKN200=
201308090704 TAF AMD KCLM 090704Z 0907/1006 29009KT 3SM BR OVC002
                      TEMPO 0908/0912 2SM BR BKN004 FM091200 30008KT
                       1/2SM FG VV001 FM091700 30008KT P6SM BKN200=
201308090521 TAF KCLM 090521Z 0906/1006 30005KT P6SM SKC
                      TEMPO 0908/0912 2SM BR BKN004 FM091200 30008KT
                       1/2SM FG VV001 FM091700 30008KT P6SM BKN200=
201308082333 TAF KCLM 082333Z 0900/0924 30008KT P6SM SCT200 FM091200 30008KT
                       1/2SM FG VV001 FM091600 30008KT P6SM BKN200=
201308081739 TAF KCLM 081739Z 0818/0918 30008KT P6SM BKN200 FM091200 30008KT
                       1/2SM FG VV001 FM091600 30008KT P6SM SCT010
                       BKN200=
201308081635 TAF AMD KCLM 081635Z 0817/0912 30007KT P6SM BKN004 BKN200 FM081900
                       32007KT P6SM FEW030 BKN200 FM090200 29012KT
                       P6SM BKN200=
201308081121 TAF KCLM 081121Z 0812/0912 28008KT P6SM FEW001
                      TEMPO 0812/0816 1/4SM FG VV001 FM081600 30007KT
                       P6SM BKN010 BKN200 FM081900 32007KT P6SM
                       FEW030 BKN200 FM090200 29012KT P6SM BKN200=
201308081003 TAF AMD KCLM 081003Z 0810/0906 28009KT P6SM SKC
                      TEMPO 0810/0812 1/2SM FG VV001 FM081200 28006KT
                       2SM BR BKN002 BKN200
                      TEMPO 0812/0816 1/4SM FG VV001 FM081600 30007KT
                       P6SM BKN010 BKN200 FM081900 32007KT P6SM
                       FEW030 BKN200 FM090200 29012KT P6SM BKN200=
201308080522 TAF KCLM 080522Z 0806/0906 28008KT P6SM VCFG SKC
                      TEMPO 0806/0810 2SM BR BKN002 FM081000 28006KT
                       2SM BR BKN002 BKN200
                      TEMPO 0812/0816 1/4SM FG VV001 FM081600 30007KT
                       P6SM BKN010 BKN200 FM081900 32007KT P6SM
                       FEW030 BKN200 FM090200 29012KT P6SM BKN200=
201308072320 TAF KCLM 072320Z 0800/0824 30008KT P6SM SCT250 FM080600 30012KT
                       P6SM VCFG SCT002 SCT200
                      TEMPO 0806/0810 2SM BR BKN002 FM081000 28008KT
                       2SM BR BKN002 BKN200
                      TEMPO 0812/0816 1/4SM FG VV001 FM081600 27007KT
                       P6SM BKN010 BKN200 FM081900 27007KT P6SM
                       SCT030 BKN200=
201308071720 TAF KCLM 071720Z 0718/0818 32007KT P6SM VCFG SCT250 FM080200 30012KT
                       P6SM VCFG SCT002 SCT200
                      TEMPO 0804/0807 2SM BR BKN002 FM080700 28008KT
                       2SM BR BKN002 BKN200
                      TEMPO 0812/0816 1/4SM FG VV001 FM081700 27007KT
                       P6SM BKN010 BKN120 BKN200=
201308071127 TAF KCLM 071127Z 0712/0812 29006KT 2SM BR VV002
                      TEMPO 0712/0715 1/2SM FG VV001 FM071600 32006KT
                       P6SM VCFG SKC FM071800 32012KT P6SM SKC
                       FM080100 29012KT P6SM VCFG SKC FM080500
                       29008KT 3SM BR VV002=
201308070904 TAF AMD KCLM 070904Z 0709/0806 29005KT 3SM BR VV002
                      TEMPO 0709/0713 1/2SM FG VV001 FM071600 32005KT
                       P6SM VCFG SKC FM071800 32009KT P6SM SKC
                       FM080100 29009KT P6SM VCFG SKC=
201308070833 TAF AMD KCLM 070833Z 0709/0806 29005KT 3SM BR VV002
                      TEMPO 0711/0715 1/2SM FG VV001 FM071600 32005KT
                       P6SM VCFG SKC FM071800 32009KT P6SM SKC
                       FM080100 29009KT P6SM VCFG SKC=
201308070553 TAF AMD KCLM 070553Z 0706/0806 31005KT 2SM BR VV002
                      TEMPO 0706/0708 3/4SM BR VV001 FM070800 28005KT
                       3/4SM BR VV001
                      TEMPO 0710/0714 1/2SM FG FM071600 32005KT
                       P6SM VCFG SKC FM071800 32009KT P6SM SKC
                       FM080100 29009KT P6SM VCFG SKC=
201308070528 TAF KCLM 070528Z 0706/0806 28005KT P6SM VCFG FEW002
                      TEMPO 0706/0708 2SM BR BKN002 FM070800 28005KT
                       3/4SM BR VV002 FM071600 32005KT P6SM VCFG
                       SKC FM071800 32009KT P6SM SKC FM080100 29009KT
                       P6SM VCFG SKC=
201308070305 TAF AMD KCLM 070305Z 0703/0724 29007KT P6SM VCFG SKC FM070600 29007KT
                       P6SM VCFG SCT002
                      TEMPO 0706/0708 2SM BR BKN002 FM070800 27007KT
                       1SM BR OVC002 FM071700 30007KT P6SM VCFG
                       SCT002=
201308062320 TAF KCLM 062320Z 0700/0724 31010KT P6SM SKC FM070500 30008KT P6SM
                       VCFG SCT002
                      TEMPO 0705/0708 2SM BR BKN002 FM070800 27007KT
                       1SM BR OVC002 FM071700 30007KT P6SM VCFG
                       SCT002=
201308061723 TAF KCLM 061723Z 0618/0718 33006KT P6SM VCFG SCT003
                      TEMPO 0618/0620 3SM BR BKN003 FM070000 28010KT
                       P6SM SCT003 FM070600 28007KT 1SM BR OVC002=
201308061122 TAF KCLM 061122Z 0612/0712 VRB03KT 1SM BR VV002
                      TEMPO 0612/0615 1/2SM FG VV001 FM061600 35005KT
                       P6SM VCFG FEW004 FM061900 31009KT P6SM SKC
                       FM070200 28009KT P6SM SKC FM070600 28007KT
                       P6SM VCFG FEW002=
201308060901 TAF AMD KCLM 060901Z 0609/0706 VRB03KT 1SM BR VV002
                      TEMPO 0610/0614 1/4SM FG VV001 FM061600 35005KT
                       P6SM VCFG FEW004 FM061900 31009KT P6SM SKC
                       FM070200 28009KT P6SM SKC=
201308060718 TAF AMD KCLM 060718Z 0607/0706 28006KT 3SM BR OVC003
                      TEMPO 0607/0610 1/2SM FG VV001 FM061000 VRB03KT
                       1SM BR OVC002
                      TEMPO 0610/0614 1/4SM FG VV001 FM061600 35005KT
                       P6SM VCFG FEW004 FM061900 31009KT P6SM SKC
                       FM070200 28009KT P6SM SKC=
201308060531 TAF KCLM 060531Z 0606/0706 28006KT 6SM BR SCT003
                      TEMPO 0606/0610 2SM BR BKN003 FM061000 VRB03KT
                       2SM BR BKN002
                      TEMPO 0610/0614 1/4SM FG VV001 FM061600 35005KT
                       P6SM VCFG FEW004 FM061900 31009KT P6SM SKC
                       FM070200 28009KT P6SM SKC=
201308060442 TAF AMD KCLM 060442Z 0605/0624 VRB03KT P6SM VCFG SCT002 FM060600
                       30008KT 2SM BR BKN002
                      TEMPO 0606/0610 1/2SM FG VV002 FM061000 30006KT
                       1/4SM FG VV001 FM061700 33006KT 3SM BR SCT003=
201308052320 TAF KCLM 052320Z 0600/0624 30008KT P6SM SKC FM060200 30012KT P6SM
                       VCFG SCT002 FM060600 30008KT 2SM BR BKN002
                       TEMPO 0606/0610 1/2SM FG VV002 FM061000
                       30006KT 1/4SM FG VV001 FM061700 33006KT
                       3SM BR SCT003=
201308051724 TAF KCLM 051724Z 0518/0618 34004KT P6SM VCFG SCT002 FM052100 33006KT
                       P6SM SKC FM060200 30012KT P6SM VCFG SCT002
                       FM060600 30008KT 2SM BR BKN002
                      TEMPO 0612/0616 1/2SM FG VV002 FM061700 33006KT
                       P6SM SKC=
201308051611 TAF AMD KCLM 051611Z 0516/0612 34004KT P6SM VCFG SCT002
                      TEMPO 0516/0518 2SM BR BKN002 FM052000 33006KT
                       P6SM SKC FM060200 28010KT P6SM VCFG SCT002
                       FM060600 28008KT 1/2SM FG VV002=
201308051124 TAF KCLM 051124Z 0512/0612 29004KT 1/2SM FG VV001 FM051500 31004KT
                       2SM BR OVC003 FM051700 33006KT P6SM VCFG
                       BKN008 FM051800 33009KT P6SM SKC FM060100
                       29009KT P6SM SKC FM060900 27006KT P6SM VCFG
                       FEW002=
201308050907 TAF AMD KCLM 050907Z 0509/0606 28005KT 1SM BR VV002
                      TEMPO 0509/0513 1/4SM FG VV001 FM051700 29005KT
                       P6SM VCFG FEW007 FM051800 33009KT P6SM SKC
                       FM060100 29009KT P6SM SKC=
201308050753 TAF AMD KCLM 050753Z 0508/0606 28005KT 5SM BR FEW002
                      TEMPO 0508/0512 1/2SM FG VV001 FM051700 29005KT
                       P6SM VCFG FEW007 FM051800 33009KT P6SM SKC
                       FM060100 29009KT P6SM SKC=
201308050520 TAF KCLM 050520Z 0506/0606 29007KT P6SM VCFG SKC FM050900 26005KT
                       P6SM VCFG FEW002
                      TEMPO 0511/0515 1/2SM FG VV002 FM051700 29005KT
                       P6SM VCFG FEW007 FM051800 33009KT P6SM SKC
                       FM060100 29009KT P6SM SKC=
201308050330 TAF AMD KCLM 050330Z 0504/0524 28008KT P6SM SKC FM050600 28006KT
                       P6SM SCT001
                      TEMPO 0506/0509 4SM BR BKN002 FM050900 28005KT
                       1SM BR OVC002 FM051700 28008KT P6SM SKC=
201308050053 TAF KCLM 050053Z 0501/0524 30004KT P6SM SKC FM050600 28006KT P6SM
                       SCT001
                      TEMPO 0506/0509 4SM BR BKN002 FM050900 28005KT
                       1SM BR OVC002 FM051700 28008KT P6SM SKC=
201308041738 TAF KCLM 041738Z 0418/0518 34006KT P6SM SKC FM050000 29009KT P6SM
                       SKC FM050600 28006KT P6SM SCT001
                      TEMPO 0506/0509 4SM BR BKN002 FM050900 28005KT
                       1SM BR OVC002=
201308041623 TAF AMD KCLM 041623Z 0416/0512 00000KT P6SM VCFG SCT050 FM041900
                       33007KT P6SM SKC FM050000 29009KT P6SM SKC=
201308041326 TAF AMD KCLM 041326Z 0413/0512 28003KT 1/4SM FG VV001
                      TEMPO 0413/0416 2SM BR OVC002 FM041600 36005KT
                       P6SM VCFG BKN007 BKN050
                      TEMPO 0416/0418 4SM BR OVC005 FM041900 33007KT
                       P6SM SCT050 FM050000 29009KT P6SM SKC=
201308041136 TAF KCLM 041136Z 0412/0512 VRB03KT P6SM VCFG BKN002
                      TEMPO 0412/0416 1/2SM FG FM041700 36005KT
                       P6SM VCFG BKN007 BKN050 FM041900 33007KT
                       P6SM SCT050 FM050000 29009KT P6SM SKC=
201308041046 TAF AMD KCLM 041046Z 0411/0506 28005KT 6SM BR SCT003
                      TEMPO 0411/0415 1/2SM FG VV001 FM041800 35005KT
                       P6SM BKN011 BKN030 FM042000 32006KT P6SM
                       SCT022 BKN040 FM050100 28006KT P6SM SCT050=
201308040847 TAF AMD KCLM 040847Z 0409/0506 28005KT 2SM BR OVC004
                      TEMPO 0409/0413 1/2SM FG VV001 FM041800 35005KT
                       P6SM BKN011 BKN030 FM042000 32006KT P6SM
                       SCT022 BKN040 FM050100 28006KT P6SM SCT050=
201308040830 TAF AMD KCLM 040830Z 0409/0506 28005KT 4SM BR OVC004
                      TEMPO 0409/0413 3/4SM BR VV002 FM041800 35005KT
                       P6SM BKN011 BKN030 FM042000 32006KT P6SM
                       SCT022 BKN040 FM050100 28006KT P6SM SCT050=
201308040701 TAF AMD KCLM 040701Z 0407/0506 28005KT P6SM VCFG SCT004
                      TEMPO 0407/0409 BKN004 FM040900 28005KT 4SM
                       BR OVC004 FM041800 35005KT P6SM BKN011 BKN030
                       FM042000 32006KT P6SM SCT022 BKN040 FM050100
                       28006KT P6SM SCT050=
201308040532 TAF KCLM 040532Z 0406/0506 VRB03KT P6SM BKN035 FM040900 VRB03KT
                       P6SM OVC028 FM041200 VRB03KT P6SM OVC018
                       FM041800 36005KT P6SM BKN028 BKN050 FM042000
                       32006KT P6SM SCT035 BKN050 FM050100 28006KT
                       P6SM SCT050=
201308040303 TAF AMD KCLM 040303Z 0403/0424 28006KT P6SM SCT040
                      TEMPO 0403/0406 BKN040 FM040900 28003KT P6SM
                       BKN030
                      TEMPO 0412/0415 BKN015 FM041800 VRB04KT P6SM
                       SCT035=
201308040159 TAF AMD KCLM 040159Z 0402/0424 28007KT P6SM SCT040
                      TEMPO 0402/0404 BKN040 FM040900 28003KT P6SM
                       BKN030
                      TEMPO 0412/0415 BKN015 FM041800 VRB04KT P6SM
                       SCT035=
201308032344 TAF KCLM 032344Z 0400/0424 32006KT P6SM OVC045 FM040300 29004KT
                       P6SM BKN045 FM040900 28003KT P6SM BKN030
                       TEMPO 0412/0415 BKN015 FM041800 VRB04KT
                       P6SM SCT035=
201308031735 TAF KCLM 031735Z 0318/0418 34005KT P6SM BKN015 OVC035 FM032000
                       32006KT P6SM BKN035 OVC050 FM032100 32006KT
                       P6SM SCT050 SCT100 FM040600 28003KT P6SM
                       FEW011
                      TEMPO 0409/0412 BKN010=
201308031512 TAF AMD KCLM 031512Z 0315/0412 VRB03KT P6SM SCT010 OVC035 FM031800
                       35005KT P6SM SCT010 OVC035 FM032000 32006KT
                       P6SM BKN035 OVC050 FM032100 32006KT P6SM
                       SCT035 SCT050 BKN250 FM040100 28007KT P6SM
                       SCT050 SCT100 SCT250 FM040600 VRB03KT P6SM
                       FEW011
                      TEMPO 0409/0412 BKN011=
201308031127 TAF KCLM 031127Z 0312/0412 VRB03KT P6SM OVC012 FM031800 35005KT
                       P6SM BKN020 OVC050 FM032000 32006KT P6SM
                       BKN028 BKN050 BKN250 FM032100 32006KT P6SM
                       SCT035 SCT050 BKN250 FM040100 28007KT P6SM
                       SCT050 SCT100 SCT250 FM040600 VRB03KT P6SM
                       FEW011
                      TEMPO 0409/0412 BKN011=
201308030936 TAF AMD KCLM 030936Z 0310/0406 VRB03KT P6SM OVC015 FM031800 35005KT
                       P6SM BKN015 BKN050 FM032000 32007KT P6SM
                       FEW028 SCT050 BKN250 FM040100 28007KT P6SM
                       FEW100 SCT250=
201308030523 TAF KCLM 030523Z 0306/0406 VRB03KT P6SM FEW009 OVC015 FM030900
                       VRB03KT P6SM OVC009 FM031800 35005KT P6SM
                       BKN015 BKN050 FM032000 32007KT P6SM FEW028
                       SCT050 BKN250 FM040100 28007KT P6SM FEW100
                       SCT250=
201308022351 TAF KCLM 022351Z 0300/0324 32005KT P6SM VCSH OVC007 FM030200 31006KT
                       P6SM BKN015 OVC025 FM030900 28006KT P6SM
                       OVC015 FM031800 33004KT P6SM BKN025=
201308021751 TAF KCLM 021751Z 0218/0318 30005KT P6SM VCSH BKN010 OVC060 FM022200
                       34005KT P6SM VCSH SCT013 BKN035 OVC050 FM030600
                       28004KT P6SM OVC012=
201308021130 TAF KCLM 021130Z 0212/0312 27005KT P6SM VCSH OVC010 FM021900 34005KT
                       P6SM VCSH SCT013 BKN035 OVC050 FM030600
                       28004KT P6SM OVC012=
201308020900 TAF AMD KCLM 020900Z 0209/0306 28005KT P6SM OVC010
                      TEMPO 0212/0216 1SM BR VV002 FM021900 25005KT
                       P6SM BKN006 FM022200 25006KT P6SM SCT013=
201308020535 TAF KCLM 020535Z 0206/0306 28007KT P6SM OVC012 FM020900 29007KT
                       P6SM OVC004
                      TEMPO 0212/0216 1SM BR VV002 FM021900 25005KT
                       P6SM BKN006 FM022200 25006KT P6SM SCT013=
201308012320 TAF KCLM 012320Z 0200/0224 30008KT P6SM SCT012 FM020900 29007KT
                       P6SM OVC004
                      TEMPO 0212/0216 1SM BR VV002 FM021900 25005KT
                       P6SM BKN006 FM022200 25006KT P6SM SCT013=
201308011720 TAF KCLM 011720Z 0118/0218 29005KT P6SM FEW004 OVC007
                      TEMPO 0118/0120 OVC004 FM012000 29008KT P6SM
                       SCT007 OVC012
                      TEMPO 0120/0122 OVC007 FM020900 28007KT P6SM
                       OVC004
                      TEMPO 0212/0216 1SM BR VV002=
201308011130 TAF KCLM 011130Z 0112/0212 29006KT 2SM BR OVC002
                      TEMPO 0112/0113 1/2SM FG VV001 FM011500 29006KT
                       P6SM OVC007 FM011900 29010KT P6SM BKN010
                       BKN100 FM012000 29010KT P6SM SCT015 BKN080
                       BKN150 FM020900 28007KT P6SM OVC005=
201308010905 TAF AMD KCLM 010905Z 0109/0206 30013G20KT 2SM BR OVC002
                      TEMPO 0109/0113 1/2SM FG VV002 FM011500 29006KT
                       P6SM OVC007 FM011900 29010KT P6SM BKN005
                       BKN100 FM012000 29010KT P6SM BKN080 BKN150
                       FM020300 29008KT P6SM SCT100 BKN250=
201308010535 TAF KCLM 010535Z 0106/0206 29008KT P6SM OVC003
                      TEMPO 0110/0114 1/2SM FG VV002 FM011900 29010KT
                       P6SM BKN005 BKN100 FM012000 29010KT P6SM
                       BKN080 BKN150 FM020300 29008KT P6SM SCT100
                       BKN250=