##########################################################
# Query made at 02/16/2025 02:34:55 UTC
# Time interval: from 11/01/2013 00:00  to 11/30/2013 23:59  UTC
##########################################################

##########################################################
# KCLM, Port Angeles, William R. Fairchild International Airport (United States)
# WMO index: -----. WIGOS ID: Unknown
# Latitude 48-07-20N. Longitude 123-30-19W. Altitude 87 m.
##########################################################

###################################
#  METAR/SPECI from KCLM
###################################
201311302359 SPECI KCLM 302359Z AUTO 28003KT 3/4SM BR OVC002 08/07 A3021 RMK AO2 T00780072=
201311302353 METAR KCLM 302353Z AUTO 28004KT 2SM BR OVC002 08/07 A3021 RMK AO2 VIS 3/4V4 SLP231 T00780067 10083 20078 55007=
201311302253 METAR KCLM 302253Z AUTO 00000KT 10SM OVC002 08/07 A3020 RMK AO2 SLP229 T00830072=
201311302153 METAR KCLM 302153Z AUTO 31004KT 10SM OVC003 08/07 A3022 RMK AO2 SLP235 T00830072=
201311302053 METAR KCLM 302053Z AUTO 29003KT 10SM OVC004 08/07 A3023 RMK AO2 SLP239 T00830072 58014=
201311301953 METAR KCLM 301953Z AUTO 30003KT 9SM OVC003 08/07 A3026 RMK AO2 SLP246 T00830072=
201311301853 METAR KCLM 301853Z AUTO 00000KT 10SM OVC004 08/07 A3026 RMK AO2 SLP249 T00830072=
201311301843 SPECI KCLM 301843Z AUTO 00000KT 10SM OVC003 08/07 A3026 RMK AO2 CIG 003V007 T00830072=
201311301753 METAR KCLM 301753Z AUTO 00000KT 9SM OVC006 08/07 A3027 RMK AO2 RAE28 CIG 003V008 SLP251 P0002 60004 T00830072 10083 20072 51001=
201311301739 SPECI KCLM 301739Z AUTO 00000KT 9SM BKN006 OVC009 08/07 A3027 RMK AO2 RAE28 CIG 003V008 P0002 T00780072=
201311301723 SPECI KCLM 301723Z AUTO 00000KT 7SM -RA FEW003 BKN010 OVC043 08/07 A3027 RMK AO2 P0002 T00780072=
201311301708 SPECI KCLM 301708Z AUTO 00000KT 4SM -RA BR SCT003 OVC043 08/07 A3027 RMK AO2 P0002 T00780072=
201311301653 METAR KCLM 301653Z AUTO 00000KT 4SM -RA BR BKN003 OVC043 08/07 A3027 RMK AO2 RAB10 SLP251 P0002 T00780072=
201311301628 SPECI KCLM 301628Z AUTO 00000KT 3SM -RA BR OVC003 07/07 A3027 RMK AO2 RAB10 P0001 T00720067=
201311301618 SPECI KCLM 301618Z AUTO 00000KT 1 3/4SM -RA BR BKN003 OVC045 07/07 A3027 RMK AO2 RAB10 P0001 T00720067=
201311301605 SPECI KCLM 301605Z AUTO 00000KT 4SM BR BKN003 OVC045 08/07 A3028 RMK AO2 T00780067=
201311301553 METAR KCLM 301553Z AUTO 00000KT 5SM BR SCT002 OVC045 07/07 A3027 RMK AO2 SLP252 T00720067=
201311301453 METAR KCLM 301453Z AUTO 13003KT 10SM BKN002 OVC045 07/06 A3027 RMK AO2 SLP250 60000 T00720061 56004=
201311301451 SPECI KCLM 301451Z AUTO 12003KT 10SM BKN003 OVC045 07/07 A3027 RMK AO2=
201311301439 SPECI KCLM 301439Z AUTO 00000KT 10SM SCT003 OVC045 07/06 A3027 RMK AO2 T00720061=
201311301353 METAR KCLM 301353Z AUTO 00000KT 8SM OVC043 07/07 A3027 RMK AO2 SLP250 T00720067=
201311301307 SPECI KCLM 301307Z AUTO 00000KT 10SM SCT013 OVC042 07/07 A3028 RMK AO2 T00720067=
201311301253 METAR KCLM 301253Z AUTO 12003KT 9SM BKN013 OVC042 07/06 A3028 RMK AO2 RAE03 SLP255 P0000 T00720061=
201311301153 METAR KCLM 301153Z AUTO 00000KT 9SM -RA OVC014 07/06 A3029 RMK AO2 RAB51 SLP259 P0000 60003 70006 T00720061 10083 20072 57001=
201311301053 METAR KCLM 301053Z AUTO 16004KT 10SM OVC012 08/07 A3029 RMK AO2 SLP260 T00780067=
201311300953 METAR KCLM 300953Z AUTO 14003KT 9SM OVC013 07/07 A3029 RMK AO2 RAE0856 SLP259 P0000 T00720067=
201311300853 METAR KCLM 300853Z AUTO 00000KT 8SM -RA OVC013 07/07 A3030 RMK AO2 RAB46 SLP260 P0000 60003 T00720067 50002=
201311300836 SPECI KCLM 300836Z AUTO 00000KT 10SM BKN013 OVC045 07/07 A3029 RMK AO2 T00720067=
201311300800 SPECI KCLM 300800Z AUTO 00000KT 10SM SCT014 OVC048 07/07 A3030 RMK AO2 T00720067=
201311300753 METAR KCLM 300753Z AUTO 00000KT 10SM BKN014 OVC048 08/07 A3030 RMK AO2 RAE08 SLP262 P0001 T00780067 401060044=
201311300653 METAR KCLM 300653Z AUTO 21003KT 10SM -RA OVC013 08/07 A3029 RMK AO2 SLP260 P0002 T00780067=
201311300616 SPECI KCLM 300616Z AUTO 00000KT 10SM -RA BKN011 OVC050 08/07 A3030 RMK AO2 P0001 T00780067=
201311300553 METAR KCLM 300553Z AUTO 00000KT 10SM -RA SCT011 OVC050 08/07 A3029 RMK AO2 RAE06B25 SLP257 P0001 60003 T00780067 10094 20078 52001=
201311300453 METAR KCLM 300453Z AUTO 12004KT 10SM -RA OVC012 08/07 A3028 RMK AO2 RAB0356E16B35 SLP256 P0002 T00830067=
201311300353 METAR KCLM 300353Z AUTO 00000KT 10SM OVC010 09/06 A3029 RMK AO2 SLP258 T00890061=
201311300326 SPECI KCLM 300326Z AUTO 00000KT 10SM OVC010 09/07 A3028 RMK AO2 CIG 009V013 T00890067=
201311300253 METAR KCLM 300253Z AUTO 00000KT 10SM OVC009 09/07 A3029 RMK AO2 SLP257 T00890067 53007=
201311300233 SPECI KCLM 300233Z AUTO 00000KT 10SM BKN012 OVC018 09/07 A3028 RMK AO2 T00890067=
201311300153 METAR KCLM 300153Z AUTO 24003KT 10SM OVC019 09/07 A3027 RMK AO2 SLP252 T00890067=
201311300053 METAR KCLM 300053Z AUTO 31003KT 10SM OVC018 08/07 A3027 RMK AO2 SLP250 T00830067=
201311292353 METAR KCLM 292353Z AUTO 31005KT 10SM OVC019 09/06 A3026 RMK AO2 SLP249 T00940061 10106 20094 50005=
201311292253 METAR KCLM 292253Z AUTO 31006KT 10SM OVC018 10/07 A3027 RMK AO2 SLP250 T01000067=
201311292153 METAR KCLM 292153Z AUTO 30008KT 10SM OVC021 10/07 A3027 RMK AO2 SLP250 T01000067=
201311292053 METAR KCLM 292053Z AUTO 31007KT 10SM BKN020 OVC080 10/07 A3025 RMK AO2 SLP244 T01000067 58000=
201311291953 METAR KCLM 291953Z AUTO 33003KT 10SM FEW012 BKN080 10/07 A3026 RMK AO2 SLP247 T01000072=
201311291918 SPECI KCLM 291918Z AUTO 27004KT 10SM SCT015 OVC080 10/07 A3027 RMK AO2 T01000067=
201311291907 SPECI KCLM 291907Z AUTO 28005KT 10SM BKN016 OVC080 10/07 A3027 RMK AO2 T01000067=
201311291853 METAR KCLM 291853Z AUTO VRB04KT 10SM FEW018 OVC080 10/07 A3027 RMK AO2 SLP251 T01000072=
201311291836 SPECI KCLM 291836Z AUTO 26004KT 10SM SCT022 OVC080 10/07 A3026 RMK AO2 T01000072=
201311291753 METAR KCLM 291753Z AUTO 26004KT 10SM OVC018 09/07 A3025 RMK AO2 SLP244 T00940072 10094 20078 53009=
201311291738 SPECI KCLM 291738Z AUTO 31003KT 10SM BKN020 OVC080 09/07 A3025 RMK AO2 T00940072=
201311291717 SPECI KCLM 291717Z AUTO 00000KT 10SM FEW017 OVC080 09/07 A3023 RMK AO2 T00940072=
201311291653 METAR KCLM 291653Z AUTO 21003KT 10SM OVC017 09/07 A3023 RMK AO2 SLP239 T00890072=
201311291631 SPECI KCLM 291631Z AUTO 22005KT 10SM SCT010 OVC015 08/07 A3024 RMK AO2 T00830067=
201311291553 METAR KCLM 291553Z AUTO 29005KT 10SM OVC008 08/07 A3023 RMK AO2 CIG 005V009 SLP238 T00830072=
201311291453 METAR KCLM 291453Z AUTO 27006KT 10SM OVC006 08/07 A3022 RMK AO2 SLP236 T00830072 53010=
201311291353 METAR KCLM 291353Z AUTO 28005KT 10SM BKN007 OVC011 08/07 A3021 RMK AO2 CIG 006V010 SLP231 T00830072=
201311291253 METAR KCLM 291253Z AUTO 28005KT 10SM OVC005 08/07 A3020 RMK AO2 SLP228 T00830067=
201311291153 METAR KCLM 291153Z AUTO 24005KT 10SM OVC006 08/07 A3019 RMK AO2 SLP225 T00830067 10083 20044 50003=
201311291053 METAR KCLM 291053Z AUTO 23004KT 10SM OVC009 07/06 A3019 RMK AO2 CIG 007V011 SLP226 T00670056=
201311291037 SPECI KCLM 291037Z AUTO 25004KT 10SM BKN009 06/04 A3019 RMK AO2 CIG 008V012 T00610044=
201311290953 METAR KCLM 290953Z AUTO 21003KT 10SM BKN055 06/04 A3018 RMK AO2 SLP223 T00610044=
201311290853 METAR KCLM 290853Z AUTO 23003KT 10SM OVC055 08/06 A3018 RMK AO2 SLP222 T00780056 51013=
201311290753 METAR KCLM 290753Z AUTO 00000KT 10SM FEW055 OVC080 07/05 A3017 RMK AO2 SLP217 T00670050 401110000=
201311290653 METAR KCLM 290653Z AUTO 00000KT 10SM BKN050 OVC080 07/06 A3016 RMK AO2 SLP215 T00720061=
201311290553 METAR KCLM 290553Z AUTO 00000KT 10SM OVC050 07/06 A3015 RMK AO2 SLP210 60000 T00670056 10078 20044 51008=
201311290453 METAR KCLM 290453Z AUTO 00000KT 10SM BKN070 OVC080 07/06 A3014 RMK AO2 RAE0357 SLP207 P0000 T00670056=
201311290353 METAR KCLM 290353Z AUTO 00000KT 9SM -RA BKN055 OVC070 07/06 A3013 RMK AO2 RAB0255E07B43 SLP206 P0000 T00720061=
201311290253 METAR KCLM 290253Z AUTO 14004KT 10SM SCT055 OVC080 07/05 A3012 RMK AO2 SLP202 T00670050 51006=
201311290153 METAR KCLM 290153Z AUTO 00000KT 10SM FEW065 BKN080 05/04 A3012 RMK AO2 SLP203 T00500044=
201311290053 METAR KCLM 290053Z AUTO 15003KT 8SM CLR 06/04 A3011 RMK AO2 SLP200 T00560044=
201311282353 METAR KCLM 282353Z AUTO 00000KT 10SM CLR 08/06 A3010 RMK AO2 SLP195 T00780061 10111 20072 53002=
201311282253 METAR KCLM 282253Z AUTO 00000KT 10SM CLR 10/06 A3009 RMK AO2 SLP191 T01000061=
201311282153 METAR KCLM 282153Z AUTO 35004KT 10SM OVC075 09/06 A3010 RMK AO2 SLP193 T00940056=
201311282053 METAR KCLM 282053Z AUTO 00000KT 10SM CLR 11/06 A3010 RMK AO2 SLP193 T01110061 51006=
201311281953 METAR KCLM 281953Z AUTO 01005KT 10SM BKN070 09/06 A3009 RMK AO2 SLP192 T00940061=
201311281853 METAR KCLM 281853Z AUTO 03004KT 10SM BKN060 10/06 A3010 RMK AO2 SLP193 T01000056=
201311281753 METAR KCLM 281753Z AUTO 22003KT 10SM CLR 07/05 A3008 RMK AO2 SLP187 I6001 T00670050 10067 20000 50005=
201311281653 METAR KCLM 281653Z AUTO 00000KT 10SM FEW004 03/03 A3009 RMK AO2 SLP191 T00330028=
201311281639 SPECI KCLM 281639Z AUTO 21004KT 10SM SCT003 03/02 A3009 RMK AO2 T00280022=
201311281553 METAR KCLM 281553Z AUTO 25003KT 10SM CLR 01/00 A3007 RMK AO2 SLP185 T00110000=
201311281453 METAR KCLM 281453Z AUTO 25004KT 10SM CLR 02/01 A3006 RMK AO2 SLP184 I1001 I3001 T00220011 53007=
201311281353 METAR KCLM 281353Z AUTO 00000KT 10SM CLR 01/M01 A3006 RMK AO2 SLP181 T00061006=
201311281253 METAR KCLM 281253Z AUTO 00000KT 10SM CLR 01/M01 A3005 RMK AO2 SLP177 T00061006=
201311281153 METAR KCLM 281153Z AUTO 00000KT 10SM CLR 02/01 A3004 RMK AO2 SLP175 T00220011 10033 20006 53005=
201311281053 METAR KCLM 281053Z AUTO 00000KT 10SM CLR 02/01 A3004 RMK AO2 SLP174 T00170011=
201311280953 METAR KCLM 280953Z AUTO 16004KT 10SM CLR 01/00 A3003 RMK AO2 SLP172 T00060000=
201311280853 METAR KCLM 280853Z AUTO 00000KT 10SM CLR 02/01 A3003 RMK AO2 SLP170 T00170006 50007=
201311280753 METAR KCLM 280753Z AUTO 00000KT 10SM CLR 02/01 A3003 RMK AO2 SLP172 T00220011 401060006=
201311280653 METAR KCLM 280653Z AUTO 00000KT 10SM CLR 03/02 A3003 RMK AO2 SLP169 T00330022=
201311280553 METAR KCLM 280553Z AUTO 22004KT 10SM CLR 03/02 A3001 RMK AO2 SLP164 T00280017 10089 20022 53003=
201311280453 METAR KCLM 280453Z AUTO 00000KT 10SM FEW120 04/03 A3000 RMK AO2 SLP162 T00390028=
201311280353 METAR KCLM 280353Z AUTO 20003KT 10SM CLR 03/02 A3000 RMK AO2 SLP161 T00280017=
201311280253 METAR KCLM 280253Z AUTO 00000KT 10SM CLR 03/02 A3000 RMK AO2 SLP161 T00280017 53004=
201311280153 METAR KCLM 280153Z AUTO 00000KT 10SM CLR 03/02 A3000 RMK AO2 SLP160 T00330022=
201311280053 METAR KCLM 280053Z AUTO 21003KT 10SM CLR 06/03 A2999 RMK AO2 SLP157 T00610028=
201311272353 METAR KCLM 272353Z AUTO 00000KT 10SM CLR 08/03 A2999 RMK AO2 SLP156 T00830028 10106 20083 56005=
201311272253 METAR KCLM 272253Z AUTO 13004KT 10SM CLR 09/04 A2999 RMK AO2 SLP157 T00890039=
201311272153 METAR KCLM 272153Z AUTO 08004KT 10SM BKN110 09/03 A2999 RMK AO2 SLP159 T00940033=
201311272053 METAR KCLM 272053Z AUTO 07004KT 10SM BKN120 10/04 A3000 RMK AO2 SLP161 T01000044 56015=
201311271953 METAR KCLM 271953Z AUTO VRB03KT 10SM BKN120 10/04 A3001 RMK AO2 SLP164 T01000039=
201311271853 METAR KCLM 271853Z AUTO 08003KT 10SM BKN095 BKN120 09/03 A3003 RMK AO2 SLP171 T00940033=
201311271753 METAR KCLM 271753Z AUTO 14004KT 10SM BKN100 09/04 A3004 RMK AO2 SLP176 T00890044 10089 20028 56003=
201311271653 METAR KCLM 271653Z AUTO 15004KT 7SM FEW065 05/04 A3004 RMK AO2 SLP176 T00500039=
201311271553 METAR KCLM 271553Z AUTO 00000KT 10SM SCT070 OVC100 04/04 A3005 RMK AO2 SLP178 T00440039=
201311271453 METAR KCLM 271453Z AUTO 25004KT 10SM SCT065 OVC095 05/04 A3005 RMK AO2 SLP178 T00500039 56004=
201311271353 METAR KCLM 271353Z AUTO 00000KT 9SM OVC080 04/04 A3006 RMK AO2 SLP179 T00440039=
201311271253 METAR KCLM 271253Z AUTO 16003KT 7SM SCT016 OVC080 04/03 A3006 RMK AO2 SLP181 T00390028=
201311271153 METAR KCLM 271153Z AUTO 00000KT 9SM OVC090 03/02 A3006 RMK AO2 RAE1057 SLP183 P0000 60000 T00330022 10039 20006 58008=
201311271053 METAR KCLM 271053Z AUTO 23005KT 10SM -RA FEW060 OVC080 04/02 A3008 RMK AO2 RAB22 SLP189 P0000 T00390022=
201311270953 METAR KCLM 270953Z AUTO 20003KT 10SM BKN075 OVC085 03/02 A3009 RMK AO2 SLP191 T00280017=
201311270853 METAR KCLM 270853Z AUTO 00000KT 6SM BR BKN065 OVC085 01/01 A3009 RMK AO2 SLP192 T00110006 58008=
201311270753 METAR KCLM 270753Z AUTO 20003KT 7SM FEW080 02/00 A3010 RMK AO2 SLP194 T00170000 400611022=
201311270653 METAR KCLM 270653Z AUTO 18004KT 7SM CLR 02/01 A3011 RMK AO2 SLP197 T00170006=
201311270553 METAR KCLM 270553Z AUTO 00000KT 9SM CLR 02/01 A3011 RMK AO2 SLP200 T00220011 10061 20022 50000=
201311270453 METAR KCLM 270453Z AUTO 25003KT 10SM OVC070 03/02 A3012 RMK AO2 SLP202 T00330022=
201311270353 METAR KCLM 270353Z AUTO 22005KT 10SM BKN060 04/02 A3011 RMK AO2 SLP199 T00390022=
201311270253 METAR KCLM 270253Z AUTO 00000KT 10SM BKN060 04/03 A3011 RMK AO2 SLP200 T00440028 58003=
201311270153 METAR KCLM 270153Z AUTO 19003KT 10SM BKN065 BKN075 OVC090 05/03 A3012 RMK AO2 SLP203 T00500033=
201311270053 METAR KCLM 270053Z AUTO 00000KT 10SM OVC060 06/03 A3012 RMK AO2 SLP203 T00560033=
201311262353 METAR KCLM 262353Z AUTO 00000KT 10SM BKN070 OVC100 06/03 A3012 RMK AO2 SLP203 T00610028 10061 20044 58004=
201311262317 SPECI KCLM 262317Z AUTO 00000KT 10SM FEW008 OVC070 06/03 A3013 RMK AO2 T00610033=
201311262253 METAR KCLM 262253Z AUTO 00000KT 10SM BKN008 OVC070 06/03 A3013 RMK AO2 SLP207 T00610033=
201311262249 SPECI KCLM 262249Z AUTO 00000KT 10SM BKN008 OVC070 06/03 A3014 RMK AO2=
201311262205 SPECI KCLM 262205Z AUTO 12005KT 10SM FEW006 BKN080 OVC100 06/04 A3013 RMK AO2 T00560039=
201311262153 METAR KCLM 262153Z AUTO 10003KT 10SM BKN006 OVC095 06/04 A3013 RMK AO2 SLP207 T00560039=
201311262053 METAR KCLM 262053Z AUTO 08003KT 10SM OVC006 06/04 A3016 RMK AO2 SLP215 T00560039 58010=
201311261953 METAR KCLM 261953Z AUTO 00000KT 10SM OVC006 06/04 A3017 RMK AO2 SLP220 T00560039=
201311261853 METAR KCLM 261853Z AUTO 00000KT 10SM OVC005 06/04 A3019 RMK AO2 SLP226 T00560039=
201311261753 METAR KCLM 261753Z AUTO 13003KT 5SM BR OVC005 04/03 A3019 RMK AO2 SLP225 I6000 T00440033 10044 21022 50000 $=
201311261716 SPECI KCLM 261716Z AUTO 3SM BR OVC005 03/03 A3019 RMK AO2 T00330028 TSNO $=
201311261706 SPECI KCLM 261706Z AUTO 1 1/4SM BR OVC005 03/03 A3019 RMK AO2 T00280028 TSNO $=
201311261702 SPECI KCLM 261702Z AUTO 3/4SM BR OVC003 03/03 A3018 RMK AO2 T00280028 TSNO $=
201311261653 METAR KCLM 261653Z AUTO 1/4SM FG VV003 02/02 A3019 RMK AO2 SLP226 T00220022 TSNO $=
201311261646 SPECI KCLM 261646Z AUTO M1/4SM FG VV003 02/02 A3019 RMK AO2 T00220017 TSNO $=
201311261609 SPECI KCLM 261609Z AUTO 1/4SM FG VV001 01/01 A3020 RMK AO2 T00110006 TSNO $=
201311261600 SPECI KCLM 261600Z AUTO 3/4SM BR VV001 01/01 A3019 RMK AO2 T00110006 TSNO $=
201311261553 METAR KCLM 261553Z AUTO 1 1/4SM BR OVC002 01/00 A3019 RMK AO2 SLP227 I1000 T00110000 TSNO $=
201311261453 METAR KCLM 261453Z AUTO 10SM OVC003 00/M01 A3019 RMK AO2 SLP225 I3000 T00001006 58005 TSNO $=
201311261428 SPECI KCLM 261428Z AUTO 10SM BKN003 M01/M02 A3019 RMK AO2 T10111017 TSNO $=
201311261419 SPECI KCLM 261419Z AUTO 10SM SCT003 M02/M03 A3019 RMK AO2 T10171028 TSNO $=
201311261353 METAR KCLM 261353Z AUTO 10SM CLR M02/M03 A3019 RMK AO2 SLP228 I1000 T10171028 TSNO $=
201311261308 SPECI KCLM 261308Z AUTO 4SM BR SCT002 M01/M02 A3020 RMK AO2 T10111017 TSNO $=
201311261306 SPECI KCLM 261306Z AUTO 2SM BR BKN002 M01/M02 A3020 RMK AO2 VIS 1/2V5 T10111017 TSNO $=
201311261300 SPECI KCLM 261300Z AUTO 1/2SM FG VV002 00/M01 A3021 RMK AO2 T00001011 TSNO $=
201311261253 METAR KCLM 261253Z AUTO 1/4SM FZFG VV001 M01/M02 A3020 RMK AO2 SLP231 I1000 T10111017 TSNO $=
201311261245 SPECI KCLM 261245Z AUTO 1/4SM FZFG VV002 M01/M02 A3021 RMK AO2 T10111017 TSNO $=
201311261239 SPECI KCLM 261239Z AUTO 1 3/4SM BR BKN003 M01/M02 A3021 RMK AO2 T10111017 TSNO $=
201311261153 METAR KCLM 261153Z AUTO 10SM OVC004 01/M01 A3021 RMK AO2 SLP232 I1000 I6000 T00061006 10017 21022 56009 TSNO $=
201311261150 SPECI KCLM 261150Z AUTO 10SM OVC004 00/M01 A3021 RMK AO2 I1000 TSNO $=
201311261137 SPECI KCLM 261137Z AUTO 10SM BKN005 M01/M02 A3021 RMK AO2 I1000 T10061017 TSNO $=
201311261129 SPECI KCLM 261129Z AUTO 10SM SCT005 M01/M02 A3021 RMK AO2 I1000 T10111017 TSNO $=
201311261053 METAR KCLM 261053Z AUTO 21003KT 10SM CLR M02/M02 A3023 RMK AO2 SLP239 I1000 T10171022 TSNO=
201311260953 METAR KCLM 260953Z AUTO 00000KT 10SM CLR M01/M01 A3024 RMK AO2 SLP241 I1000 T10061011 TSNO=
201311260853 METAR KCLM 260853Z AUTO 00000KT 10SM CLR M01/M01 A3025 RMK AO2 SLP247 I1000 I3000 T10061011 58010 TSNO=
201311260753 METAR KCLM 260753Z AUTO 00000KT 10SM CLR M01/M02 A3027 RMK AO2 SLP253 T10111017 400941011 TSNO=
201311260653 METAR KCLM 260653Z AUTO 23004KT 10SM CLR 01/00 A3028 RMK AO2 SLP255 T00110000 TSNO=
201311260553 METAR KCLM 260553Z AUTO 23005KT 7SM CLR 01/M01 A3028 RMK AO2 SLP257 T00061006 10067 20000 56001 TSNO=
201311260453 METAR KCLM 260453Z AUTO 23004KT 10SM CLR 01/M01 A3028 RMK AO2 SLP258 T00061006 TSNO=
201311260353 METAR KCLM 260353Z AUTO 00000KT 10SM CLR 01/00 A3028 RMK AO2 SLP256 T00060000 TSNO=
201311260253 METAR KCLM 260253Z AUTO 17003KT 10SM CLR 02/01 A3028 RMK AO2 SLP258 T00170006 58004 TSNO=
201311260153 METAR KCLM 260153Z AUTO 22005KT 10SM CLR 02/01 A3029 RMK AO2 SLP259 T00220011 TSNO=
201311260053 METAR KCLM 260053Z AUTO 23004KT 10SM CLR 03/02 A3030 RMK AO2 SLP262 T00330017 TSNO=
201311252353 METAR KCLM 252353Z AUTO 00000KT 10SM CLR 07/03 A3029 RMK AO2 SLP262 T00670028 10094 20056 56002 TSNO=
201311252253 METAR KCLM 252253Z AUTO 00000KT 10SM CLR 08/03 A3030 RMK AO2 SLP261 T00830028 TSNO=
201311252153 METAR KCLM 252153Z AUTO 00000KT 10SM CLR 09/03 A3030 RMK AO2 SLP261 T00890028 TSNO=
201311252053 METAR KCLM 252053Z AUTO 00000KT 10SM CLR 07/04 A3030 RMK AO2 SLP263 T00720044 50000 TSNO=
201311252033 SPECI KCLM 252033Z AUTO 00000KT 10SM FEW007 07/04 A3031 RMK AO2 T00670044 TSNO=
201311251953 METAR KCLM 251953Z AUTO 00000KT 10SM OVC007 06/04 A3031 RMK AO2 SLP266 T00610039 TSNO=
201311251853 METAR KCLM 251853Z AUTO 00000KT 10SM OVC007 06/04 A3031 RMK AO2 SLP267 T00610044 TSNO=
201311251753 METAR KCLM 251753Z AUTO 00000KT 10SM OVC005 06/04 A3030 RMK AO2 SLP264 I6002 T00560044 10056 21011 51011 TSNO=
201311251653 METAR KCLM 251653Z AUTO 23006KT 10SM OVC006 04/03 A3029 RMK AO2 SLP261 T00390028 TSNO=
201311251553 METAR KCLM 251553Z AUTO 00000KT 7SM OVC007 04/03 A3028 RMK AO2 SLP256 T00390033 TSNO=
201311251453 METAR KCLM 251453Z AUTO 23006KT 7SM OVC007 03/03 A3027 RMK AO2 SLP252 I3002 T00330028 53003 TSNO=
201311251353 METAR KCLM 251353Z AUTO 16004KT 6SM BR OVC006 03/02 A3026 RMK AO2 SLP248 I1001 T00280022 TSNO=
201311251253 METAR KCLM 251253Z AUTO 16003KT 8SM BKN006 00/M01 A3026 RMK AO2 SLP249 I1001 T00001011 TSNO=
201311251215 SPECI KCLM 251215Z AUTO 00000KT 10SM FEW005 00/M01 A3026 RMK AO2 I1001 T00001011 TSNO=
201311251153 METAR KCLM 251153Z AUTO 22003KT 10SM CLR 00/M01 A3026 RMK AO2 SLP249 I1000 I6003 T00001006 10017 21011 58001 TSNO=
201311251053 METAR KCLM 251053Z AUTO 00000KT 10SM CLR M01/M01 A3027 RMK AO2 SLP251 I1000 T10061011 TSNO=
201311250953 METAR KCLM 250953Z AUTO 00000KT 10SM CLR 01/00 A3026 RMK AO2 SLP249 I1001 T00060000 TSNO=
201311250853 METAR KCLM 250853Z AUTO 23004KT 10SM CLR 01/00 A3026 RMK AO2 SLP249 I1001 I3002 T00060000 51009 TSNO=
201311250753 METAR KCLM 250753Z AUTO 22003KT 10SM CLR 01/M01 A3026 RMK AO2 SLP248 T00061006 400831017 TSNO=
201311250653 METAR KCLM 250653Z AUTO 00000KT 10SM CLR 01/00 A3025 RMK AO2 SLP244 I1001 T00110000 TSNO=
201311250553 METAR KCLM 250553Z AUTO 15005KT 9SM CLR 00/M01 A3023 RMK AO2 SLP241 I1000 I6000 T00001011 10061 21011 52004 TSNO=
201311250453 METAR KCLM 250453Z AUTO 00000KT 10SM CLR 00/M01 A3023 RMK AO2 SLP239 I1000 T00001011 TSNO=
201311250353 METAR KCLM 250353Z AUTO 21003KT 10SM CLR 00/M01 A3023 RMK AO2 SLP239 T00001011 TSNO=
201311250253 METAR KCLM 250253Z AUTO 20003KT 10SM CLR 01/00 A3022 RMK AO2 SLP237 T00110000 53004 TSNO=
201311250153 METAR KCLM 250153Z AUTO 19004KT 10SM CLR 01/M01 A3021 RMK AO2 SLP232 T00111006 TSNO=
201311250053 METAR KCLM 250053Z AUTO 00000KT 9SM CLR 04/03 A3021 RMK AO2 SLP232 T00390028 TSNO=
201311242353 METAR KCLM 242353Z AUTO 16004KT 10SM CLR 06/03 A3021 RMK AO2 SLP232 T00560033 10083 20056 53004 TSNO=
201311242253 METAR KCLM 242253Z AUTO 08004KT 10SM CLR 08/04 A3020 RMK AO2 SLP228 T00780039 TSNO=
201311242153 METAR KCLM 242153Z AUTO 08005KT 10SM CLR 08/04 A3019 RMK AO2 SLP225 T00780039 TSNO=
201311242053 METAR KCLM 242053Z AUTO 10007KT 10SM CLR 07/04 A3020 RMK AO2 SLP229 T00720039 58005 TSNO=
201311242016 SPECI KCLM 242016Z AUTO 08005KT 10SM SCT008 07/04 A3020 RMK AO2 T00720039 TSNO=
201311241953 METAR KCLM 241953Z AUTO 10007KT 10SM OVC008 07/04 A3020 RMK AO2 SLP230 T00670044 TSNO=
201311241853 METAR KCLM 241853Z AUTO 12006KT 10SM OVC008 07/04 A3021 RMK AO2 SLP233 T00670044 TSNO=
201311241753 METAR KCLM 241753Z AUTO 14006KT 10SM OVC007 06/04 A3021 RMK AO2 SLP234 T00560039 10056 20028 53006 TSNO=
201311241653 METAR KCLM 241653Z AUTO 10003KT 10SM OVC008 05/03 A3020 RMK AO2 SLP231 T00500033 TSNO=
201311241553 METAR KCLM 241553Z AUTO 12003KT 10SM OVC009 04/03 A3019 RMK AO2 SLP227 T00440028 TSNO=
201311241453 METAR KCLM 241453Z AUTO 16005KT 9SM OVC008 04/02 A3019 RMK AO2 SLP228 T00390022 53003 TSNO=
201311241353 METAR KCLM 241353Z AUTO 15004KT 10SM OVC008 03/02 A3018 RMK AO2 SLP224 T00330022 TSNO=
201311241336 SPECI KCLM 241336Z AUTO 14003KT 10SM OVC009 03/02 A3018 RMK AO2 T00330022 TSNO=
201311241253 METAR KCLM 241253Z AUTO 16006KT 10SM OVC011 04/03 A3019 RMK AO2 SLP224 T00440028 TSNO=
201311241153 METAR KCLM 241153Z AUTO 12005KT 10SM OVC011 03/02 A3018 RMK AO2 SLP223 I6000 T00280017 10028 21017 58009 TSNO=
201311241137 SPECI KCLM 241137Z AUTO 15004KT 10SM OVC010 02/01 A3019 RMK AO2 T00170011 TSNO=
201311241053 METAR KCLM 241053Z AUTO 14004KT 10SM BKN009 01/M01 A3020 RMK AO2 SLP229 I1000 T00061006 TSNO=
201311241048 SPECI KCLM 241048Z AUTO 13004KT 10SM BKN009 00/M01 A3020 RMK AO2 I1000 TSNO=
201311240953 METAR KCLM 240953Z AUTO 16003KT 10SM SCT008 M01/M02 A3021 RMK AO2 SLP234 I1000 T10111017 TSNO=
201311240941 SPECI KCLM 240941Z AUTO 16005KT 10SM SCT008 M02/M02 A3021 RMK AO2 I1000 T10171022 TSNO=
201311240853 METAR KCLM 240853Z AUTO 00000KT 10SM CLR M01/M02 A3020 RMK AO2 SLP230 I1000 I3000 T10111017 58010 TSNO=
201311240753 METAR KCLM 240753Z AUTO 19003KT 10SM CLR M01/M02 A3022 RMK AO2 SLP236 T10111017 400721033 TSNO=
201311240653 METAR KCLM 240653Z AUTO 20003KT 10SM CLR M01/M01 A3022 RMK AO2 SLP238 T10061011 TSNO=
201311240553 METAR KCLM 240553Z AUTO 00000KT 10SM CLR 00/M01 A3023 RMK AO2 SLP240 T00001011 10050 20000 55005 TSNO=
201311240453 METAR KCLM 240453Z AUTO 19003KT 10SM CLR 01/00 A3023 RMK AO2 SLP239 T00110000 TSNO=
201311240353 METAR KCLM 240353Z AUTO 11003KT 10SM CLR 01/M01 A3023 RMK AO2 SLP241 T00111006 TSNO=
201311240253 METAR KCLM 240253Z AUTO 22004KT 10SM CLR 01/00 A3025 RMK AO2 SLP245 T00110000 58006 TSNO=
201311240153 METAR KCLM 240153Z AUTO 22004KT 10SM CLR 02/00 A3026 RMK AO2 SLP250 T00170000 TSNO=
201311240053 METAR KCLM 240053Z AUTO 18003KT 10SM CLR 03/02 A3026 RMK AO2 SLP250 T00330017 TSNO=
201311232353 METAR KCLM 232353Z AUTO 13005KT 10SM CLR 05/02 A3026 RMK AO2 SLP251 T00500022 10072 20044 55019 TSNO=
201311232253 METAR KCLM 232253Z AUTO 10006KT 10SM CLR 07/02 A3026 RMK AO2 SLP250 T00670022 TSNO=
201311232153 METAR KCLM 232153Z AUTO 08005KT 10SM CLR 07/03 A3029 RMK AO2 SLP261 T00720028 TSNO $=
201311232053 METAR KCLM 232053Z AUTO 10006KT 10SM CLR 07/02 A3032 RMK AO2 SLP269 T00670022 58016 TSNO $=
201311231953 METAR KCLM 231953Z AUTO 09006KT 10SM CLR 07/02 A3033 RMK AO2 SLP273 T00670022 TSNO $=
201311231853 METAR KCLM 231853Z AUTO 09006KT 10SM CLR 06/02 A3036 RMK AO2 SLP283 T00610022 TSNO $=
201311231753 METAR KCLM 231753Z AUTO 08004KT 10SM CLR 04/02 A3037 RMK AO2 SLP286 I6000 T00440022 10044 21033 58008 TSNO $=
201311231653 METAR KCLM 231653Z AUTO 15005KT 10SM CLR 01/M01 A3038 RMK AO2 SLP289 T00061006 TSNO $=
201311231553 METAR KCLM 231553Z AUTO 00000KT 10SM CLR M01/M02 A3038 RMK AO2 SLP292 I1000 T10111022 TSNO $=
201311231453 METAR KCLM 231453Z AUTO 16004KT 10SM CLR M03/M04 A3039 RMK AO2 SLP296 I1000 I3000 T10281039 58010 TSNO=
201311231353 METAR KCLM 231353Z AUTO 20003KT 10SM CLR M03/M03 A3040 RMK AO2 SLP299 I1000 T10281033 TSNO=
201311231253 METAR KCLM 231253Z AUTO 22004KT 10SM FEW013 M01/M02 A3042 RMK AO2 SLP303 I1000 T10111022 TSNO=
201311231153 METAR KCLM 231153Z AUTO 00000KT 10SM CLR M01/M02 A3042 RMK AO2 SLP305 T10061022 10028 21022 57007 TSNO=
201311231053 METAR KCLM 231053Z AUTO 18003KT 10SM CLR M02/M03 A3043 RMK AO2 SLP307 T10171033 TSNO=
201311230953 METAR KCLM 230953Z AUTO 15003KT 10SM CLR M01/M02 A3044 RMK AO2 SLP311 T10111022 TSNO=
201311230853 METAR KCLM 230853Z AUTO 15005KT 10SM CLR 01/M02 A3044 RMK AO2 SLP313 T00061017 58014 TSNO=
201311230753 METAR KCLM 230753Z AUTO 13004KT 10SM CLR 03/M01 A3046 RMK AO2 SLP318 T00281006 400611044 TSNO=
201311230653 METAR KCLM 230653Z AUTO 13007KT 10SM CLR 02/M01 A3047 RMK AO2 SLP320 T00221006 TSNO=
201311230553 METAR KCLM 230553Z AUTO 13005KT 10SM CLR 01/M01 A3049 RMK AO2 SLP327 T00111011 10044 21011 56009 TSNO=
201311230453 METAR KCLM 230453Z AUTO 13005KT 10SM CLR 01/M01 A3049 RMK AO2 SLP328 T00111011 TSNO=
201311230353 METAR KCLM 230353Z AUTO 16004KT 10SM CLR M01/M02 A3050 RMK AO2 SLP333 T10061022 TSNO=
201311230253 METAR KCLM 230253Z AUTO 17004KT 10SM CLR M01/M02 A3051 RMK AO2 SLP337 T10061022 58008 TSNO=
201311230153 METAR KCLM 230153Z AUTO 16003KT 10SM CLR 01/M02 A3053 RMK AO2 SLP343 T00061022 TSNO=
201311230053 METAR KCLM 230053Z AUTO 14004KT 10SM CLR 03/M02 A3053 RMK AO2 SLP342 T00281022 TSNO=
201311222353 METAR KCLM 222353Z AUTO 11005KT 10SM CLR 04/M01 A3054 RMK AO2 SLP345 T00441011 10061 20044 56015 TSNO=
201311222253 METAR KCLM 222253Z AUTO 10007KT 10SM CLR 06/M01 A3055 RMK AO2 SLP348 T00561011 TSNO=
201311222153 METAR KCLM 222153Z AUTO 08007KT 10SM CLR 06/M01 A3057 RMK AO2 SLP355 T00561006 TSNO=
201311222053 METAR KCLM 222053Z AUTO 09006KT 10SM CLR 06/M01 A3058 RMK AO2 SLP359 T00611011 58018 TSNO=
201311221953 METAR KCLM 221953Z AUTO 11007KT 10SM CLR 06/00 A3061 RMK AO2 SLP367 T00560000 TSNO=
201311221853 METAR KCLM 221853Z AUTO 09007KT 10SM CLR 05/01 A3061 RMK AO2 SLP370 T00500006 TSNO=
201311221753 METAR KCLM 221753Z AUTO 10SM CLR 04/M01 A3064 RMK AO2 SLP377 I6000 T00441006 10050 21044 56002 TSNO $=
201311221653 METAR KCLM 221653Z AUTO 00000KT 10SM CLR 00/M02 A3064 RMK AO2 SLP380 T00001017 TSNO $=
201311221553 METAR KCLM 221553Z AUTO 15003KT 10SM CLR M03/M05 A3063 RMK AO2 SLP377 I1000 T10331050 TSNO $=
201311221453 METAR KCLM 221453Z AUTO 20003KT 10SM CLR M03/M05 A3064 RMK AO2 SLP380 I1000 I3000 T10331050 58003 TSNO $=
201311221353 METAR KCLM 221353Z AUTO 00000KT 10SM CLR M03/M04 A3064 RMK AO2 SLP380 I1000 T10331044 TSNO $=
201311221253 METAR KCLM 221253Z AUTO 00000KT 10SM CLR M03/M05 A3065 RMK AO2 SLP384 T10331050 TSNO=
201311221153 METAR KCLM 221153Z AUTO 16004KT 10SM CLR M02/M03 A3065 RMK AO2 SLP382 I1000 I6000 T10171033 10006 21039 56004 TSNO=
201311221053 METAR KCLM 221053Z AUTO 15004KT 10SM CLR M04/M05 A3066 RMK AO2 SLP385 T10391050 TSNO=
201311220953 METAR KCLM 220953Z AUTO 00000KT 10SM CLR M02/M04 A3065 RMK AO2 SLP383 T10221039 TSNO=
201311220853 METAR KCLM 220853Z AUTO 14003KT 10SM CLR M03/M05 A3066 RMK AO2 SLP386 T10331050 50000 TSNO=
201311220753 METAR KCLM 220753Z AUTO 15004KT 10SM CLR M02/M03 A3068 RMK AO2 SLP391 T10221033 400501044 TSNO=
201311220653 METAR KCLM 220653Z AUTO 15003KT 10SM CLR 00/M03 A3067 RMK AO2 SLP388 T00001033 TSNO=
201311220553 METAR KCLM 220553Z AUTO 16005KT 10SM CLR M03/M04 A3066 RMK AO2 SLP386 T10331044 10033 21039 51004 TSNO=
201311220453 METAR KCLM 220453Z AUTO 00000KT 10SM CLR M03/M04 A3065 RMK AO2 SLP385 T10281044 TSNO=
201311220353 METAR KCLM 220353Z AUTO 22003KT 10SM CLR M02/M04 A3066 RMK AO2 SLP386 T10221044 TSNO=
201311220253 METAR KCLM 220253Z AUTO 23004KT 10SM CLR M02/M04 A3065 RMK AO2 SLP383 T10171039 50001 TSNO=
201311220153 METAR KCLM 220153Z AUTO 00000KT 10SM CLR M01/M03 A3068 RMK AO2 SLP394 T10111033 TSNO=
201311220053 METAR KCLM 220053Z AUTO 00000KT 10SM CLR 00/M03 A3067 RMK AO2 SLP389 T00001028 TSNO=
201311212353 METAR KCLM 212353Z AUTO 10006KT 10SM CLR 03/M02 A3065 RMK AO2 SLP381 T00331022 10050 20033 50000 TSNO=
201311212253 METAR KCLM 212253Z AUTO 10006KT 10SM CLR 04/M02 A3065 RMK AO2 SLP383 T00441022 TSNO $=
201311212153 METAR KCLM 212153Z AUTO 10008KT 10SM CLR 05/M02 A3064 RMK AO2 SLP380 T00501017 TSNO $=
201311212053 METAR KCLM 212053Z AUTO 09009KT 10SM CLR 05/M01 A3064 RMK AO2 SLP380 T00501011 58002 TSNO $=
201311211953 METAR KCLM 211953Z AUTO 10006KT 10SM CLR 05/M02 A3065 RMK AO2 SLP381 T00501017 TSNO $=
201311211853 METAR KCLM 211853Z AUTO 08007KT 10SM CLR 04/M01 A3065 RMK AO2 SLP383 T00441011 TSNO $=
201311211753 METAR KCLM 211753Z AUTO 00000KT 10SM CLR 03/M01 A3065 RMK AO2 SLP383 I6000 T00331011 10033 21044 53015 TSNO $=
201311211653 METAR KCLM 211653Z AUTO 23004KT 10SM CLR 00/M03 A3063 RMK AO2 SLP374 T00001028 TSNO $=
201311211553 METAR KCLM 211553Z AUTO 00000KT 10SM CLR M03/M04 A3063 RMK AO2 SLP375 I1000 T10331044 TSNO $=
201311211453 METAR KCLM 211453Z AUTO 10SM CLR M04/M06 A3061 RMK AO2 SLP369 T10391056 53014 TSNO $=
201311211353 METAR KCLM 211353Z AUTO 10SM CLR M04/M06 A3059 RMK AO2 SLP364 T10391056 TSNO $=
201311211253 METAR KCLM 211253Z AUTO 10SM FEW019 M03/M06 A3058 RMK AO2 SLP359 T10281056 TSNO $=
201311211153 METAR KCLM 211153Z AUTO 10SM CLR M03/M06 A3057 RMK AO2 SLP354 T10331061 11011 21039 53012 TSNO $=
201311211053 METAR KCLM 211053Z AUTO 10SM CLR M03/M06 A3055 RMK AO2 SLP348 T10281056 TSNO $=
201311210953 METAR KCLM 210953Z AUTO 10SM CLR M02/M06 A3054 RMK AO2 SLP344 T10171056 TSNO $=
201311210853 METAR KCLM 210853Z AUTO 10SM CLR M02/M06 A3053 RMK AO2 SLP342 T10171056 51013 TSNO $=
201311210753 METAR KCLM 210753Z AUTO 10SM CLR M02/M06 A3052 RMK AO2 SLP338 T10221056 400561039 TSNO $=
201311210653 METAR KCLM 210653Z AUTO 10SM CLR M02/M05 A3051 RMK AO2 SLP334 T10171050 TSNO $=
201311210553 METAR KCLM 210553Z AUTO 10SM CLR M03/M06 A3049 RMK AO2 SLP329 T10281056 10033 21033 51019 TSNO $=
201311210453 METAR KCLM 210453Z AUTO 10SM CLR M02/M05 A3047 RMK AO2 SLP322 T10171050 TSNO $=
201311210353 METAR KCLM 210353Z AUTO 10SM CLR M02/M04 A3046 RMK AO2 SLP318 T10171044 TSNO $=
201311210253 METAR KCLM 210253Z AUTO 23004KT 10SM CLR M02/M03 A3044 RMK AO2 SLP311 T10171033 51016 TSNO=
201311210153 METAR KCLM 210153Z AUTO 00000KT 10SM CLR M02/M03 A3042 RMK AO2 SLP306 T10171033 TSNO=
201311210053 METAR KCLM 210053Z AUTO 00000KT 10SM CLR M01/M03 A3041 RMK AO2 SLP301 T10061033 TSNO=
201311202353 METAR KCLM 202353Z AUTO 10004KT 10SM CLR 03/M05 A3039 RMK AO2 SLP294 T00331050 10056 20028 53008 TSNO=
201311202253 METAR KCLM 202253Z AUTO 08006KT 10SM CLR 05/M03 A3038 RMK AO2 SLP289 T00501028 TSNO=
201311202153 METAR KCLM 202153Z AUTO 10005KT 10SM CLR 05/M02 A3037 RMK AO2 SLP287 T00501022 TSNO=
201311202053 METAR KCLM 202053Z AUTO 04005KT 10SM CLR 05/M02 A3036 RMK AO2 SLP285 T00501022 51006 TSNO=
201311201953 METAR KCLM 201953Z AUTO 09005KT 10SM CLR 05/M02 A3035 RMK AO2 SLP282 T00501017 TSNO=
201311201853 METAR KCLM 201853Z AUTO 03003KT 10SM CLR 04/M02 A3036 RMK AO2 SLP284 T00441022 TSNO=
201311201753 METAR KCLM 201753Z AUTO 10SM CLR 03/M02 A3035 RMK AO2 SLP279 I6000 T00281022 10028 21028 53028 TSNO=
201311201653 METAR KCLM 201653Z AUTO 10SM CLR 00/M02 A3031 RMK AO2 SLP268 T00001022 TSNO $=
201311201553 METAR KCLM 201553Z AUTO 10SM CLR M02/M03 A3028 RMK AO2 SLP257 T10221033 TSNO $=
201311201453 METAR KCLM 201453Z AUTO 22004KT 10SM CLR M02/M04 A3026 RMK AO2 SLP251 I1000 I3000 T10171039 53021 TSNO=
201311201353 METAR KCLM 201353Z AUTO 23004KT 10SM CLR M01/M03 A3024 RMK AO2 SLP242 T10111028 TSNO=
201311201253 METAR KCLM 201253Z AUTO 00000KT 10SM FEW042 M02/M03 A3022 RMK AO2 SLP238 T10221033 TSNO=
201311201153 METAR KCLM 201153Z AUTO 00000KT 10SM FEW036 M01/M03 A3020 RMK AO2 SLP230 T10111028 10028 21022 51024 TSNO=
201311201053 METAR KCLM 201053Z AUTO 20003KT 10SM FEW037 FEW045 M01/M03 A3019 RMK AO2 SLP225 T10061028 TSNO=
201311200953 METAR KCLM 200953Z AUTO 24006KT 10SM BKN037 00/M03 A3016 RMK AO2 SLP215 T00001028 TSNO=
201311200853 METAR KCLM 200853Z AUTO 22003KT 10SM CLR M01/M03 A3013 RMK AO2 SLP204 T10111033 53033 TSNO=
201311200753 METAR KCLM 200753Z AUTO 19004KT 10SM CLR M01/M03 A3009 RMK AO2 SLP192 T10061028 400891006 TSNO=
201311200653 METAR KCLM 200653Z AUTO 19005KT 10SM SCT046 02/M02 A3006 RMK AO2 SLP180 T00221022 TSNO=
201311200553 METAR KCLM 200553Z AUTO 00000KT 10SM BKN050 OVC060 02/M01 A3003 RMK AO2 SLP171 T00171006 10067 20011 53034 TSNO=
201311200453 METAR KCLM 200453Z AUTO 00000KT 10SM BKN050 02/M01 A2999 RMK AO2 SLP156 T00171011 TSNO=
201311200353 METAR KCLM 200353Z AUTO 23005KT 10SM OVC065 03/M01 A2995 RMK AO2 SLP144 T00281006 TSNO=
201311200253 METAR KCLM 200253Z AUTO 25006KT 10SM SCT055 03/M02 A2993 RMK AO2 SLP137 T00331017 52015 TSNO=
201311200153 METAR KCLM 200153Z AUTO 28006KT 10SM BKN042 04/M02 A2992 RMK AO2 SLP133 T00391017 TSNO=
201311200053 METAR KCLM 200053Z AUTO 34005KT 10SM CLR 05/00 A2990 RMK AO2 SLP127 T00500000 TSNO=
201311192353 METAR KCLM 192353Z AUTO VRB03KT 10SM CLR 07/02 A2989 RMK AO2 SLP122 T00670017 10089 20067 53016 TSNO=
201311192253 METAR KCLM 192253Z AUTO 29008KT 10SM FEW060 08/01 A2987 RMK AO2 SLP115 T00780011 TSNO=
201311192153 METAR KCLM 192153Z AUTO VRB03KT 10SM CLR 08/M01 A2985 RMK AO2 SLP108 T00831006 TSNO=
201311192053 METAR KCLM 192053Z AUTO 33009KT 10SM CLR 09/01 A2984 RMK AO2 SLP106 T00890006 51010 TSNO=
201311191953 METAR KCLM 191953Z AUTO 30008KT 10SM CLR 09/01 A2984 RMK AO2 SLP104 T00890006 TSNO=
201311191853 METAR KCLM 191853Z AUTO 30008KT 10SM CLR 08/01 A2983 RMK AO2 SLP104 T00830006 TSNO=
201311191753 METAR KCLM 191753Z AUTO 29010KT 10SM CLR 07/01 A2981 RMK AO2 SLP096 60000 T00720006 10072 20056 51024 TSNO=
201311191653 METAR KCLM 191653Z AUTO 28006KT 10SM FEW039 SCT060 07/02 A2979 RMK AO2 SLP091 T00670017 TSNO=
201311191553 METAR KCLM 191553Z AUTO 29007KT 10SM OVC060 06/02 A2977 RMK AO2 SLP082 T00560017 TSNO=
201311191453 METAR KCLM 191453Z AUTO 30007KT 10SM FEW043 OVC050 06/03 A2974 RMK AO2 RAB14E29 SLP072 P0000 60000 T00610028 53036 TSNO=
201311191353 METAR KCLM 191353Z AUTO 31011KT 10SM BKN055 07/02 A2970 RMK AO2 SLP057 T00670022 TSNO=
201311191253 METAR KCLM 191253Z AUTO 31017G25KT 10SM CLR 07/02 A2966 RMK AO2 PK WND 30029/1212 SLP044 T00720022 TSNO=
201311191153 METAR KCLM 191153Z AUTO 30018G27KT 10SM OVC048 07/04 A2963 RMK AO2 PK WND 31031/1133 SLP036 60026 70063 T00720039 10078 20072 51012 TSNO=
201311191053 METAR KCLM 191053Z AUTO 29013G19KT 10SM OVC039 08/05 A2962 RMK AO2 SLP031 T00780050 TSNO=
201311191021 SPECI KCLM 191021Z AUTO 29009KT 10SM OVC030 07/05 A2962 RMK AO2 T00720050 TSNO=
201311190953 METAR KCLM 190953Z AUTO 29008KT 10SM FEW007 BKN018 OVC027 08/06 A2962 RMK AO2 RAE31 SLP030 P0001 T00780061 TSNO=
201311190944 SPECI KCLM 190944Z AUTO 29007KT 10SM SCT007 BKN018 OVC025 07/06 A2962 RMK AO2 RAE31 P0001 T00720061 TSNO=
201311190911 SPECI KCLM 190911Z AUTO 29005KT 4SM -RA BR BKN005 BKN013 OVC028 07/06 A2961 RMK AO2 P0000 T00720061 TSNO=
201311190858 SPECI KCLM 190858Z AUTO 00000KT 2 1/2SM -RA BR BKN007 OVC027 07/07 A2960 RMK AO2 P0000 T00720067 TSNO=
201311190853 METAR KCLM 190853Z AUTO 00000KT 3SM -RA BR SCT007 OVC027 07/07 A2960 RMK AO2 SLP024 P0006 60025 T00720067 51018 TSNO=
201311190842 SPECI KCLM 190842Z AUTO 00000KT 4SM -RA BR SCT007 OVC029 07/07 A2959 RMK AO2 P0005 T00720067 TSNO=
201311190806 SPECI KCLM 190806Z AUTO 00000KT 4SM -RA BR OVC005 07/07 A2959 RMK AO2 CIG 003V008 P0002 T00720067 TSNO=
201311190753 METAR KCLM 190753Z AUTO 22003KT 4SM -RA BR BKN003 OVC010 07/07 A2959 RMK AO2 CIG 002V006 SLP023 P0015 T00720067 400830056 TSNO=
201311190736 SPECI KCLM 190736Z AUTO VRB03KT 4SM -RA BR OVC003 07/06 A2959 RMK AO2 P0010 T00720061 TSNO=
201311190726 SPECI KCLM 190726Z AUTO 00000KT 2 1/2SM RA BR OVC003 07/07 A2958 RMK AO2 P0008 T00720067 TSNO=
201311190653 METAR KCLM 190653Z AUTO 00000KT 5SM -RA BR OVC003 07/06 A2956 RMK AO2 RAB09 SLP010 P0004 T00720061 TSNO=
201311190553 METAR KCLM 190553Z AUTO 00000KT 10SM OVC003 08/07 A2954 RMK AO2 RAE21 SLP005 P0002 60019 T00780067 10078 20072 55008 TSNO=
201311190453 METAR KCLM 190453Z AUTO 00000KT 10SM -RA OVC002 08/07 A2953 RMK AO2 RAE31B51 SLP002 P0001 T00780067 TSNO=
201311190353 METAR KCLM 190353Z AUTO 08004KT 10SM -RA OVC002 08/07 A2954 RMK AO2 SLP005 P0001 T00780067 TSNO=
201311190330 SPECI KCLM 190330Z AUTO VRB03KT 10SM -RA OVC002 08/07 A2955 RMK AO2 P0001 T00780067 TSNO=
201311190310 SPECI KCLM 190310Z AUTO 06005KT 6SM -RA BR BKN001 OVC005 08/07 A2956 RMK AO2 P0000 T00780067 TSNO=
201311190253 METAR KCLM 190253Z AUTO 08003KT 9SM -RA BKN003 OVC007 08/07 A2957 RMK AO2 CIG 001V006 SLP013 P0003 60015 T00780067 58018 TSNO=
201311190153 METAR KCLM 190153Z AUTO 13003KT 8SM -RA OVC007 07/06 A2959 RMK AO2 SLP020 P0006 T00720061 TSNO=
201311190053 METAR KCLM 190053Z AUTO 13003KT 8SM -RA OVC005 07/07 A2962 RMK AO2 CIG 003V009 SLP031 P0006 T00720067 TSNO=
201311190049 SPECI KCLM 190049Z AUTO 14004KT 7SM -RA OVC005 07/07 A2962 RMK AO2 CIG 003V008 P0006 TSNO=
201311182353 METAR KCLM 182353Z AUTO 11006KT 10SM -RA BKN004 BKN012 OVC055 07/07 A2964 RMK AO2 SLP040 P0009 60018 T00720067 10083 20072 58020 TSNO=
201311182311 SPECI KCLM 182311Z AUTO 09005KT 9SM -RA BKN004 BKN010 OVC014 07/07 A2967 RMK AO2 P0001 T00720067 TSNO=
201311182303 SPECI KCLM 182303Z AUTO 09005KT 8SM -RA BKN006 BKN010 OVC014 07/07 A2967 RMK AO2 CIG 003V006 P0001 T00720067 TSNO=
201311182253 METAR KCLM 182253Z AUTO 08004KT 10SM -RA BKN004 OVC008 07/07 A2968 RMK AO2 SLP051 P0005 T00720067 TSNO=
201311182251 SPECI KCLM 182251Z AUTO 09004KT 10SM -RA BKN004 OVC008 07/07 A2968 RMK AO2 P0004 TSNO=
201311182215 SPECI KCLM 182215Z AUTO 10005KT 10SM -RA BKN006 BKN014 OVC060 08/06 A2969 RMK AO2 P0002 T00780061 TSNO=
201311182209 SPECI KCLM 182209Z AUTO 10005KT 10SM -RA SCT006 SCT014 OVC060 08/06 A2970 RMK AO2 P0001 T00780061 TSNO=
201311182153 METAR KCLM 182153Z AUTO 10005KT 10SM -RA FEW006 BKN015 OVC055 08/06 A2970 RMK AO2 SLP060 P0004 T00780061 TSNO=
201311182123 SPECI KCLM 182123Z AUTO 09004KT 10SM -RA SCT008 OVC015 08/06 A2972 RMK AO2 P0002 T00780061 TSNO=
201311182053 METAR KCLM 182053Z AUTO 07004KT 10SM -RA BKN008 OVC060 08/06 A2974 RMK AO2 RAB1957E07B27 SLP072 P0000 60000 T00780061 56018 TSNO=
201311182049 SPECI KCLM 182049Z AUTO 07003KT 10SM -RA SCT008 OVC060 08/06 A2974 RMK AO2 RAB1957E07B27 P0000 TSNO=
201311181953 METAR KCLM 181953Z AUTO 08004KT 10SM OVC065 08/06 A2976 RMK AO2 SLP079 T00830061 TSNO=
201311181910 SPECI KCLM 181910Z AUTO 02003KT 10SM FEW005 OVC060 08/06 A2979 RMK AO2 T00780061 TSNO=
201311181853 METAR KCLM 181853Z AUTO 36003KT 10SM BKN005 OVC060 08/07 A2979 RMK AO2 SLP091 T00780067 TSNO=
201311181837 SPECI KCLM 181837Z AUTO 02003KT 10SM BKN005 OVC065 08/07 A2979 RMK AO2 T00780067 TSNO=
201311181753 METAR KCLM 181753Z AUTO 00000KT 10SM BKN003 OVC020 08/07 A2981 RMK AO2 SLP097 60000 T00780067 10078 20056 58008 TSNO=
201311181705 SPECI KCLM 181705Z AUTO 00000KT 10SM BKN003 OVC018 07/06 A2982 RMK AO2 T00720061 TSNO=
201311181653 METAR KCLM 181653Z AUTO 00000KT 10SM SCT003 OVC018 07/06 A2983 RMK AO2 RAE1557 SLP102 P0000 T00670061 TSNO=
201311181614 SPECI KCLM 181614Z AUTO 23005KT 10SM BKN016 BKN021 OVC065 06/06 A2983 RMK AO2 RAE1557 P0000 T00610056 TSNO=
201311181553 METAR KCLM 181553Z AUTO 00000KT 10SM -RA OVC065 06/05 A2983 RMK AO2 RAB40 SLP103 P0000 T00560050 TSNO=
201311181504 SPECI KCLM 181504Z AUTO 00000KT 10SM FEW007 BKN100 OVC120 07/05 A2984 RMK AO2 T00670050 TSNO=
201311181453 METAR KCLM 181453Z AUTO 00000KT 10SM SCT060 OVC100 06/05 A2984 RMK AO2 SLP105 T00610050 58008 TSNO=
201311181353 METAR KCLM 181353Z AUTO 12003KT 10SM OVC055 06/06 A2985 RMK AO2 SLP108 T00610056 TSNO=
201311181310 SPECI KCLM 181310Z AUTO 13003KT 10SM FEW010 SCT015 OVC065 06/06 A2985 RMK AO2 T00610056 TSNO=
201311181253 METAR KCLM 181253Z AUTO 00000KT 10SM SCT009 OVC014 07/06 A2985 RMK AO2 SLP111 T00670056 TSNO=
201311181246 SPECI KCLM 181246Z AUTO 13003KT 10SM FEW008 OVC014 07/06 A2986 RMK AO2 T00670056 TSNO=
201311181204 SPECI KCLM 181204Z AUTO 00000KT 10SM SCT006 OVC017 07/06 A2986 RMK AO2 T00670056 TSNO=
201311181153 METAR KCLM 181153Z AUTO 14004KT 10SM BKN006 OVC017 07/06 A2986 RMK AO2 SLP113 60000 70001 T00670056 10067 20056 58002 TSNO=
201311181124 SPECI KCLM 181124Z AUTO 15003KT 10SM BKN006 OVC026 07/06 A2987 RMK AO2 T00670056 TSNO=
201311181106 SPECI KCLM 181106Z AUTO 00000KT 10SM FEW007 OVC026 07/06 A2987 RMK AO2 T00670056 TSNO=
201311181053 METAR KCLM 181053Z AUTO 00000KT 10SM OVC026 07/06 A2988 RMK AO2 RAB32E43 SLP118 P0000 T00670056 TSNO=
201311180953 METAR KCLM 180953Z AUTO 24003KT 10SM BKN025 OVC040 07/06 A2987 RMK AO2 SLP116 T00670056 TSNO=
201311180933 SPECI KCLM 180933Z AUTO 26003KT 10SM BKN026 OVC060 07/05 A2987 RMK AO2 T00670050 TSNO=
201311180853 METAR KCLM 180853Z AUTO 23004KT 10SM OVC060 06/05 A2987 RMK AO2 SLP114 60000 T00610050 58001 TSNO=
201311180753 METAR KCLM 180753Z AUTO 00000KT 10SM OVC060 06/04 A2987 RMK AO2 RAB07E17 SLP118 P0000 T00560044 401060011 TSNO=
201311180653 METAR KCLM 180653Z AUTO 22004KT 10SM BKN032 BKN040 OVC060 06/05 A2987 RMK AO2 RAB0556E05B25E45 SLP117 P0000 T00610050 TSNO=
201311180553 METAR KCLM 180553Z AUTO 00000KT 10SM FEW034 OVC050 06/05 A2987 RMK AO2 RAB02E52 SLP116 P0000 60000 T00610050 10089 20056 53005 TSNO=
201311180453 METAR KCLM 180453Z AUTO 23004KT 10SM OVC060 06/05 A2986 RMK AO2 SLP112 T00610050 TSNO=
201311180353 METAR KCLM 180353Z AUTO 22003KT 10SM SCT039 SCT048 OVC065 07/05 A2985 RMK AO2 SLP111 T00670050 TSNO=
201311180253 METAR KCLM 180253Z AUTO 22003KT 10SM FEW038 OVC060 07/04 A2985 RMK AO2 SLP111 60000 T00670044 51013 TSNO=
201311180153 METAR KCLM 180153Z AUTO 14003KT 10SM FEW050 BKN060 06/04 A2985 RMK AO2 RAE0054 SLP108 P0000 T00560044 TSNO=
201311180053 METAR KCLM 180053Z AUTO 00000KT 10SM -RA FEW027 BKN036 OVC065 08/06 A2983 RMK AO2 RAB33 SLP105 P0000 T00780056 TSNO=
201311172353 METAR KCLM 172353Z AUTO 01003KT 10SM OVC070 09/05 A2982 RMK AO2 SLP098 60001 T00940050 10106 20078 53006 TSNO=
201311172253 METAR KCLM 172253Z AUTO 00000KT 10SM OVC065 10/05 A2981 RMK AO2 RAE2157 SLP094 P0000 T01000050 TSNO=
201311172153 METAR KCLM 172153Z AUTO 00000KT 10SM -RA BKN049 OVC065 09/06 A2980 RMK AO2 RAB35 SLP092 P0000 T00940061 TSNO=
201311172053 METAR KCLM 172053Z AUTO 00000KT 10SM FEW045 OVC055 10/06 A2980 RMK AO2 RAE43 SLP092 P0001 60001 T01000056 51002 TSNO=
201311171953 METAR KCLM 171953Z AUTO 00000KT 10SM -RA BKN043 OVC050 09/06 A2980 RMK AO2 RAB15 SLP092 P0000 T00940056 TSNO=
201311171853 METAR KCLM 171853Z AUTO 19003KT 10SM OVC055 09/04 A2980 RMK AO2 RAE04 SLP094 P0000 T00890044 TSNO=
201311171753 METAR KCLM 171753Z AUTO 27003KT 10SM -RA BKN055 OVC070 08/03 A2979 RMK AO2 RAB42 SLP089 P0000 60000 T00780033 10078 20011 53010 TSNO=
201311171653 METAR KCLM 171653Z AUTO 00000KT 10SM BKN060 OVC090 07/03 A2978 RMK AO2 SLP084 T00670028 TSNO=
201311171553 METAR KCLM 171553Z AUTO 22004KT 10SM SCT070 OVC085 06/02 A2976 RMK AO2 SLP078 T00560017 TSNO=
201311171453 METAR KCLM 171453Z AUTO 24005KT 10SM SCT065 OVC090 05/01 A2976 RMK AO2 SLP079 60000 T00500011 55004 TSNO=
201311171353 METAR KCLM 171353Z AUTO VRB03KT 10SM FEW048 OVC085 04/01 A2976 RMK AO2 RAB13E25 SLP078 P0000 T00390006 TSNO=
201311171253 METAR KCLM 171253Z AUTO 23006KT 10SM SCT085 02/00 A2977 RMK AO2 SLP081 T00220000 TSNO=
201311171153 METAR KCLM 171153Z AUTO 23003KT 10SM SCT065 OVC090 04/01 A2977 RMK AO2 SLP083 T00440006 10072 20039 51013 TSNO=
201311171053 METAR KCLM 171053Z AUTO 00000KT 10SM OVC100 06/00 A2977 RMK AO2 SLP082 T00610000 TSNO=
201311170953 METAR KCLM 170953Z AUTO 22009G19KT 10SM BKN110 06/01 A2975 RMK AO2 SLP076 T00560006 TSNO=
201311170853 METAR KCLM 170853Z AUTO 27014KT 10SM CLR 06/01 A2973 RMK AO2 SLP070 T00560006 53010 TSNO=
201311170753 METAR KCLM 170753Z AUTO 26011KT 10SM CLR 06/01 A2972 RMK AO2 SLP066 T00560006 400940044 TSNO=
201311170653 METAR KCLM 170653Z AUTO 25013KT 10SM SCT095 06/01 A2971 RMK AO2 SLP062 T00560006 TSNO=
201311170553 METAR KCLM 170553Z AUTO 25008KT 10SM FEW040 BKN070 OVC090 07/00 A2970 RMK AO2 SLP060 T00720000 10083 20056 53017 TSNO=
201311170453 METAR KCLM 170453Z AUTO 27010G18KT 10SM OVC100 08/M01 A2969 RMK AO2 SLP054 T00831011 TSNO=
201311170353 METAR KCLM 170353Z AUTO 29009KT 10SM SCT065 OVC100 08/M02 A2967 RMK AO2 SLP048 T00781017 TSNO=
201311170253 METAR KCLM 170253Z AUTO 30007KT 10SM OVC090 06/M02 A2965 RMK AO2 SLP043 T00611017 51017 TSNO=
201311170153 METAR KCLM 170153Z AUTO 30010KT 10SM CLR 06/M02 A2964 RMK AO2 SLP039 T00611017 TSNO=
201311170053 METAR KCLM 170053Z AUTO 30008KT 10SM FEW110 06/M02 A2963 RMK AO2 SLP033 T00611017 TSNO=
201311162353 METAR KCLM 162353Z AUTO 29012KT 10SM OVC120 08/M01 A2961 RMK AO2 SLP027 T00781006 10094 20078 53013 TSNO=
201311162253 METAR KCLM 162253Z AUTO 29010KT 10SM FEW060 08/M01 A2959 RMK AO2 SLP021 T00831006 TSNO=
201311162153 METAR KCLM 162153Z AUTO 29009KT 10SM FEW050 SCT065 BKN120 08/01 A2958 RMK AO2 SLP017 T00830006 TSNO=
201311162053 METAR KCLM 162053Z AUTO 29011KT 10SM OVC120 09/01 A2957 RMK AO2 SLP012 T00890011 51010 TSNO=
201311161953 METAR KCLM 161953Z AUTO 25006KT 10SM CLR 09/01 A2955 RMK AO2 SLP008 T00940006 TSNO=
201311161853 METAR KCLM 161853Z AUTO 31007KT 10SM CLR 09/02 A2955 RMK AO2 SLP009 T00890022 TSNO=
201311161753 METAR KCLM 161753Z AUTO 28008KT 10SM CLR 08/01 A2953 RMK AO2 SLP002 T00830006 10083 20044 53023 TSNO=
201311161653 METAR KCLM 161653Z AUTO 27010KT 10SM CLR 07/01 A2951 RMK AO2 SLP993 T00720006 TSNO=
201311161553 METAR KCLM 161553Z AUTO 29013KT 10SM CLR 06/00 A2948 RMK AO2 SLP985 T00610000 TSNO=
201311161453 METAR KCLM 161453Z AUTO 30007G17KT 10SM CLR 06/00 A2947 RMK AO2 SLP980 T00560000 53014 TSNO=
201311161353 METAR KCLM 161353Z AUTO 29009KT 10SM CLR 05/00 A2944 RMK AO2 SLP972 T00500000 TSNO=
201311161253 METAR KCLM 161253Z AUTO 29009KT 10SM CLR 05/00 A2944 RMK AO2 SLP970 T00500000 TSNO=
201311161153 METAR KCLM 161153Z AUTO 26008KT 10SM CLR 06/00 A2942 RMK AO2 SLP965 60000 70012 T00610000 10083 20061 51015 TSNO=
201311161053 METAR KCLM 161053Z AUTO 28011KT 10SM CLR 07/01 A2941 RMK AO2 SLP962 T00670006 TSNO=
201311160953 METAR KCLM 160953Z AUTO 28014KT 10SM FEW040 07/01 A2939 RMK AO2 PK WND 27031/0854 SLP955 T00720011 TSNO=
201311160853 METAR KCLM 160853Z AUTO 28020G33KT 10SM BKN045 BKN055 08/01 A2938 RMK AO2 PK WND 29033/0845 SLP949 60000 T00830011 55000 TSNO=
201311160753 METAR KCLM 160753Z AUTO 27018G27KT 10SM FEW042 SCT090 08/02 A2935 RMK AO2 PK WND 27028/0719 RAB02E11 SLP942 P0000 T00830017 400890017 TSNO=
201311160653 METAR KCLM 160653Z AUTO 27016G26KT 10SM BKN047 OVC060 08/02 A2936 RMK AO2 PK WND 28029/0554 SLP944 T00780022 TSNO=
201311160553 METAR KCLM 160553Z AUTO 28019G32KT 10SM FEW042 BKN055 OVC070 08/02 A2938 RMK AO2 PK WND 26034/0519 RAE0454B19E30 SLP949 P0000 60008 T00830022 10089 20067 55000 TSNO=
201311160453 METAR KCLM 160453Z AUTO 28018G26KT 10SM -RA FEW033 BKN040 OVC060 08/04 A2936 RMK AO2 PK WND 29040/0401 SLP944 P0002 T00830044 TSNO=
201311160407 SPECI KCLM 160407Z AUTO 30023G40KT 10SM -RA SCT009 OVC035 08/06 A2936 RMK AO2 PK WND 29040/0401 P0001 T00830056 TSNO=
201311160353 METAR KCLM 160353Z AUTO 30019G29KT 7SM -RA BKN009 OVC013 08/07 A2937 RMK AO2 PK WND 31029/0351 RAB01 SLP945 P0006 T00830067 TSNO=
201311160345 SPECI KCLM 160345Z AUTO 28011KT 8SM -RA BKN009 OVC014 08/06 A2937 RMK AO2 RAB01 CIG 006V012 P0005 T00780061 TSNO=
201311160331 SPECI KCLM 160331Z AUTO 27007KT 4SM RA BR FEW007 BKN014 OVC020 08/06 A2937 RMK AO2 RAB01 P0004 T00780061 TSNO=
201311160314 SPECI KCLM 160314Z AUTO 26008KT 10SM -RA SCT020 BKN025 OVC035 08/06 A2938 RMK AO2 RAB01 P0000 T00830056 TSNO=
201311160253 METAR KCLM 160253Z AUTO 26012G20KT 10SM BKN037 OVC047 09/04 A2938 RMK AO2 SLP950 60000 T00890044 56049 TSNO=
201311160153 METAR KCLM 160153Z AUTO 00000KT 10SM OVC050 07/03 A2942 RMK AO2 RAB31E48 PRESFR SLP965 P0000 T00720033 TSNO=
201311160053 METAR KCLM 160053Z AUTO 09004KT 10SM OVC065 07/04 A2947 RMK AO2 RAB2354E16 PRESFR SLP981 P0000 T00720039 TSNO=
201311152353 METAR KCLM 152353Z AUTO 00000KT 10SM FEW050 BKN060 OVC075 07/04 A2953 RMK AO2 RAE04 SLP000 P0000 60004 T00720039 10089 20067 56052 TSNO=
201311152253 METAR KCLM 152253Z AUTO 00000KT 10SM -RA OVC070 08/04 A2958 RMK AO2 RAB53 SLP019 P0000 T00780044 TSNO=
201311152153 METAR KCLM 152153Z AUTO 12004KT 10SM BKN080 OVC095 07/05 A2962 RMK AO2 SLP032 T00720050 TSNO=
201311152053 METAR KCLM 152053Z AUTO 28008KT 10SM OVC070 08/04 A2968 RMK AO2 RAE17 SLP053 P0001 60004 T00780044 58057 TSNO=
201311151953 METAR KCLM 151953Z AUTO 21003KT 10SM -RA FEW038 OVC055 07/04 A2978 RMK AO2 SLP085 P0001 T00670039 TSNO $=
201311151853 METAR KCLM 151853Z AUTO 00000KT 10SM -RA BKN043 OVC055 07/03 A2983 RMK AO2 RAB15 PRESFR SLP101 P0002 T00720033 TSNO $=
201311151753 METAR KCLM 151753Z AUTO 21005KT 10SM OVC055 08/02 A2985 RMK AO2 RAE03 SLP111 P0000 60000 T00780022 10078 20050 58016 TSNO $=
201311151653 METAR KCLM 151653Z AUTO 26005KT 10SM -RA OVC055 08/02 A2987 RMK AO2 RAB53 SLP118 P0000 T00780017 TSNO $=
201311151553 METAR KCLM 151553Z AUTO 25009KT 10SM BKN048 OVC100 08/01 A2989 RMK AO2 SLP125 T00780011 TSNO $=
201311151453 METAR KCLM 151453Z AUTO 25009KT 10SM OVC041 07/01 A2990 RMK AO2 PRESFR SLP127 T00670011 58033 TSNO $=
201311151353 METAR KCLM 151353Z AUTO 25012KT 10SM OVC050 07/02 A2994 RMK AO2 SLP141 T00720017 TSNO $=
201311151253 METAR KCLM 151253Z AUTO 24010KT 10SM FEW042 06/01 A2998 RMK AO2 SLP152 T00560011 TSNO $=
201311151153 METAR KCLM 151153Z AUTO 25009KT 10SM CLR 05/01 A3000 RMK AO2 SLP160 70004 T00500011 10061 20017 56016 TSNO $=
201311151053 METAR KCLM 151053Z AUTO 25009KT 10SM CLR 06/01 A3001 RMK AO2 SLP163 T00560011 TSNO $=
201311150953 METAR KCLM 150953Z AUTO 24004KT 10SM CLR 04/01 A3001 RMK AO2 SLP165 T00390011 TSNO $=
201311150853 METAR KCLM 150853Z AUTO 26006KT 10SM CLR 05/02 A3005 RMK AO2 SLP177 T00500017 56010 TSNO $=
201311150753 METAR KCLM 150753Z AUTO 22004KT 10SM CLR 04/02 A3007 RMK AO2 SLP183 T00390017 401000039 TSNO $=
201311150653 METAR KCLM 150653Z AUTO 00000KT 10SM CLR 04/02 A3006 RMK AO2 SLP181 T00440022 TSNO $=
201311150553 METAR KCLM 150553Z AUTO 26008KT 10SM CLR 05/03 A3008 RMK AO2 SLP187 T00500028 10083 20044 58007 TSNO $=
201311150453 METAR KCLM 150453Z AUTO 24006KT 10SM CLR 05/03 A3010 RMK AO2 SLP194 T00500033 TSNO $=
201311150412 SPECI KCLM 150412Z AUTO 28006KT 10SM SCT008 06/04 A3009 RMK AO2 T00560039 TSNO $=
201311150353 METAR KCLM 150353Z AUTO 24006KT 10SM BKN010 06/04 A3008 RMK AO2 CIG 007V013 SLP188 T00610044 TSNO $=
201311150302 SPECI KCLM 150302Z AUTO 26008KT 10SM BKN009 07/05 A3010 RMK AO2 T00670050 TSNO $=
201311150253 METAR KCLM 150253Z AUTO 26006KT 10SM SCT009 06/04 A3010 RMK AO2 SLP194 T00610044 56002 TSNO $=
201311150251 SPECI KCLM 150251Z AUTO 26007KT 10SM SCT009 06/04 A3010 RMK AO2 TSNO $=
201311150153 METAR KCLM 150153Z AUTO 00000KT 9SM FEW010 07/06 A3010 RMK AO2 SLP196 T00670056 TSNO $=
201311150150 SPECI KCLM 150150Z AUTO 00000KT 10SM SCT010 07/06 A3010 RMK AO2 TSNO $=
201311150053 METAR KCLM 150053Z AUTO 26006KT 10SM OVC012 08/06 A3012 RMK AO2 SLP199 T00830061 TSNO $=
201311142353 METAR KCLM 142353Z AUTO 27005KT 10SM OVC009 08/07 A3011 RMK AO2 SLP198 60004 T00830067 10100 20083 56009 TSNO $=
201311142325 SPECI KCLM 142325Z AUTO 29005KT 10SM BKN009 08/07 A3012 RMK AO2 T00830067 TSNO $=
201311142308 SPECI KCLM 142308Z AUTO 31004KT 10SM FEW007 09/07 A3012 RMK AO2 T00890072 TSNO $=
201311142253 METAR KCLM 142253Z AUTO 29005KT 10SM CLR 09/07 A3012 RMK AO2 SLP200 T00890072 TSNO $=
201311142153 METAR KCLM 142153Z AUTO 35004KT 10SM FEW013 09/08 A3012 RMK AO2 SLP199 T00940078 TSNO $=
201311142053 METAR KCLM 142053Z AUTO 31005KT 10SM FEW060 09/08 A3014 RMK AO2 SLP207 60004 T00940078 58013 TSNO $=
201311142005 SPECI KCLM 142005Z AUTO 28003KT 10SM FEW004 SCT039 OVC048 09/07 A3015 RMK AO2 T00890072 TSNO $=
201311141953 METAR KCLM 141953Z AUTO 26004KT 10SM BKN039 BKN048 09/07 A3016 RMK AO2 RAE36 SLP213 P0003 T00890072 TSNO $=
201311141853 METAR KCLM 141853Z AUTO 28006KT 10SM -RA BKN035 OVC050 09/07 A3017 RMK AO2 RAB43 SLP218 P0001 T00940067 TSNO $=
201311141753 METAR KCLM 141753Z AUTO 26006KT 10SM BKN042 OVC070 09/06 A3018 RMK AO2 SLP220 60000 T00940061 10100 20072 58003 TSNO $=
201311141653 METAR KCLM 141653Z AUTO 26005KT 10SM FEW023 BKN032 08/06 A3018 RMK AO2 SLP222 T00830056 TSNO $=
201311141553 METAR KCLM 141553Z AUTO 25006KT 10SM SCT025 OVC031 08/06 A3019 RMK AO2 RAE1458 SLP225 P0000 T00830056 TSNO $=
201311141536 SPECI KCLM 141536Z AUTO 26006KT 10SM BKN023 BKN031 OVC070 08/06 A3019 RMK AO2 RAE1458 P0000 T00780056 TSNO $=
201311141453 METAR KCLM 141453Z AUTO 25006KT 10SM -RA FEW023 SCT060 BKN070 08/06 A3019 RMK AO2 RAB38 SLP224 P0000 60000 T00780056 58015 TSNO $=
201311141441 SPECI KCLM 141441Z AUTO 25008KT 10SM -RA FEW023 BKN046 OVC070 08/05 A3019 RMK AO2 RAB38 P0000 T00830050 TSNO $=
201311141404 SPECI KCLM 141404Z AUTO 26007KT 10SM BKN025 OVC065 08/05 A3021 RMK AO2 T00780050 TSNO $=
201311141353 METAR KCLM 141353Z AUTO 28009KT 10SM SCT027 OVC065 08/05 A3021 RMK AO2 RAB37E47 SLP232 P0000 T00780050 TSNO $=
201311141253 METAR KCLM 141253Z AUTO 25010KT 10SM FEW031 OVC055 08/06 A3023 RMK AO2 SLP237 T00830056 TSNO $=
201311141153 METAR KCLM 141153Z AUTO 27006KT 10SM OVC050 08/05 A3023 RMK AO2 SLP239 T00780050 10089 20072 56022 TSNO $=
201311141053 METAR KCLM 141053Z AUTO 25008KT 10SM CLR 08/05 A3025 RMK AO2 SLP245 T00780050 TSNO $=
201311140953 METAR KCLM 140953Z AUTO 27006KT 10SM CLR 07/06 A3027 RMK AO2 SLP252 T00720056 TSNO $=
201311140853 METAR KCLM 140853Z AUTO 26008KT 10SM CLR 08/06 A3030 RMK AO2 SLP261 T00830056 56018 TSNO $=
201311140753 METAR KCLM 140753Z AUTO 25009KT 10SM CLR 08/06 A3031 RMK AO2 SLP266 T00780056 401280061 TSNO $=
201311140653 METAR KCLM 140653Z AUTO 24007KT 10SM CLR 08/06 A3033 RMK AO2 SLP272 T00830061 TSNO=
201311140624 SPECI KCLM 140624Z AUTO 26007KT 10SM FEW023 SCT028 07/06 A3034 RMK AO2 T00720056 TSNO=
201311140610 SPECI KCLM 140610Z AUTO 30004KT 10SM FEW022 BKN028 08/06 A3034 RMK AO2 T00780061 TSNO=
201311140553 METAR KCLM 140553Z AUTO 00000KT 10SM FEW028 08/07 A3035 RMK AO2 SLP280 T00830067 10106 20083 58009 TSNO=
201311140453 METAR KCLM 140453Z AUTO 27007KT 10SM SCT009 BKN055 09/07 A3036 RMK AO2 SLP283 T00890072 TSNO=
201311140419 SPECI KCLM 140419Z AUTO 27005KT 10SM BKN008 OVC055 09/08 A3038 RMK AO2 T00890078 TSNO=
201311140408 SPECI KCLM 140408Z AUTO 26005KT 10SM SCT009 OVC055 09/08 A3038 RMK AO2 T00890078 TSNO=
201311140353 METAR KCLM 140353Z AUTO 29006KT 10SM FEW014 OVC055 09/08 A3038 RMK AO2 SLP290 T00890078 TSNO=
201311140349 SPECI KCLM 140349Z AUTO 29005KT 10SM FEW014 SCT037 OVC055 09/08 A3038 RMK AO2 TSNO=
201311140318 SPECI KCLM 140318Z AUTO 26004KT 9SM BKN013 BKN050 09/08 A3038 RMK AO2 T00890078 TSNO=
201311140312 SPECI KCLM 140312Z AUTO 00000KT 2SM BR SCT013 SCT030 BKN050 09/08 A3038 RMK AO2 T00890078 TSNO=
201311140253 METAR KCLM 140253Z AUTO 00000KT 10SM FEW020 SCT035 BKN050 09/08 A3038 RMK AO2 SLP288 T00890078 58012 TSNO=
201311140153 METAR KCLM 140153Z AUTO 00000KT 10SM BKN037 OVC048 09/08 A3040 RMK AO2 SLP296 T00940083 TSNO=
201311140053 METAR KCLM 140053Z AUTO 00000KT 10SM OVC039 10/08 A3040 RMK AO2 SLP296 T01000083 TSNO=
201311140001 SPECI KCLM 140001Z AUTO 30008KT 10SM SCT014 OVC033 10/08 A3041 RMK AO2 T01000083 TSNO=
201311132353 METAR KCLM 132353Z AUTO 32007KT 10SM BKN012 OVC033 11/08 A3041 RMK AO2 SLP299 T01060078 10128 20106 55002 TSNO=
201311132331 SPECI KCLM 132331Z AUTO 30004KT 10SM BKN010 OVC035 11/08 A3041 RMK AO2 CIG 007V015 T01060083 TSNO=
201311132253 METAR KCLM 132253Z AUTO 31003KT 10SM SCT007 OVC055 11/09 A3041 RMK AO2 SLP299 T01060089 TSNO=
201311132243 SPECI KCLM 132243Z AUTO 34004KT 10SM FEW007 OVC055 11/09 A3041 RMK AO2 T01060089 TSNO=
201311132224 SPECI KCLM 132224Z AUTO 32005KT 10SM SCT017 SCT032 OVC055 11/09 A3041 RMK AO2 T01060089 TSNO=
201311132207 SPECI KCLM 132207Z AUTO 33004KT 10SM BKN017 OVC055 11/08 A3042 RMK AO2 T01110083 TSNO=
201311132153 METAR KCLM 132153Z AUTO 01003KT 10SM FEW017 SCT027 OVC055 11/08 A3042 RMK AO2 SLP301 T01110083 TSNO=
201311132053 METAR KCLM 132053Z AUTO VRB04KT 10SM FEW016 OVC055 12/08 A3042 RMK AO2 SLP301 T01170083 58001 TSNO=
201311131953 METAR KCLM 131953Z AUTO 32005KT 10SM OVC050 11/08 A3044 RMK AO2 SLP307 T01110078 TSNO=
201311131853 METAR KCLM 131853Z AUTO 00000KT 10SM BKN055 12/08 A3042 RMK AO2 SLP303 T01220078 TSNO=
201311131753 METAR KCLM 131753Z AUTO 00000KT 10SM SCT026 BKN035 11/07 A3042 RMK AO2 SLP302 T01060067 10117 20061 52011 TSNO=
201311131653 METAR KCLM 131653Z AUTO 00000KT 10SM CLR 09/07 A3041 RMK AO2 SLP299 T00890067 TSNO=
201311131553 METAR KCLM 131553Z AUTO 00000KT 10SM CLR 06/05 A3040 RMK AO2 SLP294 T00610050 TSNO=
201311131453 METAR KCLM 131453Z AUTO 24006KT 10SM BKN050 08/06 A3039 RMK AO2 SLP291 T00830061 50012 TSNO=
201311131353 METAR KCLM 131353Z AUTO 25007KT 10SM CLR 09/07 A3039 RMK AO2 SLP291 T00890067 TSNO=
201311131253 METAR KCLM 131253Z AUTO 26008KT 10SM CLR 09/07 A3037 RMK AO2 SLP286 T00940067 TSNO=
201311131153 METAR KCLM 131153Z AUTO 26007KT 10SM BKN055 09/07 A3035 RMK AO2 RAB1056E10 SLP279 P0000 60002 70004 T00940072 10111 20072 50003 TSNO=
201311131053 METAR KCLM 131053Z AUTO 28008KT 10SM OVC055 10/08 A3036 RMK AO2 SLP280 T01000078 TSNO=
201311130953 METAR KCLM 130953Z AUTO 22007KT 10SM OVC060 10/08 A3035 RMK AO2 SLP277 T01000078 TSNO=
201311130853 METAR KCLM 130853Z AUTO 24003KT 4SM BR FEW026 OVC070 08/08 A3034 RMK AO2 RAE31 SLP276 P0000 60002 T00830078 52014 TSNO=
201311130753 METAR KCLM 130753Z AUTO 12004KT 10SM -RA BKN055 OVC070 09/08 A3034 RMK AO2 RAB22 SLP276 P0002 T00940083 401390072 TSNO=
201311130653 METAR KCLM 130653Z AUTO 36005KT 10SM BKN070 BKN100 11/08 A3031 RMK AO2 SLP264 T01060078 TSNO=
201311130553 METAR KCLM 130553Z AUTO VRB04KT 10SM BKN065 08/07 A3030 RMK AO2 RAB03E13B40E53 SLP263 P0000 60002 T00830072 10122 20078 53010 TSNO=
201311130453 METAR KCLM 130453Z AUTO 28005KT 10SM OVC070 10/08 A3029 RMK AO2 RAB08E28 SLP259 P0000 T01000083 TSNO=
201311130353 METAR KCLM 130353Z AUTO 25008KT 10SM SCT075 SCT100 11/09 A3028 RMK AO2 SLP255 T01110089 TSNO=
201311130313 SPECI KCLM 130313Z AUTO 24009KT 3SM BR FEW060 09/08 A3028 RMK AO2 T00890078 TSNO=
201311130256 SPECI KCLM 130256Z AUTO 25003KT 1 3/4SM BR CLR 08/08 A3027 RMK AO2 T00830078 TSNO=
201311130253 METAR KCLM 130253Z AUTO 24004KT 5SM BR FEW046 FEW060 09/08 A3027 RMK AO2 RAB03E13 SLP252 P0000 60002 T00890083 53006 TSNO=
201311130229 SPECI KCLM 130229Z AUTO 24003KT 9SM SCT040 BKN060 10/09 A3027 RMK AO2 RAB03E13 P0000 T01000094 TSNO=
201311130222 SPECI KCLM 130222Z AUTO 24004KT 2SM BR SCT035 BKN065 10/09 A3027 RMK AO2 VIS 3/4V5 RAB03E13 P0000 T01000094 TSNO=
201311130211 SPECI KCLM 130211Z AUTO 00000KT 1/2SM -RA FG SCT024 BKN065 10/09 A3027 RMK AO2 RAB03 P0000 T01000089 TSNO=
201311130201 SPECI KCLM 130201Z AUTO 00000KT 1 1/2SM BR FEW050 BKN065 09/09 A3027 RMK AO2 T00940094 TSNO=
201311130153 METAR KCLM 130153Z AUTO 00000KT 8SM BKN065 11/09 A3027 RMK AO2 RAB06E42 SLP250 P0001 T01060094 TSNO=
201311130053 METAR KCLM 130053Z AUTO 00000KT 10SM SCT065 BKN080 10/09 A3026 RMK AO2 RAE31 SLP249 P0001 T01000094 TSNO=
201311122353 METAR KCLM 122353Z AUTO 00000KT 10SM -RA OVC060 12/09 A3026 RMK AO2 RAB29 SLP247 P0000 60000 T01220094 10139 20117 53012 TSNO=
201311122253 METAR KCLM 122253Z AUTO 14003KT 10SM BKN075 BKN100 13/09 A3024 RMK AO2 SLP241 T01330094 TSNO=
201311122153 METAR KCLM 122153Z AUTO 11004KT 10SM SCT060 OVC080 13/09 A3024 RMK AO2 RAB00E31 SLP240 P0000 T01280089 TSNO=
201311122053 METAR KCLM 122053Z AUTO 11004KT 10SM OVC080 14/09 A3022 RMK AO2 SLP235 T01390089 51017 TSNO=
201311121953 METAR KCLM 121953Z AUTO 08005KT 10SM SCT070 13/08 A3021 RMK AO2 SLP231 T01330083 TSNO=
201311121853 METAR KCLM 121853Z AUTO 14004KT 10SM FEW070 13/08 A3019 RMK AO2 SLP226 T01280083 TSNO=
201311121753 METAR KCLM 121753Z AUTO 00000KT 10SM SCT070 BKN080 11/08 A3017 RMK AO2 SLP217 60000 T01110078 10111 20083 51050 TSNO=
201311121653 METAR KCLM 121653Z AUTO 00000KT 10SM OVC060 10/08 A3012 RMK AO2 SLP201 T01000078 TSNO=
201311121553 METAR KCLM 121553Z AUTO 20005KT 10SM OVC065 09/07 A3008 RMK AO2 RAB26E37 SLP186 P0000 T00940072 TSNO=
201311121453 METAR KCLM 121453Z AUTO 28004KT 10SM BKN060 OVC070 09/07 A3002 RMK AO2 SLP167 60000 T00890072 53014 TSNO=
201311121353 METAR KCLM 121353Z AUTO 28005KT 10SM BKN060 OVC075 09/07 A3000 RMK AO2 SLP159 T00890067 TSNO=
201311121253 METAR KCLM 121253Z AUTO 24003KT 10SM OVC060 09/07 A2999 RMK AO2 RAB28E44 SLP157 P0000 T00940067 TSNO=
201311121153 METAR KCLM 121153Z AUTO 25008KT 10SM OVC070 09/06 A2998 RMK AO2 SLP152 T00940061 10094 20061 50004 TSNO=
201311121053 METAR KCLM 121053Z AUTO 00000KT 10SM OVC090 09/06 A2998 RMK AO2 SLP154 T00940061 TSNO=
201311120953 METAR KCLM 120953Z AUTO 25008KT 10SM FEW110 08/06 A2999 RMK AO2 SLP155 T00830061 TSNO=
201311120853 METAR KCLM 120853Z AUTO VRB03KT 10SM FEW100 08/06 A2997 RMK AO2 SLP148 T00830061 58006 TSNO=
201311120753 METAR KCLM 120753Z AUTO 00000KT 10SM FEW120 08/06 A2998 RMK AO2 SLP152 T00780061 401110056 TSNO $=
201311120653 METAR KCLM 120653Z AUTO 27006KT 10SM CLR 07/05 A2998 RMK AO2 SLP152 T00670050 TSNO=
201311120553 METAR KCLM 120553Z AUTO 25004KT 10SM CLR 07/06 A2998 RMK AO2 SLP154 T00720056 10089 20067 58007 TSNO=
201311120453 METAR KCLM 120453Z AUTO 21003KT 10SM CLR 07/06 A2999 RMK AO2 SLP158 T00670056 TSNO=
201311120353 METAR KCLM 120353Z AUTO 23003KT 10SM CLR 08/06 A3000 RMK AO2 SLP159 T00780061 TSNO=
201311120253 METAR KCLM 120253Z AUTO 00000KT 10SM CLR 09/06 A3000 RMK AO2 SLP162 T00890061 56014 TSNO=
201311120153 METAR KCLM 120153Z AUTO 23004KT 10SM CLR 08/06 A3002 RMK AO2 SLP167 T00830061 TSNO=
201311120053 METAR KCLM 120053Z AUTO 00000KT 10SM CLR 08/06 A3002 RMK AO2 SLP168 T00830061 TSNO=
201311112353 METAR KCLM 112353Z AUTO 00000KT 10SM CLR 09/06 A3004 RMK AO2 SLP174 T00890061 10111 20089 56024 TSNO=
201311112253 METAR KCLM 112253Z AUTO 11005KT 10SM FEW110 09/06 A3006 RMK AO2 SLP180 T00940061 TSNO=
201311112153 METAR KCLM 112153Z AUTO VRB04KT 10SM SCT110 11/07 A3007 RMK AO2 SLP185 T01110067 TSNO=
201311112053 METAR KCLM 112053Z AUTO 00000KT 10SM CLR 11/06 A3012 RMK AO2 SLP199 T01060061 56012 TSNO=
201311111953 METAR KCLM 111953Z AUTO 00000KT 10SM CLR 10/06 A3013 RMK AO2 SLP203 T01000056 TSNO=
201311111853 METAR KCLM 111853Z AUTO 10006KT 10SM CLR 10/06 A3013 RMK AO2 SLP203 T01000056 TSNO=
201311111753 METAR KCLM 111753Z AUTO 00000KT 10SM CLR 09/07 A3015 RMK AO2 SLP211 T00890067 10089 20056 50001 TSNO=
201311111653 METAR KCLM 111653Z AUTO 23003KT 10SM FEW023 07/06 A3015 RMK AO2 SLP213 T00670056 TSNO=
201311111553 METAR KCLM 111553Z AUTO 13003KT 10SM FEW028 06/05 A3015 RMK AO2 SLP212 T00560050 TSNO=
201311111539 SPECI KCLM 111539Z AUTO 00000KT 10SM SCT028 06/05 A3016 RMK AO2 T00560050 TSNO=
201311111453 METAR KCLM 111453Z AUTO 00000KT 10SM BKN027 06/06 A3015 RMK AO2 SLP211 T00610056 56003 TSNO=
201311111353 METAR KCLM 111353Z AUTO 00000KT 10SM OVC026 07/06 A3015 RMK AO2 SLP213 T00720056 TSNO=
201311111253 METAR KCLM 111253Z AUTO 15004KT 10SM OVC025 07/06 A3015 RMK AO2 SLP211 T00720056 TSNO=
201311111223 SPECI KCLM 111223Z AUTO 14004KT 10SM OVC029 07/06 A3014 RMK AO2 T00720056 TSNO=
201311111153 METAR KCLM 111153Z AUTO 15004KT 10SM OVC030 07/06 A3016 RMK AO2 SLP214 70003 T00720056 10078 20056 53000 TSNO=
201311111053 METAR KCLM 111053Z AUTO 14004KT 10SM OVC031 07/06 A3015 RMK AO2 SLP212 T00670056 TSNO=
201311110953 METAR KCLM 110953Z AUTO 14003KT 10SM OVC036 07/06 A3016 RMK AO2 SLP215 T00670056 TSNO=
201311110853 METAR KCLM 110853Z AUTO 14003KT 10SM FEW020 OVC036 07/06 A3016 RMK AO2 SLP214 T00670056 56001 TSNO=
201311110848 SPECI KCLM 110848Z AUTO 14003KT 10SM SCT020 OVC036 07/06 A3016 RMK AO2 TSNO=
201311110753 METAR KCLM 110753Z AUTO 14004KT 10SM OVC017 07/06 A3016 RMK AO2 SLP214 T00670056 400890056 TSNO=
201311110734 SPECI KCLM 110734Z AUTO 14004KT 10SM BKN017 06/04 A3015 RMK AO2 T00610044 TSNO=
201311110653 METAR KCLM 110653Z AUTO 14005KT 10SM FEW060 OVC080 07/06 A3016 RMK AO2 SLP215 T00670056 TSNO=
201311110553 METAR KCLM 110553Z AUTO 12003KT 10SM FEW010 OVC065 08/06 A3016 RMK AO2 SLP215 T00780056 10083 20072 56001 TSNO=
201311110453 METAR KCLM 110453Z AUTO 15003KT 10SM FEW014 OVC065 07/06 A3016 RMK AO2 SLP215 T00720056 TSNO=
201311110445 SPECI KCLM 110445Z AUTO 15003KT 10SM SCT013 OVC065 07/06 A3016 RMK AO2 T00720056 TSNO=
201311110421 SPECI KCLM 110421Z AUTO 12003KT 10SM BKN013 OVC065 08/06 A3016 RMK AO2 T00780056 TSNO=
201311110353 METAR KCLM 110353Z AUTO 13004KT 10SM FEW014 OVC070 08/06 A3016 RMK AO2 SLP215 T00780056 TSNO=
201311110332 SPECI KCLM 110332Z AUTO 12004KT 10SM BKN014 OVC070 08/06 A3016 RMK AO2 T00780056 TSNO=
201311110253 METAR KCLM 110253Z AUTO 12003KT 10SM OVC016 08/06 A3016 RMK AO2 SLP216 T00780056 53003 TSNO=
201311110153 METAR KCLM 110153Z AUTO 12004KT 10SM OVC015 08/06 A3016 RMK AO2 SLP215 T00780056 TSNO=
201311110138 SPECI KCLM 110138Z AUTO 10004KT 10SM OVC015 08/06 A3016 RMK AO2 T00830056 TSNO=
201311110130 SPECI KCLM 110130Z AUTO 10005KT 10SM BKN013 OVC018 08/06 A3016 RMK AO2 T00830056 TSNO=
201311110053 METAR KCLM 110053Z AUTO 11006KT 10SM OVC018 08/06 A3015 RMK AO2 SLP211 T00830056 TSNO=
201311102353 METAR KCLM 102353Z AUTO 09007KT 10SM FEW010 OVC019 08/06 A3015 RMK AO2 SLP213 T00830061 10089 20078 55002 TSNO=
201311102253 METAR KCLM 102253Z AUTO 09006KT 10SM OVC016 09/06 A3015 RMK AO2 SLP212 T00890061 TSNO=
201311102153 METAR KCLM 102153Z AUTO 09007KT 10SM OVC017 08/06 A3016 RMK AO2 SLP215 T00830061 TSNO=
201311102053 METAR KCLM 102053Z AUTO 08006KT 10SM FEW010 OVC015 09/07 A3016 RMK AO2 SLP215 T00890067 58005 TSNO=
201311102004 SPECI KCLM 102004Z AUTO 10008KT 10SM OVC013 08/07 A3016 RMK AO2 T00830067 TSNO=
201311101953 METAR KCLM 101953Z AUTO 09007KT 10SM FEW009 OVC015 08/07 A3016 RMK AO2 SLP216 T00830067 TSNO=
201311101853 METAR KCLM 101853Z AUTO 08007KT 10SM OVC015 08/06 A3018 RMK AO2 SLP221 T00830061 TSNO=
201311101841 SPECI KCLM 101841Z AUTO 10005KT 10SM OVC015 08/06 A3018 RMK AO2 T00830061 TSNO=
201311101753 METAR KCLM 101753Z AUTO 08006KT 10SM OVC011 08/06 A3017 RMK AO2 SLP220 60003 T00780061 10083 20067 50012 TSNO=
201311101750 SPECI KCLM 101750Z AUTO 10006KT 10SM OVC011 08/06 A3018 RMK AO2 TSNO=
201311101653 METAR KCLM 101653Z AUTO 12006KT 6SM BR OVC009 07/06 A3015 RMK AO2 RAE03 SLP210 P0000 T00720061 TSNO=
201311101628 SPECI KCLM 101628Z AUTO 11003KT 10SM BKN009 OVC013 07/06 A3016 RMK AO2 RAE03 CIG 008V011 P0000 T00720061 TSNO=
201311101614 SPECI KCLM 101614Z AUTO 14003KT 7SM OVC010 07/06 A3016 RMK AO2 RAE03 P0000 T00720061 TSNO=
201311101553 METAR KCLM 101553Z AUTO 13006KT 3SM -RA BR OVC008 07/06 A3014 RMK AO2 RAB25 CIG 007V013 SLP208 P0002 T00720061 TSNO=
201311101551 SPECI KCLM 101551Z AUTO 13004KT 3SM -RA BR BKN008 OVC012 07/07 A3015 RMK AO2 RAB25 P0002 TSNO=
201311101453 METAR KCLM 101453Z AUTO 00000KT 7SM OVC012 07/06 A3014 RMK AO2 RAB07E17B22E34 SLP209 P0000 60001 T00720061 53005 TSNO=
201311101429 SPECI KCLM 101429Z AUTO 17004KT 10SM -RA OVC014 07/06 A3014 RMK AO2 RAB07E17B22 P0000 T00720061 TSNO=
201311101421 SPECI KCLM 101421Z AUTO 16005KT 10SM OVC016 07/06 A3014 RMK AO2 RAB07E17 P0000 T00720061 TSNO=
201311101353 METAR KCLM 101353Z AUTO 17005KT 10SM OVC012 07/06 A3014 RMK AO2 SLP208 P0001 T00720061 TSNO=
201311101317 SPECI KCLM 101317Z AUTO 00000KT 10SM OVC010 07/06 A3014 RMK AO2 P0001 T00670061 TSNO=
201311101253 METAR KCLM 101253Z AUTO 00000KT 10SM OVC009 07/06 A3013 RMK AO2 RAE46 CIG 006V011 SLP205 P0000 T00670056 TSNO=
201311101218 SPECI KCLM 101218Z AUTO 21004KT 7SM -RA BKN007 OVC013 07/06 A3013 RMK AO2 CIG 006V011 P0000 T00670056 TSNO=
201311101210 SPECI KCLM 101210Z AUTO 23005KT 7SM -RA SCT006 OVC013 07/06 A3013 RMK AO2 P0000 T00670056 TSNO=
201311101153 METAR KCLM 101153Z AUTO 00000KT 10SM -RA OVC013 07/05 A3013 RMK AO2 RAB51 SLP204 P0000 60000 T00670050 10067 20050 51002 TSNO=
201311101133 SPECI KCLM 101133Z AUTO 23003KT 10SM FEW009 OVC014 07/05 A3013 RMK AO2 T00670050 TSNO=
201311101110 SPECI KCLM 101110Z AUTO 00000KT 10SM OVC010 07/06 A3013 RMK AO2 CIG 008V013 T00670056 TSNO=
201311101053 METAR KCLM 101053Z AUTO 00000KT 10SM OVC009 07/06 A3012 RMK AO2 CIG 008V013 SLP203 T00670056 TSNO=
201311101004 SPECI KCLM 101004Z AUTO 00000KT 10SM BKN009 OVC019 07/06 A3013 RMK AO2 T00670056 TSNO=
201311100953 METAR KCLM 100953Z AUTO 23003KT 10SM SCT009 OVC019 06/05 A3013 RMK AO2 SLP205 T00610050 TSNO=
201311100914 SPECI KCLM 100914Z AUTO 00000KT 10SM FEW007 SCT023 OVC028 06/05 A3012 RMK AO2 T00610050 TSNO=
201311100853 METAR KCLM 100853Z AUTO 00000KT 10SM OVC027 06/04 A3012 RMK AO2 SLP202 T00560044 50000 TSNO=
201311100834 SPECI KCLM 100834Z AUTO 00000KT 10SM BKN025 OVC085 06/04 A3013 RMK AO2 T00560044 TSNO=
201311100753 METAR KCLM 100753Z AUTO 00000KT 10SM OVC090 06/04 A3013 RMK AO2 SLP205 T00560044 400890022 TSNO=
201311100653 METAR KCLM 100653Z AUTO 00000KT 10SM OVC100 06/04 A3013 RMK AO2 SLP203 T00560044 TSNO=
201311100553 METAR KCLM 100553Z AUTO 00000KT 10SM FEW120 05/04 A3012 RMK AO2 SLP202 T00500044 10083 20044 52004 TSNO=
201311100509 SPECI KCLM 100509Z AUTO 00000KT 10SM SCT013 05/04 A3012 RMK AO2 T00500039 TSNO=
201311100453 METAR KCLM 100453Z AUTO 00000KT 10SM BKN013 05/04 A3012 RMK AO2 SLP201 T00500039 TSNO=
201311100431 SPECI KCLM 100431Z AUTO 00000KT 10SM BKN012 05/04 A3012 RMK AO2 T00500039 TSNO=
201311100353 METAR KCLM 100353Z AUTO 00000KT 10SM SCT085 05/04 A3011 RMK AO2 SLP200 T00500039 TSNO=
201311100253 METAR KCLM 100253Z AUTO 14003KT 10SM OVC100 06/05 A3011 RMK AO2 SLP199 T00610050 51002 TSNO=
201311100153 METAR KCLM 100153Z AUTO 00000KT 10SM OVC060 07/06 A3011 RMK AO2 SLP198 T00720056 TSNO=
201311100053 METAR KCLM 100053Z AUTO 00000KT 10SM OVC085 08/06 A3011 RMK AO2 SLP198 T00780056 TSNO=
201311092353 METAR KCLM 092353Z AUTO 12004KT 10SM OVC085 08/06 A3011 RMK AO2 SLP196 T00830061 10089 20083 50001 TSNO=
201311092253 METAR KCLM 092253Z AUTO 10003KT 10SM OVC090 08/06 A3011 RMK AO2 SLP198 T00830061 TSNO=
201311092153 METAR KCLM 092153Z AUTO 06003KT 10SM OVC100 08/06 A3010 RMK AO2 SLP195 T00830056 TSNO=
201311092108 SPECI KCLM 092108Z AUTO VRB03KT 10SM SCT014 BKN080 09/06 A3010 RMK AO2 T00890056 TSNO=
201311092053 METAR KCLM 092053Z AUTO 04003KT 10SM BKN014 OVC080 08/06 A3010 RMK AO2 SLP195 T00830056 58001 TSNO=
201311091953 METAR KCLM 091953Z AUTO 02005KT 10SM OVC013 08/06 A3011 RMK AO2 SLP197 T00830061 TSNO=
201311091919 SPECI KCLM 091919Z AUTO VRB03KT 10SM OVC010 08/06 A3011 RMK AO2 T00830061 TSNO=
201311091908 SPECI KCLM 091908Z AUTO 01003KT 10SM BKN009 OVC095 08/06 A3011 RMK AO2 T00830061 TSNO=
201311091853 METAR KCLM 091853Z AUTO 01003KT 10SM SCT009 OVC100 09/06 A3011 RMK AO2 SLP199 T00890061 TSNO=
201311091808 SPECI KCLM 091808Z AUTO 00000KT 10SM SCT009 BKN110 08/06 A3010 RMK AO2 T00830061 TSNO=
201311091753 METAR KCLM 091753Z AUTO 00000KT 10SM BKN010 08/06 A3011 RMK AO2 SLP196 T00830061 10083 20033 50000 TSNO=
201311091745 SPECI KCLM 091745Z AUTO 00000KT 10SM OVC010 08/06 A3011 RMK AO2 T00830061 TSNO=
201311091732 SPECI KCLM 091732Z AUTO 00000KT 10SM OVC009 08/06 A3011 RMK AO2 T00830061 TSNO=
201311091653 METAR KCLM 091653Z AUTO 00000KT 10SM OVC010 08/06 A3011 RMK AO2 SLP198 T00780061 TSNO=
201311091646 SPECI KCLM 091646Z AUTO 00000KT 10SM OVC010 07/06 A3011 RMK AO2 T00720061 TSNO=
201311091633 SPECI KCLM 091633Z AUTO 00000KT 10SM OVC009 07/06 A3011 RMK AO2 T00670056 TSNO=
201311091605 SPECI KCLM 091605Z AUTO 00000KT 10SM OVC010 06/04 A3010 RMK AO2 T00560044 TSNO=
201311091553 METAR KCLM 091553Z AUTO 00000KT 10SM BKN009 BKN120 05/04 A3010 RMK AO2 SLP196 T00500039 TSNO=
201311091551 SPECI KCLM 091551Z AUTO 00000KT 10SM BKN009 BKN120 05/04 A3010 RMK AO2 TSNO=
201311091543 SPECI KCLM 091543Z AUTO 00000KT 10SM SCT009 BKN120 04/04 A3010 RMK AO2 T00440039 TSNO=
201311091453 METAR KCLM 091453Z AUTO 00000KT 10SM BKN120 04/03 A3011 RMK AO2 SLP198 T00390033 56004 TSNO=
201311091353 METAR KCLM 091353Z AUTO 00000KT 10SM FEW005 04/03 A3011 RMK AO2 SLP199 T00390033 TSNO=
201311091253 METAR KCLM 091253Z AUTO 23003KT 10SM CLR 04/03 A3012 RMK AO2 SLP201 T00390033 TSNO=
201311091153 METAR KCLM 091153Z AUTO 24003KT 10SM CLR 04/03 A3012 RMK AO2 SLP202 T00390028 10056 20022 58000 TSNO=
201311091053 METAR KCLM 091053Z AUTO 22003KT 10SM CLR 04/03 A3012 RMK AO2 SLP203 T00440033 TSNO=
201311090953 METAR KCLM 090953Z AUTO 00000KT 10SM BKN110 05/03 A3014 RMK AO2 SLP207 T00500033 TSNO=
201311090853 METAR KCLM 090853Z AUTO 20003KT 10SM CLR 03/02 A3012 RMK AO2 SLP203 T00280022 58007 TSNO=
201311090753 METAR KCLM 090753Z AUTO 22004KT 10SM OVC120 04/03 A3014 RMK AO2 SLP208 T00440033 401170033 TSNO=
201311090653 METAR KCLM 090653Z AUTO 00000KT 10SM FEW120 05/04 A3014 RMK AO2 SLP209 T00500039 TSNO=
201311090624 SPECI KCLM 090624Z AUTO 23004KT 10SM SCT027 05/04 A3015 RMK AO2 T00500039 TSNO=
201311090553 METAR KCLM 090553Z AUTO 00000KT 10SM OVC027 06/04 A3014 RMK AO2 SLP209 60000 T00560044 10094 20044 53004 TSNO=
201311090509 SPECI KCLM 090509Z AUTO 00000KT 10SM BKN026 06/04 A3014 RMK AO2 T00560044 TSNO=
201311090453 METAR KCLM 090453Z AUTO 00000KT 10SM FEW026 05/04 A3013 RMK AO2 SLP206 T00500044 TSNO=
201311090353 METAR KCLM 090353Z AUTO 13003KT 10SM FEW019 OVC055 07/06 A3013 RMK AO2 SLP206 T00670056 TSNO=
201311090253 METAR KCLM 090253Z AUTO 22003KT 10SM FEW038 OVC047 08/06 A3013 RMK AO2 RAB06E19 SLP206 P0000 60000 T00780061 53002 TSNO=
201311090153 METAR KCLM 090153Z AUTO 00000KT 10SM BKN038 OVC049 08/06 A3013 RMK AO2 SLP203 T00830061 TSNO=
201311090053 METAR KCLM 090053Z AUTO 00000KT 10SM SCT022 OVC060 09/06 A3013 RMK AO2 SLP202 T00940061 TSNO=
201311090021 SPECI KCLM 090021Z AUTO 00000KT 10SM BKN022 OVC065 09/06 A3012 RMK AO2 T00940061 TSNO=
201311090001 SPECI KCLM 090001Z AUTO 00000KT 10SM SCT024 OVC070 09/06 A3013 RMK AO2 T00940061 TSNO=
201311082353 METAR KCLM 082353Z AUTO 00000KT 10SM BKN024 BKN065 OVC080 09/06 A3013 RMK AO2 SLP203 T00940061 10117 20094 53003 TSNO=
201311082345 SPECI KCLM 082345Z AUTO 32003KT 10SM BKN025 BKN035 OVC075 09/06 A3013 RMK AO2 T00940061 TSNO=
201311082300 METAR KCLM NIL=
201311082153 METAR KCLM 082153Z AUTO 00000KT 10SM FEW045 FEW060 09/06 A3012 RMK AO2 SLP199 T00940056 TSNO=
201311082053 METAR KCLM 082053Z AUTO 00000KT 10SM SCT055 10/05 A3012 RMK AO2 SLP200 T01000050 50000 TSNO=
201311081953 METAR KCLM 081953Z AUTO 00000KT 10SM OVC050 10/07 A3012 RMK AO2 SLP199 T01000067 TSNO=
201311081853 METAR KCLM 081853Z AUTO 00000KT 10SM OVC055 11/06 A3013 RMK AO2 SLP202 T01110056 TSNO=
201311081753 METAR KCLM 081753Z AUTO 29004KT 10SM BKN049 OVC085 11/04 A3012 RMK AO2 SLP200 60000 T01060044 10106 20072 53017 TSNO=
201311081653 METAR KCLM 081653Z AUTO 26009KT 10SM CLR 08/04 A3010 RMK AO2 SLP194 T00830044 TSNO=
201311081553 METAR KCLM 081553Z AUTO 28011KT 10SM CLR 08/04 A3008 RMK AO2 SLP187 T00780039 TSNO=
201311081453 METAR KCLM 081453Z AUTO 25011KT 10SM CLR 07/04 A3007 RMK AO2 SLP184 60000 T00720039 51015 TSNO=
201311081353 METAR KCLM 081353Z AUTO 24009KT 10SM FEW050 08/03 A3006 RMK AO2 RAB24E39 SLP180 P0000 T00830033 TSNO=
201311081253 METAR KCLM 081253Z AUTO 26009KT 10SM CLR 08/04 A3005 RMK AO2 SLP175 T00830039 TSNO=
201311081153 METAR KCLM 081153Z AUTO 27011KT 10SM CLR 08/04 A3002 RMK AO2 SLP168 70041 T00830044 10100 20083 53014 TSNO=
201311081053 METAR KCLM 081053Z AUTO 28011KT 10SM CLR 09/04 A3001 RMK AO2 SLP162 T00940039 TSNO=
201311080953 METAR KCLM 080953Z AUTO 27017G24KT 10SM SCT050 09/04 A2999 RMK AO2 SLP157 T00940039 TSNO=
201311080853 METAR KCLM 080853Z AUTO 27013G20KT 10SM FEW050 09/04 A2998 RMK AO2 SLP154 T00940044 51021 TSNO=
201311080753 METAR KCLM 080753Z AUTO 24006KT 10SM CLR 09/05 A2997 RMK AO2 SLP149 T00890050 401170078 TSNO=
201311080653 METAR KCLM 080653Z AUTO 31007KT 10SM CLR 09/06 A2994 RMK AO2 SLP139 T00890056 TSNO=
201311080553 METAR KCLM 080553Z AUTO 29011KT 10SM FEW038 BKN070 OVC080 09/06 A2992 RMK AO2 SLP132 60005 T00940061 10094 20078 53035 TSNO=
201311080453 METAR KCLM 080453Z AUTO 27007KT 10SM SCT055 BKN100 08/07 A2988 RMK AO2 SLP118 T00830067 TSNO=
201311080353 METAR KCLM 080353Z AUTO 28011KT 10SM CLR 08/06 A2984 RMK AO2 SLP107 T00830061 TSNO=
201311080317 SPECI KCLM 080317Z AUTO 25009KT 10SM SCT030 08/06 A2983 RMK AO2 T00830061 TSNO=
201311080310 SPECI KCLM 080310Z AUTO 25008KT 10SM BKN029 BKN036 08/06 A2982 RMK AO2 T00830061 TSNO=
201311080253 METAR KCLM 080253Z AUTO 25008KT 10SM SCT029 BKN040 08/07 A2981 RMK AO2 RAE15 SLP096 P0000 60005 T00830067 53029 TSNO=
201311080222 SPECI KCLM 080222Z AUTO 26010KT 10SM SCT007 BKN016 OVC027 08/07 A2981 RMK AO2 RAE15 P0000 T00830072 TSNO=
201311080204 SPECI KCLM 080204Z AUTO 28009KT 10SM -RA BKN007 BKN040 OVC047 08/07 A2979 RMK AO2 P0000 T00830072 TSNO=
201311080201 SPECI KCLM 080201Z AUTO 27008KT 10SM -RA SCT007 BKN039 OVC047 08/07 A2979 RMK AO2 P0000 T00830072 TSNO=
201311080153 METAR KCLM 080153Z AUTO 26008KT 10SM -RA FEW017 BKN041 OVC047 08/07 A2978 RMK AO2 RAE18B41 SLP086 P0001 T00830072 TSNO=
201311080118 SPECI KCLM 080118Z AUTO 25008KT 10SM SCT007 BKN031 OVC044 08/07 A2975 RMK AO2 RAE18 PRESRR P0001 T00830067 TSNO=
201311080053 METAR KCLM 080053Z AUTO 25008KT 7SM -RA SCT007 BKN014 OVC048 08/07 A2973 RMK AO2 RAB12 SLP067 P0004 T00830067 TSNO=
201311072353 METAR KCLM 072353Z AUTO VRB04KT 10SM OVC060 09/06 A2966 RMK AO2 SLP044 60008 T00890061 10117 20089 53007 TSNO=
201311072253 METAR KCLM 072253Z AUTO 34003KT 10SM FEW060 SCT075 OVC100 10/08 A2963 RMK AO2 RAE16 SLP034 P0000 T01000078 TSNO=
201311072153 METAR KCLM 072153Z AUTO 27005KT 10SM -RA FEW003 BKN055 OVC065 09/08 A2962 RMK AO2 SLP032 P0003 T00940078 TSNO=
201311072126 SPECI KCLM 072126Z AUTO 00000KT 7SM -RA FEW005 BKN044 OVC055 10/09 A2963 RMK AO2 P0002 T01000089 TSNO=
201311072117 SPECI KCLM 072117Z AUTO 36003KT 7SM -RA SCT005 BKN012 OVC047 09/08 A2964 RMK AO2 P0001 T00940083 TSNO=
201311072053 METAR KCLM 072053Z AUTO 00000KT 10SM -RA BKN005 BKN050 OVC060 10/09 A2964 RMK AO2 SLP037 P0003 60005 T01000089 58001 TSNO=
201311072001 SPECI KCLM 072001Z AUTO 07006KT 10SM -RA BKN009 BKN013 OVC047 09/08 A2965 RMK AO2 P0000 T00940083 TSNO=
201311071953 METAR KCLM 071953Z AUTO 07005KT 10SM -RA BKN011 OVC050 09/08 A2966 RMK AO2 SLP044 P0002 T00940083 TSNO=
201311071944 SPECI KCLM 071944Z AUTO 09008KT 10SM -RA BKN011 BKN048 OVC055 09/08 A2967 RMK AO2 P0002 T00940078 TSNO=
201311071853 METAR KCLM 071853Z AUTO 12004KT 10SM -RA FEW011 OVC060 11/09 A2966 RMK AO2 RAB32 SLP045 P0000 T01060089 TSNO=
201311071753 METAR KCLM 071753Z AUTO VRB03KT 10SM FEW039 FEW055 10/08 A2964 RMK AO2 RAE27 SLP039 P0000 60028 T01000078 10100 20078 58011 TSNO=
201311071653 METAR KCLM 071653Z AUTO 28009KT 10SM -RA OVC065 09/08 A2968 RMK AO2 SLP051 P0001 T00940078 TSNO=
201311071553 METAR KCLM 071553Z AUTO 24003KT 10SM -RA FEW010 SCT040 OVC060 08/08 A2969 RMK AO2 SLP055 P0012 T00830078 TSNO=
201311071512 SPECI KCLM 071512Z AUTO 31012G16KT 4SM RA BR SCT002 BKN046 OVC055 08/07 A2968 RMK AO2 P0008 T00830072 TSNO=
201311071453 METAR KCLM 071453Z AUTO 28008KT 4SM -RA BR BKN002 OVC060 08/07 A2968 RMK AO2 PRESRR SLP050 P0007 60015 T00830072 56042 TSNO=
201311071439 SPECI KCLM 071439Z AUTO 00000KT 5SM -RA BR BKN002 BKN048 OVC065 08/07 A2966 RMK AO2 P0004 T00780072 TSNO=
201311071428 SPECI KCLM 071428Z AUTO 00000KT 2SM -RA BR BKN002 BKN050 OVC065 08/07 A2966 RMK AO2 P0004 T00830072 TSNO=
201311071414 SPECI KCLM 071414Z AUTO 00000KT 3SM -RA BR BKN003 OVC055 08/08 A2968 RMK AO2 P0003 T00830078 TSNO=
201311071353 METAR KCLM 071353Z AUTO 00000KT 6SM -RA BR FEW003 OVC065 08/07 A2969 RMK AO2 SLP054 P0003 T00830072 TSNO=
201311071330 SPECI KCLM 071330Z AUTO 01003KT 10SM -RA FEW006 BKN075 OVC095 08/07 A2970 RMK AO2 P0002 T00830072 TSNO=
201311071253 METAR KCLM 071253Z AUTO 00000KT 9SM -RA OVC065 08/07 A2974 RMK AO2 SLP073 P0005 T00830072 TSNO=
201311071210 SPECI KCLM 071210Z AUTO 30003KT 7SM -RA SCT005 OVC060 08/07 A2980 RMK AO2 P0001 T00830072 TSNO=
201311071153 METAR KCLM 071153Z AUTO 25003KT 9SM -RA BKN005 OVC065 08/08 A2980 RMK AO2 SLP093 P0002 60010 70010 T00830078 10083 20072 58025 TSNO=
201311071140 SPECI KCLM 071140Z AUTO 30004KT 10SM -RA OVC005 08/07 A2981 RMK AO2 P0001 T00830072 TSNO=
201311071053 METAR KCLM 071053Z AUTO 27004KT 5SM -RA BR OVC004 08/08 A2985 RMK AO2 SLP109 P0003 T00830078 TSNO=
201311071051 SPECI KCLM 071051Z AUTO 28005KT 5SM -RA BR OVC004 08/08 A2985 RMK AO2 CIG 003V007 P0003 TSNO=
201311071024 SPECI KCLM 071024Z AUTO 27009KT 10SM -RA BKN007 OVC060 08/07 A2986 RMK AO2 P0000 T00830072 TSNO=
201311070953 METAR KCLM 070953Z AUTO 24008KT 10SM -RA FEW009 OVC060 08/07 A2988 RMK AO2 RAB00 SLP118 P0001 T00830072 TSNO=
201311070853 METAR KCLM 070853Z AUTO 26009KT 10SM OVC065 08/07 A2992 RMK AO2 RAE44 SLP132 P0001 60004 T00780067 56033 TSNO=
201311070753 METAR KCLM 070753Z AUTO 26005KT 10SM -RA FEW014 BKN065 OVC090 08/07 A2995 RMK AO2 SLP141 P0000 T00780067 400890022 TSNO=
201311070653 METAR KCLM 070653Z AUTO 26004KT 5SM -RA BR FEW044 BKN070 OVC100 07/06 A2997 RMK AO2 RAB0554 SLP150 P0003 T00720061 TSNO=
201311070553 METAR KCLM 070553Z AUTO 00000KT 8SM FEW065 FEW080 OVC100 07/07 A3002 RMK AO2 RAE0456 SLP167 P0000 60000 T00720067 10089 20072 56032 TSNO=
201311070542 SPECI KCLM 070542Z AUTO 00000KT 7SM FEW016 BKN080 OVC100 08/07 A3003 RMK AO2 RAE0456 P0000 T00780067 TSNO=
201311070458 SPECI KCLM 070458Z AUTO 00000KT 10SM SCT012 OVC019 08/07 A3006 RMK AO2 RAE56 P0000 T00830067 TSNO=
201311070453 METAR KCLM 070453Z AUTO 14003KT 10SM -RA BKN010 OVC019 08/07 A3006 RMK AO2 RAB40 CIG 006V013 SLP182 P0000 T00830067 TSNO=
201311070353 METAR KCLM 070353Z AUTO 00000KT 10SM OVC007 08/07 A3011 RMK AO2 SLP199 T00830072 TSNO=
201311070253 METAR KCLM 070253Z AUTO 14003KT 10SM OVC008 08/07 A3016 RMK AO2 SLP214 T00830072 58020 TSNO=
201311070153 METAR KCLM 070153Z AUTO 11006KT 10SM OVC009 09/07 A3018 RMK AO2 CIG 006V011 SLP223 T00890072 TSNO=
201311070053 METAR KCLM 070053Z AUTO 10006KT 10SM OVC012 08/07 A3020 RMK AO2 SLP229 T00830067 TSNO=
201311062353 METAR KCLM 062353Z AUTO 08005KT 10SM OVC013 08/07 A3022 RMK AO2 RAB16E53 SLP234 P0000 60000 T00830067 10089 20083 56018 TSNO=
201311062253 METAR KCLM 062253Z AUTO 09006KT 10SM OVC011 08/07 A3023 RMK AO2 RAB27E37 SLP240 P0000 T00830067 TSNO=
201311062216 SPECI KCLM 062216Z AUTO 08004KT 10SM FEW006 OVC011 09/07 A3024 RMK AO2 T00890067 TSNO=
201311062153 METAR KCLM 062153Z AUTO 08004KT 10SM BKN006 OVC015 09/07 A3025 RMK AO2 SLP245 T00890067 TSNO=
201311062139 SPECI KCLM 062139Z AUTO 09004KT 10SM BKN007 BKN070 OVC080 08/07 A3025 RMK AO2 T00830067 TSNO=
201311062053 METAR KCLM 062053Z AUTO 09004KT 10SM FEW007 BKN075 OVC085 08/06 A3027 RMK AO2 SLP252 T00830061 58013 TSNO=
201311062031 SPECI KCLM 062031Z AUTO 08005KT 10SM SCT009 OVC080 08/06 A3027 RMK AO2 T00830061 TSNO=
201311061953 METAR KCLM 061953Z AUTO VRB05KT 10SM OVC009 08/06 A3029 RMK AO2 SLP257 T00830061 TSNO=
201311061935 SPECI KCLM 061935Z AUTO 08006KT 10SM OVC009 08/06 A3029 RMK AO2 T00830061 TSNO=
201311061907 SPECI KCLM 061907Z AUTO VRB04KT 10SM OVC011 08/06 A3030 RMK AO2 CIG 009V013 T00830056 TSNO=
201311061853 METAR KCLM 061853Z AUTO 10005KT 10SM OVC009 08/06 A3030 RMK AO2 SLP264 T00830056 TSNO=
201311061841 SPECI KCLM 061841Z AUTO 08005KT 10SM OVC009 08/06 A3031 RMK AO2 CIG 009V012 T00830061 TSNO=
201311061753 METAR KCLM 061753Z AUTO 11003KT 10SM OVC011 08/06 A3031 RMK AO2 CIG 008V012 SLP265 T00830061 10083 20028 50004 TSNO=
201311061653 METAR KCLM 061653Z AUTO 00000KT 10SM OVC013 07/06 A3031 RMK AO2 SLP266 T00670056 TSNO=
201311061646 SPECI KCLM 061646Z AUTO 00000KT 10SM BKN014 07/06 A3031 RMK AO2 T00670056 TSNO=
201311061618 SPECI KCLM 061618Z AUTO 00000KT 10SM FEW006 BKN120 06/04 A3031 RMK AO2 T00560044 TSNO=
201311061553 METAR KCLM 061553Z AUTO 00000KT 10SM BKN006 OVC010 06/04 A3030 RMK AO2 SLP263 T00560044 TSNO=
201311061453 METAR KCLM 061453Z AUTO 23004KT 10SM OVC007 05/04 A3029 RMK AO2 CIG 006V013 SLP261 T00500039 51006 TSNO=
201311061412 SPECI KCLM 061412Z AUTO 21003KT 10SM OVC006 04/03 A3029 RMK AO2 CIG 004V009 T00440033 TSNO=
201311061353 METAR KCLM 061353Z AUTO 22004KT 10SM BKN003 04/03 A3029 RMK AO2 CIG 002V006 SLP260 T00390028 TSNO=
201311061315 SPECI KCLM 061315Z AUTO 00000KT 10SM OVC004 04/03 A3028 RMK AO2 T00390028 TSNO=
201311061253 METAR KCLM 061253Z AUTO 22004KT 10SM OVC006 03/03 A3028 RMK AO2 SLP256 T00330028 TSNO=
201311061208 SPECI KCLM 061208Z AUTO 00000KT 10SM BKN005 03/02 A3028 RMK AO2 T00280017 TSNO=
201311061153 METAR KCLM 061153Z AUTO 22003KT 10SM FEW006 04/03 A3028 RMK AO2 SLP254 T00390028 10067 20022 51004 TSNO=
201311061053 METAR KCLM 061053Z AUTO 00000KT 10SM BKN055 04/03 A3028 RMK AO2 SLP254 T00390028 TSNO=
201311060953 METAR KCLM 060953Z AUTO 22004KT 10SM OVC055 04/03 A3028 RMK AO2 SLP256 T00440033 TSNO=
201311060853 METAR KCLM 060853Z AUTO 22003KT 10SM BKN055 03/02 A3027 RMK AO2 SLP251 T00280022 51014 TSNO=
201311060753 METAR KCLM 060753Z AUTO VRB03KT 10SM FEW050 04/03 A3026 RMK AO2 SLP248 T00390028 400890033 TSNO=
201311060653 METAR KCLM 060653Z AUTO 23006KT 10SM CLR 05/03 A3024 RMK AO2 SLP242 T00500033 TSNO=
201311060553 METAR KCLM 060553Z AUTO 25006KT 10SM FEW060 05/04 A3022 RMK AO2 SLP237 T00500039 10078 20050 53013 TSNO=
201311060453 METAR KCLM 060453Z AUTO 23005KT 10SM FEW060 06/04 A3021 RMK AO2 SLP231 T00610044 TSNO=
201311060353 METAR KCLM 060353Z AUTO 27004KT 10SM OVC065 07/06 A3019 RMK AO2 SLP227 T00670056 TSNO=
201311060253 METAR KCLM 060253Z AUTO 25004KT 10SM SCT008 OVC065 07/06 A3019 RMK AO2 SLP224 T00720061 51022 TSNO=
201311060226 SPECI KCLM 060226Z AUTO 28005KT 10SM BKN009 OVC065 07/06 A3018 RMK AO2 T00720061 TSNO=
201311060208 SPECI KCLM 060208Z AUTO 27004KT 10SM FEW009 OVC070 07/06 A3017 RMK AO2 T00720056 TSNO=
201311060153 METAR KCLM 060153Z AUTO 27004KT 10SM OVC065 07/06 A3017 RMK AO2 SLP219 T00720056 TSNO=
201311060053 METAR KCLM 060053Z AUTO 25003KT 10SM SCT011 OVC060 08/06 A3015 RMK AO2 SLP210 T00780061 TSNO=
201311052353 METAR KCLM 052353Z AUTO 00000KT 10SM OVC060 08/06 A3012 RMK AO2 SLP202 60000 T00780061 10089 20061 51017 TSNO=
201311052253 METAR KCLM 052253Z AUTO 02004KT 10SM BKN050 OVC065 08/06 A3011 RMK AO2 RAB25E52 SLP197 P0000 T00780061 TSNO=
201311052153 METAR KCLM 052153Z AUTO 00000KT 10SM OVC060 08/06 A3009 RMK AO2 SLP192 T00830056 TSNO=
201311052053 METAR KCLM 052053Z AUTO 11005KT 10SM FEW008 FEW015 OVC060 09/06 A3007 RMK AO2 SLP185 T00890061 51003 TSNO=
201311052049 SPECI KCLM 052049Z AUTO 12007KT 10SM FEW009 SCT015 OVC060 09/06 A3007 RMK AO2 TSNO=
201311052040 SPECI KCLM 052040Z AUTO 13007KT 10SM SCT009 BKN015 OVC055 08/06 A3007 RMK AO2 T00830061 TSNO=
201311051953 METAR KCLM 051953Z AUTO 04003KT 10SM OVC008 08/06 A3008 RMK AO2 CIG 005V011 SLP188 T00780056 TSNO=
201311051915 SPECI KCLM 051915Z AUTO 10004KT 10SM OVC006 08/06 A3006 RMK AO2 CIG 004V010 T00780056 TSNO=
201311051853 METAR KCLM 051853Z AUTO 12003KT 10SM OVC004 07/06 A3006 RMK AO2 SLP182 T00670056 TSNO=
201311051753 METAR KCLM 051753Z AUTO VRB05KT 10SM OVC004 07/05 A3007 RMK AO2 SLP184 T00670050 10067 20061 51012 TSNO=
201311051653 METAR KCLM 051653Z AUTO 10SM OVC003 06/05 A3007 RMK AO2 SLP184 T00610050 TSNO=
201311051553 METAR KCLM 051553Z AUTO VRB04KT 10SM OVC002 06/05 A3005 RMK AO2 SLP178 T00610050 TSNO=
201311051453 METAR KCLM 051453Z AUTO 08003KT 9SM OVC002 06/06 A3003 RMK AO2 SLP172 T00610056 53003 TSNO=
201311051353 METAR KCLM 051353Z AUTO VRB04KT 10SM OVC003 06/05 A3003 RMK AO2 SLP169 T00610050 TSNO=
201311051253 METAR KCLM 051253Z AUTO 00000KT 10SM OVC004 06/05 A3002 RMK AO2 SLP168 T00610050 TSNO=
201311051153 METAR KCLM 051153Z AUTO VRB03KT 10SM OVC004 07/05 A3003 RMK AO2 SLP169 60000 T00670050 10072 20061 50004 TSNO=
201311051129 SPECI KCLM 051129Z AUTO 27004KT 10SM OVC005 07/06 A3003 RMK AO2 T00670056 TSNO=
201311051053 METAR KCLM 051053Z AUTO VRB06G14KT 10SM BKN004 OVC011 07/05 A3003 RMK AO2 SLP171 T00670050 TSNO=
201311051044 SPECI KCLM 051044Z AUTO 34007G19KT 10SM BKN005 OVC011 07/05 A3003 RMK AO2 T00670050 TSNO=
201311051036 SPECI KCLM 051036Z AUTO 36008KT 320V070 10SM SCT005 OVC011 07/05 A3003 RMK AO2 T00670050 TSNO=
201311051026 SPECI KCLM 051026Z AUTO VRB03KT 10SM BKN011 OVC017 07/05 A3002 RMK AO2 T00720050 TSNO=
201311051015 SPECI KCLM 051015Z AUTO 26005KT 10SM FEW011 BKN016 OVC060 07/04 A3002 RMK AO2 T00670044 TSNO=
201311050953 METAR KCLM 050953Z AUTO 25005KT 10SM SCT030 BKN055 BKN080 06/04 A3001 RMK AO2 SLP165 T00610039 TSNO=
201311050853 METAR KCLM 050853Z AUTO 26005KT 10SM OVC055 07/04 A3001 RMK AO2 SLP165 60000 T00670039 55005 TSNO=
201311050753 METAR KCLM 050753Z AUTO 25005KT 10SM OVC060 06/04 A3001 RMK AO2 SLP163 T00610039 400830000 TSNO=
201311050653 METAR KCLM 050653Z AUTO 25005KT 10SM OVC065 06/04 A3001 RMK AO2 RAB11E37 SLP165 P0000 T00610039 TSNO=
201311050553 METAR KCLM 050553Z AUTO 25004KT 10SM BKN070 OVC090 06/04 A3003 RMK AO2 SLP170 60000 T00610044 10083 20056 56015 TSNO=
201311050453 METAR KCLM 050453Z AUTO 00000KT 10SM BKN065 OVC090 06/04 A3003 RMK AO2 SLP172 T00610044 TSNO=
201311050353 METAR KCLM 050353Z AUTO 00000KT 10SM BKN060 OVC070 06/05 A3005 RMK AO2 SLP177 T00610050 TSNO=
201311050253 METAR KCLM 050253Z AUTO 00000KT 10SM OVC065 07/04 A3007 RMK AO2 RAB42E52 SLP186 P0000 60000 T00670044 58016 TSNO=
201311050153 METAR KCLM 050153Z AUTO 17003KT 10SM BKN055 OVC070 07/04 A3009 RMK AO2 SLP191 T00670044 TSNO=
201311050053 METAR KCLM 050053Z AUTO 21003KT 10SM BKN070 OVC090 07/04 A3012 RMK AO2 SLP201 T00720044 TSNO=
201311050023 SPECI KCLM 050023Z AUTO 00000KT 10SM SCT020 SCT055 OVC075 08/04 A3012 RMK AO2 T00780044 TSNO=
201311042353 METAR KCLM 042353Z AUTO 00000KT 10SM BKN019 OVC070 08/04 A3012 RMK AO2 SLP202 T00780039 10083 20067 56005 TSNO=
201311042305 SPECI KCLM 042305Z AUTO VRB03KT 10SM BKN018 OVC090 08/04 A3013 RMK AO2 T00830039 TSNO=
201311042253 METAR KCLM 042253Z AUTO 10004KT 10SM SCT018 OVC090 08/04 A3013 RMK AO2 SLP204 T00830039 TSNO=
201311042153 METAR KCLM 042153Z AUTO 09005KT 10SM OVC095 08/04 A3012 RMK AO2 SLP202 T00780039 TSNO=
201311042053 METAR KCLM 042053Z AUTO 08007KT 10SM FEW009 BKN100 07/04 A3014 RMK AO2 SLP207 T00720039 58009 TSNO=
201311042026 SPECI KCLM 042026Z AUTO 06004KT 10SM SCT008 SCT110 07/04 A3015 RMK AO2 T00720044 TSNO=
201311042012 SPECI KCLM 042012Z AUTO 10006KT 10SM BKN008 07/04 A3015 RMK AO2 T00720044 TSNO=
201311041953 METAR KCLM 041953Z AUTO 09006KT 10SM SCT009 BKN120 07/04 A3016 RMK AO2 SLP216 T00720044 TSNO=
201311041939 SPECI KCLM 041939Z AUTO 10005KT 10SM FEW009 SCT120 07/04 A3017 RMK AO2 T00720044 TSNO=
201311041853 METAR KCLM 041853Z AUTO 09007KT 10SM CLR 07/02 A3018 RMK AO2 SLP220 T00720022 TSNO=
201311041753 METAR KCLM 041753Z AUTO VRB03KT 10SM SCT019 08/03 A3016 RMK AO2 SLP216 T00780028 10078 20000 51006 TSNO=
201311041707 SPECI KCLM 041707Z AUTO 00000KT 10SM SCT015 07/02 A3016 RMK AO2 T00670017 TSNO=
201311041653 METAR KCLM 041653Z AUTO 00000KT 10SM BKN015 BKN022 BKN026 06/02 A3016 RMK AO2 SLP214 T00610017 TSNO=
201311041553 METAR KCLM 041553Z AUTO 00000KT 10SM OVC020 03/01 A3015 RMK AO2 SLP213 T00330011 TSNO=
201311041520 SPECI KCLM 041520Z AUTO 24006KT 10SM BKN012 OVC018 03/00 A3015 RMK AO2 T00280000 TSNO=
201311041453 METAR KCLM 041453Z AUTO 22004KT 10SM OVC017 03/00 A3014 RMK AO2 SLP210 T00280000 50003 TSNO=
201311041353 METAR KCLM 041353Z AUTO 23007KT 10SM OVC019 02/M01 A3015 RMK AO2 SLP211 T00221006 TSNO=
201311041331 SPECI KCLM 041331Z AUTO 00000KT 10SM BKN017 01/M01 A3015 RMK AO2 T00111006 TSNO=
201311041253 METAR KCLM 041253Z AUTO 23008KT 10SM CLR 02/M01 A3015 RMK AO2 SLP210 T00171011 TSNO=
201311041153 METAR KCLM 041153Z AUTO 23005KT 10SM CLR 01/M01 A3014 RMK AO2 SLP207 60000 T00111011 10039 20000 51009 TSNO=
201311041053 METAR KCLM 041053Z AUTO 22005KT 10SM FEW060 02/M01 A3013 RMK AO2 SNE03 SLP203 P0000 T00221006 TSNO=
201311040953 METAR KCLM 040953Z AUTO 24006KT 10SM -SN FEW060 03/M01 A3012 RMK AO2 SNE27B53 SLP202 P0000 T00281006 TSNO=
201311040853 METAR KCLM 040853Z AUTO 24008KT 9SM -SN CLR 03/00 A3011 RMK AO2 SLP198 P0000 60000 T00330000 53002 TSNO=
201311040753 METAR KCLM 040753Z AUTO 26008KT 9SM -SN CLR 03/00 A3011 RMK AO2 SNB24 SLP197 P0000 T00330000 401000028 TSNO=
201311040653 METAR KCLM 040653Z AUTO 25008KT 10SM CLR 03/01 A3009 RMK AO2 SLP193 T00330006 TSNO=
201311040553 METAR KCLM 040553Z AUTO 24008KT 10SM OVC060 04/01 A3010 RMK AO2 SLP195 T00390011 10083 20028 53005 TSNO=
201311040453 METAR KCLM 040453Z AUTO 24006KT 10SM CLR 03/01 A3009 RMK AO2 SLP191 T00330011 TSNO=
201311040353 METAR KCLM 040353Z AUTO 22006KT 10SM CLR 04/02 A3009 RMK AO2 SLP190 T00390017 TSNO=
201311040253 METAR KCLM 040253Z AUTO 25007KT 10SM FEW037 SCT049 05/02 A3009 RMK AO2 SLP191 T00500022 53009 TSNO=
201311040153 METAR KCLM 040153Z AUTO 23005KT 10SM OVC037 06/04 A3007 RMK AO2 SLP185 T00610039 TSNO=
201311040053 METAR KCLM 040053Z AUTO 00000KT 10SM BKN049 06/04 A3007 RMK AO2 SLP183 T00560039 TSNO=
201311032353 METAR KCLM 032353Z AUTO 00000KT 10SM CLR 08/04 A3006 RMK AO2 SLP181 60000 T00830039 10100 20078 51006 TSNO=
201311032253 METAR KCLM 032253Z AUTO 00000KT 10SM SCT060 10/03 A3006 RMK AO2 SLP181 T01000028 TSNO=
201311032153 METAR KCLM 032153Z AUTO 04004KT 10SM FEW034 08/03 A3005 RMK AO2 SLP179 T00830033 TSNO=
201311032053 METAR KCLM 032053Z AUTO 35004KT 10SM CLR 09/03 A3004 RMK AO2 SLP175 60000 T00940033 50003 TSNO=
201311031953 METAR KCLM 031953Z AUTO VRB04KT 10SM CLR 09/03 A3005 RMK AO2 SLP176 T00890028 TSNO=
201311031853 METAR KCLM 031853Z AUTO VRB04KT 10SM CLR 09/03 A3005 RMK AO2 RAB1754E04 SLP175 P0000 T00940028 TSNO=
201311031753 METAR KCLM 031753Z AUTO 25007KT 10SM CLR 08/02 A3003 RMK AO2 RAE1658B31E40 SLP172 P0000 60000 T00780017 10078 20039 53013 TSNO=
201311031653 METAR KCLM 031653Z AUTO 24007KT 10SM -RA CLR 07/01 A3002 RMK AO2 RAE13B51 SLP167 P0000 T00670011 TSNO=
201311031553 METAR KCLM 031553Z AUTO 25007KT 10SM -RA CLR 04/01 A3001 RMK AO2 SLP163 P0000 T00440006 TSNO=
201311031453 METAR KCLM 031453Z AUTO 28010KT 10SM -RA CLR 04/01 A2999 RMK AO2 RAE33B51 SLP159 P0000 60000 T00440006 53013 TSNO=
201311031353 METAR KCLM 031353Z AUTO 26011KT 10SM -RA CLR 05/01 A2998 RMK AO2 SLP154 P0000 T00500006 TSNO=
201311031253 METAR KCLM 031253Z AUTO 25012KT 10SM -RA CLR 05/01 A2996 RMK AO2 SLP148 P0000 T00500011 TSNO=
201311031153 METAR KCLM 031153Z AUTO 25012KT 10SM -RA CLR 05/01 A2996 RMK AO2 SLP145 P0000 60000 70032 T00500011 10078 20044 51013 TSNO=
201311031053 METAR KCLM 031053Z AUTO 25013KT 10SM -RA CLR 06/02 A2994 RMK AO2 SLP141 P0000 T00560017 TSNO=
201311030953 METAR KCLM 030953Z AUTO 26011KT 10SM -RA CLR 06/02 A2993 RMK AO2 SLP138 P0000 T00560017 TSNO=
201311030853 METAR KCLM 030853Z AUTO 25011KT 10SM -RA CLR 06/02 A2992 RMK AO2 SLP133 P0000 60000 T00610022 53020 TSNO=
201311030753 METAR KCLM 030753Z AUTO 25011KT 10SM -RA CLR 06/02 A2990 RMK AO2 SLP125 P0000 T00610022 401000061 TSNO=
201311030653 METAR KCLM 030653Z AUTO 26010KT 10SM -RA CLR 07/02 A2987 RMK AO2 SLP117 P0000 T00720022 TSNO=
201311030553 METAR KCLM 030553Z AUTO 25011KT 10SM -RA FEW085 08/02 A2986 RMK AO2 SLP112 P0000 60000 T00780022 10094 20078 53016 TSNO=
201311030453 METAR KCLM 030453Z AUTO 25012G18KT 10SM -RA OVC090 08/03 A2984 RMK AO2 SLP105 P0000 T00830028 TSNO=
201311030353 METAR KCLM 030353Z AUTO 25013KT 10SM -RA BKN090 08/03 A2982 RMK AO2 SLP098 P0000 T00780028 TSNO=
201311030253 METAR KCLM 030253Z AUTO 26013G21KT 10SM -RA CLR 08/03 A2981 RMK AO2 SLP096 P0000 60000 T00830028 53015 TSNO=
201311030153 METAR KCLM 030153Z AUTO 26016G21KT 10SM -RA BKN070 08/03 A2979 RMK AO2 SLP090 P0000 T00830033 TSNO=
201311030053 METAR KCLM 030053Z AUTO 27016G21KT 10SM -RA BKN050 OVC065 09/04 A2978 RMK AO2 SLP086 P0000 T00890039 TSNO=
201311022353 METAR KCLM 022353Z AUTO 26014G30KT 10SM -RA FEW044 OVC055 09/04 A2977 RMK AO2 PK WND 27030/2344 SLP081 P0000 60019 T00940039 10094 20072 51040 TSNO=
201311022253 METAR KCLM 022253Z AUTO 27016G27KT 10SM -RA SCT042 OVC050 09/03 A2974 RMK AO2 PK WND 29029/2239 SLP070 P0000 T00940033 TSNO=
201311022153 METAR KCLM 022153Z AUTO 28015G27KT 10SM -RA BKN040 OVC047 09/04 A2969 RMK AO2 PK WND 28031/2130 SLP055 P0000 T00890044 TSNO=
201311022053 METAR KCLM 022053Z AUTO 27020G33KT 10SM -RA OVC046 09/04 A2965 RMK AO2 PK WND 27033/2048 SLP040 P0002 60019 T00940044 51051 TSNO=
201311021953 METAR KCLM 021953Z AUTO 27019G28KT 10SM -RA BKN035 OVC045 08/05 A2962 RMK AO2 PK WND 27034/1936 SLP031 P0008 T00780050 TSNO=
201311021853 METAR KCLM 021853Z AUTO 27018G25KT 7SM RA OVC031 07/04 A2959 RMK AO2 PK WND 28031/1837 SLP020 P0009 T00720039 TSNO=
201311021753 METAR KCLM 021753Z AUTO 31009KT 7SM -RA FEW009 FEW021 OVC039 09/07 A2950 RMK AO2 SLP988 P0010 60013 T00890067 10100 20078 53047 TSNO=
201311021742 SPECI KCLM 021742Z AUTO 31012G24KT 3SM RA BR FEW006 SCT024 OVC037 08/07 A2949 RMK AO2 P0008 T00830072 TSNO=
201311021731 SPECI KCLM 021731Z AUTO 28014G21KT 6SM -RA BR FEW014 BKN026 OVC044 10/09 A2947 RMK AO2 PRESRR P0003 T01000089 TSNO=
201311021653 METAR KCLM 021653Z AUTO 33007KT 10SM -RA FEW026 SCT043 OVC055 10/09 A2941 RMK AO2 RAE00B29 PRESRR SLP960 P0000 T01000089 TSNO=
201311021638 SPECI KCLM 021638Z AUTO 31008KT 10SM -RA FEW007 BKN060 OVC080 10/09 A2939 RMK AO2 RAE00B29 PRESRR P0000 T01000089 TSNO=
201311021553 METAR KCLM 021553Z AUTO 29009KT 10SM -RA SCT060 BKN075 OVC100 09/08 A2935 RMK AO2 SLP940 P0002 T00890078 TSNO=
201311021506 SPECI KCLM 021506Z AUTO 27009KT 10SM -RA FEW002 BKN031 OVC050 09/08 A2935 RMK AO2 P0001 T00890078 TSNO=
201311021500 SPECI KCLM 021500Z AUTO 27010KT 3SM -RA BR FEW002 BKN010 OVC055 08/08 A2935 RMK AO2 P0001 T00830078 TSNO=
201311021458 SPECI KCLM 021458Z AUTO 26011KT 2SM -RA BR BKN002 OVC055 08/08 A2935 RMK AO2 P0001 T00830078 TSNO=
201311021453 METAR KCLM 021453Z AUTO 25009KT 3/4SM -RA BR VV002 08/08 A2936 RMK AO2 RAB16 SLP941 P0001 60001 T00830078 56035 TSNO=
201311021450 SPECI KCLM 021450Z AUTO 26009KT 1/2SM -RA FG VV002 08/08 A2936 RMK AO2 RAB16 P0001 TSNO=
201311021442 SPECI KCLM 021442Z AUTO 28009KT 1/4SM -RA FG VV002 08/08 A2936 RMK AO2 RAB16 P0001 T00830078 TSNO=
201311021353 METAR KCLM 021353Z AUTO 00000KT 1/4SM FG VV001 08/08 A2940 RMK AO2 PRESFR SLP955 T00830078 TSNO=
201311021331 SPECI KCLM 021331Z AUTO 00000KT 1/4SM FG VV001 09/08 A2942 RMK AO2 T00890083 TSNO=
201311021300 SPECI KCLM 021300Z AUTO 00000KT 3/4SM BR VV003 08/08 A2946 RMK AO2 T00830078 TSNO=
201311021258 SPECI KCLM 021258Z AUTO 00000KT 1 1/2SM BR FEW003 08/08 A2946 RMK AO2 T00830078 TSNO=
201311021253 METAR KCLM 021253Z AUTO 00000KT 4SM BR SCT003 08/08 A2946 RMK AO2 PRESFR SLP976 T00830078 TSNO=
201311021233 SPECI KCLM 021233Z AUTO 13003KT 3SM BR BKN001 OVC007 09/09 A2948 RMK AO2 T00940089 TSNO=
201311021228 SPECI KCLM 021228Z AUTO 18005KT 1 1/4SM BR OVC001 09/09 A2949 RMK AO2 T00940089 TSNO=
201311021213 SPECI KCLM 021213Z AUTO 00000KT 1/4SM FG VV001 09/09 A2950 RMK AO2 T00940089 TSNO=
201311021153 METAR KCLM 021153Z AUTO 13003KT 3/4SM BR VV002 09/09 A2953 RMK AO2 RAE26 SLP999 P0003 60012 70014 T00940089 10100 20094 58055 TSNO=
201311021141 SPECI KCLM 021141Z AUTO 10003KT 1/2SM FG VV002 09/09 A2953 RMK AO2 RAE26 P0003 T00940089 TSNO=
201311021133 SPECI KCLM 021133Z AUTO 12005KT 1SM BR OVC002 09/09 A2954 RMK AO2 RAE26 P0003 T00940089 TSNO=
201311021121 SPECI KCLM 021121Z AUTO 12005KT 2 1/2SM -RA BR OVC002 09/09 A2955 RMK AO2 P0003 T00940089 TSNO=
201311021109 SPECI KCLM 021109Z AUTO 12008KT 1 1/4SM -RA BR OVC002 09/08 A2955 RMK AO2 PRESFR P0003 T00940083 TSNO=
201311021053 METAR KCLM 021053Z AUTO 00000KT 2 1/2SM -RA BR OVC003 09/09 A2961 RMK AO2 RAB18 SLP029 P0005 T00940089 TSNO=
201311021045 SPECI KCLM 021045Z AUTO 00000KT 1 1/2SM -RA BR OVC003 09/09 A2962 RMK AO2 RAB18 P0005 T00940089 TSNO=
201311021035 SPECI KCLM 021035Z AUTO 00000KT 1/2SM -RA FG VV003 09/09 A2962 RMK AO2 RAB18 P0004 T00940089 TSNO=
201311021024 SPECI KCLM 021024Z AUTO 00000KT 1/4SM -RA FG VV003 09/09 A2962 RMK AO2 RAB18 P0003 T00940094 TSNO=
201311020953 METAR KCLM 020953Z AUTO 32003KT 1/2SM FG VV004 09/08 A2966 RMK AO2 RAE00 SLP044 P0000 T00940083 TSNO=
201311020936 SPECI KCLM 020936Z AUTO 00000KT 3/4SM BR VV003 09/09 A2966 RMK AO2 RAE00 P0000 T00940089 TSNO=
201311020914 SPECI KCLM 020914Z AUTO 16004KT 1 1/2SM BR OVC002 09/09 A2967 RMK AO2 RAE00 P0000 T00940089 TSNO=
201311020904 SPECI KCLM 020904Z AUTO 00000KT 2SM BR OVC002 09/09 A2968 RMK AO2 RAE00 P0000 T00940089 TSNO=
201311020853 METAR KCLM 020853Z AUTO 00000KT 3SM -RA BR OVC003 09/09 A2969 RMK AO2 PRESFR SLP055 P0002 60004 T00940089 58045 TSNO=
201311020753 METAR KCLM 020753Z AUTO 24004KT 6SM -RA BR OVC004 09/09 A2975 RMK AO2 RAB29E41B51 SLP074 P0000 T00940089 401280089 TSNO=
201311020745 SPECI KCLM 020745Z AUTO 26004KT 6SM BR OVC004 09/09 A2975 RMK AO2 RAB29E41 P0000 T00940089 TSNO=
201311020653 METAR KCLM 020653Z AUTO 15006KT 10SM OVC006 10/09 A2978 RMK AO2 RAB00E31 SLP085 P0002 T01000089 TSNO=
201311020622 SPECI KCLM 020622Z AUTO 08005KT 9SM -RA OVC008 10/08 A2979 RMK AO2 RAB00 PRESFR P0002 T01000083 TSNO=
201311020553 METAR KCLM 020553Z AUTO 16006KT 10SM OVC011 09/09 A2982 RMK AO2 RAB0459E33B38E49 SLP100 P0001 60002 T00940089 10117 20089 58037 TSNO=
201311020535 SPECI KCLM 020535Z AUTO 17003KT 10SM BKN011 OVC085 10/09 A2985 RMK AO2 RAB0459E33 P0001 T01000089 TSNO=
201311020514 SPECI KCLM 020514Z AUTO 06004KT 8SM -RA BKN006 BKN085 09/09 A2985 RMK AO2 RAB0459 P0001 T00940089 TSNO=
201311020453 METAR KCLM 020453Z AUTO 16007KT 8SM OVC002 09/08 A2988 RMK AO2 RAB33E50 CIG 002V006 PRESFR SLP117 P0001 T00940083 TSNO=
201311020413 SPECI KCLM 020413Z AUTO 27005KT 3SM BR OVC002 09/09 A2991 RMK AO2 T00940089 TSNO=
201311020405 SPECI KCLM 020405Z AUTO 29004KT 2SM BR OVC002 09/09 A2992 RMK AO2 T00940089 TSNO=
201311020353 METAR KCLM 020353Z AUTO 29005KT 1/2SM FG VV002 09/09 A2992 RMK AO2 RAB13E23B39E50 SLP133 P0000 T00940089 TSNO=
201311020344 SPECI KCLM 020344Z AUTO 00000KT 1 1/2SM -RA BR OVC002 09/09 A2992 RMK AO2 RAB13E23B39 P0000 T00940089 TSNO=
201311020253 METAR KCLM 020253Z AUTO 00000KT 10SM BKN004 OVC012 10/09 A2993 RMK AO2 SLP137 T01000089 56029 TSNO=
201311020246 SPECI KCLM 020246Z AUTO 00000KT 10SM SCT004 OVC012 10/09 A2994 RMK AO2 T01000089 TSNO=
201311020217 SPECI KCLM 020217Z AUTO 12004KT 10SM OVC014 10/08 A2995 RMK AO2 T01000083 TSNO=
201311020153 METAR KCLM 020153Z AUTO 12004KT 10SM BKN017 09/08 A2997 RMK AO2 SLP150 T00940083 TSNO=
201311020149 SPECI KCLM 020149Z AUTO 11005KT 10SM BKN017 09/08 A2997 RMK AO2 TSNO=
201311020053 METAR KCLM 020053Z AUTO 00000KT 10SM OVC080 10/08 A3002 RMK AO2 SLP167 T01000078 TSNO=
201311012353 METAR KCLM 012353Z AUTO 08004KT 10SM FEW014 OVC090 12/08 A3006 RMK AO2 SLP178 T01170083 10128 20111 56031 TSNO=
201311012253 METAR KCLM 012253Z AUTO 13006KT 10SM OVC080 12/09 A3008 RMK AO2 SLP185 T01220089 TSNO=
201311012235 SPECI KCLM 012235Z AUTO 14007KT 10SM SCT019 OVC080 12/08 A3009 RMK AO2 PRESFR T01220083 TSNO=
201311012153 METAR KCLM 012153Z AUTO 10003KT 10SM FEW011 OVC017 12/08 A3013 RMK AO2 SLP203 T01170083 TSNO=
201311012053 METAR KCLM 012053Z AUTO 00000KT 10SM BKN015 OVC021 12/09 A3015 RMK AO2 SLP210 T01170089 58019 TSNO=
201311012028 SPECI KCLM 012028Z AUTO 00000KT 10SM OVC015 11/09 A3017 RMK AO2 T01110089 TSNO=
201311011953 METAR KCLM 011953Z AUTO 00000KT 10SM FEW009 OVC014 11/09 A3019 RMK AO2 SLP226 T01110089 TSNO=
201311011951 SPECI KCLM 011951Z AUTO 00000KT 10SM FEW009 OVC014 11/09 A3020 RMK AO2 TSNO=
201311011936 SPECI KCLM 011936Z AUTO VRB03KT 10SM FEW009 OVC015 11/09 A3020 RMK AO2 T01110089 TSNO=
201311011853 METAR KCLM 011853Z AUTO 00000KT 10SM FEW008 OVC014 11/09 A3021 RMK AO2 SLP230 T01110089 TSNO=
201311011753 METAR KCLM 011753Z AUTO 00000KT 10SM OVC012 11/09 A3021 RMK AO2 SLP231 T01110089 10111 20089 58004 TSNO=
201311011716 SPECI KCLM 011716Z AUTO 24003KT 10SM OVC010 11/08 A3022 RMK AO2 T01060083 TSNO=
201311011653 METAR KCLM 011653Z AUTO 25003KT 10SM OVC009 10/09 A3023 RMK AO2 SLP236 T01000089 TSNO=
201311011553 METAR KCLM 011553Z AUTO 23003KT 10SM OVC008 09/09 A3023 RMK AO2 CIG 006V010 SLP238 T00940089 TSNO=
201311011536 SPECI KCLM 011536Z AUTO 00000KT 10SM BKN006 BKN010 OVC015 09/08 A3022 RMK AO2 T00940083 TSNO=
201311011526 SPECI KCLM 011526Z AUTO 00000KT 10SM SCT006 OVC015 09/08 A3022 RMK AO2 T00940083 TSNO=
201311011453 METAR KCLM 011453Z AUTO 25003KT 10SM OVC015 09/08 A3022 RMK AO2 SLP235 T00940083 55009 TSNO=
201311011431 SPECI KCLM 011431Z AUTO 26003KT 10SM BKN015 OVC110 09/09 A3022 RMK AO2 T00940089 TSNO=
201311011353 METAR KCLM 011353Z AUTO 00000KT 10SM SCT016 OVC100 09/09 A3022 RMK AO2 SLP235 T00940089 TSNO=
201311011253 METAR KCLM 011253Z AUTO 00000KT 10SM BKN018 OVC100 10/09 A3024 RMK AO2 SLP241 T01000089 TSNO=
201311011153 METAR KCLM 011153Z AUTO 24004KT 10SM OVC017 11/09 A3025 RMK AO2 SLP245 70001 T01060094 10111 20100 56004 TSNO=
201311011053 METAR KCLM 011053Z AUTO 27003KT 10SM OVC015 11/09 A3026 RMK AO2 SLP247 T01060094 TSNO=
201311011046 SPECI KCLM 011046Z AUTO 28004KT 10SM OVC015 11/09 A3026 RMK AO2 T01060094 TSNO=
201311011003 SPECI KCLM 011003Z AUTO 00000KT 9SM SCT008 OVC013 11/09 A3026 RMK AO2 T01060094 TSNO=
201311010953 METAR KCLM 010953Z AUTO 00000KT 10SM BKN009 OVC014 11/09 A3025 RMK AO2 CIG 006V011 SLP246 T01060094 TSNO=
201311010853 METAR KCLM 010853Z AUTO 24003KT 10SM OVC009 11/09 A3026 RMK AO2 CIG 007V012 SLP249 T01060094 51004 TSNO=
201311010822 SPECI KCLM 010822Z AUTO 27004KT 10SM BKN009 OVC014 11/09 A3026 RMK AO2 T01060094 TSNO=
201311010753 METAR KCLM 010753Z AUTO 26004KT 10SM OVC014 11/09 A3026 RMK AO2 SLP248 T01110094 401330072 TSNO=
201311010653 METAR KCLM 010653Z AUTO 26003KT 10SM OVC013 11/09 A3025 RMK AO2 SLP246 T01110089 TSNO=
201311010553 METAR KCLM 010553Z AUTO 00000KT 10SM OVC013 11/09 A3025 RMK AO2 SLP244 T01110089 10117 20111 51007 TSNO=
201311010453 METAR KCLM 010453Z AUTO 26004KT 10SM OVC013 11/09 A3024 RMK AO2 SLP242 T01110094 TSNO=
201311010400 SPECI KCLM 010400Z AUTO 25004KT 10SM BKN014 OVC019 11/09 A3024 RMK AO2 T01110094 TSNO=
201311010353 METAR KCLM 010353Z AUTO 00000KT 10SM OVC016 11/09 A3024 RMK AO2 SLP240 T01110094 TSNO=
201311010253 METAR KCLM 010253Z AUTO 26003KT 10SM OVC013 11/09 A3023 RMK AO2 SLP237 T01110094 53008 TSNO=
201311010153 METAR KCLM 010153Z AUTO 30005KT 10SM OVC013 12/09 A3022 RMK AO2 SLP233 T01170094 TSNO=
201311010053 METAR KCLM 010053Z AUTO VRB03KT 10SM OVC012 12/10 A3020 RMK AO2 SLP229 T01170100 TSNO=
201311010031 SPECI KCLM 010031Z AUTO 00000KT 10SM OVC013 12/10 A3020 RMK AO2 T01170100 TSNO=

# No short TAF reports from KCLM in databse.

###################################
#  large TAF from KCLM
###################################
201311302320 TAF KCLM 302320Z 0100/0124 00000KT P6SM OVC002
                      TEMPO 0100/0104 -RA FM010400 VRB03KT 4SM
                       -RA BR OVC015 FM011400 27010KT P6SM -RA
                       OVC015 FM011800 27016G24KT P6SM -RA SCT018
                       OVC035=
201311301730 TAF KCLM 301730Z 3018/0118 00000KT P6SM SCT003 OVC040
                      TEMPO 3018/3022 4SM -RA BR OVC003 FM302200
                       28004KT 5SM -RA BR OVC010 FM010300 VRB03KT
                       4SM -RA BR OVC015 FM011400 27010KT P6SM
                       -RA OVC015=
201311301410 TAF AMD KCLM 301410Z 3014/0112 VRB03KT P6SM VCSH SCT015 OVC040
                       TEMPO 3014/3018 5SM -RA BR BKN015 OVC035
                       FM301800 28004KT 5SM -RA BR OVC010 FM010300
                       24005KT 4SM -RA BR OVC010=
201311301120 TAF KCLM 301120Z 3012/0112 23004KT P6SM OVC015 FM302000 28004KT
                       5SM -RA BR OVC010 FM010300 24005KT 4SM -RA
                       BR OVC010=
201311300521 TAF KCLM 300521Z 3006/0106 23004KT P6SM -RA OVC015 FM302000 28004KT
                       5SM -RA BR OVC010=
201311292320 TAF KCLM 292320Z 3000/3024 31006KT P6SM OVC018
                      TEMPO 3000/3004 -RA OVC020 FM300400 23004KT
                       P6SM -RA OVC015=
201311291735 TAF KCLM 291735Z 2918/3018 21003KT P6SM OVC017 FM300000 25005KT
                       P6SM BKN020 OVC040
                      TEMPO 3000/3004 -RA OVC020 FM300400 23004KT
                       P6SM -RA OVC015=
201311291313 TAF AMD KCLM 291313Z 2913/3012 VRB03KT P6SM OVC030
                      TEMPO 2913/2916 BKN005 FM300000 25005KT P6SM
                       VCSH BKN020 OVC040
                      TEMPO 3000/3004 -RA OVC020 FM300400 23004KT
                       P6SM VCSH OVC015=
201311291120 TAF KCLM 291120Z 2912/3012 VRB03KT P6SM BKN010 OVC030 FM300000
                       25005KT P6SM VCSH BKN020 OVC040
                      TEMPO 3000/3004 -RA OVC020 FM300400 23004KT
                       P6SM VCSH OVC015=
201311290522 TAF KCLM 290522Z 2906/3006 VRB03KT P6SM BKN070 OVC100 FM290900
                       VRB03KT P6SM OVC060 FM291200 VRB03KT P6SM
                       VCSH SCT020 OVC050 FM300000 25005KT P6SM
                       VCSH BKN020 OVC040
                      TEMPO 3000/3004 -RA OVC020=
201311290012 TAF AMD KCLM 290012Z 2900/2924 VRB03KT P6SM SCT080 BKN200 FM290400
                       VRB03KT P6SM BKN080 OVC200 FM290900 VRB03KT
                       P6SM OVC060 FM291200 VRB03KT P6SM VCSH SCT020
                       OVC050
                      PROB30 2912/2918 -RA BKN020 OVC050=
201311282349 TAF KCLM 282349Z 2900/2924 VRB03KT P6SM SCT070 BKN120 BKN200 FM290400
                       VRB03KT P6SM FEW060 BKN120 OVC200 FM290800
                       VRB03KT P6SM BKN060 OVC120 FM291200 VRB03KT
                       P6SM VCSH SCT022 OVC060
                      PROB30 2912/2918 4SM -RA BR OVC022=
201311282151 TAF AMD KCLM 282151Z 2822/2918 VRB03KT P6SM SCT070 SCT120 BKN200
                       TEMPO 2822/2824 BKN070 BKN120 BKN200 FM290000
                       VRB03KT P6SM SCT070 BKN120 BKN200 FM290400
                       VRB03KT P6SM FEW060 BKN120 OVC200 FM290800
                       VRB03KT P6SM BKN060 OVC120 FM291200 VRB03KT
                       P6SM VCSH SCT022 OVC060
                      PROB30 2912/2918 4SM -RA BR OVC022=
201311281909 TAF AMD KCLM 281909Z 2819/2918 VRB03KT P6SM SCT060 BKN200 FM290000
                       VRB03KT P6SM SCT120 BKN200 FM290400 VRB03KT
                       P6SM FEW060 BKN120 OVC200 FM290800 VRB03KT
                       P6SM BKN060 OVC120 FM291200 VRB03KT P6SM
                       VCSH SCT022 OVC060
                      PROB30 2912/2918 4SM -RA BR OVC022=
201311281804 TAF AMD KCLM 281804Z 2818/2918 VRB03KT P6SM VCFG FEW005 BKN200
                       FM282000 VRB03KT P6SM BKN200 FM290000 VRB03KT
                       P6SM SCT120 BKN200 FM290400 VRB03KT P6SM
                       FEW060 BKN120 OVC200 FM290800 VRB03KT P6SM
                       BKN060 OVC120 FM291200 VRB03KT P6SM VCSH
                       SCT022 OVC060
                      PROB30 2912/2918 4SM -RA BR OVC022=
201311281744 TAF KCLM 281744Z 2818/2918 VRB03KT P6SM SCT060 BKN100 OVC200=
201311281120 TAF KCLM 281120Z 2812/2912 VRB03KT P6SM SCT060 BKN100 OVC200=
201311280527 TAF KCLM 280527Z 2806/2906 VRB03KT P6SM SCT100 OVC200 FM281200
                       VRB03KT P6SM SCT060 BKN100 OVC200=
201311272334 TAF KCLM 272334Z 2800/2824 VRB03KT P6SM SCT100 OVC200 FM281200
                       VRB03KT P6SM SCT060 BKN100 OVC200=
201311271741 TAF KCLM 271741Z 2718/2818 VRB03KT P6SM SCT090 OVC200
                      TEMPO 2718/2722 BKN090 OVC200 FM281400 VRB03KT
                       P6SM OVC090=
201311271125 TAF KCLM 271125Z 2712/2812 23004KT P6SM VCSH OVC060 FM271500 VRB04KT
                       P6SM SCT070 BKN200=
201311271010 TAF AMD KCLM 271010Z 2710/2806 23003KT P6SM OVC050 FM271500 20002KT
                       P6SM SCT050 BKN200=
201311270520 TAF KCLM 270520Z 2706/2806 VRB03KT P6SM OVC060 FM271000 23003KT
                       3SM BR SCT010 OVC050 FM271500 20002KT P6SM
                       SCT050 BKN200=
201311270307 TAF AMD KCLM 270307Z 2703/2724 VRB03KT P6SM OVC060 FM270900 23003KT
                       2SM BR SCT010 OVC050 FM271500 20002KT P6SM
                       BKN250=
201311262322 TAF KCLM 262322Z 2700/2724 00000KT P6SM VCSH BKN008 OVC070
                      TEMPO 2700/2703 5SM -RA SCT010 OVC070 FM270300
                       19002KT 2SM BR VCSH OVC050 FM270900 23003KT
                       2SM BR OVC050 FM271500 20002KT P6SM BKN250=
201311262110 TAF AMD KCLM 262110Z 2621/2718 08003KT P6SM OVC006 FM262300 12003KT
                       P6SM BKN120 OVC200 FM270000 12002KT P6SM
                       VCSH SCT050 OVC100 FM270300 19002KT 4SM
                       BR VCSH OVC050 FM271200 21003KT 1/2SM FG
                       OVC250=
201311261734 TAF KCLM 261734Z 2618/2718 VRB03KT 3SM BR OVC005
                      TEMPO 2618/2620 P6SM NSW SCT008 OVC200 FM262000
                       12003KT P6SM BKN120 OVC200 FM270000 12002KT
                       P6SM VCSH SCT050 OVC100 FM270300 19002KT
                       4SM BR VCSH OVC050 FM271200 21003KT 1/2SM
                       FG OVC250=
201311261510 TAF AMD KCLM 261510Z 2615/2712 00000KT P6SM SCT180 BKN250
                      TEMPO 2615/2618 OVC003 FM261800 VRB03KT P6SM
                       BKN200 FM270000 VRB03KT P6SM BKN080 BKN150=
201311261300 TAF AMD KCLM 261300Z 2613/2712 00000KT P6SM SCT180 BKN250
                      TEMPO 2613/2615 1/4SM FZFG VV001 FM261500
                       VRB03KT P6SM BKN200 FM270000 VRB03KT P6SM
                       BKN080 BKN150=
201311261120 TAF KCLM 261120Z 2612/2712 00000KT P6SM SCT180 BKN250
                      TEMPO 2612/2615 4SM BR OVC008 FM261500 VRB03KT
                       P6SM BKN200 FM270000 VRB03KT P6SM BKN080
                       BKN150=
201311260525 TAF KCLM 260525Z 2606/2706 00000KT P6SM SCT180 BKN250
                      TEMPO 2611/2615 4SM BR OVC008 FM261500 VRB03KT
                       P6SM BKN200=
201311252321 TAF KCLM 252321Z 2600/2624 00000KT P6SM SCT180 BKN250
                      TEMPO 2611/2615 4SM BR OVC008 FM261500 VRB03KT
                       P6SM BKN200=
201311251737 TAF KCLM 251737Z 2518/2618 23006KT P6SM OVC006 FM252100 VRB03KT
                       P6SM SCT250 FM261200 VRB03KT P6SM OVC006=
201311251120 TAF KCLM 251120Z 2512/2612 09005KT P6SM SCT250
                      TEMPO 2512/2516 3SM BR BKN002 FM252000 09005KT
                       P6SM BKN250=
201311251005 TAF AMD KCLM 251005Z 2510/2606 09005KT P6SM SCT250
                      TEMPO 2512/2516 3SM BR BKN002 FM252000 09005KT
                       P6SM BKN250=
201311250520 TAF KCLM 250520Z 2506/2606 09005KT P6SM SKC FM251000 09005KT 4SM
                       BR BKN004
                      TEMPO 2514/2518 2SM BR BKN002 FM252000 09005KT
                       P6SM BKN250=
201311242320 TAF KCLM 242320Z 2500/2524 09005KT P6SM SKC FM251000 09005KT 4SM
                       BR BKN004
                      TEMPO 2514/2518 2SM BR BKN002 FM252000 09005KT
                       P6SM BKN250=
201311242014 TAF KCLM 242014Z 2420/2518 10006KT P6SM BKN008 FM242100 10006KT
                       P6SM SCT010 SCT200 FM250000 00000KT P6SM
                       SKC FM251000 VRB03KT 4SM BR BKN004
                      TEMPO 2514/2518 2SM BR BKN002=
201311242011 TAF AMD KCLM 242011Z 2420/2518 10006KT P6SM BKN008 FM242200 10006KT
                       P6SM SCT010 SCT200 FM250000 00000KT P6SM
                       SKC FM251000 VRB03KT 4SM BR BKN004
                      TEMPO 2514/2518 2SM BR BKN002=
201311241720 TAF KCLM 241720Z 2418/2518 10003KT P6SM BKN008 FM242000 10005KT
                       P6SM SCT010 SCT200 FM250000 00000KT P6SM
                       SKC FM251200 VRB03KT 4SM BR SCT002 SCT200
                       TEMPO 2514/2518 2SM BR BKN002=
201311241531 TAF AMD KCLM 241531Z 2416/2512 15005KT P6SM BKN008 FM241800 15005KT
                       P6SM SCT010 BKN250=
201311241123 TAF KCLM 241123Z 2412/2512 14004KT P6SM SCT009 BKN250
                      TEMPO 2412/2415 3SM BR BKN009 FM241600 14005KT
                       P6SM BKN250=
201311241108 TAF AMD KCLM 241108Z 2411/2506 14004KT P6SM SCT009 BKN250
                      TEMPO 2411/2415 3SM BR BKN009 FM241600 14005KT
                       P6SM BKN250=
201311240520 TAF KCLM 240520Z 2406/2506 10006KT P6SM BKN250=
201311232320 TAF KCLM 232320Z 2400/2424 10006KT P6SM BKN250=
201311231723 TAF KCLM 231723Z 2318/2418 15005KT P6SM SCT250=
201311231120 TAF KCLM 231120Z 2312/2412 VRB04KT P6SM SCT250=
201311230520 TAF KCLM 230520Z 2306/2406 VRB04KT P6SM SCT250=
201311222320 TAF KCLM 222320Z 2300/2324 09007KT P6SM BKN250 FM230600 VRB03KT
                       P6SM SCT250=
201311221720 TAF KCLM 221720Z 2218/2318 VRB03KT P6SM SCT250=
201311221131 TAF KCLM 221131Z 2212/2312 12004KT P6SM SCT250=
201311220532 TAF KCLM 220532Z 2206/2306 23004KT P6SM FEW250=
201311212324 TAF KCLM 212324Z 2200/2224 10005KT P6SM FEW250 FM220500 23004KT
                       P6SM FEW250=
201311211733 TAF KCLM 211733Z 2118/2218 08005KT P6SM SCT250 FM220500 23004KT
                       P6SM SCT250=
201311211120 TAF KCLM 211120Z 2112/2212 VRB05KT P6SM SKC=
201311210524 TAF KCLM 210524Z 2106/2206 VRB05KT P6SM SKC=
201311202320 TAF KCLM 202320Z 2100/2124 08006KT P6SM SKC=
201311201721 TAF KCLM 201721Z 2018/2118 09006KT P6SM SKC=
201311201120 TAF KCLM 201120Z 2012/2112 VRB04KT P6SM SCT030
                      TEMPO 2012/2016 BKN020 FM201800 03005KT P6SM
                       SKC=
201311200520 TAF KCLM 200520Z 2006/2106 VRB04KT P6SM BKN050 FM201000 03005KT
                       P6SM SCT250=
201311192320 TAF KCLM 192320Z 2000/2024 29008KT P6SM FEW060 SCT250 FM201200
                       03005KT P6SM SCT250=
201311191724 TAF KCLM 191724Z 1918/2018 28008KT P6SM FEW040 SCT060
                      TEMPO 1918/1922 BKN040 BKN060 FM200100 29008KT
                       P6SM SKC FM201200 03005KT P6SM SKC=
201311191120 TAF KCLM 191120Z 1912/2012 28012G18KT P6SM SCT030 OVC040 FM192000
                       28010KT P6SM SCT040 FM200100 29008KT P6SM
                       SKC=
201311190526 TAF KCLM 190526Z 1906/2006 VRB05KT P6SM -SHRA BKN002 OVC015 FM191000
                       28010KT P6SM BKN002 BKN020 OVC040 FM191900
                       28014KT P6SM SCT030 BKN080=
201311190210 TAF AMD KCLM 190210Z 1902/1924 14006KT P6SM -RA SCT004 OVC008
                      TEMPO 1902/1906 3SM -RA BR OVC004 FM190600
                       28012G20KT 3SM RA OVC012 FM191000 28010KT
                       P6SM BKN020 OVC040 FM191900 28014KT P6SM
                       SCT030 BKN080=
201311190209 TAF AMD KCLM 190209Z 1902/1924 14006KT P6SM -RA SCT004 OVC008
                      TEMPO 1902/1906 3SM -RA BR OVC004 FM190600
                       18012G20KT 3SM RA OVC012 FM191000 28010KT
                       P6SM BKN020 OVC040 FM191900 28014KT P6SM
                       SCT030 BKN080=
201311182323 TAF KCLM 182323Z 1900/1924 08004KT P6SM -RA BKN004 OVC008
                      TEMPO 1902/1906 3SM -RA BR OVC004 FM191000
                       28010KT P6SM BKN020 OVC040 FM191900 28014KT
                       P6SM SCT030 BKN080=
201311181722 TAF KCLM 181722Z 1818/1918 00000KT P6SM SCT003 OVC018
                      TEMPO 1818/1822 4SM -RA BR BKN003 OVC018
                       FM182200 VRB03KT P6SM -RA BKN006 OVC018
                       FM190500 28008KT P6SM BKN025 BKN040=
201311181405 TAF AMD KCLM 181405Z 1814/1912 12003KT P6SM OVC060
                      TEMPO 1814/1816 BKN008 OVC025 FM181600 VRB03KT
                       P6SM -RA SCT025 OVC040 FM190000 VRB03KT
                       P6SM -RA SCT012 OVC022 FM190500 28008KT
                       P6SM SCT025 BKN040=
201311181138 TAF KCLM 181138Z 1812/1912 VRB03KT P6SM SCT008 OVC025
                      TEMPO 1812/1816 BKN008 OVC025 FM181600 VRB03KT
                       P6SM -RA SCT025 OVC040 FM190000 VRB03KT
                       P6SM -RA SCT012 OVC022 FM190500 28008KT
                       P6SM SCT025 BKN040=
201311180538 TAF KCLM 180538Z 1806/1906 VRB03KT P6SM SCT060 OVC100 FM181600
                       VRB03KT P6SM -RA OVC040 FM190200 VRB03KT
                       P6SM -RA SCT012 OVC022=
201311172324 TAF KCLM 172324Z 1800/1824 VRB03KT P6SM VCSH BKN050 FM180300 28006KT
                       P6SM BKN050 FM181600 VRB03KT P6SM -RA OVC045=
201311171738 TAF KCLM 171738Z 1718/1818 VRB03KT P6SM SCT040 BKN090
                      TEMPO 1718/1722 -SHRA BKN040 BKN090 FM172200
                       28009KT P6SM BKN050 BKN090
                      TEMPO 1722/1802 -SHRA FM180200 28006KT P6SM
                       BKN050 BKN090 FM181600 VRB03KT P6SM -RA
                       OVC045=
201311171136 TAF KCLM 171136Z 1712/1812 VRB03KT P6SM SCT040 BKN090=
201311170536 TAF KCLM 170536Z 1706/1806 27012KT P6SM SCT040 BKN090 FM171400
                       27006KT P6SM SCT030 BKN060=
201311162336 TAF KCLM 162336Z 1700/1724 28012KT P6SM BKN060 OVC120 FM170600
                       26008KT P6SM BKN060 OVC120 FM171000 26006KT
                       P6SM BKN030 OVC060=
201311161740 TAF KCLM 161740Z 1618/1718 27010KT P6SM BKN140 FM170600 VRB03KT
                       P6SM SCT030 BKN050=
201311161140 TAF KCLM 161140Z 1612/1712 27010KT P6SM SCT060 FM170600 VRB03KT
                       P6SM SCT030 BKN050=
201311160539 TAF KCLM 160539Z 1606/1706 26020G30KT P6SM -SHRA SCT025 BKN040
                       OVC060 FM161000 26015KT P6SM SCT025 BKN060
                       FM161600 27010KT P6SM SCT060=
201311152330 TAF KCLM 152330Z 1600/1624 VRB05KT P6SM -RA OVC070 FM160200 25012KT
                       P6SM -RA BKN040 OVC070 FM160400 26020G30KT
                       P6SM -SHRA SCT025 OVC070 FM161000 26015KT
                       P6SM VCSH SCT025 BKN070 FM161600 27010KT
                       P6SM SCT070=
201311151728 TAF KCLM 151728Z 1518/1618 25006KT P6SM -RA OVC045 FM152100 25010KT
                       P6SM -RA BKN025 OVC040 FM160100 26020G30KT
                       P6SM VCSH SCT025 BKN050=
201311151138 TAF KCLM 151138Z 1512/1612 25006KT P6SM BKN080 FM151600 25010G18KT
                       P6SM -RA SCT035 OVC050
                      TEMPO 1521/1601 5SM -RA BR BKN030 FM160100
                       26020G30KT P6SM VCSH SCT025 BKN050=
201311150548 TAF KCLM 150548Z 1506/1606 24005KT P6SM SCT120 BKN200 FM151300
                       25005KT P6SM -RA SCT030 OVC050
                      TEMPO 1521/1601 5SM -RA BR BKN030 FM160100
                       27015G25KT P6SM VCSH SCT025=
201311150314 TAF AMD KCLM 150314Z 1503/1524 29009KT P6SM SCT008 BKN040
                      TEMPO 1503/1507 BKN008 FM151200 25012KT P6SM
                       BKN030 OVC040 FM151500 27010KT P6SM -RA
                       OVC030 FM152000 28008KT P6SM -RA OVC020
                       TEMPO 1520/1524 4SM BR OVC015=
201311142320 TAF KCLM 142320Z 1500/1524 29009KT P6SM SCT030 BKN045 FM151200
                       25012KT P6SM BKN030 OVC040 FM151500 27010KT
                       P6SM -RA OVC030 FM152000 28008KT P6SM -RA
                       OVC020
                      TEMPO 1520/1524 4SM BR OVC015=
201311141733 TAF KCLM 141733Z 1418/1518 28008KT P6SM -SHRA SCT025 BKN035 FM142100
                       28012KT P6SM SCT030 BKN045 FM151200 25012KT
                       P6SM BKN030 OVC040 FM151500 27010KT P6SM
                       -RA OVC030=
201311141130 TAF KCLM 141130Z 1412/1512 28006KT P6SM SCT050 FM141600 28008KT
                       P6SM -SHRA BKN025 OVC040 FM142100 28012KT
                       P6SM SCT025 BKN045=
201311140534 TAF KCLM 140534Z 1406/1506 28006KT P6SM SCT009 BKN050
                      TEMPO 1406/1410 BKN009 OVC050 FM141500 28008KT
                       P6SM -SHRA BKN025 OVC040 FM142100 28012KT
                       P6SM SCT025 BKN045=
201311132321 TAF KCLM 132321Z 1400/1424 29005KT P6SM BKN050 FM140700 28005KT
                       P6SM OVC020 FM141800 31007KT P6SM BKN050=
201311131720 TAF KCLM 131720Z 1318/1418 VRB03KT P6SM SCT050 FM131900 29005KT
                       P6SM SCT050 FM140200 28005KT P6SM OVC020=
201311131406 TAF AMD KCLM 131406Z 1314/1412 26008KT P6SM VCFG SCT012
                      TEMPO 1314/1318 BKN012 FM131900 29005KT P6SM
                       SCT050 FM140200 27005KT P6SM OVC025=
201311131241 TAF AMD KCLM 131241Z 1313/1412 26008KT P6SM FEW010 BKN050 FM131900
                       29005KT P6SM BKN050 FM140200 27005KT P6SM
                       OVC025=
201311131122 TAF KCLM 131122Z 1312/1412 28008KT P6SM VCSH OVC060
                      TEMPO 1312/1316 BKN015 OVC050 FM131900 29005KT
                       P6SM BKN050 FM140200 27005KT P6SM OVC025=
201311130531 TAF KCLM 130531Z 1306/1406 28005KT P6SM VCSH OVC070 FM131200 25006KT
                       6SM BR BKN015 FM131700 28005KT P6SM OVC045=
201311122331 TAF KCLM 122331Z 1300/1324 VRB03KT P6SM FEW035 BKN090 FM130500
                       24004KT P6SM BKN030 OVC070 FM130800 25003KT
                       P6SM OVC025 FM131200 25003KT P6SM OVC015
                       FM132000 VRB03KT P6SM SCT030 BKN060=
201311121729 TAF KCLM 121729Z 1218/1318 28005KT P6SM OVC060 FM130100 27003KT
                       P6SM OVC025=
201311121338 TAF AMD KCLM 121338Z 1214/1312 VRB03KT P6SM -RA SCT030 OVC050 FM121600
                       VRB03KT 5SM -RA BR SCT015 OVC030 FM122000
                       29004KT P6SM VCSH OVC025 FM130100 27003KT
                       P6SM OVC025=
201311121120 TAF KCLM 121120Z 1212/1312 00000KT P6SM OVC090 FM121400 VRB03KT
                       P6SM -RA OVC025 FM122000 29004KT P6SM VCSH
                       OVC025 FM130100 27003KT P6SM OVC025=
201311120535 TAF KCLM 120535Z 1206/1306 21003KT P6SM BKN200 FM121000 00000KT
                       P6SM -RA BKN050 OVC100 FM122100 04002KT
                       P6SM VCSH SCT025 BKN050=
201311112338 TAF KCLM 112338Z 1200/1224 10005KT P6SM SCT120 OVC200 FM121200
                       18003KT P6SM -RA BKN050 OVC090 FM121800
                       VRB03KT P6SM VCSH SCT025 SCT050=
201311111742 TAF KCLM 111742Z 1118/1218 09004KT P6SM SCT120 OVC200 FM121000
                       18003KT P6SM -RA BKN050 OVC090 FM121600
                       VRB03KT P6SM VCSH SCT050 BKN100=
201311111124 TAF KCLM 111124Z 1112/1212 14004KT P6SM OVC035 FM111800 11003KT
                       P6SM BKN100 BKN200 FM121000 18003KT P6SM
                       -RA BKN050 OVC090=
201311110906 TAF AMD KCLM 110906Z 1109/1206 14003KT P6SM FEW020 OVC035 FM111000
                       10004KT P6SM SCT020 OVC200 FM120100 VRB03KT
                       P6SM -RA BKN050 OVC090=
201311110744 TAF AMD KCLM 110744Z 1108/1206 14004KT P6SM BKN017 BKN200 FM111000
                       10004KT P6SM SCT020 OVC200 FM120100 VRB03KT
                       P6SM -RA BKN050 OVC090=
201311110520 TAF KCLM 110520Z 1106/1206 15003KT P6SM FEW014 OVC070 FM110900
                       10004KT P6SM SCT020 OVC200=
201311102346 TAF KCLM 102346Z 1100/1124 10003KT P6SM BKN015 BKN050 OVC100 FM110900
                       10004KT P6SM SCT020 OVC200=
201311101731 TAF KCLM 101731Z 1018/1118 12004KT P6SM VCSH OVC008 FM102100 10003KT
                       P6SM OVC050 FM110200 20002KT P6SM OVC100
                       FM110900 12003KT P6SM OVC250=
201311101611 TAF AMD KCLM 101611Z 1016/1112 12004KT P6SM VCSH OVC008 FM102100
                       07003KT P6SM OVC050 FM110200 17002KT P6SM
                       OVC100 FM110900 19003KT P6SM OVC250=
201311101125 TAF KCLM 101125Z 1012/1112 00000KT P6SM VCSH OVC010 FM102100 07003KT
                       P6SM OVC050 FM110200 17002KT P6SM OVC100
                       FM110900 19003KT P6SM OVC250=
201311100902 TAF AMD KCLM 100902Z 1009/1106 00000KT P6SM -RA OVC027 FM110200
                       18002KT P6SM OVC100=
201311100530 TAF KCLM 100530Z 1006/1106 00000KT P6SM SCT013 FM100800 14003KT
                       P6SM -RA SCT015 OVC050 FM110200 18002KT
                       P6SM OVC100=
201311092325 TAF KCLM 092325Z 1000/1024 09004KT P6SM -RA SCT040 OVC080 FM101200
                       20005KT P6SM BKN050 BKN120 FM101600 23005KT
                       P6SM BKN120=
201311091801 TAF KCLM 091801Z 0918/1018 VRB03KT P6SM BKN011 OVC100 FM100000
                       07004KT P6SM -RA SCT030 OVC050 FM101200
                       20005KT P6SM BKN050 BKN120=
201311091558 TAF AMD KCLM 091558Z 0916/1012 VRB03KT P6SM FEW009 BKN120 BKN200
                       TEMPO 0916/0918 BKN009 FM091800 19002KT
                       P6SM BKN060 OVC100 FM100000 07004KT P6SM
                       -RA SCT030 OVC050=
201311091128 TAF KCLM 091128Z 0912/1012 22003KT P6SM FEW080 SCT120 BKN200 FM091800
                       19002KT P6SM OVC050 FM100000 07004KT P6SM
                       -RA SCT030 OVC050=
201311090753 TAF AMD KCLM 090753Z 0908/1006 00000KT P6SM FEW120 FM091700 29005KT
                       P6SM -RA BKN080 OVC120 FM092100 VRB04KT
                       P6SM -RA BKN040 OVC080=
201311090525 TAF KCLM 090525Z 0906/1006 00000KT P6SM BKN026 FM091700 29005KT
                       P6SM -RA BKN080 OVC120 FM092100 VRB04KT
                       P6SM -RA BKN040 OVC080=
201311082332 TAF KCLM 082332Z 0900/0924 24005KT P6SM FEW050 BKN140 FM090300
                       27005KT P6SM FEW080 BKN150 FM091700 29005KT
                       P6SM -RA BKN080 OVC120 FM092100 VRB04KT
                       P6SM -RA OVC080=
201311081728 TAF KCLM 081728Z 0818/0918 26010KT P6SM SCT080 BKN150 FM082200
                       24005KT P6SM FEW080 BKN150 FM090300 27005KT
                       P6SM FEW080 BKN150 FM091700 29005KT P6SM
                       -RA BKN080 OVC130=
201311081139 TAF KCLM 081139Z 0812/0912 26010KT P6SM SCT060 BKN100 FM082200
                       VRB03KT P6SM SCT060 BKN100=
201311080540 TAF KCLM 080540Z 0806/0906 26008KT P6SM SCT030 BKN060
                      TEMPO 0812/0815 4SM BR FM082200 VRB03KT P6SM
                       SCT060=
201311080103 TAF AMD KCLM 080103Z 0801/0824 25009KT P6SM VCSH SCT015 BKN035
                       OVC060
                      TEMPO 0801/0803 -SHRA BKN015 OVC030 FM080300
                       26013KT P6SM VCSH SCT028 BKN060
                      TEMPO 0803/0806 26015G25KT FM081500 26008KT
                       P6SM SCT028 BKN060 FM082000 VRB03KT P6SM
                       SCT060 BKN090=
201311080021 TAF AMD KCLM 080021Z 0800/0824 29005KT P6SM VCSH SCT035 OVC060
                       TEMPO 0800/0803 -SHRA BKN035 OVC060 FM080300
                       26013KT P6SM VCSH SCT028 BKN060
                      TEMPO 0803/0806 26015G25KT FM081500 26008KT
                       P6SM SCT028 BKN060 FM082000 VRB03KT P6SM
                       SCT060 BKN090=
201311072339 TAF KCLM 072339Z 0800/0824 34003KT P6SM FEW060 SCT080 OVC100 FM080300
                       27015G25KT P6SM SCT035 BKN050 FM080900 27013KT
                       P6SM VCSH SCT028 SCT050=
201311072107 TAF AMD KCLM 072107Z 0721/0818 VRB04KT P6SM -SHRA SCT005 OVC050
                       TEMPO 0721/0724 BKN005 OVC030 FM080000 25012KT
                       P6SM -SHRA BKN035 OVC050 FM080300 27015G25KT
                       P6SM SCT035 BKN050 FM080900 27013KT P6SM
                       VCSH SCT028 SCT050=
201311071741 TAF KCLM 071741Z 0718/0818 28009KT P6SM -SHRA SCT035 OVC060 FM072000
                       VRB04KT P6SM -SHRA SCT011 OVC035
                      TEMPO 0720/0724 5SM -SHRA BR BKN011 OVC035
                       FM080000 25012KT P6SM -SHRA BKN035 OVC050
                       FM080300 27015G25KT P6SM SCT035 BKN050
                      PROB30 0803/0809 -SHRA FM080900 27013KT P6SM
                       VCSH SCT028 SCT050=
201311071523 TAF AMD KCLM 071523Z 0715/0812 29013G22KT 4SM RA BR SCT002 OVC045
                       TEMPO 0715/0717 BKN002 OVC045 FM071700 23006KT
                       P6SM -SHRA SCT005 BKN015 OVC030 FM072100
                       27013G22KT P6SM -SHRA BKN022 OVC050 FM080200
                       27010KT P6SM SCT025 BKN050=
201311071140 TAF KCLM 071140Z 0712/0812 VRB03KT 4SM -RA BKN005 OVC011 FM071700
                       23006KT P6SM -SHRA SCT005 BKN015 OVC030
                       FM072100 27013G22KT P6SM -SHRA BKN022 OVC050
                       FM080200 27010KT P6SM SCT025 BKN050=
201311070541 TAF KCLM 070541Z 0706/0806 VRB03KT 6SM -RA BR BKN011 OVC020 FM071500
                       VRB03KT 2SM -RA BR BKN005 OVC011 FM071800
                       23006KT P6SM -SHRA FEW005 BKN015 OVC030
                       FM072100 27013G22KT P6SM -SHRA BKN022 OVC050
                       FM080200 27010KT P6SM SCT025 BKN050=
201311062340 TAF KCLM 062340Z 0700/0724 07005KT P6SM -RA BKN011 OVC070 FM070400
                       VRB03KT 6SM -RA BR BKN011 BKN030 OVC050
                       FM070900 VRB03KT 2SM -RA BR BKN005 OVC011
                       FM071500 23006KT 2SM -RA BR BKN005 OVC011
                       FM071800 23006KT P6SM -SHRA FEW005 BKN015
                       OVC030 FM072100 27013G22KT P6SM -SHRA BKN022
                       OVC050=
201311062151 TAF AMD KCLM 062151Z 0622/0718 VRB03KT P6SM SCT007 SCT050 OVC090
                       TEMPO 0622/0624 -RA BKN007 BKN050 OVC090
                       FM070000 VRB03KT P6SM -RA FEW011 SCT030
                       OVC050 FM070900 VRB03KT 4SM -RA BR SCT005
                       BKN011 OVC030 FM071500 23006KT 2SM -RA BR
                       BKN005 OVC011=
201311062101 TAF AMD KCLM 062101Z 0621/0718 VRB03KT P6SM FEW010 SCT050 OVC090
                       TEMPO 0621/0624 -RA FM070000 VRB03KT P6SM
                       -RA FEW011 SCT030 OVC050 FM070900 VRB03KT
                       4SM -RA BR SCT005 BKN011 OVC030 FM071500
                       23006KT 2SM -RA BR BKN005 OVC011=
201311061857 TAF AMD KCLM 061857Z 0619/0718 VRB03KT P6SM BKN009 OVC110 FM062100
                       VRB03KT P6SM BKN012 BKN050 OVC110
                      TEMPO 0621/0624 -RA FM070000 VRB03KT P6SM
                       -RA FEW011 SCT030 OVC050 FM070900 VRB03KT
                       4SM -RA BR SCT005 BKN011 OVC030 FM071500
                       23006KT 2SM -RA BR BKN005 OVC011=
201311061736 TAF KCLM 061736Z 0618/0718 VRB03KT P6SM SCT015 OVC110
                      TEMPO 0618/0620 BKN015 OVC110 FM062100 VRB03KT
                       P6SM FEW025 BKN050 OVC110
                      TEMPO 0621/0624 -RA FM070000 VRB03KT P6SM
                       -RA FEW011 SCT030 OVC050 FM070900 VRB03KT
                       4SM -RA BR SCT005 BKN011 OVC030 FM071500
                       23006KT 2SM -RA BR BKN005 OVC011=
201311061648 TAF AMD KCLM 061648Z 0617/0712 VRB03KT P6SM FEW006 BKN120 OVC200
                       FM062200 08006KT P6SM -RA OVC045=
201311061527 TAF AMD KCLM 061527Z 0615/0712 VRB03KT P6SM OVC007 FM061700 08006KT
                       P6SM SCT050 OVC100 FM062200 08006KT P6SM
                       -RA OVC045=
201311061338 TAF AMD KCLM 061338Z 0614/0712 00000KT P6SM OVC004
                      TEMPO 0614/0617 SCT004 BKN050 FM061700 08006KT
                       P6SM SCT050 OVC100 FM062200 08006KT P6SM
                       -RA OVC045=
201311061136 TAF KCLM 061136Z 0612/0712 26004KT P6SM BKN050 FM061800 08006KT
                       P6SM SCT050 OVC100 FM062200 08006KT P6SM
                       -RA OVC045=
201311060540 TAF KCLM 060540Z 0606/0706 26004KT P6SM SCT060
                      TEMPO 0608/0612 2SM BR FM061800 08006KT P6SM
                       SCT060 OVC100 FM062200 08006KT P6SM -RA
                       OVC045=
201311052326 TAF KCLM 052326Z 0600/0624 26006KT P6SM SCT030 BKN050 FM060600
                       26004KT P6SM BKN020 OVC030 FM061200 VRB03KT
                       P6SM OVC020 FM061800 10004KT P6SM SCT030
                       OVC100=
201311051721 TAF KCLM 051721Z 0518/0618 26008KT P6SM SCT003 BKN015 OVC020
                      TEMPO 0518/0519 BKN003 FM052100 26008KT P6SM
                       SCT020 BKN035 OVC050 FM060600 26008KT P6SM
                       BKN015 OVC025=
201311051140 TAF KCLM 051140Z 0512/0612 VRB03KT P6SM BKN006 OVC015 FM051500
                       26008KT P6SM SCT006 BKN015 OVC025 FM052100
                       26008KT P6SM SCT020 BKN035 OVC050 FM060600
                       26008KT P6SM BKN015 OVC025=
201311050541 TAF KCLM 050541Z 0506/0606 00000KT P6SM OVC050 FM050900 00000KT
                       P6SM -RA SCT020 OVC035 FM051200 VRB03KT
                       P6SM BKN015 OVC025 FM051800 26008KT P6SM
                       SCT020 BKN035 OVC050=
201311042320 TAF KCLM 042320Z 0500/0524 07004KT P6SM BKN020 OVC100 FM050600
                       VRB04KT P6SM -RA OVC020 FM051300 23004KT
                       P6SM -RA OVC015 FM051800 30005KT P6SM OVC015=
201311041720 TAF KCLM 041720Z 0418/0518 23004KT P6SM SCT020 SCT060 BKN120 FM042000
                       07004KT P6SM SCT120 OVC250 FM050600 VRB04KT
                       P6SM -RA OVC045 FM050900 VRB04KT P6SM -RA
                       OVC025 FM051300 23004KT P6SM -RA OVC015=
201311041407 TAF AMD KCLM 041407Z 0414/0512 23005KT P6SM OVC020 FM041700 23004KT
                       P6SM SCT060 BKN120 FM042000 07004KT P6SM
                       SCT120 OVC250 FM050600 VRB04KT P6SM -RA
                       OVC045 FM050900 VRB04KT P6SM -RA OVC015=
201311041135 TAF KCLM 041135Z 0412/0512 22005KT P6SM SCT060 FM042000 07004KT
                       P6SM SCT120 OVC250 FM050600 VRB04KT P6SM
                       -RA OVC045 FM050900 VRB04KT P6SM -RA OVC015=
201311040525 TAF KCLM 040525Z 0406/0506 24006KT P6SM SKC FM042000 09006KT P6SM
                       SCT030 BKN120 OVC250=
201311032320 TAF KCLM 032320Z 0400/0424 VRB04KT P6SM SCT060 FM040600 09005KT
                       P6SM BKN250 FM042000 09006KT P6SM SCT030
                       BKN120 OVC250=
201311031730 TAF KCLM 031730Z 0318/0418 26006KT P6SM SKC FM032100 29006KT P6SM
                       SCT060 FM040400 11003KT P6SM BKN250=
201311031135 TAF KCLM 031135Z 0312/0412 25013G20KT P6SM SCT100 BKN250 FM031800
                       26010KT P6SM BKN050 BKN120 FM040000 29006KT
                       P6SM SCT060 BKN120 BKN250 FM040900 11003KT
                       P6SM SCT250=
201311030530 TAF KCLM 030530Z 0306/0406 25012G18KT P6SM OVC090 FM031200 26010KT
                       P6SM BKN025 FM032100 30006KT P6SM SCT030
                       BKN060 FM040300 23004KT P6SM SCT080 BKN250=
201311030345 TAF AMD KCLM 030345Z 0304/0324 26013G23KT P6SM VCSH SKC FM030600
                       26012G18KT P6SM SCT025 BKN040 FM031200 26010KT
                       P6SM BKN025=
201311022320 TAF KCLM 022320Z 0300/0324 27015G30KT P6SM VCSH SCT030 BKN040 FM030600
                       26012G18KT P6SM SCT025 BKN040 FM031200 26010KT
                       P6SM BKN025=
201311021720 TAF KCLM 021720Z 0218/0318 29020G35KT P6SM -SHRA SCT025 BKN030
                       TEMPO 0218/0222 27030G45KT FM030300 26016G24KT
                       P6SM VCSH SCT030 BKN040=
201311021208 TAF AMD KCLM 021208Z 0212/0312 12005KT 3SM -RA BR OVC002
                      TEMPO 0212/0215 1/2SM FG FM021800 27022G33KT
                       P6SM VCSH BKN020 BKN030 FM030300 26016G24KT
                       P6SM VCSH SCT030 BKN050=
201311021130 TAF KCLM 021130Z 0212/0312 12008KT 3SM -RA BR OVC002 FM021800 27022G33KT
                       P6SM VCSH BKN020 BKN030 FM030300 26016G24KT
                       P6SM VCSH SCT030 BKN050=
201311021035 TAF AMD KCLM 021035Z 0211/0306 00000KT 1/4SM -RA FG VV003 FM021500
                       27020G30KT P6SM -SHRA OVC015 FM022000 27025G35KT
                       P6SM VCSH BKN020 BKN030=
201311020905 TAF AMD KCLM 020905Z 0209/0306 00000KT 3SM -RA BR OVC003 FM021000
                       13004KT 4SM -RA BR OVC015 FM021500 27020G30KT
                       P6SM -SHRA OVC015 FM022000 27025G35KT P6SM
                       VCSH BKN020 BKN030=
201311020530 TAF KCLM 020530Z 0206/0306 06004KT P6SM -RA BKN006 BKN050 OVC090
                       TEMPO 0206/0208 5SM -RA BR SCT006 BKN050
                       OVC090 FM020800 13004KT 4SM -RA BR OVC015
                       FM021500 27020G30KT P6SM -SHRA OVC015 FM022000
                       27025G35KT P6SM VCSH BKN020 BKN030=
201311020305 TAF AMD KCLM 020305Z 0203/0224 00000KT P6SM BKN004 OVC012 FM020400
                       13004KT 5SM -RA BR OVC020 FM020800 13004KT
                       4SM -RA BR OVC015 FM021500 27020G30KT P6SM
                       -SHRA OVC015 FM022000 27025G35KT P6SM VCSH
                       BKN020 BKN030=
201311012325 TAF KCLM 012325Z 0200/0224 13004KT P6SM SCT020 OVC080 FM020400
                       13004KT 5SM -RA BR OVC020 FM020800 13004KT
                       4SM -RA BR OVC015 FM021500 27020G30KT P6SM
                       -SHRA OVC015 FM022000 27025G35KT P6SM VCSH
                       BKN020 BKN030=
201311011720 TAF KCLM 011720Z 0118/0218 VRB04KT P6SM BKN020 BKN120
                      TEMPO 0118/0119 OVC009 FM012000 VRB04KT P6SM
                       SCT020 BKN120 FM020200 00000KT 5SM -RA BR
                       OVC025 FM020800 13003KT 4SM -RA BR OVC015
                       FM021500 27020G30KT P6SM -SHRA OVC015=
201311011125 TAF KCLM 011125Z 0112/0212 27003KT P6SM OVC015
                      TEMPO 0112/0116 5SM BR OVC007 FM011600 00000KT
                       P6SM BKN020 FM012000 VRB04KT P6SM SCT020
                       BKN120 FM020200 00000KT 5SM -RA BR OVC025
                       FM020800 13003KT 4SM -RA BR OVC015=
201311010520 TAF KCLM 010520Z 0106/0206 26004KT P6SM OVC013
                      TEMPO 0112/0116 5SM BR OVC007 FM011600 00000KT
                       P6SM BKN020 FM012000 VRB04KT P6SM SCT020
                       BKN120 FM020200 00000KT 5SM -RA BR OVC025=