##########################################################
# Query made at 02/16/2025 02:36:04 UTC
# Time interval: from 12/01/2013 00:00  to 12/31/2013 23:59  UTC
##########################################################

##########################################################
# KCLM, Port Angeles, William R. Fairchild International Airport (United States)
# WMO index: -----. WIGOS ID: Unknown
# Latitude 48-07-20N. Longitude 123-30-19W. Altitude 87 m.
##########################################################

###################################
#  METAR/SPECI from KCLM
###################################
201312312353 METAR KCLM 312353Z AUTO 22003KT 10SM OVC027 08/06 A3032 RMK AO2 SLP268 T00780056 10089 20061 53017=
201312312323 SPECI KCLM 312323Z AUTO 00000KT 10SM BKN016 OVC023 08/06 A3030 RMK AO2 T00780056=
201312312304 SPECI KCLM 312304Z AUTO 00000KT 10SM BKN014 OVC023 08/06 A3030 RMK AO2 T00780061=
201312312253 METAR KCLM 312253Z AUTO 00000KT 10SM OVC015 08/06 A3030 RMK AO2 SLP262 T00780061=
201312312153 METAR KCLM 312153Z AUTO 33003KT 10SM OVC016 08/06 A3028 RMK AO2 SLP255 T00780061=
201312312106 SPECI KCLM 312106Z AUTO 34004KT 10SM SCT006 OVC019 08/06 A3027 RMK AO2 T00830061=
201312312053 METAR KCLM 312053Z AUTO 33004KT 10SM BKN006 OVC019 08/07 A3027 RMK AO2 SLP251 T00830067 56004=
201312311953 METAR KCLM 311953Z AUTO 26004KT 10SM SCT005 OVC020 08/06 A3027 RMK AO2 SLP252 T00830061=
201312311943 SPECI KCLM 311943Z AUTO 24003KT 10SM BKN005 OVC020 08/06 A3027 RMK AO2 T00780061=
201312311931 SPECI KCLM 311931Z AUTO 00000KT 10SM SCT005 BKN020 OVC024 08/06 A3027 RMK AO2 T00780061=
201312311853 METAR KCLM 311853Z AUTO 29005KT 10SM OVC023 08/06 A3028 RMK AO2 SLP255 T00780056=
201312311838 SPECI KCLM 311838Z AUTO 25005KT 10SM FEW009 SCT015 OVC021 07/06 A3027 RMK AO2 T00720056=
201312311813 SPECI KCLM 311813Z AUTO 00000KT 10SM BKN009 BKN016 OVC022 07/05 A3027 RMK AO2 CIG 008V011 T00670050=
201312311804 SPECI KCLM 311804Z AUTO 00000KT 10SM SCT009 BKN016 OVC022 06/05 A3027 RMK AO2 T00610050=
201312311753 METAR KCLM 311753Z AUTO 00000KT 10SM FEW015 BKN022 06/04 A3026 RMK AO2 SLP249 T00560044 10056 20022 53021=
201312311710 SPECI KCLM 311710Z AUTO 00000KT 10SM BKN023 05/04 A3024 RMK AO2 T00500039=
201312311653 METAR KCLM 311653Z AUTO 00000KT 10SM FEW023 04/04 A3023 RMK AO2 SLP238 T00440039=
201312311553 METAR KCLM 311553Z AUTO 26004KT 10SM OVC025 04/03 A3021 RMK AO2 SLP233 T00440033=
201312311453 METAR KCLM 311453Z AUTO 22003KT 10SM BKN028 04/03 A3020 RMK AO2 SLP228 T00440033 51007=
201312311418 SPECI KCLM 311418Z AUTO 24004KT 10SM FEW025 04/03 A3020 RMK AO2 T00440033=
201312311353 METAR KCLM 311353Z AUTO 28003KT 10SM BKN024 05/04 A3019 RMK AO2 SLP226 T00500039=
201312311340 SPECI KCLM 311340Z AUTO 00000KT 10SM BKN023 03/02 A3019 RMK AO2 T00280022=
201312311253 METAR KCLM 311253Z AUTO 24005KT 10SM CLR 03/02 A3020 RMK AO2 SLP228 T00280022=
201312311153 METAR KCLM 311153Z AUTO 23005KT 10SM FEW027 02/02 A3018 RMK AO2 SLP221 60000 T00220017 10067 20017 50003=
201312311145 SPECI KCLM 311145Z AUTO 24004KT 7SM SCT027 02/01 A3018 RMK AO2 T00220011=
201312311103 SPECI KCLM 311103Z AUTO 21004KT 10SM SCT008 SCT017 OVC028 03/03 A3019 RMK AO2 T00330028=
201312311053 METAR KCLM 311053Z AUTO 19003KT 10SM BKN008 BKN017 OVC028 03/03 A3019 RMK AO2 SLP225 T00330028=
201312311029 SPECI KCLM 311029Z AUTO 00000KT 10SM BKN009 03/03 A3018 RMK AO2 T00330028=
201312311021 SPECI KCLM 311021Z AUTO 00000KT 4SM BR SCT009 03/02 A3018 RMK AO2 T00280022=
201312311018 SPECI KCLM 311018Z AUTO 00000KT 1 1/2SM BR SCT009 03/02 A3018 RMK AO2 T00280017=
201312311000 SPECI KCLM 311000Z AUTO 00000KT 1 3/4SM BR CLR 03/02 A3017 RMK AO2 T00280022=
201312310953 METAR KCLM 310953Z AUTO 14003KT 7SM CLR 03/03 A3017 RMK AO2 SLP218 T00330028=
201312310945 SPECI KCLM 310945Z AUTO 14003KT 3SM BR FEW003 03/02 A3017 RMK AO2 T00330022=
201312310942 SPECI KCLM 310942Z AUTO 13003KT 1 1/4SM BR FEW003 03/02 A3017 RMK AO2 T00330022=
201312310917 SPECI KCLM 310917Z AUTO 00000KT 1/2SM FG VV003 03/02 A3017 RMK AO2 T00330022=
201312310907 SPECI KCLM 310907Z AUTO 15003KT 3/4SM BR FEW002 FEW041 03/02 A3016 RMK AO2 VIS 1/4V5 T00280022=
201312310905 SPECI KCLM 310905Z AUTO 00000KT 1 1/2SM BR FEW041 03/03 A3016 RMK AO2 VIS 1/2V5 T00330028=
201312310853 METAR KCLM 310853Z AUTO 00000KT 10SM SCT043 04/04 A3017 RMK AO2 SLP217 60000 T00440039 53002=
201312310753 METAR KCLM 310753Z AUTO 13004KT 8SM OVC041 06/05 A3016 RMK AO2 RAB15E43 SLP214 P0000 T00610050 400780017=
201312310653 METAR KCLM 310653Z AUTO 10SM OVC038 06/05 A3016 RMK AO2 RAB0554E20 SLP214 P0000 T00610050=
201312310553 METAR KCLM 310553Z AUTO 25005KT 10SM OVC039 07/05 A3016 RMK AO2 RAB17E26 SLP215 P0000 60000 T00670050 10072 20056 52006=
201312310529 SPECI KCLM 310529Z AUTO 25005KT 10SM SCT016 OVC039 07/05 A3015 RMK AO2 RAB17E26 P0000 T00720050=
201312310453 METAR KCLM 310453Z AUTO 24003KT 10SM OVC016 07/05 A3015 RMK AO2 SLP213 T00720050=
201312310407 SPECI KCLM 310407Z AUTO 25003KT 10SM BKN016 OVC050 07/05 A3016 RMK AO2 T00720050=
201312310353 METAR KCLM 310353Z AUTO 00000KT 10SM SCT016 BKN050 OVC060 07/05 A3015 RMK AO2 RAE18 SLP211 P0000 T00670050=
201312310344 SPECI KCLM 310344Z AUTO 00000KT 10SM FEW014 SCT019 OVC055 07/05 A3015 RMK AO2 RAE18 P0000 T00670050=
201312310253 METAR KCLM 310253Z AUTO 26004KT 10SM -RA OVC015 07/04 A3014 RMK AO2 RAB49 SLP210 P0000 60000 T00720044 53009=
201312310153 METAR KCLM 310153Z AUTO 00000KT 10SM OVC019 06/05 A3014 RMK AO2 RAB01E35 SLP207 P0000 T00610050=
201312310142 SPECI KCLM 310142Z AUTO 26003KT 10SM BKN020 BKN060 OVC095 06/04 A3014 RMK AO2 RAB01E35 P0000 T00560044=
201312310053 METAR KCLM 310053Z AUTO 00000KT 10SM BKN080 OVC100 06/04 A3012 RMK AO2 SLP202 T00610044=
201312302353 METAR KCLM 302353Z AUTO 01003KT 10SM BKN100 07/05 A3012 RMK AO2 SLP200 T00670050 10078 20056 56011=
201312302253 METAR KCLM 302253Z AUTO 00000KT 10SM OVC110 08/05 A3013 RMK AO2 SLP204 T00780050=
201312302153 METAR KCLM 302153Z AUTO 00000KT 10SM SCT120 08/04 A3013 RMK AO2 SLP206 T00780044=
201312302122 SPECI KCLM 302122Z AUTO 00000KT 10SM FEW008 SCT120 07/04 A3014 RMK AO2 T00720044=
201312302053 METAR KCLM 302053Z AUTO 00000KT 10SM FEW120 07/04 A3015 RMK AO2 SLP212 T00670044 58005=
201312302018 SPECI KCLM 302018Z AUTO 30004KT 10SM FEW008 SCT120 07/04 A3017 RMK AO2 T00670044=
201312302001 SPECI KCLM 302001Z AUTO 27003KT 10SM FEW007 BKN012 07/04 A3017 RMK AO2 T00670044=
201312301953 METAR KCLM 301953Z AUTO 00000KT 10SM BKN007 BKN012 07/04 A3017 RMK AO2 CIG 006V011 SLP219 T00670044=
201312301950 SPECI KCLM 301950Z AUTO 26003KT 10SM BKN007 OVC012 07/04 A3018 RMK AO2 CIG 006V011=
201312301943 SPECI KCLM 301943Z AUTO 30005KT 10SM SCT007 OVC012 07/04 A3018 RMK AO2 T00670044=
201312301933 SPECI KCLM 301933Z AUTO VRB03KT 10SM BKN007 BKN012 07/04 A3017 RMK AO2 T00670044=
201312301923 SPECI KCLM 301923Z AUTO 34004KT 10SM SCT007 07/04 A3017 RMK AO2 PRESRR T00670044=
201312301853 METAR KCLM 301853Z AUTO 00000KT 10SM CLR 07/04 A3016 RMK AO2 SLP216 T00670044=
201312301753 METAR KCLM 301753Z AUTO 00000KT 10SM SCT009 06/04 A3017 RMK AO2 SLP219 T00560044 10056 20028 58004=
201312301718 SPECI KCLM 301718Z AUTO 00000KT 10SM BKN008 05/04 A3019 RMK AO2 T00500039=
201312301653 METAR KCLM 301653Z AUTO 00000KT 10SM SCT008 04/03 A3018 RMK AO2 SLP221 T00440033=
201312301651 SPECI KCLM 301651Z AUTO 00000KT 10SM SCT008 04/03 A3018 RMK AO2=
201312301615 SPECI KCLM 301615Z AUTO 17005KT 10SM BKN007 BKN010 BKN120 04/03 A3018 RMK AO2 CIG 005V010 T00440033=
201312301601 SPECI KCLM 301601Z AUTO 31003KT 10SM SCT007 SCT010 OVC110 06/04 A3019 RMK AO2 T00560039=
201312301553 METAR KCLM 301553Z AUTO 10SM BKN110 06/04 A3018 RMK AO2 SLP223 T00560039 $=
201312301453 METAR KCLM 301453Z AUTO 10SM SCT007 SCT120 04/03 A3020 RMK AO2 SLP229 T00440033 56021 $=
201312301414 SPECI KCLM 301414Z AUTO 10SM BKN007 OVC100 04/03 A3022 RMK AO2 T00440033 $=
201312301405 SPECI KCLM 301405Z AUTO 10SM SCT007 OVC095 04/03 A3023 RMK AO2 T00440033 $=
201312301353 METAR KCLM 301353Z AUTO 10SM BKN095 BKN110 04/03 A3023 RMK AO2 SLP238 T00440033 $=
201312301253 METAR KCLM 301253Z AUTO 10SM BKN065 04/03 A3023 RMK AO2 SLP238 T00390028 $=
201312301153 METAR KCLM 301153Z AUTO 10SM BKN060 03/02 A3026 RMK AO2 SLP250 T00280022 10056 20017 58012 $=
201312301053 METAR KCLM 301053Z AUTO 10SM FEW014 02/02 A3028 RMK AO2 SLP256 T00170017 $=
201312300953 METAR KCLM 300953Z AUTO 10SM FEW070 03/02 A3029 RMK AO2 SLP258 T00330022 $=
201312300853 METAR KCLM 300853Z AUTO 10SM OVC065 04/03 A3030 RMK AO2 SLP263 T00390028 58006 $=
201312300753 METAR KCLM 300753Z AUTO 10SM BKN050 03/03 A3032 RMK AO2 SLP268 T00330028 400781011 $=
201312300653 METAR KCLM 300653Z AUTO 10SM BKN048 OVC065 04/03 A3032 RMK AO2 SLP268 T00440028 $=
201312300553 METAR KCLM 300553Z AUTO 10SM BKN044 OVC050 06/04 A3032 RMK AO2 SLP269 T00560039 10072 20056 58006 $=
201312300453 METAR KCLM 300453Z AUTO 10SM OVC045 06/04 A3033 RMK AO2 SLP272 T00560039 $=
201312300353 METAR KCLM 300353Z AUTO 10SM OVC048 06/04 A3033 RMK AO2 SLP273 T00560044 $=
201312300253 METAR KCLM 300253Z AUTO 10SM OVC044 06/04 A3034 RMK AO2 SLP275 T00610039 55004 $=
201312300153 METAR KCLM 300153Z AUTO 10SM OVC048 07/04 A3033 RMK AO2 SLP274 T00670039 $=
201312300053 METAR KCLM 300053Z AUTO 10SM OVC048 07/04 A3035 RMK AO2 SLP279 T00670039 $=
201312292353 METAR KCLM 292353Z AUTO 10SM OVC047 07/04 A3035 RMK AO2 SLP279 T00720039 10078 20056 55009 $=
201312292253 METAR KCLM 292253Z AUTO 10SM OVC047 07/04 A3035 RMK AO2 SLP278 T00720039 $=
201312292153 METAR KCLM 292153Z AUTO 10SM OVC047 07/04 A3036 RMK AO2 SLP282 T00720039 $=
201312292053 METAR KCLM 292053Z AUTO 10SM OVC050 07/04 A3038 RMK AO2 SLP288 T00720039 56012 $=
201312291953 METAR KCLM 291953Z AUTO 10SM OVC050 08/03 A3038 RMK AO2 SLP288 T00780033 $=
201312291936 SPECI KCLM 291936Z AUTO 10SM SCT015 OVC055 07/03 A3039 RMK AO2 T00720033 $=
201312291922 SPECI KCLM 291922Z AUTO 10SM BKN015 OVC055 07/04 A3039 RMK AO2 T00720039 $=
201312291912 SPECI KCLM 291912Z AUTO 10SM OVC014 07/04 A3039 RMK AO2 T00670039 $=
201312291853 METAR KCLM 291853Z AUTO 10SM OVC016 07/03 A3040 RMK AO2 SLP297 T00670033 $=
201312291753 METAR KCLM 291753Z AUTO 10SM OVC015 06/03 A3041 RMK AO2 SLP300 T00560028 10056 20011 53006 $=
201312291707 SPECI KCLM 291707Z AUTO 10SM BKN016 OVC060 04/03 A3040 RMK AO2 T00440028 $=
201312291653 METAR KCLM 291653Z AUTO 10SM FEW016 OVC065 04/03 A3040 RMK AO2 SLP296 T00390028 $=
201312291642 SPECI KCLM 291642Z AUTO 10SM FEW012 SCT018 OVC060 03/02 A3039 RMK AO2 T00330022 $=
201312291610 SPECI KCLM 291610Z AUTO 10SM BKN016 OVC060 04/02 A3040 RMK AO2 T00390017 $=
201312291553 METAR KCLM 291553Z AUTO 10SM FEW014 BKN060 OVC075 03/01 A3040 RMK AO2 SLP297 T00330011 $=
201312291453 METAR KCLM 291453Z AUTO 10SM BKN065 OVC090 03/01 A3039 RMK AO2 SLP295 T00330011 56015 $=
201312291353 METAR KCLM 291353Z AUTO 10SM OVC075 03/01 A3041 RMK AO2 SLP300 T00330011 $=
201312291253 METAR KCLM 291253Z AUTO 10SM OVC065 01/01 A3041 RMK AO2 SLP302 T00110006 $=
201312291153 METAR KCLM 291153Z AUTO 10SM CLR 02/01 A3044 RMK AO2 SLP309 I6000 T00220006 10033 21011 56017 $=
201312291053 METAR KCLM 291053Z AUTO 23006KT 10SM CLR 02/00 A3046 RMK AO2 SLP315 I1000 T00170000 $=
201312290953 METAR KCLM 290953Z AUTO VRB03KT 10SM CLR 00/M01 A3046 RMK AO2 SLP315 I1000 T00001006=
201312290853 METAR KCLM 290853Z AUTO 00000KT 10SM CLR 00/M01 A3049 RMK AO2 SLP326 T00001011 55007=
201312290753 METAR KCLM 290753Z AUTO 20003KT 10SM CLR 01/01 A3047 RMK AO2 SLP321 T00110006 400780000=
201312290653 METAR KCLM 290653Z AUTO 16003KT 10SM FEW085 03/02 A3049 RMK AO2 SLP326 T00280017=
201312290553 METAR KCLM 290553Z AUTO 00000KT 8SM OVC085 03/02 A3051 RMK AO2 SLP334 T00280017 10067 20017 50002=
201312290453 METAR KCLM 290453Z AUTO 24003KT 10SM OVC095 03/02 A3051 RMK AO2 SLP336 T00280017=
201312290353 METAR KCLM 290353Z AUTO 00000KT 10SM OVC100 02/02 A3051 RMK AO2 SLP336 T00220017=
201312290253 METAR KCLM 290253Z AUTO 00000KT 10SM CLR 02/02 A3050 RMK AO2 SLP332 T00220017 58002=
201312290215 SPECI KCLM 290215Z AUTO 19004KT 10SM SCT021 04/02 A3051 RMK AO2 T00390022=
201312290153 METAR KCLM 290153Z AUTO 00000KT 10SM OVC022 04/03 A3051 RMK AO2 SLP333 T00440028=
201312290053 METAR KCLM 290053Z AUTO 13003KT 10SM OVC023 06/03 A3051 RMK AO2 SLP333 T00560033=
201312282353 METAR KCLM 282353Z AUTO 12003KT 10SM OVC023 07/03 A3051 RMK AO2 SLP333 T00670033 10078 20033 53002 $=
201312282253 METAR KCLM 282253Z AUTO 11004KT 10SM OVC025 07/03 A3050 RMK AO2 SLP331 T00720033 $=
201312282153 METAR KCLM 282153Z AUTO 08003KT 10SM OVC025 07/03 A3050 RMK AO2 SLP330 T00720033 $=
201312282053 METAR KCLM 282053Z AUTO 08004KT 10SM OVC023 07/03 A3050 RMK AO2 SLP331 T00720033 58003 $=
201312281953 METAR KCLM 281953Z AUTO 07003KT 10SM OVC023 07/03 A3050 RMK AO2 SLP332 T00720028 $=
201312281853 METAR KCLM 281853Z AUTO 00000KT 10SM OVC021 06/03 A3052 RMK AO2 SLP338 T00560028 $=
201312281753 METAR KCLM 281753Z AUTO 10SM OVC020 03/02 A3051 RMK AO2 SLP335 T00330017 10033 20000 53019 $=
201312281728 SPECI KCLM 281728Z AUTO 10SM BKN021 02/01 A3050 RMK AO2 T00170006=
201312281653 METAR KCLM 281653Z AUTO 10SM CLR 02/00 A3048 RMK AO2 SLP325 T00170000 $=
201312281553 METAR KCLM 281553Z AUTO 10SM CLR 01/M01 A3047 RMK AO2 SLP320 T00111006 $=
201312281453 METAR KCLM 281453Z AUTO 10SM CLR 01/M01 A3046 RMK AO2 SLP316 T00111006 51008 $=
201312281353 METAR KCLM 281353Z AUTO 00000KT 10SM CLR 02/00 A3046 RMK AO2 SLP316 T00170000=
201312281313 SPECI KCLM 281313Z AUTO 24007KT 10SM SCT016 02/00 A3044 RMK AO2 T00170000=
201312281253 METAR KCLM 281253Z AUTO 24006KT 10SM BKN016 02/01 A3045 RMK AO2 SLP312 T00170006=
201312281244 SPECI KCLM 281244Z AUTO 24004KT 10SM BKN015 02/01 A3045 RMK AO2 T00220006=
201312281153 METAR KCLM 281153Z AUTO 24008KT 10SM FEW026 02/01 A3043 RMK AO2 SLP308 70015 T00220006 10056 20017 51018=
201312281126 SPECI KCLM 281126Z AUTO 22006KT 10SM SCT021 03/01 A3043 RMK AO2 T00280006=
201312281053 METAR KCLM 281053Z AUTO 23005KT 10SM BKN017 OVC022 03/02 A3043 RMK AO2 SLP306 T00280017=
201312281044 SPECI KCLM 281044Z AUTO 21005KT 10SM OVC015 03/02 A3042 RMK AO2 T00330017=
201312281029 SPECI KCLM 281029Z AUTO 00000KT 10SM OVC013 03/02 A3042 RMK AO2 T00330017=
201312281012 SPECI KCLM 281012Z AUTO 23006KT 10SM OVC015 03/02 A3041 RMK AO2 T00330017=
201312280953 METAR KCLM 280953Z AUTO 22007KT 10SM BKN014 03/01 A3041 RMK AO2 SLP300 T00330011=
201312280853 METAR KCLM 280853Z AUTO 23005KT 10SM OVC011 04/02 A3038 RMK AO2 SLP290 T00440017 53023=
201312280809 SPECI KCLM 280809Z AUTO 22005KT 10SM BKN013 03/01 A3036 RMK AO2 T00280011=
201312280753 METAR KCLM 280753Z AUTO 22004KT 10SM FEW013 03/02 A3036 RMK AO2 SLP283 T00330017 401001006=
201312280653 METAR KCLM 280653Z AUTO 29007KT 10SM CLR 05/02 A3033 RMK AO2 SLP273 T00500022=
201312280553 METAR KCLM 280553Z AUTO 28010KT 10SM CLR 06/03 A3031 RMK AO2 SLP267 T00560028 10089 20050 53013=
201312280453 METAR KCLM 280453Z AUTO 27010KT 10SM CLR 06/03 A3029 RMK AO2 SLP259 T00560033=
201312280353 METAR KCLM 280353Z AUTO 27009KT 10SM CLR 06/04 A3029 RMK AO2 SLP259 T00610039=
201312280253 METAR KCLM 280253Z AUTO 27015KT 10SM CLR 07/04 A3027 RMK AO2 SLP254 T00720044 53025=
201312280153 METAR KCLM 280153Z AUTO 31005KT 10SM CLR 07/04 A3024 RMK AO2 SLP243 T00670044=
201312280053 METAR KCLM 280053Z AUTO 26009KT 10SM CLR 08/04 A3023 RMK AO2 SLP238 T00780044=
201312272353 METAR KCLM 272353Z AUTO 25006KT 10SM CLR 08/04 A3020 RMK AO2 SLP229 60015 T00780044 10100 20056 53020=
201312272253 METAR KCLM 272253Z AUTO 31009KT 10SM CLR 09/06 A3019 RMK AO2 SLP226 T00940056=
201312272153 METAR KCLM 272153Z AUTO 31012KT 10SM CLR 10/06 A3015 RMK AO2 SLP211 T01000061=
201312272053 METAR KCLM 272053Z AUTO 30009KT 10SM CLR 09/07 A3014 RMK AO2 SLP208 60015 T00890067 51018=
201312271953 METAR KCLM 271953Z AUTO 30006KT 10SM FEW041 BKN050 OVC065 07/06 A3014 RMK AO2 RAE34 SLP209 P0003 T00720061=
201312271853 METAR KCLM 271853Z AUTO 00000KT 3SM -RA BR FEW036 OVC050 06/05 A3012 RMK AO2 SLP203 P0012 T00610050=
201312271753 METAR KCLM 271753Z AUTO 00000KT 10SM -RA FEW003 OVC055 06/04 A3009 RMK AO2 RAE13B21 SLP191 P0000 60000 T00560044 10056 20017 55005=
201312271746 SPECI KCLM 271746Z AUTO 00000KT 10SM -RA SCT003 OVC060 06/04 A3008 RMK AO2 RAE13B21 P0000 T00560044=
201312271720 SPECI KCLM 271720Z AUTO 22004KT 10SM OVC004 05/04 A3009 RMK AO2 RAE13 P0000 T00500039=
201312271711 SPECI KCLM 271711Z AUTO 26004KT 10SM -RA BKN005 OVC065 04/03 A3009 RMK AO2 P0000 T00440033=
201312271702 SPECI KCLM 271702Z AUTO 00000KT 10SM -RA SCT005 BKN060 OVC080 04/04 A3009 RMK AO2 P0000 T00440039=
201312271653 METAR KCLM 271653Z AUTO 00000KT 10SM -RA BKN060 OVC075 04/04 A3008 RMK AO2 RAB27 SLP188 P0000 T00440039=
201312271553 METAR KCLM 271553Z AUTO 24004KT 10SM FEW002 OVC060 03/02 A3009 RMK AO2 SLP192 T00330022=
201312271453 METAR KCLM 271453Z AUTO 27005KT 10SM FEW002 BKN055 BKN085 03/02 A3010 RMK AO2 SLP196 T00330022 55012=
201312271448 SPECI KCLM 271448Z AUTO 00000KT 10SM SCT002 BKN050 OVC085 03/02 A3010 RMK AO2=
201312271353 METAR KCLM 271353Z AUTO 00000KT 5SM BR OVC003 02/02 A3011 RMK AO2 CIG 001V004 SLP199 T00220017=
201312271321 SPECI KCLM 271321Z AUTO 22004KT 10SM BKN003 OVC060 03/02 A3013 RMK AO2 T00280022=
201312271310 SPECI KCLM 271310Z AUTO 27003KT 10SM SCT003 OVC055 03/02 A3013 RMK AO2 T00280022=
201312271253 METAR KCLM 271253Z AUTO 25003KT 10SM OVC060 02/02 A3014 RMK AO2 SLP208 T00220017=
201312271237 SPECI KCLM 271237Z AUTO 00000KT 4SM BR SCT003 OVC060 02/02 A3014 RMK AO2 T00220017=
201312271223 SPECI KCLM 271223Z AUTO VRB03KT 4SM BR BKN004 BKN065 02/01 A3014 RMK AO2 T00220011=
201312271213 SPECI KCLM 271213Z AUTO 14003KT 4SM BR SCT004 OVC065 02/01 A3014 RMK AO2 T00170011=
201312271153 METAR KCLM 271153Z AUTO 20003KT 4SM BR BKN065 02/02 A3015 RMK AO2 SLP212 I6001 T00170017 10028 21011 58009=
201312271146 SPECI KCLM 271146Z AUTO 00000KT 3SM BR SCT060 BKN070 02/02 A3015 RMK AO2 T00220017=
201312271139 SPECI KCLM 271139Z AUTO 23003KT 1 1/2SM BR BKN065 02/02 A3016 RMK AO2 T00220017=
201312271118 SPECI KCLM 271118Z AUTO 00000KT 2SM BR BKN060 03/02 A3016 RMK AO2 T00280022=
201312271108 SPECI KCLM 271108Z AUTO 00000KT 1 1/2SM BR SCT004 BKN060 02/02 A3016 RMK AO2 T00220017=
201312271101 SPECI KCLM 271101Z AUTO 11004KT 1 3/4SM BR BKN004 BKN060 02/01 A3017 RMK AO2 T00170011=
201312271053 METAR KCLM 271053Z AUTO 15004KT 6SM BR BKN004 03/02 A3017 RMK AO2 SLP220 T00280022=
201312271030 SPECI KCLM 271030Z AUTO 22004KT 3SM BR OVC003 02/02 A3019 RMK AO2 T00220017=
201312271026 SPECI KCLM 271026Z AUTO 21005KT 1SM BR OVC003 03/02 A3019 RMK AO2 T00280017=
201312271015 SPECI KCLM 271015Z AUTO 24005KT 1/4SM FG VV002 02/01 A3019 RMK AO2 T00170011=
201312271002 SPECI KCLM 271002Z AUTO 25003KT 1/4SM FG VV001 02/02 A3018 RMK AO2 T00220017=
201312270953 METAR KCLM 270953Z AUTO 00000KT 1/2SM FG VV001 02/01 A3018 RMK AO2 SLP222 I1000 T00170006=
201312270950 SPECI KCLM 270950Z AUTO 00000KT 3/4SM BR OVC003 01/01 A3018 RMK AO2 I1000=
201312270940 SPECI KCLM 270940Z AUTO 17004KT 1 1/2SM BR OVC004 02/01 A3017 RMK AO2 I1000 T00220011=
201312270853 METAR KCLM 270853Z AUTO 00000KT 9SM OVC004 01/M01 A3019 RMK AO2 SLP226 I1000 I3001 T00061006 58004=
201312270835 SPECI KCLM 270835Z AUTO 00000KT 9SM BKN004 M01/M01 A3019 RMK AO2 I1000 T10061011=
201312270753 METAR KCLM 270753Z AUTO 22003KT 10SM FEW005 M01/M01 A3020 RMK AO2 SLP229 T10061011 400781011=
201312270744 SPECI KCLM 270744Z AUTO 00000KT 2SM BR SCT006 01/M01 A3020 RMK AO2 T00061006=
201312270731 SPECI KCLM 270731Z AUTO 00000KT 6SM BR FEW006 M01/M01 A3021 RMK AO2 T10061011=
201312270653 METAR KCLM 270653Z AUTO 22004KT 10SM CLR 00/M01 A3021 RMK AO2 SLP233 I1001 T00001011=
201312270553 METAR KCLM 270553Z AUTO 00000KT 7SM FEW004 M01/M01 A3020 RMK AO2 SLP231 I1001 I6002 T10061011 10067 21011 58009=
201312270546 SPECI KCLM 270546Z AUTO 16003KT 5SM BR FEW004 M01/M01 A3020 RMK AO2 I1001 T10061011=
201312270531 SPECI KCLM 270531Z AUTO 00000KT 2SM BR FEW004 01/M01 A3021 RMK AO2 I1001 T00061006=
201312270453 METAR KCLM 270453Z AUTO 00000KT 10SM CLR 00/M01 A3021 RMK AO2 SLP233 I1001 T00001011=
201312270353 METAR KCLM 270353Z AUTO 00000KT 10SM CLR 01/M01 A3023 RMK AO2 SLP238 T00061006=
201312270253 METAR KCLM 270253Z AUTO 14003KT 9SM CLR 00/M01 A3023 RMK AO2 SLP240 T00001006 58013=
201312270153 METAR KCLM 270153Z AUTO 23003KT 10SM CLR 02/02 A3025 RMK AO2 SLP247 T00220017=
201312270053 METAR KCLM 270053Z AUTO 00000KT 10SM CLR 04/02 A3025 RMK AO2 SLP246 T00390022=
201312262353 METAR KCLM 262353Z AUTO 00000KT 10SM CLR 07/04 A3027 RMK AO2 SLP252 T00670039 10078 20039 56008=
201312262253 METAR KCLM 262253Z AUTO 05003KT 10SM CLR 07/04 A3027 RMK AO2 SLP253 T00720044=
201312262153 METAR KCLM 262153Z AUTO 00000KT 10SM CLR 08/04 A3028 RMK AO2 SLP255 T00780044=
201312262053 METAR KCLM 262053Z AUTO 03003KT 10SM CLR 07/04 A3029 RMK AO2 SLP260 T00720039 58015=
201312261953 METAR KCLM 261953Z AUTO 09003KT 10SM CLR 07/04 A3031 RMK AO2 SLP265 T00720039 $=
201312261853 METAR KCLM 261853Z AUTO 00000KT 10SM CLR 07/04 A3032 RMK AO2 SLP271 T00670039 $=
201312261753 METAR KCLM 261753Z AUTO 00000KT 10SM CLR 04/03 A3034 RMK AO2 SLP275 T00390028 10050 20006 53001 $=
201312261653 METAR KCLM 261653Z AUTO 00000KT 10SM CLR 02/01 A3033 RMK AO2 SLP274 T00220011 $=
201312261553 METAR KCLM 261553Z AUTO 23006KT 10SM CLR 03/01 A3033 RMK AO2 SLP274 T00280011 $=
201312261453 METAR KCLM 261453Z AUTO 10SM CLR 01/00 A3033 RMK AO2 SLP275 T00110000 56013 $=
201312261353 METAR KCLM 261353Z AUTO 10SM CLR 02/01 A3035 RMK AO2 SLP280 T00220011 $=
201312261253 METAR KCLM 261253Z AUTO 10SM FEW050 OVC080 04/03 A3036 RMK AO2 SLP282 T00390028 $=
201312261153 METAR KCLM 261153Z AUTO 10SM OVC048 06/03 A3037 RMK AO2 SLP287 T00560028 10056 20044 58002 $=
201312261053 METAR KCLM 261053Z AUTO 10SM FEW010 BKN049 OVC065 05/03 A3039 RMK AO2 SLP294 T00500028 $=
201312260953 METAR KCLM 260953Z AUTO 10SM OVC047 05/03 A3038 RMK AO2 SLP289 T00500028 $=
201312260853 METAR KCLM 260853Z AUTO 10SM OVC050 05/03 A3038 RMK AO2 SLP289 T00500028 58001 $=
201312260753 METAR KCLM 260753Z AUTO 10SM FEW046 OVC055 05/03 A3038 RMK AO2 SLP291 T00500028 400671017 $=
201312260653 METAR KCLM 260653Z AUTO 10SM OVC049 05/03 A3040 RMK AO2 SLP295 T00500028 $=
201312260553 METAR KCLM 260553Z AUTO 10SM FEW055 SCT070 OVC085 04/02 A3038 RMK AO2 SLP291 T00390022 10061 20039 58010 $=
201312260510 SPECI KCLM 260510Z AUTO 10SM SCT025 BKN060 OVC085 04/03 A3039 RMK AO2 T00440028 $=
201312260453 METAR KCLM 260453Z AUTO 10SM OVC026 04/03 A3040 RMK AO2 SLP297 T00440028 $=
201312260436 SPECI KCLM 260436Z AUTO 10SM BKN027 OVC049 04/03 A3040 RMK AO2 T00440028 $=
201312260353 METAR KCLM 260353Z AUTO 10SM BKN031 OVC048 05/03 A3040 RMK AO2 SLP297 T00500028 $=
201312260253 METAR KCLM 260253Z AUTO 10SM SCT033 OVC050 05/02 A3041 RMK AO2 SLP301 T00500022 58000 $=
201312260153 METAR KCLM 260153Z AUTO 10SM OVC048 04/02 A3042 RMK AO2 SLP304 T00440022 $=
201312260053 METAR KCLM 260053Z AUTO 10SM SCT048 05/02 A3041 RMK AO2 SLP301 T00500017 $=
201312252353 METAR KCLM 252353Z AUTO 10SM FEW038 OVC050 06/02 A3041 RMK AO2 SLP302 T00560022 10067 20028 56006 $=
201312252253 METAR KCLM 252253Z AUTO 10SM OVC041 06/02 A3042 RMK AO2 SLP303 T00610022 $=
201312252153 METAR KCLM 252153Z AUTO 10SM OVC048 06/02 A3041 RMK AO2 SLP302 T00610022 $=
201312252053 METAR KCLM 252053Z AUTO 10SM OVC042 06/02 A3043 RMK AO2 SLP307 T00560022 55004 $=
201312251953 METAR KCLM 251953Z AUTO 10SM FEW050 OVC065 06/02 A3042 RMK AO2 SLP304 T00610017 $=
201312251853 METAR KCLM 251853Z AUTO 10SM BKN055 OVC075 05/01 A3045 RMK AO2 SLP314 T00500011 $=
201312251753 METAR KCLM 251753Z AUTO 10SM OVC065 03/02 A3044 RMK AO2 SLP312 T00280017 10028 21017 56010 $=
201312251653 METAR KCLM 251653Z AUTO 10SM OVC065 01/00 A3046 RMK AO2 SLP318 T00110000 $=
201312251553 METAR KCLM 251553Z AUTO 10SM SCT075 01/M01 A3045 RMK AO2 SLP315 T00111006 $=
201312251453 METAR KCLM 251453Z AUTO 10SM OVC080 02/00 A3047 RMK AO2 SLP323 T00170000 56013 $=
201312251353 METAR KCLM 251353Z AUTO 10SM OVC090 01/M01 A3048 RMK AO2 SLP324 T00061006 $=
201312251253 METAR KCLM 251253Z AUTO 23003KT 10SM CLR M01/M02 A3049 RMK AO2 SLP328 T10111022 $=
201312251153 METAR KCLM 251153Z AUTO 25006KT 10SM CLR 01/M02 A3051 RMK AO2 SLP336 T00061017 10017 21011 55004=
201312251053 METAR KCLM 251053Z AUTO 22005KT 10SM CLR 01/M01 A3051 RMK AO2 SLP333 T00061011=
201312250953 METAR KCLM 250953Z AUTO 23004KT 10SM FEW014 00/M02 A3052 RMK AO2 SLP335 T00001017=
201312250944 SPECI KCLM 250944Z AUTO 00000KT 10SM SCT014 01/M01 A3052 RMK AO2 T00061011=
201312250924 SPECI KCLM 250924Z AUTO 23006KT 10SM BKN014 OVC029 02/M01 A3052 RMK AO2 T00171006=
201312250853 METAR KCLM 250853Z AUTO 23006KT 10SM FEW011 OVC030 02/M01 A3053 RMK AO2 SLP339 T00171006 58008=
201312250814 SPECI KCLM 250814Z AUTO 22005KT 10SM SCT010 OVC031 01/M01 A3053 RMK AO2 T00111011=
201312250753 METAR KCLM 250753Z AUTO 23003KT 10SM BKN010 OVC031 00/M01 A3054 RMK AO2 SLP344 T00001011 400781011=
201312250653 METAR KCLM 250653Z AUTO 00000KT 10SM FEW033 00/M02 A3055 RMK AO2 SLP349 T00001017=
201312250553 METAR KCLM 250553Z AUTO 23003KT 10SM SCT032 M01/M02 A3055 RMK AO2 SLP348 T10061017 10061 21011 55005=
201312250453 METAR KCLM 250453Z AUTO 00000KT 10SM CLR 00/M02 A3054 RMK AO2 SLP346 T00001017=
201312250353 METAR KCLM 250353Z AUTO 19003KT 10SM OVC036 04/01 A3056 RMK AO2 SLP350 T00440011=
201312250253 METAR KCLM 250253Z AUTO 00000KT 10SM OVC034 04/02 A3057 RMK AO2 SLP352 T00390017 56008=
201312250153 METAR KCLM 250153Z AUTO 21003KT 10SM OVC035 04/02 A3057 RMK AO2 SLP355 T00390017=
201312250053 METAR KCLM 250053Z AUTO 22003KT 10SM SCT038 04/01 A3058 RMK AO2 SLP356 T00440011=
201312242353 METAR KCLM 242353Z AUTO 32004KT 10SM OVC043 06/01 A3059 RMK AO2 SLP361 T00610011 10078 20044 55001=
201312242253 METAR KCLM 242253Z AUTO 32007KT 10SM OVC036 07/02 A3059 RMK AO2 SLP360 T00670017=
201312242153 METAR KCLM 242153Z AUTO 29005KT 10SM OVC036 07/M01 A3059 RMK AO2 SLP360 T00721006=
201312242053 METAR KCLM 242053Z AUTO 29005KT 10SM OVC036 07/01 A3059 RMK AO2 SLP362 T00720006 58001=
201312241953 METAR KCLM 241953Z AUTO 26006KT 10SM OVC036 07/01 A3060 RMK AO2 SLP363 T00720006=
201312241853 METAR KCLM 241853Z AUTO 25007KT 10SM SCT037 06/00 A3060 RMK AO2 SLP364 T00610000=
201312241753 METAR KCLM 241753Z AUTO 24008KT 10SM CLR 04/00 A3060 RMK AO2 SLP363 T00390000 10039 20028 53006=
201312241653 METAR KCLM 241653Z AUTO 24010KT 10SM CLR 03/M01 A3059 RMK AO2 SLP361 T00281006=
201312241553 METAR KCLM 241553Z AUTO 24007KT 10SM CLR 03/M01 A3058 RMK AO2 SLP357 T00281011=
201312241453 METAR KCLM 241453Z AUTO 25009KT 10SM CLR 03/M01 A3058 RMK AO2 SLP357 T00331006 51006=
201312241353 METAR KCLM 241353Z AUTO 25008KT 10SM CLR 04/M01 A3057 RMK AO2 SLP354 T00391006=
201312241253 METAR KCLM 241253Z AUTO 25010KT 10SM BKN040 04/00 A3057 RMK AO2 SLP355 T00390000=
201312241153 METAR KCLM 241153Z AUTO 25008KT 10SM BKN041 04/00 A3056 RMK AO2 SLP351 70007 T00390000 10056 20028 53015=
201312241053 METAR KCLM 241053Z AUTO 23007KT 10SM SCT039 03/M01 A3055 RMK AO2 SLP346 T00331006=
201312240953 METAR KCLM 240953Z AUTO 23009KT 10SM CLR 03/00 A3053 RMK AO2 SLP340 T00330000=
201312240853 METAR KCLM 240853Z AUTO 25010KT 10SM CLR 04/00 A3052 RMK AO2 SLP336 T00440000 52021=
201312240753 METAR KCLM 240753Z AUTO 26011KT 10SM CLR 06/01 A3050 RMK AO2 SLP331 T00560006 401060050=
201312240653 METAR KCLM 240653Z AUTO 26010KT 10SM CLR 06/01 A3047 RMK AO2 SLP322 T00560006=
201312240553 METAR KCLM 240553Z AUTO 26009KT 10SM CLR 05/01 A3046 RMK AO2 SLP316 60000 T00500011 10083 20050 51029=
201312240453 METAR KCLM 240453Z AUTO 27010KT 10SM CLR 06/01 A3043 RMK AO2 SLP305 T00560011=
201312240353 METAR KCLM 240353Z AUTO 25010KT 10SM CLR 06/01 A3040 RMK AO2 SLP298 T00610011=
201312240253 METAR KCLM 240253Z AUTO 30009KT 10SM CLR 07/01 A3037 RMK AO2 SLP287 60000 T00670006 53026=
201312240153 METAR KCLM 240153Z AUTO 29011G20KT 10SM CLR 07/01 A3034 RMK AO2 SLP275 T00720006=
201312240053 METAR KCLM 240053Z AUTO 29016G22KT 10SM SCT045 08/02 A3032 RMK AO2 RAB23E40 SLP269 P0000 T00780022=
201312232353 METAR KCLM 232353Z AUTO 28012KT 10SM BKN055 08/02 A3029 RMK AO2 SLP259 60000 T00830022 10100 20083 53034=
201312232253 METAR KCLM 232253Z AUTO 28011G24KT 10SM CLR 09/02 A3025 RMK AO2 PK WND 28029/2202 PRESRR SLP246 T00940022=
201312232153 METAR KCLM 232153Z AUTO 28017KT 10SM CLR 09/03 A3022 RMK AO2 PK WND 28028/2105 SLP235 T00940028=
201312232053 METAR KCLM 232053Z AUTO 29014G22KT 10SM SCT065 SCT080 09/03 A3019 RMK AO2 PK WND 27026/2007 SLP226 60000 T00890033 51020=
201312231953 METAR KCLM 231953Z AUTO 29014G22KT 10SM FEW060 09/04 A3019 RMK AO2 RAE00 SLP223 P0000 T00890044=
201312231853 METAR KCLM 231853Z AUTO 30016G24KT 10SM -RA BKN043 BKN060 OVC075 09/06 A3018 RMK AO2 PK WND 30029/1825 RAB24 PRESRR SLP223 P0000 T00890061=
201312231837 SPECI KCLM 231837Z AUTO 29016G24KT 10SM -RA SCT031 BKN049 BKN060 09/07 A3016 RMK AO2 PK WND 30029/1825 RAB24 P0000 T00890067=
201312231826 SPECI KCLM 231826Z AUTO 30020G29KT 10SM -RA FEW012 BKN024 BKN050 09/07 A3015 RMK AO2 PK WND 30029/1825 RAB24 P0000 T00890067=
201312231753 METAR KCLM 231753Z AUTO 27009KT 10SM FEW032 SCT055 10/08 A3013 RMK AO2 SLP204 60007 T01000078 10106 20072 53001=
201312231653 METAR KCLM 231653Z AUTO 26007KT 10SM FEW046 SCT060 09/07 A3013 RMK AO2 SLP203 T00890072=
201312231553 METAR KCLM 231553Z AUTO 24010KT 10SM OVC050 09/07 A3011 RMK AO2 RAE23 SLP196 P0001 T00940072=
201312231505 SPECI KCLM 231505Z AUTO 23005KT 3SM -RA BR BKN038 OVC046 08/07 A3013 RMK AO2 P0000 T00780067=
201312231500 SPECI KCLM 231500Z AUTO 26005KT 1 1/2SM -RA BR BKN034 OVC046 08/07 A3013 RMK AO2 P0000 T00780067=
201312231453 METAR KCLM 231453Z AUTO 31003KT 3/4SM -RA BR OVC030 08/07 A3013 RMK AO2 SLP204 P0001 60006 T00780067 53001=
201312231433 SPECI KCLM 231433Z AUTO 00000KT 3/4SM -RA BR BKN021 OVC048 08/07 A3013 RMK AO2 P0001 T00780072=
201312231427 SPECI KCLM 231427Z AUTO 33003KT 1 3/4SM -RA BR SCT031 OVC048 08/07 A3012 RMK AO2 P0000 T00780072=
201312231353 METAR KCLM 231353Z AUTO 33004KT 10SM -RA SCT050 OVC060 08/07 A3011 RMK AO2 SLP199 P0002 T00830072=
201312231253 METAR KCLM 231253Z AUTO 35003KT 10SM -RA FEW055 OVC070 08/07 A3011 RMK AO2 RAB07 SLP199 P0003 T00780072=
201312231153 METAR KCLM 231153Z AUTO 11003KT 10SM OVC070 08/07 A3013 RMK AO2 RAE12 SLP203 P0000 60010 70014 T00780067 10078 20061 58019=
201312231053 METAR KCLM 231053Z AUTO 18003KT 10SM -RA FEW016 SCT060 OVC070 07/06 A3015 RMK AO2 SLP213 P0002 T00720061=
201312230953 METAR KCLM 230953Z AUTO 11003KT 5SM -RA BR FEW006 SCT042 OVC080 07/06 A3016 RMK AO2 RAE17B24 SLP215 P0002 T00670061=
201312230946 SPECI KCLM 230946Z AUTO 10003KT 5SM -RA BR FEW002 SCT008 OVC080 07/06 A3016 RMK AO2 RAE17B24 PRESFR P0002 T00670061=
201312230919 SPECI KCLM 230919Z AUTO 00000KT 5SM BR FEW002 BKN007 OVC055 07/06 A3019 RMK AO2 RAE17 P0001 T00670061=
201312230853 METAR KCLM 230853Z AUTO 36003KT 5SM -RA BR FEW008 OVC070 07/06 A3018 RMK AO2 SLP222 P0001 60006 T00670061 58019=
201312230753 METAR KCLM 230753Z AUTO 00000KT 7SM -RA OVC075 07/06 A3020 RMK AO2 SLP229 P0001 T00670061 400720044=
201312230653 METAR KCLM 230653Z AUTO 21003KT 4SM -RA BR SCT002 BKN055 OVC070 07/06 A3023 RMK AO2 RAB02 SLP239 P0004 T00670061=
201312230619 SPECI KCLM 230619Z AUTO 29004KT 3SM -RA BR OVC002 07/06 A3024 RMK AO2 RAB02 P0001 T00670061=
201312230603 SPECI KCLM 230603Z AUTO 27004KT 1 1/4SM -RA BR OVC003 07/06 A3023 RMK AO2 RAB02 P0000 T00670056=
201312230553 METAR KCLM 230553Z AUTO 29005KT 3/4SM BR VV002 07/06 A3024 RMK AO2 SLP241 60004 T00670056 10067 20061 53003=
201312230549 SPECI KCLM 230549Z AUTO 29004KT 3/4SM BR VV002 07/06 A3023 RMK AO2=
201312230536 SPECI KCLM 230536Z AUTO 30004KT 1 3/4SM BR OVC002 06/06 A3023 RMK AO2 T00610056=
201312230525 SPECI KCLM 230525Z AUTO 27003KT 3SM BR OVC002 06/06 A3023 RMK AO2 T00610056=
201312230516 SPECI KCLM 230516Z AUTO 00000KT 1 1/2SM BR OVC003 06/06 A3023 RMK AO2 T00610056=
201312230501 SPECI KCLM 230501Z AUTO 00000KT 3/4SM BR BKN003 OVC060 06/05 A3023 RMK AO2 T00610050=
201312230453 METAR KCLM 230453Z AUTO 00000KT 1 1/4SM BR SCT003 BKN060 OVC080 06/06 A3023 RMK AO2 RAE49 SLP238 P0001 T00610056=
201312230442 SPECI KCLM 230442Z AUTO 00000KT 3/4SM -RA BR FEW003 BKN060 OVC080 06/06 A3023 RMK AO2 P0001 T00610056=
201312230429 SPECI KCLM 230429Z AUTO 00000KT 1SM -RA BR FEW002 BKN065 OVC080 06/06 A3024 RMK AO2 P0001 T00610056=
201312230421 SPECI KCLM 230421Z AUTO 00000KT 3/4SM -RA BR FEW002 BKN043 OVC075 06/06 A3024 RMK AO2 P0001 T00610056=
201312230416 SPECI KCLM 230416Z AUTO 00000KT 1SM -RA BR SCT002 BKN022 OVC075 06/06 A3024 RMK AO2 P0000 T00610056=
201312230353 METAR KCLM 230353Z AUTO 00000KT 1 1/2SM -RA BR OVC002 07/06 A3024 RMK AO2 RAE28B41 SLP244 P0002 T00670061=
201312230337 SPECI KCLM 230337Z AUTO 19003KT 1/2SM FG BKN002 OVC030 06/06 A3025 RMK AO2 RAE28 P0001 T00610056=
201312230322 SPECI KCLM 230322Z AUTO 00000KT 1/2SM -RA FG SCT003 BKN046 OVC065 06/06 A3025 RMK AO2 P0001 T00610056=
201312230308 SPECI KCLM 230308Z AUTO 00000KT 1/2SM -RA FG OVC060 07/06 A3025 RMK AO2 P0000 T00670056=
201312230253 METAR KCLM 230253Z AUTO 00000KT 1/4SM -RA FG OVC036 07/06 A3026 RMK AO2 RAB26 SLP248 P0001 60001 T00670056 58005=
201312230244 SPECI KCLM 230244Z AUTO 00000KT 1/4SM -RA FG FEW002 BKN017 OVC065 07/06 A3026 RMK AO2 RAB26 P0001 T00670061=
201312230241 SPECI KCLM 230241Z AUTO 00000KT 1/2SM -RA FG SCT002 OVC013 07/06 A3027 RMK AO2 RAB26 P0001 T00670061=
201312230224 SPECI KCLM 230224Z AUTO 00000KT 3/4SM BR OVC002 07/06 A3028 RMK AO2 T00670056=
201312230215 SPECI KCLM 230215Z AUTO 00000KT 2 1/2SM BR OVC002 07/06 A3027 RMK AO2 T00670061=
201312230205 SPECI KCLM 230205Z AUTO 00000KT 1 3/4SM BR OVC002 07/06 A3027 RMK AO2 T00670061=
201312230153 METAR KCLM 230153Z AUTO 00000KT 4SM BR OVC002 07/06 A3027 RMK AO2 SLP252 T00670061=
201312230151 SPECI KCLM 230151Z AUTO 10003KT 4SM BR OVC002 07/06 A3027 RMK AO2=
201312230142 SPECI KCLM 230142Z AUTO 12004KT 2SM BR OVC002 07/06 A3027 RMK AO2 T00670061=
201312230114 SPECI KCLM 230114Z AUTO 00000KT 3/4SM BR VV002 07/06 A3028 RMK AO2 T00670061=
201312230053 METAR KCLM 230053Z AUTO 00000KT 1 1/4SM BR OVC002 07/06 A3027 RMK AO2 SLP254 T00670056=
201312230048 SPECI KCLM 230048Z AUTO 00000KT 1 3/4SM BR OVC002 07/06 A3028 RMK AO2=
201312230039 SPECI KCLM 230039Z AUTO 00000KT 3SM BR OVC002 07/06 A3028 RMK AO2 T00670061=
201312230030 SPECI KCLM 230030Z AUTO 00000KT 2 1/2SM BR OVC002 07/06 A3028 RMK AO2 T00670061=
201312230017 SPECI KCLM 230017Z AUTO 00000KT 1 1/2SM BR OVC002 07/06 A3027 RMK AO2 T00670061=
201312222353 METAR KCLM 222353Z AUTO 00000KT 1/2SM FG VV002 07/06 A3027 RMK AO2 SLP251 T00670061 10072 20061 53001=
201312222304 SPECI KCLM 222304Z AUTO 00000KT 3/4SM BR VV002 07/06 A3027 RMK AO2 T00670061=
201312222253 METAR KCLM 222253Z AUTO 00000KT 3/4SM BR OVC001 07/06 A3027 RMK AO2 SLP251 T00670061=
201312222245 SPECI KCLM 222245Z AUTO 00000KT 1 3/4SM BR OVC001 07/06 A3026 RMK AO2 T00670061=
201312222205 SPECI KCLM 222205Z AUTO 00000KT 4SM BR OVC002 07/06 A3026 RMK AO2 T00670061=
201312222153 METAR KCLM 222153Z AUTO 00000KT 1SM BR OVC002 07/06 A3026 RMK AO2 SLP249 T00670061=
201312222151 SPECI KCLM 222151Z AUTO 00000KT 1 1/4SM BR OVC002 07/06 A3026 RMK AO2=
201312222144 SPECI KCLM 222144Z AUTO 00000KT 2SM BR OVC002 07/06 A3027 RMK AO2 T00670061=
201312222120 SPECI KCLM 222120Z AUTO 00000KT 1/2SM FG VV002 07/06 A3027 RMK AO2 T00670061=
201312222104 SPECI KCLM 222104Z AUTO 35004KT 1/4SM FG OVC002 07/06 A3026 RMK AO2 PRESRR T00720061=
201312222058 SPECI KCLM 222058Z AUTO 02004KT 1 1/4SM BR OVC002 07/06 A3025 RMK AO2 VIS 1/4V5 T00720061=
201312222053 METAR KCLM 222053Z AUTO VRB03KT 6SM BR OVC002 07/06 A3024 RMK AO2 SLP243 T00670061 58001=
201312222041 SPECI KCLM 222041Z AUTO 11003KT 3SM BR OVC002 07/06 A3024 RMK AO2 T00670061=
201312222036 SPECI KCLM 222036Z AUTO 00000KT 1SM BR VV002 07/06 A3025 RMK AO2 T00670061=
201312222023 SPECI KCLM 222023Z AUTO 00000KT 1/4SM FG VV002 07/06 A3025 RMK AO2 T00670061=
201312221953 METAR KCLM 221953Z AUTO 00000KT M1/4SM FG VV001 07/06 A3025 RMK AO2 SLP245 T00670056=
201312221853 METAR KCLM 221853Z AUTO 00000KT 1/4SM FG OVC003 07/06 A3026 RMK AO2 SLP250 T00670056=
201312221849 SPECI KCLM 221849Z AUTO 00000KT 1/4SM FG OVC003 07/06 A3026 RMK AO2=
201312221843 SPECI KCLM 221843Z AUTO 00000KT 1 3/4SM BR OVC004 07/06 A3026 RMK AO2 CIG 001V005 T00670056=
201312221818 SPECI KCLM 221818Z AUTO 00000KT 10SM BKN004 OVC010 07/06 A3025 RMK AO2 CIG 002V005 T00670056=
201312221806 SPECI KCLM 221806Z AUTO 00000KT 10SM SCT002 OVC010 07/06 A3025 RMK AO2 T00670056=
201312221753 METAR KCLM 221753Z AUTO 00000KT 10SM BKN003 OVC010 06/06 A3025 RMK AO2 SLP244 60000 T00610056 10061 20050 51013=
201312221750 SPECI KCLM 221750Z AUTO 00000KT 10SM SCT003 OVC010 06/06 A3024 RMK AO2=
201312221653 METAR KCLM 221653Z AUTO 25003KT 10SM BKN011 OVC022 06/05 A3023 RMK AO2 SLP238 T00560050=
201312221644 SPECI KCLM 221644Z AUTO 00000KT 5SM BR BKN011 OVC022 06/05 A3023 RMK AO2 T00560050=
201312221634 SPECI KCLM 221634Z AUTO 00000KT 3SM BR FEW003 SCT011 OVC022 06/05 A3022 RMK AO2 T00560050=
201312221628 SPECI KCLM 221628Z AUTO 00000KT 1SM BR SCT003 OVC022 06/05 A3022 RMK AO2 T00560050=
201312221608 SPECI KCLM 221608Z AUTO 00000KT 1/4SM FG BKN003 OVC022 06/05 A3021 RMK AO2 T00560050=
201312221559 SPECI KCLM 221559Z AUTO 00000KT 1/2SM FG SCT003 OVC022 06/05 A3020 RMK AO2 T00560050=
201312221553 METAR KCLM 221553Z AUTO 00000KT 1 1/2SM BR BKN003 OVC022 06/05 A3021 RMK AO2 CIG 001V005 SLP231 T00560050=
201312221453 METAR KCLM 221453Z AUTO 00000KT 9SM OVC003 06/04 A3019 RMK AO2 RAE00 SLP226 P0000 60000 T00560044 53008=
201312221353 METAR KCLM 221353Z AUTO 00000KT 10SM -RA OVC002 05/04 A3018 RMK AO2 RAB49 SLP222 P0000 T00500044=
201312221300 SPECI KCLM 221300Z AUTO 00000KT 10SM BKN004 BKN031 OVC040 05/04 A3017 RMK AO2 T00500044=
201312221253 METAR KCLM 221253Z AUTO 00000KT 10SM BKN006 BKN031 OVC040 05/04 A3016 RMK AO2 SLP217 T00500039=
201312221218 SPECI KCLM 221218Z AUTO 24003KT 9SM FEW008 OVC040 05/04 A3016 RMK AO2 T00500044=
201312221153 METAR KCLM 221153Z AUTO 00000KT 10SM OVC040 06/05 A3017 RMK AO2 SLP218 60002 70009 T00560050 10056 20044 51003=
201312221124 SPECI KCLM 221124Z AUTO 13003KT 10SM SCT009 OVC042 05/04 A3017 RMK AO2 T00500044=
201312221053 METAR KCLM 221053Z AUTO 12003KT 4SM BR OVC009 05/04 A3017 RMK AO2 SLP218 T00500044=
201312221048 SPECI KCLM 221048Z AUTO 00000KT 3SM BR BKN009 OVC015 05/04 A3017 RMK AO2=
201312221029 SPECI KCLM 221029Z AUTO 14004KT 2 1/2SM BR BKN006 OVC009 05/04 A3017 RMK AO2 T00500039=
201312221020 SPECI KCLM 221020Z AUTO 15004KT 3SM BR BKN003 OVC009 05/04 A3017 RMK AO2 T00500039=
201312221007 SPECI KCLM 221007Z AUTO 00000KT 4SM BR BKN009 OVC023 05/04 A3017 RMK AO2 T00500044=
201312220953 METAR KCLM 220953Z AUTO 00000KT 6SM BR FEW009 BKN023 OVC036 04/03 A3016 RMK AO2 RAB15E32 SLP215 P0000 T00440033=
201312220853 METAR KCLM 220853Z AUTO 00000KT 6SM BR FEW024 OVC042 04/04 A3015 RMK AO2 SLP211 60002 T00440039 55000=
201312220753 METAR KCLM 220753Z AUTO 00000KT 4SM BR FEW021 OVC042 04/04 A3015 RMK AO2 RAE52 SLP210 P0001 T00440039 400610033=
201312220749 SPECI KCLM 220749Z AUTO 00000KT 4SM -RA BR SCT021 OVC043 04/04 A3015 RMK AO2 P0001=
201312220653 METAR KCLM 220653Z AUTO 00000KT 3SM -RA BR OVC018 04/04 A3015 RMK AO2 SLP211 P0001 T00440039=
201312220645 SPECI KCLM 220645Z AUTO 00000KT 2 1/2SM -RA BR OVC018 04/04 A3015 RMK AO2 P0001 T00440039=
201312220553 METAR KCLM 220553Z AUTO 00000KT 4SM -RA BR BKN017 BKN030 OVC037 04/04 A3015 RMK AO2 SLP211 P0002 60007 T00440039 10050 20044 53009=
201312220453 METAR KCLM 220453Z AUTO 00000KT 5SM -RA BR FEW027 OVC044 04/04 A3013 RMK AO2 SLP205 P0002 T00440039=
201312220435 SPECI KCLM 220435Z AUTO 00000KT 5SM -RA BR FEW014 OVC042 04/04 A3014 RMK AO2 P0001 T00440039=
201312220425 SPECI KCLM 220425Z AUTO 00000KT 3SM -RA BR SCT014 BKN019 OVC042 04/04 A3014 RMK AO2 P0001 T00440039=
201312220405 SPECI KCLM 220405Z AUTO 00000KT 2 1/2SM -RA BR SCT014 BKN042 OVC050 04/04 A3013 RMK AO2 P0000 T00440039=
201312220353 METAR KCLM 220353Z AUTO 00000KT 4SM -RA BR BKN014 OVC020 04/04 A3014 RMK AO2 SLP207 P0002 T00440039=
201312220319 SPECI KCLM 220319Z AUTO 00000KT 4SM -RA BR OVC013 05/04 A3014 RMK AO2 P0001 T00500039=
201312220304 SPECI KCLM 220304Z AUTO 00000KT 2 1/2SM -RA BR OVC011 04/04 A3013 RMK AO2 P0001 T00440039=
201312220253 METAR KCLM 220253Z AUTO 00000KT 3SM -RA BR OVC009 04/04 A3012 RMK AO2 CIG 006V011 SLP202 P0001 60001 T00440039 56004=
201312220219 SPECI KCLM 220219Z AUTO 00000KT 5SM -RA BR OVC009 04/04 A3012 RMK AO2 CIG 007V011 P0001 T00440039=
201312220153 METAR KCLM 220153Z AUTO 00000KT 6SM -RA BR OVC011 04/04 A3012 RMK AO2 RAB00 SLP203 P0000 T00440039=
201312220053 METAR KCLM 220053Z AUTO 00000KT 10SM BKN011 BKN022 OVC085 05/04 A3013 RMK AO2 RAE11 SLP203 P0000 T00500039=
201312220046 SPECI KCLM 220046Z AUTO 00000KT 3SM BR SCT012 BKN022 OVC085 05/04 A3013 RMK AO2 RAE11 P0000 T00500039=
201312220042 SPECI KCLM 220042Z AUTO 00000KT 1 1/2SM BR FEW012 BKN022 OVC085 05/04 A3013 RMK AO2 VIS 1V4 RAE11 P0000 T00500039=
201312220031 SPECI KCLM 220031Z AUTO 00000KT 2 1/2SM BR SCT012 BKN023 OVC085 05/04 A3013 RMK AO2 VIS 1V5 RAE11 P0000 T00500039=
201312212353 METAR KCLM 212353Z AUTO 00000KT 10SM -RA OVC012 05/03 A3013 RMK AO2 RAB23 SLP206 P0000 60000 T00500033 10061 20044 53012=
201312212319 SPECI KCLM 212319Z AUTO 00000KT 10SM BKN011 OVC017 06/03 A3013 RMK AO2 T00560033=
201312212253 METAR KCLM 212253Z AUTO 08003KT 10SM FEW009 OVC019 06/03 A3011 RMK AO2 SLP198 T00560033=
201312212233 SPECI KCLM 212233Z AUTO 04003KT 10SM FEW008 OVC023 06/04 A3010 RMK AO2 T00560039=
201312212153 METAR KCLM 212153Z AUTO 00000KT 10SM OVC023 06/03 A3010 RMK AO2 SLP195 T00610033=
201312212053 METAR KCLM 212053Z AUTO 10005KT 10SM OVC021 06/03 A3010 RMK AO2 SLP194 T00610033 53002=
201312211953 METAR KCLM 211953Z AUTO 12006KT 10SM OVC029 06/04 A3009 RMK AO2 SLP190 T00610039=
201312211951 SPECI KCLM 211951Z AUTO 12008KT 10SM OVC029 06/04 A3009 RMK AO2=
201312211942 SPECI KCLM 211942Z AUTO 11006KT 10SM FEW022 OVC030 06/04 A3009 RMK AO2 T00610039=
201312211853 METAR KCLM 211853Z AUTO 11006KT 10SM FEW003 OVC021 06/04 A3009 RMK AO2 SLP192 T00560039=
201312211753 METAR KCLM 211753Z AUTO 10005KT 8SM OVC003 04/04 A3008 RMK AO2 SLP187 T00440039 10044 20039 53016=
201312211653 METAR KCLM 211653Z AUTO 12006KT 10SM BKN003 OVC026 04/03 A3006 RMK AO2 SLP181 T00390033=
201312211639 SPECI KCLM 211639Z AUTO 12006KT 3SM BR OVC002 04/03 A3006 RMK AO2 T00390033=
201312211622 SPECI KCLM 211622Z AUTO 12005KT 1SM BR OVC002 04/03 A3005 RMK AO2 T00390033=
201312211612 SPECI KCLM 211612Z AUTO 13006KT 2 1/2SM BR OVC002 04/03 A3004 RMK AO2 T00390028=
201312211553 METAR KCLM 211553Z AUTO 12006KT 10SM OVC003 04/03 A3004 RMK AO2 SLP174 T00390028=
201312211518 SPECI KCLM 211518Z AUTO 12005KT 10SM BKN003 BKN024 OVC032 04/03 A3004 RMK AO2 T00390028=
201312211453 METAR KCLM 211453Z AUTO 13004KT 10SM FEW007 BKN022 OVC034 04/03 A3003 RMK AO2 SLP172 T00390028 53014=
201312211353 METAR KCLM 211353Z AUTO 14006KT 6SM BR OVC005 04/03 A3000 RMK AO2 CIG 002V010 SLP163 T00390028=
201312211350 SPECI KCLM 211350Z AUTO 14005KT 5SM BR OVC005 04/03 A3000 RMK AO2 CIG 002V010=
201312211338 SPECI KCLM 211338Z AUTO 13005KT 3SM BR OVC003 04/03 A3000 RMK AO2 T00390028=
201312211307 SPECI KCLM 211307Z AUTO 12005KT 2 1/2SM BR OVC003 04/03 A2999 RMK AO2 CIG 002V006 T00390028=
201312211253 METAR KCLM 211253Z AUTO 11005KT 3SM BR OVC003 04/03 A2999 RMK AO2 SLP158 T00390033=
201312211153 METAR KCLM 211153Z AUTO 11005KT 5SM BR OVC004 04/03 A2996 RMK AO2 SLP149 60003 70031 T00390033 10039 20028 51028=
201312211053 METAR KCLM 211053Z AUTO 11007KT 10SM OVC004 04/03 A2994 RMK AO2 SLP143 T00390033=
201312210953 METAR KCLM 210953Z AUTO 12004KT 5SM BR OVC002 04/03 A2991 RMK AO2 SLP131 T00390028=
201312210853 METAR KCLM 210853Z AUTO 10003KT 4SM BR OVC002 04/03 A2988 RMK AO2 SLP120 60003 T00390033 51023=
201312210808 SPECI KCLM 210808Z AUTO 13003KT 3SM BR OVC004 03/03 A2987 RMK AO2 T00330028=
201312210753 METAR KCLM 210753Z AUTO 00000KT 1 1/2SM BR OVC004 03/03 A2987 RMK AO2 RAB0656E05 SLP116 P0002 T00330028 400390000=
201312210742 SPECI KCLM 210742Z AUTO 00000KT 1 3/4SM BR OVC004 03/02 A2986 RMK AO2 RAB0656E05 P0001 T00330022=
201312210726 SPECI KCLM 210726Z AUTO 00000KT 3SM BR OVC003 03/03 A2985 RMK AO2 RAB0656E05 P0001 T00330028=
201312210707 SPECI KCLM 210707Z AUTO 00000KT 2SM BR OVC002 03/03 A2985 RMK AO2 RAB0656E05 P0001 T00330028=
201312210700 SPECI KCLM 210700Z AUTO 15003KT 1 3/4SM -RA BR OVC002 03/03 A2984 RMK AO2 RAB0656 P0000 T00330028=
201312210653 METAR KCLM 210653Z AUTO 15003KT 2SM BR OVC002 03/02 A2984 RMK AO2 RAE04 SLP106 P0001 T00330022=
201312210636 SPECI KCLM 210636Z AUTO 12003KT 2 1/2SM BR OVC002 03/03 A2983 RMK AO2 RAE04 P0001 T00330028=
201312210619 SPECI KCLM 210619Z AUTO 00000KT 3SM BR OVC003 03/03 A2982 RMK AO2 RAE04 P0001 T00330028=
201312210608 SPECI KCLM 210608Z AUTO 00000KT 1 1/4SM BR OVC003 03/03 A2982 RMK AO2 RAE04 P0001 T00330028=
201312210553 METAR KCLM 210553Z AUTO 14003KT 2 1/2SM -RA BR OVC002 03/02 A2981 RMK AO2 RAE35B39 SLP097 P0002 60010 I6000 T00330022 10039 20022 53026=
201312210545 SPECI KCLM 210545Z AUTO 00000KT 2 1/2SM -RA BR OVC002 03/03 A2981 RMK AO2 RAE35B39 P0002 T00330028=
201312210537 SPECI KCLM 210537Z AUTO 00000KT 3SM BR OVC002 03/03 A2981 RMK AO2 RAE35 P0001 T00330028=
201312210527 SPECI KCLM 210527Z AUTO 00000KT 2 1/2SM -RA BR OVC002 03/03 A2980 RMK AO2 P0001 T00330028=
201312210509 SPECI KCLM 210509Z AUTO 04003KT 3SM -RA BR OVC002 04/03 A2979 RMK AO2 P0000 T00390028=
201312210453 METAR KCLM 210453Z AUTO 07004KT 2 1/2SM -RA BR OVC002 03/03 A2978 RMK AO2 RAE06B37 SLP088 P0002 T00330028=
201312210436 SPECI KCLM 210436Z AUTO 06004KT 2 1/2SM BR OVC002 04/03 A2978 RMK AO2 RAE06 P0001 T00390028=
201312210419 SPECI KCLM 210419Z AUTO 00000KT 1 1/4SM BR OVC002 04/03 A2977 RMK AO2 RAE06 P0000 T00390033=
201312210412 SPECI KCLM 210412Z AUTO 00000KT 2SM BR OVC002 04/03 A2976 RMK AO2 RAE06 P0000 T00390033=
201312210402 SPECI KCLM 210402Z AUTO 00000KT 1 1/4SM -RA BR OVC002 04/03 A2976 RMK AO2 P0000 T00390028=
201312210353 METAR KCLM 210353Z AUTO 03003KT 3/4SM -RA BR VV002 04/03 A2976 RMK AO2 SLP079 P0004 T00390028=
201312210336 SPECI KCLM 210336Z AUTO VRB03KT 1 1/4SM -RA BR OVC002 03/03 A2974 RMK AO2 P0003 T00330028=
201312210309 SPECI KCLM 210309Z AUTO 24003KT 2 1/2SM -RA BR OVC002 03/02 A2973 RMK AO2 P0001 T00280022=
201312210253 METAR KCLM 210253Z AUTO 26003KT 1 1/2SM -RA BR OVC002 02/02 A2973 RMK AO2 RAE00B22UPB46E53 SLP070 P0002 60002 I3000 T00220017 53011=
201312210238 SPECI KCLM 210238Z AUTO 00000KT 1 3/4SM -RA BR OVC004 02/02 A2973 RMK AO2 RAE00B22 P0002 T00220017=
201312210225 SPECI KCLM 210225Z AUTO 24003KT 2 1/2SM -RA BR OVC005 02/02 A2973 RMK AO2 RAE00B22 P0001 T00220017=
201312210153 METAR KCLM 210153Z AUTO 24004KT 3SM -RA BR OVC007 02/02 A2971 RMK AO2 RAB28 SLP064 P0000 T00220017=
201312210053 METAR KCLM 210053Z AUTO 00000KT 4SM BR OVC007 02/02 A2970 RMK AO2 RAB13E22 SLP059 P0000 I1000 T00220017=
201312210043 SPECI KCLM 210043Z AUTO 00000KT 3SM BR OVC007 02/02 A2970 RMK AO2 RAB13E22 P0000 T00220017=
201312210031 SPECI KCLM 210031Z AUTO 00000KT 1 3/4SM BR OVC007 02/02 A2970 RMK AO2 RAB13E22 P0000 T00220017=
201312202353 METAR KCLM 202353Z AUTO 00000KT 3SM BR OVC005 02/01 A2970 RMK AO2 RAE22 SLP060 P0000 60002 T00220011 10022 20011 55007=
201312202339 SPECI KCLM 202339Z AUTO 00000KT 10SM BKN005 OVC031 02/01 A2969 RMK AO2 RAE22 P0000 T00220011=
201312202325 SPECI KCLM 202325Z AUTO 15003KT 7SM SCT005 OVC032 02/01 A2969 RMK AO2 RAE22 P0000 T00220011=
201312202253 METAR KCLM 202253Z AUTO 00000KT 10SM -RA OVC034 02/02 A2968 RMK AO2 RAB42 SLP053 P0000 T00220017=
201312202239 SPECI KCLM 202239Z AUTO 00000KT 10SM SCT005 OVC036 02/01 A2968 RMK AO2 T00220011=
201312202153 METAR KCLM 202153Z AUTO 00000KT 10SM OVC005 02/01 A2970 RMK AO2 SLP060 T00170011=
201312202053 METAR KCLM 202053Z AUTO 00000KT 10SM OVC006 02/01 A2972 RMK AO2 RAE52UPB1958E1959B49E51 SLP067 P0002 60002 T00220006 56027=
201312201953 METAR KCLM 201953Z AUTO 25005KT 5SM -RA BR OVC005 02/01 A2973 RMK AO2 RAB33 PRESFR SLP071 P0000 T00170006=
201312201946 SPECI KCLM 201946Z AUTO 25005KT 4SM -RA BR OVC005 02/01 A2974 RMK AO2 RAB33 P0000 T00170006=
201312201853 METAR KCLM 201853Z AUTO 27006KT 10SM OVC004 02/00 A2978 RMK AO2 RAB31E42 SLP086 P0000 T00170000=
201312201753 METAR KCLM 201753Z AUTO 00000KT 10SM OVC005 01/01 A2980 RMK AO2 RAE1655 PRESFR SLP094 P0000 60016 T00110006 10011 20000 58050=
201312201653 METAR KCLM 201653Z AUTO 26006KT 10SM -RA OVC003 01/00 A2987 RMK AO2 RAB17 SLP118 P0001 T00060000=
201312201553 METAR KCLM 201553Z AUTO 00000KT 10SM OVC003 01/M01 A2991 RMK AO2 SLP130 T00061006=
201312201511 SPECI KCLM 201511Z AUTO 21003KT 10SM BKN002 BKN028 OVC046 01/M01 A2993 RMK AO2 PRESFR T00061006=
201312201509 SPECI KCLM 201509Z AUTO 00000KT 10SM SCT002 SCT028 OVC046 01/00 A2993 RMK AO2 PRESFR T00060000=
201312201453 METAR KCLM 201453Z AUTO 00000KT 10SM OVC048 01/00 A2995 RMK AO2 SNE19 SLP145 P0000 60015 T00060000 58029=
201312201411 SPECI KCLM 201411Z AUTO 00000KT 4SM -SN BR FEW005 OVC037 01/M01 A2998 RMK AO2 P0000 T00061006=
201312201403 SPECI KCLM 201403Z AUTO 00000KT 3SM -SN BR FEW003 BKN025 OVC038 01/M01 A2997 RMK AO2 P0000 T00061006=
201312201353 METAR KCLM 201353Z AUTO 13003KT 1 1/2SM -SN BR FEW003 OVC018 01/M01 A2996 RMK AO2 SLP147 P0010 T00061006=
201312201342 SPECI KCLM 201342Z AUTO 20003KT 1SM -SN BR SCT003 OVC014 00/M01 A2999 RMK AO2 P0008 T00001006=
201312201321 SPECI KCLM 201321Z AUTO 00000KT 1 1/4SM -SN BR FEW003 SCT011 OVC016 01/M01 A3001 RMK AO2 P0005 T00061006=
201312201315 SPECI KCLM 201315Z AUTO 00000KT 1 1/4SM -SN BR OVC014 01/M01 A3001 RMK AO2 P0004 T00061006=
201312201300 METAR KCLM NIL=
201312201249 METAR KCLM 201249Z AUTO 00000KT 3/4SM -SN BR FEW005 OVC012 00/M01 A3004=
201312201248 SPECI KCLM 201248Z AUTO 00000KT 3/4SM -SN BR FEW005 OVC012 00/M01 A3004 RMK AO2 P0005=
201312201236 SPECI KCLM 201236Z AUTO 00000KT 1 1/4SM -SN BR SCT005 OVC020 01/M01 A3005 RMK AO2 P0003 T00061006=
201312201222 SPECI KCLM 201222Z AUTO 00000KT 1 3/4SM -SN BR OVC028 01/M01 A3005 RMK AO2 P0002 T00061006=
201312201207 SPECI KCLM 201207Z AUTO 00000KT 2SM -SN BR OVC034 00/M01 A3004 RMK AO2 P0001 T00001006=
201312201156 SPECI KCLM 201156Z AUTO 00000KT 1 3/4SM -SN BR FEW019 OVC030 01/M01 A3004 RMK AO2 P0001 T00061006=
201312201153 METAR KCLM 201153Z AUTO 00000KT 2SM -SN BR FEW019 OVC028 01/M01 A3004 RMK AO2 SLP174 P0002 60004 70004 T00061006 10022 20000 58032=
201312201145 SPECI KCLM 201145Z AUTO 00000KT 2SM -SN BR FEW019 OVC024 01/M01 A3004 RMK AO2 P0002 T00061006=
201312201053 METAR KCLM 201053Z AUTO 14004KT 1 1/2SM -SN BR OVC022 01/M01 A3009 RMK AO2 SLP192 P0002 T00061011=
201312201040 SPECI KCLM 201040Z AUTO 14003KT 2 1/2SM -SN BR OVC028 01/M01 A3010 RMK AO2 P0000 T00061011=
201312200953 METAR KCLM 200953Z AUTO 12005KT 7SM -SN OVC040 01/M02 A3011 RMK AO2 SNB46 SLP199 P0000 T00111022=
201312200853 METAR KCLM 200853Z AUTO 15003KT 10SM OVC060 01/M02 A3013 RMK AO2 SLP207 T00111017 58023=
201312200753 METAR KCLM 200753Z AUTO 00000KT 10SM OVC070 01/M02 A3017 RMK AO2 SLP219 T00111022 400391033=
201312200653 METAR KCLM 200653Z AUTO 00000KT 10SM FEW065 OVC080 01/M02 A3019 RMK AO2 SLP226 T00111022=
201312200553 METAR KCLM 200553Z AUTO 22003KT 10SM OVC070 02/M03 A3020 RMK AO2 SLP230 T00171033 10028 20006 56008=
201312200453 METAR KCLM 200453Z AUTO 00000KT 10SM OVC065 02/M03 A3020 RMK AO2 SLP230 T00171033=
201312200353 METAR KCLM 200353Z AUTO 29004KT 10SM BKN065 OVC075 02/M04 A3020 RMK AO2 SLP229 T00221039=
201312200253 METAR KCLM 200253Z AUTO 22003KT 10SM OVC075 01/M03 A3022 RMK AO2 SLP238 T00111028 58017=
201312200153 METAR KCLM 200153Z AUTO 00000KT 10SM BKN090 OVC110 01/M03 A3026 RMK AO2 SLP249 T00111028=
201312200053 METAR KCLM 200053Z AUTO 23003KT 10SM OVC100 02/M03 A3028 RMK AO2 SLP256 T00221033=
201312192353 METAR KCLM 192353Z AUTO 00000KT 10SM OVC100 03/M04 A3027 RMK AO2 SLP255 T00281039 10039 20006 55001=
201312192253 METAR KCLM 192253Z AUTO 13004KT 10SM OVC110 03/M04 A3026 RMK AO2 SLP248 T00331044=
201312192153 METAR KCLM 192153Z AUTO 12006KT 10SM SCT110 03/M04 A3026 RMK AO2 PRESFR SLP251 T00331044=
201312192053 METAR KCLM 192053Z AUTO 00000KT 10SM CLR 04/M05 A3028 RMK AO2 SLP256 T00391050 58024=
201312191953 METAR KCLM 191953Z AUTO 00000KT 10SM CLR 03/M03 A3029 RMK AO2 SLP260 T00281033=
201312191853 METAR KCLM 191853Z AUTO 27003KT 10SM CLR 02/M03 A3035 RMK AO2 SLP280 T00221033=
201312191753 METAR KCLM 191753Z AUTO 23005KT 10SM CLR 01/M04 A3035 RMK AO2 SLP280 T00061039 10039 21033 53006=
201312191653 METAR KCLM 191653Z AUTO 00000KT 10SM CLR M02/M04 A3030 RMK AO2 SLP264 T10221044=
201312191553 METAR KCLM 191553Z AUTO 00000KT 10SM CLR M03/M06 A3031 RMK AO2 SLP268 T10331056=
201312191453 METAR KCLM 191453Z AUTO 22003KT 10SM CLR M02/M05 A3033 RMK AO2 SLP274 T10221050 53005=
201312191353 METAR KCLM 191353Z AUTO 00000KT 10SM FEW038 OVC050 00/M04 A3031 RMK AO2 SLP267 T00001039=
201312191253 METAR KCLM 191253Z AUTO 15004KT 10SM BKN047 OVC055 02/M04 A3032 RMK AO2 SLP270 T00171044=
201312191153 METAR KCLM 191153Z AUTO 08004KT 10SM OVC048 04/M04 A3031 RMK AO2 SLP267 T00391039 10044 21011 51017=
201312191053 METAR KCLM 191053Z AUTO 14007KT 10SM BKN050 M01/M06 A3031 RMK AO2 SLP266 T10111056=
201312190953 METAR KCLM 190953Z AUTO 00000KT 10SM OVC065 01/M04 A3028 RMK AO2 SLP257 T00061039=
201312190853 METAR KCLM 190853Z AUTO 00000KT 10SM BKN060 OVC075 M01/M03 A3026 RMK AO2 SLP252 T10061033 53021=
201312190753 METAR KCLM 190753Z AUTO VRB04KT 10SM FEW065 M01/M03 A3023 RMK AO2 SLP239 T10111033 400721011=
201312190653 METAR KCLM 190653Z AUTO 16005KT 10SM CLR 01/M03 A3019 RMK AO2 SLP226 T00111028=
201312190605 SPECI KCLM 190605Z AUTO VRB03KT 10SM SCT024 SCT032 OVC065 04/M02 A3020 RMK AO2 T00441017=
201312190553 METAR KCLM 190553Z AUTO VRB06KT 10SM BKN022 BKN032 OVC060 04/M01 A3020 RMK AO2 SLP229 60000 T00391011 10044 20011 53032=
201312190453 METAR KCLM 190453Z AUTO 33004KT 10SM SCT022 BKN029 OVC035 03/00 A3018 RMK AO2 RAB26E52 SLP221 P0000 T00330000=
201312190353 METAR KCLM 190353Z AUTO 24003KT 10SM FEW060 BKN080 02/M01 A3012 RMK AO2 SLP202 T00171006=
201312190253 METAR KCLM 190253Z AUTO 24005KT 10SM OVC060 03/00 A3011 RMK AO2 RAB17E38UPB38E40 SLP197 P0000 60000 T00280000 53015=
201312190153 METAR KCLM 190153Z AUTO 34003KT 10SM FEW021 SCT036 OVC070 04/M01 A3010 RMK AO2 SLP193 T00391006=
201312190053 METAR KCLM 190053Z AUTO 00000KT 10SM BKN085 02/M04 A3007 RMK AO2 SLP185 T00221039=
201312182353 METAR KCLM 182353Z AUTO 29008KT 10SM CLR 04/M03 A3006 RMK AO2 SLP182 T00441033 10072 20039 53006=
201312182253 METAR KCLM 182253Z AUTO 31007KT 10SM CLR 06/M03 A3004 RMK AO2 SLP174 T00611028=
201312182153 METAR KCLM 182153Z AUTO 30011KT 10SM BKN049 BKN055 07/M02 A3004 RMK AO2 SLP175 T00671017=
201312182053 METAR KCLM 182053Z AUTO 30014G23KT 10SM BKN047 07/M03 A3005 RMK AO2 SLP176 T00721028 58016=
201312181953 METAR KCLM 181953Z AUTO 29016G22KT 10SM CLR 07/M04 A3006 RMK AO2 SLP182 T00721039=
201312181853 METAR KCLM 181853Z AUTO 30017G22KT 10SM CLR 07/M03 A3008 RMK AO2 SLP187 T00671033=
201312181753 METAR KCLM 181753Z AUTO 31011G22KT 10SM CLR 06/M02 A3009 RMK AO2 SLP192 T00611022 10072 20044 51007=
201312181653 METAR KCLM 181653Z AUTO 30009G16KT 10SM FEW042 BKN050 06/M02 A3009 RMK AO2 SLP191 T00561017=
201312181553 METAR KCLM 181553Z AUTO 30011KT 10SM BKN043 BKN050 06/01 A3008 RMK AO2 SLP186 T00560006=
201312181453 METAR KCLM 181453Z AUTO 30012KT 10SM CLR 07/00 A3007 RMK AO2 SLP184 T00670000 58010=
201312181353 METAR KCLM 181353Z AUTO 27012KT 10SM FEW042 07/01 A3008 RMK AO2 SLP187 T00720011=
201312181253 METAR KCLM 181253Z AUTO 26008KT 10SM SCT055 OVC095 06/02 A3010 RMK AO2 SLP193 T00560022=
201312181153 METAR KCLM 181153Z AUTO 30009KT 10SM BKN037 BKN100 06/04 A3010 RMK AO2 SLP195 T00610039 10067 20044 50001=
201312181053 METAR KCLM 181053Z AUTO 26008KT 10SM OVC100 06/02 A3011 RMK AO2 SLP199 T00560022=
201312180953 METAR KCLM 180953Z AUTO 26010KT 10SM OVC095 06/03 A3011 RMK AO2 SLP198 T00610028=
201312180853 METAR KCLM 180853Z AUTO 25011KT 10SM SCT095 06/03 A3010 RMK AO2 SLP194 T00560028 50000=
201312180753 METAR KCLM 180753Z AUTO 26013KT 10SM CLR 06/04 A3010 RMK AO2 SLP195 T00560039 400781006=
201312180712 SPECI KCLM 180712Z AUTO 27010KT 10SM FEW007 05/03 A3010 RMK AO2 T00500033=
201312180653 METAR KCLM 180653Z AUTO 27011KT 10SM FEW010 06/04 A3010 RMK AO2 SLP194 T00560039=
201312180648 SPECI KCLM 180648Z AUTO 27011KT 10SM FEW010 06/04 A3010 RMK AO2=
201312180629 SPECI KCLM 180629Z AUTO 27013KT 10SM BKN010 06/04 A3010 RMK AO2 T00610044=
201312180622 SPECI KCLM 180622Z AUTO 26012KT 10SM BKN009 06/04 A3011 RMK AO2 T00560039=
201312180608 SPECI KCLM 180608Z AUTO 28011KT 10SM FEW009 06/04 A3011 RMK AO2 T00610044=
201312180553 METAR KCLM 180553Z AUTO 27009KT 10SM CLR 05/03 A3011 RMK AO2 SLP197 T00500033 10061 20033 53004=
201312180453 METAR KCLM 180453Z AUTO 26007KT 10SM CLR 04/02 A3010 RMK AO2 SLP196 T00390022=
201312180353 METAR KCLM 180353Z AUTO 23007KT 10SM CLR 05/03 A3010 RMK AO2 SLP194 T00500033=
201312180338 SPECI KCLM 180338Z AUTO 24009KT 10SM FEW011 05/03 A3010 RMK AO2 T00500033=
201312180253 METAR KCLM 180253Z AUTO 26004KT 10SM OVC011 04/03 A3010 RMK AO2 SLP194 T00440033 58005=
201312180213 SPECI KCLM 180213Z AUTO 25004KT 10SM OVC014 04/03 A3010 RMK AO2 T00440033=
201312180153 METAR KCLM 180153Z AUTO 00000KT 10SM OVC016 04/03 A3010 RMK AO2 SLP195 T00440033=
201312180117 SPECI KCLM 180117Z AUTO 00000KT 10SM SCT008 OVC018 03/03 A3011 RMK AO2 T00330033=
201312180053 METAR KCLM 180053Z AUTO 00000KT 10SM OVC009 04/03 A3011 RMK AO2 SLP199 T00440033=
201312180044 SPECI KCLM 180044Z AUTO 00000KT 10SM OVC009 04/03 A3011 RMK AO2 T00440033=
201312180020 SPECI KCLM 180020Z AUTO 20003KT 10SM BKN012 05/04 A3011 RMK AO2 T00500039=
201312172353 METAR KCLM 172353Z AUTO 00000KT 10SM CLR 06/04 A3011 RMK AO2 SLP199 60000 T00560039 10078 20044 55004=
201312172322 SPECI KCLM 172322Z AUTO 00000KT 10SM SCT009 06/04 A3010 RMK AO2 T00610044=
201312172253 METAR KCLM 172253Z AUTO 00000KT 10SM OVC009 08/05 A3011 RMK AO2 SLP197 T00780050=
201312172243 SPECI KCLM 172243Z AUTO 00000KT 10SM BKN009 OVC055 08/06 A3011 RMK AO2 T00780056=
201312172204 SPECI KCLM 172204Z AUTO 32003KT 10SM FEW009 OVC055 08/05 A3010 RMK AO2 T00780050=
201312172153 METAR KCLM 172153Z AUTO 00000KT 10SM OVC055 08/05 A3010 RMK AO2 SLP193 T00780050=
201312172053 METAR KCLM 172053Z AUTO 32003KT 10SM OVC050 08/05 A3012 RMK AO2 SLP202 60000 T00780050 58019=
201312172004 SPECI KCLM 172004Z AUTO 22003KT 10SM FEW007 SCT013 OVC046 06/03 A3014 RMK AO2 T00610033=
201312171953 METAR KCLM 171953Z AUTO 00000KT 10SM SCT013 OVC046 06/03 A3015 RMK AO2 SLP212 T00560033=
201312171853 METAR KCLM 171853Z AUTO 00000KT 10SM OVC045 04/02 A3016 RMK AO2 RAB21E35 SLP218 P0000 T00440022=
201312171753 METAR KCLM 171753Z AUTO 10SM OVC050 04/03 A3018 RMK AO2 SLP222 T00440028 10044 21006 53001 $=
201312171653 METAR KCLM 171653Z AUTO 10SM OVC070 02/01 A3017 RMK AO2 SLP218 T00220011 $=
201312171553 METAR KCLM 171553Z AUTO VRB03KT 10SM BKN075 01/00 A3016 RMK AO2 SLP217 T00110000=
201312171453 METAR KCLM 171453Z AUTO 10SM BKN065 02/00 A3018 RMK AO2 SLP221 T00170000 56014 $=
201312171353 METAR KCLM 171353Z AUTO 10SM OVC065 01/00 A3018 RMK AO2 SLP223 T00110000 $=
201312171253 METAR KCLM 171253Z AUTO 10SM SCT006 01/M01 A3019 RMK AO2 SLP227 T00061011 $=
201312171233 SPECI KCLM 171233Z AUTO 10SM SCT006 01/00 A3019 RMK AO2 T00110000 $=
201312171153 METAR KCLM 171153Z AUTO 10SM OVC008 01/00 A3022 RMK AO2 SLP234 T00110000 10028 21006 58012 $=
201312171053 METAR KCLM 171053Z AUTO 10SM OVC009 02/01 A3024 RMK AO2 SLP243 T00220006 $=
201312171011 SPECI KCLM 171011Z AUTO 10SM BKN008 02/00 A3024 RMK AO2 T00170000 $=
201312171003 SPECI KCLM 171003Z AUTO 10SM SCT008 00/M01 A3024 RMK AO2 T00001011 $=
201312170953 METAR KCLM 170953Z AUTO 00000KT 10SM CLR 00/M02 A3024 RMK AO2 SLP242 T00001017 $=
201312170929 SPECI KCLM 170929Z AUTO 22007KT 10SM FEW007 01/00 A3025 RMK AO2 T00110000=
201312170853 METAR KCLM 170853Z AUTO 27003KT 10SM CLR 01/M01 A3025 RMK AO2 SLP246 T00061011 56016=
201312170823 SPECI KCLM 170823Z AUTO 24003KT 10SM SCT007 01/M01 A3026 RMK AO2 T00061006=
201312170753 METAR KCLM 170753Z AUTO 23007KT 10SM OVC008 02/01 A3027 RMK AO2 SLP253 T00220006 401000000=
201312170653 METAR KCLM 170653Z AUTO 22006KT 10SM OVC009 02/01 A3028 RMK AO2 SLP255 T00220011=
201312170553 METAR KCLM 170553Z AUTO 24003KT 10SM BKN010 01/00 A3030 RMK AO2 SLP263 T00060000 10067 20000 56017=
201312170501 SPECI KCLM 170501Z AUTO 23003KT 10SM BKN010 01/00 A3032 RMK AO2 T00110000=
201312170453 METAR KCLM 170453Z AUTO 24005KT 10SM SCT010 01/00 A3032 RMK AO2 SLP270 T00110000=
201312170353 METAR KCLM 170353Z AUTO 23005KT 10SM CLR 02/01 A3033 RMK AO2 SLP274 T00170006=
201312170253 METAR KCLM 170253Z AUTO 00000KT 10SM FEW100 01/01 A3035 RMK AO2 SLP280 T00110006 58017=
201312170153 METAR KCLM 170153Z AUTO 00000KT 10SM CLR 01/00 A3037 RMK AO2 SLP288 T00110000=
201312170053 METAR KCLM 170053Z AUTO 24004KT 10SM CLR 03/01 A3039 RMK AO2 SLP293 T00280011=
201312162353 METAR KCLM 162353Z AUTO 00000KT 10SM CLR 07/03 A3040 RMK AO2 SLP297 T00670028 10100 20056 58011=
201312162253 METAR KCLM 162253Z AUTO 00000KT 10SM CLR 09/03 A3042 RMK AO2 SLP303 T00890028=
201312162153 METAR KCLM 162153Z AUTO 03003KT 10SM CLR 08/03 A3043 RMK AO2 SLP307 T00830033=
201312162053 METAR KCLM 162053Z AUTO 04003KT 10SM CLR 09/03 A3043 RMK AO2 SLP308 T00940028 58013=
201312161953 METAR KCLM 161953Z AUTO 34004KT 10SM CLR 09/03 A3046 RMK AO2 SLP317 T00890028=
201312161853 METAR KCLM 161853Z AUTO 00000KT 10SM CLR 08/02 A3045 RMK AO2 SLP314 T00780022=
201312161753 METAR KCLM 161753Z AUTO 26005KT 10SM CLR 06/02 A3047 RMK AO2 SLP321 T00560017 10056 20006 51009=
201312161653 METAR KCLM 161653Z AUTO 23004KT 10SM OVC038 04/01 A3046 RMK AO2 SLP318 T00440011=
201312161553 METAR KCLM 161553Z AUTO 22006KT 10SM FEW040 BKN050 03/01 A3046 RMK AO2 SLP317 T00330006=
201312161453 METAR KCLM 161453Z AUTO 24007KT 10SM CLR 03/00 A3045 RMK AO2 SLP312 T00330000 55004=
201312161353 METAR KCLM 161353Z AUTO 23004KT 10SM CLR 03/00 A3044 RMK AO2 SLP310 T00280000=
201312161253 METAR KCLM 161253Z AUTO 00000KT 10SM CLR 01/M01 A3045 RMK AO2 SLP312 T00111011=
201312161153 METAR KCLM 161153Z AUTO 25008KT 10SM CLR 05/01 A3046 RMK AO2 SLP316 T00500011 10056 20039 50006=
201312161053 METAR KCLM 161053Z AUTO 26012KT 10SM CLR 05/02 A3047 RMK AO2 SLP320 T00500017=
201312160953 METAR KCLM 160953Z AUTO 25011KT 10SM CLR 05/02 A3045 RMK AO2 SLP313 T00500017=
201312160903 SPECI KCLM 160903Z AUTO 26011KT 10SM SCT007 06/03 A3045 RMK AO2 T00560028=
201312160853 METAR KCLM 160853Z AUTO 26011KT 10SM CLR 06/03 A3044 RMK AO2 SLP309 T00560028 58000=
201312160753 METAR KCLM 160753Z AUTO 27010KT 10SM CLR 05/02 A3044 RMK AO2 SLP310 T00500022 401170022=
201312160653 METAR KCLM 160653Z AUTO 30006KT 10SM CLR 04/02 A3045 RMK AO2 SLP312 T00440022=
201312160553 METAR KCLM 160553Z AUTO 29006KT 10SM CLR 04/02 A3044 RMK AO2 SLP310 T00440022 10089 20033 53014=
201312160453 METAR KCLM 160453Z AUTO 28004KT 10SM CLR 06/03 A3043 RMK AO2 SLP305 T00560028=
201312160353 METAR KCLM 160353Z AUTO 27007KT 10SM CLR 07/04 A3040 RMK AO2 SLP298 T00720039=
201312160253 METAR KCLM 160253Z AUTO 27007KT 10SM CLR 08/05 A3040 RMK AO2 SLP296 T00780050 53006=
201312160153 METAR KCLM 160153Z AUTO 27007KT 10SM OVC039 08/06 A3039 RMK AO2 SLP292 T00780056=
201312160053 METAR KCLM 160053Z AUTO 27007KT 10SM FEW015 FEW039 08/06 A3038 RMK AO2 SLP291 T00830061=
201312160035 SPECI KCLM 160035Z AUTO 27008KT 10SM FEW010 SCT015 BKN039 08/06 A3038 RMK AO2 T00830061=
201312160004 SPECI KCLM 160004Z AUTO 31006KT 10SM SCT005 BKN013 09/07 A3038 RMK AO2 T00890067=
201312152353 METAR KCLM 152353Z AUTO 33004KT 10SM BKN005 OVC013 08/07 A3038 RMK AO2 CIG 004V009 SLP289 T00830072 10117 20078 53013=
201312152343 SPECI KCLM 152343Z AUTO 30010KT 10SM BKN005 BKN010 BKN029 08/07 A3038 RMK AO2 CIG 004V009 T00830072=
201312152307 SPECI KCLM 152307Z AUTO 31007KT 10SM SCT004 BKN029 09/07 A3036 RMK AO2 T00890072=
201312152253 METAR KCLM 152253Z AUTO 31010KT 10SM BKN004 09/07 A3036 RMK AO2 SLP281 T00890072=
201312152233 SPECI KCLM 152233Z AUTO 32009KT 10SM BKN004 BKN008 OVC020 09/07 A3035 RMK AO2 T00890072=
201312152210 SPECI KCLM 152210Z AUTO 31009KT 10SM FEW008 BKN020 11/07 A3035 RMK AO2 T01060072=
201312152153 METAR KCLM 152153Z AUTO VRB04KT 10SM SCT020 11/07 A3034 RMK AO2 SLP276 T01060067=
201312152053 METAR KCLM 152053Z AUTO 00000KT 10SM FEW040 11/07 A3034 RMK AO2 SLP275 T01060072 50002=
201312152015 SPECI KCLM 152015Z AUTO 29006KT 10SM SCT009 10/07 A3034 RMK AO2 T01000072=
201312151953 METAR KCLM 151953Z AUTO 00000KT 10SM OVC008 10/08 A3035 RMK AO2 CIG 005V011 SLP279 T01000078=
201312151912 SPECI KCLM 151912Z AUTO 30004KT 10SM BKN008 OVC012 09/07 A3036 RMK AO2 CIG 006V011 T00940072=
201312151853 METAR KCLM 151853Z AUTO 00000KT 10SM BKN012 BKN055 10/07 A3036 RMK AO2 SLP281 T01000067=
201312151753 METAR KCLM 151753Z AUTO 00000KT 10SM FEW060 08/06 A3033 RMK AO2 SLP273 T00780056 10078 20022 53011=
201312151653 METAR KCLM 151653Z AUTO 00000KT 10SM BKN049 OVC055 05/04 A3031 RMK AO2 SLP267 T00500039=
201312151553 METAR KCLM 151553Z AUTO 00000KT 10SM BKN060 03/02 A3030 RMK AO2 SLP263 T00280017=
201312151453 METAR KCLM 151453Z AUTO 17003KT 10SM OVC060 04/03 A3030 RMK AO2 SLP262 T00390033 56004=
201312151353 METAR KCLM 151353Z AUTO 21003KT 10SM BKN055 04/03 A3030 RMK AO2 SLP262 T00390033=
201312151346 SPECI KCLM 151346Z AUTO 21004KT 4SM BR BKN060 04/04 A3030 RMK AO2 T00440039=
201312151333 SPECI KCLM 151333Z AUTO 00000KT 1 1/2SM BR BKN060 04/04 A3029 RMK AO2 T00440039=
201312151253 METAR KCLM 151253Z AUTO 00000KT 10SM OVC060 06/05 A3030 RMK AO2 SLP263 T00560050=
201312151153 METAR KCLM 151153Z AUTO 7SM BKN060 05/04 A3031 RMK AO2 SLP266 T00500044 10072 20050 50001=
201312151053 METAR KCLM 151053Z AUTO 22003KT 9SM FEW004 OVC060 07/06 A3032 RMK AO2 SLP268 T00670056=
201312151049 SPECI KCLM 151049Z AUTO 22004KT 8SM FEW004 OVC060 07/06 A3032 RMK AO2=
201312150953 METAR KCLM 150953Z AUTO 23004KT 10SM OVC003 07/06 A3031 RMK AO2 SLP265 T00670061=
201312150859 SPECI KCLM 150859Z AUTO 26004KT 3SM BR OVC002 06/06 A3030 RMK AO2 T00610056=
201312150853 METAR KCLM 150853Z AUTO 25005KT 1 3/4SM BR OVC002 06/06 A3030 RMK AO2 SLP264 T00610056 55001=
201312150851 SPECI KCLM 150851Z AUTO 24004KT 1 1/2SM BR OVC002 06/06 A3030 RMK AO2=
201312150839 SPECI KCLM 150839Z AUTO 26005KT 1/2SM FG OVC002 06/06 A3030 RMK AO2 T00610056=
201312150809 SPECI KCLM 150809Z AUTO 23004KT 1/4SM FG VV002 06/05 A3030 RMK AO2 T00610050=
201312150800 SPECI KCLM 150800Z AUTO 00000KT 1/2SM FG VV002 06/06 A3030 RMK AO2 T00610056=
201312150753 METAR KCLM 150753Z AUTO 25003KT 1SM BR OVC002 06/05 A3030 RMK AO2 SLP261 T00610050 400890050=
201312150750 SPECI KCLM 150750Z AUTO 25004KT 1 1/2SM BR OVC002 06/05 A3030 RMK AO2 VIS 3/4V3=
201312150653 METAR KCLM 150653Z AUTO 00000KT 8SM OVC003 07/06 A3031 RMK AO2 SLP264 T00720061=
201312150553 METAR KCLM 150553Z AUTO 25004KT 5SM BR OVC002 07/06 A3031 RMK AO2 SLP266 60000 T00720061 10078 20067 51005=
201312150453 METAR KCLM 150453Z AUTO 24004KT 5SM BR OVC003 07/06 A3031 RMK AO2 SLP266 T00670056=
201312150418 SPECI KCLM 150418Z AUTO 24004KT 7SM BKN003 OVC060 07/06 A3030 RMK AO2 T00670056=
201312150401 SPECI KCLM 150401Z AUTO 25003KT 8SM SCT003 OVC060 07/06 A3031 RMK AO2 T00670056=
201312150353 METAR KCLM 150353Z AUTO 26003KT 6SM BR OVC055 07/06 A3031 RMK AO2 RAB0258E20 SLP266 P0000 T00670056=
201312150253 METAR KCLM 150253Z AUTO 29003KT 9SM OVC055 07/06 A3029 RMK AO2 RAB27E43 SLP261 P0000 60000 T00720056 55007=
201312150216 SPECI KCLM 150216Z AUTO 00000KT 10SM SCT004 OVC050 07/06 A3028 RMK AO2 T00720061=
201312150200 SPECI KCLM 150200Z AUTO 14004KT 10SM BKN004 OVC050 07/06 A3028 RMK AO2 T00720061=
201312150153 METAR KCLM 150153Z AUTO 13005KT 10SM OVC005 07/06 A3028 RMK AO2 SLP257 T00720061=
201312150138 SPECI KCLM 150138Z AUTO 12004KT 10SM BKN005 OVC050 07/06 A3029 RMK AO2 T00720056=
201312150117 SPECI KCLM 150117Z AUTO 12004KT 10SM FEW007 OVC050 07/06 A3030 RMK AO2 T00720056=
201312150053 METAR KCLM 150053Z AUTO 00000KT 10SM OVC050 08/06 A3030 RMK AO2 SLP264 T00780061=
201312142353 METAR KCLM 142353Z AUTO 11003KT 7SM SCT004 OVC075 08/06 A3032 RMK AO2 SLP268 T00780061 10089 20061 50017=
201312142309 SPECI KCLM 142309Z AUTO 10004KT 10SM BKN004 OVC014 08/06 A3032 RMK AO2 T00780061=
201312142302 SPECI KCLM 142302Z AUTO 08004KT 10SM SCT005 OVC014 08/07 A3032 RMK AO2 T00830067=
201312142253 METAR KCLM 142253Z AUTO 09003KT 10SM OVC014 08/07 A3032 RMK AO2 SLP269 T00780067=
201312142236 SPECI KCLM 142236Z AUTO 07003KT 10SM FEW007 BKN014 OVC100 08/06 A3032 RMK AO2 T00830061=
201312142229 SPECI KCLM 142229Z AUTO 36003KT 10SM BKN015 BKN020 OVC100 09/06 A3033 RMK AO2 T00890061=
201312142222 SPECI KCLM 142222Z AUTO 00000KT 10SM FEW015 SCT020 OVC100 09/06 A3032 RMK AO2 T00890061=
201312142153 METAR KCLM 142153Z AUTO 00000KT 10SM OVC025 09/06 A3032 RMK AO2 SLP269 T00890061=
201312142123 SPECI KCLM 142123Z AUTO 10004KT 10SM BKN023 BKN110 08/06 A3032 RMK AO2 T00830061=
201312142103 SPECI KCLM 142103Z AUTO VRB04KT 10SM FEW017 SCT022 BKN110 09/06 A3027 RMK AO2 T00890056=
201312142053 METAR KCLM 142053Z AUTO 09006KT 10SM SCT017 BKN022 09/06 A3027 RMK AO2 PRESFR SLP251 T00890056 58027=
201312142036 SPECI KCLM 142036Z AUTO 11004KT 10SM OVC016 08/06 A3029 RMK AO2 T00830056=
201312141953 METAR KCLM 141953Z AUTO 12003KT 10SM OVC013 08/06 A3036 RMK AO2 PRESFR SLP281 T00780056=
201312141853 METAR KCLM 141853Z AUTO 00000KT 10SM OVC014 07/05 A3034 RMK AO2 SLP277 T00720050=
201312141803 SPECI KCLM 141803Z AUTO 00000KT 10SM BKN014 07/05 A3035 RMK AO2 T00670050=
201312141753 METAR KCLM 141753Z AUTO 00000KT 10SM BKN015 06/04 A3035 RMK AO2 SLP278 T00610044 10067 20050 53008=
201312141740 SPECI KCLM 141740Z AUTO 00000KT 10SM SCT017 06/04 A3035 RMK AO2 T00560044=
201312141715 SPECI KCLM 141715Z AUTO 22003KT 10SM BKN017 05/04 A3035 RMK AO2 T00500044=
201312141653 METAR KCLM 141653Z AUTO 28003KT 7SM SCT016 05/04 A3034 RMK AO2 SLP274 T00500044=
201312141648 SPECI KCLM 141648Z AUTO 00000KT 8SM FEW016 05/04 A3032 RMK AO2=
201312141637 SPECI KCLM 141637Z AUTO 21003KT 10SM SCT008 BKN016 06/04 A3033 RMK AO2 T00560044=
201312141622 SPECI KCLM 141622Z AUTO 21003KT 10SM BKN006 06/05 A3033 RMK AO2 CIG 003V009 T00560050=
201312141553 METAR KCLM 141553Z AUTO 21003KT 10SM OVC004 06/04 A3032 RMK AO2 SLP270 T00610044=
201312141520 SPECI KCLM 141520Z AUTO 24003KT 9SM BKN004 OVC110 06/05 A3033 RMK AO2 T00560050=
201312141453 METAR KCLM 141453Z AUTO 11004KT 10SM BKN005 OVC110 06/04 A3032 RMK AO2 CIG 003V007 PRESFR SLP268 T00560044 58015=
201312141353 METAR KCLM 141353Z AUTO 29005KT 10SM BKN004 OVC028 06/04 A3036 RMK AO2 SLP284 T00610044=
201312141351 SPECI KCLM 141351Z AUTO 27005KT 10SM BKN004 OVC028 06/04 A3036 RMK AO2=
201312141343 SPECI KCLM 141343Z AUTO 21003KT 10SM SCT004 BKN028 06/05 A3035 RMK AO2 T00610050=
201312141325 SPECI KCLM 141325Z AUTO 32007KT 10SM BKN029 OVC100 06/05 A3037 RMK AO2 T00610050=
201312141253 METAR KCLM 141253Z AUTO 12005KT 10SM SCT110 06/04 A3032 RMK AO2 SLP269 T00560044=
201312141229 SPECI KCLM 141229Z AUTO 14004KT 10SM SCT022 OVC110 05/04 A3035 RMK AO2 T00500039=
201312141153 METAR KCLM 141153Z AUTO 00000KT 10SM OVC021 06/05 A3038 RMK AO2 SLP291 60000 T00560050 10067 20056 55006=
201312141133 SPECI KCLM 141133Z AUTO 28005KT 10SM BKN020 06/05 A3039 RMK AO2 T00610050=
201312141053 METAR KCLM 141053Z AUTO 11006KT 10SM FEW023 06/05 A3036 RMK AO2 SLP284 T00610050=
201312141049 SPECI KCLM 141049Z AUTO 12005KT 10SM SCT021 06/05 A3037 RMK AO2=
201312140953 METAR KCLM 140953Z AUTO 00000KT 9SM BKN015 OVC020 06/05 A3040 RMK AO2 SLP297 T00610050=
201312140944 SPECI KCLM 140944Z AUTO 00000KT 8SM OVC015 07/06 A3041 RMK AO2 T00670056=
201312140902 SPECI KCLM 140902Z AUTO 00000KT 9SM FEW005 BKN014 OVC120 07/06 A3041 RMK AO2 T00670056=
201312140853 METAR KCLM 140853Z AUTO 23003KT 6SM BR SCT004 BKN022 BKN120 06/06 A3041 RMK AO2 SLP300 60000 T00610056 50021=
201312140838 SPECI KCLM 140838Z AUTO 34003KT 9SM SCT005 BKN120 07/06 A3041 RMK AO2 T00670061=
201312140817 SPECI KCLM 140817Z AUTO 14006KT 9SM OVC005 07/06 A3040 RMK AO2 T00670056=
201312140753 METAR KCLM 140753Z AUTO 22003KT 10SM OVC004 07/06 A3042 RMK AO2 SLP303 T00670056 401000017=
201312140653 METAR KCLM 140653Z AUTO 28005KT 10SM BKN003 07/06 A3040 RMK AO2 RAE19 SLP298 P0000 T00670056=
201312140642 SPECI KCLM 140642Z AUTO 28007KT 10SM BKN003 BKN006 BKN120 07/05 A3040 RMK AO2 RAE19 P0000 T00670050=
201312140622 SPECI KCLM 140622Z AUTO 31006KT 10SM FEW008 SCT080 BKN110 06/05 A3039 RMK AO2 RAE19 P0000 T00610050=
201312140553 METAR KCLM 140553Z AUTO 12006KT 10SM -RA OVC070 06/04 A3035 RMK AO2 RAB41 PRESFR SLP279 P0000 60000 T00560044 10089 20044 58010=
201312140453 METAR KCLM 140453Z AUTO 26003KT 10SM OVC110 06/04 A3038 RMK AO2 SLP288 T00560039=
201312140353 METAR KCLM 140353Z AUTO 00000KT 10SM SCT033 05/03 A3039 RMK AO2 SLP292 T00500033=
201312140253 METAR KCLM 140253Z AUTO 00000KT 10SM SCT120 06/04 A3038 RMK AO2 SLP289 T00560039 53004=
201312140153 METAR KCLM 140153Z AUTO 24005KT 10SM OVC032 06/05 A3038 RMK AO2 SLP289 T00610050=
201312140053 METAR KCLM 140053Z AUTO 00000KT 10SM OVC030 08/06 A3036 RMK AO2 SLP284 T00780056=
201312140025 SPECI KCLM 140025Z AUTO 00000KT 10SM OVC030 08/06 A3037 RMK AO2 T00830056=
201312140000 SPECI KCLM 140000Z AUTO 08003KT 10SM OVC029 09/06 A3037 RMK AO2 T00890056=
201312132353 METAR KCLM 132353Z AUTO 10004KT 10SM OVC031 09/06 A3037 RMK AO2 SLP285 T00890056 10100 20056 53005=
201312132253 METAR KCLM 132253Z AUTO 15004KT 10SM OVC030 09/06 A3036 RMK AO2 SLP282 T00940056=
201312132228 SPECI KCLM 132228Z AUTO 00000KT 10SM FEW022 OVC030 09/06 A3036 RMK AO2 T00940056=
201312132153 METAR KCLM 132153Z AUTO 00000KT 10SM OVC020 09/06 A3035 RMK AO2 SLP280 T00940056=
201312132053 METAR KCLM 132053Z AUTO 35003KT 10SM BKN016 OVC027 09/06 A3035 RMK AO2 SLP279 T00890056 53021=
201312132036 SPECI KCLM 132036Z AUTO 35004KT 10SM BKN015 09/06 A3034 RMK AO2 T00890056=
201312131953 METAR KCLM 131953Z AUTO VRB03KT 10SM CLR 09/06 A3031 RMK AO2 SLP266 T00940056=
201312131853 METAR KCLM 131853Z AUTO 12004KT 10SM FEW013 09/06 A3031 RMK AO2 SLP267 T00890056=
201312131753 METAR KCLM 131753Z AUTO 00000KT 10SM CLR 06/04 A3029 RMK AO2 SLP258 T00560044 10056 20017 53016=
201312131653 METAR KCLM 131653Z AUTO 00000KT 10SM FEW050 03/02 A3027 RMK AO2 SLP253 T00330022 $=
201312131638 SPECI KCLM 131638Z AUTO 20004KT 10SM SCT012 BKN050 04/03 A3026 RMK AO2 T00390028 $=
201312131553 METAR KCLM 131553Z AUTO 20003KT 10SM OVC011 04/03 A3024 RMK AO2 SLP244 T00440033 $=
201312131453 METAR KCLM 131453Z AUTO 16003KT 10SM BKN013 OVC022 03/02 A3024 RMK AO2 SLP244 T00280022 51020 $=
201312131450 SPECI KCLM 131450Z AUTO 00000KT 10SM SCT013 OVC022 03/02 A3024 RMK AO2 $=
201312131353 METAR KCLM 131353Z AUTO 17003KT 10SM BKN014 02/01 A3020 RMK AO2 SLP230 T00220011 $=
201312131309 SPECI KCLM 131309Z AUTO 18003KT 10SM OVC015 02/01 A3018 RMK AO2 T00220011 $=
201312131253 METAR KCLM 131253Z AUTO 00000KT 10SM BKN014 02/01 A3018 RMK AO2 SLP224 T00170011 $=
201312131251 SPECI KCLM 131251Z AUTO 00000KT 10SM BKN014 02/01 A3018 RMK AO2 $=
201312131153 METAR KCLM 131153Z AUTO 00000KT 10SM FEW017 OVC060 04/03 A3019 RMK AO2 SLP224 70001 T00390028 10044 20028 51014 $=
201312131150 SPECI KCLM 131150Z AUTO 00000KT 10SM FEW017 OVC060 04/03 A3019 RMK AO2 $=
201312131140 SPECI KCLM 131140Z AUTO 00000KT 9SM SCT007 BKN017 OVC060 03/03 A3018 RMK AO2 T00330028 $=
201312131053 METAR KCLM 131053Z AUTO 22004KT 10SM OVC007 04/03 A3017 RMK AO2 SLP218 T00390028 $=
201312130953 METAR KCLM 130953Z AUTO 24005KT 10SM OVC008 03/02 A3014 RMK AO2 SLP210 T00330022 $=
201312130940 SPECI KCLM 130940Z AUTO 24004KT 10SM BKN008 OVC075 03/02 A3014 RMK AO2 T00330022 $=
201312130853 METAR KCLM 130853Z AUTO 23004KT 10SM FEW007 BKN060 OVC075 03/03 A3012 RMK AO2 SLP201 T00330028 51010 $=
201312130849 SPECI KCLM 130849Z AUTO 23004KT 10SM FEW007 BKN060 OVC075 03/02 A3012 RMK AO2 $=
201312130753 METAR KCLM 130753Z AUTO 24003KT 10SM OVC050 04/02 A3011 RMK AO2 SLP198 T00390022 400611017 $=
201312130653 METAR KCLM 130653Z AUTO 22003KT 9SM BKN055 OVC070 03/02 A3009 RMK AO2 SLP190 T00330022 $=
201312130553 METAR KCLM 130553Z AUTO 00000KT 9SM OVC070 03/02 A3007 RMK AO2 RAB02E35 SLP185 P0001 60001 T00280022 10044 20017 51017 $=
201312130453 METAR KCLM 130453Z AUTO 00000KT 10SM BKN070 BKN080 OVC110 03/02 A3006 RMK AO2 SLP182 T00280017 $=
201312130353 METAR KCLM 130353Z AUTO 00000KT 10SM SCT090 BKN110 02/01 A3003 RMK AO2 SLP173 T00220006 $=
201312130253 METAR KCLM 130253Z AUTO 18003KT 10SM BKN070 BKN120 02/01 A3002 RMK AO2 SLP168 T00220011 51008 $=
201312130202 SPECI KCLM 130202Z AUTO 22005KT 10SM SCT009 OVC050 03/02 A3002 RMK AO2 T00280017 $=
201312130153 METAR KCLM 130153Z AUTO 00000KT 10SM OVC050 03/02 A3002 RMK AO2 SLP167 T00280017 $=
201312130053 METAR KCLM 130053Z AUTO 00000KT 10SM OVC055 04/02 A3001 RMK AO2 SLP164 T00440022 $=
201312130002 SPECI KCLM 130002Z AUTO 00000KT 10SM SCT011 BKN060 BKN075 04/02 A3000 RMK AO2 T00440022 $=
201312122353 METAR KCLM 122353Z AUTO 00000KT 10SM BKN011 BKN070 04/02 A3000 RMK AO2 SLP160 60000 T00440017 10061 20033 53002 $=
201312122312 SPECI KCLM 122312Z AUTO 00000KT 10SM BKN011 BKN060 05/02 A2999 RMK AO2 T00500022 $=
201312122253 METAR KCLM 122253Z AUTO 09005KT 10SM FEW011 FEW028 SCT065 05/02 A2997 RMK AO2 SLP152 T00500022 $=
201312122153 METAR KCLM 122153Z AUTO 08004KT 10SM BKN060 06/02 A2998 RMK AO2 RAE24 SLP154 P0000 T00560022 $=
201312122053 METAR KCLM 122053Z AUTO 06003KT 10SM -RA BKN055 OVC070 06/02 A2999 RMK AO2 RAB44 SLP158 P0000 60000 T00560022 58008 $=
201312122007 SPECI KCLM 122007Z AUTO VRB04KT 10SM SCT011 BKN055 OVC090 06/02 A2999 RMK AO2 T00610022 $=
201312121953 METAR KCLM 121953Z AUTO 09004KT 10SM BKN011 BKN060 OVC090 06/02 A3000 RMK AO2 SLP160 T00560022 $=
201312121853 METAR KCLM 121853Z AUTO VRB03KT 10SM BKN012 BKN100 OVC120 06/02 A3001 RMK AO2 SLP166 T00560017 $=
201312121829 SPECI KCLM 121829Z AUTO 14004KT 10SM FEW011 OVC100 05/02 A3001 RMK AO2 T00500022 $=
201312121753 METAR KCLM 121753Z AUTO 13005KT 10SM OVC011 03/02 A3001 RMK AO2 SLP166 T00330017 10033 21017 56012 $=
201312121653 METAR KCLM 121653Z AUTO 24005KT 10SM OVC012 02/01 A3003 RMK AO2 SLP172 T00220006 $=
201312121553 METAR KCLM 121553Z AUTO 20003KT 10SM OVC010 02/01 A3002 RMK AO2 SLP168 T00220006 $=
201312121453 METAR KCLM 121453Z AUTO 22003KT 10SM OVC011 01/00 A3005 RMK AO2 SLP178 T00110000 55008 $=
201312121353 METAR KCLM 121353Z AUTO 10SM OVC013 00/M01 A3004 RMK AO2 SLP176 T00001011 $=
201312121317 SPECI KCLM 121317Z AUTO 10SM BKN013 M01/M02 A3005 RMK AO2 T10111017 $=
201312121253 METAR KCLM 121253Z AUTO 24004KT 10SM CLR M01/M02 A3006 RMK AO2 SLP182 T10111022 $=
201312121153 METAR KCLM 121153Z AUTO 00000KT 10SM CLR M01/M02 A3007 RMK AO2 SLP186 T10111017 10017 21017 58018=
201312121053 METAR KCLM 121053Z AUTO 00000KT 10SM SCT010 M01/M02 A3010 RMK AO2 SLP197 T10061017=
201312120953 METAR KCLM 120953Z AUTO 23004KT 10SM OVC010 00/M01 A3011 RMK AO2 SLP200 T00001011=
201312120853 METAR KCLM 120853Z AUTO 00000KT 10SM OVC011 00/M01 A3013 RMK AO2 SLP205 T00001011 56021=
201312120753 METAR KCLM 120753Z AUTO 22006KT 10SM BKN012 M01/M02 A3014 RMK AO2 SLP210 T10061017 400441017=
201312120707 SPECI KCLM 120707Z AUTO 00000KT 10SM FEW012 01/M01 A3016 RMK AO2 T00061011=
201312120653 METAR KCLM 120653Z AUTO 00000KT 10SM BKN016 01/M01 A3016 RMK AO2 SLP217 T00111006=
201312120606 SPECI KCLM 120606Z AUTO 16003KT 10SM OVC015 02/00 A3018 RMK AO2 T00170000=
201312120553 METAR KCLM 120553Z AUTO 21004KT 10SM OVC014 02/00 A3019 RMK AO2 SLP226 T00170000 10033 21011 56010=
201312120521 SPECI KCLM 120521Z AUTO 00000KT 10SM OVC014 02/00 A3019 RMK AO2 T00170000=
201312120453 METAR KCLM 120453Z AUTO 22004KT 10SM OVC016 02/00 A3020 RMK AO2 SLP230 T00170000=
201312120353 METAR KCLM 120353Z AUTO 00000KT 10SM OVC015 01/M01 A3021 RMK AO2 SLP232 T00061006=
201312120330 SPECI KCLM 120330Z AUTO 23004KT 10SM BKN017 01/M01 A3021 RMK AO2 T00061011=
201312120315 SPECI KCLM 120315Z AUTO 00000KT 10SM SCT015 M01/M02 A3021 RMK AO2 T10061017=
201312120253 METAR KCLM 120253Z AUTO 00000KT 10SM BKN015 00/M01 A3022 RMK AO2 SLP236 T00001011 56009=
201312120212 SPECI KCLM 120212Z AUTO 23005KT 10SM OVC015 01/M01 A3023 RMK AO2 T00061006=
201312120153 METAR KCLM 120153Z AUTO 22004KT 10SM BKN014 00/M01 A3022 RMK AO2 SLP236 T00001006=
201312120142 SPECI KCLM 120142Z AUTO 22005KT 10SM BKN014 01/M01 A3023 RMK AO2 T00061011=
201312120053 METAR KCLM 120053Z AUTO 19004KT 10SM CLR 01/M01 A3023 RMK AO2 SLP240 T00111006=
201312112353 METAR KCLM 112353Z AUTO 00000KT 10SM CLR 03/01 A3025 RMK AO2 SLP245 T00330006 10044 20022 56015=
201312112253 METAR KCLM 112253Z AUTO 00000KT 10SM CLR 04/01 A3025 RMK AO2 SLP247 T00390006=
201312112153 METAR KCLM 112153Z AUTO 00000KT 10SM CLR 04/01 A3027 RMK AO2 SLP254 T00440011=
201312112053 METAR KCLM 112053Z AUTO 03004KT 10SM CLR 04/01 A3029 RMK AO2 SLP260 T00440011 56021=
201312111953 METAR KCLM 111953Z AUTO 10003KT 10SM FEW012 SCT110 04/01 A3029 RMK AO2 SLP261 T00440011=
201312111943 SPECI KCLM 111943Z AUTO 12007KT 10SM SCT012 BKN110 04/01 A3030 RMK AO2 T00440011=
201312111853 METAR KCLM 111853Z AUTO 00000KT 10SM OVC011 04/01 A3034 RMK AO2 SLP278 T00440011=
201312111753 METAR KCLM 111753Z AUTO 24003KT 10SM OVC011 03/00 A3035 RMK AO2 SLP281 T00280000 10028 21017 53005=
201312111653 METAR KCLM 111653Z AUTO 22005KT 10SM OVC013 02/M01 A3034 RMK AO2 SLP277 T00171006 $=
201312111553 METAR KCLM 111553Z AUTO 23005KT 10SM OVC011 00/M01 A3034 RMK AO2 SLP278 T00001011 $=
201312111453 METAR KCLM 111453Z AUTO 10SM OVC010 M01/M02 A3034 RMK AO2 SLP276 T10061017 56008 $=
201312111427 SPECI KCLM 111427Z AUTO 10SM OVC010 00/M02 A3033 RMK AO2 T00001017 $=
201312111353 METAR KCLM 111353Z AUTO 24006KT 10SM OVC009 00/M01 A3034 RMK AO2 SLP276 T00001011 $=
201312111340 SPECI KCLM 111340Z AUTO 23006KT 10SM BKN010 00/M02 A3034 RMK AO2 T00001017 $=
201312111331 SPECI KCLM 111331Z AUTO 23007KT 10SM SCT009 M01/M02 A3034 RMK AO2 T10061022 $=
201312111253 METAR KCLM 111253Z AUTO 23007KT 10SM SCT011 00/M02 A3034 RMK AO2 SLP279 T00001017=
201312111153 METAR KCLM 111153Z AUTO 24005KT 10SM BKN013 M01/M02 A3036 RMK AO2 SLP284 T10061017 10028 21011 58015=
201312111053 METAR KCLM 111053Z AUTO 21003KT 10SM OVC013 00/M01 A3038 RMK AO2 SLP291 T00001011=
201312111023 SPECI KCLM 111023Z AUTO 13004KT 10SM BKN013 00/M01 A3038 RMK AO2 T00001006=
201312111012 SPECI KCLM 111012Z AUTO 14003KT 10SM SCT013 00/M01 A3039 RMK AO2 T00001011=
201312110953 METAR KCLM 110953Z AUTO 23004KT 10SM OVC013 02/00 A3039 RMK AO2 SLP295 T00170000=
201312110853 METAR KCLM 110853Z AUTO 24004KT 10SM OVC011 02/00 A3040 RMK AO2 SLP299 T00170000 56006=
201312110753 METAR KCLM 110753Z AUTO 00000KT 10SM OVC014 01/00 A3041 RMK AO2 SLP300 T00110000 400500000=
201312110653 METAR KCLM 110653Z AUTO 23004KT 10SM BKN013 OVC048 02/00 A3042 RMK AO2 SLP303 T00170000=
201312110638 SPECI KCLM 110638Z AUTO 24004KT 10SM SCT015 OVC049 02/01 A3041 RMK AO2 T00220006=
201312110615 SPECI KCLM 110615Z AUTO 24003KT 10SM OVC015 02/01 A3042 RMK AO2 T00220006=
201312110553 METAR KCLM 110553Z AUTO 00000KT 10SM OVC013 03/01 A3042 RMK AO2 SLP305 T00280006 10039 20017 51003=
201312110453 METAR KCLM 110453Z AUTO 00000KT 10SM OVC011 03/01 A3042 RMK AO2 SLP304 T00280011=
201312110353 METAR KCLM 110353Z AUTO 23005KT 10SM OVC012 03/01 A3042 RMK AO2 SLP306 T00280011=
201312110301 SPECI KCLM 110301Z AUTO 22003KT 8SM BKN010 OVC019 02/01 A3041 RMK AO2 T00170006=
201312110253 METAR KCLM 110253Z AUTO 00000KT 10SM SCT011 OVC019 02/01 A3041 RMK AO2 SLP302 T00220006 55006=
201312110153 METAR KCLM 110153Z AUTO 00000KT 10SM OVC018 03/01 A3041 RMK AO2 SLP301 T00280011=
201312110053 METAR KCLM 110053Z AUTO 00000KT 10SM BKN018 OVC050 03/01 A3042 RMK AO2 SLP306 T00330011=
201312110024 SPECI KCLM 110024Z AUTO 00000KT 10SM OVC015 04/02 A3043 RMK AO2 T00390017=
201312102353 METAR KCLM 102353Z AUTO 09003KT 10SM BKN013 OVC018 04/02 A3043 RMK AO2 SLP308 T00390017 10050 20028 56005=
201312102253 METAR KCLM 102253Z AUTO 09005KT 10SM OVC010 04/02 A3044 RMK AO2 SLP309 T00440017=
201312102230 SPECI KCLM 102230Z AUTO 08003KT 10SM BKN011 OVC018 05/02 A3043 RMK AO2 T00500017=
201312102153 METAR KCLM 102153Z AUTO 00000KT 10SM SCT013 OVC018 05/02 A3044 RMK AO2 SLP310 T00500017=
201312102053 METAR KCLM 102053Z AUTO 10SM OVC019 05/01 A3045 RMK AO2 SLP313 T00500011 50000 $=
201312101953 METAR KCLM 101953Z AUTO 10SM OVC019 04/01 A3045 RMK AO2 SLP314 T00440011 $=
201312101853 METAR KCLM 101853Z AUTO 10SM OVC020 04/00 A3045 RMK AO2 SLP314 T00440000 $=
201312101753 METAR KCLM 101753Z AUTO 10SM BKN024 OVC037 03/M01 A3045 RMK AO2 UPB15E17RAB17E29 SLP313 P0000 60000 T00281006 10028 20006 51007 $=
201312101749 SPECI KCLM 101749Z AUTO 10SM SCT024 OVC037 03/M01 A3045 RMK AO2 UPB15E17RAB17E29 P0000 $=
201312101707 SPECI KCLM 101707Z AUTO 10SM BKN026 OVC047 02/M01 A3044 RMK AO2 T00171011 $=
201312101653 METAR KCLM 101653Z AUTO 10SM FEW028 OVC045 01/M01 A3044 RMK AO2 SLP311 T00111011 $=
201312101553 METAR KCLM 101553Z AUTO 10SM FEW018 SCT038 OVC047 02/M02 A3042 RMK AO2 SLP306 T00171022 $=
201312101529 SPECI KCLM 101529Z AUTO 10SM SCT019 BKN038 OVC046 01/M02 A3042 RMK AO2 T00111017 $=
201312101453 METAR KCLM 101453Z AUTO 10SM SCT019 OVC029 01/M02 A3043 RMK AO2 SLP306 T00111022 56003 $=
201312101451 SPECI KCLM 101451Z AUTO 10SM BKN019 OVC029 01/M02 A3043 RMK AO2 $=
201312101353 METAR KCLM 101353Z AUTO 10SM OVC034 01/M02 A3043 RMK AO2 SLP308 T00061022 $=
201312101253 METAR KCLM 101253Z AUTO OVC032 01/M02 A3044 RMK AO2 SLP310 T00061022 $=
201312101236 SPECI KCLM 101236Z AUTO 10SM OVC032 01/M02 A3044 RMK AO2 T00061022 $=
201312101221 SPECI KCLM 101221Z AUTO 10SM BKN029 OVC034 01/M03 A3045 RMK AO2 T00061028 $=
201312101153 METAR KCLM 101153Z AUTO 10SM OVC030 01/M03 A3045 RMK AO2 SLP314 T00111033 10017 21006 54000 $=
201312101128 SPECI KCLM 101128Z AUTO 10SM OVC030 01/M03 A3045 RMK AO2 T00061028 $=
201312101053 METAR KCLM 101053Z AUTO 10SM BKN029 OVC040 01/M03 A3045 RMK AO2 SLP315 T00111033 $=
201312100953 METAR KCLM 100953Z AUTO 10SM BKN038 BKN070 02/M03 A3045 RMK AO2 SLP313 T00171033 $=
201312100853 METAR KCLM 100853Z AUTO 10SM CLR 01/M03 A3045 RMK AO2 SLP314 T00061033 58006 $=
201312100753 METAR KCLM 100753Z AUTO 10SM CLR 00/M03 A3046 RMK AO2 SLP317 T00001033 400221050 $=
201312100653 METAR KCLM 100653Z AUTO 10SM CLR M01/M03 A3047 RMK AO2 SLP320 T10061033 $=
201312100630 SPECI KCLM 100630Z AUTO 10SM SCT016 M01/M03 A3047 RMK AO2 T10061033 $=
201312100553 METAR KCLM 100553Z AUTO 10SM OVC018 00/M03 A3047 RMK AO2 SLP320 60000 T00001033 10017 21011 58002 $=
201312100453 METAR KCLM 100453Z AUTO 10SM OVC020 01/M03 A3047 RMK AO2 SLP322 T00061033 $=
201312100418 SPECI KCLM 100418Z AUTO 10SM BKN024 OVC041 01/M03 A3048 RMK AO2 T00111028 $=
201312100353 METAR KCLM 100353Z AUTO 10SM OVC040 01/M03 A3048 RMK AO2 SLP323 T00061028 $=
201312100304 SPECI KCLM 100304Z AUTO 10SM SCT012 OVC041 00/M02 A3047 RMK AO2 T00001017 $=
201312100253 METAR KCLM 100253Z AUTO 10SM BKN012 OVC041 01/M02 A3047 RMK AO2 SLP322 60000 T00061017 55005 $=
201312100248 SPECI KCLM 100248Z AUTO 10SM BKN012 OVC039 01/M02 A3047 RMK AO2 $=
201312100153 METAR KCLM 100153Z AUTO 10SM FEW014 OVC029 01/M01 A3048 RMK AO2 SNB0059E28 SLP325 P0000 T00061011 $=
201312100136 SPECI KCLM 100136Z AUTO 9SM FEW012 OVC029 01/M02 A3048 RMK AO2 SNB0059E28 P0000 T00061017 $=
201312100053 METAR KCLM 100053Z AUTO 10SM OVC012 01/M02 A3049 RMK AO2 SLP328 T00111017 $=
201312100036 SPECI KCLM 100036Z AUTO 10SM BKN012 OVC025 01/M02 A3050 RMK AO2 T00111017 $=
201312092353 METAR KCLM 092353Z AUTO 10SM OVC026 02/M02 A3050 RMK AO2 SLP330 T00171017 10022 20011 55002 $=
201312092253 METAR KCLM 092253Z AUTO 10SM OVC028 02/M02 A3049 RMK AO2 SLP328 T00221022 $=
201312092153 METAR KCLM 092153Z AUTO 10SM BKN028 OVC044 02/M02 A3049 RMK AO2 SLP330 T00221022 $=
201312092053 METAR KCLM 092053Z AUTO 10SM SCT036 OVC046 02/M03 A3050 RMK AO2 SLP332 T00221028 57006 $=
201312091953 METAR KCLM 091953Z AUTO 10SM BKN037 BKN044 OVC050 02/M03 A3051 RMK AO2 SLP335 T00221033 $=
201312091853 METAR KCLM 091853Z AUTO 10SM OVC049 02/M04 A3051 RMK AO2 SLP337 T00171039 $=
201312091753 METAR KCLM 091753Z AUTO 10SM OVC048 01/M04 A3052 RMK AO2 SLP340 T00111039 10011 21022 53004 $=
201312091653 METAR KCLM 091653Z AUTO 10SM OVC046 M01/M04 A3051 RMK AO2 SLP336 T10111044 $=
201312091553 METAR KCLM 091553Z AUTO 23004KT 10SM BKN033 OVC044 M01/M06 A3051 RMK AO2 SLP335 T10111056 $=
201312091453 METAR KCLM 091453Z AUTO 00000KT 10SM OVC039 M01/M06 A3051 RMK AO2 SLP336 T10111056 55002 $=
201312091409 SPECI KCLM 091409Z AUTO 10SM BKN030 OVC036 M01/M06 A3051 RMK AO2 T10111061 $=
201312091353 METAR KCLM 091353Z AUTO 10SM BKN029 OVC036 M01/M06 A3050 RMK AO2 SLP334 T10111061 $=
201312091337 SPECI KCLM 091337Z AUTO 10SM BKN029 OVC036 M01/M06 A3050 RMK AO2 T10111061 $=
201312091253 METAR KCLM 091253Z AUTO 10SM OVC032 M02/M06 A3050 RMK AO2 SLP334 T10171061 $=
201312091153 METAR KCLM 091153Z AUTO 10SM OVC033 M02/M06 A3052 RMK AO2 SLP338 T10171061 11017 21050 58010 $=
201312091053 METAR KCLM 091053Z AUTO 10SM OVC032 M02/M06 A3053 RMK AO2 SLP343 T10221061 $=
201312090953 METAR KCLM 090953Z AUTO 10SM OVC033 M03/M07 A3054 RMK AO2 SLP345 T10281067 $=
201312090853 METAR KCLM 090853Z AUTO 10SM OVC037 M04/M07 A3055 RMK AO2 SLP348 T10391072 53001 $=
201312090753 METAR KCLM 090753Z AUTO 10SM OVC031 M04/M07 A3054 RMK AO2 SLP345 T10391072 400171067 $=
201312090653 METAR KCLM 090653Z AUTO 10SM OVC033 M04/M08 A3054 RMK AO2 SLP346 T10391078 $=
201312090553 METAR KCLM 090553Z AUTO 10SM OVC037 M05/M08 A3054 RMK AO2 SLP347 T10501078 11011 21067 51014 $=
201312090453 METAR KCLM 090453Z AUTO 10SM CLR M06/M08 A3054 RMK AO2 SLP344 T10561083 $=
201312090353 METAR KCLM 090353Z AUTO 10SM CLR M05/M08 A3051 RMK AO2 SLP336 T10501078 $=
201312090253 METAR KCLM 090253Z AUTO 10SM CLR M04/M09 A3050 RMK AO2 SLP332 T10441089 58004 $=
201312090153 METAR KCLM 090153Z AUTO 10SM CLR M03/M09 A3052 RMK AO2 SLP339 T10331089 $=
201312090053 METAR KCLM 090053Z AUTO 10SM CLR M02/M09 A3052 RMK AO2 SLP338 T10221094 $=
201312082353 METAR KCLM 082353Z AUTO 10SM CLR M01/M08 A3051 RMK AO2 SLP337 I6059 T10111083 10017 21011 53009 $=
201312082253 METAR KCLM 082253Z AUTO 10SM CLR 01/M08 A3050 RMK AO2 SLP333 T00111078 $=
201312082153 METAR KCLM 082153Z AUTO 10SM CLR 01/M08 A3049 RMK AO2 SLP331 T00111083 $=
201312082053 METAR KCLM 082053Z AUTO 10SM CLR 01/M08 A3049 RMK AO2 SLP328 I3059 T00111083 53003 $=
201312081953 METAR KCLM 081953Z AUTO 10SM CLR 01/M08 A3048 RMK AO2 SLP325 T00111078 $=
201312081853 METAR KCLM 081853Z AUTO 10SM SCT044 OVC050 00/M08 A3048 RMK AO2 SLP325 I1059 T00001078 $=
201312081753 METAR KCLM 081753Z AUTO 10SM SCT043 OVC055 M01/M08 A3048 RMK AO2 SLP324 T10111083 11011 21044 53013 $=
201312081653 METAR KCLM 081653Z AUTO 10SM OVC041 M03/M09 A3047 RMK AO2 SLP321 T10281089 $=
201312081553 METAR KCLM 081553Z AUTO 10SM OVC040 M03/M10 A3044 RMK AO2 SLP312 T10281100 $=
201312081453 METAR KCLM 081453Z AUTO 10SM OVC040 M02/M11 A3044 RMK AO2 SLP311 T10221106 51013 $=
201312081353 METAR KCLM 081353Z AUTO 10SM BKN041 OVC050 M03/M11 A3043 RMK AO2 SLP310 T10331106 $=
201312081253 METAR KCLM 081253Z AUTO 10SM SCT048 M04/M11 A3041 RMK AO2 SLP303 T10391111 $=
201312081153 METAR KCLM 081153Z AUTO 10SM CLR M04/M12 A3040 RMK AO2 SLP298 T10441117 11039 21067 58000 $=
201312081053 METAR KCLM 081053Z AUTO 10SM CLR M05/M12 A3042 RMK AO2 SLP305 T10501117 $=
201312080953 METAR KCLM 080953Z AUTO 10SM CLR M04/M12 A3041 RMK AO2 SLP303 T10441117 $=
201312080853 METAR KCLM 080853Z AUTO 10SM CLR M06/M12 A3040 RMK AO2 SLP299 T10611117 50004 $=
201312080753 METAR KCLM 080753Z AUTO 10SM CLR M07/M12 A3041 RMK AO2 SLP301 T10671122 410111089 $=
201312080653 METAR KCLM 080653Z AUTO 10SM CLR M07/M12 A3040 RMK AO2 SLP299 T10671122 $=
201312080553 METAR KCLM 080553Z AUTO 10SM CLR M06/M12 A3039 RMK AO2 SLP295 T10611122 11028 21089 56004 $=
201312080453 METAR KCLM 080453Z AUTO 10SM CLR M06/M12 A3039 RMK AO2 SLP297 T10611122 $=
201312080353 METAR KCLM 080353Z AUTO 10SM CLR M07/M13 A3039 RMK AO2 SLP297 T10671133 $=
201312080253 METAR KCLM 080253Z AUTO 10SM CLR M07/M14 A3040 RMK AO2 SLP299 T10721139 58002 $=
201312080153 METAR KCLM 080153Z AUTO 10SM CLR M06/M14 A3041 RMK AO2 SLP301 T10611139 $=
201312080053 METAR KCLM 080053Z AUTO 10SM CLR M06/M13 A3041 RMK AO2 SLP302 T10561133 $=
201312072353 METAR KCLM 072353Z AUTO 10SM CLR M03/M16 A3040 RMK AO2 SLP300 T10281156 11011 21044 53007 $=
201312072253 METAR KCLM 072253Z AUTO 10SM CLR M02/M16 A3040 RMK AO2 SLP297 T10171156 $=
201312072153 METAR KCLM 072153Z AUTO 10SM CLR M02/M17 A3038 RMK AO2 SLP292 T10171167 $=
201312072053 METAR KCLM 072053Z AUTO 10SM CLR M02/M16 A3038 RMK AO2 SLP292 T10171161 58001 $=
201312071953 METAR KCLM 071953Z AUTO 10SM CLR M02/M16 A3039 RMK AO2 SLP295 T10221156 $=
201312071853 METAR KCLM 071853Z AUTO 10SM CLR M03/M13 A3040 RMK AO2 SLP297 T10331133 $=
201312071753 METAR KCLM 071753Z AUTO 25012KT 10SM CLR M04/M12 A3038 RMK AO2 SLP293 T10441122 11039 21078 51016 $=
201312071653 METAR KCLM 071653Z AUTO 24009KT 10SM CLR M06/M12 A3037 RMK AO2 SLP289 T10561122 $=
201312071553 METAR KCLM 071553Z AUTO 24007KT 10SM BKN040 M08/M13 A3035 RMK AO2 SLP283 T10781128 $=
201312071453 METAR KCLM 071453Z AUTO 00000KT 10SM FEW040 M04/M14 A3034 RMK AO2 SLP277 T10441139 51004 $=
201312071353 METAR KCLM 071353Z AUTO 08003KT 10SM BKN044 M05/M13 A3033 RMK AO2 SLP276 T10501133 $=
201312071253 METAR KCLM 071253Z AUTO 10SM FEW048 M04/M14 A3034 RMK AO2 SLP277 T10441139 $=
201312071153 METAR KCLM 071153Z AUTO 10SM OVC048 M04/M13 A3033 RMK AO2 SLP274 T10391133 11028 21039 53013 $=
201312071053 METAR KCLM 071053Z AUTO 10SM OVC044 M04/M13 A3031 RMK AO2 SLP269 T10391128 $=
201312070953 METAR KCLM 070953Z AUTO VRB06G16KT 10SM OVC049 M04/M12 A3030 RMK AO2 SLP265 T10391122 $=
201312070853 METAR KCLM 070853Z AUTO 10SM OVC047 M03/M12 A3029 RMK AO2 SLP260 T10331122 50006 $=
201312070753 METAR KCLM 070753Z AUTO 10SM OVC046 M03/M13 A3029 RMK AO2 SLP262 T10331128 410111033 $=
201312070653 METAR KCLM 070653Z AUTO 10SM OVC048 M03/M13 A3029 RMK AO2 SLP260 T10331128 $=
201312070553 METAR KCLM 070553Z AUTO 10SM OVC048 M03/M13 A3027 RMK AO2 SLP254 T10281128 11022 21028 51010 $=
201312070453 METAR KCLM 070453Z AUTO 10SM BKN050 OVC070 M03/M13 A3026 RMK AO2 SLP250 T10281128 $=
201312070353 METAR KCLM 070353Z AUTO 10SM FEW050 OVC070 M03/M11 A3025 RMK AO2 SLP249 T10281111 $=
201312070253 METAR KCLM 070253Z AUTO 07009G18KT 020V090 10SM SCT047 OVC070 M03/M11 A3024 RMK AO2 SLP243 T10281111 53010 $=
201312070153 METAR KCLM 070153Z AUTO 07008KT 020V110 10SM BKN047 M03/M12 A3022 RMK AO2 SLP238 T10281122 $=
201312070053 METAR KCLM 070053Z AUTO 07007KT 030V090 10SM BKN047 BKN055 M02/M12 A3022 RMK AO2 SLP236 T10221122 $=
201312062353 METAR KCLM 062353Z AUTO 09007KT 10SM OVC047 M02/M12 A3021 RMK AO2 SLP233 I6313 T10221122 11017 21022 53000 $=
201312062253 METAR KCLM 062253Z AUTO 10SM OVC047 M02/M12 A3020 RMK AO2 SLP231 T10171122 $=
201312062153 METAR KCLM 062153Z AUTO 08009KT 10SM OVC044 M02/M12 A3020 RMK AO2 SLP230 T10171117=
201312062053 METAR KCLM 062053Z AUTO 10SM OVC042 M02/M11 A3021 RMK AO2 SLP233 I3313 T10171111 58002 $=
201312061953 METAR KCLM 061953Z AUTO 10SM OVC037 M02/M10 A3021 RMK AO2 SLP235 I1000 T10171100 $=
201312061853 METAR KCLM 061853Z AUTO 10SM OVC034 M02/M10 A3022 RMK AO2 SLP237 I1313 T10171100 $=
201312061753 METAR KCLM 061753Z AUTO VRB06KT 10SM M02/M09 A3021 RMK AO2 SLP235 T10171094 11017 21028 $=
201312061653 METAR KCLM 061653Z AUTO 11005KT 10SM M02/M10 A3021 RMK AO2 SLP232 T10171100 $=
201312061553 METAR KCLM 061553Z AUTO 12006KT 10SM OVC033 M02/M10 A3019 RMK AO2 SLP228 T10221100=
201312061453 METAR KCLM 061453Z AUTO 10SM BKN036 M03/M09 A3019 RMK AO2 SLP226 T10281094 53002 $=
201312061353 METAR KCLM 061353Z AUTO 10SM SCT038 BKN060 BKN120 M03/M09 A3018 RMK AO2 SLP225 T10281089 $=
201312061253 METAR KCLM 061253Z AUTO 10SM SCT038 OVC055 M02/M07 A3018 RMK AO2 SLP224 T10221072 $=
201312061153 METAR KCLM 061153Z AUTO 10SM OVC050 M02/M07 A3018 RMK AO2 SLP224 T10171067 11011 21028 53004 $=
201312061053 METAR KCLM 061053Z AUTO 10SM OVC120 M02/M06 A3018 RMK AO2 SLP222 T10221061 $=
201312060953 METAR KCLM 060953Z AUTO 10SM OVC065 M02/M06 A3017 RMK AO2 SLP221 T10171056 $=
201312060853 METAR KCLM 060853Z AUTO 10SM OVC075 M01/M06 A3017 RMK AO2 SLP219 T10111056 58005 $=
201312060753 METAR KCLM 060753Z AUTO 10SM BKN065 OVC110 M02/M05 A3018 RMK AO2 SLP223 T10171050 400111039 $=
201312060653 METAR KCLM 060653Z AUTO 10SM FEW029 SCT050 OVC070 M01/M05 A3019 RMK AO2 SLP225 T10111050 $=
201312060553 METAR KCLM 060553Z AUTO 10SM OVC070 M01/M04 A3019 RMK AO2 SLP226 60000 T10111044 11006 21022 53001 $=
201312060453 METAR KCLM 060453Z AUTO 10SM OVC065 M01/M04 A3018 RMK AO2 SLP224 T10111044 $=
201312060353 METAR KCLM 060353Z AUTO 10SM OVC100 M02/M04 A3018 RMK AO2 SLP224 T10171044 $=
201312060253 METAR KCLM 060253Z AUTO 10SM OVC070 M02/M04 A3018 RMK AO2 SLP225 60000 T10171044 56006 $=
201312060153 METAR KCLM 060153Z AUTO 13005KT 10SM OVC060 M02/M04 A3018 RMK AO2 SLP225 T10171039 $=
201312060053 METAR KCLM 060053Z AUTO 12006KT 10SM OVC048 M01/M03 A3019 RMK AO2 SNE11 SLP229 P0000 T10111033 $=
201312060003 SPECI KCLM 060003Z AUTO 10007KT 4SM -SN BR OVC037 M01/M03 A3020 RMK AO2 P0000 T10061028=
201312052353 METAR KCLM 052353Z AUTO 10006KT 2 1/2SM -SN BR OVC033 M01/M03 A3020 RMK AO2 SNB04 SLP231 P0000 60000 T10061028 10011 21011 56005=
201312052351 SPECI KCLM 052351Z AUTO 10008KT 2 1/2SM -SN BR OVC033 M01/M03 A3020 RMK AO2 SNB04 P0000=
201312052342 SPECI KCLM 052342Z AUTO 10007KT 3SM -SN BR OVC031 M01/M03 A3020 RMK AO2 SNB04 P0000 T10061028=
201312052322 SPECI KCLM 052322Z AUTO 10006KT 2 1/2SM -SN OVC031 M01/M03 A3020 RMK AO2 SNB04 P0000 T10061033=
201312052253 METAR KCLM 052253Z AUTO 11008KT 10SM BKN046 OVC065 00/M03 A3021 RMK AO2 SLP232 T00001033=
201312052153 METAR KCLM 052153Z AUTO 10005KT 9SM BKN042 OVC055 01/M03 A3022 RMK AO2 SNB30E50 SLP236 P0000 T00061028=
201312052053 METAR KCLM 052053Z AUTO 08005KT 10SM SCT027 BKN045 OVC055 01/M04 A3022 RMK AO2 SLP238 60000 T00061039 58015=
201312051953 METAR KCLM 051953Z AUTO 00000KT 10SM BKN055 OVC070 01/M04 A3023 RMK AO2 SLP242 T00061039=
201312051853 METAR KCLM 051853Z AUTO 10SM BKN046 OVC060 00/M04 A3026 RMK AO2 SNB1755SNEMM SLP250 P0000 T00001044 $=
201312051811 SPECI KCLM 051811Z AUTO 00000KT 4SM -SN BKN032 BKN039 OVC060 M01/M04 A3026 RMK AO2 SNB1755 P0000 T10061044=
201312051800 SPECI KCLM 051800Z AUTO 2 1/2SM -SN BKN030 OVC038 M01/M06 A3027 RMK AO2 SNB1755 P0000 T10111056 $=
201312051753 METAR KCLM 051753Z AUTO 3SM HZ BKN030 OVC040 M01/M06 A3027 RMK AO2 SNB26SNEMM SLP253 P0000 60000 T10111061 11011 21039 53006 PWINO FZRANO $=
201312051653 METAR KCLM 051653Z AUTO 10SM OVC060 M02/M09 A3026 RMK AO2 SLP250 T10171089 $=
201312051553 METAR KCLM 051553Z AUTO 10SM OVC070 M02/M09 A3024 RMK AO2 SLP246 T10221094 $=
201312051453 METAR KCLM 051453Z AUTO 10SM FEW075 SCT120 M03/M09 A3025 RMK AO2 SLP247 T10281094 56012 $=
201312051353 METAR KCLM 051353Z AUTO 10SM CLR M03/M09 A3026 RMK AO2 SLP249 T10331094 $=
201312051253 METAR KCLM 051253Z AUTO 10SM CLR M03/M09 A3027 RMK AO2 SLP253 T10331094 $=
201312051153 METAR KCLM 051153Z AUTO 10SM CLR M04/M09 A3029 RMK AO2 SLP260 T10391094 11033 21039 58012 $=
201312051053 METAR KCLM 051053Z AUTO 10SM CLR M04/M09 A3030 RMK AO2 SLP264 T10391094 $=
201312050953 METAR KCLM 050953Z AUTO 10SM CLR M04/M09 A3031 RMK AO2 SLP266 T10391094 $=
201312050853 METAR KCLM 050853Z AUTO 10SM CLR M04/M09 A3032 RMK AO2 SLPNO T10391094 58005 $=
201312050753 METAR KCLM 050753Z AUTO 10SM CLR M03/M09 A3033 RMK AO2 SLP272 T10331094 400721056 $=
201312050653 METAR KCLM 050653Z AUTO 10SM CLR M03/M09 A3034 RMK AO2 SLP276 T10331094 $=
201312050553 METAR KCLM 050553Z AUTO 10SM CLR M03/M09 A3034 RMK AO2 SLP277 T10331094 10000 21044 50000 $=
201312050453 METAR KCLM 050453Z AUTO 10SM CLR M03/M09 A3034 RMK AO2 SLP279 T10331094 $=
201312050353 METAR KCLM 050353Z AUTO 10SM CLR M04/M09 A3034 RMK AO2 SLP279 T10391089 $=
201312050253 METAR KCLM 050253Z AUTO 23007KT 10SM CLR M03/M09 A3034 RMK AO2 SLP277 T10331089 58001 $=
201312050153 METAR KCLM 050153Z AUTO 24005KT 10SM CLR M04/M08 A3034 RMK AO2 SLP278 T10441083 $=
201312050053 METAR KCLM 050053Z AUTO 23005KT 10SM CLR M03/M07 A3034 RMK AO2 SLP279 T10281072=
201312042353 METAR KCLM 042353Z AUTO 00000KT 10SM CLR 00/M09 A3034 RMK AO2 SLP278 T00001089 56009=
201312042253 METAR KCLM 042253Z AUTO 00000KT 10SM CLR 02/M09 A3034 RMK AO2 SLP277 T00221094=
201312042153 METAR KCLM 042153Z AUTO VRB04KT 10SM CLR 02/M09 A3035 RMK AO2 SLP280 T00221089=
201312042053 METAR KCLM 042053Z AUTO 10SM CLR A3036 RMK AO2 SLPNO 53002=
201312041953 METAR KCLM 041953Z AUTO CLR 07/ A3036 RMK AO2 SLP284 T0072 $=
201312041853 METAR KCLM 041853Z AUTO 10SM CLR 02/M07 A3036 RMK AO2 SLP286 T00171067 $=
201312041753 METAR KCLM 041753Z AUTO 10SM CLR M01/M07 A3036 RMK AO2 SLP285 T10061072 10000 21056 52005 $=
201312041653 METAR KCLM 041653Z AUTO 10SM CLR M03/M07 A3036 RMK AO2 SLP283 T10281072 $=
201312041553 METAR KCLM 041553Z AUTO 10SM CLR M05/M08 A3035 RMK AO2 SLP281 T10501078 $=
201312041453 METAR KCLM 041453Z AUTO 10SM CLR M04/M08 A3034 RMK AO2 SLP280 T10441078 53003=
201312041353 METAR KCLM 041353Z AUTO 10SM CLR M01/M09 A3034 RMK AO2 SLP278 T10111089 $=
201312041253 METAR KCLM 041253Z AUTO 10SM CLR 00/M09 A3034 RMK AO2 SLP276 T00001089 $=
201312041153 METAR KCLM 041153Z AUTO 10SM CLR M03/M08 A3034 RMK AO2 SLP276 T10331078 10000 21044 56001 $=
201312041053 METAR KCLM 041053Z AUTO 17005KT 10SM CLR 00/M08 A3034 RMK AO2 SLP276 T00001078 $=
201312040953 METAR KCLM 040953Z AUTO 16008KT 10SM CLR M02/M07 A3033 RMK AO2 SLP274 T10171072 $=
201312040853 METAR KCLM 040853Z AUTO 16003KT 10SM CLR M03/M07 A3034 RMK AO2 SLP276 T10281067 $=
201312040753 METAR KCLM 040753Z AUTO 16005KT 10SM CLR M03/M07 A3035 RMK AO2 SLP280 T10331067 400391044=
201312040653 METAR KCLM 040653Z AUTO 15005KT 10SM CLR M03/M07 A3035 RMK AO2 SLP280 T10331072=
201312040553 METAR KCLM 040553Z AUTO 12007KT 10SM CLR M01/M07 A3035 RMK AO2 SLP281 T10111072 10022 21033 53007=
201312040453 METAR KCLM 040453Z AUTO 14007KT 10SM CLR M02/M07 A3034 RMK AO2 SLP277 T10221072=
201312040353 METAR KCLM 040353Z AUTO 20003KT 10SM CLR M03/M07 A3033 RMK AO2 SLP276 T10281067=
201312040253 METAR KCLM 040253Z AUTO 00000KT 10SM CLR M01/M08 A3033 RMK AO2 SLP273 T10061083 53005=
201312040153 METAR KCLM 040153Z AUTO 14005KT 10SM CLR M01/M08 A3031 RMK AO2 SLP269 T10111083=
201312040053 METAR KCLM 040053Z AUTO 12004KT 10SM CLR 00/M08 A3031 RMK AO2 SLP268 T00001083=
201312032353 METAR KCLM 032353Z AUTO 11005KT 10SM CLR 02/M09 A3031 RMK AO2 SLP268 T00171089 10039 20017 55005=
201312032253 METAR KCLM 032253Z AUTO 09008KT 10SM CLR 03/M09 A3031 RMK AO2 SLP266 T00331094=
201312032153 METAR KCLM 032153Z AUTO 14005KT 10SM CLR 03/M10 A3031 RMK AO2 SLP266 T00331100=
201312032053 METAR KCLM 032053Z AUTO 08008KT 10SM CLR 03/M09 A3033 RMK AO2 SLP273 T00331094 55003=
201312031953 METAR KCLM 031953Z AUTO 00000KT 10SM CLR 03/M09 A3033 RMK AO2 SLP273 T00331089=
201312031853 METAR KCLM 031853Z AUTO 26007KT 10SM CLR 03/M08 A3033 RMK AO2 SLP274 T00281083=
201312031753 METAR KCLM 031753Z AUTO 24004KT 10SM CLR 02/M07 A3034 RMK AO2 SLP276 T00171072 10017 21028 51021=
201312031653 METAR KCLM 031653Z AUTO VRB03KT 10SM CLR 01/M09 A3032 RMK AO2 SLP269 T00111089=
201312031553 METAR KCLM 031553Z AUTO 22003KT 10SM CLR M02/M08 A3029 RMK AO2 SLP261 T10171078=
201312031453 METAR KCLM 031453Z AUTO 00000KT 10SM CLR M01/M08 A3027 RMK AO2 SLP254 T10061078 51019=
201312031353 METAR KCLM 031353Z AUTO 25005KT 10SM CLR M01/M07 A3026 RMK AO2 SLP249 T10111072=
201312031253 METAR KCLM 031253Z AUTO VRB03KT 10SM CLR 00/M07 A3023 RMK AO2 SLP241 T00001072=
201312031153 METAR KCLM 031153Z AUTO 00000KT 10SM CLR M01/M07 A3022 RMK AO2 SLP235 T10061067 10028 21022 53014=
201312031053 METAR KCLM 031053Z AUTO 22004KT 10SM CLR M01/M07 A3020 RMK AO2 SLP229 T10111067=
201312030953 METAR KCLM 030953Z AUTO VRB04KT 10SM OVC055 02/M08 A3019 RMK AO2 SLP224 T00171083=
201312030853 METAR KCLM 030853Z AUTO 11006KT 10SM OVC055 02/M07 A3017 RMK AO2 SLP219 T00221067 53026=
201312030753 METAR KCLM 030753Z AUTO 08005KT 10SM OVC050 02/M06 A3015 RMK AO2 SLP210 T00221056 400670000=
201312030653 METAR KCLM 030653Z AUTO 13010KT 10SM OVC049 02/M05 A3011 RMK AO2 SLP199 T00221050=
201312030553 METAR KCLM 030553Z AUTO 15006KT 10SM OVC048 03/M03 A3010 RMK AO2 RAB35E44 SLP193 P0000 60000 T00281028 10050 20000 53029=
201312030453 METAR KCLM 030453Z AUTO 08006KT 10SM FEW021 OVC036 04/M02 A3006 RMK AO2 SLP183 T00391017=
201312030353 METAR KCLM 030353Z AUTO 21004KT 10SM SCT043 OVC050 02/M01 A3003 RMK AO2 SLP173 T00221006=
201312030253 METAR KCLM 030253Z AUTO 00000KT 10SM BKN055 00/M02 A3001 RMK AO2 SLP164 T00001017 51019=
201312030153 METAR KCLM 030153Z AUTO 24006KT 10SM CLR 01/M02 A2999 RMK AO2 SLP158 T00111017=
201312030053 METAR KCLM 030053Z AUTO 22005KT 10SM FEW028 02/M01 A2998 RMK AO2 SLP154 T00221006=
201312022353 METAR KCLM 022353Z AUTO 31005KT 10SM CLR 05/00 A2995 RMK AO2 SLP144 60000 T00500000 10067 20033 53018=
201312022253 METAR KCLM 022253Z AUTO 30009KT 10SM FEW032 BKN048 06/00 A2993 RMK AO2 SLP136 T00610000=
201312022153 METAR KCLM 022153Z AUTO 29008KT 10SM FEW037 SCT047 06/M01 A2992 RMK AO2 SLP132 T00561011=
201312022053 METAR KCLM 022053Z AUTO 30009G17KT 10SM FEW040 06/M01 A2990 RMK AO2 SLP126 60000 T00611011 51006=
201312021953 METAR KCLM 021953Z AUTO 28010G17KT 10SM FEW048 SCT060 07/M01 A2989 RMK AO2 SLP122 T00671006=
201312021853 METAR KCLM 021853Z AUTO 29012G18KT 10SM BKN041 06/00 A2989 RMK AO2 RAB02E27 SLP125 P0000 T00560000=
201312021753 METAR KCLM 021753Z AUTO 26009KT 10SM FEW040 BKN055 BKN070 05/00 A2988 RMK AO2 SLP120 60000 T00500000 10050 20022 51016=
201312021653 METAR KCLM 021653Z AUTO 25010KT 10SM FEW110 03/M01 A2988 RMK AO2 SLP118 T00331011=
201312021553 METAR KCLM 021553Z AUTO 27012G18KT 10SM FEW039 SCT048 SCT110 03/M02 A2985 RMK AO2 SLP110 T00281017=
201312021453 METAR KCLM 021453Z AUTO 27010KT 10SM CLR 03/M02 A2983 RMK AO2 SLP104 60000 T00281022 53002=
201312021353 METAR KCLM 021353Z AUTO 25014G19KT 10SM FEW039 03/M02 A2982 RMK AO2 SLP100 T00331017=
201312021253 METAR KCLM 021253Z AUTO 25010KT 10SM FEW049 SCT070 BKN100 03/00 A2983 RMK AO2 SNB03E16 SLP101 P0000 T00280000=
201312021153 METAR KCLM 021153Z AUTO 26008KT 10SM BKN045 BKN050 OVC070 03/00 A2983 RMK AO2 SLP102 60003 70030 T00330000 10056 20028 58002=
201312021053 METAR KCLM 021053Z AUTO 27011G20KT 10SM SCT038 SCT050 BKN120 03/00 A2983 RMK AO2 RAE05UPB05E10 SLP103 P0000 T00330000=
201312021016 SPECI KCLM 021016Z AUTO 27009KT 10SM FEW007 SCT013 SCT110 03/00 A2984 RMK AO2 RAE05UPB05E10 P0000 T00280000=
201312021001 SPECI KCLM 021001Z AUTO 26013G22KT 7SM -RA FEW009 BKN027 OVC110 03/01 A2984 RMK AO2 P0000 T00280006=
201312020953 METAR KCLM 020953Z AUTO 30013G24KT 7SM -RA FEW013 BKN035 OVC075 03/01 A2985 RMK AO2 RAE20B47 SLP110 P0002 T00280011=
201312020853 METAR KCLM 020853Z AUTO 29010KT 10SM -RA OVC035 03/02 A2983 RMK AO2 RAB22 SLP104 P0001 60001 T00330017 51013=
201312020753 METAR KCLM 020753Z AUTO 29013KT 10SM SCT040 03/01 A2983 RMK AO2 PK WND 30033/0706 RAB07E45 SLP104 P0000 T00330006 401220033=
201312020653 METAR KCLM 020653Z AUTO 30014G20KT 10SM FEW050 BKN080 04/00 A2981 RMK AO2 RAE0558B15E37 SLP095 P0000 T00440000=
201312020553 METAR KCLM 020553Z AUTO 28012KT 10SM -RA BKN050 OVC065 05/02 A2980 RMK AO2 PK WND 27034/0509 SLP090 P0003 60021 T00500017 10100 20050 53018=
201312020532 SPECI KCLM 020532Z AUTO 29012G22KT 10SM -RA OVC034 05/03 A2979 RMK AO2 PK WND 27034/0509 P0003 T00500028=
201312020520 SPECI KCLM 020520Z AUTO 28019G30KT 7SM -RA BKN029 OVC060 06/02 A2979 RMK AO2 PK WND 27034/0509 P0003 T00560022=
201312020453 METAR KCLM 020453Z AUTO 29013G26KT 10SM -RA BKN034 OVC065 06/03 A2978 RMK AO2 PK WND 28032/0438 SLP086 P0002 T00560033=
201312020353 METAR KCLM 020353Z AUTO 31013KT 10SM -RA BKN050 OVC070 07/04 A2975 RMK AO2 SLP076 P0003 T00720044=
201312020253 METAR KCLM 020253Z AUTO 29013G22KT 10SM -RA BKN049 OVC070 07/05 A2974 RMK AO2 PK WND 28026/0236 SLP073 P0002 60013 T00720050 58015=
201312020153 METAR KCLM 020153Z AUTO 31014G22KT 8SM -RA SCT013 BKN043 OVC049 08/06 A2976 RMK AO2 PK WND 31026/0142 SLP080 P0007 T00780061=
201312020120 SPECI KCLM 020120Z AUTO 29012G21KT 5SM RA BR SCT011 BKN031 OVC040 09/07 A2977 RMK AO2 P0006 T00890072=
201312020109 SPECI KCLM 020109Z AUTO 28013G17KT 7SM -RA BKN011 BKN019 OVC032 09/08 A2978 RMK AO2 P0003 T00890078=
201312020053 METAR KCLM 020053Z AUTO 31010G21KT 6SM -RA BR FEW011 BKN029 OVC042 09/08 A2978 RMK AO2 SLP084 P0004 T00890078=
201312020044 SPECI KCLM 020044Z AUTO 31013G21KT 9SM -RA FEW007 BKN029 OVC055 09/07 A2977 RMK AO2 P0002 T00940072=
201312012353 METAR KCLM 012353Z AUTO 23004KT 10SM -RA FEW036 SCT046 OVC060 10/07 A2979 RMK AO2 RAB2254E2256B17 SLP088 P0000 60003 T01000067 10122 20100 56020=
201312012253 METAR KCLM 012253Z AUTO 24006KT 10SM BKN055 OVC070 11/07 A2980 RMK AO2 RAB24E49 SLP090 P0001 T01060072=
201312012153 METAR KCLM 012153Z AUTO 00000KT 10SM FEW055 BKN075 OVC095 11/08 A2981 RMK AO2 RAE50 PRESFR SLP095 P0000 T01060083=
201312012053 METAR KCLM 012053Z AUTO 27007KT 10SM -RA FEW024 BKN032 OVC039 11/08 A2985 RMK AO2 RAB24 SLP107 P0001 60002 T01110078 56010=
201312011953 METAR KCLM 011953Z AUTO 23009KT 10SM BKN055 OVC070 12/07 A2985 RMK AO2 SLP110 T01220072=
201312011853 METAR KCLM 011853Z AUTO 26011G16KT 10SM FEW065 SCT080 BKN090 12/08 A2987 RMK AO2 RAB1755E35 SLP115 P0001 T01170078=
201312011753 METAR KCLM 011753Z AUTO 28011G19KT 10SM OVC060 12/07 A2988 RMK AO2 RAB33E42 SLP118 P0000 60003 T01170072 10117 20078 51019=
201312011653 METAR KCLM 011653Z AUTO 29012KT 10SM OVC055 12/07 A2987 RMK AO2 PK WND 29026/1610 RAB02E22 SLP117 P0000 T01170072=
201312011553 METAR KCLM 011553Z AUTO 29017G27KT 10SM BKN055 OVC070 11/09 A2986 RMK AO2 PK WND 29027/1553 SLP113 T01110089=
201312011453 METAR KCLM 011453Z AUTO 28013KT 10SM SCT050 BKN060 BKN070 12/09 A2982 RMK AO2 SLP099 60003 T01170089 55015=
201312011353 METAR KCLM 011353Z AUTO 21006KT 10SM BKN044 09/08 A2981 RMK AO2 RAE40 PRESFR SLP095 P0001 T00890083=
201312011340 SPECI KCLM 011340Z AUTO 19005KT 5SM BR OVC044 08/07 A2984 RMK AO2 RAE40 P0001 T00780072=
201312011328 SPECI KCLM 011328Z AUTO 00000KT 2SM -RA BR OVC046 08/07 A2985 RMK AO2 VIS 1 1/2V4 P0001 T00780072=
201312011253 METAR KCLM 011253Z AUTO 00000KT 8SM -RA OVC055 08/07 A2985 RMK AO2 SLP110 P0002 T00780072=
201312011153 METAR KCLM 011153Z AUTO VRB03KT 6SM -RA BR OVC042 08/07 A2987 RMK AO2 RAB15 SLP115 P0004 60011 70016 T00780067 10083 20067 56046=
201312011148 SPECI KCLM 011148Z AUTO 00000KT 3SM -RA BR FEW034 OVC042 08/07 A2987 RMK AO2 RAB15 P0004=
201312011143 SPECI KCLM 011143Z AUTO 00000KT 1 1/4SM -RA BR FEW034 OVC044 08/07 A2987 RMK AO2 RAB15 P0003 T00780072=
201312011109 SPECI KCLM 011109Z AUTO 00000KT 1/2SM FG OVC055 07/07 A2989 RMK AO2 T00720072=
201312011059 SPECI KCLM 011059Z AUTO 00000KT 1 3/4SM BR OVC060 08/07 A2989 RMK AO2 T00780067=
201312011053 METAR KCLM 011053Z AUTO 00000KT 6SM BR OVC060 07/07 A2989 RMK AO2 RAE29 SLP122 P0001 T00720067=
201312010953 METAR KCLM 010953Z AUTO 00000KT 7SM -RA FEW050 OVC060 08/07 A2994 RMK AO2 SLP139 P0002 T00780072=
201312010853 METAR KCLM 010853Z AUTO 00000KT 6SM -RA BR OVC060 08/07 A3000 RMK AO2 SLP160 P0003 60004 T00780067 58035=
201312010753 METAR KCLM 010753Z AUTO 00000KT 4SM -RA BR OVC060 07/07 A3004 RMK AO2 RAB33 SLP174 P0001 T00720067 400830056=
201312010653 METAR KCLM 010653Z AUTO 00000KT 4SM BR BKN070 OVC090 07/06 A3007 RMK AO2 RAE03 SLP185 P0000 T00670061=
201312010553 METAR KCLM 010553Z AUTO 00000KT 5SM -RA BR OVC065 07/06 A3010 RMK AO2 SLP196 P0001 60001 T00720061 10078 20056 58014=
201312010453 METAR KCLM 010453Z AUTO 00000KT 8SM -RA FEW003 BKN060 OVC070 07/06 A3013 RMK AO2 RAB29 SLP205 P0000 T00670061=
201312010440 SPECI KCLM 010440Z AUTO 00000KT 9SM -RA SCT003 SCT025 OVC070 07/06 A3014 RMK AO2 RAB29 P0000 T00670061=
201312010353 METAR KCLM 010353Z AUTO 00000KT 3SM BR BKN095 OVC110 07/06 A3015 RMK AO2 SLP210 T00670056=
201312010349 SPECI KCLM 010349Z AUTO 00000KT 1 3/4SM BR OVC100 06/06 A3015 RMK AO2 VIS 1V5=
201312010342 SPECI KCLM 010342Z AUTO 00000KT 2SM BR BKN100 06/06 A3015 RMK AO2 T00610056=
201312010310 SPECI KCLM 010310Z AUTO 00000KT 3SM BR CLR 06/06 A3015 RMK AO2 T00610056=
201312010253 METAR KCLM 010253Z AUTO 00000KT 2SM BR CLR 07/06 A3016 RMK AO2 SLP214 T00670056 56014=
201312010248 SPECI KCLM 010248Z AUTO 00000KT 2SM BR CLR 07/06 A3016 RMK AO2=
201312010233 SPECI KCLM 010233Z AUTO 12003KT 1 1/2SM BR SCT001 07/06 A3016 RMK AO2 T00670061=
201312010211 SPECI KCLM 010211Z AUTO 16006KT 1SM BR OVC001 07/07 A3018 RMK AO2 T00720067=
201312010153 METAR KCLM 010153Z AUTO 11003KT 1/2SM FG OVC001 08/07 A3019 RMK AO2 SLP223 T00780067=
201312010122 SPECI KCLM 010122Z AUTO 12004KT 1/2SM FG VV002 07/07 A3019 RMK AO2 T00720067=
201312010107 SPECI KCLM 010107Z AUTO 00000KT 1/2SM FG OVC001 07/07 A3019 RMK AO2 T00720067=
201312010053 METAR KCLM 010053Z AUTO 00000KT 1SM BR OVC001 07/07 A3020 RMK AO2 SLP229 T00720067=
201312010033 SPECI KCLM 010033Z AUTO 00000KT 1 1/4SM BR OVC001 08/07 A3021 RMK AO2 T00780072=
201312010010 SPECI KCLM 010010Z AUTO 28005KT 1 3/4SM BR OVC002 08/07 A3022 RMK AO2 T00780067=

# No short TAF reports from KCLM in databse.

###################################
#  large TAF from KCLM
###################################
201312312341 TAF KCLM 312341Z 0100/0124 VRB03KT P6SM BKN022 OVC030 FM011300
                       VRB03KT P6SM SCT030 BKN200
                      TEMPO 0113/0117 4SM BR=
201312312222 TAF AMD KCLM 312222Z 3122/0118 VRB03KT P6SM BKN022 FM010600 VRB03KT
                       P6SM SCT030
                      TEMPO 0110/0114 4SM BR=
201312311738 TAF KCLM 311738Z 3118/0118 VRB03KT P6SM BKN022 FM312300 VRB03KT
                       P6SM SCT030
                      TEMPO 0110/0114 4SM BR=
201312311248 TAF AMD KCLM 311248Z 3113/0112 22005KT P6SM VCFG SCT020 OVC200
                       TEMPO 3113/3115 BKN020 OVC200 FM311500 VRB03KT
                       P6SM SCT008 OVC017 FM312200 VRB03KT P6SM
                       SCT017 BKN030 FM010500 VRB03KT 4SM BR VCFG
                       SCT002 SCT020=
201312311127 TAF KCLM 311127Z 3112/0112 21004KT P6SM VCSH SCT008 SCT017 OVC028
                       TEMPO 3112/3113 -RA BKN008 OVC017 FM311400
                       VRB03KT P6SM SCT008 OVC017 FM312200 VRB03KT
                       P6SM SCT017 BKN030 FM010500 VRB03KT 4SM
                       BR VCFG SCT002 SCT020=
201312311103 TAF AMD KCLM 311103Z 3111/0106 19003KT P6SM SCT008 BKN017 OVC028
                       TEMPO 3111/3113 -RA BKN008 OVC017 FM311400
                       VRB03KT P6SM SCT012 OVC020=
201312310713 TAF AMD KCLM 310713Z 3107/0106 VRB03KT P6SM OVC040 FM310900 VRB03KT
                       P6SM SCT010 OVC035
                      TEMPO 3109/3113 -RA BKN010 OVC035 FM311400
                       VRB03KT P6SM BKN012 OVC020=
201312310529 TAF KCLM 310529Z 3106/0106 24003KT P6SM OVC016 FM310800 VRB03KT
                       P6SM -RA OVC010 FM311400 VRB03KT P6SM BKN012
                       OVC020=
201312302338 TAF KCLM 302338Z 3100/3124 VRB03KT P6SM BKN070 FM310400 VRB03KT
                       P6SM BKN040 OVC070 FM310800 VRB03KT P6SM
                       -RA OVC025 FM311400 VRB03KT P6SM SCT015
                       BKN025 OVC040=
201312301743 TAF KCLM 301743Z 3018/3118 VRB03KT P6SM SCT008 BKN070
                      TEMPO 3018/3021 BKN008 OVC070 FM310400 VRB03KT
                       P6SM VCSH BKN035 OVC060 FM310800 VRB03KT
                       P6SM -RA OVC025 FM311400 VRB03KT P6SM SCT025
                       BKN040=
201312301447 TAF AMD KCLM 301447Z 3015/3112 23004KT P6SM BKN007 OVC100
                      TEMPO 3015/3017 SCT007 BKN100 FM301700 VRB03KT
                       P6SM BKN040 BKN070 FM302300 28004KT P6SM
                       VCSH BKN035 OVC060 FM310400 25004KT P6SM
                       -RA OVC030=
201312301120 TAF KCLM 301120Z 3012/3112 VRB03KT P6SM SCT014 BKN050 BKN100
                      TEMPO 3012/3016 BKN014 FM301600 VRB03KT P6SM
                       BKN040 BKN070 FM302300 28004KT P6SM VCSH
                       BKN035 OVC060 FM310400 25004KT P6SM -RA
                       OVC030=
201312300538 TAF KCLM 300538Z 3006/3106 VRB03KT P6SM BKN050 BKN100 FM301500
                       VRB03KT P6SM OVC035 FM310300 25004KT P6SM
                       -RA OVC030=
201312292341 TAF KCLM 292341Z 3000/3024 VRB03KT P6SM BKN050 BKN100 FM301400
                       VRB03KT P6SM OVC035=
201312291738 TAF KCLM 291738Z 2918/3018 VRB03KT P6SM SCT015 OVC050
                      TEMPO 2918/2921 BKN015 OVC050 FM300000 VRB03KT
                       P6SM BKN050 BKN100 FM301400 VRB03KT P6SM
                       OVC035=
201312291120 TAF KCLM 291120Z 2912/3012 VRB04KT P6SM FEW010 BKN120 OVC200 FM292100
                       09003KT P6SM SCT035 BKN120 OVC200 FM300400
                       24004KT P6SM BKN060 BKN120=
201312290529 TAF KCLM 290529Z 2906/3006 VRB04KT P6SM SCT025 BKN100
                      TEMPO 2908/2912 BKN025 FM291200 VRB03KT P6SM
                       BKN030 BKN120 FM292100 09003KT P6SM SCT030
                       OVC100 FM300400 24004KT P6SM BKN060 BKN120=
201312282329 TAF KCLM 282329Z 2900/2924 11004KT P6SM OVC025 FM292100 07002KT
                       P6SM SCT030 OVC200=
201312282036 TAF AMD KCLM 282036Z 2821/2918 07003KT P6SM OVC023 FM282200 07003KT
                       P6SM BKN200 FM291200 24003KT P6SM BKN050
                       FM291500 00000KT P6SM OVC015=
201312281732 TAF KCLM 281732Z 2818/2918 07003KT P6SM BKN200 FM291200 24003KT
                       P6SM BKN050 FM291500 00000KT P6SM OVC015=
201312281603 TAF AMD KCLM 281603Z 2816/2912 VRB02KT P6SM SCT200 FM281900 VRB03KT
                       P6SM SCT030 BKN200 FM282100 09004KT P6SM
                       SCT040 SCT200 FM290500 24004KT P6SM BKN040
                       BKN200=
201312281135 TAF KCLM 281135Z 2812/2912 24005KT P6SM BKN018 FM281900 VRB03KT
                       P6SM SCT030 BKN200 FM282100 09004KT P6SM
                       SCT040 SCT200 FM290500 24004KT P6SM BKN040
                       BKN200=
201312280533 TAF KCLM 280533Z 2806/2906 27010KT P6SM SCT200
                      TEMPO 2808/2812 BKN020 FM281200 24005KT P6SM
                       BKN020 FM281800 VRB03KT P6SM SCT030 BKN200
                       FM282100 09004KT P6SM SCT040 SCT200=
201312272328 TAF KCLM 272328Z 2800/2824 31009KT P6SM BKN200 FM280900 25007KT
                       P6SM BKN025 FM282100 08003KT P6SM BKN250=
201312271806 TAF KCLM 271806Z 2718/2818 00000KT P6SM -RA FEW003 OVC060 FM272100
                       28007KT P6SM -SHRA BKN030 BKN050 FM280300
                       27006KT P6SM VCSH BKN027 BKN040 FM281000
                       25004KT P6SM BKN025=
201312271405 TAF AMD KCLM 271405Z 2714/2812 VRB03KT 6SM BR SCT004 BKN060 OVC120
                       TEMPO 2714/2716 1 1/2SM BR BKN003 OVC060
                       FM271600 24003KT P6SM -RA BKN030 OVC050
                       FM272100 28007KT P6SM -SHRA BKN030 BKN050
                       FM280300 27006KT P6SM VCSH BKN027 BKN040
                       FM281000 25004KT P6SM BKN025=
201312271127 TAF KCLM 271127Z 2712/2812 VRB03KT 6SM BR SCT004 BKN060 OVC120
                       TEMPO 2712/2714 1 1/2SM BR BKN004 FM271600
                       24003KT P6SM -RA BKN030 OVC050 FM272100
                       28007KT P6SM -SHRA BKN030 BKN050 FM280300
                       27006KT P6SM VCSH BKN027 BKN040 FM281000
                       25004KT P6SM BKN025=
201312270855 TAF AMD KCLM 270855Z 2709/2806 VRB03KT P6SM SCT004 BKN120 OVC200
                       TEMPO 2709/2712 2SM BR BKN004 FM271200 VRB03KT
                       P6SM BKN060 OVC120 FM271600 24003KT P6SM
                       -RA BKN030 OVC050 FM272100 28007KT P6SM
                       -SHRA BKN030 BKN050 FM280300 27006KT P6SM
                       VCSH BKN027 BKN040=
201312270548 TAF AMD KCLM 270548Z 2706/2806 VRB03KT 6SM BR FEW004 SCT200
                      TEMPO 2706/2709 2SM BR SCT004 FM270900 VRB03KT
                       P6SM BKN100 OVC200 FM271600 24003KT P6SM
                       -RA BKN030 OVC050 FM272100 28007KT P6SM
                       -SHRA BKN030 BKN050 FM280300 27006KT P6SM
                       VCSH BKN027 BKN040=
201312270520 TAF KCLM 270520Z 2706/2806 VRB03KT P6SM BKN200 FM270900 VRB03KT
                       P6SM BKN100 OVC200 FM271600 24003KT P6SM
                       -RA BKN030 OVC050 FM272100 28007KT P6SM
                       -SHRA BKN030 BKN050 FM280300 27006KT P6SM
                       VCSH BKN027 BKN040=
201312262334 TAF KCLM 262334Z 2700/2724 05003KT P6SM BKN250 FM270900 23003KT
                       P6SM OVC050 FM271600 24003KT P6SM -RA BKN030
                       OVC050=
201312261742 TAF KCLM 261742Z 2618/2718 00000KT P6SM OVC200 FM271000 20003KT
                       P6SM BKN080 OVC200 FM271500 21003KT P6SM
                       -RA BKN030 OVC060=
201312261120 TAF KCLM 261120Z 2612/2712 VRB03KT P6SM VCSH SCT025 OVC050
                      TEMPO 2612/2616 BKN022 OVC040 FM261800 VRB03KT
                       P6SM SCT025 BKN050 BKN100 FM270200 VRB03KT
                       P6SM BKN060 BKN120 FM271000 VRB03KT P6SM
                       OVC070=
201312260528 TAF KCLM 260528Z 2606/2706 VRB03KT P6SM VCSH SCT025 OVC050
                      TEMPO 2609/2613 BKN022 OVC040 FM261800 VRB03KT
                       P6SM OVC025 FM262300 VRB03KT P6SM SCT030
                       BKN060 BKN120=
201312252333 TAF KCLM 252333Z 2600/2624 VRB03KT P6SM OVC040 FM260600 00000KT
                       5SM BR VCSH OVC040 FM261800 VRB03KT P6SM
                       OVC025=
201312251726 TAF KCLM 251726Z 2518/2618 07002KT P6SM OVC070 FM260600 22002KT
                       P6SM VCSH BKN025 OVC050 FM261200 23002KT
                       P6SM VCSH OVC025=
201312251138 TAF KCLM 251138Z 2512/2612 00000KT P6SM SCT035 FM251600 VRB03KT
                       P6SM SCT035 BKN100 FM260000 VRB03KT P6SM
                       BKN050 OVC100=
201312250538 TAF KCLM 250538Z 2506/2606 00000KT P6SM SCT035
                      TEMPO 2506/2510 BKN035 FM251400 VRB03KT P6SM
                       SCT035 BKN100=
201312242320 TAF KCLM 242320Z 2500/2524 32007KT P6SM OVC035 FM251200 VRB03KT
                       P6SM SCT030 BKN090 BKN150 FM251800 VRB03KT
                       P6SM SCT030 BKN070 OVC120=
201312241938 TAF AMD KCLM 241938Z 2420/2518 25007KT P6SM BKN035 FM251000 VRB03KT
                       P6SM VCFG SCT002 BKN150
                      TEMPO 2512/2516 2SM BR BKN002=
201312241720 TAF KCLM 241720Z 2418/2518 24010KT P6SM SCT200 FM242200 VRB03KT
                       P6SM BKN200 FM251000 VRB03KT P6SM VCFG SCT002
                       BKN150
                      TEMPO 2512/2516 2SM BR BKN002=
201312241136 TAF KCLM 241136Z 2412/2512 24008KT P6SM SCT040 BKN200 FM241900
                       00000KT P6SM SKC=
201312240538 TAF KCLM 240538Z 2406/2506 28008KT P6SM SCT040 FM241600 00000KT
                       P6SM SCT040=
201312232320 TAF KCLM 232320Z 2400/2424 28012G22KT P6SM SCT040 FM240600 28008KT
                       P6SM SCT040 FM241400 00000KT P6SM BKN010=
201312231929 TAF KCLM 231929Z 2319/2418 29015G25KT P6SM VCSH SCT020 BKN040 FM240300
                       28010KT P6SM SCT040 FM241000 00000KT P6SM
                       BKN010=
201312231928 TAF AMD KCLM 231928Z 2319/2418 27015G25KT P6SM VCSH SCT020 BKN040
                       FM240300 28010KT P6SM SCT040 FM241000 00000KT
                       P6SM BKN010=
201312231724 TAF KCLM 231724Z 2318/2418 27008KT P6SM SCT020 BKN040 FM241000
                       00000KT P6SM BKN010=
201312231139 TAF KCLM 231139Z 2312/2412 VRB03KT P6SM -RA SCT015 OVC050 FM231400
                       VRB03KT P6SM -RA BKN015 OVC040 FM231700
                       26012G18KT P6SM SCT020 BKN035 BKN050 FM232300
                       26008KT P6SM SCT025 BKN040=
201312230540 TAF KCLM 230540Z 2306/2406 VRB04KT 3SM -RA BR BKN002 OVC006 FM230900
                       VRB03KT P6SM -RA SCT006 BKN015 OVC025 FM231500
                       26012G18KT P6SM SCT020 BKN035 BKN050 FM232300
                       26010KT P6SM SCT025 BKN040=
201312222321 TAF KCLM 222321Z 2300/2324 VRB03KT 2SM -RA BR BKN005 OVC012
                      TEMPO 2300/2304 1/4SM FG VV002 FM230400 VRB04KT
                       3SM -RA BR SCT010 OVC012 FM231500 26010KT
                       4SM -SHRA SCT010 OVC020=
201312221903 TAF AMD KCLM 221903Z 2219/2318 VRB03KT 2SM BR BKN005 OVC012
                      TEMPO 2219/2222 1/4SM FG OVC003 FM222200
                       VRB03KT P6SM SCT015 OVC020 FM230700 11006KT
                       P6SM -RA SCT012 OVC020=
201312221722 TAF KCLM 221722Z 2218/2318 VRB03KT 4SM BR SCT005 BKN012 OVC020
                       TEMPO 2218/2220 3SM BR BKN005 FM222200 VRB03KT
                       P6SM SCT015 OVC020 FM230700 11006KT P6SM
                       -RA SCT012 OVC020=
201312221404 TAF AMD KCLM 221404Z 2214/2312 00000KT P6SM SCT002 BKN030 OVC040
                       TEMPO 2214/2216 3SM -DZ BR BKN002 OVC012
                       FM221600 VRB03KT 3SM BR SCT008 OVC015 FM222200
                       VRB03KT P6SM SCT015 OVC025 FM230700 11006KT
                       P6SM -RA SCT012 OVC020=
201312221140 TAF KCLM 221140Z 2212/2312 VRB03KT P6SM SCT008 BKN025 OVC040
                      TEMPO 2212/2216 3SM -RA BKN008 OVC015 FM221600
                       VRB03KT 3SM BR SCT008 OVC015 FM222200 VRB03KT
                       P6SM SCT015 OVC025 FM230700 11006KT P6SM
                       -RA SCT012 OVC020=
201312220538 TAF KCLM 220538Z 2206/2306 VRB03KT 4SM -RA SCT025 OVC040 FM220900
                       VRB03KT 3SM -RA SCT004 OVC008 FM221800 VRB03KT
                       3SM BR SCT008 OVC012=
201312220010 TAF AMD KCLM 220010Z 2200/2224 VRB04KT P6SM -RA SCT005 OVC012
                      TEMPO 2200/2203 2SM -RA BR BKN005 FM220300
                       VRB03KT 2SM -RA SCT004 OVC008 FM221800 VRB03KT
                       3SM BR SCT008 OVC012=
201312212320 TAF KCLM 212320Z 2200/2224 VRB04KT P6SM SCT005 OVC020
                      TEMPO 2200/2203 2SM BR BKN005 FM220300 VRB03KT
                       2SM -RA SCT004 OVC008 FM221800 VRB03KT 3SM
                       BR SCT008 OVC012=
201312211720 TAF KCLM 211720Z 2118/2218 12005KT P6SM SCT005 BKN015 OVC025
                      TEMPO 2118/2121 BKN003 FM220300 VRB03KT 4SM
                       -RA SCT004 OVC008=
201312211310 TAF AMD KCLM 211310Z 2113/2212 11004KT 5SM BR OVC005
                      TEMPO 2113/2117 2SM BR OVC003 FM211800 VRB03KT
                       P6SM SCT008 BKN015 OVC025 FM220300 VRB03KT
                       4SM -RA SCT004 OVC008=
201312211139 TAF KCLM 211139Z 2112/2212 11004KT P6SM OVC004 FM211800 VRB03KT
                       P6SM SCT008 BKN015 OVC025 FM220300 VRB03KT
                       4SM -RA SCT004 OVC008=
201312210528 TAF KCLM 210528Z 2106/2206 VRB03KT 2SM BR OVC002 FM211200 VRB03KT
                       4SM BR SCT004 OVC008 FM211800 27006KT P6SM
                       SCT008 BKN015 OVC025=
201312210150 TAF AMD KCLM 210150Z 2102/2124 00000KT 4SM BR VCSH OVC007 FM210400
                       27010KT 2SM BR OVC005 FM211500 27006KT P6SM
                       SCT015 OVC020=
201312210035 TAF AMD KCLM 210035Z 2101/2124 27008KT 2SM BR VCSH BKN007 OVC012
                       FM210200 27012G20KT 2SM BR VCSH BKN005 OVC010
                       FM210700 27010KT 2SM BR OVC005 FM211500
                       27006KT P6SM SCT015 OVC020=
201312202339 TAF KCLM 202339Z 2100/2124 27008KT P6SM VCSH SCT004 OVC012 FM210200
                       27012G20KT P6SM VCSH SCT004 OVC010 FM210700
                       27010KT 2SM BR OVC005 FM211500 27006KT P6SM
                       SCT015 OVC020=
201312201721 TAF KCLM 201721Z 2018/2118 27004KT P6SM -RA SCT003 OVC015
                      TEMPO 2018/2020 BKN003 FM210200 27012G20KT
                       P6SM VCSH OVC015=
201312201135 TAF KCLM 201135Z 2012/2112 15003KT 3SM -SN OVC022
                      TEMPO 2012/2016 1SM -SN VV006 FM201600 27004KT
                       P6SM -RA OVC015 FM210200 27012G20KT P6SM
                       VCSH OVC015=
201312200900 TAF AMD KCLM 200900Z 2009/2106 15003KT P6SM OVC060 FM201000 24003KT
                       6SM -SN OVC030
                      TEMPO 2010/2013 2SM -SN OVC006 FM201300 25003KT
                       P6SM -RASN OVC025 FM201400 25006KT P6SM
                       -SHRA OVC035=
201312200520 TAF KCLM 200520Z 2006/2106 00000KT P6SM OVC070 FM200700 24003KT
                       6SM -SN OVC030
                      TEMPO 2007/2011 2SM -SN OVC006 FM201200 25003KT
                       P6SM -RASN OVC025 FM201300 25006KT P6SM
                       -SHRA OVC035=
201312192323 TAF KCLM 192323Z 2000/2024 13003KT P6SM OVC100 FM200400 12005KT
                       P6SM OVC035 FM200600 VRB04KT 6SM -SN OVC015
                       TEMPO 2006/2009 2SM -SN OVC006 FM201200
                       25003KT P6SM -RASN OVC025 FM201300 25006KT
                       P6SM -SHRA OVC035=
201312191746 TAF KCLM 191746Z 1918/2018 13003KT P6SM SKC FM192200 VRB05KT P6SM
                       OVC100 FM200200 12005KT P6SM OVC035 FM200600
                       VRB04KT 6SM -SN OVC015 FM201200 25003KT
                       P6SM -RASN OVC025 FM201300 25006KT P6SM
                       -SHRA OVC035=
201312191135 TAF KCLM 191135Z 1912/2012 14007KT P6SM BKN050
                      TEMPO 1914/1918 SCT050 FM191800 13003KT P6SM
                       SKC FM192200 VRB05KT P6SM OVC100 FM200200
                       16005KT P6SM OVC035 FM200600 16012KT 6SM
                       -SN OVC015 FM201000 25003KT P6SM -RA OVC025=
201312190530 TAF KCLM 190530Z 1906/2006 33004KT P6SM SCT020 OVC030 FM191500
                       03006KT P6SM SCT030 FM191800 23003KT P6SM
                       SKC FM200300 13003KT P6SM OVC040=
201312182328 TAF KCLM 182328Z 1900/1924 29010KT P6SM SCT020 BKN050 FM191200
                       03006KT P6SM SCT020 FM192200 VRB04KT P6SM
                       SCT120 OVC200=
201312182034 TAF AMD KCLM 182034Z 1821/1918 29014G22KT P6SM SCT020 BKN050 FM190300
                       VRB04KT P6SM OVC018 FM191400 03006KT P6SM
                       SCT020=
201312181720 TAF KCLM 181720Z 1818/1918 30010KT P6SM SCT020 BKN050 FM182000
                       20007KT P6SM SCT020 BKN050 FM190300 03006KT
                       P6SM OVC018 FM191600 03006KT P6SM SCT020=
201312181130 TAF KCLM 181130Z 1812/1912 26010KT P6SM SCT015 OVC100
                      TEMPO 1814/1818 BKN015 FM181800 26008KT P6SM
                       SCT020 BKN050 FM190300 03006KT P6SM OVC018=
201312180905 TAF AMD KCLM 180905Z 1809/1906 25011KT P6SM SCT100
                      TEMPO 1812/1816 OVC004 FM181800 26008KT P6SM
                       SCT015 BKN050 FM190300 03006KT P6SM BKN018
                       OVC030=
201312180535 TAF KCLM 180535Z 1806/1906 26007KT P6SM SKC FM180900 26007KT P6SM
                       OVC004 FM181800 26008KT P6SM SCT015 BKN050
                       FM190300 03006KT P6SM BKN018 OVC030=
201312172336 TAF KCLM 172336Z 1800/1824 00000KT P6SM SCT009
                      TEMPO 1800/1803 4SM BR OVC009 FM180300 27005KT
                       5SM BR OVC009 FM181000 27010KT P6SM OVC018
                       FM181200 27011KT P6SM BKN035=
201312171758 TAF KCLM 171758Z 1718/1818 24006KT P6SM OVC060 FM172000 00000KT
                       P6SM OVC025
                      TEMPO 1720/1724 5SM -RA BR FM180000 00000KT
                       P6SM VCSH OVC015 FM181000 27008KT P6SM OVC025
                       FM181200 27011KT P6SM BKN035=
201312171511 TAF AMD KCLM 171511Z 1715/1812 VRB03KT P6SM SCT010 BKN060 FM171700
                       24006KT P6SM OVC045 FM172000 00000KT P6SM
                       OVC025
                      TEMPO 1720/1724 5SM -RA BR FM180000 00000KT
                       P6SM VCSH OVC015=
201312171135 TAF KCLM 171135Z 1712/1812 VRB03KT P6SM OVC009 FM171700 24006KT
                       P6SM SCT011 OVC080 FM172000 00000KT P6SM
                       OVC025
                      TEMPO 1720/1724 5SM -RA BR FM180000 00000KT
                       P6SM VCSH OVC015=
201312170530 TAF KCLM 170530Z 1706/1806 23003KT P6SM BKN010 FM170900 22004KT
                       5SM BR BKN006 FM171700 24006KT P6SM SCT011
                       OVC080 FM172200 24006KT P6SM OVC050=
201312162332 TAF KCLM 162332Z 1700/1724 VRB03KT P6SM SCT040 BKN120 FM170900
                       22004KT 5SM BR BKN006 FM171300 24006KT P6SM
                       SCT011 OVC080 FM171700 24006KT P6SM -SHRA
                       OVC050=
201312161739 TAF KCLM 161739Z 1618/1718 25008KT P6SM SCT035 BKN150
                      TEMPO 1618/1620 BKN035 FM162000 VRB03KT P6SM
                       SCT040 BKN120 FM171000 22004KT 5SM BR BKN006
                       FM171400 24006KT P6SM SCT020 OVC080 FM171500
                       24006KT P6SM -RA OVC050=
201312161419 TAF AMD KCLM 161419Z 1614/1712 25008KT P6SM SCT050 BKN150 FM162000
                       VRB03KT P6SM SCT040 BKN070=
201312161123 TAF KCLM 161123Z 1612/1712 25008KT P6SM FEW007 SCT040
                      TEMPO 1613/1615 BKN007 BKN040 FM161500 24003KT
                       P6SM BKN007 BKN015 FM162000 VRB03KT P6SM
                       SCT040 BKN070=
201312161006 TAF AMD KCLM 161006Z 1610/1706 28004KT P6SM SCT007 SCT040
                      TEMPO 1610/1613 BKN007 BKN040 FM161300 24003KT
                       4SM BR BKN007 BKN015 FM161900 VRB03KT P6SM
                       SCT040 BKN070=
201312160525 TAF KCLM 160525Z 1606/1706 28004KT P6SM FEW015 SCT040
                      TEMPO 1606/1609 BKN015 BKN040 FM160900 24003KT
                       P6SM SCT005 BKN015 FM161900 VRB03KT P6SM
                       SCT040 BKN070=
201312160213 TAF AMD KCLM 160213Z 1602/1624 27007KT P6SM FEW015 BKN035 OVC200
                       FM160700 VRB03KT P6SM SCT005 BKN015=
201312160102 TAF AMD KCLM 160102Z 1601/1624 27007KT P6SM SCT015 SCT035
                      TEMPO 1603/1607 BKN015 BKN035 FM160700 VRB03KT
                       P6SM SCT005 BKN015=
201312152320 TAF KCLM 152320Z 1600/1624 30007KT P6SM SCT004 BKN025
                      TEMPO 1600/1604 BKN004 BKN020 FM160800 VRB03KT
                       P6SM BKN005 OVC012 FM161700 VRB03KT P6SM
                       SCT005 BKN015=
201312152238 TAF AMD KCLM 152238Z 1523/1618 30010KT P6SM SCT005 BKN020
                      TEMPO 1523/1603 BKN005 BKN020 FM160800 VRB03KT
                       P6SM SCT005 OVC012 FM161700 VRB03KT P6SM
                       BKN015=
201312152232 TAF AMD KCLM 152232Z 1523/1618 30010KT P6SM BKN020
                      TEMPO 1523/1603 SCT025 FM160800 VRB03KT P6SM
                       OVC012 FM161700 VRB03KT P6SM BKN015=
201312151913 TAF AMD KCLM 151913Z 1519/1618 00000KT P6SM SCT012 BKN050
                      TEMPO 1519/1522 BKN012 BKN050 FM152200 27007KT
                       P6SM SCT015 BKN040 FM160800 VRB03KT P6SM
                       OVC012=
201312151800 TAF KCLM 151800Z 1518/1618 00000KT P6SM BKN040 FM152200 27007KT
                       P6SM BKN030 FM160800 VRB03KT P6SM OVC015=
201312151132 TAF KCLM 151132Z 1512/1612 22003KT P6SM FEW004 OVC060
                      TEMPO 1512/1516 3SM BR OVC004 FM151600 VRB03KT
                       P6SM SCT005 OVC015=
201312150525 TAF KCLM 150525Z 1506/1606 24004KT 5SM BR OVC003 FM150800 26006KT
                       5SM -DZ BR BKN004 OVC015 FM151500 VRB04KT
                       P6SM SCT005 OVC015=
201312150425 TAF AMD KCLM 150425Z 1504/1524 25004KT P6SM SCT003 OVC060
                      TEMPO 1504/1508 BKN003 FM150800 26006KT 5SM
                       -DZ BR BKN004 OVC015 FM151500 VRB04KT P6SM
                       SCT005 OVC015=
201312150402 TAF AMD KCLM 150402Z 1504/1524 26003KT P6SM OVC060 FM150800 26006KT
                       5SM -DZ BR BKN004 OVC015 FM151500 VRB04KT
                       P6SM SCT005 OVC015=
201312150209 TAF AMD KCLM 150209Z 1502/1524 VRB03KT P6SM SCT004 OVC050
                      TEMPO 1502/1504 4SM -RA BR BKN004 OVC020
                       FM150400 VRB04KT P6SM BKN004 OVC015 FM150800
                       26006KT 5SM -DZ BR BKN004 OVC015 FM151500
                       VRB04KT P6SM SCT005 OVC015=
201312150118 TAF AMD KCLM 150118Z 1501/1524 VRB03KT P6SM FEW004 OVC050 FM150400
                       VRB04KT P6SM BKN004 OVC015 FM150800 26006KT
                       5SM -DZ BR BKN004 OVC015 FM151500 VRB04KT
                       P6SM SCT005 OVC015=
201312142340 TAF AMD KCLM 142340Z 1500/1524 09004KT P6SM BKN005 OVC015
                      TEMPO 1500/1504 SCT005 OVC015 FM150400 VRB04KT
                       P6SM BKN004 OVC015 FM150800 26006KT 5SM
                       -DZ BR BKN004 OVC015 FM151500 VRB04KT P6SM
                       SCT005 OVC015=
201312142320 TAF KCLM 142320Z 1500/1524 09004KT P6SM SCT005 OVC015 FM150300
                       VRB04KT P6SM BKN015 OVC040 FM150800 26006KT
                       5SM -DZ BR OVC015 FM151500 VRB04KT P6SM
                       OVC015=
201312141720 TAF KCLM 141720Z 1418/1518 VRB04KT P6SM SCT015 OVC070
                      TEMPO 1418/1422 5SM -RA BR BKN015 OVC040
                       FM142200 VRB04KT 5SM -RA BR BKN015 OVC030
                       FM150600 28006KT 5SM -RA BR OVC015 FM151500
                       28006KT P6SM OVC020=
201312141447 TAF AMD KCLM 141447Z 1415/1512 29005KT P6SM SCT004 OVC030
                      TEMPO 1415/1419 BKN004 OVC025 FM141900 VRB04KT
                       P6SM SCT030 BKN080 FM150500 VRB04KT P6SM
                       -RA OVC020=
201312141120 TAF KCLM 141120Z 1412/1512 11005KT P6SM FEW020
                      TEMPO 1412/1416 BKN020 FM142000 VRB03KT P6SM
                       SCT030 BKN080 FM150500 24003KT P6SM OVC020=
201312140728 TAF AMD KCLM 140728Z 1407/1506 26003KT P6SM SCT003 SCT025 OVC100
                       TEMPO 1407/1410 BKN003 OVC025 FM141000 23003KT
                       P6SM OVC025 FM142000 VRB03KT P6SM SCT030
                       OVC080 FM150500 24003KT P6SM OVC020=
201312140525 TAF KCLM 140525Z 1406/1506 26003KT P6SM SCT025 OVC100
                      TEMPO 1406/1409 OVC025 FM140900 23003KT P6SM
                       OVC025 FM142000 VRB03KT P6SM SCT030 OVC080
                       FM150500 24003KT P6SM OVC020=
201312132320 TAF KCLM 132320Z 1400/1424 VRB04KT P6SM SCT010 OVC030=
201312131720 TAF KCLM 131720Z 1318/1418 00000KT P6SM SCT010 BKN040
                      TEMPO 1318/1322 BKN010 FM132200 VRB03KT P6SM
                       BKN015 OVC070=
201312131305 TAF AMD KCLM 131305Z 1313/1412 22003KT P6SM SCT007 BKN014 OVC060
                       TEMPO 1313/1317 OVC007 FM131800 VRB03KT
                       P6SM BKN020 OVC060 FM132000 VRB03KT P6SM
                       BKN015 OVC070=
201312131218 TAF AMD KCLM 131218Z 1312/1412 22003KT P6SM SCT007 OVC060
                      TEMPO 1312/1314 OVC007 FM131400 00000KT P6SM
                       BKN008 OVC060 FM132000 VRB03KT P6SM BKN015
                       OVC070=
201312131121 TAF KCLM 131121Z 1312/1412 22004KT P6SM OVC007 FM132000 VRB03KT
                       P6SM BKN015 OVC030=
201312130524 TAF KCLM 130524Z 1306/1406 00000KT P6SM SCT010 BKN070
                      TEMPO 1306/1310 4SM -SHRA BR OVC010 FM131000
                       VRB03KT P6SM OVC010 FM132000 VRB03KT P6SM
                       BKN015 OVC030=
201312130147 TAF AMD KCLM 130147Z 1302/1324 VRB03KT P6SM SCT012 OVC050 FM130900
                       VRB03KT P6SM -SHRA OVC010 FM131800 26004KT
                       P6SM BKN020 OVC030=
201312122329 TAF KCLM 122329Z 1300/1324 VRB03KT P6SM -SHRA BKN012 OVC035 FM130900
                       VRB03KT P6SM -SHRA OVC010 FM131800 26004KT
                       P6SM BKN020 OVC030=
201312121720 TAF KCLM 121720Z 1218/1318 09005KT P6SM -RA BKN012 OVC050 FM121900
                       VRB04KT P6SM -RA BKN020 OVC030 FM122300
                       VRB03KT P6SM -SHRA BKN025 OVC050=
201312121417 TAF AMD KCLM 121417Z 1214/1312 00000KT P6SM SCT012 BKN100 OVC200
                       TEMPO 1214/1217 BKN012 BKN100 OVC200 FM121700
                       09005KT P6SM -RA SCT030 OVC050 FM121900
                       VRB04KT P6SM -RA BKN020 OVC030 FM122300
                       VRB03KT P6SM -SHRA BKN025 OVC050=
201312121126 TAF KCLM 121126Z 1212/1312 00000KT P6SM SCT010 OVC200
                      TEMPO 1212/1214 BKN010 FM121400 VRB03KT P6SM
                       FEW015 SCT050 OVC100 FM121700 09005KT P6SM
                       -RA SCT030 OVC050 FM121900 VRB04KT P6SM
                       -RA BKN020 OVC030 FM122300 VRB03KT P6SM
                       -SHRA BKN025 OVC050=
201312120534 TAF KCLM 120534Z 1206/1306 22004KT P6SM OVC015 FM121300 VRB03KT
                       P6SM SCT015 BKN050 OVC100 FM121700 09005KT
                       P6SM -RA BKN030 OVC050 FM121900 VRB04KT
                       P6SM -RA BKN020 OVC030 FM122300 VRB03KT
                       P6SM -SHRA BKN025 OVC050=
201312120226 TAF AMD KCLM 120226Z 1202/1224 23005KT P6SM SCT015 OVC200
                      TEMPO 1202/1206 BKN015 OVC200 FM120600 09006KT
                       P6SM SCT050 BKN100 FM121000 09006KT P6SM
                       BKN050 OVC100 FM121500 VRB03KT P6SM -RA
                       BKN030 OVC050=
201312120135 TAF KCLM 120135Z 1202/1224 VRB03KT P6SM SCT100 OVC200 FM120600
                       09006KT P6SM SCT050 BKN100 FM121000 09006KT
                       P6SM BKN050 OVC100 FM121500 VRB03KT P6SM
                       -RA BKN030 OVC050=
201312120132 TAF AMD KCLM 120132Z 1202/1224 09004KT P6SM BKN100 BKN150 FM120600
                       09006KT P6SM SCT050 BKN100 FM121000 09006KT
                       P6SM BKN050 OVC100 FM121500 VRB03KT P6SM
                       -RA BKN030 OVC050 AMD NOT SKED=
201312112320 TAF KCLM 112320Z 1200/1224 09004KT P6SM BKN100 BKN150 FM120600
                       09006KT P6SM SCT050 BKN100 FM121000 09006KT
                       P6SM BKN050 OVC100 FM121500 VRB03KT P6SM
                       -RA BKN030 OVC050=
201312111722 TAF KCLM 111722Z 1118/1218 24004KT P6SM BKN013 FM111900 09004KT
                       P6SM SCT020 BKN150 BKN200 FM120300 09006KT
                       P6SM SCT050 BKN200 FM121000 09006KT P6SM
                       BKN050 OVC150=
201312111415 TAF AMD KCLM 111415Z 1114/1212 24006KT P6SM BKN009 BKN200
                      TEMPO 1114/1117 SCT010 BKN200 FM111700 09004KT
                       P6SM SCT020 BKN120 FM120300 09006KT P6SM
                       SCT050 BKN200 FM121000 09006KT P6SM BKN050
                       OVC150=
201312111120 TAF KCLM 111120Z 1112/1212 VRB03KT P6SM BKN015 BKN200
                      TEMPO 1114/1117 SCT020 BKN200 FM111700 09004KT
                       P6SM SCT020 BKN120 FM120300 09006KT P6SM
                       SCT050 BKN200 FM121000 09006KT P6SM BKN050
                       OVC150=
201312110521 TAF KCLM 110521Z 1106/1206 VRB03KT P6SM OVC010 FM111800 VRB03KT
                       P6SM SCT015 BKN120=
201312102329 TAF KCLM 102329Z 1100/1124 09005KT P6SM SCT012 OVC022
                      TEMPO 1100/1104 OVC012 FM110400 09005KT P6SM
                       OVC012 FM111000 04005KT 6SM BR OVC012
                      TEMPO 1111/1115 4SM BR BKN008 FM111800 22005KT
                       P6SM SCT022 BKN035 FM112200 22005KT P6SM
                       SCT025 SCT045=
201312101739 TAF KCLM 101739Z 1018/1118 VRB04KT P6SM BKN025 OVC045 FM102100
                       VRB03KT P6SM SCT025 BKN045 FM110400 09005KT
                       P6SM SCT040 BKN200 FM111000 04005KT P6SM
                       SCT030 BKN150
                      TEMPO 1111/1115 4SM BR BKN011=
201312101120 TAF KCLM 101120Z 1012/1112 VRB04KT P6SM BKN030 OVC040 FM110400
                       09005KT P6SM SCT040 BKN200 FM111100 04005KT
                       P6SM SCT030 BKN150=
201312100709 TAF AMD KCLM 100709Z 1007/1106 VRB04KT P6SM SCT020 BKN040
                      TEMPO 1008/1012 BKN020 BKN040 FM110400 09005KT
                       P6SM SCT040=
201312100520 TAF KCLM 100520Z 1006/1106 VRB04KT P6SM OVC020 FM101500 30005KT
                       P6SM BKN030 FM110400 09005KT P6SM SCT040=
201312100401 TAF AMD KCLM 100401Z 1004/1024 VRB04KT P6SM SCT015 OVC040 FM101000
                       VRB04KT 6SM -SHRASN SCT015 OVC030 FM101500
                       30005KT P6SM BKN030=
201312092329 TAF KCLM 092329Z 1000/1024 28006KT P6SM OVC028 FM100200 30006KT
                       6SM -SHSN OVC015 FM101200 VRB04KT 6SM -SHRASN
                       OVC022 FM101500 30005KT P6SM BKN030=
201312091747 TAF KCLM 091747Z 0918/1018 VRB03KT P6SM VCSH OVC035 FM092100 28006KT
                       5SM -SHSN OVC025 FM100200 30006KT 6SM -RASN
                       OVC025 FM101200 VRB04KT 6SM -DZ OVC025=
201312091120 TAF KCLM 091120Z 0912/1012 09006KT P6SM OVC030 FM091700 28006KT
                       P6SM -SHSN OVC025 FM092200 28008KT 5SM -RASN
                       OVC015=
201312090600 TAF AMD KCLM 090600Z 0906/1006 00000KT P6SM BKN035 FM091200 09006KT
                       P6SM OVC030 FM091700 28006KT P6SM -SHSN
                       OVC025 FM092200 28008KT 5SM -RASN OVC015=
201312090520 TAF KCLM 090520Z 0906/1006 00000KT P6SM SCT030 FM090800 09005KT
                       P6SM SCT030
                      TEMPO 0908/0912 BKN030 FM091200 09006KT P6SM
                       BKN030 FM091700 28006KT P6SM -SHSN OVC025
                       FM092200 28008KT 5SM -RASN OVC015=
201312082343 TAF KCLM 082343Z 0900/0924 VRB03KT P6SM SKC FM090600 VRB03KT P6SM
                       FEW040 SCT100 FM090900 VRB03KT P6SM BKN040
                       BKN100 FM091400 VRB03KT P6SM SCT015 OVC030
                       FM091800 VRB03KT P6SM OVC015
                      PROB30 0918/0924 6SM -SN=
201312082032 TAF AMD KCLM 082032Z 0821/0918 VRB03KT P6SM SCT050 FM090800 VRB03KT
                       P6SM BKN050 BKN150 FM091200 VRB03KT P6SM
                       SCT025 OVC050
                      PROB30 0914/0918 -SN BKN025 OVC050=
201312081746 TAF KCLM 081746Z 0818/0918 VRB03KT P6SM OVC040 FM090200 VRB03KT
                       P6SM SCT050 SCT100 FM090800 VRB03KT P6SM
                       BKN050 BKN150 FM091200 VRB03KT P6SM SCT025
                       OVC050
                      PROB30 0914/0918 -SN BKN025 OVC050=
201312081635 TAF AMD KCLM 081635Z 0817/0912 VRB03KT P6SM OVC040 FM090500 24005KT
                       P6SM BKN025=
201312081120 TAF KCLM 081120Z 0812/0912 VRB03KT P6SM SCT120 BKN200 FM090500
                       24005KT P6SM BKN025=
201312080525 TAF KCLM 080525Z 0806/0906 VRB04KT P6SM SCT250 FM082000 18006KT
                       P6SM BKN150=
201312072330 TAF KCLM 072330Z 0800/0824 23005KT P6SM FEW200 FM080900 23005KT
                       P6SM SCT070 SCT110 BKN200 FM081300 VRB03KT
                       P6SM FEW028 SCT050 OVC110
                      PROB30 0813/0819 5SM -SN BKN028 OVC050 FM082100
                       VRB03KT P6SM SCT050 SCT110 BKN200=
201312071808 TAF AMD KCLM 071808Z 0718/0818 24010KT P6SM SKC FM072000 10007KT
                       P6SM SKC FM080100 VRB04KT P6SM FEW200=
201312071737 TAF KCLM 071737Z 0718/0818 22007KT P6SM SKC FM072000 10007KT P6SM
                       SKC FM080100 VRB04KT P6SM FEW200=
201312071607 TAF AMD KCLM 071607Z 0716/0812 24007KT P6SM BKN040 FM071800 VRB05KT
                       P6SM SCT040 FM072000 10007KT P6SM SCT040
                       FM080100 VRB03KT P6SM SKC=
201312071120 TAF KCLM 071120Z 0712/0812 04010G20KT P6SM BKN045 FM071800 07010KT
                       P6SM SCT050=
201312070520 TAF KCLM 070520Z 0706/0806 07012G20KT P6SM BKN060 FM071800 07010KT
                       P6SM SKC=
201312062321 TAF KCLM 062321Z 0700/0724 07010KT P6SM OVC050 FM070300 VRB05KT
                       P6SM SCT050
                      TEMPO 0703/0705 BKN050 FM070900 23009KT P6SM
                       SKC FM071800 10005KT P6SM SKC AMD NOT SKED=
201312061745 TAF KCLM 061745Z 0618/0718 10006KT P6SM OVC035 FM062100 06010KT
                       P6SM OVC035 FM070300 VRB05KT P6SM SCT035
                       FM070900 23009KT P6SM SKC AMD NOT SKED=
201312061517 TAF AMD KCLM 061517Z 0615/0712 07007KT P6SM OVC035 FM061600 10008KT
                       P6SM SCT250 FM070400 16010KT P6SM SKC AMD
                       NOT SKED=
201312061120 TAF KCLM 061120Z 0612/0712 09005KT P6SM BKN100 FM061600 10008KT
                       P6SM SCT250 FM070400 16010KT P6SM SKC=
201312060611 TAF AMD KCLM 060611Z 0606/0706 09005KT P6SM BKN250 FM061600 10008KT
                       P6SM SKC=
201312052339 TAF KCLM 052339Z 0600/0624 10006KT P6SM SCT030 OVC050
                      TEMPO 0600/0604 2SM -SN BR OVC030 FM060400
                       09005KT P6SM BKN250 FM061600 10008KT P6SM
                       SKC=
201312051734 TAF KCLM 051734Z 0518/0618 07005KT P6SM OVC060 FM060100 21005KT
                       P6SM OVC100 FM061400 21006KT P6SM BKN250=
201312051120 TAF KCLM 051120Z 0512/0612 VRB03KT P6SM FEW250 FM051400 09003KT
                       P6SM SCT080 OVC200 FM052100 15004KT P6SM
                       OVC080=
201312050520 TAF KCLM 050520Z 0506/0606 00000KT P6SM SKC FM051400 09003KT P6SM
                       BKN080 OVC200 FM052100 13004KT P6SM OVC080=
201312042325 TAF KCLM 042325Z 0500/0524 00000KT P6SM SKC FM051400 09003KT P6SM
                       BKN080 OVC200=
201312041720 TAF KCLM 041720Z 0418/0518 07005KT P6SM SKC=
201312041120 TAF KCLM 041120Z 0412/0512 11008KT P6SM SKC FM050400 21005KT P6SM
                       SCT250=
201312040520 TAF KCLM 040520Z 0406/0506 09008KT P6SM SKC=
201312032323 TAF KCLM 032323Z 0400/0424 09008KT P6SM SKC=
201312031725 TAF KCLM 031725Z 0318/0418 VRB03KT P6SM SKC=
201312031120 TAF KCLM 031120Z 0312/0412 VRB04KT P6SM SKC FM032000 10007KT P6SM
                       SKC FM040600 22008KT P6SM SKC=
201312030520 TAF KCLM 030520Z 0306/0406 07005KT P6SM SCT020 OVC035 FM030800
                       05007KT P6SM BKN250 FM031200 04007KT P6SM
                       SKC=
201312022328 TAF KCLM 022328Z 0300/0324 30009KT P6SM FEW030 BKN050 FM030200
                       07005KT P6SM VCSH OVC030 FM030800 05007KT
                       P6SM BKN250=
201312021732 TAF KCLM 021732Z 0218/0318 25010KT P6SM VCSH FEW110 FM022200 04007KT
                       P6SM BKN050=
201312021148 TAF KCLM 021148Z 0212/0312 26011G20KT P6SM VCSH SCT030 BKN050
                      TEMPO 0212/0216 -SHRA SCT018 BKN030 FM021600
                       29006KT P6SM SCT050 FM022200 03009G18KT
                       6SM -SHSNRA BR SCT012 BKN025 FM030500 09005KT
                       P6SM VCSH SCT020=
201312020551 TAF KCLM 020551Z 0206/0306 27015G25KT P6SM -SHRA SCT025 BKN035
                       FM021000 26012G20KT P6SM VCSH SCT030 BKN050
                       FM021600 29006KT P6SM SCT050 FM022200 04012G22KT
                       P6SM -SHSN SCT012 BKN030=
201312012321 TAF KCLM 012321Z 0200/0224 27012KT P6SM VCSH SCT025 BKN050 FM020500
                       27012G22KT P6SM VCSH BKN025 BKN050 FM022200
                       04012G22KT P6SM -SHSN BKN040=
201312012121 TAF AMD KCLM 012121Z 0121/0218 27012KT P6SM -SHRA SCT020 OVC035
                       FM020500 27012G22KT P6SM VCSH BKN030 BKN060=
201312011720 TAF KCLM 011720Z 0118/0218 29012G22KT P6SM SCT030 OVC050
                      TEMPO 0118/0122 -SHRA BKN030 OVC050 FM020000
                       27012KT P6SM -SHRA SCT020 OVC035 FM020500
                       27012G22KT P6SM VCSH BKN030 BKN060=
201312011605 TAF AMD KCLM 011605Z 0116/0212 29015G25KT P6SM SCT030 BKN050 FM012000
                       27012G22KT P6SM SCT030 OVC050 FM020000 27012KT
                       P6SM -SHRA SCT020 OVC035 FM020500 27012G22KT
                       P6SM VCSH BKN030 BKN060=
201312011149 TAF KCLM 011149Z 0112/0212 VRB03KT 4SM BR SCT002 OVC050
                      TEMPO 0112/0116 3/4SM BR BKN002 OVC050 FM011800
                       27012G18KT P6SM SCT030 OVC050 FM020000 27012KT
                       P6SM -RA SCT020 OVC035=
201312010540 TAF KCLM 010540Z 0106/0206 VRB03KT P6SM -RA OVC040 FM011000 VRB03KT
                       P6SM -RA SCT004 OVC022 FM011400 27010KT
                       P6SM -RA OVC015 FM011800 27016G24KT P6SM
                       -RA SCT018 OVC035=