##########################################################
# Query made at 02/16/2025 02:23:29 UTC
# Time interval: from 01/01/2013 00:00  to 01/31/2013 23:59  UTC
##########################################################

##########################################################
# KCLM, Port Angeles, William R. Fairchild International Airport (United States)
# WMO index: -----. WIGOS ID: Unknown
# Latitude 48-07-20N. Longitude 123-30-19W. Altitude 87 m.
##########################################################

###################################
#  METAR/SPECI from KCLM
###################################
201301312353 METAR KCLM 312353Z AUTO 00000KT 10SM SCT009 OVC013 10/07 A3028 RMK AO2 SLP256 T01000067 10106 20083 51001=
201301312323 SPECI KCLM 312323Z AUTO 00000KT 10SM SCT007 OVC013 10/07 A3028 RMK AO2 T01000072=
201301312253 METAR KCLM 312253Z AUTO 00000KT 10SM OVC013 09/07 A3028 RMK AO2 SLP256 T00890072=
201301312248 SPECI KCLM 312248Z AUTO 00000KT 10SM FEW008 OVC015 09/07 A3028 RMK AO2=
201301312207 SPECI KCLM 312207Z AUTO 01003KT 10SM SCT011 OVC016 09/07 A3028 RMK AO2 T00940067=
201301312153 METAR KCLM 312153Z AUTO 01005KT 10SM BKN011 BKN016 OVC060 09/07 A3028 RMK AO2 SLP255 T00940067=
201301312113 SPECI KCLM 312113Z AUTO 36003KT 10SM BKN010 OVC060 10/07 A3028 RMK AO2 T01000072=
201301312101 SPECI KCLM 312101Z AUTO 29005KT 10SM BKN009 OVC060 10/07 A3028 RMK AO2 T01000067=
201301312053 METAR KCLM 312053Z AUTO VRB04KT 10SM BKN011 BKN065 10/07 A3028 RMK AO2 CIG 007V012 SLP253 T01000072 56011=
201301312051 SPECI KCLM 312051Z AUTO VRB04KT 10SM BKN011 BKN065 10/07 A3028 RMK AO2 CIG 007V012=
201301312041 SPECI KCLM 312041Z AUTO 32004KT 10SM BKN009 BKN065 11/08 A3028 RMK AO2 CIG 007V013 T01060078=
201301311953 METAR KCLM 311953Z AUTO 00000KT 10SM SCT008 BKN013 09/07 A3029 RMK AO2 SLP258 T00890067=
201301311946 SPECI KCLM 311946Z AUTO 00000KT 10SM BKN008 BKN012 09/07 A3029 RMK AO2 CIG 005V010 T00890072=
201301311931 SPECI KCLM 311931Z AUTO 34003KT 10SM FEW005 BKN010 OVC080 09/07 A3030 RMK AO2 T00890072=
201301311853 METAR KCLM 311853Z AUTO VRB04KT 10SM BKN055 OVC070 10/08 A3031 RMK AO2 SLP265 T01000078=
201301311753 METAR KCLM 311753Z AUTO 00000KT 10SM OVC070 08/07 A3030 RMK AO2 RAE37 SLP261 P0000 60000 T00830072 10083 20061 58007=
201301311653 METAR KCLM 311653Z AUTO 18003KT 10SM -RA OVC070 07/06 A3031 RMK AO2 RAE1558B15 SLP265 P0000 T00720061=
201301311553 METAR KCLM 311553Z AUTO 00000KT 10SM -RA OVC060 07/06 A3031 RMK AO2 RAB46 SLP266 P0000 T00670056=
201301311453 METAR KCLM 311453Z AUTO 00000KT 10SM SCT060 OVC070 07/06 A3032 RMK AO2 SLP269 T00670056 58010=
201301311353 METAR KCLM 311353Z AUTO 00000KT 10SM BKN060 BKN110 07/06 A3033 RMK AO2 SLP272 T00670056=
201301311253 METAR KCLM 311253Z AUTO VRB03KT 10SM OVC060 08/06 A3035 RMK AO2 SLP278 T00830056=
201301311153 METAR KCLM 311153Z AUTO 11003KT 10SM SCT055 07/06 A3035 RMK AO2 RAE03 SLP279 P0000 60000 T00720056 10094 20072 56005=
201301311053 METAR KCLM 311053Z AUTO 27007KT 10SM -RA OVC060 08/06 A3036 RMK AO2 RAB52 SLP281 P0000 T00830061=
201301310953 METAR KCLM 310953Z AUTO 28008KT 10SM BKN055 08/06 A3035 RMK AO2 SLP279 T00830061=
201301310853 METAR KCLM 310853Z AUTO 25010KT 10SM OVC060 09/07 A3037 RMK AO2 SLP284 60000 T00890067 55000=
201301310753 METAR KCLM 310753Z AUTO 24010KT 10SM BKN038 OVC080 08/07 A3035 RMK AO2 SLP280 T00830067 401000061=
201301310653 METAR KCLM 310653Z AUTO 29005KT 10SM SCT034 BKN041 OVC050 08/07 A3036 RMK AO2 RAE0558 SLP281 P0000 T00780072=
201301310623 SPECI KCLM 310623Z AUTO 30005KT 6SM BR FEW006 SCT027 OVC034 08/07 A3036 RMK AO2 RAE0558 P0000 T00830072=
201301310601 SPECI KCLM 310601Z AUTO 31005KT 6SM BR SCT005 OVC029 08/07 A3037 RMK AO2 RAE0558 P0000 T00830072=
201301310553 METAR KCLM 310553Z AUTO 32004KT 4SM -RA BR BKN005 OVC027 08/07 A3037 RMK AO2 SLP284 P0000 60000 T00830072 10089 20083 53003=
201301310529 SPECI KCLM 310529Z AUTO 31003KT 4SM -RA BR BKN005 OVC024 08/07 A3036 RMK AO2 P0000 T00830072=
201301310519 SPECI KCLM 310519Z AUTO 31003KT 2 1/2SM -RA BR BKN005 OVC022 08/07 A3036 RMK AO2 P0000 T00830072=
201301310453 METAR KCLM 310453Z AUTO 00000KT 2 1/2SM -RA BR OVC004 08/07 A3036 RMK AO2 RAE33B47 SLP283 P0000 T00830072=
201301310445 SPECI KCLM 310445Z AUTO 00000KT 2 1/2SM BR BKN005 OVC025 08/07 A3036 RMK AO2 RAE33 P0000 T00830072=
201301310416 SPECI KCLM 310416Z AUTO 00000KT 3SM -RA BR BKN006 OVC015 08/07 A3036 RMK AO2 P0000 T00830072=
201301310353 METAR KCLM 310353Z AUTO 00000KT 2 1/2SM -RA BR OVC002 08/07 A3036 RMK AO2 RAB01E17B34 SLP283 P0000 T00830072=
201301310344 SPECI KCLM 310344Z AUTO 00000KT 2 1/2SM -RA BR OVC002 08/07 A3036 RMK AO2 RAB01E17B34 P0000 T00830072=
201301310308 SPECI KCLM 310308Z AUTO 00000KT 5SM -RA BR OVC003 08/07 A3036 RMK AO2 RAB01 CIG 002V005 P0000 T00830072=
201301310253 METAR KCLM 310253Z AUTO 00000KT 5SM BR BKN005 OVC011 08/07 A3036 RMK AO2 RAE18 SLP282 P0000 60000 T00830072 58001=
201301310246 SPECI KCLM 310246Z AUTO 00000KT 8SM BKN005 OVC011 08/08 A3036 RMK AO2 RAE18 P0000 T00830078=
201301310223 SPECI KCLM 310223Z AUTO 00000KT 8SM SCT004 OVC011 08/07 A3036 RMK AO2 RAE18 P0000 T00830072=
201301310153 METAR KCLM 310153Z AUTO 00000KT 6SM -RA BR BKN003 OVC010 08/08 A3037 RMK AO2 SLP285 P0000 T00830078=
201301310140 SPECI KCLM 310140Z AUTO 00000KT 8SM -RA BKN004 BKN010 OVC014 08/07 A3037 RMK AO2 P0000 T00830072=
201301310124 SPECI KCLM 310124Z AUTO 00000KT 7SM -RA SCT006 BKN010 OVC019 08/07 A3036 RMK AO2 P0000 T00830072=
201301310053 METAR KCLM 310053Z AUTO 00000KT 9SM -RA OVC006 09/08 A3037 RMK AO2 CIG 003V008 SLP285 P0000 T00890078=
201301310031 SPECI KCLM 310031Z AUTO 00000KT 10SM -RA SCT004 OVC008 09/08 A3037 RMK AO2 CIG 006V011 P0000 T00890078=
201301310024 SPECI KCLM 310024Z AUTO 00000KT 9SM -RA SCT004 OVC010 09/08 A3037 RMK AO2 CIG 008V012 P0000 T00890078=
201301310014 SPECI KCLM 310014Z AUTO 00000KT 9SM -RA OVC010 09/08 A3036 RMK AO2 CIG 007V012 P0000 T00890078=
201301302353 METAR KCLM 302353Z AUTO 00000KT 8SM -RA OVC008 09/08 A3036 RMK AO2 RAB2256 SLP282 P0000 60000 T00890078 10100 20089 55002=
201301302253 METAR KCLM 302253Z AUTO 00000KT 10SM OVC006 09/07 A3036 RMK AO2 SLP283 T00890072=
201301302153 METAR KCLM 302153Z AUTO 29004KT 10SM OVC007 09/07 A3036 RMK AO2 SLP283 T00890072=
201301302053 METAR KCLM 302053Z AUTO 31004KT 10SM OVC009 09/07 A3037 RMK AO2 CIG 007V011 SLP284 T00890072 51005=
201301302032 SPECI KCLM 302032Z AUTO VRB04KT 10SM OVC009 09/07 A3037 RMK AO2 CIG 008V013 T00940072=
201301301953 METAR KCLM 301953Z AUTO 33003KT 10SM FEW009 OVC014 09/07 A3036 RMK AO2 SLP283 T00940067=
201301301924 SPECI KCLM 301924Z AUTO 00000KT 10SM FEW009 OVC016 09/07 A3036 RMK AO2 T00940072=
201301301914 SPECI KCLM 301914Z AUTO 00000KT 10SM SCT010 OVC016 09/07 A3037 RMK AO2 T00940067=
201301301853 METAR KCLM 301853Z AUTO 00000KT 10SM OVC012 09/07 A3036 RMK AO2 SLP283 T00940072=
201301301753 METAR KCLM 301753Z AUTO 15004KT 10SM OVC010 09/07 A3035 RMK AO2 SLP279 60000 T00890067 10089 20061 53009=
201301301653 METAR KCLM 301653Z AUTO 22004KT 10SM OVC010 08/06 A3034 RMK AO2 SLP277 T00780061=
201301301553 METAR KCLM 301553Z AUTO 22004KT 10SM OVC011 07/06 A3033 RMK AO2 CIG 007V014 SLP273 T00720056=
201301301542 SPECI KCLM 301542Z AUTO 25006KT 10SM OVC011 07/06 A3033 RMK AO2 CIG 007V014 T00720056=
201301301453 METAR KCLM 301453Z AUTO 25004KT 10SM BKN008 07/06 A3033 RMK AO2 SLP271 60000 T00720061 51005=
201301301353 METAR KCLM 301353Z AUTO 26003KT 10SM BKN008 OVC016 07/06 A3032 RMK AO2 RAE25 SLP270 P0000 T00720061=
201301301344 SPECI KCLM 301344Z AUTO 27004KT 10SM BKN008 OVC016 07/06 A3032 RMK AO2 RAE25 P0000 T00720056=
201301301330 SPECI KCLM 301330Z AUTO 25004KT 10SM FEW009 BKN016 OVC034 07/06 A3032 RMK AO2 RAE25 P0000 T00720056=
201301301322 SPECI KCLM 301322Z AUTO 22004KT 10SM -RA FEW009 SCT016 OVC034 07/06 A3032 RMK AO2 P0000 T00670056=
201301301253 METAR KCLM 301253Z AUTO 24003KT 10SM -RA FEW012 OVC037 07/05 A3032 RMK AO2 RAB43 SLP270 P0000 T00670050=
201301301153 METAR KCLM 301153Z AUTO 25004KT 10SM SCT039 BKN049 07/05 A3031 RMK AO2 SLP265 60000 T00720050 10078 20067 50003=
201301301053 METAR KCLM 301053Z AUTO 00000KT 10SM BKN035 OVC055 07/06 A3031 RMK AO2 SLP266 T00670056=
201301300953 METAR KCLM 300953Z AUTO 28003KT 10SM FEW013 BKN048 OVC055 07/06 A3031 RMK AO2 SLP266 T00720056=
201301300853 METAR KCLM 300853Z AUTO 16003KT 10SM OVC039 07/06 A3030 RMK AO2 SLP262 60000 T00720061 51005=
201301300753 METAR KCLM 300753Z AUTO 00000KT 10SM OVC040 07/06 A3030 RMK AO2 SLP261 T00720061 401000067=
201301300653 METAR KCLM 300653Z AUTO 15005KT 10SM OVC043 08/06 A3029 RMK AO2 RAE04 SLP259 P0000 T00780061=
201301300553 METAR KCLM 300553Z AUTO 14004KT 10SM -RA FEW018 BKN045 OVC060 07/06 A3029 RMK AO2 RAB01 SLP258 P0000 60000 T00720061 10089 20072 58004=
201301300525 SPECI KCLM 300525Z AUTO 15007KT 10SM -RA BKN019 OVC046 08/06 A3030 RMK AO2 RAB01 P0000 T00780061=
201301300504 SPECI KCLM 300504Z AUTO 15006KT 10SM -RA FEW011 SCT017 OVC046 08/06 A3030 RMK AO2 RAB01 P0000 T00780061=
201301300453 METAR KCLM 300453Z AUTO 15004KT 10SM FEW011 BKN018 OVC047 08/06 A3030 RMK AO2 RAB05E21 SLP262 P0000 T00780061=
201301300438 SPECI KCLM 300438Z AUTO 14004KT 10SM FEW010 BKN017 OVC047 07/06 A3029 RMK AO2 RAB05E21 P0000 T00720061=
201301300353 METAR KCLM 300353Z AUTO 14005KT 10SM OVC048 07/06 A3030 RMK AO2 RAE41 SLP261 P0000 T00720061=
201301300253 METAR KCLM 300253Z AUTO 28003KT 10SM -RA BKN050 OVC085 08/06 A3030 RMK AO2 RAB16 SLP261 P0000 60000 T00830061 50002=
201301300241 SPECI KCLM 300241Z AUTO 00000KT 10SM -RA FEW015 BKN055 OVC075 08/06 A3030 RMK AO2 RAB16 P0000 T00830061=
201301300212 SPECI KCLM 300212Z AUTO 00000KT 10SM BKN018 BKN035 OVC050 08/06 A3031 RMK AO2 T00830056=
201301300153 METAR KCLM 300153Z AUTO 14004KT 10SM FEW020 OVC050 08/06 A3031 RMK AO2 SLP264 T00830056=
201301300146 SPECI KCLM 300146Z AUTO 16004KT 10SM FEW020 OVC055 08/06 A3030 RMK AO2 T00830056=
201301300117 SPECI KCLM 300117Z AUTO 10004KT 10SM BKN021 BKN065 09/06 A3030 RMK AO2 T00890061=
201301300053 METAR KCLM 300053Z AUTO 12003KT 10SM SCT021 OVC050 09/06 A3029 RMK AO2 SLP259 T00890061=
201301292353 METAR KCLM 292353Z AUTO 10005KT 10SM SCT016 OVC041 09/06 A3029 RMK AO2 SLP259 T00940061 10100 20083 51005=
201301292342 SPECI KCLM 292342Z AUTO 12005KT 10SM BKN018 OVC037 09/06 A3029 RMK AO2 T00940061=
201301292253 METAR KCLM 292253Z AUTO 00000KT 10SM SCT019 OVC038 10/06 A3028 RMK AO2 SLP255 T01000061=
201301292153 METAR KCLM 292153Z AUTO 27003KT 10SM OVC036 09/06 A3028 RMK AO2 SLP254 T00940061=
201301292053 METAR KCLM 292053Z AUTO 31010KT 10SM OVC042 10/06 A3027 RMK AO2 SLP253 T01000061 50012=
201301291953 METAR KCLM 291953Z AUTO 32007KT 10SM OVC041 09/06 A3028 RMK AO2 SLP254 T00940061=
201301291853 METAR KCLM 291853Z AUTO 29007KT 10SM BKN038 OVC070 08/05 A3026 RMK AO2 SLP248 T00830050=
201301291753 METAR KCLM 291753Z AUTO 25007KT 10SM SCT070 08/04 A3024 RMK AO2 SLP242 60000 T00780039 10089 20067 53023=
201301291653 METAR KCLM 291653Z AUTO 27006KT 10SM BKN036 07/03 A3022 RMK AO2 SLP234 T00720033=
201301291553 METAR KCLM 291553Z AUTO 26008KT 10SM OVC032 08/03 A3019 RMK AO2 SLP226 T00780033=
201301291453 METAR KCLM 291453Z AUTO 29010KT 10SM OVC036 08/04 A3017 RMK AO2 SLP219 60000 T00830039 53016=
201301291353 METAR KCLM 291353Z AUTO 26009G17KT 10SM OVC038 08/04 A3015 RMK AO2 RAB1255E21 SLP211 P0000 T00780039=
201301291253 METAR KCLM 291253Z AUTO 24012KT 10SM FEW030 OVC038 07/03 A3014 RMK AO2 RAB1154E15B34E49 SLP207 P0000 T00720033=
201301291153 METAR KCLM 291153Z AUTO 24006G20KT 10SM SCT042 BKN050 OVC080 08/03 A3012 RMK AO2 SLP203 60000 T00780033 10094 20072 53016=
201301291053 METAR KCLM 291053Z AUTO 29013G19KT 10SM FEW031 BKN044 OVC095 09/03 A3010 RMK AO2 SLP193 T00890033=
201301290953 METAR KCLM 290953Z AUTO 27017G23KT 10SM FEW029 OVC040 09/03 A3009 RMK AO2 SLP190 T00890028=
201301290853 METAR KCLM 290853Z AUTO 29013G20KT 10SM OVC033 09/03 A3008 RMK AO2 SLP186 60000 T00890028 51013=
201301290753 METAR KCLM 290753Z AUTO 28014G26KT 10SM BKN033 OVC044 09/03 A3008 RMK AO2 PK WND 27026/0710 SLP186 T00890028 400890044=
201301290653 METAR KCLM 290653Z AUTO 28013KT 10SM FEW046 BKN055 OVC100 08/02 A3004 RMK AO2 PK WND 28027/0628 RAE0556 SLP175 P0000 T00830022=
201301290553 METAR KCLM 290553Z AUTO 29014KT 10SM -RA SCT037 BKN048 OVC060 07/03 A3004 RMK AO2 RAB02E11B41 SLP174 P0000 60000 T00720028 10078 20056 53006=
201301290453 METAR KCLM 290453Z AUTO 27014G20KT 10SM FEW040 SCT048 OVC060 07/02 A3003 RMK AO2 SLP170 T00720022=
201301290353 METAR KCLM 290353Z AUTO 28010KT 10SM OVC065 06/03 A3002 RMK AO2 SLP167 T00610028=
201301290253 METAR KCLM 290253Z AUTO 28011KT 10SM OVC065 07/02 A3002 RMK AO2 RAE0157 SLP167 P0000 60000 T00720022 53004=
201301290153 METAR KCLM 290153Z AUTO 25008KT 10SM -RA OVC075 06/03 A3001 RMK AO2 RAB0054 SLP164 P0000 T00610033=
201301290053 METAR KCLM 290053Z AUTO 26007KT 10SM SCT055 OVC070 06/03 A2999 RMK AO2 RAE42 SLP158 P0000 T00610033=
201301282353 METAR KCLM 282353Z AUTO 27007KT 10SM -RA FEW031 OVC080 06/03 A3001 RMK AO2 SLP163 P0000 60000 T00610033 10067 20044 53001=
201301282253 METAR KCLM 282253Z AUTO 26009KT 10SM -RA FEW030 BKN047 OVC060 06/03 A3000 RMK AO2 SLP160 P0000 T00610033=
201301282153 METAR KCLM 282153Z AUTO 26009KT 10SM -RA BKN037 OVC048 06/03 A3000 RMK AO2 SLP161 P0000 T00610033=
201301282053 METAR KCLM 282053Z AUTO 27010KT 10SM -RA BKN049 OVC065 06/03 A3000 RMK AO2 SLP162 P0000 60000 T00560028 58009=
201301281953 METAR KCLM 281953Z AUTO 25009KT 10SM -RA BKN039 OVC048 06/02 A3003 RMK AO2 SLP173 P0000 T00560022=
201301281853 METAR KCLM 281853Z AUTO 25009KT 10SM -RA BKN039 BKN047 OVC055 05/02 A3003 RMK AO2 SLP172 P0000 T00500022=
201301281753 METAR KCLM 281753Z AUTO 25011KT 10SM -RA FEW029 OVC035 04/02 A3003 RMK AO2 RAB1655 SLP171 P0000 60000 T00440022 10067 20044 58002=
201301281653 METAR KCLM 281653Z AUTO 25011KT 10SM BKN044 OVC055 05/02 A3003 RMK AO2 RAB09E40 SLP171 P0000 T00500017=
201301281553 METAR KCLM 281553Z AUTO 25010KT 10SM OVC048 05/02 A3004 RMK AO2 RAB00E35 SLP175 P0000 T00500017=
201301281453 METAR KCLM 281453Z AUTO 28016G20KT 10SM OVC050 07/01 A3004 RMK AO2 SLP173 T00670006 53007=
201301281353 METAR KCLM 281353Z AUTO 27012KT 10SM OVC060 07/01 A3003 RMK AO2 SLP170 T00670006=
201301281253 METAR KCLM 281253Z AUTO 26012G19KT 10SM SCT042 OVC090 07/01 A3001 RMK AO2 SLP165 T00670006=
201301281153 METAR KCLM 281153Z AUTO 27014KT 10SM BKN044 OVC110 07/01 A3002 RMK AO2 SLP166 70001 T00670006 10067 20050 53007=
201301281053 METAR KCLM 281053Z AUTO 27012KT 10SM OVC044 07/01 A3000 RMK AO2 SLP161 T00670006=
201301280953 METAR KCLM 280953Z AUTO 27011KT 10SM OVC043 06/01 A2999 RMK AO2 SLP158 T00610006=
201301280853 METAR KCLM 280853Z AUTO 26008KT 10SM FEW042 OVC110 06/01 A2999 RMK AO2 SLP159 T00560006 51007=
201301280753 METAR KCLM 280753Z AUTO 24008KT 10SM OVC039 05/02 A2999 RMK AO2 SLP159 T00500017 400610022=
201301280653 METAR KCLM 280653Z AUTO 25007KT 10SM OVC033 05/02 A2998 RMK AO2 SLP152 T00500022=
201301280553 METAR KCLM 280553Z AUTO 26008KT 10SM OVC032 06/02 A2997 RMK AO2 SLP151 60000 T00560022 10061 20044 56001=
201301280453 METAR KCLM 280453Z AUTO 24007KT 10SM OVC031 05/03 A2998 RMK AO2 RAE0356 SLP152 P0000 T00500028=
201301280353 METAR KCLM 280353Z AUTO 25005KT 10SM -RA BKN035 OVC055 05/03 A2997 RMK AO2 SLP151 P0000 T00500028=
201301280253 METAR KCLM 280253Z AUTO 00000KT 10SM -RA FEW027 OVC037 05/03 A2998 RMK AO2 RAB09 SLP153 P0000 60000 T00500033 53002=
201301280153 METAR KCLM 280153Z AUTO 00000KT 10SM SCT043 OVC055 04/04 A2996 RMK AO2 SLP149 T00440039=
201301280053 METAR KCLM 280053Z AUTO 00000KT 10SM OVC043 06/03 A2997 RMK AO2 RAB00E14 SLP149 P0000 T00560033=
201301272353 METAR KCLM 272353Z AUTO 14003KT 10SM BKN043 OVC050 06/03 A2997 RMK AO2 RAE53 SLP151 P0000 60001 T00610033 10061 20050 56004=
201301272253 METAR KCLM 272253Z AUTO 00000KT 10SM -RA BKN041 OVC055 06/03 A2997 RMK AO2 SLP151 P0000 T00610033=
201301272210 SPECI KCLM 272210Z AUTO 00000KT 10SM -RA BKN036 OVC050 06/03 A2997 RMK AO2 P0000 T00560028=
201301272153 METAR KCLM 272153Z AUTO 00000KT 10SM -RA BKN027 OVC035 06/03 A2997 RMK AO2 SLP152 P0001 T00560028=
201301272142 SPECI KCLM 272142Z AUTO 00000KT 8SM -RA BKN027 OVC034 06/03 A2998 RMK AO2 P0000 T00560028=
201301272053 METAR KCLM 272053Z AUTO 00000KT 10SM -RA OVC035 06/03 A2998 RMK AO2 SLP154 P0000 60000 T00610028 56011=
201301272048 SPECI KCLM 272048Z AUTO 00000KT 10SM -RA FEW022 OVC033 06/03 A2998 RMK AO2 P0000=
201301272028 SPECI KCLM 272028Z AUTO 00000KT 10SM -RA FEW021 BKN029 OVC038 06/03 A2999 RMK AO2 P0000 T00610028=
201301271953 METAR KCLM 271953Z AUTO 00000KT 10SM -RA OVC034 06/03 A3000 RMK AO2 SLP161 P0000 T00610033=
201301271853 METAR KCLM 271853Z AUTO 00000KT 10SM -RA FEW043 BKN049 OVC065 06/03 A3002 RMK AO2 SLP166 P0000 T00560033=
201301271753 METAR KCLM 271753Z AUTO 00000KT 10SM -RA BKN035 OVC048 05/03 A3001 RMK AO2 RAE02B20 SLP164 P0000 60000 T00500028 10056 20028 51006=
201301271653 METAR KCLM 271653Z AUTO 25006KT 10SM -RA OVC035 05/01 A3001 RMK AO2 RAB26 SLP164 P0000 T00500011=
201301271553 METAR KCLM 271553Z AUTO 20006KT 10SM FEW038 BKN045 OVC055 06/01 A3000 RMK AO2 RAB21E53 SLP161 P0000 T00560006=
201301271453 METAR KCLM 271453Z AUTO 25007KT 10SM OVC048 04/00 A2999 RMK AO2 SLP159 60000 T00440000 55004=
201301271353 METAR KCLM 271353Z AUTO 25009KT 10SM FEW050 BKN100 04/00 A2999 RMK AO2 SLP158 T00440000=
201301271253 METAR KCLM 271253Z AUTO 24009KT 10SM CLR 03/00 A3000 RMK AO2 RAB1159E08 SLP160 P0000 T00330000=
201301271153 METAR KCLM 271153Z AUTO 26008KT 10SM FEW043 BKN065 04/01 A3001 RMK AO2 SLP163 60000 T00390006 10050 20022 50002=
201301271053 METAR KCLM 271053Z AUTO 26007KT 10SM BKN046 OVC055 04/01 A3001 RMK AO2 SLP165 T00440006=
201301270953 METAR KCLM 270953Z AUTO 24007KT 10SM SCT048 BKN060 04/01 A3000 RMK AO2 SLP162 T00390011=
201301270853 METAR KCLM 270853Z AUTO 25006KT 10SM BKN047 03/01 A3000 RMK AO2 SLP161 60000 T00330011 50005=
201301270802 SPECI KCLM 270802Z AUTO 24005KT 10SM SCT016 BKN050 OVC070 04/02 A3001 RMK AO2 T00440022=
201301270753 METAR KCLM 270753Z AUTO 26006KT 10SM SCT016 BKN024 OVC070 04/02 A3001 RMK AO2 RAB0657E06 SLP165 P0000 T00440022 400720011=
201301270733 SPECI KCLM 270733Z AUTO 25006KT 10SM SCT018 BKN024 OVC060 04/02 A3002 RMK AO2 RAB0657E06 P0000 T00440022=
201301270653 METAR KCLM 270653Z AUTO 24006KT 10SM OVC046 04/02 A3000 RMK AO2 RAB23E33 SLP162 P0000 T00390022=
201301270553 METAR KCLM 270553Z AUTO 23006KT 10SM OVC049 04/03 A2999 RMK AO2 RAB0457E33 SLP156 P0000 60000 T00390028 10072 20011 52010=
201301270453 METAR KCLM 270453Z AUTO 23003KT 10SM OVC048 03/02 A2998 RMK AO2 SLP153 T00330022=
201301270353 METAR KCLM 270353Z AUTO 23003KT 10SM SCT050 BKN075 02/02 A2997 RMK AO2 SLP151 T00220017=
201301270253 METAR KCLM 270253Z AUTO 00000KT 10SM FEW065 03/02 A2996 RMK AO2 SLP146 T00330022 53012=
201301270153 METAR KCLM 270153Z AUTO 00000KT 10SM FEW060 FEW075 03/02 A2994 RMK AO2 SLP141 T00330022=
201301270053 METAR KCLM 270053Z AUTO 25005KT 10SM FEW024 SCT047 BKN090 06/03 A2993 RMK AO2 SLP136 T00610028=
201301262353 METAR KCLM 262353Z AUTO 28005KT 10SM SCT014 BKN080 OVC100 07/04 A2992 RMK AO2 SLP134 60000 T00720039 10072 20056 53006=
201301262329 SPECI KCLM 262329Z AUTO 32004KT 10SM SCT013 BKN021 BKN095 07/04 A2991 RMK AO2 T00720039=
201301262320 SPECI KCLM 262320Z AUTO VRB04KT 10SM BKN013 BKN019 BKN095 07/04 A2991 RMK AO2 T00720044=
201301262253 METAR KCLM 262253Z AUTO 26003KT 10SM SCT016 BKN050 BKN100 07/04 A2991 RMK AO2 RAB40E49 SLP129 P0000 T00670044=
201301262200 SPECI KCLM 262200Z AUTO 31003KT 10SM BKN015 OVC021 07/04 A2990 RMK AO2 T00670044=
201301262153 METAR KCLM 262153Z AUTO 31004KT 10SM BKN013 OVC021 07/04 A2990 RMK AO2 SLP128 T00670044=
201301262110 SPECI KCLM 262110Z AUTO 32006KT 10SM SCT009 BKN016 OVC060 07/04 A2990 RMK AO2 T00670044=
201301262053 METAR KCLM 262053Z AUTO VRB04KT 10SM SCT008 OVC060 07/04 A2990 RMK AO2 SLP127 T00670044 51005=
201301262049 SPECI KCLM 262049Z AUTO 31005KT 10SM SCT008 BKN060 07/04 A2990 RMK AO2=
201301262042 SPECI KCLM 262042Z AUTO 31006KT 10SM BKN008 BKN013 OVC060 07/04 A2990 RMK AO2 CIG 007V011 T00670044=
201301262014 SPECI KCLM 262014Z AUTO 34004KT 10SM OVC010 06/04 A2990 RMK AO2 CIG 006V015 T00610044=
201301262000 SPECI KCLM 262000Z AUTO 33005KT 10SM OVC009 07/04 A2990 RMK AO2 CIG 006V015 T00670044=
201301261953 METAR KCLM 261953Z AUTO 33003KT 10SM SCT007 BKN011 OVC048 07/04 A2990 RMK AO2 SLP126 T00670044=
201301261942 SPECI KCLM 261942Z AUTO VRB05KT 10SM FEW007 BKN011 BKN046 06/04 A2990 RMK AO2 T00610044=
201301261853 METAR KCLM 261853Z AUTO 29004KT 10SM CLR 07/04 A2989 RMK AO2 SLP124 T00720039=
201301261821 SPECI KCLM 261821Z AUTO 27005KT 10SM FEW006 BKN040 BKN047 06/04 A2989 RMK AO2 T00610039=
201301261753 METAR KCLM 261753Z AUTO 27004KT 10SM BKN046 OVC055 06/04 A2989 RMK AO2 RAE52 SLP123 P0000 60000 T00560039 10056 20033 53017=
201301261725 SPECI KCLM 261725Z AUTO 25006KT 10SM -RA SCT009 BKN037 OVC049 05/03 A2988 RMK AO2 P0000 T00500033=
201301261653 METAR KCLM 261653Z AUTO 26005KT 10SM -RA OVC037 04/03 A2987 RMK AO2 SLP116 P0000 T00440028=
201301261622 SPECI KCLM 261622Z AUTO 25005KT 10SM -RA FEW011 SCT017 OVC041 04/03 A2986 RMK AO2 P0000 T00440028=
201301261604 SPECI KCLM 261604Z AUTO 24005KT 10SM -RA SCT011 BKN016 OVC037 04/03 A2985 RMK AO2 P0000 T00440028=
201301261553 METAR KCLM 261553Z AUTO 25007KT 10SM -RA FEW010 BKN014 OVC041 04/03 A2985 RMK AO2 SLP111 P0000 T00440028=
201301261453 METAR KCLM 261453Z AUTO 25005KT 10SM -RA OVC036 04/03 A2984 RMK AO2 SLP106 P0000 60000 T00440028 53002=
201301261353 METAR KCLM 261353Z AUTO 24008KT 10SM -RA OVC036 04/03 A2983 RMK AO2 RAB24 SLP102 P0000 T00440028=
201301261318 SPECI KCLM 261318Z AUTO 25007KT 10SM SCT007 OVC050 04/02 A2982 RMK AO2 T00440022=
201301261253 METAR KCLM 261253Z AUTO 25004KT 10SM BKN007 OVC012 04/02 A2982 RMK AO2 SLP101 T00390022=
201301261216 SPECI KCLM 261216Z AUTO 23005KT 10SM BKN007 BKN060 OVC080 03/02 A2983 RMK AO2 T00330022=
201301261200 SPECI KCLM 261200Z AUTO 24006KT 10SM SCT007 BKN060 OVC075 03/02 A2983 RMK AO2 T00330017=
201301261153 METAR KCLM 261153Z AUTO 23005KT 10SM SCT007 BKN014 OVC070 04/02 A2983 RMK AO2 SLP103 I6000 T00390022 10039 20006 58005=
201301261126 SPECI KCLM 261126Z AUTO 27004KT 10SM FEW008 BKN013 OVC020 03/02 A2984 RMK AO2 T00330022=
201301261102 SPECI KCLM 261102Z AUTO 25004KT 10SM FEW008 BKN020 OVC080 03/02 A2984 RMK AO2 T00330022=
201301261053 METAR KCLM 261053Z AUTO 27003KT 10SM SCT014 BKN020 OVC080 03/02 A2984 RMK AO2 SLP107 T00330022=
201301261043 SPECI KCLM 261043Z AUTO 23006KT 10SM BKN014 OVC019 04/02 A2984 RMK AO2 T00390022=
201301260953 METAR KCLM 260953Z AUTO 00000KT 10SM BKN015 OVC120 02/02 A2985 RMK AO2 SLP108 T00220017=
201301260919 SPECI KCLM 260919Z AUTO 00000KT 10SM FEW009 OVC110 02/01 A2985 RMK AO2 T00220011=
201301260853 METAR KCLM 260853Z AUTO 14003KT 10SM BKN120 02/01 A2984 RMK AO2 SLP108 I3000 T00170006 58013=
201301260753 METAR KCLM 260753Z AUTO 00000KT 10SM FEW095 01/01 A2986 RMK AO2 SLP114 T00110006 401061011=
201301260653 METAR KCLM 260653Z AUTO 23003KT 10SM BKN110 02/01 A2987 RMK AO2 SLP117 I1000 T00170006=
201301260553 METAR KCLM 260553Z AUTO 00000KT 10SM CLR 01/M01 A2988 RMK AO2 SLP121 T00061006 10072 21006 58013=
201301260453 METAR KCLM 260453Z AUTO 22004KT 10SM FEW100 BKN120 01/00 A2990 RMK AO2 SLP127 T00110000=
201301260353 METAR KCLM 260353Z AUTO 21003KT 10SM CLR 00/M01 A2991 RMK AO2 SLP131 T00001011=
201301260253 METAR KCLM 260253Z AUTO 22004KT 10SM CLR 02/01 A2992 RMK AO2 SLP135 T00220011 56012=
201301260153 METAR KCLM 260153Z AUTO 00000KT 9SM CLR 02/02 A2992 RMK AO2 SLP136 T00220017=
201301260053 METAR KCLM 260053Z AUTO 15004KT 10SM CLR 05/03 A2994 RMK AO2 SLP142 T00500033=
201301252353 METAR KCLM 252353Z AUTO 12003KT 10SM CLR 08/04 A2996 RMK AO2 SLP146 T00780044 10106 20072 56010=
201301252253 METAR KCLM 252253Z AUTO 12003KT 10SM SCT007 08/05 A2997 RMK AO2 SLP149 T00780050=
201301252220 SPECI KCLM 252220Z AUTO 09006KT 10SM BKN007 08/05 A2997 RMK AO2 T00780050=
201301252210 SPECI KCLM 252210Z AUTO 11009KT 10SM SCT008 08/06 A2997 RMK AO2 T00780056=
201301252153 METAR KCLM 252153Z AUTO 09007KT 10SM CLR 08/05 A2997 RMK AO2 SLP152 T00830050=
201301252053 METAR KCLM 252053Z AUTO 06004KT 10SM BKN032 11/03 A2999 RMK AO2 SLP156 T01060033 58014=
201301251953 METAR KCLM 251953Z AUTO 11007KT 10SM BKN030 09/04 A3001 RMK AO2 SLP165 T00940039=
201301251853 METAR KCLM 251853Z AUTO 10006KT 10SM OVC024 09/04 A3004 RMK AO2 SLP173 T00890044=
201301251829 SPECI KCLM 251829Z AUTO 11005KT 10SM BKN024 08/04 A3003 RMK AO2 T00830039=
201301251808 SPECI KCLM 251808Z AUTO 13006KT 10SM SCT025 08/04 A3003 RMK AO2 T00830044=
201301251753 METAR KCLM 251753Z AUTO 14004KT 10SM BKN025 08/05 A3003 RMK AO2 SLP170 I6000 T00780050 10078 21011 52003=
201301251653 METAR KCLM 251653Z AUTO 22005KT 10SM OVC023 03/02 A3002 RMK AO2 SLP170 I1000 T00280022=
201301251553 METAR KCLM 251553Z AUTO 24005KT 10SM OVC020 01/00 A3003 RMK AO2 SLP170 I1000 T00060000=
201301251453 METAR KCLM 251453Z AUTO 18004KT 10SM BKN023 00/M01 A3002 RMK AO2 SLP169 I3000 T00001006 52009=
201301251443 SPECI KCLM 251443Z AUTO 00000KT 10SM BKN022 00/M01 A3002 RMK AO2 T00001006=
201301251353 METAR KCLM 251353Z AUTO 17003KT 10SM CLR 01/M01 A3002 RMK AO2 SLP167 I1000 T00061006 $=
201301251319 SPECI KCLM 251319Z AUTO 00000KT 9SM FEW001 M01/M01 A3001 RMK AO2 T10061011 $=
201301251302 SPECI KCLM 251302Z AUTO 00000KT 2 1/2SM BR FEW002 01/M01 A3000 RMK AO2 T00061006 $=
201301251253 METAR KCLM 251253Z AUTO 00000KT 10SM CLR M01/M01 A3000 RMK AO2 SLP162 I1000 T10061011 $=
201301251153 METAR KCLM 251153Z AUTO 21004KT 10SM FEW006 02/01 A2999 RMK AO2 SLP158 60000 I1000 I6000 T00170011 10044 20017 53005 TSNO $=
201301251141 SPECI KCLM 251141Z AUTO 22007KT 10SM SCT006 02/01 A3000 RMK AO2 I1000 T00220011 TSNO $=
201301251053 METAR KCLM 251053Z AUTO 00000KT 6SM BR CLR 02/01 A2999 RMK AO2 RAE0956 SLP157 P0000 T00220011 TSNO $=
201301250953 METAR KCLM 250953Z AUTO 28003KT 10SM -RA BKN055 OVC070 04/03 A2998 RMK AO2 RAB39 SLP154 P0000 T00390028 $=
201301250853 METAR KCLM 250853Z AUTO 22006KT 10SM OVC060 04/03 A2998 RMK AO2 SLP154 T00390028 53005 $=
201301250753 METAR KCLM 250753Z AUTO 00000KT 7SM OVC060 03/02 A2997 RMK AO2 SLP152 T00280022 400611006 $=
201301250653 METAR KCLM 250653Z AUTO 22005KT 10SM OVC065 03/02 A2996 RMK AO2 SLP148 T00330022 $=
201301250619 SPECI KCLM 250619Z AUTO 21004KT 6SM BR FEW001 SCT075 BKN090 03/02 A2996 RMK AO2 T00280017 $=
201301250607 SPECI KCLM 250607Z AUTO 23004KT 4SM BR SCT085 03/02 A2996 RMK AO2 T00280017 $=
201301250557 SPECI KCLM 250557Z AUTO 00000KT 1 3/4SM BR 03/02 A2996 RMK AO2 VIS 1V4 T00280017 $=
201301250553 METAR KCLM 250553Z AUTO 00000KT 3SM BR 03/02 A2996 RMK AO2 SLP149 60000 T00280017 10056 20022 $=
201301250549 SPECI KCLM 250549Z AUTO 00000KT 2SM BR 02/02 A2996 RMK AO2 $=
201301250453 METAR KCLM 250453Z AUTO 23003KT 10SM BKN065 OVC080 04/03 A2997 RMK AO2 SLP153 T00390028 $=
201301250353 METAR KCLM 250353Z AUTO 25006KT 10SM OVC075 04/03 A2998 RMK AO2 RAB13E23 SLP156 P0000 T00390028 $=
201301250253 METAR KCLM 250253Z AUTO 24006KT 10SM BKN031 BKN039 OVC075 04/03 A3000 RMK AO2 RAE52 SLP162 P0000 60000 T00440028 56013 $=
201301250221 SPECI KCLM 250221Z AUTO 24005KT 10SM -RA BKN033 OVC047 04/03 A3000 RMK AO2 P0000 T00440033 $=
201301250153 METAR KCLM 250153Z AUTO 25005KT 10SM -RA OVC026 04/03 A3001 RMK AO2 SLP165 P0000 T00440033 $=
201301250122 SPECI KCLM 250122Z AUTO 00000KT 10SM -RA SCT008 SCT013 OVC021 05/04 A3001 RMK AO2 P0000 T00500039 $=
201301250102 SPECI KCLM 250102Z AUTO 00000KT 10SM -RA BKN009 BKN012 OVC021 06/03 A3001 RMK AO2 P0000 T00560033 $=
201301250053 METAR KCLM 250053Z AUTO 08003KT 10SM -RA BKN010 BKN015 OVC023 06/03 A3001 RMK AO2 SLP167 P0000 T00560033 $=
201301250035 SPECI KCLM 250035Z AUTO 00000KT 10SM -RA BKN010 BKN015 OVC022 06/03 A3003 RMK AO2 P0000 T00560033 $=
201301250025 SPECI KCLM 250025Z AUTO 00000KT 10SM -RA BKN009 OVC034 06/04 A3003 RMK AO2 P0000 T00560039 $=
201301242353 METAR KCLM 242353Z AUTO 00000KT 10SM -RA OVC012 06/03 A3004 RMK AO2 RAB27 SLP174 P0000 60000 T00560033 10061 20028 55005 $=
201301242320 SPECI KCLM 242320Z AUTO 00000KT 10SM BKN012 OVC060 06/03 A3002 RMK AO2 T00560028 $=
201301242253 METAR KCLM 242253Z AUTO 24003KT 10SM OVC060 06/03 A3003 RMK AO2 SLP172 T00560028 $=
201301242153 METAR KCLM 242153Z AUTO VRB03KT 10SM BKN065 OVC085 06/01 A3005 RMK AO2 SLP176 T00560011 $=
201301242053 METAR KCLM 242053Z AUTO 00000KT 10SM OVC110 06/02 A3005 RMK AO2 SLP179 T00610017 $=
201301241953 METAR KCLM 241953Z AUTO 30003KT 06/02 A3009 RMK AO2 SLP192 T00560017 $=
201301241853 METAR KCLM 241853Z AUTO 00000KT 10SM BKN110 04/01 A3013 RMK AO2 SLP203 T00440006=
201301241753 METAR KCLM 241753Z AUTO 10SM CLR 03/01 A3013 RMK AO2 SLP204 T00280006 10028 21006 56011 $=
201301241653 METAR KCLM 241653Z AUTO 10SM CLR 02/M01 A3013 RMK AO2 SLP206 T00171006 $=
201301241553 METAR KCLM 241553Z AUTO 00000KT 10SM CLR 01/M01 A3014 RMK AO2 SLP210 T00061011 $=
201301241453 METAR KCLM 241453Z AUTO 23006KT 10SM SCT029 BKN041 02/00 A3016 RMK AO2 SLP215 T00170000 58001=
201301241434 SPECI KCLM 241434Z AUTO 22004KT 10SM BKN029 00/M01 A3017 RMK AO2 T00001011=
201301241353 METAR KCLM 241353Z AUTO 10SM CLR 01/M01 A3017 RMK AO2 SLP218 T00061006 $=
201301241253 METAR KCLM 241253Z AUTO 24007KT 10SM SCT021 02/00 A3016 RMK AO2 SLP217 T00170000=
201301241232 SPECI KCLM 241232Z AUTO 24007KT 10SM BKN022 02/00 A3017 RMK AO2 T00170000=
201301241153 METAR KCLM 241153Z AUTO 20004KT 10SM FEW028 SCT036 02/01 A3016 RMK AO2 SLP216 70001 T00170006 10061 20011 50015=
201301241053 METAR KCLM 241053Z AUTO 23005KT 10SM SCT034 03/01 A3016 RMK AO2 SLP216 T00330011=
201301240953 METAR KCLM 240953Z AUTO 23008KT 10SM CLR 04/01 A3015 RMK AO2 SLP211 T00390011=
201301240853 METAR KCLM 240853Z AUTO 25008KT 10SM CLR 04/01 A3012 RMK AO2 SLP201 T00390011 51026=
201301240753 METAR KCLM 240753Z AUTO 25009KT 10SM CLR 04/02 A3010 RMK AO2 SLP194 T00440017 400720022=
201301240653 METAR KCLM 240653Z AUTO 25008KT 10SM CLR 04/02 A3007 RMK AO2 SLP186 T00440017=
201301240553 METAR KCLM 240553Z AUTO 25009G17KT 10SM CLR 06/02 A3004 RMK AO2 SLP175 60000 T00610022 10072 20050 51039=
201301240453 METAR KCLM 240453Z AUTO 27011KT 10SM FEW043 SCT065 07/03 A3000 RMK AO2 SLP162 T00720028=
201301240353 METAR KCLM 240353Z AUTO 26007G16KT 10SM BKN049 BKN060 OVC080 07/04 A2997 RMK AO2 SLP150 T00720039=
201301240253 METAR KCLM 240253Z AUTO 26007KT 10SM BKN047 OVC055 06/04 A2993 RMK AO2 RAE15 SLP136 P0000 60000 T00610044 53017=
201301240153 METAR KCLM 240153Z AUTO 27010KT 10SM -RA FEW039 OVC050 07/04 A2990 RMK AO2 RAE0058B29 SLP126 P0000 T00670044=
201301240053 METAR KCLM 240053Z AUTO 22006KT 10SM -RA BKN055 OVC070 06/04 A2989 RMK AO2 RAE13B49 SLP122 P0000 T00610044=
201301232353 METAR KCLM 232353Z AUTO 31005KT 5SM -RA BR BKN037 OVC047 06/05 A2988 RMK AO2 SLP119 P0000 60001 T00610050 10061 20050 53020=
201301232253 METAR KCLM 232253Z AUTO 00000KT 3SM -RA BR BKN039 OVC048 06/04 A2984 RMK AO2 SLP108 P0001 T00610044=
201301232153 METAR KCLM 232153Z AUTO 00000KT 10SM -RA SCT009 OVC050 06/04 A2982 RMK AO2 RAB2054 SLP101 P0000 T00610039=
201301232053 METAR KCLM 232053Z AUTO 00000KT 10SM OVC008 06/04 A2982 RMK AO2 SLP098 T00610039 58007=
201301231953 METAR KCLM 231953Z AUTO 00000KT 10SM OVC008 06/03 A2982 RMK AO2 SLP101 T00610033=
201301231919 SPECI KCLM 231919Z AUTO 00000KT 10SM OVC009 06/03 A2983 RMK AO2 T00610033=
201301231853 METAR KCLM 231853Z AUTO 00000KT 10SM OVC011 06/03 A2983 RMK AO2 CIG 009V014 SLP103 T00560033=
201301231753 METAR KCLM 231753Z AUTO 00000KT 10SM OVC010 05/03 A2984 RMK AO2 SLP105 60000 T00500033 10050 20033 58005=
201301231724 SPECI KCLM 231724Z AUTO 00000KT 9SM OVC010 04/03 A2984 RMK AO2 T00440033=
201301231653 METAR KCLM 231653Z AUTO 00000KT 10SM OVC009 04/03 A2985 RMK AO2 RAB01E19 SLP109 P0000 T00440028=
201301231553 METAR KCLM 231553Z AUTO 00000KT 10SM OVC009 04/02 A2985 RMK AO2 SLP111 T00390022=
201301231542 SPECI KCLM 231542Z AUTO 00000KT 10SM OVC009 04/02 A2986 RMK AO2 T00390022=
201301231512 SPECI KCLM 231512Z AUTO 23003KT 10SM OVC011 03/02 A2986 RMK AO2 T00330022=
201301231453 METAR KCLM 231453Z AUTO 00000KT 10SM OVC008 03/03 A2985 RMK AO2 RAB08E49 SLP111 P0000 60000 T00330028 56018=
201301231353 METAR KCLM 231353Z AUTO 00000KT 10SM OVC008 04/02 A2986 RMK AO2 SLP114 T00390022=
201301231312 SPECI KCLM 231312Z AUTO 19003KT 10SM BKN008 OVC060 04/02 A2986 RMK AO2 T00390022=
201301231253 METAR KCLM 231253Z AUTO 19004KT 10SM SCT009 OVC060 04/02 A2988 RMK AO2 RAB1159E14 SLP118 P0000 T00390022=
201301231232 SPECI KCLM 231232Z AUTO 00000KT 10SM FEW009 OVC060 04/02 A2989 RMK AO2 RAB1159E14 P0000 T00440022=
201301231153 METAR KCLM 231153Z AUTO 00000KT 10SM OVC060 04/02 A2990 RMK AO2 RAB04E14 SLP128 P0000 60000 T00440022 10044 20022 58004=
201301231053 METAR KCLM 231053Z AUTO 16006KT 10SM OVC070 04/01 A2992 RMK AO2 SLP133 T00390011=
201301230953 METAR KCLM 230953Z AUTO 21004KT 10SM OVC090 03/01 A2991 RMK AO2 SLP130 T00280006=
201301230853 METAR KCLM 230853Z AUTO 23004KT 10SM OVC100 03/01 A2991 RMK AO2 SLP133 T00280006 58001=
201301230753 METAR KCLM 230753Z AUTO VRB04KT 10SM OVC100 03/01 A2993 RMK AO2 SLP137 T00280006 400390017=
201301230653 METAR KCLM 230653Z AUTO 00000KT 10SM OVC100 03/01 A2992 RMK AO2 SLP136 T00280006=
201301230553 METAR KCLM 230553Z AUTO 00000KT 10SM OVC100 02/01 A2992 RMK AO2 SLP134 T00220006 10033 20017 55006=
201301230453 METAR KCLM 230453Z AUTO 00000KT 10SM OVC110 02/01 A2992 RMK AO2 SLP134 T00220006=
201301230353 METAR KCLM 230353Z AUTO 21003KT 10SM CLR 02/01 A2994 RMK AO2 SLP140 T00220006=
201301230253 METAR KCLM 230253Z AUTO 22003KT 10SM CLR 02/01 A2994 RMK AO2 SLP140 T00220006 58008=
201301230153 METAR KCLM 230153Z AUTO 00000KT 10SM FEW009 02/01 A2995 RMK AO2 SLP145 T00220006=
201301230146 SPECI KCLM 230146Z AUTO 19003KT 10SM SCT009 03/01 A2995 RMK AO2 T00280006=
201301230053 METAR KCLM 230053Z AUTO 00000KT 10SM OVC009 03/01 A2996 RMK AO2 SLP149 T00330006=
201301222353 METAR KCLM 222353Z AUTO 12003KT 10SM OVC008 03/01 A2996 RMK AO2 SLP148 T00330011 10039 20028 58021=
201301222253 METAR KCLM 222253Z AUTO 11003KT 10SM OVC008 03/01 A2999 RMK AO2 SLP157 T00330011=
201301222153 METAR KCLM 222153Z AUTO 11005KT 10SM OVC007 03/01 A3000 RMK AO2 SLP162 T00330011=
201301222053 METAR KCLM 222053Z AUTO 12004KT 10SM OVC006 03/01 A3002 RMK AO2 SLP169 T00330011 58015=
201301221953 METAR KCLM 221953Z AUTO 13004KT 10SM OVC005 03/01 A3005 RMK AO2 SLP177 T00330011=
201301221853 METAR KCLM 221853Z AUTO 10003KT 10SM OVC005 03/02 A3006 RMK AO2 SLP183 T00330017=
201301221753 METAR KCLM 221753Z AUTO 15003KT 10SM OVC005 03/01 A3007 RMK AO2 SLP184 T00280011 10028 20022 55004=
201301221653 METAR KCLM 221653Z AUTO 14004KT 10SM OVC006 03/01 A3006 RMK AO2 SLP182 T00280011=
201301221553 METAR KCLM 221553Z AUTO 16003KT 10SM OVC006 02/01 A3006 RMK AO2 SLP183 T00220011=
201301221453 METAR KCLM 221453Z AUTO 15003KT 10SM OVC006 02/01 A3008 RMK AO2 SLP188 T00220011 56007=
201301221353 METAR KCLM 221353Z AUTO 17004KT 10SM OVC005 02/01 A3008 RMK AO2 SLP190 T00220011=
201301221253 METAR KCLM 221253Z AUTO 14005KT 10SM OVC006 02/01 A3009 RMK AO2 SLP191 T00220006=
201301221153 METAR KCLM 221153Z AUTO 14005KT 10SM OVC006 03/01 A3010 RMK AO2 SLP196 T00280011 10028 20017 58007=
201301221053 METAR KCLM 221053Z AUTO 00000KT 10SM OVC007 02/01 A3011 RMK AO2 SLP199 T00220006=
201301220953 METAR KCLM 220953Z AUTO 24004KT 10SM OVC008 02/01 A3012 RMK AO2 SLP203 T00170006=
201301220853 METAR KCLM 220853Z AUTO 00000KT 10SM OVC006 03/01 A3012 RMK AO2 SLP203 T00280011 58000=
201301220753 METAR KCLM 220753Z AUTO 17003KT 10SM OVC005 02/01 A3013 RMK AO2 SLP204 T00220011 400390017=
201301220653 METAR KCLM 220653Z AUTO 17005KT 8SM OVC006 02/01 A3013 RMK AO2 SLP206 T00220006=
201301220553 METAR KCLM 220553Z AUTO 14005KT 7SM OVC005 02/01 A3012 RMK AO2 SLP204 T00220011 10033 20022 58003=
201301220453 METAR KCLM 220453Z AUTO 14004KT 8SM OVC005 02/01 A3013 RMK AO2 SLP205 T00220011=
201301220434 SPECI KCLM 220434Z AUTO 16004KT 8SM OVC005 02/01 A3013 RMK AO2 T00220011=
201301220353 METAR KCLM 220353Z AUTO 00000KT 7SM OVC004 02/01 A3014 RMK AO2 SLP208 T00220011=
201301220304 SPECI KCLM 220304Z AUTO VRB04KT 9SM OVC005 03/01 A3013 RMK AO2 T00280011=
201301220253 METAR KCLM 220253Z AUTO 15004KT 8SM OVC004 03/01 A3013 RMK AO2 SLP206 T00280011 55005=
201301220153 METAR KCLM 220153Z AUTO 13004KT 7SM OVC004 03/02 A3013 RMK AO2 SLP205 T00280017=
201301220053 METAR KCLM 220053Z AUTO 15004KT 8SM OVC004 03/02 A3014 RMK AO2 SLP209 T00330017=
201301220027 SPECI KCLM 220027Z AUTO 15006KT 9SM OVC005 03/02 A3014 RMK AO2 T00330017=
201301212353 METAR KCLM 212353Z AUTO 15005KT 8SM OVC004 03/02 A3015 RMK AO2 SLP211 T00330022 10039 20022 56015=
201301212344 SPECI KCLM 212344Z AUTO 13005KT 8SM OVC004 03/02 A3014 RMK AO2 T00330017=
201301212253 METAR KCLM 212253Z AUTO 09006KT 10SM OVC005 04/02 A3015 RMK AO2 SLP213 T00390017=
201301212153 METAR KCLM 212153Z AUTO 13004KT 10SM OVC005 04/02 A3017 RMK AO2 SLP218 T00390022=
201301212053 METAR KCLM 212053Z AUTO 11005KT 10SM OVC005 04/02 A3019 RMK AO2 SLP226 T00390022 58007=
201301211953 METAR KCLM 211953Z AUTO 13004KT 10SM OVC004 03/02 A3022 RMK AO2 SLP235 T00330022=
201301211853 METAR KCLM 211853Z AUTO 16005KT 10SM OVC004 03/02 A3023 RMK AO2 SLP241 T00330022=
201301211753 METAR KCLM 211753Z AUTO 15005KT 4SM BR OVC002 02/02 A3021 RMK AO2 SLP234 T00220017 10022 20017 53002=
201301211737 SPECI KCLM 211737Z AUTO 15006KT 3SM BR OVC002 02/02 A3021 RMK AO2 T00220017=
201301211720 SPECI KCLM 211720Z AUTO 16005KT 2SM BR OVC002 02/02 A3021 RMK AO2 T00220017=
201301211653 METAR KCLM 211653Z AUTO 14005KT 1 1/4SM BR OVC002 02/01 A3021 RMK AO2 SLP232 T00170011=
201301211643 SPECI KCLM 211643Z AUTO 14006KT 1SM BR OVC002 02/01 A3020 RMK AO2 T00170011=
201301211622 SPECI KCLM 211622Z AUTO 17006KT 1/2SM FG OVC002 02/01 A3020 RMK AO2 T00170011=
201301211553 METAR KCLM 211553Z AUTO 14006KT 1 1/2SM BR OVC002 02/02 A3020 RMK AO2 SLP231 T00220017=
201301211525 SPECI KCLM 211525Z AUTO 14006KT 1 1/4SM BR OVC002 02/01 A3020 RMK AO2 T00170011=
201301211512 SPECI KCLM 211512Z AUTO 14007KT 3/4SM BR VV002 02/01 A3020 RMK AO2 T00170011=
201301211453 METAR KCLM 211453Z AUTO 13006KT 1 1/4SM BR OVC002 02/01 A3021 RMK AO2 SLP232 T00220011 56013=
201301211428 SPECI KCLM 211428Z AUTO 13008KT 1/2SM FG VV002 02/01 A3020 RMK AO2 T00170011=
201301211409 SPECI KCLM 211409Z AUTO 13007KT 1/4SM FG VV002 02/01 A3021 RMK AO2 T00170011=
201301211353 METAR KCLM 211353Z AUTO 14006KT 1/2SM FG VV002 02/01 A3021 RMK AO2 SLP234 T00170011=
201301211346 SPECI KCLM 211346Z AUTO 13005KT 1/2SM FG VV002 02/01 A3021 RMK AO2 T00170011=
201301211302 SPECI KCLM 211302Z AUTO 12007KT 1/4SM FG VV002 02/01 A3023 RMK AO2 T00220011=
201301211253 METAR KCLM 211253Z AUTO 12007KT 1/2SM FG VV002 02/01 A3023 RMK AO2 SLP238 T00220011=
201301211153 METAR KCLM 211153Z AUTO 13006KT 1/2SM FG VV002 02/02 A3024 RMK AO2 SLP243 T00220017 10033 20022 58006=
201301211131 SPECI KCLM 211131Z AUTO 13006KT 1/4SM FG VV002 02/02 A3024 RMK AO2 T00220017=
201301211053 METAR KCLM 211053Z AUTO 13007KT 1/4SM FG VV001 02/02 A3026 RMK AO2 SLP249 T00220017=
201301211028 SPECI KCLM 211028Z AUTO 14006KT 1/4SM FG VV001 02/02 A3027 RMK AO2 T00220017=
201301211002 SPECI KCLM 211002Z AUTO 14006KT 1/4SM FG VV002 03/02 A3026 RMK AO2 T00280022=
201301210953 METAR KCLM 210953Z AUTO 12005KT 1/2SM FG VV002 03/02 A3026 RMK AO2 SLP250 T00280022=
201301210948 SPECI KCLM 210948Z AUTO 12005KT 1/2SM FG VV002 03/02 A3026 RMK AO2=
201301210941 SPECI KCLM 210941Z AUTO 12005KT 1/4SM FG VV002 03/02 A3026 RMK AO2 T00280022=
201301210901 SPECI KCLM 210901Z AUTO 10005KT 1/2SM FG VV002 03/02 A3026 RMK AO2 T00280022=
201301210853 METAR KCLM 210853Z AUTO 12006KT 1SM BR OVC002 03/02 A3026 RMK AO2 SLP249 T00280022 58004=
201301210851 SPECI KCLM 210851Z AUTO 12006KT 1 3/4SM BR OVC002 03/02 A3026 RMK AO2=
201301210843 SPECI KCLM 210843Z AUTO 13006KT 5SM BR OVC002 02/02 A3026 RMK AO2 T00220017=
201301210834 SPECI KCLM 210834Z AUTO 12006KT 2SM BR OVC002 02/02 A3026 RMK AO2 T00220017=
201301210819 SPECI KCLM 210819Z AUTO 13005KT 1/2SM FG OVC002 03/02 A3027 RMK AO2 T00280022=
201301210808 SPECI KCLM 210808Z AUTO 13006KT 1 3/4SM BR OVC002 03/02 A3027 RMK AO2 T00280022=
201301210753 METAR KCLM 210753Z AUTO 13006KT 5SM BR OVC003 03/02 A3027 RMK AO2 SLP253 T00330022 400561011=
201301210721 SPECI KCLM 210721Z AUTO 12005KT 3SM BR OVC002 03/02 A3028 RMK AO2 T00280022=
201301210703 SPECI KCLM 210703Z AUTO 13007KT 1 3/4SM BR OVC002 03/02 A3028 RMK AO2 T00330022=
201301210653 METAR KCLM 210653Z AUTO 11006KT 4SM BR OVC002 03/02 A3028 RMK AO2 SLP254 T00330022=
201301210553 METAR KCLM 210553Z AUTO 11005KT 4SM BR OVC003 02/02 A3027 RMK AO2 SLP254 I1001 I6001 T00220017 10050 21011 58003=
201301210540 SPECI KCLM 210540Z AUTO 11004KT 6SM BR OVC003 02/01 A3027 RMK AO2 CIG 002V005 I1001 T00170006=
201301210519 SPECI KCLM 210519Z AUTO 12004KT 7SM BKN005 00/M01 A3028 RMK AO2 I1001 T00001011=
201301210509 SPECI KCLM 210509Z AUTO 12004KT 4SM BR SCT005 M01/M02 A3028 RMK AO2 T10111017=
201301210453 METAR KCLM 210453Z AUTO 13005KT 9SM CLR 01/01 A3028 RMK AO2 SLP256 T00060006=
201301210353 METAR KCLM 210353Z AUTO 16006KT 10SM CLR 02/01 A3028 RMK AO2 SLP256 T00170011=
201301210253 METAR KCLM 210253Z AUTO 15006KT 10SM CLR 01/01 A3028 RMK AO2 SLP257 T00110006 56009=
201301210153 METAR KCLM 210153Z AUTO 15003KT 8SM CLR 01/M01 A3028 RMK AO2 SLP258 T00061006=
201301210053 METAR KCLM 210053Z AUTO 13003KT 10SM CLR 03/02 A3030 RMK AO2 SLP263 T00330022=
201301202353 METAR KCLM 202353Z AUTO 11004KT 10SM CLR 05/03 A3031 RMK AO2 SLP266 T00500028 10056 20033 56010=
201301202253 METAR KCLM 202253Z AUTO 09004KT 10SM CLR 06/03 A3031 RMK AO2 SLP267 T00560028=
201301202223 SPECI KCLM 202223Z AUTO 10006KT 10SM SCT007 06/03 A3031 RMK AO2 T00560028=
201301202153 METAR KCLM 202153Z AUTO 09005KT 10SM OVC006 06/03 A3032 RMK AO2 SLP268 T00560028=
201301202053 METAR KCLM 202053Z AUTO 10004KT 10SM OVC006 05/03 A3034 RMK AO2 SLP276 T00500028 58014=
201301202027 SPECI KCLM 202027Z AUTO 13005KT 10SM OVC005 04/03 A3035 RMK AO2 T00440028=
201301201953 METAR KCLM 201953Z AUTO 13007KT 10SM OVC004 04/03 A3036 RMK AO2 SLP285 T00440028=
201301201940 SPECI KCLM 201940Z AUTO 13008KT 10SM OVC004 04/03 A3037 RMK AO2 T00390028=
201301201928 SPECI KCLM 201928Z AUTO 12008KT 10SM OVC005 04/03 A3038 RMK AO2 T00390028=
201301201853 METAR KCLM 201853Z AUTO 14006KT 10SM OVC004 04/03 A3038 RMK AO2 SLP292 T00390028=
201301201753 METAR KCLM 201753Z AUTO 14006KT 10SM OVC004 03/03 A3038 RMK AO2 SLP291 T00330028 10033 20022 50004=
201301201742 SPECI KCLM 201742Z AUTO 15006KT 10SM OVC004 03/02 A3038 RMK AO2 T00330022=
201301201730 SPECI KCLM 201730Z AUTO 14006KT 10SM OVC005 03/02 A3038 RMK AO2 T00330022=
201301201653 METAR KCLM 201653Z AUTO 14007KT 10SM OVC004 03/02 A3038 RMK AO2 SLP292 T00280022=
201301201553 METAR KCLM 201553Z AUTO 12006KT 9SM OVC004 03/02 A3037 RMK AO2 SLP287 T00280017=
201301201530 SPECI KCLM 201530Z AUTO 15006KT 5SM BR OVC004 03/02 A3037 RMK AO2 T00280017=
201301201523 SPECI KCLM 201523Z AUTO 14006KT 2 1/2SM BR OVC004 02/02 A3037 RMK AO2 CIG 002V005 T00220017=
201301201453 METAR KCLM 201453Z AUTO 14007KT 8SM OVC003 02/02 A3037 RMK AO2 SLP286 T00220017 55004=
201301201436 SPECI KCLM 201436Z AUTO 14006KT 3SM BR OVC002 02/02 A3037 RMK AO2 T00220017=
201301201426 SPECI KCLM 201426Z AUTO 15005KT 1 3/4SM BR OVC002 02/02 A3037 RMK AO2 T00220017=
201301201353 METAR KCLM 201353Z AUTO 14007KT 6SM BR OVC004 03/02 A3037 RMK AO2 SLP286 T00280017=
201301201308 SPECI KCLM 201308Z AUTO 14004KT 7SM OVC004 03/02 A3038 RMK AO2 T00280017=
201301201253 METAR KCLM 201253Z AUTO 14005KT 7SM OVC005 03/02 A3038 RMK AO2 SLP289 T00280017=
201301201153 METAR KCLM 201153Z AUTO 13003KT 7SM OVC005 03/02 A3038 RMK AO2 SLP290 I6000 T00280022 10033 21006 50001=
201301201053 METAR KCLM 201053Z AUTO 15004KT 7SM OVC006 03/02 A3039 RMK AO2 SLP292 T00280017=
201301200953 METAR KCLM 200953Z AUTO 16005KT 8SM OVC007 03/02 A3039 RMK AO2 SLP293 T00280017=
201301200853 METAR KCLM 200853Z AUTO 16006KT 10SM OVC006 03/02 A3038 RMK AO2 SLP289 I3000 T00280017 53004=
201301200753 METAR KCLM 200753Z AUTO 12005KT 10SM OVC007 02/01 A3038 RMK AO2 SLP290 T00220011 400501006=
201301200727 SPECI KCLM 200727Z AUTO 13005KT 7SM BKN008 02/01 A3037 RMK AO2 T00170006=
201301200719 SPECI KCLM 200719Z AUTO 13005KT 6SM BR SCT008 M01/M01 A3036 RMK AO2 T10061011=
201301200653 METAR KCLM 200653Z AUTO 13007KT 10SM CLR 01/M01 A3036 RMK AO2 SLP284 I1000 T00061006=
201301200553 METAR KCLM 200553Z AUTO 14006KT 10SM CLR M01/M01 A3036 RMK AO2 SLP285 T10061006 10044 21006 51005=
201301200453 METAR KCLM 200453Z AUTO 13004KT 10SM CLR 00/M01 A3036 RMK AO2 SLP284 T00001006=
201301200420 SPECI KCLM 200420Z AUTO 15006KT 9SM FEW008 01/M01 A3036 RMK AO2 T00061006=
201301200353 METAR KCLM 200353Z AUTO 14005KT 9SM CLR 00/M01 A3036 RMK AO2 SLP285 T00001006=
201301200253 METAR KCLM 200253Z AUTO 14004KT 8SM CLR 01/M01 A3035 RMK AO2 SLP280 T00061006 53000=
201301200153 METAR KCLM 200153Z AUTO 12003KT 9SM CLR 02/01 A3034 RMK AO2 SLP279 T00220011=
201301200053 METAR KCLM 200053Z AUTO 10004KT 10SM FEW009 03/01 A3035 RMK AO2 SLP280 T00330011=
201301200051 SPECI KCLM 200051Z AUTO 10005KT 10SM SCT009 03/01 A3035 RMK AO2=
201301192353 METAR KCLM 192353Z AUTO 12005KT 10SM OVC009 04/02 A3035 RMK AO2 SLP279 T00440017 10050 20039 55002=
201301192253 METAR KCLM 192253Z AUTO 10005KT 10SM OVC009 04/02 A3034 RMK AO2 SLP276 T00440017=
201301192153 METAR KCLM 192153Z AUTO 08004KT 10SM OVC009 04/02 A3035 RMK AO2 SLP279 T00440017=
201301192142 SPECI KCLM 192142Z AUTO 08007KT 10SM OVC009 04/02 A3035 RMK AO2 T00440017=
201301192053 METAR KCLM 192053Z AUTO 11008KT 10SM OVC010 04/02 A3035 RMK AO2 SLP281 T00440017 58008=
201301191953 METAR KCLM 191953Z AUTO 12008KT 10SM OVC010 05/02 A3036 RMK AO2 SLP282 T00500017=
201301191853 METAR KCLM 191853Z AUTO 13007KT 10SM OVC010 04/02 A3037 RMK AO2 SLP287 T00440017=
201301191753 METAR KCLM 191753Z AUTO 14007KT 10SM OVC011 04/01 A3038 RMK AO2 SLP288 T00390011 10039 20028 51012=
201301191653 METAR KCLM 191653Z AUTO 14007KT 10SM OVC010 03/01 A3037 RMK AO2 SLP286 T00330011=
201301191638 SPECI KCLM 191638Z AUTO 15008KT 10SM OVC010 03/01 A3036 RMK AO2 T00280011=
201301191615 SPECI KCLM 191615Z AUTO 16006KT 10SM OVC009 03/01 A3036 RMK AO2 T00280011=
201301191553 METAR KCLM 191553Z AUTO 15007KT 10SM OVC010 03/01 A3035 RMK AO2 SLP281 T00280011=
201301191502 SPECI KCLM 191502Z AUTO 14005KT 10SM OVC009 03/01 A3034 RMK AO2 T00280011=
201301191453 METAR KCLM 191453Z AUTO 13005KT 10SM OVC010 03/01 A3034 RMK AO2 SLP277 T00280011 58002=
201301191353 METAR KCLM 191353Z AUTO 15007KT 10SM OVC010 03/01 A3035 RMK AO2 SLP279 T00280011=
201301191337 SPECI KCLM 191337Z AUTO 16007KT 10SM OVC010 03/01 A3035 RMK AO2 T00280011=
201301191253 METAR KCLM 191253Z AUTO 13005KT 10SM OVC009 03/01 A3035 RMK AO2 SLP280 T00280011=
201301191153 METAR KCLM 191153Z AUTO 14005KT 10SM OVC009 03/01 A3035 RMK AO2 SLP279 T00280011 10033 20028 50005=
201301191053 METAR KCLM 191053Z AUTO 13006KT 10SM OVC009 03/02 A3035 RMK AO2 SLP279 T00330017=
201301191033 SPECI KCLM 191033Z AUTO 14006KT 10SM OVC009 03/02 A3035 RMK AO2 T00330017=
201301190953 METAR KCLM 190953Z AUTO 14005KT 10SM OVC010 03/01 A3034 RMK AO2 SLP276 T00330011=
201301190853 METAR KCLM 190853Z AUTO 10SM OVC010 03/01 A3033 RMK AO2 SLP273 T00330011 50000=
201301190813 SPECI KCLM 190813Z AUTO 15005KT 10SM OVC010 03/01 A3034 RMK AO2 T00330011=
201301190803 SPECI KCLM 190803Z AUTO 15006KT 10SM OVC009 03/01 A3034 RMK AO2 T00330011=
201301190753 METAR KCLM 190753Z AUTO 14006KT 10SM OVC010 03/01 A3034 RMK AO2 SLP275 T00330011 400440011=
201301190715 SPECI KCLM 190715Z AUTO 14007KT 10SM OVC010 03/01 A3034 RMK AO2 T00330011=
201301190653 METAR KCLM 190653Z AUTO 15005KT 10SM OVC009 03/01 A3033 RMK AO2 SLP274 T00330011=
201301190553 METAR KCLM 190553Z AUTO 16007KT 10SM OVC008 03/01 A3033 RMK AO2 SLP274 T00330011 10039 20028 53011=
201301190453 METAR KCLM 190453Z AUTO 15007KT 10SM OVC007 03/01 A3032 RMK AO2 SLP269 T00280011=
201301190353 METAR KCLM 190353Z AUTO 15006KT 10SM OVC006 03/02 A3031 RMK AO2 SLP267 T00280017=
201301190253 METAR KCLM 190253Z AUTO 14005KT 10SM OVC007 03/02 A3030 RMK AO2 SLP263 T00330017 58002=
201301190153 METAR KCLM 190153Z AUTO 15004KT 10SM OVC007 03/02 A3031 RMK AO2 SLP265 T00330017=
201301190053 METAR KCLM 190053Z AUTO 13005KT 10SM OVC007 03/02 A3030 RMK AO2 SLP265 T00330017=
201301182353 METAR KCLM 182353Z AUTO 13003KT 10SM OVC007 04/02 A3031 RMK AO2 SLP265 T00390022 10044 20033 55002=
201301182253 METAR KCLM 182253Z AUTO 14006KT 10SM OVC007 04/02 A3030 RMK AO2 SLP262 T00440022=
201301182153 METAR KCLM 182153Z AUTO 10006KT 10SM OVC007 04/02 A3029 RMK AO2 SLP261 T00440022=
201301182053 METAR KCLM 182053Z AUTO 14006KT 10SM OVC006 04/02 A3031 RMK AO2 SLP268 T00390022 53005=
201301181953 METAR KCLM 181953Z AUTO 14006KT 10SM OVC005 04/02 A3031 RMK AO2 SLP268 T00390022=
201301181853 METAR KCLM 181853Z AUTO 16005KT 10SM OVC005 03/02 A3030 RMK AO2 SLP262 T00330022=
201301181753 METAR KCLM 181753Z AUTO 15003KT 10SM OVC005 03/02 A3030 RMK AO2 SLP263 T00330022 10033 20011 53011=
201301181653 METAR KCLM 181653Z AUTO 19005KT 10SM OVC005 03/01 A3029 RMK AO2 SLP259 T00280011=
201301181553 METAR KCLM 181553Z AUTO 19006KT 10SM OVC005 02/01 A3027 RMK AO2 SLP252 T00220011=
201301181550 SPECI KCLM 181550Z AUTO 20006KT 10SM OVC005 02/01 A3027 RMK AO2=
201301181453 METAR KCLM 181453Z AUTO 22005KT 7SM OVC003 02/01 A3025 RMK AO2 SLP247 T00170006 58003=
201301181353 METAR KCLM 181353Z AUTO 8SM OVC004 02/02 A3027 RMK AO2 SLP252 T00220017 $=
201301181253 METAR KCLM 181253Z AUTO 8SM OVC004 02/01 A3028 RMK AO2 SLP255 T00170011 $=
201301181241 SPECI KCLM 181241Z AUTO 3SM BR OVC003 02/01 A3027 RMK AO2 T00170011 $=
201301181229 SPECI KCLM 181229Z AUTO 1SM BR OVC003 02/01 A3026 RMK AO2 T00170011 $=
201301181208 SPECI KCLM 181208Z AUTO 1/2SM FG OVC003 02/01 A3026 RMK AO2 T00170011 $=
201301181153 METAR KCLM 181153Z AUTO 1 3/4SM BR OVC004 02/01 A3026 RMK AO2 SLP250 I6001 T00170011 10028 21022 58004 $=
201301181147 SPECI KCLM 181147Z AUTO 2 1/2SM BR OVC004 02/02 A3026 RMK AO2 $=
201301181053 METAR KCLM 181053Z AUTO 3SM BR OVC006 02/01 A3028 RMK AO2 SLP256 T00170011 $=
201301181026 SPECI KCLM 181026Z AUTO 7SM OVC005 02/01 A3029 RMK AO2 T00170011 $=
201301181019 SPECI KCLM 181019Z AUTO 2SM BR OVC005 02/01 A3028 RMK AO2 T00170011 $=
201301180953 METAR KCLM 180953Z AUTO 1/2SM FG OVC005 02/01 A3028 RMK AO2 SLP257 T00170011 $=
201301180853 METAR KCLM 180853Z AUTO 1/2SM FG OVC006 03/02 A3027 RMK AO2 SLP252 I3001 T00280017 57002 $=
201301180850 SPECI KCLM 180850Z AUTO 1/2SM FG OVC006 03/02 A3027 RMK AO2 $=
201301180828 SPECI KCLM 180828Z AUTO 1 1/4SM BR OVC006 02/01 A3028 RMK AO2 T00170006 $=
201301180805 SPECI KCLM 180805Z AUTO 1SM BR OVC004 01/01 A3028 RMK AO2 T00110006 $=
201301180753 METAR KCLM 180753Z AUTO 2SM BR OVC004 01/01 A3028 RMK AO2 VIS 1 1/2V2 1/2 SLP255 I1001 T00110006 400561022 $=
201301180749 SPECI KCLM 180749Z AUTO 2SM BR OVC004 01/01 A3028 RMK AO2 I1001 $=
201301180713 SPECI KCLM 180713Z AUTO 7SM BKN003 M01/M01 A3028 RMK AO2 T10061011 $=
201301180704 SPECI KCLM 180704Z AUTO 7SM SCT003 M01/M02 A3028 RMK AO2 T10061017 $=
201301180653 METAR KCLM 180653Z AUTO 7SM CLR M01/M02 A3027 RMK AO2 SLP255 I1000 T10111017 $=
201301180553 METAR KCLM 180553Z AUTO 18003KT 8SM CLR M01/M01 A3029 RMK AO2 SLP262 I1000 I6000 T10061011 10039 21011 58004=
201301180453 METAR KCLM 180453Z AUTO 00000KT 10SM CLR 01/00 A3030 RMK AO2 SLP263 T00060000=
201301180353 METAR KCLM 180353Z AUTO VRB03KT 8SM CLR 00/00 A3031 RMK AO2 SLP267 T00000000=
201301180253 METAR KCLM 180253Z AUTO 00000KT 5SM BR CLR 01/00 A3031 RMK AO2 SLP266 T00110000 55003=
201301180153 METAR KCLM 180153Z AUTO 00000KT 6SM BR FEW005 02/01 A3030 RMK AO2 SLP263 T00170006 TSNO=
201301180150 SPECI KCLM 180150Z AUTO 00000KT 6SM BR SCT005 02/01 A3030 RMK AO2 TSNO=
201301180053 METAR KCLM 180053Z AUTO 00000KT 7SM CLR 03/01 A3032 RMK AO2 SLP269 T00280011 TSNO=
201301180041 SPECI KCLM 180041Z AUTO 14005KT 10SM SCT005 03/02 A3031 RMK AO2 T00280017 TSNO=
201301180016 SPECI KCLM 180016Z AUTO 09004KT 10SM BKN006 03/02 A3032 RMK AO2 T00330017 TSNO=
201301180002 SPECI KCLM 180002Z AUTO 11003KT 10SM SCT006 04/02 A3032 RMK AO2 T00390017 TSNO=
201301172353 METAR KCLM 172353Z AUTO 11005KT 10SM CLR 04/02 A3032 RMK AO2 SLP270 T00390017 10056 20033 56024 TSNO=
201301172253 METAR KCLM 172253Z AUTO 09003KT 10SM CLR 04/02 A3034 RMK AO2 SLP275 T00440022 TSNO=
201301172211 SPECI KCLM 172211Z AUTO 00000KT 10SM SCT007 05/02 A3033 RMK AO2 T00500022 TSNO=
201301172153 METAR KCLM 172153Z AUTO 12004KT 10SM OVC007 04/02 A3036 RMK AO2 PRESFR SLP281 T00440022=
201301172053 METAR KCLM 172053Z AUTO 12004KT 10SM OVC008 04/02 A3039 RMK AO2 SLP293 T00440017 58021=
201301171953 METAR KCLM 171953Z AUTO 11003KT 10SM OVC007 04/02 A3041 RMK AO2 SLP300 T00390017=
201301171853 METAR KCLM 171853Z AUTO 14003KT 10SM OVC008 04/02 A3044 RMK AO2 SLP311 T00390017=
201301171753 METAR KCLM 171753Z AUTO 16006KT 10SM OVC008 03/01 A3045 RMK AO2 SLP314 T00330011 10033 20028 53004=
201301171653 METAR KCLM 171653Z AUTO 18005KT 10SM OVC009 03/01 A3045 RMK AO2 SLP314 T00280011=
201301171553 METAR KCLM 171553Z AUTO 12003KT 10SM OVC009 03/01 A3044 RMK AO2 SLP310 T00280006=
201301171453 METAR KCLM 171453Z AUTO 15003KT 10SM OVC010 03/01 A3044 RMK AO2 SLP311 T00280006 56016=
201301171353 METAR KCLM 171353Z AUTO 15005KT 10SM OVC011 03/01 A3045 RMK AO2 SLP314 T00280006 $=
201301171253 METAR KCLM 171253Z AUTO 15005KT 10SM OVC011 03/01 A3046 RMK AO2 SLP319 T00280006 $=
201301171153 METAR KCLM 171153Z AUTO 16004KT 10SM OVC011 03/01 A3049 RMK AO2 SLP326 T00280006 10039 20028 56016 $=
201301171053 METAR KCLM 171053Z AUTO 14005KT 10SM OVC011 03/01 A3049 RMK AO2 SLP328 T00330011 $=
201301170953 METAR KCLM 170953Z AUTO 14006KT 10SM OVC011 03/01 A3050 RMK AO2 SLP332 T00330011 $=
201301170853 METAR KCLM 170853Z AUTO 12005KT 10SM OVC012 03/01 A3054 RMK AO2 SLP343 T00330011 55001 $=
201301170753 METAR KCLM 170753Z AUTO 14004KT 10SM OVC012 03/01 A3053 RMK AO2 SLP340 T00330011 400611028 $=
201301170653 METAR KCLM 170653Z AUTO 15006KT 10SM OVC013 04/01 A3052 RMK AO2 SLP337 T00390011 $=
201301170553 METAR KCLM 170553Z AUTO 13004KT 10SM OVC013 04/01 A3054 RMK AO2 SLP343 T00390011 10044 20033 55009 $=
201301170453 METAR KCLM 170453Z AUTO 11004KT 10SM OVC013 04/01 A3054 RMK AO2 SLP343 T00390006 $=
201301170353 METAR KCLM 170353Z AUTO 15006KT 10SM OVC013 04/01 A3055 RMK AO2 SLP347 T00390006 $=
201301170253 METAR KCLM 170253Z AUTO 16005KT 10SM OVC014 03/01 A3057 RMK AO2 SLP354 T00330006 58002 $=
201301170153 METAR KCLM 170153Z AUTO 14004KT 10SM OVC014 03/01 A3056 RMK AO2 SLP352 T00330006 $=
201301170124 SPECI KCLM 170124Z AUTO 15004KT 10SM OVC014 04/01 A3057 RMK AO2 T00390006 $=
201301170053 METAR KCLM 170053Z AUTO 14005KT 10SM OVC015 04/01 A3058 RMK AO2 SLP358 T00390006 $=
201301170041 SPECI KCLM 170041Z AUTO 15004KT 10SM OVC015 04/01 A3058 RMK AO2 T00390006 $=
201301170024 SPECI KCLM 170024Z AUTO 14006KT 10SM OVC014 04/01 A3057 RMK AO2 T00440006 $=
201301162353 METAR KCLM 162353Z AUTO 13008KT 10SM OVC015 04/01 A3057 RMK AO2 SLP356 T00440006 10061 20039 55006 $=
201301162253 METAR KCLM 162253Z AUTO 08007KT 10SM OVC015 06/01 A3057 RMK AO2 SLP355 T00560011 $=
201301162153 METAR KCLM 162153Z AUTO VRB06KT 10SM OVC017 05/01 A3058 RMK AO2 SLP360 T00500006 $=
201301162053 METAR KCLM 162053Z AUTO 10SM OVC017 06/01 A3059 RMK AO2 SLP361 T00560011 58012 $=
201301161953 METAR KCLM 161953Z AUTO 10SM OVC017 05/01 A3061 RMK AO2 SLP368 T00500011 $=
201301161853 METAR KCLM 161853Z AUTO 10SM OVC018 05/01 A3063 RMK AO2 SLP375 T00500011 $=
201301161753 METAR KCLM 161753Z AUTO 10SM OVC017 04/01 A3063 RMK AO2 SLP374 I6001 T00390011 10039 21028 50003 $=
201301161653 METAR KCLM 161653Z AUTO 10SM OVC017 01/M01 A3063 RMK AO2 SLP375 T00111006 $=
201301161608 SPECI KCLM 161608Z AUTO 10SM BKN017 M02/M03 A3063 RMK AO2 T10171028 $=
201301161553 METAR KCLM 161553Z AUTO 10SM SCT017 M03/M03 A3063 RMK AO2 SLP375 T10281033 $=
201301161453 METAR KCLM 161453Z AUTO 10SM CLR M02/M02 A3062 RMK AO2 SLP371 I1001 I3001 T10171022 56011 $=
201301161353 METAR KCLM 161353Z AUTO 10SM SCT018 M01/M02 A3063 RMK AO2 SLP376 T10111017 $=
201301161348 SPECI KCLM 161348Z AUTO 10SM BKN018 M01/M02 A3063 RMK AO2 $=
201301161253 METAR KCLM 161253Z AUTO 10SM CLR M01/M02 A3065 RMK AO2 SLP382 T10061017 $=
201301161217 SPECI KCLM 161217Z AUTO 10SM SCT020 00/M02 A3066 RMK AO2 T00001017 $=
201301161153 METAR KCLM 161153Z AUTO 10SM OVC020 00/M01 A3067 RMK AO2 SLP389 T00001011 10028 20000 50000 $=
201301161053 METAR KCLM 161053Z AUTO 10SM BKN020 00/M02 A3068 RMK AO2 SLP392 T00001017 $=
201301161025 SPECI KCLM 161025Z AUTO 10SM SCT020 01/M01 A3068 RMK AO2 T00061011 $=
201301160953 METAR KCLM 160953Z AUTO 10SM BKN020 01/M01 A3067 RMK AO2 SLP388 T00061011 $=
201301160853 METAR KCLM 160853Z AUTO 10SM BKN020 02/M01 A3067 RMK AO2 SLP388 T00221006 58000 $=
201301160753 METAR KCLM 160753Z AUTO 10SM OVC019 03/00 A3067 RMK AO2 SLP388 T00280000 400671028 $=
201301160653 METAR KCLM 160653Z AUTO 10SM OVC019 03/01 A3067 RMK AO2 SLP390 T00280006 $=
201301160553 METAR KCLM 160553Z AUTO 10SM OVC019 03/01 A3067 RMK AO2 SLP389 T00280006 10061 20028 58005 $=
201301160453 METAR KCLM 160453Z AUTO 10SM OVC019 03/01 A3068 RMK AO2 SLP391 T00330006 $=
201301160353 METAR KCLM 160353Z AUTO 10SM OVC020 03/00 A3069 RMK AO2 SLP395 T00330000 $=
201301160253 METAR KCLM 160253Z AUTO 10SM OVC021 03/00 A3069 RMK AO2 SLP395 T00330000 50001 $=
201301160153 METAR KCLM 160153Z AUTO 10SM OVC022 03/00 A3069 RMK AO2 SLP395 T00280000 $=
201301160053 METAR KCLM 160053Z AUTO 10SM BKN021 04/00 A3069 RMK AO2 SLP396 T00390000 $=
201301152353 METAR KCLM 152353Z AUTO 10SM OVC020 06/02 A3068 RMK AO2 SLP394 T00610017 10067 20022 56001 $=
201301152253 METAR KCLM 152253Z AUTO 10SM OVC024 06/02 A3069 RMK AO2 SLP395 T00610017 $=
201301152153 METAR KCLM 152153Z AUTO 10SM OVC023 07/01 A3068 RMK AO2 SLP392 T00670006 $=
201301152053 METAR KCLM 152053Z AUTO 10SM OVC025 06/01 A3069 RMK AO2 SLP395 T00610011 58001 $=
201301151953 METAR KCLM 151953Z AUTO 10SM OVC025 06/02 A3069 RMK AO2 SLP395 T00560017 $=
201301151853 METAR KCLM 151853Z AUTO 10SM OVC023 04/03 A3070 RMK AO2 SLP399 T00390028 $=
201301151753 METAR KCLM 151753Z AUTO 10SM FEW015 OVC022 02/01 A3069 RMK AO2 SLP396 I6000 T00220011 10022 21028 53015 $=
201301151653 METAR KCLM 151653Z AUTO 10SM BKN018 M01/M01 A3068 RMK AO2 SLP391 T10061011 $=
201301151553 METAR KCLM 151553Z AUTO 22004KT 10SM BKN015 M01/M02 A3066 RMK AO2 SLP385 I1000 T10061017 $=
201301151453 METAR KCLM 151453Z AUTO 00000KT 10SM CLR M02/M03 A3065 RMK AO2 SLP381 I1000 I3000 T10171028 53008 $=
201301151353 METAR KCLM 151353Z AUTO 10SM CLR M02/M02 A3062 RMK AO2 SLP373 I1000 T10171022 $=
201301151253 METAR KCLM 151253Z AUTO 10SM CLR M01/M02 A3061 RMK AO2 SLP370 I1000 T10061017 $=
201301151153 METAR KCLM 151153Z AUTO 10SM CLR M01/M01 A3062 RMK AO2 SLP372 I1000 I6000 T10061011 10033 21017 51015 $=
201301151053 METAR KCLM 151053Z AUTO 15004KT 10SM FEW011 M01/M02 A3061 RMK AO2 SLP367 I1000 T10111022=
201301151041 SPECI KCLM 151041Z AUTO 00000KT 10SM FEW011 M01/M02 A3061 RMK AO2 T10111022=
201301151008 SPECI KCLM 151008Z AUTO 16003KT 10SM BKN012 M01/M02 A3061 RMK AO2 T10111017=
201301150953 METAR KCLM 150953Z AUTO 00000KT 10SM FEW012 00/M01 A3060 RMK AO2 SLP365 T00001011=
201301150853 METAR KCLM 150853Z AUTO 00000KT 10SM SCT012 BKN046 00/M01 A3058 RMK AO2 SLP358 T00001006 53011=
201301150845 SPECI KCLM 150845Z AUTO 21003KT 10SM SCT012 OVC046 01/M01 A3057 RMK AO2 T00061006=
201301150753 METAR KCLM 150753Z AUTO 00000KT 10SM BKN011 02/01 A3056 RMK AO2 SLP349 T00220006 400560011=
201301150653 METAR KCLM 150653Z AUTO 00000KT 10SM OVC012 03/01 A3055 RMK AO2 SLP347 T00280011=
201301150553 METAR KCLM 150553Z AUTO 23005KT 10SM OVC011 03/01 A3055 RMK AO2 SLP347 T00280011 10050 20017 53009=
201301150453 METAR KCLM 150453Z AUTO 00000KT 10SM OVC011 03/01 A3053 RMK AO2 SLP342 T00280011=
201301150353 METAR KCLM 150353Z AUTO 00000KT 10SM OVC011 02/01 A3053 RMK AO2 SLP341 T00220011=
201301150327 SPECI KCLM 150327Z AUTO 00000KT 10SM BKN009 OVC013 02/01 A3052 RMK AO2 T00170006=
201301150253 METAR KCLM 150253Z AUTO 00000KT 10SM OVC010 02/01 A3052 RMK AO2 SLP337 T00220011 53008=
201301150236 SPECI KCLM 150236Z AUTO 25003KT 10SM BKN010 OVC048 02/01 A3051 RMK AO2 T00220011=
201301150227 SPECI KCLM 150227Z AUTO 29003KT 10SM SCT009 SCT032 BKN049 03/02 A3051 RMK AO2 T00330022=
201301150153 METAR KCLM 150153Z AUTO 26003KT 10SM BKN033 03/02 A3049 RMK AO2 SLP329 T00280017=
201301150138 SPECI KCLM 150138Z AUTO 00000KT 10SM SCT024 OVC034 04/02 A3049 RMK AO2 T00390022=
201301150053 METAR KCLM 150053Z AUTO 00000KT 10SM OVC022 04/02 A3050 RMK AO2 SLP330 T00440022=
201301142353 METAR KCLM 142353Z AUTO 08003KT 10SM OVC017 05/02 A3049 RMK AO2 SLP329 60000 T00500022 10056 20033 53009=
201301142300 SPECI KCLM 142300Z AUTO 10004KT 10SM OVC016 05/02 A3048 RMK AO2 T00500022=
201301142253 METAR KCLM 142253Z AUTO 11003KT 10SM OVC014 05/02 A3048 RMK AO2 RAB2154E15 SLP325 P0000 T00500022=
201301142213 SPECI KCLM 142213Z AUTO 08003KT 10SM -RA BKN013 OVC019 05/02 A3047 RMK AO2 RAB2154 P0000 T00500017=
201301142153 METAR KCLM 142153Z AUTO 00000KT 10SM OVC017 05/02 A3046 RMK AO2 RAB2059E44 SLP319 P0000 T00500017=
201301142053 METAR KCLM 142053Z AUTO 04003KT 10SM OVC014 06/02 A3047 RMK AO2 RAB26E44 SLP319 P0000 60000 T00560017 56001=
201301141953 METAR KCLM 141953Z AUTO 00000KT 10SM OVC014 05/01 A3047 RMK AO2 SLP320 T00500011=
201301141928 SPECI KCLM 141928Z AUTO 00000KT 10SM OVC014 05/01 A3047 RMK AO2 T00500006=
201301141853 METAR KCLM 141853Z AUTO 00000KT 10SM OVC015 04/01 A3046 RMK AO2 SLP318 T00440006=
201301141753 METAR KCLM 141753Z AUTO 00000KT 10SM BKN017 OVC038 03/00 A3047 RMK AO2 SLP321 T00330000 10033 20011 51009=
201301141712 SPECI KCLM 141712Z AUTO 25003KT 10SM BKN018 OVC035 03/M01 A3046 RMK AO2 T00281006=
201301141653 METAR KCLM 141653Z AUTO 24004KT 10SM OVC034 02/M01 A3046 RMK AO2 SLP319 T00221006=
201301141553 METAR KCLM 141553Z AUTO 24003KT 10SM OVC035 02/M01 A3046 RMK AO2 SLP316 T00221006=
201301141453 METAR KCLM 141453Z AUTO 25003KT 10SM OVC041 02/M01 A3044 RMK AO2 SLP312 T00221011 56006=
201301141353 METAR KCLM 141353Z AUTO 10SM FEW019 OVC050 02/M01 A3045 RMK AO2 SLP313 T00171006 $=
201301141344 SPECI KCLM 141344Z AUTO 10SM SCT017 OVC050 02/M01 A3044 RMK AO2 T00221011 $=
201301141253 METAR KCLM 141253Z AUTO 10SM OVC020 02/M01 A3045 RMK AO2 SLP314 T00171011 $=
201301141153 METAR KCLM 141153Z AUTO 10SM BKN024 OVC043 02/M01 A3046 RMK AO2 SLP318 T00171011 10022 20011 53002 $=
201301141112 SPECI KCLM 141112Z AUTO 10SM BKN024 OVC045 01/M01 A3045 RMK AO2 T00111006 $=
201301141053 METAR KCLM 141053Z AUTO 10SM OVC046 01/M01 A3046 RMK AO2 SLP318 T00111006 $=
201301140953 METAR KCLM 140953Z AUTO 10SM OVC050 01/M02 A3045 RMK AO2 SLP315 T00111017 $=
201301140853 METAR KCLM 140853Z AUTO 10SM OVC046 02/M01 A3045 RMK AO2 SLP316 T00171011 51002 $=
201301140753 METAR KCLM 140753Z AUTO 10SM OVC048 01/M01 A3045 RMK AO2 SLP315 T00111011 400391028 $=
201301140653 METAR KCLM 140653Z AUTO 10SM OVC046 01/M01 A3046 RMK AO2 SLP317 T00111011 $=
201301140553 METAR KCLM 140553Z AUTO 10SM OVC048 01/M01 A3045 RMK AO2 SLP314 T00111011 10033 20006 50012 $=
201301140453 METAR KCLM 140453Z AUTO 10SM OVC049 01/M02 A3045 RMK AO2 SLP316 T00111017 $=
201301140353 METAR KCLM 140353Z AUTO 10SM OVC050 02/M02 A3046 RMK AO2 SLP318 T00171017 $=
201301140253 METAR KCLM 140253Z AUTO 10SM OVC050 01/M01 A3041 RMK AO2 SLP302 T00061011 58014 $=
201301140153 METAR KCLM 140153Z AUTO 10SM BKN060 OVC075 02/M02 A3045 RMK AO2 SLP315 T00171017 $=
201301140053 METAR KCLM 140053Z AUTO 10SM OVC035 02/M02 A3045 RMK AO2 SLP314 T00221017 $=
201301132353 METAR KCLM 132353Z AUTO 10SM FEW037 BKN060 03/M02 A3045 RMK AO2 SLP316 T00331017 10039 20000 53005 $=
201301132253 METAR KCLM 132253Z AUTO 10SM CLR 03/M02 A3043 RMK AO2 SLP308 T00331017 $=
201301132153 METAR KCLM 132153Z AUTO 10SM FEW120 03/M02 A3043 RMK AO2 SLP309 T00331017 $=
201301132120 SPECI KCLM 132120Z AUTO 10SM FEW020 03/M01 A3043 RMK AO2 T00331011 $=
201301132053 METAR KCLM 132053Z AUTO 10SM BKN019 BKN024 BKN110 03/M01 A3044 RMK AO2 SLP311 T00331011 56005 $=
201301131953 METAR KCLM 131953Z AUTO 10SM CLR 03/M03 A3045 RMK AO2 SLP313 T00281028 $=
201301131905 SPECI KCLM 131905Z AUTO 10SM OVC030 01/M04 A3045 RMK AO2 T00111039 $=
201301131853 METAR KCLM 131853Z AUTO 10SM FEW019 OVC028 01/M04 A3045 RMK AO2 SLP316 T00111039 $=
201301131806 SPECI KCLM 131806Z AUTO 10SM BKN018 BKN030 00/M03 A3045 RMK AO2 T00001033 $=
201301131753 METAR KCLM 131753Z AUTO 10SM FEW018 FEW022 SCT030 00/M04 A3046 RMK AO2 SLP319 T00001039 10000 21028 51006 $=
201301131725 SPECI KCLM 131725Z AUTO 10SM SCT023 M01/M04 A3047 RMK AO2 T10111044 $=
201301131653 METAR KCLM 131653Z AUTO 10SM BKN019 M01/M04 A3046 RMK AO2 SLP319 T10111044 $=
201301131640 SPECI KCLM 131640Z AUTO 10SM BKN020 M02/M05 A3045 RMK AO2 T10171050 $=
201301131553 METAR KCLM 131553Z AUTO 10SM FEW020 M03/M06 A3045 RMK AO2 SLP314 T10281056 $=
201301131453 METAR KCLM 131453Z AUTO 10SM CLR M02/M06 A3044 RMK AO2 SLP313 T10221056 53003 $=
201301131353 METAR KCLM 131353Z AUTO 10SM CLR M03/M06 A3043 RMK AO2 SLP309 T10281056 $=
201301131253 METAR KCLM 131253Z AUTO 10SM CLR M02/M06 A3043 RMK AO2 SLP307 T10221056 $=
201301131153 METAR KCLM 131153Z AUTO 23009KT 10SM M02/M06 A3043 RMK AO2 SLP309 T10221056 11017 21028 $=
201301131053 METAR KCLM 131053Z AUTO 10SM CLR M02/M06 A3044 RMK AO2 SLP310 T10171056 $=
201301130953 METAR KCLM 130953Z AUTO 10SM FEW050 M02/M06 A3043 RMK AO2 SLP309 T10221056 $=
201301130853 METAR KCLM 130853Z AUTO 10SM CLR M03/M06 A3043 RMK AO2 SLP309 T10281056 50004 $=
201301130753 METAR KCLM 130753Z AUTO 10SM CLR M02/M05 A3044 RMK AO2 SLP309 T10171050 400391028 $=
201301130653 METAR KCLM 130653Z AUTO 10SM CLR M02/M05 A3043 RMK AO2 SLP306 T10221050 $=
201301130553 METAR KCLM 130553Z AUTO 10SM CLR M02/M04 A3042 RMK AO2 SLP304 T10171044 10022 21028 53005 $=
201301130453 METAR KCLM 130453Z AUTO 10SM CLR M02/M04 A3040 RMK AO2 SLP300 T10171044 $=
201301130353 METAR KCLM 130353Z AUTO 23006KT 10SM CLR M02/M04 A3041 RMK AO2 SLP302 T10171039 $=
201301130253 METAR KCLM 130253Z AUTO 18003KT 10SM CLR M02/M04 A3041 RMK AO2 SLP300 T10171039 53006=
201301130153 METAR KCLM 130153Z AUTO 17003KT 10SM CLR M01/M03 A3040 RMK AO2 SLP299 T10061033=
201301130053 METAR KCLM 130053Z AUTO 11003KT 10SM FEW030 01/M04 A3039 RMK AO2 SLP293 T00061044=
201301130051 SPECI KCLM 130051Z AUTO 10004KT 10SM SCT030 01/M04 A3039 RMK AO2=
201301122353 METAR KCLM 122353Z AUTO 09004KT 10SM OVC029 02/M04 A3041 RMK AO2 SLP299 T00221039 10039 20011 53005=
201301122253 METAR KCLM 122253Z AUTO 09005KT 10SM OVC026 03/M03 A3039 RMK AO2 SLP294 T00331028=
201301122153 METAR KCLM 122153Z AUTO 09005KT 10SM BKN022 OVC032 02/M03 A3040 RMK AO2 SLP296 T00221028=
201301122053 METAR KCLM 122053Z AUTO 08004KT 10SM BKN019 BKN027 OVC035 03/M02 A3039 RMK AO2 SLP294 T00281022 55001=
201301122048 SPECI KCLM 122048Z AUTO 06005KT 10SM BKN019 BKN025 BKN035 03/M02 A3038 RMK AO2=
201301121953 METAR KCLM 121953Z AUTO 10004KT 10SM BKN035 03/M03 A3039 RMK AO2 SLP293 T00281033=
201301121853 METAR KCLM 121853Z AUTO 10SM OVC036 03/M03 A3039 RMK AO2 SLP295 T00281028 $=
201301121753 METAR KCLM 121753Z AUTO 10SM OVC036 01/M04 A3038 RMK AO2 SLP290 T00061039 10006 21022 51015 $=
201301121653 METAR KCLM 121653Z AUTO 10SM OVC036 M01/M05 A3037 RMK AO2 SLP288 T10111050 $=
201301121553 METAR KCLM 121553Z AUTO 10SM BKN033 M02/M06 A3036 RMK AO2 SLP284 T10171056 $=
201301121453 METAR KCLM 121453Z AUTO 10SM FEW038 M02/M06 A3033 RMK AO2 SLP276 T10171061 53002 $=
201301121408 SPECI KCLM 121408Z AUTO 10SM SCT023 M02/M06 A3032 RMK AO2 T10171056 $=
201301121353 METAR KCLM 121353Z AUTO 10SM BKN022 BKN039 M02/M06 A3033 RMK AO2 SLP274 T10171056 $=
201301121311 SPECI KCLM 121311Z AUTO 10SM BKN026 OVC034 M01/M06 A3032 RMK AO2 T10111056 $=
201301121253 METAR KCLM 121253Z AUTO 10SM BKN032 M02/M06 A3032 RMK AO2 SLP272 T10171056 $=
201301121153 METAR KCLM 121153Z AUTO 10SM CLR M02/M06 A3033 RMK AO2 SLP273 T10221056 11011 21028 53006 $=
201301121053 METAR KCLM 121053Z AUTO 10SM FEW036 M02/M06 A3032 RMK AO2 SLP269 T10221056 $=
201301120953 METAR KCLM 120953Z AUTO 10SM CLR M02/M05 A3032 RMK AO2 SLP269 T10171050 $=
201301120853 METAR KCLM 120853Z AUTO 10SM CLR M02/M05 A3031 RMK AO2 SLP267 T10171050 55000 $=
201301120753 METAR KCLM 120753Z AUTO 10SM CLR M02/M05 A3030 RMK AO2 SLP264 T10171050 400441028 $=
201301120653 METAR KCLM 120653Z AUTO 10SM CLR M02/M04 A3030 RMK AO2 SLP263 T10171044 $=
201301120553 METAR KCLM 120553Z AUTO 10SM CLR M02/M05 A3031 RMK AO2 SLP267 T10171050 10028 21022 53000 $=
201301120453 METAR KCLM 120453Z AUTO 10SM CLR M01/M05 A3030 RMK AO2 SLP264 T10111050 $=
201301120353 METAR KCLM 120353Z AUTO 23006KT 10SM FEW041 M01/M05 A3031 RMK AO2 SLP266 T10111050 $=
201301120253 METAR KCLM 120253Z AUTO 23006KT 10SM CLR M01/M04 A3031 RMK AO2 SLP267 T10111044 58001 $=
201301120153 METAR KCLM 120153Z AUTO 22004KT 10SM CLR M02/M04 A3032 RMK AO2 SLP269 T10171039=
201301120053 METAR KCLM 120053Z AUTO 17003KT 10SM CLR M01/M04 A3032 RMK AO2 SLP270 T10061044=
201301112353 METAR KCLM 112353Z AUTO 08003KT 10SM CLR 03/M07 A3031 RMK AO2 SLP268 T00281072 10044 20022 53005=
201301112253 METAR KCLM 112253Z AUTO 10005KT 10SM CLR 03/M07 A3031 RMK AO2 SLP267 T00331067=
201301112153 METAR KCLM 112153Z AUTO 12006KT 10SM CLR 04/M07 A3030 RMK AO2 SLP263 T00391072=
201301112053 METAR KCLM 112053Z AUTO 11004KT 10SM CLR 04/M08 A3030 RMK AO2 SLP263 T00391078 58001=
201301111953 METAR KCLM 111953Z AUTO 12008KT 10SM CLR 03/M07 A3031 RMK AO2 SLP265 T00331072=
201301111853 METAR KCLM 111853Z AUTO 12005KT 10SM CLR 03/M07 A3032 RMK AO2 SLP270 T00331067=
201301111753 METAR KCLM 111753Z AUTO 15007KT 10SM FEW045 02/M04 A3030 RMK AO2 SLP264 T00221044 10022 21011 51020=
201301111653 METAR KCLM 111653Z AUTO 14005KT 10SM FEW049 M01/M03 A3029 RMK AO2 SLP259 T10061033=
201301111553 METAR KCLM 111553Z AUTO 14005KT 10SM BKN045 M01/M04 A3027 RMK AO2 SLP252 T10061044=
201301111453 METAR KCLM 111453Z AUTO 11004KT 10SM BKN047 02/M07 A3024 RMK AO2 SLP244 T00171067 53020=
201301111353 METAR KCLM 111353Z AUTO 09007KT 10SM BKN050 BKN060 02/M05 A3021 RMK AO2 SLP234 T00221050=
201301111303 SPECI KCLM 111303Z AUTO 16003KT 10SM BKN030 OVC050 01/M01 A3020 RMK AO2 T00111011=
201301111253 METAR KCLM 111253Z AUTO 12003KT 10SM BKN028 BKN050 OVC060 01/M01 A3019 RMK AO2 SLP226 T00061011=
201301111225 SPECI KCLM 111225Z AUTO 23004KT 10SM SCT025 BKN050 OVC060 01/M01 A3019 RMK AO2 T00061006=
201301111216 SPECI KCLM 111216Z AUTO 20003KT 10SM BKN028 OVC050 01/M01 A3019 RMK AO2 T00061006=
201301111153 METAR KCLM 111153Z AUTO 00000KT 10SM FEW019 BKN037 OVC060 01/M01 A3018 RMK AO2 SLP224 70008 T00061011 10033 21006 53012=
201301111053 METAR KCLM 111053Z AUTO 00000KT 10SM BKN050 03/M03 A3017 RMK AO2 SLP220 T00281033=
201301110953 METAR KCLM 110953Z AUTO VRB03KT 10SM FEW023 BKN065 03/M01 A3016 RMK AO2 SLP215 T00281011=
201301110853 METAR KCLM 110853Z AUTO VRB04KT 10SM FEW024 BKN032 OVC043 03/M01 A3015 RMK AO2 SLP212 T00281011 53007=
201301110753 METAR KCLM 110753Z AUTO 23005KT 10SM BKN032 OVC050 01/M01 A3014 RMK AO2 SLP209 T00061006 400391011=
201301110653 METAR KCLM 110653Z AUTO 00000KT 10SM FEW032 OVC043 02/M02 A3014 RMK AO2 SLP209 T00171017=
201301110553 METAR KCLM 110553Z AUTO 20003KT 10SM BKN042 00/M02 A3013 RMK AO2 SLP205 60000 T00001017 10028 20000 53009=
201301110453 METAR KCLM 110453Z AUTO VRB03KT 10SM FEW034 BKN042 OVC049 01/M01 A3012 RMK AO2 SLP201 T00111006=
201301110353 METAR KCLM 110353Z AUTO 00000KT 10SM FEW046 FEW065 01/M01 A3011 RMK AO2 SLP199 T00061006=
201301110253 METAR KCLM 110253Z AUTO 00000KT 10SM BKN055 OVC070 02/01 A3010 RMK AO2 SLP196 60000 T00170006 53003=
201301110153 METAR KCLM 110153Z AUTO 21006KT 10SM OVC040 02/01 A3009 RMK AO2 UPB39E51 SLP194 P0000 T00220006=
201301110113 SPECI KCLM 110113Z AUTO 18005KT 10SM SCT027 BKN041 OVC060 02/01 A3009 RMK AO2 T00220006=
201301110053 METAR KCLM 110053Z AUTO 15005KT 10SM OVC027 02/01 A3009 RMK AO2 UPE05 SLP193 P0000 T00220006=
201301110032 SPECI KCLM 110032Z AUTO 16006KT 10SM BKN028 OVC049 02/01 A3009 RMK AO2 UPE05 P0000 T00220011=
201301110006 SPECI KCLM 110006Z AUTO 14005KT 10SM FEW011 BKN030 OVC049 02/01 A3009 RMK AO2 UPE05 P0000 T00220006=
201301102353 METAR KCLM 102353Z AUTO 00000KT 10SM UP SCT011 OVC028 02/01 A3009 RMK AO2 UPB06E12B50RAB12E31B40E50SNE06B31E40 SLP193 P0004 60008 T00220011 10039 20011 51003=
201301102351 SPECI KCLM 102351Z AUTO 00000KT 10SM UP SCT011 OVC028 02/01 A3009 RMK AO2 UPB06E12B50RAB12E31B40E50SNE06B31E40 P0004=
201301102344 SPECI KCLM 102344Z AUTO 15003KT 3SM -RA BR BKN013 OVC028 02/01 A3009 RMK AO2 UPB06E12RAB12E31B40SNE06B31E40 P0004 T00220006=
201301102337 SPECI KCLM 102337Z AUTO 16003KT 1 1/4SM -SN BR BKN014 OVC028 02/00 A3009 RMK AO2 UPB06E12RAB12E31SNE06B31 P0004 T00220000=
201301102330 SPECI KCLM 102330Z AUTO 14003KT 1 3/4SM RA BR BKN016 OVC028 02/01 A3009 RMK AO2 UPB06E12RAB12SNE06 P0002 T00220011=
201301102253 METAR KCLM 102253Z AUTO 21004KT 4SM -SN BR OVC016 02/01 A3009 RMK AO2 UPB16E26SNE16B26 SLP191 P0000 T00170006=
201301102223 SPECI KCLM 102223Z AUTO 15003KT 10SM UP FEW006 BKN022 OVC027 02/01 A3009 RMK AO2 UPB16SNE16 P0000 T00170006=
201301102208 SPECI KCLM 102208Z AUTO 17004KT 3SM -SN BR SCT006 BKN014 OVC027 02/01 A3009 RMK AO2 P0000 T00170006=
201301102153 METAR KCLM 102153Z AUTO 15006KT 1SM -SN BR SCT007 OVC014 01/00 A3008 RMK AO2 RAE12UPB20E25SNB25 SLP190 P0002 T00110000=
201301102148 SPECI KCLM 102148Z AUTO 14005KT 1SM -SN BR SCT007 OVC012 01/00 A3008 RMK AO2 RAE12UPB20E25SNB25 P0001=
201301102138 SPECI KCLM 102138Z AUTO 14006KT 1 1/2SM -SN BR OVC012 02/00 A3008 RMK AO2 RAE12UPB20E25SNB25 P0000 T00170000=
201301102121 SPECI KCLM 102121Z AUTO 00000KT 10SM UP BKN010 OVC035 03/01 A3008 RMK AO2 RAE12UPB20 P0000 T00280006=
201301102053 METAR KCLM 102053Z AUTO 25007KT 7SM -RA FEW022 SCT029 OVC037 03/01 A3006 RMK AO2 RAB1954 SLP183 P0002 60002 T00330011=
201301101953 METAR KCLM 101953Z AUTO 26007KT 10SM BKN022 OVC033 04/M02 A3007 RMK AO2 SLP184 T00391017=
201301101950 SPECI KCLM 101950Z AUTO 26008KT 10SM BKN024 BKN033 OVC050 04/M02 A3006 RMK AO2=
201301101853 METAR KCLM 101853Z AUTO 25009KT 10SM FEW026 OVC050 03/M02 A3007 RMK AO2 SLP187 T00331022=
201301101753 METAR KCLM 101753Z AUTO 25009KT 10SM OVC055 02/M02 A3006 RMK AO2 SLP184 T00221022 10022 20006 51017=
201301101653 METAR KCLM 101653Z AUTO 10SM SCT050 OVC065 02/M02 A3005 RMK AO2 SLP180 T00221022 $=
201301101553 METAR KCLM 101553Z AUTO 10SM SCT047 OVC055 02/M02 A3004 RMK AO2 SLP176 T00171022 $=
201301101453 METAR KCLM 101453Z AUTO 10SM OVC055 02/M02 A3001 RMK AO2 SLP166 T00171017 53015 $=
201301101353 METAR KCLM 101353Z AUTO 10SM OVC055 02/M02 A2999 RMK AO2 SLP159 T00171017 $=
201301101253 METAR KCLM 101253Z AUTO 10SM SCT049 OVC055 02/M02 A2998 RMK AO2 SLP156 T00171017 $=
201301101153 METAR KCLM 101153Z AUTO 10SM CLR 01/M02 A2997 RMK AO2 SLP152 70008 T00061022 10022 21011 51017 $=
201301101053 METAR KCLM 101053Z AUTO 10SM CLR 01/M02 A2996 RMK AO2 SLP147 T00061022 $=
201301100953 METAR KCLM 100953Z AUTO 10SM CLR 01/M02 A2994 RMK AO2 SLP140 T00111017 $=
201301100853 METAR KCLM 100853Z AUTO 24006KT 10SM CLR 01/M02 A2992 RMK AO2 SLP135 T00061017 51009 $=
201301100753 METAR KCLM 100753Z AUTO 18003KT 10SM CLR M01/M02 A2991 RMK AO2 SLP132 T10061022 400831011 $=
201301100653 METAR KCLM 100653Z AUTO 00000KT 10SM SCT060 M01/M02 A2991 RMK AO2 SLP130 T10061022=
201301100553 METAR KCLM 100553Z AUTO VRB04KT 10SM SCT120 02/M01 A2989 RMK AO2 SLP125 T00221011 10039 20017 51019=
201301100453 METAR KCLM 100453Z AUTO 26009KT 10SM CLR 03/M01 A2988 RMK AO2 SLP119 T00281011=
201301100353 METAR KCLM 100353Z AUTO 25010KT 10SM CLR 03/M01 A2986 RMK AO2 SLP115 T00331006=
201301100253 METAR KCLM 100253Z AUTO 25010KT 10SM CLR 03/M01 A2984 RMK AO2 SLP105 T00281006 51011=
201301100153 METAR KCLM 100153Z AUTO 25009KT 10SM FEW043 SCT050 03/M01 A2983 RMK AO2 SLP103 T00331006=
201301100053 METAR KCLM 100053Z AUTO 23004KT 10SM CLR 03/01 A2982 RMK AO2 SLP099 T00330006=
201301092353 METAR KCLM 092353Z AUTO 26008G20KT 10SM FEW030 SCT048 04/01 A2980 RMK AO2 RAE2259B32E51 SLP094 P0000 60008 T00390011 10078 20033 51014=
201301092304 SPECI KCLM 092304Z AUTO 25008KT 10SM FEW012 BKN034 OVC060 04/02 A2979 RMK AO2 RAE2259 P0000 T00390017=
201301092253 METAR KCLM 092253Z AUTO 25008KT 10SM -RA FEW012 OVC026 03/01 A2980 RMK AO2 PK WND 26029/2230 SLP092 P0002 T00330011=
201301092237 SPECI KCLM 092237Z AUTO 27017G29KT 9SM -RA BKN026 OVC046 04/01 A2980 RMK AO2 PK WND 26029/2230 P0000 T00390011=
201301092222 SPECI KCLM 092222Z AUTO 26011KT 10SM -RA BKN033 OVC049 04/02 A2979 RMK AO2 P0000 T00440017=
201301092153 METAR KCLM 092153Z AUTO 28017G22KT 6SM RA BR OVC018 04/02 A2979 RMK AO2 RAE05B32 SLP089 P0006 T00390017=
201301092144 SPECI KCLM 092144Z AUTO 27015G23KT 5SM RA BKN018 04/01 A2979 RMK AO2 RAE05B32 P0004 T00390011=
201301092053 METAR KCLM 092053Z AUTO 26010KT 10SM -RA FEW028 BKN035 OVC090 06/03 A2976 RMK AO2 PK WND 29027/1957 RAB00E25B34 SLP080 P0000 60000 T00560028 51015=
201301092030 SPECI KCLM 092030Z AUTO 29007KT 10SM BKN033 BKN048 OVC090 05/03 A2976 RMK AO2 PK WND 29027/1957 RAB00E25 P0000 T00500028=
201301092017 SPECI KCLM 092017Z AUTO 28011KT 10SM -RA BKN026 BKN055 04/02 A2976 RMK AO2 PK WND 29027/1957 RAB00 P0000 T00440022=
201301091953 METAR KCLM 091953Z AUTO 29015G23KT 10SM CLR 06/02 A2975 RMK AO2 SLP076 T00610022=
201301091853 METAR KCLM 091853Z AUTO 31009KT 10SM FEW017 06/03 A2974 RMK AO2 SLP073 T00610028=
201301091753 METAR KCLM 091753Z AUTO 29006KT 10SM CLR 06/03 A2972 RMK AO2 SLP065 60000 T00610033 10061 20050 53017=
201301091653 METAR KCLM 091653Z AUTO 26010KT 10SM FEW043 06/03 A2969 RMK AO2 SLP055 T00560028=
201301091553 METAR KCLM 091553Z AUTO 27007KT 10SM OVC110 05/03 A2968 RMK AO2 SLP051 T00500028=
201301091453 METAR KCLM 091453Z AUTO 27005KT 10SM FEW060 BKN085 OVC110 05/03 A2967 RMK AO2 SLP048 60000 T00500033 55010=
201301091353 METAR KCLM 091353Z AUTO 26007KT 10SM BKN049 OVC070 06/04 A2967 RMK AO2 RAE43 SLP048 P0000 T00560039=
201301091253 METAR KCLM 091253Z AUTO 25005KT 10SM -RA OVC047 06/04 A2968 RMK AO2 SLP053 P0000 T00610039=
201301091153 METAR KCLM 091153Z AUTO 29005KT 10SM -RA OVC036 06/05 A2970 RMK AO2 SLP059 P0001 60054 70111 T00610050 10089 20061 50000=
201301091053 METAR KCLM 091053Z AUTO 30006KT 10SM -RA OVC036 07/05 A2971 RMK AO2 SLP064 P0002 T00670050=
201301090953 METAR KCLM 090953Z AUTO 31005KT 10SM -RA OVC038 07/06 A2970 RMK AO2 SLP060 P0002 T00670056=
201301090853 METAR KCLM 090853Z AUTO 31006KT 10SM -RA OVC038 08/06 A2970 RMK AO2 SLP058 P0004 60049 T00780056 53021=
201301090753 METAR KCLM 090753Z AUTO 35004KT 5SM -RA BR FEW006 SCT014 OVC037 08/08 A2968 RMK AO2 SLP053 P0023 T00830078 400890039=
201301090737 SPECI KCLM 090737Z AUTO 32004KT 3SM +RA BR FEW003 BKN011 OVC035 08/08 A2967 RMK AO2 P0018 T00830078=
201301090729 SPECI KCLM 090729Z AUTO 4SM RA BR FEW005 SCT011 OVC037 09/08 A2967 RMK AO2 P0015 T00890078=
201301090653 METAR KCLM 090653Z AUTO 12005KT 4SM RA BR BKN011 OVC038 08/07 A2965 RMK AO2 SLP041 P0022 T00830072=
201301090553 METAR KCLM 090553Z AUTO 00000KT 4SM RA BR OVC046 08/07 A2964 RMK AO2 SLP037 P0019 60042 T00780072 10083 20056 53001=
201301090453 METAR KCLM 090453Z AUTO 16006KT 4SM RA BR OVC047 07/07 A2963 RMK AO2 SLP035 P0012 T00720067=
201301090353 METAR KCLM 090353Z AUTO 13004KT 6SM RA BR OVC050 07/06 A2963 RMK AO2 SLP036 P0008 T00670056=
201301090330 SPECI KCLM 090330Z AUTO 15006KT 5SM RA BR SCT003 OVC050 06/05 A2963 RMK AO2 P0004 T00610050=
201301090253 METAR KCLM 090253Z AUTO VRB05KT 6SM -RA BR BKN002 OVC047 06/05 A2963 RMK AO2 SLP035 P0001 60003 T00610050 58014=
201301090212 SPECI KCLM 090212Z AUTO VRB04KT 6SM -RA BR BKN003 OVC055 06/05 A2964 RMK AO2 P0000 T00560050=
201301090153 METAR KCLM 090153Z AUTO 00000KT 7SM -RA SCT004 OVC050 06/05 A2964 RMK AO2 SLP038 P0001 T00560050=
201301090053 METAR KCLM 090053Z AUTO 00000KT 8SM -RA FEW005 FEW016 OVC055 06/04 A2968 RMK AO2 SLP052 P0001 T00560044=
201301090025 SPECI KCLM 090025Z AUTO 34004KT 5SM -RA BR SCT004 BKN070 OVC085 06/05 A2967 RMK AO2 P0000 T00560050=
201301082353 METAR KCLM 082353Z AUTO 02004KT 5SM -RA BR FEW055 BKN070 OVC090 06/04 A2967 RMK AO2 SLP050 P0000 60008 T00560044 10056 20039 56048=
201301082253 METAR KCLM 082253Z AUTO 13007KT 10SM -RA FEW003 BKN060 OVC075 06/04 A2972 RMK AO2 SLP066 P0001 T00560039=
201301082153 METAR KCLM 082153Z AUTO 09005KT 10SM -RA SCT006 OVC060 06/04 A2977 RMK AO2 RAE29B44 PRESFR SLP082 P0000 T00560039=
201301082129 SPECI KCLM 082129Z AUTO 10005KT 10SM BKN006 OVC065 06/04 A2980 RMK AO2 RAE29 P0000 T00560039=
201301082053 METAR KCLM 082053Z AUTO 00000KT 10SM -RA FEW005 BKN060 OVC075 05/04 A2982 RMK AO2 SLP099 P0001 60007 T00500039 58033=
201301081953 METAR KCLM 081953Z AUTO 00000KT 8SM -RA OVC060 04/03 A2985 RMK AO2 SLP109 P0002 T00390028=
201301081853 METAR KCLM 081853Z AUTO 26003KT 10SM -RA OVC065 04/03 A2989 RMK AO2 SLP122 P0004 T00390028=
201301081806 SPECI KCLM 081806Z AUTO 24003KT 4SM RA BR SCT016 BKN049 OVC060 04/03 A2991 RMK AO2 P0003 T00390028=
201301081753 METAR KCLM 081753Z AUTO 24005KT 5SM RA BR BKN016 OVC047 04/03 A2992 RMK AO2 SLP132 P0003 60007 T00390028 10072 20039 58024=
201301081710 SPECI KCLM 081710Z AUTO 24004KT 5SM RA BR BKN017 OVC026 04/03 A2994 RMK AO2 P0001 T00390028=
201301081653 METAR KCLM 081653Z AUTO 00000KT 6SM -RA BR BKN014 OVC019 04/03 A2996 RMK AO2 SLP146 P0004 T00440028=
201301081651 SPECI KCLM 081651Z AUTO 25003KT 5SM RA BR BKN014 BKN019 OVC024 04/03 A2996 RMK AO2 P0004=
201301081606 SPECI KCLM 081606Z AUTO 00000KT 10SM -RA FEW016 BKN025 OVC038 06/02 A2998 RMK AO2 P0000 T00560017=
201301081553 METAR KCLM 081553Z AUTO 11003KT 10SM -RA SCT029 OVC040 06/02 A2999 RMK AO2 RAB29 SLP156 P0000 T00560017=
201301081453 METAR KCLM 081453Z AUTO 12006KT 10SM OVC070 06/01 A3001 RMK AO2 RAE27 SLP165 P0000 60000 T00610011 58024=
201301081353 METAR KCLM 081353Z AUTO 00000KT 10SM -RA OVC042 06/02 A3006 RMK AO2 RAB45 SLP180 P0000 T00560022=
201301081304 SPECI KCLM 081304Z AUTO 25005KT 10SM SCT015 OVC065 06/02 A3009 RMK AO2 T00610017=
201301081253 METAR KCLM 081253Z AUTO 00000KT 10SM BKN014 OVC065 07/03 A3009 RMK AO2 SLP189 T00670033=
201301081206 SPECI KCLM 081206Z AUTO 16006KT 10SM SCT024 OVC070 07/04 A3010 RMK AO2 T00670044=
201301081153 METAR KCLM 081153Z AUTO 10008KT 10SM SCT018 BKN024 OVC070 07/04 A3011 RMK AO2 SLP196 T00670039 10072 20050 58009=
201301081053 METAR KCLM 081053Z AUTO 21003KT 10SM OVC017 06/03 A3013 RMK AO2 SLP205 T00560028=
201301080953 METAR KCLM 080953Z AUTO 00000KT 10SM OVC021 05/02 A3013 RMK AO2 SLP202 T00500022=
201301080921 SPECI KCLM 080921Z AUTO 18003KT 10SM BKN024 OVC110 05/02 A3013 RMK AO2 T00500017=
201301080853 METAR KCLM 080853Z AUTO 00000KT 10SM BKN110 06/01 A3013 RMK AO2 SLP205 T00610011 51012=
201301080833 SPECI KCLM 080833Z AUTO 25006KT 10SM SCT023 SCT032 BKN120 06/01 A3013 RMK AO2 T00610011=
201301080823 SPECI KCLM 080823Z AUTO 22004KT 10SM BKN023 BKN030 07/01 A3013 RMK AO2 T00670011=
201301080753 METAR KCLM 080753Z AUTO 28006KT 10SM CLR 06/01 A3013 RMK AO2 SLP203 T00610011 401170044=
201301080653 METAR KCLM 080653Z AUTO 24007KT 10SM FEW110 07/01 A3012 RMK AO2 SLP201 T00670011=
201301080553 METAR KCLM 080553Z AUTO 27010KT 10SM CLR 07/01 A3010 RMK AO2 SLP194 T00670011 10100 20061 53012=
201301080453 METAR KCLM 080453Z AUTO 27009KT 10SM CLR 07/01 A3009 RMK AO2 SLP190 T00720011=
201301080353 METAR KCLM 080353Z AUTO 30009KT 10SM CLR 08/02 A3007 RMK AO2 SLP183 T00780017=
201301080253 METAR KCLM 080253Z AUTO 31008KT 10SM CLR 08/02 A3006 RMK AO2 SLP182 T00780017 53022=
201301080153 METAR KCLM 080153Z AUTO 29010KT 10SM FEW120 09/02 A3004 RMK AO2 SLP174 T00890017=
201301080053 METAR KCLM 080053Z AUTO 29012KT 10SM CLR 09/03 A3002 RMK AO2 SLP167 T00940028=
201301072353 METAR KCLM 072353Z AUTO 28013G20KT 10SM CLR 10/04 A3000 RMK AO2 SLP160 T01000039 10117 20072 53031=
201301072253 METAR KCLM 072253Z AUTO 30014G22KT 10SM BKN060 11/06 A2996 RMK AO2 SLP146 T01060061=
201301072200 METAR KCLM NIL=
201301072153 METAR KCLM 072153Z AUTO 30009KT 10SM OVC048 12/06 A2993 RMK AO2 SLP134 T01170061=
201301072053 METAR KCLM 072053Z AUTO VRB03KT 10SM SCT041 OVC050 10/07 A2990 RMK AO2 SLP128 T01000067 53027=
201301071953 METAR KCLM 071953Z AUTO 10004KT 10SM FEW050 OVC065 10/07 A2986 RMK AO2 SLP112 T01000067=
201301071853 METAR KCLM 071853Z AUTO 00000KT 10SM BKN050 OVC060 10/07 A2984 RMK AO2 SLP105 T01000072=
201301071753 METAR KCLM 071753Z AUTO 00000KT 10SM BKN042 OVC055 07/06 A2982 RMK AO2 SLP100 60000 T00720056 10072 20044 53021=
201301071653 METAR KCLM 071653Z AUTO 15004KT 10SM SCT042 OVC050 05/04 A2980 RMK AO2 SLP092 T00500039=
201301071553 METAR KCLM 071553Z AUTO 00000KT 10SM OVC050 05/04 A2978 RMK AO2 PRESRR SLP087 T00500039=
201301071453 METAR KCLM 071453Z AUTO 15004KT 10SM OVC060 04/04 A2976 RMK AO2 RAE33 SLP079 P0000 60000 T00440039 56023=
201301071353 METAR KCLM 071353Z AUTO 00000KT 10SM -RA BKN060 OVC080 04/04 A2978 RMK AO2 SLP085 P0000 T00440039=
201301071253 METAR KCLM 071253Z AUTO 00000KT 10SM -RA OVC070 04/03 A2978 RMK AO2 SLP087 P0000 T00440033=
201301071153 METAR KCLM 071153Z AUTO 22004KT 10SM -RA SCT034 BKN048 OVC060 04/03 A2983 RMK AO2 SLP102 P0000 60000 T00440033 10044 20039 58014=
201301071053 METAR KCLM 071053Z AUTO 00000KT 10SM -RA OVC060 04/03 A2985 RMK AO2 SLP109 P0000 T00440033=
201301070953 METAR KCLM 070953Z AUTO 00000KT 10SM -RA OVC065 04/04 A2986 RMK AO2 SLP112 P0000 T00440039=
201301070853 METAR KCLM 070853Z AUTO 00000KT 10SM -RA OVC070 04/03 A2987 RMK AO2 RAB0755 SLP116 P0000 60000 T00440033 56018=
201301070753 METAR KCLM 070753Z AUTO 16005KT 10SM OVC065 04/03 A2988 RMK AO2 RAE30 SLP120 P0000 T00440033 400720006=
201301070653 METAR KCLM 070653Z AUTO 00000KT 10SM -RA BKN060 OVC075 04/03 A2991 RMK AO2 RAB49 SLP129 P0000 T00440033=
201301070553 METAR KCLM 070553Z AUTO 00000KT 10SM BKN055 OVC080 04/03 A2992 RMK AO2 SLP134 60000 T00440033 10061 20039 58024=
201301070453 METAR KCLM 070453Z AUTO 00000KT 10SM FEW048 SCT060 OVC080 04/03 A2996 RMK AO2 RAB29E51 SLP145 P0000 T00440033=
201301070353 METAR KCLM 070353Z AUTO 00000KT 10SM SCT060 OVC075 04/03 A2998 RMK AO2 RAB38E53 SLP154 P0000 T00440033=
201301070253 METAR KCLM 070253Z AUTO 00000KT 10SM OVC075 04/04 A2999 RMK AO2 SLP159 60000 T00440039 56020=
201301070153 METAR KCLM 070153Z AUTO 00000KT 10SM OVC075 05/04 A3000 RMK AO2 SLP162 T00500039=
201301070053 METAR KCLM 070053Z AUTO 15003KT 10SM BKN075 OVC090 05/04 A3002 RMK AO2 RAB09E34 SLP168 P0000 T00500039=
201301062353 METAR KCLM 062353Z AUTO 00000KT 10SM OVC065 06/04 A3005 RMK AO2 SLP178 T00610039 10072 20039 55009=
201301062253 METAR KCLM 062253Z AUTO 00000KT 10SM OVC060 07/04 A3005 RMK AO2 SLP177 T00670039=
201301062153 METAR KCLM 062153Z AUTO 00000KT 10SM FEW018 BKN065 OVC080 07/03 A3007 RMK AO2 SLP183 T00670033=
201301062142 SPECI KCLM 062142Z AUTO 00000KT 10SM SCT014 BKN065 OVC080 07/04 A3006 RMK AO2 T00670039=
201301062115 SPECI KCLM 062115Z AUTO 00000KT 10SM BKN012 BKN019 OVC065 07/03 A3007 RMK AO2 T00670033=
201301062053 METAR KCLM 062053Z AUTO 00000KT 10SM FEW015 BKN080 OVC100 07/04 A3008 RMK AO2 SLP187 T00670039 58017=
201301061953 METAR KCLM 061953Z AUTO 00000KT 10SM OVC110 07/04 A3008 RMK AO2 SLP188 T00670039=
201301061853 METAR KCLM 061853Z AUTO 00000KT 10SM FEW008 SCT065 OVC080 06/03 A3013 RMK AO2 SLP204 T00610033=
201301061812 SPECI KCLM 061812Z AUTO 25003KT 10SM SCT008 OVC070 04/02 A3013 RMK AO2 T00440022=
201301061753 METAR KCLM 061753Z AUTO 24004KT 10SM FEW065 BKN075 OVC090 04/02 A3013 RMK AO2 SLP204 T00390022 10044 20006 53009=
201301061653 METAR KCLM 061653Z AUTO 25005KT 10SM OVC060 03/02 A3010 RMK AO2 SLP196 T00330017=
201301061553 METAR KCLM 061553Z AUTO 22003KT 10SM BKN055 OVC070 02/01 A3011 RMK AO2 SLP197 T00220011=
201301061453 METAR KCLM 061453Z AUTO VRB03KT 10SM FEW060 FEW080 02/01 A3010 RMK AO2 SLP195 T00170006 58004=
201301061353 METAR KCLM 061353Z AUTO 24006KT 10SM OVC070 02/01 A3010 RMK AO2 SLP196 T00220011=
201301061253 METAR KCLM 061253Z AUTO 22005KT 10SM FEW026 FEW039 02/01 A3012 RMK AO2 SLP200 T00220011=
201301061153 METAR KCLM 061153Z AUTO 22006KT 10SM FEW043 02/01 A3011 RMK AO2 SLP199 T00220011 10044 20011 50002=
201301061053 METAR KCLM 061053Z AUTO 22004KT 10SM FEW065 02/01 A3011 RMK AO2 SLP200 T00220011=
201301060953 METAR KCLM 060953Z AUTO 00000KT 10SM BKN065 BKN085 03/02 A3011 RMK AO2 SLP199 T00280017=
201301060853 METAR KCLM 060853Z AUTO 25004KT 10SM OVC080 03/02 A3011 RMK AO2 SLP197 T00330022 51005=
201301060753 METAR KCLM 060753Z AUTO 19003KT 10SM BKN080 04/02 A3010 RMK AO2 SLP195 T00390022 400780028=
201301060653 METAR KCLM 060653Z AUTO 24004KT 10SM FEW070 OVC090 03/02 A3010 RMK AO2 SLP194 T00330022=
201301060553 METAR KCLM 060553Z AUTO 22003KT 10SM BKN035 04/03 A3009 RMK AO2 SLP192 60000 T00440033 10072 20044 50003=
201301060505 SPECI KCLM 060505Z AUTO 25003KT 10SM OVC031 05/03 A3009 RMK AO2 T00500033=
201301060453 METAR KCLM 060453Z AUTO 00000KT 10SM OVC029 05/04 A3009 RMK AO2 SLP192 T00500039=
201301060425 SPECI KCLM 060425Z AUTO 28003KT 10SM BKN028 BKN070 OVC100 06/03 A3009 RMK AO2 T00560033=
201301060353 METAR KCLM 060353Z AUTO 27004KT 10SM FEW060 SCT080 OVC095 06/03 A3009 RMK AO2 RAE27 SLP191 P0000 T00560033=
201301060253 METAR KCLM 060253Z AUTO 28010KT 10SM -RA SCT008 BKN060 OVC075 06/04 A3008 RMK AO2 RAB09 SLP188 P0000 60000 T00610039 53007=
201301060251 SPECI KCLM 060251Z AUTO 28010KT 10SM -RA SCT008 BKN060 OVC075 06/04 A3008 RMK AO2 RAB09 P0000=
201301060215 SPECI KCLM 060215Z AUTO 26006KT 10SM -RA BKN009 OVC015 07/05 A3007 RMK AO2 RAB09 CIG 008V013 P0000 T00720050=
201301060153 METAR KCLM 060153Z AUTO 25006KT 10SM BKN014 OVC080 07/04 A3007 RMK AO2 SLP184 T00670044=
201301060148 SPECI KCLM 060148Z AUTO 24006KT 10SM BKN014 OVC080 07/04 A3007 RMK AO2=
201301060123 SPECI KCLM 060123Z AUTO 28007KT 10SM FEW012 BKN080 07/04 A3006 RMK AO2 T00670044=
201301060053 METAR KCLM 060053Z AUTO 28008KT 10SM OVC011 07/05 A3006 RMK AO2 SLP181 T00720050=
201301060031 SPECI KCLM 060031Z AUTO 27006KT 10SM BKN011 OVC080 07/05 A3006 RMK AO2 T00720050=
201301052353 METAR KCLM 052353Z AUTO 28009KT 10SM CLR 07/05 A3005 RMK AO2 SLP176 T00720050 10078 20061 55002=
201301052253 METAR KCLM 052253Z AUTO 30010KT 10SM CLR 08/06 A3004 RMK AO2 SLP174 T00780056=
201301052153 METAR KCLM 052153Z AUTO 29009KT 10SM CLR 08/05 A3004 RMK AO2 SLP174 T00780050=
201301052053 METAR KCLM 052053Z AUTO VRB03KT 10SM FEW006 07/06 A3005 RMK AO2 SLP178 T00720056 58022=
201301052033 SPECI KCLM 052033Z AUTO 28008KT 10SM FEW006 07/06 A3007 RMK AO2 T00720056=
201301052001 SPECI KCLM 052001Z AUTO 29007KT 10SM BKN005 07/06 A3007 RMK AO2 T00720056=
201301051953 METAR KCLM 051953Z AUTO 28006KT 10SM SCT005 07/06 A3007 RMK AO2 SLP185 T00720056=
201301051945 SPECI KCLM 051945Z AUTO 29005KT 10SM SCT005 07/06 A3008 RMK AO2 T00670056=
201301051913 SPECI KCLM 051913Z AUTO 29004KT 10SM BKN005 07/05 A3010 RMK AO2 T00670050=
201301051853 METAR KCLM 051853Z AUTO 00000KT 10SM FEW005 07/05 A3010 RMK AO2 SLP196 T00670050=
201301051825 SPECI KCLM 051825Z AUTO 12004KT 10SM FEW006 06/05 A3011 RMK AO2 T00610050=
201301051753 METAR KCLM 051753Z AUTO 00000KT 10SM OVC006 06/05 A3012 RMK AO2 SLP201 60000 T00610050 10061 20056 56009=
201301051716 SPECI KCLM 051716Z AUTO 10008KT 10SM BKN006 BKN120 06/05 A3011 RMK AO2 T00610050=
201301051705 SPECI KCLM 051705Z AUTO 10007KT 10SM SCT006 BKN110 06/05 A3012 RMK AO2 T00610050=
201301051653 METAR KCLM 051653Z AUTO 11008KT 10SM BKN110 06/05 A3012 RMK AO2 SLP201 T00610050=
201301051612 SPECI KCLM 051612Z AUTO 13008KT 10SM SCT003 OVC100 06/05 A3012 RMK AO2 T00610050=
201301051553 METAR KCLM 051553Z AUTO 12010KT 8SM OVC003 06/06 A3012 RMK AO2 RAE28 SLP201 P0000 T00610056=
201301051453 METAR KCLM 051453Z AUTO 00000KT 6SM -RA BR OVC004 06/06 A3014 RMK AO2 RAB14 SLP210 P0000 60000 T00610056 58005=
201301051427 SPECI KCLM 051427Z AUTO 13005KT 8SM -RA OVC004 06/05 A3015 RMK AO2 RAB14 P0000 T00610050=
201301051353 METAR KCLM 051353Z AUTO VRB03KT 10SM OVC005 06/05 A3015 RMK AO2 SLP212 T00610050=
201301051253 METAR KCLM 051253Z AUTO 23004KT 8SM OVC005 06/04 A3016 RMK AO2 SLP215 T00560044=
201301051153 METAR KCLM 051153Z AUTO 23005KT 4SM BR OVC005 06/04 A3016 RMK AO2 SLP215 T00560044 10067 20056 51003=
201301051053 METAR KCLM 051053Z AUTO 00000KT 10SM OVC006 06/04 A3016 RMK AO2 SLP215 T00610044=
201301050953 METAR KCLM 050953Z AUTO 25004KT 10SM OVC007 06/04 A3016 RMK AO2 SLP214 T00560044=
201301050853 METAR KCLM 050853Z AUTO 00000KT 10SM OVC007 07/05 A3015 RMK AO2 SLP211 T00670050 56008=
201301050753 METAR KCLM 050753Z AUTO 12004KT 10SM OVC007 07/04 A3016 RMK AO2 SLP213 T00670044 400780022=
201301050653 METAR KCLM 050653Z AUTO 11004KT 10SM OVC008 06/04 A3017 RMK AO2 SLP218 T00610044=
201301050553 METAR KCLM 050553Z AUTO 13004KT 10SM OVC009 06/04 A3018 RMK AO2 SLP220 T00560044 10067 20056 56008=
201301050549 SPECI KCLM 050549Z AUTO 13003KT 10SM OVC009 06/04 A3018 RMK AO2 CIG 009V012=
201301050522 SPECI KCLM 050522Z AUTO 16003KT 10SM FEW007 BKN014 OVC030 06/04 A3018 RMK AO2 T00560044=
201301050453 METAR KCLM 050453Z AUTO 14006KT 10SM OVC007 06/04 A3018 RMK AO2 SLP223 T00610044=
201301050429 SPECI KCLM 050429Z AUTO 00000KT 10SM OVC009 06/04 A3019 RMK AO2 T00610044=
201301050416 SPECI KCLM 050416Z AUTO 07003KT 10SM OVC010 06/04 A3019 RMK AO2 T00610044=
201301050353 METAR KCLM 050353Z AUTO 00000KT 10SM OVC008 06/04 A3020 RMK AO2 SLP228 T00610044=
201301050253 METAR KCLM 050253Z AUTO 00000KT 10SM OVC008 06/04 A3021 RMK AO2 SLP233 T00610044 56016=
201301050153 METAR KCLM 050153Z AUTO 00000KT 10SM OVC008 07/04 A3022 RMK AO2 SLP236 T00670044=
201301050146 SPECI KCLM 050146Z AUTO 08003KT 10SM OVC009 07/04 A3022 RMK AO2 CIG 007V012 T00670044=
201301050107 SPECI KCLM 050107Z AUTO 14004KT 10SM OVC010 07/04 A3023 RMK AO2 T00670044=
201301050053 METAR KCLM 050053Z AUTO 15004KT 10SM OVC009 06/04 A3023 RMK AO2 SLP238 T00610044=
201301042353 METAR KCLM 042353Z AUTO 13003KT 10SM OVC007 07/04 A3026 RMK AO2 SLP250 T00670044 10078 20067 55003=
201301042253 METAR KCLM 042253Z AUTO 12006KT 10SM OVC009 07/04 A3025 RMK AO2 CIG 007V011 SLP246 T00670044=
201301042221 SPECI KCLM 042221Z AUTO 12005KT 10SM OVC009 07/04 A3025 RMK AO2 CIG 008V014 T00670044=
201301042153 METAR KCLM 042153Z AUTO 11006KT 10SM OVC014 07/04 A3026 RMK AO2 SLP250 T00720044=
201301042053 METAR KCLM 042053Z AUTO 10005KT 10SM OVC010 07/04 A3027 RMK AO2 CIG 009V013 SLP253 T00670039 58001=
201301042015 SPECI KCLM 042015Z AUTO VRB03KT 10SM BKN010 07/04 A3028 RMK AO2 T00720039=
201301041953 METAR KCLM 041953Z AUTO 04004KT 10SM FEW009 07/03 A3028 RMK AO2 SLP256 T00670033=
201301041853 METAR KCLM 041853Z AUTO 13003KT 10SM FEW008 07/03 A3028 RMK AO2 SLP257 T00720033=
201301041827 SPECI KCLM 041827Z AUTO VRB04KT 10SM FEW007 SCT055 BKN075 07/04 A3028 RMK AO2 T00720044=
201301041753 METAR KCLM 041753Z AUTO 00000KT 10SM SCT055 OVC080 07/04 A3027 RMK AO2 SLP254 60000 T00720044 10072 20033 53019=
201301041709 SPECI KCLM 041709Z AUTO 00000KT 10SM SCT007 BKN080 04/03 A3026 RMK AO2 T00440033=
201301041653 METAR KCLM 041653Z AUTO 18003KT 10SM BKN007 OVC055 04/03 A3025 RMK AO2 RAB31E41 SLP246 P0000 T00440033=
201301041553 METAR KCLM 041553Z AUTO 00000KT 10SM OVC006 04/03 A3023 RMK AO2 RAE19 SLP240 P0000 T00390033=
201301041453 METAR KCLM 041453Z AUTO 00000KT 10SM -RA OVC006 04/03 A3022 RMK AO2 RAB50 SLP236 P0000 60000 T00390028 51013=
201301041353 METAR KCLM 041353Z AUTO 20003KT 10SM OVC007 03/02 A3021 RMK AO2 SLP233 T00330022=
201301041253 METAR KCLM 041253Z AUTO 23003KT 10SM OVC007 03/02 A3019 RMK AO2 SLP225 T00330022=
201301041153 METAR KCLM 041153Z AUTO 23003KT 10SM OVC007 03/02 A3018 RMK AO2 SLP221 T00330017 10050 20017 51028=
201301041053 METAR KCLM 041053Z AUTO 28003KT 10SM OVC007 05/03 A3017 RMK AO2 SLP218 T00500033=
201301041007 SPECI KCLM 041007Z AUTO 24005KT 10SM OVC013 03/02 A3015 RMK AO2 T00330017=
201301040953 METAR KCLM 040953Z AUTO 24007KT 10SM OVC016 03/02 A3014 RMK AO2 SLP208 T00280017=
201301040943 SPECI KCLM 040943Z AUTO 24005KT 10SM BKN016 OVC055 03/01 A3013 RMK AO2 T00280011=
201301040853 METAR KCLM 040853Z AUTO 23004KT 10SM FEW033 OVC060 02/01 A3010 RMK AO2 SLP194 T00220011 51011=
201301040821 SPECI KCLM 040821Z AUTO 24006KT 10SM FEW020 SCT050 OVC065 03/02 A3009 RMK AO2 T00330017=
201301040753 METAR KCLM 040753Z AUTO 24007KT 10SM BKN020 BKN055 BKN070 03/01 A3008 RMK AO2 SLP190 T00280011 400501039=
201301040750 SPECI KCLM 040750Z AUTO 25006KT 10SM BKN020 BKN070 03/01 A3008 RMK AO2=
201301040653 METAR KCLM 040653Z AUTO 24006KT 10SM FEW050 SCT065 BKN100 02/01 A3006 RMK AO2 SLP183 T00220006=
201301040553 METAR KCLM 040553Z AUTO 24009KT 10SM BKN055 OVC070 03/01 A3005 RMK AO2 RAE50 SLP179 P0000 60000 T00280011 10039 20017 55005=
201301040453 METAR KCLM 040453Z AUTO 25010KT 10SM -RA FEW019 SCT049 OVC060 03/01 A3005 RMK AO2 UPB01E03 SLP178 P0000 T00330011=
201301040353 METAR KCLM 040353Z AUTO 25010KT 10SM -RA OVC055 03/01 A3006 RMK AO2 RAB19 SLP181 P0000 T00330006=
201301040253 METAR KCLM 040253Z AUTO 24006KT 10SM FEW048 OVC090 03/01 A3007 RMK AO2 RAB13E46 SLP184 P0000 60000 T00280006 58004=
201301040153 METAR KCLM 040153Z AUTO 00000KT 10SM BKN060 OVC090 02/00 A3008 RMK AO2 SLP188 T00220000=
201301040053 METAR KCLM 040053Z AUTO 13004KT 10SM BKN090 02/M01 A3007 RMK AO2 SLP186 T00221011=
201301032353 METAR KCLM 032353Z AUTO 00000KT 10SM FEW060 BKN080 OVC095 04/M01 A3008 RMK AO2 SLPNO T00391011 10050 20006 55003=
201301032253 METAR KCLM 032253Z AUTO 26004KT 10SM CLR 04/M01 A3008 RMK AO2 SLP187 T00441011=
201301032153 METAR KCLM 032153Z AUTO VRB03KT 10SM CLR 05/M01 A3009 RMK AO2 SLP191 T00501011=
201301032053 METAR KCLM 032053Z AUTO 05003KT 10SM CLR 04/M02 A3009 RMK AO2 SLP191 T00441017 $=
201301031953 METAR KCLM 031953Z AUTO 10SM BKN019 04/M01 A3011 RMK AO2 SLP199 T00441006 $=
201301031945 SPECI KCLM 031945Z AUTO 10SM BKN019 04/00 A3011 RMK AO2 T00440000 $=
201301031853 METAR KCLM 031853Z AUTO 10SM CLR 03/M01 A3011 RMK AO2 SLP200 T00331006 $=
201301031753 METAR KCLM 031753Z AUTO 10SM CLR 01/M01 A3011 RMK AO2 SLP198 I6300 T00061006 10006 21039 55000=
201301031653 METAR KCLM 031653Z AUTO 00000KT 10SM CLR M02/M03 A3010 RMK AO2 SLP195 I1299 T10221028 PWINO FZRANO $=
201301031553 METAR KCLM 031553Z AUTO 7SM CLR M02/M03 A3010 RMK AO2 SLP196 I1000 T10221033 $=
201301031453 METAR KCLM 031453Z AUTO 14004KT 10SM CLR M03/M04 A3011 RMK AO2 SLP199 I3001 T10331039 $=
201301031353 METAR KCLM 031353Z AUTO 00000KT 10SM CLR M02/M03 A3012 RMK AO2 SLP203 I1001 T10171033 $=
201301031253 METAR KCLM 031253Z AUTO 13003KT 9SM CLR M02/M02 A3013 RMK AO2 SLP206 I1000 T10171022 $=
201301031200 METAR KCLM NIL=
201301031144 SPECI KCLM 031144Z AUTO 7SM BKN015 M02/M02 A3016 RMK AO2 I1000 T10171022 $=
201301031053 METAR KCLM 031053Z AUTO 10SM CLR M01/M02 A3017 RMK AO2 SLP220 I1000 T10111022 $=
201301030953 METAR KCLM 030953Z AUTO 10SM FEW015 01/00 A3018 RMK AO2 SLP220 T00110000 $=
201301030853 METAR KCLM 030853Z AUTO 10SM CLR 01/M01 A3018 RMK AO2 SLP222 T00061011 $=
201301030753 METAR KCLM 030753Z AUTO 10SM CLR M01/M01 A3019 RMK AO2 SLP226 T10061011 400611022 $=
201301030653 METAR KCLM 030653Z AUTO 10SM CLR 00/M01 A3020 RMK AO2 SLP228 T00001011 $=
201301030553 METAR KCLM 030553Z AUTO 10SM CLR 01/M01 A3020 RMK AO2 SLP229 I1000 I6000 T00061006 10033 21022 55007 $=
201301030453 METAR KCLM 030453Z AUTO 00000KT 8SM CLR M01/M03 A3019 RMK AO2 SLP227 I1000 T10111028 $=
201301030353 METAR KCLM 030353Z AUTO 00000KT 10SM CLR M01/M02 A3021 RMK AO2 SLP232 T10111022=
201301030253 METAR KCLM 030253Z AUTO 00000KT 10SM CLR M01/M03 A3022 RMK AO2 SLP236 T10111028 56010=
201301030153 METAR KCLM 030153Z AUTO 22005KT 10SM CLR 00/M01 A3022 RMK AO2 SLP238 T00001011=
201301030053 METAR KCLM 030053Z AUTO 00000KT 10SM FEW019 02/00 A3024 RMK AO2 SLP243 T00220000=
201301022353 METAR KCLM 022353Z AUTO 23004KT 10SM CLR 03/00 A3025 RMK AO2 SLP246 T00330000 10061 20028 56003=
201301022253 METAR KCLM 022253Z AUTO 00000KT 10SM CLR 06/M01 A3025 RMK AO2 SLP245 T00611011=
201301022153 METAR KCLM 022153Z AUTO 00000KT 10SM CLR 06/00 A3025 RMK AO2 SLP246 T00610000=
201301022053 METAR KCLM 022053Z AUTO 06003KT 10SM FEW017 06/01 A3026 RMK AO2 SLP248 T00610006 57009=
201301021953 METAR KCLM 021953Z AUTO 09005KT 10SM CLR 06/01 A3027 RMK AO2 SLP252 T00560006=
201301021853 METAR KCLM 021853Z AUTO 09006KT 10SM CLR 04/01 A3027 RMK AO2 SLP253 T00440006=
201301021753 METAR KCLM 021753Z AUTO 13005KT 10SM CLR 02/01 A3028 RMK AO2 SLP258 T00220006 10028 21011 55000=
201301021653 METAR KCLM 021653Z AUTO 10SM CLR 01/M01 A3028 RMK AO2 SLP256 T00061006 $=
201301021553 METAR KCLM 021553Z AUTO 16005KT 10SM CLR M01/M02 A3028 RMK AO2 SLP257 T10061017=
201301021453 METAR KCLM 021453Z AUTO 14004KT 10SM CLR 00/M01 A3029 RMK AO2 SLP258 T00001011 56008=
201301021401 SPECI KCLM 021401Z AUTO 14003KT 9SM SCT015 M01/M02 A3029 RMK AO2 T10111017=
201301021353 METAR KCLM 021353Z AUTO 18003KT 9SM BKN015 00/M01 A3029 RMK AO2 SLP260 T00001006=
201301021253 METAR KCLM 021253Z AUTO 15004KT 10SM CLR 00/M01 A3030 RMK AO2 SLP262 T00001011=
201301021153 METAR KCLM 021153Z AUTO 15004KT 10SM SCT011 01/M01 A3031 RMK AO2 SLP267 T00111006 10039 20011 56007=
201301021124 SPECI KCLM 021124Z AUTO 15004KT 10SM FEW012 02/M01 A3032 RMK AO2 T00171006=
201301021053 METAR KCLM 021053Z AUTO 11004KT 10SM BKN012 02/00 A3032 RMK AO2 SLP270 T00220000=
201301021043 SPECI KCLM 021043Z AUTO 14004KT 10SM SCT014 02/M01 A3032 RMK AO2 T00171006=
201301020953 METAR KCLM 020953Z AUTO 14005KT 10SM OVC016 03/00 A3032 RMK AO2 SLP269 T00280000=
201301020853 METAR KCLM 020853Z AUTO 14004KT 10SM BKN015 02/00 A3033 RMK AO2 SLP274 T00170000 58010=
201301020753 METAR KCLM 020753Z AUTO 13004KT 10SM OVC017 02/00 A3035 RMK AO2 SLP281 T00220000 400500017=
201301020653 METAR KCLM 020653Z AUTO 14005KT 10SM OVC016 03/01 A3036 RMK AO2 SLP281 T00330006=
201301020553 METAR KCLM 020553Z AUTO 13006KT 10SM OVC016 03/01 A3036 RMK AO2 SLP284 T00330006 10044 20017 57006=
201301020453 METAR KCLM 020453Z AUTO 13007KT 10SM OVC015 03/01 A3037 RMK AO2 SLP285 T00330006=
201301020353 METAR KCLM 020353Z AUTO 14006KT 10SM OVC015 03/01 A3038 RMK AO2 SLP290 T00280006=
201301020341 SPECI KCLM 020341Z AUTO 14005KT 10SM BKN015 02/00 A3038 RMK AO2 T00220000=
201301020253 METAR KCLM 020253Z AUTO 12007KT 10SM FEW016 02/00 A3038 RMK AO2 SLP291 T00220000 58018=
201301020220 SPECI KCLM 020220Z AUTO 11006KT 10SM SCT015 03/01 A3039 RMK AO2 T00280006=
201301020153 METAR KCLM 020153Z AUTO 12006KT 10SM BKN016 03/01 A3040 RMK AO2 SLP296 T00280006=
201301020141 SPECI KCLM 020141Z AUTO 10006KT 10SM SCT016 03/00 A3040 RMK AO2 T00280000=
201301020053 METAR KCLM 020053Z AUTO 10005KT 10SM OVC017 04/01 A3042 RMK AO2 SLP305 T00440006=
201301020000 SPECI KCLM 020000Z AUTO 09005KT 10SM OVC016 04/01 A3043 RMK AO2 T00440011=
201301012353 METAR KCLM 012353Z AUTO 09005KT 10SM OVC014 04/01 A3043 RMK AO2 SLP307 T00440011 10050 20044 56007=
201301012253 METAR KCLM 012253Z AUTO 11007KT 10SM OVC014 04/01 A3045 RMK AO2 SLP312 T00440011=
201301012208 SPECI KCLM 012208Z AUTO 09006KT 10SM OVC014 04/01 A3044 RMK AO2 T00440011=
201301012153 METAR KCLM 012153Z AUTO 08005KT 10SM OVC015 04/01 A3044 RMK AO2 SLP308 T00440011=
201301012053 METAR KCLM 012053Z AUTO 08007KT 10SM OVC016 05/01 A3045 RMK AO2 SLP315 T00500011 56016=
201301011953 METAR KCLM 011953Z AUTO 11005KT 10SM OVC017 05/01 A3047 RMK AO2 SLP320 T00500011=
201301011853 METAR KCLM 011853Z AUTO 14006KT 10SM OVC018 05/01 A3048 RMK AO2 SLP324 T00500011=
201301011753 METAR KCLM 011753Z AUTO 14003KT 10SM OVC019 04/01 A3050 RMK AO2 SLP331 T00440011 10044 20033 53016=
201301011653 METAR KCLM 011653Z AUTO 16004KT 10SM OVC021 04/01 A3047 RMK AO2 SLP321 T00390006=
201301011553 METAR KCLM 011553Z AUTO 15006KT 10SM OVC018 04/01 A3047 RMK AO2 SLP320 T00390006=
201301011453 METAR KCLM 011453Z AUTO 16004KT 10SM OVC021 04/01 A3045 RMK AO2 SLP315 T00390006 53004=
201301011353 METAR KCLM 011353Z AUTO 15006KT 10SM OVC021 04/01 A3043 RMK AO2 SLP307 T00390011=
201301011253 METAR KCLM 011253Z AUTO 12006KT 10SM OVC016 04/01 A3043 RMK AO2 SLP308 T00440011=
201301011153 METAR KCLM 011153Z AUTO 12006KT 10SM OVC017 04/02 A3044 RMK AO2 SLP311 70001 T00440017 10044 20028 58005=
201301011053 METAR KCLM 011053Z AUTO 12004KT 10SM OVC017 04/02 A3046 RMK AO2 SLP316 T00390017=
201301010953 METAR KCLM 010953Z AUTO 22005KT 10SM OVC015 03/02 A3047 RMK AO2 SLP322 T00280017=
201301010936 SPECI KCLM 010936Z AUTO 22004KT 10SM OVC015 03/02 A3047 RMK AO2 T00330017=
201301010853 METAR KCLM 010853Z AUTO 00000KT 10SM OVC014 04/02 A3046 RMK AO2 SLP316 T00390022 51009=
201301010834 SPECI KCLM 010834Z AUTO 00000KT 10SM OVC014 04/02 A3045 RMK AO2 T00390017=
201301010753 METAR KCLM 010753Z AUTO 17004KT 10SM OVC015 04/02 A3045 RMK AO2 SLP312 T00390017 400390017=
201301010653 METAR KCLM 010653Z AUTO 00000KT 10SM OVC016 04/01 A3044 RMK AO2 SLP313 T00390011=
201301010553 METAR KCLM 010553Z AUTO 00000KT 10SM OVC016 04/02 A3043 RMK AO2 SLP308 60000 T00390022 10039 20028 53014=
201301010453 METAR KCLM 010453Z AUTO 00000KT 10SM OVC015 04/02 A3041 RMK AO2 SLP299 T00390017=
201301010437 SPECI KCLM 010437Z AUTO 00000KT 10SM OVC016 04/02 A3040 RMK AO2 T00390022=
201301010415 SPECI KCLM 010415Z AUTO 10003KT 10SM OVC014 03/02 A3040 RMK AO2 T00330022=
201301010353 METAR KCLM 010353Z AUTO 13003KT 10SM OVC016 03/02 A3040 RMK AO2 SLP296 T00330022=
201301010336 SPECI KCLM 010336Z AUTO 13004KT 10SM OVC015 03/02 A3040 RMK AO2 T00330022=
201301010253 METAR KCLM 010253Z AUTO 17003KT 10SM OVC011 03/02 A3039 RMK AO2 SLP294 60000 T00330022 53011=
201301010221 SPECI KCLM 010221Z AUTO 00000KT 10SM OVC013 03/02 A3038 RMK AO2 T00330022=
201301010213 SPECI KCLM 010213Z AUTO 00000KT 10SM BKN015 OVC021 03/02 A3038 RMK AO2 T00330017=
201301010153 METAR KCLM 010153Z AUTO 00000KT 10SM BKN014 OVC021 03/02 A3037 RMK AO2 RAE00 SLP287 P0000 T00330017=
201301010053 METAR KCLM 010053Z AUTO 00000KT 10SM -RA OVC011 03/02 A3037 RMK AO2 RAB12 SLP286 P0000 T00330017=

# No short TAF reports from KCLM in databse.

###################################
#  large TAF from KCLM
###################################
201301312341 TAF KCLM 312341Z 0100/0124 VRB03KT P6SM SCT007 OVC015 FM010600
                       VRB03KT 5SM BR OVC007 FM012000 VRB03KT P6SM
                       OVC015 FM012200 VRB03KT P6SM BKN025 BKN250=
201301312020 TAF AMD KCLM 312020Z 3120/0118 VRB03KT P6SM SCT008 SCT015 BKN200
                       TEMPO 3120/3124 SCT008 BKN015 OVC050 FM010000
                       VRB03KT P6SM OVC015=
201301311744 TAF KCLM 311744Z 3118/0118 VRB03KT P6SM SCT030 OVC050
                      TEMPO 3118/3122 -RA BKN030 OVC050 FM312200
                       VRB03KT P6SM BKN022 OVC050
                      TEMPO 3122/3124 -RA FM010000 VRB03KT P6SM
                       OVC015=
201301311141 TAF KCLM 311141Z 3112/0112 26006KT P6SM SCT025 BKN040 OVC060 FM311600
                       VRB03KT P6SM -RA SCT006 BKN012 OVC020 FM312300
                       27008KT P6SM SCT012 BKN022 OVC035=
201301310909 TAF AMD KCLM 310909Z 3109/0106 26006KT P6SM SCT025 BKN040 OVC060
                       FM311600 VRB03KT P6SM -RA SCT006 BKN012
                       OVC020 FM312300 27008KT P6SM SCT012 BKN022
                       OVC035=
201301310540 TAF KCLM 310540Z 3106/0106 00000KT 4SM BR BKN004 OVC010
                      TEMPO 3106/3110 1SM -RA BR FM311200 VRB03KT
                       5SM BR SCT004 OVC008 FM311600 VRB03KT P6SM
                       -RA SCT006 BKN012 OVC020 FM312300 27008KT
                       P6SM SCT012 BKN022 OVC035=
201301310323 TAF AMD KCLM 310323Z 3103/3124 00000KT P6SM OVC006
                      TEMPO 3103/3107 4SM -DZ BR OVC003 FM310800
                       23004KT P6SM VCSH BKN015 OVC045 FM311600
                       VRB03KT P6SM VCSH OVC050=
201301302334 TAF KCLM 302334Z 3100/3124 00000KT P6SM OVC006 FM310800 23004KT
                       P6SM VCSH BKN015 OVC045 FM311600 VRB03KT
                       P6SM VCSH OVC050=
201301301735 TAF KCLM 301735Z 3018/3118 24004KT P6SM OVC012
                      TEMPO 3020/3024 6SM -DZ BR OVC009 FM310800
                       23004KT P6SM VCSH BKN015 OVC045 FM311600
                       VRB03KT P6SM VCSH OVC050=
201301301349 TAF AMD KCLM 301349Z 3014/3112 27004KT P6SM BKN008 OVC016
                      TEMPO 3014/3017 SCT008 SCT020 OVC040 FM301700
                       VRB03KT 4SM -RA BR SCT008 OVC015 FM310100
                       VRB03KT P6SM SCT020 OVC040=
201301301142 TAF KCLM 301142Z 3012/3112 VRB03KT P6SM SCT020 OVC040 FM301700
                       VRB03KT 4SM -RA BR SCT008 OVC015 FM310100
                       VRB03KT P6SM SCT020 OVC040=
201301300539 TAF KCLM 300539Z 3006/3106 VRB03KT P6SM -RA BKN016 OVC040 FM301000
                       VRB03KT P6SM SCT020 OVC040 FM301500 VRB03KT
                       4SM -RA BR SCT008 OVC015 FM310100 VRB03KT
                       P6SM SCT020 OVC040=
201301300226 TAF AMD KCLM 300226Z 3002/3024 00000KT P6SM BKN018 BKN035 OVC050
                       FM300300 28008KT P6SM -RA OVC015 FM300600
                       26006KT P6SM -RA OVC015 FM301300 26006KT
                       4SM -RA BR SCT008 OVC015
                      TEMPO 3013/3017 3SM -RA BR OVC008=
201301292320 TAF KCLM 292320Z 3000/3024 28005KT P6SM SCT022 OVC035 FM300300
                       28008KT P6SM -RA OVC022 FM300600 26006KT
                       P6SM -RA OVC018 FM301300 26006KT 4SM -RA
                       BR SCT008 OVC015
                      TEMPO 3013/3017 3SM -RA BR OVC008=
201301291729 TAF KCLM 291729Z 2918/3018 28008KT P6SM BKN035 OVC060 FM300300
                       28008KT P6SM -RA SCT025 OVC035 FM300600
                       26006KT P6SM -RA OVC025 FM301200 26006KT
                       6SM -RA BR OVC022=
201301291140 TAF KCLM 291140Z 2912/3012 28012G18KT P6SM SCT030 OVC045 FM291800
                       28008KT P6SM SCT035 OVC060 FM300300 28008KT
                       P6SM -RA SCT020 OVC030=
201301290538 TAF KCLM 290538Z 2906/3006 28012G22KT P6SM SCT035 OVC050 FM291200
                       28008KT P6SM SCT035 OVC050 FM300100 28008KT
                       P6SM -RA SCT020 OVC030=
201301282337 TAF KCLM 282337Z 2900/2924 26010KT P6SM -RA SCT028 OVC050 FM290400
                       28013G22KT P6SM -RA BKN022 OVC040 FM291200
                       28011KT P6SM BKN028 OVC050
                      PROB30 2912/2918 -RA FM291800 25005KT P6SM
                       -RA SCT012 OVC028=
201301282104 TAF AMD KCLM 282104Z 2821/2918 26010KT P6SM -RA SCT028 OVC050
                      TEMPO 2822/2902 BKN028 OVC050 FM290200 28015G25KT
                       P6SM -RA BKN012 OVC028 FM290600 28013G20KT
                       P6SM OVC015
                      PROB30 2906/2912 -SHRA FM291200 31009KT P6SM
                       BKN015 OVC030=
201301281744 TAF KCLM 281744Z 2818/2918 25010KT P6SM VCSH FEW028 OVC040 FM282000
                       25010KT P6SM -RA SCT012 OVC028
                      TEMPO 2820/2824 BKN012 OVC028 FM290000 28015G25KT
                       P6SM -RA BKN012 OVC028 FM290600 28013G20KT
                       P6SM OVC015
                      PROB30 2906/2912 -SHRA FM291200 31009KT P6SM
                       BKN015 OVC030=
201301281642 TAF AMD KCLM 281642Z 2817/2912 26012KT P6SM VCSH FEW030 BKN050
                       OVC100 FM282000 27016G26KT P6SM -RA SCT018
                       OVC025 FM290600 26012KT P6SM VCSH OVC025=
201301281516 TAF AMD KCLM 281516Z 2815/2912 28012KT P6SM VCSH FEW030 BKN050
                       OVC100
                      TEMPO 2815/2817 28010G20KT FM282000 27016G26KT
                       P6SM -RA SCT018 OVC025 FM290600 26012KT
                       P6SM VCSH OVC025=
201301281135 TAF KCLM 281135Z 2812/2912 27012KT P6SM OVC045 FM281300 27012KT
                       P6SM -SHRA SCT020 OVC030 FM282000 27016G26KT
                       P6SM -RA SCT018 OVC025 FM290600 26012KT
                       P6SM VCSH OVC025=
201301280905 TAF AMD KCLM 280905Z 2809/2906 26010KT P6SM SCT040 OVC110
                      TEMPO 2809/2813 BKN040 FM281300 27012KT P6SM
                       -SHRA SCT020 OVC030 FM282000 27014G22KT
                       P6SM -SHRA SCT018 OVC025=
201301280535 TAF KCLM 280535Z 2806/2906 24007KT P6SM OVC030 FM281500 27012KT
                       P6SM -SHRA SCT020 OVC030 FM282000 27014G22KT
                       P6SM -SHRA SCT018 OVC025=
201301272328 TAF KCLM 272328Z 2800/2824 26007KT P6SM -SHRA SCT025 OVC035 FM280600
                       26012KT P6SM BKN030 OVC050 FM281500 27012KT
                       P6SM -SHRA SCT020 OVC030 FM282000 27014G22KT
                       P6SM -SHRA SCT018 OVC025=
201301271726 TAF KCLM 271726Z 2718/2818 26007KT P6SM -SHRA FEW009 SCT020 OVC030
                       TEMPO 2718/2721 BKN020 FM280400 26012KT
                       P6SM VCSH BKN025 OVC050 FM280900 27012KT
                       P6SM SCT035 BKN060=
201301271135 TAF KCLM 271135Z 2712/2812 26007KT P6SM VCSH BKN045 OVC060 FM271600
                       26005KT P6SM -RA OVC015 FM280400 26012KT
                       P6SM VCSH BKN030 OVC060 FM280900 27012KT
                       P6SM SCT035 BKN060=
201301270535 TAF KCLM 270535Z 2706/2806 23003KT P6SM VCSH OVC050 FM271600 26005KT
                       P6SM -SHRA OVC015=
201301262320 TAF KCLM 262320Z 2700/2724 VRB03KT P6SM VCSH SCT015 BKN035 OVC060
                       FM270600 23004KT P6SM VCSH OVC020 FM271700
                       26005KT P6SM -RA OVC015=
201301261720 TAF KCLM 261720Z 2618/2718 VRB03KT P6SM VCSH SCT015 BKN035 OVC060
                       TEMPO 2618/2622 -RA OVC035 FM270600 23004KT
                       P6SM VCSH OVC020=
201301261444 TAF AMD KCLM 261444Z 2615/2712 25006KT P6SM -SHRA SCT007 OVC035
                       TEMPO 2615/2618 -SHRA BKN007 OVC015 FM261800
                       VRB03KT P6SM VCSH SCT015 BKN035 OVC060 FM270600
                       23004KT P6SM VCSH OVC020=
201301261135 TAF KCLM 261135Z 2612/2712 25004KT P6SM -RA SCT008 BKN013 OVC030
                       FM261800 VRB03KT P6SM VCSH SCT015 BKN035
                       OVC060 FM270600 23004KT P6SM VCSH OVC020=
201301260538 TAF KCLM 260538Z 2606/2706 22004KT P6SM FEW100 BKN120 FM261200
                       22003KT P6SM -RA OVC015 FM261800 VRB03KT
                       P6SM OVC015
                      TEMPO 2618/2622 -RA OVC010=
201301252325 TAF KCLM 252325Z 2600/2624 28006KT P6SM SCT010 BKN060 FM260200
                       VRB03KT P6SM SCT030 OVC060 FM261200 22003KT
                       P6SM -RA OVC015 FM261800 VRB03KT P6SM OVC015
                       TEMPO 2618/2622 -RA OVC010=
201301251720 TAF KCLM 251720Z 2518/2618 28006KT P6SM SCT020 BKN030 BKN060 FM260200
                       VRB03KT P6SM SCT035 OVC060 FM261400 22003KT
                       P6SM -RA OVC015=
201301251135 TAF KCLM 251135Z 2512/2612 00000KT 6SM BR SCT020
                      TEMPO 2514/2518 -SHRA BKN020 FM251800 28006KT
                       P6SM VCSH SCT020 BKN030 BKN060 FM260200
                       VRB03KT P6SM SCT035 OVC060=
201301250905 TAF AMD KCLM 250905Z 2509/2606 22006KT P6SM OVC060
                      TEMPO 2509/2512 2SM -RA BR OVC018 FM251200
                       24004KT P6SM VCSH BKN040 OVC050
                      TEMPO 2513/2517 -RA BKN010 OVC040 FM252000
                       28006KT P6SM VCSH SCT020 BKN030 BKN060=
201301250556 TAF KCLM 250556Z 2506/2606 23003KT P6SM SCT020 OVC080
                      TEMPO 2506/2510 2SM -RA BR OVC018 FM251200
                       24004KT P6SM VCSH BKN040 OVC050
                      TEMPO 2513/2517 -RA BKN010 OVC040 FM252000
                       28006KT P6SM VCSH SCT020 BKN030 BKN060=
201301250535 TAF KCLM 250535Z 2506/2606 23003KT P6SM BKN070 OVC080 FM251200
                       24004KT P6SM VCSH BKN040 OVC050
                      TEMPO 2513/2517 -RA BKN010 OVC040 FM252000
                       28006KT P6SM VCSH SCT020 BKN030 BKN060=
201301250305 TAF AMD KCLM 250305Z 2503/2524 24006KT P6SM SCT009 BKN040 OVC080
                       TEMPO 2503/2506 6SM -RA BR BKN009 OVC030
                       FM250600 VRB03KT P6SM -SHRA BKN009 OVC040
                       FM251400 24004KT P6SM VCSH BKN040 OVC050
                       TEMPO 2514/2517 -RA BKN010 OVC040=
201301250126 TAF AMD KCLM 250126Z 2501/2524 10003KT P6SM -RA BKN009 OVC020 FM250400
                       VRB03KT P6SM -SHRA BKN009 OVC040 FM251400
                       24004KT P6SM VCSH BKN040 OVC050
                      TEMPO 2514/2517 -RA BKN010 OVC040=
201301242320 TAF KCLM 242320Z 2500/2524 24002KT P6SM -RA OVC050 FM250600 15002KT
                       P6SM -RA OVC015 FM251300 24004KT P6SM OVC020
                       TEMPO 2513/2517 -RA OVC015=
201301241720 TAF KCLM 241720Z 2418/2518 23005KT P6SM FEW015 SCT035 FM242000
                       09004KT P6SM SCT035 SCT120 OVC250 FM250000
                       24002KT P6SM -RA OVC050 FM250600 15002KT
                       P6SM -RA OVC015=
201301241130 TAF KCLM 241130Z 2412/2512 23005KT P6SM SCT015 BKN035
                      TEMPO 2412/2416 BKN015 OVC035 FM242000 09004KT
                       P6SM SCT035 BKN120 OVC250 FM250000 24002KT
                       P6SM -RA OVC050 FM250600 15002KT P6SM -RA
                       OVC015=
201301240900 TAF AMD KCLM 240900Z 2409/2506 25008KT P6SM SKC FM241200 25006KT
                       P6SM OVC010 FM242000 09004KT P6SM SCT035
                       BKN120 OVC250 FM250000 24002KT P6SM -RA
                       OVC050=
201301240535 TAF KCLM 240535Z 2406/2506 27011KT P6SM FEW045 SCT070 FM240900
                       25006KT P6SM OVC025 FM242000 09004KT P6SM
                       SCT035 BKN120 OVC250 FM250000 24002KT P6SM
                       -RA OVC050=
201301232359 TAF KCLM 232359Z 2400/2424 25006KT 6SM -SHRA BKN035 BKN050
                      TEMPO 2400/2402 5SM -RA BR OVC025 FM240600
                       25008KT P6SM BKN035 BKN050 FM240800 23005KT
                       P6SM BKN030 BKN050 FM241600 23005KT P6SM
                       SCT030 BKN150 FM242100 22006KT P6SM BKN050
                       BKN100=
201301231752 TAF KCLM 231752Z 2318/2418 VRB03KT 6SM BR SCT009 BKN020 OVC050
                       TEMPO 2318/2320 5SM -RA BR OVC009 FM232300
                       25006KT P6SM -SHRA BKN025 BKN050 FM240300
                       25006KT P6SM BKN030 BKN050=
201301231503 TAF AMD KCLM 231503Z 2315/2412 13004KT P6SM OVC008 FM231800 12005KT
                       6SM -RA BR SCT008 BKN020 OVC050 FM240000
                       27008KT P6SM -SHRA BKN025 BKN050 FM240300
                       25006KT P6SM BKN025 BKN050=
201301231126 TAF KCLM 231126Z 2312/2412 13004KT P6SM OVC070 FM231600 12005KT
                       6SM -RA BR BKN020 OVC050 FM240000 27008KT
                       P6SM -SHRA BKN025 BKN050 FM240300 25006KT
                       P6SM BKN025 BKN050=
201301230521 TAF KCLM 230521Z 2306/2406 00000KT P6SM BKN100 OVC200 FM231200
                       12004KT P6SM BKN050 OVC100 FM231600 12006KT
                       4SM -RA BR BKN010 OVC050 FM232100 27012KT
                       P6SM -SHRA BKN025 BKN050 FM240300 26008KT
                       P6SM BKN025 BKN050=
201301230202 TAF AMD KCLM 230202Z 2302/2324 VRB03KT P6SM VCFG FEW009 OVC130
                       FM231000 12006KT 4SM -RA BR BKN010 OVC050
                       FM232100 27012KT P6SM -SHRA BKN025 BKN050=
201301222320 TAF KCLM 222320Z 2300/2324 12004KT P6SM OVC008 FM231000 12006KT
                       4SM -RA BR BKN010 OVC050 FM232100 27012KT
                       P6SM -SHRA BKN025 BKN050=
201301221726 TAF KCLM 221726Z 2218/2318 14004KT P6SM OVC006 FM231000 14006KT
                       P6SM -RA BKN010 OVC050=
201301221122 TAF KCLM 221122Z 2212/2312 23003KT P6SM OVC007 FM221700 12004KT
                       P6SM BKN010 BKN200 FM221900 10005KT P6SM
                       SCT100 OVC200=
201301220521 TAF KCLM 220521Z 2206/2306 14004KT P6SM OVC005 FM221300 08004KT
                       5SM BR SCT005 BKN250
                      TEMPO 2213/2216 2SM BR OVC005 FM221700 10006KT
                       P6SM SCT100 BKN200 FM222100 10006KT P6SM
                       BKN100 OVC200=
201301212357 TAF KCLM 212357Z 2200/2224 13004KT P6SM OVC006
                      TEMPO 2200/2204 5SM BR OVC004 FM220400 13004KT
                       2SM BR BKN002 FM220600 08004KT 1SM BR OVC002
                       FM221300 08004KT 5SM BR SCT005 BKN250
                      TEMPO 2213/2216 2SM BR OVC005 FM221700 10006KT
                       P6SM SCT100 BKN200 FM222100 10006KT P6SM
                       BKN100 OVC200=
201301212201 TAF AMD KCLM 212201Z 2122/2218 13004KT P6SM OVC006
                      TEMPO 2122/2202 5SM BR FM220500 13004KT 2SM
                       BR BKN002 FM221300 10004KT 5SM BR SCT005
                       BKN250=
201301211733 TAF KCLM 211733Z 2118/2218 13004KT 1/2SM FG OVC002
                      TEMPO 2118/2120 3SM BR BKN002 FM212000 VRB03KT
                       5SM BR SCT005
                      TEMPO 2120/2122 3SM BR BKN005 FM220500 13004KT
                       2SM BR BKN002 FM221300 10004KT 5SM BR SCT005
                       BKN250=
201301211127 TAF KCLM 211127Z 2112/2212 13007KT 1/4SM FG VV001 FM211700 13004KT
                       1/2SM FG OVC002
                      TEMPO 2117/2119 4SM BR BKN002 FM211900 VRB03KT
                       P6SM SKC FM220500 13004KT 2SM BR BKN002=
201301211016 TAF AMD KCLM 211016Z 2110/2206 14006KT 1/4SM FG VV002 FM211700
                       13004KT 1/2SM FG OVC002
                      TEMPO 2117/2119 4SM BR BKN002 FM211900 VRB03KT
                       P6SM SKC=
201301210817 TAF AMD KCLM 210817Z 2108/2206 13006KT 1 1/2SM BR OVC002
                      TEMPO 2108/2112 5SM BR OVC004 FM211900 VRB03KT
                       P6SM SKC=
201301210521 TAF KCLM 210521Z 2106/2206 12004KT P6SM SKC
                      TEMPO 2106/2110 4SM BR BKN005 FM211000 VRB03KT
                       P6SM OVC005
                      TEMPO 2110/2114 2SM BR OVC003 FM211900 VRB03KT
                       P6SM SKC=
201301202327 TAF KCLM 202327Z 2100/2124 09004KT P6SM SKC FM211200 VRB03KT P6SM
                       OVC007 FM211900 VRB03KT P6SM SKC=
201301201722 TAF KCLM 201722Z 2018/2118 14007KT P6SM OVC004 FM202200 VRB03KT
                       P6SM SCT008 FM210600 VRB03KT P6SM OVC006=
201301201120 TAF KCLM 201120Z 2012/2112 15004KT P6SM OVC006
                      TEMPO 2012/2016 4SM BR FM202200 VRB03KT P6SM
                       SCT008 FM210600 VRB03KT P6SM OVC006=
201301200524 TAF KCLM 200524Z 2006/2106 13004KT P6SM SKC
                      TEMPO 2006/2009 BKN008 FM200900 VRB04KT P6SM
                       OVC009 FM202200 VRB03KT P6SM SCT010=
201301200443 TAF AMD KCLM 200443Z 2005/2024 15006KT P6SM SCT008
                      TEMPO 2005/2009 BKN008 FM200900 VRB04KT P6SM
                       OVC009 FM202200 VRB03KT P6SM SCT010=
201301192330 TAF KCLM 192330Z 2000/2024 10005KT P6SM OVC009
                      TEMPO 2000/2004 SCT010=
201301191720 TAF KCLM 191720Z 1918/2018 14007KT P6SM OVC010
                      TEMPO 1920/1924 SCT009=
201301191121 TAF KCLM 191121Z 1912/2012 12004KT P6SM OVC009
                      TEMPO 1920/1924 SCT009=
201301190520 TAF KCLM 190520Z 1906/2006 15007KT P6SM OVC007
                      TEMPO 1910/1914 4SM BR OVC003 FM192000 VRB03KT
                       P6SM SCT012 FM192300 VRB03KT P6SM SKC=
201301182333 TAF KCLM 182333Z 1900/1924 14006KT P6SM OVC007 FM192000 VRB03KT
                       P6SM SCT012=
201301181730 TAF KCLM 181730Z 1818/1918 19005KT P6SM OVC005 FM182100 VRB03KT
                       P6SM VCFG SCT002 FM190400 00000KT 2SM BR
                       BKN003=
201301181429 TAF AMD KCLM 181429Z 1814/1912 VRB03KT 6SM BR OVC004
                      TEMPO 1814/1818 1/2SM FG VV002 FM182100 VRB03KT
                       P6SM VCFG SCT002 FM190400 00000KT 2SM BR
                       BKN003=
201301181130 TAF KCLM 181130Z 1812/1912 VRB03KT 4SM BR OVC005
                      TEMPO 1812/1816 1/2SM FG VV002 FM182100 VRB03KT
                       P6SM VCFG SCT002 FM190400 00000KT 2SM BR
                       BKN003=
201301180911 TAF AMD KCLM 180911Z 1809/1906 VRB03KT 2SM BR BKN005
                      TEMPO 1809/1812 1/2SM FG VV002 FM181200 VRB03KT
                       2SM BR BKN003
                      TEMPO 1812/1816 1/2SM FG VV002 FM182100 VRB03KT
                       P6SM VCFG SCT002 FM190400 00000KT 2SM BR
                       BKN003=
201301180721 TAF AMD KCLM 180721Z 1807/1906 VRB03KT 5SM BR SCT003
                      TEMPO 1807/1811 2SM BR BKN002 FM181100 VRB03KT
                       2SM BR BKN002
                      TEMPO 1812/1816 1/2SM=
201301180521 TAF KCLM 180521Z 1806/1906 VRB03KT P6SM FEW003 FM181200 22005KT
                       P6SM VCFG SCT003
                      TEMPO 1812/1816 2SM BR FM181800 11005KT P6SM
                       SKC=
201301180043 TAF AMD KCLM 180043Z 1801/1824 VRB03KT P6SM SCT006 FM181200 22005KT
                       P6SM SKC FM181800 11005KT P6SM SKC=
201301172320 TAF KCLM 172320Z 1800/1824 VRB03KT P6SM SCT010 FM181200 22005KT
                       P6SM SKC FM181800 11005KT P6SM SKC=
201301171720 TAF KCLM 171720Z 1718/1818 14004KT P6SM OVC010 FM172200 VRB03KT
                       P6SM SCT015 FM181200 22005KT P6SM SKC=
201301171138 TAF KCLM 171138Z 1712/1812 12004KT P6SM OVC011 FM172200 VRB03KT
                       P6SM SCT015=
201301170530 TAF KCLM 170530Z 1706/1806 12004KT P6SM OVC011 FM172200 VRB03KT
                       P6SM SCT015=
201301162320 TAF KCLM 162320Z 1700/1724 VRB03KT P6SM BKN015 FM170900 VRB03KT
                       2SM BR OVC010 FM171800 VRB03KT 4SM BR SCT020=
201301161720 TAF KCLM 161720Z 1618/1718 VRB03KT P6SM BKN015 FM170900 VRB03KT
                       3SM BR OVC010=
201301161122 TAF KCLM 161122Z 1612/1712 00000KT P6SM BKN020
                      TEMPO 1612/1614 4SM BR FM161400 VRB03KT 5SM
                       BR BKN015 FM170900 00000KT 3SM BR OVC010=
201301160520 TAF KCLM 160520Z 1606/1706 04004KT 5SM BR OVC018 FM161100 04004KT
                       1SM BR OVC003 FM161900 04004KT 5SM BR SCT005=
201301152321 TAF KCLM 152321Z 1600/1624 04004KT P6SM OVC024 FM160500 04004KT
                       3SM BR OVC005 FM161100 04004KT 1/2SM FG
                       VV002 FM161900 04004KT P6SM SKC=
201301151724 TAF KCLM 151724Z 1518/1618 VRB03KT P6SM BKN018 FM160500 04004KT
                       3SM BR OVC005 FM161100 04004KT 1/2SM FG
                       VV002 FM161700 04004KT 4SM BR BKN005=
201301151120 TAF KCLM 151120Z 1512/1612 00000KT P6SM SCT010
                      TEMPO 1512/1516 3SM BR BKN010 FM151600 00000KT
                       5SM BR OVC010 FM160400 04004KT 3SM BR OVC005
                       FM161100 04004KT 1/2SM FG VV002=
201301150528 TAF KCLM 150528Z 1506/1606 00000KT P6SM OVC010 FM160400 04004KT
                       5SM BR OVC005=
201301142320 TAF KCLM 142320Z 1500/1524 10004KT P6SM OVC016 FM151200 VRB03KT
                       P6SM OVC009=
201301141802 TAF AMD KCLM 141802Z 1418/1518 VRB03KT P6SM BKN015 OVC040=
201301141727 TAF KCLM 141727Z 1418/1518 24004KT P6SM OVC035 FM150300 22004KT
                       P6SM BKN035 OVC050 FM150900 22004KT P6SM
                       BKN015 OVC030=
201301141552 TAF AMD KCLM 141552Z 1416/1512 VRB03KT P6SM SCT020 OVC040 FM150300
                       22004KT P6SM BKN030 OVC050 FM150900 22004KT
                       P6SM BKN015 OVC030=
201301141120 TAF KCLM 141120Z 1412/1512 22004KT P6SM BKN025 OVC045 FM142000
                       VRB03KT P6SM OVC040 FM150300 22004KT P6SM
                       BKN030 OVC050 FM150900 22004KT P6SM BKN015
                       OVC030=
201301140520 TAF KCLM 140520Z 1406/1506 22004KT P6SM OVC050 FM141000 VRB03KT
                       P6SM OVC035 FM142000 VRB03KT P6SM BKN035
                       OVC050 FM150300 22004KT P6SM BKN025 OVC040=
201301140252 TAF AMD KCLM 140252Z 1403/1424 VRB03KT P6SM SCT030 BKN060 OVC080
                       FM141000 VRB03KT P6SM SCT018 BKN030 OVC060
                       TEMPO 1416/1420 BKN018 OVC030=
201301132336 TAF KCLM 132336Z 1400/1424 VRB03KT P6SM FEW030 SCT120 OVC200 FM140600
                       VRB03KT P6SM SCT030 BKN080 OVC200 FM141200
                       VRB03KT P6SM SCT018 BKN030 OVC060
                      TEMPO 1416/1420 BKN018 OVC030=
201301132102 TAF AMD KCLM 132102Z 1321/1418 VRB03KT P6SM SCT020 SCT090 OVC200
                       TEMPO 1321/1324 BKN020 BKN090 OVC200 FM140900
                       VRB03KT P6SM FEW022 BKN090 BKN200 FM141200
                       VRB03KT P6SM SCT022 BKN060 BKN130=
201301131745 TAF KCLM 131745Z 1318/1418 VRB03KT P6SM SCT020 BKN200
                      TEMPO 1318/1320 BKN020 BKN200 FM132000 VRB03KT
                       P6SM FEW030 SCT090 BKN200 FM140900 VRB03KT
                       P6SM FEW022 BKN090 BKN200 FM141200 VRB03KT
                       P6SM SCT022 BKN060 BKN130=
201301131702 TAF AMD KCLM 131702Z 1317/1412 VRB03KT P6SM SCT018 BKN200
                      TEMPO 1317/1319 BKN018 BKN200 FM132000 09004KT
                       P6SM SCT030 SCT200 FM140400 22004KT P6SM
                       OVC050=
201301131120 TAF KCLM 131120Z 1312/1412 23005KT P6SM FEW030 SCT200 FM131600
                       VRB03KT P6SM SCT030 SCT200 FM132000 09004KT
                       P6SM SCT030 SCT200 FM140400 22004KT P6SM
                       OVC050=
201301130520 TAF KCLM 130520Z 1306/1406 23005KT P6SM SCT200 FM131200 VRB03KT
                       P6SM SCT030 SCT200=
201301130059 TAF AMD KCLM 130059Z 1301/1324 VRB03KT P6SM SCT030 BKN200 FM131800
                       09005KT P6SM FEW100 BKN200=
201301122328 TAF KCLM 122328Z 1300/1324 09005KT P6SM BKN025 BKN200 FM130600
                       VRB03KT P6SM BKN015 BKN200 FM130900 VRB03KT
                       P6SM VCFG SCT007 BKN200
                      TEMPO 1309/1311 BKN007 BKN200 FM131800 VRB03KT
                       P6SM FEW100 BKN200=
201301122214 TAF AMD KCLM 122214Z 1222/1318 07005KT P6SM SCT020 BKN035
                      TEMPO 1222/1224 BKN020 BKN035 FM130200 VRB03KT
                       P6SM SCT035 SCT200=
201301122054 TAF AMD KCLM 122054Z 1221/1318 07005KT P6SM SCT020 BKN040
                      TEMPO 1221/1223 BKN020 BKN040 FM130000 VRB03KT
                       P6SM SCT040 SCT200=
201301121742 TAF KCLM 121742Z 1218/1318 VRB03KT P6SM BKN040 FM130000 VRB03KT
                       P6SM SCT040 SCT200=
201301121616 TAF AMD KCLM 121616Z 1216/1312 VRB03KT P6SM BKN035 OVC150 FM121900
                       08005KT P6SM SCT200=
201301121120 TAF KCLM 121120Z 1212/1312 23004KT P6SM BKN200 FM121900 08005KT
                       P6SM SCT200=
201301120530 TAF KCLM 120530Z 1206/1306 23006KT P6SM FEW040 BKN200 FM121900
                       08005KT P6SM SCT200=
201301112333 TAF KCLM 112333Z 1200/1224 VRB03KT P6SM BKN200=
201301111728 TAF KCLM 111728Z 1118/1218 09005KT P6SM SKC FM112300 VRB03KT P6SM
                       SCT200=
201301111529 TAF AMD KCLM 111529Z 1115/1212 VRB03KT P6SM BKN045 FM111800 VRB03KT
                       P6SM SCT045=
201301111142 TAF KCLM 111142Z 1112/1212 VRB03KT P6SM SCT020
                      TEMPO 1112/1116 BKN020 FM111800 VRB03KT P6SM
                       SKC=
201301110525 TAF KCLM 110525Z 1106/1206 VRB03KT P6SM SCT040
                      TEMPO 1106/1110 BKN040 FM111200 VRB03KT P6SM
                       BKN020 FM111700 VRB03KT P6SM SCT250=
201301110215 TAF AMD KCLM 110215Z 1102/1124 21006KT P6SM OVC040
                      TEMPO 1102/1105 4SM -SHSN BKN025 OVC040 FM110500
                       03005KT 4SM BR OVC020 FM111700 VRB03KT P6SM
                       SCT250=
201301102333 TAF KCLM 102333Z 1100/1124 21004KT 4SM -SN BR OVC016 FM110500 03005KT
                       4SM BR OVC020 FM111700 VRB03KT P6SM SCT250=
201301102137 TAF AMD KCLM 102137Z 1022/1118 00000KT P6SM -RASN BKN010 OVC035
                       FM110000 05003KT P6SM BKN025 FM110300 03005KT
                       P6SM SKC=
201301101730 TAF KCLM 101730Z 1018/1118 VRB03KT P6SM SCT050 OVC070 FM110000
                       05003KT P6SM BKN025 FM110300 03005KT P6SM
                       SKC=
201301101125 TAF KCLM 101125Z 1012/1112 VRB03KT P6SM SKC FM101600 VRB03KT P6SM
                       SCT020 FM101900 04005KT P6SM BKN020 FM110000
                       07004KT P6SM SCT250=
201301100543 TAF KCLM 100543Z 1006/1106 27007KT P6SM SKC FM101500 VRB03KT P6SM
                       SCT020 FM101900 04005KT P6SM BKN020 OVC035=
201301092339 TAF KCLM 092339Z 1000/1024 25008KT P6SM VCSH FEW012 BKN035 OVC060
                       FM100600 27006KT P6SM SCT035 BKN060 FM101800
                       VRB03KT P6SM SCT020 BKN035 OVC060 FM102200
                       05004KT P6SM BKN025 BKN120=
201301091728 TAF KCLM 091728Z 0918/1018 26010KT P6SM VCSH FEW045 BKN200 FM100600
                       VRB03KT P6SM SCT035 BKN060=
201301091138 TAF KCLM 091138Z 0912/1012 28010KT P6SM SCT020 OVC035 FM091800
                       25008KT P6SM SCT035 BKN060 FM092200 25008KT
                       P6SM -SHRA BKN022 OVC035 FM100600 VRB03KT
                       P6SM SCT035 BKN060=
201301090541 TAF KCLM 090541Z 0906/1006 VRB03KT P6SM -RA OVC040 FM091200 28012KT
                       P6SM SCT015 OVC050 FM091900 25008KT P6SM
                       SCT035 BKN060=
201301082336 TAF KCLM 082336Z 0900/0924 18006KT P6SM -RA SCT008 OVC060 FM090100
                       28012KT P6SM -RA SCT015 OVC050 FM091300
                       25008KT P6SM -RA SCT015 OVC050=
201301082102 TAF AMD KCLM 082102Z 0821/0918 VRB03KT P6SM -RA SCT008 OVC060 FM090100
                       28012KT P6SM -RA SCT015 OVC050 FM091300
                       25008KT P6SM -RA SCT015 OVC050=
201301081731 TAF KCLM 081731Z 0818/0918 VRB03KT 4SM -RA BR BKN008 OVC015 FM090100
                       28012KT P6SM -RA SCT015 OVC025 FM091300
                       25008KT P6SM -RA SCT015 OVC025=
201301081152 TAF KCLM 081152Z 0812/0912 VRB03KT P6SM -RA SCT008 OVC015 FM081800
                       VRB03KT 4SM -RA BR BKN008 OVC015 FM090100
                       28012KT P6SM -RA SCT015 OVC025=
201301080542 TAF KCLM 080542Z 0806/0906 26008KT P6SM SCT050 OVC100 FM081100
                       VRB03KT P6SM -RA SCT025 OVC040 FM081800
                       VRB03KT 4SM -RA BR OVC012=
201301072323 TAF KCLM 072323Z 0800/0824 30014G22KT P6SM BKN060 FM080500 26008KT
                       P6SM OVC040 FM081000 VRB03KT P6SM -RA OVC025
                       FM081400 VRB03KT 4SM -RA BR OVC012=
201301072308 TAF AMD KCLM 072308Z 0723/0818 30014G22KT P6SM BKN060 FM080500
                       VRB03KT P6SM OVC040 FM081400 VRB03KT 4SM
                       -RA BR OVC012=
201301071723 TAF KCLM 071723Z 0718/0818 15004KT P6SM SCT040 OVC050 FM072000
                       28008KT P6SM BKN050 FM080800 VRB03KT P6SM
                       -RA OVC040 FM081400 VRB03KT 4SM -RA BR OVC012=
201301071140 TAF KCLM 071140Z 0712/0812 VRB03KT P6SM -RA OVC050 FM071800 27014G22KT
                       P6SM SCT030 BKN050 FM080200 27008KT P6SM
                       SCT035 BKN050 FM080800 VRB03KT P6SM -RA
                       OVC040=
201301070540 TAF KCLM 070540Z 0706/0806 VRB03KT P6SM SCT025 OVC060 FM071000
                       11005KT P6SM -RA OVC008 FM071500 25008KT
                       P6SM -SHRA BKN010 OVC020 FM071800 27014G22KT
                       P6SM SCT030 BKN050 FM080200 27008KT P6SM
                       SCT035 BKN050=
201301070409 TAF AMD KCLM 070409Z 0704/0724 VRB03KT P6SM OVC060 FM070800 11005KT
                       P6SM -RA OVC008 FM071500 25008KT P6SM -SHRA
                       BKN010 OVC020 FM071800 27014G22KT P6SM SCT015
                       BKN030 BKN050=
201301062322 TAF KCLM 062322Z 0700/0724 00000KT P6SM OVC060 FM070200 11005KT
                       P6SM -RA BKN015 OVC025 FM070600 11005KT
                       P6SM -RA OVC008 FM071500 25008KT P6SM -SHRA
                       BKN010 OVC020 FM071800 27014G22KT P6SM SCT015
                       BKN030 BKN050=
201301061727 TAF KCLM 061727Z 0618/0718 25005KT P6SM OVC060 FM070100 11005KT
                       P6SM -RA BKN015 OVC025 FM070600 11005KT
                       P6SM -RA OVC008=
201301061140 TAF KCLM 061140Z 0612/0712 VRB03KT P6SM SCT030 BKN060 FM062200
                       11005KT P6SM BKN015 OVC025 FM070600 11005KT
                       P6SM -RA OVC008=
201301060538 TAF KCLM 060538Z 0606/0706 28008KT P6SM BKN030 OVC050 FM061200
                       VRB03KT P6SM SCT030 BKN060 FM062200 11005KT
                       P6SM BKN015 OVC025=
201301060314 TAF AMD KCLM 060314Z 0603/0624 28008KT P6SM -RA SCT015 OVC060 FM060500
                       28008KT P6SM BKN020 BKN060 FM061200 23004KT
                       P6SM SCT020 BKN060 FM062000 11005KT P6SM
                       BKN015 OVC060=
201301052321 TAF KCLM 052321Z 0600/0624 VRB05KT P6SM OVC100 FM060200 VRB03KT
                       P6SM -RA BKN025 OVC060 FM060600 26008KT
                       P6SM BKN020 BKN060 FM061200 23004KT P6SM
                       SCT020 BKN060 FM062000 11005KT P6SM BKN015
                       OVC060=
201301052016 TAF AMD KCLM 052016Z 0520/0618 VRB05KT P6SM BKN005 OVC100
                      TEMPO 0520/0523 SCT005 BKN100 FM052300 12006KT
                       P6SM OVC040 FM060200 26008KT P6SM SCT035
                       OVC050=
201301051735 TAF AMD KCLM 051735Z 0518/0618 10008KT P6SM BKN006 BKN120
                      TEMPO 0518/0520 -RA SCT006 OVC050 FM052000
                       12006KT P6SM -RA SCT010 OVC040 FM052300
                       12006KT P6SM OVC040 FM060200 26008KT P6SM
                       SCT035 OVC050=
201301051720 TAF KCLM 051720Z 0518/0618 11008KT P6SM BKN070 OVC100
                      TEMPO 0518/0520 -RA OVC050 FM052000 12006KT
                       P6SM -RA SCT010 OVC040 FM052300 12006KT
                       P6SM OVC040 FM060200 26008KT P6SM SCT035
                       OVC050=
201301051632 TAF AMD KCLM 051632Z 0517/0612 13008KT P6SM SCT003 OVC100
                      TEMPO 0517/0519 -RA BKN003 OVC100 FM051900
                       12006KT P6SM -RA SCT010 OVC040 FM052300
                       12006KT P6SM OVC040 FM060200 26008KT P6SM
                       SCT035 OVC050=
201301051140 TAF KCLM 051140Z 0512/0612 VRB03KT P6SM OVC006 FM051700 12006KT
                       P6SM -RA SCT010 OVC040 FM052300 12006KT
                       P6SM OVC040 FM060200 26008KT P6SM SCT035
                       OVC050=
201301050536 TAF KCLM 050536Z 0506/0606 VRB03KT P6SM SCT008 BKN015 OVC030 FM050900
                       VRB03KT P6SM OVC080 FM051600 12006KT P6SM
                       -RA OVC035=
201301050414 TAF AMD KCLM 050414Z 0504/0524 VRB03KT P6SM OVC008 FM050900 21003KT
                       P6SM OVC080 FM051600 VRB03KT P6SM -RA BKN035
                       OVC070=
201301042321 TAF KCLM 042321Z 0500/0524 12005KT P6SM OVC008
                      TEMPO 0500/0504 SCT008 SCT040 FM050400 VRB03KT
                       P6SM SCT020 SCT080 FM050900 21003KT P6SM
                       OVC080 FM051600 VRB03KT P6SM -RA BKN035
                       OVC070=
201301042036 TAF AMD KCLM 042036Z 0421/0518 VRB03KT P6SM BKN010 BKN060
                      TEMPO 0421/0423 SCT010 BKN060 FM042300 VRB03KT
                       P6SM SCT050 BKN080 FM050900 21003KT P6SM
                       OVC080 FM051600 VRB03KT P6SM -RA BKN035
                       OVC070=
201301041721 TAF KCLM 041721Z 0418/0518 00000KT P6SM OVC008
                      TEMPO 0418/0420 SCT008 BKN060 FM042000 VRB03KT
                       P6SM BKN060 FM042300 VRB03KT P6SM SCT050
                       SCT080 FM050900 21003KT P6SM OVC080 FM051600
                       VRB03KT P6SM -RA BKN035 OVC070=
201301041619 TAF AMD KCLM 041619Z 0416/0512 00000KT P6SM OVC006
                      TEMPO 0416/0419 SCT006 BKN040 FM041900 12005KT
                       P6SM BKN050 FM042300 12005KT P6SM SCT050
                       SCT080=
201301041120 TAF KCLM 041120Z 0412/0512 27005KT P6SM VCSH SCT007 OVC013
                      TEMPO 0412/0415 4SM BR OVC007 FM041900 12005KT
                       P6SM BKN030 FM042300 12005KT P6SM SCT050
                       SCT080=
201301041105 TAF AMD KCLM 041105Z 0411/0506 27006KT P6SM VCSH SCT007 OVC013
                       TEMPO 0411/0415 4SM BR OVC007 FM041900 12005KT
                       P6SM BKN030 FM042300 12005KT P6SM SCT050
                       SCT080=
201301040544 TAF KCLM 040544Z 0406/0506 25008KT P6SM -RA SCT018 BKN040
                      TEMPO 0406/0410 -RA OVC018 FM041000 25006KT
                       P6SM OVC015
                      TEMPO 0410/0414 -RA FM041900 12005KT P6SM
                       BKN030 FM042100 12005KT P6SM SCT050 SCT080=
201301032330 TAF KCLM 032330Z 0400/0424 26004KT P6SM SCT120 OVC200 FM040200
                       VRB03KT P6SM -RA OVC040 FM040600 VRB03KT
                       P6SM -RA OVC020 FM041600 25006KT P6SM OVC015
                       TEMPO 0416/0420 -RA=
201301031738 TAF KCLM 031738Z 0318/0418 00000KT P6SM SKC FM032300 00000KT P6SM
                       SCT120 OVC250 FM040200 VRB03KT P6SM -RA
                       OVC040 FM040600 VRB03KT P6SM -RA OVC020
                       FM041600 25006KT P6SM OVC015
                      TEMPO 0416/0418 -RA=
201301031143 TAF KCLM 031143Z 0312/0412 VRB04KT P6SM SCT015
                      TEMPO 0312/0316 6SM BR OVC015 FM032000 11004KT
                       P6SM OVC060 FM040400 VRB04KT P6SM -RA OVC050
                       FM041000 23006KT P6SM VCSH BKN050=
201301030520 TAF KCLM 030520Z 0306/0406 00000KT P6SM FEW250 FM031200 22003KT
                       P6SM SKC FM032000 11004KT P6SM OVC060 FM040400
                       VRB04KT P6SM -RA OVC050=
201301022325 TAF KCLM 022325Z 0300/0324 00000KT P6SM FEW250 FM031200 22003KT
                       P6SM SKC FM032000 11004KT P6SM OVC060=
201301021735 TAF KCLM 021735Z 0218/0318 10005KT P6SM SKC FM031200 22003KT P6SM
                       SKC=
201301021120 TAF KCLM 021120Z 0212/0312 12005KT P6SM BKN012
                      TEMPO 0212/0214 4SM BR SCT006 BKN012 FM021700
                       12004KT P6SM SKC=
201301020531 TAF KCLM 020531Z 0206/0306 13005KT P6SM BKN014 BKN250 FM021000
                       13006KT P6SM SCT014 SCT250
                      TEMPO 0210/0214 4SM BR SCT006 BKN014 FM021700
                       12003KT P6SM SKC=
201301012330 TAF KCLM 012330Z 0200/0224 11007KT P6SM OVC014 FM020600 15003KT
                       P6SM BKN250 FM021000 17002KT P6SM BCFG SCT004
                       FM021600 12003KT P6SM SKC=
201301011735 TAF KCLM 011735Z 0118/0218 16004KT P6SM OVC021
                      TEMPO 0118/0119 SCT020 SCT250 FM011900 09005KT
                       P6SM SCT250=
201301011126 TAF KCLM 011126Z 0112/0212 VRB04KT P6SM OVC015
                      TEMPO 0116/0119 SCT020 SCT250 FM011900 09005KT
                       P6SM SCT250=
201301010536 TAF KCLM 010536Z 0106/0206 24004KT P6SM BKN015 FM011500 21003KT
                       P6SM SCT250=