##########################################################
# Query made at 02/16/2025 02:47:26 UTC
# Time interval: from 10/01/2014 00:00  to 10/31/2014 23:59  UTC
##########################################################

##########################################################
# KCLM, Port Angeles, William R. Fairchild International Airport (United States)
# WMO index: -----. WIGOS ID: Unknown
# Latitude 48-07-20N. Longitude 123-30-19W. Altitude 87 m.
##########################################################

###################################
#  METAR/SPECI from KCLM
###################################
201410312353 METAR KCLM 312353Z AUTO 18003KT 10SM SCT055 12/09 A2983 RMK AO2 SLP102 60000 T01220089 10139 20106 51008=
201410312253 METAR KCLM 312253Z AUTO 00000KT 10SM FEW021 12/08 A2982 RMK AO2 SLP100 T01220078=
201410312250 SPECI KCLM 312250Z AUTO 00000KT 10SM FEW021 12/08 A2982 RMK AO2=
201410312242 SPECI KCLM 312242Z AUTO 00000KT 10SM BKN020 12/08 A2982 RMK AO2 T01220078=
201410312153 METAR KCLM 312153Z AUTO 09004KT 10SM OVC050 13/08 A2981 RMK AO2 SLP094 T01330078=
201410312053 METAR KCLM 312053Z AUTO VRB03KT 10SM OVC060 13/08 A2980 RMK AO2 RAB08E36 SLP093 P0000 60000 T01330083 51012=
201410311953 METAR KCLM 311953Z AUTO 00000KT 10SM BKN060 OVC070 12/08 A2980 RMK AO2 RAB1854E34 SLP093 P0000 T01220083=
201410311853 METAR KCLM 311853Z AUTO 24006KT 10SM OVC050 11/08 A2980 RMK AO2 SLP090 T01110078=
201410311753 METAR KCLM 311753Z AUTO 24005KT 10SM SCT049 OVC095 11/08 A2977 RMK AO2 SLP081 60027 T01060078 10111 20100 53011=
201410311653 METAR KCLM 311653Z AUTO 10SM SCT041 BKN095 BKN120 11/08 A2975 RMK AO2 RAE35 SLP075 P0001 T01110083 $=
201410311553 METAR KCLM 311553Z AUTO 10SM -RA OVC055 11/08 A2975 RMK AO2 SLP073 P0004 T01060083 $=
201410311453 METAR KCLM 311453Z AUTO 10SM -RA OVC050 11/09 A2974 RMK AO2 SLP070 P0005 60022 T01060089 53004 $=
201410311416 SPECI KCLM 311416Z AUTO 9SM -RA FEW014 BKN039 OVC045 11/09 A2972 RMK AO2 P0002 T01060089 $=
201410311353 METAR KCLM 311353Z AUTO 7SM -RA BKN016 BKN021 OVC027 11/09 A2973 RMK AO2 SLP067 P0009 T01060089 $=
201410311303 SPECI KCLM 311303Z AUTO 8SM -RA BKN018 BKN036 OVC047 10/09 A2972 RMK AO2 P0001 T01000089 $=
201410311253 METAR KCLM 311253Z AUTO 6SM -RA BR SCT018 BKN042 OVC050 11/09 A2972 RMK AO2 SLP065 P0008 T01060094 $=
201410311153 METAR KCLM 311153Z AUTO 4SM -RA BR SCT022 OVC031 11/09 A2972 RMK AO2 SLP066 P0005 60008 70037 T01110094 10111 20100 57013 $=
201410311103 SPECI KCLM 311103Z AUTO 3SM -RA BR FEW009 BKN015 OVC027 11/10 A2973 RMK AO2 P0003 T01060100 $=
201410311056 SPECI KCLM 311056Z AUTO 2 1/2SM RA BR SCT009 BKN013 OVC018 11/09 A2973 RMK AO2 P0002 T01060094 $=
201410311053 METAR KCLM 311053Z AUTO 3SM RA BR SCT009 OVC016 11/09 A2973 RMK AO2 RAB27 SLP070 P0003 T01060094 $=
201410311050 SPECI KCLM 311050Z AUTO 6SM -RA BR SCT009 OVC016 11/09 A2973 RMK AO2 RAB27 P0002 $=
201410311019 SPECI KCLM 311019Z AUTO 10SM OVC009 11/09 A2974 RMK AO2 T01060089 $=
201410310953 METAR KCLM 310953Z AUTO 10SM OVC012 11/09 A2975 RMK AO2 SLP075 T01060094 $=
201410310933 SPECI KCLM 310933Z AUTO 10SM BKN012 BKN027 OVC110 10/09 A2975 RMK AO2 T01000094 $=
201410310853 METAR KCLM 310853Z AUTO 10SM FEW024 SCT043 BKN055 10/09 A2976 RMK AO2 SLP079 T01000089 55002 $=
201410310753 METAR KCLM 310753Z AUTO 10SM OVC110 10/09 A2975 RMK AO2 SLP076 T01000089 401390061 $=
201410310653 METAR KCLM 310653Z AUTO 10SM FEW013 BKN030 OVC110 10/09 A2976 RMK AO2 SLP079 T01000089 $=
201410310553 METAR KCLM 310553Z AUTO 10SM FEW009 BKN120 11/09 A2977 RMK AO2 RAE21 SLP081 P0000 60016 T01060089 10133 20106 51014 $=
201410310453 METAR KCLM 310453Z AUTO 10SM -RA FEW090 12/08 A2975 RMK AO2 SLP075 P0000 T01220083 $=
201410310353 METAR KCLM 310353Z AUTO 10SM -RA OVC070 13/09 A2974 RMK AO2 SLP073 P0000 T01280089 $=
201410310253 METAR KCLM 310253Z AUTO 10SM -RA OVC060 12/10 A2973 RMK AO2 SLP067 P0000 60016 T01220100 51006 $=
201410310153 METAR KCLM 310153Z AUTO 10SM -RA FEW007 BKN044 OVC055 12/11 A2972 RMK AO2 SLP064 P0002 T01220106 $=
201410310150 SPECI KCLM 310150Z AUTO 9SM -RA SCT007 BKN042 OVC050 12/11 A2972 RMK AO2 P0002 $=
201410310112 SPECI KCLM 310112Z AUTO 10SM -RA BKN005 BKN050 OVC080 12/11 A2972 RMK AO2 P0001 T01220111 $=
201410310053 METAR KCLM 310053Z AUTO 4SM RA BR SCT005 BKN050 OVC080 12/11 A2971 RMK AO2 SLP061 P0014 T01220111 $=
201410310039 SPECI KCLM 310039Z AUTO 3SM +RA BR BKN005 BKN019 OVC030 12/11 A2972 RMK AO2 P0009 T01220111 $=
201410310026 SPECI KCLM 310026Z AUTO 5SM -RA BR BKN003 BKN055 OVC090 13/12 A2971 RMK AO2 PRESRR P0003 T01280117 $=
201410310015 SPECI KCLM 310015Z AUTO 10SM -RA FEW007 BKN055 OVC090 13/12 A2969 RMK AO2 PRESRR P0002 T01280117 $=
201410302353 METAR KCLM 302353Z AUTO 10SM -RA SCT050 BKN060 OVC090 13/12 A2967 RMK AO2 SLP046 P0003 60013 T01280117 10139 20122 56019 $=
201410302253 METAR KCLM 302253Z AUTO 8SM -RA SCT010 BKN065 OVC090 13/12 A2969 RMK AO2 SLP054 P0004 T01330117 $=
201410302211 SPECI KCLM 302211Z AUTO 8SM -RA FEW005 BKN080 OVC095 13/12 A2970 RMK AO2 P0001 T01330117 $=
201410302153 METAR KCLM 302153Z AUTO 7SM -RA SCT065 OVC090 13/12 A2969 RMK AO2 RAB2058 SLP055 P0003 T01330122 $=
201410302053 METAR KCLM 302053Z AUTO 10SM BKN065 OVC080 14/11 A2972 RMK AO2 RAE49 SLP066 P0001 60003 T01390111 58020 $=
201410301953 METAR KCLM 301953Z AUTO 25004KT -RA FEW050 OVC080 13/11 A2976 RMK AO2 SLP077 P0000 T01330111 $=
201410301853 METAR KCLM 301853Z AUTO 00000KT -RA BKN065 OVC080 13/11 A2978 RMK AO2 RAB09 SLP085 P0002 T01330106 $=
201410301753 METAR KCLM 301753Z AUTO 25007KT 10SM BKN065 OVC075 12/11 A2978 RMK AO2 SLP086 T01220106 10122 20094 55005 $=
201410301653 METAR KCLM 301653Z AUTO 27005KT 10SM OVC070 11/09 A2978 RMK AO2 SLP085 T01110094 $=
201410301553 METAR KCLM 301553Z AUTO 25006KT 10SM BKN065 OVC085 11/09 A2978 RMK AO2 SLP085 T01060089 $=
201410301453 METAR KCLM 301453Z AUTO 24004KT 10SM SCT006 BKN060 OVC075 10/08 A2980 RMK AO2 SLP091 T01000083 56035 $=
201410301416 SPECI KCLM 301416Z AUTO 22006KT 10SM BKN006 BKN065 OVC100 09/08 A2982 RMK AO2 T00940083 $=
201410301402 SPECI KCLM 301402Z AUTO 25005KT 10SM SCT006 BKN060 BKN100 09/08 A2982 RMK AO2 T00940083 $=
201410301353 METAR KCLM 301353Z AUTO 25004KT 10SM BKN006 OVC060 10/08 A2982 RMK AO2 PRESFR SLP099 T01000083=
201410301253 METAR KCLM 301253Z AUTO 00000KT 10SM OVC005 10/09 A2986 RMK AO2 SLP113 T01000094 $=
201410301153 METAR KCLM 301153Z AUTO 00000KT 10SM OVC006 10/09 A2990 RMK AO2 SLP126 70002 T01000089 10100 20061 58026 $=
201410301100 SPECI KCLM 301100Z AUTO 00000KT 10SM BKN009 OVC013 09/08 A2993 RMK AO2 T00890078 $=
201410301053 METAR KCLM 301053Z AUTO 17003KT 10SM SCT009 OVC013 09/08 A2993 RMK AO2 SLP137 T00890078 $=
201410301019 SPECI KCLM 301019Z AUTO 24003KT 10SM OVC013 09/08 A2995 RMK AO2 T00890078 $=
201410300953 METAR KCLM 300953Z AUTO 00000KT 10SM BKN016 BKN100 08/07 A2996 RMK AO2 SLP145 T00830072 $=
201410300853 METAR KCLM 300853Z AUTO 24006KT 10SM BKN017 08/07 A2998 RMK AO2 SLP153 T00780067 56016 $=
201410300803 SPECI KCLM 300803Z AUTO 22003KT 10SM FEW019 08/07 A2999 RMK AO2 T00780072 $=
201410300753 METAR KCLM 300753Z AUTO 00000KT 2SM BR FEW002 07/06 A2999 RMK AO2 VIS 1V5 SLP157 T00670056 401610061 $=
201410300653 METAR KCLM 300653Z AUTO 00000KT 4SM BR FEW002 FEW016 07/06 A3001 RMK AO2 SLP163 T00670056 $=
201410300553 METAR KCLM 300553Z AUTO 00000KT 9SM BKN070 07/06 A3003 RMK AO2 SLP168 T00720061 10144 20072 56008 $=
201410300453 METAR KCLM 300453Z AUTO 23004KT 10SM CLR 09/08 A3003 RMK AO2 SLP169 T00890078 $=
201410300353 METAR KCLM 300353Z AUTO 15003KT 10SM CLR 08/07 A3004 RMK AO2 SLP172 T00830072 $=
201410300253 METAR KCLM 300253Z AUTO 22004KT 10SM CLR 09/08 A3005 RMK AO2 SLP176 T00940078 56013 $=
201410300153 METAR KCLM 300153Z AUTO 00000KT 10SM FEW075 11/09 A3006 RMK AO2 SLP180 T01060094 $=
201410300053 METAR KCLM 300053Z AUTO 00000KT 10SM OVC075 13/10 A3007 RMK AO2 SLP183 T01330100 $=
201410292353 METAR KCLM 292353Z AUTO 11005KT 10SM SCT032 OVC070 14/11 A3009 RMK AO2 SLP189 T01440106 10161 20144 56008 $=
201410292253 METAR KCLM 292253Z AUTO 10006KT 10SM BKN032 OVC042 14/11 A3009 RMK AO2 SLP191 T01440106 $=
201410292153 METAR KCLM 292153Z AUTO 10005KT 10SM BKN032 BKN043 OVC075 14/11 A3011 RMK AO2 SLP195 T01440106 $=
201410292129 SPECI KCLM 292129Z AUTO 09004KT 10SM FEW029 BKN044 OVC070 14/11 A3011 RMK AO2 T01440106 $=
201410292053 METAR KCLM 292053Z AUTO 11007KT 10SM OVC025 14/11 A3011 RMK AO2 SLP197 T01440106 51010 $=
201410292030 SPECI KCLM 292030Z AUTO 11007KT 10SM BKN026 BKN050 14/11 A3011 RMK AO2 T01440111 $=
201410291953 METAR KCLM 291953Z AUTO 00000KT 10SM CLR 14/11 A3011 RMK AO2 SLP196 T01440106 $=
201410291853 METAR KCLM 291853Z AUTO 00000KT 10SM FEW021 16/11 A3010 RMK AO2 SLP192 T01560106 $=
201410291753 METAR KCLM 291753Z AUTO VRB03KT 10SM CLR 16/11 A3008 RMK AO2 SLP187 60002 T01560106 10156 20111 51017 $=
201410291653 METAR KCLM 291653Z AUTO 21004KT 10SM CLR 14/11 A3007 RMK AO2 SLP182 T01390106 $=
201410291553 METAR KCLM 291553Z AUTO 23005KT 10SM FEW035 BKN065 12/11 A3006 RMK AO2 SLP179 T01170106 $=
201410291453 METAR KCLM 291453Z AUTO 23003KT 10SM SCT034 OVC060 11/11 A3003 RMK AO2 SLP171 60002 T01110106 51025 $=
201410291353 METAR KCLM 291353Z AUTO 00000KT 10SM FEW023 BKN070 12/11 A3001 RMK AO2 RAB1255E31 SLP164 P0000 T01170106 $=
201410291344 SPECI KCLM 291344Z AUTO 00000KT 10SM SCT023 BKN065 12/11 A3001 RMK AO2 RAB1255E31 P0000 T01170106 $=
201410291253 METAR KCLM 291253Z AUTO 00000KT 10SM OVC017 12/11 A2999 RMK AO2 RAE31 SLP155 P0002 T01170111 $=
201410291231 SPECI KCLM 291231Z AUTO 00000KT 10SM BKN018 BKN045 OVC060 12/11 A2998 RMK AO2 RAE31 P0002 T01170111 $=
201410291153 METAR KCLM 291153Z AUTO 00000KT 10SM -RA OVC055 12/11 A2996 RMK AO2 SLP145 P0004 60006 70008 T01170106 10122 20106 51021 $=
201410291053 METAR KCLM 291053Z AUTO 15003KT 10SM -RA BKN050 OVC065 11/10 A2993 RMK AO2 RAB0955 SLP136 P0001 T01110100 $=
201410290953 METAR KCLM 290953Z AUTO 00000KT 10SM BKN065 OVC080 11/10 A2992 RMK AO2 RAB08E18B36E52 SLP132 P0001 T01110100 $=
201410290853 METAR KCLM 290853Z AUTO 00000KT 10SM OVC070 11/09 A2990 RMK AO2 SLP124 60000 T01060094 53015 $=
201410290753 METAR KCLM 290753Z AUTO 00000KT 10SM BKN070 11/10 A2987 RMK AO2 SLP116 T01110100 401670083 $=
201410290653 METAR KCLM 290653Z AUTO 15003KT 10SM OVC065 12/11 A2986 RMK AO2 RAB37E47 SLP112 P0000 T01220106 $=
201410290553 METAR KCLM 290553Z AUTO 21004KT 10SM SCT070 BKN085 BKN110 11/11 A2985 RMK AO2 RAB09E46 SLP110 P0000 60002 T01110106 10139 20106 53023 $=
201410290502 SPECI KCLM 290502Z AUTO 26003KT 10SM SCT004 SCT048 OVC060 12/11 A2984 RMK AO2 T01170106 $=
201410290453 METAR KCLM 290453Z AUTO 29004KT 10SM FEW050 OVC060 11/11 A2983 RMK AO2 RAE01 SLP102 P0000 T01110106 $=
201410290353 METAR KCLM 290353Z AUTO 22003KT 10SM -RA OVC065 12/11 A2980 RMK AO2 RAE17B40 SLP093 P0001 T01170106 $=
201410290253 METAR KCLM 290253Z AUTO 00000KT 10SM -RA FEW060 OVC075 11/10 A2979 RMK AO2 RAB31 SLP087 P0001 60001 T01110100 53009 $=
201410290153 METAR KCLM 290153Z AUTO VRB03KT 10SM SCT070 SCT085 BKN100 11/09 A2977 RMK AO2 SLP081 T01110094 $=
201410290101 SPECI KCLM 290101Z AUTO 00000KT 10SM FEW003 SCT070 BKN080 12/11 A2977 RMK AO2 T01170106 $=
201410290053 METAR KCLM 290053Z AUTO 14003KT 10SM SCT070 BKN080 12/11 A2977 RMK AO2 RAE27 SLP082 P0000 T01220106 $=
201410282353 METAR KCLM 282353Z AUTO 26004KT 10SM -RA BKN075 OVC090 13/11 A2976 RMK AO2 RAB22 SLP077 P0000 60000 T01330106 10167 20128 53000 $=
201410282253 METAR KCLM 282253Z AUTO 00000KT 10SM CLR 14/10 A2975 RMK AO2 SLP074 T01390100 $=
201410282153 METAR KCLM 282153Z AUTO 08003KT 10SM FEW070 SCT100 15/11 A2975 RMK AO2 RAE01 SLP075 P0000 T01500106 $=
201410282053 METAR KCLM 282053Z AUTO VRB04KT 10SM -RA FEW060 BKN080 BKN100 14/11 A2976 RMK AO2 RAE03B47 SLP077 P0000 60000 T01390106 50004 $=
201410281953 METAR KCLM 281953Z AUTO 30004KT 9SM -RA BKN060 OVC080 16/11 A2976 RMK AO2 RAB08E17B29 SLP077 P0000 T01560106 $=
201410281853 METAR KCLM 281853Z AUTO 00000KT 10SM FEW050 BKN070 14/11 A2975 RMK AO2 RAE1754B10E28 SLP074 P0000 T01440111 $=
201410281814 SPECI KCLM 281814Z AUTO 33006KT 10SM SCT008 OVC065 13/11 A2975 RMK AO2 RAE1754B10E13 P0000 T01330106=
201410281805 SPECI KCLM 281805Z AUTO 32003KT 10SM BKN008 OVC065 13/11 A2975 RMK AO2 RAE1754 P0000 T01330106=
201410281753 METAR KCLM 281753Z AUTO 36003KT 10SM -RA SCT008 BKN065 13/11 A2974 RMK AO2 SLP072 P0000 60000 T01330106 10133 20083 53005=
201410281730 SPECI KCLM 281730Z AUTO 26004KT 10SM -RA FEW008 BKN065 OVC080 12/10 A2975 RMK AO2 P0000 T01220100=
201410281653 METAR KCLM 281653Z AUTO 31006KT 10SM -RA OVC070 12/10 A2975 RMK AO2 SLP074 P0000 T01220100=
201410281553 METAR KCLM 281553Z AUTO 24004KT 10SM -RA SCT055 OVC070 11/09 A2972 RMK AO2 RAB14 SLP065 P0000 T01060089=
201410281453 METAR KCLM 281453Z AUTO 23006KT 10SM FEW047 BKN060 09/08 A2973 RMK AO2 RAB1358E53 SLP067 P0000 60000 T00890078 50004=
201410281353 METAR KCLM 281353Z AUTO 24005KT 10SM BKN070 10/08 A2974 RMK AO2 RAE22 SLP071 P0000 T01000078=
201410281253 METAR KCLM 281253Z AUTO 27005KT 10SM -RA BKN060 10/08 A2973 RMK AO2 RAB1156 SLP067 P0000 T01000078 $=
201410281153 METAR KCLM 281153Z AUTO 18004KT 10SM OVC065 09/08 A2972 RMK AO2 RAB1054E44 SLP064 P0000 60002 70004 T00940078 10117 20083 56016 $=
201410281053 METAR KCLM 281053Z AUTO 27007KT 10SM SCT055 BKN070 08/07 A2973 RMK AO2 RAE08B35E46 SLP068 P0001 T00830072 $=
201410280953 METAR KCLM 280953Z AUTO 00000KT 10SM -RA BKN060 BKN080 09/07 A2974 RMK AO2 RAE01B46 SLP073 P0000 T00890072 $=
201410280853 METAR KCLM 280853Z AUTO VRB05KT 10SM -RA FEW065 10/07 A2976 RMK AO2 RAE02B51 SLP080 P0000 60001 T01000072 58025 $=
201410280830 SPECI KCLM 280830Z AUTO 16003KT 10SM FEW008 SCT039 BKN065 09/08 A2979 RMK AO2 RAE02 P0000 T00940078 $=
201410280753 METAR KCLM 280753Z AUTO 00000KT 10SM -RA FEW026 BKN085 OVC100 09/08 A2980 RMK AO2 SLP092 P0001 T00940083 401220050 $=
201410280653 METAR KCLM 280653Z AUTO 10SM -RA FEW075 OVC095 12/07 A2981 RMK AO2 RAE06B40 SLP096 P0000 T01170072 $=
201410280553 METAR KCLM 280553Z AUTO VRB03KT 10SM -RA FEW011 BKN100 OVC120 09/08 A2984 RMK AO2 RAB44 PRESFR SLP105 P0000 60002 T00940078 10100 20083 58025 $=
201410280519 SPECI KCLM 280519Z AUTO 20007G17KT 10SM SCT011 OVC110 09/07 A2986 RMK AO2 T00890072 $=
201410280453 METAR KCLM 280453Z AUTO 00000KT 10SM BKN010 BKN110 08/07 A2988 RMK AO2 RAB0357E09 SLP120 P0000 T00830072 TSNO $=
201410280448 SPECI KCLM 280448Z AUTO 00000KT 10SM BKN009 BKN110 09/08 A2989 RMK AO2 RAB0357E09 P0000 TSNO $=
201410280441 SPECI KCLM 280441Z AUTO 00000KT 10SM SCT009 BKN100 09/07 A2990 RMK AO2 RAB0357E09 P0000 T00890072 TSNO $=
201410280415 SPECI KCLM 280415Z AUTO 23004KT 10SM BKN008 BKN065 OVC100 09/07 A2991 RMK AO2 RAB0357E09 P0000 T00890072 TSNO $=
201410280403 SPECI KCLM 280403Z AUTO 21004KT 10SM -RA SCT009 BKN065 OVC095 09/07 A2991 RMK AO2 RAB0357 P0000 T00890072 $=
201410280353 METAR KCLM 280353Z AUTO 22004KT 10SM BKN065 OVC095 09/07 A2992 RMK AO2 RAB26E41 SLP132 P0000 T00890072 $=
201410280253 METAR KCLM 280253Z AUTO 00000KT 10SM OVC095 09/07 A2993 RMK AO2 RAE01 SLP136 P0001 60002 T00890072 56019 $=
201410280153 METAR KCLM 280153Z AUTO 00000KT 10SM -RA OVC070 09/08 A2994 RMK AO2 SLP140 P0000 T00940078 $=
201410280053 METAR KCLM 280053Z AUTO 22004KT 10SM -RA OVC060 10/08 A2996 RMK AO2 SLP147 P0001 T01000078=
201410272353 METAR KCLM 272353Z AUTO 00000KT 10SM -RA OVC070 10/08 A2998 RMK AO2 RAB2255 SLP154 P0000 60000 T01000083 10122 20100 58019=
201410272253 METAR KCLM 272253Z AUTO 00000KT 10SM BKN075 OVC095 11/07 A3001 RMK AO2 SLP164 T01060067=
201410272153 METAR KCLM 272153Z AUTO 28005KT 10SM BKN100 11/07 A3003 RMK AO2 SLP169 T01110072=
201410272053 METAR KCLM 272053Z AUTO 29005KT 10SM OVC100 11/07 A3004 RMK AO2 SLP173 T01110072 58014 $=
201410271953 METAR KCLM 271953Z AUTO VRB05KT 10SM OVC095 12/07 A3006 RMK AO2 SLP181 T01170072 $=
201410271853 METAR KCLM 271853Z AUTO 34003KT 10SM OVC095 11/06 A3007 RMK AO2 SLP185 T01110061=
201410271753 METAR KCLM 271753Z AUTO 34003KT 10SM BKN085 OVC120 11/06 A3008 RMK AO2 SLP187 T01060061 10106 20050 56005=
201410271653 METAR KCLM 271653Z AUTO 00000KT 10SM OVC100 09/06 A3008 RMK AO2 SLP188 T00890056=
201410271553 METAR KCLM 271553Z AUTO 00000KT 10SM BKN110 07/05 A3009 RMK AO2 SLP192 T00670050=
201410271453 METAR KCLM 271453Z AUTO 00000KT 10SM CLR 06/04 A3010 RMK AO2 SLP193 T00560039 58009=
201410271353 METAR KCLM 271353Z AUTO 10SM CLR 06/04 A3010 RMK AO2 SLP196 T00560039 TSNO $=
201410271253 METAR KCLM 271253Z AUTO 10SM CLR 06/04 A3012 RMK AO2 SLP200 T00560039 TSNO $=
201410271153 METAR KCLM 271153Z AUTO 10SM CLR 07/03 A3012 RMK AO2 SLP201 70013 T00720033 10083 20067 57002 TSNO $=
201410271053 METAR KCLM 271053Z AUTO 10SM BKN050 BKN060 07/04 A3012 RMK AO2 SLP202 T00720039 TSNO $=
201410270953 METAR KCLM 270953Z AUTO 10SM BKN055 08/03 A3013 RMK AO2 SLP203 T00780033 TSNO $=
201410270853 METAR KCLM 270853Z AUTO 10SM BKN048 BKN060 08/03 A3013 RMK AO2 SLP203 T00780033 51006 TSNO $=
201410270753 METAR KCLM 270753Z AUTO 10SM CLR 08/03 A3012 RMK AO2 SLP200 T00780033 401330072 TSNO $=
201410270653 METAR KCLM 270653Z AUTO 10SM CLR 08/03 A3012 RMK AO2 SLP200 T00830033 TSNO $=
201410270553 METAR KCLM 270553Z AUTO 10SM CLR 07/04 A3011 RMK AO2 SLP196 T00720039 10128 20072 53007 TSNO $=
201410270453 METAR KCLM 270453Z AUTO 10SM CLR 08/04 A3010 RMK AO2 SLP193 T00780039 TSNO $=
201410270353 METAR KCLM 270353Z AUTO 10SM CLR 08/04 A3009 RMK AO2 SLP191 T00830044 TSNO $=
201410270253 METAR KCLM 270253Z AUTO 10SM CLR 09/05 A3009 RMK AO2 SLP189 T00890050 53015 TSNO $=
201410270153 METAR KCLM 270153Z AUTO 10SM CLR 09/06 A3006 RMK AO2 SLP181 T00940056 TSNO $=
201410270053 METAR KCLM 270053Z AUTO 10SM FEW044 10/06 A3005 RMK AO2 SLP178 T01000061 TSNO $=
201410262353 METAR KCLM 262353Z AUTO 10SM CLR 13/07 A3004 RMK AO2 SLP174 60002 T01280072 10133 20094 53014 TSNO $=
201410262253 METAR KCLM 262253Z AUTO 10SM CLR 13/08 A3003 RMK AO2 SLP169 T01280083 TSNO $=
201410262153 METAR KCLM 262153Z AUTO 30010G17KT 10SM CLR 12/07 A3001 RMK AO2 SLP164 T01220072 TSNO $=
201410262053 METAR KCLM 262053Z AUTO 29010G17KT 10SM FEW017 FEW043 12/08 A3000 RMK AO2 SLP160 60002 T01170078 51025 TSNO $=
201410261953 METAR KCLM 261953Z AUTO 25010KT 10SM BKN048 11/08 A2998 RMK AO2 RAE31 SLP153 P0002 T01110078 TSNO $=
201410261853 METAR KCLM 261853Z AUTO 29010KT 10SM -RA BKN046 OVC070 10/07 A2996 RMK AO2 RAB43 SLP147 P0000 T01000067 TSNO $=
201410261753 METAR KCLM 261753Z AUTO 19003KT 10SM OVC046 09/07 A2993 RMK AO2 RAE38 SLP135 P0008 60011 T00940072 10100 20078 52022 TSNO $=
201410261653 METAR KCLM 261653Z AUTO 27014G18KT 9SM -RA OVC048 09/06 A2991 RMK AO2 RAB27 PRESRR SLP130 P0002 T00940056 TSNO $=
201410261553 METAR KCLM 261553Z AUTO 00000KT 10SM FEW070 BKN090 08/06 A2988 RMK AO2 SLP118 T00780056 TSNO $=
201410261453 METAR KCLM 261453Z AUTO 27010KT 10SM FEW055 BKN080 09/05 A2986 RMK AO2 SLP113 60001 T00890050 51014 TSNO $=
201410261353 METAR KCLM 261353Z AUTO 25008KT 10SM FEW120 08/06 A2985 RMK AO2 RAE20 SLP108 P0001 T00830056 TSNO $=
201410261253 METAR KCLM 261253Z AUTO 25014G20KT 10SM -RA BKN055 OVC075 09/06 A2984 RMK AO2 RAE06B39 SLP107 P0000 T00890056 TSNO $=
201410261153 METAR KCLM 261153Z AUTO 24008KT 10SM -RA BKN046 BKN065 OVC080 09/06 A2982 RMK AO2 RAB13 SLP098 P0008 60014 7//// T00940061 10111 20089 51020 TSNO $=
201410261053 METAR KCLM 261053Z AUTO 25018G24KT 10SM FEW090 09/06 A2979 RMK AO2 RAE19 SLP090 P0002 T00890056 TSNO $=
201410260953 METAR KCLM 260953Z AUTO 23019KT 8SM RA OVC050 09/06 A2980 RMK AO2 RAB30 SLP091 P0002 T00940061 TSNO $=
201410260853 METAR KCLM 260853Z AUTO 25010KT 10SM FEW070 SCT085 10/05 A2976 RMK AO2 RAE0754 SLP077 P0000 60002 T01000050 51052 TSNO $=
201410260753 METAR KCLM 260753Z AUTO 26011KT 10SM -RA BKN065 BKN080 10/06 A2973 RMK AO2 RAB41 SLP067 P0000 T01000056 401220094 TSNO $=
201410260653 METAR KCLM 260653Z AUTO 21004KT 10SM FEW060 BKN090 BKN100 10/07 A2969 RMK AO2 RAB0559E36 PRESRR SLP054 P0002 T01000072 TSNO $=
201410260553 METAR KCLM 260553Z AUTO 28014KT 11/07 A2960 RMK AO2 PK WND 28027/0454 SLP025 6//// T01110067 51081 TSNO $=
201410260453 METAR KCLM 260453Z AUTO 27017G34KT 10SM CLR 12/05 A2953 RMK AO2 PK WND 26039/0432 RAB0355E15 PRESRR SLP002 P0000 T01170050 TSNO $=
201410260353 METAR KCLM 260353Z AUTO 26025G39KT 10SM OVC065 12/07 A2945 RMK AO2 PK WND 26041/0335 RAB18E52 SLP975 P0000 T01170067 TSNO $=
201410260253 METAR KCLM 260253Z AUTO 29012KT 10SM OVC047 12/10 A2936 RMK AO2 RAE03 PRESRR SLP943 P0000 60031 T01220100 53042 TSNO $=
201410260201 SPECI KCLM 260201Z AUTO 28009KT 10SM -RA SCT009 SCT013 OVC060 12/10 A2929 RMK AO2 PRESRR P0000 T01170100 TSNO $=
201410260153 METAR KCLM 260153Z AUTO 25006KT 10SM -RA BKN007 BKN013 OVC065 12/11 A2928 RMK AO2 CIG 005V011 SLP916 P0012 T01170106 TSNO $=
201410260140 SPECI KCLM 260140Z AUTO 25007KT 9SM -RA OVC006 12/11 A2927 RMK AO2 CIG 003V012 P0012 T01170106 TSNO $=
201410260119 SPECI KCLM 260119Z AUTO 26009KT 4SM RA BR OVC004 12/11 A2926 RMK AO2 P0009 T01170106 TSNO $=
201410260112 SPECI KCLM 260112Z AUTO 26010KT 2 1/2SM +RA BR OVC003 12/10 A2925 RMK AO2 P0007 T01170100 TSNO $=
201410260053 METAR KCLM 260053Z AUTO 27007KT 240V300 5SM RA BR OVC003 11/10 A2923 RMK AO2 SLP900 P0019 T01110100 TSNO $=
201410260043 SPECI KCLM 260043Z AUTO 29008KT 250V330 4SM RA BR OVC003 11/10 A2923 RMK AO2 P0017 T01110100 TSNO $=
201410260031 SPECI KCLM 260031Z AUTO 27009G15KT 2 1/2SM +RA BR OVC003 11/10 A2923 RMK AO2 P0014 T01110100 TSNO $=
201410260005 SPECI KCLM 260005Z AUTO 00000KT 3SM RA BR OVC003 11/10 A2922 RMK AO2 P0004 T01110100 TSNO $=
201410252353 METAR KCLM 252353Z AUTO 35005KT 2SM RA BR OVC002 11/10 A2924 RMK AO2 SLP901 P0024 60047 T01110100 10111 20106 58030 TSNO $=
201410252321 SPECI KCLM 252321Z AUTO 03007KT 1 3/4SM RA BR OVC003 11/10 A2925 RMK AO2 P0010 T01110100 TSNO $=
201410252308 SPECI KCLM 252308Z AUTO 04005KT 2SM RA BR OVC003 11/10 A2926 RMK AO2 P0005 T01110100 TSNO $=
201410252253 METAR KCLM 252253Z AUTO 07004KT 4SM -RA BR OVC003 11/10 A2927 RMK AO2 SLP913 P0011 T01110100 TSNO $=
201410252153 METAR KCLM 252153Z AUTO 10004KT 3SM -RA BR BKN004 BKN016 OVC022 11/10 A2929 RMK AO2 SLP920 P0004 T01110100 TSNO $=
201410252145 SPECI KCLM 252145Z AUTO 09004KT 4SM -RA BR SCT003 BKN022 OVC070 11/10 A2929 RMK AO2 P0004 T01110100 TSNO $=
201410252053 METAR KCLM 252053Z AUTO 00000KT 9SM -RA SCT005 OVC070 11/09 A2933 RMK AO2 SLP931 P0005 60008 T01110094 58035 TSNO $=
201410252041 SPECI KCLM 252041Z AUTO 00000KT 10SM -RA FEW008 OVC070 11/09 A2933 RMK AO2 P0004 T01110094 TSNO $=
201410252025 SPECI KCLM 252025Z AUTO 00000KT 2 1/2SM RA BR SCT007 OVC060 11/09 A2934 RMK AO2 P0003 T01110094 TSNO $=
201410251953 METAR KCLM 251953Z AUTO 00000KT 10SM -RA OVC006 11/09 A2936 RMK AO2 CIG 004V009 SLP943 P0003 T01110094 TSNO $=
201410251853 METAR KCLM 251853Z AUTO 00000KT 10SM -RA OVC008 11/09 A2941 RMK AO2 SLP960 P0000 T01060089 TSNO $=
201410251753 METAR KCLM 251753Z AUTO 05007KT 10SM -RA OVC008 11/08 A2943 RMK AO2 RAB48 CIG 006V012 SLP966 P0000 60004 T01060083 10106 20100 56024 TSNO $=
201410251704 SPECI KCLM 251704Z AUTO VRB05KT 10SM OVC010 11/08 A2945 RMK AO2 CIG 008V012 T01060083 TSNO $=
201410251653 METAR KCLM 251653Z AUTO 05007KT 10SM OVC009 11/08 A2946 RMK AO2 RAB1559E15 CIG 008V012 SLP975 P0000 T01060083 TSNO $=
201410251553 METAR KCLM 251553Z AUTO 10008KT 10SM OVC007 10/08 A2947 RMK AO2 RAE50 CIG 006V010 SLP979 P0003 T01000083 TSNO $=
201410251453 METAR KCLM 251453Z AUTO 10004KT 10SM -RA OVC008 10/08 A2950 RMK AO2 RAB17 SLP990 P0001 60001 T01000083 55017 TSNO $=
201410251353 METAR KCLM 251353Z AUTO 02006KT 10SM OVC009 10/08 A2948 RMK AO2 CIG 006V012 SLP983 T01000083 TSNO $=
201410251253 METAR KCLM 251253Z AUTO 10SM OVC009 11/08 A2951 RMK AO2 SLP993 T01060083 TSNO $=
201410251153 METAR KCLM 251153Z AUTO 10SM OVC008 10/09 A2955 RMK AO2 RAE1056 CIG 005V010 SLP008 P0001 60018 70022 T01000089 10106 20100 58027 TSNO $=
201410251107 SPECI KCLM 251107Z AUTO 10SM OVC005 11/09 A2959 RMK AO2 RAE1056 P0000 T01060089 TSNO $=
201410251053 METAR KCLM 251053Z AUTO 10SM -RA OVC004 10/09 A2960 RMK AO2 RAE21B43 SLP023 P0000 T01000089 TSNO $=
201410251050 SPECI KCLM 251050Z AUTO 10SM -RA OVC004 11/09 A2960 RMK AO2 RAE21B43 P0000 TSNO $=
201410250953 METAR KCLM 250953Z AUTO 10SM -RA OVC008 10/09 A2963 RMK AO2 CIG 006V010 SLP035 P0002 T01000089 TSNO $=
201410250853 METAR KCLM 250853Z AUTO 10SM -RA BKN008 OVC014 10/09 A2970 RMK AO2 CIG 005V009 SLP056 P0002 60015 T01000089 58037 TSNO $=
201410250753 METAR KCLM 250753Z AUTO 10SM -RA OVC007 10/09 A2973 RMK AO2 SLP069 P0007 T01000089 TSNO $=
201410250726 SPECI KCLM 250726Z AUTO 8SM RA BKN009 OVC013 10/08 A2975 RMK AO2 CIG 007V012 P0004 T01000083 TSNO $=
201410250702 SPECI KCLM 250702Z AUTO 7SM -RA OVC014 10/09 A2977 RMK AO2 P0001 T01000089 TSNO $=
201410250653 METAR KCLM 250653Z AUTO 7SM -RA OVC016 10/09 A2977 RMK AO2 SLPNO P0006 T01000089 TSNO $=
201410250635 SPECI KCLM 250635Z AUTO 10SM -RA FEW008 OVC017 10/09 A2979 RMK AO2 P0004 T01000089 TSNO $=
201410250611 SPECI KCLM 250611Z AUTO 7SM -RA OVC009 10/09 A2979 RMK AO2 CIG 007V013 P0002 T01000089 TSNO $=
201410250553 METAR KCLM 250553Z AUTO 8SM -RA OVC011 10/09 A2981 RMK AO2 SLPNO P0004 60004 T01000089 10117 20089 58025 TSNO $=
201410250521 SPECI KCLM 250521Z AUTO 10SM -RA BKN014 OVC060 10/09 A2983 RMK AO2 P0002 T01000089 TSNO $=
201410250506 SPECI KCLM 250506Z AUTO 10SM -RA BKN015 OVC060 10/08 A2984 RMK AO2 P0001 T01000083 TSNO $=
201410250453 METAR KCLM 250453Z AUTO 10SM -RA FEW013 SCT030 OVC065 10/08 A2985 RMK AO2 RAB03 SLPNO P0000 T01000083 TSNO $=
201410250353 METAR KCLM 250353Z AUTO 16004KT 10SM OVC090 09/08 A2987 RMK AO2 SLPNO T00940078 TSNO $=
201410250253 METAR KCLM 250253Z AUTO 00000KT 10SM CLR 09/08 A2988 RMK AO2 SLPNO T00890078 56019 TSNO $=
201410250153 METAR KCLM 250153Z AUTO 15003KT 10SM BKN030 10/07 A2989 RMK AO2 SLPNO T01000072 TSNO $=
201410250142 SPECI KCLM 250142Z AUTO 00000KT 10SM FEW020 BKN030 11/08 A2989 RMK AO2 T01060078 TSNO $=
201410250122 SPECI KCLM 250122Z AUTO 00000KT 10SM SCT014 OVC020 11/07 A2991 RMK AO2 T01060072 TSNO=
201410250108 SPECI KCLM 250108Z AUTO 00000KT 10SM BKN014 BKN020 OVC027 11/07 A2991 RMK AO2 T01110067 TSNO=
201410250053 METAR KCLM 250053Z AUTO 15003KT 10SM FEW014 SCT020 OVC027 11/07 A2991 RMK AO2 SLPNO T01110072 TSNO=
201410250002 SPECI KCLM 250002Z AUTO 10003KT 10SM FEW016 BKN029 BKN120 12/08 A2993 RMK AO2 T01170078 TSNO=
201410242353 METAR KCLM 242353Z AUTO 13003KT 10SM SCT017 BKN120 11/08 A2994 RMK AO2 SLPNO T01110078 56014 TSNO=
201410242253 METAR KCLM 242253Z AUTO 11004KT 10SM OVC017 11/08 A2996 RMK AO2 SLPNO T01110078 TSNO=
201410242153 METAR KCLM 242153Z AUTO 07005KT 10SM BKN016 OVC021 11/07 A2998 RMK AO2 SLPNO T01110072 TSNO=
201410242114 SPECI KCLM 242114Z AUTO 11005KT 10SM BKN014 BKN020 12/08 A3000 RMK AO2 T01170078 TSNO=
201410242053 METAR KCLM 242053Z AUTO 05003KT 10SM FEW013 12/08 A3001 RMK AO2 SLPNO T01170078 TSNO=
201410242037 SPECI KCLM 242037Z AUTO 06004KT 10SM SCT013 11/08 A3001 RMK AO2 T01110078 TSNO=
201410242025 SPECI KCLM 242025Z AUTO 08005KT 10SM BKN015 12/08 A3001 RMK AO2 T01170083 TSNO=
201410242015 SPECI KCLM 242015Z AUTO 05004KT 10SM BKN013 BKN018 12/08 A3001 RMK AO2 T01170078 TSNO=
201410241953 METAR KCLM 241953Z AUTO VRB04KT 10SM 12/08 A3001 RMK AO2 SLPNO T01170083 TSNO $=
201410241853 METAR KCLM 241853Z AUTO A3003 RMK AO2 SLPNO PWINO TSNO $=
201410241753 METAR KCLM 241753Z AUTO A3003 RMK AO2 SLPNO 50000 PWINO TSNO $=
201410241653 METAR KCLM 241653Z AUTO A3004 RMK AO2 SLPNO PWINO TSNO $=
201410241553 METAR KCLM 241553Z AUTO A3004 RMK AO2 SLPNO PWINO TSNO $=
201410241453 METAR KCLM 241453Z AUTO A3003 RMK AO2 SLPNO 52010 PWINO TSNO $=
201410241353 METAR KCLM 241353Z AUTO A3002 RMK AO2 SLPNO PWINO TSNO $=
201410241253 METAR KCLM 241253Z AUTO A3001 RMK AO2 SLPNO PWINO TSNO $=
201410241153 METAR KCLM 241153Z AUTO A3000 RMK AO2 SLPNO 52003 PWINO TSNO $=
201410241053 METAR KCLM 241053Z AUTO A3000 RMK AO2 SLPNO PWINO TSNO $=
201410240953 METAR KCLM 240953Z AUTO A2999 RMK AO2 SLPNO PWINO TSNO $=
201410240853 METAR KCLM 240853Z AUTO A2999 RMK AO2 SLPNO 52010 PWINO TSNO $=
201410240753 METAR KCLM 240753Z AUTO A2998 RMK AO2 SLPNO PWINO TSNO $=
201410240653 METAR KCLM 240653Z AUTO A2997 RMK AO2 SLPNO PWINO TSNO $=
201410240553 METAR KCLM 240553Z AUTO A2996 RMK AO2 SLPNO 51020 PWINO TSNO $=
201410240453 METAR KCLM 240453Z AUTO A2995 RMK AO2 SLPNO PWINO TSNO $=
201410240353 METAR KCLM 240353Z AUTO A2993 RMK AO2 SLPNO PWINO TSNO $=
201410240253 METAR KCLM 240253Z AUTO A2990 RMK AO2 SLPNO 53020 PWINO TSNO $=
201410240153 METAR KCLM 240153Z AUTO A2988 RMK AO2 SLPNO PWINO TSNO $=
201410240053 METAR KCLM 240053Z AUTO A2985 RMK AO2 SLPNO PWINO TSNO $=
201410232353 METAR KCLM 232353Z AUTO A2984 RMK AO2 SLPNO 51020 PWINO TSNO $=
201410232253 METAR KCLM 232253Z AUTO A2984 RMK AO2 SLPNO PWINO TSNO $=
201410232153 METAR KCLM 232153Z AUTO A2980 RMK AO2 SLPNO PWINO TSNO $=
201410232053 METAR KCLM 232053Z AUTO A2978 RMK AO2 SLPNO 51023 PWINO TSNO $=
201410231953 METAR KCLM 231953Z AUTO A2977 RMK AO2 SLPNO PWINO TSNO $=
201410231853 METAR KCLM 231853Z AUTO A2976 RMK AO2 PRESRR SLPNO PWINO TSNO $=
201410231753 METAR KCLM 231753Z AUTO A2971 RMK AO2 SLPNO PWINO TSNO $=
201410231653 METAR KCLM 231653Z AUTO A2970 RMK AO2 SLPNO PWINO TSNO $=
201410231553 METAR KCLM 231553Z AUTO A2969 RMK AO2 SLPNO PWINO TSNO $=
201410231453 METAR KCLM 231453Z AUTO A2968 RMK AO2 SLPNO 53007 PWINO TSNO $=
201410231353 METAR KCLM 231353Z AUTO A2966 RMK AO2 SLPNO PWINO TSNO $=
201410231253 METAR KCLM 231253Z AUTO A2966 RMK AO2 SLPNO PWINO TSNO $=
201410231153 METAR KCLM 231153Z AUTO A2966 RMK AO2 SLPNO 70006 58003 PWINO TSNO $=
201410231053 METAR KCLM 231053Z AUTO A2968 RMK AO2 SLPNO PWINO TSNO $=
201410230953 METAR KCLM 230953Z AUTO A2968 RMK AO2 SLPNO PWINO TSNO $=
201410230853 METAR KCLM 230853Z AUTO A2967 RMK AO2 SLPNO 51023 PWINO TSNO $=
201410230753 METAR KCLM 230753Z AUTO A2966 RMK AO2 SLPNO PWINO TSNO $=
201410230653 METAR KCLM 230653Z AUTO A2964 RMK AO2 SLPNO PWINO TSNO $=
201410230553 METAR KCLM 230553Z AUTO A2960 RMK AO2 SLPNO 53034 PWINO TSNO $=
201410230453 METAR KCLM 230453Z AUTO A2956 RMK AO2 SLPNO PWINO TSNO $=
201410230353 METAR KCLM 230353Z AUTO A2952 RMK AO2 SLPNO PWINO TSNO $=
201410230253 METAR KCLM 230253Z AUTO A2950 RMK AO2 SLPNO 56017 PWINO TSNO $=
201410230153 METAR KCLM 230153Z AUTO A2950 RMK AO2 SLPNO PWINO TSNO $=
201410230053 METAR KCLM 230053Z AUTO A2951 RMK AO2 SLPNO PWINO TSNO $=
201410222353 METAR KCLM 222353Z AUTO A2955 RMK AO2 SLPNO 58026 PWINO TSNO $=
201410222253 METAR KCLM 222253Z AUTO A2959 RMK AO2 SLPNO PWINO TSNO $=
201410222153 METAR KCLM 222153Z AUTO A2961 RMK AO2 SLPNO PWINO TSNO $=
201410222053 METAR KCLM 222053Z AUTO 11005KT 10SM FEW065 14/11 A2963 RMK AO2 SLP034 T01390111 58012 TSNO $=
201410222032 SPECI KCLM 222032Z AUTO 11006KT 10SM FEW008 SCT065 14/11 A2964 RMK AO2 T01390111 TSNO $=
201410221953 METAR KCLM 221953Z AUTO 14005KT 10SM CLR 14/12 A2966 RMK AO2 SLP043 T01390117 TSNO $=
201410221853 METAR KCLM 221853Z AUTO 13004KT 10SM CLR 14/12 A2967 RMK AO2 SLP046 T01390117 TSNO $=
201410221753 METAR KCLM 221753Z AUTO 13005KT 10SM FEW055 13/12 A2967 RMK AO2 SLP045 60006 T01330117 10133 20117 50006 TSNO $=
201410221727 SPECI KCLM 221727Z AUTO 00000KT 10SM SCT011 SCT017 SCT022 13/12 A2967 RMK AO2 T01330117 TSNO $=
201410221653 METAR KCLM 221653Z AUTO 14003KT 10SM OVC014 13/12 A2967 RMK AO2 SLP047 T01330117 TSNO $=
201410221616 SPECI KCLM 221616Z AUTO 00000KT 10SM OVC010 13/12 A2967 RMK AO2 CIG 008V011 T01280117 TSNO $=
201410221553 METAR KCLM 221553Z AUTO 00000KT 10SM OVC009 13/12 A2966 RMK AO2 RAE51 SLP043 P0000 T01280117 TSNO $=
201410221535 SPECI KCLM 221535Z AUTO 17003KT 10SM -RA OVC010 13/12 A2965 RMK AO2 P0000 T01280117 TSNO $=
201410221509 SPECI KCLM 221509Z AUTO 11003KT 8SM -RA OVC008 12/12 A2965 RMK AO2 CIG 007V012 P0000 T01220117 TSNO $=
201410221453 METAR KCLM 221453Z AUTO 00000KT 6SM -RA BR OVC010 12/11 A2965 RMK AO2 RAB10E24B47 CIG 008V014 SLP040 P0000 60006 T01220111 51026 TSNO $=
201410221419 SPECI KCLM 221419Z AUTO 00000KT 10SM -RA SCT002 BKN013 OVC026 12/12 A2964 RMK AO2 RAB10 P0000 T01220117 TSNO $=
201410221406 SPECI KCLM 221406Z AUTO 18003KT 10SM BKN002 OVC015 12/12 A2963 RMK AO2 T01220117 TSNO $=
201410221353 METAR KCLM 221353Z AUTO 00000KT 9SM SCT003 OVC017 12/11 A2963 RMK AO2 RAE10 SLP034 P0000 T01220111 TSNO $=
201410221318 SPECI KCLM 221318Z AUTO 29003KT 10SM FEW006 BKN026 OVC060 12/11 A2961 RMK AO2 RAE10 P0000 T01170106 TSNO $=
201410221308 SPECI KCLM 221308Z AUTO 00000KT 10SM -RA FEW006 SCT023 OVC060 12/12 A2961 RMK AO2 P0000 T01220117 TSNO $=
201410221300 SPECI KCLM 221300Z AUTO 00000KT 10SM -RA FEW006 BKN021 OVC060 12/11 A2961 RMK AO2 P0000 T01220111 TSNO $=
201410221253 METAR KCLM 221253Z AUTO 00000KT 8SM -RA FEW006 SCT021 OVC060 12/11 A2961 RMK AO2 SLP027 P0006 T01220111 TSNO $=
201410221153 METAR KCLM 221153Z AUTO 00000KT 10SM -RA BKN070 BKN080 OVC090 12/11 A2957 RMK AO2 PRESRR SLP013 P0004 60032 70044 T01220111 10128 20111 51017 TSNO $=
201410221053 METAR KCLM 221053Z AUTO 27006KT 4SM RA BR OVC055 12/11 A2957 RMK AO2 SLP013 P0017 T01220111 TSNO $=
201410221048 SPECI KCLM 221048Z AUTO 28006KT 4SM RA BR OVC055 13/11 A2956 RMK AO2 P0016 TSNO $=
201410221027 SPECI KCLM 221027Z AUTO 24004KT 2SM +RA BR BKN055 OVC070 12/11 A2954 RMK AO2 P0009 T01220111 TSNO $=
201410220953 METAR KCLM 220953Z AUTO 25004KT 8SM -RA BKN065 OVC080 12/11 A2952 RMK AO2 SLP996 P0006 T01170111 TSNO $=
201410220853 METAR KCLM 220853Z AUTO 35004KT 6SM RA BR BKN070 OVC090 12/11 A2951 RMK AO2 SLP994 P0005 60005 T01220106 56023 TSNO $=
201410220753 METAR KCLM 220753Z AUTO 00000KT 10SM -RA BKN065 OVC080 12/11 A2953 RMK AO2 SLP998 P0000 T01170106 401720089 TSNO $=
201410220653 METAR KCLM 220653Z AUTO 00000KT 10SM -RA BKN075 OVC085 12/11 A2955 RMK AO2 SLP005 P0000 T01170106 TSNO $=
201410220553 METAR KCLM 220553Z AUTO 00000KT 10SM -RA OVC075 12/11 A2958 RMK AO2 SLP018 P0001 60010 T01170106 10144 20117 56035 TSNO $=
201410220453 METAR KCLM 220453Z AUTO 00000KT 10SM -RA BKN060 OVC075 12/11 A2961 RMK AO2 SLP027 P0000 T01220111 TSNO $=
201410220353 METAR KCLM 220353Z AUTO 00000KT 10SM -RA OVC065 12/11 A2964 RMK AO2 SLP036 P0000 T01220111 TSNO=
201410220253 METAR KCLM 220253Z AUTO 20004KT 10SM -RA OVC070 12/11 A2969 RMK AO2 RAE13B29 SLP054 P0001 60009 T01220111 58029 TSNO=
201410220153 METAR KCLM 220153Z AUTO 12005KT 9SM -RA BKN070 OVC085 13/11 A2972 RMK AO2 SLP066 P0003 T01280111 TSNO=
201410220053 METAR KCLM 220053Z AUTO 23004KT 6SM RA BR OVC075 13/12 A2976 RMK AO2 SLP079 P0005 T01330117 TSNO=
201410212353 METAR KCLM 212353Z AUTO 24005KT 10SM -RA FEW055 SCT070 OVC085 14/11 A2977 RMK AO2 SLP082 P0000 60000 T01440106 10172 20139 58015 TSNO=
201410212253 METAR KCLM 212253Z AUTO 32003KT 10SM -RA BKN065 OVC080 15/11 A2980 RMK AO2 RAB46 SLP089 P0000 T01500106 TSNO=
201410212153 METAR KCLM 212153Z AUTO 09003KT 10SM FEW055 SCT070 BKN090 16/11 A2980 RMK AO2 RAB06E19 SLP090 P0000 T01560106 TSNO=
201410212053 METAR KCLM 212053Z AUTO 03005KT 10SM FEW044 SCT070 15/11 A2982 RMK AO2 SLP097 T01500106 58008 TSNO $=
201410211953 METAR KCLM 211953Z AUTO 05004KT 10SM CLR 16/11 A2983 RMK AO2 SLP100 T01560106 TSNO $=
201410211853 METAR KCLM 211853Z AUTO 00000KT 10SM OVC070 16/09 A2985 RMK AO2 SLP106 T01560094 TSNO $=
201410211753 METAR KCLM 211753Z AUTO 00000KT 10SM SCT070 BKN110 16/09 A2984 RMK AO2 RAB47E49 SLP105 P0000 60002 T01560089 10156 20089 51012 TSNO $=
201410211653 METAR KCLM 211653Z AUTO 00000KT 10SM FEW075 13/09 A2984 RMK AO2 SLP105 T01330089 TSNO $=
201410211553 METAR KCLM 211553Z AUTO 00000KT 10SM FEW065 SCT120 11/08 A2983 RMK AO2 SLP101 T01060083 TSNO $=
201410211453 METAR KCLM 211453Z AUTO 28004KT 10SM SCT065 10/08 A2981 RMK AO2 SLP094 60002 T01000078 51010 TSNO=
201410211353 METAR KCLM 211353Z AUTO 25004KT 10SM BKN060 OVC075 11/08 A2980 RMK AO2 RAE29 SLP093 P0001 T01110083 TSNO $=
201410211253 METAR KCLM 211253Z AUTO 28004KT 10SM -RA OVC060 11/08 A2980 RMK AO2 RAB49 SLP092 P0001 T01110083 TSNO $=
201410211153 METAR KCLM 211153Z AUTO 00000KT 10SM BKN075 BKN100 11/08 A2978 RMK AO2 RAE48 SLP082 P0000 60001 70004 T01110078 10128 20100 51005 TSNO $=
201410211053 METAR KCLM 211053Z AUTO 23005KT 10SM -RA OVC065 11/08 A2977 RMK AO2 RAB51 SLP082 P0000 T01060083 TSNO $=
201410210953 METAR KCLM 210953Z AUTO 26006KT 10SM OVC060 12/09 A2977 RMK AO2 SLP079 T01220089 TSNO $=
201410210853 METAR KCLM 210853Z AUTO 21005KT 10SM FEW070 OVC085 12/09 A2976 RMK AO2 RAB0757E37 SLP077 P0001 60001 T01170089 53004 TSNO $=
201410210753 METAR KCLM 210753Z AUTO 00000KT 10SM BKN075 OVC090 12/11 A2975 RMK AO2 RAB02E45 SLP075 P0000 T01170106 401610106 TSNO $=
201410210653 METAR KCLM 210653Z AUTO 00000KT 10SM SCT065 BKN100 11/11 A2975 RMK AO2 SLP074 T01110106 TSNO $=
201410210553 METAR KCLM 210553Z AUTO 00000KT 10SM FEW014 OVC090 11/10 A2975 RMK AO2 SLP073 60001 T01110100 10144 20106 53005 TSNO $=
201410210453 METAR KCLM 210453Z AUTO 18003KT 10SM FEW075 BKN100 BKN120 11/09 A2973 RMK AO2 SLP069 T01060094 TSNO $=
201410210353 METAR KCLM 210353Z AUTO 25007KT 10SM BKN065 12/09 A2973 RMK AO2 SLP068 T01220094 TSNO $=
201410210253 METAR KCLM 210253Z AUTO 25004KT 10SM 12/10 A2973 RMK AO2 SLP068 60001 T01170100 53002 TSNO $=
201410210153 METAR KCLM 210153Z AUTO 23003KT 10SM FEW018 13/11 A2972 RMK AO2 SLP065 T01280111 TSNO $=
201410210136 SPECI KCLM 210136Z AUTO 00000KT 3SM BR FEW018 13/12 A2973 RMK AO2 T01280117 TSNO $=
201410210127 SPECI KCLM 210127Z AUTO 00000KT 1 3/4SM BR FEW018 SCT065 13/12 A2973 RMK AO2 T01280117 TSNO $=
201410210053 METAR KCLM 210053Z AUTO 00000KT 10SM BKN080 OVC090 14/12 A2972 RMK AO2 RAB2356RAEMM SLP065 P0001 T01390122 TSNO $=
201410202353 METAR KCLM 202353Z AUTO 00000KT 10SM BKN075 OVC100 15/12 A2973 RMK AO2 SLP066 60000 T01500117 10161 20144 53001 TSNO $=
201410202253 METAR KCLM 202253Z AUTO 09005KT 10SM SCT080 BKN090 16/12 A2973 RMK AO2 RAB2158E11 SLP065 P0000 T01560122 TSNO $=
201410202212 SPECI KCLM 202212Z AUTO 11005KT 10SM SCT007 SCT016 OVC085 16/13 A2973 RMK AO2 RAB2158E11 P0000 T01560128 TSNO $=
201410202153 METAR KCLM 202153Z AUTO VRB03KT 10SM BKN007 BKN015 15/13 A2972 RMK AO2 RAE15 SLP064 P0000 T01500128 TSNO $=
201410202148 SPECI KCLM 202148Z AUTO 08005KT 10SM BKN007 BKN014 15/13 A2972 RMK AO2 RAE15 P0000 TSNO $=
201410202053 METAR KCLM 202053Z AUTO 06003KT 10SM -RA SCT009 BKN060 OVC100 15/12 A2972 RMK AO2 RAB51 SLP065 P0000 60000 T01500122 53002 TSNO $=
201410202033 SPECI KCLM 202033Z AUTO 00000KT 10SM SCT009 BKN060 OVC100 15/13 A2972 RMK AO2 T01500128 TSNO $=
201410202016 SPECI KCLM 202016Z AUTO VRB04KT 10SM BKN008 OVC110 15/13 A2972 RMK AO2 T01500128 TSNO $=
201410201953 METAR KCLM 201953Z AUTO 12005KT 10SM SCT009 BKN110 15/13 A2972 RMK AO2 SLP063 T01500128 TSNO $=
201410201900 SPECI KCLM 201900Z AUTO 07003KT 10SM BKN007 OVC075 16/13 A2972 RMK AO2 T01560128 TSNO $=
201410201853 METAR KCLM 201853Z AUTO 00000KT 10SM SCT006 BKN012 OVC075 16/13 A2972 RMK AO2 SLP064 T01610128 TSNO $=
201410201818 SPECI KCLM 201818Z AUTO 00000KT 10SM FEW007 OVC011 14/13 A2972 RMK AO2 T01440128 TSNO $=
201410201753 METAR KCLM 201753Z AUTO VRB03KT 10SM BKN009 BKN046 14/13 A2972 RMK AO2 RAE14B33E43 SLP063 P0000 60002 T01440128 10150 20128 51016 TSNO $=
201410201738 SPECI KCLM 201738Z AUTO 31003KT 10SM -RA BKN009 OVC015 14/12 A2971 RMK AO2 RAE14B33 CIG 007V013 P0000 T01440122 TSNO $=
201410201730 SPECI KCLM 201730Z AUTO 36003KT 10SM SCT007 BKN013 OVC070 15/13 A2972 RMK AO2 RAE14 P0000 T01500128 TSNO $=
201410201653 METAR KCLM 201653Z AUTO 00000KT 10SM -RA BKN014 OVC055 14/13 A2972 RMK AO2 RAB07 SLP062 P0001 T01440128 TSNO $=
201410201623 SPECI KCLM 201623Z AUTO 26004KT 5SM -RA BR SCT003 BKN015 OVC020 14/13 A2971 RMK AO2 RAB07 P0000 T01390128 TSNO $=
201410201613 SPECI KCLM 201613Z AUTO 26003KT 10SM -RA BKN003 BKN015 OVC060 14/13 A2971 RMK AO2 RAB07 P0000 T01390128 TSNO $=
201410201605 SPECI KCLM 201605Z AUTO 00000KT 10SM SCT003 BKN021 OVC055 13/12 A2970 RMK AO2 T01330122 TSNO $=
201410201553 METAR KCLM 201553Z AUTO 32003KT 10SM BKN019 OVC060 13/12 A2969 RMK AO2 SLP054 T01330122 TSNO $=
201410201524 SPECI KCLM 201524Z AUTO 26003KT 10SM SCT012 BKN018 OVC060 13/12 A2968 RMK AO2 T01330122 TSNO $=
201410201453 METAR KCLM 201453Z AUTO 00000KT 10SM BKN014 OVC065 13/12 A2967 RMK AO2 SLP046 60001 T01330117 51004 TSNO $=
201410201353 METAR KCLM 201353Z AUTO 27005KT 10SM BKN017 OVC060 13/12 A2967 RMK AO2 RAB03E19 SLP046 P0001 T01280117 TSNO $=
201410201334 SPECI KCLM 201334Z AUTO 28006KT 9SM FEW019 OVC065 13/12 A2966 RMK AO2 RAB03E19 P0001 T01280117 TSNO $=
201410201322 SPECI KCLM 201322Z AUTO 24003KT 10SM FEW011 BKN020 OVC070 13/12 A2966 RMK AO2 RAB03E19 P0001 T01280117 TSNO $=
201410201314 SPECI KCLM 201314Z AUTO 00000KT 10SM -RA SCT011 OVC070 13/12 A2966 RMK AO2 RAB03 P0001 T01280122 TSNO $=
201410201253 METAR KCLM 201253Z AUTO 25003KT 10SM SCT010 BKN014 OVC020 13/12 A2966 RMK AO2 SLP044 T01280122 TSNO $=
201410201233 SPECI KCLM 201233Z AUTO 00000KT 9SM FEW013 BKN019 OVC055 13/12 A2966 RMK AO2 T01280117 TSNO $=
201410201221 SPECI KCLM 201221Z AUTO 00000KT 2 1/2SM BR SCT013 BKN019 OVC055 13/12 A2965 RMK AO2 T01280122 TSNO $=
201410201153 METAR KCLM 201153Z AUTO 13005KT 10SM BKN014 OVC050 13/12 A2966 RMK AO2 RAE1056B12E41 SLP042 P0000 60007 70013 T01280122 10133 20128 58000 TSNO $=
201410201139 SPECI KCLM 201139Z AUTO 13004KT 10SM -RA BKN014 OVC050 13/12 A2965 RMK AO2 RAE1056B12 P0000 T01330122 TSNO $=
201410201130 SPECI KCLM 201130Z AUTO 12004KT 10SM -RA SCT017 OVC050 13/12 A2966 RMK AO2 RAE1056B12 P0000 T01330117 TSNO $=
201410201121 SPECI KCLM 201121Z AUTO 00000KT 10SM -RA BKN015 BKN022 OVC050 13/12 A2966 RMK AO2 RAE1056B12 P0000 T01280117 TSNO $=
201410201053 METAR KCLM 201053Z AUTO 22003KT 10SM -RA BKN014 OVC026 13/12 A2966 RMK AO2 RAEMMB42 SLP044 P0000 T01330122 TSNO $=
201410201045 SPECI KCLM 201045Z AUTO 00000KT 10SM -RA BKN014 BKN026 OVC050 13/12 A2966 RMK AO2 RAEMMB42 P0000 T01280122 TSNO $=
201410201038 SPECI KCLM 201038Z AUTO 00000KT 10SM SCT014 BKN026 OVC055 13/12 A2966 RMK AO2 RAEMM P0000 T01280122 TSNO $=
201410200953 METAR KCLM 200953Z AUTO 15003KT 10SM -RA FEW019 BKN055 OVC070 13/12 A2966 RMK AO2 RAE11B51 SLP042 P0001 T01280122 TSNO $=
201410200929 SPECI KCLM 200929Z AUTO 23003KT 10SM 13/12 A2966 RMK AO2 RAE11 P0001 T01330122 TSNO $=
201410200905 SPECI KCLM 200905Z AUTO 25004KT 10SM -RA FEW009 OVC020 13/12 A2966 RMK AO2 P0001 T01330122 TSNO $=
201410200853 METAR KCLM 200853Z AUTO 28003KT 10SM -RA BKN009 OVC020 13/12 A2966 RMK AO2 RAE32B43 SLP043 P0000 60006 T01330122 56004 TSNO $=
201410200836 SPECI KCLM 200836Z AUTO 24003KT 10SM FEW003 OVC009 13/12 A2967 RMK AO2 RAE32 P0000 T01330122 TSNO $=
201410200753 METAR KCLM 200753Z AUTO 31003KT 10SM -RA 13/12 A2967 RMK AO2 SLP046 P0002 T01330122 402060111 TSNO $=
201410200700 SPECI KCLM 200700Z AUTO 13007KT 10SM -RA SCT026 SCT046 OVC085 13/12 A2965 RMK AO2 P0001 T01330122 TSNO $=
201410200653 METAR KCLM 200653Z AUTO 12006KT 10SM -RA BKN026 BKN047 OVC075 13/12 A2965 RMK AO2 SLP040 P0004 T01330122 TSNO $=
201410200627 SPECI KCLM 200627Z AUTO 00000KT 5SM -RA BR SCT006 BKN028 OVC055 13/12 A2966 RMK AO2 P0003 T01330122 TSNO $=
201410200553 METAR KCLM 200553Z AUTO 00000KT 10SM -RA OVC006 13/12 A2967 RMK AO2 RAE06B51 SLP047 P0000 60006 T01330122 10183 20133 53004 TSNO $=
201410200453 METAR KCLM 200453Z AUTO 28003KT 9SM -RA OVC005 13/12 A2966 RMK AO2 RAE17B35 CIG 004V009 SLP043 P0000 T01330122 TSNO $=
201410200353 METAR KCLM 200353Z AUTO VRB04KT 6SM -RA BR OVC007 13/12 A2966 RMK AO2 SLP043 P0006 T01330122 TSNO $=
201410200314 SPECI KCLM 200314Z AUTO 30006KT 4SM RA BR BKN009 OVC080 14/12 A2965 RMK AO2 P0002 T01390122 TSNO $=
201410200253 METAR KCLM 200253Z AUTO 32006KT 8SM -RA SCT009 BKN060 OVC080 14/12 A2966 RMK AO2 RAB29 SLP042 P0000 60000 T01440122 53016 TSNO $=
201410200223 SPECI KCLM 200223Z AUTO 31008KT 7SM SCT006 BKN060 OVC075 14/12 A2965 RMK AO2 T01440122 TSNO $=
201410200153 METAR KCLM 200153Z AUTO 10SM OVC065 17/12 A2964 RMK AO2 PRESRR SLP036 T01670117 TSNO $=
201410200053 METAR KCLM 200053Z AUTO 32006KT 10SM OVC060 17/12 A2960 RMK AO2 SLP024 T01720117 TSNO $=
201410192353 METAR KCLM 192353Z AUTO 03003KT 10SM OVC065 18/12 A2961 RMK AO2 SLP026 T01830117 10206 20156 56010 TSNO $=
201410192253 METAR KCLM 192253Z AUTO 00000KT 10SM BKN080 BKN090 20/11 A2961 RMK AO2 SLP027 T02000111 TSNO $=
201410192153 METAR KCLM 192153Z AUTO 00000KT 10SM OVC065 20/12 A2962 RMK AO2 SLP030 T02000117 TSNO $=
201410192053 METAR KCLM 192053Z AUTO 33006KT 10SM OVC070 18/13 A2964 RMK AO2 SLP036 T01830128 58007 TSNO $=
201410191953 METAR KCLM 191953Z AUTO 30005KT 10SM BKN080 19/13 A2965 RMK AO2 SLP041 T01940128 TSNO $=
201410191853 METAR KCLM 191853Z AUTO 05003KT 10SM OVC080 17/13 A2966 RMK AO2 SLP043 T01720128 TSNO $=
201410191753 METAR KCLM 191753Z AUTO 28007KT 10SM BKN080 16/13 A2966 RMK AO2 SLP043 T01560133 10156 20111 53001 TSNO $=
201410191730 SPECI KCLM 191730Z AUTO 26008KT 10SM SCT002 OVC080 14/13 A2965 RMK AO2 T01440128 TSNO $=
201410191717 SPECI KCLM 191717Z AUTO 27004KT 8SM BKN002 OVC080 13/13 A2965 RMK AO2 T01330128 TSNO $=
201410191710 SPECI KCLM 191710Z AUTO 27007KT 2 1/2SM BR OVC002 13/13 A2965 RMK AO2 T01330128 TSNO $=
201410191653 METAR KCLM 191653Z AUTO 30004KT 1/2SM FG VV002 13/12 A2965 RMK AO2 SLP041 T01330122 TSNO $=
201410191636 SPECI KCLM 191636Z AUTO 29004KT 1/4SM FG OVC002 13/12 A2965 RMK AO2 T01280122 TSNO $=
201410191629 SPECI KCLM 191629Z AUTO 00000KT 1 1/2SM BR OVC002 13/12 A2964 RMK AO2 T01280122 TSNO $=
201410191553 METAR KCLM 191553Z AUTO 26004KT 10SM BKN002 OVC085 13/12 A2966 RMK AO2 SLP043 T01280117 TSNO $=
201410191504 SPECI KCLM 191504Z AUTO 24003KT 10SM BKN004 OVC080 12/11 A2966 RMK AO2 T01170106 TSNO $=
201410191453 METAR KCLM 191453Z AUTO 23003KT 10SM SCT004 BKN075 OVC090 11/10 A2966 RMK AO2 SLP043 T01110100 56026 TSNO $=
201410191424 SPECI KCLM 191424Z AUTO 23005KT 10SM SCT002 BKN070 OVC085 12/11 A2967 RMK AO2 T01170106 TSNO $=
201410191402 SPECI KCLM 191402Z AUTO VRB03KT 9SM BKN001 OVC080 12/11 A2967 RMK AO2 T01170111 TSNO $=
201410191353 METAR KCLM 191353Z AUTO 23003KT 9SM SCT001 BKN080 12/11 A2967 RMK AO2 SLP047 T01170106 TSNO $=
201410191253 METAR KCLM 191253Z AUTO 11003KT 10SM BKN090 13/12 A2968 RMK AO2 SLP051 T01280117 TSNO $=
201410191238 SPECI KCLM 191238Z AUTO 00000KT 10SM SCT008 OVC085 13/12 A2970 RMK AO2 T01280117 TSNO $=
201410191153 METAR KCLM 191153Z AUTO 00000KT 10SM OVC007 14/12 A2973 RMK AO2 SLP068 T01390122 10139 20111 58007 TSNO $=
201410191117 SPECI KCLM 191117Z AUTO 26003KT 10SM OVC007 13/12 A2975 RMK AO2 CIG 004V011 T01330122 TSNO $=
201410191053 METAR KCLM 191053Z AUTO 26007KT 10SM OVC004 13/12 A2977 RMK AO2 SLP079 T01330117 TSNO $=
201410191015 SPECI KCLM 191015Z AUTO 28008KT 10SM BKN005 13/12 A2976 RMK AO2 T01330117 TSNO $=
201410190953 METAR KCLM 190953Z AUTO 26008KT 10SM FEW006 12/11 A2976 RMK AO2 SLP078 T01220106 TSNO $=
201410190853 METAR KCLM 190853Z AUTO 00000KT 10SM FEW009 12/11 A2975 RMK AO2 SLP075 T01220106 58011 TSNO $=
201410190814 SPECI KCLM 190814Z AUTO VRB03KT 10SM FEW007 12/11 A2976 RMK AO2 T01170106 TSNO $=
201410190753 METAR KCLM 190753Z AUTO 21006KT 10SM CLR 12/11 A2977 RMK AO2 SLPNO T01220106 401780094 TSNO $=
201410190653 METAR KCLM 190653Z AUTO 24004KT 7SM FEW001 12/11 A2978 RMK AO2 SLP084 T01170106 TSNO $=
201410190646 SPECI KCLM 190646Z AUTO 23005KT 3SM BR SCT001 12/11 A2978 RMK AO2 T01170106 TSNO $=
201410190644 SPECI KCLM 190644Z AUTO 24004KT 2SM BR BKN001 12/11 A2978 RMK AO2 T01170106 TSNO $=
201410190638 SPECI KCLM 190638Z AUTO 27006KT 1/2SM FG VV001 11/11 A2978 RMK AO2 T01110106 TSNO $=
201410190629 SPECI KCLM 190629Z AUTO 30004KT 1/4SM FG 11/11 A2978 RMK AO2 T01110106 TSNO $=
201410190619 SPECI KCLM 190619Z AUTO 30004KT 3/4SM BR 11/10 A2978 RMK AO2 T01110100 TSNO $=
201410190610 SPECI KCLM 190610Z AUTO 32003KT 2 1/2SM BR 10/09 A2978 RMK AO2 T01000094 TSNO $=
201410190553 METAR KCLM 190553Z AUTO 00000KT 10SM 10/09 A2979 RMK AO2 SLP087 T01000089 10167 20100 56020 TSNO $=
201410190453 METAR KCLM 190453Z AUTO 00000KT 10SM 11/10 A2980 RMK AO2 SLP093 T01060100 TSNO $=
201410190353 METAR KCLM 190353Z AUTO 00000KT 10SM FEW065 12/11 A2983 RMK AO2 SLP101 T01170106 TSNO=
201410190253 METAR KCLM 190253Z AUTO 00000KT 10SM FEW070 13/11 A2985 RMK AO2 SLP107 T01280111 58016 TSNO=
201410190153 METAR KCLM 190153Z AUTO 00000KT 10SM SCT070 13/12 A2986 RMK AO2 SLP113 T01330117 TSNO $=
201410190053 METAR KCLM 190053Z AUTO 00000KT 10SM SCT075 15/13 A2988 RMK AO2 SLP117 T01500128 TSNO $=
201410182353 METAR KCLM 182353Z AUTO 00000KT 10SM FEW075 16/13 A2989 RMK AO2 SLP122 T01610128 TSNO $=
201410182253 METAR KCLM 182253Z AUTO 02003KT 17/13 A2990 RMK AO2 SLP125 T01720128 TSNO=
201410182200 METAR KCLM NIL=
201410182053 METAR KCLM 182053Z AUTO 10SM 17/13 A2992 RMK AO2 SLP131 T01670133 TSNO=
201410181953 METAR KCLM 181953Z AUTO A2991 RMK AO2 SLPNO PWINO TSNO $=
201410181853 METAR KCLM 181853Z AUTO 16/13 A2990 RMK AO2 SLP126 T01610133 PWINO TSNO $=
201410181837 SPECI KCLM 181837Z AUTO 9SM SCT003 SCT050 BKN060 15/13 A2990 RMK AO2 T01500133 TSNO $=
201410181827 SPECI KCLM 181827Z AUTO 9SM BKN003 OVC055 15/13 A2990 RMK AO2 T01500133 PWINO TSNO $=
201410181800 SPECI KCLM 181800Z AUTO 6SM BR 14/12 A2990 RMK AO2 T01390122 TSNO $=
201410181753 METAR KCLM 181753Z AUTO 2 1/2SM BR 13/12 A2990 RMK AO2 SLP126 60000 T01330122 10161 20094 51014 TSNO $=
201410181729 SPECI KCLM 181729Z AUTO 1/2SM FG 13/12 A2990 RMK AO2 T01280117 TSNO $=
201410181722 SPECI KCLM 181722Z AUTO 1 1/4SM BR BKN002 BKN070 13/12 A2990 RMK AO2 T01330117 TSNO $=
201410181719 SPECI KCLM 181719Z AUTO 6SM BR SCT002 BKN070 13/12 A2990 RMK AO2 T01330117 TSNO $=
201410181653 METAR KCLM 181653Z AUTO 10SM FEW031 BKN060 16/14 A2989 RMK AO2 SLP121 T01560139 TSNO $=
201410181553 METAR KCLM 181553Z AUTO 4SM BR BKN080 BKN095 12/11 A2988 RMK AO2 SLP118 T01170111 TSNO=
201410181546 SPECI KCLM 181546Z AUTO 4SM BR SCT085 11/11 A2988 RMK AO2 T01110106 TSNO=
201410181504 SPECI KCLM 181504Z AUTO 2 1/2SM BR BKN055 11/09 A2986 RMK AO2 T01060094 TSNO $=
201410181453 METAR KCLM 181453Z AUTO 3SM BR OVC060 11/10 A2986 RMK AO2 SLP113 60000 T01060100 50007 TSNO $=
201410181438 SPECI KCLM 181438Z AUTO 2SM BR 11/10 A2986 RMK AO2 T01060100 TSNO $=
201410181403 SPECI KCLM 181403Z AUTO 4SM BR BKN060 10/09 A2987 RMK AO2 T01000094 TSNO $=
201410181353 METAR KCLM 181353Z AUTO 2 1/2SM BR FEW015 BKN060 OVC085 11/09 A2986 RMK AO2 SLP114 T01060094 TSNO $=
201410181339 SPECI KCLM 181339Z AUTO 8SM FEW001 BKN060 OVC085 10/09 A2986 RMK AO2 T01000094 TSNO $=
201410181331 SPECI KCLM 181331Z AUTO 6SM BR 10/09 A2986 RMK AO2 T01000094 TSNO $=
201410181324 SPECI KCLM 181324Z AUTO 2SM BR 10/09 A2986 RMK AO2 VIS 3/4V5 T01000089 TSNO $=
201410181253 METAR KCLM 181253Z AUTO 1/2SM FG 10/09 A2985 RMK AO2 RAE1159 SLP109 P0000 T01000094 TSNO $=
201410181244 SPECI KCLM 181244Z AUTO 3/4SM BR 10/10 A2985 RMK AO2 RAE1159 P0000 T01000100 TSNO $=
201410181229 SPECI KCLM 181229Z AUTO 1/4SM FG SCT002 BKN065 BKN080 11/10 A2985 RMK AO2 RAE1159 P0000 T01060100 TSNO $=
201410181217 SPECI KCLM 181217Z AUTO 1/2SM FG FEW007 BKN070 11/10 A2985 RMK AO2 RAE1159 P0000 T01060100 TSNO $=
201410181210 SPECI KCLM 181210Z AUTO 1 3/4SM BR FEW022 BKN070 11/10 A2985 RMK AO2 VIS 1V4 RAE1159 P0000 T01110100 TSNO $=
201410181205 SPECI KCLM 181205Z AUTO 3SM BR SCT032 BKN070 11/10 A2985 RMK AO2 RAE1159 P0000 T01060100 TSNO $=
201410181153 METAR KCLM 181153Z AUTO 1 1/2SM -RA BR BKN030 BKN060 OVC080 11/11 A2984 RMK AO2 RAB35 SLP105 P0000 60000 7//// T01110106 10128 20106 50010 TSNO $=
201410181151 SPECI KCLM 181151Z AUTO 1 3/4SM -RA BR 11/11 A2984 RMK AO2 VIS 3/4V3 RAB35 P0000 TSNO $=
201410181136 SPECI KCLM 181136Z AUTO 5SM -RA BR 12/11 A2985 RMK AO2 RAB35 P0000 T01170106 TSNO $=
201410181128 SPECI KCLM 181128Z AUTO 2 1/2SM BR 11/11 A2984 RMK AO2 T01110106 TSNO $=
201410181053 METAR KCLM 181053Z AUTO 3SM BR 11/11 A2984 RMK AO2 SLP105 T01110106 TSNO $=
201410181030 SPECI KCLM 181030Z AUTO 1 1/2SM BR 11/10 A2983 RMK AO2 T01110100 TSNO $=
201410180953 METAR KCLM 180953Z AUTO 9SM 11/10 A2983 RMK AO2 SLP100 T01110100 TSNO $=
201410180927 SPECI KCLM 180927Z AUTO 10SM 12/11 A2982 RMK AO2 T01170106 TSNO $=
201410180918 SPECI KCLM 180918Z AUTO 2 1/2SM BR 11/10 A2982 RMK AO2 T01110100 TSNO $=
201410180853 METAR KCLM 180853Z AUTO 7SM 11/11 A2981 RMK AO2 SLPNO 60000 T01110106 51014 TSNO $=
201410180808 SPECI KCLM 180808Z AUTO 10SM BKN080 12/11 A2980 RMK AO2 T01170106 TSNO $=
201410180800 SPECI KCLM 180800Z AUTO 2SM BR BKN080 12/11 A2980 RMK AO2 VIS 3/4V5 T01170106 TSNO $=
201410180753 METAR KCLM 180753Z AUTO 3SM BR FEW050 FEW065 BKN080 12/11 A2980 RMK AO2 RAB05E19 SLPNO P0000 T01220111 401500111 TSNO $=
201410180653 METAR KCLM 180653Z AUTO 13003KT 10SM BKN055 OVC070 12/11 A2980 RMK AO2 SLPNO T01220111 TSNO $=
201410180553 METAR KCLM 180553Z AUTO 17006KT 10SM FEW008 OVC070 12/11 A2977 RMK AO2 RAEMM SLPNO P0000 6//// T01220111 10144 20111 51021 TSNO $=
201410180539 SPECI KCLM 180539Z AUTO 16003KT 9SM SCT008 BKN070 12/11 A2976 RMK AO2 RAEMM P0000 T01170106 TSNO $=
201410180530 SPECI KCLM 180530Z AUTO 00000KT 2 1/2SM BR FEW008 SCT065 BKN080 12/11 A2977 RMK AO2 RAEMM P0000 T01170106 TSNO $=
201410180453 METAR KCLM 180453Z AUTO 28003KT 7SM -RA BKN060 BKN080 OVC095 12/11 A2975 RMK AO2 SLPNO P0002 T01220111 TSNO $=
201410180353 METAR KCLM 180353Z AUTO 22006KT 8SM -RA 12/11 A2973 RMK AO2 RAB03 SLPNO P0004 T01220111 TSNO $=
201410180253 METAR KCLM 180253Z AUTO 00000KT 10SM BKN060 12/11 A2971 RMK AO2 SLPNO 6//// T01220111 53016 TSNO $=
201410180153 METAR KCLM 180153Z AUTO 14004KT 10SM BKN070 12/11 A2969 RMK AO2 RAE34 SLPNO P0001 T01220111 TSNO $=
201410180053 METAR KCLM 180053Z AUTO 00000KT 10SM -RA FEW038 BKN070 OVC080 14/12 A2968 RMK AO2 RAB22RAEMMB48 SLPNO T01390117 TSNO PNO=
201410172353 METAR KCLM 172353Z AUTO 30004KT 10SM 14/11 A2966 RMK AO2 RAB29RAEMM SLPNO P0001 6//// T01440111 TSNO $=
201410172253 METAR KCLM 172253Z AUTO 33007KT 10SM OVC060 14/11 A2964 RMK AO2 RAB01RAEMM SLPNO P0000 T01440111 TSNO $=
201410172153 METAR KCLM 172153Z AUTO 29007KT 10SM 15/12 A2962 RMK AO2 SLPNO T01500117 TSNO=
201410172100 METAR KCLM NIL=
201410171953 METAR KCLM 171953Z AUTO 10SM -RA OVC070 14/11 A2962 RMK AO2 RAB1856 SLP030 P0001 T01440111 $=
201410171853 METAR KCLM 171853Z AUTO 10SM 17/09 A2963 RMK AO2 SLP033 T01670094 $=
201410171753 METAR KCLM 171753Z AUTO 00000KT 10SM BKN070 14/09 A2964 RMK AO2 SLP038 T01390094 10150 20111 56022 $=
201410171653 METAR KCLM 171653Z AUTO 33003KT 10SM SCT070 13/09 A2966 RMK AO2 SLP045 T01280094 $=
201410171553 METAR KCLM 171553Z AUTO 00000KT 10SM FEW070 12/08 A2969 RMK AO2 SLP053 T01220083 $=
201410171453 METAR KCLM 171453Z AUTO 30003KT 10SM BKN120 12/08 A2971 RMK AO2 SLP060 T01170083 55003 $=
201410171353 METAR KCLM 171353Z AUTO 00000KT 10SM 11/08 A2970 RMK AO2 SLP058 T01110083 $=
201410171253 METAR KCLM 171253Z AUTO 33005KT 10SM BKN070 OVC110 12/08 A2970 RMK AO2 SLP057 T01220083 $=
201410171153 METAR KCLM 171153Z AUTO 00000KT 10SM 12/09 A2971 RMK AO2 SLP062 60000 7//// T01170089 10122 20100 58014 $=
201410171053 METAR KCLM 171053Z AUTO 00000KT 10SM 12/09 A2973 RMK AO2 SLP067 T01170089 $=
201410170953 METAR KCLM 170953Z AUTO 00000KT 10SM SCT075 BKN095 BKN120 11/09 A2975 RMK AO2 SLP074 T01110089 $=
201410170853 METAR KCLM 170853Z AUTO 00000KT 10SM 11/09 A2975=
201410170853 METAR KCLM 170853Z AUTO 00000KT 10SM 11/09 A2975 RMK AO2 SLP076 60000 T01110089 56015 PWINO $=
201410170753 METAR KCLM 170753Z AUTO 00000KT 10SM 11/09 A2977=
201410170653 METAR KCLM 170653Z AUTO 24003KT 10SM 10/09 A2978 RMK AO2 RAB24RAEMM SLP086 P0000 T01000089 PWINO $=
201410170553 METAR KCLM 170553Z AUTO 00000KT 10SM 10/09 A2980 RMK AO2 SLP092 60000 T01000089 10144 20094 56017 $=
201410170453 METAR KCLM 170453Z AUTO 00000KT 10SM 10/09 A2982 RMK AO2 RAB17E26 SLP097 P0000 T01000089 $=
201410170353 METAR KCLM 170353Z AUTO 00000KT 10SM CLR 10/09 A2983 RMK AO2 SLP102 T01000089 $=
201410170253 METAR KCLM 170253Z AUTO 00000KT 10SM CLR 10/09 A2985 RMK AO2 SLP109 60000 T01000089 56015 $=
201410170153 METAR KCLM 170153Z AUTO 00000KT 10SM CLR 11/09 A2986 RMK AO2 RAB01E10 SLP112 P0000 T01110094 $=
201410170053 METAR KCLM 170053Z AUTO 00000KT 10SM CLR 13/10 A2988 RMK AO2 SLP118 T01280100 $=
201410162353 METAR KCLM 162353Z AUTO 25003KT 10SM CLR 14/09 A2990 RMK AO2 SLP123 T01440089 10150 20111 58012 $=
201410162253 METAR KCLM 162253Z AUTO 30003KT 10SM CLR 14/09 A2991 RMK AO2 SLP128 T01440094 $=
201410162153 METAR KCLM 162153Z AUTO 10SM CLR 14/09 A2992 RMK AO2 SLP134 T01390094=
201410162053 METAR KCLM 162053Z AUTO 10SM CLR 13/10 A2993 RMK AO2 SLP136 T01330100 58017 $=
201410161953 METAR KCLM 161953Z AUTO 00000KT 10SM BKN120 14/10 A2996 RMK AO2 SLP146 T01390100 $=
201410161912 SPECI KCLM 161912Z AUTO 00000KT 10SM SCT005 13/10 A2997 RMK AO2 T01280100 $=
201410161853 METAR KCLM 161853Z AUTO 00000KT 10SM OVC005 12/10 A2997 RMK AO2 SLP150 T01220100 $=
201410161805 SPECI KCLM 161805Z AUTO 09003KT 10SM OVC003 12/10 A2998 RMK AO2 CIG 002V005 T01170100 $=
201410161753 METAR KCLM 161753Z AUTO 00000KT 10SM 11/10 A2998 RMK AO2 SLP153 6//// T01110100 10111 20089=
201410161712 SPECI KCLM 161712Z AUTO VRB03KT 2 1/2SM BR BKN002 BKN075 OVC110 11/10 A2999 RMK AO2 T01110100 $=
201410161705 SPECI KCLM 161705Z AUTO 6SM BR SCT002 BKN075 OVC110 11/10 A2999 RMK AO2 T01110100 $=
201410161653 METAR KCLM 161653Z AUTO 10SM SCT075 OVC110 11/09 A2998 RMK AO2 RAE00 SLP154 P0000 T01110094 $=
201410161553 METAR KCLM 161553Z AUTO 10SM -RA OVC070 10/09 A2998 RMK AO2 RAB35 SLP152 P0000 T01000089 $=
201410161453 METAR KCLM 161453Z AUTO 10SM OVC100 09/08 A2997 RMK AO2 SLP148 T00940083 53005 $=
201410161353 METAR KCLM 161353Z AUTO 9SM OVC120 09/08 A2996 RMK AO2 SLP144 T00940083 $=
201410161253 METAR KCLM 161253Z AUTO 10SM FEW065 09/08 A2996 RMK AO2 SLP145 T00940083 $=
201410161153 METAR KCLM 161153Z AUTO 10SM FEW006 OVC065 10/09 A2995 RMK AO2 SLP143 7//// T01000089 10106 20089 50007 $=
201410161124 SPECI KCLM 161124Z AUTO 10SM SCT007 OVC060 10/09 A2995 RMK AO2 T01000089 $=
201410161113 SPECI KCLM 161113Z AUTO 10SM BKN006 OVC060 10/09 A2995 RMK AO2 CIG 005V010 T01000089 $=
201410161053 METAR KCLM 161053Z AUTO 10SM SCT008 OVC060 10/09 A2995 RMK AO2 SLP144 T01000094 $=
201410161007 SPECI KCLM 161007Z AUTO 9SM SCT002 SCT007 BKN060 10/09 A2995 RMK AO2 T01000094 $=
201410160953 METAR KCLM 160953Z AUTO 6SM BR BKN002 OVC007 10/09 A2995 RMK AO2 SLP141 T01000094 $=
201410160933 SPECI KCLM 160933Z AUTO 7SM BKN002 BKN085 10/09 A2994 RMK AO2 T01000089 $=
201410160922 SPECI KCLM 160922Z AUTO 10SM SCT002 BKN080 10/08 A2994 RMK AO2 T01000083 $=
201410160853 METAR KCLM 160853Z AUTO 10SM BKN070 OVC085 10/08 A2993 RMK AO2 SLP136 T01000078 51005 $=
201410160753 METAR KCLM 160753Z AUTO 10SM FEW023 OVC075 11/08 A2993 RMK AO2 SLP134 T01060078 401440083 $=
201410160701 SPECI KCLM 160701Z AUTO 10SM SCT022 BKN070 BKN110 10/08 A2992 RMK AO2 T01000083 $=
201410160653 METAR KCLM 160653Z AUTO 10SM BKN022 BKN075 OVC110 10/08 A2992 RMK AO2 SLP133 T01000083 $=
201410160622 SPECI KCLM 160622Z AUTO 10SM BKN020 OVC100 09/08 A2992 RMK AO2 T00890078 $=
201410160553 METAR KCLM 160553Z AUTO 10SM FEW070 SCT110 09/08 A2992 RMK AO2 SLP131 60000 T00890078 10139 20083 51019 $=
201410160453 METAR KCLM 160453Z AUTO 10SM FEW080 SCT120 09/08 A2990 RMK AO2 SLP125 T00890078 $=
201410160353 METAR KCLM 160353Z AUTO 10SM FEW065 09/08 A2988 RMK AO2 SLP119 T00940083 $=
201410160253 METAR KCLM 160253Z AUTO 10SM CLR 11/10 A2986 RMK AO2 SLP112 60000 T01110100 51022 PWINO $=
201410160153 METAR KCLM 160153Z AUTO 10SM FEW027 SCT065 SCT085 12/11 A2985 RMK AO2 RAB09E28 SLP108 P0000 T01170106 $=
201410160053 METAR KCLM 160053Z AUTO 10SM FEW065 12/11 A2982 RMK AO2 RAB08E26 SLP099 P0000 T01220106 $=
201410152353 METAR KCLM 152353Z AUTO 10SM SCT017 BKN044 OVC060 14/11 A2979 RMK AO2 RAB14E28 SLP089 P0000 60009 T01390106 10144 20117 53043 $=
201410152253 METAR KCLM 152253Z AUTO 10SM FEW043 BKN070 OVC090 14/11 A2975 RMK AO2 RAB28RAEMM SLP074 P0000 T01390106 $=
201410152153 METAR KCLM 152153Z AUTO 10SM SCT060 BKN080 BKN100 14/11 A2971 RMK AO2 RAE03 SLP060 P0000 T01390106 $=
201410152053 METAR KCLM 152053Z AUTO 00000KT 10SM -RA FEW010 OVC085 13/11 A2966 RMK AO2 RAB47 SLP045 P0000 60009 T01330111 51033 $=
201410152011 SPECI KCLM 152011Z AUTO 00000KT 10SM SCT008 OVC060 14/12 A2964 RMK AO2 T01390117 $=
201410151953 METAR KCLM 151953Z AUTO 00000KT 10SM FEW035 OVC060 13/11 A2964 RMK AO2 RAEMM SLP037 P0002 T01280106 $=
201410151853 METAR KCLM 151853Z AUTO 6SM -RA BR BKN065 OVC075 12/11 A2960 RMK AO2 SLP024 P0007 T01220106 $=
201410151753 METAR KCLM 151753Z AUTO 10SM -RA OVC070 12/10 A2957 RMK AO2 SLP012 P0001 6//// T01170100 10117 20094 53023 $=
201410151727 SPECI KCLM 151727Z AUTO 10SM -RA SCT008 BKN065 OVC090 11/10 A2955 RMK AO2 P0001 T01110100 $=
201410151717 SPECI KCLM 151717Z AUTO 10SM -RA BKN008 BKN065 OVC085 11/09 A2955 RMK AO2 CIG 007V012 P0001 T01110094 $=
201410151653 METAR KCLM 151653Z AUTO 10SM -RA FEW008 BKN080 OVC090 11/09 A2954 RMK AO2 RAB18 SLP002 P0000 T01110094 $=
201410151636 SPECI KCLM 151636Z AUTO 10SM -RA FEW008 BKN070 OVC085 11/09 A2953 RMK AO2 RAB18 P0000 T01110094 $=
201410151553 METAR KCLM 151553Z AUTO 10SM SCT080 OVC100 11/09 A2952 RMK AO2 RAE01 SLP997 T01060094 $=
201410151521 SPECI KCLM 151521Z AUTO 10SM SCT007 BKN065 OVC085 10/09 A2951 RMK AO2 RAE01 T01000089 $=
201410151511 SPECI KCLM 151511Z AUTO 10SM BKN007 BKN065 OVC080 10/09 A2950 RMK AO2 RAE01 CIG 004V020 T01000089 $=
201410151501 SPECI KCLM 151501Z AUTO 24004KT 10SM SCT004 BKN065 OVC100 10/09 A2951 RMK AO2 RAE01 T01000089 PNO=
201410151453 METAR KCLM 151453Z AUTO 30003KT 10SM -RA BKN065 BKN075 OVC120 09/08 A2950 RMK AO2 RAB09 SLP990 6//// T00940083 53004 PNO=
201410151353 METAR KCLM 151353Z AUTO 25003KT 10SM SCT018 BKN080 OVC100 10/08 A2949 RMK AO2 SLP988 T01000083 PNO $=
201410151303 SPECI KCLM 151303Z AUTO 00000KT 10SM OVC015 10/09 A2949 RMK AO2 T01000089 PNO $=
201410151253 METAR KCLM 151253Z AUTO 00000KT 10SM 10/09 A2948 RMK AO2 SLP985 T01000089 PNO $=
201410151153 METAR KCLM 151153Z AUTO 24003KT 10SM 11/09 A2949 RMK AO2 SLP986 60009 70009 T01060094 10106 20083 $=
201410151053 METAR KCLM 151053Z AUTO 26004KT 10SM 11/09 A2950 RMK AO2 RAB07E53 SLP989 P0009 T01060094 $=
201410151046 SPECI KCLM 151046Z AUTO 25006KT 9SM -RA BKN005 OVC045 11/09 A2949 RMK AO2 RAB07 P0009 T01060094 $=
201410151037 SPECI KCLM 151037Z AUTO 22007KT 3SM RA BR SCT005 BKN015 OVC045 11/09 A2950 RMK AO2 RAB07 P0009 T01060094 $=
201410151035 SPECI KCLM 151035Z AUTO VRB03KT 2 1/2SM +RA BR 10/09 A2949 RMK AO2 RAB07 P0009 T01000089 $=
201410150953 METAR KCLM 150953Z AUTO 10SM -RA OVC006 10/09 A2950 RMK AO2 RAB18 SLP991 P0000 T01000089 $=
201410150934 SPECI KCLM 150934Z AUTO 10SM -RA BKN007 BKN012 OVC020 10/09 A2950 RMK AO2 RAB18 CIG 006V010 P0000 T01000089 $=
201410150926 SPECI KCLM 150926Z AUTO 10SM -RA SCT009 OVC020 10/09 A2950 RMK AO2 RAB18 P0000 T01000089 $=
201410150853 METAR KCLM 150853Z AUTO 10SM FEW010 BKN022 OVC070 09/08 A2951 RMK AO2 SLP992 T00940083 56017 $=
201410150846 SPECI KCLM 150846Z AUTO 10SM SCT010 BKN022 OVC110 09/08 A2951 RMK AO2 T00940083 $=
201410150813 SPECI KCLM 150813Z AUTO 10SM BKN010 OVC021 10/08 A2952 RMK AO2 T01000083 $=
201410150753 METAR KCLM 150753Z AUTO 10SM FEW010 BKN021 OVC075 09/08 A2952 RMK AO2 SLP997 T00940078 401390067 $=
201410150653 METAR KCLM 150653Z AUTO 10SM 09/08 A2954 RMK AO2 SLP002 T00940078 $=
201410150615 SPECI KCLM 150615Z AUTO 10SM 09/08 A2956 RMK AO2 T00940078 $=
201410150607 SPECI KCLM 150607Z AUTO 10SM BKN012 BKN019 BKN080 09/08 A2956 RMK AO2 T00940083 $=
201410150553 METAR KCLM 150553Z AUTO 10SM SCT080 09/07 A2956 RMK AO2 SLP010 T00890072 10133 20078 58023 $=
201410150453 METAR KCLM 150453Z AUTO 10SM FEW022 FEW075 09/08 A2959 RMK AO2 SLP019 T00940078 $=
201410150353 METAR KCLM 150353Z AUTO 10SM 10/09 A2961 RMK AO2 SLP026 T01000089 $=
201410150253 METAR KCLM 150253Z AUTO 10SM 11/09 A2963 RMK AO2 SLP033 T01060094 56016 $=
201410150153 METAR KCLM 150153Z AUTO 10SM 12/09 A2963 RMK AO2 SLP035 T01170094 $=
201410150053 METAR KCLM 150053Z AUTO 10SM 13/09 A2966 RMK AO2 SLP044 T01280094 $=
201410142353 METAR KCLM 142353Z AUTO 10SM OVC080 13/09 A2967 RMK AO2 SLP049 T01330094 10139 20111 56026 $=
201410142253 METAR KCLM 142253Z AUTO 00000KT 10SM 12/10 A2970 RMK AO2 SLP057 T01220100 $=
201410142153 METAR KCLM 142153Z AUTO 01003KT 10SM CLR 12/09 A2971 RMK AO2 SLP061 T01220094 $=
201410142053 METAR KCLM 142053Z AUTO 33003KT 10SM 12/10 A2975 RMK AO2 SLP076 T01220100 $=
201410142039 SPECI KCLM 142039Z AUTO 35003KT 10SM SCT009 BKN080 12/10 A2976 RMK AO2 T01220100 $=
201410142010 SPECI KCLM 142010Z AUTO 00000KT 10SM BKN008 OVC070 12/10 A2977 RMK AO2 T01220100 $=
201410141953 METAR KCLM 141953Z AUTO 01003KT 10SM 12/10 A2977 RMK AO2 SLP082 T01220100 $=
201410141853 METAR KCLM 141853Z AUTO 10SM OVC005 12/09 A2979 RMK AO2 SLP088 T01170094 $=
201410141819 SPECI KCLM 141819Z AUTO 10SM OVC005 12/10 A2980 RMK AO2 CIG 002V007 T01220100 $=
201410141809 SPECI KCLM 141809Z AUTO 10SM OVC003 12/11 A2980 RMK AO2 CIG 001V007 T01220106 $=
201410141753 METAR KCLM 141753Z AUTO 4SM BR OVC001 12/11 A2980 RMK AO2 SLP092 T01170106 10128 20067 51001 $=
201410141747 SPECI KCLM 141747Z AUTO 3SM BR OVC001 12/11 A2980 RMK AO2 $=
201410141745 SPECI KCLM 141745Z AUTO 1SM BR OVC001 12/11 A2980 RMK AO2 T01170106 $=
201410141733 SPECI KCLM 141733Z AUTO 1/4SM FG VV001 11/10 A2980 RMK AO2 T01110100 $=
201410141721 SPECI KCLM 141721Z AUTO 3/4SM BR VV001 11/10 A2980 RMK AO2 T01110100 $=
201410141718 SPECI KCLM 141718Z AUTO 1 3/4SM BR FEW002 12/09 A2980 RMK AO2 T01170094 $=
201410141653 METAR KCLM 141653Z AUTO 10SM CLR 13/09 A2980 RMK AO2 SLP091 T01280094 $=
201410141553 METAR KCLM 141553Z AUTO 10SM CLR 09/09 A2980 RMK AO2 SLP092 T00940089 $=
201410141541 SPECI KCLM 141541Z AUTO 8SM CLR 09/08 A2979 RMK AO2 T00890078 $=
201410141532 SPECI KCLM 141532Z AUTO 2SM BR CLR 08/07 A2980 RMK AO2 T00780072 $=
201410141518 SPECI KCLM 141518Z AUTO 23003KT 4SM BR CLR 07/07 A2980 RMK AO2 T00670067 $=
201410141515 SPECI KCLM 141515Z AUTO 22003KT 1SM BR CLR 07/07 A2979 RMK AO2 T00720067 $=
201410141508 SPECI KCLM 141508Z AUTO 24003KT 1/4SM FG CLR 07/06 A2980 RMK AO2 T00670061 $=
201410141459 SPECI KCLM 141459Z AUTO 00000KT 1/4SM FG VV001 07/07 A2980 RMK AO2 T00720067 $=
201410141455 SPECI KCLM 141455Z AUTO 00000KT 1SM BR VV001 07/07 A2980 RMK AO2 T00720067 $=
201410141453 METAR KCLM 141453Z AUTO 00000KT 3SM BR SCT001 07/07 A2980 RMK AO2 SLP091 T00720067 53007 $=
201410141449 SPECI KCLM 141449Z AUTO 22003KT 3SM BR SCT001 07/07 A2980 RMK AO2 $=
201410141447 SPECI KCLM 141447Z AUTO 22004KT 1 1/4SM BR SCT001 07/06 A2980 RMK AO2 $=
201410141430 SPECI KCLM 141430Z AUTO 00000KT 1/4SM FG VV001 08/07 A2979 RMK AO2 T00780072 $=
201410141421 SPECI KCLM 141421Z AUTO 16003KT 1SM BR VV001 08/07 A2979 RMK AO2 T00780072=
201410141413 SPECI KCLM 141413Z AUTO 15003KT 1/4SM FG VV001 08/07 A2979 RMK AO2 T00780072 $=
201410141411 SPECI KCLM 141411Z AUTO 00000KT 1/2SM FG VV002 08/07 A2979 RMK AO2 T00780072 $=
201410141405 SPECI KCLM 141405Z AUTO 09003KT 1SM BR VV001 08/07 A2979 RMK AO2 T00780067 $=
201410141400 SPECI KCLM 141400Z AUTO 00000KT 1 3/4SM BR CLR 08/07 A2979 RMK AO2 VIS 1/2V5 T00830072=
201410141353 METAR KCLM 141353Z AUTO 00000KT 3SM BR FEW070 08/07 A2979 RMK AO2 SLP087 T00780072=
201410141351 SPECI KCLM 141351Z AUTO 00000KT 3SM BR FEW070 08/07 A2979 RMK AO2 $=
201410141336 SPECI KCLM 141336Z AUTO 1 3/4SM BR FEW070 08/07 A2979 RMK AO2 T00780072 $=
201410141328 SPECI KCLM 141328Z AUTO 8SM FEW001 BKN070 09/08 A2979 RMK AO2 T00890078 $=
201410141320 SPECI KCLM 141320Z AUTO 2SM BR SCT001 BKN070 08/08 A2978 RMK AO2 T00830078 $=
201410141316 SPECI KCLM 141316Z AUTO 1SM BR VV001 09/08 A2978 RMK AO2 T00890078 $=
201410141253 METAR KCLM 141253Z AUTO 1/4SM FG VV001 08/08 A2978 RMK AO2 SLP086 T00830078 $=
201410141245 SPECI KCLM 141245Z AUTO 1/2SM FG VV001 09/08 A2978 RMK AO2 T00890083 $=
201410141220 SPECI KCLM 141220Z AUTO 3/4SM BR VV002 09/08 A2978 RMK AO2 T00890083 $=
201410141211 SPECI KCLM 141211Z AUTO 1 1/2SM BR CLR 09/08 A2978 RMK AO2 VIS 1/2V5 T00940083 $=
201410141153 METAR KCLM 141153Z AUTO 7SM 11/09 A2978 RMK AO2 RAB02E17 SLP083 P0000 60003 70064 T01060089 10128 20100 $=
201410141053 METAR KCLM 141053Z AUTO 13007KT 10SM BKN070 OVC090 12/09 A2978 RMK AO2 SLP082 T01170094 $=
201410140953 METAR KCLM 140953Z AUTO 10SM 11/09 A2978 RMK AO2 SLP086 T01110094 $=
201410140853 METAR KCLM 140853Z AUTO 10SM OVC080 11/09 A2975 RMK AO2 SLP073 60003 T01060089 53023 $=
201410140753 METAR KCLM 140753Z AUTO 10SM OVC100 12/10 A2969 RMK AO2 RAE34 PRESRR SLP054 P0001 T01170100 401670100 $=
201410140653 METAR KCLM 140653Z AUTO 10SM -RA BKN075 OVC090 12/10 A2969 RMK AO2 SLP055 P0002 T01170100 $=
201410140553 METAR KCLM 140553Z AUTO 10SM -RA FEW060 BKN080 OVC100 12/10 A2968 RMK AO2 SLP050 P0003 60060 T01170100 10144 20117 50012 $=
201410140453 METAR KCLM 140453Z AUTO 10SM -RA FEW007 OVC070 13/11 A2968 RMK AO2 SLP052 P0004 T01280111 $=
201410140359 SPECI KCLM 140359Z AUTO 5SM RA BR SCT003 BKN040 OVC048 13/12 A2966 RMK AO2 P0001 T01280122 $=
201410140353 METAR KCLM 140353Z AUTO 4SM RA BR BKN003 OVC043 13/12 A2967 RMK AO2 SLP047 P0017 T01280122 $=
201410140329 SPECI KCLM 140329Z AUTO 5SM RA BR BKN003 OVC008 12/12 A2966 RMK AO2 P0007 T01170117 $=
201410140308 SPECI KCLM 140308Z AUTO 4SM RA BR SCT006 BKN009 OVC046 13/12 A2967 RMK AO2 PRESRR P0003 T01330122 $=
201410140257 SPECI KCLM 140257Z AUTO 4SM -RA BR BKN011 BKN046 OVC060 13/12 A2966 RMK AO2 P0001 T01330122 $=
201410140253 METAR KCLM 140253Z AUTO 3SM RA BR SCT011 BKN046 OVC060 13/12 A2965 RMK AO2 RAEMMB12RAEMMB29 SLP039 P0025 60036 T01330122 50001 $=
201410140248 SPECI KCLM 140248Z AUTO 1 3/4SM RA BR SCT013 BKN046 OVC060 13/12 A2965 RMK AO2 RAEMMB12RAEMMB29 P0024 $=
201410140241 SPECI KCLM 140241Z AUTO 2SM +RA BR SCT013 BKN049 OVC060 13/12 A2966 RMK AO2 RAEMMB12RAEMMB29 P0021 T01330122 $=
201410140236 SPECI KCLM 140236Z AUTO 2SM +RA BR BKN013 BKN029 OVC055 13/12 A2965 RMK AO2 RAEMMB12RAEMMB29 P0017 T01330122 $=
201410140228 SPECI KCLM 140228Z AUTO 3SM BR BKN013 BKN018 OVC029 13/12 A2964 RMK AO2 RAEMMB12RAEMM P0010 T01330122 $=
201410140220 SPECI KCLM 140220Z AUTO 2 1/2SM RA BR OVC013 13/12 A2965 RMK AO2 RAEMMB12 P0008 T01330122 $=
201410140153 METAR KCLM 140153Z AUTO 4SM RA BR BKN012 BKN055 OVC075 13/12 A2965 RMK AO2 RAEMMB16RAEMMB51 SLP040 P0008 T01280122 $=
201410140143 SPECI KCLM 140143Z AUTO 7SM -RA BKN012 OVC075 13/12 A2963 RMK AO2 RAEMMB16 P0006 T01330122 $=
201410140124 SPECI KCLM 140124Z AUTO 3SM RA BR FEW014 BKN075 OVC090 13/12 A2963 RMK AO2 RAEMMB16 P0005 T01280117 $=
201410140114 SPECI KCLM 140114Z AUTO 2 1/2SM BR FEW016 BKN065 OVC090 13/12 A2963 RMK AO2 RAEMM P0003 T01280117 PWINO $=
201410140053 METAR KCLM 140053Z AUTO 8SM -RA FEW018 BKN050 OVC070 13/12 A2964 RMK AO2 PRESRR SLP039 P0003 T01330122 $=
201410140013 SPECI KCLM 140013Z AUTO 8SM -RA SCT011 BKN060 OVC070 14/12 A2963 RMK AO2 P0001 T01440117 $=
201410132353 METAR KCLM 132353Z AUTO 9SM -RA BKN011 BKN018 OVC090 14/11 A2963 RMK AO2 RAB22 SLP034 P0001 60001 T01440111 10167 20128 53005 $=
201410132253 METAR KCLM 132253Z AUTO 10SM OVC065 15/09 A2963 RMK AO2 RAE53 SLP032 P0000 T01500094 $=
201410132153 METAR KCLM 132153Z AUTO 10SM -RA OVC060 13/09 A2962 RMK AO2 RAB19 SLP030 P0000 T01280094 $=
201410132053 METAR KCLM 132053Z AUTO 10SM BKN065 14/09 A2962 RMK AO2 SLP029 T01440094 58035 $=
201410131953 METAR KCLM 131953Z AUTO 10SM CLR 16/09 A2965 RMK AO2 SLP040 T01560094 $=
201410131853 METAR KCLM 131853Z AUTO 10SM CLR 14/09 A2970 RMK AO2 SLP056 T01440089 $=
201410131753 METAR KCLM 131753Z AUTO 10SM CLR 14/10 A2972 RMK AO2 SLP065 T01390100 10139 20106 58012 $=
201410131718 SPECI KCLM 131718Z AUTO 10SM SCT015 13/11 A2973 RMK AO2 T01330106 $=
201410131706 SPECI KCLM 131706Z AUTO 10SM BKN015 13/11 A2974 RMK AO2 T01280106 $=
201410131653 METAR KCLM 131653Z AUTO 10SM BKN013 12/11 A2974 RMK AO2 SLP073 T01220106 $=
201410131624 SPECI KCLM 131624Z AUTO 10SM OVC010 12/11 A2974 RMK AO2 CIG 007V012 T01170106 $=
201410131553 METAR KCLM 131553Z AUTO 10SM OVC006 11/11 A2976 RMK AO2 CIG 003V009 SLP077 T01110106 $=
201410131539 SPECI KCLM 131539Z AUTO 10SM OVC006 11/11 A2976 RMK AO2 CIG 003V008 T01110106 $=
201410131512 SPECI KCLM 131512Z AUTO 5SM BR OVC002 11/10 A2976 RMK AO2 T01110100 $=
201410131504 SPECI KCLM 131504Z AUTO 2SM BR OVC002 11/10 A2976 RMK AO2 T01110100 $=
201410131453 METAR KCLM 131453Z AUTO 1/2SM FG VV002 11/10 A2976 RMK AO2 SLP078 T01060100 56043 $=
201410131438 SPECI KCLM 131438Z AUTO 1/2SM FG VV002 11/10 A2976 RMK AO2 T01060100 $=
201410131422 SPECI KCLM 131422Z AUTO 1/4SM FG VV002 11/10 A2976 RMK AO2 T01060100 $=
201410131353 METAR KCLM 131353Z AUTO 1/4SM FG 11/09 A2979 RMK AO2 SLP088 T01060094 $=
201410131253 METAR KCLM 131253Z AUTO 1/4SM FG 11/10 A2984 RMK AO2 SLP105 T01060100 $=
201410131215 SPECI KCLM 131215Z AUTO 1/2SM FG 11/10 A2987 RMK AO2 T01060100 $=
201410131206 SPECI KCLM 131206Z AUTO 1 1/2SM BR 11/10 A2988 RMK AO2 T01060100 $=
201410131203 SPECI KCLM 131203Z AUTO 3SM BR SCT001 OVC080 11/09 A2988 RMK AO2 T01060094 $=
201410131153 METAR KCLM 131153Z AUTO 10SM OVC085 11/09 A2989 RMK AO2 SLP121 7//// T01060094 10122 20100 56035 $=
201410131053 METAR KCLM 131053Z AUTO 10SM BKN070 BKN085 11/09 A2992 RMK AO2 SLP133 T01060094 $=
201410131029 SPECI KCLM 131029Z AUTO 3SM BR FEW090 10/09 A2992 RMK AO2 T01000089 $=
201410131010 SPECI KCLM 131010Z AUTO 1 3/4SM BR FEW065 10/09 A2994 RMK AO2 T01000089 $=
201410130953 METAR KCLM 130953Z AUTO 8SM BKN065 11/10 A2995 RMK AO2 PRESFR SLP140 T01060100 $=
201410130914 SPECI KCLM 130914Z AUTO 8SM SCT003 OVC080 12/11 A2998 RMK AO2 T01170106 $=
201410130853 METAR KCLM 130853Z AUTO 8SM OVC004 12/11 A2999 RMK AO2 SLP156 T01170106 56014 $=
201410130829 SPECI KCLM 130829Z AUTO 10SM BKN004 BKN075 11/10 A3000 RMK AO2 T01110100 $=
201410130821 SPECI KCLM 130821Z AUTO 10SM SCT005 BKN075 11/11 A2999 RMK AO2 T01110106 $=
201410130753 METAR KCLM 130753Z AUTO 10SM OVC075 12/11 A3000 RMK AO2 SLP159 T01220106 401610106 $=
201410130653 METAR KCLM 130653Z AUTO 9SM OVC070 12/11 A3002 RMK AO2 SLP166 T01170106 $=
201410130602 SPECI KCLM 130602Z AUTO 10SM SCT003 OVC070 11/10 A3003 RMK AO2 T01110100 $=
201410130553 METAR KCLM 130553Z AUTO 10SM BKN003 OVC075 11/10 A3003 RMK AO2 SLP170 60001 T01110100 10133 20106 56012 $=
201410130548 SPECI KCLM 130548Z AUTO 9SM BKN003 OVC075 11/10 A3004 RMK AO2 $=
201410130528 SPECI KCLM 130528Z AUTO 7SM SCT004 OVC080 11/10 A3004 RMK AO2 T01110100 $=
201410130511 SPECI KCLM 130511Z AUTO 5SM BR OVC080 11/10 A3004 RMK AO2 T01110100 $=
201410130453 METAR KCLM 130453Z AUTO 2SM BR OVC080 11/10 A3004 RMK AO2 RAB41E51 SLP173 P0000 T01110100 $=
201410130445 SPECI KCLM 130445Z AUTO 2SM -RA BR OVC080 11/10 A3005 RMK AO2 RAB41 P0000 T01110100 $=
201410130431 SPECI KCLM 130431Z AUTO 4SM BR SCT001 OVC080 11/10 A3006 RMK AO2 T01060100 $=
201410130417 SPECI KCLM 130417Z AUTO 3SM BR BKN001 OVC080 11/10 A3006 RMK AO2 T01060100 $=
201410130404 SPECI KCLM 130404Z AUTO 1 3/4SM BR BKN001 OVC085 11/10 A3006 RMK AO2 T01110100 $=
201410130400 SPECI KCLM 130400Z AUTO 3SM BR SCT001 OVC085 11/10 A3007 RMK AO2 T01110100 $=
201410130353 METAR KCLM 130353Z AUTO 7SM OVC085 12/11 A3007 RMK AO2 SLP183 T01170106 $=
201410130253 METAR KCLM 130253Z AUTO 8SM BKN080 OVC100 12/11 A3008 RMK AO2 SLP188 60001 T01170106 56025 $=
201410130153 METAR KCLM 130153Z AUTO 9SM OVC110 12/11 A3011 RMK AO2 RAE07 SLP197 P0000 T01170106 $=
201410130053 METAR KCLM 130053Z AUTO 10SM -RA BKN075 OVC090 13/12 A3012 RMK AO2 SLP202 P0001 T01280117 $=
201410122353 METAR KCLM 122353Z AUTO 10SM -RA FEW065 OVC080 13/11 A3016 RMK AO2 RAB34 SLP213 6//// T01330106 10161 20122 PNO $=
201410122253 METAR KCLM 122253Z AUTO VRB03KT 10SM OVC075 14/10 A3018 RMK AO2 RAB01E15B42E52 SLP219 P0000 T01390100 $=
201410122153 METAR KCLM 122153Z AUTO 28003KT 10SM -RA 14/09 A3019 RMK AO2 RAB32B42 SLP222 P0000 T01440089 $=
201410122053 METAR KCLM 122053Z AUTO 00000KT 10SM BKN090 BKN110 14/07 A3020 RMK AO2 SLP225 T01390067 57010 $=
201410121953 METAR KCLM 121953Z AUTO 35005KT 10SM FEW095 15/08 A3021 RMK AO2 SLP228 T01500078 $=
201410121853 METAR KCLM 121853Z AUTO 05003KT 10SM 15/08 A3022 RMK AO2 SLP233 T01500083 PWINO $=
201410121753 METAR KCLM 121753Z AUTO 26004KT 10SM 14/08 A3023 RMK AO2 SLP236 T01440078 10144 20111 $=
201410121653 METAR KCLM 121653Z AUTO 10SM CLR 13/07 A3023 RMK AO2 SLP235 T01330072 $=
201410121553 METAR KCLM 121553Z AUTO 10SM CLR 12/07 A3023 RMK AO2 SLP237 T01220067 $=
201410121453 METAR KCLM 121453Z AUTO 10SM CLR 12/07 A3024 RMK AO2 SLP239 T01220067 51006 $=
201410121353 METAR KCLM 121353Z AUTO 10SM CLR 11/07 A3023 RMK AO2 SLP239 T01110067 $=
201410121253 METAR KCLM 121253Z AUTO 10SM CLR 12/07 A3022 RMK AO2 SLP235 T01170072 $=
201410121153 METAR KCLM 121153Z AUTO 10SM CLR 11/08 A3022 RMK AO2 SLP234 70056 T01110078 10139 20111 51005 $=
201410121053 METAR KCLM 121053Z AUTO 10SM CLR 12/08 A3022 RMK AO2 SLP234 T01170078 $=
201410120953 METAR KCLM 120953Z AUTO 10SM CLR 12/08 A3021 RMK AO2 SLP230 T01220083 $=
201410120853 METAR KCLM 120853Z AUTO 10SM CLR 12/09 A3020 RMK AO2 SLP228 T01220089 53010 $=
201410120753 METAR KCLM 120753Z AUTO 10SM BKN080 14/09 A3019 RMK AO2 SLP223 T01390089 401830089 $=
201410120653 METAR KCLM 120653Z AUTO 10SM CLR 13/09 A3018 RMK AO2 SLP220 T01330094 $=
201410120553 METAR KCLM 120553Z AUTO 10SM CLR 13/09 A3017 RMK AO2 SLP218 60000 T01330094 10139 20122 51009 $=
201410120453 METAR KCLM 120453Z AUTO CLR 13/10 A3017 RMK AO2 SLP216 T01280100 $=
201410120353 METAR KCLM 120353Z AUTO 10SM SCT037 SCT050 OVC080 13/11 A3016 RMK AO2 RAEMMB40E51 SLP212 P0000 T01330106 $=
201410120253 METAR KCLM 120253Z AUTO 10SM -RA FEW028 BKN040 OVC070 13/11 A3015 RMK AO2 RAB31 SLP208 P0000 60000 T01330106 53015 $=
201410120153 METAR KCLM 120153Z AUTO 10SM FEW037 13/10 A3012 RMK AO2 SLP199 T01330100 $=
201410120053 METAR KCLM 120053Z AUTO 10SM SCT036 13/10 A3010 RMK AO2 SLP193 T01330100 $=
201410112353 METAR KCLM 112353Z AUTO 10SM FEW055 13/10 A3010 RMK AO2 RAEMM SLP193 P0001 60043 T01330100 10183 20122 50014 $=
201410112308 SPECI KCLM 112308Z AUTO 10SM FEW033 SCT047 BKN070 13/11 A3010 RMK AO2 RAEMM P0001 T01330106 $=
201410112300 SPECI KCLM 112300Z AUTO 2 1/2SM -RA BR FEW041 SCT048 OVC065 13/11 A3011 RMK AO2 P0000 T01280106 $=
201410112253 METAR KCLM 112253Z AUTO 3SM -RA BR FEW029 BKN048 OVC065 13/11 A3012 RMK AO2 RAB13 SLP199 P0020 T01280106 $=
201410112236 SPECI KCLM 112236Z AUTO 3SM -RA BR BKN039 OVC060 12/11 A3010 RMK AO2 RAB13 P0017 T01220106 $=
201410112228 SPECI KCLM 112228Z AUTO 1 1/4SM +RA BR BKN037 OVC055 12/10 A3009 RMK AO2 RAB13 P0015 T01220100 $=
201410112221 SPECI KCLM 112221Z AUTO 2SM +RA SCT041 OVC055 13/09 A3010 RMK AO2 RAB13 P0009 T01280094 $=
201410112207 SPECI KCLM 112207Z AUTO 10SM VCTS FEW041 BKN048 BKN060 14/10 A3008 RMK AO2 T01390100 $=
201410112153 METAR KCLM 112153Z AUTO 10SM 16/11 A3008 RMK AO2 SLP185 T01610106 $=
201410112053 METAR KCLM 112053Z AUTO 10SM 18/11 A3006 RMK AO2 SLP179 60022 T01830111 51009 $=
201410111953 METAR KCLM 111953Z AUTO 10SM CLR 17/12 A3006 RMK AO2 SLP178 T01670122 $=
201410111853 METAR KCLM 111853Z AUTO 10SM 14/12 A3006 RMK AO2 RAB02RAEMM SLP180 P0022 T01390117 $=
201410111835 SPECI KCLM 111835Z AUTO 8SM -RA FEW012 BKN031 OVC050 14/12 A3006 RMK AO2 RAB02 P0022 T01390122 $=
201410111830 SPECI KCLM 111830Z AUTO 2SM -RA BR FEW014 BKN023 OVC044 14/12 A3006 RMK AO2 RAB02 P0022 T01390117 $=
201410111812 SPECI KCLM 111812Z AUTO 1 3/4SM -RA BR 14/12 A3004 RMK AO2 VIS 1/2V5 RAB02 P0010 T01390117 $=
201410111753 METAR KCLM 111753Z AUTO 10SM 14/12 A3003 RMK AO2 RAEMM SLP170 P0007 60013 T01440117 10156 20117 51014 $=
201410111712 SPECI KCLM 111712Z AUTO 5SM -RA BR BKN055 OVC070 13/12 A3003 RMK AO2 P0003 T01330117 $=
201410111653 METAR KCLM 111653Z AUTO 00000KT 2SM RA BR FEW039 SCT049 OVC060 13/12 A3003 RMK AO2 RAB35 SLP168 P0006 T01330117 $=
201410111651 SPECI KCLM 111651Z AUTO 00000KT 2SM RA BR FEW039 BKN065 OVC090 13/12 A3003 RMK AO2 RAB35 P0006 $=
201410111635 SPECI KCLM 111635Z AUTO 32006KT 10SM -RA FEW055 SCT070 OVC090 16/11 A3001 RMK AO2 RAB35 P0000 T01560106 $=
201410111620 SPECI KCLM 111620Z AUTO 21003KT 10SM VCTS FEW055 BKN090 BKN110 16/11 A3000 RMK AO2 T01560106 $=
201410111553 METAR KCLM 111553Z AUTO 25003KT 10SM SCT060 BKN090 14/11 A2999 RMK AO2 SLP156 T01390111 $=
201410111453 METAR KCLM 111453Z AUTO 16005KT 10SM SCT070 BKN085 12/09 A3000 RMK AO2 SLP157 T01220094 58001 $=
201410111353 METAR KCLM 111353Z AUTO 25005KT 10SM SCT075 OVC090 13/09 A3000 RMK AO2 SLP157 T01280089 $=
201410111253 METAR KCLM 111253Z AUTO 26005KT 10SM 13/11 A3000 RMK AO2 SLP159 T01280111 $=
201410111153 METAR KCLM 111153Z AUTO 30007KT 10SM OVC120 12/10 A3000 RMK AO2 SLP158 70001 T01220100 10133 20089 56001 $=
201410111053 METAR KCLM 111053Z AUTO 24006KT 10SM 11/09 A3000 RMK AO2 SLP159 T01110094 $=
201410110953 METAR KCLM 110953Z AUTO 10SM 10/09 A3000 RMK AO2 SLP157 T01000094 $=
201410110853 METAR KCLM 110853Z AUTO 00000KT 3SM BR 12/11 A3000 RMK AO2 SLP159 T01170106 $=
201410110815 SPECI KCLM 110815Z AUTO 1 3/4SM BR 11/10 A3000 RMK AO2 VIS 1/2V5 T01060100 $=
201410110803 SPECI KCLM 110803Z AUTO 3SM BR 12/11 A3000 RMK AO2 T01170111 $=
201410110753 METAR KCLM 110753Z AUTO 1 1/2SM BR 12/11 A3000 RMK AO2 SLP159 T01170111 401830072 $=
201410110747 SPECI KCLM 110747Z AUTO 1 3/4SM BR 11/11 A3000 RMK AO2 $=
201410110653 METAR KCLM 110653Z AUTO 7SM CLR 12/11 A3001 RMK AO2 SLP161 T01220111 $=
201410110553 METAR KCLM 110553Z AUTO 6SM BR 13/12 A3001 RMK AO2 RAB01E13 SLP161 P0000 60001 T01280117 10156 20122 53004 $=
201410110453 METAR KCLM 110453Z AUTO 9SM 12/11 A2999 RMK AO2 SLP155 T01220111 $=
201410110353 METAR KCLM 110353Z AUTO 10SM FEW025 BKN065 BKN075 13/12 A2998 RMK AO2 SLP150 T01330122 $=
201410110253 METAR KCLM 110253Z AUTO 10SM 14/13 A2999 RMK AO2 SLP157 60001 T01440128 56012 $=
201410110153 METAR KCLM 110153Z AUTO 10SM 15/13 A3000 RMK AO2 SLP158 T01500128 $=
201410110053 METAR KCLM 110053Z AUTO 10SM 15/13 A3001 RMK AO2 RAE45 SLP163 P0001 T01500133 $=
201410102353 METAR KCLM 102353Z AUTO 10SM -RA 16/13 A3003 RMK AO2 SLP170 P0000 60000 T01560128 10183 20144 53001 $=
201410102305 SPECI KCLM 102305Z AUTO 10SM -RA 16/13 A3003 RMK AO2 P0000 T01610128 $=
201410102253 METAR KCLM 102253Z AUTO 10SM -RA BKN018 OVC023 16/13 A3003 RMK AO2 RAB41 SLP167 P0000 T01610128 $=
201410102153 METAR KCLM 102153Z AUTO 10SM OVC020 16/12 A3003 RMK AO2 RAB16E30 SLP170 P0000 T01610122 $=
201410102053 METAR KCLM 102053Z AUTO 10SM OVC021 17/12 A3003 RMK AO2 SLP168 T01720122 57002 $=
201410102024 SPECI KCLM 102024Z AUTO 10SM BKN019 18/12 A3003 RMK AO2 T01780122 $=
201410101953 METAR KCLM 101953Z AUTO 10SM SCT030 17/12 A3003 RMK AO2 SLP170 T01720122 $=
201410101853 METAR KCLM 101853Z AUTO 04005KT 10SM 16/12 A3003 RMK AO2 SLP169 T01610117 $=
201410101836 SPECI KCLM 101836Z AUTO 00000KT 10SM 16/12 A3003 RMK AO2 T01560117 $=
201410101753 METAR KCLM 101753Z AUTO 23003KT 10SM OVC011 15/12 A3003 RMK AO2 SLP170 T01500122 10150 20072 53001 $=
201410101745 SPECI KCLM 101745Z AUTO 25003KT 10SM OVC012 15/12 A3003 RMK AO2 T01500122 $=
201410101702 SPECI KCLM 101702Z AUTO 10SM 14/12 A3002 RMK AO2 T01440122 TSNO $=
201410101653 METAR KCLM 101653Z AUTO 10SM OVC010 14/12 A3002 RMK AO2 SLP167 T01440122 TSNO $=
201410101616 SPECI KCLM 101616Z AUTO 23004KT 10SM OVC010 14/12 A3002 RMK AO2 CIG 007V012 T01390122 TSNO $=
201410101553 METAR KCLM 101553Z AUTO 24003KT 10SM OVC008 13/12 A3002 RMK AO2 SLP168 T01280117 TSNO $=
201410101535 SPECI KCLM 101535Z AUTO 25003KT 10SM FEW002 OVC009 13/12 A3003 RMK AO2 T01280122 TSNO $=
201410101522 SPECI KCLM 101522Z AUTO 27004KT 5SM BR BKN002 OVC008 12/12 A3003 RMK AO2 T01220117 TSNO $=
201410101515 SPECI KCLM 101515Z AUTO 26005KT 2 1/2SM BR OVC002 12/12 A3003 RMK AO2 T01220117 TSNO $=
201410101502 SPECI KCLM 101502Z AUTO 29005KT 1 1/2SM BR OVC002 12/12 A3003 RMK AO2 T01220117 TSNO=
201410101453 METAR KCLM 101453Z AUTO 28004KT 2SM BR OVC002 12/12 A3003 RMK AO2 SLP169 T01220117 53000 TSNO=
201410101439 SPECI KCLM 101439Z AUTO 1SM BR VV002 12/11 A3003 RMK AO2 T01220111 TSNO=
201410101423 SPECI KCLM 101423Z AUTO 1/4SM FG VV002 12/11 A3003 RMK AO2 T01170111 TSNO $=
201410101402 SPECI KCLM 101402Z AUTO 1/2SM FG VV002 11/11 A3003 RMK AO2 T01110106 TSNO $=
201410101350 METAR KCLM 101350Z AUTO 1SM BR VV002 11/11 A3003 RMK AO2 SLP168 T01110106 TSNO $=
201410101349 SPECI KCLM 101349Z AUTO 1SM BR VV002 11/11 A3003 RMK AO2 TSNO $=
201410101308 SPECI KCLM 101308Z AUTO 1/4SM FG VV002 11/10 A3003 RMK AO2 T01060100 TSNO $=
201410101257 SPECI KCLM 101257Z AUTO 3/4SM BR VV002 09/08 A3003 RMK AO2 T00940083 TSNO $=
201410101253 METAR KCLM 101253Z AUTO 2SM BR BKN002 09/08 A3003 RMK AO2 SLP169 T00940083 TSNO $=
201410101247 SPECI KCLM 101247Z AUTO 2 1/2SM BR BKN002 08/07 A3003 RMK AO2 TSNO $=
201410101242 SPECI KCLM 101242Z AUTO 1 3/4SM BR SCT002 07/06 A3002 RMK AO2 T00720061 TSNO $=
201410101204 SPECI KCLM 101204Z AUTO 6SM BR CLR 08/07 A3002 RMK AO2 T00780067 TSNO $=
201410101153 METAR KCLM 101153Z AUTO 2 1/2SM BR CLR 08/07 A3001 RMK AO2 VIS 1V5 SLP163 7//// T00780067 10111 20072 56002 TSNO $=
201410101053 METAR KCLM 101053Z AUTO 7SM CLR 09/07 A3001 RMK AO2 SLP163 T00890072 TSNO $=
201410101025 SPECI KCLM 101025Z AUTO 3SM BR CLR 08/08 A3001 RMK AO2 T00830078 TSNO $=
201410101013 SPECI KCLM 101013Z AUTO 1 1/2SM BR CLR 09/08 A3001 RMK AO2 VIS 1/2V5 T00940078 TSNO $=
201410100953 METAR KCLM 100953Z AUTO 5SM BR CLR 08/07 A3001 RMK AO2 SLP162 T00830072 TSNO $=
201410100853 METAR KCLM 100853Z AUTO 4SM BR CLR 09/08 A3002 RMK AO2 SLPNO T00890078 58001 TSNO $=
201410100753 METAR KCLM 100753Z AUTO 6SM BR CLR 09/08 A3002 RMK AO2 SLPNO T00940083 401890083 TSNO $=
201410100653 METAR KCLM 100653Z AUTO 5SM BR CLR 10/08 A3003 RMK AO2 SLPNO T01000083 TSNO $=
201410100553 METAR KCLM 100553Z AUTO 8SM CLR 11/09 A3002 RMK AO2 SLPNO T01060094 10183 20100 53001 TSNO $=
201410100453 METAR KCLM 100453Z AUTO 10SM CLR 11/09 A3001 RMK AO2 SLPNO T01110094 TSNO $=
201410100353 METAR KCLM 100353Z AUTO 00000KT 10SM CLR 11/10 A3001 RMK AO2 SLPNO T01110100 TSNO $=
201410100253 METAR KCLM 100253Z AUTO 13003KT 10SM 13/11 A3002 RMK AO2 SLPNO T01280111 TSNO $=
201410100153 METAR KCLM 100153Z AUTO 00000KT 10SM CLR 14/11 A3002 RMK AO2 SLPNO T01440111 TSNO $=
201410100053 METAR KCLM 100053Z AUTO 00000KT 10SM CLR 17/12 A3001 RMK AO2 SLPNO T01720117 TSNO $=
201410092353 METAR KCLM 092353Z AUTO 00000KT 10SM CLR 18/12 A3003 RMK AO2 SLPNO 6//// T01830117 TSNO $=
201410092253 METAR KCLM 092253Z AUTO 09006KT 10SM CLR 18/12 A3003 RMK AO2 SLPNO T01780122 TSNO $=
201410092153 METAR KCLM 092153Z AUTO 06006KT 18/12 A3004 RMK AO2 SLPNO T01780122 TSNO $=
201410092053 METAR KCLM 092053Z AUTO A3005 RMK AO2 SLPNO 6//// TSNO $=
201410092000 METAR KCLM NIL=
201410091900 METAR KCLM NIL=
201410091800 METAR KCLM NIL=
201410091702 SPECI KCLM 091702Z AUTO 10SM SCT002 OVC012 14/13 A3007 RMK AO2 T01390128 TSNO $=
201410091656 SPECI KCLM 091656Z AUTO 2SM BR BKN002 OVC012 14/13 A3007 RMK AO2 T01390133 TSNO $=
201410091653 METAR KCLM 091653Z AUTO 3/4SM BR BKN002 OVC012 14/13 A3007 RMK AO2 SLP184 T01390133 TSNO $=
201410091607 SPECI KCLM 091607Z AUTO 1/4SM FG VV002 13/12 A3007 RMK AO2 T01280122 TSNO $=
201410091553 METAR KCLM 091553Z AUTO 3/4SM BR OVC002 13/12 A3006 RMK AO2 SLP181 T01280117 TSNO $=
201410091542 SPECI KCLM 091542Z AUTO 1 3/4SM BR OVC003 13/12 A3006 RMK AO2 T01280117 TSNO $=
201410091453 METAR KCLM 091453Z AUTO 10SM OVC003 11/09 A3006 RMK AO2 CIG 002V006 SLP179 T01060094 51000 TSNO $=
201410091353 METAR KCLM 091353Z AUTO 8SM SCT003 BKN009 08/07 A3006 RMK AO2 SLP179 T00780072 TSNO $=
201410091351 SPECI KCLM 091351Z AUTO 8SM SCT003 BKN009 08/07 A3006 RMK AO2 TSNO $=
201410091333 SPECI KCLM 091333Z AUTO 5SM BR BKN003 08/08 A3005 RMK AO2 T00830078 TSNO $=
201410091330 SPECI KCLM 091330Z AUTO 1 3/4SM BR SCT003 08/08 A3005 RMK AO2 T00830078 TSNO $=
201410091323 SPECI KCLM 091323Z AUTO 2SM BR FEW005 08/08 A3004 RMK AO2 T00830078 TSNO $=
201410091318 SPECI KCLM 091318Z AUTO 3SM BR CLR 09/08 A3004 RMK AO2 T00890083 TSNO $=
201410091308 SPECI KCLM 091308Z AUTO 1 3/4SM BR CLR 09/08 A3004 RMK AO2 T00890083 TSNO $=
201410091253 METAR KCLM 091253Z AUTO 10SM SCT003 09/08 A3004 RMK AO2 SLP172 T00890078 TSNO $=
201410091212 SPECI KCLM 091212Z AUTO 10SM BKN004 08/07 A3004 RMK AO2 T00830067 TSNO $=
201410091204 SPECI KCLM 091204Z AUTO 10SM SCT004 08/07 A3005 RMK AO2 T00830072 TSNO $=
201410091153 METAR KCLM 091153Z AUTO 10SM CLR 09/08 A3005 RMK AO2 SLP176 T00890078 10106 20067 55002 TSNO $=
201410091134 SPECI KCLM 091134Z AUTO 10SM CLR 08/07 A3005 RMK AO2 T00830067 TSNO $=
201410091125 SPECI KCLM 091125Z AUTO 2SM BR CLR 07/07 A3005 RMK AO2 VIS 1V5 T00720072 TSNO $=
201410091053 METAR KCLM 091053Z AUTO 10SM FEW001 08/07 A3004 RMK AO2 SLP171 T00780072 TSNO $=
201410090957 SPECI KCLM 090957Z AUTO 3SM BR SCT001 09/08 A3005 RMK AO2 T00890078 TSNO $=
201410090953 METAR KCLM 090953Z AUTO 1SM BR VV001 09/08 A3005 RMK AO2 SLP176 T00890078 TSNO $=
201410090947 SPECI KCLM 090947Z AUTO 1 1/2SM BR BKN001 08/08 A3005 RMK AO2 TSNO $=
201410090931 SPECI KCLM 090931Z AUTO 6SM BR OVC001 08/08 A3005 RMK AO2 T00830078 TSNO $=
201410090924 SPECI KCLM 090924Z AUTO 2 1/2SM BR OVC001 08/07 A3005 RMK AO2 VIS 3/4V5 T00830072 TSNO $=
201410090908 SPECI KCLM 090908Z AUTO 1/2SM FG VV001 09/08 A3006 RMK AO2 T00940083 TSNO $=
201410090853 METAR KCLM 090853Z AUTO 1/4SM FG VV002 09/08 A3005 RMK AO2 SLP178 T00940083 51005 TSNO $=
201410090832 SPECI KCLM 090832Z AUTO 1/2SM FG VV002 09/08 A3005 RMK AO2 T00940083 TSNO $=
201410090825 SPECI KCLM 090825Z AUTO 1/4SM FG VV002 09/08 A3005 RMK AO2 T00940083 TSNO $=
201410090816 SPECI KCLM 090816Z AUTO 3/4SM BR VV002 09/09 A3005 RMK AO2 T00940089 TSNO $=
201410090814 SPECI KCLM 090814Z AUTO 1 1/2SM BR SCT002 10/09 A3005 RMK AO2 T01000089 TSNO $=
201410090807 SPECI KCLM 090807Z AUTO 8SM FEW002 09/08 A3004 RMK AO2 T00940083 TSNO $=
201410090753 METAR KCLM 090753Z AUTO 8SM CLR 09/08 A3004 RMK AO2 SLP174 T00940083 401830083 TSNO $=
201410090714 SPECI KCLM 090714Z AUTO 8SM FEW002 09/07 A3004 RMK AO2 T00890072 TSNO $=
201410090706 SPECI KCLM 090706Z AUTO 1 1/4SM BR FEW002 09/08 A3004 RMK AO2 T00940083 TSNO $=
201410090700 SPECI KCLM 090700Z AUTO 3/4SM BR VV002 10/09 A3004 RMK AO2 VIS 1/2V5 T01000089 TSNO $=
201410090657 SPECI KCLM 090657Z AUTO 1 1/4SM BR FEW002 10/09 A3004 RMK AO2 VIS 1/2V5 T01000089 TSNO $=
201410090653 METAR KCLM 090653Z AUTO 8SM FEW002 10/09 A3004 RMK AO2 SLP173 T01000089 TSNO $=
201410090636 SPECI KCLM 090636Z AUTO 6SM BR SCT002 10/08 A3004 RMK AO2 T01000083 TSNO $=
201410090553 METAR KCLM 090553Z AUTO 9SM CLR 10/09 A3004 RMK AO2 SLP173 T01000089 10167 20089 51008 TSNO $=
201410090453 METAR KCLM 090453Z AUTO 10SM CLR 09/08 A3003 RMK AO2 SLP170 T00940083 TSNO $=
201410090353 METAR KCLM 090353Z AUTO 9SM CLR 11/11 A3003 RMK AO2 SLP168 T01110106 TSNO $=
201410090349 SPECI KCLM 090349Z AUTO 4SM BR CLR 11/11 A3003 RMK AO2 TSNO $=
201410090340 SPECI KCLM 090340Z AUTO 1 3/4SM BR CLR 11/10 A3003 RMK AO2 T01110100 TSNO $=
201410090253 METAR KCLM 090253Z AUTO 10SM CLR 12/11 A3002 RMK AO2 SLP165 T01220106 55005 TSNO $=
201410090153 METAR KCLM 090153Z AUTO 10SM CLR 14/11 A3001 RMK AO2 SLP164 T01390111 TSNO $=
201410090053 METAR KCLM 090053Z AUTO 10SM CLR 15/11 A3002 RMK AO2 SLP164 T01500111 TSNO $=
201410082353 METAR KCLM 082353Z AUTO 00000KT 10SM CLR 14/12 A3003 RMK AO2 SLP169 T01440117 10183 20128 58003 TSNO $=
201410082253 METAR KCLM 082253Z AUTO 36004KT 10SM CLR 17/12 A3004 RMK AO2 SLP172 T01720122 TSNO $=
201410082153 METAR KCLM 082153Z AUTO 02005KT 10SM CLR 16/13 A3004 RMK AO2 SLP171 T01610128 TSNO=
201410082053 METAR KCLM 082053Z AUTO 02004KT 10SM CLR 15/11 A3004 RMK AO2 SLP172 T01500111 52001 TSNO $=
201410081953 METAR KCLM 081953Z AUTO 00000KT 10SM SCT011 15/12 A3004 RMK AO2 SLP172 T01500117 TSNO $=
201410081853 METAR KCLM 081853Z AUTO 01003KT 10SM CLR 14/12 A3003 RMK AO2 SLP170 T01390117 TSNO $=
201410081823 SPECI KCLM 081823Z AUTO 00000KT 10SM SCT002 14/12 A3003 RMK AO2 T01440122 TSNO=
201410081802 SPECI KCLM 081802Z AUTO 00000KT 7SM OVC002 13/12 A3003 RMK AO2 T01330122 TSNO=
201410081755 SPECI KCLM 081755Z AUTO 29003KT 2SM BR OVC002 13/12 A3003 RMK AO2 T01280122 TSNO=
201410081753 METAR KCLM 081753Z AUTO 00000KT 3/4SM BR VV002 13/12 A3003 RMK AO2 SLP170 T01280122 10150 20100 53008 TSNO=
201410081751 SPECI KCLM 081751Z AUTO 00000KT 1/2SM FG VV002 13/12 A3004 RMK AO2 TSNO=
201410081730 SPECI KCLM 081730Z AUTO 34004KT 1/4SM FG VV001 12/11 A3003 RMK AO2 PRESRR T01170106 TSNO $=
201410081723 SPECI KCLM 081723Z AUTO 35006KT 1/2SM FG VV001 13/11 A3002 RMK AO2 T01280111 TSNO $=
201410081653 METAR KCLM 081653Z AUTO 12006KT 10SM CLR 13/12 A3000 RMK AO2 SLP160 T01330117 TSNO $=
201410081644 SPECI KCLM 081644Z AUTO 10003KT 10SM SCT002 13/12 A3001 RMK AO2 T01330117 TSNO $=
201410081553 METAR KCLM 081553Z AUTO 00000KT 10SM BKN004 13/11 A3001 RMK AO2 SLP162 T01280111 TSNO $=
201410081548 SPECI KCLM 081548Z AUTO 00000KT 10SM BKN004 12/11 A3001 RMK AO2 TSNO $=
201410081540 SPECI KCLM 081540Z AUTO 00000KT 10SM SCT004 12/11 A3001 RMK AO2 T01220111 TSNO $=
201410081453 METAR KCLM 081453Z AUTO 00000KT 10SM CLR 11/09 A3001 RMK AO2 SLP164 T01060094 53009 TSNO $=
201410081353 METAR KCLM 081353Z AUTO 00000KT 10SM CLR 10/09 A2999 RMK AO2 SLP157 T01000094 TSNO $=
201410081253 METAR KCLM 081253Z AUTO 00000KT 10SM CLR 10/09 A2999 RMK AO2 SLP154 T01000089 TSNO $=
201410081153 METAR KCLM 081153Z AUTO 26004KT 10SM CLR 11/10 A2999 RMK AO2 SLP154 T01110100 10128 20106 53003 TSNO $=
201410081102 SPECI KCLM 081102Z AUTO 00000KT 10SM SCT001 11/09 A2998 RMK AO2 T01060094 TSNO $=
201410081053 METAR KCLM 081053Z AUTO 00000KT 6SM BR BKN001 11/10 A2997 RMK AO2 SLP150 T01060100 TSNO $=
201410081044 SPECI KCLM 081044Z AUTO 00000KT 2SM BR BKN001 11/10 A2998 RMK AO2 T01110100 TSNO $=
201410081034 SPECI KCLM 081034Z AUTO 23003KT 1SM BR VV001 11/11 A2998 RMK AO2 T01110106 TSNO $=
201410081029 SPECI KCLM 081029Z AUTO 22003KT 3/4SM BR VV002 11/11 A2998 RMK AO2 VIS 1/2V1 1/2 T01110106 TSNO $=
201410081017 SPECI KCLM 081017Z AUTO 25005KT 2SM BR OVC002 11/11 A2998 RMK AO2 VIS 1V4 T01110106 TSNO $=
201410080953 METAR KCLM 080953Z AUTO 28006KT 1/2SM FG VV002 11/11 A2999 RMK AO2 SLP154 T01110106 TSNO $=
201410080942 SPECI KCLM 080942Z AUTO 28005KT 1/4SM FG VV002 11/11 A2999 RMK AO2 T01110106 TSNO $=
201410080908 SPECI KCLM 080908Z AUTO 19003KT 1/4SM FG VV001 12/11 A2998 RMK AO2 T01170106 TSNO $=
201410080853 METAR KCLM 080853Z AUTO 00000KT 1/4SM FG VV002 12/11 A2998 RMK AO2 SLP150 T01170106 50004 TSNO $=
201410080821 SPECI KCLM 080821Z AUTO 00000KT 1/4SM FG VV002 12/11 A2997 RMK AO2 T01170111 TSNO $=
201410080805 SPECI KCLM 080805Z AUTO 29004KT 1/4SM FG VV001 12/11 A2998 RMK AO2 T01170111 TSNO $=
201410080753 METAR KCLM 080753Z AUTO 30003KT 1/4SM FG VV002 12/11 A2998 RMK AO2 SLP151 T01170111 402000117 TSNO $=
201410080722 SPECI KCLM 080722Z AUTO 00000KT 1/4SM FG VV002 12/12 A2996 RMK AO2 T01220117 TSNO $=
201410080653 METAR KCLM 080653Z AUTO 33004KT 1/4SM FG VV001 12/11 A2996 RMK AO2 SLP146 T01220111 TSNO $=
201410080609 SPECI KCLM 080609Z AUTO 00000KT 1/4SM FG VV002 12/12 A2995 RMK AO2 T01220117 TSNO $=
201410080553 METAR KCLM 080553Z AUTO VRB03KT 1/4SM FG VV001 13/12 A2995 RMK AO2 SLP141 T01280122 10156 20128 51004 TSNO $=
201410080546 SPECI KCLM 080546Z AUTO 00000KT 1/4SM FG VV001 13/12 A2994 RMK AO2 T01280122 TSNO $=
201410080453 METAR KCLM 080453Z AUTO 00000KT 1/4SM FG VV002 13/13 A2995 RMK AO2 SLP141 T01330128 TSNO $=
201410080439 SPECI KCLM 080439Z AUTO 32005KT 1/2SM FG VV002 13/13 A2995 RMK AO2 T01330128 TSNO $=
201410080434 SPECI KCLM 080434Z AUTO 33005KT 1/4SM FG VV001 13/12 A2994 RMK AO2 T01330122 TSNO $=
201410080402 SPECI KCLM 080402Z AUTO 25004KT 1/2SM FG VV002 14/13 A2993 RMK AO2 T01390133 TSNO $=
201410080353 METAR KCLM 080353Z AUTO 27005KT 1/4SM FG VV002 14/13 A2994 RMK AO2 SLP137 T01390133 TSNO $=
201410080253 METAR KCLM 080253Z AUTO 31007KT 1/2SM FG VV002 14/13 A2995 RMK AO2 SLP141 T01390128 53000 TSNO $=
201410080225 SPECI KCLM 080225Z AUTO 00000KT 1/4SM FG VV002 14/13 A2995 RMK AO2 T01390133 TSNO $=
201410080202 SPECI KCLM 080202Z AUTO 29004KT 1/2SM FG VV002 14/13 A2994 RMK AO2 T01390133 TSNO $=
201410080153 METAR KCLM 080153Z AUTO 31005KT 1/4SM FG VV002 14/13 A2994 RMK AO2 SLP138 T01390133 TSNO $=
201410080131 SPECI KCLM 080131Z AUTO 31006KT 1/4SM FG OVC003 14/13 A2994 RMK AO2 T01390128 TSNO $=
201410080125 SPECI KCLM 080125Z AUTO 32006KT 1 1/4SM BR OVC003 14/13 A2994 RMK AO2 VIS 1/2V5 T01440133 TSNO $=
201410080053 METAR KCLM 080053Z AUTO 29004KT 10SM BKN003 15/13 A2994 RMK AO2 SLP139 T01500133 TSNO $=
201410072353 METAR KCLM 072353Z AUTO 30005KT 3SM BR OVC002 14/13 A2995 RMK AO2 SLP141 T01440128 10200 20139 56005 TSNO $=
201410072343 SPECI KCLM 072343Z AUTO 31006KT 1 1/2SM BR BKN002 OVC041 14/13 A2995 RMK AO2 T01390128 TSNO $=
201410072333 SPECI KCLM 072333Z AUTO 30007KT 2 1/2SM BR BKN003 BKN041 14/13 A2995 RMK AO2 VIS 1 1/4V5 T01440128 TSNO $=
201410072300 SPECI KCLM 072300Z AUTO 32003KT 10SM SCT003 SCT035 14/13 A2995 RMK AO2 T01440128 TSNO $=
201410072253 METAR KCLM 072253Z AUTO 30004KT 10SM BKN003 BKN035 14/13 A2995 RMK AO2 SLP141 T01440128 TSNO $=
201410072221 SPECI KCLM 072221Z AUTO 32004KT 8SM FEW002 BKN032 14/13 A2995 RMK AO2 T01440128 TSNO $=
201410072153 METAR KCLM 072153Z AUTO 29004KT 10SM OVC030 15/13 A2995 RMK AO2 SLP143 T01500128 TSNO $=
201410072053 METAR KCLM 072053Z AUTO 00000KT 10SM FEW033 18/13 A2996 RMK AO2 SLP146 T01780133 58002 TSNO $=
201410071953 METAR KCLM 071953Z AUTO 06004KT 10SM SCT020 BKN034 19/14 A2998 RMK AO2 SLP150 T01940139 TSNO $=
201410071853 METAR KCLM 071853Z AUTO 10003KT 10SM CLR 19/14 A2998 RMK AO2 SLP152 T01940144 TSNO $=
201410071828 SPECI KCLM 071828Z AUTO 00000KT 10SM SCT002 17/14 A2998 RMK AO2 T01670139 TSNO $=
201410071821 SPECI KCLM 071821Z AUTO 33003KT 3SM BR BKN002 15/13 A2999 RMK AO2 T01500133 TSNO $=
201410071819 SPECI KCLM 071819Z AUTO VRB03KT 1 1/2SM BR BKN002 15/13 A2999 RMK AO2 T01500133 TSNO $=
201410071816 SPECI KCLM 071816Z AUTO 35003KT 1/4SM FG VV001 14/13 A2999 RMK AO2 T01440128 TSNO $=
201410071809 SPECI KCLM 071809Z AUTO 35005KT 1/4SM FG VV002 14/12 A2998 RMK AO2 T01390122 TSNO $=
201410071806 SPECI KCLM 071806Z AUTO 35006KT 1 1/4SM BR FEW003 15/13 A2998 RMK AO2 T01500128 TSNO $=
201410071753 METAR KCLM 071753Z AUTO 03005KT 10SM CLR 17/14 A2997 RMK AO2 SLP149 T01720139 10194 20128 50002 TSNO $=
201410071653 METAR KCLM 071653Z AUTO 31003KT 10SM SCT002 15/14 A2998 RMK AO2 SLP153 T01500139 TSNO=
201410071644 SPECI KCLM 071644Z AUTO 00000KT 5SM BR BKN002 15/14 A2998 RMK AO2 T01500139 TSNO=
201410071642 SPECI KCLM 071642Z AUTO 00000KT 1 1/4SM BR BKN002 15/14 A2998 RMK AO2 T01500139 TSNO=
201410071627 SPECI KCLM 071627Z AUTO 29005KT 1/4SM FG VV002 14/13 A2999 RMK AO2 T01390128 TSNO=
201410071553 METAR KCLM 071553Z AUTO 31003KT M1/4SM FG VV001 13/13 A2998 RMK AO2 SLP152 T01330128 TSNO=
201410071537 SPECI KCLM 071537Z AUTO 34003KT M1/4SM FG BKN001 OVC018 13/12 A2997 RMK AO2 T01280122 TSNO=
201410071529 SPECI KCLM 071529Z AUTO 35003KT 1/4SM FG SCT001 OVC018 13/12 A2997 RMK AO2 T01280122 TSNO=
201410071518 SPECI KCLM 071518Z AUTO 35003KT 1/4SM FG OVC018 14/13 A2997 RMK AO2 T01390128 TSNO=
201410071515 SPECI KCLM 071515Z AUTO 34003KT 1 1/2SM BR OVC018 14/13 A2997 RMK AO2 T01390133 TSNO=
201410071453 METAR KCLM 071453Z AUTO 00000KT 4SM BR OVC018 14/13 A2996 RMK AO2 SLP147 T01390133 56004 TSNO=
201410071408 SPECI KCLM 071408Z AUTO 3SM BR FEW002 OVC020 14/13 A2996 RMK AO2 T01390128 TSNO $=
201410071359 SPECI KCLM 071359Z AUTO 2SM BR SCT002 OVC020 14/13 A2996 RMK AO2 T01390128 TSNO $=
201410071353 METAR KCLM 071353Z AUTO 1SM BR BKN002 OVC020 14/13 A2997 RMK AO2 SLP147 T01390133 TSNO $=
201410071342 SPECI KCLM 071342Z AUTO 1/4SM FG VV002 14/13 A2997 RMK AO2 T01390128 TSNO $=
201410071325 SPECI KCLM 071325Z AUTO 1/2SM FG VV002 14/13 A2997 RMK AO2 T01390133 TSNO $=
201410071253 METAR KCLM 071253Z AUTO 1/4SM FG VV002 13/13 A2997 RMK AO2 SLP149 T01330128 TSNO $=
201410071225 SPECI KCLM 071225Z AUTO 1/4SM FG VV002 13/13 A2997 RMK AO2 T01330128 TSNO $=
201410071212 SPECI KCLM 071212Z AUTO 1/2SM FG BKN002 OVC023 13/12 A2997 RMK AO2 T01330122 TSNO $=
201410071153 METAR KCLM 071153Z AUTO 1/4SM FG BKN001 OVC023 13/13 A2998 RMK AO2 SLP151 T01330128 10144 20117 56005 TSNO $=
201410071126 SPECI KCLM 071126Z AUTO 1/4SM FG BKN001 OVC022 13/13 A2998 RMK AO2 T01330128 TSNO $=
201410071119 SPECI KCLM 071119Z AUTO 3/4SM BR FEW001 OVC022 14/13 A2998 RMK AO2 VIS 1/2V1 1/2 T01390128 TSNO $=
201410071108 SPECI KCLM 071108Z AUTO 1SM BR OVC022 14/13 A2998 RMK AO2 VIS 1/2V4 T01390128 TSNO $=
201410071053 METAR KCLM 071053Z AUTO 9SM SCT009 OVC022 14/13 A2998 RMK AO2 SLP151 T01390128 TSNO $=
201410071039 SPECI KCLM 071039Z AUTO 10SM SCT002 OVC009 14/13 A2998 RMK AO2 T01440133 TSNO $=
201410070953 METAR KCLM 070953Z AUTO 10SM OVC003 14/13 A2999 RMK AO2 SLP155 T01390133 TSNO $=
201410070940 SPECI KCLM 070940Z AUTO 10SM OVC004 14/13 A2999 RMK AO2 T01390128 TSNO $=
201410070918 SPECI KCLM 070918Z AUTO 10SM OVC005 14/13 A2999 RMK AO2 T01390128 TSNO $=
201410070911 SPECI KCLM 070911Z AUTO 2SM BR OVC005 14/13 A2999 RMK AO2 T01390128 TSNO $=
201410070905 SPECI KCLM 070905Z AUTO 1/2SM FG VV005 13/13 A2999 RMK AO2 T01330128 TSNO $=
201410070853 METAR KCLM 070853Z AUTO 1/4SM FG VV003 13/12 A2999 RMK AO2 SLP156 T01330122 56003 TSNO $=
201410070842 SPECI KCLM 070842Z AUTO 1/4SM FG VV002 13/13 A2999 RMK AO2 T01330128 TSNO $=
201410070753 METAR KCLM 070753Z AUTO 1/4SM FG VV001 13/12 A3000 RMK AO2 SLP157 T01280117 401940117 TSNO $=
201410070738 SPECI KCLM 070738Z AUTO 1/4SM FG VV001 12/12 A2999 RMK AO2 T01220117 TSNO $=
201410070727 SPECI KCLM 070727Z AUTO 3/4SM BR VV001 12/11 A2999 RMK AO2 T01220111 TSNO $=
201410070723 SPECI KCLM 070723Z AUTO 1 3/4SM BR FEW001 12/12 A2999 RMK AO2 VIS 1/2V5 T01220117 TSNO $=
201410070656 SPECI KCLM 070656Z AUTO 4SM BR FEW001 13/12 A2999 RMK AO2 T01280117 TSNO $=
201410070653 METAR KCLM 070653Z AUTO 1 3/4SM BR SCT002 13/12 A2999 RMK AO2 SLP156 T01330122 TSNO $=
201410070648 SPECI KCLM 070648Z AUTO 1 3/4SM BR BKN002 12/12 A2999 RMK AO2 TSNO $=
201410070634 SPECI KCLM 070634Z AUTO 3SM BR BKN002 13/12 A3000 RMK AO2 T01280122 TSNO $=
201410070631 SPECI KCLM 070631Z AUTO 1SM BR VV002 13/12 A3000 RMK AO2 T01280122 TSNO $=
201410070604 SPECI KCLM 070604Z AUTO 1/4SM FG VV002 13/12 A3000 RMK AO2 T01330122 TSNO $=
201410070553 METAR KCLM 070553Z AUTO 1/4SM FG VV001 13/13 A3000 RMK AO2 SLP159 T01330128 10194 20133 56006 TSNO $=
201410070544 SPECI KCLM 070544Z AUTO 1/2SM FG BKN001 OVC023 13/13 A3000 RMK AO2 T01330128 TSNO $=
201410070534 SPECI KCLM 070534Z AUTO 1 3/4SM BR OVC001 13/12 A3000 RMK AO2 T01330122 TSNO $=
201410070530 SPECI KCLM 070530Z AUTO 7SM OVC001 13/12 A3000 RMK AO2 T01330122 TSNO $=
201410070523 SPECI KCLM 070523Z AUTO 3SM BR OVC002 14/13 A3000 RMK AO2 T01390128 TSNO $=
201410070514 SPECI KCLM 070514Z AUTO 1SM BR BKN002 OVC025 13/13 A3000 RMK AO2 T01330128 TSNO $=
201410070503 SPECI KCLM 070503Z AUTO 3/4SM BR BKN001 OVC025 14/13 A3000 RMK AO2 T01390128 TSNO $=
201410070455 SPECI KCLM 070455Z AUTO 1 1/2SM BR SCT001 OVC025 14/13 A3000 RMK AO2 T01390128 TSNO $=
201410070453 METAR KCLM 070453Z AUTO 3SM BR FEW001 OVC025 14/13 A3000 RMK AO2 SLP159 T01440133 TSNO $=
201410070353 METAR KCLM 070353Z AUTO 10SM OVC027 17/15 A3000 RMK AO2 SLP160 T01720150 TSNO $=
201410070302 SPECI KCLM 070302Z AUTO 10SM BKN027 OVC035 16/15 A3002 RMK AO2 T01610150 TSNO $=
201410070253 METAR KCLM 070253Z AUTO 10SM BKN030 OVC035 16/15 A3002 RMK AO2 SLP166 T01610150 51002 TSNO $=
201410070224 SPECI KCLM 070224Z AUTO 10SM SCT021 BKN035 17/15 A3002 RMK AO2 T01720150 TSNO $=
201410070153 METAR KCLM 070153Z AUTO 10SM BKN023 OVC033 17/15 A3002 RMK AO2 SLP165 T01720150 TSNO $=
201410070053 METAR KCLM 070053Z AUTO 10SM FEW031 19/16 A3002 RMK AO2 SLP164 T01890156 TSNO $=
201410062353 METAR KCLM 062353Z AUTO 10SM SCT014 19/16 A3003 RMK AO2 SLP167 T01890156 10194 20167 58009 TSNO $=
201410062253 METAR KCLM 062253Z AUTO 10SM FEW007 OVC013 18/15 A3005 RMK AO2 SLP174 T01780150 TSNO $=
201410062234 SPECI KCLM 062234Z AUTO 10SM BKN005 OVC013 18/16 A3004 RMK AO2 T01780156 TSNO $=
201410062153 METAR KCLM 062153Z AUTO 01004KT 10SM OVC003 17/15 A3005 RMK AO2 SLP174 T01720150 TSNO=
201410062145 SPECI KCLM 062145Z AUTO 36004KT 8SM OVC003 17/16 A3005 RMK AO2 T01720156 TSNO=
201410062131 SPECI KCLM 062131Z AUTO 35004KT 2 1/2SM BR BKN003 OVC007 17/15 A3005 RMK AO2 VIS 1 1/4V5 T01670150 TSNO=
201410062122 SPECI KCLM 062122Z AUTO 01005KT 7SM BKN005 OVC014 17/15 A3005 RMK AO2 T01720150 TSNO=
201410062053 METAR KCLM 062053Z AUTO 35007KT 9SM FEW004 OVC014 17/15 A3006 RMK AO2 SLP177 T01720150 58003 TSNO=
201410062018 SPECI KCLM 062018Z AUTO 02003KT 10SM FEW004 OVC012 18/15 A3006 RMK AO2 T01780150 TSNO $=
201410061953 METAR KCLM 061953Z AUTO 36004KT 10SM OVC013 18/14 A3007 RMK AO2 SLP181 T01780144 TSNO $=
201410061853 METAR KCLM 061853Z AUTO VRB04KT 10SM OVC013 19/15 A3007 RMK AO2 SLP181 T01940150 TSNO $=
201410061831 SPECI KCLM 061831Z AUTO 11003KT 10SM FEW002 BKN014 19/14 A3007 RMK AO2 T01890144 TSNO $=
201410061824 SPECI KCLM 061824Z AUTO 00000KT 10SM FEW002 SCT014 18/15 A3007 RMK AO2 T01830150 TSNO $=
201410061814 SPECI KCLM 061814Z AUTO 34004KT 5SM BR BKN002 17/14 A3008 RMK AO2 T01670144 TSNO $=
201410061753 METAR KCLM 061753Z AUTO 04004KT 3SM HZ SCT003 17/14 A3007 RMK AO2 SLP182 T01720144 10183 20144 53001 TSNO $=
201410061751 SPECI KCLM 061751Z AUTO VRB03KT 3SM HZ SCT003 17/14 A3007 RMK AO2 TSNO $=
201410061653 METAR KCLM 061653Z AUTO 01003KT 10SM CLR 18/14 A3006 RMK AO2 SLP181 T01780139 TSNO $=
201410061631 SPECI KCLM 061631Z AUTO 00000KT 10SM SCT002 17/14 A3006 RMK AO2 T01670139 TSNO=
201410061621 SPECI KCLM 061621Z AUTO 00000KT 10SM BKN002 16/14 A3006 RMK AO2 T01560139 TSNO=
201410061613 SPECI KCLM 061613Z AUTO 00000KT 2SM BR OVC002 15/14 A3006 RMK AO2 T01500139 TSNO=
201410061553 METAR KCLM 061553Z AUTO 00000KT 1/2SM FG VV002 15/14 A3007 RMK AO2 SLP182 T01500139 TSNO=
201410061548 SPECI KCLM 061548Z AUTO 00000KT 1/4SM FG VV002 15/14 A3007 RMK AO2 TSNO=
201410061538 SPECI KCLM 061538Z AUTO 30003KT 3/4SM BR VV002 14/13 A3007 RMK AO2 T01440133 TSNO=
201410061535 SPECI KCLM 061535Z AUTO VRB03KT 1 1/4SM BR BKN001 15/13 A3007 RMK AO2 VIS 1/4V5 T01500133 TSNO=
201410061533 SPECI KCLM 061533Z AUTO 00000KT 5SM BR BKN001 15/13 A3007 RMK AO2 T01500133 TSNO=
201410061526 SPECI KCLM 061526Z AUTO 00000KT 10SM SCT003 15/13 A3006 RMK AO2 T01500133 TSNO=
201410061453 METAR KCLM 061453Z AUTO 09003KT 10SM FEW055 14/13 A3004 RMK AO2 SLP174 T01440128 58005 TSNO $=
201410061353 METAR KCLM 061353Z AUTO 26008KT 10SM OVC055 17/13 A3005 RMK AO2 SLP175 T01720128 TSNO $=
201410061253 METAR KCLM 061253Z AUTO 30004KT 10SM OVC050 15/13 A3006 RMK AO2 SLP177 T01500128 TSNO $=
201410061153 METAR KCLM 061153Z AUTO 29007KT 10SM OVC048 16/13 A3006 RMK AO2 SLP178 T01610128 10161 20122 58007 TSNO $=
201410061053 METAR KCLM 061053Z AUTO 00000KT 10SM BKN044 13/12 A3007 RMK AO2 SLP183 T01330117 TSNO $=
201410060953 METAR KCLM 060953Z AUTO 00000KT 10SM CLR 13/12 A3009 RMK AO2 SLP188 T01330117 TSNO $=
201410060853 METAR KCLM 060853Z AUTO 28005KT 10SM CLR 13/12 A3008 RMK AO2 SLP186 T01330117 58002 TSNO $=
201410060753 METAR KCLM 060753Z AUTO 22004KT 10SM CLR 13/11 A3009 RMK AO2 SLP189 T01280111 402170094 TSNO $=
201410060653 METAR KCLM 060653Z AUTO 28004KT 10SM CLR 14/12 A3009 RMK AO2 SLP191 T01390122 TSNO $=
201410060553 METAR KCLM 060553Z AUTO 00000KT 10SM CLR 13/12 A3009 RMK AO2 SLP188 T01280117 10211 20128 58003 TSNO $=
201410060453 METAR KCLM 060453Z AUTO 27003KT 10SM CLR 13/12 A3011 RMK AO2 SLP196 T01330117 TSNO $=
201410060353 METAR KCLM 060353Z AUTO 00000KT 10SM CLR 14/12 A3010 RMK AO2 SLP192 T01440122 TSNO $=
201410060253 METAR KCLM 060253Z AUTO 00000KT 10SM CLR 15/12 A3010 RMK AO2 SLP191 T01500122 56008 TSNO $=
201410060153 METAR KCLM 060153Z AUTO 13003KT 10SM CLR 17/13 A3010 RMK AO2 SLP193 T01720128 TSNO $=
201410060053 METAR KCLM 060053Z AUTO 11004KT 10SM CLR 20/13 A3010 RMK AO2 SLP192 T02000128 TSNO $=
201410052353 METAR KCLM 052353Z AUTO 08004KT 10SM CLR 21/13 A3012 RMK AO2 SLP199 T02110128 10217 20183 58012 TSNO $=
201410052253 METAR KCLM 052253Z AUTO 05005KT 10SM CLR 21/13 A3013 RMK AO2 SLP202 T02110128 TSNO $=
201410052153 METAR KCLM 052153Z AUTO 01004KT 10SM CLR 21/13 A3015 RMK AO2 SLP208 T02060133 TSNO $=
201410052053 METAR KCLM 052053Z AUTO 01004KT 10SM CLR 20/13 A3015 RMK AO2 SLP210 T02000133 58003 TSNO $=
201410051953 METAR KCLM 051953Z AUTO 04004KT 10SM CLR 19/13 A3017 RMK AO2 SLP217 T01940133 TSNO $=
201410051853 METAR KCLM 051853Z AUTO 09005KT 10SM CLR 19/13 A3016 RMK AO2 SLP213 T01940133 TSNO $=
201410051753 METAR KCLM 051753Z AUTO 09004KT 10SM CLR 18/12 A3016 RMK AO2 SLP214 T01830122 10183 20094 50004 TSNO $=
201410051653 METAR KCLM 051653Z AUTO 04005KT 10SM FEW027 18/12 A3017 RMK AO2 SLP216 T01780117 TSNO $=
201410051553 METAR KCLM 051553Z AUTO 00000KT 10SM CLR 16/12 A3015 RMK AO2 SLP210 T01610122 TSNO $=
201410051453 METAR KCLM 051453Z AUTO 00000KT 10SM 11/09 A3015 RMK AO2 SLP210 T01060094 58005 TSNO $=
201410051353 METAR KCLM 051353Z AUTO 18003KT 10SM 10/09 A3016 RMK AO2 SLP214 T01000089 TSNO $=
201410051253 METAR KCLM 051253Z AUTO 00000KT 10SM CLR 11/10 A3016 RMK AO2 SLP215 T01060100 TSNO $=
201410051153 METAR KCLM 051153Z AUTO 00000KT 10SM 11/10 A3017 RMK AO2 SLP215 70001 T01110100 10150 20111 53002 TSNO $=
201410051053 METAR KCLM 051053Z AUTO 00000KT 10SM 14/11 A3015 RMK AO2 SLP211 T01390111 TSNO $=
201410050953 METAR KCLM 050953Z AUTO 00000KT 10SM 14/11 A3016 RMK AO2 SLP212 T01440111 TSNO $=
201410050853 METAR KCLM 050853Z AUTO 00000KT 10SM 15/12 A3016 RMK AO2 SLP213 T01500117 57004 TSNO $=
201410050753 METAR KCLM 050753Z AUTO 00000KT 10SM 14/12 A3016 RMK AO2 SLP212 T01390117 401940039 TSNO $=
201410050653 METAR KCLM 050653Z AUTO 00000KT 10SM 12/10 A3017 RMK AO2 SLP218 T01220100 TSNO $=
201410050553 METAR KCLM 050553Z AUTO 00000KT 10SM 13/10 A3017 RMK AO2 SLP217 T01330100 10189 20128 51008 TSNO $=
201410050453 METAR KCLM 050453Z AUTO 14003KT 10SM 14/11 A3017 RMK AO2 SLP215 T01440106 TSNO $=
201410050353 METAR KCLM 050353Z AUTO 00000KT 10SM 14/10 A3016 RMK AO2 SLP212 T01440100 TSNO $=
201410050253 METAR KCLM 050253Z AUTO 21003KT 10SM 14/10 A3015 RMK AO2 SLP209 T01440100 56015 TSNO $=
201410050153 METAR KCLM 050153Z AUTO 23004KT 10SM 16/10 A3016 RMK AO2 SLP214 T01610100 TSNO $=
201410050053 METAR KCLM 050053Z AUTO 00000KT 10SM 17/10 A3016 RMK AO2 SLP214 T01670100 TSNO $=
201410042353 METAR KCLM 042353Z AUTO 04004KT 10SM 17/09 A3019 RMK AO2 SLP224 60001 T01720094 10194 20139 55003 TSNO $=
201410042253 METAR KCLM 042253Z AUTO 00000KT 10SM 18/09 A3019 RMK AO2 SLP221 T01830089 TSNO=
201410042153 METAR KCLM 042153Z AUTO 36004KT 10SM 17/09 A3020 RMK AO2 SLP225 T01670089 TSNO $=
201410042053 METAR KCLM 042053Z AUTO 00000KT 10SM 17/10 A3020 RMK AO2 SLP226 60001 T01670100 58004 TSNO=
201410041953 METAR KCLM 041953Z AUTO 00000KT 10SM 16/11 A3021 RMK AO2 RAB1857E14 SLP229 P0001 T01610111 TSNO $=
201410041853 METAR KCLM 041853Z AUTO 00000KT 10SM BKN070 OVC100 14/09 A3021 RMK AO2 SLP231 T01390094 TSNO=
201410041753 METAR KCLM 041753Z AUTO 00000KT 10SM OVC070 17/12 A3021 RMK AO2 SLP230 60000 T01720117 10172 20039 51012 TSNO=
201410041653 METAR KCLM 041653Z AUTO 34003KT 10SM OVC070 14/11 A3021 RMK AO2 SLP229 T01440111 TSNO=
201410041553 METAR KCLM 041553Z AUTO 00000KT 10SM BKN070 OVC085 14/12 A3020 RMK AO2 RAE1455 SLP228 P0000 T01390117 TSNO $=
201410041453 METAR KCLM 041453Z AUTO 00000KT 10SM -RA FEW070 BKN090 BKN110 12/11 A3017 RMK AO2 RAB42 SLP219 P0000 60000 T01220106 50000 TSNO $=
201410041353 METAR KCLM 041353Z AUTO 00000KT 10SM CLR 11/09 A3019 RMK AO2 SLP223 T01060094 TSNO $=
201410041253 METAR KCLM 041253Z AUTO 24006KT 10SM 11/09 A3019 RMK AO2 SLP222 T01110094 TSNO $=
201410041153 METAR KCLM 041153Z AUTO 00000KT 10SM 12/10 A3017 RMK AO2 RAE03 SLP218 P0000 60000 T01170100 10144 20117 50000 TSNO $=
201410041053 METAR KCLM 041053Z AUTO 00000KT 10SM -RA FEW060 SCT090 OVC110 13/11 A3017 RMK AO2 RAB46 SLP218 P0000 T01280106 TSNO $=
201410040953 METAR KCLM 040953Z AUTO 00000KT 10SM 12/09 A3019 RMK AO2 SLP223 T01170094 TSNO $=
201410040853 METAR KCLM 040853Z AUTO 00000KT 10SM FEW120 13/10 A3017 RMK AO2 SLP218 60000 T01330100 58002 TSNO $=
201410040753 METAR KCLM 040753Z AUTO 00000KT 10SM FEW050 FEW080 BKN100 14/10 A3019 RMK AO2 RAB31E46 SLP223 P0000 T01390100 401830056 TSNO $=
201410040653 METAR KCLM 040653Z AUTO 00000KT 10SM OVC110 13/09 A3019 RMK AO2 SLP222 T01330094 TSNO $=
201410040553 METAR KCLM 040553Z AUTO 00000KT 10SM OVC110 13/09 A3018 RMK AO2 SLP220 T01330089 10172 20106 53005 TSNO $=
201410040453 METAR KCLM 040453Z AUTO 00000KT 10SM CLR 12/08 A3016 RMK AO2 SLP214 T01220083 TSNO $=
201410040353 METAR KCLM 040353Z AUTO 00000KT 10SM CLR 11/08 A3016 RMK AO2 SLP213 T01110078 TSNO $=
201410040253 METAR KCLM 040253Z AUTO 00000KT 10SM CLR 12/08 A3016 RMK AO2 SLP215 T01170078 56007 TSNO $=
201410040153 METAR KCLM 040153Z AUTO 00000KT 10SM CLR 14/07 A3016 RMK AO2 SLP215 T01440072 TSNO $=
201410040053 METAR KCLM 040053Z AUTO 00000KT 10SM CLR 17/07 A3017 RMK AO2 SLP218 T01720067 TSNO $=
201410032353 METAR KCLM 032353Z AUTO 02004KT 10SM CLR 17/07 A3018 RMK AO2 SLP222 T01670072 10183 20139 58017 TSNO $=
201410032253 METAR KCLM 032253Z AUTO 03004KT 10SM 18/07 A3020 RMK AO2 SLP227 T01830072 TSNO $=
201410032153 METAR KCLM 032153Z AUTO 01005KT 10SM 17/08 A3022 RMK AO2 SLP233 T01670078 TSNO=
201410032053 METAR KCLM 032053Z AUTO 04004KT 10SM 16/07 A3023 RMK AO2 SLP239 T01610072 58005 TSNO=
201410031953 METAR KCLM 031953Z AUTO VRB04KT 10SM 15/08 A3024 RMK AO2 SLP240 T01500083 TSNO=
201410031853 METAR KCLM 031853Z AUTO VRB03KT 10SM 15/08 A3026 RMK AO2 SLP248 T01500083 TSNO $=
201410031753 METAR KCLM 031753Z AUTO 09006KT 10SM CLR 14/08 A3025 RMK AO2 SLP244 T01390083 10144 20056 50000 TSNO=
201410031653 METAR KCLM 031653Z AUTO 08003KT 10SM CLR 13/08 A3026 RMK AO2 SLP248 T01280078 TSNO $=
201410031553 METAR KCLM 031553Z AUTO 31003KT 10SM CLR 11/08 A3026 RMK AO2 SLP249 T01110083 TSNO $=
201410031453 METAR KCLM 031453Z AUTO 00000KT 10SM CLR 07/06 A3025 RMK AO2 SLP244 T00720056 58007 TSNO $=
201410031353 METAR KCLM 031353Z AUTO 23004KT 10SM CLR 07/05 A3027 RMK AO2 SLP251 T00670050 TSNO $=
201410031253 METAR KCLM 031253Z AUTO 16004KT 10SM CLR 08/06 A3029 RMK AO2 SLP257 T00780056 TSNO $=
201410031153 METAR KCLM 031153Z AUTO 13006KT 10SM 07/06 A3027 RMK AO2 SLP251 T00720056 10100 20061 58012 TSNO $=
201410031053 METAR KCLM 031053Z AUTO 20003KT 10SM 07/06 A3030 RMK AO2 SLP263 T00720056 TSNO $=
201410030953 METAR KCLM 030953Z AUTO 23005KT 10SM CLR 07/06 A3032 RMK AO2 SLP268 T00720056 TSNO $=
201410030853 METAR KCLM 030853Z AUTO 23004KT 10SM CLR 08/06 A3031 RMK AO2 SLP263 T00780061 56004 TSNO $=
201410030753 METAR KCLM 030753Z AUTO 00000KT 10SM CLR 07/06 A3031 RMK AO2 SLP265 T00720061 401670067 TSNO $=
201410030653 METAR KCLM 030653Z AUTO 00000KT 10SM 08/06 A3031 RMK AO2 SLP264 T00830061 TSNO $=
201410030553 METAR KCLM 030553Z AUTO 00000KT 10SM 09/07 A3032 RMK AO2 SLP267 T00890067 10167 20083 53000 TSNO $=
201410030453 METAR KCLM 030453Z AUTO 20003KT 10SM 09/07 A3032 RMK AO2 SLP268 T00940072 TSNO $=
201410030353 METAR KCLM 030353Z AUTO 18003KT 10SM 09/07 A3031 RMK AO2 SLP265 T00940072 TSNO $=
201410030253 METAR KCLM 030253Z AUTO 00000KT 10SM 11/08 A3032 RMK AO2 SLP267 T01110078 50005 TSNO $=
201410030153 METAR KCLM 030153Z AUTO 14003KT 10SM 13/08 A3032 RMK AO2 SLP268 T01280078 TSNO $=
201410030053 METAR KCLM 030053Z AUTO 08003KT 10SM CLR 14/08 A3031 RMK AO2 SLP265 T01440078 TSNO=
201410022353 METAR KCLM 022353Z AUTO 10005KT 10SM BKN100 17/07 A3030 RMK AO2 SLP261 T01670067 10167 20139 58006 TSNO=
201410022253 METAR KCLM 022253Z AUTO 03005KT 10SM SCT075 15/08 A3031 RMK AO2 SLP265 T01500083 TSNO=
201410022153 METAR KCLM 022153Z AUTO 04004KT 10SM OVC080 15/08 A3031 RMK AO2 SLP265 T01500083 TSNO=
201410022053 METAR KCLM 022053Z AUTO 00000KT 10SM OVC090 14/08 A3032 RMK AO2 SLP268 T01440083 50002 TSNO=
201410021953 METAR KCLM 021953Z AUTO 08003KT 10SM OVC100 14/08 A3032 RMK AO2 SLP268 T01440083 TSNO=
201410021853 METAR KCLM 021853Z AUTO VRB03KT 10SM BKN100 14/09 A3032 RMK AO2 SLP266 T01440089 TSNO=
201410021753 METAR KCLM 021753Z AUTO VRB03KT 10SM BKN110 16/08 A3031 RMK AO2 SLP265 T01560078 10156 20067 51016 TSNO=
201410021653 METAR KCLM 021653Z AUTO 09003KT 10SM BKN110 15/07 A3030 RMK AO2 SLP260 T01500067 TSNO=
201410021553 METAR KCLM 021553Z AUTO 24005KT 10SM FEW100 12/06 A3028 RMK AO2 SLP255 T01220061 TSNO=
201410021453 METAR KCLM 021453Z AUTO 24007KT 10SM SCT110 09/06 A3027 RMK AO2 SLP250 T00940056 51012 TSNO=
201410021353 METAR KCLM 021353Z AUTO 23004KT 10SM SCT110 08/05 A3026 RMK AO2 SLP248 T00780050 TSNO=
201410021253 METAR KCLM 021253Z AUTO 00000KT 10SM BKN055 OVC110 08/05 A3025 RMK AO2 SLP243 T00830050 TSNO=
201410021153 METAR KCLM 021153Z AUTO 00000KT 10SM OVC055 09/05 A3023 RMK AO2 SLP238 T00890050 10133 20083 53006 TSNO=
201410021053 METAR KCLM 021053Z AUTO 25007KT 10SM CLR 12/06 A3022 RMK AO2 SLP233 T01170056 TSNO=
201410020953 METAR KCLM 020953Z AUTO 27007KT 10SM CLR 12/06 A3021 RMK AO2 SLP229 T01220056 TSNO=
201410020853 METAR KCLM 020853Z AUTO 25010KT 10SM CLR 12/06 A3021 RMK AO2 SLP231 T01170056 50002 TSNO=
201410020753 METAR KCLM 020753Z AUTO 25008KT 10SM CLR 12/06 A3022 RMK AO2 SLP232 T01220061 401670106 TSNO=
201410020653 METAR KCLM 020653Z AUTO 25007KT 10SM CLR 13/07 A3021 RMK AO2 SLP231 T01280067 TSNO=
201410020553 METAR KCLM 020553Z AUTO 25008KT 10SM FEW065 13/07 A3021 RMK AO2 SLP229 T01280067 10150 20111 51006 TSNO=
201410020453 METAR KCLM 020453Z AUTO 26006KT 10SM FEW065 12/07 A3020 RMK AO2 SLP228 T01170072 TSNO=
201410020353 METAR KCLM 020353Z AUTO 30007KT 10SM CLR 13/07 A3020 RMK AO2 SLP226 T01330072 TSNO=
201410020253 METAR KCLM 020253Z AUTO 27007KT 10SM OVC050 13/09 A3019 RMK AO2 SLP224 T01330089 55001 TSNO=
201410020153 METAR KCLM 020153Z AUTO 29006KT 10SM FEW055 13/09 A3019 RMK AO2 SLP223 T01280089 TSNO=
201410020053 METAR KCLM 020053Z AUTO 30013KT 10SM CLR 14/08 A3019 RMK AO2 PK WND 29026/0032 SLP223 T01390083 TSNO=
201410012353 METAR KCLM 012353Z AUTO 31012G19KT 10SM FEW055 14/08 A3019 RMK AO2 SLP224 T01440083 10167 20144 55004 TSNO=
201410012253 METAR KCLM 012253Z AUTO 31012G21KT 10SM OVC055 16/08 A3019 RMK AO2 SLP223 T01560083 TSNO=
201410012153 METAR KCLM 012153Z AUTO 32010G15KT 280V340 10SM OVC048 15/08 A3020 RMK AO2 SLP225 T01500078 TSNO=
201410012053 METAR KCLM 012053Z AUTO VRB05KT 10SM BKN046 16/09 A3020 RMK AO2 SLP227 T01560089 58004 TSNO=
201410011953 METAR KCLM 011953Z AUTO 34006KT 10SM BKN047 15/09 A3021 RMK AO2 SLP228 T01500089 TSNO=
201410011853 METAR KCLM 011853Z AUTO 29010KT 10SM CLR 16/08 A3021 RMK AO2 SLP231 T01610083 TSNO=
201410011753 METAR KCLM 011753Z AUTO 02006KT 10SM CLR 15/08 A3021 RMK AO2 SLP231 T01500078 10161 20106 50003 TSNO=
201410011653 METAR KCLM 011653Z AUTO 24009KT 10SM CLR 14/06 A3022 RMK AO2 SLP232 T01440056 TSNO=
201410011553 METAR KCLM 011553Z AUTO 26012KT 10SM CLR 12/06 A3021 RMK AO2 SLP231 T01220056 TSNO=
201410011453 METAR KCLM 011453Z AUTO 26011KT 10SM FEW039 11/05 A3020 RMK AO2 SLP229 T01110050 53005 TSNO=
201410011353 METAR KCLM 011353Z AUTO 25010KT 10SM CLR 11/05 A3019 RMK AO2 SLP226 T01060050 TSNO=
201410011253 METAR KCLM 011253Z AUTO 25010KT 10SM SCT037 11/06 A3020 RMK AO2 SLP225 T01110056 TSNO=
201410011153 METAR KCLM 011153Z AUTO 24012KT 10SM FEW070 12/06 A3019 RMK AO2 SLP223 T01170056 10128 20111 53003 TSNO=
201410011053 METAR KCLM 011053Z AUTO 24011KT 10SM CLR 12/06 A3018 RMK AO2 SLP220 T01170061 TSNO=
201410010953 METAR KCLM 010953Z AUTO 25011KT 10SM SCT075 12/06 A3018 RMK AO2 SLP221 T01170061 TSNO=
201410010853 METAR KCLM 010853Z AUTO 25009KT 10SM CLR 12/07 A3018 RMK AO2 SLP220 T01170067 53007 TSNO=
201410010753 METAR KCLM 010753Z AUTO 29005KT 10SM BKN075 12/07 A3017 RMK AO2 SLP217 T01170067 401890106 TSNO=
201410010653 METAR KCLM 010653Z AUTO 26010KT 10SM CLR 12/07 A3016 RMK AO2 SLP212 T01220072 TSNO=
201410010553 METAR KCLM 010553Z AUTO 26010KT 10SM CLR 12/08 A3016 RMK AO2 SLP213 T01170078 10161 20106 51005 TSNO=
201410010453 METAR KCLM 010453Z AUTO 27006KT 10SM CLR 12/08 A3016 RMK AO2 SLP212 T01170078 TSNO=
201410010353 METAR KCLM 010353Z AUTO 29005KT 10SM CLR 11/08 A3015 RMK AO2 SLP209 T01110078 TSNO=
201410010253 METAR KCLM 010253Z AUTO 28006KT 10SM CLR 12/09 A3014 RMK AO2 SLP207 T01220089 53014 TSNO=
201410010153 METAR KCLM 010153Z AUTO 30009G18KT 10SM CLR 14/10 A3013 RMK AO2 SLP201 T01390100 TSNO=
201410010053 METAR KCLM 010053Z AUTO 32010KT 10SM CLR 15/10 A3012 RMK AO2 SLP198 T01500100 TSNO=

# No short TAF reports from KCLM in databse.

###################################
#  large TAF from KCLM
###################################
201410312329 TAF KCLM 312329Z 0100/0124 00000KT P6SM VCSH SCT021 BKN070 FM010300
                       24003KT P6SM OVC100 FM011200 VRB03KT P6SM
                       OVC010 FM012100 VRB03KT P6SM BKN250=
201410311732 TAF KCLM 311732Z 3118/0118 VRB03KT P6SM VCSH SCT040 BKN100 BKN120
                       FM312200 21002KT P6SM SCT025 BKN070 FM010900
                       25003KT P6SM OVC025 FM011200 24004KT P6SM
                       BKN050=
201410311510 TAF AMD KCLM 311510Z 3115/0112 VRB03KT P6SM -SHRA SCT015 OVC035
                       TEMPO 3115/3118 3SM -RA BR BKN015 OVC030
                       FM312000 VRB03KT P6SM VCSH SCT020 BKN040
                       FM010600 28006KT P6SM BKN015 OVC040=
201410311120 TAF KCLM 311120Z 3112/0112 VRB03KT P6SM -SHRA SCT015 OVC030
                      TEMPO 3112/3116 3SM -RA BR BKN015 OVC030
                       FM312000 VRB03KT P6SM VCSH SCT020 BKN040
                       FM010600 28006KT P6SM BKN015 OVC040=
201410310520 TAF KCLM 310520Z 3106/0106 VRB03KT P6SM VCSH SCT030 BKN060 FM312000
                       27007KT P6SM VCSH SCT030 BKN050=
201410302339 TAF KCLM 302339Z 3100/3124 VRB05KT 6SM -RA BR BKN012 OVC040 FM311600
                       26006KT P6SM VCSH SCT015 BKN045=
201410301735 TAF KCLM 301735Z 3018/3118 27005KT P6SM SCT010 OVC070
                      TEMPO 3018/3022 -RA FM302200 VRB03KT 5SM
                       -RA BR SCT008 BKN020 OVC035 FM310000 26006KT
                       P6SM -RA BKN015 OVC040 FM311500 26006KT
                       P6SM VCSH SCT015 BKN045=
201410301504 TAF AMD KCLM 301504Z 3015/3112 24004KT P6SM SCT006 BKN060 OVC080
                       TEMPO 3015/3018 P6SM -RA BKN006 OVC060 FM301800
                       VRB03KT P6SM -RA SCT004 BKN012 OVC050 FM310000
                       26006KT P6SM -RA BKN015 OVC040=
201410301305 TAF AMD KCLM 301305Z 3013/3112 00000KT P6SM OVC004 FM301700 VRB03KT
                       P6SM -RA SCT004 BKN012 OVC050 FM310000 26006KT
                       P6SM -RA BKN015 OVC040=
201410301120 TAF KCLM 301120Z 3012/3112 VRB03KT P6SM -RA BKN012 OVC050 FM310000
                       26006KT P6SM -RA BKN015 OVC040=
201410301038 TAF AMD KCLM 301038Z 3011/3106 VRB03KT P6SM BKN012 OVC070 FM301400
                       07003KT P6SM -RA SCT015 OVC050 FM302200
                       07003KT 3SM -RA BR SCT008 OVC020=
201410300520 TAF KCLM 300520Z 3006/3106 VRB03KT P6SM SCT070 BKN200 FM301000
                       VRB03KT P6SM OVC090 FM301400 07003KT P6SM
                       -RA SCT025 OVC050 FM302200 07003KT 3SM -RA
                       BR SCT008 OVC020=
201410292325 TAF KCLM 292325Z 3000/3024 10006KT P6SM BKN030 OVC040 FM300200
                       VRB03KT P6SM SCT040 BKN200 FM301000 VRB03KT
                       P6SM OVC090 FM301400 07003KT P6SM -RA SCT025
                       OVC050 FM302200 07003KT 3SM -RA BR SCT008
                       OVC020=
201410292120 TAF AMD KCLM 292120Z 2921/3018 11007KT P6SM BKN025 FM300200 VRB03KT
                       P6SM BKN200 FM301000 VRB03KT P6SM OVC090
                       FM301400 07003KT P6SM -RA SCT025 OVC050=
201410291740 TAF KCLM 291740Z 2918/3018 21004KT P6SM SCT080 FM300300 VRB03KT
                       P6SM BKN200 FM301000 VRB03KT P6SM OVC090
                       FM301400 07003KT P6SM -RA SCT025 OVC050=
201410291120 TAF KCLM 291120Z 2912/3012 VRB03KT P6SM SCT020 BKN050
                      TEMPO 2912/2916 -SHRA BKN020 BKN050 FM291600
                       26003KT P6SM SCT020 BKN050 FM291800 VRB03KT
                       P6SM SCT050 BKN250=
201410290534 TAF KCLM 290534Z 2906/3006 26004KT P6SM -SHRA SCT020 BKN040 OVC060
                       TEMPO 2910/2914 BKN020 OVC040 FM291400 26004KT
                       P6SM SCT020 BKN040 FM291800 VRB03KT P6SM
                       BKN050 FM292100 04003KT P6SM SCT050 BKN250=
201410282322 TAF KCLM 282322Z 2900/2924 VRB03KT P6SM -SHRA SCT020 BKN030 BKN040
                       FM290300 26004KT P6SM -SHRA BKN030 OVC040
                       FM290600 26004KT P6SM -SHRA OVC020 FM291800
                       VRB03KT P6SM BKN030 AMD NOT SKED=
201410281732 TAF KCLM 281732Z 2818/2918 VRB05KT P6SM -SHRA SCT030 BKN040 OVC070
                       FM282200 VRB03KT P6SM -SHRA BKN040 BKN070
                       FM290300 26004KT P6SM -SHRA BKN030 OVC040
                       AMD NOT SKED=
201410281123 TAF KCLM 281123Z 2812/2912 VRB03KT P6SM -RA BKN050 OVC070 FM281600
                       VRB03KT P6SM -SHRA SCT025 BKN060 FM282300
                       VRB03KT P6SM VCSH BKN070=
201410280535 TAF KCLM 280535Z 2806/2906 VRB03KT P6SM -RA SCT010 OVC060
                      TEMPO 2806/2810 BKN010 OVC060 FM281000 VRB03KT
                       6SM -RA BR BKN010 OVC040 FM281600 27005KT
                       P6SM -SHRA SCT010 BKN050 FM281900 27005KT
                       P6SM VCSH BKN050=
201410272332 TAF KCLM 272332Z 2800/2824 08003KT P6SM -RA SCT040 BKN070 OVC120
                       FM280300 08006KT P6SM -RA OVC040 FM281400
                       24005KT P6SM -SHRA BKN025 FM281800 VRB04KT
                       P6SM -SHRA BKN030 AMD NOT SKED=
201410271739 TAF KCLM 271739Z 2718/2818 VRB03KT P6SM SCT040 BKN120 FM272100
                       09004KT P6SM SCT040 BKN080 BKN120 FM280000
                       08003KT P6SM -RA BKN040 OVC100 FM280300
                       08006KT P6SM -RA OVC040 AMD NOT SKED=
201410271121 TAF KCLM 271121Z 2712/2812 VRB03KT P6SM BKN050 BKN150 FM271500
                       VRB03KT P6SM SCT050 BKN120 FM271800 09004KT
                       P6SM BKN080 FM272300 08003KT P6SM -RA OVC050
                       AMD NOT SKED=
201410270530 TAF KCLM 270530Z 2706/2806 VRB03KT P6SM SCT050 FM271200 VRB03KT
                       P6SM SCT015
                      TEMPO 2712/2716 BKN015 FM271800 09003KT P6SM
                       SCT025 OVC100 FM272300 08003KT P6SM -RA
                       OVC060 AMD NOT SKED=
201410262330 TAF KCLM 262330Z 2700/2724 28006KT P6SM SCT020 SCT040 FM271200
                       23002KT P6SM SCT015
                      TEMPO 2713/2717 BKN015 FM271800 09003KT P6SM
                       SCT025 OVC100 FM272200 08003KT P6SM -RA
                       OVC060=
201410261720 TAF KCLM 261720Z 2618/2718 27014G22KT P6SM SCT030 OVC050
                      TEMPO 2618/2622 -SHRA BKN030 OVC050 FM270000
                       29010KT P6SM SCT050 BKN100 FM271500 23002KT
                       P6SM OVC015=
201410261120 TAF KCLM 261120Z 2612/2712 26014G25KT P6SM VCSH SCT030 BKN050 BKN080
                       TEMPO 2612/2616 -SHRA BKN030 BKN050 BKN080
                       FM261800 27010G20KT P6SM -SHRA BKN050 BKN080
                       FM270000 27005KT P6SM SCT050 SCT100=
201410260536 TAF KCLM 260536Z 2606/2706 26018G30KT P6SM SCT025 BKN050 BKN080
                       TEMPO 2606/2610 -SHRA BKN025 BKN050 BKN080
                       FM261000 27014G24KT P6SM -SHRA BKN025 BKN060
                       FM261500 27012KT P6SM -SHRA BKN025 BKN060
                       FM261800 28012KT P6SM -SHRA SCT025 BKN060=
201410260223 TAF AMD KCLM 260223Z 2602/2624 26014G25KT P6SM -RA BKN012 OVC060
                       TEMPO 2603/2607 27025G35KT 5SM -RA BR SCT012
                       OVC060 FM260700 27016G25KT P6SM -SHRA BKN015
                       OVC030 FM261500 27012KT P6SM -SHRA BKN015
                       FM262100 29012KT P6SM -SHRA SCT020 BKN035=
201410260121 TAF AMD KCLM 260121Z 2601/2624 26014G25KT 2SM RA BR OVC003
                      TEMPO 2603/2607 27025G35KT 5SM -RA BR SCT003
                       OVC020 FM260700 27016G25KT P6SM -SHRA BKN015
                       OVC030 FM261500 27012KT P6SM -SHRA BKN015
                       FM262100 29012KT P6SM -SHRA SCT020 BKN035=
201410252330 TAF KCLM 252330Z 2600/2624 04005KT P6SM -RA BKN005 OVC012
                      TEMPO 2600/2601 2SM RA BR OVC003 FM260100
                       27018G27KT P6SM -RA OVC010
                      TEMPO 2603/2607 27025G35KT 2SM -RA BR OVC003
                       FM261500 27012KT P6SM -SHRA BKN015 FM262100
                       29012KT P6SM -SHRA SCT020 BKN035=
201410251735 TAF KCLM 251735Z 2518/2618 VRB05KT P6SM OVC010
                      TEMPO 2518/2522 -RA FM260100 27018G27KT P6SM
                       -RA OVC010
                      TEMPO 2602/2606 27025G35KT 4SM -RA BR OVC010
                       FM261500 27010KT P6SM -SHRA BKN015=
201410251123 TAF KCLM 251123Z 2512/2612 VRB04KT P6SM -RA BKN005 OVC070 FM251600
                       VRB04KT P6SM -RA SCT005 OVC050 FM252200
                       VRB04KT P6SM -RA BKN020 OVC040 FM260400
                       28015G25KT P6SM -RA OVC030 AMD NOT SKED=
201410250543 TAF KCLM 250543Z 2506/2606 VRB03KT P6SM -RA BKN014 OVC060 FM251200
                       VRB03KT 4SM -RA BR OVC012 FM251800 VRB03KT
                       P6SM -RA BKN020 OVC035=
201410242330 TAF KCLM 242330Z 2500/2524 11004KT P6SM OVC017 FM250600 11006KT
                       P6SM -RA OVC080 FM251200 16004KT 4SM -RA
                       BR OVC015 FM251800 VRB03KT P6SM -RA BKN020
                       OVC035=
201410241725 TAF KCLM 241725Z 2418/2518 VRB04KT P6SM SCT130 OVC230 FM250600
                       25003KT P6SM -RA OVC080 FM251200 16004KT
                       4SM -RA BR OVC015 AMD NOT SKED=
201410241152 TAF KCLM 241152Z 2412/2512 VRB03KT P6SM BKN060 BKN100 FM241700
                       05008KT P6SM SCT060 BKN100 FM251000 05008KT
                       P6SM -RA OVC045 AMD NOT SKED=
201410241136 TAF KCLM 241136Z 2412/2512 VRB03KT P6SM BKN060 BKN100 FM241700
                       05008KT P6SM SCT060 BKN100 FM251000 05008KT
                       P6SM -RA OVC045=
201410240534 TAF KCLM 240534Z 2406/2506 VRB03KT P6SM SCT060 BKN100 FM241600
                       05008KT P6SM SCT100 BKN200 FM242200 05008KT
                       P6SM BKN100 OVC200 AMD NOT SKED=
201410232346 TAF KCLM 232346Z 2400/2424 27006KT P6SM VCSH SCT035 BKN060 BKN110
                       TEMPO 2400/2402 -SHRA BKN035 OVC060 FM240400
                       VRB03KT P6SM VCSH SCT060 BKN110 FM241200
                       VRB03KT P6SM SCT110 BKN200=
201410231731 TAF KCLM 231731Z 2318/2418 29006KT P6SM VCSH SCT030 BKN060 BKN110
                       TEMPO 2318/2322 -SHRA BKN030 OVC060 FM232200
                       29006KT P6SM VCSH SCT035 SCT060 BKN110
                      TEMPO 2322/2402 -SHRA BKN035 OVC060 FM240200
                       VRB03KT P6SM VCSH SCT060 BKN110 FM241200
                       VRB03KT P6SM SCT110 BKN200 AMD NOT SKED=
201410231132 TAF KCLM 231132Z 2312/2412 26008KT P6SM SCT030 BKN060 BKN100 FM231600
                       VRB03KT P6SM -SHRA SCT025 BKN035 BKN050
                       FM240000 VRB03KT P6SM SCT035 BKN060 AMD
                       NOT SKED=
201410230538 TAF KCLM 230538Z 2306/2406 26008KT P6SM SCT030 BKN060 BKN100
                      TEMPO 2306/2308 -SHRA BKN030 OVC060 FM231600
                       VRB03KT P6SM -SHRA SCT025 BKN035 BKN050
                       FM240000 VRB03KT P6SM SCT035 BKN060 AMD
                       NOT SKED=
201410222350 TAF KCLM 222350Z 2300/2324 VRB03KT P6SM -RA SCT035 BKN050 OVC090
                       FM230200 VRB03KT 6SM -RA BR SCT015 BKN035
                       OVC050
                      TEMPO 2302/2306 4SM -RA BR BKN015 OVC030
                       FM230600 25005KT P6SM VCSH SCT020 BKN035
                       OVC050
                      TEMPO 2306/2310 -SHRA BKN020 OVC035 FM231000
                       25005KT P6SM VCSH SCT035 BKN050 BKN090 FM231800
                       29006KT P6SM VCSH SCT050 BKN090
                      PROB30 2320/2324 -SHRA OVC050=
201410222201 TAF AMD KCLM 222201Z 2222/2318 VRB03KT 6SM -RA BR FEW009 BKN018
                       OVC030 FM230400 VRB03KT P6SM VCSH BKN022
                       OVC050
                      TEMPO 2304/2308 -SHRA FM231200 VRB03KT P6SM
                       VCSH SCT030 BKN050 OVC090
                      PROB30 2312/2318 -SHRA BKN030 OVC050 AMD
                       NOT SKED=
201410221800 TAF AMD KCLM 221800Z 2218/2318 VRB03KT P6SM VCSH SCT035 SCT050
                       OVC130
                      TEMPO 2220/2222 -RA BKN035 OVC050 FM222200
                       VRB03KT 6SM -RA BR FEW009 BKN018 OVC030
                       FM230400 VRB03KT P6SM VCSH BKN022 OVC050
                       TEMPO 2304/2308 -SHRA FM231200 VRB03KT P6SM
                       VCSH SCT030 BKN050 OVC090
                      PROB30 2312/2318 -SHRA BKN030 OVC050=
201410221720 TAF KCLM 221720Z 2218/2318 VRB03KT P6SM VCSH BKN018 OVC030
                      TEMPO 2218/2222 -RA FM222200 VRB03KT 6SM
                       -RA BR FEW009 BKN018 OVC030 FM230400 VRB03KT
                       P6SM VCSH BKN022 OVC050
                      TEMPO 2304/2308 -SHRA FM231200 VRB03KT P6SM
                       VCSH SCT030 BKN050 OVC090
                      PROB30 2312/2318 -SHRA BKN030 OVC050=
201410221439 TAF AMD KCLM 221439Z 2215/2312 VRB05KT P6SM VCSH SCT002 BKN015
                       OVC030
                      TEMPO 2215/2218 -SHRA BKN002 OVC015 FM221800
                       31006KT P6SM VCSH SCT015 BKN030 BKN050 FM222200
                       31006KT P6SM OVC035 FM230600 VRB04KT P6SM
                       BKN050=
201410221120 TAF KCLM 221120Z 2212/2312 VRB04KT 5SM -RA OVC045
                      TEMPO 2212/2213 2SM RA BR OVC030 FM221500
                       27006KT P6SM -RA OVC030 FM222200 31006KT
                       P6SM OVC035 FM230600 VRB04KT P6SM BKN050=
201410220520 TAF KCLM 220520Z 2206/2306 08004KT P6SM -RA OVC040 FM220900 VRB04KT
                       5SM RA BR OVC025 FM221900 27006KT P6SM -RA
                       OVC025 FM230000 31007KT 5SM -SHRA BR OVC020=
201410212320 TAF KCLM 212320Z 2200/2224 VRB04KT P6SM -RA OVC060 FM220400 08004KT
                       P6SM RA OVC040 FM220900 VRB05KT 4SM RA BR
                       OVC020=
201410211723 TAF KCLM 211723Z 2118/2218 00000KT P6SM FEW070 BKN150 FM212300
                       VRB04KT P6SM -RA OVC050 FM220400 08004KT
                       P6SM RA OVC035 FM220900 VRB05KT 4SM RA BR
                       OVC020=
201410211120 TAF KCLM 211120Z 2112/2212 VRB04KT P6SM -SHRA BKN050 OVC070 FM212300
                       VRB04KT P6SM -RA OVC050 FM220400 13006KT
                       P6SM RA OVC045 FM220800 22008KT 4SM RA BR
                       OVC030=
201410210529 TAF KCLM 210529Z 2106/2206 VRB04KT P6SM VCSH BKN050 OVC070
                      TEMPO 2106/2109 -SHRA OVC035 FM211600 VRB04KT
                       P6SM VCSH BKN050 OVC070 FM211900 13005KT
                       P6SM VCSH OVC070 FM220000 VRB04KT P6SM OVC060
                       TEMPO 2202/2206 -RA=
201410202324 TAF KCLM 202324Z 2100/2124 VRB03KT P6SM VCSH SCT080 BKN090
                      TEMPO 2100/2102 -SHRA OVC070 FM210200 23005KT
                       P6SM -SHRA BKN050 BKN080 FM210600 25004KT
                       P6SM VCSH BKN050 OVC070 FM211800 VRB04KT
                       P6SM BKN050 OVC070=
201410201727 TAF KCLM 201727Z 2018/2118 24005KT P6SM -RA BKN015 OVC030 FM201900
                       VRB03KT P6SM -SHRA BKN030 OVC060 FM202100
                       VRB03KT P6SM -SHRA SCT030 BKN060 FM210200
                       23005KT P6SM -SHRA BKN060 BKN080 FM210600
                       25004KT P6SM VCSH BKN050 OVC070=
201410201120 TAF KCLM 201120Z 2012/2112 24005KT P6SM -RA BKN015 OVC030 FM201800
                       VRB03KT P6SM -SHRA BKN030 OVC060 FM202000
                       VRB03KT P6SM -SHRA SCT030 BKN060 FM210200
                       23005KT P6SM VCSH BKN060 BKN080=
201410200804 TAF AMD KCLM 200804Z 2008/2106 30006KT P6SM -RA BKN025 OVC040 FM201300
                       VRB03KT P6SM -SHRA BKN030 OVC060 FM201900
                       VRB03KT P6SM -SHRA SCT030 BKN060
                      TEMPO 2021/2101 SHRA OVC030=
201410200520 TAF KCLM 200520Z 2006/2106 30006KT 4SM -RA BR BKN009 OVC015
                      TEMPO 2009/2013 2SM -RA BR OVC004 FM201600
                       VRB03KT P6SM -SHRA BKN030 OVC060 FM201900
                       VRB03KT P6SM -SHRA SCT030 BKN060
                      TEMPO 2021/2101 SHRA OVC030=
201410200341 TAF AMD KCLM 200341Z 2004/2024 30006KT P6SM -RA SCT009 OVC050
                      TEMPO 2004/2006 4SM RA BR OVC009 FM200600
                       29006KT 4SM -RA BR OVC015 FM201600 VRB03KT
                       P6SM -SHRA BKN030 OVC060=
201410200319 TAF AMD KCLM 200319Z 2003/2024 VRB03KT P6SM -RA SCT009 OVC050
                      TEMPO 2004/2006 4SM RA BR OVC009 FM200600
                       VRB03KT 4SM -RA BR OVC015 FM201600 VRB03KT
                       P6SM -SHRA BKN030 OVC060 AMD NOT SKED=
201410192321 TAF KCLM 192321Z 2000/2024 00000KT P6SM BKN090 FM200300 VRB03KT
                       P6SM -RA OVC050 FM200600 VRB03KT 4SM -RA
                       BR OVC015 FM201600 VRB03KT P6SM -SHRA BKN030
                       OVC060 AMD NOT SKED=
201410191722 TAF KCLM 191722Z 1918/2018 VRB03KT P6SM SCT002 BKN080
                      TEMPO 1918/1920 1/2SM FG VV002 FM192000 08005KT
                       P6SM SCT080 BKN120 FM200000 VRB03KT P6SM
                       -RA OVC050 FM200600 VRB03KT 4SM -RA BR OVC015
                       FM201600 VRB03KT P6SM -SHRA BKN030 OVC060=
201410191120 TAF KCLM 191120Z 1912/2012 VRB04KT P6SM FEW006 BKN070 BKN120
                      TEMPO 1912/1914 3SM BR BKN006 FM192200 24006KT
                       P6SM OVC070 FM200100 23006KT 5SM -RA BR
                       OVC045 FM200400 25008KT 4SM RA BR OVC035=
201410190616 TAF KCLM 190616Z 1906/2006 VRB03KT P6SM SCT050 BKN150
                      TEMPO 1910/1914 3SM BR SCT010 SCT050 SCT150
                       FM200000 24004KT P6SM OVC070 FM200100 23006KT
                       5SM -RA BR OVC045 AMD NOT SKED=
201410190525 TAF KCLM 190525Z 1906/2006 VRB03KT P6SM SCT050 BKN150
                      TEMPO 1910/1914 3SM BR SCT010 SCT050 SCT150
                       FM200000 24004KT P6SM OVC070 FM200100 23006KT
                       5SM -RA BR OVC045=
201410182320 TAF KCLM 182320Z 1900/1924 VRB03KT P6SM SCT050 BKN150 AMD NOT=
201410181731 TAF AMD KCLM 181731Z 1818/1918 VRB03KT P6SM SCT002 BKN070
                      TEMPO 1818/1820 2SM -SHRA BR BKN002 OVC070
                       FM182100 06003KT P6SM SCT040 BKN150=
201410181721 TAF KCLM 181721Z 1818/1918 VRB03KT P6SM FEW030 BKN060 FM182100
                       06003KT P6SM SCT040 BKN150=
201410181221 TAF AMD KCLM 181221Z 1812/1912 VRB04KT P6SM VCSH SCT008 BKN070
                       TEMPO 1812/1816 1/2SM FG BKN008 FM181700
                       09004KT P6SM SCT025 BKN040 FM182100 06003KT
                       P6SM SCT040 BKN150 AMD NOT SKED=
201410181120 TAF KCLM 181120Z 1812/1912 VRB04KT P6SM VCSH BKN020 OVC040
                      TEMPO 1812/1816 3SM -SHRA BKN008 FM181700
                       09004KT P6SM SCT025 BKN040 FM182100 06003KT
                       P6SM SCT040 BKN150 AMD NOT SKED=
201410180524 TAF KCLM 180524Z 1806/1906 VRB04KT P6SM -SHRA SCT030 BKN045 FM181000
                       23004KT P6SM VCSH SCT025 BKN030 FM181400
                       24003KT P6SM SCT012 BKN025 FM182000 05003KT
                       P6SM SCT035 AMD NOT SKED=
201410172335 TAF KCLM 172335Z 1800/1824 06003KT P6SM -SHRA OVC060 FM180500 23004KT
                       P6SM VCSH BKN050 FM181500 24003KT P6SM SCT012
                       SCT025 FM182000 05003KT P6SM SCT035=
201410171741 TAF KCLM 171741Z 1718/1818 06003KT P6SM -RA OVC070 FM180400 23004KT
                       P6SM VCSH BKN050 FM181500 24003KT P6SM SCT012
                       SCT025=
201410171121 TAF KCLM 171121Z 1712/1812 VRB04KT P6SM OVC080 FM171400 12005KT
                       P6SM -RA OVC060 FM172000 09005KT P6SM -RA
                       BKN035 OVC050 FM180000 23008KT P6SM -SHRA
                       BKN035 BKN050 FM180600 24006KT 5SM BR OVC015=
201410170539 TAF KCLM 170539Z 1706/1806 VRB03KT P6SM BKN120 OVC200 FM171000
                       22003KT P6SM OVC080 FM171400 16002KT P6SM
                       -RA OVC060 FM172000 07005KT P6SM -RA BKN035
                       OVC050 FM180000 23008KT P6SM -SHRA BKN035
                       BKN050 AMD NOT SKED=
201410162333 TAF KCLM 162333Z 1700/1724 30003KT P6SM SCT090 BKN250 FM170400
                       VRB03KT P6SM BKN090 OVC200 FM170800 22003KT
                       P6SM -RA OVC050 FM171500 16002KT 4SM -RA
                       BR BKN025 OVC050 FM172200 07005KT P6SM -RA
                       BKN025 OVC045=
201410161728 TAF KCLM 161728Z 1618/1718 VRB03KT P6SM SCT002 BKN080 OVC110
                      TEMPO 1618/1619 3SM BR BKN002 FM162300 08002KT
                       P6SM BKN200 FM170400 VRB03KT P6SM BKN090
                       OVC200 FM170800 22003KT P6SM -RA OVC050
                       FM171500 16002KT 4SM -RA BR BKN025 OVC050=
201410161122 TAF KCLM 161122Z 1612/1712 VRB04KT P6SM VCSH SCT002 BKN060
                      TEMPO 1612/1616 OVC002 FM161800 08003KT P6SM
                       SCT050 BKN150 FM170200 09005KT P6SM OVC120
                       FM170700 VRB04KT P6SM OVC100=
201410161105 TAF AMD KCLM 161105Z 1611/1706 VRB04KT P6SM VCSH SCT002 BKN060
                       TEMPO 1612/1616 BKN002 FM161800 08003KT
                       P6SM SCT050 BKN150 FM170200 08007KT P6SM
                       OVC100 AMD NOT SKED=
201410160941 TAF AMD KCLM 160941Z 1610/1706 VRB04KT P6SM VCSH BKN002 BKN060
                       FM161800 08003KT P6SM SCT050 BKN150 FM170200
                       08007KT P6SM OVC100 AMD NOT SKED=
201410160532 TAF KCLM 160532Z 1606/1706 VRB04KT P6SM VCSH BKN060 FM161900 08003KT
                       P6SM SCT050 BKN150 FM170200 08007KT P6SM
                       OVC100 AMD NOT SKED=
201410152331 TAF KCLM 152331Z 1600/1624 27003KT P6SM VCSH FEW045 BKN070 OVC090
                       FM160300 23002KT P6SM BKN050 FM161900 08003KT
                       P6SM BKN250=
201410151727 TAF KCLM 151727Z 1518/1618 07003KT P6SM -SHRA SCT008 BKN070 OVC090
                       TEMPO 1518/1522 BKN008 OVC035 FM152200 30005KT
                       P6SM VCSH BKN040=
201410151123 TAF KCLM 151123Z 1512/1612 VRB04KT P6SM -SHRA BKN050 BKN080 FM151800
                       30004KT P6SM -SHRA BKN040 BKN060 FM152100
                       30005KT P6SM VCSH BKN040 AMD NOT SKED=
201410150527 TAF KCLM 150527Z 1506/1606 VRB03KT P6SM SCT050 BKN100 FM150900
                       VRB04KT P6SM VCSH SCT030 BKN050 OVC090 FM151200
                       30004KT P6SM -SHRA BKN040 BKN060 AMD NOT
                       SKED=
201410142320 TAF KCLM 142320Z 1500/1524 VRB03KT P6SM VCSH BKN030 BKN070
                      TEMPO 1502/1506 -SHRA OVC025 FM150600 22003KT
                       P6SM -SHRA BKN030 BKN070 FM151700 30004KT
                       P6SM -SHRA BKN020 BKN060=
201410141731 TAF AMD KCLM 141731Z 1418/1518 08004KT P6SM SCT030 BKN070
                      TEMPO 1418/1422 1SM BR VV001 FM150000 27005KT
                       P6SM VCSH BKN030 BKN070 FM150600 22003KT
                       P6SM -SHRA BKN030 BKN070 FM151700 30004KT
                       P6SM -SHRA BKN020 BKN060=
201410141730 TAF KCLM 141730Z 1418/1518 08004KT P6SM SCT030 BKN070
                      TEMPO 1418/1422 1 1/2SM BR SCT005 FM150000
                       27005KT P6SM VCSH BKN030 BKN070 FM150600
                       22003KT P6SM -SHRA BKN030 BKN070 FM151700
                       30004KT P6SM -SHRA BKN020 BKN060=
201410141257 TAF AMD KCLM 141257Z 1413/1512 VRB03KT P6SM VCSH BKN070
                      TEMPO 1413/1416 1/2SM FG VV001 FM141600 08004KT
                       P6SM SCT030 BKN070 FM150000 27005KT P6SM
                       VCSH BKN030 BKN070=
201410141126 TAF KCLM 141126Z 1412/1512 28006KT P6SM VCSH FEW009 SCT025 BKN070
                       TEMPO 1412/1414 -SHRA BKN025 FM141600 08004KT
                       P6SM SCT030 BKN070 FM150000 27005KT P6SM
                       VCSH BKN030 BKN070 AMD NOT SKED=
201410140527 TAF KCLM 140527Z 1406/1506 28006KT P6SM -RA FEW005 OVC020
                      TEMPO 1406/1410 4SM RA BR BKN004 FM141500
                       VRB03KT P6SM VCSH BKN018 BKN030 OVC050 FM141800
                       VRB03KT P6SM VCSH SCT030 BKN070 OVC110 AMD
                       NOT=
201410132332 TAF KCLM 132332Z 1400/1424 28006KT P6SM -RA SCT030 BKN050 OVC070
                       FM140300 25006KT 5SM -RA BR SCT010 OVC022
                       FM140600 VRB03KT 3SM -RA BR FEW005 OVC010
                       FM141500 VRB03KT P6SM VCSH BKN018 BKN030
                       OVC050 FM141800 VRB03KT P6SM VCSH SCT030
                       BKN070 OVC110
                      PROB30 1418/1424 -RA BKN030 OVC050 AMD NOT
                       SKED=
201410131746 TAF KCLM 131746Z 1318/1418 VRB03KT P6SM FEW015 SCT110 OVC200 FM132000
                       VRB03KT P6SM VCSH SCT050 OVC110
                      TEMPO 1320/1322 -RA BKN050 OVC200 FM132200
                       VRB03KT P6SM -RA FEW011 SCT022 OVC050 FM140000
                       28006KT 6SM RA BR FEW010 OVC022 FM140300
                       25006KT 3SM -RA BR SCT005 OVC010 FM141500
                       VRB03KT P6SM VCSH BKN018 BKN050 OVC070=
201410131427 TAF AMD KCLM 131427Z 1314/1412 VRB03KT 2SM BR BKN110 OVC200
                      TEMPO 1314/1316 1/4SM FG VV001 FM131800 VRB03KT
                       P6SM VCSH SCT050 OVC100 FM132100 VRB03KT
                       P6SM -RA BKN050 OVC070 FM140000 27008KT
                       P6SM -RA OVC050 FM140600 25004KT 4SM -RA
                       OVC025 AMD NOT SKED=
201410131211 TAF AMD KCLM 131211Z 1312/1412 VRB03KT P6SM BKN070 OVC150
                      TEMPO 1312/1315 1SM BR BKN001 FM131800 VRB03KT
                       P6SM VCSH SCT050 OVC100 FM132100 VRB03KT
                       P6SM -RA BKN050 OVC070 FM140000 27008KT
                       P6SM -RA OVC050 FM140600 25004KT 4SM -RA
                       OVC025=
201410131129 TAF KCLM 131129Z 1312/1412 VRB03KT P6SM BKN070 OVC150 FM131800
                       VRB03KT P6SM VCSH SCT050 OVC100 FM132100
                       VRB03KT P6SM -RA BKN050 OVC070 FM140000
                       27008KT P6SM -RA OVC050 FM140600 25004KT
                       4SM -RA OVC025=
201410131006 TAF AMD KCLM 131006Z 1310/1406 VRB03KT P6SM BKN070 OVC150 FM131800
                       VRB03KT P6SM SCT050 OVC100 FM132100 VRB03KT
                       P6SM -RA BKN040 OVC070=
201410130905 TAF AMD KCLM 130905Z 1309/1406 VRB03KT P6SM BKN004 BKN080 OVC150
                       FM131800 VRB03KT P6SM SCT050 OVC100 FM132100
                       VRB03KT P6SM -RA BKN040 OVC070=
201410130521 TAF KCLM 130521Z 1306/1406 VRB03KT 5SM BR SCT020 OVC080 FM131800
                       VRB03KT P6SM SCT050 BKN120 FM132100 VRB03KT
                       P6SM -RA BKN040 OVC070=
201410122320 TAF KCLM 122320Z 1300/1324 VRB03KT P6SM -RA BKN060 OVC090 FM130900
                       VRB03KT P6SM BKN040 OVC070 FM131800 VRB03KT
                       P6SM SCT050 BKN120 FM132100 VRB03KT P6SM
                       -RA BKN040 OVC070=
201410121741 TAF KCLM 121741Z 1218/1318 VRB03KT P6SM OVC150 FM122100 VRB03KT
                       P6SM OVC090 FM130000 VRB03KT P6SM BKN060
                       OVC090 FM130400 VRB03KT P6SM -RA OVC060
                       FM130800 00000KT P6SM OVC050 AMD NOT SKED=
201410121121 TAF KCLM 121121Z 1212/1312 27005KT P6SM FEW020 BKN120 FM121700
                       VRB03KT P6SM SCT050 BKN120 FM122000 VRB03KT
                       P6SM SCT030 BKN050 BKN120 FM130000 VRB04KT
                       P6SM VCSH BKN030 OVC070=
201410120521 TAF KCLM 120521Z 1206/1306 29008KT P6SM SCT020 SCT080 FM120800
                       25005KT P6SM BKN020 FM121200 24004KT P6SM
                       BKN008 FM121700 VRB03KT P6SM SCT050 BKN120=
201410112342 TAF KCLM 112342Z 1200/1224 29008KT P6SM -SHRA SCT040 BKN060 FM120300
                       28008KT P6SM SCT060 FM120800 25005KT P6SM
                       BKN050 FM121200 24004KT P6SM BKN008 FM121700
                       VRB03KT P6SM SCT050 BKN120 AMD NOT SKED=
201410111741 TAF KCLM 111741Z 1118/1218 VRB05KT P6SM -SHRA VCTS SCT015 BKN035CB
                       OVC050
                      TEMPO 1118/1121 3SM -SHRA BKN010 OVC030 FM112100
                       30008KT P6SM VCSH BKN040 BKN070 FM112300
                       28009KT P6SM BKN070 FM120800 25006KT P6SM
                       SCT020 BKN040=
201410111457 TAF AMD KCLM 111457Z 1115/1212 VRB05KT P6SM -SHRA VCTS SCT015 BKN030CB
                       OVC050
                      TEMPO 1115/1118 -SHRA BKN015 OVC030 FM111800
                       29008KT P6SM VCSH BKN020 BKN050 FM112100
                       28008KT P6SM VCSH BKN030 OVC060 FM120000
                       28010KT P6SM BKN030 AMD NOT SKED=
201410111120 TAF KCLM 111120Z 1112/1212 24006KT P6SM SCT015 BKN100
                      TEMPO 1112/1116 -SHRA BKN010 FM111800 29008KT
                       P6SM VCSH BKN020 BKN050 FM112100 28008KT
                       P6SM VCSH BKN030 OVC060 FM120000 28010KT
                       P6SM BKN030 AMD NOT SKED=
201410110520 TAF KCLM 110520Z 1106/1206 VRB03KT P6SM VCSH BKN030 BKN060 FM110900
                       28003KT 4SM BR OVC007 FM111500 28005KT P6SM
                       BKN015 OVC030 FM111800 29008KT P6SM SCT020
                       BKN050 AMD NOT SKED=
201410102340 TAF KCLM 102340Z 1100/1124 VRB03KT P6SM VCSH BKN020 OVC050 FM110400
                       VRB03KT 6SM BR BKN010 OVC030 FM110600 28003KT
                       4SM BR OVC007 FM111500 28005KT P6SM BKN015
                       OVC030 FM111800 29008KT P6SM SCT020 BKN050
                       AMD NOT SKED=
201410101742 TAF KCLM 101742Z 1018/1118 VRB04KT P6SM BKN012 OVC150 FM102000
                       28008KT P6SM SCT015 BKN025 OVC040 FM110400
                       VRB03KT P6SM BKN015 OVC040 FM110600 28003KT
                       4SM BR OVC007=
201410101645 TAF AMD KCLM 101645Z 1017/1112 VRB04KT P6SM BKN010 OVC150 FM101800
                       VRB04KT P6SM BKN015 BKN150 FM102000 28008KT
                       P6SM SCT015 BKN025 OVC040=
201410101120 TAF KCLM 101120Z 1012/1112 00000KT 1/4SM FG VV002 FM101500 09006KT
                       2SM BR BKN002 BKN150 FM101800 VRB04KT P6SM
                       BKN010 BKN100 FM102000 28008KT P6SM SCT015
                       BKN025 OVC040=
201410100540 TAF KCLM 100540Z 1006/1106 00000KT P6SM SKC FM101000 00000KT 1/4SM
                       FG VV002 FM101500 09006KT 2SM BR BKN002
                       BKN150 FM101800 VRB04KT P6SM BKN010 BKN100
                       FM102000 28008KT P6SM SCT015 BKN025 OVC040=
201410092330 TAF KCLM 092330Z 1000/1024 09006KT P6SM SCT200
                      TEMPO 1003/1006 1SM BR FM100600 09006KT 1/4SM
                       FG VV001 FM101500 09006KT 2SM BR BKN002
                       BKN150 FM101800 VRB04KT P6SM BKN010 BKN100
                       FM102100 28008KT P6SM -DZ OVC015=
201410091720 TAF KCLM 091720Z 0918/1018 VRB03KT 5SM BR SCT002 BKN015
                      TEMPO 0918/0921 2SM BR BKN002 BKN010 FM092100
                       VRB03KT 6SM HZ SCT005 SCT200
                      TEMPO 1005/1008 2SM BR BKN002 FM100800 00000KT
                       1/2SM FG VV001 FM101700 VRB03KT 3SM BR BKN003
                       BKN150=
201410091637 TAF AMD KCLM 091637Z 0917/1012 VRB03KT 1/2SM FG VV002 FM092000
                       32004KT P6SM SCT002 BKN200 FM100900 VRB03KT
                       1SM BR BKN002=
201410091120 TAF KCLM 091120Z 0912/1012 VRB03KT P6SM VCFG FEW001
                      TEMPO 0912/0916 1/2SM FG VV001 FM092000 32004KT
                       P6SM SKC FM100900 VRB03KT 1SM BR BKN002=
201410091009 TAF AMD KCLM 091009Z 0910/1006 VRB02KT 3SM BR VCFG SCT001
                      TEMPO 0911/0915 1/2SM FG VV001 FM092000 32004KT
                       P6SM SKC=
201410090903 TAF AMD KCLM 090903Z 0909/1006 00000KT 1/4SM FG VV002 FM091800
                       VRB04KT 4SM BR BKN004 FM092000 32004KT P6SM
                       SKC=
201410090839 TAF AMD KCLM 090839Z 0909/1006 VRB02KT 1/2SM FG VV002 FM091800
                       VRB04KT 4SM BR BKN004 FM092000 32004KT P6SM
                       SKC=
201410090520 TAF KCLM 090520Z 0906/1006 VRB03KT P6SM VCFG SCT001 FM090700 00000KT
                       2SM BR VCFG SCT002 FM090900 00000KT 1/2SM
                       FG VV002 FM091800 VRB04KT 4SM BR BKN004
                       FM092000 32004KT P6SM SKC=
201410082320 TAF KCLM 082320Z 0900/0924 VRB04KT P6SM SCT150 FM091000 00000KT
                       2SM BR SCT002
                      TEMPO 0914/0916 1/2SM FG VV002 FM091700 VRB04KT
                       P6SM SKC=
201410081831 TAF AMD KCLM 081831Z 0819/0918 VRB04KT 5SM BR SCT003 BKN150
                      TEMPO 0819/0821 1/2SM FG VV002 FM082100 VRB04KT
                       P6SM SCT015 BKN150 FM090300 00000KT P6SM
                       SCT150 FM091000 00000KT 2SM BR SCT002
                      TEMPO 0914/0916 1/2SM FG VV002 FM091700 VRB04KT
                       P6SM SKC=
201410081756 TAF AMD KCLM 081756Z 0818/0918 VRB04KT 3SM BR BKN003 BKN150
                      TEMPO 0818/0821 1/2SM FG VV002 FM082100 VRB04KT
                       P6SM SCT015 BKN150 FM090300 00000KT P6SM
                       SCT150 FM091000 00000KT 2SM BR SCT002
                      TEMPO 0914/0916 1/2SM FG VV002 FM091700 VRB04KT
                       P6SM SKC=
201410081720 TAF KCLM 081720Z 0818/0918 VRB04KT P6SM SCT004 BKN150
                      TEMPO 0818/0821 BKN004 BKN150 FM082100 VRB04KT
                       P6SM SCT015 BKN150 FM090300 00000KT P6SM
                       SCT150 FM091000 00000KT 2SM BR SCT002
                      TEMPO 0914/0916 1/2SM FG VV002 FM091700 VRB04KT
                       P6SM SKC=
201410081612 TAF AMD KCLM 081612Z 0816/0912 00000KT P6SM SCT004 BKN120
                      TEMPO 0816/0819 4SM BR BKN004 OVC120 FM090300
                       29005KT P6SM SCT120 FM090800 VRB03KT 1/2SM
                       FG VV001=
201410081120 TAF KCLM 081120Z 0812/0912 00000KT 6SM BR SCT001 BKN150
                      TEMPO 0812/0815 1SM BR VV001 FM081800 VRB03KT
                       P6SM SCT010 BKN150 FM082200 VRB03KT P6SM
                       BKN120 FM090300 29005KT P6SM SCT120 FM090800
                       VRB03KT 1/2SM FG VV001=
201410080558 TAF AMD KCLM 080558Z 0806/0906 VRB03KT 1/4SM FG VV001 FM081300
                       25003KT 2SM BR OVC003 FM081800 VRB03KT P6SM
                       SCT010 BKN150 FM082200 VRB03KT P6SM BKN120
                       FM090300 29005KT P6SM SCT120=
201410080520 TAF KCLM 080520Z 0806/0906 00000KT 1/4SM FG VV002 FM081300 25003KT
                       2SM BR OVC003 FM081800 VRB03KT P6SM SCT010
                       BKN150 FM082200 VRB03KT P6SM BKN120 FM090300
                       29005KT P6SM SCT120=
201410080434 TAF AMD KCLM 080434Z 0805/0824 25004KT 1/2SM FG VV002 FM080900
                       25004KT 2SM BR OVC003 FM082000 VRB03KT P6SM
                       SCT010 BKN200 FM082200 VRB03KT P6SM BKN150=
201410080138 TAF AMD KCLM 080138Z 0802/0824 31006KT 1/4SM FG OVC003 FM080900
                       25004KT 2SM BR OVC003 FM082000 VRB03KT P6SM
                       SCT010 BKN200 FM082200 VRB03KT P6SM BKN150=
201410072320 TAF KCLM 072320Z 0800/0824 VRB03KT P6SM SCT003 SCT040
                      TEMPO 0800/0804 3SM BR BKN003 FM080400 06003KT
                       1/2SM FG VV001 FM082000 VRB03KT P6SM SCT010
                       BKN200 FM082200 VRB03KT P6SM BKN150=
201410071812 TAF AMD KCLM 071812Z 0718/0818 VRB03KT P6SM SCT002
                      TEMPO 0718/0721 1/2SM FG VV002 FM080800 VRB03KT
                       1/2SM FG VV002=
201410071720 TAF KCLM 071720Z 0718/0818 VRB03KT P6SM SCT005 FM080800 VRB03KT
                       1/2SM FG VV002=
201410071601 TAF AMD KCLM 071601Z 0716/0812 VRB03KT 4SM BR SCT003 BKN015
                      TEMPO 0716/0719 1/4SM FG VV001 FM071900 30006KT
                       P6SM SCT005 SCT030 FM072100 30006KT P6SM
                       SKC FM080800 VRB03KT 3SM BR SCT015 SCT120=
201410071509 TAF AMD KCLM 071509Z 0715/0812 VRB03KT 4SM BR SCT003 BKN015
                      TEMPO 0715/0719 2SM BR BKN002 OVC015 FM071900
                       30006KT P6SM SCT005 SCT030 FM072100 30006KT
                       P6SM SKC FM080800 VRB03KT 3SM BR SCT015
                       SCT120=
201410071221 TAF AMD KCLM 071221Z 0712/0812 VRB03KT 1SM BR SCT002 BKN022
                      TEMPO 0712/0716 1/4SM FG VV001 FM071700 VRB03KT
                       4SM BR SCT005 BKN022
                      TEMPO 0717/0719 BKN005 OVC022 FM071900 30006KT
                       P6SM SCT005 SCT030 FM072100 30006KT P6SM
                       SKC FM080800 VRB03KT 3SM BR SCT015 SCT120=
201410071120 TAF KCLM 071120Z 0712/0812 VRB03KT P6SM VCFG SCT009 OVC022
                      TEMPO 0712/0715 3/4SM BR SCT002 OVC022 FM071900
                       30006KT P6SM SCT005 SCT030 FM072100 30006KT
                       P6SM SKC FM080800 VRB03KT 3SM BR SCT015
                       SCT120=
201410070958 TAF AMD KCLM 070958Z 0710/0806 VRB03KT P6SM VCFG OVC004
                      TEMPO 0711/0715 1/2SM FG VV001 FM071900 30006KT
                       P6SM SCT005 FM072100 30006KT P6SM SKC=
201410070748 TAF AMD KCLM 070748Z 0708/0806 VRB02KT 1/4SM FG VCFG VV001 FM071900
                       30006KT P6SM SCT005 FM072100 30006KT P6SM
                       SKC=
201410070721 TAF AMD KCLM 070721Z 0707/0806 VRB03KT 4SM BR VCFG FEW001 FM071000
                       VRB03KT 1/2SM FG VV001 FM071900 30006KT
                       P6SM SCT005 FM072100 30006KT P6SM SKC=
201410070524 TAF KCLM 070524Z 0706/0806 VRB02KT 3/4SM BR BKN001 OVC025 FM070700
                       00000KT 1/2SM FG VV001 FM071900 30006KT
                       P6SM SCT005 FM072100 30006KT P6SM SKC=
201410070404 TAF AMD KCLM 070404Z 0704/0724 VRB03KT P6SM OVC027 FM070800 00000KT
                       2SM BR OVC003
                      TEMPO 0712/0716 1/2SM FG VV001 FM071900 30006KT
                       P6SM SCT005 FM072100 30006KT P6SM SKC=
201410070211 TAF AMD KCLM 070211Z 0702/0724 VRB03KT P6SM BKN023 OVC035 FM070400
                       30007KT 3SM BR SCT003 OVC015
                      TEMPO 0704/0708 1/4SM FG VV001 FM070800 00000KT
                       1/4SM FG VV001 FM071700 30006KT 3SM BR BKN003
                       FM071900 30006KT P6SM SCT005 FM072100 30006KT
                       P6SM SKC=
201410070143 TAF AMD KCLM 070143Z 0702/0724 VRB03KT P6SM FEW030 FM070400 30007KT
                       3SM BR BKN003
                      TEMPO 0704/0708 1/4SM FG VV001 FM070800 00000KT
                       1/4SM FG VV001 FM071700 30006KT 3SM BR BKN003
                       FM071900 30006KT P6SM SCT005 FM072100 30006KT
                       P6SM SKC=
201410062320 TAF KCLM 062320Z 0700/0724 VRB04KT P6SM BKN012
                      TEMPO 0702/0704 SCT015 FM070400 30007KT 3SM
                       BR BKN003
                      TEMPO 0704/0708 1/4SM FG VV001 FM070800 00000KT
                       1/4SM FG VV001 FM071700 30006KT 3SM BR BKN003
                       FM071900 30006KT P6SM SCT005 FM072100 30006KT
                       P6SM SKC=
201410062259 TAF AMD KCLM 062259Z 0623/0718 36005KT P6SM BKN012
                      TEMPO 0702/0704 SCT015 FM070400 30007KT 4SM
                       BR OVC004
                      TEMPO 0704/0708 1/2SM FG VV002 FM071700 28005KT
                       P6SM BKN007=
201410062133 TAF AMD KCLM 062133Z 0622/0718 36005KT 5SM BR BKN005 FM070400 30007KT
                       4SM BR OVC004
                      TEMPO 0704/0708 1/2SM FG VV002 FM071700 28005KT
                       P6SM BKN007=
201410061733 TAF KCLM 061733Z 0618/0718 VRB04KT P6SM VCFG SCT003
                      TEMPO 0618/0621 3SM BR BKN003 FM070400 28008KT
                       4SM BR OVC004
                      TEMPO 0704/0708 1/2SM FG VV002 FM071700 28005KT
                       P6SM BKN007=
201410061541 TAF AMD KCLM 061541Z 0616/0712 VRB03KT 5SM BR VCFG SCT002
                      TEMPO 0616/0620 2SM BR BKN002 FM062000 27007KT
                       P6SM VCFG SCT005 FM070700 27007KT 5SM BR
                       OVC005=
201410061130 TAF KCLM 061130Z 0612/0712 00000KT P6SM BKN045 FM061800 VRB04KT
                       P6SM SCT045 BKN200
                      TEMPO 0618/0622 BKN045 BKN200 FM070900 23003KT
                       5SM BR OVC007=
201410060530 TAF KCLM 060530Z 0606/0706 27003KT P6SM SCT220=
201410052322 TAF KCLM 052322Z 0600/0624 VRB03KT P6SM SCT200=
201410051732 TAF KCLM 051732Z 0518/0618 VRB03KT P6SM SCT200=
201410051251 TAF AMD KCLM 051251Z 0513/0612 00000KT P6SM VCFG FEW003 SCT035
                       FM051800 VRB03KT P6SM SCT200 AMD NOT SKED=
201410051120 TAF KCLM 051120Z 0512/0612 00000KT P6SM SCT060 BKN100 FM051800
                       00000KT P6SM SCT200=
201410050524 TAF KCLM 050524Z 0506/0606 14003KT P6SM SCT060 BKN100 FM051500
                       00000KT P6SM SCT200=
201410042334 TAF KCLM 042334Z 0500/0524 00000KT P6SM VCSH BKN060 FM050200 00000KT
                       P6SM SCT060 BKN100 FM051500 00000KT P6SM
                       SCT200 AMD NOT SKED=
201410041739 TAF KCLM 041739Z 0418/0518 00000KT P6SM VCSH OVC060 FM050200 00000KT
                       P6SM OVC100 FM051500 00000KT P6SM SCT200=
201410041120 TAF KCLM 041120Z 0412/0512 00000KT P6SM VCSH OVC110 FM050100 01002KT
                       P6SM SCT250 FM050800 24004KT P6SM OVC015=
201410040528 TAF KCLM 040528Z 0406/0506 00000KT P6SM SCT120 OVC200 FM040800
                       04003KT P6SM VCSH OVC100 FM050100 01002KT
                       P6SM SCT250=
201410032330 TAF KCLM 032330Z 0400/0424 VRB03KT P6SM BKN200 FM040900 VRB03KT
                       P6SM BKN100 OVC200=
201410031738 TAF KCLM 031738Z 0318/0418 VRB03KT P6SM BKN200 FM040600 VRB03KT
                       P6SM BKN100 OVC200=
201410031120 TAF KCLM 031120Z 0312/0412 20003KT P6SM OVC050 FM031500 VRB03KT
                       P6SM SCT050 BKN200 FM032200 VRB03KT P6SM
                       SCT060 OVC200 FM040400 VRB03KT P6SM OVC050=
201410030520 TAF KCLM 030520Z 0306/0406 20003KT P6SM OVC050 FM031400 VRB03KT
                       P6SM SCT050 BKN200=
201410022320 TAF KCLM 022320Z 0300/0324 VRB04KT P6SM OVC080 FM030500 VRB03KT
                       P6SM OVC050 FM031400 VRB03KT P6SM SCT050
                       BKN200=
201410021735 TAF KCLM 021735Z 0218/0318 05004KT P6SM BKN100 FM030200 VRB04KT
                       P6SM BKN080 FM031500 VRB03KT P6SM SCT080
                       BKN200=
201410021448 TAF AMD KCLM 021448Z 0215/0312 VRB03KT P6SM SCT050 SCT120 FM021800
                       05004KT P6SM SCT050 BKN150 FM030200 VRB04KT
                       P6SM BKN150=
201410021132 TAF KCLM 021132Z 0212/0312 25007KT P6SM SKC FM021600 VRB04KT P6SM
                       SCT100 SCT250=
201410020531 TAF KCLM 020531Z 0206/0306 26006KT P6SM FEW070 OVC200 FM020700
                       25005KT P6SM SCT050 FM021600 VRB04KT P6SM
                       SCT100 SCT250=
201410012320 TAF KCLM 012320Z 0200/0224 29012KT P6SM BKN050 FM020400 28009KT
                       P6SM SCT050 FM020700 25005KT P6SM SCT050
                       FM021600 VRB04KT P6SM SCT100 SCT250=
201410011732 TAF KCLM 011732Z 0118/0218 29010KT P6SM FEW080 FM020000 28008KT
                       P6SM SCT200 FM020300 25005KT P6SM BKN100=
201410011140 TAF KCLM 011140Z 0112/0212 27008KT P6SM SCT080 BKN200 FM011800
                       31012KT P6SM BKN200 FM020000 28008KT P6SM
                       BKN200 FM020600 25005KT P6SM BKN200=
201410010540 TAF KCLM 010540Z 0106/0206 25006KT P6SM FEW035 FM011200 23004KT
                       P6SM SCT022 SCT200
                      TEMPO 0112/0116 BKN022 BKN200 FM011800 31010KT
                       P6SM FEW030 BKN200 FM020000 28007KT P6SM
                       BKN200=
201410010305 TAF AMD KCLM 010305Z 0103/0124 28006KT P6SM SKC FM011100 21005KT
                       P6SM SCT015
                      TEMPO 0112/0116 BKN015 FM011800 VRB04KT P6SM
                       SCT020 BKN050 BKN200=
201410010131 TAF AMD KCLM 010131Z 0102/0124 32010KT P6SM SKC FM010500 28008KT
                       P6SM SKC FM011100 21005KT P6SM SCT015
                      TEMPO 0112/0116 BKN015 FM011800 VRB04KT P6SM
                       SCT020 BKN050 BKN200=