##########################################################
# Query made at 02/16/2025 02:42:54 UTC
# Time interval: from 06/01/2014 00:00  to 06/30/2014 23:59  UTC
##########################################################

##########################################################
# KCLM, Port Angeles, William R. Fairchild International Airport (United States)
# WMO index: -----. WIGOS ID: Unknown
# Latitude 48-07-20N. Longitude 123-30-19W. Altitude 87 m.
##########################################################

###################################
#  METAR/SPECI from KCLM
###################################
201406302353 METAR KCLM 302353Z AUTO 10005KT 10SM CLR 23/08 A3014 RMK AO2 SLP207 T02280078 10239 20183 58018=
201406302253 METAR KCLM 302253Z AUTO 09006KT 10SM CLR 22/09 A3016 RMK AO2 SLP214 T02220094=
201406302153 METAR KCLM 302153Z AUTO 08006KT 10SM CLR 21/09 A3018 RMK AO2 SLP220 T02110094=
201406302053 METAR KCLM 302053Z AUTO VRB06KT 10SM CLR 21/10 A3020 RMK AO2 SLP226 T02060100 58010=
201406301953 METAR KCLM 301953Z AUTO 08006KT 10SM CLR 21/10 A3021 RMK AO2 SLP232 T02060100=
201406301853 METAR KCLM 301853Z AUTO VRB05KT 10SM CLR 19/11 A3023 RMK AO2 SLP235 T01940111=
201406301753 METAR KCLM 301753Z AUTO VRB05KT 10SM CLR 19/12 A3023 RMK AO2 SLP236 T01940117 10194 20100 58005=
201406301653 METAR KCLM 301653Z AUTO 08006KT 10SM CLR 17/11 A3024 RMK AO2 SLP240 T01720111=
201406301553 METAR KCLM 301553Z AUTO VRB03KT 10SM CLR 16/12 A3024 RMK AO2 SLP242 T01610117=
201406301453 METAR KCLM 301453Z AUTO 01003KT 10SM CLR 14/11 A3024 RMK AO2 SLP241 T01390106 55004 $=
201406301353 METAR KCLM 301353Z AUTO 00000KT 10SM CLR 12/10 A3024 RMK AO2 SLP241 T01220100 $=
201406301253 METAR KCLM 301253Z AUTO 27005KT 10SM CLR 11/09 A3024 RMK AO2 SLP242 T01060089 $=
201406301153 METAR KCLM 301153Z AUTO 26005KT 10SM CLR 10/09 A3025 RMK AO2 SLP245 70001 T01000089 10128 20100 58003 $=
201406301053 METAR KCLM 301053Z AUTO 27005KT 10SM CLR 11/09 A3026 RMK AO2 SLP248 T01060094 $=
201406300953 METAR KCLM 300953Z AUTO 29006KT 10SM CLR 11/10 A3026 RMK AO2 SLP248 T01110100 $=
201406300853 METAR KCLM 300853Z AUTO 28006KT 10SM CLR 11/10 A3026 RMK AO2 SLP248 T01110100 51006 $=
201406300753 METAR KCLM 300753Z AUTO 27006KT 10SM CLR 12/11 A3026 RMK AO2 SLP248 T01170106 401890111 $=
201406300653 METAR KCLM 300653Z AUTO 29008KT 10SM CLR 13/11 A3026 RMK AO2 SLP246 T01280111 $=
201406300553 METAR KCLM 300553Z AUTO 26004KT 10SM CLR 13/11 A3025 RMK AO2 SLP242 T01280111 10189 20128 53003 $=
201406300453 METAR KCLM 300453Z AUTO 28005KT 10SM CLR 13/11 A3025 RMK AO2 SLP242 T01330111 $=
201406300353 METAR KCLM 300353Z AUTO 29007KT 10SM CLR 15/11 A3023 RMK AO2 SLP237 T01500111 $=
201406300253 METAR KCLM 300253Z AUTO 28010KT 10SM OVC080 17/11 A3024 RMK AO2 SLP239 T01720111 53006 $=
201406300153 METAR KCLM 300153Z AUTO 29011KT 10SM OVC080 17/11 A3023 RMK AO2 SLP236 T01720111 $=
201406300053 METAR KCLM 300053Z AUTO 31009KT 10SM OVC080 18/12 A3022 RMK AO2 SLP233 T01780117 $=
201406292353 METAR KCLM 292353Z AUTO 30008KT 10SM BKN070 19/12 A3022 RMK AO2 SLP233 60000 T01890117 10189 20144 51005 $=
201406292253 METAR KCLM 292253Z AUTO VRB06KT 10SM OVC075 17/12 A3022 RMK AO2 SLP232 T01720122 $=
201406292210 SPECI KCLM 292210Z AUTO 36004KT 10SM SCT023 OVC070 17/12 A3021 RMK AO2 T01720117 $=
201406292153 METAR KCLM 292153Z AUTO 36006KT 10SM BKN023 BKN070 OVC090 18/11 A3021 RMK AO2 SLP230 T01780111 $=
201406292126 SPECI KCLM 292126Z AUTO 35005KT 10SM SCT021 OVC070 17/12 A3021 RMK AO2 T01720117 $=
201406292053 METAR KCLM 292053Z AUTO 00000KT 10SM BKN023 BKN065 OVC090 17/11 A3020 RMK AO2 RAE1954 SLP228 P0000 60000 T01720111 51010 $=
201406291953 METAR KCLM 291953Z AUTO 00000KT 10SM -RA BKN024 OVC070 16/11 A3020 RMK AO2 RAB07E16B44 SLP227 P0000 T01610111=
201406291853 METAR KCLM 291853Z AUTO 35006KT 10SM BKN026 OVC090 16/12 A3019 RMK AO2 SLP224 T01610122=
201406291753 METAR KCLM 291753Z AUTO 35006KT 10SM FEW009 BKN080 BKN110 16/12 A3017 RMK AO2 RAB1655E30 SLP217 P0000 60001 T01560122 10167 20117 51014=
201406291744 SPECI KCLM 291744Z AUTO 00000KT 10SM FEW009 SCT045 BKN110 17/13 A3017 RMK AO2 RAB1655E30 P0000 T01670133=
201406291653 METAR KCLM 291653Z AUTO 30003KT 10SM SCT031 BKN050 OVC060 14/12 A3017 RMK AO2 RAB32E47 SLP216 P0000 T01390122=
201406291637 SPECI KCLM 291637Z AUTO 30003KT 9SM -RA SCT014 OVC060 14/12 A3016 RMK AO2 RAB32 P0000 T01390117=
201406291615 SPECI KCLM 291615Z AUTO 33003KT 10SM FEW007 BKN014 OVC065 14/12 A3016 RMK AO2 T01390117=
201406291604 SPECI KCLM 291604Z AUTO 33004KT 10SM BKN008 BKN014 OVC060 13/12 A3016 RMK AO2 CIG 005V009 T01330117=
201406291553 METAR KCLM 291553Z AUTO 31003KT 10SM SCT008 BKN016 OVC060 14/12 A3015 RMK AO2 SLP210 T01390117=
201406291544 SPECI KCLM 291544Z AUTO 33005KT 10SM SCT007 BKN016 OVC060 13/12 A3015 RMK AO2 T01330117=
201406291453 METAR KCLM 291453Z AUTO 00000KT 10SM BKN017 OVC080 14/12 A3013 RMK AO2 RAB1357E14 SLP203 P0001 60001 T01390117 51011=
201406291353 METAR KCLM 291353Z AUTO 00000KT 10SM BKN018 OVC075 13/12 A3012 RMK AO2 RAB16E52 SLP198 P0000 T01280117=
201406291351 SPECI KCLM 291351Z AUTO 00000KT 10SM -RA BKN018 OVC075 13/12 A3012 RMK AO2 RAB16 P0000=
201406291253 METAR KCLM 291253Z AUTO 21003KT 10SM FEW030 BKN039 OVC100 12/11 A3010 RMK AO2 SLP192 T01220106=
201406291153 METAR KCLM 291153Z AUTO 00000KT 10SM SCT040 BKN075 OVC100 12/10 A3008 RMK AO2 SLP185 70001 T01170100 10133 20111 51009=
201406291053 METAR KCLM 291053Z AUTO 00000KT 10SM SCT055 OVC100 12/10 A3007 RMK AO2 SLP182 T01170100=
201406290953 METAR KCLM 290953Z AUTO 20004KT 10SM OVC110 12/10 A3007 RMK AO2 SLP181 T01220100=
201406290853 METAR KCLM 290853Z AUTO 24004KT 10SM FEW100 12/10 A3005 RMK AO2 SLP176 T01220100 53005=
201406290753 METAR KCLM 290753Z AUTO 22004KT 10SM SCT085 12/10 A3005 RMK AO2 SLP174 T01220100 401780111=
201406290653 METAR KCLM 290653Z AUTO VRB03KT 10SM SCT009 SCT075 OVC090 12/11 A3004 RMK AO2 SLP171 T01220106=
201406290650 SPECI KCLM 290650Z AUTO 27003KT 10SM SCT009 OVC085 12/11 A3004 RMK AO2=
201406290609 SPECI KCLM 290609Z AUTO 31004KT 10SM BKN009 OVC080 13/11 A3003 RMK AO2 CIG 007V012 T01280106=
201406290553 METAR KCLM 290553Z AUTO 00000KT 10SM BKN011 OVC080 13/11 A3003 RMK AO2 SLP169 T01330106 10161 20128 51014=
201406290526 SPECI KCLM 290526Z AUTO 28004KT 10SM SCT017 BKN022 OVC075 13/11 A3003 RMK AO2 T01330106=
201406290453 METAR KCLM 290453Z AUTO 32003KT 10SM FEW010 FEW015 OVC070 13/11 A3002 RMK AO2 SLP167 T01280111=
201406290446 SPECI KCLM 290446Z AUTO 00000KT 10SM FEW010 FEW015 OVC075 13/11 A3002 RMK AO2 T01330111=
201406290436 SPECI KCLM 290436Z AUTO 31004KT 10SM FEW009 BKN015 OVC075 13/11 A3002 RMK AO2 T01330106=
201406290429 SPECI KCLM 290429Z AUTO 30005KT 10SM BKN015 OVC070 13/11 A3001 RMK AO2 T01330111=
201406290418 SPECI KCLM 290418Z AUTO VRB04KT 10SM BKN014 OVC070 14/11 A3001 RMK AO2 T01390111=
201406290353 METAR KCLM 290353Z AUTO 00000KT 10SM FEW060 OVC075 14/11 A3000 RMK AO2 SLP160 T01390111=
201406290334 SPECI KCLM 290334Z AUTO 30004KT 10SM SCT018 OVC075 14/11 A3000 RMK AO2 T01440111=
201406290253 METAR KCLM 290253Z AUTO 30004KT 10SM OVC016 15/12 A2999 RMK AO2 SLP155 T01500117 53004=
201406290232 SPECI KCLM 290232Z AUTO VRB04KT 10SM BKN012 BKN070 16/12 A2998 RMK AO2 T01610117=
201406290153 METAR KCLM 290153Z AUTO 28007KT 10SM FEW011 SCT034 BKN070 16/12 A2998 RMK AO2 SLP151 T01560117=
201406290134 SPECI KCLM 290134Z AUTO 29005KT 10SM SCT013 BKN034 BKN065 16/12 A2998 RMK AO2 T01560122=
201406290053 METAR KCLM 290053Z AUTO 30010KT 10SM BKN013 OVC036 15/12 A2998 RMK AO2 SLP152 T01500117=
201406290041 SPECI KCLM 290041Z AUTO 31010KT 10SM SCT016 BKN026 OVC070 16/12 A2998 RMK AO2 T01560117=
201406282353 METAR KCLM 282353Z AUTO 29006KT 10SM FEW023 BKN065 OVC080 16/12 A2998 RMK AO2 RAE00 SLP151 P0000 60001 T01610122 10178 20139 51005=
201406282253 METAR KCLM 282253Z AUTO 30004KT 10SM -RA SCT012 BKN065 OVC090 17/13 A2997 RMK AO2 RAB33 SLP149 P0000 T01670128=
201406282217 SPECI KCLM 282217Z AUTO 28004KT 10SM SCT006 BKN010 OVC080 16/12 A2997 RMK AO2 T01560122=
201406282153 METAR KCLM 282153Z AUTO 30004KT 10SM BKN007 OVC020 15/12 A2998 RMK AO2 RAE2055 CIG 005V010 SLP150 P0000 T01500122=
201406282134 SPECI KCLM 282134Z AUTO 33007KT 10SM SCT006 OVC020 14/12 A2998 RMK AO2 RAE2055 P0000 T01440122=
201406282106 SPECI KCLM 282106Z AUTO 36004KT 10SM BKN020 OVC049 16/12 A2996 RMK AO2 RAE2055 P0000 T01560122=
201406282053 METAR KCLM 282053Z AUTO 35005KT 10SM -RA FEW020 BKN049 OVC060 15/13 A2996 RMK AO2 RAE1955B45 SLP146 P0000 60001 T01500128 51008=
201406282001 SPECI KCLM 282001Z AUTO 33003KT 10SM FEW008 BKN042 OVC070 17/13 A2995 RMK AO2 RAE1955 P0000 T01670133=
201406281953 METAR KCLM 281953Z AUTO 00000KT 10SM -RA SCT010 BKN042 OVC065 16/12 A2995 RMK AO2 RAB08 SLP143 P0001 T01610122=
201406281943 SPECI KCLM 281943Z AUTO VRB03KT 10SM -RA SCT008 BKN014 OVC048 15/13 A2995 RMK AO2 RAB08 P0000 T01500128=
201406281909 SPECI KCLM 281909Z AUTO VRB04KT 10SM -RA FEW007 SCT012 OVC045 16/13 A2995 RMK AO2 RAB08 P0000 T01560128=
201406281901 SPECI KCLM 281901Z AUTO 05003KT 10SM FEW007 BKN012 OVC047 15/12 A2995 RMK AO2 T01500122=
201406281853 METAR KCLM 281853Z AUTO 00000KT 10SM SCT007 BKN040 OVC048 15/12 A2995 RMK AO2 RAE06 SLP141 P0000 T01500122=
201406281831 SPECI KCLM 281831Z AUTO 05003KT 10SM SCT008 BKN038 OVC050 14/12 A2995 RMK AO2 RAE06 P0000 T01440122=
201406281801 SPECI KCLM 281801Z AUTO VRB03KT 10SM -RA BKN009 OVC055 14/12 A2994 RMK AO2 P0000 T01440122=
201406281753 METAR KCLM 281753Z AUTO 00000KT 10SM -RA SCT009 OVC055 15/12 A2994 RMK AO2 RAB52 SLP137 P0000 60000 T01500122 10161 20111 53008=
201406281746 SPECI KCLM 281746Z AUTO 00000KT 10SM FEW009 FEW029 OVC055 15/12 A2994 RMK AO2 T01500122=
201406281653 METAR KCLM 281653Z AUTO 03003KT 10SM OVC060 15/12 A2993 RMK AO2 SLP134 T01500122=
201406281553 METAR KCLM 281553Z AUTO 13005KT 10SM FEW008 16/13 A2992 RMK AO2 SLP131 T01610128=
201406281453 METAR KCLM 281453Z AUTO 00000KT 10SM SCT003 OVC065 14/13 A2991 RMK AO2 SLP129 T01390128 53012 $=
201406281443 SPECI KCLM 281443Z AUTO 00000KT 10SM SCT002 OVC070 13/12 A2991 RMK AO2 T01330122 $=
201406281414 SPECI KCLM 281414Z AUTO 33004KT 10SM BKN002 BKN065 BKN080 13/12 A2991 RMK AO2 T01280122 $=
201406281403 SPECI KCLM 281403Z AUTO 31004KT 10SM SCT002 BKN065 OVC080 13/12 A2991 RMK AO2 T01330122 $=
201406281353 METAR KCLM 281353Z AUTO 33004KT 10SM BKN065 OVC080 13/12 A2990 RMK AO2 SLP126 T01330122 $=
201406281317 SPECI KCLM 281317Z AUTO 00000KT 3SM BR SCT001 BKN065 OVC080 12/11 A2989 RMK AO2 T01170106 $=
201406281315 SPECI KCLM 281315Z AUTO 00000KT 1 3/4SM BR SCT001 OVC075 12/11 A2989 RMK AO2 VIS 1/2V5 T01170106 $=
201406281304 SPECI KCLM 281304Z AUTO 00000KT 1/2SM FG VV001 12/11 A2988 RMK AO2 T01170111 $=
201406281253 METAR KCLM 281253Z AUTO 21003KT 1/4SM FG VV001 12/11 A2988 RMK AO2 SLP119 T01170111 $=
201406281233 SPECI KCLM 281233Z AUTO 13005KT 1/4SM FG VV001 12/11 A2988 RMK AO2 T01170111 $=
201406281226 SPECI KCLM 281226Z AUTO 15005KT 1/2SM FG VV001 11/11 A2988 RMK AO2 T01110106 $=
201406281223 SPECI KCLM 281223Z AUTO 14004KT 1 1/4SM BR FEW002 11/11 A2988 RMK AO2 T01110106 $=
201406281200 SPECI KCLM 281200Z AUTO 13003KT 4SM BR FEW004 12/11 A2988 RMK AO2 T01170106 $=
201406281153 METAR KCLM 281153Z AUTO 00000KT 1 3/4SM BR FEW004 FEW023 12/11 A2988 RMK AO2 RAE32 SLP117 P0001 60004 70007 T01170106 10139 20117 50001 $=
201406281151 SPECI KCLM 281151Z AUTO 00000KT 1 3/4SM BR FEW026 12/11 A2988 RMK AO2 RAE32 P0001 $=
201406281053 METAR KCLM 281053Z AUTO 00000KT 6SM -RA BR FEW020 BKN048 OVC060 13/12 A2988 RMK AO2 RAB22 SLP118 P0002 T01330117 $=
201406281049 SPECI KCLM 281049Z AUTO 00000KT 5SM -RA BR SCT020 BKN048 OVC060 13/12 A2988 RMK AO2 RAB22 P0002 $=
201406280953 METAR KCLM 280953Z AUTO 00000KT 10SM OVC018 13/12 A2987 RMK AO2 SLP116 T01330122 $=
201406280853 METAR KCLM 280853Z AUTO 12005KT 10SM OVC016 13/12 A2987 RMK AO2 RAB0757E09 SLP114 P0001 60001 T01330117 53003 $=
201406280753 METAR KCLM 280753Z AUTO 17003KT 10SM BKN019 OVC028 14/12 A2987 RMK AO2 RAB18E29 SLP113 P0000 T01390117 401780111 $=
201406280653 METAR KCLM 280653Z AUTO 00000KT 10SM BKN020 OVC065 13/11 A2986 RMK AO2 RAB09E41 SLP110 P0000 T01330111 $=
201406280649 SPECI KCLM 280649Z AUTO 00000KT 10SM BKN020 OVC065 13/11 A2986 RMK AO2 RAB09E41 P0000 $=
201406280553 METAR KCLM 280553Z AUTO 00000KT 10SM FEW017 OVC065 14/11 A2985 RMK AO2 SLP108 60001 T01390111 10161 20133 51007 $=
201406280546 SPECI KCLM 280546Z AUTO 12003KT 10SM SCT017 BKN065 OVC090 14/11 A2985 RMK AO2 T01390111 $=
201406280524 SPECI KCLM 280524Z AUTO 00000KT 10SM BKN017 OVC110 13/12 A2985 RMK AO2 T01330117 $=
201406280453 METAR KCLM 280453Z AUTO 00000KT 10SM FEW024 BKN065 OVC110 14/11 A2985 RMK AO2 RAB22E36 SLP106 P0001 T01390111 $=
201406280449 SPECI KCLM 280449Z AUTO 00000KT 10SM FEW024 BKN065 OVC100 14/11 A2985 RMK AO2 RAB22E36 P0001 $=
201406280414 SPECI KCLM 280414Z AUTO 33003KT 10SM BKN025 BKN030 OVC110 14/11 A2984 RMK AO2 T01440111 $=
201406280353 METAR KCLM 280353Z AUTO 00000KT 10SM SCT026 BKN039 OVC110 14/11 A2983 RMK AO2 SLP101 T01440111 $=
201406280253 METAR KCLM 280253Z AUTO 00000KT 10SM BKN075 OVC110 16/12 A2982 RMK AO2 SLP098 T01560122 51009 $=
201406280153 METAR KCLM 280153Z AUTO 35003KT 10SM FEW011 OVC060 16/12 A2981 RMK AO2 SLP095 T01560117 $=
201406280129 SPECI KCLM 280129Z AUTO VRB03KT 10SM SCT011 OVC065 16/12 A2981 RMK AO2 T01560122 $=
201406280053 METAR KCLM 280053Z AUTO 27005KT 10SM BKN011 BKN060 OVC110 15/12 A2981 RMK AO2 SLP093 T01500117=
201406280007 SPECI KCLM 280007Z AUTO 31011KT 10SM SCT009 SCT060 15/12 A2979 RMK AO2 T01500122=
201406272353 METAR KCLM 272353Z AUTO 31011KT 10SM FEW010 FEW065 16/12 A2980 RMK AO2 SLP089 60000 T01610122 10178 20144 51002=
201406272348 SPECI KCLM 272348Z AUTO 31013KT 10SM SCT010 16/12 A2979 RMK AO2=
201406272326 SPECI KCLM 272326Z AUTO 31012KT 10SM OVC010 16/12 A2979 RMK AO2 CIG 007V014 T01610122=
201406272253 METAR KCLM 272253Z AUTO 31006KT 10SM OVC006 16/13 A2980 RMK AO2 CIG 004V010 SLP090 T01560128=
201406272233 SPECI KCLM 272233Z AUTO 32009KT 10SM OVC008 14/12 A2980 RMK AO2 CIG 005V012 T01440122=
201406272203 SPECI KCLM 272203Z AUTO 30007KT 10SM OVC010 15/12 A2979 RMK AO2 CIG 006V012 T01500122=
201406272153 METAR KCLM 272153Z AUTO 31009G14KT 10SM OVC009 14/12 A2979 RMK AO2 RAB41E50 CIG 006V012 SLP087 P0000 T01440122=
201406272151 SPECI KCLM 272151Z AUTO 30008G14KT 10SM OVC009 14/13 A2979 RMK AO2 RAB41E50 CIG 006V013 P0000=
201406272053 METAR KCLM 272053Z AUTO VRB04KT 10SM BKN011 OVC041 17/13 A2976 RMK AO2 RAE1956 SLP078 P0000 60000 T01670133 51016=
201406272039 SPECI KCLM 272039Z AUTO 28006KT 10SM SCT009 BKN017 OVC043 17/13 A2976 RMK AO2 RAE1956 P0000 T01670133=
201406271953 METAR KCLM 271953Z AUTO 33006KT 10SM -RA FEW021 BKN070 OVC090 16/12 A2974 RMK AO2 RAB46 SLP071 P0000 T01610122=
201406271853 METAR KCLM 271853Z AUTO 29006KT 10SM FEW044 BKN075 17/11 A2971 RMK AO2 SLP062 T01670111=
201406271753 METAR KCLM 271753Z AUTO 10SM FEW012 BKN065 17/12 A2970 RMK AO2 SLP055 60002 T01670117 10167 20111 53004 $=
201406271653 METAR KCLM 271653Z AUTO 10SM BKN070 OVC085 16/11 A2969 RMK AO2 SLP053 T01560111 $=
201406271553 METAR KCLM 271553Z AUTO 27003KT 10SM FEW010 BKN065 OVC080 14/11 A2969 RMK AO2 SLP053 T01440111=
201406271514 SPECI KCLM 271514Z AUTO 00000KT 10SM SCT007 BKN070 BKN080 13/11 A2969 RMK AO2 T01330111=
201406271501 SPECI KCLM 271501Z AUTO 00000KT 10SM BKN007 BKN080 OVC110 14/11 A2968 RMK AO2 T01390111=
201406271453 METAR KCLM 271453Z AUTO 00000KT 10SM SCT006 BKN080 OVC110 14/12 A2968 RMK AO2 SLP051 60002 T01390117 56009=
201406271419 SPECI KCLM 271419Z AUTO 00000KT 10SM SCT003 OVC080 13/11 A2969 RMK AO2 T01280106=
201406271353 METAR KCLM 271353Z AUTO 00000KT 10SM BKN004 BKN090 OVC120 12/10 A2969 RMK AO2 RAB1258E12 SLP053 P0000 T01170100=
201406271334 SPECI KCLM 271334Z AUTO 00000KT 9SM FEW003 OVC100 12/10 A2969 RMK AO2 RAB1258E12 P0000 T01170100=
201406271253 METAR KCLM 271253Z AUTO 00000KT 10SM OVC090 11/10 A2970 RMK AO2 RAE28 SLP058 P0002 T01110100=
201406271153 METAR KCLM 271153Z AUTO 15004KT 10SM -RA FEW055 OVC085 12/11 A2971 RMK AO2 RAE1059B31 SLP061 P0001 60005 70005 T01220106 10139 20122 58014=
201406271053 METAR KCLM 271053Z AUTO 00000KT 10SM -RA SCT080 OVC100 13/11 A2973 RMK AO2 RAB50 SLP066 P0000 T01280106=
201406270953 METAR KCLM 270953Z AUTO 12005KT 10SM BKN075 OVC090 13/11 A2974 RMK AO2 RAE03B37E50 SLP071 P0000 T01280106=
201406270853 METAR KCLM 270853Z AUTO 00000KT 10SM -RA OVC080 12/11 A2975 RMK AO2 SLP075 P0004 60004 T01220106 58012=
201406270753 METAR KCLM 270753Z AUTO 13006KT 10SM -RA BKN075 OVC100 13/09 A2977 RMK AO2 RAB42 SLP080 P0000 T01280094 401890089=
201406270653 METAR KCLM 270653Z AUTO 00000KT 10SM BKN110 13/08 A2977 RMK AO2 SLP082 T01280083=
201406270610 SPECI KCLM 270610Z AUTO 00000KT 10SM SCT027 BKN100 13/08 A2978 RMK AO2 T01330083=
201406270553 METAR KCLM 270553Z AUTO 00000KT 10SM BKN025 OVC100 14/08 A2979 RMK AO2 SLP087 T01390083 10178 20139 50001=
201406270453 METAR KCLM 270453Z AUTO 28004KT 10SM OVC026 14/08 A2979 RMK AO2 SLP088 T01390078=
201406270353 METAR KCLM 270353Z AUTO 29005KT 10SM OVC029 14/08 A2978 RMK AO2 SLP086 T01390083=
201406270253 METAR KCLM 270253Z AUTO 29011G15KT 10SM OVC027 15/09 A2979 RMK AO2 SLP086 T01500089 50000=
201406270236 SPECI KCLM 270236Z AUTO 30007G17KT 10SM BKN027 15/09 A2979 RMK AO2 T01500089=
201406270153 METAR KCLM 270153Z AUTO 29011KT 10SM SCT025 OVC060 16/10 A2979 RMK AO2 SLP088 T01610100=
201406270141 SPECI KCLM 270141Z AUTO 29011G17KT 10SM BKN024 BKN065 17/10 A2979 RMK AO2 T01670100=
201406270053 METAR KCLM 270053Z AUTO 30013G20KT 10SM SCT075 BKN090 17/11 A2978 RMK AO2 SLP085 T01670106=
201406262353 METAR KCLM 262353Z AUTO 30012G17KT 10SM FEW015 BKN075 BKN090 18/12 A2979 RMK AO2 SLP086 T01780117 10189 20150 56005=
201406262253 METAR KCLM 262253Z AUTO 32012G19KT 10SM FEW017 SCT080 17/12 A2979 RMK AO2 SLP088 T01720117=
201406262153 METAR KCLM 262153Z AUTO 33009G18KT 10SM CLR 18/12 A2979 RMK AO2 SLP088 T01830117=
201406262053 METAR KCLM 262053Z AUTO 32010G16KT 280V340 10SM CLR 18/12 A2980 RMK AO2 SLP092 T01780122 56000=
201406261953 METAR KCLM 261953Z AUTO 31010KT 10SM CLR 17/12 A2980 RMK AO2 SLP092 T01670117=
201406261853 METAR KCLM 261853Z AUTO 33007KT 10SM CLR 16/12 A2980 RMK AO2 SLP091 T01610117=
201406261753 METAR KCLM 261753Z AUTO 31006KT 10SM SCT095 15/11 A2980 RMK AO2 SLP092 T01500111 10156 20089 55001=
201406261702 SPECI KCLM 261702Z AUTO 35003KT 10SM SCT006 14/11 A2980 RMK AO2 T01440111=
201406261653 METAR KCLM 261653Z AUTO 29006KT 10SM BKN006 14/11 A2980 RMK AO2 SLP091 T01440111=
201406261622 SPECI KCLM 261622Z AUTO 31007KT 10SM BKN005 14/11 A2980 RMK AO2 T01390106=
201406261553 METAR KCLM 261553Z AUTO 34005KT 10SM OVC004 13/11 A2980 RMK AO2 SLP092 T01280106=
201406261453 METAR KCLM 261453Z AUTO 29004KT 6SM BR OVC002 11/11 A2981 RMK AO2 SLP093 T01110106 53008=
201406261448 SPECI KCLM 261448Z AUTO 29005KT 3SM BR OVC001 11/11 A2980 RMK AO2=
201406261436 SPECI KCLM 261436Z AUTO 28005KT 1 1/4SM BR OVC001 11/10 A2980 RMK AO2 T01060100=
201406261416 SPECI KCLM 261416Z AUTO VRB03KT 1 3/4SM BR OVC002 11/10 A2980 RMK AO2 T01060100=
201406261353 METAR KCLM 261353Z AUTO 29005KT 8SM OVC002 10/09 A2979 RMK AO2 SLP087 T01000094=
201406261339 SPECI KCLM 261339Z AUTO 29005KT 1 1/4SM BR OVC002 10/09 A2979 RMK AO2 T01000089=
201406261319 SPECI KCLM 261319Z AUTO 30004KT 1/4SM FG VV002 09/09 A2978 RMK AO2 T00940089=
201406261253 METAR KCLM 261253Z AUTO 00000KT 1/4SM FG VV001 09/08 A2978 RMK AO2 SLP084 T00940083=
201406261226 SPECI KCLM 261226Z AUTO 00000KT 1/4SM FG VV001 09/08 A2978 RMK AO2 T00890078=
201406261216 SPECI KCLM 261216Z AUTO 00000KT 3/4SM BR VV001 09/08 A2978 RMK AO2 T00890078=
201406261213 SPECI KCLM 261213Z AUTO 00000KT 1 1/2SM BR FEW001 09/08 A2978 RMK AO2 VIS 1/2V5 T00890083=
201406261153 METAR KCLM 261153Z AUTO 00000KT 10SM CLR 09/08 A2978 RMK AO2 SLP085 T00940083 10133 20089 58003=
201406261109 SPECI KCLM 261109Z AUTO 30003KT 10SM FEW001 BKN090 10/09 A2979 RMK AO2 T01000089=
201406261053 METAR KCLM 261053Z AUTO 30003KT 10SM BKN001 OVC090 10/09 A2979 RMK AO2 SLP088 T01000089=
201406261033 SPECI KCLM 261033Z AUTO 00000KT 10SM BKN001 OVC085 10/09 A2979 RMK AO2 T01000089=
201406261024 SPECI KCLM 261024Z AUTO 00000KT 10SM SCT001 OVC085 10/09 A2979 RMK AO2 T01000089=
201406260953 METAR KCLM 260953Z AUTO 30003KT 10SM OVC075 10/09 A2979 RMK AO2 SLP088 T01000094=
201406260853 METAR KCLM 260853Z AUTO 00000KT 10SM BKN075 10/09 A2979 RMK AO2 SLP088 T01000094 58004=
201406260753 METAR KCLM 260753Z AUTO 00000KT 10SM FEW075 12/10 A2980 RMK AO2 SLP090 T01170100 402330111=
201406260653 METAR KCLM 260653Z AUTO 24004KT 10SM CLR 13/11 A2981 RMK AO2 SLP093 T01280111=
201406260553 METAR KCLM 260553Z AUTO 29005KT 10SM CLR 12/11 A2980 RMK AO2 SLP092 T01220106 10222 20122 56004=
201406260453 METAR KCLM 260453Z AUTO 29005KT 10SM CLR 13/11 A2980 RMK AO2 SLP092 T01280106=
201406260353 METAR KCLM 260353Z AUTO 29005KT 10SM SCT070 14/12 A2981 RMK AO2 SLP093 T01440117=
201406260253 METAR KCLM 260253Z AUTO 33004KT 10SM BKN065 16/12 A2981 RMK AO2 SLP095 T01610117 56017=
201406260153 METAR KCLM 260153Z AUTO 32007KT 10SM CLR 17/12 A2982 RMK AO2 SLP099 T01720117=
201406260053 METAR KCLM 260053Z AUTO 33003KT 10SM CLR 21/13 A2984 RMK AO2 SLP106 T02060128=
201406252353 METAR KCLM 252353Z AUTO 01003KT 10SM CLR 21/12 A2986 RMK AO2 SLP112 T02060122 10233 20161 58023=
201406252253 METAR KCLM 252253Z AUTO VRB03KT 10SM CLR 22/12 A2989 RMK AO2 SLP120 T02220122=
201406252153 METAR KCLM 252153Z AUTO 02005KT 10SM CLR 21/12 A2991 RMK AO2 SLP128 T02110122=
201406252053 METAR KCLM 252053Z AUTO 08007KT 10SM CLR 21/13 A2993 RMK AO2 SLP134 T02110128 56017=
201406251953 METAR KCLM 251953Z AUTO 10SM CLR 20/13 A2995 RMK AO2 SLP141 T02000133 $=
201406251936 SPECI KCLM 251936Z AUTO 10SM FEW019 19/13 A2995 RMK AO2 T01940133 $=
201406251853 METAR KCLM 251853Z AUTO 10SM BKN021 20/14 A2996 RMK AO2 SLP145 T02000139 $=
201406251813 SPECI KCLM 251813Z AUTO 05003KT 10SM SCT004 OVC021 17/13 A2998 RMK AO2 T01670133=
201406251753 METAR KCLM 251753Z AUTO 09004KT 10SM OVC004 16/13 A2998 RMK AO2 SLP152 T01610133 10167 20122 58009=
201406251653 METAR KCLM 251653Z AUTO 00000KT 10SM OVC004 16/13 A2999 RMK AO2 SLP157 T01560128=
201406251553 METAR KCLM 251553Z AUTO 01003KT 10SM OVC008 13/12 A3000 RMK AO2 SLP159 T01280117=
201406251453 METAR KCLM 251453Z AUTO 00000KT 10SM FEW002 OVC012 14/13 A3001 RMK AO2 SLP162 T01390128 58002=
201406251451 SPECI KCLM 251451Z AUTO 00000KT 10SM SCT002 OVC012 13/13 A3001 RMK AO2=
201406251443 SPECI KCLM 251443Z AUTO 00000KT 4SM BR BKN003 OVC012 13/13 A3001 RMK AO2 T01330128=
201406251439 SPECI KCLM 251439Z AUTO 00000KT 1SM BR BKN003 OVC012 13/13 A3001 RMK AO2 T01330128=
201406251353 METAR KCLM 251353Z AUTO 00000KT 1/4SM FG VV002 12/12 A3002 RMK AO2 SLP164 T01220117=
201406251323 SPECI KCLM 251323Z AUTO 31004KT 1/4SM FG VV002 12/12 A3002 RMK AO2 T01220117=
201406251304 SPECI KCLM 251304Z AUTO 31004KT 1/2SM FG VV002 12/12 A3002 RMK AO2 T01220117=
201406251253 METAR KCLM 251253Z AUTO 29003KT 1/4SM FG VV002 12/12 A3002 RMK AO2 SLP164 T01220117=
201406251225 SPECI KCLM 251225Z AUTO 30003KT 1/4SM FG VV002 12/12 A3002 RMK AO2 T01220117=
201406251204 SPECI KCLM 251204Z AUTO 29005KT 1/2SM FG VV002 12/12 A3003 RMK AO2 T01220117=
201406251153 METAR KCLM 251153Z AUTO 30005KT 1/4SM FG VV002 12/12 A3003 RMK AO2 SLP168 T01220117 10150 20122 56004=
201406251125 SPECI KCLM 251125Z AUTO 30005KT 1/4SM FG VV002 12/12 A3003 RMK AO2 T01220117=
201406251053 METAR KCLM 251053Z AUTO 34004KT 3/4SM BR VV002 13/12 A3003 RMK AO2 SLP168 T01280122=
201406251036 SPECI KCLM 251036Z AUTO 31005KT 3/4SM BR VV002 13/12 A3003 RMK AO2 T01280117=
201406250953 METAR KCLM 250953Z AUTO 31005KT 1 1/4SM BR OVC002 13/12 A3003 RMK AO2 SLP168 T01280122=
201406250941 SPECI KCLM 250941Z AUTO 31004KT 1 3/4SM BR OVC002 13/12 A3003 RMK AO2 T01330122=
201406250931 SPECI KCLM 250931Z AUTO 31004KT 2SM BR OVC002 13/12 A3003 RMK AO2 T01330122=
201406250853 METAR KCLM 250853Z AUTO 31004KT 10SM OVC003 14/13 A3004 RMK AO2 SLP172 T01390128 56010=
201406250753 METAR KCLM 250753Z AUTO 30007KT 10SM OVC004 14/13 A3005 RMK AO2 SLP175 T01390128 402110139=
201406250653 METAR KCLM 250653Z AUTO 28006KT 10SM OVC008 14/13 A3006 RMK AO2 SLP179 T01440128=
201406250553 METAR KCLM 250553Z AUTO 29007KT 10SM BKN007 15/13 A3007 RMK AO2 SLP182 T01500133 10189 20144 58001=
201406250549 SPECI KCLM 250549Z AUTO 29007KT 10SM BKN007 15/13 A3007 RMK AO2=
201406250538 SPECI KCLM 250538Z AUTO 28008KT 10SM SCT007 15/13 A3007 RMK AO2 T01500133=
201406250453 METAR KCLM 250453Z AUTO 29007KT 10SM SCT065 15/13 A3007 RMK AO2 SLP183 T01500133=
201406250353 METAR KCLM 250353Z AUTO 27003KT 10SM OVC060 17/13 A3007 RMK AO2 SLP184 T01720133=
201406250253 METAR KCLM 250253Z AUTO 29004KT 10SM OVC060 17/13 A3008 RMK AO2 SLP185 T01670133 56004=
201406250153 METAR KCLM 250153Z AUTO 31008KT 10SM BKN075 BKN090 17/13 A3008 RMK AO2 SLP184 T01670133=
201406250053 METAR KCLM 250053Z AUTO VRB05KT 10SM BKN065 OVC080 18/13 A3008 RMK AO2 SLP185 T01830128=
201406242353 METAR KCLM 242353Z AUTO 33005KT 10SM OVC060 18/12 A3009 RMK AO2 SLP189 T01780122 10211 20172 58006=
201406242253 METAR KCLM 242253Z AUTO 34005KT 10SM OVC060 20/12 A3010 RMK AO2 SLP192 T02000122=
201406242153 METAR KCLM 242153Z AUTO VRB05KT 10SM OVC070 21/12 A3010 RMK AO2 SLP194 T02060122 $=
201406242053 METAR KCLM 242053Z AUTO 02005KT 10SM CLR 19/13 A3011 RMK AO2 SLP195 T01940128 51002 $=
201406241953 METAR KCLM 241953Z AUTO 04005KT 10SM CLR 19/13 A3011 RMK AO2 SLP195 T01940128 $=
201406241853 METAR KCLM 241853Z AUTO 06004KT 10SM BKN065 19/13 A3011 RMK AO2 SLP195 T01890128 $=
201406241814 SPECI KCLM 241814Z AUTO 34005KT 10SM SCT016 OVC060 18/13 A3010 RMK AO2 T01780133 $=
201406241753 METAR KCLM 241753Z AUTO 04005KT 10SM OVC016 18/13 A3010 RMK AO2 SLP193 T01780128 10178 20139 51004 $=
201406241653 METAR KCLM 241653Z AUTO 35003KT 10SM OVC015 17/13 A3010 RMK AO2 SLP192 T01670128=
201406241646 SPECI KCLM 241646Z AUTO 35003KT 10SM OVC015 17/13 A3010 RMK AO2 T01670128=
201406241553 METAR KCLM 241553Z AUTO 35003KT 10SM OVC013 16/13 A3010 RMK AO2 SLP191 T01560128=
201406241524 SPECI KCLM 241524Z AUTO 35003KT 10SM OVC014 16/13 A3010 RMK AO2 T01560128=
201406241453 METAR KCLM 241453Z AUTO 00000KT 10SM OVC015 16/13 A3009 RMK AO2 SLP189 T01610128 51003=
201406241353 METAR KCLM 241353Z AUTO 00000KT 10SM OVC015 15/13 A3009 RMK AO2 SLP189 T01500133=
201406241253 METAR KCLM 241253Z AUTO 23003KT 10SM BKN017 OVC055 14/13 A3008 RMK AO2 SLP186 T01390128=
201406241211 SPECI KCLM 241211Z AUTO 00000KT 10SM BKN017 OVC050 14/13 A3008 RMK AO2 T01390128=
201406241153 METAR KCLM 241153Z AUTO 22003KT 10SM FEW018 OVC050 14/13 A3008 RMK AO2 SLP186 70006 T01390128 10139 20133 57001=
201406241100 SPECI KCLM 241100Z AUTO 22003KT 10SM SCT014 OVC055 14/13 A3008 RMK AO2 T01390128=
201406241053 METAR KCLM 241053Z AUTO 21004KT 10SM BKN014 OVC055 14/13 A3008 RMK AO2 SLP186 T01390128=
201406241012 SPECI KCLM 241012Z AUTO 27004KT 10SM BKN013 OVC060 14/13 A3008 RMK AO2 T01390128=
201406240953 METAR KCLM 240953Z AUTO 28004KT 10SM BKN060 OVC075 14/13 A3008 RMK AO2 SLP186 T01390128=
201406240853 METAR KCLM 240853Z AUTO 25005KT 10SM OVC065 14/13 A3008 RMK AO2 SLP186 T01390128 55000=
201406240753 METAR KCLM 240753Z AUTO 25005KT 10SM FEW065 OVC090 13/12 A3008 RMK AO2 SLP186 T01330122 401670111=
201406240653 METAR KCLM 240653Z AUTO 00000KT 10SM FEW070 OVC110 14/12 A3008 RMK AO2 SLP185 T01390122=
201406240553 METAR KCLM 240553Z AUTO 23004KT 10SM BKN090 OVC100 14/13 A3008 RMK AO2 SLP187 60006 T01390128 10156 20139 51005=
201406240453 METAR KCLM 240453Z AUTO 30003KT 10SM FEW055 OVC080 14/13 A3008 RMK AO2 RAE34 SLP186 P0001 T01440128=
201406240353 METAR KCLM 240353Z AUTO 26003KT 10SM -RA SCT060 OVC075 14/13 A3008 RMK AO2 SLP184 P0003 T01440128=
201406240253 METAR KCLM 240253Z AUTO 27006KT 10SM -RA OVC090 14/13 A3007 RMK AO2 SLP181 P0002 60002 T01440128 53004=
201406240203 SPECI KCLM 240203Z AUTO 28006KT 10SM -RA FEW008 SCT011 OVC090 14/13 A3006 RMK AO2 P0000 T01440128=
201406240153 METAR KCLM 240153Z AUTO 28006KT 10SM -RA SCT011 SCT070 OVC090 14/13 A3006 RMK AO2 RAB31 SLP180 P0000 T01440128=
201406240139 SPECI KCLM 240139Z AUTO 29007KT 10SM -RA FEW009 BKN090 OVC110 14/12 A3006 RMK AO2 RAB31 P0000 T01440122=
201406240053 METAR KCLM 240053Z AUTO 27009KT 10SM FEW013 OVC100 15/12 A3006 RMK AO2 SLP177 T01500122=
201406232353 METAR KCLM 232353Z AUTO 28012KT 10SM OVC090 16/12 A3005 RMK AO2 SLP177 T01560117 10167 20133 51004=
201406232253 METAR KCLM 232253Z AUTO 28011KT 10SM SCT100 16/12 A3005 RMK AO2 SLP175 T01610117=
201406232153 METAR KCLM 232153Z AUTO 28009KT 10SM BKN110 17/12 A3005 RMK AO2 SLP174 T01670117=
201406232053 METAR KCLM 232053Z AUTO 31006KT 10SM SCT110 16/12 A3004 RMK AO2 SLP173 T01610117 52004=
201406231953 METAR KCLM 231953Z AUTO 30006KT 10SM BKN110 16/12 A3004 RMK AO2 SLP171 T01560117 $=
201406231853 METAR KCLM 231853Z AUTO 30005KT 10SM OVC110 13/11 A3004 RMK AO2 SLP171 T01330106 $=
201406231753 METAR KCLM 231753Z AUTO 32005KT 10SM FEW110 14/11 A3003 RMK AO2 SLP169 T01390106 10156 20111 53006 $=
201406231653 METAR KCLM 231653Z AUTO 36003KT 10SM CLR 14/11 A3002 RMK AO2 SLP166 T01440106 $=
201406231553 METAR KCLM 231553Z AUTO 30003KT 10SM BKN100 14/11 A3002 RMK AO2 SLP166 T01390106 $=
201406231453 METAR KCLM 231453Z AUTO 29003KT 10SM CLR 13/09 A3001 RMK AO2 SLP163 T01280094 53005 $=
201406231353 METAR KCLM 231353Z AUTO 31004KT 10SM CLR 12/09 A3001 RMK AO2 SLP161 T01170089 $=
201406231253 METAR KCLM 231253Z AUTO 29004KT 10SM CLR 12/08 A3000 RMK AO2 SLP158 T01170083 $=
201406231153 METAR KCLM 231153Z AUTO 29005KT 10SM CLR 12/07 A3000 RMK AO2 SLP158 T01170072 10139 20117 57003 $=
201406231053 METAR KCLM 231053Z AUTO 29007KT 10SM CLR 12/07 A3000 RMK AO2 SLP160 T01220072 $=
201406230953 METAR KCLM 230953Z AUTO 29008KT 10SM SCT110 12/07 A3000 RMK AO2 SLP160 T01220067 $=
201406230853 METAR KCLM 230853Z AUTO 30006KT 10SM FEW110 12/06 A3001 RMK AO2 SLP162 T01220061 58006 $=
201406230753 METAR KCLM 230753Z AUTO 30007KT 10SM OVC110 14/06 A3002 RMK AO2 SLP164 T01390061 402060094 $=
201406230653 METAR KCLM 230653Z AUTO 28005KT 10SM BKN110 13/08 A3002 RMK AO2 SLP166 T01330078 $=
201406230553 METAR KCLM 230553Z AUTO 30006KT 10SM CLR 13/06 A3003 RMK AO2 SLP167 T01280061 10194 20128 56002 $=
201406230453 METAR KCLM 230453Z AUTO 29008KT 10SM CLR 14/05 A3003 RMK AO2 SLP168 T01440050 $=
201406230353 METAR KCLM 230353Z AUTO 29008KT 10SM CLR 16/06 A3002 RMK AO2 SLP167 T01560061 $=
201406230253 METAR KCLM 230253Z AUTO 31006KT 10SM CLR 17/07 A3003 RMK AO2 SLP169 T01720067 56011 $=
201406230153 METAR KCLM 230153Z AUTO 31007KT 10SM CLR 18/08 A3004 RMK AO2 SLP171 T01780078 $=
201406230053 METAR KCLM 230053Z AUTO 29006KT 10SM CLR 18/07 A3005 RMK AO2 SLP176 T01830072 $=
201406222353 METAR KCLM 222353Z AUTO 31007KT 10SM OVC110 18/07 A3006 RMK AO2 SLP181 T01830067 10206 20144 58013 $=
201406222253 METAR KCLM 222253Z AUTO 30010KT 10SM FEW120 19/07 A3008 RMK AO2 SLP187 T01890072 $=
201406222153 METAR KCLM 222153Z AUTO 34007KT 10SM FEW120 20/07 A3009 RMK AO2 SLP190 T02000072 $=
201406222053 METAR KCLM 222053Z AUTO VRB05KT 10SM CLR 19/07 A3010 RMK AO2 SLP194 T01940072 58005 $=
201406221953 METAR KCLM 221953Z AUTO VRB04KT 10SM FEW100 18/09 A3011 RMK AO2 SLP197 T01830089 $=
201406221853 METAR KCLM 221853Z AUTO 35007KT 10SM CLR 17/09 A3012 RMK AO2 SLP198 T01670094 $=
201406221753 METAR KCLM 221753Z AUTO 33005KT 10SM FEW090 16/09 A3012 RMK AO2 SLP200 T01560094 10167 20094 51002 $=
201406221653 METAR KCLM 221653Z AUTO 36004KT 10SM BKN120 16/09 A3012 RMK AO2 SLP198 T01560094 $=
201406221553 METAR KCLM 221553Z AUTO 32006KT 10SM OVC120 17/07 A3012 RMK AO2 SLP199 T01670072 $=
201406221453 METAR KCLM 221453Z AUTO 29004KT 10SM CLR 14/08 A3011 RMK AO2 SLP197 T01440078 53009 $=
201406221353 METAR KCLM 221353Z AUTO 31005KT 10SM CLR 14/08 A3010 RMK AO2 SLP193 T01390083 $=
201406221253 METAR KCLM 221253Z AUTO 29005KT 10SM CLR 10/07 A3010 RMK AO2 SLP191 T01000072 $=
201406221153 METAR KCLM 221153Z AUTO 25005KT 10SM CLR 10/07 A3009 RMK AO2 SLP188 T01000067 10111 20094 53003 $=
201406221053 METAR KCLM 221053Z AUTO 27004KT 10SM CLR 11/07 A3008 RMK AO2 SLP185 T01060072 $=
201406220953 METAR KCLM 220953Z AUTO 27006KT 10SM CLR 11/07 A3008 RMK AO2 SLP186 T01110072 $=
201406220853 METAR KCLM 220853Z AUTO 27007KT 10SM CLR 11/07 A3008 RMK AO2 SLP185 T01110072 56001 $=
201406220753 METAR KCLM 220753Z AUTO 29005KT 10SM CLR 11/06 A3008 RMK AO2 SLP185 T01060061 401830083 $=
201406220653 METAR KCLM 220653Z AUTO 26006KT 10SM CLR 11/06 A3008 RMK AO2 SLP185 T01110061 $=
201406220553 METAR KCLM 220553Z AUTO 27005KT 10SM CLR 11/06 A3008 RMK AO2 SLP187 T01110061 10172 20111 53000 $=
201406220453 METAR KCLM 220453Z AUTO 27005KT 10SM CLR 12/07 A3008 RMK AO2 SLP187 T01220067 $=
201406220353 METAR KCLM 220353Z AUTO 28003KT 10SM CLR 13/07 A3008 RMK AO2 SLP184 T01280072 $=
201406220253 METAR KCLM 220253Z AUTO 31005KT 10SM CLR 14/07 A3008 RMK AO2 SLP186 T01440072 55004 $=
201406220153 METAR KCLM 220153Z AUTO 33008KT 10SM CLR 16/07 A3008 RMK AO2 SLP186 T01610072=
201406220053 METAR KCLM 220053Z AUTO 31006KT 10SM CLR 17/07 A3008 RMK AO2 SLP185 T01670067=
201406212353 METAR KCLM 212353Z AUTO 31009KT 280V340 10SM CLR 17/07 A3009 RMK AO2 SLP190 T01720067 10183 20144 58008=
201406212253 METAR KCLM 212253Z AUTO 30007KT 10SM CLR 17/05 A3010 RMK AO2 SLP193 T01720050=
201406212153 METAR KCLM 212153Z AUTO 34006KT 10SM CLR 18/05 A3010 RMK AO2 SLP195 T01830050=
201406212053 METAR KCLM 212053Z AUTO 34005KT 10SM CLR 18/06 A3011 RMK AO2 SLP198 T01780056 58008=
201406211953 METAR KCLM 211953Z AUTO 33007KT 10SM CLR 17/06 A3012 RMK AO2 SLP201 T01670061=
201406211853 METAR KCLM 211853Z AUTO 34006KT 10SM CLR 16/07 A3013 RMK AO2 SLP205 T01610072=
201406211753 METAR KCLM 211753Z AUTO 33008KT 300V010 10SM CLR 14/07 A3014 RMK AO2 SLP206 T01440072 10150 20083 56000=
201406211653 METAR KCLM 211653Z AUTO VRB04KT 10SM CLR 15/07 A3014 RMK AO2 SLP206 T01500067=
201406211553 METAR KCLM 211553Z AUTO 10SM CLR 14/06 A3014 RMK AO2 SLP206 T01440061 $=
201406211453 METAR KCLM 211453Z AUTO 10SM CLR 13/06 A3014 RMK AO2 SLP206 T01330061 58000 $=
201406211353 METAR KCLM 211353Z AUTO 10SM CLR 11/06 A3015 RMK AO2 SLP209 T01110056 $=
201406211253 METAR KCLM 211253Z AUTO 10SM CLR 09/06 A3015 RMK AO2 SLP209 T00940056 $=
201406211153 METAR KCLM 211153Z AUTO 10SM CLR 10/06 A3015 RMK AO2 SLP207 T01000056 10106 20094 56009 $=
201406211053 METAR KCLM 211053Z AUTO 10SM CLR 10/06 A3015 RMK AO2 SLP209 T01000061 $=
201406210953 METAR KCLM 210953Z AUTO 10SM CLR 10/06 A3016 RMK AO2 SLP211 T01000061 $=
201406210853 METAR KCLM 210853Z AUTO 10SM CLR 10/07 A3017 RMK AO2 SLP216 T01000067 56007 $=
201406210753 METAR KCLM 210753Z AUTO 10SM CLR 09/07 A3018 RMK AO2 SLP217 T00940067 401720094 $=
201406210653 METAR KCLM 210653Z AUTO 10SM CLR 10/07 A3018 RMK AO2 SLP221 T01000072 $=
201406210553 METAR KCLM 210553Z AUTO 10SM CLR 11/07 A3019 RMK AO2 SLP223 T01060072 10161 20106 50004 $=
201406210453 METAR KCLM 210453Z AUTO 10SM CLR 11/07 A3020 RMK AO2 SLP225 T01110067 $=
201406210353 METAR KCLM 210353Z AUTO 10SM FEW045 13/06 A3019 RMK AO2 SLP221 T01280061 $=
201406210253 METAR KCLM 210253Z AUTO 10SM CLR 14/06 A3018 RMK AO2 SLP219 T01390061 55003 $=
201406210153 METAR KCLM 210153Z AUTO 10SM FEW040 16/07 A3017 RMK AO2 SLP215 T01560067 $=
201406210053 METAR KCLM 210053Z AUTO 29010KT 10SM OVC046 16/07 A3017 RMK AO2 SLP218 T01560067=
201406202353 METAR KCLM 202353Z AUTO 33011KT 10SM SCT046 16/07 A3019 RMK AO2 SLP222 60000 T01610072 10172 20139 50000=
201406202253 METAR KCLM 202253Z AUTO 32010G17KT 10SM CLR 16/07 A3019 RMK AO2 RAB21E31 SLP224 P0000 T01610072=
201406202153 METAR KCLM 202153Z AUTO 10SM CLR 17/09 A3019 RMK AO2 SLP223 T01670089 $=
201406202053 METAR KCLM 202053Z AUTO 10SM BKN080 15/08 A3019 RMK AO2 SLP222 T01500078 51009 $=
201406201953 METAR KCLM 201953Z AUTO 10SM CLR 16/08 A3018 RMK AO2 SLP221 T01560078 $=
201406201853 METAR KCLM 201853Z AUTO 10SM BKN050 14/07 A3018 RMK AO2 SLP219 T01440067 $=
201406201753 METAR KCLM 201753Z AUTO 10SM SCT047 15/07 A3016 RMK AO2 SLP213 T01500072 10150 20094 53010 $=
201406201653 METAR KCLM 201653Z AUTO 10SM CLR 14/08 A3015 RMK AO2 SLP209 T01390078 $=
201406201553 METAR KCLM 201553Z AUTO 31009KT 10SM CLR 14/08 A3014 RMK AO2 SLP206 T01390078 $=
201406201453 METAR KCLM 201453Z AUTO 30006KT 10SM CLR 13/08 A3013 RMK AO2 SLP203 T01330078 51006 $=
201406201353 METAR KCLM 201353Z AUTO 27006KT 10SM CLR 12/07 A3013 RMK AO2 SLP202 T01170067 $=
201406201253 METAR KCLM 201253Z AUTO 28011KT 10SM CLR 10/06 A3012 RMK AO2 SLP199 T01000061 $=
201406201153 METAR KCLM 201153Z AUTO 25008KT 10SM BKN050 10/06 A3011 RMK AO2 SLP197 70004 T01000061 10111 20094 51018 $=
201406201053 METAR KCLM 201053Z AUTO 25011KT 10SM CLR 09/07 A3009 RMK AO2 SLP190 T00940067 $=
201406200953 METAR KCLM 200953Z AUTO 27012KT 10SM CLR 11/06 A3008 RMK AO2 SLP187 T01060056 $=
201406200853 METAR KCLM 200853Z AUTO 27012KT 10SM CLR 10/06 A3006 RMK AO2 SLP178 T01000061 53006 $=
201406200753 METAR KCLM 200753Z AUTO 28011KT 10SM CLR 10/08 A3003 RMK AO2 SLP170 T01000083 401890100 $=
201406200653 METAR KCLM 200653Z AUTO 25006KT 10SM CLR 11/09 A3003 RMK AO2 SLP170 T01110089 $=
201406200635 SPECI KCLM 200635Z AUTO 26007KT 10SM FEW009 SCT070 11/09 A3004 RMK AO2 T01060089 $=
201406200553 METAR KCLM 200553Z AUTO 29010G19KT 10SM BKN048 OVC070 11/10 A3004 RMK AO2 RAE53 SLP172 P0003 60004 T01110100 10178 20111 51022 $=
201406200528 SPECI KCLM 200528Z AUTO 30012KT 10SM -RA SCT003 BKN040 OVC048 11/10 A3003 RMK AO2 P0003 T01110100 $=
201406200453 METAR KCLM 200453Z AUTO 30017G23KT 8SM -RA BKN004 OVC007 11/10 A3001 RMK AO2 PK WND 31028/0442 SLP163 P0001 T01110100 $=
201406200417 SPECI KCLM 200417Z AUTO 31011G19KT 10SM -RA BKN009 BKN017 OVC060 13/11 A3000 RMK AO2 P0000 T01330111 $=
201406200412 SPECI KCLM 200412Z AUTO 32009KT 10SM -RA FEW007 BKN022 OVC060 14/11 A2999 RMK AO2 P0000 T01390111 $=
201406200353 METAR KCLM 200353Z AUTO 33007KT 10SM -RA OVC070 14/11 A2997 RMK AO2 RAB49 SLP150 P0000 T01440111 $=
201406200253 METAR KCLM 200253Z AUTO 33004KT 10SM FEW060 FEW075 16/11 A2996 RMK AO2 SLP144 T01560111 55002 $=
201406200153 METAR KCLM 200153Z AUTO 32007KT 10SM SCT060 BKN070 17/11 A2995 RMK AO2 SLP142 T01670106 $=
201406200053 METAR KCLM 200053Z AUTO 30006KT 10SM BKN070 OVC080 17/10 A2996 RMK AO2 SLP145 T01670100 $=
201406192353 METAR KCLM 192353Z AUTO VRB04KT 10SM BKN075 OVC090 17/11 A2996 RMK AO2 SLP146 T01720106 10189 20144 58008 $=
201406192253 METAR KCLM 192253Z AUTO 34004KT 10SM FEW060 BKN075 BKN090 16/11 A2998 RMK AO2 SLP151 T01610111=
201406192153 METAR KCLM 192153Z AUTO 04004KT 10SM BKN090 19/11 A2997 RMK AO2 SLP150 T01890106=
201406192053 METAR KCLM 192053Z AUTO VRB04KT 10SM OVC100 17/11 A2999 RMK AO2 SLP154 T01670106 58001=
201406191953 METAR KCLM 191953Z AUTO 05004KT 10SM OVC100 16/11 A2999 RMK AO2 SLP154 T01610111=
201406191853 METAR KCLM 191853Z AUTO VRB03KT 10SM BKN060 OVC100 15/11 A2999 RMK AO2 SLP157 T01500111=
201406191753 METAR KCLM 191753Z AUTO 36005KT 10SM OVC060 15/12 A2999 RMK AO2 SLP155 T01500117 10161 20122 56005=
201406191653 METAR KCLM 191653Z AUTO 02005KT 10SM BKN065 BKN080 16/11 A2999 RMK AO2 SLP155 T01560111=
201406191553 METAR KCLM 191553Z AUTO 32003KT 10SM OVC065 14/11 A3000 RMK AO2 SLP159 T01440111=
201406191453 METAR KCLM 191453Z AUTO 00000KT 10SM FEW055 OVC090 14/11 A3000 RMK AO2 SLP160 T01390111 50002=
201406191353 METAR KCLM 191353Z AUTO 00000KT 10SM OVC055 13/11 A3001 RMK AO2 SLP162 T01280106=
201406191253 METAR KCLM 191253Z AUTO 00000KT 10SM OVC055 13/11 A3000 RMK AO2 SLP160 T01280106=
201406191153 METAR KCLM 191153Z AUTO 00000KT 10SM SCT045 OVC060 13/11 A3000 RMK AO2 SLP158 T01280106 10133 20122 56005=
201406191053 METAR KCLM 191053Z AUTO 21003KT 10SM OVC065 13/11 A3000 RMK AO2 SLP159 T01280106=
201406190953 METAR KCLM 190953Z AUTO 23003KT 10SM OVC070 13/11 A3001 RMK AO2 SLP161 T01280106=
201406190853 METAR KCLM 190853Z AUTO 26003KT 10SM OVC075 13/11 A3001 RMK AO2 SLP163 T01280106 58009=
201406190753 METAR KCLM 190753Z AUTO 28003KT 10SM OVC085 13/11 A3003 RMK AO2 SLP167 T01280106 401720094=
201406190653 METAR KCLM 190653Z AUTO 29006KT 10SM CLR 13/10 A3004 RMK AO2 SLP171 T01280100=
201406190553 METAR KCLM 190553Z AUTO 29007KT 10SM BKN090 OVC120 13/10 A3004 RMK AO2 SLP173 T01280100 10172 20128 56005=
201406190453 METAR KCLM 190453Z AUTO 28007KT 10SM CLR 13/09 A3005 RMK AO2 SLP174 T01330094=
201406190353 METAR KCLM 190353Z AUTO 28008KT 10SM OVC110 13/09 A3004 RMK AO2 SLP173 T01330089=
201406190253 METAR KCLM 190253Z AUTO 29007KT 10SM BKN110 14/09 A3006 RMK AO2 SLP178 T01440089 56005=
201406190153 METAR KCLM 190153Z AUTO 33004KT 10SM BKN047 16/09 A3006 RMK AO2 SLP178 T01560089=
201406190053 METAR KCLM 190053Z AUTO 32005KT 10SM CLR 16/08 A3006 RMK AO2 SLP180 T01560083=
201406182353 METAR KCLM 182353Z AUTO 35004KT 10SM FEW046 16/07 A3007 RMK AO2 SLP183 T01610072 10172 20144 56005=
201406182253 METAR KCLM 182253Z AUTO 33006KT 10SM CLR 16/08 A3007 RMK AO2 SLP184 T01560078=
201406182153 METAR KCLM 182153Z AUTO 02005KT 10SM CLR 17/07 A3008 RMK AO2 SLP184 T01670072=
201406182053 METAR KCLM 182053Z AUTO 36006KT 10SM FEW110 16/07 A3008 RMK AO2 SLP187 T01560072 55002 $=
201406181953 METAR KCLM 181953Z AUTO 01005KT 10SM CLR 16/07 A3008 RMK AO2 SLP186 T01610072 $=
201406181853 METAR KCLM 181853Z AUTO 32007KT 10SM CLR 16/08 A3009 RMK AO2 SLP189 T01610078=
201406181827 SPECI KCLM 181827Z AUTO 33010KT 10SM FEW026 14/07 A3009 RMK AO2 T01440067=
201406181753 METAR KCLM 181753Z AUTO 31010KT 10SM BKN025 15/07 A3009 RMK AO2 SLP189 T01500072 10156 20094 56006=
201406181653 METAR KCLM 181653Z AUTO 31011G15KT 10SM FEW023 14/08 A3010 RMK AO2 SLP192 T01390078=
201406181606 SPECI KCLM 181606Z AUTO 31008KT 10SM SCT024 13/08 A3010 RMK AO2 T01330078=
201406181553 METAR KCLM 181553Z AUTO 30009KT 10SM BKN025 13/08 A3010 RMK AO2 SLP192 T01330078=
201406181453 METAR KCLM 181453Z AUTO 30004KT 10SM OVC025 12/08 A3011 RMK AO2 SLP197 T01220078 53003=
201406181353 METAR KCLM 181353Z AUTO 25005KT 10SM BKN024 11/08 A3010 RMK AO2 SLP193 T01110078=
201406181317 SPECI KCLM 181317Z AUTO 27006KT 10SM BKN022 11/08 A3010 RMK AO2 T01060078=
201406181253 METAR KCLM 181253Z AUTO 24004KT 10SM FEW022 09/07 A3010 RMK AO2 SLP192 T00940072=
201406181248 SPECI KCLM 181248Z AUTO 27005KT 10SM SCT022 09/07 A3010 RMK AO2=
201406181218 SPECI KCLM 181218Z AUTO 30004KT 10SM BKN021 09/07 A3010 RMK AO2 T00940072=
201406181153 METAR KCLM 181153Z AUTO 30003KT 10SM CLR 10/07 A3010 RMK AO2 SLP194 T01000067 10111 20100 57003=
201406181139 SPECI KCLM 181139Z AUTO 27005KT 10SM SCT022 10/07 A3011 RMK AO2 T01000067=
201406181053 METAR KCLM 181053Z AUTO 26007KT 10SM OVC023 11/07 A3010 RMK AO2 SLP193 T01110072=
201406181044 SPECI KCLM 181044Z AUTO 26007KT 10SM BKN023 11/07 A3010 RMK AO2 T01110072=
201406180953 METAR KCLM 180953Z AUTO 24006KT 10SM CLR 11/07 A3011 RMK AO2 SLP197 T01060072=
201406180853 METAR KCLM 180853Z AUTO 26005KT 10SM CLR 11/07 A3011 RMK AO2 SLP196 T01060072 58003=
201406180753 METAR KCLM 180753Z AUTO 25005KT 10SM CLR 11/08 A3011 RMK AO2 SLP197 T01060078 401830106=
201406180653 METAR KCLM 180653Z AUTO 27008KT 10SM CLR 11/08 A3012 RMK AO2 SLP199 T01110083=
201406180553 METAR KCLM 180553Z AUTO 27006KT 10SM CLR 11/08 A3012 RMK AO2 SLP199 T01110083 10172 20106 58000=
201406180453 METAR KCLM 180453Z AUTO 26006KT 10SM CLR 11/08 A3013 RMK AO2 SLP202 T01060083=
201406180353 METAR KCLM 180353Z AUTO 31005KT 10SM CLR 12/08 A3011 RMK AO2 SLP197 T01170083=
201406180253 METAR KCLM 180253Z AUTO 32008KT 10SM CLR 12/09 A3012 RMK AO2 SLP199 T01220089 53006=
201406180153 METAR KCLM 180153Z AUTO 31008KT 10SM CLR 14/09 A3011 RMK AO2 SLP196 T01390089=
201406180053 METAR KCLM 180053Z AUTO 30010KT 10SM CLR 16/09 A3010 RMK AO2 SLP193 T01560089=
201406172353 METAR KCLM 172353Z AUTO 30009KT 10SM CLR 17/09 A3010 RMK AO2 SLP193 T01670094 10183 20156 53002=
201406172253 METAR KCLM 172253Z AUTO 33010KT 10SM CLR 17/09 A3011 RMK AO2 SLP194 T01670094=
201406172153 METAR KCLM 172153Z AUTO 35007KT 10SM CLR 17/10 A3009 RMK AO2 SLP189 T01720100=
201406172053 METAR KCLM 172053Z AUTO 01008KT 10SM CLR 17/10 A3010 RMK AO2 SLP191 T01720100 50003=
201406171953 METAR KCLM 171953Z AUTO 34006KT 10SM CLR 16/09 A3011 RMK AO2 SLP195 T01610094=
201406171853 METAR KCLM 171853Z AUTO VRB06KT 10SM CLR 16/09 A3010 RMK AO2 SLP191 T01610094=
201406171753 METAR KCLM 171753Z AUTO 36006KT 10SM CLR 16/09 A3009 RMK AO2 SLP188 60000 T01560094 10161 20106 51009=
201406171653 METAR KCLM 171653Z AUTO 30008KT 10SM CLR 15/09 A3009 RMK AO2 SLP188 T01500094=
201406171553 METAR KCLM 171553Z AUTO 32004KT 10SM CLR 14/09 A3007 RMK AO2 SLP183 T01390089=
201406171453 METAR KCLM 171453Z AUTO 30007KT 10SM OVC110 13/09 A3006 RMK AO2 RAE08 SLP178 P0000 60000 T01330089 51009=
201406171353 METAR KCLM 171353Z AUTO 24004KT 10SM -RA OVC080 12/08 A3005 RMK AO2 RAB45 SLP177 P0000 T01170083=
201406171253 METAR KCLM 171253Z AUTO 00000KT 10SM OVC080 11/08 A3005 RMK AO2 SLP174 T01110083=
201406171153 METAR KCLM 171153Z AUTO 28007KT 10SM OVC090 11/08 A3003 RMK AO2 SLP169 70006 T01110083 10133 20106 52014=
201406171053 METAR KCLM 171053Z AUTO 28005KT 10SM BKN060 OVC090 11/08 A3001 RMK AO2 SLP164 T01110083=
201406170953 METAR KCLM 170953Z AUTO 30010KT 10SM SCT060 OVC100 11/08 A3000 RMK AO2 SLP159 T01110083=
201406170853 METAR KCLM 170853Z AUTO 31007KT 10SM SCT065 OVC100 11/08 A2999 RMK AO2 SLP154 T01110083 53006=
201406170753 METAR KCLM 170753Z AUTO 30007KT 10SM BKN070 OVC110 12/07 A2997 RMK AO2 SLP148 T01170072 401720094=
201406170653 METAR KCLM 170653Z AUTO 28009KT 10SM FEW060 OVC075 13/07 A2997 RMK AO2 SLP147 T01280072=
201406170553 METAR KCLM 170553Z AUTO 25007KT 10SM OVC070 13/07 A2997 RMK AO2 SLP148 T01280067 10172 20122 51009=
201406170453 METAR KCLM 170453Z AUTO 26008KT 10SM BKN070 13/07 A2997 RMK AO2 SLP147 T01280067=
201406170353 METAR KCLM 170353Z AUTO 27010KT 10SM CLR 13/06 A2995 RMK AO2 SLP141 T01280056=
201406170253 METAR KCLM 170253Z AUTO 29006KT 10SM CLR 14/06 A2994 RMK AO2 SLP140 T01390061 53009=
201406170153 METAR KCLM 170153Z AUTO 33010KT 10SM CLR 15/06 A2993 RMK AO2 SLP136 T01500061=
201406170053 METAR KCLM 170053Z AUTO 33009KT 10SM CLR 16/07 A2992 RMK AO2 SLP132 T01610072=
201406162353 METAR KCLM 162353Z AUTO 30008KT 10SM CLR 17/07 A2991 RMK AO2 SLP129 60000 T01720067 10172 20122 51005=
201406162253 METAR KCLM 162253Z AUTO 36007KT 10SM FEW046 17/06 A2991 RMK AO2 SLP128 T01670061=
201406162153 METAR KCLM 162153Z AUTO VRB04KT 10SM BKN048 17/06 A2990 RMK AO2 SLP126 T01670061=
201406162053 METAR KCLM 162053Z AUTO VRB06KT 10SM CLR 16/07 A2990 RMK AO2 SLP124 60000 T01610067 51004 $=
201406161953 METAR KCLM 161953Z AUTO VRB04KT 10SM FEW065 15/08 A2989 RMK AO2 SLP123 T01500078=
201406161853 METAR KCLM 161853Z AUTO VRB04KT 10SM CLR 14/08 A2989 RMK AO2 RAB06E10 SLP122 P0000 T01390078=
201406161753 METAR KCLM 161753Z AUTO 02006KT 10SM FEW065 14/09 A2989 RMK AO2 SLP121 60006 T01390089 10139 20094 50004=
201406161736 SPECI KCLM 161736Z AUTO 34004KT 10SM FEW016 SCT021 BKN065 13/09 A2989 RMK AO2 T01280089=
201406161653 METAR KCLM 161653Z AUTO 36005KT 10SM BKN016 OVC023 12/08 A2989 RMK AO2 SLP123 T01220078=
201406161626 SPECI KCLM 161626Z AUTO VRB03KT 10SM OVC016 12/08 A2989 RMK AO2 T01220083=
201406161553 METAR KCLM 161553Z AUTO VRB03KT 10SM BKN011 OVC055 13/09 A2989 RMK AO2 SLP121 T01280094=
201406161541 SPECI KCLM 161541Z AUTO 12003KT 10SM FEW009 BKN048 OVC060 12/09 A2989 RMK AO2 T01170089=
201406161453 METAR KCLM 161453Z AUTO 00000KT 10SM BKN040 OVC060 11/08 A2988 RMK AO2 RAE21B39E48 SLP118 P0001 60006 T01060083 53005=
201406161353 METAR KCLM 161353Z AUTO 26006KT 10SM -RA OVC050 09/07 A2986 RMK AO2 SLP113 P0005 T00940072=
201406161253 METAR KCLM 161253Z AUTO 25008KT 10SM -RA BKN037 OVC050 09/07 A2986 RMK AO2 RAE19B37 SLP114 P0000 T00940067=
201406161153 METAR KCLM 161153Z AUTO 26009KT 10SM -RA OVC037 11/06 A2986 RMK AO2 RAB45 SLP112 P0000 60000 70001 T01060061 10117 20100 53003=
201406161053 METAR KCLM 161053Z AUTO 29006KT 10SM BKN037 OVC100 12/06 A2985 RMK AO2 SLP109 T01170056=
201406160953 METAR KCLM 160953Z AUTO 29008KT 10SM OVC039 12/05 A2985 RMK AO2 SLP108 T01170050=
201406160853 METAR KCLM 160853Z AUTO 28007KT 10SM OVC041 11/05 A2985 RMK AO2 SLP109 T01110050 56006=
201406160753 METAR KCLM 160753Z AUTO 29007KT 10SM BKN070 OVC090 11/05 A2986 RMK AO2 SLP111 T01110050 401500089=
201406160653 METAR KCLM 160653Z AUTO 30010KT 10SM BKN090 11/04 A2986 RMK AO2 SLP111 T01110044=
201406160553 METAR KCLM 160553Z AUTO 30007KT 10SM BKN080 11/04 A2987 RMK AO2 SLP115 T01060044 10139 20106 53001=
201406160453 METAR KCLM 160453Z AUTO 30011KT 10SM FEW048 OVC080 12/05 A2987 RMK AO2 SLP114 T01170050=
201406160353 METAR KCLM 160353Z AUTO 31007KT 10SM SCT075 12/04 A2986 RMK AO2 SLP112 T01170044=
201406160253 METAR KCLM 160253Z AUTO 29012G17KT 10SM BKN060 12/06 A2986 RMK AO2 SLP114 T01220056 53000=
201406160153 METAR KCLM 160153Z AUTO 30016G24KT 10SM FEW060 12/07 A2986 RMK AO2 PK WND 31026/0058 SLP113 T01220067=
201406160053 METAR KCLM 160053Z AUTO 31015G25KT 10SM CLR 13/08 A2986 RMK AO2 PK WND 29027/0028 SLP111 T01280078=
201406152353 METAR KCLM 152353Z AUTO 30016G26KT 10SM SCT060 14/08 A2986 RMK AO2 PK WND 30028/2322 SLP113 60000 T01390078 10150 20122 56005=
201406152253 METAR KCLM 152253Z AUTO 31017G26KT 10SM CLR 13/07 A2986 RMK AO2 PK WND 30030/2229 SLP113 T01330072=
201406152153 METAR KCLM 152153Z AUTO 31012G22KT 10SM OVC055 13/08 A2987 RMK AO2 SLP116 T01330083=
201406152053 METAR KCLM 152053Z AUTO 32011G15KT 10SM OVC045 13/08 A2988 RMK AO2 SLP119 60000 T01280078 58004=
201406151953 METAR KCLM 151953Z AUTO 31010G17KT 10SM OVC040 13/08 A2989 RMK AO2 SLP121 T01280078=
201406151853 METAR KCLM 151853Z AUTO 30014G21KT 10SM FEW036 BKN060 OVC075 14/09 A2988 RMK AO2 RAE1755 SLP120 P0000 T01440089=
201406151753 METAR KCLM 151753Z AUTO 33009KT 10SM -RA OVC055 13/08 A2989 RMK AO2 RAB05E22B46 SLP122 P0001 60001 T01330078 10139 20100 56009=
201406151653 METAR KCLM 151653Z AUTO 28006KT 10SM BKN048 OVC060 13/07 A2990 RMK AO2 SLP124 T01330072=
201406151553 METAR KCLM 151553Z AUTO 26008KT 10SM BKN030 OVC040 12/08 A2991 RMK AO2 RAB11E21 SLP127 P0000 T01220083=
201406151453 METAR KCLM 151453Z AUTO 26005KT 10SM OVC023 11/08 A2992 RMK AO2 SLP131 60000 T01110083 56001=
201406151416 SPECI KCLM 151416Z AUTO 28006KT 9SM SCT008 OVC016 11/09 A2991 RMK AO2 T01060089=
201406151353 METAR KCLM 151353Z AUTO 27009KT 10SM BKN007 OVC014 11/09 A2992 RMK AO2 RAE19B38E47 SLP131 P0000 T01060089=
201406151346 SPECI KCLM 151346Z AUTO 28007KT 10SM -RA SCT009 OVC014 11/09 A2992 RMK AO2 RAE19B38 P0000 T01060089=
201406151332 SPECI KCLM 151332Z AUTO 26004KT 10SM BKN014 OVC045 11/09 A2992 RMK AO2 RAE19 P0000 T01060089=
201406151253 METAR KCLM 151253Z AUTO 00000KT 10SM -RA BKN045 OVC060 11/09 A2991 RMK AO2 RAB48 SLP130 P0000 T01060089=
201406151153 METAR KCLM 151153Z AUTO 28003KT 10SM SCT043 BKN050 OVC065 10/08 A2992 RMK AO2 SLP132 T01000083 10111 20089 56014=
201406151053 METAR KCLM 151053Z AUTO 00000KT 10SM BKN043 BKN080 09/08 A2992 RMK AO2 SLP134 T00940078=
201406150953 METAR KCLM 150953Z AUTO 00000KT 10SM SCT019 OVC044 11/09 A2995 RMK AO2 SLP142 T01110089=
201406150853 METAR KCLM 150853Z AUTO 00000KT 10SM BKN043 OVC055 11/08 A2996 RMK AO2 SLP145 T01060083 56017=
201406150753 METAR KCLM 150753Z AUTO 24004KT 10SM OVC049 11/08 A2997 RMK AO2 SLP150 T01060083 401560083=
201406150653 METAR KCLM 150653Z AUTO 25005KT 10SM BKN050 OVC085 11/09 A2999 RMK AO2 SLP156 T01110089=
201406150553 METAR KCLM 150553Z AUTO 00000KT 10SM BKN085 11/08 A3001 RMK AO2 SLP163 T01060083 10139 20106 56013=
201406150453 METAR KCLM 150453Z AUTO 25005KT 10SM SCT039 OVC085 12/09 A3002 RMK AO2 SLP166 T01170089=
201406150353 METAR KCLM 150353Z AUTO 28006KT 10SM FEW017 OVC036 12/08 A3003 RMK AO2 SLP171 T01220083=
201406150326 SPECI KCLM 150326Z AUTO 29008KT 10SM FEW017 OVC030 12/08 A3004 RMK AO2 T01220083=
201406150253 METAR KCLM 150253Z AUTO 29007KT 10SM BKN028 OVC039 12/08 A3005 RMK AO2 SLP175 T01220083 56008=
201406150223 SPECI KCLM 150223Z AUTO 28007KT 10SM SCT018 OVC040 13/09 A3005 RMK AO2 T01330089=
201406150153 METAR KCLM 150153Z AUTO 33006KT 10SM BKN018 OVC034 13/09 A3006 RMK AO2 SLP178 T01330089=
201406150053 METAR KCLM 150053Z AUTO 32008KT 10SM OVC033 13/08 A3007 RMK AO2 SLP184 T01330078=
201406142353 METAR KCLM 142353Z AUTO 32009G14KT 10SM FEW026 OVC032 14/08 A3008 RMK AO2 SLP187 T01390078 10156 20133 56006=
201406142253 METAR KCLM 142253Z AUTO 30012G21KT 10SM OVC041 14/08 A3009 RMK AO2 SLP189 T01440078=
201406142153 METAR KCLM 142153Z AUTO 32010G18KT 10SM FEW044 15/09 A3009 RMK AO2 SLP189 T01500089=
201406142053 METAR KCLM 142053Z AUTO 32011KT 10SM CLR 15/09 A3010 RMK AO2 SLP193 T01500089 58001=
201406142033 SPECI KCLM 142033Z AUTO 32011G20KT 10SM SCT022 15/09 A3010 RMK AO2 T01500094=
201406141953 METAR KCLM 141953Z AUTO 10SM OVC022 14/08 A3011 RMK AO2 SLP197 T01390083 $=
201406141853 METAR KCLM 141853Z AUTO VRB04KT 10SM BKN015 14/09 A3011 RMK AO2 SLP197 T01390094 $=
201406141753 METAR KCLM 141753Z AUTO 35004KT 10SM CLR 13/09 A3010 RMK AO2 SLP194 60000 T01330094 10144 20106 53002=
201406141653 METAR KCLM 141653Z AUTO 07003KT 10SM OVC036 13/09 A3009 RMK AO2 SLP191 T01330094=
201406141553 METAR KCLM 141553Z AUTO 13003KT 10SM FEW010 OVC034 12/09 A3010 RMK AO2 SLP193 T01220094 $=
201406141453 METAR KCLM 141453Z AUTO 13005KT 10SM OVC013 12/09 A3010 RMK AO2 SLP191 60000 T01220094 55000 $=
201406141353 METAR KCLM 141353Z AUTO 14004KT 10SM OVC013 12/09 A3009 RMK AO2 SLP190 T01170094 $=
201406141330 SPECI KCLM 141330Z AUTO 15006KT 10SM OVC014 11/09 A3009 RMK AO2 T01110094 $=
201406141253 METAR KCLM 141253Z AUTO 00000KT 10SM OVC015 11/09 A3009 RMK AO2 RAB31E43 SLP191 P0000 T01110094 $=
201406141153 METAR KCLM 141153Z AUTO 00000KT 10SM BKN017 BKN049 OVC060 11/09 A3010 RMK AO2 SLP192 T01060089 10111 20083 56001 $=
201406141151 SPECI KCLM 141151Z AUTO 00000KT 10SM BKN017 BKN049 OVC060 11/09 A3010 RMK AO2 $=
201406141137 SPECI KCLM 141137Z AUTO 00000KT 10SM FEW008 BKN049 OVC060 11/09 A3009 RMK AO2 T01110089 $=
201406141121 SPECI KCLM 141121Z AUTO 00000KT 10SM SCT019 BKN050 OVC060 11/09 A3009 RMK AO2 T01060089 $=
201406141053 METAR KCLM 141053Z AUTO 00000KT 10SM BKN019 BKN029 OVC049 11/09 A3010 RMK AO2 SLP191 T01110089 $=
201406140953 METAR KCLM 140953Z AUTO 00000KT 10SM BKN020 OVC050 11/09 A3010 RMK AO2 SLP193 T01060089 $=
201406140853 METAR KCLM 140853Z AUTO 00000KT 10SM BKN060 09/08 A3010 RMK AO2 SLP194 T00940078 51003 $=
201406140753 METAR KCLM 140753Z AUTO 00000KT 10SM CLR 09/07 A3010 RMK AO2 SLP193 T00890072 401610083 $=
201406140653 METAR KCLM 140653Z AUTO 00000KT 10SM FEW015 08/07 A3010 RMK AO2 SLP194 T00830067 $=
201406140553 METAR KCLM 140553Z AUTO 00000KT 10SM CLR 10/08 A3009 RMK AO2 SLP190 T01000078 10150 20100 51018 $=
201406140453 METAR KCLM 140453Z AUTO 26003KT 10SM CLR 11/08 A3008 RMK AO2 SLP184 T01110078 $=
201406140353 METAR KCLM 140353Z AUTO 02003KT 10SM CLR 12/08 A3006 RMK AO2 SLP178 T01170083 $=
201406140253 METAR KCLM 140253Z AUTO 31011G17KT 10SM CLR 13/08 A3004 RMK AO2 SLP172 T01330083 52009 $=
201406140153 METAR KCLM 140153Z AUTO 31014G21KT 10SM FEW013 13/09 A3003 RMK AO2 PK WND 31026/0124 SLP169 T01330089 $=
201406140053 METAR KCLM 140053Z AUTO 31014G24KT 10SM CLR 14/09 A3002 RMK AO2 PK WND 29028/0003 SLP165 T01390089 $=
201406132353 METAR KCLM 132353Z AUTO 30013G25KT 10SM CLR 15/09 A3001 RMK AO2 PK WND 33026/2341 SLP162 T01500089 10161 20139 51013=
201406132253 METAR KCLM 132253Z AUTO 30015G24KT 260V320 10SM CLR 16/09 A3000 RMK AO2 SLP160 T01560089=
201406132153 METAR KCLM 132153Z AUTO 30012G23KT 270V340 10SM CLR 15/09 A2999 RMK AO2 SLP156 T01500094=
201406132053 METAR KCLM 132053Z AUTO 31018G26KT 10SM CLR 15/09 A2997 RMK AO2 PK WND 31026/2052 SLP149 T01500094 53019=
201406131953 METAR KCLM 131953Z AUTO 32013G24KT 10SM CLR 15/10 A2995 RMK AO2 SLP141 T01500100=
201406131853 METAR KCLM 131853Z AUTO 31012G19KT 10SM BKN075 15/11 A2994 RMK AO2 SLP137 T01500106=
201406131753 METAR KCLM 131753Z AUTO 31010G16KT 10SM FEW070 15/11 A2991 RMK AO2 SLP130 60000 T01500111 10156 20111 51010=
201406131653 METAR KCLM 131653Z AUTO 31008KT 10SM CLR 15/11 A2990 RMK AO2 SLP126 T01500106=
201406131553 METAR KCLM 131553Z AUTO 04005KT 10SM SCT015 BKN100 15/11 A2990 RMK AO2 SLP125 T01500111=
201406131453 METAR KCLM 131453Z AUTO 30003KT 10SM BKN041 13/11 A2988 RMK AO2 RAE1358 SLP119 P0000 60000 T01280106 51010=
201406131353 METAR KCLM 131353Z AUTO 31005KT 10SM -RA SCT060 OVC070 12/10 A2987 RMK AO2 RAE00B49 SLP117 P0000 T01170100=
201406131253 METAR KCLM 131253Z AUTO 31006KT 10SM -RA BKN080 OVC100 11/09 A2987 RMK AO2 RAB41 SLP114 P0000 T01110094=
201406131153 METAR KCLM 131153Z AUTO 25008KT 10SM BKN070 BKN080 OVC100 12/10 A2985 RMK AO2 RAE33 SLP110 P0001 60004 70008 T01220100 10122 20111 56001=
201406131053 METAR KCLM 131053Z AUTO 24006KT 9SM -RA OVC055 12/09 A2986 RMK AO2 SLP110 P0003 T01170094=
201406130953 METAR KCLM 130953Z AUTO 26005KT 9SM -RA FEW050 OVC060 12/08 A2985 RMK AO2 RAB53 SLP109 P0000 T01170083=
201406130853 METAR KCLM 130853Z AUTO 28007KT 10SM BKN070 12/09 A2986 RMK AO2 SLP110 T01170089 50003=
201406130753 METAR KCLM 130753Z AUTO 26007KT 10SM SCT065 BKN095 12/09 A2986 RMK AO2 SLP112 T01170089 401500106=
201406130653 METAR KCLM 130653Z AUTO 28011KT 10SM SCT070 BKN095 12/09 A2986 RMK AO2 SLP110 T01170089=
201406130553 METAR KCLM 130553Z AUTO 27009KT 10SM OVC065 12/09 A2985 RMK AO2 SLP108 60000 T01170094 10133 20111 58002=
201406130453 METAR KCLM 130453Z AUTO 28012KT 10SM BKN065 11/09 A2985 RMK AO2 SLP110 T01110094=
201406130353 METAR KCLM 130353Z AUTO 27010KT 10SM OVC070 12/09 A2985 RMK AO2 RAB35E52 SLP109 P0000 T01170089=
201406130253 METAR KCLM 130253Z AUTO 27011KT 10SM OVC070 12/09 A2985 RMK AO2 SLP109 60000 T01220089 53001=
201406130153 METAR KCLM 130153Z AUTO 27011KT 10SM OVC070 12/09 A2984 RMK AO2 SLP106 T01220089=
201406130053 METAR KCLM 130053Z AUTO 27011KT 10SM OVC065 12/09 A2984 RMK AO2 RAE03 SLP105 P0000 T01220094=
201406122353 METAR KCLM 122353Z AUTO 28011KT 10SM -RA FEW021 FEW065 OVC085 12/09 A2985 RMK AO2 RAB42 SLP110 P0000 60004 T01220094 10150 20122 53001=
201406122338 SPECI KCLM 122338Z AUTO 29013KT 10SM SCT021 BKN070 OVC085 13/09 A2985 RMK AO2 T01280094=
201406122253 METAR KCLM 122253Z AUTO 30006KT 10SM BKN019 OVC070 13/11 A2985 RMK AO2 RAE14 SLP106 P0001 T01330106=
201406122222 SPECI KCLM 122222Z AUTO 28009KT 10SM BKN018 BKN048 OVC060 13/11 A2985 RMK AO2 LTG DSNT N RAE14 P0001 T01330106=
201406122153 METAR KCLM 122153Z AUTO 29007KT 6SM -RA BR FEW016 SCT050 OVC075 13/11 A2985 RMK AO2 RAB16 SLP107 P0003 T01330111=
201406122123 SPECI KCLM 122123Z AUTO 31007KT 10SM -RA SCT018 OVC050 14/10 A2985 RMK AO2 RAB16 P0000 T01390100=
201406122101 SPECI KCLM 122101Z AUTO 30009KT 10SM BKN019 BKN037 OVC050 14/09 A2985 RMK AO2 T01390094=
201406122053 METAR KCLM 122053Z AUTO 31010KT 10SM SCT019 BKN035 OVC050 14/09 A2985 RMK AO2 SLP107 T01440094 57000=
201406122033 SPECI KCLM 122033Z AUTO 31010KT 10SM FEW017 OVC033 14/09 A2985 RMK AO2 T01440094=
201406121953 METAR KCLM 121953Z AUTO 31012G18KT 10SM BKN017 OVC031 14/09 A2985 RMK AO2 SLP107 T01390089=
201406121925 SPECI KCLM 121925Z AUTO 30010G16KT 10SM OVC015 14/09 A2985 RMK AO2 T01440094=
201406121853 METAR KCLM 121853Z AUTO 31011G15KT 10SM OVC013 14/10 A2985 RMK AO2 SLP107 T01440100=
201406121753 METAR KCLM 121753Z AUTO 31008KT 10SM OVC012 14/10 A2985 RMK AO2 SLP108 T01390100 10139 20106 51004=
201406121653 METAR KCLM 121653Z AUTO 30008KT 10SM OVC010 13/10 A2985 RMK AO2 SLP107 T01280100=
201406121553 METAR KCLM 121553Z AUTO 31007KT 10SM OVC010 13/10 A2984 RMK AO2 SLP105 T01330100=
201406121523 SPECI KCLM 121523Z AUTO 31006KT 10SM OVC009 13/10 A2984 RMK AO2 T01330100=
201406121512 SPECI KCLM 121512Z AUTO 30006KT 10SM OVC010 13/10 A2984 RMK AO2 T01280100=
201406121501 SPECI KCLM 121501Z AUTO 31011KT 10SM BKN009 BKN014 OVC085 13/10 A2984 RMK AO2 T01330100=
201406121453 METAR KCLM 121453Z AUTO 32006KT 10SM SCT009 OVC080 13/10 A2984 RMK AO2 SLP103 T01280100 53004=
201406121353 METAR KCLM 121353Z AUTO 30008KT 10SM BKN075 13/10 A2982 RMK AO2 SLP099 T01280100=
201406121253 METAR KCLM 121253Z AUTO 28005KT 10SM CLR 11/09 A2983 RMK AO2 SLP100 T01060089=
201406121153 METAR KCLM 121153Z AUTO 29006KT 10SM CLR 11/09 A2982 RMK AO2 SLP099 T01110089 10128 20111 55002=
201406121053 METAR KCLM 121053Z AUTO 29006KT 10SM CLR 12/09 A2982 RMK AO2 SLP099 T01170089=
201406120953 METAR KCLM 120953Z AUTO 30004KT 10SM CLR 12/09 A2983 RMK AO2 SLP100 T01170089=
201406120853 METAR KCLM 120853Z AUTO 29006KT 10SM CLR 12/09 A2983 RMK AO2 SLP101 T01220089 56012=
201406120753 METAR KCLM 120753Z AUTO 27004KT 10SM FEW120 12/09 A2984 RMK AO2 SLP105 T01220089 401780078=
201406120653 METAR KCLM 120653Z AUTO 28006KT 10SM FEW065 12/09 A2986 RMK AO2 SLP109 T01220089=
201406120553 METAR KCLM 120553Z AUTO 29007KT 10SM BKN065 13/09 A2987 RMK AO2 SLP113 T01280094 10161 20128 56013=
201406120453 METAR KCLM 120453Z AUTO VRB04KT 10SM OVC060 13/10 A2988 RMK AO2 SLP117 T01330100=
201406120353 METAR KCLM 120353Z AUTO 29007KT 10SM CLR 13/10 A2989 RMK AO2 SLP121 T01330100=
201406120253 METAR KCLM 120253Z AUTO 30004KT 10SM CLR 14/10 A2990 RMK AO2 SLP126 T01390100 56015=
201406120153 METAR KCLM 120153Z AUTO 30007KT 10SM CLR 14/11 A2991 RMK AO2 SLP128 T01440106=
201406120053 METAR KCLM 120053Z AUTO 30008KT 10SM CLR 15/11 A2993 RMK AO2 SLP134 T01500106=
201406112353 METAR KCLM 112353Z AUTO 32007KT 10SM CLR 16/11 A2995 RMK AO2 SLP141 T01560106 10178 20150 56017=
201406112253 METAR KCLM 112253Z AUTO VRB04KT 10SM BKN080 17/11 A2996 RMK AO2 SLP145 T01670106=
201406112153 METAR KCLM 112153Z AUTO 34005KT 10SM FEW080 17/09 A2998 RMK AO2 SLP150 T01720094=
201406112053 METAR KCLM 112053Z AUTO 35006KT 10SM CLR 18/09 A3000 RMK AO2 SLP157 T01780094 58011=
201406111953 METAR KCLM 111953Z AUTO 04005KT 10SM CLR 17/09 A3001 RMK AO2 SLP162 T01670094=
201406111853 METAR KCLM 111853Z AUTO 03004KT 10SM CLR 16/10 A3002 RMK AO2 SLP166 T01560100=
201406111753 METAR KCLM 111753Z AUTO VRB04KT 10SM CLR 15/10 A3003 RMK AO2 SLP169 T01500100 10156 20078 58006=
201406111653 METAR KCLM 111653Z AUTO 02005KT 10SM CLR 14/10 A3004 RMK AO2 SLP172 T01440100=
201406111553 METAR KCLM 111553Z AUTO 04005KT 10SM CLR 14/09 A3004 RMK AO2 SLP172 T01440094=
201406111453 METAR KCLM 111453Z AUTO 25005KT 10SM CLR 13/08 A3005 RMK AO2 SLP175 T01330078 58003=
201406111353 METAR KCLM 111353Z AUTO 25005KT 10SM BKN030 12/08 A3006 RMK AO2 SLP180 T01170083=
201406111253 METAR KCLM 111253Z AUTO 30004KT 10SM CLR 09/07 A3006 RMK AO2 SLP181 T00890072=
201406111153 METAR KCLM 111153Z AUTO 25004KT 10SM CLR 09/07 A3006 RMK AO2 SLP179 T00940072 10111 20078 58007=
201406111053 METAR KCLM 111053Z AUTO 00000KT 10SM CLR 08/07 A3007 RMK AO2 SLP182 T00830067=
201406110953 METAR KCLM 110953Z AUTO 00000KT 10SM CLR 08/07 A3008 RMK AO2 SLP185 T00830067=
201406110853 METAR KCLM 110853Z AUTO 27005KT 10SM CLR 09/08 A3008 RMK AO2 SLP186 T00940078 58009=
201406110753 METAR KCLM 110753Z AUTO 25004KT 10SM CLR 10/08 A3009 RMK AO2 SLP189 T01000083 401780094=
201406110653 METAR KCLM 110653Z AUTO 23005KT 10SM CLR 10/08 A3010 RMK AO2 SLP194 T01000083=
201406110553 METAR KCLM 110553Z AUTO 23004KT 10SM CLR 11/09 A3011 RMK AO2 SLP196 T01110089 10161 20100 58001=
201406110453 METAR KCLM 110453Z AUTO 28004KT 10SM CLR 12/09 A3011 RMK AO2 SLP197 T01170089=
201406110353 METAR KCLM 110353Z AUTO 29006KT 10SM CLR 13/09 A3011 RMK AO2 SLP196 T01280089=
201406110253 METAR KCLM 110253Z AUTO 31004KT 10SM CLR 14/09 A3011 RMK AO2 SLP196 T01390089 55003=
201406110153 METAR KCLM 110153Z AUTO 32004KT 10SM CLR 14/09 A3011 RMK AO2 SLP196 T01390089=
201406110053 METAR KCLM 110053Z AUTO 31010KT 10SM OVC070 16/09 A3012 RMK AO2 SLP199 T01560094=
201406102353 METAR KCLM 102353Z AUTO 32010KT 10SM FEW075 16/09 A3012 RMK AO2 SLP200 T01610094 10178 20133 55002=
201406102253 METAR KCLM 102253Z AUTO 29006KT 10SM CLR 17/09 A3012 RMK AO2 SLP199 T01720094=
201406102153 METAR KCLM 102153Z AUTO 30008KT 10SM SCT100 16/09 A3012 RMK AO2 SLP200 T01610089=
201406102053 METAR KCLM 102053Z AUTO 30011KT 10SM FEW031 SCT065 16/08 A3013 RMK AO2 SLP202 T01610083 50004=
201406101953 METAR KCLM 101953Z AUTO 32012KT 10SM FEW032 BKN050 OVC070 16/09 A3013 RMK AO2 SLP204 T01560089=
201406101853 METAR KCLM 101853Z AUTO 32009G15KT 10SM BKN050 OVC070 14/09 A3012 RMK AO2 SLP201 T01390089=
201406101753 METAR KCLM 101753Z AUTO 30012G18KT 10SM BKN050 OVC070 13/09 A3011 RMK AO2 SLP199 60000 T01330089 10144 20094 53004=
201406101653 METAR KCLM 101653Z AUTO 32010G17KT 300V360 10SM OVC060 14/08 A3010 RMK AO2 SLP193 T01390083=
201406101553 METAR KCLM 101553Z AUTO 30010KT 10SM OVC065 14/08 A3010 RMK AO2 SLP192 T01390078=
201406101453 METAR KCLM 101453Z AUTO 29009KT 10SM OVC070 12/08 A3010 RMK AO2 RAB11E43 SLP194 P0000 60000 T01170078 53003=
201406101353 METAR KCLM 101353Z AUTO 28010KT 10SM OVC080 12/07 A3009 RMK AO2 SLP190 T01170072=
201406101253 METAR KCLM 101253Z AUTO 27009KT 10SM BKN085 OVC110 11/07 A3009 RMK AO2 SLP189 T01060067=
201406101153 METAR KCLM 101153Z AUTO 25004KT 10SM FEW110 09/06 A3009 RMK AO2 SLP191 T00940061 10117 20094 58000=
201406101053 METAR KCLM 101053Z AUTO 24006KT 10SM OVC110 10/06 A3011 RMK AO2 SLP196 T01000061=
201406100953 METAR KCLM 100953Z AUTO 26008KT 10SM CLR 09/06 A3010 RMK AO2 SLP192 T00940061=
201406100853 METAR KCLM 100853Z AUTO 26009KT 10SM CLR 10/06 A3009 RMK AO2 SLP191 T01000061 58008=
201406100753 METAR KCLM 100753Z AUTO 26008KT 10SM CLR 10/06 A3011 RMK AO2 SLP195 T01000056 401670100=
201406100653 METAR KCLM 100653Z AUTO 26008KT 10SM CLR 11/06 A3011 RMK AO2 SLP197 T01060056=
201406100553 METAR KCLM 100553Z AUTO 26008KT 10SM CLR 11/06 A3012 RMK AO2 SLP199 T01110061 10161 20111 56000=
201406100453 METAR KCLM 100453Z AUTO 25006KT 10SM CLR 11/07 A3012 RMK AO2 SLP200 T01110072=
201406100353 METAR KCLM 100353Z AUTO 28010KT 10SM CLR 12/08 A3012 RMK AO2 SLP199 T01220078=
201406100253 METAR KCLM 100253Z AUTO 30011KT 10SM CLR 13/08 A3012 RMK AO2 PK WND 29027/0205 SLP200 T01330078 56007=
201406100153 METAR KCLM 100153Z AUTO 29015G21KT 10SM CLR 14/07 A3012 RMK AO2 SLP200 T01440067=
201406100053 METAR KCLM 100053Z AUTO 28011G21KT 10SM CLR 16/07 A3013 RMK AO2 PK WND 29026/0029 SLP202 T01560067=
201406092353 METAR KCLM 092353Z AUTO 31011G14KT 10SM CLR 16/08 A3014 RMK AO2 SLP207 T01610083 10167 20139 58008=
201406092253 METAR KCLM 092253Z AUTO 31013KT 10SM CLR 16/09 A3016 RMK AO2 SLP211 T01610089=
201406092153 METAR KCLM 092153Z AUTO 31011KT 10SM CLR 16/09 A3016 RMK AO2 SLP212 T01610089=
201406092053 METAR KCLM 092053Z AUTO 30012G20KT 10SM CLR 16/08 A3017 RMK AO2 SLP215 T01610083 58001=
201406091953 METAR KCLM 091953Z AUTO 33009KT 10SM CLR 16/10 A3017 RMK AO2 SLP215 T01560100=
201406091853 METAR KCLM 091853Z AUTO 31008G17KT 10SM CLR 14/10 A3018 RMK AO2 SLP218 T01390100=
201406091753 METAR KCLM 091753Z AUTO 30011G19KT 10SM CLR 14/09 A3017 RMK AO2 SLP216 T01440094 10150 20100 53003=
201406091705 SPECI KCLM 091705Z AUTO 30008KT 10SM SCT009 14/10 A3016 RMK AO2 T01390100=
201406091653 METAR KCLM 091653Z AUTO 29008KT 10SM BKN009 14/10 A3016 RMK AO2 CIG 007V012 SLP212 T01390100=
201406091626 SPECI KCLM 091626Z AUTO 31007KT 10SM BKN009 13/10 A3017 RMK AO2 CIG 007V013 T01330100=
201406091618 SPECI KCLM 091618Z AUTO 30009KT 10SM SCT009 BKN013 13/10 A3017 RMK AO2 T01330100=
201406091553 METAR KCLM 091553Z AUTO 31007KT 10SM FEW013 14/09 A3016 RMK AO2 SLP213 T01390094=
201406091453 METAR KCLM 091453Z AUTO 31007KT 10SM CLR 13/09 A3016 RMK AO2 SLP212 T01330089 51002=
201406091353 METAR KCLM 091353Z AUTO 26009KT 10SM CLR 13/09 A3015 RMK AO2 SLP211 T01280089 $=
201406091253 METAR KCLM 091253Z AUTO 28011KT 10SM CLR 11/08 A3016 RMK AO2 SLP212 T01110078 $=
201406091153 METAR KCLM 091153Z AUTO 30007KT 10SM CLR 10/08 A3015 RMK AO2 SLP210 T01000078 10122 20100 57002 $=
201406091053 METAR KCLM 091053Z AUTO 27005KT 10SM CLR 11/09 A3016 RMK AO2 SLP212 T01110089 $=
201406090953 METAR KCLM 090953Z AUTO 27011KT 10SM CLR 12/09 A3015 RMK AO2 SLP210 T01170094 $=
201406090924 SPECI KCLM 090924Z AUTO 27011KT 10SM SCT011 12/09 A3015 RMK AO2 T01170094 $=
201406090853 METAR KCLM 090853Z AUTO 29007KT 10SM OVC010 12/10 A3016 RMK AO2 SLP212 T01220100 50003 $=
201406090807 SPECI KCLM 090807Z AUTO 30004KT 10SM BKN013 OVC049 12/10 A3016 RMK AO2 T01220100 $=
201406090753 METAR KCLM 090753Z AUTO 30008KT 10SM FEW011 FEW017 OVC049 12/10 A3016 RMK AO2 SLP214 T01220100 401830111 $=
201406090653 METAR KCLM 090653Z AUTO 29007KT 10SM BKN050 12/10 A3015 RMK AO2 SLP209 T01220100 $=
201406090553 METAR KCLM 090553Z AUTO 29008KT 10SM CLR 12/10 A3015 RMK AO2 SLP209 T01220100 10167 20122 51009 $=
201406090453 METAR KCLM 090453Z AUTO 29007KT 10SM SCT070 BKN085 12/11 A3015 RMK AO2 SLP208 T01220106 $=
201406090415 SPECI KCLM 090415Z AUTO 30006KT 10SM FEW008 BKN075 13/11 A3014 RMK AO2 T01280111 $=
201406090353 METAR KCLM 090353Z AUTO 29007G16KT 10SM CLR 13/11 A3013 RMK AO2 SLP203 T01280111 $=
201406090253 METAR KCLM 090253Z AUTO 30006KT 10SM CLR 15/12 A3012 RMK AO2 SLP199 T01500117 56014 $=
201406090153 METAR KCLM 090153Z AUTO 28012G19KT 10SM OVC080 16/12 A3013 RMK AO2 SLP204 T01560117 $=
201406090053 METAR KCLM 090053Z AUTO 27014G20KT 10SM FEW015 OVC100 16/12 A3015 RMK AO2 SLP208 T01610117 $=
201406082353 METAR KCLM 082353Z AUTO 31008G15KT 10SM FEW110 17/11 A3016 RMK AO2 SLP214 T01670106 10183 20139 55009 $=
201406082253 METAR KCLM 082253Z AUTO 29009KT 10SM CLR 18/11 A3016 RMK AO2 SLP213 T01830106 $=
201406082153 METAR KCLM 082153Z AUTO 31010KT 10SM FEW120 18/11 A3017 RMK AO2 SLP217 T01780111 $=
201406082053 METAR KCLM 082053Z AUTO 30008KT 10SM CLR 17/12 A3019 RMK AO2 SLP223 T01670117 58007 $=
201406081953 METAR KCLM 081953Z AUTO 32009KT 10SM CLR 16/11 A3020 RMK AO2 SLP226 T01610111 $=
201406081929 SPECI KCLM 081929Z AUTO VRB05KT 10SM SCT010 16/11 A3020 RMK AO2 T01560111 $=
201406081853 METAR KCLM 081853Z AUTO 31007KT 10SM OVC010 15/12 A3020 RMK AO2 SLP228 T01500117 $=
201406081753 METAR KCLM 081753Z AUTO 31007KT 10SM BKN008 BKN085 14/11 A3021 RMK AO2 SLP230 T01390111 10144 20111 58001=
201406081653 METAR KCLM 081653Z AUTO 30007KT 10SM OVC009 13/11 A3022 RMK AO2 SLP232 T01330111=
201406081553 METAR KCLM 081553Z AUTO 31007KT 10SM OVC007 13/11 A3022 RMK AO2 SLP232 T01330106=
201406081453 METAR KCLM 081453Z AUTO 30008G14KT 10SM OVC006 12/11 A3021 RMK AO2 SLP231 T01220106 53001=
201406081434 SPECI KCLM 081434Z AUTO 30008KT 10SM OVC005 12/11 A3021 RMK AO2 T01220106=
201406081353 METAR KCLM 081353Z AUTO 31006KT 10SM OVC002 11/11 A3020 RMK AO2 SLP228 T01110106=
201406081253 METAR KCLM 081253Z AUTO 30009KT 10SM OVC004 11/10 A3021 RMK AO2 SLP229 T01110100=
201406081153 METAR KCLM 081153Z AUTO 30010KT 10SM BKN004 11/10 A3021 RMK AO2 SLP231 T01110100 10117 20111 50009=
201406081144 SPECI KCLM 081144Z AUTO 30011KT 10SM SCT004 11/10 A3021 RMK AO2 T01110100=
201406081131 SPECI KCLM 081131Z AUTO 29010KT 10SM BKN005 11/10 A3021 RMK AO2 T01110100=
201406081121 SPECI KCLM 081121Z AUTO 28009KT 10SM SCT005 11/10 A3021 RMK AO2 T01110100=
201406081053 METAR KCLM 081053Z AUTO 29008KT 10SM BKN006 11/10 A3021 RMK AO2 SLP231 T01110100=
201406081040 SPECI KCLM 081040Z AUTO 29008KT 10SM BKN005 12/11 A3021 RMK AO2 T01170106=
201406081026 SPECI KCLM 081026Z AUTO 30012KT 10SM FEW004 12/10 A3021 RMK AO2 T01170100=
201406080953 METAR KCLM 080953Z AUTO 32010KT 10SM CLR 12/10 A3019 RMK AO2 SLP224 T01170100=
201406080853 METAR KCLM 080853Z AUTO 29012KT 10SM CLR 12/11 A3018 RMK AO2 SLP221 T01170106 50000=
201406080803 SPECI KCLM 080803Z AUTO 29015KT 10SM SCT003 12/11 A3019 RMK AO2 T01170106=
201406080753 METAR KCLM 080753Z AUTO 29013G21KT 10SM BKN003 12/11 A3019 RMK AO2 SLP223 T01170106 401720106=
201406080735 SPECI KCLM 080735Z AUTO 30016G21KT 10SM BKN003 12/11 A3019 RMK AO2 T01170106=
201406080709 SPECI KCLM 080709Z AUTO 29014G22KT 10SM SCT004 12/11 A3019 RMK AO2 T01170106=
201406080653 METAR KCLM 080653Z AUTO 30011KT 10SM BKN004 12/11 A3019 RMK AO2 SLP223 T01170106=
201406080640 SPECI KCLM 080640Z AUTO 30011KT 10SM BKN004 12/11 A3019 RMK AO2 T01170106=
201406080605 SPECI KCLM 080605Z AUTO 30011KT 10SM SCT004 12/11 A3018 RMK AO2 T01170106=
201406080553 METAR KCLM 080553Z AUTO 31009KT 10SM BKN004 12/11 A3018 RMK AO2 SLP222 T01170106 10172 20117 50002=
201406080549 SPECI KCLM 080549Z AUTO 30009KT 10SM BKN004 12/11 A3018 RMK AO2=
201406080504 SPECI KCLM 080504Z AUTO 29009KT 10SM SCT006 12/11 A3019 RMK AO2 T01170106=
201406080453 METAR KCLM 080453Z AUTO 29008KT 10SM BKN006 12/11 A3018 RMK AO2 SLP222 T01220106=
201406080426 SPECI KCLM 080426Z AUTO 26004KT 10SM BKN006 12/11 A3019 RMK AO2 T01220106=
201406080416 SPECI KCLM 080416Z AUTO 00000KT 10SM SCT006 12/11 A3019 RMK AO2 T01220106=
201406080353 METAR KCLM 080353Z AUTO 29009KT 10SM CLR 13/11 A3018 RMK AO2 SLP219 T01280111=
201406080253 METAR KCLM 080253Z AUTO 28015KT 10SM CLR 13/11 A3018 RMK AO2 SLP219 T01330106 56004=
201406080153 METAR KCLM 080153Z AUTO 31009KT 10SM CLR 14/11 A3018 RMK AO2 SLP221 T01440111=
201406080053 METAR KCLM 080053Z AUTO 31009KT 280V340 10SM CLR 17/12 A3018 RMK AO2 SLP220 T01670117=
201406072353 METAR KCLM 072353Z AUTO 29011G17KT 10SM CLR 17/12 A3019 RMK AO2 SLP223 T01670117 10167 20128 58004=
201406072253 METAR KCLM 072253Z AUTO 31012G17KT 10SM CLR 16/11 A3020 RMK AO2 SLP228 T01610111=
201406072153 METAR KCLM 072153Z AUTO VRB06KT 10SM CLR 16/11 A3020 RMK AO2 SLP227 T01560111=
201406072115 SPECI KCLM 072115Z AUTO 10SM FEW011 14/11 A3020 RMK AO2 T01440111 $=
201406072053 METAR KCLM 072053Z AUTO 10SM BKN010 14/11 A3020 RMK AO2 CIG 008V012 SLP228 T01440111 51002 $=
201406072034 SPECI KCLM 072034Z AUTO 10SM OVC009 14/11 A3021 RMK AO2 CIG 008V014 T01440106 $=
201406071953 METAR KCLM 071953Z AUTO 10SM BKN010 BKN014 14/11 A3020 RMK AO2 SLP227 T01440106 $=
201406071930 SPECI KCLM 071930Z AUTO 10SM SCT008 SCT013 14/11 A3020 RMK AO2 T01440106 $=
201406071853 METAR KCLM 071853Z AUTO 10SM OVC008 13/10 A3020 RMK AO2 SLP226 T01330100 $=
201406071753 METAR KCLM 071753Z AUTO 10SM OVC006 13/10 A3020 RMK AO2 SLP226 T01280100 10133 20106 51006 $=
201406071710 SPECI KCLM 071710Z AUTO 34007KT 10SM OVC005 12/10 A3020 RMK AO2 T01220100=
201406071653 METAR KCLM 071653Z AUTO 29007KT 10SM OVC004 12/11 A3019 RMK AO2 SLP226 T01220106=
201406071608 SPECI KCLM 071608Z AUTO 31008KT 10SM OVC004 12/10 A3019 RMK AO2 T01220100=
201406071553 METAR KCLM 071553Z AUTO 30010KT 10SM BKN006 13/10 A3019 RMK AO2 SLP222 T01280100=
201406071536 SPECI KCLM 071536Z AUTO 29005KT 10SM OVC005 13/11 A3018 RMK AO2 CIG 003V008 T01280106=
201406071514 SPECI KCLM 071514Z AUTO 30009KT 10SM BKN004 12/10 A3019 RMK AO2 T01170100=
201406071453 METAR KCLM 071453Z AUTO 32007KT 10SM FEW004 12/10 A3018 RMK AO2 SLP219 T01220100 53005=
201406071418 SPECI KCLM 071418Z AUTO 32006KT 10SM SCT003 11/10 A3017 RMK AO2 T01110100=
201406071353 METAR KCLM 071353Z AUTO 31008KT 10SM BKN003 11/09 A3017 RMK AO2 SLP215 T01060094=
201406071253 METAR KCLM 071253Z AUTO 29010KT 10SM OVC004 11/09 A3017 RMK AO2 SLP216 T01060094=
201406071222 SPECI KCLM 071222Z AUTO 29013G18KT 10SM OVC004 11/09 A3017 RMK AO2 T01110094=
201406071153 METAR KCLM 071153Z AUTO 29010KT 10SM OVC006 11/09 A3016 RMK AO2 SLP214 T01110094 10117 20106 53005=
201406071125 SPECI KCLM 071125Z AUTO 29009KT 10SM BKN006 11/09 A3016 RMK AO2 T01060094=
201406071053 METAR KCLM 071053Z AUTO 28008KT 10SM FEW005 11/09 A3015 RMK AO2 SLP211 T01110094=
201406071037 SPECI KCLM 071037Z AUTO 28009KT 10SM SCT005 11/09 A3015 RMK AO2 T01110094=
201406070953 METAR KCLM 070953Z AUTO 28008KT 10SM OVC006 11/10 A3015 RMK AO2 CIG 005V009 SLP209 T01110100=
201406070853 METAR KCLM 070853Z AUTO 29008KT 10SM OVC006 11/10 A3015 RMK AO2 SLP209 T01110100 53001=
201406070828 SPECI KCLM 070828Z AUTO 29006KT 10SM BKN006 11/10 A3015 RMK AO2 T01110100=
201406070800 SPECI KCLM 070800Z AUTO 28010KT 10SM FEW006 11/09 A3014 RMK AO2 T01110094=
201406070753 METAR KCLM 070753Z AUTO 28010KT 10SM CLR 11/09 A3014 RMK AO2 SLP206 T01110094 401830061=
201406070653 METAR KCLM 070653Z AUTO 27013G19KT 10SM CLR 12/09 A3014 RMK AO2 SLP205 T01170094=
201406070553 METAR KCLM 070553Z AUTO 26007KT 10SM CLR 11/09 A3014 RMK AO2 SLP208 T01110094 10178 20111 53005=
201406070453 METAR KCLM 070453Z AUTO 31009KT 10SM CLR 12/09 A3014 RMK AO2 SLP205 T01170094=
201406070353 METAR KCLM 070353Z AUTO 29011G17KT 10SM CLR 13/09 A3013 RMK AO2 SLP203 T01280094=
201406070253 METAR KCLM 070253Z AUTO 28009G16KT 10SM CLR 14/09 A3013 RMK AO2 SLP203 T01440094 51001=
201406070153 METAR KCLM 070153Z AUTO 29010G17KT 10SM CLR 16/09 A3013 RMK AO2 SLP203 T01560089=
201406070053 METAR KCLM 070053Z AUTO 30009G16KT 10SM CLR 16/09 A3013 RMK AO2 SLP204 T01560089=
201406062353 METAR KCLM 062353Z AUTO 30010G22KT 10SM CLR 17/08 A3013 RMK AO2 SLP203 T01670078 10183 20144 56005=
201406062253 METAR KCLM 062253Z AUTO 31011G18KT 10SM CLR 17/09 A3014 RMK AO2 SLP204 T01720094=
201406062153 METAR KCLM 062153Z AUTO 34007KT 10SM CLR 18/09 A3013 RMK AO2 SLP204 T01780094=
201406062053 METAR KCLM 062053Z AUTO 34006KT 10SM CLR 17/09 A3014 RMK AO2 SLP207 T01670094 57002=
201406061953 METAR KCLM 061953Z AUTO 01004KT 10SM CLR 16/08 A3015 RMK AO2 SLP208 T01610083=
201406061853 METAR KCLM 061853Z AUTO 34004KT 10SM CLR 16/09 A3015 RMK AO2 SLP209 T01560089=
201406061753 METAR KCLM 061753Z AUTO 36006KT 10SM CLR 14/09 A3015 RMK AO2 SLP210 T01440094 10150 20061 53002 $=
201406061653 METAR KCLM 061653Z AUTO 35004KT 10SM CLR 14/10 A3015 RMK AO2 SLP208 T01390100=
201406061553 METAR KCLM 061553Z AUTO VRB04KT 10SM CLR 14/10 A3014 RMK AO2 SLP207 T01390100=
201406061453 METAR KCLM 061453Z AUTO 00000KT 10SM CLR 13/08 A3014 RMK AO2 SLP207 T01330083 53003=
201406061353 METAR KCLM 061353Z AUTO 00000KT 10SM CLR 12/08 A3014 RMK AO2 SLP205 T01170078=
201406061253 METAR KCLM 061253Z AUTO 00000KT 10SM CLR 07/06 A3013 RMK AO2 SLP204 T00720056=
201406061153 METAR KCLM 061153Z AUTO 00000KT 10SM CLR 08/06 A3013 RMK AO2 SLP204 T00780056 10133 20078 53003=
201406061053 METAR KCLM 061053Z AUTO VRB03KT 10SM CLR 09/07 A3013 RMK AO2 SLP202 T00890067=
201406060953 METAR KCLM 060953Z AUTO 30007KT 10SM CLR 10/08 A3012 RMK AO2 SLP200 T01000078=
201406060853 METAR KCLM 060853Z AUTO 32006KT 10SM CLR 11/08 A3012 RMK AO2 SLP200 T01060078 55000=
201406060753 METAR KCLM 060753Z AUTO 30009KT 10SM CLR 12/07 A3012 RMK AO2 SLP199 T01220072 402060056=
201406060653 METAR KCLM 060653Z AUTO 26007KT 10SM CLR 12/07 A3012 RMK AO2 SLP199 T01170072=
201406060553 METAR KCLM 060553Z AUTO 29007KT 10SM CLR 11/07 A3012 RMK AO2 SLP200 T01110072 10200 20106 53002=
201406060453 METAR KCLM 060453Z AUTO 26005KT 10SM CLR 11/08 A3012 RMK AO2 SLP199 T01110078=
201406060353 METAR KCLM 060353Z AUTO 26006KT 10SM CLR 12/08 A3011 RMK AO2 SLP197 T01220083=
201406060253 METAR KCLM 060253Z AUTO 30005KT 10SM CLR 14/08 A3012 RMK AO2 SLP198 T01390083 55000=
201406060153 METAR KCLM 060153Z AUTO 30008KT 10SM CLR 15/08 A3011 RMK AO2 SLP197 T01500078=
201406060053 METAR KCLM 060053Z AUTO 31007KT 10SM CLR 17/08 A3011 RMK AO2 SLP198 T01720078=
201406052353 METAR KCLM 052353Z AUTO VRB03KT 10SM CLR 20/06 A3012 RMK AO2 SLP199 T02000056 10206 20161 58012=
201406052253 METAR KCLM 052253Z AUTO VRB05KT 10SM CLR 19/05 A3013 RMK AO2 SLP204 T01940050=
201406052153 METAR KCLM 052153Z AUTO 07006KT 10SM CLR 19/05 A3014 RMK AO2 SLP208 T01940050=
201406052053 METAR KCLM 052053Z AUTO 10007KT 10SM CLR 18/06 A3015 RMK AO2 SLP210 T01830061 58006=
201406051953 METAR KCLM 051953Z AUTO 08008KT 10SM CLR 17/06 A3016 RMK AO2 SLP213 T01720061=
201406051853 METAR KCLM 051853Z AUTO 08008KT 10SM CLR 17/07 A3016 RMK AO2 SLP214 T01670072=
201406051753 METAR KCLM 051753Z AUTO 10006KT 10SM CLR 16/08 A3017 RMK AO2 SLP216 T01610078 10161 20056 53001=
201406051653 METAR KCLM 051653Z AUTO 03004KT 10SM CLR 14/08 A3017 RMK AO2 SLP217 T01390083=
201406051553 METAR KCLM 051553Z AUTO 35004KT 10SM CLR 13/08 A3016 RMK AO2 SLP215 T01280078=
201406051453 METAR KCLM 051453Z AUTO 00000KT 10SM CLR 12/08 A3017 RMK AO2 SLP215 T01220078 53009=
201406051353 METAR KCLM 051353Z AUTO 00000KT 10SM CLR 10/08 A3016 RMK AO2 SLP214 T01000078=
201406051253 METAR KCLM 051253Z AUTO 23005KT 10SM CLR 07/05 A3014 RMK AO2 SLP209 T00670050=
201406051153 METAR KCLM 051153Z AUTO 24004KT 10SM CLR 07/05 A3014 RMK AO2 SLP207 T00670050 10106 20061 55000=
201406051053 METAR KCLM 051053Z AUTO 23004KT 10SM CLR 07/04 A3013 RMK AO2 SLP204 T00670044=
201406050953 METAR KCLM 050953Z AUTO 23004KT 10SM CLR 08/06 A3013 RMK AO2 SLP205 T00780061=
201406050853 METAR KCLM 050853Z AUTO 23005KT 10SM CLR 08/06 A3014 RMK AO2 SLP207 T00780061 53003=
201406050753 METAR KCLM 050753Z AUTO 28005KT 10SM CLR 08/07 A3014 RMK AO2 SLP206 T00830067 401610083=
201406050653 METAR KCLM 050653Z AUTO 27007KT 10SM CLR 10/07 A3013 RMK AO2 SLP204 T01000072=
201406050553 METAR KCLM 050553Z AUTO 25007KT 10SM CLR 10/07 A3013 RMK AO2 SLP204 T01000072 10156 20089 50001=
201406050453 METAR KCLM 050453Z AUTO 26007KT 10SM CLR 11/07 A3014 RMK AO2 SLP206 T01060072=
201406050353 METAR KCLM 050353Z AUTO 26007KT 10SM CLR 12/08 A3013 RMK AO2 SLP201 T01170078=
201406050253 METAR KCLM 050253Z AUTO 31007KT 10SM CLR 13/08 A3013 RMK AO2 SLP202 T01280083 58001=
201406050153 METAR KCLM 050153Z AUTO 31010KT 10SM CLR 14/08 A3013 RMK AO2 SLP202 T01390083=
201406050053 METAR KCLM 050053Z AUTO 31011G21KT 10SM CLR 14/09 A3014 RMK AO2 SLP207 T01390089=
201406042353 METAR KCLM 042353Z AUTO 32010KT 10SM CLR 15/09 A3013 RMK AO2 SLP203 T01500089 10161 20133 58001 $=
201406042253 METAR KCLM 042253Z AUTO 30008KT 10SM BKN033 15/09 A3014 RMK AO2 SLP208 T01500089=
201406042153 METAR KCLM 042153Z AUTO VRB06KT 10SM OVC031 15/09 A3013 RMK AO2 SLP204 T01500094=
201406042148 SPECI KCLM 042148Z AUTO VRB05KT 10SM OVC031 15/09 A3013 RMK AO2=
201406042053 METAR KCLM 042053Z AUTO VRB03KT 10SM OVC029 16/09 A3013 RMK AO2 SLP202 T01560094 58003=
201406041953 METAR KCLM 041953Z AUTO 36004KT 10SM BKN031 15/09 A3014 RMK AO2 SLP205 T01500089=
201406041853 METAR KCLM 041853Z AUTO 01005KT 10SM OVC024 13/09 A3014 RMK AO2 SLP206 T01330089=
201406041753 METAR KCLM 041753Z AUTO VRB04KT 10SM OVC024 14/09 A3014 RMK AO2 SLP205 T01390094 10139 20100 57001=
201406041653 METAR KCLM 041653Z AUTO 36005KT 10SM OVC024 13/09 A3014 RMK AO2 SLP206 T01330094=
201406041632 SPECI KCLM 041632Z AUTO VRB04KT 10SM SCT014 OVC024 14/10 A3014 RMK AO2 T01390100=
201406041553 METAR KCLM 041553Z AUTO 35003KT 10SM OVC013 13/09 A3014 RMK AO2 SLP206 T01330094=
201406041453 METAR KCLM 041453Z AUTO 27006KT 10SM OVC011 12/09 A3014 RMK AO2 SLP206 T01220094 53006=
201406041411 SPECI KCLM 041411Z AUTO 28005KT 10SM BKN012 12/09 A3013 RMK AO2 T01170094=
201406041353 METAR KCLM 041353Z AUTO 28006KT 10SM CLR 12/09 A3013 RMK AO2 SLP202 T01170094=
201406041328 SPECI KCLM 041328Z AUTO 26007KT 10SM SCT012 11/09 A3012 RMK AO2 T01110094=
201406041253 METAR KCLM 041253Z AUTO 26004KT 10SM OVC012 11/09 A3012 RMK AO2 SLP200 T01060094=
201406041153 METAR KCLM 041153Z AUTO 26006KT 10SM BKN011 10/09 A3012 RMK AO2 SLP200 T01000089 10111 20094 51003=
201406041148 SPECI KCLM 041148Z AUTO 26005KT 10SM BKN010 10/08 A3012 RMK AO2=
201406041053 METAR KCLM 041053Z AUTO 26005KT 10SM CLR 09/08 A3012 RMK AO2 SLP199 T00940078=
201406040953 METAR KCLM 040953Z AUTO 27007KT 10SM CLR 10/08 A3011 RMK AO2 SLP197 T01000083=
201406040853 METAR KCLM 040853Z AUTO 26004KT 10SM CLR 10/08 A3011 RMK AO2 SLP197 T01000083 53005=
201406040753 METAR KCLM 040753Z AUTO 00000KT 10SM CLR 10/08 A3010 RMK AO2 SLP193 T01000083 401560078=
201406040653 METAR KCLM 040653Z AUTO 25005KT 10SM CLR 10/08 A3010 RMK AO2 SLP193 T01000083=
201406040553 METAR KCLM 040553Z AUTO 27007KT 10SM CLR 11/09 A3009 RMK AO2 SLP192 T01110094 10156 20106 53011=
201406040453 METAR KCLM 040453Z AUTO 27005KT 10SM CLR 11/09 A3009 RMK AO2 SLP189 T01110089=
201406040353 METAR KCLM 040353Z AUTO 29005KT 10SM CLR 12/09 A3007 RMK AO2 SLP183 T01220089=
201406040253 METAR KCLM 040253Z AUTO 29004KT 10SM CLR 14/09 A3006 RMK AO2 SLP180 T01390094 51005=
201406040153 METAR KCLM 040153Z AUTO 30006KT 10SM CLR 14/10 A3006 RMK AO2 SLP179 T01440100=
201406040053 METAR KCLM 040053Z AUTO 33006KT 10SM CLR 15/10 A3006 RMK AO2 SLP179 T01500100=
201406032353 METAR KCLM 032353Z AUTO 34003KT 10SM CLR 16/10 A3005 RMK AO2 SLP176 T01560100 10156 20128 56001=
201406032253 METAR KCLM 032253Z AUTO 36004KT 10SM CLR 15/11 A3005 RMK AO2 SLP176 T01500106=
201406032153 METAR KCLM 032153Z AUTO 04004KT 10SM CLR 15/10 A3005 RMK AO2 SLP174 T01500100=
201406032113 SPECI KCLM 032113Z AUTO VRB05KT 10SM SCT014 15/10 A3005 RMK AO2 T01500100=
201406032053 METAR KCLM 032053Z AUTO VRB05KT 10SM OVC014 14/10 A3005 RMK AO2 SLP177 T01440100 51005=
201406032013 SPECI KCLM 032013Z AUTO 03005KT 10SM OVC014 13/09 A3005 RMK AO2 T01330094=
201406031953 METAR KCLM 031953Z AUTO VRB05KT 10SM OVC015 13/09 A3005 RMK AO2 SLP175 T01330094=
201406031948 SPECI KCLM 031948Z AUTO VRB06KT 10SM OVC015 14/09 A3004 RMK AO2=
201406031853 METAR KCLM 031853Z AUTO VRB05KT 10SM OVC011 14/10 A3003 RMK AO2 SLP171 T01440100=
201406031753 METAR KCLM 031753Z AUTO 04003KT 10SM OVC010 13/09 A3003 RMK AO2 SLP169 T01280094 10128 20078 51017=
201406031736 SPECI KCLM 031736Z AUTO 09003KT 10SM OVC010 12/09 A3002 RMK AO2 T01220094=
201406031653 METAR KCLM 031653Z AUTO 01004KT 10SM OVC009 12/09 A3001 RMK AO2 SLP165 T01170089=
201406031553 METAR KCLM 031553Z AUTO 01003KT 10SM OVC008 11/09 A3000 RMK AO2 SLP160 T01110089=
201406031453 METAR KCLM 031453Z AUTO 00000KT 10SM OVC009 12/09 A2998 RMK AO2 SLP151 T01220094 51006=
201406031450 SPECI KCLM 031450Z AUTO 00000KT 10SM OVC009 12/09 A2998 RMK AO2=
201406031435 SPECI KCLM 031435Z AUTO 00000KT 10SM OVC010 12/09 A2998 RMK AO2 CIG 008V011 T01170094=
201406031420 SPECI KCLM 031420Z AUTO 31003KT 10SM BKN008 12/09 A2997 RMK AO2 T01170094=
201406031408 SPECI KCLM 031408Z AUTO 29005KT 10SM FEW008 12/09 A2997 RMK AO2 T01170094=
201406031353 METAR KCLM 031353Z AUTO 00000KT 10SM CLR 11/09 A2997 RMK AO2 SLP147 T01110094=
201406031308 SPECI KCLM 031308Z AUTO 00000KT 10SM SCT013 10/09 A2996 RMK AO2 T01000089=
201406031253 METAR KCLM 031253Z AUTO 22004KT 10SM BKN013 09/08 A2996 RMK AO2 SLP145 T00940083=
201406031222 SPECI KCLM 031222Z AUTO 25005KT 10SM BKN014 09/08 A2996 RMK AO2 T00890078=
201406031153 METAR KCLM 031153Z AUTO 26004KT 9SM CLR 08/07 A2994 RMK AO2 SLP139 T00830072 10106 20078 51014=
201406031053 METAR KCLM 031053Z AUTO 21004KT 10SM CLR 09/08 A2993 RMK AO2 SLP134 T00940078=
201406030953 METAR KCLM 030953Z AUTO 28005KT 10SM CLR 10/08 A2992 RMK AO2 SLP133 T01000083=
201406030853 METAR KCLM 030853Z AUTO 29010KT 10SM CLR 10/09 A2990 RMK AO2 SLP125 T01000089 53002=
201406030753 METAR KCLM 030753Z AUTO 30010KT 10SM CLR 10/09 A2989 RMK AO2 SLP124 T01000089 401720094=
201406030653 METAR KCLM 030653Z AUTO 30009KT 10SM CLR 10/09 A2989 RMK AO2 SLP122 T01000089=
201406030602 SPECI KCLM 030602Z AUTO 29007KT 9SM FEW005 10/09 A2990 RMK AO2 T01000089=
201406030553 METAR KCLM 030553Z AUTO 29008KT 10SM CLR 11/09 A2989 RMK AO2 SLP123 T01060089 10172 20106 51006=
201406030453 METAR KCLM 030453Z AUTO 29008KT 10SM CLR 11/09 A2989 RMK AO2 SLP121 T01060094=
201406030353 METAR KCLM 030353Z AUTO 28009KT 10SM CLR 12/09 A2988 RMK AO2 SLP120 T01170094=
201406030253 METAR KCLM 030253Z AUTO 29009KT 10SM CLR 14/10 A2988 RMK AO2 SLP118 T01390100 55004=
201406030153 METAR KCLM 030153Z AUTO 29012KT 10SM CLR 16/11 A2987 RMK AO2 SLP116 T01610111=
201406030053 METAR KCLM 030053Z AUTO 30008KT 10SM CLR 17/11 A2988 RMK AO2 SLP118 T01670111=
201406022353 METAR KCLM 022353Z AUTO 33006KT 10SM CLR 17/11 A2989 RMK AO2 SLP121 T01670106 10172 20144 58012=
201406022253 METAR KCLM 022253Z AUTO 32006KT 10SM CLR 16/11 A2991 RMK AO2 SLP127 T01610106=
201406022153 METAR KCLM 022153Z AUTO 30008KT 10SM CLR 16/11 A2992 RMK AO2 SLP131 T01560106=
201406022053 METAR KCLM 022053Z AUTO VRB03KT 10SM CLR 15/11 A2993 RMK AO2 SLP134 T01500106 58012=
201406021953 METAR KCLM 021953Z AUTO 36005KT 10SM CLR 14/10 A2994 RMK AO2 SLP138 T01440100=
201406021853 METAR KCLM 021853Z AUTO 05004KT 10SM CLR 16/10 A2995 RMK AO2 SLP142 T01610100=
201406021753 METAR KCLM 021753Z AUTO 05004KT 10SM CLR 16/10 A2996 RMK AO2 SLP146 T01560100 10156 20100 58008=
201406021653 METAR KCLM 021653Z AUTO VRB03KT 10SM CLR 14/11 A2997 RMK AO2 SLP149 T01440106=
201406021553 METAR KCLM 021553Z AUTO 00000KT 10SM SCT004 12/10 A2998 RMK AO2 SLP154 T01170100=
201406021453 METAR KCLM 021453Z AUTO 00000KT 6SM BR OVC002 11/09 A2999 RMK AO2 SLP155 T01060094 58001=
201406021432 SPECI KCLM 021432Z AUTO 00000KT 3SM BR OVC002 10/09 A2999 RMK AO2 T01000094=
201406021404 SPECI KCLM 021404Z AUTO 29004KT 1 1/4SM BR OVC002 10/09 A2999 RMK AO2 T01000094=
201406021353 METAR KCLM 021353Z AUTO 28003KT 3/4SM BR VV002 10/09 A3000 RMK AO2 SLP157 T01000094=
201406021316 SPECI KCLM 021316Z AUTO 27005KT 1/2SM FG VV002 10/09 A2999 RMK AO2 T01000089=
201406021303 SPECI KCLM 021303Z AUTO 30003KT 3/4SM BR OVC001 10/09 A2999 RMK AO2 T01000089=
201406021253 METAR KCLM 021253Z AUTO 29004KT 1SM BR OVC001 10/09 A2999 RMK AO2 SLP156 T01000089=
201406021229 SPECI KCLM 021229Z AUTO 27005KT 1 3/4SM BR OVC002 10/09 A2999 RMK AO2 T01000089=
201406021153 METAR KCLM 021153Z AUTO 28004KT 8SM OVC003 10/09 A2999 RMK AO2 SLP155 T01000089 10106 20094 55004=
201406021134 SPECI KCLM 021134Z AUTO 27005KT 9SM BKN004 09/08 A2999 RMK AO2 T00940083=
201406021053 METAR KCLM 021053Z AUTO 28004KT 8SM FEW004 09/08 A2999 RMK AO2 SLP155 T00940083=
201406021034 SPECI KCLM 021034Z AUTO 27004KT 10SM FEW004 10/09 A2999 RMK AO2 T01000089=
201406020953 METAR KCLM 020953Z AUTO 27005KT 10SM OVC004 11/09 A2999 RMK AO2 SLP157 T01060094=
201406020853 METAR KCLM 020853Z AUTO 28005KT 10SM OVC004 11/09 A3000 RMK AO2 SLP159 T01060094 55001=
201406020841 SPECI KCLM 020841Z AUTO 29008KT 10SM OVC004 11/09 A3000 RMK AO2 T01060094=
201406020812 SPECI KCLM 020812Z AUTO 28006KT 10SM BKN005 10/09 A3000 RMK AO2 T01000089=
201406020753 METAR KCLM 020753Z AUTO 29008KT 10SM BKN003 11/09 A3000 RMK AO2 CIG 002V006 SLP158 T01060094 401670089=
201406020653 METAR KCLM 020653Z AUTO 28008KT 9SM BKN004 11/09 A2999 RMK AO2 SLP156 T01060094=
201406020644 SPECI KCLM 020644Z AUTO 30007KT 9SM BKN004 11/09 A3000 RMK AO2 T01060094=
201406020625 SPECI KCLM 020625Z AUTO 30006KT 10SM FEW004 11/09 A3000 RMK AO2 T01060094=
201406020553 METAR KCLM 020553Z AUTO 28008KT 10SM CLR 11/09 A3000 RMK AO2 SLP160 T01060094 10167 20106 56000=
201406020453 METAR KCLM 020453Z AUTO 29008KT 10SM CLR 11/09 A3001 RMK AO2 SLP161 T01110094=
201406020353 METAR KCLM 020353Z AUTO 29006KT 10SM CLR 12/10 A3000 RMK AO2 SLP158 T01220100=
201406020253 METAR KCLM 020253Z AUTO 29009KT 10SM CLR 14/10 A3000 RMK AO2 SLP160 T01390100 56011=
201406020153 METAR KCLM 020153Z AUTO VRB04KT 10SM CLR 15/10 A3000 RMK AO2 SLP160 T01500100=
201406020053 METAR KCLM 020053Z AUTO 30006KT 10SM CLR 16/11 A3001 RMK AO2 SLP163 T01610106=
201406012353 METAR KCLM 012353Z AUTO 29008KT 10SM CLR 16/10 A3004 RMK AO2 SLP171 T01610100 10167 20139 56015=
201406012253 METAR KCLM 012253Z AUTO 32007KT 10SM CLR 17/11 A3005 RMK AO2 SLP177 T01670106=
201406012153 METAR KCLM 012153Z AUTO 35005KT 10SM CLR 15/10 A3006 RMK AO2 SLP179 T01500100=
201406012053 METAR KCLM 012053Z AUTO 34005KT 10SM CLR 14/10 A3008 RMK AO2 SLP186 T01440100 55005=
201406011953 METAR KCLM 011953Z AUTO 02006KT 10SM CLR 14/10 A3008 RMK AO2 SLP186 T01440100=
201406011853 METAR KCLM 011853Z AUTO VRB04KT 10SM CLR 15/10 A3010 RMK AO2 SLP191 T01500100=
201406011753 METAR KCLM 011753Z AUTO VRB03KT 10SM CLR 14/09 A3010 RMK AO2 SLP191 T01390094 10150 20089 58002=
201406011653 METAR KCLM 011653Z AUTO 36005KT 10SM CLR 14/09 A3010 RMK AO2 SLP193 T01390094=
201406011553 METAR KCLM 011553Z AUTO 01004KT 10SM CLR 14/09 A3010 RMK AO2 SLP193 T01390094=
201406011453 METAR KCLM 011453Z AUTO 00000KT 10SM CLR 13/09 A3010 RMK AO2 SLP194 T01280094 51004=
201406011353 METAR KCLM 011353Z AUTO 25003KT 10SM CLR 11/09 A3010 RMK AO2 SLP194 T01110089=
201406011253 METAR KCLM 011253Z AUTO 25004KT 10SM CLR 09/08 A3010 RMK AO2 SLP191 T00940078=
201406011153 METAR KCLM 011153Z AUTO 23005KT 10SM CLR 09/07 A3009 RMK AO2 SLP190 T00890072 10117 20089 50004=
201406011053 METAR KCLM 011053Z AUTO 28006KT 10SM CLR 10/08 A3009 RMK AO2 SLP190 T01000078=
201406010953 METAR KCLM 010953Z AUTO 29007KT 10SM FEW070 10/08 A3009 RMK AO2 SLP188 T01000083=
201406010853 METAR KCLM 010853Z AUTO 29007KT 10SM CLR 11/08 A3008 RMK AO2 SLP186 T01060083 51004=
201406010753 METAR KCLM 010753Z AUTO 29009KT 10SM CLR 11/09 A3008 RMK AO2 SLP185 T01060089 401830072=
201406010653 METAR KCLM 010653Z AUTO 29008KT 10SM CLR 11/09 A3007 RMK AO2 SLP184 T01110089=
201406010553 METAR KCLM 010553Z AUTO 30009KT 10SM CLR 12/09 A3007 RMK AO2 SLP182 T01170089 10178 20111 50005=
201406010453 METAR KCLM 010453Z AUTO 29006KT 10SM CLR 11/09 A3008 RMK AO2 SLP184 T01110089=
201406010353 METAR KCLM 010353Z AUTO 30012KT 10SM CLR 13/09 A3006 RMK AO2 SLP179 T01280094=
201406010253 METAR KCLM 010253Z AUTO 29011KT 10SM CLR 14/09 A3005 RMK AO2 SLP177 T01390094 57003=
201406010153 METAR KCLM 010153Z AUTO 31007KT 10SM CLR 16/10 A3006 RMK AO2 SLP178 T01560100=
201406010053 METAR KCLM 010053Z AUTO 31009KT 10SM CLR 17/11 A3006 RMK AO2 SLP179 T01670106=

# No short TAF reports from KCLM in databse.

###################################
#  large TAF from KCLM
###################################
201406302320 TAF KCLM 302320Z 0100/0124 06005KT P6SM SKC FM010300 28005KT P6SM
                       SKC FM011000 VRB04KT P6SM SKC FM011600 06005KT
                       P6SM SKC=
201406301720 TAF KCLM 301720Z 3018/0118 02007KT P6SM SKC FM302000 35005KT P6SM
                       SKC FM010100 29005KT P6SM SKC FM011300 VRB04KT
                       P6SM SKC FM011600 06005KT P6SM SKC=
201406301125 TAF KCLM 301125Z 3012/0112 28005KT P6SM SCT006
                      TEMPO 3012/3016 BKN006 FM301800 02007KT P6SM
                       SKC FM302000 35007KT P6SM SKC FM010100 29005KT
                       P6SM SKC=
201406300914 TAF AMD KCLM 300914Z 3009/0106 28005KT P6SM SCT010
                      TEMPO 3011/3015 BKN010 FM301800 02007KT P6SM
                       SKC FM010100 29007KT P6SM SKC=
201406300520 TAF KCLM 300520Z 3006/0106 28004KT P6SM SKC FM301200 28004KT P6SM
                       FEW009 FM301800 02007KT P6SM SKC FM010100
                       29007KT P6SM SKC=
201406300317 TAF AMD KCLM 300317Z 3003/3024 28010KT P6SM BKN080 FM300600 28006KT
                       P6SM SCT080 FM300900 28006KT P6SM BKN011
                       FM301600 VRB03KT P6SM SCT020 FM301800 VRB03KT
                       P6SM SKC=
201406292322 TAF KCLM 292322Z 3000/3024 30006KT P6SM VCSH SCT030 BKN070 FM300200
                       28010KT P6SM SCT040 SCT070 FM300900 28006KT
                       P6SM BKN011 FM301600 VRB03KT P6SM SCT020
                       FM301800 VRB03KT P6SM SKC=
201406292019 TAF AMD KCLM 292019Z 2920/3018 30006KT P6SM SCT030 BKN060
                      TEMPO 2920/2924 -SHRA BKN030 OVC050 FM300200
                       28010KT P6SM SCT040 SCT060 FM300900 28006KT
                       P6SM BKN011 FM301600 VRB03KT P6SM SCT020=
201406291720 TAF KCLM 291720Z 2918/3018 30006KT P6SM SCT018 BKN060
                      TEMPO 2918/2920 -SHRA BKN018 OVC050 FM292000
                       30006KT P6SM BKN035 BKN060 FM300200 28010KT
                       P6SM SCT040 SCT060 FM300900 28006KT P6SM
                       BKN011 FM301600 VRB03KT P6SM SCT020=
201406291614 TAF AMD KCLM 291614Z 2916/3012 31006KT P6SM VCSH BKN008 BKN015
                       OVC060
                      TEMPO 2916/2918 SCT008 BKN020 OVC040 FM291800
                       32009KT P6SM VCSH SCT035 BKN060 FM300200
                       28009KT P6SM SCT060 FM300600 28007KT P6SM
                       FEW022 FM300900 28005KT P6SM BKN010=
201406291128 TAF KCLM 291128Z 2912/3012 VRB03KT P6SM VCSH SCT020 OVC060
                      TEMPO 2914/2918 -SHRA BKN020 OVC040 FM291800
                       32009KT P6SM VCSH SCT035 BKN060 FM300200
                       28009KT P6SM SCT060 FM300600 28007KT P6SM
                       FEW022 FM300900 28005KT P6SM BKN010=
201406290909 TAF AMD KCLM 290909Z 2909/3006 VRB03KT P6SM VCSH FEW009 SCT015
                       SCT090
                      TEMPO 2909/2913 FEW007 BKN015 BKN090 FM291800
                       32006KT P6SM VCSH BKN020 BKN050 FM292000
                       32008KT P6SM VCSH BKN035 BKN050
                      PROB30 2920/3002 -SHRA FM300200 29008KT P6SM
                       SCT035 BKN060=
201406290535 TAF KCLM 290535Z 2906/3006 VRB03KT P6SM VCSH SCT012 OVC050
                      TEMPO 2906/2909 BKN012 OVC050 FM290900 VRB03KT
                       P6SM VCSH SCT007 OVC012
                      TEMPO 2909/2913 BKN007 OVC012 FM291800 32006KT
                       P6SM VCSH BKN020 BKN050 FM292000 32008KT
                       P6SM VCSH BKN035 BKN050
                      PROB30 2920/3002 -SHRA FM300200 29008KT P6SM
                       SCT035 BKN060=
201406290314 TAF AMD KCLM 290314Z 2903/2924 28009KT P6SM VCSH SCT015 BKN070
                       TEMPO 2903/2906 BKN015 OVC070 FM290600 26005KT
                       P6SM VCSH OVC018 FM291100 19006KT P6SM -SHRA
                       SCT008 OVC012
                      TEMPO 2911/2915 2SM BR OVC008 FM292100 34005KT
                       P6SM OVC012=
201406290211 TAF AMD KCLM 290211Z 2902/2924 28009KT P6SM VCSH FEW011 SCT035
                       BKN070
                      TEMPO 2902/2906 FEW011 BKN035 OVC070 FM290600
                       26005KT P6SM VCSH OVC018 FM291100 19006KT
                       P6SM -SHRA SCT008 OVC012
                      TEMPO 2911/2915 2SM BR OVC008 FM292100 34005KT
                       P6SM OVC012=
201406282320 TAF KCLM 282320Z 2900/2924 30008KT P6SM VCSH SCT008 BKN022 BKN070
                       TEMPO 2900/2902 -SHRA BKN008 OVC022 FM290600
                       26005KT P6SM VCSH OVC018 FM291100 19006KT
                       P6SM -SHRA SCT008 OVC012
                      TEMPO 2911/2915 2SM BR OVC008 FM292100 34005KT
                       P6SM OVC012=
201406281720 TAF KCLM 281720Z 2818/2918 VRB04KT P6SM -SHRA SCT008 BKN025 BKN070
                       TEMPO 2818/2821 -SHRA BKN008 BKN025 OVC070
                       FM282100 32005KT P6SM VCSH BKN028 BKN070
                       FM290000 29009KT P6SM VCSH BKN035 BKN070
                       FM290600 26005KT P6SM VCSH OVC025 FM291100
                       19006KT P6SM -SHRA SCT008 OVC018
                      TEMPO 2911/2915 2SM BR OVC008=
201406281126 TAF KCLM 281126Z 2812/2912 VRB03KT P6SM VCSH SCT020 OVC050
                      TEMPO 2812/2814 6SM SHRA BKN020 OVC050 FM281400
                       VRB03KT P6SM -SHRA OVC020 FM281900 32005KT
                       P6SM VCSH BKN028 BKN050 FM290000 29009KT
                       P6SM VCSH BKN035 BKN060 FM290600 26005KT
                       P6SM VCSH OVC022=
201406280534 TAF KCLM 280534Z 2806/2906 VRB03KT P6SM VCSH SCT018 BKN060 OVC090
                       TEMPO 2806/2809 -SHRA BKN018 OVC050 FM280900
                       VRB03KT P6SM VCSH OVC015 FM281800 32005KT
                       P6SM VCSH BKN022 BKN050
                      PROB30 2818/2821 -SHRA FM282100 32005KT P6SM
                       VCSH SCT030 BKN050
                      PROB30 2821/2901 -SHRA FM290200 28009KT P6SM
                       VCSH FEW035 BKN050=
201406280420 TAF AMD KCLM 280420Z 2804/2824 VRB05KT P6SM VCSH SCT020 BKN050
                       OVC110
                      TEMPO 2804/2806 -SHRA BKN020 OVC050 FM280600
                       26006KT P6SM -SHRA BKN015 OVC030 FM281800
                       32006KT P6SM VCSH SCT020 BKN035=
201406280308 TAF AMD KCLM 280308Z 2803/2824 VRB05KT P6SM VCSH SCT011 BKN050
                       OVC110
                      TEMPO 2803/2806 -SHRA FM280600 26006KT P6SM
                       -SHRA BKN015 OVC030 FM281800 32006KT P6SM
                       VCSH SCT020 BKN035=
201406280130 TAF AMD KCLM 280130Z 2802/2824 28010KT P6SM VCSH SCT011 BKN050
                       OVC110
                      TEMPO 2802/2805 BKN011 OVC050 FM280500 26006KT
                       P6SM -SHRA BKN015 OVC030 FM281800 32006KT
                       P6SM VCSH SCT020 BKN035=
201406272336 TAF KCLM 272336Z 2800/2824 31006KT P6SM VCSH OVC010 FM280500 26006KT
                       P6SM -SHRA BKN015 OVC030 FM281800 32006KT
                       P6SM VCSH SCT020 BKN035=
201406272157 TAF AMD KCLM 272157Z 2722/2818 30010KT P6SM -SHRA SCT009 BKN035
                       BKN050
                      TEMPO 2722/2724 BKN009 FM280000 28007KT P6SM
                       VCSH SCT010 BKN030 BKN050 FM280800 VRB03KT
                       P6SM -SHRA OVC015=
201406271724 TAF KCLM 271724Z 2718/2818 27005KT P6SM -SHRA SCT015 OVC060 FM272200
                       32006KT P6SM VCSH SCT030 BKN050 FM280500
                       28007KT P6SM VCSH FEW018 BKN030 BKN050 FM280800
                       VRB03KT P6SM -SHRA OVC015=
201406271148 TAF KCLM 271148Z 2712/2812 VRB03KT P6SM FEW022 SCT050 OVC080 FM271400
                       VRB03KT P6SM -RA SCT020 OVC050
                      TEMPO 2714/2718 5SM -RA BR BKN020 OVC050
                       FM271800 VRB03KT P6SM -SHRA BKN025 OVC050
                       FM272200 32005KT P6SM -SHRA SCT030 BKN050
                       FM280300 28007KT P6SM VCSH FEW018 SCT030
                       BKN050 FM280600 VRB03KT P6SM VCSH OVC018=
201406270901 TAF AMD KCLM 270901Z 2709/2806 VRB03KT P6SM -RA SCT025 OVC050 FM271200
                       VRB03KT 6SM -RA BR FEW005 OVC015
                      TEMPO 2712/2716 2SM -RA BR BKN005 OVC015
                       FM271800 VRB03KT P6SM -SHRA BKN015 BKN030
                       OVC050 FM272200 32005KT P6SM VCSH FEW018
                       SCT030 BKN050
                      PROB30 2722/2803 -SHRA FEW018 BKN030 OVC050
                       FM280300 28006KT P6SM VCSH SCT035 BKN050=
201406270538 TAF KCLM 270538Z 2706/2806 VRB03KT P6SM VCSH BKN025 OVC050 FM270800
                       VRB03KT 6SM -RA BR FEW005 OVC015
                      TEMPO 2712/2716 2SM -RA BR BKN005 OVC015
                       FM271800 VRB03KT P6SM -SHRA BKN015 BKN030
                       OVC050 FM272200 32005KT P6SM VCSH FEW018
                       SCT030 BKN050
                      PROB30 2722/2803 -SHRA FEW018 BKN030 OVC050
                       FM280300 28006KT P6SM VCSH SCT035 BKN050=
201406270151 TAF AMD KCLM 270151Z 2702/2724 28013KT P6SM SCT025 OVC070
                      TEMPO 2702/2706 BKN025 OVC070 FM270600 26009KT
                       P6SM BKN025 OVC050 FM271200 VRB04KT P6SM
                       -RA BKN025 OVC050=
201406262320 TAF KCLM 262320Z 2700/2724 31012G20KT P6SM SCT025 BKN050 FM270600
                       29012KT P6SM BKN025 BKN050 FM271200 VRB04KT
                       P6SM -RA BKN025 OVC050=
201406261720 TAF KCLM 261720Z 2618/2718 VRB04KT P6SM SCT008 BKN060 BKN200
                      TEMPO 2618/2621 BKN008 BKN050 FM270000 29012KT
                       P6SM BKN025 BKN060 BKN120 FM271200 VRB04KT
                       P6SM -RA BKN025 OVC050=
201406261223 TAF AMD KCLM 261223Z 2612/2712 VRB03KT P6SM SCT002 BKN090 BKN250
                       TEMPO 2612/2615 3/4SM BR BKN002 BKN090 BKN250
                       FM261500 32005KT P6SM SCT006 BKN090 BKN250
                       TEMPO 2615/2618 BKN006 BKN090 BKN250 FM261900
                       32009KT P6SM SCT050 SCT090 BKN250 FM270100
                       28013KT P6SM SCT050 BKN090 BKN250 FM270600
                       25006KT P6SM SCT050 OVC090
                      PROB30 2706/2712 -RA=
201406261122 TAF KCLM 261122Z 2612/2712 VRB03KT P6SM VCFG SCT002 BKN090 BKN250
                       TEMPO 2612/2615 BKN002 BKN090 BKN250 FM261500
                       32005KT P6SM SCT006 BKN090 BKN250
                      TEMPO 2615/2618 BKN006 BKN090 BKN250 FM261900
                       32009KT P6SM SCT050 SCT090 BKN250 FM270100
                       28013KT P6SM SCT050 BKN090 BKN250 FM270600
                       25006KT P6SM SCT050 OVC090
                      PROB30 2706/2712 -RA=
201406261051 TAF AMD KCLM 261051Z 2611/2706 27005KT P6SM VCFG SCT002 SCT080
                       SCT250
                      TEMPO 2611/2614 2SM BR VV002 FM261800 32009KT
                       P6SM SCT090 BKN250 FM270100 29013KT P6SM
                       SCT025 BKN090 BKN250=
201406260907 TAF AMD KCLM 260907Z 2609/2706 27005KT P6SM SCT080 SCT250
                      TEMPO 2609/2612 BKN080 BKN250 FM261800 32009KT
                       P6SM SCT090 BKN250 FM270100 29013KT P6SM
                       SCT025 BKN090 BKN250=
201406260545 TAF KCLM 260545Z 2606/2706 27005KT P6SM SCT250 FM261800 32009KT
                       P6SM SCT090 BKN250 FM270100 29013KT P6SM
                       SCT025 BKN090 BKN250=
201406260308 TAF AMD KCLM 260308Z 2603/2624 VRB05KT P6SM FEW070 SCT250 FM261200
                       27007KT P6SM SCT010 BKN120 BKN200
                      TEMPO 2612/2616 BKN010 OVC100 FM261800 27012KT
                       P6SM BKN020 BKN050 BKN120=
201406252320 TAF KCLM 252320Z 2600/2624 26006KT P6SM FEW050 BKN200 FM260300
                       27012KT P6SM SCT050 BKN120 BKN200 FM261200
                       27007KT P6SM SCT010 BKN120 BKN200
                      TEMPO 2612/2616 BKN010 OVC100 FM261800 27012KT
                       P6SM BKN020 BKN050 BKN120=
201406251920 TAF AMD KCLM 251920Z 2519/2618 00000KT P6SM SCT022 SCT200
                      TEMPO 2519/2521 BKN022 BKN200 FM260000 28010KT
                       P6SM SCT040 BKN120 BKN200 FM261200 VRB04KT
                       P6SM SCT020 BKN040=
201406251721 TAF KCLM 251721Z 2518/2618 00000KT P6SM SCT005 BKN012
                      TEMPO 2518/2520 5SM BR BKN005 OVC010 FM252200
                       VRB04KT P6SM SCT020 BKN200 FM260000 28010KT
                       P6SM SCT040 BKN120 BKN200 FM261200 VRB04KT
                       P6SM SCT020 BKN040=
201406251501 TAF AMD KCLM 251501Z 2515/2612 00000KT P6SM SCT003 BKN012
                      TEMPO 2515/2518 3SM BR BKN003 FM251800 VRB04KT
                       P6SM SCT020 BKN200 FM260000 28010KT P6SM
                       SCT040 BKN120 BKN200=
201406251243 TAF AMD KCLM 251243Z 2513/2612 30003KT 1/4SM FG VV002
                      TEMPO 2514/2518 3SM BR BKN004 FM251800 35005KT
                       P6SM SCT035 BKN080 BKN250=
201406251120 TAF KCLM 251120Z 2512/2612 34004KT 3/4SM BR VV002
                      TEMPO 2514/2518 3SM BR BKN004 FM251800 35005KT
                       P6SM SCT035 BKN080 BKN250=
201406250905 TAF AMD KCLM 250905Z 2509/2606 31004KT P6SM OVC003 FM251800 35005KT
                       P6SM SCT035 BKN080 BKN250=
201406250800 TAF AMD KCLM 250800Z 2508/2606 30007KT P6SM OVC004 FM251100 27003KT
                       P6SM OVC008 FM251800 35005KT P6SM SCT035
                       BKN080 BKN250=
201406250530 TAF KCLM 250530Z 2506/2606 29007KT P6SM SCT070 FM251100 27003KT
                       P6SM OVC008 FM251800 35005KT P6SM SCT035
                       BKN080 BKN250=
201406242321 TAF KCLM 242321Z 2500/2524 33005KT P6SM BKN060 FM250400 28004KT
                       P6SM SCT200 FM251100 27003KT P6SM BKN015
                       FM251800 35005KT P6SM BKN200=
201406241744 TAF KCLM 241744Z 2418/2518 VRB03KT P6SM SCT015 BKN050
                      TEMPO 2418/2420 BKN015 BKN050 FM242000 31006KT
                       P6SM VCSH SCT025 BKN050 FM250300 29006KT
                       P6SM SCT050 SCT250 FM251200 27003KT P6SM
                       BKN015=
201406241445 TAF AMD KCLM 241445Z 2415/2512 22003KT P6SM VCSH BKN015 OVC050
                       TEMPO 2415/2418 SCT015 BKN050 FM242000 30006KT
                       P6SM VCSH SCT025 BKN050 OVC080 FM250600
                       28009KT P6SM SCT250=
201406241120 TAF KCLM 241120Z 2412/2512 22003KT P6SM VCSH SCT014 OVC060
                      TEMPO 2414/2418 BKN014 OVC030 FM242000 30006KT
                       P6SM VCSH SCT025 BKN050 OVC080 FM250600
                       28009KT P6SM SCT250=
201406240530 TAF KCLM 240530Z 2406/2506 30003KT P6SM OVC070
                      TEMPO 2406/2410 -RA FM241000 27004KT 4SM
                       BR OVC015
                      TEMPO 2410/2414 -RA FM241800 32006KT P6SM
                       VCSH SCT012 BKN023 OVC040 FM250200 28010KT
                       P6SM SCT030 BKN050 OVC080=
201406232327 TAF KCLM 232327Z 2400/2424 30012KT P6SM BKN070 OVC100 FM240200
                       29013G20KT P6SM -SHRA OVC070 FM240500 26010KT
                       P6SM -RA OVC025 FM241400 30008KT P6SM -SHRA
                       BKN040 FM241800 33006KT P6SM VCSH BKN060=
201406231720 TAF KCLM 231720Z 2318/2418 30006KT P6SM BKN100 BKN250 FM240100
                       29013G20KT P6SM OVC080 FM240700 26010KT
                       P6SM -RA OVC015=
201406231135 TAF KCLM 231135Z 2312/2412 29007KT P6SM SCT120 BKN250 FM240100
                       29013G20KT P6SM OVC080 FM240700 26010KT
                       P6SM -RA OVC015=
201406230520 TAF KCLM 230520Z 2306/2406 29008KT P6SM SKC FM231000 26003KT P6SM
                       BKN150 FM232000 32008KT P6SM BKN200 FM240300
                       29013KT P6SM OVC040=
201406222320 TAF KCLM 222320Z 2300/2324 30010KT P6SM FEW120 BKN200 FM230200
                       29010KT P6SM BKN150 FM231000 26003KT P6SM
                       BKN150 FM232000 32008KT P6SM BKN200=
201406221720 TAF KCLM 221720Z 2218/2318 36004KT P6SM BKN120 FM221900 32006KT
                       P6SM BKN150 FM230200 29010KT P6SM BKN150
                       FM231000 26003KT P6SM BKN150=
201406221130 TAF KCLM 221130Z 2212/2312 27004KT P6SM SKC FM221900 32006KT P6SM
                       SKC FM230200 29010KT P6SM SKC=
201406220530 TAF KCLM 220530Z 2206/2306 27005KT P6SM SKC FM220700 25006KT P6SM
                       SKC FM221900 32006KT P6SM SKC=
201406212320 TAF KCLM 212320Z 2200/2224 30007KT P6SM SKC FM220300 29008KT P6SM
                       SKC FM220700 25006KT P6SM SKC FM221900 32006KT
                       P6SM SKC=
201406211720 TAF KCLM 211720Z 2118/2218 VRB04KT P6SM SKC FM212200 32007KT P6SM
                       SKC FM220300 29008KT P6SM SKC FM220700 25006KT
                       P6SM SKC=
201406211120 TAF KCLM 211120Z 2112/2212 27005KT P6SM SCT250 FM211800 33006KT
                       P6SM SCT250 FM220300 29008KT P6SM SKC=
201406210520 TAF KCLM 210520Z 2106/2206 29008KT P6SM FEW050 SCT250 FM210800
                       29005KT P6SM SCT050 FM211800 33006KT P6SM
                       SCT250 FM220300 29008KT P6SM SKC=
201406202320 TAF KCLM 202320Z 2100/2124 32010G17KT P6SM SCT050 FM210800 29007KT
                       P6SM SCT050 FM211000 26004KT P6SM SCT150
                       FM212200 29010KT P6SM SCT150=
201406201734 TAF KCLM 201734Z 2018/2118 32006KT P6SM SCT040 BKN200 FM210200
                       29010KT P6SM BKN200 FM211000 26004KT P6SM
                       SCT150=
201406201120 TAF KCLM 201120Z 2012/2112 25008KT P6SM SCT080 SCT200 FM201800
                       31010KT P6SM BKN100 BKN200 FM210200 29010KT
                       P6SM SCT250=
201406200608 TAF AMD KCLM 200608Z 2006/2106 29010G19KT P6SM SCT005 BKN050 OVC070
                       TEMPO 2006/2008 -SHRA BKN005 OVC050 FM200800
                       29010KT P6SM SCT020 BKN050
                      TEMPO 2008/2012 BKN020 OVC050 FM202200 31010KT
                       P6SM BKN100 FM210200 29010KT P6SM BKN250=
201406200520 TAF KCLM 200520Z 2006/2106 30014G22KT P6SM -RA BKN005 OVC015 FM200800
                       29010KT P6SM -SHRA BKN020 OVC040 FM201200
                       29008KT P6SM OVC020 FM201600 31008KT P6SM
                       BKN050 FM202200 31010KT P6SM BKN100 FM210200
                       29010KT P6SM BKN250=
201406200033 TAF AMD KCLM 200033Z 2001/2024 VRB04KT P6SM VCSH OVC070 FM200300
                       29006KT P6SM -RA BKN025 OVC050 FM200800
                       29010KT P6SM -SHRA BKN020 OVC040 FM201200
                       29008KT P6SM OVC020=
201406192325 TAF KCLM 192325Z 2000/2024 27004KT P6SM VCSH BKN040 OVC080 FM200300
                       29006KT P6SM -RA BKN025 OVC050 FM200800
                       29010KT P6SM -SHRA BKN020 OVC040 FM201200
                       29008KT P6SM OVC020=
201406191733 TAF KCLM 191733Z 1918/2018 VRB04KT P6SM BKN060 OVC250 FM192100
                       27004KT P6SM BKN040 OVC080 FM200300 29006KT
                       P6SM -RA BKN025 OVC050 FM200800 29010KT
                       P6SM -SHRA BKN020 OVC040 FM201200 29008KT
                       P6SM OVC020=
201406191120 TAF KCLM 191120Z 1912/2012 21003KT P6SM BKN070 BKN250 FM191800
                       33006KT P6SM BKN050 BKN090 FM200300 29006KT
                       P6SM -RA BKN025 OVC050 FM200800 29010KT
                       P6SM -SHRA BKN020 OVC040=
201406190521 TAF KCLM 190521Z 1906/2006 28006KT P6SM FEW040 BKN250 FM190800
                       27004KT P6SM BKN100 FM191200 VRB03KT P6SM
                       BKN015 OVC050 FM191800 33006KT P6SM BKN050
                       BKN200 FM200300 29008KT P6SM BKN025 OVC050
                       TEMPO 2003/2006 -RA=
201406190109 TAF AMD KCLM 190109Z 1901/1924 32006KT P6SM SCT120 BKN250 FM190300
                       29006KT P6SM BKN120 BKN250 FM190800 27005KT
                       P6SM BKN030 BKN100=
201406182323 TAF KCLM 182323Z 1900/1924 32006KT P6SM SCT040 BKN120 FM190800
                       27005KT P6SM BKN030 BKN100=
201406181721 TAF KCLM 181721Z 1818/1918 32009KT P6SM SCT025 SCT150 FM182000
                       32006KT P6SM SCT050 SCT250 FM190500 27005KT
                       P6SM BKN050=
201406181120 TAF KCLM 181120Z 1812/1912 26006KT P6SM OVC025 FM181800 32006KT
                       P6SM BKN035 FM182200 32006KT P6SM SCT050
                       SCT250 FM190500 27005KT P6SM BKN050=
201406180525 TAF KCLM 180525Z 1806/1906 26006KT P6SM BKN070 FM181000 29008KT
                       P6SM BKN015 FM181800 32006KT P6SM BKN035
                       FM190000 28006KT P6SM SCT050 SCT250=
201406172324 TAF KCLM 172324Z 1800/1824 30010KT P6SM SKC FM180600 29012KT P6SM
                       SCT030 FM181000 29008KT P6SM BKN015 FM181800
                       27006KT P6SM BKN035=
201406171735 TAF KCLM 171735Z 1718/1818 29008KT P6SM SKC FM172100 31006KT P6SM
                       FEW050 SCT070 FM180000 29010KT P6SM FEW035
                       SCT070 FM180600 29012KT P6SM BKN050 FM181000
                       29008KT P6SM OVC015=
201406171120 TAF KCLM 171120Z 1712/1812 29008KT P6SM SCT060 OVC100
                      TEMPO 1712/1715 -RA BKN040 OVC060 FM172100
                       31006KT P6SM FEW050 BKN080 FM180000 29010KT
                       P6SM FEW035 SCT070 BKN250 FM180600 29012KT
                       P6SM BKN050 FM181000 29008KT P6SM OVC015=
201406170925 TAF AMD KCLM 170925Z 1709/1806 31007KT P6SM BKN070 OVC100
                      TEMPO 1709/1713 -RA BKN040 OVC070 FM171300
                       26005KT P6SM BKN040 OVC070 FM172100 31006KT
                       P6SM SCT040 BKN070 FM180000 29010KT P6SM
                       FEW035 SCT070 BKN250=
201406170527 TAF KCLM 170527Z 1706/1806 26008KT P6SM BKN070 FM170900 26005KT
                       P6SM BKN020 BKN070
                      TEMPO 1709/1713 -RA FM171800 32006KT P6SM
                       BKN030 FM172100 31006KT P6SM SCT030 BKN060
                       FM180000 29010KT P6SM FEW035 SCT070 BKN250=
201406162326 TAF KCLM 162326Z 1700/1724 27007KT P6SM SCT045 BKN070 FM170600
                       27010KT P6SM BKN070 FM171000 26005KT P6SM
                       SCT020 BKN070 FM172000 26009KT P6SM BKN030=
201406161723 TAF KCLM 161723Z 1618/1718 29005KT P6SM VCSH SCT015 BKN025
                      TEMPO 1618/1621 -SHRA BKN015 FM162100 27010KT
                       P6SM SCT040 BKN060 FM170400 27010KT P6SM
                       BKN030=
201406161136 TAF KCLM 161136Z 1612/1712 29008KT P6SM BKN040 OVC070 FM162200
                       27014KT P6SM SCT040 BKN060=
201406160534 TAF KCLM 160534Z 1606/1706 29008KT P6SM SCT040 BKN060 FM162200
                       27014KT P6SM SCT040 BKN060=
201406152321 TAF KCLM 152321Z 1600/1624 31017G26KT P6SM VCSH SCT070 FM160800
                       27010KT P6SM BKN050=
201406151732 TAF KCLM 151732Z 1518/1618 28006KT P6SM BKN050 OVC060 FM152300
                       30010G17KT P6SM BKN050 FM160400 28009KT
                       P6SM OVC050 FM160800 28008KT P6SM OVC025=
201406151120 TAF KCLM 151120Z 1512/1612 VRB03KT P6SM BKN040 BKN080 FM151600
                       26006KT P6SM VCSH OVC040 FM152200 30012G20KT
                       P6SM BKN040=
201406150520 TAF KCLM 150520Z 1506/1606 26006KT P6SM SCT030 BKN050 FM151400
                       26006KT P6SM -SHRA BKN020 OVC040 FM152200
                       30012KT P6SM VCSH BKN025 BKN050=
201406150139 TAF AMD KCLM 150139Z 1502/1524 32010KT P6SM OVC035 FM151000 28008KT
                       P6SM OVC030 FM152000 31014G21KT P6SM BKN040=
201406142320 TAF KCLM 142320Z 1500/1524 30012G21KT P6SM OVC040 FM151000 28008KT
                       P6SM OVC050 FM152000 31014G21KT P6SM BKN050=
201406141728 TAF KCLM 141728Z 1418/1518 07003KT P6SM BKN035 FM150400 27004KT
                       P6SM OVC015 FM151400 29008KT P6SM OVC050=
201406141120 TAF KCLM 141120Z 1412/1512 VRB04KT P6SM BKN020 BKN040 FM141800
                       27007KT P6SM SCT025 BKN040=
201406140520 TAF KCLM 140520Z 1406/1506 28008KT P6SM SCT050
                      TEMPO 1406/1410 BKN050 FM141000 VRB04KT P6SM
                       SCT020 BKN040 FM141800 27007KT P6SM SCT025
                       BKN040=
201406132331 TAF KCLM 132331Z 1400/1424 30015G24KT P6SM BKN090 FM140900 29006KT
                       P6SM OVC015 FM142100 29010KT P6SM BKN060=
201406131728 TAF KCLM 131728Z 1318/1418 31008KT P6SM SCT030 BKN090 FM132000
                       32009KT P6SM BKN090 FM132300 31008G15KT
                       P6SM OVC050 FM140500 29006KT P6SM OVC015=
201406131121 TAF KCLM 131121Z 1312/1412 28008KT P6SM SCT025 OVC050
                      TEMPO 1312/1316 -SHRA BKN025 OVC050 FM131900
                       28012G22KT P6SM VCSH SCT025 BKN050=
201406130524 TAF KCLM 130524Z 1306/1406 28012KT P6SM SCT020 BKN050 FM131200
                       28010KT P6SM VCSH BKN020 BKN040 FM131900
                       28012G22KT P6SM VCSH SCT025 BKN050=
201406122346 TAF AMD KCLM 122346Z 1300/1324 30010KT P6SM -SHRA SCT022 OVC070
                       TEMPO 1302/1306 6SM -SHRA BR OVC022 FM130600
                       28008KT P6SM -RA OVC018 FM131200 32006KT
                       5SM -RA BR OVC015
                      TEMPO 1312/1316 3SM -RA BR OVC006 FM132100
                       32010KT P6SM -SHRA BKN025 BKN060=
201406122320 TAF KCLM 122320Z 1300/1324 18010KT P6SM -SHRA SCT018 OVC040
                      TEMPO 1300/1304 6SM -SHRA BR OVC018 FM130800
                       28008KT P6SM -RA OVC018 FM131200 32006KT
                       5SM -RA BR OVC015
                      TEMPO 1312/1316 3SM -RA BR OVC006 FM132100
                       32010KT P6SM -SHRA BKN025 BKN060=
201406121720 TAF KCLM 121720Z 1218/1318 31010KT P6SM SCT011 BKN070 BKN120
                      TEMPO 1218/1220 BKN011 BKN070 OVC120 FM122200
                       30010KT P6SM -SHRA OVC040 FM130800 28008KT
                       P6SM -RA OVC025 FM131200 32006KT 5SM -RA
                       BR OVC015
                      TEMPO 1312/1316 3SM -RA BR OVC006=
201406121516 TAF AMD KCLM 121516Z 1215/1312 31010KT P6SM SCT009 BKN070 BKN120
                       TEMPO 1215/1217 BKN009 BKN070 BKN120 FM122000
                       30010KT P6SM -SHRA OVC040 FM130000 28012KT
                       P6SM -SHRA OVC030=
201406121120 TAF KCLM 121120Z 1212/1312 29006KT P6SM SCT040 BKN120 FM122000
                       VRB04KT P6SM -SHRA OVC040 FM130000 28012KT
                       P6SM -SHRA OVC030=
201406120520 TAF KCLM 120520Z 1206/1306 29007KT P6SM BKN070 BKN120 OVC200 FM121200
                       29005KT P6SM BKN012 BKN050 FM122200 VRB04KT
                       P6SM -SHRA OVC035=
201406112320 TAF KCLM 112320Z 1200/1224 VRB04KT P6SM BKN070 BKN250 FM120300
                       29007KT P6SM BKN070 BKN250 FM121200 29005KT
                       P6SM BKN012 BKN050 FM122200 VRB04KT P6SM
                       -SHRA OVC035=
201406111730 TAF KCLM 111730Z 1118/1218 02005KT P6SM BKN250 FM112200 32006KT
                       P6SM BKN250 FM120300 29007KT P6SM BKN070
                       BKN250 FM121200 29005KT P6SM BKN012 BKN050=
201406111120 TAF KCLM 111120Z 1112/1212 25003KT P6SM SCT250
                      TEMPO 1113/1116 BKN012 BKN250 FM111700 35005KT
                       P6SM BKN200 FM120200 29005KT P6SM BKN200=
201406110528 TAF KCLM 110528Z 1106/1206 25003KT P6SM SCT250
                      TEMPO 1113/1116 BKN025 BKN250 FM111800 27007KT
                       P6SM SCT030 BKN250=
201406102322 TAF KCLM 102322Z 1100/1124 28007KT P6SM SCT050 FM110600 27006KT
                       P6SM SCT030
                      TEMPO 1111/1115 BKN025 FM112000 27007KT P6SM
                       SCT030 SCT070 BKN150=
201406101721 TAF KCLM 101721Z 1018/1118 30010G20KT P6SM BKN060 FM110000 30008KT
                       P6SM SCT050 BKN100=
201406101421 TAF AMD KCLM 101421Z 1014/1112 26008KT P6SM VCSH SCT050 BKN080
                       FM101800 31008KT P6SM BKN060 FM110000 30008KT
                       P6SM SCT060=
201406101120 TAF KCLM 101120Z 1012/1112 26008KT P6SM BKN080 FM101800 31008KT
                       P6SM BKN060 FM110000 30008KT P6SM SCT060=
201406100535 TAF KCLM 100535Z 1006/1106 28008KT P6SM SKC FM100900 27007KT P6SM
                       BKN100 FM101800 31008KT P6SM SCT050 SCT080=
201406092321 TAF KCLM 092321Z 1000/1024 30012G20KT P6SM SKC FM100600 28012KT
                       P6SM SKC FM101800 28008KT P6SM SCT040=
201406091830 TAF AMD KCLM 091830Z 0919/1018 30012G20KT P6SM SKC FM100200 28012KT
                       P6SM SKC FM100900 28008KT P6SM OVC010=
201406091732 TAF KCLM 091732Z 0918/1018 30008KT P6SM SCT009 FM092000 28010KT
                       P6SM SKC FM100200 28012KT P6SM SKC FM100900
                       28008KT P6SM OVC010=
201406091120 TAF KCLM 091120Z 0912/1012 27009KT P6SM SCT010 SCT250
                      TEMPO 0914/0917 BKN010 BKN250 FM091900 31010KT
                       P6SM SCT250 FM092300 31012G20KT P6SM SCT250=
201406090817 TAF AMD KCLM 090817Z 0908/1006 29007KT P6SM BKN012 BKN045 FM091700
                       31012KT P6SM SCT200 FM092000 31012G18KT
                       P6SM SCT200=
201406090539 TAF KCLM 090539Z 0906/1006 29010G20KT P6SM SCT045 BKN080 FM090900
                       28010KT P6SM BKN045 FM091100 27010KT P6SM
                       BKN015 BKN045 FM091700 31012KT P6SM SCT200
                       FM092000 31012G18KT P6SM SCT200=
201406082335 TAF KCLM 082335Z 0900/0924 29009KT P6SM FEW120 FM090200 29013G20KT
                       P6SM SCT045 BKN090 FM090700 28010KT P6SM
                       OVC015 FM092100 31013G20KT P6SM SCT030 BKN070=
201406081735 TAF KCLM 081735Z 0818/0918 30007KT P6SM OVC009
                      TEMPO 0819/0821 SCT009 BKN020 FM082100 31009KT
                       P6SM SCT090 BKN200 FM082300 30012G20KT P6SM
                       BKN050 FM090600 27010KT P6SM OVC015=
201406081120 TAF KCLM 081120Z 0812/0912 27008KT P6SM OVC006 FM081700 32008KT
                       P6SM BKN010 FM082100 31009KT P6SM SCT090
                       BKN200 FM082300 30012G20KT P6SM BKN050=
201406080904 TAF AMD KCLM 080904Z 0809/0906 29010KT P6SM SCT003 SCT250
                      TEMPO 0809/0812 BKN003 BKN250 FM081200 27008KT
                       P6SM OVC003 FM081700 32008KT P6SM BKN009
                       FM082100 31009KT P6SM SCT080 BKN250 FM090000
                       30010G18KT P6SM BKN050=
201406080520 TAF KCLM 080520Z 0806/0906 26007KT P6SM SCT006 SCT250
                      TEMPO 0806/0809 BKN006 BKN250 FM080900 27006KT
                       P6SM OVC005 FM081700 32008KT P6SM BKN009
                       FM082100 31009KT P6SM SCT080 BKN250 FM090000
                       30010G18KT P6SM BKN050=
201406080434 TAF AMD KCLM 080434Z 0805/0824 26007KT P6SM SCT006 SCT250
                      TEMPO 0805/0809 BKN006 BKN250 FM080900 27006KT
                       P6SM OVC005 FM082100 31009KT P6SM BKN250=
201406072335 TAF KCLM 072335Z 0800/0824 31014G22KT P6SM FEW060 SCT160 FM080800
                       27008KT P6SM OVC010 FM082100 31009KT P6SM
                       BKN250=
201406071720 TAF KCLM 071720Z 0718/0818 29007KT P6SM OVC004 FM071900 29008KT
                       P6SM SCT020 FM080100 29014G22KT P6SM SCT050
                       BKN120 FM080800 27008KT P6SM OVC010=
201406071705 TAF AMD KCLM 071705Z 0717/0812 29007KT P6SM OVC004 FM071900 32010KT
                       P6SM SCT015 FM072000 32010KT P6SM BKN200=
201406071231 TAF AMD KCLM 071231Z 0713/0812 28010KT P6SM SCT004 BKN200
                      TEMPO 0713/0716 OVC004 FM071700 32010KT P6SM
                       SCT060 BKN120 FM072000 32010KT P6SM BKN200=
201406071120 TAF KCLM 071120Z 0712/0812 28008KT P6SM SCT006 BKN200
                      TEMPO 0712/0716 BKN006 BKN200 FM071700 32010KT
                       P6SM SCT060 BKN120 FM072000 32010KT P6SM
                       BKN200=
201406070833 TAF AMD KCLM 070833Z 0709/0806 29010KT P6SM BKN006 FM071200 28008KT
                       P6SM SCT006 BKN250
                      TEMPO 0712/0716 BKN006 BKN250 FM071700 32010G18KT
                       P6SM SCT250=
201406070524 TAF KCLM 070524Z 0706/0806 29010KT P6SM SCT250 FM071200 28008KT
                       P6SM SCT006 BKN250 FM071700 32010G18KT P6SM
                       SCT250=
201406062325 TAF KCLM 062325Z 0700/0724 31011G18KT P6SM SKC FM071200 28008KT
                       P6SM SCT006 FM071700 32009KT P6SM BKN250=
201406061720 TAF KCLM 061720Z 0618/0718 35004KT P6SM SCT250 FM070000 28010KT
                       P6SM SCT250 FM071200 28008KT P6SM SCT006=
201406061126 TAF KCLM 061126Z 0612/0712 27005KT P6SM SCT250=
201406060540 TAF KCLM 060540Z 0606/0706 27005KT P6SM SCT250=
201406052325 TAF KCLM 052325Z 0600/0624 27005KT P6SM SCT250=
201406051720 TAF KCLM 051720Z 0518/0618 03004KT P6SM SKC FM052300 29006KT P6SM
                       SKC=
201406051132 TAF KCLM 051132Z 0512/0612 26008KT P6SM SCT250=
201406050532 TAF KCLM 050532Z 0506/0606 27008KT P6SM SCT250=
201406050122 TAF AMD KCLM 050122Z 0501/0524 30012KT P6SM FEW050
                      TEMPO 0501/0503 30010G20KT FM050300 28010KT
                       P6SM SKC FM050900 25006KT P6SM SKC FM052000
                       30008KT P6SM SCT200=
201406042320 TAF KCLM 042320Z 0500/0524 30008KT P6SM SCT030 FM050400 30008KT
                       P6SM SKC FM052000 30008KT P6SM SCT200=
201406041720 TAF KCLM 041720Z 0418/0518 33006KT P6SM BKN025 FM042100 33006KT
                       P6SM SCT030 FM050400 30008KT P6SM SKC=
201406041128 TAF KCLM 041128Z 0412/0512 27006KT P6SM OVC011 FM041600 27006KT
                       P6SM SCT011 FM041800 32008KT P6SM SKC=
201406040530 TAF KCLM 040530Z 0406/0506 28006KT P6SM SKC FM041400 27006KT P6SM
                       SCT009
                      TEMPO 0414/0416 BKN009 FM041800 32011KT P6SM
                       SKC=
201406032346 TAF KCLM 032346Z 0400/0424 33006KT P6SM SKC FM040200 29008KT P6SM
                       SKC FM040900 26006KT P6SM FEW013 FM041400
                       29008KT P6SM SCT009
                      TEMPO 0414/0418 BKN009 FM041800 32011KT P6SM
                       SKC=
201406032054 TAF AMD KCLM 032054Z 0321/0418 01006KT P6SM BKN015 FM032200 33006KT
                       P6SM SCT018 FM040100 29009KT P6SM SKC FM040900
                       26006KT P6SM FEW013 FM041400 29008KT P6SM
                       SCT009
                      TEMPO 0414/0418 BKN009=
201406031736 TAF KCLM 031736Z 0318/0418 36006KT P6SM OVC010 FM032000 33006KT
                       P6SM SCT018 FM040100 29009KT P6SM SKC FM040900
                       26006KT P6SM FEW013 FM041400 29008KT P6SM
                       SCT009
                      TEMPO 0414/0418 BKN009=
201406031515 TAF AMD KCLM 031515Z 0315/0412 VRB03KT P6SM OVC009 FM031800 33006KT
                       P6SM BKN012 FM032000 33008KT P6SM SCT022
                       FM040000 29008KT P6SM SKC=
201406031448 TAF AMD KCLM 031448Z 0315/0412 VRB03KT P6SM OVC010 FM032000 29008KT
                       P6SM SKC=
201406031128 TAF KCLM 031128Z 0312/0412 VRB03KT P6SM SCT015 FM032000 29008KT
                       P6SM SKC=
201406030526 TAF KCLM 030526Z 0306/0406 29008KT P6SM SKC FM031100 27005KT P6SM
                       OVC011 FM031800 32006KT P6SM BKN015 FM032000
                       29008KT P6SM SKC=
201406022334 TAF KCLM 022334Z 0300/0324 29009KT P6SM SKC FM030900 27005KT P6SM
                       SCT012
                      TEMPO 0309/0311 BKN012 FM031100 27005KT P6SM
                       OVC009 FM031800 33006KT P6SM BKN015 FM032000
                       33008KT P6SM FEW025=
201406021742 TAF KCLM 021742Z 0218/0318 35006KT P6SM VCFG FEW007 FM021900 32008KT
                       P6SM SKC FM030100 29010KT P6SM SKC FM030900
                       27005KT P6SM SCT012
                      TEMPO 0309/0311 BKN012 FM031100 27005KT P6SM
                       OVC009=
201406021603 TAF AMD KCLM 021603Z 0216/0312 33005KT P6SM VCFG SCT005
                      TEMPO 0216/0218 BKN005 FM021900 33008KT P6SM
                       SKC FM030300 28010KT P6SM FEW030 FM031000
                       28006KT P6SM OVC015=
201406021524 TAF AMD KCLM 021524Z 0215/0312 29005KT 6SM BR BKN002
                      TEMPO 0215/0217 2SM BR FM021700 33005KT P6SM
                       VCFG SCT005
                      TEMPO 0217/0219 BKN005 FM021900 33008KT P6SM
                       SKC FM030300 28010KT P6SM FEW030 FM031000
                       28006KT P6SM OVC015=
201406021429 TAF AMD KCLM 021429Z 0214/0312 29005KT 2SM BR BKN002
                      TEMPO 0214/0217 1/2SM FG FM021700 33005KT
                       P6SM VCFG SCT005
                      TEMPO 0217/0219 BKN005 FM021900 33008KT P6SM
                       SKC FM030300 28010KT P6SM FEW030 FM031000
                       28006KT P6SM OVC015=
201406021252 TAF AMD KCLM 021252Z 0213/0312 27005KT P6SM BKN002
                      TEMPO 0213/0216 2SM BR OVC002 FM021600 29004KT
                       P6SM BKN007 FM021800 35005KT P6SM FEW030
                       FM030300 28010KT P6SM FEW030 FM031000 28006KT
                       P6SM OVC015=
201406021126 TAF KCLM 021126Z 0212/0312 27005KT P6SM BKN004 FM021600 29004KT
                       P6SM BKN007 FM021800 35005KT P6SM FEW030
                       FM030300 28010KT P6SM FEW030 FM031000 28006KT
                       P6SM OVC015=
201406021005 TAF AMD KCLM 021005Z 0210/0306 29004KT P6SM OVC004 FM021600 29004KT
                       P6SM BKN007 FM021800 35005KT P6SM FEW030
                       FM030300 28010KT P6SM FEW030=
201406020654 TAF AMD KCLM 020654Z 0207/0306 30005KT P6SM SCT004
                      TEMPO 0207/0210 6SM BR OVC004 FM021000 29004KT
                       P6SM BKN006 FM021800 35005KT P6SM FEW030
                       FM030300 28010KT P6SM FEW030=
201406020520 TAF KCLM 020520Z 0206/0306 29008KT P6SM SKC FM021400 28004KT P6SM
                       BKN015 FM021800 35005KT P6SM FEW030 FM030300
                       28010KT P6SM FEW030=
201406012320 TAF KCLM 012320Z 0200/0224 31005KT P6SM FEW040 FM020200 29008KT
                       P6SM SKC FM021400 28004KT P6SM BKN015 FM021800
                       35005KT P6SM FEW030=
201406011720 TAF KCLM 011720Z 0118/0218 01004KT P6SM SKC FM020100 29006KT P6SM
                       SKC FM021400 28004KT P6SM BKN015=
201406011120 TAF KCLM 011120Z 0112/0212 29008KT P6SM FEW060 SCT250 FM011500
                       28005KT P6SM BKN012 FM011800 33005KT P6SM
                       SCT015 FM012000 34006KT P6SM FEW020 FM020300
                       29005KT P6SM FEW020=
201406011001 TAF AMD KCLM 011001Z 0110/0206 29008KT P6SM FEW040 SCT250 FM011500
                       28005KT P6SM OVC012 FM011800 33005KT P6SM
                       BKN015 FM012000 34006KT P6SM FEW020 FM020300
                       29005KT P6SM FEW020=
201406010520 TAF KCLM 010520Z 0106/0206 29008KT P6SM FEW040 SCT250 FM011100
                       28005KT P6SM OVC011 FM011800 33005KT P6SM
                       BKN015 FM012000 34006KT P6SM FEW020 FM020300
                       29005KT P6SM FEW020=
201406010404 TAF AMD KCLM 010404Z 0104/0124 31010KT P6SM FEW040 SCT250 FM011100
                       27004KT P6SM OVC010 FM011800 33005KT P6SM
                       BKN015 FM012000 34006KT P6SM FEW020=