##########################################################
# Query made at 02/16/2025 02:37:13 UTC
# Time interval: from 01/01/2014 00:00  to 01/31/2014 23:59  UTC
##########################################################

##########################################################
# KCLM, Port Angeles, William R. Fairchild International Airport (United States)
# WMO index: -----. WIGOS ID: Unknown
# Latitude 48-07-20N. Longitude 123-30-19W. Altitude 87 m.
##########################################################

###################################
#  METAR/SPECI from KCLM
###################################
201401312353 METAR KCLM 312353Z AUTO 10004KT 10SM FEW035 06/M02 A3012 RMK AO2 SLP203 T00561022 10067 20050 53007=
201401312253 METAR KCLM 312253Z AUTO 09007KT 10SM CLR 06/M02 A3011 RMK AO2 SLP198 T00561022=
201401312153 METAR KCLM 312153Z AUTO 08006KT 10SM CLR 06/M02 A3010 RMK AO2 SLP195 T00611022=
201401312053 METAR KCLM 312053Z AUTO VRB04KT 10SM CLR 06/M03 A3010 RMK AO2 SLP195 T00611028 53005=
201401311953 METAR KCLM 311953Z AUTO 09007KT 060V130 10SM CLR 06/M03 A3009 RMK AO2 SLP193 T00611028=
201401311853 METAR KCLM 311853Z AUTO 08007KT 10SM CLR 06/M02 A3009 RMK AO2 SLP192 T00561022=
201401311753 METAR KCLM 311753Z AUTO 12003KT 10SM OVC060 05/01 A3009 RMK AO2 SLP190 I6000 T00500011 10050 21011 51020=
201401311653 METAR KCLM 311653Z AUTO 17003KT 9SM BKN043 OVC060 01/00 A3007 RMK AO2 SLP185 T00110000=
201401311553 METAR KCLM 311553Z AUTO 00000KT 10SM SCT043 BKN065 M01/M01 A3005 RMK AO2 SLP177 I1000 T10061011=
201401311453 METAR KCLM 311453Z AUTO 00000KT 10SM CLR M01/M02 A3003 RMK AO2 SLP171 T10061017 53012=
201401311353 METAR KCLM 311353Z AUTO 20004KT 10SM OVC050 01/01 A3001 RMK AO2 SLP166 T00110011=
201401311253 METAR KCLM 311253Z AUTO VRB03KT 10SM FEW045 FEW050 OVC100 02/01 A3000 RMK AO2 SLP162 T00170011=
201401311153 METAR KCLM 311153Z AUTO 26004KT 10SM FEW018 FEW036 OVC060 03/01 A2999 RMK AO2 RAE26UPB22E25 SLP157 P0001 60004 70019 T00280011 10050 20028 51014=
201401311142 SPECI KCLM 311142Z AUTO 24006KT 10SM SCT017 BKN040 OVC060 03/01 A2999 RMK AO2 RAE26UPB22E25 P0001 T00280011=
201401311053 METAR KCLM 311053Z AUTO 25006KT 10SM -RA BKN016 OVC021 03/02 A2998 RMK AO2 UPB22E28RAB28 SLP154 P0000 T00280017=
201401310953 METAR KCLM 310953Z AUTO 24006KT 10SM OVC016 03/02 A2996 RMK AO2 RAB28E50 SLP148 P0000 T00330017=
201401310853 METAR KCLM 310853Z AUTO VRB04KT 10SM OVC015 04/03 A2995 RMK AO2 RAE46 SLP143 P0001 60003 T00390028 51010=
201401310753 METAR KCLM 310753Z AUTO 00000KT 10SM -RA OVC013 04/04 A2994 RMK AO2 SLP139 P0002 T00390039 400780011=
201401310726 SPECI KCLM 310726Z AUTO 00000KT 10SM -RA OVC010 04/04 A2993 RMK AO2 P0002 T00440039=
201401310653 METAR KCLM 310653Z AUTO 36007KT 10SM -RA OVC007 04/04 A2992 RMK AO2 RAB51 CIG 006V009 SLP132 P0000 T00440039=
201401310553 METAR KCLM 310553Z AUTO VRB05KT 10SM OVC007 05/04 A2990 RMK AO2 RAB0454E03 SLP127 P0000 60007 T00500039 10067 20050 53015=
201401310453 METAR KCLM 310453Z AUTO VRB03KT 10SM BKN006 OVC010 05/04 A2989 RMK AO2 RAE01B27E36 SLP122 P0001 T00500039=
201401310434 SPECI KCLM 310434Z AUTO 03005KT 10SM -RA OVC007 05/03 A2988 RMK AO2 RAE01B27 CIG 004V009 P0001 T00500033=
201401310353 METAR KCLM 310353Z AUTO 05005KT 6SM -RA BR OVC003 05/04 A2987 RMK AO2 CIG 003V007 SLP117 P0002 T00500044=
201401310319 SPECI KCLM 310319Z AUTO 04003KT 4SM -RA BR BKN006 OVC023 06/04 A2986 RMK AO2 P0001 T00560039=
201401310312 SPECI KCLM 310312Z AUTO 03005KT 5SM -RA BR SCT006 OVC021 06/04 A2986 RMK AO2 P0000 T00560039=
201401310253 METAR KCLM 310253Z AUTO 00000KT 10SM -RA BKN024 OVC030 06/04 A2986 RMK AO2 RAB29 SLP112 P0001 60004 T00560044 53004=
201401310249 SPECI KCLM 310249Z AUTO 00000KT 10SM -RA SCT024 OVC030 06/04 A2985 RMK AO2 RAB29 P0001=
201401310153 METAR KCLM 310153Z AUTO 14005KT 10SM BKN029 OVC050 06/04 A2984 RMK AO2 RAE31 SLP108 P0000 T00560044=
201401310148 SPECI KCLM 310148Z AUTO 14005KT 10SM BKN028 OVC050 06/04 A2984 RMK AO2 RAE31 P0000=
201401310053 METAR KCLM 310053Z AUTO 15006KT 10SM -RA FEW029 BKN049 OVC070 06/06 A2983 RMK AO2 SLP104 P0003 T00610056=
201401310049 SPECI KCLM 310049Z AUTO 15005KT 10SM -RA SCT027 BKN049 OVC070 06/06 A2983 RMK AO2 P0003=
201401302353 METAR KCLM 302353Z AUTO 00000KT 10SM -RA BKN022 BKN027 OVC043 07/07 A2983 RMK AO2 SLP102 P0002 60007 T00670067 10078 20067 53003=
201401302332 SPECI KCLM 302332Z AUTO 00000KT 10SM -RA SCT019 SCT030 OVC043 07/07 A2982 RMK AO2 P0001 T00670067=
201401302319 SPECI KCLM 302319Z AUTO 00000KT 10SM -RA BKN019 BKN028 OVC046 07/06 A2982 RMK AO2 P0001 T00670061=
201401302253 METAR KCLM 302253Z AUTO 06003KT 10SM -RA SCT025 OVC060 07/04 A2981 RMK AO2 SLP098 P0002 T00720044=
201401302153 METAR KCLM 302153Z AUTO 10003KT 10SM -RA FEW012 BKN048 OVC060 07/05 A2981 RMK AO2 SLP096 P0001 T00720050=
201401302053 METAR KCLM 302053Z AUTO 00000KT 10SM -RA OVC055 07/04 A2982 RMK AO2 RAE19B41 SLP099 P0001 60002 T00720044 50001=
201401301953 METAR KCLM 301953Z AUTO 00000KT 10SM -RA OVC045 07/03 A2983 RMK AO2 RAB1856 SLP104 P0000 T00670033=
201401301853 METAR KCLM 301853Z AUTO 24006KT 10SM OVC050 07/03 A2983 RMK AO2 RAB1755E07 SLP103 P0001 T00670033=
201401301753 METAR KCLM 301753Z AUTO 25008KT 10SM FEW037 BKN047 OVC070 06/03 A2982 RMK AO2 RAE01B33E45 SLP098 P0000 60001 T00610033 10067 20022 53007=
201401301653 METAR KCLM 301653Z AUTO 26006KT 10SM -RA BKN034 BKN041 OVC065 06/02 A2981 RMK AO2 RAB19 SLP095 P0001 T00610022 $=
201401301553 METAR KCLM 301553Z AUTO 28007KT 10SM FEW044 BKN055 OVC065 06/02 A2979 RMK AO2 SLP091 T00560022 $=
201401301453 METAR KCLM 301453Z AUTO 24005KT 10SM SCT048 OVC060 05/02 A2979 RMK AO2 SLP090 T00500022 53000 $=
201401301353 METAR KCLM 301353Z AUTO 23007KT 10SM OVC050 04/02 A2978 RMK AO2 SLP087 T00390022 $=
201401301253 METAR KCLM 301253Z AUTO 23004KT 10SM OVC060 02/01 A2979 RMK AO2 SLP090 T00220011 $=
201401301153 METAR KCLM 301153Z AUTO 23005KT 10SM FEW055 03/02 A2979 RMK AO2 SLP090 70042 T00280017 10050 20011 50001 $=
201401301053 METAR KCLM 301053Z AUTO 20003KT 10SM FEW041 SCT055 03/02 A2980 RMK AO2 SLP092 T00280017 $=
201401300953 METAR KCLM 300953Z AUTO 00000KT 8SM CLR 02/01 A2979 RMK AO2 SLP088 T00170011 $=
201401300853 METAR KCLM 300853Z AUTO 00000KT 10SM CLR 03/02 A2979 RMK AO2 SLP089 T00330022 51006 $=
201401300753 METAR KCLM 300753Z AUTO 25004KT 10SM FEW031 03/02 A2979 RMK AO2 SLP089 T00280017 400830022 $=
201401300653 METAR KCLM 300653Z AUTO 12003KT 10SM FEW021 05/03 A2978 RMK AO2 SLP087 T00500033 $=
201401300553 METAR KCLM 300553Z AUTO 20004KT 10SM CLR 04/03 A2977 RMK AO2 SLP083 T00440033 10083 20044 53009 $=
201401300453 METAR KCLM 300453Z AUTO 25006KT 10SM CLR 05/04 A2975 RMK AO2 SLP077 T00500039 $=
201401300353 METAR KCLM 300353Z AUTO 28007KT 10SM CLR 06/04 A2975 RMK AO2 SLP077 T00560039 $=
201401300253 METAR KCLM 300253Z AUTO 27007KT 10SM CLR 06/04 A2974 RMK AO2 SLP073 T00560044 51010 $=
201401300153 METAR KCLM 300153Z AUTO 25008KT 10SM CLR 07/06 A2974 RMK AO2 SLP072 T00670061 $=
201401300053 METAR KCLM 300053Z AUTO 25009KT 10SM FEW035 07/06 A2972 RMK AO2 SLP065 T00720061 $=
201401300002 SPECI KCLM 300002Z AUTO 21003KT 10SM FEW026 OVC033 08/08 A2971 RMK AO2 T00830083 $=
201401292353 METAR KCLM 292353Z AUTO 21004KT 10SM BKN028 OVC037 08/08 A2971 RMK AO2 RAE10 SLP063 P0000 60032 T00830083 10083 20067 53009 $=
201401292323 SPECI KCLM 292323Z AUTO 22004KT 10SM BKN031 OVC040 08/08 A2971 RMK AO2 RAE10 P0000 T00780078 $=
201401292307 SPECI KCLM 292307Z AUTO 00000KT 10SM -RA BKN029 OVC041 08/08 A2971 RMK AO2 P0000 T00780078 $=
201401292253 METAR KCLM 292253Z AUTO 20003KT 10SM -RA BKN036 OVC043 08/08 A2970 RMK AO2 SLP059 P0001 T00780078 $=
201401292226 SPECI KCLM 292226Z AUTO 17003KT 10SM -RA SCT024 BKN035 OVC045 08/08 A2969 RMK AO2 P0000 T00780078 $=
201401292153 METAR KCLM 292153Z AUTO 00000KT 10SM -RA FEW006 OVC024 07/07 A2969 RMK AO2 SLP056 P0003 T00720072 $=
201401292144 SPECI KCLM 292144Z AUTO 00000KT 10SM -RA SCT006 OVC024 07/07 A2969 RMK AO2 P0002 T00720072 $=
201401292135 SPECI KCLM 292135Z AUTO 00000KT 10SM -RA BKN006 OVC022 07/07 A2969 RMK AO2 CIG 003V010 P0002 T00720072 $=
201401292053 METAR KCLM 292053Z AUTO 00000KT 8SM -RA BKN002 OVC006 07/07 A2969 RMK AO2 SLP054 P0007 60028 T00670067 58001 $=
201401291953 METAR KCLM 291953Z AUTO 00000KT 3SM -RA BR OVC002 07/07 A2969 RMK AO2 SLP054 P0014 T00670067 $=
201401291938 SPECI KCLM 291938Z AUTO 00000KT 4SM -RA BR OVC002 07/07 A2969 RMK AO2 P0010 T00670067 $=
201401291925 SPECI KCLM 291925Z AUTO 08005KT 3SM RA BR OVC001 07/07 A2969 RMK AO2 P0007 T00670067 $=
201401291913 SPECI KCLM 291913Z AUTO 00000KT 3SM -RA BR OVC003 07/07 A2969 RMK AO2 CIG 001V006 P0004 T00670067 $=
201401291901 SPECI KCLM 291901Z AUTO 00000KT 2 1/2SM -RA BR BKN003 OVC008 07/07 A2969 RMK AO2 CIG 002V006 P0002 T00670067 $=
201401291853 METAR KCLM 291853Z AUTO 00000KT 3SM -RA BR BKN006 OVC010 07/07 A2969 RMK AO2 CIG 003V009 SLP055 P0007 T00670067 $=
201401291845 SPECI KCLM 291845Z AUTO 00000KT 4SM -RA BR BKN006 OVC010 07/07 A2969 RMK AO2 CIG 003V008 P0006 T00670067 $=
201401291753 METAR KCLM 291753Z AUTO 00000KT 5SM -RA BR OVC002 07/07 A2969 RMK AO2 SLP055 P0001 60010 T00670067 10067 20061 56014=
201401291653 METAR KCLM 291653Z AUTO 12003KT 5SM -RA BR OVC003 07/07 A2970 RMK AO2 RAE1555B41 SLP058 P0001 T00670067=
201401291620 SPECI KCLM 291620Z AUTO 00000KT 5SM BR OVC003 07/07 A2971 RMK AO2 RAE1555 P0000 T00670067=
201401291607 SPECI KCLM 291607Z AUTO 13003KT 2SM BR OVC003 07/07 A2971 RMK AO2 RAE1555 P0000 T00670067=
201401291553 METAR KCLM 291553Z AUTO 11004KT 4SM -RA BR OVC004 07/07 A2972 RMK AO2 RAB41 SLP064 P0000 T00670067=
201401291453 METAR KCLM 291453Z AUTO 09003KT 8SM OVC003 07/07 A2973 RMK AO2 RAE18 SLP069 P0001 60008 T00670067 58026=
201401291439 SPECI KCLM 291439Z AUTO 09004KT 9SM OVC004 07/07 A2973 RMK AO2 RAE18 P0001 T00670067=
201401291428 SPECI KCLM 291428Z AUTO 10004KT 10SM OVC005 07/06 A2973 RMK AO2 RAE18 P0001 T00670061=
201401291353 METAR KCLM 291353Z AUTO 12004KT 5SM -RA BR OVC002 07/07 A2976 RMK AO2 SLP079 P0004 T00670067=
201401291313 SPECI KCLM 291313Z AUTO 10006KT 4SM -RA BR OVC002 07/06 A2977 RMK AO2 P0002 T00670061=
201401291305 SPECI KCLM 291305Z AUTO 10006KT 2 1/2SM -RA BR OVC002 07/06 A2977 RMK AO2 P0002 T00670061=
201401291253 METAR KCLM 291253Z AUTO 10008KT 4SM -RA BR OVC002 07/07 A2978 RMK AO2 SLP086 P0003 T00670067=
201401291153 METAR KCLM 291153Z AUTO 08007KT 4SM -RA BR OVC002 07/07 A2981 RMK AO2 RAB25 SLP095 P0002 60052 70068 T00670067 10067 20061 56015=
201401291128 SPECI KCLM 291128Z AUTO 08006KT 5SM -RA BR OVC002 07/07 A2981 RMK AO2 RAB25 P0000 T00670067=
201401291053 METAR KCLM 291053Z AUTO 11005KT 5SM BR OVC001 07/06 A2981 RMK AO2 RAE38 SLP097 P0003 T00670061=
201401291051 SPECI KCLM 291051Z AUTO 12006KT 4SM BR OVC001 07/06 A2981 RMK AO2 RAE38 P0003=
201401290953 METAR KCLM 290953Z AUTO 11004KT 5SM RA BR OVC003 07/06 A2985 RMK AO2 SLP110 P0016 T00670056=
201401290853 METAR KCLM 290853Z AUTO 12004KT 4SM -RA BR OVC002 07/06 A2989 RMK AO2 SLP123 P0012 60031 T00670061 56035=
201401290845 SPECI KCLM 290845Z AUTO 10005KT 4SM -RA BR OVC002 06/06 A2989 RMK AO2 P0010 T00610061=
201401290837 SPECI KCLM 290837Z AUTO 11003KT 3SM -RA BR OVC001 06/06 A2989 RMK AO2 P0009 T00610061=
201401290812 SPECI KCLM 290812Z AUTO 10003KT 2 1/2SM -RA BR OVC001 07/06 A2991 RMK AO2 P0004 T00670061=
201401290801 SPECI KCLM 290801Z AUTO 10006KT 1 3/4SM -RA BR OVC001 07/06 A2991 RMK AO2 P0001 T00670061=
201401290753 METAR KCLM 290753Z AUTO 10005KT 2SM -RA BR OVC002 07/06 A2991 RMK AO2 SLP131 P0008 T00670056 400780039=
201401290743 SPECI KCLM 290743Z AUTO 09005KT 1 3/4SM -RA BR OVC002 07/06 A2993 RMK AO2 P0007 T00670056=
201401290653 METAR KCLM 290653Z AUTO 09004KT 4SM -RA BR OVC004 07/06 A2996 RMK AO2 CIG 002V009 SLP147 P0011 T00670056=
201401290624 SPECI KCLM 290624Z AUTO 11004KT 4SM -RA BR OVC004 07/06 A2998 RMK AO2 P0006 T00670056=
201401290608 SPECI KCLM 290608Z AUTO 11003KT 3SM -RA BR OVC005 07/06 A2999 RMK AO2 CIG 003V009 P0002 T00670056=
201401290553 METAR KCLM 290553Z AUTO 11004KT 4SM -RA BR OVC004 07/06 A2999 RMK AO2 CIG 003V009 SLP158 P0009 60016 T00670056 10067 20061 58021=
201401290545 SPECI KCLM 290545Z AUTO 12004KT 4SM -RA BR OVC004 07/06 A3000 RMK AO2 CIG 003V009 P0008 T00670056=
201401290521 SPECI KCLM 290521Z AUTO 10004KT 3SM -RA BR OVC005 07/06 A3001 RMK AO2 P0005 T00670056=
201401290502 SPECI KCLM 290502Z AUTO 00000KT 2 1/2SM -RA BR OVC006 06/06 A3002 RMK AO2 P0001 T00610056=
201401290453 METAR KCLM 290453Z AUTO 12003KT 3SM -RA BR OVC006 07/06 A3002 RMK AO2 RAB0358 CIG 005V008 SLP167 P0007 T00670056=
201401290427 SPECI KCLM 290427Z AUTO 11003KT 5SM -RA BR OVC008 07/06 A3003 RMK AO2 RAB0358 CIG 003V012 P0002 T00670056=
201401290353 METAR KCLM 290353Z AUTO 12003KT 4SM BR OVC002 07/06 A3004 RMK AO2 SLP173 T00670056=
201401290326 SPECI KCLM 290326Z AUTO 11004KT 2 1/2SM BR OVC002 07/06 A3004 RMK AO2 T00670056=
201401290253 METAR KCLM 290253Z AUTO 11005KT 5SM BR OVC003 07/06 A3005 RMK AO2 SLP179 T00670056 58028=
201401290153 METAR KCLM 290153Z AUTO 12004KT 7SM OVC003 07/06 A3009 RMK AO2 CIG 002V007 SLP192 T00670056=
201401290053 METAR KCLM 290053Z AUTO 09003KT 6SM BR OVC004 07/06 A3013 RMK AO2 SLP204 T00670056=
201401282353 METAR KCLM 282353Z AUTO 08004KT 10SM OVC009 07/05 A3014 RMK AO2 SLP207 T00720050 10078 20061 58007=
201401282253 METAR KCLM 282253Z AUTO 11004KT 10SM OVC008 07/05 A3014 RMK AO2 SLP209 T00720050=
201401282230 SPECI KCLM 282230Z AUTO 08004KT 10SM BKN009 OVC026 07/05 A3015 RMK AO2 CIG 006V010 T00720050=
201401282221 SPECI KCLM 282221Z AUTO 07003KT 10SM BKN010 OVC026 08/06 A3016 RMK AO2 CIG 006V011 T00780056=
201401282213 SPECI KCLM 282213Z AUTO 00000KT 10SM FEW006 SCT010 OVC027 07/05 A3016 RMK AO2 T00720050=
201401282153 METAR KCLM 282153Z AUTO 00000KT 10SM FEW006 BKN012 OVC027 07/06 A3017 RMK AO2 SLP217 T00720056=
201401282119 SPECI KCLM 282119Z AUTO 05003KT 10SM SCT008 BKN012 OVC028 07/06 A3016 RMK AO2 T00720056=
201401282107 SPECI KCLM 282107Z AUTO 03003KT 10SM SCT008 OVC028 07/06 A3016 RMK AO2 T00720056=
201401282053 METAR KCLM 282053Z AUTO 03004KT 10SM FEW004 BKN008 OVC027 07/06 A3016 RMK AO2 SLP215 T00720056 58014=
201401281953 METAR KCLM 281953Z AUTO 00000KT 10SM SCT005 SCT023 OVC029 08/06 A3018 RMK AO2 SLP223 T00780056=
201401281927 SPECI KCLM 281927Z AUTO 00000KT 9SM FEW005 OVC029 07/06 A3018 RMK AO2 T00720056=
201401281918 SPECI KCLM 281918Z AUTO 00000KT 10SM SCT005 OVC030 07/05 A3019 RMK AO2 T00670050 $=
201401281853 METAR KCLM 281853Z AUTO 00000KT OVC006 07/05 A3020 RMK AO2 SLP228 T00670050 PWINO $=
201401281753 METAR KCLM 281753Z AUTO 00000KT 8SM OVC006 06/06 A3020 RMK AO2 SLP230 60000 T00610056 10061 20044 50002 $=
201401281653 METAR KCLM 281653Z AUTO 00000KT 5SM BR OVC007 06/04 A3021 RMK AO2 SLP230 T00560044 $=
201401281635 SPECI KCLM 281635Z AUTO 00000KT 4SM BR OVC009 05/04 A3020 RMK AO2 T00500039 $=
201401281618 SPECI KCLM 281618Z AUTO 00000KT 2 1/2SM BR OVC008 05/04 A3020 RMK AO2 T00500044 $=
201401281553 METAR KCLM 281553Z AUTO 00000KT 5SM BR OVC009 05/04 A3020 RMK AO2 SLP229 T00500044 $=
201401281453 METAR KCLM 281453Z AUTO 25003KT 5SM BR OVC007 05/04 A3020 RMK AO2 SLP228 60000 T00500039 53004 $=
201401281353 METAR KCLM 281353Z AUTO 22004KT 9SM OVC007 05/04 A3019 RMK AO2 SLP227 T00500039 $=
201401281253 METAR KCLM 281253Z AUTO 00000KT 4SM BR OVC008 05/04 A3019 RMK AO2 RAE15 SLP224 P0000 T00500044 $=
201401281219 SPECI KCLM 281219Z AUTO 00000KT 6SM BR BKN009 BKN017 OVC041 05/04 A3018 RMK AO2 RAE15 P0000 T00500044 $=
201401281153 METAR KCLM 281153Z AUTO 24003KT 8SM -RA SCT010 BKN014 OVC090 05/05 A3019 RMK AO2 RAB17E28B47 SLP224 P0000 60002 70005 T00500050 10050 20039 58002 $=
201401281138 SPECI KCLM 281138Z AUTO 25004KT 7SM BKN010 OVC055 04/04 A3019 RMK AO2 RAB17E28 P0000 T00440044 $=
201401281053 METAR KCLM 281053Z AUTO 25005KT 9SM OVC007 04/04 A3020 RMK AO2 SLP227 T00440044 $=
201401280953 METAR KCLM 280953Z AUTO 25005KT 10SM OVC009 04/04 A3020 RMK AO2 CIG 007V011 SLPNO T00440044 $=
201401280939 SPECI KCLM 280939Z AUTO 24004KT 10SM BKN008 BKN013 OVC070 04/04 A3020 RMK AO2 CIG 007V011 T00390039 $=
201401280930 SPECI KCLM 280930Z AUTO 25004KT 10SM FEW008 BKN013 OVC070 04/04 A3020 RMK AO2 T00390039 $=
201401280853 METAR KCLM 280853Z AUTO 25004KT 10SM OVC070 04/04 A3019 RMK AO2 SLPNO 60002 T00440044 50004 $=
201401280753 METAR KCLM 280753Z AUTO 00000KT 6SM BR BKN075 OVC085 04/04 A3019 RMK AO2 RAE47 SLPNO P0001 T00390039 400440006 $=
201401280653 METAR KCLM 280653Z AUTO 13003KT 5SM -RA BR OVC075 04/03 A3018 RMK AO2 SLP223 P0001 T00390033 $=
201401280553 METAR KCLM 280553Z AUTO 00000KT 4SM -RA BR OVC075 04/03 A3018 RMK AO2 RAB0459 SLP221 P0003 60003 T00390028 10044 20033 50004 $=
201401280453 METAR KCLM 280453Z AUTO 25003KT 10SM OVC075 04/03 A3019 RMK AO2 SLP224 T00390028 $=
201401280353 METAR KCLM 280353Z AUTO 00000KT 8SM OVC120 04/02 A3018 RMK AO2 SLP222 T00390022 $=
201401280305 SPECI KCLM 280305Z AUTO 00000KT 5SM BR SCT005 SCT120 03/03 A3017 RMK AO2 T00330028 $=
201401280253 METAR KCLM 280253Z AUTO 21003KT 5SM BR BKN005 BKN120 03/03 A3017 RMK AO2 SLP218 T00330028 57001 $=
201401280153 METAR KCLM 280153Z AUTO 00000KT 8SM OVC006 04/03 A3017 RMK AO2 SLP218 T00390028 $=
201401280053 METAR KCLM 280053Z AUTO 00000KT 10SM OVC006 04/03 A3017 RMK AO2 SLP219 T00440028 $=
201401272353 METAR KCLM 272353Z AUTO 12003KT 10SM OVC005 04/03 A3017 RMK AO2 SLP219 T00440028 56005 $=
201401272337 SPECI KCLM 272337Z AUTO 13004KT 7SM OVC005 04/03 A3017 RMK AO2 T00440033 $=
201401272253 METAR KCLM 272253Z AUTO 08004KT 6SM BR OVC004 04/03 A3017 RMK AO2 SLP219 T00390033 $=
201401272153 METAR KCLM 272153Z AUTO 13005KT 5SM HZ OVC003 A3017 RMK AO2 SLPNO=
201401272148 SPECI KCLM 272148Z AUTO 13005KT 4SM HZ OVC002 A3018 RMK AO2=
201401272101 SPECI KCLM 272101Z AUTO 12004KT 2 1/2SM BR OVC002 A3019 RMK AO2=
201401272053 METAR KCLM 272053Z AUTO 12006KT 1 3/4SM BR OVC002 A3018 RMK AO2 SLPNO 58009=
201401272032 SPECI KCLM 272032Z AUTO 12006KT 1 3/4SM BR OVC002 A3019 RMK AO2 $=
201401272015 SPECI KCLM 272015Z AUTO 13006KT 3SM BR OVC002 A3019 RMK AO2 $=
201401272010 SPECI KCLM 272010Z AUTO 13006KT 1 1/2SM BR OVC002 A3019 RMK AO2 $=
201401272000 SPECI KCLM 272000Z AUTO 13006KT 3/4SM BR OVC002 A3019 RMK AO2 $=
201401271953 METAR KCLM 271953Z AUTO 12006KT 1SM BR OVC002 A3019 RMK AO2 SLPNO $=
201401271937 SPECI KCLM 271937Z AUTO 12005KT 1SM BR OVC002 A3020 RMK AO2 $=
201401271853 METAR KCLM 271853Z AUTO 16005KT 2SM BR OVC002 04/04 A3021 RMK AO2 SLP234 T00390039=
201401271851 SPECI KCLM 271851Z AUTO 17005KT 1 1/2SM BR OVC002 04/04 A3021 RMK AO2 PRESRR=
201401271844 SPECI KCLM 271844Z AUTO 16006KT 3/4SM BR OVC002 04/03 A3020 RMK AO2 T00390033=
201401271833 SPECI KCLM 271833Z AUTO 15004KT 1 1/2SM BR OVC002 03/03 A3019 RMK AO2 T00330033=
201401271827 SPECI KCLM 271827Z AUTO 17004KT 3SM BR OVC002 03/03 A3019 RMK AO2 T00330033=
201401271821 SPECI KCLM 271821Z AUTO 17005KT 1 1/2SM BR OVC002 03/03 A3019 RMK AO2 T00330033=
201401271814 SPECI KCLM 271814Z AUTO 16006KT 3/4SM BR OVC002 03/03 A3018 RMK AO2 T00330033=
201401271753 METAR KCLM 271753Z AUTO 1/4SM FG VV002 03/03 A3017 RMK AO2 SLP221 T00330033 10033 20022 51006 $=
201401271743 SPECI KCLM 271743Z AUTO 1/2SM FG OVC003 03/03 A3018 RMK AO2 T00330028 $=
201401271734 SPECI KCLM 271734Z AUTO 1 1/2SM BR OVC003 03/03 A3018 RMK AO2 T00280028 $=
201401271717 SPECI KCLM 271717Z AUTO 8SM OVC002 03/03 A3017 RMK AO2 T00280028 $=
201401271709 SPECI KCLM 271709Z AUTO 2SM BR OVC002 03/03 A3018 RMK AO2 T00280028 $=
201401271704 SPECI KCLM 271704Z AUTO 3/4SM BR VV002 03/03 A3017 RMK AO2 T00280028 $=
201401271653 METAR KCLM 271653Z AUTO 1/4SM FG VV002 03/03 A3017 RMK AO2 SLP220 T00330033 $=
201401271615 SPECI KCLM 271615Z AUTO 1/4SM FG VV002 03/03 A3016 RMK AO2 T00280028 $=
201401271604 SPECI KCLM 271604Z AUTO 1/2SM FG VV002 02/02 A3016 RMK AO2 T00220022 $=
201401271553 METAR KCLM 271553Z AUTO 1/4SM FG VV002 02/02 A3016 RMK AO2 SLP215 T00220022 $=
201401271548 SPECI KCLM 271548Z AUTO 1/4SM FG VV002 02/02 A3015 RMK AO2 $=
201401271523 SPECI KCLM 271523Z AUTO 3/4SM BR OVC002 02/02 A3015 RMK AO2 T00220022 $=
201401271510 SPECI KCLM 271510Z AUTO 1 3/4SM BR OVC002 02/02 A3015 RMK AO2 T00220022 $=
201401271508 SPECI KCLM 271508Z AUTO 3SM BR OVC002 02/02 A3014 RMK AO2 T00220022 $=
201401271501 SPECI KCLM 271501Z AUTO 2 1/2SM BR OVC002 02/02 A3014 RMK AO2 T00220022 $=
201401271453 METAR KCLM 271453Z AUTO 1/2SM FG VV002 02/02 A3014 RMK AO2 SLP211 T00220022 50001 $=
201401271353 METAR KCLM 271353Z AUTO 1/4SM FG VV002 02/02 A3015 RMK AO2 SLP211 T00220022 $=
201401271253 METAR KCLM 271253Z AUTO 1/4SM FG VV002 02/02 A3014 RMK AO2 SLP210 T00220022 $=
201401271153 METAR KCLM 271153Z AUTO 1/4SM FG VV002 02/02 A3014 RMK AO2 SLP208 T00220022 10022 20000 53006 $=
201401271127 SPECI KCLM 271127Z AUTO 1/4SM FG VV002 02/02 A3013 RMK AO2 T00220022 $=
201401271053 METAR KCLM 271053Z AUTO 1/4SM FG VV001 02/02 A3014 RMK AO2 SLP208 T00220017 $=
201401270953 METAR KCLM 270953Z AUTO 1/4SM FG VV001 02/01 A3012 RMK AO2 SLP201 T00170011 $=
201401270853 METAR KCLM 270853Z AUTO M1/4SM FG VV001 02/01 A3012 RMK AO2 SLP203 T00170011 50002 $=
201401270753 METAR KCLM 270753Z AUTO 1/4SM FG VV001 01/00 A3013 RMK AO2 SLP204 T00060000 400891022 $=
201401270653 METAR KCLM 270653Z AUTO 1/4SM FG VV001 01/00 A3012 RMK AO2 SLP203 T00060000 $=
201401270553 METAR KCLM 270553Z AUTO 1/4SM FG VV001 01/01 A3012 RMK AO2 SLP201 I6000 T00110011 10078 21017 55004 $=
201401270453 METAR KCLM 270453Z AUTO 1/4SM FG VV001 01/01 A3012 RMK AO2 SLP201 I1000 T00110006 $=
201401270450 SPECI KCLM 270450Z AUTO 1SM BR VV001 01/M01 A3011 RMK AO2 I1000 $=
201401270448 SPECI KCLM 270448Z AUTO 2 1/2SM BR FEW001 00/M01 A3011 RMK AO2 VIS 1/2V5 I1000 $=
201401270353 METAR KCLM 270353Z AUTO 7SM CLR M01/M01 A3011 RMK AO2 SLP200 T10061011 $=
201401270329 SPECI KCLM 270329Z AUTO 5SM BR SCT001 00/M01 A3012 RMK AO2 T00001011 $=
201401270321 SPECI KCLM 270321Z AUTO 3SM BR BKN001 01/00 A3012 RMK AO2 T00110000 $=
201401270313 SPECI KCLM 270313Z AUTO 1SM BR VV001 01/01 A3013 RMK AO2 VIS 1/4V2 1/2 T00110006 $=
201401270253 METAR KCLM 270253Z AUTO 1/4SM FG VV001 01/01 A3013 RMK AO2 SLP205 T00060006 53001 $=
201401270238 SPECI KCLM 270238Z AUTO 1/4SM FG VV001 02/01 A3012 RMK AO2 T00170011 $=
201401270234 SPECI KCLM 270234Z AUTO 1SM BR VV001 02/01 A3012 RMK AO2 T00170006 $=
201401270223 SPECI KCLM 270223Z AUTO 5SM BR FEW001 02/01 A3012 RMK AO2 T00220006 $=
201401270153 METAR KCLM 270153Z AUTO 10SM CLR 02/01 A3012 RMK AO2 SLP202 T00220006 $=
201401270053 METAR KCLM 270053Z AUTO 10SM CLR 04/01 A3012 RMK AO2 SLP202 T00390011 $=
201401262353 METAR KCLM 262353Z AUTO 10SM CLR 08/03 A3013 RMK AO2 SLP203 T00780028 10089 20028 56021 $=
201401262253 METAR KCLM 262253Z AUTO 10SM CLR 09/06 A3014 RMK AO2 SLP210 T00890061 $=
201401262153 METAR KCLM 262153Z AUTO 10SM CLR 08/07 A3016 RMK AO2 SLP215 T00780072 $=
201401262125 SPECI KCLM 262125Z AUTO 10SM FEW003 06/06 A3018 RMK AO2 T00560056 $=
201401262053 METAR KCLM 262053Z AUTO 3SM BR OVC002 05/05 A3019 RMK AO2 SLP225 T00500050 58008 $=
201401262040 SPECI KCLM 262040Z AUTO 2SM BR OVC002 05/05 A3019 RMK AO2 T00500050 $=
201401262029 SPECI KCLM 262029Z AUTO 1SM BR OVC002 04/04 A3019 RMK AO2 T00440044 $=
201401261953 METAR KCLM 261953Z AUTO 1/4SM FG VV002 04/04 A3020 RMK AO2 SLP230 T00390039 $=
201401261904 SPECI KCLM 261904Z AUTO 1/4SM FG VV002 03/03 A3022 RMK AO2 T00330033 $=
201401261853 METAR KCLM 261853Z AUTO M1/4SM FG VV001 03/03 A3022 RMK AO2 SLP236 T00330033 $=
201401261843 SPECI KCLM 261843Z AUTO M1/4SM FG VV001 03/03 A3022 RMK AO2 T00330028 $=
201401261803 SPECI KCLM 261803Z AUTO M1/4SM FG VV002 03/03 A3022 RMK AO2 T00280028 $=
201401261753 METAR KCLM 261753Z AUTO M1/4SM FG VV001 03/02 A3021 RMK AO2 SLP234 I6001 T00280022 10033 21006 56007 $=
201401261728 SPECI KCLM 261728Z AUTO M1/4SM FG VV001 03/02 A3022 RMK AO2 T00280022 $=
201401261653 METAR KCLM 261653Z AUTO 1/4SM FG VV002 02/02 A3022 RMK AO2 SLP235 T00220017 $=
201401261638 SPECI KCLM 261638Z AUTO 1/4SM FG VV002 02/01 A3022 RMK AO2 T00170011 $=
201401261553 METAR KCLM 261553Z AUTO 1/4SM FG VV001 01/01 A3022 RMK AO2 SLP238 T00110011 $=
201401261453 METAR KCLM 261453Z AUTO 1/4SM FG VV001 01/00 A3023 RMK AO2 SLP241 I1000 I3001 T00060000 58007 $=
201401261442 SPECI KCLM 261442Z AUTO 1/4SM FG VV001 00/M01 A3024 RMK AO2 T00001011 $=
201401261421 SPECI KCLM 261421Z AUTO 1/2SM FG VV001 00/M01 A3024 RMK AO2 T00001006 $=
201401261406 SPECI KCLM 261406Z AUTO 1SM BR VV001 00/00 A3024 RMK AO2 T00000000 $=
201401261353 METAR KCLM 261353Z AUTO 1/4SM FG VV001 01/00 A3024 RMK AO2 SLP244 T00060000 $=
201401261253 METAR KCLM 261253Z AUTO 1/4SM FG VV001 01/01 A3025 RMK AO2 SLP248 I1001 T00110006 $=
201401261233 SPECI KCLM 261233Z AUTO 1/4SM FG VV001 01/00 A3025 RMK AO2 I1001 T00060000 $=
201401261214 SPECI KCLM 261214Z AUTO 1/2SM FG VV002 01/00 A3026 RMK AO2 I1001 T00060000 $=
201401261207 SPECI KCLM 261207Z AUTO 3/4SM BR VV001 00/M01 A3025 RMK AO2 T00001006 $=
201401261204 SPECI KCLM 261204Z AUTO 2 1/2SM BR FEW001 00/M01 A3025 RMK AO2 T00001006 $=
201401261153 METAR KCLM 261153Z AUTO 10SM CLR M01/M01 A3026 RMK AO2 SLP248 I6003 T10061011 10006 21022 56005 $=
201401261053 METAR KCLM 261053Z AUTO 6SM BR CLR M01/M02 A3026 RMK AO2 SLP251 I1001 T10111017 $=
201401261035 SPECI KCLM 261035Z AUTO 4SM BR FEW002 M02/M03 A3026 RMK AO2 I1000 T10221028 $=
201401261027 SPECI KCLM 261027Z AUTO 2SM BR SCT002 M01/M02 A3026 RMK AO2 I1000 T10061017 $=
201401261017 SPECI KCLM 261017Z AUTO 00000KT 1 3/4SM BR BKN002 M01/M02 A3026 RMK AO2 I1000 T10111017 $=
201401261002 SPECI KCLM 261002Z AUTO 19003KT 1/2SM FZFG VV002 M01/M02 A3026 RMK AO2 T10111017 $=
201401260953 METAR KCLM 260953Z AUTO 10003KT M1/4SM FG VV001 00/M01 A3026 RMK AO2 SLP250 I1001 T00001006 $=
201401260927 SPECI KCLM 260927Z AUTO 13003KT 1/4SM FZFG VV001 M01/M02 A3027 RMK AO2 T10061017 $=
201401260917 SPECI KCLM 260917Z AUTO 00000KT 3/4SM BR VV001 M01/M02 A3027 RMK AO2 T10111022 $=
201401260855 SPECI KCLM 260855Z AUTO 00000KT 1SM BR VV002 M01/M01 A3027 RMK AO2 VIS 1/2V5 T10061011 $=
201401260853 METAR KCLM 260853Z AUTO 00000KT 1 1/2SM BR CLR 00/M01 A3027 RMK AO2 VIS 1/2V5 SLP254 I1001 I3001 T00001011 58006 $=
201401260753 METAR KCLM 260753Z AUTO 00000KT 5SM BR CLR M01/M02 A3028 RMK AO2 SLP257 T10111017 400781028 $=
201401260709 SPECI KCLM 260709Z AUTO 00000KT 4SM BR FEW001 M01/M01 A3029 RMK AO2 T10061011 $=
201401260658 SPECI KCLM 260658Z AUTO 20003KT 2SM BR SCT001 M01/M01 A3029 RMK AO2 VIS 1 1/4V4 T10061011 $=
201401260653 METAR KCLM 260653Z AUTO 18004KT 3/4SM BR VV001 01/M01 A3029 RMK AO2 SLP259 I1000 T00061006 $=
201401260553 METAR KCLM 260553Z AUTO 16004KT M1/4SM FG VV001 00/M01 A3029 RMK AO2 SLP260 I1001 I6001 T00001006 10033 21006 55001=
201401260528 SPECI KCLM 260528Z AUTO 00000KT 1/4SM FZFG VV001 M01/M02 A3029 RMK AO2 T10061017=
201401260518 SPECI KCLM 260518Z AUTO 08003KT 1/2SM FZFG VV001 M01/M02 A3029 RMK AO2 T10061017=
201401260453 METAR KCLM 260453Z AUTO 00000KT 1/4SM FG VV001 00/M01 A3029 RMK AO2 SLP260 I1000 T00001006=
201401260407 SPECI KCLM 260407Z AUTO 00000KT 1/4SM FG VV001 01/00 A3029 RMK AO2 T00060000=
201401260400 SPECI KCLM 260400Z AUTO 00000KT 1SM BR VV001 01/00 A3029 RMK AO2 T00060000=
201401260357 SPECI KCLM 260357Z AUTO 00000KT 2SM BR FEW001 00/M01 A3029 RMK AO2 T00001006=
201401260353 METAR KCLM 260353Z AUTO 00000KT 3SM BR CLR 00/M01 A3029 RMK AO2 SLP261 I1000 T00001006=
201401260306 SPECI KCLM 260306Z AUTO 00000KT 4SM BR CLR 01/M01 A3029 RMK AO2 T00061006=
201401260258 SPECI KCLM 260258Z AUTO 20003KT 2SM BR FEW001 01/M01 A3029 RMK AO2 T00061006=
201401260253 METAR KCLM 260253Z AUTO 00000KT 1SM BR VV001 00/M01 A3029 RMK AO2 SLP262 T00001006 56012=
201401260240 SPECI KCLM 260240Z AUTO 00000KT 3/4SM BR VV001 01/00 A3030 RMK AO2 T00110000=
201401260153 METAR KCLM 260153Z AUTO 00000KT 1/4SM FG VV001 02/01 A3031 RMK AO2 SLP266 T00170011=
201401260053 METAR KCLM 260053Z AUTO 00000KT M1/4SM FG VV001 03/03 A3031 RMK AO2 SLP268 T00330028=
201401260004 SPECI KCLM 260004Z AUTO 00000KT 1/4SM FG OVC001 04/04 A3033 RMK AO2 T00440039=
201401252353 METAR KCLM 252353Z AUTO 00000KT 1/2SM FG OVC001 05/04 A3033 RMK AO2 SLP274 T00500039 10078 20044 58009=
201401252257 SPECI KCLM 252257Z AUTO 04003KT 1/4SM FG VV001 05/04 A3034 RMK AO2 T00500039=
201401252253 METAR KCLM 252253Z AUTO 04004KT 3/4SM BR VV002 06/04 A3034 RMK AO2 SLP277 T00560039=
201401252246 SPECI KCLM 252246Z AUTO 00000KT 1 3/4SM BR FEW001 06/04 A3034 RMK AO2 T00560039=
201401252231 SPECI KCLM 252231Z AUTO 04003KT 10SM SCT002 06/04 A3034 RMK AO2 T00610044=
201401252221 SPECI KCLM 252221Z AUTO 00000KT 1SM BR VV002 06/04 A3034 RMK AO2 T00560044=
201401252153 METAR KCLM 252153Z AUTO 00000KT 1/4SM FG VV002 05/04 A3035 RMK AO2 SLP280 T00500039=
201401252122 SPECI KCLM 252122Z AUTO 00000KT 1/4SM FG OVC002 05/04 A3035 RMK AO2 T00500039=
201401252106 SPECI KCLM 252106Z AUTO 04003KT 1/2SM FG OVC002 06/04 A3036 RMK AO2 T00560044=
201401252053 METAR KCLM 252053Z AUTO 00000KT 1/4SM FG OVC002 05/04 A3036 RMK AO2 SLP283 T00500039 56004=
201401252049 SPECI KCLM 252049Z AUTO 00000KT 1/2SM FG OVC002 05/04 A3036 RMK AO2=
201401252038 SPECI KCLM 252038Z AUTO 00000KT 1/4SM FG OVC001 05/04 A3036 RMK AO2 T00500044=
201401252029 SPECI KCLM 252029Z AUTO 00000KT 1/2SM FG OVC002 05/04 A3036 RMK AO2 T00500039=
201401252021 SPECI KCLM 252021Z AUTO 03003KT 1SM BR OVC002 06/04 A3037 RMK AO2 T00560044=
201401252000 SPECI KCLM 252000Z AUTO VRB03KT 1/2SM FG OVC002 05/04 A3037 RMK AO2 T00500039=
201401251953 METAR KCLM 251953Z AUTO 36003KT 1 1/4SM BR BKN001 06/04 A3037 RMK AO2 VIS 1/2V5 SLP287 T00560044=
201401251949 SPECI KCLM 251949Z AUTO 36003KT 3SM BR BKN001 06/04 A3037 RMK AO2=
201401251935 SPECI KCLM 251935Z AUTO 01005KT 7SM FEW001 06/04 A3037 RMK AO2 T00610044=
201401251853 METAR KCLM 251853Z AUTO VRB03KT 10SM CLR 07/03 A3038 RMK AO2 SLP289 T00670033=
201401251753 METAR KCLM 251753Z AUTO 08003KT 10SM CLR 06/03 A3036 RMK AO2 SLP284 I6004 T00610033 10061 21028 51014 $=
201401251653 METAR KCLM 251653Z AUTO 00000KT 10SM CLR 00/M01 A3035 RMK AO2 SLP279 I1003 T00001006=
201401251553 METAR KCLM 251553Z AUTO 10SM CLR M02/M03 A3034 RMK AO2 SLP278 I1000 T10221033 $=
201401251453 METAR KCLM 251453Z AUTO 10SM CLR M02/M03 A3032 RMK AO2 SLP271 I1000 I3001 T10171028 55001 $=
201401251353 METAR KCLM 251353Z AUTO 00000KT 10SM CLR M02/M03 A3032 RMK AO2 SLP269 I1000 T10221033 $=
201401251253 METAR KCLM 251253Z AUTO 00000KT 10SM CLR M01/M01 A3032 RMK AO2 SLP271 I1001 T10061011 $=
201401251153 METAR KCLM 251153Z AUTO 00000KT 10SM CLR 01/M01 A3032 RMK AO2 SLP271 I6002 T00061006 10033 21011 53004 $=
201401251053 METAR KCLM 251053Z AUTO 23006KT 10SM CLR 01/M01 A3032 RMK AO2 SLP268 T00061006 $=
201401250953 METAR KCLM 250953Z AUTO 00000KT 10SM CLR 00/M01 A3031 RMK AO2 SLP266 I1001 T00001011 $=
201401250853 METAR KCLM 250853Z AUTO 00000KT 10SM CLR 00/M01 A3031 RMK AO2 SLP267 I1001 I3001 T00001011 58001 $=
201401250753 METAR KCLM 250753Z AUTO 00000KT 10SM CLR 01/00 A3031 RMK AO2 SLP267 T00060000 401061011 $=
201401250653 METAR KCLM 250653Z AUTO 22006KT 10SM CLR 02/01 A3032 RMK AO2 SLP268 T00170006 $=
201401250553 METAR KCLM 250553Z AUTO 22004KT 10SM CLR 02/01 A3032 RMK AO2 SLP268 T00220006 10083 20006 55000 $=
201401250453 METAR KCLM 250453Z AUTO 22004KT 10SM CLR 01/01 A3031 RMK AO2 SLP267 T00110006 $=
201401250353 METAR KCLM 250353Z AUTO 17004KT 10SM CLR 01/00 A3031 RMK AO2 SLP268 T00110000 $=
201401250253 METAR KCLM 250253Z AUTO 17003KT 10SM CLR 02/01 A3032 RMK AO2 SLP269 T00220011 55002 $=
201401250153 METAR KCLM 250153Z AUTO 00000KT 10SM CLR 03/01 A3031 RMK AO2 SLP266 T00330006=
201401250053 METAR KCLM 250053Z AUTO 14004KT 10SM CLR 06/03 A3032 RMK AO2 SLP271 T00560028=
201401242353 METAR KCLM 242353Z AUTO 08005KT 10SM CLR 08/04 A3032 RMK AO2 SLP270 T00830039 10106 20067 56022=
201401242253 METAR KCLM 242253Z AUTO 11004KT 10SM CLR 10/03 A3033 RMK AO2 SLP274 T01000028=
201401242153 METAR KCLM 242153Z AUTO 08005KT 10SM CLR 09/02 A3036 RMK AO2 SLP281 T00940022=
201401242053 METAR KCLM 242053Z AUTO 08006KT 10SM CLR 09/03 A3039 RMK AO2 SLP293 T00940033 58008=
201401241953 METAR KCLM 241953Z AUTO 09006KT 10SM CLR 08/03 A3040 RMK AO2 SLP297 T00830033=
201401241853 METAR KCLM 241853Z AUTO 11005KT 10SM CLR 08/03 A3041 RMK AO2 SLP301 T00780033=
201401241753 METAR KCLM 241753Z AUTO 08005KT 10SM CLR 07/03 A3041 RMK AO2 SLP301 I6000 T00720028 10072 21011 53006=
201401241653 METAR KCLM 241653Z AUTO 00000KT 10SM CLR 01/00 A3040 RMK AO2 SLP298 T00060000=
201401241553 METAR KCLM 241553Z AUTO 11004KT 10SM CLR 01/M01 A3040 RMK AO2 SLP297 T00061006=
201401241453 METAR KCLM 241453Z AUTO 14003KT 10SM CLR 01/00 A3039 RMK AO2 SLP296 I3000 T00060000 58008=
201401241353 METAR KCLM 241353Z AUTO 13005KT 10SM CLR M01/M02 A3041 RMK AO2 SLP299 I1000 T10111022=
201401241253 METAR KCLM 241253Z AUTO 00000KT 10SM CLR M01/M01 A3041 RMK AO2 SLP300 T10061011=
201401241153 METAR KCLM 241153Z AUTO 24004KT 10SM CLR 01/M01 A3042 RMK AO2 SLP304 I6001 T00061006 10028 21011 58004=
201401241053 METAR KCLM 241053Z AUTO 16004KT 10SM CLR 01/M01 A3043 RMK AO2 SLP308 I1000 T00111006=
201401240953 METAR KCLM 240953Z AUTO 16005KT 10SM CLR 00/M02 A3044 RMK AO2 SLP311 I1000 T00001017=
201401240853 METAR KCLM 240853Z AUTO 00000KT 10SM CLR M01/M01 A3043 RMK AO2 SLP308 I1001 I3001 T10061011 55002=
201401240753 METAR KCLM 240753Z AUTO 00000KT 10SM CLR M01/M01 A3043 RMK AO2 SLP308 I1000 T10061011 400671006=
201401240653 METAR KCLM 240653Z AUTO 00000KT 10SM CLR 01/M01 A3042 RMK AO2 SLP305 T00061006=
201401240553 METAR KCLM 240553Z AUTO 17004KT 10SM CLR M01/M02 A3044 RMK AO2 SLP310 T10061017 10061 21006 51010=
201401240453 METAR KCLM 240453Z AUTO 16004KT 10SM CLR 02/01 A3043 RMK AO2 SLP307 T00170006=
201401240353 METAR KCLM 240353Z AUTO 12005KT 10SM CLR 03/02 A3042 RMK AO2 SLP306 T00280017=
201401240253 METAR KCLM 240253Z AUTO 10003KT 10SM CLR 03/01 A3041 RMK AO2 SLP299 T00330011 55001=
201401240153 METAR KCLM 240153Z AUTO 14005KT 5SM BR CLR 02/01 A3041 RMK AO2 SLP300 T00170011=
201401240053 METAR KCLM 240053Z AUTO 15006KT 10SM CLR 04/03 A3040 RMK AO2 SLP298 T00390028=
201401232353 METAR KCLM 232353Z AUTO 10006KT 10SM CLR 06/03 A3041 RMK AO2 SLP300 T00610033 10067 20044 56018=
201401232253 METAR KCLM 232253Z AUTO 10004KT 10SM SCT006 07/04 A3042 RMK AO2 SLP302 T00670039=
201401232153 METAR KCLM 232153Z AUTO 13003KT 10SM OVC006 06/04 A3043 RMK AO2 SLP308 T00560039=
201401232053 METAR KCLM 232053Z AUTO 14006KT 10SM OVC006 06/03 A3046 RMK AO2 SLP318 T00560033 58003=
201401231953 METAR KCLM 231953Z AUTO 13005KT 10SM OVC005 05/03 A3047 RMK AO2 SLP323 T00500033=
201401231918 SPECI KCLM 231918Z AUTO 14005KT 10SM OVC005 04/03 A3049 RMK AO2 T00440033=
201401231853 METAR KCLM 231853Z AUTO 13006KT 10SM OVC004 04/03 A3048 RMK AO2 SLP324 T00440033=
201401231824 SPECI KCLM 231824Z AUTO 13006KT 10SM OVC004 04/03 A3047 RMK AO2 T00440033=
201401231753 METAR KCLM 231753Z AUTO 16006KT 10SM OVC005 04/03 A3047 RMK AO2 SLP322 T00440033 10050 20033 53001=
201401231653 METAR KCLM 231653Z AUTO 13005KT 10SM OVC006 04/03 A3046 RMK AO2 SLP315 T00440028=
201401231553 METAR KCLM 231553Z AUTO 14006KT 10SM OVC007 04/03 A3047 RMK AO2 SLP319 T00390028=
201401231453 METAR KCLM 231453Z AUTO 15006KT 10SM OVC006 04/03 A3047 RMK AO2 SLP321 T00390028 50001=
201401231353 METAR KCLM 231353Z AUTO 13003KT 10SM OVC006 04/03 A3048 RMK AO2 SLP322 T00390033=
201401231253 METAR KCLM 231253Z AUTO 17004KT 10SM OVC005 04/03 A3048 RMK AO2 SLP323 T00390033=
201401231153 METAR KCLM 231153Z AUTO 00000KT 8SM OVC006 03/03 A3046 RMK AO2 SLP318 70001 T00330028 10033 21006 53001=
201401231053 METAR KCLM 231053Z AUTO 16003KT 10SM OVC006 02/01 A3046 RMK AO2 SLP316 T00170011=
201401231000 SPECI KCLM 231000Z AUTO 21003KT 10SM BKN006 01/01 A3046 RMK AO2 T00110006=
201401230953 METAR KCLM 230953Z AUTO 00000KT 9SM SCT005 01/00 A3046 RMK AO2 SLP317 T00110000=
201401230951 SPECI KCLM 230951Z AUTO 00000KT 9SM SCT005 01/00 A3046 RMK AO2=
201401230853 METAR KCLM 230853Z AUTO 14004KT 8SM CLR 00/M01 A3046 RMK AO2 SLP317 T00001006 50002=
201401230753 METAR KCLM 230753Z AUTO 00000KT 9SM CLR 01/00 A3046 RMK AO2 SLP318 T00110000 400720006=
201401230653 METAR KCLM 230653Z AUTO 15005KT 10SM CLR 02/01 A3045 RMK AO2 SLP313 T00220011=
201401230553 METAR KCLM 230553Z AUTO 00000KT 9SM CLR 02/02 A3045 RMK AO2 SLP314 T00220017 10072 20022 53005=
201401230501 SPECI KCLM 230501Z AUTO 18005KT 10SM SCT012 04/03 A3044 RMK AO2 T00440028=
201401230453 METAR KCLM 230453Z AUTO 17006KT 10SM BKN012 04/03 A3044 RMK AO2 SLP310 T00390028=
201401230353 METAR KCLM 230353Z AUTO 16003KT 9SM OVC012 03/03 A3044 RMK AO2 SLP310 T00330028=
201401230253 METAR KCLM 230253Z AUTO 17004KT 9SM OVC012 03/02 A3044 RMK AO2 SLP309 T00280022 53002=
201401230217 SPECI KCLM 230217Z AUTO 19003KT 3SM BR BKN010 03/02 A3043 RMK AO2 T00330022=
201401230214 SPECI KCLM 230214Z AUTO 17005KT 2SM BR SCT010 03/02 A3043 RMK AO2 T00280017=
201401230153 METAR KCLM 230153Z AUTO 00000KT 10SM CLR 04/03 A3043 RMK AO2 SLP305 T00390033=
201401230122 SPECI KCLM 230122Z AUTO 00000KT 10SM SCT010 06/04 A3042 RMK AO2 T00560039=
201401230053 METAR KCLM 230053Z AUTO 17004KT 10SM OVC010 06/04 A3043 RMK AO2 SLP306 T00610039=
201401222353 METAR KCLM 222353Z AUTO 10004KT 10SM OVC012 07/04 A3043 RMK AO2 SLP306 T00720044 10072 20061 55002=
201401222253 METAR KCLM 222253Z AUTO 10006KT 10SM OVC013 07/04 A3043 RMK AO2 SLP306 T00720044=
201401222211 SPECI KCLM 222211Z AUTO 11007KT 10SM OVC011 07/05 A3042 RMK AO2 T00720050=
201401222153 METAR KCLM 222153Z AUTO 09007KT 10SM OVC009 07/05 A3042 RMK AO2 CIG 006V012 SLP303 T00720050=
201401222119 SPECI KCLM 222119Z AUTO 11006KT 9SM OVC007 07/05 A3044 RMK AO2 CIG 004V010 T00670050=
201401222053 METAR KCLM 222053Z AUTO 11006KT 3SM BR OVC004 07/06 A3044 RMK AO2 SLP308 T00670056 50008=
201401222008 SPECI KCLM 222008Z AUTO 10005KT 4SM BR OVC005 06/05 A3044 RMK AO2 CIG 003V008 T00610050=
201401221953 METAR KCLM 221953Z AUTO 11006KT 3SM BR OVC004 06/05 A3044 RMK AO2 SLP311 T00610050=
201401221902 SPECI KCLM 221902Z AUTO 09003KT 3SM BR OVC004 07/06 A3044 RMK AO2 T00670056=
201401221853 METAR KCLM 221853Z AUTO 10003KT 2 1/2SM BR OVC003 07/06 A3044 RMK AO2 SLP309 T00670056=
201401221841 SPECI KCLM 221841Z AUTO 07003KT 2SM BR OVC002 07/06 A3044 RMK AO2 T00670056=
201401221834 SPECI KCLM 221834Z AUTO 10004KT 1 3/4SM BR OVC002 07/06 A3043 RMK AO2 T00670056=
201401221812 SPECI KCLM 221812Z AUTO 07004KT 1SM BR OVC001 06/06 A3042 RMK AO2 T00610056=
201401221753 METAR KCLM 221753Z AUTO 00000KT 1/4SM FG VV001 07/06 A3041 RMK AO2 SLP300 60001 T00670056 10067 20050 53015=
201401221747 SPECI KCLM 221747Z AUTO 00000KT 1/4SM FG OVC002 07/06 A3041 RMK AO2=
201401221732 SPECI KCLM 221732Z AUTO 00000KT 1 3/4SM BR OVC003 07/06 A3040 RMK AO2 CIG 001V006 T00670056=
201401221700 SPECI KCLM 221700Z AUTO 00000KT 10SM BKN007 OVC022 06/05 A3039 RMK AO2 T00610050=
201401221653 METAR KCLM 221653Z AUTO 00000KT 10SM SCT007 OVC022 06/05 A3038 RMK AO2 SLP291 T00610050=
201401221651 SPECI KCLM 221651Z AUTO 00000KT 10SM SCT007 OVC022 06/05 A3038 RMK AO2=
201401221618 SPECI KCLM 221618Z AUTO 00000KT 10SM BKN022 OVC035 06/04 A3037 RMK AO2 T00560044=
201401221553 METAR KCLM 221553Z AUTO 22003KT 10SM SCT029 OVC035 05/04 A3037 RMK AO2 SLP285 T00500039=
201401221541 SPECI KCLM 221541Z AUTO 00000KT 10SM BKN028 OVC037 06/04 A3037 RMK AO2 T00560044=
201401221453 METAR KCLM 221453Z AUTO 24004KT 10SM FEW007 FEW018 OVC038 06/04 A3037 RMK AO2 SLP286 60001 T00560039 51000=
201401221449 SPECI KCLM 221449Z AUTO 24004KT 10SM FEW007 SCT020 OVC038 06/04 A3037 RMK AO2=
201401221353 METAR KCLM 221353Z AUTO 00000KT 10SM FEW006 SCT017 OVC029 06/04 A3038 RMK AO2 RAB04E32 SLP288 P0001 T00560044=
201401221345 SPECI KCLM 221345Z AUTO 00000KT 6SM BR FEW006 BKN017 OVC027 06/04 A3038 RMK AO2 RAB04E32 P0001 T00610044=
201401221310 SPECI KCLM 221310Z AUTO 00000KT 5SM -RA BR BKN007 OVC017 06/04 A3037 RMK AO2 RAB04 CIG 005V011 P0000 T00610039=
201401221253 METAR KCLM 221253Z AUTO 00000KT 10SM BKN010 OVC017 06/04 A3037 RMK AO2 CIG 009V013 SLP286 T00610044=
201401221230 SPECI KCLM 221230Z AUTO 00000KT 10SM BKN013 OVC034 06/04 A3036 RMK AO2 T00610039=
201401221202 SPECI KCLM 221202Z AUTO 24005KT 10SM SCT015 BKN036 OVC050 06/04 A3035 RMK AO2 T00560039=
201401221153 METAR KCLM 221153Z AUTO 25004KT 10SM BKN015 OVC034 06/04 A3036 RMK AO2 SLP281 T00610044 10067 20050 51014=
201401221139 SPECI KCLM 221139Z AUTO 22004KT 10SM BKN014 OVC036 06/04 A3036 RMK AO2 T00610039=
201401221053 METAR KCLM 221053Z AUTO 00000KT 10SM OVC037 06/04 A3035 RMK AO2 SLP280 T00610039=
201401220953 METAR KCLM 220953Z AUTO 22004KT 10SM OVC040 06/04 A3034 RMK AO2 SLP275 T00610039=
201401220853 METAR KCLM 220853Z AUTO 22003KT 10SM OVC055 05/03 A3031 RMK AO2 SLP267 T00500033 50003=
201401220753 METAR KCLM 220753Z AUTO 24005KT 10SM SCT048 OVC060 06/04 A3032 RMK AO2 SLP269 T00610039 400671017=
201401220653 METAR KCLM 220653Z AUTO 24005KT 10SM OVC050 06/03 A3031 RMK AO2 SLP267 T00560033=
201401220553 METAR KCLM 220553Z AUTO 29004KT 10SM BKN060 OVC080 05/03 A3030 RMK AO2 SLP264 T00500033 10067 20050 51012=
201401220453 METAR KCLM 220453Z AUTO 24005KT 10SM FEW024 SCT080 06/04 A3030 RMK AO2 SLP263 T00610039=
201401220446 SPECI KCLM 220446Z AUTO 22005KT 10SM SCT024 06/04 A3030 RMK AO2 T00610039=
201401220403 SPECI KCLM 220403Z AUTO 23005KT 10SM BKN024 OVC100 06/04 A3029 RMK AO2 T00610039=
201401220353 METAR KCLM 220353Z AUTO 23005KT 10SM SCT024 OVC100 06/03 A3029 RMK AO2 PRESRR SLP258 T00610033=
201401220253 METAR KCLM 220253Z AUTO 25004KT 10SM BKN120 06/03 A3027 RMK AO2 SLP252 T00610033 55000=
201401220153 METAR KCLM 220153Z AUTO 25005KT 10SM SCT120 06/03 A3026 RMK AO2 SLP248 T00560033=
201401220053 METAR KCLM 220053Z AUTO 26006KT 10SM SCT120 06/03 A3027 RMK AO2 SLP253 T00610033=
201401212353 METAR KCLM 212353Z AUTO 29007KT 10SM CLR 06/03 A3027 RMK AO2 PRESRR SLP252 T00560033 10067 20056 53005=
201401212253 METAR KCLM 212253Z AUTO 00000KT 10SM CLR 06/03 A3023 RMK AO2 SLP238 T00610033=
201401212153 METAR KCLM 212153Z AUTO 10004KT 10SM CLR 06/03 A3023 RMK AO2 SLP240 T00610033=
201401212053 METAR KCLM 212053Z AUTO 08003KT 10SM CLR 07/03 A3025 RMK AO2 SLP248 T00670033 58007=
201401212013 SPECI KCLM 212013Z AUTO 07003KT 10SM SCT012 07/03 A3027 RMK AO2 T00670033=
201401212000 SPECI KCLM 212000Z AUTO 08004KT 10SM BKN011 07/03 A3027 RMK AO2 T00670033=
201401211953 METAR KCLM 211953Z AUTO 08003KT 10SM SCT011 07/03 A3027 RMK AO2 SLP254 T00670033=
201401211853 METAR KCLM 211853Z AUTO 12005KT 10SM FEW012 07/03 A3027 RMK AO2 SLP254 T00670033 TSNO=
201401211845 SPECI KCLM 211845Z AUTO 11004KT 10SM SCT012 07/03 A3027 RMK AO2 T00670033 TSNO=
201401211811 SPECI KCLM 211811Z AUTO 18003KT 10SM OVC010 06/04 A3028 RMK AO2 T00610039=
201401211753 METAR KCLM 211753Z AUTO 00000KT 10SM OVC009 06/04 A3028 RMK AO2 SLP255 T00610039 10061 20033 53002=
201401211653 METAR KCLM 211653Z AUTO 00000KT 10SM OVC008 04/03 A3026 RMK AO2 SLP249 T00440033 TSNO=
201401211624 SPECI KCLM 211624Z AUTO 12003KT 10SM OVC009 04/03 A3025 RMK AO2 CIG 008V011 T00440033=
201401211553 METAR KCLM 211553Z AUTO 13003KT 10SM OVC011 04/03 A3026 RMK AO2 SLP250 T00390028=
201401211515 SPECI KCLM 211515Z AUTO 12004KT 10SM OVC010 04/03 A3026 RMK AO2 T00390028=
201401211453 METAR KCLM 211453Z AUTO 00000KT 10SM OVC009 04/03 A3027 RMK AO2 SLP253 T00440028 55000=
201401211353 METAR KCLM 211353Z AUTO 13005KT 10SM OVC009 04/03 A3025 RMK AO2 SLP247 T00390028=
201401211253 METAR KCLM 211253Z AUTO 14004KT 10SM OVC005 04/03 A3027 RMK AO2 SLP251 T00390028=
201401211153 METAR KCLM 211153Z AUTO 00000KT 10SM OVC007 04/02 A3027 RMK AO2 SLP252 I6002 T00390022 10039 21017 55005=
201401211053 METAR KCLM 211053Z AUTO 13004KT 9SM OVC007 03/02 A3026 RMK AO2 SLP249 T00330022=
201401210953 METAR KCLM 210953Z AUTO 13005KT 10SM OVC008 03/02 A3028 RMK AO2 SLP254 T00330022=
201401210853 METAR KCLM 210853Z AUTO 14006KT 10SM BKN007 00/M01 A3028 RMK AO2 SLP258 I1001 I3002 T00001011 58007=
201401210848 SPECI KCLM 210848Z AUTO 14005KT 10SM BKN007 M01/M01 A3029 RMK AO2 I1000=
201401210813 SPECI KCLM 210813Z AUTO 00000KT 10SM FEW009 M01/M02 A3030 RMK AO2 T10111022=
201401210753 METAR KCLM 210753Z AUTO 18003KT 9SM CLR 00/M01 A3030 RMK AO2 SLP265 T00001011 400611011=
201401210653 METAR KCLM 210653Z AUTO 00000KT 9SM CLR 01/M01 A3031 RMK AO2 SLP265 I1001 T00061006=
201401210553 METAR KCLM 210553Z AUTO 00000KT 9SM CLR M01/M02 A3030 RMK AO2 SLP262 I6001 T10061022 10061 21011 50000=
201401210453 METAR KCLM 210453Z AUTO 16003KT 7SM CLR M01/M02 A3030 RMK AO2 SLP262 I1001 T10061017=
201401210353 METAR KCLM 210353Z AUTO 00000KT 10SM CLR 00/M01 A3030 RMK AO2 SLP264 T00001011=
201401210253 METAR KCLM 210253Z AUTO 00000KT 8SM CLR 01/M01 A3030 RMK AO2 SLP262 T00061006 55001=
201401210153 METAR KCLM 210153Z AUTO 00000KT 10SM CLR 03/02 A3029 RMK AO2 SLP259 T00280017=
201401210053 METAR KCLM 210053Z AUTO 14004KT 10SM CLR 03/01 A3028 RMK AO2 SLP257 T00330011=
201401202353 METAR KCLM 202353Z AUTO 15005KT 10SM CLR 06/02 A3030 RMK AO2 SLP262 T00610022 10061 20056 58005=
201401202253 METAR KCLM 202253Z AUTO 13006KT 10SM SCT013 06/02 A3030 RMK AO2 SLP264 T00610022=
201401202153 METAR KCLM 202153Z AUTO 09003KT 10SM OVC012 06/02 A3031 RMK AO2 SLP265 T00560022=
201401202053 METAR KCLM 202053Z AUTO 08003KT 10SM OVC012 06/02 A3031 RMK AO2 SLP267 T00560022 58012=
201401201953 METAR KCLM 201953Z AUTO 07005KT 10SM OVC011 06/02 A3033 RMK AO2 SLP273 T00560022=
201401201853 METAR KCLM 201853Z AUTO 13005KT 10SM OVC012 06/02 A3035 RMK AO2 SLP278 T00560022=
201401201753 METAR KCLM 201753Z AUTO 09003KT 10SM OVC011 06/03 A3035 RMK AO2 SLP279 T00560028 10056 20050 53005=
201401201653 METAR KCLM 201653Z AUTO 12006KT 10SM OVC011 06/03 A3034 RMK AO2 SLP275 T00560028=
201401201553 METAR KCLM 201553Z AUTO 13004KT 10SM OVC011 05/03 A3034 RMK AO2 SLP276 T00500028=
201401201453 METAR KCLM 201453Z AUTO 10003KT 10SM OVC011 05/03 A3033 RMK AO2 SLP274 T00500028 53004=
201401201413 SPECI KCLM 201413Z AUTO 11003KT 10SM OVC010 05/03 A3032 RMK AO2 T00500028=
201401201353 METAR KCLM 201353Z AUTO 00000KT 10SM OVC009 05/03 A3032 RMK AO2 SLP269 T00500028=
201401201253 METAR KCLM 201253Z AUTO 12004KT 10SM OVC009 05/03 A3032 RMK AO2 SLP270 T00500028=
201401201153 METAR KCLM 201153Z AUTO 13004KT 10SM OVC009 06/03 A3032 RMK AO2 SLP269 T00560033 10056 20050 53001=
201401201053 METAR KCLM 201053Z AUTO 09005KT 10SM OVC009 06/03 A3032 RMK AO2 SLP269 T00560033=
201401200953 METAR KCLM 200953Z AUTO 11007KT 10SM OVC009 06/03 A3032 RMK AO2 SLP268 T00560033=
201401200920 SPECI KCLM 200920Z AUTO 11006KT 10SM OVC008 06/03 A3032 RMK AO2 T00560033=
201401200853 METAR KCLM 200853Z AUTO 11004KT 10SM OVC010 06/03 A3032 RMK AO2 SLP268 T00560033 50003=
201401200829 SPECI KCLM 200829Z AUTO 11005KT 10SM OVC010 06/03 A3031 RMK AO2 T00560033=
201401200753 METAR KCLM 200753Z AUTO 13004KT 10SM OVC009 06/03 A3032 RMK AO2 SLP269 T00560033 400670050=
201401200702 SPECI KCLM 200702Z AUTO 14006KT 10SM OVC009 05/03 A3031 RMK AO2 T00500033=
201401200653 METAR KCLM 200653Z AUTO 13005KT 10SM OVC010 05/03 A3031 RMK AO2 SLP266 T00500033=
201401200633 SPECI KCLM 200633Z AUTO 14007KT 10SM OVC010 05/03 A3031 RMK AO2 T00500033=
201401200553 METAR KCLM 200553Z AUTO 14006KT 10SM OVC008 06/04 A3031 RMK AO2 SLP265 T00560039 10061 20056 51008=
201401200453 METAR KCLM 200453Z AUTO 13006KT 10SM OVC009 06/04 A3030 RMK AO2 SLP262 T00560039=
201401200353 METAR KCLM 200353Z AUTO 12006KT 10SM OVC006 06/04 A3029 RMK AO2 CIG 004V008 SLP261 T00560039=
201401200313 SPECI KCLM 200313Z AUTO 10006KT 8SM OVC004 06/04 A3028 RMK AO2 CIG 003V007 T00560039=
201401200253 METAR KCLM 200253Z AUTO 12006KT 10SM OVC006 06/04 A3028 RMK AO2 SLP257 T00560039 52016=
201401200153 METAR KCLM 200153Z AUTO 11005KT 10SM OVC005 06/04 A3027 RMK AO2 SLP251 T00560039=
201401200053 METAR KCLM 200053Z AUTO 08003KT 10SM OVC005 06/04 A3026 RMK AO2 SLP247 T00610044=
201401192353 METAR KCLM 192353Z AUTO 07005KT 10SM OVC006 06/04 A3024 RMK AO2 SLP241 T00610044 10067 20061 55006=
201401192253 METAR KCLM 192253Z AUTO 11008KT 9SM OVC005 06/04 A3022 RMK AO2 SLP237 T00610044=
201401192221 SPECI KCLM 192221Z AUTO 11006KT 5SM BR OVC005 06/04 A3025 RMK AO2 T00610044=
201401192153 METAR KCLM 192153Z AUTO 10006KT 3SM BR OVC004 06/04 A3024 RMK AO2 SLP241 T00610044=
201401192145 SPECI KCLM 192145Z AUTO 09005KT 3SM BR OVC004 06/04 A3024 RMK AO2 T00610044=
201401192105 SPECI KCLM 192105Z AUTO 06004KT 2 1/2SM BR OVC005 06/04 A3026 RMK AO2 T00610044=
201401192053 METAR KCLM 192053Z AUTO 08003KT 3SM BR OVC005 06/04 A3026 RMK AO2 SLP248 T00610044 51021=
201401192043 SPECI KCLM 192043Z AUTO 07004KT 3SM BR OVC005 06/04 A3026 RMK AO2 T00610044=
201401192010 SPECI KCLM 192010Z AUTO 08004KT 4SM BR OVC004 06/04 A3025 RMK AO2 T00610044=
201401191953 METAR KCLM 191953Z AUTO VRB03KT 4SM BR OVC005 06/04 A3025 RMK AO2 SLP245 T00610044=
201401191907 SPECI KCLM 191907Z AUTO 07003KT 6SM BR OVC005 06/04 A3024 RMK AO2 T00610044=
201401191853 METAR KCLM 191853Z AUTO 00000KT 6SM BR OVC004 06/05 A3023 RMK AO2 SLP239 T00610050=
201401191753 METAR KCLM 191753Z AUTO 13004KT 4SM BR OVC004 06/05 A3019 RMK AO2 SLP226 T00610050 10067 20056 53002=
201401191740 SPECI KCLM 191740Z AUTO 12006KT 3SM BR OVC003 06/05 A3019 RMK AO2 T00610050=
201401191733 SPECI KCLM 191733Z AUTO 12006KT 2 1/2SM BR OVC003 06/05 A3019 RMK AO2 T00610050=
201401191653 METAR KCLM 191653Z AUTO 10004KT 5SM BR OVC003 06/05 A3019 RMK AO2 SLP225 T00610050=
201401191553 METAR KCLM 191553Z AUTO VRB04KT 4SM BR OVC002 06/05 A3018 RMK AO2 SLP223 T00610050=
201401191530 SPECI KCLM 191530Z AUTO 08003KT 3SM BR OVC002 06/05 A3018 RMK AO2 T00610050=
201401191519 SPECI KCLM 191519Z AUTO 09004KT 2 1/2SM BR OVC002 06/05 A3018 RMK AO2 T00610050=
201401191506 SPECI KCLM 191506Z AUTO 08003KT 1 1/2SM BR OVC002 06/05 A3019 RMK AO2 T00610050=
201401191453 METAR KCLM 191453Z AUTO 07004KT 3/4SM BR OVC002 06/05 A3019 RMK AO2 SLP225 T00610050 58000=
201401191447 SPECI KCLM 191447Z AUTO 10004KT 1 3/4SM BR OVC002 06/05 A3019 RMK AO2=
201401191418 SPECI KCLM 191418Z AUTO 08003KT 10SM OVC004 07/05 A3019 RMK AO2 T00670050=
201401191353 METAR KCLM 191353Z AUTO 10003KT 10SM OVC007 07/05 A3018 RMK AO2 CIG 005V009 SLP223 T00670050=
201401191314 SPECI KCLM 191314Z AUTO 11004KT 10SM OVC006 06/04 A3019 RMK AO2 CIG 004V009 T00610044=
201401191253 METAR KCLM 191253Z AUTO 21003KT 10SM BKN003 OVC010 06/04 A3020 RMK AO2 SLP228 T00560039=
201401191246 SPECI KCLM 191246Z AUTO 23004KT 10SM BKN003 OVC010 06/04 A3020 RMK AO2 T00610039=
201401191238 SPECI KCLM 191238Z AUTO 25003KT 10SM SCT003 OVC010 06/05 A3020 RMK AO2 T00610050=
201401191153 METAR KCLM 191153Z AUTO 11004KT 10SM OVC010 06/05 A3019 RMK AO2 SLP225 T00610050 10067 20056 56001=
201401191145 SPECI KCLM 191145Z AUTO 14005KT 10SM OVC010 06/05 A3019 RMK AO2 CIG 008V012 T00610050=
201401191053 METAR KCLM 191053Z AUTO 00000KT 10SM OVC005 06/04 A3020 RMK AO2 SLP228 T00610044=
201401190953 METAR KCLM 190953Z AUTO 00000KT 10SM OVC006 06/04 A3018 RMK AO2 SLP221 T00610039=
201401190853 METAR KCLM 190853Z AUTO 28004KT 10SM OVC007 06/04 A3019 RMK AO2 SLP226 T00610044 53003=
201401190753 METAR KCLM 190753Z AUTO 00000KT 10SM OVC007 06/04 A3019 RMK AO2 SLP225 T00610044 401000033=
201401190653 METAR KCLM 190653Z AUTO 24004KT 10SM OVC006 07/04 A3018 RMK AO2 SLP223 T00670044=
201401190623 SPECI KCLM 190623Z AUTO 25005KT 10SM BKN007 OVC013 07/05 A3020 RMK AO2 CIG 007V011 T00670050=
201401190613 SPECI KCLM 190613Z AUTO 26007KT 10SM BKN011 OVC016 06/04 A3019 RMK AO2 T00610044=
201401190553 METAR KCLM 190553Z AUTO 22005KT 10SM BKN008 BKN013 06/04 A3018 RMK AO2 SLP223 T00610044 10089 20039 56011=
201401190453 METAR KCLM 190453Z AUTO 27004KT 10SM OVC006 06/05 A3018 RMK AO2 SLP223 T00610050=
201401190425 SPECI KCLM 190425Z AUTO 00000KT 10SM OVC005 07/06 A3019 RMK AO2 T00670056=
201401190353 METAR KCLM 190353Z AUTO 36003KT 10SM BKN004 BKN011 OVC016 07/05 A3020 RMK AO2 SLP228 T00670050=
201401190340 SPECI KCLM 190340Z AUTO 00000KT 10SM FEW004 OVC014 07/05 A3020 RMK AO2 T00670050=
201401190317 SPECI KCLM 190317Z AUTO 00000KT 10SM BKN014 06/04 A3022 RMK AO2 T00560044=
201401190306 SPECI KCLM 190306Z AUTO 06003KT 10SM BKN016 05/04 A3022 RMK AO2 T00500039=
201401190253 METAR KCLM 190253Z AUTO 00000KT 10SM FEW018 04/03 A3022 RMK AO2 SLP234 T00440028 56006=
201401190153 METAR KCLM 190153Z AUTO 00000KT 10SM CLR 06/04 A3023 RMK AO2 SLP238 T00560039=
201401190053 METAR KCLM 190053Z AUTO 00000KT 10SM CLR 07/04 A3021 RMK AO2 SLP230 T00670044=
201401182353 METAR KCLM 182353Z AUTO 34004KT 10SM CLR 09/05 A3024 RMK AO2 SLP241 T00890050 10100 20056 55004=
201401182253 METAR KCLM 182253Z AUTO 32003KT 10SM CLR 09/05 A3023 RMK AO2 SLP237 T00940050=
201401182153 METAR KCLM 182153Z AUTO 29006KT 10SM BKN041 OVC075 09/04 A3024 RMK AO2 SLP242 T00940044=
201401182053 METAR KCLM 182053Z AUTO 29008KT 10SM FEW017 OVC075 09/04 A3025 RMK AO2 SLP244 T00890044 50003=
201401182043 SPECI KCLM 182043Z AUTO 28008KT 10SM SCT017 OVC075 09/04 A3025 RMK AO2 T00890044=
201401181953 METAR KCLM 181953Z AUTO 27007KT 10SM BKN018 OVC070 08/04 A3026 RMK AO2 SLP250 T00830039=
201401181930 SPECI KCLM 181930Z AUTO 25008KT 10SM BKN018 08/03 A3026 RMK AO2 T00780033=
201401181853 METAR KCLM 181853Z AUTO 24008KT 10SM CLR 07/03 A3025 RMK AO2 SLP245 T00720033=
201401181832 SPECI KCLM 181832Z AUTO 25005KT 10SM SCT016 07/03 A3023 RMK AO2 T00670033=
201401181753 METAR KCLM 181753Z AUTO 23007KT 10SM FEW009 OVC015 06/03 A3024 RMK AO2 SLP241 T00560033 10056 20033 53008=
201401181735 SPECI KCLM 181735Z AUTO 23005KT 10SM BKN010 OVC015 04/03 A3023 RMK AO2 T00440028=
201401181653 METAR KCLM 181653Z AUTO 25006KT 10SM OVC008 04/03 A3021 RMK AO2 SLP233 T00440028=
201401181553 METAR KCLM 181553Z AUTO 25006KT 10SM OVC005 04/03 A3021 RMK AO2 SLP232 T00440028=
201401181523 SPECI KCLM 181523Z AUTO 25004KT 9SM OVC005 04/03 A3019 RMK AO2 T00390028=
201401181453 METAR KCLM 181453Z AUTO 24007KT 10SM OVC003 03/02 A3021 RMK AO2 SLP233 T00330022 53012=
201401181409 SPECI KCLM 181409Z AUTO 00000KT 10SM OVC004 04/03 A3019 RMK AO2 T00440028=
201401181353 METAR KCLM 181353Z AUTO 00000KT 9SM OVC005 04/03 A3018 RMK AO2 SLP222 T00440033=
201401181317 SPECI KCLM 181317Z AUTO 15005KT 9SM OVC005 04/03 A3018 RMK AO2 T00390028=
201401181253 METAR KCLM 181253Z AUTO 22003KT 10SM OVC004 03/02 A3019 RMK AO2 SLP225 T00330022=
201401181153 METAR KCLM 181153Z AUTO 13006KT 10SM OVC004 04/03 A3018 RMK AO2 SLP220 T00390028 10044 20033 58001=
201401181053 METAR KCLM 181053Z AUTO 17003KT 10SM OVC004 04/03 A3019 RMK AO2 SLP225 T00440033=
201401180953 METAR KCLM 180953Z AUTO 22004KT 6SM BR OVC002 03/03 A3019 RMK AO2 SLP225 T00330028=
201401180943 SPECI KCLM 180943Z AUTO 23005KT 5SM BR OVC002 03/03 A3019 RMK AO2 T00330028=
201401180853 METAR KCLM 180853Z AUTO 00000KT 2SM BR OVC002 04/03 A3018 RMK AO2 SLP221 T00390028 56001=
201401180838 SPECI KCLM 180838Z AUTO 00000KT 2 1/2SM BR OVC002 04/03 A3018 RMK AO2 T00390033=
201401180830 SPECI KCLM 180830Z AUTO 00000KT 3SM BR OVC002 04/03 A3018 RMK AO2 T00390033=
201401180820 SPECI KCLM 180820Z AUTO 16004KT 2 1/2SM BR OVC002 04/03 A3018 RMK AO2 T00390033=
201401180753 METAR KCLM 180753Z AUTO 13004KT 5SM BR OVC002 04/03 A3018 RMK AO2 SLP221 T00390033 400610039=
201401180739 SPECI KCLM 180739Z AUTO 17004KT 4SM BR OVC002 04/03 A3019 RMK AO2 T00390033=
201401180731 SPECI KCLM 180731Z AUTO 14004KT 2 1/2SM BR OVC002 04/03 A3018 RMK AO2 T00390033=
201401180722 SPECI KCLM 180722Z AUTO 14005KT 1 1/2SM BR OVC002 04/03 A3018 RMK AO2 T00390033=
201401180704 SPECI KCLM 180704Z AUTO 14006KT 3/4SM BR VV002 04/03 A3017 RMK AO2 T00390033=
201401180653 METAR KCLM 180653Z AUTO 13007KT 1SM BR VV002 04/03 A3017 RMK AO2 SLP218 T00390033=
201401180620 SPECI KCLM 180620Z AUTO 12006KT 1 1/2SM BR OVC002 04/03 A3017 RMK AO2 T00390033=
201401180557 SPECI KCLM 180557Z AUTO 14006KT 2 1/2SM BR OVC002 04/03 A3018 RMK AO2 T00390033=
201401180553 METAR KCLM 180553Z AUTO 14006KT 3SM BR OVC001 04/03 A3018 RMK AO2 SLP222 T00390033 10056 20039 56006=
201401180544 SPECI KCLM 180544Z AUTO 14006KT 3SM BR OVC001 04/03 A3018 RMK AO2 T00440033=
201401180531 SPECI KCLM 180531Z AUTO 12007KT 1 3/4SM BR OVC001 04/04 A3018 RMK AO2 T00440039=
201401180505 SPECI KCLM 180505Z AUTO 12005KT 3SM BR OVC002 04/04 A3018 RMK AO2 T00440039=
201401180500 SPECI KCLM 180500Z AUTO 12007KT 1 1/2SM BR OVC002 04/04 A3019 RMK AO2 T00440039=
201401180453 METAR KCLM 180453Z AUTO 12008KT 2SM BR OVC002 04/03 A3018 RMK AO2 SLP223 T00440033=
201401180353 METAR KCLM 180353Z AUTO 10005KT 10SM OVC003 05/04 A3019 RMK AO2 SLP226 T00500039=
201401180324 SPECI KCLM 180324Z AUTO 11005KT 10SM OVC004 05/04 A3020 RMK AO2 T00500039=
201401180253 METAR KCLM 180253Z AUTO 10006KT 10SM OVC005 05/04 A3020 RMK AO2 SLP229 T00500039 56011=
201401180153 METAR KCLM 180153Z AUTO 12006KT 10SM OVC005 06/04 A3021 RMK AO2 SLP232 T00560039=
201401180053 METAR KCLM 180053Z AUTO 08004KT 10SM OVC006 06/04 A3022 RMK AO2 SLP237 T00560039=
201401172353 METAR KCLM 172353Z AUTO 09007KT 10SM OVC006 06/03 A3023 RMK AO2 SLP240 T00560033 10061 20056 55010=
201401172253 METAR KCLM 172253Z AUTO 09006KT 10SM OVC007 06/04 A3023 RMK AO2 SLP240 T00610039=
201401172153 METAR KCLM 172153Z AUTO 09009KT 10SM OVC007 06/04 A3025 RMK AO2 SLP245 T00610039=
201401172053 METAR KCLM 172053Z AUTO 08008KT 10SM OVC006 06/04 A3027 RMK AO2 SLP251 T00610039 58019=
201401171953 METAR KCLM 171953Z AUTO 11008KT 10SM OVC006 06/04 A3030 RMK AO2 SLP261 T00610039=
201401171853 METAR KCLM 171853Z AUTO 11009KT 10SM OVC006 06/04 A3030 RMK AO2 SLP264 T00610039=
201401171753 METAR KCLM 171753Z AUTO 13009KT 10SM OVC005 06/04 A3032 RMK AO2 SLP271 T00560039 10056 20044 53006=
201401171721 SPECI KCLM 171721Z AUTO 11007KT 10SM OVC005 06/04 A3032 RMK AO2 T00560039=
201401171653 METAR KCLM 171653Z AUTO 13007KT 10SM OVC004 05/03 A3031 RMK AO2 SLP265 T00500033=
201401171553 METAR KCLM 171553Z AUTO 13005KT 10SM OVC003 04/03 A3030 RMK AO2 SLP262 T00440033=
201401171453 METAR KCLM 171453Z AUTO 13007KT 10SM OVC004 05/04 A3031 RMK AO2 SLP265 T00500039 58012=
201401171353 METAR KCLM 171353Z AUTO 12007KT 10SM OVC004 05/04 A3032 RMK AO2 SLP270 T00500039=
201401171253 METAR KCLM 171253Z AUTO 13006KT 10SM OVC004 05/04 A3034 RMK AO2 SLP276 T00500039=
201401171153 METAR KCLM 171153Z AUTO 13007KT 6SM BR OVC002 05/04 A3034 RMK AO2 SLP277 T00500039 10056 20050 55006=
201401171053 METAR KCLM 171053Z AUTO 13007KT 5SM BR OVC003 05/04 A3033 RMK AO2 SLP274 T00500039=
201401170953 METAR KCLM 170953Z AUTO 14006KT 8SM OVC003 05/04 A3035 RMK AO2 SLP279 T00500039=
201401170853 METAR KCLM 170853Z AUTO 13007KT 9SM OVC003 05/04 A3036 RMK AO2 SLP283 T00500039 58006=
201401170753 METAR KCLM 170753Z AUTO 12007KT 10SM OVC004 06/04 A3037 RMK AO2 SLP286 T00560039 400720050=
201401170748 SPECI KCLM 170748Z AUTO 13006KT 10SM OVC004 06/04 A3037 RMK AO2=
201401170653 METAR KCLM 170653Z AUTO 13006KT 10SM OVC005 05/04 A3038 RMK AO2 SLP289 T00500039=
201401170553 METAR KCLM 170553Z AUTO 14007KT 10SM OVC005 05/03 A3038 RMK AO2 SLP290 T00500033 10067 20050 56007=
201401170453 METAR KCLM 170453Z AUTO 13005KT 10SM OVC006 05/04 A3038 RMK AO2 SLP290 T00500039=
201401170353 METAR KCLM 170353Z AUTO 14005KT 10SM OVC007 06/04 A3039 RMK AO2 SLP292 T00560039=
201401170253 METAR KCLM 170253Z AUTO 12005KT 10SM OVC007 06/04 A3040 RMK AO2 SLP297 T00560039 58004=
201401170153 METAR KCLM 170153Z AUTO 10006KT 10SM OVC007 06/04 A3041 RMK AO2 SLP299 T00610039=
201401170053 METAR KCLM 170053Z AUTO 10004KT 10SM OVC008 06/04 A3041 RMK AO2 SLP300 T00610039=
201401162353 METAR KCLM 162353Z AUTO 11006KT 10SM OVC009 07/04 A3041 RMK AO2 SLP301 T00670039 10072 20067 58012=
201401162312 SPECI KCLM 162312Z AUTO 10005KT 10SM OVC009 07/04 A3043 RMK AO2 T00670039=
201401162253 METAR KCLM 162253Z AUTO 09006KT 10SM OVC010 07/04 A3043 RMK AO2 SLP308 T00670039=
201401162202 SPECI KCLM 162202Z AUTO 08007KT 10SM OVC010 07/04 A3044 RMK AO2 T00670039=
201401162153 METAR KCLM 162153Z AUTO 07004KT 10SM OVC009 07/04 A3044 RMK AO2 SLP309 T00670039=
201401162127 SPECI KCLM 162127Z AUTO 08006KT 10SM OVC009 07/04 A3044 RMK AO2 T00670039=
201401162109 SPECI KCLM 162109Z AUTO 12008KT 10SM OVC010 07/04 A3044 RMK AO2 T00670039=
201401162053 METAR KCLM 162053Z AUTO 08007KT 10SM OVC009 07/04 A3045 RMK AO2 SLP313 T00670039 58017=
201401162045 SPECI KCLM 162045Z AUTO 09007KT 10SM OVC009 07/04 A3045 RMK AO2 T00670039=
201401161953 METAR KCLM 161953Z AUTO 08007KT 10SM OVC010 07/04 A3047 RMK AO2 SLP321 T00670039=
201401161853 METAR KCLM 161853Z AUTO 11007KT 10SM OVC010 07/04 A3051 RMK AO2 SLP332 T00720044=
201401161804 SPECI KCLM 161804Z AUTO 12005KT 10SM OVC011 07/04 A3050 RMK AO2 T00670044=
201401161753 METAR KCLM 161753Z AUTO 14006KT 10SM OVC009 07/04 A3050 RMK AO2 CIG 008V012 SLP330 T00670044 10067 20056 50003=
201401161653 METAR KCLM 161653Z AUTO 13008KT 10SM OVC007 06/04 A3050 RMK AO2 SLP332 T00610044=
201401161553 METAR KCLM 161553Z AUTO 12005KT 10SM OVC008 06/04 A3050 RMK AO2 SLP329 T00610039=
201401161517 SPECI KCLM 161517Z AUTO 12006KT 10SM OVC009 06/04 A3049 RMK AO2 T00610039=
201401161453 METAR KCLM 161453Z AUTO 14006KT 10SM OVC010 06/04 A3049 RMK AO2 SLP328 T00610039 57006=
201401161353 METAR KCLM 161353Z AUTO 14006KT 10SM OVC007 06/04 A3050 RMK AO2 SLP330 T00610044=
201401161253 METAR KCLM 161253Z AUTO 14006KT 10SM OVC006 06/04 A3050 RMK AO2 SLP331 T00560044=
201401161153 METAR KCLM 161153Z AUTO 14005KT 10SM OVC005 06/04 A3051 RMK AO2 SLP334 T00610044 10061 20050 56005=
201401161103 SPECI KCLM 161103Z AUTO 13006KT 9SM OVC005 06/04 A3051 RMK AO2 T00610044=
201401161053 METAR KCLM 161053Z AUTO 14006KT 8SM OVC004 06/04 A3052 RMK AO2 SLP336 T00610044=
201401160953 METAR KCLM 160953Z AUTO 14006KT 4SM BR OVC003 06/05 A3051 RMK AO2 SLP335 T00560050=
201401160922 SPECI KCLM 160922Z AUTO 14005KT 6SM BR OVC004 06/05 A3052 RMK AO2 T00560050=
201401160911 SPECI KCLM 160911Z AUTO 15006KT 7SM OVC005 06/04 A3052 RMK AO2 T00560044=
201401160853 METAR KCLM 160853Z AUTO 16005KT 7SM OVC003 06/04 A3052 RMK AO2 SLP339 T00560044 58006=
201401160838 SPECI KCLM 160838Z AUTO 15005KT 4SM BR OVC002 05/04 A3053 RMK AO2 T00500044=
201401160831 SPECI KCLM 160831Z AUTO 16005KT 2 1/2SM BR OVC002 06/05 A3053 RMK AO2 T00560050=
201401160753 METAR KCLM 160753Z AUTO 16005KT 1 1/4SM BR OVC002 06/04 A3053 RMK AO2 SLP341 T00560044 401000028=
201401160750 SPECI KCLM 160750Z AUTO 16006KT 1 3/4SM BR OVC003 06/04 A3053 RMK AO2=
201401160653 METAR KCLM 160653Z AUTO 15006KT 10SM OVC004 06/05 A3054 RMK AO2 SLP344 T00560050=
201401160553 METAR KCLM 160553Z AUTO 15005KT 5SM BR OVC002 06/05 A3054 RMK AO2 SLP345 T00560050 10061 20039 55000=
201401160541 SPECI KCLM 160541Z AUTO 14005KT 3SM BR OVC002 06/05 A3055 RMK AO2 T00560050=
201401160533 SPECI KCLM 160533Z AUTO 12005KT 1 3/4SM BR OVC002 06/05 A3054 RMK AO2 T00560050=
201401160512 SPECI KCLM 160512Z AUTO 12006KT 1/2SM FG VV002 06/05 A3054 RMK AO2 T00560050=
201401160453 METAR KCLM 160453Z AUTO 14007KT 1/4SM FG VV002 06/05 A3054 RMK AO2 SLP344 T00560050=
201401160432 SPECI KCLM 160432Z AUTO 12005KT 1/4SM FG VV002 06/05 A3054 RMK AO2 T00610050=
201401160353 METAR KCLM 160353Z AUTO 11004KT 1/4SM FG VV001 04/04 A3054 RMK AO2 SLP345 T00440039=
201401160323 SPECI KCLM 160323Z AUTO 00000KT 1/4SM FG VV001 04/04 A3054 RMK AO2 T00440039=
201401160253 METAR KCLM 160253Z AUTO 00000KT 1/4SM FG VV004 04/03 A3054 RMK AO2 SLP346 T00440033 56003=
201401160251 SPECI KCLM 160251Z AUTO 00000KT 1/4SM FG VV004 04/03 A3055 RMK AO2=
201401160250 SPECI KCLM 160250Z AUTO 00000KT 1/2SM FG VV004 04/03 A3055 RMK AO2=
201401160242 SPECI KCLM 160242Z AUTO 00000KT 1SM BR VV006 04/03 A3055 RMK AO2 VIS 1/2V2 T00390033=
201401160218 SPECI KCLM 160218Z AUTO 00000KT 1 3/4SM BR CLR 04/03 A3054 RMK AO2 T00390028=
201401160207 SPECI KCLM 160207Z AUTO 15003KT 5SM BR FEW005 05/04 A3054 RMK AO2 T00500039=
201401160200 METAR KCLM NIL=
201401160200 SPECI KCLM 160200Z AUTO 15004KT 2 1/2SM BR FEW005 04/03 A3054 RMK AO2 VIS 1 1/4V4 T00440033=
201401160158 SPECI KCLM 160158Z AUTO 15004KT 1SM BR VV005 04/04 A3054 RMK AO2 T00440039=
201401160149 METAR KCLM 160149Z AUTO 00000KT 1/4SM FG VV005 04/04 A3055=
201401160148 SPECI KCLM 160148Z AUTO 00000KT 1/4SM FG VV005 04/04 A3055 RMK AO2=
201401160142 SPECI KCLM 160142Z AUTO 00000KT 1SM BR VV005 04/04 A3055 RMK AO2 T00440039=
201401160053 METAR KCLM 160053Z AUTO 13005KT 8SM CLR 06/04 A3055 RMK AO2 SLP349 T00610044=
201401152353 METAR KCLM 152353Z AUTO 12005KT 10SM CLR 07/05 A3056 RMK AO2 SLP350 T00720050 10100 20061 55005=
201401152253 METAR KCLM 152253Z AUTO 04003KT 10SM CLR 08/06 A3055 RMK AO2 SLP346 T00780061=
201401152153 METAR KCLM 152153Z AUTO VRB03KT 10SM CLR 10/05 A3054 RMK AO2 SLP345 T01000050=
201401152053 METAR KCLM 152053Z AUTO VRB03KT 10SM CLR 09/04 A3057 RMK AO2 SLP354 T00940044 58009=
201401152024 SPECI KCLM 152024Z AUTO 19003KT 10SM SCT002 08/06 A3059 RMK AO2 T00780056=
201401152011 SPECI KCLM 152011Z AUTO 21003KT 4SM BR BKN001 07/06 A3060 RMK AO2 T00670056=
201401152007 SPECI KCLM 152007Z AUTO 00000KT 1SM BR VV001 07/06 A3060 RMK AO2 T00670056=
201401151953 METAR KCLM 151953Z AUTO 00000KT 1/4SM FG VV001 06/06 A3060 RMK AO2 SLP363 T00610056=
201401151939 SPECI KCLM 151939Z AUTO 04004KT 1/4SM FG VV001 07/06 A3059 RMK AO2 T00670056=
201401151935 SPECI KCLM 151935Z AUTO 03005KT 3/4SM BR VV002 07/06 A3059 RMK AO2 VIS 1/2V5 T00670056=
201401151932 SPECI KCLM 151932Z AUTO VRB05KT 1 1/4SM BR BKN001 07/06 A3059 RMK AO2 VIS 3/4V5 T00670056=
201401151927 SPECI KCLM 151927Z AUTO 36007KT 2 1/2SM BR SCT001 07/05 A3058 RMK AO2 VIS 1 1/4V5 T00720050=
201401151853 METAR KCLM 151853Z AUTO 26008KT 10SM CLR 09/03 A3058 RMK AO2 SLP359 T00890028=
201401151753 METAR KCLM 151753Z AUTO 21006KT 10SM SCT035 07/03 A3060 RMK AO2 SLP365 T00670028 10072 20028 51016=
201401151653 METAR KCLM 151653Z AUTO 24005KT 10SM CLR 04/02 A3060 RMK AO2 SLP364 T00440022=
201401151553 METAR KCLM 151553Z AUTO 04003KT 10SM CLR 06/02 A3057 RMK AO2 SLP354 T00610022=
201401151453 METAR KCLM 151453Z AUTO 26011KT 10SM CLR 07/02 A3056 RMK AO2 SLP348 T00720022 55012=
201401151353 METAR KCLM 151353Z AUTO 26013KT 10SM CLR 07/02 A3053 RMK AO2 SLP341 T00720022=
201401151253 METAR KCLM 151253Z AUTO 24009KT 10SM BKN042 07/02 A3057 RMK AO2 SLP353 T00670022=
201401151153 METAR KCLM 151153Z AUTO 22006KT 10SM OVC042 07/03 A3059 RMK AO2 SLP359 T00720033 10078 20050 50003=
201401151053 METAR KCLM 151053Z AUTO 25009KT 10SM OVC045 07/03 A3061 RMK AO2 SLP368 T00720033=
201401150953 METAR KCLM 150953Z AUTO 26010KT 10SM OVC047 07/03 A3060 RMK AO2 SLP362 T00720033=
201401150853 METAR KCLM 150853Z AUTO 25007KT 10SM OVC047 07/03 A3058 RMK AO2 SLP357 T00720033 58002=
201401150753 METAR KCLM 150753Z AUTO 26007KT 10SM CLR 07/04 A3059 RMK AO2 SLP359 T00670039 401110044=
201401150653 METAR KCLM 150653Z AUTO 24005KT 10SM CLR 07/04 A3058 RMK AO2 SLP359 T00670039=
201401150553 METAR KCLM 150553Z AUTO 29006KT 10SM CLR 07/04 A3059 RMK AO2 SLP359 T00670044 10100 20044 55006=
201401150453 METAR KCLM 150453Z AUTO 00000KT 10SM CLR 06/04 A3058 RMK AO2 SLP357 T00560044=
201401150353 METAR KCLM 150353Z AUTO 30003KT 10SM CLR 07/06 A3060 RMK AO2 SLP363 T00720056=
201401150253 METAR KCLM 150253Z AUTO 00000KT 10SM OVC041 09/06 A3060 RMK AO2 SLP364 T00890061 58008=
201401150153 METAR KCLM 150153Z AUTO 00000KT 10SM OVC042 09/06 A3062 RMK AO2 SLP370 T00940056=
201401150053 METAR KCLM 150053Z AUTO 27005KT 10SM OVC042 10/06 A3063 RMK AO2 SLP373 T01000056=
201401142353 METAR KCLM 142353Z AUTO 00000KT 10SM FEW017 OVC044 10/06 A3063 RMK AO2 SLP372 T01000061 10111 20083 55006=
201401142253 METAR KCLM 142253Z AUTO 35003KT 10SM OVC047 11/07 A3061 RMK AO2 SLP368 T01060067=
201401142153 METAR KCLM 142153Z AUTO VRB03KT 10SM OVC050 11/07 A3062 RMK AO2 SLP372 T01060067=
201401142053 METAR KCLM 142053Z AUTO 31006KT 10SM OVC050 10/07 A3064 RMK AO2 SLP378 T01000072 58004=
201401141953 METAR KCLM 141953Z AUTO 28005KT 10SM OVC050 11/05 A3064 RMK AO2 SLP378 T01060050=
201401141953 SPECI KCLM 141953Z AUTO 28005KT 10SM OVC050 11/05 A3064 RMK AO2 SLP378 T01060050=
201401141853 METAR KCLM 141853Z AUTO 25006KT 10SM OVC050 09/04 A3066 RMK AO2 SLP383 T00890044=
201401141753 METAR KCLM 141753Z AUTO 00000KT 10SM OVC050 09/06 A3066 RMK AO2 SLP382 T00890056 10089 20067 53002=
201401141653 METAR KCLM 141653Z AUTO 24005KT 10SM OVC035 07/05 A3064 RMK AO2 SLP378 T00720050=
201401141553 METAR KCLM 141553Z AUTO 24004KT 10SM FEW026 BKN037 OVC055 07/04 A3065 RMK AO2 SLP381 T00670044=
201401141453 METAR KCLM 141453Z AUTO 28003KT 10SM FEW032 OVC040 07/04 A3065 RMK AO2 SLP381 T00720044 50001=
201401141353 METAR KCLM 141353Z AUTO 23006KT 10SM OVC032 08/05 A3065 RMK AO2 SLP382 T00780050=
201401141339 SPECI KCLM 141339Z AUTO 23006KT 10SM SCT023 OVC031 08/05 A3065 RMK AO2 T00780050=
201401141253 METAR KCLM 141253Z AUTO 23005KT 10SM OVC017 07/04 A3065 RMK AO2 SLP379 T00720044=
201401141153 METAR KCLM 141153Z AUTO 23006KT 10SM OVC019 07/05 A3065 RMK AO2 SLP379 T00720050 10083 20050 53008=
201401141117 SPECI KCLM 141117Z AUTO 24005KT 10SM BKN021 07/05 A3064 RMK AO2 T00670050=
201401141053 METAR KCLM 141053Z AUTO 18004KT 10SM CLR 06/04 A3063 RMK AO2 SLP375 T00560044=
201401140953 METAR KCLM 140953Z AUTO 14003KT 10SM OVC060 07/06 A3062 RMK AO2 SLP369 T00720056=
201401140853 METAR KCLM 140853Z AUTO 18004KT 10SM FEW011 BKN060 07/06 A3062 RMK AO2 SLP370 T00720056 51017=
201401140753 METAR KCLM 140753Z AUTO 23005KT 10SM FEW005 06/04 A3061 RMK AO2 SLP366 T00560044 401440056=
201401140653 METAR KCLM 140653Z AUTO 29006KT 10SM SCT003 08/07 A3060 RMK AO2 SLP362 T00780067=
201401140632 SPECI KCLM 140632Z AUTO 32008KT 10SM FEW003 08/07 A3058 RMK AO2 T00830072=
201401140553 METAR KCLM 140553Z AUTO 31005KT 10SM CLR 08/07 A3057 RMK AO2 SLP353 T00830067 10106 20061 53009=
201401140453 METAR KCLM 140453Z AUTO 29010KT 10SM CLR 09/07 A3056 RMK AO2 SLP349 T00890072=
201401140353 METAR KCLM 140353Z AUTO 29009KT 10SM SCT120 09/07 A3055 RMK AO2 SLP347 T00890067=
201401140253 METAR KCLM 140253Z AUTO 29007KT 10SM SCT065 07/06 A3054 RMK AO2 SLP344 T00720061 51008=
201401140153 METAR KCLM 140153Z AUTO 00000KT 10SM BKN047 OVC070 09/07 A3054 RMK AO2 SLP344 T00940072=
201401140053 METAR KCLM 140053Z AUTO 11003KT 10SM BKN046 OVC070 09/07 A3054 RMK AO2 SLP343 T00940072=
201401132353 METAR KCLM 132353Z AUTO 10005KT 10SM BKN049 OVC070 11/07 A3052 RMK AO2 SLP336 60000 T01060072 10144 20106 53021=
201401132253 METAR KCLM 132253Z AUTO 14008KT 10SM FEW048 SCT060 OVC070 11/07 A3050 RMK AO2 RAB00E09 SLP328 P0000 T01060072=
201401132153 METAR KCLM 132153Z AUTO 00000KT 10SM BKN050 OVC060 11/07 A3048 RMK AO2 SLP321 T01060067=
201401132053 METAR KCLM 132053Z AUTO VRB04KT 10SM OVC060 11/07 A3046 RMK AO2 SLP315 T01110067 51018=
201401131953 METAR KCLM 131953Z AUTO VRB06KT 10SM OVC060 13/06 A3045 RMK AO2 SLP314 T01280061=
201401131853 METAR KCLM 131853Z AUTO 24012G21KT 10SM OVC065 14/06 A3043 RMK AO2 SLP305 T01390056=
201401131753 METAR KCLM 131753Z AUTO 25011G22KT 10SM OVC065 12/06 A3041 RMK AO2 RAE1656 SLP297 P0000 60000 T01170056 10122 20089 53023=
201401131653 METAR KCLM 131653Z AUTO 26012KT 10SM -RA FEW055 OVC070 12/05 A3038 RMK AO2 RAB45 SLP289 P0000 T01170050=
201401131553 METAR KCLM 131553Z AUTO 28009KT 10SM OVC055 11/04 A3035 RMK AO2 SLP278 T01110044=
201401131453 METAR KCLM 131453Z AUTO VRB03KT 10SM OVC065 12/04 A3034 RMK AO2 SLP274 T01170044 53002=
201401131353 METAR KCLM 131353Z AUTO 25007G16KT 10SM OVC065 11/04 A3032 RMK AO2 SLP269 T01110039=
201401131253 METAR KCLM 131253Z AUTO 26010KT 10SM BKN055 11/04 A3033 RMK AO2 SLP273 T01060044=
201401131153 METAR KCLM 131153Z AUTO 25009KT 10SM OVC055 11/04 A3033 RMK AO2 SLP271 70004 T01060044 10111 20078 53022=
201401131053 METAR KCLM 131053Z AUTO 25005KT 10SM FEW048 SCT060 09/06 A3030 RMK AO2 SLP261 T00940061=
201401130953 METAR KCLM 130953Z AUTO 25006KT 10SM BKN042 BKN050 10/06 A3028 RMK AO2 SLP255 T01000061=
201401130853 METAR KCLM 130853Z AUTO 26007KT 10SM OVC050 11/06 A3026 RMK AO2 SLP249 T01060061 51021=
201401130753 METAR KCLM 130753Z AUTO 27013G22KT 10SM OVC050 11/06 A3025 RMK AO2 SLP244 T01060061 401170050=
201401130653 METAR KCLM 130653Z AUTO 27014G20KT 10SM BKN050 OVC070 11/06 A3022 RMK AO2 SLP235 T01110056=
201401130553 METAR KCLM 130553Z AUTO 27013KT 10SM BKN049 OVC065 11/06 A3020 RMK AO2 SLP228 T01110056 10117 20106 51020=
201401130453 METAR KCLM 130453Z AUTO 25008G17KT 10SM FEW050 OVC065 11/05 A3019 RMK AO2 SLP223 T01110050=
201401130353 METAR KCLM 130353Z AUTO 26012KT 10SM OVC060 12/04 A3016 RMK AO2 SLP214 T01170044=
201401130253 METAR KCLM 130253Z AUTO 25011G19KT 10SM OVC060 11/05 A3014 RMK AO2 SLP208 T01110050 51023=
201401130153 METAR KCLM 130153Z AUTO 29013G18KT 10SM BKN047 OVC075 11/06 A3012 RMK AO2 SLP202 T01060056=
201401130053 METAR KCLM 130053Z AUTO 28011KT 10SM BKN035 OVC045 11/06 A3011 RMK AO2 SLP196 T01060061=
201401122353 METAR KCLM 122353Z AUTO 26009G17KT 230V290 10SM OVC045 11/07 A3007 RMK AO2 RAE25 SLP185 P0000 60000 T01110067 10117 20056 53025=
201401122253 METAR KCLM 122253Z AUTO 27012G21KT 10SM -RA OVC045 11/06 A3005 RMK AO2 RAB43 SLP178 P0000 T01110061=
201401122153 METAR KCLM 122153Z AUTO 25008KT 10SM OVC049 12/06 A3001 RMK AO2 SLP161 T01170056=
201401122053 METAR KCLM 122053Z AUTO 34004KT 10SM OVC060 10/06 A3000 RMK AO2 RAE09 SLP160 P0000 60000 T01000061 50001=
201401121953 METAR KCLM 121953Z AUTO 29007KT 250V320 10SM -RA OVC050 09/06 A3001 RMK AO2 RAB41 SLP164 P0000 T00890061=
201401121853 METAR KCLM 121853Z AUTO 30004KT 10SM OVC041 06/05 A3001 RMK AO2 SLP163 T00610050=
201401121753 METAR KCLM 121753Z AUTO 29004KT 10SM OVC048 06/04 A3000 RMK AO2 SLP159 60004 T00560044 10067 20050 53012=
201401121653 METAR KCLM 121653Z AUTO 30003KT 10SM FEW048 OVC060 05/04 A2996 RMK AO2 RAE37 SLP147 P0002 T00500039=
201401121638 SPECI KCLM 121638Z AUTO 00000KT 10SM FEW012 SCT021 OVC055 05/04 A2995 RMK AO2 RAE37 P0002 T00500044=
201401121630 SPECI KCLM 121630Z AUTO 00000KT 6SM -RA BR FEW012 BKN020 OVC050 05/04 A2995 RMK AO2 P0002 T00500039=
201401121553 METAR KCLM 121553Z AUTO 09003KT 10SM -RA OVC014 06/04 A2995 RMK AO2 SLP144 P0002 T00560039=
201401121534 SPECI KCLM 121534Z AUTO 13008KT 10SM -RA BKN019 BKN042 OVC055 06/03 A2996 RMK AO2 P0002 T00560033=
201401121453 METAR KCLM 121453Z AUTO 14007KT 10SM -RA FEW036 OVC050 06/03 A2996 RMK AO2 RAB34 SLP147 P0000 60000 T00560028 53011=
201401121353 METAR KCLM 121353Z AUTO 00000KT 10SM OVC075 07/01 A2994 RMK AO2 SLP141 T00670011=
201401121253 METAR KCLM 121253Z AUTO 32006KT 10SM BKN060 OVC070 06/02 A2993 RMK AO2 RAB1155E08 SLP136 P0000 T00610017=
201401121153 METAR KCLM 121153Z AUTO 26009KT 10SM FEW036 BKN048 OVC070 07/02 A2993 RMK AO2 RAB07E20 SLP137 P0000 60000 70042 T00670017 10083 20061 51033=
201401121053 METAR KCLM 121053Z AUTO 29014KT 10SM FEW055 BKN075 OVC090 07/01 A2990 RMK AO2 SLP127 T00720006=
201401120953 METAR KCLM 120953Z AUTO 27015G23KT 10SM FEW035 FEW060 07/01 A2989 RMK AO2 PK WND 28028/0908 RAB23E43 SLP122 P0000 T00670006=
201401120853 METAR KCLM 120853Z AUTO 27018G27KT 10SM FEW036 SCT055 08/00 A2983 RMK AO2 PK WND 28029/0842 SLP104 T00780000 51052=
201401120753 METAR KCLM 120753Z AUTO 28015G30KT 10SM FEW048 08/M01 A2980 RMK AO2 PK WND 25035/0656 SLP092 T00781006 400890050=
201401120653 METAR KCLM 120653Z AUTO 27018G28KT 10SM OVC045 08/01 A2975 RMK AO2 PK WND 26033/0627 SLP075 T00780011=
201401120553 METAR KCLM 120553Z AUTO 28017G27KT 10SM BKN041 08/02 A2968 RMK AO2 PK WND 27030/0516 SLP051 60002 T00780017 10083 20067 51079=
201401120453 METAR KCLM 120453Z AUTO 27024G32KT 10SM FEW034 OVC044 08/02 A2961 RMK AO2 PK WND 26032/0451 SLP027 T00830022=
201401120353 METAR KCLM 120353Z AUTO 28015G35KT 10SM BKN034 OVC043 08/03 A2953 RMK AO2 PK WND 27035/0344 RAB01E26 SLP002 P0000 T00780028=
201401120253 METAR KCLM 120253Z AUTO 28012G22KT 10SM FEW044 08/03 A2944 RMK AO2 PK WND 26027/0204 SLP971 60002 T00780033 53047=
201401120153 METAR KCLM 120153Z AUTO 29016KT 10SM FEW039 SCT055 BKN070 07/03 A2938 RMK AO2 PK WND 27027/0127 RAE36 SLP950 P0001 T00720033=
201401120053 METAR KCLM 120053Z AUTO 10SM -RA SCT038 OVC048 07/04 A2933 RMK AO2 RAE09B26 SLP932 P0001 T00670044=
201401112353 METAR KCLM 112353Z AUTO 00000KT 10SM -RA BKN044 BKN055 OVC065 07/05 A2930 RMK AO2 SLP923 P0001 60025 T00670050 10083 20067 53031=
201401112253 METAR KCLM 112253Z AUTO 00000KT 10SM -RA SCT028 OVC038 07/06 A2925 RMK AO2 RAB2156 SLP908 P0004 T00670056=
201401112153 METAR KCLM 112153Z AUTO 29007KT 10SM FEW039 BKN049 OVC060 08/05 A2922 RMK AO2 RAE18B34E45 SLP896 P0002 T00780050=
201401112053 METAR KCLM 112053Z AUTO VRB05KT 3SM RA BR OVC034 07/05 A2921 RMK AO2 RAB1957 PRESFR SLP892 P0006 60018 T00720050 58027=
201401111953 METAR KCLM 111953Z AUTO 14009KT 10SM FEW036 BKN065 OVC075 07/06 A2926 RMK AO2 RAE34 SLP910 P0000 T00720056=
201401111858 SPECI KCLM 111858Z AUTO 00000KT 3SM -RA BR BKN030 OVC039 07/05 A2928 RMK AO2 P0000 T00670050=
201401111853 METAR KCLM 111853Z AUTO 00000KT 1 3/4SM RA BR OVC030 07/05 A2929 RMK AO2 SLP920 P0012 T00670050=
201401111753 METAR KCLM 111753Z AUTO 15003KT 10SM -RA OVC037 07/04 A2929 RMK AO2 SLP919 P0004 60015 T00670044 10083 20050 58024=
201401111653 METAR KCLM 111653Z AUTO 16006KT 10SM -RA SCT041 OVC049 07/04 A2934 RMK AO2 RAE08B40 SLP938 P0000 T00720039=
201401111553 METAR KCLM 111553Z AUTO 00000KT 9SM -RA FEW017 OVC042 07/04 A2936 RMK AO2 RAB31 SLP943 P0001 T00720039=
201401111453 METAR KCLM 111453Z AUTO 30004KT 10SM BKN043 OVC065 07/04 A2936 RMK AO2 RAE49 SLP943 P0000 60010 T00670039 55000=
201401111353 METAR KCLM 111353Z AUTO 23006KT 10SM -RA FEW018 BKN044 BKN110 07/05 A2935 RMK AO2 SLP941 P0002 T00670050=
201401111253 METAR KCLM 111253Z AUTO 20008KT 10SM -RA OVC036 08/06 A2936 RMK AO2 SLP944 P0008 T00780056=
201401111153 METAR KCLM 111153Z AUTO 31009KT 8SM -RA FEW014 OVC038 08/07 A2936 RMK AO2 SLP943 P0021 60087 70143 T00830072 10089 20061 53015=
201401111143 SPECI KCLM 111143Z AUTO 30006KT 5SM -RA BR FEW004 SCT016 OVC036 09/07 A2935 RMK AO2 P0020 T00890072=
201401111134 SPECI KCLM 111134Z AUTO 26008KT 3SM RA BR SCT004 BKN021 OVC037 09/08 A2935 RMK AO2 P0017 T00890078=
201401111129 SPECI KCLM 111129Z AUTO 25007KT 3SM RA BR FEW004 BKN007 OVC039 08/08 A2936 RMK AO2 P0015 T00830078=
201401111120 SPECI KCLM 111120Z AUTO 24008KT 3SM RA BR SCT004 BKN016 OVC038 08/07 A2936 RMK AO2 PRESRR P0012 T00830072=
201401111111 SPECI KCLM 111111Z AUTO 32005KT 2 1/2SM +RA BR SCT004 BKN012 OVC050 08/08 A2934 RMK AO2 P0008 T00830078=
201401111108 SPECI KCLM 111108Z AUTO 34005KT 2 1/2SM RA BR SCT004 BKN041 OVC050 08/07 A2933 RMK AO2 P0006 T00830072=
201401111053 METAR KCLM 111053Z AUTO 27003KT 2 1/2SM -RA BR BKN041 OVC055 08/07 A2933 RMK AO2 SLP932 P0021 T00780072=
201401111051 SPECI KCLM 111051Z AUTO 23003KT 2 1/2SM RA BR BKN041 OVC055 08/07 A2933 RMK AO2 P0020=
201401111044 SPECI KCLM 111044Z AUTO 00000KT 3SM RA BR BKN041 OVC055 08/07 A2932 RMK AO2 P0018 T00780072=
201401111028 SPECI KCLM 111028Z AUTO 00000KT 2 1/2SM RA BR BKN042 OVC055 08/07 A2932 RMK AO2 P0012 T00830072=
201401110953 METAR KCLM 110953Z AUTO 00000KT 4SM RA BR BKN048 OVC065 08/07 A2931 RMK AO2 SLP927 P0024 T00780067=
201401110941 SPECI KCLM 110941Z AUTO 12003KT 4SM RA BR FEW004 OVC046 08/07 A2931 RMK AO2 P0021 T00780067=
201401110920 SPECI KCLM 110920Z AUTO 10004KT 2 1/2SM RA BR FEW003 OVC044 07/06 A2931 RMK AO2 P0010 T00720061=
201401110902 SPECI KCLM 110902Z AUTO VRB04KT 7SM -RA FEW003 BKN055 OVC070 08/07 A2933 RMK AO2 P0001 T00780067=
201401110853 METAR KCLM 110853Z AUTO VRB04KT 10SM -RA BKN060 OVC075 08/07 A2933 RMK AO2 SLP933 P0005 60021 T00780067 56055=
201401110753 METAR KCLM 110753Z AUTO VRB05KT 6SM -RA BR SCT003 BKN055 OVC070 07/06 A2936 RMK AO2 SLP944 P0007 T00670056 400940061=
201401110653 METAR KCLM 110653Z AUTO 00000KT 6SM -RA BR BKN003 BKN045 OVC070 06/06 A2942 RMK AO2 SLP964 P0009 T00610056=
201401110642 SPECI KCLM 110642Z AUTO 00000KT 5SM -RA BR BKN004 BKN019 OVC075 06/06 A2943 RMK AO2 P0008 T00610056=
201401110602 SPECI KCLM 110602Z AUTO 14003KT 3SM RA BR SCT005 BKN060 OVC075 06/06 A2948 RMK AO2 PRESFR P0004 T00610056=
201401110553 METAR KCLM 110553Z AUTO 00000KT 3SM RA BR BKN005 BKN060 OVC080 07/06 A2949 RMK AO2 SLP989 P0015 60049 T00670056 10072 20061 56063=
201401110537 SPECI KCLM 110537Z AUTO VRB03KT 5SM RA BR FEW005 BKN065 OVC080 06/06 A2950 RMK AO2 P0009 T00610056=
201401110453 METAR KCLM 110453Z AUTO 12006KT 4SM RA BR OVC060 06/05 A2954 RMK AO2 PRESFR SLP005 P0009 T00610050=
201401110437 SPECI KCLM 110437Z AUTO 13005KT 6SM -RA BR FEW005 OVC060 06/06 A2957 RMK AO2 PRESFR P0006 T00610056=
201401110419 SPECI KCLM 110419Z AUTO 00000KT 6SM -RA BR BKN005 BKN060 OVC080 06/06 A2961 RMK AO2 P0003 T00610056=
201401110353 METAR KCLM 110353Z AUTO 27003KT 6SM -RA BR BKN002 BKN026 OVC070 06/06 A2963 RMK AO2 PRESFR SLP036 P0009 T00610056=
201401110303 SPECI KCLM 110303Z AUTO 27006KT 3SM -RA BR OVC003 06/06 A2969 RMK AO2 P0001 T00610056=
201401110253 METAR KCLM 110253Z AUTO 28004KT 3SM -RA BR BKN005 OVC050 06/05 A2968 RMK AO2 SLP052 P0006 60016 T00610050 56047=
201401110241 SPECI KCLM 110241Z AUTO 00000KT 2 1/2SM -RA BR BKN006 OVC050 06/06 A2967 RMK AO2 PRESFR P0005 T00610056=
201401110218 SPECI KCLM 110218Z AUTO 27004KT 3SM -RA BR SCT009 BKN060 OVC070 06/05 A2970 RMK AO2 P0001 T00610050=
201401110210 SPECI KCLM 110210Z AUTO 00000KT 5SM -RA BR SCT009 BKN019 OVC065 06/06 A2971 RMK AO2 P0001 T00610056=
201401110153 METAR KCLM 110153Z AUTO 00000KT 5SM -RA BR OVC010 06/06 A2972 RMK AO2 CIG 007V013 PRESFR SLP066 P0005 T00610056=
201401110149 SPECI KCLM 110149Z AUTO 00000KT 4SM -RA BR OVC010 06/06 A2973 RMK AO2 CIG 007V014 PRESFR P0005=
201401110109 SPECI KCLM 110109Z AUTO 00000KT 5SM -RA BR OVC005 07/06 A2980 RMK AO2 PRESFR P0002 T00670061=
201401110053 METAR KCLM 110053Z AUTO 13003KT 8SM -RA OVC003 07/06 A2982 RMK AO2 PRESFR SLP101 P0005 T00670061=
201401110017 SPECI KCLM 110017Z AUTO 06003KT 6SM -RA BR OVC003 07/06 A2986 RMK AO2 P0001 T00720061=
201401102353 METAR KCLM 102353Z AUTO 11004KT 6SM -RA BR BKN007 OVC012 07/06 A2988 RMK AO2 CIG 005V010 PRESFR SLP119 P0006 60007 T00720056 10089 20067 58039=
201401102338 SPECI KCLM 102338Z AUTO 13005KT 6SM -RA BR FEW008 OVC014 07/06 A2990 RMK AO2 PRESFR P0003 T00720056=
201401102301 SPECI KCLM 102301Z AUTO 00000KT 10SM -RA BKN011 OVC018 07/06 A2994 RMK AO2 P0000 T00720056=
201401102253 METAR KCLM 102253Z AUTO 00000KT 10SM -RA SCT012 BKN018 OVC040 08/06 A2994 RMK AO2 SLP140 P0001 T00780056=
201401102153 METAR KCLM 102153Z AUTO 00000KT 10SM -RA OVC017 08/05 A2997 RMK AO2 RAB45 SLP150 P0000 T00830050=
201401102053 METAR KCLM 102053Z AUTO 07003KT 10SM OVC015 09/05 A2999 RMK AO2 SLP157 T00890050 58015=
201401101953 METAR KCLM 101953Z AUTO 14005KT 10SM OVC016 08/05 A3002 RMK AO2 SLP166 T00830050=
201401101853 METAR KCLM 101853Z AUTO 10003KT 10SM OVC019 08/04 A3005 RMK AO2 SLP176 T00830044=
201401101838 SPECI KCLM 101838Z AUTO 00000KT 10SM BKN020 OVC110 08/04 A3004 RMK AO2 T00830044=
201401101753 METAR KCLM 101753Z AUTO VRB03KT 10SM BKN110 08/04 A3004 RMK AO2 SLP173 T00780044 10094 20078 53033=
201401101653 METAR KCLM 101653Z AUTO 29008KT 10SM BKN120 08/04 A3000 RMK AO2 SLP161 T00780044=
201401101553 METAR KCLM 101553Z AUTO 30014G19KT 10SM BKN120 08/04 A2996 RMK AO2 SLP148 T00780044=
201401101453 METAR KCLM 101453Z AUTO 29015G24KT 10SM FEW048 BKN120 08/04 A2994 RMK AO2 SLP140 T00830044 51020=
201401101353 METAR KCLM 101353Z AUTO 27007KT 10SM OVC055 09/04 A2994 RMK AO2 SLP140 T00890044=
201401101253 METAR KCLM 101253Z AUTO 30009KT 10SM BKN055 09/03 A2990 RMK AO2 SLP128 T00890033=
201401101153 METAR KCLM 101153Z AUTO 30008KT 10SM CLR 08/03 A2988 RMK AO2 SLP120 60000 70001 T00830033 10089 20067 50015=
201401101053 METAR KCLM 101053Z AUTO 30009KT 10SM SCT060 BKN080 08/03 A2988 RMK AO2 SLP120 T00830033=
201401100953 METAR KCLM 100953Z AUTO 24007KT 10SM SCT047 BKN060 08/03 A2986 RMK AO2 RAE0857 SLP113 P0000 T00780033=
201401100853 METAR KCLM 100853Z AUTO 25007KT 10SM -RA SCT045 OVC055 08/03 A2984 RMK AO2 RAB47 SLP105 P0000 60000 T00780033 53026=
201401100753 METAR KCLM 100753Z AUTO 26006KT 10SM BKN046 BKN055 08/03 A2980 RMK AO2 SLP093 T00780033 400830033=
201401100653 METAR KCLM 100653Z AUTO 25006KT 10SM SCT048 BKN055 08/03 A2977 RMK AO2 SLP084 T00780033=
201401100553 METAR KCLM 100553Z AUTO 26005KT 10SM OVC055 08/04 A2976 RMK AO2 RAB02E12 SLP078 P0000 60001 T00780039 10083 20056 53025=
201401100453 METAR KCLM 100453Z AUTO 22004KT 10SM OVC060 08/05 A2972 RMK AO2 RAB17E34 SLP067 P0000 T00780050=
201401100353 METAR KCLM 100353Z AUTO 24006KT 10SM FEW050 OVC060 07/05 A2971 RMK AO2 RAE12 SLP061 P0000 T00720050=
201401100253 METAR KCLM 100253Z AUTO 24005KT 10SM -RA SCT038 SCT047 OVC055 07/05 A2968 RMK AO2 RAB21E30B53 SLP053 P0001 60001 T00670050 53001=
201401100153 METAR KCLM 100153Z AUTO 18003KT 10SM OVC050 06/04 A2968 RMK AO2 RAE0054B28E39 SLP052 P0000 T00560044=
201401100053 METAR KCLM 100053Z AUTO 27003KT 10SM -RA OVC055 06/04 A2966 RMK AO2 RAE00B22 SLP045 P0000 T00560044=
201401100027 SPECI KCLM 100027Z AUTO 20003KT 10SM -RA SCT018 BKN065 OVC080 06/04 A2966 RMK AO2 RAE00B22 P0000 T00610044=
201401100000 SPECI KCLM 100000Z AUTO 00000KT 10SM SCT007 BKN016 OVC075 06/05 A2968 RMK AO2 RAE00 P0000 T00610050=
201401092353 METAR KCLM 092353Z AUTO 00000KT 10SM -RA BKN007 BKN010 OVC075 06/05 A2968 RMK AO2 RAB20 SLP052 P0000 60000 T00610050 10067 20044 56030=
201401092253 METAR KCLM 092253Z AUTO VRB05KT 10SM BKN008 OVC015 06/04 A2970 RMK AO2 SLP058 T00610044=
201401092232 SPECI KCLM 092232Z AUTO 30005KT 10SM BKN009 BKN055 OVC070 07/04 A2970 RMK AO2 T00670039=
201401092153 METAR KCLM 092153Z AUTO 31003KT 10SM FEW055 SCT070 OVC080 07/03 A2971 RMK AO2 SLP063 T00670033=
201401092053 METAR KCLM 092053Z AUTO 34003KT 10SM BKN055 BKN070 OVC080 06/03 A2977 RMK AO2 SLP083 T00610028 58050=
201401091953 METAR KCLM 091953Z AUTO 00000KT 10SM BKN090 OVC100 06/02 A2984 RMK AO2 SLP105 T00610022=
201401091853 METAR KCLM 091853Z AUTO 25003KT 10SM OVC070 06/02 A2989 RMK AO2 SLP122 T00560017=
201401091753 METAR KCLM 091753Z AUTO 32003KT 10SM FEW080 OVC100 04/01 A2992 RMK AO2 SLP133 T00440006 10067 20033 53001=
201401091653 METAR KCLM 091653Z AUTO 12006KT 10SM FEW070 OVC095 03/01 A2992 RMK AO2 SLP132 T00330006=
201401091553 METAR KCLM 091553Z AUTO 00000KT 10SM BKN100 04/00 A2992 RMK AO2 SLP132 T00440000=
201401091453 METAR KCLM 091453Z AUTO 26009KT 10SM CLR 06/00 A2992 RMK AO2 SLP132 T00610000 58001=
201401091353 METAR KCLM 091353Z AUTO 26014G23KT 10SM CLR 06/01 A2992 RMK AO2 SLP135 T00560006=
201401091253 METAR KCLM 091253Z AUTO 26011KT 10SM BKN055 06/00 A2992 RMK AO2 SLP134 T00560000=
201401091153 METAR KCLM 091153Z AUTO 24010KT 10SM SCT047 BKN055 06/01 A2992 RMK AO2 SLP133 60000 70015 T00560011 10078 20050 51020=
201401091053 METAR KCLM 091053Z AUTO 27016G22KT 10SM SCT041 06/01 A2991 RMK AO2 SLP131 T00560011=
201401090953 METAR KCLM 090953Z AUTO 25017G24KT 10SM FEW041 06/02 A2989 RMK AO2 PK WND 25026/0912 RAE25 SLP122 P0000 T00610017=
201401090853 METAR KCLM 090853Z AUTO 31018G32KT 9SM -RA SCT033 BKN048 OVC060 07/01 A2986 RMK AO2 PK WND 29032/0849 RAB49 SLP113 P0000 60000 T00720011 51039=
201401090753 METAR KCLM 090753Z AUTO 28016G26KT 10SM BKN047 07/01 A2982 RMK AO2 PK WND 25027/0703 RAB40E50 SLP099 P0000 T00720011 400890039=
201401090653 METAR KCLM 090653Z AUTO 27012G23KT 10SM OVC060 08/01 A2979 RMK AO2 PK WND 26029/0622 SLP089 T00780011=
201401090553 METAR KCLM 090553Z AUTO 29013G23KT 10SM CLR 07/02 A2974 RMK AO2 PRESRR SLP073 60009 T00720022 10078 20056 53037=
201401090453 METAR KCLM 090453Z AUTO 29011KT 10SM CLR 07/03 A2968 RMK AO2 SLP052 T00670033=
201401090353 METAR KCLM 090353Z AUTO 27017G24KT 10SM FEW033 FEW048 07/04 A2963 RMK AO2 RAB20E42 SLP037 P0000 T00720039=
201401090253 METAR KCLM 090253Z AUTO 28012KT 10SM BKN046 OVC060 08/05 A2963 RMK AO2 RAE31 SLP036 P0002 60009 T00780050 50009=
201401090153 METAR KCLM 090153Z AUTO 25012KT 10SM -RA SCT036 OVC044 07/05 A2964 RMK AO2 RAE02B25 SLP038 P0003 T00670050=
201401090053 METAR KCLM 090053Z AUTO 00000KT 9SM -RA OVC044 06/06 A2960 RMK AO2 RAB20 SLP026 P0004 T00610056=
201401090041 SPECI KCLM 090041Z AUTO 25006KT 3SM -RA BR FEW001 OVC038 06/06 A2962 RMK AO2 RAB20 P0003 T00610056=
201401090036 SPECI KCLM 090036Z AUTO 25005KT 1SM -RA BR FEW003 OVC036 06/06 A2962 RMK AO2 RAB20 P0002 T00610056=
201401090026 SPECI KCLM 090026Z AUTO 22005KT 1/4SM -RA FG SCT001 BKN032 OVC047 06/06 A2962 RMK AO2 RAB20 P0001 T00610056=
201401090021 SPECI KCLM 090021Z AUTO 21003KT 1/2SM -RA FG SCT001 BKN016 OVC065 06/06 A2961 RMK AO2 RAB20 P0001 T00610056=
201401090018 SPECI KCLM 090018Z AUTO 00000KT 3/4SM BR SCT001 BKN006 BKN060 06/06 A2961 RMK AO2 P0001 T00610056=
201401090002 SPECI KCLM 090002Z AUTO 00000KT 1 1/2SM BR SCT003 BKN015 BKN060 06/06 A2961 RMK AO2 VIS 1V3 T00610056=
201401082358 SPECI KCLM 082358Z AUTO 20005KT 2 1/2SM BR SCT003 BKN011 BKN060 06/06 A2960 RMK AO2 VIS 1 1/4V5 T00610056=
201401082353 METAR KCLM 082353Z AUTO 22004KT 5SM BR SCT004 BKN015 BKN060 06/06 A2960 RMK AO2 RAE46 SLP026 P0000 60006 T00610056 10089 20050 56029=
201401082351 SPECI KCLM 082351Z AUTO 22004KT 10SM SCT004 BKN015 OVC060 07/06 A2960 RMK AO2 RAE46 P0000=
201401082346 SPECI KCLM 082346Z AUTO 00000KT 2SM BR BKN004 OVC010 07/06 A2961 RMK AO2 RAE46 PRESFR P0000 T00670061=
201401082322 SPECI KCLM 082322Z AUTO 00000KT 1/2SM -RA FG VV002 07/06 A2962 RMK AO2 P0000 T00670056=
201401082315 SPECI KCLM 082315Z AUTO 00000KT 1/4SM -RA FG VV002 07/06 A2963 RMK AO2 P0000 T00670056=
201401082253 METAR KCLM 082253Z AUTO 04003KT 3/4SM -RA BR VV002 07/06 A2962 RMK AO2 SLP032 P0002 T00670056=
201401082153 METAR KCLM 082153Z AUTO 34003KT 1/4SM -RA FG VV002 06/06 A2966 RMK AO2 SLP045 P0003 T00610056=
201401082128 SPECI KCLM 082128Z AUTO 00000KT 1/4SM -RA FG VV003 07/06 A2967 RMK AO2 P0001 T00670061=
201401082117 SPECI KCLM 082117Z AUTO 03003KT 1/4SM -RA FG FEW001 BKN008 OVC055 07/06 A2968 RMK AO2 P0000 T00670061=
201401082114 SPECI KCLM 082114Z AUTO 34003KT 1/2SM -RA FG FEW001 BKN010 OVC055 07/06 A2968 RMK AO2 P0000 T00670061=
201401082105 SPECI KCLM 082105Z AUTO 06003KT 1/2SM -RA FG FEW001 BKN018 OVC055 07/06 A2968 RMK AO2 P0000 T00720061=
201401082057 SPECI KCLM 082057Z AUTO VRB04KT 1 1/2SM -RA BR FEW001 BKN041 OVC055 07/06 A2969 RMK AO2 P0000 T00720061=
201401082053 METAR KCLM 082053Z AUTO 02005KT 5SM -RA BR FEW001 BKN060 OVC075 08/06 A2969 RMK AO2 RAB44 SLP056 P0001 60001 T00780061 58048=
201401082004 SPECI KCLM 082004Z AUTO 14004KT 10SM SCT003 BKN050 OVC070 08/06 A2973 RMK AO2 PRESFR T00780061=
201401081953 METAR KCLM 081953Z AUTO 14003KT 10SM BKN003 BKN037 OVC075 07/06 A2975 RMK AO2 SLP074 T00720061=
201401081932 SPECI KCLM 081932Z AUTO 10003KT 4SM BR OVC002 07/06 A2976 RMK AO2 T00670061=
201401081922 SPECI KCLM 081922Z AUTO 08004KT 1 1/2SM BR OVC002 07/06 A2978 RMK AO2 T00670061=
201401081853 METAR KCLM 081853Z AUTO 00000KT 4SM BR OVC002 07/06 A2980 RMK AO2 RAE02 SLP092 P0000 T00720061=
201401081753 METAR KCLM 081753Z AUTO 21004KT 4SM -RA BR OVC004 05/04 A2984 RMK AO2 RAB47 SLP105 P0000 60000 T00500044 10050 20039 55011=
201401081744 SPECI KCLM 081744Z AUTO 27005KT 3SM BR OVC002 05/04 A2984 RMK AO2 T00500039=
201401081742 SPECI KCLM 081742Z AUTO 27005KT 1 1/4SM BR OVC002 05/04 A2984 RMK AO2 T00500039=
201401081736 SPECI KCLM 081736Z AUTO 24005KT 1/4SM FG VV002 05/04 A2984 RMK AO2 T00500044=
201401081653 METAR KCLM 081653Z AUTO 22004KT M1/4SM FG VV001 04/04 A2984 RMK AO2 SLP105 T00440039=
201401081553 METAR KCLM 081553Z AUTO 00000KT 1/4SM FG VV001 04/04 A2985 RMK AO2 RAB42E51 SLP108 P0000 T00440039=
201401081534 SPECI KCLM 081534Z AUTO 00000KT 1/4SM FG VV001 04/04 A2985 RMK AO2 T00440039=
201401081526 SPECI KCLM 081526Z AUTO 23003KT 1/4SM FG VV002 04/04 A2986 RMK AO2 T00440039=
201401081503 SPECI KCLM 081503Z AUTO 22004KT 3/4SM BR VV002 04/03 A2987 RMK AO2 T00390033=
201401081453 METAR KCLM 081453Z AUTO 00000KT 3/4SM BR OVC001 04/03 A2987 RMK AO2 SLP116 T00390033 58026=
201401081448 SPECI KCLM 081448Z AUTO 00000KT 1 1/2SM BR OVC001 04/03 A2987 RMK AO2=
201401081446 SPECI KCLM 081446Z AUTO 00000KT 3SM BR OVC001 04/03 A2987 RMK AO2 T00390033=
201401081439 SPECI KCLM 081439Z AUTO 14003KT 2 1/2SM BR OVC001 04/03 A2987 RMK AO2 T00440033=
201401081419 SPECI KCLM 081419Z AUTO 00000KT 1 3/4SM BR OVC001 04/03 A2988 RMK AO2 T00440033=
201401081403 SPECI KCLM 081403Z AUTO 21004KT 1SM BR OVC002 04/03 A2989 RMK AO2 T00440033=
201401081353 METAR KCLM 081353Z AUTO 22005KT 2SM BR OVC002 04/03 A2990 RMK AO2 SLP127 T00390033=
201401081344 SPECI KCLM 081344Z AUTO 23005KT 1 1/4SM BR OVC002 04/03 A2991 RMK AO2 T00440033=
201401081329 SPECI KCLM 081329Z AUTO 23003KT 1/2SM FG VV002 04/04 A2991 RMK AO2 T00440039=
201401081314 SPECI KCLM 081314Z AUTO 21003KT 1 1/4SM BR OVC002 04/03 A2991 RMK AO2 T00390033=
201401081257 SPECI KCLM 081257Z AUTO 00000KT 1/2SM FG VV002 04/04 A2992 RMK AO2 T00440039=
201401081253 METAR KCLM 081253Z AUTO 00000KT 1/4SM FG VV001 04/04 A2992 RMK AO2 SLP134 T00440039=
201401081153 METAR KCLM 081153Z AUTO 00000KT 1/2SM FG VV002 04/04 A2995 RMK AO2 RAE11 SLP143 P0000 60000 70028 T00440039 10056 20039 58006=
201401081136 SPECI KCLM 081136Z AUTO 18003KT 1/2SM FG VV002 04/04 A2995 RMK AO2 RAE11 P0000 T00440039=
201401081125 SPECI KCLM 081125Z AUTO 20003KT 1 3/4SM BR OVC002 04/04 A2995 RMK AO2 RAE11 P0000 T00440039=
201401081053 METAR KCLM 081053Z AUTO 00000KT 3SM -RA BR OVC003 04/04 A2996 RMK AO2 RAB44 SLP146 P0000 T00440039=
201401081022 SPECI KCLM 081022Z AUTO 00000KT 4SM BR OVC004 04/04 A2996 RMK AO2 T00440039=
201401080953 METAR KCLM 080953Z AUTO 00000KT 6SM BR BKN005 OVC080 04/04 A2997 RMK AO2 SLP149 T00440044=
201401080951 SPECI KCLM 080951Z AUTO 00000KT 7SM SCT005 OVC080 04/04 A2996 RMK AO2=
201401080939 SPECI KCLM 080939Z AUTO 13005KT 3SM BR FEW060 OVC080 04/03 A2996 RMK AO2 T00440033=
201401080925 SPECI KCLM 080925Z AUTO 00000KT 1SM BR FEW002 BKN055 OVC080 04/04 A2996 RMK AO2 T00440039=
201401080912 SPECI KCLM 080912Z AUTO 00000KT 2SM BR FEW002 SCT032 OVC055 04/04 A2997 RMK AO2 T00440039=
201401080900 SPECI KCLM 080900Z AUTO 17004KT 1/2SM FG FEW003 BKN035 OVC060 04/03 A2997 RMK AO2 T00440033=
201401080853 METAR KCLM 080853Z AUTO 00000KT 1/4SM FG FEW003 BKN021 OVC055 04/04 A2997 RMK AO2 SLP150 60000 T00440039 58003=
201401080849 SPECI KCLM 080849Z AUTO 00000KT 1/4SM FG SCT016 BKN060 OVC070 04/03 A2997 RMK AO2=
201401080831 SPECI KCLM 080831Z AUTO 00000KT 1/4SM FG BKN001 BKN070 OVC090 05/04 A2997 RMK AO2 T00500044=
201401080820 SPECI KCLM 080820Z AUTO 15003KT 1/2SM FG BKN003 BKN007 OVC090 04/04 A2996 RMK AO2 T00440039=
201401080753 METAR KCLM 080753Z AUTO 18004KT 1/2SM FG OVC005 06/04 A2998 RMK AO2 SLP153 T00560044 400610017=
201401080742 SPECI KCLM 080742Z AUTO 22004KT 1/2SM FG OVC005 05/04 A2998 RMK AO2 T00500044=
201401080653 METAR KCLM 080653Z AUTO 00000KT 3/4SM BR OVC002 06/04 A2998 RMK AO2 RAB19E33 SLP153 P0000 T00560044=
201401080648 SPECI KCLM 080648Z AUTO 00000KT 3/4SM BR OVC002 06/05 A2998 RMK AO2 RAB19E33 P0000=
201401080601 SPECI KCLM 080601Z AUTO 00000KT 1 1/4SM BR OVC002 06/05 A2998 RMK AO2 T00560050=
201401080553 METAR KCLM 080553Z AUTO 00000KT 2SM BR OVC002 06/05 A2998 RMK AO2 VIS 1 1/2V3 SLP154 T00560050 10061 20056 53008=
201401080543 SPECI KCLM 080543Z AUTO 00000KT 2SM BR OVC003 06/05 A2998 RMK AO2 T00560050=
201401080453 METAR KCLM 080453Z AUTO 00000KT 4SM BR OVC003 06/05 A2997 RMK AO2 SLP150 T00560050=
201401080353 METAR KCLM 080353Z AUTO 00000KT 5SM BR OVC003 06/05 A2996 RMK AO2 SLP146 T00560050=
201401080253 METAR KCLM 080253Z AUTO 00000KT 5SM BR OVC003 06/05 A2996 RMK AO2 SLP146 T00560050 58001=
201401080220 SPECI KCLM 080220Z AUTO 00000KT 3SM BR OVC002 06/05 A2996 RMK AO2 T00610050=
201401080153 METAR KCLM 080153Z AUTO 22003KT 1SM BR OVC002 06/05 A2996 RMK AO2 SLP148 T00560050=
201401080124 SPECI KCLM 080124Z AUTO 14003KT 1/2SM FG OVC002 06/05 A2996 RMK AO2 T00610050=
201401080053 METAR KCLM 080053Z AUTO 00000KT 1 1/4SM BR OVC002 06/05 A2997 RMK AO2 SLP149 T00610050=
201401080044 SPECI KCLM 080044Z AUTO 00000KT 1 3/4SM BR OVC002 06/06 A2996 RMK AO2 T00610056=
201401080033 SPECI KCLM 080033Z AUTO 00000KT 2SM BR OVC002 06/06 A2996 RMK AO2 T00610056=
201401072353 METAR KCLM 072353Z AUTO 08003KT 5SM BR OVC002 06/05 A2996 RMK AO2 SLP147 60005 T00610050 10061 20044 56001=
201401072253 METAR KCLM 072253Z AUTO 00000KT 10SM OVC002 06/05 A2996 RMK AO2 RAE2157 SLP148 P0000 T00610050=
201401072153 METAR KCLM 072153Z AUTO 00000KT 7SM -RA OVC002 06/06 A2996 RMK AO2 RAB21 SLP146 P0001 T00610056=
201401072053 METAR KCLM 072053Z AUTO 26006KT 10SM OVC003 06/05 A2996 RMK AO2 SLP149 60004 T00610050 58014=
201401072006 SPECI KCLM 072006Z AUTO 26003KT 10SM OVC004 06/04 A2997 RMK AO2 T00610044=
201401071953 METAR KCLM 071953Z AUTO 25004KT 10SM OVC005 06/04 A2998 RMK AO2 RAE09 SLP153 P0000 T00610044=
201401071941 SPECI KCLM 071941Z AUTO 28003KT 10SM BKN005 BKN080 OVC100 06/04 A2998 RMK AO2 RAE09 P0000 T00610044=
201401071933 SPECI KCLM 071933Z AUTO 00000KT 10SM SCT005 BKN037 OVC100 06/04 A2997 RMK AO2 RAE09 P0000 T00560044=
201401071853 METAR KCLM 071853Z AUTO 00000KT 9SM -RA BKN065 OVC075 05/04 A3000 RMK AO2 SLP161 P0004 T00500044=
201401071753 METAR KCLM 071753Z AUTO 24003KT 10SM -RA BKN065 OVC080 04/03 A3000 RMK AO2 SLP163 P0002 60023 T00440033 10044 20028 55004=
201401071700 SPECI KCLM 071700Z AUTO 00000KT 3SM -RA BR OVC065 04/03 A3000 RMK AO2 P0000 T00390033=
201401071653 METAR KCLM 071653Z AUTO 00000KT 1 1/2SM -RA BR OVC065 03/03 A3000 RMK AO2 VIS 1V3 RAB19 SLP161 P0004 T00330028=
201401071651 SPECI KCLM 071651Z AUTO 00000KT 1 3/4SM -RA BR BKN060 OVC075 03/03 A3000 RMK AO2 VIS 1V5 RAB19 P0004=
201401071553 METAR KCLM 071553Z AUTO 00000KT 9SM FEW012 BKN080 OVC100 03/02 A3000 RMK AO2 RAE43 SLP161 P0002 T00330022=
201401071526 SPECI KCLM 071526Z AUTO 00000KT 9SM -RA SCT007 OVC070 03/03 A3000 RMK AO2 P0002 T00330028=
201401071510 SPECI KCLM 071510Z AUTO 00000KT 10SM -RA BKN007 OVC060 03/03 A3001 RMK AO2 P0002 T00330028=
201401071453 METAR KCLM 071453Z AUTO 25004KT 6SM -RA BR FEW007 OVC055 03/02 A3002 RMK AO2 RAB06 SLP168 P0006 60015 T00330022 56018=
201401071425 SPECI KCLM 071425Z AUTO 24004KT 7SM -RA SCT008 SCT024 OVC065 03/03 A3002 RMK AO2 RAB06 P0001 T00330028=
201401071353 METAR KCLM 071353Z AUTO 24003KT 10SM BKN008 OVC060 03/02 A3002 RMK AO2 RAE28 SLP170 P0000 T00330022=
201401071253 METAR KCLM 071253Z AUTO 00000KT 7SM -RA FEW009 OVC065 03/02 A3004 RMK AO2 RAB1158 SLP176 P0009 T00330022=
201401071240 SPECI KCLM 071240Z AUTO 00000KT 7SM -RA SCT009 BKN060 OVC070 03/02 A3005 RMK AO2 RAB1158 P0008 T00330022=
201401071201 SPECI KCLM 071201Z AUTO 24004KT 10SM -RA BKN009 BKN035 OVC055 03/02 A3007 RMK AO2 RAB1158 P0000 T00330017=
201401071153 METAR KCLM 071153Z AUTO 24003KT 10SM SCT008 OVC055 03/02 A3007 RMK AO2 SLP184 60000 T00330022 10033 20006 55007=
201401071053 METAR KCLM 071053Z AUTO 14005KT 10SM OVC060 03/02 A3008 RMK AO2 SLP187 T00330017=
201401070953 METAR KCLM 070953Z AUTO 00000KT 10SM BKN060 OVC075 03/02 A3009 RMK AO2 SLP192 T00280017=
201401070853 METAR KCLM 070853Z AUTO 12003KT 10SM OVC075 03/01 A3009 RMK AO2 UPB07E14B41E42RAB14E43 SLP191 P0000 60000 T00280011 58008=
201401070753 METAR KCLM 070753Z AUTO 00000KT 10SM OVC060 02/01 A3010 RMK AO2 SLP197 T00170006 400561006=
201401070653 METAR KCLM 070653Z AUTO 00000KT 10SM BKN080 01/00 A3011 RMK AO2 SLP200 T00110000=
201401070553 METAR KCLM 070553Z AUTO 22003KT 10SM SCT080 01/00 A3011 RMK AO2 SLP200 T00110000 10044 20006 55004=
201401070453 METAR KCLM 070453Z AUTO 20003KT 10SM CLR 02/00 A3011 RMK AO2 SLP198 T00170000=
201401070353 METAR KCLM 070353Z AUTO 16003KT 10SM SCT100 01/00 A3012 RMK AO2 SLP202 T00110000=
201401070253 METAR KCLM 070253Z AUTO 00000KT 10SM CLR 02/00 A3012 RMK AO2 SLP204 T00170000 56008=
201401070153 METAR KCLM 070153Z AUTO 23004KT 10SM CLR 03/01 A3013 RMK AO2 SLP205 T00280011=
201401070053 METAR KCLM 070053Z AUTO 27003KT 10SM FEW120 03/01 A3013 RMK AO2 SLP206 T00330011=
201401062353 METAR KCLM 062353Z AUTO 00000KT 10SM CLR 04/01 A3015 RMK AO2 SLP212 T00440011 10056 20022 55007=
201401062253 METAR KCLM 062253Z AUTO 10003KT 10SM CLR 05/01 A3014 RMK AO2 SLP209 T00500011=
201401062153 METAR KCLM 062153Z AUTO 09004KT 10SM CLR 05/01 A3015 RMK AO2 SLP210 T00500011=
201401062053 METAR KCLM 062053Z AUTO 10003KT 10SM CLR 05/02 A3017 RMK AO2 SLP219 T00500017 58015=
201401062041 SPECI KCLM 062041Z AUTO 08003KT 10SM SCT014 05/02 A3017 RMK AO2 T00500017=
201401061953 METAR KCLM 061953Z AUTO 12003KT 10SM BKN013 BKN017 05/02 A3019 RMK AO2 SLP225 T00500017=
201401061853 METAR KCLM 061853Z AUTO 00000KT 10SM OVC014 04/02 A3021 RMK AO2 SLP232 T00390017=
201401061753 METAR KCLM 061753Z AUTO 00000KT 10SM OVC011 02/01 A3022 RMK AO2 SLP235 T00220006 10028 21006 56006=
201401061653 METAR KCLM 061653Z AUTO 00000KT 10SM OVC010 01/M01 A3023 RMK AO2 SLP238 T00111006=
201401061553 METAR KCLM 061553Z AUTO 00000KT 10SM OVC012 01/M01 A3022 RMK AO2 SLP235 T00061006 $=
201401061453 METAR KCLM 061453Z AUTO 21003KT 10SM OVC012 01/M01 A3023 RMK AO2 SLP241 T00061011 56014 $=
201401061353 METAR KCLM 061353Z AUTO 00000KT 10SM OVC012 01/M01 A3024 RMK AO2 SLP242 T00111006 $=
201401061253 METAR KCLM 061253Z AUTO 13004KT 10SM OVC012 01/M01 A3026 RMK AO2 SLP250 T00061006 $=
201401061233 SPECI KCLM 061233Z AUTO 13005KT 10SM BKN013 01/M01 A3027 RMK AO2 T00061011 $=
201401061153 METAR KCLM 061153Z AUTO 13005KT 10SM FEW013 01/M01 A3028 RMK AO2 SLP255 T00061006 10033 21017 56013 $=
201401061148 SPECI KCLM 061148Z AUTO 13006KT 10SM SCT013 01/M01 A3028 RMK AO2 $=
201401061130 SPECI KCLM 061130Z AUTO 15006KT 10SM SCT008 BKN014 02/00 A3029 RMK AO2 T00170000 $=
201401061053 METAR KCLM 061053Z AUTO 11006KT 10SM OVC011 03/01 A3030 RMK AO2 SLP262 T00330011 $=
201401060953 METAR KCLM 060953Z AUTO 11005KT 10SM OVC012 03/01 A3031 RMK AO2 SLP267 T00280006 $=
201401060853 METAR KCLM 060853Z AUTO 12005KT 10SM OVC013 03/01 A3032 RMK AO2 SLP271 T00280006 58019 $=
201401060825 SPECI KCLM 060825Z AUTO 12005KT 10SM OVC013 03/01 A3033 RMK AO2 T00280006 $=
201401060753 METAR KCLM 060753Z AUTO 12005KT 10SM OVC016 02/00 A3034 RMK AO2 SLP278 T00170000 400561033 $=
201401060653 METAR KCLM 060653Z AUTO 14006KT 10SM OVC016 01/M01 A3036 RMK AO2 SLP285 T00061006 $=
201401060633 SPECI KCLM 060633Z AUTO 13005KT 10SM BKN015 M01/M02 A3037 RMK AO2 T10111022 $=
201401060553 METAR KCLM 060553Z AUTO 13006KT 10SM CLR M02/M03 A3038 RMK AO2 SLP291 T10171028 10044 21017 56011 $=
201401060453 METAR KCLM 060453Z AUTO 13006KT 10SM CLR M01/M02 A3039 RMK AO2 SLP295 T10111022 $=
201401060353 METAR KCLM 060353Z AUTO 14005KT 10SM CLR M01/M02 A3040 RMK AO2 SLP299 T10111022 $=
201401060253 METAR KCLM 060253Z AUTO 13005KT 10SM CLR M01/M02 A3041 RMK AO2 SLP303 T10061022 56013 $=
201401060153 METAR KCLM 060153Z AUTO 15004KT 10SM CLR M01/M02 A3042 RMK AO2 SLP306 T10061017 $=
201401060053 METAR KCLM 060053Z AUTO 13004KT 10SM CLR 02/M01 A3043 RMK AO2 SLP308 T00221011 $=
201401052353 METAR KCLM 052353Z AUTO 10004KT 10SM CLR 04/00 A3045 RMK AO2 SLP314 T00440000 10056 20039 56009 $=
201401052253 METAR KCLM 052253Z AUTO 10007KT 10SM CLR 05/00 A3046 RMK AO2 SLP317 T00500000 $=
201401052153 METAR KCLM 052153Z AUTO 10007KT 10SM CLR 06/M01 A3047 RMK AO2 SLP320 T00561011 $=
201401052110 SPECI KCLM 052110Z AUTO 10005KT 10SM FEW015 05/00 A3047 RMK AO2 T00500000 $=
201401052053 METAR KCLM 052053Z AUTO 07004KT 10SM BKN014 05/01 A3048 RMK AO2 SLP324 T00500011 58012 $=
201401052027 SPECI KCLM 052027Z AUTO 08005KT 10SM OVC014 05/01 A3049 RMK AO2 T00500011 $=
201401051953 METAR KCLM 051953Z AUTO 09006KT 10SM OVC017 05/01 A3050 RMK AO2 SLP332 T00500006 $=
201401051923 SPECI KCLM 051923Z AUTO 07005KT 10SM OVC015 04/01 A3051 RMK AO2 T00440011 $=
201401051853 METAR KCLM 051853Z AUTO 08004KT 10SM OVC012 04/01 A3052 RMK AO2 SLP339 T00390006 $=
201401051834 SPECI KCLM 051834Z AUTO 09005KT 10SM OVC014 04/01 A3052 RMK AO2 T00390006 $=
201401051753 METAR KCLM 051753Z AUTO 12004KT 10SM OVC015 04/01 A3051 RMK AO2 SLP336 I6000 T00440006 10044 21033 53009 $=
201401051706 SPECI KCLM 051706Z AUTO 15004KT 10SM BKN017 00/M01 A3051 RMK AO2 T00001011 $=
201401051653 METAR KCLM 051653Z AUTO 15005KT 10SM FEW016 M01/M02 A3051 RMK AO2 SLP335 T10061017 $=
201401051630 SPECI KCLM 051630Z AUTO 15004KT 10SM SCT016 M01/M02 A3050 RMK AO2 T10061017 $=
201401051620 SPECI KCLM 051620Z AUTO 14005KT 10SM BKN016 M01/M02 A3050 RMK AO2 T10061022 $=
201401051612 SPECI KCLM 051612Z AUTO 13005KT 10SM SCT016 00/M02 A3049 RMK AO2 T00001017 $=
201401051553 METAR KCLM 051553Z AUTO 15004KT 10SM OVC016 M01/M02 A3049 RMK AO2 SLP327 T10111022 $=
201401051529 SPECI KCLM 051529Z AUTO 15005KT 10SM BKN016 M01/M02 A3049 RMK AO2 T10111017 $=
201401051453 METAR KCLM 051453Z AUTO 15005KT 10SM FEW015 M03/M04 A3049 RMK AO2 SLP327 I1000 I3000 T10281039 55001 $=
201401051353 METAR KCLM 051353Z AUTO 00000KT 10SM FEW016 M01/M02 A3048 RMK AO2 SLP326 T10111022 $=
201401051321 SPECI KCLM 051321Z AUTO 16003KT 10SM SCT017 M02/M03 A3048 RMK AO2 T10171028 $=
201401051253 METAR KCLM 051253Z AUTO 15004KT 10SM OVC018 01/M01 A3049 RMK AO2 SLP326 T00061011 $=
201401051153 METAR KCLM 051153Z AUTO 13004KT 10SM OVC015 03/00 A3049 RMK AO2 SLP326 I6000 T00280000 10028 21028 50003 $=
201401051053 METAR KCLM 051053Z AUTO 12004KT 10SM OVC017 02/M01 A3049 RMK AO2 SLP328 T00221006 $=
201401050953 METAR KCLM 050953Z AUTO 13005KT 10SM OVC019 01/M01 A3048 RMK AO2 SLP326 T00061011 $=
201401050939 SPECI KCLM 050939Z AUTO 15005KT 10SM BKN019 02/M01 A3048 RMK AO2 T00171006 $=
201401050926 SPECI KCLM 050926Z AUTO 13006KT 10SM SCT019 01/M01 A3048 RMK AO2 T00061011 $=
201401050853 METAR KCLM 050853Z AUTO 00000KT 10SM OVC019 01/00 A3048 RMK AO2 SLP324 I3000 T00110000 53004 $=
201401050753 METAR KCLM 050753Z AUTO 14006KT 10SM OVC016 00/M02 A3047 RMK AO2 SLP323 I1000 T00001017 400611044 $=
201401050741 SPECI KCLM 050741Z AUTO 14003KT 10SM BKN016 M01/M02 A3047 RMK AO2 I1000 T10111022 $=
201401050720 SPECI KCLM 050720Z AUTO 00000KT 10SM FEW018 M02/M03 A3047 RMK AO2 I1000 T10221028=
201401050653 METAR KCLM 050653Z AUTO 00000KT 10SM OVC018 M02/M03 A3047 RMK AO2 SLP322 I1000 T10171028=
201401050631 SPECI KCLM 050631Z AUTO 00000KT 10SM BKN018 M02/M03 A3047 RMK AO2 I1000 T10171028=
201401050553 METAR KCLM 050553Z AUTO 00000KT 10SM CLR M02/M03 A3047 RMK AO2 SLP321 T10171028 10044 21028 53004=
201401050453 METAR KCLM 050453Z AUTO 17003KT 10SM CLR M01/M02 A3046 RMK AO2 SLP318 T10111022=
201401050353 METAR KCLM 050353Z AUTO 14003KT 10SM SCT018 02/M01 A3046 RMK AO2 SLP319 T00171006=
201401050253 METAR KCLM 050253Z AUTO 00000KT 10SM OVC018 03/00 A3046 RMK AO2 SLP317 T00280000 53006=
201401050153 METAR KCLM 050153Z AUTO 16005KT 10SM OVC018 03/00 A3044 RMK AO2 SLP312 T00280000=
201401050053 METAR KCLM 050053Z AUTO 10005KT 10SM OVC017 03/00 A3044 RMK AO2 SLP311 T00330000=
201401042353 METAR KCLM 042353Z AUTO 10006KT 10SM OVC018 04/01 A3044 RMK AO2 SLP311 T00440006 10061 20017 56006=
201401042253 METAR KCLM 042253Z AUTO 08005KT 10SM OVC019 05/01 A3045 RMK AO2 SLP315 T00500006=
201401042153 METAR KCLM 042153Z AUTO 09006KT 10SM OVC020 05/01 A3044 RMK AO2 SLP312 T00500011=
201401042053 METAR KCLM 042053Z AUTO 09006KT 10SM BKN023 05/02 A3046 RMK AO2 SLP317 T00500017 58000=
201401042044 SPECI KCLM 042044Z AUTO 08005KT 10SM BKN023 06/01 A3046 RMK AO2 T00560011=
201401041953 METAR KCLM 041953Z AUTO 09008KT 10SM CLR 06/01 A3047 RMK AO2 SLP321 T00560011 $=
201401041853 METAR KCLM 041853Z AUTO 09007KT 10SM CLR 05/01 A3047 RMK AO2 SLP322 T00500011 $=
201401041753 METAR KCLM 041753Z AUTO 00000KT 10SM CLR 02/M01 A3046 RMK AO2 SLP317 I1000 I6002 T00171011 10017 21044 53009 $=
201401041653 METAR KCLM 041653Z AUTO 10SM CLR M01/M02 A3045 RMK AO2 SLP314 I1001 T10111022 $=
201401041553 METAR KCLM 041553Z AUTO 10SM CLR M02/M03 A3044 RMK AO2 SLP309 I1001 T10171028 $=
201401041453 METAR KCLM 041453Z AUTO 10SM CLR M02/M03 A3043 RMK AO2 SLP308 I1000 I3000 T10171028 58000 $=
201401041353 METAR KCLM 041353Z AUTO 10SM CLR M02/M04 A3044 RMK AO2 SLP309 I1000 T10221039 $=
201401041253 METAR KCLM 041253Z AUTO 10SM CLR M02/M03 A3043 RMK AO2 SLP309 I1000 T10221033 $=
201401041153 METAR KCLM 041153Z AUTO 10SM CLR M02/M03 A3043 RMK AO2 SLP308 T10221033 10006 21022 51017 $=
201401041053 METAR KCLM 041053Z AUTO 10SM CLR 00/M03 A3042 RMK AO2 SLP303 T00001028 $=
201401040953 METAR KCLM 040953Z AUTO 10SM CLR 00/M03 A3040 RMK AO2 SLP296 T00001028 $=
201401040853 METAR KCLM 040853Z AUTO 10SM CLR M01/M02 A3038 RMK AO2 SLP290 T10061022 51012 $=
201401040753 METAR KCLM 040753Z AUTO 10SM CLR 00/M03 A3038 RMK AO2 SLP289 T00001028 400891006 $=
201401040653 METAR KCLM 040653Z AUTO 10SM CLR 01/M02 A3036 RMK AO2 SLP283 T00061022 $=
201401040553 METAR KCLM 040553Z AUTO 10SM CLR 01/M02 A3035 RMK AO2 SLP278 T00061022 10061 21006 51018 $=
201401040453 METAR KCLM 040453Z AUTO 23005KT 10SM CLR 01/M02 A3033 RMK AO2 SLP274 T00061017 $=
201401040353 METAR KCLM 040353Z AUTO 23006KT 10SM CLR 00/M02 A3032 RMK AO2 SLP270 T00001017=
201401040253 METAR KCLM 040253Z AUTO 23007KT 10SM CLR 01/M01 A3029 RMK AO2 SLP261 T00061006 51015=
201401040153 METAR KCLM 040153Z AUTO 23005KT 10SM CLR 01/M01 A3028 RMK AO2 SLP258 T00111006=
201401040053 METAR KCLM 040053Z AUTO 00000KT 10SM CLR 02/01 A3027 RMK AO2 SLP253 T00220011=
201401032353 METAR KCLM 032353Z AUTO 00000KT 10SM CLR 06/02 A3025 RMK AO2 SLP245 T00610022 10089 20061 53021=
201401032253 METAR KCLM 032253Z AUTO 34007KT 10SM CLR 07/02 A3022 RMK AO2 SLP235 T00720022=
201401032153 METAR KCLM 032153Z AUTO 31009KT 10SM CLR 08/01 A3019 RMK AO2 SLP226 T00830006=
201401032053 METAR KCLM 032053Z AUTO 31008KT 10SM CLR 09/01 A3018 RMK AO2 SLP223 T00890011 53004=
201401031953 METAR KCLM 031953Z AUTO 31010KT 10SM CLR 09/M01 A3018 RMK AO2 SLP221 T00891006=
201401031853 METAR KCLM 031853Z AUTO 26009KT 10SM CLR 07/M01 A3017 RMK AO2 SLP219 T00721006=
201401031753 METAR KCLM 031753Z AUTO 29010KT 10SM CLR 07/M01 A3017 RMK AO2 SLP219 T00671006 10067 20033 53020=
201401031653 METAR KCLM 031653Z AUTO 27009KT 10SM CLR 04/M02 A3014 RMK AO2 SLP209 T00441022=
201401031553 METAR KCLM 031553Z AUTO 25012KT 10SM CLR 04/M02 A3013 RMK AO2 SLP204 T00441017=
201401031453 METAR KCLM 031453Z AUTO 25011KT 10SM CLR 04/M01 A3012 RMK AO2 SLP200 T00391011 51010=
201401031353 METAR KCLM 031353Z AUTO 26011KT 10SM CLR 04/M01 A3011 RMK AO2 SLP198 T00391011=
201401031253 METAR KCLM 031253Z AUTO 27011G19KT 10SM CLR 04/M01 A3009 RMK AO2 SLP192 T00441011=
201401031153 METAR KCLM 031153Z AUTO 27011KT 10SM CLR 04/M01 A3009 RMK AO2 SLP190 70046 T00441006 10061 20033 51022=
201401031053 METAR KCLM 031053Z AUTO 26008KT 10SM CLR 05/M01 A3008 RMK AO2 SLP187 T00501006=
201401030953 METAR KCLM 030953Z AUTO 27011KT 10SM CLR 04/M01 A3004 RMK AO2 SLP174 T00441006=
201401030853 METAR KCLM 030853Z AUTO 29010KT 10SM CLR 05/M02 A3002 RMK AO2 SLP167 T00501017 51021=
201401030753 METAR KCLM 030753Z AUTO 31009KT 10SM CLR 04/M01 A3001 RMK AO2 SLP165 T00441011 400830039=
201401030653 METAR KCLM 030653Z AUTO 29008KT 10SM CLR 05/01 A2997 RMK AO2 SLP150 T00500006=
201401030553 METAR KCLM 030553Z AUTO 30012KT 10SM CLR 06/04 A2996 RMK AO2 RAE0457 SLP146 P0000 60032 T00610039 10083 20061 53012=
201401030453 METAR KCLM 030453Z AUTO 29013KT 10SM -RA OVC044 07/06 A2992 RMK AO2 RAE41B48 SLP135 P0002 T00720056=
201401030441 SPECI KCLM 030441Z AUTO 29013G19KT 10SM SCT006 BKN046 OVC050 07/06 A2992 RMK AO2 RAE41 P0002 T00720056=
201401030427 SPECI KCLM 030427Z AUTO 29012G19KT 10SM -RA BKN007 BKN014 OVC039 07/06 A2992 RMK AO2 P0002 T00720061=
201401030418 SPECI KCLM 030418Z AUTO 30010KT 10SM -RA SCT007 BKN014 OVC034 07/06 A2992 RMK AO2 P0002 T00720061=
201401030413 SPECI KCLM 030413Z AUTO 31012KT 10SM -RA FEW009 SCT014 OVC034 07/06 A2992 RMK AO2 P0001 T00720056=
201401030353 METAR KCLM 030353Z AUTO 28010G19KT 10SM -RA OVC036 08/05 A2992 RMK AO2 SLP133 P0008 T00830050=
201401030253 METAR KCLM 030253Z AUTO 27011KT 10SM -RA OVC043 08/06 A2992 RMK AO2 SLP134 P0009 60022 T00830056 50011=
201401030222 SPECI KCLM 030222Z AUTO 29015G21KT 9SM -RA FEW005 SCT010 OVC042 08/06 A2993 RMK AO2 P0006 T00780061=
201401030204 SPECI KCLM 030204Z AUTO 26006KT 4SM -RA BR FEW003 BKN010 OVC034 07/06 A2993 RMK AO2 P0003 T00720061=
201401030153 METAR KCLM 030153Z AUTO 28006KT 5SM -RA BR FEW003 BKN015 OVC050 07/06 A2993 RMK AO2 SLP136 P0008 T00720061=
201401030151 SPECI KCLM 030151Z AUTO 27005KT 5SM -RA BR FEW008 BKN035 OVC050 07/06 A2992 RMK AO2 P0008=
201401030053 METAR KCLM 030053Z AUTO 00000KT 10SM -RA OVC055 07/06 A2989 RMK AO2 SLP124 P0005 T00720061=
201401030003 SPECI KCLM 030003Z AUTO 17003KT 10SM -RA SCT010 OVC070 07/06 A2991 RMK AO2 P0000 T00720061=
201401022353 METAR KCLM 022353Z AUTO 20004KT 6SM -RA BR BKN010 OVC065 07/06 A2991 RMK AO2 SLP131 P0004 60014 T00720061 10078 20067 55020=
201401022335 SPECI KCLM 022335Z AUTO 23003KT 9SM -RA BKN010 BKN018 OVC065 07/06 A2992 RMK AO2 P0001 T00720061=
201401022305 SPECI KCLM 022305Z AUTO 00000KT 10SM -RA SCT009 SCT065 OVC085 07/06 A2991 RMK AO2 P0000 T00720061=
201401022253 METAR KCLM 022253Z AUTO 13005KT 10SM -RA BKN008 BKN025 OVC085 07/06 A2990 RMK AO2 SLP128 P0002 T00720061=
201401022215 SPECI KCLM 022215Z AUTO 00000KT 8SM -RA OVC006 07/06 A2992 RMK AO2 P0001 T00720061=
201401022153 METAR KCLM 022153Z AUTO 00000KT 10SM -RA OVC004 07/06 A2993 RMK AO2 CIG 002V006 SLP137 P0003 T00720061=
201401022053 METAR KCLM 022053Z AUTO 00000KT 10SM -RA OVC003 07/06 A2997 RMK AO2 RAB12 SLP151 P0003 60005 T00670056 58025=
201401021953 METAR KCLM 021953Z AUTO 31003KT 10SM OVC004 07/06 A3001 RMK AO2 RAE03 SLP162 P0000 T00670061=
201401021853 METAR KCLM 021853Z AUTO 30003KT 10SM -RA OVC003 07/06 A3003 RMK AO2 RAB23 SLP172 P0002 T00670056=
201401021812 SPECI KCLM 021812Z AUTO 28007KT 10SM OVC004 07/06 A3005 RMK AO2 T00670056=
201401021753 METAR KCLM 021753Z AUTO 28007KT 10SM BKN005 BKN060 OVC075 07/05 A3005 RMK AO2 SLP177 60000 T00670050 10067 20050 56021=
201401021738 SPECI KCLM 021738Z AUTO 27006KT 9SM SCT005 SCT060 OVC075 07/05 A3005 RMK AO2 T00670050=
201401021653 METAR KCLM 021653Z AUTO 28003KT 7SM BKN006 OVC060 06/05 A3007 RMK AO2 SLP184 T00610050=
201401021602 SPECI KCLM 021602Z AUTO 26005KT 8SM BKN006 OVC060 06/04 A3008 RMK AO2 T00560044=
201401021553 METAR KCLM 021553Z AUTO VRB03KT 7SM SCT006 OVC060 06/05 A3008 RMK AO2 SLP188 T00560050=
201401021524 SPECI KCLM 021524Z AUTO 31003KT 5SM BR BKN006 OVC065 06/04 A3009 RMK AO2 T00560044=
201401021453 METAR KCLM 021453Z AUTO 14003KT 8SM SCT007 OVC070 06/04 A3011 RMK AO2 RAE05 SLP197 P0000 60000 T00560044 58029=
201401021413 SPECI KCLM 021413Z AUTO 23003KT 8SM BKN005 OVC065 06/04 A3014 RMK AO2 RAE05 CIG 004V008 P0000 T00560044=
201401021353 METAR KCLM 021353Z AUTO 00000KT 9SM -RA FEW007 OVC070 06/05 A3015 RMK AO2 RAE16B48 SLP211 P0000 T00610050=
201401021253 METAR KCLM 021253Z AUTO 10003KT 8SM -RA FEW007 OVC080 06/04 A3016 RMK AO2 RAE26B48 SLP214 P0000 T00560044=
201401021201 SPECI KCLM 021201Z AUTO 00000KT 10SM -RA FEW008 OVC080 06/05 A3019 RMK AO2 P0000 T00560050=
201401021153 METAR KCLM 021153Z AUTO 00000KT 10SM -RA SCT008 BKN026 OVC085 06/04 A3019 RMK AO2 RAB22 CIG 020V033 SLP227 P0001 60002 70006 T00560044 10061 20056 56009=
201401021114 SPECI KCLM 021114Z AUTO 00000KT 10SM BKN008 OVC090 06/05 A3020 RMK AO2 T00610050=
201401021053 METAR KCLM 021053Z AUTO 13006KT 10SM FEW008 BKN080 OVC100 06/04 A3020 RMK AO2 RAE49 SLP228 P0001 T00560044=
201401021051 SPECI KCLM 021051Z AUTO 13006KT 10SM FEW008 BKN080 OVC100 06/04 A3020 RMK AO2 RAE49 P0001=
201401021032 SPECI KCLM 021032Z AUTO 10004KT 10SM -RA SCT010 OVC080 06/04 A3021 RMK AO2 P0001 T00560044=
201401020953 METAR KCLM 020953Z AUTO 12004KT 10SM -RA BKN010 BKN070 OVC090 06/04 A3022 RMK AO2 RAB0857 SLP236 P0000 T00560044=
201401020853 METAR KCLM 020853Z AUTO 00000KT 9SM SCT009 BKN013 OVC060 06/04 A3023 RMK AO2 SLP240 T00560044 58012=
201401020811 SPECI KCLM 020811Z AUTO 13003KT 7SM BKN011 06/04 A3024 RMK AO2 CIG 006V014 T00560044=
201401020753 METAR KCLM 020753Z AUTO 16004KT 9SM OVC009 06/04 A3025 RMK AO2 CIG 006V013 SLP246 T00560044 400670028=
201401020653 METAR KCLM 020653Z AUTO 00000KT 10SM OVC006 06/05 A3026 RMK AO2 SLP249 T00560050=
201401020553 METAR KCLM 020553Z AUTO 17003KT 10SM BKN007 OVC065 06/04 A3027 RMK AO2 SLP252 60002 T00560044 10061 20056 56014=
201401020545 SPECI KCLM 020545Z AUTO 14003KT 10SM SCT007 OVC070 06/04 A3027 RMK AO2 T00560044=
201401020453 METAR KCLM 020453Z AUTO 09003KT 10SM OVC080 06/04 A3028 RMK AO2 RAB0358E17 SLP256 P0000 T00610044=
201401020353 METAR KCLM 020353Z AUTO 12004KT 7SM OVC060 06/05 A3029 RMK AO2 SLP259 T00560050=
201401020330 SPECI KCLM 020330Z AUTO 11005KT 7SM FEW003 OVC060 06/05 A3030 RMK AO2 T00610050=
201401020253 METAR KCLM 020253Z AUTO 11005KT 9SM OVC060 06/04 A3031 RMK AO2 RAE01B20E42 SLP266 P0001 60002 T00610044 56014=
201401020153 METAR KCLM 020153Z AUTO 12005KT 10SM -RA FEW008 FEW044 OVC065 06/04 A3032 RMK AO2 RAE19B49 SLP270 P0000 T00610044=
201401020133 SPECI KCLM 020133Z AUTO 12004KT 10SM SCT008 BKN045 OVC085 06/04 A3033 RMK AO2 RAE19 P0000 T00610044=
201401020053 METAR KCLM 020053Z AUTO 12004KT 7SM -RA FEW029 SCT060 OVC070 06/04 A3034 RMK AO2 SLP275 P0001 T00610044=
201401020036 SPECI KCLM 020036Z AUTO 13004KT 8SM -RA SCT010 BKN060 OVC070 06/05 A3034 RMK AO2 P0001 T00610050=
201401012353 METAR KCLM 012353Z AUTO 12004KT 8SM -RA BKN010 OVC055 06/05 A3035 RMK AO2 SLP280 P0002 60002 T00610050 10067 20056 51002=
201401012349 SPECI KCLM 012349Z AUTO 12003KT 8SM -RA SCT006 BKN010 OVC055 06/05 A3035 RMK AO2 P0001=
201401012253 METAR KCLM 012253Z AUTO 00000KT 10SM -RA OVC005 07/05 A3035 RMK AO2 RAB07E16B40 SLP280 P0000 T00670050=
201401012153 METAR KCLM 012153Z AUTO 08003KT 10SM OVC007 07/04 A3035 RMK AO2 SLP279 T00670044=
201401012053 METAR KCLM 012053Z AUTO 00000KT 10SM OVC005 07/04 A3035 RMK AO2 SLP281 T00670044 58009=
201401012023 SPECI KCLM 012023Z AUTO 09004KT 10SM BKN006 OVC110 06/04 A3036 RMK AO2 T00610044=
201401011953 METAR KCLM 011953Z AUTO 09004KT 10SM FEW007 OVC100 07/04 A3036 RMK AO2 SLP284 T00670044=
201401011932 SPECI KCLM 011932Z AUTO 12004KT 10SM SCT006 OVC110 07/04 A3037 RMK AO2 T00670044=
201401011853 METAR KCLM 011853Z AUTO 00000KT 10SM BKN005 OVC110 07/04 A3038 RMK AO2 SLP291 T00670044=
201401011753 METAR KCLM 011753Z AUTO 10004KT 8SM OVC002 06/04 A3038 RMK AO2 SLP290 T00560044 10056 20028 50001=
201401011653 METAR KCLM 011653Z AUTO 21003KT 10SM OVC002 04/03 A3039 RMK AO2 SLP295 T00440033=
201401011628 SPECI KCLM 011628Z AUTO 00000KT 6SM BR BKN004 OVC009 03/02 A3038 RMK AO2 CIG 002V007 T00280022=
201401011620 SPECI KCLM 011620Z AUTO 12003KT 10SM SCT004 OVC009 03/02 A3038 RMK AO2 T00280017=
201401011610 SPECI KCLM 011610Z AUTO 00000KT 10SM BKN003 OVC009 03/02 A3038 RMK AO2 T00330022=
201401011606 SPECI KCLM 011606Z AUTO 00000KT 10SM SCT003 OVC010 03/03 A3038 RMK AO2 T00330028=
201401011559 SPECI KCLM 011559Z AUTO 00000KT 2SM BR FEW003 OVC010 03/03 A3038 RMK AO2 T00330028=
201401011553 METAR KCLM 011553Z AUTO 00000KT 1/2SM FG SCT003 OVC010 03/03 A3038 RMK AO2 SLP290 T00330028=
201401011545 SPECI KCLM 011545Z AUTO 00000KT 3/4SM BR FEW003 OVC010 03/02 A3038 RMK AO2 T00280022=
201401011540 SPECI KCLM 011540Z AUTO 00000KT 1 3/4SM BR OVC010 03/02 A3037 RMK AO2 CIG 009V013 T00280022=
201401011512 SPECI KCLM 011512Z AUTO 00000KT 10SM BKN014 OVC075 03/02 A3038 RMK AO2 T00330022=
201401011501 SPECI KCLM 011501Z AUTO 00000KT 10SM SCT006 BKN016 OVC075 03/02 A3038 RMK AO2 T00330022=
201401011453 METAR KCLM 011453Z AUTO 00000KT 10SM BKN006 BKN018 OVC100 04/03 A3038 RMK AO2 SLP288 T00390028 58003=
201401011353 METAR KCLM 011353Z AUTO 00000KT 10SM OVC007 05/04 A3038 RMK AO2 SLP291 T00500039=
201401011303 SPECI KCLM 011303Z AUTO 00000KT 10SM OVC008 05/03 A3038 RMK AO2 CIG 007V011 T00500033=
201401011253 METAR KCLM 011253Z AUTO 00000KT 10SM OVC010 05/03 A3038 RMK AO2 SLP291 T00500033=
201401011238 SPECI KCLM 011238Z AUTO 00000KT 10SM OVC010 04/03 A3038 RMK AO2 T00440033=
201401011153 METAR KCLM 011153Z AUTO 00000KT 10SM OVC007 04/03 A3038 RMK AO2 SLP291 T00440033 10050 20011 50001=
201401011126 SPECI KCLM 011126Z AUTO 22003KT 10SM BKN009 OVC019 04/03 A3040 RMK AO2 T00440028=
201401011117 SPECI KCLM 011117Z AUTO 24004KT 10SM SCT009 OVC019 04/03 A3040 RMK AO2 T00440028=
201401011053 METAR KCLM 011053Z AUTO 24003KT 10SM OVC019 04/03 A3040 RMK AO2 SLP297 T00440028=
201401011007 SPECI KCLM 011007Z AUTO 24004KT 10SM OVC015 05/03 A3039 RMK AO2 T00500033=
201401010953 METAR KCLM 010953Z AUTO 24005KT 10SM OVC014 05/04 A3038 RMK AO2 SLP291 T00500039=
201401010853 METAR KCLM 010853Z AUTO 22004KT 10SM OVC011 04/03 A3038 RMK AO2 SLP290 T00390033 50007=
201401010753 METAR KCLM 010753Z AUTO 23005KT 10SM OVC010 03/02 A3039 RMK AO2 SLP292 T00280017 400890011=
201401010744 SPECI KCLM 010744Z AUTO 23003KT 10SM BKN010 03/02 A3038 RMK AO2 T00280017=
201401010653 METAR KCLM 010653Z AUTO 25004KT 10SM CLR 03/02 A3037 RMK AO2 SLP286 T00330022=
201401010635 SPECI KCLM 010635Z AUTO 00000KT 6SM BR CLR 02/02 A3036 RMK AO2 T00220017=
201401010627 SPECI KCLM 010627Z AUTO 00000KT 2 1/2SM BR CLR 02/01 A3036 RMK AO2 VIS 1 1/4V5 T00220011=
201401010553 METAR KCLM 010553Z AUTO 00000KT 8SM CLR 03/02 A3036 RMK AO2 SLP284 T00280022 10078 20011 53010=
201401010453 METAR KCLM 010453Z AUTO 00000KT 9SM CLR 02/02 A3035 RMK AO2 SLP280 T00220017=
201401010402 SPECI KCLM 010402Z AUTO 14005KT 4SM BR CLR 02/01 A3034 RMK AO2 T00220011=
201401010353 METAR KCLM 010353Z AUTO 13003KT 2SM BR CLR 02/01 A3034 RMK AO2 SLP278 T00170006=
201401010337 SPECI KCLM 010337Z AUTO 00000KT 1 1/4SM BR CLR 02/02 A3034 RMK AO2 VIS 3/4V1 3/4 T00220017=
201401010327 SPECI KCLM 010327Z AUTO 00000KT 2SM BR CLR 02/02 A3034 RMK AO2 T00220017=
201401010317 SPECI KCLM 010317Z AUTO 00000KT 1/2SM FG CLR 03/02 A3034 RMK AO2 T00280017=
201401010306 SPECI KCLM 010306Z AUTO 00000KT 1 3/4SM BR CLR 02/01 A3033 RMK AO2 VIS 1/2V5 T00170011=
201401010253 METAR KCLM 010253Z AUTO 16003KT 10SM CLR 03/03 A3033 RMK AO2 SLP273 T00330028 50005=
201401010153 METAR KCLM 010153Z AUTO 14003KT 10SM OVC035 04/03 A3034 RMK AO2 SLP275 T00440033=
201401010053 METAR KCLM 010053Z AUTO 00000KT 10SM OVC034 07/06 A3033 RMK AO2 SLP274 T00720056=
201401010038 SPECI KCLM 010038Z AUTO 00000KT 10SM OVC032 07/06 A3033 RMK AO2 T00720056=

# No short TAF reports from KCLM in databse.

###################################
#  large TAF from KCLM
###################################
201401312322 TAF KCLM 312322Z 0100/0124 07006KT P6SM SCT040=
201401311730 TAF KCLM 311730Z 3118/0118 VRB03KT P6SM BKN050 FM312200 07004KT
                       P6SM SCT040=
201401311157 TAF AMD KCLM 311157Z 3112/0112 26004KT P6SM FEW015 SCT030 OVC060
                       TEMPO 3112/3115 BKN015 BKN030 FM311800 05004KT
                       P6SM FEW030 BKN060 FM312200 07004KT P6SM
                       SCT060=
201401311120 TAF KCLM 311120Z 3112/0112 23004KT P6SM SCT007 OVC020
                      TEMPO 3112/3115 -SHRA BKN007 FM311800 05004KT
                       P6SM OVC025 FM312200 07004KT P6SM BKN035
                       FM010100 09003KT P6SM SCT040=
201401310529 TAF KCLM 310529Z 3106/0106 VRB03KT P6SM SCT005 BKN010 OVC025
                      TEMPO 3106/3110 5SM -SHRA BR BKN005 OVC010
                       FM311200 03004KT P6SM OVC015 FM311800 05004KT
                       P6SM OVC025 FM312200 07004KT P6SM BKN035
                       FM010100 09003KT P6SM SCT040=
201401302320 TAF KCLM 302320Z 3100/3124 03004KT P6SM -SHRA SCT025 OVC060
                      TEMPO 3100/3104 BKN020 FM310600 03004KT P6SM
                       OVC020 FM311200 03004KT P6SM OVC015=
201401301727 TAF KCLM 301727Z 3018/3118 26006KT P6SM -SHRA SCT020 BKN035 FM302100
                       03004KT P6SM VCSH OVC020 FM310600 03004KT
                       P6SM OVC016=
201401301121 TAF KCLM 301121Z 3012/3112 22003KT P6SM FEW025 SCT050
                      TEMPO 3014/3018 BKN025 BKN050 FM301800 VRB04KT
                       P6SM -SHRA OVC020 FM310000 03004KT P6SM
                       SCT025 BKN050=
201401300520 TAF KCLM 300520Z 3006/3106 25006KT P6SM FEW020 SCT045 FM300900
                       28005KT P6SM FEW010 BKN035 FM301800 VRB04KT
                       P6SM -SHRA OVC020=
201401300154 TAF AMD KCLM 300154Z 3002/3024 27009KT P6SM SCT035 BKN150
                      TEMPO 3002/3004 BKN035 BKN150 FM300900 28005KT
                       P6SM BKN008 OVC020 FM301500 VRB04KT P6SM
                       VCSH OVC020=
201401292328 TAF KCLM 292328Z 3000/3024 28006KT P6SM SCT008 BKN030 OVC040 FM300900
                       28005KT P6SM BKN008 OVC020 FM301500 VRB04KT
                       P6SM VCSH OVC020=
201401291731 TAF KCLM 291731Z 2918/3018 12004KT 4SM -RA BR BKN003 OVC020 FM292300
                       28006KT P6SM SCT008 BKN012 OVC025=
201401291121 TAF KCLM 291121Z 2912/3012 11005KT P6SM -SHRA SCT001 OVC006
                      TEMPO 2912/2916 4SM -SHRA BR OVC001 FM291600
                       25005KT 5SM -SHRA BR OVC008 FM292300 28006KT
                       P6SM BKN013 BKN030=
201401290808 TAF AMD KCLM 290808Z 2908/3006 10006KT 4SM -RA BR OVC005
                      TEMPO 2908/2912 1 1/2SM -RA BR OVC001 FM291800
                       25005KT 5SM -SHRA BR OVC008 FM292300 28006KT
                       P6SM BKN013 BKN030=
201401290520 TAF KCLM 290520Z 2906/3006 11003KT 3SM -RA BR OVC006 FM291800 25005KT
                       5SM -SHRA BR OVC008 FM292300 28006KT P6SM
                       BKN013 BKN030=
201401290106 TAF AMD KCLM 290106Z 2901/2924 09004KT 6SM BR OVC008
                      TEMPO 2901/2905 4SM BR OVC004 FM290500 VRB04KT
                       4SM -RA BR SCT008 OVC015 FM291800 25005KT
                       P6SM -RA OVC015=
201401282325 TAF KCLM 282325Z 2900/2924 09004KT P6SM OVC008 FM290500 VRB04KT
                       4SM -RA BR SCT008 OVC015 FM291800 25005KT
                       P6SM -RA OVC015=
201401281725 TAF KCLM 281725Z 2818/2918 VRB04KT 5SM BR OVC007 FM290400 VRB03KT
                       4SM -RA OVC015=
201401281200 TAF AMD KCLM 281200Z 2812/2912 24003KT P6SM -RA SCT007 BKN015 OVC060
                       TEMPO 2812/2816 3SM -RA BR OVC007 FM281800
                       VRB04KT P6SM BKN015 OVC040 FM282200 VRB03KT
                       P6SM BKN030 OVC050
                      TEMPO 2900/2904 -RA OVC025 FM290400 VRB03KT
                       6SM -RA OVC015=
201401281123 TAF KCLM 281123Z 2812/2912 24004KT P6SM OVC007
                      TEMPO 2812/2816 3SM -RA BR FM281800 VRB04KT
                       P6SM BKN015 OVC040 FM282200 VRB03KT P6SM
                       BKN030 OVC050
                      TEMPO 2900/2904 -RA OVC025 FM290400 VRB03KT
                       6SM -RA OVC015=
201401281002 TAF AMD KCLM 281002Z 2810/2906 24004KT P6SM -RA SCT009 OVC070
                      TEMPO 2810/2814 OVC009 FM281800 VRB04KT P6SM
                       -RA OVC030=
201401280520 TAF KCLM 280520Z 2806/2906 25003KT P6SM OVC080 FM281000 VRB04KT
                       P6SM -RA SCT030 OVC070 FM281800 VRB04KT
                       P6SM -RA OVC030=
201401280359 TAF AMD KCLM 280359Z 2804/2824 00000KT P6SM OVC120 FM281500 VRB04KT
                       P6SM -RA SCT030 OVC050 FM281800 VRB04KT
                       P6SM -RA OVC030=
201401280121 TAF AMD KCLM 280121Z 2801/2824 00000KT P6SM VCFG OVC007
                      TEMPO 2805/2809 2SM BR BKN001 FM280900 VRB03KT
                       2SM BR BKN001 OVC100 FM281500 VRB04KT P6SM
                       -RA SCT030 OVC050 FM281800 VRB04KT P6SM
                       -RA OVC030=
201401272334 TAF KCLM 272334Z 2800/2824 10005KT 6SM HZ BKN004 OVC200
                      TEMPO 2805/2809 2SM BR BKN001 FM280900 VRB03KT
                       2SM BR BKN001 OVC100 FM281500 VRB04KT P6SM
                       -RA SCT030 OVC050 FM281800 VRB04KT P6SM
                       -RA OVC030=
201401272103 TAF AMD KCLM 272103Z 2721/2818 12005KT 2SM BR BKN002 OVC200 FM272300
                       12005KT 4SM HZ SCT005 OVC200 FM280900 VRB03KT
                       P6SM OVC100=
201401271723 TAF KCLM 271723Z 2718/2818 VRB03KT 2SM BR OVC002 FM272100 VRB03KT
                       P6SM OVC200 FM280900 VRB03KT P6SM OVC100=
201401271136 TAF KCLM 271136Z 2712/2812 VRB03KT 1/4SM FG VV001 FM272100 VRB03KT
                       P6SM OVC200 FM280900 VRB03KT P6SM OVC100=
201401270536 TAF KCLM 270536Z 2706/2806 VRB03KT 1/4SM FG VV001 FM272000 VRB03KT
                       P6SM OVC200=
201401270310 TAF AMD KCLM 270310Z 2703/2724 VRB03KT 1/4SM FG VV001 FM271900
                       VRB03KT P6SM OVC200=
201401262324 TAF KCLM 262324Z 2700/2724 VRB03KT P6SM SCT250 FM270800 07003KT
                       1/2SM FG OVC002 FM271900 VRB03KT P6SM OVC200=
201401261725 TAF KCLM 261725Z 2618/2718 07003KT 1/4SM FG VV002 FM262200 11002KT
                       P6SM SKC FM270900 19003KT 1/2SM FG VV001=
201401261244 TAF AMD KCLM 261244Z 2613/2712 00000KT 3SM BR OVC002
                      TEMPO 2613/2617 1/2SM FG VV001 FM262000 00000KT
                       P6SM SCT200 FM270800 00000KT 1/2SM FG VV002=
201401261120 TAF KCLM 261120Z 2612/2712 00000KT 5SM BR SCT001
                      TEMPO 2612/2616 1SM BR BKN001 FM261800 00000KT
                       P6SM SCT200 FM270800 00000KT 1/2SM FG VV002=
201401260520 TAF KCLM 260520Z 2606/2706 00000KT 1SM BR SCT001
                      TEMPO 2606/2608 1/4SM FG VV001 FM260800 00000KT
                       1/4SM FG VV002
                      TEMPO 2617/2620 2SM BR FM262000 00000KT P6SM
                       VCFG SKC=
201401260304 TAF AMD KCLM 260304Z 2603/2624 04003KT 2SM BR SCT001
                      TEMPO 2603/2607 1/2SM FG VV001 FM260700 00000KT
                       1/4SM FG VV002
                      TEMPO 2617/2620 2SM BR FM262000 00000KT P6SM
                       VCFG SKC=
201401252327 TAF KCLM 252327Z 2600/2624 04003KT 1/4SM FG VV001
                      TEMPO 2600/2604 P6SM NSW SKC=
201401252108 TAF AMD KCLM 252108Z 2521/2618 00000KT P6SM SKC
                      TEMPO 2521/2523 1/4SM FG OVC002=
201401251722 TAF KCLM 251722Z 2518/2618 00000KT P6SM SKC=
201401251120 TAF KCLM 251120Z 2512/2612 VRB04KT P6SM SKC=
201401250520 TAF KCLM 250520Z 2506/2606 VRB04KT P6SM SKC=
201401242323 TAF KCLM 242323Z 2500/2524 11004KT P6SM SKC=
201401241732 TAF KCLM 241732Z 2418/2518 00000KT P6SM SKC=
201401241120 TAF KCLM 241120Z 2412/2512 15004KT P6SM SKC
                      TEMPO 2412/2416 3SM BR BKN003 FM241700 VRB03KT
                       P6SM SKC=
201401240520 TAF KCLM 240520Z 2406/2506 15004KT P6SM SKC
                      TEMPO 2412/2416 3SM BR BKN003 FM241700 VRB03KT
                       P6SM SKC=
201401232320 TAF KCLM 232320Z 2400/2424 10004KT P6SM FEW200 FM240400 24004KT
                       P6SM SKC FM241700 VRB03KT P6SM SKC=
201401231734 TAF KCLM 231734Z 2318/2418 13005KT P6SM OVC006 FM231930 12005KT
                       P6SM BKN006 FM232100 09005KT P6SM SKC=
201401231120 TAF KCLM 231120Z 2312/2412 VRB04KT P6SM OVC006 FM231700 09005KT
                       P6SM BKN005 FM232100 09005KT P6SM SKC=
201401230520 TAF KCLM 230520Z 2306/2406 VRB04KT P6SM BKN012
                      TEMPO 2306/2310 SCT012 FM231000 09005KT 5SM
                       BR VCFG SCT004 BKN012 FM231200 09005KT 2SM
                       BR BKN004 BKN010 FM231700 09005KT 3SM BR
                       SCT005 FM231800 09005KT P6SM SKC=
201401222320 TAF KCLM 222320Z 2300/2324 10006KT P6SM OVC013 FM230130 VRB03KT
                       P6SM SCT015 SCT025 FM230700 15004KT P6SM
                       SKC=
201401222152 TAF AMD KCLM 222152Z 2222/2318 11006KT P6SM OVC007 FM222330 10005KT
                       P6SM BKN008 BKN025 FM230300 VRB03KT P6SM
                       SCT025 SCT250 FM230700 15004KT P6SM SKC=
201401222102 TAF AMD KCLM 222102Z 2221/2318 11006KT 3SM BR OVC004 FM222300 01003KT
                       P6SM SCT008 SCT025
                      TEMPO 2223/2301 BKN008 BKN025 FM230100 VRB03KT
                       P6SM SCT250 FM230700 15004KT P6SM SKC=
201401221932 TAF AMD KCLM 221932Z 2220/2318 09003KT 3SM BR OVC004 FM222100 00000KT
                       5SM BR SCT005 OVC009 FM222300 01003KT P6SM
                       SCT025 FM230100 VRB03KT P6SM SCT250 FM230700
                       15004KT P6SM SKC=
201401221808 TAF AMD KCLM 221808Z 2218/2318 00000KT 1/4SM FG VV001 FM222100
                       00000KT 4SM BR SCT003 OVC009 FM222300 01003KT
                       P6SM SCT025 FM230100 VRB03KT P6SM SCT250
                       FM230700 15004KT P6SM SKC=
201401221746 TAF KCLM 221746Z 2218/2318 00000KT P6SM BKN007 OVC022 FM222300
                       01003KT P6SM SCT025 FM230100 VRB03KT P6SM
                       SCT250 FM230700 15004KT P6SM SKC=
201401221204 TAF AMD KCLM 221204Z 2212/2312 24005KT P6SM BKN015 OVC035 FM221800
                       VRB03KT P6SM BKN012 OVC025 FM222300 01003KT
                       P6SM SCT020 FM230100 VRB03KT P6SM SCT250=
201401221124 TAF KCLM 221124Z 2212/2312 24005KT P6SM OVC035 FM221800 VRB03KT
                       P6SM BKN012 OVC025 FM222300 01003KT P6SM
                       SCT020 FM230100 VRB03KT P6SM SCT250=
201401221006 TAF AMD KCLM 221006Z 2210/2306 24005KT P6SM OVC040 FM221500 VRB03KT
                       P6SM OVC035 FM221800 VRB03KT P6SM BKN045
                       FM222100 04005KT P6SM SCT050=
201401220520 TAF KCLM 220520Z 2206/2306 23005KT P6SM SCT024 BKN050
                      TEMPO 2206/2210 BKN025 BKN050 FM221000 24005KT
                       P6SM OVC020 FM221500 VRB03KT P6SM BKN020
                       BKN050 FM222100 04005KT P6SM SCT050=
201401220421 TAF AMD KCLM 220421Z 2204/2224 23005KT P6SM BKN024 OVC100 FM220600
                       23006KT P6SM OVC020 FM221500 VRB03KT P6SM
                       BKN020 FM222100 04005KT P6SM SCT050=
201401212320 TAF KCLM 212320Z 2200/2224 VRB03KT P6SM BKN150 FM220600 23006KT
                       P6SM OVC030 FM221500 VRB03KT P6SM BKN020
                       FM222100 04005KT P6SM SCT050=
201401211723 TAF KCLM 211723Z 2118/2218 VRB03KT P6SM SCT008 BKN150 FM212000
                       VRB03KT P6SM BKN150 FM220600 23006KT P6SM
                       OVC020 FM221500 VRB03KT P6SM BKN030=
201401211123 TAF KCLM 211123Z 2112/2212 13003KT P6SM BKN006
                      TEMPO 2112/2116 3SM BR OVC003 FM211800 VRB03KT
                       P6SM SCT008 BKN150 FM212000 VRB03KT P6SM
                       BKN150 FM220600 25006KT P6SM OVC020=
201401210914 TAF AMD KCLM 210914Z 2109/2206 VRB03KT P6SM SKC
                      TEMPO 2109/2112 4SM BR BKN006 FM211200 VRB03KT
                       P6SM SCT006
                      TEMPO 2112/2116 4SM BR BKN006 FM211800 VRB03KT
                       P6SM BKN150=
201401210530 TAF KCLM 210530Z 2106/2206 VRB03KT P6SM SKC
                      TEMPO 2107/2109 2SM BCFG BKN003 FM210900
                       VRB03KT 1/2SM FG OVC001 FM211800 VRB03KT
                       5SM BR BKN005 FM212000 VRB03KT P6SM BKN150=
201401202325 TAF KCLM 202325Z 2100/2124 12005KT P6SM SCT012
                      TEMPO 2105/2108 BKN005 FM210800 10006KT P6SM
                       OVC005 FM211000 10006KT 2SM BR OVC003 FM211800
                       08005KT P6SM BKN012=
201401201731 TAF KCLM 201731Z 2018/2118 12005KT P6SM OVC010 FM202000 10006KT
                       P6SM OVC012 FM210400 10006KT P6SM OVC008=
201401201126 TAF KCLM 201126Z 2012/2112 11005KT P6SM OVC008 FM201800 12005KT
                       P6SM OVC010 FM202000 10006KT P6SM OVC012
                       FM210400 10006KT P6SM OVC008=
201401200903 TAF AMD KCLM 200903Z 2009/2106 11005KT P6SM OVC008 FM201200 10005KT
                       5SM BR OVC006 FM202000 10006KT P6SM BKN010
                       FM210300 10006KT P6SM OVC004=
201401200529 TAF KCLM 200529Z 2006/2106 12005KT P6SM OVC008 FM200800 10005KT
                       5SM BR OVC005 FM201000 10004KT 2SM BR OVC002
                       FM202000 10006KT P6SM BKN006 FM210300 10006KT
                       P6SM OVC004=
201401192320 TAF KCLM 192320Z 2000/2024 12005KT 5SM BR OVC006 FM200300 10005KT
                       3SM BR OVC004 FM200500 10004KT 1SM BR OVC002
                       FM201600 VRB03KT 5SM BR BKN006 FM201700
                       VRB03KT P6SM SCT015=
201401192103 TAF AMD KCLM 192103Z 1921/2018 09005KT 3SM BR OVC006 FM200300 10005KT
                       3SM BR OVC004 FM200500 12004KT 1SM BR OVC002
                       FM201600 VRB03KT 5SM BR BKN006 FM201700
                       VRB03KT P6SM SCT015=
201401191732 TAF KCLM 191732Z 1918/2018 10004KT 5SM BR OVC003
                      TEMPO 1918/1921 2SM BR OVC002 FM192100 VRB03KT
                       P6SM OVC012 FM192200 08004KT P6SM FEW015
                       SCT250 FM200300 10004KT 3SM BR OVC004 FM200500
                       12004KT 1SM BR OVC002 FM201600 VRB03KT 5SM
                       BR BKN006 FM201700 VRB03KT P6SM SCT015=
201401191452 TAF AMD KCLM 191452Z 1915/2012 10004KT 1 1/2SM BR OVC002
                      TEMPO 1915/1919 P6SM NSW OVC006 FM191900
                       VRB03KT P6SM OVC012 FM192100 08004KT P6SM
                       SCT250=
201401191208 TAF AMD KCLM 191208Z 1912/2012 VRB03KT P6SM OVC008 FM191900 VRB03KT
                       P6SM OVC012 FM192100 08004KT P6SM SCT250=
201401191120 TAF KCLM 191120Z 1912/2012 VRB03KT P6SM OVC005 FM191900 VRB03KT
                       P6SM OVC010 FM192100 08004KT P6SM SCT250=
201401190526 TAF KCLM 190526Z 1906/2006 VRB03KT P6SM OVC006 FM191000 VRB03KT
                       3SM BR OVC003
                      TEMPO 1912/1916 1/2SM FG OVC002 FM191800
                       VRB03KT 5SM BR OVC006 FM192000 VRB04KT P6SM
                       SCT250=
201401182327 TAF KCLM 182327Z 1900/1924 VRB03KT P6SM SCT018 BKN070 FM190300
                       VRB03KT 5SM BR BKN018 BKN070
                      TEMPO 1912/1916 1/2SM FG OVC008 FM191600
                       25003KT 2SM BR BKN008 FM191800 25004KT P6SM
                       BKN015 FM192000 VRB04KT P6SM SCT020=
201401181904 TAF AMD KCLM 181904Z 1819/1918 25006KT P6SM SCT015 BKN120 FM182100
                       VRB03KT P6SM SCT015 BKN050 FM190300 VRB03KT
                       5SM BR OVC007 FM190400 VRB03KT 1/2SM FG
                       OVC002 FM191700 25003KT 2SM BR BKN008=
201401181720 TAF KCLM 181720Z 1818/1918 25006KT P6SM OVC008 FM182000 VRB03KT
                       P6SM BKN015 BKN050 FM182300 VRB03KT P6SM
                       SCT015 BKN050 FM190300 VRB03KT 5SM BR OVC007
                       FM190400 VRB03KT 1/2SM FG OVC002 FM191700
                       25003KT 2SM BR BKN008=
201401181132 TAF KCLM 181132Z 1812/1912 VRB03KT 6SM BR OVC004
                      TEMPO 1812/1816 2SM BR OVC002 FM181800 VRB03KT
                       P6SM OVC008 FM182000 VRB03KT P6SM SCT250
                       FM182300 VRB03KT P6SM SCT050 SCT250 FM190400
                       VRB03KT 5SM BR OVC007=
201401181044 TAF AMD KCLM 181044Z 1811/1906 VRB03KT 5SM BR OVC002
                      TEMPO 1812/1816 2SM BR FM181800 VRB03KT P6SM
                       OVC008 FM182000 VRB03KT P6SM SCT250 FM182300
                       VRB03KT P6SM SCT050 SCT250=
201401180533 TAF KCLM 180533Z 1806/1906 12005KT 5SM BR OVC005
                      TEMPO 1806/1809 1SM BR OVC002 FM180900 09003KT
                       1/2SM FG OVC002 FM181500 09004KT 3SM BR
                       OVC008 FM181800 VRB03KT P6SM SCT250=
201401180306 TAF AMD KCLM 180306Z 1803/1824 09006KT P6SM OVC005 FM180800 09003KT
                       1/2SM FG OVC004 FM181500 09004KT 3SM BR
                       OVC008=
201401172320 TAF KCLM 172320Z 1800/1824 09006KT P6SM OVC008 FM180400 09003KT
                       1/2SM FG OVC004 FM181500 09004KT 3SM BR
                       OVC008=
201401171720 TAF KCLM 171720Z 1718/1818 13007KT P6SM OVC004 FM172000 00000KT
                       P6SM OVC008 FM181200 00000KT 3SM BR OVC008=
201401171140 TAF KCLM 171140Z 1712/1812 12004KT 4SM BR OVC004 FM172000 00000KT
                       P6SM OVC008=
201401170534 TAF KCLM 170534Z 1706/1806 VRB03KT P6SM OVC004 FM172000 00000KT
                       P6SM OVC008=
201401162345 TAF KCLM 162345Z 1700/1724 12005KT P6SM VCFG OVC008 FM170200 VRB03KT
                       2SM BR OVC005
                      TEMPO 1702/1705 1/2SM FG VV002 FM170500 VRB03KT
                       1/2SM FG VV002 FM171800 11007KT 5SM BR OVC004
                       FM172000 07007KT P6SM VCFG BKN006 BKN250=
201401162244 TAF AMD KCLM 162244Z 1623/1718 08007KT P6SM VCFG OVC010 FM170100
                       VRB03KT 5SM BR SCT005
                      TEMPO 1701/1705 3/4SM BR VV003 FM170500 VRB03KT
                       1/2SM FG VV002=
201401162105 TAF AMD KCLM 162105Z 1621/1718 08007KT P6SM VCFG BKN009 BKN250
                       FM162300 08007KT P6SM VCFG SCT009 SCT250
                       FM170100 VRB03KT 5SM BR SCT005
                      TEMPO 1701/1705 3/4SM BR VV003 FM170500 VRB03KT
                       1/2SM FG VV002=
201401161746 TAF KCLM 161746Z 1618/1718 11007KT P6SM VCFG OVC006 FM162000 08005KT
                       P6SM VCFG BKN010 FM162100 08005KT P6SM VCFG
                       SCT250 FM170100 VRB03KT 5SM BR FEW004
                      TEMPO 1701/1705 3/4SM BR VV003 FM170500 VRB03KT
                       1/2SM FG VV002=
201401161538 TAF AMD KCLM 161538Z 1616/1712 VRB03KT P6SM OVC008 FM162200 VRB03KT
                       P6SM SCT005 FM170500 VRB03KT 4SM BR OVC003=
201401161139 TAF KCLM 161139Z 1612/1712 VRB03KT P6SM OVC004 FM162200 VRB03KT
                       P6SM SCT005 FM170500 VRB03KT 4SM BR OVC003=
201401160541 TAF KCLM 160541Z 1606/1706 VRB03KT 2SM BR OVC002
                      TEMPO 1606/1610 1/2SM FG VV002 FM161000 VRB03KT
                       1/2SM FG VV002 FM161900 VRB03KT 2SM BR OVC004
                       FM162200 VRB03KT P6SM SCT005 FM170500 VRB03KT
                       2SM BR BKN002=
201401152329 TAF KCLM 152329Z 1600/1624 VRB03KT P6SM VCFG SCT200 FM160200 VRB03KT
                       4SM BR BKN004
                      TEMPO 1604/1608 3/4SM BR VV002 FM160800 VRB03KT
                       3/4SM BR VV002
                      TEMPO 1612/1616 1/4SM FG VV001 FM161900 VRB03KT
                       2SM BR OVC004 FM162200 VRB03KT P6SM VCFG
                       SCT007=
201401152007 TAF AMD KCLM 152007Z 1520/1618 VRB03KT 2SM BCFG BKN200
                      TEMPO 1520/1522 1/4SM FG VV001 FM152200 VRB03KT
                       P6SM BKN200 FM160600 VRB03KT 4SM BR SCT004
                       SCT200 FM161200 VRB03KT 1/2SM FG VV001=
201401151938 TAF AMD KCLM 151938Z 1520/1618 VRB03KT P6SM VCFG BKN200
                      TEMPO 1520/1522 2SM BCFG VV001 FM152200 VRB03KT
                       P6SM BKN200 FM160600 VRB03KT 4SM BR SCT004
                       SCT200 FM161200 VRB03KT 1/2SM FG VV001=
201401151745 TAF KCLM 151745Z 1518/1618 VRB03KT P6SM BKN200 FM160600 VRB03KT
                       4SM BR SCT004 SCT200 FM161200 VRB03KT 1/2SM
                       FG VV001=
201401151139 TAF KCLM 151139Z 1512/1612 00000KT P6SM OVC045 FM151800 00000KT
                       P6SM SCT060 BKN200=
201401150538 TAF KCLM 150538Z 1506/1606 00000KT P6SM SCT040 BKN200 FM151200
                       00000KT 1/2SM FG OVC002 FM151800 00000KT
                       2SM BR BKN002 BKN200 FM152000 00000KT P6SM
                       SCT200=
201401142342 TAF KCLM 142342Z 1500/1524 VRB03KT P6SM BKN050 OVC150 FM150600
                       VRB03KT P6SM OVC030 FM151200 VRB03KT P6SM
                       FEW009 OVC020 FM152000 VRB03KT P6SM BKN025
                       BKN200=
201401142131 TAF AMD KCLM 142131Z 1422/1518 VRB03KT P6SM BKN050 OVC150 FM150000
                       VRB03KT P6SM SCT050 BKN150 FM150300 VRB03KT
                       P6SM SCT070 SCT200 FM150900 VRB03KT P6SM
                       BKN011 FM151300 VRB03KT P6SM OVC007=
201401141747 TAF KCLM 141747Z 1418/1518 VRB03KT P6SM BKN035 BKN070 OVC150 FM150000
                       VRB03KT P6SM SCT040 BKN070 BKN150 FM150300
                       VRB03KT P6SM SCT070 SCT200 FM150900 VRB03KT
                       P6SM BKN011 FM151300 VRB03KT P6SM OVC007=
201401141507 TAF AMD KCLM 141507Z 1415/1512 VRB03KT P6SM OVC040 FM141800 VRB03KT
                       P6SM SCT025 SCT070 FM150000 00000KT P6SM
                       SKC=
201401141138 TAF KCLM 141138Z 1412/1512 25006KT P6SM BKN022 FM141700 VRB03KT
                       P6SM SCT025 SCT070 FM150000 00000KT P6SM
                       SKC=
201401140538 TAF KCLM 140538Z 1406/1506 27008KT P6SM SKC FM141000 27008KT P6SM
                       BKN012 FM141700 VRB03KT P6SM FEW020 SCT250=
201401132345 TAF KCLM 132345Z 1400/1424 VRB05KT P6SM VCSH SCT035 OVC070 FM140300
                       25005KT P6SM BKN035 OVC070 FM140900 VRB03KT
                       P6SM OVC022 FM141200 VRB03KT P6SM OVC015
                       FM142000 VRB03KT P6SM FEW070 SCT250=
201401132216 TAF AMD KCLM 132216Z 1322/1418 28008KT P6SM VCSH SCT035 OVC050
                       FM140000 28008KT P6SM OVC028 FM140600 25005KT
                       P6SM OVC020=
201401131738 TAF KCLM 131738Z 1318/1418 27012KT P6SM VCSH SCT035 BKN050 OVC150
                       TEMPO 1318/1320 27012G20KT -SHRA BKN035
                       OVC050 FM132100 28012KT P6SM VCSH BKN035
                       BKN050 FM140000 28008KT P6SM OVC028 FM140600
                       25005KT P6SM OVC020=
201401131127 TAF KCLM 131127Z 1312/1412 26006KT P6SM OVC035 FM132100 26006KT
                       P6SM BKN040 FM140200 26006KT P6SM OVC028=
201401130525 TAF KCLM 130525Z 1306/1406 26010G20KT P6SM OVC050 FM131200 26010KT
                       P6SM OVC025 FM140000 26006KT P6SM BKN040=
201401122320 TAF KCLM 122320Z 1300/1324 27014G24KT P6SM -SHRA SCT015 OVC045
                       TEMPO 1300/1304 5SM -SHRA OVC015 FM130600
                       28012G22KT P6SM -SHRA BKN020 BKN050 FM130900
                       26010KT P6SM OVC015=
201401121720 TAF KCLM 121720Z 1218/1318 VRB03KT P6SM -SHRA SCT015 OVC060
                      TEMPO 1218/1222 BKN015 FM130100 28012G22KT
                       P6SM -SHRA BKN030 BKN050 FM130800 26010KT
                       P6SM BKN050=
201401121127 TAF KCLM 121127Z 1212/1312 27012G22KT P6SM SCT030 BKN050 FM121300
                       26006KT P6SM -RA OVC030 FM130100 28012G22KT
                       P6SM -SHRA BKN030 BKN050 FM130800 26010KT
                       P6SM VCSH BKN050=
201401120520 TAF KCLM 120520Z 1206/1306 28024G32KT P6SM SCT030 BKN045 FM120800
                       27012KT P6SM SCT030 BKN045 FM121300 26006KT
                       P6SM -RA OVC030 FM130000 28012G22KT P6SM
                       -SHRA BKN030 BKN050=
201401112320 TAF KCLM 112320Z 1200/1224 VRB03KT P6SM -SHRA SCT020 OVC040
                      TEMPO 1200/1202 4SM SHRA BKN020 FM120200
                       27015G25KT P6SM -SHRA SCT025 BKN050 FM120400
                       27020G30KT P6SM SCT030 BKN060 FM120900 27012KT
                       P6SM SCT030 BKN060 FM121500 26006KT P6SM
                       -RA BKN020 OVC030=
201401111729 TAF KCLM 111729Z 1118/1218 VRB04KT P6SM -SHRA SCT015 OVC050
                      TEMPO 1118/1122 4SM SHRA OVC015 FM120100
                       27015G25KT P6SM -SHRA BKN025 BKN060 FM120400
                       27020G30KT P6SM SCT030 BKN060 FM120900 27012KT
                       P6SM SCT030 BKN060=
201401111132 TAF KCLM 111132Z 1112/1212 27012KT P6SM -RA OVC012
                      TEMPO 1112/1113 3SM RA BR FM111600 26010KT
                       P6SM -SHRA OVC025 FM120100 27015G25KT P6SM
                       -SHRA OVC025=
201401111109 TAF AMD KCLM 111109Z 1111/1206 29010KT 5SM -RA OVC040
                      TEMPO 1111/1112 2SM -RA BR OVC025 FM111600
                       26006KT P6SM -SHRA OVC025 FM120100 27015G25KT
                       5SM -SHRA OVC015=
201401110545 TAF KCLM 110545Z 1106/1206 12005KT P6SM SCT006 OVC035
                      TEMPO 1107/1111 3SM RA BR OVC006 FM111100
                       29010KT 5SM -RA OVC012 FM111600 26006KT
                       P6SM -SHRA OVC025 FM120100 27015G25KT 5SM
                       -SHRA OVC015=
201401110509 TAF AMD KCLM 110509Z 1105/1124 12006KT 4SM -RA BR SCT006 OVC025
                       TEMPO 1106/1110 3SM RA BR OVC006 FM111000
                       29012KT P6SM -RA OVC018 FM111600 26006KT
                       P6SM -RA OVC025 FM112100 26008KT 5SM -SHRA
                       OVC015=
201401110147 TAF AMD KCLM 110147Z 1102/1124 VRB03KT P6SM -RA SCT005 BKN010 OVC018
                       TEMPO 1102/1104 3SM -RA BR OVC005 FM110400
                       VRB03KT 4SM -RA BR OVC006 FM111200 29012KT
                       P6SM -RA OVC018 FM111600 26006KT P6SM -RA
                       OVC025 FM112100 26008KT 5SM -SHRA OVC015=
201401102327 TAF KCLM 102327Z 1100/1124 VRB03KT P6SM -RA BKN011 OVC018
                      TEMPO 1104/1108 2SM RA OVC008 FM111200 29012KT
                       P6SM -RA OVC018 FM111600 26006KT P6SM -RA
                       OVC025 FM112100 26008KT 5SM -SHRA OVC015=
201401102030 TAF AMD KCLM 102030Z 1021/1118 12005KT P6SM OVC016 FM110000 11005KT
                       4SM RA BR OVC011
                      TEMPO 1104/1108 2SM -RA OVC008 FM111200 29010KT
                       P6SM -RA OVC018=
201401101728 TAF KCLM 101728Z 1018/1118 29005KT P6SM SCT050 BKN120 FM110000
                       11005KT 4SM RA BR OVC011
                      TEMPO 1104/1108 2SM -RA OVC008 FM111200 29010KT
                       P6SM -RA OVC018=
201401101406 TAF AMD KCLM 101406Z 1014/1112 27007KT P6SM VCSH OVC060 FM101800
                       VRB04KT 5SM -RA BR OVC015 FM110000 12006KT
                       4SM RA BR OVC011=
201401101144 TAF KCLM 101144Z 1012/1112 24010G20KT P6SM VCSH SCT035 OVC050 FM101500
                       27011KT P6SM -SHRA OVC025 FM102000 VRB04KT
                       5SM -RA BR OVC015 FM110000 12006KT 4SM RA
                       BR OVC011=
201401100557 TAF KCLM 100557Z 1006/1106 24010G20KT P6SM -SHRA BKN035 OVC050
                       FM101500 27011KT P6SM -SHRA OVC025 FM102100
                       VRB04KT 5SM -RA BR OVC009 FM102300 03006KT
                       3SM RA BR OVC006=
201401100252 TAF AMD KCLM 100252Z 1003/1024 VRB05KT P6SM -RA SCT015 OVC050
                      TEMPO 1003/1006 OVC015 FM100600 28015G25KT
                       P6SM -SHRA OVC015 FM101500 27011KT P6SM
                       -SHRA OVC025 FM102100 23002KT 5SM -RA BR
                       OVC007=
201401092335 TAF KCLM 092335Z 1000/1024 VRB05KT P6SM -RA BKN008 OVC015 FM100600
                       28015G25KT P6SM -SHRA OVC015 FM101500 27011KT
                       P6SM -SHRA OVC025 FM102100 23002KT 5SM -RA
                       BR OVC007=
201401091735 TAF KCLM 091735Z 0918/1018 12006KT P6SM VCSH FEW070 OVC100 FM092000
                       27005KT 6SM -RA BR OVC012 FM100300 28012G22KT
                       P6SM -SHRA BKN022 OVC035=
201401091148 TAF KCLM 091148Z 0912/1012 27015G22KT P6SM VCSH SCT020 BKN045 FM091500
                       26012KT P6SM VCSH BKN025 FM092000 27005KT
                       6SM -RA BR OVC012 FM100300 28012G22KT P6SM
                       -SHRA BKN022 OVC035=
201401090545 TAF KCLM 090545Z 0906/1006 28012KT P6SM VCSH SCT020 BKN045 FM091500
                       26011KT P6SM VCSH BKN025 FM092000 27003KT
                       6SM -RA BR OVC012 FM100300 28012G22KT P6SM
                       -SHRA BKN022 OVC035=
201401090227 TAF AMD KCLM 090227Z 0902/0924 25014KT P6SM -SHRA SCT030 BKN040
                       FM090600 28014KT P6SM -SHRA BKN015 FM091500
                       26011KT P6SM VCSH BKN025 FM092200 27003KT
                       4SM -RA BR OVC003=
201401090050 TAF AMD KCLM 090050Z 0901/0924 25010KT 3SM -RA BR FEW001 OVC040
                       TEMPO 0901/0904 1/2SM RA FG OVC003 FM090600
                       28014KT 4SM -SHRA BR BKN015 FM091500 26011KT
                       P6SM VCSH BKN025 FM092200 27003KT 4SM -RA
                       BR OVC003=
201401082335 TAF KCLM 082335Z 0900/0924 00000KT 1/2SM -RA FG VV002 FM090600
                       28014KT 4SM -SHRA BR BKN015 FM091500 26011KT
                       P6SM VCSH BKN025 FM092200 27003KT 4SM -RA
                       BR OVC003=
201401082105 TAF AMD KCLM 082105Z 0821/0918 VRB04KT 1 1/2SM -RA BR FEW001 BKN040
                       OVC060 FM082300 27007KT 3SM -RA BR BKN004
                       OVC012 FM090300 27012KT 3SM -SHRA OVC004=
201401081800 TAF KCLM 081800Z 0818/0918 21004KT 4SM -RA BR OVC004 FM082000 VRB03KT
                       2SM -RA BR BKN003 OVC020 FM082300 27007KT
                       3SM -RA BR BKN004 OVC012 FM090300 27012KT
                       3SM -SHRA OVC004=
201401081720 TAF KCLM 081720Z 0818/0918 22004KT 0SM FG VV001 FM082000 VRB03KT
                       2SM -RA BR BKN003 OVC020 FM082300 27007KT
                       3SM -RA BR BKN004 OVC012 FM090300 27012KT
                       3SM -SHRA OVC004=
201401081431 TAF AMD KCLM 081431Z 0815/0912 00000KT 2SM BR OVC003
                      TEMPO 0815/0816 1SM -RA BR OVC001 FM081600
                       VRB03KT 2SM -RA BR BKN003 OVC020 FM082300
                       27007KT 3SM -RA BR BKN004 OVC012 FM090300
                       27012KT 3SM -SHRA OVC004=
201401081135 TAF KCLM 081135Z 0812/0912 VRB03KT 2SM BR OVC003
                      TEMPO 0812/0815 1SM -RA BR BKN002 FM081500
                       VRB03KT 4SM -RA BR SCT004 OVC020 FM082300
                       27007KT 3SM -RA BR BKN004 OVC012 FM090300
                       27012KT 3SM -SHRA OVC004=
201401080905 TAF AMD KCLM 080905Z 0809/0906 VRB03KT 2SM BR OVC003
                      TEMPO 0809/0812 1/2SM FG BKN001 FM081500
                       VRB03KT P6SM -RA SCT004 OVC020 FM082000
                       VRB03KT 3SM -RA BR BKN004 OVC012=
201401080521 TAF KCLM 080521Z 0806/0906 VRB03KT 4SM BR OVC003
                      TEMPO 0806/0810 2SM -RA BKN001 FM081500 VRB03KT
                       P6SM -RA SCT004 OVC020 FM082000 VRB03KT
                       3SM -RA BR BKN004 OVC012=
201401080208 TAF AMD KCLM 080208Z 0802/0824 VRB03KT 1SM BR OVC002
                      TEMPO 0802/0806 4SM BR FM080600 00000KT 6SM
                       BR SCT004 OVC040
                      TEMPO 0806/0809 4SM BR BKN004 OVC040 FM080900
                       00000KT P6SM SCT004 OVC028 FM081500 VRB03KT
                       P6SM -RA SCT004 OVC020 FM082000 VRB03KT
                       3SM -RA BR BKN004 OVC012=
201401080049 TAF AMD KCLM 080049Z 0801/0824 VRB03KT 4SM BR BKN022 OVC040
                      TEMPO 0801/0804 1 1/2SM -RA BR FM080400 00000KT
                       6SM BR SCT004 OVC040 FM080900 00000KT P6SM
                       SCT004 OVC028 FM081500 VRB03KT P6SM -RA
                       SCT004 OVC020 FM082000 VRB03KT 3SM -RA BR
                       BKN004 OVC012=
201401072346 TAF KCLM 072346Z 0800/0824 VRB03KT P6SM SCT002 OVC040
                      TEMPO 0800/0804 -RA BKN002 OVC040 FM080400
                       00000KT P6SM SCT004 OVC040 FM080900 00000KT
                       P6SM SCT004 OVC028 FM081500 VRB03KT P6SM
                       -RA SCT004 OVC020 FM082000 VRB03KT 3SM -RA
                       BR BKN004 OVC012=
201401072109 TAF AMD KCLM 072109Z 0721/0818 25005KT P6SM SCT003 SCT030 OVC060
                       TEMPO 0721/0724 5SM -RA BR BKN003 OVC030
                       FM080000 VRB03KT P6SM SCT011 SCT030 OVC060
                       TEMPO 0800/0804 4SM -RA BR BKN011 OVC030
                       FM080400 00000KT P6SM VCFG SCT011 SCT030
                       OVC060
                      PROB30 0808/0812 -RA SCT011 OVC030 FM081200
                       00000KT P6SM SCT015 BKN030 OVC060
                      PROB30 0812/0818 -RA BKN015 OVC030=
201401071835 TAF AMD KCLM 071835Z 0719/0818 VRB03KT P6SM -RA FEW011 SCT030 OVC060
                       TEMPO 0719/0722 2SM -RA BR FEW011 BKN030
                       OVC060 FM080000 VRB03KT P6SM SCT011 SCT030
                       OVC060
                      TEMPO 0800/0804 4SM -RA BR BKN011 OVC030
                       FM080400 00000KT P6SM VCFG SCT011 SCT030
                       OVC060
                      PROB30 0808/0812 -RA SCT011 OVC030 FM081200
                       00000KT P6SM SCT015 BKN030 OVC060
                      PROB30 0812/0818 -RA BKN015 OVC030=
201401071745 TAF KCLM 071745Z 0718/0818 VRB03KT 4SM -RA BR BKN007 OVC015 FM072100
                       VRB04KT P6SM -SHRA OVC020=
201401071512 TAF AMD KCLM 071512Z 0715/0812 25004KT 6SM -RA BR SCT007 OVC050
                       TEMPO 0715/0717 3SM -RA BR BKN007 OVC020
                       FM071700 VRB03KT 4SM -RA BR BKN007 OVC015
                       FM072100 VRB04KT P6SM -SHRA OVC020=
201401071359 TAF AMD KCLM 071359Z 0714/0812 24003KT P6SM SCT008 OVC060
                      TEMPO 0714/0717 5SM -RA BR OVC008 FM071700
                       VRB03KT P6SM -RA BKN015 OVC025 FM072100
                       VRB04KT P6SM -SHRA OVC020=
201401071127 TAF KCLM 071127Z 0712/0812 VRB03KT P6SM -RA BKN030 OVC040 FM071600
                       VRB03KT P6SM -RA BKN015 OVC025 FM072100
                       VRB04KT P6SM -SHRA OVC020=
201401070527 TAF KCLM 070527Z 0706/0806 VRB03KT P6SM BKN100 BKN200 FM070900
                       VRB03KT P6SM SCT040 BKN100 BKN200 FM071300
                       VRB03KT P6SM -RA BKN025 OVC040 FM071800
                       VRB03KT P6SM -RA BKN015 OVC025=
201401062327 TAF KCLM 062327Z 0700/0724 10003KT P6SM OVC200 FM070500 VRB03KT
                       P6SM BKN100 OVC180 FM070900 VRB03KT P6SM
                       SCT040 BKN100 BKN200 FM071300 VRB03KT P6SM
                       -RA BKN025 OVC040 FM071800 VRB03KT P6SM
                       -RA BKN015 OVC025=
201401061735 TAF KCLM 061735Z 0618/0718 00000KT P6SM OVC010
                      TEMPO 0618/0620 SCT010 BKN250 FM062000 VRB04KT
                       P6SM BKN200 FM070200 VRB04KT P6SM BKN100
                       BKN200 FM070900 VRB04KT P6SM SCT040 BKN100
                       BKN200 FM071300 VRB03KT P6SM -RA BKN025
                       OVC040=
201401061122 TAF KCLM 061122Z 0612/0712 13006KT P6SM OVC012 FM062000 VRB04KT
                       P6SM BKN200 FM070200 VRB04KT P6SM BKN100
                       BKN200 FM070900 VRB04KT P6SM SCT040 BKN100
                       BKN200=
201401060710 TAF AMD KCLM 060710Z 0607/0706 13006KT P6SM OVC015 FM062000 VRB04KT
                       P6SM BKN200 FM070200 VRB04KT P6SM BKN100
                       BKN200=
201401060528 TAF KCLM 060528Z 0606/0706 13006KT P6SM SKC
                      TEMPO 0606/0610 BKN020 FM061000 12004KT P6SM
                       BKN020 FM061800 VRB04KT P6SM BKN200 FM070200
                       VRB04KT P6SM BKN100 BKN200=
201401052320 TAF KCLM 052320Z 0600/0624 10006KT P6SM BKN200 FM060400 VRB03KT
                       P6SM SKC FM060600 VRB03KT P6SM BKN015=
201401052114 TAF AMD KCLM 052114Z 0521/0618 08005KT P6SM SCT014 FM060000 09005KT
                       P6SM SKC=
201401051720 TAF KCLM 051720Z 0518/0618 15005KT P6SM SCT015
                      TEMPO 0518/0521 BKN015 FM052200 09005KT P6SM
                       SCT020 FM060000 09005KT P6SM SKC=
201401051522 TAF AMD KCLM 051522Z 0515/0612 10005KT P6SM SCT015
                      TEMPO 0515/0517 BKN015 FM052200 09005KT P6SM
                       SCT020 FM060000 09005KT P6SM SKC=
201401051121 TAF KCLM 051121Z 0512/0612 10005KT P6SM OVC018 FM052200 09005KT
                       P6SM SCT020 FM060000 09005KT P6SM SKC=
201401050913 TAF AMD KCLM 050913Z 0509/0606 10005KT P6SM OVC020 FM052200 09005KT
                       P6SM SCT020=
201401050521 TAF KCLM 050521Z 0506/0606 10005KT P6SM SCT020
                      TEMPO 0506/0510 BKN020 FM051800 09005KT P6SM
                       SKC=
201401050222 TAF AMD KCLM 050222Z 0502/0524 09006KT P6SM BKN020 FM050700 VRB03KT
                       P6SM SKC=
201401042322 TAF KCLM 042322Z 0500/0524 09006KT P6SM BKN020 FM050300 VRB03KT
                       P6SM SCT020 FM050500 21004KT P6SM SKC=
201401042109 TAF AMD KCLM 042109Z 0421/0518 09006KT P6SM BKN022 FM050200 VRB03KT
                       P6SM SCT022 FM050400 VRB03KT P6SM SKC=
201401041743 TAF KCLM 041743Z 0418/0518 10004KT P6SM SCT200 FM050100 VRB03KT
                       P6SM SKC=
201401041128 TAF KCLM 041128Z 0412/0512 VRB04KT P6SM SKC
                      TEMPO 0412/0416 2SM BR BKN001 FM041800 10005KT
                       P6SM SKC=
201401040520 TAF KCLM 040520Z 0406/0506 VRB04KT P6SM SKC
                      TEMPO 0412/0416 2SM BR BKN001 FM041800 12005KT
                       P6SM SKC=
201401040003 TAF KCLM 040003Z 0400/0424 34007KT P6SM SKC FM040300 VRB04KT P6SM
                       SKC FM041800 12005KT P6SM SKC=
201401031742 TAF KCLM 031742Z 0318/0418 27009KT P6SM SKC FM040300 04004KT P6SM
                       SKC=
201401031122 TAF KCLM 031122Z 0312/0412 26008KT P6SM SCT050 FM031800 30006KT
                       P6SM SCT050 FM040300 04004KT P6SM SKC=
201401030856 TAF AMD KCLM 030856Z 0309/0406 31009KT P6SM SCT050 FM031800 30006KT
                       P6SM SCT050 FM040300 04004KT P6SM SCT020
                       SCT050=
201401030532 TAF KCLM 030532Z 0306/0406 29013KT P6SM -SHRA OVC045 FM030700 28008KT
                       P6SM BKN050 FM031800 30006KT P6SM SCT050
                       FM040300 04004KT P6SM SCT020 SCT050=
201401030440 TAF AMD KCLM 030440Z 0305/0324 29012G19KT P6SM -SHRA SCT007 SCT014
                       OVC040
                      TEMPO 0305/0307 BKN007 BKN014 OVC040 FM030700
                       28008KT P6SM BKN050 FM032000 30006KT P6SM
                       SCT050=
201401030244 TAF AMD KCLM 030244Z 0303/0324 29015G21KT P6SM -SHRA FEW005 SCT010
                       OVC040 FM030500 27012G22KT P6SM SCT035 BKN050
                       FM031100 28008KT P6SM BKN050 FM032000 30006KT
                       P6SM SCT050=
201401022329 TAF KCLM 022329Z 0300/0324 13005KT P6SM -RA SCT008 SCT025 OVC070
                       TEMPO 0300/0303 5SM -RA BR BKN008 BKN025
                       FM030300 24005KT P6SM -SHRA BKN020 BKN035
                       BKN050 FM030500 27012G22KT P6SM SCT035 BKN050
                       FM031100 28008KT P6SM BKN050 FM032000 30006KT
                       P6SM SCT050=
201401021724 TAF KCLM 021724Z 0218/0318 VRB03KT P6SM SCT006 OVC060
                      TEMPO 0218/0221 BKN006 FM022100 VRB03KT P6SM
                       -RA BKN010 OVC050 FM030200 24005KT P6SM
                       -SHRA BKN020 BKN035 BKN050 FM030400 27012G22KT
                       P6SM VCSH SCT035 BKN050 FM031100 28008KT
                       P6SM VCSH BKN050=
201401021124 TAF KCLM 021124Z 0212/0312 13006KT P6SM SCT008 OVC080
                      TEMPO 0212/0215 6SM -RA BR BKN008 OVC050
                       FM021500 VRB04KT 6SM -RA BR BKN020 OVC035
                       FM030100 24005KT P6SM -SHRA SCT020 BKN035
                       BKN050 FM030400 27012G22KT P6SM VCSH SCT035
                       BKN050 FM031100 28008KT P6SM VCSH BKN050=
201401020635 TAF AMD KCLM 020635Z 0207/0306 17003KT P6SM SCT007 OVC070
                      TEMPO 0207/0211 BKN007 OVC070 FM021100 15003KT
                       6SM BR SCT006 BKN035 OVC050
                      TEMPO 0211/0215 BKN006 OVC035 FM021800 VRB04KT
                       6SM -RA BR BKN020 OVC035 FM030100 24005KT
                       P6SM -SHRA SCT020 BKN035 BKN050 FM030400
                       27012G22KT P6SM VCSH SCT035 BKN050=
201401020531 TAF KCLM 020531Z 0206/0306 09003KT P6SM OVC080 FM021100 15003KT
                       6SM BR SCT006 BKN035 OVC050 FM021800 VRB04KT
                       6SM -RA BR BKN020 OVC035 FM030100 24005KT
                       P6SM -SHRA SCT020 BKN035 BKN050 FM030400
                       27012G22KT P6SM VCSH SCT035 BKN050=
201401020322 TAF AMD KCLM 020322Z 0203/0224 11005KT P6SM OVC060 FM021100 15003KT
                       6SM BR SCT006 BKN035 OVC050 FM021800 VRB04KT
                       6SM -RA BR OVC012=
201401012349 TAF KCLM 012349Z 0200/0224 VRB03KT P6SM -RA BKN006 OVC050 FM020900
                       15003KT 5SM BR OVC006 FM021800 VRB04KT 6SM
                       -RA BR OVC012=
201401012314 TAF AMD KCLM 012314Z 0123/0218 VRB03KT P6SM -RA BKN006 OVC050 FM020900
                       15003KT P6SM OVC060=
201401012114 TAF AMD KCLM 012114Z 0121/0218 VRB03KT P6SM OVC006 FM012300 VRB03KT
                       P6SM BKN011 BKN050 FM020200 15003KT P6SM
                       -RA SCT025 OVC050 FM020900 15003KT P6SM
                       OVC060=
201401011823 TAF AMD KCLM 011823Z 0118/0218 VRB03KT P6SM SCT025 BKN060
                      TEMPO 0118/0120 OVC002 FM020200 15003KT P6SM
                       -RA SCT025 OVC050 FM020900 15003KT P6SM
                       OVC060=
201401011740 TAF KCLM 011740Z 0118/0218 VRB03KT P6SM SCT025 BKN060 FM020200
                       15003KT P6SM OVC050 FM020900 15003KT P6SM
                       -RA SCT025 OVC050=
201401011338 TAF AMD KCLM 011338Z 0114/0212 00000KT P6SM VCFG OVC008 FM011800
                       VRB03KT P6SM SCT025 BKN060 FM020200 15003KT
                       P6SM OVC050 FM020900 15003KT P6SM SCT025
                       OVC050
                      TEMPO 0209/0212 5SM -RA BR OVC025=
201401011222 TAF AMD KCLM 011222Z 0112/0212 00000KT P6SM SCT007 OVC020
                      TEMPO 0112/0116 BKN007 OVC020 FM011800 VRB03KT
                       P6SM SCT025 BKN060 FM020200 15003KT P6SM
                       OVC050 FM020900 15003KT P6SM SCT025 OVC050
                       TEMPO 0209/0212 5SM -RA BR OVC025=
201401011120 TAF KCLM 011120Z 0112/0212 24003KT P6SM OVC020 FM011800 VRB03KT
                       P6SM SCT025 BKN060 FM020200 15003KT P6SM
                       OVC050 FM020900 15003KT P6SM SCT025 OVC050
                       TEMPO 0209/0212 5SM -RA BR OVC025=
201401010858 TAF AMD KCLM 010858Z 0109/0206 22004KT P6SM OVC011 FM011800 VRB03KT
                       P6SM SCT010 BKN060=
201401010530 TAF KCLM 010530Z 0106/0206 00000KT P6SM VCFG SCT002 FM011000 00000KT
                       2SM BR BKN002
                      TEMPO 0111/0114 1/2SM FG VV001 FM011800 VRB03KT
                       P6SM SCT010 BKN060=
201401010344 TAF AMD KCLM 010344Z 0104/0124 00000KT 2SM BR SCT035 BKN200
                      TEMPO 0104/0106 1/2SM FG SCT001 SCT035 FM010600
                       00000KT 1/2SM FG VV001 FM011300 VRB03KT
                       P6SM SCT030 BKN200
                      TEMPO 0113/0117 4SM BR=