##########################################################
# Query made at 02/16/2025 02:44:02 UTC
# Time interval: from 07/01/2014 00:00  to 07/31/2014 23:59  UTC
##########################################################

##########################################################
# KCLM, Port Angeles, William R. Fairchild International Airport (United States)
# WMO index: -----. WIGOS ID: Unknown
# Latitude 48-07-20N. Longitude 123-30-19W. Altitude 87 m.
##########################################################

###################################
#  METAR/SPECI from KCLM
###################################
201407312353 METAR KCLM 312353Z AUTO 32010KT 10SM CLR 24/10 A3008 RMK AO2 SLP185 T02390100 10244 20183 58013=
201407312253 METAR KCLM 312253Z AUTO 30009KT 10SM CLR 22/11 A3009 RMK AO2 SLP191 T02220106=
201407312153 METAR KCLM 312153Z AUTO 33009KT 10SM CLR 22/11 A3011 RMK AO2 SLP195 T02170106=
201407312053 METAR KCLM 312053Z AUTO 32006KT 10SM CLR 23/11 A3012 RMK AO2 SLP198 T02330106 58003=
201407311953 METAR KCLM 311953Z AUTO 35005KT 10SM CLR 22/11 A3012 RMK AO2 SLP199 T02170106=
201407311853 METAR KCLM 311853Z AUTO VRB04KT 10SM CLR 19/11 A3013 RMK AO2 SLP202 T01940111=
201407311753 METAR KCLM 311753Z AUTO 36004KT 10SM CLR 20/12 A3013 RMK AO2 SLP200 T02000117 10206 20100 57006=
201407311653 METAR KCLM 311653Z AUTO 36003KT 10SM CLR 21/11 A3013 RMK AO2 SLP202 T02060111=
201407311553 METAR KCLM 311553Z AUTO 34004KT 10SM CLR 19/11 A3014 RMK AO2 SLP205 T01890106=
201407311453 METAR KCLM 311453Z AUTO 31003KT 10SM CLR 16/11 A3014 RMK AO2 SLP208 T01560111 53005=
201407311353 METAR KCLM 311353Z AUTO 00000KT 10SM CLR 13/10 A3014 RMK AO2 SLP205 T01280100=
201407311253 METAR KCLM 311253Z AUTO 00000KT 10SM CLR 10/08 A3014 RMK AO2 SLP205 T01000078=
201407311153 METAR KCLM 311153Z AUTO 25003KT 10SM CLR 11/08 A3013 RMK AO2 SLP203 T01110083 10183 20094 50005=
201407311053 METAR KCLM 311053Z AUTO 00000KT 10SM CLR 12/09 A3014 RMK AO2 SLP205 T01170089=
201407310953 METAR KCLM 310953Z AUTO 28004KT 10SM CLR 13/09 A3012 RMK AO2 SLP199 T01280094=
201407310853 METAR KCLM 310853Z AUTO 31008KT 10SM CLR 13/09 A3012 RMK AO2 SLP198 T01330089 58003=
201407310753 METAR KCLM 310753Z AUTO 30009KT 10SM CLR 13/08 A3012 RMK AO2 SLP199 T01280083 402220122=
201407310653 METAR KCLM 310653Z AUTO 31006KT 10SM CLR 14/08 A3012 RMK AO2 SLP200 T01390083=
201407310553 METAR KCLM 310553Z AUTO 28010KT 10SM CLR 18/07 A3012 RMK AO2 SLP200 T01830072 10217 20172 55000=
201407310453 METAR KCLM 310453Z AUTO 27012KT 10SM CLR 18/07 A3013 RMK AO2 SLP202 T01780072=
201407310353 METAR KCLM 310353Z AUTO 27011KT 10SM CLR 17/07 A3012 RMK AO2 SLP199 T01720067=
201407310253 METAR KCLM 310253Z AUTO 28013KT 10SM CLR 19/06 A3012 RMK AO2 SLP201 T01890061 57003=
201407310153 METAR KCLM 310153Z AUTO 29015G22KT 10SM CLR 20/07 A3013 RMK AO2 SLP202 T02000072=
201407310053 METAR KCLM 310053Z AUTO 30007KT 10SM CLR 22/11 A3013 RMK AO2 SLP202 T02170106=
201407302353 METAR KCLM 302353Z AUTO 31010KT 10SM CLR 21/11 A3013 RMK AO2 SLP203 T02110111 10222 20167 58012=
201407302253 METAR KCLM 302253Z AUTO 31011KT 10SM CLR 22/12 A3015 RMK AO2 SLP207 T02220117=
201407302153 METAR KCLM 302153Z AUTO 32008KT 290V350 10SM CLR 22/12 A3016 RMK AO2 SLP212 T02220122=
201407302053 METAR KCLM 302053Z AUTO 30009KT 10SM CLR 21/12 A3017 RMK AO2 SLP215 T02060122 53001=
201407301953 METAR KCLM 301953Z AUTO 31008KT 10SM CLR 19/12 A3017 RMK AO2 SLP216 T01940122=
201407301853 METAR KCLM 301853Z AUTO 32006KT 10SM CLR 17/12 A3016 RMK AO2 SLP214 T01720117=
201407301753 METAR KCLM 301753Z AUTO 33006KT 10SM CLR 17/12 A3017 RMK AO2 SLP215 T01720117 10172 20122 50002=
201407301653 METAR KCLM 301653Z AUTO VRB05KT 10SM CLR 15/12 A3017 RMK AO2 SLP216 T01500117=
201407301603 SPECI KCLM 301603Z AUTO 32007KT 10SM SCT004 14/12 A3017 RMK AO2 T01440117=
201407301553 METAR KCLM 301553Z AUTO 31006KT 10SM BKN004 14/12 A3017 RMK AO2 SLP217 T01440117=
201407301539 SPECI KCLM 301539Z AUTO 29006KT 10SM BKN004 14/12 A3017 RMK AO2 T01390117=
201407301527 SPECI KCLM 301527Z AUTO 32005KT 10SM SCT004 14/12 A3017 RMK AO2 T01390117=
201407301453 METAR KCLM 301453Z AUTO 33006KT 10SM CLR 14/12 A3016 RMK AO2 SLP213 T01390117 52009=
201407301353 METAR KCLM 301353Z AUTO 31007KT 10SM CLR 13/11 A3015 RMK AO2 SLP210 T01330111=
201407301253 METAR KCLM 301253Z AUTO 30007KT 10SM CLR 12/11 A3014 RMK AO2 SLP208 T01220106=
201407301153 METAR KCLM 301153Z AUTO 32006KT 10SM CLR 14/11 A3013 RMK AO2 SLP203 T01390111 10172 20139 51008=
201407301053 METAR KCLM 301053Z AUTO 31008KT 10SM CLR 14/12 A3012 RMK AO2 SLP200 T01440117=
201407300953 METAR KCLM 300953Z AUTO 31006KT 10SM CLR 14/12 A3012 RMK AO2 SLP198 T01440117=
201407300853 METAR KCLM 300853Z AUTO 31011KT 10SM CLR 16/12 A3011 RMK AO2 SLP195 T01560122 53003=
201407300753 METAR KCLM 300753Z AUTO 32005KT 10SM CLR 15/13 A3010 RMK AO2 SLP193 T01500128 402280106=
201407300653 METAR KCLM 300653Z AUTO 29012KT 10SM CLR 17/13 A3010 RMK AO2 SLP191 T01720133=
201407300553 METAR KCLM 300553Z AUTO 29013KT 10SM CLR 17/13 A3010 RMK AO2 SLP192 T01670133 10217 20161 50000=
201407300453 METAR KCLM 300453Z AUTO 30012KT 10SM CLR 17/14 A3010 RMK AO2 SLP194 T01670139=
201407300353 METAR KCLM 300353Z AUTO 29012KT 10SM CLR 17/14 A3010 RMK AO2 SLP193 T01670139=
201407300253 METAR KCLM 300253Z AUTO 29013KT 10SM CLR 18/14 A3010 RMK AO2 SLP192 T01830139 55007=
201407300153 METAR KCLM 300153Z AUTO 30011KT 10SM CLR 20/14 A3010 RMK AO2 SLP192 T02000139=
201407300053 METAR KCLM 300053Z AUTO 30010G16KT 10SM CLR 21/14 A3011 RMK AO2 SLP195 T02110139=
201407292353 METAR KCLM 292353Z AUTO 31012G17KT 10SM CLR 21/13 A3012 RMK AO2 SLP199 T02110133 10228 20178 58011=
201407292253 METAR KCLM 292253Z AUTO 31010KT 10SM CLR 22/13 A3013 RMK AO2 SLP204 T02170133=
201407292153 METAR KCLM 292153Z AUTO 31010KT 10SM CLR 22/13 A3014 RMK AO2 SLP207 T02220128=
201407292053 METAR KCLM 292053Z AUTO 32007KT 10SM CLR 21/13 A3015 RMK AO2 SLP210 T02110128 58002=
201407291953 METAR KCLM 291953Z AUTO 28007KT 10SM CLR 21/13 A3016 RMK AO2 SLP211 T02060128=
201407291853 METAR KCLM 291853Z AUTO 27009KT 10SM CLR 19/13 A3017 RMK AO2 SLP215 T01890128=
201407291753 METAR KCLM 291753Z AUTO 34006KT 10SM CLR 18/12 A3016 RMK AO2 SLP213 T01780117 10178 20106 51006=
201407291653 METAR KCLM 291653Z AUTO 33006KT 10SM CLR 15/11 A3016 RMK AO2 SLP212 T01500111=
201407291553 METAR KCLM 291553Z AUTO 30006KT 10SM CLR 15/11 A3015 RMK AO2 SLP211 T01500111=
201407291453 METAR KCLM 291453Z AUTO 32004KT 10SM CLR 14/12 A3014 RMK AO2 SLP207 T01390117 51008=
201407291400 SPECI KCLM 291400Z AUTO 30004KT 10SM SCT001 12/11 A3014 RMK AO2 T01170111=
201407291353 METAR KCLM 291353Z AUTO 31004KT 2SM BR BKN001 12/11 A3014 RMK AO2 SLP207 T01170111=
201407291339 SPECI KCLM 291339Z AUTO 29005KT 1 1/2SM BR OVC001 11/10 A3014 RMK AO2 T01110100=
201407291334 SPECI KCLM 291334Z AUTO 28005KT 5SM BR OVC001 11/10 A3013 RMK AO2 T01110100=
201407291331 SPECI KCLM 291331Z AUTO 28005KT 1 1/4SM BR BKN001 11/10 A3013 RMK AO2 T01110100=
201407291322 SPECI KCLM 291322Z AUTO 27006KT 1/4SM FG VV001 11/10 A3013 RMK AO2 T01110100=
201407291317 SPECI KCLM 291317Z AUTO 27005KT 1 1/4SM BR BKN001 11/10 A3013 RMK AO2 T01060100=
201407291315 SPECI KCLM 291315Z AUTO 28005KT 4SM BR SCT001 11/10 A3013 RMK AO2 T01060100=
201407291253 METAR KCLM 291253Z AUTO 26003KT 10SM CLR 11/10 A3013 RMK AO2 SLP202 T01060100=
201407291240 SPECI KCLM 291240Z AUTO 29005KT 10SM SCT002 11/10 A3012 RMK AO2 T01110100=
201407291227 SPECI KCLM 291227Z AUTO 27005KT 10SM BKN002 11/10 A3012 RMK AO2 T01110100=
201407291219 SPECI KCLM 291219Z AUTO 29004KT 2SM BR OVC002 11/11 A3012 RMK AO2 T01110106=
201407291210 SPECI KCLM 291210Z AUTO 29006KT 3/4SM BR VV002 11/11 A3012 RMK AO2 T01110106=
201407291204 SPECI KCLM 291204Z AUTO 30006KT 2 1/2SM BR BKN002 12/11 A3012 RMK AO2 T01170106=
201407291153 METAR KCLM 291153Z AUTO 30007KT 9SM FEW002 12/11 A3012 RMK AO2 SLP198 T01170106 10139 20111 53006=
201407291053 METAR KCLM 291053Z AUTO 30007KT 10SM CLR 12/11 A3010 RMK AO2 SLP194 T01170106=
201407290953 METAR KCLM 290953Z AUTO 29007KT 10SM CLR 12/11 A3010 RMK AO2 SLP192 T01220106=
201407290853 METAR KCLM 290853Z AUTO 30005KT 10SM CLR 13/11 A3010 RMK AO2 SLP192 T01280106 58004=
201407290753 METAR KCLM 290753Z AUTO 30007KT 10SM CLR 13/11 A3010 RMK AO2 SLP194 T01280106 402330106=
201407290653 METAR KCLM 290653Z AUTO 30008KT 10SM CLR 13/11 A3011 RMK AO2 SLP195 T01330111=
201407290553 METAR KCLM 290553Z AUTO 30005KT 10SM CLR 14/11 A3011 RMK AO2 SLP196 T01390106 10228 20139 53005=
201407290453 METAR KCLM 290453Z AUTO 30004KT 10SM CLR 15/11 A3011 RMK AO2 SLP194 T01500106=
201407290353 METAR KCLM 290353Z AUTO 30004KT 10SM CLR 16/11 A3010 RMK AO2 SLP192 T01560106=
201407290253 METAR KCLM 290253Z AUTO 29009KT 10SM CLR 19/11 A3010 RMK AO2 SLP190 T01940111 56006=
201407290153 METAR KCLM 290153Z AUTO 30006KT 10SM CLR 21/12 A3010 RMK AO2 SLP193 T02110117=
201407290053 METAR KCLM 290053Z AUTO 31007KT 10SM CLR 22/12 A3011 RMK AO2 SLP195 T02170117=
201407282353 METAR KCLM 282353Z AUTO 31006KT 10SM CLR 23/12 A3011 RMK AO2 SLP196 T02280122 10233 20189 58007=
201407282253 METAR KCLM 282253Z AUTO 33008KT 10SM CLR 22/13 A3013 RMK AO2 SLP201 T02220128=
201407282153 METAR KCLM 282153Z AUTO 30008KT 10SM CLR 22/12 A3014 RMK AO2 SLP204 T02170122=
201407282053 METAR KCLM 282053Z AUTO 31006KT 10SM CLR 22/12 A3013 RMK AO2 SLP203 T02170122 58002=
201407281953 METAR KCLM 281953Z AUTO 35004KT 10SM CLR 22/12 A3014 RMK AO2 SLP203 T02170122=
201407281853 METAR KCLM 281853Z AUTO 36005KT 10SM CLR 21/12 A3014 RMK AO2 SLP205 T02110122=
201407281753 METAR KCLM 281753Z AUTO 34004KT 10SM CLR 19/12 A3014 RMK AO2 SLP206 T01890117 10228 20106 58000=
201407281653 METAR KCLM 281653Z AUTO 00000KT 10SM CLR 23/11 A3013 RMK AO2 SLP203 T02280111=
201407281553 METAR KCLM 281553Z AUTO 35003KT 10SM CLR 18/12 A3015 RMK AO2 SLP207 T01830122=
201407281453 METAR KCLM 281453Z AUTO 28004KT 10SM CLR 18/12 A3014 RMK AO2 SLP205 T01830117 50006=
201407281353 METAR KCLM 281353Z AUTO 29003KT 10SM CLR 13/12 A3014 RMK AO2 SLP207 T01330117=
201407281253 METAR KCLM 281253Z AUTO 23004KT 10SM CLR 12/09 A3012 RMK AO2 SLP201 T01170094=
201407281153 METAR KCLM 281153Z AUTO 00000KT 10SM CLR 12/11 A3012 RMK AO2 SLP199 T01220106 10194 20122 53004=
201407281053 METAR KCLM 281053Z AUTO 29004KT 10SM CLR 13/11 A3012 RMK AO2 SLP197 T01330111=
201407280953 METAR KCLM 280953Z AUTO 32006KT 10SM CLR 14/11 A3011 RMK AO2 SLP195 T01390106=
201407280853 METAR KCLM 280853Z AUTO 29010KT 10SM CLR 17/10 A3011 RMK AO2 SLP195 T01670100 56006=
201407280753 METAR KCLM 280753Z AUTO 28013KT 10SM CLR 18/10 A3012 RMK AO2 SLP197 T01830100 402390111=
201407280653 METAR KCLM 280653Z AUTO 29008KT 10SM CLR 16/11 A3012 RMK AO2 SLP198 T01560106=
201407280553 METAR KCLM 280553Z AUTO 30006KT 10SM CLR 14/10 A3013 RMK AO2 SLP201 T01440100 10211 20144 50001=
201407280453 METAR KCLM 280453Z AUTO 28004KT 10SM CLR 17/10 A3013 RMK AO2 SLP201 T01670100=
201407280353 METAR KCLM 280353Z AUTO 28006KT 10SM CLR 18/09 A3013 RMK AO2 SLP200 T01830094=
201407280253 METAR KCLM 280253Z AUTO 28011KT 10SM CLR 20/10 A3012 RMK AO2 SLP200 T02000100 56008=
201407280153 METAR KCLM 280153Z AUTO 32006KT 10SM CLR 21/12 A3013 RMK AO2 SLP202 T02060117=
201407280053 METAR KCLM 280053Z AUTO 31009KT 10SM CLR 20/12 A3014 RMK AO2 SLP205 T02000117=
201407272353 METAR KCLM 272353Z AUTO 32008KT 10SM CLR 20/11 A3015 RMK AO2 SLP209 T02000111 10239 20200 56008=
201407272253 METAR KCLM 272253Z AUTO 30007KT 10SM CLR 22/11 A3015 RMK AO2 SLP210 T02170111=
201407272153 METAR KCLM 272153Z AUTO VRB04KT 10SM CLR 22/12 A3016 RMK AO2 SLP212 T02170117=
201407272053 METAR KCLM 272053Z AUTO 08004KT 10SM CLR 23/11 A3017 RMK AO2 SLP216 T02330111 58010=
201407271953 METAR KCLM 271953Z AUTO VRB05KT 10SM CLR 23/11 A3019 RMK AO2 SLP221 T02330111=
201407271853 METAR KCLM 271853Z AUTO 06006KT 10SM CLR 22/11 A3020 RMK AO2 SLP224 T02220111=
201407271753 METAR KCLM 271753Z AUTO 04004KT 10SM CLR 21/11 A3020 RMK AO2 SLP226 T02060111 10217 20111 58002=
201407271653 METAR KCLM 271653Z AUTO 36005KT 10SM CLR 19/11 A3021 RMK AO2 SLP230 T01890111=
201407271553 METAR KCLM 271553Z AUTO 34003KT 10SM CLR 18/11 A3021 RMK AO2 SLP230 T01780111=
201407271453 METAR KCLM 271453Z AUTO 30003KT 10SM CLR 16/11 A3021 RMK AO2 SLP230 T01560111 53007=
201407271353 METAR KCLM 271353Z AUTO 34003KT 10SM CLR 12/10 A3020 RMK AO2 SLP228 T01220100=
201407271253 METAR KCLM 271253Z AUTO 30003KT 10SM CLR 12/10 A3019 RMK AO2 SLP223 T01170100=
201407271153 METAR KCLM 271153Z AUTO 31004KT 10SM CLR 12/10 A3019 RMK AO2 SLP222 T01170100 10150 20117 53001=
201407271053 METAR KCLM 271053Z AUTO 29006KT 10SM CLR 13/11 A3018 RMK AO2 SLP220 T01330106=
201407270953 METAR KCLM 270953Z AUTO 28011KT 10SM CLR 14/11 A3018 RMK AO2 SLP220 T01440106=
201407270853 METAR KCLM 270853Z AUTO 27007KT 10SM CLR 14/11 A3018 RMK AO2 SLP221 T01390106 55000=
201407270753 METAR KCLM 270753Z AUTO 27006KT 10SM CLR 14/11 A3018 RMK AO2 SLP220 T01440106 402060111=
201407270653 METAR KCLM 270653Z AUTO 27008KT 10SM CLR 14/11 A3018 RMK AO2 SLP219 T01440106=
201407270553 METAR KCLM 270553Z AUTO 28008KT 10SM CLR 14/11 A3018 RMK AO2 SLP221 T01440106 10194 20144 50004=
201407270453 METAR KCLM 270453Z AUTO 29009KT 10SM CLR 14/11 A3019 RMK AO2 SLP222 T01440106=
201407270353 METAR KCLM 270353Z AUTO 28009KT 10SM CLR 16/11 A3018 RMK AO2 SLP218 T01560106=
201407270253 METAR KCLM 270253Z AUTO 30007KT 10SM CLR 17/11 A3017 RMK AO2 SLP216 T01720111 58002=
201407270153 METAR KCLM 270153Z AUTO 31008KT 10SM CLR 18/11 A3017 RMK AO2 SLP217 T01830106=
201407270053 METAR KCLM 270053Z AUTO 31008KT 10SM CLR 19/11 A3018 RMK AO2 SLP218 T01890106=
201407262353 METAR KCLM 262353Z AUTO 32009KT 10SM CLR 19/11 A3018 RMK AO2 SLP219 T01940106 10206 20172 56006=
201407262253 METAR KCLM 262253Z AUTO 32010KT 10SM CLR 19/11 A3018 RMK AO2 SLP220 T01940106=
201407262153 METAR KCLM 262153Z AUTO 33010KT 10SM CLR 20/11 A3019 RMK AO2 SLP223 T02000111=
201407262053 METAR KCLM 262053Z AUTO 31012KT 10SM CLR 20/12 A3019 RMK AO2 SLP225 T02000117 55000=
201407261953 METAR KCLM 261953Z AUTO 31009KT 10SM CLR 19/12 A3019 RMK AO2 SLP224 T01940117=
201407261853 METAR KCLM 261853Z AUTO 30008KT 10SM CLR 19/12 A3019 RMK AO2 SLP225 T01890117=
201407261753 METAR KCLM 261753Z AUTO 32006KT 10SM CLR 18/12 A3020 RMK AO2 SLP225 T01780117 10178 20117 53010=
201407261653 METAR KCLM 261653Z AUTO VRB04KT 10SM CLR 16/11 A3018 RMK AO2 SLP220 T01610111=
201407261553 METAR KCLM 261553Z AUTO VRB03KT 10SM CLR 17/11 A3017 RMK AO2 SLP217 T01670111=
201407261453 METAR KCLM 261453Z AUTO 27006KT 10SM CLR 16/11 A3016 RMK AO2 SLP214 T01560106 51009=
201407261353 METAR KCLM 261353Z AUTO 26006KT 10SM CLR 14/10 A3015 RMK AO2 SLP211 T01390100=
201407261253 METAR KCLM 261253Z AUTO 26006KT 10SM CLR 12/09 A3015 RMK AO2 SLP208 T01170094=
201407261153 METAR KCLM 261153Z AUTO 24006KT 10SM CLR 13/10 A3014 RMK AO2 SLP205 T01280100 10144 20111 53002=
201407261053 METAR KCLM 261053Z AUTO 24006KT 10SM CLR 12/09 A3013 RMK AO2 SLP203 T01220094=
201407260953 METAR KCLM 260953Z AUTO 24004KT 10SM CLR 11/09 A3013 RMK AO2 SLP203 T01110094=
201407260853 METAR KCLM 260853Z AUTO 25005KT 10SM CLR 13/10 A3013 RMK AO2 SLP202 T01330100 53001=
201407260753 METAR KCLM 260753Z AUTO 26007KT 10SM CLR 14/10 A3013 RMK AO2 SLP202 T01390100 402000106=
201407260653 METAR KCLM 260653Z AUTO 25006KT 10SM CLR 13/10 A3012 RMK AO2 SLP201 T01330100=
201407260553 METAR KCLM 260553Z AUTO 26007KT 10SM CLR 14/09 A3013 RMK AO2 SLP202 T01440089 10189 20144 51005=
201407260453 METAR KCLM 260453Z AUTO 28008KT 10SM CLR 14/09 A3012 RMK AO2 SLP201 T01440094=
201407260353 METAR KCLM 260353Z AUTO 28007KT 10SM CLR 16/10 A3012 RMK AO2 SLP198 T01560100=
201407260253 METAR KCLM 260253Z AUTO 30005KT 10SM CLR 17/11 A3011 RMK AO2 SLP197 T01670106 56010=
201407260153 METAR KCLM 260153Z AUTO 31009G15KT 10SM CLR 18/11 A3012 RMK AO2 SLP200 T01780106=
201407260053 METAR KCLM 260053Z AUTO 33006KT 10SM CLR 19/11 A3013 RMK AO2 SLP204 T01890111=
201407252353 METAR KCLM 252353Z AUTO 32011KT 10SM CLR 19/11 A3014 RMK AO2 SLP208 T01890111 10200 20156 56005=
201407252253 METAR KCLM 252253Z AUTO 32009KT 10SM CLR 20/11 A3015 RMK AO2 SLP209 T02000111=
201407252153 METAR KCLM 252153Z AUTO 32009KT 10SM FEW037 19/11 A3015 RMK AO2 SLP211 T01940111=
201407252053 METAR KCLM 252053Z AUTO 01005KT 10SM OVC036 18/11 A3016 RMK AO2 SLP213 T01830111 58001=
201407251953 METAR KCLM 251953Z AUTO 02005KT 10SM OVC039 18/11 A3016 RMK AO2 SLP214 T01780111=
201407251853 METAR KCLM 251853Z AUTO 01003KT 10SM OVC036 17/11 A3017 RMK AO2 SLP215 T01670111=
201407251753 METAR KCLM 251753Z AUTO 36005KT 10SM BKN038 16/11 A3017 RMK AO2 SLP215 T01610111 10172 20106 53001=
201407251653 METAR KCLM 251653Z AUTO 34005KT 10SM CLR 16/11 A3016 RMK AO2 SLP214 T01610111=
201407251553 METAR KCLM 251553Z AUTO 36005KT 10SM CLR 16/11 A3016 RMK AO2 SLP214 T01560111=
201407251453 METAR KCLM 251453Z AUTO 12003KT 10SM CLR 16/11 A3016 RMK AO2 SLP213 T01560106 56004=
201407251353 METAR KCLM 251353Z AUTO 00000KT 10SM FEW044 SCT120 13/11 A3016 RMK AO2 SLP213 T01280106=
201407251253 METAR KCLM 251253Z AUTO 00000KT 10SM OVC046 11/09 A3017 RMK AO2 SLP215 T01060089=
201407251153 METAR KCLM 251153Z AUTO 00000KT 10SM BKN047 OVC120 12/09 A3017 RMK AO2 SLP218 70002 T01170094 10139 20111 58006=
201407251053 METAR KCLM 251053Z AUTO 25003KT 10SM OVC044 13/11 A3018 RMK AO2 SLP220 T01330106=
201407250953 METAR KCLM 250953Z AUTO 00000KT 10SM OVC050 13/10 A3019 RMK AO2 SLP222 T01280100=
201407250853 METAR KCLM 250853Z AUTO 28005KT 10SM OVC050 13/10 A3019 RMK AO2 SLP224 T01280100 58005=
201407250753 METAR KCLM 250753Z AUTO 28007KT 10SM BKN050 13/11 A3020 RMK AO2 SLP227 T01330106 401940117=
201407250653 METAR KCLM 250653Z AUTO 27004KT 10SM OVC048 13/11 A3020 RMK AO2 SLP228 T01330106=
201407250553 METAR KCLM 250553Z AUTO 27003KT 10SM OVC049 14/11 A3021 RMK AO2 SLP230 T01390106 10172 20133 50001=
201407250503 SPECI KCLM 250503Z AUTO 26004KT 10SM SCT016 OVC048 14/11 A3021 RMK AO2 T01390106=
201407250453 METAR KCLM 250453Z AUTO VRB03KT 10SM BKN018 OVC050 14/11 A3022 RMK AO2 SLP232 T01440106=
201407250353 METAR KCLM 250353Z AUTO 30007KT 10SM FEW050 BKN110 14/10 A3021 RMK AO2 SLP228 T01390100=
201407250253 METAR KCLM 250253Z AUTO 31005KT 10SM FEW055 BKN110 15/10 A3020 RMK AO2 SLP225 T01500100 58002=
201407250153 METAR KCLM 250153Z AUTO 29005KT 10SM FEW060 15/11 A3020 RMK AO2 SLP227 T01500106=
201407250053 METAR KCLM 250053Z AUTO 31010G18KT 10SM CLR 16/10 A3021 RMK AO2 SLP228 T01560100=
201407242353 METAR KCLM 242353Z AUTO 31011G22KT 10SM CLR 17/10 A3020 RMK AO2 SLP228 T01720100 10194 20161 50008=
201407242253 METAR KCLM 242253Z AUTO 29014G22KT 270V340 10SM CLR 18/11 A3021 RMK AO2 PK WND 29027/2224 SLP230 T01780106=
201407242153 METAR KCLM 242153Z AUTO 33013G20KT 10SM CLR 18/10 A3019 RMK AO2 SLP222 T01780100=
201407242053 METAR KCLM 242053Z AUTO 32016G25KT 10SM CLR 18/09 A3018 RMK AO2 PK WND 30030/1958 SLP219 T01830094 52010=
201407241953 METAR KCLM 241953Z AUTO 30019G30KT 10SM CLR 18/10 A3017 RMK AO2 PK WND 31033/1930 SLP216 T01780100=
201407241853 METAR KCLM 241853Z AUTO 31018G28KT 10SM CLR 17/11 A3016 RMK AO2 PK WND 31030/1828 SLP212 T01720106=
201407241753 METAR KCLM 241753Z AUTO 30019G27KT 10SM CLR 16/11 A3015 RMK AO2 PK WND 29027/1752 SLP209 60002 T01610111 10167 20128 51019=
201407241653 METAR KCLM 241653Z AUTO 30013G19KT 10SM OVC095 15/11 A3014 RMK AO2 SLP205 T01500111=
201407241553 METAR KCLM 241553Z AUTO 31008KT 10SM BKN050 OVC090 14/11 A3011 RMK AO2 SLP196 T01390111=
201407241453 METAR KCLM 241453Z AUTO 25005KT 10SM BKN050 OVC095 13/11 A3009 RMK AO2 SLP190 60002 T01330111 51011=
201407241353 METAR KCLM 241353Z AUTO 26008KT 10SM BKN060 OVC090 13/11 A3008 RMK AO2 RAB06E29 SLP187 P0000 T01330111=
201407241253 METAR KCLM 241253Z AUTO 27007KT 10SM OVC070 13/11 A3007 RMK AO2 RAE53 SLP183 P0002 T01280111=
201407241153 METAR KCLM 241153Z AUTO 27003KT 9SM -RA OVC080 13/11 A3006 RMK AO2 RAB1055 SLP179 P0003 60003 70004 T01280106 10144 20117 53009=
201407241053 METAR KCLM 241053Z AUTO 00000KT 10SM SCT065 OVC085 13/11 A3004 RMK AO2 SLP172 T01280106=
201407240953 METAR KCLM 240953Z AUTO 25003KT 10SM BKN036 OVC060 13/11 A3003 RMK AO2 SLP170 T01280106=
201407240853 METAR KCLM 240853Z AUTO 23003KT 10SM SCT060 OVC075 12/11 A3003 RMK AO2 SLP169 T01220106 53003=
201407240753 METAR KCLM 240753Z AUTO 00000KT 10SM CLR 12/09 A3001 RMK AO2 SLP162 T01220094 401670100=
201407240653 METAR KCLM 240653Z AUTO 21003KT 10SM BKN070 14/10 A3001 RMK AO2 SLP163 T01440100=
201407240553 METAR KCLM 240553Z AUTO 20003KT 10SM BKN041 OVC060 14/11 A3002 RMK AO2 SLP166 T01440106 10167 20139 51008=
201407240453 METAR KCLM 240453Z AUTO 14005KT 10SM BKN038 OVC070 15/11 A3002 RMK AO2 SLP165 T01500106=
201407240353 METAR KCLM 240353Z AUTO 11005KT 10SM BKN060 14/11 A3001 RMK AO2 SLP162 T01440111=
201407240253 METAR KCLM 240253Z AUTO 09006KT 10SM CLR 16/11 A3000 RMK AO2 SLP158 T01560111 51002=
201407240153 METAR KCLM 240153Z AUTO 12006KT 10SM CLR 17/10 A3000 RMK AO2 SLP158 T01670100=
201407240053 METAR KCLM 240053Z AUTO 00000KT 10SM CLR 16/10 A3000 RMK AO2 SLP157 T01610100=
201407232353 METAR KCLM 232353Z AUTO 32003KT 10SM SCT080 16/11 A2999 RMK AO2 RAE06 SLP156 P0000 60000 T01610111 10167 20144 50002=
201407232301 SPECI KCLM 232301Z AUTO 35004KT 10SM -RA SCT027 BKN033 OVC048 16/12 A3000 RMK AO2 P0000 T01560122=
201407232253 METAR KCLM 232253Z AUTO 29003KT 10SM -RA BKN027 OVC032 16/12 A3000 RMK AO2 RAE2154B48 SLP159 P0000 T01560117=
201407232200 SPECI KCLM 232200Z AUTO 31006KT 10SM BKN023 BKN100 17/12 A2999 RMK AO2 RAE2154 P0000 T01670122=
201407232153 METAR KCLM 232153Z AUTO VRB05KT 10SM -RA SCT023 BKN060 OVC095 17/12 A2999 RMK AO2 RAB36 SLP155 P0000 T01670122=
201407232150 SPECI KCLM 232150Z AUTO 31005KT 10SM -RA SCT021 BKN040 OVC100 17/12 A2999 RMK AO2 RAB36 P0000=
201407232125 SPECI KCLM 232125Z AUTO 25003KT 10SM OVC018 17/12 A3000 RMK AO2 T01670122=
201407232053 METAR KCLM 232053Z AUTO 28005KT 10SM OVC014 16/12 A3000 RMK AO2 RAE03 SLP158 P0000 60000 T01610117 53008=
201407232007 SPECI KCLM 232007Z AUTO 02005KT 10SM BKN015 OVC032 16/12 A2998 RMK AO2 RAE03 P0000 T01610122=
201407231953 METAR KCLM 231953Z AUTO 34003KT 10SM -RA OVC014 16/13 A2998 RMK AO2 RAB51 SLP153 P0000 T01610128=
201407231938 SPECI KCLM 231938Z AUTO 00000KT 10SM OVC014 16/12 A2998 RMK AO2 T01560122=
201407231853 METAR KCLM 231853Z AUTO 30004KT 10SM OVC017 16/12 A2998 RMK AO2 SLP152 T01560117=
201407231753 METAR KCLM 231753Z AUTO 31005KT 10SM OVC018 14/12 A2997 RMK AO2 SLP150 60001 T01440117 10156 20117 53004=
201407231715 SPECI KCLM 231715Z AUTO 33003KT 10SM BKN015 OVC080 15/12 A2996 RMK AO2 T01500117=
201407231702 SPECI KCLM 231702Z AUTO 33004KT 10SM FEW015 SCT020 BKN080 15/12 A2996 RMK AO2 T01500122=
201407231653 SPECI KCLM 231653Z AUTO 32003KT 10SM BKN018 BKN085 15/13 A2996 RMK AO2 RAB1556E09 SLP145 P0000 T01500128=
201407231653 METAR KCLM 231653Z AUTO 32003KT 10SM BKN018 BKN085 15/13 A2996 RMK AO2 RAB1556E09 SLP145 P0000 T01500128=
201407231553 METAR KCLM 231553Z AUTO 29006KT 10SM OVC017 14/12 A2996 RMK AO2 SLP146 T01390117=
201407231504 SPECI KCLM 231504Z AUTO 20004KT 10SM BKN020 OVC110 14/12 A2996 RMK AO2 T01390117=
201407231453 METAR KCLM 231453Z AUTO 00000KT 10SM SCT020 OVC100 13/12 A2996 RMK AO2 RAE34 SLP146 P0001 60001 T01330117 55001=
201407231353 METAR KCLM 231353Z AUTO 25004KT 10SM -RA FEW021 SCT075 OVC100 13/11 A2995 RMK AO2 RAB30 SLP143 P0000 T01280111=
201407231346 SPECI KCLM 231346Z AUTO 26003KT 10SM -RA SCT021 SCT075 OVC095 13/11 A2996 RMK AO2 RAB30 P0000 T01330106=
201407231253 METAR KCLM 231253Z AUTO 00000KT 10SM BKN020 12/10 A2996 RMK AO2 SLP144 T01220100=
201407231153 METAR KCLM 231153Z AUTO 00000KT 10SM BKN020 12/10 A2997 RMK AO2 SLP147 T01170100 10128 20100 56014=
201407231053 METAR KCLM 231053Z AUTO 00000KT 10SM CLR 12/09 A2998 RMK AO2 SLP152 T01170094=
201407230953 METAR KCLM 230953Z AUTO 16003KT 10SM FEW090 11/08 A2999 RMK AO2 SLP155 T01110083=
201407230853 METAR KCLM 230853Z AUTO 00000KT 10SM CLR 10/08 A3001 RMK AO2 SLP161 T01000083 56009=
201407230753 METAR KCLM 230753Z AUTO 21004KT 10SM CLR 11/08 A3002 RMK AO2 SLP165 T01060083 402000100=
201407230653 METAR KCLM 230653Z AUTO 00000KT 10SM CLR 11/08 A3002 RMK AO2 SLP165 T01110083=
201407230553 METAR KCLM 230553Z AUTO 00000KT 10SM CLR 12/09 A3003 RMK AO2 SLP170 T01220089 10189 20117 56002=
201407230453 METAR KCLM 230453Z AUTO 00000KT 10SM CLR 12/08 A3003 RMK AO2 SLP170 T01220083=
201407230353 METAR KCLM 230353Z AUTO 00000KT 10SM CLR 16/09 A3003 RMK AO2 SLP169 T01560089=
201407230253 METAR KCLM 230253Z AUTO 00000KT 10SM CLR 17/09 A3004 RMK AO2 SLP172 T01670094 55005=
201407230153 METAR KCLM 230153Z AUTO 35004KT 10SM CLR 17/09 A3004 RMK AO2 SLP171 T01720089=
201407230053 METAR KCLM 230053Z AUTO 33004KT 10SM CLR 18/09 A3005 RMK AO2 SLP175 T01780089=
201407222353 METAR KCLM 222353Z AUTO VRB04KT 10SM CLR 19/09 A3005 RMK AO2 SLP177 T01890089 10200 20183 58006=
201407222253 METAR KCLM 222253Z AUTO 36007KT 10SM CLR 19/08 A3007 RMK AO2 SLP181 T01890083=
201407222153 METAR KCLM 222153Z AUTO VRB04KT 10SM CLR 19/09 A3007 RMK AO2 SLP183 T01890089=
201407222053 METAR KCLM 222053Z AUTO 05005KT 10SM SCT100 19/09 A3007 RMK AO2 SLP182 T01890089 53006=
201407221953 METAR KCLM 221953Z AUTO 36005KT 10SM SCT090 18/09 A3006 RMK AO2 SLP179 T01830089=
201407221853 METAR KCLM 221853Z AUTO 02004KT 10SM CLR 19/09 A3006 RMK AO2 SLP178 T01940094=
201407221753 METAR KCLM 221753Z AUTO VRB06KT 10SM FEW033 19/10 A3005 RMK AO2 SLP176 T01890100 10194 20128 51005=
201407221653 METAR KCLM 221653Z AUTO 32007KT 10SM OVC031 17/09 A3005 RMK AO2 SLP174 T01720089=
201407221553 METAR KCLM 221553Z AUTO 31005KT 10SM BKN032 17/10 A3004 RMK AO2 SLP173 T01670100=
201407221453 METAR KCLM 221453Z AUTO 28004KT 10SM OVC031 14/10 A3004 RMK AO2 SLP171 T01440100 53004=
201407221353 METAR KCLM 221353Z AUTO 27003KT 10SM OVC030 14/10 A3003 RMK AO2 SLP169 T01390100=
201407221328 SPECI KCLM 221328Z AUTO 26005KT 10SM OVC030 13/10 A3003 RMK AO2 T01330100=
201407221310 SPECI KCLM 221310Z AUTO 25003KT 10SM OVC029 13/10 A3002 RMK AO2 T01330100=
201407221253 METAR KCLM 221253Z AUTO 27003KT 10SM OVC030 13/10 A3003 RMK AO2 SLP168 T01280100=
201407221153 METAR KCLM 221153Z AUTO 24004KT 10SM OVC030 13/10 A3003 RMK AO2 SLP167 T01330100 10133 20100 53002=
201407221053 METAR KCLM 221053Z AUTO 28003KT 10SM OVC030 13/10 A3002 RMK AO2 SLP166 T01330100=
201407220953 METAR KCLM 220953Z AUTO 24004KT 10SM OVC030 13/10 A3002 RMK AO2 SLP167 T01280100=
201407220853 METAR KCLM 220853Z AUTO 26006KT 10SM FEW033 11/09 A3002 RMK AO2 SLP166 T01060089 53003=
201407220753 METAR KCLM 220753Z AUTO 23003KT 10SM CLR 11/09 A3001 RMK AO2 SLP162 T01060089 402000094=
201407220653 METAR KCLM 220653Z AUTO 24005KT 10SM CLR 11/09 A3001 RMK AO2 SLP161 T01060089 TSNO=
201407220553 METAR KCLM 220553Z AUTO 24005KT 10SM CLR 13/09 A3001 RMK AO2 SLP162 T01330094 10189 20133 52001=
201407220453 METAR KCLM 220453Z AUTO 26007KT 10SM CLR 13/09 A3001 RMK AO2 SLP163 T01330094=
201407220353 METAR KCLM 220353Z AUTO 27006KT 10SM CLR 14/09 A3001 RMK AO2 SLP161 T01390089=
201407220253 METAR KCLM 220253Z AUTO 27009KT 10SM CLR 16/09 A3001 RMK AO2 SLP161 T01560094 55004=
201407220153 METAR KCLM 220153Z AUTO 32006KT 10SM CLR 17/11 A3000 RMK AO2 SLP160 T01670106=
201407220053 METAR KCLM 220053Z AUTO VRB06KT 10SM SCT060 18/11 A3001 RMK AO2 SLP160 T01780111=
201407212353 METAR KCLM 212353Z AUTO 30008KT 10SM BKN042 OVC060 18/11 A3002 RMK AO2 SLP165 T01780106 10200 20167 58008=
201407212253 METAR KCLM 212253Z AUTO 34005KT 10SM CLR 19/11 A3003 RMK AO2 SLP168 T01940106=
201407212153 METAR KCLM 212153Z AUTO VRB06KT 10SM SCT047 19/10 A3004 RMK AO2 SLP172 T01890100=
201407212053 METAR KCLM 212053Z AUTO 34006KT 10SM CLR 18/10 A3004 RMK AO2 SLP173 T01780100 56002=
201407211953 METAR KCLM 211953Z AUTO 34009KT 10SM CLR 18/10 A3004 RMK AO2 SLP174 T01830100=
201407211853 METAR KCLM 211853Z AUTO 01008KT 8SM CLR 18/10 A3005 RMK AO2 SLP174 T01780100=
201407211753 METAR KCLM 211753Z AUTO VRB06KT 10SM CLR 17/10 A3005 RMK AO2 SLP175 T01670100 10178 20094 53004=
201407211653 METAR KCLM 211653Z AUTO 32007KT 290V030 10SM CLR 17/11 A3004 RMK AO2 SLP173 T01720106=
201407211553 METAR KCLM 211553Z AUTO VRB05KT 10SM CLR 16/10 A3004 RMK AO2 SLP172 T01610100=
201407211453 METAR KCLM 211453Z AUTO 00000KT 10SM SCT060 14/09 A3004 RMK AO2 SLP171 T01440094 51009=
201407211353 METAR KCLM 211353Z AUTO 28004KT 10SM BKN050 OVC060 12/09 A3003 RMK AO2 SLP169 T01170089=
201407211253 METAR KCLM 211253Z AUTO 22003KT 10SM BKN060 10/08 A3002 RMK AO2 SLP167 T01000078=
201407211153 METAR KCLM 211153Z AUTO 23004KT 10SM BKN060 10/08 A3001 RMK AO2 SLP162 T01000078 10128 20094 53007=
201407211053 METAR KCLM 211053Z AUTO 24003KT 10SM CLR 10/08 A3000 RMK AO2 SLP158 T01000078=
201407210953 METAR KCLM 210953Z AUTO 26006KT 10SM CLR 11/08 A2999 RMK AO2 SLP156 T01060083=
201407210853 METAR KCLM 210853Z AUTO 27007KT 10SM CLR 12/09 A2999 RMK AO2 SLP154 T01170094 51001=
201407210753 METAR KCLM 210753Z AUTO 28009KT 10SM CLR 12/10 A2999 RMK AO2 SLP154 T01220100 401890117=
201407210653 METAR KCLM 210653Z AUTO 27008KT 10SM CLR 12/10 A2999 RMK AO2 SLP154 T01170100=
201407210553 METAR KCLM 210553Z AUTO 26006KT 10SM CLR 12/10 A2998 RMK AO2 SLP153 T01220100 10161 20122 50002=
201407210453 METAR KCLM 210453Z AUTO 26009G16KT 10SM CLR 13/11 A2999 RMK AO2 SLP154 T01330106=
201407210406 SPECI KCLM 210406Z AUTO 29013KT 10SM SCT012 BKN049 13/11 A2998 RMK AO2 T01330106=
201407210353 METAR KCLM 210353Z AUTO 28007KT 10SM BKN012 OVC050 13/11 A2998 RMK AO2 SLP151 T01330106=
201407210253 METAR KCLM 210253Z AUTO 29005KT 10SM BKN012 OVC050 14/11 A2998 RMK AO2 SLP151 T01440111 53001=
201407210153 METAR KCLM 210153Z AUTO 29006KT 10SM BKN055 16/11 A2997 RMK AO2 SLP148 T01560111=
201407210053 METAR KCLM 210053Z AUTO 31007KT 10SM OVC050 16/12 A2997 RMK AO2 SLP147 T01560117=
201407202353 METAR KCLM 202353Z AUTO 32008KT 10SM BKN039 OVC046 15/11 A2997 RMK AO2 SLP150 T01500111 10189 20150 58003=
201407202253 METAR KCLM 202253Z AUTO 31010KT 10SM FEW029 BKN036 OVC060 18/09 A2998 RMK AO2 SLP151 T01830094=
201407202230 SPECI KCLM 202230Z AUTO 30011KT 10SM SCT020 OVC060 18/10 A2998 RMK AO2 T01780100=
201407202153 METAR KCLM 202153Z AUTO 31009KT 10SM BKN020 OVC060 18/11 A2998 RMK AO2 SLP152 T01780106=
201407202053 METAR KCLM 202053Z AUTO 31010KT 10SM FEW039 OVC049 17/11 A2998 RMK AO2 SLP153 T01670106 50004=
201407201953 METAR KCLM 201953Z AUTO 30009KT 10SM SCT039 OVC050 16/11 A2998 RMK AO2 SLP153 T01610106=
201407201853 METAR KCLM 201853Z AUTO 32008KT 300V360 10SM OVC050 17/11 A2998 RMK AO2 SLP151 T01670106=
201407201753 METAR KCLM 201753Z AUTO 31009KT 10SM OVC055 16/11 A2997 RMK AO2 SLP149 T01610106 10167 20133 51007=
201407201653 METAR KCLM 201653Z AUTO 30008KT 10SM OVC050 16/09 A2997 RMK AO2 SLP148 T01610094=
201407201553 METAR KCLM 201553Z AUTO 31010KT 10SM OVC055 16/10 A2996 RMK AO2 SLP145 T01560100=
201407201453 METAR KCLM 201453Z AUTO 30011KT 10SM SCT047 14/11 A2995 RMK AO2 SLP142 T01440106 53000=
201407201353 METAR KCLM 201353Z AUTO 30007KT 10SM OVC047 13/10 A2995 RMK AO2 SLP141 T01330100=
201407201253 METAR KCLM 201253Z AUTO 25010KT 10SM OVC046 14/09 A2995 RMK AO2 SLP142 T01440094=
201407201153 METAR KCLM 201153Z AUTO 27008KT 10SM OVC042 14/11 A2995 RMK AO2 SLP142 T01390106 10144 20122 53001=
201407201053 METAR KCLM 201053Z AUTO 26005KT 10SM OVC040 13/11 A2994 RMK AO2 SLP139 T01280106=
201407201016 SPECI KCLM 201016Z AUTO 28009KT 10SM SCT007 BKN040 12/11 A2995 RMK AO2 T01220106=
201407201005 SPECI KCLM 201005Z AUTO 30010KT 10SM SCT007 BKN012 BKN040 13/11 A2995 RMK AO2 T01280106=
201407200953 METAR KCLM 200953Z AUTO 29012G19KT 10SM BKN007 BKN012 BKN040 13/11 A2995 RMK AO2 SLP142 T01280106=
201407200934 SPECI KCLM 200934Z AUTO 29013G18KT 10SM BKN008 BKN012 13/11 A2995 RMK AO2 T01280111=
201407200853 METAR KCLM 200853Z AUTO 28011KT 10SM BKN012 OVC040 13/11 A2995 RMK AO2 SLP141 T01330111 50000=
201407200827 SPECI KCLM 200827Z AUTO 29005KT 10SM OVC010 14/12 A2995 RMK AO2 T01390117=
201407200753 METAR KCLM 200753Z AUTO 28006KT 10SM OVC009 14/12 A2995 RMK AO2 CIG 006V012 SLP142 T01390117 401940133=
201407200726 SPECI KCLM 200726Z AUTO 30010KT 10SM BKN009 BKN015 OVC034 14/12 A2995 RMK AO2 CIG 005V013 T01390117=
201407200718 SPECI KCLM 200718Z AUTO 29009KT 10SM FEW007 SCT015 OVC034 13/12 A2995 RMK AO2 T01330117=
201407200653 METAR KCLM 200653Z AUTO 30006KT 10SM OVC034 13/12 A2995 RMK AO2 SLP141 T01330117=
201407200622 SPECI KCLM 200622Z AUTO 30008KT 10SM SCT027 OVC034 14/12 A2995 RMK AO2 T01390117=
201407200553 METAR KCLM 200553Z AUTO 30008KT 10SM FEW010 OVC025 14/12 A2995 RMK AO2 SLP141 T01440117 10178 20144 58005=
201407200526 SPECI KCLM 200526Z AUTO 30008KT 10SM SCT012 OVC023 14/12 A2995 RMK AO2 T01440117=
201407200453 METAR KCLM 200453Z AUTO 29009KT 10SM OVC011 14/12 A2996 RMK AO2 CIG 008V014 SLP144 T01440122=
201407200353 METAR KCLM 200353Z AUTO VRB06KT 10SM OVC009 15/12 A2996 RMK AO2 SLP145 T01500122=
201407200253 METAR KCLM 200253Z AUTO 30011G15KT 10SM OVC005 15/13 A2996 RMK AO2 SLP146 T01500128 56006=
201407200153 METAR KCLM 200153Z AUTO 34005KT 10SM BKN007 OVC011 16/13 A2997 RMK AO2 SLP147 T01610133=
201407200131 SPECI KCLM 200131Z AUTO VRB04KT 10SM BKN009 OVC018 16/13 A2996 RMK AO2 CIG 008V012 T01610133=
201407200053 METAR KCLM 200053Z AUTO 30010KT 10SM OVC017 17/13 A2997 RMK AO2 SLP150 T01670133=
201407192353 METAR KCLM 192353Z AUTO VRB06G14KT 10SM OVC019 18/14 A2998 RMK AO2 SLP152 T01780139 10194 20172 58004=
201407192253 METAR KCLM 192253Z AUTO 34005KT 10SM OVC017 18/14 A2999 RMK AO2 SLP154 T01830139=
201407192153 METAR KCLM 192153Z AUTO VRB04KT 10SM OVC017 18/13 A2999 RMK AO2 SLP154 T01780133=
201407192053 METAR KCLM 192053Z AUTO 34005KT 10SM OVC016 18/13 A2999 RMK AO2 SLP156 T01780133 58002=
201407192017 SPECI KCLM 192017Z AUTO 05003KT 10SM OVC015 18/13 A3000 RMK AO2 T01780133=
201407191953 METAR KCLM 191953Z AUTO 06004KT 10SM OVC014 18/13 A3000 RMK AO2 SLP159 T01780133=
201407191853 METAR KCLM 191853Z AUTO 14006KT 10SM OVC011 18/13 A3000 RMK AO2 SLP158 T01830133=
201407191811 SPECI KCLM 191811Z AUTO VRB03KT 10SM OVC010 18/13 A3000 RMK AO2 T01830133=
201407191753 METAR KCLM 191753Z AUTO 10SM OVC009 18/13 A3000 RMK AO2 CIG 005V012 SLP158 60000 T01780133 10183 20144 58005=
201407191653 METAR KCLM 191653Z AUTO 33007KT 10SM OVC007 16/13 A3001 RMK AO2 SLP162 T01560133=
201407191553 METAR KCLM 191553Z AUTO VRB04KT 10SM OVC006 16/13 A3001 RMK AO2 SLP162 T01610133=
201407191453 METAR KCLM 191453Z AUTO 27003KT 10SM OVC005 16/13 A3001 RMK AO2 RAE00B16E26 SLP163 P0000 60000 T01560133 56011=
201407191400 SPECI KCLM 191400Z AUTO 29004KT 10SM BKN005 BKN012 OVC043 15/13 A3003 RMK AO2 RAE00 P0000 T01500133=
201407191353 METAR KCLM 191353Z AUTO 29004KT 10SM -RA FEW005 SCT012 OVC043 15/13 A3003 RMK AO2 RAB50 SLP168 P0000 T01500133=
201407191253 METAR KCLM 191253Z AUTO 24004KT 10SM FEW005 OVC046 15/13 A3002 RMK AO2 SLP165 T01500133=
201407191214 SPECI KCLM 191214Z AUTO 28005KT 10SM FEW006 BKN055 OVC070 14/13 A3004 RMK AO2 T01440128=
201407191201 SPECI KCLM 191201Z AUTO 26004KT 10SM FEW010 OVC065 14/13 A3004 RMK AO2 T01440128=
201407191153 METAR KCLM 191153Z AUTO 00000KT 10SM BKN009 OVC060 14/13 A3005 RMK AO2 SLP173 T01440128 10156 20139 53001=
201407191124 SPECI KCLM 191124Z AUTO 33005KT 10SM BKN009 14/13 A3005 RMK AO2 CIG 005V010 T01440128=
201407191053 METAR KCLM 191053Z AUTO 26006KT 10SM BKN010 15/13 A3004 RMK AO2 SLP173 T01500128=
201407191012 SPECI KCLM 191012Z AUTO 25003KT 10SM FEW007 14/13 A3003 RMK AO2 T01440128=
201407190953 METAR KCLM 190953Z AUTO 29008KT 10SM OVC007 14/13 A3004 RMK AO2 CIG 005V010 SLP171 T01440128=
201407190853 METAR KCLM 190853Z AUTO 27009KT 10SM BKN006 14/13 A3004 RMK AO2 CIG 005V011 SLP173 T01440128 58008=
201407190844 SPECI KCLM 190844Z AUTO 27010KT 10SM BKN008 14/13 A3005 RMK AO2 CIG 005V011 T01440128=
201407190830 SPECI KCLM 190830Z AUTO 28010KT 10SM FEW008 14/13 A3005 RMK AO2 T01440128=
201407190753 METAR KCLM 190753Z AUTO 31009KT 10SM CLR 14/13 A3005 RMK AO2 SLP177 T01440128 402060094=
201407190653 METAR KCLM 190653Z AUTO 30009KT 10SM CLR 15/12 A3006 RMK AO2 SLP180 T01500122=
201407190553 METAR KCLM 190553Z AUTO 33004KT 10SM BKN038 16/12 A3007 RMK AO2 SLP181 T01560122 10200 20156 57002=
201407190453 METAR KCLM 190453Z AUTO 10SM SCT045 BKN050 OVC110 17/13 A3006 RMK AO2 SLP179 T01670128=
201407190353 METAR KCLM 190353Z AUTO 28006KT 10SM BKN070 BKN110 16/13 A3008 RMK AO2 SLP185 T01610128=
201407190253 METAR KCLM 190253Z AUTO 30010G16KT 10SM BKN065 BKN110 18/13 A3007 RMK AO2 SLP183 T01780128 55000=
201407190153 METAR KCLM 190153Z AUTO 30011G20KT 10SM OVC100 18/13 A3007 RMK AO2 SLP182 T01780128=
201407190053 METAR KCLM 190053Z AUTO 29009G18KT 10SM CLR 19/12 A3007 RMK AO2 SLP183 T01940122=
201407182353 METAR KCLM 182353Z AUTO 33009KT 10SM CLR 21/11 A3007 RMK AO2 SLP183 T02060111 10206 20150 58010=
201407182253 METAR KCLM 182253Z AUTO 31010KT 10SM FEW100 18/11 A3009 RMK AO2 SLP190 T01830106=
201407182153 METAR KCLM 182153Z AUTO 03004KT 10SM CLR 19/11 A3009 RMK AO2 SLP190 T01890111=
201407182053 METAR KCLM 182053Z AUTO 02004KT 10SM CLR 18/11 A3010 RMK AO2 SLP194 T01830106 51003=
201407181953 METAR KCLM 181953Z AUTO 36005KT 10SM CLR 17/11 A3010 RMK AO2 SLP193 T01720106=
201407181853 METAR KCLM 181853Z AUTO VRB05KT 10SM CLR 17/11 A3010 RMK AO2 SLP193 T01670111=
201407181753 METAR KCLM 181753Z AUTO 01006KT 10SM CLR 15/11 A3009 RMK AO2 SLP191 T01500111 10167 20094 53008=
201407181653 METAR KCLM 181653Z AUTO 09005KT 10SM CLR 16/11 A3008 RMK AO2 SLP186 T01560106=
201407181553 METAR KCLM 181553Z AUTO VRB05KT 10SM CLR 15/11 A3008 RMK AO2 SLP187 T01500106=
201407181453 METAR KCLM 181453Z AUTO 32003KT 10SM CLR 13/11 A3007 RMK AO2 SLP183 T01330106 53006=
201407181353 METAR KCLM 181353Z AUTO 23003KT 10SM CLR 12/10 A3006 RMK AO2 SLP180 T01220100=
201407181253 METAR KCLM 181253Z AUTO 23004KT 10SM CLR 10/08 A3005 RMK AO2 SLP174 T01000083=
201407181153 METAR KCLM 181153Z AUTO 25004KT 10SM CLR 11/09 A3005 RMK AO2 SLP176 T01110094 10122 20100 53008=
201407181053 METAR KCLM 181053Z AUTO 26003KT 10SM CLR 11/09 A3004 RMK AO2 SLP173 T01110094=
201407180953 METAR KCLM 180953Z AUTO 27006KT 10SM CLR 12/09 A3003 RMK AO2 SLP170 T01170094=
201407180853 METAR KCLM 180853Z AUTO 28008KT 10SM CLR 12/09 A3003 RMK AO2 SLP167 T01170094 53002=
201407180753 METAR KCLM 180753Z AUTO 26010KT 10SM CLR 12/10 A3003 RMK AO2 SLP167 T01220100 401940117=
201407180653 METAR KCLM 180653Z AUTO 27009KT 10SM CLR 12/10 A3001 RMK AO2 SLP161 T01220100=
201407180553 METAR KCLM 180553Z AUTO 29007KT 10SM CLR 12/10 A3002 RMK AO2 SLP165 T01220100 10194 20122 51009=
201407180453 METAR KCLM 180453Z AUTO 28005KT 10SM CLR 13/10 A3002 RMK AO2 SLP164 T01280100=
201407180353 METAR KCLM 180353Z AUTO 30007KT 10SM CLR 14/11 A3000 RMK AO2 SLP157 T01390106=
201407180253 METAR KCLM 180253Z AUTO 31006KT 10SM CLR 16/11 A2999 RMK AO2 SLP155 T01560106 58005=
201407180153 METAR KCLM 180153Z AUTO 31007KT 10SM CLR 18/11 A3000 RMK AO2 SLP157 T01830111=
201407180053 METAR KCLM 180053Z AUTO 31007KT 10SM CLR 18/11 A3000 RMK AO2 SLP160 T01830111=
201407172353 METAR KCLM 172353Z AUTO 01006KT 10SM CLR 18/12 A3001 RMK AO2 SLP161 T01830117 10194 20161 58007=
201407172253 METAR KCLM 172253Z AUTO 35005KT 10SM CLR 19/12 A3002 RMK AO2 SLP167 T01890117=
201407172153 METAR KCLM 172153Z AUTO 01004KT 10SM CLR 18/12 A3003 RMK AO2 SLP170 T01780122=
201407172053 METAR KCLM 172053Z AUTO 02004KT 10SM CLR 18/12 A3003 RMK AO2 SLP168 T01830122 51004=
201407171953 METAR KCLM 171953Z AUTO 36006KT 10SM CLR 17/12 A3002 RMK AO2 SLP167 T01720117=
201407171853 METAR KCLM 171853Z AUTO VRB06KT 10SM CLR 18/12 A3003 RMK AO2 SLP168 T01780117=
201407171753 METAR KCLM 171753Z AUTO 02006KT 10SM CLR 17/12 A3001 RMK AO2 SLP163 T01720117 10183 20117 51003=
201407171653 METAR KCLM 171653Z AUTO VRB03KT 10SM SCT012 17/12 A3001 RMK AO2 SLP162 T01720117=
201407171553 METAR KCLM 171553Z AUTO 03004KT 10SM OVC011 16/12 A3001 RMK AO2 SLP163 T01560117=
201407171453 METAR KCLM 171453Z AUTO 00000KT 10SM OVC011 14/12 A3000 RMK AO2 SLP160 T01440117 52011=
201407171353 METAR KCLM 171353Z AUTO 25004KT 10SM OVC013 13/11 A3000 RMK AO2 SLP158 T01280111=
201407171344 SPECI KCLM 171344Z AUTO 22004KT 10SM BKN013 13/11 A3000 RMK AO2 T01280111=
201407171253 METAR KCLM 171253Z AUTO 28007KT 10SM FEW005 12/11 A2998 RMK AO2 SLP150 T01170106=
201407171222 SPECI KCLM 171222Z AUTO 24004KT 10SM SCT005 12/11 A2997 RMK AO2 T01170106=
201407171153 METAR KCLM 171153Z AUTO 25006KT 10SM BKN006 12/11 A2997 RMK AO2 SLP148 T01220106 10128 20117 51005=
201407171053 METAR KCLM 171053Z AUTO 28007KT 10SM OVC005 12/11 A2996 RMK AO2 SLP146 T01220106=
201407171024 SPECI KCLM 171024Z AUTO 29007KT 10SM OVC005 12/11 A2996 RMK AO2 T01220106=
201407170953 METAR KCLM 170953Z AUTO 29008KT 9SM OVC004 12/11 A2997 RMK AO2 SLP148 T01220111=
201407170853 METAR KCLM 170853Z AUTO 28010KT 7SM OVC003 12/11 A2996 RMK AO2 SLP144 T01220111 53003=
201407170753 METAR KCLM 170753Z AUTO 29009KT 10SM BKN004 12/11 A2995 RMK AO2 SLP141 T01220106 402220089=
201407170703 SPECI KCLM 170703Z AUTO 29008KT 10SM BKN004 12/11 A2995 RMK AO2 T01220106=
201407170653 METAR KCLM 170653Z AUTO 28008KT 10SM SCT004 12/11 A2995 RMK AO2 SLP143 T01220106=
201407170644 SPECI KCLM 170644Z AUTO 28008KT 10SM FEW004 12/11 A2995 RMK AO2 T01220106=
201407170553 METAR KCLM 170553Z AUTO 29011KT 10SM CLR 13/11 A2995 RMK AO2 SLP141 T01280111 10211 20117 53002=
201407170453 METAR KCLM 170453Z AUTO 25003KT 10SM CLR 12/11 A2994 RMK AO2 SLP138 T01220106=
201407170353 METAR KCLM 170353Z AUTO 30006KT 10SM CLR 14/11 A2994 RMK AO2 SLP137 T01390111=
201407170253 METAR KCLM 170253Z AUTO 33005KT 10SM CLR 18/12 A2994 RMK AO2 SLP139 T01780122 55010=
201407170153 METAR KCLM 170153Z AUTO 32006KT 10SM CLR 19/12 A2994 RMK AO2 SLP138 T01940122=
201407170053 METAR KCLM 170053Z AUTO 32004KT 10SM CLR 19/12 A2995 RMK AO2 SLP142 T01940122=
201407162353 METAR KCLM 162353Z AUTO 35005KT 10SM CLR 20/12 A2997 RMK AO2 SLP149 T02000122 10222 20178 58012=
201407162253 METAR KCLM 162253Z AUTO 31008KT 10SM CLR 20/12 A2999 RMK AO2 SLP156 T02000117=
201407162153 METAR KCLM 162153Z AUTO 30008KT 10SM CLR 21/12 A3000 RMK AO2 SLP158 T02060117=
201407162053 METAR KCLM 162053Z AUTO VRB05KT 10SM CLR 22/12 A3001 RMK AO2 SLP161 T02170117 58008=
201407161953 METAR KCLM 161953Z AUTO 36006KT 10SM CLR 21/12 A3002 RMK AO2 SLP164 T02060117=
201407161853 METAR KCLM 161853Z AUTO 36004KT 10SM CLR 20/11 A3003 RMK AO2 SLP168 T02000111=
201407161753 METAR KCLM 161753Z AUTO 35004KT 10SM CLR 19/11 A3003 RMK AO2 SLP169 T01890111 10189 20089 51001=
201407161653 METAR KCLM 161653Z AUTO VRB04KT 10SM CLR 18/11 A3003 RMK AO2 SLP169 T01780111=
201407161553 METAR KCLM 161553Z AUTO VRB03KT 10SM CLR 16/11 A3003 RMK AO2 SLP169 T01610111=
201407161453 METAR KCLM 161453Z AUTO 00000KT 10SM CLR 12/11 A3003 RMK AO2 SLP168 T01220111 51006=
201407161438 SPECI KCLM 161438Z AUTO 00000KT 10SM SCT001 12/11 A3003 RMK AO2 T01170106=
201407161427 SPECI KCLM 161427Z AUTO 00000KT 3SM BR BKN001 11/11 A3003 RMK AO2 T01110106=
201407161424 SPECI KCLM 161424Z AUTO 00000KT 1SM BR VV001 11/11 A3003 RMK AO2 T01110106=
201407161353 METAR KCLM 161353Z AUTO 31003KT 1/4SM FG VV001 10/09 A3002 RMK AO2 SLP167 T01000089=
201407161331 SPECI KCLM 161331Z AUTO 31003KT 1/4SM FG VV001 09/08 A3002 RMK AO2 T00940083=
201407161321 SPECI KCLM 161321Z AUTO 00000KT 3/4SM BR VV001 10/09 A3002 RMK AO2 T01000089=
201407161316 SPECI KCLM 161316Z AUTO 00000KT 1 3/4SM BR CLR 10/09 A3002 RMK AO2 T01000089=
201407161258 SPECI KCLM 161258Z AUTO 00000KT 3SM BR CLR 09/08 A3002 RMK AO2 T00940083=
201407161253 METAR KCLM 161253Z AUTO 00000KT 1 1/4SM BR CLR 10/08 A3002 RMK AO2 SLP164 T01000083=
201407161247 SPECI KCLM 161247Z AUTO 00000KT 1 1/2SM BR CLR 09/09 A3001 RMK AO2=
201407161243 SPECI KCLM 161243Z AUTO 00000KT 3SM BR CLR 10/09 A3001 RMK AO2 T01000089=
201407161237 SPECI KCLM 161237Z AUTO 00000KT 1 3/4SM BR CLR 10/09 A3001 RMK AO2 VIS 3/4V5 T01000089=
201407161153 METAR KCLM 161153Z AUTO 22004KT 10SM CLR 12/11 A3001 RMK AO2 SLP162 T01220106 10128 20089 51001=
201407161053 METAR KCLM 161053Z AUTO 00000KT 9SM CLR 09/08 A3001 RMK AO2 SLP162 T00940078=
201407160953 METAR KCLM 160953Z AUTO 00000KT 10SM FEW001 10/09 A3001 RMK AO2 SLP161 T01000089=
201407160930 SPECI KCLM 160930Z AUTO 26003KT 4SM BR BKN001 10/09 A3000 RMK AO2 T01000094=
201407160926 SPECI KCLM 160926Z AUTO 24004KT 1SM BR OVC001 11/09 A3000 RMK AO2 T01060094=
201407160917 SPECI KCLM 160917Z AUTO 27005KT 3/4SM BR VV002 11/10 A3000 RMK AO2 T01060100=
201407160853 METAR KCLM 160853Z AUTO 28004KT 1 1/4SM BR OVC001 11/10 A3001 RMK AO2 VIS 3/4V3 SLP161 T01060100 56004=
201407160850 SPECI KCLM 160850Z AUTO 28003KT 1 3/4SM BR OVC002 11/10 A3001 RMK AO2 VIS 1V3=
201407160819 SPECI KCLM 160819Z AUTO 28004KT 10SM BKN002 11/09 A3001 RMK AO2 T01060094=
201407160807 SPECI KCLM 160807Z AUTO 28004KT 10SM SCT002 11/09 A3001 RMK AO2 T01060094=
201407160753 METAR KCLM 160753Z AUTO 29004KT 10SM BKN002 11/10 A3001 RMK AO2 SLP162 T01060100 402060106=
201407160749 SPECI KCLM 160749Z AUTO 29003KT 10SM OVC002 11/10 A3001 RMK AO2=
201407160735 SPECI KCLM 160735Z AUTO 26005KT 4SM BR OVC001 11/10 A3001 RMK AO2 T01110100=
201407160722 SPECI KCLM 160722Z AUTO 27007KT 2 1/2SM BR OVC001 11/10 A3001 RMK AO2 T01110100=
201407160714 SPECI KCLM 160714Z AUTO 28005KT 1 3/4SM BR OVC001 11/11 A3001 RMK AO2 T01110106=
201407160700 SPECI KCLM 160700Z AUTO 28004KT 1 1/4SM BR OVC002 11/11 A3002 RMK AO2 T01110106=
201407160653 METAR KCLM 160653Z AUTO 29004KT 3/4SM BR VV002 11/11 A3002 RMK AO2 SLP165 T01110106=
201407160645 SPECI KCLM 160645Z AUTO 29006KT 3/4SM BR VV002 11/10 A3002 RMK AO2 T01110100=
201407160633 SPECI KCLM 160633Z AUTO 30005KT 1 1/4SM BR OVC001 11/10 A3002 RMK AO2 T01110100=
201407160626 SPECI KCLM 160626Z AUTO 30003KT 2SM BR OVC001 11/11 A3002 RMK AO2 VIS 1V5 T01110106=
201407160553 METAR KCLM 160553Z AUTO 30004KT 9SM OVC002 11/10 A3003 RMK AO2 SLP167 T01110100 10200 20106 53004=
201407160538 SPECI KCLM 160538Z AUTO 00000KT 10SM BKN002 11/10 A3002 RMK AO2 T01110100=
201407160527 SPECI KCLM 160527Z AUTO 31003KT 10SM SCT002 11/10 A3002 RMK AO2 T01110100=
201407160453 METAR KCLM 160453Z AUTO 29005KT 10SM CLR 12/10 A3002 RMK AO2 SLP164 T01170100=
201407160353 METAR KCLM 160353Z AUTO 31007KT 10SM CLR 13/11 A3001 RMK AO2 SLP161 T01330106=
201407160253 METAR KCLM 160253Z AUTO 35003KT 10SM CLR 17/12 A3001 RMK AO2 SLP163 T01720117 56014=
201407160153 METAR KCLM 160153Z AUTO 32006KT 10SM CLR 18/12 A3002 RMK AO2 SLP166 T01780117=
201407160053 METAR KCLM 160053Z AUTO 31008KT 10SM CLR 19/12 A3004 RMK AO2 SLP172 T01890117=
201407152353 METAR KCLM 152353Z AUTO VRB04KT 10SM CLR 19/12 A3006 RMK AO2 SLP178 T01940122 10206 20161 58011=
201407152253 METAR KCLM 152253Z AUTO 32008KT 10SM CLR 19/12 A3007 RMK AO2 SLP184 T01940117=
201407152153 METAR KCLM 152153Z AUTO 32006KT 10SM CLR 19/12 A3008 RMK AO2 SLP187 T01940117=
201407152053 METAR KCLM 152053Z AUTO VRB06KT 10SM CLR 19/12 A3009 RMK AO2 SLP189 T01940117 56009=
201407151953 METAR KCLM 151953Z AUTO 35005KT 10SM CLR 19/12 A3010 RMK AO2 SLP192 T01890117=
201407151853 METAR KCLM 151853Z AUTO 36006KT 10SM CLR 17/12 A3010 RMK AO2 SLP194 T01670117=
201407151753 METAR KCLM 151753Z AUTO 32006KT 10SM CLR 17/12 A3012 RMK AO2 SLP198 T01670117 10167 20117 57001=
201407151653 METAR KCLM 151653Z AUTO 01006KT 10SM CLR 16/11 A3012 RMK AO2 SLP198 T01560111=
201407151553 METAR KCLM 151553Z AUTO 31003KT 10SM SCT005 15/12 A3012 RMK AO2 SLP200 T01500117=
201407151551 SPECI KCLM 151551Z AUTO 00000KT 10SM SCT004 14/12 A3012 RMK AO2=
201407151453 METAR KCLM 151453Z AUTO 30005KT 7SM OVC002 13/11 A3012 RMK AO2 SLP198 T01280111 50002=
201407151422 SPECI KCLM 151422Z AUTO 28005KT 3SM BR OVC002 12/11 A3012 RMK AO2 T01220111=
201407151353 METAR KCLM 151353Z AUTO 28006KT 1SM BR OVC002 12/11 A3012 RMK AO2 SLP199 T01170111=
201407151341 SPECI KCLM 151341Z AUTO 27008KT 1SM BR OVC002 12/11 A3012 RMK AO2 T01170111=
201407151253 METAR KCLM 151253Z AUTO 29005KT 3/4SM BR OVC001 12/11 A3012 RMK AO2 SLP198 T01170111=
201407151242 SPECI KCLM 151242Z AUTO 30005KT 1 1/2SM BR OVC001 12/11 A3011 RMK AO2 T01170111=
201407151235 SPECI KCLM 151235Z AUTO 28004KT 1 1/2SM BR OVC002 12/11 A3011 RMK AO2 T01170111=
201407151228 SPECI KCLM 151228Z AUTO 28007KT 2SM BR OVC002 12/11 A3012 RMK AO2 T01170111=
201407151214 SPECI KCLM 151214Z AUTO 29006KT 1 1/4SM BR OVC002 12/11 A3012 RMK AO2 T01170111=
201407151207 SPECI KCLM 151207Z AUTO 29007KT 2SM BR OVC002 12/11 A3012 RMK AO2 T01170111=
201407151153 METAR KCLM 151153Z AUTO 30008KT 5SM BR OVC002 12/11 A3011 RMK AO2 SLP197 T01170111 10122 20117 50000=
201407151053 METAR KCLM 151053Z AUTO 28008KT 5SM BR OVC002 12/11 A3011 RMK AO2 SLP197 T01220111=
201407150953 METAR KCLM 150953Z AUTO 30005KT 7SM OVC002 12/11 A3011 RMK AO2 SLP197 T01220111=
201407150853 METAR KCLM 150853Z AUTO 29006KT 4SM BR OVC002 12/11 A3011 RMK AO2 SLP197 T01220111 53003=
201407150753 METAR KCLM 150753Z AUTO 29007KT 5SM BR OVC002 12/11 A3010 RMK AO2 SLP194 T01220111 402110122=
201407150741 SPECI KCLM 150741Z AUTO 28010KT 4SM BR OVC002 12/11 A3010 RMK AO2 T01220111=
201407150718 SPECI KCLM 150718Z AUTO 29010KT 2SM BR OVC002 12/11 A3009 RMK AO2 T01220111=
201407150653 METAR KCLM 150653Z AUTO 29009KT 1 3/4SM BR OVC002 12/11 A3009 RMK AO2 SLP190 T01220111=
201407150630 SPECI KCLM 150630Z AUTO 29010KT 2 1/2SM BR OVC002 12/11 A3009 RMK AO2 T01220111=
201407150553 METAR KCLM 150553Z AUTO 29007KT 7SM OVC002 12/11 A3010 RMK AO2 SLP194 T01220111 10189 20122 53008=
201407150453 METAR KCLM 150453Z AUTO 29007KT 5SM BR OVC003 12/11 A3009 RMK AO2 SLP190 T01220111=
201407150404 SPECI KCLM 150404Z AUTO 29010KT 7SM BKN004 13/11 A3008 RMK AO2 T01280111=
201407150353 METAR KCLM 150353Z AUTO 29011KT 7SM SCT004 13/11 A3008 RMK AO2 SLP185 T01280111=
201407150344 SPECI KCLM 150344Z AUTO 30011KT 8SM FEW004 13/11 A3008 RMK AO2 T01280111=
201407150253 METAR KCLM 150253Z AUTO 30007KT 10SM CLR 16/12 A3008 RMK AO2 SLP185 T01560117 55006=
201407150153 METAR KCLM 150153Z AUTO 32006KT 10SM CLR 17/12 A3008 RMK AO2 SLP185 T01670117=
201407150053 METAR KCLM 150053Z AUTO 34008KT 10SM CLR 17/12 A3008 RMK AO2 SLP186 T01720117=
201407142353 METAR KCLM 142353Z AUTO 32007KT 10SM CLR 19/12 A3009 RMK AO2 SLP191 T01890122 10211 20156 56010=
201407142253 METAR KCLM 142253Z AUTO VRB06KT 10SM CLR 19/12 A3011 RMK AO2 SLP195 T01940122=
201407142153 METAR KCLM 142153Z AUTO 32010KT 10SM CLR 18/12 A3011 RMK AO2 SLP196 T01830117=
201407142053 METAR KCLM 142053Z AUTO 34006KT 10SM CLR 17/12 A3013 RMK AO2 SLP201 T01720117 55001=
201407141953 METAR KCLM 141953Z AUTO 30009KT 10SM CLR 19/12 A3012 RMK AO2 SLP198 T01940122=
201407141853 METAR KCLM 141853Z AUTO 34007KT 10SM CLR 18/12 A3013 RMK AO2 SLP202 T01780122=
201407141753 METAR KCLM 141753Z AUTO 32009KT 10SM FEW005 16/12 A3013 RMK AO2 SLP202 T01560117 10172 20122 51002=
201407141653 METAR KCLM 141653Z AUTO 30008KT 10SM CLR 16/12 A3013 RMK AO2 SLP201 T01610122=
201407141618 SPECI KCLM 141618Z AUTO 36004KT 10SM SCT005 16/12 A3013 RMK AO2 T01560122=
201407141611 SPECI KCLM 141611Z AUTO 31005KT 10SM BKN005 15/12 A3013 RMK AO2 T01500122=
201407141553 METAR KCLM 141553Z AUTO VRB03KT 10SM OVC004 15/12 A3013 RMK AO2 CIG 002V007 SLP203 T01500122 $=
201407141453 METAR KCLM 141453Z AUTO 30006KT 6SM BR OVC003 13/12 A3012 RMK AO2 SLP200 T01330117 58001 $=
201407141417 SPECI KCLM 141417Z AUTO 29008KT 6SM BR OVC002 13/12 A3013 RMK AO2 T01330117 $=
201407141353 METAR KCLM 141353Z AUTO 30008KT 2SM BR OVC002 13/12 A3013 RMK AO2 VIS 1 1/2V2 1/2 SLP201 T01280117 $=
201407141329 SPECI KCLM 141329Z AUTO 27008KT 2 1/2SM BR OVC002 13/12 A3013 RMK AO2 T01280117 $=
201407141253 METAR KCLM 141253Z AUTO 29005KT 4SM BR OVC002 12/12 A3014 RMK AO2 SLP205 T01220117 $=
201407141234 SPECI KCLM 141234Z AUTO 29007KT 4SM BR OVC002 12/11 A3013 RMK AO2 T01220111 $=
201407141224 SPECI KCLM 141224Z AUTO 30004KT 2 1/2SM BR OVC002 12/11 A3013 RMK AO2 T01220111 $=
201407141203 SPECI KCLM 141203Z AUTO 27005KT 3SM BR OVC002 12/11 A3012 RMK AO2 T01220111 $=
201407141153 METAR KCLM 141153Z AUTO 31004KT 2 1/2SM BR OVC002 12/12 A3013 RMK AO2 SLP201 T01220117 10128 20122 53010 $=
201407141141 SPECI KCLM 141141Z AUTO 30005KT 2SM BR OVC002 12/11 A3012 RMK AO2 T01220111 $=
201407141053 METAR KCLM 141053Z AUTO 30006KT 7SM OVC003 12/11 A3012 RMK AO2 SLP199 T01220111 $=
201407140953 METAR KCLM 140953Z AUTO 29011KT 10SM BKN004 OVC100 12/11 A3010 RMK AO2 SLP190 T01220111 $=
201407140951 SPECI KCLM 140951Z AUTO 29010KT 10SM BKN004 BKN100 12/11 A3010 RMK AO2 $=
201407140853 METAR KCLM 140853Z AUTO 29013G24KT 9SM SCT004 SCT110 13/11 A3009 RMK AO2 SLP189 T01280111 56005 $=
201407140848 SPECI KCLM 140848Z AUTO 29016G24KT 9SM SCT004 BKN110 13/11 A3009 RMK AO2 $=
201407140753 METAR KCLM 140753Z AUTO 30012G22KT 7SM OVC003 13/12 A3010 RMK AO2 SLP192 T01280117 402330106 $=
201407140653 METAR KCLM 140653Z AUTO 29008KT 10SM OVC004 13/11 A3010 RMK AO2 SLP194 T01280111 $=
201407140633 SPECI KCLM 140633Z AUTO VRB03KT 10SM BKN004 12/11 A3010 RMK AO2 T01220111 $=
201407140615 SPECI KCLM 140615Z AUTO 00000KT 10SM FEW004 12/11 A3009 RMK AO2 T01220111 $=
201407140553 METAR KCLM 140553Z AUTO 31004KT 10SM CLR 13/11 A3008 RMK AO2 SLP187 T01280111 10228 20128 53011 $=
201407140453 METAR KCLM 140453Z AUTO 30006KT 10SM CLR 14/11 A3007 RMK AO2 SLP182 T01390111 $=
201407140353 METAR KCLM 140353Z AUTO 28008KT 10SM CLR 17/12 A3005 RMK AO2 SLP176 T01720117 $=
201407140253 METAR KCLM 140253Z AUTO VRB06KT 10SM CLR 19/12 A3005 RMK AO2 SLP176 T01890122 55001 $=
201407140153 METAR KCLM 140153Z AUTO 31007KT 10SM CLR 19/12 A3005 RMK AO2 SLP175 T01940122 $=
201407140053 METAR KCLM 140053Z AUTO 31006KT 10SM CLR 20/12 A3005 RMK AO2 SLP175 T02000122 $=
201407132353 METAR KCLM 132353Z AUTO 30005KT 10SM CLR 19/12 A3006 RMK AO2 SLP178 T01940122 10233 20172 56010 $=
201407132253 METAR KCLM 132253Z AUTO 30006KT 10SM CLR 19/12 A3006 RMK AO2 SLP180 T01890117 $=
201407132153 METAR KCLM 132153Z AUTO 02003KT 10SM CLR 23/13 A3007 RMK AO2 SLP182 T02330128 $=
201407132053 METAR KCLM 132053Z AUTO 36005KT 10SM CLR 22/12 A3009 RMK AO2 SLP188 T02170122 58014 $=
201407131953 METAR KCLM 131953Z AUTO 35004KT 10SM CLR 21/12 A3011 RMK AO2 SLP196 T02110117 $=
201407131853 METAR KCLM 131853Z AUTO 35004KT 10SM CLR 21/12 A3012 RMK AO2 SLP198 T02060122 $=
201407131753 METAR KCLM 131753Z AUTO 35004KT 10SM CLR 19/12 A3013 RMK AO2 SLP202 T01890117 10200 20106 58006 $=
201407131653 METAR KCLM 131653Z AUTO 02003KT 10SM CLR 17/12 A3014 RMK AO2 SLP209 T01720117 $=
201407131553 METAR KCLM 131553Z AUTO 30003KT 10SM CLR 16/12 A3015 RMK AO2 SLP208 T01560117 $=
201407131512 SPECI KCLM 131512Z AUTO 30004KT 10SM SCT002 12/11 A3015 RMK AO2 T01220111 $=
201407131453 METAR KCLM 131453Z AUTO 30005KT 10SM BKN002 12/11 A3014 RMK AO2 SLP208 T01220111 51010 $=
201407131419 SPECI KCLM 131419Z AUTO 28005KT 3SM BR OVC002 12/11 A3014 RMK AO2 T01170106 $=
201407131410 SPECI KCLM 131410Z AUTO 28006KT 1SM BR VV002 12/11 A3014 RMK AO2 T01170106 $=
201407131353 METAR KCLM 131353Z AUTO 29004KT 1/4SM FG VV002 11/11 A3014 RMK AO2 SLP207 T01110106 $=
201407131335 SPECI KCLM 131335Z AUTO 31004KT 1/4SM FG VV002 11/10 A3014 RMK AO2 T01110100 $=
201407131323 SPECI KCLM 131323Z AUTO VRB03KT 1/2SM FG VV002 11/11 A3014 RMK AO2 T01110106 $=
201407131300 SPECI KCLM 131300Z AUTO 30003KT 1/4SM FG VV002 11/11 A3013 RMK AO2 T01110106 $=
201407131253 METAR KCLM 131253Z AUTO 30003KT 1/2SM FG VV002 11/10 A3013 RMK AO2 SLP203 T01110100 $=
201407131235 SPECI KCLM 131235Z AUTO 27003KT 3/4SM BR VV002 11/10 A3012 RMK AO2 T01110100 $=
201407131153 METAR KCLM 131153Z AUTO 29004KT 1 1/4SM BR OVC001 11/10 A3012 RMK AO2 SLP198 T01060100 10117 20106 55000 $=
201407131129 SPECI KCLM 131129Z AUTO 27005KT 1 1/4SM BR OVC001 11/10 A3011 RMK AO2 T01110100 $=
201407131112 SPECI KCLM 131112Z AUTO 28005KT 1SM BR VV002 11/10 A3011 RMK AO2 T01110100 $=
201407131053 METAR KCLM 131053Z AUTO 29006KT 3/4SM BR VV002 11/10 A3011 RMK AO2 SLP197 T01110100 $=
201407131045 SPECI KCLM 131045Z AUTO 29004KT 3/4SM BR VV002 11/11 A3011 RMK AO2 T01110106 $=
201407131037 SPECI KCLM 131037Z AUTO 29006KT 1SM BR VV002 11/11 A3011 RMK AO2 T01110106 $=
201407130953 METAR KCLM 130953Z AUTO 29005KT 1 3/4SM BR OVC001 11/11 A3012 RMK AO2 SLP198 T01110106 $=
201407130939 SPECI KCLM 130939Z AUTO 28006KT 1 3/4SM BR OVC001 11/10 A3012 RMK AO2 T01110100 $=
201407130933 SPECI KCLM 130933Z AUTO 30005KT 2SM BR OVC002 11/11 A3012 RMK AO2 T01110106 $=
201407130853 METAR KCLM 130853Z AUTO 28004KT 8SM OVC002 11/10 A3011 RMK AO2 SLP195 T01110100 51005 $=
201407130826 SPECI KCLM 130826Z AUTO 28007KT 7SM BKN002 11/10 A3010 RMK AO2 T01110100 $=
201407130800 SPECI KCLM 130800Z AUTO 29005KT 8SM SCT002 11/10 A3010 RMK AO2 T01110100 $=
201407130753 METAR KCLM 130753Z AUTO 29006KT 7SM BKN002 11/10 A3010 RMK AO2 SLP192 T01110100 402331183 $=
201407130721 SPECI KCLM 130721Z AUTO 29005KT 6SM BR BKN002 11/10 A3010 RMK AO2 T01110100 $=
201407130709 SPECI KCLM 130709Z AUTO 29005KT 5SM BR SCT002 11/10 A3010 RMK AO2 T01110100 $=
201407130653 METAR KCLM 130653Z AUTO 31006KT 8SM CLR 12/10 A3010 RMK AO2 SLP193 T01170100 $=
201407130553 METAR KCLM 130553Z AUTO 29006KT 9SM CLR 12/10 A3009 RMK AO2 SLP190 T01170100 10222 21183 56000 $=
201407130453 METAR KCLM 130453Z AUTO 29006KT 10SM CLR M18/M18 A3009 RMK AO2 SLP193 T11831183 $=
201407130353 METAR KCLM 130353Z AUTO 32005KT 10SM CLR 16/11 A3009 RMK AO2 SLP188 T01560111=
201407130253 METAR KCLM 130253Z AUTO 31005KT 10SM CLR 18/11 A3009 RMK AO2 SLP190 T01830106 56003=
201407130153 METAR KCLM 130153Z AUTO 31005KT 10SM CLR 19/11 A3009 RMK AO2 SLP191 T01940106=
201407130053 METAR KCLM 130053Z AUTO 31007KT 10SM CLR 22/10 A3010 RMK AO2 SLP192 T02170100=
201407122353 METAR KCLM 122353Z AUTO 31008KT 10SM CLR 22/10 A3010 RMK AO2 SLP194 T02170100 10233 20194 58005=
201407122253 METAR KCLM 122253Z AUTO 30008KT 10SM CLR 22/12 A3011 RMK AO2 SLP196 T02220117=
201407122153 METAR KCLM 122153Z AUTO 33005KT 10SM CLR 23/12 A3011 RMK AO2 SLP196 T02330122=
201407122053 METAR KCLM 122053Z AUTO 29005KT 10SM CLR 22/12 A3012 RMK AO2 SLP198 T02170122 55001=
201407121953 METAR KCLM 121953Z AUTO 30007KT 10SM CLR 21/12 A3012 RMK AO2 SLP198 T02110122=
201407121853 METAR KCLM 121853Z AUTO 34007KT 10SM CLR 21/12 A3012 RMK AO2 SLP198 T02110117=
201407121753 METAR KCLM 121753Z AUTO 31007KT 10SM CLR 19/12 A3012 RMK AO2 SLP198 T01940117 10200 20100 53008=
201407121653 METAR KCLM 121653Z AUTO VRB03KT 10SM CLR 18/12 A3011 RMK AO2 SLP196 T01830117=
201407121553 METAR KCLM 121553Z AUTO 00000KT 10SM CLR 17/12 A3010 RMK AO2 SLP192 T01720122=
201407121453 SPECI KCLM 121453Z AUTO 00000KT 10SM FEW001 13/12 A3010 RMK AO2 SLP190 T01280117 51014=
201407121453 METAR KCLM 121453Z AUTO 00000KT 10SM FEW001 13/12 A3010 RMK AO2 SLP190 T01280117 51014=
201407121449 SPECI KCLM 121449Z AUTO 00000KT 9SM FEW001 12/11 A3009 RMK AO2=
201407121353 METAR KCLM 121353Z AUTO 00000KT 10SM CLR 13/12 A3007 RMK AO2 SLP182 T01280117=
201407121253 METAR KCLM 121253Z AUTO 00000KT 9SM FEW001 11/10 A3005 RMK AO2 SLP176 T01110100=
201407121239 SPECI KCLM 121239Z AUTO 22004KT 3SM BR FEW001 11/10 A3005 RMK AO2 T01110100=
201407121236 SPECI KCLM 121236Z AUTO 22005KT 1/2SM FG VV001 11/10 A3005 RMK AO2 T01060100=
201407121225 SPECI KCLM 121225Z AUTO 30003KT 1/4SM FG VV001 11/09 A3005 RMK AO2 T01060094=
201407121222 SPECI KCLM 121222Z AUTO 31003KT 1 1/4SM BR FEW001 11/10 A3005 RMK AO2 T01060100=
201407121211 SPECI KCLM 121211Z AUTO 00000KT 3SM BR FEW002 11/11 A3004 RMK AO2 T01110106=
201407121203 SPECI KCLM 121203Z AUTO 00000KT 1 3/4SM BR FEW002 12/10 A3005 RMK AO2 T01170100=
201407121153 METAR KCLM 121153Z AUTO 00000KT 2SM BR BKN001 11/10 A3005 RMK AO2 VIS 1V5 SLP175 T01110100 10150 20111 53010=
201407121140 SPECI KCLM 121140Z AUTO 25003KT 2 1/2SM BR BKN001 11/11 A3004 RMK AO2 T01110106=
201407121129 SPECI KCLM 121129Z AUTO 26003KT 1/2SM FG VV001 12/11 A3004 RMK AO2 T01170106=
201407121127 SPECI KCLM 121127Z AUTO 28003KT 1SM BR VV002 12/11 A3004 RMK AO2 T01170106=
201407121124 SPECI KCLM 121124Z AUTO 30003KT 2SM BR SCT003 12/10 A3004 RMK AO2 T01170100=
201407121053 METAR KCLM 121053Z AUTO 00000KT 8SM CLR 12/11 A3003 RMK AO2 SLP169 T01220111=
201407120953 METAR KCLM 120953Z AUTO 28003KT 10SM CLR 13/12 A3002 RMK AO2 SLP166 T01330117=
201407120853 METAR KCLM 120853Z AUTO 29004KT 10SM CLR 14/12 A3002 RMK AO2 SLP164 T01390122 51004=
201407120753 METAR KCLM 120753Z AUTO 28006KT 10SM CLR 14/12 A3002 RMK AO2 SLP164 T01440122 402560089=
201407120653 METAR KCLM 120653Z AUTO 00000KT 10SM CLR 14/12 A3001 RMK AO2 SLP162 T01390117=
201407120553 METAR KCLM 120553Z AUTO 00000KT 10SM CLR 16/12 A3001 RMK AO2 SLP160 T01560117 10239 20150 51006=
201407120453 METAR KCLM 120453Z AUTO 00000KT 10SM CLR 17/12 A3000 RMK AO2 SLP159 T01670117=
201407120353 METAR KCLM 120353Z AUTO 31003KT 10SM CLR 18/12 A3000 RMK AO2 SLP156 T01780117=
201407120253 METAR KCLM 120253Z AUTO 32005KT 10SM CLR 22/12 A2999 RMK AO2 SLP154 T02220117 53005=
201407120153 METAR KCLM 120153Z AUTO VRB05KT 10SM CLR 23/12 A2998 RMK AO2 SLP151 T02330122=
201407120053 METAR KCLM 120053Z AUTO 31004KT 10SM CLR 23/13 A2998 RMK AO2 SLP150 T02330128=
201407112353 METAR KCLM 112353Z AUTO 33006KT 10SM CLR 21/12 A2998 RMK AO2 SLP150 T02110117 10256 20211 55002=
201407112253 METAR KCLM 112253Z AUTO 36004KT 10SM CLR 23/13 A2997 RMK AO2 SLP149 T02330128=
201407112153 METAR KCLM 112153Z AUTO VRB04KT 10SM CLR 23/12 A2997 RMK AO2 SLP149 T02330117=
201407112053 METAR KCLM 112053Z AUTO 04005KT 10SM CLR 24/12 A2998 RMK AO2 SLP151 T02440117 58005=
201407111953 METAR KCLM 111953Z AUTO 04005KT 10SM CLR 25/12 A2999 RMK AO2 SLP153 T02500122=
201407111853 METAR KCLM 111853Z AUTO VRB05KT 10SM CLR 24/12 A2999 RMK AO2 SLP155 T02440122=
201407111753 METAR KCLM 111753Z AUTO 04006KT 10SM CLR 24/12 A2999 RMK AO2 SLP156 T02390122 10244 20089 51004=
201407111653 METAR KCLM 111653Z AUTO VRB03KT 10SM CLR 20/12 A2999 RMK AO2 SLP156 T02000122=
201407111553 METAR KCLM 111553Z AUTO 00000KT 10SM CLR 19/12 A2999 RMK AO2 SLP153 T01940122=
201407111453 METAR KCLM 111453Z AUTO 00000KT 10SM CLR 18/13 A2998 RMK AO2 SLP152 T01780128 53008=
201407111353 METAR KCLM 111353Z AUTO 00000KT 10SM CLR 14/11 A2998 RMK AO2 SLP150 T01390111=
201407111253 METAR KCLM 111253Z AUTO 00000KT 10SM CLR 09/08 A2996 RMK AO2 SLP147 T00940078=
201407111153 METAR KCLM 111153Z AUTO 00000KT 10SM CLR 10/09 A2996 RMK AO2 SLP145 T01000089 10144 20100 51007=
201407111053 METAR KCLM 111053Z AUTO 00000KT 10SM CLR 11/09 A2995 RMK AO2 SLP142 T01060089=
201407111003 SPECI KCLM 111003Z AUTO 26003KT 7SM CLR 11/10 A2995 RMK AO2 T01110100=
201407110953 METAR KCLM 110953Z AUTO 00000KT 2SM BR CLR 11/10 A2995 RMK AO2 SLP140 T01110100=
201407110853 METAR KCLM 110853Z AUTO 00000KT 10SM CLR 12/11 A2994 RMK AO2 SLP136 T01220106 53002=
201407110753 METAR KCLM 110753Z AUTO 00000KT 10SM CLR 12/10 A2994 RMK AO2 SLP137 T01170100 402500089=
201407110653 METAR KCLM 110653Z AUTO 23003KT 10SM CLR 12/10 A2993 RMK AO2 SLP135 T01170100=
201407110553 METAR KCLM 110553Z AUTO 29003KT 10SM CLR 13/11 A2993 RMK AO2 SLPNO T01330111 10200 20122 51003=
201407110453 METAR KCLM 110453Z AUTO 33003KT 10SM CLR 13/11 A2993 RMK AO2 SLP135 T01330111=
201407110353 METAR KCLM 110353Z AUTO 31003KT 10SM CLR 17/12 A2993 RMK AO2 SLP133 T01670122=
201407110253 METAR KCLM 110253Z AUTO 31005KT 10SM CLR 19/12 A2992 RMK AO2 SLP131 T01890122 56004=
201407110153 METAR KCLM 110153Z AUTO 30006KT 10SM CLR 18/12 A2992 RMK AO2 SLP132 T01830117=
201407110053 METAR KCLM 110053Z AUTO 30006KT 10SM CLR 19/12 A2993 RMK AO2 SLP134 T01890117=
201407102353 METAR KCLM 102353Z AUTO 30006KT 10SM CLR 19/11 A2993 RMK AO2 SLP136 T01940111 56007=
201407102253 METAR KCLM 102253Z AUTO VRB05KT 10SM CLR 21/12 A2994 RMK AO2 SLP138 T02110117=
201407102153 METAR KCLM 102153Z AUTO VRB04KT 10SM CLR 24/09 A2994 RMK AO2 SLP139 T02440094=
201407102053 METAR KCLM 102053Z AUTO VRB06KT 10SM CLR 23/11 A2995 RMK AO2 SLP142 T02330106 58010=
201407101953 METAR KCLM 101953Z AUTO 09007KT 10SM CLR 22/11 A2997 RMK AO2 SLP147 T02220106=
201407101853 METAR KCLM 101853Z AUTO 09008KT 10SM 21/11 A2998 RMK AO2 SLP150 T02110106 $=
201407101753 METAR KCLM 101753Z AUTO A2998 RMK AO2 SLPNO 10211 20089 53003 PWINO FZRANO $=
201407101653 METAR KCLM 101653Z AUTO 09009KT CLR 21/11 A2998 RMK AO2 SLP151 T02060111 PWINO $=
201407101553 METAR KCLM 101553Z AUTO VRB05KT 10SM CLR 17/12 A2998 RMK AO2 SLP151 T01670117 $=
201407101453 METAR KCLM 101453Z AUTO 00000KT 10SM CLR 17/13 A2998 RMK AO2 SLP151 T01670128 53005 $=
201407101353 METAR KCLM 101353Z AUTO 00000KT 10SM CLR 13/12 A2997 RMK AO2 SLP149 T01330117 $=
201407101253 METAR KCLM 101253Z AUTO 14003KT 10SM CLR 11/09 A2997 RMK AO2 SLP147 T01060089 $=
201407101153 METAR KCLM 101153Z AUTO 00000KT 10SM CLR 11/09 A2996 RMK AO2 SLP146 T01060094 10128 20094 50005 $=
201407101053 METAR KCLM 101053Z AUTO 22004KT 10SM CLR 11/09 A2996 RMK AO2 SLP146 T01060089 $=
201407100953 METAR KCLM 100953Z AUTO 23003KT 10SM CLR 11/10 A2996 RMK AO2 SLP144 T01110100 $=
201407100853 METAR KCLM 100853Z AUTO 00000KT 10SM CLR 12/10 A2995 RMK AO2 SLP141 T01170100 58002 $=
201407100753 METAR KCLM 100753Z AUTO 00000KT 10SM CLR 12/11 A2996 RMK AO2 SLP144 T01220106 402280117 $=
201407100653 METAR KCLM 100653Z AUTO 26004KT 10SM CLR 12/11 A2996 RMK AO2 SLP144 T01220106 $=
201407100553 METAR KCLM 100553Z AUTO 00000KT 10SM CLR 12/11 A2996 RMK AO2 SLP143 T01220106 10211 20117 57002 $=
201407100453 METAR KCLM 100453Z AUTO 32003KT 10SM CLR 12/10 A2996 RMK AO2 SLP145 T01170100 $=
201407100353 METAR KCLM 100353Z AUTO 31003KT 10SM CLR 14/11 A2995 RMK AO2 SLP143 T01390111 $=
201407100253 METAR KCLM 100253Z AUTO 00000KT 10SM CLR 17/12 A2996 RMK AO2 SLP145 T01670122 56009 $=
201407100153 METAR KCLM 100153Z AUTO 33003KT 10SM CLR 19/12 A2996 RMK AO2 SLP146 T01940122 $=
201407100053 METAR KCLM 100053Z AUTO 29005KT 10SM CLR 20/12 A2997 RMK AO2 SLP149 T02000122 $=
201407092353 METAR KCLM 092353Z AUTO 35004KT 10SM CLR 21/12 A2999 RMK AO2 SLP154 T02060122 10228 20172 58010 $=
201407092253 METAR KCLM 092253Z AUTO VRB04KT 10SM CLR 21/12 A3000 RMK AO2 SLP157 T02060122 $=
201407092153 METAR KCLM 092153Z AUTO VRB04KT 10SM CLR 21/12 A3001 RMK AO2 SLP162 T02060117 $=
201407092053 METAR KCLM 092053Z AUTO 04004KT 10SM CLR 21/12 A3002 RMK AO2 SLP164 T02060117 58007=
201407091953 METAR KCLM 091953Z AUTO 04003KT 10SM CLR 20/12 A3003 RMK AO2 SLP167 T02000122=
201407091853 METAR KCLM 091853Z AUTO 00000KT 10SM CLR 18/12 A3004 RMK AO2 SLP171 T01830122=
201407091753 METAR KCLM 091753Z AUTO 36005KT 10SM CLR 18/12 A3004 RMK AO2 SLP171 T01780122 10183 20128 58001=
201407091653 METAR KCLM 091653Z AUTO 01005KT 10SM FEW008 16/12 A3004 RMK AO2 SLP173 T01610117=
201407091645 SPECI KCLM 091645Z AUTO 01007KT 10SM SCT008 16/12 A3004 RMK AO2 T01560117=
201407091553 METAR KCLM 091553Z AUTO 00000KT 10SM OVC006 14/12 A3004 RMK AO2 SLP173 T01440117=
201407091536 SPECI KCLM 091536Z AUTO 00000KT 10SM OVC005 14/12 A3004 RMK AO2 T01440117=
201407091453 METAR KCLM 091453Z AUTO 25005KT 10SM OVC004 13/12 A3004 RMK AO2 SLP173 T01330117 51009=
201407091353 METAR KCLM 091353Z AUTO 28006KT 10SM OVC003 13/12 A3003 RMK AO2 SLP170 T01280117=
201407091253 METAR KCLM 091253Z AUTO 28005KT 10SM OVC003 13/12 A3003 RMK AO2 SLP168 T01280117=
201407091153 METAR KCLM 091153Z AUTO 29007KT 10SM OVC004 13/12 A3001 RMK AO2 SLP163 T01280117 10144 20122 58000=
201407091053 METAR KCLM 091053Z AUTO 30007KT 10SM OVC003 13/12 A3002 RMK AO2 SLP165 T01280117=
201407090953 METAR KCLM 090953Z AUTO 29008KT 10SM BKN004 13/12 A3002 RMK AO2 SLP164 T01280117=
201407090925 SPECI KCLM 090925Z AUTO 29009KT 10SM FEW005 12/11 A3002 RMK AO2 T01220111=
201407090853 METAR KCLM 090853Z AUTO 30009KT 10SM CLR 13/11 A3002 RMK AO2 SLP165 T01280111 56002=
201407090753 METAR KCLM 090753Z AUTO 30012G19KT 10SM CLR 13/11 A3002 RMK AO2 SLP164 T01330111 402220122=
201407090653 METAR KCLM 090653Z AUTO 30013G19KT 10SM CLR 14/11 A3002 RMK AO2 SLP166 T01390111=
201407090553 METAR KCLM 090553Z AUTO 30010KT 10SM CLR 14/11 A3002 RMK AO2 SLP167 T01440111 10217 20144 53003 TSNO=
201407090453 METAR KCLM 090453Z AUTO 30009KT 10SM CLR 15/11 A3002 RMK AO2 SLP165 T01500111=
201407090353 METAR KCLM 090353Z AUTO 29008KT 10SM CLR 16/11 A3001 RMK AO2 SLP163 T01610111=
201407090253 METAR KCLM 090253Z AUTO 29012KT 10SM CLR 18/11 A3001 RMK AO2 SLP164 T01780111 56010=
201407090153 METAR KCLM 090153Z AUTO 28013KT 10SM CLR 19/12 A3002 RMK AO2 SLP164 T01940122=
201407090053 METAR KCLM 090053Z AUTO 29010KT 10SM CLR 22/12 A3003 RMK AO2 SLP168 T02170122=
201407082353 METAR KCLM 082353Z AUTO 32010G18KT 10SM CLR 21/13 A3004 RMK AO2 SLP173 T02110128 10222 20194 56008=
201407082253 METAR KCLM 082253Z AUTO 31009KT 10SM CLR 21/14 A3005 RMK AO2 SLP177 T02110139=
201407082153 METAR KCLM 082153Z AUTO 33007KT 10SM CLR 21/14 A3006 RMK AO2 SLP178 T02110139=
201407082053 METAR KCLM 082053Z AUTO 32006KT 10SM CLR 21/14 A3007 RMK AO2 SLP182 T02110139 58005=
201407081953 METAR KCLM 081953Z AUTO 32007KT 10SM CLR 21/13 A3008 RMK AO2 SLP184 T02110133=
201407081853 METAR KCLM 081853Z AUTO 31005KT 10SM CLR 20/13 A3008 RMK AO2 SLP187 T02000128=
201407081753 METAR KCLM 081753Z AUTO VRB03KT 10SM CLR 20/13 A3008 RMK AO2 SLP186 T02000133 10206 20122 51002=
201407081653 METAR KCLM 081653Z AUTO 32004KT 10SM CLR 18/13 A3008 RMK AO2 SLP186 T01830128=
201407081553 METAR KCLM 081553Z AUTO 00000KT 10SM CLR 17/12 A3008 RMK AO2 SLP186 T01670122=
201407081453 METAR KCLM 081453Z AUTO 00000KT 10SM CLR 15/12 A3008 RMK AO2 SLP185 T01500122 57002=
201407081404 SPECI KCLM 081404Z AUTO 00000KT 10SM SCT001 13/12 A3008 RMK AO2 T01280122 $=
201407081357 SPECI KCLM 081357Z AUTO 00000KT 2 1/2SM BR BKN001 13/12 A3008 RMK AO2 VIS 3/4V5 T01280122 $=
201407081353 METAR KCLM 081353Z AUTO 00000KT 3/4SM BR OVC001 12/12 A3008 RMK AO2 SLP186 T01220117 $=
201407081350 SPECI KCLM 081350Z AUTO 00000KT 3/4SM BR OVC001 12/12 A3008 RMK AO2 $=
201407081329 SPECI KCLM 081329Z AUTO 26003KT 1SM BR OVC002 12/12 A3008 RMK AO2 T01220117 $=
201407081253 METAR KCLM 081253Z AUTO 30004KT 1/4SM FG VV002 12/12 A3008 RMK AO2 SLP187 T01220117 $=
201407081250 SPECI KCLM 081250Z AUTO 30004KT 1/2SM FG VV002 12/12 A3008 RMK AO2 $=
201407081241 SPECI KCLM 081241Z AUTO 27003KT 1/2SM FG OVC001 12/12 A3008 RMK AO2 T01220117 $=
201407081229 SPECI KCLM 081229Z AUTO 27005KT 1 3/4SM BR OVC001 12/12 A3008 RMK AO2 VIS 1/2V5 T01220117 $=
201407081221 SPECI KCLM 081221Z AUTO 28004KT 4SM BR OVC001 12/12 A3008 RMK AO2 T01220117 $=
201407081153 METAR KCLM 081153Z AUTO 28003KT 4SM BR OVC002 12/11 A3008 RMK AO2 SLP185 T01220111 10167 20122 53003 $=
201407081053 METAR KCLM 081053Z AUTO 29005KT 10SM BKN003 13/12 A3007 RMK AO2 SLP184 T01280117 $=
201407081037 SPECI KCLM 081037Z AUTO 30006KT 10SM FEW003 13/12 A3007 RMK AO2 T01280117 $=
201407080953 METAR KCLM 080953Z AUTO 30008KT 10SM CLR 13/12 A3006 RMK AO2 SLP180 T01330117 $=
201407080853 METAR KCLM 080853Z AUTO 32008KT 10SM CLR 13/12 A3007 RMK AO2 SLP182 T01330117 57003 $=
201407080753 METAR KCLM 080753Z AUTO 31007KT 10SM CLR 14/12 A3007 RMK AO2 SLP181 T01390122 402330133 $=
201407080653 METAR KCLM 080653Z AUTO 31006KT 10SM CLR 13/12 A3008 RMK AO2 SLP184 T01330117 $=
201407080553 METAR KCLM 080553Z AUTO 30007KT 10SM CLR 17/14 A3008 RMK AO2 SLP183 T01670139 10211 20167 56002 $=
201407080453 METAR KCLM 080453Z AUTO 29005KT 10SM CLR 17/13 A3008 RMK AO2 SLP183 T01720133 $=
201407080353 METAR KCLM 080353Z AUTO 28010KT 10SM CLR 17/13 A3008 RMK AO2 SLP186 T01720128=
201407080253 METAR KCLM 080253Z AUTO 28012G18KT 10SM CLR 19/13 A3008 RMK AO2 SLP187 T01890133 56007=
201407080153 METAR KCLM 080153Z AUTO 29007KT 10SM CLR 19/14 A3008 RMK AO2 SLP187 T01940139=
201407080053 METAR KCLM 080053Z AUTO 31007KT 10SM CLR 21/14 A3009 RMK AO2 SLP188 T02060144=
201407072353 METAR KCLM 072353Z AUTO 31006KT 10SM CLR 21/14 A3010 RMK AO2 SLP193 T02060144 10233 20178 58009=
201407072253 METAR KCLM 072253Z AUTO 31008KT 10SM CLR 20/14 A3012 RMK AO2 SLP197 T02000144=
201407072153 METAR KCLM 072153Z AUTO 34005KT 10SM CLR 23/15 A3012 RMK AO2 SLP200 T02280150=
201407072053 METAR KCLM 072053Z AUTO 34005KT 10SM CLR 21/15 A3013 RMK AO2 SLP202 T02110150 58012=
201407071953 METAR KCLM 071953Z AUTO VRB04KT 10SM CLR 23/15 A3014 RMK AO2 SLP206 T02280150=
201407071927 SPECI KCLM 071927Z AUTO VRB04KT 10SM SCT026 22/15 A3015 RMK AO2 T02220150=
201407071853 METAR KCLM 071853Z AUTO 36003KT 10SM OVC028 21/15 A3016 RMK AO2 SLP212 T02110150=
201407071753 METAR KCLM 071753Z AUTO 02005KT 10SM OVC026 18/14 A3017 RMK AO2 SLP215 T01830144 10189 20144 58000=
201407071653 METAR KCLM 071653Z AUTO 31003KT 10SM OVC026 18/15 A3017 RMK AO2 SLP214 T01780150=
201407071603 SPECI KCLM 071603Z AUTO 00000KT 10SM SCT003 OVC019 16/15 A3017 RMK AO2 T01610150=
201407071553 METAR KCLM 071553Z AUTO 31003KT 10SM BKN003 OVC017 16/15 A3017 RMK AO2 SLP216 T01610150=
201407071535 SPECI KCLM 071535Z AUTO 33004KT 10SM BKN003 OVC014 16/15 A3017 RMK AO2 T01610150=
201407071513 SPECI KCLM 071513Z AUTO 30004KT 10SM FEW003 BKN014 OVC020 16/15 A3017 RMK AO2 T01560150=
201407071453 METAR KCLM 071453Z AUTO 31004KT 10SM FEW002 BKN020 OVC029 16/15 A3017 RMK AO2 SLP216 T01560150 51003=
201407071416 SPECI KCLM 071416Z AUTO 00000KT 4SM BR FEW001 SCT005 OVC015 15/14 A3017 RMK AO2 T01500144 $=
201407071407 SPECI KCLM 071407Z AUTO 29003KT 3SM BR SCT003 OVC014 15/14 A3017 RMK AO2 T01500139 $=
201407071403 SPECI KCLM 071403Z AUTO 27003KT 1 3/4SM BR SCT003 OVC014 15/14 A3017 RMK AO2 T01500139 $=
201407071353 METAR KCLM 071353Z AUTO 00000KT 3/4SM BR VV003 15/14 A3017 RMK AO2 SLP215 T01500139 $=
201407071348 SPECI KCLM 071348Z AUTO 29003KT 1/2SM FG VV002 14/14 A3017 RMK AO2 $=
201407071306 SPECI KCLM 071306Z AUTO 31003KT 1/4SM FG VV002 14/14 A3016 RMK AO2 T01440139 $=
201407071253 METAR KCLM 071253Z AUTO 00000KT 1/2SM FG VV002 15/14 A3016 RMK AO2 SLP212 T01500139 $=
201407071230 SPECI KCLM 071230Z AUTO 30003KT 1/2SM FG VV002 15/14 A3016 RMK AO2 T01500139 $=
201407071210 SPECI KCLM 071210Z AUTO 32004KT 1/4SM FG VV001 15/14 A3016 RMK AO2 T01500139 $=
201407071153 METAR KCLM 071153Z AUTO 00000KT 1/4SM FG VV002 15/14 A3016 RMK AO2 SLP211 T01500144 10167 20150 56003 $=
201407071145 SPECI KCLM 071145Z AUTO 33003KT 1/2SM FG VV002 16/14 A3016 RMK AO2 T01560144 $=
201407071124 SPECI KCLM 071124Z AUTO 31003KT 1/4SM FG VV002 16/14 A3016 RMK AO2 T01560144 $=
201407071115 SPECI KCLM 071115Z AUTO 00000KT 1/2SM FG VV002 16/15 A3016 RMK AO2 T01560150 $=
201407071106 SPECI KCLM 071106Z AUTO 00000KT 1 3/4SM BR OVC002 16/15 A3016 RMK AO2 T01560150 $=
201407071053 METAR KCLM 071053Z AUTO 29003KT 3SM BR OVC002 16/15 A3016 RMK AO2 SLP211 T01560150 $=
201407071039 SPECI KCLM 071039Z AUTO 28003KT 1 3/4SM BR OVC002 16/15 A3016 RMK AO2 T01610150 $=
201407071026 SPECI KCLM 071026Z AUTO 28004KT 3SM BR OVC002 16/15 A3016 RMK AO2 T01610150 $=
201407071005 SPECI KCLM 071005Z AUTO 27004KT 1 1/4SM BR OVC002 16/16 A3016 RMK AO2 T01610156 $=
201407070953 METAR KCLM 070953Z AUTO 27004KT 3/4SM BR VV002 16/16 A3016 RMK AO2 SLP212 T01610156 $=
201407070946 SPECI KCLM 070946Z AUTO 30003KT 3/4SM BR VV002 16/16 A3016 RMK AO2 T01610156 $=
201407070931 SPECI KCLM 070931Z AUTO 27003KT 1 3/4SM BR OVC002 17/16 A3016 RMK AO2 T01670156 $=
201407070853 METAR KCLM 070853Z AUTO 24003KT 5SM BR OVC002 16/16 A3017 RMK AO2 SLP214 T01610156 56001 $=
201407070851 SPECI KCLM 070851Z AUTO 24003KT 5SM BR OVC002 16/16 A3017 RMK AO2 $=
201407070837 SPECI KCLM 070837Z AUTO 24004KT 2SM BR OVC002 16/15 A3017 RMK AO2 T01610150 $=
201407070757 SPECI KCLM 070757Z AUTO 25004KT 3SM BR OVC002 16/15 A3016 RMK AO2 T01610150 $=
201407070753 METAR KCLM 070753Z AUTO 24005KT 1 3/4SM BR OVC002 16/15 A3016 RMK AO2 VIS 3/4V3 SLP213 T01610150 402280144 $=
201407070737 SPECI KCLM 070737Z AUTO 27004KT 3/4SM BR VV002 16/15 A3017 RMK AO2 T01560150 $=
201407070725 SPECI KCLM 070725Z AUTO 00000KT 1 3/4SM BR OVC002 16/15 A3017 RMK AO2 T01610150 $=
201407070653 METAR KCLM 070653Z AUTO 00000KT 10SM OVC002 16/14 A3017 RMK AO2 SLP216 T01560144 $=
201407070629 SPECI KCLM 070629Z AUTO 00000KT 10SM BKN002 OVC060 16/15 A3017 RMK AO2 T01560150 $=
201407070616 SPECI KCLM 070616Z AUTO 29004KT 10SM SCT002 BKN060 16/14 A3017 RMK AO2 T01560144 $=
201407070553 METAR KCLM 070553Z AUTO 31004KT 10SM BKN060 16/14 A3017 RMK AO2 SLP217 T01560144 10217 20156 55000 $=
201407070453 METAR KCLM 070453Z AUTO 00000KT 10SM BKN031 17/15 A3018 RMK AO2 SLP217 T01720150 $=
201407070353 METAR KCLM 070353Z AUTO 28004KT 10SM OVC055 18/16 A3017 RMK AO2 SLP214 T01830156 $=
201407070253 METAR KCLM 070253Z AUTO 31006KT 10SM OVC050 19/16 A3017 RMK AO2 SLP217 T01890156 56004 $=
201407070153 METAR KCLM 070153Z AUTO 31006KT 10SM BKN055 BKN085 19/16 A3018 RMK AO2 SLP218 T01940156 $=
201407070053 METAR KCLM 070053Z AUTO 32006KT 10SM BKN050 20/16 A3018 RMK AO2 SLP219 T02000156 $=
201407062353 METAR KCLM 062353Z AUTO 33007KT 10SM SCT046 BKN090 21/16 A3019 RMK AO2 SLP220 T02110156 10228 20172 50001 $=
201407062253 METAR KCLM 062253Z AUTO 36005KT 10SM BKN085 21/14 A3019 RMK AO2 SLP223 T02110139 $=
201407062153 METAR KCLM 062153Z AUTO VRB03KT 10SM SCT090 22/13 A3018 RMK AO2 SLP219 T02170128 $=
201407062053 METAR KCLM 062053Z AUTO VRB03KT 10SM BKN070 OVC090 19/13 A3018 RMK AO2 SLP220 T01940128 50005 $=
201407061953 METAR KCLM 061953Z AUTO 35004KT 10SM BKN065 OVC085 19/13 A3018 RMK AO2 SLP221 T01940133 $=
201407061853 METAR KCLM 061853Z AUTO 34006KT 10SM BKN065 OVC095 19/13 A3018 RMK AO2 SLP219 T01890133 $=
201407061753 METAR KCLM 061753Z AUTO 00000KT 10SM BKN065 OVC080 18/13 A3017 RMK AO2 SLP215 60000 T01780128 10189 20150 53007 $=
201407061653 METAR KCLM 061653Z AUTO 05004KT 10SM OVC070 19/13 A3016 RMK AO2 SLP213 T01890128 $=
201407061553 METAR KCLM 061553Z AUTO VRB04KT 10SM BKN055 OVC085 18/13 A3015 RMK AO2 SLP209 T01780133 $=
201407061453 METAR KCLM 061453Z AUTO 00000KT 10SM BKN060 OVC080 18/13 A3015 RMK AO2 SLP207 60000 T01780133 53004 $=
201407061353 METAR KCLM 061353Z AUTO 00000KT 10SM OVC048 16/14 A3014 RMK AO2 RAB06E18 SLP206 P0000 T01610139 $=
201407061253 METAR KCLM 061253Z AUTO 00000KT 10SM OVC050 16/13 A3014 RMK AO2 SLP207 T01560133 $=
201407061153 METAR KCLM 061153Z AUTO 26003KT 10SM OVC050 15/13 A3013 RMK AO2 SLP204 60000 70001 T01500133 10156 20139 51002 $=
201407061053 METAR KCLM 061053Z AUTO 00000KT 10SM OVC055 15/13 A3013 RMK AO2 SLP204 T01500133 $=
201407060953 METAR KCLM 060953Z AUTO 00000KT 10SM OVC050 15/13 A3013 RMK AO2 SLP203 T01500133 $=
201407060853 METAR KCLM 060853Z AUTO 23004KT 10SM OVC060 15/13 A3013 RMK AO2 SLP202 60000 T01500133 58001 $=
201407060753 METAR KCLM 060753Z AUTO 00000KT 10SM BKN060 15/13 A3013 RMK AO2 RAE0659 SLP203 P0000 T01500133 401830117 $=
201407060653 METAR KCLM 060653Z AUTO 15003KT 10SM -RA OVC070 14/13 A3014 RMK AO2 RAB0558E07B45 SLP205 P0000 T01440128 $=
201407060553 METAR KCLM 060553Z AUTO 00000KT 10SM SCT080 BKN110 15/14 A3013 RMK AO2 SLP203 60001 T01500139 10183 20150 56006 $=
201407060453 METAR KCLM 060453Z AUTO 23003KT 10SM OVC085 16/14 A3014 RMK AO2 SLP206 T01560139 $=
201407060353 METAR KCLM 060353Z AUTO 00000KT 10SM OVC110 16/13 A3014 RMK AO2 RAB02E37 SLP205 P0001 T01610133 $=
201407060253 METAR KCLM 060253Z AUTO 00000KT 10SM SCT060 SCT095 OVC110 17/13 A3015 RMK AO2 RAB35E50 SLP209 P0000 60000 T01720128 56007=
201407060153 METAR KCLM 060153Z AUTO 13004KT 10SM SCT120 18/11 A3015 RMK AO2 SLP210 T01780111=
201407060053 METAR KCLM 060053Z AUTO 00000KT 10SM FEW039 BKN100 BKN110 17/11 A3015 RMK AO2 SLP211 T01720106=
201407052353 METAR KCLM 052353Z AUTO 34003KT 10SM BKN070 17/11 A3017 RMK AO2 SLP216 60000 T01670111 10178 20156 50003=
201407052253 METAR KCLM 052253Z AUTO 01003KT 10SM OVC055 16/12 A3017 RMK AO2 SLP217 T01610117=
201407052153 METAR KCLM 052153Z AUTO 30005KT 10SM OVC055 17/11 A3017 RMK AO2 SLP216 T01670111=
201407052053 METAR KCLM 052053Z AUTO 31006KT 10SM OVC070 17/12 A3016 RMK AO2 SLP213 60000 T01670117 51013=
201407051953 METAR KCLM 051953Z AUTO 32006KT 10SM OVC070 16/12 A3015 RMK AO2 RAE04 SLP209 P0000 T01610117=
201407051853 METAR KCLM 051853Z AUTO 31005KT 10SM -RA FEW060 BKN075 OVC090 16/12 A3014 RMK AO2 RAB16 SLP206 P0000 T01560117=
201407051753 METAR KCLM 051753Z AUTO 31006KT 10SM OVC065 17/11 A3012 RMK AO2 SLP200 T01670111 10178 20122 53011=
201407051653 METAR KCLM 051653Z AUTO VRB03KT 10SM BKN065 BKN100 17/12 A3010 RMK AO2 SLP193 T01670117=
201407051553 METAR KCLM 051553Z AUTO 00000KT 10SM BKN075 OVC095 15/11 A3010 RMK AO2 SLP194 T01500111=
201407051453 METAR KCLM 051453Z AUTO 30003KT 10SM SCT070 OVC100 15/11 A3009 RMK AO2 SLP188 T01500111 53009=
201407051353 METAR KCLM 051353Z AUTO 00000KT 10SM BKN085 OVC110 14/12 A3007 RMK AO2 SLP184 T01390122=
201407051253 METAR KCLM 051253Z AUTO 00000KT 10SM FEW065 OVC090 13/12 A3007 RMK AO2 SLP182 T01280117=
201407051153 METAR KCLM 051153Z AUTO 00000KT 7SM BKN075 BKN110 12/11 A3006 RMK AO2 RAB07E17 SLP180 P0000 60000 70005 T01220111 10133 20117 55000=
201407051053 METAR KCLM 051053Z AUTO 00000KT 9SM BKN075 OVC120 13/12 A3006 RMK AO2 SLP181 T01280117=
201407050953 METAR KCLM 050953Z AUTO 00000KT 10SM OVC075 13/11 A3006 RMK AO2 SLP178 T01280111=
201407050853 METAR KCLM 050853Z AUTO 00000KT 10SM OVC075 13/11 A3006 RMK AO2 SLP180 T01280111 53001=
201407050753 METAR KCLM 050753Z AUTO 22003KT 10SM SCT028 OVC085 13/11 A3006 RMK AO2 SLP179 T01280111 401890089=
201407050738 SPECI KCLM 050738Z AUTO 00000KT 5SM BR FEW005 SCT030 OVC085 12/11 A3006 RMK AO2 T01220111=
201407050653 METAR KCLM 050653Z AUTO 23003KT 4SM BR SCT032 BKN085 12/11 A3006 RMK AO2 SLP179 T01220111=
201407050553 METAR KCLM 050553Z AUTO 00000KT 10SM FEW004 BKN085 12/11 A3006 RMK AO2 SLP179 60004 T01170106 10150 20117 53004=
201407050453 METAR KCLM 050453Z AUTO 00000KT 10SM FEW002 BKN080 12/11 A3005 RMK AO2 SLP177 T01220106=
201407050430 SPECI KCLM 050430Z AUTO 32003KT 9SM SCT001 13/12 A3005 RMK AO2 T01280117=
201407050353 METAR KCLM 050353Z AUTO 00000KT 10SM CLR 14/12 A3004 RMK AO2 SLP174 T01390122=
201407050253 METAR KCLM 050253Z AUTO 24003KT 10SM BKN085 OVC100 15/12 A3005 RMK AO2 RAE26 SLP174 P0000 60004 T01500122 58006=
201407050153 METAR KCLM 050153Z AUTO 24003KT 10SM -RA OVC075 14/12 A3005 RMK AO2 SLP177 P0001 T01440117=
201407050053 METAR KCLM 050053Z AUTO 29006KT 10SM -RA OVC100 14/11 A3006 RMK AO2 SLP181 P0003 T01390111=
201407042353 METAR KCLM 042353Z AUTO 28007KT 10SM -RA OVC100 14/12 A3006 RMK AO2 RAE01B23 SLP180 P0001 60001 T01440117 10189 20144 50003=
201407042253 METAR KCLM 042253Z AUTO 29010KT 10SM -RA FEW085 OVC110 16/09 A3006 RMK AO2 RAB53 SLP180 P0000 T01610094=
201407042153 METAR KCLM 042153Z AUTO 31010KT 10SM SCT100 17/09 A3006 RMK AO2 SLP179 T01670094=
201407042053 METAR KCLM 042053Z AUTO 30010KT 10SM CLR 18/09 A3006 RMK AO2 SLP177 T01780094 55001=
201407041953 METAR KCLM 041953Z AUTO 32009G19KT 10SM CLR 18/09 A3005 RMK AO2 SLP175 T01830094=
201407041853 METAR KCLM 041853Z AUTO 32009KT 10SM CLR 18/09 A3005 RMK AO2 SLP176 T01780094=
201407041753 METAR KCLM 041753Z AUTO 31007KT 10SM CLR 17/10 A3006 RMK AO2 SLP179 T01670100 10167 20094 53001=
201407041653 METAR KCLM 041653Z AUTO 31006KT 10SM CLR 16/11 A3006 RMK AO2 SLP178 T01560106=
201407041553 METAR KCLM 041553Z AUTO 32007KT 10SM CLR 14/09 A3005 RMK AO2 SLP177 T01440089=
201407041453 METAR KCLM 041453Z AUTO 30004KT 10SM CLR 15/09 A3006 RMK AO2 SLP177 T01500089 58004=
201407041353 METAR KCLM 041353Z AUTO 27007KT 10SM CLR 13/09 A3007 RMK AO2 SLP181 T01280089=
201407041253 METAR KCLM 041253Z AUTO 24004KT 10SM CLR 10/08 A3007 RMK AO2 SLP181 T01000078=
201407041153 METAR KCLM 041153Z AUTO 25005KT 10SM CLR 11/08 A3007 RMK AO2 SLP182 T01060078 10122 20089 58004=
201407041053 METAR KCLM 041053Z AUTO 27006KT 10SM CLR 10/08 A3008 RMK AO2 SLP184 T01000078=
201407040953 METAR KCLM 040953Z AUTO 24003KT 10SM CLR 09/08 A3008 RMK AO2 SLP187 T00940078=
201407040853 METAR KCLM 040853Z AUTO 25005KT 10SM CLR 10/08 A3008 RMK AO2 SLP185 T01000078 56007=
201407040753 METAR KCLM 040753Z AUTO 25008KT 10SM CLR 11/09 A3008 RMK AO2 SLP187 T01110089 401780106=
201407040653 METAR KCLM 040653Z AUTO 28007KT 10SM CLR 11/08 A3009 RMK AO2 SLP189 T01060083=
201407040553 METAR KCLM 040553Z AUTO 28007KT 10SM CLR 12/09 A3010 RMK AO2 SLP192 T01220094 10172 20117 58001=
201407040453 METAR KCLM 040453Z AUTO 28008KT 10SM BKN036 13/09 A3010 RMK AO2 SLP194 T01330089=
201407040353 METAR KCLM 040353Z AUTO 28009KT 10SM OVC037 15/08 A3010 RMK AO2 SLP194 T01500083=
201407040253 METAR KCLM 040253Z AUTO 29009KT 10SM OVC049 16/08 A3010 RMK AO2 SLP193 T01610083 56005=
201407040153 METAR KCLM 040153Z AUTO 29011KT 10SM FEW039 OVC047 16/08 A3010 RMK AO2 SLP193 T01610083=
201407040053 METAR KCLM 040053Z AUTO 30006KT 10SM OVC036 17/08 A3011 RMK AO2 SLP194 T01670083=
201407032353 METAR KCLM 032353Z AUTO 32006KT 10SM BKN039 OVC047 17/09 A3012 RMK AO2 SLP198 T01670094 10178 20156 58003=
201407032253 METAR KCLM 032253Z AUTO 32007KT 10SM OVC040 16/09 A3012 RMK AO2 SLP200 T01610089=
201407032153 METAR KCLM 032153Z AUTO 31006KT 10SM OVC039 17/08 A3013 RMK AO2 SLP202 T01670083=
201407032053 METAR KCLM 032053Z AUTO 31006KT 10SM OVC033 17/09 A3013 RMK AO2 SLP202 T01670094 51007=
201407031953 METAR KCLM 031953Z AUTO 31007KT 10SM OVC032 16/10 A3012 RMK AO2 SLP200 T01610100=
201407031913 SPECI KCLM 031913Z AUTO 33007KT 10SM OVC031 16/09 A3012 RMK AO2 T01560094=
201407031853 METAR KCLM 031853Z AUTO 32005KT 10SM OVC029 16/11 A3011 RMK AO2 SLP197 T01560106=
201407031753 METAR KCLM 031753Z AUTO 31009KT 10SM OVC029 16/09 A3010 RMK AO2 SLP194 T01560094 10167 20133 53007=
201407031742 SPECI KCLM 031742Z AUTO 31007KT 10SM BKN029 OVC034 16/10 A3010 RMK AO2 T01610100=
201407031653 METAR KCLM 031653Z AUTO 31006KT 10SM OVC035 16/10 A3009 RMK AO2 SLP189 T01610100=
201407031553 METAR KCLM 031553Z AUTO 10SM FEW014 SCT026 OVC034 15/11 A3009 RMK AO2 SLP188 T01500111 $=
201407031515 SPECI KCLM 031515Z AUTO 30006KT 10SM BKN023 OVC040 15/11 A3009 RMK AO2 T01500111=
201407031453 METAR KCLM 031453Z AUTO 28006KT 10SM FEW010 OVC040 15/11 A3008 RMK AO2 SLP187 T01500111 53008=
201407031353 METAR KCLM 031353Z AUTO 10SM OVC043 13/11 A3007 RMK AO2 SLP183 T01330106 $=
201407031253 METAR KCLM 031253Z AUTO 26007KT 10SM OVC033 14/10 A3007 RMK AO2 SLP181 T01390100 $=
201407031153 METAR KCLM 031153Z AUTO 27005KT 10SM OVC027 13/11 A3006 RMK AO2 SLP178 T01330106 10133 20111 53007 $=
201407031053 METAR KCLM 031053Z AUTO 25005KT 10SM OVC026 13/11 A3005 RMK AO2 SLP175 T01330106 $=
201407030953 METAR KCLM 030953Z AUTO 28008KT 10SM OVC025 13/11 A3005 RMK AO2 SLP174 T01330106 $=
201407030909 SPECI KCLM 030909Z AUTO 29005KT 10SM OVC029 13/10 A3004 RMK AO2 T01330100 $=
201407030853 METAR KCLM 030853Z AUTO 27005KT 10SM OVC030 13/10 A3004 RMK AO2 SLP171 T01280100 51005 $=
201407030753 METAR KCLM 030753Z AUTO 29003KT 10SM CLR 11/09 A3003 RMK AO2 SLP169 T01110094 402000111 $=
201407030653 METAR KCLM 030653Z AUTO 22003KT 10SM CLR 12/09 A3003 RMK AO2 SLP168 T01170094 $=
201407030553 METAR KCLM 030553Z AUTO 28005KT 10SM CLR 12/09 A3002 RMK AO2 SLP166 T01220094 10178 20122 53009 $=
201407030453 METAR KCLM 030453Z AUTO 28008KT 10SM CLR 13/10 A3001 RMK AO2 SLP161 T01330100 $=
201407030353 METAR KCLM 030353Z AUTO 29007KT 10SM CLR 14/10 A3000 RMK AO2 SLP158 T01390100 $=
201407030253 METAR KCLM 030253Z AUTO 30009KT 10SM CLR 15/10 A2999 RMK AO2 SLP157 T01500100 53002=
201407030153 METAR KCLM 030153Z AUTO 31009KT 10SM CLR 17/11 A2998 RMK AO2 SLP153 T01670106=
201407030053 METAR KCLM 030053Z AUTO 31013G19KT 10SM CLR 17/11 A2998 RMK AO2 SLP152 T01720111=
201407022353 METAR KCLM 022353Z AUTO 30014G24KT 10SM CLR 18/11 A2999 RMK AO2 PK WND 32026/2316 SLP155 T01780111 10200 20178 53004=
201407022253 METAR KCLM 022253Z AUTO 31016G24KT 10SM CLR 19/11 A2998 RMK AO2 SLP152 T01890106=
201407022153 METAR KCLM 022153Z AUTO 31012G19KT 10SM CLR 19/11 A2998 RMK AO2 SLP149 T01940111=
201407022053 METAR KCLM 022053Z AUTO 31015G21KT 10SM CLR 19/12 A2998 RMK AO2 PK WND 29026/2015 SLP150 T01940117 52007=
201407021953 METAR KCLM 021953Z AUTO 31014G23KT 10SM CLR 19/12 A2997 RMK AO2 SLP146 T01890117=
201407021853 METAR KCLM 021853Z AUTO 31015G21KT 10SM CLR 19/11 A2997 RMK AO2 SLP146 T01890111=
201407021753 METAR KCLM 021753Z AUTO 30011KT 10SM CLR 18/11 A2996 RMK AO2 SLP142 T01780106 10178 20144 51009=
201407021653 METAR KCLM 021653Z AUTO 30010G21KT 10SM CLR 17/11 A2995 RMK AO2 SLP141 T01670111 $=
201407021553 METAR KCLM 021553Z AUTO 31009KT 10SM CLR 16/11 A2994 RMK AO2 SLP138 T01610111 $=
201407021453 METAR KCLM 021453Z AUTO 28009KT 10SM CLR 15/11 A2993 RMK AO2 SLP133 T01500111 51025 $=
201407021353 METAR KCLM 021353Z AUTO 31006KT 10SM CLR 15/10 A2991 RMK AO2 SLP127 T01500100 $=
201407021253 METAR KCLM 021253Z AUTO 28013G19KT 10SM CLR 16/10 A2988 RMK AO2 SLP118 T01560100 $=
201407021153 METAR KCLM 021153Z AUTO 29010G20KT 10SM CLR 17/10 A2985 RMK AO2 SLP108 T01670100 10200 20150 53017 $=
201407021053 METAR KCLM 021053Z AUTO 30011KT 10SM CLR 17/11 A2982 RMK AO2 SLP096 T01720106 $=
201407020953 METAR KCLM 020953Z AUTO 01005KT 10SM CLR 16/11 A2982 RMK AO2 SLP095 T01560106 $=
201407020853 METAR KCLM 020853Z AUTO 31006KT 10SM CLR 18/10 A2981 RMK AO2 SLP091 T01780100 53010 $=
201407020753 METAR KCLM 020753Z AUTO 29009KT 10SM CLR 18/10 A2979 RMK AO2 SLP087 T01780100 402830111=
201407020653 METAR KCLM 020653Z AUTO 30004KT 10SM CLR 18/11 A2978 RMK AO2 SLP083 T01780106=
201407020553 METAR KCLM 020553Z AUTO 32007KT 10SM CLR 20/12 A2977 RMK AO2 SLP081 T02000117 10283 20183 55002=
201407020453 METAR KCLM 020453Z AUTO 33005KT 10SM FEW100 21/13 A2977 RMK AO2 SLP080 T02110128=
201407020353 METAR KCLM 020353Z AUTO 23004KT 10SM CLR 24/13 A2977 RMK AO2 SLP079 T02390133=
201407020253 METAR KCLM 020253Z AUTO 23004KT 10SM CLR 25/13 A2978 RMK AO2 SLP082 T02500133 56013=
201407020153 METAR KCLM 020153Z AUTO 23004KT 10SM CLR 26/13 A2979 RMK AO2 SLP085 T02560133=
201407020053 METAR KCLM 020053Z AUTO 13004KT 10SM CLR 27/10 A2979 RMK AO2 SLP086 T02720100=
201407020000 METAR KCLM NIL=
201407012353 METAR KCLM 012353Z AUTO VRB03KT 10SM CLR 28/11 A2982 RMK AO2 SLP096 T02780111 10278 20211 58021=
201407012300 METAR KCLM NIL=
201407012253 METAR KCLM 012253Z AUTO 36005KT 10SM CLR 26/12 A2984 RMK AO2 SLP104 T02560122=
201407012200 METAR KCLM NIL=
201407012153 METAR KCLM 012153Z AUTO 07004KT 10SM CLR 26/12 A2986 RMK AO2 SLP111 T02610122=
201407012053 METAR KCLM 012053Z AUTO VRB05KT 10SM CLR 25/12 A2988 RMK AO2 SLP117 T02500117 58022=
201407011953 METAR KCLM 011953Z AUTO 08007KT 10SM CLR 23/12 A2990 RMK AO2 SLP124 T02330117=
201407011853 METAR KCLM 011853Z AUTO 09005KT 10SM CLR 22/12 A2993 RMK AO2 SLP134 T02220122=
201407011753 METAR KCLM 011753Z AUTO 10006KT 10SM CLR 21/12 A2994 RMK AO2 SLP139 T02110122 10211 20117 58012=
201407011653 METAR KCLM 011653Z AUTO 09005KT 10SM CLR 21/11 A2996 RMK AO2 SLP143 T02060111=
201407011553 METAR KCLM 011553Z AUTO 09007KT 10SM CLR 19/10 A2997 RMK AO2 SLP148 T01940100=
201407011453 METAR KCLM 011453Z AUTO VRB04KT 10SM CLR 21/09 A2998 RMK AO2 SLP151 T02060094 58005=
201407011353 METAR KCLM 011353Z AUTO VRB03KT 10SM CLR 17/11 A2999 RMK AO2 SLP153 T01670111=
201407011253 METAR KCLM 011253Z AUTO 23006KT 10SM CLR 13/09 A2999 RMK AO2 SLP155 T01280089=
201407011153 METAR KCLM 011153Z AUTO 22005KT 10SM CLR 13/09 A3000 RMK AO2 SLP157 T01330089 10150 20111 58012=
201407011053 METAR KCLM 011053Z AUTO 22003KT 10SM CLR 12/08 A3001 RMK AO2 SLP161 T01170083=
201407010953 METAR KCLM 010953Z AUTO 22003KT 10SM CLR 11/08 A3002 RMK AO2 SLP167 T01110083=
201407010853 METAR KCLM 010853Z AUTO 22003KT 10SM CLR 12/09 A3003 RMK AO2 SLP169 T01220089 58010=
201407010753 METAR KCLM 010753Z AUTO VRB03KT 10SM CLR 13/09 A3004 RMK AO2 SLP173 T01330089 402390100=
201407010653 METAR KCLM 010653Z AUTO 23006KT 10SM CLR 14/09 A3005 RMK AO2 SLP176 T01440094=
201407010553 METAR KCLM 010553Z AUTO 00000KT 10SM CLR 14/10 A3006 RMK AO2 SLP180 T01390100 10233 20133 56010=
201407010453 METAR KCLM 010453Z AUTO 00000KT 10SM CLR 15/10 A3008 RMK AO2 SLP184 T01500100=
201407010353 METAR KCLM 010353Z AUTO 08003KT 10SM CLR 18/10 A3007 RMK AO2 SLP184 T01830100=
201407010253 METAR KCLM 010253Z AUTO 00000KT 10SM CLR 22/08 A3009 RMK AO2 SLP189 T02220083 56018=
201407010153 METAR KCLM 010153Z AUTO 10004KT 10SM CLR 23/08 A3010 RMK AO2 SLP193 T02330078=
201407010053 METAR KCLM 010053Z AUTO 10005KT 10SM CLR 22/08 A3012 RMK AO2 SLP200 T02220083=

# No short TAF reports from KCLM in databse.

###################################
#  large TAF from KCLM
###################################
201407312320 TAF KCLM 312320Z 0100/0124 30009KT P6SM FEW250 FM010200 29012KT
                       P6SM SCT250 FM010800 27006KT P6SM SCT250
                       FM012000 30009KT P6SM SCT120 SCT250=
201407311735 TAF KCLM 311735Z 3118/0118 36003KT P6SM SKC FM312000 30010KT P6SM
                       SCT250 FM010200 29012KT P6SM SCT250 FM010800
                       27006KT P6SM SCT250=
201407311120 TAF KCLM 311120Z 3112/0112 00000KT P6SM SKC FM312000 30010KT P6SM
                       SCT250=
201407310520 TAF KCLM 310520Z 3106/0106 27012KT P6SM SKC FM310800 27007KT P6SM
                       SKC FM312000 30010KT P6SM SCT250=
201407302320 TAF KCLM 302320Z 3100/3124 31011KT P6SM SKC FM310200 29014KT P6SM
                       SKC FM310800 29005KT P6SM SKC FM312000 30009KT
                       P6SM SKC=
201407301720 TAF KCLM 301720Z 3018/3118 VRB05KT P6SM VCFG FEW001 FM302000 32008KT
                       P6SM SKC FM310200 29014KT P6SM SKC FM310800
                       30005KT P6SM SKC=
201407301546 TAF AMD KCLM 301546Z 3016/3112 29006KT P6SM BKN004 FM301730 32005KT
                       P6SM SCT010 FM302000 32008KT P6SM SKC FM310200
                       29014KT P6SM SKC FM310800 30005KT P6SM SKC=
201407301120 TAF KCLM 301120Z 3012/3112 31007KT P6SM SKC=
201407300520 TAF KCLM 300520Z 3006/3106 30012KT P6SM VCFG SKC
                      TEMPO 3009/3012 2SM BR BKN002 FM301200 28006KT
                       1SM BR OVC002 FM301600 32006KT P6SM SCT005
                       FM301900 32008KT P6SM SKC=
201407292326 TAF KCLM 292326Z 3000/3024 31010KT P6SM SKC FM300200 29012G22KT
                       P6SM SKC FM300600 27008KT P6SM VCFG SCT002
                       FM301200 28006KT 1SM BR OVC002 FM301700
                       32006KT P6SM SCT008 FM301900 32009KT P6SM
                       SKC=
201407291739 TAF KCLM 291739Z 2918/3018 33006KT P6SM SKC FM300000 28012G20KT
                       P6SM SKC FM300600 27008KT P6SM VCFG SCT002
                       FM301200 28006KT 1SM BR OVC002 FM301700
                       32006KT P6SM SCT008=
201407291404 TAF AMD KCLM 291404Z 2914/3012 30007KT P6SM VCFG SKC
                      TEMPO 2914/2916 1SM BR BKN001 FM291800 33008KT
                       P6SM SKC=
201407291120 TAF KCLM 291120Z 2912/3012 30007KT P6SM VCFG SKC
                      TEMPO 2912/2914 2SM BR SCT002 FM291800 33008KT
                       P6SM SKC=
201407290520 TAF KCLM 290520Z 2906/3006 30005KT P6SM VCFG SKC
                      TEMPO 2910/2914 2SM BR SCT002 FM291800 33008KT
                       P6SM SKC=
201407282320 TAF KCLM 282320Z 2900/2924 33008KT P6SM SKC FM290300 29012KT P6SM
                       SKC FM291100 26005KT P6SM VCFG SKC FM291700
                       32005KT P6SM SKC FM292000 33008KT P6SM SKC=
201407281726 TAF KCLM 281726Z 2818/2918 00000KT P6SM SKC FM282100 31008KT P6SM
                       SKC FM290300 29012KT P6SM SKC FM291100 28006KT
                       P6SM SKC=
201407281127 TAF KCLM 281127Z 2812/2912 28006KT P6SM SKC FM281800 32008KT P6SM
                       FEW200 FM290300 28008KT P6SM SKC=
201407280534 TAF KCLM 280534Z 2806/2906 28006KT P6SM SKC FM281800 32008KT P6SM
                       FEW200 FM290300 28008KT P6SM SKC=
201407272323 TAF KCLM 272323Z 2800/2824 30007KT P6SM SKC FM280300 29009KT P6SM
                       FEW250 FM281100 31004KT P6SM SKC FM282200
                       30008KT P6SM SKC=
201407271722 TAF KCLM 271722Z 2718/2818 33005KT P6SM SKC FM280100 29009KT P6SM
                       FEW250 FM281100 31004KT P6SM SKC=
201407271120 TAF KCLM 271120Z 2712/2812 29006KT P6SM SKC FM271800 33009KT P6SM
                       FEW250 FM280600 29007KT P6SM SKC=
201407270544 TAF KCLM 270544Z 2706/2806 29008KT P6SM SKC FM270800 25005KT P6SM
                       SKC FM272100 32009KT P6SM SKC=
201407262322 TAF KCLM 262322Z 2700/2724 32010KT P6SM SKC FM270800 25005KT P6SM
                       SKC FM272100 32009KT P6SM SKC=
201407261721 TAF KCLM 261721Z 2618/2718 VRB04KT P6SM SKC FM262300 30009KT P6SM
                       SKC FM270600 25005KT P6SM SKC=
201407261406 TAF AMD KCLM 261406Z 2614/2712 26006KT P6SM SCT025 FM261800 34007KT
                       P6SM FEW025 FM262200 33009KT P6SM SKC FM270600
                       28005KT P6SM SKC=
201407261127 TAF KCLM 261127Z 2612/2712 24006KT P6SM SKC FM261400 28004KT P6SM
                       BKN020 FM261800 34008KT P6SM FEW025 FM262100
                       33008KT P6SM SKC FM270600 28005KT P6SM SKC=
201407260540 TAF KCLM 260540Z 2606/2706 28009KT P6SM SKC FM261000 28005KT P6SM
                       SCT015 FM261200 26004KT 5SM BR BKN010 FM261800
                       VRB04KT P6SM FEW025 FM262100 33008KT P6SM
                       SKC=
201407252320 TAF KCLM 252320Z 2600/2624 32007KT P6SM FEW035 FM260300 29009KT
                       P6SM SCT050 FM260900 28005KT P6SM SCT015
                       FM261100 26004KT P6SM BKN010 FM261900 VRB04KT
                       P6SM FEW025=
201407252001 TAF AMD KCLM 252001Z 2520/2618 02005KT P6SM BKN040 FM252200 31005KT
                       P6SM SCT045 FM260300 28008KT P6SM SCT050
                       FM261200 28004KT P6SM SCT015
                      TEMPO 2613/2617 5SM BR BKN010 FM261700 VRB04KT
                       P6SM FEW025=
201407251731 TAF KCLM 251731Z 2518/2618 34005KT P6SM FEW035 FM252200 31005KT
                       P6SM FEW050 FM260300 28008KT P6SM FEW060
                       FM261200 28004KT P6SM SCT015
                      TEMPO 2613/2617 5SM BR BKN010 FM261700 VRB04KT
                       P6SM FEW025=
201407251508 TAF AMD KCLM 251508Z 2515/2612 12003KT P6SM SKC FM251700 VRB04KT
                       P6SM FEW040 FM252200 31005KT P6SM FEW250
                       FM260300 28008KT P6SM SCT060=
201407251124 TAF KCLM 251124Z 2512/2612 25003KT P6SM OVC045 FM251400 29003KT
                       P6SM BKN025 FM251800 33005KT P6SM BKN050
                       FM252000 34006KT P6SM SCT250 FM260600 29005KT
                       P6SM SCT060=
201407250907 TAF AMD KCLM 250907Z 2509/2606 28006KT P6SM OVC050 FM251200 28003KT
                       P6SM BKN025 OVC050 FM251400 29003KT P6SM
                       BKN015 OVC025 FM251800 33005KT P6SM BKN050
                       FM252000 34006KT P6SM SCT250=
201407250539 TAF KCLM 250539Z 2506/2606 27005KT P6SM SCT015 OVC045 FM250800
                       29006KT P6SM BKN025 OVC045 FM251200 29003KT
                       P6SM BKN015 OVC025 FM251800 33005KT P6SM
                       BKN050 FM252000 34006KT P6SM SCT250=
201407242326 TAF KCLM 242326Z 2500/2524 29014G22KT P6SM SCT070 BKN200 FM250400
                       29006KT P6SM OVC050 FM251900 34005KT P6SM
                       SCT250=
201407241724 TAF KCLM 241724Z 2418/2518 30013G19KT P6SM OVC100 FM250500 27004KT
                       P6SM OVC015=
201407241132 TAF KCLM 241132Z 2412/2512 23004KT P6SM SCT060 OVC070 FM241400
                       24008KT P6SM VCSH OVC030 FM241800 31010KT
                       P6SM OVC025 FM250000 30014KT P6SM OVC050
                       FM250600 27008KT P6SM BKN030=
201407240937 TAF AMD KCLM 240937Z 2410/2506 23004KT P6SM SCT060 OVC070 FM241200
                       24005KT P6SM VCSH BKN025 FM241500 27006KT
                       P6SM VCSH OVC015 FM241800 31008KT P6SM OVC025
                       FM250000 30012KT P6SM OVC050=
201407240538 TAF KCLM 240538Z 2406/2506 12005KT P6SM BKN035 OVC070 FM240900
                       23005KT P6SM VCSH BKN025 FM241200 27006KT
                       P6SM VCSH OVC015 FM241800 31008KT P6SM OVC025
                       FM250000 30012KT P6SM OVC050=
201407232322 TAF KCLM 232322Z 2400/2424 27004KT P6SM -RA SCT025 BKN035 OVC050
                       FM240500 27003KT P6SM VCSH OVC015 FM241800
                       31008KT P6SM OVC025=
201407231728 TAF KCLM 231728Z 2318/2418 33004KT P6SM FEW015 SCT020 BKN080
                      TEMPO 2318/2322 -SHRA BKN015 OVC080 FM232200
                       VRB03KT P6SM -SHRA SCT015 OVC030 FM240200
                       28008KT P6SM SCT020 BKN030 OVC045=
201407231132 TAF KCLM 231132Z 2312/2412 VRB03KT P6SM -SHRA BKN040 OVC070 FM231900
                       VRB03KT P6SM -SHRA BKN015 OVC030 FM240200
                       28008KT P6SM SCT020 BKN030 OVC045=
201407230538 TAF KCLM 230538Z 2306/2406 VRB03KT P6SM BKN100 BKN200 FM231500
                       VRB03KT P6SM -SHRA BKN040 OVC070 FM231800
                       VRB03KT P6SM -SHRA BKN015 OVC030 FM240200
                       28008KT P6SM SCT020 BKN030 OVC045=
201407222320 TAF KCLM 222320Z 2300/2324 VRB03KT P6SM SCT030 SCT100 FM230700
                       VRB03KT P6SM BKN020 OVC070 FM231700 32005KT
                       P6SM -SHRA BKN010 OVC030=
201407221720 TAF KCLM 221720Z 2218/2318 VRB03KT P6SM BKN030 BKN100 FM230700
                       VRB03KT P6SM BKN020 OVC070 FM231700 32005KT
                       P6SM -SHRA BKN010 OVC030=
201407221128 TAF KCLM 221128Z 2212/2312 26006KT P6SM BKN030 FM221600 VRB03KT
                       P6SM BKN100 BKN200 FM230700 VRB03KT P6SM
                       BKN050 OVC070=
201407220528 TAF KCLM 220528Z 2206/2306 26006KT P6SM SCT200 FM222100 33006KT
                       P6SM SCT120 BKN200=
201407212320 TAF KCLM 212320Z 2200/2224 33008KT P6SM SCT060 FM220400 30004KT
                       P6SM BKN060=
201407211720 TAF KCLM 211720Z 2118/2218 33008KT P6SM SCT060 FM220400 30004KT
                       P6SM BKN060=
201407211134 TAF KCLM 211134Z 2112/2212 VRB03KT P6SM SCT050 FM211500 VRB03KT
                       P6SM BKN050 FM212000 30008KT P6SM SCT060=
201407210534 TAF KCLM 210534Z 2106/2206 29008KT P6SM SCT050 FM211000 27005KT
                       P6SM BKN012 OVC020 FM211700 33005KT P6SM
                       SCT015 BKN030 FM212000 33007KT P6SM SCT060=
201407202320 TAF KCLM 202320Z 2100/2124 30010KT P6SM SCT025 BKN040 OVC060 FM210600
                       29008KT P6SM BKN020 OVC050 FM211200 27005KT
                       P6SM BKN012 OVC020 FM211800 33005KT P6SM
                       SCT015 BKN030 FM212000 33007KT P6SM SCT035
                       SCT060=
201407201723 TAF KCLM 201723Z 2018/2118 30008KT P6SM OVC050 FM202000 29008KT
                       P6SM FEW010 SCT035 BKN060 FM211000 29008KT
                       P6SM BKN011=
201407201603 TAF AMD KCLM 201603Z 2016/2112 31010KT P6SM FEW010 OVC060 FM202000
                       29008KT P6SM FEW010 SCT035 BKN050
                      TEMPO 2021/2101 FEW010 BKN035 OVC050 FM211000
                       29008KT P6SM BKN011=
201407201127 TAF KCLM 201127Z 2012/2112 27008KT P6SM SCT008 OVC040 FM201600
                       27008KT P6SM OVC008 FM202000 29008KT P6SM
                       SCT010 BKN025 BKN050 FM202200 29008KT P6SM
                       SCT030 BKN050 FM211000 29008KT P6SM BKN011=
201407200536 TAF KCLM 200536Z 2006/2106 29008KT P6SM BKN012 OVC022
                      TEMPO 2006/2010 SCT012 OVC022 FM201900 32006KT
                       P6SM BKN025 BKN050 FM202100 32008KT P6SM
                       SCT030 BKN050=
201407192320 TAF KCLM 192320Z 2000/2024 29008KT P6SM OVC015 FM201900 32006KT
                       P6SM BKN025 BKN050 FM202100 32008KT P6SM
                       SCT030 BKN050=
201407191720 TAF KCLM 191720Z 1918/2018 33007KT P6SM SCT007 BKN015 OVC040
                      TEMPO 1918/1921 OVC007 FM192100 28012KT P6SM
                       SCT015 BKN025 OVC040 FM200700 28008KT P6SM
                       BKN015 OVC025=
201407191138 TAF KCLM 191138Z 1912/2012 28008KT P6SM OVC008 FM191800 28008KT
                       P6SM SCT008 BKN015 OVC030 FM192100 28012KT
                       P6SM SCT015 BKN025 OVC040 FM200700 28008KT
                       P6SM BKN015 OVC025=
201407190911 TAF AMD KCLM 190911Z 1909/2006 28008KT P6SM OVC006 FM191800 28008KT
                       P6SM SCT006 BKN015 OVC030 FM192100 28008KT
                       P6SM SCT015 BKN025 OVC040=
201407190526 TAF KCLM 190526Z 1906/2006 29008KT P6SM BKN050 BKN100 FM191000
                       28008KT P6SM BKN015 OVC050 FM191900 28008KT
                       P6SM BKN025 BKN060=
201407182324 TAF KCLM 182324Z 1900/1924 29012KT P6SM BKN250 FM190800 28008KT
                       P6SM BKN015 OVC050
                      PROB30 1914/1920 -SHRA FM192100 31006KT P6SM
                       BKN025 BKN060=
201407181722 TAF KCLM 181722Z 1818/1918 31008KT P6SM BKN250 FM190000 29012KT
                       P6SM BKN080 OVC150 FM190800 28008KT P6SM
                       BKN015 OVC050
                      PROB30 1912/1918 -SHRA=
201407181120 TAF KCLM 181120Z 1812/1912 28005KT P6SM SCT011
                      TEMPO 1813/1817 BKN011 FM181800 29008KT P6SM
                       BKN120 OVC250 FM190000 29010KT P6SM OVC080
                       FM190600 29010KT P6SM -RA OVC060 FM190800
                       28008KT P6SM -RA BKN012 OVC050=
201407180520 TAF KCLM 180520Z 1806/1906 30008KT P6SM SCT250 FM181100 28004KT
                       P6SM BKN004 FM182000 29008KT P6SM BKN120
                       OVC250 FM190000 29010KT P6SM OVC080 FM190400
                       29010KT P6SM -RA OVC060=
201407172330 TAF KCLM 172330Z 1800/1824 35005KT P6SM SCT250 FM180300 28010KT
                       P6SM SCT250 FM181000 28004KT P6SM BKN004
                       FM182000 29012KT P6SM BKN120 OVC250=
201407171725 TAF KCLM 171725Z 1718/1818 VRB03KT P6SM SCT015 FM172000 29010KT
                       P6SM SCT250 FM181000 28004KT P6SM BKN004=
201407171520 TAF AMD KCLM 171520Z 1715/1812 00000KT P6SM OVC011 FM171800 33006KT
                       P6SM SCT020 SCT250 FM180100 29008KT P6SM
                       SCT250 FM180800 29006KT P6SM OVC012=
201407171132 TAF KCLM 171132Z 1712/1812 28006KT P6SM OVC006 FM171700 29006KT
                       P6SM BKN015 FM171800 33006KT P6SM SCT020
                       SCT250 FM180100 29008KT P6SM SCT250 FM180800
                       29006KT P6SM OVC012=
201407170708 TAF AMD KCLM 170708Z 1707/1806 30008KT P6SM OVC004 FM171100 28004KT
                       3SM BR OVC004 FM171700 29006KT P6SM BKN010
                       FM171800 33006KT P6SM SCT010 SCT250 FM180100
                       29008KT P6SM SCT250=
201407170522 TAF KCLM 170522Z 1706/1806 30008KT P6SM SKC FM171100 28004KT 3SM
                       BR OVC006 FM171900 33006KT P6SM SCT010 SCT250
                       FM180100 29008KT P6SM SCT250=
201407162325 TAF KCLM 162325Z 1700/1724 31008KT P6SM SKC FM170900 28005KT 3SM
                       BR OVC004 FM172100 33006KT P6SM SCT250=
201407161725 TAF KCLM 161725Z 1618/1718 VRB04KT P6SM SKC FM170000 29009KT P6SM
                       SKC FM170900 28005KT 3SM BR OVC004=
201407161120 TAF KCLM 161120Z 1612/1712 28005KT 5SM BR SCT002
                      TEMPO 1612/1616 00000KT 1/2SM FG OVC002 FM161600
                       VRB03KT P6SM BKN006 FM161800 VRB03KT P6SM
                       SKC FM170500 29006KT P6SM SCT004 FM170800
                       29007KT P6SM OVC004=
201407160921 TAF AMD KCLM 160921Z 1609/1706 28005KT 5SM BR OVC002
                      TEMPO 1609/1613 00000KT 1/2SM FG VV002 FM161600
                       VRB03KT P6SM SKC=
201407160850 TAF AMD KCLM 160850Z 1609/1706 28005KT 6SM BR OVC002
                      TEMPO 1610/1614 00000KT 2SM BR OVC002 FM161600
                       VRB03KT P6SM SKC=
201407160640 TAF AMD KCLM 160640Z 1607/1706 VRB03KT 2SM BR OVC002
                      TEMPO 1610/1614 1SM BR OVC002 FM161600 VRB03KT
                       P6SM SKC=
201407160542 TAF AMD KCLM 160542Z 1606/1706 30005KT P6SM OVC002 FM160800 VRB03KT
                       4SM BR BKN002
                      TEMPO 1611/1615 2SM BR OVC002 FM161600 VRB03KT
                       P6SM SKC=
201407160520 TAF KCLM 160520Z 1606/1706 30006KT P6SM SCT003 FM160800 29005KT
                       4SM BR BKN003
                      TEMPO 1612/1616 2SM BR OVC002 FM161600 VRB03KT
                       P6SM SKC=
201407152330 TAF KCLM 152330Z 1600/1624 30008KT P6SM SKC FM160900 29005KT 5SM
                       BR OVC004 FM161500 VRB03KT P6SM SKC=
201407151720 TAF KCLM 151720Z 1518/1618 01006KT P6SM SKC FM160000 31008KT P6SM
                       SKC FM160300 30007KT P6SM SKC FM160600 28008KT
                       P6SM SKC FM160900 29005KT 5SM BR OVC004
                       FM161600 30003KT P6SM SKC=
201407151610 TAF AMD KCLM 151610Z 1516/1612 31003KT P6SM SCT005 FM151800 30008KT
                       P6SM SKC FM160900 28005KT 5SM BR OVC004=
201407151500 TAF AMD KCLM 151500Z 1515/1612 30005KT P6SM OVC002 FM151700 30008KT
                       P6SM SCT010 FM151800 30008KT P6SM SKC FM160900
                       28005KT 5SM BR OVC004=
201407151321 TAF AMD KCLM 151321Z 1513/1612 29005KT 2SM BR OVC002
                      TEMPO 1513/1516 3/4SM BR OVC001 FM151700
                       30008KT P6SM SCT010 FM151800 30008KT P6SM
                       SKC FM160900 28005KT 5SM BR OVC004=
201407151247 TAF AMD KCLM 151247Z 1513/1612 30005KT 2SM BR OVC001 FM151700 30008KT
                       P6SM SCT010 FM151800 30008KT P6SM SKC FM160900
                       28005KT 5SM BR OVC004=
201407151120 TAF KCLM 151120Z 1512/1612 30004KT 5SM BR OVC004
                      TEMPO 1512/1516 VRB03KT 1/2SM FG OVC002 FM151700
                       30008KT P6SM SCT010 FM151800 30008KT P6SM
                       SKC FM160900 28005KT 5SM BR OVC004=
201407151013 TAF AMD KCLM 151013Z 1510/1606 30004KT 5SM BR OVC004
                      TEMPO 1512/1516 VRB03KT 1/2SM FG VV002 FM151700
                       30008KT P6SM FEW004=
201407150657 TAF AMD KCLM 150657Z 1507/1606 30010KT P6SM SCT002
                      TEMPO 1507/1510 1SM BR OVC002 FM151000 30008KT
                       2SM BR OVC004
                      TEMPO 1513/1516 VRB03KT 1/2SM FG VV002 FM151700
                       30008KT P6SM FEW004=
201407150520 TAF KCLM 150520Z 1506/1606 30010KT P6SM SCT004
                      TEMPO 1506/1510 OVC004 FM151000 30008KT 4SM
                       BR OVC004
                      TEMPO 1513/1516 VRB03KT 1/2SM FG VV002 FM151700
                       30008KT P6SM FEW004=
201407150410 TAF AMD KCLM 150410Z 1504/1524 30012KT P6SM SCT004
                      TEMPO 1504/1508 OVC004 FM150800 30008KT 4SM
                       BR OVC004
                      TEMPO 1514/1516 VRB03KT 1/2SM FG VV002 FM151700
                       30008KT P6SM SKC=
201407142320 TAF KCLM 142320Z 1500/1524 30008KT P6SM SKC FM151200 30006KT 3SM
                       BR SCT003
                      TEMPO 1514/1516 1/2SM FG VV002 FM151700 30008KT
                       P6SM SKC=
201407141722 TAF KCLM 141722Z 1418/1518 30008KT P6SM VCFG SCT010 FM142100 30010KT
                       P6SM SKC FM151200 30006KT 3SM BR SCT003
                       TEMPO 1514/1516 1/2SM FG VV002 FM151700
                       30008KT P6SM SKC=
201407141420 TAF AMD KCLM 141420Z 1414/1512 30006KT 6SM BR BKN004
                      TEMPO 1414/1417 2SM BR OVC002 FM141700 33008KT
                       P6SM SKC FM150600 28010KT P6SM BKN007=
201407141304 TAF AMD KCLM 141304Z 1413/1512 29006KT 4SM BR OVC002 FM141500 30006KT
                       5SM BR BKN004 FM141700 33008KT P6SM SKC
                       FM150600 28010KT P6SM BKN007=
201407141123 TAF KCLM 141123Z 1412/1512 29010KT P6SM BKN004 FM141700 33008KT
                       P6SM SKC FM150600 28010KT P6SM BKN007=
201407141001 TAF AMD KCLM 141001Z 1410/1506 29010KT P6SM BKN004 FM141700 33008KT
                       P6SM SKC=
201407140903 TAF AMD KCLM 140903Z 1409/1506 29013G23KT P6SM SCT004 FM141200
                       29010KT P6SM BKN004 FM141700 33008KT P6SM
                       SKC=
201407140704 TAF AMD KCLM 140704Z 1407/1506 28008KT P6SM OVC004 FM141700 33008KT
                       P6SM SKC=
201407140540 TAF KCLM 140540Z 1406/1506 30010KT P6SM BKN120 FM141100 26005KT
                       P6SM SCT007 BKN120 FM141700 33008KT P6SM
                       SKC=
201407132320 TAF KCLM 132320Z 1400/1424 30010KT P6SM BKN200 FM140500 30010KT
                       P6SM BKN120 FM141100 21005KT P6SM BKN003
                       TEMPO 1412/1416 1/2SM FG VV002 FM141700
                       33008KT P6SM SKC=
201407131720 TAF KCLM 131720Z 1318/1418 VRB03KT P6SM SCT150 FM140000 28010KT
                       P6SM BKN080 BKN150 FM140500 28012G20KT P6SM
                       SCT100 FM141100 21005KT P6SM BKN003
                      TEMPO 1412/1416 1/2SM FG VV002 FM141700 33008KT
                       P6SM SKC=
201407131509 TAF AMD KCLM 131509Z 1315/1412 30005KT P6SM VCFG SCT002
                      TEMPO 1315/1317 2SM BR BKN002 FM131700 30008KT
                       P6SM SCT150 FM140900 28007KT 3SM BR BKN003=
201407131120 TAF KCLM 131120Z 1312/1412 VRB04KT 2SM BR BKN002
                      TEMPO 1312/1316 1/2SM FG VV002 FM131700 30008KT
                       P6SM SCT150 FM140700 28007KT P6SM BKN007=
201407130727 TAF AMD KCLM 130727Z 1307/1406 VRB04KT 2SM BR BKN002
                      TEMPO 1312/1316 1/2SM FG VV002 FM131600 30008KT
                       P6SM SCT150=
201407130531 TAF KCLM 130531Z 1306/1406 30006KT P6SM SKC FM131000 VRB04KT 2SM
                       BR BKN002
                      TEMPO 1312/1316 1/2SM FG VV002 FM131600 30008KT
                       P6SM SCT150=
201407122320 TAF KCLM 122320Z 1300/1324 30010KT P6SM SKC FM131000 VRB04KT 2SM
                       BR BKN002
                      TEMPO 1312/1316 1/2SM FG VV002 FM131700 30008KT
                       P6SM SCT200=
201407121720 TAF KCLM 121720Z 1218/1318 VRB04KT P6SM SKC FM130000 28010KT P6SM
                       SKC FM131000 VRB04KT 2SM BR BKN002=
201407121150 TAF AMD KCLM 121150Z 1212/1312 29005KT 5SM BR VCFG SCT001
                      TEMPO 1212/1216 1SM BR OVC001 FM121700 31005KT
                       P6SM SKC=
201407121120 TAF KCLM 121120Z 1212/1312 29005KT P6SM VCFG SKC FM121700 31005KT
                       P6SM SKC=
201407120540 TAF KCLM 120540Z 1206/1306 29004KT P6SM SKC=
201407112320 TAF KCLM 112320Z 1200/1224 VRB04KT P6SM SKC=
201407111720 TAF KCLM 111720Z 1118/1218 VRB04KT P6SM SKC=
201407111408 TAF AMD KCLM 111408Z 1114/1212 VRB04KT P6SM SKC=
201407111122 TAF KCLM 111122Z 1112/1212 30005KT P6SM SKC
                      TEMPO 1113/1117 2SM BR SCT007 FM111700 VRB05KT
                       P6SM SKC=
201407110533 TAF KCLM 110533Z 1106/1206 30005KT P6SM SCT007
                      TEMPO 1113/1117 BKN007 FM111700 VRB05KT P6SM
                       SKC=
201407102320 TAF KCLM 102320Z 1100/1124 VRB05KT P6SM SKC=
201407101720 TAF KCLM 101720Z 1018/1118 09007KT P6SM SKC FM110000 28008KT P6SM
                       SKC=
201407101120 TAF KCLM 101120Z 1012/1112 32005KT P6SM SKC=
201407100531 TAF KCLM 100531Z 1006/1106 29004KT P6SM SKC FM101000 30006KT P6SM
                       SCT008 FM101700 35004KT P6SM SKC=
201407092329 TAF KCLM 092329Z 1000/1024 27004KT P6SM SKC FM101000 30006KT P6SM
                       OVC008 FM101700 27004KT P6SM SKC=
201407091741 TAF KCLM 091741Z 0918/1018 30005KT P6SM SKC FM101000 30006KT P6SM
                       OVC008 FM101700 27004KT P6SM SKC=
201407091120 TAF KCLM 091120Z 0912/1012 30007KT P6SM OVC003 FM091800 33009KT
                       P6SM SKC FM092300 29010KT P6SM SKC FM101000
                       28007KT P6SM OVC007=
201407090958 TAF AMD KCLM 090958Z 0910/1006 29008KT P6SM BKN004 FM091800 33009KT
                       P6SM SKC FM092300 29010KT P6SM SKC=
201407090520 TAF KCLM 090520Z 0906/1006 30009KT P6SM SKC FM091400 28007KT P6SM
                       BKN008 FM091800 33009KT P6SM SKC FM092300
                       29010KT P6SM SKC=
201407090306 TAF AMD KCLM 090306Z 0903/0924 29012KT P6SM SKC FM091400 30007KT
                       P6SM BKN008 FM091800 33009KT P6SM SKC=
201407090209 TAF AMD KCLM 090209Z 0902/0924 28013KT P6SM SKC FM091400 30007KT
                       P6SM BKN015 FM091800 33009KT P6SM SKC=
201407082335 TAF KCLM 082335Z 0900/0924 31009KT P6SM SKC FM091400 30007KT P6SM
                       BKN015 FM091800 33009KT P6SM SKC=
201407081730 TAF KCLM 081730Z 0818/0918 32004KT P6SM SKC FM091100 28007KT P6SM
                       OVC015 FM091600 31008KT P6SM BKN015 FM091700
                       32009KT P6SM SKC=
201407081501 TAF AMD KCLM 081501Z 0815/0912 00000KT P6SM SKC FM082100 32010KT
                       P6SM SKC FM090200 29010KT P6SM SKC FM091100
                       27005KT P6SM BKN009=
201407081332 TAF AMD KCLM 081332Z 0814/0912 30004KT 1/4SM FG VV002
                      TEMPO 0814/0817 4SM BR OVC004 FM081700 35005KT
                       P6SM FEW025 FM082100 32010KT P6SM SKC FM090200
                       29010KT P6SM SKC FM091100 27005KT P6SM BKN009=
201407081205 TAF AMD KCLM 081205Z 0812/0912 28003KT 4SM BR OVC002 FM081700 35005KT
                       P6SM FEW025 FM082100 32010KT P6SM SKC FM090200
                       29010KT P6SM SKC FM091100 27005KT P6SM BKN009=
201407081120 TAF KCLM 081120Z 0812/0912 29005KT P6SM VCFG BKN003 FM081700 35005KT
                       P6SM FEW025 FM082100 32010KT P6SM SKC FM090200
                       29010KT P6SM SKC FM091100 27005KT P6SM BKN009=
201407080520 TAF KCLM 080520Z 0806/0906 29005KT P6SM SKC FM081200 VRB03KT P6SM
                       VCFG BKN006 FM081700 35005KT P6SM FEW025
                       FM082100 32010KT P6SM SKC FM090200 29010KT
                       P6SM SKC=
201407072326 TAF KCLM 072326Z 0800/0824 31010KT P6SM FEW035 FM080200 28007KT
                       P6SM SKC FM081200 VRB03KT P6SM VCFG SCT003
                       FM081700 35005KT P6SM SCT030 FM082100 32010KT
                       P6SM SKC=
201407071729 TAF KCLM 071729Z 0718/0818 33004KT P6SM BKN025 FM072100 31010KT
                       P6SM SCT035 FM080200 28007KT P6SM SKC FM081200
                       VRB03KT P6SM VCFG SCT003=
201407071133 TAF AMD KCLM 071133Z 0712/0812 VRB03KT 2SM BR VV002
                      TEMPO 0712/0715 1/4SM FG FM071500 24005KT
                       6SM BR OVC007 FM071700 33004KT P6SM SCT025
                       FM072200 30010KT P6SM SKC FM080800 29004KT
                       5SM BR OVC005=
201407071120 TAF KCLM 071120Z 0712/0812 29003KT 4SM BR OVC002
                      TEMPO 0712/0714 1SM BR FM071500 24005KT 6SM
                       BR OVC007 FM071700 33004KT P6SM SCT025 FM072200
                       30010KT P6SM SKC FM080800 29004KT 5SM BR
                       OVC005=
201407070935 TAF AMD KCLM 070935Z 0710/0806 27003KT 4SM BR OVC002
                      TEMPO 0710/0714 1SM BR FM071500 24005KT 4SM
                       BR OVC007 FM071700 33004KT P6SM SCT025 FM072200
                       30010KT P6SM SKC=
201407070858 TAF AMD KCLM 070858Z 0709/0806 24003KT 4SM BR OVC002 FM071500 24005KT
                       4SM BR OVC007 FM071700 33004KT P6SM SCT025
                       FM072200 30010KT P6SM SKC=
201407070800 TAF AMD KCLM 070800Z 0708/0806 24005KT 1SM BR OVC002 FM071500 24005KT
                       4SM BR OVC007 FM071700 33004KT P6SM SCT025
                       FM072200 30010KT P6SM SKC=
201407070659 TAF AMD KCLM 070659Z 0707/0806 00000KT 5SM BR OVC002 FM071700 33004KT
                       P6SM SCT025 FM072200 30010KT P6SM SKC=
201407070524 TAF KCLM 070524Z 0706/0806 00000KT P6SM BKN030 FM071000 26004KT
                       5SM BR BKN009 FM071700 33004KT P6SM SCT025
                       FM072200 30010KT P6SM SKC=
201407062324 TAF KCLM 062324Z 0700/0724 29006KT P6SM BKN070 FM071000 26004KT
                       P6SM BKN010 FM071700 33004KT P6SM SCT200=
201407061720 TAF KCLM 061720Z 0618/0718 VRB04KT P6SM BKN060 BKN100 FM070200
                       29006KT P6SM BKN050 OVC070 FM071200 26004KT
                       P6SM BKN015 OVC050 FM071700 VRB04KT P6SM
                       SCT030=
201407061120 TAF KCLM 061120Z 0612/0712 00000KT P6SM OVC060 FM062200 29006KT
                       P6SM SCT060 BKN120=
201407060527 TAF KCLM 060527Z 0606/0706 23003KT P6SM SCT050 OVC090
                      TEMPO 0606/0610 -RA FM061000 VRB03KT P6SM
                       BKN050 OVC080
                      TEMPO 0610/0614 -RA FM061400 VRB03KT P6SM
                       BKN035 OVC070
                      TEMPO 0614/0618 -RA FM061800 33003KT P6SM
                       BKN035 OVC070
                      PROB30 0618/0624 -RA FM070000 29007KT P6SM
                       BKN050 OVC080
                      PROB30 0700/0704 -RA=
201407052324 TAF KCLM 052324Z 0600/0624 32005KT P6SM VCSH BKN050 OVC070 FM061000
                       VRB03KT P6SM -RA BKN010 OVC030 FM061800
                       33003KT P6SM SCT015 OVC030=
201407051720 TAF KCLM 051720Z 0518/0618 VRB03KT P6SM VCSH BKN060 OVC100 FM052300
                       32005KT P6SM VCSH BKN050 OVC070=
201407051513 TAF AMD KCLM 051513Z 0515/0612 00000KT P6SM BKN070 OVC100
                      TEMPO 0516/0519 -SHRA BKN050 OVC100 FM051900
                       33005KT P6SM VCSH SCT030 BKN050 OVC100 FM052200
                       29005KT P6SM BKN030 OVC050
                      PROB30 0601/0606 -RA=
201407051233 TAF AMD KCLM 051233Z 0513/0612 00000KT 6SM BR VCSH OVC070
                      TEMPO 0513/0517 4SM -RA BR OVC050 FM051800
                       33005KT P6SM BKN030 OVC050 FM052200 29005KT
                       P6SM BKN030 OVC050
                      PROB30 0600/0606 -RA=
201407051120 TAF KCLM 051120Z 0512/0612 00000KT P6SM OVC080 FM051800 33005KT
                       P6SM BKN030 OVC050 FM052200 29005KT P6SM
                       BKN030 OVC050
                      PROB30 0600/0606 -RA=
201407050531 TAF KCLM 050531Z 0506/0606 00000KT P6SM FEW002 BKN080 FM051200
                       27004KT P6SM BKN050 OVC080 FM051800 33005KT
                       P6SM BKN030 OVC050
                      PROB30 0518/0524 -RA FM060000 29005KT P6SM
                       BKN030 OVC050
                      PROB30 0600/0606 -RA=
201407050107 TAF AMD KCLM 050107Z 0501/0524 29008KT P6SM -RA SCT060 OVC100
                      TEMPO 0501/0503 -RA OVC060 FM050300 28007KT
                       P6SM BKN060 OVC100 FM051200 27004KT P6SM
                       BKN050 OVC080 FM051800 33005KT P6SM BKN030
                       OVC050
                      PROB30 0518/0524 -RA=
201407042322 TAF KCLM 042322Z 0500/0524 29009KT P6SM OVC100 FM050300 28007KT
                       P6SM BKN070 OVC100 FM051200 27004KT P6SM
                       BKN050 OVC080
                      PROB30 0512/0518 -RA FM051800 33005KT P6SM
                       BKN030 OVC050
                      PROB30 0518/0524 -RA=
201407041720 TAF KCLM 041720Z 0418/0518 33007KT P6SM BKN150 FM050000 29009KT
                       P6SM BKN100 OVC150 FM051000 29005KT P6SM
                       BKN050 OVC080=
201407041259 TAF AMD KCLM 041259Z 0413/0512 25005KT P6SM SCT250 FM041900 33005KT
                       P6SM SCT050 BKN250 FM042300 29006KT P6SM
                       SCT040 BKN120=
201407041120 TAF KCLM 041120Z 0412/0512 27005KT P6SM BKN045 FM041900 33005KT
                       P6SM SCT050 BKN250 FM042300 29006KT P6SM
                       SCT040 BKN120=
201407041004 TAF AMD KCLM 041004Z 0410/0506 24003KT P6SM FEW050 FM041200 24003KT
                       P6SM BKN050 FM041900 33005KT P6SM SCT025
                       BKN250 FM042300 29006KT P6SM SCT040 BKN120=
201407040520 TAF KCLM 040520Z 0406/0506 28008KT P6SM BKN035 FM041000 28006KT
                       P6SM OVC020 FM041900 33005KT P6SM SCT025
                       BKN250 FM042300 29006KT P6SM SCT040 BKN120=
201407032320 TAF KCLM 032320Z 0400/0424 31010KT P6SM BKN040 BKN200 FM040300
                       29008KT P6SM SCT040 BKN200 FM041200 28007KT
                       P6SM BKN015 FM041800 33005KT P6SM SCT020
                       SCT200=
201407031741 TAF KCLM 031741Z 0318/0418 31008KT P6SM BKN035 FM032100 31010KT
                       P6SM BKN050 FM040100 29010KT P6SM SCT050
                       FM041200 28004KT P6SM BKN015=
201407031416 TAF AMD KCLM 031416Z 0314/0412 28008KT P6SM SCT025 BKN040 FM031800
                       31010KT P6SM BKN040 FM032000 32010KT P6SM
                       SCT200 FM041000 28006KT P6SM OVC025=
201407031120 TAF KCLM 031120Z 0312/0412 28008KT P6SM OVC025 FM031800 31010KT
                       P6SM BKN030 FM032000 32010KT P6SM FEW035
                       SCT200 FM041000 28006KT P6SM OVC025=
201407030857 TAF AMD KCLM 030857Z 0309/0406 27005KT P6SM OVC025 FM031700 31010KT
                       P6SM BKN030 FM031900 32010KT P6SM FEW035
                       SCT200=
201407030520 TAF KCLM 030520Z 0306/0406 28008KT P6SM SKC FM030900 29008KT P6SM
                       OVC012 FM031200 27008KT P6SM OVC006 FM031600
                       31010KT P6SM BKN015 FM031900 32010KT P6SM
                       FEW025 SCT200=
201407022348 TAF KCLM 022348Z 0300/0324 30012G22KT P6SM SCT200 FM030900 29010KT
                       P6SM OVC012 FM031200 27010KT P6SM OVC006
                       FM031600 29007KT P6SM BKN015 FM031900 32007KT
                       P6SM SCT200=
201407021737 TAF KCLM 021737Z 0218/0318 30012G22KT P6SM SCT200 FM030900 29010KT
                       P6SM OVC012 FM031200 27010KT P6SM OVC005
                       FM031600 29007KT P6SM BKN015=
201407021615 TAF AMD KCLM 021615Z 0216/0312 29010KT P6SM SCT200 FM021800 29012G18KT
                       P6SM SCT200 FM030900 29006KT P6SM OVC012=
201407021120 TAF KCLM 021120Z 0212/0312 28008KT P6SM BKN200 FM021400 29010KT
                       P6SM FEW010 BKN200
                      TEMPO 0214/0218 BKN010 BKN200 FM021800 29012G18KT
                       P6SM FEW050 SCT100 FM030900 29006KT P6SM
                       OVC012=
201407020520 TAF KCLM 020520Z 0206/0306 23004KT P6SM FEW050 SCT250 FM021200
                       28008KT P6SM FEW010 SCT250
                      TEMPO 0212/0216 BKN010 BKN250 FM021700 29012G18KT
                       P6SM FEW050 SCT100=
201407012320 TAF KCLM 012320Z 0200/0224 09006KT P6SM SCT250 FM020300 29005KT
                       P6SM SCT250 FM021200 30012KT P6SM FEW010
                       BKN250 FM021700 30014G25KT P6SM BKN015 BKN250=
201407011720 TAF KCLM 011720Z 0118/0218 09006KT P6SM SCT250 FM020300 29005KT
                       P6SM SCT250 FM021200 30012KT P6SM FEW010
                       BKN250 FM021700 30014G25KT P6SM BKN015 BKN250=
201407011120 TAF KCLM 011120Z 0112/0212 22003KT P6SM SKC FM011500 07005KT P6SM
                       SCT250 FM020300 29005KT P6SM SCT250=
201407010523 TAF KCLM 010523Z 0106/0206 23003KT P6SM FEW250 FM011500 07005KT
                       P6SM SCT250 FM020300 29005KT P6SM SCT250=