##########################################################
# Query made at 02/16/2025 02:54:18 UTC
# Time interval: from 04/01/2015 00:00  to 04/30/2015 23:59  UTC
##########################################################

##########################################################
# KCLM, Port Angeles, William R. Fairchild International Airport (United States)
# WMO index: -----. WIGOS ID: Unknown
# Latitude 48-07-20N. Longitude 123-30-19W. Altitude 87 m.
##########################################################

###################################
#  METAR/SPECI from KCLM
###################################
201504302353 METAR KCLM 302353Z AUTO 35003KT 10SM OVC049 12/07 A3023 RMK AO2 SLP236 T01220067 10150 20117 58018=
201504302253 METAR KCLM 302253Z AUTO VRB03KT 10SM OVC049 13/06 A3025 RMK AO2 SLP244 T01330056=
201504302153 METAR KCLM 302153Z AUTO VRB04KT 10SM BKN050 14/07 A3027 RMK AO2 SLP250 T01440072=
201504302053 METAR KCLM 302053Z AUTO VRB03KT 10SM BKN055 14/07 A3028 RMK AO2 SLP254 T01390072 58007=
201504301953 METAR KCLM 301953Z AUTO 04004KT 10SM OVC060 13/07 A3029 RMK AO2 SLP259 T01330067=
201504301853 METAR KCLM 301853Z AUTO 03007KT 10SM SCT060 12/06 A3030 RMK AO2 SLP260 T01220056=
201504301753 METAR KCLM 301753Z AUTO 36006KT 10SM CLR 12/05 A3030 RMK AO2 SLP262 T01220050 10122 20061 58002=
201504301653 METAR KCLM 301653Z AUTO 36003KT 10SM FEW070 12/05 A3031 RMK AO2 SLP264 T01170050=
201504301553 METAR KCLM 301553Z AUTO 29005KT 10SM OVC065 11/04 A3031 RMK AO2 SLP264 T01110039=
201504301453 METAR KCLM 301453Z AUTO 25004KT 10SM SCT045 09/04 A3031 RMK AO2 SLP264 T00890039 53003=
201504301353 METAR KCLM 301353Z AUTO 20004KT 10SM OVC075 08/03 A3030 RMK AO2 SLP261 T00780028=
201504301253 METAR KCLM 301253Z AUTO 25009KT 10SM OVC075 07/03 A3029 RMK AO2 SLP258 T00720028=
201504301153 METAR KCLM 301153Z AUTO 25005KT 10SM BKN085 06/03 A3030 RMK AO2 SLP260 T00610028 10089 20050 50001=
201504301053 METAR KCLM 301053Z AUTO 22006KT 10SM CLR 06/03 A3030 RMK AO2 SLP261 T00560028=
201504300953 METAR KCLM 300953Z AUTO 24006KT 10SM CLR 06/03 A3029 RMK AO2 SLP259 T00560028=
201504300853 METAR KCLM 300853Z AUTO 24006KT 10SM CLR 07/03 A3029 RMK AO2 SLP259 T00720033 53009=
201504300753 METAR KCLM 300753Z AUTO 28007KT 10SM CLR 07/04 A3028 RMK AO2 SLP253 T00720039 401500028=
201504300653 METAR KCLM 300653Z AUTO 28008KT 10SM CLR 08/04 A3027 RMK AO2 SLP250 T00780044=
201504300553 METAR KCLM 300553Z AUTO 27009KT 10SM CLR 09/05 A3026 RMK AO2 SLP249 T00890050 10128 20083 51011=
201504300453 METAR KCLM 300453Z AUTO 29006KT 10SM BKN060 10/07 A3026 RMK AO2 SLP248 T01000067=
201504300353 METAR KCLM 300353Z AUTO 27004KT 10SM BKN044 OVC060 11/07 A3025 RMK AO2 SLP243 T01060067=
201504300253 METAR KCLM 300253Z AUTO 00000KT 10SM SCT047 OVC060 12/07 A3023 RMK AO2 SLP238 T01170072 58002=
201504300153 METAR KCLM 300153Z AUTO 33003KT 10SM SCT044 BKN055 12/07 A3023 RMK AO2 SLP239 T01170072=
201504300053 METAR KCLM 300053Z AUTO 31004KT 10SM OVC060 12/06 A3025 RMK AO2 SLP243 T01170056=
201504292353 METAR KCLM 292353Z AUTO 35004KT 10SM SCT080 BKN095 12/04 A3024 RMK AO2 SLP240 60000 T01220044 10150 20111 55003=
201504292253 METAR KCLM 292253Z AUTO VRB05KT 10SM FEW042 BKN050 BKN075 14/04 A3023 RMK AO2 RAE13 SLP238 P0000 T01390044=
201504292153 METAR KCLM 292153Z AUTO VRB05KT 10SM -RA FEW050 BKN060 BKN075 13/05 A3024 RMK AO2 RAB50 SLP242 P0000 T01330050=
201504292053 METAR KCLM 292053Z AUTO 02006KT 10SM FEW041 FEW050 SCT080 12/06 A3025 RMK AO2 SLP244 T01220061 55000=
201504291953 METAR KCLM 291953Z AUTO 04006KT 10SM FEW041 SCT055 13/06 A3024 RMK AO2 SLP242 T01330061=
201504291853 METAR KCLM 291853Z AUTO VRB05KT 10SM FEW070 12/07 A3025 RMK AO2 SLP244 T01220072=
201504291753 METAR KCLM 291753Z AUTO 10006KT 10SM CLR 13/05 A3025 RMK AO2 SLP244 T01280050 10128 20056 51008=
201504291653 METAR KCLM 291653Z AUTO VRB05KT 10SM FEW065 11/06 A3025 RMK AO2 SLP243 T01110056=
201504291553 METAR KCLM 291553Z AUTO 36003KT 10SM OVC060 09/04 A3024 RMK AO2 SLP242 T00890039=
201504291453 METAR KCLM 291453Z AUTO 00000KT 10SM BKN060 09/04 A3022 RMK AO2 SLP235 T00940039 53009=
201504291353 METAR KCLM 291353Z AUTO 24006KT 10SM FEW060 06/02 A3021 RMK AO2 SLP230 T00610022=
201504291253 METAR KCLM 291253Z AUTO 25007KT 10SM CLR 07/02 A3020 RMK AO2 SLP227 T00670022=
201504291153 METAR KCLM 291153Z AUTO 23005KT 10SM OVC060 06/03 A3020 RMK AO2 SLP226 70002 T00560033 10078 20028 51006=
201504291053 METAR KCLM 291053Z AUTO 22006KT 10SM FEW065 04/03 A3019 RMK AO2 SLP224 T00440028=
201504290953 METAR KCLM 290953Z AUTO 00000KT 10SM CLR 04/02 A3019 RMK AO2 SLP223 T00390022=
201504290853 METAR KCLM 290853Z AUTO 00000KT 10SM CLR 05/02 A3018 RMK AO2 SLP220 T00500022 53007=
201504290753 METAR KCLM 290753Z AUTO 28006KT 10SM CLR 07/03 A3017 RMK AO2 SLP216 T00670033 401390056=
201504290653 METAR KCLM 290653Z AUTO 29004KT 10SM CLR 06/04 A3016 RMK AO2 SLP214 T00610039=
201504290553 METAR KCLM 290553Z AUTO 27009KT 10SM CLR 08/04 A3016 RMK AO2 SLP213 T00780044 10133 20078 50005=
201504290453 METAR KCLM 290453Z AUTO 24005KT 10SM CLR 08/06 A3016 RMK AO2 SLP215 T00830056=
201504290353 METAR KCLM 290353Z AUTO 27007KT 10SM CLR 09/06 A3015 RMK AO2 SLP210 T00890056=
201504290253 METAR KCLM 290253Z AUTO 27010G14KT 10SM CLR 10/06 A3014 RMK AO2 SLP207 T01000056 53002=
201504290153 METAR KCLM 290153Z AUTO 28013G19KT 10SM CLR 12/05 A3013 RMK AO2 SLP204 T01170050=
201504290053 METAR KCLM 290053Z AUTO 30014G22KT 10SM CLR 12/05 A3013 RMK AO2 SLP204 T01220050=
201504282353 METAR KCLM 282353Z AUTO 31009G17KT 270V330 10SM CLR 13/05 A3013 RMK AO2 SLP204 60000 T01280050 10139 20100 51002=
201504282253 METAR KCLM 282253Z AUTO 30014G23KT 10SM FEW050 13/05 A3013 RMK AO2 SLP203 T01280050=
201504282153 METAR KCLM 282153Z AUTO 32010G21KT 10SM BKN060 13/07 A3014 RMK AO2 SLP205 T01280067=
201504282053 METAR KCLM 282053Z AUTO 31007KT 280V350 10SM OVC060 12/06 A3013 RMK AO2 RAB24E38 SLP203 P0000 60000 T01220061 53009=
201504281953 METAR KCLM 281953Z AUTO 31011KT 10SM OVC100 12/06 A3011 RMK AO2 SLP197 T01220056=
201504281853 METAR KCLM 281853Z AUTO 31009G18KT 10SM OVC065 12/06 A3010 RMK AO2 SLP194 T01170061=
201504281804 SPECI KCLM 281804Z AUTO 30012G20KT 10SM SCT008 OVC055 11/08 A3010 RMK AO2 T01060078=
201504281753 METAR KCLM 281753Z AUTO 31016G22KT 10SM BKN008 OVC055 10/08 A3010 RMK AO2 PK WND 30026/1711 SLP194 60002 T01000078 10133 20089 51019=
201504281727 SPECI KCLM 281727Z AUTO 31014G20KT 10SM FEW008 OVC050 10/08 A3010 RMK AO2 PK WND 30026/1711 T01000078=
201504281653 METAR KCLM 281653Z AUTO 30017G26KT 10SM OVC041 10/08 A3009 RMK AO2 PK WND 30026/1652 RAB28E37 SLP190 P0002 T01000078=
201504281631 SPECI KCLM 281631Z AUTO 31011KT 10SM -RA FEW006 OVC040 09/08 A3008 RMK AO2 RAB28 P0002 T00940078=
201504281616 SPECI KCLM 281616Z AUTO 30012G18KT 10SM BKN005 OVC038 09/08 A3008 RMK AO2 CIG 003V010 T00940078=
201504281553 METAR KCLM 281553Z AUTO 30014G24KT 6SM BR OVC003 09/08 A3007 RMK AO2 PK WND 30028/1517 SLP184 T00940078=
201504281546 SPECI KCLM 281546Z AUTO 30014G23KT 6SM BR OVC004 09/08 A3007 RMK AO2 PK WND 30028/1517 T00940083=
201504281516 SPECI KCLM 281516Z AUTO 30019G27KT 10SM OVC005 09/08 A3006 RMK AO2 PK WND 30027/1511 CIG 004V008 T00940078=
201504281453 METAR KCLM 281453Z AUTO 32013G22KT 8SM OVC004 10/08 A3004 RMK AO2 SLP174 T01000083 53030=
201504281427 SPECI KCLM 281427Z AUTO 33009G20KT 10SM FEW005 BKN008 OVC021 12/09 A3002 RMK AO2 CIG 008V012 T01170094=
201504281419 SPECI KCLM 281419Z AUTO 10SM FEW010 BKN021 BKN055 13/09 A3001 RMK AO2 PRESRR T01330094=
201504281353 METAR KCLM 281353Z AUTO 34008KT 10SM CLR 12/09 A2998 RMK AO2 SLP153 T01170089=
201504281253 METAR KCLM 281253Z AUTO 13007KT 10SM FEW085 10/08 A2996 RMK AO2 SLP146 T01000078=
201504281153 METAR KCLM 281153Z AUTO 28011G16KT 10SM SCT070 BKN085 13/09 A2995 RMK AO2 SLP142 T01330089 10133 20100 53008=
201504281053 METAR KCLM 281053Z AUTO 21004KT 10SM BKN070 OVC085 12/10 A2993 RMK AO2 SLP136 T01220100=
201504280953 METAR KCLM 280953Z AUTO 26006KT 10SM BKN085 12/10 A2993 RMK AO2 SLP135 T01220100=
201504280853 METAR KCLM 280853Z AUTO 29007KT 10SM FEW080 12/10 A2993 RMK AO2 SLP134 T01170100 53009=
201504280753 METAR KCLM 280753Z AUTO 24006KT 10SM FEW090 12/10 A2991 RMK AO2 SLP129 T01170100 401610083=
201504280653 METAR KCLM 280653Z AUTO 10SM CLR 11/09 A2989 RMK AO2 SLP122 T01060089=
201504280553 METAR KCLM 280553Z AUTO 00000KT 10SM CLR 10/09 A2990 RMK AO2 SLP126 T01000089 10161 20100 58026=
201504280453 METAR KCLM 280453Z AUTO 17003KT 10SM CLR 12/10 A2993 RMK AO2 SLP136 T01170100=
201504280353 METAR KCLM 280353Z AUTO 15004KT 10SM CLR 13/10 A2995 RMK AO2 SLP143 T01280100=
201504280253 METAR KCLM 280253Z AUTO 12007KT 10SM CLR 14/11 A2998 RMK AO2 SLP152 T01390106 58028=
201504280153 METAR KCLM 280153Z AUTO 10007KT 10SM CLR 16/11 A3000 RMK AO2 SLP161 T01560111=
201504280053 METAR KCLM 280053Z AUTO 10007KT 10SM CLR 16/11 A3004 RMK AO2 SLP171 T01610111=
201504272353 METAR KCLM 272353Z AUTO 10008KT 10SM CLR 16/11 A3006 RMK AO2 SLP180 T01610111 10161 20122 58037=
201504272253 METAR KCLM 272253Z AUTO 09003KT 10SM FEW085 15/09 A3010 RMK AO2 SLP195 T01500094=
201504272153 METAR KCLM 272153Z AUTO VRB03KT 10SM BKN090 14/07 A3014 RMK AO2 SLP208 T01440072=
201504272053 METAR KCLM 272053Z AUTO 34005KT 10SM FEW090 13/07 A3017 RMK AO2 SLP218 T01330067 58015=
201504271953 METAR KCLM 271953Z AUTO 03005KT 10SM CLR 14/06 A3018 RMK AO2 SLP222 T01440061=
201504271853 METAR KCLM 271853Z AUTO VRB05KT 10SM CLR 13/09 A3021 RMK AO2 SLP231 T01330094=
201504271753 METAR KCLM 271753Z AUTO VRB04KT 10SM CLR 13/07 A3021 RMK AO2 SLP232 60000 T01330067 10133 20089 58001=
201504271653 METAR KCLM 271653Z AUTO 33004KT 10SM FEW070 12/08 A3022 RMK AO2 SLP235 T01220078=
201504271553 METAR KCLM 271553Z AUTO 00000KT 10SM SCT100 11/08 A3023 RMK AO2 SLP239 T01110083=
201504271453 METAR KCLM 271453Z AUTO 00000KT 10SM FEW070 BKN095 11/07 A3022 RMK AO2 SLP234 60000 T01060067 55000=
201504271353 METAR KCLM 271353Z AUTO 00000KT 10SM FEW041 BKN080 OVC110 09/07 A3022 RMK AO2 SLP234 T00890072=
201504271253 METAR KCLM 271253Z AUTO 13003KT 10SM OVC075 09/07 A3022 RMK AO2 RAB10E53 SLP233 P0000 T00940067=
201504271153 METAR KCLM 271153Z AUTO 00000KT 10SM OVC060 09/07 A3022 RMK AO2 SLP234 60000 T00940067 10100 20083 57002=
201504271053 METAR KCLM 271053Z AUTO 00000KT 10SM OVC065 09/07 A3022 RMK AO2 RAE12 SLP234 P0000 T00890072=
201504270953 METAR KCLM 270953Z AUTO 00000KT 10SM -RA OVC070 09/07 A3022 RMK AO2 RAB44 SLP236 P0000 T00890067=
201504270853 METAR KCLM 270853Z AUTO 27003KT 10SM OVC070 09/06 A3022 RMK AO2 SLP236 T00890061 53004=
201504270753 METAR KCLM 270753Z AUTO 00000KT 10SM OVC100 09/06 A3022 RMK AO2 SLP233 T00890061 401170033=
201504270653 METAR KCLM 270653Z AUTO 00000KT 10SM OVC049 09/06 A3022 RMK AO2 SLP233 T00940061=
201504270553 METAR KCLM 270553Z AUTO 00000KT 10SM OVC050 09/06 A3021 RMK AO2 SLP232 T00940056 10117 20083 50012=
201504270453 METAR KCLM 270453Z AUTO 22004KT 10SM BKN055 OVC100 09/06 A3021 RMK AO2 SLP233 T00890056=
201504270353 METAR KCLM 270353Z AUTO 00000KT 10SM FEW075 BKN095 09/04 A3020 RMK AO2 SLP227 T00940044=
201504270253 METAR KCLM 270253Z AUTO 22004KT 10SM OVC055 11/03 A3018 RMK AO2 SLP220 T01110028 58004=
201504270153 METAR KCLM 270153Z AUTO 30003KT 10SM OVC055 11/04 A3018 RMK AO2 SLP222 T01110039=
201504270053 METAR KCLM 270053Z AUTO 00000KT 10SM OVC065 11/04 A3019 RMK AO2 SLP223 T01060044=
201504262353 METAR KCLM 262353Z AUTO 33004KT 10SM BKN060 OVC070 11/06 A3019 RMK AO2 RAB39E49 SLP224 P0000 60000 T01110056 10117 20094 50001=
201504262253 METAR KCLM 262253Z AUTO 35004KT 10SM OVC065 11/06 A3019 RMK AO2 SLP226 T01060056=
201504262153 METAR KCLM 262153Z AUTO VRB03KT 10SM SCT070 OVC100 11/06 A3019 RMK AO2 SLP226 T01060056=
201504262053 METAR KCLM 262053Z AUTO 35005KT 10SM BKN070 11/06 A3019 RMK AO2 SLP224 T01060056 51005=
201504261953 METAR KCLM 261953Z AUTO VRB05KT 10SM BKN080 11/07 A3019 RMK AO2 SLP223 T01060067=
201504261853 METAR KCLM 261853Z AUTO 30006KT 10SM SCT100 BKN120 10/06 A3019 RMK AO2 SLP224 T01000056=
201504261753 METAR KCLM 261753Z AUTO 26007KT 10SM FEW014 BKN100 10/07 A3017 RMK AO2 SLP219 T01000067 10100 20050 51014=
201504261653 METAR KCLM 261653Z AUTO 29006KT 10SM SCT013 BKN120 09/06 A3017 RMK AO2 SLP219 T00890056=
201504261553 METAR KCLM 261553Z AUTO 26004KT 10SM FEW012 08/04 A3014 RMK AO2 SLP210 T00830039=
201504261517 SPECI KCLM 261517Z AUTO 26005KT 10SM FEW009 08/04 A3014 RMK AO2 T00780039=
201504261453 METAR KCLM 261453Z AUTO 24003KT 10SM FEW120 07/04 A3013 RMK AO2 SLP205 T00670039 53007=
201504261353 METAR KCLM 261353Z AUTO 21003KT 10SM CLR 06/03 A3012 RMK AO2 SLP201 T00610028=
201504261253 METAR KCLM 261253Z AUTO 23003KT 10SM CLR 06/03 A3012 RMK AO2 SLP200 T00560028=
201504261153 METAR KCLM 261153Z AUTO 23005KT 10SM CLR 06/03 A3011 RMK AO2 SLP197 T00560028 10067 20033 53005=
201504261053 METAR KCLM 261053Z AUTO 23005KT 10SM CLR 04/03 A3010 RMK AO2 SLP193 T00440028=
201504260953 METAR KCLM 260953Z AUTO 22003KT 10SM CLR 04/02 A3009 RMK AO2 SLP193 T00390022=
201504260853 METAR KCLM 260853Z AUTO 23005KT 10SM CLR 05/03 A3010 RMK AO2 SLP193 T00500028 51007=
201504260753 METAR KCLM 260753Z AUTO 24005KT 10SM CLR 05/03 A3009 RMK AO2 SLP192 T00500028 401220044=
201504260653 METAR KCLM 260653Z AUTO 23006KT 10SM CLR 06/03 A3009 RMK AO2 SLP189 T00610033=
201504260553 METAR KCLM 260553Z AUTO 24006KT 10SM CLR 07/04 A3008 RMK AO2 SLP186 T00670039 10111 20050 51007=
201504260453 METAR KCLM 260453Z AUTO 25005KT 10SM CLR 06/03 A3007 RMK AO2 SLP185 T00560033=
201504260353 METAR KCLM 260353Z AUTO 26004KT 10SM CLR 07/04 A3006 RMK AO2 SLP182 T00720044=
201504260253 METAR KCLM 260253Z AUTO 30003KT 10SM CLR 08/05 A3006 RMK AO2 SLP180 T00830050 53009=
201504260153 METAR KCLM 260153Z AUTO VRB03KT 10SM CLR 11/05 A3004 RMK AO2 SLP174 T01060050=
201504260053 METAR KCLM 260053Z AUTO 35005KT 10SM CLR 11/04 A3003 RMK AO2 SLP171 T01060039=
201504252353 METAR KCLM 252353Z AUTO 36006KT 10SM CLR 11/02 A3003 RMK AO2 SLP169 T01110017 10122 20100 51006=
201504252253 METAR KCLM 252253Z AUTO VRB05KT 10SM CLR 11/03 A3002 RMK AO2 SLP167 T01110033=
201504252153 METAR KCLM 252153Z AUTO 03005KT 10SM CLR 12/03 A3002 RMK AO2 SLP166 T01170033=
201504252053 METAR KCLM 252053Z AUTO VRB06KT 10SM BKN080 11/04 A3001 RMK AO2 SLP163 T01110044 51009=
201504251953 METAR KCLM 251953Z AUTO 04005KT 10SM CLR 11/06 A3000 RMK AO2 SLP161 T01060056=
201504251853 METAR KCLM 251853Z AUTO VRB05KT 10SM CLR 11/04 A2999 RMK AO2 SLP157 T01060044=
201504251753 METAR KCLM 251753Z AUTO 33008KT 10SM FEW044 11/05 A2998 RMK AO2 SLP153 60000 T01060050 10106 20056 51013=
201504251653 METAR KCLM 251653Z AUTO VRB06KT 10SM FEW027 SCT035 10/04 A2997 RMK AO2 SLP150 T01000039=
201504251553 METAR KCLM 251553Z AUTO 25007KT 10SM BKN030 09/03 A2996 RMK AO2 SLP145 T00940028=
201504251453 METAR KCLM 251453Z AUTO 25010KT 10SM SCT035 OVC042 07/02 A2994 RMK AO2 SLP141 60000 T00670017 53013=
201504251353 METAR KCLM 251353Z AUTO 25010KT 10SM FEW029 SCT070 06/02 A2993 RMK AO2 SLP135 T00560017=
201504251253 METAR KCLM 251253Z AUTO 25010KT 10SM BKN043 OVC075 06/01 A2991 RMK AO2 RAB20E29 SLP130 P0000 T00610011=
201504251153 METAR KCLM 251153Z AUTO 25010KT 10SM OVC045 06/01 A2990 RMK AO2 WSHFT 1048 SLP127 70001 T00560011 10067 20050 53006=
201504251108 SPECI KCLM 251108Z AUTO 31006G17KT 10SM SCT041 BKN120 06/02 A2991 RMK AO2 WSHFT 1048 T00610017=
201504251053 METAR KCLM 251053Z AUTO 24010KT 10SM FEW038 FEW120 06/01 A2990 RMK AO2 SLP125 T00610011=
201504250953 METAR KCLM 250953Z AUTO 25009KT 10SM CLR 06/01 A2989 RMK AO2 SLP122 T00560011=
201504250853 METAR KCLM 250853Z AUTO 24009KT 10SM CLR 06/02 A2989 RMK AO2 SLP121 T00560017 53004=
201504250753 METAR KCLM 250753Z AUTO 24012KT 10SM CLR 06/02 A2988 RMK AO2 SLP120 T00560022 401280039=
201504250653 METAR KCLM 250653Z AUTO 26008KT 10SM SCT120 06/02 A2988 RMK AO2 SLP118 T00560022=
201504250553 METAR KCLM 250553Z AUTO 26010KT 10SM CLR 06/03 A2987 RMK AO2 SLP117 60001 T00610028 10122 20056 51006=
201504250453 METAR KCLM 250453Z AUTO 26009KT 10SM BKN043 OVC050 06/03 A2987 RMK AO2 RAE25 SLP115 P0001 T00610033 TSNO=
201504250353 METAR KCLM 250353Z AUTO 26004KT 10SM -RA BKN036 OVC045 07/04 A2986 RMK AO2 RAB0256 SLP115 P0000 T00670039=
201504250253 METAR KCLM 250253Z AUTO 28006KT 10SM FEW021 SCT026 OVC031 08/04 A2986 RMK AO2 SLP112 60000 T00830039 53015=
201504250230 SPECI KCLM 250230Z AUTO 30006KT 10SM SCT019 BKN024 OVC031 08/04 A2985 RMK AO2 T00830044=
201504250153 METAR KCLM 250153Z AUTO 25013G22KT 10SM FEW043 09/02 A2983 RMK AO2 SLP104 T00940017=
201504250053 METAR KCLM 250053Z AUTO 22009G17KT 10SM FEW080 FEW110 11/02 A2982 RMK AO2 RAB2355E04 SLP099 P0000 T01110017=
201504242353 METAR KCLM 242353Z AUTO 26011KT 10SM FEW050 BKN070 OVC100 12/03 A2981 RMK AO2 SLP096 60000 T01170028 10128 20089 51011=
201504242253 METAR KCLM 242253Z AUTO VRB06KT 10SM FEW032 FEW039 FEW050 12/04 A2980 RMK AO2 SLP093 T01170039=
201504242238 SPECI KCLM 242238Z AUTO 13004KT 10SM FEW020 SCT030 BKN039 11/04 A2980 RMK AO2 T01060044=
201504242214 SPECI KCLM 242214Z AUTO VRB04KT 10SM BKN020 BKN048 OVC095 09/04 A2981 RMK AO2 T00940044=
201504242153 METAR KCLM 242153Z AUTO 10SM SCT060 BKN100 12/04 A2980 RMK AO2 SLP092 T01220044=
201504242053 METAR KCLM 242053Z AUTO VRB06KT 10SM FEW070 SCT100 12/04 A2978 RMK AO2 WSHFT 1959 RAB06E17 SLP085 P0000 60000 T01170044 51006=
201504242019 SPECI KCLM 242019Z AUTO 26010G19KT 10SM FEW055 SCT070 BKN080 11/03 A2978 RMK AO2 WSHFT 1959 RAB06E17 P0000 T01060028=
201504241953 METAR KCLM 241953Z AUTO VRB03KT 10SM FEW060 BKN075 BKN090 11/05 A2978 RMK AO2 SLP086 T01060050=
201504241853 METAR KCLM 241853Z AUTO 05006KT 10SM SCT033 SCT044 SCT070 10/05 A2978 RMK AO2 RAB32E46 SLP085 P0000 T01000050=
201504241753 METAR KCLM 241753Z AUTO 07005KT 10SM FEW037 10/03 A2976 RMK AO2 SLP080 T01000033 10106 20039 53007=
201504241653 METAR KCLM 241653Z AUTO 11005KT 10SM SCT044 SCT065 10/04 A2975 RMK AO2 SLP077 T01000039=
201504241553 METAR KCLM 241553Z AUTO 13006KT 10SM SCT060 SCT075 BKN090 09/04 A2974 RMK AO2 SLP074 T00890039=
201504241453 METAR KCLM 241453Z AUTO 14003KT 10SM SCT110 07/04 A2974 RMK AO2 SLP073 T00720039 53011=
201504241353 METAR KCLM 241353Z AUTO 00000KT 10SM FEW065 SCT080 BKN110 04/03 A2973 RMK AO2 SLP070 T00440033=
201504241253 METAR KCLM 241253Z AUTO 13003KT 10SM BKN090 OVC120 04/02 A2972 RMK AO2 SLP065 T00440022=
201504241153 METAR KCLM 241153Z AUTO 00000KT 10SM BKN090 04/03 A2971 RMK AO2 SLP062 60003 70005 T00440028 10061 20039 55007=
201504241053 METAR KCLM 241053Z AUTO 26010KT 10SM CLR 05/03 A2971 RMK AO2 RAB03E18 SLP062 P0000 T00500028=
201504240953 METAR KCLM 240953Z AUTO 26010KT 10SM FEW070 FEW090 BKN110 04/02 A2972 RMK AO2 RAE19 SLP064 P0003 T00440022=
201504240853 METAR KCLM 240853Z AUTO 22005KT 6SM -RA OVC031 06/03 A2973 RMK AO2 RAB23 SLP069 P0000 60000 T00610033 56005=
201504240845 SPECI KCLM 240845Z AUTO 25006KT 6SM -RA OVC031 06/03 A2973 RMK AO2 RAB23 P0000 T00610033=
201504240838 SPECI KCLM 240838Z AUTO 25008KT 10SM -RA BKN028 OVC035 06/03 A2973 RMK AO2 RAB23 P0000 T00610033=
201504240753 METAR KCLM 240753Z AUTO 23004KT 10SM FEW060 BKN090 BKN110 05/03 A2973 RMK AO2 SLP070 T00500028 401170033=
201504240653 METAR KCLM 240653Z AUTO 00000KT 10SM BKN065 04/02 A2974 RMK AO2 SLP073 T00440022=
201504240553 METAR KCLM 240553Z AUTO 18003KT 10SM CLR 05/03 A2975 RMK AO2 SLP074 60000 T00500028 10106 20033 50001=
201504240453 METAR KCLM 240453Z AUTO 20005KT 10SM FEW090 04/02 A2975 RMK AO2 SLP077 T00390017=
201504240353 METAR KCLM 240353Z AUTO 11003KT 10SM CLR 05/02 A2975 RMK AO2 SLP075 T00500022=
201504240253 METAR KCLM 240253Z AUTO 28007KT 10SM CLR 07/02 A2974 RMK AO2 SLP074 60000 T00720022 58002=
201504240153 METAR KCLM 240153Z AUTO 29006KT 10SM SCT035 SCT065 BKN080 08/04 A2975 RMK AO2 RAB18E27 SLP074 P0000 T00830039=
201504240053 METAR KCLM 240053Z AUTO 30006KT 10SM BKN055 OVC070 09/03 A2976 RMK AO2 SLP077 T00940033=
201504232353 METAR KCLM 232353Z AUTO VRB04KT 10SM SCT048 BKN065 10/04 A2975 RMK AO2 SLP075 60002 T01000044 10117 20083 56009=
201504232305 SPECI KCLM 232305Z AUTO VRB03KT 10SM SCT012 SCT020 BKN049 11/07 A2976 RMK AO2 T01110067=
201504232253 METAR KCLM 232253Z AUTO 07003KT 10SM SCT012 BKN018 BKN040 10/07 A2976 RMK AO2 RAB2155E34 SLP078 P0001 T01000067=
201504232212 SPECI KCLM 232212Z AUTO 33005KT 8SM -RA FEW022 BKN033 OVC047 08/06 A2977 RMK AO2 RAB2155 P0000 T00830061=
201504232153 METAR KCLM 232153Z AUTO 30007KT 10SM FEW011 BKN024 OVC044 09/06 A2978 RMK AO2 RAE19 SLP085 P0000 T00890061=
201504232128 SPECI KCLM 232128Z AUTO 29007KT 10SM SCT009 SCT016 OVC047 09/07 A2978 RMK AO2 RAE19 P0000 T00940067=
201504232116 SPECI KCLM 232116Z AUTO 28004KT 10SM -RA SCT009 BKN013 OVC047 09/07 A2978 RMK AO2 P0000 T00940072=
201504232105 SPECI KCLM 232105Z AUTO VRB05KT 7SM -RA BKN009 BKN034 OVC048 10/08 A2977 RMK AO2 P0000 T01000078=
201504232053 METAR KCLM 232053Z AUTO 27007KT 6SM -RA SCT011 BKN036 OVC046 09/07 A2977 RMK AO2 RAB17 SLP084 P0001 60001 T00940067 55008=
201504231953 METAR KCLM 231953Z AUTO 30009KT 10SM FEW038 BKN048 OVC060 10/06 A2977 RMK AO2 RAB42E52 SLP081 P0000 T01000061=
201504231853 METAR KCLM 231853Z AUTO 28006KT 10SM FEW033 SCT045 BKN110 09/05 A2978 RMK AO2 RAB23E36 SLP084 P0000 T00940050=
201504231753 METAR KCLM 231753Z AUTO VRB03KT 10SM BKN060 OVC075 09/04 A2980 RMK AO2 SLP092 60000 T00940044 10100 20056 56025=
201504231653 METAR KCLM 231653Z AUTO 00000KT 10SM OVC070 09/04 A2982 RMK AO2 SLP097 T00890039=
201504231553 METAR KCLM 231553Z AUTO 00000KT 10SM OVC070 08/04 A2985 RMK AO2 RAB11E20 SLP110 P0000 T00780044=
201504231453 METAR KCLM 231453Z AUTO 00000KT 10SM OVC070 08/04 A2987 RMK AO2 SLP118 T00780039 56028=
201504231353 METAR KCLM 231353Z AUTO 00000KT 10SM FEW070 OVC090 07/03 A2990 RMK AO2 SLP127 T00670033=
201504231318 SPECI KCLM 231318Z AUTO 00000KT 10SM SCT020 BKN080 06/03 A2992 RMK AO2 T00610028=
201504231253 METAR KCLM 231253Z AUTO 00000KT 10SM BKN020 OVC027 07/02 A2993 RMK AO2 SLP135 T00720022=
201504231233 SPECI KCLM 231233Z AUTO 00000KT 10SM BKN027 BKN075 06/03 A2994 RMK AO2 T00610028=
201504231153 METAR KCLM 231153Z AUTO 00000KT 10SM SCT036 BKN090 OVC120 06/03 A2996 RMK AO2 SLP146 T00560028 10078 20056 56015=
201504231053 METAR KCLM 231053Z AUTO 00000KT 10SM BKN040 OVC085 06/02 A2997 RMK AO2 SLP151 T00560022=
201504230953 METAR KCLM 230953Z AUTO 13004KT 10SM OVC100 06/01 A2998 RMK AO2 SLP152 T00610011=
201504230853 METAR KCLM 230853Z AUTO 00000KT 10SM BKN120 06/02 A3000 RMK AO2 SLP160 T00610022 58018=
201504230753 METAR KCLM 230753Z AUTO 25003KT 10SM OVC095 07/02 A3002 RMK AO2 SLP168 T00670017 401170050=
201504230653 METAR KCLM 230653Z AUTO 00000KT 10SM OVC100 07/01 A3004 RMK AO2 SLP173 T00720011=
201504230553 METAR KCLM 230553Z AUTO 27007KT 10SM OVC100 07/01 A3005 RMK AO2 SLP177 T00720006 10106 20067 58014=
201504230453 METAR KCLM 230453Z AUTO 28009KT 10SM OVC110 07/02 A3007 RMK AO2 SLP184 T00720017=
201504230353 METAR KCLM 230353Z AUTO 25004KT 10SM SCT120 08/02 A3008 RMK AO2 SLP186 T00780022=
201504230253 METAR KCLM 230253Z AUTO 27006KT 10SM CLR 07/02 A3009 RMK AO2 SLP193 T00720022 58016=
201504230153 METAR KCLM 230153Z AUTO 30009G17KT 10SM CLR 09/03 A3011 RMK AO2 SLP197 T00890033=
201504230053 METAR KCLM 230053Z AUTO 30007G19KT 250V340 10SM CLR 10/03 A3013 RMK AO2 SLP206 T01000028=
201504222353 METAR KCLM 222353Z AUTO 31010G21KT 10SM CLR 10/03 A3014 RMK AO2 SLP208 T01000033 10117 20100 58007=
201504222253 METAR KCLM 222253Z AUTO 31012G21KT 10SM CLR 11/03 A3015 RMK AO2 PK WND 30026/2222 SLP209 T01060033=
201504222153 METAR KCLM 222153Z AUTO 33012G20KT 10SM CLR 11/04 A3017 RMK AO2 PK WND 30026/2119 SLP216 T01110039=
201504222053 METAR KCLM 222053Z AUTO 30017G24KT 10SM CLR 11/04 A3016 RMK AO2 PK WND 31026/2011 SLP215 T01110039 56004=
201504221953 METAR KCLM 221953Z AUTO 31013G22KT 10SM CLR 11/04 A3017 RMK AO2 PK WND 30026/1927 SLP217 T01110039=
201504221853 METAR KCLM 221853Z AUTO 31013G22KT 10SM CLR 11/03 A3016 RMK AO2 SLP215 T01110033=
201504221753 METAR KCLM 221753Z AUTO 32014G19KT 10SM SCT042 11/04 A3018 RMK AO2 SLP219 T01110039 10117 20056 53004=
201504221653 METAR KCLM 221653Z AUTO 29012G20KT 10SM FEW043 SCT050 11/02 A3017 RMK AO2 SLP216 T01110017=
201504221553 METAR KCLM 221553Z AUTO 30012KT 10SM CLR 11/02 A3017 RMK AO2 SLP216 T01060017=
201504221453 METAR KCLM 221453Z AUTO 26009KT 10SM CLR 08/00 A3016 RMK AO2 SLP215 T00830000 51012=
201504221353 METAR KCLM 221353Z AUTO 24010KT 10SM FEW043 06/M01 A3015 RMK AO2 SLP212 T00611006=
201504221253 METAR KCLM 221253Z AUTO 25009KT 10SM CLR 06/M01 A3014 RMK AO2 SLP209 T00561006=
201504221153 METAR KCLM 221153Z AUTO 24010KT 10SM CLR 06/M01 A3013 RMK AO2 SLP204 T00611006 10083 20050 53010=
201504221053 METAR KCLM 221053Z AUTO 26008KT 10SM CLR 06/M01 A3012 RMK AO2 SLP200 T00561006=
201504220953 METAR KCLM 220953Z AUTO 27005KT 10SM CLR 06/M01 A3011 RMK AO2 SLP196 T00611006=
201504220853 METAR KCLM 220853Z AUTO 28004KT 10SM CLR 06/00 A3010 RMK AO2 SLP194 T00610000 50003=
201504220753 METAR KCLM 220753Z AUTO 25008KT 10SM BKN049 08/00 A3011 RMK AO2 SLP195 T00830000 401330067=
201504220653 METAR KCLM 220653Z AUTO 24008KT 10SM CLR 07/01 A3010 RMK AO2 SLP193 T00720006=
201504220553 METAR KCLM 220553Z AUTO 26007KT 10SM FEW050 08/00 A3009 RMK AO2 SLP191 60000 T00780000 10111 20078 51016=
201504220453 METAR KCLM 220453Z AUTO 27016G23KT 10SM FEW035 08/01 A3009 RMK AO2 RAE0358B33E42 SLP189 P0000 T00830006=
201504220353 METAR KCLM 220353Z AUTO 28015G24KT 10SM -RA FEW039 SCT050 08/01 A3008 RMK AO2 PK WND 26029/0324 RAB29 SLP185 P0000 T00830011=
201504220253 METAR KCLM 220253Z AUTO 26019G24KT 10SM SCT110 09/01 A3005 RMK AO2 PK WND 26035/0221 SLP175 T00890011 53010=
201504220153 METAR KCLM 220153Z AUTO 27017G28KT 10SM BKN085 10/01 A3003 RMK AO2 PK WND 28030/0104 SLP171 T01000006=
201504220053 METAR KCLM 220053Z AUTO 29018G30KT 10SM OVC075 10/01 A3002 RMK AO2 PK WND 28030/0038 SLP167 T01000006=
201504212353 METAR KCLM 212353Z AUTO 30017G27KT 10SM OVC065 11/02 A3002 RMK AO2 PK WND 30034/2327 SLP166 T01060022 10128 20106 51006=
201504212253 METAR KCLM 212253Z AUTO 30021G31KT 10SM SCT046 BKN100 11/03 A3002 RMK AO2 PK WND 30032/2232 SLP165 T01110033=
201504212153 METAR KCLM 212153Z AUTO 31014G25KT 10SM BKN041 OVC050 11/04 A3001 RMK AO2 PK WND 29033/2139 SLP164 T01110044=
201504212053 METAR KCLM 212053Z AUTO 31016G25KT 10SM OVC035 11/06 A3000 RMK AO2 PK WND 31028/2028 SLP160 T01060056 51013=
201504211953 METAR KCLM 211953Z AUTO 31014G26KT 10SM SCT031 BKN065 BKN100 12/06 A2999 RMK AO2 PK WND 30036/1923 SLP155 T01170061=
201504211900 SPECI KCLM 211900Z AUTO 31016G29KT 10SM SCT026 OVC100 11/07 A2998 RMK AO2 PK WND 30029/1855 T01110067=
201504211853 METAR KCLM 211853Z AUTO 31017G25KT 10SM BKN025 OVC100 11/07 A2998 RMK AO2 PK WND 30031/1832 SLP153 T01110067=
201504211820 SPECI KCLM 211820Z AUTO 31019G28KT 10SM BKN022 12/06 A2997 RMK AO2 PK WND 31028/1816 T01170061=
201504211805 SPECI KCLM 211805Z AUTO 31019G25KT 10SM SCT022 12/07 A2997 RMK AO2 T01220067=
201504211753 METAR KCLM 211753Z AUTO 31013G24KT 10SM BKN020 13/07 A2996 RMK AO2 SLP146 T01280072 10133 20100 51018=
201504211720 SPECI KCLM 211720Z AUTO 30014G21KT 10SM OVC016 12/08 A2995 RMK AO2 T01220078=
201504211653 METAR KCLM 211653Z AUTO 29016G22KT 10SM OVC010 12/08 A2995 RMK AO2 PK WND 29026/1608 SLP141 T01170083=
201504211608 SPECI KCLM 211608Z AUTO 30018G26KT 10SM BKN007 OVC095 11/08 A2993 RMK AO2 PK WND 29026/1608 CIG 006V011 T01110083=
201504211553 METAR KCLM 211553Z AUTO 31011G20KT 10SM FEW008 BKN095 12/09 A2993 RMK AO2 SLP133 T01170089=
201504211453 METAR KCLM 211453Z AUTO 30008KT 10SM CLR 13/09 A2991 RMK AO2 SLP127 T01280089 53006=
201504211353 METAR KCLM 211353Z AUTO 27010KT 10SM OVC100 12/08 A2990 RMK AO2 SLP124 T01170078=
201504211253 METAR KCLM 211253Z AUTO 29011KT 10SM OVC100 11/08 A2989 RMK AO2 SLP123 T01060078=
201504211153 METAR KCLM 211153Z AUTO 28015KT 10SM OVC090 10/08 A2989 RMK AO2 SLP122 T01000078 10133 20094 53004=
201504211053 METAR KCLM 211053Z AUTO 27011KT 10SM CLR 10/08 A2988 RMK AO2 SLP119 T01000078=
201504210953 METAR KCLM 210953Z AUTO 29014KT 10SM CLR 10/08 A2988 RMK AO2 SLP117 T01000083=
201504210853 METAR KCLM 210853Z AUTO 28010KT 10SM CLR 10/08 A2988 RMK AO2 SLP117 T01000078 53001=
201504210753 METAR KCLM 210753Z AUTO 30007KT 10SM CLR 12/07 A2987 RMK AO2 SLP116 T01170067 402000039=
201504210653 METAR KCLM 210653Z AUTO 28009KT 10SM CLR 12/07 A2987 RMK AO2 SLP115 T01220067=
201504210553 METAR KCLM 210553Z AUTO 27011KT 10SM CLR 13/07 A2988 RMK AO2 SLP116 T01330067 10167 20122 58001=
201504210453 METAR KCLM 210453Z AUTO 26011KT 10SM CLR 14/07 A2988 RMK AO2 SLP118 T01390067=
201504210353 METAR KCLM 210353Z AUTO 27011KT 10SM CLR 13/06 A2988 RMK AO2 SLP117 T01330061=
201504210253 METAR KCLM 210253Z AUTO 28008KT 10SM CLR 13/06 A2988 RMK AO2 SLP117 T01330056 55003=
201504210153 METAR KCLM 210153Z AUTO 30005KT 10SM CLR 15/07 A2988 RMK AO2 SLP118 T01500067=
201504210053 METAR KCLM 210053Z AUTO 31008KT 10SM CLR 14/07 A2989 RMK AO2 SLP121 T01390072=
201504202353 METAR KCLM 202353Z AUTO 36006KT 10SM CLR 16/07 A2989 RMK AO2 SLP121 T01560067 10200 20156 56013=
201504202253 METAR KCLM 202253Z AUTO VRB03KT 10SM CLR 19/06 A2989 RMK AO2 SLP124 T01940056=
201504202153 METAR KCLM 202153Z AUTO 09003KT 10SM CLR 19/06 A2991 RMK AO2 SLP130 T01890061=
201504202053 METAR KCLM 202053Z AUTO 09006KT 10SM CLR 18/06 A2993 RMK AO2 SLP135 T01780056 58011=
201504201953 METAR KCLM 201953Z AUTO 08006KT 10SM CLR 18/05 A2994 RMK AO2 SLP139 T01780050=
201504201853 METAR KCLM 201853Z AUTO 08006KT 10SM CLR 17/04 A2996 RMK AO2 SLP145 T01670044=
201504201753 METAR KCLM 201753Z AUTO 09007KT 10SM CLR 16/05 A2996 RMK AO2 SLP146 T01610050 10167 20039 56005=
201504201653 METAR KCLM 201653Z AUTO 08006KT 10SM CLR 16/04 A2996 RMK AO2 SLP147 T01560044=
201504201553 METAR KCLM 201553Z AUTO 11006KT 10SM CLR 16/05 A2997 RMK AO2 SLP148 T01560050=
201504201453 METAR KCLM 201453Z AUTO 22005KT 10SM CLR 12/04 A2998 RMK AO2 SLP151 T01170044 55000=
201504201353 METAR KCLM 201353Z AUTO 00000KT 10SM CLR 05/02 A2997 RMK AO2 SLP151 T00500022=
201504201253 METAR KCLM 201253Z AUTO 21003KT 10SM CLR 04/02 A2997 RMK AO2 SLP150 T00440017=
201504201153 METAR KCLM 201153Z AUTO 23006KT 10SM CLR 06/02 A2998 RMK AO2 SLP150 T00610022 10083 20044 56005=
201504201053 METAR KCLM 201053Z AUTO 23003KT 10SM CLR 05/02 A2998 RMK AO2 SLP153 T00500022=
201504200953 METAR KCLM 200953Z AUTO 00000KT 10SM CLR 06/02 A2998 RMK AO2 SLP154 T00560022=
201504200853 METAR KCLM 200853Z AUTO 22003KT 10SM CLR 06/03 A2999 RMK AO2 SLP157 T00610033 56006=
201504200753 METAR KCLM 200753Z AUTO 00000KT 10SM CLR 06/03 A2999 RMK AO2 SLP158 T00610033 401940028=
201504200653 METAR KCLM 200653Z AUTO 00000KT 10SM CLR 07/04 A2999 RMK AO2 SLP158 T00670039=
201504200553 METAR KCLM 200553Z AUTO 27003KT 10SM CLR 07/04 A3001 RMK AO2 SLP163 T00720044 10194 20072 58009=
201504200453 METAR KCLM 200453Z AUTO 22004KT 10SM CLR 08/06 A3002 RMK AO2 SLP167 T00830056=
201504200353 METAR KCLM 200353Z AUTO 00000KT 10SM CLR 09/06 A3003 RMK AO2 SLP171 T00940056=
201504200253 METAR KCLM 200253Z AUTO 30004KT 10SM CLR 12/06 A3004 RMK AO2 SLP172 T01170056 56014=
201504200153 METAR KCLM 200153Z AUTO VRB03KT 10SM CLR 16/04 A3004 RMK AO2 SLP175 T01610044=
201504200053 METAR KCLM 200053Z AUTO 03003KT 10SM CLR 19/05 A3006 RMK AO2 SLP179 T01890050=
201504192353 METAR KCLM 192353Z AUTO 12004KT 10SM CLR 19/04 A3008 RMK AO2 SLP187 T01890044 10189 20144 56025=
201504192253 METAR KCLM 192253Z AUTO 08005KT 10SM CLR 18/04 A3010 RMK AO2 SLP194 T01780044=
201504192153 METAR KCLM 192153Z AUTO 09005KT 10SM CLR 17/05 A3013 RMK AO2 SLP204 T01720050=
201504192053 METAR KCLM 192053Z AUTO 08007KT 10SM CLR 16/05 A3015 RMK AO2 SLP212 T01610050 58020=
201504191953 METAR KCLM 191953Z AUTO 10006KT 10SM CLR 16/06 A3018 RMK AO2 SLP220 T01560056=
201504191853 METAR KCLM 191853Z AUTO VRB05KT 10SM CLR 14/04 A3020 RMK AO2 SLP227 T01440039=
201504191753 METAR KCLM 191753Z AUTO 09007KT 10SM CLR 15/03 A3021 RMK AO2 SLP231 T01500033 10150 20028 58006=
201504191653 METAR KCLM 191653Z AUTO 10008KT 10SM CLR 14/03 A3022 RMK AO2 SLP236 T01390028=
201504191553 METAR KCLM 191553Z AUTO 11007KT 10SM CLR 12/03 A3024 RMK AO2 SLP239 T01220028=
201504191453 METAR KCLM 191453Z AUTO 00000KT 10SM CLR 10/04 A3023 RMK AO2 SLP238 T01000039 57001=
201504191353 METAR KCLM 191353Z AUTO 23005KT 10SM CLR 04/01 A3023 RMK AO2 SLP238 T00390011=
201504191253 METAR KCLM 191253Z AUTO 22003KT 10SM CLR 03/01 A3023 RMK AO2 SLP239 T00280006=
201504191153 METAR KCLM 191153Z AUTO 00000KT 10SM CLR 03/01 A3023 RMK AO2 SLP239 T00330006 10089 20028 58003=
201504191053 METAR KCLM 191053Z AUTO 23006KT 10SM CLR 05/01 A3024 RMK AO2 SLP240 T00500011=
201504190953 METAR KCLM 190953Z AUTO 00000KT 10SM CLR 04/01 A3024 RMK AO2 SLP242 T00390006=
201504190853 METAR KCLM 190853Z AUTO 00000KT 10SM CLR 04/02 A3024 RMK AO2 SLP242 T00440017 58006=
201504190753 METAR KCLM 190753Z AUTO 20003KT 10SM CLR 07/03 A3025 RMK AO2 SLP246 T00670028 401780022=
201504190653 METAR KCLM 190653Z AUTO 24006KT 10SM CLR 08/03 A3025 RMK AO2 SLP246 T00830028=
201504190553 METAR KCLM 190553Z AUTO 00000KT 10SM CLR 06/03 A3026 RMK AO2 SLP248 T00610028 10178 20061 58002=
201504190453 METAR KCLM 190453Z AUTO 00000KT 10SM CLR 07/04 A3027 RMK AO2 SLP251 T00670039=
201504190353 METAR KCLM 190353Z AUTO 22004KT 10SM CLR 09/06 A3027 RMK AO2 SLP252 T00890056=
201504190253 METAR KCLM 190253Z AUTO 31003KT 10SM CLR 12/04 A3027 RMK AO2 SLP250 T01170044 56014=
201504190153 METAR KCLM 190153Z AUTO 34003KT 10SM CLR 15/04 A3027 RMK AO2 SLP253 T01500039=
201504190053 METAR KCLM 190053Z AUTO 00000KT 10SM CLR 17/04 A3029 RMK AO2 SLP258 T01670044=
201504182353 METAR KCLM 182353Z AUTO 04003KT 10SM CLR 18/04 A3031 RMK AO2 SLP263 T01780039 10178 20133 58019=
201504182253 METAR KCLM 182253Z AUTO 10004KT 10SM CLR 17/04 A3033 RMK AO2 SLP271 T01670044=
201504182153 METAR KCLM 182153Z AUTO VRB05KT 10SM CLR 16/04 A3034 RMK AO2 SLP276 T01560044=
201504182053 METAR KCLM 182053Z AUTO VRB04KT 10SM CLR 14/04 A3036 RMK AO2 SLP283 T01440039 58010=
201504181953 METAR KCLM 181953Z AUTO 08008KT 10SM CLR 14/04 A3038 RMK AO2 SLP288 T01390044=
201504181853 METAR KCLM 181853Z AUTO 09009KT 10SM CLR 14/04 A3038 RMK AO2 SLP290 T01390039=
201504181753 METAR KCLM 181753Z AUTO 08006KT 10SM CLR 14/05 A3039 RMK AO2 SLP293 T01390050 10139 20022 50003=
201504181653 METAR KCLM 181653Z AUTO 08008KT 10SM CLR 12/05 A3039 RMK AO2 SLP293 T01220050=
201504181553 METAR KCLM 181553Z AUTO 10008KT 10SM CLR 12/06 A3039 RMK AO2 SLP292 T01170056=
201504181453 METAR KCLM 181453Z AUTO 00000KT 10SM CLR 08/07 A3038 RMK AO2 SLP290 T00830067 53009=
201504181353 METAR KCLM 181353Z AUTO 00000KT 10SM CLR 03/02 A3038 RMK AO2 SLP288 T00330022=
201504181253 METAR KCLM 181253Z AUTO 15003KT 10SM CLR 03/02 A3036 RMK AO2 SLP282 T00280022=
201504181153 METAR KCLM 181153Z AUTO 19004KT 10SM CLR 04/03 A3036 RMK AO2 SLP281 T00390028 10100 20028 51008=
201504181053 METAR KCLM 181053Z AUTO 00000KT 10SM CLR 04/03 A3036 RMK AO2 SLP281 T00390028=
201504180953 METAR KCLM 180953Z AUTO 00000KT 10SM CLR 04/03 A3034 RMK AO2 SLP275 T00440033=
201504180853 METAR KCLM 180853Z AUTO 00000KT 10SM CLR 06/04 A3033 RMK AO2 SLP272 T00610044 53002=
201504180753 METAR KCLM 180753Z AUTO 15005KT 10SM CLR 08/06 A3033 RMK AO2 SLP272 T00780056 401500050=
201504180653 METAR KCLM 180653Z AUTO VRB03KT 10SM CLR 08/06 A3032 RMK AO2 SLP269 T00830056=
201504180553 METAR KCLM 180553Z AUTO 32005KT 10SM CLR 09/07 A3033 RMK AO2 SLP271 T00890067 10128 20072 53010=
201504180453 METAR KCLM 180453Z AUTO 28003KT 10SM CLR 08/06 A3032 RMK AO2 SLP267 T00830061=
201504180353 METAR KCLM 180353Z AUTO 00000KT 10SM CLR 09/06 A3031 RMK AO2 SLP263 T00940061=
201504180253 METAR KCLM 180253Z AUTO 27008KT 10SM CLR 10/07 A3030 RMK AO2 SLP261 T01000067 53006=
201504180153 METAR KCLM 180153Z AUTO 32004KT 10SM CLR 12/08 A3029 RMK AO2 SLP258 T01170078=
201504180053 METAR KCLM 180053Z AUTO VRB04KT 10SM CLR 13/08 A3029 RMK AO2 SLP257 T01280083=
201504172353 METAR KCLM 172353Z AUTO 31012G22KT 10SM CLR 13/08 A3028 RMK AO2 SLP254 T01280083 10150 20128 53005=
201504172253 METAR KCLM 172253Z AUTO 30012G18KT 10SM CLR 14/09 A3027 RMK AO2 SLP252 T01390089=
201504172153 METAR KCLM 172153Z AUTO 31013G21KT 10SM CLR 14/09 A3027 RMK AO2 SLP251 T01390089=
201504172053 METAR KCLM 172053Z AUTO 32012KT 10SM CLR 14/07 A3026 RMK AO2 SLP249 T01440072 58004=
201504171953 METAR KCLM 171953Z AUTO 30012G15KT 10SM CLR 15/08 A3027 RMK AO2 SLP251 T01500078=
201504171853 METAR KCLM 171853Z AUTO 30011KT 10SM CLR 14/08 A3028 RMK AO2 SLP254 T01390083=
201504171753 METAR KCLM 171753Z AUTO 31012G18KT 10SM CLR 13/08 A3028 RMK AO2 SLP254 T01330078 10133 20072 51012=
201504171653 METAR KCLM 171653Z AUTO 31008KT 10SM CLR 12/07 A3027 RMK AO2 SLP251 T01220067=
201504171553 METAR KCLM 171553Z AUTO 28006KT 10SM FEW120 12/06 A3026 RMK AO2 SLP247 T01220061=
201504171453 METAR KCLM 171453Z AUTO 22005KT 10SM BKN110 11/06 A3024 RMK AO2 SLP242 T01060056 58000=
201504171353 METAR KCLM 171353Z AUTO 20006KT 10SM OVC120 11/06 A3025 RMK AO2 SLP244 T01060061=
201504171253 METAR KCLM 171253Z AUTO 26007KT 10SM SCT016 08/06 A3027 RMK AO2 SLP251 T00830056=
201504171153 METAR KCLM 171153Z AUTO 30008KT 10SM CLR 08/05 A3024 RMK AO2 SLP243 T00780050 10083 20050 55000=
201504171053 METAR KCLM 171053Z AUTO 25003KT 10SM CLR 08/05 A3024 RMK AO2 SLP240 T00780050=
201504170953 METAR KCLM 170953Z AUTO 24005KT 10SM CLR 07/04 A3024 RMK AO2 SLP241 T00670044=
201504170853 METAR KCLM 170853Z AUTO 24005KT 10SM CLR 06/04 A3024 RMK AO2 SLP243 T00560039 58000=
201504170753 METAR KCLM 170753Z AUTO 25005KT 10SM CLR 07/04 A3025 RMK AO2 SLP245 T00670044 401610039=
201504170653 METAR KCLM 170653Z AUTO 27004KT 10SM CLR 07/04 A3025 RMK AO2 SLP246 T00670044=
201504170553 METAR KCLM 170553Z AUTO 25003KT 10SM CLR 06/03 A3025 RMK AO2 SLP243 T00560033 10161 20056 58001=
201504170453 METAR KCLM 170453Z AUTO 29003KT 10SM CLR 08/04 A3025 RMK AO2 SLP244 T00780044=
201504170353 METAR KCLM 170353Z AUTO 00000KT 10SM CLR 08/05 A3025 RMK AO2 SLP243 T00830050=
201504170253 METAR KCLM 170253Z AUTO 29004KT 10SM CLR 09/04 A3025 RMK AO2 SLP244 T00940044 56016=
201504170153 METAR KCLM 170153Z AUTO 36003KT 10SM CLR 12/07 A3026 RMK AO2 SLP249 T01170067=
201504170053 METAR KCLM 170053Z AUTO 04003KT 10SM CLR 13/04 A3028 RMK AO2 SLP254 T01330044=
201504162353 METAR KCLM 162353Z AUTO VRB03KT 10SM CLR 16/04 A3030 RMK AO2 SLP261 T01560039 10161 20106 58018=
201504162253 METAR KCLM 162253Z AUTO VRB03KT 10SM CLR 14/04 A3032 RMK AO2 SLP267 T01390044=
201504162153 METAR KCLM 162153Z AUTO 03005KT 10SM CLR 13/04 A3034 RMK AO2 SLP274 T01330039=
201504162053 METAR KCLM 162053Z AUTO 02005KT 10SM CLR 14/04 A3035 RMK AO2 SLP279 T01390039 58017=
201504161953 METAR KCLM 161953Z AUTO VRB04KT 10SM CLR 12/04 A3038 RMK AO2 SLP287 T01220039=
201504161853 METAR KCLM 161853Z AUTO 02005KT 10SM CLR 11/06 A3039 RMK AO2 SLP293 T01060056=
201504161753 METAR KCLM 161753Z AUTO 07005KT 10SM CLR 11/06 A3040 RMK AO2 SLP296 T01060061 10111 20044 55006=
201504161653 METAR KCLM 161653Z AUTO 04005KT 10SM CLR 11/05 A3040 RMK AO2 SLP295 T01110050=
201504161553 METAR KCLM 161553Z AUTO 28003KT 10SM CLR 09/03 A3041 RMK AO2 SLP300 T00940028=
201504161453 METAR KCLM 161453Z AUTO 25008KT 10SM CLR 07/02 A3042 RMK AO2 SLP302 T00720022 55002=
201504161353 METAR KCLM 161353Z AUTO 23006KT 10SM CLR 05/02 A3042 RMK AO2 SLP302 T00500022=
201504161253 METAR KCLM 161253Z AUTO 24008KT 10SM CLR 06/02 A3042 RMK AO2 SLP301 T00560017=
201504161153 METAR KCLM 161153Z AUTO 24005KT 10SM CLR 04/02 A3043 RMK AO2 SLP305 T00390017 10072 20039 56010=
201504161053 METAR KCLM 161053Z AUTO 26010KT 10SM CLR 06/02 A3044 RMK AO2 SLP308 T00560022=
201504160953 METAR KCLM 160953Z AUTO 24006KT 10SM CLR 06/03 A3044 RMK AO2 SLP308 T00610028=
201504160853 METAR KCLM 160853Z AUTO 25005KT 10SM CLR 07/03 A3046 RMK AO2 SLP315 T00670028 56011=
201504160753 METAR KCLM 160753Z AUTO 25007KT 10SM CLR 07/03 A3047 RMK AO2 SLP318 T00720028 401220033=
201504160653 METAR KCLM 160653Z AUTO 28008KT 10SM CLR 07/03 A3048 RMK AO2 SLP323 T00670033=
201504160553 METAR KCLM 160553Z AUTO 24006KT 10SM CLR 06/03 A3049 RMK AO2 SLP326 T00610028 10117 20056 50000=
201504160453 METAR KCLM 160453Z AUTO 25006KT 10SM CLR 06/02 A3050 RMK AO2 SLP330 T00560022=
201504160353 METAR KCLM 160353Z AUTO 25006KT 10SM SCT040 08/02 A3049 RMK AO2 SLP328 T00830022=
201504160253 METAR KCLM 160253Z AUTO 27005KT 10SM BKN043 09/02 A3049 RMK AO2 SLP327 T00890022 55008=
201504160153 METAR KCLM 160153Z AUTO 31008KT 10SM FEW075 11/02 A3049 RMK AO2 SLP326 T01060022=
201504160053 METAR KCLM 160053Z AUTO 33006KT 10SM CLR 12/03 A3050 RMK AO2 SLP330 T01170028=
201504152353 METAR KCLM 152353Z AUTO 32008KT 10SM BKN090 12/03 A3051 RMK AO2 SLP334 T01170033 10122 20100 56008=
201504152253 METAR KCLM 152253Z AUTO 02006KT 10SM FEW080 BKN095 12/03 A3052 RMK AO2 SLP335 T01170028=
201504152153 METAR KCLM 152153Z AUTO 01005KT 10SM BKN080 12/03 A3053 RMK AO2 SLP339 T01170028=
201504152053 METAR KCLM 152053Z AUTO 35005KT 10SM CLR 11/02 A3054 RMK AO2 SLP341 T01110022 50000=
201504151953 METAR KCLM 151953Z AUTO VRB05KT 10SM CLR 10/03 A3054 RMK AO2 SLP345 T01000028=
201504151853 METAR KCLM 151853Z AUTO 36006KT 10SM CLR 10/03 A3054 RMK AO2 SLP344 T01000028=
201504151753 METAR KCLM 151753Z AUTO 34006KT 10SM CLR 11/03 A3053 RMK AO2 SLP341 T01060028 10106 20033 51005=
201504151653 METAR KCLM 151653Z AUTO 26006KT 10SM CLR 10/01 A3053 RMK AO2 SLP341 T01000006=
201504151553 METAR KCLM 151553Z AUTO 25010KT 10SM CLR 07/M01 A3053 RMK AO2 SLP339 T00721006=
201504151453 METAR KCLM 151453Z AUTO 25010KT 10SM CLR 05/M01 A3052 RMK AO2 SLP337 T00501011 53014=
201504151353 METAR KCLM 151353Z AUTO 24007KT 10SM CLR 04/M01 A3050 RMK AO2 SLP331 T00391011=
201504151253 METAR KCLM 151253Z AUTO 24011G18KT 10SM CLR 04/M01 A3048 RMK AO2 SLP325 T00441011=
201504151153 METAR KCLM 151153Z AUTO 25010KT 10SM CLR 04/M01 A3048 RMK AO2 SLP322 70002 T00441011 10061 20044 53009=
201504151053 METAR KCLM 151053Z AUTO 25009KT 10SM CLR 05/M01 A3046 RMK AO2 SLP316 T00501011=
201504150953 METAR KCLM 150953Z AUTO 25013KT 10SM CLR 04/M01 A3045 RMK AO2 SLP314 T00441006=
201504150853 METAR KCLM 150853Z AUTO 25011KT 10SM CLR 05/00 A3045 RMK AO2 SLP312 T00500000 53003=
201504150753 METAR KCLM 150753Z AUTO 24010KT 10SM CLR 05/00 A3044 RMK AO2 SLP311 T00500000 401170044=
201504150653 METAR KCLM 150653Z AUTO 25011KT 10SM CLR 05/01 A3044 RMK AO2 SLP310 T00500006=
201504150553 METAR KCLM 150553Z AUTO 25009KT 10SM CLR 06/01 A3044 RMK AO2 SLP308 60002 T00560006 10106 20050 52017=
201504150453 METAR KCLM 150453Z AUTO 27008KT 10SM CLR 05/01 A3042 RMK AO2 SLP303 T00500011=
201504150353 METAR KCLM 150353Z AUTO 27011KT 10SM CLR 07/01 A3041 RMK AO2 SLP298 P0002 T00670006=
201504150253 METAR KCLM 150253Z AUTO 30007KT 10SM SCT040 08/03 A3039 RMK AO2 RAB18E34 SLP292 P0000 60000 T00780033 51014=
201504150153 METAR KCLM 150153Z AUTO 29010G18KT 10SM BKN060 08/03 A3037 RMK AO2 RAB26E35 SLP288 P0000 T00830033=
201504150053 METAR KCLM 150053Z AUTO 31009KT 10SM FEW039 SCT045 09/03 A3036 RMK AO2 RAB39E48 SLP283 P0000 T00890028=
201504142353 METAR KCLM 142353Z AUTO 30011G20KT 270V340 10SM FEW035 SCT090 10/02 A3035 RMK AO2 RAB02E14 SLP278 P0000 60000 T01000022 10117 20072 51016=
201504142253 METAR KCLM 142253Z AUTO 28019G26KT 10SM FEW035 SCT100 11/02 A3034 RMK AO2 PK WND 28026/2249 SLP274 T01060017=
201504142153 METAR KCLM 142153Z AUTO 28009G18KT 10SM FEW050 SCT095 SCT110 11/03 A3032 RMK AO2 PK WND 29034/2106 RAB21E39 SLP271 P0000 T01060028=
201504142053 METAR KCLM 142053Z AUTO 33012G20KT 290V010 10SM CLR 11/02 A3030 RMK AO2 SLP261 T01110017 51014=
201504141953 METAR KCLM 141953Z AUTO 31013G20KT 10SM SCT050 SCT065 SCT080 08/03 A3029 RMK AO2 PK WND 30029/1934 SLP261 T00830028=
201504141853 METAR KCLM 141853Z AUTO 31013G21KT 10SM FEW049 10/02 A3027 RMK AO2 SLP253 T01000022=
201504141753 METAR KCLM 141753Z AUTO 31011G16KT 10SM SCT047 11/02 A3026 RMK AO2 SLP247 60000 T01060022 10111 20044 51025=
201504141653 METAR KCLM 141653Z AUTO 29011KT 10SM FEW043 SCT050 SCT080 10/01 A3023 RMK AO2 SLP238 T01000006=
201504141553 METAR KCLM 141553Z AUTO 24009KT 10SM CLR 08/01 A3021 RMK AO2 SLP232 T00780011=
201504141453 METAR KCLM 141453Z AUTO 25011KT 10SM CLR 06/01 A3018 RMK AO2 SLP222 60000 T00560011 51023=
201504141353 METAR KCLM 141353Z AUTO 25009KT 10SM BKN039 BKN055 OVC075 05/02 A3017 RMK AO2 RAB05E24 SLP218 P0000 T00500017=
201504141253 METAR KCLM 141253Z AUTO 25012KT 10SM CLR 05/01 A3013 RMK AO2 SLP205 T00500006=
201504141153 METAR KCLM 141153Z AUTO 25011KT 10SM SCT032 BKN047 05/01 A3011 RMK AO2 SLP199 70007 T00500006 10067 20050 53026=
201504141053 METAR KCLM 141053Z AUTO 26011KT 10SM FEW042 SCT095 06/00 A3008 RMK AO2 SLP187 T00560000=
201504140953 METAR KCLM 140953Z AUTO 24016KT 10SM CLR 05/01 A3005 RMK AO2 SLP179 T00500006=
201504140853 METAR KCLM 140853Z AUTO 25008KT 10SM FEW085 06/M01 A3003 RMK AO2 SLP172 T00611006 53015=
201504140753 METAR KCLM 140753Z AUTO 26011KT 10SM CLR 06/M01 A3002 RMK AO2 SLP168 T00611006 401000033=
201504140653 METAR KCLM 140653Z AUTO 25009KT 10SM FEW050 FEW085 SCT110 05/01 A3000 RMK AO2 SLP161 T00500011=
201504140553 METAR KCLM 140553Z AUTO 26010KT 10SM FEW045 06/02 A2999 RMK AO2 SLP158 T00560017 10083 20056 51019=
201504140453 METAR KCLM 140453Z AUTO 25009KT 10SM SCT050 BKN080 OVC090 06/02 A2997 RMK AO2 SLP151 T00610017=
201504140353 METAR KCLM 140353Z AUTO 25007KT 10SM FEW047 FEW060 06/02 A2996 RMK AO2 SLP146 T00610017=
201504140253 METAR KCLM 140253Z AUTO 27007KT 10SM FEW120 07/02 A2993 RMK AO2 SLP138 T00670017 53005=
201504140153 METAR KCLM 140153Z AUTO 25007KT 10SM OVC110 07/02 A2992 RMK AO2 SLP132 T00720017=
201504140053 METAR KCLM 140053Z AUTO 26007KT 10SM FEW090 OVC110 08/02 A2991 RMK AO2 SLP131 T00780022=
201504132353 METAR KCLM 132353Z AUTO 24010KT 10SM BKN060 BKN070 08/02 A2992 RMK AO2 SLP134 60007 T00780017 10100 20061 51009=
201504132253 METAR KCLM 132253Z AUTO 26016G20KT 10SM FEW060 SCT075 08/03 A2990 RMK AO2 RAE30 SLP128 P0001 T00780028=
201504132153 METAR KCLM 132153Z AUTO 29012KT 10SM -RA OVC050 07/04 A2992 RMK AO2 SLP132 P0003 T00670039=
201504132053 METAR KCLM 132053Z AUTO 30008KT 10SM -RA BKN040 OVC047 06/04 A2989 RMK AO2 SLP124 P0002 60003 T00610039 51023=
201504131953 METAR KCLM 131953Z AUTO 31014G21KT 7SM -RA FEW009 SCT024 OVC034 07/04 A2987 RMK AO2 PK WND 30026/1940 RAB14 SLP118 P0001 T00670039=
201504131930 SPECI KCLM 131930Z AUTO 31008KT 6SM -RA BR FEW009 BKN023 OVC042 08/06 A2985 RMK AO2 RAB14 P0000 T00830061=
201504131919 SPECI KCLM 131919Z AUTO 31009KT 10SM -RA SCT018 BKN022 OVC060 09/06 A2984 RMK AO2 RAB14 P0000 T00890056=
201504131853 METAR KCLM 131853Z AUTO 33006KT 10SM SCT017 BKN060 09/05 A2982 RMK AO2 SLP101 T00940050=
201504131753 METAR KCLM 131753Z AUTO 14003KT 10SM FEW012 BKN110 09/04 A2981 RMK AO2 SLP097 60000 T00890044 10089 20050 56018=
201504131728 SPECI KCLM 131728Z AUTO 07003KT 10SM SCT010 BKN110 09/06 A2982 RMK AO2 T00890056=
201504131713 SPECI KCLM 131713Z AUTO 08003KT 10SM BKN010 BKN100 09/06 A2982 RMK AO2 T00890056=
201504131653 METAR KCLM 131653Z AUTO 11004KT 10SM FEW010 BKN100 08/06 A2983 RMK AO2 SLP103 T00830061=
201504131637 SPECI KCLM 131637Z AUTO 09004KT 10SM FEW008 OVC095 08/06 A2983 RMK AO2 T00830061=
201504131553 METAR KCLM 131553Z AUTO 11003KT 10SM BKN070 OVC090 08/06 A2984 RMK AO2 RAE07 SLP106 P0000 T00780056=
201504131453 METAR KCLM 131453Z AUTO 23003KT 10SM -RA OVC055 06/04 A2987 RMK AO2 RAB00 SLP115 P0000 60000 T00610044 56014 $=
201504131353 METAR KCLM 131353Z AUTO 25005KT 10SM FEW018 BKN060 OVC075 06/04 A2988 RMK AO2 SLP120 T00610039 $=
201504131253 METAR KCLM 131253Z AUTO 23006KT 10SM BKN110 06/04 A2989 RMK AO2 SLP122 T00560039 $=
201504131202 SPECI KCLM 131202Z AUTO 16004KT 10SM SCT009 SCT012 05/04 A2990 RMK AO2 T00500039 $=
201504131153 METAR KCLM 131153Z AUTO 00000KT 10SM BKN010 05/04 A2991 RMK AO2 SLP129 T00500039 10056 20033 56026 $=
201504131118 SPECI KCLM 131118Z AUTO 00000KT 10SM BKN013 05/04 A2992 RMK AO2 T00500039 $=
201504131104 SPECI KCLM 131104Z AUTO 00000KT 10SM SCT011 05/03 A2993 RMK AO2 T00500033 $=
201504131053 METAR KCLM 131053Z AUTO 00000KT 10SM BKN011 05/03 A2993 RMK AO2 SLP136 T00500033 $=
201504131037 SPECI KCLM 131037Z AUTO 22005KT 10SM BKN010 05/04 A2994 RMK AO2 T00500039 $=
201504130953 METAR KCLM 130953Z AUTO 00000KT 10SM SCT013 05/03 A2996 RMK AO2 SLP147 T00500033 $=
201504130935 SPECI KCLM 130935Z AUTO 00000KT 10SM BKN013 05/03 A2996 RMK AO2 T00500033 $=
201504130853 METAR KCLM 130853Z AUTO 00000KT 10SM CLR 05/03 A2998 RMK AO2 SLP155 T00500033 56026 $=
201504130753 METAR KCLM 130753Z AUTO 16003KT 10SM FEW019 04/02 A3000 RMK AO2 SLP160 T00390022 401060039 $=
201504130725 SPECI KCLM 130725Z AUTO 20003KT 10SM SCT023 04/03 A3002 RMK AO2 T00440033 $=
201504130710 SPECI KCLM 130710Z AUTO 00000KT 10SM BKN024 04/03 A3002 RMK AO2 T00440033 $=
201504130653 METAR KCLM 130653Z AUTO 00000KT 10SM FEW024 04/03 A3003 RMK AO2 SLP172 T00390033 $=
201504130553 METAR KCLM 130553Z AUTO 00000KT 8SM CLR 05/04 A3006 RMK AO2 SLP181 60000 T00500039 10089 20044 58017 $=
201504130453 METAR KCLM 130453Z AUTO 11003KT 10SM CLR 07/05 A3008 RMK AO2 RAE27 SLP189 P0000 T00670050 $=
201504130353 METAR KCLM 130353Z AUTO 10003KT 10SM -RA OVC048 07/04 A3010 RMK AO2 RAB18 SLP194 P0000 T00670044 $=
201504130253 METAR KCLM 130253Z AUTO 00000KT 10SM OVC065 07/04 A3011 RMK AO2 SLP199 60000 T00720044 56018 $=
201504130153 METAR KCLM 130153Z AUTO 32003KT 10SM SCT050 BKN065 OVC080 08/04 A3013 RMK AO2 SLP203 T00780039 $=
201504130053 METAR KCLM 130053Z AUTO 31005KT 10SM FEW055 OVC080 08/03 A3014 RMK AO2 RAB08E18 SLP209 P0000 T00830033 $=
201504122353 METAR KCLM 122353Z AUTO 34006KT 10SM SCT040 BKN049 OVC070 08/04 A3017 RMK AO2 SLP217 60000 T00830039 10106 20083 58004 $=
201504122253 METAR KCLM 122253Z AUTO VRB05KT 10SM SCT048 BKN060 OVC075 09/03 A3018 RMK AO2 SLP222 T00890033 $=
201504122153 METAR KCLM 122153Z AUTO 33006KT 10SM FEW044 BKN080 09/04 A3018 RMK AO2 SLP222 T00890039 $=
201504122053 METAR KCLM 122053Z AUTO 03006KT 10SM FEW038 BKN050 OVC080 10/03 A3018 RMK AO2 RAB02E15 SLP222 P0000 60000 T01000028 58011 $=
201504121953 METAR KCLM 121953Z AUTO VRB06KT 10SM SCT060 SCT085 09/03 A3020 RMK AO2 SLP227 T00940028 $=
201504121853 METAR KCLM 121853Z AUTO VRB03KT 10SM SCT065 09/03 A3021 RMK AO2 SLP231 T00940033 $=
201504121753 METAR KCLM 121753Z AUTO VRB04KT 10SM BKN075 OVC090 09/01 A3021 RMK AO2 SLP233 T00890011 10094 20044 52008 $=
201504121653 METAR KCLM 121653Z AUTO 26004KT 10SM BKN065 OVC080 09/00 A3020 RMK AO2 SLP230 T00890000 $=
201504121553 METAR KCLM 121553Z AUTO VRB03KT 10SM OVC090 08/00 A3020 RMK AO2 SLP228 T00780000 $=
201504121453 METAR KCLM 121453Z AUTO 00000KT 10SM BKN055 06/02 A3019 RMK AO2 SLP225 T00610017 53006 $=
201504121353 METAR KCLM 121353Z AUTO 25005KT 10SM SCT065 OVC080 05/M01 A3018 RMK AO2 SLP223 T00501006 $=
201504121253 METAR KCLM 121253Z AUTO 24008KT 10SM CLR 04/M01 A3017 RMK AO2 SLP219 T00441006 $=
201504121153 METAR KCLM 121153Z AUTO 25011KT 10SM BKN060 05/00 A3017 RMK AO2 RAB17E26 SLP218 P0000 60000 7//// T00500000 10056 20039 51012 $=
201504121053 METAR KCLM 121053Z AUTO 26012KT 10SM FEW050 BKN065 OVC085 05/01 A3017 RMK AO2 SLP218 T00500006 $=
201504120953 METAR KCLM 120953Z AUTO 25009KT 10SM FEW060 04/00 A3015 RMK AO2 SLP212 T00440000 $=
201504120853 METAR KCLM 120853Z AUTO 25007KT 10SM FEW055 04/00 A3014 RMK AO2 SLP207 T00440000 53015 $=
201504120753 METAR KCLM 120753Z AUTO 25008KT 10SM FEW055 04/01 A3012 RMK AO2 SLP202 T00440011 401000039 $=
201504120653 METAR KCLM 120653Z AUTO 28008KT 10SM CLR 05/01 A3010 RMK AO2 SLP195 T00500006 $=
201504120553 METAR KCLM 120553Z AUTO 26008KT 10SM CLR 04/02 A3009 RMK AO2 RAB11E25 SLP192 P0002 60002 T00440017 10100 20044 51024 $=
201504120453 METAR KCLM 120453Z AUTO 26008KT 10SM FEW090 04/02 A3008 RMK AO2 SLP186 T00440017 $=
201504120353 METAR KCLM 120353Z AUTO 24009KT 10SM OVC048 06/02 A3005 RMK AO2 SLP178 T00560022 $=
201504120253 METAR KCLM 120253Z AUTO 26010KT 10SM SCT065 BKN080 OVC100 06/02 A3002 RMK AO2 SLP167 T00560022 52009 $=
201504120153 METAR KCLM 120153Z AUTO 27010KT 10SM SCT060 BKN075 OVC090 08/02 A3001 RMK AO2 SLP165 T00780017 $=
201504120053 METAR KCLM 120053Z AUTO 27009KT 10SM FEW050 BKN070 OVC095 09/02 A3000 RMK AO2 SLP161 T00890022 $=
201504112353 METAR KCLM 112353Z AUTO 24013G20KT 10SM FEW038 10/03 A2999 RMK AO2 RAE2257 SLP158 P0000 6//// T01000028 10100 20050 51006 $=
201504112253 METAR KCLM 112253Z AUTO 24009G20KT 10SM -RA FEW039 SCT060 BKN080 08/03 A2999 RMK AO2 RAE2159B44 SLP156 T00780033 PNO $=
201504112153 METAR KCLM 112153Z AUTO 26012G20KT 9SM -RA FEW021 BKN034 OVC065 06/03 A2999 RMK AO2 PK WND 31031/2133 RAB33 SLP157 T00560028 PNO $=
201504112150 SPECI KCLM 112150Z AUTO 27012G20KT 5SM -RA FEW021 BKN031 OVC065 05/02 A2999 RMK AO2 PK WND 31031/2133 RAB33 PNO $=
201504112141 SPECI KCLM 112141Z AUTO 29019G31KT 2 1/2SM RA BKN029 BKN047 OVC065 05/02 A2999 RMK AO2 PK WND 31031/2133 RAB33 P0000 T00500022=
201504112053 METAR KCLM 112053Z AUTO 30014G21KT 10SM SCT035 BKN055 BKN070 08/03 A2997 RMK AO2 RAB11E20 SLP152 P0000 60001 T00830033 53016=
201504111953 METAR KCLM 111953Z AUTO 30010KT 10SM BKN036 OVC085 09/02 A2994 RMK AO2 RAE1858 SLP141 P0001 T00890022=
201504111853 METAR KCLM 111853Z AUTO 27005KT 10SM -RA FEW027 BKN035 OVC080 07/03 A2994 RMK AO2 RAB40 SLP140 P0000 T00720033=
201504111753 METAR KCLM 111753Z AUTO 24007KT 10SM FEW032 SCT041 BKN090 09/02 A2993 RMK AO2 SLP134 T00940022 10094 20050 51015=
201504111653 METAR KCLM 111653Z AUTO VRB05KT 10SM FEW055 BKN070 BKN085 09/03 A2991 RMK AO2 SLP128 T00890033=
201504111553 METAR KCLM 111553Z AUTO 27007KT 10SM SCT055 SCT110 08/03 A2991 RMK AO2 SLP129 T00780028=
201504111453 METAR KCLM 111453Z AUTO 24006KT 10SM FEW070 OVC110 06/03 A2988 RMK AO2 SLP121 T00560028 51012=
201504111353 METAR KCLM 111353Z AUTO 24010KT 10SM BKN075 OVC095 06/02 A2987 RMK AO2 SLP117 T00560017=
201504111253 METAR KCLM 111253Z AUTO 27010KT 10SM SCT080 SCT100 05/02 A2986 RMK AO2 SLP112 T00500017=
201504111153 METAR KCLM 111153Z AUTO 25011KT 10SM FEW060 BKN095 05/02 A2985 RMK AO2 SLP108 60001 70023 T00500017 10072 20039 51013=
201504111053 METAR KCLM 111053Z AUTO 27009KT 10SM FEW075 OVC110 05/02 A2984 RMK AO2 SLP105 T00500017=
201504110953 METAR KCLM 110953Z AUTO 28007KT 10SM FEW070 05/01 A2982 RMK AO2 SLP098 T00500006=
201504110853 METAR KCLM 110853Z AUTO 25005KT 10SM FEW070 05/02 A2981 RMK AO2 SLP094 60001 T00500022 53012=
201504110753 METAR KCLM 110753Z AUTO 27009G16KT 10SM BKN055 OVC070 06/03 A2979 RMK AO2 SLP090 T00610028 401280028=
201504110653 METAR KCLM 110653Z AUTO 23009KT 10SM FEW090 06/04 A2977 RMK AO2 RAE0558 SLP083 P0001 T00610044=
201504110553 METAR KCLM 110553Z AUTO 25007KT 10SM -RA FEW034 BKN044 OVC070 07/05 A2977 RMK AO2 SLP082 P0003 60015 T00720050 10089 20072 52015=
201504110453 METAR KCLM 110453Z AUTO 27006KT 8SM -RA OVC040 07/06 A2975 RMK AO2 SLP075 P0002 T00720056=
201504110353 METAR KCLM 110353Z AUTO 29006KT 5SM -RA BR FEW011 BKN035 OVC044 07/06 A2975 RMK AO2 RAB07 SLP075 P0001 T00720061 TSNO=
201504110253 METAR KCLM 110253Z AUTO 27003KT 10SM FEW019 BKN080 OVC090 07/06 A2973 RMK AO2 SLP068 P0001 60009 T00720061 55016=
201504110210 SPECI KCLM 110210Z AUTO 00000KT 10SM SCT015 08/07 A2972 RMK AO2 P0001 T00830067=
201504110202 SPECI KCLM 110202Z AUTO 28003KT 10SM FEW008 BKN015 08/06 A2972 RMK AO2 T00830061=
201504110153 METAR KCLM 110153Z AUTO 28004KT 10SM SCT007 BKN014 08/07 A2972 RMK AO2 RAE27 SLP065 P0003 T00830067=
201504110118 SPECI KCLM 110118Z AUTO 00000KT 9SM -RA BKN006 OVC045 08/07 A2974 RMK AO2 P0001 T00830067=
201504110053 METAR KCLM 110053Z AUTO 00000KT 7SM -RA FEW005 OVC045 08/07 A2976 RMK AO2 SLP079 P0005 T00830072=
201504110036 SPECI KCLM 110036Z AUTO 00000KT 5SM -RA BR FEW007 OVC042 08/07 A2977 RMK AO2 P0005 T00830072=
201504110027 SPECI KCLM 110027Z AUTO 32003KT 4SM -RA BR OVC038 08/07 A2977 RMK AO2 P0003 T00830072=
201504110007 SPECI KCLM 110007Z AUTO 27006KT 2SM RA BR OVC038 08/07 A2978 RMK AO2 P0002 T00830067=
201504102353 METAR KCLM 102353Z AUTO 30006KT 3SM -RA BR FEW031 OVC040 08/07 A2977 RMK AO2 SLP084 P0007 60007 T00830067 10128 20083 53001=
201504102253 METAR KCLM 102253Z AUTO 33005KT 10SM -RA OVC055 11/05 A2976 RMK AO2 RAB03 SLP080 P0000 T01060050=
201504102153 METAR KCLM 102153Z AUTO VRB03KT 10SM OVC060 13/01 A2976 RMK AO2 SLP077 T01280011=
201504102053 METAR KCLM 102053Z AUTO 08006KT 10SM CLR 13/02 A2977 RMK AO2 SLP082 T01280022 58023=
201504101953 METAR KCLM 101953Z AUTO VRB06KT 10SM CLR 13/03 A2980 RMK AO2 SLP091 T01280028=
201504101853 METAR KCLM 101853Z AUTO 00000KT 10SM SCT110 11/04 A2983 RMK AO2 SLP101 T01110039=
201504101753 METAR KCLM 101753Z AUTO 30004KT 10SM SCT120 10/04 A2984 RMK AO2 SLP105 T01000039 10100 20028 56006=
201504101653 METAR KCLM 101653Z AUTO 00000KT 10SM FEW120 09/03 A2984 RMK AO2 SLP108 T00940028=
201504101553 METAR KCLM 101553Z AUTO 00000KT 10SM CLR 08/04 A2985 RMK AO2 SLP109 T00780039=
201504101453 METAR KCLM 101453Z AUTO 24005KT 10SM CLR 07/03 A2986 RMK AO2 SLP112 T00670028 56009=
201504101353 METAR KCLM 101353Z AUTO VRB03KT 10SM CLR 03/02 A2987 RMK AO2 SLP115 T00330017=
201504101253 METAR KCLM 101253Z AUTO 24005KT 10SM FEW075 04/02 A2988 RMK AO2 SLP119 T00440017=
201504101153 METAR KCLM 101153Z AUTO 00000KT 10SM FEW075 04/01 A2989 RMK AO2 SLP121 T00390006 10083 20028 56018=
201504101053 METAR KCLM 101053Z AUTO 00000KT 10SM FEW075 04/01 A2990 RMK AO2 SLP127 T00390006=
201504100953 METAR KCLM 100953Z AUTO 00000KT 10SM CLR 03/01 A2992 RMK AO2 SLP131 T00330006=
201504100853 METAR KCLM 100853Z AUTO 24007KT 10SM CLR 07/02 A2994 RMK AO2 SLP139 T00720017 58010=
201504100753 METAR KCLM 100753Z AUTO 23003KT 10SM CLR 08/02 A2995 RMK AO2 SLP143 T00780017 401390039=
201504100653 METAR KCLM 100653Z AUTO 26009KT 10SM CLR 08/01 A2996 RMK AO2 SLP146 T00830011=
201504100553 METAR KCLM 100553Z AUTO 26007KT 10SM CLR 08/01 A2997 RMK AO2 SLP149 T00780006 10133 20056 58014=
201504100453 METAR KCLM 100453Z AUTO 24006KT 10SM CLR 06/M01 A2999 RMK AO2 SLP155 T00611011=
201504100353 METAR KCLM 100353Z AUTO 22003KT 10SM SCT075 08/M01 A3000 RMK AO2 SLP159 T00781006=
201504100253 METAR KCLM 100253Z AUTO 23004KT 10SM FEW075 10/M02 A3001 RMK AO2 SLP163 T01001022 58006=
201504100153 METAR KCLM 100153Z AUTO 00000KT 10SM CLR 11/M07 A3002 RMK AO2 SLP166 T01111067=
201504100053 METAR KCLM 100053Z AUTO 33005KT 10SM CLR 12/M03 A3002 RMK AO2 SLP169 T01171028=
201504092353 METAR KCLM 092353Z AUTO 34004KT 10SM CLR 13/M02 A3003 RMK AO2 SLP169 T01331017 10139 20100 56019=
201504092253 METAR KCLM 092253Z AUTO 33004KT 10SM CLR 13/M01 A3004 RMK AO2 SLP173 T01331006=
201504092153 METAR KCLM 092153Z AUTO VRB03KT 10SM CLR 14/03 A3006 RMK AO2 SLP180 T01390033=
201504092053 METAR KCLM 092053Z AUTO VRB04KT 10SM CLR 13/06 A3008 RMK AO2 SLP188 T01280061 58015=
201504091953 METAR KCLM 091953Z AUTO VRB03KT 10SM CLR 12/06 A3010 RMK AO2 SLP194 T01220061=
201504091853 METAR KCLM 091853Z AUTO VRB05KT 10SM CLR 11/06 A3012 RMK AO2 SLP200 T01110061=
201504091753 METAR KCLM 091753Z AUTO VRB04KT 10SM CLR 11/06 A3013 RMK AO2 SLP203 T01060056 10106 20039 58005=
201504091653 METAR KCLM 091653Z AUTO VRB04KT 10SM CLR 11/04 A3013 RMK AO2 SLP205 T01060044=
201504091553 METAR KCLM 091553Z AUTO 00000KT 10SM CLR 09/03 A3014 RMK AO2 SLP207 T00940028=
201504091453 METAR KCLM 091453Z AUTO 23005KT 10SM CLR 07/02 A3014 RMK AO2 SLP209 T00670022 55001=
201504091353 METAR KCLM 091353Z AUTO 23005KT 10SM CLR 04/02 A3014 RMK AO2 SLP207 T00440017=
201504091253 METAR KCLM 091253Z AUTO 23006KT 10SM CLR 04/01 A3014 RMK AO2 SLP207 T00390011=
201504091153 METAR KCLM 091153Z AUTO 26005KT 10SM CLR 06/02 A3015 RMK AO2 SLP210 T00560022 10083 20044 50003=
201504091053 METAR KCLM 091053Z AUTO 28007KT 10SM CLR 07/02 A3015 RMK AO2 SLP210 T00670022=
201504090953 METAR KCLM 090953Z AUTO 25007KT 10SM CLR 07/02 A3015 RMK AO2 SLP210 T00670022=
201504090853 METAR KCLM 090853Z AUTO 27008KT 10SM CLR 07/03 A3014 RMK AO2 SLP207 T00670033 50000=
201504090753 METAR KCLM 090753Z AUTO 26009KT 10SM CLR 08/03 A3014 RMK AO2 SLP207 T00780033 401440039=
201504090653 METAR KCLM 090653Z AUTO 27008KT 10SM CLR 07/04 A3014 RMK AO2 SLP208 T00720039=
201504090553 METAR KCLM 090553Z AUTO 27009KT 10SM CLR 08/05 A3014 RMK AO2 SLP207 T00830050 10133 20083 51010=
201504090453 METAR KCLM 090453Z AUTO 28009KT 10SM CLR 09/06 A3013 RMK AO2 SLP205 T00890061=
201504090353 METAR KCLM 090353Z AUTO 28009KT 10SM CLR 09/06 A3013 RMK AO2 SLP203 T00940056=
201504090253 METAR KCLM 090253Z AUTO 28010KT 10SM CLR 10/03 A3011 RMK AO2 SLP197 T01000028 53005=
201504090153 METAR KCLM 090153Z AUTO 29010KT 10SM CLR 12/04 A3010 RMK AO2 SLP194 T01220044=
201504090053 METAR KCLM 090053Z AUTO 31010KT 10SM CLR 13/06 A3010 RMK AO2 SLP193 T01280061=
201504082353 METAR KCLM 082353Z AUTO 33008KT 10SM CLR 13/07 A3010 RMK AO2 SLP192 T01330072 10144 20111 56004=
201504082253 METAR KCLM 082253Z AUTO 32008KT 10SM CLR 14/04 A3010 RMK AO2 SLP194 T01390044=
201504082153 METAR KCLM 082153Z AUTO VRB03KT 10SM CLR 13/03 A3010 RMK AO2 SLP194 T01280033=
201504082053 METAR KCLM 082053Z AUTO 07004KT 10SM CLR 13/04 A3011 RMK AO2 SLP196 T01280039 52006=
201504081953 METAR KCLM 081953Z AUTO 02006KT 10SM CLR 13/04 A3010 RMK AO2 SLP194 T01280044=
201504081853 METAR KCLM 081853Z AUTO 07004KT 10SM CLR 13/04 A3009 RMK AO2 SLP191 T01280039=
201504081753 METAR KCLM 081753Z AUTO 01004KT 10SM SCT100 12/03 A3009 RMK AO2 SLP190 T01170033 10128 20039 53016=
201504081653 METAR KCLM 081653Z AUTO 09005KT 10SM FEW095 12/03 A3007 RMK AO2 SLP184 T01170028=
201504081553 METAR KCLM 081553Z AUTO 23004KT 10SM BKN095 08/03 A3006 RMK AO2 SLP180 T00830033=
201504081453 METAR KCLM 081453Z AUTO 24006KT 10SM OVC090 07/03 A3004 RMK AO2 SLP173 T00720028 53019=
201504081353 METAR KCLM 081353Z AUTO 20003KT 10SM OVC090 05/02 A3002 RMK AO2 SLP167 T00500022=
201504081253 METAR KCLM 081253Z AUTO 25006KT 10SM OVC085 06/02 A3000 RMK AO2 SLP159 T00560017=
201504081153 METAR KCLM 081153Z AUTO 24010KT 10SM OVC080 07/02 A2998 RMK AO2 SLP154 T00670017 10078 20061 53012=
201504081053 METAR KCLM 081053Z AUTO 24009KT 10SM CLR 07/02 A2997 RMK AO2 SLP148 T00670022=
201504080953 METAR KCLM 080953Z AUTO 24009KT 10SM CLR 07/02 A2995 RMK AO2 SLP144 T00720022=
201504080853 METAR KCLM 080853Z AUTO 25008KT 10SM CLR 06/03 A2995 RMK AO2 SLP143 T00610028 51006=
201504080753 METAR KCLM 080753Z AUTO 23008KT 10SM CLR 07/03 A2994 RMK AO2 SLP140 T00670028 401280017=
201504080653 METAR KCLM 080653Z AUTO 25006KT 10SM CLR 07/03 A2994 RMK AO2 SLP140 T00670028=
201504080553 METAR KCLM 080553Z AUTO 24007KT 10SM FEW065 07/03 A2993 RMK AO2 SLP137 T00720028 10128 20061 51017=
201504080453 METAR KCLM 080453Z AUTO 25007KT 10SM CLR 07/03 A2993 RMK AO2 SLP134 T00720028=
201504080353 METAR KCLM 080353Z AUTO 00000KT 10SM CLR 06/03 A2990 RMK AO2 SLP127 T00610033=
201504080253 METAR KCLM 080253Z AUTO 13005KT 10SM CLR 09/04 A2988 RMK AO2 SLP121 T00940039 53003=
201504080153 METAR KCLM 080153Z AUTO 12003KT 10SM CLR 11/03 A2988 RMK AO2 SLP118 T01110033=
201504080053 METAR KCLM 080053Z AUTO 08005KT 10SM CLR 12/03 A2987 RMK AO2 SLP116 T01170028=
201504072353 METAR KCLM 072353Z AUTO 09005KT 10SM CLR 12/04 A2987 RMK AO2 SLP117 T01220044 10128 20094 58005=
201504072253 METAR KCLM 072253Z AUTO 06004KT 10SM BKN100 11/06 A2988 RMK AO2 SLP120 T01110056=
201504072153 METAR KCLM 072153Z AUTO 09008KT 10SM BKN100 12/05 A2988 RMK AO2 SLP121 T01170050=
201504072053 METAR KCLM 072053Z AUTO 07006KT 10SM CLR 11/06 A2989 RMK AO2 SLP122 T01110061 57003=
201504071953 METAR KCLM 071953Z AUTO 06007KT 10SM FEW075 11/06 A2989 RMK AO2 SLP123 T01060061=
201504071853 METAR KCLM 071853Z AUTO 08006KT 10SM SCT018 SCT060 11/06 A2989 RMK AO2 SLP125 T01060056=
201504071818 SPECI KCLM 071818Z AUTO 11005KT 10SM FEW014 SCT023 10/06 A2990 RMK AO2 T01000061=
201504071753 METAR KCLM 071753Z AUTO 08007KT 10SM FEW014 BKN021 09/06 A2990 RMK AO2 SLP125 T00940056 10094 20017 52010=
201504071714 SPECI KCLM 071714Z AUTO VRB06KT 10SM SCT015 BKN022 09/06 A2989 RMK AO2 T00890056=
201504071653 METAR KCLM 071653Z AUTO 09003KT 10SM CLR 09/05 A2988 RMK AO2 SLP121 T00890050=
201504071553 METAR KCLM 071553Z AUTO 22003KT 10SM OVC035 08/06 A2988 RMK AO2 SLP119 T00780056=
201504071453 METAR KCLM 071453Z AUTO 22005KT 10SM BKN036 06/04 A2987 RMK AO2 SLP115 T00560039 53007=
201504071353 METAR KCLM 071353Z AUTO 22006KT 10SM SCT007 04/03 A2986 RMK AO2 SLP112 T00440033 $=
201504071253 METAR KCLM 071253Z AUTO 00000KT 10SM BKN006 BKN012 03/02 A2985 RMK AO2 SLP110 T00330022 $=
201504071242 SPECI KCLM 071242Z AUTO 20003KT 10SM BKN006 BKN012 03/02 A2985 RMK AO2 T00280017 $=
201504071238 SPECI KCLM 071238Z AUTO 20003KT 10SM SCT007 SCT012 02/01 A2985 RMK AO2 T00220006 $=
201504071153 METAR KCLM 071153Z AUTO 00000KT 10SM SCT012 03/02 A2984 RMK AO2 SLP108 T00330017 10050 20022 56003 $=
201504071144 SPECI KCLM 071144Z AUTO 00000KT 10SM BKN013 03/02 A2984 RMK AO2 T00330017 $=
201504071053 METAR KCLM 071053Z AUTO 23005KT 10SM CLR 04/02 A2984 RMK AO2 SLP108 T00390022 $=
201504070953 METAR KCLM 070953Z AUTO 23003KT 10SM CLR 03/02 A2985 RMK AO2 SLP109 T00280017 $=
201504070853 METAR KCLM 070853Z AUTO 24006KT 10SM CLR 03/02 A2985 RMK AO2 SLP111 T00330017 58005 $=
201504070753 METAR KCLM 070753Z AUTO 00000KT 10SM CLR 03/02 A2986 RMK AO2 SLP112 T00330017 401220011 $=
201504070653 METAR KCLM 070653Z AUTO 24005KT 10SM CLR 05/03 A2987 RMK AO2 SLP116 T00500028 $=
201504070553 METAR KCLM 070553Z AUTO 24005KT 10SM CLR 05/03 A2987 RMK AO2 SLP116 T00500028 10100 20050 51006 $=
201504070453 METAR KCLM 070453Z AUTO 24004KT 10SM CLR 06/03 A2986 RMK AO2 SLP115 T00560033 $=
201504070353 METAR KCLM 070353Z AUTO 00000KT 10SM CLR 05/03 A2986 RMK AO2 SLP115 T00500033 $=
201504070253 METAR KCLM 070253Z AUTO 18004KT 10SM CLR 08/05 A2985 RMK AO2 SLP111 T00780050 51006 $=
201504070153 METAR KCLM 070153Z AUTO 29004KT 10SM CLR 09/06 A2985 RMK AO2 SLP109 T00890056 $=
201504070053 METAR KCLM 070053Z AUTO 31006KT 10SM CLR 10/06 A2984 RMK AO2 SLP106 T01000056 $=
201504062353 METAR KCLM 062353Z AUTO 35005KT 10SM CLR 10/03 A2983 RMK AO2 SLP104 T01000033 10122 20094 55000 $=
201504062253 METAR KCLM 062253Z AUTO 01005KT 10SM CLR 11/03 A2983 RMK AO2 SLP102 T01110028 $=
201504062153 METAR KCLM 062153Z AUTO 03006KT 10SM CLR 12/04 A2983 RMK AO2 SLP102 T01170044 $=
201504062053 METAR KCLM 062053Z AUTO 01005KT 10SM CLR 11/04 A2983 RMK AO2 SLP104 T01110039 50003 $=
201504061953 METAR KCLM 061953Z AUTO 35004KT 10SM CLR 10/04 A2984 RMK AO2 SLP105 T01000044 $=
201504061853 METAR KCLM 061853Z AUTO 35005KT 10SM CLR 09/04 A2983 RMK AO2 SLP103 T00940044 $=
201504061753 METAR KCLM 061753Z AUTO 01005KT 10SM BKN095 09/04 A2982 RMK AO2 SLP101 T00940039 10094 20011 51021 $=
201504061653 METAR KCLM 061653Z AUTO 28004KT 10SM SCT100 OVC120 09/03 A2980 RMK AO2 SLP094 T00890028 $=
201504061553 METAR KCLM 061553Z AUTO 27005KT 10SM BKN100 BKN120 07/02 A2978 RMK AO2 SLP087 T00720022 $=
201504061453 METAR KCLM 061453Z AUTO 23007KT 10SM FEW100 05/01 A2976 RMK AO2 SLP079 T00500011 53014 $=
201504061353 METAR KCLM 061353Z AUTO 23007KT 10SM CLR 03/01 A2974 RMK AO2 SLP074 T00280006 $=
201504061253 METAR KCLM 061253Z AUTO 23006KT 10SM FEW080 03/00 A2973 RMK AO2 SLP070 T00330000 $=
201504061153 METAR KCLM 061153Z AUTO 24004KT 10SM CLR 03/00 A2972 RMK AO2 SLP065 T00280000 10050 20028 53007 $=
201504061053 METAR KCLM 061053Z AUTO 23007KT 10SM CLR 04/01 A2971 RMK AO2 SLP061 T00440006 $=
201504060953 METAR KCLM 060953Z AUTO 23005KT 10SM CLR 04/01 A2970 RMK AO2 SLP057 T00440006 $=
201504060853 METAR KCLM 060853Z AUTO 22006KT 10SM CLR 04/01 A2970 RMK AO2 SLP058 T00440011 53004 $=
201504060753 METAR KCLM 060753Z AUTO 23008KT 10SM CLR 05/02 A2969 RMK AO2 SLP055 T00500017 401000006 $=
201504060653 METAR KCLM 060653Z AUTO 22007KT 10SM CLR 04/02 A2969 RMK AO2 SLP055 T00390017 $=
201504060553 METAR KCLM 060553Z AUTO 22007KT 10SM CLR 05/02 A2968 RMK AO2 SLP053 T00500022 10100 20033 58001 $=
201504060453 METAR KCLM 060453Z AUTO 23006KT 10SM CLR 06/02 A2969 RMK AO2 SLP054 T00560022 $=
201504060353 METAR KCLM 060353Z AUTO 24006KT 10SM CLR 05/02 A2969 RMK AO2 SLP054 T00500017 $=
201504060253 METAR KCLM 060253Z AUTO 22005KT 10SM CLR 08/02 A2968 RMK AO2 SLP054 T00780022 58008 $=
201504060153 METAR KCLM 060153Z AUTO 22004KT 10SM CLR 10/03 A2970 RMK AO2 SLP058 T01000028 $=
201504060053 METAR KCLM 060053Z AUTO 17003KT 10SM FEW100 10/03 A2970 RMK AO2 SLP060 T01000028 $=
201504052353 METAR KCLM 052353Z AUTO 11003KT 10SM FEW035 SCT080 OVC095 09/03 A2971 RMK AO2 RAB05E47 SLP062 P0000 60000 T00890033 10100 20083 58015 $=
201504052253 METAR KCLM 052253Z AUTO 09006KT 10SM BKN080 OVC090 09/02 A2972 RMK AO2 SLP067 T00940022 $=
201504052153 METAR KCLM 052153Z AUTO 09006KT 10SM FEW055 FEW070 OVC090 09/02 A2974 RMK AO2 SLP074 T00940022 $=
201504052053 METAR KCLM 052053Z AUTO VRB05KT 10SM BKN100 09/03 A2976 RMK AO2 SLP078 T00940028 58013 $=
201504051953 METAR KCLM 051953Z AUTO VRB05KT 10SM OVC095 09/03 A2977 RMK AO2 SLP082 T00940028 $=
201504051853 METAR KCLM 051853Z AUTO 08007KT 10SM FEW085 09/03 A2978 RMK AO2 SLP087 T00890028 $=
201504051753 METAR KCLM 051753Z AUTO 05007KT 010V090 10SM SCT017 09/04 A2979 RMK AO2 SLP090 T00890039 10089 20028 56010 $=
201504051653 METAR KCLM 051653Z AUTO VRB05KT 10SM OVC015 08/04 A2980 RMK AO2 SLP094 T00780039 $=
201504051641 SPECI KCLM 051641Z AUTO 10003KT 10SM OVC015 07/04 A2980 RMK AO2 T00720039 $=
201504051631 SPECI KCLM 051631Z AUTO 00000KT 10SM OVC013 07/03 A2981 RMK AO2 T00720033 $=
201504051553 METAR KCLM 051553Z AUTO 24005KT 10SM BKN018 06/02 A2981 RMK AO2 SLP096 T00560022 $=
201504051529 SPECI KCLM 051529Z AUTO 24005KT 10SM SCT012 OVC019 05/02 A2982 RMK AO2 T00500017 $=
201504051453 METAR KCLM 051453Z AUTO 24004KT 10SM BKN013 OVC019 04/01 A2982 RMK AO2 SLP101 T00390011 56013 $=
201504051353 METAR KCLM 051353Z AUTO 24004KT 10SM BKN020 03/01 A2983 RMK AO2 SLP103 T00330011 $=
201504051253 METAR KCLM 051253Z AUTO 23004KT 10SM OVC016 04/01 A2985 RMK AO2 SLP108 T00390011 $=
201504051240 SPECI KCLM 051240Z AUTO 23006KT 10SM OVC015 04/01 A2985 RMK AO2 T00390011 $=
201504051153 METAR KCLM 051153Z AUTO 22005KT 10SM OVC014 03/01 A2986 RMK AO2 SLP114 T00330011 10044 20006 56017 $=
201504051053 METAR KCLM 051053Z AUTO 24008KT 10SM BKN012 03/01 A2988 RMK AO2 SLP120 T00280006 $=
201504050953 METAR KCLM 050953Z AUTO 23007KT 10SM CLR 03/01 A2989 RMK AO2 SLP124 T00280006 $=
201504050853 METAR KCLM 050853Z AUTO 23006KT 10SM CLR 03/01 A2991 RMK AO2 SLP130 T00330011 56015 $=
201504050753 METAR KCLM 050753Z AUTO 22005KT 10SM CLR 03/01 A2992 RMK AO2 SLP135 T00280011 401060000 $=
201504050653 METAR KCLM 050653Z AUTO 23005KT 10SM CLR 03/02 A2994 RMK AO2 SLP141 T00330017 $=
201504050553 METAR KCLM 050553Z AUTO 22003KT 10SM FEW110 04/02 A2995 RMK AO2 SLP145 T00440022 10094 20044 58009 $=
201504050453 METAR KCLM 050453Z AUTO 00000KT 10SM CLR 06/03 A2997 RMK AO2 SLP151 T00610028 $=
201504050353 METAR KCLM 050353Z AUTO 23003KT 10SM FEW120 06/03 A2998 RMK AO2 SLP154 T00610028 $=
201504050253 METAR KCLM 050253Z AUTO 00000KT 10SM FEW030 BKN110 07/03 A2998 RMK AO2 SLP155 T00720033 57015 $=
201504050153 METAR KCLM 050153Z AUTO 00000KT 10SM FEW055 SCT120 08/03 A3000 RMK AO2 SLP159 T00830033 $=
201504050053 METAR KCLM 050053Z AUTO 00000KT 10SM SCT055 09/02 A3001 RMK AO2 SLP165 T00890022 $=
201504042353 METAR KCLM 042353Z AUTO 34005KT 10SM BKN100 09/03 A3003 RMK AO2 SLP170 T00890033 10106 20078 58013 $=
201504042253 METAR KCLM 042253Z AUTO 36004KT 10SM FEW049 SCT055 BKN100 09/04 A3005 RMK AO2 SLP176 T00940044 $=
201504042153 METAR KCLM 042153Z AUTO 36005KT 10SM BKN060 BKN080 09/04 A3006 RMK AO2 SLP180 T00940039 $=
201504042053 METAR KCLM 042053Z AUTO 32005KT 10SM BKN070 OVC085 09/03 A3007 RMK AO2 SLP183 T00940028 58008 $=
201504041953 METAR KCLM 041953Z AUTO 36006KT 10SM CLR 08/03 A3008 RMK AO2 SLP186 T00830033 $=
201504041853 METAR KCLM 041853Z AUTO VRB05KT 10SM FEW070 09/04 A3008 RMK AO2 SLP189 T00890039 $=
201504041753 METAR KCLM 041753Z AUTO 33006KT 10SM BKN110 08/03 A3009 RMK AO2 SLP191 T00830033 10094 20000 53001 $=
201504041653 METAR KCLM 041653Z AUTO 29010KT 10SM SCT095 BKN110 08/03 A3008 RMK AO2 SLP189 T00830033 $=
201504041553 METAR KCLM 041553Z AUTO 30004KT 10SM SCT110 07/03 A3009 RMK AO2 SLP190 T00720028 $=
201504041453 METAR KCLM 041453Z AUTO 00000KT 10SM CLR 04/02 A3009 RMK AO2 SLP190 T00390017 56004 $=
201504041353 METAR KCLM 041353Z AUTO 23005KT 10SM FEW070 01/M01 A3009 RMK AO2 SLP190 T00111006 $=
201504041253 METAR KCLM 041253Z AUTO 21003KT 10SM BKN065 02/00 A3009 RMK AO2 SLP192 T00220000 $=
201504041153 METAR KCLM 041153Z AUTO 00000KT 10SM OVC060 01/M01 A3010 RMK AO2 SLP194 70003 T00111006 10050 20011 56014 $=
201504041053 METAR KCLM 041053Z AUTO 24006KT 10SM OVC060 03/M01 A3011 RMK AO2 SLP199 T00331006 $=
201504040953 METAR KCLM 040953Z AUTO 00000KT 10SM CLR 03/00 A3012 RMK AO2 SLP202 T00280000 $=
201504040853 METAR KCLM 040853Z AUTO 23006KT 10SM BKN060 04/00 A3014 RMK AO2 SLP208 T00390000 56006 $=
201504040753 METAR KCLM 040753Z AUTO 24007KT 10SM CLR 02/01 A3014 RMK AO2 SLP209 T00220006 401220017=
201504040653 METAR KCLM 040653Z AUTO 23006KT 10SM CLR 04/01 A3015 RMK AO2 SLP211 T00440011=
201504040553 METAR KCLM 040553Z AUTO 20004KT 10SM CLR 04/02 A3016 RMK AO2 SLP214 T00440022 10094 20039 53001=
201504040453 METAR KCLM 040453Z AUTO 26006KT 10SM SCT065 06/03 A3015 RMK AO2 SLP213 T00610028=
201504040353 METAR KCLM 040353Z AUTO 00000KT 10SM OVC075 07/04 A3015 RMK AO2 SLP213 T00670039=
201504040319 SPECI KCLM 040319Z AUTO 28005KT 10SM SCT014 SCT065 OVC090 07/04 A3015 RMK AO2 T00670039=
201504040309 SPECI KCLM 040309Z AUTO 29006KT 10SM BKN014 BKN065 OVC090 07/04 A3015 RMK AO2 T00720039=
201504040253 METAR KCLM 040253Z AUTO 31005KT 10SM BKN017 OVC070 07/04 A3015 RMK AO2 SLP213 T00720039 53005=
201504040153 METAR KCLM 040153Z AUTO 30007KT 10SM CLR 09/02 A3014 RMK AO2 SLP208 T00890017=
201504040053 METAR KCLM 040053Z AUTO 29009KT 10SM FEW080 09/03 A3014 RMK AO2 SLP207 T00890028=
201504032353 METAR KCLM 032353Z AUTO 30015G22KT 10SM FEW060 09/04 A3014 RMK AO2 SLP208 60003 T00890039 10122 20072 51002=
201504032253 METAR KCLM 032253Z AUTO 29014G22KT 260V330 10SM FEW060 12/01 A3014 RMK AO2 SLP208 T01220006=
201504032153 METAR KCLM 032153Z AUTO 29010G18KT 10SM BKN100 11/02 A3014 RMK AO2 SLP206 P0002 T01110022=
201504032053 METAR KCLM 032053Z AUTO 28008KT 10SM FEW028 BKN036 OVC060 07/05 A3013 RMK AO2 RAB03E53 SLP206 P0001 60001 T00720050 53006=
201504031953 METAR KCLM 031953Z AUTO 32011G18KT 10SM FEW014 BKN070 OVC085 09/04 A3012 RMK AO2 SLP201 T00890044=
201504031853 METAR KCLM 031853Z AUTO VRB06KT 10SM FEW055 BKN075 BKN090 09/05 A3010 RMK AO2 SLP195 T00940050=
201504031828 SPECI KCLM 031828Z AUTO 29005KT 10SM FEW013 SCT021 BKN060 09/05 A3011 RMK AO2 T00890050=
201504031806 SPECI KCLM 031806Z AUTO 29006KT 10SM FEW010 BKN022 OVC075 08/05 A3012 RMK AO2 T00830050=
201504031753 METAR KCLM 031753Z AUTO 28007KT 10SM BKN010 BKN016 OVC075 08/04 A3011 RMK AO2 SLP199 T00830044 10083 20022 55005=
201504031734 SPECI KCLM 031734Z AUTO 28006KT 10SM BKN013 BKN080 OVC100 08/04 A3011 RMK AO2 T00780044=
201504031653 METAR KCLM 031653Z AUTO 00000KT 10SM OVC100 07/05 A3010 RMK AO2 SLP194 T00720050=
201504031553 METAR KCLM 031553Z AUTO 00000KT 10SM OVC100 06/04 A3011 RMK AO2 SLP196 T00610044=
201504031453 METAR KCLM 031453Z AUTO 21003KT 10SM OVC100 05/03 A3013 RMK AO2 SLP204 T00500033 56020=
201504031353 METAR KCLM 031353Z AUTO 00000KT 10SM BKN110 03/02 A3014 RMK AO2 SLP208 T00280017=
201504031253 METAR KCLM 031253Z AUTO 23003KT 10SM CLR 03/02 A3016 RMK AO2 SLP216 T00280017=
201504031153 METAR KCLM 031153Z AUTO 00000KT 10SM CLR 03/02 A3019 RMK AO2 SLP225 T00330017 10067 20028 56024=
201504031053 METAR KCLM 031053Z AUTO 23003KT 10SM FEW110 03/02 A3021 RMK AO2 SLP232 T00330022=
201504030953 METAR KCLM 030953Z AUTO 21003KT 10SM SCT110 05/04 A3024 RMK AO2 SLP240 T00500039=
201504030853 METAR KCLM 030853Z AUTO 00000KT 10SM BKN110 06/04 A3026 RMK AO2 SLP248 T00560039 58015=
201504030753 METAR KCLM 030753Z AUTO 23003KT 10SM BKN036 BKN120 06/04 A3028 RMK AO2 SLP254 T00560039 401220039=
201504030653 METAR KCLM 030653Z AUTO 22005KT 10SM BKN036 07/04 A3029 RMK AO2 SLP259 T00670044=
201504030553 METAR KCLM 030553Z AUTO 23004KT 10SM OVC120 07/04 A3031 RMK AO2 SLP263 60000 T00670044 10106 20067 58010=
201504030453 METAR KCLM 030453Z AUTO 24003KT 10SM FEW065 BKN120 07/06 A3032 RMK AO2 SLP269 T00720056=
201504030353 METAR KCLM 030353Z AUTO 00000KT 10SM OVC050 08/06 A3033 RMK AO2 RAB44E53 SLP274 P0000 T00830056=
201504030253 METAR KCLM 030253Z AUTO 00000KT 10SM SCT048 BKN065 08/06 A3034 RMK AO2 RAE0155 SLP275 P0000 60000 T00830056 58013=
201504030153 METAR KCLM 030153Z AUTO 17003KT 10SM -RA FEW037 BKN049 OVC060 09/04 A3035 RMK AO2 RAB40 SLP281 P0000 T00890044=
201504030053 METAR KCLM 030053Z AUTO 30004KT 10SM SCT047 BKN060 10/04 A3036 RMK AO2 SLP284 T01000039=
201504022353 METAR KCLM 022353Z AUTO 34004KT 10SM BKN036 OVC045 10/04 A3037 RMK AO2 RAB12E22 SLP287 P0000 60000 T01000044 10122 20094 56006=
201504022253 METAR KCLM 022253Z AUTO 02006KT 10SM SCT043 SCT050 BKN060 11/03 A3038 RMK AO2 SLP288 T01110033=
201504022153 METAR KCLM 022153Z AUTO VRB05KT 10SM SCT049 12/03 A3038 RMK AO2 SLP289 T01170028=
201504022053 METAR KCLM 022053Z AUTO VRB05KT 10SM SCT060 BKN075 11/03 A3039 RMK AO2 SLP293 T01110033 50001=
201504021953 METAR KCLM 021953Z AUTO VRB03KT 10SM SCT055 11/04 A3039 RMK AO2 SLP294 T01060044=
201504021853 METAR KCLM 021853Z AUTO VRB03KT 10SM SCT046 BKN055 10/04 A3039 RMK AO2 SLP293 T01000044=
201504021753 METAR KCLM 021753Z AUTO 36005KT 10SM FEW036 FEW060 10/04 A3039 RMK AO2 SLP291 T01000039 10111 20039 53006=
201504021653 METAR KCLM 021653Z AUTO 27006KT 10SM CLR 09/02 A3038 RMK AO2 SLP290 T00940017=
201504021553 METAR KCLM 021553Z AUTO 24010KT 10SM FEW050 07/01 A3037 RMK AO2 SLP288 T00670011=
201504021453 METAR KCLM 021453Z AUTO 24008KT 10SM CLR 04/01 A3037 RMK AO2 SLP287 T00440006 53009=
201504021353 METAR KCLM 021353Z AUTO 24009KT 10SM CLR 04/01 A3036 RMK AO2 SLP283 T00390006=
201504021253 METAR KCLM 021253Z AUTO 24010KT 10SM CLR 04/01 A3035 RMK AO2 SLP279 T00440006=
201504021153 METAR KCLM 021153Z AUTO 24010KT 10SM CLR 04/01 A3035 RMK AO2 SLP278 T00440006 10061 20039 51005=
201504021053 METAR KCLM 021053Z AUTO 25011KT 10SM CLR 05/01 A3034 RMK AO2 SLP275 T00500011=
201504020953 METAR KCLM 020953Z AUTO 26010KT 10SM CLR 06/01 A3034 RMK AO2 SLP275 T00560011=
201504020853 METAR KCLM 020853Z AUTO 26012KT 10SM CLR 06/02 A3033 RMK AO2 SLP273 T00560017 51005=
201504020753 METAR KCLM 020753Z AUTO 26009KT 10SM CLR 05/02 A3033 RMK AO2 SLP273 T00500022 401170050=
201504020653 METAR KCLM 020653Z AUTO 25011KT 10SM CLR 06/02 A3033 RMK AO2 SLP271 T00560022=
201504020553 METAR KCLM 020553Z AUTO 25010KT 10SM CLR 06/03 A3032 RMK AO2 SLP268 T00610028 10100 20061 51009=
201504020453 METAR KCLM 020453Z AUTO 26009KT 10SM CLR 07/03 A3031 RMK AO2 SLP264 T00670033=
201504020353 METAR KCLM 020353Z AUTO 25009KT 10SM CLR 07/04 A3030 RMK AO2 SLP262 T00720039=
201504020302 SPECI KCLM 020302Z AUTO 26009G17KT 10SM FEW023 SCT036 08/04 A3029 RMK AO2 T00830039=
201504020253 METAR KCLM 020253Z AUTO 28011KT 10SM BKN023 BKN036 BKN047 08/04 A3029 RMK AO2 SLP259 T00830044 50006=
201504020228 SPECI KCLM 020228Z AUTO 31006KT 10SM FEW023 BKN034 OVC042 09/04 A3029 RMK AO2 T00890044=
201504020153 METAR KCLM 020153Z AUTO 32008KT 10SM BKN022 OVC030 09/04 A3029 RMK AO2 SLP260 T00890044=
201504020120 SPECI KCLM 020120Z AUTO 31010G15KT 10SM FEW018 BKN029 OVC060 09/05 A3029 RMK AO2 T00940050=
201504020053 METAR KCLM 020053Z AUTO 29010G18KT 10SM SCT028 SCT047 BKN090 09/04 A3028 RMK AO2 SLP257 T00940039=
201504012353 METAR KCLM 012353Z AUTO 30015G19KT 10SM FEW060 10/05 A3027 RMK AO2 SLP251 60000 T01000050 10117 20083 53002=
201504012253 METAR KCLM 012253Z AUTO 34010G16KT 10SM CLR 11/04 A3026 RMK AO2 SLP248 T01110039=
201504012153 METAR KCLM 012153Z AUTO 29009KT 10SM CLR 11/06 A3026 RMK AO2 SLP248 T01060056=
201504012053 METAR KCLM 012053Z AUTO 00000KT 10SM FEW034 10/04 A3027 RMK AO2 RAB20E29 SLP250 P0000 60000 T01000044 58005=
201504011953 METAR KCLM 011953Z AUTO 00000KT 10SM SCT035 BKN043 09/05 A3027 RMK AO2 RAB31E48 SLP254 P0000 T00940050=
201504011853 METAR KCLM 011853Z AUTO 36005KT 10SM SCT060 09/04 A3028 RMK AO2 SLP255 T00940039=
201504011753 METAR KCLM 011753Z AUTO 01006KT 10SM SCT033 BKN049 BKN055 09/03 A3028 RMK AO2 SLP255 60000 T00890033 10100 20050 51012=
201504011653 METAR KCLM 011653Z AUTO 12004KT 10SM FEW060 SCT075 BKN120 09/03 A3027 RMK AO2 RAB1555E26 SLP251 P0000 T00890033=
201504011553 METAR KCLM 011553Z AUTO 26006KT 10SM FEW024 BKN046 OVC055 07/02 A3027 RMK AO2 SLP251 T00720022=
201504011453 METAR KCLM 011453Z AUTO 26010KT 10SM BKN050 07/02 A3025 RMK AO2 SLP244 T00670017 53007=
201504011353 METAR KCLM 011353Z AUTO 24011KT 10SM CLR 06/01 A3023 RMK AO2 SLP240 T00560011=
201504011253 METAR KCLM 011253Z AUTO 25012KT 10SM CLR 06/01 A3023 RMK AO2 SLP238 T00610011=
201504011153 METAR KCLM 011153Z AUTO 25008KT 10SM FEW045 06/02 A3022 RMK AO2 SLP236 70003 T00610017 10067 20056 53004=
201504011053 METAR KCLM 011053Z AUTO 26009KT 10SM FEW041 06/02 A3021 RMK AO2 SLP232 T00610022=
201504010953 METAR KCLM 010953Z AUTO 24010KT 10SM CLR 07/02 A3022 RMK AO2 SLP233 T00670022=
201504010853 METAR KCLM 010853Z AUTO 24011KT 10SM FEW041 06/02 A3021 RMK AO2 SLP232 T00610022 51013=
201504010753 METAR KCLM 010753Z AUTO 25007KT 10SM SCT046 BKN075 06/03 A3020 RMK AO2 SLP229 T00610028 401280056=
201504010653 METAR KCLM 010653Z AUTO 25011G20KT 10SM CLR 07/02 A3019 RMK AO2 SLP223 T00670022=
201504010553 METAR KCLM 010553Z AUTO 24009KT 10SM CLR 06/03 A3017 RMK AO2 SLP218 60001 T00610028 10094 20061 51012=
201504010453 METAR KCLM 010453Z AUTO 25010KT 10SM CLR 07/03 A3016 RMK AO2 SLP214 T00670033=
201504010353 METAR KCLM 010353Z AUTO 27006KT 10SM BKN049 07/04 A3016 RMK AO2 SLP213 T00720044=
201504010253 METAR KCLM 010253Z AUTO 27009KT 10SM FEW046 07/04 A3014 RMK AO2 RAE0159B31E40 SLP207 P0000 60001 T00720044 51002=
201504010153 METAR KCLM 010153Z AUTO 28007KT 10SM -RA BKN040 OVC050 08/05 A3013 RMK AO2 RAB16 SLP205 P0001 T00780050=
201504010053 METAR KCLM 010053Z AUTO 30007KT 10SM SCT014 BKN060 OVC090 08/05 A3014 RMK AO2 RAE06B29E39 SLP206 P0000 T00780050=
201504010042 SPECI KCLM 010042Z AUTO 30009KT 10SM SCT016 BKN038 OVC090 08/05 A3014 RMK AO2 RAE06B29E39 P0000 T00780050=
201504010035 SPECI KCLM 010035Z AUTO 30009KT 10SM -RA FEW013 BKN019 OVC090 08/04 A3014 RMK AO2 RAE06B29 P0000 T00780044=

# No short TAF reports from KCLM in databse.

###################################
#  large TAF from KCLM
###################################
201504302335 TAF KCLM 302335Z 0100/0124 VRB03KT P6SM OVC050 FM011100 27004KT
                       P6SM OVC025 FM011600 27008KT P6SM SCT025
                       BKN200=
201504301734 TAF KCLM 301734Z 3018/0118 36003KT P6SM FEW070 BKN200 FM302300
                       29008KT P6SM SCT050 BKN200 FM011100 27004KT
                       P6SM OVC025=
201504301120 TAF KCLM 301120Z 3012/0112 22006KT P6SM SCT040
                      TEMPO 3012/3016 BKN030 FM301900 29008KT P6SM
                       SCT050 BKN100=
201504300522 TAF KCLM 300522Z 3006/0106 29007KT P6SM VCSH BKN060 FM301900 29008KT
                       P6SM SCT050 BKN100=
201504292332 TAF KCLM 292332Z 3000/3024 27008KT P6SM FEW040 BKN050 BKN080
                      TEMPO 3000/3003 P6SM -SHRA BKN035 BKN080
                       FM300300 28009KT P6SM VCSH SCT035 BKN070
                       FM300900 27008KT P6SM BKN050=
201504291741 TAF KCLM 291741Z 2918/3018 VRB05KT P6SM FEW070 BKN200
                      TEMPO 2920/2924 P6SM -SHRA BKN045 OVC200
                       FM300000 29011KT P6SM VCSH SCT050 SCT200
                       FM301200 26004KT P6SM OVC050=
201504291130 TAF KCLM 291130Z 2912/3012 25006KT P6SM SCT050 FM291800 VRB03KT
                       P6SM SCT050 BKN100 FM292100 VRB03KT P6SM
                       -RA OVC050 FM300100 27008KT P6SM BKN050=
201504290539 TAF KCLM 290539Z 2906/3006 25006KT P6SM SCT050 FM291800 VRB03KT
                       P6SM SCT050 BKN100 FM292100 VRB03KT P6SM
                       -RA OVC050 FM300100 27008KT P6SM BKN050=
201504282332 TAF KCLM 282332Z 2900/2924 30014G23KT P6SM SCT050 FM290600 25004KT
                       P6SM SCT050 FM292000 VRB03KT P6SM OVC050
                       TEMPO 2920/2924 -RA=
201504281804 TAF AMD KCLM 281804Z 2818/2918 31016G22KT P6SM SCT008 OVC060
                      TEMPO 2818/2822 BKN008 OVC040 FM282200 30015G25KT
                       P6SM SCT035 BKN050 FM290600 25004KT P6SM
                       SCT030 BKN050=
201504281729 TAF KCLM 281729Z 2818/2918 30017G26KT P6SM -SHRA OVC040 FM282200
                       30015G25KT P6SM SCT035 BKN050 FM290600 25004KT
                       P6SM SCT030 BKN050=
201504281530 TAF AMD KCLM 281530Z 2816/2912 30019G27KT P6SM OVC005
                      TEMPO 2816/2819 -SHRA FM281900 28012G20KT
                       P6SM VCSH SCT025 BKN040 FM282200 28012KT
                       P6SM SCT035 BKN050=
201504281218 TAF KCLM 281218Z 2812/2912 28010KT P6SM SCT050 BKN080 OVC200 FM281500
                       28010KT P6SM -RA SCT022 OVC035 FM281900
                       28010KT P6SM -SHRA BKN025 BKN040 FM282200
                       28010KT P6SM SCT035 BKN050=
201504280534 TAF KCLM 280534Z 2806/2906 VRB03KT P6SM BKN250 FM281100 VRB03KT
                       P6SM SCT050 BKN100 OVC200 FM281500 VRB03KT
                       P6SM -RA BKN025 OVC040 FM281800 28010KT
                       P6SM SCT030 BKN045=
201504272320 TAF KCLM 272320Z 2800/2824 09003KT P6SM SCT250 FM280900 28009KT
                       P6SM SCT035 BKN060 FM281300 VRB04KT P6SM
                       -RA BKN035 OVC060 FM281800 28014KT P6SM
                       VCSH SCT035 BKN060=
201504271728 TAF KCLM 271728Z 2718/2818 33004KT P6SM FEW070 FM272100 VRB03KT
                       P6SM SCT070 FM280800 VRB03KT P6SM SCT035
                       BKN060 FM281300 29008KT P6SM -RA BKN035
                       OVC060=
201504271136 TAF KCLM 271136Z 2712/2812 VRB03KT P6SM BKN050 OVC080 FM272100
                       VRB03KT P6SM SCT060 BKN120=
201504270536 TAF KCLM 270536Z 2706/2806 VRB03KT P6SM SCT035 BKN050 OVC080 FM271900
                       VRB03KT P6SM SCT060 BKN120=
201504262321 TAF KCLM 262321Z 2700/2724 35004KT P6SM OVC070 FM270300 VRB03KT
                       P6SM -RA SCT025 OVC040 FM270900 VRB03KT
                       P6SM SCT035 OVC060 FM271900 VRB03KT P6SM
                       SCT060 BKN120 FM272200 35004KT P6SM SCT120=
201504261720 TAF KCLM 261720Z 2618/2718 VRB04KT P6SM BKN100 OVC200 FM262100
                       07005KT P6SM SCT040 OVC070 FM270000 VRB03KT
                       P6SM -RA SCT025 OVC040 FM270800 VRB03KT
                       P6SM SCT035 OVC060=
201504261122 TAF KCLM 261122Z 2612/2712 VRB03KT P6SM BKN250 FM261400 VRB03KT
                       P6SM SCT070 OVC150 FM262100 VRB03KT P6SM
                       SCT040 OVC070 FM270200 VRB03KT P6SM -RA
                       SCT025 OVC040 FM270900 VRB03KT P6SM SCT035
                       OVC060=
201504260535 TAF KCLM 260535Z 2606/2706 27006KT P6SM SKC FM261300 VRB03KT P6SM
                       SCT070 OVC150 FM262100 VRB03KT P6SM SCT040
                       OVC070 FM270200 VRB03KT P6SM -RA SCT025
                       OVC040=
201504252331 TAF KCLM 252331Z 2600/2624 03005KT P6SM SKC FM260300 27007KT P6SM
                       SCT050 SCT150 FM261700 09003KT P6SM SCT050
                       BKN090=
201504251740 TAF KCLM 251740Z 2518/2618 27006KT P6SM SCT035 FM260300 27007KT
                       P6SM SCT050 SCT100 FM261500 09003KT P6SM
                       SCT050 BKN100=
201504251128 TAF KCLM 251128Z 2512/2612 27008KT P6SM BKN040 BKN070 FM251700
                       27008KT P6SM SCT040 BKN070 FM260300 27008KT
                       P6SM SCT050 BKN100=
201504250526 TAF KCLM 250526Z 2506/2606 27008KT P6SM SCT030 BKN045 BKN070 FM260300
                       27008KT P6SM FEW030 SCT050 BKN100=
201504242322 TAF KCLM 242322Z 2500/2524 29008KT P6SM FEW030 SCT050 BKN150=
201504241720 TAF KCLM 241720Z 2418/2518 11005KT P6SM FEW020 SCT045 SCT070
                      TEMPO 2419/2423 -SHRA SCT020 BKN035 BKN070
                       FM250000 29010KT P6SM SCT030 BKN060=
201504241133 TAF KCLM 241133Z 2412/2512 26008KT P6SM SCT060 FM241800 29010KT
                       P6SM -SHRA BKN025 OVC050 FM250000 29010KT
                       P6SM SCT030 BKN050=
201504240539 TAF KCLM 240539Z 2406/2506 VRB03KT P6SM -SHRA BKN035 OVC050 FM241800
                       29010KT P6SM -SHRA BKN025 OVC050 FM250000
                       29010KT P6SM SCT030 BKN050=
201504232330 TAF KCLM 232330Z 2400/2424 VRB03KT P6SM VCSH SCT012 SCT020 BKN050
                       FM240200 29012G20KT P6SM VCSH SCT020 BKN050
                       FM240800 VRB03KT P6SM SCT040 BKN100 FM241800
                       31010KT P6SM -SHRA BKN025 OVC050=
201504231730 TAF KCLM 231730Z 2318/2418 00000KT P6SM OVC070 FM232000 VRB04KT
                       P6SM -RA OVC020 FM240000 29012G20KT P6SM
                       VCSH OVC030=
201504231321 TAF AMD KCLM 231321Z 2313/2412 24004KT P6SM BKN020 OVC080 FM231500
                       00000KT P6SM -RA BKN040 OVC080 FM232000
                       VRB04KT P6SM -RA OVC020 FM240300 29006KT
                       P6SM VCSH OVC030=
201504231132 TAF KCLM 231132Z 2312/2412 24004KT P6SM BKN040 OVC080 FM231500
                       00000KT P6SM -RA BKN040 OVC080 FM232000
                       VRB04KT P6SM -RA OVC020 FM240300 29006KT
                       P6SM VCSH OVC030=
201504230544 TAF KCLM 230544Z 2306/2406 28008KT P6SM SCT040 OVC100 FM231500
                       00000KT P6SM -RA BKN040 OVC080 FM232000
                       VRB04KT P6SM -RA OVC020 FM240300 29006KT
                       P6SM VCSH OVC030=
201504222320 TAF KCLM 222320Z 2300/2324 31014G24KT P6SM SCT040 FM230300 28014G24KT
                       P6SM SCT040 BKN120 OVC250 FM230600 27010KT
                       P6SM SCT040 BKN100 OVC250 FM231500 00000KT
                       P6SM -RA BKN040 OVC080 FM232000 VRB04KT
                       P6SM -RA OVC020=
201504221730 TAF KCLM 221730Z 2218/2318 29012G20KT P6SM SCT040 FM230000 28014G22KT
                       P6SM SCT050 BKN250 FM230600 27010G16KT P6SM
                       SCT040 BKN100 OVC250 FM231500 00000KT P6SM
                       -RA BKN040 OVC080=
201504221500 TAF AMD KCLM 221500Z 2215/2312 26009KT P6SM SKC FM221800 31012G20KT
                       P6SM BKN040 FM230000 30010KT P6SM SCT025
                       BKN050 FM230800 25004KT P6SM BKN040=
201504221130 TAF KCLM 221130Z 2212/2312 26008KT P6SM SKC FM221400 27008KT P6SM
                       BKN030 FM221800 31012G20KT P6SM BKN040 FM230000
                       30010KT P6SM SCT025 BKN050 FM230800 25004KT
                       P6SM BKN040=
201504220537 TAF KCLM 220537Z 2206/2306 27015G25KT P6SM BKN035 FM221800 31012G20KT
                       P6SM BKN040 FM222100 31010KT P6SM SCT025
                       BKN050=
201504212335 TAF KCLM 212335Z 2200/2224 30022G33KT P6SM VCSH SCT040 BKN100 FM220600
                       27018G27KT P6SM OVC025 FM222100 28016G24KT
                       P6SM SCT025 BKN050=
201504211730 TAF KCLM 211730Z 2118/2218 29016G22KT P6SM OVC016 FM212000 28015G25KT
                       P6SM VCSH BKN018 OVC035 FM220600 27010KT
                       P6SM OVC025=
201504211645 TAF AMD KCLM 211645Z 2117/2212 30018G26KT P6SM BKN007 OVC100 FM211800
                       29012G20KT P6SM OVC050 FM212000 28015G25KT
                       P6SM VCSH BKN018 OVC035 FM220600 27010KT
                       P6SM OVC025=
201504211500 TAF AMD KCLM 211500Z 2115/2212 30008KT P6SM SCT070 BKN250 FM211800
                       29012G20KT P6SM OVC050 FM212000 28015G25KT
                       P6SM VCSH BKN018 OVC035 FM220600 27010KT
                       P6SM OVC025=
201504211143 TAF KCLM 211143Z 2112/2212 27010KT P6SM SKC FM211400 28012KT P6SM
                       BKN008 FM211800 29012G20KT P6SM OVC050 FM212000
                       28015G25KT P6SM VCSH BKN018 OVC035 FM220600
                       27010KT P6SM OVC025=
201504211059 TAF AMD KCLM 211059Z 2111/2206 27010KT P6SM SKC FM211300 28012KT
                       P6SM BKN008 FM212100 28015G25KT P6SM VCSH
                       BKN018 OVC035=
201504210524 TAF KCLM 210524Z 2106/2206 26010KT P6SM SKC FM211000 27010KT P6SM
                       OVC008 FM212100 28015G25KT P6SM VCSH BKN018
                       OVC035=
201504202330 TAF KCLM 202330Z 2100/2124 VRB03KT P6SM SKC FM211000 27010KT P6SM
                       OVC008 FM212100 28015G25KT P6SM VCSH BKN018
                       OVC035=
201504201725 TAF KCLM 201725Z 2018/2118 08006KT P6SM SKC FM210000 26010KT P6SM
                       BKN250 FM211000 27010KT P6SM OVC008=
201504201120 TAF KCLM 201120Z 2012/2112 26004KT P6SM FEW250 FM201800 VRB04KT
                       P6SM SKC FM210000 30010KT P6SM SKC
                      TEMPO 2108/2112 BKN005=
201504200520 TAF KCLM 200520Z 2006/2106 VRB04KT P6SM SCT250 FM200900 VRB04KT
                       P6SM SCT250 FM202000 29006KT P6SM SKC=
201504192320 TAF KCLM 192320Z 2000/2024 VRB04KT P6SM SCT250=
201504191720 TAF KCLM 191720Z 1918/2018 10007KT P6SM SCT250 FM200000 25005KT
                       P6SM SKC=
201504191120 TAF KCLM 191120Z 1912/2012 23004KT P6SM SCT250 FM191800 06006KT
                       P6SM SKC FM200000 25005KT P6SM SKC=
201504190530 TAF KCLM 190530Z 1906/2006 VRB04KT P6SM SCT250=
201504182320 TAF KCLM 182320Z 1900/1924 VRB04KT P6SM SCT250=
201504181822 TAF KCLM 181822Z 1818/1918 08006KT P6SM SKC FM190000 28006KT P6SM
                       SCT250=
201504181120 TAF KCLM 181120Z 1812/1912 VRB04KT P6SM SKC FM181700 05004KT P6SM
                       SKC FM190000 28006KT P6SM SCT250=
201504180520 TAF KCLM 180520Z 1806/1906 28004KT P6SM SKC FM181700 VRB04KT P6SM
                       SKC=
201504172320 TAF KCLM 172320Z 1800/1824 31014KT P6SM SKC FM180400 31010KT P6SM
                       SCT040 FM181100 VRB03KT P6SM SCT003
                      TEMPO 1814/1816 3SM BR BKN003 FM181700 34006KT
                       P6SM SKC=
201504171720 TAF KCLM 171720Z 1718/1818 31012KT P6SM SCT060 SCT120 FM180400
                       31010KT P6SM SCT040 FM181100 VRB03KT P6SM
                       SCT003
                      TEMPO 1814/1816 3SM BR BKN003 FM181700 34006KT
                       P6SM SKC=
201504171120 TAF KCLM 171120Z 1712/1812 27006KT P6SM SCT150 BKN250 FM172100
                       27008KT P6SM FEW050 SCT250 FM180000 32012G22KT
                       P6SM FEW050 FM180400 27008KT P6SM SKC=
201504170520 TAF KCLM 170520Z 1706/1806 VRB04KT P6SM FEW250 FM171500 27006KT
                       P6SM SCT150 SCT250 FM172100 27008KT P6SM
                       FEW050 SCT250 FM180000 32012G22KT P6SM FEW050=
201504162320 TAF KCLM 162320Z 1700/1724 VRB03KT P6SM FEW250 FM170200 27006KT
                       P6SM SCT200 FM171300 VRB03KT P6SM BKN200=
201504161729 TAF KCLM 161729Z 1618/1718 04005KT P6SM SCT250 FM170100 27006KT
                       P6SM SCT200 FM171300 VRB03KT P6SM BKN200=
201504161120 TAF KCLM 161120Z 1612/1712 25008KT P6SM SCT250 FM161800 28005KT
                       P6SM SKC=
201504160520 TAF KCLM 160520Z 1606/1706 25006KT P6SM SCT250 FM161800 28005KT
                       P6SM SKC=
201504152324 TAF KCLM 152324Z 1600/1624 02006KT P6SM FEW080 BKN100 FM160200
                       27010KT P6SM BKN200=
201504151727 TAF KCLM 151727Z 1518/1618 26006KT P6SM SCT200 FM152300 27004KT
                       P6SM BKN250=
201504151120 TAF KCLM 151120Z 1512/1612 25009KT P6SM SKC FM151900 32006KT P6SM
                       SCT035 FM160400 25004KT P6SM SCT035=
201504150520 TAF KCLM 150520Z 1506/1606 27008KT P6SM SCT040 FM150900 25006KT
                       P6SM FEW040 FM151900 32006KT P6SM SCT035
                       FM160400 25004KT P6SM SCT035=
201504142329 TAF KCLM 142329Z 1500/1524 28019G26KT P6SM FEW035 SCT100 FM150500
                       26011KT P6SM SCT120 BKN200=
201504141728 TAF KCLM 141728Z 1418/1518 29011KT P6SM VCSH FEW045 SCT050 SCT080
                       FM142200 30016G25KT P6SM SCT050 FM150200
                       26011KT P6SM SCT120 BKN200=
201504141120 TAF KCLM 141120Z 1412/1512 26011KT P6SM VCSH FEW040 SCT100 FM141900
                       29010KT P6SM VCSH SCT050 FM142200 30016G25KT
                       P6SM SCT050 FM150200 26011KT P6SM SCT120
                       BKN200=
201504140524 TAF KCLM 140524Z 1406/1506 25009KT P6SM SCT050 BKN080 OVC090 FM140700
                       26010KT P6SM VCSH SCT030 SCT050 FM141900
                       29010KT P6SM VCSH SCT050 FM142200 30016G25KT
                       P6SM SCT050 FM150200 26011KT P6SM SCT120
                       BKN200=
201504132326 TAF KCLM 132326Z 1400/1424 26016G20KT P6SM VCSH FEW060 SCT080 OVC120
                       FM140400 28011KT P6SM OVC050 FM141200 26011KT
                       P6SM SCT120 BKN200=
201504132101 TAF AMD KCLM 132101Z 1321/1418 30008KT P6SM -RA BKN040 OVC045 FM132200
                       32008G14KT 4SM -RA OVC025 FM140600 27012G19KT
                       P6SM VCSH BKN025 OVC050 FM141100 26012KT
                       P6SM BKN100=
201504131725 TAF KCLM 131725Z 1318/1418 08003KT P6SM BKN010 BKN100 FM131900
                       07005KT P6SM -RA OVC010 FM132200 32008G14KT
                       4SM -RA OVC025 FM140600 27012G19KT P6SM
                       VCSH BKN025 OVC050 FM141100 26012KT P6SM
                       BKN100=
201504131122 TAF KCLM 131122Z 1312/1412 00000KT P6SM SCT011
                      TEMPO 1312/1315 BKN011 FM131500 VRB03KT P6SM
                       -RA BKN010 OVC035 FM131800 32007KT P6SM
                       -SHRA SCT025 BKN050 FM132200 30015G25KT
                       P6SM VCSH SCT050=
201504130528 TAF KCLM 130528Z 1306/1406 11003KT P6SM BKN130 FM131500 VRB03KT
                       P6SM -RA OVC045 FM131800 32007KT P6SM -SHRA
                       SCT025 BKN050 FM132200 30015G25KT P6SM VCSH
                       SCT050=
201504122336 TAF KCLM 122336Z 1300/1324 29008KT P6SM BKN060 FM130600 VRB03KT
                       P6SM SCT060 BKN120 FM131600 VRB03KT P6SM
                       -RA OVC045=
201504121728 TAF KCLM 121728Z 1218/1318 26008KT P6SM BKN060 FM130100 VRB03KT
                       P6SM SCT060 FM130800 VRB03KT P6SM SCT060
                       BKN150 FM131600 VRB03KT P6SM -RA OVC045=
201504121120 TAF KCLM 121120Z 1212/1312 26012KT P6SM VCSH SCT050 OVC090 FM122000
                       VRB03KT P6SM SCT035 SCT140=
201504120522 TAF KCLM 120522Z 1206/1306 26008KT P6SM SCT045 BKN080 FM122000
                       VRB03KT P6SM SCT035 SCT140=
201504112332 TAF KCLM 112332Z 1200/1224 26012G20KT P6SM -SHRA SCT030 BKN060
                       FM120700 26010KT P6SM SCT040 BKN070 FM122000
                       VRB03KT P6SM SCT070=
201504111726 TAF KCLM 111726Z 1118/1218 27010KT P6SM -SHRA BKN060 BKN100 FM112200
                       30014G20KT P6SM VCSH SCT050 FM120700 26010KT
                       P6SM SCT050=
201504111324 TAF AMD KCLM 111324Z 1113/1212 27010KT P6SM VCSH SCT050 SCT110
                       TEMPO 1113/1115 -SHRA OVC050 FM111900 30014G20KT
                       P6SM VCSH SCT050 FM120700 28010KT P6SM SCT050=
201504111120 TAF KCLM 111120Z 1112/1212 27009KT P6SM FEW080 OVC110 FM111900
                       30014G20KT P6SM VCSH SCT050 FM120700 28010KT
                       P6SM SCT050=
201504110532 TAF KCLM 110532Z 1106/1206 27006KT P6SM -RA OVC040 FM110700 27010KT
                       P6SM -SHRA BKN050 FM111900 30014G20KT P6SM
                       VCSH SCT050=
201504110257 TAF AMD KCLM 110257Z 1103/1124 27005KT P6SM -RA SCT020 BKN080
                      TEMPO 1103/1105 5SM -RA BR BKN015 OVC050
                       FM110500 27012G20KT P6SM -SHRA SCT035 BKN050
                       FM111100 25010KT P6SM VCSH SCT050=
201504102335 TAF KCLM 102335Z 1100/1124 VRB03KT P6SM -RA OVC035 FM110200 27012G20KT
                       P6SM -SHRA SCT035 BKN050 FM111100 25010KT
                       P6SM VCSH SCT050=
201504101730 TAF KCLM 101730Z 1018/1118 VRB03KT P6SM SCT050 OVC100 FM102200
                       VRB03KT P6SM -RA OVC035 FM110200 27012G20KT
                       P6SM -SHRA SCT035 BKN050 FM110700 25008KT
                       P6SM VCSH SCT050=
201504101120 TAF KCLM 101120Z 1012/1112 00000KT P6SM FEW080 FM101800 VRB04KT
                       P6SM BKN180 FM102200 VRB05KT P6SM -RA OVC050
                       FM110200 27012G20KT P6SM -SHRA BKN050 FM110700
                       25008KT P6SM VCSH SCT050=
201504100525 TAF KCLM 100525Z 1006/1106 24006KT P6SM SCT200 FM101800 VRB04KT
                       P6SM BKN180 FM102200 VRB05KT P6SM -RA OVC050
                       FM110200 27012G20KT P6SM -SHRA BKN050=
201504092320 TAF KCLM 092320Z 1000/1024 VRB03KT P6SM SCT250 FM101800 VRB04KT
                       P6SM BKN120 FM102200 VRB05KT P6SM -RA OVC050=
201504091720 TAF KCLM 091720Z 0918/1018 03005KT P6SM SCT250 FM100300 VRB03KT
                       P6SM BKN250=
201504091126 TAF KCLM 091126Z 0912/1012 28006KT P6SM SKC FM091800 33006KT P6SM
                       SCT250 FM100200 27005KT P6SM BKN250 FM100600
                       VRB03KT P6SM BKN250=
201504090521 TAF KCLM 090521Z 0906/1006 28009KT P6SM SKC FM091800 03005KT P6SM
                       SKC=
201504082320 TAF KCLM 082320Z 0900/0924 30007KT P6SM FEW050 FM090300 25005KT
                       P6SM SKC FM091800 03005KT P6SM SKC=
201504081728 TAF KCLM 081728Z 0818/0918 VRB05KT P6SM SKC FM082100 28007KT P6SM
                       SKC FM090200 25005KT P6SM SKC=
201504081120 TAF KCLM 081120Z 0812/0912 24007KT P6SM SKC FM081600 02005KT P6SM
                       SKC FM082300 27009KT P6SM SCT060 SCT120=
201504080522 TAF KCLM 080522Z 0806/0906 25007KT P6SM FEW100 FM081600 02005KT
                       P6SM SKC FM082300 27009KT P6SM SCT060 SCT120=
201504072320 TAF KCLM 072320Z 0800/0824 07006KT P6SM SCT100 BKN200 FM080400
                       24004KT P6SM SKC FM081600 02005KT P6SM SKC=
201504071727 TAF KCLM 071727Z 0718/0818 06005KT P6SM SCT022 BKN200
                      TEMPO 0718/0720 BKN022 BKN200 FM080300 25005KT
                       P6SM SCT250 FM081600 02005KT P6SM SKC=
201504071446 TAF AMD KCLM 071446Z 0715/0812 VRB04KT P6SM SCT007 BKN200 FM071800
                       08006KT P6SM BKN200 FM080300 25005KT P6SM
                       SCT250=
201504071348 TAF AMD KCLM 071348Z 0714/0812 00000KT P6SM BKN006 BKN012 FM071800
                       VRB05KT P6SM BKN250 FM080300 25005KT P6SM
                       SCT250=
201504071130 TAF KCLM 071130Z 0712/0812 23005KT P6SM BKN250 FM071800 VRB05KT
                       P6SM BKN250 FM080300 25005KT P6SM SCT250=
201504070546 TAF KCLM 070546Z 0706/0806 23006KT P6SM BKN250 FM071800 VRB03KT
                       P6SM BKN250 FM072100 33008KT P6SM SCT250
                       FM080200 28008KT P6SM SCT250=
201504070314 TAF AMD KCLM 070314Z 0703/0724 23004KT P6SM BKN250 FM071800 07005KT
                       P6SM SCT070 BKN250=
201504062326 TAF KCLM 062326Z 0700/0724 29005KT P6SM FEW040 SCT250 FM070500
                       23004KT P6SM SCT250 FM071800 07005KT P6SM
                       SCT070 BKN250=
201504061722 TAF KCLM 061722Z 0618/0718 28004KT P6SM FEW035 BKN120 FM070000
                       VRB03KT P6SM SCT120 BKN200=
201504061143 TAF KCLM 061143Z 0612/0712 23005KT P6SM SCT110 OVC200 FM061800
                       VRB03KT P6SM VCSH SCT060 BKN110 OVC200 FM070000
                       VRB03KT P6SM SCT110 BKN200=
201504060528 TAF KCLM 060528Z 0606/0706 23007KT P6SM FEW110 OVC200 FM061200
                       23005KT P6SM VCSH SCT060 BKN110 OVC200 FM061800
                       VRB03KT P6SM VCSH BKN060 BKN110 OVC200 FM070000
                       32005KT P6SM VCSH SCT060 BKN110 BKN200 FM070300
                       28005KT P6SM SCT110 BKN200=
201504060325 TAF AMD KCLM 060325Z 0603/0624 22008KT P6SM OVC200 FM060600 22008KT
                       P6SM VCSH SCT100 OVC200 FM061200 22008KT
                       P6SM VCSH BKN100 OVC200 FM061800 VRB04KT
                       P6SM VCSH SCT060 BKN100 OVC200=
201504052320 TAF KCLM 052320Z 0600/0624 09006KT P6SM VCSH BKN080 FM060600 26006KT
                       P6SM VCSH BKN060 BKN120=
201504052007 TAF AMD KCLM 052007Z 0520/0618 VRB05KT P6SM BKN080 BKN150 FM060400
                       26006KT P6SM VCSH BKN060 BKN120=
201504051720 TAF KCLM 051720Z 0518/0618 VRB05KT P6SM BKN015 FM052100 VRB05KT
                       P6SM SCT080 SCT200 FM060400 26006KT P6SM
                       VCSH BKN060 BKN120=
201504051129 TAF KCLM 051129Z 0512/0612 23008KT P6SM BKN012 BKN200 FM051800
                       05005KT P6SM SCT025 BKN200 FM052100 VRB05KT
                       P6SM VCSH SCT050 SCT100 BKN200 FM060200
                       VRB03KT P6SM VCSH SCT050 SCT100 BKN200=
201504051111 TAF AMD KCLM 051111Z 0511/0606 23008KT P6SM SCT012 BKN200
                      TEMPO 0511/0515 BKN012 BKN200 FM051800 02005KT
                       P6SM VCSH SCT050 SCT100 BKN200
                      PROB30 0521/0602 -SHRA OVC050 FM060200 28005KT
                       P6SM VCSH SCT100 BKN200=
201504050541 TAF KCLM 050541Z 0506/0606 VRB03KT P6SM FEW100 BKN200 FM051800
                       02005KT P6SM VCSH SCT050 SCT100 BKN200
                      PROB30 0521/0602 -SHRA OVC050 FM060200 28005KT
                       P6SM VCSH SCT100 BKN200=
201504042320 TAF KCLM 042320Z 0500/0524 36006KT P6SM VCSH BKN040 BKN080 FM050500
                       VRB03KT P6SM SCT050 FM050900 21005KT P6SM
                       SCT010
                      TEMPO 0514/0517 3SM BR BKN010 FM051700 33006KT
                       P6SM SCT040=
201504041720 TAF KCLM 041720Z 0418/0518 VRB06KT P6SM VCSH BKN040 BKN080 FM050200
                       VRB03KT P6SM SCT050 FM050900 VRB03KT P6SM
                       SCT010
                      TEMPO 0514/0517 3SM BR BKN010 FM051700 33006KT
                       P6SM SCT040=
201504041135 TAF KCLM 041135Z 0412/0512 24006KT P6SM VCSH SCT035 BKN050
                      TEMPO 0414/0418 BKN028 OVC050 FM041800 VRB05KT
                       P6SM VCSH SCT035 BKN050
                      PROB30 0421/0503 -SHRA OVC035 FM050300 VRB03KT
                       P6SM SCT050 BKN100 FM050600 VRB03KT P6SM
                       FEW010 SCT050 SCT100=
201504040909 TAF AMD KCLM 040909Z 0409/0506 23006KT P6SM VCSH SCT020 BKN050
                       FM041200 VRB03KT P6SM VCSH BKN020 BKN035
                       FM041800 VRB05KT P6SM VCSH SCT030 BKN050
                       PROB30 0420/0502 -SHRA FM050200 VRB03KT
                       P6SM SCT050 BKN100=
201504040549 TAF KCLM 040549Z 0406/0506 25006KT P6SM VCSH SCT020 SCT050
                      TEMPO 0406/0410 -SHRA BKN020 BKN050 FM041000
                       VRB03KT P6SM VCSH BKN020 BKN035 FM041800
                       VRB05KT P6SM VCSH SCT030 BKN050
                      PROB30 0420/0502 -SHRA FM050200 VRB03KT P6SM
                       SCT050 BKN100=
201504040307 TAF AMD KCLM 040307Z 0403/0424 29005KT P6SM VCSH SCT017 SCT070
                       TEMPO 0403/0406 -SHRA BKN017 OVC070 FM040800
                       VRB03KT P6SM BKN030 OVC050 FM041700 VRB02KT
                       P6SM SCT030 BKN050=
201504040027 TAF AMD KCLM 040027Z 0400/0424 30015G22KT P6SM SCT060
                      TEMPO 0400/0404 -SHRA BKN035 OVC060 FM040800
                       VRB03KT P6SM BKN030 OVC050 FM041700 VRB02KT
                       P6SM SCT030 BKN050=
201504032320 TAF KCLM 032320Z 0400/0424 20010KT P6SM -SHRA BKN030 BKN050 FM040800
                       VRB03KT P6SM BKN030 OVC050 FM041700 VRB02KT
                       P6SM SCT030 BKN050=
201504031720 TAF KCLM 031720Z 0318/0418 VRB04KT P6SM -RA BKN040 OVC080 FM032100
                       27012G22KT P6SM -SHRA BKN030 BKN080 FM040200
                       27012KT P6SM VCSH SCT030 BKN050 FM040800
                       VRB03KT P6SM BKN030 OVC050 FM041700 VRB02KT
                       P6SM SCT030 BKN050=
201504031129 TAF KCLM 031129Z 0312/0412 VRB03KT P6SM FEW050 BKN110 OVC200 FM031500
                       VRB03KT P6SM -RA SCT035 OVC050 FM031800
                       VRB05KT 5SM -RA BR SCT020 OVC035 FM032100
                       31011KT P6SM -SHRA SCT020 BKN035 OVC050
                       FM040000 28013KT P6SM VCSH SCT035 BKN050
                       BKN100
                      TEMPO 0400/0404 28015G23KT FM040600 25006KT
                       P6SM VCSH FEW035 SCT050 BKN100=
201504030538 TAF KCLM 030538Z 0306/0406 VRB03KT P6SM SCT060 BKN110 OVC200 FM031500
                       VRB03KT P6SM -RA SCT035 OVC060 FM031800
                       VRB05KT 5SM -RA BR SCT020 OVC035
                      TEMPO 0318/0321 OVC020 FM032100 31009KT P6SM
                       -SHRA SCT020 BKN035 OVC050 FM040000 28012KT
                       P6SM VCSH SCT035 BKN050 BKN100
                      TEMPO 0400/0404 28015G23KT=
201504030312 TAF AMD KCLM 030312Z 0303/0324 VRB03KT P6SM VCSH SCT050 BKN070
                       OVC200
                      TEMPO 0303/0305 -SHRA OVC050 FM030600 00000KT
                       P6SM SCT050 BKN110 OVC200 FM030700 09006KT
                       P6SM BKN050 OVC100 FM031100 09006KT P6SM
                       -RA SCT015 OVC040
                      TEMPO 0314/0317 4SM RA BR BKN015 OVC030 FM031700
                       28012KT P6SM VCSH BKN030=
201504022320 TAF KCLM 022320Z 0300/0324 VRB04KT P6SM BKN060 BKN200 FM030400
                       00000KT P6SM SCT050 BKN120 BKN200 FM030700
                       09006KT P6SM BKN050 OVC100 FM031100 09006KT
                       P6SM -RA SCT015 OVC040
                      TEMPO 0314/0317 4SM RA BR BKN015 OVC030 FM031700
                       28012KT P6SM VCSH BKN030=
201504021722 TAF KCLM 021722Z 0218/0318 26006KT P6SM SCT040 FM030400 00000KT
                       P6SM SCT050 BKN120 BKN200 FM031000 16010KT
                       P6SM BKN050 OVC100 FM031200 09006KT P6SM
                       -RA SCT015 OVC040
                      TEMPO 0314/0317 4SM RA BR BKN015 OVC030 FM031700
                       28012G22KT P6SM -SHRA BKN020 BKN040=
201504021142 TAF KCLM 021142Z 0212/0312 26009KT P6SM FEW020
                      TEMPO 0214/0218 BKN020 FM021800 32009KT P6SM
                       VCSH FEW050 BKN200 FM030200 28006KT P6SM
                       SCT110 OVC200 FM030600 VRB03KT P6SM SCT050
                       OVC110=
201504020541 TAF KCLM 020541Z 0206/0306 26009KT P6SM FEW025
                      TEMPO 0214/0218 BKN025 FM021800 32009KT P6SM
                       VCSH FEW050 BKN200 FM030200 28006KT P6SM
                       SCT110 OVC200=
201504020428 TAF AMD KCLM 020428Z 0204/0224 27008KT P6SM VCSH FEW028 FM020600
                       28006KT P6SM BKN022 BKN040 FM021000 VRB04KT
                       P6SM BKN020 FM021800 VRB04KT P6SM SCT040=
201504020205 TAF AMD KCLM 020205Z 0202/0224 31009KT P6SM VCSH SCT022 SCT040
                       TEMPO 0202/0206 BKN022 BKN040 FM020600 28006KT
                       P6SM BKN022 BKN040 FM021000 VRB04KT P6SM
                       BKN020 FM021800 VRB04KT P6SM SCT040=
201504012320 TAF KCLM 012320Z 0200/0224 32014KT P6SM SCT040 FM021000 VRB04KT
                       P6SM BKN020 FM021800 VRB04KT P6SM SCT040=
201504011720 TAF KCLM 011720Z 0118/0218 VRB04KT P6SM VCSH SCT025 BKN050
                      TEMPO 0118/0122 -SHRA BKN020 BKN050 FM012200
                       28010KT P6SM SCT025 BKN050
                      TEMPO 0122/0202 -SHRA BKN025 BKN050 FM021000
                       VRB04KT P6SM BKN020=
201504011125 TAF KCLM 011125Z 0112/0212 26009KT P6SM FEW040 FM011400 24007KT
                       P6SM SCT060 FM012000 31010KT P6SM -SHRA
                       OVC025 FM020300 28010KT P6SM VCSH SCT040
                       BKN080=
201504010530 TAF KCLM 010530Z 0106/0206 25010KT P6SM SCT045
                      TEMPO 0108/0112 BKN045 FM011200 24007KT P6SM
                       SCT060 FM012000 31010KT P6SM -SHRA OVC025=