##########################################################
# Query made at 02/16/2025 02:55:23 UTC
# Time interval: from 05/01/2015 00:00  to 05/31/2015 23:59  UTC
##########################################################

##########################################################
# KCLM, Port Angeles, William R. Fairchild International Airport (United States)
# WMO index: -----. WIGOS ID: Unknown
# Latitude 48-07-20N. Longitude 123-30-19W. Altitude 87 m.
##########################################################

###################################
#  METAR/SPECI from KCLM
###################################
201505312353 METAR KCLM 312353Z AUTO 08003KT 10SM FEW120 19/09 A2983 RMK AO2 SLP100 T01940094 10194 20122 58018=
201505312253 METAR KCLM 312253Z AUTO 03004KT 10SM FEW110 18/09 A2985 RMK AO2 SLP106 T01830094=
201505312153 METAR KCLM 312153Z AUTO 04003KT 10SM CLR 18/09 A2987 RMK AO2 SLP113 T01830094=
201505312053 METAR KCLM 312053Z AUTO 36004KT 10SM FEW090 FEW110 17/11 A2988 RMK AO2 SLP119 T01670111 58007=
201505311953 METAR KCLM 311953Z AUTO 35004KT 10SM SCT120 15/10 A2990 RMK AO2 SLP125 T01500100=
201505311853 METAR KCLM 311853Z AUTO 00000KT 10SM FEW070 FEW090 FEW110 13/09 A2990 RMK AO2 SLP126 T01330094=
201505311753 METAR KCLM 311753Z AUTO 36005KT 10SM CLR 13/09 A2990 RMK AO2 SLP127 T01280089 10139 20094 58004=
201505311653 METAR KCLM 311653Z AUTO 01003KT 10SM CLR 13/09 A2991 RMK AO2 SLP130 T01330094=
201505311553 METAR KCLM 311553Z AUTO 02004KT 10SM FEW007 12/09 A2991 RMK AO2 SLP130 T01220089=
201505311549 SPECI KCLM 311549Z AUTO 00000KT 10SM FEW007 12/09 A2992 RMK AO2=
201505311505 SPECI KCLM 311505Z AUTO 00000KT 10SM OVC005 11/08 A2992 RMK AO2 T01060083=
201505311453 METAR KCLM 311453Z AUTO 30003KT 10SM OVC004 10/08 A2992 RMK AO2 SLP132 T01000083 50001=
201505311353 METAR KCLM 311353Z AUTO 00000KT 10SM OVC004 09/08 A2992 RMK AO2 SLP134 T00940083=
201505311253 METAR KCLM 311253Z AUTO 28005KT 10SM OVC004 09/08 A2992 RMK AO2 SLP133 T00940083=
201505311153 METAR KCLM 311153Z AUTO 30003KT 10SM OVC004 09/08 A2992 RMK AO2 SLP131 T00940083 10106 20094 58009=
201505311053 METAR KCLM 311053Z AUTO 29007KT 10SM OVC004 09/08 A2993 RMK AO2 SLP134 T00940083=
201505310953 METAR KCLM 310953Z AUTO 30005KT 10SM OVC003 10/09 A2994 RMK AO2 SLP138 T01000089=
201505310853 METAR KCLM 310853Z AUTO 29005KT 10SM OVC004 10/09 A2994 RMK AO2 SLP139 T01000089 55000=
201505310851 SPECI KCLM 310851Z AUTO 29005KT 10SM OVC004 10/09 A2994 RMK AO2=
201505310753 METAR KCLM 310753Z AUTO 30007KT 10SM OVC005 10/09 A2994 RMK AO2 SLP139 T01000089 401610089=
201505310653 METAR KCLM 310653Z AUTO 30006KT 10SM OVC005 10/09 A2994 RMK AO2 SLP141 T01000089=
201505310553 METAR KCLM 310553Z AUTO 29008KT 10SM BKN006 10/09 A2995 RMK AO2 SLP141 T01000089 10156 20100 51005=
201505310551 SPECI KCLM 310551Z AUTO 29008KT 10SM BKN006 10/09 A2995 RMK AO2=
201505310533 SPECI KCLM 310533Z AUTO 30008KT 10SM FEW006 10/08 A2994 RMK AO2 T01000083=
201505310453 METAR KCLM 310453Z AUTO 30008KT 10SM CLR 10/08 A2994 RMK AO2 SLP139 T01000083=
201505310353 METAR KCLM 310353Z AUTO 29009KT 10SM CLR 11/08 A2993 RMK AO2 SLP136 T01110083=
201505310253 METAR KCLM 310253Z AUTO 30009KT 10SM CLR 13/09 A2993 RMK AO2 SLP133 T01280089 55004=
201505310153 METAR KCLM 310153Z AUTO 31007KT 10SM CLR 14/09 A2992 RMK AO2 SLP133 T01390089=
201505310053 METAR KCLM 310053Z AUTO 31008KT 10SM CLR 15/09 A2993 RMK AO2 SLP135 T01500089=
201505302353 METAR KCLM 302353Z AUTO 30013KT 10SM CLR 15/09 A2994 RMK AO2 SLP138 T01500089 10161 20133 58011=
201505302253 METAR KCLM 302253Z AUTO 31013KT 10SM CLR 16/08 A2995 RMK AO2 SLP143 T01560083=
201505302153 METAR KCLM 302153Z AUTO 31011KT 10SM CLR 16/09 A2996 RMK AO2 SLP146 T01610089=
201505302053 METAR KCLM 302053Z AUTO 33010G17KT 10SM CLR 15/08 A2997 RMK AO2 SLP150 T01500083 51003=
201505301953 METAR KCLM 301953Z AUTO 33009KT 10SM CLR 16/08 A2997 RMK AO2 SLP148 T01560083=
201505301853 METAR KCLM 301853Z AUTO 33008KT 10SM CLR 14/08 A2996 RMK AO2 SLP147 T01390083=
201505301753 METAR KCLM 301753Z AUTO 30011KT 10SM CLR 14/08 A2996 RMK AO2 SLP146 T01390083 10139 20089 58001=
201505301653 METAR KCLM 301653Z AUTO 32007G15KT 10SM CLR 13/08 A2996 RMK AO2 SLP147 T01330083=
201505301553 METAR KCLM 301553Z AUTO 33010KT 10SM CLR 13/08 A2996 RMK AO2 SLP147 T01280078=
201505301453 METAR KCLM 301453Z AUTO 29008KT 10SM CLR 12/08 A2996 RMK AO2 SLP146 T01220078 53004=
201505301353 METAR KCLM 301353Z AUTO 28008KT 10SM CLR 11/07 A2996 RMK AO2 SLP145 T01060072=
201505301253 METAR KCLM 301253Z AUTO 28008KT 10SM CLR 09/07 A2995 RMK AO2 SLP143 T00890072=
201505301153 METAR KCLM 301153Z AUTO 29007KT 10SM CLR 09/07 A2995 RMK AO2 SLP142 T00890072 10106 20089 53006=
201505301053 METAR KCLM 301053Z AUTO 30008KT 10SM CLR 09/07 A2995 RMK AO2 SLP140 T00940072=
201505300953 METAR KCLM 300953Z AUTO 29011G17KT 10SM CLR 09/08 A2994 RMK AO2 SLP138 T00940078=
201505300853 METAR KCLM 300853Z AUTO 29009KT 10SM CLR 09/08 A2994 RMK AO2 SLP137 T00940078 50001=
201505300836 SPECI KCLM 300836Z AUTO 27009KT 10SM FEW006 09/08 A2994 RMK AO2 T00940078=
201505300753 METAR KCLM 300753Z AUTO 30008KT 10SM CLR 10/08 A2994 RMK AO2 SLP137 T01000083 401940094=
201505300653 METAR KCLM 300653Z AUTO 31010KT 9SM CLR 10/08 A2993 RMK AO2 SLP136 T01000083=
201505300553 METAR KCLM 300553Z AUTO 30010KT 9SM CLR 11/09 A2993 RMK AO2 SLP136 T01060089 10189 20106 52003=
201505300453 METAR KCLM 300453Z AUTO 28014KT 10SM CLR 11/09 A2993 RMK AO2 SLP136 T01110089=
201505300353 METAR KCLM 300353Z AUTO 28008G16KT 10SM CLR 12/09 A2992 RMK AO2 SLP132 T01170089=
201505300253 METAR KCLM 300253Z AUTO 27011KT 10SM CLR 13/09 A2992 RMK AO2 SLP132 T01330089 55003=
201505300153 METAR KCLM 300153Z AUTO 28012KT 10SM CLR 16/09 A2992 RMK AO2 SLP131 T01610094=
201505300053 METAR KCLM 300053Z AUTO 28008KT 10SM CLR 18/09 A2993 RMK AO2 SLP134 T01830094=
201505292353 METAR KCLM 292353Z AUTO 31009KT 10SM CLR 19/09 A2993 RMK AO2 SLP135 T01890089 10194 20144 57012=
201505292253 METAR KCLM 292253Z AUTO 29007KT 10SM CLR 19/09 A2994 RMK AO2 SLP140 T01890094=
201505292153 METAR KCLM 292153Z AUTO 32007KT 10SM CLR 19/11 A2995 RMK AO2 SLP143 T01890106=
201505292053 METAR KCLM 292053Z AUTO 31006KT 10SM CLR 18/11 A2997 RMK AO2 SLP148 T01830106 58010=
201505291953 METAR KCLM 291953Z AUTO 33006KT 10SM CLR 17/11 A2998 RMK AO2 SLP151 T01670106=
201505291853 METAR KCLM 291853Z AUTO 29005KT 10SM CLR 14/11 A3000 RMK AO2 SLP158 T01440106=
201505291753 METAR KCLM 291753Z AUTO 02005KT 10SM CLR 14/11 A3000 RMK AO2 SLP158 T01440106 10150 20094 50001=
201505291653 METAR KCLM 291653Z AUTO 31005KT 10SM CLR 14/11 A3000 RMK AO2 SLP158 T01440106=
201505291553 METAR KCLM 291553Z AUTO 31005KT 10SM CLR 13/11 A3000 RMK AO2 SLP158 T01330106=
201505291453 METAR KCLM 291453Z AUTO 00000KT 10SM FEW002 12/11 A3000 RMK AO2 SLP157 T01170106 58002=
201505291445 SPECI KCLM 291445Z AUTO 00000KT 10SM FEW002 11/11 A3000 RMK AO2 T01110106=
201505291424 SPECI KCLM 291424Z AUTO 25003KT 3SM BR BKN002 11/10 A3000 RMK AO2 T01060100=
201505291420 SPECI KCLM 291420Z AUTO 26004KT 1 3/4SM BR OVC002 11/10 A3000 RMK AO2 T01060100=
201505291410 SPECI KCLM 291410Z AUTO 25003KT 3/4SM BR OVC002 11/10 A3000 RMK AO2 T01060100=
201505291353 METAR KCLM 291353Z AUTO 27004KT 1/4SM FG VV002 10/09 A3000 RMK AO2 SLP160 T01000094=
201505291310 SPECI KCLM 291310Z AUTO 28004KT 1/4SM FG VV002 10/09 A3000 RMK AO2 T01000089=
201505291253 METAR KCLM 291253Z AUTO 29005KT 1/2SM FG VV002 09/09 A3000 RMK AO2 SLP160 T00940089=
201505291241 SPECI KCLM 291241Z AUTO 28006KT 1/4SM FG VV002 10/09 A3000 RMK AO2 T01000089=
201505291202 SPECI KCLM 291202Z AUTO 00000KT 1/4SM FG VV001 10/09 A3000 RMK AO2 T01000094=
201505291153 METAR KCLM 291153Z AUTO 00000KT 1/4SM FG VV002 10/09 A3000 RMK AO2 SLP159 T01000094 10117 20100 53003=
201505291117 SPECI KCLM 291117Z AUTO 00000KT 1/4SM FG VV002 10/09 A3000 RMK AO2 T01000094=
201505291053 METAR KCLM 291053Z AUTO 00000KT 3/4SM BR VV002 10/09 A2999 RMK AO2 SLP156 T01000094=
201505291050 SPECI KCLM 291050Z AUTO 29003KT 3/4SM BR VV002 10/09 A2999 RMK AO2=
201505290953 METAR KCLM 290953Z AUTO 29004KT 1 1/4SM BR OVC001 10/09 A3000 RMK AO2 SLP157 T01000094=
201505290938 SPECI KCLM 290938Z AUTO 30006KT 1 3/4SM BR OVC001 10/09 A2999 RMK AO2 T01000094=
201505290915 SPECI KCLM 290915Z AUTO 30005KT 10SM BKN001 10/09 A2999 RMK AO2 T01000094=
201505290853 METAR KCLM 290853Z AUTO 30005KT 9SM SCT001 10/09 A2999 RMK AO2 SLP156 T01000094 56005=
201505290850 SPECI KCLM 290850Z AUTO 29006KT 10SM SCT001 10/09 A2999 RMK AO2=
201505290753 METAR KCLM 290753Z AUTO 29005KT 10SM CLR 11/09 A3000 RMK AO2 SLP158 T01060094 401830094=
201505290653 METAR KCLM 290653Z AUTO 30006KT 10SM CLR 11/09 A3001 RMK AO2 SLP161 T01060094=
201505290553 METAR KCLM 290553Z AUTO 26004KT 10SM CLR 11/09 A3001 RMK AO2 SLP163 T01060094 10172 20106 53000=
201505290453 METAR KCLM 290453Z AUTO 00000KT 10SM CLR 12/10 A3002 RMK AO2 SLP165 T01170100=
201505290353 METAR KCLM 290353Z AUTO 00000KT 10SM CLR 13/11 A3000 RMK AO2 SLP160 T01330106=
201505290253 METAR KCLM 290253Z AUTO 31005KT 10SM CLR 17/11 A3001 RMK AO2 SLP162 T01670111 56011=
201505290153 METAR KCLM 290153Z AUTO 29006KT 10SM SCT080 16/11 A3002 RMK AO2 SLP166 T01560111=
201505290053 METAR KCLM 290053Z AUTO 32007KT 10SM FEW080 17/11 A3003 RMK AO2 SLP169 T01670111=
201505282353 METAR KCLM 282353Z AUTO 31007KT 10SM CLR 16/11 A3004 RMK AO2 SLP174 T01610106 10183 20144 56010=
201505282253 METAR KCLM 282253Z AUTO 35005KT 10SM CLR 18/11 A3005 RMK AO2 SLP175 T01780111=
201505282153 METAR KCLM 282153Z AUTO 01005KT 10SM CLR 18/12 A3006 RMK AO2 SLP178 T01830117=
201505282053 METAR KCLM 282053Z AUTO 30006KT 10SM CLR 16/11 A3007 RMK AO2 SLP184 T01610111 58005=
201505281953 METAR KCLM 281953Z AUTO VRB04KT 10SM CLR 17/11 A3008 RMK AO2 SLP187 T01670111=
201505281853 METAR KCLM 281853Z AUTO 02004KT 10SM CLR 16/11 A3009 RMK AO2 SLP190 T01560111=
201505281753 METAR KCLM 281753Z AUTO 01003KT 10SM CLR 15/11 A3009 RMK AO2 SLP189 T01500106 10150 20094 58000=
201505281653 METAR KCLM 281653Z AUTO 35005KT 10SM CLR 13/10 A3009 RMK AO2 SLP191 T01280100=
201505281553 METAR KCLM 281553Z AUTO 01004KT 10SM CLR 12/11 A3009 RMK AO2 SLP192 T01170106=
201505281533 SPECI KCLM 281533Z AUTO 01003KT 10SM FEW002 12/11 A3009 RMK AO2 T01170106=
201505281457 SPECI KCLM 281457Z AUTO 00000KT 3SM BR OVC002 11/11 A3009 RMK AO2 T01110106=
201505281453 METAR KCLM 281453Z AUTO 00000KT 1 3/4SM BR OVC002 11/11 A3009 RMK AO2 SLP190 T01110106 51009=
201505281451 SPECI KCLM 281451Z AUTO 24003KT 1SM BR OVC002 11/11 A3009 RMK AO2=
201505281353 METAR KCLM 281353Z AUTO 00000KT M1/4SM FG VV002 10/09 A3009 RMK AO2 SLP189 T01000094=
201505281317 SPECI KCLM 281317Z AUTO 00000KT M1/4SM FG VV001 09/09 A3008 RMK AO2 T00940089=
201505281253 METAR KCLM 281253Z AUTO 00000KT M1/4SM FG VV002 09/08 A3008 RMK AO2 SLP186 T00940083=
201505281153 METAR KCLM 281153Z AUTO 27004KT 1/4SM FG VV002 09/09 A3006 RMK AO2 SLP180 T00940089 10100 20094 51003=
201505281053 METAR KCLM 281053Z AUTO 30004KT 1/4SM FG VV002 10/09 A3006 RMK AO2 SLP180 T01000089=
201505281001 SPECI KCLM 281001Z AUTO 30003KT 1/4SM FG VV002 10/09 A3007 RMK AO2 T01000094=
201505280953 METAR KCLM 280953Z AUTO 29005KT 1/4SM FG VV001 10/09 A3006 RMK AO2 SLP181 T01000089=
201505280916 SPECI KCLM 280916Z AUTO 28003KT 1/4SM FG VV002 10/09 A3006 RMK AO2 T01000094=
201505280905 SPECI KCLM 280905Z AUTO 29003KT 1/2SM FG VV002 10/09 A3006 RMK AO2 T01000094=
201505280853 METAR KCLM 280853Z AUTO 27003KT 1/4SM FG VV002 10/09 A3006 RMK AO2 SLP178 T01000094 51004=
201505280830 SPECI KCLM 280830Z AUTO 27003KT 1/4SM FG VV002 10/09 A3006 RMK AO2 T01000094=
201505280823 SPECI KCLM 280823Z AUTO 25004KT 1/2SM FG VV002 10/09 A3006 RMK AO2 T01000094=
201505280812 SPECI KCLM 280812Z AUTO 27004KT 1/4SM FG VV002 10/09 A3006 RMK AO2 T01000094=
201505280753 METAR KCLM 280753Z AUTO 31004KT 1/2SM FG VV002 10/09 A3006 RMK AO2 SLP178 T01000094 401890094=
201505280750 SPECI KCLM 280750Z AUTO 29004KT 1/2SM FG VV002 10/09 A3005 RMK AO2=
201505280733 SPECI KCLM 280733Z AUTO 28003KT 1/4SM FG VV002 10/09 A3005 RMK AO2 T01000094=
201505280653 METAR KCLM 280653Z AUTO 31003KT 1/4SM FG VV001 10/09 A3004 RMK AO2 SLP174 T01000089=
201505280635 SPECI KCLM 280635Z AUTO 00000KT 1/4SM FG VV001 09/09 A3004 RMK AO2 T00940089=
201505280630 SPECI KCLM 280630Z AUTO 32004KT 1SM BR VV001 09/08 A3004 RMK AO2 T00940083=
201505280628 SPECI KCLM 280628Z AUTO 32003KT 2SM BR FEW001 09/08 A3004 RMK AO2 T00940083=
201505280553 METAR KCLM 280553Z AUTO 00000KT 9SM CLR 10/09 A3005 RMK AO2 SLP175 T01000089 10161 20094 50003=
201505280453 METAR KCLM 280453Z AUTO 30004KT 7SM CLR 10/09 A3005 RMK AO2 SLP176 T01000089=
201505280353 METAR KCLM 280353Z AUTO 00000KT 10SM CLR 11/09 A3004 RMK AO2 SLP174 T01110094=
201505280253 METAR KCLM 280253Z AUTO 30003KT 10SM CLR 13/11 A3004 RMK AO2 SLP172 T01330106 55002=
201505280153 METAR KCLM 280153Z AUTO 29006KT 10SM CLR 14/11 A3003 RMK AO2 SLP168 T01440106=
201505280053 METAR KCLM 280053Z AUTO 33005KT 10SM CLR 15/11 A3004 RMK AO2 SLP171 T01500106=
201505272353 METAR KCLM 272353Z AUTO 29007KT 10SM CLR 16/11 A3004 RMK AO2 SLP173 T01560106 10189 20144 56012=
201505272253 METAR KCLM 272253Z AUTO 33005KT 10SM CLR 16/11 A3005 RMK AO2 SLP175 T01610111=
201505272153 METAR KCLM 272153Z AUTO VRB03KT 10SM CLR 17/11 A3006 RMK AO2 SLP180 T01670111=
201505272053 METAR KCLM 272053Z AUTO 36005KT 10SM CLR 17/11 A3008 RMK AO2 SLP185 T01670111 58002=
201505271953 METAR KCLM 271953Z AUTO 35004KT 10SM CLR 17/11 A3008 RMK AO2 SLP186 T01670111=
201505271853 METAR KCLM 271853Z AUTO VRB03KT 10SM CLR 18/12 A3008 RMK AO2 SLP186 T01830122=
201505271753 METAR KCLM 271753Z AUTO VRB03KT 10SM CLR 14/11 A3008 RMK AO2 SLP187 T01440106 10144 20100 52002=
201505271653 METAR KCLM 271653Z AUTO VRB04KT 10SM CLR 13/10 A3008 RMK AO2 SLP186 T01280100=
201505271621 SPECI KCLM 271621Z AUTO 35004KT 10SM SCT005 13/11 A3008 RMK AO2 T01330106=
201505271553 METAR KCLM 271553Z AUTO VRB03KT 10SM OVC005 12/10 A3008 RMK AO2 SLP188 T01220100=
201505271453 METAR KCLM 271453Z AUTO 32003KT 10SM OVC003 11/10 A3008 RMK AO2 SLP186 T01060100 51006=
201505271413 SPECI KCLM 271413Z AUTO 29003KT 3SM BR OVC002 11/10 A3008 RMK AO2 T01060100=
201505271409 SPECI KCLM 271409Z AUTO 28004KT 1 3/4SM BR OVC002 11/10 A3007 RMK AO2 T01060100=
201505271353 METAR KCLM 271353Z AUTO 27004KT 1/2SM FG OVC002 11/10 A3008 RMK AO2 SLP185 T01060100=
201505271346 SPECI KCLM 271346Z AUTO VRB04KT 3/4SM BR OVC002 11/10 A3008 RMK AO2 T01060100=
201505271331 SPECI KCLM 271331Z AUTO 29005KT 2SM BR OVC002 11/09 A3008 RMK AO2 VIS 3/4V3 T01060094=
201505271324 SPECI KCLM 271324Z AUTO 28004KT 1/2SM FG VV002 11/10 A3008 RMK AO2 T01060100=
201505271253 METAR KCLM 271253Z AUTO 30006KT 1/4SM FG VV002 11/09 A3007 RMK AO2 SLP183 T01060094=
201505271246 SPECI KCLM 271246Z AUTO 29005KT 1/4SM FG VV002 10/09 A3007 RMK AO2 T01000094=
201505271215 SPECI KCLM 271215Z AUTO 30004KT 3/4SM BR VV002 11/09 A3007 RMK AO2 T01060094=
201505271205 SPECI KCLM 271205Z AUTO 29004KT 1SM BR VV002 11/09 A3006 RMK AO2 T01060094=
201505271153 METAR KCLM 271153Z AUTO 29005KT 3/4SM BR VV002 11/09 A3006 RMK AO2 SLP178 T01060094 10106 20100 51003=
201505271143 SPECI KCLM 271143Z AUTO 30004KT 1/2SM FG VV002 11/09 A3005 RMK AO2 T01060094=
201505271114 SPECI KCLM 271114Z AUTO 30004KT 1 1/4SM BR OVC002 11/09 A3006 RMK AO2 T01060094=
201505271102 SPECI KCLM 271102Z AUTO 29004KT 3/4SM BR VV002 11/10 A3006 RMK AO2 T01060100=
201505271053 METAR KCLM 271053Z AUTO 29003KT 1 1/4SM BR OVC002 11/09 A3006 RMK AO2 SLP178 T01060094=
201505271045 SPECI KCLM 271045Z AUTO 29004KT 2SM BR OVC002 11/09 A3006 RMK AO2 T01060094=
201505271024 SPECI KCLM 271024Z AUTO 28003KT 1 1/4SM BR OVC002 11/10 A3005 RMK AO2 T01060100=
201505271014 SPECI KCLM 271014Z AUTO 28003KT 2 1/2SM BR OVC002 11/09 A3005 RMK AO2 T01060094=
201505271007 SPECI KCLM 271007Z AUTO 29003KT 1 3/4SM BR OVC002 11/10 A3005 RMK AO2 T01060100=
201505270953 METAR KCLM 270953Z AUTO 28004KT 3/4SM BR VV002 11/10 A3005 RMK AO2 SLP176 T01060100=
201505270906 SPECI KCLM 270906Z AUTO 29006KT 1/2SM FG VV002 11/09 A3005 RMK AO2 T01060094=
201505270853 METAR KCLM 270853Z AUTO 30005KT 1 1/4SM BR OVC002 11/09 A3005 RMK AO2 SLP175 T01060094 58000=
201505270833 SPECI KCLM 270833Z AUTO 30006KT 1 3/4SM BR OVC002 11/09 A3005 RMK AO2 T01060094=
201505270824 SPECI KCLM 270824Z AUTO 30006KT 3SM BR OVC002 11/09 A3005 RMK AO2 T01060094=
201505270815 SPECI KCLM 270815Z AUTO 29005KT 2SM BR OVC002 11/09 A3005 RMK AO2 T01060094=
201505270801 SPECI KCLM 270801Z AUTO 30006KT 1SM BR OVC001 11/09 A3005 RMK AO2 T01060094=
201505270753 METAR KCLM 270753Z AUTO 30007KT 1 1/4SM BR OVC002 11/09 A3005 RMK AO2 SLP176 T01060094 401780100=
201505270748 SPECI KCLM 270748Z AUTO 30007KT 1 1/2SM BR OVC002 11/09 A3005 RMK AO2=
201505270735 SPECI KCLM 270735Z AUTO 31005KT 2 1/2SM BR OVC002 11/09 A3005 RMK AO2 T01060094=
201505270718 SPECI KCLM 270718Z AUTO 30008KT 1 1/4SM BR OVC002 11/09 A3004 RMK AO2 T01060094=
201505270708 SPECI KCLM 270708Z AUTO 30007KT 2 1/2SM BR OVC002 11/09 A3005 RMK AO2 T01060094=
201505270651 METAR KCLM 270651Z AUTO 30006KT 1 3/4SM BR OVC002 11/09 A3005 RMK AO2 SLP175 T01060094=
201505270650 SPECI KCLM 270650Z AUTO 29006KT 1 3/4SM BR OVC002 11/09 A3005 RMK AO2=
201505270553 METAR KCLM 270553Z AUTO 29005KT 5SM BR OVC002 11/09 A3005 RMK AO2 SLP176 T01060094 10156 20100 53005=
201505270517 SPECI KCLM 270517Z AUTO 29004KT 7SM BKN002 11/09 A3004 RMK AO2 T01060094=
201505270453 METAR KCLM 270453Z AUTO 00000KT 10SM FEW003 11/09 A3004 RMK AO2 SLP173 T01060089=
201505270353 METAR KCLM 270353Z AUTO 31004KT 10SM CLR 11/09 A3003 RMK AO2 SLP171 T01110094=
201505270253 METAR KCLM 270253Z AUTO 31006KT 10SM CLR 13/10 A3003 RMK AO2 SLP169 T01330100 55005=
201505270153 METAR KCLM 270153Z AUTO 32007KT 10SM CLR 14/10 A3002 RMK AO2 SLP165 T01440100=
201505270053 METAR KCLM 270053Z AUTO 31005KT 10SM CLR 16/11 A3003 RMK AO2 SLP168 T01560106=
201505262353 METAR KCLM 262353Z AUTO 30010KT 10SM OVC095 14/10 A3005 RMK AO2 SLP174 T01440100 10178 20139 56005=
201505262253 METAR KCLM 262253Z AUTO 33007KT 300V360 10SM SCT095 17/11 A3005 RMK AO2 SLP175 T01720111=
201505262153 METAR KCLM 262153Z AUTO 36005KT 10SM CLR 17/11 A3006 RMK AO2 SLP178 T01670106=
201505262053 METAR KCLM 262053Z AUTO 02005KT 10SM CLR 17/11 A3006 RMK AO2 SLP179 T01720111 58002=
201505261953 METAR KCLM 261953Z AUTO 01005KT 10SM BKN050 16/11 A3007 RMK AO2 SLP181 T01560111=
201505261853 METAR KCLM 261853Z AUTO 35005KT 10SM OVC055 15/11 A3007 RMK AO2 SLP181 T01500111=
201505261753 METAR KCLM 261753Z AUTO VRB05KT 10SM OVC055 14/11 A3007 RMK AO2 SLP182 T01390106 10139 20117 53001=
201505261653 METAR KCLM 261653Z AUTO 32007KT 10SM OVC055 13/10 A3006 RMK AO2 SLP181 T01330100=
201505261600 SPECI KCLM 261600Z AUTO 29005KT 10SM FEW010 SCT014 OVC060 13/10 A3006 RMK AO2 T01330100=
201505261553 METAR KCLM 261553Z AUTO 29005KT 10SM BKN014 OVC060 13/10 A3006 RMK AO2 SLP181 T01330100=
201505261550 SPECI KCLM 261550Z AUTO VRB05KT 10SM BKN014 OVC060 13/10 A3006 RMK AO2=
201505261453 METAR KCLM 261453Z AUTO 00000KT 10SM FEW015 OVC036 12/10 A3006 RMK AO2 SLP180 T01220100 53006=
201505261353 METAR KCLM 261353Z AUTO 30003KT 10SM FEW013 OVC060 12/10 A3005 RMK AO2 SLP175 T01220100=
201505261253 METAR KCLM 261253Z AUTO 30004KT 10SM SCT036 OVC065 12/09 A3004 RMK AO2 SLP172 T01170094=
201505261231 SPECI KCLM 261231Z AUTO 27005KT 10SM SCT015 SCT033 OVC060 12/09 A3004 RMK AO2 T01170094=
201505261153 METAR KCLM 261153Z AUTO 27003KT 10SM OVC013 12/09 A3004 RMK AO2 SLP172 T01170094 10117 20106 53002=
201505261142 SPECI KCLM 261142Z AUTO 29004KT 10SM BKN012 OVC050 11/09 A3004 RMK AO2 T01110094=
201505261053 METAR KCLM 261053Z AUTO 25004KT 10SM OVC050 12/10 A3003 RMK AO2 SLP168 T01170100=
201505260953 METAR KCLM 260953Z AUTO 22003KT 10SM OVC050 12/10 A3003 RMK AO2 SLP169 T01170100=
201505260936 SPECI KCLM 260936Z AUTO 22003KT 10SM FEW016 FEW021 OVC050 12/10 A3003 RMK AO2 T01170100=
201505260925 SPECI KCLM 260925Z AUTO 00000KT 10SM FEW010 BKN021 OVC050 11/10 A3003 RMK AO2 T01110100=
201505260853 METAR KCLM 260853Z AUTO 00000KT 10SM FEW021 OVC055 11/10 A3003 RMK AO2 SLP170 T01110100 53004=
201505260830 SPECI KCLM 260830Z AUTO 31004KT 10SM SCT023 OVC055 11/10 A3003 RMK AO2 T01110100=
201505260812 SPECI KCLM 260812Z AUTO 00000KT 10SM BKN024 OVC050 11/09 A3003 RMK AO2 T01110094=
201505260753 METAR KCLM 260753Z AUTO 00000KT 10SM OVC050 11/10 A3002 RMK AO2 SLP167 T01110100 401560100=
201505260653 METAR KCLM 260653Z AUTO 27003KT 10SM OVC060 11/09 A3002 RMK AO2 SLP165 T01110094=
201505260631 SPECI KCLM 260631Z AUTO 26003KT 10SM FEW011 OVC060 11/10 A3002 RMK AO2 T01110100=
201505260623 SPECI KCLM 260623Z AUTO 26004KT 10SM BKN011 OVC060 11/10 A3002 RMK AO2 T01110100=
201505260553 METAR KCLM 260553Z AUTO 00000KT 10SM BKN027 BKN060 11/09 A3002 RMK AO2 SLP167 T01060094 10156 20106 53005=
201505260525 SPECI KCLM 260525Z AUTO 00000KT 10SM BKN027 11/09 A3002 RMK AO2 T01110094=
201505260453 METAR KCLM 260453Z AUTO 27004KT 10SM CLR 11/09 A3002 RMK AO2 SLP167 T01110094=
201505260353 METAR KCLM 260353Z AUTO 30004KT 10SM CLR 11/09 A3000 RMK AO2 SLP161 T01110094=
201505260306 SPECI KCLM 260306Z AUTO 28003KT 10SM FEW029 12/09 A3001 RMK AO2 T01220094=
201505260253 METAR KCLM 260253Z AUTO 30003KT 10SM BKN029 12/09 A3001 RMK AO2 SLP162 T01220094 55000=
201505260153 METAR KCLM 260153Z AUTO 33004KT 10SM CLR 14/10 A3000 RMK AO2 SLP159 T01440100=
201505260053 METAR KCLM 260053Z AUTO 01004KT 10SM CLR 15/10 A3000 RMK AO2 SLP160 T01500100=
201505252353 METAR KCLM 252353Z AUTO 01005KT 10SM CLR 16/09 A3001 RMK AO2 SLP161 T01560094 10156 20122 57004=
201505252253 METAR KCLM 252253Z AUTO 36007KT 10SM CLR 14/09 A3001 RMK AO2 SLP162 T01440094=
201505252153 METAR KCLM 252153Z AUTO VRB05KT 10SM SCT033 15/09 A3002 RMK AO2 SLP164 T01500094=
201505252053 METAR KCLM 252053Z AUTO 36007KT 10SM FEW028 BKN041 OVC050 14/09 A3002 RMK AO2 SLP165 T01440089 50002=
201505252015 SPECI KCLM 252015Z AUTO VRB06KT 10SM SCT028 OVC041 13/09 A3002 RMK AO2 T01330089=
201505251953 METAR KCLM 251953Z AUTO VRB03KT 10SM BKN022 OVC029 15/09 A3002 RMK AO2 SLP165 T01500089=
201505251853 METAR KCLM 251853Z AUTO VRB04KT 10SM OVC020 14/09 A3001 RMK AO2 SLP165 T01390089=
201505251753 METAR KCLM 251753Z AUTO 04004KT 10SM OVC018 12/08 A3001 RMK AO2 SLP164 T01220083 10133 20100 53004=
201505251732 SPECI KCLM 251732Z AUTO VRB03KT 10SM FEW011 BKN018 13/09 A3000 RMK AO2 T01330089=
201505251713 SPECI KCLM 251713Z AUTO 35005KT 10SM SCT010 13/09 A2999 RMK AO2 T01280089=
201505251653 METAR KCLM 251653Z AUTO 00000KT 10SM BKN009 12/09 A2999 RMK AO2 SLP158 T01220089=
201505251553 METAR KCLM 251553Z AUTO VRB03KT 10SM OVC006 12/09 A3000 RMK AO2 SLP161 T01170089=
201505251453 METAR KCLM 251453Z AUTO 26004KT 10SM OVC005 11/09 A3000 RMK AO2 SLP160 T01060089 53001=
201505251353 METAR KCLM 251353Z AUTO 00000KT 10SM OVC005 10/08 A3000 RMK AO2 SLP158 T01000083=
201505251253 METAR KCLM 251253Z AUTO 31003KT 10SM OVC005 10/08 A2999 RMK AO2 SLP155 T01000083=
201505251153 METAR KCLM 251153Z AUTO 30005KT 10SM OVC006 10/08 A3000 RMK AO2 SLP158 T01000083 10106 20100 58002=
201505251053 METAR KCLM 251053Z AUTO 33005KT 10SM OVC005 10/08 A3000 RMK AO2 SLP160 T01000083=
201505250953 METAR KCLM 250953Z AUTO 31005KT 10SM OVC005 10/09 A3000 RMK AO2 SLP160 T01000089=
201505250853 METAR KCLM 250853Z AUTO 29004KT 10SM OVC005 11/09 A3000 RMK AO2 SLP160 T01060089 56005=
201505250753 METAR KCLM 250753Z AUTO 28004KT 10SM OVC005 11/09 A3001 RMK AO2 SLP162 T01060089 401500094=
201505250653 METAR KCLM 250653Z AUTO 29007KT 10SM OVC006 11/09 A3001 RMK AO2 SLP163 T01060089=
201505250553 METAR KCLM 250553Z AUTO 29005KT 10SM OVC008 11/09 A3002 RMK AO2 CIG 007V010 SLP166 T01060089 10144 20094 50001=
201505250529 SPECI KCLM 250529Z AUTO 30005KT 10SM BKN008 10/09 A3002 RMK AO2 T01000089=
201505250510 SPECI KCLM 250510Z AUTO 28007KT 10SM FEW009 09/08 A3002 RMK AO2 T00940083=
201505250453 METAR KCLM 250453Z AUTO 28005KT 10SM CLR 09/08 A3002 RMK AO2 SLP166 T00940078=
201505250353 METAR KCLM 250353Z AUTO 28007KT 10SM CLR 11/08 A3002 RMK AO2 SLP165 T01060083=
201505250253 METAR KCLM 250253Z AUTO 31008KT 10SM BKN085 12/08 A3001 RMK AO2 SLP164 T01220083 56013=
201505250153 METAR KCLM 250153Z AUTO 30009KT 10SM CLR 13/09 A3002 RMK AO2 SLP167 T01330089=
201505250053 METAR KCLM 250053Z AUTO 31009KT 10SM CLR 14/09 A3004 RMK AO2 SLP173 T01390089=
201505242353 METAR KCLM 242353Z AUTO 30008G15KT 10SM CLR 14/09 A3005 RMK AO2 SLP177 T01440094 10150 20128 56016=
201505242253 METAR KCLM 242253Z AUTO 31009KT 10SM FEW038 14/09 A3007 RMK AO2 SLP182 T01440089=
201505242153 METAR KCLM 242153Z AUTO 30011G17KT 10SM OVC034 14/09 A3008 RMK AO2 SLP186 T01440094=
201505242111 SPECI KCLM 242111Z AUTO 30008KT 10SM SCT026 OVC033 14/09 A3009 RMK AO2 T01390094=
201505242053 METAR KCLM 242053Z AUTO 31009KT 10SM BKN026 OVC033 14/09 A3010 RMK AO2 SLP193 T01390094 58010=
201505242009 SPECI KCLM 242009Z AUTO 33008KT 10SM BKN028 14/09 A3011 RMK AO2 T01390089=
201505241953 METAR KCLM 241953Z AUTO 32008KT 10SM CLR 14/09 A3011 RMK AO2 SLP196 T01390089=
201505241919 SPECI KCLM 241919Z AUTO 29008KT 10SM SCT016 14/09 A3011 RMK AO2 T01440094=
201505241853 METAR KCLM 241853Z AUTO 31009KT 10SM OVC016 13/09 A3012 RMK AO2 SLP201 T01330089=
201505241753 METAR KCLM 241753Z AUTO 32007KT 290V350 10SM OVC015 13/09 A3013 RMK AO2 SLP203 T01280089 10128 20100 56005=
201505241749 SPECI KCLM 241749Z AUTO 31008KT 10SM OVC015 13/08 A3013 RMK AO2=
201505241653 METAR KCLM 241653Z AUTO VRB05KT 10SM OVC013 12/08 A3014 RMK AO2 SLP206 T01220083=
201505241553 METAR KCLM 241553Z AUTO 33006KT 10SM OVC012 12/08 A3014 RMK AO2 SLP209 T01170083=
201505241453 METAR KCLM 241453Z AUTO 29007KT 10SM OVC012 11/08 A3015 RMK AO2 SLP211 T01110083 56001=
201505241353 METAR KCLM 241353Z AUTO 30007KT 10SM OVC011 11/08 A3015 RMK AO2 SLP212 T01060083=
201505241310 SPECI KCLM 241310Z AUTO 28008KT 10SM OVC010 10/08 A3015 RMK AO2 T01000083=
201505241253 METAR KCLM 241253Z AUTO 28009KT 10SM OVC009 10/08 A3014 RMK AO2 CIG 007V011 SLP209 T01000083=
201505241153 METAR KCLM 241153Z AUTO 29005KT 5SM BR OVC007 10/08 A3015 RMK AO2 SLP212 T01000083 10111 20100 58005=
201505241108 SPECI KCLM 241108Z AUTO 00000KT 10SM OVC009 11/08 A3016 RMK AO2 T01060083=
201505241053 METAR KCLM 241053Z AUTO 29004KT 10SM OVC011 11/08 A3016 RMK AO2 SLP214 T01060083=
201505240953 METAR KCLM 240953Z AUTO 28003KT 10SM OVC010 11/08 A3017 RMK AO2 SLP217 T01060083=
201505240927 SPECI KCLM 240927Z AUTO 00000KT 10SM OVC009 11/08 A3017 RMK AO2 T01060083=
201505240904 SPECI KCLM 240904Z AUTO 00000KT 10SM OVC010 11/08 A3017 RMK AO2 T01060083=
201505240853 METAR KCLM 240853Z AUTO 27003KT 10SM OVC009 11/08 A3017 RMK AO2 SLP217 T01060083 50000=
201505240846 SPECI KCLM 240846Z AUTO 00000KT 10SM OVC009 11/09 A3017 RMK AO2 T01110089=
201505240753 METAR KCLM 240753Z AUTO 30005KT 10SM OVC011 11/09 A3018 RMK AO2 SLP221 T01060089 401560106=
201505240653 METAR KCLM 240653Z AUTO 29008KT 10SM OVC011 11/09 A3017 RMK AO2 SLP218 T01110089=
201505240617 SPECI KCLM 240617Z AUTO 29011KT 9SM OVC010 11/09 A3017 RMK AO2 T01110089=
201505240553 METAR KCLM 240553Z AUTO 29010KT 10SM OVC009 11/09 A3017 RMK AO2 SLP216 T01110089 10144 20111 58000=
201505240453 METAR KCLM 240453Z AUTO 30006KT 10SM OVC008 11/09 A3017 RMK AO2 SLP217 T01110089=
201505240353 METAR KCLM 240353Z AUTO VRB04KT 10SM OVC007 11/09 A3017 RMK AO2 SLP218 T01110089=
201505240253 METAR KCLM 240253Z AUTO 30009KT 10SM OVC008 12/09 A3017 RMK AO2 SLP217 T01170094 53001=
201505240208 SPECI KCLM 240208Z AUTO 29011KT 10SM OVC009 12/09 A3016 RMK AO2 T01220094=
201505240153 METAR KCLM 240153Z AUTO 30007KT 10SM OVC010 13/09 A3016 RMK AO2 SLP213 T01280094=
201505240103 SPECI KCLM 240103Z AUTO VRB06KT 10SM BKN011 13/10 A3016 RMK AO2 T01330100=
201505240053 METAR KCLM 240053Z AUTO 31009KT 10SM SCT011 13/09 A3016 RMK AO2 SLP213 T01330094=
201505232353 METAR KCLM 232353Z AUTO 32011G17KT 10SM CLR 14/10 A3016 RMK AO2 SLP214 T01440100 10156 20128 58005=
201505232253 METAR KCLM 232253Z AUTO 30012KT 10SM CLR 16/10 A3018 RMK AO2 SLP219 T01560100=
201505232153 METAR KCLM 232153Z AUTO 36008KT 330V040 10SM SCT014 16/10 A3019 RMK AO2 SLP222 T01560100=
201505232053 METAR KCLM 232053Z AUTO 33007KT 10SM BKN013 14/10 A3018 RMK AO2 SLP220 T01390100 51004=
201505231953 METAR KCLM 231953Z AUTO 30007KT 10SM OVC011 14/10 A3018 RMK AO2 SLP219 T01390100=
201505231931 SPECI KCLM 231931Z AUTO VRB05KT 10SM OVC010 13/10 A3018 RMK AO2 T01330100=
201505231853 METAR KCLM 231853Z AUTO 32007KT 10SM OVC009 13/09 A3018 RMK AO2 SLP220 T01280094=
201505231753 METAR KCLM 231753Z AUTO 31006KT 10SM OVC009 13/10 A3017 RMK AO2 SLP216 T01280100 10128 20111 51008=
201505231653 METAR KCLM 231653Z AUTO 33004KT 10SM OVC009 12/09 A3017 RMK AO2 SLP216 T01170094=
201505231553 METAR KCLM 231553Z AUTO 30005KT 10SM OVC008 12/09 A3015 RMK AO2 SLP211 T01170094=
201505231453 METAR KCLM 231453Z AUTO 30003KT 10SM OVC007 12/09 A3014 RMK AO2 SLP207 T01170094 51010=
201505231353 METAR KCLM 231353Z AUTO 00000KT 10SM OVC007 12/09 A3013 RMK AO2 SLP205 T01170094=
201505231253 METAR KCLM 231253Z AUTO 27005KT 10SM OVC008 11/09 A3012 RMK AO2 SLP199 T01110094=
201505231153 METAR KCLM 231153Z AUTO 27005KT 10SM OVC009 11/09 A3011 RMK AO2 SLP196 T01110094 10117 20111 51009=
201505231053 METAR KCLM 231053Z AUTO 27005KT 10SM OVC009 11/09 A3010 RMK AO2 SLP195 T01110094=
201505230953 METAR KCLM 230953Z AUTO 24004KT 10SM OVC010 11/09 A3010 RMK AO2 SLP192 T01110094=
201505230853 METAR KCLM 230853Z AUTO 26004KT 10SM OVC011 11/09 A3008 RMK AO2 SLP188 T01110094 51013=
201505230753 METAR KCLM 230753Z AUTO 27004KT 10SM OVC010 11/09 A3008 RMK AO2 SLP186 T01110094 401500100=
201505230745 SPECI KCLM 230745Z AUTO 27005KT 10SM OVC010 11/09 A3008 RMK AO2 T01110094=
201505230653 METAR KCLM 230653Z AUTO 00000KT 10SM OVC009 11/09 A3007 RMK AO2 SLP182 T01110094=
201505230553 METAR KCLM 230553Z AUTO 28003KT 10SM OVC008 12/09 A3005 RMK AO2 SLP175 T01170094 10150 20111 53012=
201505230536 SPECI KCLM 230536Z AUTO 27005KT 10SM OVC009 12/09 A3004 RMK AO2 T01170094=
201505230453 METAR KCLM 230453Z AUTO 28007KT 10SM OVC010 12/09 A3003 RMK AO2 SLP171 T01170094=
201505230424 SPECI KCLM 230424Z AUTO 29008KT 10SM OVC010 12/09 A3002 RMK AO2 T01170094=
201505230407 SPECI KCLM 230407Z AUTO 28009KT 10SM OVC009 12/09 A3002 RMK AO2 T01170094=
201505230353 METAR KCLM 230353Z AUTO 28006KT 10SM OVC010 12/09 A3002 RMK AO2 SLP165 T01170094=
201505230346 SPECI KCLM 230346Z AUTO 29007KT 10SM OVC010 12/09 A3002 RMK AO2 T01170094=
201505230253 METAR KCLM 230253Z AUTO 29007KT 10SM OVC009 12/10 A3001 RMK AO2 SLP163 T01220100 51006=
201505230250 SPECI KCLM 230250Z AUTO 30006KT 10SM OVC009 12/10 A3001 RMK AO2=
201505230153 METAR KCLM 230153Z AUTO 32006KT 10SM OVC012 13/10 A3000 RMK AO2 SLP159 T01280100=
201505230053 METAR KCLM 230053Z AUTO 31007KT 10SM OVC011 14/11 A2999 RMK AO2 SLP156 T01440106=
201505222353 METAR KCLM 222353Z AUTO 30007KT 10SM OVC011 14/11 A2999 RMK AO2 SLP157 60000 T01390106 10139 20117 56002=
201505222253 METAR KCLM 222253Z AUTO 30010G15KT 10SM BKN010 BKN120 13/10 A2999 RMK AO2 CIG 008V012 SLP157 T01280100=
201505222153 METAR KCLM 222153Z AUTO 31009KT 10SM OVC008 13/11 A2999 RMK AO2 SLP155 T01330106=
201505222053 METAR KCLM 222053Z AUTO 30007KT 10SM OVC009 12/10 A3000 RMK AO2 RAE18 CIG 006V011 SLP158 P0000 60000 T01220100 50007=
201505222037 SPECI KCLM 222037Z AUTO 29007KT 250V310 10SM SCT006 OVC011 12/10 A3000 RMK AO2 RAE18 P0000 T01220100=
201505221953 METAR KCLM 221953Z AUTO 31005KT 10SM -RA OVC007 12/09 A3000 RMK AO2 RAB51 SLP160 P0000 T01170094=
201505221853 METAR KCLM 221853Z AUTO 30008KT 10SM OVC007 12/09 A2999 RMK AO2 SLP157 T01220094=
201505221753 METAR KCLM 221753Z AUTO 31006KT 10SM OVC007 12/09 A2998 RMK AO2 SLP152 T01170094 10117 20106 51008=
201505221653 METAR KCLM 221653Z AUTO 31005KT 10SM OVC006 11/09 A2997 RMK AO2 SLP150 T01110094=
201505221553 METAR KCLM 221553Z AUTO 29004KT 10SM OVC006 11/09 A2996 RMK AO2 SLP146 T01110094=
201505221453 METAR KCLM 221453Z AUTO 28009KT 10SM OVC005 11/09 A2995 RMK AO2 SLP143 T01110094 53007=
201505221353 METAR KCLM 221353Z AUTO 29006KT 10SM OVC006 11/09 A2994 RMK AO2 SLP140 T01110094=
201505221253 METAR KCLM 221253Z AUTO 29009KT 10SM OVC006 11/09 A2993 RMK AO2 LTG DSNT N CIG 005V011 SLP135 T01060089=
201505221153 METAR KCLM 221153Z AUTO 28009KT 10SM OVC007 11/09 A2993 RMK AO2 SLP136 T01060089 10106 20100 50009=
201505221053 METAR KCLM 221053Z AUTO 28007KT 10SM OVC006 11/09 A2994 RMK AO2 SLP138 T01060089=
201505221031 SPECI KCLM 221031Z AUTO 28006KT 10SM OVC005 11/09 A2993 RMK AO2 T01060089=
201505220953 METAR KCLM 220953Z AUTO 27008G16KT 10SM OVC004 11/09 A2991 RMK AO2 SLP130 T01060094=
201505220853 METAR KCLM 220853Z AUTO 30012KT 8SM OVC002 10/09 A2990 RMK AO2 SLP126 T01000094 53008=
201505220753 METAR KCLM 220753Z AUTO 31012G18KT 6SM BR OVC002 10/09 A2989 RMK AO2 SLP120 T01000094 401610089=
201505220653 METAR KCLM 220653Z AUTO 29011KT 3SM BR OVC002 10/09 A2989 RMK AO2 SLP120 T01000094=
201505220553 METAR KCLM 220553Z AUTO 30007KT 6SM BR OVC002 11/09 A2988 RMK AO2 SLP118 T01060094 10139 20106 53010=
201505220453 METAR KCLM 220453Z AUTO 28006KT 8SM OVC003 11/10 A2987 RMK AO2 SLP116 T01060100=
201505220353 METAR KCLM 220353Z AUTO 28011KT 7SM BKN003 BKN120 11/10 A2985 RMK AO2 SLP108 T01110100=
201505220344 SPECI KCLM 220344Z AUTO 28010KT 6SM BR BKN003 11/10 A2985 RMK AO2 T01110100=
201505220323 SPECI KCLM 220323Z AUTO 27011KT 9SM FEW005 12/10 A2984 RMK AO2 T01170100=
201505220253 METAR KCLM 220253Z AUTO 28007KT 10SM CLR 12/10 A2985 RMK AO2 SLP107 T01170100 53001=
201505220153 METAR KCLM 220153Z AUTO 30006KT 10SM CLR 12/10 A2984 RMK AO2 SLP105 T01220100=
201505220053 METAR KCLM 220053Z AUTO 29008KT 10SM BKN120 14/11 A2984 RMK AO2 SLP104 T01390106=
201505212353 METAR KCLM 212353Z AUTO 30004KT 10SM FEW120 13/10 A2984 RMK AO2 LTG DSNT SW SLP106 T01280100 10161 20128 58010=
201505212253 METAR KCLM 212253Z AUTO 30004KT 10SM CLR 13/10 A2985 RMK AO2 LTG DSNT SW SLP109 T01330100=
201505212153 METAR KCLM 212153Z AUTO 33007KT 10SM CLR 16/11 A2987 RMK AO2 LTG DSNT S SLP113 T01560106=
201505212053 METAR KCLM 212053Z AUTO 32007KT 10SM CLR 14/10 A2987 RMK AO2 SLP117 T01440100 58005=
201505211953 METAR KCLM 211953Z AUTO VRB04KT 10SM CLR 15/10 A2988 RMK AO2 SLP119 T01500100=
201505211853 METAR KCLM 211853Z AUTO VRB04KT 10SM CLR 16/11 A2988 RMK AO2 SLP119 T01560106=
201505211753 METAR KCLM 211753Z AUTO VRB04KT 10SM CLR 14/11 A2989 RMK AO2 SLP121 T01390106 10144 20089 58002=
201505211653 METAR KCLM 211653Z AUTO 01003KT 10SM CLR 13/10 A2989 RMK AO2 SLP124 T01330100=
201505211613 SPECI KCLM 211613Z AUTO 00000KT 10SM SCT003 12/11 A2989 RMK AO2 T01170106=
201505211553 METAR KCLM 211553Z AUTO 28003KT 10SM OVC002 11/10 A2989 RMK AO2 SLP124 T01110100=
201505211542 SPECI KCLM 211542Z AUTO 29004KT 3SM BR OVC002 11/10 A2989 RMK AO2 T01060100=
201505211535 SPECI KCLM 211535Z AUTO 29004KT 1SM BR VV002 11/10 A2989 RMK AO2 VIS 1/2V3 T01060100=
201505211453 METAR KCLM 211453Z AUTO 30006KT M1/4SM FG VV002 09/09 A2989 RMK AO2 SLP123 T00940089 58000=
201505211353 METAR KCLM 211353Z AUTO 30004KT 1/4SM FG VV002 09/08 A2990 RMK AO2 SLP123 T00940083=
201505211349 SPECI KCLM 211349Z AUTO 29005KT 1/4SM FG VV002 09/08 A2990 RMK AO2=
201505211339 SPECI KCLM 211339Z AUTO 27004KT M1/4SM FG VV001 09/09 A2990 RMK AO2 T00940089=
201505211253 METAR KCLM 211253Z AUTO 29005KT M1/4SM FG VV002 09/08 A2990 RMK AO2 SLP123 T00890083=
201505211213 SPECI KCLM 211213Z AUTO 29005KT 1/4SM FG VV002 09/08 A2990 RMK AO2 T00940083=
201505211205 SPECI KCLM 211205Z AUTO 29003KT 1/2SM FG VV002 09/09 A2990 RMK AO2 T00940089=
201505211153 METAR KCLM 211153Z AUTO 25003KT 1/4SM FG VV002 09/09 A2990 RMK AO2 SLP126 T00940089 10094 20089 51005=
201505211136 SPECI KCLM 211136Z AUTO 29004KT 1/2SM FG VV002 09/09 A2990 RMK AO2 T00940089=
201505211123 SPECI KCLM 211123Z AUTO 28006KT 1/4SM FG VV002 09/09 A2990 RMK AO2 T00940089=
201505211115 SPECI KCLM 211115Z AUTO 29005KT 1/2SM FG VV002 09/09 A2990 RMK AO2 T00940089=
201505211053 METAR KCLM 211053Z AUTO 30004KT 1/4SM FG VV002 09/09 A2990 RMK AO2 SLP124 T00940089=
201505211050 SPECI KCLM 211050Z AUTO 30004KT 1/4SM FG VV002 09/09 A2990 RMK AO2=
201505211018 SPECI KCLM 211018Z AUTO 00000KT 3/4SM BR VV002 09/09 A2989 RMK AO2 T00940089=
201505211011 SPECI KCLM 211011Z AUTO VRB03KT 1SM BR VV002 09/09 A2989 RMK AO2 T00940089=
201505210953 METAR KCLM 210953Z AUTO 28004KT 3/4SM BR VV002 09/09 A2989 RMK AO2 SLP120 T00940089=
201505210924 SPECI KCLM 210924Z AUTO 29004KT 1/2SM FG VV002 09/09 A2988 RMK AO2 T00940089=
201505210900 SPECI KCLM 210900Z AUTO 30007KT 1 1/4SM BR OVC002 09/09 A2988 RMK AO2 T00940089=
201505210853 METAR KCLM 210853Z AUTO 30007KT 3/4SM BR VV002 09/09 A2988 RMK AO2 SLP118 T00940089 56003=
201505210838 SPECI KCLM 210838Z AUTO 31006KT 1SM BR OVC002 09/09 A2988 RMK AO2 T00940089=
201505210828 SPECI KCLM 210828Z AUTO 30005KT 3/4SM BR OVC001 09/09 A2988 RMK AO2 T00940089=
201505210813 SPECI KCLM 210813Z AUTO 29005KT 2SM BR OVC001 09/09 A2988 RMK AO2 T00940089=
201505210804 SPECI KCLM 210804Z AUTO 30006KT 3/4SM BR BKN001 09/09 A2988 RMK AO2 T00940089=
201505210755 SPECI KCLM 210755Z AUTO 32006KT 1 3/4SM BR BKN001 09/09 A2988 RMK AO2 T00890089=
201505210753 METAR KCLM 210753Z AUTO 31005KT 3SM BR BKN001 09/09 A2988 RMK AO2 SLP120 T00890089 401780089=
201505210734 SPECI KCLM 210734Z AUTO 30004KT 4SM BR OVC001 09/09 A2988 RMK AO2 T00940089=
201505210730 SPECI KCLM 210730Z AUTO 29005KT 2 1/2SM BR OVC002 09/09 A2988 RMK AO2 T00940089=
201505210718 SPECI KCLM 210718Z AUTO 29005KT 1/2SM FG VV002 09/09 A2989 RMK AO2 T00940089=
201505210710 SPECI KCLM 210710Z AUTO 30006KT 1 1/2SM BR OVC001 09/09 A2989 RMK AO2 T00940089=
201505210700 SPECI KCLM 210700Z AUTO 32004KT 4SM BR OVC001 09/08 A2989 RMK AO2 T00940083=
201505210653 METAR KCLM 210653Z AUTO 29004KT 2 1/2SM BR OVC001 09/09 A2989 RMK AO2 SLP122 T00940089=
201505210638 SPECI KCLM 210638Z AUTO 29005KT 1 3/4SM BR OVC001 09/09 A2989 RMK AO2 T00940089=
201505210634 SPECI KCLM 210634Z AUTO 30005KT 6SM BR OVC001 09/09 A2989 RMK AO2 T00940089=
201505210627 SPECI KCLM 210627Z AUTO 31005KT 3SM BR OVC002 09/08 A2989 RMK AO2 T00940083=
201505210621 SPECI KCLM 210621Z AUTO 29005KT 1 3/4SM BR OVC002 09/09 A2989 RMK AO2 T00940089=
201505210611 SPECI KCLM 210611Z AUTO 28004KT 3/4SM BR VV002 09/09 A2989 RMK AO2 T00940089=
201505210555 SPECI KCLM 210555Z AUTO 30005KT 1/4SM FG VV002 09/09 A2990 RMK AO2 T00940089=
201505210553 METAR KCLM 210553Z AUTO 28005KT 1/2SM FG OVC001 09/09 A2990 RMK AO2 SLP124 T00940089 10172 20094 51004=
201505210549 SPECI KCLM 210549Z AUTO 30004KT 3/4SM BR OVC001 09/09 A2990 RMK AO2=
201505210535 SPECI KCLM 210535Z AUTO 29005KT 2 1/2SM BR OVC001 09/09 A2990 RMK AO2 T00940089=
201505210512 SPECI KCLM 210512Z AUTO 29005KT 1 3/4SM BR OVC001 09/09 A2990 RMK AO2 T00940089=
201505210453 METAR KCLM 210453Z AUTO 28004KT 5SM BR BKN001 10/09 A2990 RMK AO2 SLP124 T01000089=
201505210451 SPECI KCLM 210451Z AUTO 28004KT 5SM BR BKN001 10/09 A2990 RMK AO2=
201505210442 SPECI KCLM 210442Z AUTO 29004KT 8SM SCT001 10/09 A2990 RMK AO2 T01000089=
201505210353 METAR KCLM 210353Z AUTO 32004KT 10SM CLR 11/09 A2988 RMK AO2 SLP120 T01060094=
201505210253 METAR KCLM 210253Z AUTO 30004KT 10SM CLR 16/11 A2988 RMK AO2 SLP117 T01560111 56012=
201505210153 METAR KCLM 210153Z AUTO 32003KT 10SM CLR 17/11 A2989 RMK AO2 SLP120 T01670106=
201505210053 METAR KCLM 210053Z AUTO 31006KT 10SM CLR 16/11 A2990 RMK AO2 SLP123 T01610106=
201505202353 METAR KCLM 202353Z AUTO 30011KT 10SM CLR 14/10 A2991 RMK AO2 SLP130 T01440100 10178 20122 56021=
201505202253 METAR KCLM 202253Z AUTO 31005KT 10SM CLR 16/11 A2993 RMK AO2 SLP136 T01560106=
201505202153 METAR KCLM 202153Z AUTO 36004KT 10SM CLR 17/11 A2995 RMK AO2 LTG DSNT SW SLP143 T01670106=
201505202053 METAR KCLM 202053Z AUTO 36004KT 10SM CLR 15/11 A2997 RMK AO2 LTG DSNT S SLP150 T01500106 58014=
201505201953 METAR KCLM 201953Z AUTO 03005KT 10SM CLR 14/10 A2999 RMK AO2 SLP158 T01390100=
201505201853 METAR KCLM 201853Z AUTO 36004KT 10SM CLR 14/10 A3001 RMK AO2 SLP162 T01390100=
201505201753 METAR KCLM 201753Z AUTO 34005KT 10SM CLR 12/09 A3002 RMK AO2 SLP165 T01220094 10128 20100 56006=
201505201701 SPECI KCLM 201701Z AUTO 01006KT 10SM FEW007 BKN110 12/09 A3002 RMK AO2 T01220094=
201505201653 METAR KCLM 201653Z AUTO VRB05KT 10SM SCT110 13/10 A3002 RMK AO2 SLP167 T01280100=
201505201624 SPECI KCLM 201624Z AUTO 31006KT 10SM SCT005 OVC110 12/10 A3002 RMK AO2 T01220100=
201505201617 SPECI KCLM 201617Z AUTO 31007KT 10SM BKN005 OVC110 12/10 A3002 RMK AO2 T01220100=
201505201553 METAR KCLM 201553Z AUTO 30005KT 10SM OVC003 12/10 A3002 RMK AO2 SLP166 T01170100=
201505201522 SPECI KCLM 201522Z AUTO 30004KT 10SM OVC002 11/09 A3002 RMK AO2 T01060094=
201505201510 SPECI KCLM 201510Z AUTO 29005KT 2SM BR OVC002 10/09 A3003 RMK AO2 VIS 1V4 T01000094=
201505201453 METAR KCLM 201453Z AUTO 00000KT 1 1/4SM BR OVC002 10/09 A3003 RMK AO2 SLP171 T01000094 50001=
201505201439 SPECI KCLM 201439Z AUTO 25004KT 1SM BR OVC002 10/09 A3004 RMK AO2 T01000094=
201505201430 SPECI KCLM 201430Z AUTO 00000KT 1/4SM FG VV002 10/09 A3004 RMK AO2 T01000094=
201505201406 SPECI KCLM 201406Z AUTO 26003KT 1/2SM FG VV002 10/09 A3004 RMK AO2 T01000094=
201505201353 METAR KCLM 201353Z AUTO 28003KT 1/4SM FG VV002 10/09 A3004 RMK AO2 SLP173 T01000094=
201505201345 SPECI KCLM 201345Z AUTO 28005KT 1/4SM FG VV002 10/09 A3004 RMK AO2 T01000089=
201505201300 SPECI KCLM 201300Z AUTO 29006KT 1/2SM FG VV002 10/09 A3003 RMK AO2 T01000089=
201505201253 METAR KCLM 201253Z AUTO 30003KT 1SM BR OVC002 10/09 A3003 RMK AO2 SLP170 T01000094=
201505201251 SPECI KCLM 201251Z AUTO 30004KT 1SM BR OVC002 10/09 A3003 RMK AO2=
201505201235 SPECI KCLM 201235Z AUTO 29004KT 3/4SM BR VV002 10/09 A3003 RMK AO2 T01000094=
201505201207 SPECI KCLM 201207Z AUTO 29006KT 1 1/2SM BR OVC001 10/09 A3003 RMK AO2 T01000089=
201505201153 METAR KCLM 201153Z AUTO 28005KT 1 1/2SM BR OVC002 10/09 A3004 RMK AO2 SLP171 T01000094 10106 20100 58001=
201505201148 SPECI KCLM 201148Z AUTO 28005KT 1 1/2SM BR OVC002 10/09 A3004 RMK AO2=
201505201136 SPECI KCLM 201136Z AUTO 29005KT 2SM BR OVC002 10/09 A3004 RMK AO2 VIS 1 1/2V2 1/2 T01000094=
201505201126 SPECI KCLM 201126Z AUTO 27008KT 4SM BR OVC002 10/09 A3004 RMK AO2 T01000094=
201505201117 SPECI KCLM 201117Z AUTO 28006KT 2 1/2SM BR OVC002 10/09 A3004 RMK AO2 VIS 1 3/4V3 T01000094=
201505201053 METAR KCLM 201053Z AUTO 28006KT 4SM BR OVC002 10/09 A3004 RMK AO2 SLP172 T01000094=
201505201015 SPECI KCLM 201015Z AUTO 28007KT 2SM BR OVC002 10/09 A3004 RMK AO2 T01000094=
201505200953 METAR KCLM 200953Z AUTO 29006KT 4SM BR OVC002 10/09 A3004 RMK AO2 SLP172 T01000094=
201505200942 SPECI KCLM 200942Z AUTO 29007KT 3SM BR OVC002 10/09 A3004 RMK AO2 T01000094=
201505200935 SPECI KCLM 200935Z AUTO 29007KT 1 3/4SM BR OVC002 10/09 A3004 RMK AO2 T01000094=
201505200905 SPECI KCLM 200905Z AUTO VRB06G16KT 2 1/2SM BR OVC002 10/09 A3004 RMK AO2 T01000094=
201505200853 METAR KCLM 200853Z AUTO 29009KT 3SM BR OVC002 10/09 A3004 RMK AO2 SLP173 T01000094 55001=
201505200753 METAR KCLM 200753Z AUTO 30009KT 5SM BR OVC002 10/09 A3004 RMK AO2 SLP171 T01000094 401610100=
201505200653 METAR KCLM 200653Z AUTO 30012G19KT 6SM BR OVC002 11/09 A3004 RMK AO2 SLP173 T01060094=
201505200553 METAR KCLM 200553Z AUTO 30010KT 9SM OVC003 11/09 A3004 RMK AO2 SLP174 T01060094 10156 20106 51004=
201505200453 METAR KCLM 200453Z AUTO 30009G17KT 10SM BKN004 11/09 A3004 RMK AO2 SLP174 T01060094=
201505200435 SPECI KCLM 200435Z AUTO 30009KT 10SM BKN004 11/09 A3004 RMK AO2 T01060094=
201505200407 SPECI KCLM 200407Z AUTO 30007KT 10SM BKN006 11/09 A3004 RMK AO2 T01060094=
201505200353 METAR KCLM 200353Z AUTO 30008KT 10SM SCT006 11/09 A3004 RMK AO2 SLP172 T01060094=
201505200310 SPECI KCLM 200310Z AUTO 29011KT 10SM BKN006 11/09 A3003 RMK AO2 T01110094=
201505200253 METAR KCLM 200253Z AUTO 29011G20KT 10SM SCT006 12/09 A3003 RMK AO2 SLP170 T01170094 56003=
201505200153 METAR KCLM 200153Z AUTO 31009KT 10SM CLR 14/10 A3002 RMK AO2 SLP167 T01390100=
201505200053 METAR KCLM 200053Z AUTO 28010KT 10SM CLR 14/10 A3004 RMK AO2 SLP173 T01440100=
201505192353 METAR KCLM 192353Z AUTO 31009KT 10SM CLR 15/11 A3005 RMK AO2 SLP176 T01500106 10161 20122 56012=
201505192253 METAR KCLM 192253Z AUTO 31008KT 10SM CLR 15/11 A3006 RMK AO2 LTG DSNT SW SLP179 T01500106=
201505192153 METAR KCLM 192153Z AUTO 32008KT 290V350 10SM CLR 15/11 A3007 RMK AO2 SLP184 T01500106=
201505192053 METAR KCLM 192053Z AUTO 33009KT 10SM CLR 14/11 A3008 RMK AO2 SLP188 T01440106 58008=
201505191953 METAR KCLM 191953Z AUTO 31007KT 280V350 10SM CLR 15/11 A3010 RMK AO2 SLP191 T01500106=
201505191910 SPECI KCLM 191910Z AUTO 32008KT 290V350 10SM FEW008 14/11 A3010 RMK AO2 T01390106=
201505191853 METAR KCLM 191853Z AUTO 32009KT 280V340 10SM BKN008 13/11 A3011 RMK AO2 SLP196 T01330106=
201505191753 METAR KCLM 191753Z AUTO 31008KT 10SM OVC005 12/10 A3011 RMK AO2 SLP197 T01220100 10122 20100 58005=
201505191740 SPECI KCLM 191740Z AUTO 31007KT 10SM OVC005 12/10 A3011 RMK AO2 T01220100=
201505191653 METAR KCLM 191653Z AUTO 31007KT 10SM OVC004 11/09 A3012 RMK AO2 SLP201 T01110094=
201505191553 METAR KCLM 191553Z AUTO 31006KT 10SM OVC003 11/10 A3012 RMK AO2 SLP201 T01060100=
201505191453 METAR KCLM 191453Z AUTO 31005KT 4SM BR OVC002 11/10 A3013 RMK AO2 SLP202 T01060100 53011=
201505191447 SPECI KCLM 191447Z AUTO 29005KT 3SM BR OVC002 11/10 A3012 RMK AO2=
201505191431 SPECI KCLM 191431Z AUTO 29007KT 1 1/2SM BR OVC002 11/10 A3012 RMK AO2 T01060100=
201505191353 METAR KCLM 191353Z AUTO 31008KT 1/2SM FG VV002 10/09 A3011 RMK AO2 SLP197 T01000094=
201505191341 SPECI KCLM 191341Z AUTO 30008KT 1/2SM FG VV002 10/09 A3011 RMK AO2 T01000094=
201505191333 SPECI KCLM 191333Z AUTO 30008KT 1/4SM FG VV002 10/09 A3011 RMK AO2 T01000094=
201505191320 SPECI KCLM 191320Z AUTO 30009KT 1/2SM FG VV002 10/09 A3010 RMK AO2 T01000094=
201505191253 METAR KCLM 191253Z AUTO 31007KT 1/4SM FG VV002 10/09 A3010 RMK AO2 SLP194 T01000094=
201505191153 METAR KCLM 191153Z AUTO 31007KT 1/2SM FG VV002 10/09 A3009 RMK AO2 SLP191 T01000094 10100 20100 51003=
201505191053 METAR KCLM 191053Z AUTO 30006KT 1/2SM FG VV002 10/09 A3009 RMK AO2 SLP191 T01000094=
201505190953 METAR KCLM 190953Z AUTO 30009KT 1/2SM FG VV002 10/09 A3009 RMK AO2 SLP188 T01000094=
201505190853 METAR KCLM 190853Z AUTO 30010KT 1/2SM FG VV002 10/09 A3008 RMK AO2 SLP187 T01000094 51001=
201505190829 SPECI KCLM 190829Z AUTO 31011KT 1/4SM FG VV002 10/09 A3008 RMK AO2 T01000094=
201505190753 METAR KCLM 190753Z AUTO 31010KT 1/2SM FG VV002 10/09 A3008 RMK AO2 SLP187 T01000094 402060094=
201505190736 SPECI KCLM 190736Z AUTO 30010KT 1/2SM FG VV002 10/09 A3008 RMK AO2 T01000094=
201505190721 SPECI KCLM 190721Z AUTO 30010KT 1/4SM FG VV002 10/09 A3008 RMK AO2 T01000094=
201505190711 SPECI KCLM 190711Z AUTO 31009KT 1/2SM FG VV002 10/09 A3008 RMK AO2 T01000094=
201505190703 SPECI KCLM 190703Z AUTO 30007KT 1/4SM FG VV002 10/09 A3008 RMK AO2 T01000094=
201505190653 METAR KCLM 190653Z AUTO 31010KT 1/4SM FG VV001 10/09 A3009 RMK AO2 SLP188 T01000094=
201505190637 SPECI KCLM 190637Z AUTO 30009KT 1/4SM FG VV001 10/09 A3008 RMK AO2 T01000094=
201505190553 METAR KCLM 190553Z AUTO 31007KT 3/4SM BR VV001 10/09 A3008 RMK AO2 SLP186 T01000094 10150 20100 50009=
201505190549 SPECI KCLM 190549Z AUTO 31006KT 3/4SM BR VV001 10/09 A3008 RMK AO2=
201505190532 SPECI KCLM 190532Z AUTO 31007KT 1/4SM FG VV001 10/09 A3008 RMK AO2 T01000094=
201505190518 SPECI KCLM 190518Z AUTO 30008KT 3/4SM BR VV001 11/09 A3008 RMK AO2 T01060094=
201505190510 SPECI KCLM 190510Z AUTO 30008KT 2 1/2SM BR BKN001 11/09 A3007 RMK AO2 T01060094=
201505190506 SPECI KCLM 190506Z AUTO 30008KT 3SM BR SCT001 11/09 A3007 RMK AO2 T01060094=
201505190453 METAR KCLM 190453Z AUTO 30008KT 6SM BR CLR 11/09 A3007 RMK AO2 SLP184 T01060094=
201505190428 SPECI KCLM 190428Z AUTO 29005KT 7SM SCT002 11/09 A3007 RMK AO2 T01060094=
201505190419 SPECI KCLM 190419Z AUTO 28005KT 6SM BR BKN003 11/09 A3007 RMK AO2 T01060094=
201505190407 SPECI KCLM 190407Z AUTO 29007KT 6SM BR SCT003 11/09 A3006 RMK AO2 T01060094=
201505190353 METAR KCLM 190353Z AUTO 29006KT 9SM CLR 11/10 A3005 RMK AO2 SLP177 T01110100=
201505190253 METAR KCLM 190253Z AUTO 29006KT 10SM CLR 12/11 A3005 RMK AO2 SLP177 T01220106 55001=
201505190153 METAR KCLM 190153Z AUTO 29009KT 10SM CLR 14/11 A3005 RMK AO2 SLP175 T01440111=
201505190053 METAR KCLM 190053Z AUTO 29012KT 10SM FEW120 13/11 A3006 RMK AO2 SLP179 T01330106=
201505182353 METAR KCLM 182353Z AUTO 32007KT 10SM CLR 12/10 A3006 RMK AO2 SLP178 T01220100 10206 20122 56005=
201505182253 METAR KCLM 182253Z AUTO 31003KT 10SM CLR 14/10 A3006 RMK AO2 LTG DSNT SW SLP179 T01390100=
201505182153 METAR KCLM 182153Z AUTO 04004KT 10SM CLR 19/12 A3006 RMK AO2 LTG DSNT SW AND W SLP180 T01890117=
201505182053 METAR KCLM 182053Z AUTO VRB05KT 10SM CLR 19/12 A3007 RMK AO2 LTG DSNT S SLP182 T01940117 58010=
201505181953 METAR KCLM 181953Z AUTO VRB05KT 10SM CLR 19/12 A3008 RMK AO2 SLP186 T01890117=
201505181853 METAR KCLM 181853Z AUTO 06004KT 10SM CLR 18/12 A3009 RMK AO2 SLP190 T01830117=
201505181753 METAR KCLM 181753Z AUTO 06003KT 10SM CLR 17/11 A3010 RMK AO2 SLP193 60000 T01670111 10167 20100 51001=
201505181653 METAR KCLM 181653Z AUTO 35004KT 10SM CLR 15/11 A3010 RMK AO2 SLP192 T01500111=
201505181553 METAR KCLM 181553Z AUTO 00000KT 10SM CLR 14/11 A3010 RMK AO2 SLP194 T01390106=
201505181453 METAR KCLM 181453Z AUTO 00000KT 10SM CLR 12/11 A3010 RMK AO2 SLP191 60000 T01220106 53005=
201505181353 METAR KCLM 181353Z AUTO 00000KT 10SM BKN100 11/09 A3008 RMK AO2 SLP187 T01110094=
201505181253 METAR KCLM 181253Z AUTO 00000KT 9SM BKN095 OVC120 10/09 A3008 RMK AO2 RAE1154 SLP185 P0000 T01000089=
201505181153 METAR KCLM 181153Z AUTO 00000KT 10SM -RA BKN085 OVC110 10/09 A3008 RMK AO2 RAB44 SLP186 P0000 60003 70003 T01000089 10117 20094 53002=
201505181053 METAR KCLM 181053Z AUTO 26004KT 10SM FEW085 FEW120 11/08 A3008 RMK AO2 SLP185 T01060083=
201505180953 METAR KCLM 180953Z AUTO 30004KT 10SM OVC040 11/09 A3008 RMK AO2 SLP184 T01060089=
201505180853 METAR KCLM 180853Z AUTO 23003KT 10SM FEW110 10/09 A3008 RMK AO2 SLP184 60003 T01000089 56005=
201505180753 METAR KCLM 180753Z AUTO 28004KT 10SM CLR 11/09 A3008 RMK AO2 RAE38 SLP185 P0003 T01060089 401670106=
201505180653 METAR KCLM 180653Z AUTO 29005KT 10SM -RA BKN070 BKN090 OVC110 12/08 A3009 RMK AO2 RAB53 SLP188 P0000 T01170083=
201505180553 METAR KCLM 180553Z AUTO 29007KT 10SM FEW120 12/08 A3009 RMK AO2 SLP189 T01170083 10156 20111 53005=
201505180453 METAR KCLM 180453Z AUTO 28007KT 10SM CLR 11/08 A3009 RMK AO2 SLP189 T01110078=
201505180353 METAR KCLM 180353Z AUTO 29006KT 10SM CLR 12/08 A3007 RMK AO2 SLP184 T01170078=
201505180253 METAR KCLM 180253Z AUTO 29006KT 10SM CLR 13/09 A3007 RMK AO2 SLP184 T01280089 53000=
201505180153 METAR KCLM 180153Z AUTO 30006KT 10SM CLR 14/09 A3007 RMK AO2 SLP181 T01440089=
201505180053 METAR KCLM 180053Z AUTO 30008KT 10SM CLR 15/09 A3007 RMK AO2 SLP182 T01500089=
201505172353 METAR KCLM 172353Z AUTO 31010KT 10SM CLR 16/09 A3007 RMK AO2 SLP183 T01560094 10167 20133 58002=
201505172253 METAR KCLM 172253Z AUTO 33007KT 10SM CLR 16/10 A3007 RMK AO2 SLP184 T01610100=
201505172153 METAR KCLM 172153Z AUTO 30008KT 10SM CLR 16/09 A3008 RMK AO2 SLP185 T01610094=
201505172053 METAR KCLM 172053Z AUTO 35005KT 10SM CLR 16/09 A3008 RMK AO2 SLP185 T01610094 58002=
201505171953 METAR KCLM 171953Z AUTO VRB06KT 10SM CLR 16/09 A3008 RMK AO2 SLP186 T01560094=
201505171853 METAR KCLM 171853Z AUTO 01006KT 10SM CLR 14/09 A3009 RMK AO2 SLP188 T01440089=
201505171825 SPECI KCLM 171825Z AUTO 33007KT 10SM SCT021 14/09 A3009 RMK AO2 T01440094=
201505171753 METAR KCLM 171753Z AUTO 35006KT 10SM OVC021 14/09 A3009 RMK AO2 SLP187 T01440094 10144 20106 50002=
201505171653 METAR KCLM 171653Z AUTO VRB04KT 10SM OVC019 13/09 A3009 RMK AO2 SLP189 T01330089=
201505171553 METAR KCLM 171553Z AUTO 31007KT 10SM OVC018 12/08 A3008 RMK AO2 SLP188 T01220083=
201505171453 METAR KCLM 171453Z AUTO VRB05KT 10SM OVC021 12/08 A3008 RMK AO2 SLP187 T01170083 52005=
201505171353 METAR KCLM 171353Z AUTO 28004KT 10SM OVC019 11/08 A3007 RMK AO2 SLP185 T01110078=
201505171253 METAR KCLM 171253Z AUTO 25004KT 10SM OVC019 11/08 A3007 RMK AO2 SLP183 T01060078=
201505171153 METAR KCLM 171153Z AUTO 27006KT 10SM OVC018 11/08 A3006 RMK AO2 SLP182 T01060078 10111 20106 50003=
201505171053 METAR KCLM 171053Z AUTO 26003KT 10SM OVC018 11/08 A3007 RMK AO2 SLP183 T01110083=
201505170953 METAR KCLM 170953Z AUTO 27004KT 10SM OVC015 11/08 A3006 RMK AO2 SLP182 T01060083=
201505170938 SPECI KCLM 170938Z AUTO 27003KT 10SM OVC015 11/08 A3006 RMK AO2 T01110083=
201505170853 METAR KCLM 170853Z AUTO 29006KT 10SM OVC014 11/08 A3006 RMK AO2 SLP179 T01060083 53001=
201505170753 METAR KCLM 170753Z AUTO 28006KT 10SM OVC014 11/08 A3006 RMK AO2 SLP179 T01060083 401440106=
201505170653 METAR KCLM 170653Z AUTO 29005KT 10SM OVC014 11/08 A3005 RMK AO2 SLP177 T01110083=
201505170553 METAR KCLM 170553Z AUTO 28006KT 10SM OVC014 11/08 A3005 RMK AO2 SLP178 T01110083 10139 20111 51005=
201505170453 METAR KCLM 170453Z AUTO 27006KT 10SM OVC013 11/08 A3005 RMK AO2 SLP177 T01110083=
201505170425 SPECI KCLM 170425Z AUTO 28008KT 10SM OVC014 11/08 A3005 RMK AO2 T01110083=
201505170353 METAR KCLM 170353Z AUTO 29007KT 10SM OVC016 11/08 A3005 RMK AO2 SLP175 T01110083=
201505170336 SPECI KCLM 170336Z AUTO 28005KT 10SM OVC015 12/08 A3004 RMK AO2 T01170083=
201505170253 METAR KCLM 170253Z AUTO 29005KT 10SM OVC014 12/08 A3004 RMK AO2 SLP173 T01170083 53013=
201505170153 METAR KCLM 170153Z AUTO 31008KT 10SM OVC013 12/08 A3001 RMK AO2 SLP163 T01220083=
201505170107 SPECI KCLM 170107Z AUTO 31009KT 10SM OVC014 13/09 A3000 RMK AO2 T01280089=
201505170053 METAR KCLM 170053Z AUTO 31009KT 10SM OVC015 13/09 A3001 RMK AO2 SLP161 T01280089=
201505170041 SPECI KCLM 170041Z AUTO 31009KT 10SM BKN015 13/08 A3000 RMK AO2 T01280083=
201505162353 METAR KCLM 162353Z AUTO 30012G17KT 10SM BKN085 14/09 A3000 RMK AO2 SLP160 T01390089 10144 20117 53001=
201505162253 METAR KCLM 162253Z AUTO 31012G19KT 10SM OVC085 14/09 A3000 RMK AO2 SLP159 T01390089=
201505162153 METAR KCLM 162153Z AUTO 30010KT 10SM FEW055 OVC080 13/09 A2999 RMK AO2 SLP158 T01330089=
201505162053 METAR KCLM 162053Z AUTO 30010KT 10SM FEW016 BKN036 OVC080 13/09 A3000 RMK AO2 SLP159 T01330089 50003=
201505162009 SPECI KCLM 162009Z AUTO 33007KT 10SM OVC015 13/09 A3000 RMK AO2 T01280094=
201505161953 METAR KCLM 161953Z AUTO 31008KT 10SM OVC014 12/09 A3000 RMK AO2 SLP161 T01220089=
201505161853 METAR KCLM 161853Z AUTO 30006KT 10SM OVC013 12/09 A3000 RMK AO2 SLP160 T01170089=
201505161753 METAR KCLM 161753Z AUTO 31008KT 10SM OVC013 12/09 A2999 RMK AO2 SLP156 T01170089 10117 20106 52006=
201505161653 METAR KCLM 161653Z AUTO 31008KT 10SM BKN013 OVC029 12/08 A2998 RMK AO2 SLP154 T01170083=
201505161645 SPECI KCLM 161645Z AUTO 30008KT 10SM BKN013 OVC029 12/08 A2998 RMK AO2 T01170083=
201505161633 SPECI KCLM 161633Z AUTO 31006KT 10SM FEW013 OVC029 12/08 A2998 RMK AO2 T01170083=
201505161553 METAR KCLM 161553Z AUTO 28007KT 10SM OVC032 11/09 A2998 RMK AO2 SLP152 T01110089=
201505161453 METAR KCLM 161453Z AUTO 28008KT 10SM OVC033 11/08 A2997 RMK AO2 SLP149 T01110083 53007=
201505161353 METAR KCLM 161353Z AUTO 32003KT 10SM SCT040 OVC075 11/08 A2996 RMK AO2 SLP146 T01060083=
201505161253 METAR KCLM 161253Z AUTO 28007KT 10SM OVC075 11/08 A2995 RMK AO2 SLP143 T01110083=
201505161153 METAR KCLM 161153Z AUTO 28009KT 10SM FEW009 OVC075 11/08 A2995 RMK AO2 SLP141 T01060083 10111 20106 51002=
201505161149 SPECI KCLM 161149Z AUTO 29009KT 10SM FEW009 OVC075 11/08 A2995 RMK AO2=
201505161120 SPECI KCLM 161120Z AUTO 27011KT 10SM SCT011 OVC075 11/09 A2995 RMK AO2 T01060089=
201505161053 METAR KCLM 161053Z AUTO 29007KT 10SM BKN010 BKN019 OVC075 11/09 A2995 RMK AO2 SLP142 T01060089=
201505161010 SPECI KCLM 161010Z AUTO 29008KT 10SM OVC010 11/09 A2994 RMK AO2 T01110089=
201505160953 METAR KCLM 160953Z AUTO 29011KT 10SM FEW010 BKN015 OVC075 11/09 A2994 RMK AO2 SLP139 T01060089=
201505160914 SPECI KCLM 160914Z AUTO 28009KT 10SM FEW010 BKN018 OVC080 11/09 A2993 RMK AO2 T01060089=
201505160853 METAR KCLM 160853Z AUTO 28008KT 10SM SCT009 SCT018 OVC075 11/09 A2994 RMK AO2 SLP137 T01060089 55002=
201505160827 SPECI KCLM 160827Z AUTO 28008KT 10SM FEW009 OVC075 11/09 A2993 RMK AO2 T01060089=
201505160753 METAR KCLM 160753Z AUTO 28008KT 10SM BKN075 11/08 A2993 RMK AO2 SLP135 T01060083 401610089=
201505160653 METAR KCLM 160653Z AUTO 29007KT 10SM OVC075 11/08 A2993 RMK AO2 SLP136 T01110083=
201505160553 METAR KCLM 160553Z AUTO 28008KT 10SM OVC070 11/09 A2994 RMK AO2 SLP140 T01110089 10150 20106 50014=
201505160453 METAR KCLM 160453Z AUTO 29010KT 10SM BKN065 11/09 A2994 RMK AO2 SLP141 T01110089=
201505160353 METAR KCLM 160353Z AUTO 28009KT 10SM CLR 11/09 A2992 RMK AO2 SLP131 T01110089=
201505160328 SPECI KCLM 160328Z AUTO 27009KT 10SM SCT015 12/09 A2991 RMK AO2 T01170089=
201505160314 SPECI KCLM 160314Z AUTO 28011KT 10SM BKN015 12/09 A2990 RMK AO2 T01220094=
201505160253 METAR KCLM 160253Z AUTO 28009KT 10SM FEW013 12/09 A2990 RMK AO2 SLP125 T01220094 51005=
201505160153 METAR KCLM 160153Z AUTO 29008KT 10SM CLR 13/10 A2989 RMK AO2 SLP123 T01330100=
201505160053 METAR KCLM 160053Z AUTO 32009G15KT 10SM CLR 14/10 A2989 RMK AO2 SLP123 T01440100=
201505152353 METAR KCLM 152353Z AUTO 30013G17KT 10SM CLR 15/10 A2988 RMK AO2 SLP120 T01500100 10161 20133 57001=
201505152253 METAR KCLM 152253Z AUTO 31012KT 10SM CLR 15/10 A2988 RMK AO2 SLP120 T01500100=
201505152153 METAR KCLM 152153Z AUTO 30013G19KT 10SM CLR 14/10 A2989 RMK AO2 SLP121 T01440100=
201505152053 METAR KCLM 152053Z AUTO 31010KT 10SM CLR 15/10 A2989 RMK AO2 SLP120 T01500100 57001=
201505151953 METAR KCLM 151953Z AUTO 32007KT 10SM CLR 14/09 A2989 RMK AO2 SLP121 T01440094=
201505151853 METAR KCLM 151853Z AUTO 30006KT 10SM CLR 14/09 A2989 RMK AO2 SLP122 T01390094=
201505151753 METAR KCLM 151753Z AUTO VRB06KT 10SM CLR 13/09 A2989 RMK AO2 SLP122 T01330094 10133 20089 51004=
201505151742 SPECI KCLM 151742Z AUTO 31006KT 10SM SCT009 13/09 A2989 RMK AO2 T01280094=
201505151653 METAR KCLM 151653Z AUTO 30010KT 10SM OVC008 12/09 A2989 RMK AO2 SLP121 T01170089=
201505151553 METAR KCLM 151553Z AUTO 32006KT 10SM OVC006 11/09 A2988 RMK AO2 SLP119 T01060089=
201505151509 SPECI KCLM 151509Z AUTO 31008KT 10SM BKN006 BKN044 11/09 A2988 RMK AO2 T01060089=
201505151453 METAR KCLM 151453Z AUTO 31005KT 10SM FEW006 SCT044 11/09 A2988 RMK AO2 SLP118 T01060089 53004=
201505151405 SPECI KCLM 151405Z AUTO 31005KT 10SM SCT005 10/09 A2987 RMK AO2 T01000089=
201505151353 METAR KCLM 151353Z AUTO 30007KT 10SM BKN005 10/09 A2987 RMK AO2 SLP115 T01000089=
201505151253 METAR KCLM 151253Z AUTO 30005KT 10SM BKN005 09/08 A2987 RMK AO2 SLP114 T00940083=
201505151250 SPECI KCLM 151250Z AUTO 30005KT 10SM BKN005 09/08 A2986 RMK AO2=
201505151235 SPECI KCLM 151235Z AUTO 29005KT 10SM BKN004 09/08 A2986 RMK AO2 T00940083=
201505151203 SPECI KCLM 151203Z AUTO 30005KT 10SM OVC005 09/08 A2986 RMK AO2 T00940083=
201505151153 METAR KCLM 151153Z AUTO 29007KT 10SM OVC004 09/08 A2986 RMK AO2 SLP113 70003 T00940083 10100 20089 56003=
201505151126 SPECI KCLM 151126Z AUTO 30006KT 8SM BKN004 09/08 A2986 RMK AO2 T00940083=
201505151053 METAR KCLM 151053Z AUTO 30006KT 10SM SCT004 09/08 A2986 RMK AO2 SLP112 T00940083=
201505151006 SPECI KCLM 151006Z AUTO 29007KT 10SM BKN004 09/08 A2987 RMK AO2 T00940083=
201505150953 METAR KCLM 150953Z AUTO 29008KT 10SM OVC005 10/08 A2987 RMK AO2 SLP114 T01000083=
201505150945 SPECI KCLM 150945Z AUTO 29006KT 10SM OVC005 09/09 A2987 RMK AO2 T00940089=
201505150853 METAR KCLM 150853Z AUTO 29007KT 10SM BKN003 10/09 A2987 RMK AO2 SLP115 T01000089 51001=
201505150849 SPECI KCLM 150849Z AUTO 31008KT 10SM BKN003 09/09 A2987 RMK AO2=
201505150824 SPECI KCLM 150824Z AUTO 31007KT 10SM SCT003 09/09 A2987 RMK AO2 T00940089=
201505150753 METAR KCLM 150753Z AUTO 30008KT 10SM OVC003 10/09 A2987 RMK AO2 SLP115 T01000089 401560089=
201505150712 SPECI KCLM 150712Z AUTO 28006KT 10SM BKN003 09/08 A2987 RMK AO2 T00940083=
201505150703 SPECI KCLM 150703Z AUTO 27005KT 9SM SCT002 09/08 A2987 RMK AO2 T00940083=
201505150653 METAR KCLM 150653Z AUTO 29006KT 10SM CLR 09/08 A2987 RMK AO2 SLP115 T00940083=
201505150553 METAR KCLM 150553Z AUTO 28005KT 10SM CLR 09/08 A2987 RMK AO2 SLP115 T00940078 10150 20089 53003=
201505150453 METAR KCLM 150453Z AUTO 29003KT 10SM CLR 09/08 A2987 RMK AO2 SLP114 T00940078=
201505150353 METAR KCLM 150353Z AUTO 26004KT 10SM CLR 11/08 A2986 RMK AO2 SLP112 T01110083=
201505150253 METAR KCLM 150253Z AUTO 28006KT 10SM CLR 13/09 A2986 RMK AO2 SLP112 T01280089 55002=
201505150153 METAR KCLM 150153Z AUTO 31007KT 10SM CLR 13/09 A2986 RMK AO2 SLP111 T01330089=
201505150053 METAR KCLM 150053Z AUTO 31006KT 10SM CLR 14/09 A2986 RMK AO2 SLP114 T01390089=
201505142353 METAR KCLM 142353Z AUTO 35008KT 10SM CLR 15/09 A2987 RMK AO2 SLP114 T01500094 10156 20117 58011=
201505142253 METAR KCLM 142253Z AUTO 01006KT 10SM CLR 16/09 A2988 RMK AO2 SLP116 T01560089=
201505142153 METAR KCLM 142153Z AUTO 01006KT 10SM CLR 14/09 A2989 RMK AO2 SLP123 T01440094=
201505142133 SPECI KCLM 142133Z AUTO 01007KT 350V050 10SM SCT024 14/09 A2990 RMK AO2 T01440094=
201505142110 SPECI KCLM 142110Z AUTO 02005KT 10SM BKN024 13/09 A2990 RMK AO2 T01330089=
201505142053 METAR KCLM 142053Z AUTO VRB05KT 10SM FEW022 14/09 A2990 RMK AO2 SLP125 T01440089 58008=
201505142045 SPECI KCLM 142045Z AUTO 33004KT 10SM SCT020 14/09 A2990 RMK AO2 T01440094=
201505141953 METAR KCLM 141953Z AUTO 26006KT 10SM FEW016 OVC022 14/09 A2991 RMK AO2 SLP129 T01390094=
201505141853 METAR KCLM 141853Z AUTO 34006KT 10SM BKN015 OVC020 13/09 A2992 RMK AO2 SLP133 T01280094=
201505141811 SPECI KCLM 141811Z AUTO VRB04KT 10SM OVC017 12/09 A2992 RMK AO2 T01220089=
201505141753 METAR KCLM 141753Z AUTO 32003KT 10SM OVC013 12/09 A2992 RMK AO2 SLP133 60003 T01170089 10122 20089 58004=
201505141734 SPECI KCLM 141734Z AUTO 35004KT 10SM BKN012 BKN019 OVC045 12/09 A2993 RMK AO2 T01170089=
201505141653 METAR KCLM 141653Z AUTO 30003KT 10SM FEW013 OVC024 11/09 A2993 RMK AO2 SLP135 T01110089=
201505141608 SPECI KCLM 141608Z AUTO 00000KT 10SM OVC029 11/08 A2994 RMK AO2 T01110083=
201505141553 METAR KCLM 141553Z AUTO 26004KT 10SM OVC031 11/08 A2994 RMK AO2 SLP138 T01060083=
201505141453 METAR KCLM 141453Z AUTO 26004KT 10SM OVC032 10/08 A2993 RMK AO2 SLP137 60003 T01000083 53002=
201505141353 METAR KCLM 141353Z AUTO 25004KT 10SM OVC032 09/08 A2993 RMK AO2 RAE1259 SLP135 P0001 T00940078=
201505141330 SPECI KCLM 141330Z AUTO 26005KT 10SM FEW011 SCT015 OVC030 09/08 A2992 RMK AO2 RAE1259 P0000 T00940078=
201505141320 SPECI KCLM 141320Z AUTO 25005KT 10SM SCT015 OVC029 09/08 A2993 RMK AO2 RAE1259 P0000 T00940078=
201505141308 SPECI KCLM 141308Z AUTO 26005KT 10SM OVC030 09/08 A2993 RMK AO2 RAE1259 P0000 T00940078=
201505141253 METAR KCLM 141253Z AUTO 24006KT 10SM -RA FEW015 OVC029 09/08 A2992 RMK AO2 SLP133 P0002 T00940078=
201505141241 SPECI KCLM 141241Z AUTO 24005KT 10SM -RA SCT015 OVC029 09/08 A2992 RMK AO2 P0002 T00940078=
201505141223 SPECI KCLM 141223Z AUTO 24005KT 4SM -RA BR BKN012 BKN027 OVC042 09/07 A2993 RMK AO2 P0000 T00890072=
201505141153 METAR KCLM 141153Z AUTO 25006KT 7SM -RA OVC037 09/07 A2993 RMK AO2 SLP135 P0003 60004 70006 T00940072 10106 20094 50000=
201505141053 METAR KCLM 141053Z AUTO 25004KT 8SM -RA BKN055 OVC065 09/07 A2993 RMK AO2 RAB03 SLP135 P0001 T00940072=
201505141009 SPECI KCLM 141009Z AUTO 25005KT 10SM -RA SCT029 SCT038 OVC050 09/07 A2993 RMK AO2 RAB03 P0001 T00940072=
201505140953 METAR KCLM 140953Z AUTO 25005KT 10SM BKN029 OVC050 10/07 A2993 RMK AO2 RAE20 SLP135 P0000 T01000072=
201505140919 SPECI KCLM 140919Z AUTO 00000KT 10SM -RA BKN029 OVC050 10/08 A2993 RMK AO2 P0000 T01000078=
201505140908 SPECI KCLM 140908Z AUTO 25003KT 10SM -RA SCT028 OVC050 10/08 A2993 RMK AO2 P0000 T01000078=
201505140853 METAR KCLM 140853Z AUTO 25003KT 10SM -RA BKN028 OVC050 10/08 A2993 RMK AO2 RAB10 SLP134 P0000 60000 T01000083 55003=
201505140836 SPECI KCLM 140836Z AUTO 24004KT 10SM -RA BKN028 OVC060 10/08 A2993 RMK AO2 RAB10 P0000 T01000083=
201505140804 SPECI KCLM 140804Z AUTO 28005KT 10SM SCT026 BKN060 OVC075 10/07 A2992 RMK AO2 T01000067=
201505140753 METAR KCLM 140753Z AUTO 27005KT 10SM BKN026 OVC075 10/07 A2992 RMK AO2 SLP134 T01000072 401330100=
201505140653 METAR KCLM 140653Z AUTO 27006KT 10SM OVC026 10/07 A2993 RMK AO2 SLP136 T01000072=
201505140553 METAR KCLM 140553Z AUTO 27007KT 10SM OVC025 10/07 A2993 RMK AO2 SLP137 T01000067 10122 20100 51006=
201505140453 METAR KCLM 140453Z AUTO 28007KT 10SM OVC027 10/07 A2993 RMK AO2 SLP137 T01000072=
201505140441 SPECI KCLM 140441Z AUTO 27005KT 10SM BKN028 10/07 A2993 RMK AO2 T01000067=
201505140353 METAR KCLM 140353Z AUTO 28007KT 10SM SCT030 OVC075 11/07 A2992 RMK AO2 SLP132 T01060072=
201505140253 METAR KCLM 140253Z AUTO 28010KT 10SM FEW047 OVC060 11/07 A2992 RMK AO2 SLP131 T01110067 53006=
201505140153 METAR KCLM 140153Z AUTO 29007KT 10SM SCT047 OVC060 11/07 A2991 RMK AO2 SLP128 T01110067=
201505140053 METAR KCLM 140053Z AUTO 32006KT 10SM FEW015 SCT047 OVC060 12/08 A2991 RMK AO2 SLP127 T01220083=
201505132353 METAR KCLM 132353Z AUTO 29013KT 10SM FEW015 SCT037 OVC045 12/09 A2990 RMK AO2 SLP125 60000 T01220089 10133 20111 51002=
201505132313 SPECI KCLM 132313Z AUTO 30010KT 10SM SCT013 OVC036 13/09 A2990 RMK AO2 T01280089=
201505132300 SPECI KCLM 132300Z AUTO 27007KT 10SM BKN013 OVC035 13/09 A2990 RMK AO2 T01280094=
201505132253 METAR KCLM 132253Z AUTO 28008KT 10SM SCT011 OVC035 13/09 A2990 RMK AO2 SLP124 T01280094=
201505132230 SPECI KCLM 132230Z AUTO 31005KT 10SM FEW010 OVC031 12/09 A2990 RMK AO2 T01220094=
201505132153 METAR KCLM 132153Z AUTO 30007KT 10SM OVC023 12/09 A2990 RMK AO2 SLP125 T01220094=
201505132116 SPECI KCLM 132116Z AUTO 32006KT 10SM FEW009 OVC026 12/09 A2989 RMK AO2 T01170094=
201505132053 METAR KCLM 132053Z AUTO 33006KT 10SM OVC029 12/09 A2989 RMK AO2 RAE1955 SLP123 P0000 60000 T01220094 53007=
201505132030 SPECI KCLM 132030Z AUTO 33007KT 290V360 10SM FEW009 BKN030 OVC042 12/09 A2989 RMK AO2 RAE1955 P0000 T01220094=
201505132013 SPECI KCLM 132013Z AUTO 34005KT 10SM FEW010 BKN018 OVC043 12/09 A2989 RMK AO2 RAE1955 P0000 T01220094=
201505131953 METAR KCLM 131953Z AUTO 29003KT 10SM -RA OVC044 13/10 A2988 RMK AO2 RAB16 SLP118 P0000 T01280100=
201505131921 SPECI KCLM 131921Z AUTO 31003KT 10SM -RA SCT009 OVC043 12/09 A2988 RMK AO2 RAB16 P0000 T01220094=
201505131853 METAR KCLM 131853Z AUTO VRB04KT 10SM BKN008 OVC041 12/10 A2988 RMK AO2 RAE1758 SLP118 P0000 T01220100=
201505131840 SPECI KCLM 131840Z AUTO 34003KT 10SM BKN008 OVC041 12/10 A2988 RMK AO2 RAE1758 P0000 T01170100=
201505131827 SPECI KCLM 131827Z AUTO VRB04KT 10SM FEW007 OVC040 12/10 A2987 RMK AO2 RAE1758 P0000 T01170100=
201505131753 METAR KCLM 131753Z AUTO 30004KT 10SM -RA OVC041 12/09 A2987 RMK AO2 RAE1654B43 SLP115 P0002 60002 T01170094 10117 20100 51007=
201505131704 SPECI KCLM 131704Z AUTO 00000KT 6SM BR FEW007 OVC038 11/09 A2987 RMK AO2 RAE1654 P0000 T01060094=
201505131653 METAR KCLM 131653Z AUTO 26003KT 4SM -RA BR OVC038 11/09 A2987 RMK AO2 RAB1557E12B35 SLP115 P0000 T01060094=
201505131553 METAR KCLM 131553Z AUTO 27004KT 5SM BR OVC042 11/09 A2986 RMK AO2 SLP112 T01060089=
201505131453 METAR KCLM 131453Z AUTO 24004KT 10SM FEW025 OVC041 10/09 A2985 RMK AO2 RAE26 SLP109 P0000 60000 T01000089 53004=
201505131438 SPECI KCLM 131438Z AUTO 26005KT 8SM FEW019 SCT028 OVC040 10/09 A2985 RMK AO2 RAE26 P0000 T01000089=
201505131353 METAR KCLM 131353Z AUTO 26005KT 10SM -RA OVC018 11/08 A2984 RMK AO2 RAB51 SLP107 P0000 T01060083=
201505131253 METAR KCLM 131253Z AUTO 26005KT 10SM OVC016 11/08 A2984 RMK AO2 SLP105 T01060083=
201505131249 SPECI KCLM 131249Z AUTO 27006KT 10SM OVC016 11/08 A2984 RMK AO2=
201505131153 METAR KCLM 131153Z AUTO 27006KT 10SM OVC014 11/08 A2984 RMK AO2 SLP105 T01060083 10117 20106 58001=
201505131149 SPECI KCLM 131149Z AUTO 28007KT 10SM OVC014 11/08 A2984 RMK AO2=
201505131127 SPECI KCLM 131127Z AUTO 28004KT 10SM OVC015 11/08 A2985 RMK AO2 T01060083=
201505131101 SPECI KCLM 131101Z AUTO 27006KT 10SM OVC014 11/08 A2986 RMK AO2 T01060083=
201505131053 METAR KCLM 131053Z AUTO 27007KT 10SM OVC015 11/08 A2985 RMK AO2 SLP109 T01110083=
201505130953 METAR KCLM 130953Z AUTO 27006KT 10SM OVC015 11/08 A2984 RMK AO2 SLP106 T01060083=
201505130919 SPECI KCLM 130919Z AUTO 28006KT 10SM BKN015 OVC023 11/08 A2984 RMK AO2 T01110083=
201505130853 METAR KCLM 130853Z AUTO 27006KT 10SM OVC014 11/08 A2985 RMK AO2 SLP106 T01110083 52003=
201505130817 SPECI KCLM 130817Z AUTO 25003KT 10SM OVC014 11/08 A2984 RMK AO2 T01110083=
201505130753 METAR KCLM 130753Z AUTO 28007KT 10SM OVC015 11/08 A2984 RMK AO2 SLP105 T01110083 401500083=
201505130750 SPECI KCLM 130750Z AUTO 28007KT 10SM OVC015 11/08 A2984 RMK AO2=
201505130702 SPECI KCLM 130702Z AUTO 28006KT 10SM OVC014 11/09 A2984 RMK AO2 T01110089=
201505130653 METAR KCLM 130653Z AUTO 28007KT 10SM BKN015 OVC060 11/09 A2984 RMK AO2 SLP103 T01110089=
201505130642 SPECI KCLM 130642Z AUTO 29007KT 10SM BKN015 OVC060 11/09 A2983 RMK AO2 T01110089=
201505130633 SPECI KCLM 130633Z AUTO 29007KT 10SM SCT015 BKN049 OVC075 11/09 A2983 RMK AO2 T01110089=
201505130553 METAR KCLM 130553Z AUTO 27005KT 10SM OVC015 12/09 A2984 RMK AO2 SLP107 T01170094 10144 20117 51009=
201505130537 SPECI KCLM 130537Z AUTO 24003KT 10SM BKN015 BKN042 OVC060 12/09 A2984 RMK AO2 T01170094=
201505130453 METAR KCLM 130453Z AUTO 26004KT 10SM FEW040 OVC060 12/09 A2984 RMK AO2 SLP104 T01170094=
201505130353 METAR KCLM 130353Z AUTO 31006KT 10SM OVC039 12/10 A2983 RMK AO2 SLP101 T01220100=
201505130253 METAR KCLM 130253Z AUTO 29007KT 10SM SCT039 OVC047 13/10 A2982 RMK AO2 SLP097 T01330100 52001=
201505130153 METAR KCLM 130153Z AUTO 31005KT 10SM OVC043 14/10 A2982 RMK AO2 SLP097 T01390100=
201505130053 METAR KCLM 130053Z AUTO 28005KT 10SM OVC047 14/10 A2982 RMK AO2 SLP098 T01390100=
201505122353 METAR KCLM 122353Z AUTO 32005KT 10SM OVC045 14/09 A2982 RMK AO2 SLP097 T01390094 10150 20128 50000=
201505122253 METAR KCLM 122253Z AUTO 28004KT 10SM OVC045 14/09 A2982 RMK AO2 SLP098 T01390094=
201505122153 METAR KCLM 122153Z AUTO 31004KT 10SM OVC055 14/09 A2982 RMK AO2 SLP099 T01390094=
201505122053 METAR KCLM 122053Z AUTO VRB04KT 10SM OVC050 14/09 A2982 RMK AO2 SLP097 T01440094 56003=
201505121953 METAR KCLM 121953Z AUTO VRB04KT 10SM OVC050 14/09 A2982 RMK AO2 SLP098 T01390094=
201505121853 METAR KCLM 121853Z AUTO 36006KT 10SM OVC050 14/09 A2982 RMK AO2 SLP097 T01390094=
201505121834 SPECI KCLM 121834Z AUTO 35006KT 10SM SCT028 OVC050 13/09 A2982 RMK AO2 T01280089=
201505121753 METAR KCLM 121753Z AUTO 35006KT 10SM BKN027 OVC049 13/09 A2982 RMK AO2 SLP100 T01280089 10128 20100 56005=
201505121745 SPECI KCLM 121745Z AUTO VRB06KT 10SM BKN026 OVC049 12/09 A2983 RMK AO2 T01220089=
201505121728 SPECI KCLM 121728Z AUTO 35006KT 10SM FEW026 OVC048 12/09 A2983 RMK AO2 T01220089=
201505121653 METAR KCLM 121653Z AUTO 01004KT 10SM OVC026 12/09 A2983 RMK AO2 SLP101 T01220089=
201505121553 METAR KCLM 121553Z AUTO 31003KT 10SM OVC022 12/09 A2984 RMK AO2 SLP104 T01170089=
201505121534 SPECI KCLM 121534Z AUTO 00000KT 10SM BKN021 BKN027 OVC048 12/09 A2984 RMK AO2 T01170089=
201505121453 METAR KCLM 121453Z AUTO 30004KT 10SM OVC047 12/09 A2984 RMK AO2 SLP105 T01170089 55005=
201505121353 METAR KCLM 121353Z AUTO 31003KT 10SM OVC047 11/08 A2984 RMK AO2 SLP104 T01060083=
201505121253 METAR KCLM 121253Z AUTO 26006KT 10SM OVC047 11/08 A2984 RMK AO2 SLP104 T01060078=
201505121153 METAR KCLM 121153Z AUTO 27005KT 10SM OVC047 10/08 A2985 RMK AO2 SLP110 T01000078 10100 20083 58005=
201505121053 METAR KCLM 121053Z AUTO 27003KT 10SM OVC048 10/08 A2986 RMK AO2 SLP113 T01000078=
201505120953 METAR KCLM 120953Z AUTO 32004KT 10SM FEW048 09/07 A2986 RMK AO2 SLP112 T00890072=
201505120853 METAR KCLM 120853Z AUTO 29005KT 10SM CLR 10/08 A2987 RMK AO2 SLP115 T01000078 56008=
201505120753 METAR KCLM 120753Z AUTO 29009KT 10SM BKN049 BKN110 10/08 A2988 RMK AO2 SLP117 T01000083 401500094=
201505120653 METAR KCLM 120653Z AUTO 28009KT 10SM SCT120 10/08 A2988 RMK AO2 SLP117 T01000083=
201505120553 METAR KCLM 120553Z AUTO 28009KT 10SM CLR 10/08 A2989 RMK AO2 SLP123 T01000083 10144 20100 58003=
201505120453 METAR KCLM 120453Z AUTO 28005KT 10SM OVC060 11/08 A2993 RMK AO2 SLP134 T01060083=
201505120353 METAR KCLM 120353Z AUTO 28007KT 10SM CLR 11/08 A2992 RMK AO2 SLP132 T01060083=
201505120253 METAR KCLM 120253Z AUTO 28009KT 10SM CLR 12/08 A2990 RMK AO2 SLP126 T01170083 56014=
201505120153 METAR KCLM 120153Z AUTO 30007KT 10SM CLR 13/08 A2991 RMK AO2 SLP129 T01280083=
201505120053 METAR KCLM 120053Z AUTO 29006KT 10SM FEW046 14/09 A2993 RMK AO2 SLP134 T01440089=
201505112353 METAR KCLM 112353Z AUTO 30011KT 10SM SCT046 14/08 A2994 RMK AO2 SLP140 T01390083 10150 20122 58016=
201505112253 METAR KCLM 112253Z AUTO 33007KT 290V350 10SM OVC044 14/09 A2996 RMK AO2 SLP146 T01440089=
201505112153 METAR KCLM 112153Z AUTO 31006KT 10SM BKN045 OVC065 14/09 A2998 RMK AO2 SLP151 T01440089=
201505112053 METAR KCLM 112053Z AUTO 31006KT 10SM OVC046 13/08 A2999 RMK AO2 SLP156 T01280078 58008=
201505111953 METAR KCLM 111953Z AUTO 30006KT 10SM OVC042 12/08 A3000 RMK AO2 SLP159 T01220078=
201505111853 METAR KCLM 111853Z AUTO 34006KT 10SM OVC043 13/07 A3001 RMK AO2 SLP161 T01280072=
201505111753 METAR KCLM 111753Z AUTO 31007KT 10SM OVC043 13/08 A3001 RMK AO2 SLP164 T01330083 10133 20100 58008=
201505111653 METAR KCLM 111653Z AUTO 29007KT 10SM OVC046 12/08 A3003 RMK AO2 SLP170 T01220078=
201505111553 METAR KCLM 111553Z AUTO 29005KT 10SM OVC045 11/08 A3004 RMK AO2 SLP173 T01110078=
201505111453 METAR KCLM 111453Z AUTO 27005KT 10SM SCT020 OVC045 11/08 A3004 RMK AO2 SLP173 T01110078 56002=
201505111353 METAR KCLM 111353Z AUTO 28006KT 10SM OVC045 11/08 A3004 RMK AO2 SLP174 T01060078=
201505111253 METAR KCLM 111253Z AUTO 26007KT 10SM FEW036 OVC050 11/08 A3004 RMK AO2 SLP173 T01060078=
201505111153 METAR KCLM 111153Z AUTO 27007KT 10SM BKN070 OVC110 11/08 A3004 RMK AO2 SLP174 60000 T01060078 10106 20100 57003=
201505111053 METAR KCLM 111053Z AUTO 28006KT 10SM BKN055 BKN070 OVC100 10/07 A3005 RMK AO2 SLP175 T01000072=
201505110953 METAR KCLM 110953Z AUTO 27007KT 10SM BKN065 OVC100 11/07 A3005 RMK AO2 SLP176 T01060072=
201505110853 METAR KCLM 110853Z AUTO 27006KT 10SM SCT045 SCT065 BKN095 11/07 A3005 RMK AO2 SLP176 60000 T01060072 53002=
201505110753 METAR KCLM 110753Z AUTO 29008KT 10SM OVC110 11/07 A3004 RMK AO2 SLP172 T01060072 401720094=
201505110653 METAR KCLM 110653Z AUTO 31006KT 10SM BKN100 10/07 A3004 RMK AO2 RAB14E49 SLP172 P0000 T01000067=
201505110553 METAR KCLM 110553Z AUTO 30005KT 10SM BKN100 10/07 A3005 RMK AO2 SLP176 T01000072 10156 20094 50002=
201505110453 METAR KCLM 110453Z AUTO 29004KT 10SM SCT110 11/07 A3005 RMK AO2 SLP177 T01060072=
201505110353 METAR KCLM 110353Z AUTO 27007KT 10SM CLR 12/08 A3005 RMK AO2 SLP177 T01170078=
201505110253 METAR KCLM 110253Z AUTO 30012KT 10SM FEW120 12/08 A3004 RMK AO2 SLP174 T01170083 50000=
201505110153 METAR KCLM 110153Z AUTO 31012G18KT 10SM SCT014 12/09 A3004 RMK AO2 SLP174 T01220089=
201505110135 SPECI KCLM 110135Z AUTO 30012KT 10SM BKN014 13/09 A3004 RMK AO2 T01280089=
201505110111 SPECI KCLM 110111Z AUTO 31011G20KT 10SM BKN015 13/09 A3004 RMK AO2 T01280089=
201505110053 METAR KCLM 110053Z AUTO 31012G21KT 10SM FEW015 14/09 A3004 RMK AO2 SLP175 T01390094=
201505102353 METAR KCLM 102353Z AUTO 29013G21KT 10SM CLR 16/10 A3004 RMK AO2 SLP172 T01560100 10172 20133 58002=
201505102253 METAR KCLM 102253Z AUTO 28012KT 10SM CLR 16/10 A3004 RMK AO2 SLP173 T01560100=
201505102153 METAR KCLM 102153Z AUTO 32012KT 10SM CLR 15/10 A3005 RMK AO2 SLP176 T01500100=
201505102053 METAR KCLM 102053Z AUTO 30010KT 10SM CLR 16/10 A3005 RMK AO2 SLP175 T01610100 56008=
201505101953 METAR KCLM 101953Z AUTO 30007KT 10SM CLR 16/10 A3005 RMK AO2 SLP176 T01560100=
201505101853 METAR KCLM 101853Z AUTO 31006KT 10SM CLR 15/09 A3005 RMK AO2 SLP177 T01500094=
201505101753 METAR KCLM 101753Z AUTO VRB06KT 10SM CLR 13/09 A3007 RMK AO2 SLP183 T01330089 10133 20094 50002=
201505101653 METAR KCLM 101653Z AUTO 30007KT 10SM CLR 13/08 A3008 RMK AO2 SLP185 T01280083=
201505101553 METAR KCLM 101553Z AUTO 32004KT 10SM BKN110 12/08 A3008 RMK AO2 SLP185 T01220083=
201505101453 METAR KCLM 101453Z AUTO 31007KT 10SM CLR 12/07 A3007 RMK AO2 SLP181 T01170072 53008=
201505101353 METAR KCLM 101353Z AUTO 30009KT 10SM CLR 11/07 A3005 RMK AO2 SLP177 T01060067=
201505101253 METAR KCLM 101253Z AUTO 29007KT 10SM CLR 10/06 A3004 RMK AO2 SLP172 T01000056=
201505101153 METAR KCLM 101153Z AUTO 30007KT 10SM CLR 10/06 A3004 RMK AO2 SLP173 T01000061 10122 20094 56002=
201505101053 METAR KCLM 101053Z AUTO 29006KT 10SM CLR 11/06 A3004 RMK AO2 SLP173 T01060061=
201505100953 METAR KCLM 100953Z AUTO 29007KT 10SM CLR 11/06 A3004 RMK AO2 SLP173 T01060061=
201505100853 METAR KCLM 100853Z AUTO 30010KT 10SM CLR 11/06 A3005 RMK AO2 SLP174 T01110056 55001=
201505100753 METAR KCLM 100753Z AUTO 29005KT 10SM CLR 11/06 A3005 RMK AO2 SLP174 T01060056 402060072=
201505100653 METAR KCLM 100653Z AUTO 28007KT 10SM CLR 12/06 A3004 RMK AO2 SLP173 T01170056=
201505100553 METAR KCLM 100553Z AUTO 30004KT 10SM CLR 12/06 A3005 RMK AO2 SLP175 T01220056 10167 20122 56002=
201505100453 METAR KCLM 100453Z AUTO 27007KT 10SM CLR 12/07 A3005 RMK AO2 SLP175 T01220072=
201505100353 METAR KCLM 100353Z AUTO 26006KT 10SM CLR 13/07 A3006 RMK AO2 SLP177 T01280072=
201505100253 METAR KCLM 100253Z AUTO 30005KT 10SM CLR 14/07 A3006 RMK AO2 SLP178 T01440072 56004=
201505100153 METAR KCLM 100153Z AUTO 30007KT 10SM CLR 14/09 A3006 RMK AO2 SLP179 T01440089=
201505100053 METAR KCLM 100053Z AUTO 32004KT 10SM CLR 16/09 A3006 RMK AO2 SLP180 T01560094=
201505092353 METAR KCLM 092353Z AUTO 31005KT 10SM CLR 16/09 A3007 RMK AO2 SLP182 T01610094 10206 20144 58010=
201505092253 METAR KCLM 092253Z AUTO 30005KT 10SM CLR 18/08 A3008 RMK AO2 SLP186 T01780083=
201505092153 METAR KCLM 092153Z AUTO 36005KT 10SM CLR 18/08 A3009 RMK AO2 SLP190 T01830083=
201505092053 METAR KCLM 092053Z AUTO 05005KT 10SM CLR 19/04 A3010 RMK AO2 SLP192 T01940044 58006=
201505091953 METAR KCLM 091953Z AUTO 00000KT 10SM CLR 19/07 A3011 RMK AO2 SLP196 T01890072=
201505091853 METAR KCLM 091853Z AUTO 01004KT 10SM CLR 16/08 A3012 RMK AO2 SLP198 T01610083=
201505091753 METAR KCLM 091753Z AUTO 36005KT 10SM CLR 16/07 A3012 RMK AO2 SLP198 T01560072 10161 20072 50002=
201505091653 METAR KCLM 091653Z AUTO VRB03KT 10SM CLR 16/07 A3012 RMK AO2 SLP199 T01610067=
201505091553 METAR KCLM 091553Z AUTO 35003KT 10SM CLR 14/06 A3011 RMK AO2 SLP198 T01440061=
201505091453 METAR KCLM 091453Z AUTO 00000KT 10SM CLR 13/03 A3011 RMK AO2 SLP196 T01280033 53015=
201505091353 METAR KCLM 091353Z AUTO 00000KT 10SM CLR 08/03 A3009 RMK AO2 SLP189 T00780028=
201505091253 METAR KCLM 091253Z AUTO 22004KT 10SM CLR 08/02 A3008 RMK AO2 SLP185 T00780017=
201505091153 METAR KCLM 091153Z AUTO 24009KT 10SM CLR 11/M01 A3007 RMK AO2 SLP181 T01111011 10139 20106 52008=
201505091053 METAR KCLM 091053Z AUTO 24008KT 10SM CLR 12/M02 A3006 RMK AO2 SLP179 T01171017=
201505090953 METAR KCLM 090953Z AUTO 23007KT 10SM CLR 12/M02 A3005 RMK AO2 SLP173 T01221017=
201505090853 METAR KCLM 090853Z AUTO 26013KT 10SM CLR 13/M02 A3004 RMK AO2 SLP172 T01281017 51005=
201505090753 METAR KCLM 090753Z AUTO 26009KT 10SM CLR 13/M01 A3004 RMK AO2 SLP171 T01281011 402280056=
201505090653 METAR KCLM 090653Z AUTO 27007KT 10SM CLR 12/M01 A3003 RMK AO2 SLP170 T01221006=
201505090553 METAR KCLM 090553Z AUTO 24010KT 10SM CLR 14/M01 A3003 RMK AO2 SLP168 T01391006 10228 20111 51012=
201505090453 METAR KCLM 090453Z AUTO 24007KT 10SM CLR 13/M01 A3002 RMK AO2 SLP166 T01331006=
201505090353 METAR KCLM 090353Z AUTO 22007KT 10SM CLR 13/02 A3001 RMK AO2 SLP161 T01330017=
201505090253 METAR KCLM 090253Z AUTO 18003KT 10SM CLR 19/M01 A2999 RMK AO2 SLP156 T01891011 56004=
201505090153 METAR KCLM 090153Z AUTO 00000KT 10SM CLR 22/M02 A2999 RMK AO2 SLP156 T02221022=
201505090053 METAR KCLM 090053Z AUTO 05003KT 10SM CLR 22/M03 A3000 RMK AO2 SLP157 T02221033=
201505082353 METAR KCLM 082353Z AUTO VRB03KT 10SM CLR 22/M03 A3000 RMK AO2 SLP160 T02171033 10228 20172 56016=
201505082253 METAR KCLM 082253Z AUTO 03006KT 10SM CLR 22/M01 A3002 RMK AO2 SLP165 T02171006=
201505082153 METAR KCLM 082153Z AUTO 00000KT 10SM CLR 23/M02 A3003 RMK AO2 SLP170 T02281022=
201505082053 METAR KCLM 082053Z AUTO 09004KT 10SM CLR 22/00 A3005 RMK AO2 SLP176 T02170000 58010=
201505081953 METAR KCLM 081953Z AUTO 02006KT 10SM CLR 19/06 A3006 RMK AO2 SLP180 T01940061=
201505081853 METAR KCLM 081853Z AUTO 11003KT 10SM CLR 18/06 A3008 RMK AO2 SLP185 T01780061=
201505081753 METAR KCLM 081753Z AUTO 05006KT 10SM CLR 17/06 A3008 RMK AO2 SLP187 T01720061 10172 20056 58005=
201505081653 METAR KCLM 081653Z AUTO 09006KT 10SM CLR 16/06 A3009 RMK AO2 SLP188 T01610061=
201505081553 METAR KCLM 081553Z AUTO 13006KT 10SM CLR 16/06 A3010 RMK AO2 SLP192 T01560061=
201505081453 METAR KCLM 081453Z AUTO 12003KT 10SM CLR 15/05 A3010 RMK AO2 SLP192 T01500050 53005=
201505081353 METAR KCLM 081353Z AUTO 22005KT 10SM CLR 09/04 A3009 RMK AO2 SLP191 T00890039=
201505081253 METAR KCLM 081253Z AUTO 22004KT 10SM CLR 08/03 A3008 RMK AO2 SLP188 T00780028=
201505081153 METAR KCLM 081153Z AUTO 21005KT 10SM CLR 06/03 A3008 RMK AO2 SLP187 T00560028 10122 20056 53005=
201505081053 METAR KCLM 081053Z AUTO 00000KT 10SM CLR 08/02 A3007 RMK AO2 SLP183 T00830022=
201505080953 METAR KCLM 080953Z AUTO 24009KT 10SM CLR 09/02 A3007 RMK AO2 SLP181 T00940022=
201505080853 METAR KCLM 080853Z AUTO 24007KT 10SM CLR 09/03 A3007 RMK AO2 SLP181 T00940028 58001=
201505080753 METAR KCLM 080753Z AUTO 24010KT 10SM CLR 11/03 A3007 RMK AO2 SLP183 T01060028 401780050=
201505080653 METAR KCLM 080653Z AUTO 25009KT 10SM CLR 12/02 A3007 RMK AO2 SLP183 T01220022=
201505080553 METAR KCLM 080553Z AUTO 25009KT 10SM CLR 12/03 A3007 RMK AO2 SLP183 T01170033 10167 20094 50002=
201505080453 METAR KCLM 080453Z AUTO 26003KT 10SM CLR 10/04 A3007 RMK AO2 SLP185 T01000044=
201505080353 METAR KCLM 080353Z AUTO 25005KT 10SM CLR 11/05 A3007=
201505080253 METAR KCLM 080253Z AUTO 27007KT 10SM CLR 13/06 A3006 RMK AO2 SLP182 T01330061 56004=
201505080153 METAR KCLM 080153Z AUTO 30006KT 10SM CLR 14/07 A3007 RMK AO2 SLP182 T01390072=
201505080053 METAR KCLM 080053Z AUTO 30004KT 10SM CLR 15/07 A3007 RMK AO2 SLP184 T01500067=
201505072353 METAR KCLM 072353Z AUTO 35004KT 10SM CLR 17/07 A3008 RMK AO2 SLP186 T01670072 10178 20150 56014=
201505072253 METAR KCLM 072253Z AUTO 06004KT 10SM CLR 17/04 A3009 RMK AO2 SLP190 T01670044=
201505072153 METAR KCLM 072153Z AUTO 02006KT 10SM CLR 17/04 A3010 RMK AO2 SLP193 T01720044=
201505072053 METAR KCLM 072053Z AUTO VRB04KT 10SM CLR 17/06 A3012 RMK AO2 SLP199 T01670056 58015=
201505071953 METAR KCLM 071953Z AUTO 06005KT 10SM CLR 17/05 A3014 RMK AO2 SLP206 T01670050=
201505071853 METAR KCLM 071853Z AUTO VRB04KT 10SM CLR 16/06 A3015 RMK AO2 SLP211 T01560061=
201505071753 METAR KCLM 071753Z AUTO 10007KT 10SM CLR 15/06 A3016 RMK AO2 SLP215 T01500061 10150 20050 58003=
201505071653 METAR KCLM 071653Z AUTO 09005KT 10SM CLR 13/06 A3017 RMK AO2 SLP219 T01330061=
201505071553 METAR KCLM 071553Z AUTO 04003KT 10SM CLR 13/07 A3017 RMK AO2 SLP217 T01280067=
201505071453 METAR KCLM 071453Z AUTO 30004KT 10SM CLR 10/03 A3017 RMK AO2 SLP218 T01000028 53010=
201505071353 METAR KCLM 071353Z AUTO 00000KT 10SM CLR 08/02 A3016 RMK AO2 SLP214 T00780022=
201505071253 METAR KCLM 071253Z AUTO 27006KT 10SM CLR 07/01 A3015 RMK AO2 SLP211 T00720011=
201505071153 METAR KCLM 071153Z AUTO 25009KT 10SM CLR 07/02 A3014 RMK AO2 SLP208 T00720017 10100 20072 55002=
201505071053 METAR KCLM 071053Z AUTO 25011KT 10SM CLR 08/02 A3014 RMK AO2 SLP208 T00780017=
201505070953 METAR KCLM 070953Z AUTO 27010KT 10SM CLR 08/02 A3014 RMK AO2 SLP208 T00780017=
201505070853 METAR KCLM 070853Z AUTO 25012G18KT 10SM CLR 09/02 A3015 RMK AO2 SLP211 T00890017 58000=
201505070753 METAR KCLM 070753Z AUTO 26012KT 10SM CLR 10/02 A3016 RMK AO2 SLP213 T01000022 401440056=
201505070653 METAR KCLM 070653Z AUTO 26008KT 10SM CLR 09/03 A3015 RMK AO2 SLP212 T00940028=
201505070553 METAR KCLM 070553Z AUTO 26008KT 10SM CLR 09/04 A3015 RMK AO2 SLP211 T00940039 10139 20078 51007=
201505070453 METAR KCLM 070453Z AUTO 28005KT 10SM CLR 08/06 A3015 RMK AO2 SLP211 T00780056=
201505070353 METAR KCLM 070353Z AUTO 28009KT 10SM CLR 09/07 A3015 RMK AO2 SLP209 T00940067=
201505070253 METAR KCLM 070253Z AUTO 33003KT 10SM CLR 11/06 A3013 RMK AO2 SLP204 T01110061 53002=
201505070153 METAR KCLM 070153Z AUTO 31006KT 10SM CLR 12/06 A3012 RMK AO2 SLP201 T01220061=
201505070053 METAR KCLM 070053Z AUTO 30009KT 10SM CLR 13/07 A3012 RMK AO2 SLP201 T01330067=
201505062353 METAR KCLM 062353Z AUTO 31006KT 10SM CLR 13/07 A3012 RMK AO2 SLP202 T01330067 10144 20111 58006=
201505062253 METAR KCLM 062253Z AUTO VRB04KT 10SM CLR 14/06 A3013 RMK AO2 SLP204 T01440056=
201505062153 METAR KCLM 062153Z AUTO 36007KT 10SM CLR 12/07 A3015 RMK AO2 SLP209 T01170067=
201505062053 METAR KCLM 062053Z AUTO VRB03KT 10SM CLR 14/07 A3014 RMK AO2 SLP208 T01390067 58005=
201505061953 METAR KCLM 061953Z AUTO 02005KT 10SM CLR 13/05 A3015 RMK AO2 SLP211 T01280050=
201505061853 METAR KCLM 061853Z AUTO 36005KT 10SM FEW044 12/07 A3015 RMK AO2 SLP211 T01220067=
201505061753 METAR KCLM 061753Z AUTO VRB04KT 10SM OVC065 11/07 A3016 RMK AO2 SLP213 T01110067 10111 20056 51008=
201505061653 METAR KCLM 061653Z AUTO 30003KT 10SM OVC065 10/06 A3015 RMK AO2 SLP211 T01000056=
201505061553 METAR KCLM 061553Z AUTO 26008KT 10SM OVC060 09/04 A3014 RMK AO2 SLP208 T00890039=
201505061453 METAR KCLM 061453Z AUTO 26008G18KT 10SM SCT060 08/03 A3014 RMK AO2 SLP206 T00780028 53008=
201505061353 METAR KCLM 061353Z AUTO 25011KT 10SM SCT060 07/03 A3013 RMK AO2 SLP203 T00670028=
201505061253 METAR KCLM 061253Z AUTO 25010KT 10SM CLR 06/03 A3012 RMK AO2 SLP200 T00610028=
201505061153 METAR KCLM 061153Z AUTO 26011KT 10SM CLR 06/03 A3011 RMK AO2 SLP198 70012 T00560028 10072 20050 55001=
201505061053 METAR KCLM 061053Z AUTO 25011KT 10SM CLR 06/03 A3011 RMK AO2 SLP195 T00610033=
201505060953 METAR KCLM 060953Z AUTO 25011KT 10SM CLR 07/04 A3011 RMK AO2 SLP196 T00670039=
201505060853 METAR KCLM 060853Z AUTO 25010KT 10SM CLR 06/04 A3012 RMK AO2 SLP199 T00610039 50001=
201505060753 METAR KCLM 060753Z AUTO 25008KT 10SM CLR 07/04 A3012 RMK AO2 SLP200 T00670039 401330050=
201505060653 METAR KCLM 060653Z AUTO 25008KT 10SM CLR 07/04 A3011 RMK AO2 SLP198 T00720044=
201505060553 METAR KCLM 060553Z AUTO 00000KT 10SM CLR 06/04 A3011 RMK AO2 SLP197 60003 T00610044 10111 20061 51008=
201505060453 METAR KCLM 060453Z AUTO 25007KT 10SM CLR 08/05 A3011 RMK AO2 SLP197 T00780050=
201505060353 METAR KCLM 060353Z AUTO 25007KT 10SM SCT065 BKN110 08/06 A3009 RMK AO2 SLP190 T00830056=
201505060253 METAR KCLM 060253Z AUTO 24006KT 10SM FEW065 SCT085 OVC110 09/06 A3009 RMK AO2 RAE36 SLP189 P0002 60003 T00890061 51006=
201505060153 METAR KCLM 060153Z AUTO 25006KT 10SM -RA BKN050 BKN060 OVC110 09/06 A3008 RMK AO2 SLP187 P0001 T00940061=
201505060053 METAR KCLM 060053Z AUTO 31008KT 10SM -RA BKN055 OVC070 10/06 A3008 RMK AO2 RAB36 SLP186 P0000 T01000061=
201505052353 METAR KCLM 052353Z AUTO 31008KT 10SM SCT038 BKN048 OVC070 11/05 A3007 RMK AO2 SLP183 60000 T01060050 10133 20100 53008=
201505052253 METAR KCLM 052253Z AUTO 30010G21KT 10SM FEW032 BKN090 12/04 A3006 RMK AO2 RAB09E19 SLP179 P0000 T01220039=
201505052153 METAR KCLM 052153Z AUTO 32010G19KT 10SM BKN070 BKN110 13/06 A3005 RMK AO2 SLP177 T01280056=
201505052053 METAR KCLM 052053Z AUTO 30014G20KT 10SM FEW070 12/06 A3005 RMK AO2 SLP175 T01220056 51007=
201505051953 METAR KCLM 051953Z AUTO 34008G17KT 10SM FEW048 BKN060 BKN075 11/04 A3004 RMK AO2 SLP173 T01110044=
201505051853 METAR KCLM 051853Z AUTO 34006KT 10SM FEW049 BKN060 11/04 A3004 RMK AO2 SLP172 T01110044=
201505051753 METAR KCLM 051753Z AUTO 27007KT 10SM CLR 12/05 A3002 RMK AO2 SLP168 60009 T01220050 10122 20072 51010=
201505051653 METAR KCLM 051653Z AUTO 25008KT 10SM CLR 11/06 A3002 RMK AO2 RAE05 SLP165 P0000 T01060061=
201505051553 METAR KCLM 051553Z AUTO 24008KT 10SM -RA BKN045 BKN055 OVC075 08/05 A3001 RMK AO2 RAE05B33 SLP162 P0003 T00780050=
201505051453 METAR KCLM 051453Z AUTO 27009KT 10SM -RA OVC048 07/06 A2999 RMK AO2 SLP158 P0003 60006 T00720056 53015=
201505051353 METAR KCLM 051353Z AUTO 25008KT 10SM -RA OVC042 07/05 A2997 RMK AO2 RAB1259 SLP149 P0003 T00720050=
201505051304 SPECI KCLM 051304Z AUTO 26007KT 7SM -RA SCT025 OVC037 07/05 A2996 RMK AO2 RAB1259 P0000 T00720050=
201505051253 METAR KCLM 051253Z AUTO 26008KT 10SM FEW023 BKN028 OVC060 08/05 A2996 RMK AO2 SLP147 T00780050=
201505051153 METAR KCLM 051153Z AUTO 26005KT 10SM BKN060 OVC075 08/05 A2995 RMK AO2 RAB1057E21 SLP142 P0000 60002 70003 T00780050 10089 20067 56001=
201505051053 METAR KCLM 051053Z AUTO 26011KT 10SM SCT055 BKN070 OVC100 08/04 A2995 RMK AO2 LTG DSNT NE AND E SLP143 T00830044=
201505050953 METAR KCLM 050953Z AUTO 00000KT 10SM OVC080 08/05 A2995 RMK AO2 SLP142 T00780050=
201505050901 SPECI KCLM 050901Z AUTO 00000KT 10SM SCT020 SCT090 07/05 A2995 RMK AO2 T00670050=
201505050853 METAR KCLM 050853Z AUTO 00000KT 10SM BKN018 08/05 A2995 RMK AO2 SLP143 60002 T00780050 50004=
201505050753 METAR KCLM 050753Z AUTO 25005KT 10SM SCT016 BKN026 BKN049 08/06 A2995 RMK AO2 RAE0655B16E39 SLP144 P0002 T00780056 401500056=
201505050727 SPECI KCLM 050727Z AUTO 00000KT 10SM BKN019 BKN039 OVC070 08/07 A2995 RMK AO2 RAE0655B16E23 P0002 T00830067=
201505050700 SPECI KCLM 050700Z AUTO 00000KT 10SM FEW017 BKN033 OVC090 08/06 A2994 RMK AO2 RAE0655 P0002 T00830061=
201505050653 METAR KCLM 050653Z AUTO 20003KT 10SM -RA BKN019 BKN031 BKN039 08/06 A2994 RMK AO2 RAB37 SLP141 P0000 T00830061=
201505050626 SPECI KCLM 050626Z AUTO 23006KT 10SM BKN020 OVC070 08/06 A2995 RMK AO2 T00780061=
201505050553 METAR KCLM 050553Z AUTO 12003KT 10SM SCT065 BKN100 07/05 A2994 RMK AO2 SLP139 60001 T00670050 10128 20067 52006=
201505050453 METAR KCLM 050453Z AUTO 00000KT 10SM CLR 08/06 A2994 RMK AO2 RAE0358 SLP138 P0000 T00780056=
201505050353 METAR KCLM 050353Z AUTO 08005KT 10SM -RA FEW022 SCT070 09/06 A2993 RMK AO2 RAB48 SLP135 P0000 T00890061=
201505050253 METAR KCLM 050253Z AUTO 00000KT 10SM FEW075 11/08 A2992 RMK AO2 SLP133 60001 T01110078 58006=
201505050153 METAR KCLM 050153Z AUTO 16003KT 10SM FEW080 SCT095 12/08 A2993 RMK AO2 RAB0058E08 SLP136 P0000 T01170083=
201505050053 METAR KCLM 050053Z AUTO 14003KT 10SM FEW037 SCT048 OVC065 11/09 A2994 RMK AO2 RAE02B22E51 SLP140 P0001 T01110089=
201505042353 METAR KCLM 042353Z AUTO 13004KT 10SM -RA OVC037 12/08 A2994 RMK AO2 RAB2254 SLP140 P0000 60000 T01170078 10150 20117 51004=
201505042253 METAR KCLM 042253Z AUTO 08003KT 10SM FEW049 OVC060 13/06 A2994 RMK AO2 SLP139 T01280061=
201505042153 METAR KCLM 042153Z AUTO 33007KT 290V350 10SM FEW050 BKN090 14/06 A2994 RMK AO2 SLP139 T01390056=
201505042053 METAR KCLM 042053Z AUTO VRB06KT 10SM SCT055 SCT075 13/05 A2993 RMK AO2 SLP136 T01280050 53009=
201505041953 METAR KCLM 041953Z AUTO VRB06KT 10SM CLR 14/06 A2992 RMK AO2 SLP132 T01390056=
201505041853 METAR KCLM 041853Z AUTO 15007KT 10SM CLR 14/06 A2991 RMK AO2 SLP129 T01390056=
201505041827 SPECI KCLM 041827Z AUTO 10SM SCT029 13/06 A2991 RMK AO2 T01280061=
201505041753 METAR KCLM 041753Z AUTO 32006KT 10SM OVC028 12/06 A2990 RMK AO2 SLP126 T01170061 10117 20056 53006=
201505041653 METAR KCLM 041653Z AUTO 29005G14KT 10SM OVC022 11/06 A2989 RMK AO2 SLP123 T01060056=
201505041553 METAR KCLM 041553Z AUTO 30009KT 10SM OVC020 10/06 A2989 RMK AO2 SLP122 T01000061=
201505041453 METAR KCLM 041453Z AUTO 25005KT 10SM OVC017 09/06 A2988 RMK AO2 SLP120 T00940061 53003=
201505041403 SPECI KCLM 041403Z AUTO 25007KT 10SM OVC015 08/06 A2988 RMK AO2 T00830061=
201505041353 METAR KCLM 041353Z AUTO 26006KT 10SM OVC014 08/06 A2988 RMK AO2 SLP118 T00830061=
201505041333 SPECI KCLM 041333Z AUTO 26006KT 10SM BKN014 08/06 A2988 RMK AO2 T00780056=
201505041253 METAR KCLM 041253Z AUTO 27006KT 10SM CLR 07/04 A2987 RMK AO2 SLP115 T00670044=
201505041153 METAR KCLM 041153Z AUTO 28006KT 10SM CLR 06/03 A2987 RMK AO2 SLP116 T00610033 10094 20061 58002=
201505041053 METAR KCLM 041053Z AUTO 28006KT 10SM CLR 07/04 A2987 RMK AO2 SLP116 T00670044=
201505040953 METAR KCLM 040953Z AUTO 28007KT 10SM CLR 08/05 A2988 RMK AO2 SLP119 T00830050=
201505040853 METAR KCLM 040853Z AUTO 27003KT 10SM CLR 08/04 A2988 RMK AO2 SLP118 T00830039 56006=
201505040753 METAR KCLM 040753Z AUTO 27006KT 10SM CLR 09/04 A2988 RMK AO2 SLP120 T00890044 401830022=
201505040653 METAR KCLM 040653Z AUTO 28004KT 10SM CLR 09/04 A2988 RMK AO2 SLP119 T00890044=
201505040553 METAR KCLM 040553Z AUTO 26005KT 10SM CLR 08/04 A2990 RMK AO2 SLP124 T00830039 10183 20072 58006=
201505040453 METAR KCLM 040453Z AUTO 00000KT 10SM CLR 09/03 A2990 RMK AO2 SLP126 T00890033=
201505040353 METAR KCLM 040353Z AUTO 29007KT 10SM CLR 10/03 A2991 RMK AO2 SLP130 T01000028=
201505040253 METAR KCLM 040253Z AUTO 29003KT 10SM CLR 11/05 A2991 RMK AO2 SLP130 T01110050 56007=
201505040153 METAR KCLM 040153Z AUTO 30005KT 10SM CLR 13/07 A2992 RMK AO2 SLP132 T01330067=
201505040053 METAR KCLM 040053Z AUTO VRB03KT 10SM CLR 15/04 A2992 RMK AO2 SLP134 T01500044=
201505032353 METAR KCLM 032353Z AUTO 02004KT 10SM CLR 18/00 A2993 RMK AO2 SLP137 T01830000 10183 20133 58020=
201505032253 METAR KCLM 032253Z AUTO VRB03KT 10SM CLR 18/M01 A2996 RMK AO2 SLP146 T01831011=
201505032153 METAR KCLM 032153Z AUTO 01006KT 10SM CLR 17/02 A2998 RMK AO2 SLP153 T01670022=
201505032053 METAR KCLM 032053Z AUTO VRB04KT 10SM CLR 16/03 A2999 RMK AO2 SLP157 T01610033 58012=
201505031953 METAR KCLM 031953Z AUTO 11004KT 10SM CLR 15/04 A3001 RMK AO2 SLP163 T01500044=
201505031853 METAR KCLM 031853Z AUTO 09006KT 10SM CLR 14/05 A3003 RMK AO2 SLP168 T01440050=
201505031753 METAR KCLM 031753Z AUTO 09006KT 10SM CLR 13/05 A3003 RMK AO2 SLP169 T01330050 10139 20022 58003=
201505031653 METAR KCLM 031653Z AUTO 09006KT 10SM CLR 13/04 A3003 RMK AO2 SLP171 T01280039=
201505031553 METAR KCLM 031553Z AUTO 11009KT 10SM CLR 12/03 A3004 RMK AO2 SLP172 T01220028=
201505031453 METAR KCLM 031453Z AUTO 12009KT 10SM CLR 12/03 A3004 RMK AO2 SLP172 T01170033 53007=
201505031353 METAR KCLM 031353Z AUTO 22005KT 10SM CLR 07/02 A3002 RMK AO2 SLP168 T00670017=
201505031253 METAR KCLM 031253Z AUTO VRB03KT 10SM CLR 03/00 A3001 RMK AO2 SLP163 T00280000=
201505031153 METAR KCLM 031153Z AUTO 23008KT 10SM CLR 05/01 A3002 RMK AO2 SLP165 T00500011 10100 20033 56006=
201505031053 METAR KCLM 031053Z AUTO 23006KT 10SM CLR 04/01 A3002 RMK AO2 SLP167 T00440011=
201505030953 METAR KCLM 030953Z AUTO 23008KT 10SM CLR 05/02 A3002 RMK AO2 SLP168 T00500017=
201505030853 METAR KCLM 030853Z AUTO 23003KT 10SM CLR 06/02 A3003 RMK AO2 SLP171 T00560022 55000=
201505030753 METAR KCLM 030753Z AUTO 28008KT 10SM CLR 08/03 A3003 RMK AO2 SLP169 T00780028 401610022=
201505030653 METAR KCLM 030653Z AUTO 25009KT 10SM CLR 09/03 A3003 RMK AO2 SLP168 T00890028=
201505030553 METAR KCLM 030553Z AUTO 27007KT 10SM CLR 08/03 A3003 RMK AO2 SLP171 T00830033 10161 20067 58000=
201505030453 METAR KCLM 030453Z AUTO 23006KT 10SM CLR 07/04 A3004 RMK AO2 SLP174 T00670039=
201505030353 METAR KCLM 030353Z AUTO 27003KT 10SM CLR 10/05 A3004 RMK AO2 SLP173 T01000050=
201505030253 METAR KCLM 030253Z AUTO 29003KT 10SM CLR 10/05 A3003 RMK AO2 SLP171 T01000050 55004=
201505030153 METAR KCLM 030153Z AUTO 01003KT 10SM CLR 14/03 A3003 RMK AO2 SLP171 T01390033=
201505030053 METAR KCLM 030053Z AUTO 10003KT 10SM CLR 16/01 A3004 RMK AO2 SLP173 T01560011=
201505022353 METAR KCLM 022353Z AUTO 08005KT 10SM CLR 16/02 A3005 RMK AO2 SLP176 T01560022 10156 20117 58015=
201505022253 METAR KCLM 022253Z AUTO 09006KT 10SM CLR 15/03 A3006 RMK AO2 SLP181 T01500028=
201505022153 METAR KCLM 022153Z AUTO 08007KT 10SM CLR 14/02 A3008 RMK AO2 SLP187 T01390022=
201505022053 METAR KCLM 022053Z AUTO 08009KT 10SM CLR 13/02 A3009 RMK AO2 SLP191 T01330022 58007=
201505021953 METAR KCLM 021953Z AUTO 08010KT 10SM CLR 13/04 A3010 RMK AO2 SLP195 T01280039=
201505021853 METAR KCLM 021853Z AUTO 08009KT 10SM CLR 13/04 A3011 RMK AO2 SLP197 T01280044=
201505021753 METAR KCLM 021753Z AUTO 10009KT 10SM CLR 12/04 A3011 RMK AO2 SLP197 T01170044 10117 20022 53004=
201505021653 METAR KCLM 021653Z AUTO VRB05KT 10SM CLR 12/06 A3010 RMK AO2 SLP195 T01170056=
201505021553 METAR KCLM 021553Z AUTO 09004KT 10SM CLR 11/05 A3010 RMK AO2 SLP194 T01110050=
201505021453 METAR KCLM 021453Z AUTO 00000KT 10SM CLR 09/04 A3010 RMK AO2 SLP193 T00890044 51010=
201505021353 METAR KCLM 021353Z AUTO 21003KT 10SM CLR 04/03 A3009 RMK AO2 SLP191 T00440028=
201505021253 METAR KCLM 021253Z AUTO 22003KT 10SM CLR 04/02 A3008 RMK AO2 SLP187 T00390022=
201505021153 METAR KCLM 021153Z AUTO 23006KT 10SM CLR 05/03 A3007 RMK AO2 SLP183 T00500028 10083 20039 55001=
201505021053 METAR KCLM 021053Z AUTO 27006KT 10SM FEW044 06/03 A3007 RMK AO2 SLP182 T00560028=
201505020953 METAR KCLM 020953Z AUTO 24004KT 10SM BKN044 07/03 A3007 RMK AO2 SLP184 T00670033=
201505020853 METAR KCLM 020853Z AUTO 27008KT 10SM CLR 06/04 A3007 RMK AO2 SLP184 T00610039 55004=
201505020753 METAR KCLM 020753Z AUTO 25007KT 10SM FEW044 06/03 A3007 RMK AO2 SLP183 T00610033 401440061=
201505020653 METAR KCLM 020653Z AUTO 26003KT 10SM CLR 08/03 A3008 RMK AO2 SLP188 T00780033=
201505020553 METAR KCLM 020553Z AUTO 26006KT 10SM SCT050 08/04 A3009 RMK AO2 SLP189 T00830039 10133 20083 51014=
201505020453 METAR KCLM 020453Z AUTO 26007KT 10SM CLR 08/05 A3007 RMK AO2 SLP185 T00830050=
201505020353 METAR KCLM 020353Z AUTO 26009KT 10SM CLR 09/04 A3006 RMK AO2 SLP179 T00940044=
201505020253 METAR KCLM 020253Z AUTO 30014G21KT 10SM CLR 11/04 A3004 RMK AO2 PK WND 31026/0158 SLP174 T01060044 58006=
201505020153 METAR KCLM 020153Z AUTO 31017G23KT 10SM CLR 11/04 A3005 RMK AO2 SLP178 T01110044=
201505020053 METAR KCLM 020053Z AUTO 30008KT 10SM CLR 13/07 A3006 RMK AO2 SLP179 T01280072=
201505012353 METAR KCLM 012353Z AUTO 31015G22KT 10SM FEW039 12/06 A3006 RMK AO2 SLP180 T01220061 10144 20117 58005=
201505012253 METAR KCLM 012253Z AUTO 30012G18KT 10SM OVC035 13/07 A3007 RMK AO2 SLP182 T01330072=
201505012153 METAR KCLM 012153Z AUTO 31012G18KT 10SM CLR 14/08 A3007 RMK AO2 SLP184 T01390078=
201505012053 METAR KCLM 012053Z AUTO 30015G22KT 10SM CLR 14/07 A3007 RMK AO2 SLP185 T01390072 58003=
201505012038 SPECI KCLM 012038Z AUTO 30015G23KT 10SM SCT026 13/07 A3008 RMK AO2 T01330067=
201505012009 SPECI KCLM 012009Z AUTO 31014G23KT 10SM BKN025 14/08 A3008 RMK AO2 T01390078=
201505011953 METAR KCLM 011953Z AUTO 32012G19KT 270V340 10SM FEW025 13/07 A3008 RMK AO2 SLP188 T01330072=
201505011934 SPECI KCLM 011934Z AUTO 30017G23KT 10SM FEW026 13/07 A3008 RMK AO2 T01330072=
201505011853 METAR KCLM 011853Z AUTO 30014G20KT 10SM BKN028 13/07 A3008 RMK AO2 SLP187 T01330072=
201505011753 METAR KCLM 011753Z AUTO 30011G21KT 10SM FEW020 OVC026 12/07 A3008 RMK AO2 SLP188 T01170072 10117 20067 58001=
201505011653 METAR KCLM 011653Z AUTO 31009KT 10SM OVC029 12/08 A3009 RMK AO2 SLP190 T01170078=
201505011553 METAR KCLM 011553Z AUTO 27005KT 10SM OVC027 11/07 A3009 RMK AO2 SLP189 T01110072=
201505011453 METAR KCLM 011453Z AUTO 29004KT 10SM FEW008 BKN023 OVC035 10/07 A3009 RMK AO2 SLP189 T01000072 55000=
201505011450 SPECI KCLM 011450Z AUTO 28004KT 10SM SCT010 BKN024 OVC035 10/07 A3009 RMK AO2=
201505011407 SPECI KCLM 011407Z AUTO 25006KT 10SM BKN011 BKN035 BKN120 09/06 A3009 RMK AO2 T00890061=
201505011353 METAR KCLM 011353Z AUTO 25005KT 10SM FEW011 BKN120 08/06 A3008 RMK AO2 SLP188 T00830056=
201505011253 METAR KCLM 011253Z AUTO 24006KT 10SM FEW120 07/05 A3009 RMK AO2 SLP189 T00720050=
201505011153 METAR KCLM 011153Z AUTO 24004KT 10SM CLR 07/05 A3009 RMK AO2 SLP191 T00670050 10100 20067 58010=
201505011053 METAR KCLM 011053Z AUTO 27004KT 10SM CLR 07/06 A3010 RMK AO2 SLP194 T00720056=
201505010953 METAR KCLM 010953Z AUTO 24004KT 10SM CLR 07/05 A3012 RMK AO2 SLP199 T00670050=
201505010853 METAR KCLM 010853Z AUTO 23003KT 10SM CLR 07/06 A3012 RMK AO2 SLP201 T00720056 56012=
201505010753 METAR KCLM 010753Z AUTO 22003KT 10SM CLR 09/07 A3013 RMK AO2 SLP204 T00890067 401500050=
201505010653 METAR KCLM 010653Z AUTO 24003KT 10SM CLR 10/07 A3014 RMK AO2 SLP207 T01000067=
201505010553 METAR KCLM 010553Z AUTO 29005KT 10SM OVC036 10/07 A3016 RMK AO2 SLP213 T01000067 10133 20100 58003=
201505010453 METAR KCLM 010453Z AUTO 27006KT 10SM OVC036 11/07 A3017 RMK AO2 SLP219 T01060067=
201505010353 METAR KCLM 010353Z AUTO 24004KT 10SM OVC040 11/06 A3017 RMK AO2 SLP217 T01110061=
201505010253 METAR KCLM 010253Z AUTO 29005KT 10SM OVC042 11/06 A3017 RMK AO2 SLP216 T01060056 56020=
201505010153 METAR KCLM 010153Z AUTO 00000KT 10SM CLR 13/06 A3017 RMK AO2 SLP218 T01280061=
201505010053 METAR KCLM 010053Z AUTO 00000KT 10SM FEW047 13/06 A3020 RMK AO2 SLP228 T01280061=

# No short TAF reports from KCLM in databse.

###################################
#  large TAF from KCLM
###################################
201505312330 TAF KCLM 312330Z 0100/0124 36005KT P6SM BKN120 BKN200 FM010200
                       29005KT P6SM SCT120 BKN200 FM011500 30005KT
                       P6SM SCT012 BKN100 OVC200 FM011800 31007KT
                       P6SM BKN050 OVC100 FM012100 31010G18KT P6SM
                       -SHRA BKN050 OVC100=
201505311740 TAF KCLM 311740Z 3118/0118 36005KT P6SM BKN120 BKN200 FM010200
                       30005KT P6SM BKN200 FM011500 30005KT P6SM
                       BKN025 BKN050=
201505311120 TAF KCLM 311120Z 3112/0112 29007KT P6SM OVC004 FM311700 03006KT
                       P6SM FEW010 BKN200 FM311900 32007KT P6SM
                       BKN200=
201505310857 TAF AMD KCLM 310857Z 3109/0106 29005KT P6SM OVC004 FM311700 03006KT
                       P6SM SCT200 FM010000 32006KT P6SM SCT200=
201505310635 TAF AMD KCLM 310635Z 3107/0106 29008KT P6SM BKN006 FM311700 03006KT
                       P6SM SCT200 FM010000 32006KT P6SM SCT200=
201505310522 TAF KCLM 310522Z 3106/0106 30008KT P6SM SCT200 FM311200 28006KT
                       P6SM SCT010 SCT200 FM311700 03006KT P6SM
                       SCT200 FM010000 32006KT P6SM SCT200=
201505302320 TAF KCLM 302320Z 3100/3124 30012G18KT P6SM SKC FM310400 29009KT
                       P6SM SCT250 FM311200 28006KT P6SM SCT010
                       FM311700 01006KT P6SM SCT200=
201505301734 TAF KCLM 301734Z 3018/3118 32010KT P6SM SKC FM310000 30010G18KT
                       P6SM SKC FM310400 29009KT P6SM SCT250 FM311200
                       28007KT P6SM SCT010 FM311700 33006KT P6SM
                       SCT250=
201505301408 TAF AMD KCLM 301408Z 3014/3112 28008KT P6SM SKC FM301800 32010KT
                       P6SM SKC FM310000 30010G18KT P6SM SKC=
201505301349 TAF AMD KCLM 301349Z 3014/3112 28008KT P6SM SCT008
                      TEMPO 3015/3017 BKN008 FM301800 32010KT P6SM
                       SCT250 FM302100 32010KT P6SM SCT250=
201505301120 TAF KCLM 301120Z 3012/3112 30008KT P6SM SCT050 SCT250 FM301300
                       30008KT P6SM BKN008 BKN250 FM301800 32010KT
                       P6SM SCT250 FM302100 32010KT P6SM SCT250=
201505300942 TAF AMD KCLM 300942Z 3010/3106 29009KT P6SM SCT200 FM301200 28008KT
                       6SM BR OVC007 FM301800 32010KT P6SM SCT250
                       FM302100 32010KT P6SM SCT250=
201505300520 TAF KCLM 300520Z 3006/3106 28014KT P6SM SCT250 FM300900 28010KT
                       5SM BR OVC009 FM301100 28008KT 2SM BR OVC007
                       FM301800 32010KT P6SM VCFG SCT250 FM302100
                       32010KT P6SM SCT250=
201505292321 TAF KCLM 292321Z 3000/3024 29010G20KT P6SM SCT250 FM300800 29012KT
                       P6SM BKN250 FM301100 28008KT 2SM BR OVC007
                       FM301800 32010KT P6SM VCFG SCT250=
201505291736 TAF KCLM 291736Z 2918/3018 31008KT P6SM VCFG SCT250 FM292200 31010G18KT
                       P6SM SKC FM300500 29010KT 1SM BR OVC002
                       FM301200 28007KT 1/2SM FG OVC002=
201505291501 TAF AMD KCLM 291501Z 2915/3012 00000KT P6SM VCFG FEW002 SCT250
                       FM291700 32009KT P6SM SCT250 FM301000 VRB03KT
                       1SM BR OVC002=
201505291130 TAF AMD KCLM 291130Z 2912/3012 00000KT 3/4SM BR VV002
                      TEMPO 2912/2916 1/4SM FG VV001 FM291700 33006KT
                       P6SM SKC FM301000 VRB03KT 1SM BR OVC002=
201505291120 TAF KCLM 291120Z 2912/3012 00000KT 3/4SM BR VV002 FM291700 33006KT
                       P6SM SKC FM301000 VRB03KT 1SM BR OVC002=
201505291054 TAF AMD KCLM 291054Z 2911/3006 29003KT 3/4SM BR VV002 FM291700
                       33006KT P6SM SKC=
201505290957 TAF AMD KCLM 290957Z 2910/3006 30006KT 2SM BR OVC001 FM291700 33006KT
                       P6SM SKC=
201505290520 TAF KCLM 290520Z 2906/3006 00000KT P6SM VCFG FEW001 FM291000 25005KT
                       1/2SM FG VV002 FM291700 33006KT P6SM SKC=
201505282320 TAF KCLM 282320Z 2900/2924 33008KT P6SM SKC FM290600 33008KT P6SM
                       VCFG SCT002
                      TEMPO 2906/2910 2SM BR BKN002 FM291000 25005KT
                       1/2SM FG VV002 FM291700 33006KT P6SM SKC=
201505281720 TAF KCLM 281720Z 2818/2918 33006KT P6SM SKC FM291000 25005KT 1/2SM
                       FG VV002 FM291700 33006KT P6SM SKC=
201505281506 TAF AMD KCLM 281506Z 2815/2912 00000KT 4SM BR SCT003
                      TEMPO 2815/2818 1/2SM FG VV002 FM281800 33006KT
                       P6SM SKC FM291100 25005KT 1/2SM FG VV002=
201505281322 TAF AMD KCLM 281322Z 2813/2912 30004KT 1/4SM FG VV001 FM281600
                       00000KT 5SM BR BKN003 FM281900 33006KT P6SM
                       SKC FM291100 28002KT 2SM BR BKN003=
201505281123 TAF KCLM 281123Z 2812/2912 30004KT 1/4SM FG VV002 FM281600 00000KT
                       5SM BR BKN003 FM281900 33006KT P6SM SKC
                       FM291100 28002KT 2SM BR BKN003=
201505280651 TAF AMD KCLM 280651Z 2807/2906 00000KT 1/4SM FG VV001 FM281600
                       00000KT 5SM BR BKN003 FM281900 33006KT P6SM
                       SKC=
201505280525 TAF KCLM 280525Z 2806/2906 30004KT P6SM SKC FM280730 VRB03KT 4SM
                       BR BKN004
                      TEMPO 2812/2816 1/2SM FG VV002 FM281900 33006KT
                       P6SM SKC=
201505272320 TAF KCLM 272320Z 2800/2824 33006KT P6SM SKC FM281000 VRB03KT 4SM
                       BR BKN004
                      TEMPO 2812/2816 1/2SM FG VV002 FM281800 33006KT
                       P6SM SKC=
201505271720 TAF KCLM 271720Z 2718/2818 VRB04KT P6SM SCT005 FM272100 30005KT
                       P6SM SCT050 FM281000 VRB03KT 4SM BR BKN004
                       TEMPO 2812/2816 1/2SM FG VV002=
201505271519 TAF AMD KCLM 271519Z 2715/2812 30004KT P6SM OVC004 FM271700 33006KT
                       6SM BR BKN007 BKN040 FM271900 33006KT P6SM
                       SCT040 FM280000 29006KT P6SM SCT250=
201505271301 TAF AMD KCLM 271301Z 2713/2812 30006KT 3/4SM BR VV002
                      TEMPO 2713/2717 1/4SM FG FM271700 33006KT
                       6SM BR BKN007 BKN040 FM271900 33006KT P6SM
                       SCT040 FM280000 29006KT P6SM SCT250=
201505271217 TAF AMD KCLM 271217Z 2712/2812 29003KT 1SM BR OVC002 FM271800 VRB04KT
                       P6SM OVC015 FM272100 33007KT P6SM BKN050
                       FM280000 29006KT P6SM SCT250=
201505271120 TAF KCLM 271120Z 2712/2812 29003KT 1SM BR OVC002 FM271500 VRB04KT
                       P6SM OVC015 FM272100 33007KT P6SM BKN050
                       FM280000 29006KT P6SM SCT250=
201505270937 TAF AMD KCLM 270937Z 2710/2806 29006KT 1/2SM FG VV002 FM271700
                       33005KT P6SM BKN003 FM271900 31006KT P6SM
                       SKC=
201505270702 TAF AMD KCLM 270702Z 2707/2806 29004KT 3SM BR OVC002 FM271700 33005KT
                       P6SM BKN003 FM271900 31006KT P6SM SKC=
201505270539 TAF KCLM 270539Z 2706/2806 29004KT P6SM BKN002 FM271200 00000KT
                       P6SM BKN015 BKN050 FM271700 32007KT P6SM
                       SCT050=
201505262320 TAF KCLM 262320Z 2700/2724 32007KT P6SM SCT050 SCT120 FM270300
                       32007KT P6SM SCT040 BKN100 FM271200 00000KT
                       P6SM BKN015 BKN050 FM271700 32007KT P6SM
                       SCT050=
201505261720 TAF KCLM 261720Z 2618/2718 32007KT P6SM BKN050 FM262100 32007KT
                       P6SM SCT050 SCT120 FM270300 32007KT P6SM
                       SCT040 BKN100 FM271200 00000KT P6SM BKN015
                       BKN050 FM271700 32007KT P6SM SCT050=
201505261120 TAF KCLM 261120Z 2612/2712 25004KT P6SM SCT025 OVC050
                      TEMPO 2612/2616 OVC010 FM262000 31005KT P6SM
                       SCT050 BKN100 FM271000 28009KT P6SM BKN050=
201505260909 TAF AMD KCLM 260909Z 2609/2706 00000KT P6SM FEW021 OVC060 FM261000
                       VRB03KT P6SM OVC020 FM261400 28005KT P6SM
                       SCT020 BKN050 FM262200 31005KT P6SM SKC=
201505260527 TAF KCLM 260527Z 2606/2706 27004KT P6SM SKC FM260800 27004KT P6SM
                       OVC015 FM261400 28005KT P6SM SCT020 BKN050
                       FM262200 31005KT P6SM SKC=
201505260301 TAF AMD KCLM 260301Z 2603/2624 30003KT P6SM BKN029 FM260800 27006KT
                       P6SM OVC015 FM261400 VRB03KT P6SM BKN009
                       FM261800 34005KT P6SM BKN018 BKN030 FM262100
                       33006KT P6SM SCT030 BKN045=
201505252335 TAF KCLM 252335Z 2600/2624 32006KT P6SM SCT025 SCT035 BKN045 FM260800
                       27006KT P6SM OVC015 FM261400 VRB03KT P6SM
                       BKN009 FM261800 34005KT P6SM BKN018 BKN030
                       FM262100 33006KT P6SM SCT030 BKN045=
201505252041 TAF AMD KCLM 252041Z 2521/2618 33006KT P6SM SCT018 SCT030 BKN045
                       FM260800 27006KT P6SM OVC015 FM261400 VRB03KT
                       P6SM BKN009=
201505251741 TAF KCLM 251741Z 2518/2618 34005KT P6SM SCT010
                      TEMPO 2518/2522 BKN010 FM252300 31007KT P6SM
                       SCT030 BKN045 FM260800 27006KT P6SM OVC015
                       FM261400 VRB03KT P6SM BKN009=
201505251120 TAF KCLM 251120Z 2512/2612 33005KT P6SM OVC005 FM251600 31005KT
                       P6SM OVC007 FM251800 34005KT P6SM OVC015
                       FM252300 32006KT P6SM SCT020 OVC050 FM260200
                       30006KT P6SM SCT120 FM260800 28008KT P6SM
                       OVC015=
201505250730 TAF AMD KCLM 250730Z 2508/2606 29007KT P6SM OVC006 FM252100 29007KT
                       P6SM OVC050=
201505250520 TAF KCLM 250520Z 2506/2606 28005KT P6SM SCT120 BKN200 FM250900
                       30006KT P6SM OVC015 FM260300 29007KT P6SM
                       OVC050=
201505242320 TAF KCLM 242320Z 2500/2524 30010KT P6SM SCT020 OVC035 FM250700
                       28007KT P6SM OVC018 FM251700 31009KT P6SM
                       BKN025 OVC050 FM252000 33009KT P6SM SCT050=
201505241720 TAF KCLM 241720Z 2418/2518 32007KT P6SM OVC015 FM242300 30010KT
                       P6SM SCT022 OVC040 FM250600 28009KT P6SM
                       OVC015=
201505241120 TAF KCLM 241120Z 2412/2512 29004KT P6SM OVC011 FM241800 32007KT
                       P6SM OVC015 FM242300 30010KT P6SM OVC050
                       FM250300 29009KT P6SM SCT200 FM250400 28009KT
                       P6SM OVC012=
201505240523 TAF KCLM 240523Z 2406/2506 30006KT P6SM OVC008 FM242000 31010KT
                       P6SM BKN040=
201505240300 TAF AMD KCLM 240300Z 2403/2424 30009KT P6SM OVC008 FM242000 31010KT
                       P6SM BKN040=
201505232320 TAF KCLM 232320Z 2400/2424 31010KT P6SM SCT015 BKN040 FM240900
                       28008KT P6SM OVC015 FM242000 31010KT P6SM
                       BKN040=
201505231720 TAF KCLM 231720Z 2318/2418 30005KT P6SM OVC008 FM232000 30008KT
                       P6SM OVC015 FM232200 30010KT P6SM BKN040
                       FM240100 28010G18KT P6SM SCT015 BKN040 FM240900
                       28008KT P6SM OVC015=
201505231120 TAF KCLM 231120Z 2312/2412 27005KT P6SM OVC009 FM231500 27005KT
                       P6SM OVC015 FM232100 32009KT P6SM OVC025
                       FM232300 30011G17KT P6SM OVC050 FM240300
                       28010G16KT P6SM OVC015 FM240600 28008KT
                       P6SM OVC015=
201505230520 TAF KCLM 230520Z 2306/2406 28007KT P6SM OVC010 FM231100 28007KT
                       P6SM OVC003 FM231500 30007KT P6SM OVC007
                       FM232000 31010KT P6SM OVC015 FM240000 30015KT
                       P6SM OVC015=
201505222329 TAF KCLM 222329Z 2300/2324 29009KT P6SM VCSH BKN015 BKN110 OVC250
                       TEMPO 2300/2303 -SHRA FM230300 28009KT P6SM
                       VCSH OVC009 FM231800 32006KT P6SM OVC020
                       FM232100 32008KT P6SM VCSH SCT030 BKN110
                       BKN250
                      TEMPO 2321/2324 BKN030 BKN110 BKN250=
201505222223 TAF AMD KCLM 222223Z 2222/2318 31009KT P6SM VCSH OVC008
                      TEMPO 2222/2301 -SHRA FM230100 28009KT P6SM
                       VCSH OVC008 FM230600 28006KT P6SM OVC011=
201505222018 TAF AMD KCLM 222018Z 2220/2318 31011KT P6SM -SHRA OVC009 FM222200
                       31011KT P6SM -SHRA OVC012 FM230100 28011KT
                       P6SM VCSH BKN022 OVC060 FM230600 28006KT
                       P6SM OVC011=
201505221738 TAF KCLM 221738Z 2218/2318 31007KT P6SM VCSH OVC009 FM222000 31011KT
                       P6SM -SHRA VCTS BKN015 BKN060CB BKN110 FM222200
                       31011KT P6SM -SHRA VCTS SCT028 BKN060CB
                       BKN110 FM230100 28011KT P6SM VCSH SCT028
                       BKN060 BKN110 FM230600 28008KT P6SM OVC022
                       FM231200 28005KT P6SM OVC011=
201505221436 TAF AMD KCLM 221436Z 2215/2312 29008KT P6SM VCSH OVC009 FM221800
                       32008KT P6SM VCSH OVC015 FM222000 32008KT
                       P6SM VCSH BKN025 BKN050 BKN130 FM222200
                       28008KT P6SM VCSH SCT025 SCT050 BKN130 FM230500
                       28012KT P6SM OVC006=
201505221130 TAF KCLM 221130Z 2212/2312 28008KT P6SM OVC006 FM221700 28008KT
                       P6SM OVC011 FM222000 28008KT P6SM SCT012
                       OVC022 FM222200 28008KT P6SM SCT025 BKN045
                       FM230500 28012KT P6SM OVC006=
201505220528 TAF KCLM 220528Z 2206/2306 28008KT P6SM OVC003 FM221700 28008KT
                       P6SM OVC006 FM222000 28008KT P6SM BKN015
                       BKN030 FM222200 28008KT P6SM SCT025 BKN045=
201505220445 TAF AMD KCLM 220445Z 2205/2224 28012KT P6SM BKN003 BKN120 FM220900
                       28008KT P6SM OVC003 FM221700 28008KT P6SM
                       OVC006 FM222000 28008KT P6SM BKN015 BKN030=
201505212329 TAF KCLM 212329Z 2200/2224 28012KT P6SM VCTS FEW050CB SCT110 OVC250
                       FM220600 28009KT P6SM SCT025 SCT110 BKN250
                       FM221000 28009KT P6SM OVC020 FM221200 28007KT
                       P6SM OVC011 FM221800 31010KT P6SM BKN020
                       BKN110 BKN250 FM222000 31010KT P6SM FEW030
                       SCT110 BKN250=
201505211804 TAF AMD KCLM 211804Z 2118/2218 35006KT P6SM FEW050 FEW110 BKN250
                       FM212100 32008KT P6SM VCTS FEW050CB SCT110
                       BKN250 FM220100 28012KT P6SM VCTS FEW050CB
                       BKN110 BKN250 FM220600 28009KT P6SM FEW025
                       BKN110 BKN250 FM220900 28009KT P6SM OVC020
                       PROB30 2209/2212 -SHRA FM221200 28007KT
                       P6SM OVC011=
201505211741 TAF KCLM 211741Z 2118/2218 VRB03KT P6SM SCT250 FM212200 30008KT
                       P6SM VCTS FEW050CB BKN250 FM220400 28008KT
                       P6SM SCT250 FM220600 28008KT P6SM OVC004=
201505211414 TAF AMD KCLM 211414Z 2114/2212 VRB03KT 1/4SM FG VV002 FM211600
                       VRB03KT 3SM BR SCT003 SCT250 FM211700 VRB03KT
                       P6SM SCT250 FM212200 30008KT P6SM VCTS FEW050CB
                       BKN250 FM220400 28008KT P6SM SCT250 FM220600
                       28008KT P6SM OVC004=
201505211138 TAF KCLM 211138Z 2112/2212 VRB03KT 1/4SM FG OVC001 FM211500 VRB03KT
                       2SM BR OVC002 FM211600 VRB03KT P6SM SCT250
                       FM212200 30008KT P6SM VCTS FEW050CB BKN250
                       FM220400 28008KT P6SM SCT250 FM220600 28008KT
                       P6SM OVC004=
201505210525 TAF KCLM 210525Z 2106/2206 28006KT 5SM BR BKN001
                      TEMPO 2106/2108 1SM BR FM210800 VRB03KT 1/2SM
                       FG OVC001 FM211500 VRB03KT 4SM BR OVC002
                       FM211600 VRB03KT P6SM SCT250 FM212200 33008KT
                       P6SM VCTS FEW050CB BKN250=
201505210506 TAF AMD KCLM 210506Z 2105/2124 28006KT 5SM BR BKN001
                      TEMPO 2105/2108 1SM BR FM210800 VRB03KT 1/2SM
                       FG OVC001 FM211500 VRB03KT 4SM BR OVC002
                       FM211600 VRB03KT P6SM VCFG FEW002 SCT250
                       FM211800 33008KT P6SM VCTS FEW050CB BKN250=
201505202320 TAF KCLM 202320Z 2100/2124 28006KT P6SM VCSH FEW050 BKN250 FM210300
                       28006KT P6SM BKN250 FM210600 VRB03KT P6SM
                       SCT250 FM211200 VRB03KT P6SM VCFG FEW002
                       SCT250 FM211800 33008KT P6SM VCTS FEW050CB
                       BKN250=
201505201741 TAF KCLM 201741Z 2018/2118 35007KT P6SM VCFG FEW009 FM201900 35007KT
                       P6SM SCT250 FM210200 28007KT P6SM SCT250
                       FM210600 VRB03KT P6SM SKC FM211200 VRB03KT
                       P6SM VCFG SKC=
201505201529 TAF AMD KCLM 201529Z 2015/2112 31006KT P6SM OVC003
                      TEMPO 2015/2017 2SM BR FM201800 29008KT P6SM
                       SCT250=
201505201409 TAF AMD KCLM 201409Z 2014/2112 29005KT 1/4SM FG VV002 FM201600
                       26006KT 2SM BR OVC004 FM201800 29008KT P6SM
                       SCT250=
201505201300 TAF AMD KCLM 201300Z 2013/2112 29005KT 3SM BR OVC002
                      TEMPO 2013/2015 3/4SM BR FM201600 26006KT
                       P6SM BKN006 FM201800 29008KT P6SM SCT250=
201505201130 TAF KCLM 201130Z 2012/2112 29008KT 3SM BR OVC002 FM201600 26006KT
                       P6SM BKN006 FM201800 29008KT P6SM SCT250=
201505200530 TAF KCLM 200530Z 2006/2106 29008KT P6SM OVC003
                      TEMPO 2008/2012 3SM BR FM201600 26006KT P6SM
                       BKN006 FM201800 29008KT P6SM SCT250=
201505192342 TAF KCLM 192342Z 2000/2024 29009KT P6SM VCSH FEW050 SCT120 BKN250
                       FM200600 27006KT 2SM BR SCT004 SCT250
                      TEMPO 2006/2008 3/4SM BR BKN004 FM200800
                       27006KT 1/2SM FG VV002 FM201500 30006KT
                       4SM BR BKN005 FM201800 33008KT P6SM FEW050
                       SCT250=
201505191905 TAF AMD KCLM 191905Z 1919/2018 32009KT P6SM SCT009
                      TEMPO 1919/1920 BKN009 FM192000 32009KT P6SM
                       FEW050 SCT250 FM200000 29009KT P6SM FEW050
                       SCT120 BKN250 FM200600 27007KT P6SM SCT120
                       BKN250 FM200900 27005KT 1/2SM FG VV002=
201505191740 TAF KCLM 191740Z 1918/2018 32009KT P6SM BKN006 FM191900 32009KT
                       P6SM FEW011 FEW050 FM192000 32009KT P6SM
                       FEW050 SCT250 FM200000 29009KT P6SM FEW050
                       SCT120 BKN250 FM200600 27007KT P6SM SCT120
                       BKN250 FM200900 27005KT 1/2SM FG VV002=
201505191623 TAF AMD KCLM 191623Z 1916/2012 32008KT P6SM OVC004 FM191800 32010KT
                       P6SM SCT250 FM200000 29008KT P6SM SCT250
                       FM201100 29008KT 1SM BR BKN001=
201505191508 TAF AMD KCLM 191508Z 1915/2012 32008KT 4SM BR BKN003 FM191700 32010KT
                       P6SM SCT250 FM200000 29008KT P6SM SCT250
                       FM201100 29008KT 1SM BR BKN001=
201505191415 TAF AMD KCLM 191415Z 1914/2012 32008KT 1/2SM FG VV002 FM191700
                       32010KT P6SM SCT250 FM200000 29008KT P6SM
                       SCT250 FM201100 29008KT 1SM BR BKN001=
201505191126 TAF KCLM 191126Z 1912/2012 30006KT 1/2SM FG OVC001 FM191600 VRB03KT
                       1SM BR BKN002 FM191700 VRB03KT P6SM SCT250
                       FM192200 29008KT P6SM SCT250 FM201100 29008KT
                       1SM BR BKN001=
201505190526 TAF KCLM 190526Z 1906/2006 30008KT 1SM BR BKN001
                      TEMPO 1906/1910 5SM BR SCT001 FM191600 VRB03KT
                       P6SM SCT250 FM192200 29008KT P6SM SCT250=
201505182321 TAF KCLM 182321Z 1900/1924 29007KT P6SM VCTS SCT050CB SCT100 OVC250
                       FM190400 29007KT P6SM SCT100 BKN250 FM190700
                       27005KT P6SM SCT250 FM191800 33009KT P6SM
                       FEW050 SCT250=
201505182159 TAF AMD KCLM 182159Z 1822/1918 02005KT P6SM VCTS SCT050CB FM190100
                       29009KT P6SM SCT050 SCT100 FM190900 26005KT
                       P6SM FEW100=
201505181745 TAF KCLM 181745Z 1818/1918 34006KT P6SM SCT050 SCT100 FM190100
                       29009KT P6SM SCT050 SCT100 FM190900 26005KT
                       P6SM FEW100=
201505181452 TAF AMD KCLM 181452Z 1815/1912 VRB03KT P6SM SCT090 FM181800 VRB04KT
                       P6SM SCT120 BKN250 FM190200 29009KT P6SM
                       SCT120 BKN250=
201505181125 TAF KCLM 181125Z 1812/1912 26004KT P6SM FEW090 FEW120 FM181800
                       VRB04KT P6SM SCT120 BKN250 FM190200 29009KT
                       P6SM SCT120 BKN250=
201505180535 TAF KCLM 180535Z 1806/1906 28007KT P6SM SCT110 BKN250 FM181800
                       31007KT P6SM SCT120 BKN250=
201505172335 TAF KCLM 172335Z 1800/1824 30008KT P6SM SCT030 FM180600 28005KT
                       P6SM SCT080 FM181800 31007KT P6SM SCT120=
201505171723 TAF KCLM 171723Z 1718/1818 31006KT P6SM OVC018 FM172000 30005KT
                       P6SM SCT025 BKN035 FM172200 VRB06KT P6SM
                       SCT040 BKN120 FM180200 28005KT P6SM SCT100
                       BKN250=
201505171120 TAF KCLM 171120Z 1712/1812 26003KT P6SM OVC018 FM172000 30005KT
                       P6SM SCT025 BKN035 FM172200 VRB06KT P6SM
                       SCT040 BKN120 FM180200 28005KT P6SM SCT100
                       BKN250=
201505170520 TAF KCLM 170520Z 1706/1806 27006KT P6SM OVC013 FM171200 28006KT
                       P6SM OVC018 FM172000 30005KT P6SM SCT025
                       BKN035 FM172200 VRB06KT P6SM SCT040 BKN120=
201505162320 TAF KCLM 162320Z 1700/1724 31012KT P6SM BKN080 FM170600 30007KT
                       P6SM BKN020 BKN030 FM171200 28006KT P6SM
                       OVC018 FM172000 30005KT P6SM SCT025 BKN035=
201505161728 TAF KCLM 161728Z 1618/1718 30008KT P6SM BKN013 OVC030 FM162000
                       30008KT P6SM BKN030 FM170000 31010KT P6SM
                       BKN050 FM170800 30006KT P6SM OVC013=
201505161313 TAF AMD KCLM 161313Z 1613/1712 29006KT P6SM SCT010 OVC080
                      TEMPO 1613/1617 BKN010 OVC080 FM161700 30005KT
                       P6SM BKN025 FM170000 31010KT P6SM BKN050
                       FM170800 30006KT P6SM OVC013=
201505161120 TAF KCLM 161120Z 1612/1712 29007KT P6SM BKN010 BKN019 OVC080
                      TEMPO 1613/1617 OVC009 FM161800 30005KT P6SM
                       BKN025 FM170000 31010KT P6SM BKN050 FM170800
                       30006KT P6SM OVC013=
201505160520 TAF KCLM 160520Z 1606/1706 29010KT P6SM BKN070 FM161800 30005KT
                       P6SM BKN025 FM170000 31008KT P6SM BKN050=
201505152320 TAF KCLM 152320Z 1600/1624 30009G15KT P6SM SCT250 FM160300 30013G19KT
                       P6SM BKN050 FM160600 29009G16KT P6SM OVC006
                       FM161800 30005KT P6SM BKN025=
201505151722 TAF KCLM 151722Z 1518/1618 30010KT P6SM BKN008 FM152000 33010KT
                       P6SM SCT020 BKN100 FM152200 30009G15KT P6SM
                       SCT250 FM160100 30013G19KT P6SM BKN050 FM160600
                       29009G16KT P6SM OVC007=
201505151120 TAF KCLM 151120Z 1512/1612 30006KT P6SM SCT004
                      TEMPO 1512/1516 OVC004 FM151800 32008KT P6SM
                       SCT008 OVC015 FM152000 33008KT P6SM SCT020
                       BKN100 FM152200 30009G15KT P6SM SCT250 FM160100
                       30013G19KT P6SM BKN050 FM160600 29009G16KT
                       P6SM OVC007=
201505150905 TAF AMD KCLM 150905Z 1509/1606 29007KT P6SM BKN003
                      TEMPO 1514/1518 SCT003 BKN030 FM151800 30010KT
                       P6SM SCT030=
201505150530 TAF KCLM 150530Z 1506/1606 29003KT P6SM SKC
                      TEMPO 1512/1516 SCT010 BKN030 FM151900 30010KT
                       P6SM SCT030=
201505142320 TAF KCLM 142320Z 1500/1524 01005KT P6SM SCT030 FM150300 30008KT
                       P6SM SCT030
                      TEMPO 1512/1516 SCT010 BKN030 FM151900 30010KT
                       P6SM SCT030=
201505141720 TAF KCLM 141720Z 1418/1518 26005KT P6SM BKN030 BKN050 FM142200
                       20008KT P6SM SCT050 BKN100 FM150400 29006KT
                       P6SM SCT250=
201505141120 TAF KCLM 141120Z 1412/1512 25004KT P6SM BKN060 OVC070 FM141800
                       19008KT P6SM SCT030 BKN050 FM150000 20008KT
                       P6SM SCT050 BKN100 FM150400 29006KT P6SM
                       SCT250=
201505140525 TAF KCLM 140525Z 1406/1506 28007KT P6SM OVC027 FM141800 19008KT
                       P6SM SCT030 BKN050 FM150000 20008KT P6SM
                       SCT050 BKN100=
201505132320 TAF KCLM 132320Z 1400/1424 30006KT P6SM VCSH OVC022 FM140300 30008KT
                       P6SM BKN025 OVC050 FM141300 28004KT P6SM
                       FEW030 SCT080 FM141800 31007KT P6SM FEW010
                       FEW080=
201505131731 TAF KCLM 131731Z 1318/1418 30006KT P6SM -SHRA SCT010 OVC035 FM132000
                       31006KT P6SM -SHRA OVC020 FM140300 29008KT
                       P6SM BKN025 OVC050 FM140800 28004KT P6SM
                       SCT030 OVC080 FM141500 28004KT P6SM FEW030
                       SCT080=
201505131120 TAF KCLM 131120Z 1312/1412 27006KT P6SM OVC015 FM132000 31006KT
                       P6SM -SHRA OVC020 FM140300 29008KT P6SM
                       BKN025 OVC050 FM140800 26004KT P6SM SCT030
                       OVC080=
201505130521 TAF KCLM 130521Z 1306/1406 26004KT P6SM OVC060 FM131000 24004KT
                       P6SM BKN020 OVC050 FM132000 31006KT P6SM
                       -SHRA OVC020=
201505130118 TAF AMD KCLM 130118Z 1301/1324 28005KT P6SM VCSH BKN050 OVC130
                       FM130600 28007KT P6SM BKN020 OVC050 FM131900
                       VRB04KT P6SM SCT025 BKN050=
201505122320 TAF KCLM 122320Z 1300/1324 28007KT P6SM SCT025 BKN050 FM130600
                       28007KT P6SM BKN020 OVC050 FM131900 VRB04KT
                       P6SM SCT025 BKN050=
201505121909 TAF AMD KCLM 121909Z 1219/1318 36006KT P6SM SCT025 BKN050 FM130600
                       27007KT P6SM BKN020 OVC050=
201505121720 TAF KCLM 121720Z 1218/1318 VRB04KT P6SM OVC025 FM122200 27007KT
                       P6SM SCT025 BKN050 FM130600 27007KT P6SM
                       BKN020 OVC050=
201505121604 TAF AMD KCLM 121604Z 1216/1312 30004KT P6SM BKN022 OVC045 FM130100
                       29008KT P6SM SCT020 BKN050 FM130600 27006KT
                       P6SM BKN020 OVC050=
201505121503 TAF AMD KCLM 121503Z 1215/1312 30004KT P6SM OVC045 FM130100 29008KT
                       P6SM SCT020 BKN050 FM130600 27006KT P6SM
                       BKN020 OVC050=
201505121120 TAF KCLM 121120Z 1212/1312 27003KT P6SM OVC050 FM121500 26003KT
                       P6SM BKN025 OVC050 FM122000 33005KT P6SM
                       SCT030 OVC060 FM130100 29008KT P6SM FEW030
                       BKN080 FM130600 27006KT P6SM BKN020 OVC050=
201505120522 TAF KCLM 120522Z 1206/1306 28005KT P6SM OVC060 FM121000 25004KT
                       P6SM BKN025 OVC050 FM122000 33005KT P6SM
                       SCT030 BKN060 FM130100 29008KT P6SM FEW030
                       BKN080=
201505112320 TAF KCLM 112320Z 1200/1224 32008KT P6SM SCT030 OVC045 FM120600
                       28008KT P6SM BKN030 OVC045=
201505111720 TAF KCLM 111720Z 1118/1218 28008KT P6SM SCT030 OVC045 FM120600
                       28008KT P6SM BKN030 OVC045=
201505111120 TAF KCLM 111120Z 1112/1212 28006KT P6SM BKN060 OVC100 FM111600
                       31005KT P6SM BKN020 OVC050 FM112100 33007KT
                       P6SM SCT025 OVC060 FM120100 29010KT P6SM
                       SCT030 OVC060=
201505111027 TAF AMD KCLM 111027Z 1110/1206 27006KT P6SM BKN070 OVC100 FM111300
                       27008KT P6SM BKN015 OVC050 FM111900 27006KT
                       P6SM SCT020 OVC035=
201505110520 TAF KCLM 110520Z 1106/1206 29004KT P6SM FEW015 SCT100 OVC250
                      TEMPO 1106/1109 BKN015 OVC100 FM110900 27008KT
                       P6SM BKN015 OVC050 FM111900 27006KT P6SM
                       SCT020 OVC035=
201505110120 TAF AMD KCLM 110120Z 1101/1124 29012G22KT P6SM SCT015 SCT110 OVC200
                       TEMPO 1101/1105 BKN015 BKN110 OVC200 FM110500
                       28010KT P6SM OVC015 FM110900 27008KT P6SM
                       VCSH BKN010 OVC050 FM111900 27006KT P6SM
                       VCSH SCT020 OVC035=
201505110102 TAF AMD KCLM 110102Z 1101/1124 30012G22KT P6SM FEW015 SCT110 OVC200
                       FM110300 28012G20KT P6SM SCT015 BKN110 OVC200
                       FM110600 28010KT P6SM OVC015 FM110900 27008KT
                       P6SM VCSH BKN010 OVC050 FM111900 27006KT
                       P6SM VCSH SCT020 OVC035=
201505102326 TAF KCLM 102326Z 1100/1124 28012G20KT P6SM OVC120 FM110600 28010KT
                       P6SM OVC050 FM110900 27008KT P6SM VCSH BKN010
                       OVC050 FM111900 27006KT P6SM VCSH SCT020
                       OVC035=
201505101734 TAF KCLM 101734Z 1018/1118 30007KT P6SM SCT120 BKN200 FM110100
                       29013G20KT P6SM SCT050 OVC120 FM110500 28010KT
                       P6SM OVC050 FM110900 27008KT P6SM VCSH BKN010
                       OVC050=
201505101121 TAF KCLM 101121Z 1012/1112 29006KT P6SM BKN250 FM102000 32010G16KT
                       P6SM BKN200 FM110100 29013G20KT P6SM SCT050
                       BKN200 FM110500 28010KT P6SM BKN050 OVC200
                       FM110900 27008KT P6SM BKN010 OVC050=
201505100523 TAF KCLM 100523Z 1006/1106 27006KT P6SM BKN250 FM102000 32010G16KT
                       P6SM BKN200 FM110100 29013G20KT P6SM SCT050
                       BKN200 FM110500 28010KT P6SM BKN020 OVC050=
201505092329 TAF KCLM 092329Z 1000/1024 30005KT P6SM BKN250 FM102000 32010G16KT
                       P6SM OVC200=
201505091757 TAF KCLM 091757Z 0918/1018 36005KT P6SM SCT250 FM100100 29008KT
                       P6SM BKN250=
201505091120 TAF KCLM 091120Z 0912/1012 24008KT P6SM FEW250 FM091800 36005KT
                       P6SM BKN250 FM100100 29008KT P6SM BKN250=
201505090526 TAF KCLM 090526Z 0906/1006 24005KT P6SM FEW250 FM091800 36005KT
                       P6SM SCT250 FM100100 29008KT P6SM SCT250=
201505082325 TAF KCLM 082325Z 0900/0924 03006KT P6SM SKC FM090200 27005KT P6SM
                       SKC=
201505081726 TAF KCLM 081726Z 0818/0918 09006KT P6SM SKC FM090000 27004KT P6SM
                       SKC=
201505081120 TAF KCLM 081120Z 0812/0912 VRB03KT P6SM SKC=
201505080520 TAF KCLM 080520Z 0806/0906 25005KT P6SM SKC FM081900 32007KT P6SM
                       SKC=
201505072320 TAF KCLM 072320Z 0800/0824 06004KT P6SM SKC FM080200 28005KT P6SM
                       SKC FM080700 25004KT P6SM SKC FM081900 32005KT
                       P6SM SKC=
201505071720 TAF KCLM 071720Z 0718/0818 09005KT P6SM SKC FM080000 32007KT P6SM
                       SKC FM080700 25004KT P6SM SKC=
201505071121 TAF KCLM 071121Z 0712/0812 26008KT P6SM SKC FM071900 VRB03KT P6SM
                       SKC FM080200 29008KT P6SM SKC=
201505070530 TAF KCLM 070530Z 0706/0806 27006KT P6SM SKC FM071900 05004KT P6SM
                       SKC FM080200 28008KT P6SM SKC=
201505062320 TAF KCLM 062320Z 0700/0724 28008KT P6SM SKC FM070700 25004KT P6SM
                       SKC FM071900 05004KT P6SM SKC=
201505061720 TAF KCLM 061720Z 0618/0718 30003KT P6SM OVC070 FM062000 30008KT
                       P6SM BKN050 FM070300 28008KT P6SM SCT050
                       FM070700 25004KT P6SM SKC=
201505061120 TAF KCLM 061120Z 0612/0712 25010KT P6SM SCT050 FM062000 30008KT
                       P6SM BKN050 FM070300 30006KT P6SM SKC=
201505060520 TAF KCLM 060520Z 0606/0706 24006KT P6SM SCT050 FM062000 33007KT
                       P6SM BKN050 FM070300 04004KT P6SM SKC=
201505060206 TAF AMD KCLM 060206Z 0602/0624 27007KT P6SM -SHRA SCT025 BKN050
                       BKN100 FM060600 VRB04KT P6SM SCT030 BKN050
                       FM061900 33006KT P6SM SCT050=
201505052320 TAF KCLM 052320Z 0600/0624 32010G19KT P6SM VCSH SCT040 BKN070 FM060500
                       25005KT P6SM SCT030 SCT050 FM061900 33006KT
                       P6SM SCT050=
201505051733 TAF KCLM 051733Z 0518/0618 25008KT P6SM VCSH SCT050 FM052000 30009KT
                       P6SM VCSH SCT030 BKN050 FM060500 25005KT
                       P6SM SCT030 SCT050=
201505051120 TAF KCLM 051120Z 0512/0612 VRB04KT P6SM VCSH SCT025 BKN050 FM052200
                       27007KT P6SM VCSH SCT030 BKN050 FM061100
                       VRB03KT P6SM BKN025 BKN050=
201505050520 TAF KCLM 050520Z 0506/0606 VRB04KT P6SM SCT050
                      TEMPO 0506/0510 -SHRA BKN040 FM052000 30008KT
                       P6SM VCSH SCT035 BKN050=
201505042321 TAF KCLM 042321Z 0500/0524 VRB03KT P6SM VCSH BKN050 FM050200 27009KT
                       P6SM -SHRA BKN035 FM050700 24004KT P6SM
                       VCSH BKN035 FM052000 30008KT P6SM VCSH SCT035
                       BKN050=
201505042245 TAF AMD KCLM 042245Z 0423/0518 33007KT P6SM VCSH BKN050 BKN080
                       FM050700 24004KT P6SM -SHRA BKN035=
201505041720 TAF KCLM 041720Z 0418/0518 29005G14KT P6SM OVC022 FM042000 28012KT
                       P6SM SCT025 BKN040 FM050700 24004KT P6SM
                       -SHRA BKN035=
201505041454 TAF AMD KCLM 041454Z 0415/0512 25007KT P6SM OVC015 FM041800 28012KT
                       P6SM SCT020 SCT250 FM042000 28012KT P6SM
                       BKN040 FM050200 28010KT P6SM VCSH SCT020
                       BKN040 FM050900 28008KT P6SM VCSH BKN020
                       OVC040=
201505041120 TAF KCLM 041120Z 0412/0512 28008KT P6SM SKC FM041400 28010KT P6SM
                       SCT015 SCT250 FM041800 28012KT P6SM SCT030
                       SCT250 FM042000 28012KT P6SM BKN040 FM050200
                       28010KT P6SM VCSH SCT020 BKN040 FM050900
                       28008KT P6SM VCSH BKN020 OVC040=
201505040520 TAF KCLM 040520Z 0406/0506 00000KT P6SM SKC FM041800 32009KT P6SM
                       BKN250 FM042100 32013G23KT P6SM SCT080 SCT250=
201505032341 TAF KCLM 032341Z 0400/0424 31006KT P6SM SKC FM040200 27006KT P6SM
                       SKC FM041800 32009KT P6SM BKN250 FM042100
                       32013G23KT P6SM SCT080 SCT250=
201505031743 TAF KCLM 031743Z 0318/0418 07006KT P6SM SKC FM032100 02006KT P6SM
                       SKC FM040000 33006KT P6SM SKC FM040600 27006KT
                       P6SM SKC=
201505031502 TAF AMD KCLM 031502Z 0315/0412 10007KT P6SM SKC FM031800 02006KT
                       P6SM SCT250 FM040200 28007KT P6SM BKN200=
201505031120 TAF KCLM 031120Z 0312/0412 24006KT P6SM SKC FM031700 02006KT P6SM
                       SCT250 FM040200 28007KT P6SM BKN200=
201505030524 TAF KCLM 030524Z 0306/0406 24005KT P6SM SKC FM031600 02006KT P6SM
                       SKC FM040200 29007KT P6SM SKC=
201505022346 TAF KCLM 022346Z 0300/0324 VRB05KT P6SM FEW250 FM031800 35007KT
                       P6SM SKC=
201505022106 TAF AMD KCLM 022106Z 0221/0318 06007KT P6SM SKC FM030000 02005KT
                       P6SM SKC FM030200 31007KT P6SM SKC FM030600
                       24005KT P6SM SCT250=
201505021742 TAF KCLM 021742Z 0218/0318 02007KT P6SM SKC FM022300 33007KT P6SM
                       SKC FM030100 29009KT P6SM SKC FM030600 24005KT
                       P6SM SCT250=
201505021120 TAF KCLM 021120Z 0212/0312 25005KT P6SM BKN045 FM021600 36010KT
                       P6SM FEW200 FM030300 27005KT P6SM SKC=
201505020529 TAF KCLM 020529Z 0206/0306 27010KT P6SM BKN200 FM021800 02006KT
                       P6SM SCT200 FM022100 33008KT P6SM SKC=
201505012322 TAF KCLM 012322Z 0200/0224 28013KT P6SM SCT040 BKN200
                      TEMPO 0200/0202 28013G20KT BKN040 BKN200
                       FM020600 27010KT P6SM FEW025 FM021200 25005KT
                       P6SM BKN011 FM021800 02006KT P6SM SCT022
                       FM022100 33007KT P6SM SKC=
201505012302 TAF AMD KCLM 012302Z 0123/0218 32013KT P6SM BKN035 FM020100 29013KT
                       P6SM SCT035 FM020600 27010KT P6SM FEW025
                       FM021200 25006KT P6SM BKN012=
201505012015 TAF AMD KCLM 012015Z 0120/0218 32013G22KT P6SM SCT028
                      TEMPO 0120/0124 BKN028 FM020100 29013G20KT
                       P6SM SCT035 FM020600 27010KT P6SM FEW025
                       FM021200 25006KT P6SM BKN012=
201505011725 TAF KCLM 011725Z 0118/0218 32013KT P6SM BKN030 FM012000 32013KT
                       P6SM SCT040
                      TEMPO 0120/0124 32013G20KT BKN040 FM020100
                       29013G20KT P6SM SCT050 FM020600 27010KT
                       P6SM FEW025 FM021200 25006KT P6SM BKN012=
201505011622 TAF AMD KCLM 011622Z 0116/0212 28006KT P6SM BKN028 FM011800 32006KT
                       P6SM SCT030 BKN050 BKN100 FM012100 31010G18KT
                       P6SM BKN100 FM020200 29015G25KT P6SM SCT200=
201505011415 TAF AMD KCLM 011415Z 0114/0212 25006KT P6SM SCT010 SCT120
                      TEMPO 0114/0118 BKN010 BKN120 FM011800 32006KT
                       P6SM BKN050 BKN100 FM012100 31010G18KT P6SM
                       BKN100 FM020200 29015G25KT P6SM SCT200=
201505011120 TAF KCLM 011120Z 0112/0212 25004KT P6SM BKN200 FM011700 32006KT
                       P6SM BKN050 BKN100 FM012100 31010G18KT P6SM
                       BKN100 FM020200 29015G25KT P6SM SCT200=
201505010538 TAF KCLM 010538Z 0106/0206 25005KT P6SM BKN035 OVC050 FM011200
                       25004KT P6SM OVC025 FM011600 27008KT P6SM
                       SCT025 BKN200 FM012100 31010G18KT P6SM BKN200
                       FM020200 29015G25KT P6SM SCT200=