##########################################################
# Query made at 02/16/2025 02:59:53 UTC
# Time interval: from 09/01/2015 00:00  to 09/30/2015 23:59  UTC
##########################################################

##########################################################
# KCLM, Port Angeles, William R. Fairchild International Airport (United States)
# WMO index: -----. WIGOS ID: Unknown
# Latitude 48-07-20N. Longitude 123-30-19W. Altitude 87 m.
##########################################################

###################################
#  METAR/SPECI from KCLM
###################################
201509302353 METAR KCLM 302353Z AUTO 30008KT 10SM CLR 16/09 A3000 RMK AO2 SLP159 T01560094 10167 20144 58002=
201509302253 METAR KCLM 302253Z AUTO 31008KT 10SM CLR 16/10 A3000 RMK AO2 SLP159 T01560100=
201509302153 METAR KCLM 302153Z AUTO 31007KT 10SM CLR 16/09 A3000 RMK AO2 SLP160 T01560094=
201509302053 METAR KCLM 302053Z AUTO 32007KT 10SM CLR 16/10 A3000 RMK AO2 SLP160 T01560100 56008=
201509301953 METAR KCLM 301953Z AUTO 01007KT 10SM CLR 15/10 A3001 RMK AO2 SLP162 T01500100=
201509301853 METAR KCLM 301853Z AUTO VRB05KT 10SM CLR 15/10 A3002 RMK AO2 SLP165 T01500100=
201509301753 METAR KCLM 301753Z AUTO 34005KT 10SM CLR 14/10 A3003 RMK AO2 SLP169 T01440100 10144 20061 53005=
201509301653 METAR KCLM 301653Z AUTO 29004KT 10SM CLR 13/10 A3002 RMK AO2 SLP166 T01330100=
201509301553 METAR KCLM 301553Z AUTO 26004KT 10SM CLR 12/08 A3001 RMK AO2 SLP163 T01220078=
201509301453 METAR KCLM 301453Z AUTO 24003KT 10SM CLR 08/06 A3001 RMK AO2 SLP163 T00830061 53009=
201509301353 METAR KCLM 301353Z AUTO 24006KT 10SM CLR 07/06 A3000 RMK AO2 SLP160 T00720056=
201509301253 METAR KCLM 301253Z AUTO 25005KT 10SM CLR 08/06 A2999 RMK AO2 SLP155 T00830056=
201509301153 METAR KCLM 301153Z AUTO 00000KT 10SM CLR 08/06 A2998 RMK AO2 SLP153 T00780061 10117 20061 51007=
201509301053 METAR KCLM 301053Z AUTO 23004KT 10SM CLR 09/06 A2998 RMK AO2 SLP151 T00940061=
201509300953 METAR KCLM 300953Z AUTO 28004KT 10SM CLR 10/07 A2997 RMK AO2 SLP149 T01000067=
201509300853 METAR KCLM 300853Z AUTO 00000KT 10SM CLR 07/05 A2996 RMK AO2 SLP146 T00670050 51008=
201509300753 METAR KCLM 300753Z AUTO 00000KT 10SM CLR 07/06 A2996 RMK AO2 SLP145 T00720056 402000067=
201509300653 METAR KCLM 300653Z AUTO 23006KT 10SM CLR 11/07 A2995 RMK AO2 SLP141 T01110072=
201509300553 METAR KCLM 300553Z AUTO 00000KT 10SM CLR 09/07 A2994 RMK AO2 SLP138 T00940072 10194 20089 51008=
201509300453 METAR KCLM 300453Z AUTO 00000KT 10SM CLR 10/08 A2993 RMK AO2 SLP135 T01000083=
201509300400 METAR KCLM NIL=
201509300353 METAR KCLM 300353Z AUTO 00000KT 10SM CLR 12/09 A2992 RMK AO2 SLP134 T01170089=
201509300253 METAR KCLM 300253Z AUTO VRB03KT 10SM CLR 12/08 A2991 RMK AO2 SLP130 T01170083 55000=
201509300153 METAR KCLM 300153Z AUTO 16003KT 10SM CLR 16/07 A2991 RMK AO2 SLP129 T01610072=
201509300053 METAR KCLM 300053Z AUTO 00000KT 10SM CLR 19/07 A2991 RMK AO2 SLP127 T01890072=
201509292353 METAR KCLM 292353Z AUTO VRB03KT 10SM CLR 19/08 A2991 RMK AO2 SLP129 T01940078 10200 20156 56015=
201509292253 METAR KCLM 292253Z AUTO 08005KT 10SM CLR 19/08 A2992 RMK AO2 SLP132 T01940078=
201509292153 METAR KCLM 292153Z AUTO 02005KT 10SM CLR 19/08 A2994 RMK AO2 SLP138 T01940083=
201509292053 METAR KCLM 292053Z AUTO 09005KT 10SM CLR 18/08 A2996 RMK AO2 SLP145 T01830083 58007=
201509291953 METAR KCLM 291953Z AUTO 08006KT 10SM CLR 17/09 A2997 RMK AO2 SLP149 T01720094=
201509291853 METAR KCLM 291853Z AUTO 06006KT 10SM CLR 17/09 A2998 RMK AO2 SLP152 T01670094=
201509291753 METAR KCLM 291753Z AUTO VRB05KT 10SM CLR 16/10 A2998 RMK AO2 SLP152 T01610100 10167 20067 51003=
201509291653 METAR KCLM 291653Z AUTO 13003KT 10SM CLR 15/10 A2998 RMK AO2 SLP151 T01500100=
201509291553 METAR KCLM 291553Z AUTO 00000KT 10SM CLR 13/07 A2998 RMK AO2 SLP152 T01280067=
201509291453 METAR KCLM 291453Z AUTO 21004KT 10SM CLR 09/07 A2997 RMK AO2 SLP149 T00940072 51004=
201509291353 METAR KCLM 291353Z AUTO 19003KT 10SM CLR 07/05 A2997 RMK AO2 SLP150 T00720050=
201509291253 METAR KCLM 291253Z AUTO 00000KT 10SM CLR 07/05 A2996 RMK AO2 SLP147 T00720050=
201509291153 METAR KCLM 291153Z AUTO 21004KT 10SM CLR 09/05 A2996 RMK AO2 SLP145 T00890050 10117 20072 56002=
201509291053 METAR KCLM 291053Z AUTO 23006KT 10SM CLR 09/05 A2996 RMK AO2 SLP146 T00940050=
201509290953 METAR KCLM 290953Z AUTO 23007KT 10SM CLR 09/05 A2996 RMK AO2 SLP145 T00940050=
201509290853 METAR KCLM 290853Z AUTO 22006KT 10SM CLR 08/05 A2996 RMK AO2 SLP148 T00830050 58001=
201509290753 METAR KCLM 290753Z AUTO VRB03KT 10SM CLR 09/05 A2997 RMK AO2 SLP148 T00890050 401780061=
201509290653 METAR KCLM 290653Z AUTO 24008KT 10SM CLR 11/06 A2997 RMK AO2 SLP148 T01110056=
201509290553 METAR KCLM 290553Z AUTO 23005KT 10SM CLR 11/06 A2997 RMK AO2 SLP148 T01110056 10172 20094 50000=
201509290453 METAR KCLM 290453Z AUTO 23009KT 10SM CLR 12/06 A2997 RMK AO2 SLP149 T01170061=
201509290353 METAR KCLM 290353Z AUTO 20003KT 10SM CLR 10/07 A2997 RMK AO2 SLP150 T01000067=
201509290253 METAR KCLM 290253Z AUTO 19003KT 10SM CLR 12/07 A2997 RMK AO2 SLP149 T01170072 55007=
201509290153 METAR KCLM 290153Z AUTO 20006KT 10SM CLR 14/07 A2997 RMK AO2 SLP149 T01440072=
201509290053 METAR KCLM 290053Z AUTO 14006KT 10SM CLR 17/07 A2998 RMK AO2 SLP152 T01670067=
201509282353 METAR KCLM 282353Z AUTO 09005KT 10SM CLR 17/07 A2999 RMK AO2 SLP156 T01720067 10178 20144 56019=
201509282253 METAR KCLM 282253Z AUTO 11006KT 10SM CLR 17/07 A3000 RMK AO2 SLP160 T01720072=
201509282200 METAR KCLM NIL=
201509282153 METAR KCLM 282153Z AUTO 06005KT 10SM CLR 17/08 A3002 RMK AO2 SLP166 T01670078=
201509282053 METAR KCLM 282053Z AUTO 09006KT 10SM CLR 16/08 A3004 RMK AO2 SLP173 T01610078 58019=
201509281953 METAR KCLM 281953Z AUTO 10008KT 10SM CLR 16/09 A3007 RMK AO2 SLP183 T01560089=
201509281853 METAR KCLM 281853Z AUTO 09009KT 10SM CLR 15/09 A3009 RMK AO2 SLP189 T01500089=
201509281753 METAR KCLM 281753Z AUTO 11009KT 10SM CLR 15/09 A3010 RMK AO2 SLP194 T01500089 10150 20061 58003=
201509281653 METAR KCLM 281653Z AUTO 09009KT 10SM CLR 14/09 A3011 RMK AO2 SLP196 T01390089=
201509281553 METAR KCLM 281553Z AUTO 21004KT 10SM CLR 11/06 A3011 RMK AO2 SLP196 T01110056=
201509281453 METAR KCLM 281453Z AUTO 23006KT 10SM CLR 08/04 A3011 RMK AO2 SLP196 T00780039 53002=
201509281353 METAR KCLM 281353Z AUTO 22006KT 10SM CLR 08/04 A3011 RMK AO2 SLP196 T00780039=
201509281253 METAR KCLM 281253Z AUTO 23005KT 10SM CLR 07/03 A3010 RMK AO2 SLP195 T00720033 $=
201509281153 METAR KCLM 281153Z AUTO 21003KT 10SM CLR 07/03 A3010 RMK AO2 SLP195 T00720033 10094 20061 58005 $=
201509281053 METAR KCLM 281053Z AUTO 21006KT 10SM CLR 08/04 A3011 RMK AO2 SLP196 T00830039 $=
201509280953 METAR KCLM 280953Z AUTO 23007KT 10SM CLR 08/03 A3012 RMK AO2 SLP199 T00830028 $=
201509280853 METAR KCLM 280853Z AUTO 23008KT 10SM CLR 09/03 A3012 RMK AO2 SLP200 T00890028 55002 $=
201509280753 METAR KCLM 280753Z AUTO 23009KT 10SM CLR 09/03 A3012 RMK AO2 SLP199 T00890028 401670039 $=
201509280653 METAR KCLM 280653Z AUTO 24008KT CLR 09/03 A3012 RMK AO2 SLP200 T00890028 $=
201509280553 METAR KCLM 280553Z AUTO 22003KT CLR 07/03 A3013 RMK AO2 SLP202 T00720033 10161 20056 56001 $=
201509280453 METAR KCLM 280453Z AUTO 23005KT 10SM CLR 07/03 A3013 RMK AO2 SLP203 T00720033=
201509280353 METAR KCLM 280353Z AUTO 23006KT 10SM CLR 08/04 A3013 RMK AO2 SLP202 T00830044=
201509280253 METAR KCLM 280253Z AUTO 00000KT 10SM CLR 11/04 A3013 RMK AO2 SLP203 T01060039 55005=
201509280153 METAR KCLM 280153Z AUTO 00000KT 10SM CLR 14/03 A3013 RMK AO2 SLP202 T01390028=
201509280053 METAR KCLM 280053Z AUTO 13005KT 10SM CLR 16/06 A3014 RMK AO2 SLP206 T01560056=
201509272353 METAR KCLM 272353Z AUTO 08003KT 10SM CLR 16/06 A3015 RMK AO2 SLP209 T01610056 10167 20133 56018=
201509272253 METAR KCLM 272253Z AUTO 07004KT 10SM CLR 16/05 A3016 RMK AO2 SLP212 T01610050=
201509272153 METAR KCLM 272153Z AUTO 00000KT 10SM CLR 16/05 A3018 RMK AO2 SLP219 T01610050=
201509272053 METAR KCLM 272053Z AUTO 08005KT 10SM CLR 14/06 A3020 RMK AO2 SLP228 T01440061 58014=
201509271953 METAR KCLM 271953Z AUTO 11007KT 10SM CLR 14/06 A3022 RMK AO2 SLP235 T01390061=
201509271853 METAR KCLM 271853Z AUTO 08007KT 10SM CLR 14/06 A3023 RMK AO2 SLP239 T01390056=
201509271753 METAR KCLM 271753Z AUTO 11007KT 10SM CLR 14/06 A3024 RMK AO2 SLP242 T01390056 10139 20039 51007=
201509271653 METAR KCLM 271653Z AUTO 10005KT 10SM CLR 13/04 A3023 RMK AO2 SLP239 T01280044=
201509271553 METAR KCLM 271553Z AUTO 09004KT 10SM CLR 12/05 A3023 RMK AO2 SLP238 T01220050=
201509271453 METAR KCLM 271453Z AUTO 21003KT 10SM CLR 06/04 A3022 RMK AO2 SLP236 T00560039 52004=
201509271353 METAR KCLM 271353Z AUTO 22005KT 10SM CLR 05/03 A3022 RMK AO2 SLP234 T00500028=
201509271253 METAR KCLM 271253Z AUTO 23006KT 10SM CLR 06/03 A3021 RMK AO2 SLP231 T00610033=
201509271153 METAR KCLM 271153Z AUTO 22005KT 10SM CLR 06/03 A3021 RMK AO2 SLP230 T00610033 10106 20044 58001=
201509271053 METAR KCLM 271053Z AUTO 22005KT 10SM CLR 06/03 A3022 RMK AO2 SLP233 T00560033=
201509270953 METAR KCLM 270953Z AUTO 23004KT 10SM CLR 05/03 A3021 RMK AO2 SLP232 T00500033=
201509270853 METAR KCLM 270853Z AUTO 24009KT 10SM CLR 08/04 A3021 RMK AO2 SLP232 T00780039 56002=
201509270753 METAR KCLM 270753Z AUTO 25009KT 10SM CLR 08/04 A3021 RMK AO2 SLP232 T00830044 401500083=
201509270653 METAR KCLM 270653Z AUTO 26009KT 10SM CLR 09/05 A3022 RMK AO2 SLP233 T00940050=
201509270553 METAR KCLM 270553Z AUTO 26009KT 10SM CLR 10/06 A3022 RMK AO2 SLP234 T01000056 10144 20083 52002=
201509270453 METAR KCLM 270453Z AUTO 27010KT 10SM CLR 10/07 A3022 RMK AO2 SLP233 T01000067=
201509270353 METAR KCLM 270353Z AUTO 24007KT 10SM CLR 09/07 A3021 RMK AO2 SLP232 T00940072=
201509270253 METAR KCLM 270253Z AUTO 21004KT 10SM CLR 10/07 A3021 RMK AO2 SLP231 T01000067 52006=
201509270153 METAR KCLM 270153Z AUTO 31003KT 10SM CLR 12/07 A3020 RMK AO2 SLP228 T01170067=
201509270053 METAR KCLM 270053Z AUTO 31005KT 10SM CLR 14/08 A3020 RMK AO2 SLP227 T01390078=
201509262353 METAR KCLM 262353Z AUTO 30006KT 10SM CLR 14/08 A3019 RMK AO2 SLP225 T01440078 10150 20128 58003=
201509262253 METAR KCLM 262253Z AUTO VRB03KT 10SM CLR 14/08 A3020 RMK AO2 SLP227 T01440078=
201509262153 METAR KCLM 262153Z AUTO VRB05KT 10SM CLR 14/09 A3020 RMK AO2 SLP228 T01390089=
201509262053 METAR KCLM 262053Z AUTO VRB06KT 10SM CLR 14/09 A3020 RMK AO2 SLP227 T01440089 50005=
201509261953 METAR KCLM 261953Z AUTO VRB04KT 10SM CLR 13/09 A3020 RMK AO2 SLP229 T01330094=
201509261853 METAR KCLM 261853Z AUTO VRB04KT 10SM CLR 13/09 A3020 RMK AO2 SLP226 T01330094=
201509261753 METAR KCLM 261753Z AUTO 02004KT 10SM CLR 13/09 A3019 RMK AO2 SLP223 T01280089 10144 20094 51019=
201509261653 METAR KCLM 261653Z AUTO 28006KT 10SM CLR 14/07 A3017 RMK AO2 SLP216 T01390067=
201509261553 METAR KCLM 261553Z AUTO 26010KT 10SM CLR 12/05 A3015 RMK AO2 SLP212 T01170050=
201509261453 METAR KCLM 261453Z AUTO 25013KT 10SM CLR 11/04 A3013 RMK AO2 SLP204 T01060044 53010=
201509261353 METAR KCLM 261353Z AUTO 25014G21KT 10SM CLR 11/04 A3012 RMK AO2 SLP199 T01060044=
201509261253 METAR KCLM 261253Z AUTO 25013KT 10SM CLR 11/06 A3011 RMK AO2 SLP196 T01060056=
201509261153 METAR KCLM 261153Z AUTO 27011KT 10SM CLR 10/06 A3010 RMK AO2 SLP193 70002 T01000056 10111 20100 53005=
201509261053 METAR KCLM 261053Z AUTO 26012KT 10SM CLR 10/06 A3009 RMK AO2 SLP192 T01000061=
201509260953 METAR KCLM 260953Z AUTO 26010KT 10SM CLR 11/06 A3009 RMK AO2 SLP190 T01060061=
201509260853 METAR KCLM 260853Z AUTO 26010KT 10SM CLR 11/07 A3009 RMK AO2 SLP189 T01060067 53005=
201509260753 METAR KCLM 260753Z AUTO 25009KT 10SM CLR 11/07 A3008 RMK AO2 SLP185 T01060067 401500100=
201509260653 METAR KCLM 260653Z AUTO 26010KT 10SM CLR 11/08 A3008 RMK AO2 SLP185 T01060078=
201509260600 METAR KCLM NIL=
201509260553 METAR KCLM 260553Z AUTO 25007KT 10SM CLR 11/08 A3007 RMK AO2 SLP184 T01110078 10144 20106 51001=
201509260453 METAR KCLM 260453Z AUTO 25005KT 10SM CLR 11/07 A3007 RMK AO2 SLP184 T01110072=
201509260353 METAR KCLM 260353Z AUTO 27007KT 10SM CLR 12/08 A3007 RMK AO2 SLP183 T01170083=
201509260253 METAR KCLM 260253Z AUTO 28005KT 10SM CLR 12/09 A3007 RMK AO2 SLP183 T01170089 55000=
201509260153 METAR KCLM 260153Z AUTO 28004KT 10SM CLR 13/09 A3007 RMK AO2 SLP182 T01280094=
201509260053 METAR KCLM 260053Z AUTO 29005KT 10SM CLR 14/09 A3006 RMK AO2 SLP179 T01390094=
201509252353 METAR KCLM 252353Z AUTO 35004KT 10SM OVC095 15/11 A3007 RMK AO2 SLP182 60000 T01500106 10150 20122 55001=
201509252253 METAR KCLM 252253Z AUTO 00000KT 10SM OVC085 14/11 A3007 RMK AO2 SLP181 T01390106=
201509252153 METAR KCLM 252153Z AUTO 02003KT 10SM OVC075 13/11 A3006 RMK AO2 SLP181 T01330111=
201509252053 METAR KCLM 252053Z AUTO 33005KT 10SM OVC075 14/11 A3007 RMK AO2 SLP183 60000 T01390111 51006=
201509251953 METAR KCLM 251953Z AUTO 01003KT 10SM SCT007 OVC080 14/12 A3007 RMK AO2 SLP181 T01390117=
201509251853 METAR KCLM 251853Z AUTO 30003KT 10SM FEW007 FEW017 OVC080 13/11 A3007 RMK AO2 RAB41E52 SLP183 P0000 T01330111=
201509251753 METAR KCLM 251753Z AUTO 35003KT 10SM FEW003 OVC080 13/12 A3005 RMK AO2 SLP177 60002 T01280117 10133 20117 50005=
201509251744 SPECI KCLM 251744Z AUTO 03003KT 10SM FEW004 OVC080 13/12 A3004 RMK AO2 T01330117=
201509251653 METAR KCLM 251653Z AUTO 00000KT 10SM OVC080 13/12 A3006 RMK AO2 RAB05E48 SLP178 P0000 T01280122=
201509251553 METAR KCLM 251553Z AUTO 19003KT 10SM SCT003 OVC095 12/12 A3005 RMK AO2 RAB12E48 SLP175 P0000 T01220117=
201509251539 SPECI KCLM 251539Z AUTO 00000KT 7SM -RA BKN003 BKN008 OVC080 12/11 A3005 RMK AO2 RAB12 P0000 T01220111=
201509251530 SPECI KCLM 251530Z AUTO 31003KT 7SM -RA BKN006 OVC080 12/11 A3005 RMK AO2 RAB12 P0000 T01220111=
201509251502 SPECI KCLM 251502Z AUTO 34003KT 10SM FEW002 BKN080 OVC095 12/11 A3005 RMK AO2 T01170111=
201509251453 METAR KCLM 251453Z AUTO 34004KT 10SM OVC080 12/11 A3004 RMK AO2 SLP172 60002 T01170111 53001=
201509251400 SPECI KCLM 251400Z AUTO 27004KT 9SM FEW003 FEW060 OVC085 12/11 A3004 RMK AO2 T01170111=
201509251353 METAR KCLM 251353Z AUTO 31003KT 10SM OVC085 12/11 A3004 RMK AO2 RAE36 SLP171 P0002 T01170111=
201509251303 SPECI KCLM 251303Z AUTO 00000KT 9SM -RA SCT009 OVC080 12/12 A3003 RMK AO2 P0000 T01220117=
201509251253 METAR KCLM 251253Z AUTO 24003KT 10SM -RA BKN009 OVC085 12/11 A3004 RMK AO2 SLP171 P0000 T01220111=
201509251245 SPECI KCLM 251245Z AUTO 28003KT 2 1/2SM -RA BR OVC009 12/11 A3003 RMK AO2 P0000 T01220111=
201509251238 SPECI KCLM 251238Z AUTO 00000KT 3/4SM -RA BR FEW003 BKN009 OVC038 12/11 A3004 RMK AO2 P0000 T01220111=
201509251226 SPECI KCLM 251226Z AUTO 00000KT 1 3/4SM -RA BR FEW003 BKN008 OVC050 12/12 A3003 RMK AO2 P0000 T01220117=
201509251151 METAR KCLM 251151Z AUTO 00000KT 8SM -RA BKN008 OVC085 12/12 A3004 RMK AO2 CIG 008V016 SLP173 P0002 60008 70041 T01220117 10133 20122 58003=
201509251150 SPECI KCLM 251150Z AUTO 00000KT 8SM -RA BKN008 OVC085 12/12 A3004 RMK AO2 CIG 008V016 P0002=
201509251139 SPECI KCLM 251139Z AUTO 00000KT 8SM -RA SCT005 OVC085 12/12 A3004 RMK AO2 P0002 T01220117=
201509251110 SPECI KCLM 251110Z AUTO 30003KT 10SM -RA BKN005 OVC080 12/12 A3005 RMK AO2 P0000 T01220117=
201509251102 SPECI KCLM 251102Z AUTO 30004KT 8SM -RA SCT005 BKN065 OVC085 12/11 A3005 RMK AO2 P0000 T01220111=
201509251053 METAR KCLM 251053Z AUTO 30003KT 6SM -RA BR SCT065 OVC080 12/11 A3005 RMK AO2 SLP175 P0002 T01220111=
201509250953 METAR KCLM 250953Z AUTO 27007KT 10SM -RA OVC070 12/11 A3005 RMK AO2 RAB00E13B44 SLP174 P0000 T01220111=
201509250853 METAR KCLM 250853Z AUTO 12003KT 10SM OVC060 13/12 A3005 RMK AO2 RAB01E48 SLP176 P0002 60004 T01280117 58002=
201509250753 METAR KCLM 250753Z AUTO 28003KT 10SM OVC060 13/12 A3006 RMK AO2 RAE30 SLP179 P0000 T01280122 401890083=
201509250653 METAR KCLM 250653Z AUTO 18004KT 10SM -RA OVC055 13/12 A3005 RMK AO2 SLP176 P0002 T01330122=
201509250553 METAR KCLM 250553Z AUTO 00000KT 4SM -RA BR OVC040 13/12 A3006 RMK AO2 SLP178 P0011 60033 T01330122 10144 20133 51014=
201509250535 SPECI KCLM 250535Z AUTO 20003KT 3SM -RA BR FEW010 OVC034 13/12 A3005 RMK AO2 P0009 T01330122=
201509250527 SPECI KCLM 250527Z AUTO 23003KT 2 1/2SM -RA BR FEW010 SCT016 OVC032 13/13 A3005 RMK AO2 P0009 T01330128=
201509250514 SPECI KCLM 250514Z AUTO 30003KT 1 1/2SM RA BR FEW010 OVC015 13/13 A3005 RMK AO2 P0007 T01330128=
201509250453 METAR KCLM 250453Z AUTO 30004KT 1SM +RA BR SCT007 BKN013 OVC019 13/13 A3005 RMK AO2 SLP175 P0009 T01330128=
201509250439 SPECI KCLM 250439Z AUTO 30005KT 1 3/4SM -RA BR SCT004 BKN007 OVC028 13/13 A3004 RMK AO2 P0003 T01330128=
201509250422 SPECI KCLM 250422Z AUTO 31006KT 3SM -RA BR BKN004 BKN007 OVC032 14/13 A3004 RMK AO2 P0002 T01390128=
201509250407 SPECI KCLM 250407Z AUTO 28004KT 2SM -RA BR BKN008 OVC032 14/13 A3003 RMK AO2 P0002 T01390128=
201509250353 METAR KCLM 250353Z AUTO 00000KT 1 1/4SM RA BR OVC008 14/13 A3003 RMK AO2 SLP169 P0010 T01390133=
201509250345 SPECI KCLM 250345Z AUTO 00000KT 1 3/4SM RA BR BKN008 OVC017 14/13 A3003 RMK AO2 P0006 T01390128=
201509250335 SPECI KCLM 250335Z AUTO 00000KT 3SM -RA BR BKN009 OVC017 14/13 A3002 RMK AO2 P0005 T01390128=
201509250320 SPECI KCLM 250320Z AUTO 00000KT 3SM -RA BR FEW012 BKN017 OVC042 14/13 A3001 RMK AO2 P0003 T01390128=
201509250300 SPECI KCLM 250300Z AUTO 24004KT 2 1/2SM -RA BR FEW013 SCT024 OVC042 14/13 A3002 RMK AO2 P0002 T01390128=
201509250253 METAR KCLM 250253Z AUTO 25004KT 3SM -RA BR FEW014 BKN024 OVC043 14/13 A3002 RMK AO2 RAB03 SLP165 P0003 60003 T01390128 53011=
201509250153 METAR KCLM 250153Z AUTO 00000KT 10SM OVC022 14/13 A3000 RMK AO2 RAE04 SLP159 P0000 T01440128=
201509250109 SPECI KCLM 250109Z AUTO 00000KT 10SM SCT006 BKN017 OVC022 14/13 A2999 RMK AO2 RAE04 P0000 T01390128=
201509250053 METAR KCLM 250053Z AUTO 29003KT 10SM -RA BKN006 BKN017 OVC090 14/13 A2999 RMK AO2 RAE06B27 CIG 004V011 SLP156 P0000 T01390128=
201509250037 SPECI KCLM 250037Z AUTO 00000KT 10SM -RA SCT004 BKN070 OVC085 14/13 A2999 RMK AO2 RAE06B27 P0000 T01390128=
201509242353 METAR KCLM 242353Z AUTO 00000KT 10SM -RA OVC075 14/12 A2998 RMK AO2 RAB47 SLP154 P0000 60000 T01440122 10189 20144 53008=
201509242253 METAR KCLM 242253Z AUTO 32007KT 10SM OVC070 16/11 A2998 RMK AO2 SLP152 T01560106=
201509242153 METAR KCLM 242153Z AUTO 33005KT 10SM OVC070 17/10 A2996 RMK AO2 SLP145 T01720100=
201509242053 METAR KCLM 242053Z AUTO 36004KT 10SM OVC075 16/10 A2996 RMK AO2 SLP145 T01610100 51003=
201509241953 METAR KCLM 241953Z AUTO 04004KT 10SM BKN080 OVC090 17/10 A2996 RMK AO2 SLP144 T01720100=
201509241853 METAR KCLM 241853Z AUTO 32003KT 10SM OVC085 16/10 A2997 RMK AO2 SLP148 T01560100=
201509241753 METAR KCLM 241753Z AUTO 35005KT 10SM BKN090 15/10 A2995 RMK AO2 SLP144 60000 T01500100 10150 20094 53007=
201509241653 METAR KCLM 241653Z AUTO 00000KT 10SM FEW100 13/09 A2994 RMK AO2 SLP141 T01280089=
201509241600 METAR KCLM NIL=
201509241553 METAR KCLM 241553Z AUTO 00000KT 8SM FEW100 12/09 A2993 RMK AO2 SLP137 T01170089=
201509241453 METAR KCLM 241453Z AUTO 09004KT 10SM SCT110 11/08 A2993 RMK AO2 SLP137 60000 T01060083 56011=
201509241353 METAR KCLM 241353Z AUTO 00000KT 10SM OVC100 10/08 A2994 RMK AO2 SLP140 T01000078=
201509241253 METAR KCLM 241253Z AUTO 00000KT 10SM OVC110 10/08 A2995 RMK AO2 RAB19E28 SLP143 P0000 T01000083=
201509241153 METAR KCLM 241153Z AUTO 24003KT 10SM BKN120 09/08 A2996 RMK AO2 SLP146 T00940078 10106 20083 56017=
201509241100 METAR KCLM NIL=
201509241053 METAR KCLM 241053Z AUTO 10003KT 10SM BKN120 10/08 A2997 RMK AO2 SLP150 T01000083=
201509240953 METAR KCLM 240953Z AUTO 00000KT 10SM CLR 09/07 A3000 RMK AO2 SLP160 T00940072=
201509240853 METAR KCLM 240853Z AUTO 00000KT 10SM CLR 09/07 A3001 RMK AO2 SLP165 T00940072 58008=
201509240753 METAR KCLM 240753Z AUTO 00000KT 10SM CLR 09/07 A3003 RMK AO2 SLP171 T00890067 401670050=
201509240653 METAR KCLM 240653Z AUTO 00000KT 10SM CLR 09/07 A3003 RMK AO2 SLP170 T00940072=
201509240553 METAR KCLM 240553Z AUTO 00000KT 10SM CLR 09/07 A3004 RMK AO2 SLP173 T00940072 10161 20089 50010=
201509240453 METAR KCLM 240453Z AUTO 23003KT 10SM BKN065 11/08 A3004 RMK AO2 SLP174 T01110083=
201509240400 METAR KCLM NIL=
201509240353 METAR KCLM 240353Z AUTO 00000KT 10SM OVC060 12/08 A3002 RMK AO2 SLP167 T01170083=
201509240253 METAR KCLM 240253Z AUTO 26003KT 10SM CLR 11/08 A3001 RMK AO2 SLP162 T01110078 53003=
201509240153 METAR KCLM 240153Z AUTO 00000KT 10SM BKN090 13/08 A3000 RMK AO2 SLP160 T01280078=
201509240053 METAR KCLM 240053Z AUTO 30003KT 10SM SCT080 14/08 A3000 RMK AO2 SLP158 T01390083=
201509232353 METAR KCLM 232353Z AUTO VRB03KT 10SM CLR 16/08 A3000 RMK AO2 SLP160 T01560083 10167 20128 56006=
201509232253 METAR KCLM 232253Z AUTO 00000KT 10SM SCT090 14/09 A3001 RMK AO2 SLP162 T01390089=
201509232153 METAR KCLM 232153Z AUTO VRB03KT 10SM FEW095 15/09 A3001 RMK AO2 SLP162 T01500089=
201509232053 METAR KCLM 232053Z AUTO 33005KT 10SM BKN095 13/09 A3002 RMK AO2 SLP166 T01330094 50000=
201509232000 METAR KCLM NIL=
201509231953 METAR KCLM 231953Z AUTO 34005KT 10SM CLR 13/09 A3002 RMK AO2 SLP166 T01330094=
201509231900 METAR KCLM NIL=
201509231753 METAR KCLM 231753Z AUTO VRB04KT 10SM FEW120 14/08 A3002 RMK AO2 SLP165 T01390078 10139 20050 56000=
201509231653 METAR KCLM 231653Z AUTO 00000KT 10SM CLR 13/07 A3002 RMK AO2 SLP165 T01330072 $=
201509231553 METAR KCLM 231553Z AUTO 24003KT 10SM CLR 11/06 A3002 RMK AO2 SLP165 T01110061 $=
201509231453 METAR KCLM 231453Z AUTO 23006KT 10SM CLR 09/06 A3002 RMK AO2 SLP166 T00890056 53007 $=
201509231353 METAR KCLM 231353Z AUTO 23006KT 10SM CLR 08/06 A3001 RMK AO2 SLP162 T00830056 $=
201509231253 METAR KCLM 231253Z AUTO 21003KT 9SM CLR 06/04 A3001 RMK AO2 SLP161 T00610044 $=
201509231153 METAR KCLM 231153Z AUTO 23004KT 10SM CLR 08/06 A3000 RMK AO2 SLP159 T00830056 10117 20078 51004 $=
201509231053 METAR KCLM 231053Z AUTO 24007KT 10SM CLR 10/06 A3000 RMK AO2 SLP158 T01000061 $=
201509230953 METAR KCLM 230953Z AUTO 26007KT 10SM CLR 11/07 A2999 RMK AO2 SLP156 T01060067 $=
201509230853 METAR KCLM 230853Z AUTO 26007KT 10SM CLR 11/07 A2999 RMK AO2 SLP154 T01110067 53003 $=
201509230753 METAR KCLM 230753Z AUTO 25007KT 10SM CLR 12/08 A2998 RMK AO2 SLP151 T01170078 401670089 $=
201509230653 METAR KCLM 230653Z AUTO 24006KT 10SM FEW060 11/08 A2998 RMK AO2 SLP150 T01110078 $=
201509230553 METAR KCLM 230553Z AUTO 23004KT 10SM CLR 10/08 A2998 RMK AO2 SLP152 T01000078 10156 20100 56004 $=
201509230453 METAR KCLM 230453Z AUTO 25005KT 10SM BKN060 11/08 A2998 RMK AO2 SLP152 T01110083 $=
201509230353 METAR KCLM 230353Z AUTO 26004KT 10SM OVC060 13/08 A2999 RMK AO2 SLP155 T01280083 $=
201509230253 METAR KCLM 230253Z AUTO 26005KT 10SM OVC050 14/08 A2999 RMK AO2 SLP156 T01390083 58004=
201509230153 METAR KCLM 230153Z AUTO 00000KT 10SM OVC050 14/08 A3000 RMK AO2 SLP159 T01390078=
201509230053 METAR KCLM 230053Z AUTO 31004KT 10SM SCT060 BKN070 14/08 A3000 RMK AO2 SLP158 T01440078=
201509222353 METAR KCLM 222353Z AUTO 34003KT 10SM OVC055 16/07 A3000 RMK AO2 SLP160 T01560072 10167 20128 56010=
201509222253 METAR KCLM 222253Z AUTO VRB05KT 10SM CLR 16/08 A3001 RMK AO2 SLP163 T01610078=
201509222200 METAR KCLM NIL=
201509222153 METAR KCLM 222153Z AUTO VRB03KT 10SM CLR 16/08 A3002 RMK AO2 SLP166 T01560078=
201509222053 METAR KCLM 222053Z AUTO VRB03KT 10SM CLR 15/08 A3003 RMK AO2 SLP170 T01500078 58002=
201509221953 METAR KCLM 221953Z AUTO 34004KT 10SM CLR 14/08 A3003 RMK AO2 SLP171 T01440078=
201509221853 METAR KCLM 221853Z AUTO 05004KT 10SM CLR 14/08 A3004 RMK AO2 SLP173 T01390078=
201509221753 METAR KCLM 221753Z AUTO 09005KT 10SM CLR 13/09 A3004 RMK AO2 SLP173 T01280089 10144 20100 51008=
201509221653 METAR KCLM 221653Z AUTO 26006KT 10SM CLR 14/05 A3003 RMK AO2 SLP171 T01390050=
201509221553 METAR KCLM 221553Z AUTO 25012KT 10SM CLR 12/04 A3002 RMK AO2 SLP167 T01170044=
201509221453 METAR KCLM 221453Z AUTO 24011KT 10SM CLR 11/05 A3002 RMK AO2 SLP165 T01060050 53003=
201509221353 METAR KCLM 221353Z AUTO 24011KT 10SM CLR 10/05 A3001 RMK AO2 SLP161 T01000050=
201509221253 METAR KCLM 221253Z AUTO 25012KT 10SM CLR 11/05 A3000 RMK AO2 SLP159 T01060050=
201509221153 METAR KCLM 221153Z AUTO 25012KT 10SM CLR 11/06 A3001 RMK AO2 SLP160 T01060061 10111 20089 51003=
201509221053 METAR KCLM 221053Z AUTO 25009KT 10SM CLR 11/06 A3000 RMK AO2 SLP160 T01060061=
201509220953 METAR KCLM 220953Z AUTO 26009KT 10SM CLR 10/07 A3000 RMK AO2 SLP159 T01000067=
201509220853 METAR KCLM 220853Z AUTO 25009KT 10SM CLR 11/07 A3000 RMK AO2 SLP158 T01060067 56004=
201509220753 METAR KCLM 220753Z AUTO 27004KT 10SM CLR 09/06 A3000 RMK AO2 SLP161 T00890061 401670050=
201509220653 METAR KCLM 220653Z AUTO 26009KT 10SM CLR 10/07 A3000 RMK AO2 SLP159 T01000072=
201509220553 METAR KCLM 220553Z AUTO 28007KT 10SM CLR 11/06 A3001 RMK AO2 SLP161 T01060061 10161 20100 58004=
201509220453 METAR KCLM 220453Z AUTO 27006KT 10SM CLR 11/07 A3002 RMK AO2 SLP166 T01060072=
201509220353 METAR KCLM 220353Z AUTO 30006KT 10SM OVC055 12/08 A3002 RMK AO2 SLP166 T01170078=
201509220253 METAR KCLM 220253Z AUTO 29004KT 10SM OVC055 11/07 A3002 RMK AO2 SLP166 T01110072 56011=
201509220153 METAR KCLM 220153Z AUTO 31003KT 10SM CLR 13/06 A3003 RMK AO2 SLP170 T01280056=
201509220053 METAR KCLM 220053Z AUTO 10003KT 10SM CLR 16/06 A3004 RMK AO2 SLP172 T01560061=
201509212353 METAR KCLM 212353Z AUTO 08005KT 10SM CLR 16/07 A3005 RMK AO2 SLP177 T01560067 10167 20139 58018=
201509212253 METAR KCLM 212253Z AUTO 09006KT 10SM CLR 16/07 A3007 RMK AO2 SLP184 T01610072=
201509212153 METAR KCLM 212153Z AUTO 06005KT 10SM CLR 16/08 A3009 RMK AO2 SLP189 T01610078=
201509212053 METAR KCLM 212053Z AUTO VRB05KT 10SM CLR 15/08 A3010 RMK AO2 SLP194 T01500083 58001=
201509211953 METAR KCLM 211953Z AUTO VRB04KT 10SM CLR 14/08 A3011 RMK AO2 SLP196 T01440078=
201509211853 METAR KCLM 211853Z AUTO VRB04KT 10SM CLR 14/08 A3011 RMK AO2 SLP194 T01440083=
201509211753 METAR KCLM 211753Z AUTO 03005KT 10SM CLR 14/07 A3011 RMK AO2 SLP195 T01440072 10144 20050 58000=
201509211653 METAR KCLM 211653Z AUTO 27005KT 10SM CLR 13/07 A3011 RMK AO2 SLP196 T01330067 $=
201509211553 METAR KCLM 211553Z AUTO 24006KT 10SM SCT024 11/07 A3011 RMK AO2 SLP197 T01110067 $=
201509211541 SPECI KCLM 211541Z AUTO 24006KT 10SM BKN024 11/06 A3011 RMK AO2 T01060061 $=
201509211453 METAR KCLM 211453Z AUTO 24007KT 10SM CLR 08/06 A3011 RMK AO2 SLP196 T00830061 53015 $=
201509211353 METAR KCLM 211353Z AUTO 22005KT 10SM CLR 07/06 A3009 RMK AO2 SLP190 T00720056 $=
201509211253 METAR KCLM 211253Z AUTO 23003KT 10SM CLR 07/06 A3008 RMK AO2 SLP186 T00720056 $=
201509211153 METAR KCLM 211153Z AUTO 00000KT 10SM CLR 07/06 A3006 RMK AO2 SLP181 70001 T00720061 10128 20067 53018 $=
201509211053 METAR KCLM 211053Z AUTO 00000KT 10SM CLR 08/06 A3004 RMK AO2 SLP173 T00780061 $=
201509210953 METAR KCLM 210953Z AUTO 26008KT 10SM CLR 11/07 A3003 RMK AO2 SLP167 T01110072 $=
201509210853 METAR KCLM 210853Z AUTO 26006KT 10SM CLR 11/07 A3001 RMK AO2 SLP161 T01110072 53015 $=
201509210753 METAR KCLM 210753Z AUTO 25010KT 10SM CLR 12/08 A2999 RMK AO2 SLP155 T01170083 402220100 $=
201509210653 METAR KCLM 210653Z AUTO 25007KT 10SM CLR 12/07 A2998 RMK AO2 SLP151 T01170072 $=
201509210553 METAR KCLM 210553Z AUTO 27011KT 10SM CLR 12/08 A2996 RMK AO2 SLP146 60001 T01220078 10139 20111 51014 $=
201509210453 METAR KCLM 210453Z AUTO 26010KT 10SM CLR 12/09 A2995 RMK AO2 SLP143 T01220089 $=
201509210353 METAR KCLM 210353Z AUTO 29014KT 10SM CLR 12/10 A2994 RMK AO2 SLP139 T01220100 $=
201509210253 METAR KCLM 210253Z AUTO 28010KT 10SM BKN065 OVC075 13/11 A2992 RMK AO2 RAB19E33 SLP132 P0000 60001 T01330106 52014 $=
201509210214 SPECI KCLM 210214Z AUTO 27012KT 10SM SCT013 OVC048 13/11 A2991 RMK AO2 T01330111 $=
201509210153 METAR KCLM 210153Z AUTO 27009KT 10SM OVC013 13/11 A2991 RMK AO2 RAE13 SLP128 P0000 T01330111 $=
201509210107 SPECI KCLM 210107Z AUTO 30012G17KT 8SM -RA SCT006 BKN010 OVC029 12/11 A2990 RMK AO2 P0000 T01220111 $=
201509210100 METAR KCLM NIL=
201509210049 METAR KCLM 210049Z AUTO 31012G22KT 3SM -RA BR BKN006 BKN010 OVC027 12/11 A2989=
201509210048 SPECI KCLM 210048Z AUTO 30014G22KT 3SM -RA BR BKN006 BKN009 OVC027 12/11 A2989 RMK AO2 P0001 $=
201509210032 SPECI KCLM 210032Z AUTO 32008KT 1 3/4SM -RA BR BKN006 OVC011 13/12 A2989 RMK AO2 P0000 T01280117 $=
201509210012 SPECI KCLM 210012Z AUTO 30011G15KT 4SM -RA BR OVC006 13/12 A2989 RMK AO2 CIG 004V010 P0000 T01330122 $=
201509210002 SPECI KCLM 210002Z AUTO 30012G17KT 2SM -RA BR OVC006 13/12 A2988 RMK AO2 P0000 T01330122 $=
201509202353 METAR KCLM 202353Z AUTO 29012G21KT 4SM -RA BR OVC006 14/12 A2988 RMK AO2 RAB09 SLP118 P0000 60000 T01390122 10222 20133 53021 $=
201509202315 SPECI KCLM 202315Z AUTO 32008G18KT 7SM -RA BKN006 BKN027 OVC055 14/12 A2986 RMK AO2 RAB09 CIG 003V011 P0000 T01390122 $=
201509202304 SPECI KCLM 202304Z AUTO 35011G21KT 10SM SCT004 BKN035 OVC055 14/12 A2985 RMK AO2 T01390122 $=
201509202253 METAR KCLM 202253Z AUTO 36004KT 10SM SCT035 BKN055 OVC070 17/14 A2984 RMK AO2 PRESRR SLP104 T01720139 $=
201509202153 METAR KCLM 202153Z AUTO 12007KT 10SM FEW042 BKN060 BKN120 21/14 A2981 RMK AO2 SLP096 T02060144 $=
201509202053 METAR KCLM 202053Z AUTO 09006KT 10SM BKN060 19/14 A2982 RMK AO2 RAB39E48 SLP097 P0000 60000 T01940144 58004 $=
201509201953 METAR KCLM 201953Z AUTO 10007KT 10SM BKN055 BKN065 20/14 A2982 RMK AO2 SLP099 T02000144 $=
201509201853 METAR KCLM 201853Z AUTO VRB04KT 10SM OVC065 19/14 A2983 RMK AO2 SLP101 T01940144 $=
201509201753 METAR KCLM 201753Z AUTO 32003KT 10SM BKN060 BKN080 BKN100 17/13 A2983 RMK AO2 SLP102 T01670133 10189 20133 55006 $=
201509201653 METAR KCLM 201653Z AUTO 03004KT 10SM FEW060 FEW095 17/13 A2982 RMK AO2 SLP099 T01720133 $=
201509201553 METAR KCLM 201553Z AUTO 00000KT 10SM BKN060 BKN100 18/14 A2984 RMK AO2 SLP105 T01780144 $=
201509201453 METAR KCLM 201453Z AUTO 00000KT 10SM BKN060 BKN110 14/13 A2985 RMK AO2 SLP108 T01440133 58007 $=
201509201353 METAR KCLM 201353Z AUTO 00000KT 10SM BKN060 BKN100 13/13 A2986 RMK AO2 SLP111 T01330128 $=
201509201253 METAR KCLM 201253Z AUTO 00000KT 10SM FEW060 SCT095 13/12 A2986 RMK AO2 SLP111 T01330122 $=
201509201153 METAR KCLM 201153Z AUTO 27003KT 10SM OVC100 14/13 A2987 RMK AO2 SLP115 70005 T01440133 10150 20122 58012 $=
201509201053 METAR KCLM 201053Z AUTO 14006KT 10SM FEW065 OVC100 14/13 A2989 RMK AO2 SLP120 T01440133 $=
201509200953 METAR KCLM 200953Z AUTO 00000KT 10SM BKN060 OVC110 14/13 A2990 RMK AO2 SLP124 T01390133 $=
201509200853 METAR KCLM 200853Z AUTO 00000KT 10SM OVC060 14/13 A2991 RMK AO2 SLP127 T01390133 58003 $=
201509200753 METAR KCLM 200753Z AUTO 19005KT 10SM BKN060 BKN085 BKN120 13/12 A2991 RMK AO2 SLP129 T01330122 401940094 $=
201509200653 METAR KCLM 200653Z AUTO 00000KT 10SM BKN060 14/13 A2992 RMK AO2 SLP130 T01390128 $=
201509200553 METAR KCLM 200553Z AUTO 00000KT 10SM FEW085 14/13 A2991 RMK AO2 SLP129 60000 T01390128 10178 20133 58005 $=
201509200453 METAR KCLM 200453Z AUTO 00000KT 10SM FEW060 14/13 A2993 RMK AO2 RAE09 SLP136 P0000 T01440133 $=
201509200353 METAR KCLM 200353Z AUTO 00000KT 9SM -RA FEW049 BKN065 OVC090 16/13 A2993 RMK AO2 RAB52 SLP136 P0000 T01560133 $=
201509200253 METAR KCLM 200253Z AUTO 16004KT 10SM BKN070 OVC090 15/13 A2993 RMK AO2 SLP135 T01500128 56006 $=
201509200153 METAR KCLM 200153Z AUTO 00000KT 10SM SCT085 BKN100 16/13 A2993 RMK AO2 SLP135 T01610133 $=
201509200053 METAR KCLM 200053Z AUTO 01003KT 10SM CLR 18/13 A2993 RMK AO2 SLP135 T01780133 $=
201509192353 METAR KCLM 192353Z AUTO 02004KT 10SM CLR 18/13 A2995 RMK AO2 SLP141 60000 T01780133 10194 20133 58008 $=
201509192253 METAR KCLM 192253Z AUTO 35006KT 10SM SCT060 OVC075 18/13 A2996 RMK AO2 SLP145 T01830128 $=
201509192153 METAR KCLM 192153Z AUTO 34004KT 10SM FEW060 BKN075 18/12 A2997 RMK AO2 SLP150 T01780122 $=
201509192053 METAR KCLM 192053Z AUTO 00000KT 10SM BKN065 OVC120 16/12 A2997 RMK AO2 SLP150 60000 T01610122 56010 $=
201509191953 METAR KCLM 191953Z AUTO 04003KT 10SM OVC065 16/14 A2998 RMK AO2 SLP153 T01610139 $=
201509191853 METAR KCLM 191853Z AUTO 00000KT 10SM SCT005 BKN065 OVC080 15/13 A2999 RMK AO2 RAE10B42E51 SLP156 P0000 T01500133 $=
201509191803 SPECI KCLM 191803Z AUTO 30005KT 6SM -RA BR SCT004 BKN075 OVC095 13/12 A3000 RMK AO2 P0000 T01330122 $=
201509191753 METAR KCLM 191753Z AUTO 28006KT 3SM -RA BR BKN004 BKN055 OVC080 13/12 A3000 RMK AO2 RAE1655B04 SLP160 P0003 60005 T01330122 10133 20106 53004 $=
201509191744 SPECI KCLM 191744Z AUTO 27004KT 2SM -RA BR BKN004 OVC050 13/12 A3001 RMK AO2 RAE1655B04 P0001 T01280117 $=
201509191734 SPECI KCLM 191734Z AUTO 27008KT 4SM -RA BR OVC003 13/12 A3002 RMK AO2 RAE1655B04 P0001 T01280117 $=
201509191725 SPECI KCLM 191725Z AUTO 28007KT 2 1/2SM -RA BR OVC003 13/12 A3001 RMK AO2 RAE1655B04 P0001 T01280117 $=
201509191710 SPECI KCLM 191710Z AUTO 31006KT 1 3/4SM -RA BR OVC003 12/11 A3001 RMK AO2 RAE1655B04 P0000 T01220111 $=
201509191700 SPECI KCLM 191700Z AUTO 33005KT 3SM BR BKN003 OVC065 12/11 A3000 RMK AO2 RAE1655 P0000 T01220111 $=
201509191653 METAR KCLM 191653Z AUTO 33004KT 4SM -RA BR SCT003 OVC065 12/12 A3000 RMK AO2 RAB37 SLP158 P0000 T01220117 $=
201509191643 SPECI KCLM 191643Z AUTO 36003KT 4SM -RA BR FEW003 OVC065 13/12 A2999 RMK AO2 RAB37 P0000 T01280117 $=
201509191553 METAR KCLM 191553Z AUTO 33003KT 10SM OVC070 13/12 A2999 RMK AO2 SLP155 T01280117 $=
201509191453 METAR KCLM 191453Z AUTO 00000KT 10SM FEW065 BKN100 OVC110 13/12 A2999 RMK AO2 RAB19E53 SLP156 P0002 60002 T01280117 58001 $=
201509191353 METAR KCLM 191353Z AUTO 00000KT 10SM OVC060 12/11 A3000 RMK AO2 SLP160 T01220106 $=
201509191253 METAR KCLM 191253Z AUTO 00000KT 10SM BKN060 12/11 A3000 RMK AO2 SLP158 T01170106 $=
201509191153 METAR KCLM 191153Z AUTO 00000KT 10SM BKN055 11/10 A2999 RMK AO2 SLP157 T01110100 10133 20094 58012 $=
201509191053 METAR KCLM 191053Z AUTO 14004KT 10SM CLR 10/09 A3001 RMK AO2 SLP162 T01000089 $=
201509190953 METAR KCLM 190953Z AUTO 00000KT 10SM CLR 11/09 A3003 RMK AO2 SLP170 T01060094 $=
201509190853 METAR KCLM 190853Z AUTO 00000KT 10SM SCT039 SCT100 12/10 A3003 RMK AO2 SLP169 T01170100 57010 $=
201509190753 METAR KCLM 190753Z AUTO 00000KT 10SM OVC035 12/11 A3004 RMK AO2 SLP174 T01170106 401610089 $=
201509190653 METAR KCLM 190653Z AUTO 00000KT 10SM CLR 12/11 A3005 RMK AO2 SLP174 T01220106 $=
201509190553 METAR KCLM 190553Z AUTO 30003KT 10SM OVC060 13/12 A3006 RMK AO2 SLP179 T01330117 10156 20133 53000 $=
201509190453 METAR KCLM 190453Z AUTO 00000KT 10SM OVC065 13/12 A3005 RMK AO2 SLP177 T01330117 $=
201509190353 METAR KCLM 190353Z AUTO 25003KT 10SM SCT060 14/12 A3006 RMK AO2 SLP178 T01390117 $=
201509190253 METAR KCLM 190253Z AUTO 00000KT 10SM BKN045 OVC055 15/12 A3006 RMK AO2 SLP179 T01500117 53003=
201509190153 METAR KCLM 190153Z AUTO 28003KT 10SM OVC048 14/12 A3005 RMK AO2 SLP176 T01390117=
201509190053 METAR KCLM 190053Z AUTO 29003KT 10SM BKN050 OVC065 16/12 A3005 RMK AO2 SLP175 T01560122=
201509182353 METAR KCLM 182353Z AUTO 33003KT 10SM OVC055 16/12 A3005 RMK AO2 RAB21E52 SLP176 P0000 60000 T01560122 10161 20133 58006=
201509182253 METAR KCLM 182253Z AUTO 32005KT 10SM OVC065 16/12 A3007 RMK AO2 SLP182 T01560117=
201509182153 METAR KCLM 182153Z AUTO 28007KT 10SM OVC055 14/11 A3008 RMK AO2 SLP186 T01440111=
201509182053 METAR KCLM 182053Z AUTO VRB04KT 10SM BKN070 13/11 A3007 RMK AO2 SLP183 60000 T01330111 56003=
201509181953 METAR KCLM 181953Z AUTO 36006KT 10SM BKN065 16/12 A3007 RMK AO2 RAB1856E16 SLP183 P0000 T01560117=
201509181853 METAR KCLM 181853Z AUTO 00000KT 10SM OVC070 14/11 A3007 RMK AO2 SLP182 T01440111=
201509181823 SPECI KCLM 181823Z AUTO 00000KT 10SM SCT005 OVC070 14/12 A3007 RMK AO2 T01390117=
201509181753 METAR KCLM 181753Z AUTO 07004KT 10SM OVC002 13/12 A3008 RMK AO2 CIG 001V005 SLP186 60000 T01330117 10133 20106 58006=
201509181745 SPECI KCLM 181745Z AUTO 09004KT 6SM BR OVC002 13/12 A3008 RMK AO2 T01280117=
201509181732 SPECI KCLM 181732Z AUTO 06003KT 2 1/2SM BR OVC002 13/12 A3008 RMK AO2 T01280117=
201509181720 SPECI KCLM 181720Z AUTO 00000KT 1 3/4SM BR BKN001 OVC070 12/11 A3009 RMK AO2 T01220111=
201509181717 SPECI KCLM 181717Z AUTO 00000KT 3SM BR BKN001 OVC070 12/11 A3009 RMK AO2 T01220111=
201509181706 SPECI KCLM 181706Z AUTO 35003KT 4SM BR SCT001 OVC070 12/11 A3009 RMK AO2 T01220111=
201509181653 METAR KCLM 181653Z AUTO 00000KT 10SM OVC070 12/11 A3009 RMK AO2 RAB1557E25 SLP189 P0000 T01220106=
201509181553 METAR KCLM 181553Z AUTO 00000KT 10SM OVC080 12/11 A3009 RMK AO2 RAB15E48 SLP191 P0000 T01220111=
201509181453 METAR KCLM 181453Z AUTO 00000KT 10SM BKN080 BKN100 12/11 A3010 RMK AO2 SLP192 T01170106 53003=
201509181353 METAR KCLM 181353Z AUTO 00000KT 10SM FEW075 SCT100 11/10 A3008 RMK AO2 SLP187 T01110100=
201509181253 METAR KCLM 181253Z AUTO 14003KT 10SM BKN085 BKN100 12/10 A3007 RMK AO2 SLP184 T01170100=
201509181153 METAR KCLM 181153Z AUTO 15005KT 10SM OVC085 11/09 A3009 RMK AO2 SLP188 T01060094 10117 20089 58002=
201509181053 METAR KCLM 181053Z AUTO 23004KT 10SM OVC080 11/09 A3009 RMK AO2 SLP190 T01060094=
201509180953 METAR KCLM 180953Z AUTO 18004KT 10SM CLR 10/09 A3009 RMK AO2 SLP189 T01000094=
201509180853 METAR KCLM 180853Z AUTO 16003KT 10SM CLR 09/08 A3009 RMK AO2 SLP190 T00940083 51002=
201509180753 METAR KCLM 180753Z AUTO 00000KT 8SM CLR 10/09 A3009 RMK AO2 SLP189 T01000089 401830094=
201509180653 METAR KCLM 180653Z AUTO 22004KT 10SM SCT022 12/11 A3009 RMK AO2 SLP189 T01170106=
201509180616 SPECI KCLM 180616Z AUTO 22003KT 10SM SCT023 BKN028 12/11 A3009 RMK AO2 T01170106=
201509180553 METAR KCLM 180553Z AUTO 21003KT 10SM CLR 11/10 A3008 RMK AO2 SLP187 60000 T01110100 10150 20106 51015=
201509180453 METAR KCLM 180453Z AUTO 00000KT 10SM FEW028 11/10 A3007 RMK AO2 SLP183 T01110100=
201509180353 METAR KCLM 180353Z AUTO 25004KT 10SM FEW034 12/11 A3006 RMK AO2 SLP181 T01170106=
201509180253 METAR KCLM 180253Z AUTO 00000KT 10SM CLR 13/11 A3004 RMK AO2 SLP172 60000 T01280111 53013=
201509180153 METAR KCLM 180153Z AUTO 00000KT 10SM CLR 14/11 A3002 RMK AO2 SLP166 T01390111=
201509180053 METAR KCLM 180053Z AUTO 33004KT 10SM FEW032 BKN065 14/11 A3001 RMK AO2 RAE2359 SLP162 P0000 T01440111=
201509172353 METAR KCLM 172353Z AUTO 31003KT 7SM -RA FEW022 BKN035 OVC055 14/11 A3000 RMK AO2 RAB47 SLP159 P0000 60000 T01440111 10183 20139 53011=
201509172307 SPECI KCLM 172307Z AUTO 01003KT 10SM OVC030 16/11 A2999 RMK AO2 T01610106=
201509172253 METAR KCLM 172253Z AUTO 03003KT 10SM BKN028 BKN033 OVC075 17/11 A2998 RMK AO2 SLP153 T01670106=
201509172250 SPECI KCLM 172250Z AUTO 02003KT 10SM BKN028 BKN049 OVC075 17/11 A2998 RMK AO2=
201509172153 METAR KCLM 172153Z AUTO 00000KT 10SM BKN055 OVC085 17/11 A2997 RMK AO2 SLP148 T01720111=
201509172053 METAR KCLM 172053Z AUTO VRB03KT 10SM FEW034 OVC075 16/11 A2996 RMK AO2 SLP145 T01610111 51015=
201509171953 METAR KCLM 171953Z AUTO VRB04KT 10SM OVC060 17/11 A2994 RMK AO2 SLP139 T01670111=
201509171853 METAR KCLM 171853Z AUTO 03004KT 10SM SCT019 OVC060 14/12 A2993 RMK AO2 SLP136 T01440117=
201509171811 SPECI KCLM 171811Z AUTO 34003KT 10SM OVC015 14/12 A2992 RMK AO2 T01390117=
201509171753 METAR KCLM 171753Z AUTO 01004KT 10SM OVC014 14/11 A2991 RMK AO2 SLP130 T01390111 10144 20106 53013=
201509171745 SPECI KCLM 171745Z AUTO 36005KT 10SM OVC014 14/12 A2991 RMK AO2 T01390117=
201509171735 SPECI KCLM 171735Z AUTO VRB03KT 10SM FEW009 OVC016 14/12 A2991 RMK AO2 T01390117=
201509171713 SPECI KCLM 171713Z AUTO 29004KT 10SM OVC017 14/12 A2990 RMK AO2 T01390117=
201509171653 METAR KCLM 171653Z AUTO 26004KT 10SM BKN012 OVC019 14/12 A2990 RMK AO2 SLP123 T01390117=
201509171614 SPECI KCLM 171614Z AUTO 26005KT 10SM OVC013 13/11 A2988 RMK AO2 T01280111=
201509171553 METAR KCLM 171553Z AUTO 25005KT 10SM OVC015 13/11 A2988 RMK AO2 SLP118 T01280111=
201509171548 SPECI KCLM 171548Z AUTO 24005KT 10SM OVC015 13/11 A2988 RMK AO2 CIG 008V020=
201509171510 SPECI KCLM 171510Z AUTO 27006KT 10SM SCT006 BKN010 OVC070 12/11 A2986 RMK AO2 T01220111=
201509171453 METAR KCLM 171453Z AUTO 29005KT 10SM OVC007 12/11 A2985 RMK AO2 CIG 005V011 SLP110 T01220106 53018=
201509171353 METAR KCLM 171353Z AUTO 27006KT 10SM BKN009 OVC070 12/10 A2983 RMK AO2 CIG 007V011 SLP101 T01170100=
201509171253 METAR KCLM 171253Z AUTO 24007KT 10SM FEW003 OVC070 11/11 A2982 RMK AO2 SLP097 T01110106=
201509171239 SPECI KCLM 171239Z AUTO 25007KT 8SM FEW003 BKN070 OVC080 11/11 A2981 RMK AO2 T01110106=
201509171211 SPECI KCLM 171211Z AUTO 26005KT 8SM BKN003 OVC075 11/10 A2981 RMK AO2 T01110100=
201509171202 SPECI KCLM 171202Z AUTO 26003KT 10SM SCT003 BKN070 OVC085 11/10 A2980 RMK AO2 T01060100=
201509171153 METAR KCLM 171153Z AUTO 27004KT 10SM OVC070 11/10 A2980 RMK AO2 SLP091 60003 70007 T01060100 10117 20094 58003=
201509171053 METAR KCLM 171053Z AUTO 23004KT 10SM FEW012 10/09 A2981 RMK AO2 SLP093 T01000094=
201509171043 SPECI KCLM 171043Z AUTO 22005KT 10SM SCT012 10/09 A2981 RMK AO2 T01000089=
201509171008 SPECI KCLM 171008Z AUTO 24003KT 10SM BKN012 BKN075 OVC090 10/09 A2981 RMK AO2 T01000094=
201509170953 METAR KCLM 170953Z AUTO 25004KT 10SM FEW012 BKN075 OVC090 10/09 A2981 RMK AO2 SLP094 T01000089=
201509170928 SPECI KCLM 170928Z AUTO 23004KT 4SM BR BKN070 09/09 A2981 RMK AO2 T00940089=
201509170914 SPECI KCLM 170914Z AUTO 00000KT 1 3/4SM BR BKN070 09/09 A2981 RMK AO2 T00940089=
201509170853 METAR KCLM 170853Z AUTO 00000KT 5SM BR BKN070 10/09 A2981 RMK AO2 SLP096 60003 T01000089 57007=
201509170753 METAR KCLM 170753Z AUTO 00000KT 10SM OVC075 11/10 A2982 RMK AO2 RAE0654 SLP099 P0000 T01060100 401720067=
201509170653 METAR KCLM 170653Z AUTO 00000KT 10SM -RA SCT075 OVC090 11/10 A2982 RMK AO2 SLP100 P0003 T01110100=
201509170553 METAR KCLM 170553Z AUTO 23003KT 4SM -RA BR BKN034 OVC065 12/11 A2983 RMK AO2 SLP103 P0003 60004 T01170106 10167 20111 55002=
201509170453 METAR KCLM 170453Z AUTO 25003KT 7SM -RA FEW055 OVC070 12/10 A2983 RMK AO2 SLP103 P0001 T01170100=
201509170353 METAR KCLM 170353Z AUTO 00000KT 10SM -RA SCT070 OVC085 12/09 A2983 RMK AO2 RAB14 SLP103 P0000 T01170089=
201509170253 METAR KCLM 170253Z AUTO 26003KT 10SM OVC090 12/08 A2984 RMK AO2 SLP104 T01220078 55000=
201509170153 METAR KCLM 170153Z AUTO 00000KT 10SM SCT075 OVC100 14/07 A2984 RMK AO2 SLP105 T01440067=
201509170053 METAR KCLM 170053Z AUTO 00000KT 10SM OVC110 14/07 A2983 RMK AO2 SLP104 T01440072=
201509162353 METAR KCLM 162353Z AUTO 00000KT 10SM FEW060 BKN080 OVC110 16/08 A2984 RMK AO2 SLP104 T01610078 10172 20122 56004=
201509162253 METAR KCLM 162253Z AUTO 00000KT 10SM BKN080 16/07 A2984 RMK AO2 SLP104 T01610067=
201509162153 METAR KCLM 162153Z AUTO 35004KT 10SM BKN080 15/07 A2984 RMK AO2 SLP107 T01500072=
201509162053 METAR KCLM 162053Z AUTO 00000KT 10SM OVC075 14/08 A2985 RMK AO2 SLP109 T01440078 50000=
201509161953 METAR KCLM 161953Z AUTO VRB03KT 10SM CLR 13/09 A2986 RMK AO2 SLP111 T01330089=
201509161853 METAR KCLM 161853Z AUTO 35004KT 10SM SCT100 13/08 A2985 RMK AO2 SLP110 T01280083=
201509161753 METAR KCLM 161753Z AUTO VRB04KT 10SM BKN110 13/09 A2985 RMK AO2 SLP108 T01280089 10133 20067 53007=
201509161653 METAR KCLM 161653Z AUTO 35004KT 10SM BKN110 12/09 A2984 RMK AO2 SLP105 T01170089=
201509161553 METAR KCLM 161553Z AUTO 23003KT 10SM FEW075 OVC110 12/08 A2984 RMK AO2 SLP104 T01170078=
201509161453 METAR KCLM 161453Z AUTO 00000KT 10SM FEW110 08/07 A2983 RMK AO2 SLP101 T00830072 53006=
201509161353 METAR KCLM 161353Z AUTO 00000KT 10SM CLR 08/06 A2981 RMK AO2 SLP096 T00780061=
201509161253 METAR KCLM 161253Z AUTO 22003KT 10SM FEW100 07/06 A2981 RMK AO2 SLP095 T00720061=
201509161153 METAR KCLM 161153Z AUTO 00000KT 10SM OVC100 09/07 A2981 RMK AO2 SLP094 60000 70001 T00940072 10106 20083 51003=
201509161053 METAR KCLM 161053Z AUTO 00000KT 10SM BKN110 09/07 A2981 RMK AO2 SLP094 T00890072=
201509160953 METAR KCLM 160953Z AUTO 25003KT 10SM BKN100 09/08 A2981 RMK AO2 SLP094 T00940078=
201509160853 METAR KCLM 160853Z AUTO 00000KT 10SM BKN100 BKN120 10/08 A2980 RMK AO2 SLP092 60000 T01000083 51002=
201509160753 METAR KCLM 160753Z AUTO 00000KT 10SM BKN070 OVC100 11/08 A2980 RMK AO2 RAB13E51 SLP092 P0000 T01060083 401610050=
201509160653 METAR KCLM 160653Z AUTO 00000KT 10SM FEW060 BKN080 OVC100 10/08 A2980 RMK AO2 SLP091 T01000083=
201509160553 METAR KCLM 160553Z AUTO 00000KT 10SM FEW100 BKN120 10/09 A2979 RMK AO2 SLP090 60001 T01000089 10133 20100 58000=
201509160453 METAR KCLM 160453Z AUTO 00000KT 10SM BKN060 OVC075 11/09 A2980 RMK AO2 RAE22 SLP092 P0001 T01110094=
201509160353 METAR KCLM 160353Z AUTO 00000KT 10SM -RA FEW060 SCT070 OVC100 11/09 A2980 RMK AO2 RAB42 SLP091 P0000 T01110089=
201509160253 METAR KCLM 160253Z AUTO 00000KT 10SM OVC100 12/09 A2979 RMK AO2 SLP090 60000 T01220089 53000=
201509160153 METAR KCLM 160153Z AUTO 29005KT 10SM FEW060 OVC110 13/09 A2979 RMK AO2 SLP090 T01280089=
201509160053 METAR KCLM 160053Z AUTO 27005KT 10SM OVC060 13/09 A2979 RMK AO2 RAB20E41 SLP089 P0000 T01330094=
201509152353 METAR KCLM 152353Z AUTO 00000KT 10SM OVC060 13/08 A2979 RMK AO2 SLP090 60000 T01330083 10161 20117 56009=
201509152253 METAR KCLM 152253Z AUTO 04004KT 10SM CLR 14/07 A2980 RMK AO2 RAE2157 SLP090 P0000 T01440072=
201509152153 METAR KCLM 152153Z AUTO 01003KT 10SM -RA OVC055 14/09 A2981 RMK AO2 SLP095 P0000 T01390094=
201509152053 METAR KCLM 152053Z AUTO 35003KT 10SM -RA FEW048 OVC060 13/09 A2982 RMK AO2 RAB43 SLP099 P0000 60000 T01280089 51004=
201509151953 METAR KCLM 151953Z AUTO VRB03KT 10SM BKN075 12/09 A2982 RMK AO2 SLP099 T01220094=
201509151853 METAR KCLM 151853Z AUTO 00000KT 10SM BKN075 12/08 A2982 RMK AO2 SLP098 T01170083=
201509151753 METAR KCLM 151753Z AUTO 03005KT 10SM CLR 13/06 A2981 RMK AO2 SLP095 T01280061 10139 20056 53001 $=
201509151653 METAR KCLM 151653Z AUTO VRB04KT 10SM SCT060 13/06 A2981 RMK AO2 SLP094 T01280061 $=
201509151553 METAR KCLM 151553Z AUTO 00000KT 10SM OVC060 11/04 A2981 RMK AO2 SLP094 T01110044 $=
201509151453 METAR KCLM 151453Z AUTO 23006KT 10SM BKN060 09/05 A2981 RMK AO2 SLP094 T00940050 51005 $=
201509151353 METAR KCLM 151353Z AUTO 23005KT 10SM BKN060 07/04 A2980 RMK AO2 SLP092 T00670039 $=
201509151253 METAR KCLM 151253Z AUTO 00000KT 10SM BKN055 07/04 A2980 RMK AO2 SLP092 T00670039 $=
201509151153 METAR KCLM 151153Z AUTO 25003KT 10SM CLR 07/04 A2979 RMK AO2 SLP089 T00720044 10089 20050 52003 $=
201509151053 METAR KCLM 151053Z AUTO 24005KT 10SM CLR 08/04 A2979 RMK AO2 SLP089 T00830039 $=
201509150953 METAR KCLM 150953Z AUTO 27006KT 10SM FEW070 08/04 A2978 RMK AO2 SLP086 T00830039 $=
201509150853 METAR KCLM 150853Z AUTO 26007KT 10SM FEW065 08/04 A2978 RMK AO2 SLP086 T00780044 53006 $=
201509150753 METAR KCLM 150753Z AUTO 00000KT CLR 07/05 A2977 RMK AO2 SLP082 T00720050 401560056 $=
201509150653 METAR KCLM 150653Z AUTO 28003KT 10SM CLR 08/05 A2977 RMK AO2 SLP082 T00830050 $=
201509150553 METAR KCLM 150553Z AUTO 21004KT 10SM CLR 08/06 A2976 RMK AO2 SLP079 T00830061 10156 20078 50003 $=
201509150453 METAR KCLM 150453Z AUTO 23003KT 7SM CLR 10/07 A2976 RMK AO2 SLP080 T01000067=
201509150353 METAR KCLM 150353Z AUTO 27003KT 10SM SCT047 11/07 A2977 RMK AO2 SLP080 T01110067=
201509150253 METAR KCLM 150253Z AUTO 31005KT 10SM BKN039 BKN048 OVC055 13/06 A2975 RMK AO2 SLP076 T01330061 53001=
201509150153 METAR KCLM 150153Z AUTO 00000KT 10SM BKN044 14/06 A2974 RMK AO2 SLP073 T01440056=
201509150053 METAR KCLM 150053Z AUTO VRB04KT 10SM CLR 16/06 A2974 RMK AO2 SLP073 T01560056=
201509142353 METAR KCLM 142353Z AUTO 00000KT 10SM FEW090 15/06 A2975 RMK AO2 SLP075 T01500056 10150 20122 58019=
201509142253 METAR KCLM 142253Z AUTO 08003KT 10SM FEW080 14/08 A2977 RMK AO2 SLP082 T01440083=
201509142153 METAR KCLM 142153Z AUTO VRB03KT 10SM OVC035 14/09 A2979 RMK AO2 SLP088 T01390089=
201509142053 METAR KCLM 142053Z AUTO 01004KT 10SM CLR 13/08 A2981 RMK AO2 SLP094 T01330083 56010=
201509141953 METAR KCLM 141953Z AUTO 03005KT 10SM CLR 13/09 A2981 RMK AO2 SLP097 T01280089=
201509141936 SPECI KCLM 141936Z AUTO 01004KT 10SM FEW026 13/09 A2982 RMK AO2 T01280089=
201509141904 SPECI KCLM 141904Z AUTO VRB03KT 10SM BKN027 13/07 A2983 RMK AO2 T01330072=
201509141853 METAR KCLM 141853Z AUTO 01004KT 10SM FEW028 13/07 A2983 RMK AO2 SLP101 T01280067=
201509141753 METAR KCLM 141753Z AUTO VRB03KT 10SM CLR 13/08 A2984 RMK AO2 SLP105 T01280078 10128 20061 56002=
201509141653 METAR KCLM 141653Z AUTO 00000KT 10SM CLR 13/07 A2984 RMK AO2 SLP106 T01280067=
201509141553 METAR KCLM 141553Z AUTO 25003KT 10SM CLR 11/06 A2984 RMK AO2 SLP106 T01110061=
201509141453 METAR KCLM 141453Z AUTO 23006KT 10SM CLR 09/05 A2985 RMK AO2 SLP107 T00940050 56002=
201509141353 METAR KCLM 141353Z AUTO 24006KT 10SM CLR 08/05 A2985 RMK AO2 SLP107 T00830050 $=
201509141253 METAR KCLM 141253Z AUTO 22004KT 10SM CLR 07/05 A2985 RMK AO2 SLP107 T00720050 $=
201509141153 METAR KCLM 141153Z AUTO 00000KT 10SM CLR 07/05 A2985 RMK AO2 SLP110 T00670050 10111 20061 56006 $=
201509141053 METAR KCLM 141053Z AUTO 00000KT 10SM CLR 06/04 A2986 RMK AO2 SLP111 T00610044 $=
201509140953 METAR KCLM 140953Z AUTO 20003KT 10SM CLR 08/05 A2986 RMK AO2 SLP113 T00780050 $=
201509140853 METAR KCLM 140853Z AUTO 00000KT 10SM CLR 08/04 A2987 RMK AO2 SLP116 T00830044 58005 $=
201509140753 METAR KCLM 140753Z AUTO VRB03KT 10SM CLR 10/07 A2988 RMK AO2 SLP118 T01000067 401780089 $=
201509140653 METAR KCLM 140653Z AUTO 29003KT 10SM CLR 10/06 A2989 RMK AO2 SLP121 T01000056 $=
201509140553 METAR KCLM 140553Z AUTO 31006KT 10SM CLR 11/07 A2989 RMK AO2 SLP120 T01060067 10161 20094 58006 $=
201509140453 METAR KCLM 140453Z AUTO 28004KT 10SM CLR 11/05 A2989 RMK AO2 SLP123 T01110050 $=
201509140353 METAR KCLM 140353Z AUTO 28009KT 10SM CLR 12/05 A2990 RMK AO2 SLP125 T01220050 $=
201509140253 METAR KCLM 140253Z AUTO 31010KT 10SM CLR 14/06 A2990 RMK AO2 SLP126 T01390056 56007 $=
201509140153 METAR KCLM 140153Z AUTO 32010KT 10SM CLR 14/08 A2991 RMK AO2 SLP127 T01390078 $=
201509140053 METAR KCLM 140053Z AUTO 32009G16KT 280V360 10SM CLR 15/08 A2992 RMK AO2 SLP131 T01500083=
201509132353 METAR KCLM 132353Z AUTO 32011G25KT 10SM CLR 16/07 A2993 RMK AO2 SLP134 T01610067 10178 20150 58014=
201509132253 METAR KCLM 132253Z AUTO 31012G20KT 10SM CLR 16/08 A2994 RMK AO2 SLP140 T01560078=
201509132153 METAR KCLM 132153Z AUTO 32014G19KT 10SM CLR 15/08 A2996 RMK AO2 SLP146 T01500078=
201509132053 METAR KCLM 132053Z AUTO 31012G22KT 10SM CLR 16/08 A2997 RMK AO2 SLP148 T01610078 56004=
201509131953 METAR KCLM 131953Z AUTO 32010G18KT 10SM CLR 17/08 A2997 RMK AO2 SLP148 T01670078=
201509131853 METAR KCLM 131853Z AUTO 36006KT 10SM CLR 17/08 A2997 RMK AO2 SLP150 T01670078=
201509131753 METAR KCLM 131753Z AUTO 35006KT 10SM CLR 15/09 A2998 RMK AO2 SLP152 T01500094 10161 20100 58001=
201509131653 METAR KCLM 131653Z AUTO 03003KT 10SM CLR 14/09 A2999 RMK AO2 SLP154 T01440094=
201509131553 METAR KCLM 131553Z AUTO 12004KT 10SM CLR 14/11 A2998 RMK AO2 SLP153 T01390111=
201509131453 METAR KCLM 131453Z AUTO 00000KT 10SM CLR 11/10 A2998 RMK AO2 SLP153 T01110100 53005=
201509131353 METAR KCLM 131353Z AUTO 27004KT 10SM CLR 12/11 A2997 RMK AO2 SLP150 T01220106=
201509131303 SPECI KCLM 131303Z AUTO 00000KT 9SM FEW008 10/09 A2997 RMK AO2 T01000094=
201509131253 METAR KCLM 131253Z AUTO 00000KT 9SM CLR 11/09 A2997 RMK AO2 SLP149 T01060094=
201509131153 METAR KCLM 131153Z AUTO 31005KT 9SM CLR 12/11 A2997 RMK AO2 SLP148 T01220111 10150 20111 56005=
201509131053 METAR KCLM 131053Z AUTO VRB04KT 10SM CLR 13/12 A2998 RMK AO2 SLP149 T01330117=
201509130953 METAR KCLM 130953Z AUTO 27008KT 9SM FEW005 13/12 A2997 RMK AO2 SLP147 T01330122=
201509130935 SPECI KCLM 130935Z AUTO 31008KT 7SM SCT005 13/12 A2997 RMK AO2 T01330122=
201509130853 METAR KCLM 130853Z AUTO 29006KT 8SM BKN005 14/13 A2998 RMK AO2 SLP151 T01390128 50003=
201509130811 SPECI KCLM 130811Z AUTO 30007KT 7SM BKN005 14/13 A2999 RMK AO2 T01390128=
201509130753 METAR KCLM 130753Z AUTO 30009KT 8SM FEW004 14/13 A2999 RMK AO2 SLP155 T01390128 402390100=
201509130653 METAR KCLM 130653Z AUTO 32007G18KT 10SM CLR 14/13 A2998 RMK AO2 SLP152 T01440128=
201509130553 METAR KCLM 130553Z AUTO 32006KT 10SM CLR 15/13 A2997 RMK AO2 SLP150 T01500133 10206 20150 58002=
201509130453 METAR KCLM 130453Z AUTO 30010KT 10SM CLR 16/13 A2998 RMK AO2 SLP151 T01560133=
201509130353 METAR KCLM 130353Z AUTO 29008KT 10SM CLR 16/13 A2998 RMK AO2 SLP151 T01560133=
201509130253 METAR KCLM 130253Z AUTO 33007KT 10SM CLR 17/13 A2998 RMK AO2 SLP152 T01670133 58003=
201509130153 METAR KCLM 130153Z AUTO 26006KT 10SM CLR 18/13 A2998 RMK AO2 SLP153 T01830133=
201509130053 METAR KCLM 130053Z AUTO 28005KT 10SM CLR 18/13 A3000 RMK AO2 SLP158 T01780128=
201509122353 METAR KCLM 122353Z AUTO 31003KT 10SM CLR 21/13 A2999 RMK AO2 SLP155 T02060128 10239 20183 58014=
201509122253 METAR KCLM 122253Z AUTO VRB04KT 10SM CLR 23/12 A3001 RMK AO2 SLP160 T02280122=
201509122153 METAR KCLM 122153Z AUTO 09005KT 10SM CLR 23/12 A3002 RMK AO2 SLP164 T02330122=
201509122053 METAR KCLM 122053Z AUTO 09007KT 10SM CLR 22/12 A3003 RMK AO2 SLP168 T02170122 56010=
201509121953 METAR KCLM 121953Z AUTO 10007KT 10SM CLR 21/12 A3004 RMK AO2 SLP170 T02060122=
201509121853 METAR KCLM 121853Z AUTO 11008KT 10SM CLR 21/12 A3003 RMK AO2 SLP167 T02060122=
201509121753 METAR KCLM 121753Z AUTO 10007KT 10SM CLR 19/12 A3006 RMK AO2 SLP179 T01940122 10194 20100 53005=
201509121653 METAR KCLM 121653Z AUTO 04004KT 10SM CLR 18/13 A3006 RMK AO2 SLP178 T01830128=
201509121553 METAR KCLM 121553Z AUTO 09003KT 10SM CLR 18/13 A3005 RMK AO2 SLP174 T01780128=
201509121453 METAR KCLM 121453Z AUTO 00000KT 10SM CLR 13/12 A3004 RMK AO2 SLP174 T01280122 53009=
201509121353 METAR KCLM 121353Z AUTO 00000KT 10SM CLR 11/10 A3003 RMK AO2 SLP169 T01060100=
201509121253 METAR KCLM 121253Z AUTO 00000KT 10SM CLR 11/11 A3002 RMK AO2 SLP165 T01110106=
201509121153 METAR KCLM 121153Z AUTO 00000KT 10SM CLR 12/11 A3002 RMK AO2 SLP164 T01170106 10150 20106 56001=
201509121053 METAR KCLM 121053Z AUTO 00000KT 10SM CLR 12/11 A3002 RMK AO2 SLP164 T01220106=
201509120953 METAR KCLM 120953Z AUTO 00000KT 10SM CLR 12/11 A3002 RMK AO2 SLP164 T01170106=
201509120853 METAR KCLM 120853Z AUTO 00000KT 10SM CLR 13/12 A3002 RMK AO2 SLP164 T01330117 55001=
201509120753 METAR KCLM 120753Z AUTO 25004KT 10SM CLR 15/12 A3002 RMK AO2 SLP164 T01500122 402500117=
201509120653 METAR KCLM 120653Z AUTO 22003KT 10SM CLR 14/13 A3002 RMK AO2 SLP164 T01440128=
201509120553 METAR KCLM 120553Z AUTO 22003KT 10SM CLR 14/13 A3002 RMK AO2 SLP165 T01440128 10250 20139 51005=
201509120453 METAR KCLM 120453Z AUTO 00000KT 10SM CLR 16/13 A3002 RMK AO2 SLP165 T01560128=
201509120353 METAR KCLM 120353Z AUTO 00000KT 10SM CLR 16/13 A3001 RMK AO2 SLP163 T01560128=
201509120253 METAR KCLM 120253Z AUTO 00000KT 10SM CLR 18/13 A3001 RMK AO2 SLP161 T01780133 56005=
201509120153 METAR KCLM 120153Z AUTO 00000KT 10SM CLR 23/13 A3001 RMK AO2 SLP161 T02330133=
201509120053 METAR KCLM 120053Z AUTO 03003KT 10SM CLR 24/13 A3002 RMK AO2 SLP163 T02390128=
201509112353 METAR KCLM 112353Z AUTO VRB04KT 10SM CLR 25/12 A3002 RMK AO2 SLP165 T02500122 10250 20217 58018=
201509112253 METAR KCLM 112253Z AUTO 09006KT 10SM CLR 24/12 A3004 RMK AO2 SLP170 T02390122=
201509112153 METAR KCLM 112153Z AUTO 10008KT 10SM CLR 24/13 A3006 RMK AO2 SLP178 T02390128=
201509112053 METAR KCLM 112053Z AUTO 09007KT 10SM CLR 23/13 A3007 RMK AO2 SLP183 T02280128 58012=
201509111953 METAR KCLM 111953Z AUTO 08007KT 10SM CLR 22/13 A3009 RMK AO2 SLP189 T02220128=
201509111853 METAR KCLM 111853Z AUTO 09007KT 10SM CLR 22/13 A3011 RMK AO2 SLP194 T02170128=
201509111753 METAR KCLM 111753Z AUTO 09008KT 10SM CLR 22/13 A3011 RMK AO2 SLP194 T02220128 10222 20117 50003=
201509111653 METAR KCLM 111653Z AUTO 11010KT 10SM CLR 22/13 A3011 RMK AO2 SLP195 T02170133=
201509111553 METAR KCLM 111553Z AUTO 12006KT 10SM CLR 21/13 A3010 RMK AO2 SLP193 T02110133=
201509111453 METAR KCLM 111453Z AUTO 21004KT 10SM CLR 15/12 A3010 RMK AO2 SLP192 T01500122 53007=
201509111353 METAR KCLM 111353Z AUTO 23004KT 10SM CLR 13/11 A3009 RMK AO2 SLP188 T01330111=
201509111253 METAR KCLM 111253Z AUTO 20003KT 10SM CLR 12/11 A3009 RMK AO2 SLP187 T01220106=
201509111153 METAR KCLM 111153Z AUTO 00000KT 10SM CLR 13/11 A3008 RMK AO2 SLP184 T01280106 10161 20117 51000=
201509111053 METAR KCLM 111053Z AUTO 22005KT 10SM CLR 13/11 A3008 RMK AO2 SLP184 T01280106=
201509110953 METAR KCLM 110953Z AUTO 23006KT 10SM CLR 15/11 A3008 RMK AO2 SLP185 T01500111=
201509110853 METAR KCLM 110853Z AUTO 23007KT 10SM CLR 15/11 A3008 RMK AO2 SLP184 T01500111 53001=
201509110753 METAR KCLM 110753Z AUTO 22005KT 10SM CLR 14/11 A3008 RMK AO2 SLP183 T01390111 402280100=
201509110653 METAR KCLM 110653Z AUTO 22004KT 10SM CLR 13/11 A3007 RMK AO2 SLP183 T01330111=
201509110553 METAR KCLM 110553Z AUTO 20003KT 10SM CLR 13/12 A3008 RMK AO2 SLP184 T01280117 10228 20122 50001=
201509110453 METAR KCLM 110453Z AUTO 00000KT 10SM CLR 14/12 A3008 RMK AO2 SLP186 T01390117=
201509110353 METAR KCLM 110353Z AUTO 00000KT 10SM CLR 15/12 A3007 RMK AO2 SLP184 T01500122 TSNO=
201509110253 METAR KCLM 110253Z AUTO 29003KT 10SM CLR 17/12 A3007 RMK AO2 SLP183 T01720122 55003=
201509110153 METAR KCLM 110153Z AUTO 05003KT 10SM CLR 22/12 A3007 RMK AO2 SLP182 T02220117=
201509110053 METAR KCLM 110053Z AUTO 10004KT 10SM CLR 23/12 A3007 RMK AO2 SLP184 T02280122=
201509102353 METAR KCLM 102353Z AUTO 10007KT 10SM CLR 22/13 A3008 RMK AO2 SLP186 T02220128 10228 20194 56015=
201509102253 METAR KCLM 102253Z AUTO 08006KT 10SM CLR 23/12 A3009 RMK AO2 SLP190 T02280122=
201509102153 METAR KCLM 102153Z AUTO 08005KT 10SM CLR 23/13 A3011 RMK AO2 SLP194 T02280128=
201509102053 METAR KCLM 102053Z AUTO 10008KT 10SM CLR 22/13 A3013 RMK AO2 SLP201 T02220133 58008=
201509101953 METAR KCLM 101953Z AUTO 11006KT 10SM CLR 22/13 A3014 RMK AO2 SLP205 T02170128=
201509101853 METAR KCLM 101853Z AUTO 11006KT 10SM CLR 21/13 A3015 RMK AO2 SLP208 T02110128=
201509101753 METAR KCLM 101753Z AUTO 10006KT 10SM CLR 19/13 A3015 RMK AO2 SLP208 T01940133 10200 20100 50002=
201509101653 METAR KCLM 101653Z AUTO 12008KT 10SM CLR 18/13 A3015 RMK AO2 SLP210 T01830133=
201509101553 METAR KCLM 101553Z AUTO 12006KT 10SM CLR 18/14 A3015 RMK AO2 SLP209 T01830139=
201509101453 METAR KCLM 101453Z AUTO 00000KT 10SM CLR 14/13 A3014 RMK AO2 SLP207 T01390133 53005=
201509101353 METAR KCLM 101353Z AUTO 20003KT 10SM CLR 10/09 A3013 RMK AO2 SLP204 T01000094=
201509101309 SPECI KCLM 101309Z AUTO 00000KT 10SM CLR 11/09 A3013 RMK AO2 T01060094=
201509101301 SPECI KCLM 101301Z AUTO 00000KT 2 1/2SM BR CLR 11/09 A3013 RMK AO2 T01060094=
201509101253 METAR KCLM 101253Z AUTO 00000KT 6SM BR CLR 11/10 A3013 RMK AO2 SLP202 T01060100=
201509101231 SPECI KCLM 101231Z AUTO VRB03KT 10SM SCT001 10/09 A3013 RMK AO2 T01000094=
201509101222 SPECI KCLM 101222Z AUTO 22004KT 9SM BKN001 11/10 A3013 RMK AO2 T01060100=
201509101208 SPECI KCLM 101208Z AUTO 00000KT 2SM BR OVC001 11/10 A3013 RMK AO2 T01110100=
201509101158 SPECI KCLM 101158Z AUTO 00000KT 1 1/4SM BR OVC001 11/11 A3013 RMK AO2 T01060106=
201509101153 METAR KCLM 101153Z AUTO 23003KT 1/4SM FG VV001 11/11 A3013 RMK AO2 SLP202 T01110106 10150 20111 53005=
201509101132 SPECI KCLM 101132Z AUTO 31003KT 1/4SM FG VV001 11/10 A3013 RMK AO2 T01110100=
201509101123 SPECI KCLM 101123Z AUTO 34003KT 1/2SM FG VV001 11/11 A3013 RMK AO2 T01110106=
201509101116 SPECI KCLM 101116Z AUTO 31003KT 1SM BR VV001 11/10 A3013 RMK AO2 T01110100=
201509101113 SPECI KCLM 101113Z AUTO 31003KT 2SM BR FEW001 11/10 A3013 RMK AO2 T01110100=
201509101053 METAR KCLM 101053Z AUTO 32004KT 10SM CLR 12/11 A3012 RMK AO2 SLP200 T01170106=
201509100953 METAR KCLM 100953Z AUTO 25007KT 10SM CLR 14/12 A3011 RMK AO2 SLP196 T01390122=
201509100853 METAR KCLM 100853Z AUTO 23004KT 10SM CLR 13/12 A3012 RMK AO2 SLP198 T01280117 50007=
201509100753 METAR KCLM 100753Z AUTO 17003KT 10SM CLR 14/13 A3012 RMK AO2 SLP198 T01440133 402220128=
201509100653 METAR KCLM 100653Z AUTO 28007KT 10SM CLR 14/13 A3011 RMK AO2 SLP194 T01440133=
201509100553 METAR KCLM 100553Z AUTO 28006KT 10SM CLR 16/14 A3009 RMK AO2 SLP190 T01560139 10217 20150 51008=
201509100453 METAR KCLM 100453Z AUTO 29008KT 10SM CLR 16/14 A3009 RMK AO2 SLP189 T01610139=
201509100353 METAR KCLM 100353Z AUTO 29009KT 10SM CLR 16/13 A3008 RMK AO2 SLP186 T01610133=
201509100253 METAR KCLM 100253Z AUTO 28005KT 10SM CLR 16/13 A3007 RMK AO2 SLP182 T01610128 58005=
201509100153 METAR KCLM 100153Z AUTO 30006KT 10SM FEW045 18/13 A3008 RMK AO2 SLP185 T01830128=
201509100053 METAR KCLM 100053Z AUTO 31006KT 10SM CLR 20/13 A3008 RMK AO2 SLP186 T02000128=
201509092353 METAR KCLM 092353Z AUTO 31005KT 10SM CLR 22/13 A3009 RMK AO2 SLP187 T02170133 10222 20172 56006=
201509092253 METAR KCLM 092253Z AUTO 30008KT 10SM FEW048 22/13 A3009 RMK AO2 SLP188 T02170128=
201509092153 METAR KCLM 092153Z AUTO 31007KT 10SM CLR 22/12 A3010 RMK AO2 SLP190 T02170122=
201509092053 METAR KCLM 092053Z AUTO VRB05KT 10SM CLR 21/12 A3010 RMK AO2 SLP193 T02110117 55000=
201509091953 METAR KCLM 091953Z AUTO VRB04KT 10SM CLR 20/13 A3010 RMK AO2 SLP192 T02000128=
201509091853 METAR KCLM 091853Z AUTO VRB05KT 10SM CLR 20/13 A3010 RMK AO2 SLP191 T02000133=
201509091753 METAR KCLM 091753Z AUTO 01005KT 10SM CLR 18/13 A3010 RMK AO2 SLP194 T01830128 10189 20128 53004=
201509091653 METAR KCLM 091653Z AUTO 28006KT 10SM CLR 18/09 A3010 RMK AO2 SLP191 T01830094=
201509091553 METAR KCLM 091553Z AUTO 27007KT 10SM CLR 16/10 A3009 RMK AO2 SLP189 T01610100=
201509091453 METAR KCLM 091453Z AUTO 25004KT 10SM CLR 14/11 A3009 RMK AO2 SLP190 T01440106 53004=
201509091353 METAR KCLM 091353Z AUTO 24007KT 10SM FEW014 13/10 A3008 RMK AO2 SLP186 T01330100=
201509091253 METAR KCLM 091253Z AUTO 26004KT 10SM FEW019 14/10 A3008 RMK AO2 SLP187 T01390100=
201509091230 SPECI KCLM 091230Z AUTO 25006KT 10SM SCT017 14/11 A3008 RMK AO2 T01390106=
201509091153 METAR KCLM 091153Z AUTO 25004KT 10SM BKN018 14/11 A3008 RMK AO2 SLP185 T01440111 10150 20128 51000=
201509091117 SPECI KCLM 091117Z AUTO 24008KT 10SM SCT005 14/12 A3008 RMK AO2 T01390117=
201509091102 SPECI KCLM 091102Z AUTO 26008KT 10SM BKN006 14/12 A3008 RMK AO2 CIG 004V008 T01390122=
201509091053 METAR KCLM 091053Z AUTO 27007KT 10SM SCT006 14/12 A3008 RMK AO2 SLP186 T01390122=
201509091033 SPECI KCLM 091033Z AUTO 26008KT 10SM FEW004 13/12 A3008 RMK AO2 T01330117=
201509090953 METAR KCLM 090953Z AUTO 30005KT 10SM CLR 14/12 A3008 RMK AO2 SLP185 T01390117=
201509090853 METAR KCLM 090853Z AUTO 25008KT 10SM CLR 14/12 A3008 RMK AO2 SLP187 T01440122 55003=
201509090753 METAR KCLM 090753Z AUTO 26008KT 10SM CLR 14/12 A3008 RMK AO2 SLP187 T01390122 402000128=
201509090653 METAR KCLM 090653Z AUTO 24004KT 10SM CLR 13/12 A3008 RMK AO2 SLP186 T01330122=
201509090553 METAR KCLM 090553Z AUTO 23003KT 10SM CLR 15/14 A3009 RMK AO2 SLP191 T01500139 10183 20150 53003=
201509090525 SPECI KCLM 090525Z AUTO 25005KT 10SM FEW014 15/14 A3009 RMK AO2 T01500144=
201509090453 METAR KCLM 090453Z AUTO 29007KT 10SM BKN020 16/14 A3009 RMK AO2 SLP190 T01560144=
201509090353 METAR KCLM 090353Z AUTO 31003KT 10SM SCT007 OVC023 16/14 A3008 RMK AO2 SLP187 T01610144=
201509090302 SPECI KCLM 090302Z AUTO 26006KT 10SM BKN009 17/14 A3009 RMK AO2 CIG 006V012 T01670144=
201509090253 METAR KCLM 090253Z AUTO 26006KT 10SM SCT009 16/14 A3008 RMK AO2 SLP187 T01610144 57007=
201509090245 SPECI KCLM 090245Z AUTO 29005KT 10SM FEW007 SCT013 16/14 A3009 RMK AO2 T01610144=
201509090153 METAR KCLM 090153Z AUTO 31003KT 10SM CLR 18/14 A3009 RMK AO2 SLP189 T01780144=
201509090053 METAR KCLM 090053Z AUTO 28007KT 10SM CLR 18/14 A3010 RMK AO2 SLP192 T01830144=
201509090011 SPECI KCLM 090011Z AUTO 32006KT 10SM SCT021 BKN060 18/14 A3010 RMK AO2 T01780144=
201509082353 METAR KCLM 082353Z AUTO 33006KT 10SM BKN019 BKN024 18/14 A3010 RMK AO2 SLP194 T01780144 10200 20167 56010=
201509082253 METAR KCLM 082253Z AUTO 31006KT 10SM BKN016 19/14 A3011 RMK AO2 SLP196 T01890144=
201509082220 SPECI KCLM 082220Z AUTO VRB05KT 10SM BKN019 19/14 A3012 RMK AO2 T01890139=
201509082153 METAR KCLM 082153Z AUTO 31008KT 10SM FEW016 18/14 A3012 RMK AO2 SLP200 T01830139=
201509082053 METAR KCLM 082053Z AUTO 31010G18KT 10SM BKN060 18/14 A3013 RMK AO2 SLP204 T01830144 51002=
201509081953 METAR KCLM 081953Z AUTO 31006KT 10SM BKN065 19/15 A3013 RMK AO2 SLP203 T01940150=
201509081853 METAR KCLM 081853Z AUTO 31008KT 10SM FEW008 BKN065 18/14 A3014 RMK AO2 SLP205 T01780144=
201509081753 METAR KCLM 081753Z AUTO 33011G14KT 10SM FEW006 BKN065 18/13 A3013 RMK AO2 SLP202 60000 T01780133 10189 20133 51008=
201509081653 METAR KCLM 081653Z AUTO 27005KT 10SM BKN040 18/14 A3013 RMK AO2 SLP201 T01780139=
201509081553 METAR KCLM 081553Z AUTO 32005KT 10SM SCT043 OVC050 17/13 A3011 RMK AO2 SLP198 T01670133=
201509081453 METAR KCLM 081453Z AUTO 25005KT 10SM OVC039 14/12 A3011 RMK AO2 RAB17E49 SLP195 P0000 60000 T01440122 53003=
201509081450 SPECI KCLM 081450Z AUTO 24004KT 10SM OVC039 14/13 A3010 RMK AO2 RAB17E49 P0000=
201509081441 SPECI KCLM 081441Z AUTO 20004KT 2 1/2SM -RA BR OVC039 14/12 A3011 RMK AO2 RAB17 P0000 T01390122=
201509081353 METAR KCLM 081353Z AUTO 33003KT 10SM OVC045 14/12 A3010 RMK AO2 SLP191 T01390122 $=
201509081253 METAR KCLM 081253Z AUTO 23003KT 10SM OVC050 14/12 A3010 RMK AO2 SLP192 T01390117 $=
201509081153 METAR KCLM 081153Z AUTO 00000KT 10SM OVC055 14/12 A3010 RMK AO2 SLP192 T01390117 10144 20128 56013 $=
201509081053 METAR KCLM 081053Z AUTO 00000KT 10SM OVC060 13/12 A3011 RMK AO2 SLP196 T01330117 $=
201509080953 METAR KCLM 080953Z AUTO 00000KT 10SM BKN070 OVC095 13/11 A3012 RMK AO2 SLP198 T01330111 $=
201509080853 METAR KCLM 080853Z AUTO 00000KT 10SM FEW060 SCT075 BKN090 13/11 A3014 RMK AO2 SLP205 T01280111 56013 $=
201509080753 METAR KCLM 080753Z AUTO 00000KT 10SM FEW075 OVC095 14/12 A3015 RMK AO2 SLP209 T01390117 401890089 $=
201509080653 METAR KCLM 080653Z AUTO 00000KT 10SM FEW060 OVC100 14/12 A3016 RMK AO2 SLP212 T01390117 $=
201509080553 METAR KCLM 080553Z AUTO 24004KT 10SM OVC110 14/12 A3017 RMK AO2 SLP217 T01390117 10172 20139 58001 $=
201509080453 METAR KCLM 080453Z AUTO 26004KT 10SM OVC055 15/11 A3017 RMK AO2 SLP217 T01500111 $=
201509080353 METAR KCLM 080353Z AUTO 27005KT 10SM FEW060 OVC080 15/11 A3018 RMK AO2 SLP219 T01500106 $=
201509080253 METAR KCLM 080253Z AUTO 28006KT 10SM OVC080 16/11 A3018 RMK AO2 SLP219 T01560111 56008 $=
201509080153 METAR KCLM 080153Z AUTO 30003KT 10SM OVC085 16/11 A3018 RMK AO2 SLP221 T01610111 $=
201509080053 METAR KCLM 080053Z AUTO 33006KT 10SM OVC045 17/11 A3019 RMK AO2 SLP224 T01670106 $=
201509072353 METAR KCLM 072353Z AUTO 33003KT 10SM OVC046 17/09 A3020 RMK AO2 SLP227 T01670094 10189 20150 55003 $=
201509072253 METAR KCLM 072253Z AUTO 00000KT 10SM BKN046 18/08 A3020 RMK AO2 SLP226 T01830083 $=
201509072153 METAR KCLM 072153Z AUTO 06005KT 10SM CLR 18/08 A3020 RMK AO2 SLP228 T01830083 $=
201509072053 METAR KCLM 072053Z AUTO VRB04KT 10SM BKN080 BKN110 18/09 A3021 RMK AO2 SLP230 T01830089 58001 $=
201509071953 METAR KCLM 071953Z AUTO 02004KT 10SM BKN110 17/11 A3022 RMK AO2 SLP232 T01670106 $=
201509071853 METAR KCLM 071853Z AUTO 03006KT 10SM CLR 16/10 A3022 RMK AO2 SLP233 T01560100 $=
201509071753 METAR KCLM 071753Z AUTO 35006KT 10SM CLR 16/10 A3021 RMK AO2 SLP231 T01560100 10161 20089 53002 $=
201509071653 METAR KCLM 071653Z AUTO VRB03KT 10SM CLR 14/09 A3021 RMK AO2 SLP230 T01390094 $=
201509071553 METAR KCLM 071553Z AUTO 26007KT 10SM CLR 14/09 A3021 RMK AO2 SLP229 T01390094 $=
201509071453 METAR KCLM 071453Z AUTO 28010KT 10SM CLR 13/09 A3021 RMK AO2 SLP229 T01280094 53012 $=
201509071353 METAR KCLM 071353Z AUTO 00000KT 10SM CLR 09/08 A3019 RMK AO2 SLP225 T00940083 $=
201509071253 METAR KCLM 071253Z AUTO 24005KT 10SM CLR 09/08 A3019 RMK AO2 SLP223 T00890083 $=
201509071153 METAR KCLM 071153Z AUTO 00000KT 10SM CLR 09/08 A3017 RMK AO2 SLP218 T00890078 10117 20089 58001 $=
201509071053 METAR KCLM 071053Z AUTO 24005KT 10SM BKN060 11/09 A3018 RMK AO2 SLP221 T01110094 $=
201509070953 METAR KCLM 070953Z AUTO 23004KT 10SM OVC050 11/10 A3017 RMK AO2 SLP218 T01110100 $=
201509070853 METAR KCLM 070853Z AUTO 32003KT 10SM CLR 11/09 A3017 RMK AO2 SLP219 T01110094 53002 $=
201509070753 METAR KCLM 070753Z AUTO 00000KT 10SM CLR 11/10 A3016 RMK AO2 SLP214 T01110100 401500106 $=
201509070653 METAR KCLM 070653Z AUTO 00000KT 10SM OVC060 11/10 A3016 RMK AO2 SLP215 T01110100 $=
201509070553 METAR KCLM 070553Z AUTO 00000KT 10SM OVC060 11/10 A3017 RMK AO2 SLP217 T01110100 10150 20106 50009 $=
201509070453 METAR KCLM 070453Z AUTO 00000KT 10SM BKN050 OVC060 12/10 A3017 RMK AO2 SLP218 T01170100 $=
201509070353 METAR KCLM 070353Z AUTO 27003KT 10SM BKN055 12/10 A3015 RMK AO2 SLP210 T01170100 $=
201509070253 METAR KCLM 070253Z AUTO 12003KT 10SM BKN050 13/09 A3014 RMK AO2 SLP206 T01330094 58002 $=
201509070153 METAR KCLM 070153Z AUTO 11003KT 10SM OVC048 14/09 A3016 RMK AO2 SLP212 T01440094 $=
201509070053 METAR KCLM 070053Z AUTO 12005KT 10SM OVC049 14/09 A3015 RMK AO2 SLP208 T01440089 $=
201509062353 METAR KCLM 062353Z AUTO VRB03KT 10SM OVC049 14/11 A3015 RMK AO2 SLP209 T01440106 10144 20117 58001 $=
201509062253 METAR KCLM 062253Z AUTO 00000KT 10SM OVC049 13/10 A3015 RMK AO2 SLP210 T01330100 $=
201509062232 SPECI KCLM 062232Z AUTO 03003KT 10SM SCT028 OVC049 13/11 A3015 RMK AO2 T01330106 $=
201509062208 SPECI KCLM 062208Z AUTO VRB03KT 10SM SCT008 OVC028 14/11 A3015 RMK AO2 T01390106 $=
201509062153 METAR KCLM 062153Z AUTO VRB03KT 10SM BKN007 OVC027 13/11 A3015 RMK AO2 CIG 005V009 SLP211 T01330106 $=
201509062053 METAR KCLM 062053Z AUTO VRB04KT 10SM OVC007 13/11 A3015 RMK AO2 SLP210 T01280111 52008 $=
201509061953 METAR KCLM 061953Z AUTO VRB04KT 10SM OVC007 12/11 A3014 RMK AO2 CIG 003V009 SLP208 T01220106 $=
201509061930 SPECI KCLM 061930Z AUTO VRB04KT 10SM OVC006 12/11 A3014 RMK AO2 CIG 003V009 T01170106 $=
201509061902 SPECI KCLM 061902Z AUTO 00000KT 10SM OVC004 12/11 A3013 RMK AO2 CIG 003V007 T01170106 $=
201509061853 METAR KCLM 061853Z AUTO 00000KT 10SM OVC005 12/11 A3013 RMK AO2 CIG 003V008 SLP205 T01170106 $=
201509061753 METAR KCLM 061753Z AUTO 00000KT 10SM OVC006 12/10 A3013 RMK AO2 SLP203 T01170100 10122 20111 53021 $=
201509061701 SPECI KCLM 061701Z AUTO VRB04KT 10SM OVC005 12/11 A3010 RMK AO2 CIG 003V009 T01170111 $=
201509061653 METAR KCLM 061653Z AUTO 30005KT 10SM BKN003 BKN008 OVC050 12/11 A3010 RMK AO2 CIG 003V006 SLP192 T01220111 $=
201509061644 SPECI KCLM 061644Z AUTO 31004KT 10SM BKN004 BKN012 OVC050 12/11 A3010 RMK AO2 T01170111 $=
201509061636 SPECI KCLM 061636Z AUTO 29005KT 10SM FEW004 SCT012 OVC049 12/11 A3009 RMK AO2 T01220111 $=
201509061625 SPECI KCLM 061625Z AUTO 25003KT 10SM SCT002 BKN012 OVC060 12/11 A3009 RMK AO2 T01170111 $=
201509061553 METAR KCLM 061553Z AUTO 29005KT 7SM BKN003 OVC014 12/11 A3008 RMK AO2 CIG 002V006 SLP186 T01170111 $=
201509061511 SPECI KCLM 061511Z AUTO 29006KT 10SM BKN004 OVC044 12/11 A3007 RMK AO2 CIG 002V006 T01170106 $=
201509061507 SPECI KCLM 061507Z AUTO 29006KT 10SM SCT006 OVC044 12/11 A3007 RMK AO2 T01170106 $=
201509061453 METAR KCLM 061453Z AUTO 28005KT 10SM BKN044 OVC075 12/11 A3007 RMK AO2 SLP181 T01170106 53004 $=
201509061353 METAR KCLM 061353Z AUTO 26005KT 10SM BKN048 OVC060 11/10 A3005 RMK AO2 SLP175 T01110100 $=
201509061326 SPECI KCLM 061326Z AUTO 33004KT 9SM SCT004 OVC060 11/10 A3004 RMK AO2 T01110100 $=
201509061253 METAR KCLM 061253Z AUTO 24004KT 10SM OVC002 11/11 A3005 RMK AO2 CIG 001V004 SLP176 T01110106 $=
201509061239 SPECI KCLM 061239Z AUTO 26004KT 5SM BR OVC002 11/11 A3005 RMK AO2 T01110106 $=
201509061225 SPECI KCLM 061225Z AUTO 31004KT 2 1/2SM BR OVC002 12/11 A3005 RMK AO2 VIS 1V5 T01170106 $=
201509061216 SPECI KCLM 061216Z AUTO 00000KT 1 3/4SM BR OVC002 12/11 A3005 RMK AO2 T01170106 $=
201509061153 METAR KCLM 061153Z AUTO 00000KT 4SM BR OVC002 12/11 A3005 RMK AO2 RAE50 SLP176 P0009 60040 70040 T01170111 10133 20117 56012 $=
201509061138 SPECI KCLM 061138Z AUTO 00000KT 3SM -RA BR OVC002 12/11 A3006 RMK AO2 P0009 T01170111 $=
201509061119 SPECI KCLM 061119Z AUTO 11003KT 2 1/2SM RA BR OVC002 12/11 A3006 RMK AO2 P0008 T01170106 $=
201509061102 SPECI KCLM 061102Z AUTO 07003KT 1 1/2SM +RA BR OVC002 12/11 A3006 RMK AO2 P0004 T01170111 $=
201509061053 METAR KCLM 061053Z AUTO 07004KT 2 1/2SM RA BR OVC003 12/11 A3005 RMK AO2 RAB07 SLP177 P0008 T01170106 $=
201509061046 SPECI KCLM 061046Z AUTO VRB05KT 5SM -RA BR OVC003 12/11 A3004 RMK AO2 RAB07 CIG 002V007 P0006 T01170106 $=
201509061002 SPECI KCLM 061002Z AUTO 11003KT 10SM BKN007 BKN013 OVC080 12/11 A3005 RMK AO2 CIG 003V011 T01170106 $=
201509060953 METAR KCLM 060953Z AUTO VRB03KT 10SM SCT005 BKN024 OVC080 12/11 A3005 RMK AO2 RAE38 SLP177 P0001 T01170106 $=
201509060945 SPECI KCLM 060945Z AUTO 08005KT 10SM FEW005 SCT017 OVC080 12/11 A3005 RMK AO2 RAE38 P0001 T01170106 $=
201509060918 SPECI KCLM 060918Z AUTO 12004KT 8SM -RA SCT015 BKN065 OVC080 12/11 A3007 RMK AO2 P0001 T01220106 $=
201509060903 SPECI KCLM 060903Z AUTO 13003KT 5SM -RA BR BKN015 BKN026 OVC044 12/11 A3008 RMK AO2 P0000 T01220111 $=
201509060853 METAR KCLM 060853Z AUTO 09003KT 2SM RA BR BKN015 BKN026 OVC050 12/11 A3009 RMK AO2 SLP188 P0012 60022 T01220111 58007 $=
201509060846 SPECI KCLM 060846Z AUTO 00000KT 2SM RA BR SCT017 BKN026 OVC070 12/11 A3009 RMK AO2 P0010 T01170111 $=
201509060827 SPECI KCLM 060827Z AUTO 00000KT 1 3/4SM RA BR FEW028 FEW049 OVC065 12/11 A3010 RMK AO2 P0003 T01170106 $=
201509060753 METAR KCLM 060753Z AUTO 11006KT 5SM -RA BR OVC070 12/11 A3010 RMK AO2 SLP192 P0005 T01220111 401720072 $=
201509060653 METAR KCLM 060653Z AUTO 00000KT 8SM -RA BKN065 OVC075 12/11 A3011 RMK AO2 RAB02 SLP196 P0005 T01220111 $=
201509060553 METAR KCLM 060553Z AUTO 00000KT 10SM BKN075 OVC090 13/11 A3011 RMK AO2 RAB21E50 SLP196 P0000 60000 T01280106 10161 20128 58000 $=
201509060453 METAR KCLM 060453Z AUTO 00000KT 10SM OVC100 14/10 A3012 RMK AO2 SLP198 T01440100 $=
201509060353 METAR KCLM 060353Z AUTO 28007KT 10SM OVC100 14/10 A3011 RMK AO2 SLP197 T01390100 $=
201509060253 METAR KCLM 060253Z AUTO 27009KT 10SM SCT120 14/09 A3011 RMK AO2 SLP196 T01440094 50001 $=
201509060153 METAR KCLM 060153Z AUTO 28010KT 10SM CLR 15/09 A3012 RMK AO2 SLP199 T01500089 $=
201509060053 METAR KCLM 060053Z AUTO 31009KT 10SM CLR 14/08 A3012 RMK AO2 SLP199 T01440083 $=
201509052353 METAR KCLM 052353Z AUTO 31009KT 10SM CLR 16/09 A3011 RMK AO2 SLP195 T01560089 10172 20144 50003 $=
201509052253 METAR KCLM 052253Z AUTO 31009KT 10SM CLR 16/11 A3011 RMK AO2 SLP197 T01610106 $=
201509052153 METAR KCLM 052153Z AUTO 34007KT 10SM CLR 16/11 A3011 RMK AO2 SLP195 T01610106 $=
201509052053 METAR KCLM 052053Z AUTO VRB05KT 10SM CLR 16/08 A3010 RMK AO2 SLP192 T01610083 53005 $=
201509051953 METAR KCLM 051953Z AUTO 35005KT 10SM CLR 16/08 A3009 RMK AO2 SLP188 T01560083 $=
201509051853 METAR KCLM 051853Z AUTO 01005KT 10SM CLR 16/09 A3009 RMK AO2 SLP189 T01560089 $=
201509051753 METAR KCLM 051753Z AUTO VRB04KT 10SM CLR 15/09 A3008 RMK AO2 SLP187 T01500089 10150 20072 53007 $=
201509051653 METAR KCLM 051653Z AUTO 36006KT 10SM CLR 14/09 A3007 RMK AO2 SLP184 T01440089 $=
201509051553 METAR KCLM 051553Z AUTO 00000KT 10SM CLR 13/06 A3007 RMK AO2 SLP182 T01330061 $=
201509051453 METAR KCLM 051453Z AUTO 26006KT 10SM CLR 11/06 A3006 RMK AO2 SLP181 T01110061 53013 $=
201509051353 METAR KCLM 051353Z AUTO 00000KT 10SM CLR 08/06 A3005 RMK AO2 SLP178 T00830056 $=
201509051253 METAR KCLM 051253Z AUTO 18003KT 10SM CLR 09/06 A3003 RMK AO2 SLP170 T00940056 $=
201509051153 METAR KCLM 051153Z AUTO 24010KT 10SM CLR 11/06 A3003 RMK AO2 SLP167 T01060056 10122 20106 53002 $=
201509051053 METAR KCLM 051053Z AUTO 25014KT 10SM CLR 12/06 A3002 RMK AO2 SLP166 T01170056 $=
201509050953 METAR KCLM 050953Z AUTO 25013KT 10SM FEW060 11/06 A3002 RMK AO2 SLP165 T01110056 $=
201509050853 METAR KCLM 050853Z AUTO 25012KT 10SM FEW060 11/06 A3002 RMK AO2 SLP166 T01060056 56005 $=
201509050753 METAR KCLM 050753Z AUTO 25012KT 10SM CLR 11/06 A3002 RMK AO2 SLP167 T01110056 401830056 $=
201509050653 METAR KCLM 050653Z AUTO 25013KT 10SM FEW060 12/06 A3003 RMK AO2 SLP168 T01170056 $=
201509050553 METAR KCLM 050553Z AUTO 25009KT 10SM CLR 11/06 A3003 RMK AO2 SLP171 T01110061 10183 20094 51002 $=
201509050453 METAR KCLM 050453Z AUTO 26009KT 10SM CLR 10/07 A3003 RMK AO2 SLP170 T01000072 $=
201509050353 METAR KCLM 050353Z AUTO 22003KT 10SM CLR 10/08 A3004 RMK AO2 SLP173 T01000078 $=
201509050253 METAR KCLM 050253Z AUTO 26005KT 10SM CLR 12/08 A3003 RMK AO2 SLP169 T01220078 52006 $=
201509050153 METAR KCLM 050153Z AUTO 30006KT 10SM CLR 13/08 A3002 RMK AO2 SLP168 T01330083=
201509050053 METAR KCLM 050053Z AUTO 35006KT 10SM CLR 15/07 A3001 RMK AO2 SLP164 T01500072=
201509042353 METAR KCLM 042353Z AUTO 00000KT 10SM CLR 18/05 A3001 RMK AO2 SLP162 T01830050 10183 20133 56003=
201509042253 METAR KCLM 042253Z AUTO 05004KT 10SM CLR 18/06 A3001 RMK AO2 SLP163 T01780056=
201509042153 METAR KCLM 042153Z AUTO 03005KT 10SM CLR 16/07 A3002 RMK AO2 SLP165 T01610067=
201509042053 METAR KCLM 042053Z AUTO VRB06KT 10SM CLR 16/07 A3002 RMK AO2 SLP166 T01610072 58010=
201509041953 METAR KCLM 041953Z AUTO 06004KT 10SM CLR 15/07 A3004 RMK AO2 SLP173 T01500072=
201509041853 METAR KCLM 041853Z AUTO 12004KT 10SM SCT045 14/08 A3005 RMK AO2 SLP178 T01390083=
201509041832 SPECI KCLM 041832Z AUTO VRB05KT 10SM FEW024 OVC045 14/09 A3005 RMK AO2 T01390089=
201509041753 METAR KCLM 041753Z AUTO 12006KT 10SM FEW014 BKN021 BKN042 13/09 A3005 RMK AO2 SLP176 T01330094 10139 20072 53000=
201509041746 SPECI KCLM 041746Z AUTO 12005KT 10SM BKN021 BKN042 14/10 A3005 RMK AO2 T01390100=
201509041653 METAR KCLM 041653Z AUTO 00000KT 10SM FEW017 OVC038 12/09 A3005 RMK AO2 SLP175 T01170094=
201509041640 SPECI KCLM 041640Z AUTO 00000KT 10SM SCT017 OVC036 11/09 A3005 RMK AO2 T01110089=
201509041620 SPECI KCLM 041620Z AUTO 24004KT 10SM BKN018 OVC042 10/08 A3005 RMK AO2 T01000078=
201509041610 SPECI KCLM 041610Z AUTO 23005KT 10SM FEW013 SCT018 OVC041 10/08 A3005 RMK AO2 T01000078=
201509041603 SPECI KCLM 041603Z AUTO 24006KT 10SM FEW014 BKN018 OVC039 10/07 A3005 RMK AO2 T01000072=
201509041553 METAR KCLM 041553Z AUTO 24006KT 10SM BKN014 OVC039 09/07 A3005 RMK AO2 SLP176 T00940072=
201509041510 SPECI KCLM 041510Z AUTO 24007KT 10SM OVC014 09/07 A3005 RMK AO2 T00890072=
201509041453 METAR KCLM 041453Z AUTO 24007KT 10SM BKN017 OVC023 08/07 A3005 RMK AO2 SLP176 T00830067 53006=
201509041400 SPECI KCLM 041400Z AUTO 23007KT 10SM BKN023 08/07 A3004 RMK AO2 T00780067=
201509041353 METAR KCLM 041353Z AUTO 23007KT 10SM SCT023 07/06 A3004 RMK AO2 SLP173 T00720061=
201509041307 SPECI KCLM 041307Z AUTO 23004KT 10SM SCT009 BKN043 OVC050 08/07 A3003 RMK AO2 T00780067=
201509041253 METAR KCLM 041253Z AUTO 25003KT 10SM BKN009 OVC043 08/07 A3003 RMK AO2 SLP171 T00830067=
201509041225 SPECI KCLM 041225Z AUTO 00000KT 10SM BKN009 OVC028 08/07 A3003 RMK AO2 T00780072=
201509041216 SPECI KCLM 041216Z AUTO 22003KT 10SM SCT009 OVC028 08/07 A3003 RMK AO2 T00830072=
201509041153 METAR KCLM 041153Z AUTO 22005KT 10SM BKN021 OVC026 07/07 A3003 RMK AO2 SLP170 70014 T00720067 10094 20056 53002=
201509041135 SPECI KCLM 041135Z AUTO 00000KT 10SM BKN020 BKN026 07/06 A3003 RMK AO2 T00670056=
201509041053 METAR KCLM 041053Z AUTO 22003KT 6SM BR CLR 07/06 A3002 RMK AO2 SLP167 T00670056=
201509041034 SPECI KCLM 041034Z AUTO 00000KT 10SM CLR 07/06 A3002 RMK AO2 T00670061=
201509041022 SPECI KCLM 041022Z AUTO 00000KT 2SM BR CLR 07/06 A3002 RMK AO2 VIS 3/4V5 T00670056=
201509041016 SPECI KCLM 041016Z AUTO 00000KT 1SM BR VV002 07/06 A3002 RMK AO2 VIS 1/4V5 T00670056=
201509041012 SPECI KCLM 041012Z AUTO 00000KT 3/4SM BR FEW002 FEW070 06/06 A3002 RMK AO2 VIS 1/4V5 T00610056=
201509041009 SPECI KCLM 041009Z AUTO 00000KT 1 3/4SM BR FEW070 06/06 A3002 RMK AO2 VIS 3/4V5 T00610056=
201509040953 METAR KCLM 040953Z AUTO 00000KT 8SM SCT070 07/07 A3002 RMK AO2 SLP167 T00720067=
201509040951 SPECI KCLM 040951Z AUTO 00000KT 2 1/2SM BR SCT070 07/07 A3002 RMK AO2=
201509040935 SPECI KCLM 040935Z AUTO 00000KT 3/4SM BR CLR 07/06 A3002 RMK AO2 VIS 1/2V1 3/4 T00720061=
201509040925 SPECI KCLM 040925Z AUTO 00000KT 1 3/4SM BR CLR 07/06 A3002 RMK AO2 T00670061=
201509040903 SPECI KCLM 040903Z AUTO 22003KT 3SM BR BKN065 08/07 A3002 RMK AO2 T00780067=
201509040901 SPECI KCLM 040901Z AUTO 00000KT 1 3/4SM BR BKN065 08/07 A3002 RMK AO2 T00780067=
201509040853 METAR KCLM 040853Z AUTO 00000KT 2SM BR BKN065 08/07 A3002 RMK AO2 SLP168 T00780067 50002=
201509040809 SPECI KCLM 040809Z AUTO 22005KT 10SM FEW009 08/07 A3002 RMK AO2 T00830072=
201509040802 SPECI KCLM 040802Z AUTO 22005KT 2 1/2SM BR SCT008 08/08 A3003 RMK AO2 T00830078=
201509040753 METAR KCLM 040753Z AUTO 00000KT 2 1/2SM BR BKN008 08/08 A3003 RMK AO2 SLP169 T00830078 401560072=
201509040734 SPECI KCLM 040734Z AUTO 22003KT 10SM BKN006 OVC060 09/08 A3003 RMK AO2 CIG 003V008 T00890078=
201509040714 SPECI KCLM 040714Z AUTO 20003KT 6SM BR FEW003 BKN060 08/08 A3003 RMK AO2 T00830078=
201509040653 METAR KCLM 040653Z AUTO 16003KT 10SM CLR 08/08 A3002 RMK AO2 SLP167 T00830078=
201509040553 METAR KCLM 040553Z AUTO 23006KT 10SM BKN070 OVC100 09/08 A3002 RMK AO2 SLP166 60014 T00940083 10128 20094 52002=
201509040453 METAR KCLM 040453Z AUTO 19004KT 10SM BKN055 BKN070 OVC090 10/09 A3002 RMK AO2 SLP166 T01000089=
201509040353 METAR KCLM 040353Z AUTO 00000KT 10SM BKN060 OVC090 11/10 A3001 RMK AO2 RAE45 SLP164 P0001 T01060100=
201509040253 METAR KCLM 040253Z AUTO 00000KT 9SM -RA SCT040 OVC060 12/10 A3001 RMK AO2 RAB38 SLP164 P0000 60013 T01170100 52001=
201509040153 METAR KCLM 040153Z AUTO 00000KT 10SM OVC060 12/11 A3001 RMK AO2 RAE20 SLP164 P0005 T01220106=
201509040112 SPECI KCLM 040112Z AUTO 18005KT 3SM -RA BR SCT049 OVC060 13/11 A3001 RMK AO2 P0005 T01280106=
201509040059 SPECI KCLM 040059Z AUTO 21004KT 1 3/4SM RA BR OVC050 12/11 A3001 RMK AO2 P0003 T01220106=
201509040053 METAR KCLM 040053Z AUTO 20005KT 3SM -RA BR OVC055 12/11 A3001 RMK AO2 SLP163 P0008 T01220106=
201509040042 SPECI KCLM 040042Z AUTO 19006KT 2 1/2SM RA BR FEW036 BKN050 OVC060 12/10 A3001 RMK AO2 P0007 T01170100=
201509040023 SPECI KCLM 040023Z AUTO 21007KT 1 3/4SM RA SCT036 BKN043 OVC080 12/09 A3002 RMK AO2 P0004 T01220094=
201509032353 METAR KCLM 032353Z AUTO 28006KT 7SM -RA OVC041 12/08 A3001 RMK AO2 RAE15B42 SLP164 P0000 60000 T01220078 10156 20122 53003=
201509032253 METAR KCLM 032253Z AUTO VRB03KT 10SM -RA FEW050 SCT070 OVC080 15/07 A2999 RMK AO2 RAB16 SLP157 P0000 T01500072=
201509032153 METAR KCLM 032153Z AUTO 04004KT 10SM BKN055 OVC065 14/08 A3000 RMK AO2 SLP159 T01390078=
201509032053 METAR KCLM 032053Z AUTO 01004KT 10SM BKN070 14/08 A3000 RMK AO2 SLP161 T01390083 50000=
201509031953 METAR KCLM 031953Z AUTO 12003KT 10SM OVC060 13/08 A3001 RMK AO2 SLP162 T01330083=
201509031853 METAR KCLM 031853Z AUTO 03006KT 10SM FEW070 FEW110 14/09 A3000 RMK AO2 SLP160 T01390089=
201509031753 METAR KCLM 031753Z AUTO 07003KT 10SM SCT060 14/09 A3000 RMK AO2 RAE19 SLP160 P0000 60000 T01390094 10139 20072 50002=
201509031653 METAR KCLM 031653Z AUTO 00000KT 10SM -RA BKN065 BKN090 13/09 A3001 RMK AO2 RAE25B53 SLP162 P0000 T01280089=
201509031553 METAR KCLM 031553Z AUTO 28003KT 7SM -RA BKN055 OVC070 11/09 A3002 RMK AO2 RAB01 SLP166 P0000 T01110089=
201509031453 METAR KCLM 031453Z AUTO 24004KT 10SM BKN055 OVC065 12/07 A3000 RMK AO2 SLP159 T01170072 53007=
201509031353 METAR KCLM 031353Z AUTO 22004KT 10SM BKN055 OVC070 09/07 A2999 RMK AO2 SLP155 T00940072=
201509031253 METAR KCLM 031253Z AUTO 24005KT 10SM CLR 09/07 A2998 RMK AO2 SLP153 T00890067=
201509031153 METAR KCLM 031153Z AUTO 23006KT 10SM SCT050 09/07 A2998 RMK AO2 SLP152 60001 70015 T00940067 10117 20078 52005=
201509031053 METAR KCLM 031053Z AUTO 24006KT 10SM FEW050 09/07 A2997 RMK AO2 SLP151 T00940067=
201509030953 METAR KCLM 030953Z AUTO 00000KT 10SM CLR 08/07 A2996 RMK AO2 SLP147 T00780067=
201509030853 METAR KCLM 030853Z AUTO 26007KT 10SM CLR 09/07 A2996 RMK AO2 SLP146 60001 T00940072 53001=
201509030753 METAR KCLM 030753Z AUTO 25006KT 10SM CLR 10/07 A2996 RMK AO2 SLP144 T01000072 401720083=
201509030653 METAR KCLM 030653Z AUTO 23004KT 10SM FEW050 FEW070 SCT085 11/08 A2995 RMK AO2 RAB08E49 SLP141 P0001 T01110078=
201509030553 METAR KCLM 030553Z AUTO VRB04KT 10SM BKN060 OVC080 12/08 A2996 RMK AO2 SLP144 60005 T01170083 10150 20094 51008=
201509030453 METAR KCLM 030453Z AUTO 00000KT 10SM SCT060 BKN075 11/08 A2995 RMK AO2 SLP142 T01060083=
201509030353 METAR KCLM 030353Z AUTO 29007KT 10SM FEW024 FEW031 BKN060 13/09 A2997 RMK AO2 PRESRR SLP147 T01280089=
201509030253 METAR KCLM 030253Z AUTO 25005KT 10SM CLR 13/09 A2993 RMK AO2 SLP136 60005 T01280094 53004=
201509030153 METAR KCLM 030153Z AUTO 28006KT 10SM FEW044 BKN060 14/11 A2992 RMK AO2 RAE43 SLP133 P0003 T01390106=
201509030108 SPECI KCLM 030108Z AUTO 23007KT 3SM -RA BKN049 OVC060 13/11 A2993 RMK AO2 P0001 T01330106=
201509030100 SPECI KCLM 030100Z AUTO 26006KT 1 3/4SM RA SCT047 BKN060 OVC110 13/10 A2993 RMK AO2 P0001 T01330100=
201509030053 METAR KCLM 030053Z AUTO 29009KT 8SM -RA FEW049 BKN065 BKN110 14/09 A2993 RMK AO2 RAB50 SLP134 P0002 T01390094=
201509022353 METAR KCLM 022353Z AUTO 30005KT 10SM BKN080 13/11 A2992 RMK AO2 RAB2256E37 SLP132 P0009 60009 T01280111 10172 20122 50008=
201509022334 SPECI KCLM 022334Z AUTO 20003KT 9SM -RA SCT045 BKN075 OVC085 13/11 A2991 RMK AO2 RAB2256 P0009 T01330111=
201509022326 SPECI KCLM 022326Z AUTO 16006KT 2SM -RA BR BKN049 OVC070 13/11 A2991 RMK AO2 RAB2256 P0009 T01280106=
201509022318 SPECI KCLM 022318Z AUTO 19006KT 3/4SM RA BR BKN043 BKN055 OVC070 12/10 A2992 RMK AO2 RAB2256 P0009 T01220100=
201509022305 SPECI KCLM 022305Z AUTO 28010KT 1 3/4SM RA BR BKN055 BKN075 OVC120 12/10 A2993 RMK AO2 RAB2256 P0002 T01220100=
201509022253 METAR KCLM 022253Z AUTO 29009KT 10SM BKN070 BKN110 13/09 A2992 RMK AO2 RAB2155E05 SLP131 P0000 T01330089=
201509022208 SPECI KCLM 022208Z AUTO 30007KT 10SM SCT025 BKN042 OVC055 13/10 A2992 RMK AO2 LTG DSNT E RAB2155E05 P0000 T01330100=
201509022201 SPECI KCLM 022201Z AUTO 30011KT 10SM -RA BKN025 BKN040 OVC060 13/09 A2993 RMK AO2 LTG DSNT E RAB2155 P0000 T01280089=
201509022153 METAR KCLM 022153Z AUTO 30009G18KT 10SM SCT024 OVC060 13/08 A2993 RMK AO2 LTG DSNT E RAB17E32 SLP136 P0000 T01280083=
201509022053 METAR KCLM 022053Z AUTO 33003KT 10SM FEW055 BKN080 OVC095 16/09 A2990 RMK AO2 LTG DSNT N AND W RAE49 SLP123 P0000 60000 T01610094 53007=
201509021953 METAR KCLM 021953Z AUTO 00000KT 10SM -RA SCT060 OVC075 16/09 A2989 RMK AO2 LTG DSNT NW RAB49 SLP121 P0000 T01610094=
201509021853 METAR KCLM 021853Z AUTO VRB04KT 10SM FEW075 16/11 A2988 RMK AO2 LTG DSNT SW SLP117 T01610111=
201509021753 METAR KCLM 021753Z AUTO 02005KT 10SM FEW070 16/11 A2988 RMK AO2 SLP116 T01560111 10156 20083 53004=
201509021653 METAR KCLM 021653Z AUTO 08007KT 10SM SCT070 BKN080 15/11 A2987 RMK AO2 SLP114 T01500106=
201509021553 METAR KCLM 021553Z AUTO 14006KT 10SM OVC065 13/09 A2987 RMK AO2 SLP113 T01280094=
201509021453 METAR KCLM 021453Z AUTO 28006KT 10SM SCT065 OVC075 12/09 A2986 RMK AO2 SLP112 T01220094 53019=
201509021353 METAR KCLM 021353Z AUTO 24006KT 10SM CLR 09/07 A2984 RMK AO2 SLP106 T00890072=
201509021253 METAR KCLM 021253Z AUTO 23004KT 10SM CLR 10/09 A2982 RMK AO2 SLP099 T01000089=
201509021153 METAR KCLM 021153Z AUTO 25005KT 10SM CLR 11/09 A2981 RMK AO2 SLP093 60004 70006 T01060089 10133 20106 51006=
201509021053 METAR KCLM 021053Z AUTO 27005KT 10SM BKN070 12/10 A2980 RMK AO2 RAE16B35E42 SLP091 P0001 T01170100=
201509020953 METAR KCLM 020953Z AUTO 25004KT 4SM -RA BR OVC055 13/11 A2980 RMK AO2 RAB31 SLP090 P0002 T01280106=
201509020853 METAR KCLM 020853Z AUTO 27007KT 10SM BKN060 13/11 A2979 RMK AO2 SLP087 60001 T01280106 51004=
201509020753 METAR KCLM 020753Z AUTO 23003KT 10SM FEW100 12/11 A2978 RMK AO2 SLP084 T01170111 401720117=
201509020719 SPECI KCLM 020719Z AUTO 30003KT 10SM SCT007 BKN100 12/11 A2978 RMK AO2 T01220106=
201509020653 METAR KCLM 020653Z AUTO VRB03KT 10SM SCT060 BKN090 BKN110 13/11 A2979 RMK AO2 RAE37 SLP086 P0001 T01280111=
201509020553 METAR KCLM 020553Z AUTO 23005KT 8SM -RA OVC060 13/11 A2978 RMK AO2 RAB26 SLP083 P0001 60001 T01330111 10167 20128 53008=
201509020453 METAR KCLM 020453Z AUTO 00000KT 10SM FEW060 BKN070 OVC110 13/11 A2977 RMK AO2 SLP079 T01280111=
201509020353 METAR KCLM 020353Z AUTO 15003KT 10SM SCT075 13/11 A2976 RMK AO2 SLP077 T01330111=
201509020253 METAR KCLM 020253Z AUTO 26003KT 10SM BKN036 OVC080 14/12 A2975 RMK AO2 SLP075 60000 T01390117 58005=
201509020153 METAR KCLM 020153Z AUTO 00000KT 10SM BKN033 OVC042 15/12 A2976 RMK AO2 RAE28 SLP078 P0000 T01500117=
201509020053 METAR KCLM 020053Z AUTO 00000KT 10SM -RA OVC034 16/12 A2977 RMK AO2 RAB35 SLP079 P0000 T01560117=
201509012353 METAR KCLM 012353Z AUTO 00000KT 10SM FEW039 BKN065 17/12 A2977 RMK AO2 SLP080 60001 T01670117 10172 20139 58014 $=
201509012253 METAR KCLM 012253Z AUTO 00000KT 10SM OVC065 14/12 A2979 RMK AO2 SLP087 T01440122=
201509012153 METAR KCLM 012153Z AUTO 09005KT 10SM SCT070 17/12 A2980 RMK AO2 SLP089 T01720122=
201509012053 METAR KCLM 012053Z AUTO 08004KT 10SM OVC065 17/12 A2981 RMK AO2 SLP094 60001 T01670117 58008=
201509011953 METAR KCLM 011953Z AUTO 10004KT 10SM FEW029 SCT041 BKN075 17/12 A2982 RMK AO2 SLP099 T01670122=
201509011853 METAR KCLM 011853Z AUTO 01004KT 10SM FEW002 BKN026 BKN090 16/13 A2983 RMK AO2 RAE24 SLP102 P0001 T01560133=
201509011845 SPECI KCLM 011845Z AUTO 00000KT 10SM FEW002 BKN026 BKN090 15/14 A2983 RMK AO2 RAE24 P0001 T01500139=
201509011832 SPECI KCLM 011832Z AUTO 04003KT 7SM SCT002 SCT021 BKN039 15/14 A2983 RMK AO2 RAE24 P0001 T01500139=
201509011821 SPECI KCLM 011821Z AUTO VRB03KT 3SM -RA BR BKN002 OVC037 15/14 A2983 RMK AO2 P0001 T01500139=
201509011817 SPECI KCLM 011817Z AUTO 04004KT 2 1/2SM -RA BR SCT002 OVC037 15/14 A2983 RMK AO2 P0001 T01500139=
201509011756 SPECI KCLM 011756Z AUTO 30004KT 1 3/4SM -RA BR FEW002 OVC035 14/13 A2984 RMK AO2 P0001 T01440133=
201509011753 METAR KCLM 011753Z AUTO 34003KT 2 1/2SM -RA BR OVC035 14/13 A2984 RMK AO2 RAB32 SLP103 P0000 60000 T01390133 10167 20128 53000=
201509011744 SPECI KCLM 011744Z AUTO 34005KT 2 1/2SM -RA BR BKN034 OVC060 14/13 A2983 RMK AO2 RAB32 P0000 T01440128=
201509011653 METAR KCLM 011653Z AUTO 00000KT 9SM OVC035 16/14 A2982 RMK AO2 SLP098 T01560144=
201509011553 METAR KCLM 011553Z AUTO 19003KT 10SM BKN032 OVC039 15/13 A2983 RMK AO2 SLP102 T01500133=
201509011453 METAR KCLM 011453Z AUTO 14003KT 10SM OVC070 14/13 A2983 RMK AO2 SLP101 60000 T01390128 56010=
201509011406 SPECI KCLM 011406Z AUTO 21003KT 3SM BR OVC070 13/13 A2984 RMK AO2 T01330128=
201509011355 SPECI KCLM 011355Z AUTO 00000KT 1 3/4SM BR BKN070 13/12 A2984 RMK AO2 VIS 1/2V5 T01330122=
201509011353 METAR KCLM 011353Z AUTO 00000KT 5SM BR BKN070 13/12 A2984 RMK AO2 SLP105 T01330122=
201509011326 SPECI KCLM 011326Z AUTO 00000KT 10SM BKN070 13/12 A2984 RMK AO2 T01330122=
201509011316 SPECI KCLM 011316Z AUTO 00000KT 2SM BR BKN070 13/13 A2985 RMK AO2 T01330128=
201509011253 METAR KCLM 011253Z AUTO 15003KT 10SM FEW009 SCT060 BKN075 13/13 A2985 RMK AO2 RAE05 SLP108 P0000 T01330128=
201509011245 SPECI KCLM 011245Z AUTO 12003KT 10SM SCT007 BKN065 OVC075 13/13 A2985 RMK AO2 RAE05 P0000 T01330128=
201509011153 METAR KCLM 011153Z AUTO 32003KT 4SM -RA BR BKN007 OVC012 13/13 A2986 RMK AO2 SLP112 P0009 60026 70029 T01330128 10156 20133 51007=
201509011139 SPECI KCLM 011139Z AUTO 29005KT 1SM +RA BR BKN005 BKN010 OVC014 14/13 A2987 RMK AO2 P0007 T01390128=
201509011131 SPECI KCLM 011131Z AUTO 31003KT 2 1/2SM -RA BR BKN005 BKN010 OVC030 14/13 A2986 RMK AO2 CIG 003V008 P0003 T01390128=
201509011116 SPECI KCLM 011116Z AUTO 00000KT 4SM -RA BR FEW004 BKN010 OVC016 14/13 A2986 RMK AO2 CIG 008V012 P0001 T01390133=
201509011100 SPECI KCLM 011100Z AUTO 00000KT 2 1/2SM -RA BR FEW004 BKN010 OVC017 14/13 A2986 RMK AO2 P0000 T01390133=
201509011053 METAR KCLM 011053Z AUTO 00000KT 3SM -RA BR FEW004 SCT012 OVC017 14/13 A2986 RMK AO2 SLP112 P0008 T01390133=
201509011043 SPECI KCLM 011043Z AUTO 00000KT 2SM RA BR FEW004 BKN017 OVC022 14/13 A2986 RMK AO2 P0006 T01390133=
201509010953 METAR KCLM 010953Z AUTO 00000KT 1SM RA BR BKN015 OVC019 14/13 A2985 RMK AO2 SLP108 P0009 T01440133=
201509010939 SPECI KCLM 010939Z AUTO 20004KT 1SM RA BR BKN018 BKN029 OVC038 14/13 A2985 RMK AO2 P0003 T01440133=
201509010932 SPECI KCLM 010932Z AUTO 21003KT 1 3/4SM RA BR FEW018 SCT030 OVC038 14/13 A2984 RMK AO2 P0001 T01390128=
201509010853 METAR KCLM 010853Z AUTO 32003KT 5SM -RA BR FEW003 OVC045 13/12 A2984 RMK AO2 RAB25 SLP105 P0000 60000 T01330122 53006=
201509010753 METAR KCLM 010753Z AUTO 18003KT 10SM SCT060 OVC080 16/13 A2982 RMK AO2 SLP097 T01560128 401830128=
201509010653 METAR KCLM 010653Z AUTO 17006KT 10SM FEW025 SCT034 BKN060 14/12 A2983 RMK AO2 SLP100 T01440122=
201509010553 METAR KCLM 010553Z AUTO 10004KT 10SM SCT036 SCT100 14/12 A2982 RMK AO2 SLP098 60000 T01390122 10161 20133 58003=
201509010453 METAR KCLM 010453Z AUTO 12006KT 10SM FEW041 SCT055 BKN090 16/13 A2984 RMK AO2 SLP104 T01560128=
201509010353 METAR KCLM 010353Z AUTO 16006KT 10SM FEW060 SCT110 16/13 A2983 RMK AO2 SLP102 T01560128=
201509010253 METAR KCLM 010253Z AUTO 15008KT 10SM FEW034 OVC055 16/13 A2983 RMK AO2 SLP101 60000 T01610128 58013=
201509010153 METAR KCLM 010153Z AUTO 10005KT 10SM FEW038 OVC060 16/13 A2984 RMK AO2 SLP105 T01610133=
201509010053 METAR KCLM 010053Z AUTO 12005KT 10SM FEW007 OVC060 16/13 A2987 RMK AO2 RAE18 SLP114 P0000 T01560133=
201509010046 SPECI KCLM 010046Z AUTO 10004KT 10SM FEW007 SCT021 OVC060 16/13 A2987 RMK AO2 RAE18 P0000 T01560133=
201509010032 SPECI KCLM 010032Z AUTO 09004KT 10SM FEW007 BKN018 OVC060 16/13 A2987 RMK AO2 RAE18 P0000 T01560133=

# No short TAF reports from KCLM in databse.

###################################
#  large TAF from KCLM
###################################
201509302320 TAF KCLM 302320Z 0100/0124 31007KT P6SM SKC FM010900 VRB04KT P6SM
                       SKC FM012100 35005KT P6SM SKC=
201509301722 TAF KCLM 301722Z 3018/0118 30005KT P6SM SKC FM010100 28004KT P6SM
                       SKC=
201509301120 TAF KCLM 301120Z 3012/0112 23004KT P6SM SKC FM301700 35005KT P6SM
                       SKC FM010100 28004KT P6SM SKC=
201509300520 TAF KCLM 300520Z 3006/0106 23004KT P6SM SKC FM301700 35005KT P6SM
                       SKC FM010100 28004KT P6SM SKC=
201509292320 TAF KCLM 292320Z 3000/3024 08005KT P6SM SKC FM301000 26006KT P6SM
                       VCFG SCT002
                      TEMPO 3012/3016 1SM BR BKN002=
201509291720 TAF KCLM 291720Z 2918/3018 VRB04KT P6SM SKC FM301000 26006KT P6SM
                       VCFG SCT002
                      TEMPO 3012/3016 1SM BR BKN002=
201509291120 TAF KCLM 291120Z 2912/3012 23006KT P6SM SKC FM291700 07006KT P6SM
                       SKC FM300200 22004KT P6SM SKC=
201509290524 TAF KCLM 290524Z 2906/3006 23006KT P6SM SKC FM291700 07006KT P6SM
                       SKC FM300200 22004KT P6SM SKC=
201509282320 TAF KCLM 282320Z 2900/2924 06005KT P6SM SKC FM290400 VRB03KT P6SM
                       SKC FM291900 07006KT P6SM SKC=
201509281720 TAF KCLM 281720Z 2818/2918 VRB04KT P6SM SKC FM282100 06005KT P6SM
                       SKC FM290300 23004KT P6SM SKC=
201509281120 TAF KCLM 281120Z 2812/2912 22005KT P6SM SKC FM281600 08004KT P6SM
                       SKC FM282300 VRB03KT P6SM SKC FM290300 23004KT
                       P6SM SKC=
201509280521 TAF KCLM 280521Z 2806/2906 23005KT P6SM SKC FM281600 08004KT P6SM
                       SKC FM282300 VRB03KT P6SM SKC FM290300 24004KT
                       P6SM SKC=
201509272320 TAF KCLM 272320Z 2800/2824 07004KT P6SM SKC FM280300 24004KT P6SM
                       SKC FM281800 08004KT P6SM SKC=
201509271720 TAF KCLM 271720Z 2718/2818 10005KT P6SM SKC FM280300 VRB03KT P6SM
                       SKC=
201509271120 TAF KCLM 271120Z 2712/2812 22005KT P6SM SKC FM271800 08005KT P6SM
                       SKC FM280200 VRB03KT P6SM SKC=
201509270520 TAF KCLM 270520Z 2706/2806 27008KT P6SM SKC FM271000 28003KT P6SM
                       SKC FM271800 08005KT P6SM SKC=
201509262320 TAF KCLM 262320Z 2700/2724 27003KT P6SM SKC FM270300 27009KT P6SM
                       SKC FM271000 28003KT P6SM SKC=
201509261728 TAF KCLM 261728Z 2618/2718 28006KT P6SM SKC FM262200 32012G18KT
                       P6SM SKC FM270800 25004KT P6SM SKC=
201509261120 TAF KCLM 261120Z 2612/2712 26010KT P6SM SKC FM261700 33008KT P6SM
                       SCT060 FM270100 26006KT P6SM SKC=
201509260523 TAF KCLM 260523Z 2606/2706 25005KT P6SM SCT150=
201509252320 TAF KCLM 252320Z 2600/2624 02003KT P6SM OVC080 FM260400 29005KT
                       P6SM SKC=
201509251720 TAF KCLM 251720Z 2518/2618 00000KT P6SM OVC080 FM252200 30006KT
                       P6SM BKN050 BKN120 FM260600 00000KT P6SM
                       SCT050=
201509251243 TAF AMD KCLM 251243Z 2513/2612 VRB03KT P6SM SCT005 OVC060
                      TEMPO 2513/2516 1SM -RA BR BKN006 OVC035
                       FM252200 30006KT P6SM BKN050 BKN120 FM260600
                       00000KT P6SM SCT050=
201509251120 TAF KCLM 251120Z 2512/2612 VRB03KT P6SM SCT005 OVC060
                      TEMPO 2512/2516 5SM -RA BR BKN005 OVC040
                       FM252200 30006KT P6SM BKN050 BKN120 FM260600
                       00000KT P6SM SCT050=
201509250914 TAF AMD KCLM 250914Z 2509/2606 VRB03KT P6SM SCT020 OVC050
                      TEMPO 2509/2513 5SM -RA BR BKN020 OVC040
                       FM252200 30006KT P6SM SCT040 BKN120=
201509250520 TAF KCLM 250520Z 2506/2606 30005KT 3SM -RA BR SCT007 BKN015 OVC030
                       TEMPO 2506/2509 1SM RA BR BKN007 OVC012
                       FM250900 33006KT 5SM -RA BR SCT015 OVC030
                       TEMPO 2509/2512 3SM -RA BR BKN012 OVC030
                       FM251200 30006KT P6SM VCSH SCT015 BKN040
                       FM252200 30006KT P6SM SCT040 BKN120=
201509250311 TAF AMD KCLM 250311Z 2503/2524 24004KT 4SM -RA BR SCT020 OVC040
                       TEMPO 2503/2506 2SM -RA BR BKN020 OVC040
                       FM250600 VRB03KT 2SM -RA BR OVC015 FM251600
                       27005KT P6SM BKN015 BKN050 OVC100 FM251900
                       32006KT P6SM SCT020 BKN050 BKN100=
201509250220 TAF AMD KCLM 250220Z 2502/2524 VRB03KT P6SM OVC022 FM250600 VRB03KT
                       3SM -RA BR OVC015 FM251600 27005KT P6SM
                       BKN015 BKN050 OVC100 FM251900 32006KT P6SM
                       SCT020 BKN050 BKN100=
201509242328 TAF KCLM 242328Z 2500/2524 32007KT P6SM OVC070 FM250200 27005KT
                       P6SM -RA OVC040 FM250500 26005KT 4SM -RA
                       BR BKN025 OVC050 FM251200 27005KT P6SM BKN050
                       OVC100 FM251800 32006KT P6SM BKN100=
201509241735 TAF KCLM 241735Z 2418/2518 00000KT P6SM SCT100 BKN250 FM242100
                       VRB04KT P6SM BKN050 OVC090
                      TEMPO 2422/2424 -RA OVC050 FM250000 VRB04KT
                       4SM -RA BKN015 OVC035 FM250600 26005KT P6SM
                       -SHRA SCT035 BKN050 FM251300 26005KT P6SM
                       SCT050=
201509241120 TAF KCLM 241120Z 2412/2512 00000KT P6SM SCT060 BKN120 BKN250 FM241700
                       09006KT P6SM BKN050 OVC120 FM250000 VRB04KT
                       P6SM -RA BKN020 OVC040=
201509240520 TAF KCLM 240520Z 2406/2506 VRB03KT P6SM BKN060 OVC120 FM241800
                       VRB03KT P6SM OVC050
                      TEMPO 2420/2424 -RA=
201509232320 TAF KCLM 232320Z 2400/2424 00000KT P6SM SCT090 BKN200 FM240400
                       VRB03KT P6SM BKN060 OVC120 FM241800 VRB03KT
                       P6SM OVC050
                      TEMPO 2420/2424 -RA=
201509231721 TAF KCLM 231721Z 2318/2418 00000KT P6SM FEW100 BKN250 FM232000
                       VRB03KT P6SM SCT050 BKN100=
201509231120 TAF KCLM 231120Z 2312/2412 24007KT P6SM SCT120 BKN200 FM232000
                       09006KT P6SM SCT050 BKN120 FM240000 VRB03KT
                       P6SM BKN050 OVC120=
201509230520 TAF KCLM 230520Z 2306/2406 25005KT P6SM BKN060 FM231400 VRB03KT
                       P6SM BKN050 BKN120=
201509230223 TAF AMD KCLM 230223Z 2302/2324 00000KT P6SM BKN050 BKN200 FM231400
                       VRB03KT P6SM BKN050 BKN120=
201509222321 TAF KCLM 222321Z 2300/2324 VRB05KT P6SM SCT200 FM231400 VRB03KT
                       P6SM BKN050 BKN120=
201509221724 TAF KCLM 221724Z 2218/2318 26006KT P6SM SKC FM230000 27007KT P6SM
                       SCT050 SCT150 FM231400 VRB03KT P6SM BKN050
                       BKN120=
201509221120 TAF KCLM 221120Z 2212/2312 VRB03KT P6SM SKC FM230000 27007KT P6SM
                       SCT050 SCT150=
201509220520 TAF KCLM 220520Z 2206/2306 28005KT P6SM SCT250 FM220800 24005KT
                       P6SM SCT250 FM221900 32006KT P6SM SKC=
201509212320 TAF KCLM 212320Z 2200/2224 09006KT P6SM SKC FM220300 28005KT P6SM
                       SCT250 FM220800 24005KT P6SM SCT250 FM221900
                       32006KT P6SM SKC=
201509211723 TAF KCLM 211723Z 2118/2218 27005KT P6SM SCT250 FM220300 28005KT
                       P6SM SCT250 FM220800 24005KT P6SM SCT250=
201509211407 TAF AMD KCLM 211407Z 2114/2212 22005KT P6SM SCT060 FM211700 33006KT
                       P6SM SKC FM220300 28005KT P6SM SKC=
201509211120 TAF KCLM 211120Z 2112/2212 26008KT P6SM SCT250
                      TEMPO 2112/2116 3SM BR BKN001 BKN250 FM211700
                       33006KT P6SM SKC FM220300 28005KT P6SM SKC=
201509210520 TAF KCLM 210520Z 2106/2206 28010KT P6SM SKC FM211100 27006KT P6SM
                       BKN015 FM211700 34006KT P6SM SKC=
201509202338 TAF KCLM 202338Z 2100/2124 30015G25KT P6SM -RA SCT006 BKN025 OVC050
                       TEMPO 2100/2103 4SM -RA BR BKN006 OVC020
                       FM210300 28015KT P6SM VCSH SCT030 BKN050
                       TEMPO 2103/2106 28015G25KT FM210600 28008KT
                       P6SM FEW018 SCT050
                      TEMPO 2112/2116 BKN018 BKN050 FM211800 35006KT
                       P6SM SKC=
201509202252 TAF AMD KCLM 202252Z 2023/2118 VRB05KT P6SM -RA SCT030 OVC050 FM210100
                       30015G25KT P6SM -SHRA BKN030 OVC050 FM210200
                       28015G25KT P6SM VCSH SCT035 SCT050 FM210600
                       28008KT P6SM SCT035 SCT050=
201509202033 TAF AMD KCLM 202033Z 2021/2118 VRB05KT P6SM FEW010 SCT030 OVC050
                       TEMPO 2021/2022 -RA FEW010 BKN030 OVC050
                       FM202200 30015G25KT P6SM -SHRA BKN030 OVC050
                       FM210200 28015G25KT P6SM VCSH SCT035 SCT050
                       FM210600 28008KT P6SM SCT035 SCT050=
201509201738 TAF KCLM 201738Z 2018/2118 VRB05KT P6SM SCT035 SCT050
                      TEMPO 2018/2020 -RA BKN035 BKN050 FM202000
                       30012KT P6SM -RA FEW006 SCT015 OVC030
                      TEMPO 2020/2022 4SM -RA BR FEW006 BKN015
                       OVC030 FM202200 30015G25KT P6SM -SHRA BKN030
                       OVC050 FM210200 28015G25KT P6SM VCSH SCT035
                       SCT050 FM210600 28008KT P6SM SCT035 SCT050=
201509201438 TAF AMD KCLM 201438Z 2015/2112 VRB05KT P6SM SCT035 OVC060
                      TEMPO 2015/2018 -RA BKN035 OVC060 FM201800
                       31007KT P6SM -RA SCT015 OVC035
                      TEMPO 2018/2021 4SM -RA BR BKN015 OVC035
                       FM202100 29013KT 4SM -RA BR SCT006 OVC015
                       TEMPO 2021/2024 29013G23KT BKN006 OVC015
                       FM210000 29020G30KT P6SM SCT015 BKN030 OVC050
                       PROB30 2100/2106 -SHRA=
201509201120 TAF KCLM 201120Z 2012/2112 VRB03KT P6SM SCT035 BKN050 OVC070 FM201600
                       29005KT P6SM -RA BKN020 OVC030 FM202100
                       30015G25KT 5SM -RA BR BKN010 OVC025 FM210000
                       29020G30KT P6SM BKN035 OVC050=
201509200538 TAF KCLM 200538Z 2006/2106 VRB03KT P6SM FEW035 SCT070 SCT110 FM201000
                       VRB03KT P6SM SCT035 BKN050 OVC070 FM201600
                       29005KT 5SM -RA BR BKN020 OVC030 FM202100
                       30015G25KT P6SM -RA SCT015 BKN030 OVC050
                       FM210000 29020G30KT P6SM BKN035 OVC050=
201509192340 TAF KCLM 192340Z 2000/2024 VRB05KT P6SM FEW035 SCT070 SCT110 FM200600
                       VRB05KT P6SM SCT035 BKN050 OVC110
                      PROB30 2009/2012 -RA FM201200 29006KT P6SM
                       -RA SCT015 OVC035 FM201600 29006KT 4SM -RA
                       BR SCT006 OVC015 FM202100 29015KT P6SM -SHRA
                       SCT015 BKN030 OVC050
                      TEMPO 2021/2024 29015G25KT=
201509192043 TAF AMD KCLM 192043Z 1921/2018 VRB03KT P6SM SCT035 OVC070 FM200600
                       VRB05KT P6SM BKN025 BKN050 OVC110 FM201400
                       29006KT 4SM -RA BR SCT006 OVC015=
201509191748 TAF KCLM 191748Z 1918/2018 29005KT 4SM -RA BR SCT003 BKN020 OVC050
                       TEMPO 1918/1922 BKN003 OVC020 FM192200 29005KT
                       6SM -RA BR SCT009 BKN025 OVC050 FM200600
                       VRB05KT P6SM BKN025 BKN050 OVC110 FM201400
                       29006KT 4SM -RA BR SCT006 OVC015=
201509191653 TAF AMD KCLM 191653Z 1917/2012 VRB03KT P6SM -RA FEW003 SCT020 OVC050
                       TEMPO 1917/1918 4SM -RA BR FEW003 OVC020
                       FM191900 VRB04KT P6SM -RA BKN025 OVC050=
201509191120 TAF KCLM 191120Z 1912/2012 VRB03KT P6SM SCT050 BKN100 FM191700
                       VRB03KT P6SM -RA OVC050 FM191900 VRB04KT
                       P6SM -RA BKN025 OVC050=
201509190534 TAF KCLM 190534Z 1906/2006 VRB03KT P6SM OVC050 FM191200 VRB03KT
                       P6SM SCT025 OVC050 FM191700 VRB03KT 6SM
                       -RA BR OVC030=
201509190204 TAF AMD KCLM 190204Z 1902/1924 29003KT P6SM VCSH BKN050 OVC070
                       FM190600 VRB03KT P6SM FEW028 BKN050 OVC200
                       FM191200 VRB03KT P6SM SCT025 OVC050
                      PROB30 1912/1918 -RA OVC025 FM191800 VRB03KT
                       6SM -RA BR FEW009 OVC025=
201509182343 TAF KCLM 182343Z 1900/1924 VRB03KT P6SM VCSH SCT035 OVC070
                      TEMPO 1900/1902 -RA FM190600 VRB03KT P6SM
                       FEW028 BKN070 OVC200 FM191200 VRB03KT P6SM
                       SCT025 OVC050
                      PROB30 1912/1918 -RA OVC025 FM191800 VRB03KT
                       6SM -RA BR FEW009 OVC025=
201509182107 TAF AMD KCLM 182107Z 1821/1918 VRB03KT P6SM SCT030 BKN070 OVC130
                       TEMPO 1821/1824 -RA FM190600 VRB03KT 6SM
                       BR SCT015 BKN025 OVC050 FM191200 VRB03KT
                       P6SM SCT025 BKN070 OVC110=
201509181830 TAF AMD KCLM 181830Z 1819/1918 VRB03KT P6SM SCT005 BKN070 OVC150
                       TEMPO 1819/1820 3SM BR BKN005 OVC070 FM182000
                       VRB03KT 4SM -RA BR BKN009 BKN025 OVC050
                       FM190600 VRB03KT 6SM BR SCT015 BKN025 OVC050
                       FM191200 VRB03KT P6SM SCT025 BKN070 OVC110=
201509181745 TAF KCLM 181745Z 1818/1918 VRB03KT 4SM BR BKN070 OVC150
                      TEMPO 1818/1820 1 1/2SM BR VV001 FM182000
                       VRB03KT 4SM -RA BR BKN009 BKN025 OVC050
                       FM190600 VRB03KT 6SM BR SCT015 BKN025 OVC050
                       FM191200 VRB03KT P6SM SCT025 BKN070 OVC110=
201509181126 TAF KCLM 181126Z 1812/1912 VRB03KT P6SM OVC080 FM181900 VRB03KT
                       P6SM -RA SCT025 OVC060 FM190200 VRB03KT
                       P6SM SCT025 OVC050=
201509180524 TAF KCLM 180524Z 1806/1906 VRB03KT P6SM SCT025 SCT080 BKN250 FM180800
                       VRB03KT P6SM SCT025 BKN050 FM181900 VRB03KT
                       P6SM -RA SCT025 OVC050 FM190200 VRB03KT
                       P6SM BKN025 OVC050=
201509172325 TAF KCLM 172325Z 1800/1824 VRB03KT P6SM BKN028 BKN035 OVC080 FM180200
                       27005KT P6SM SCT035 BKN060 FM180800 VRB03KT
                       P6SM SCT020 BKN050 FM181400 VRB03KT P6SM
                       SCT025 OVC050=
201509171728 TAF KCLM 171728Z 1718/1818 26004KT P6SM VCSH BKN012 OVC019 FM172100
                       26005KT P6SM VCSH SCT025 BKN050 FM180000
                       32006KT P6SM BKN060 FM180800 VRB03KT P6SM
                       SCT020 BKN050=
201509171648 TAF AMD KCLM 171648Z 1717/1812 26005KT P6SM VCSH OVC013 FM172100
                       26005KT P6SM SCT025 BKN050 FM180000 32006KT
                       P6SM BKN080=
201509171215 TAF AMD KCLM 171215Z 1712/1812 26004KT P6SM VCSH SCT005 BKN060
                       TEMPO 1712/1715 BKN003 FM171800 VRB05KT
                       P6SM BKN060 FM172100 32006KT P6SM BKN080=
201509171124 TAF KCLM 171124Z 1712/1812 23004KT P6SM VCSH SCT012 BKN060 FM171800
                       VRB05KT P6SM BKN060 FM172100 32006KT P6SM
                       BKN080=
201509170726 TAF AMD KCLM 170726Z 1707/1806 VRB03KT P6SM -RA SCT035 OVC060
                      TEMPO 1707/1711 4SM -RA BR BKN030 OVC050
                       FM171100 00000KT 4SM -RA BR OVC025 FM171600
                       VRB03KT P6SM VCSH BKN025 BKN050 FM172100
                       32005KT P6SM SCT025 BKN050=
201509170615 TAF AMD KCLM 170615Z 1706/1806 VRB03KT 4SM -RA BR BKN030 OVC060
                       FM171100 00000KT 4SM -RA BR OVC020 FM171600
                       VRB03KT P6SM VCSH BKN025 BKN050 FM172100
                       32005KT P6SM SCT025 BKN050=
201509170527 TAF KCLM 170527Z 1706/1806 VRB03KT 6SM -RA OVC060 FM171100 00000KT
                       4SM -RA BR OVC020 FM171600 VRB03KT P6SM
                       VCSH BKN025 BKN050 FM172100 32005KT P6SM
                       SCT025 BKN050=
201509162322 TAF KCLM 162322Z 1700/1724 00000KT P6SM BKN080 FM170600 VRB03KT
                       6SM -RA OVC040 FM171500 VRB03KT P6SM -SHRA
                       BKN025 BKN050 FM172100 32005KT P6SM SCT025
                       BKN050=
201509161720 TAF KCLM 161720Z 1618/1718 35004KT P6SM BKN110 FM162100 VRB03KT
                       P6SM BKN100 OVC200 FM170400 VRB03KT P6SM
                       -RA OVC040=
201509161130 TAF KCLM 161130Z 1612/1712 VRB03KT P6SM SCT050 BKN100 OVC200 FM161400
                       VRB03KT P6SM SCT100 BKN200 FM162100 VRB03KT
                       P6SM BKN100 OVC200 FM170400 VRB03KT P6SM
                       -RA OVC040=
201509160539 TAF KCLM 160539Z 1606/1706 VRB03KT P6SM BKN050 OVC080 FM160900
                       VRB03KT P6SM SCT050 BKN100 OVC200 FM161400
                       VRB03KT P6SM SCT100 BKN200 FM162300 VRB03KT
                       P6SM BKN100 OVC200 FM170500 VRB03KT P6SM
                       -RA OVC045=
201509152320 TAF KCLM 152320Z 1600/1624 04004KT P6SM VCSH BKN050 BKN150 FM160700
                       VRB03KT P6SM BKN050 BKN150 FM161900 08004KT
                       P6SM BKN200=
201509151721 TAF KCLM 151721Z 1518/1618 VRB04KT P6SM SCT060 BKN200 FM152000
                       VRB04KT P6SM VCSH BKN050 BKN100 FM160700
                       VRB03KT P6SM VCSH OVC050=
201509151136 TAF KCLM 151136Z 1512/1612 24004KT P6SM SCT200 FM152000 VRB03KT
                       P6SM SCT050 SCT120 BKN200 FM160700 VRB03KT
                       P6SM SCT050 BKN100 OVC200=
201509150542 TAF KCLM 150542Z 1506/1606 24004KT P6SM SCT060 SCT200 FM152000
                       VRB03KT P6SM SCT050 BKN120 BKN200=
201509142320 TAF KCLM 142320Z 1500/1524 08003KT P6SM FEW080 FM150200 29010KT
                       P6SM SCT060 FM150800 24004KT P6SM SCT050
                       FM152000 VRB03KT P6SM SCT050 BKN120=
201509141726 TAF KCLM 141726Z 1418/1518 00000KT P6SM OVC150 FM142000 32005KT
                       P6SM BKN050 OVC150 FM150100 29010KT P6SM
                       SCT060 FM150800 24004KT P6SM SCT050=
201509141138 TAF KCLM 141138Z 1412/1512 VRB03KT P6SM SCT060 FM141900 32008KT
                       P6SM BKN040 BKN060 FM150200 29010KT P6SM
                       SCT060=
201509140532 TAF KCLM 140532Z 1406/1506 28008KT P6SM SCT060 FM141800 32008KT
                       P6SM BKN040 BKN100=
201509132320 TAF KCLM 132320Z 1400/1424 29012G20KT P6SM BKN250 FM140900 28008KT
                       P6SM BKN009 OVC060 FM141800 34008KT P6SM
                       BKN040 BKN100=
201509131721 TAF KCLM 131721Z 1318/1418 34008KT P6SM SCT250 FM140100 29012KT
                       P6SM SCT250 FM140900 28008KT P6SM BKN009=
201509131134 TAF KCLM 131134Z 1312/1412 28008KT P6SM SCT006
                      TEMPO 1314/1317 BKN006 FM131800 31010KT P6SM
                       SCT250 FM140900 28008KT P6SM BKN009=
201509130532 TAF KCLM 130532Z 1306/1406 28008KT P6SM SKC FM131000 28008KT P6SM
                       OVC008 FM131800 31012KT P6SM BKN012 FM132000
                       31014KT P6SM SCT250=
201509122320 TAF KCLM 122320Z 1300/1324 28005KT P6SM SKC FM131000 28008KT P6SM
                       OVC008 FM131900 31012KT P6SM BKN012 FM132100
                       31014KT P6SM SCT250=
201509121726 TAF KCLM 121726Z 1218/1318 04004KT P6SM SKC FM122000 33008KT P6SM
                       SKC FM131000 28008KT P6SM OVC008=
201509121136 TAF KCLM 121136Z 1212/1312 00000KT P6SM SKC FM121900 30008KT P6SM
                       SKC FM131000 28008KT P6SM OVC008=
201509120536 TAF KCLM 120536Z 1206/1306 00000KT P6SM SKC FM121900 30008KT P6SM
                       SKC=
201509112336 TAF KCLM 112336Z 1200/1224 09006KT P6SM SKC FM120300 28005KT P6SM
                       SKC FM121900 33008KT P6SM SKC=
201509111720 TAF KCLM 111720Z 1118/1218 10007KT P6SM SKC FM120300 28005KT P6SM
                       SKC=
201509111120 TAF KCLM 111120Z 1112/1212 24005KT P6SM SKC FM111500 06005KT P6SM
                       SKC FM112000 02005KT P6SM SKC FM120300 VRB04KT
                       P6SM SKC=
201509110520 TAF KCLM 110520Z 1106/1206 26005KT P6SM SKC FM111600 06005KT P6SM
                       SKC FM120300 VRB04KT P6SM SKC=
201509102325 TAF KCLM 102325Z 1100/1124 08006KT P6SM SKC FM110200 27005KT P6SM
                       SKC FM111600 09005KT P6SM SKC=
201509101722 TAF KCLM 101722Z 1018/1118 08006KT P6SM SKC FM110200 27005KT P6SM
                       SKC=
201509101120 TAF KCLM 101120Z 1012/1112 25006KT 5SM BR SCT006
                      TEMPO 1012/1016 2SM BR BKN006 FM101700 06005KT
                       P6SM SCT008 FM102000 03006KT P6SM SKC FM110300
                       VRB04KT P6SM SKC=
201509101002 TAF AMD KCLM 101002Z 1010/1106 25005KT 5SM BR SCT006
                      TEMPO 1012/1016 1SM BR OVC006 FM101700 03004KT
                       P6SM SCT008 FM102000 02006KT P6SM SKC FM110300
                       VRB04KT P6SM SKC=
201509100838 TAF AMD KCLM 100838Z 1009/1106 VRB04KT P6SM SCT006 FM101000 26003KT
                       4SM BR BKN006
                      TEMPO 1012/1016 1SM BR OVC002 FM101700 03004KT
                       P6SM SCT004 FM102000 02006KT P6SM SKC FM110300
                       VRB04KT P6SM SKC=
201509100520 TAF KCLM 100520Z 1006/1106 30007KT P6SM FEW010 FM100800 26004KT
                       5SM BR BKN006 FM101000 26003KT 4SM BR BKN003
                       TEMPO 1012/1016 1SM BR OVC002 FM101700 03004KT
                       P6SM SCT004 FM102000 02006KT P6SM SKC FM110300
                       VRB04KT P6SM SKC=
201509092340 TAF KCLM 092340Z 1000/1024 33006KT P6SM SCT050 FM100300 30005KT
                       P6SM SCT010 FM100900 26004KT 6SM BR SCT005
                       FM101100 26003KT 4SM BR BKN003
                      TEMPO 1012/1016 1SM BR OVC002 FM101700 03004KT
                       P6SM SCT004 FM102000 02006KT P6SM SKC=
201509091740 TAF KCLM 091740Z 0918/1018 30006KT P6SM SCT010 BKN120 FM092200
                       33006KT P6SM SCT120 FM100300 30005KT P6SM
                       SKC FM100900 VRB04KT 3SM BR SCT005 FM101100
                       VRB03KT 2SM BR BKN003
                      TEMPO 1012/1016 1SM BR OVC002 FM101700 03004KT
                       P6SM SCT004=
201509091316 TAF AMD KCLM 091316Z 0913/1012 26004KT P6SM FEW019
                      TEMPO 0913/0916 BKN003 FM091600 VRB03KT P6SM
                       BKN008 FM091700 VRB03KT P6SM SCT010 BKN120
                       FM091900 33005KT P6SM SCT120 FM100300 30005KT
                       P6SM SKC FM101000 VRB04KT 3SM BR SCT005
                       FM101100 VRB03KT 2SM BR BKN003=
201509091120 TAF KCLM 091120Z 0912/1012 28006KT P6SM FEW005
                      TEMPO 0912/0916 1/2SM FG VV003 FM091600 VRB03KT
                       P6SM BKN008 FM091700 VRB03KT P6SM SCT010
                       BKN120 FM091900 33005KT P6SM SCT120 FM100300
                       30005KT P6SM SKC FM101000 VRB04KT 3SM BR
                       SCT005 FM101100 VRB03KT 2SM BR BKN003=
201509091003 TAF AMD KCLM 091003Z 0910/1006 30006KT P6SM FEW002 SCT025
                      TEMPO 0911/0915 1/2SM FG VV002 FM091500 29005KT
                       P6SM BKN008 FM091700 33005KT P6SM SCT010
                       BKN120 FM091900 33005KT P6SM SCT120=
201509090813 TAF AMD KCLM 090813Z 0908/1006 27006KT P6SM FEW002 SCT025
                      TEMPO 0910/0914 1/2SM FG VV002 FM091400 29005KT
                       P6SM BKN008 FM091700 33005KT P6SM SCT010
                       BKN120 FM091900 33005KT P6SM SCT120=
201509090520 TAF KCLM 090520Z 0906/1006 27006KT P6SM SCT007 BKN025
                      TEMPO 0906/0909 5SM BR BKN007 FM090900 VRB04KT
                       3SM BR OVC006
                      TEMPO 0910/0914 1/2SM FG VV002 FM091700 33005KT
                       P6SM SCT020 BKN120=
201509090332 TAF AMD KCLM 090332Z 0904/0924 27006KT P6SM BKN009 FM090700 31006KT
                       3SM BR BKN005
                      TEMPO 0910/0914 1/2SM FG VV002 FM091700 33005KT
                       P6SM SCT020 BKN120=
201509082320 TAF KCLM 082320Z 0900/0924 31006KT P6SM SCT015 BKN200
                      TEMPO 0900/0904 BKN015 BKN200 FM090900 31006KT
                       5SM BR BKN005
                      TEMPO 0910/0914 1/2SM FG VV002 FM091700 33005KT
                       P6SM SCT020 BKN120=
201509082105 TAF AMD KCLM 082105Z 0821/0918 31012KT P6SM BKN050 FM090900 VRB03KT
                       5SM BR BKN005
                      TEMPO 0910/0914 1/2SM FG VV002 FM091700 33005KT
                       P6SM SCT020=
201509081720 TAF KCLM 081720Z 0818/0918 26006KT P6SM SCT020 BKN040 FM090900
                       VRB03KT 5SM BR OVC008 FM091700 33005KT P6SM
                       SCT020=
201509081120 TAF KCLM 081120Z 0812/0912 VRB03KT P6SM VCSH SCT025 OVC060 FM081800
                       27006KT P6SM BKN030 BKN050 FM090000 31008KT
                       P6SM SCT030 BKN050 FM090600 29006KT 4SM
                       BR OVC015=
201509081010 TAF AMD KCLM 081010Z 0810/0906 VRB04KT P6SM FEW020 OVC060 FM081200
                       VRB04KT P6SM VCSH BKN020 OVC045 FM081800
                       27006KT P6SM BKN030 BKN050 FM090000 31008KT
                       P6SM BKN030 BKN050=
201509080521 TAF KCLM 080521Z 0806/0906 27005KT P6SM BKN050 OVC080 FM081000
                       VRB04KT P6SM VCSH BKN020 OVC040 FM081800
                       27006KT P6SM BKN030 BKN050 FM090000 31008KT
                       P6SM BKN030 BKN050=
201509072320 TAF KCLM 072320Z 0800/0824 VRB04KT P6SM BKN040 BKN120 FM081000
                       09004KT P6SM BKN020 OVC040 FM081700 26006KT
                       P6SM SCT030 BKN050=
201509071720 TAF KCLM 071720Z 0718/0818 VRB04KT P6SM SKC FM072100 VRB04KT P6SM
                       SCT040 BKN100 FM081000 09004KT P6SM BKN020
                       OVC040=
201509071126 TAF KCLM 071126Z 0712/0812 24005KT P6SM SCT030 BKN060
                      TEMPO 0712/0716 OVC025 FM072000 30006KT P6SM
                       SCT050 BKN100=
201509070528 TAF KCLM 070528Z 0706/0806 00000KT P6SM BKN040 OVC060 FM071100
                       28004KT P6SM SCT030 BKN050
                      TEMPO 0711/0715 OVC030 FM072000 30006KT P6SM
                       SCT050 BKN100=
201509062320 TAF KCLM 062320Z 0700/0724 VRB04KT P6SM SCT020 BKN045 FM070500
                       26006KT P6SM BKN020 BKN050 FM071700 30006KT
                       P6SM SCT030 BKN050=
201509062008 TAF AMD KCLM 062008Z 0620/0718 VRB04KT P6SM BKN007 OVC030 FM062300
                       VRB04KT P6SM SCT010 BKN030 BKN050 FM070500
                       26006KT P6SM BKN020 BKN050 FM071700 30006KT
                       P6SM SCT030 BKN050=
201509061720 TAF KCLM 061720Z 0618/0718 VRB04KT P6SM BKN005 OVC025 FM062100
                       VRB04KT P6SM SCT010 BKN030 BKN050 FM070500
                       26006KT P6SM BKN020 BKN050 FM071700 30006KT
                       P6SM SCT030 BKN050=
201509061130 TAF KCLM 061130Z 0612/0712 07004KT 5SM -RA BR SCT007 OVC012
                      TEMPO 0612/0616 2SM RA BR OVC003 FM061600
                       28008KT P6SM SCT025 BKN050
                      TEMPO 0616/0620 -SHRA BKN025 OVC050 FM062300
                       28006KT P6SM SCT050 BKN100=
201509061017 TAF AMD KCLM 061017Z 0610/0706 11003KT P6SM SCT007 BKN013 OVC080
                       TEMPO 0610/0613 4SM -RA BR BKN007 OVC012
                       FM061700 28008KT P6SM VCSH BKN025 BKN050
                       FM062300 28006KT P6SM SCT050 BKN100=
201509060536 TAF KCLM 060536Z 0606/0706 00000KT P6SM -RA SCT035 OVC070 FM060900
                       09005KT P6SM -RA SCT020 OVC050
                      TEMPO 0609/0613 4SM -RA BR OVC020 FM061700
                       28008KT P6SM VCSH BKN025 BKN050 FM062300
                       28006KT P6SM SCT050 BKN100=
201509052320 TAF KCLM 052320Z 0600/0624 28010KT P6SM BKN040 BKN100 FM060600
                       VRB04KT P6SM -RA OVC040 FM061000 09005KT
                       4SM -RA BR OVC020 FM061700 28008KT P6SM
                       VCSH BKN025 BKN050=
201509051720 TAF KCLM 051720Z 0518/0618 32006KT P6SM SKC FM052100 28008KT P6SM
                       SCT040 BKN150 FM060000 28010KT P6SM BKN040
                       BKN100 FM060600 VRB04KT P6SM -RA OVC040
                       FM061000 09005KT 4SM -RA BR OVC020 FM061700
                       28008KT P6SM VCSH BKN025 BKN050=
201509051507 TAF AMD KCLM 051507Z 0515/0612 26006KT P6SM SKC FM052100 28008KT
                       P6SM SCT040 BKN150 FM060000 28010KT P6SM
                       BKN040 BKN100 FM060600 VRB04KT P6SM -RA
                       OVC040 FM061000 09005KT 4SM -RA BR OVC020=
201509051127 TAF KCLM 051127Z 0512/0612 25014KT P6SM SKC
                      TEMPO 0513/0517 3SM BR BKN010 BKN060 FM051700
                       33009KT P6SM SCT060 FM052300 29015KT P6SM
                       SCT200=
201509050536 TAF KCLM 050536Z 0506/0606 26009KT P6SM SKC FM050900 VRB03KT P6SM
                       SCT020 BKN060
                      TEMPO 0510/0514 3SM BR BKN020 OVC060 FM051900
                       33010KT P6SM SCT060=
201509042340 TAF KCLM 042340Z 0500/0524 28003KT P6SM SKC FM050900 VRB03KT P6SM
                       SCT060 FM052000 33010KT P6SM SKC=
201509041750 TAF AMD KCLM 041750Z 0418/0518 34006KT P6SM SCT015 BKN040 FM042300
                       31010KT P6SM SCT040 BKN200 FM050900 VRB03KT
                       P6SM SCT060=
201509041740 TAF KCLM 041740Z 0418/0518 34006KT P6SM BKN080 FM042300 31010KT
                       P6SM SCT100 BKN200=
201509041232 TAF AMD KCLM 041232Z 0413/0512 22003KT P6SM BKN009 OVC028 FM041500
                       VRB04KT P6SM SCT010 BKN050
                      TEMPO 0415/0418 3SM BR BKN010 OVC050 FM041800
                       34006KT P6SM BKN080 FM042300 31010KT P6SM
                       SCT100 BKN200=
201509041201 TAF AMD KCLM 041201Z 0412/0512 22003KT 6SM BR BKN020
                      TEMPO 0412/0415 1SM BR BKN002 BKN070 FM041500
                       VRB04KT P6SM SCT010 BKN050
                      TEMPO 0415/0418 3SM BR BKN010 OVC050 FM041800
                       34006KT P6SM BKN080 FM042300 31010KT P6SM
                       SCT100 BKN200=
201509041128 TAF KCLM 041128Z 0412/0512 22003KT 6SM BR SCT070
                      TEMPO 0412/0415 1SM BR BKN002 BKN070 FM041500
                       VRB04KT P6SM SCT010 BKN050
                      TEMPO 0415/0418 3SM BR BKN010 OVC050 FM041800
                       34006KT P6SM BKN080 FM042300 31010KT P6SM
                       SCT100 BKN200=
201509040908 TAF AMD KCLM 040908Z 0409/0506 00000KT 5SM BR FEW008 BKN060
                      TEMPO 0409/0413 1SM BR BKN008 OVC070 FM041300
                       VRB04KT P6SM SCT010 BKN050
                      TEMPO 0413/0417 3SM BR BKN010 OVC050 FM041800
                       34006KT P6SM BKN080 FM042300 31010KT P6SM
                       SCT100 BKN200=
201509040537 TAF KCLM 040537Z 0406/0506 19004KT P6SM BKN050 OVC090 FM040900
                       24003KT P6SM BKN020 BKN050
                      TEMPO 0409/0413 SCT020 BKN050 FM041800 34008KT
                       P6SM BKN080=
201509032347 TAF KCLM 032347Z 0400/0424 VRB04KT P6SM -SHRA BKN060 OVC080 FM040400
                       24003KT P6SM BKN060 FM040900 24003KT P6SM
                       BKN020 BKN050 FM041800 34008KT P6SM BKN080=
201509031747 TAF KCLM 031747Z 0318/0418 00000KT P6SM -SHRA BKN060 BKN100 FM031900
                       35003KT P6SM VCSH SCT040 BKN100 FM040000
                       VRB04KT P6SM BKN060 FM040900 24003KT P6SM
                       BKN020 BKN050=
201509031127 TAF KCLM 031127Z 0312/0412 24006KT P6SM SCT050
                      TEMPO 0314/0318 -SHRA BKN020 BKN050 FM031800
                       33006KT P6SM VCSH BKN035 BKN080 FM040100
                       30006KT P6SM SCT050 BKN100 FM040900 28004KT
                       P6SM SCT020 BKN050=
201509030538 TAF KCLM 030538Z 0306/0406 00000KT P6SM SCT050 BKN080
                      TEMPO 0306/0309 -SHRA BKN030 OVC060 FM031100
                       25005KT P6SM BKN010 OVC040
                      TEMPO 0311/0314 SCT015 BKN050 FM031800 33006KT
                       P6SM BKN035 BKN080 FM040100 30006KT P6SM
                       SCT050 BKN100=
201509022345 TAF KCLM 022345Z 0300/0324 26006KT P6SM BKN040 BKN070
                      TEMPO 0300/0303 2SM -SHRA BKN035 OVC060 FM030300
                       26008KT P6SM -SHRA BKN025 BKN060 FM031400
                       25005KT P6SM BKN010 OVC040 FM031800 33006KT
                       P6SM BKN035 BKN080=
201509021755 TAF KCLM 021755Z 0218/0318 VRB03KT P6SM SCT035 SCT060 BKN080 FM022100
                       26006KT P6SM -SHRA BKN035 OVC060 FM031200
                       25005KT P6SM BKN020 OVC060=
201509021126 TAF KCLM 021126Z 0212/0312 VRB03KT P6SM -SHRA SCT035 BKN060 BKN090
                       FM022100 26006KT P6SM -SHRA BKN035 OVC060
                       FM030300 29010KT P6SM SCT035 BKN060=
201509020539 TAF KCLM 020539Z 0206/0306 VRB03KT P6SM SCT035 BKN060 BKN090 FM022100
                       26006KT P6SM -SHRA BKN035 OVC060 FM030300
                       29010KT P6SM SCT035 BKN060=
201509012344 TAF KCLM 012344Z 0200/0224 VRB03KT P6SM SCT030 OVC060 FM020600
                       29004KT P6SM -RA BKN025 OVC040 FM021000
                       26006KT P6SM -SHRA BKN015 OVC040 FM021600
                       31006KT P6SM BKN030 OVC060 FM022000 33005KT
                       P6SM BKN040 BKN080=
201509011744 TAF KCLM 011744Z 0118/0218 VRB03KT P6SM VCSH SCT015 OVC035 FM012000
                       VRB03KT P6SM SCT030 BKN045 FM021200 28003KT
                       P6SM BKN015 OVC030=
201509011410 TAF AMD KCLM 011410Z 0114/0212 VRB03KT P6SM BKN070
                      TEMPO 0114/0117 1 1/2SM -RA BR BKN010 OVC025
                       FM011700 VRB03KT P6SM VCSH SCT015 BKN025
                       OVC040 FM012000 VRB03KT P6SM SCT030 BKN045=
201509011124 TAF KCLM 011124Z 0112/0212 VRB03KT P6SM -RA SCT005 BKN011 OVC020
                       TEMPO 0112/0116 3SM -RA FM011600 VRB03KT
                       P6SM VCSH SCT015 BKN025 OVC040 FM012000
                       VRB03KT P6SM SCT030 BKN045=
201509010536 TAF KCLM 010536Z 0106/0206 VRB04KT P6SM SCT025 BKN050 OVC090 FM011300
                       VRB04KT P6SM VCSH BKN025 OVC040 FM011700
                       VRB03KT P6SM SCT030 BKN045=
201509010312 TAF AMD KCLM 010312Z 0103/0124 VRB04KT P6SM SCT025 BKN050 OVC090
                       FM011000 VRB04KT P6SM VCSH BKN025 OVC040
                       FM011900 VRB03KT P6SM SCT030 BKN045=