##########################################################
# Query made at 02/16/2025 02:58:45 UTC
# Time interval: from 08/01/2015 00:00  to 08/31/2015 23:59  UTC
##########################################################

##########################################################
# KCLM, Port Angeles, William R. Fairchild International Airport (United States)
# WMO index: -----. WIGOS ID: Unknown
# Latitude 48-07-20N. Longitude 123-30-19W. Altitude 87 m.
##########################################################

###################################
#  METAR/SPECI from KCLM
###################################
201508312353 METAR KCLM 312353Z AUTO 06003KT 6SM -RA BR BKN060 OVC075 16/13 A2987 RMK AO2 RAB06 SLP114 P0002 60002 T01560133 10183 20144 58010=
201508312253 METAR KCLM 312253Z AUTO VRB03KT 10SM SCT065 BKN080 OVC095 16/13 A2987 RMK AO2 RAB08E50 SLP116 P0000 T01610128=
201508312153 METAR KCLM 312153Z AUTO 22003KT 10SM FEW041 BKN075 OVC095 17/13 A2989 RMK AO2 RAB05E14B21E34 SLP122 P0000 T01670128=
201508312053 METAR KCLM 312053Z AUTO 34005KT 10SM OVC070 15/13 A2990 RMK AO2 RAE14B30E51 SLP124 P0000 60000 T01500128 53003=
201508311953 METAR KCLM 311953Z AUTO 35004KT 10SM -RA FEW055 BKN080 OVC095 16/12 A2988 RMK AO2 RAB11 SLP119 P0000 T01610122=
201508311853 METAR KCLM 311853Z AUTO VRB03KT 10SM FEW055 BKN110 18/12 A2989 RMK AO2 SLP120 T01830122=
201508311753 METAR KCLM 311753Z AUTO VRB03KT 10SM OVC070 18/12 A2989 RMK AO2 SLP121 60001 T01780122 10178 20128 53001=
201508311653 METAR KCLM 311653Z AUTO 12004KT 10SM SCT065 BKN085 16/13 A2987 RMK AO2 SLP116 T01610128=
201508311553 METAR KCLM 311553Z AUTO 00000KT 10SM SCT085 OVC110 14/13 A2988 RMK AO2 RAE22 SLP119 P0001 T01440128=
201508311453 METAR KCLM 311453Z AUTO 00000KT 10SM -RA SCT060 BKN080 OVC090 14/13 A2989 RMK AO2 RAE02B22 SLP120 P0000 60000 T01440128 53007=
201508311353 METAR KCLM 311353Z AUTO 00000KT 7SM -RA FEW028 BKN046 OVC070 14/12 A2988 RMK AO2 RAB1258 SLP118 P0000 T01390122=
201508311253 METAR KCLM 311253Z AUTO 00000KT 10SM BKN060 BKN085 OVC100 14/12 A2987 RMK AO2 SLP113 T01390117=
201508311153 METAR KCLM 311153Z AUTO 21003KT 10SM BKN060 OVC075 14/12 A2987 RMK AO2 SLP113 60000 T01390117 10144 20133 55002=
201508311053 METAR KCLM 311053Z AUTO 00000KT 10SM BKN065 OVC120 14/12 A2986 RMK AO2 SLP112 T01390117=
201508310953 METAR KCLM 310953Z AUTO 00000KT 10SM BKN065 OVC080 13/12 A2987 RMK AO2 SLP114 T01330117=
201508310853 METAR KCLM 310853Z AUTO 00000KT 10SM OVC070 14/11 A2987 RMK AO2 SLP115 60000 T01390111 56008=
201508310753 METAR KCLM 310753Z AUTO VRB04KT 10SM FEW065 FEW085 OVC110 14/11 A2987 RMK AO2 RAB0656E06 SLP116 P0000 T01390111 402060117=
201508310653 METAR KCLM 310653Z AUTO 29004KT 10SM SCT085 OVC110 14/11 A2989 RMK AO2 RAE02 SLP120 P0000 T01390111=
201508310553 METAR KCLM 310553Z AUTO 28004KT 10SM -RA OVC095 14/12 A2989 RMK AO2 RAB41 SLP123 P0000 60000 T01390122 10178 20139 58011=
201508310453 METAR KCLM 310453Z AUTO 26004KT 10SM OVC095 14/13 A2991 RMK AO2 RAB09E33 SLP127 P0000 T01440128=
201508310353 METAR KCLM 310353Z AUTO 00000KT 10SM OVC095 15/11 A2992 RMK AO2 SLP132 T01500106=
201508310253 METAR KCLM 310253Z AUTO 00000KT 10SM SCT055 BKN070 OVC120 16/11 A2993 RMK AO2 SLP134 T01610106 55000=
201508310153 METAR KCLM 310153Z AUTO 00000KT 10SM OVC060 17/10 A2993 RMK AO2 SLP134 T01720100=
201508310053 METAR KCLM 310053Z AUTO 33003KT 10SM OVC065 17/11 A2992 RMK AO2 SLP132 T01720106=
201508302353 METAR KCLM 302353Z AUTO VRB03KT 10SM BKN065 BKN080 17/12 A2993 RMK AO2 RAB02E12B40E49 SLP134 P0000 60000 T01720122 10206 20161 52006=
201508302253 METAR KCLM 302253Z AUTO 02004KT 10SM BKN070 BKN090 18/11 A2992 RMK AO2 SLP130 T01830106=
201508302153 METAR KCLM 302153Z AUTO 07004KT 10SM BKN070 OVC080 19/09 A2992 RMK AO2 SLP131 T01890089=
201508302053 METAR KCLM 302053Z AUTO 08007KT 10SM FEW075 FEW095 19/09 A2991 RMK AO2 SLP127 T01940089 53010=
201508301953 METAR KCLM 301953Z AUTO VRB05KT 10SM SCT070 19/11 A2990 RMK AO2 SLP124 T01940106=
201508301853 METAR KCLM 301853Z AUTO 03004KT 10SM SCT070 17/12 A2989 RMK AO2 SLP120 T01670117=
201508301753 METAR KCLM 301753Z AUTO VRB04KT 10SM FEW065 17/10 A2988 RMK AO2 SLP117 60000 T01720100 10178 20117 53021=
201508301653 METAR KCLM 301653Z AUTO VRB03KT 10SM OVC060 16/13 A2986 RMK AO2 SLP109 T01610128=
201508301553 METAR KCLM 301553Z AUTO VRB03KT 10SM CLR 15/11 A2983 RMK AO2 SLP102 T01500111=
201508301453 METAR KCLM 301453Z AUTO 20004KT 10SM BKN065 12/11 A2981 RMK AO2 RAB09E20 SLP096 P0000 60000 T01220106 51021=
201508301353 METAR KCLM 301353Z AUTO 24005KT 10SM BKN070 OVC085 12/10 A2980 RMK AO2 SLP090 T01170100=
201508301253 METAR KCLM 301253Z AUTO 26004KT 10SM BKN075 OVC090 12/11 A2977 RMK AO2 SLP081 T01220106=
201508301153 METAR KCLM 301153Z AUTO 27003KT 10SM BKN070 OVC085 12/11 A2975 RMK AO2 SLP075 60028 70048 T01170111 10133 20117 51012=
201508301053 METAR KCLM 301053Z AUTO 00000KT 10SM BKN075 BKN090 12/11 A2974 RMK AO2 RAE51 SLP071 P0008 T01220111=
201508300953 METAR KCLM 300953Z AUTO 14006KT 3SM RA BR OVC065 13/11 A2974 RMK AO2 SLP070 P0006 T01280111=
201508300853 METAR KCLM 300853Z AUTO 21004KT 6SM -RA BR OVC070 13/11 A2972 RMK AO2 SLP062 P0008 60014 T01280111 50000=
201508300835 SPECI KCLM 300835Z AUTO 26007KT 4SM -RA BR OVC065 13/11 A2972 RMK AO2 P0007 T01280111=
201508300823 SPECI KCLM 300823Z AUTO 21003KT 2SM RA BR OVC060 13/11 A2972 RMK AO2 P0006 T01280111=
201508300753 METAR KCLM 300753Z AUTO 27006KT 4SM RA BR OVC070 13/12 A2973 RMK AO2 RAB0658 SLP067 P0006 T01330117 402330128=
201508300653 METAR KCLM 300653Z AUTO 23006KT 10SM FEW023 BKN065 OVC090 13/12 A2973 RMK AO2 SLP066 T01330122=
201508300553 METAR KCLM 300553Z AUTO 00000KT 10SM FEW027 BKN034 BKN070 13/12 A2972 RMK AO2 RAB11E25 SLP063 P0000 60005 T01280122 10178 20128 51006=
201508300453 METAR KCLM 300453Z AUTO 21005KT 10SM BKN065 14/12 A2972 RMK AO2 SLP063 T01390122=
201508300353 METAR KCLM 300353Z AUTO 00000KT 10SM CLR 14/13 A2971 RMK AO2 SLP059 T01440128=
201508300253 METAR KCLM 300253Z AUTO 17005KT 10SM BKN070 BKN085 14/13 A2970 RMK AO2 SLP057 60005 T01440133 51017=
201508300153 METAR KCLM 300153Z AUTO 33006KT 10SM FEW002 BKN065 BKN080 14/13 A2969 RMK AO2 RAE49 SLP054 P0003 T01390128=
201508300144 SPECI KCLM 300144Z AUTO VRB03KT 7SM -RA FEW011 BKN065 OVC080 15/14 A2968 RMK AO2 P0003 T01500139=
201508300128 SPECI KCLM 300128Z AUTO 01003KT 2 1/2SM -RA BR FEW013 BKN065 OVC080 15/14 A2970 RMK AO2 P0003 T01500139=
201508300112 SPECI KCLM 300112Z AUTO 36003KT 3SM -RA BR BKN065 OVC080 16/14 A2969 RMK AO2 P0001 T01610144=
201508300059 SPECI KCLM 300059Z AUTO 00000KT 1 1/2SM RA BKN060 OVC080 17/14 A2968 RMK AO2 P0001 T01670139=
201508300053 METAR KCLM 300053Z AUTO 25003KT 8SM -RA BKN060 OVC080 17/13 A2968 RMK AO2 PRESRR SLP051 P0002 T01720133=
201508292353 METAR KCLM 292353Z AUTO 13005KT 3SM RA SCT060 OVC085 17/13 A2965 RMK AO2 RAB2254E05B27 SLP040 P0001 60003 T01670128 10233 20167 51031=
201508292253 METAR KCLM 292253Z AUTO 33005KT 10SM OVC060 19/12 A2965 RMK AO2 RAE12 SLP039 P0000 T01890117=
201508292153 METAR KCLM 292153Z AUTO 33012G20KT 10SM -RA OVC070 19/11 A2961 RMK AO2 RAB04E15B53 SLP026 P0002 T01890106=
201508292053 METAR KCLM 292053Z AUTO 28007G23KT 200V320 10SM BKN070 OVC080 23/11 A2956 RMK AO2 PK WND 24026/1955 RAE31 PRESRR SLP008 P0000 60000 T02280106 53063=
201508291953 METAR KCLM 291953Z AUTO 25017G29KT 8SM -RA BKN065 OVC080 21/12 A2947 RMK AO2 PK WND 24029/1945 RAB1854E18B39 SLP979 P0000 T02060117=
201508291853 METAR KCLM 291853Z AUTO 24024G37KT 10SM SCT040 SCT060 23/10 A2940 RMK AO2 PK WND 25039/1841 RAE01B26E41 PRESRR SLP955 P0000 T02330100=
201508291753 METAR KCLM 291753Z AUTO 00000KT 10SM -RA SCT050 OVC070 20/13 A2937 RMK AO2 RAE1659B17 SLP944 P0000 60012 T02000128 10222 20139 58025=
201508291653 METAR KCLM 291653Z AUTO 01005KT 6SM -RA BR SCT044 SCT060 BKN080 16/14 A2939 RMK AO2 RAB36 SLP953 P0001 T01610144=
201508291630 SPECI KCLM 291630Z AUTO VRB04KT 5SM BR SCT002 SCT060 BKN070 16/14 A2941 RMK AO2 T01560144=
201508291619 SPECI KCLM 291619Z AUTO 26003KT 4SM BR BKN002 BKN070 OVC085 14/13 A2942 RMK AO2 T01390133=
201508291610 SPECI KCLM 291610Z AUTO 01004KT 2 1/2SM BR BKN002 OVC080 14/13 A2941 RMK AO2 T01390128=
201508291603 SPECI KCLM 291603Z AUTO 27006KT 3SM BR BKN002 OVC080 14/13 A2942 RMK AO2 T01390133=
201508291553 METAR KCLM 291553Z AUTO 33007KT 2 1/2SM BR BKN003 BKN075 OVC090 14/13 A2942 RMK AO2 SLP963 T01390133=
201508291544 SPECI KCLM 291544Z AUTO 28007KT 220V340 2 1/2SM BR BKN003 BKN075 BKN090 14/13 A2943 RMK AO2 T01440133=
201508291533 SPECI KCLM 291533Z AUTO VRB04KT 2 1/2SM BR SCT003 BKN070 OVC090 14/13 A2942 RMK AO2 T01390133=
201508291508 SPECI KCLM 291508Z AUTO 28004KT 1 3/4SM BR OVC004 14/13 A2944 RMK AO2 CIG 001V005 T01390128=
201508291453 METAR KCLM 291453Z AUTO 34004KT 4SM BR BKN004 OVC070 14/14 A2944 RMK AO2 RAE21 SLP970 P0000 60011 T01440139 55018=
201508291444 SPECI KCLM 291444Z AUTO 22005KT 3SM BR BKN004 BKN045 OVC070 14/14 A2944 RMK AO2 RAE21 P0000 T01440139=
201508291353 METAR KCLM 291353Z AUTO 11008KT 4SM -RA BR SCT004 BKN075 OVC090 14/14 A2942 RMK AO2 PRESFR SLP962 P0007 T01440139=
201508291336 SPECI KCLM 291336Z AUTO 13009KT 3SM -RA BR FEW005 BKN070 OVC090 14/14 A2944 RMK AO2 PRESFR P0007 T01440139=
201508291322 SPECI KCLM 291322Z AUTO VRB05KT 1 3/4SM RA BR FEW006 OVC075 14/13 A2948 RMK AO2 PRESFR P0004 T01440133=
201508291314 SPECI KCLM 291314Z AUTO 00000KT 2 1/2SM RA BR BKN070 BKN090 OVC100 14/14 A2950 RMK AO2 P0003 T01440139=
201508291253 METAR KCLM 291253Z AUTO 34003KT 5SM -RA BR BKN065 BKN090 OVC100 14/13 A2952 RMK AO2 RAB1159 SLP995 P0004 T01440133=
201508291214 SPECI KCLM 291214Z AUTO 00000KT 6SM -RA BR FEW008 SCT075 OVC100 14/13 A2951 RMK AO2 RAB1159 P0001 T01440133=
201508291153 METAR KCLM 291153Z AUTO 21003KT 10SM SCT080 BKN100 14/13 A2950 RMK AO2 SLP988 60000 70001 T01390128 10150 20128 58045=
201508291053 METAR KCLM 291053Z AUTO 19005KT 10SM BKN095 BKN110 14/13 A2955 RMK AO2 SLP004 T01390128=
201508290953 METAR KCLM 290953Z AUTO 00000KT 10SM BKN100 14/13 A2959 RMK AO2 RAE50 SLP018 P0000 T01390128=
201508290853 METAR KCLM 290853Z AUTO 11004KT 10SM -RA OVC095 14/12 A2963 RMK AO2 RAB51 SLP034 P0000 60000 T01390122 56033=
201508290753 METAR KCLM 290753Z AUTO 00000KT 10SM FEW070 BKN095 OVC120 14/13 A2965 RMK AO2 RAB24E43 SLP041 P0000 T01390133 402060133=
201508290653 METAR KCLM 290653Z AUTO 00000KT 10SM BKN100 14/13 A2970 RMK AO2 SLP057 T01440133=
201508290553 METAR KCLM 290553Z AUTO 00000KT 10SM SCT110 15/14 A2973 RMK AO2 SLP067 60000 T01500139 10206 20144 58030=
201508290453 METAR KCLM 290453Z AUTO 00000KT 10SM FEW080 SCT100 BKN120 15/14 A2978 RMK AO2 SLP084 T01500139=
201508290353 METAR KCLM 290353Z AUTO 00000KT 10SM FEW070 BKN090 BKN120 16/13 A2980 RMK AO2 RAB06E40 SLP090 P0000 T01560128=
201508290253 METAR KCLM 290253Z AUTO 00000KT 10SM SCT090 BKN110 17/13 A2982 RMK AO2 SLP098 T01670133 56021=
201508290153 METAR KCLM 290153Z AUTO 00000KT 10SM CLR 19/14 A2984 RMK AO2 SLP105 T01890139=
201508290053 METAR KCLM 290053Z AUTO 02004KT 10SM CLR 19/14 A2986 RMK AO2 SLP110 T01940139=
201508282353 METAR KCLM 282353Z AUTO VRB05KT 10SM SCT027 21/13 A2988 RMK AO2 SLP118 T02060128 10206 20161 58021=
201508282338 SPECI KCLM 282338Z AUTO VRB04KT 10SM FEW023 BKN030 19/13 A2989 RMK AO2 T01940133=
201508282314 SPECI KCLM 282314Z AUTO 01006KT 10SM BKN022 BKN029 19/13 A2990 RMK AO2 T01940133=
201508282253 METAR KCLM 282253Z AUTO 01006KT 10SM SCT024 SCT075 19/13 A2990 RMK AO2 SLP126 T01940133=
201508282153 METAR KCLM 282153Z AUTO 02003KT 10SM SCT024 BKN034 BKN041 19/13 A2993 RMK AO2 SLP136 T01890133=
201508282136 SPECI KCLM 282136Z AUTO 04004KT 10SM BKN026 OVC032 19/13 A2995 RMK AO2 T01890133=
201508282053 METAR KCLM 282053Z AUTO 32006KT 10SM SCT017 BKN035 18/14 A2995 RMK AO2 SLP140 T01830139 56004=
201508282051 SPECI KCLM 282051Z AUTO VRB04KT 10SM SCT017 BKN035 18/14 A2995 RMK AO2=
201508282004 SPECI KCLM 282004Z AUTO 00000KT 10SM OVC015 17/14 A2995 RMK AO2 T01720144=
201508281953 METAR KCLM 281953Z AUTO 00000KT 10SM OVC014 17/14 A2996 RMK AO2 SLP144 T01670144=
201508281949 SPECI KCLM 281949Z AUTO 00000KT 10SM OVC014 17/14 A2996 RMK AO2=
201508281936 SPECI KCLM 281936Z AUTO 00000KT 10SM FEW006 OVC015 17/14 A2996 RMK AO2 T01670144=
201508281853 METAR KCLM 281853Z AUTO 00000KT 10SM OVC006 16/14 A2996 RMK AO2 CIG 003V010 SLP145 T01610144=
201508281837 SPECI KCLM 281837Z AUTO 00000KT 10SM FEW004 OVC008 16/14 A2996 RMK AO2 CIG 007V011 T01610144=
201508281810 SPECI KCLM 281810Z AUTO 00000KT 10SM OVC004 16/14 A2996 RMK AO2 T01560139=
201508281753 METAR KCLM 281753Z AUTO 00000KT 10SM OVC005 16/14 A2996 RMK AO2 SLP144 60001 T01560144 10161 20133 53003=
201508281653 METAR KCLM 281653Z AUTO 31003KT 10SM OVC005 16/14 A2995 RMK AO2 CIG 004V008 SLP141 T01610144=
201508281632 SPECI KCLM 281632Z AUTO 27007KT 10SM BKN007 OVC016 16/14 A2995 RMK AO2 CIG 005V010 T01560144=
201508281613 SPECI KCLM 281613Z AUTO 30005KT 10SM SCT006 OVC017 16/14 A2995 RMK AO2 T01560144=
201508281553 METAR KCLM 281553Z AUTO 29005KT 10SM OVC006 15/14 A2995 RMK AO2 RAB20E33 SLP142 P0000 T01500139=
201508281453 METAR KCLM 281453Z AUTO 00000KT 10SM BKN008 OVC015 14/13 A2995 RMK AO2 SLP141 60001 T01440133 55002=
201508281406 SPECI KCLM 281406Z AUTO 00000KT 10SM BKN009 14/13 A2994 RMK AO2 CIG 007V012 T01390128=
201508281353 METAR KCLM 281353Z AUTO 00000KT 10SM FEW008 14/13 A2995 RMK AO2 SLP140 T01390128=
201508281350 SPECI KCLM 281350Z AUTO 00000KT 10SM FEW008 13/13 A2995 RMK AO2=
201508281253 METAR KCLM 281253Z AUTO 00000KT 10SM FEW049 BKN070 OVC090 14/13 A2995 RMK AO2 RAE47 SLP142 P0001 T01440133=
201508281153 METAR KCLM 281153Z AUTO 00000KT 5SM -RA BR SCT047 BKN075 OVC090 14/13 A2996 RMK AO2 SLP145 P0007 60010 70010 T01440133 10172 20144 50000=
201508281053 METAR KCLM 281053Z AUTO 28004KT 7SM -RA FEW047 OVC060 14/13 A2996 RMK AO2 SLP145 P0002 T01440133=
201508280953 METAR KCLM 280953Z AUTO VRB03KT 5SM -RA BR FEW042 OVC060 15/13 A2997 RMK AO2 RAB24 SLP147 P0001 T01500128=
201508280853 METAR KCLM 280853Z AUTO 25005KT 10SM SCT090 OVC110 15/12 A2996 RMK AO2 SLP143 60000 T01500122 58006=
201508280753 METAR KCLM 280753Z AUTO 27007KT 10SM FEW040 BKN110 14/12 A2998 RMK AO2 RAB08E38 SLP150 P0000 T01440122 402220128=
201508280653 METAR KCLM 280653Z AUTO 26006G16KT 10SM FEW065 SCT120 16/12 A3000 RMK AO2 RAE0556 SLP157 P0000 T01560117=
201508280553 METAR KCLM 280553Z AUTO 28009KT 10SM -RA FEW070 BKN110 17/11 A2998 RMK AO2 RAB36 SLP149 P0000 60000 T01720111 10211 20156 53002=
201508280453 METAR KCLM 280453Z AUTO 28006KT 10SM CLR 17/11 A2997 RMK AO2 SLP147 T01720106=
201508280353 METAR KCLM 280353Z AUTO 26004KT 10SM CLR 17/10 A2996 RMK AO2 SLP145 T01720100=
201508280253 METAR KCLM 280253Z AUTO 28003KT 10SM CLR 18/09 A2997 RMK AO2 SLP147 T01780094 56018=
201508280153 METAR KCLM 280153Z AUTO 00000KT 10SM CLR 19/10 A2997 RMK AO2 SLP150 T01890100=
201508280053 METAR KCLM 280053Z AUTO 30008KT 10SM CLR 20/11 A3000 RMK AO2 SLP159 T02000106=
201508272353 METAR KCLM 272353Z AUTO 31009KT 10SM CLR 20/11 A3002 RMK AO2 SLP166 T02000106 10222 20178 58013=
201508272253 METAR KCLM 272253Z AUTO 32006KT 10SM CLR 21/11 A3004 RMK AO2 SLP171 T02060106=
201508272153 METAR KCLM 272153Z AUTO 31008KT 10SM CLR 21/11 A3005 RMK AO2 SLP175 T02110106=
201508272053 METAR KCLM 272053Z AUTO 35006KT 10SM CLR 21/11 A3006 RMK AO2 SLP178 T02060111 58009=
201508271953 METAR KCLM 271953Z AUTO VRB06KT 10SM CLR 21/11 A3008 RMK AO2 SLP184 T02060111=
201508271853 METAR KCLM 271853Z AUTO 35005KT 10SM CLR 19/12 A3009 RMK AO2 SLP186 T01890117=
201508271753 METAR KCLM 271753Z AUTO 02003KT 10SM CLR 19/12 A3009 RMK AO2 SLP187 T01890117 10211 20133 51003=
201508271653 METAR KCLM 271653Z AUTO VRB04KT 10SM CLR 19/11 A3008 RMK AO2 SLP186 T01890111=
201508271553 METAR KCLM 271553Z AUTO 00000KT 10SM CLR 20/10 A3008 RMK AO2 SLP185 T02000100=
201508271453 METAR KCLM 271453Z AUTO 00000KT 10SM CLR 17/09 A3008 RMK AO2 SLP185 T01720094 53012=
201508271353 METAR KCLM 271353Z AUTO 00000KT 10SM CLR 13/09 A3007 RMK AO2 SLP181 T01330094=
201508271253 METAR KCLM 271253Z AUTO 29003KT 10SM CLR 14/09 A3005 RMK AO2 SLP176 T01390094=
201508271153 METAR KCLM 271153Z AUTO 30003KT 10SM CLR 13/10 A3004 RMK AO2 SLP172 T01280100 10178 20128 51006=
201508271053 METAR KCLM 271053Z AUTO 30005KT 10SM CLR 14/10 A3004 RMK AO2 SLP172 T01440100=
201508270953 METAR KCLM 270953Z AUTO 28003KT 10SM CLR 16/09 A3003 RMK AO2 SLP167 T01610089=
201508270853 METAR KCLM 270853Z AUTO 23003KT 10SM CLR 17/09 A3003 RMK AO2 SLP166 T01670094 52003=
201508270753 METAR KCLM 270753Z AUTO 23005KT 10SM CLR 17/09 A3002 RMK AO2 SLP165 T01720094 402440083=
201508270653 METAR KCLM 270653Z AUTO 24007KT 10SM CLR 17/09 A3002 RMK AO2 SLP164 T01670094=
201508270553 METAR KCLM 270553Z AUTO 26007KT 10SM CLR 18/09 A3002 RMK AO2 SLP163 T01780094 10233 20161 50005=
201508270453 METAR KCLM 270453Z AUTO 26006KT 10SM CLR 18/08 A3002 RMK AO2 SLP163 T01830083=
201508270353 METAR KCLM 270353Z AUTO 25006KT 10SM CLR 18/09 A3001 RMK AO2 SLP162 T01780094=
201508270253 METAR KCLM 270253Z AUTO 29005KT 10SM CLR 17/11 A3000 RMK AO2 SLP159 T01670106 53003=
201508270153 METAR KCLM 270153Z AUTO 31007KT 10SM CLR 18/11 A3000 RMK AO2 SLP157 T01780106=
201508270053 METAR KCLM 270053Z AUTO 32004KT 10SM CLR 20/11 A2999 RMK AO2 SLP156 T02000106=
201508262353 METAR KCLM 262353Z AUTO 02004KT 10SM CLR 23/08 A2999 RMK AO2 SLP156 T02330078 10244 20200 56009=
201508262253 METAR KCLM 262253Z AUTO VRB05KT 10SM CLR 23/07 A3000 RMK AO2 SLP159 T02280072=
201508262153 METAR KCLM 262153Z AUTO 08006KT 10SM CLR 24/07 A3001 RMK AO2 SLP160 T02390072=
201508262053 METAR KCLM 262053Z AUTO VRB05KT 10SM CLR 23/09 A3002 RMK AO2 SLP164 T02280089 58005=
201508261953 METAR KCLM 261953Z AUTO 08005KT 10SM CLR 21/08 A3003 RMK AO2 SLP168 T02110083=
201508261853 METAR KCLM 261853Z AUTO VRB04KT 10SM CLR 21/08 A3004 RMK AO2 SLP170 T02060083=
201508261753 METAR KCLM 261753Z AUTO VRB03KT 10SM CLR 20/10 A3003 RMK AO2 SLP170 T02000100 10200 20089 58001=
201508261653 METAR KCLM 261653Z AUTO 00000KT 10SM CLR 20/09 A3004 RMK AO2 SLP171 T02000089 $=
201508261553 METAR KCLM 261553Z AUTO 30003KT 10SM CLR 17/08 A3005 RMK AO2 SLP174 T01670083 $=
201508261453 METAR KCLM 261453Z AUTO 00000KT 10SM CLR 14/09 A3003 RMK AO2 SLP170 T01440094 51009 $=
201508261353 METAR KCLM 261353Z AUTO 00000KT 10SM CLR 11/07 A3003 RMK AO2 SLP168 T01060067 $=
201508261253 METAR KCLM 261253Z AUTO 00000KT 10SM CLR 09/06 A3002 RMK AO2 SLP164 T00890061 $=
201508261153 METAR KCLM 261153Z AUTO 26003KT 10SM CLR 11/07 A3001 RMK AO2 SLP161 T01060067 10150 20083 50004 $=
201508261053 METAR KCLM 261053Z AUTO 13003KT 10SM CLR 10/07 A3001 RMK AO2 SLP161 T01000067 $=
201508260953 METAR KCLM 260953Z AUTO 26006KT 10SM CLR 14/07 A2999 RMK AO2 SLP157 T01390072 $=
201508260853 METAR KCLM 260853Z AUTO 28007KT 10SM CLR 14/07 A2999 RMK AO2 SLP157 T01440072 56006 $=
201508260753 METAR KCLM 260753Z AUTO 27008KT 10SM CLR 14/08 A3000 RMK AO2 SLP158 T01440078 402060106 $=
201508260653 METAR KCLM 260653Z AUTO 26007KT 10SM CLR 15/08 A3001 RMK AO2 SLP161 T01500083 $=
201508260553 METAR KCLM 260553Z AUTO 28006KT 10SM CLR 13/09 A3001 RMK AO2 SLP163 T01330089 10206 20133 58006 $=
201508260453 METAR KCLM 260453Z AUTO 27003KT 10SM CLR 14/10 A3002 RMK AO2 SLP166 T01440100 $=
201508260353 METAR KCLM 260353Z AUTO 29010KT 10SM CLR 16/11 A3003 RMK AO2 SLP167 T01610106=
201508260253 METAR KCLM 260253Z AUTO 29009KT 10SM CLR 17/09 A3003 RMK AO2 SLP169 T01720094 56005=
201508260153 METAR KCLM 260153Z AUTO 30006KT 10SM CLR 18/07 A3003 RMK AO2 SLP170 T01830067=
201508260053 METAR KCLM 260053Z AUTO 29008KT 10SM CLR 19/06 A3004 RMK AO2 SLP171 T01940056=
201508252353 METAR KCLM 252353Z AUTO 33007KT 10SM CLR 20/06 A3005 RMK AO2 SLP174 T02000061 10206 20167 58014=
201508252253 METAR KCLM 252253Z AUTO VRB05KT 10SM CLR 20/06 A3006 RMK AO2 SLP180 T02000056=
201508252153 METAR KCLM 252153Z AUTO 36006KT 10SM CLR 20/07 A3008 RMK AO2 SLP185 T02000067=
201508252053 METAR KCLM 252053Z AUTO 01005KT 10SM CLR 18/09 A3009 RMK AO2 SLP188 T01830089 57008=
201508251953 METAR KCLM 251953Z AUTO 02005KT 10SM CLR 17/08 A3010 RMK AO2 SLP192 T01720078=
201508251853 METAR KCLM 251853Z AUTO 36005KT 10SM CLR 18/09 A3010 RMK AO2 SLP193 T01830089=
201508251753 METAR KCLM 251753Z AUTO 35005KT 10SM CLR 17/09 A3011 RMK AO2 SLP197 T01670094 10178 20117 51003=
201508251653 METAR KCLM 251653Z AUTO VRB05KT 10SM CLR 16/09 A3011 RMK AO2 SLP196 T01610089=
201508251553 METAR KCLM 251553Z AUTO 30004KT 10SM CLR 16/07 A3011 RMK AO2 SLP195 T01560067=
201508251453 METAR KCLM 251453Z AUTO 25005KT 10SM CLR 14/07 A3010 RMK AO2 SLP194 T01390067 53005=
201508251353 METAR KCLM 251353Z AUTO 24008KT 10SM CLR 12/07 A3010 RMK AO2 SLP191 T01220067=
201508251253 METAR KCLM 251253Z AUTO 25007KT 10SM CLR 12/07 A3009 RMK AO2 SLP188 T01220067=
201508251153 METAR KCLM 251153Z AUTO 25007KT 10SM CLR 13/07 A3009 RMK AO2 SLP188 T01280067 10139 20106 53001=
201508251053 METAR KCLM 251053Z AUTO 25008KT 10SM CLR 12/07 A3009 RMK AO2 SLP188 T01220072=
201508250953 METAR KCLM 250953Z AUTO 24007KT 10SM CLR 11/07 A3008 RMK AO2 SLP187 T01110072=
201508250853 METAR KCLM 250853Z AUTO 25007KT 10SM CLR 11/07 A3008 RMK AO2 SLP187 T01060067 51003=
201508250753 METAR KCLM 250753Z AUTO 23006KT 10SM CLR 11/07 A3008 RMK AO2 SLP187 T01110072 402060100=
201508250653 METAR KCLM 250653Z AUTO 24005KT 10SM CLR 12/07 A3008 RMK AO2 SLP185 T01220067=
201508250553 METAR KCLM 250553Z AUTO 25008KT 10SM CLR 14/07 A3008 RMK AO2 SLP184 T01390072 10194 20128 51005=
201508250453 METAR KCLM 250453Z AUTO 26006KT 10SM CLR 13/09 A3007 RMK AO2 SLP182 T01330089=
201508250353 METAR KCLM 250353Z AUTO 28010KT 10SM CLR 14/09 A3007 RMK AO2 SLP182 T01390089=
201508250253 METAR KCLM 250253Z AUTO 28010KT 10SM CLR 15/08 A3006 RMK AO2 SLP178 T01500083 51001=
201508250153 METAR KCLM 250153Z AUTO 30011G18KT 10SM CLR 17/08 A3006 RMK AO2 SLP178 T01670083=
201508250053 METAR KCLM 250053Z AUTO 28012G19KT 10SM CLR 18/08 A3006 RMK AO2 SLP178 T01780078=
201508242353 METAR KCLM 242353Z AUTO 29013G18KT 10SM CLR 19/07 A3006 RMK AO2 SLP178 T01940067 10206 20150 56003=
201508242253 METAR KCLM 242253Z AUTO VRB06G15KT 10SM CLR 19/08 A3006 RMK AO2 SLP178 T01890083=
201508242153 METAR KCLM 242153Z AUTO 32008KT 280V360 10SM CLR 20/10 A3006 RMK AO2 SLP179 T02000100=
201508242053 METAR KCLM 242053Z AUTO 31010G17KT 10SM CLR 19/10 A3006 RMK AO2 SLP180 T01890100 55002=
201508241953 METAR KCLM 241953Z AUTO 34005KT 10SM CLR 18/11 A3006 RMK AO2 SLP178 T01780106=
201508241853 METAR KCLM 241853Z AUTO VRB05KT 10SM CLR 18/11 A3007 RMK AO2 SLP183 T01780106=
201508241753 METAR KCLM 241753Z AUTO 01007KT 10SM CLR 16/11 A3007 RMK AO2 SLP182 T01610106 10167 20100 53007=
201508241653 METAR KCLM 241653Z AUTO 31006KT 10SM CLR 16/11 A3006 RMK AO2 SLP178 T01610106=
201508241553 METAR KCLM 241553Z AUTO 30005KT 10SM CLR 16/10 A3005 RMK AO2 SLP176 T01610100=
201508241453 METAR KCLM 241453Z AUTO 28005KT 9SM CLR 14/11 A3005 RMK AO2 SLP175 T01390106 52009=
201508241353 METAR KCLM 241353Z AUTO 28003KT 10SM CLR 11/08 A3004 RMK AO2 SLP173 T01060083=
201508241253 METAR KCLM 241253Z AUTO 29006KT 10SM CLR 12/08 A3003 RMK AO2 SLP168 T01170083=
201508241153 METAR KCLM 241153Z AUTO 31005KT 10SM CLR 11/08 A3002 RMK AO2 SLP166 T01060078 10144 20106 53001=
201508241053 METAR KCLM 241053Z AUTO 29006KT 10SM CLR 11/07 A3002 RMK AO2 SLP164 T01110072=
201508241000 METAR KCLM NIL=
201508240953 METAR KCLM 240953Z AUTO 26007KT 10SM CLR 12/08 A3002 RMK AO2 SLP166 T01220083=
201508240853 METAR KCLM 240853Z AUTO 27006KT 10SM CLR 13/08 A3002 RMK AO2 SLP165 T01280083 52008=
201508240753 METAR KCLM 240753Z AUTO 28007KT 10SM CLR 13/08 A3001 RMK AO2 SLP163 T01280078 402220083=
201508240653 METAR KCLM 240653Z AUTO 27006KT 10SM CLR 13/08 A3000 RMK AO2 SLP159 T01330078=
201508240553 METAR KCLM 240553Z AUTO 28008KT 10SM CLR 14/08 A3000 RMK AO2 SLP156 T01440083 10217 20122 51009=
201508240453 METAR KCLM 240453Z AUTO 29008KT 10SM CLR 15/08 A2999 RMK AO2 SLP156 T01500083=
201508240353 METAR KCLM 240353Z AUTO 27010KT 10SM CLR 16/09 A2998 RMK AO2 SLP152 T01560089=
201508240253 METAR KCLM 240253Z AUTO 29008KT 10SM CLR 16/09 A2997 RMK AO2 SLP148 T01610094 53001=
201508240200 METAR KCLM NIL=
201508240100 METAR KCLM NIL=
201508232353 METAR KCLM 232353Z AUTO 32011G19KT 10SM CLR 21/11 A2996 RMK AO2 SLP146 T02110106 10222 20189 58006=
201508232253 METAR KCLM 232253Z AUTO 31007KT 10SM CLR 22/10 A2997 RMK AO2 SLP149 T02170100=
201508232153 METAR KCLM 232153Z AUTO 31007KT 10SM CLR 21/11 A2998 RMK AO2 SLP151 T02110106=
201508232053 METAR KCLM 232053Z AUTO VRB05KT 10SM CLR 21/11 A2998 RMK AO2 SLP152 T02060106 55004=
201508231953 METAR KCLM 231953Z AUTO 03004KT 10SM CLR 20/11 A2998 RMK AO2 SLP151 T02000106=
201508231853 METAR KCLM 231853Z AUTO 04006KT 10SM CLR 21/10 A2999 RMK AO2 SLP153 T02060100=
201508231753 METAR KCLM 231753Z AUTO VRB04KT 10SM CLR 21/10 A2999 RMK AO2 SLP156 T02110100 10211 20083 58000=
201508231653 METAR KCLM 231653Z AUTO 00000KT 10SM CLR 18/10 A3000 RMK AO2 SLP158 T01780100=
201508231553 METAR KCLM 231553Z AUTO 00000KT 10SM CLR 18/07 A3000 RMK AO2 SLP157 T01780067=
201508231453 METAR KCLM 231453Z AUTO 24003KT 10SM CLR 13/07 A3000 RMK AO2 SLP157 T01330072 51006=
201508231353 METAR KCLM 231353Z AUTO 28003KT 10SM CLR 11/05 A2999 RMK AO2 SLP157 T01060050=
201508231253 METAR KCLM 231253Z AUTO 00000KT 10SM CLR 08/05 A2998 RMK AO2 SLP152 T00830050=
201508231153 METAR KCLM 231153Z AUTO 00000KT 10SM CLR 09/04 A2998 RMK AO2 SLP150 T00940044 10178 20094 56002=
201508231053 METAR KCLM 231053Z AUTO 00000KT 9SM CLR 11/05 A2998 RMK AO2 SLP150 T01110050=
201508231000 METAR KCLM NIL=
201508230953 METAR KCLM 230953Z AUTO 00000KT 10SM CLR 11/05 A2997 RMK AO2 SLP148 T01110050=
201508230853 METAR KCLM 230853Z AUTO 23004KT 10SM CLR 16/05 A2998 RMK AO2 SLP151 T01560050 58006=
201508230753 METAR KCLM 230753Z AUTO 26007KT 10SM CLR 17/05 A2999 RMK AO2 SLP153 T01720050 402500072=
201508230653 METAR KCLM 230653Z AUTO 00000KT 10SM CLR 16/08 A3000 RMK AO2 SLP156 T01560078=
201508230553 METAR KCLM 230553Z AUTO 30003KT 10SM CLR 16/07 A3000 RMK AO2 SLP158 T01560072 10250 20139 58005=
201508230453 METAR KCLM 230453Z AUTO 25003KT 10SM CLR 14/09 A3001 RMK AO2 SLP161 T01390089=
201508230353 METAR KCLM 230353Z AUTO 26004KT 9SM CLR 15/10 A3002 RMK AO2 SLP164 T01500100=
201508230253 METAR KCLM 230253Z AUTO 28004KT 10SM CLR 16/10 A3001 RMK AO2 SLP163 T01610100 56013=
201508230153 METAR KCLM 230153Z AUTO 31004KT 10SM CLR 19/09 A3002 RMK AO2 SLP165 T01890094=
201508230053 METAR KCLM 230053Z AUTO 35004KT 10SM CLR 22/08 A3003 RMK AO2 SLP170 T02220083=
201508222353 METAR KCLM 222353Z AUTO 00000KT 10SM CLR 24/08 A3005 RMK AO2 SLP175 T02440078 10244 20183 58019=
201508222253 METAR KCLM 222253Z AUTO 08006KT 10SM CLR 22/08 A3007 RMK AO2 SLP182 T02220083=
201508222153 METAR KCLM 222153Z AUTO VRB06KT 10SM CLR 24/09 A3009 RMK AO2 SLP189 T02390094=
201508222053 METAR KCLM 222053Z AUTO 09008KT 10SM CLR 22/09 A3011 RMK AO2 SLP194 T02220089 58008=
201508221953 METAR KCLM 221953Z AUTO 06004KT 10SM CLR 22/10 A3011 RMK AO2 SLP197 T02170100=
201508221853 METAR KCLM 221853Z AUTO 08006KT 10SM CLR 20/09 A3012 RMK AO2 SLP200 T02000094=
201508221753 METAR KCLM 221753Z AUTO VRB04KT 10SM CLR 19/11 A3013 RMK AO2 SLP202 T01890106 10189 20072 50001=
201508221653 METAR KCLM 221653Z AUTO VRB06KT 10SM CLR 18/11 A3013 RMK AO2 SLP204 T01780106=
201508221553 METAR KCLM 221553Z AUTO 00000KT 10SM CLR 17/09 A3013 RMK AO2 SLP202 T01670089=
201508221453 METAR KCLM 221453Z AUTO 00000KT 9SM CLR 14/10 A3013 RMK AO2 SLP201 T01440100 53004=
201508221353 METAR KCLM 221353Z AUTO 00000KT 10SM CLR 09/07 A3012 RMK AO2 SLP199 T00890072=
201508221253 METAR KCLM 221253Z AUTO 00000KT 10SM CLR 09/07 A3011 RMK AO2 SLP198 T00940072=
201508221153 METAR KCLM 221153Z AUTO 00000KT 10SM CLR 09/07 A3011 RMK AO2 SLP197 T00890072 10122 20083 50004=
201508221053 METAR KCLM 221053Z AUTO 21003KT 10SM CLR 09/07 A3011 RMK AO2 SLP197 T00940072=
201508220953 METAR KCLM 220953Z AUTO 00000KT 10SM CLR 10/07 A3010 RMK AO2 SLP194 T01000072=
201508220853 METAR KCLM 220853Z AUTO 28003KT 10SM CLR 11/08 A3010 RMK AO2 SLP193 T01110083 50007=
201508220753 METAR KCLM 220753Z AUTO 00000KT 10SM CLR 10/08 A3010 RMK AO2 SLP193 T01000083 402060094=
201508220653 METAR KCLM 220653Z AUTO 00000KT 10SM CLR 12/09 A3010 RMK AO2 SLP192 T01170094=
201508220553 METAR KCLM 220553Z AUTO 23003KT 10SM CLR 12/10 A3008 RMK AO2 SLP186 T01220100 10189 20111 51013=
201508220453 METAR KCLM 220453Z AUTO 23003KT 10SM CLR 12/10 A3008 RMK AO2 SLP185 T01220100=
201508220353 METAR KCLM 220353Z AUTO 26004KT 10SM CLR 14/11 A3006 RMK AO2 SLP179 T01390106=
201508220253 METAR KCLM 220253Z AUTO 28005KT 10SM CLR 14/11 A3004 RMK AO2 SLP172 T01440106 53005=
201508220153 METAR KCLM 220153Z AUTO 33004KT 10SM CLR 17/11 A3003 RMK AO2 SLP169 T01670106=
201508220053 METAR KCLM 220053Z AUTO VRB04KT 10SM CLR 18/11 A3003 RMK AO2 SLP168 T01830111=
201508212353 METAR KCLM 212353Z AUTO 02004KT 10SM CLR 19/11 A3003 RMK AO2 SLP167 T01890106 10206 20167 53005=
201508212253 METAR KCLM 212253Z AUTO VRB04KT 10SM CLR 19/11 A3002 RMK AO2 SLP166 T01890106=
201508212153 METAR KCLM 212153Z AUTO VRB05KT 10SM CLR 19/11 A3001 RMK AO2 SLP163 T01940106=
201508212053 METAR KCLM 212053Z AUTO 02006KT 10SM CLR 18/11 A3001 RMK AO2 SLP162 T01830106 51013=
201508211953 METAR KCLM 211953Z AUTO 34007KT 10SM CLR 18/11 A3000 RMK AO2 SLP158 T01780106=
201508211853 METAR KCLM 211853Z AUTO 01006KT 10SM CLR 18/11 A2999 RMK AO2 SLP154 T01780106=
201508211753 METAR KCLM 211753Z AUTO 33008KT 10SM CLR 17/11 A2997 RMK AO2 SLP149 T01720106 10172 20106 51013=
201508211653 METAR KCLM 211653Z AUTO VRB05KT 10SM FEW021 17/11 A2996 RMK AO2 SLP145 T01720106=
201508211553 METAR KCLM 211553Z AUTO 30007KT 10SM FEW055 16/11 A2996 RMK AO2 SLP144 T01560106=
201508211453 METAR KCLM 211453Z AUTO 26003KT 10SM CLR 14/11 A2993 RMK AO2 SLP136 T01390106 53006=
201508211353 METAR KCLM 211353Z AUTO 23004KT 10SM CLR 12/09 A2993 RMK AO2 SLP134 T01170094=
201508211253 METAR KCLM 211253Z AUTO 20004KT 10SM CLR 12/10 A2992 RMK AO2 SLP130 T01170100=
201508211153 METAR KCLM 211153Z AUTO 22003KT 10SM SCT012 12/10 A2992 RMK AO2 SLP130 T01220100 10139 20122 51004=
201508211116 SPECI KCLM 211116Z AUTO 23007KT 10SM BKN012 OVC070 13/11 A2992 RMK AO2 T01280106=
201508211104 SPECI KCLM 211104Z AUTO 27008KT 9SM FEW009 SCT014 OVC070 13/11 A2992 RMK AO2 T01280106=
201508211053 METAR KCLM 211053Z AUTO 27007KT 9SM OVC070 12/11 A2991 RMK AO2 SLP129 T01220106=
201508210953 METAR KCLM 210953Z AUTO 29009KT 10SM OVC075 13/11 A2991 RMK AO2 SLP127 T01280106=
201508210853 METAR KCLM 210853Z AUTO 00000KT 10SM OVC080 14/10 A2990 RMK AO2 SLP125 T01390100 58005=
201508210753 METAR KCLM 210753Z AUTO 27008KT 10SM OVC085 13/10 A2991 RMK AO2 SLP127 T01330100 402060117=
201508210653 METAR KCLM 210653Z AUTO 28009KT 10SM OVC090 13/11 A2992 RMK AO2 SLP130 T01280106=
201508210553 METAR KCLM 210553Z AUTO 29003KT 10SM SCT010 12/11 A2992 RMK AO2 SLP130 T01220106 10189 20117 50001=
201508210550 SPECI KCLM 210550Z AUTO 28003KT 10SM SCT010 12/11 A2992 RMK AO2=
201508210538 SPECI KCLM 210538Z AUTO 00000KT 10SM BKN010 13/11 A2992 RMK AO2 CIG 008V013 T01280106=
201508210514 SPECI KCLM 210514Z AUTO 00000KT 10SM FEW009 12/11 A2992 RMK AO2 T01220111=
201508210453 METAR KCLM 210453Z AUTO 29006KT 10SM CLR 13/11 A2992 RMK AO2 SLP132 T01280111=
201508210353 METAR KCLM 210353Z AUTO 30003KT 10SM CLR 13/11 A2991 RMK AO2 SLP129 T01280111=
201508210253 METAR KCLM 210253Z AUTO 32007KT 10SM CLR 14/11 A2991 RMK AO2 SLP128 T01440111 55005=
201508210153 METAR KCLM 210153Z AUTO 31008KT 10SM CLR 18/12 A2990 RMK AO2 SLP126 T01780117=
201508210053 METAR KCLM 210053Z AUTO 29007KT 10SM CLR 18/11 A2991 RMK AO2 SLP129 T01830111=
201508202353 METAR KCLM 202353Z AUTO 35006KT 10SM CLR 17/11 A2993 RMK AO2 SLP134 T01720106 10206 20167 58005=
201508202253 METAR KCLM 202253Z AUTO 35007KT 10SM CLR 19/11 A2993 RMK AO2 SLP134 T01890111=
201508202153 METAR KCLM 202153Z AUTO VRB04KT 10SM FEW041 19/11 A2994 RMK AO2 SLP139 T01940111=
201508202053 METAR KCLM 202053Z AUTO 05006KT 10SM CLR 19/11 A2994 RMK AO2 SLP139 T01890111 51002=
201508201953 METAR KCLM 201953Z AUTO VRB04KT 10SM CLR 19/12 A2993 RMK AO2 SLP137 T01890117=
201508201853 METAR KCLM 201853Z AUTO VRB06KT 10SM CLR 17/11 A2994 RMK AO2 SLP139 T01670111=
201508201753 METAR KCLM 201753Z AUTO VRB04KT 10SM CLR 17/11 A2993 RMK AO2 SLP136 T01720111 10172 20139 51005=
201508201725 SPECI KCLM 201725Z AUTO VRB03KT 10SM SCT014 SCT020 16/11 A2994 RMK AO2 T01610111=
201508201653 METAR KCLM 201653Z AUTO 00000KT 10SM OVC013 16/11 A2993 RMK AO2 SLP136 T01560111=
201508201553 METAR KCLM 201553Z AUTO 29004KT 10SM OVC012 14/11 A2993 RMK AO2 SLP136 T01440111=
201508201453 METAR KCLM 201453Z AUTO 27003KT 10SM OVC011 14/12 A2992 RMK AO2 SLP132 T01440117 51011=
201508201353 METAR KCLM 201353Z AUTO 32003KT 9SM OVC010 14/12 A2991 RMK AO2 SLP129 T01390117=
201508201317 SPECI KCLM 201317Z AUTO 30003KT 9SM OVC010 14/12 A2990 RMK AO2 T01390117=
201508201253 METAR KCLM 201253Z AUTO 29003KT 10SM OVC009 14/12 A2990 RMK AO2 SLP124 T01440122=
201508201153 METAR KCLM 201153Z AUTO 29005KT 10SM OVC008 14/12 A2989 RMK AO2 SLP120 T01440122 10150 20144 51006=
201508201053 METAR KCLM 201053Z AUTO 28006KT 10SM OVC007 14/13 A2989 RMK AO2 SLP120 T01440128=
201508200953 METAR KCLM 200953Z AUTO 29007KT 10SM OVC007 14/13 A2988 RMK AO2 SLP117 T01440128=
201508200853 METAR KCLM 200853Z AUTO 28010KT 10SM OVC005 14/13 A2987 RMK AO2 SLP114 T01440133 53000=
201508200849 SPECI KCLM 200849Z AUTO 28010KT 10SM OVC005 14/13 A2987 RMK AO2=
201508200837 SPECI KCLM 200837Z AUTO 29009KT 10SM OVC004 14/13 A2987 RMK AO2 CIG 003V007 T01440133=
201508200753 METAR KCLM 200753Z AUTO 28009KT 10SM OVC006 14/13 A2987 RMK AO2 SLP113 T01440133 402670122=
201508200653 METAR KCLM 200653Z AUTO 28013G20KT 10SM OVC006 15/13 A2987 RMK AO2 CIG 005V009 SLP115 T01500133=
201508200553 METAR KCLM 200553Z AUTO 29011KT 10SM BKN006 14/13 A2986 RMK AO2 SLP109 T01440128 10217 20144 58005=
201508200527 SPECI KCLM 200527Z AUTO 28006KT 10SM BKN006 14/13 A2987 RMK AO2 T01440133=
201508200453 METAR KCLM 200453Z AUTO 29009KT 10SM FEW008 14/13 A2987 RMK AO2 SLP114 T01440128=
201508200437 SPECI KCLM 200437Z AUTO 29009KT 10SM FEW008 14/13 A2987 RMK AO2 T01440128=
201508200353 METAR KCLM 200353Z AUTO 29010KT 10SM CLR 15/13 A2987 RMK AO2 SLP112 T01500128=
201508200253 METAR KCLM 200253Z AUTO 28012KT 10SM FEW009 16/13 A2987 RMK AO2 SLP114 T01560128 56005=
201508200153 METAR KCLM 200153Z AUTO 30008KT 10SM CLR 18/13 A2987 RMK AO2 SLP115 T01780128=
201508200053 METAR KCLM 200053Z AUTO 32009G17KT 10SM CLR 20/13 A2987 RMK AO2 SLP115 T02000128=
201508192353 METAR KCLM 192353Z AUTO 32012G18KT 10SM CLR 21/13 A2988 RMK AO2 SLP118 T02110133 10267 20189 58008=
201508192253 METAR KCLM 192253Z AUTO 30014G20KT 10SM CLR 24/14 A2990 RMK AO2 SLP123 T02390139=
201508192153 METAR KCLM 192153Z AUTO 33007KT 300V020 10SM CLR 26/11 A2991 RMK AO2 SLP128 T02560111=
201508192053 METAR KCLM 192053Z AUTO VRB04KT 10SM CLR 22/11 A2991 RMK AO2 SLP126 T02220111 56007=
201508191953 METAR KCLM 191953Z AUTO VRB05KT 10SM CLR 24/11 A2991 RMK AO2 SLP128 T02440111=
201508191853 METAR KCLM 191853Z AUTO 34005KT 10SM CLR 19/11 A2992 RMK AO2 SLP130 T01890111=
201508191753 METAR KCLM 191753Z AUTO 08005KT 10SM CLR 24/11 A2993 RMK AO2 SLP133 T02390111 10244 20122 58000=
201508191653 METAR KCLM 191653Z AUTO 08007KT 10SM CLR 24/11 A2994 RMK AO2 SLP136 T02390111=
201508191553 METAR KCLM 191553Z AUTO 08007KT 10SM CLR 23/11 A2994 RMK AO2 SLP137 T02280106=
201508191453 METAR KCLM 191453Z AUTO 00000KT 10SM CLR 20/12 A2993 RMK AO2 SLP134 T02000117 53000=
201508191353 METAR KCLM 191353Z AUTO 00000KT 10SM CLR 14/10 A2993 RMK AO2 SLP134 T01440100=
201508191253 METAR KCLM 191253Z AUTO 00000KT 10SM CLR 13/09 A2992 RMK AO2 SLP130 T01280089=
201508191153 METAR KCLM 191153Z AUTO 17003KT 10SM CLR 14/09 A2993 RMK AO2 SLP133 T01440089 10200 20133 55001=
201508191053 METAR KCLM 191053Z AUTO 20003KT 10SM CLR 16/09 A2993 RMK AO2 SLP133 T01560094=
201508190953 METAR KCLM 190953Z AUTO 20003KT 10SM CLR 13/09 A2993 RMK AO2 SLP134 T01330094=
201508190853 METAR KCLM 190853Z AUTO 00000KT 10SM CLR 16/09 A2993 RMK AO2 SLP134 T01560094 58004=
201508190753 METAR KCLM 190753Z AUTO 23004KT 10SM CLR 17/09 A2994 RMK AO2 SLP137 T01720094 402940100=
201508190653 METAR KCLM 190653Z AUTO 27007KT 10SM CLR 20/09 A2994 RMK AO2 SLP137 T02000094=
201508190553 METAR KCLM 190553Z AUTO 25005KT 10SM CLR 17/11 A2994 RMK AO2 SLP138 T01720111 10294 20156 58002=
201508190453 METAR KCLM 190453Z AUTO 23004KT 10SM CLR 18/11 A2996 RMK AO2 SLP143 T01780111=
201508190353 METAR KCLM 190353Z AUTO 30003KT 10SM CLR 18/11 A2996 RMK AO2 SLP145 T01780111=
201508190253 METAR KCLM 190253Z AUTO 36004KT 10SM CLR 26/09 A2995 RMK AO2 SLP139 T02610094 56015=
201508190153 METAR KCLM 190153Z AUTO 09004KT 10SM CLR 29/09 A2996 RMK AO2 SLP143 T02890094=
201508190053 METAR KCLM 190053Z AUTO 11006KT 10SM CLR 29/10 A2997 RMK AO2 SLP149 T02940100=
201508182353 METAR KCLM 182353Z AUTO 09008KT 10SM CLR 29/09 A2999 RMK AO2 SLP155 T02890094 10294 20228 56020=
201508182253 METAR KCLM 182253Z AUTO 10007KT 10SM CLR 29/10 A3001 RMK AO2 SLP161 T02890100=
201508182153 METAR KCLM 182153Z AUTO 11008KT 10SM CLR 28/10 A3003 RMK AO2 SLP169 T02780100=
201508182053 METAR KCLM 182053Z AUTO 10008KT 080V140 10SM CLR 27/12 A3005 RMK AO2 SLP175 T02670117 56017=
201508181953 METAR KCLM 181953Z AUTO 08008KT 10SM CLR 24/12 A3007 RMK AO2 SLP180 T02390122=
201508181853 METAR KCLM 181853Z AUTO 10008KT 10SM CLR 23/12 A3008 RMK AO2 SLP186 T02330122=
201508181753 METAR KCLM 181753Z AUTO 08009KT 10SM CLR 23/12 A3010 RMK AO2 SLP192 T02330117 10239 20100 50000=
201508181653 METAR KCLM 181653Z AUTO 11009KT 10SM CLR 23/12 A3010 RMK AO2 SLP192 T02330117=
201508181553 METAR KCLM 181553Z AUTO 11007KT 10SM CLR 23/11 A3010 RMK AO2 SLP192 T02280111=
201508181453 METAR KCLM 181453Z AUTO 11010KT 10SM CLR 21/11 A3010 RMK AO2 SLP192 T02110106 53009=
201508181353 METAR KCLM 181353Z AUTO 14004KT 10SM CLR 12/08 A3009 RMK AO2 SLP188 T01220083=
201508181253 METAR KCLM 181253Z AUTO 19003KT 10SM CLR 11/07 A3007 RMK AO2 SLP183 T01060072=
201508181153 METAR KCLM 181153Z AUTO 00000KT 10SM CLR 12/08 A3007 RMK AO2 SLP183 T01170078 10172 20100 50002=
201508181053 METAR KCLM 181053Z AUTO 17004KT 10SM CLR 13/08 A3008 RMK AO2 SLP184 T01280078=
201508180953 METAR KCLM 180953Z AUTO 24004KT 10SM CLR 13/08 A3007 RMK AO2 SLP182 T01280078=
201508180853 METAR KCLM 180853Z AUTO 00000KT 10SM CLR 12/08 A3007 RMK AO2 SLP180 T01220083 58002=
201508180753 METAR KCLM 180753Z AUTO 00000KT 10SM CLR 13/09 A3008 RMK AO2 SLP184 T01330089 402610089=
201508180653 METAR KCLM 180653Z AUTO 26006KT 10SM CLR 17/08 A3006 RMK AO2 SLP179 T01720083=
201508180553 METAR KCLM 180553Z AUTO 24003KT 10SM CLR 14/11 A3007 RMK AO2 SLP182 T01390106 10261 20133 56005=
201508180453 METAR KCLM 180453Z AUTO 00000KT 10SM CLR 14/11 A3008 RMK AO2 SLP184 T01440106=
201508180353 METAR KCLM 180353Z AUTO 00000KT 10SM CLR 16/11 A3008 RMK AO2 SLP186 T01560111=
201508180253 METAR KCLM 180253Z AUTO 35003KT 10SM CLR 17/11 A3009 RMK AO2 SLP188 T01720111 53000=
201508180153 METAR KCLM 180153Z AUTO 31005KT 10SM CLR 19/11 A3008 RMK AO2 SLP186 T01890111=
201508180053 METAR KCLM 180053Z AUTO 04004KT 10SM CLR 24/10 A3008 RMK AO2 SLP185 T02440100=
201508172353 METAR KCLM 172353Z AUTO VRB03KT 10SM CLR 26/10 A3009 RMK AO2 SLP187 T02560100 10261 20206 56015=
201508172253 METAR KCLM 172253Z AUTO 08006KT 10SM CLR 26/10 A3009 RMK AO2 SLP189 T02560100=
201508172153 METAR KCLM 172153Z AUTO 09007KT 10SM CLR 24/09 A3012 RMK AO2 SLP197 T02440094=
201508172053 METAR KCLM 172053Z AUTO 11006KT 10SM CLR 23/11 A3013 RMK AO2 SLP202 T02330106 58010=
201508171953 METAR KCLM 171953Z AUTO 10007KT 10SM CLR 23/10 A3015 RMK AO2 SLP207 T02330100=
201508171853 METAR KCLM 171853Z AUTO 08009KT 10SM CLR 21/11 A3016 RMK AO2 SLP213 T02110106=
201508171753 METAR KCLM 171753Z AUTO 09010KT 10SM CLR 21/08 A3016 RMK AO2 SLP214 T02110083 10217 20089 51003=
201508171653 METAR KCLM 171653Z AUTO 08006KT 10SM CLR 21/09 A3016 RMK AO2 SLP213 T02060094=
201508171553 METAR KCLM 171553Z AUTO 03003KT 10SM CLR 17/11 A3016 RMK AO2 SLP214 T01670111=
201508171453 METAR KCLM 171453Z AUTO 00000KT 8SM CLR 16/12 A3015 RMK AO2 SLP210 T01560122 55000=
201508171353 METAR KCLM 171353Z AUTO 00000KT 6SM BR CLR 10/09 A3015 RMK AO2 SLP209 T01000089=
201508171253 METAR KCLM 171253Z AUTO 22004KT 7SM CLR 09/08 A3015 RMK AO2 SLP210 T00940083=
201508171153 METAR KCLM 171153Z AUTO 00000KT 9SM CLR 09/09 A3015 RMK AO2 SLP210 T00940089 10156 20094 55000=
201508171141 SPECI KCLM 171141Z AUTO 00000KT 3SM BR FEW002 10/09 A3015 RMK AO2 T01000094=
201508171138 SPECI KCLM 171138Z AUTO 00000KT 1 1/4SM BR FEW002 10/09 A3015 RMK AO2 T01000094=
201508171127 SPECI KCLM 171127Z AUTO 00000KT 1/4SM FG VV002 10/09 A3015 RMK AO2 T01000094=
201508171117 SPECI KCLM 171117Z AUTO 00000KT 1/4SM FG VV001 09/09 A3015 RMK AO2 VIS M1/4V2 1/2 T00940089=
201508171109 SPECI KCLM 171109Z AUTO 00000KT 1 1/2SM BR BKN001 10/09 A3015 RMK AO2 T01000094=
201508171053 METAR KCLM 171053Z AUTO 00000KT M1/4SM FG VV001 11/10 A3015 RMK AO2 SLP209 T01060100=
201508171048 SPECI KCLM 171048Z AUTO 00000KT 1/4SM FG VV001 11/10 A3015 RMK AO2=
201508171039 SPECI KCLM 171039Z AUTO 03004KT 3/4SM BR VV001 11/09 A3015 RMK AO2 T01060094=
201508170953 METAR KCLM 170953Z AUTO 20003KT 8SM FEW001 11/11 A3015 RMK AO2 SLP210 T01110106=
201508170924 SPECI KCLM 170924Z AUTO 00000KT 2 1/2SM BR FEW001 12/11 A3016 RMK AO2 T01170106=
201508170853 METAR KCLM 170853Z AUTO 33004KT 10SM CLR 12/10 A3015 RMK AO2 SLP211 T01170100 58002=
201508170753 METAR KCLM 170753Z AUTO VRB05KT 10SM CLR 13/11 A3017 RMK AO2 SLP216 T01280106 402170100=
201508170653 METAR KCLM 170653Z AUTO 32006KT 10SM CLR 14/11 A3015 RMK AO2 SLP211 T01390106=
201508170553 METAR KCLM 170553Z AUTO 00000KT 10SM CLR 13/11 A3016 RMK AO2 SLP213 T01330106 10189 20128 58007=
201508170453 METAR KCLM 170453Z AUTO 25005KT 10SM CLR 14/11 A3018 RMK AO2 SLP221 T01390106=
201508170353 METAR KCLM 170353Z AUTO 25004KT 10SM CLR 14/11 A3018 RMK AO2 SLP220 T01440106=
201508170253 METAR KCLM 170253Z AUTO 28005KT 10SM CLR 17/11 A3018 RMK AO2 SLP220 T01670111 56009=
201508170153 METAR KCLM 170153Z AUTO 30007KT 10SM CLR 17/12 A3019 RMK AO2 SLP222 T01720117=
201508170053 METAR KCLM 170053Z AUTO 30006KT 10SM CLR 16/11 A3020 RMK AO2 SLP227 T01610111=
201508162353 METAR KCLM 162353Z AUTO 35005KT 10SM CLR 18/11 A3021 RMK AO2 SLP229 T01830111 10217 20183 58012=
201508162253 METAR KCLM 162253Z AUTO VRB04KT 10SM CLR 20/12 A3022 RMK AO2 SLP235 T02000117=
201508162153 METAR KCLM 162153Z AUTO VRB04KT 10SM CLR 19/12 A3023 RMK AO2 SLP238 T01940117=
201508162053 METAR KCLM 162053Z AUTO 04006KT 10SM CLR 21/12 A3024 RMK AO2 SLP242 T02060117 58012=
201508161953 METAR KCLM 161953Z AUTO VRB05KT 10SM CLR 21/12 A3026 RMK AO2 SLP247 T02110117=
201508161853 METAR KCLM 161853Z AUTO 00000KT 10SM CLR 20/12 A3028 RMK AO2 SLP252 T02000117=
201508161753 METAR KCLM 161753Z AUTO 00000KT 10SM CLR 18/11 A3028 RMK AO2 SLP253 T01780106 10178 20106 55003=
201508161653 METAR KCLM 161653Z AUTO 00000KT 10SM CLR 15/11 A3027 RMK AO2 SLP251 T01500106=
201508161553 METAR KCLM 161553Z AUTO VRB04KT 10SM CLR 14/11 A3028 RMK AO2 SLP254 T01390106=
201508161453 METAR KCLM 161453Z AUTO 28004KT 10SM SCT001 12/11 A3029 RMK AO2 SLP256 T01220106 53006=
201508161445 SPECI KCLM 161445Z AUTO 27005KT 4SM BR BKN001 12/11 A3029 RMK AO2 T01170111=
201508161443 SPECI KCLM 161443Z AUTO 28005KT 1 1/4SM BR BKN001 12/11 A3029 RMK AO2 T01170111=
201508161427 SPECI KCLM 161427Z AUTO 29005KT M1/4SM FG VV001 11/10 A3029 RMK AO2 T01110100=
201508161419 SPECI KCLM 161419Z AUTO 30004KT 1/4SM FG VV002 11/10 A3029 RMK AO2 T01060100=
201508161414 SPECI KCLM 161414Z AUTO 33003KT 3/4SM BR VV001 11/10 A3029 RMK AO2 VIS M1/4V5 T01060100=
201508161412 SPECI KCLM 161412Z AUTO 31003KT 1 3/4SM BR FEW001 11/10 A3029 RMK AO2 VIS 1/2V5 T01060100=
201508161353 METAR KCLM 161353Z AUTO 36005KT 10SM CLR 11/09 A3028 RMK AO2 SLP253 T01110094=
201508161253 METAR KCLM 161253Z AUTO 24003KT 10SM BKN049 11/09 A3027 RMK AO2 SLP252 T01110094=
201508161153 METAR KCLM 161153Z AUTO VRB06KT 10SM CLR 12/10 A3027 RMK AO2 SLP250 T01170100 10139 20100 50001=
201508161053 METAR KCLM 161053Z AUTO 30004KT 10SM CLR 11/09 A3027 RMK AO2 SLP250 T01110094=
201508160953 METAR KCLM 160953Z AUTO 30005KT 10SM CLR 12/10 A3027 RMK AO2 SLP249 T01170100=
201508160853 METAR KCLM 160853Z AUTO 26004KT 10SM CLR 12/10 A3027 RMK AO2 SLP249 T01220100 51001=
201508160753 METAR KCLM 160753Z AUTO 27004KT 10SM CLR 13/10 A3026 RMK AO2 SLP248 T01280100 401830100=
201508160653 METAR KCLM 160653Z AUTO 28007KT 10SM CLR 13/11 A3027 RMK AO2 SLP250 T01330106=
201508160553 METAR KCLM 160553Z AUTO 28007KT 10SM CLR 13/11 A3026 RMK AO2 SLP248 T01330111 10178 20133 50001=
201508160453 METAR KCLM 160453Z AUTO 29008KT 10SM CLR 14/11 A3028 RMK AO2 SLP252 T01390106=
201508160353 METAR KCLM 160353Z AUTO 28011KT 10SM BKN050 16/11 A3026 RMK AO2 SLP248 T01560106=
201508160253 METAR KCLM 160253Z AUTO 29007KT 10SM BKN050 17/11 A3026 RMK AO2 SLP247 T01670111 55003=
201508160153 METAR KCLM 160153Z AUTO 30006KT 10SM BKN050 OVC070 17/11 A3026 RMK AO2 SLP246 T01720111=
201508160053 METAR KCLM 160053Z AUTO 31007KT 10SM OVC050 18/11 A3027 RMK AO2 SLP250 T01780111=
201508152353 METAR KCLM 152353Z AUTO 33004KT 10SM OVC050 18/12 A3027 RMK AO2 SLP251 T01780117 10183 20161 50000=
201508152253 METAR KCLM 152253Z AUTO 32009KT 10SM OVC050 17/12 A3027 RMK AO2 SLP251 T01720117=
201508152153 METAR KCLM 152153Z AUTO 30008KT 10SM OVC055 17/12 A3027 RMK AO2 SLP251 T01720117 $=
201508152053 METAR KCLM 152053Z AUTO 32007KT 290V350 10SM OVC065 17/12 A3027 RMK AO2 SLP250 T01720117 51006 $=
201508151953 METAR KCLM 151953Z AUTO 31007KT 10SM OVC060 17/12 A3027 RMK AO2 SLP250 T01720117 $=
201508151853 METAR KCLM 151853Z AUTO 32007KT 10SM OVC060 17/11 A3026 RMK AO2 SLP248 T01670111 $=
201508151753 METAR KCLM 151753Z AUTO 00000KT 10SM OVC060 17/11 A3025 RMK AO2 SLP244 T01720106 10183 20117 51009 $=
201508151653 METAR KCLM 151653Z AUTO VRB03KT 10SM OVC060 17/11 A3024 RMK AO2 SLP240 T01720106 $=
201508151553 METAR KCLM 151553Z AUTO 00000KT 10SM OVC060 17/10 A3024 RMK AO2 SLP240 T01670100 $=
201508151453 METAR KCLM 151453Z AUTO 29003KT 10SM OVC060 14/11 A3022 RMK AO2 SLP235 T01440106 53013 $=
201508151353 METAR KCLM 151353Z AUTO 23004KT 10SM OVC060 13/10 A3021 RMK AO2 SLP230 T01280100=
201508151253 METAR KCLM 151253Z AUTO 24004KT 10SM OVC060 12/10 A3020 RMK AO2 SLP225 T01220100=
201508151153 METAR KCLM 151153Z AUTO 16006KT 10SM OVC060 13/11 A3019 RMK AO2 SLP222 70002 T01280111 10133 20100 51009=
201508151053 METAR KCLM 151053Z AUTO 21003KT 10SM BKN060 13/10 A3019 RMK AO2 SLP222 T01280100=
201508150953 METAR KCLM 150953Z AUTO VRB03KT 10SM FEW055 11/09 A3017 RMK AO2 SLP215 T01060094=
201508150853 METAR KCLM 150853Z AUTO 20003KT 10SM BKN055 11/10 A3016 RMK AO2 SLP213 T01110100 51018=
201508150753 METAR KCLM 150753Z AUTO 00000KT 10SM FEW050 11/09 A3015 RMK AO2 SLP210 T01060094=
201508150653 METAR KCLM 150653Z AUTO 14003KT 10SM CLR 12/10 A3013 RMK AO2 SLP204 T01170100=
201508150553 METAR KCLM 150553Z AUTO 21003KT 10SM CLR 12/10 A3011 RMK AO2 SLP195 T01220100 10189 20122 53017=
201508150453 METAR KCLM 150453Z AUTO 20005KT 10SM CLR 14/11 A3009 RMK AO2 SLPNO T01440106=
201508150353 METAR KCLM 150353Z AUTO 00000KT 10SM FEW120 14/11 A3007 RMK AO2 SLPNO T01390106=
201508150323 SPECI KCLM 150323Z AUTO 00000KT 10SM SCT023 BKN120 16/12 A3006 RMK AO2 T01560117=
201508150306 SPECI KCLM 150306Z AUTO 00000KT 10SM BKN022 BKN120 16/12 A3006 RMK AO2 T01610117=
201508150253 METAR KCLM 150253Z AUTO 00000KT 10SM SCT020 17/12 A3006 RMK AO2 SLPNO T01670117 53011=
201508150153 METAR KCLM 150153Z AUTO 30006KT 9SM BKN019 BKN120 16/12 A3004 RMK AO2 SLPNO T01560122=
201508150053 METAR KCLM 150053Z AUTO 01004KT 8SM CLR 17/12 A3002 RMK AO2 SLPNO T01720122=
201508142353 METAR KCLM 142353Z AUTO 33006KT 8SM SCT030 BKN120 17/13 A3003 RMK AO2 SLPNO 60002 T01720128 10178 20156 51010=
201508142328 SPECI KCLM 142328Z AUTO 00000KT 8SM OVC030 18/13 A3002 RMK AO2 T01780128=
201508142253 METAR KCLM 142253Z AUTO 00000KT 8SM OVC024 17/13 A3003 RMK AO2 RAE29 SLPNO P0000 T01720133=
201508142200 SPECI KCLM 142200Z AUTO 25003KT 8SM -RA BKN022 BKN030 OVC090 17/14 A3001 RMK AO2 P0000 T01670139=
201508142153 METAR KCLM 142153Z AUTO 25005KT 8SM -RA SCT022 BKN030 OVC110 17/14 A3001 RMK AO2 RAB35 SLPNO P0000 T01670139=
201508142119 SPECI KCLM 142119Z AUTO 26006KT 9SM SCT017 BKN120 16/14 A2999 RMK AO2 T01610139=
201508142053 METAR KCLM 142053Z AUTO 27005KT 9SM FEW011 OVC017 16/14 A2999 RMK AO2 RAE27 SLPNO P0000 60002 T01610139 50009=
201508142050 SPECI KCLM 142050Z AUTO 26005KT 9SM SCT011 OVC017 16/14 A2999 RMK AO2 RAE27 P0000=
201508142015 SPECI KCLM 142015Z AUTO 00000KT 5SM -RA BR BKN011 BKN017 OVC100 16/14 A2999 RMK AO2 LTG DSNT SE P0000 T01610144=
201508142005 SPECI KCLM 142005Z AUTO 26004KT 5SM -RA BR SCT011 BKN017 OVC100 16/14 A2998 RMK AO2 LTG DSNT SE P0000 T01610139=
201508141953 METAR KCLM 141953Z AUTO 23004KT 7SM -RA SCT017 OVC100 16/14 A2999 RMK AO2 LTG DSNT SE RAE1857B25 SLPNO P0002 T01610139=
201508141944 SPECI KCLM 141944Z AUTO 26003KT 7SM -RA SCT017 OVC100 16/14 A2998 RMK AO2 RAE1857B25 P0000 T01560139=
201508141932 SPECI KCLM 141932Z AUTO 00000KT 6SM -RA BR BKN016 OVC100 16/14 A2998 RMK AO2 LTG DSNT SE AND S RAE1857B25 P0000 T01560139=
201508141920 SPECI KCLM 141920Z AUTO 30006KT 7SM SCT014 BKN100 OVC110 16/14 A2997 RMK AO2 RAE1857 P0000 T01560139=
201508141910 SPECI KCLM 141910Z AUTO 25004KT 7SM BKN013 BKN090 OVC110 16/14 A2997 RMK AO2 LTG DSNT S RAE1857 P0000 T01560139=
201508141853 METAR KCLM 141853Z AUTO 27004KT 7SM -RA SCT090 BKN110 16/14 A2997 RMK AO2 LTG DSNT S RAB1759 SLPNO P0000 T01560139=
201508141830 SPECI KCLM 141830Z AUTO 27006KT 6SM -RA BR SCT013 OVC110 16/13 A2996 RMK AO2 LTG DSNT S RAB1759 P0000 T01560133=
201508141820 SPECI KCLM 141820Z AUTO 30006KT 6SM -RA BR BKN013 BKN090 OVC110 16/13 A2995 RMK AO2 LTG DSNT S RAB1759 P0000 T01560133=
201508141753 METAR KCLM 141753Z AUTO 26005KT 9SM SCT011 OVC100 16/13 A2995 RMK AO2 SLPNO T01560133=
201508141700 METAR KCLM NIL=
201508141600 METAR KCLM NIL=
201508141453 METAR KCLM 141453Z AUTO A2995 RMK AO2 SLPNO PWINO $=
201508141353 METAR KCLM 141353Z AUTO A2994 RMK AO2 SLPNO PWINO $=
201508141253 METAR KCLM 141253Z AUTO A2993 RMK AO2 SLPNO PWINO $=
201508141153 METAR KCLM 141153Z AUTO A2990 RMK AO2 SLPNO 7//// 57007 PWINO $=
201508141053 METAR KCLM 141053Z AUTO A2993 RMK AO2 SLPNO PWINO $=
201508140953 METAR KCLM 140953Z AUTO A2989 RMK AO2 SLPNO PWINO $=
201508140853 METAR KCLM 140853Z AUTO A2992 RMK AO2 SLPNO 56007 PWINO $=
201508140753 METAR KCLM 140753Z AUTO A2992 RMK AO2 SLPNO PWINO $=
201508140653 METAR KCLM 140653Z AUTO A2993 RMK AO2 SLPNO PWINO $=
201508140553 METAR KCLM 140553Z AUTO A2994 RMK AO2 SLPNO 6//// PWINO $=
201508140453 METAR KCLM 140453Z AUTO A2995 RMK AO2 SLPNO PWINO $=
201508140353 METAR KCLM 140353Z AUTO A2994 RMK AO2 SLPNO PWINO PNO $=
201508140253 METAR KCLM 140253Z AUTO A2993 RMK AO2 SLPNO PWINO $=
201508140153 METAR KCLM 140153Z AUTO A2993 RMK AO2 SLPNO PWINO $=
201508140053 METAR KCLM 140053Z AUTO A2994 RMK AO2 SLPNO PWINO $=
201508132353 METAR KCLM 132353Z AUTO A2995 RMK AO2 SLPNO 57020 PWINO $=
201508132253 METAR KCLM 132253Z AUTO A2997 RMK AO2 SLPNO PWINO $=
201508132153 METAR KCLM 132153Z AUTO A2999 RMK AO2 SLPNO PWINO $=
201508132053 METAR KCLM 132053Z AUTO A3001 RMK AO2 SLPNO 58010 PWINO $=
201508131953 METAR KCLM 131953Z AUTO A3002 RMK AO2 SLPNO PWINO $=
201508131853 METAR KCLM 131853Z AUTO A3004 RMK AO2 SLPNO PWINO $=
201508131753 METAR KCLM 131753Z AUTO A3004 RMK AO2 SLPNO 54000 PWINO $=
201508131653 METAR KCLM 131653Z AUTO A3004 RMK AO2 SLPNO PWINO $=
201508131553 METAR KCLM 131553Z AUTO A3004 RMK AO2 SLPNO PWINO $=
201508131453 METAR KCLM 131453Z AUTO A3004 RMK AO2 SLPNO PWINO $=
201508131353 METAR KCLM 131353Z AUTO A3003 RMK AO2 SLPNO PWINO $=
201508131253 METAR KCLM 131253Z AUTO A3002 RMK AO2 SLPNO PWINO $=
201508131153 METAR KCLM 131153Z AUTO A3002 RMK AO2 SLPNO 52007 PWINO $=
201508131053 METAR KCLM 131053Z AUTO A3001 RMK AO2 SLPNO PWINO $=
201508130953 METAR KCLM 130953Z AUTO A3001 RMK AO2 SLPNO PWINO $=
201508130853 METAR KCLM 130853Z AUTO A3000 RMK AO2 SLPNO 51007 PWINO $=
201508130753 METAR KCLM 130753Z AUTO A3000 RMK AO2 SLPNO PWINO $=
201508130653 METAR KCLM 130653Z AUTO A3000 RMK AO2 SLPNO PWINO $=
201508130553 METAR KCLM 130553Z AUTO A2998 RMK AO2 SLPNO 52017 PWINO $=
201508130453 METAR KCLM 130453Z AUTO A2997 RMK AO2 SLPNO PWINO $=
201508130353 METAR KCLM 130353Z AUTO A2994 RMK AO2 SLPNO PWINO $=
201508130253 METAR KCLM 130253Z AUTO A2993 RMK AO2 SLPNO 55007 PWINO $=
201508130153 METAR KCLM 130153Z AUTO A2992 RMK AO2 SLPNO PWINO $=
201508130053 METAR KCLM 130053Z AUTO A2993 RMK AO2 SLPNO PWINO $=
201508122353 METAR KCLM 122353Z AUTO A2995 RMK AO2 SLPNO PWINO $=
201508122253 METAR KCLM 122253Z AUTO A2995 RMK AO2 SLPNO PWINO $=
201508122153 METAR KCLM 122153Z AUTO A2996 RMK AO2 SLPNO PWINO $=
201508122053 METAR KCLM 122053Z AUTO A2998 RMK AO2 SLPNO 50000 PWINO $=
201508121953 METAR KCLM 121953Z AUTO A2999 RMK AO2 SLPNO PWINO $=
201508121853 METAR KCLM 121853Z AUTO A3001 RMK AO2 LTG DSNT SE PRESRR SLPNO PWINO $=
201508121753 METAR KCLM 121753Z AUTO A2998 RMK AO2 SLPNO 53003 PWINO $=
201508121653 METAR KCLM 121653Z AUTO A2997 RMK AO2 SLPNO PWINO $=
201508121553 METAR KCLM 121553Z AUTO A2997 RMK AO2 SLPNO PWINO $=
201508121453 METAR KCLM 121453Z AUTO A2997 RMK AO2 SLPNO 53007 PWINO $=
201508121353 METAR KCLM 121353Z AUTO A2996 RMK AO2 SLPNO PWINO $=
201508121253 METAR KCLM 121253Z AUTO A2995 RMK AO2 SLPNO PWINO $=
201508121153 METAR KCLM 121153Z AUTO A2995 RMK AO2 SLPNO 52007 PWINO $=
201508121053 METAR KCLM 121053Z AUTO A2994 RMK AO2 SLPNO PWINO $=
201508120953 METAR KCLM 120953Z AUTO A2994 RMK AO2 SLPNO PWINO $=
201508120853 METAR KCLM 120853Z AUTO A2993 RMK AO2 SLPNO 50003 PWINO $=
201508120753 METAR KCLM 120753Z AUTO A2994 RMK AO2 SLPNO PWINO $=
201508120653 METAR KCLM 120653Z AUTO A2994 RMK AO2 SLPNO PWINO $=
201508120553 METAR KCLM 120553Z AUTO A2992 RMK AO2 SLPNO 51007 PWINO $=
201508120453 METAR KCLM 120453Z AUTO A2992 RMK AO2 SLPNO PWINO $=
201508120353 METAR KCLM 120353Z AUTO A2991 RMK AO2 SLPNO PWINO $=
201508120253 METAR KCLM 120253Z AUTO A2990 RMK AO2 SLPNO 56007 PWINO $=
201508120153 METAR KCLM 120153Z AUTO A2990 RMK AO2 SLPNO PWINO $=
201508120053 METAR KCLM 120053Z AUTO A2991 RMK AO2 SLPNO PWINO $=
201508112353 METAR KCLM 112353Z AUTO A2992 RMK AO2 SLPNO 56014 PWINO $=
201508112253 METAR KCLM 112253Z AUTO A2993 RMK AO2 SLPNO PWINO $=
201508112153 METAR KCLM 112153Z AUTO A2994 RMK AO2 SLPNO PWINO $=
201508112053 METAR KCLM 112053Z AUTO A2996 RMK AO2 SLPNO 58014 PWINO $=
201508111953 METAR KCLM 111953Z AUTO A2998 RMK AO2 SLPNO PWINO $=
201508111853 METAR KCLM 111853Z AUTO A3000 RMK AO2 SLPNO PWINO $=
201508111753 METAR KCLM 111753Z AUTO A3000 RMK AO2 SLPNO 58003 PWINO $=
201508111653 METAR KCLM 111653Z AUTO A3001 RMK AO2 SLPNO PWINO $=
201508111553 METAR KCLM 111553Z AUTO A3001 RMK AO2 SLPNO PWINO $=
201508111453 METAR KCLM 111453Z AUTO A3001 RMK AO2 SLPNO 52007 PWINO $=
201508111353 METAR KCLM 111353Z AUTO A3001 RMK AO2 SLPNO PWINO $=
201508111253 METAR KCLM 111253Z AUTO A2999 RMK AO2 SLPNO PWINO $=
201508111153 METAR KCLM 111153Z AUTO A2999 RMK AO2 SLPNO 52003 PWINO $=
201508111053 METAR KCLM 111053Z AUTO A2999 RMK AO2 SLPNO PWINO $=
201508110953 METAR KCLM 110953Z AUTO A2998 RMK AO2 SLPNO PWINO $=
201508110853 METAR KCLM 110853Z AUTO A2998 RMK AO2 SLPNO 51007 PWINO $=
201508110753 METAR KCLM 110753Z AUTO A2998 RMK AO2 SLPNO PWINO $=
201508110653 METAR KCLM 110653Z AUTO A2998 RMK AO2 SLPNO PWINO $=
201508110553 METAR KCLM 110553Z AUTO A2996 RMK AO2 SLPNO 51010 PWINO $=
201508110453 METAR KCLM 110453Z AUTO A2996 RMK AO2 SLPNO PWINO $=
201508110353 METAR KCLM 110353Z AUTO A2994 RMK AO2 SLPNO PWINO $=
201508110253 METAR KCLM 110253Z AUTO A2993 RMK AO2 SLPNO 52003 PWINO $=
201508110153 METAR KCLM 110153Z AUTO A2992 RMK AO2 SLPNO PWINO $=
201508110053 METAR KCLM 110053Z AUTO A2993 RMK AO2 SLPNO PWINO $=
201508102353 METAR KCLM 102353Z AUTO A2992 RMK AO2 SLPNO 58010 PWINO $=
201508102253 METAR KCLM 102253Z AUTO A2993 RMK AO2 SLPNO PWINO $=
201508102153 METAR KCLM 102153Z AUTO A2995 RMK AO2 SLPNO PWINO $=
201508102053 METAR KCLM 102053Z AUTO A2995 RMK AO2 SLPNO 58007 PWINO $=
201508101953 METAR KCLM 101953Z AUTO A2996 RMK AO2 SLPNO PWINO $=
201508101853 METAR KCLM 101853Z AUTO A2997 RMK AO2 SLPNO PWINO $=
201508101753 METAR KCLM 101753Z AUTO A2997 RMK AO2 SLPNO 51007 PWINO $=
201508101653 METAR KCLM 101653Z AUTO A2997 RMK AO2 SLPNO PWINO $=
201508101553 METAR KCLM 101553Z AUTO A2997 RMK AO2 SLPNO PWINO $=
201508101453 METAR KCLM 101453Z AUTO A2995 RMK AO2 SLPNO 53007 PWINO $=
201508101353 METAR KCLM 101353Z AUTO A2993 RMK AO2 SLPNO PWINO $=
201508101253 METAR KCLM 101253Z AUTO A2993 RMK AO2 SLPNO PWINO $=
201508101153 METAR KCLM 101153Z AUTO A2993 RMK AO2 SLPNO 56003 PWINO $=
201508101053 METAR KCLM 101053Z AUTO A2993 RMK AO2 SLPNO PWINO $=
201508100953 METAR KCLM 100953Z AUTO A2993 RMK AO2 SLPNO PWINO $=
201508100853 METAR KCLM 100853Z AUTO A2994 RMK AO2 SLPNO 57003 PWINO $=
201508100753 METAR KCLM 100753Z AUTO A2995 RMK AO2 SLPNO PWINO $=
201508100653 METAR KCLM 100653Z AUTO A2994 RMK AO2 SLPNO PWINO $=
201508100553 METAR KCLM 100553Z AUTO A2995 RMK AO2 SLPNO 52003 PWINO $=
201508100453 METAR KCLM 100453Z AUTO A2995 RMK AO2 SLPNO PWINO $=
201508100353 METAR KCLM 100353Z AUTO A2994 RMK AO2 SLPNO PWINO $=
201508100253 METAR KCLM 100253Z AUTO A2994 RMK AO2 SLPNO 56007 PWINO $=
201508100153 METAR KCLM 100153Z AUTO A2994 RMK AO2 SLPNO PWINO $=
201508100053 METAR KCLM 100053Z AUTO A2995 RMK AO2 SLPNO PWINO $=
201508092353 METAR KCLM 092353Z AUTO A2996 RMK AO2 SLPNO 58010 PWINO $=
201508092253 METAR KCLM 092253Z AUTO A2998 RMK AO2 SLPNO PWINO $=
201508092153 METAR KCLM 092153Z AUTO A2999 RMK AO2 SLPNO PWINO $=
201508092053 METAR KCLM 092053Z AUTO A2999 RMK AO2 SLPNO 58003 PWINO $=
201508091953 METAR KCLM 091953Z AUTO A3000 RMK AO2 SLPNO PWINO $=
201508091853 METAR KCLM 091853Z AUTO A3000 RMK AO2 SLPNO PWINO $=
201508091753 METAR KCLM 091753Z AUTO A3000 RMK AO2 SLPNO 54000 PWINO $=
201508091653 METAR KCLM 091653Z AUTO A3000 RMK AO2 SLPNO PWINO $=
201508091553 METAR KCLM 091553Z AUTO A3000 RMK AO2 SLPNO PWINO $=
201508091453 METAR KCLM 091453Z AUTO A3000 RMK AO2 SLPNO 52010 PWINO $=
201508091353 METAR KCLM 091353Z AUTO A2999 RMK AO2 SLPNO PWINO $=
201508091253 METAR KCLM 091253Z AUTO A2998 RMK AO2 SLPNO PWINO $=
201508091153 METAR KCLM 091153Z AUTO A2997 RMK AO2 SLPNO 7//// 51007 PWINO $=
201508091053 METAR KCLM 091053Z AUTO A2997 RMK AO2 SLPNO PWINO $=
201508090953 METAR KCLM 090953Z AUTO A2996 RMK AO2 SLPNO PWINO $=
201508090853 METAR KCLM 090853Z AUTO A2995 RMK AO2 SLPNO 51015 PWINO $=
201508090753 METAR KCLM 090753Z AUTO A2994 RMK AO2 SLPNO PWINO $=
201508090653 METAR KCLM 090653Z AUTO 00000KT 10SM CLR 13/12 A2992 RMK AO2 SLPNO T01330122 $=
201508090553 METAR KCLM 090553Z AUTO 15003KT 10SM CLR 14/13 A2991 RMK AO2 SLPNO T01390128 10211 20139 51020=
201508090453 METAR KCLM 090453Z AUTO 00000KT 10SM SCT065 15/13 A2990 RMK AO2 SLPNO T01500133=
201508090353 METAR KCLM 090353Z AUTO 00000KT 10SM BKN070 18/14 A2987 RMK AO2 SLPNO T01780139=
201508090253 METAR KCLM 090253Z AUTO 32004KT 10SM SCT050 BKN065 19/14 A2985 RMK AO2 SLPNO T01890139 53001=
201508090153 METAR KCLM 090153Z AUTO 00000KT 10SM BKN065 19/14 A2985 RMK AO2 SLPNO T01940139=
201508090053 METAR KCLM 090053Z AUTO 36005KT 10SM BKN080 BKN090 19/14 A2985 RMK AO2 SLPNO T01940139=
201508082353 METAR KCLM 082353Z AUTO 01004KT 10SM SCT080 OVC095 19/14 A2985 RMK AO2 SLPNO T01940139=
201508082253 METAR KCLM 082253Z AUTO 03006KT 19/14 A2985 RMK AO2 SLPNO T01890139 PWINO $=
201508082153 METAR KCLM 082153Z AUTO A2987 RMK AO2 SLPNO PWINO $=
201508082053 METAR KCLM 082053Z AUTO A2986 RMK AO2 SLPNO 6//// PWINO PNO $=
201508081953 METAR KCLM 081953Z AUTO A2985 RMK AO2 SLPNO PWINO $=
201508081853 METAR KCLM 081853Z AUTO A2985 RMK AO2 SLPNO PWINO $=
201508081753 METAR KCLM 081753Z AUTO A2986 RMK AO2 SLPNO PWINO $=
201508081653 METAR KCLM 081653Z AUTO A2986 RMK AO2 SLPNO PWINO $=
201508081553 METAR KCLM 081553Z AUTO A2986 RMK AO2 SLPNO PWINO $=
201508081453 METAR KCLM 081453Z AUTO A2986 RMK AO2 SLPNO 56003 PWINO $=
201508081353 METAR KCLM 081353Z AUTO A2986 RMK AO2 SLPNO PWINO $=
201508081253 METAR KCLM 081253Z AUTO A2986 RMK AO2 SLPNO PWINO $=
201508081153 METAR KCLM 081153Z AUTO A2987 RMK AO2 SLPNO 50002 PWINO $=
201508081053 METAR KCLM 081053Z AUTO A2988 RMK AO2 SLPNO PWINO $=
201508080953 METAR KCLM 080953Z AUTO A2988 RMK AO2 SLPNO PWINO $=
201508080853 METAR KCLM 080853Z AUTO 29008KT 10SM OVC060 15/14 A2987 RMK AO2 SLP113 T01500139 58006=
201508080753 METAR KCLM 080753Z AUTO 28005KT 10SM CLR 14/13 A2988 RMK AO2 SLP117 T01440133 402330111=
201508080653 METAR KCLM 080653Z AUTO 31003KT 10SM SCT065 14/14 A2988 RMK AO2 SLP119 T01440139=
201508080553 METAR KCLM 080553Z AUTO 29005KT 10SM CLR 15/14 A2989 RMK AO2 SLPNO T01500139 10222 20150 58003=
201508080453 METAR KCLM 080453Z AUTO 27009KT 10SM CLR 16/14 A2989 RMK AO2 SLP122 T01610144=
201508080353 METAR KCLM 080353Z AUTO 29009KT 10SM FEW008 17/14 A2990 RMK AO2 SLP125 T01670144=
201508080253 METAR KCLM 080253Z AUTO 28009G18KT 10SM SCT060 18/14 A2990 RMK AO2 SLP124 T01830144 56007=
201508080153 METAR KCLM 080153Z AUTO 29011KT 10SM SCT065 21/14 A2990 RMK AO2 SLP124 T02060144=
201508080053 METAR KCLM 080053Z AUTO 30011KT 10SM OVC060 22/14 A2990 RMK AO2 SLP126 T02170144=
201508072353 METAR KCLM 072353Z AUTO 32011G18KT 10SM FEW065 BKN120 22/14 A2992 RMK AO2 SLP131 T02220144 10233 20183 58015=
201508072253 METAR KCLM 072253Z AUTO 29010KT 10SM CLR 23/14 A2994 RMK AO2 SLP136 T02280144=
201508072153 METAR KCLM 072153Z AUTO 31008G16KT 10SM CLR 22/14 A2996 RMK AO2 SLP143 T02170139=
201508072053 METAR KCLM 072053Z AUTO VRB06KT 10SM CLR 21/14 A2997 RMK AO2 SLP147 T02110139 56010=
201508071953 METAR KCLM 071953Z AUTO 32007KT 10SM FEW070 20/13 A2997 RMK AO2 SLP150 T02000133=
201508071853 METAR KCLM 071853Z AUTO VRB05KT 10SM CLR 19/13 A2998 RMK AO2 SLP151 T01940128=
201508071753 METAR KCLM 071753Z AUTO A2999 RMK AO2 SLPNO 10178 20111 56004 PWINO $=
201508071653 METAR KCLM 071653Z AUTO VRB03KT 10SM CLR 16/12 A3000 RMK AO2 SLP158 T01610117=
201508071553 METAR KCLM 071553Z AUTO 32005KT 10SM CLR 14/12 A3000 RMK AO2 SLP160 T01440117=
201508071453 METAR KCLM 071453Z AUTO 34004KT 10SM CLR 13/11 A3001 RMK AO2 SLP162 T01330111 53000=
201508071353 METAR KCLM 071353Z AUTO 00000KT 10SM CLR 12/11 A3000 RMK AO2 SLP160 T01170106=
201508071253 METAR KCLM 071253Z AUTO 25004KT 10SM CLR 12/11 A3000 RMK AO2 SLP158 T01220106=
201508071224 SPECI KCLM 071224Z AUTO 29003KT 8SM SCT001 11/11 A3000 RMK AO2 T01110106=
201508071217 SPECI KCLM 071217Z AUTO 00000KT 2 1/2SM BR SCT001 11/11 A3000 RMK AO2 T01110106=
201508071207 SPECI KCLM 071207Z AUTO 32004KT 1SM BR VV001 11/11 A3001 RMK AO2 T01110106=
201508071203 SPECI KCLM 071203Z AUTO 32005KT 2 1/2SM BR SCT001 12/11 A3001 RMK AO2 T01170106=
201508071153 METAR KCLM 071153Z AUTO 33004KT 10SM CLR 11/11 A3001 RMK AO2 SLP161 T01110106 10144 20111 56007=
201508071053 METAR KCLM 071053Z AUTO 28006KT 10SM CLR 13/11 A3001 RMK AO2 SLP163 T01280111=
201508070953 METAR KCLM 070953Z AUTO 29006KT 10SM CLR 13/12 A3002 RMK AO2 SLP165 T01330117=
201508070853 METAR KCLM 070853Z AUTO 29006KT 10SM CLR 13/11 A3003 RMK AO2 SLP168 T01330111 56011=
201508070753 METAR KCLM 070753Z AUTO 28007KT 10SM CLR 14/12 A3003 RMK AO2 SLP170 T01390117 402390094=
201508070653 METAR KCLM 070653Z AUTO 30006KT 10SM CLR 13/11 A3004 RMK AO2 SLP173 T01330111=
201508070553 METAR KCLM 070553Z AUTO 28007KT 10SM CLR 14/12 A3006 RMK AO2 SLP179 T01440117 10200 20139 58004=
201508070453 METAR KCLM 070453Z AUTO 29004KT 10SM CLR 15/11 A3007 RMK AO2 SLP183 T01500111=
201508070353 METAR KCLM 070353Z AUTO 27007KT 10SM CLR 16/11 A3007 RMK AO2 SLP184 T01560111=
201508070253 METAR KCLM 070253Z AUTO 30006KT 10SM CLR 17/11 A3007 RMK AO2 SLP184 T01720111 56009=
201508070153 METAR KCLM 070153Z AUTO 30007KT 10SM CLR 18/12 A3008 RMK AO2 SLP186 T01780117=
201508070053 METAR KCLM 070053Z AUTO 33007KT 10SM CLR 19/12 A3009 RMK AO2 SLP191 T01890117=
201508062353 METAR KCLM 062353Z AUTO 32007KT 10SM CLR 19/12 A3010 RMK AO2 SLP193 T01940117 10239 20161 58014=
201508062253 METAR KCLM 062253Z AUTO 30005KT 10SM CLR 19/12 A3011 RMK AO2 SLP197 T01940117 $=
201508062153 METAR KCLM 062153Z AUTO 34009KT 21/12 A3013 RMK AO2 SLP204 T02060117 $=
201508062053 METAR KCLM 062053Z AUTO 33007KT 10SM CLR 18/12 A3014 RMK AO2 SLP207 T01830117 58001=
201508061953 METAR KCLM 061953Z AUTO 32008KT 10SM CLR 19/12 A3015 RMK AO2 SLP209 T01890117=
201508061853 METAR KCLM 061853Z AUTO 01007KT 10SM CLR 17/11 A3016 RMK AO2 SLP212 T01720111=
201508061824 SPECI KCLM 061824Z AUTO 01009KT 10SM SCT022 17/11 A3015 RMK AO2 T01720111=
201508061753 METAR KCLM 061753Z AUTO 34006KT 10SM BKN023 17/12 A3015 RMK AO2 SLP208 T01720117 10172 20094 51002=
201508061750 SPECI KCLM 061750Z AUTO 33006KT 10SM BKN023 17/12 A3015 RMK AO2=
201508061653 METAR KCLM 061653Z AUTO 35006KT 10SM CLR 17/12 A3014 RMK AO2 SLP208 T01670122=
201508061553 METAR KCLM 061553Z AUTO 36004KT 10SM CLR 16/11 A3014 RMK AO2 SLP206 T01610111=
201508061453 METAR KCLM 061453Z AUTO 00000KT 10SM CLR 14/10 A3013 RMK AO2 SLP204 T01440100 50009=
201508061353 METAR KCLM 061353Z AUTO 25003KT 10SM CLR 11/08 A3014 RMK AO2 SLP205 T01110083=
201508061253 METAR KCLM 061253Z AUTO 24005KT 10SM CLR 11/09 A3011 RMK AO2 SLP197 T01060089=
201508061153 METAR KCLM 061153Z AUTO 28007KT 10SM FEW008 13/12 A3011 RMK AO2 SLP195 T01330117 10139 20122 53002=
201508061053 METAR KCLM 061053Z AUTO 28010KT 10SM FEW008 13/12 A3010 RMK AO2 SLP194 T01330122=
201508061024 SPECI KCLM 061024Z AUTO 26009KT 10SM SCT007 13/12 A3010 RMK AO2 T01330117=
201508060953 METAR KCLM 060953Z AUTO 25007KT 10SM OVC007 13/12 A3011 RMK AO2 SLP194 T01330122=
201508060942 SPECI KCLM 060942Z AUTO 25007KT 10SM BKN007 BKN040 13/12 A3011 RMK AO2 T01330122=
201508060913 SPECI KCLM 060913Z AUTO 27004KT 10SM FEW008 OVC040 13/12 A3010 RMK AO2 T01330117=
201508060853 METAR KCLM 060853Z AUTO 30008KT 10SM OVC041 13/12 A3010 RMK AO2 SLP193 T01330117 51006=
201508060753 METAR KCLM 060753Z AUTO 31006KT 10SM BKN045 13/11 A3009 RMK AO2 SLP191 T01330111 401940106=
201508060653 METAR KCLM 060653Z AUTO 31008KT 10SM OVC047 13/11 A3009 RMK AO2 SLP190 T01280111=
201508060553 METAR KCLM 060553Z AUTO 31007KT 10SM SCT050 13/11 A3008 RMK AO2 SLP187 T01280106 10183 20128 57002=
201508060453 METAR KCLM 060453Z AUTO 30009KT 10SM CLR 14/11 A3009 RMK AO2 SLP188 T01440106=
201508060353 METAR KCLM 060353Z AUTO 32007KT 10SM BKN047 14/11 A3008 RMK AO2 SLP187 T01440111=
201508060253 METAR KCLM 060253Z AUTO 30011KT 10SM FEW049 OVC065 14/12 A3009 RMK AO2 SLP189 T01440117 50005=
201508060153 METAR KCLM 060153Z AUTO 30017G24KT 10SM BKN050 OVC060 14/11 A3010 RMK AO2 SLP191 T01440111=
201508060053 METAR KCLM 060053Z AUTO 32014G21KT 10SM SCT060 OVC090 17/11 A3008 RMK AO2 SLP184 T01720106=
201508052353 METAR KCLM 052353Z AUTO 31014KT 10SM FEW060 OVC095 18/11 A3007 RMK AO2 SLP184 T01830106 10194 20150 50001=
201508052253 METAR KCLM 052253Z AUTO 30012G23KT 10SM SCT065 OVC090 15/11 A3009 RMK AO2 SLP188 T01500106=
201508052153 METAR KCLM 052153Z AUTO 29010G17KT 10SM OVC110 18/11 A3008 RMK AO2 SLP186 T01780111=
201508052053 METAR KCLM 052053Z AUTO 29010G24KT 10SM FEW120 16/11 A3007 RMK AO2 PK WND 30026/2010 SLP183 T01610106 53003=
201508051953 METAR KCLM 051953Z AUTO 31015G28KT 10SM CLR 18/12 A3006 RMK AO2 PK WND 30029/1937 SLP180 T01780117=
201508051853 METAR KCLM 051853Z AUTO 31013G22KT 10SM CLR 19/12 A3006 RMK AO2 SLP178 T01890122=
201508051753 METAR KCLM 051753Z AUTO 31012G20KT 10SM FEW043 FEW060 18/12 A3006 RMK AO2 SLP180 T01830117 10194 20106 56002=
201508051748 SPECI KCLM 051748Z AUTO 32009G22KT 10SM FEW002 SCT040 18/12 A3006 RMK AO2=
201508051653 METAR KCLM 051653Z AUTO 09005KT 10SM CLR 18/11 A3007 RMK AO2 SLP181 T01780106=
201508051553 METAR KCLM 051553Z AUTO 00000KT 10SM OVC095 16/10 A3007 RMK AO2 SLP182 T01610100=
201508051453 METAR KCLM 051453Z AUTO 00000KT 10SM OVC095 16/10 A3006 RMK AO2 SLP179 T01560100 52005=
201508051353 METAR KCLM 051353Z AUTO 00000KT 10SM FEW120 13/09 A3006 RMK AO2 SLP178 T01280089=
201508051253 METAR KCLM 051253Z AUTO 00000KT 10SM CLR 12/08 A3005 RMK AO2 SLP174 T01170083=
201508051153 METAR KCLM 051153Z AUTO VRB04KT 10SM CLR 13/08 A3004 RMK AO2 SLP173 T01280083 10144 20117 53007=
201508051053 METAR KCLM 051053Z AUTO 28011KT 10SM CLR 13/09 A3003 RMK AO2 SLP169 T01330094=
201508050953 METAR KCLM 050953Z AUTO 29009KT 10SM CLR 13/09 A3002 RMK AO2 SLP166 T01330094=
201508050853 METAR KCLM 050853Z AUTO 27007KT 10SM CLR 12/09 A3002 RMK AO2 SLP166 T01220094 50004=
201508050753 METAR KCLM 050753Z AUTO 29006KT 10SM CLR 12/09 A3002 RMK AO2 SLP167 T01220094 402000111=
201508050653 METAR KCLM 050653Z AUTO 28008KT 10SM CLR 14/10 A3002 RMK AO2 SLP167 T01390100=
201508050553 METAR KCLM 050553Z AUTO 29013KT 10SM CLR 14/10 A3001 RMK AO2 SLP162 T01390100 10189 20133 58001=
201508050453 METAR KCLM 050453Z AUTO 27010KT 10SM CLR 14/11 A3002 RMK AO2 SLP164 T01390106=
201508050353 METAR KCLM 050353Z AUTO 29008KT 10SM CLR 14/11 A3001 RMK AO2 SLP163 T01390106=
201508050253 METAR KCLM 050253Z AUTO 33005KT 10SM CLR 15/11 A3001 RMK AO2 SLP163 T01500106 53000=
201508050153 METAR KCLM 050153Z AUTO 34006KT 10SM CLR 16/11 A3001 RMK AO2 SLP162 T01560106=
201508050053 METAR KCLM 050053Z AUTO 33009KT 10SM CLR 17/11 A3001 RMK AO2 SLP162 T01720106=
201508042353 METAR KCLM 042353Z AUTO 31009KT 10SM CLR 18/11 A3001 RMK AO2 SLP163 T01830106 10200 20167 55001=
201508042253 METAR KCLM 042253Z AUTO 31013KT 10SM CLR 18/11 A3001 RMK AO2 SLP162 T01830111=
201508042153 METAR KCLM 042153Z AUTO 36008KT 10SM CLR 19/11 A3000 RMK AO2 SLP159 T01890106=
201508042053 METAR KCLM 042053Z AUTO VRB05KT 10SM CLR 19/11 A3002 RMK AO2 SLP164 T01890111 53002=
201508041953 METAR KCLM 041953Z AUTO 34005KT 10SM CLR 18/11 A3001 RMK AO2 SLP161 T01830111=
201508041853 METAR KCLM 041853Z AUTO 01005KT 10SM CLR 18/11 A3000 RMK AO2 SLP160 T01780111=
201508041753 METAR KCLM 041753Z AUTO 01007KT 10SM CLR 17/11 A3001 RMK AO2 SLP162 T01720111 10172 20111 52003=
201508041653 METAR KCLM 041653Z AUTO 35006KT 10SM CLR 16/11 A3000 RMK AO2 SLP160 T01610111=
201508041553 METAR KCLM 041553Z AUTO 26003KT 10SM CLR 15/12 A3001 RMK AO2 SLP160 T01500117=
201508041453 METAR KCLM 041453Z AUTO 00000KT 10SM CLR 14/12 A3000 RMK AO2 SLP158 T01440117 53006=
201508041353 METAR KCLM 041353Z AUTO 23003KT 10SM CLR 13/11 A3000 RMK AO2 SLP158 T01280106=
201508041253 METAR KCLM 041253Z AUTO 00000KT 10SM CLR 12/10 A2998 RMK AO2 SLP152 T01170100=
201508041153 METAR KCLM 041153Z AUTO 26005KT 10SM CLR 12/10 A2998 RMK AO2 SLP152 T01170100 10133 20117 53003=
201508041053 METAR KCLM 041053Z AUTO 28006KT 10SM CLR 12/11 A2997 RMK AO2 SLP149 T01220106=
201508040953 METAR KCLM 040953Z AUTO 29005KT 10SM CLR 12/11 A2997 RMK AO2 SLP149 T01220111=
201508040853 METAR KCLM 040853Z AUTO 28006KT 10SM CLR 12/11 A2997 RMK AO2 SLP148 T01220106 50003=
201508040753 METAR KCLM 040753Z AUTO 00000KT 10SM CLR 12/11 A2997 RMK AO2 SLP149 T01220111 402060117=
201508040653 METAR KCLM 040653Z AUTO 28007KT 10SM CLR 13/11 A2996 RMK AO2 SLP145 T01280111=
201508040553 METAR KCLM 040553Z AUTO 28006KT 10SM CLR 13/11 A2996 RMK AO2 SLP145 T01330111 10206 20133 51009=
201508040453 METAR KCLM 040453Z AUTO 27009KT 10SM CLR 14/12 A2996 RMK AO2 SLP145 T01390117=
201508040353 METAR KCLM 040353Z AUTO 31005KT 10SM CLR 15/12 A2995 RMK AO2 SLP141 T01500117=
201508040253 METAR KCLM 040253Z AUTO 29007KT 10SM CLR 17/13 A2993 RMK AO2 SLP136 T01670128 53003=
201508040153 METAR KCLM 040153Z AUTO 31009KT 10SM CLR 17/13 A2993 RMK AO2 SLP134 T01720128=
201508040053 METAR KCLM 040053Z AUTO 31012G18KT 10SM CLR 20/13 A2993 RMK AO2 SLP134 T02000133=
201508032353 METAR KCLM 032353Z AUTO 31014G20KT 10SM CLR 20/13 A2992 RMK AO2 SLP133 T02000133 10206 20178 57007=
201508032253 METAR KCLM 032253Z AUTO 30009G20KT 260V330 10SM CLR 20/13 A2993 RMK AO2 SLP135 T02000133=
201508032153 METAR KCLM 032153Z AUTO 31013G20KT 10SM CLR 20/13 A2994 RMK AO2 SLP138 T02000133=
201508032053 METAR KCLM 032053Z AUTO 32009G20KT 10SM CLR 19/13 A2995 RMK AO2 SLP140 T01940133 53002=
201508031953 METAR KCLM 031953Z AUTO 32012KT 10SM CLR 19/13 A2994 RMK AO2 SLP138 T01940128=
201508031853 METAR KCLM 031853Z AUTO 30014G20KT 10SM CLR 18/13 A2994 RMK AO2 SLP139 T01830128=
201508031753 METAR KCLM 031753Z AUTO 31012KT 10SM CLR 18/13 A2994 RMK AO2 SLP138 T01780128 10183 20117 51002=
201508031653 METAR KCLM 031653Z AUTO 30008KT 10SM CLR 17/13 A2994 RMK AO2 SLP137 T01670128=
201508031638 SPECI KCLM 031638Z AUTO 31008KT 10SM FEW009 17/12 A2994 RMK AO2 T01670122=
201508031553 METAR KCLM 031553Z AUTO 27006KT 10SM OVC005 16/12 A2994 RMK AO2 SLP138 T01560122=
201508031540 SPECI KCLM 031540Z AUTO 30009KT 10SM OVC005 15/13 A2994 RMK AO2 T01500128=
201508031453 METAR KCLM 031453Z AUTO 29008KT 10SM OVC004 14/12 A2993 RMK AO2 SLP136 T01390122 53010=
201508031353 METAR KCLM 031353Z AUTO 28012KT 6SM BR OVC002 13/12 A2992 RMK AO2 SLP132 T01280117=
201508031328 SPECI KCLM 031328Z AUTO 30009KT 10SM BKN003 12/12 A2992 RMK AO2 T01220117=
201508031319 SPECI KCLM 031319Z AUTO 29008G16KT 10SM SCT003 12/11 A2991 RMK AO2 T01220111=
201508031253 METAR KCLM 031253Z AUTO 31007KT 10SM CLR 12/11 A2991 RMK AO2 SLP127 T01220111=
201508031234 SPECI KCLM 031234Z AUTO 30004KT 10SM FEW006 12/11 A2991 RMK AO2 T01220106=
201508031153 METAR KCLM 031153Z AUTO 32004KT 10SM CLR 12/11 A2990 RMK AO2 SLP125 T01220106 10156 20122 51004=
201508031053 METAR KCLM 031053Z AUTO 27007KT 10SM CLR 13/11 A2990 RMK AO2 SLP124 T01280111=
201508030953 METAR KCLM 030953Z AUTO 30012KT 10SM CLR 13/11 A2990 RMK AO2 SLP123 T01330111=
201508030853 METAR KCLM 030853Z AUTO 29013KT 10SM CLR 14/11 A2989 RMK AO2 SLP120 T01440111 58007=
201508030753 METAR KCLM 030753Z AUTO 29012KT 10SM CLR 14/11 A2990 RMK AO2 SLP124 T01440106 402330106=
201508030653 METAR KCLM 030653Z AUTO 28011KT 10SM CLR 16/11 A2990 RMK AO2 SLP124 T01560106=
201508030553 METAR KCLM 030553Z AUTO 27006KT 10SM CLR 14/11 A2991 RMK AO2 SLP128 T01390106 10222 20139 58000=
201508030453 METAR KCLM 030453Z AUTO 28005KT 10SM CLR 15/11 A2991 RMK AO2 SLP129 T01500106=
201508030353 METAR KCLM 030353Z AUTO 29005KT 10SM CLR 17/11 A2991 RMK AO2 SLP127 T01720106=
201508030253 METAR KCLM 030253Z AUTO 30007KT 10SM CLR 19/09 A2991 RMK AO2 SLP128 T01890094 55005=
201508030153 METAR KCLM 030153Z AUTO 29009KT 10SM CLR 22/11 A2991 RMK AO2 SLP127 T02220111=
201508030053 METAR KCLM 030053Z AUTO 25005KT 10SM CLR 21/12 A2992 RMK AO2 SLP133 T02110122=
201508022353 METAR KCLM 022353Z AUTO 33006KT 10SM CLR 21/12 A2993 RMK AO2 SLP133 T02060122 10233 20183 58008=
201508022253 METAR KCLM 022253Z AUTO VRB04KT 10SM CLR 23/12 A2993 RMK AO2 SLP135 T02280122=
201508022153 METAR KCLM 022153Z AUTO 36006KT 10SM CLR 22/12 A2995 RMK AO2 SLP140 T02170122=
201508022053 METAR KCLM 022053Z AUTO VRB04KT 10SM CLR 23/12 A2995 RMK AO2 SLP140 T02330122 56006=
201508021953 METAR KCLM 021953Z AUTO VRB04KT 10SM FEW002 22/12 A2995 RMK AO2 SLP142 T02220122=
201508021853 METAR KCLM 021853Z AUTO VRB05KT 10SM CLR 19/12 A2996 RMK AO2 SLP143 T01940122=
201508021753 METAR KCLM 021753Z AUTO VRB03KT 10SM CLR 19/13 A2997 RMK AO2 SLP147 T01890128 10189 20111 51004=
201508021653 METAR KCLM 021653Z AUTO 01004KT 10SM CLR 16/13 A2996 RMK AO2 SLP146 T01610128=
201508021553 METAR KCLM 021553Z AUTO 00000KT 10SM CLR 18/13 A2996 RMK AO2 SLP144 T01780133=
201508021453 METAR KCLM 021453Z AUTO 31003KT 10SM CLR 16/13 A2995 RMK AO2 SLP142 T01560128 53007=
201508021353 METAR KCLM 021353Z AUTO 00000KT 10SM CLR 12/11 A2995 RMK AO2 SLP141 T01220106=
201508021253 METAR KCLM 021253Z AUTO 24004KT 10SM CLR 12/11 A2994 RMK AO2 SLP138 T01170106=
201508021153 METAR KCLM 021153Z AUTO 23004KT 10SM CLR 12/11 A2993 RMK AO2 SLP136 T01220111 10150 20106 55002=
201508021053 METAR KCLM 021053Z AUTO 00000KT 10SM CLR 12/10 A2992 RMK AO2 SLP132 T01170100=
201508020953 METAR KCLM 020953Z AUTO 00000KT 10SM CLR 12/11 A2994 RMK AO2 SLP136 T01220111=
201508020853 METAR KCLM 020853Z AUTO 25003KT 10SM CLR 13/11 A2994 RMK AO2 SLP137 T01330111 58002=
201508020753 METAR KCLM 020753Z AUTO 00000KT 10SM CLR 14/12 A2994 RMK AO2 SLP139 T01390117 402560083=
201508020653 METAR KCLM 020653Z AUTO 30008KT 10SM CLR 14/12 A2994 RMK AO2 SLP137 T01440117=
201508020553 METAR KCLM 020553Z AUTO 31008KT 10SM CLR 14/12 A2994 RMK AO2 SLP139 T01440117 10233 20144 56003=
201508020453 METAR KCLM 020453Z AUTO 29007KT 10SM CLR 16/12 A2995 RMK AO2 SLP139 T01610117=
201508020353 METAR KCLM 020353Z AUTO VRB05KT 10SM CLR 18/12 A2995 RMK AO2 SLP140 T01830117=
201508020253 METAR KCLM 020253Z AUTO 27008KT 10SM CLR 21/11 A2995 RMK AO2 SLP141 T02060111 56009=
201508020153 METAR KCLM 020153Z AUTO 31008KT 10SM CLR 22/09 A2996 RMK AO2 SLP144 T02220094=
201508020053 METAR KCLM 020053Z AUTO 30007KT 10SM CLR 22/09 A2996 RMK AO2 SLP147 T02170089=
201508012353 METAR KCLM 012353Z AUTO 30007KT 10SM CLR 21/10 A2998 RMK AO2 SLP152 T02060100 10256 20206 56010=
201508012253 METAR KCLM 012253Z AUTO 36005KT 10SM CLR 23/11 A2999 RMK AO2 SLP154 T02330111=
201508012153 METAR KCLM 012153Z AUTO 35005KT 10SM CLR 23/11 A3000 RMK AO2 SLP158 T02280106=
201508012053 METAR KCLM 012053Z AUTO VRB04KT 10SM CLR 24/10 A3001 RMK AO2 SLP161 T02390100 58005=
201508011953 METAR KCLM 011953Z AUTO VRB06KT 10SM CLR 24/10 A3002 RMK AO2 SLP163 T02440100=
201508011853 METAR KCLM 011853Z AUTO 09008KT 10SM CLR 23/10 A3002 RMK AO2 SLP166 T02330100=
201508011753 METAR KCLM 011753Z AUTO VRB06KT 10SM CLR 22/11 A3003 RMK AO2 SLP167 T02220111 10222 20089 58003=
201508011653 METAR KCLM 011653Z AUTO 36006KT 10SM CLR 19/11 A3003 RMK AO2 SLP169 T01890111=
201508011553 METAR KCLM 011553Z AUTO 00000KT 10SM CLR 19/11 A3004 RMK AO2 SLP171 T01890111=
201508011453 METAR KCLM 011453Z AUTO 00000KT 10SM CLR 16/12 A3004 RMK AO2 SLP170 T01560117 53008=
201508011353 METAR KCLM 011353Z AUTO 00000KT 10SM CLR 12/09 A3003 RMK AO2 SLP166 T01170094=
201508011253 METAR KCLM 011253Z AUTO 00000KT 10SM CLR 09/08 A3002 RMK AO2 SLP164 T00890078=
201508011153 METAR KCLM 011153Z AUTO 00000KT 7SM CLR 10/08 A3001 RMK AO2 SLP163 T01000083 10161 20083 55004=
201508011053 METAR KCLM 011053Z AUTO 00000KT 10SM CLR 11/09 A3001 RMK AO2 SLP161 T01060094=
201508011007 SPECI KCLM 011007Z AUTO 26003KT 10SM SCT002 11/10 A3001 RMK AO2 T01110100=
201508011001 SPECI KCLM 011001Z AUTO 27004KT 1SM BR VV002 11/10 A3002 RMK AO2 T01110100=
201508010953 METAR KCLM 010953Z AUTO 26004KT 1/4SM FG VV002 11/11 A3002 RMK AO2 SLP164 T01110106=
201508010948 SPECI KCLM 010948Z AUTO 00000KT 1/4SM FG VV001 11/11 A3002 RMK AO2=
201508010944 SPECI KCLM 010944Z AUTO 30003KT 1SM BR VV001 11/10 A3002 RMK AO2 T01110100=
201508010941 SPECI KCLM 010941Z AUTO 31003KT 2 1/2SM BR FEW002 11/10 A3002 RMK AO2 T01110100=
201508010853 METAR KCLM 010853Z AUTO 00000KT 10SM CLR 13/11 A3002 RMK AO2 SLP166 T01330106 53003=
201508010753 METAR KCLM 010753Z AUTO 30007KT 10SM CLR 14/11 A3001 RMK AO2 SLP162 T01440111 402670106=
201508010653 METAR KCLM 010653Z AUTO 31007KT 10SM CLR 15/11 A3002 RMK AO2 SLP163 T01500106=
201508010553 METAR KCLM 010553Z AUTO 00000KT 10SM CLR 16/09 A3001 RMK AO2 SLP163 T01610094 10267 20161 50000=
201508010453 METAR KCLM 010453Z AUTO 29007KT 10SM CLR 18/09 A3002 RMK AO2 SLP164 T01830089=
201508010353 METAR KCLM 010353Z AUTO 29007KT 10SM CLR 19/09 A3001 RMK AO2 SLP163 T01940089=
201508010253 METAR KCLM 010253Z AUTO 30008KT 10SM CLR 23/06 A3001 RMK AO2 SLP162 T02330061 56012=
201508010153 METAR KCLM 010153Z AUTO 28010KT 10SM CLR 26/04 A3002 RMK AO2 SLP163 T02560039=
201508010053 METAR KCLM 010053Z AUTO 29009KT 10SM CLR 26/04 A3003 RMK AO2 SLP168 T02610044=

# No short TAF reports from KCLM in databse.

###################################
#  large TAF from KCLM
###################################
201508312320 TAF KCLM 312320Z 0100/0124 VRB04KT P6SM -RA SCT025 BKN050 OVC090
                       TEMPO 0100/0104 5SM -RA BR BKN020 OVC040
                       FM011000 VRB04KT P6SM VCSH BKN025 OVC040=
201508311720 TAF KCLM 311720Z 3118/0118 VRB04KT P6SM -RA SCT025 BKN050 OVC090
                       FM011000 VRB04KT P6SM -RA BKN025 OVC040=
201508311130 TAF KCLM 311130Z 3112/0112 VRB03KT P6SM BKN050 OVC100 FM311500
                       VRB03KT P6SM -RA SCT022 BKN035 OVC060 FM311900
                       VRB03KT P6SM -SHRA BKN040 BKN070 FM011000
                       VRB03KT P6SM -RA BKN025 OVC040=
201508310526 TAF KCLM 310526Z 3106/0106 VRB03KT P6SM SCT060 OVC100 FM310800
                       VRB03KT P6SM -RA OVC045 FM311200 VRB03KT
                       P6SM -RA SCT022 BKN035 OVC060
                      TEMPO 3112/3116 5SM -RA BR BKN022 OVC035
                       FM311900 VRB03KT P6SM -SHRA BKN040 BKN070=
201508302341 TAF KCLM 302341Z 3100/3124 VRB03KT P6SM BKN070 BKN100 FM310400
                       29004KT P6SM BKN040 OVC100 FM311000 VRB04KT
                       3SM -RA BR BKN020 OVC040 FM311800 33004KT
                       P6SM -SHRA BKN035 OVC100=
201508301750 TAF KCLM 301750Z 3018/3118 VRB03KT P6SM SCT035 OVC060 FM310600
                       28004KT P6SM OVC060 FM310700 VRB03KT P6SM
                       -RA OVC040=
201508301128 TAF KCLM 301128Z 3012/3112 VRB03KT P6SM -SHRA SCT035 BKN060 FM301500
                       VRB03KT P6SM SCT035 BKN050 FM310700 VRB03KT
                       P6SM -RA OVC040=
201508300537 TAF KCLM 300537Z 3006/3106 VRB03KT P6SM -SHRA SCT035 BKN060 FM301500
                       VRB03KT P6SM SCT035 BKN050=
201508292351 TAF KCLM 292351Z 3000/3024 33005KT P6SM OVC060 FM300300 29005KT
                       P6SM -RA BKN035 OVC050 FM300900 22003KT
                       P6SM -SHRA BKN015 OVC030 FM301500 VRB03KT
                       P6SM BKN025 OVC040 FM301900 33006KT P6SM
                       BKN035 OVC060=
201508291948 TAF AMD KCLM 291948Z 2920/3018 24012G22KT P6SM SCT040 OVC060
                      TEMPO 2920/2922 24025G35KT 3SM -RA BR BKN030
                       OVC050 FM300000 28008KT P6SM -RA BKN028
                       OVC040 FM300300 21005KT P6SM VCSH BKN035
                       OVC050 FM300900 21003KT P6SM -RA BKN010
                       OVC030=
201508291755 TAF KCLM 291755Z 2918/3018 27004KT 3SM -RA BR BKN010 OVC080 FM292000
                       VRB03KT P6SM SCT030 BKN040 OVC050 FM300000
                       28008KT P6SM -RA BKN028 OVC040 FM300300
                       21005KT P6SM VCSH BKN035 OVC050 FM300900
                       21003KT P6SM -RA BKN010 OVC030=
201508291632 TAF AMD KCLM 291632Z 2917/3012 VRB04KT 4SM BR BKN002 OVC070 FM291800
                       27004KT 3SM -RA BR BKN010 OVC080 FM292000
                       VRB03KT P6SM SCT030 BKN040 OVC050 FM300000
                       28008KT P6SM -RA BKN028 OVC040=
201508291458 TAF AMD KCLM 291458Z 2915/3012 VRB03KT 4SM BR BKN004 OVC070 FM291600
                       11006KT P6SM -SHRA BKN025 OVC040 FM292000
                       VRB03KT P6SM SCT030 BKN040 OVC050 FM300000
                       28008KT P6SM -RA BKN028 OVC040=
201508291137 TAF KCLM 291137Z 2912/3012 VRB03KT P6SM -RA BKN060 OVC100 FM291600
                       11006KT P6SM -RA BKN025 OVC040 FM292000
                       VRB03KT P6SM -SHRA SCT030 BKN040 OVC050
                       FM300000 28008KT P6SM -RA BKN028 OVC040=
201508290541 TAF KCLM 290541Z 2906/3006 VRB03KT P6SM BKN100 OVC150 FM291200
                       11006KT P6SM BKN060 OVC100 FM291400 11006KT
                       P6SM -RA BKN025 OVC040 FM292000 VRB03KT
                       P6SM -SHRA SCT030 BKN040 OVC050 FM300000
                       28008KT P6SM -RA BKN028 OVC040=
201508290305 TAF AMD KCLM 290305Z 2903/2924 00000KT P6SM SCT060 BKN100 FM291000
                       VRB04KT 5SM -RA BR BKN015 OVC040 FM291800
                       28006KT P6SM -RA BKN025 OVC060=
201508282353 TAF KCLM 282353Z 2900/2924 VRB04KT P6SM BKN030 FM290500 00000KT
                       P6SM SCT060 BKN100 FM291000 VRB04KT 5SM
                       -RA BR BKN015 OVC040 FM291800 28006KT P6SM
                       -RA BKN025 OVC060=
201508281807 TAF KCLM 281807Z 2818/2918 31004KT P6SM OVC005 FM282000 32004KT
                       P6SM SCT040 BKN060 FM290100 VRB03KT P6SM
                       SCT060 BKN120 FM290500 00000KT P6SM SCT060
                       BKN100 FM291000 27006KT 5SM -RA BR BKN030
                       OVC060=
201508281120 TAF KCLM 281120Z 2812/2912 28004KT P6SM -RA BKN040 OVC060
                      TEMPO 2814/2818 5SM -RA BR BKN025 OVC040
                       FM282000 32004KT P6SM SCT040 BKN060 FM290100
                       VRB03KT P6SM SCT060 BKN120=
201508280529 TAF KCLM 280529Z 2806/2906 28006KT P6SM SCT090 BKN200 FM281000
                       28003KT P6SM -RA BKN040 OVC080 FM281400
                       29003KT P6SM -RA BKN025 OVC040 FM282000
                       32004KT P6SM BKN030 OVC050
                      PROB30 2820/2824 -SHRA=
201508272320 TAF KCLM 272320Z 2800/2824 30007KT P6SM BKN250 FM280400 28005KT
                       P6SM BKN080 OVC150 FM280900 28003KT P6SM
                       -RA BKN050 OVC080 FM281800 32004KT P6SM
                       BKN030 OVC050
                      PROB30 2818/2824 -RA=
201508271736 TAF KCLM 271736Z 2718/2818 36005KT P6SM BKN250 FM280400 28005KT
                       P6SM BKN080 OVC150 FM281000 VRB03KT P6SM
                       -RA BKN050 OVC080=
201508271443 TAF AMD KCLM 271443Z 2715/2812 VRB03KT P6SM BKN250 FM271800 36005KT
                       P6SM BKN250 FM280100 29005KT P6SM BKN250
                       FM280900 25003KT P6SM BKN090 OVC200=
201508271120 TAF KCLM 271120Z 2712/2812 29005KT P6SM BKN250
                      TEMPO 2713/2716 2SM BR BKN005 BKN250 FM271800
                       36005KT P6SM BKN250 FM280100 29005KT P6SM
                       BKN250 FM280900 25003KT P6SM BKN090 OVC200=
201508270525 TAF KCLM 270525Z 2706/2806 26006KT P6SM BKN250 FM271200 27004KT
                       P6SM FEW005 BKN250
                      TEMPO 2712/2716 2SM BR BKN005 BKN250 FM271800
                       36005KT P6SM BKN250=
201508262320 TAF KCLM 262320Z 2700/2724 VRB04KT P6SM BKN250 FM270300 28005KT
                       P6SM BKN250 FM271800 36005KT P6SM BKN250=
201508261720 TAF KCLM 261720Z 2618/2718 01005KT P6SM BKN250 FM270100 28006KT
                       P6SM BKN250 FM271700 36005KT P6SM BKN250=
201508261120 TAF KCLM 261120Z 2612/2712 VRB03KT P6SM SCT250 FM261800 01005KT
                       P6SM BKN250 FM270100 28005KT P6SM BKN250=
201508260522 TAF KCLM 260522Z 2606/2706 27003KT P6SM BKN250 FM261800 01005KT
                       P6SM BKN250 FM270100 28005KT P6SM BKN250=
201508252320 TAF KCLM 252320Z 2600/2624 36005KT P6SM BKN250 FM260200 28005KT
                       P6SM SCT250 FM261800 01005KT P6SM SCT250=
201508251720 TAF KCLM 251720Z 2518/2618 36005KT P6SM BKN250 FM260100 28005KT
                       P6SM SCT250=
201508251120 TAF KCLM 251120Z 2512/2612 25008KT P6SM SCT250 FM251700 36005KT
                       P6SM SCT250 FM260100 28005KT P6SM BKN250=
201508250520 TAF KCLM 250520Z 2506/2606 26006KT P6SM SCT250 FM251700 36005KT
                       P6SM SCT250 FM260100 28005KT P6SM BKN250=
201508242320 TAF KCLM 242320Z 2500/2524 30010G17KT P6SM BKN250 FM250600 28008KT
                       P6SM SCT250 FM251200 28005KT P6SM SCT250
                       FM251700 36005KT P6SM SCT250=
201508241720 TAF KCLM 241720Z 2418/2518 31006KT P6SM BKN250 FM242000 32010G17KT
                       P6SM BKN250 FM250400 28010KT P6SM SCT250
                       FM251200 28005KT P6SM BKN015 BKN250 FM251600
                       30004KT P6SM SCT250=
201508241121 TAF KCLM 241121Z 2412/2512 29006KT P6SM VCFG FEW018 BKN250 FM241800
                       32011KT P6SM BKN250 FM250100 28011KT P6SM
                       BKN250 FM250600 28006KT P6SM BKN250=
201508240523 TAF KCLM 240523Z 2406/2506 29009KT P6SM BKN250 FM241800 32012KT
                       P6SM BKN250 FM250100 28012KT P6SM BKN250=
201508240302 TAF AMD KCLM 240302Z 2403/2424 29013KT P6SM BKN200 FM241000 29008KT
                       P6SM SCT011 FM241200 28008KT 5SM BR OVC011
                       TEMPO 2412/2416 4SM BR OVC008 FM241800 30007KT
                       P6SM SCT015=
201508232320 TAF KCLM 232320Z 2400/2424 31006KT P6SM SCT250 FM240200 30010G20KT
                       P6SM SCT250 FM241000 29008KT P6SM SCT011
                       FM241200 28008KT 5SM BR OVC011
                      TEMPO 2412/2416 4SM BR OVC008 FM241800 30007KT
                       P6SM SCT015=
201508231720 TAF KCLM 231720Z 2318/2418 01005KT P6SM SCT250 FM232100 34006KT
                       P6SM SCT250 FM240100 29010G20KT P6SM SCT250
                       FM241000 29008KT P6SM SCT011 FM241200 28008KT
                       5SM BR OVC011
                      TEMPO 2412/2416 4SM BR OVC008=
201508231132 TAF KCLM 231132Z 2312/2412 VRB03KT P6SM SCT090 FM231800 02007KT
                       P6SM SCT250 FM232100 31009KT P6SM SCT250
                       FM240100 29013KT P6SM SCT250 FM241000 29010KT
                       P6SM SCT012=
201508230540 TAF KCLM 230540Z 2306/2406 VRB03KT P6SM FEW090 FM231800 34007KT
                       P6SM SCT250 FM232100 31009KT P6SM SCT250
                       FM240100 29013KT P6SM SCT250=
201508222320 TAF KCLM 222320Z 2300/2324 VRB04KT P6SM SKC FM230300 28005KT P6SM
                       SKC FM231000 VRB03KT P6SM SKC FM231900 33004KT
                       P6SM SKC FM232200 31007KT P6SM SKC=
201508221720 TAF KCLM 221720Z 2218/2318 VRB03KT P6SM SKC FM222100 06006KT P6SM
                       SKC FM230000 VRB04KT P6SM SKC FM230300 28006KT
                       P6SM SKC FM231200 VRB03KT P6SM SKC=
201508221124 TAF KCLM 221124Z 2212/2312 23005KT P6SM SKC FM221800 08005KT P6SM
                       SCT250 FM222100 03006KT P6SM SCT250 FM230000
                       34006KT P6SM SKC FM230300 28006KT P6SM SKC=
201508220529 TAF KCLM 220529Z 2206/2306 23005KT P6SM SKC FM221800 08005KT P6SM
                       SKC FM222100 03006KT P6SM SKC FM230000 34006KT
                       P6SM SKC FM230300 28006KT P6SM SKC=
201508212320 TAF KCLM 212320Z 2200/2224 34006KT P6SM FEW050 SCT250 FM220200
                       29005KT P6SM SKC FM220900 24005KT P6SM SKC
                       FM221100 22005KT P6SM SKC=
201508211720 TAF KCLM 211720Z 2118/2218 30005KT P6SM SCT022 BKN050 FM212100
                       34006KT P6SM SCT050 SCT250 FM220200 29006KT
                       P6SM SKC FM220900 23004KT P6SM SKC=
201508211301 TAF AMD KCLM 211301Z 2113/2212 20004KT P6SM SCT012
                      TEMPO 2113/2117 BKN012 FM211700 31006KT P6SM
                       BKN022 BKN050 FM212000 34006KT P6SM FEW050
                       SCT250 FM220200 29006KT P6SM SKC FM220900
                       23004KT P6SM SKC=
201508211131 TAF KCLM 211131Z 2112/2212 25006KT P6SM OVC012 FM211800 31006KT
                       P6SM BKN022 BKN050 FM212000 34006KT P6SM
                       FEW050 SCT250 FM220200 29006KT P6SM SKC
                       FM220900 23004KT P6SM SKC=
201508211033 TAF AMD KCLM 211033Z 2111/2206 28009KT P6SM SCT028 OVC070 FM211800
                       33008KT P6SM BKN028 FM211900 35006KT P6SM
                       SCT035 SCT250 FM220200 29006KT P6SM SCT250=
201508210718 TAF AMD KCLM 210718Z 2107/2206 28009KT P6SM SCT015 BKN070 FM210900
                       28009KT P6SM BKN015 OVC035 FM211800 33008KT
                       P6SM BKN028 FM211900 35006KT P6SM SCT035
                       SCT250 FM220200 29006KT P6SM SCT250=
201508210544 TAF KCLM 210544Z 2106/2206 28008KT P6SM SCT009 SCT030
                      TEMPO 2106/2108 BKN009 BKN030 FM210800 28008KT
                       P6SM SCT009 OVC020 FM211800 33008KT P6SM
                       BKN028 FM211900 35006KT P6SM SCT035 SCT250
                       FM220200 29006KT P6SM SCT250=
201508210253 TAF AMD KCLM 210253Z 2103/2124 29011KT P6SM SKC FM210600 29013KT
                       P6SM OVC025 FM210900 27008KT P6SM OVC015
                       FM211700 30008KT P6SM BKN030 FM211900 33007KT
                       P6SM SCT035=
201508202320 TAF KCLM 202320Z 2100/2124 29005KT P6SM SCT035 FM210200 29012G20KT
                       P6SM SCT025 BKN250 FM210600 29013KT P6SM
                       OVC025 FM210900 27008KT P6SM OVC015 FM211700
                       30008KT P6SM BKN030 FM211900 33007KT P6SM
                       SCT035=
201508201822 TAF AMD KCLM 201822Z 2018/2118 29005KT P6SM SCT022
                      TEMPO 2019/2022 BKN022 FM210200 29013G22KT
                       P6SM SCT025 BKN250 FM210600 29013KT P6SM
                       OVC022 FM210900 27008KT P6SM OVC015=
201508201720 TAF KCLM 201720Z 2018/2118 29005KT P6SM OVC015 FM202100 32012KT
                       P6SM BKN020 BKN250 FM210200 29013G22KT P6SM
                       SCT025 BKN250 FM210600 29013KT P6SM OVC022
                       FM210900 27008KT P6SM OVC015=
201508201132 TAF KCLM 201132Z 2012/2112 27006KT P6SM OVC009 FM201800 32009KT
                       P6SM BKN018 BKN250 FM202100 32013KT P6SM
                       FEW030 BKN250 FM210200 29013G22KT P6SM FEW030
                       BKN250 FM210600 29013KT P6SM OVC022 FM210900
                       27009KT P6SM OVC015=
201508200901 TAF AMD KCLM 200901Z 2009/2106 28010KT P6SM OVC005 FM201500 28006KT
                       P6SM OVC010 FM201800 31009KT P6SM BKN020
                       BKN250 FM202000 31013KT P6SM SCT028 BKN250
                       FM210200 29013KT P6SM BKN025 BKN250=
201508200658 TAF AMD KCLM 200658Z 2007/2106 28010KT P6SM OVC006
                      TEMPO 2007/2009 28010G20KT FM201500 28006KT
                       P6SM OVC010 FM201800 31009KT P6SM BKN020
                       BKN250 FM202000 31013KT P6SM SCT028 BKN250
                       FM210200 29013KT P6SM BKN025 BKN250=
201508200609 TAF AMD KCLM 200609Z 2006/2106 28010KT P6SM SCT006
                      TEMPO 2006/2008 BKN006 FM200800 28010KT P6SM
                       OVC006 FM201500 28006KT P6SM OVC010 FM201800
                       31009KT P6SM BKN020 BKN250 FM202000 31013KT
                       P6SM SCT028 BKN250 FM210200 29013KT P6SM
                       BKN025 BKN250=
201508200545 TAF KCLM 200545Z 2006/2106 29013KT P6SM FEW250 FM200900 30007KT
                       5SM BR OVC006
                      TEMPO 2012/2016 3SM BR OVC003 FM201800 29005KT
                       P6SM OVC010 FM202000 31010KT P6SM BKN022
                       FM202200 33012KT P6SM BKN030=
201508200240 TAF AMD KCLM 200240Z 2003/2024 29013KT P6SM FEW250 FM200900 30007KT
                       5SM BR OVC006
                      TEMPO 2012/2016 3SM BR OVC003 FM201800 29005KT
                       P6SM OVC010 FM202000 31010KT P6SM BKN022
                       FM202200 33012KT P6SM BKN030=
201508200008 TAF AMD KCLM 200008Z 2000/2024 32012G18KT P6SM SKC FM200900 30007KT
                       5SM BR OVC006
                      TEMPO 2012/2016 3SM BR OVC003 FM201800 29005KT
                       P6SM OVC010 FM202000 31010KT P6SM BKN022
                       FM202200 33012KT P6SM BKN030=
201508192320 TAF KCLM 192320Z 2000/2024 28008KT P6SM SKC FM200300 30010G20KT
                       P6SM SKC FM200900 30007KT 5SM BR OVC006
                       TEMPO 2012/2016 3SM BR OVC003 FM201800 29005KT
                       P6SM OVC010 FM202000 31010KT P6SM BKN022
                       FM202200 33012KT P6SM BKN030=
201508191720 TAF KCLM 191720Z 1918/2018 06006KT P6SM SKC FM192300 28008KT P6SM
                       SKC FM200300 30010G20KT P6SM SKC FM200900
                       30007KT 5SM BR OVC006 FM201700 29006KT P6SM
                       OVC012=
201508191130 TAF KCLM 191130Z 1912/2012 20003KT P6SM SKC FM191700 02006KT P6SM
                       SKC FM200000 28014G22KT P6SM SKC FM201000
                       28009KT P6SM OVC006=
201508190525 TAF KCLM 190525Z 1906/2006 23004KT P6SM SKC FM191700 02006KT P6SM
                       SKC FM200000 28013G20KT P6SM SKC=
201508182320 TAF KCLM 182320Z 1900/1924 09008KT P6SM SKC FM190400 27004KT P6SM
                       SKC FM191700 02006KT P6SM SKC=
201508181720 TAF KCLM 181720Z 1818/1918 09008KT P6SM SKC FM190400 28004KT P6SM
                       SKC FM191700 02005KT P6SM SKC=
201508181120 TAF KCLM 181120Z 1812/1912 17004KT P6SM SKC FM181600 08006KT P6SM
                       SKC FM190300 28004KT P6SM SKC=
201508180524 TAF KCLM 180524Z 1806/1906 00000KT P6SM SKC FM181600 08006KT P6SM
                       SKC=
201508172321 TAF KCLM 172321Z 1800/1824 07006KT P6SM SCT250 FM180200 27004KT
                       P6SM SCT250 FM181600 08006KT P6SM SKC=
201508171720 TAF KCLM 171720Z 1718/1818 04006KT P6SM SKC FM180300 28004KT P6SM
                       SKC FM181600 07004KT P6SM SKC=
201508171408 TAF AMD KCLM 171408Z 1714/1812 00000KT P6SM VCFG SKC
                      TEMPO 1714/1716 4SM BR SCT002 FM171600 04006KT
                       P6SM SKC FM180300 27003KT P6SM SKC=
201508171130 TAF KCLM 171130Z 1712/1812 00000KT 1/4SM FG VV001
                      TEMPO 1713/1716 2SM BR BKN003 FM171600 04006KT
                       P6SM SKC FM180300 27003KT P6SM SKC=
201508170520 TAF KCLM 170520Z 1706/1806 25005KT P6SM SKC FM171000 VRB03KT P6SM
                       VCFG SCT001 FM171600 VRB03KT P6SM SKC=
201508162320 TAF KCLM 162320Z 1700/1724 27008KT P6SM SKC FM170700 VRB03KT P6SM
                       SKC FM171000 VRB03KT P6SM VCFG SCT001 FM171600
                       VRB03KT P6SM SKC=
201508161720 TAF KCLM 161720Z 1618/1718 00000KT P6SM SKC FM162000 32006KT P6SM
                       SKC FM170000 28008KT P6SM SKC FM170600 25004KT
                       P6SM SKC=
201508161549 TAF AMD KCLM 161549Z 1616/1712 28004KT P6SM VCFG SCT001 FM161800
                       32007KT P6SM SKC FM170000 28006KT P6SM SKC=
201508161436 TAF AMD KCLM 161436Z 1615/1712 33003KT 3/4SM BR VV001 FM161600
                       32005KT P6SM SCT004 FM161800 32007KT P6SM
                       SKC FM170000 28006KT P6SM SKC=
201508161120 TAF KCLM 161120Z 1612/1712 30004KT P6SM SKC FM170000 28006KT P6SM
                       SKC=
201508160520 TAF KCLM 160520Z 1606/1706 29008KT P6SM SKC FM161000 25008KT P6SM
                       SKC FM161900 32007KT P6SM SKC=
201508152324 TAF KCLM 152324Z 1600/1624 30009KT P6SM OVC050 FM160400 27078KT
                       P6SM SCT070 FM161000 25004KT P6SM SKC FM161900
                       32007KT P6SM SKC=
201508151720 TAF KCLM 151720Z 1518/1618 VRB03KT P6SM OVC060 FM152100 32008KT
                       P6SM BKN060 FM152200 29010KT P6SM SCT060
                       FM160600 27006KT P6SM SCT250=
201508151120 TAF KCLM 151120Z 1512/1612 21003KT P6SM SCT010 BKN060
                      TEMPO 1513/1516 BKN010 FM151900 32008KT P6SM
                       SCT025 BKN050 FM152200 29010KT P6SM SCT050
                       FM160600 27006KT P6SM SCT250=
201508150530 TAF KCLM 150530Z 1506/1606 20005KT P6SM SKC FM151000 27007KT P6SM
                       OVC018 FM151900 32008KT P6SM SCT025 BKN050
                       FM152200 29010KT P6SM SCT050=
201508142329 TAF KCLM 142329Z 1500/1524 29005KT P6SM OVC024 FM150200 29012G20KT
                       P6SM OVC025 FM151000 27007KT P6SM OVC018
                       FM151900 32008KT P6SM SCT025 BKN050 FM152200
                       29010KT P6SM SCT050=
201508141726 TAF KCLM 141726Z 1418/1518 32008KT P6SM BKN020 OVC040 FM142200
                       30012G20KT P6SM -SHRA VCTS BKN020 BKN040CB
                       FM150400 29012G20KT P6SM BKN020 FM151000
                       27009KT P6SM OVC018 AMD NOT SKED=
201508141122 TAF KCLM 141122Z 1412/1512 27006KT P6SM OVC015 FM141900 30005KT
                       P6SM -SHRA BKN020 BKN060 FM150100 29012G20KT
                       P6SM OVC020 AMD NOT SKED=
201508140520 TAF KCLM 140520Z 1406/1506 28006KT P6SM FEW015 SCT250
                      TEMPO 1406/1409 BKN015 FM140900 28005KT P6SM
                       OVC015 FM141800 30005KT P6SM VCSH BKN020
                       BKN060 AMD NOT SKED=
201508132326 TAF KCLM 132326Z 1400/1424 30006KT P6SM SKC
                      TEMPO 1406/1409 BKN015 FM140900 28005KT P6SM
                       OVC015 FM141800 30005KT P6SM VCSH BKN020
                       BKN060 AMD NOT SKED=
201508131727 TAF KCLM 131727Z 1318/1418 32005KT P6SM SCT015 FM132000 32005KT
                       P6SM SKC FM140100 29008KT P6SM SKC FM140900
                       28005KT P6SM BKN015 AMD NOT SKED=
201508131120 TAF KCLM 131120Z 1312/1412 26004KT P6SM SCT006 SCT250
                      TEMPO 1312/1316 BKN006 BKN250 FM131800 34006KT
                       P6SM SCT250 FM140100 29006KT P6SM SCT250
                       FM140900 28005KT P6SM BKN015 OVC080 AMD
                       NOT SKED=
201508130521 TAF KCLM 130521Z 1306/1406 28006KT P6SM SCT250 FM131800 34006KT
                       P6SM SCT250 FM140100 29006KT P6SM SCT250
                       AMD NOT SKED=
201508122320 TAF KCLM 122320Z 1300/1324 28007KT P6SM FEW070 BKN150 BKN250 FM130400
                       28006KT P6SM SCT150 SCT250 FM130600 27005KT
                       P6SM SCT250 AMD NOT SKED=
201508121723 TAF KCLM 121723Z 1218/1318 VRB04KT P6SM FEW100 SCT250 FM130100
                       28006KT P6SM BKN250 AMD NOT SKED=
201508121120 TAF KCLM 121120Z 1212/1312 24003KT P6SM BKN250 FM121800 02005KT
                       P6SM FEW120 BKN250 FM130100 28006KT P6SM
                       BKN250=
201508120520 TAF KCLM 120520Z 1206/1306 27006KT P6SM BKN250 FM121800 02005KT
                       P6SM FEW120 BKN250 FM130100 28006KT P6SM
                       BKN250=
201508112320 TAF KCLM 112320Z 1200/1224 27008KT P6SM FEW120 BKN250 FM120400
                       31006KT P6SM SCT250 FM121800 27005KT P6SM
                       FEW120 BKN250=
201508111725 TAF KCLM 111725Z 1118/1218 VRB03KT P6SM FEW090 SCT250 FM120300
                       28006KT P6SM SCT250 AMD NOT SKED=
201508111122 TAF KCLM 111122Z 1112/1212 26004KT P6SM BKN250 FM111800 35006KT
                       P6SM FEW090 SCT250 FM120300 28006KT P6SM
                       SCT250 AMD NOT SKED=
201508110522 TAF KCLM 110522Z 1106/1206 28006KT P6SM BKN250 FM111000 28003KT
                       P6SM BKN250 FM111800 35006KT P6SM SCT250
                       AMD NOT SKED=
201508102330 TAF KCLM 102330Z 1100/1124 27005KT P6SM SCT090 BKN200 FM111000
                       28003KT P6SM SCT200=
201508101726 TAF KCLM 101726Z 1018/1118 28004KT P6SM BKN250=
201508101120 TAF KCLM 101120Z 1012/1112 00000KT P6SM SCT005 BKN080 OVC150
                      TEMPO 1012/1016 2SM BR BKN003 OVC080 FM102000
                       VRB03KT P6SM SCT050 SCT150 FM110500 VRB03KT
                       P6SM SCT050 BKN120=
201508100520 TAF KCLM 100520Z 1006/1106 VRB03KT P6SM SCT060 BKN120 BKN200 FM101200
                       00000KT P6SM SCT005 BKN120 BKN200
                      TEMPO 1012/1016 2SM BR BKN003 OVC120 FM102000
                       VRB03KT P6SM SCT050 SCT200=
201508092320 TAF KCLM 092320Z 1000/1024 27004KT P6SM BKN200 FM101500 32004KT
                       P6SM OVC200=
201508091730 TAF KCLM 091730Z 0918/1018 27003KT P6SM BKN050 FM091900 33002KT
                       P6SM SCT250=
201508091120 TAF KCLM 091120Z 0912/1012 VRB04KT P6SM VCSH BKN050=
201508090520 TAF KCLM 090520Z 0906/1006 VRB04KT P6SM VCSH BKN050=
201508082321 TAF KCLM 082321Z 0900/0924 03006KT P6SM VCSH OVC050 FM090600 27004KT
                       P6SM OVC015 FM091800 34004KT P6SM BKN050=
201508081728 TAF KCLM 081728Z 0818/0918 VRB03KT P6SM OVC015 FM082200 31004KT
                       P6SM -RA OVC015 FM090500 28004KT P6SM VCSH
                       OVC015 FM091000 28002KT P6SM OVC007 FM091600
                       34003KT P6SM OVC015=
201508081120 TAF KCLM 081120Z 0812/0912 28008KT P6SM BKN008
                      TEMPO 0812/0815 3SM BR OVC003 FM081700 VRB03KT
                       P6SM BKN015 FM082100 VRB03KT P6SM -RA OVC020
                       FM090600 VRB03KT P6SM -SHRA BKN025 OVC050=
201508080520 TAF KCLM 080520Z 0806/0906 27009KT P6SM SCT008
                      TEMPO 0806/0809 BKN008 FM080900 28008KT P6SM
                       OVC008 FM081600 33004KT P6SM VCSH BKN015
                       OVC040=
201508080406 TAF AMD KCLM 080406Z 0804/0824 29010KT P6SM SCT008
                      TEMPO 0804/0807 BKN008 FM080700 28008KT P6SM
                       OVC008 FM081600 33004KT P6SM VCSH BKN015
                       OVC040=
201508072326 TAF KCLM 072326Z 0800/0824 29010KT P6SM BKN200 FM080600 29008KT
                       P6SM OVC100 FM080700 29006KT P6SM OVC050
                       FM080800 29006KT P6SM OVC015 FM081000 28004KT
                       P6SM OVC007 FM081600 33004KT P6SM VCSH OVC035=
201508071727 TAF KCLM 071727Z 0718/0818 VRB03KT P6SM FEW250 FM080000 28008KT
                       P6SM SCT030 BKN150 FM080600 28008KT P6SM
                       BKN020 BKN050=
201508071120 TAF KCLM 071120Z 0712/0812 28008KT P6SM SCT250 FM080000 28008KT
                       P6SM SCT030 BKN150 FM080600 28008KT P6SM
                       BKN020 BKN050=
201508070520 TAF KCLM 070520Z 0706/0806 30005KT P6SM SCT250 FM071100 VRB04KT
                       P6SM BKN015 FM071600 32005KT P6SM SCT030
                       SCT250 FM072100 29008KT P6SM SCT080 BKN200=
201508062320 TAF KCLM 062320Z 0700/0724 30005KT P6SM SCT250 FM071100 VRB04KT
                       P6SM BKN015 FM071600 32005KT P6SM SCT030
                       SCT250 FM072100 29008KT P6SM SCT080 BKN200=
201508061801 TAF AMD KCLM 061801Z 0618/0718 34006KT P6SM SCT025
                      TEMPO 0618/0620 BKN025 FM062300 30008KT P6SM
                       SCT250 FM071100 VRB04KT P6SM BKN015 FM071600
                       32005KT P6SM SCT030 SCT250=
201508061720 TAF KCLM 061720Z 0618/0718 35006KT P6SM SCT250 FM062300 30008KT
                       P6SM SCT250 FM071100 VRB04KT P6SM BKN015
                       FM071600 32005KT P6SM SCT030 SCT250=
201508061120 TAF KCLM 061120Z 0612/0712 28008KT P6SM SCT010 SCT040
                      TEMPO 0612/0616 BKN008 BKN040 FM061600 28006KT
                       P6SM SCT015 BKN050 FM061800 30006KT P6SM
                       SCT030 BKN050 FM070000 30006KT P6SM SCT050
                       BKN150 FM071100 VRB04KT P6SM BKN025=
201508060520 TAF KCLM 060520Z 0606/0706 30010KT P6SM SCT050 FM061000 28007KT
                       P6SM BKN020 BKN050 FM061800 32006KT P6SM
                       SCT030 BKN050=
201508052328 TAF KCLM 052328Z 0600/0624 29012G22KT P6SM VCSH SCT025 BKN040 FM060500
                       28007KT P6SM BKN020 BKN050 FM061800 32006KT
                       P6SM SCT030 BKN050=
201508052124 TAF AMD KCLM 052124Z 0521/0618 29010G24KT P6SM SCT045 BKN120 FM060000
                       29012G22KT P6SM VCSH SCT020 BKN040 FM060500
                       28007KT P6SM BKN020=
201508051753 TAF AMD KCLM 051753Z 0518/0618 32009G22KT P6SM SCT040 OVC090 FM052100
                       31012G22KT P6SM -SHRA BKN030 OVC050 FM060500
                       28007KT P6SM BKN020=
201508051734 TAF KCLM 051734Z 0518/0618 09005KT P6SM SCT050 OVC090 FM052100
                       31012G20KT P6SM -SHRA BKN030 OVC050 FM060500
                       28007KT P6SM BKN020=
201508051501 TAF AMD KCLM 051501Z 0515/0612 00000KT P6SM OVC080 FM051800 31010KT
                       P6SM SCT030 OVC050 FM052000 31012G20KT P6SM
                       -SHRA BKN030 OVC050 FM060500 28007KT P6SM
                       BKN020=
201508051124 TAF KCLM 051124Z 0512/0612 29008KT P6SM SCT020 BKN080
                      TEMPO 0514/0518 BKN020 BKN080 FM051800 31010KT
                       P6SM SCT030 OVC050 FM052000 31012G20KT P6SM
                       -SHRA BKN030 OVC050 FM060500 28007KT P6SM
                       BKN020=
201508050906 TAF AMD KCLM 050906Z 0509/0606 28007KT P6SM SCT200 FM051200 29008KT
                       P6SM BKN015 FM051900 31010G18KT P6SM BKN030
                       BKN050 FM052100 31012G20KT P6SM VCSH BKN030
                       OVC050 FM060500 28007KT P6SM BKN015=
201508050525 TAF KCLM 050525Z 0506/0606 28010KT P6SM SCT200 FM050900 29008KT
                       P6SM BKN015 FM051800 30010G18KT P6SM VCSH
                       BKN030 BKN050=
201508050341 TAF AMD KCLM 050341Z 0504/0524 30010KT P6SM SKC FM050900 29008KT
                       P6SM BKN015 FM051800 30012KT P6SM VCSH BKN030
                       BKN050=
201508042329 TAF KCLM 042329Z 0500/0524 30014G22KT P6SM SKC FM050900 29012KT
                       P6SM BKN015 FM051800 30012KT P6SM VCSH BKN030
                       BKN050=
201508041724 TAF KCLM 041724Z 0418/0518 32006KT P6SM SCT050 SCT200 FM042200
                       30012KT P6SM SCT200 FM050000 30014G22KT
                       P6SM SCT200 FM050600 29012KT P6SM BKN015=
201508041306 TAF AMD KCLM 041306Z 0413/0512 28005KT P6SM SCT012
                      TEMPO 0414/0417 BKN012 FM041800 32006KT P6SM
                       SCT050 SCT250 FM042200 30012KT P6SM SCT250
                       FM050000 30014G22KT P6SM SCT250 FM050600
                       29012KT P6SM BKN015=
201508041120 TAF KCLM 041120Z 0412/0512 28005KT P6SM SCT012
                      TEMPO 0412/0414 BKN012 FM041400 27005KT P6SM
                       BKN007
                      TEMPO 0414/0418 SCT007 FM041800 32006KT P6SM
                       SCT050 SCT250 FM042200 30012KT P6SM SCT250
                       FM050000 30014G22KT P6SM SCT250 FM050600
                       29012KT P6SM BKN015=
201508040520 TAF KCLM 040520Z 0406/0506 30007KT P6SM SCT250 FM041000 27007KT
                       P6SM BKN012
                      TEMPO 0410/0412 SCT012 FM041200 27007KT P6SM
                       BKN008
                      TEMPO 0412/0416 SCT008 FM041800 32008KT P6SM
                       SCT012 SCT250 FM042200 30012G20KT P6SM SCT250=
201508040338 TAF AMD KCLM 040338Z 0404/0424 30009KT P6SM SCT250 FM041000 27007KT
                       P6SM BKN015 FM041200 27007KT P6SM OVC007
                       FM041600 32006KT P6SM BKN015 FM041800 32008KT
                       P6SM SCT050 FM042200 30011G20KT P6SM SCT100=
201508032320 TAF KCLM 032320Z 0400/0424 30009G20KT P6SM SKC FM040400 29015G25KT
                       P6SM BKN015 FM040900 29008KT P6SM OVC007
                       FM041700 32006KT P6SM BKN015 FM042000 32008KT
                       P6SM SCT050 FM042200 30011G20KT P6SM SCT100=
201508031729 TAF KCLM 031729Z 0318/0418 30008KT P6SM SCT015 FM031900 31012G20KT
                       P6SM SCT200 FM040300 29015G25KT P6SM BKN015
                       FM040900 29008KT P6SM OVC007 FM041700 32006KT
                       P6SM BKN015=
201508031333 TAF AMD KCLM 031333Z 0314/0412 29009KT P6SM SCT006 BKN200
                      TEMPO 0314/0316 OVC003 FM031900 31012G20KT
                       P6SM SCT200 FM040300 29015G25KT P6SM BKN015=
201508031120 TAF KCLM 031120Z 0312/0412 29009KT P6SM BKN200
                      TEMPO 0313/0316 BKN006 BKN200 FM031900 31012G20KT
                       P6SM SCT200 FM040300 29015G25KT P6SM BKN015=
201508030521 TAF KCLM 030521Z 0306/0406 29010KT P6SM BKN200 FM031000 28007KT
                       P6SM BKN200
                      TEMPO 0312/0316 BKN006 BKN200 FM031900 31012G22KT
                       P6SM SCT200=
201508022330 TAF KCLM 022330Z 0300/0324 VRB04KT P6SM SCT250 FM030200 29010KT
                       P6SM SCT250 FM031200 28006KT P6SM OVC006
                       FM031700 32008KT P6SM SCT250 FM032200 28014G22KT
                       P6SM SCT250=
201508021735 TAF KCLM 021735Z 0218/0318 01004KT P6SM SKC FM030100 30009KT P6SM
                       SCT150=
201508021120 TAF KCLM 021120Z 0212/0312 VRB03KT P6SM SCT200 FM021700 01005KT
                       P6SM SCT150 FM030100 30009KT P6SM SCT150=
201508020520 TAF KCLM 020520Z 0206/0306 28008KT P6SM SKC FM021200 27004KT P6SM
                       SCT200 FM021900 01005KT P6SM SCT150 FM030100
                       30009KT P6SM SCT150=
201508012330 TAF KCLM 012330Z 0200/0224 28008KT P6SM SKC FM021200 27004KT P6SM
                       SKC FM021900 01005KT P6SM SKC=
201508011726 TAF KCLM 011726Z 0118/0218 36006KT P6SM SKC FM020100 30008KT P6SM
                       SKC=
201508011120 TAF KCLM 011120Z 0112/0212 26003KT P6SM VCFG SCT002
                      TEMPO 0112/0116 1/2SM FG VV001 FM011700 01005KT
                       P6SM SKC FM020100 30008KT P6SM SKC=
201508011003 TAF AMD KCLM 011003Z 0110/0206 26003KT 1/2SM FG VV001
                      TEMPO 0114/0116 3SM BR OVC002 FM011700 01005KT
                       P6SM SKC FM020100 30008KT P6SM SKC=
201508010524 TAF KCLM 010524Z 0106/0206 28007KT P6SM SKC FM011600 01006KT P6SM
                       SKC FM020100 30008KT P6SM SKC=