##########################################################
# Query made at 02/16/2025 03:00:59 UTC
# Time interval: from 10/01/2015 00:00  to 10/31/2015 23:59  UTC
##########################################################

##########################################################
# KCLM, Port Angeles, William R. Fairchild International Airport (United States)
# WMO index: -----. WIGOS ID: Unknown
# Latitude 48-07-20N. Longitude 123-30-19W. Altitude 87 m.
##########################################################

###################################
#  METAR/SPECI from KCLM
###################################
201510312353 METAR KCLM 312353Z AUTO 24004KT 10SM SCT055 BKN070 12/10 A2962 RMK AO2 RAB12E42 SLP031 P0002 60006 T01220100 10156 20122 51016=
201510312253 METAR KCLM 312253Z AUTO 26007KT 7SM BKN047 OVC060 13/11 A2961 RMK AO2 RAE34 SLP027 P0004 T01330111=
201510312231 SPECI KCLM 312231Z AUTO 25008KT 7SM -RA BKN049 OVC060 13/11 A2961 RMK AO2 P0004 T01330106=
201510312224 SPECI KCLM 312224Z AUTO 25008KT 2 1/2SM -RA BR SCT049 OVC060 13/11 A2961 RMK AO2 P0004 T01280106=
201510312153 METAR KCLM 312153Z AUTO 30009KT 6SM -RA FEW049 BKN065 OVC080 14/09 A2960 RMK AO2 RAE12B37 SLP024 P0000 T01440089=
201510312053 METAR KCLM 312053Z AUTO 23003KT 8SM -RA BKN070 OVC080 14/09 A2957 RMK AO2 RAB41 SLP014 P0000 60000 T01440089 50005=
201510311953 METAR KCLM 311953Z AUTO 25013KT 10SM FEW065 SCT110 15/07 A2958 RMK AO2 SLP016 T01500072=
201510311853 METAR KCLM 311853Z AUTO 29010KT 9SM SCT055 13/09 A2957 RMK AO2 SLP015 T01330094=
201510311753 METAR KCLM 311753Z AUTO 26013G17KT 10SM FEW005 SCT048 OVC060 14/11 A2956 RMK AO2 RAE50 SLP008 P0010 60115 T01390106 10144 20117 51035=
201510311749 SPECI KCLM 311749Z AUTO 26011G17KT 10SM -RA FEW005 SCT028 OVC055 14/11 A2955 RMK AO2 P0010=
201510311741 SPECI KCLM 311741Z AUTO 29008G16KT 3SM -RA BR FEW003 BKN020 OVC060 14/12 A2955 RMK AO2 P0010 T01390122=
201510311739 SPECI KCLM 311739Z AUTO 29008G18KT 2SM -RA BR SCT003 BKN030 OVC050 14/12 A2955 RMK AO2 P0010 T01390122=
201510311732 SPECI KCLM 311732Z AUTO 31011G18KT 1SM RA BR BKN005 BKN010 OVC027 14/13 A2955 RMK AO2 P0010 T01440128=
201510311715 SPECI KCLM 311715Z AUTO 00000KT 1SM -RA BR SCT002 OVC010 14/14 A2952 RMK AO2 P0004 T01440139=
201510311653 METAR KCLM 311653Z AUTO 00000KT 1 1/2SM -RA BR BKN013 OVC019 14/13 A2950 RMK AO2 SLP990 P0030 T01440133=
201510311619 SPECI KCLM 311619Z AUTO 00000KT 1/2SM RA FG BKN024 OVC035 14/13 A2948 RMK AO2 P0014 T01390128=
201510311602 SPECI KCLM 311602Z AUTO 00000KT 1 3/4SM RA BR FEW036 BKN046 OVC055 14/13 A2946 RMK AO2 P0002 T01390133=
201510311553 METAR KCLM 311553Z AUTO 16005KT 3SM -RA BR FEW036 OVC048 14/13 A2945 RMK AO2 SLP973 P0005 T01390133=
201510311540 SPECI KCLM 311540Z AUTO 13003KT 4SM -RA BR BKN050 OVC065 14/13 A2945 RMK AO2 P0003 T01440133=
201510311531 SPECI KCLM 311531Z AUTO 16004KT 2 1/2SM -RA BR BKN055 OVC065 14/13 A2946 RMK AO2 P0003 T01390133=
201510311453 METAR KCLM 311453Z AUTO 13006KT 3SM -RA BR FEW033 BKN050 OVC070 14/13 A2947 RMK AO2 SLP980 P0020 60070 T01390128 56016=
201510311451 SPECI KCLM 311451Z AUTO 15006KT 2 1/2SM RA BR FEW030 SCT038 OVC050 14/13 A2948 RMK AO2 P0020=
201510311437 SPECI KCLM 311437Z AUTO 00000KT 3SM -RA BR FEW031 BKN048 OVC055 14/13 A2948 RMK AO2 P0016 T01390128=
201510311416 SPECI KCLM 311416Z AUTO 00000KT 1 1/2SM RA BR OVC055 13/13 A2948 RMK AO2 P0010 T01330128=
201510311407 SPECI KCLM 311407Z AUTO 24006KT 2SM RA BR BKN055 BKN075 OVC095 14/12 A2949 RMK AO2 P0006 T01390122=
201510311353 METAR KCLM 311353Z AUTO 00000KT 6SM -RA BR SCT060 BKN080 OVC090 14/13 A2948 RMK AO2 SLP981 P0014 T01390128=
201510311316 SPECI KCLM 311316Z AUTO 15007KT 3SM RA BR FEW019 BKN042 OVC070 13/12 A2950 RMK AO2 P0010 T01330122=
201510311306 SPECI KCLM 311306Z AUTO 15005KT 1 1/2SM +RA BR FEW017 BKN035 OVC060 12/11 A2951 RMK AO2 P0006 T01220111=
201510311253 METAR KCLM 311253Z AUTO 00000KT 1 1/2SM +RA BR FEW017 OVC027 12/12 A2952 RMK AO2 SLP996 P0036 T01220117=
201510311232 SPECI KCLM 311232Z AUTO 16003KT 1 1/4SM +RA BR OVC024 12/12 A2951 RMK AO2 P0020 T01220117=
201510311217 SPECI KCLM 311217Z AUTO 00000KT 2 1/2SM -RA BR OVC024 12/11 A2951 RMK AO2 P0010 T01220111=
201510311206 SPECI KCLM 311206Z AUTO 18004KT 1 1/2SM +RA BR OVC024 12/11 A2951 RMK AO2 P0008 T01170111=
201510311153 METAR KCLM 311153Z AUTO 18004KT 2SM RA BR OVC026 12/11 A2951 RMK AO2 SLP992 P0012 60042 70054 T01170106 10117 20111 56024=
201510311148 SPECI KCLM 311148Z AUTO 17003KT 2SM RA BR OVC028 12/11 A2951 RMK AO2 P0012=
201510311053 METAR KCLM 311053Z AUTO 00000KT 2 1/2SM -RA BR SCT035 OVC043 11/10 A2954 RMK AO2 SLP002 P0006 T01110100=
201510311039 SPECI KCLM 311039Z AUTO 00000KT 3SM -RA BR SCT039 OVC050 12/11 A2955 RMK AO2 P0006 T01170111=
201510311015 SPECI KCLM 311015Z AUTO 14005KT 2SM -RA BR FEW044 BKN055 OVC070 11/11 A2956 RMK AO2 P0002 T01110106=
201510311000 SPECI KCLM 311000Z AUTO 00000KT 3/4SM -RA BR FEW045 BKN055 OVC070 11/11 A2956 RMK AO2 P0000 T01110106=
201510310953 METAR KCLM 310953Z AUTO 00000KT 2SM -RA BR SCT045 BKN055 OVC070 11/11 A2958 RMK AO2 SLP016 P0002 T01110106=
201510310904 SPECI KCLM 310904Z AUTO 13003KT 3SM -RA BR BKN065 OVC080 11/11 A2959 RMK AO2 P0000 T01110106=
201510310853 METAR KCLM 310853Z AUTO 12003KT 2 1/2SM -RA BR BKN065 OVC075 11/11 A2959 RMK AO2 PRESFR SLP020 P0004 60022 T01110106 58047=
201510310815 SPECI KCLM 310815Z AUTO 00000KT 2 1/2SM -RA BR OVC065 11/11 A2964 RMK AO2 P0002 T01110106=
201510310805 SPECI KCLM 310805Z AUTO 00000KT 1 1/2SM -RA BR OVC065 11/10 A2965 RMK AO2 VIS 1V2 1/2 P0000 T01110100=
201510310753 METAR KCLM 310753Z AUTO 00000KT 2SM -RA BR OVC070 11/11 A2965 RMK AO2 SLP038 P0010 T01110106 401830100=
201510310746 SPECI KCLM 310746Z AUTO 00000KT 2 1/2SM -RA BR OVC070 11/11 A2965 RMK AO2 P0010 T01110106=
201510310653 METAR KCLM 310653Z AUTO 11003KT 4SM -RA BR OVC080 11/10 A2969 RMK AO2 SLP052 P0008 T01110100=
201510310553 METAR KCLM 310553Z AUTO 00000KT 4SM -RA BR FEW021 FEW027 OVC075 12/11 A2973 RMK AO2 SLP067 P0008 60008 T01170106 10139 20111 56020=
201510310550 SPECI KCLM 310550Z AUTO 11003KT 4SM -RA BR FEW021 SCT027 OVC075 12/11 A2973 RMK AO2 P0008=
201510310453 METAR KCLM 310453Z AUTO 20003KT 5SM -RA BR OVC022 12/10 A2977 RMK AO2 RAB08 SLP081 P0000 T01170100=
201510310353 METAR KCLM 310353Z AUTO 16003KT 9SM FEW017 BKN026 12/10 A2979 RMK AO2 SLP088 T01170100=
201510310351 SPECI KCLM 310351Z AUTO 14003KT 8SM FEW017 BKN024 BKN029 12/10 A2979 RMK AO2=
201510310253 METAR KCLM 310253Z AUTO 00000KT 10SM FEW090 11/09 A2981 RMK AO2 SLP094 T01110094 53003=
201510310153 METAR KCLM 310153Z AUTO 17003KT 10SM CLR 13/09 A2980 RMK AO2 SLP090 T01280094=
201510310053 METAR KCLM 310053Z AUTO 31011KT 8SM CLR 13/09 A2980 RMK AO2 SLP092 T01280094=
201510302353 METAR KCLM 302353Z AUTO 29008KT 9SM CLR 14/09 A2980 RMK AO2 SLP091 T01390089 10183 20139 51015=
201510302253 METAR KCLM 302253Z AUTO 31012G16KT 10SM CLR 16/09 A2978 RMK AO2 SLP086 T01560089=
201510302153 METAR KCLM 302153Z AUTO 30016G24KT 10SM CLR 16/09 A2977 RMK AO2 PK WND 31026/2138 SLP081 T01610094=
201510302053 METAR KCLM 302053Z AUTO 32012G25KT 10SM BKN065 17/11 A2975 RMK AO2 PK WND 29028/2009 SLP075 T01670111 51034=
201510301953 METAR KCLM 301953Z AUTO 30015G23KT 10SM BKN055 17/11 A2974 RMK AO2 PK WND 30031/1910 SLP069 T01720106=
201510301853 METAR KCLM 301853Z AUTO 31019G28KT 10SM FEW047 SCT085 16/12 A2970 RMK AO2 PK WND 28032/1803 PRESRR SLP056 T01610117=
201510301753 METAR KCLM 301753Z AUTO 28019G26KT 10SM SCT050 BKN075 18/12 A2965 RMK AO2 PK WND 29026/1752 SLP040 60004 T01780117 10178 20106 51035=
201510301653 METAR KCLM 301653Z AUTO 30014G24KT 10SM FEW047 FEW055 BKN070 17/12 A2963 RMK AO2 PK WND 29026/1643 SLP033 T01720122=
201510301553 METAR KCLM 301553Z AUTO VRB03KT 6SM BR FEW049 OVC085 12/11 A2958 RMK AO2 SLP018 T01220111=
201510301453 METAR KCLM 301453Z AUTO 13004KT 4SM BR FEW029 FEW041 OVC055 11/10 A2955 RMK AO2 RAE23 SLP006 P0000 60004 T01060100 55028=
201510301353 METAR KCLM 301353Z AUTO 00000KT 5SM -RA BR BKN055 OVC070 11/10 A2955 RMK AO2 RAE20B52 SLP006 P0000 T01060100=
201510301253 METAR KCLM 301253Z AUTO 00000KT 4SM -RA BR BKN060 OVC080 11/10 A2958 RMK AO2 PRESFR SLP016 P0004 T01060100=
201510301153 METAR KCLM 301153Z AUTO 00000KT 5SM -RA BR BKN075 OVC090 11/09 A2963 RMK AO2 SLP035 P0002 60008 70008 T01060094 10122 20100 56071=
201510301135 SPECI KCLM 301135Z AUTO 00000KT 4SM -RA BR FEW075 OVC090 11/09 A2965 RMK AO2 P0002 T01060094=
201510301111 SPECI KCLM 301111Z AUTO 00000KT 2SM -RA BR OVC090 11/10 A2967 RMK AO2 P0000 T01060100=
201510301053 METAR KCLM 301053Z AUTO 07004KT 3SM -RA BR BKN090 OVC110 11/09 A2968 RMK AO2 PRESFR SLP052 P0004 T01060094=
201510300953 METAR KCLM 300953Z AUTO 00000KT 3SM -RA BR BKN090 OVC110 11/10 A2976 RMK AO2 RAE22B42 PRESFR SLP079 P0000 T01060100=
201510300853 METAR KCLM 300853Z AUTO 21004KT 5SM -RA BR BKN060 OVC085 11/10 A2984 RMK AO2 RAB39 SLP107 P0002 60002 T01110100 58028=
201510300753 METAR KCLM 300753Z AUTO 00000KT 6SM BR OVC065 11/10 A2988 RMK AO2 SLP119 T01060100 401390083=
201510300653 METAR KCLM 300653Z AUTO 34003KT 6SM BR OVC060 11/10 A2991 RMK AO2 SLP128 T01060100=
201510300553 METAR KCLM 300553Z AUTO 15006KT 5SM BR CLR 11/10 A2993 RMK AO2 SLP136 T01060100 10128 20106 58018=
201510300524 SPECI KCLM 300524Z AUTO 23005KT 5SM BR FEW024 SCT038 11/10 A2995 RMK AO2 T01110100=
201510300453 METAR KCLM 300453Z AUTO 00000KT 4SM BR OVC022 12/11 A2996 RMK AO2 SLP147 T01170106=
201510300427 SPECI KCLM 300427Z AUTO 00000KT 5SM BR BKN023 11/10 A2997 RMK AO2 T01110100=
201510300353 METAR KCLM 300353Z AUTO 00000KT 5SM BR SCT024 11/10 A2996 RMK AO2 SLP147 T01110100=
201510300253 METAR KCLM 300253Z AUTO 15004KT 6SM BR FEW022 SCT029 BKN036 12/11 A2998 RMK AO2 SLP154 T01170106 56010=
201510300220 SPECI KCLM 300220Z AUTO 00000KT 6SM BR SCT015 BKN029 OVC035 12/11 A2999 RMK AO2 T01220106=
201510300153 METAR KCLM 300153Z AUTO 00000KT 6SM BR FEW016 OVC030 13/11 A2999 RMK AO2 SLP155 T01280106=
201510300053 METAR KCLM 300053Z AUTO 00000KT 6SM BR OVC021 13/11 A2999 RMK AO2 SLP158 T01280111=
201510300030 SPECI KCLM 300030Z AUTO 00000KT 6SM BR BKN015 OVC021 13/11 A3000 RMK AO2 T01280111=
201510292353 METAR KCLM 292353Z AUTO 00000KT 4SM BR OVC011 13/11 A3002 RMK AO2 SLP165 60000 T01280111 10139 20128 56002=
201510292306 SPECI KCLM 292306Z AUTO 32003KT 4SM BR OVC014 13/11 A3002 RMK AO2 T01330111=
201510292253 METAR KCLM 292253Z AUTO 27003KT 4SM BR OVC016 13/11 A3002 RMK AO2 SLP166 T01330111=
201510292217 SPECI KCLM 292217Z AUTO 29005KT 4SM BR OVC015 13/11 A3001 RMK AO2 T01330111=
201510292201 SPECI KCLM 292201Z AUTO 31006KT 5SM BR FEW006 OVC014 13/11 A3001 RMK AO2 T01330111=
201510292153 METAR KCLM 292153Z AUTO 30006KT 5SM BR SCT006 OVC015 13/12 A3001 RMK AO2 SLP164 T01330117=
201510292053 METAR KCLM 292053Z AUTO 00000KT 5SM BR SCT005 OVC015 13/12 A3002 RMK AO2 SLP166 60000 T01330117 56010=
201510292013 SPECI KCLM 292013Z AUTO 36004KT 6SM BR BKN007 BKN012 OVC050 13/12 A3002 RMK AO2 T01330117=
201510291953 METAR KCLM 291953Z AUTO 31003KT 4SM BR SCT009 BKN013 BKN018 13/12 A3003 RMK AO2 RAB05E16 SLP168 P0000 T01330117=
201510291951 SPECI KCLM 291951Z AUTO VRB04KT 4SM BR FEW009 SCT013 BKN019 14/12 A3003 RMK AO2 RAB05E16 P0000=
201510291904 SPECI KCLM 291904Z AUTO 32005KT 6SM BR FEW007 SCT021 OVC055 13/12 A3005 RMK AO2 T01330117=
201510291853 METAR KCLM 291853Z AUTO 32005KT 6SM BR SCT008 BKN021 OVC055 13/12 A3005 RMK AO2 SLP176 T01330117=
201510291848 SPECI KCLM 291848Z AUTO 33005KT 6SM BR SCT008 BKN021 OVC060 13/12 A3005 RMK AO2 PRESRR=
201510291826 SPECI KCLM 291826Z AUTO VRB03KT 7SM OVC009 14/12 A3002 RMK AO2 CIG 006V013 T01390117=
201510291810 SPECI KCLM 291810Z AUTO 19003KT 7SM BKN010 BKN014 OVC020 14/12 A3002 RMK AO2 T01390117=
201510291753 METAR KCLM 291753Z AUTO 30007KT 6SM BR SCT010 BKN021 OVC065 14/12 A3003 RMK AO2 SLP169 60000 T01390117 10139 20100 53011=
201510291700 SPECI KCLM 291700Z AUTO 00000KT 10SM BKN012 OVC065 13/10 A3002 RMK AO2 T01330100=
201510291653 METAR KCLM 291653Z AUTO 24004KT 10SM SCT014 BKN065 OVC080 13/10 A3002 RMK AO2 RAB23E44 SLP165 P0000 T01280100=
201510291553 METAR KCLM 291553Z AUTO 24009KT 10SM FEW075 12/09 A3000 RMK AO2 SLP160 T01220089=
201510291453 METAR KCLM 291453Z AUTO 24006KT 10SM BKN070 11/09 A3000 RMK AO2 SLP159 60000 T01110089 51007=
201510291353 METAR KCLM 291353Z AUTO 23006KT 10SM CLR 11/09 A2999 RMK AO2 SLP158 T01060089=
201510291253 METAR KCLM 291253Z AUTO 17003KT 10SM SCT070 BKN095 10/09 A2999 RMK AO2 RAB1156E09 SLP156 P0000 T01000089=
201510291153 METAR KCLM 291153Z AUTO 21003KT 10SM BKN048 OVC060 11/09 A2998 RMK AO2 RAE35 SLP152 P0002 60012 70068 T01060094 10122 20083 55000=
201510291053 METAR KCLM 291053Z AUTO VRB03KT 7SM -RA SCT050 BKN070 OVC080 09/09 A2998 RMK AO2 RAB49 SLP152 P0000 T00940089=
201510291033 SPECI KCLM 291033Z AUTO 25003KT 3SM BR FEW070 BKN085 09/08 A2997 RMK AO2 T00890083=
201510291030 SPECI KCLM 291030Z AUTO 24004KT 1SM BR BKN085 09/08 A2997 RMK AO2 T00890083=
201510291022 SPECI KCLM 291022Z AUTO 27004KT 1/4SM FG BKN085 09/08 A2997 RMK AO2 T00890083=
201510291000 SPECI KCLM 291000Z AUTO 21003KT 3/4SM BR CLR 09/09 A2997 RMK AO2 VIS 1/2V2 1/2 T00890089=
201510290953 METAR KCLM 290953Z AUTO 00000KT 2 1/2SM BR CLR 09/09 A2997 RMK AO2 RAE00 SLP150 P0000 T00940089=
201510290950 SPECI KCLM 290950Z AUTO 00000KT 3SM BR CLR 09/09 A2997 RMK AO2 RAE00 P0000=
201510290939 SPECI KCLM 290939Z AUTO 21003KT 1 1/2SM BR FEW001 FEW070 09/09 A2997 RMK AO2 RAE00 P0000 T00940089=
201510290924 SPECI KCLM 290924Z AUTO 15005KT 3SM BR SCT050 BKN075 10/09 A2997 RMK AO2 RAE00 P0000 T01000089=
201510290910 SPECI KCLM 290910Z AUTO 00000KT 1 3/4SM BR BKN050 OVC075 11/10 A2998 RMK AO2 RAE00 P0000 T01060100=
201510290853 METAR KCLM 290853Z AUTO 00000KT 6SM -RA BR SCT055 OVC075 11/10 A2998 RMK AO2 RAE0756B34 SLP152 P0000 60010 T01060100 53008=
201510290753 METAR KCLM 290753Z AUTO 28007KT 10SM -RA FEW060 BKN090 OVC110 12/10 A2995 RMK AO2 RAE15B33 SLP144 P0002 T01170100 401440094=
201510290653 METAR KCLM 290653Z AUTO 26010KT 7SM -RA BKN070 BKN090 OVC120 12/10 A2994 RMK AO2 SLP140 P0008 T01220100=
201510290614 SPECI KCLM 290614Z AUTO 27009KT 5SM -RA BR OVC060 12/11 A2995 RMK AO2 P0004 T01170106=
201510290553 METAR KCLM 290553Z AUTO 25004KT 2 1/2SM RA BR OVC060 12/11 A2995 RMK AO2 RAB17 SLP144 P0008 60054 T01170106 10122 20106 51002=
201510290453 METAR KCLM 290453Z AUTO 00000KT 5SM BR BKN050 OVC060 11/11 A2995 RMK AO2 RAE36 SLP143 P0005 T01060106=
201510290414 SPECI KCLM 290414Z AUTO 15004KT 3SM -RA BR OVC055 11/10 A2995 RMK AO2 P0004 T01110100=
201510290401 SPECI KCLM 290401Z AUTO 18004KT 2 1/2SM RA BR FEW005 OVC060 11/10 A2995 RMK AO2 P0002 T01110100=
201510290353 METAR KCLM 290353Z AUTO 20005KT 1 3/4SM RA BR SCT005 OVC047 11/10 A2995 RMK AO2 SLP143 P0033 T01060100=
201510290317 SPECI KCLM 290317Z AUTO 33004KT 1 1/2SM RA BR BKN002 OVC055 11/09 A2996 RMK AO2 P0010 T01060094=
201510290253 METAR KCLM 290253Z AUTO 00000KT 1 1/2SM RA BR SCT002 SCT037 OVC060 11/10 A2995 RMK AO2 SLP142 P0008 60008 T01060100 53005=
201510290246 SPECI KCLM 290246Z AUTO 28004KT 1 3/4SM RA BR FEW002 FEW037 OVC065 11/10 A2995 RMK AO2 P0006 T01060100=
201510290237 SPECI KCLM 290237Z AUTO 33004KT 2SM -RA BR FEW037 OVC065 11/10 A2994 RMK AO2 P0004 T01060100=
201510290153 METAR KCLM 290153Z AUTO 00000KT 4SM -RA BR OVC070 11/10 A2993 RMK AO2 RAB36 SLP137 P0000 T01110100=
201510290053 METAR KCLM 290053Z AUTO 00000KT 5SM BR BKN110 12/10 A2993 RMK AO2 SLP136 T01220100=
201510282353 METAR KCLM 282353Z AUTO 12005KT 5SM BR BKN100 12/10 A2993 RMK AO2 SLP136 60002 T01170100 10144 20106 55004=
201510282253 METAR KCLM 282253Z AUTO 03004KT 7SM FEW016 SCT080 14/10 A2993 RMK AO2 SLP136 T01390100=
201510282207 SPECI KCLM 282207Z AUTO 00000KT 7SM SCT012 13/10 A2993 RMK AO2 T01330100=
201510282153 METAR KCLM 282153Z AUTO 08003KT 7SM BKN012 13/10 A2993 RMK AO2 SLP136 T01280100=
201510282139 SPECI KCLM 282139Z AUTO 00000KT 7SM SCT012 12/09 A2993 RMK AO2 T01220094=
201510282118 SPECI KCLM 282118Z AUTO 00000KT 6SM BR FEW006 OVC014 12/10 A2994 RMK AO2 T01220100=
201510282100 SPECI KCLM 282100Z AUTO 00000KT 5SM BR SCT005 OVC015 12/10 A2994 RMK AO2 T01220100=
201510282053 METAR KCLM 282053Z AUTO 00000KT 5SM BR BKN005 OVC015 12/09 A2994 RMK AO2 SLP140 60002 T01170094 51003=
201510281953 METAR KCLM 281953Z AUTO 00000KT 6SM BR OVC006 11/09 A2994 RMK AO2 RAE02 SLP140 P0000 T01060089=
201510281858 SPECI KCLM 281858Z AUTO 00000KT 5SM -RA BR BKN008 BKN041 OVC095 11/09 A2994 RMK AO2 P0000 T01060089=
201510281853 METAR KCLM 281853Z AUTO 00000KT 4SM -RA BR SCT010 BKN037 OVC080 11/09 A2994 RMK AO2 SLP139 P0002 T01060089=
201510281843 SPECI KCLM 281843Z AUTO 00000KT 4SM -RA BR FEW008 BKN039 OVC075 10/09 A2994 RMK AO2 P0002 T01000089=
201510281833 SPECI KCLM 281833Z AUTO 00000KT 4SM -RA BR SCT020 BKN038 OVC080 10/08 A2993 RMK AO2 P0002 T01000083=
201510281817 SPECI KCLM 281817Z AUTO 00000KT 5SM -RA BR BKN020 OVC036 10/08 A2993 RMK AO2 P0002 T01000083=
201510281806 SPECI KCLM 281806Z AUTO 00000KT 2SM -RA BR OVC021 10/08 A2993 RMK AO2 P0002 T01000083=
201510281753 METAR KCLM 281753Z AUTO 00000KT 5SM -RA BR FEW010 OVC022 10/08 A2993 RMK AO2 RAB18 SLP137 P0000 60000 T01000083 10106 20094 51012=
201510281745 SPECI KCLM 281745Z AUTO 00000KT 4SM -RA BR SCT011 OVC022 11/08 A2993 RMK AO2 RAB18 P0000 T01060083=
201510281653 METAR KCLM 281653Z AUTO 00000KT 7SM OVC011 11/08 A2993 RMK AO2 RAE09 SLP135 P0000 T01060083=
201510281553 METAR KCLM 281553Z AUTO 00000KT 6SM -RA BR OVC011 10/08 A2991 RMK AO2 RAB46 SLP129 P0000 T01000083=
201510281508 SPECI KCLM 281508Z AUTO 00000KT 8SM OVC010 10/08 A2990 RMK AO2 T01000083=
201510281453 METAR KCLM 281453Z AUTO 00000KT 8SM OVC009 10/08 A2990 RMK AO2 SLP125 T01000083 53004=
201510281430 SPECI KCLM 281430Z AUTO 30003KT 8SM OVC009 10/08 A2990 RMK AO2 T01000083=
201510281353 METAR KCLM 281353Z AUTO 00000KT 8SM OVC011 10/08 A2989 RMK AO2 SLP124 T01000083=
201510281327 SPECI KCLM 281327Z AUTO 00000KT 7SM BKN012 BKN070 OVC095 09/08 A2989 RMK AO2 T00940083=
201510281253 METAR KCLM 281253Z AUTO 00000KT 7SM BKN070 OVC095 09/08 A2989 RMK AO2 SLP121 T00940083=
201510281238 SPECI KCLM 281238Z AUTO 23003KT 7SM SCT014 BKN070 OVC095 10/08 A2989 RMK AO2 T01000078=
201510281229 SPECI KCLM 281229Z AUTO 00000KT 8SM BKN014 OVC080 09/08 A2988 RMK AO2 T00940078=
201510281153 METAR KCLM 281153Z AUTO 00000KT 7SM OVC016 10/08 A2989 RMK AO2 SLP121 60000 T01000083 10100 20094 58002=
201510281129 SPECI KCLM 281129Z AUTO 24003KT 7SM BKN016 OVC075 09/08 A2989 RMK AO2 T00940083=
201510281053 METAR KCLM 281053Z AUTO 25004KT 6SM BR FEW017 SCT100 BKN110 09/08 A2989 RMK AO2 SLP123 T00940083=
201510280953 METAR KCLM 280953Z AUTO 00000KT 6SM BR BKN075 OVC090 10/09 A2990 RMK AO2 RAB12E22 SLP125 P0000 T01000089=
201510280853 METAR KCLM 280853Z AUTO 00000KT 5SM BR BKN080 OVC100 09/08 A2989 RMK AO2 SLP123 T00940083 56007=
201510280753 METAR KCLM 280753Z AUTO 00000KT 6SM BR BKN110 09/08 A2989 RMK AO2 SLP123 T00940083 401220094=
201510280653 METAR KCLM 280653Z AUTO 00000KT 6SM BR FEW085 09/08 A2991 RMK AO2 SLP128 T00940083=
201510280553 METAR KCLM 280553Z AUTO 13004KT 6SM BR CLR 09/08 A2991 RMK AO2 SLP130 T00940083 10117 20094 56010=
201510280453 METAR KCLM 280453Z AUTO 15003KT 5SM BR CLR 10/09 A2992 RMK AO2 SLP134 T01000089=
201510280353 METAR KCLM 280353Z AUTO 00000KT 6SM BR CLR 10/09 A2993 RMK AO2 SLP135 T01000089=
201510280253 METAR KCLM 280253Z AUTO 00000KT 6SM BR CLR 10/09 A2994 RMK AO2 SLP141 T01000089 56005=
201510280240 SPECI KCLM 280240Z AUTO 00000KT 6SM BR FEW020 10/09 A2994 RMK AO2 T01000089=
201510280153 METAR KCLM 280153Z AUTO 00000KT 7SM BKN021 11/09 A2995 RMK AO2 SLP142 T01060089=
201510280053 METAR KCLM 280053Z AUTO 00000KT 7SM OVC021 11/09 A2995 RMK AO2 SLP144 T01110089=
201510272353 METAR KCLM 272353Z AUTO 00000KT 7SM OVC022 12/09 A2996 RMK AO2 SLP146 T01170089 10122 20106 58009=
201510272253 METAR KCLM 272253Z AUTO 09003KT 7SM OVC022 12/08 A2997 RMK AO2 SLP150 T01220083=
201510272153 METAR KCLM 272153Z AUTO 00000KT 8SM OVC021 12/08 A2999 RMK AO2 SLP156 T01220083=
201510272053 METAR KCLM 272053Z AUTO 10006KT 6SM HZ SCT013 OVC024 12/09 A2999 RMK AO2 SLP155 T01170089 58008=
201510272015 SPECI KCLM 272015Z AUTO 09005KT 7SM FEW012 OVC020 12/09 A2999 RMK AO2 T01170089=
201510271953 METAR KCLM 271953Z AUTO 00000KT 7SM OVC012 11/08 A3000 RMK AO2 SLP161 T01110083=
201510271853 METAR KCLM 271853Z AUTO 06004KT 7SM OVC010 11/08 A3001 RMK AO2 SLP164 T01110083=
201510271832 SPECI KCLM 271832Z AUTO 07003KT 6SM BR OVC010 11/09 A3001 RMK AO2 T01110089=
201510271803 SPECI KCLM 271803Z AUTO 05003KT 3SM BR OVC007 11/09 A3001 RMK AO2 T01110094=
201510271753 METAR KCLM 271753Z AUTO VRB03KT 2 1/2SM BR OVC007 11/09 A3001 RMK AO2 CIG 003V009 SLP164 T01060094 10111 20106 58004=
201510271742 SPECI KCLM 271742Z AUTO 04004KT 2SM BR OVC005 11/10 A3001 RMK AO2 CIG 003V008 T01110100=
201510271733 SPECI KCLM 271733Z AUTO 00000KT 2SM BR OVC004 11/11 A3002 RMK AO2 CIG 002V007 T01110106=
201510271701 SPECI KCLM 271701Z AUTO VRB03KT 1 3/4SM BR OVC002 11/11 A3002 RMK AO2 T01110106=
201510271653 METAR KCLM 271653Z AUTO 00000KT 3/4SM BR OVC002 11/11 A3002 RMK AO2 SLP168 T01110106=
201510271650 SPECI KCLM 271650Z AUTO 08003KT 3/4SM BR OVC002 11/11 A3002 RMK AO2=
201510271553 METAR KCLM 271553Z AUTO 09005KT M1/4SM FG BKN003 OVC008 11/10 A3003 RMK AO2 SLP168 T01060100=
201510271544 SPECI KCLM 271544Z AUTO VRB03KT 1/4SM FG BKN002 OVC008 11/10 A3003 RMK AO2 T01110100=
201510271537 SPECI KCLM 271537Z AUTO 07003KT 1SM BR BKN002 OVC008 11/10 A3003 RMK AO2 T01110100=
201510271509 SPECI KCLM 271509Z AUTO 10004KT 1/4SM FG VV002 11/11 A3003 RMK AO2 T01060106=
201510271453 METAR KCLM 271453Z AUTO 09005KT M1/4SM FG VV001 11/11 A3003 RMK AO2 SLP171 T01060106 57002=
201510271416 SPECI KCLM 271416Z AUTO 11005KT 1/4SM FG VV001 11/10 A3003 RMK AO2 T01060100=
201510271409 SPECI KCLM 271409Z AUTO 11006KT 1/4SM FG VV002 11/10 A3003 RMK AO2 T01060100=
201510271353 METAR KCLM 271353Z AUTO 12006KT 1/4SM FG VV001 11/10 A3003 RMK AO2 SLP171 T01060100=
201510271253 METAR KCLM 271253Z AUTO 10005KT M1/4SM FG VV001 11/10 A3004 RMK AO2 SLP174 T01060100=
201510271249 SPECI KCLM 271249Z AUTO 08006KT M1/4SM FG VV001 11/10 A3004 RMK AO2=
201510271153 METAR KCLM 271153Z AUTO 07003KT 1/4SM FG VV002 11/11 A3005 RMK AO2 SLP176 60000 T01110106 10111 20100 58003=
201510271053 METAR KCLM 271053Z AUTO 11004KT 1/4SM FG VV002 11/11 A3006 RMK AO2 SLP179 T01110106=
201510271045 SPECI KCLM 271045Z AUTO 11004KT 1/2SM FG OVC003 11/11 A3006 RMK AO2 T01110106=
201510271024 SPECI KCLM 271024Z AUTO 12005KT 1 1/4SM BR OVC003 11/10 A3006 RMK AO2 T01110100=
201510271008 SPECI KCLM 271008Z AUTO 12004KT 2SM BR OVC003 11/10 A3006 RMK AO2 T01060100=
201510270953 METAR KCLM 270953Z AUTO 00000KT 1 1/4SM BR OVC003 11/10 A3007 RMK AO2 RAB00E09 SLP182 P0000 T01110100=
201510270912 SPECI KCLM 270912Z AUTO 00000KT 1/2SM FG VV002 11/10 A3006 RMK AO2 RAB00E09 P0000 T01060100=
201510270901 SPECI KCLM 270901Z AUTO 00000KT 1/4SM -RA FG VV002 11/10 A3006 RMK AO2 RAB00 P0000 T01060100=
201510270853 METAR KCLM 270853Z AUTO 00000KT 1/2SM FG VV002 11/10 A3006 RMK AO2 SLP179 T01060100 53002=
201510270850 SPECI KCLM 270850Z AUTO 00000KT 1/2SM FG VV002 11/10 A3006 RMK AO2=
201510270818 SPECI KCLM 270818Z AUTO 00000KT 1 3/4SM BR OVC001 11/10 A3005 RMK AO2 T01060100=
201510270811 SPECI KCLM 270811Z AUTO 00000KT 2SM BR OVC001 11/09 A3005 RMK AO2 T01060094=
201510270800 SPECI KCLM 270800Z AUTO 00000KT 2 1/2SM BR OVC002 11/09 A3005 RMK AO2 T01060094=
201510270753 METAR KCLM 270753Z AUTO 00000KT 3SM BR BKN003 OVC012 11/10 A3005 RMK AO2 SLP177 T01060100 401390078=
201510270749 SPECI KCLM 270749Z AUTO 00000KT 3SM BR BKN003 OVC012 11/10 A3005 RMK AO2=
201510270741 SPECI KCLM 270741Z AUTO 00000KT 4SM BR SCT003 OVC012 11/10 A3005 RMK AO2 T01060100=
201510270731 SPECI KCLM 270731Z AUTO 00000KT 3SM BR BKN012 OVC048 11/09 A3005 RMK AO2 T01060094=
201510270653 METAR KCLM 270653Z AUTO 00000KT 5SM BR OVC044 11/09 A3005 RMK AO2 SLP178 T01060094=
201510270553 METAR KCLM 270553Z AUTO 00000KT 5SM BR BKN033 OVC041 11/09 A3005 RMK AO2 SLP175 T01060094 10122 20078 53008=
201510270529 SPECI KCLM 270529Z AUTO 00000KT 5SM BR BKN031 OVC039 10/09 A3004 RMK AO2 T01000094=
201510270453 METAR KCLM 270453Z AUTO 00000KT 5SM BR OVC026 10/09 A3003 RMK AO2 SLP170 T01000089=
201510270353 METAR KCLM 270353Z AUTO 00000KT 4SM BR OVC025 09/08 A3003 RMK AO2 SLP170 T00890078=
201510270339 SPECI KCLM 270339Z AUTO 00000KT 3SM BR BKN026 08/08 A3003 RMK AO2 T00830078=
201510270326 SPECI KCLM 270326Z AUTO 00000KT 1 3/4SM BR FEW002 FEW025 08/08 A3003 RMK AO2 T00830083=
201510270323 SPECI KCLM 270323Z AUTO 00000KT 3SM BR FEW002 09/09 A3002 RMK AO2 T00940089=
201510270314 SPECI KCLM 270314Z AUTO 15004KT 2SM BR FEW002 09/08 A3002 RMK AO2 T00940083=
201510270312 SPECI KCLM 270312Z AUTO 15003KT 1SM BR VV002 09/08 A3002 RMK AO2 T00890083=
201510270303 SPECI KCLM 270303Z AUTO 00000KT 1/4SM FG VV002 09/08 A3002 RMK AO2 T00940083=
201510270256 SPECI KCLM 270256Z AUTO 00000KT 1/4SM FG VV001 09/08 A3002 RMK AO2 T00890083=
201510270253 METAR KCLM 270253Z AUTO 00000KT 1/4SM FG CLR 09/08 A3002 RMK AO2 SLP167 T00890083 53001=
201510270242 SPECI KCLM 270242Z AUTO 00000KT 1 3/4SM BR CLR 09/09 A3002 RMK AO2 T00940089=
201510270153 METAR KCLM 270153Z AUTO 00000KT 6SM BR BKN055 11/09 A3001 RMK AO2 SLP162 T01110094=
201510270053 METAR KCLM 270053Z AUTO 00000KT 7SM FEW026 BKN045 OVC060 12/10 A3001 RMK AO2 SLP164 T01220100=
201510270042 SPECI KCLM 270042Z AUTO 00000KT 7SM FEW024 BKN042 OVC055 12/10 A3002 RMK AO2 T01220100=
201510262353 METAR KCLM 262353Z AUTO 00000KT 9SM OVC024 12/10 A3002 RMK AO2 SLP166 T01220100 10139 20117 51010=
201510262253 METAR KCLM 262253Z AUTO 00000KT 10SM OVC024 13/10 A3001 RMK AO2 SLP163 T01280100=
201510262153 METAR KCLM 262153Z AUTO 33003KT 10SM SCT016 OVC028 13/10 A3000 RMK AO2 SLP161 T01280100=
201510262053 METAR KCLM 262053Z AUTO 35003KT 9SM OVC018 13/11 A2999 RMK AO2 SLP155 T01330106 51012=
201510262030 SPECI KCLM 262030Z AUTO 01003KT 7SM OVC016 13/11 A2999 RMK AO2 T01280106=
201510262019 SPECI KCLM 262019Z AUTO 04003KT 7SM OVC014 13/11 A2999 RMK AO2 T01330111=
201510262012 SPECI KCLM 262012Z AUTO 03003KT 7SM OVC016 13/11 A2998 RMK AO2 T01280106=
201510262005 SPECI KCLM 262005Z AUTO 03004KT 9SM OVC014 13/10 A2998 RMK AO2 T01330100=
201510261953 METAR KCLM 261953Z AUTO 00000KT 10SM OVC015 13/10 A2998 RMK AO2 SLP154 T01330100=
201510261931 SPECI KCLM 261931Z AUTO 00000KT 9SM OVC015 13/11 A2999 RMK AO2 T01280106=
201510261920 SPECI KCLM 261920Z AUTO 34004KT 6SM BR OVC014 13/11 A2998 RMK AO2 T01280111=
201510261909 SPECI KCLM 261909Z AUTO 33003KT 6SM BR FEW004 OVC015 13/11 A2998 RMK AO2 T01280111=
201510261853 METAR KCLM 261853Z AUTO 34003KT 5SM BR FEW003 OVC014 12/11 A2998 RMK AO2 SLP152 T01220111=
201510261820 SPECI KCLM 261820Z AUTO 01003KT 5SM BR FEW004 OVC013 12/11 A2996 RMK AO2 T01220111=
201510261753 METAR KCLM 261753Z AUTO 36003KT 6SM BR OVC011 12/11 A2995 RMK AO2 SLP144 T01170106 10122 20117 51022=
201510261738 SPECI KCLM 261738Z AUTO 00000KT 5SM BR FEW003 OVC010 12/11 A2995 RMK AO2 T01170106=
201510261653 METAR KCLM 261653Z AUTO 34004KT 5SM BR OVC006 12/11 A2994 RMK AO2 CIG 004V008 SLP138 T01170106=
201510261553 METAR KCLM 261553Z AUTO 25003KT 7SM OVC007 12/11 A2991 RMK AO2 CIG 007V011 SLP129 T01170106=
201510261453 METAR KCLM 261453Z AUTO 26004KT 9SM OVC007 12/11 A2989 RMK AO2 CIG 006V010 SLP122 T01170106 51022=
201510261353 METAR KCLM 261353Z AUTO 26004KT 8SM OVC007 12/11 A2987 RMK AO2 SLP115 T01170106=
201510261253 METAR KCLM 261253Z AUTO 00000KT 10SM OVC007 12/11 A2985 RMK AO2 SLP107 T01170106=
201510261153 METAR KCLM 261153Z AUTO 32003KT 10SM OVC006 12/11 A2982 RMK AO2 SLP100 60002 70006 T01170106 10122 20111 53025=
201510261102 SPECI KCLM 261102Z AUTO 00000KT 8SM OVC005 12/11 A2980 RMK AO2 T01170106=
201510261053 METAR KCLM 261053Z AUTO 00000KT 7SM OVC004 12/11 A2980 RMK AO2 SLP090 T01170106=
201510261001 SPECI KCLM 261001Z AUTO 00000KT 7SM OVC004 12/11 A2977 RMK AO2 T01170106=
201510260953 METAR KCLM 260953Z AUTO 00000KT 7SM OVC005 12/11 A2977 RMK AO2 SLP080 T01170106=
201510260853 METAR KCLM 260853Z AUTO 00000KT 6SM BR OVC005 12/11 A2975 RMK AO2 CIG 004V008 SLP073 60002 T01170106 51039=
201510260753 METAR KCLM 260753Z AUTO 27006KT 3SM BR OVC002 11/11 A2971 RMK AO2 SLP061 T01110106 401390050=
201510260653 METAR KCLM 260653Z AUTO 29008KT 6SM BR BKN004 OVC075 11/10 A2967 RMK AO2 RAE39 SLP048 P0002 T01110100=
201510260641 SPECI KCLM 260641Z AUTO 29008KT 8SM BKN004 OVC070 11/10 A2966 RMK AO2 RAE39 P0002 T01110100=
201510260636 SPECI KCLM 260636Z AUTO 28011KT 7SM -RA SCT005 BKN060 OVC070 11/10 A2966 RMK AO2 P0002 T01110100=
201510260553 METAR KCLM 260553Z AUTO 28013KT 5SM -RA BR OVC060 12/10 A2963 RMK AO2 RAB08 SLP035 P0002 60004 T01170100 10128 20100 53012=
201510260453 METAR KCLM 260453Z AUTO 30004KT 8SM OVC070 11/09 A2960 RMK AO2 RAB10E20 SLP024 P0000 T01110094=
201510260353 METAR KCLM 260353Z AUTO 25003KT 8SM SCT075 BKN090 11/09 A2960 RMK AO2 RAE10 SLP023 P0002 T01060094=
201510260253 METAR KCLM 260253Z AUTO 00000KT 5SM -RA BR BKN065 OVC080 11/09 A2960 RMK AO2 RAB06 SLP023 P0000 60000 T01110094 55008=
201510260153 METAR KCLM 260153Z AUTO 26003KT 8SM OVC085 11/09 A2958 RMK AO2 SLP017 T01110089=
201510260053 METAR KCLM 260053Z AUTO 30003KT 8SM OVC080 12/09 A2959 RMK AO2 RAE00 SLP021 P0000 T01170089=
201510252353 METAR KCLM 252353Z AUTO 12003KT 9SM -RA SCT070 OVC090 13/08 A2962 RMK AO2 RAB39 SLP031 P0000 60000 T01280083 10139 20106 56015=
201510252253 METAR KCLM 252253Z AUTO 10007KT 10SM SCT110 14/07 A2962 RMK AO2 SLP031 T01390072=
201510252153 METAR KCLM 252153Z AUTO 09003KT 9SM BKN120 14/07 A2964 RMK AO2 SLP039 T01390072=
201510252053 METAR KCLM 252053Z AUTO 12004KT 9SM FEW110 13/08 A2966 RMK AO2 SLP045 T01330078 58015=
201510251953 METAR KCLM 251953Z AUTO 12004KT 9SM SCT120 13/08 A2968 RMK AO2 SLP051 T01280083=
201510251853 METAR KCLM 251853Z AUTO 00000KT 8SM OVC110 12/08 A2970 RMK AO2 SLP057 T01170083=
201510251753 METAR KCLM 251753Z AUTO 30004KT 9SM BKN110 11/09 A2971 RMK AO2 SLP060 T01060089 10106 20050 58012=
201510251653 METAR KCLM 251653Z AUTO 28003KT 8SM CLR 09/08 A2972 RMK AO2 SLP064 T00940078=
201510251553 METAR KCLM 251553Z AUTO 24005KT 7SM FEW050 BKN080 08/07 A2973 RMK AO2 SLP068 T00780067=
201510251453 METAR KCLM 251453Z AUTO 23006KT 7SM FEW075 07/06 A2974 RMK AO2 SLP073 T00670061 56014=
201510251353 METAR KCLM 251353Z AUTO 22006KT 6SM BR CLR 07/06 A2976 RMK AO2 SLP078 T00670056=
201510251306 SPECI KCLM 251306Z AUTO 20005KT 5SM BR CLR 06/06 A2977 RMK AO2 T00610056=
201510251253 METAR KCLM 251253Z AUTO 00000KT 2SM BR FEW002 05/04 A2977 RMK AO2 VIS 1 1/4V5 SLP081 T00500044=
201510251250 SPECI KCLM 251250Z AUTO 09003KT 2SM BR FEW002 06/05 A2976 RMK AO2 VIS 1 1/4V5=
201510251244 SPECI KCLM 251244Z AUTO 20006KT 1SM BR CLR 06/04 A2977 RMK AO2 VIS 1/2V4 T00560044=
201510251236 SPECI KCLM 251236Z AUTO 19003KT 3/4SM BR VV002 05/05 A2977 RMK AO2 VIS 1/4V3 T00500050=
201510251231 SPECI KCLM 251231Z AUTO 16003KT 1 3/4SM BR CLR 06/05 A2977 RMK AO2 VIS 1 1/4V4 T00610050=
201510251214 SPECI KCLM 251214Z AUTO 23004KT 3SM BR CLR 07/06 A2978 RMK AO2 T00670056=
201510251200 METAR KCLM NIL=
201510251157 SPECI KCLM 251157Z AUTO 00000KT 1 3/4SM BR FEW002 06/05 A2979 RMK AO2 VIS 3/4V5 T00560050=
201510251153 METAR KCLM 251153Z AUTO VRB03KT 2 1/2SM BR CLR 06/06 A2978 RMK AO2 SLP086 60002 70006 T00610056 10094 20061 58013=
201510251148 SPECI KCLM 251148Z AUTO 23004KT 3SM BR FEW003 07/06 A2979 RMK AO2=
201510251141 SPECI KCLM 251141Z AUTO 22006KT 1 1/4SM BR FEW003 07/06 A2979 RMK AO2 VIS 1/2V4 T00670056=
201510251135 SPECI KCLM 251135Z AUTO 00000KT 1/2SM FG VV003 07/06 A2978 RMK AO2 VIS 1/4V1 1/2 T00670056=
201510251126 SPECI KCLM 251126Z AUTO 19004KT 1/2SM FG VV005 07/06 A2979 RMK AO2 T00670056=
201510251119 SPECI KCLM 251119Z AUTO 21003KT 1SM BR VV005 06/06 A2979 RMK AO2 T00610056=
201510251115 SPECI KCLM 251115Z AUTO 20004KT 2SM BR FEW005 07/06 A2979 RMK AO2 T00670061=
201510251103 SPECI KCLM 251103Z AUTO 00000KT 3/4SM BR VV005 07/06 A2980 RMK AO2 T00670061=
201510251053 METAR KCLM 251053Z AUTO 00000KT 1 1/2SM BR FEW006 07/06 A2980 RMK AO2 VIS 1V3 SLP092 T00670061=
201510251039 SPECI KCLM 251039Z AUTO 00000KT 2SM BR CLR 07/06 A2980 RMK AO2 T00670061=
201510250953 METAR KCLM 250953Z AUTO VRB04KT 5SM BR FEW006 FEW080 08/07 A2981 RMK AO2 SLP096 T00830072=
201510250917 SPECI KCLM 250917Z AUTO 00000KT 5SM BR FEW006 BKN080 OVC090 08/07 A2983 RMK AO2 T00780067=
201510250853 METAR KCLM 250853Z AUTO 00000KT 5SM BR FEW095 08/07 A2982 RMK AO2 SLP098 60002 T00780072 58014=
201510250841 SPECI KCLM 250841Z AUTO 00000KT 3SM BR CLR 07/06 A2983 RMK AO2 T00720061=
201510250831 SPECI KCLM 250831Z AUTO 18006KT 1 3/4SM BR CLR 07/06 A2983 RMK AO2 T00670061=
201510250753 METAR KCLM 250753Z AUTO 16004KT 6SM BR FEW065 SCT080 08/07 A2984 RMK AO2 RAB19E30 SLP104 P0002 T00830072 401060072=
201510250653 METAR KCLM 250653Z AUTO 22003KT 7SM BKN100 09/08 A2986 RMK AO2 RAE31 SLP113 P0000 T00940078=
201510250600 METAR KCLM NIL=
201510250553 METAR KCLM 250553Z AUTO 12003KT 7SM -RA OVC090 09/08 A2986 RMK AO2 RAB19 SLP112 P0000 60000 T00940078 10106 20072 58012=
201510250453 METAR KCLM 250453Z AUTO 17003KT 5SM BR SCT100 BKN120 08/08 A2987 RMK AO2 SLP116 T00830078=
201510250353 METAR KCLM 250353Z AUTO 18003KT 5SM BR SCT100 09/07 A2989 RMK AO2 SLP123 T00890072=
201510250253 METAR KCLM 250253Z AUTO 13004KT 5SM BR BKN120 08/07 A2990 RMK AO2 SLP124 T00780072 58003=
201510250153 METAR KCLM 250153Z AUTO 14004KT 7SM FEW008 08/06 A2991 RMK AO2 SLP129 T00780061=
201510250151 SPECI KCLM 250151Z AUTO 13004KT 7SM SCT008 08/06 A2991 RMK AO2=
201510250053 METAR KCLM 250053Z AUTO 11003KT 7SM BKN008 09/07 A2991 RMK AO2 SLP127 T00940072=
201510250038 SPECI KCLM 250038Z AUTO 08006KT 7SM BKN008 10/07 A2991 RMK AO2 T01000072=
201510250026 SPECI KCLM 250026Z AUTO 08008KT 6SM HZ FEW008 10/07 A2991 RMK AO2 T01000072=
201510242353 METAR KCLM 242353Z AUTO 09006KT 6SM HZ CLR 11/08 A2992 RMK AO2 SLP133 60004 T01060078 10106 20100 56014=
201510242326 SPECI KCLM 242326Z AUTO 09007KT 5SM BR SCT008 11/08 A2993 RMK AO2 T01060083=
201510242253 METAR KCLM 242253Z AUTO 08007KT 5SM BR OVC007 11/08 A2994 RMK AO2 CIG 005V010 SLP138 T01060083=
201510242153 METAR KCLM 242153Z AUTO 09008KT 4SM BR OVC007 10/09 A2995 RMK AO2 CIG 004V010 SLP142 T01000089=
201510242053 METAR KCLM 242053Z AUTO 09005KT 3SM BR OVC007 10/09 A2996 RMK AO2 RAE39 CIG 004V011 SLP148 P0000 60004 T01000089 58011=
201510242032 SPECI KCLM 242032Z AUTO 10005KT 3SM -RA BR BKN005 OVC009 10/09 A2998 RMK AO2 CIG 004V008 P0000 T01000089=
201510242011 SPECI KCLM 242011Z AUTO 09005KT 2 1/2SM -RA BR BKN005 BKN060 OVC080 10/09 A2998 RMK AO2 CIG 003V012 P0000 T01000089=
201510242002 SPECI KCLM 242002Z AUTO 10007KT 3SM -RA BR BKN005 BKN024 OVC080 10/09 A2999 RMK AO2 P0000 T01000089=
201510241953 METAR KCLM 241953Z AUTO 10004KT 2 1/2SM -RA BR BKN005 BKN065 OVC080 10/09 A2999 RMK AO2 RAB02 SLP158 P0004 T01000089=
201510241930 SPECI KCLM 241930Z AUTO 09005KT 2SM RA BR SCT007 BKN060 OVC075 10/08 A3000 RMK AO2 RAB02 P0002 T01000083=
201510241920 SPECI KCLM 241920Z AUTO 09007KT 2SM -RA BR BKN007 BKN019 OVC070 10/08 A3000 RMK AO2 RAB02 P0000 T01000083=
201510241853 METAR KCLM 241853Z AUTO 08006KT 4SM BR BKN005 BKN017 OVC075 10/08 A2999 RMK AO2 SLP158 T01000083=
201510241836 SPECI KCLM 241836Z AUTO 09006KT 4SM BR FEW005 BKN018 OVC080 10/08 A2999 RMK AO2 T01000083=
201510241753 METAR KCLM 241753Z AUTO VRB04KT 6SM HZ OVC019 10/07 A3000 RMK AO2 SLP160 T01000072 10106 20094 52002=
201510241723 SPECI KCLM 241723Z AUTO 08004KT 5SM HZ BKN021 11/08 A2999 RMK AO2 T01060078=
201510241700 METAR KCLM NIL=
201510241700 SPECI KCLM 241700Z AUTO 09005KT 5SM HZ SCT019 11/08 A2999 RMK AO2 T01060078=
201510241653 METAR KCLM 241653Z AUTO 09005KT 5SM HZ BKN019 11/08 A2999 RMK AO2 SLP159 T01060078=
201510241600 METAR KCLM NIL=
201510241553 METAR KCLM 241553Z AUTO 11003KT 5SM BR SCT011 OVC019 10/08 A2999 RMK AO2 SLP159 T01000078=
201510241503 SPECI KCLM 241503Z AUTO 00000KT 6SM BR BKN011 OVC016 10/08 A2999 RMK AO2 T01000078=
201510241453 METAR KCLM 241453Z AUTO 00000KT 6SM BR OVC015 10/08 A2999 RMK AO2 SLP157 T01000078 55001=
201510241451 SPECI KCLM 241451Z AUTO 00000KT 6SM BR OVC015 10/08 A2999 RMK AO2=
201510241353 METAR KCLM 241353Z AUTO 10004KT 6SM BR OVC012 10/08 A2999 RMK AO2 SLP157 T01000083=
201510241332 SPECI KCLM 241332Z AUTO 12004KT 6SM BR SCT009 OVC012 10/08 A2999 RMK AO2 T01000078=
201510241253 METAR KCLM 241253Z AUTO 00000KT 6SM BR BKN009 OVC014 10/08 A2999 RMK AO2 SLP158 T01000083=
201510241219 SPECI KCLM 241219Z AUTO 13004KT 7SM BKN009 OVC014 09/08 A3000 RMK AO2 T00940078=
201510241153 METAR KCLM 241153Z AUTO 10004KT 7SM BKN010 OVC015 10/08 A3000 RMK AO2 SLP159 T01000078 10100 20039 56012=
201510241151 SPECI KCLM 241151Z AUTO 09004KT 7SM BKN010 OVC015 10/08 A3000 RMK AO2=
201510241133 SPECI KCLM 241133Z AUTO 11004KT 7SM BKN009 OVC015 10/08 A3000 RMK AO2 T01000078=
201510241053 METAR KCLM 241053Z AUTO 10004KT 7SM OVC012 10/08 A3002 RMK AO2 SLP165 T01000078=
201510241040 SPECI KCLM 241040Z AUTO 13004KT 7SM OVC014 09/08 A3002 RMK AO2 T00940078=
201510240953 METAR KCLM 240953Z AUTO 00000KT 8SM BKN015 10/08 A3003 RMK AO2 SLP172 T01000078=
201510240946 SPECI KCLM 240946Z AUTO 09005KT 8SM BKN015 10/08 A3003 RMK AO2 T01000078=
201510240853 METAR KCLM 240853Z AUTO 13004KT 8SM CLR 09/07 A3005 RMK AO2 SLP175 T00890067 58008=
201510240753 METAR KCLM 240753Z AUTO 14005KT 8SM CLR 08/06 A3005 RMK AO2 SLP178 T00780056 401330033=
201510240653 METAR KCLM 240653Z AUTO 00000KT 6SM BR CLR 05/04 A3006 RMK AO2 SLP182 T00500039=
201510240553 METAR KCLM 240553Z AUTO 16003KT 5SM BR CLR 05/04 A3007 RMK AO2 SLP184 T00500044 10117 20033 58004=
201510240453 METAR KCLM 240453Z AUTO 00000KT 5SM BR CLR 05/04 A3008 RMK AO2 SLP188 T00500039=
201510240353 METAR KCLM 240353Z AUTO 21003KT 6SM BR CLR 06/04 A3008 RMK AO2 SLP188 T00560044=
201510240253 METAR KCLM 240253Z AUTO 00000KT 5SM BR CLR 06/05 A3008 RMK AO2 SLP189 T00610050 57012=
201510240153 METAR KCLM 240153Z AUTO 16003KT 6SM BR CLR 08/06 A3009 RMK AO2 SLP191 T00780061=
201510240053 METAR KCLM 240053Z AUTO 12003KT 5SM HZ CLR 10/06 A3011 RMK AO2 SLP196 T01000061=
201510232353 METAR KCLM 232353Z AUTO 12006KT 5SM HZ CLR 12/07 A3012 RMK AO2 SLP199 T01170072 10133 20100 56020=
201510232253 METAR KCLM 232253Z AUTO 09006KT 6SM HZ CLR 13/07 A3013 RMK AO2 SLP204 T01280067=
201510232153 METAR KCLM 232153Z AUTO 09006KT 5SM HZ CLR 13/07 A3015 RMK AO2 SLP209 T01280072=
201510232053 METAR KCLM 232053Z AUTO 10005KT 5SM HZ CLR 12/08 A3018 RMK AO2 SLP219 T01220078 58012=
201510232017 SPECI KCLM 232017Z AUTO 12007KT 5SM HZ SCT011 12/08 A3018 RMK AO2 T01170078=
201510231953 METAR KCLM 231953Z AUTO VRB03KT 5SM HZ OVC011 11/08 A3020 RMK AO2 SLP227 T01110078=
201510231912 SPECI KCLM 231912Z AUTO 15004KT 5SM HZ OVC011 11/08 A3021 RMK AO2 T01060078=
201510231853 METAR KCLM 231853Z AUTO 11005KT 4SM HZ OVC009 11/08 A3021 RMK AO2 CIG 007V012 SLP230 T01060078=
201510231753 METAR KCLM 231753Z AUTO 08004KT 3SM BR OVC006 10/08 A3021 RMK AO2 SLP231 T01000083 10100 20056 50001=
201510231653 METAR KCLM 231653Z AUTO 00000KT 4SM BR OVC005 09/08 A3021 RMK AO2 SLP232 T00940083=
201510231645 SPECI KCLM 231645Z AUTO 17003KT 4SM BR OVC005 09/08 A3021 RMK AO2 CIG 003V007 T00940083=
201510231634 SPECI KCLM 231634Z AUTO 00000KT 3SM BR OVC002 09/08 A3021 RMK AO2 CIG 002V006 T00890083=
201510231624 SPECI KCLM 231624Z AUTO 00000KT 2SM BR OVC002 09/08 A3021 RMK AO2 T00890083=
201510231553 METAR KCLM 231553Z AUTO 00000KT 1/2SM FG OVC002 08/08 A3021 RMK AO2 SLP231 T00830078=
201510231545 SPECI KCLM 231545Z AUTO 20003KT 1/2SM FG OVC002 08/08 A3021 RMK AO2 T00830083=
201510231522 SPECI KCLM 231522Z AUTO 16004KT 1/4SM FG OVC002 08/07 A3020 RMK AO2 T00780067=
201510231515 SPECI KCLM 231515Z AUTO 15003KT 1 3/4SM BR OVC002 08/07 A3020 RMK AO2 T00830067=
201510231453 METAR KCLM 231453Z AUTO 00000KT 8SM OVC002 07/06 A3021 RMK AO2 SLP231 T00720056 58007=
201510231353 METAR KCLM 231353Z AUTO 00000KT 9SM BKN004 BKN007 07/05 A3021 RMK AO2 CIG 002V006 SLP233 T00670050=
201510231326 SPECI KCLM 231326Z AUTO 00000KT 10SM SCT007 06/04 A3022 RMK AO2 T00610044=
201510231253 METAR KCLM 231253Z AUTO 00000KT 10SM CLR 06/04 A3022 RMK AO2 SLP235 T00610044=
201510231153 METAR KCLM 231153Z AUTO 00000KT 9SM CLR 06/04 A3023 RMK AO2 SLP237 T00610044 10094 20056 58007=
201510231053 METAR KCLM 231053Z AUTO 23005KT 10SM CLR 08/04 A3024 RMK AO2 SLP240 T00830039=
201510230953 METAR KCLM 230953Z AUTO VRB03KT 10SM CLR 06/04 A3025 RMK AO2 SLP245 T00610039=
201510230853 METAR KCLM 230853Z AUTO 25009KT 10SM CLR 09/04 A3025 RMK AO2 SLP244 T00890044 56008=
201510230753 METAR KCLM 230753Z AUTO 25008KT 10SM CLR 08/04 A3025 RMK AO2 SLP245 T00830044 401390050=
201510230653 METAR KCLM 230653Z AUTO 25009KT 10SM CLR 09/05 A3027 RMK AO2 SLP250 T00940050=
201510230553 METAR KCLM 230553Z AUTO 25009KT 10SM CLR 09/06 A3027 RMK AO2 SLP252 T00940056 10133 20078 58002=
201510230453 METAR KCLM 230453Z AUTO 25007KT 10SM CLR 09/06 A3028 RMK AO2 SLP254 T00940061=
201510230353 METAR KCLM 230353Z AUTO 24007KT 8SM CLR 09/07 A3028 RMK AO2 SLP254 T00890067=
201510230253 METAR KCLM 230253Z AUTO 24006KT 7SM CLR 08/07 A3028 RMK AO2 SLP253 T00780067 53001=
201510230153 METAR KCLM 230153Z AUTO 00000KT 7SM CLR 08/06 A3027 RMK AO2 SLP251 T00830061=
201510230053 METAR KCLM 230053Z AUTO 00000KT 6SM HZ CLR 11/08 A3028 RMK AO2 SLP254 T01110078=
201510222353 METAR KCLM 222353Z AUTO 34003KT 7SM CLR 13/08 A3027 RMK AO2 SLP252 T01330078 10139 20117 56004=
201510222253 METAR KCLM 222253Z AUTO 01003KT 7SM CLR 13/08 A3027 RMK AO2 SLP252 T01330078=
201510222153 METAR KCLM 222153Z AUTO VRB03KT 7SM CLR 13/08 A3028 RMK AO2 SLP254 T01330078=
201510222053 METAR KCLM 222053Z AUTO 00000KT 8SM CLR 14/08 A3029 RMK AO2 SLP256 T01390078 50002=
201510221953 METAR KCLM 221953Z AUTO 02003KT 8SM CLR 12/08 A3029 RMK AO2 SLP259 T01220078=
201510221853 METAR KCLM 221853Z AUTO VRB03KT 9SM CLR 12/06 A3029 RMK AO2 SLP257 T01220061=
201510221753 METAR KCLM 221753Z AUTO 28006KT 6SM HZ CLR 12/03 A3028 RMK AO2 SLP255 60000 T01220033 10122 20050 50007=
201510221653 METAR KCLM 221653Z AUTO 24007KT 10SM CLR 11/03 A3028 RMK AO2 SLP255 T01110033 $=
201510221553 METAR KCLM 221553Z AUTO 25008KT 10SM CLR 09/03 A3028 RMK AO2 RAB1459E13 SLP253 P0000 T00940028 $=
201510221453 METAR KCLM 221453Z AUTO 22006KT 10SM CLR 08/03 A3026 RMK AO2 RAE48 SLP248 P0000 60000 T00830028 53008=
201510221353 METAR KCLM 221353Z AUTO 26009KT 10SM -RA CLR 09/03 A3025 RMK AO2 SLP244 P0000 T00890033=
201510221253 METAR KCLM 221253Z AUTO 26010KT 10SM -RA CLR 08/04 A3023 RMK AO2 SLP239 P0000 T00830039=
201510221153 METAR KCLM 221153Z AUTO 26008KT 10SM -RA CLR 09/04 A3023 RMK AO2 SLP239 P0000 60000 70003 T00940039 10111 20089 51009=
201510221053 METAR KCLM 221053Z AUTO 25012KT 10SM -RA CLR 09/04 A3023 RMK AO2 SLP237 P0000 T00940044=
201510221000 METAR KCLM NIL=
201510220953 METAR KCLM 220953Z AUTO 25008KT 10SM -RA CLR 10/05 A3022 RMK AO2 SLP234 P0000 T01000050=
201510220853 METAR KCLM 220853Z AUTO 27007KT 10SM -RA CLR 09/06 A3021 RMK AO2 SLP230 P0000 60000 T00940056 51010=
201510220753 METAR KCLM 220753Z AUTO 26007KT 10SM -RA CLR 11/06 A3020 RMK AO2 SLP229 P0000 T01060061 401280050=
201510220653 METAR KCLM 220653Z AUTO 27010KT 10SM -RA CLR 11/06 A3019 RMK AO2 SLP225 P0000 T01060061=
201510220553 METAR KCLM 220553Z AUTO 26007KT 10SM -RA CLR 11/07 A3018 RMK AO2 SLP220 P0000 60000 T01110067 10122 20072 51004=
201510220453 METAR KCLM 220453Z AUTO 25008KT 10SM -RA CLR 10/08 A3017 RMK AO2 SLP218 P0000 T01000078=
201510220353 METAR KCLM 220353Z AUTO 27008KT 10SM -RA CLR 09/08 A3018 RMK AO2 RAB02 SLP221 P0000 T00940083=
201510220306 SPECI KCLM 220306Z AUTO 26005KT 4SM -RA BR FEW002 08/07 A3017 RMK AO2 RAB02 P0000 T00830072=
201510220304 SPECI KCLM 220304Z AUTO 26005KT 1 1/2SM -RA BR FEW002 08/07 A3017 RMK AO2 RAB02 P0000 T00830067=
201510220253 METAR KCLM 220253Z AUTO 00000KT 1/4SM FG VV002 07/07 A3017 RMK AO2 RAB23E32 SLP217 P0000 60000 T00720072 53006=
201510220250 SPECI KCLM 220250Z AUTO 00000KT 1/4SM FG VV001 08/08 A3017 RMK AO2 RAB23E32 P0000=
201510220248 SPECI KCLM 220248Z AUTO 00000KT 1SM BR CLR 09/08 A3017 RMK AO2 VIS M1/4V5 RAB23E32 P0000=
201510220245 SPECI KCLM 220245Z AUTO 00000KT 3SM BR CLR 09/08 A3016 RMK AO2 RAB23E32 P0000 T00940083=
201510220241 SPECI KCLM 220241Z AUTO 00000KT 1SM BR VV002 09/08 A3016 RMK AO2 VIS 1/2V5 RAB23E32 P0000 T00890078=
201510220232 SPECI KCLM 220232Z AUTO 00000KT 1 1/4SM BR FEW002 09/08 A3016 RMK AO2 VIS 1/2V2 RAB23E32 P0000 T00890078=
201510220230 SPECI KCLM 220230Z AUTO 00000KT 1/2SM -RA FG VV001 09/08 A3016 RMK AO2 VIS M1/4V2 RAB23 P0000 T00890078=
201510220226 SPECI KCLM 220226Z AUTO 00000KT 1/4SM -RA FG VV002 08/08 A3016 RMK AO2 RAB23 P0000 T00830078=
201510220215 SPECI KCLM 220215Z AUTO 00000KT 1/2SM FG VV002 08/08 A3016 RMK AO2 T00830078=
201510220204 SPECI KCLM 220204Z AUTO 00000KT 1/4SM FG VV001 08/08 A3016 RMK AO2 T00830078=
201510220201 SPECI KCLM 220201Z AUTO 00000KT 3/4SM BR VV002 08/08 A3016 RMK AO2 T00830078=
201510220157 SPECI KCLM 220157Z AUTO 24003KT 2 1/2SM BR CLR 09/08 A3016 RMK AO2 T00940083=
201510220153 METAR KCLM 220153Z AUTO 23003KT 3/4SM BR CLR 09/08 A3016 RMK AO2 RAB0056E31 SLP213 P0000 T00940083=
201510220151 SPECI KCLM 220151Z AUTO 22003KT 1/2SM FG CLR 09/08 A3016 RMK AO2 VIS M1/4V4 RAB0056E31 P0000=
201510220131 SPECI KCLM 220131Z AUTO 00000KT 1 1/4SM BR CLR 09/09 A3015 RMK AO2 VIS 1/4V5 RAB0056E31 P0000 T00940089=
201510220101 SPECI KCLM 220101Z AUTO 00000KT 10SM -RA SCT012 11/09 A3015 RMK AO2 RAB0056 P0000 T01060094=
201510220053 METAR KCLM 220053Z AUTO 29003KT 10SM BKN012 11/10 A3015 RMK AO2 SLP210 T01110100=
201510220025 SPECI KCLM 220025Z AUTO 00000KT 10SM BKN013 BKN060 12/10 A3014 RMK AO2 T01170100=
201510220003 SPECI KCLM 220003Z AUTO 00000KT 10SM SCT015 BKN046 BKN060 12/10 A3014 RMK AO2 T01220100=
201510212353 METAR KCLM 212353Z AUTO 00000KT 10SM BKN015 BKN046 OVC060 12/10 A3014 RMK AO2 SLP207 60003 T01220100 10128 20100 58001=
201510212328 SPECI KCLM 212328Z AUTO 00000KT 10SM FEW012 BKN030 OVC047 13/10 A3014 RMK AO2 T01280100=
201510212309 SPECI KCLM 212309Z AUTO 34003KT 10SM FEW009 BKN018 OVC045 12/10 A3015 RMK AO2 T01220100=
201510212253 METAR KCLM 212253Z AUTO 00000KT 10SM OVC045 12/10 A3015 RMK AO2 RAB2158E33 SLP210 P0000 T01220100=
201510212237 SPECI KCLM 212237Z AUTO 00000KT 6SM BR SCT027 OVC043 12/11 A3015 RMK AO2 RAB2158E33 P0000 T01220106=
201510212153 METAR KCLM 212153Z AUTO 00000KT 4SM BR OVC016 12/11 A3016 RMK AO2 RAB2058E15 SLP212 P0000 T01170106=
201510212140 SPECI KCLM 212140Z AUTO 00000KT 3SM BR OVC015 11/11 A3015 RMK AO2 RAB2058E15 P0000 T01110106=
201510212129 SPECI KCLM 212129Z AUTO 00000KT 3SM BR BKN014 OVC047 11/10 A3015 RMK AO2 RAB2058E15 P0000 T01110100=
201510212117 SPECI KCLM 212117Z AUTO 00000KT 3SM BR FEW013 OVC050 11/10 A3015 RMK AO2 RAB2058E15 P0000 T01110100=
201510212110 SPECI KCLM 212110Z AUTO 00000KT 2 1/2SM -RA BR BKN050 OVC055 12/10 A3015 RMK AO2 RAB2058 P0000 T01170100=
201510212053 METAR KCLM 212053Z AUTO 00000KT 5SM BR FEW002 OVC055 11/10 A3014 RMK AO2 SLP208 60003 T01110100 51007=
201510212035 SPECI KCLM 212035Z AUTO 00000KT 3SM BR SCT002 OVC055 11/10 A3014 RMK AO2 T01060100=
201510212018 SPECI KCLM 212018Z AUTO 00000KT 2 1/2SM BR FEW002 OVC055 11/10 A3015 RMK AO2 T01110100=
201510212003 SPECI KCLM 212003Z AUTO 00000KT 3SM BR FEW004 OVC055 11/10 A3015 RMK AO2 T01060100=
201510211953 METAR KCLM 211953Z AUTO 00000KT 2 1/2SM BR FEW004 OVC055 11/09 A3014 RMK AO2 RAE1855 SLP208 P0000 T01060094=
201510211948 SPECI KCLM 211948Z AUTO 00000KT 2 1/2SM BR SCT004 OVC055 11/09 A3014 RMK AO2 RAE1855 P0000=
201510211930 SPECI KCLM 211930Z AUTO 00000KT 7SM BKN004 BKN060 OVC075 12/09 A3014 RMK AO2 RAE1855 P0000 T01170094 $=
201510211910 SPECI KCLM 211910Z AUTO 04003KT 8SM FEW004 OVC080 11/09 A3014 RMK AO2 RAE1855 P0000 T01110094 $=
201510211853 METAR KCLM 211853Z AUTO 00000KT 9SM -RA SCT070 OVC085 11/09 A3014 RMK AO2 RAB27 SLP206 P0003 T01110094 $=
201510211846 SPECI KCLM 211846Z AUTO 00000KT 3SM -RA BR FEW003 BKN070 OVC090 11/09 A3013 RMK AO2 RAB27 P0003 T01060094 $=
201510211836 SPECI KCLM 211836Z AUTO 00000KT 1 3/4SM -RA BR FEW003 BKN065 OVC090 11/09 A3014 RMK AO2 RAB27 P0001 T01060089 $=
201510211813 SPECI KCLM 211813Z AUTO 33004KT 10SM FEW003 OVC070 10/09 A3014 RMK AO2 T01000089 $=
201510211753 METAR KCLM 211753Z AUTO VRB03KT 10SM OVC080 12/09 A3012 RMK AO2 SLP201 T01170089 10122 20067 51004 $=
201510211653 METAR KCLM 211653Z AUTO 11003KT 10SM CLR 09/08 A3012 RMK AO2 SLP201 T00940078 $=
201510211553 METAR KCLM 211553Z AUTO 00000KT 10SM CLR 08/07 A3012 RMK AO2 SLP200 T00780072 $=
201510211453 METAR KCLM 211453Z AUTO 15003KT 7SM CLR 08/06 A3011 RMK AO2 SLP197 T00780061 56013 $=
201510211353 METAR KCLM 211353Z AUTO 23004KT 10SM CLR 08/07 A3011 RMK AO2 SLP199 T00780067 $=
201510211253 METAR KCLM 211253Z AUTO 00000KT 10SM CLR 08/07 A3012 RMK AO2 SLP200 T00780067 $=
201510211153 METAR KCLM 211153Z AUTO 00000KT 10SM OVC110 07/06 A3015 RMK AO2 SLP209 T00670056 10078 20050 58005 $=
201510211053 METAR KCLM 211053Z AUTO 20003KT 10SM CLR 06/05 A3017 RMK AO2 SLP216 T00610050 $=
201510211000 METAR KCLM NIL=
201510210953 METAR KCLM 210953Z AUTO 26007KT 10SM FEW004 07/06 A3019 RMK AO2 SLP224 T00720056 $=
201510210853 METAR KCLM 210853Z AUTO 23003KT 10SM CLR 06/05 A3016 RMK AO2 SLP214 T00560050 56010 $=
201510210753 METAR KCLM 210753Z AUTO 00000KT 10SM CLR 06/05 A3016 RMK AO2 SLP215 T00610050 401500056 $=
201510210653 METAR KCLM 210653Z AUTO 00000KT 10SM CLR 06/05 A3018 RMK AO2 SLP220 T00610050 $=
201510210553 METAR KCLM 210553Z AUTO 00000KT 10SM CLR 07/06 A3019 RMK AO2 SLP225 60000 T00720061 10133 20061 58012 $=
201510210453 METAR KCLM 210453Z AUTO 00000KT 10SM CLR 08/06 A3021 RMK AO2 SLP231 T00780061 $=
201510210353 METAR KCLM 210353Z AUTO 00000KT 10SM CLR 08/07 A3022 RMK AO2 SLP235 T00830067 $=
201510210253 METAR KCLM 210253Z AUTO 23004KT 10SM CLR 08/07 A3023 RMK AO2 SLP237 60000 T00830072 56008 $=
201510210153 METAR KCLM 210153Z AUTO 00000KT 10SM CLR 11/08 A3023 RMK AO2 RAB01E20 SLP238 P0000 T01060083 $=
201510210053 METAR KCLM 210053Z AUTO 12004KT 10SM CLR 12/08 A3024 RMK AO2 SLP240 T01220083 $=
201510202353 METAR KCLM 202353Z AUTO 10005KT 10SM CLR 13/08 A3025 RMK AO2 SLP246 T01330083 10150 20128 56010 $=
201510202253 METAR KCLM 202253Z AUTO 09003KT 10SM CLR 14/09 A3026 RMK AO2 SLP247 T01440089 $=
201510202153 METAR KCLM 202153Z AUTO 08005KT 10SM CLR 14/09 A3027 RMK AO2 SLP252 T01390089 $=
201510202053 METAR KCLM 202053Z AUTO 02004KT 10SM CLR 14/09 A3028 RMK AO2 SLP255 T01440089 58003 $=
201510201953 METAR KCLM 201953Z AUTO 08006KT 10SM FEW016 14/09 A3029 RMK AO2 SLP257 T01390089 $=
201510201943 SPECI KCLM 201943Z AUTO 08005KT 10SM SCT015 14/09 A3029 RMK AO2 T01390089 $=
201510201931 SPECI KCLM 201931Z AUTO VRB05KT 10SM BKN015 13/09 A3029 RMK AO2 T01330089 $=
201510201853 METAR KCLM 201853Z AUTO VRB05KT 10SM BKN014 13/09 A3029 RMK AO2 SLP258 T01330089 $=
201510201812 SPECI KCLM 201812Z AUTO 09007KT 10SM BKN011 13/10 A3029 RMK AO2 T01280100 $=
201510201753 METAR KCLM 201753Z AUTO 12006KT 10SM FEW009 13/10 A3029 RMK AO2 SLP258 T01280100 10128 20089 50011 $=
201510201740 SPECI KCLM 201740Z AUTO 12005KT 9SM FEW003 13/11 A3029 RMK AO2 T01280106 $=
201510201721 SPECI KCLM 201721Z AUTO 00000KT 5SM BR BKN002 12/11 A3029 RMK AO2 CIG 001V005 T01170106 $=
201510201714 SPECI KCLM 201714Z AUTO 11003KT 2 1/2SM BR BKN002 11/11 A3029 RMK AO2 CIG 001V006 T01110106 $=
201510201708 SPECI KCLM 201708Z AUTO 13004KT 3/4SM BR BKN002 12/11 A3029 RMK AO2 T01170106 $=
201510201700 SPECI KCLM 201700Z AUTO 16003KT 1SM BR BKN002 11/10 A3029 RMK AO2 T01110100 $=
201510201653 METAR KCLM 201653Z AUTO 14003KT 2SM BR BKN002 11/10 A3029 RMK AO2 SLP259 T01110100 $=
201510201636 SPECI KCLM 201636Z AUTO 00000KT 3SM BR OVC002 11/10 A3029 RMK AO2 T01060100 $=
201510201633 SPECI KCLM 201633Z AUTO 00000KT 1 1/2SM BR OVC002 11/10 A3029 RMK AO2 T01060100 $=
201510201609 SPECI KCLM 201609Z AUTO 00000KT 1/4SM FG BKN003 BKN021 BKN028 11/10 A3028 RMK AO2 VIS M1/4V5 T01060100 $=
201510201607 SPECI KCLM 201607Z AUTO 00000KT 3/4SM BR SCT003 BKN020 BKN028 11/09 A3028 RMK AO2 VIS M1/4V5 T01060094 $=
201510201602 SPECI KCLM 201602Z AUTO 00000KT 5SM BR FEW003 SCT020 BKN028 11/09 A3028 RMK AO2 T01110094 $=
201510201553 METAR KCLM 201553Z AUTO 08003KT 5SM BR SCT020 BKN028 11/09 A3028 RMK AO2 SLP254 T01110094 $=
201510201459 SPECI KCLM 201459Z AUTO 30003KT 3SM BR FEW012 OVC017 11/10 A3026 RMK AO2 T01060100 $=
201510201457 SPECI KCLM 201457Z AUTO 00000KT 1 1/4SM BR OVC017 11/10 A3026 RMK AO2 T01060100 $=
201510201453 METAR KCLM 201453Z AUTO 00000KT 1/4SM FG FEW001 FEW005 OVC017 11/10 A3026 RMK AO2 SLP248 T01060100 51015 $=
201510201443 SPECI KCLM 201443Z AUTO 00000KT 1/4SM FG FEW001 SCT005 OVC015 11/10 A3026 RMK AO2 T01110100 $=
201510201430 SPECI KCLM 201430Z AUTO 00000KT 1/4SM FG BKN003 OVC015 11/10 A3025 RMK AO2 T01060100=
201510201419 SPECI KCLM 201419Z AUTO 00000KT 1/4SM FG SCT002 BKN005 OVC008 11/10 A3025 RMK AO2 T01110100=
201510201410 SPECI KCLM 201410Z AUTO 00000KT 3/4SM BR BKN002 OVC008 11/10 A3025 RMK AO2 T01110100=
201510201407 SPECI KCLM 201407Z AUTO 00000KT 2 1/2SM BR BKN002 OVC008 11/10 A3025 RMK AO2 VIS 1V5 T01060100=
201510201353 METAR KCLM 201353Z AUTO 00000KT 10SM OVC008 11/10 A3025 RMK AO2 SLP244 T01060100=
201510201253 METAR KCLM 201253Z AUTO 00000KT 9SM OVC008 11/10 A3023 RMK AO2 SLP239 T01060100=
201510201204 SPECI KCLM 201204Z AUTO 00000KT 10SM BKN008 OVC023 09/09 A3022 RMK AO2 CIG 006V011 T00940089=
201510201157 SPECI KCLM 201157Z AUTO VRB03KT 2 1/2SM BR BKN008 OVC023 09/08 A3022 RMK AO2 CIG 006V011 T00890083=
201510201155 SPECI KCLM 201155Z AUTO 00000KT 1SM BR SCT008 OVC023 09/09 A3021 RMK AO2 T00890089=
201510201153 METAR KCLM 201153Z AUTO 00000KT 3/4SM BR SCT010 OVC023 09/09 A3021 RMK AO2 SLP232 T00940089 10128 20083 51006=
201510201137 SPECI KCLM 201137Z AUTO 00000KT 1/2SM FG BKN024 09/08 A3021 RMK AO2 T00890078=
201510201131 SPECI KCLM 201131Z AUTO 00000KT 1SM BR FEW024 09/08 A3021 RMK AO2 T00890083=
201510201122 SPECI KCLM 201122Z AUTO 00000KT 1/2SM FG VV009 08/08 A3021 RMK AO2 T00830078=
201510201114 SPECI KCLM 201114Z AUTO 22003KT 1SM BR VV008 08/08 A3021 RMK AO2 VIS 1/2V3 T00830083=
201510201105 SPECI KCLM 201105Z AUTO 00000KT 2 1/2SM BR SCT008 09/08 A3021 RMK AO2 T00940083=
201510201056 SPECI KCLM 201056Z AUTO 00000KT 3SM BR FEW002 BKN007 09/09 A3021 RMK AO2 T00940089=
201510201053 METAR KCLM 201053Z AUTO 00000KT 1 1/4SM BR FEW002 BKN007 09/09 A3021 RMK AO2 VIS 1/4V5 SLP230 T00940089=
201510201040 SPECI KCLM 201040Z AUTO 00000KT 1/2SM FG SCT001 BKN030 09/08 A3021 RMK AO2 T00890083=
201510201035 SPECI KCLM 201035Z AUTO 00000KT 1/4SM FG BKN001 BKN030 09/08 A3021 RMK AO2 T00940083=
201510201022 SPECI KCLM 201022Z AUTO 16003KT 1/4SM FG SCT001 SCT008 BKN029 08/08 A3021 RMK AO2 T00830078=
201510201008 SPECI KCLM 201008Z AUTO 00000KT 1/4SM FG VV001 09/09 A3021 RMK AO2 T00940089=
201510200959 SPECI KCLM 200959Z AUTO 00000KT 1/2SM FG VV001 09/09 A3021 RMK AO2 VIS 1/4V5 T00940089=
201510200955 SPECI KCLM 200955Z AUTO 00000KT 1 1/4SM BR CLR 09/09 A3020 RMK AO2 VIS 1/4V5 T00940089=
201510200953 METAR KCLM 200953Z AUTO 00000KT 3SM BR CLR 09/09 A3020 RMK AO2 SLP228 T00940089=
201510200853 METAR KCLM 200853Z AUTO 24004KT 10SM OVC044 13/11 A3020 RMK AO2 SLP225 T01280111 53016=
201510200753 METAR KCLM 200753Z AUTO 26004KT 5SM BR OVC041 12/11 A3017 RMK AO2 SLP218 T01170106 401440111=
201510200653 METAR KCLM 200653Z AUTO 28007KT 4SM BR BKN030 BKN043 12/11 A3016 RMK AO2 SLP214 T01220111=
201510200615 SPECI KCLM 200615Z AUTO 27005KT 3SM BR SCT002 OVC030 12/12 A3015 RMK AO2 T01220117=
201510200607 SPECI KCLM 200607Z AUTO 28003KT 2SM BR BKN002 OVC030 12/12 A3015 RMK AO2 T01220117=
201510200553 METAR KCLM 200553Z AUTO 28004KT 1 1/2SM BR OVC002 12/12 A3015 RMK AO2 SLP209 60000 T01220117 10139 20122 52015=
201510200540 SPECI KCLM 200540Z AUTO 30004KT 2SM BR OVC002 12/12 A3015 RMK AO2 T01220117=
201510200453 METAR KCLM 200453Z AUTO 00000KT 3SM BR OVC003 12/12 A3013 RMK AO2 SLP202 T01220117=
201510200419 SPECI KCLM 200419Z AUTO 31003KT 5SM BR BKN004 OVC014 13/12 A3013 RMK AO2 T01280117=
201510200410 SPECI KCLM 200410Z AUTO 29005KT 5SM BR SCT005 BKN014 OVC020 13/12 A3013 RMK AO2 T01280117=
201510200353 METAR KCLM 200353Z AUTO 00000KT 6SM BR BKN019 OVC028 13/12 A3013 RMK AO2 RAB05E17 SLP202 P0000 T01330122=
201510200323 SPECI KCLM 200323Z AUTO 00000KT 6SM BR BKN026 OVC031 13/12 A3012 RMK AO2 RAB05E17 P0000 T01330122=
201510200253 METAR KCLM 200253Z AUTO 00000KT 8SM OVC034 14/12 A3011 RMK AO2 RAB11E24 SLP194 P0000 60000 T01390122 51026=
201510200153 METAR KCLM 200153Z AUTO 20004KT 10SM SCT016 OVC033 14/12 A3008 RMK AO2 SLP187 T01390122=
201510200142 SPECI KCLM 200142Z AUTO 19003KT 10SM BKN015 OVC034 14/12 A3008 RMK AO2 T01390122=
201510200053 METAR KCLM 200053Z AUTO 13003KT 10SM OVC012 13/12 A3006 RMK AO2 SLP180 T01330122=
201510200041 SPECI KCLM 200041Z AUTO 12005KT 10SM FEW006 OVC012 13/12 A3005 RMK AO2 T01330122=
201510200030 SPECI KCLM 200030Z AUTO 00000KT 10SM OVC009 13/12 A3005 RMK AO2 CIG 006V012 T01330122=
201510200007 SPECI KCLM 200007Z AUTO 09003KT 10SM SCT007 OVC011 14/12 A3004 RMK AO2 T01390122=
201510192353 METAR KCLM 192353Z AUTO 12004KT 9SM OVC007 13/12 A3003 RMK AO2 CIG 005V012 SLP168 T01330122 10144 20122 51012=
201510192316 SPECI KCLM 192316Z AUTO 17003KT 4SM BR OVC006 13/13 A3003 RMK AO2 CIG 003V007 T01330128=
201510192307 SPECI KCLM 192307Z AUTO 17003KT 2 1/2SM BR OVC006 13/12 A3002 RMK AO2 CIG 003V007 T01330122=
201510192253 METAR KCLM 192253Z AUTO 17003KT 1 1/2SM BR OVC003 13/13 A3002 RMK AO2 SLP167 T01330128=
201510192205 SPECI KCLM 192205Z AUTO 11003KT 1SM BR OVC002 13/12 A3003 RMK AO2 T01280122=
201510192200 METAR KCLM NIL=
201510192153 METAR KCLM 192153Z AUTO 00000KT 3/4SM BR OVC002 13/12 A3002 RMK AO2 SLP165 T01330122=
201510192122 SPECI KCLM 192122Z AUTO 12003KT 1/2SM FG OVC002 13/12 A3000 RMK AO2 T01280122=
201510192053 METAR KCLM 192053Z AUTO 08004KT 1/4SM FG VV002 13/12 A2999 RMK AO2 SLP157 T01280117 51018=
201510191953 METAR KCLM 191953Z AUTO 00000KT M1/4SM FG VV002 13/12 A2999 RMK AO2 SLP154 T01280122=
201510191859 SPECI KCLM 191859Z AUTO VRB03KT 1/4SM FG BKN003 OVC008 12/11 A2996 RMK AO2 VIS M1/4V5 T01220111=
201510191855 SPECI KCLM 191855Z AUTO 01004KT 1 1/2SM BR BKN003 OVC008 13/12 A2996 RMK AO2 VIS 1/2V5 CIG 002V006 T01280117=
201510191853 METAR KCLM 191853Z AUTO 00000KT 3SM BR SCT003 OVC008 13/11 A2996 RMK AO2 SLP145 T01330111=
201510191809 SPECI KCLM 191809Z AUTO 03004KT 9SM BKN012 OVC028 14/11 A2994 RMK AO2 T01390111=
201510191753 METAR KCLM 191753Z AUTO 00000KT 8SM FEW012 OVC026 13/11 A2994 RMK AO2 SLP138 60000 T01330111 10133 20117 51006=
201510191653 METAR KCLM 191653Z AUTO 00000KT 10SM BKN023 BKN028 OVC060 13/11 A2993 RMK AO2 RAB42E51 SLP135 P0000 T01280111=
201510191553 METAR KCLM 191553Z AUTO 00000KT 6SM BR OVC024 12/11 A2993 RMK AO2 RAE00 SLP136 P0000 T01220106=
201510191453 METAR KCLM 191453Z AUTO 00000KT 10SM -RA OVC025 12/09 A2992 RMK AO2 RAB47 SLP132 P0000 60000 T01220094 55001=
201510191353 METAR KCLM 191353Z AUTO 24004KT 10SM OVC026 12/09 A2992 RMK AO2 SLP131 T01220094=
201510191253 METAR KCLM 191253Z AUTO 25003KT 10SM OVC027 12/10 A2992 RMK AO2 SLP131 T01220100=
201510191153 METAR KCLM 191153Z AUTO 00000KT 10SM OVC028 13/11 A2992 RMK AO2 SLP133 T01280111 10133 20111 58009=
201510191053 METAR KCLM 191053Z AUTO 00000KT 10SM OVC024 13/11 A2994 RMK AO2 SLP138 T01280111=
201510190953 METAR KCLM 190953Z AUTO 25003KT 10SM OVC022 13/11 A2995 RMK AO2 SLP142 T01280111=
201510190853 METAR KCLM 190853Z AUTO 00000KT 10SM OVC023 12/11 A2995 RMK AO2 SLP143 T01170106 58004=
201510190843 SPECI KCLM 190843Z AUTO 00000KT 10SM BKN024 BKN034 12/11 A2995 RMK AO2 T01170106=
201510190820 SPECI KCLM 190820Z AUTO 00000KT 7SM SCT020 SCT042 12/11 A2996 RMK AO2 T01170106=
201510190753 METAR KCLM 190753Z AUTO 00000KT 10SM OVC020 12/11 A2996 RMK AO2 SLP144 T01220111 401610117=
201510190653 METAR KCLM 190653Z AUTO 21003KT 10SM OVC019 13/12 A2996 RMK AO2 SLP147 T01280117=
201510190628 SPECI KCLM 190628Z AUTO 00000KT 10SM BKN018 BKN043 12/12 A2997 RMK AO2 T01220117=
201510190553 METAR KCLM 190553Z AUTO 12003KT 10SM OVC043 13/12 A2997 RMK AO2 SLP147 T01330117 10161 20133 58005=
201510190453 METAR KCLM 190453Z AUTO 23003KT 10SM SCT030 OVC039 13/12 A2997 RMK AO2 SLP149 T01330117=
201510190353 METAR KCLM 190353Z AUTO 00000KT 10SM OVC034 13/12 A2998 RMK AO2 SLP151 T01330117=
201510190253 METAR KCLM 190253Z AUTO 00000KT 10SM OVC035 13/12 A2998 RMK AO2 SLP152 T01330117 53001=
201510190153 METAR KCLM 190153Z AUTO 35004KT 10SM OVC032 14/12 A2998 RMK AO2 SLP150 T01390117=
201510190053 METAR KCLM 190053Z AUTO 00000KT 10SM OVC032 15/12 A2997 RMK AO2 SLP149 T01500122=
201510182353 METAR KCLM 182353Z AUTO 00000KT 10SM OVC032 16/12 A2998 RMK AO2 SLP151 T01560117 10161 20144 57007=
201510182253 METAR KCLM 182253Z AUTO 05003KT 10SM OVC037 16/12 A2999 RMK AO2 SLP154 T01610117=
201510182153 METAR KCLM 182153Z AUTO 34003KT 10SM OVC036 16/12 A2999 RMK AO2 SLP155 T01560122=
201510182053 METAR KCLM 182053Z AUTO 00000KT 10SM OVC037 15/12 A3000 RMK AO2 SLP158 T01500117 58006=
201510182014 SPECI KCLM 182014Z AUTO VRB03KT 10SM SCT016 OVC038 16/12 A3000 RMK AO2 T01560117=
201510181953 METAR KCLM 181953Z AUTO 35003KT 10SM OVC016 16/12 A3001 RMK AO2 SLP161 T01560122=
201510181928 SPECI KCLM 181928Z AUTO VRB03KT 10SM BKN017 OVC038 16/12 A3001 RMK AO2 T01560122=
201510181853 METAR KCLM 181853Z AUTO 01003KT 10SM BKN039 BKN120 15/12 A3001 RMK AO2 SLP163 T01500122=
201510181806 SPECI KCLM 181806Z AUTO 36003KT 10SM FEW007 BKN038 OVC120 14/12 A3002 RMK AO2 T01440122=
201510181753 METAR KCLM 181753Z AUTO 36003KT 10SM BKN007 BKN038 OVC120 14/12 A3002 RMK AO2 SLP164 T01440122 10144 20117 53008=
201510181741 SPECI KCLM 181741Z AUTO 00000KT 10SM BKN007 BKN036 OVC120 14/13 A3002 RMK AO2 T01440128=
201510181729 SPECI KCLM 181729Z AUTO 00000KT 10SM SCT007 OVC035 14/13 A3001 RMK AO2 T01440128=
201510181653 METAR KCLM 181653Z AUTO 00000KT 6SM BR OVC038 14/13 A3001 RMK AO2 SLP161 T01390128=
201510181553 METAR KCLM 181553Z AUTO 00000KT 3SM BR BKN035 BKN070 12/11 A2999 RMK AO2 SLP155 T01220111=
201510181551 SPECI KCLM 181551Z AUTO 00000KT 3SM BR BKN035 12/11 A2999 RMK AO2=
201510181533 SPECI KCLM 181533Z AUTO 00000KT 2SM BR OVC035 12/11 A2999 RMK AO2 T01170111=
201510181521 SPECI KCLM 181521Z AUTO 00000KT 4SM BR SCT007 OVC035 12/11 A2999 RMK AO2 T01220111=
201510181512 SPECI KCLM 181512Z AUTO 00000KT 4SM BR BKN007 OVC036 12/11 A2998 RMK AO2 T01220111=
201510181453 METAR KCLM 181453Z AUTO 21003KT 2 1/2SM BR OVC006 12/11 A2998 RMK AO2 SLP153 T01170111 52006=
201510181438 SPECI KCLM 181438Z AUTO 00000KT 3SM BR BKN005 OVC100 12/11 A2998 RMK AO2 T01170111=
201510181434 SPECI KCLM 181434Z AUTO 00000KT 2 1/2SM BR SCT005 OVC100 12/11 A2998 RMK AO2 T01170111=
201510181420 SPECI KCLM 181420Z AUTO 00000KT 2SM BR BKN100 12/11 A2998 RMK AO2 T01220111=
201510181353 METAR KCLM 181353Z AUTO 00000KT 5SM BR SCT100 12/12 A2998 RMK AO2 SLP150 T01220117=
201510181253 METAR KCLM 181253Z AUTO 00000KT 6SM BR FEW020 OVC038 13/12 A2997 RMK AO2 SLP149 T01280117=
201510181206 SPECI KCLM 181206Z AUTO 00000KT 7SM OVC030 13/12 A2996 RMK AO2 T01280117=
201510181153 METAR KCLM 181153Z AUTO 00000KT 8SM SCT020 OVC028 13/12 A2996 RMK AO2 SLP146 T01280117 10144 20128 51001=
201510181053 METAR KCLM 181053Z AUTO 20003KT 10SM OVC026 14/13 A2996 RMK AO2 SLP145 T01390128=
201510181003 SPECI KCLM 181003Z AUTO 19003KT 4SM BR OVC016 14/13 A2997 RMK AO2 T01390128=
201510180953 METAR KCLM 180953Z AUTO 20003KT 3SM BR OVC014 14/13 A2997 RMK AO2 SLP148 T01390128=
201510180936 SPECI KCLM 180936Z AUTO 22004KT 3SM BR OVC014 14/13 A2997 RMK AO2 T01390128=
201510180853 METAR KCLM 180853Z AUTO 24003KT 3SM BR OVC017 14/13 A2996 RMK AO2 SLP145 T01390128 53006=
201510180805 SPECI KCLM 180805Z AUTO 25004KT 9SM OVC016 14/12 A2995 RMK AO2 T01390122=
201510180753 METAR KCLM 180753Z AUTO 25004KT 10SM OVC014 14/12 A2995 RMK AO2 SLP142 T01390122 401720106=
201510180706 SPECI KCLM 180706Z AUTO 26003KT 10SM BKN014 OVC024 14/12 A2995 RMK AO2 T01440122=
201510180653 METAR KCLM 180653Z AUTO 26003KT 10SM FEW016 OVC024 14/12 A2994 RMK AO2 SLP139 T01440122=
201510180646 SPECI KCLM 180646Z AUTO 24004KT 9SM SCT014 OVC024 14/12 A2994 RMK AO2 T01440122=
201510180553 METAR KCLM 180553Z AUTO 00000KT 9SM OVC013 14/13 A2994 RMK AO2 SLP139 T01440128 10144 20139 51003=
201510180502 SPECI KCLM 180502Z AUTO 00000KT 8SM OVC010 14/12 A2994 RMK AO2 T01440122=
201510180453 METAR KCLM 180453Z AUTO 00000KT 9SM OVC009 14/12 A2994 RMK AO2 CIG 009V012 SLP139 T01440122=
201510180353 METAR KCLM 180353Z AUTO 27003KT 10SM OVC009 14/12 A2994 RMK AO2 SLP138 T01440122=
201510180253 METAR KCLM 180253Z AUTO 00000KT 10SM OVC007 14/12 A2993 RMK AO2 CIG 005V010 SLP136 T01440122 53013=
201510180234 SPECI KCLM 180234Z AUTO 00000KT 10SM BKN007 BKN011 OVC041 14/12 A2993 RMK AO2 T01390122=
201510180225 SPECI KCLM 180225Z AUTO 00000KT 10SM SCT007 BKN010 OVC041 14/12 A2993 RMK AO2 T01390122=
201510180153 METAR KCLM 180153Z AUTO 00000KT 9SM OVC042 14/12 A2991 RMK AO2 SLP129 T01390122=
201510180053 METAR KCLM 180053Z AUTO 31004KT 6SM BR SCT055 14/12 A2990 RMK AO2 SLP125 T01390122=
201510172353 METAR KCLM 172353Z AUTO 32004KT 9SM CLR 14/12 A2990 RMK AO2 SLP123 T01440122 10172 20144 51004=
201510172253 METAR KCLM 172253Z AUTO 00000KT 10SM CLR 16/12 A2989 RMK AO2 SLP121 T01560122=
201510172153 METAR KCLM 172153Z AUTO 32006KT 10SM CLR 16/11 A2989 RMK AO2 SLP122 T01610111=
201510172053 METAR KCLM 172053Z AUTO 35005KT 10SM CLR 16/11 A2988 RMK AO2 SLP119 T01560111 50000=
201510171953 METAR KCLM 171953Z AUTO 00000KT 10SM CLR 16/11 A2989 RMK AO2 SLP121 T01560106=
201510171853 METAR KCLM 171853Z AUTO 01004KT 10SM BKN080 14/11 A2989 RMK AO2 SLP122 T01440111=
201510171753 METAR KCLM 171753Z AUTO 09003KT 10SM FEW120 16/09 A2988 RMK AO2 SLP119 60000 T01610094 10161 20106 51009=
201510171653 METAR KCLM 171653Z AUTO 31004KT 10SM OVC110 14/11 A2988 RMK AO2 RAB10E30 SLP118 P0000 T01390111=
201510171553 METAR KCLM 171553Z AUTO 00000KT 10SM FEW060 FEW080 OVC100 12/11 A2987 RMK AO2 SLP117 T01220111=
201510171453 METAR KCLM 171453Z AUTO 00000KT 4SM BR CLR 11/10 A2986 RMK AO2 SLP111 T01110100 51005=
201510171353 METAR KCLM 171353Z AUTO 00000KT 8SM SCT085 BKN110 12/11 A2985 RMK AO2 SLP107 T01170106=
201510171253 METAR KCLM 171253Z AUTO 00000KT 10SM CLR 12/11 A2985 RMK AO2 SLP108 T01170106=
201510171153 METAR KCLM 171153Z AUTO 12003KT 10SM CLR 12/10 A2984 RMK AO2 SLP105 T01170100 10133 20117 58005=
201510171053 METAR KCLM 171053Z AUTO 00000KT 10SM CLR 13/11 A2986 RMK AO2 SLP110 T01280106=
201510170953 METAR KCLM 170953Z AUTO 25004KT 10SM CLR 12/11 A2987 RMK AO2 SLP113 T01220106=
201510170853 METAR KCLM 170853Z AUTO VRB03KT 10SM SCT110 13/11 A2986 RMK AO2 SLP111 T01330111 58003=
201510170753 METAR KCLM 170753Z AUTO 30008KT 10SM CLR 13/11 A2988 RMK AO2 SLP117 T01330106 401940056=
201510170653 METAR KCLM 170653Z AUTO 25007KT 10SM CLR 13/10 A2987 RMK AO2 SLP114 T01280100=
201510170553 METAR KCLM 170553Z AUTO 31008KT 10SM CLR 13/09 A2987 RMK AO2 SLP114 T01280094 10189 20111 53002=
201510170453 METAR KCLM 170453Z AUTO 00000KT 10SM CLR 11/09 A2985 RMK AO2 SLP107 T01110089=
201510170353 METAR KCLM 170353Z AUTO 29003KT 10SM CLR 12/08 A2984 RMK AO2 SLP104 T01220083=
201510170253 METAR KCLM 170253Z AUTO 00000KT 10SM CLR 13/07 A2986 RMK AO2 SLP113 T01330072 55001=
201510170153 METAR KCLM 170153Z AUTO 00000KT 10SM CLR 14/08 A2986 RMK AO2 SLP111 T01390083=
201510170053 METAR KCLM 170053Z AUTO 00000KT 10SM CLR 16/10 A2986 RMK AO2 SLP112 T01610100=
201510162353 METAR KCLM 162353Z AUTO 00000KT 10SM CLR 19/07 A2986 RMK AO2 SLP112 T01890072 10194 20150 56021=
201510162253 METAR KCLM 162253Z AUTO VRB03KT 10SM CLR 19/06 A2988 RMK AO2 SLP118 T01890061=
201510162153 METAR KCLM 162153Z AUTO 33003KT 10SM CLR 18/07 A2990 RMK AO2 SLP127 T01780067=
201510162053 METAR KCLM 162053Z AUTO VRB03KT 10SM CLR 18/07 A2993 RMK AO2 SLP134 T01780067 58012=
201510161953 METAR KCLM 161953Z AUTO 00000KT 10SM CLR 17/07 A2994 RMK AO2 SLP140 T01720067=
201510161853 METAR KCLM 161853Z AUTO 10003KT 10SM CLR 15/07 A2995 RMK AO2 SLP143 T01500072=
201510161753 METAR KCLM 161753Z AUTO 08004KT 10SM CLR 16/08 A2996 RMK AO2 SLP146 T01560078 10156 20056 58002=
201510161653 METAR KCLM 161653Z AUTO 00000KT 10SM CLR 14/08 A2997 RMK AO2 SLP149 T01390083=
201510161553 METAR KCLM 161553Z AUTO 00000KT 10SM CLR 09/08 A2997 RMK AO2 SLP150 T00940078=
201510161453 METAR KCLM 161453Z AUTO 00000KT 10SM CLR 06/06 A2997 RMK AO2 SLP149 T00610056 58006=
201510161353 METAR KCLM 161353Z AUTO 00000KT 10SM CLR 07/05 A2998 RMK AO2 SLP152 T00670050 $=
201510161253 METAR KCLM 161253Z AUTO 00000KT 10SM CLR 06/04 A2998 RMK AO2 SLP152 T00610044 $=
201510161153 METAR KCLM 161153Z AUTO 22003KT 10SM CLR 07/06 A2998 RMK AO2 SLP154 T00670056 10083 20061 58000 $=
201510161053 METAR KCLM 161053Z AUTO 00000KT 10SM CLR 07/06 A2999 RMK AO2 SLP155 T00720056 $=
201510160953 METAR KCLM 160953Z AUTO 20003KT 10SM CLR 07/04 A2999 RMK AO2 SLP157 T00670044 $=
201510160853 METAR KCLM 160853Z AUTO 16004KT 10SM CLR 07/05 A2999 RMK AO2 SLP155 T00670050 55002 $=
201510160753 METAR KCLM 160753Z AUTO 16003KT 7SM CLR 07/06 A2998 RMK AO2 SLP154 T00720056 401610061 $=
201510160653 METAR KCLM 160653Z AUTO 00000KT 10SM CLR 08/06 A2999 RMK AO2 SLP155 T00830061 $=
201510160553 METAR KCLM 160553Z AUTO 20004KT 10SM CLR 08/06 A2999 RMK AO2 SLP157 T00780056 10161 20078 56000 $=
201510160453 METAR KCLM 160453Z AUTO 22003KT 10SM CLR 08/06 A2999 RMK AO2 SLP157 T00830061 $=
201510160353 METAR KCLM 160353Z AUTO 18003KT 10SM CLR 09/07 A2999 RMK AO2 SLP156 T00890072 $=
201510160327 SPECI KCLM 160327Z AUTO 00000KT 10SM FEW002 09/08 A2999 RMK AO2 T00940078 $=
201510160253 METAR KCLM 160253Z AUTO 00000KT 10SM CLR 09/07 A2999 RMK AO2 SLP159 T00940072 56003 $=
201510160153 METAR KCLM 160153Z AUTO 00000KT 10SM CLR 11/07 A2999 RMK AO2 SLP157 T01060072 $=
201510160053 METAR KCLM 160053Z AUTO 00000KT 10SM CLR 15/07 A2999 RMK AO2 SLP158 T01500067 $=
201510160000 METAR KCLM NIL=
201510152353 METAR KCLM 152353Z AUTO 11006KT 10SM CLR 16/07 A3000 RMK AO2 SLP160 T01560067 10161 20133 56015 $=
201510152300 METAR KCLM NIL=
201510152253 METAR KCLM 152253Z AUTO 10005KT 10SM CLR 16/06 A3002 RMK AO2 SLP166 T01560061 $=
201510152153 METAR KCLM 152153Z AUTO 10006KT 10SM CLR 16/07 A3003 RMK AO2 SLP170 T01610072 $=
201510152053 METAR KCLM 152053Z AUTO 08004KT 10SM CLR 15/07 A3005 RMK AO2 SLP176 T01500072 58017 $=
201510151953 METAR KCLM 151953Z AUTO 09007KT 10SM CLR 14/07 A3007 RMK AO2 SLP184 T01440072 $=
201510151853 METAR KCLM 151853Z AUTO 09007KT 10SM CLR 14/07 A3009 RMK AO2 SLP190 T01390072 $=
201510151753 METAR KCLM 151753Z AUTO 11006KT 10SM CLR 13/08 A3010 RMK AO2 SLP194 T01330078 10133 20061 58000 $=
201510151653 METAR KCLM 151653Z AUTO 10005KT 10SM CLR 13/08 A3010 RMK AO2 SLP195 T01280078 $=
201510151553 METAR KCLM 151553Z AUTO 14005KT 10SM CLR 11/08 A3011 RMK AO2 SLP196 T01060078 $=
201510151453 METAR KCLM 151453Z AUTO 00000KT 10SM CLR 06/04 A3010 RMK AO2 SLP195 T00610044 58007 $=
201510151353 METAR KCLM 151353Z AUTO 15005KT 10SM CLR 08/06 A3011 RMK AO2 SLP198 T00830061 $=
201510151253 METAR KCLM 151253Z AUTO 16005KT 10SM CLR 08/06 A3012 RMK AO2 SLP201 T00830056 $=
201510151153 METAR KCLM 151153Z AUTO 15007KT 10SM CLR 09/06 A3012 RMK AO2 SLP202 T00940061 10106 20056 58006 $=
201510151053 METAR KCLM 151053Z AUTO 15005KT 10SM CLR 07/05 A3013 RMK AO2 SLP205 T00720050 $=
201510150953 METAR KCLM 150953Z AUTO 14005KT 10SM CLR 08/04 A3014 RMK AO2 SLP207 T00830044 $=
201510150853 METAR KCLM 150853Z AUTO 16006KT 10SM CLR 08/04 A3014 RMK AO2 SLP208 T00780044 56005 $=
201510150753 METAR KCLM 150753Z AUTO 15006KT 10SM CLR 08/04 A3015 RMK AO2 SLP210 T00830044 401390039 $=
201510150653 METAR KCLM 150653Z AUTO 16003KT 10SM CLR 08/04 A3015 RMK AO2 SLP210 T00780044 $=
201510150553 METAR KCLM 150553Z AUTO 15005KT 10SM CLR 09/05 A3016 RMK AO2 SLP213 T00890050 10133 20072 58005 $=
201510150453 METAR KCLM 150453Z AUTO 13005KT 10SM CLR 08/05 A3016 RMK AO2 SLP215 T00830050 $=
201510150353 METAR KCLM 150353Z AUTO 15005KT 10SM CLR 08/06 A3017 RMK AO2 SLP218 T00830061 $=
201510150253 METAR KCLM 150253Z AUTO 15004KT 10SM CLR 09/07 A3017 RMK AO2 SLP218 T00940072 55002 $=
201510150153 METAR KCLM 150153Z AUTO 13005KT 10SM CLR 10/08 A3017 RMK AO2 SLP218 T01000078 $=
201510150053 METAR KCLM 150053Z AUTO 12007KT 10SM CLR 12/08 A3017 RMK AO2 SLP216 T01220083 $=
201510142353 METAR KCLM 142353Z AUTO 11007KT 10SM CLR 14/08 A3018 RMK AO2 SLP220 T01390083 10139 20111 57020 $=
201510142300 METAR KCLM NIL=
201510142253 METAR KCLM 142253Z AUTO 10008KT 10SM CLR 13/08 A3020 RMK AO2 SLP228 T01330083 $=
201510142153 METAR KCLM 142153Z AUTO 08007KT 10SM CLR 13/09 A3022 RMK AO2 SLP233 T01330089 $=
201510142053 METAR KCLM 142053Z AUTO 10009KT 10SM CLR 13/09 A3024 RMK AO2 SLP241 T01330089 58017 $=
201510142026 SPECI KCLM 142026Z AUTO 09007KT 10SM FEW015 14/09 A3024 RMK AO2 T01390094 $=
201510141953 METAR KCLM 141953Z AUTO 12007KT 10SM OVC016 13/09 A3026 RMK AO2 SLP249 T01330089 $=
201510141907 SPECI KCLM 141907Z AUTO 13006KT 10SM SCT010 OVC020 12/09 A3028 RMK AO2 T01220094 $=
201510141853 METAR KCLM 141853Z AUTO 13006KT 10SM BKN010 OVC019 12/09 A3028 RMK AO2 SLP255 T01220094 $=
201510141753 METAR KCLM 141753Z AUTO 16005KT 10SM SCT010 OVC013 11/09 A3029 RMK AO2 SLP258 T01110089 10111 20044 50005 $=
201510141750 SPECI KCLM 141750Z AUTO 16005KT 10SM SCT010 OVC015 11/09 A3029 RMK AO2 $=
201510141653 METAR KCLM 141653Z AUTO 00000KT 10SM OVC008 10/08 A3029 RMK AO2 SLP258 T01000078 $=
201510141621 SPECI KCLM 141621Z AUTO 25004KT 10SM BKN008 09/07 A3028 RMK AO2 T00940072 $=
201510141612 SPECI KCLM 141612Z AUTO 25004KT 10SM SCT009 09/07 A3028 RMK AO2 T00890067 $=
201510141553 METAR KCLM 141553Z AUTO 22004KT 10SM FEW016 08/06 A3028 RMK AO2 SLP254 T00830061 $=
201510141453 METAR KCLM 141453Z AUTO 00000KT 10SM CLR 07/04 A3027 RMK AO2 SLP253 T00670044 58002 $=
201510141353 METAR KCLM 141353Z AUTO 21003KT 10SM CLR 06/04 A3028 RMK AO2 SLP255 T00560039 $=
201510141253 METAR KCLM 141253Z AUTO 23004KT 10SM CLR 06/04 A3028 RMK AO2 SLP254 T00560039 $=
201510141153 METAR KCLM 141153Z AUTO 23007KT 10SM CLR 07/04 A3028 RMK AO2 SLP254 T00720044 10078 20039 58003 $=
201510141053 METAR KCLM 141053Z AUTO 23006KT 10SM CLR 07/04 A3028 RMK AO2 SLP256 T00720044 $=
201510141000 METAR KCLM NIL=
201510140953 METAR KCLM 140953Z AUTO 22003KT 10SM CLR 05/04 A3029 RMK AO2 SLP257 T00500039 $=
201510140853 METAR KCLM 140853Z AUTO 16003KT 10SM CLR 04/03 A3029 RMK AO2 SLP257 T00390028 51004 $=
201510140753 METAR KCLM 140753Z AUTO 00000KT 10SM CLR 05/04 A3028 RMK AO2 SLP256 T00500039 401560044 $=
201510140653 METAR KCLM 140653Z AUTO 00000KT 10SM CLR 05/04 A3028 RMK AO2 SLP256 T00500039 $=
201510140553 METAR KCLM 140553Z AUTO 22006KT 10SM CLR 07/05 A3027 RMK AO2 SLP253 T00670050 10139 20056 52002 $=
201510140453 METAR KCLM 140453Z AUTO 13003KT 10SM CLR 06/05 A3027 RMK AO2 SLP252 T00610050 $=
201510140353 METAR KCLM 140353Z AUTO 00000KT 10SM CLR 07/07 A3027 RMK AO2 SLP251 T00720067=
201510140253 METAR KCLM 140253Z AUTO 20003KT 10SM CLR 08/07 A3027 RMK AO2 SLP251 T00830072 55002=
201510140153 METAR KCLM 140153Z AUTO 20003KT 10SM CLR 09/08 A3026 RMK AO2 SLP249 T00940078=
201510140053 METAR KCLM 140053Z AUTO 08004KT 10SM CLR 13/08 A3026 RMK AO2 SLP248 T01280083=
201510132353 METAR KCLM 132353Z AUTO 09007KT 10SM CLR 13/08 A3027 RMK AO2 SLP251 T01330083 10156 20117 55001=
201510132253 METAR KCLM 132253Z AUTO VRB04KT 10SM CLR 14/09 A3027 RMK AO2 SLP251 T01440089=
201510132221 SPECI KCLM 132221Z AUTO 00000KT 10SM SCT024 15/09 A3027 RMK AO2 T01500089=
201510132153 METAR KCLM 132153Z AUTO 07003KT 10SM OVC024 14/09 A3027 RMK AO2 SLP249 T01390089=
201510132053 METAR KCLM 132053Z AUTO 10005KT 10SM OVC024 14/09 A3028 RMK AO2 SLP253 T01390089 51002=
201510131953 METAR KCLM 131953Z AUTO 11007KT 10SM FEW008 OVC025 13/09 A3028 RMK AO2 SLP254 T01280094=
201510131943 SPECI KCLM 131943Z AUTO 12007KT 10SM FEW008 OVC025 13/10 A3028 RMK AO2 T01280100=
201510131930 SPECI KCLM 131930Z AUTO 13007KT 10SM BKN006 OVC025 13/11 A3028 RMK AO2 CIG 004V009 T01280106=
201510131853 METAR KCLM 131853Z AUTO 10006KT 9SM OVC004 12/11 A3027 RMK AO2 SLP252 T01220106=
201510131823 SPECI KCLM 131823Z AUTO 10006KT 5SM BR OVC003 12/11 A3027 RMK AO2 T01220106=
201510131807 SPECI KCLM 131807Z AUTO 06004KT 10SM BKN007 OVC023 12/10 A3027 RMK AO2 CIG 004V008 T01170100=
201510131753 METAR KCLM 131753Z AUTO 02003KT 10SM FEW007 OVC023 13/11 A3027 RMK AO2 SLP252 T01280106 10128 20106 51022=
201510131737 SPECI KCLM 131737Z AUTO 00000KT 10SM SCT006 OVC023 12/11 A3027 RMK AO2 T01220106=
201510131728 SPECI KCLM 131728Z AUTO 00000KT 10SM BKN006 OVC022 12/11 A3026 RMK AO2 T01220106=
201510131715 SPECI KCLM 131715Z AUTO 35003KT 10SM FEW005 OVC022 13/11 A3026 RMK AO2 T01280106=
201510131653 METAR KCLM 131653Z AUTO 00000KT 7SM OVC021 12/11 A3025 RMK AO2 SLP246 T01170106=
201510131553 METAR KCLM 131553Z AUTO 00000KT 5SM BR BKN019 BKN032 11/11 A3023 RMK AO2 SLP238 T01110106=
201510131544 SPECI KCLM 131544Z AUTO 00000KT 3SM BR BKN019 BKN032 11/09 A3023 RMK AO2 T01060094=
201510131538 SPECI KCLM 131538Z AUTO 28003KT 1 1/2SM BR BKN018 BKN032 11/09 A3022 RMK AO2 T01060094=
201510131532 SPECI KCLM 131532Z AUTO 00000KT 2 1/2SM BR SCT018 BKN032 11/11 A3022 RMK AO2 T01110106=
201510131453 METAR KCLM 131453Z AUTO 00000KT 7SM OVC018 11/10 A3021 RMK AO2 SLP229 T01110100 50005=
201510131414 SPECI KCLM 131414Z AUTO 23003KT 9SM SCT005 OVC018 11/10 A3021 RMK AO2 T01110100=
201510131353 METAR KCLM 131353Z AUTO 00000KT 4SM BR OVC005 11/11 A3021 RMK AO2 SLP232 T01110106=
201510131343 SPECI KCLM 131343Z AUTO 29003KT 3SM BR BKN002 OVC007 11/11 A3021 RMK AO2 T01110106=
201510131336 SPECI KCLM 131336Z AUTO 32003KT 1 3/4SM BR BKN002 OVC007 11/11 A3021 RMK AO2 T01110106=
201510131324 SPECI KCLM 131324Z AUTO 00000KT 2SM BR OVC002 11/11 A3020 RMK AO2 T01110106=
201510131316 SPECI KCLM 131316Z AUTO 31003KT 1 3/4SM BR BKN002 OVC013 11/11 A3020 RMK AO2 T01110106=
201510131304 SPECI KCLM 131304Z AUTO 00000KT 2 1/2SM BR BKN002 OVC012 11/11 A3020 RMK AO2 T01110106 $=
201510131253 METAR KCLM 131253Z AUTO 00000KT 4SM BR SCT002 OVC012 12/11 A3019 RMK AO2 SLP224 T01170106 $=
201510131250 SPECI KCLM 131250Z AUTO 00000KT 4SM BR SCT002 OVC012 12/11 A3019 RMK AO2 $=
201510131219 SPECI KCLM 131219Z AUTO 00000KT 5SM BR BKN013 OVC019 12/11 A3018 RMK AO2 T01170106 $=
201510131153 METAR KCLM 131153Z AUTO 00000KT 5SM BR OVC020 12/11 A3018 RMK AO2 SLP220 70009 T01220111 10122 20111 51005 $=
201510131105 SPECI KCLM 131105Z AUTO 00000KT 9SM SCT015 OVC025 12/11 A3018 RMK AO2 T01170111 $=
201510131053 METAR KCLM 131053Z AUTO 00000KT 8SM BKN013 OVC025 12/11 A3018 RMK AO2 SLP219 T01170111 $=
201510131000 METAR KCLM NIL=
201510130953 METAR KCLM 130953Z AUTO 00000KT 6SM BR OVC011 12/11 A3018 RMK AO2 SLP220 T01170111 $=
201510130908 SPECI KCLM 130908Z AUTO 00000KT 3SM BR FEW004 OVC012 12/11 A3017 RMK AO2 T01170111 $=
201510130905 SPECI KCLM 130905Z AUTO 00000KT 2 1/2SM BR OVC012 12/11 A3017 RMK AO2 T01170111 $=
201510130853 METAR KCLM 130853Z AUTO 00000KT 1 1/4SM BR OVC012 12/11 A3017 RMK AO2 SLP216 T01170106 50000 $=
201510130827 SPECI KCLM 130827Z AUTO 00000KT 1 3/4SM BR OVC012 12/11 A3016 RMK AO2 T01170111 $=
201510130753 METAR KCLM 130753Z AUTO 00000KT 3SM BR OVC013 12/11 A3017 RMK AO2 SLP217 T01170106 401500083 $=
201510130735 SPECI KCLM 130735Z AUTO 00000KT 2SM BR OVC014 12/11 A3017 RMK AO2 T01170106 $=
201510130717 SPECI KCLM 130717Z AUTO 00000KT 6SM BR BKN013 OVC017 12/11 A3017 RMK AO2 T01170106 $=
201510130705 SPECI KCLM 130705Z AUTO 22003KT 10SM FEW007 OVC015 12/11 A3017 RMK AO2 T01170106 $=
201510130653 METAR KCLM 130653Z AUTO 00000KT 10SM SCT007 OVC013 12/11 A3017 RMK AO2 SLP217 T01170106 $=
201510130635 SPECI KCLM 130635Z AUTO 00000KT 10SM BKN007 OVC013 12/11 A3017 RMK AO2 T01170106 $=
201510130620 SPECI KCLM 130620Z AUTO 00000KT 10SM FEW008 BKN013 OVC022 11/11 A3017 RMK AO2 T01110106 $=
201510130602 SPECI KCLM 130602Z AUTO 00000KT 7SM BKN014 OVC029 11/11 A3017 RMK AO2 T01110106 $=
201510130553 METAR KCLM 130553Z AUTO 00000KT 9SM SCT014 OVC029 11/10 A3017 RMK AO2 SLP216 T01110100 10139 20100 52012 $=
201510130453 METAR KCLM 130453Z AUTO 25003KT 10SM OVC028 11/10 A3015 RMK AO2 SLP212 T01060100 $=
201510130409 SPECI KCLM 130409Z AUTO 25004KT 10SM BKN028 BKN060 11/09 A3015 RMK AO2 T01060094 $=
201510130400 METAR KCLM NIL=
201510130353 METAR KCLM 130353Z AUTO 26003KT 10SM SCT028 BKN060 11/10 A3015 RMK AO2 SLP209 T01060100 $=
201510130253 METAR KCLM 130253Z AUTO 22003KT 10SM SCT050 BKN060 11/10 A3013 RMK AO2 SLP205 T01060100 52012 $=
201510130153 METAR KCLM 130153Z AUTO 25004KT 10SM SCT065 12/11 A3012 RMK AO2 SLP200 T01220106 $=
201510130053 METAR KCLM 130053Z AUTO 29005KT 10SM OVC039 12/11 A3011 RMK AO2 SLP197 T01220106 $=
201510122353 METAR KCLM 122353Z AUTO 00000KT 10SM FEW008 OVC038 14/12 A3010 RMK AO2 SLP192 60006 T01390117 10150 20111 53012 $=
201510122345 SPECI KCLM 122345Z AUTO 34003KT 10SM SCT008 OVC038 14/12 A3009 RMK AO2 T01390117 $=
201510122253 METAR KCLM 122253Z AUTO 00000KT 10SM OVC009 14/11 A3008 RMK AO2 SLP188 T01390111 $=
201510122245 SPECI KCLM 122245Z AUTO 35003KT 10SM OVC009 14/11 A3008 RMK AO2 T01390111 $=
201510122227 SPECI KCLM 122227Z AUTO 35003KT 10SM BKN010 OVC035 14/11 A3008 RMK AO2 T01390111 $=
201510122153 METAR KCLM 122153Z AUTO 00000KT 10SM SCT034 OVC055 13/11 A3007 RMK AO2 SLP185 T01330106 $=
201510122053 METAR KCLM 122053Z AUTO 35006KT 10SM BKN060 OVC075 13/11 A3006 RMK AO2 SLP180 60006 T01280111 53004 $=
201510121953 METAR KCLM 121953Z AUTO 00000KT 10SM BKN060 OVC080 14/09 A3006 RMK AO2 RAB06E15 SLP180 P0000 T01440089 $=
201510121853 METAR KCLM 121853Z AUTO 00000KT 10SM BKN065 BKN090 12/11 A3005 RMK AO2 RAE51 SLP175 P0006 T01170106 $=
201510121848 SPECI KCLM 121848Z AUTO 00000KT 7SM -RA BKN065 OVC090 12/11 A3005 RMK AO2 P0006 $=
201510121830 SPECI KCLM 121830Z AUTO 20003KT 2 1/2SM RA BR SCT007 BKN070 OVC085 11/10 A3006 RMK AO2 P0004 T01110100 $=
201510121821 SPECI KCLM 121821Z AUTO 23003KT 4SM -RA BR BKN007 OVC070 11/10 A3006 RMK AO2 P0002 T01110100 $=
201510121758 SPECI KCLM 121758Z AUTO 00000KT 2SM -RA BR OVC006 11/10 A3006 RMK AO2 P0000 T01110100 $=
201510121753 METAR KCLM 121753Z AUTO 00000KT 1 1/2SM RA BR OVC004 11/10 A3006 RMK AO2 RAB1654E04B30 SLP181 P0003 60003 T01110100 10117 20089 53032 $=
201510121750 SPECI KCLM 121750Z AUTO 00000KT 1 3/4SM RA BR OVC004 11/10 A3006 RMK AO2 RAB1654E04B30 P0002 $=
201510121734 SPECI KCLM 121734Z AUTO 30005KT 6SM -RA BR BKN004 OVC080 11/10 A3006 RMK AO2 RAB1654E04B30 P0000 T01110100 $=
201510121726 SPECI KCLM 121726Z AUTO 29005KT 7SM BKN006 OVC080 11/09 A3005 RMK AO2 RAB1654E04 PRESRR P0000 T01110094 $=
201510121717 SPECI KCLM 121717Z AUTO 29004KT 10SM SCT006 OVC080 11/09 A3004 RMK AO2 RAB1654E04 P0000 T01110094 $=
201510121653 METAR KCLM 121653Z AUTO 33003KT 10SM BKN075 OVC090 11/09 A3002 RMK AO2 RAB1555E24 SLP165 P0000 T01110089 $=
201510121553 METAR KCLM 121553Z AUTO 00000KT 10SM OVC070 11/08 A2999 RMK AO2 SLP157 T01060078 $=
201510121453 METAR KCLM 121453Z AUTO 08004KT 10SM BKN110 12/06 A2997 RMK AO2 SLP148 T01170061 58012 $=
201510121353 METAR KCLM 121353Z AUTO 13005KT 10SM BKN120 09/08 A2999 RMK AO2 SLP155 T00940083 $=
201510121253 METAR KCLM 121253Z AUTO 00000KT 10SM SCT120 09/08 A3000 RMK AO2 SLP160 T00890078 $=
201510121153 METAR KCLM 121153Z AUTO 00000KT 10SM BKN110 09/08 A3000 RMK AO2 SLP160 T00940078 10100 20083 58013 $=
201510121053 METAR KCLM 121053Z AUTO 00000KT 10SM BKN110 09/08 A3002 RMK AO2 SLP167 T00890078 $=
201510120953 METAR KCLM 120953Z AUTO 00000KT 10SM FEW120 09/08 A3003 RMK AO2 SLP171 T00890078 $=
201510120853 METAR KCLM 120853Z AUTO 00000KT 10SM CLR 10/07 A3004 RMK AO2 SLP173 T01000072 58003 $=
201510120753 METAR KCLM 120753Z AUTO 00000KT 10SM CLR 09/08 A3004 RMK AO2 SLP173 T00940078 401560067 $=
201510120653 METAR KCLM 120653Z AUTO 21003KT 10SM CLR 09/08 A3005 RMK AO2 SLP177 T00890078 $=
201510120553 METAR KCLM 120553Z AUTO 00000KT 10SM CLR 10/08 A3005 RMK AO2 SLP177 T01000083 10144 20094 56013 $=
201510120500 METAR KCLM NIL=
201510120453 METAR KCLM 120453Z AUTO 23006KT 10SM CLR 11/09 A3006 RMK AO2 SLP180 T01110089=
201510120353 METAR KCLM 120353Z AUTO 31003KT 5SM BR CLR 09/08 A3007 RMK AO2 SLP182 T00940083=
201510120253 METAR KCLM 120253Z AUTO 28007KT 8SM CLR 11/09 A3009 RMK AO2 SLP190 T01060094 55009=
201510120153 METAR KCLM 120153Z AUTO 28004KT 8SM FEW110 11/10 A3008 RMK AO2 SLP186 T01110100=
201510120053 METAR KCLM 120053Z AUTO 00000KT 10SM BKN110 13/10 A3008 RMK AO2 SLP185 T01280100=
201510112353 METAR KCLM 112353Z AUTO 10004KT 10SM SCT120 14/10 A3012 RMK AO2 SLP198 T01440100 10156 20122 58015=
201510112253 METAR KCLM 112253Z AUTO 00000KT 10SM BKN110 13/11 A3014 RMK AO2 SLP206 T01280106=
201510112219 SPECI KCLM 112219Z AUTO 03003KT 9SM BKN120 14/11 A3015 RMK AO2 T01390106=
201510112210 SPECI KCLM 112210Z AUTO 00000KT 2 1/2SM HZ SCT120 14/11 A3016 RMK AO2 T01390106=
201510112153 METAR KCLM 112153Z AUTO 32004KT 5SM HZ BKN120 14/11 A3017 RMK AO2 SLP218 T01390106=
201510112053 METAR KCLM 112053Z AUTO 34003KT 10SM BKN120 13/09 A3016 RMK AO2 SLP213 T01280094 56006=
201510111953 METAR KCLM 111953Z AUTO VRB04KT 10SM CLR 15/08 A3016 RMK AO2 SLP213 T01500078=
201510111853 METAR KCLM 111853Z AUTO VRB05KT 10SM SCT120 15/07 A3017 RMK AO2 SLP215 T01500067=
201510111753 METAR KCLM 111753Z AUTO 27004KT 10SM CLR 14/07 A3018 RMK AO2 SLP219 T01390072 10139 20067 51007=
201510111653 SPECI KCLM 111653Z AUTO 24007KT 10SM CLR 13/07 A3017 RMK AO2 SLP218 T01280067=
201510111653 METAR KCLM 111653Z AUTO 24007KT 10SM CLR 13/07 A3017 RMK AO2 SLP218 T01280067=
201510111553 METAR KCLM 111553Z AUTO 24008KT 10SM CLR 11/06 A3016 RMK AO2 SLP214 T01060061=
201510111453 METAR KCLM 111453Z AUTO 25006KT 10SM CLR 09/06 A3016 RMK AO2 SLP213 T00940056 51018=
201510111353 METAR KCLM 111353Z AUTO 23006KT 10SM CLR 08/06 A3015 RMK AO2 SLP210 T00830056=
201510111253 METAR KCLM 111253Z AUTO 24006KT 10SM CLR 09/06 A3014 RMK AO2 SLP207 T00890056=
201510111153 METAR KCLM 111153Z AUTO 26010KT 10SM CLR 11/06 A3010 RMK AO2 SLP193 70069 T01110056 10133 20106 51031=
201510111053 METAR KCLM 111053Z AUTO 24014G20KT 10SM FEW055 11/07 A3007 RMK AO2 SLP183 T01110067=
201510110953 METAR KCLM 110953Z AUTO 24012KT 10SM CLR 11/07 A3004 RMK AO2 SLP173 T01110072=
201510110853 METAR KCLM 110853Z AUTO 24012KT 10SM CLR 12/07 A3001 RMK AO2 SLP162 T01220067 53037=
201510110753 METAR KCLM 110753Z AUTO 28010KT 10SM CLR 12/08 A2998 RMK AO2 SLP152 T01220078 401830122=
201510110653 METAR KCLM 110653Z AUTO 25009KT 10SM CLR 13/09 A2993 RMK AO2 SLP134 T01280089=
201510110553 METAR KCLM 110553Z AUTO 27011KT 10SM SCT075 13/09 A2990 RMK AO2 RAE00 SLP125 P0000 60014 T01330089 10150 20128 53047=
201510110453 METAR KCLM 110453Z AUTO 27012KT 10SM -RA FEW042 OVC055 13/10 A2984 RMK AO2 RAB35 SLP106 P0000 T01330100=
201510110353 METAR KCLM 110353Z AUTO 28013KT 10SM SCT047 BKN055 BKN110 13/09 A2981 RMK AO2 RAE32 SLP094 P0000 T01330094=
201510110253 METAR KCLM 110253Z AUTO 26010KT 9SM -RA FEW042 BKN055 OVC085 13/11 A2976 RMK AO2 SLP078 P0008 60014 T01330111 53046=
201510110246 SPECI KCLM 110246Z AUTO 27009KT 5SM -RA BR FEW042 BKN055 OVC070 13/12 A2976 RMK AO2 P0008 T01330117=
201510110233 SPECI KCLM 110233Z AUTO 27011KT 2SM RA BR FEW014 SCT041 OVC055 13/12 A2975 RMK AO2 P0006 T01330117=
201510110153 METAR KCLM 110153Z AUTO 27009KT 7SM -RA OVC060 13/11 A2971 RMK AO2 SLP059 P0004 T01330111=
201510110053 METAR KCLM 110053Z AUTO 26006KT 6SM -RA BKN060 OVC075 14/11 A2967 RMK AO2 SLP048 P0002 T01390111=
201510102353 METAR KCLM 102353Z AUTO 25007KT 8SM -RA FEW045 SCT055 OVC075 14/12 A2962 RMK AO2 SLP031 P0008 60055 T01440117 10183 20139 53038=
201510102323 SPECI KCLM 102323Z AUTO 29009KT 3SM -RA BR FEW009 BKN060 OVC075 14/12 A2962 RMK AO2 P0006 T01390122=
201510102307 SPECI KCLM 102307Z AUTO 29009KT 1 3/4SM -RA BR FEW008 SCT055 OVC070 13/12 A2961 RMK AO2 P0006 T01330122=
201510102300 METAR KCLM NIL=
201510102248 METAR KCLM 102248Z AUTO 32008KT 1 3/4SM RA BR FEW060 BKN070 OVC085 14/13 A2958=
201510102247 SPECI KCLM 102247Z AUTO 32009KT 1 3/4SM RA BR SCT060 OVC080 14/13 A2958 RMK AO2 P0010=
201510102225 SPECI KCLM 102225Z AUTO 31008KT 3SM -RA BR FEW060 OVC080 15/13 A2956 RMK AO2 P0006 T01500133=
201510102203 SPECI KCLM 102203Z AUTO 29008KT 2 1/2SM -RA BR FEW006 SCT014 OVC080 14/13 A2955 RMK AO2 P0002 T01440133=
201510102153 METAR KCLM 102153Z AUTO 29010KT 3SM -RA BR SCT006 BKN016 OVC080 14/13 A2954 RMK AO2 SLP003 P0020 T01440128=
201510102149 SPECI KCLM 102149Z AUTO 31008G17KT 3SM -RA BR BKN006 BKN016 OVC060 14/13 A2954 RMK AO2 P0020=
201510102143 SPECI KCLM 102143Z AUTO 31008G17KT 1SM RA BR BKN006 BKN014 OVC065 15/14 A2955 RMK AO2 P0020 T01500139=
201510102132 SPECI KCLM 102132Z AUTO 27006KT 3/4SM +RA BR FEW008 BKN047 OVC085 16/15 A2954 RMK AO2 PRESRR P0016 T01610150=
201510102112 SPECI KCLM 102112Z AUTO 00000KT 1 1/4SM RA BR FEW060 BKN070 OVC085 16/15 A2951 RMK AO2 P0006 T01610150=
201510102053 METAR KCLM 102053Z AUTO VRB03KT 3/4SM +RA BR SCT060 OVC075 16/15 A2951 RMK AO2 SLP992 P0017 60017 T01610150 56014=
201510102050 SPECI KCLM 102050Z AUTO 26005KT 3/4SM +RA BR SCT060 OVC075 16/15 A2952 RMK AO2 P0013=
201510102030 SPECI KCLM 102030Z AUTO 26006KT 1 1/2SM RA BR BKN070 OVC090 16/15 A2951 RMK AO2 P0005 T01610150=
201510102022 SPECI KCLM 102022Z AUTO 00000KT 2SM -RA BR FEW016 BKN070 OVC085 17/15 A2950 RMK AO2 P0003 T01670150=
201510101953 METAR KCLM 101953Z AUTO 08004KT 9SM -RA FEW012 SCT065 OVC095 17/14 A2951 RMK AO2 RAE1854B49 SLP993 P0000 T01720144=
201510101853 METAR KCLM 101853Z AUTO 08004KT 10SM -RA FEW042 BKN080 BKN100 18/14 A2955 RMK AO2 RAB1758 SLP007 P0000 T01780144=
201510101753 METAR KCLM 101753Z AUTO 00000KT 5SM BR FEW003 BKN075 OVC090 14/13 A2958 RMK AO2 RAB27E46 SLP016 P0000 60000 T01390128 10172 20133 56032=
201510101745 SPECI KCLM 101745Z AUTO 34003KT 7SM -RA SCT005 SCT026 BKN070 14/13 A2958 RMK AO2 RAB27 PRESFR P0000 T01440133=
201510101653 METAR KCLM 101653Z AUTO 00000KT 10SM SCT080 BKN100 17/15 A2961 RMK AO2 RAE1557 SLP025 P0000 T01720150=
201510101553 METAR KCLM 101553Z AUTO 00000KT 10SM -RA FEW049 SCT075 15/14 A2964 RMK AO2 RAB46 SLP038 P0000 T01500139=
201510101522 SPECI KCLM 101522Z AUTO 14003KT 4SM BR FEW014 SCT080 SCT095 13/13 A2966 RMK AO2 T01330128=
201510101515 SPECI KCLM 101515Z AUTO 14004KT 2SM BR SCT085 13/13 A2966 RMK AO2 T01330128=
201510101504 SPECI KCLM 101504Z AUTO 00000KT 3/4SM BR FEW014 SCT090 13/13 A2967 RMK AO2 T01330128=
201510101500 SPECI KCLM 101500Z AUTO 21003KT 2SM BR SCT090 13/13 A2967 RMK AO2 T01330128=
201510101453 METAR KCLM 101453Z AUTO 16004KT 4SM BR FEW090 13/13 A2968 RMK AO2 SLP049 60000 T01330128 58027=
201510101353 METAR KCLM 101353Z AUTO 00000KT 9SM CLR 14/13 A2971 RMK AO2 SLP061 T01440133=
201510101314 SPECI KCLM 101314Z AUTO 13004KT 10SM CLR 15/14 A2973 RMK AO2 T01500139=
201510101306 SPECI KCLM 101306Z AUTO 00000KT 2 1/2SM BR CLR 15/14 A2974 RMK AO2 T01500139=
201510101253 METAR KCLM 101253Z AUTO 00000KT 10SM CLR 15/14 A2973 RMK AO2 RAE11 SLP068 P0000 T01500139=
201510101159 SPECI KCLM 101159Z AUTO 16003KT 4SM -RA BR SCT013 BKN037 OVC070 15/14 A2976 RMK AO2 P0000 T01500139=
201510101153 METAR KCLM 101153Z AUTO 00000KT 2 1/2SM -RA BR BKN012 OVC046 15/14 A2976 RMK AO2 RAE1056B39 SLP077 P0002 60002 70002 T01500144 10156 20128 58014=
201510101115 SPECI KCLM 101115Z AUTO 14006KT 8SM BKN012 BKN060 14/14 A2977 RMK AO2 RAE1056 P0000 T01440139=
201510101053 METAR KCLM 101053Z AUTO 00000KT 4SM -RA BR SCT008 SCT048 BKN060 14/14 A2978 RMK AO2 RAB36 SLP084 P0000 T01440139=
201510101000 SPECI KCLM 101000Z AUTO 00000KT 10SM BKN007 OVC070 15/14 A2979 RMK AO2 T01500139=
201510100953 METAR KCLM 100953Z AUTO 00000KT 10SM SCT009 BKN070 14/13 A2979 RMK AO2 SLP088 T01440133=
201510100925 SPECI KCLM 100925Z AUTO 00000KT 10SM FEW009 BKN065 OVC080 14/13 A2979 RMK AO2 T01440133=
201510100853 METAR KCLM 100853Z AUTO VRB03KT 9SM OVC065 14/13 A2980 RMK AO2 RAB08E21 SLP090 P0000 60000 T01440133 58008=
201510100753 METAR KCLM 100753Z AUTO 00000KT 8SM OVC065 14/13 A2980 RMK AO2 RAB0655E11 SLP091 P0000 T01390133 402060117=
201510100653 METAR KCLM 100653Z AUTO 23004KT 8SM BKN060 OVC075 14/13 A2982 RMK AO2 SLP099 T01390128=
201510100553 METAR KCLM 100553Z AUTO 16003KT 10SM FEW085 13/12 A2982 RMK AO2 SLP098 T01330122 10183 20122 58016=
201510100453 METAR KCLM 100453Z AUTO 22006KT 9SM BKN080 13/12 A2984 RMK AO2 SLP103 T01280122=
201510100353 METAR KCLM 100353Z AUTO 00000KT 5SM BR BKN080 13/12 A2986 RMK AO2 SLP110 T01330122=
201510100253 METAR KCLM 100253Z AUTO 00000KT 7SM SCT065 13/12 A2987 RMK AO2 SLP114 T01330117 58003=
201510100153 METAR KCLM 100153Z AUTO 00000KT 10SM CLR 14/12 A2987 RMK AO2 SLP114 T01390122=
201510100053 METAR KCLM 100053Z AUTO 00000KT 10SM CLR 16/12 A2989 RMK AO2 SLP121 T01560122=
201510092353 METAR KCLM 092353Z AUTO 01003KT 10SM CLR 18/13 A2988 RMK AO2 SLP118 T01830128 10206 20144 51006=
201510092253 METAR KCLM 092253Z AUTO 03003KT 10SM FEW070 19/12 A2987 RMK AO2 SLP116 T01890122=
201510092153 METAR KCLM 092153Z AUTO 01004KT 10SM SCT065 19/14 A2987 RMK AO2 SLP114 T01940139=
201510092053 METAR KCLM 092053Z AUTO 02003KT 10SM OVC065 18/14 A2986 RMK AO2 SLP112 T01830139 51007=
201510091953 METAR KCLM 091953Z AUTO VRB03KT 10SM CLR 18/13 A2986 RMK AO2 SLP112 T01830133=
201510091853 METAR KCLM 091853Z AUTO 00000KT 8SM SCT049 BKN075 16/13 A2986 RMK AO2 SLP112 T01560128=
201510091753 METAR KCLM 091753Z AUTO 15004KT 4SM BR FEW004 FEW060 14/13 A2984 RMK AO2 SLP105 T01440133 10144 20122 50006=
201510091717 SPECI KCLM 091717Z AUTO 00000KT 3SM BR FEW003 BKN065 BKN080 13/13 A2984 RMK AO2 T01330128=
201510091705 SPECI KCLM 091705Z AUTO 00000KT 2 1/2SM BR FEW003 SCT060 BKN080 13/13 A2984 RMK AO2 T01330128=
201510091653 METAR KCLM 091653Z AUTO 00000KT 2 1/2SM BR BKN002 BKN060 OVC085 13/13 A2984 RMK AO2 SLP105 T01330128=
201510091634 SPECI KCLM 091634Z AUTO 00000KT 1 1/4SM BR OVC002 13/13 A2983 RMK AO2 T01330128=
201510091626 SPECI KCLM 091626Z AUTO 00000KT 3/4SM BR OVC002 13/13 A2983 RMK AO2 T01330128=
201510091553 METAR KCLM 091553Z AUTO 12003KT M1/4SM FG VV002 13/13 A2982 RMK AO2 SLP099 T01330128=
201510091453 METAR KCLM 091453Z AUTO 26004KT 1/4SM FG OVC002 13/12 A2982 RMK AO2 SLP097 T01280122 56018=
201510091413 SPECI KCLM 091413Z AUTO 28005KT 1/4SM FG VV002 13/12 A2984 RMK AO2 T01280122=
201510091405 SPECI KCLM 091405Z AUTO 00000KT 1/2SM FG OVC002 13/12 A2984 RMK AO2 T01280122=
201510091353 METAR KCLM 091353Z AUTO 29005KT 1 1/4SM BR OVC003 13/12 A2982 RMK AO2 SLP098 T01280117=
201510091338 SPECI KCLM 091338Z AUTO 00000KT 2SM BR OVC003 13/12 A2981 RMK AO2 T01280122 $=
201510091325 SPECI KCLM 091325Z AUTO 15003KT 1 3/4SM BR OVC004 13/12 A2982 RMK AO2 T01280122 $=
201510091318 SPECI KCLM 091318Z AUTO 00000KT 2SM BR OVC004 12/12 A2982 RMK AO2 T01220122 $=
201510091253 METAR KCLM 091253Z AUTO 00000KT 1SM BR OVC004 13/12 A2984 RMK AO2 SLP105 T01280122 $=
201510091230 SPECI KCLM 091230Z AUTO 14003KT 1/2SM FG VV003 12/12 A2986 RMK AO2 T01220122 $=
201510091153 METAR KCLM 091153Z AUTO 10003KT 1/4SM FG VV002 12/12 A2987 RMK AO2 SLP116 T01220117 10122 20111 58015 $=
201510091053 METAR KCLM 091053Z AUTO 12003KT M1/4SM FG VV002 12/12 A2989 RMK AO2 SLP122 T01220117 $=
201510091041 SPECI KCLM 091041Z AUTO 00000KT M1/4SM FG VV002 12/12 A2990 RMK AO2 T01220117 $=
201510090953 METAR KCLM 090953Z AUTO 00000KT M1/4SM FG VV001 12/12 A2992 RMK AO2 SLP132 T01220117 $=
201510090904 SPECI KCLM 090904Z AUTO 00000KT M1/4SM FG VV002 12/12 A2992 RMK AO2 T01220117 $=
201510090853 METAR KCLM 090853Z AUTO 00000KT M1/4SM FG VV001 12/12 A2992 RMK AO2 SLP131 T01220117 58020 $=
201510090753 METAR KCLM 090753Z AUTO 12003KT M1/4SM FG VV001 12/11 A2994 RMK AO2 SLP140 T01170111 401500111 $=
201510090717 SPECI KCLM 090717Z AUTO 00000KT M1/4SM FG VV001 12/12 A2995 RMK AO2 T01220122 $=
201510090653 METAR KCLM 090653Z AUTO 28004KT 1/4SM FG VV002 11/11 A2995 RMK AO2 SLP144 T01110106 $=
201510090639 SPECI KCLM 090639Z AUTO 00000KT 1/4SM FG VV003 12/12 A2995 RMK AO2 T01170117 $=
201510090626 SPECI KCLM 090626Z AUTO 00000KT 1/4SM FG VV006 12/12 A2996 RMK AO2 T01170117 $=
201510090616 SPECI KCLM 090616Z AUTO 00000KT 1/4SM FG VV004 12/11 A2997 RMK AO2 T01220111 $=
201510090610 SPECI KCLM 090610Z AUTO 00000KT 1/2SM FG VV006 13/12 A2997 RMK AO2 T01280117 $=
201510090553 METAR KCLM 090553Z AUTO 30003KT 1/2SM FG VV004 13/12 A2998 RMK AO2 SLP150 60000 T01280122 10150 20128 58010 $=
201510090548 SPECI KCLM 090548Z AUTO 30004KT 3/4SM BR VV006 13/12 A2997 RMK AO2 $=
201510090545 SPECI KCLM 090545Z AUTO 29005KT 1 3/4SM BR CLR 13/12 A2997 RMK AO2 T01280122 $=
201510090522 SPECI KCLM 090522Z AUTO 11006KT 3SM BR CLR 13/13 A2997 RMK AO2 T01330128 $=
201510090502 SPECI KCLM 090502Z AUTO 12005KT 1 1/2SM BR FEW004 13/12 A2999 RMK AO2 PRESFR T01280122 $=
201510090453 METAR KCLM 090453Z AUTO 16004KT 2SM BR SCT004 13/12 A3000 RMK AO2 SLP159 T01280122 $=
201510090450 SPECI KCLM 090450Z AUTO 16003KT 1 3/4SM BR SCT004 13/12 A3001 RMK AO2 $=
201510090432 SPECI KCLM 090432Z AUTO 00000KT 1 3/4SM BR BKN003 13/12 A3001 RMK AO2 T01330122 $=
201510090412 SPECI KCLM 090412Z AUTO 00000KT 1/2SM FG BKN003 13/12 A3002 RMK AO2 T01280122 $=
201510090402 SPECI KCLM 090402Z AUTO 00000KT 1SM BR VV003 13/13 A3002 RMK AO2 T01330128 $=
201510090353 METAR KCLM 090353Z AUTO 00000KT 3/4SM BR FEW002 FEW110 13/13 A3001 RMK AO2 SLP161 T01330128 $=
201510090341 SPECI KCLM 090341Z AUTO 11003KT 1SM BR VV002 13/12 A3001 RMK AO2 T01330122 $=
201510090334 SPECI KCLM 090334Z AUTO 00000KT 2SM BR FEW002 13/13 A3002 RMK AO2 T01330128 $=
201510090300 SPECI KCLM 090300Z AUTO 00000KT 1 3/4SM BR CLR 14/13 A3002 RMK AO2 T01390133 $=
201510090253 METAR KCLM 090253Z AUTO 00000KT 3/4SM BR CLR 13/13 A3002 RMK AO2 RAE0154 SLP167 P0000 60000 T01330128 55009 $=
201510090248 SPECI KCLM 090248Z AUTO 35003KT 3/4SM BR CLR 13/13 A3002 RMK AO2 RAE0154 P0000 $=
201510090236 SPECI KCLM 090236Z AUTO 00000KT 2SM BR FEW003 14/13 A3002 RMK AO2 RAE0154 P0000 T01390133 $=
201510090227 SPECI KCLM 090227Z AUTO 00000KT 1 3/4SM BR SCT003 14/13 A3001 RMK AO2 RAE0154 P0000 T01390133 $=
201510090211 SPECI KCLM 090211Z AUTO 12004KT 1 3/4SM BR BKN003 BKN110 14/13 A3000 RMK AO2 RAE0154 P0000 T01390128 $=
201510090200 SPECI KCLM 090200Z AUTO 00000KT 1SM BR SCT003 SCT100 BKN120 14/13 A3002 RMK AO2 RAE0154 P0000 T01390128 $=
201510090151 METAR KCLM 090151Z AUTO 00000KT 2 1/2SM -RA BR SCT003 BKN100 BKN120 14/13 A3002 RMK AO2 RAB44 SLP165 P0000 T01390133 $=
201510090150 SPECI KCLM 090150Z AUTO 00000KT 2SM -RA BR SCT003 BKN100 BKN120 14/13 A3002 RMK AO2 RAB44 P0000 $=
201510090133 SPECI KCLM 090133Z AUTO 06003KT 1 1/2SM BR BKN003 14/13 A3003 RMK AO2 CIG 003V006 T01390128 $=
201510090121 SPECI KCLM 090121Z AUTO 00000KT 3/4SM BR VV006 14/13 A3004 RMK AO2 T01390133 $=
201510090053 METAR KCLM 090053Z AUTO 00000KT 1 1/4SM BR FEW002 14/13 A3005 RMK AO2 SLP176 T01440133 $=
201510090047 SPECI KCLM 090047Z AUTO 00000KT 1 1/2SM BR FEW002 14/13 A3005 RMK AO2 $=
201510090042 SPECI KCLM 090042Z AUTO 36003KT 2SM BR CLR 14/14 A3005 RMK AO2 T01440139 $=
201510082353 METAR KCLM 082353Z AUTO 00000KT 6SM BR CLR 14/13 A3006 RMK AO2 SLP181 T01440133 10144 20117 56016 $=
201510082336 SPECI KCLM 082336Z AUTO 00000KT 4SM BR SCT004 14/13 A3006 RMK AO2 T01390133 $=
201510082326 SPECI KCLM 082326Z AUTO 00000KT 2 1/2SM BR BKN004 14/13 A3007 RMK AO2 T01390133 $=
201510082304 SPECI KCLM 082304Z AUTO 00000KT 1 1/4SM BR OVC003 13/13 A3007 RMK AO2 T01330128 $=
201510082253 METAR KCLM 082253Z AUTO 00000KT 2 1/2SM BR OVC003 14/13 A3008 RMK AO2 SLP184 T01390128 $=
201510082239 SPECI KCLM 082239Z AUTO 00000KT 2 1/2SM BR OVC002 14/13 A3006 RMK AO2 T01390133 $=
201510082226 SPECI KCLM 082226Z AUTO 13003KT 1SM BR OVC002 13/13 A3006 RMK AO2 T01330128 $=
201510082153 METAR KCLM 082153Z AUTO 11003KT 1/4SM FG OVC002 13/12 A3008 RMK AO2 SLP186 T01330122 $=
201510082053 METAR KCLM 082053Z AUTO 00000KT M1/4SM FG VV002 12/12 A3011 RMK AO2 SLP197 T01220117 55002 $=
201510081953 METAR KCLM 081953Z AUTO 03004KT M1/4SM FG VV002 12/12 A3011 RMK AO2 SLP195 T01220117 $=
201510081853 METAR KCLM 081853Z AUTO 00000KT M1/4SM FG VV002 13/13 A3012 RMK AO2 SLP199 T01330128 $=
201510081848 SPECI KCLM 081848Z AUTO 00000KT M1/4SM FG VV002 13/12 A3012 RMK AO2 $=
201510081753 METAR KCLM 081753Z AUTO 07003KT M1/4SM FG VV001 13/13 A3012 RMK AO2 SLP200 T01330128 10139 20133 55000 $=
201510081736 SPECI KCLM 081736Z AUTO 08003KT 1/4SM FG OVC003 14/13 A3012 RMK AO2 T01390128 TSNO $=
201510081653 METAR KCLM 081653Z AUTO 00000KT 1 3/4SM BR BKN004 OVC011 14/13 A3012 RMK AO2 CIG 002V007 SLP199 T01390133 $=
201510081553 METAR KCLM 081553Z AUTO 00000KT 1 1/4SM BR OVC003 14/13 A3012 RMK AO2 CIG 002V006 SLP199 T01390128 $=
201510081541 SPECI KCLM 081541Z AUTO 00000KT 1SM BR BKN004 OVC010 14/13 A3012 RMK AO2 CIG 002V007 T01390128 $=
201510081453 METAR KCLM 081453Z AUTO 00000KT 1SM BR OVC007 13/13 A3012 RMK AO2 CIG 004V008 SLP200 T01330128 56012 $=
201510081441 SPECI KCLM 081441Z AUTO 00000KT 1 1/2SM BR OVC007 13/13 A3013 RMK AO2 T01330128 $=
201510081432 SPECI KCLM 081432Z AUTO 00000KT 2SM BR OVC007 13/13 A3013 RMK AO2 T01330128 $=
201510081353 METAR KCLM 081353Z AUTO 00000KT 1 3/4SM BR OVC006 14/13 A3013 RMK AO2 SLP202 T01390128 $=
201510081341 SPECI KCLM 081341Z AUTO 00000KT 1 3/4SM BR OVC006 14/13 A3013 RMK AO2 T01390128 $=
201510081330 SPECI KCLM 081330Z AUTO 00000KT 3/4SM BR OVC006 13/13 A3014 RMK AO2 T01330128 $=
201510081307 SPECI KCLM 081307Z AUTO 00000KT 2 1/2SM BR OVC007 14/13 A3014 RMK AO2 T01390128 $=
201510081253 METAR KCLM 081253Z AUTO 00000KT 3SM BR OVC009 14/13 A3014 RMK AO2 SLP207 T01390128 $=
201510081243 SPECI KCLM 081243Z AUTO 00000KT 1 3/4SM BR OVC009 13/13 A3014 RMK AO2 T01330128 $=
201510081238 SPECI KCLM 081238Z AUTO 00000KT 3SM BR OVC009 13/13 A3014 RMK AO2 T01330128 $=
201510081208 SPECI KCLM 081208Z AUTO 23004KT 3SM BR FEW005 OVC011 13/13 A3015 RMK AO2 T01330128 $=
201510081201 SPECI KCLM 081201Z AUTO 24003KT 2 1/2SM BR SCT005 OVC011 13/13 A3016 RMK AO2 T01330128 $=
201510081153 METAR KCLM 081153Z AUTO 24004KT 2 1/2SM BR BKN005 OVC011 13/13 A3016 RMK AO2 SLP212 70055 T01330128 10133 20122 56001 $=
201510081143 SPECI KCLM 081143Z AUTO 24004KT 2SM BR OVC005 13/13 A3016 RMK AO2 T01330128 $=
201510081053 METAR KCLM 081053Z AUTO 28004KT 1 1/4SM BR OVC003 13/13 A3016 RMK AO2 SLP214 T01330128 $=
201510081035 SPECI KCLM 081035Z AUTO 26004KT 1 1/4SM BR OVC002 13/13 A3017 RMK AO2 T01330128 $=
201510080953 METAR KCLM 080953Z AUTO 26003KT 3/4SM BR OVC002 13/13 A3016 RMK AO2 SLP211 T01330128 $=
201510080928 SPECI KCLM 080928Z AUTO 25005KT 3/4SM BR OVC002 13/13 A3017 RMK AO2 T01330128 $=
201510080853 METAR KCLM 080853Z AUTO 27005KT 1 1/4SM BR OVC003 13/12 A3016 RMK AO2 SLP214 T01330122 53003 $=
201510080840 SPECI KCLM 080840Z AUTO 25004KT 1 1/2SM BR OVC002 13/12 A3016 RMK AO2 T01330122 $=
201510080813 SPECI KCLM 080813Z AUTO 00000KT 2 1/2SM BR OVC004 13/13 A3015 RMK AO2 T01280128 $=
201510080805 SPECI KCLM 080805Z AUTO 23004KT 3SM BR OVC004 13/12 A3016 RMK AO2 T01280122 $=
201510080753 METAR KCLM 080753Z AUTO 23003KT 2 1/2SM BR OVC004 13/12 A3015 RMK AO2 SLP209 T01280122 401390117 $=
201510080736 SPECI KCLM 080736Z AUTO 23003KT 3SM BR OVC003 13/13 A3015 RMK AO2 T01280128 $=
201510080726 SPECI KCLM 080726Z AUTO 26004KT 2 1/2SM BR OVC002 13/12 A3016 RMK AO2 CIG 001V005 T01280122 $=
201510080714 SPECI KCLM 080714Z AUTO 27006KT 1 1/4SM BR OVC002 13/12 A3017 RMK AO2 T01280122 $=
201510080653 METAR KCLM 080653Z AUTO 28007KT 1/2SM FG VV002 13/12 A3016 RMK AO2 SLP213 T01280122 $=
201510080553 METAR KCLM 080553Z AUTO 29007KT 1/4SM FG VV003 12/12 A3015 RMK AO2 SLP212 T01220117 10133 20122 53008 $=
201510080453 METAR KCLM 080453Z AUTO 26005KT 1/4SM FG VV002 13/12 A3014 RMK AO2 SLP206 T01280117 $=
201510080421 SPECI KCLM 080421Z AUTO 00000KT 1/4SM FG VV001 13/12 A3013 RMK AO2 T01280122 $=
201510080401 SPECI KCLM 080401Z AUTO 00000KT M1/4SM FG VV002 13/12 A3013 RMK AO2 T01280122 $=
201510080353 METAR KCLM 080353Z AUTO 00000KT M1/4SM FG VV001 13/12 A3013 RMK AO2 SLP203 T01280122 $=
201510080326 SPECI KCLM 080326Z AUTO 00000KT M1/4SM FG VV001 12/12 A3013 RMK AO2 T01220122 $=
201510080253 METAR KCLM 080253Z AUTO 00000KT 1/4SM FG VV002 13/12 A3013 RMK AO2 SLP203 T01280122 53008 $=
201510080237 SPECI KCLM 080237Z AUTO 00000KT 3/4SM BR OVC002 13/12 A3013 RMK AO2 T01280122 $=
201510080222 SPECI KCLM 080222Z AUTO 00000KT 2 1/2SM BR OVC002 13/13 A3012 RMK AO2 T01330128 $=
201510080153 METAR KCLM 080153Z AUTO 12003KT 5SM BR OVC004 13/12 A3011 RMK AO2 SLP196 T01330122 $=
201510080146 SPECI KCLM 080146Z AUTO 00000KT 4SM BR OVC004 13/12 A3011 RMK AO2 T01330122 $=
201510080139 SPECI KCLM 080139Z AUTO 00000KT 2 1/2SM BR OVC004 13/12 A3011 RMK AO2 T01330122 $=
201510080106 SPECI KCLM 080106Z AUTO 10005KT 4SM BR OVC007 13/12 A3010 RMK AO2 T01330122 $=
201510080053 METAR KCLM 080053Z AUTO 08004KT 2 1/2SM BR FEW002 BKN006 OVC055 13/13 A3010 RMK AO2 VIS 1 1/4V5 SLP194 T01330128 $=
201510080051 SPECI KCLM 080051Z AUTO 00000KT 2 1/2SM BR FEW002 BKN006 OVC055 13/13 A3010 RMK AO2 VIS 1 1/4V5 $=
201510080042 SPECI KCLM 080042Z AUTO 11004KT 3SM BR BKN004 BKN050 OVC060 14/13 A3010 RMK AO2 CIG 001V008 T01390128 $=
201510080024 SPECI KCLM 080024Z AUTO 08003KT 2SM BR FEW003 OVC050 13/13 A3011 RMK AO2 T01330128 $=
201510080008 SPECI KCLM 080008Z AUTO 00000KT 4SM BR FEW003 OVC050 14/13 A3011 RMK AO2 T01390128 $=
201510072353 METAR KCLM 072353Z AUTO 00000KT 8SM BKN050 OVC070 14/13 A3011 RMK AO2 SLP195 60017 T01390128 10139 20117 55002 $=
201510072322 SPECI KCLM 072322Z AUTO 00000KT 3SM BR FEW002 OVC050 13/12 A3010 RMK AO2 T01330122 $=
201510072313 SPECI KCLM 072313Z AUTO 00000KT 1 3/4SM BR SCT003 OVC050 13/12 A3011 RMK AO2 T01330122 $=
201510072310 SPECI KCLM 072310Z AUTO 36003KT 2SM BR SCT003 BKN028 OVC055 13/13 A3011 RMK AO2 T01330128 $=
201510072253 METAR KCLM 072253Z AUTO 00000KT 5SM BR SCT003 BKN050 OVC070 14/13 A3010 RMK AO2 RAE25 SLP194 P0000 T01390128 $=
201510072220 SPECI KCLM 072220Z AUTO 00000KT 3SM -RA BR FEW004 SCT027 OVC060 14/13 A3010 RMK AO2 P0000 T01390128 $=
201510072208 SPECI KCLM 072208Z AUTO 00000KT 1 3/4SM -RA BR FEW002 BKN049 OVC055 13/12 A3010 RMK AO2 P0000 T01330122 $=
201510072203 SPECI KCLM 072203Z AUTO 00000KT 2SM -RA BR FEW002 BKN027 OVC050 13/13 A3010 RMK AO2 P0000 T01330128 $=
201510072153 METAR KCLM 072153Z AUTO 00000KT 3SM -RA BR SCT002 BKN027 OVC050 13/12 A3011 RMK AO2 SLP196 P0002 T01330122 $=
201510072143 SPECI KCLM 072143Z AUTO 00000KT 2SM -RA BR SCT002 BKN026 OVC055 13/13 A3011 RMK AO2 P0002 T01330128 $=
201510072136 SPECI KCLM 072136Z AUTO 00000KT 1 1/2SM -RA BR SCT002 BKN014 OVC055 13/12 A3011 RMK AO2 P0002 T01330122=
201510072110 SPECI KCLM 072110Z AUTO 00000KT 1 3/4SM -RA BR FEW002 SCT017 OVC060 13/13 A3011 RMK AO2 P0000 T01330128=
201510072053 METAR KCLM 072053Z AUTO 05003KT 5SM -RA BR FEW002 OVC055 14/13 A3011 RMK AO2 RAE28B53 SLP197 P0001 60015 T01390128 51006=
201510072048 SPECI KCLM 072048Z AUTO 00000KT 4SM BR FEW002 OVC055 14/13 A3011 RMK AO2 RAE28 P0001=
201510072029 SPECI KCLM 072029Z AUTO 00000KT 2SM BR SCT002 OVC055 13/12 A3011 RMK AO2 RAE28 P0001 T01330122=
201510072017 SPECI KCLM 072017Z AUTO 00000KT 3SM -RA BR SCT003 OVC055 13/13 A3011 RMK AO2 P0001 T01330128=
201510071953 METAR KCLM 071953Z AUTO 00000KT 3SM -RA BR BKN003 OVC060 13/12 A3010 RMK AO2 SLP193 P0006 T01330122=
201510071937 SPECI KCLM 071937Z AUTO 08003KT 2 1/2SM -RA BR OVC003 13/12 A3010 RMK AO2 P0006 T01330122=
201510071905 SPECI KCLM 071905Z AUTO 00000KT 1 1/2SM RA BR OVC002 13/12 A3010 RMK AO2 CIG 002V005 P0001 T01280117=
201510071853 METAR KCLM 071853Z AUTO 00000KT 2SM RA BR OVC002 13/12 A3009 RMK AO2 SLP190 P0008 T01280117=
201510071832 SPECI KCLM 071832Z AUTO 00000KT 2SM RA BR OVC002 12/12 A3009 RMK AO2 P0005 T01220117=
201510071753 METAR KCLM 071753Z AUTO 34003KT 1SM RA BR VV003 12/11 A3009 RMK AO2 SLP189 P0007 60038 T01170111 10133 20117 51005=
201510071751 SPECI KCLM 071751Z AUTO 34003KT 3/4SM RA BR VV003 12/12 A3009 RMK AO2 P0007=
201510071734 SPECI KCLM 071734Z AUTO 33003KT 1/4SM RA FG VV003 12/11 A3009 RMK AO2 P0004 T01170111=
201510071714 SPECI KCLM 071714Z AUTO 00000KT 3/4SM -RA BR VV003 12/12 A3008 RMK AO2 P0001 T01220117=
201510071707 SPECI KCLM 071707Z AUTO 00000KT 1SM -RA BR VV003 13/12 A3008 RMK AO2 P0001 T01280117=
201510071653 METAR KCLM 071653Z AUTO 00000KT 3/4SM -RA BR OVC003 13/12 A3008 RMK AO2 SLP185 P0009 T01280122=
201510071619 SPECI KCLM 071619Z AUTO 00000KT 2SM -RA BR OVC003 13/12 A3008 RMK AO2 P0005 T01280122 $=
201510071600 SPECI KCLM 071600Z AUTO 00000KT 1 1/4SM -RA BR BKN002 OVC006 13/12 A3008 RMK AO2 P0002 T01280122 $=
201510071553 METAR KCLM 071553Z AUTO 00000KT 3/4SM RA BR BKN002 OVC006 13/12 A3008 RMK AO2 SLP184 P0008 T01280122 $=
201510071549 SPECI KCLM 071549Z AUTO 00000KT 3/4SM RA BR OVC002 13/12 A3008 RMK AO2 P0008 $=
201510071514 SPECI KCLM 071514Z AUTO 12003KT 1SM -RA BR BKN002 OVC008 13/12 A3007 RMK AO2 P0001 T01280117 $=
201510071512 SPECI KCLM 071512Z AUTO 00000KT 3/4SM -RA BR SCT002 OVC006 13/12 A3007 RMK AO2 P0001 T01280117 $=
201510071505 SPECI KCLM 071505Z AUTO 00000KT 1/2SM -RA FG VV004 12/12 A3007 RMK AO2 P0000 T01220117 $=
201510071453 METAR KCLM 071453Z AUTO 00000KT 1/4SM -RA FG FEW002 OVC009 12/12 A3006 RMK AO2 SLP181 P0005 60014 T01220117 58006 $=
201510071449 SPECI KCLM 071449Z AUTO 00000KT 1/4SM -RA FG FEW002 BKN009 OVC055 12/12 A3006 RMK AO2 P0003 $=
201510071446 SPECI KCLM 071446Z AUTO 00000KT 1/2SM -RA FG FEW002 BKN013 OVC055 12/12 A3006 RMK AO2 P0003 T01220117 $=
201510071436 SPECI KCLM 071436Z AUTO 00000KT 3/4SM -RA BR BKN024 OVC055 12/12 A3006 RMK AO2 P0003 T01220117 $=
201510071353 METAR KCLM 071353Z AUTO 00000KT 3/4SM -RA BR OVC055 12/12 A3007 RMK AO2 SLP182 P0005 T01220117 $=
201510071343 SPECI KCLM 071343Z AUTO 00000KT 3/4SM -RA BR OVC055 12/12 A3007 RMK AO2 P0005 T01220117 $=
201510071314 SPECI KCLM 071314Z AUTO 00000KT 1SM -RA BR FEW001 BKN045 OVC055 12/12 A3007 RMK AO2 P0004 T01220117 $=
201510071307 SPECI KCLM 071307Z AUTO 00000KT 1SM RA BR FEW001 BKN020 OVC039 12/11 A3008 RMK AO2 P0002 T01220111 $=
201510071258 SPECI KCLM 071258Z AUTO 00000KT 1SM -RA BR FEW001 BKN033 OVC048 12/12 A3008 RMK AO2 P0001 T01220117 $=
201510071253 METAR KCLM 071253Z AUTO 00000KT 3/4SM -RA BR BKN020 OVC044 12/12 A3008 RMK AO2 SLP185 P0004 T01220117 $=
201510071232 SPECI KCLM 071232Z AUTO 00000KT 1/2SM -RA FG BKN019 BKN031 OVC048 13/12 A3008 RMK AO2 P0002 T01280122 $=
201510071201 SPECI KCLM 071201Z AUTO 00000KT 1/2SM -RA FG OVC050 13/12 A3008 RMK AO2 P0000 T01330122 $=
201510071153 METAR KCLM 071153Z AUTO 00000KT 1 1/2SM -RA BR OVC050 13/12 A3008 RMK AO2 SLP186 P0003 60017 70017 T01330122 10144 20133 51002 $=
201510071114 SPECI KCLM 071114Z AUTO 00000KT 3SM -RA BR OVC055 13/12 A3008 RMK AO2 P0001 T01330122 $=
201510071053 METAR KCLM 071053Z AUTO 00000KT 1 3/4SM -RA BR OVC055 13/13 A3008 RMK AO2 SLP185 P0009 T01330128 $=
201510071028 SPECI KCLM 071028Z AUTO 00000KT 1 3/4SM RA BR OVC055 13/12 A3008 RMK AO2 P0003 T01330122 $=
201510071002 SPECI KCLM 071002Z AUTO 00000KT 4SM -RA BR OVC055 13/12 A3008 RMK AO2 P0000 T01330122 $=
201510070953 METAR KCLM 070953Z AUTO 00000KT 2 1/2SM -RA BR OVC060 13/12 A3008 RMK AO2 RAB0857 SLP186 P0005 T01330122 $=
201510070944 SPECI KCLM 070944Z AUTO 00000KT 2 1/2SM -RA BR OVC060 13/12 A3008 RMK AO2 RAB0857 P0003 T01330122 $=
201510070853 METAR KCLM 070853Z AUTO 23003KT 10SM OVC055 13/11 A3007 RMK AO2 SLP184 T01330111 53002 $=
201510070753 METAR KCLM 070753Z AUTO 00000KT 10SM BKN055 OVC075 13/11 A3007 RMK AO2 SLP181 T01330111 401720072 $=
201510070653 METAR KCLM 070653Z AUTO 00000KT 10SM OVC060 14/11 A3007 RMK AO2 SLP181 T01390111 $=
201510070553 METAR KCLM 070553Z AUTO 00000KT 10SM OVC060 13/11 A3007 RMK AO2 SLP182 T01330106 10161 20122 51007 $=
201510070453 METAR KCLM 070453Z AUTO 00000KT 10SM BKN075 BKN090 14/11 A3006 RMK AO2 SLP180 T01390106 $=
201510070353 METAR KCLM 070353Z AUTO 00000KT 10SM FEW080 13/11 A3006 RMK AO2 SLP180 T01330106 $=
201510070253 METAR KCLM 070253Z AUTO 00000KT 9SM BKN085 13/10 A3005 RMK AO2 SLP175 T01330100 52009 $=
201510070153 METAR KCLM 070153Z AUTO 00000KT 10SM SCT090 15/11 A3003 RMK AO2 SLP171 T01500106 $=
201510070053 METAR KCLM 070053Z AUTO 00000KT 10SM OVC090 16/11 A3003 RMK AO2 SLP170 T01610106 $=
201510062353 METAR KCLM 062353Z AUTO 32005KT 7SM SCT095 16/11 A3002 RMK AO2 SLP165 T01610106 10172 20133 50001 $=
201510062253 METAR KCLM 062253Z AUTO 00000KT 10SM SCT110 16/10 A3002 RMK AO2 SLP167 T01610100 $=
201510062153 METAR KCLM 062153Z AUTO 32005KT 10SM CLR 16/10 A3002 RMK AO2 SLP167 T01560100 $=
201510062053 METAR KCLM 062053Z AUTO 29005KT 10SM CLR 16/09 A3002 RMK AO2 SLP166 T01560089 51013 $=
201510061953 METAR KCLM 061953Z AUTO 29003KT 10SM CLR 13/09 A3001 RMK AO2 SLP164 T01330094 $=
201510061853 METAR KCLM 061853Z AUTO 04005KT 10SM CLR 14/09 A2999 RMK AO2 SLP155 T01440089 $=
201510061753 METAR KCLM 061753Z AUTO 00000KT 10SM CLR 14/09 A2998 RMK AO2 SLP153 60000 T01390089 10139 20078 50018 $=
201510061653 METAR KCLM 061653Z AUTO 32003KT 10SM CLR 13/08 A2998 RMK AO2 SLP153 T01280083 $=
201510061553 METAR KCLM 061553Z AUTO 17003KT 8SM CLR 12/09 A2995 RMK AO2 RAB1457E05 SLP143 P0000 T01170089 $=
201510061453 METAR KCLM 061453Z AUTO 00000KT 10SM CLR 10/08 A2993 RMK AO2 SLP134 T01000078 50007 $=
201510061353 METAR KCLM 061353Z AUTO 14005KT 10SM CLR 09/08 A2993 RMK AO2 SLP135 T00940078 $=
201510061253 METAR KCLM 061253Z AUTO 21003KT 10SM CLR 08/06 A2994 RMK AO2 SLP138 T00780061 $=
201510061153 METAR KCLM 061153Z AUTO 00000KT 10SM CLR 09/07 A2990 RMK AO2 SLP126 T00890072 10100 20072 50000 $=
201510061053 METAR KCLM 061053Z AUTO 00000KT 10SM CLR 08/06 A2991 RMK AO2 SLP128 T00780061 $=
201510060953 METAR KCLM 060953Z AUTO 00000KT 10SM CLR 08/07 A2991 RMK AO2 SLP129 T00830067 $=
201510060853 METAR KCLM 060853Z AUTO 00000KT 10SM CLR 08/07 A2990 RMK AO2 SLP126 T00830067 53004 $=
201510060753 METAR KCLM 060753Z AUTO 00000KT 10SM CLR 09/07 A2990 RMK AO2 SLP124 T00890067 401890056 $=
201510060653 METAR KCLM 060653Z AUTO 21003KT 10SM CLR 08/07 A2989 RMK AO2 SLP122 T00830067 $=
201510060553 METAR KCLM 060553Z AUTO 00000KT 10SM CLR 09/08 A2989 RMK AO2 SLP122 T00940078 10172 20089 53004 $=
201510060453 METAR KCLM 060453Z AUTO 14003KT 10SM CLR 10/08 A2988 RMK AO2 SLP120 T01000078 $=
201510060353 METAR KCLM 060353Z AUTO 00000KT 10SM CLR 11/08 A2988 RMK AO2 SLP118 T01110083 $=
201510060253 METAR KCLM 060253Z AUTO 22003KT 10SM CLR 12/09 A2988 RMK AO2 SLP118 T01220089 55001 $=
201510060153 METAR KCLM 060153Z AUTO 00000KT 10SM CLR 13/08 A2988 RMK AO2 SLP117 T01280083 $=
201510060053 METAR KCLM 060053Z AUTO 00000KT 10SM CLR 17/07 A2988 RMK AO2 SLP119 T01720072 $=
201510052353 METAR KCLM 052353Z AUTO 09005KT 10SM CLR 17/07 A2988 RMK AO2 SLP119 T01670072 10189 20150 57009 $=
201510052253 METAR KCLM 052253Z AUTO 02004KT 10SM CLR 19/08 A2989 RMK AO2 SLP121 T01890083 $=
201510052153 METAR KCLM 052153Z AUTO 00000KT 10SM CLR 18/07 A2990 RMK AO2 SLP126 T01780067 $=
201510052053 METAR KCLM 052053Z AUTO VRB04KT 10SM CLR 17/08 A2991 RMK AO2 SLP128 T01670078 58006 $=
201510051953 METAR KCLM 051953Z AUTO VRB04KT 10SM CLR 16/08 A2992 RMK AO2 SLP133 T01610078 $=
201510051853 METAR KCLM 051853Z AUTO 06005KT 10SM CLR 16/07 A2992 RMK AO2 SLP134 T01560072 $=
201510051753 METAR KCLM 051753Z AUTO 03003KT 10SM CLR 15/08 A2993 RMK AO2 SLP134 T01500083 10150 20056 53005 $=
201510051653 METAR KCLM 051653Z AUTO VRB03KT 10SM CLR 14/08 A2992 RMK AO2 SLP133 T01390078 $=
201510051553 METAR KCLM 051553Z AUTO 00000KT 9SM CLR 12/08 A2991 RMK AO2 SLP130 T01220083 $=
201510051453 METAR KCLM 051453Z AUTO 00000KT 10SM CLR 07/06 A2991 RMK AO2 SLP129 T00720056 58005 $=
201510051353 METAR KCLM 051353Z AUTO 00000KT 10SM CLR 07/05 A2992 RMK AO2 SLP132 T00720050 $=
201510051253 METAR KCLM 051253Z AUTO 17004KT 10SM CLR 07/04 A2993 RMK AO2 SLP135 T00720044 $=
201510051153 METAR KCLM 051153Z AUTO 16004KT 10SM CLR 06/04 A2993 RMK AO2 SLP134 T00610039 10089 20056 51010 $=
201510051053 METAR KCLM 051053Z AUTO 20003KT 10SM CLR 07/04 A2992 RMK AO2 SLP131 T00670044 $=
201510050953 METAR KCLM 050953Z AUTO 00000KT 10SM CLR 07/05 A2991 RMK AO2 SLP128 T00670050 $=
201510050853 METAR KCLM 050853Z AUTO 21004KT 10SM CLR 07/05 A2989 RMK AO2 SLP124 T00670050 55000 $=
201510050753 METAR KCLM 050753Z AUTO 00000KT 10SM CLR 07/04 A2988 RMK AO2 SLP120 T00720044 401890056 $=
201510050653 METAR KCLM 050653Z AUTO 22004KT 10SM CLR 08/05 A2990 RMK AO2 SLP125 T00780050 $=
201510050553 METAR KCLM 050553Z AUTO 00000KT 10SM CLR 07/04 A2990 RMK AO2 SLP124 T00670044 10189 20067 51005 $=
201510050453 METAR KCLM 050453Z AUTO 22003KT 10SM CLR 09/06 A2989 RMK AO2 SLP123 T00890056 $=
201510050353 METAR KCLM 050353Z AUTO 22004KT 10SM CLR 09/06 A2988 RMK AO2 SLP120 T00890061 $=
201510050253 METAR KCLM 050253Z AUTO 21003KT 10SM CLR 10/07 A2988 RMK AO2 SLP119 T01000067 56009 $=
201510050153 METAR KCLM 050153Z AUTO 17003KT 10SM CLR 13/06 A2989 RMK AO2 SLP122 T01330061 $=
201510050053 METAR KCLM 050053Z AUTO 10004KT 10SM CLR 17/05 A2989 RMK AO2 SLP120 T01720050 $=
201510042353 METAR KCLM 042353Z AUTO 03003KT 10SM CLR 18/04 A2991 RMK AO2 SLP128 T01830044 10189 20161 58017 $=
201510042253 METAR KCLM 042253Z AUTO VRB03KT 10SM CLR 18/04 A2993 RMK AO2 SLP136 T01780044 $=
201510042153 METAR KCLM 042153Z AUTO VRB03KT 10SM CLR 17/04 A2995 RMK AO2 SLP141 T01720044 $=
201510042053 METAR KCLM 042053Z AUTO VRB04KT 10SM CLR 17/05 A2996 RMK AO2 SLP145 T01720050 58012 $=
201510041953 METAR KCLM 041953Z AUTO 09007KT 10SM CLR 16/05 A2998 RMK AO2 SLP152 T01610050 $=
201510041853 METAR KCLM 041853Z AUTO VRB05KT 10SM CLR 17/04 A2998 RMK AO2 SLP153 T01670044 $=
201510041753 METAR KCLM 041753Z AUTO 05004KT 10SM CLR 17/05 A2999 RMK AO2 SLP157 T01670050 10167 20056 58005 $=
201510041653 METAR KCLM 041653Z AUTO 10003KT 10SM CLR 16/06 A3000 RMK AO2 SLP160 T01560056 $=
201510041553 METAR KCLM 041553Z AUTO 00000KT 10SM CLR 11/07 A3000 RMK AO2 SLP159 T01110072 $=
201510041453 METAR KCLM 041453Z AUTO 00000KT 10SM CLR 08/06 A3001 RMK AO2 SLP163 T00780056 58009 $=
201510041353 METAR KCLM 041353Z AUTO 23005KT 10SM CLR 08/05 A3002 RMK AO2 SLP166 T00780050 $=
201510041253 METAR KCLM 041253Z AUTO 23005KT 10SM CLR 08/04 A3002 RMK AO2 SLP167 T00780044 $=
201510041153 METAR KCLM 041153Z AUTO 23007KT 10SM CLR 10/04 A3004 RMK AO2 SLP171 T01000044 10122 20083 50004 $=
201510041053 METAR KCLM 041053Z AUTO 22006KT 10SM CLR 10/06 A3005 RMK AO2 SLP174 T01000056 $=
201510040953 METAR KCLM 040953Z AUTO 24009KT 10SM CLR 11/06 A3004 RMK AO2 SLP172 T01110056 $=
201510040853 METAR KCLM 040853Z AUTO 24010KT 10SM CLR 11/06 A3002 RMK AO2 SLP167 T01110061 58005 $=
201510040753 METAR KCLM 040753Z AUTO 23008KT 10SM CLR 11/06 A3004 RMK AO2 SLP172 T01110061 401890056 $=
201510040653 METAR KCLM 040653Z AUTO 24006KT 10SM CLR 11/06 A3005 RMK AO2 SLP175 T01060061 $=
201510040553 METAR KCLM 040553Z AUTO 23006KT 10SM CLR 11/06 A3004 RMK AO2 SLP172 T01060061 10189 20083 58005=
201510040453 METAR KCLM 040453Z AUTO 23006KT 10SM CLR 10/06 A3005 RMK AO2 SLP176 T01000061=
201510040353 METAR KCLM 040353Z AUTO 22004KT 10SM CLR 10/06 A3006 RMK AO2 SLP180 T01000061=
201510040253 METAR KCLM 040253Z AUTO 00000KT 10SM CLR 11/07 A3005 RMK AO2 SLP178 T01060067 56004=
201510040153 METAR KCLM 040153Z AUTO 16003KT 10SM CLR 15/06 A3005 RMK AO2 SLP178 T01500056=
201510040053 METAR KCLM 040053Z AUTO 16004KT 10SM CLR 18/05 A3006 RMK AO2 SLP181 T01780050=
201510032353 METAR KCLM 032353Z AUTO 10004KT 10SM CLR 18/04 A3007 RMK AO2 SLP183 T01830044 10189 20161 56014=
201510032253 METAR KCLM 032253Z AUTO VRB04KT 10SM CLR 19/05 A3007 RMK AO2 SLP184 T01890050=
201510032153 METAR KCLM 032153Z AUTO VRB05KT 10SM CLR 18/05 A3009 RMK AO2 SLP191 T01830050=
201510032053 METAR KCLM 032053Z AUTO VRB04KT 10SM CLR 18/04 A3011 RMK AO2 SLP196 T01780044 57006=
201510031953 METAR KCLM 031953Z AUTO 11004KT 10SM CLR 17/05 A3012 RMK AO2 SLP199 T01720050=
201510031853 METAR KCLM 031853Z AUTO 08005KT 10SM CLR 17/04 A3012 RMK AO2 SLP199 T01720044=
201510031753 METAR KCLM 031753Z AUTO VRB06KT 10SM CLR 16/06 A3013 RMK AO2 SLP203 T01610061 10167 20056 55002=
201510031653 METAR KCLM 031653Z AUTO 12008KT 10SM CLR 16/07 A3012 RMK AO2 SLP201 T01560072=
201510031553 METAR KCLM 031553Z AUTO 00000KT 10SM CLR 11/09 A3013 RMK AO2 SLP203 T01060089=
201510031453 METAR KCLM 031453Z AUTO 22003KT 10SM CLR 07/06 A3013 RMK AO2 SLP205 T00670061 53007 $=
201510031353 METAR KCLM 031353Z AUTO 15005KT 10SM CLR 08/06 A3012 RMK AO2 SLP199 T00780061 $=
201510031253 METAR KCLM 031253Z AUTO 16007KT 6SM BR CLR 06/05 A3011 RMK AO2 SLP197 T00610050 $=
201510031153 METAR KCLM 031153Z AUTO 00000KT 9SM CLR 06/06 A3011 RMK AO2 SLP198 70003 T00610061 10111 20056 51002 $=
201510031053 METAR KCLM 031053Z AUTO 00000KT 10SM CLR 07/06 A3011 RMK AO2 SLP198 T00720061 $=
201510030953 METAR KCLM 030953Z AUTO 22005KT 10SM CLR 07/06 A3011 RMK AO2 SLP198 T00720061 $=
201510030900 METAR KCLM NIL=
201510030753 METAR KCLM 030753Z AUTO 17004KT 10SM CLR 08/08 A3010 RMK AO2 SLP194 T00830078 401610083 $=
201510030700 METAR KCLM NIL=
201510030600 METAR KCLM NIL=
201510030500 METAR KCLM NIL=
201510030400 METAR KCLM NIL=
201510030300 METAR KCLM NIL=
201510030238 SPECI KCLM 030238Z AUTO 28007KT 9SM BKN016 BKN070 12/09 A3010 RMK AO2 T01170089=
201510030153 METAR KCLM 030153Z AUTO 30008G15KT 8SM SCT010 12/09 A3009 RMK AO2 SLP192 T01170089=
201510030110 SPECI KCLM 030110Z AUTO 28014G21KT 10SM OVC009 13/11 A3008 RMK AO2 CIG 008V012 T01280106=
201510030053 METAR KCLM 030053Z AUTO 29008KT 10SM OVC011 13/11 A3008 RMK AO2 SLP187 T01330111=
201510030001 SPECI KCLM 030001Z AUTO 29008KT 10SM BKN013 BKN019 OVC032 14/12 A3009 RMK AO2 T01440117=
201510022353 METAR KCLM 022353Z AUTO 32006KT 10SM SCT011 BKN018 OVC032 14/12 A3010 RMK AO2 SLP191 T01440117 10161 20133 58013=
201510022320 SPECI KCLM 022320Z AUTO 32008KT 10SM SCT021 BKN035 OVC046 14/12 A3010 RMK AO2 T01440117=
201510022253 METAR KCLM 022253Z AUTO 31006KT 10SM BKN023 OVC028 16/12 A3011 RMK AO2 SLP196 T01560117=
201510022153 METAR KCLM 022153Z AUTO 31006KT 10SM OVC026 16/11 A3012 RMK AO2 SLP200 T01610111=
201510022053 METAR KCLM 022053Z AUTO 34004KT 10SM OVC022 15/12 A3013 RMK AO2 SLP204 T01500117 58013=
201510022036 SPECI KCLM 022036Z AUTO 34004KT 10SM SCT022 BKN028 16/12 A3014 RMK AO2 T01560117=
201510021953 METAR KCLM 021953Z AUTO 02004KT 10SM FEW024 SCT032 SCT110 14/12 A3016 RMK AO2 SLP212 T01440117=
201510021941 SPECI KCLM 021941Z AUTO 01004KT 10SM FEW018 SCT025 BKN110 14/11 A3016 RMK AO2 T01440111=
201510021934 SPECI KCLM 021934Z AUTO VRB04KT 10SM FEW018 BKN025 OVC110 14/11 A3016 RMK AO2 T01440111=
201510021853 METAR KCLM 021853Z AUTO 36005KT 10SM SCT110 16/11 A3017 RMK AO2 SLP217 T01560111=
201510021753 METAR KCLM 021753Z AUTO 01004KT 10SM CLR 14/11 A3017 RMK AO2 SLP218 T01440106 10150 20100 50001=
201510021653 METAR KCLM 021653Z AUTO 32003KT 10SM FEW120 14/11 A3019 RMK AO2 SLP222 T01390106=
201510021553 METAR KCLM 021553Z AUTO 25004KT 10SM FEW120 12/10 A3019 RMK AO2 SLP224 T01220100=
201510021453 METAR KCLM 021453Z AUTO 22005KT 10SM CLR 11/09 A3017 RMK AO2 SLP218 T01060089 50000=
201510021353 METAR KCLM 021353Z AUTO 00000KT 10SM CLR 11/09 A3018 RMK AO2 SLP220 T01060089 $=
201510021312 SPECI KCLM 021312Z AUTO 24005KT 10SM SCT007 11/10 A3018 RMK AO2 T01110100 $=
201510021253 METAR KCLM 021253Z AUTO 27006KT 10SM OVC007 12/11 A3018 RMK AO2 CIG 005V009 SLP220 T01170106 $=
201510021153 METAR KCLM 021153Z AUTO 28008KT 9SM OVC005 12/11 A3017 RMK AO2 SLP217 T01170106 10117 20100 53004 $=
201510021053 METAR KCLM 021053Z AUTO 27007KT 10SM OVC006 12/11 A3016 RMK AO2 SLP213 T01170106 $=
201510021009 SPECI KCLM 021009Z AUTO 29010KT 7SM OVC005 12/11 A3016 RMK AO2 CIG 003V007 T01170106 $=
201510020953 METAR KCLM 020953Z AUTO 29009KT 5SM BR OVC003 11/11 A3016 RMK AO2 SLP213 T01110106 $=
201510020919 SPECI KCLM 020919Z AUTO 29010KT 6SM BR OVC004 12/11 A3016 RMK AO2 T01170106 $=
201510020853 METAR KCLM 020853Z AUTO 29011KT 7SM OVC007 12/11 A3016 RMK AO2 CIG 004V009 SLP212 T01170106 53009 $=
201510020828 SPECI KCLM 020828Z AUTO 29011KT 10SM BKN008 12/10 A3016 RMK AO2 T01170100 $=
201510020820 SPECI KCLM 020820Z AUTO 29008KT 10SM SCT008 11/10 A3015 RMK AO2 T01110100 $=
201510020753 METAR KCLM 020753Z AUTO 29007KT 10SM CLR 11/09 A3015 RMK AO2 SLP208 T01110094 401670067 $=
201510020653 METAR KCLM 020653Z AUTO 29006KT 10SM CLR 11/10 A3014 RMK AO2 SLP205 T01110100 $=
201510020553 METAR KCLM 020553Z AUTO 29008KT 10SM CLR 11/10 A3013 RMK AO2 SLP203 T01110100 10139 20106 53012 $=
201510020453 METAR KCLM 020453Z AUTO 29007KT 10SM CLR 11/09 A3011 RMK AO2 SLP195 T01110094 $=
201510020353 METAR KCLM 020353Z AUTO 31005KT 10SM CLR 12/10 A3011 RMK AO2 SLP197 T01220100=
201510020253 METAR KCLM 020253Z AUTO 29007KT 10SM CLR 12/09 A3009 RMK AO2 SLP192 T01170094 53017=
201510020153 METAR KCLM 020153Z AUTO 28004KT 10SM CLR 11/09 A3007 RMK AO2 SLP185 T01060089=
201510020053 METAR KCLM 020053Z AUTO 29006KT 10SM CLR 13/10 A3005 RMK AO2 SLP178 T01330100=
201510012353 METAR KCLM 012353Z AUTO 30007KT 10SM CLR 13/10 A3004 RMK AO2 SLP175 T01330100 10167 20133 55000=
201510012253 METAR KCLM 012253Z AUTO 32004KT 10SM CLR 14/11 A3004 RMK AO2 SLP173 T01440106=
201510012153 METAR KCLM 012153Z AUTO 34006KT 10SM CLR 15/10 A3003 RMK AO2 SLP169 T01500100=
201510012053 METAR KCLM 012053Z AUTO 00000KT 10SM CLR 15/11 A3005 RMK AO2 SLP175 T01500106 55000=
201510011953 METAR KCLM 011953Z AUTO VRB03KT 10SM CLR 16/11 A3004 RMK AO2 SLP173 T01610106=
201510011853 METAR KCLM 011853Z AUTO 36005KT 10SM CLR 14/11 A3005 RMK AO2 SLP175 T01390106=
201510011753 METAR KCLM 011753Z AUTO 35003KT 10SM CLR 15/10 A3005 RMK AO2 SLP175 T01500100 10156 20067 50006=
201510011653 METAR KCLM 011653Z AUTO 01003KT 10SM CLR 14/09 A3005 RMK AO2 SLP176 T01390089=
201510011553 METAR KCLM 011553Z AUTO 00000KT 10SM CLR 12/09 A3004 RMK AO2 SLP173 T01170094=
201510011453 METAR KCLM 011453Z AUTO 22003KT 10SM CLR 08/07 A3003 RMK AO2 SLP169 T00780067 51009=
201510011353 METAR KCLM 011353Z AUTO 29004KT 10SM CLR 08/06 A3002 RMK AO2 SLP167 T00780061=
201510011253 METAR KCLM 011253Z AUTO 23004KT 10SM CLR 10/07 A3001 RMK AO2 SLP162 T01000072=
201510011153 METAR KCLM 011153Z AUTO 23005KT 10SM CLR 09/07 A3000 RMK AO2 SLP159 T00940072 10117 20083 58000=
201510011053 METAR KCLM 011053Z AUTO 22005KT 10SM CLR 09/08 A3001 RMK AO2 SLP162 T00890078=
201510010953 METAR KCLM 010953Z AUTO 00000KT 10SM CLR 08/07 A3001 RMK AO2 SLP164 T00830072=
201510010853 METAR KCLM 010853Z AUTO 23004KT 10SM CLR 08/07 A3000 RMK AO2 SLP161 T00830072 53001=
201510010753 METAR KCLM 010753Z AUTO 25004KT 10SM CLR 11/09 A3000 RMK AO2 SLP158 T01060089 401670061=
201510010653 METAR KCLM 010653Z AUTO 27007KT 10SM CLR 12/09 A3000 RMK AO2 SLP158 T01170094=
201510010553 METAR KCLM 010553Z AUTO 25005KT 10SM CLR 11/09 A3000 RMK AO2 SLP159 T01060089 10156 20083 53010=
201510010453 METAR KCLM 010453Z AUTO 00000KT 10SM CLR 09/08 A2998 RMK AO2 SLP154 T00940078=
201510010353 METAR KCLM 010353Z AUTO 20003KT 10SM CLR 10/09 A2998 RMK AO2 SLP153 T01000089=
201510010253 METAR KCLM 010253Z AUTO 24003KT 10SM CLR 12/09 A2997 RMK AO2 SLP150 T01170094 55008=
201510010153 METAR KCLM 010153Z AUTO 28004KT 10SM CLR 13/10 A2997 RMK AO2 SLP150 T01330100=
201510010053 METAR KCLM 010053Z AUTO 31005KT 10SM CLR 15/10 A2999 RMK AO2 SLP155 T01500100=

# No short TAF reports from KCLM in databse.

###################################
#  large TAF from KCLM
###################################
201510312334 TAF KCLM 312334Z 0100/0124 28012KT P6SM -SHRA SCT025 OVC040 FM010800
                       27013G22KT P6SM -SHRA BKN035 OVC050 FM011200
                       27010KT P6SM -SHRA BKN035 OVC050 FM012000
                       29015G25KT P6SM -SHRA BKN030 OVC040=
201510311729 TAF KCLM 311729Z 3118/0118 28012G22KT P6SM -SHRA SCT010 BKN025
                       OVC035
                      TEMPO 3118/3119 VRB04KT 1SM +RA BR SCT002
                       OVC010 FM312000 28013G23KT P6SM -SHRA SCT025
                       OVC040 FM011000 27008KT P6SM -SHRA BKN035
                       OVC050 FM011400 27008KT P6SM -SHRA BKN030
                       OVC040=
201510311628 TAF AMD KCLM 311628Z 3116/0112 VRB04KT 5SM -RA BR SCT015 BKN025
                       OVC040
                      TEMPO 3116/3117 1SM +RA BR OVC018 FM311800
                       29015G25KT P6SM VCSH BKN050 FM011000 23008KT
                       P6SM -SHRA SCT035 OVC050=
201510311135 TAF KCLM 311135Z 3112/0112 21005KT 5SM -RA BR SCT030 OVC040 FM311800
                       29012G20KT P6SM VCSH BKN050 FM011000 23004KT
                       P6SM -SHRA SCT035 OVC050=
201510310550 TAF KCLM 310550Z 3106/0106 21005KT 5SM -RA BR SCT015 OVC020 FM311100
                       26007KT P6SM -SHRA SCT030 OVC045 FM312000
                       29012G20KT P6SM VCSH BKN050=
201510302320 TAF KCLM 302320Z 3100/3124 30015G25KT P6SM SCT040 OVC100 FM310500
                       27008KT 6SM -RA BR BKN022 OVC035 FM310900
                       24006KT 4SM -RA OVC015 FM311700 28010KT
                       P6SM -SHRA BKN020 BKN050=
201510301720 TAF KCLM 301720Z 3018/3118 30010G20KT 6SM -SHRA BR OVC040 FM302000
                       27012KT P6SM SCT020 BKN040 OVC100 FM310300
                       27008KT P6SM -RA BKN022 OVC035 FM310900
                       VRB03KT 3SM -RA OVC015=
201510301138 TAF KCLM 301138Z 3012/3112 VRB03KT 4SM -RA BR SCT040 OVC070 FM301600
                       VRB03KT 5SM -RA BR OVC040 FM301900 27012KT
                       P6SM SCT020 BKN040 OVC100 FM310400 VRB03KT
                       P6SM -RA OVC035 FM310900 VRB03KT 3SM -RA
                       OVC015=
201510300539 TAF KCLM 300539Z 3006/3106 VRB03KT 4SM BR SCT025 BKN040 OVC060
                       FM301000 VRB03KT P6SM -RA SCT020 OVC035
                       FM301400 VRB03KT 5SM -RA BR BKN015 OVC030
                       FM302100 27009KT P6SM VCSH SCT020 BKN040
                       OVC100 FM310400 VRB03KT P6SM -RA OVC020=
201510292341 TAF KCLM 292341Z 3000/3024 VRB03KT 4SM BR OVC012 FM300500 VRB03KT
                       2SM BR OVC006 FM300900 VRB03KT 5SM BR BKN006
                       OVC012
                      TEMPO 3009/3012 -RA FM301200 23005KT 3SM
                       -RA BR BKN006 OVC012 FM301800 27009KT 5SM
                       -RA BR BKN015 OVC030 FM302100 27009KT P6SM
                       VCSH BKN028 BKN050 OVC100
                      TEMPO 3021/3024 -RA=
201510292012 TAF AMD KCLM 292012Z 2920/3018 VRB03KT 6SM BR VCSH SCT009 BKN020
                       BKN070
                      TEMPO 2920/2924 4SM BR BKN009 OVC020 FM300000
                       VRB03KT P6SM SCT020 BKN070 OVC130 FM300600
                       VRB03KT P6SM VCSH BKN020 OVC040
                      TEMPO 3008/3012 -RA FM301200 VRB03KT 3SM
                       -RA BR SCT003 OVC010=
201510291853 TAF AMD KCLM 291853Z 2919/3018 VRB03KT P6SM VCSH SCT009 BKN020
                       BKN070
                      TEMPO 2919/2923 BKN009 OVC020 FM300000 VRB03KT
                       P6SM SCT020 BKN070 OVC130 FM300600 VRB03KT
                       P6SM VCSH BKN020 OVC040
                      TEMPO 3008/3012 -RA FM301200 VRB03KT 3SM
                       -RA BR SCT003 OVC010=
201510291745 TAF KCLM 291745Z 2918/3018 00000KT P6SM SCT015 BKN070 BKN200
                      TEMPO 2918/2920 BKN015 OVC070 FM300600 00000KT
                       P6SM -RA SCT020 BKN035 OVC050=
201510291135 TAF KCLM 291135Z 2912/3012 00000KT P6SM SCT025 BKN045 OVC060
                      TEMPO 2912/2916 5SM -SHRA BKN025 OVC045 FM300600
                       00000KT P6SM -RA SCT020 BKN035 OVC050=
201510290541 TAF KCLM 290541Z 2906/3006 VRB03KT P6SM SCT020 OVC040
                      TEMPO 2906/2909 4SM -RA BKN020 OVC040 FM291000
                       00000KT 4SM BR BKN006 OVC012 FM291700 00000KT
                       P6SM BKN012 OVC020 FM292200 00000KT P6SM
                       SCT020 BKN035 OVC050=
201510282344 TAF KCLM 282344Z 2900/2924 VRB03KT P6SM FEW020 SCT060 BKN110 FM290100
                       VRB03KT 5SM -RA BR BKN007 OVC015 FM290900
                       00000KT 3SM BR OVC005=
201510282309 TAF AMD KCLM 282309Z 2823/2918 VRB03KT P6SM FEW020 SCT060 BKN110
                       FM290100 VRB03KT 5SM -RA BR BKN007 OVC015
                       FM290900 00000KT 3SM BR OVC005=
201510282030 TAF AMD KCLM 282030Z 2821/2918 VRB03KT 6SM BR SCT006 BKN020 OVC040
                       TEMPO 2821/2824 4SM -RA BR BKN006 OVC020
                       FM290000 VRB03KT 5SM -RA BR BKN007 OVC015
                       FM290900 00000KT 3SM BR OVC005=
201510281840 TAF AMD KCLM 281840Z 2819/2918 VRB03KT 5SM -RA BR FEW007 SCT020
                       OVC040
                      TEMPO 2819/2823 2SM -RA BR FEW007 OVC020
                       FM290000 VRB03KT 5SM -RA BR BKN007 OVC015
                       FM290900 00000KT 3SM BR OVC005=
201510281745 TAF KCLM 281745Z 2818/2918 VRB03KT P6SM FEW007 OVC015
                      TEMPO 2818/2820 -RA FM290000 VRB03KT 5SM
                       -RA BR BKN007 OVC015 FM290900 00000KT 3SM
                       BR OVC005=
201510281649 TAF AMD KCLM 281649Z 2817/2912 VRB03KT 6SM -RA BR BKN011 OVC030
                       TEMPO 2817/2819 4SM -RA BR BKN008 OVC020
                       FM282000 29004KT P6SM -SHRA OVC040 FM290300
                       24005KT 6SM BR VCSH OVC025=
201510281435 TAF AMD KCLM 281435Z 2815/2912 VRB03KT P6SM BKN009 OVC028
                      TEMPO 2815/2818 4SM -RA BR FM282000 29004KT
                       P6SM -SHRA OVC040 FM290300 24005KT 6SM BR
                       VCSH OVC025=
201510281120 TAF KCLM 281120Z 2812/2912 00000KT 6SM BR SCT010 BKN070 OVC200
                       TEMPO 2812/2813 5SM -RA BR SCT010 BKN050
                       FM281300 VRB03KT 5SM -RA BKN022 OVC040 FM282000
                       29004KT P6SM -SHRA OVC040 FM290300 24005KT
                       6SM BR VCSH OVC025=
201510280520 TAF KCLM 280520Z 2806/2906 00000KT 5SM BR SCT010 BKN100 OVC200
                       FM281300 VRB03KT 5SM -RA BKN015 OVC040 FM282000
                       29004KT P6SM -SHRA OVC040=
201510272332 TAF KCLM 272332Z 2800/2824 09003KT P6SM OVC022 FM280100 12001KT
                       P6SM OVC120 FM280300 00000KT P6SM OVC060
                       FM281200 VRB03KT 5SM -RA OVC040 FM282000
                       29004KT P6SM -SHRA OVC040=
201510271739 TAF KCLM 271739Z 2718/2818 VRB03KT 3SM BR OVC002 FM271900 08004KT
                       P6SM SCT003 OVC009 FM272100 14002KT P6SM
                       FEW020 BKN250 FM281000 VRB03KT 2SM BR OVC030
                       FM281400 16002KT 2SM -RA BR OVC019=
201510271506 TAF AMD KCLM 271506Z 2715/2812 09005KT 0SM FG VV001
                      TEMPO 2715/2717 3SM BR SCT002 FM271700 10004KT
                       3SM BR BKN006 BKN250 FM271900 09005KT P6SM
                       BKN022 OVC200 FM272000 VRB04KT P6SM SCT030
                       SCT120 OVC200 FM280200 VRB04KT P6SM SCT120
                       OVC200 FM280400 VRB04KT P6SM BKN120 OVC200
                       FM281100 VRB04KT P6SM -RA BKN060 OVC100=
201510271132 TAF KCLM 271132Z 2712/2812 VRB03KT 2SM BR OVC003
                      TEMPO 2712/2716 1/4SM FG VV002 FM271700 10004KT
                       3SM BR BKN006 BKN250 FM271900 09005KT P6SM
                       BKN022 OVC200 FM272000 VRB04KT P6SM SCT030
                       SCT120 OVC200 FM280200 VRB04KT P6SM SCT120
                       OVC200 FM280400 VRB04KT P6SM BKN120 OVC200
                       FM281100 VRB04KT P6SM -RA BKN060 OVC100=
201510271127 TAF KCLM 271127Z 2712/2812 VRB03KT 2SM BR OVC003
                      TEMPO 2712/2716 1/2SM FG VV002 FM271700 10004KT
                       3SM BR BKN006 BKN250 FM271900 09005KT P6SM
                       BKN022 OVC200 FM272000 VRB04KT P6SM SCT030
                       SCT120 OVC200 FM280200 VRB04KT P6SM SCT120
                       OVC200 FM280400 VRB04KT P6SM BKN120 OVC200
                       FM281100 VRB04KT P6SM -RA BKN060 OVC100=
201510270910 TAF AMD KCLM 270910Z 2709/2806 VRB03KT 3SM BR SCT003 OVC012
                      TEMPO 2709/2712 1/4SM -DZ FG VV002 FM271200
                       VRB03KT 2SM BR OVC003
                      TEMPO 2712/2716 1/4SM FG VV002 FM271800 10004KT
                       3SM BR BKN006 OVC250 FM272000 09005KT P6SM
                       BKN022 OVC200 FM280000 VRB04KT P6SM SCT030
                       SCT120 OVC200 FM280300 VRB03KT 5SM BR BKN025
                       OVC150=
201510270757 TAF AMD KCLM 270757Z 2708/2806 VRB03KT 3SM BR SCT003 OVC012
                      TEMPO 2708/2710 2SM BR OVC003 FM271000 VRB03KT
                       2SM BR OVC003
                      TEMPO 2712/2716 1/2SM FG VV002 FM271800 10004KT
                       3SM BR BKN006 OVC250 FM272000 09005KT P6SM
                       BKN022 OVC200 FM280000 VRB04KT P6SM SCT030
                       SCT120 OVC200 FM280300 VRB03KT 5SM BR BKN025
                       OVC150=
201510270520 TAF KCLM 270520Z 2706/2806 VRB03KT 4SM BR SCT006 BKN025 FM270900
                       VRB03KT 2SM BR OVC006
                      TEMPO 2712/2716 1/2SM FG VV002 FM271800 10004KT
                       3SM BR BKN006 OVC250 FM272000 09005KT P6SM
                       BKN022 OVC200 FM280000 VRB04KT P6SM SCT030
                       SCT120 OVC200 FM280300 VRB03KT 5SM BR BKN025
                       OVC150=
201510270402 TAF AMD KCLM 270402Z 2704/2724 VRB03KT 4SM BR OVC025
                      TEMPO 2704/2706 3SM BR SCT006 OVC025 FM270600
                       VRB03KT 3SM BR OVC006 FM271000 VRB03KT 2SM
                       BR OVC003
                      TEMPO 2712/2716 1/2SM FG VV002 FM271800 10004KT
                       P6SM OVC250=
201510270302 TAF AMD KCLM 270302Z 2703/2724 VRB03KT 2SM BR OVC002
                      TEMPO 2703/2707 1/4SM FG VV001 FM270700 VRB03KT
                       1/4SM FG VV001 FM271300 VRB03KT 2SM BR OVC001
                       FM271800 10004KT P6SM OVC250=
201510262326 TAF KCLM 262326Z 2700/2724 00000KT P6SM OVC024 FM270300 VRB03KT
                       5SM BR OVC010 FM271300 VRB03KT 2SM BR OVC001
                       FM271800 10004KT P6SM OVC250=
201510262010 TAF AMD KCLM 262010Z 2620/2718 03004KT P6SM OVC014
                      TEMPO 2622/2702 SCT015 FM270300 VRB03KT 5SM
                       BR OVC009 FM271100 VRB03KT 4SM BR OVC004
                       TEMPO 2712/2716 1/2SM FG=
201510261726 TAF KCLM 261726Z 2618/2718 34004KT 5SM BR OVC006 FM262000 VRB03KT
                       P6SM SCT010 FM270300 VRB03KT 5SM BR OVC009
                       FM271100 VRB03KT 4SM BR OVC004
                      TEMPO 2712/2716 1/2SM FG=
201510261257 TAF AMD KCLM 261257Z 2613/2712 00000KT P6SM VCSH OVC007 FM262000
                       24005KT 6SM BR BKN006 OVC015 FM270300 VRB03KT
                       5SM BR OVC006 FM270900 VRB03KT 4SM BR OVC003=
201510261120 TAF KCLM 261120Z 2612/2712 VRB04KT 6SM BR VCSH OVC004 FM262000
                       24005KT 6SM BR BKN006 OVC015 FM270300 VRB03KT
                       5SM BR OVC006 FM270900 VRB03KT 4SM BR OVC003=
201510261033 TAF AMD KCLM 261033Z 2611/2706 VRB04KT P6SM -SHRA BKN006 OVC050
                       TEMPO 2611/2612 4SM -SHRA BR OVC004 FM261200
                       VRB04KT 4SM BR VCSH OVC003 FM262000 24005KT
                       5SM BR BKN006 OVC015=
201510261003 TAF AMD KCLM 261003Z 2610/2706 VRB04KT P6SM -SHRA SCT006 OVC050
                       TEMPO 2610/2612 4SM -SHRA BR OVC006 FM261200
                       VRB04KT 6SM BR VCSH OVC006 FM261800 26007KT
                       P6SM VCSH SCT010 OVC020=
201510260706 TAF AMD KCLM 260706Z 2607/2706 VRB04KT 6SM -SHRA BR SCT004 OVC050
                       TEMPO 2607/2610 4SM BR BKN004 OVC050 FM261000
                       VRB04KT P6SM -SHRA BKN020 OVC040 FM261500
                       26007KT P6SM VCSH BKN025 BKN050=
201510260527 TAF KCLM 260527Z 2606/2706 VRB04KT 6SM -SHRA BR SCT020 OVC050 FM260900
                       VRB04KT P6SM -RA BKN020 OVC040 FM261500
                       26007KT P6SM VCSH BKN025 BKN050=
201510252320 TAF KCLM 252320Z 2600/2624 10006KT P6SM OVC080 FM260400 09007KT
                       5SM -RA BR SCT020 OVC040 FM260800 VRB04KT
                       P6SM -RA BKN020 OVC040 FM261500 27007KT
                       P6SM VCSH BKN025 BKN050=
201510251720 TAF KCLM 251720Z 2518/2618 VRB04KT P6SM SCT050 BKN100 FM260000
                       VRB04KT P6SM -SHRA BKN030 OVC100 FM261000
                       28008KT P6SM VCSH BKN025 BKN050=
201510251336 TAF AMD KCLM 251336Z 2514/2612 20005KT 5SM BR BKN090 FM251800 10005KT
                       P6SM -SHRA FEW020 BKN060 OVC100 FM260300
                       13005KT 5SM BR VCSH BKN020 OVC070 FM260600
                       23005KT 5SM BR OVC018=
201510251133 TAF AMD KCLM 251133Z 2512/2612 VRB04KT 3SM BR VCSH SCT006 BKN060
                       OVC100
                      TEMPO 2512/2515 1/2SM FG OVC006 FM251800
                       10005KT P6SM -SHRA FEW020 BKN060 OVC100
                       FM260300 13005KT 5SM BR VCSH BKN020 OVC070
                       FM260600 23005KT 5SM BR OVC018=
201510251125 TAF KCLM 251125Z 2512/2612 VRB04KT 5SM BR VCSH SCT006 BKN060 OVC100
                       TEMPO 2512/2515 1SM BR OVC006 FM251800 10005KT
                       P6SM -SHRA FEW020 BKN060 OVC100 FM260300
                       13005KT 5SM BR VCSH BKN020 OVC070 FM260600
                       23005KT 5SM BR OVC018=
201510251120 TAF KCLM 251120Z 2512/2612 VRB04KT 5SM BR VCSH SCT006 BKN060 OVC100
                       TEMPO 2512/2515 2SM BR FEW006 BKN060 OVC100
                       FM251800 10005KT P6SM -SHRA FEW020 BKN060
                       OVC100 FM260300 13005KT 5SM BR VCSH BKN020
                       OVC070 FM260600 23005KT 5SM BR OVC018=
201510250851 TAF AMD KCLM 250851Z 2509/2606 09007KT 4SM BR VCSH SCT012 BKN060
                       OVC100
                      TEMPO 2510/2514 2SM BR FEW005 OVC012 FM251900
                       09005KT P6SM -SHRA FEW020 BKN070 OVC100
                       FM260300 13005KT 5SM BR VCSH BKN020 OVC070=
201510250520 TAF KCLM 250520Z 2506/2606 VRB04KT 5SM BR VCSH SCT012 BKN120 FM250900
                       09007KT 4SM -SHRA BR SCT012 BKN050 OVC100
                       TEMPO 2510/2514 3SM -SHRA BR FEW005 OVC012
                       FM251900 09005KT P6SM -SHRA FEW020 BKN070
                       OVC100 FM260300 13005KT 5SM BR VCSH BKN020
                       OVC070=
201510242320 TAF KCLM 242320Z 2500/2524 09007KT P6SM SCT010 BKN120
                      TEMPO 2500/2504 5SM BR BKN010 OVC100 FM251000
                       09007KT P6SM BKN012 BKN050 OVC100 FM251900
                       09006KT P6SM -RA SCT020 BKN050 OVC100=
201510242105 TAF AMD KCLM 242105Z 2421/2518 09006KT P6SM BKN015 BKN100
                      TEMPO 2421/2424 3SM BR BKN007 OVC100 FM250000
                       09006KT P6SM SCT015 BKN150
                      TEMPO 2508/2512 BKN015 OVC120 FM251200 09006KT
                       P6SM BKN015 BKN050 OVC100=
201510241929 TAF AMD KCLM 241929Z 2419/2518 VRB03KT 5SM BR SCT007 BKN020 OVC070
                       TEMPO 2419/2421 2SM -RA BR BKN007 OVC015
                       FM250000 VRB03KT P6SM SCT015 BKN150
                      TEMPO 2508/2512 BKN015 OVC120 FM251200 09006KT
                       P6SM BKN015 BKN050 OVC100=
201510241720 TAF KCLM 241720Z 2418/2518 VRB03KT 5SM BR SCT015 OVC100
                      TEMPO 2418/2421 BKN015 OVC100 FM250300 VRB03KT
                       P6SM SCT010 BKN150
                      TEMPO 2508/2512 BKN010 OVC120 FM251200 09006KT
                       P6SM BKN010 BKN050 OVC100=
201510241612 TAF AMD KCLM 241612Z 2416/2512 VRB03KT 5SM BR BKN012 BKN020 OVC100
                       FM242000 04006KT P6SM SCT020 OVC100
                      TEMPO 2420/2424 BKN015 OVC100 FM250300 VRB03KT
                       P6SM SCT010 BKN150
                      TEMPO 2507/2510 BKN010 OVC120 FM251000 09006KT
                       P6SM BKN010 OVC100=
201510241123 TAF KCLM 241123Z 2412/2512 VRB03KT P6SM SCT012 SCT150 OVC200
                      TEMPO 2412/2415 4SM BR OVC012 FM241600 04006KT
                       P6SM BKN100 OVC200 FM250300 VRB03KT P6SM
                       SCT150=
201510240902 TAF AMD KCLM 240902Z 2409/2506 13004KT P6SM BKN200 FM241000 VRB03KT
                       5SM BR SCT005 BKN200
                      TEMPO 2411/2415 2SM BR BKN002 FM241700 04006KT
                       P6SM BKN120 BKN200 FM250300 VRB03KT P6SM
                       SCT150=
201510240520 TAF KCLM 240520Z 2406/2506 VRB03KT 5SM BR SCT200
                      TEMPO 2409/2412 2SM BR BKN002 FM241200 VRB03KT
                       2SM BR BKN002 FM241800 04006KT P6SM BKN120
                       BKN200
                      TEMPO 2421/2501 -RA OVC080 FM250300 VRB03KT
                       P6SM SCT150=
201510232320 TAF KCLM 232320Z 2400/2424 VRB03KT P6SM SCT200
                      TEMPO 2412/2416 2SM BR BKN002 FM241800 04007KT
                       P6SM BKN200=
201510231922 TAF AMD KCLM 231922Z 2319/2418 00000KT P6SM SCT011 OVC200
                      TEMPO 2319/2321 4SM BR BKN011 FM240000 VRB03KT
                       P6SM OVC200
                      TEMPO 2412/2416 3SM BR BKN003=
201510231720 TAF KCLM 231720Z 2318/2418 00000KT P6SM SCT005 OVC200
                      TEMPO 2318/2321 4SM BR BKN005 FM240000 VRB03KT
                       P6SM OVC200
                      TEMPO 2412/2416 3SM BR BKN003=
201510231401 TAF AMD KCLM 231401Z 2314/2412 00000KT P6SM SCT004 BKN200
                      TEMPO 2314/2318 4SM BR BKN004 OVC200 FM240000
                       24004KT P6SM OVC200=
201510231248 TAF AMD KCLM 231248Z 2313/2412 00000KT P6SM BKN200 FM240000 24004KT
                       P6SM OVC200=
201510231123 TAF KCLM 231123Z 2312/2412 VRB04KT P6SM BKN250
                      TEMPO 2312/2316 3SM BR SCT001 FM240000 24004KT
                       P6SM OVC200=
201510230540 TAF KCLM 230540Z 2306/2406 24005KT P6SM SCT250 FM231000 VRB04KT
                       P6SM BKN250=
201510222322 TAF KCLM 222322Z 2300/2324 24003KT P6SM BKN250 FM231800 07005KT
                       P6SM BKN250=
201510221724 TAF KCLM 221724Z 2218/2318 24007KT P6SM SKC FM230000 25004KT P6SM
                       BKN250=
201510221124 TAF KCLM 221124Z 2212/2312 26008KT P6SM FEW001
                      TEMPO 2212/2216 1/2SM FG BKN001 FM221700
                       33004KT P6SM SCT050 FM230000 25004KT P6SM
                       BKN250=
201510220757 TAF AMD KCLM 220757Z 2208/2306 26005KT P6SM SKC
                      TEMPO 2211/2215 1/2SM FG BKN001 FM221700
                       33004KT P6SM BKN050 FM221900 34006KT P6SM
                       SCT050=
201510220520 TAF KCLM 220520Z 2206/2306 26005KT 1/2SM FG VV002 FM221700 33004KT
                       P6SM BKN050 FM221900 34006KT P6SM SCT050=
201510220219 TAF AMD KCLM 220219Z 2202/2224 26005KT 1/2SM FG VV002 FM221700
                       33004KT P6SM BKN050 FM221900 34006KT P6SM
                       SCT050=
201510212321 TAF KCLM 212321Z 2200/2224 26005KT P6SM BKN020 OVC050 FM221200
                       27006KT 4SM BR OVC015 FM221700 33004KT P6SM
                       BKN050 FM221900 34006KT P6SM SCT050=
201510211724 TAF KCLM 211724Z 2118/2218 11003KT P6SM BKN100 BKN250 FM212000
                       31005KT P6SM BKN050 BKN100
                      TEMPO 2120/2124 -SHRA FM220000 27007KT P6SM
                       BKN030 BKN100=
201510211120 TAF KCLM 211120Z 2112/2212 VRB04KT P6SM FEW004 BKN250
                      TEMPO 2112/2116 2SM BR BKN004 FM212000 31005KT
                       P6SM BKN050 BKN100
                      TEMPO 2120/2124 -SHRA FM220000 27007KT P6SM
                       BKN030 BKN100=
201510210520 TAF KCLM 210520Z 2106/2206 VRB03KT P6SM SKC FM210900 VRB03KT 2SM
                       BR BKN006 FM211600 27004KT P6SM SCT020 BKN100
                       FM212000 31005KT P6SM BKN025 BKN060
                      TEMPO 2120/2124 -SHRA FM220000 27007KT P6SM
                       BKN030 BKN100=
201510202320 TAF KCLM 202320Z 2100/2124 VRB03KT P6SM FEW035 SCT250 FM210900
                       VRB03KT 2SM BR BKN006 FM211600 27004KT P6SM
                       SCT020 BKN100 FM212000 31005KT P6SM BKN025
                       BKN060
                      TEMPO 2120/2124 -SHRA=
201510201926 TAF AMD KCLM 201926Z 2019/2118 VRB05KT P6SM BKN015 FM202100 07004KT
                       P6SM SCT020 SCT050 FM210100 VRB03KT P6SM
                       FEW050 SCT250 FM210900 VRB03KT 2SM BR BKN006=
201510201720 TAF KCLM 201720Z 2018/2118 10003KT 2SM BR SCT002 BKN020
                      TEMPO 2018/2020 1/2SM FG VV002 FM202100 07004KT
                       P6SM SCT020 SCT050 FM210100 VRB03KT P6SM
                       FEW050 SCT250 FM210900 VRB03KT 2SM BR BKN006=
201510201322 TAF AMD KCLM 201322Z 2013/2112 00000KT P6SM OVC008
                      TEMPO 2013/2016 2SM BR BKN001 OVC008 FM201900
                       07004KT P6SM SCT020 BKN050 FM202100 07004KT
                       P6SM SCT050 FM210900 VRB03KT 2SM BR BKN006=
201510201121 TAF KCLM 201121Z 2012/2112 00000KT 1SM BR SCT003 OVC020
                      TEMPO 2012/2016 1/2SM FG BKN001 OVC008 FM201900
                       07004KT P6SM SCT020 BKN050 FM202100 07004KT
                       P6SM SCT050 FM210900 VRB03KT 2SM BR BKN006=
201510201002 TAF AMD KCLM 201002Z 2010/2106 23003KT 5SM BR SCT003 OVC035
                      TEMPO 2010/2014 1/2SM FG VV001 FM201900 07004KT
                       P6SM BKN015 BKN040 FM202100 07004KT P6SM
                       SCT050=
201510200759 TAF AMD KCLM 200759Z 2008/2106 23003KT 5SM BR SCT003 OVC035
                      TEMPO 2010/2014 BKN003 FM201900 07004KT P6SM
                       BKN015 BKN040 FM202100 07004KT P6SM SCT050=
201510200520 TAF KCLM 200520Z 2006/2106 23003KT 3SM BR OVC003 FM201900 07004KT
                       P6SM BKN015 BKN040 FM202100 07004KT P6SM
                       SCT050=
201510192322 TAF KCLM 192322Z 2000/2024 23003KT 5SM BR OVC006 FM201900 07004KT
                       P6SM BKN015 BKN040 FM202100 07004KT P6SM
                       SCT050=
201510192110 TAF AMD KCLM 192110Z 1921/2018 08004KT 1/4SM FG VV002 FM200300
                       27005KT P6SM BKN020 OVC040 FM201000 24004KT
                       4SM BR BKN010 OVC020=
201510191721 TAF KCLM 191721Z 1918/2018 00000KT P6SM BKN025 OVC060 FM200300
                       27005KT P6SM BKN020 OVC040 FM201000 24004KT
                       4SM BR BKN010 OVC020=
201510191120 TAF KCLM 191120Z 1912/2012 VRB04KT P6SM VCSH OVC020 FM191600 VRB03KT
                       5SM -RA BR BKN015 OVC030 FM192000 29004KT
                       P6SM BKN020 BKN040 FM200400 27004KT P6SM
                       OVC012 FM200700 VRB03KT 4SM BR OVC005=
201510190527 TAF KCLM 190527Z 1906/2006 VRB03KT P6SM BKN025 OVC070 FM190800
                       23003KT P6SM OVC012 FM191600 VRB03KT 5SM
                       -RA BR BKN015 OVC030 FM191900 29004KT P6SM
                       BKN020 BKN040=
201510182324 TAF KCLM 182324Z 1900/1924 VRB03KT P6SM BKN035 OVC070 FM190500
                       VRB03KT P6SM BKN025 OVC070 FM190800 23003KT
                       P6SM OVC012 FM191600 VRB03KT 5SM -RA BR
                       BKN015 OVC030 FM191900 29004KT P6SM BKN020
                       BKN040=
201510181728 TAF KCLM 181728Z 1818/1918 VRB03KT P6SM BKN035 OVC070 FM190300
                       VRB03KT P6SM BKN025 OVC070 FM190900 23003KT
                       P6SM OVC012=
201510181524 TAF AMD KCLM 181524Z 1815/1912 00000KT P6SM SCT007 SCT025 BKN100
                       TEMPO 1815/1818 2SM BR BKN007 BKN025 OVC100
                       FM181800 VRB03KT P6SM BKN025 BKN100 FM190700
                       23003KT P6SM OVC007=
201510181428 TAF AMD KCLM 181428Z 1814/1912 00000KT P6SM SCT026 BKN100
                      TEMPO 1814/1817 2SM BR BKN020 OVC100 FM181700
                       34004KT P6SM OVC015 FM190700 23003KT P6SM
                       OVC007=
201510181120 TAF KCLM 181120Z 1812/1912 20003KT P6SM OVC026
                      TEMPO 1812/1814 BKN007 FM181400 34004KT P6SM
                       OVC015 FM190700 23003KT P6SM OVC007=
201510180521 TAF KCLM 180521Z 1806/1906 00000KT P6SM OVC010
                      TEMPO 1811/1814 BKN007 FM181400 34004KT P6SM
                       OVC015 FM181900 32003KT P6SM BKN015=
201510180240 TAF AMD KCLM 180240Z 1803/1824 00000KT P6SM VCSH SCT007 BKN010
                       OVC040 FM181200 VRB03KT 5SM BR OVC012 FM181900
                       29005KT P6SM BKN018 OVC030=
201510172321 TAF KCLM 172321Z 1800/1824 VRB03KT P6SM VCSH SCT045 BKN090 FM180200
                       VRB03KT P6SM VCSH SCT015 BKN045 FM180800
                       VRB03KT P6SM VCSH BKN015 OVC040 FM181200
                       VRB03KT 5SM BR OVC012 FM181900 29005KT P6SM
                       BKN018 OVC030=
201510171722 TAF KCLM 171722Z 1718/1818 VRB03KT P6SM VCSH SCT045 BKN100 FM180200
                       VRB03KT P6SM VCSH BKN015 OVC045 FM181200
                       VRB03KT P6SM OVC012=
201510171516 TAF AMD KCLM 171516Z 1715/1812 VRB03KT P6SM BKN100
                      TEMPO 1715/1718 4SM BR SCT003 BKN100 FM171800
                       VRB03KT P6SM VCSH SCT025 OVC050 FM180000
                       VRB03KT P6SM VCSH OVC015=
201510171257 TAF KCLM 171257Z 1713/1812 00000KT P6SM SKC FM171800 VRB03KT P6SM
                       VCSH SCT025 OVC050 FM180000 VRB03KT P6SM
                       VCSH OVC015=
201510170520 TAF KCLM 170520Z 1706/1806 00000KT P6SM BKN150 FM171200 VRB03KT
                       P6SM BKN050 OVC080 FM171800 VRB03KT P6SM
                       VCSH SCT025 OVC050 FM180000 VRB03KT P6SM
                       VCSH OVC015=
201510162320 TAF KCLM 162320Z 1700/1724 VRB03KT P6SM BKN140 FM171200 VRB03KT
                       P6SM VCSH BKN050 OVC080 FM171800 VRB03KT
                       P6SM VCSH BKN025 OVC050=
201510161741 TAF KCLM 161741Z 1618/1718 07004KT P6SM SCT250 FM170300 21003KT
                       P6SM BKN140 FM171200 VRB03KT P6SM -SHRA
                       BKN100=
201510161120 TAF KCLM 161120Z 1612/1712 00000KT P6SM SCT200 FM161800 08004KT
                       P6SM SCT100 SCT200 FM170200 VRB03KT P6SM
                       SCT060 OVC100=
201510160525 TAF KCLM 160525Z 1606/1706 22003KT P6SM SCT250 FM161800 08004KT
                       P6SM SCT100 SCT250 FM170200 VRB03KT P6SM
                       SCT060 OVC100=
201510152320 TAF KCLM 152320Z 1600/1624 15005KT P6SM SKC FM161800 08004KT P6SM
                       SCT100 SCT250=
201510151720 TAF KCLM 151720Z 1518/1618 15005KT P6SM SKC=
201510151120 TAF KCLM 151120Z 1512/1612 15005KT P6SM SKC=
201510150522 TAF KCLM 150522Z 1506/1606 13005KT P6SM SCT250=
201510142320 TAF KCLM 142320Z 1500/1524 08007KT P6SM BKN250 FM150600 VRB03KT
                       P6SM SKC=
201510141917 TAF AMD KCLM 141917Z 1419/1518 13006KT P6SM BKN020
                      TEMPO 1419/1421 SCT020 FM142100 VRB03KT P6SM
                       SCT250 FM150000 06006KT P6SM SKC=
201510141726 TAF KCLM 141726Z 1418/1518 VRB03KT P6SM OVC008
                      TEMPO 1420/1422 BKN010 FM142200 VRB03KT P6SM
                       SCT010 SCT250 FM150000 06006KT P6SM SKC=
201510141632 TAF AMD KCLM 141632Z 1417/1512 25004KT P6SM BKN008 FM142100 VRB03KT
                       P6SM SCT010 SCT250 FM150000 06006KT P6SM
                       SKC=
201510141301 TAF AMD KCLM 141301Z 1413/1512 23006KT P6SM SCT250 FM141800 09008KT
                       P6SM SCT250=
201510141120 TAF KCLM 141120Z 1412/1512 23006KT P6SM SKC
                      TEMPO 1412/1416 1/2SM FG FM141800 09008KT
                       P6SM SCT250=
201510140522 TAF KCLM 140522Z 1406/1506 13003KT P6SM SKC=
201510132320 TAF KCLM 132320Z 1400/1424 07004KT P6SM FEW025 SCT250 FM140400
                       23005KT P6SM SCT250=
201510131720 TAF KCLM 131720Z 1318/1418 02005KT P6SM BKN025 OVC035 FM132100
                       34006KT P6SM BKN250 FM140200 27005KT P6SM
                       SCT250=
201510131120 TAF KCLM 131120Z 1312/1412 00000KT P6SM BKN013 OVC025
                      TEMPO 1312/1316 2SM BR OVC007 FM132100 29006KT
                       P6SM OVC250=
201510130804 TAF AMD KCLM 130804Z 1308/1406 00000KT 3SM BR OVC013 FM131500 26006KT
                       5SM BR OVC005 FM131800 33005KT P6SM SCT030=
201510130655 TAF AMD KCLM 130655Z 1307/1406 00000KT P6SM BKN007 OVC013 FM131500
                       26006KT 5SM BR OVC005 FM131800 33005KT P6SM
                       SCT030=
201510130527 TAF KCLM 130527Z 1306/1406 25003KT P6SM OVC028 FM131500 26006KT
                       5SM BR OVC005 FM131800 33005KT P6SM SCT030=
201510130302 TAF AMD KCLM 130302Z 1303/1324 22003KT P6SM SCT050 BKN060 FM130500
                       29003KT P6SM SCT008 OVC015 FM131600 27005KT
                       P6SM BKN015 FM131800 03006KT P6SM SCT250=
201510122320 TAF KCLM 122320Z 1300/1324 VRB03KT P6SM SCT009 OVC030
                      TEMPO 1300/1304 BKN009 OVC030 FM130500 29003KT
                       P6SM SCT008 OVC015 FM131400 25005KT 6SM
                       BR BKN007 OVC015 FM131600 27005KT P6SM BKN015
                       FM131800 03006KT P6SM SCT250=
201510121800 TAF AMD KCLM 121800Z 1218/1318 31003KT P6SM -RA SCT004 OVC050
                      TEMPO 1218/1222 1 1/2SM -RA BR BKN004 OVC050
                       FM130100 30005KT P6SM BKN020 BKN050 FM130600
                       VRB03KT P6SM BKN100 FM130900 00000KT P6SM
                       OVC007 FM131700 VRB03KT P6SM SCT010 SCT100=
201510121732 TAF KCLM 121732Z 1218/1318 31003KT P6SM -RA SCT006 OVC050
                      TEMPO 1218/1222 5SM -RA BR BKN006 OVC050
                       FM130100 30005KT P6SM BKN020 BKN050 FM130600
                       VRB03KT P6SM BKN100 FM130900 00000KT P6SM
                       OVC007 FM131700 VRB03KT P6SM SCT010 SCT100=
201510121120 TAF KCLM 121120Z 1212/1312 00000KT P6SM BKN110 OVC200 FM121400
                       19002KT P6SM OVC050 FM121800 31003KT P6SM
                       -RA OVC040 FM130100 34002KT P6SM VCSH OVC050
                       FM130800 27003KT P6SM OVC015=
201510120522 TAF KCLM 120522Z 1206/1306 23006KT P6SM SCT120 OVC200 FM121200
                       VRB04KT P6SM BKN080 OVC120 FM121800 21005KT
                       P6SM -RA SCT040 OVC070 FM122300 25005KT
                       P6SM SCT040 SCT070=
201510112326 TAF KCLM 112326Z 1200/1224 23004KT P6SM BKN120 BKN200 FM121200
                       VRB04KT P6SM BKN080 OVC120 FM121800 21005KT
                       P6SM -RA SCT040 OVC070 FM122300 25005KT
                       P6SM SCT040 SCT070=
201510111720 TAF KCLM 111720Z 1118/1218 VRB04KT P6SM FEW040 SCT150 FM112100
                       23004KT P6SM SCT120 BKN250=
201510111120 TAF KCLM 111120Z 1112/1212 24014G20KT P6SM FEW060 FM111500 27009KT
                       P6SM SCT120 FM120100 23002KT P6SM SCT120
                       BKN250=
201510110524 TAF KCLM 110524Z 1106/1206 27012KT P6SM VCSH FEW040 OVC060 FM111300
                       25005KT P6SM SCT035 FM111600 22003KT P6SM
                       BKN020 FM111800 31004KT P6SM SCT035 FM112100
                       01004KT P6SM SCT100=
201510102331 TAF KCLM 102331Z 1100/1124 28012G25KT 5SM -SHRA OVC035
                      TEMPO 1100/1104 2SM SHRA BR OVC025 FM110500
                       27012KT P6SM OVC035 FM111500 27008KT P6SM
                       SCT040 FM111800 29006KT P6SM SCT100=
201510101733 TAF KCLM 101733Z 1018/1118 VRB04KT 5SM -RA SCT020 OVC035 FM102000
                       28010KT 4SM RA BR OVC015 FM102300 28012G25KT
                       5SM -SHRA OVC035 FM110500 27010KT P6SM OVC035
                       FM111600 27008KT P6SM SCT040=
201510101120 TAF KCLM 101120Z 1012/1112 00000KT 4SM -RA BR SCT008 SCT050 BKN060
                       FM101800 30002KT 5SM -RA OVC035 FM102000
                       29006KT 4SM RA BR OVC015 FM110100 28008KT
                       5SM -SHRA OVC035 FM110500 27012KT P6SM OVC035=
201510100535 TAF KCLM 100535Z 1006/1106 22006KT P6SM VCSH BKN080 FM101500 27005KT
                       5SM -RA BR BKN010 OVC035 FM102100 27010KT
                       P6SM -SHRA BKN035=
201510092333 TAF KCLM 092333Z 1000/1024 VRB04KT P6SM VCSH SCT070 BKN120 FM101500
                       27005KT 5SM -RA BR BKN010 OVC035 FM102100
                       27010KT P6SM -SHRA BKN035=
201510091744 TAF KCLM 091744Z 0918/1018 VRB04KT P6SM -RA SCT002 OVC050
                      TEMPO 0918/0920 2SM -RA BR BKN002 OVC050
                       FM100100 VRB03KT P6SM VCSH SCT060 BKN120
                       FM100600 VRB03KT 5SM BR BKN006 BKN060 FM101500
                       27005KT 5SM -RA BR BKN006 OVC035=
201510091710 TAF AMD KCLM 091710Z 0917/1012 VRB04KT P6SM -RA SCT002 OVC050
                      TEMPO 0917/0920 2SM -RA BR BKN002 OVC050
                       FM100100 VRB03KT P6SM SCT060 BKN120=
201510091504 TAF AMD KCLM 091504Z 0915/1012 VRB03KT 3SM BR SCT002 BKN050
                      TEMPO 0915/0917 1/2SM FG OVC002 FM091700
                       11006KT P6SM -RA SCT010 OVC035 FM100100
                       VRB03KT P6SM SCT060 BKN120=
201510091134 TAF KCLM 091134Z 0912/1012 VRB03KT 1/2SM FG OVC002 FM091400 VRB03KT
                       2SM BR OVC004 FM091700 11006KT P6SM -RA
                       SCT010 OVC035 FM100100 VRB03KT P6SM SCT060
                       BKN120=
201510090540 TAF KCLM 090540Z 0906/1006 VRB03KT 3SM BR SCT002 SCT150
                      TEMPO 0906/0910 1SM BR BKN002 BKN150 FM091000
                       VRB03KT 1/2SM FG OVC002 FM091400 VRB03KT
                       2SM BR OVC004 FM091700 11006KT P6SM -RA
                       SCT010 OVC035 FM100100 VRB03KT P6SM SCT060
                       BKN120=
201510082320 TAF KCLM 082320Z 0900/0924 VRB03KT 3SM BR BKN050
                      TEMPO 0900/0904 1SM BR OVC005 FM090800 11006KT
                       P6SM OVC050 FM091500 VRB03KT P6SM -RA BKN025
                       OVC050=
201510082001 TAF AMD KCLM 082001Z 0820/0918 VRB03KT P6SM BKN010 OVC120
                      TEMPO 0820/0822 1/2SM FG OVC001 FM090100
                       VRB03KT P6SM BKN120 FM090800 11006KT P6SM
                       BKN060 OVC120 FM091500 VRB03KT P6SM -RA
                       BKN025 OVC060=
201510081802 TAF AMD KCLM 081802Z 0818/0918 VRB03KT P6SM BKN010 OVC120
                      TEMPO 0818/0820 1/2SM FG OVC005 FM090100
                       VRB03KT P6SM BKN120 FM090800 11006KT P6SM
                       BKN060 OVC120 FM091500 VRB03KT P6SM -RA
                       BKN025 OVC060=
201510081733 TAF KCLM 081733Z 0818/0918 VRB03KT P6SM BKN010 OVC120
                      TEMPO 0818/0820 2SM BR OVC005 FM090100 VRB03KT
                       P6SM BKN120 FM090800 11006KT P6SM BKN060
                       OVC120 FM091500 VRB03KT P6SM -RA BKN025
                       OVC060=
201510081534 TAF AMD KCLM 081534Z 0816/0912 00000KT 1SM BR OVC007
                      TEMPO 0816/0817 4SM BR OVC011 FM081700 VRB03KT
                       P6SM BKN120 FM090800 11006KT P6SM BKN060
                       OVC120=
201510081332 TAF AMD KCLM 081332Z 0814/0912 00000KT 2SM BR OVC007
                      TEMPO 0814/0817 4SM BR OVC011 FM081700 VRB03KT
                       P6SM BKN120 FM090800 11006KT P6SM BKN060
                       OVC120=
201510081132 TAF KCLM 081132Z 0812/0912 VRB03KT 2SM BR OVC003
                      TEMPO 0812/0815 3/4SM BR FM081600 VRB03KT
                       4SM BR BKN004 FM081700 VRB03KT P6SM BKN120
                       FM090800 11006KT P6SM BKN060 OVC120=
201510080524 TAF KCLM 080524Z 0806/0906 VRB03KT 1/4SM FG VV002
                      TEMPO 0811/0814 2SM BR SCT001 BKN120 FM081400
                       VRB03KT P6SM SCT060 BKN120
                      TEMPO 0814/0816 5SM BR=
201510080306 TAF AMD KCLM 080306Z 0803/0824 VRB03KT 2SM BR OVC003
                      TEMPO 0803/0807 1/2SM FG VV002 FM081700 VRB03KT
                       5SM BR SCT007 OVC020 FM082200 VRB03KT P6SM
                       SCT020 BKN035=
201510080042 TAF AMD KCLM 080042Z 0801/0824 VRB03KT 6SM BR SCT004 OVC050
                      TEMPO 0801/0804 2SM BR BKN003 OVC030 FM080400
                       VRB03KT 4SM BR BKN006 OVC015 FM081700 VRB03KT
                       5SM BR SCT007 OVC020 FM082200 VRB03KT P6SM
                       SCT020 BKN035=
201510072320 TAF KCLM 072320Z 0800/0824 VRB03KT 4SM BR SCT004 OVC050
                      TEMPO 0800/0804 1SM -RA BR BKN003 OVC030
                       FM080400 VRB03KT 4SM BR BKN006 OVC015 FM081700
                       VRB03KT 5SM BR SCT007 OVC020 FM082200 VRB03KT
                       P6SM SCT020 BKN035=
201510072022 TAF AMD KCLM 072022Z 0720/0818 VRB03KT 3SM BR SCT003 OVC035
                      TEMPO 0720/0724 2SM -RA BR BKN003 OVC015
                       FM080000 VRB03KT 4SM BR SCT004 BKN015 OVC030
                       TEMPO 0800/0804 1SM -RA BR BKN003 OVC012
                       FM080400 VRB03KT 4SM BR BKN006 OVC015 FM081700
                       VRB03KT 5SM BR SCT007 OVC020=
201510071720 TAF KCLM 071720Z 0718/0818 VRB03KT 3/4SM -RA BR BKN003 OVC011
                      TEMPO 0718/0722 2SM -RA BR SCT003 OVC015
                       FM072200 VRB03KT 2SM -RA BKN003 BKN015 OVC030
                       TEMPO 0722/0802 1SM -RA BR SCT003 OVC012
                       FM080500 VRB03KT 4SM BR BKN006 OVC015 FM081700
                       VRB03KT 5SM BR SCT007 OVC020=
201510071612 TAF AMD KCLM 071612Z 0716/0812 VRB03KT 3SM -RA BR SCT002 OVC020
                       TEMPO 0716/0720 1SM -RA BR BKN002 OVC011
                       FM072200 VRB03KT 2SM -RA BKN015 OVC030 FM080700
                       VRB03KT P6SM SCT015 BKN025 OVC040=
201510071409 TAF AMD KCLM 071409Z 0714/0812 VRB03KT 1SM -RA BR SCT003 OVC040
                       TEMPO 0714/0716 3SM -RA BKN003 OVC040 FM071600
                       VRB03KT 3SM -RA BKN025 OVC045 FM072200 VRB03KT
                       2SM -RA BKN015 OVC030 FM080700 VRB03KT P6SM
                       SCT015 BKN025 OVC040=
201510071130 TAF KCLM 071130Z 0712/0812 00000KT P6SM -RA SCT025 OVC050
                      TEMPO 0712/0716 3SM -RA BKN025 OVC050 FM071600
                       00000KT 5SM -RA BKN025 OVC045 FM072200 VRB03KT
                       5SM -RA BKN015 OVC030 FM080700 VRB03KT P6SM
                       SCT015 BKN025 OVC040=
201510070543 TAF KCLM 070543Z 0706/0806 VRB03KT P6SM SCT040 OVC070 FM071200
                       VRB03KT P6SM -RA OVC020=
201510062320 TAF KCLM 062320Z 0700/0724 28005KT P6SM SCT100 BKN140 OVC200 FM070700
                       VRB03KT P6SM SCT060 OVC100 FM071200 VRB03KT
                       P6SM OVC040 FM071400 VRB03KT P6SM -RA OVC020=
201510061744 TAF KCLM 061744Z 0618/0718 VRB03KT P6SM SCT100 SCT140 BKN200 FM062300
                       28008KT P6SM SCT060 BKN150 FM070700 VRB03KT
                       P6SM SCT060 OVC100 FM071400 VRB03KT P6SM
                       -RA OVC014=
201510061130 TAF KCLM 061130Z 0612/0712 VRB04KT P6SM BKN200 FM061700 VRB03KT
                       P6SM SCT100 BKN200 FM062300 28008KT P6SM
                       SCT060 BKN150 FM070700 VRB03KT P6SM SCT060
                       OVC100=
201510060535 TAF KCLM 060535Z 0606/0706 VRB04KT P6SM BKN200 FM061200 21006KT
                       P6SM SCT100 BKN200 FM062000 28008KT P6SM
                       SCT050 BKN150=
201510052320 TAF KCLM 052320Z 0600/0624 VRB04KT P6SM BKN200 FM061200 21006KT
                       P6SM SCT100 BKN200 FM062000 28008KT P6SM
                       SCT050 BKN150=
201510051731 TAF KCLM 051731Z 0518/0618 07005KT P6SM SKC FM060400 22006KT P6SM
                       SKC=
201510051124 TAF KCLM 051124Z 0512/0612 22006KT P6SM SKC FM051500 VRB03KT P6SM
                       SKC FM060400 22006KT P6SM SKC=
201510050530 TAF KCLM 050530Z 0506/0606 24006KT P6SM SKC FM051500 VRB03KT P6SM
                       SKC=
201510042320 TAF KCLM 042320Z 0500/0524 VRB03KT P6SM SKC=
201510041721 TAF KCLM 041721Z 0418/0518 10003KT P6SM SKC FM042100 08006KT P6SM
                       SKC FM050300 VRB03KT P6SM SKC=
201510041121 TAF KCLM 041121Z 0412/0512 VRB03KT P6SM SKC FM042100 08006KT P6SM
                       SKC FM050300 VRB03KT P6SM SKC=
201510040526 TAF KCLM 040526Z 0406/0506 VRB03KT P6SM SKC FM042100 08006KT P6SM
                       SKC FM050300 VRB03KT P6SM SKC=
201510032328 TAF KCLM 032328Z 0400/0424 VRB05KT P6SM SKC FM041800 06005KT P6SM
                       SKC=
201510031721 TAF KCLM 031721Z 0318/0418 10010KT P6SM SKC FM040300 24006KT P6SM
                       SKC=
201510031120 TAF KCLM 031120Z 0312/0412 00000KT P6SM SKC FM032000 07010KT P6SM
                       SKC FM040300 24006KT P6SM SKC=
201510030840 TAF AMD KCLM 030840Z 0309/0406 17004KT P6SM SKC FM032000 07010KT
                       P6SM SKC FM040300 24006KT P6SM SKC=
201510030535 TAF KCLM 030535Z 0306/0406 31010KT P6SM SCT025 BKN040
                      TEMPO 0306/0308 BKN025 OVC040 FM031200 04006KT
                       P6SM BKN015 FM031800 04010KT P6SM SCT025
                       FM032100 02010KT P6SM SKC=
201510022320 TAF KCLM 022320Z 0300/0324 31008KT P6SM BKN035
                      TEMPO 0300/0304 OVC025 FM030400 31010KT P6SM
                       SCT025 BKN040
                      TEMPO 0304/0308 BKN025 OVC040 FM031200 04006KT
                       P6SM BKN015 FM031800 04010KT P6SM SCT025
                       FM032100 02010KT P6SM SKC=
201510021723 TAF KCLM 021723Z 0218/0318 32006KT P6SM SCT010 SCT050 BKN100
                      TEMPO 0218/0222 BKN010 BKN050 OVC100 FM022200
                       28010KT P6SM VCSH SCT020 BKN040 FM030800
                       25006KT P6SM SCT040=
201510021501 TAF AMD KCLM 021501Z 0215/0312 23006KT P6SM SCT005 BKN120 OVC200
                       TEMPO 0216/0220 5SM BR BKN005 OVC100 FM022000
                       28010KT P6SM VCSH BKN015 BKN040 FM030800
                       25006KT P6SM SCT040=
201510021120 TAF KCLM 021120Z 0212/0312 27007KT P6SM OVC006 FM022000 26007KT
                       P6SM VCSH OVC015 FM030800 25008KT P6SM SKC=
201510020900 TAF AMD KCLM 020900Z 0209/0306 29011KT P6SM OVC007 FM022200 28008KT
                       P6SM VCSH BKN025=
201510020525 TAF KCLM 020525Z 0206/0306 29007KT P6SM SKC FM021200 28008KT P6SM
                       OVC015 FM022200 28008KT P6SM VCSH BKN025=
201510012320 TAF KCLM 012320Z 0200/0224 31007KT P6SM SKC FM020400 28008KT 5SM
                       BR BKN005 FM021200 28008KT P6SM OVC015 FM022200
                       28008KT P6SM VCSH BKN025=
201510011720 TAF KCLM 011720Z 0118/0218 VRB03KT P6SM SKC FM012300 30012KT P6SM
                       SKC FM020500 30007KT 3SM BR BKN003 FM021100
                       27007KT 5SM BR OVC005 FM021500 27007KT P6SM
                       OVC010=
201510011120 TAF KCLM 011120Z 0112/0212 VRB04KT P6SM SKC
                      TEMPO 0113/0117 4SM BR SCT003 FM012100 35005KT
                       P6SM SKC=
201510010530 TAF KCLM 010530Z 0106/0206 00000KT P6SM SKC FM010900 VRB04KT P6SM
                       SKC FM012100 35005KT P6SM SKC=