##########################################################
# Query made at 02/16/2025 03:14:44 UTC
# Time interval: from 10/01/2016 00:00  to 10/31/2016 23:59  UTC
##########################################################

##########################################################
# KCLM, Port Angeles, William R. Fairchild International Airport (United States)
# WMO index: -----. WIGOS ID: Unknown
# Latitude 48-07-20N. Longitude 123-30-19W. Altitude 87 m.
##########################################################

###################################
#  METAR/SPECI from KCLM
###################################
201610312353 METAR KCLM 312353Z AUTO 27006KT 10SM CLR 12/07 A2979 RMK AO2 SLP088 T01220072 10133 20100 51006=
201610312253 METAR KCLM 312253Z AUTO 29012KT 10SM CLR 13/08 A2978 RMK AO2 SLP086 T01330078=
201610312153 METAR KCLM 312153Z AUTO 32006KT 10SM SCT060 13/07 A2978 RMK AO2 SLP086 T01330072=
201610312053 METAR KCLM 312053Z AUTO 26007KT 10SM FEW043 OVC060 13/07 A2977 RMK AO2 SLP081 T01330067 51025=
201610311953 METAR KCLM 311953Z AUTO 23005KT 10SM FEW013 BKN060 BKN075 12/09 A2975 RMK AO2 SLP074 T01220094=
201610311853 METAR KCLM 311853Z AUTO 29010KT 10SM SCT006 BKN037 OVC085 12/09 A2974 RMK AO2 SLP072 T01170094=
201610311831 SPECI KCLM 311831Z AUTO 29011G18KT 9SM BKN008 OVC048 11/09 A2973 RMK AO2 CIG 003V012 T01060094=
201610311820 SPECI KCLM 311820Z AUTO 32008G17KT 8SM SCT005 SCT010 OVC048 11/09 A2972 RMK AO2 T01060089=
201610311753 METAR KCLM 311753Z AUTO 31006KT 9SM OVC004 11/09 A2970 RMK AO2 RAE31 SLP056 P0000 60010 T01060089 10106 20100 51019=
201610311748 SPECI KCLM 311748Z AUTO 00000KT 9SM OVC004 11/09 A2969 RMK AO2 RAE31 P0000=
201610311721 SPECI KCLM 311721Z AUTO 00000KT 5SM -RA BR OVC005 11/09 A2968 RMK AO2 P0000 T01060089=
201610311653 METAR KCLM 311653Z AUTO 00000KT 4SM -RA BR OVC004 10/09 A2967 RMK AO2 SLP047 P0002 T01000089=
201610311553 METAR KCLM 311553Z AUTO 00000KT 5SM -RA BR BKN003 OVC007 10/08 A2964 RMK AO2 SLP037 P0006 T01000083=
201610311453 METAR KCLM 311453Z AUTO 11003KT 6SM -RA BR OVC003 10/09 A2962 RMK AO2 RAB26 SLP031 P0002 60002 T01000089 51008=
201610311353 METAR KCLM 311353Z AUTO 00000KT 6SM BR OVC003 10/09 A2962 RMK AO2 RAB1256E29 SLP029 P0000 T01000089=
201610311308 SPECI KCLM 311308Z AUTO 00000KT 4SM -RA BR OVC003 10/09 A2961 RMK AO2 RAB1256 CIG 001V005 P0000 T01000089=
201610311253 METAR KCLM 311253Z AUTO 16005KT 4SM BR OVC001 10/09 A2960 RMK AO2 SLP025 T01000089=
201610311235 SPECI KCLM 311235Z AUTO 00000KT 3SM BR OVC001 10/09 A2960 RMK AO2 T01000089=
201610311153 METAR KCLM 311153Z AUTO 00000KT 2 1/2SM BR OVC001 10/09 A2960 RMK AO2 SLP023 60000 70016 T01000089 10100 20094 53005=
201610311140 SPECI KCLM 311140Z AUTO VRB03KT 2 1/2SM BR OVC001 10/09 A2960 RMK AO2 T01000089=
201610311120 SPECI KCLM 311120Z AUTO 06003KT 3SM BR OVC001 09/09 A2959 RMK AO2 T00940089=
201610311053 METAR KCLM 311053Z AUTO 06003KT 3SM BR OVC002 10/08 A2959 RMK AO2 SLP021 T01000083=
201610310953 METAR KCLM 310953Z AUTO 07006KT 7SM OVC003 10/08 A2959 RMK AO2 SLP019 T01000083=
201610310853 METAR KCLM 310853Z AUTO 07004KT 8SM OVC003 10/08 A2958 RMK AO2 RAB0756E26 SLP017 P0000 60000 T01000083 51004=
201610310821 SPECI KCLM 310821Z AUTO VRB03KT 7SM -RA OVC004 09/08 A2958 RMK AO2 RAB0756 P0000 T00940083=
201610310802 SPECI KCLM 310802Z AUTO 14005KT 8SM -RA OVC005 09/08 A2958 RMK AO2 RAB0756 P0000 T00940083=
201610310753 METAR KCLM 310753Z AUTO 13003KT 9SM OVC004 09/08 A2958 RMK AO2 RAB09E44 CIG 003V007 SLP017 P0000 T00940083 401060044=
201610310720 SPECI KCLM 310720Z AUTO 13004KT 4SM -RA BR OVC004 09/08 A2958 RMK AO2 RAB09 P0000 T00940083=
201610310700 SPECI KCLM 310700Z AUTO 11004KT 7SM OVC005 09/08 A2958 RMK AO2 T00940078=
201610310653 METAR KCLM 310653Z AUTO 11004KT 8SM OVC004 09/08 A2957 RMK AO2 SLP015 T00940083=
201610310605 SPECI KCLM 310605Z AUTO 11004KT 8SM OVC004 09/08 A2957 RMK AO2 CIG 003V007 T00940083=
201610310553 METAR KCLM 310553Z AUTO 09005KT 8SM OVC005 09/08 A2957 RMK AO2 RAE0456B15E45 CIG 003V007 SLP013 P0002 60016 T00940083 10100 20089 53003=
201610310532 SPECI KCLM 310532Z AUTO 13003KT 8SM -RA OVC005 09/08 A2956 RMK AO2 RAE0456B15 CIG 003V009 P0002 T00940083=
201610310453 METAR KCLM 310453Z AUTO 08004KT 9SM -RA BKN004 OVC008 09/08 A2956 RMK AO2 CIG 003V007 SLP011 P0004 T00940083=
201610310353 METAR KCLM 310353Z AUTO VRB03KT 6SM -RA BR OVC005 09/08 A2956 RMK AO2 SLP011 P0004 T00940078=
201610310306 SPECI KCLM 310306Z AUTO 00000KT 6SM -RA BR OVC009 09/07 A2956 RMK AO2 P0000 T00890072=
201610310253 METAR KCLM 310253Z AUTO 19003KT 7SM -RA BKN010 OVC014 09/07 A2956 RMK AO2 CIG 008V012 SLP010 P0004 60006 T00890072 55005=
201610310241 SPECI KCLM 310241Z AUTO 19003KT 6SM -RA BR BKN012 BKN020 OVC060 09/07 A2956 RMK AO2 P0004 T00890072=
201610310233 SPECI KCLM 310233Z AUTO 19003KT 6SM -RA BR SCT012 BKN020 OVC060 09/08 A2956 RMK AO2 P0004 T00890078=
201610310153 METAR KCLM 310153Z AUTO 00000KT 7SM -RA OVC060 09/08 A2956 RMK AO2 RAB03 SLP010 P0002 T00890078=
201610310053 METAR KCLM 310053Z AUTO 00000KT 10SM FEW070 BKN090 OVC110 09/07 A2956 RMK AO2 SLP010 T00940072=
201610302353 METAR KCLM 302353Z AUTO 00000KT 10SM FEW060 BKN080 OVC095 10/07 A2957 RMK AO2 RAE07B28E50 SLP015 P0000 60000 T01000072 10106 20094 56024=
201610302253 METAR KCLM 302253Z AUTO 09005KT 10SM -RA BKN075 OVC090 10/07 A2959 RMK AO2 RAB46 SLP022 P0000 T01000067=
201610302153 METAR KCLM 302153Z AUTO 11004KT 10SM BKN080 OVC110 11/06 A2962 RMK AO2 SLP030 T01060061=
201610302053 METAR KCLM 302053Z AUTO VRB05KT 10SM BKN080 11/06 A2964 RMK AO2 SLP039 T01060061 58030=
201610302040 SPECI KCLM 302040Z AUTO 10006KT 10SM SCT011 SCT090 10/06 A2965 RMK AO2 T01000061=
201610301953 METAR KCLM 301953Z AUTO 08005KT 10SM OVC010 10/07 A2968 RMK AO2 CIG 008V013 SLP051 T01000067=
201610301853 METAR KCLM 301853Z AUTO 09007KT 10SM OVC012 09/07 A2971 RMK AO2 SLP061 T00940067=
201610301753 METAR KCLM 301753Z AUTO 11005KT 10SM OVC011 09/07 A2973 RMK AO2 SLP070 T00940067 10094 20067 58021=
201610301653 METAR KCLM 301653Z AUTO 13005KT 10SM OVC010 09/07 A2976 RMK AO2 SLP079 T00940067=
201610301553 METAR KCLM 301553Z AUTO 00000KT 10SM OVC011 08/07 A2978 RMK AO2 SLP087 T00830067=
201610301453 METAR KCLM 301453Z AUTO 00000KT 10SM OVC011 07/06 A2980 RMK AO2 SLP091 T00720061 58018=
201610301353 METAR KCLM 301353Z AUTO 00000KT 10SM OVC013 08/07 A2982 RMK AO2 SLP098 T00780067=
201610301253 METAR KCLM 301253Z AUTO 00000KT 8SM OVC012 08/07 A2984 RMK AO2 SLP106 T00780072=
201610301218 SPECI KCLM 301218Z AUTO 00000KT 10SM SCT006 OVC012 08/07 A2985 RMK AO2 T00830072=
201610301153 METAR KCLM 301153Z AUTO 00000KT 10SM OVC007 08/07 A2985 RMK AO2 SLP110 70010 T00830067 10083 20039 58019=
201610301053 METAR KCLM 301053Z AUTO 00000KT 9SM BKN009 OVC014 07/07 A2987 RMK AO2 SLP116 T00720067=
201610301005 SPECI KCLM 301005Z AUTO 23004KT 10SM SCT006 BKN012 08/06 A2990 RMK AO2 T00780061=
201610300953 METAR KCLM 300953Z AUTO 23005KT 10SM BKN006 OVC013 08/07 A2990 RMK AO2 SLP127 T00830067=
201610300853 METAR KCLM 300853Z AUTO 00000KT 10SM BKN007 06/05 A2991 RMK AO2 CIG 006V010 SLP129 T00560050 56005=
201610300828 SPECI KCLM 300828Z AUTO 00000KT 3SM BR FEW009 05/04 A2991 RMK AO2 T00500039=
201610300819 SPECI KCLM 300819Z AUTO 00000KT 1 3/4SM BR FEW009 04/03 A2991 RMK AO2 VIS 3/4V5 T00440033=
201610300804 SPECI KCLM 300804Z AUTO 18003KT 3SM BR SCT009 05/04 A2992 RMK AO2 T00500039=
201610300753 METAR KCLM 300753Z AUTO 24004KT 8SM CLR 05/04 A2992 RMK AO2 SLP131 T00500044 401390039=
201610300653 METAR KCLM 300653Z AUTO 23003KT 10SM CLR 06/05 A2992 RMK AO2 SLP132 T00610050=
201610300553 METAR KCLM 300553Z AUTO 00000KT 8SM CLR 07/06 A2993 RMK AO2 SLP135 T00670056 10117 20056 57003=
201610300540 SPECI KCLM 300540Z AUTO 17003KT 3SM BR CLR 06/04 A2992 RMK AO2 T00560044=
201610300532 SPECI KCLM 300532Z AUTO 11003KT 1 3/4SM BR CLR 06/04 A2993 RMK AO2 T00560044=
201610300453 METAR KCLM 300453Z AUTO 22004KT 10SM CLR 07/06 A2993 RMK AO2 SLP136 T00720056=
201610300451 SPECI KCLM 300451Z AUTO 22005KT 10SM CLR 07/06 A2993 RMK AO2=
201610300442 SPECI KCLM 300442Z AUTO 23003KT 2 1/2SM BR CLR 07/06 A2993 RMK AO2 T00720056=
201610300353 METAR KCLM 300353Z AUTO 00000KT 6SM BR CLR 07/06 A2994 RMK AO2 SLP138 T00670061=
201610300317 SPECI KCLM 300317Z AUTO 20003KT 4SM BR CLR 08/07 A2993 RMK AO2 T00830072=
201610300307 SPECI KCLM 300307Z AUTO 00000KT 1 1/2SM BR CLR 08/07 A2993 RMK AO2 T00780067=
201610300253 METAR KCLM 300253Z AUTO 00000KT 3SM BR SCT070 09/07 A2992 RMK AO2 SLP134 T00890072 58003=
201610300153 METAR KCLM 300153Z AUTO 00000KT 10SM FEW095 10/09 A2993 RMK AO2 SLP136 T01000089=
201610300053 METAR KCLM 300053Z AUTO 00000KT 10SM OVC070 11/09 A2993 RMK AO2 SLP136 T01060089=
201610292353 METAR KCLM 292353Z AUTO 00000KT 10SM FEW036 OVC060 12/09 A2993 RMK AO2 SLP137 60004 T01170094 10139 20106 53010=
201610292253 METAR KCLM 292253Z AUTO 00000KT 10SM OVC060 13/09 A2992 RMK AO2 SLP132 T01280089=
201610292153 METAR KCLM 292153Z AUTO VRB03KT 10SM BKN075 12/09 A2991 RMK AO2 SLP131 T01220089=
201610292053 METAR KCLM 292053Z AUTO VRB03KT 10SM SCT030 OVC065 13/09 A2990 RMK AO2 RAB33E45 SLP127 P0000 60004 T01280094 53001=
201610291953 METAR KCLM 291953Z AUTO 12005KT 10SM FEW012 SCT070 12/08 A2990 RMK AO2 RAE1856 SLP125 P0000 T01220083=
201610291853 METAR KCLM 291853Z AUTO 12004KT 10SM -RA FEW026 BKN041 OVC110 11/09 A2990 RMK AO2 RAB16 SLP125 P0004 T01110089=
201610291850 SPECI KCLM 291850Z AUTO 11003KT 10SM -RA SCT026 BKN041 OVC110 11/09 A2990 RMK AO2 RAB16 P0004=
201610291830 SPECI KCLM 291830Z AUTO 31003KT 5SM -RA BR BKN025 OVC065 11/09 A2992 RMK AO2 RAB16 P0002 T01060089=
201610291753 METAR KCLM 291753Z AUTO 13005KT 10SM FEW050 OVC075 12/09 A2988 RMK AO2 RAE51 SLP120 P0002 60006 T01170089 10117 20072 51016=
201610291653 METAR KCLM 291653Z AUTO 20004KT 10SM -RA BKN070 OVC080 11/08 A2987 RMK AO2 RAB14 SLP116 P0000 T01060083=
201610291553 METAR KCLM 291553Z AUTO 26007KT 10SM OVC065 09/08 A2986 RMK AO2 RAB13E30 SLP114 P0000 T00940078=
201610291453 METAR KCLM 291453Z AUTO 23005KT 10SM BKN070 BKN120 09/08 A2983 RMK AO2 SLP103 60004 T00890078 51003=
201610291353 METAR KCLM 291353Z AUTO 23005KT 10SM BKN065 BKN110 09/08 A2982 RMK AO2 RAB1254E26 SLP098 P0004 T00940078=
201610291253 METAR KCLM 291253Z AUTO 27007KT 10SM OVC065 09/08 A2985 RMK AO2 SLP108 T00890078=
201610291153 METAR KCLM 291153Z AUTO 00000KT 9SM BKN080 07/06 A2983 RMK AO2 SLP100 T00720061 10089 20061 58012=
201610291116 SPECI KCLM 291116Z AUTO 00000KT 5SM BR SCT006 BKN100 07/06 A2983 RMK AO2 T00670056=
201610291053 METAR KCLM 291053Z AUTO 00000KT 9SM BKN005 BKN110 07/06 A2984 RMK AO2 SLP105 T00670061=
201610291002 SPECI KCLM 291002Z AUTO 00000KT 10SM BKN006 07/06 A2985 RMK AO2 T00720061=
201610290953 METAR KCLM 290953Z AUTO 00000KT 10SM SCT006 07/06 A2986 RMK AO2 SLP111 T00670061=
201610290937 SPECI KCLM 290937Z AUTO 00000KT 10SM FEW006 SCT090 07/06 A2986 RMK AO2 T00670061=
201610290853 METAR KCLM 290853Z AUTO 00000KT 10SM CLR 07/06 A2986 RMK AO2 SLP112 T00720061 56008=
201610290753 METAR KCLM 290753Z AUTO 00000KT 10SM CLR 08/07 A2987 RMK AO2 SLP114 T00780067 401440067=
201610290653 METAR KCLM 290653Z AUTO 18003KT 10SM CLR 08/07 A2988 RMK AO2 SLP118 T00780067=
201610290553 METAR KCLM 290553Z AUTO 18003KT 10SM CLR 08/07 A2989 RMK AO2 SLP121 T00780067 10133 20067 58006=
201610290453 METAR KCLM 290453Z AUTO 00000KT 10SM CLR 07/06 A2990 RMK AO2 SLP126 T00720061=
201610290353 METAR KCLM 290353Z AUTO 00000KT 10SM CLR 08/07 A2990 RMK AO2 SLP125 T00780072=
201610290253 METAR KCLM 290253Z AUTO 23006KT 10SM CLR 09/08 A2990 RMK AO2 SLP127 T00940078 50000=
201610290153 METAR KCLM 290153Z AUTO 00000KT 10SM CLR 09/07 A2991 RMK AO2 SLP128 T00890072=
201610290053 METAR KCLM 290053Z AUTO 20003KT 10SM CLR 11/09 A2991 RMK AO2 SLP128 T01110089=
201610282353 METAR KCLM 282353Z AUTO 27005KT 10SM CLR 13/08 A2990 RMK AO2 SLP126 T01330083 10144 20106 53002=
201610282253 METAR KCLM 282253Z AUTO 28007KT 10SM CLR 14/09 A2990 RMK AO2 SLP125 T01390089=
201610282153 METAR KCLM 282153Z AUTO 30005KT 10SM BKN080 13/09 A2989 RMK AO2 SLP124 T01330094=
201610282053 METAR KCLM 282053Z AUTO 31005KT 10SM BKN070 12/09 A2990 RMK AO2 SLP124 T01220094 55006=
201610281953 METAR KCLM 281953Z AUTO 35005KT 10SM OVC070 12/09 A2989 RMK AO2 SLP124 T01170094=
201610281853 METAR KCLM 281853Z AUTO 00000KT 10SM BKN070 12/09 A2991 RMK AO2 SLP128 T01220094=
201610281753 METAR KCLM 281753Z AUTO 00000KT 10SM FEW006 SCT080 12/09 A2991 RMK AO2 SLP131 T01170094 10117 20067 50008=
201610281653 METAR KCLM 281653Z AUTO 25004KT 6SM BR SCT004 BKN075 10/09 A2992 RMK AO2 SLP133 T01000089=
201610281553 METAR KCLM 281553Z AUTO 00000KT 4SM BR OVC004 09/09 A2991 RMK AO2 SLP129 T00940089=
201610281518 SPECI KCLM 281518Z AUTO 18003KT 3SM BR OVC002 09/08 A2990 RMK AO2 T00940083=
201610281453 METAR KCLM 281453Z AUTO 23003KT 1 1/4SM BR OVC002 09/08 A2989 RMK AO2 SLP123 T00890083 51003=
201610281435 SPECI KCLM 281435Z AUTO 14004KT 1 3/4SM BR OVC002 09/08 A2989 RMK AO2 T00890078=
201610281353 METAR KCLM 281353Z AUTO 00000KT 8SM BKN003 BKN070 07/06 A2989 RMK AO2 SLP122 T00720061=
201610281351 SPECI KCLM 281351Z AUTO 00000KT 9SM BKN003 BKN007 BKN070 07/06 A2989 RMK AO2=
201610281334 SPECI KCLM 281334Z AUTO 00000KT 7SM BKN007 BKN070 07/07 A2989 RMK AO2 T00720067=
201610281327 SPECI KCLM 281327Z AUTO 00000KT 2 1/2SM BR BKN007 BKN070 08/07 A2989 RMK AO2 VIS 3/4V5 T00780067=
201610281322 SPECI KCLM 281322Z AUTO 23005KT 3/4SM BR BKN006 07/06 A2990 RMK AO2 T00720061=
201610281311 SPECI KCLM 281311Z AUTO 00000KT 1/2SM FG SCT005 BKN110 07/07 A2988 RMK AO2 T00720067=
201610281253 METAR KCLM 281253Z AUTO 00000KT 1SM BR FEW006 BKN110 08/07 A2988 RMK AO2 SLP120 T00780067=
201610281246 SPECI KCLM 281246Z AUTO 00000KT 1SM BR SCT007 BKN110 07/07 A2988 RMK AO2 T00720067=
201610281238 SPECI KCLM 281238Z AUTO 00000KT 1 3/4SM BR BKN007 BKN120 07/07 A2989 RMK AO2 T00670067=
201610281223 SPECI KCLM 281223Z AUTO 00000KT 8SM BKN007 OVC090 08/07 A2989 RMK AO2 T00830072=
201610281214 SPECI KCLM 281214Z AUTO 00000KT 8SM SCT007 SCT065 OVC095 08/07 A2989 RMK AO2 T00830072=
201610281153 METAR KCLM 281153Z AUTO 00000KT 10SM BKN065 OVC095 08/07 A2989 RMK AO2 SLP122 70006 T00830072 10094 20072 50006=
201610281053 METAR KCLM 281053Z AUTO 24004KT 6SM BR SCT070 BKN110 08/07 A2989 RMK AO2 SLP123 T00780072=
201610280953 METAR KCLM 280953Z AUTO 00000KT 6SM BR SCT065 08/07 A2989 RMK AO2 SLP121 T00780072=
201610280910 SPECI KCLM 280910Z AUTO 16004KT 4SM BR SCT003 SCT009 BKN070 08/07 A2988 RMK AO2 T00780067=
201610280853 METAR KCLM 280853Z AUTO 15004KT 6SM BR BKN004 BKN009 08/07 A2987 RMK AO2 CIG 002V008 SLP116 T00780067 51008=
201610280838 SPECI KCLM 280838Z AUTO 12003KT 2 1/2SM BR BKN003 08/07 A2987 RMK AO2 CIG 002V006 T00780067=
201610280832 SPECI KCLM 280832Z AUTO 00000KT 3SM BR SCT003 SCT080 07/06 A2987 RMK AO2 T00720061=
201610280817 SPECI KCLM 280817Z AUTO 22003KT 10SM BKN003 BKN080 08/07 A2987 RMK AO2 T00830072=
201610280753 METAR KCLM 280753Z AUTO 00000KT 10SM FEW004 OVC080 08/07 A2986 RMK AO2 SLP113 T00830072 401330083=
201610280653 METAR KCLM 280653Z AUTO 24003KT 9SM BKN080 BKN100 08/08 A2986 RMK AO2 SLP112 T00830078=
201610280616 SPECI KCLM 280616Z AUTO 00000KT 9SM SCT008 BKN100 09/08 A2985 RMK AO2 T00890078=
201610280553 METAR KCLM 280553Z AUTO 00000KT 10SM BKN100 OVC120 09/08 A2985 RMK AO2 SLP108 T00890078 10122 20089 53010=
201610280453 METAR KCLM 280453Z AUTO 00000KT 9SM BKN100 09/08 A2984 RMK AO2 SLP104 T00890078=
201610280421 SPECI KCLM 280421Z AUTO 00000KT 10SM SCT004 SCT075 10/09 A2983 RMK AO2 T01000089=
201610280353 METAR KCLM 280353Z AUTO 21003KT 8SM CLR 09/08 A2983 RMK AO2 SLP101 T00890083=
201610280253 METAR KCLM 280253Z AUTO 00000KT 8SM SCT070 BKN100 10/09 A2982 RMK AO2 SLP098 T01000089 53002=
201610280153 METAR KCLM 280153Z AUTO 21003KT 10SM BKN070 11/09 A2981 RMK AO2 SLP096 T01060089=
201610280053 METAR KCLM 280053Z AUTO 17004KT 10SM SCT050 BKN065 12/09 A2981 RMK AO2 SLP096 T01170094=
201610280000 SPECI KCLM 280000Z AUTO 11003KT 10SM SCT011 OVC055 12/09 A2981 RMK AO2 T01220094=
201610272353 METAR KCLM 272353Z AUTO 00000KT 10SM BKN011 OVC055 12/09 A2981 RMK AO2 SLP096 60006 T01220094 10133 20117 51003=
201610272306 SPECI KCLM 272306Z AUTO 03003KT 10SM BKN010 OVC065 12/10 A2981 RMK AO2 T01220100=
201610272253 METAR KCLM 272253Z AUTO 00000KT 10SM BKN009 OVC065 12/09 A2981 RMK AO2 RAE2159 SLP095 P0000 T01220094=
201610272233 SPECI KCLM 272233Z AUTO 06003KT 10SM BKN008 BKN065 OVC080 13/09 A2981 RMK AO2 RAE2159 CIG 007V011 P0000 T01280094=
201610272153 METAR KCLM 272153Z AUTO 07003KT 10SM -RA FEW007 BKN070 OVC090 12/10 A2981 RMK AO2 RAE07B20 SLP094 P0000 T01220100=
201610272117 SPECI KCLM 272117Z AUTO 00000KT 10SM FEW009 SCT042 BKN055 12/10 A2980 RMK AO2 RAE07 P0000 T01220100=
201610272053 METAR KCLM 272053Z AUTO 00000KT 4SM -RA BR OVC055 12/11 A2980 RMK AO2 RAB38 SLP092 P0006 60006 T01220106 53000=
201610271953 METAR KCLM 271953Z AUTO 31003KT 10SM SCT070 12/09 A2980 RMK AO2 SLP092 T01220089=
201610271853 METAR KCLM 271853Z AUTO 00000KT 10SM OVC065 13/09 A2980 RMK AO2 RAE1759 SLP092 P0000 T01280089=
201610271753 METAR KCLM 271753Z AUTO 00000KT 10SM -RA SCT070 OVC090 12/09 A2980 RMK AO2 RAB47 SLP092 P0000 60000 T01220089 10122 20083 58001=
201610271653 METAR KCLM 271653Z AUTO 22004KT 10SM OVC075 11/09 A2981 RMK AO2 SLP094 T01060089=
201610271553 METAR KCLM 271553Z AUTO 20004KT 10SM BKN065 OVC080 10/08 A2981 RMK AO2 SLP095 T01000083=
201610271453 METAR KCLM 271453Z AUTO 00000KT 10SM OVC100 08/07 A2981 RMK AO2 SLP094 T00830072 51013=
201610271353 METAR KCLM 271353Z AUTO 00000KT 10SM OVC060 09/08 A2980 RMK AO2 SLP091 T00940078=
201610271253 METAR KCLM 271253Z AUTO 26003KT 10SM OVC065 11/08 A2979 RMK AO2 SLP087 T01060078=
201610271153 METAR KCLM 271153Z AUTO 24008KT 10SM OVC060 12/07 A2977 RMK AO2 SLP081 60006 70053 T01170067 10117 20089 55003=
201610271053 METAR KCLM 271053Z AUTO 20004KT 10SM BKN060 10/08 A2976 RMK AO2 SLP080 T01000083=
201610270953 METAR KCLM 270953Z AUTO VRB05KT 10SM BKN065 12/08 A2976 RMK AO2 RAE24 SLP078 P0002 T01170083=
201610270853 METAR KCLM 270853Z AUTO 00000KT 3SM -RA BR SCT048 BKN070 OVC085 10/09 A2978 RMK AO2 RAB0756 SLP084 P0004 60004 T01000089 51011=
201610270851 SPECI KCLM 270851Z AUTO 00000KT 2 1/2SM -RA BR SCT046 BKN080 OVC095 10/09 A2978 RMK AO2 VIS 1 3/4V5 RAB0756 P0004=
201610270844 SPECI KCLM 270844Z AUTO 09003KT 1 3/4SM -RA BR BKN044 BKN070 OVC090 09/08 A2977 RMK AO2 RAB0756 P0004 T00940078=
201610270753 METAR KCLM 270753Z AUTO 00000KT 7SM FEW047 SCT070 10/09 A2977 RMK AO2 RAB37E48 SLP083 P0000 T01000094 401110061=
201610270713 SPECI KCLM 270713Z AUTO 23004KT 4SM BR SCT001 10/09 A2976 RMK AO2 T01000094=
201610270708 SPECI KCLM 270708Z AUTO 10003KT 2SM BR BKN001 10/09 A2976 RMK AO2 T01000094=
201610270702 SPECI KCLM 270702Z AUTO 09003KT 3/4SM BR VV001 10/09 A2976 RMK AO2 PRESRR T01000094=
201610270653 METAR KCLM 270653Z AUTO 14003KT 1SM BR VV001 10/09 A2974 RMK AO2 SLP073 T01000089=
201610270632 SPECI KCLM 270632Z AUTO 35004KT 1 3/4SM BR OVC003 10/09 A2975 RMK AO2 T01000094=
201610270553 METAR KCLM 270553Z AUTO 00000KT 4SM BR OVC003 11/09 A2975 RMK AO2 SLP076 60000 T01060094 10111 20106 50007=
201610270548 SPECI KCLM 270548Z AUTO 08004KT 4SM BR OVC003 11/09 A2975 RMK AO2=
201610270538 SPECI KCLM 270538Z AUTO VRB03KT 2 1/2SM BR OVC003 11/09 A2975 RMK AO2 T01060094=
201610270453 METAR KCLM 270453Z AUTO 00000KT 4SM BR OVC004 11/09 A2974 RMK AO2 SLP070 T01060094=
201610270353 METAR KCLM 270353Z AUTO 00000KT 6SM BR OVC005 11/10 A2973 RMK AO2 SLP068 T01060100=
201610270253 METAR KCLM 270253Z AUTO 11004KT 6SM BR OVC005 11/10 A2974 RMK AO2 SLP070 60000 T01110100 51005=
201610270153 METAR KCLM 270153Z AUTO 17003KT 9SM OVC006 11/09 A2973 RMK AO2 RAB15E29 SLP067 P0000 T01110094=
201610270053 METAR KCLM 270053Z AUTO 00000KT 9SM OVC005 11/09 A2973 RMK AO2 SLP069 T01110094=
201610270023 SPECI KCLM 270023Z AUTO 00000KT 10SM OVC005 11/10 A2973 RMK AO2 T01110100=
201610262353 METAR KCLM 262353Z AUTO VRB04KT 9SM OVC004 11/09 A2972 RMK AO2 SLP065 60008 T01110094 10111 20100 50001=
201610262253 METAR KCLM 262253Z AUTO 29004KT 10SM OVC004 11/09 A2973 RMK AO2 SLP069 T01110094=
201610262153 METAR KCLM 262153Z AUTO 34004KT 8SM OVC003 11/09 A2973 RMK AO2 RAE36 SLP067 P0000 T01060094=
201610262053 METAR KCLM 262053Z AUTO 00000KT 7SM -RA OVC003 11/10 A2972 RMK AO2 SLP064 P0000 60008 T01110100 56021=
201610261953 METAR KCLM 261953Z AUTO VRB05KT 4SM -RA BR BKN003 OVC010 11/09 A2973 RMK AO2 CIG 002V006 SLP069 P0002 T01110094=
201610261943 SPECI KCLM 261943Z AUTO VRB03KT 5SM -RA BR BKN006 OVC010 11/09 A2974 RMK AO2 CIG 003V009 P0002 T01110094=
201610261927 SPECI KCLM 261927Z AUTO 32003KT 5SM -RA BR FEW004 OVC011 11/09 A2974 RMK AO2 P0000 T01110094=
201610261919 SPECI KCLM 261919Z AUTO 00000KT 5SM -RA BR BKN004 OVC012 11/09 A2974 RMK AO2 CIG 003V007 P0000 T01110094=
201610261853 METAR KCLM 261853Z AUTO 00000KT 5SM -RA BR FEW004 BKN012 OVC050 11/09 A2974 RMK AO2 RAB25 SLP073 P0006 T01060089=
201610261838 SPECI KCLM 261838Z AUTO 04003KT 3SM -RA BR FEW004 OVC013 10/09 A2975 RMK AO2 RAB25 P0004 T01000089=
201610261824 SPECI KCLM 261824Z AUTO VRB04KT 9SM BKN004 BKN009 OVC060 10/09 A2976 RMK AO2 T01000089=
201610261811 SPECI KCLM 261811Z AUTO 00000KT 10SM SCT004 BKN013 OVC075 10/09 A2976 RMK AO2 T01000089=
201610261803 SPECI KCLM 261803Z AUTO 00000KT 10SM FEW004 BKN060 OVC075 10/09 A2976 RMK AO2 T01000089=
201610261753 METAR KCLM 261753Z AUTO 00000KT 10SM SCT006 BKN015 OVC075 10/08 A2978 RMK AO2 RAE47 SLP085 P0002 60039 T01000083 10100 20083 58011=
201610261750 SPECI KCLM 261750Z AUTO 00000KT 10SM SCT006 OVC075 10/08 A2977 RMK AO2 RAE47 P0002=
201610261727 SPECI KCLM 261727Z AUTO 00000KT 10SM -RA OVC006 10/09 A2978 RMK AO2 CIG 003V010 P0002 T01000094=
201610261653 METAR KCLM 261653Z AUTO 10004KT 6SM -RA BR BKN004 BKN009 OVC080 09/08 A2978 RMK AO2 SLP086 P0014 T00940083=
201610261633 SPECI KCLM 261633Z AUTO 11005KT 3SM -RA BR BKN005 BKN070 OVC080 09/08 A2980 RMK AO2 P0010 T00940083=
201610261609 SPECI KCLM 261609Z AUTO 00000KT 5SM -RA BR OVC004 09/08 A2982 RMK AO2 P0004 T00940083=
201610261553 METAR KCLM 261553Z AUTO 11003KT 6SM -RA BR OVC005 09/08 A2982 RMK AO2 SLP098 P0008 T00940083=
201610261453 METAR KCLM 261453Z AUTO 00000KT 8SM -RA OVC006 09/08 A2981 RMK AO2 SLP096 P0004 60015 T00940083 58018=
201610261431 SPECI KCLM 261431Z AUTO 00000KT 8SM -RA BKN008 BKN065 OVC080 09/08 A2982 RMK AO2 P0004 T00890078=
201610261421 SPECI KCLM 261421Z AUTO 00000KT 9SM -RA SCT008 BKN011 OVC080 09/08 A2983 RMK AO2 P0002 T00890078=
201610261413 SPECI KCLM 261413Z AUTO 00000KT 10SM -RA BKN010 BKN044 OVC090 09/08 A2983 RMK AO2 CIG 007V012 P0002 T00940078=
201610261353 METAR KCLM 261353Z AUTO 00000KT 10SM -RA FEW047 BKN080 OVC090 09/08 A2983 RMK AO2 SLP102 P0007 T00890078=
201610261253 METAR KCLM 261253Z AUTO 00000KT 8SM -RA OVC070 09/08 A2985 RMK AO2 RAB26 SLP109 P0004 T00890078=
201610261153 METAR KCLM 261153Z AUTO 00000KT 10SM SCT120 09/07 A2987 RMK AO2 SLP114 70007 T00890072 10089 20061 58025=
201610261107 SPECI KCLM 261107Z AUTO 00000KT 10SM FEW007 08/07 A2988 RMK AO2 T00830067=
201610261053 METAR KCLM 261053Z AUTO 00000KT 10SM FEW012 09/07 A2989 RMK AO2 SLP123 T00890067=
201610261036 SPECI KCLM 261036Z AUTO 00000KT 10SM FEW014 SCT120 08/07 A2990 RMK AO2 T00830067=
201610261012 SPECI KCLM 261012Z AUTO 00000KT 10SM BKN014 OVC110 08/07 A2992 RMK AO2 T00830067=
201610260953 METAR KCLM 260953Z AUTO 21003KT 10SM FEW014 OVC120 08/06 A2993 RMK AO2 SLP135 T00780061=
201610260853 METAR KCLM 260853Z AUTO 19003KT 10SM OVC120 07/06 A2994 RMK AO2 SLP139 T00720056 56008=
201610260800 METAR KCLM NIL=
201610260753 METAR KCLM 260753Z AUTO 00000KT 10SM BKN120 07/05 A2995 RMK AO2 SLP141 T00670050 401610061=
201610260653 METAR KCLM 260653Z AUTO 23005KT 10SM OVC120 08/06 A2995 RMK AO2 SLP144 T00780056=
201610260553 METAR KCLM 260553Z AUTO 13004KT 10SM BKN120 07/05 A2996 RMK AO2 SLP148 T00720050 10156 20067 58006=
201610260453 METAR KCLM 260453Z AUTO 04003KT 10SM FEW120 09/06 A2998 RMK AO2 SLP152 T00940056=
201610260353 METAR KCLM 260353Z AUTO 24007KT 10SM FEW120 10/07 A2998 RMK AO2 SLP151 T01000067=
201610260253 METAR KCLM 260253Z AUTO 23003KT 10SM CLR 08/06 A2998 RMK AO2 SLP153 T00780061 51008=
201610260153 METAR KCLM 260153Z AUTO 24006KT 10SM CLR 09/07 A2997 RMK AO2 SLP149 T00940067=
201610260053 METAR KCLM 260053Z AUTO 25005KT 10SM CLR 12/08 A2997 RMK AO2 SLP149 T01170078=
201610252353 METAR KCLM 252353Z AUTO 00000KT 10SM CLR 15/07 A2996 RMK AO2 SLP145 60000 T01500072 10161 20122 51011=
201610252253 METAR KCLM 252253Z AUTO 10006KT 10SM CLR 16/08 A2995 RMK AO2 RAB25E35 SLP142 P0000 T01560078=
201610252153 METAR KCLM 252153Z AUTO 30006KT 10SM FEW041 BKN065 14/08 A2995 RMK AO2 SLP142 T01390083=
201610252053 METAR KCLM 252053Z AUTO 00000KT 10SM SCT070 13/09 A2992 RMK AO2 RAE02 SLP134 P0000 60000 T01330089 51024=
201610251953 METAR KCLM 251953Z AUTO 00000KT 10SM -RA BKN065 BKN080 13/09 A2991 RMK AO2 RAB20E30B51 SLP128 P0000 T01280089=
201610251853 METAR KCLM 251853Z AUTO VRB03KT 10SM CLR 12/08 A2988 RMK AO2 RAE00 SLP120 P0000 T01220083=
201610251753 METAR KCLM 251753Z AUTO 25008KT 7SM -RA SCT041 BKN070 OVC090 12/09 A2985 RMK AO2 SLP110 P0002 60007 T01220094 10133 20089 51027=
201610251653 METAR KCLM 251653Z AUTO 29003KT 10SM -RA BKN060 OVC080 11/09 A2984 RMK AO2 RAB1554E09B41 SLP104 P0000 T01110094=
201610251553 METAR KCLM 251553Z AUTO 00000KT 10SM SCT055 BKN070 OVC080 10/09 A2981 RMK AO2 RAE1456B19E33 SLP094 P0000 T01000089=
201610251453 METAR KCLM 251453Z AUTO 12007KT 10SM -RA BKN060 OVC070 09/08 A2977 RMK AO2 SLP083 P0003 60005 T00940078 53017=
201610251353 METAR KCLM 251353Z AUTO 24004KT 10SM -RA OVC060 09/07 A2975 RMK AO2 RAE1255B21 SLP074 P0002 T00890072=
201610251253 METAR KCLM 251253Z AUTO VRB03KT 10SM -RA OVC065 09/07 A2972 RMK AO2 RAE1154B24 SLP066 P0000 T00890072=
201610251153 METAR KCLM 251153Z AUTO 20004KT 10SM -RA BKN065 OVC080 09/07 A2972 RMK AO2 RAB1057E08B36 SLP065 P0000 60004 70004 T00940072 10106 20067 51009=
201610251053 METAR KCLM 251053Z AUTO 00000KT 10SM BKN060 OVC075 09/07 A2972 RMK AO2 RAE17 SLP064 P0000 T00940072=
201610250953 METAR KCLM 250953Z AUTO 25008KT 10SM -RA BKN055 OVC070 10/07 A2971 RMK AO2 RAB09 SLP061 P0004 T01000072=
201610250853 METAR KCLM 250853Z AUTO 25004KT 10SM FEW080 09/06 A2970 RMK AO2 SLP056 T00940061 51009=
201610250753 METAR KCLM 250753Z AUTO 08003KT 10SM CLR 08/06 A2969 RMK AO2 SLP055 T00780061 401440067=
201610250653 METAR KCLM 250653Z AUTO 15005KT 10SM SCT065 SCT080 07/06 A2969 RMK AO2 SLP053 T00720056=
201610250553 METAR KCLM 250553Z AUTO 04004KT 10SM OVC085 08/07 A2967 RMK AO2 SLP047 T00830067 10139 20067 51013=
201610250453 METAR KCLM 250453Z AUTO 00000KT 10SM SCT085 07/06 A2966 RMK AO2 SLP044 T00720061=
201610250353 METAR KCLM 250353Z AUTO 23004KT 10SM CLR 08/06 A2965 RMK AO2 SLP040 T00780061=
201610250253 METAR KCLM 250253Z AUTO 24006KT 10SM CLR 09/08 A2963 RMK AO2 SLP034 T00940078 55002=
201610250153 METAR KCLM 250153Z AUTO 20003KT 10SM CLR 11/08 A2962 RMK AO2 SLP032 T01060078=
201610250053 METAR KCLM 250053Z AUTO VRB03KT 10SM CLR 13/08 A2962 RMK AO2 SLP032 T01330083=
201610242353 METAR KCLM 242353Z AUTO 16009KT 10SM SCT070 SCT085 14/09 A2964 RMK AO2 RAE20 SLP036 P0000 60000 T01390089 10144 20128 51013=
201610242253 METAR KCLM 242253Z AUTO 13006KT 10SM -RA OVC075 14/09 A2963 RMK AO2 RAB44 SLP032 P0000 T01390089=
201610242153 METAR KCLM 242153Z AUTO 13008KT 10SM OVC065 14/09 A2961 RMK AO2 RAB25E35 SLP028 P0000 T01440094=
201610242053 METAR KCLM 242053Z AUTO 00000KT 10SM OVC080 13/08 A2960 RMK AO2 SLP023 T01280083 51012=
201610241953 METAR KCLM 241953Z AUTO 22003KT 10SM OVC085 13/08 A2959 RMK AO2 SLP021 T01330078=
201610241853 METAR KCLM 241853Z AUTO 01004KT 10SM OVC095 14/08 A2959 RMK AO2 SLP019 T01390083=
201610241753 METAR KCLM 241753Z AUTO 12004KT 10SM BKN100 13/08 A2956 RMK AO2 SLP011 60000 T01280083 10128 20083 56010=
201610241653 METAR KCLM 241653Z AUTO 09005KT 10SM BKN090 11/09 A2957 RMK AO2 SLP012 T01110089=
201610241553 METAR KCLM 241553Z AUTO 18004KT 10SM BKN110 10/08 A2958 RMK AO2 SLP018 T01000083=
201610241453 METAR KCLM 241453Z AUTO 17005KT 10SM CLR 09/07 A2959 RMK AO2 SLP021 60000 T00890072 56027=
201610241353 METAR KCLM 241353Z AUTO 16003KT 10SM FEW100 09/07 A2961 RMK AO2 SLP029 T00890072=
201610241253 METAR KCLM 241253Z AUTO 16004KT 10SM SCT120 10/08 A2963 RMK AO2 RAB05E17 SLP034 P0000 T01000078=
201610241153 METAR KCLM 241153Z AUTO 14006KT 10SM BKN080 OVC100 11/08 A2967 RMK AO2 SLP049 60000 T01060083 10111 20089 58012=
201610241053 METAR KCLM 241053Z AUTO 17004KT 10SM FEW100 10/08 A2969 RMK AO2 SLP053 T01000083=
201610240953 METAR KCLM 240953Z AUTO 00000KT 10SM SCT120 10/08 A2970 RMK AO2 SLP058 T01000078=
201610240853 METAR KCLM 240853Z AUTO 20003KT 10SM FEW110 10/08 A2971 RMK AO2 SLP061 60000 T01000083 58019=
201610240753 METAR KCLM 240753Z AUTO 13005KT 10SM CLR 09/08 A2973 RMK AO2 SLP069 T00940078 401330056=
201610240653 METAR KCLM 240653Z AUTO 16004KT 10SM FEW100 10/08 A2975 RMK AO2 RAB0554E08 SLP074 P0000 T01000083=
201610240553 METAR KCLM 240553Z AUTO 00000KT 10SM BKN070 OVC085 11/08 A2976 RMK AO2 RAE09 SLP079 P0000 60000 T01060083 10122 20100 55007=
201610240453 METAR KCLM 240453Z AUTO 00000KT 10SM -RA OVC070 11/09 A2976 RMK AO2 RAB49 SLP077 P0000 T01060089=
201610240353 METAR KCLM 240353Z AUTO 00000KT 10SM BKN080 OVC110 10/08 A2976 RMK AO2 SLP079 T01000083=
201610240253 METAR KCLM 240253Z AUTO 15004KT 10SM SCT075 BKN085 BKN110 11/09 A2979 RMK AO2 SLP087 T01110089 56015=
201610240153 METAR KCLM 240153Z AUTO 00000KT 10SM BKN075 BKN090 OVC100 11/09 A2980 RMK AO2 SLP091 T01110089=
201610240053 METAR KCLM 240053Z AUTO 00000KT 10SM SCT070 BKN085 12/08 A2981 RMK AO2 SLP095 T01170083=
201610232353 METAR KCLM 232353Z AUTO 00000KT 10SM CLR 12/09 A2983 RMK AO2 SLP102 T01220089 10133 20117 56015=
201610232253 METAR KCLM 232253Z AUTO 00000KT 10SM FEW020 13/09 A2985 RMK AO2 SLP107 T01330089=
201610232153 METAR KCLM 232153Z AUTO 00000KT 10SM BKN070 13/08 A2986 RMK AO2 SLP112 T01330083=
201610232053 METAR KCLM 232053Z AUTO 00000KT 10SM CLR 13/08 A2988 RMK AO2 SLP118 T01330083 58003=
201610231953 METAR KCLM 231953Z AUTO VRB03KT 10SM CLR 13/09 A2989 RMK AO2 SLP122 T01330089=
201610231853 METAR KCLM 231853Z AUTO 00000KT 10SM SCT060 13/08 A2989 RMK AO2 SLP124 T01280083=
201610231753 METAR KCLM 231753Z AUTO 36005KT 10SM CLR 12/08 A2989 RMK AO2 SLP121 T01220083 10128 20056 51011=
201610231653 METAR KCLM 231653Z AUTO 27003KT 10SM CLR 11/08 A2988 RMK AO2 SLP121 T01060078=
201610231553 METAR KCLM 231553Z AUTO 12003KT 10SM CLR 06/05 A2987 RMK AO2 SLP116 T00610050=
201610231453 METAR KCLM 231453Z AUTO 24004KT 10SM CLR 06/05 A2985 RMK AO2 SLP111 T00610050 51014=
201610231353 METAR KCLM 231353Z AUTO 28004KT 10SM CLR 07/05 A2985 RMK AO2 SLP109 T00670050=
201610231253 METAR KCLM 231253Z AUTO 26006KT 10SM CLR 08/07 A2983 RMK AO2 SLP104 T00830067=
201610231153 METAR KCLM 231153Z AUTO 16005KT 10SM SCT110 07/06 A2981 RMK AO2 SLP095 T00670056 10100 20061 51008=
201610231053 METAR KCLM 231053Z AUTO 30004KT 10SM BKN110 08/07 A2980 RMK AO2 SLP093 T00830067=
201610230953 METAR KCLM 230953Z AUTO 22003KT 10SM SCT110 09/07 A2980 RMK AO2 SLP091 T00890072=
201610230853 METAR KCLM 230853Z AUTO 10003KT 10SM FEW060 BKN100 09/07 A2978 RMK AO2 SLP087 T00890072 53003=
201610230753 METAR KCLM 230753Z AUTO 00000KT 10SM CLR 08/07 A2978 RMK AO2 SLP085 T00780067 401170033=
201610230653 METAR KCLM 230653Z AUTO VRB03KT 10SM CLR 08/06 A2978 RMK AO2 SLP083 T00780061=
201610230553 METAR KCLM 230553Z AUTO 24005KT 10SM BKN065 08/07 A2978 RMK AO2 RAE02 SLP084 P0000 60000 T00830067 10111 20078 55002=
201610230453 METAR KCLM 230453Z AUTO 00000KT 10SM -RA FEW070 BKN090 BKN110 09/08 A2977 RMK AO2 RAE0355B19E29B51 SLP083 P0000 T00890078=
201610230353 METAR KCLM 230353Z AUTO 00000KT 10SM -RA OVC070 09/07 A2978 RMK AO2 RAB39 SLP085 P0000 T00940072=
201610230253 METAR KCLM 230253Z AUTO 00000KT 10SM SCT080 OVC100 09/07 A2978 RMK AO2 SLP087 T00890067 56009=
201610230153 METAR KCLM 230153Z AUTO 25004KT 10SM CLR 09/06 A2979 RMK AO2 SLP088 T00890061=
201610230053 METAR KCLM 230053Z AUTO 22004KT 10SM FEW015 10/07 A2979 RMK AO2 SLP091 T01000072=
201610230036 SPECI KCLM 230036Z AUTO 00000KT 10SM FEW013 FEW023 11/08 A2980 RMK AO2 T01110078=
201610222353 METAR KCLM 222353Z AUTO 00000KT 10SM BKN023 11/07 A2981 RMK AO2 SLP097 T01110067 10117 20100 56025=
201610222253 METAR KCLM 222253Z AUTO 00000KT 10SM CLR 11/07 A2983 RMK AO2 SLP104 T01110067=
201610222153 METAR KCLM 222153Z AUTO 00000KT 10SM CLR 11/07 A2986 RMK AO2 SLP111 T01110067=
201610222053 METAR KCLM 222053Z AUTO 00000KT 10SM FEW010 10/07 A2989 RMK AO2 SLP123 T01000072 58021=
201610221953 METAR KCLM 221953Z AUTO 00000KT 10SM CLR 10/07 A2992 RMK AO2 SLP131 T01000067=
201610221853 METAR KCLM 221853Z AUTO 00000KT 10SM CLR 10/07 A2994 RMK AO2 SLP138 T01000072=
201610221826 SPECI KCLM 221826Z AUTO 00000KT 10SM SCT009 10/07 A2994 RMK AO2 T01000072=
201610221753 METAR KCLM 221753Z AUTO 04003KT 10SM BKN009 11/08 A2995 RMK AO2 SLP143 T01060078 10106 20033 58004=
201610221733 SPECI KCLM 221733Z AUTO 00000KT 10SM FEW009 10/07 A2995 RMK AO2 T01000072=
201610221653 METAR KCLM 221653Z AUTO 00000KT 10SM CLR 09/07 A2995 RMK AO2 SLP144 T00890072=
201610221553 METAR KCLM 221553Z AUTO 00000KT 10SM FEW048 07/06 A2997 RMK AO2 SLP148 T00670056=
201610221453 METAR KCLM 221453Z AUTO 00000KT 10SM CLR 03/02 A2996 RMK AO2 SLP148 T00330022 58002=
201610221409 SPECI KCLM 221409Z AUTO 23005KT 10SM CLR 05/04 A2997 RMK AO2 T00500039=
201610221402 SPECI KCLM 221402Z AUTO 23007KT 2 1/2SM BR CLR 04/03 A2997 RMK AO2 T00440033=
201610221353 METAR KCLM 221353Z AUTO 22003KT 4SM BR CLR 04/04 A2997 RMK AO2 SLP151 T00440039=
201610221253 METAR KCLM 221253Z AUTO 00000KT 7SM CLR 04/03 A2997 RMK AO2 SLP151 T00390033=
201610221153 METAR KCLM 221153Z AUTO 00000KT 6SM BR CLR 04/04 A2997 RMK AO2 SLP150 60000 70026 T00440039 10094 20044 50003=
201610221119 SPECI KCLM 221119Z AUTO 19003KT 5SM BR CLR 05/04 A2997 RMK AO2 T00500039=
201610221111 SPECI KCLM 221111Z AUTO 18003KT 2 1/2SM BR CLR 05/04 A2997 RMK AO2 T00500039=
201610221053 METAR KCLM 221053Z AUTO 00000KT 10SM CLR 06/04 A2997 RMK AO2 SLP151 T00560039=
201610221022 SPECI KCLM 221022Z AUTO 00000KT 3SM BR FEW001 06/04 A2996 RMK AO2 T00560039=
201610220953 METAR KCLM 220953Z AUTO 23006KT 10SM CLR 06/05 A2997 RMK AO2 SLP149 T00560050=
201610220915 SPECI KCLM 220915Z AUTO 20004KT 10SM CLR 06/04 A2996 RMK AO2 T00560044=
201610220908 SPECI KCLM 220908Z AUTO 17004KT 2 1/2SM BR CLR 05/04 A2996 RMK AO2 VIS 3/4V5 T00500039=
201610220853 METAR KCLM 220853Z AUTO 00000KT 6SM BR CLR 06/04 A2996 RMK AO2 SLP146 60000 T00560044 53002=
201610220753 METAR KCLM 220753Z AUTO 00000KT 10SM CLR 08/06 A2995 RMK AO2 SLP143 T00780061 401220039=
201610220724 SPECI KCLM 220724Z AUTO 24009KT 10SM FEW001 08/07 A2995 RMK AO2 T00780067=
201610220717 SPECI KCLM 220717Z AUTO 21004KT 2SM BR FEW001 08/07 A2995 RMK AO2 T00780067=
201610220700 SPECI KCLM 220700Z AUTO 00000KT 1SM BR VV001 07/06 A2995 RMK AO2 VIS 1/2V5 T00720061=
201610220653 METAR KCLM 220653Z AUTO 00000KT 2 1/2SM BR FEW001 07/07 A2995 RMK AO2 VIS 1V5 RAB0559E11 SLP144 P0000 T00720067=
201610220553 METAR KCLM 220553Z AUTO 00000KT 10SM OVC070 09/08 A2995 RMK AO2 RAE53 SLP144 P0002 60010 T00940078 10122 20094 52008=
201610220453 METAR KCLM 220453Z AUTO 00000KT 10SM -RA FEW025 BKN044 OVC070 10/09 A2995 RMK AO2 SLP141 P0006 T01000089=
201610220424 SPECI KCLM 220424Z AUTO 14004KT 5SM RA BR SCT007 OVC049 11/09 A2993 RMK AO2 P0006 T01060089=
201610220353 METAR KCLM 220353Z AUTO 18003KT 10SM -RA OVC007 11/09 A2994 RMK AO2 RAE23B49 CIG 005V011 SLP138 P0000 T01060089=
201610220311 SPECI KCLM 220311Z AUTO 00000KT 9SM -RA BKN008 BKN023 OVC041 11/09 A2993 RMK AO2 P0000 T01060089=
201610220301 SPECI KCLM 220301Z AUTO 25005KT 10SM -RA SCT009 BKN023 OVC042 10/08 A2993 RMK AO2 P0000 T01000083=
201610220253 METAR KCLM 220253Z AUTO 25005KT 9SM -RA FEW019 BKN042 OVC055 11/08 A2993 RMK AO2 RAE08B42 SLP136 P0002 60002 T01060083 53007=
201610220227 SPECI KCLM 220227Z AUTO 31006KT 10SM FEW006 BKN043 OVC060 11/08 A2992 RMK AO2 RAE08 P0000 T01060083=
201610220153 METAR KCLM 220153Z AUTO 14005KT 10SM -RA BKN047 OVC060 11/09 A2992 RMK AO2 SLP132 P0000 T01060089=
201610220053 METAR KCLM 220053Z AUTO 00000KT 10SM -RA FEW049 BKN070 OVC100 11/09 A2991 RMK AO2 RAB47 SLP128 P0000 T01110094=
201610212353 METAR KCLM 212353Z AUTO 17004KT 10SM FEW075 12/09 A2991 RMK AO2 SLP128 60016 T01220089 10122 20094 58013=
201610212253 METAR KCLM 212253Z AUTO 12006KT 10SM BKN065 12/09 A2991 RMK AO2 RAE27 SLP130 P0006 T01220094=
201610212209 SPECI KCLM 212209Z AUTO 14007KT 3SM -RA BR FEW025 OVC055 11/09 A2994 RMK AO2 P0006 T01110094=
201610212202 SPECI KCLM 212202Z AUTO 00000KT 1 1/2SM RA BR FEW025 OVC050 11/09 A2995 RMK AO2 P0004 T01110094=
201610212153 METAR KCLM 212153Z AUTO 00000KT 2 1/2SM RA BR FEW014 SCT025 OVC050 11/09 A2995 RMK AO2 RAB2059 SLP144 P0010 T01060089=
201610212138 SPECI KCLM 212138Z AUTO 00000KT 2SM RA SCT012 BKN026 OVC050 11/08 A2996 RMK AO2 RAB2059 P0004 T01110083=
201610212053 METAR KCLM 212053Z AUTO 33004KT 10SM BKN014 OVC070 11/08 A2994 RMK AO2 SLP141 T01110083 53005=
201610212050 SPECI KCLM 212050Z AUTO 30003KT 10SM BKN012 BKN018 OVC070 11/08 A2994 RMK AO2=
201610212026 SPECI KCLM 212026Z AUTO 30004KT 10SM FEW008 OVC070 11/08 A2994 RMK AO2 T01060083=
201610212014 SPECI KCLM 212014Z AUTO 32005KT 10SM SCT002 BKN006 OVC070 10/08 A2994 RMK AO2 T01000083=
201610212005 SPECI KCLM 212005Z AUTO 33004KT 3SM BR BKN002 OVC070 09/08 A2993 RMK AO2 T00940083=
201610212000 SPECI KCLM 212000Z AUTO 33006KT 1/2SM FG BKN002 BKN070 09/08 A2993 RMK AO2 T00940078=
201610211953 METAR KCLM 211953Z AUTO 32006KT 1SM BR BKN002 BKN095 10/08 A2993 RMK AO2 SLP135 T01000078=
201610211951 SPECI KCLM 211951Z AUTO 33006KT 2 1/2SM BR BKN002 BKN075 BKN095 10/08 A2993 RMK AO2 VIS 3/4V5=
201610211910 SPECI KCLM 211910Z AUTO VRB03KT 9SM FEW004 SCT075 11/08 A2992 RMK AO2 T01060083=
201610211853 METAR KCLM 211853Z AUTO 34005KT 10SM SCT075 10/08 A2993 RMK AO2 SLP136 T01000078=
201610211753 METAR KCLM 211753Z AUTO 03005KT 10SM CLR 12/07 A2994 RMK AO2 SLP139 T01170072 10117 20039 58014=
201610211711 SPECI KCLM 211711Z AUTO VRB03KT 10SM FEW007 SCT100 11/08 A2995 RMK AO2 T01060083=
201610211653 METAR KCLM 211653Z AUTO 00000KT 10SM BKN100 10/08 A2996 RMK AO2 SLP145 T01000083=
201610211611 SPECI KCLM 211611Z AUTO 14005KT 9SM SCT002 OVC100 08/07 A2997 RMK AO2 T00830072=
201610211603 SPECI KCLM 211603Z AUTO 15004KT 1SM BR BKN002 OVC100 08/07 A2997 RMK AO2 T00780067=
201610211553 METAR KCLM 211553Z AUTO 14003KT 1/2SM FG VV001 07/06 A2998 RMK AO2 SLP151 T00670061=
201610211529 SPECI KCLM 211529Z AUTO 00000KT 1/4SM FG VV001 06/05 A2998 RMK AO2 T00610050=
201610211522 SPECI KCLM 211522Z AUTO 00000KT 1SM BR VV001 05/04 A2998 RMK AO2 T00500044=
201610211517 SPECI KCLM 211517Z AUTO 00000KT 2SM BR BKN002 05/04 A2998 RMK AO2 T00500039=
201610211456 SPECI KCLM 211456Z AUTO 00000KT 3/4SM BR VV003 05/04 A2998 RMK AO2 T00500039=
201610211453 METAR KCLM 211453Z AUTO 00000KT 1 1/4SM BR SCT003 04/03 A2998 RMK AO2 VIS 1/2V5 SLP152 T00440033 56016=
201610211431 SPECI KCLM 211431Z AUTO 00000KT 10SM FEW005 SCT012 06/04 A2999 RMK AO2 T00560044=
201610211423 SPECI KCLM 211423Z AUTO 22005KT 2SM BR FEW012 05/04 A2999 RMK AO2 T00500039=
201610211403 SPECI KCLM 211403Z AUTO 00000KT 8SM FEW012 07/05 A2999 RMK AO2 T00670050=
201610211356 SPECI KCLM 211356Z AUTO 00000KT 2 1/2SM BR FEW012 05/04 A2999 RMK AO2 T00500044=
201610211353 METAR KCLM 211353Z AUTO 00000KT 1SM BR VV013 05/04 A2999 RMK AO2 SLP157 T00500044=
201610211348 SPECI KCLM 211348Z AUTO 08003KT 3/4SM BR VV013 05/04 A3000 RMK AO2=
201610211341 SPECI KCLM 211341Z AUTO 00000KT 1 3/4SM BR FEW013 06/04 A3000 RMK AO2 T00560044=
201610211300 SPECI KCLM 211300Z AUTO 22003KT 10SM SCT013 06/05 A3001 RMK AO2 T00610050=
201610211253 METAR KCLM 211253Z AUTO 00000KT 10SM BKN013 06/05 A3001 RMK AO2 SLP162 T00610050=
201610211247 SPECI KCLM 211247Z AUTO 00000KT 3SM BR SCT015 07/05 A3001 RMK AO2=
201610211242 SPECI KCLM 211242Z AUTO 21004KT 1 3/4SM BR FEW015 06/05 A3001 RMK AO2 VIS 1V5 T00610050=
201610211225 SPECI KCLM 211225Z AUTO 00000KT 10SM SCT016 06/04 A3001 RMK AO2 T00610044=
201610211153 METAR KCLM 211153Z AUTO 23005KT 10SM OVC018 06/06 A3003 RMK AO2 SLP168 70050 T00610056 10094 20050 58013=
201610211109 SPECI KCLM 211109Z AUTO 00000KT 10SM BKN018 06/05 A3004 RMK AO2 T00560050=
201610211053 METAR KCLM 211053Z AUTO 00000KT 4SM BR FEW017 06/04 A3004 RMK AO2 SLP174 T00560044=
201610210953 METAR KCLM 210953Z AUTO 00000KT 10SM CLR 07/05 A3005 RMK AO2 SLP177 T00720050=
201610210924 SPECI KCLM 210924Z AUTO 00000KT 10SM SCT021 07/06 A3005 RMK AO2 T00720056=
201610210853 METAR KCLM 210853Z AUTO 00000KT 10SM BKN022 07/06 A3006 RMK AO2 SLP181 T00720056 58011=
201610210753 METAR KCLM 210753Z AUTO 24009KT 10SM CLR 09/06 A3008 RMK AO2 SLP186 T00890061 401610078=
201610210653 METAR KCLM 210653Z AUTO 23007KT 10SM SCT020 09/07 A3008 RMK AO2 SLP187 T00890067=
201610210600 SPECI KCLM 210600Z AUTO 00000KT 10SM BKN022 08/07 A3009 RMK AO2 T00830067=
201610210553 METAR KCLM 210553Z AUTO VRB03KT 10SM SCT023 08/06 A3010 RMK AO2 SLP192 T00780061 10139 20078 50001=
201610210453 METAR KCLM 210453Z AUTO 00000KT 10SM SCT024 08/07 A3010 RMK AO2 SLP194 T00830067=
201610210353 METAR KCLM 210353Z AUTO 24003KT 10SM FEW036 11/08 A3009 RMK AO2 SLP191 T01060083=
201610210318 SPECI KCLM 210318Z AUTO 16004KT 10SM SCT025 OVC032 12/09 A3010 RMK AO2 T01170089=
201610210305 SPECI KCLM 210305Z AUTO VRB03KT 10SM BKN025 BKN030 12/09 A3009 RMK AO2 T01220089=
201610210253 METAR KCLM 210253Z AUTO VRB06KT 10SM SCT025 SCT031 13/09 A3009 RMK AO2 SLP191 T01280089 53005=
201610210153 METAR KCLM 210153Z AUTO 27008KT 10SM CLR 12/09 A3007 RMK AO2 SLP185 T01170089=
201610210053 METAR KCLM 210053Z AUTO 29008KT 10SM SCT065 13/09 A3008 RMK AO2 SLP187 T01280094=
201610202353 METAR KCLM 202353Z AUTO 32003KT 10SM BKN060 14/10 A3008 RMK AO2 SLP186 60000 T01390100 10161 20139 53016=
201610202253 METAR KCLM 202253Z AUTO 33005KT 10SM OVC055 15/09 A3006 RMK AO2 SLP180 T01500089=
201610202153 METAR KCLM 202153Z AUTO 30005KT 10SM BKN065 OVC080 14/10 A3005 RMK AO2 SLP176 T01440100=
201610202053 METAR KCLM 202053Z AUTO 32012G17KT 10SM BKN055 14/11 A3003 RMK AO2 RAB33E44 SLP170 P0000 60000 T01440106 51019=
201610201953 METAR KCLM 201953Z AUTO 32010G16KT 10SM FEW050 BKN065 OVC080 14/11 A3001 RMK AO2 SLP165 T01440106=
201610201853 METAR KCLM 201853Z AUTO 00000KT 10SM FEW047 BKN065 16/12 A2999 RMK AO2 SLP157 T01610117=
201610201753 METAR KCLM 201753Z AUTO 27008KT 10SM CLR 15/10 A2997 RMK AO2 SLP150 60050 T01500100 10150 20106 51017=
201610201653 METAR KCLM 201653Z AUTO 28009KT 10SM CLR 13/11 A2996 RMK AO2 SLP145 T01280106=
201610201553 METAR KCLM 201553Z AUTO 25006KT 10SM FEW060 12/10 A2995 RMK AO2 RAE01 SLP141 P0000 T01170100=
201610201453 METAR KCLM 201453Z AUTO 11003KT 10SM -RA BKN044 BKN055 OVC070 11/10 A2992 RMK AO2 SLP133 P0015 60050 T01110100 50004=
201610201414 SPECI KCLM 201414Z AUTO 20003KT 3SM RA BR FEW002 OVC031 11/10 A2994 RMK AO2 P0011 T01060100=
201610201405 SPECI KCLM 201405Z AUTO 31007KT 2SM RA BR SCT002 BKN017 OVC029 11/09 A2995 RMK AO2 P0007 T01060094=
201610201353 METAR KCLM 201353Z AUTO 26004KT 2SM RA BR BKN002 OVC009 11/09 A2994 RMK AO2 SLP141 P0018 T01060094=
201610201346 SPECI KCLM 201346Z AUTO 26005KT 1 3/4SM -RA BR SCT002 OVC009 11/09 A2994 RMK AO2 P0014 T01060094=
201610201341 SPECI KCLM 201341Z AUTO 30005KT 2 1/2SM -RA BR SCT002 OVC011 11/09 A2993 RMK AO2 PRESRR P0012 T01060094=
201610201332 SPECI KCLM 201332Z AUTO 31006KT 3SM -RA BR FEW002 BKN015 OVC043 11/09 A2992 RMK AO2 P0012 T01060094=
201610201323 SPECI KCLM 201323Z AUTO 00000KT 1 3/4SM RA BR SCT002 OVC015 11/10 A2991 RMK AO2 PRESFR P0010 T01060100=
201610201319 SPECI KCLM 201319Z AUTO 00000KT 2SM RA BR SCT002 OVC013 11/09 A2992 RMK AO2 P0008 T01060094=
201610201309 SPECI KCLM 201309Z AUTO 30005KT 1 1/2SM -RA BR OVC004 11/10 A2995 RMK AO2 P0002 T01060100=
201610201303 SPECI KCLM 201303Z AUTO 32004KT 1 3/4SM -RA BR SCT002 BKN013 OVC026 11/10 A2994 RMK AO2 P0002 T01110100=
201610201253 METAR KCLM 201253Z AUTO 00000KT 2 1/2SM RA BR SCT002 BKN027 OVC080 11/10 A2993 RMK AO2 SLP136 P0017 T01110100=
201610201153 METAR KCLM 201153Z AUTO 16009KT 3SM RA BR FEW028 OVC050 11/09 A2991 RMK AO2 SLP129 P0020 60050 70064 T01060089 10106 20094 56018=
201610201053 METAR KCLM 201053Z AUTO 00000KT 5SM -RA BR BKN055 OVC070 09/09 A2992 RMK AO2 SLP133 P0016 T00940089=
201610201049 SPECI KCLM 201049Z AUTO 19004KT 4SM -RA BR BKN050 BKN065 OVC080 09/08 A2992 RMK AO2 P0016=
201610201039 SPECI KCLM 201039Z AUTO 20004KT 2 1/2SM RA BR FEW007 OVC048 09/08 A2993 RMK AO2 PRESFR P0014 T00940083=
201610201016 SPECI KCLM 201016Z AUTO 25004KT 4SM -RA BR SCT008 SCT015 OVC060 09/09 A2996 RMK AO2 P0004 T00940089=
201610201008 SPECI KCLM 201008Z AUTO 27006KT 3SM -RA BR FEW011 OVC060 09/08 A2996 RMK AO2 P0004 T00940083=
201610200953 METAR KCLM 200953Z AUTO 30003KT 2SM RA BR BKN060 OVC080 09/09 A2996 RMK AO2 SLP147 P0008 T00940089=
201610200853 METAR KCLM 200853Z AUTO 00000KT 4SM -RA BR SCT080 OVC090 10/08 A2995 RMK AO2 RAB04 SLP143 P0004 60006 T01000083 58025=
201610200833 SPECI KCLM 200833Z AUTO 18003KT 6SM -RA BR SCT011 BKN080 OVC095 10/08 A2996 RMK AO2 RAB04 P0000 T01000083=
201610200825 SPECI KCLM 200825Z AUTO 15003KT 7SM -RA SCT007 BKN015 OVC095 10/08 A2996 RMK AO2 RAB04 P0000 T01000083=
201610200803 SPECI KCLM 200803Z AUTO 00000KT 9SM OVC005 10/08 A2996 RMK AO2 CIG 004V009 T01000083=
201610200753 METAR KCLM 200753Z AUTO 00000KT 9SM OVC004 10/09 A2997 RMK AO2 RAB33E42 SLP151 P0000 T01000089 401110028=
201610200723 SPECI KCLM 200723Z AUTO 00000KT 6SM BR OVC002 10/09 A2999 RMK AO2 T01000089=
201610200713 SPECI KCLM 200713Z AUTO 04003KT 2 1/2SM BR OVC001 10/09 A2999 RMK AO2 T01000089=
201610200653 METAR KCLM 200653Z AUTO 00000KT 6SM BR BKN002 OVC080 10/09 A3001 RMK AO2 RAE27 SLP162 P0002 T01000089=
201610200646 SPECI KCLM 200646Z AUTO 00000KT 7SM SCT002 OVC080 10/09 A3000 RMK AO2 RAE27 P0002 T01000089=
201610200553 METAR KCLM 200553Z AUTO 00000KT 5SM -RA BR OVC085 09/08 A3002 RMK AO2 SLP168 P0008 60012 T00940083 10100 20094 58026=
201610200453 METAR KCLM 200453Z AUTO 28003KT 6SM -RA BR OVC090 09/08 A3006 RMK AO2 SLP179 P0002 T00940083=
201610200353 METAR KCLM 200353Z AUTO 14003KT 9SM -RA OVC080 09/08 A3008 RMK AO2 SLP188 P0002 T00940083=
201610200253 METAR KCLM 200253Z AUTO 26006KT 10SM -RA BKN065 OVC090 10/08 A3010 RMK AO2 SLP196 P0000 60000 T01000083 55012=
201610200153 METAR KCLM 200153Z AUTO 30004KT 10SM -RA BKN085 OVC110 09/08 A3010 RMK AO2 RAB47 SLP193 P0000 T00940083=
201610200053 METAR KCLM 200053Z AUTO 00000KT 10SM SCT060 BKN100 10/08 A3010 RMK AO2 SLP194 T01000083=
201610200022 SPECI KCLM 200022Z AUTO 00000KT 10SM SCT006 OVC065 10/08 A3012 RMK AO2 T01000083=
201610192353 METAR KCLM 192353Z AUTO 32003KT 10SM BKN065 BKN090 10/08 A3014 RMK AO2 RAE01 SLP208 P0000 60002 T01000078 10111 20094 58029=
201610192316 SPECI KCLM 192316Z AUTO 00000KT 10SM FEW005 SCT060 BKN075 10/08 A3017 RMK AO2 RAE01 P0000 T01000083=
201610192253 METAR KCLM 192253Z AUTO VRB03KT 9SM -RA FEW025 FEW060 OVC090 11/09 A3018 RMK AO2 RAB30 SLP222 P0002 T01060089=
201610192153 METAR KCLM 192153Z AUTO 00000KT 10SM OVC080 11/09 A3020 RMK AO2 RAE11 SLP227 P0000 T01110089=
201610192053 METAR KCLM 192053Z AUTO 33003KT 10SM -RA FEW007 OVC090 10/08 A3023 RMK AO2 RAB47 SLP238 P0000 60000 T01000083 58010=
201610192004 SPECI KCLM 192004Z AUTO 00000KT 10SM SCT007 OVC090 10/08 A3024 RMK AO2 T01000083=
201610191953 METAR KCLM 191953Z AUTO 26004KT 10SM BKN007 BKN080 OVC095 10/08 A3024 RMK AO2 SLP242 T01000078=
201610191913 SPECI KCLM 191913Z AUTO 00000KT 10SM BKN007 BKN080 OVC100 10/08 A3025 RMK AO2 T01000083=
201610191902 SPECI KCLM 191902Z AUTO 29003KT 10SM SCT006 BKN080 BKN100 10/08 A3026 RMK AO2 T01000083=
201610191853 METAR KCLM 191853Z AUTO 00000KT 10SM BKN100 10/08 A3025 RMK AO2 SLP245 T01000083=
201610191840 SPECI KCLM 191840Z AUTO 28004KT 10SM FEW006 10/08 A3026 RMK AO2 T01000083=
201610191753 METAR KCLM 191753Z AUTO 31003KT 10SM CLR 09/08 A3026 RMK AO2 SLP247 T00940078 10094 20028 58004=
201610191653 METAR KCLM 191653Z AUTO 00000KT 10SM CLR 09/08 A3027 RMK AO2 SLP250 T00890078=
201610191553 METAR KCLM 191553Z AUTO 15003KT 8SM CLR 07/06 A3027 RMK AO2 SLP251 T00720061=
201610191543 SPECI KCLM 191543Z AUTO 23004KT 6SM BR SCT003 06/06 A3027 RMK AO2 T00610056=
201610191501 SPECI KCLM 191501Z AUTO 18003KT 10SM OVC004 06/05 A3027 RMK AO2 T00610050=
201610191453 METAR KCLM 191453Z AUTO 16004KT 10SM BKN005 05/04 A3027 RMK AO2 SLP253 T00500044 55002=
201610191449 SPECI KCLM 191449Z AUTO 16004KT 10SM BKN005 06/04 A3027 RMK AO2=
201610191440 SPECI KCLM 191440Z AUTO 21004KT 7SM SCT005 04/03 A3027 RMK AO2 T00440033=
201610191420 SPECI KCLM 191420Z AUTO 13003KT 3SM BR CLR 04/03 A3027 RMK AO2 T00440033=
201610191358 SPECI KCLM 191358Z AUTO 00000KT 1 3/4SM BR CLR 04/03 A3028 RMK AO2 T00390033=
201610191353 METAR KCLM 191353Z AUTO 00000KT 3SM BR CLR 04/03 A3028 RMK AO2 SLP255 T00390033=
201610191253 METAR KCLM 191253Z AUTO 23003KT 8SM CLR 04/04 A3028 RMK AO2 SLP254 T00440039=
201610191236 SPECI KCLM 191236Z AUTO 24005KT 2 1/2SM BR CLR 03/03 A3027 RMK AO2 VIS 1 1/2V5 T00330028=
201610191214 SPECI KCLM 191214Z AUTO 00000KT 1 3/4SM BR CLR 04/03 A3027 RMK AO2 VIS 1/2V5 T00390033=
201610191159 SPECI KCLM 191159Z AUTO 00000KT 3SM BR CLR 05/04 A3028 RMK AO2 T00500039=
201610191153 METAR KCLM 191153Z AUTO 00000KT 1 1/2SM BR CLR 04/03 A3028 RMK AO2 VIS 1V5 SLP255 70012 T00440033 10083 20033 50002=
201610191145 SPECI KCLM 191145Z AUTO 00000KT 2 1/2SM BR CLR 05/04 A3028 RMK AO2 VIS 1 1/2V5 T00500039=
201610191058 SPECI KCLM 191058Z AUTO 00000KT 3SM BR CLR 05/04 A3028 RMK AO2 T00500044=
201610191053 METAR KCLM 191053Z AUTO 23003KT 1 3/4SM BR CLR 05/04 A3028 RMK AO2 SLP256 T00500039=
201610190953 METAR KCLM 190953Z AUTO 20003KT 4SM BR CLR 06/04 A3028 RMK AO2 SLP256 T00560044=
201610190853 METAR KCLM 190853Z AUTO 00000KT 6SM BR CLR 06/05 A3028 RMK AO2 SLP253 T00560050 53014=
201610190753 METAR KCLM 190753Z AUTO 24004KT 6SM BR CLR 07/06 A3026 RMK AO2 SLP246 T00670056 401390050=
201610190742 SPECI KCLM 190742Z AUTO 00000KT 1 1/2SM BR FEW060 05/04 A3025 RMK AO2 VIS 1/2V5 T00500044=
201610190653 METAR KCLM 190653Z AUTO 00000KT 8SM BKN060 07/06 A3024 RMK AO2 SLP242 T00670056=
201610190553 METAR KCLM 190553Z AUTO 00000KT 7SM BKN080 BKN095 07/06 A3023 RMK AO2 SLP239 T00670056 10139 20061 51018=
201610190453 METAR KCLM 190453Z AUTO 22007KT 9SM CLR 08/07 A3023 RMK AO2 SLP237 T00830067=
201610190353 METAR KCLM 190353Z AUTO 22007KT 10SM BKN070 09/07 A3021 RMK AO2 SLP230 T00940072=
201610190321 SPECI KCLM 190321Z AUTO 24005KT 4SM BR FEW070 08/07 A3019 RMK AO2 T00830067=
201610190313 SPECI KCLM 190313Z AUTO 27003KT 1 3/4SM BR FEW070 07/06 A3019 RMK AO2 T00720061=
201610190253 METAR KCLM 190253Z AUTO 22005KT 10SM SCT070 09/08 A3018 RMK AO2 SLP221 T00940078 53019=
201610190200 METAR KCLM NIL=
201610190153 SPECI KCLM 190153Z AUTO 22004KT 3SM BR CLR 09/08 A3016 RMK AO2 T00940078=
201610190149 METAR KCLM 190149Z AUTO 21003KT 1 3/4SM BR CLR 09/08 A3015 RMK AO2 VIS 1V5 SLP212 T00940078=
201610190148 SPECI KCLM 190148Z AUTO 22003KT 1 3/4SM BR CLR 09/08 A3015 RMK AO2 VIS 1V5=
201610190053 METAR KCLM 190053Z AUTO 00000KT 10SM FEW055 12/09 A3013 RMK AO2 SLP204 T01170089=
201610182353 METAR KCLM 182353Z AUTO 00000KT 10SM FEW014 FEW060 13/08 A3012 RMK AO2 SLP201 60010 T01330083 10139 20106 53016=
201610182345 SPECI KCLM 182345Z AUTO 00000KT 10SM SCT014 SCT060 13/09 A3012 RMK AO2 T01330089=
201610182301 SPECI KCLM 182301Z AUTO 00000KT 10SM BKN014 BKN070 13/09 A3011 RMK AO2 T01330089=
201610182253 METAR KCLM 182253Z AUTO 00000KT 10SM SCT013 BKN050 BKN065 13/09 A3011 RMK AO2 SLP196 T01330094=
201610182153 METAR KCLM 182153Z AUTO 00000KT 10SM FEW036 SCT049 OVC060 13/09 A3009 RMK AO2 RAB2058E48 SLP191 P0000 T01280089=
201610182053 METAR KCLM 182053Z AUTO 00000KT 10SM SCT026 BKN049 OVC060 13/10 A3008 RMK AO2 SLP185 60010 T01280100 51020=
201610181953 METAR KCLM 181953Z AUTO 00000KT 10SM FEW050 OVC065 13/09 A3006 RMK AO2 SLP180 P0002 T01330094=
201610181853 METAR KCLM 181853Z AUTO 19003KT 10SM OVC055 11/09 A3004 RMK AO2 RAE51 SLP174 P0008 T01110094=
201610181817 SPECI KCLM 181817Z AUTO 28004KT 4SM -RA BR BKN050 OVC070 11/09 A3002 RMK AO2 P0008 T01060089=
201610181808 SPECI KCLM 181808Z AUTO 00000KT 2 1/2SM RA BR OVC050 11/09 A3001 RMK AO2 P0008 T01060089=
201610181753 METAR KCLM 181753Z AUTO 00000KT 3SM -RA OVC050 11/08 A3002 RMK AO2 RAB35 SLP165 P0002 60002 T01110083 10128 20072 53025=
201610181653 METAR KCLM 181653Z AUTO 00000KT 10SM BKN060 12/09 A2999 RMK AO2 SLP155 T01170089=
201610181553 METAR KCLM 181553Z AUTO 21003KT 10SM BKN055 08/07 A2997 RMK AO2 SLP148 T00830072=
201610181453 METAR KCLM 181453Z AUTO 16003KT 10SM BKN100 OVC110 08/06 A2994 RMK AO2 SLP139 T00780056 52021=
201610181353 METAR KCLM 181353Z AUTO 00000KT 10SM CLR 08/06 A2992 RMK AO2 SLP132 T00780056=
201610181253 METAR KCLM 181253Z AUTO 21005KT 10SM FEW065 SCT090 09/07 A2990 RMK AO2 SLP125 T00940067=
201610181153 METAR KCLM 181153Z AUTO 21007KT 10SM SCT065 09/07 A2988 RMK AO2 RAE09 SLP118 P0002 60002 70012 T00940072 10117 20094 53013=
201610181053 METAR KCLM 181053Z AUTO 27007KT 10SM -RA OVC060 10/07 A2986 RMK AO2 RAB23 SLP112 P0000 T01000072=
201610180953 METAR KCLM 180953Z AUTO 29009KT 10SM FEW070 BKN095 BKN110 10/07 A2985 RMK AO2 SLP109 T01000067=
201610180853 METAR KCLM 180853Z AUTO 26008KT 10SM OVC080 10/07 A2984 RMK AO2 SLP105 T01000067 53009=
201610180753 METAR KCLM 180753Z AUTO 29004KT 10SM OVC095 11/07 A2983 RMK AO2 SLP103 T01060072 401440078=
201610180653 METAR KCLM 180653Z AUTO 00000KT 10SM FEW075 BKN095 OVC110 10/08 A2981 RMK AO2 SLP094 T01000078=
201610180553 METAR KCLM 180553Z AUTO 24007KT 10SM BKN065 OVC090 11/08 A2981 RMK AO2 RAE49 SLP096 P0000 60000 T01110078 10133 20089 51011=
201610180453 METAR KCLM 180453Z AUTO 23006KT 10SM -RA OVC070 11/08 A2980 RMK AO2 RAB50 SLP092 P0000 T01060078=
201610180353 METAR KCLM 180353Z AUTO 00000KT 10SM BKN070 BKN080 BKN100 09/08 A2980 RMK AO2 SLP090 T00940078=
201610180253 METAR KCLM 180253Z AUTO 22005KT 10SM SCT060 BKN075 10/08 A2978 RMK AO2 SLP085 60000 T01000078 51013=
201610180153 METAR KCLM 180153Z AUTO 22005KT 10SM SCT070 BKN085 12/07 A2976 RMK AO2 RAE0058 SLP079 P0000 T01170072=
201610180053 METAR KCLM 180053Z AUTO 25007KT 10SM -RA BKN060 OVC070 12/08 A2976 RMK AO2 RAB40 SLP077 P0000 T01220078=
201610172353 METAR KCLM 172353Z AUTO 24007KT 10SM BKN065 13/09 A2974 RMK AO2 SLP071 60004 T01330089 10144 20117 51019=
201610172253 METAR KCLM 172253Z AUTO 24006KT 10SM BKN060 BKN080 13/09 A2973 RMK AO2 RAB09E33 SLP067 P0002 T01330089=
201610172153 METAR KCLM 172153Z AUTO 10SM FEW038 OVC050 13/10 A2971 RMK AO2 RAB2058E10 SLP062 P0000 T01280100=
201610172053 METAR KCLM 172053Z AUTO 00000KT 10SM SCT049 OVC060 13/11 A2968 RMK AO2 RAB01E17 SLP052 P0000 60002 T01280106 51030=
201610171953 METAR KCLM 171953Z AUTO 33006KT 10SM BKN055 OVC070 13/10 A2966 RMK AO2 RAE25 SLP043 P0002 T01280100=
201610171853 METAR KCLM 171853Z AUTO 00000KT 8SM -RA OVC055 12/10 A2962 RMK AO2 RAB49 SLP032 P0000 T01220100=
201610171753 METAR KCLM 171753Z AUTO 00000KT 10SM OVC050 12/09 A2959 RMK AO2 SLP022 60006 T01170094 10117 20078 51028=
201610171653 METAR KCLM 171653Z AUTO 00000KT 10SM SCT060 OVC070 11/09 A2957 RMK AO2 SLP013 T01110089=
201610171553 METAR KCLM 171553Z AUTO 00000KT 10SM OVC065 10/09 A2954 RMK AO2 RAE06 SLP003 P0000 T01000089=
201610171453 METAR KCLM 171453Z AUTO 00000KT 10SM -RA OVC060 09/08 A2951 RMK AO2 RAB1357 SLP993 P0006 60006 T00890078 51028=
201610171353 METAR KCLM 171353Z AUTO 00000KT 10SM OVC055 09/07 A2948 RMK AO2 SLP985 T00890072=
201610171253 METAR KCLM 171253Z AUTO 00000KT 10SM BKN110 08/08 A2945 RMK AO2 SLP974 T00830078=
201610171153 METAR KCLM 171153Z AUTO 00000KT 10SM OVC060 09/08 A2943 RMK AO2 SLP965 70021 T00890078 10111 20089 51023=
201610171111 SPECI KCLM 171111Z AUTO 25003KT 10SM FEW006 BKN060 OVC090 10/07 A2941 RMK AO2 T01000072=
201610171053 METAR KCLM 171053Z AUTO 26003KT 10SM OVC085 11/07 A2940 RMK AO2 SLP957 T01060072=
201610170953 METAR KCLM 170953Z AUTO 20004KT 10SM BKN065 OVC090 09/08 A2938 RMK AO2 SLP950 T00940078=
201610170853 METAR KCLM 170853Z AUTO 25003KT 10SM BKN060 OVC095 09/08 A2936 RMK AO2 SLP942 T00940078 53019=
201610170753 METAR KCLM 170753Z AUTO 00000KT 10SM BKN075 BKN100 OVC110 09/08 A2934 RMK AO2 SLP934 T00940078 401390078=
201610170700 SPECI KCLM 170700Z AUTO 14004KT 10SM SCT023 BKN033 OVC100 11/08 A2932 RMK AO2 T01060083=
201610170653 METAR KCLM 170653Z AUTO 10003KT 10SM BKN023 BKN032 OVC100 11/08 A2932 RMK AO2 SLP927 T01060083=
201610170553 METAR KCLM 170553Z AUTO 24004KT 10SM BKN017 BKN065 OVC090 11/08 A2930 RMK AO2 SLP923 T01110083 10128 20106 53006=
201610170543 SPECI KCLM 170543Z AUTO 25006KT 10SM BKN015 BKN020 OVC095 11/08 A2930 RMK AO2 T01110083=
201610170525 SPECI KCLM 170525Z AUTO 25004KT 10SM OVC014 11/08 A2929 RMK AO2 T01110083=
201610170516 SPECI KCLM 170516Z AUTO 26005KT 10SM BKN015 OVC075 11/08 A2929 RMK AO2 T01110083=
201610170453 METAR KCLM 170453Z AUTO 24006KT 10SM FEW017 OVC070 11/09 A2929 RMK AO2 SLP918 T01110089=
201610170410 SPECI KCLM 170410Z AUTO 24004KT 10SM SCT014 BKN090 OVC110 11/09 A2929 RMK AO2 T01060089=
201610170353 METAR KCLM 170353Z AUTO 26006KT 10SM OVC014 11/09 A2929 RMK AO2 SLP917 T01060089=
201610170335 SPECI KCLM 170335Z AUTO 29006KT 10SM BKN014 BKN070 OVC110 11/09 A2929 RMK AO2 T01060089=
201610170253 METAR KCLM 170253Z AUTO 26005KT 10SM BKN075 OVC100 11/09 A2928 RMK AO2 SLP916 T01060089 56010=
201610170153 METAR KCLM 170153Z AUTO 26003KT 10SM BKN075 OVC090 11/09 A2929 RMK AO2 SLP918 T01110094=
201610170053 METAR KCLM 170053Z AUTO 26003KT 10SM BKN070 11/09 A2930 RMK AO2 SLP921 T01110094=
201610162353 METAR KCLM 162353Z AUTO 14003KT 10SM SCT065 BKN120 13/09 A2931 RMK AO2 SLP927 60000 T01280089 10139 20111 58011=
201610162253 METAR KCLM 162253Z AUTO 00000KT 10SM FEW036 SCT110 12/09 A2933 RMK AO2 RAB14E39 SLP933 P0000 T01220089=
201610162153 METAR KCLM 162153Z AUTO 12005KT 10SM FEW060 14/10 A2933 RMK AO2 SLP933 T01390100=
201610162053 METAR KCLM 162053Z AUTO 00000KT 10SM FEW009 FEW046 OVC080 13/10 A2935 RMK AO2 RAE1955B16E45 SLP938 P0000 60000 T01280100 50002=
201610162035 SPECI KCLM 162035Z AUTO 00000KT 9SM -RA FEW009 BKN065 OVC080 12/09 A2935 RMK AO2 RAE1955B16 P0000 T01220094=
201610162003 SPECI KCLM 162003Z AUTO 00000KT 10SM BKN005 OVC060 12/10 A2935 RMK AO2 RAE1955 P0000 T01220100=
201610161953 METAR KCLM 161953Z AUTO 00000KT 10SM -RA SCT005 BKN014 OVC055 12/10 A2935 RMK AO2 RAB31 SLP939 P0000 T01220100=
201610161945 SPECI KCLM 161945Z AUTO VRB03KT 8SM -RA SCT008 SCT018 OVC060 12/10 A2935 RMK AO2 RAB31 P0000 T01220100=
201610161937 SPECI KCLM 161937Z AUTO 34003KT 10SM -RA SCT008 BKN018 OVC060 12/10 A2935 RMK AO2 RAB31 P0000 T01170100=
201610161928 SPECI KCLM 161928Z AUTO 00000KT 10SM BKN008 OVC060 12/10 A2935 RMK AO2 CIG 005V013 T01170100=
201610161853 METAR KCLM 161853Z AUTO 00000KT 10SM FEW006 OVC070 12/09 A2934 RMK AO2 RAB1756E12 SLP937 P0000 T01170094=
201610161818 SPECI KCLM 161818Z AUTO 00000KT 10SM SCT006 BKN060 OVC080 12/10 A2934 RMK AO2 RAB1756E12 P0000 T01170100=
201610161753 METAR KCLM 161753Z AUTO 00000KT 10SM OVC060 11/09 A2934 RMK AO2 RAB08E17 SLP936 P0000 60021 T01110094 10111 20089 51013=
201610161653 METAR KCLM 161653Z AUTO 30005KT 10SM OVC060 11/09 A2933 RMK AO2 RAB16E43 SLP933 P0000 T01060089=
201610161553 METAR KCLM 161553Z AUTO 29003KT 10SM BKN060 OVC070 09/08 A2931 RMK AO2 RAB1458E18B42E51 SLP925 P0000 T00940083=
201610161453 METAR KCLM 161453Z AUTO 32005KT 10SM BKN060 OVC075 09/08 A2930 RMK AO2 RAE41 SLP922 P0002 60021 T00890078 55004=
201610161353 METAR KCLM 161353Z AUTO 14006KT 10SM -RA BKN060 OVC080 09/07 A2930 RMK AO2 SLP921 P0005 T00940072=
201610161253 METAR KCLM 161253Z AUTO VRB03KT 4SM RA BR OVC055 09/08 A2931 RMK AO2 SLP924 P0014 T00940078=
201610161153 METAR KCLM 161153Z AUTO 24006KT 9SM -RA BKN060 OVC080 09/07 A2931 RMK AO2 RAB24 SLP927 P0005 60007 70060 T00940072 10128 20078 58003=
201610161053 METAR KCLM 161053Z AUTO 14006KT 10SM SCT060 SCT110 08/07 A2932 RMK AO2 RAB00E36 SLP928 P0000 T00830067=
201610160953 METAR KCLM 160953Z AUTO 19003KT 9SM BKN070 08/07 A2933 RMK AO2 SLP932 T00780067=
201610160853 METAR KCLM 160853Z AUTO VRB06KT 10SM FEW065 09/07 A2932 RMK AO2 RAB09E23 SLP930 P0000 60002 T00890072 51034=
201610160753 METAR KCLM 160753Z AUTO 14004KT 10SM FEW065 FEW080 09/07 A2930 RMK AO2 RAB02E43 SLP924 P0002 T00940067 401390061=
201610160653 METAR KCLM 160653Z AUTO 24007KT 10SM FEW047 SCT065 09/08 A2928 RMK AO2 RAE51 SLP914 P0000 T00940078=
201610160553 METAR KCLM 160553Z AUTO 00000KT 10SM -RA FEW038 OVC060 11/09 A2922 RMK AO2 SLP896 P0000 60025 T01110089 10139 20094 51050=
201610160453 METAR KCLM 160453Z AUTO 00000KT 10SM -RA SCT045 OVC060 10/09 A2918 RMK AO2 SLP881 P0001 T01000089=
201610160353 METAR KCLM 160353Z AUTO 00000KT 5SM -RA BR OVC055 10/09 A2913 RMK AO2 SLP866 P0005 T01000089=
201610160253 METAR KCLM 160253Z AUTO 31005KT 3SM RA OVC055 11/08 A2908 RMK AO2 SLP846 P0007 60019 T01110083 53048=
201610160153 METAR KCLM 160153Z AUTO 27010G19KT 9SM -RA OVC060 12/08 A2900 RMK AO2 PK WND 21027/0141 SLP821 P0006 T01220083=
201610160101 SPECI KCLM 160101Z AUTO 22004KT 3SM -RA BR OVC060 12/10 A2897 RMK AO2 P0001 T01220100=
201610160053 METAR KCLM 160053Z AUTO 21004KT 2 1/2SM RA BR OVC060 12/11 A2896 RMK AO2 SLP808 P0006 T01220106=
201610152353 METAR KCLM 152353Z AUTO 10010G18KT 10SM -RA BKN065 OVC085 12/10 A2893 RMK AO2 PK WND 09026/2259 SLP797 P0014 60028 T01220100 10122 20100 56017=
201610152348 SPECI KCLM 152348Z AUTO 09014G18KT 6SM -RA BR BKN060 BKN070 OVC090 12/10 A2894 RMK AO2 PK WND 09026/2259 P0014=
201610152338 SPECI KCLM 152338Z AUTO 10011G14KT 2 1/2SM RA BR OVC065 12/10 A2892 RMK AO2 PK WND 09026/2259 P0012 T01220100=
201610152321 SPECI KCLM 152321Z AUTO 11011KT 4SM -RA BR SCT055 OVC070 12/10 A2893 RMK AO2 PK WND 09026/2259 P0006 T01220100=
201610152309 SPECI KCLM 152309Z AUTO 10016G24KT 2 1/2SM RA BR SCT055 BKN070 OVC085 12/09 A2893 RMK AO2 PK WND 09026/2259 P0005 T01170094=
201610152253 METAR KCLM 152253Z AUTO 11018G26KT 9SM -RA SCT060 OVC085 12/09 A2894 RMK AO2 PK WND 10027/2230 RAB11 SLP801 P0002 T01220094=
201610152159 SPECI KCLM 152159Z AUTO 09016G25KT 10SM FEW012 BKN055 OVC070 12/09 A2898 RMK AO2 T01170094=
201610152153 METAR KCLM 152153Z AUTO 09019G25KT 10SM FEW005 BKN012 OVC070 12/10 A2898 RMK AO2 PK WND 09032/2115 PRESFR SLP814 T01220100=
201610152113 SPECI KCLM 152113Z AUTO 09016G32KT 10SM FEW008 OVC014 11/09 A2903 RMK AO2 PK WND 11032/2105 PRESFR T01110094=
201610152053 METAR KCLM 152053Z AUTO 10020G26KT 10SM BKN012 OVC018 12/09 A2908 RMK AO2 PK WND 09026/2052 RAE35 PRESFR SLP846 P0002 60012 T01170094 58072=
201610152029 SPECI KCLM 152029Z AUTO VRB06KT 10SM -RA BKN014 OVC020 12/09 A2912 RMK AO2 P0002 T01220094=
201610152016 SPECI KCLM 152016Z AUTO VRB03KT 10SM -RA BKN018 BKN070 12/10 A2914 RMK AO2 P0002 T01170100=
201610151953 METAR KCLM 151953Z AUTO 00000KT 9SM -RA FEW008 BKN060 OVC070 11/09 A2915 RMK AO2 SLP873 P0003 T01110094=
201610151853 METAR KCLM 151853Z AUTO 00000KT 7SM -RA OVC070 10/09 A2923 RMK AO2 RAB08 SLP900 P0007 T01000089=
201610151753 METAR KCLM 151753Z AUTO 14003KT 10SM FEW003 BKN075 10/08 A2929 RMK AO2 SLP920 60000 T01000083 10106 20072 58046=
201610151717 SPECI KCLM 151717Z AUTO 00000KT 5SM BR BKN001 BKN075 10/09 A2932 RMK AO2 PRESFR T01000089=
201610151653 METAR KCLM 151653Z AUTO 00000KT 10SM FEW002 BKN070 BKN080 09/08 A2935 RMK AO2 RAB1557E48 SLP940 P0000 T00940083=
201610151553 METAR KCLM 151553Z AUTO 00000KT 10SM BKN070 OVC085 09/08 A2940 RMK AO2 RAB11E51 SLP958 P0000 T00890078=
201610151453 METAR KCLM 151453Z AUTO 00000KT 10SM BKN075 OVC095 08/07 A2943 RMK AO2 SLP967 T00830072 58028=
201610151353 METAR KCLM 151353Z AUTO 00000KT 8SM OVC100 08/07 A2947 RMK AO2 SLP979 T00830072=
201610151253 METAR KCLM 151253Z AUTO 00000KT 10SM SCT070 BKN095 07/06 A2949 RMK AO2 SLP986 T00720056=
201610151153 METAR KCLM 151153Z AUTO 23005KT 8SM CLR 07/06 A2951 RMK AO2 SLP995 60003 70102 T00670056 10111 20061 58006=
201610151053 METAR KCLM 151053Z AUTO 18004KT 10SM FEW070 07/06 A2954 RMK AO2 SLP002 T00670056=
201610150953 METAR KCLM 150953Z AUTO 10SM FEW090 08/07 A2954 RMK AO2 SLP004 T00830067=
201610150853 METAR KCLM 150853Z AUTO 25008KT 10SM BKN060 11/07 A2953 RMK AO2 SLP001 60003 T01060072 56003=
201610150753 METAR KCLM 150753Z AUTO 26007KT 10SM BKN060 OVC080 11/08 A2954 RMK AO2 RAB07E49 SLP003 P0003 T01110078 401390083=
201610150653 METAR KCLM 150653Z AUTO 00000KT 10SM SCT075 OVC090 10/08 A2953 RMK AO2 SLP002 T01000083=
201610150553 METAR KCLM 150553Z AUTO 26006KT 10SM OVC065 10/08 A2954 RMK AO2 RAB12E30 SLP004 P0000 60012 T01000083 10133 20083 51011=
201610150453 METAR KCLM 150453Z AUTO 29004KT 10SM CLR 09/08 A2953 RMK AO2 RAE0359 SLP001 P0000 T00890078=
201610150353 METAR KCLM 150353Z AUTO 18004KT 10SM -RA FEW049 BKN065 OVC080 10/09 A2952 RMK AO2 SLP998 P0003 T01000089=
201610150253 METAR KCLM 150253Z AUTO 29007KT 4SM RA BR FEW042 OVC050 11/08 A2951 RMK AO2 SLP993 P0004 60009 T01060083 51045=
201610150153 METAR KCLM 150153Z AUTO 23008KT 10SM -RA OVC065 11/08 A2947 RMK AO2 SLP979 P0003 T01110078=
201610150053 METAR KCLM 150053Z AUTO 25007KT 5SM -RA SCT036 SCT050 OVC060 13/09 A2944 RMK AO2 RAB02 SLP969 P0002 T01280094=
201610142353 METAR KCLM 142353Z AUTO 20004KT 10SM BKN055 OVC070 13/11 A2938 RMK AO2 RAE28 SLP948 P0000 60047 T01330106 10139 20106 51068=
201610142253 METAR KCLM 142253Z AUTO 10003KT 10SM -RA FEW050 BKN060 OVC070 13/11 A2932 RMK AO2 SLP930 P0007 T01280111=
201610142153 METAR KCLM 142153Z AUTO 12005KT 4SM -RA OVC060 13/11 A2927 RMK AO2 PRESRR SLP912 P0008 T01330106=
201610142053 METAR KCLM 142053Z AUTO 27007G20KT 190V340 3SM -RA BKN060 OVC075 14/09 A2917 RMK AO2 SLP878 P0002 60032 T01390094 53006=
201610141953 METAR KCLM 141953Z AUTO 17006KT 4SM -RA BR BKN055 OVC065 11/10 A2915 RMK AO2 SLP871 P0009 T01110100=
201610141943 SPECI KCLM 141943Z AUTO 13006KT 2 1/2SM RA BR BKN050 OVC065 11/09 A2913 RMK AO2 P0007 T01110094=
201610141853 METAR KCLM 141853Z AUTO 14009KT 3SM -RA BR BKN050 OVC060 11/09 A2915 RMK AO2 SLP870 P0021 T01110089=
201610141839 SPECI KCLM 141839Z AUTO 19003KT 2 1/2SM RA BR BKN048 OVC060 11/09 A2916 RMK AO2 P0018 T01060089=
201610141828 SPECI KCLM 141828Z AUTO 13006KT 1 3/4SM +RA BR BKN050 OVC060 11/09 A2915 RMK AO2 LTG DSNT S P0013 T01110089=
201610141753 METAR KCLM 141753Z AUTO 13009KT 6SM -RA BR BKN065 OVC075 11/09 A2916 RMK AO2 SLP873 P0008 60040 T01110094 10111 20100 58009=
201610141703 SPECI KCLM 141703Z AUTO 13004KT 6SM -RA BR BKN049 OVC070 11/09 A2916 RMK AO2 P0000 T01110094=
201610141653 METAR KCLM 141653Z AUTO 11005KT 2 1/2SM RA BR OVC049 11/09 A2916 RMK AO2 SLP874 P0014 T01060089=
201610141643 SPECI KCLM 141643Z AUTO 13003KT 2SM RA BR OVC050 11/09 A2918 RMK AO2 P0010 T01060089=
201610141553 METAR KCLM 141553Z AUTO 09006KT 7SM -RA BKN055 OVC075 11/09 A2918 RMK AO2 SLP882 P0004 T01060089=
201610141453 METAR KCLM 141453Z AUTO 15005KT 10SM -RA BKN045 OVC070 10/09 A2918 RMK AO2 LTG DSNT NW SLP882 P0010 60014 T01000089 55007=
201610141438 SPECI KCLM 141438Z AUTO 00000KT 2 1/2SM RA BR BKN045 OVC055 11/09 A2918 RMK AO2 VIS 1 3/4V4 LTG DSNT W AND NW P0008 T01060089=
201610141427 SPECI KCLM 141427Z AUTO 26005KT 4SM VCTS -RA BR BKN055 OVC070 10/09 A2920 RMK AO2 LTG DSNT W-N P0004 T01000089=
201610141353 METAR KCLM 141353Z AUTO 00000KT 10SM -RA BKN060 OVC075 11/09 A2918 RMK AO2 LTG DSNT S AND SW SLP880 P0002 T01060089=
201610141253 METAR KCLM 141253Z AUTO 00000KT 10SM -RA OVC060 11/09 A2919 RMK AO2 LTG DSNT N AND NW RAE18B38 SLP883 P0002 T01060089=
201610141153 METAR KCLM 141153Z AUTO 00000KT 9SM -RA SCT055 BKN075 OVC090 11/08 A2920 RMK AO2 LTG DSNT W AND NW RAB12 SLP889 P0002 60044 70122 T01060083 10139 20106 51007=
201610141053 METAR KCLM 141053Z AUTO 00000KT 10SM BKN065 11/09 A2920 RMK AO2 LTG DSNT SW SLP889 T01110089=
201610140953 METAR KCLM 140953Z AUTO 00000KT 10SM BKN060 11/09 A2921 RMK AO2 SLP891 T01110094=
201610140853 METAR KCLM 140853Z AUTO 22004KT 10SM SCT065 BKN075 13/08 A2918 RMK AO2 SLP881 P0002 60042 T01280083 51047=
201610140808 SPECI KCLM 140808Z AUTO VRB06KT 10SM FEW001 FEW110 11/10 A2915 RMK AO2 T01110100=
201610140753 METAR KCLM 140753Z AUTO VRB04KT 10SM FEW065 SCT075 BKN110 13/09 A2913 RMK AO2 RAE48 SLP864 P0012 T01330089 401440089=
201610140653 METAR KCLM 140653Z AUTO 25008KT 3SM RA BR FEW004 OVC048 11/10 A2912 RMK AO2 SLP861 P0028 T01110100=
201610140645 SPECI KCLM 140645Z AUTO 29008KT 2 1/2SM RA BR FEW002 OVC046 11/10 A2911 RMK AO2 P0024 T01110100=
201610140630 SPECI KCLM 140630Z AUTO 28009KT 2 1/2SM RA BR BKN002 OVC046 11/10 A2910 RMK AO2 P0016 T01110100=
201610140615 SPECI KCLM 140615Z AUTO 30008KT 4SM RA BR BKN002 OVC048 11/10 A2908 RMK AO2 PRESRR P0008 T01110100=
201610140553 METAR KCLM 140553Z AUTO 30007KT 3SM -RA BR SCT002 BKN050 OVC070 11/10 A2904 RMK AO2 SLP834 P0012 60054 T01110100 10122 20111 55037=
201610140524 SPECI KCLM 140524Z AUTO 36003KT 5SM -RA BR SCT009 BKN055 OVC075 12/11 A2901 RMK AO2 P0008 T01170106=
201610140517 SPECI KCLM 140517Z AUTO VRB03KT 5SM -RA BR FEW007 BKN012 OVC075 12/11 A2902 RMK AO2 P0006 T01170106=
201610140503 SPECI KCLM 140503Z AUTO VRB03KT 4SM RA BR BKN010 BKN018 OVC070 12/11 A2904 RMK AO2 P0004 T01220111=
201610140453 METAR KCLM 140453Z AUTO 11007G14KT 080V140 4SM -RA BR SCT010 BKN055 OVC070 12/11 A2903 RMK AO2 SLP829 P0022 T01220106=
201610140427 SPECI KCLM 140427Z AUTO 09009KT 4SM RA BR SCT010 OVC050 12/11 A2903 RMK AO2 P0016 T01220106=
201610140418 SPECI KCLM 140418Z AUTO 09005KT 3SM RA BR BKN008 OVC045 12/11 A2904 RMK AO2 P0012 T01170106=
201610140411 SPECI KCLM 140411Z AUTO 09006KT 3SM RA BR FEW005 BKN010 OVC047 12/11 A2905 RMK AO2 PRESFR P0010 T01170106=
201610140402 SPECI KCLM 140402Z AUTO 10009KT 4SM RA BR FEW004 OVC008 12/11 A2906 RMK AO2 P0004 T01170106=
201610140353 METAR KCLM 140353Z AUTO 10009KT 6SM -RA BR BKN010 BKN019 OVC050 12/11 A2907 RMK AO2 SLP843 P0010 T01220106=
201610140344 SPECI KCLM 140344Z AUTO 09009KT 6SM -RA BR BKN010 BKN015 OVC055 12/11 A2908 RMK AO2 P0008 T01220111=
201610140329 SPECI KCLM 140329Z AUTO 10010KT 5SM -RA BR SCT006 BKN015 OVC055 12/11 A2909 RMK AO2 PRESFR P0006 T01220106=
201610140253 METAR KCLM 140253Z AUTO 06004KT 5SM -RA BR BKN009 OVC020 12/11 A2915 RMK AO2 PRESFR SLP872 P0006 60010 T01170106 58089=
201610140235 SPECI KCLM 140235Z AUTO 08005KT 6SM -RA BR FEW003 BKN008 OVC013 11/11 A2919 RMK AO2 P0004 T01110106=
201610140225 SPECI KCLM 140225Z AUTO 10004KT 5SM -RA BR SCT002 SCT008 OVC013 11/11 A2920 RMK AO2 P0002 T01110106=
201610140153 METAR KCLM 140153Z AUTO 09009KT 4SM -RA BR BKN003 BKN055 OVC110 12/10 A2925 RMK AO2 RAE13B44 PRESFR SLP906 P0002 T01170100=
201610140131 SPECI KCLM 140131Z AUTO 11009KT 7SM BKN003 BKN011 OVC110 12/11 A2929 RMK AO2 RAE13 P0000 T01170106=
201610140109 SPECI KCLM 140109Z AUTO 16004KT 9SM -RA SCT004 BKN090 BKN120 12/11 A2932 RMK AO2 P0000 T01170106=
201610140053 METAR KCLM 140053Z AUTO 27004KT 8SM -RA FEW075 OVC090 12/11 A2934 RMK AO2 SLP935 P0002 T01170106=
201610132353 METAR KCLM 132353Z AUTO 27006KT 6SM -RA BR FEW004 OVC070 12/11 A2942 RMK AO2 SLP961 P0006 60008 T01170106 10144 20111 58040=
201610132338 SPECI KCLM 132338Z AUTO 26007KT 5SM -RA BR SCT002 OVC070 12/11 A2944 RMK AO2 P0006 T01170106=
201610132304 SPECI KCLM 132304Z AUTO 28007KT 3SM -RA BR BKN002 OVC070 11/10 A2946 RMK AO2 P0002 T01110100=
201610132253 METAR KCLM 132253Z AUTO 29005KT 3SM -RA BR SCT002 OVC070 11/10 A2946 RMK AO2 RAB31 SLP978 P0002 T01110100=
201610132224 SPECI KCLM 132224Z AUTO 30006KT 7SM BKN002 OVC080 12/10 A2948 RMK AO2 T01170100=
201610132215 SPECI KCLM 132215Z AUTO 31005KT 8SM SCT002 OVC080 12/11 A2948 RMK AO2 T01170106=
201610132153 METAR KCLM 132153Z AUTO 31004KT 8SM FEW065 OVC085 12/11 A2950 RMK AO2 SLP990 T01170106=
201610132129 SPECI KCLM 132129Z AUTO 28003KT 10SM SCT004 OVC100 12/10 A2952 RMK AO2 T01220100=
201610132053 METAR KCLM 132053Z AUTO 00000KT 10SM BKN004 BKN100 12/10 A2953 RMK AO2 SLP001 T01220100 56015=
201610132048 SPECI KCLM 132048Z AUTO 00000KT 10SM BKN004 OVC100 12/10 A2954 RMK AO2=
201610132012 SPECI KCLM 132012Z AUTO VRB04KT 10SM FEW003 BKN100 12/11 A2957 RMK AO2 T01220106=
201610131953 METAR KCLM 131953Z AUTO 05003KT 10SM SCT100 13/12 A2957 RMK AO2 SLP013 T01330117=
201610131853 METAR KCLM 131853Z AUTO 00000KT 10SM CLR 13/12 A2958 RMK AO2 SLP017 T01330122=
201610131753 METAR KCLM 131753Z AUTO 06004KT 7SM FEW001 BKN060 12/11 A2961 RMK AO2 SLP026 60016 T01220106 10133 20094 58001=
201610131742 SPECI KCLM 131742Z AUTO 34003KT 7SM FEW001 BKN060 OVC080 12/11 A2961 RMK AO2 T01170106=
201610131653 METAR KCLM 131653Z AUTO 11003KT 10SM BKN080 OVC100 12/11 A2960 RMK AO2 RAE46 SLP024 P0004 T01220111=
201610131553 METAR KCLM 131553Z AUTO 22005KT 4SM -RA BR OVC070 11/09 A2962 RMK AO2 SLP031 P0006 T01060094=
201610131453 METAR KCLM 131453Z AUTO 25003KT 7SM -RA BKN070 OVC090 10/09 A2961 RMK AO2 RAB13 SLP027 P0002 60006 T01000089 53003=
201610131353 METAR KCLM 131353Z AUTO 00000KT 5SM BR SCT065 BKN090 OVC110 10/09 A2960 RMK AO2 RAE05 SLP025 P0000 T01000089=
201610131253 METAR KCLM 131253Z AUTO VRB03KT 7SM -RA OVC080 10/09 A2960 RMK AO2 SLP024 P0004 T01000089=
201610131153 METAR KCLM 131153Z AUTO 25005KT 6SM -RA BR BKN065 BKN080 OVC095 09/08 A2960 RMK AO2 SLP024 P0006 60021 70021 T00940083 10094 20089 55013=
201610131053 METAR KCLM 131053Z AUTO 21004KT 5SM -RA BR BKN070 OVC090 09/08 A2959 RMK AO2 SLP019 P0004 T00940083=
201610130953 METAR KCLM 130953Z AUTO 28004KT 5SM -RA BR BKN075 OVC095 09/08 A2962 RMK AO2 SLP029 P0006 T00940078=
201610130853 METAR KCLM 130853Z AUTO 28003KT 5SM -RA BR SCT080 OVC095 09/08 A2964 RMK AO2 SLP037 P0003 60005 T00890078 56037=
201610130753 METAR KCLM 130753Z AUTO 00000KT 9SM -RA BKN070 OVC090 09/07 A2967 RMK AO2 SLP046 P0002 T00890072 401170000=
201610130653 METAR KCLM 130653Z AUTO 00000KT 10SM -RA FEW050 BKN080 OVC100 09/07 A2971 RMK AO2 RAE05B47 SLP063 P0000 T00890067=
201610130553 METAR KCLM 130553Z AUTO VRB05KT 10SM -RA SCT060 BKN080 BKN110 09/06 A2975 RMK AO2 RAB02E26B50 SLP074 P0000 60000 T00940061 10111 20089 58027=
201610130453 METAR KCLM 130453Z AUTO 19003KT 10SM FEW055 FEW075 OVC110 11/05 A2978 RMK AO2 SLP085 T01060050=
201610130353 METAR KCLM 130353Z AUTO 27004KT 10SM FEW080 SCT100 10/05 A2980 RMK AO2 SLP092 T01000050=
201610130253 METAR KCLM 130253Z AUTO 14003KT 10SM FEW090 FEW110 10/05 A2983 RMK AO2 RAE32 SLP102 P0000 60000 T01000050 56034=
201610130153 METAR KCLM 130153Z AUTO 13005KT 10SM -RA OVC100 11/04 A2984 RMK AO2 RAE21B39 SLP106 P0000 T01060044=
201610130053 METAR KCLM 130053Z AUTO 15004KT 10SM -RA BKN120 11/05 A2989 RMK AO2 RAB29 SLP122 P0000 T01060050=
201610122353 METAR KCLM 122353Z AUTO 24003KT 10SM CLR 11/04 A2993 RMK AO2 SLP136 T01110044 10117 20100 56022=
201610122253 METAR KCLM 122253Z AUTO 02003KT 10SM CLR 11/05 A2995 RMK AO2 SLP143 T01110050=
201610122153 METAR KCLM 122153Z AUTO VRB04KT 10SM CLR 11/04 A2997 RMK AO2 SLP151 T01110044=
201610122053 METAR KCLM 122053Z AUTO 07006KT 10SM CLR 11/05 A2999 RMK AO2 SLP159 T01060050 58022=
201610121953 METAR KCLM 121953Z AUTO 03004KT 10SM CLR 11/04 A3003 RMK AO2 SLP170 T01060044=
201610121853 METAR KCLM 121853Z AUTO 10007KT 10SM FEW011 10/06 A3004 RMK AO2 SLP173 T01000056=
201610121753 METAR KCLM 121753Z AUTO VRB04KT 10SM CLR 11/06 A3006 RMK AO2 SLP181 T01060061 10106 20000 56014=
201610121653 METAR KCLM 121653Z AUTO 12005KT 10SM CLR 10/07 A3007 RMK AO2 SLP183 T01000067=
201610121634 SPECI KCLM 121634Z AUTO 17003KT 10SM FEW010 09/07 A3007 RMK AO2 T00890067=
201610121553 METAR KCLM 121553Z AUTO 15004KT 6SM BR OVC011 07/05 A3008 RMK AO2 SLP188 T00670050=
201610121453 METAR KCLM 121453Z AUTO 00000KT 7SM BKN012 02/00 A3010 RMK AO2 SLP195 T00170000 58009=
201610121353 METAR KCLM 121353Z AUTO 00000KT 10SM CLR 02/01 A3012 RMK AO2 SLP200 T00220011=
201610121253 METAR KCLM 121253Z AUTO 00000KT 10SM CLR 02/01 A3012 RMK AO2 SLP202 T00170006=
201610121153 METAR KCLM 121153Z AUTO 23006KT 10SM CLR 01/M01 A3013 RMK AO2 SLP205 T00111006 10050 20011 58009=
201610121053 METAR KCLM 121053Z AUTO 22003KT 10SM CLR 01/M01 A3014 RMK AO2 SLP208 T00111006=
201610120953 METAR KCLM 120953Z AUTO 24007KT 10SM CLR 04/02 A3015 RMK AO2 SLP212 T00440017=
201610120853 METAR KCLM 120853Z AUTO 22003KT 10SM CLR 02/01 A3016 RMK AO2 SLP215 T00220006 58006=
201610120753 METAR KCLM 120753Z AUTO VRB03KT 10SM CLR 03/01 A3017 RMK AO2 SLP218 T00330011 401220022=
201610120653 METAR KCLM 120653Z AUTO 22003KT 10SM CLR 04/02 A3018 RMK AO2 SLP221 T00390017=
201610120553 METAR KCLM 120553Z AUTO 22005KT 10SM CLR 04/02 A3018 RMK AO2 SLP221 T00390017 10122 20028 55001=
201610120453 METAR KCLM 120453Z AUTO 00000KT 10SM CLR 04/01 A3017 RMK AO2 SLP219 T00390011=
201610120353 METAR KCLM 120353Z AUTO 00000KT 10SM CLR 04/02 A3017 RMK AO2 SLP220 T00440017=
201610120253 METAR KCLM 120253Z AUTO 21003KT 10SM CLR 06/02 A3018 RMK AO2 SLP222 T00560022 56006=
201610120153 METAR KCLM 120153Z AUTO 20004KT 10SM CLR 08/03 A3018 RMK AO2 SLP222 T00780028=
201610120053 METAR KCLM 120053Z AUTO 13005KT 10SM CLR 11/01 A3018 RMK AO2 SLP223 T01110011=
201610112353 METAR KCLM 112353Z AUTO 09004KT 10SM CLR 12/02 A3020 RMK AO2 SLP227 T01220017 10122 20106 57010=
201610112253 METAR KCLM 112253Z AUTO VRB03KT 10SM CLR 12/02 A3021 RMK AO2 SLP229 T01220017=
201610112153 METAR KCLM 112153Z AUTO 05005KT 10SM CLR 12/02 A3022 RMK AO2 SLP234 T01170017=
201610112053 METAR KCLM 112053Z AUTO 04007KT 10SM CLR 12/03 A3023 RMK AO2 SLP237 T01170028 56005=
201610111953 METAR KCLM 111953Z AUTO 11008KT 10SM CLR 12/02 A3023 RMK AO2 SLP239 T01170017=
201610111853 METAR KCLM 111853Z AUTO VRB03KT 10SM CLR 11/03 A3024 RMK AO2 SLP240 T01110028=
201610111753 METAR KCLM 111753Z AUTO VRB03KT 10SM CLR 11/02 A3024 RMK AO2 SLP242 T01110022 10111 20033 50011=
201610111653 METAR KCLM 111653Z AUTO 25006KT 10SM CLR 08/01 A3025 RMK AO2 SLP244 T00830011=
201610111553 METAR KCLM 111553Z AUTO 23007KT 10SM CLR 06/01 A3023 RMK AO2 SLP239 T00560006=
201610111453 METAR KCLM 111453Z AUTO 24007KT 10SM CLR 04/00 A3021 RMK AO2 SLP231 T00440000 53010=
201610111353 METAR KCLM 111353Z AUTO 23008KT 10SM CLR 04/00 A3019 RMK AO2 SLP226 T00390000=
201610111253 METAR KCLM 111253Z AUTO 23008KT 10SM CLR 04/00 A3019 RMK AO2 SLP224 T00390000=
201610111153 METAR KCLM 111153Z AUTO 23008KT 10SM CLR 04/00 A3018 RMK AO2 SLP222 T00390000 10056 20033 51000=
201610111053 METAR KCLM 111053Z AUTO 24009KT 10SM CLR 04/01 A3018 RMK AO2 SLP220 T00440006=
201610110953 METAR KCLM 110953Z AUTO 24008KT 10SM CLR 04/01 A3018 RMK AO2 SLP222 T00440011=
201610110853 METAR KCLM 110853Z AUTO 24007KT 10SM CLR 05/01 A3018 RMK AO2 SLP220 T00500011 53006=
201610110753 METAR KCLM 110753Z AUTO 23007KT 10SM CLR 04/01 A3017 RMK AO2 SLP220 T00440011 401280028=
201610110653 METAR KCLM 110653Z AUTO 24008KT 10SM CLR 05/01 A3016 RMK AO2 SLP216 T00500011=
201610110553 METAR KCLM 110553Z AUTO 22006KT 10SM CLR 05/01 A3016 RMK AO2 SLP214 T00500011 10117 20028 51012=
201610110453 METAR KCLM 110453Z AUTO 00000KT 10SM CLR 04/01 A3016 RMK AO2 SLP214 T00440011=
201610110353 METAR KCLM 110353Z AUTO 00000KT 10SM FEW070 04/02 A3014 RMK AO2 SLP208 T00390017=
201610110253 METAR KCLM 110253Z AUTO 00000KT 10SM CLR 06/03 A3013 RMK AO2 SLP204 T00560033 53006=
201610110153 METAR KCLM 110153Z AUTO 00000KT 10SM CLR 07/03 A3012 RMK AO2 SLP201 T00670033=
201610110053 METAR KCLM 110053Z AUTO 15003KT 10SM CLR 10/03 A3011 RMK AO2 SLP199 T01000028=
201610102353 METAR KCLM 102353Z AUTO 05004KT 10SM SCT060 12/03 A3011 RMK AO2 SLP197 T01170033 10128 20111 55001=
201610102253 METAR KCLM 102253Z AUTO 10003KT 10SM OVC050 13/04 A3011 RMK AO2 SLP197 T01280039=
201610102153 METAR KCLM 102153Z AUTO 08004KT 10SM OVC049 12/04 A3011 RMK AO2 SLP197 T01220044=
201610102111 SPECI KCLM 102111Z AUTO VRB03KT 10SM FEW026 12/06 A3011 RMK AO2 T01170061=
201610102053 METAR KCLM 102053Z AUTO VRB04KT 10SM BKN026 12/06 A3011 RMK AO2 SLP197 T01220061 51004=
201610102011 SPECI KCLM 102011Z AUTO 06005KT 10SM BKN019 11/07 A3011 RMK AO2 T01110067=
201610101953 METAR KCLM 101953Z AUTO VRB05KT 10SM CLR 11/07 A3011 RMK AO2 SLP196 T01110067=
201610101853 METAR KCLM 101853Z AUTO 07006KT 10SM BKN035 12/06 A3010 RMK AO2 SLP194 T01170061=
201610101753 METAR KCLM 101753Z AUTO 10007KT 10SM CLR 12/05 A3010 RMK AO2 SLP193 T01170050 10117 20028 51014=
201610101653 METAR KCLM 101653Z AUTO 00000KT 10SM CLR 10/04 A3009 RMK AO2 SLP190 T01000044=
201610101553 METAR KCLM 101553Z AUTO 00000KT 10SM BKN040 07/04 A3007 RMK AO2 SLP185 T00670044=
201610101453 METAR KCLM 101453Z AUTO 23007KT 10SM CLR 06/03 A3006 RMK AO2 SLP180 T00560028 51009=
201610101353 METAR KCLM 101353Z AUTO 23006KT 10SM CLR 06/03 A3005 RMK AO2 SLP177 T00560028=
201610101253 METAR KCLM 101253Z AUTO 23004KT 10SM CLR 03/02 A3004 RMK AO2 SLP175 T00330017=
201610101153 METAR KCLM 101153Z AUTO 23007KT 10SM CLR 07/04 A3003 RMK AO2 SLP170 T00670039 10083 20061 51012=
201610101053 METAR KCLM 101053Z AUTO 25011KT 10SM CLR 07/04 A3002 RMK AO2 SLP168 T00720039=
201610100953 METAR KCLM 100953Z AUTO 23005KT 10SM CLR 07/04 A3001 RMK AO2 SLP162 T00720044=
201610100853 METAR KCLM 100853Z AUTO 22005KT 10SM CLR 07/04 A3000 RMK AO2 SLP158 T00670044 51004=
201610100753 METAR KCLM 100753Z AUTO 23005KT 10SM CLR 07/05 A2999 RMK AO2 SLP157 T00720050 401280061=
201610100653 METAR KCLM 100653Z AUTO 22005KT 10SM OVC047 08/06 A2999 RMK AO2 SLP156 T00830061=
201610100553 METAR KCLM 100553Z AUTO 23006KT 10SM BKN046 07/06 A2998 RMK AO2 SLP153 T00720056 10128 20061 51005=
201610100453 METAR KCLM 100453Z AUTO 23005KT 10SM BKN033 08/06 A2998 RMK AO2 SLP153 T00780056=
201610100353 METAR KCLM 100353Z AUTO 21003KT 10SM CLR 07/06 A2997 RMK AO2 SLP150 T00670056=
201610100253 METAR KCLM 100253Z AUTO 22003KT 10SM OVC085 09/07 A2997 RMK AO2 SLP149 T00890072 55010=
201610100153 METAR KCLM 100153Z AUTO 00000KT 10SM SCT065 OVC080 10/07 A2997 RMK AO2 SLP148 T01000072=
201610100053 METAR KCLM 100053Z AUTO 14003KT 10SM BKN060 11/07 A2997 RMK AO2 SLP150 T01110067=
201610092353 METAR KCLM 092353Z AUTO 12004KT 10SM BKN065 12/07 A3000 RMK AO2 SLP159 T01170067 10122 20106 56006=
201610092253 METAR KCLM 092253Z AUTO 08004KT 10SM SCT033 BKN070 12/07 A3000 RMK AO2 SLP160 T01170067=
201610092153 METAR KCLM 092153Z AUTO 09006KT 10SM SCT034 12/07 A3001 RMK AO2 SLP164 T01170067=
201610092100 SPECI KCLM 092100Z AUTO 11009KT 10SM FEW026 OVC031 12/07 A3002 RMK AO2 T01170067=
201610092053 METAR KCLM 092053Z AUTO 09007KT 10SM BKN028 OVC034 12/07 A3002 RMK AO2 SLP166 T01220072 58004=
201610091953 METAR KCLM 091953Z AUTO 10007KT 10SM BKN021 OVC027 11/07 A3003 RMK AO2 SLP169 T01110072=
201610091853 METAR KCLM 091853Z AUTO 10006KT 10SM BKN019 OVC036 11/08 A3003 RMK AO2 SLP170 T01110083=
201610091817 SPECI KCLM 091817Z AUTO 09008KT 10SM FEW006 OVC019 12/09 A3003 RMK AO2 T01170089=
201610091810 SPECI KCLM 091810Z AUTO 10008KT 10SM SCT006 BKN011 OVC019 12/09 A3003 RMK AO2 T01170089=
201610091753 METAR KCLM 091753Z AUTO 08005KT 10SM OVC005 11/09 A3003 RMK AO2 SLP170 T01060089 10106 20067 51005=
201610091743 SPECI KCLM 091743Z AUTO 09005KT 10SM OVC005 11/09 A3003 RMK AO2 CIG 003V008 T01060089=
201610091653 METAR KCLM 091653Z AUTO 05003KT 10SM BKN003 OVC034 10/09 A3003 RMK AO2 SLP170 T01000089=
201610091644 SPECI KCLM 091644Z AUTO VRB03KT 10SM SCT003 OVC033 10/09 A3003 RMK AO2 T01000089=
201610091553 METAR KCLM 091553Z AUTO 23004KT 10SM OVC033 09/07 A3002 RMK AO2 SLP167 T00890072=
201610091453 METAR KCLM 091453Z AUTO 22005KT 10SM CLR 07/06 A3002 RMK AO2 SLP165 T00720061 53014=
201610091430 SPECI KCLM 091430Z AUTO 00000KT 7SM CLR 07/06 A3001 RMK AO2 T00720061=
201610091421 SPECI KCLM 091421Z AUTO 00000KT 2 1/2SM BR CLR 07/06 A3001 RMK AO2 T00670056=
201610091353 METAR KCLM 091353Z AUTO 00000KT 10SM CLR 08/07 A3000 RMK AO2 SLP159 T00830072=
201610091253 METAR KCLM 091253Z AUTO 23005KT 10SM CLR 08/07 A2998 RMK AO2 SLP154 T00830072=
201610091153 METAR KCLM 091153Z AUTO 23004KT 10SM CLR 08/07 A2998 RMK AO2 SLP152 70084 T00780067 10106 20072 53007=
201610091119 SPECI KCLM 091119Z AUTO 23005KT 3SM BR CLR 07/06 A2997 RMK AO2 T00720061=
201610091108 SPECI KCLM 091108Z AUTO 00000KT 1 1/2SM BR FEW006 07/06 A2997 RMK AO2 VIS 3/4V5 T00720061=
201610091104 SPECI KCLM 091104Z AUTO 00000KT 2 1/2SM BR CLR 07/06 A2997 RMK AO2 VIS 1V5 T00720061=
201610091053 METAR KCLM 091053Z AUTO 00000KT 1 1/4SM BR FEW003 08/07 A2996 RMK AO2 SLP148 T00780067=
201610091039 SPECI KCLM 091039Z AUTO 00000KT 3/4SM BR VV002 08/07 A2997 RMK AO2 T00780067=
201610091030 SPECI KCLM 091030Z AUTO 00000KT 1SM BR VV002 08/07 A2997 RMK AO2 T00780067=
201610090958 SPECI KCLM 090958Z AUTO 00000KT 1 3/4SM BR CLR 08/07 A2996 RMK AO2 VIS 3/4V5 T00780072=
201610090953 METAR KCLM 090953Z AUTO 00000KT 3SM BR FEW015 08/07 A2996 RMK AO2 SLP144 T00780072=
201610090853 METAR KCLM 090853Z AUTO 23003KT 10SM CLR 09/08 A2994 RMK AO2 SLP138 T00940078 51021=
201610090753 METAR KCLM 090753Z AUTO 25004KT 10SM SCT021 10/08 A2992 RMK AO2 SLP134 T01000083 401280094=
201610090653 METAR KCLM 090653Z AUTO 00000KT 10SM CLR 10/08 A2990 RMK AO2 SLP126 T01000083=
201610090553 METAR KCLM 090553Z AUTO 27005KT 10SM SCT080 11/09 A2988 RMK AO2 SLP117 60007 T01060089 10128 20106 51021=
201610090453 METAR KCLM 090453Z AUTO 28009KT 10SM SCT023 SCT050 OVC060 11/09 A2985 RMK AO2 SLP110 T01110089=
201610090401 SPECI KCLM 090401Z AUTO 27005KT 10SM FEW004 BKN022 OVC055 12/10 A2984 RMK AO2 T01170100=
201610090353 METAR KCLM 090353Z AUTO 27006KT 9SM BKN004 OVC023 12/10 A2984 RMK AO2 RAB09E18 SLP104 P0000 T01170100=
201610090309 SPECI KCLM 090309Z AUTO 00000KT 6SM -RA BR BKN008 OVC012 12/11 A2982 RMK AO2 RAB09 CIG 005V011 P0000 T01170106=
201610090253 METAR KCLM 090253Z AUTO 25003KT 8SM OVC012 12/10 A2981 RMK AO2 RAE08 SLP096 P0000 60007 T01170100 51011=
201610090231 SPECI KCLM 090231Z AUTO 00000KT 10SM SCT006 OVC014 11/10 A2981 RMK AO2 RAE08 P0000 T01110100=
201610090153 METAR KCLM 090153Z AUTO 00000KT 6SM -RA BR FEW003 BKN007 OVC020 11/10 A2980 RMK AO2 SLP092 P0007 T01060100=
201610090150 SPECI KCLM 090150Z AUTO 00000KT 5SM -RA BR SCT003 BKN007 OVC020 11/10 A2980 RMK AO2 P0007=
201610090143 SPECI KCLM 090143Z AUTO 00000KT 2 1/2SM -RA BR SCT003 BKN009 OVC020 11/09 A2980 RMK AO2 P0007 T01060094=
201610090118 SPECI KCLM 090118Z AUTO 00000KT 1 3/4SM -RA BR OVC003 11/10 A2979 RMK AO2 P0002 T01110100=
201610090053 METAR KCLM 090053Z AUTO 09003KT 10SM -RA OVC003 11/10 A2978 RMK AO2 RAB53 SLP085 P0000 T01110100=
201610090030 SPECI KCLM 090030Z AUTO 09005KT 9SM BKN003 OVC065 12/10 A2977 RMK AO2 T01170100=
201610090012 SPECI KCLM 090012Z AUTO VRB03KT 9SM SCT003 BKN060 OVC070 13/11 A2976 RMK AO2 T01280111=
201610082353 METAR KCLM 082353Z AUTO 10005KT 10SM OVC004 12/11 A2976 RMK AO2 SLP078 60017 T01220106 10128 20100 56007=
201610082253 METAR KCLM 082253Z AUTO 10005KT 10SM OVC003 12/11 A2976 RMK AO2 SLP078 T01220106=
201610082153 METAR KCLM 082153Z AUTO 08004KT 10SM OVC004 12/11 A2976 RMK AO2 RAB02E26 SLP078 P0002 T01170106=
201610082053 METAR KCLM 082053Z AUTO 12005KT 10SM OVC004 12/10 A2978 RMK AO2 RAE09 CIG 002V007 SLP085 P0000 60015 T01170100 51000=
201610081953 METAR KCLM 081953Z AUTO 10006KT 6SM -RA BR OVC003 11/10 A2977 RMK AO2 SLP082 P0006 T01110100=
201610081922 SPECI KCLM 081922Z AUTO 09006KT 6SM -RA BR OVC003 11/09 A2978 RMK AO2 P0006 T01060094=
201610081915 SPECI KCLM 081915Z AUTO VRB04KT 2 1/2SM -RA BR OVC003 11/09 A2978 RMK AO2 CIG 003V007 P0006 T01060094=
201610081900 SPECI KCLM 081900Z AUTO 00000KT 4SM -RA BR OVC002 11/09 A2981 RMK AO2 P0002 T01060094=
201610081853 METAR KCLM 081853Z AUTO 00000KT 2 1/2SM -RA BR OVC002 11/09 A2980 RMK AO2 SLP092 P0009 T01060094=
201610081804 SPECI KCLM 081804Z AUTO 08004KT 3SM -RA BR BKN003 OVC029 11/09 A2978 RMK AO2 P0004 T01060094=
201610081753 METAR KCLM 081753Z AUTO 09005KT 1 3/4SM RA BR OVC003 10/09 A2978 RMK AO2 SLP085 P0008 60060 T01000089 10106 20100 56010=
201610081751 SPECI KCLM 081751Z AUTO VRB03KT 1 3/4SM RA BR OVC003 10/09 A2979 RMK AO2 P0008=
201610081733 SPECI KCLM 081733Z AUTO 10004KT 7SM -RA OVC002 11/09 A2978 RMK AO2 P0002 T01060094=
201610081712 SPECI KCLM 081712Z AUTO 00000KT 2 1/2SM -RA BR OVC002 10/09 A2980 RMK AO2 P0000 T01000094=
201610081700 SPECI KCLM 081700Z AUTO VRB03KT 3SM -RA BR OVC002 10/09 A2978 RMK AO2 P0000 T01000094=
201610081653 METAR KCLM 081653Z AUTO 00000KT 1 1/2SM RA BR OVC002 11/09 A2978 RMK AO2 SLP085 P0022 T01060094=
201610081619 SPECI KCLM 081619Z AUTO 28004KT 1 3/4SM RA BR OVC004 10/09 A2980 RMK AO2 P0008 T01000094=
201610081606 SPECI KCLM 081606Z AUTO 27007KT 2 1/2SM RA BR BKN004 OVC070 10/09 A2979 RMK AO2 P0004 T01000089=
201610081600 SPECI KCLM 081600Z AUTO 29005KT 5SM -RA BR BKN005 BKN011 OVC070 10/09 A2979 RMK AO2 P0000 T01000089=
201610081553 METAR KCLM 081553Z AUTO 29006KT 5SM -RA BR SCT005 BKN016 OVC085 11/09 A2979 RMK AO2 SLP087 P0010 T01060089=
201610081539 SPECI KCLM 081539Z AUTO 28004KT 3SM -RA BR SCT008 BKN080 OVC090 10/09 A2978 RMK AO2 P0010 T01000089=
201610081531 SPECI KCLM 081531Z AUTO 29004KT 1 1/2SM -RA BR SCT006 BKN060 OVC080 10/09 A2978 RMK AO2 P0008 T01000089=
201610081527 SPECI KCLM 081527Z AUTO 00000KT 2SM RA BR SCT006 BKN016 OVC095 10/09 A2978 RMK AO2 P0008 T01000089=
201610081518 SPECI KCLM 081518Z AUTO 28003KT 3SM -RA BR BKN006 OVC075 10/09 A2979 RMK AO2 P0004 T01000089=
201610081505 SPECI KCLM 081505Z AUTO 00000KT 1 3/4SM -RA BR BKN007 BKN060 OVC080 10/09 A2980 RMK AO2 P0004 T01000089=
201610081453 METAR KCLM 081453Z AUTO 00000KT 1 1/2SM -RA BR FEW009 SCT060 OVC080 10/09 A2981 RMK AO2 SLP094 P0010 60020 T01000089 58024=
201610081450 SPECI KCLM 081450Z AUTO 00000KT 1 3/4SM -RA BR FEW009 OVC075 10/09 A2981 RMK AO2 P0010=
201610081431 SPECI KCLM 081431Z AUTO 00000KT 4SM -RA BR FEW004 SCT065 OVC080 10/09 A2982 RMK AO2 PRESFR P0008 T01000089=
201610081422 SPECI KCLM 081422Z AUTO 00000KT 2 1/2SM -RA BR FEW011 BKN070 OVC085 10/09 A2983 RMK AO2 P0006 T01000089=
201610081353 METAR KCLM 081353Z AUTO 10004KT 5SM -RA BR FEW002 BKN065 OVC080 10/09 A2984 RMK AO2 SLP107 P0008 T01000089=
201610081253 METAR KCLM 081253Z AUTO 00000KT 9SM -RA FEW007 BKN070 OVC100 10/09 A2988 RMK AO2 SLP119 P0002 T01000089=
201610081248 SPECI KCLM 081248Z AUTO 00000KT 10SM -RA SCT007 BKN070 OVC100 10/09 A2988 RMK AO2 P0002=
201610081205 SPECI KCLM 081205Z AUTO 00000KT 4SM -RA BR BKN009 OVC013 10/09 A2990 RMK AO2 CIG 007V011 P0000 T01000089=
201610081153 METAR KCLM 081153Z AUTO 26003KT 5SM -RA BR OVC012 10/09 A2991 RMK AO2 RAE17B53 SLP130 P0002 60014 70014 T01000089 10111 20100 56022=
201610081150 SPECI KCLM 081150Z AUTO 00000KT 6SM BR OVC012 10/09 A2991 RMK AO2 RAE17 P0002=
201610081053 METAR KCLM 081053Z AUTO 00000KT 4SM -RA BR OVC017 10/09 A2994 RMK AO2 SLP139 P0008 T01000089=
201610080953 METAR KCLM 080953Z AUTO 00000KT 5SM -RA BR BKN024 BKN045 OVC055 11/09 A2998 RMK AO2 SLP152 P0003 T01060094=
201610080853 METAR KCLM 080853Z AUTO 00000KT 6SM -RA BR OVC055 10/09 A2999 RMK AO2 SLP156 P0001 60001 T01000089 58022=
201610080753 METAR KCLM 080753Z AUTO 00000KT 9SM -RA SCT031 OVC065 11/09 A3002 RMK AO2 RAE09B50 SLP164 P0000 T01060094 401780106=
201610080653 METAR KCLM 080653Z AUTO 00000KT 10SM -RA FEW031 FEW065 OVC080 11/09 A3004 RMK AO2 SLP171 P0000 T01060094=
201610080553 METAR KCLM 080553Z AUTO 00000KT 10SM -RA FEW033 SCT060 OVC070 11/08 A3006 RMK AO2 RAB32 SLP178 P0000 60000 T01110083 10133 20111 58000=
201610080453 METAR KCLM 080453Z AUTO 22003KT 10SM OVC030 12/08 A3006 RMK AO2 SLP181 T01170083=
201610080409 SPECI KCLM 080409Z AUTO 00000KT 10SM OVC031 12/08 A3006 RMK AO2 T01170083=
201610080353 METAR KCLM 080353Z AUTO 00000KT 10SM OVC029 12/08 A3005 RMK AO2 SLP177 T01170078=
201610080323 SPECI KCLM 080323Z AUTO 00000KT 10SM BKN028 BKN120 11/08 A3006 RMK AO2 T01110078=
201610080253 METAR KCLM 080253Z AUTO 00000KT 10SM SCT028 12/07 A3006 RMK AO2 SLP179 T01170072 58002=
201610080211 SPECI KCLM 080211Z AUTO 00000KT 10SM SCT029 13/07 A3007 RMK AO2 T01280072=
201610080153 METAR KCLM 080153Z AUTO 00000KT 10SM BKN029 12/08 A3007 RMK AO2 SLP182 T01220078=
201610080053 METAR KCLM 080053Z AUTO 26003KT 10SM FEW031 13/07 A3007 RMK AO2 SLP181 T01280072=
201610072353 METAR KCLM 072353Z AUTO 30004KT 10SM CLR 13/07 A3006 RMK AO2 SLP181 T01330072 10178 20133 51014=
201610072253 METAR KCLM 072253Z AUTO 31007KT 10SM FEW037 13/07 A3006 RMK AO2 SLP178 T01330072=
201610072153 METAR KCLM 072153Z AUTO 29011G17KT 10SM CLR 14/08 A3005 RMK AO2 SLP176 T01390083=
201610072053 METAR KCLM 072053Z AUTO 31014KT 10SM FEW055 16/08 A3002 RMK AO2 SLP166 T01560083 51023=
201610071953 METAR KCLM 071953Z AUTO 30007G15KT 10SM FEW065 17/05 A3001 RMK AO2 SLP162 T01720050=
201610071853 METAR KCLM 071853Z AUTO 27009KT 10SM FEW065 17/05 A2998 RMK AO2 SLP153 T01720050=
201610071753 METAR KCLM 071753Z AUTO 27011G18KT 10SM FEW050 SCT065 17/07 A2995 RMK AO2 SLP143 T01670067 10167 20122 51033=
201610071653 METAR KCLM 071653Z AUTO 31011KT 10SM BKN055 14/08 A2993 RMK AO2 SLP133 T01440078=
201610071553 METAR KCLM 071553Z AUTO 32008KT 10SM OVC060 13/07 A2989 RMK AO2 SLP123 T01330067=
201610071453 METAR KCLM 071453Z AUTO 28011KT 10SM OVC060 13/06 A2986 RMK AO2 SLP111 T01330061 51050=
201610071353 METAR KCLM 071353Z AUTO 16003KT 10SM OVC047 13/08 A2982 RMK AO2 SLP098 T01280083=
201610071253 METAR KCLM 071253Z AUTO 04008KT 10SM BKN060 OVC075 13/08 A2976 RMK AO2 PK WND 21030/1158 PRESRR SLP078 T01280083=
201610071153 METAR KCLM 071153Z AUTO 21015G29KT 10SM CLR 16/05 A2971 RMK AO2 PK WND 21032/1132 SLP059 60004 70011 T01560050 10161 20111 53025=
201610071053 METAR KCLM 071053Z AUTO VRB06KT 10SM BKN060 13/08 A2967 RMK AO2 SLP048 T01280078=
201610070953 METAR KCLM 070953Z AUTO 30004KT 10SM BKN060 BKN075 12/09 A2966 RMK AO2 SLP045 T01170094=
201610070853 METAR KCLM 070853Z AUTO 24004KT 10SM FEW050 OVC065 12/11 A2963 RMK AO2 RAE0758 SLP034 P0000 60004 T01220106 53016=
201610070800 METAR KCLM NIL=
201610070753 METAR KCLM 070753Z AUTO 31004KT 10SM -RA FEW049 BKN060 OVC075 12/10 A2960 RMK AO2 RAE0656B34 SLP023 P0004 T01220100 401610100=
201610070653 METAR KCLM 070653Z AUTO VRB06KT 10SM -RA FEW050 BKN065 OVC080 11/09 A2960 RMK AO2 RAB43 SLP023 P0000 T01110094=
201610070553 METAR KCLM 070553Z AUTO VRB05KT 10SM FEW050 OVC065 12/09 A2958 RMK AO2 RAE15B36E51 SLP018 P0000 60007 T01220094 10161 20106 56054=
201610070453 METAR KCLM 070453Z AUTO 00000KT 10SM -RA FEW044 SCT060 BKN080 12/09 A2963 RMK AO2 PK WND 10026/0405 RAB00 SLP032 P0004 T01220089=
201610070353 METAR KCLM 070353Z AUTO VRB06KT 9SM SCT055 SCT070 BKN110 11/09 A2967 RMK AO2 RAB0257E53 SLP048 P0001 T01060089=
201610070325 SPECI KCLM 070325Z AUTO 00000KT 7SM -RA FEW002 SCT022 BKN065 11/09 A2970 RMK AO2 RAB0257 PRESFR P0000 T01060094=
201610070253 METAR KCLM 070253Z AUTO VRB04KT 10SM FEW010 SCT070 BKN110 11/09 A2974 RMK AO2 RAB17E48 SLP073 P0002 60002 T01110094 56058=
201610070153 METAR KCLM 070153Z AUTO 17008KT 080V190 10SM FEW009 SCT070 12/09 A2981 RMK AO2 SLP095 T01170094=
201610070053 METAR KCLM 070053Z AUTO 09005KT 10SM FEW017 SCT065 BKN120 12/09 A2985 RMK AO2 RAB2359E18 PRESFR SLP109 P0000 T01170094=
201610070001 SPECI KCLM 070001Z AUTO 10004KT 10SM -RA FEW018 OVC075 13/09 A2991 RMK AO2 RAB2359 PRESFR P0000 T01280094=
201610062353 METAR KCLM 062353Z AUTO 11003KT 10SM BKN018 OVC075 13/09 A2992 RMK AO2 SLP132 60000 T01280094 10139 20128 58040=
201610062253 METAR KCLM 062253Z AUTO 12003KT 10SM OVC018 13/09 A2997 RMK AO2 SLP149 T01280094=
201610062153 METAR KCLM 062153Z AUTO 11004KT 10SM OVC018 13/09 A3001 RMK AO2 RAE38 SLP162 P0000 T01280094=
201610062053 METAR KCLM 062053Z AUTO 09005KT 9SM -RA OVC019 13/09 A3004 RMK AO2 RAB46 SLP172 P0000 60000 T01280089 58017=
201610061953 METAR KCLM 061953Z AUTO 00000KT 10SM OVC018 13/08 A3006 RMK AO2 SLP180 T01330083=
201610061853 METAR KCLM 061853Z AUTO 35003KT 10SM OVC017 13/09 A3007 RMK AO2 SLP184 T01330089=
201610061753 METAR KCLM 061753Z AUTO 34003KT 10SM OVC017 13/09 A3009 RMK AO2 SLP189 T01330089 10139 20111 51004=
201610061653 METAR KCLM 061653Z AUTO 00000KT 10SM OVC017 13/09 A3008 RMK AO2 SLP187 T01330089=
201610061553 METAR KCLM 061553Z AUTO 17003KT 10SM OVC016 13/09 A3009 RMK AO2 SLP188 T01280094=
201610061453 METAR KCLM 061453Z AUTO 00000KT 10SM OVC015 12/09 A3008 RMK AO2 SLP186 T01170094 50002=
201610061353 METAR KCLM 061353Z AUTO 25004KT 10SM OVC013 11/09 A3008 RMK AO2 SLP187 T01110089=
201610061253 METAR KCLM 061253Z AUTO 00000KT 10SM OVC013 11/09 A3007 RMK AO2 SLP184 T01110094=
201610061207 SPECI KCLM 061207Z AUTO 24003KT 10SM BKN013 OVC033 11/09 A3007 RMK AO2 T01110089=
201610061153 METAR KCLM 061153Z AUTO 25003KT 10SM FEW012 BKN033 OVC070 11/09 A3007 RMK AO2 SLP182 T01110094 10122 20100 50003=
201610061053 METAR KCLM 061053Z AUTO 00000KT 10SM BKN031 OVC070 11/09 A3007 RMK AO2 SLP183 T01110094=
201610060953 METAR KCLM 060953Z AUTO 25004KT 10SM BKN031 BKN041 BKN048 11/09 A3007 RMK AO2 SLP183 T01060094=
201610060853 METAR KCLM 060853Z AUTO 00000KT 10SM FEW033 SCT040 OVC060 11/09 A3006 RMK AO2 SLP179 T01110094 51007=
201610060753 METAR KCLM 060753Z AUTO 00000KT 10SM BKN040 OVC065 11/09 A3006 RMK AO2 SLP178 T01110094 401670083=
201610060653 METAR KCLM 060653Z AUTO 00000KT 10SM BKN041 OVC065 12/09 A3005 RMK AO2 SLP176 T01170094=
201610060553 METAR KCLM 060553Z AUTO 22003KT 10SM FEW041 BKN050 OVC065 12/09 A3004 RMK AO2 SLP173 T01220094 10156 20111 53008=
201610060453 METAR KCLM 060453Z AUTO 25003KT 10SM BKN065 12/09 A3003 RMK AO2 SLP170 T01170089=
201610060353 METAR KCLM 060353Z AUTO 24003KT 10SM OVC050 13/09 A3002 RMK AO2 SLP168 T01280089=
201610060253 METAR KCLM 060253Z AUTO 25003KT 10SM OVC050 12/09 A3001 RMK AO2 SLP165 T01220094 51015=
201610060153 METAR KCLM 060153Z AUTO 32004KT 10SM FEW048 BKN065 12/09 A3000 RMK AO2 SLP160 T01220089=
201610060053 METAR KCLM 060053Z AUTO 31004KT 10SM OVC055 14/09 A2999 RMK AO2 SLP156 T01390089=
201610052353 METAR KCLM 052353Z AUTO 36003KT 10SM CLR 16/08 A2997 RMK AO2 SLP148 T01560083 10167 20117 53009=
201610052253 METAR KCLM 052253Z AUTO 36004KT 10SM CLR 16/09 A2996 RMK AO2 SLP144 T01560089=
201610052153 METAR KCLM 052153Z AUTO VRB04KT 10SM CLR 16/09 A2995 RMK AO2 SLP140 T01560089=
201610052053 METAR KCLM 052053Z AUTO 04005KT 10SM CLR 15/09 A2994 RMK AO2 SLP140 T01500094 51008=
201610052012 SPECI KCLM 052012Z AUTO 01004KT 10SM SCT015 13/10 A2994 RMK AO2 T01280100=
201610051953 METAR KCLM 051953Z AUTO VRB03KT 10SM FEW008 BKN013 OVC110 15/11 A2994 RMK AO2 SLP138 T01500106=
201610051950 SPECI KCLM 051950Z AUTO 00000KT 10SM FEW008 BKN013 OVC110 14/11 A2994 RMK AO2=
201610051939 SPECI KCLM 051939Z AUTO VRB03KT 10SM BKN010 14/11 A2994 RMK AO2 CIG 007V012 T01390106=
201610051917 SPECI KCLM 051917Z AUTO 31003KT 10SM SCT005 12/10 A2993 RMK AO2 T01220100=
201610051853 METAR KCLM 051853Z AUTO 35004KT 10SM BKN005 13/11 A2992 RMK AO2 SLP133 T01280111=
201610051835 SPECI KCLM 051835Z AUTO 36004KT 10SM BKN005 12/10 A2992 RMK AO2 T01170100=
201610051753 METAR KCLM 051753Z AUTO 00000KT 10SM FEW008 OVC110 12/10 A2990 RMK AO2 SLP127 60000 T01220100 10128 20083 51017=
201610051745 SPECI KCLM 051745Z AUTO 00000KT 10SM SCT008 OVC110 12/10 A2990 RMK AO2 T01220100=
201610051706 SPECI KCLM 051706Z AUTO 26003KT 10SM FEW021 SCT026 SCT120 12/10 A2989 RMK AO2 T01220100=
201610051653 METAR KCLM 051653Z AUTO 24004KT 10SM FEW021 BKN026 BKN120 12/10 A2989 RMK AO2 SLP123 T01170100=
201610051641 SPECI KCLM 051641Z AUTO 26003KT 10SM BKN026 12/09 A2989 RMK AO2 T01170094=
201610051607 SPECI KCLM 051607Z AUTO 24005KT 10SM SCT005 SCT026 11/09 A2988 RMK AO2 T01060094=
201610051553 METAR KCLM 051553Z AUTO 24006KT 10SM BKN005 11/09 A2988 RMK AO2 CIG 003V007 SLP117 T01060094=
201610051523 SPECI KCLM 051523Z AUTO 25004KT 10SM BKN003 BKN006 10/09 A2986 RMK AO2 T01000089=
201610051453 METAR KCLM 051453Z AUTO 23003KT 10SM SCT006 08/07 A2985 RMK AO2 SLP109 60000 T00830072 53012=
201610051353 METAR KCLM 051353Z AUTO 23003KT 10SM SCT004 09/08 A2983 RMK AO2 SLP103 T00890078=
201610051309 SPECI KCLM 051309Z AUTO 24006KT 10SM BKN004 09/08 A2983 RMK AO2 T00940083=
201610051253 METAR KCLM 051253Z AUTO 00000KT 8SM SCT006 BKN120 09/08 A2982 RMK AO2 RAE1159 SLP099 P0000 T00940083=
201610051202 SPECI KCLM 051202Z AUTO 00000KT 8SM FEW006 BKN090 OVC110 11/09 A2982 RMK AO2 RAE1159 P0000 T01060094=
201610051153 METAR KCLM 051153Z AUTO 23003KT 8SM -RA OVC090 11/09 A2982 RMK AO2 SLP097 P0006 60014 70014 T01060094 10111 20083 53002=
201610051053 METAR KCLM 051053Z AUTO 24003KT 5SM -RA BR FEW006 OVC060 11/10 A2980 RMK AO2 SLP092 P0006 T01060100=
201610051050 SPECI KCLM 051050Z AUTO 24003KT 5SM -RA BR SCT006 OVC060 11/10 A2980 RMK AO2 P0006=
201610050953 METAR KCLM 050953Z AUTO 23005KT 6SM -RA BR OVC005 11/09 A2981 RMK AO2 RAB16 SLP095 P0002 T01110094=
201610050942 SPECI KCLM 050942Z AUTO 22005KT 7SM -RA OVC005 11/09 A2981 RMK AO2 RAB16 P0000 T01060094=
201610050853 METAR KCLM 050853Z AUTO 24003KT 10SM BKN004 BKN075 OVC090 10/09 A2980 RMK AO2 SLP093 T01000089 52002=
201610050811 SPECI KCLM 050811Z AUTO 00000KT 10SM BKN004 BKN070 OVC100 10/09 A2980 RMK AO2 T01000089=
201610050801 SPECI KCLM 050801Z AUTO 00000KT 10SM SCT004 SCT070 OVC100 10/09 A2980 RMK AO2 T01000089=
201610050753 METAR KCLM 050753Z AUTO 00000KT 10SM FEW070 OVC100 10/09 A2980 RMK AO2 SLP092 T01000089 401500072=
201610050653 METAR KCLM 050653Z AUTO 00000KT 10SM BKN070 09/08 A2980 RMK AO2 SLP092 T00940078=
201610050553 METAR KCLM 050553Z AUTO 24003KT 10SM CLR 09/08 A2980 RMK AO2 SLP091 T00940078 10144 20094 51004=
201610050453 METAR KCLM 050453Z AUTO 00000KT 10SM FEW065 BKN080 11/09 A2980 RMK AO2 SLP090 T01060089=
201610050353 METAR KCLM 050353Z AUTO 00000KT 10SM SCT070 BKN095 OVC110 11/09 A2979 RMK AO2 SLP089 T01110089=
201610050253 METAR KCLM 050253Z AUTO 00000KT 10SM BKN080 11/08 A2979 RMK AO2 SLP087 T01060083 57000=
201610050153 METAR KCLM 050153Z AUTO 00000KT 10SM FEW065 11/08 A2978 RMK AO2 SLP087 T01110083=
201610050053 METAR KCLM 050053Z AUTO 15003KT 10SM FEW075 BKN120 14/09 A2979 RMK AO2 SLP088 T01390089=
201610042353 METAR KCLM 042353Z AUTO 10003KT 10SM FEW070 14/09 A2979 RMK AO2 SLP088 60000 T01390089 10150 20111 57005=
201610042253 METAR KCLM 042253Z AUTO 05003KT 10SM FEW047 BKN070 OVC120 14/09 A2979 RMK AO2 RAB21E50 SLP089 P0000 T01440089=
201610042153 METAR KCLM 042153Z AUTO 35003KT 10SM SCT065 13/09 A2980 RMK AO2 SLP091 T01280089=
201610042053 METAR KCLM 042053Z AUTO 36005KT 10SM OVC070 12/09 A2980 RMK AO2 SLP093 T01220094 56003=
201610041953 METAR KCLM 041953Z AUTO 01004KT 10SM FEW065 SCT080 13/09 A2981 RMK AO2 SLP094 T01280094=
201610041853 METAR KCLM 041853Z AUTO 00000KT 6SM BR BKN120 12/10 A2981 RMK AO2 SLP094 T01220100=
201610041812 SPECI KCLM 041812Z AUTO 00000KT 6SM BR FEW003 BKN120 12/10 A2981 RMK AO2 T01170100=
201610041753 METAR KCLM 041753Z AUTO 04005KT 6SM BR SCT100 SCT120 11/09 A2981 RMK AO2 SLP096 T01110094 10133 20072 53002=
201610041653 METAR KCLM 041653Z AUTO 00000KT 10SM FEW065 OVC100 12/10 A2981 RMK AO2 SLP095 T01170100=
201610041553 METAR KCLM 041553Z AUTO 00000KT 10SM OVC060 11/09 A2981 RMK AO2 SLP095 T01060089=
201610041453 METAR KCLM 041453Z AUTO 00000KT 9SM OVC060 09/08 A2981 RMK AO2 SLP094 T00890078 51005=
201610041429 SPECI KCLM 041429Z AUTO 00000KT 8SM SCT060 SCT100 08/07 A2980 RMK AO2 T00830072=
201610041420 SPECI KCLM 041420Z AUTO 00000KT 2SM BR SCT060 08/07 A2980 RMK AO2 T00830072=
201610041353 METAR KCLM 041353Z AUTO 00000KT 6SM BR SCT055 BKN120 08/07 A2980 RMK AO2 SLP093 T00830072=
201610041343 SPECI KCLM 041343Z AUTO 09004KT 3SM BR FEW060 SCT120 08/07 A2980 RMK AO2 T00780067=
201610041337 SPECI KCLM 041337Z AUTO 00000KT 1 3/4SM BR FEW060 08/07 A2980 RMK AO2 VIS 1V5 T00780067=
201610041253 METAR KCLM 041253Z AUTO 33003KT 10SM OVC060 09/08 A2980 RMK AO2 SLP092 T00940083=
201610041153 METAR KCLM 041153Z AUTO 00000KT 8SM BKN060 OVC070 09/08 A2979 RMK AO2 SLP089 60000 70008 T00940083 10106 20089 58000=
201610041053 METAR KCLM 041053Z AUTO 00000KT 9SM SCT060 BKN075 OVC090 09/08 A2980 RMK AO2 SLP091 T00940078=
201610040953 METAR KCLM 040953Z AUTO 00000KT 9SM BKN065 OVC080 09/08 A2979 RMK AO2 RAB12E37 SLP089 P0000 T00940083=
201610040853 METAR KCLM 040853Z AUTO 23004KT 8SM SCT008 BKN060 OVC095 09/08 A2979 RMK AO2 SLP090 T00940078 55002=
201610040805 SPECI KCLM 040805Z AUTO 00000KT 3SM BR FEW001 SCT060 BKN110 09/08 A2979 RMK AO2 T00940083=
201610040756 SPECI KCLM 040756Z AUTO 00000KT 1 3/4SM BR FEW001 BKN060 BKN100 09/08 A2979 RMK AO2 VIS 1/2V5 T00890083=
201610040753 METAR KCLM 040753Z AUTO 00000KT 4SM BR BKN060 BKN100 09/08 A2979 RMK AO2 SLP089 T00890083 401330039=
201610040653 METAR KCLM 040653Z AUTO 23003KT 7SM OVC060 10/09 A2980 RMK AO2 SLP092 T01000089=
201610040633 SPECI KCLM 040633Z AUTO 00000KT 6SM BR SCT007 OVC065 10/09 A2980 RMK AO2 T01000094=
201610040553 METAR KCLM 040553Z AUTO 00000KT 6SM BR OVC006 10/09 A2980 RMK AO2 SLP092 60006 T01000094 10128 20094 58002=
201610040527 SPECI KCLM 040527Z AUTO 00000KT 5SM BR BKN008 OVC080 10/09 A2980 RMK AO2 T01000089=
201610040453 METAR KCLM 040453Z AUTO 26003KT 7SM FEW005 BKN070 OVC085 10/09 A2981 RMK AO2 SLP094 T01000089=
201610040409 SPECI KCLM 040409Z AUTO 00000KT 4SM BR SCT008 BKN070 10/08 A2980 RMK AO2 T01000083=
201610040353 METAR KCLM 040353Z AUTO 28003KT 6SM BR OVC070 10/09 A2980 RMK AO2 RAE33 SLP093 P0002 T01000089=
201610040253 METAR KCLM 040253Z AUTO 00000KT 5SM -RA BR FEW002 FEW020 OVC080 11/09 A2981 RMK AO2 RAB30 SLP094 P0000 60004 T01060094 56008=
201610040225 SPECI KCLM 040225Z AUTO 00000KT 8SM FEW002 SCT065 OVC090 11/09 A2981 RMK AO2 T01060094=
201610040153 METAR KCLM 040153Z AUTO 24003KT 10SM BKN070 OVC090 11/10 A2981 RMK AO2 RAE0059B32E44 SLP095 P0000 T01110100=
201610040053 METAR KCLM 040053Z AUTO 00000KT 10SM -RA SCT070 OVC080 12/10 A2982 RMK AO2 SLP097 P0004 T01170100=
201610032353 METAR KCLM 032353Z AUTO 00000KT 10SM -RA OVC060 12/09 A2983 RMK AO2 RAB35 SLP102 P0002 60002 T01220089 10133 20106 56014=
201610032253 METAR KCLM 032253Z AUTO 00000KT 10SM OVC090 13/08 A2985 RMK AO2 SLP108 T01280083=
201610032153 METAR KCLM 032153Z AUTO 35003KT 10SM SCT110 13/08 A2985 RMK AO2 SLP110 T01330083=
201610032053 METAR KCLM 032053Z AUTO 31004KT 10SM CLR 13/08 A2987 RMK AO2 SLP116 T01280083 58009=
201610031953 METAR KCLM 031953Z AUTO VRB03KT 10SM CLR 11/08 A2989 RMK AO2 SLP121 T01110083=
201610031853 METAR KCLM 031853Z AUTO 05003KT 10SM CLR 11/08 A2990 RMK AO2 SLP124 T01060078=
201610031753 METAR KCLM 031753Z AUTO 03004KT 10SM CLR 11/08 A2990 RMK AO2 SLP125 T01110078 10122 20039 50001=
201610031653 METAR KCLM 031653Z AUTO 00000KT 10SM CLR 11/08 A2990 RMK AO2 SLP126 T01110083=
201610031553 METAR KCLM 031553Z AUTO 00000KT 10SM FEW070 08/07 A2990 RMK AO2 SLP124 T00830067=
201610031453 METAR KCLM 031453Z AUTO 00000KT 10SM FEW031 07/05 A2989 RMK AO2 SLP125 T00670050 56001=
201610031353 METAR KCLM 031353Z AUTO 00000KT 10SM SCT070 06/04 A2989 RMK AO2 SLP124 T00560044=
201610031253 METAR KCLM 031253Z AUTO 18003KT 10SM CLR 05/03 A2989 RMK AO2 SLP123 T00500033=
201610031207 SPECI KCLM 031207Z AUTO 24004KT 10SM SCT028 06/04 A2989 RMK AO2 T00610044=
201610031153 METAR KCLM 031153Z AUTO 00000KT 10SM BKN028 07/04 A2990 RMK AO2 SLP124 T00720044 10111 20061 51002=
201610031053 METAR KCLM 031053Z AUTO 23004KT 10SM CLR 08/05 A2989 RMK AO2 SLP122 T00780050=
201610030953 METAR KCLM 030953Z AUTO 23007KT 10SM CLR 08/06 A2989 RMK AO2 SLP122 T00830056=
201610030853 METAR KCLM 030853Z AUTO 25008KT 10SM CLR 09/06 A2989 RMK AO2 SLP123 T00940056 58008=
201610030753 METAR KCLM 030753Z AUTO 22004KT 10SM CLR 09/06 A2990 RMK AO2 SLP126 T00890056 401500072=
201610030653 METAR KCLM 030653Z AUTO 25010KT 10SM CLR 10/06 A2991 RMK AO2 SLP129 T01000061=
201610030553 METAR KCLM 030553Z AUTO 25009KT 10SM CLR 11/07 A2992 RMK AO2 SLP131 T01060067 10150 20072 50004=
201610030453 METAR KCLM 030453Z AUTO 21005KT 10SM CLR 09/07 A2992 RMK AO2 SLP133 T00940067=
201610030353 METAR KCLM 030353Z AUTO 27005KT 10SM CLR 08/06 A2992 RMK AO2 SLP132 T00830061=
201610030253 METAR KCLM 030253Z AUTO 16003KT 10SM CLR 07/06 A2990 RMK AO2 SLP127 T00720056 58001=
201610030153 METAR KCLM 030153Z AUTO 23003KT 10SM CLR 11/07 A2990 RMK AO2 SLP126 T01060072=
201610030053 METAR KCLM 030053Z AUTO 33005KT 10SM SCT075 13/08 A2992 RMK AO2 SLP131 T01330078=
201610022353 METAR KCLM 022353Z AUTO 35003KT 10SM CLR 14/07 A2991 RMK AO2 SLP127 T01440072 10150 20111 56011=
201610022253 METAR KCLM 022253Z AUTO 36004KT 10SM CLR 14/08 A2992 RMK AO2 SLP132 T01390078=
201610022153 METAR KCLM 022153Z AUTO VRB03KT 10SM CLR 14/08 A2993 RMK AO2 SLP133 T01390083=
201610022053 METAR KCLM 022053Z AUTO 36004KT 10SM FEW013 SCT080 13/09 A2994 RMK AO2 SLP139 T01330089 58005=
201610022025 SPECI KCLM 022025Z AUTO 34004KT 10SM SCT016 BKN075 12/08 A2994 RMK AO2 T01220083=
201610021953 METAR KCLM 021953Z AUTO 35005KT 10SM FEW009 BKN018 OVC070 12/08 A2995 RMK AO2 SLP142 T01170083=
201610021951 SPECI KCLM 021951Z AUTO 35004KT 10SM FEW009 BKN018 OVC070 12/09 A2995 RMK AO2=
201610021920 SPECI KCLM 021920Z AUTO VRB03KT 10SM FEW008 SCT018 BKN110 12/09 A2995 RMK AO2 T01220089=
201610021853 METAR KCLM 021853Z AUTO VRB03KT 10SM OVC018 11/08 A2995 RMK AO2 SLP144 T01110083=
201610021825 SPECI KCLM 021825Z AUTO 01004KT 10SM BKN015 BKN120 12/08 A2996 RMK AO2 T01220083=
201610021815 SPECI KCLM 021815Z AUTO 02004KT 10SM BKN013 BKN120 13/08 A2996 RMK AO2 T01280083=
201610021806 SPECI KCLM 021806Z AUTO 00000KT 10SM SCT015 BKN120 13/09 A2996 RMK AO2 T01280089=
201610021753 METAR KCLM 021753Z AUTO VRB04KT 10SM SCT009 BKN015 BKN120 13/09 A2996 RMK AO2 SLP146 60000 T01280089 10128 20089 50001=
201610021700 SPECI KCLM 021700Z AUTO 10003KT 10SM SCT007 OVC015 12/09 A2996 RMK AO2 T01170089=
201610021653 METAR KCLM 021653Z AUTO 09004KT 10SM SCT007 OVC014 12/09 A2996 RMK AO2 SLP146 T01170094=
201610021650 SPECI KCLM 021650Z AUTO 10004KT 10SM SCT007 OVC014 11/09 A2996 RMK AO2=
201610021640 SPECI KCLM 021640Z AUTO 10005KT 10SM BKN014 BKN085 11/08 A2996 RMK AO2 T01110083=
201610021553 METAR KCLM 021553Z AUTO 00000KT 10SM BKN110 10/08 A2996 RMK AO2 SLP145 T01000078=
201610021510 SPECI KCLM 021510Z AUTO 00000KT 10SM SCT013 BKN090 09/08 A2995 RMK AO2 T00940078=
201610021453 METAR KCLM 021453Z AUTO 00000KT 10SM BKN013 OVC100 09/08 A2995 RMK AO2 SLP143 60000 T00940083 53003=
201610021420 SPECI KCLM 021420Z AUTO 00000KT 10SM BKN014 BKN075 OVC100 09/08 A2995 RMK AO2 T00940083=
201610021353 METAR KCLM 021353Z AUTO 00000KT 10SM SCT021 BKN080 OVC100 10/08 A2995 RMK AO2 SLP142 T01000083=
201610021304 SPECI KCLM 021304Z AUTO 00000KT 10SM BKN019 BKN043 OVC080 10/08 A2994 RMK AO2 T01000083=
201610021253 METAR KCLM 021253Z AUTO 00000KT 10SM SCT019 BKN042 OVC080 10/08 A2994 RMK AO2 RAE1156 SLP139 P0000 T01000083=
201610021153 METAR KCLM 021153Z AUTO 00000KT 10SM -RA BKN016 BKN021 OVC080 11/08 A2994 RMK AO2 RAB43 SLP139 P0000 60000 T01060083 10111 20100 58004=
201610021138 SPECI KCLM 021138Z AUTO 00000KT 10SM OVC016 11/08 A2994 RMK AO2 T01060078=
201610021102 SPECI KCLM 021102Z AUTO 00000KT 10SM OVC014 11/08 A2995 RMK AO2 T01060083=
201610021053 METAR KCLM 021053Z AUTO 00000KT 10SM BKN015 OVC022 11/08 A2994 RMK AO2 SLP141 T01060078=
201610020953 METAR KCLM 020953Z AUTO 00000KT 10SM OVC022 11/08 A2995 RMK AO2 SLP144 T01110078=
201610020853 METAR KCLM 020853Z AUTO 00000KT 10SM OVC018 11/08 A2996 RMK AO2 SLP145 60000 T01060083 51000=
201610020753 METAR KCLM 020753Z AUTO 27003KT 10SM BKN016 OVC075 11/08 A2996 RMK AO2 RAB17E43 SLP145 P0000 T01060078 401560072=
201610020653 METAR KCLM 020653Z AUTO 31003KT 10SM FEW015 BKN047 OVC080 10/08 A2996 RMK AO2 SLP145 T01000078=
201610020553 METAR KCLM 020553Z AUTO 32003KT 10SM FEW080 BKN120 10/07 A2996 RMK AO2 SLP144 60000 T01000067 10144 20100 53003=
201610020453 METAR KCLM 020453Z AUTO 00000KT 10SM FEW070 10/07 A2995 RMK AO2 SLP142 T01000067=
201610020353 METAR KCLM 020353Z AUTO 00000KT 10SM BKN070 11/06 A2995 RMK AO2 SLP141 T01060061=
201610020253 METAR KCLM 020253Z AUTO 24003KT 10SM OVC070 12/07 A2995 RMK AO2 SLP141 60000 T01170072 53002=
201610020153 METAR KCLM 020153Z AUTO 00000KT 10SM FEW065 12/07 A2993 RMK AO2 SLP136 T01170072=
201610020053 METAR KCLM 020053Z AUTO 10005KT 10SM FEW110 14/07 A2992 RMK AO2 RAE2355 SLP133 P0000 T01390072=
201610012353 METAR KCLM 012353Z AUTO VRB04KT 10SM -RA FEW045 BKN075 BKN110 14/08 A2994 RMK AO2 RAB49 SLP139 P0000 60000 T01440083 10156 20111 53012=
201610012253 METAR KCLM 012253Z AUTO 00000KT 10SM BKN055 14/07 A2993 RMK AO2 SLP136 T01390072=
201610012153 METAR KCLM 012153Z AUTO 35003KT 10SM OVC060 13/08 A2991 RMK AO2 SLP129 T01280078=
201610012053 METAR KCLM 012053Z AUTO 00000KT 10SM OVC060 13/08 A2990 RMK AO2 SLP127 T01330083 51012=
201610011953 METAR KCLM 011953Z AUTO 00000KT 10SM SCT011 BKN120 12/09 A2989 RMK AO2 SLP123 T01220089=
201610011853 METAR KCLM 011853Z AUTO 31003KT 10SM FEW060 BKN120 11/09 A2988 RMK AO2 SLP119 T01110089=
201610011753 METAR KCLM 011753Z AUTO 00000KT 10SM FEW120 11/08 A2987 RMK AO2 SLP115 T01110083 10111 20072 52001=
201610011653 METAR KCLM 011653Z AUTO 24004KT 8SM FEW008 10/08 A2987 RMK AO2 SLP114 T01000083=
201610011649 SPECI KCLM 011649Z AUTO 26005KT 8SM SCT008 10/08 A2987 RMK AO2=
201610011553 METAR KCLM 011553Z AUTO 00000KT 9SM OVC005 10/08 A2986 RMK AO2 SLP114 T01000083=
201610011453 METAR KCLM 011453Z AUTO 22003KT 10SM BKN008 BKN065 08/06 A2987 RMK AO2 SLP115 T00780061 56005=
201610011451 SPECI KCLM 011451Z AUTO 25003KT 10SM SCT008 BKN065 08/06 A2987 RMK AO2=
201610011353 METAR KCLM 011353Z AUTO 00000KT 10SM BKN070 08/07 A2988 RMK AO2 SLP118 T00780067=
201610011253 METAR KCLM 011253Z AUTO 00000KT 10SM FEW065 OVC110 10/08 A2988 RMK AO2 SLP120 T01000078=
201610011153 METAR KCLM 011153Z AUTO 00000KT 10SM SCT070 SCT085 OVC110 08/07 A2990 RMK AO2 SLP124 60000 T00830072 10094 20078 58018=
201610011053 METAR KCLM 011053Z AUTO 16004KT 8SM FEW065 BKN110 08/07 A2992 RMK AO2 SLP132 T00830072=
201610010953 METAR KCLM 010953Z AUTO 19003KT 9SM FEW070 SCT110 08/07 A2993 RMK AO2 SLP137 T00830067=
201610010853 METAR KCLM 010853Z AUTO 25003KT 10SM OVC080 09/07 A2995 RMK AO2 SLP142 60000 T00890072 58004=
201610010753 METAR KCLM 010753Z AUTO 23004KT 10SM FEW060 OVC080 09/07 A2996 RMK AO2 RAB31E51 SLP145 P0000 T00890072 401440061=
201610010653 METAR KCLM 010653Z AUTO 00000KT 10SM BKN075 OVC085 08/07 A2995 RMK AO2 SLP144 T00830067=
201610010553 METAR KCLM 010553Z AUTO 32003KT 10SM CLR 09/06 A2996 RMK AO2 SLP146 T00890061 10139 20089 53000=
201610010453 METAR KCLM 010453Z AUTO 28004KT 10SM FEW060 10/07 A2996 RMK AO2 SLP146 T01000072=
201610010353 METAR KCLM 010353Z AUTO 29005KT 10SM FEW060 10/07 A2996 RMK AO2 SLP145 T01000072=
201610010253 METAR KCLM 010253Z AUTO 31004KT 10SM CLR 10/07 A2996 RMK AO2 SLP145 T01000072 58005=
201610010153 METAR KCLM 010153Z AUTO 30003KT 10SM FEW060 SCT075 SCT100 11/07 A2997 RMK AO2 SLP149 T01110072=
201610010053 METAR KCLM 010053Z AUTO 30004KT 10SM OVC075 13/07 A2997 RMK AO2 SLP150 T01280072=

# No short TAF reports from KCLM in databse.

###################################
#  large TAF from KCLM
###################################
201610312335 TAF KCLM 312335Z 0100/0124 28008KT P6SM SCT060 OVC130 FM010600
                       23004KT P6SM VCSH SCT028 OVC060
                      TEMPO 0106/0109 -RA FM010900 23004KT 6SM
                       -RA BR SCT009 OVC028
                      TEMPO 0110/0114 2SM -RA BR BKN009 OVC020
                       FM011500 VRB03KT P6SM BKN028 OVC060 FM012000
                       VRB03KT P6SM SCT035 BKN060 BKN150=
201610312023 KCLM 312023Z 3120/0118 25006KT P6SM VCSH FEW020 BKN060 BKN130 FM010000
                       VRB04KT P6SM SCT030 BKN050 BKN090 FM010600
                       23004KT P6SM VCSH SCT011 OVC025 FM010900
                       23004KT 3SM -RA BR SCT004 OVC011=
201610311804 KCLM 311804Z 3118/0118 31005KT P6SM VCSH SCT004 BKN015 OVC030
                      TEMPO 3118/3120 -SHRA BKN004 OVC015 FM312000
                       28009KT P6SM VCSH SCT015 BKN030 OVC050 FM010000
                       VRB04KT P6SM BKN030 BKN050 BKN090 FM010600
                       23004KT P6SM VCSH SCT011 OVC025 FM010900
                       23004KT 3SM -RA BR SCT004 OVC011=
201610311745 TAF KCLM 311745Z 3118/0118 25005KT 5SM -RA BR BKN005 OVC015 FM311900
                       28008KT P6SM BKN025 OVC050 FM312200 20008KT
                       P6SM SCT030 BKN050 OVC090 FM010600 23003KT
                       P6SM OVC015=
201610311415 KCLM 311415Z 3114/0112 VRB03KT 6SM BR VCSH OVC003
                      TEMPO 3114/3118 2SM -RA BR FM311800 27007KT
                       P6SM BKN007 OVC025 FM311900 28008KT P6SM
                       BKN025 OVC050 FM312200 20008KT P6SM SCT030
                       BKN050 OVC090 FM010600 23003KT P6SM OVC015=
201610311130 TAF KCLM 311130Z 3112/0112 06003KT 3SM BR OVC001 FM311700 27007KT
                       P6SM BKN007 OVC025 FM311900 28008KT P6SM
                       BKN025 OVC050 FM312200 20008KT P6SM SCT030
                       BKN050 OVC090 FM010600 23003KT P6SM OVC015=
201610310525 TAF KCLM 310525Z 3106/0106 08004KT P6SM -RA BKN004 OVC008 FM311900
                       28008KT P6SM BKN025 OVC050=
201610302320 TAF KCLM 302320Z 3100/3124 09005KT P6SM -RA OVC080 FM310300 VRB03KT
                       P6SM -RA SCT010 OVC040 FM310500 VRB03KT
                       5SM -RA BR OVC010 FM311900 28008KT P6SM
                       BKN025 OVC050=
201610301720 TAF KCLM 301720Z 3018/3118 13005KT P6SM SCT010 SCT090 BKN150
                      TEMPO 3018/3020 OVC010 FM302300 09005KT P6SM
                       -RA OVC060 FM310400 VRB03KT 5SM -RA OVC010=
201610301120 TAF KCLM 301120Z 3012/3112 20003KT P6SM VCFG OVC009 FM301500 17003KT
                       P6SM VCFG FEW001 OVC004 FM301800 08005KT
                       P6SM VCSH OVC009 FM302200 09005KT P6SM -RA
                       OVC019 FM310400 VRB03KT 5SM -RA OVC009=
201610300529 TAF KCLM 300529Z 3006/3106 22004KT P6SM FEW090 SCT250 FM301000
                       20003KT 2SM BR FEW050 FM301300 VRB03KT 5SM
                       BR VCFG FEW001 BKN120 FM301900 07006KT P6SM
                       VCSH SCT090 OVC120 FM310300 16002KT P6SM
                       -RA OVC015=
201610300314 KCLM 300314Z 3003/3024 00000KT 2SM BR SKC
                      TEMPO 3003/3007 P6SM NSW SCT070 FM300700
                       22003KT P6SM FEW050 FM301500 VRB04KT P6SM
                       BKN150=
201610292321 TAF KCLM 292321Z 3000/3024 00000KT P6SM FEW030 SCT060
                      TEMPO 3000/3002 SCT030 BKN060 FM300400 22003KT
                       P6SM FEW050 FM301500 VRB04KT P6SM BKN150=
201610291725 TAF KCLM 291725Z 2918/3018 33004KT P6SM -RA BKN060 OVC080
                      TEMPO 2918/2922 6SM -RA BR BKN040 OVC060
                       FM300100 22003KT P6SM SCT050 FM301500 VRB04KT
                       P6SM BKN150=
201610291300 KCLM 291300Z 2913/3012 00000KT P6SM SCT005 BKN060 OVC200 FM291800
                       VRB03KT P6SM -SHRA BKN050 OVC090 FM300100
                       VRB03KT P6SM SCT050 BKN100=
201610291120 TAF KCLM 291120Z 2912/3012 00000KT P6SM BKN005 BKN110 OVC200 FM291800
                       VRB03KT P6SM -SHRA BKN050 OVC090 FM300100
                       VRB03KT P6SM SCT050 BKN100=
201610290527 TAF KCLM 290527Z 2906/3006 00000KT P6SM BKN220 FM291200 VRB03KT
                       P6SM OVC060 FM291900 VRB03KT P6SM -SHRA
                       BKN050 OVC090 FM300100 00000KT P6SM SCT050
                       BKN100=
201610282323 TAF KCLM 282323Z 2900/2924 28005KT P6SM SCT070 BKN250 FM290400
                       22003KT P6SM FEW100 BKN200 FM291300 VRB03KT
                       P6SM BKN090 OVC200 FM291700 06004KT P6SM
                       -SHRA BKN035 OVC070=
201610281720 TAF KCLM 281720Z 2818/2918 25004KT P6SM BKN080 BKN200 FM282100
                       05004KT P6SM SCT090 BKN200 FM290400 22003KT
                       P6SM FEW100 BKN200 FM291300 VRB03KT P6SM
                       BKN090 OVC200=
201610281251 KCLM 281251Z 2813/2912 00000KT P6SM SCT007 OVC090
                      TEMPO 2813/2815 1SM BR BKN007 OVC090 FM281500
                       00000KT 5SM BR OVC030 FM281700 08004KT P6SM
                       BKN045 FM282100 VRB03KT P6SM SCT070 BKN200=
201610281227 KCLM 281227Z 2812/2912 00000KT P6SM SCT007 OVC090
                      TEMPO 2812/2815 BKN007 OVC090 FM281500 00000KT
                       5SM BR OVC030 FM281700 08004KT P6SM BKN045
                       FM282100 VRB03KT P6SM SCT070 BKN200=
201610281120 TAF KCLM 281120Z 2812/2912 24004KT P6SM -RA BKN060 OVC110 FM281500
                       00000KT 5SM BR OVC030 FM281700 08004KT P6SM
                       BKN045 FM282100 VRB03KT P6SM SCT070 BKN200=
201610280956 KCLM 280956Z 2810/2906 00000KT 6SM BR SCT070
                      TEMPO 2810/2813 2SM BR BKN003 OVC012 FM281600
                       VRB03KT P6SM BKN050 FM282100 VRB03KT P6SM
                       SCT070 BKN200=
201610280902 KCLM 280902Z 2809/2906 15004KT P6SM SCT004 BKN009 BKN080
                      TEMPO 2809/2813 2SM BR BKN003 OVC012 FM281600
                       VRB03KT P6SM BKN050 FM282100 VRB03KT P6SM
                       SCT070 BKN200=
201610280529 TAF KCLM 280529Z 2806/2906 00000KT P6SM VCSH BKN100 FM280900 00000KT
                       P6SM VCSH SCT025 BKN040 OVC060 FM281600
                       VRB03KT P6SM BKN050 FM282100 VRB03KT P6SM
                       SCT070 BKN200=
201610272337 TAF KCLM 272337Z 2800/2824 09005KT P6SM -SHRA BKN012 OVC060
                      TEMPO 2800/2804 4SM SHRA BR SCT008 OVC012
                       FM280600 VRB03KT P6SM VCSH SCT020 BKN050
                       OVC090 FM281500 VRB03KT P6SM SCT030 BKN060
                       FM282000 04004KT P6SM SCT012 BKN070=
201610271739 TAF KCLM 271739Z 2718/2818 VRB03KT 6SM -SHRA BR SCT018 OVC060
                      TEMPO 2720/2724 3SM SHRA BR SCT012 BKN018
                       OVC060 FM280300 VRB03KT P6SM VCSH SCT025
                       BKN050 OVC090 FM281400 VRB03KT P6SM SCT030
                       BKN060=
201610271120 TAF KCLM 271120Z 2712/2812 20004KT P6SM BKN060 FM271500 VRB03KT
                       5SM BR BKN060 OVC100 FM271800 VRB03KT 5SM
                       BR VCSH BKN030 BKN110 FM272200 VRB03KT P6SM
                       VCSH SCT035 BKN050 BKN110=
201610270904 KCLM 270904Z 2709/2806 00000KT 3SM -RA BR SCT050 BKN070 OVC090
                       FM271400 00000KT 5SM BR OVC019 FM271800
                       VRB03KT P6SM VCSH OVC019 FM272300 36002KT
                       P6SM VCSH SCT035 BKN050 BKN110=
201610270523 TAF KCLM 270523Z 2706/2806 00000KT 4SM BR OVC004 FM271400 00000KT
                       5SM BR OVC019 FM271800 VRB03KT P6SM VCSH
                       OVC019 FM272300 36002KT P6SM VCSH SCT035
                       BKN050 BKN110=
201610270318 KCLM 270318Z 2703/2724 11004KT 6SM BR VCSH OVC005 FM271500 21002KT
                       P6SM OVC009 FM271700 19002KT P6SM BKN015
                       BKN035 FM271800 VRB03KT P6SM VCSH BKN028
                       BKN050=
201610262322 TAF KCLM 262322Z 2700/2724 28004KT P6SM VCSH SCT004 BKN015 OVC035
                       TEMPO 2700/2703 BKN004 OVC015 FM270300 23004KT
                       P6SM VCSH BKN015 BKN035 OVC050 FM271800
                       VRB03KT P6SM VCSH BKN028 BKN050 OVC110
                      PROB30 2718/2724 -SHRA=
201610262217 KCLM 262217Z 2622/2718 VRB03KT P6SM VCSH SCT003 BKN015 OVC035
                      TEMPO 2622/2702 6SM -RA BR BKN003 OVC015
                       FM270200 VRB03KT P6SM VCSH BKN020 OVC050
                       TEMPO 2702/2706 -SHRA FM270600 23004KT P6SM
                       VCSH BKN028 BKN060 OVC110=
201610261901 KCLM 261901Z 2619/2718 VRB03KT 6SM -RA BR SCT004 BKN015 OVC050
                       TEMPO 2619/2622 3SM -RA BR BKN004 OVC015
                       FM262200 VRB03KT P6SM VCSH BKN015 BKN035
                       OVC060
                      TEMPO 2622/2702 6SM -RA BR FM270200 VRB03KT
                       P6SM VCSH BKN020 OVC050
                      TEMPO 2702/2706 -SHRA FM270600 23004KT P6SM
                       VCSH BKN028 BKN060 OVC110
                      PROB30 2706/2712 -SHRA=
201610261745 TAF KCLM 261745Z 2618/2718 VRB03KT P6SM -RA BKN005 BKN035 OVC060
                       TEMPO 2618/2622 3SM -RA BR FM262200 VRB03KT
                       P6SM VCSH BKN015 BKN035 OVC060
                      TEMPO 2622/2702 6SM -RA BR FM270200 VRB03KT
                       P6SM VCSH BKN020 OVC050
                      TEMPO 2702/2706 -SHRA FM270600 23004KT P6SM
                       VCSH BKN028 BKN060 OVC110
                      PROB30 2706/2712 -SHRA=
201610261611 KCLM 261611Z 2616/2712 VRB03KT 6SM -RA BR BKN005 OVC020 FM261700
                       VRB03KT 2SM -RA BR BKN005 OVC020 FM262000
                       07003KT 2SM -RA BR SCT007 OVC015 FM270200
                       VRB03KT P6SM VCSH SCT030 BKN050=
201610261458 KCLM 261458Z 2615/2712 VRB03KT 6SM -RA BR BKN006 OVC030 FM261700
                       VRB03KT 2SM -RA BR BKN006 OVC025 FM262000
                       07003KT 2SM -RA BR SCT007 OVC015 FM270200
                       VRB03KT P6SM VCSH SCT030 BKN050=
201610261120 TAF KCLM 261120Z 2612/2712 00000KT P6SM FEW012 OVC080 FM261400
                       VRB03KT 6SM -RA SCT012 OVC050 FM261600 VRB03KT
                       2SM -RA BR BKN015 OVC025 FM262000 07003KT
                       2SM -RA BR SCT007 OVC015 FM270200 VRB03KT
                       P6SM VCSH SCT030 BKN050=
201610260523 TAF KCLM 260523Z 2606/2706 04003KT P6SM BKN100 FM261200 04003KT
                       P6SM -RA OVC050 FM261600 VRB03KT 2SM -RA
                       BR BKN015 OVC025 FM262000 07003KT 2SM -RA
                       BR SCT007 OVC015 FM262300 VRB03KT P6SM VCSH
                       SCT030 BKN050=
201610252338 TAF KCLM 252338Z 2600/2624 11004KT P6SM SCT060 BKN120 FM261100
                       06006KT P6SM -RA OVC080 FM261500 07011G18KT
                       5SM -RA BR SCT008 OVC050 FM262000 04006KT
                       P6SM VCSH SCT030 BKN070=
201610251748 TAF KCLM 251748Z 2518/2618 12004KT P6SM -RA BKN060 OVC090 FM252200
                       11004KT P6SM VCSH SCT060 BKN080 FM260900
                       VRB03KT P6SM -RA OVC080 FM261500 11006KT
                       5SM -RA BR SCT008 OVC050=
201610251136 TAF KCLM 251136Z 2512/2612 VRB04KT P6SM BKN060 OVC100 FM251800
                       12006KT P6SM SCT070 BKN120 FM261000 08006KT
                       P6SM BKN070 OVC120=
201610250537 TAF KCLM 250537Z 2506/2606 VRB04KT P6SM SCT070 BKN120 FM251600
                       12006KT P6SM BKN070 OVC120=
201610242320 TAF KCLM 242320Z 2500/2524 13006KT P6SM -SHRA OVC070 FM250200 VRB04KT
                       P6SM SCT070 OVC120 FM251200 12006KT P6SM
                       BKN060 OVC100=
201610241720 TAF KCLM 241720Z 2418/2518 09005KT P6SM BKN100 OVC200 FM251200
                       12006KT P6SM BKN060 OVC100=
201610241135 TAF KCLM 241135Z 2412/2512 VRB03KT P6SM SCT060 BKN100 FM242300
                       08006KT P6SM BKN060 BKN100 FM250500 12006KT
                       P6SM SCT060 BKN100=
201610240536 TAF KCLM 240536Z 2406/2506 VRB03KT P6SM -SHRA OVC060 FM241000 08006KT
                       P6SM SCT060 BKN100 FM242300 08006KT P6SM
                       BKN060 BKN100=
201610232338 TAF KCLM 232338Z 2400/2424 VRB03KT P6SM FEW020 SCT060 OVC080
                      TEMPO 2402/2405 -SHRA FM240600 16003KT P6SM
                       BKN080 OVC100
                      TEMPO 2412/2416 -SHRA FM241900 08006KT P6SM
                       SCT060 BKN080=
201610231737 TAF KCLM 231737Z 2318/2418 04003KT P6SM SCT060 BKN150 FM240100
                       08003KT P6SM VCSH SCT050 OVC070 FM240600
                       16003KT P6SM SCT080 OVC100
                      TEMPO 2413/2417 -SHRA=
201610231136 TAF KCLM 231136Z 2312/2412 VRB03KT P6SM BKN060 BKN100 FM231800
                       08006KT P6SM SCT060 BKN100 FM240200 08006KT
                       P6SM BKN070 OVC120=
201610230540 TAF KCLM 230540Z 2306/2406 VRB03KT P6SM -SHRA BKN060 OVC100 FM231400
                       VRB03KT P6SM BKN060 FM231900 05004KT P6SM
                       SCT060 SCT200 FM240100 08006KT P6SM BKN070
                       OVC120=
201610222338 TAF KCLM 222338Z 2300/2324 04004KT P6SM BKN200 FM231000 22004KT
                       P6SM SCT060 BKN080 OVC120
                      TEMPO 2310/2314 -SHRA FM231500 VRB03KT P6SM
                       SCT050 BKN070 FM232100 05004KT P6SM BKN200=
201610222100 KCLM 222100Z 2221/2318 05004KT P6SM SCT010 BKN200 FM222300 04004KT
                       P6SM BKN200 FM231000 22004KT P6SM SCT060
                       BKN100 OVC200
                      TEMPO 2311/2315 -SHRA FM231500 VRB03KT P6SM
                       SCT050 BKN070=
201610221736 TAF KCLM 221736Z 2218/2318 05004KT P6SM SCT005 SCT040 BKN200
                      TEMPO 2218/2221 5SM BR BKN005 FM222300 04004KT
                       P6SM BKN200 FM231000 22004KT P6SM SCT060
                       BKN100 OVC200
                      TEMPO 2311/2315 -SHRA FM231500 VRB03KT P6SM
                       SCT050 BKN070=
201610221134 TAF KCLM 221134Z 2212/2312 VRB03KT P6SM SKC
                      TEMPO 2212/2214 4SM BR SCT001 FM222300 08004KT
                       P6SM BKN200 FM230600 08004KT P6SM OVC100
                       FM231000 08004KT P6SM BKN060 OVC100=
201610220540 TAF KCLM 220540Z 2206/2306 VRB03KT P6SM SCT025 BKN040 OVC060 FM220900
                       VRB03KT P6SM BKN012 OVC020 FM221300 VRB03KT
                       P6SM SCT030 SCT200 FM221600 VRB03KT P6SM
                       SCT200 FM222300 08004KT P6SM BKN200=
201610212330 TAF KCLM 212330Z 2200/2224 12006KT P6SM VCSH BKN070
                      TEMPO 2200/2203 -SHRA BKN035 OVC060 FM221200
                       22003KT 5SM BR SCT006 BKN010=
201610211739 TAF KCLM 211739Z 2118/2218 VRB03KT P6SM SCT010 BKN060 OVC100
                      TEMPO 2120/2124 4SM -SHRA BR SCT010 BKN035
                       OVC060 FM220000 25005KT P6SM VCSH SCT045
                       FM221200 22003KT 5SM BR SCT006 BKN010=
201610211522 KCLM 211522Z 2115/2212 VRB03KT P6SM SCT018 BKN070
                      TEMPO 2115/2117 3SM BR BKN002 FM212000 VRB03KT
                       P6SM -RA SCT035 OVC070 FM220400 26004KT
                       P6SM SCT050=
201610211120 TAF KCLM 211120Z 2112/2212 00000KT P6SM SCT015
                      TEMPO 2112/2115 4SM BR BKN015 FM211500 VRB03KT
                       P6SM SCT020 BKN070 FM212000 VRB03KT P6SM
                       -RA SCT035 OVC070 FM220400 26004KT P6SM
                       SCT050=
201610210757 KCLM 210757Z 2108/2206 24006KT P6SM SCT020 BKN200 FM211400 VRB03KT
                       P6SM SCT020 BKN070 FM212100 VRB03KT P6SM
                       -RA SCT035 OVC070 FM220400 26004KT P6SM
                       SCT050=
201610210653 KCLM 210653Z 2107/2206 00000KT P6SM BKN022 FM211400 VRB03KT P6SM
                       SCT020 BKN070 FM212100 VRB03KT P6SM -RA
                       SCT035 OVC070 FM220400 26004KT P6SM SCT050=
201610210522 TAF KCLM 210522Z 2106/2206 00000KT P6SM SCT020 FM211400 VRB03KT
                       P6SM SCT020 BKN070 FM212100 VRB03KT P6SM
                       -RA SCT035 OVC070 FM220400 26004KT P6SM
                       SCT050=
201610202324 TAF KCLM 202324Z 2100/2124 28006KT P6SM BKN060 FM210300 27004KT
                       P6SM SCT070 FM211400 VRB03KT P6SM SCT035
                       BKN070 FM211800 VRB03KT P6SM -RA BKN035
                       OVC070=
201610201725 TAF KCLM 201725Z 2018/2118 28006KT P6SM SCT060 BKN200
                      TEMPO 2018/2022 BKN060 BKN200 FM210300 27004KT
                       P6SM FEW070 SCT200=
201610201506 KCLM 201506Z 2015/2112 28005KT P6SM BKN045 BKN060 OVC070 FM201600
                       27010KT P6SM -SHRA SCT010 BKN035 BKN060
                       FM202100 27006KT P6SM SCT035 BKN060=
201610201307 KCLM 201307Z 2013/2112 VRB03KT 4SM -RA BR SCT005 BKN010 OVC025
                       TEMPO 2013/2014 1 1/2SM RA BR FM201400 23003KT
                       4SM -RA BR SCT006 OVC015 FM201600 27010KT
                       P6SM -SHRA SCT010 BKN035 BKN060 FM202100
                       27006KT P6SM SCT035 BKN060=
201610201134 TAF KCLM 201134Z 2012/2112 VRB03KT 4SM -RA BR OVC050 FM201400 23003KT
                       4SM -RA BR SCT006 OVC015 FM201600 27010KT
                       P6SM -SHRA SCT010 BKN035 BKN060 FM202100
                       27006KT P6SM SCT035 BKN060=
201610200810 KCLM 200810Z 2008/2106 VRB03KT P6SM OVC005 FM201300 23003KT 4SM
                       -RA BR SCT006 OVC015 FM201600 27010KT P6SM
                       -SHRA BKN035 BKN060 FM202100 27006KT P6SM
                       SCT035 BKN060=
201610200538 TAF KCLM 200538Z 2006/2106 VRB03KT P6SM -RA OVC050 FM201300 23003KT
                       4SM -RA BR OVC015 FM201600 27010KT P6SM
                       -SHRA BKN035 BKN060 FM202100 27006KT P6SM
                       SCT035 BKN060=
201610192335 TAF KCLM 192335Z 2000/2024 00000KT P6SM FEW005 SCT060 BKN080 FM200300
                       09006KT P6SM -RA OVC040 FM200900 23003KT
                       4SM -RA BR OVC015 FM201600 27006KT P6SM
                       -SHRA BKN035 BKN070=
201610191724 TAF KCLM 191724Z 1918/2018 15003KT P6SM FEW060 BKN250 FM192300
                       09006KT P6SM SCT040 OVC080 FM200300 09006KT
                       P6SM -RA OVC040=
201610191309 KCLM 191309Z 1913/2012 VRB03KT 6SM BR SCT200
                      TEMPO 1913/1917 1SM BR VV002 FM191700 09006KT
                       P6SM SCT100 BKN200 FM192300 09006KT P6SM
                       SCT040 OVC080 FM200300 09006KT P6SM -RA
                       OVC040=
201610191128 TAF KCLM 191128Z 1912/2012 VRB03KT P6SM SKC
                      TEMPO 1912/1915 3SM BR SKC FM191700 09006KT
                       P6SM SCT100 BKN200 FM192300 09006KT P6SM
                       SCT040 OVC080 FM200300 09006KT P6SM -RA
                       OVC040=
201610190536 TAF KCLM 190536Z 1906/2006 24006KT P6SM SCT080 FM191400 VRB03KT
                       P6SM SCT010 BKN120 BKN200 FM191800 09006KT
                       P6SM BKN100 FM192300 10006KT P6SM -RA SCT040
                       OVC080 FM200300 10006KT P6SM -RA OVC040=
201610190157 KCLM 190157Z 1902/1924 22004KT P6SM SCT060
                      TEMPO 1902/1906 3SM BR SKC FM190600 VRB04KT
                       P6SM SCT080 FM191000 VRB04KT P6SM SCT010
                       BKN120 BKN200 FM191800 09006KT P6SM BKN100
                       FM192300 10006KT P6SM -RA SCT040 OVC080=
201610182320 TAF KCLM 182320Z 1900/1924 VRB04KT P6SM FEW030 BKN060
                      TEMPO 1900/1901 -SHRA BKN030 BKN060 FM190600
                       VRB04KT P6SM SCT080 FM191000 VRB04KT P6SM
                       SCT010 BKN120 BKN200 FM191800 09006KT P6SM
                       BKN100 FM192300 10006KT P6SM -RA SCT040
                       OVC080=
201610181746 TAF KCLM 181746Z 1818/1918 VRB03KT P6SM BKN060 BKN100 FM182200
                       VRB04KT P6SM SCT060 SCT100 FM190800 VRB04KT
                       P6SM BKN050=
201610181121 TAF KCLM 181121Z 1812/1912 27007KT P6SM -SHRA OVC060 FM181700 VRB03KT
                       P6SM SCT050 BKN100 FM190300 24003KT P6SM
                       SCT100=
201610180528 TAF KCLM 180528Z 1806/1906 23006KT P6SM -SHRA SCT030 OVC050 FM180700
                       20005KT P6SM VCSH SCT025 BKN050 FM181700
                       VRB03KT P6SM SCT050 BKN100=
201610172338 TAF KCLM 172338Z 1800/1824 24004KT P6SM SCT035 BKN050 BKN080 FM180600
                       VRB03KT P6SM SCT035 BKN060=
201610171740 TAF KCLM 171740Z 1718/1818 VRB03KT P6SM SCT030 OVC060 FM172300
                       24004KT P6SM SCT035 BKN050 BKN080 FM180600
                       VRB03KT P6SM SCT035 BKN060=
201610171120 TAF KCLM 171120Z 1712/1812 VRB03KT P6SM SCT035 OVC060 FM171700
                       VRB03KT P6SM SCT040 BKN060 FM172100 28005KT
                       P6SM -SHRA SCT030 OVC060 FM180300 24004KT
                       P6SM SCT030 OVC060=
201610170525 TAF KCLM 170525Z 1706/1806 VRB04KT P6SM SCT020 BKN060 FM171200
                       VRB03KT P6SM SCT025 OVC040 FM171700 VRB03KT
                       P6SM SCT030 BKN060 FM172100 28005KT P6SM
                       -SHRA SCT030 OVC060=
201610162339 TAF KCLM 162339Z 1700/1724 VRB03KT P6SM SCT035 BKN060 FM171200
                       VRB03KT P6SM SCT025 OVC040 FM171700 VRB03KT
                       P6SM SCT030 BKN060=
201610161733 TAF KCLM 161733Z 1618/1718 VRB03KT P6SM -SHRA SCT025 BKN050 OVC070
                       FM171200 VRB03KT P6SM SCT015 BKN025 OVC040
                       FM171700 VRB03KT P6SM SCT025 BKN045=
201610161259 KCLM 161259Z 1613/1712 VRB03KT P6SM -SHRA SCT030 OVC060
                      TEMPO 1613/1617 4SM SHRA BKN030 OVC060 FM161700
                       VRB03KT P6SM -SHRA SCT020 BKN035 OVC060
                       FM170900 22003KT P6SM OVC025=
201610161120 TAF KCLM 161120Z 1612/1712 VRB04KT P6SM -SHRA SCT035 BKN050 FM170900
                       22003KT P6SM OVC025=
201610160520 TAF KCLM 160520Z 1606/1706 26010KT P6SM -SHRA SCT045 BKN060 FM161100
                       VRB03KT P6SM -SHRA SCT035 BKN050=
201610152339 TAF KCLM 152339Z 1600/1624 09012G20KT P6SM -RA SCT030 OVC060 FM160300
                       26012G20KT P6SM -SHRA SCT020 BKN035 BKN050
                       FM160700 26012KT P6SM -SHRA SCT035 BKN050
                       FM161100 VRB03KT P6SM SCT035 BKN050=
201610151751 TAF KCLM 151751Z 1518/1618 VRB03KT P6SM SCT002 BKN050 OVC080
                      TEMPO 1518/1520 BKN002 OVC050 FM152100 08006KT
                       P6SM -RA OVC050 FM152300 09012G20KT P6SM
                       -RA SCT020 OVC035 FM160400 26012G20KT P6SM
                       -RA SCT020 OVC035 FM160700 26012KT P6SM
                       -SHRA SCT030 BKN050 FM161000 25006KT P6SM
                       SCT035 BKN050=
201610151333 KCLM 151333Z 1514/1612 VRB03KT P6SM VCSH OVC090 FM151800 10009KT
                       P6SM -RA SCT030 OVC050 FM152100 10013KT
                       5SM -RA BR SCT012 OVC030 FM160000 13007KT
                       3SM -RA BR SCT007 BKN012 OVC030 FM160200
                       25022G32KT 6SM -RA BR BKN018 OVC035 FM160600
                       25013KT P6SM -SHRA BKN028 BKN050 FM160900
                       23006KT P6SM -SHRA BKN035 BKN050=
201610151120 TAF KCLM 151120Z 1512/1612 18005KT P6SM VCSH SCT050 BKN090 FM151700
                       14005KT 6SM -RA SCT015 BKN050 OVC080 FM152100
                       11012G20KT P6SM -SHRA SCT015 OVC080 FM160200
                       25011G20KT 4SM -RA BR OVC015 FM160700 25005KT
                       P6SM -RA SCT020 OVC040=
201610150520 TAF KCLM 150520Z 1506/1606 23005KT P6SM VCSH SCT050 BKN090 FM151700
                       14005KT 6SM -RA SCT015 BKN050 OVC080 FM152100
                       11012G20KT P6SM -SHRA SCT015 OVC080 FM160200
                       25011G20KT 4SM -RA BR OVC015=
201610142338 TAF KCLM 142338Z 1500/1524 25010G18KT P6SM -SHRA BKN050
                      TEMPO 1500/1504 4SM -SHRA BR FM150600 14005KT
                       P6SM VCSH SCT050 BKN090 FM151700 12005KT
                       6SM -RA SCT015 BKN050 OVC080 FM152100 11012G20KT
                       P6SM -SHRA SCT015 OVC080=
201610142158 KCLM 142158Z 1422/1518 24008KT 4SM -SHRA BR OVC050 FM150000 27012KT
                       P6SM -SHRA SCT030 BKN050 FM150800 16005KT
                       P6SM VCSH SCT020 BKN050 FM151700 12012G20KT
                       P6SM -RA SCT018 BKN050 OVC080=
201610141748 TAF KCLM 141748Z 1418/1518 25005KT 6SM -SHRA BR OVC050 FM142100
                       27012KT P6SM -SHRA SCT030 BKN050 FM150800
                       16005KT P6SM VCSH SCT020 BKN050 FM151700
                       12012G20KT P6SM -RA SCT018 BKN050 OVC080=
201610141120 TAF KCLM 141120Z 1412/1512 VRB03KT P6SM OVC060 FM141400 26005KT
                       5SM -RA BR SCT015 OVC040 FM142100 27012KT
                       4SM -RA BR BKN010 OVC020 FM150200 27007KT
                       5SM -RA BR BKN010 OVC030 FM150600 23003KT
                       P6SM -RA BKN030 OVC050=
201610140637 KCLM 140637Z 1407/1506 27008KT 3SM -RA BR BKN005 OVC010 FM141400
                       26005KT 3SM -RA BR SCT005 OVC030 FM142100
                       27010KT 3SM -RA BR BKN005 OVC010 FM150200
                       27007KT 5SM -RA BR BKN010 OVC030=
201610140624 KCLM 140624Z 1406/1506 27008KT 5SM -RA BR BKN005 OVC010 FM141400
                       26005KT 3SM -RA BR SCT005 OVC030 FM142100
                       27010KT 3SM -RA BR BKN005 OVC010 FM150200
                       27007KT 5SM -RA BR BKN010 OVC030=
201610140526 TAF KCLM 140526Z 1406/1506 VRB03KT 4SM -RA BR BKN010 OVC020 FM140900
                       27008KT 5SM -RA BR BKN005 OVC010 FM141400
                       26005KT 3SM -RA BR SCT005 OVC030 FM142100
                       27010KT 3SM -RA BR BKN005 OVC010 FM150200
                       27007KT 5SM -RA BR BKN010 OVC030=
201610140230 KCLM 140230Z 1403/1424 VRB05KT 3SM -RA BR BKN002 OVC010 FM140500
                       VRB03KT 5SM -RA BR BKN002 OVC020 FM140900
                       VRB03KT 5SM -RA BR BKN005 OVC020 FM141200
                       VRB03KT 6SM -RA BR SCT005 OVC030=
201610132337 TAF KCLM 132337Z 1400/1424 VRB05KT 3SM -RA BR BKN002 OVC060 FM140500
                       VRB03KT 5SM -RA BR BKN002 OVC020 FM140900
                       VRB03KT 5SM -RA BR BKN005 OVC020 FM141200
                       VRB03KT 6SM -RA BR SCT005 OVC030=
201610131739 TAF KCLM 131739Z 1318/1418 VRB03KT P6SM SCT015 OVC060
                      TEMPO 1318/1322 -RA BKN015 OVC060 FM132200
                       VRB03KT 6SM -RA BR BKN025 OVC060 FM140400
                       VRB03KT 5SM -RA BR SCT007 BKN015 OVC025=
201610131445 KCLM 131445Z 1315/1412 VRB03KT 5SM -RA BR SCT010 OVC060 FM132000
                       VRB03KT 5SM -RA BR SCT007 OVC020 FM132300
                       VRB03KT 4SM -RA BR OVC015 FM140900 27007KT
                       5SM -RA BR SCT020 OVC040=
201610131120 TAF KCLM 131120Z 1312/1412 VRB03KT 4SM -RA BR BKN015 OVC025 FM131700
                       VRB04KT 3SM -RA BR BKN007 OVC015 FM132300
                       VRB03KT 4SM -RA BR OVC015 FM140900 27007KT
                       5SM -RA BR SCT020 OVC040=
201610130524 TAF KCLM 130524Z 1306/1406 VRB03KT P6SM SCT050 OVC080 FM130700
                       VRB03KT 4SM -RA BR BKN035 OVC050 FM131000
                       VRB03KT 4SM -RA BR BKN015 OVC025 FM131700
                       VRB04KT 3SM -RA BR BKN007 OVC015 FM132300
                       VRB03KT 4SM -RA BR OVC015=
201610122340 TAF KCLM 122340Z 1300/1324 VRB03KT P6SM BKN050 OVC100 FM130300
                       VRB03KT P6SM -RA BKN050 OVC080 FM130600
                       VRB03KT 4SM -RA BR BKN035 OVC050 FM130900
                       VRB03KT 4SM -RA BR BKN015 OVC025 FM131700
                       VRB04KT 3SM -RA BR BKN007 OVC015=
201610121742 TAF KCLM 121742Z 1218/1318 09007KT P6SM SCT200 FM130100 07003KT
                       P6SM BKN100 OVC200 FM130300 VRB03KT P6SM
                       -RA BKN050 OVC080 FM130800 VRB03KT 4SM -RA
                       BR BKN015 OVC030=
201610121511 KCLM 121511Z 1215/1312 VRB03KT P6SM BKN012 FM121800 09007KT P6SM
                       SCT012 BKN200 FM130300 VRB03KT P6SM VCSH
                       FEW060 BKN110 OVC200 FM130600 VRB03KT P6SM
                       -RA SCT035 BKN060 OVC110 FM130900 VRB03KT
                       4SM -RA BR SCT015 OVC035=
201610121145 TAF KCLM 121145Z 1212/1312 22004KT P6SM BKN200 FM121800 09007KT
                       P6SM FEW110 BKN200 FM130300 VRB03KT P6SM
                       VCSH FEW060 BKN110 OVC200 FM130600 VRB03KT
                       P6SM -RA SCT035 BKN060 OVC110 FM130900 VRB03KT
                       4SM -RA BR SCT015 OVC035=
201610120545 TAF KCLM 120545Z 1206/1306 22004KT P6SM FEW200 FM121800 09007KT
                       P6SM FEW110 BKN200 FM130300 VRB03KT P6SM
                       VCSH FEW060 BKN110 OVC200=
201610112320 TAF KCLM 112320Z 1200/1224 VRB03KT P6SM SKC FM121700 14004KT P6SM
                       SCT200=
201610111721 TAF KCLM 111721Z 1118/1218 25006KT P6SM SKC FM112200 07007KT P6SM
                       SKC FM121700 14004KT P6SM SCT200=
201610111131 TAF KCLM 111131Z 1112/1212 24007KT P6SM SKC FM111800 VRB04KT P6SM
                       SKC FM112000 07007KT P6SM SKC FM120300 VRB03KT
                       P6SM SCT200=
201610110537 TAF KCLM 110537Z 1106/1206 23006KT P6SM SKC FM111800 VRB04KT P6SM
                       SKC FM112000 07007KT P6SM SKC FM120300 VRB03KT
                       P6SM SCT200=
201610102320 TAF KCLM 102320Z 1100/1124 VRB04KT P6SM BKN050 FM110200 23004KT
                       P6SM SCT050 FM111800 09006KT P6SM SKC=
201610101734 TAF KCLM 101734Z 1018/1118 VRB04KT P6SM SKC FM102000 07006KT P6SM
                       SKC FM110200 23006KT P6SM SKC=
201610101130 TAF KCLM 101130Z 1012/1112 24009KT P6SM VCFG SKC FM101800 VRB04KT
                       P6SM SKC FM102000 07006KT P6SM SKC FM110200
                       23006KT P6SM SKC=
201610100541 TAF KCLM 100541Z 1006/1106 23005KT P6SM SCT035
                      TEMPO 1006/1009 BKN035 FM100900 23005KT P6SM
                       VCFG SCT028 FM101800 VRB04KT P6SM SKC FM102000
                       07006KT P6SM SKC FM110200 23006KT P6SM SKC=
201610100315 KCLM 100315Z 1003/1024 VRB03KT P6SM BKN080 FM100600 25006KT P6SM
                       FEW015 SCT150 FM100900 22004KT P6SM VCFG
                       SKC
                      TEMPO 1011/1015 1/2SM FG BKN001 FM101800
                       04005KT P6SM SKC=
201610092323 TAF KCLM 092323Z 1000/1024 VRB04KT P6SM SCT030 BKN070 FM100600
                       25006KT P6SM FEW015 SCT150 FM100900 22004KT
                       P6SM VCFG SKC
                      TEMPO 1011/1015 1/2SM FG BKN001 FM101800
                       04005KT P6SM SKC=
201610091721 TAF KCLM 091721Z 0918/1018 05004KT P6SM SCT003 OVC030
                      TEMPO 0918/0920 BKN003 FM092100 VRB04KT P6SM
                       SCT030 FM100200 25006KT P6SM SCT150 FM100900
                       22004KT P6SM VCFG SKC=
201610091249 KCLM 091249Z 0913/1012 23004KT P6SM FEW006 SCT060 BKN150
                      TEMPO 0913/0916 1SM BR BKN006 OVC150 FM091800
                       35004KT P6SM FEW028 SCT060 OVC150 FM100200
                       25006KT P6SM SCT150 FM100900 22004KT P6SM
                       VCFG SKC=
201610091145 TAF KCLM 091145Z 0912/1012 VRB04KT 3SM BR SCT004 OVC150
                      TEMPO 0912/0916 1SM BR BKN004 OVC150 FM091800
                       35004KT P6SM FEW028 SCT060 OVC150 FM100200
                       25006KT P6SM SCT150 FM100900 22004KT P6SM
                       VCFG SKC=
201610090909 KCLM 090909Z 0909/1006 27005KT 6SM BR SCT005 OVC150
                      TEMPO 0912/0916 2SM BR BKN005 OVC150 FM091800
                       32005KT P6SM FEW009 SCT030 BKN150 FM092000
                       32005KT P6SM SCT035 SCT090 BKN150 FM100000
                       28008KT P6SM SCT150=
201610090708 KCLM 090708Z 0907/1006 27005KT P6SM FEW025 SCT070 OVC150 FM090900
                       27005KT 4SM BR SCT005 OVC150
                      TEMPO 0912/0916 1SM BR BKN005 OVC150 FM091800
                       32005KT P6SM FEW009 SCT030 BKN150 FM092000
                       32005KT P6SM SCT035 SCT090 BKN150 FM100000
                       28008KT P6SM SCT150=
201610090558 TAF KCLM 090558Z 0906/1006 28007KT P6SM VCSH BKN015 OVC030 FM091200
                       VRB04KT 2SM BR BKN004 FM091800 VRB04KT P6SM
                       SCT020=
201610090308 KCLM 090308Z 0903/0924 28007KT P6SM VCSH BKN015 OVC030
                      TEMPO 0903/0906 6SM -RA BR FM091200 VRB04KT
                       2SM BR BKN004 FM091800 VRB04KT P6SM SCT020=
201610090154 KCLM 090154Z 0902/0924 VRB03KT 4SM BR VCSH BKN009 OVC020
                      TEMPO 0902/0904 2SM -RA BR BKN003 OVC012
                       FM090400 28007KT P6SM BKN015 OVC030 FM091200
                       VRB04KT 2SM BR BKN004 FM091800 VRB04KT P6SM
                       SCT020=
201610082329 TAF KCLM 082329Z 0900/0924 VRB05KT P6SM VCSH OVC004 FM090300 28005KT
                       P6SM BKN012 FM091200 VRB04KT 2SM BR BKN004
                       FM091800 VRB04KT P6SM SCT020=
201610081731 TAF KCLM 081731Z 0818/0918 VRB04KT 2SM -RA BR OVC004 FM082100 VRB03KT
                       5SM -RA BR SCT004 BKN012 OVC030 FM090000
                       27005KT P6SM FEW007 SCT012 OVC030 FM090300
                       27008KT P6SM FEW015 SCT030 OVC050 FM090900
                       27008KT P6SM BKN015=
201610081632 KCLM 081632Z 0817/0912 VRB04KT 2SM -RA BR OVC004 FM082100 VRB03KT
                       5SM -RA BR SCT004 BKN012 OVC030 FM090000
                       27005KT P6SM FEW007 SCT012 OVC030 FM090300
                       27008KT P6SM FEW015 SCT030 OVC050 FM090900
                       27008KT P6SM BKN015 BKN030=
201610081313 KCLM 081313Z 0813/0912 00000KT P6SM -RA FEW007 BKN070 OVC100
                      TEMPO 0813/0817 4SM -RA BR BKN007 OVC015
                       FM082100 VRB03KT 5SM -RA BR SCT004 BKN012
                       OVC030 FM090000 27005KT P6SM FEW007 SCT012
                       OVC030 FM090300 27008KT P6SM FEW015 SCT030
                       OVC050 FM090900 27008KT P6SM BKN015 BKN030=
201610081131 TAF KCLM 081131Z 0812/0912 VRB03KT 4SM -RA BR SCT004 OVC012
                      TEMPO 0814/0818 2SM -RA BR BKN004 OVC012
                       FM082100 VRB03KT 5SM -RA BR SCT004 BKN012
                       OVC030 FM090000 27005KT P6SM FEW007 SCT012
                       OVC030 FM090300 27008KT P6SM FEW015 SCT030
                       OVC050 FM090900 27008KT P6SM BKN015 BKN030=
201610080907 TAF AMD KCLM 080907Z 0809/0906 VRB03KT 6SM -RA BR SCT028 OVC060
                       TEMPO 0809/0812 BKN028 OVC060 FM081200 VRB03KT
                       3SM -RA BR SCT004 OVC012
                      TEMPO 0812/0816 BKN004 OVC012 FM081800 VRB03KT
                       5SM -RA BR SCT004 BKN012 OVC030 FM090000
                       27005KT P6SM FEW007 SCT012 OVC030=
201610080536 TAF KCLM 080536Z 0806/0906 VRB03KT P6SM SCT028 SCT050 OVC100
                      TEMPO 0806/0809 -RA BKN028 BKN050 OVC100
                       FM080900 VRB03KT 6SM -RA BR SCT012 OVC028
                       FM081200 VRB03KT 3SM -RA BR SCT004 OVC012
                       TEMPO 0812/0816 BKN004 OVC012 FM081800 VRB03KT
                       5SM -RA BR SCT004 BKN012 OVC030 FM090000
                       27005KT P6SM FEW007 SCT012 OVC030=
201610080310 KCLM 080310Z 0803/0824 VRB03KT P6SM VCSH SCT028 OVC130
                      TEMPO 0803/0806 BKN028 OVC130 FM080600 VRB03KT
                       P6SM VCSH SCT035 SCT050 OVC090 FM080900
                       25003KT P6SM -RA OVC035 FM081200 VRB04KT
                       2SM -RA BR OVC012 FM081800 26006KT P6SM
                       -RA OVC040=
201610072325 TAF KCLM 072325Z 0800/0824 29008KT P6SM SCT035 BKN200 FM080900
                       25003KT P6SM -RA OVC035 FM081200 VRB04KT
                       2SM -RA BR OVC012 FM081800 26006KT P6SM
                       -RA OVC040=
201610071721 TAF KCLM 071721Z 0718/0818 29010KT P6SM BKN060 FM072000 29008KT
                       P6SM SCT030 BKN070 FM080900 25003KT P6SM
                       -RA OVC015=
201610071130 TAF KCLM 071130Z 0712/0812 28010KT P6SM BKN060 FM071800 29008KT
                       P6SM SCT030 BKN070 FM080900 25003KT P6SM
                       -RA OVC015=
201610070530 TAF KCLM 070530Z 0706/0806 00000KT P6SM -RA FEW045 SCT060 BKN080
                       FM071400 27010G20KT P6SM BKN020 FM071800
                       29008KT P6SM SCT030 BKN070=
201610062322 TAF KCLM 062322Z 0700/0724 12005KT P6SM -RA OVC018 FM070600 12008KT
                       4SM -RA BR OVC012 FM071400 27010G20KT P6SM
                       BKN020 FM071800 27007KT P6SM BKN030=
201610062146 KCLM 062146Z 0622/0718 09005KT P6SM -RA OVC020 FM070900 12008KT
                       P6SM -RA OVC015=
201610061721 TAF KCLM 061721Z 0618/0718 VRB04KT P6SM BKN017 FM062000 VRB04KT
                       P6SM SCT030 BKN070 FM070300 12006KT P6SM
                       -RA BKN050 OVC120 FM070600 12008KT P6SM
                       -RA OVC025=
201610061125 TAF KCLM 061125Z 0612/0712 00000KT P6SM BKN030 OVC070 FM061400
                       04003KT P6SM -RA OVC015 FM061800 24006KT
                       P6SM BKN040 OVC120 FM062200 VRB04KT P6SM
                       -RA BKN040 OVC060 FM070300 12002KT 5SM -RA
                       BR OVC020=
201610060540 TAF KCLM 060540Z 0606/0706 25003KT P6SM BKN070 FM061200 24006KT
                       P6SM OVC025 FM061800 24006KT P6SM BKN040
                       OVC120 FM062200 VRB04KT P6SM -RA BKN040
                       OVC060 FM070300 12002KT 5SM -RA BR OVC050=
201610052320 TAF KCLM 052320Z 0600/0624 29005KT P6SM SCT060 BKN200 FM060600
                       26004KT P6SM SCT025 OVC040 FM061200 24006KT
                       P6SM OVC025 FM061800 24006KT P6SM BKN040
                       OVC120 FM062200 VRB04KT P6SM -RA BKN040
                       OVC060=
201610052015 KCLM 052015Z 0520/0618 VRB04KT P6SM SCT013 BKN050
                      TEMPO 0520/0522 OVC013 FM060000 29007KT P6SM
                       SCT060 BKN100 FM060600 26004KT P6SM -SHRA
                       SCT025 OVC040 FM061200 24006KT P6SM -SHRA
                       OVC025=
201610051720 TAF KCLM 051720Z 0518/0618 24004KT P6SM FEW006 SCT025 BKN060
                      TEMPO 0518/0520 BKN025 OVC060 FM052000 29007KT
                       P6SM SCT030 BKN050 FM060000 29007KT P6SM
                       SCT060 BKN100 FM060600 26004KT P6SM -SHRA
                       SCT025 OVC040 FM061200 24006KT P6SM -SHRA
                       OVC025=
201610051534 KCLM 051534Z 0516/0612 24004KT P6SM FEW006 SCT010 BKN060
                      TEMPO 0516/0518 OVC003 FM051900 29007KT P6SM
                       SCT030 BKN050 FM060000 29007KT P6SM SCT060
                       BKN100 FM060600 26004KT P6SM VCSH SCT025
                       OVC040=
201610051130 TAF KCLM 051130Z 0512/0612 24003KT 5SM -SHRA BR FEW006 OVC060
                      TEMPO 0512/0516 3SM -SHRA BR OVC006 FM051900
                       29007KT P6SM SCT030 BKN050 FM060000 29007KT
                       P6SM SCT060 BKN100 FM060600 26004KT P6SM
                       VCSH SCT025 OVC040=
201610050525 TAF KCLM 050525Z 0506/0606 00000KT P6SM FEW070 BKN080 FM050800
                       VRB03KT 5SM -SHRA BR BKN015 OVC025 FM051900
                       29007KT P6SM SCT030 BKN050=
201610042329 TAF KCLM 042329Z 0500/0524 05003KT P6SM FEW045 BKN070 OVC120 FM050400
                       VRB03KT 5SM -SHRA BR BKN015 OVC025 FM051900
                       29007KT P6SM SCT030 BKN050=
201610041724 TAF KCLM 041724Z 0418/0518 00000KT P6SM VCSH BKN070 OVC100 FM042100
                       VRB04KT P6SM -SHRA BKN035 OVC050 FM051100
                       VRB03KT 5SM -SHRA BR BKN015 OVC025=
201610041508 TAF AMD KCLM 041508Z 0415/0512 00000KT P6SM VCSH SCT035 BKN060
                       TEMPO 0416/0420 -SHRA BKN035 OVC060 FM042100
                       VRB04KT P6SM VCSH OVC045=
201610041130 TAF KCLM 041130Z 0412/0512 00000KT P6SM SCT060 BKN080 OVC090
                      TEMPO 0416/0420 -SHRA BKN025 OVC045 FM042100
                       VRB04KT P6SM VCSH OVC045=
201610040525 TAF KCLM 040525Z 0406/0506 26003KT P6SM FEW005 BKN070 OVC090
                      TEMPO 0406/0408 -RA BKN040 OVC070 FM040800
                       VRB03KT P6SM -RA OVC020 FM041600 07004KT
                       P6SM VCSH BKN015 OVC025 FM042100 06004KT
                       P6SM -RA BKN025 OVC045=
201610032327 TAF KCLM 032327Z 0400/0424 00000KT P6SM OVC090 FM040100 VRB03KT
                       P6SM -RA BKN060 OVC120 FM040400 VRB03KT
                       P6SM -RA OVC060 FM040800 VRB03KT P6SM -RA
                       OVC020 FM041600 07004KT P6SM VCSH BKN015
                       OVC025 FM042100 06004KT P6SM -RA BKN025
                       OVC045=
201610031743 TAF KCLM 031743Z 0318/0418 08003KT P6SM SCT080 BKN150 FM040100
                       VRB03KT P6SM BKN070 OVC120 FM040400 VRB03KT
                       P6SM -RA OVC060 FM040800 VRB03KT P6SM -RA
                       OVC020=
201610031120 TAF KCLM 031120Z 0312/0412 23004KT P6SM SCT070 BKN150 FM031800
                       08003KT P6SM SCT080 BKN150 FM040100 VRB03KT
                       P6SM BKN070 OVC120 FM040400 VRB03KT P6SM
                       -RA OVC060 FM040800 VRB03KT P6SM -RA OVC020=
201610030523 TAF KCLM 030523Z 0306/0406 21005KT P6SM FEW080 FM031000 22003KT
                       P6SM BKN080 FM031800 08003KT P6SM SCT080
                       BKN150 FM040100 VRB03KT P6SM BKN070 OVC120
                       FM040400 VRB03KT P6SM -RA OVC060=
201610022324 TAF KCLM 022324Z 0300/0324 VRB04KT P6SM SCT200 FM030300 24003KT
                       P6SM SKC FM031000 24003KT P6SM BKN100 FM031600
                       VRB03KT P6SM SCT050 OVC100=
201610021732 TAF KCLM 021732Z 0218/0318 10003KT P6SM SCT007 OVC015 FM022000
                       VRB04KT P6SM FEW100 FM030300 24003KT P6SM
                       SKC FM031000 24003KT P6SM BKN100=
201610021120 TAF KCLM 021120Z 0212/0312 00000KT P6SM OVC015 FM021500 VRB02KT
                       P6SM BKN050 BKN100 FM021800 02005KT P6SM
                       SCT100 FM022100 34006KT P6SM FEW100 FM030200
                       28004KT P6SM SKC=
201610020926 KCLM 020926Z 0209/0306 00000KT P6SM OVC018 FM021500 VRB02KT P6SM
                       BKN050 BKN100 FM021800 02005KT P6SM SCT100
                       FM022100 34006KT P6SM FEW100 FM030200 28004KT
                       P6SM SKC=
201610020520 TAF KCLM 020520Z 0206/0306 22003KT P6SM FEW060 BKN100 FM021700
                       02005KT P6SM SCT100 FM022100 34006KT P6SM
                       FEW100 FM030200 28004KT P6SM SKC=
201610012328 TAF KCLM 012328Z 0200/0224 VRB03KT P6SM VCSH BKN060 BKN100 FM020500
                       VRB03KT P6SM BKN060 BKN100 FM021300 VRB03KT
                       P6SM BKN100 FM021700 02005KT P6SM FEW100
                       SCT250=
201610012054 KCLM 012054Z 0121/0218 00000KT P6SM SCT011 BKN120 FM020100 VRB03KT
                       P6SM -SHRA SCT020 OVC050 FM021000 VRB03KT
                       P6SM BKN050=
201610011729 TAF KCLM 011729Z 0118/0218 VRB04KT P6SM -SHRA BKN008 OVC050 FM020100
                       VRB03KT P6SM -SHRA SCT020 OVC050 FM021000
                       VRB03KT P6SM BKN050=
201610011543 KCLM 011543Z 0116/0212 22003KT P6SM VCSH BKN008 BKN070 FM011800
                       11004KT P6SM -SHRA SCT007 OVC015 FM020300
                       VRB03KT P6SM SCT020 OVC050=
201610011120 TAF KCLM 011120Z 0112/0212 20003KT P6SM FEW060 BKN100 FM011500
                       VRB03KT P6SM BKN040 OVC070 FM011800 11004KT
                       P6SM -SHRA SCT007 OVC015 FM020300 VRB03KT
                       P6SM SCT020 OVC050=
201610010520 TAF KCLM 010520Z 0106/0206 28004KT P6SM FEW060 SCT150 FM011000
                       VRB03KT P6SM BKN050 OVC120 FM011800 11004KT
                       5SM -SHRA SCT007 OVC015 FM020300 VRB03KT
                       4SM BR OVC007=