##########################################################
# Query made at 02/16/2025 03:15:53 UTC
# Time interval: from 11/01/2016 00:00  to 11/30/2016 23:59  UTC
##########################################################

##########################################################
# KCLM, Port Angeles, William R. Fairchild International Airport (United States)
# WMO index: -----. WIGOS ID: Unknown
# Latitude 48-07-20N. Longitude 123-30-19W. Altitude 87 m.
##########################################################

###################################
#  METAR/SPECI from KCLM
###################################
201611302353 METAR KCLM 302353Z AUTO 26011KT 10SM FEW100 08/03 A3003 RMK AO2 SLP170 60000 T00830028 10106 20078 51025=
201611302253 METAR KCLM 302253Z AUTO 27013G23KT 10SM FEW036 BKN046 BKN090 09/04 A3001 RMK AO2 RAE03 SLP164 P0000 T00890039=
201611302153 METAR KCLM 302153Z AUTO 28018G25KT 4SM -RA FEW030 BKN038 OVC050 08/05 A2998 RMK AO2 PK WND 25027/2111 RAE00B39 SLP155 P0000 T00830050=
201611302053 METAR KCLM 302053Z AUTO 28021G31KT 10SM -RA SCT034 BKN046 BKN060 09/05 A2995 RMK AO2 PK WND 27031/2050 SLP145 P0000 60000 T00940050 52030=
201611301953 METAR KCLM 301953Z AUTO 26016G27KT 10SM -RA BKN050 BKN055 08/05 A2992 RMK AO2 PK WND 26031/1902 RAB24 SLP135 P0000 T00830050=
201611301853 METAR KCLM 301853Z AUTO 27018G35KT 10SM BKN050 09/05 A2990 RMK AO2 PK WND 28035/1851 SLP125 T00940050=
201611301753 METAR KCLM 301753Z AUTO 25012KT 10SM BKN042 BKN055 OVC070 07/06 A2986 RMK AO2 RAE49 SLP115 P0006 60019 T00720056 10072 20061 53030=
201611301653 METAR KCLM 301653Z AUTO 25012KT 9SM -RA OVC041 07/05 A2984 RMK AO2 SLP105 P0007 T00670050=
201611301553 METAR KCLM 301553Z AUTO 25014G23KT 10SM -RA OVC050 07/04 A2980 RMK AO2 SLP093 P0000 T00670044=
201611301453 METAR KCLM 301453Z AUTO 26014KT 10SM -RA BKN060 OVC080 06/04 A2977 RMK AO2 SLP084 P0002 60006 T00610044 53003=
201611301353 METAR KCLM 301353Z AUTO 25012G18KT 10SM -RA BKN055 BKN075 07/04 A2977 RMK AO2 SLP082 P0000 T00670044=
201611301253 METAR KCLM 301253Z AUTO 23006KT 8SM -RA BKN050 OVC070 06/06 A2975 RMK AO2 SLP077 P0004 T00610056=
201611301153 METAR KCLM 301153Z AUTO 23007KT 10SM -RA OVC050 06/06 A2977 RMK AO2 SLP081 P0002 60006 70006 T00560056 10061 20039 51008=
201611301053 METAR KCLM 301053Z AUTO 20003KT 10SM -RA OVC046 06/05 A2976 RMK AO2 SLP081 P0002 T00560050=
201611300953 METAR KCLM 300953Z AUTO VRB05KT 10SM -RA BKN048 OVC070 06/05 A2975 RMK AO2 RAE21B40 SLP076 P0002 T00560050=
201611300853 METAR KCLM 300853Z AUTO 24004KT 10SM -RA OVC050 06/05 A2974 RMK AO2 SLP074 P0000 60000 T00560050 58013=
201611300753 METAR KCLM 300753Z AUTO 12003KT 9SM -RA OVC048 06/05 A2976 RMK AO2 RAB28 SLP078 P0000 T00610050 401000022=
201611300653 METAR KCLM 300653Z AUTO 13005KT 10SM FEW011 SCT080 SCT120 05/04 A2978 RMK AO2 SLP085 T00500044=
201611300553 METAR KCLM 300553Z AUTO 18004KT 10SM SCT065 BKN110 04/03 A2978 RMK AO2 PRESFR SLP087 T00390033 10072 20022 56032=
201611300453 METAR KCLM 300453Z AUTO 27007KT 10SM CLR 02/02 A2982 RMK AO2 SLP100 T00220022=
201611300353 METAR KCLM 300353Z AUTO 00000KT 10SM CLR 04/04 A2983 RMK AO2 SLP101 T00440044=
201611300253 METAR KCLM 300253Z AUTO 14003KT 10SM SCT090 06/05 A2988 RMK AO2 SLP119 T00560050 58040=
201611300153 METAR KCLM 300153Z AUTO 24004KT 10SM OVC095 07/05 A2992 RMK AO2 SLP135 T00670050=
201611300053 METAR KCLM 300053Z AUTO 27007KT 10SM OVC090 07/06 A2997 RMK AO2 SLP151 T00720056=
201611292353 METAR KCLM 292353Z AUTO 30003KT 10SM OVC090 07/06 A3000 RMK AO2 SLP160 T00720056 10100 20067 58031=
201611292253 METAR KCLM 292253Z AUTO 01003KT 10SM OVC090 08/06 A3004 RMK AO2 SLP173 T00830061=
201611292153 METAR KCLM 292153Z AUTO VRB03KT 10SM CLR 08/06 A3006 RMK AO2 SLP182 T00830061=
201611292053 METAR KCLM 292053Z AUTO VRB03KT 10SM CLR 10/07 A3009 RMK AO2 SLP190 T01000067 58021=
201611291953 METAR KCLM 291953Z AUTO 09004KT 10SM CLR 09/05 A3012 RMK AO2 SLP202 T00890050=
201611291853 METAR KCLM 291853Z AUTO 26005KT 10SM OVC080 09/04 A3015 RMK AO2 SLP211 T00890044=
201611291753 METAR KCLM 291753Z AUTO 24003KT 10SM CLR 07/04 A3015 RMK AO2 SLP213 T00670044 10067 20022 53002=
201611291653 METAR KCLM 291653Z AUTO 25004KT 10SM OVC110 06/04 A3015 RMK AO2 SLP211 T00560039=
201611291553 METAR KCLM 291553Z AUTO 24006KT 10SM OVC110 04/03 A3015 RMK AO2 SLP211 T00440033=
201611291453 METAR KCLM 291453Z AUTO 20003KT 10SM CLR 04/03 A3015 RMK AO2 SLP211 T00390028 50000=
201611291353 METAR KCLM 291353Z AUTO 13003KT 10SM BKN055 04/04 A3015 RMK AO2 SLP212 T00440039=
201611291306 SPECI KCLM 291306Z AUTO 24004KT 10SM SCT011 OVC049 05/04 A3016 RMK AO2 T00500039=
201611291253 METAR KCLM 291253Z AUTO 23005KT 10SM BKN011 OVC045 06/04 A3015 RMK AO2 SLP211 T00560044=
201611291249 SPECI KCLM 291249Z AUTO 24005KT 10SM BKN011 OVC045 06/04 A3015 RMK AO2=
201611291153 METAR KCLM 291153Z AUTO 00000KT 10SM FEW008 BKN050 05/04 A3014 RMK AO2 SLP210 60000 T00500044 10072 20050 50004=
201611291053 METAR KCLM 291053Z AUTO 23003KT 10SM SCT005 SCT036 BKN050 06/05 A3015 RMK AO2 SLP210 T00560050=
201611291033 SPECI KCLM 291033Z AUTO 25003KT 10SM BKN005 BKN038 OVC050 06/05 A3015 RMK AO2 T00560050=
201611291024 SPECI KCLM 291024Z AUTO 25003KT 10SM SCT006 BKN038 OVC050 06/06 A3015 RMK AO2 T00610056=
201611291015 SPECI KCLM 291015Z AUTO 00000KT 10SM SCT025 BKN038 OVC050 07/07 A3015 RMK AO2 T00670067=
201611290953 METAR KCLM 290953Z AUTO 00000KT 10SM OVC025 07/05 A3015 RMK AO2 RAB09E40 SLP212 P0000 T00670050=
201611290940 SPECI KCLM 290940Z AUTO 00000KT 10SM BKN025 OVC034 07/05 A3015 RMK AO2 RAB09E40 P0000 T00670050=
201611290853 METAR KCLM 290853Z AUTO 25005KT 10SM FEW026 BKN035 OVC042 07/04 A3013 RMK AO2 RAB25E35 SLP205 P0000 60000 T00670044 53013=
201611290753 METAR KCLM 290753Z AUTO 25007KT 10SM SCT033 BKN042 OVC050 07/04 A3011 RMK AO2 RAB02E28 SLP198 P0000 T00670039 401170061=
201611290653 METAR KCLM 290653Z AUTO VRB05KT 10SM BKN035 OVC048 07/04 A3011 RMK AO2 SLP197 T00720044=
201611290553 METAR KCLM 290553Z AUTO 00000KT 10SM BKN032 OVC047 07/06 A3009 RMK AO2 SLP192 T00720056 10100 20067 51018=
201611290453 METAR KCLM 290453Z AUTO 23007KT 10SM FEW042 OVC050 07/04 A3008 RMK AO2 SLP189 T00720044=
201611290353 METAR KCLM 290353Z AUTO 25009KT 10SM OVC046 07/05 A3006 RMK AO2 SLP181 T00720050=
201611290253 METAR KCLM 290253Z AUTO 27007KT 10SM BKN040 08/05 A3004 RMK AO2 SLP174 T00830050 53021=
201611290153 METAR KCLM 290153Z AUTO 24008KT 10SM BKN038 08/05 A3002 RMK AO2 SLP166 T00830050=
201611290053 METAR KCLM 290053Z AUTO 27010KT 10SM OVC038 10/04 A3000 RMK AO2 SLP160 T01000044=
201611282353 METAR KCLM 282353Z AUTO 30008KT 10SM BKN038 09/06 A2998 RMK AO2 SLP153 T00940056 10117 20083 53019=
201611282253 METAR KCLM 282253Z AUTO 29009KT 10SM OVC038 11/05 A2995 RMK AO2 SLP143 T01060050=
201611282153 METAR KCLM 282153Z AUTO 25011KT 10SM OVC039 11/06 A2993 RMK AO2 SLP135 T01110056=
201611282053 METAR KCLM 282053Z AUTO 30017G24KT 10SM OVC036 11/05 A2992 RMK AO2 SLP133 T01110050 51018=
201611281953 METAR KCLM 281953Z AUTO 29015G21KT 10SM OVC036 12/05 A2991 RMK AO2 SLP129 T01170050=
201611281853 METAR KCLM 281853Z AUTO 25009KT 10SM OVC034 09/04 A2989 RMK AO2 SLP122 T00940044=
201611281753 METAR KCLM 281753Z AUTO 26009KT 10SM BKN033 OVC100 08/04 A2987 RMK AO2 SLP115 T00830039 10083 20061 51030=
201611281653 METAR KCLM 281653Z AUTO 25008KT 10SM BKN033 OVC095 08/03 A2984 RMK AO2 SLP107 T00780033=
201611281553 METAR KCLM 281553Z AUTO 24013G20KT 10SM FEW095 07/03 A2981 RMK AO2 SLP095 T00670028=
201611281453 METAR KCLM 281453Z AUTO 26012KT 10SM BKN037 OVC110 07/03 A2978 RMK AO2 SLP086 T00720028 53025=
201611281353 METAR KCLM 281353Z AUTO 25015G21KT 10SM SCT036 BKN120 07/03 A2975 RMK AO2 SLP076 T00720028=
201611281253 METAR KCLM 281253Z AUTO 25013KT 10SM CLR 06/03 A2973 RMK AO2 SLP070 T00610028=
201611281153 METAR KCLM 281153Z AUTO 24015KT 10SM CLR 07/03 A2970 RMK AO2 RAB07E16 SLP060 P0000 60000 70030 T00670028 10089 20061 51024=
201611281053 METAR KCLM 281053Z AUTO 25011KT 10SM FEW039 06/03 A2969 RMK AO2 PK WND 27026/1009 SLP056 T00610028=
201611280953 METAR KCLM 280953Z AUTO 27017G25KT 10SM FEW037 08/02 A2967 RMK AO2 SLP048 T00830022=
201611280853 METAR KCLM 280853Z AUTO 27016G25KT 10SM SCT040 08/03 A2963 RMK AO2 PK WND 28026/0830 SLP035 T00830028 51036=
201611280753 METAR KCLM 280753Z AUTO 27015G26KT 10SM SCT040 08/02 A2960 RMK AO2 PK WND 26026/0654 SLP025 T00830017 400890028=
201611280653 METAR KCLM 280653Z AUTO 27018G26KT 10SM SCT040 08/03 A2956 RMK AO2 PK WND 27032/0642 SLP012 T00830028=
201611280553 METAR KCLM 280553Z AUTO 27017G23KT 10SM SCT037 08/02 A2953 RMK AO2 PK WND 25027/0520 SLP000 60027 T00780022 10089 20056 53018=
201611280453 METAR KCLM 280453Z AUTO 27016G24KT 10SM SCT095 08/03 A2949 RMK AO2 SLP987 T00780028=
201611280353 METAR KCLM 280353Z AUTO 25015G21KT 10SM SCT036 BKN075 BKN090 07/04 A2947 RMK AO2 PK WND 25029/0333 RAE45 SLP982 P0009 T00670044=
201611280318 SPECI KCLM 280318Z AUTO 26015G23KT 4SM -RA BR FEW016 FEW023 OVC036 07/06 A2948 RMK AO2 P0007 T00720056=
201611280253 METAR KCLM 280253Z AUTO 30008KT 7SM -RA FEW018 BKN024 OVC041 07/06 A2947 RMK AO2 SLP982 P0007 60018 T00670061 55011=
201611280153 METAR KCLM 280153Z AUTO 33003KT 10SM -RA OVC034 06/06 A2946 RMK AO2 SLP977 P0007 T00560056=
201611280053 METAR KCLM 280053Z AUTO 26006KT 10SM -RA BKN047 OVC070 06/05 A2944 RMK AO2 SLP969 P0004 T00560050=
201611272353 METAR KCLM 272353Z AUTO 24003KT 9SM -RA OVC042 06/05 A2951 RMK AO2 RAB19 PRESFR SLP993 P0001 60003 T00610050 10078 20061 58061=
201611272253 METAR KCLM 272253Z AUTO 00000KT 10SM BKN060 BKN070 OVC085 07/06 A2957 RMK AO2 RAE13 SLP015 P0000 T00670056=
201611272153 METAR KCLM 272153Z AUTO 14006KT 10SM -RA BKN043 OVC060 07/06 A2964 RMK AO2 RAE02B34 PRESFR SLP038 P0000 T00720061=
201611272053 METAR KCLM 272053Z AUTO 15003KT 10SM -RA FEW035 BKN055 OVC080 07/06 A2969 RMK AO2 RAB00 SLP054 P0002 60002 T00720061 58017=
201611271953 METAR KCLM 271953Z AUTO 00000KT 10SM FEW045 BKN055 OVC070 07/05 A2972 RMK AO2 RAB31E42 SLP065 P0000 T00720050=
201611271853 METAR KCLM 271853Z AUTO 25003KT 10SM FEW080 BKN120 07/04 A2971 RMK AO2 SLP063 T00670039=
201611271753 METAR KCLM 271753Z AUTO 24005KT 10SM BKN080 06/03 A2974 RMK AO2 SLP071 T00610028 10067 20028 51005=
201611271653 METAR KCLM 271653Z AUTO 26005KT 10SM OVC060 06/03 A2973 RMK AO2 SLP069 T00560033=
201611271553 METAR KCLM 271553Z AUTO 25007KT 10SM OVC047 05/02 A2973 RMK AO2 SLP069 T00500022=
201611271453 METAR KCLM 271453Z AUTO 25006KT 10SM OVC043 05/02 A2972 RMK AO2 SLP066 T00500022 53011=
201611271353 METAR KCLM 271353Z AUTO 26008KT 10SM CLR 04/02 A2971 RMK AO2 SLP062 T00440022=
201611271253 METAR KCLM 271253Z AUTO 24008KT 10SM FEW036 04/03 A2968 RMK AO2 SLP053 T00390028=
201611271153 METAR KCLM 271153Z AUTO 24012KT 10SM CLR 05/03 A2969 RMK AO2 SLP055 70074 T00500028 10056 20039 51021=
201611271053 METAR KCLM 271053Z AUTO 25009KT 10SM CLR 04/03 A2968 RMK AO2 SLP053 T00440033=
201611270953 METAR KCLM 270953Z AUTO 24006KT 10SM CLR 04/03 A2965 RMK AO2 SLP042 T00440033=
201611270853 METAR KCLM 270853Z AUTO 25006KT 10SM CLR 04/04 A2963 RMK AO2 SLP034 T00390039 51023=
201611270804 SPECI KCLM 270804Z AUTO 25005KT 10SM SCT020 05/04 A2961 RMK AO2 T00500044=
201611270753 METAR KCLM 270753Z AUTO 24003KT 10SM BKN020 05/05 A2961 RMK AO2 SLP027 T00500050 400780044=
201611270653 METAR KCLM 270653Z AUTO 00000KT 8SM OVC021 05/05 A2958 RMK AO2 SLP018 T00500050=
201611270642 SPECI KCLM 270642Z AUTO 23004KT 7SM BKN021 BKN030 OVC042 05/05 A2957 RMK AO2 T00500050=
201611270630 SPECI KCLM 270630Z AUTO 23004KT 4SM BR FEW020 BKN032 OVC042 05/05 A2957 RMK AO2 T00500050=
201611270553 METAR KCLM 270553Z AUTO 00000KT 4SM BR OVC029 06/06 A2956 RMK AO2 SLP011 60027 T00560056 10067 20056 53017=
201611270531 SPECI KCLM 270531Z AUTO 00000KT 6SM BR FEW012 BKN030 OVC040 06/06 A2955 RMK AO2 T00560056=
201611270522 SPECI KCLM 270522Z AUTO 00000KT 8SM BKN012 BKN031 OVC041 06/06 A2955 RMK AO2 T00560056=
201611270453 METAR KCLM 270453Z AUTO 00000KT 8SM FEW010 OVC034 06/06 A2954 RMK AO2 SLP005 T00560056=
201611270445 SPECI KCLM 270445Z AUTO 16003KT 8SM SCT010 OVC034 06/06 A2954 RMK AO2 T00560056=
201611270408 SPECI KCLM 270408Z AUTO 00000KT 9SM BKN010 OVC032 06/05 A2953 RMK AO2 T00560050=
201611270353 METAR KCLM 270353Z AUTO 00000KT 9SM BKN009 BKN029 OVC034 06/06 A2952 RMK AO2 RAE46 SLP998 P0001 T00560056=
201611270253 METAR KCLM 270253Z AUTO 09003KT 5SM -RA BR BKN005 BKN016 OVC025 06/06 A2951 RMK AO2 SLP993 P0009 60026 T00610061 53013=
201611270237 SPECI KCLM 270237Z AUTO 00000KT 5SM -RA BR SCT004 BKN024 OVC031 06/06 A2950 RMK AO2 P0007 T00610061=
201611270221 SPECI KCLM 270221Z AUTO 06003KT 4SM -RA BR BKN005 OVC029 06/06 A2950 RMK AO2 P0006 T00610061=
201611270207 SPECI KCLM 270207Z AUTO 06003KT 3SM RA BR OVC004 06/06 A2950 RMK AO2 CIG 002V008 P0003 T00610061=
201611270200 SPECI KCLM 270200Z AUTO 04003KT 2 1/2SM RA BR OVC006 06/06 A2950 RMK AO2 CIG 002V008 P0001 T00610061=
201611270153 METAR KCLM 270153Z AUTO 36003KT 3SM RA BR OVC006 06/06 A2949 RMK AO2 SLP988 P0014 T00610061=
201611270146 SPECI KCLM 270146Z AUTO 00000KT 4SM -RA BR BKN006 OVC010 06/06 A2949 RMK AO2 P0012 T00610061=
201611270135 SPECI KCLM 270135Z AUTO 00000KT 4SM -RA BR SCT006 OVC012 06/06 A2949 RMK AO2 P0010 T00610056=
201611270110 SPECI KCLM 270110Z AUTO 00000KT 3SM -RA BR BKN010 BKN015 OVC021 07/06 A2948 RMK AO2 P0004 T00670061=
201611270101 SPECI KCLM 270101Z AUTO 00000KT 5SM -RA BR BKN008 OVC017 06/06 A2948 RMK AO2 P0001 T00610061=
201611270053 METAR KCLM 270053Z AUTO 00000KT 8SM -RA SCT008 BKN013 OVC019 07/06 A2948 RMK AO2 SLP983 P0003 T00670061=
201611270043 SPECI KCLM 270043Z AUTO 00000KT 9SM -RA BKN008 OVC015 07/06 A2947 RMK AO2 P0003 T00670061=
201611262353 METAR KCLM 262353Z AUTO 24004KT 5SM -RA BR SCT018 BKN025 OVC032 07/06 A2947 RMK AO2 SLP980 P0006 60018 T00670061 10078 20067 53001=
201611262253 METAR KCLM 262253Z AUTO 28003KT 3SM -RA BR OVC018 07/06 A2946 RMK AO2 SLP977 P0004 T00670061=
201611262218 SPECI KCLM 262218Z AUTO 30005KT 7SM -RA OVC016 07/06 A2945 RMK AO2 P0001 T00720061=
201611262153 METAR KCLM 262153Z AUTO 31006KT 7SM -RA OVC012 07/07 A2946 RMK AO2 RAB14 SLP976 P0000 T00720067=
201611262053 METAR KCLM 262053Z AUTO 31005KT 10SM OVC009 08/07 A2947 RMK AO2 RAE53 CIG 005V011 SLP979 P0003 60008 T00780072 58007=
201611261953 METAR KCLM 261953Z AUTO 31005KT 6SM -RA BR OVC005 08/08 A2948 RMK AO2 SLP985 P0003 T00780078=
201611261853 METAR KCLM 261853Z AUTO 00000KT 6SM -RA BR OVC003 08/08 A2949 RMK AO2 SLP986 P0002 T00780078=
201611261753 METAR KCLM 261753Z AUTO 09005KT 4SM -RA BR OVC004 08/07 A2949 RMK AO2 SLP986 P0003 60029 T00780072 10078 20056 50009=
201611261749 SPECI KCLM 261749Z AUTO 08006KT 4SM -RA BR OVC004 08/07 A2949 RMK AO2 P0002=
201611261653 METAR KCLM 261653Z AUTO 00000KT 7SM -RA OVC007 08/08 A2947 RMK AO2 SLP980 P0004 T00780078=
201611261636 SPECI KCLM 261636Z AUTO 00000KT 10SM -RA BKN007 OVC050 08/08 A2947 RMK AO2 P0004 T00780078=
201611261553 METAR KCLM 261553Z AUTO 29006KT 8SM -RA FEW004 FEW023 OVC050 07/07 A2946 RMK AO2 SLP977 P0006 T00720072=
201611261541 SPECI KCLM 261541Z AUTO 28007KT 5SM -RA BR FEW003 SCT012 OVC055 07/07 A2946 RMK AO2 P0004 T00720072=
201611261453 METAR KCLM 261453Z AUTO 28005KT 10SM -RA OVC060 06/06 A2945 RMK AO2 SLP973 P0004 60016 T00610061 56024=
201611261353 METAR KCLM 261353Z AUTO 00000KT 5SM -RA BR OVC060 06/06 A2945 RMK AO2 SLP974 P0008 T00610061=
201611261321 SPECI KCLM 261321Z AUTO 17003KT 6SM -RA BR SCT008 OVC055 06/06 A2946 RMK AO2 P0004 T00610061=
201611261253 METAR KCLM 261253Z AUTO 14005KT 8SM -RA BKN006 OVC060 06/06 A2948 RMK AO2 SLP985 P0004 T00610061=
201611261227 SPECI KCLM 261227Z AUTO 16003KT 7SM -RA BKN007 OVC060 06/06 A2949 RMK AO2 P0004 T00610061=
201611261216 SPECI KCLM 261216Z AUTO 00000KT 7SM -RA SCT007 OVC060 06/06 A2949 RMK AO2 P0002 T00560056=
201611261153 METAR KCLM 261153Z AUTO 00000KT 6SM -RA BR OVC060 06/06 A2952 RMK AO2 SLP997 P0004 60036 70040 T00560056 10056 20050 56033=
201611261053 METAR KCLM 261053Z AUTO 00000KT 9SM -RA FEW012 OVC060 06/06 A2956 RMK AO2 PRESFR SLP011 P0004 T00560056=
201611260953 METAR KCLM 260953Z AUTO 24004KT 8SM -RA OVC012 06/05 A2962 RMK AO2 SLP030 P0008 T00560050=
201611260853 METAR KCLM 260853Z AUTO 24005KT 8SM -RA OVC010 05/05 A2965 RMK AO2 SLP044 P0008 60020 T00500050 58037=
201611260753 METAR KCLM 260753Z AUTO 23005KT 7SM -RA OVC012 05/05 A2970 RMK AO2 SLP059 P0008 T00500050 400890017=
201611260653 METAR KCLM 260653Z AUTO 23006KT 7SM -RA BKN012 OVC022 06/05 A2974 RMK AO2 SLP071 P0004 T00560050=
201611260640 SPECI KCLM 260640Z AUTO 25003KT 8SM -RA BKN014 BKN018 OVC055 06/05 A2974 RMK AO2 P0004 T00560050=
201611260629 SPECI KCLM 260629Z AUTO 24006KT 10SM -RA SCT014 BKN019 OVC055 06/05 A2975 RMK AO2 P0002 T00560050=
201611260553 METAR KCLM 260553Z AUTO 23005KT 9SM -RA FEW015 OVC050 06/05 A2977 RMK AO2 SLP081 P0004 60004 T00560050 10067 20044 56010=
201611260550 SPECI KCLM 260550Z AUTO 23005KT 9SM -RA FEW015 SCT025 OVC050 06/05 A2977 RMK AO2 P0004=
201611260453 METAR KCLM 260453Z AUTO 22004KT 8SM -RA BKN018 OVC055 06/05 A2979 RMK AO2 RAB07 SLP091 P0000 T00560050=
201611260449 SPECI KCLM 260449Z AUTO 23003KT 10SM -RA BKN016 OVC060 06/05 A2980 RMK AO2 RAB07 P0000=
201611260353 METAR KCLM 260353Z AUTO 00000KT 10SM OVC075 06/06 A2982 RMK AO2 SLP100 T00560056=
201611260253 METAR KCLM 260253Z AUTO 19004KT 10SM BKN080 OVC095 06/06 A2984 RMK AO2 SLP107 T00560056 58013=
201611260153 METAR KCLM 260153Z AUTO 00000KT 9SM FEW075 BKN120 05/05 A2987 RMK AO2 SLP115 T00500050=
201611260053 METAR KCLM 260053Z AUTO 17004KT 10SM FEW020 05/05 A2988 RMK AO2 SLP119 T00500050=
201611252353 METAR KCLM 252353Z AUTO 00000KT 10SM CLR 07/06 A2988 RMK AO2 SLP121 T00720061 10089 20072 58003=
201611252253 METAR KCLM 252253Z AUTO 00000KT 10SM FEW020 08/04 A2989 RMK AO2 SLP124 T00830044=
201611252153 METAR KCLM 252153Z AUTO 31003KT 10SM CLR 08/05 A2989 RMK AO2 SLP122 T00830050=
201611252105 SPECI KCLM 252105Z AUTO 00000KT 10SM FEW020 08/05 A2989 RMK AO2 T00780050=
201611252053 METAR KCLM 252053Z AUTO 09003KT 10SM BKN018 08/05 A2989 RMK AO2 SLP123 T00780050 58009=
201611252016 SPECI KCLM 252016Z AUTO 05003KT 10SM BKN020 08/06 A2990 RMK AO2 T00780056=
201611251953 METAR KCLM 251953Z AUTO 09004KT 10SM FEW017 08/05 A2990 RMK AO2 SLP127 T00780050=
201611251924 SPECI KCLM 251924Z AUTO 08004KT 10SM BKN016 08/06 A2991 RMK AO2 T00830056=
201611251853 METAR KCLM 251853Z AUTO 08003KT 10SM CLR 08/06 A2991 RMK AO2 SLP131 T00780056=
201611251753 METAR KCLM 251753Z AUTO 23005KT 10SM CLR 06/05 A2992 RMK AO2 SLP132 60000 T00560050 10056 20017 51009=
201611251653 METAR KCLM 251653Z AUTO 23006KT 10SM CLR 03/03 A2991 RMK AO2 SLP131 T00330033=
201611251553 METAR KCLM 251553Z AUTO 23006KT 10SM CLR 02/02 A2990 RMK AO2 SLP125 T00220022=
201611251518 SPECI KCLM 251518Z AUTO 00000KT 3SM BR FEW001 02/02 A2989 RMK AO2 T00170017=
201611251453 METAR KCLM 251453Z AUTO 23005KT 9SM CLR 02/02 A2989 RMK AO2 SLP123 60000 T00220022 53019=
201611251440 SPECI KCLM 251440Z AUTO 00000KT 2 1/2SM BR FEW060 02/02 A2988 RMK AO2 VIS 1V5 T00220022=
201611251353 METAR KCLM 251353Z AUTO 13004KT 10SM CLR 04/04 A2987 RMK AO2 RAE12 SLP115 P0000 T00440044=
201611251335 SPECI KCLM 251335Z AUTO 11005KT 10SM FEW012 SCT022 05/04 A2986 RMK AO2 RAE12 P0000 T00500044=
201611251328 SPECI KCLM 251328Z AUTO 11006KT 10SM SCT010 BKN022 05/04 A2986 RMK AO2 RAE12 P0000 T00500044=
201611251311 SPECI KCLM 251311Z AUTO 11006KT 10SM -RA BKN010 OVC016 06/05 A2986 RMK AO2 P0000 T00560050=
201611251253 METAR KCLM 251253Z AUTO 10007KT 10SM -RA SCT013 BKN017 OVC031 05/04 A2985 RMK AO2 RAB50 SLP111 P0000 T00500044=
201611251231 SPECI KCLM 251231Z AUTO 15007KT 10SM FEW022 BKN031 BKN060 05/04 A2985 RMK AO2 T00500039=
201611251209 SPECI KCLM 251209Z AUTO 13010KT 10SM BKN022 05/04 A2984 RMK AO2 T00500044=
201611251153 METAR KCLM 251153Z AUTO 12007KT 10SM FEW019 FEW037 04/03 A2983 RMK AO2 SLP104 60026 70102 T00390033 10061 20022 51043=
201611251053 METAR KCLM 251053Z AUTO 13005KT 10SM FEW031 03/03 A2980 RMK AO2 SLP094 T00330028=
201611250953 METAR KCLM 250953Z AUTO 31009KT 10SM FEW026 04/04 A2975 RMK AO2 RAE37 SLP077 P0000 T00390039=
201611250853 METAR KCLM 250853Z AUTO 30009KT 10SM -RA BKN049 BKN060 04/04 A2971 RMK AO2 SLP061 P0012 60026 T00440044 53054=
201611250753 METAR KCLM 250753Z AUTO 19007KT 5SM -RA BR OVC037 04/04 A2964 RMK AO2 SLP040 P0011 T00440044 400830044=
201611250653 METAR KCLM 250653Z AUTO 29006KT 8SM -RA OVC044 04/04 A2960 RMK AO2 PRESRR SLP024 P0003 T00440039=
201611250553 METAR KCLM 250553Z AUTO 27009KT 10SM -RA OVC048 05/04 A2955 RMK AO2 SLP006 P0002 60056 T00500039 10067 20044 53007=
201611250544 SPECI KCLM 250544Z AUTO 25007KT 8SM -RA SCT018 OVC046 04/04 A2954 RMK AO2 P0002 T00440039=
201611250514 SPECI KCLM 250514Z AUTO 28009KT 10SM -RA OVC016 04/04 A2951 RMK AO2 P0000 T00440039=
201611250453 METAR KCLM 250453Z AUTO 25008KT 10SM -RA BKN014 OVC039 04/04 A2950 RMK AO2 SLP992 P0007 T00440039=
201611250353 METAR KCLM 250353Z AUTO 23006KT 8SM -RA OVC039 05/04 A2952 RMK AO2 SLP999 P0014 T00500044=
201611250319 SPECI KCLM 250319Z AUTO 23003KT 3SM RA BR SCT028 OVC033 06/06 A2953 RMK AO2 PRESFR P0009 T00560056=
201611250253 METAR KCLM 250253Z AUTO 24004KT 8SM -RA BKN025 OVC031 06/06 A2957 RMK AO2 SLP015 P0015 60033 T00560056 58049=
201611250243 SPECI KCLM 250243Z AUTO 24006KT 6SM -RA BR FEW021 OVC030 06/06 A2958 RMK AO2 P0015 T00560056=
201611250222 SPECI KCLM 250222Z AUTO 27004KT 3SM RA BR SCT009 BKN022 OVC028 06/06 A2961 RMK AO2 PRESFR P0010 T00610061=
201611250210 SPECI KCLM 250210Z AUTO 00000KT 2 1/2SM RA BR BKN008 BKN014 OVC022 07/07 A2963 RMK AO2 P0006 T00670067=
201611250153 METAR KCLM 250153Z AUTO 17004KT 5SM RA BR SCT010 BKN016 OVC023 07/07 A2964 RMK AO2 SLP037 P0009 T00670067=
201611250125 SPECI KCLM 250125Z AUTO 00000KT 3SM -RA BR BKN013 OVC020 07/07 A2966 RMK AO2 P0004 T00670067=
201611250112 SPECI KCLM 250112Z AUTO 00000KT 6SM -RA BR SCT014 BKN021 OVC035 07/07 A2967 RMK AO2 P0003 T00670067=
201611250053 METAR KCLM 250053Z AUTO 00000KT 5SM RA BR FEW030 OVC035 07/07 A2968 RMK AO2 SLP053 P0009 T00670067=
201611242353 METAR KCLM 242353Z AUTO 00000KT 5SM -RA BR BKN030 OVC041 07/07 A2972 RMK AO2 SLP065 P0003 60015 T00670067 10078 20067 58002=
201611242253 METAR KCLM 242253Z AUTO 00000KT 6SM -RA BR BKN046 OVC060 07/07 A2973 RMK AO2 SLP068 P0003 T00720072=
201611242209 SPECI KCLM 242209Z AUTO 21003KT 6SM -RA BR FEW009 FEW015 OVC043 07/07 A2973 RMK AO2 P0001 T00720072=
201611242153 METAR KCLM 242153Z AUTO 25003KT 8SM -RA FEW013 OVC044 07/07 A2974 RMK AO2 RAB08 SLP071 P0002 T00720067=
201611242108 SPECI KCLM 242108Z AUTO 27007KT 10SM -RA SCT012 BKN049 BKN065 07/06 A2972 RMK AO2 RAB08 P0000 T00720056=
201611242053 METAR KCLM 242053Z AUTO 33003KT 10SM BKN012 08/07 A2972 RMK AO2 RAE25 SLP066 P0000 60007 T00780067 53001=
201611242041 SPECI KCLM 242041Z AUTO 00000KT 10SM BKN012 08/06 A2972 RMK AO2 RAE25 P0000 T00780061=
201611241953 METAR KCLM 241953Z AUTO 25004KT 6SM -RA BR BKN045 BKN060 OVC070 07/06 A2970 RMK AO2 RAB09 SLP060 P0005 T00670056=
201611241853 METAR KCLM 241853Z AUTO 22004KT 10SM BKN060 OVC070 07/06 A2971 RMK AO2 RAE45 SLP063 P0002 T00720056=
201611241753 METAR KCLM 241753Z AUTO VRB03KT 10SM -RA FEW045 OVC065 07/06 A2972 RMK AO2 RAB02 SLP066 P0002 60005 T00670061 10072 20061 56006=
201611241653 METAR KCLM 241653Z AUTO 18003KT 10SM OVC070 07/06 A2974 RMK AO2 SLP071 T00670056=
201611241553 METAR KCLM 241553Z AUTO 27005KT 10SM SCT055 BKN070 BKN090 07/04 A2972 RMK AO2 SLP067 T00670039=
201611241453 METAR KCLM 241453Z AUTO 26009KT 10SM BKN060 OVC075 07/04 A2974 RMK AO2 RAE01 SLP073 P0000 60003 T00670044 55008=
201611241353 METAR KCLM 241353Z AUTO 26005KT 10SM -RA BKN060 OVC080 07/05 A2974 RMK AO2 RAE26B45 SLP072 P0002 T00720050=
201611241253 METAR KCLM 241253Z AUTO 22007KT 10SM -RA OVC055 07/06 A2975 RMK AO2 SLP077 P0001 T00670056=
201611241153 METAR KCLM 241153Z AUTO 27008KT 10SM -RA OVC060 06/06 A2977 RMK AO2 RAE03B38 SLP081 P0000 60022 70022 T00610056 10083 20056 58007=
201611241053 METAR KCLM 241053Z AUTO 02005KT 10SM -RA OVC050 07/06 A2977 RMK AO2 SLP084 P0003 T00670061=
201611240953 METAR KCLM 240953Z AUTO VRB04KT 8SM -RA OVC043 07/06 A2978 RMK AO2 SLP086 P0009 T00720061=
201611240853 METAR KCLM 240853Z AUTO VRB04KT 4SM RA OVC041 08/05 A2979 RMK AO2 SLP088 P0010 60010 T00830050 58022=
201611240753 METAR KCLM 240753Z AUTO 00000KT 10SM -RA OVC050 07/05 A2982 RMK AO2 SLP097 P0000 T00670050 401060028=
201611240653 METAR KCLM 240653Z AUTO 00000KT 10SM -RA OVC060 06/05 A2984 RMK AO2 RAB04E13B43 SLP107 P0000 T00610050=
201611240553 METAR KCLM 240553Z AUTO 00000KT 10SM OVC060 07/04 A2985 RMK AO2 SLP110 T00720044 10078 20044 58024=
201611240453 METAR KCLM 240453Z AUTO VRB05KT 10SM FEW060 04/04 A2988 RMK AO2 SLP119 T00440039=
201611240353 METAR KCLM 240353Z AUTO 00000KT 10SM BKN060 05/04 A2991 RMK AO2 SLP129 T00500044=
201611240253 METAR KCLM 240253Z AUTO 22005KT 10SM FEW060 06/05 A2992 RMK AO2 SLP134 T00560050 58010=
201611240153 METAR KCLM 240153Z AUTO 00000KT 10SM BKN060 06/06 A2995 RMK AO2 SLP142 T00610056=
201611240053 METAR KCLM 240053Z AUTO 19003KT 10SM CLR 06/06 A2996 RMK AO2 SLP147 T00610056=
201611232353 METAR KCLM 232353Z AUTO 00000KT 10SM FEW070 08/06 A2995 RMK AO2 RAE03 SLP144 P0000 60000 T00780061 10106 20078 53005=
201611232253 METAR KCLM 232253Z AUTO 24004KT 10SM -RA BKN047 OVC065 08/06 A2995 RMK AO2 RAB28 SLP143 P0000 T00830056=
201611232153 METAR KCLM 232153Z AUTO 18004KT 10SM SCT042 BKN070 09/05 A2994 RMK AO2 RAB39E53 SLP139 P0000 T00940050=
201611232053 METAR KCLM 232053Z AUTO 00000KT 10SM SCT020 SCT055 BKN100 10/06 A2993 RMK AO2 SLP138 T01000061 51006=
201611231953 METAR KCLM 231953Z AUTO VRB03KT 10SM SCT110 09/06 A2993 RMK AO2 SLP136 T00940061=
201611231853 METAR KCLM 231853Z AUTO 27006KT 10SM SCT060 BKN075 OVC095 09/04 A2993 RMK AO2 SLP137 T00890044=
201611231753 METAR KCLM 231753Z AUTO 00000KT 10SM FEW070 BKN100 10/05 A2992 RMK AO2 SLP132 T01000050 10100 20028 51016=
201611231653 METAR KCLM 231653Z AUTO 21004KT 10SM SCT075 BKN120 05/05 A2990 RMK AO2 SLP126 T00500050=
201611231553 METAR KCLM 231553Z AUTO 25004KT 10SM OVC080 04/04 A2989 RMK AO2 SLP124 T00440039=
201611231453 METAR KCLM 231453Z AUTO 22003KT 10SM FEW065 SCT080 04/04 A2987 RMK AO2 SLP116 T00390039 53012=
201611231353 METAR KCLM 231353Z AUTO 15003KT 10SM BKN080 OVC095 04/04 A2985 RMK AO2 SLP111 T00390039=
201611231253 METAR KCLM 231253Z AUTO 00000KT 10SM FEW075 BKN110 04/04 A2985 RMK AO2 SLP109 T00390039=
201611231153 METAR KCLM 231153Z AUTO 00000KT 5SM BR FEW036 04/04 A2983 RMK AO2 SLP105 60002 70043 T00390039 10072 20033 50008=
201611231136 SPECI KCLM 231136Z AUTO 00000KT 9SM FEW036 04/04 A2984 RMK AO2 T00440044=
201611231128 SPECI KCLM 231128Z AUTO 00000KT 2SM BR CLR 03/03 A2984 RMK AO2 T00330033=
201611231053 METAR KCLM 231053Z AUTO 00000KT 10SM FEW027 BKN075 BKN100 06/05 A2984 RMK AO2 RAB00E39 SLP106 P0000 T00560050=
201611230953 METAR KCLM 230953Z AUTO 23004KT 10SM BKN080 BKN095 06/06 A2983 RMK AO2 RAB15E24 SLP103 P0000 T00610056=
201611230853 METAR KCLM 230853Z AUTO 18003KT 10SM SCT032 BKN060 OVC090 06/06 A2981 RMK AO2 SLP096 60002 T00610061 51010=
201611230753 METAR KCLM 230753Z AUTO 13006KT 10SM SCT060 BKN075 OVC110 06/06 A2980 RMK AO2 RAB00E34 SLP094 P0002 T00610056 400890022=
201611230653 METAR KCLM 230653Z AUTO 19003KT 10SM BKN055 OVC075 06/06 A2980 RMK AO2 SLP094 T00610056=
201611230553 METAR KCLM 230553Z AUTO 25006KT 10SM OVC100 07/06 A2978 RMK AO2 RAE0458 SLP086 P0000 60013 T00720056 10083 20067 53011=
201611230453 METAR KCLM 230453Z AUTO 28007KT 9SM -RA FEW026 BKN047 OVC070 07/06 A2976 RMK AO2 SLP080 P0009 T00720061=
201611230446 SPECI KCLM 230446Z AUTO 26006KT 6SM -RA BR FEW010 SCT029 OVC044 07/07 A2977 RMK AO2 P0009 T00720067=
201611230434 SPECI KCLM 230434Z AUTO 24007KT 5SM -RA BR SCT010 BKN022 OVC038 07/07 A2977 RMK AO2 P0007 T00720072=
201611230353 METAR KCLM 230353Z AUTO 00000KT 6SM -RA BR BKN011 OVC018 07/07 A2976 RMK AO2 RAB26 CIG 008V013 SLP079 P0004 T00720072=
201611230343 SPECI KCLM 230343Z AUTO 20003KT 7SM -RA BKN011 BKN018 OVC023 07/07 A2976 RMK AO2 RAB26 CIG 009V014 P0004 T00720072=
201611230324 SPECI KCLM 230324Z AUTO 22003KT 10SM FEW011 BKN021 OVC060 07/07 A2975 RMK AO2 T00720072=
201611230253 METAR KCLM 230253Z AUTO 20003KT 10SM FEW013 OVC060 07/07 A2975 RMK AO2 SLP075 T00720072 56001=
201611230153 METAR KCLM 230153Z AUTO 00000KT 10SM SCT007 OVC070 08/07 A2975 RMK AO2 SLP075 T00780072=
201611230053 METAR KCLM 230053Z AUTO 30007KT 10SM BKN007 BKN120 08/07 A2974 RMK AO2 SLP071 T00780072=
201611222353 METAR KCLM 222353Z AUTO 31006KT 10SM BKN100 08/07 A2975 RMK AO2 SLP075 60015 T00830072 10089 20078 56024=
201611222253 METAR KCLM 222253Z AUTO 34004KT 10SM OVC085 08/08 A2976 RMK AO2 SLP080 T00830083=
201611222153 METAR KCLM 222153Z AUTO 20005KT 10SM SCT060 OVC080 08/08 A2979 RMK AO2 RAE52 SLP089 P0001 T00830078=
201611222053 METAR KCLM 222053Z AUTO 14006KT 5SM -RA BR FEW031 OVC050 08/08 A2982 RMK AO2 SLP100 P0004 60014 T00830078 58013=
201611222012 SPECI KCLM 222012Z AUTO 18004KT 8SM -RA SCT015 BKN050 OVC070 08/08 A2983 RMK AO2 P0002 T00830078=
201611221953 METAR KCLM 221953Z AUTO 18003KT 8SM -RA OVC016 08/08 A2985 RMK AO2 SLP108 P0007 T00830078=
201611221919 SPECI KCLM 221919Z AUTO 24003KT 4SM -RA BR BKN022 BKN042 OVC048 08/08 A2986 RMK AO2 P0005 T00830083=
201611221853 METAR KCLM 221853Z AUTO 29004KT 4SM -RA BR OVC050 08/08 A2987 RMK AO2 SLP117 P0003 T00830083=
201611221753 METAR KCLM 221753Z AUTO 28006KT 6SM -RA BR SCT008 SCT012 OVC050 08/08 A2986 RMK AO2 SLP114 P0004 60013 T00780078 10078 20050 53003=
201611221707 SPECI KCLM 221707Z AUTO 00000KT 4SM -RA BR OVC050 07/07 A2985 RMK AO2 P0002 T00670067=
201611221653 METAR KCLM 221653Z AUTO 00000KT 2SM -RA BR OVC050 07/07 A2985 RMK AO2 SLP110 P0003 T00670067=
201611221553 METAR KCLM 221553Z AUTO 00000KT 7SM -RA OVC055 06/06 A2984 RMK AO2 SLP106 P0004 T00610061=
201611221453 METAR KCLM 221453Z AUTO 00000KT 10SM -RA OVC055 06/06 A2985 RMK AO2 SLP111 P0002 60002 T00610061 56006=
201611221353 METAR KCLM 221353Z AUTO 23003KT 10SM -RA BKN060 OVC070 06/05 A2986 RMK AO2 RAB49 SLP112 P0000 T00610050=
201611221253 METAR KCLM 221253Z AUTO 00000KT 10SM OVC070 06/04 A2985 RMK AO2 SLP110 T00560044=
201611221153 METAR KCLM 221153Z AUTO 00000KT 10SM CLR 05/04 A2987 RMK AO2 SLP117 T00500039 10050 20017 58031=
201611221053 METAR KCLM 221053Z AUTO 00000KT 10SM SCT095 03/03 A2992 RMK AO2 SLP132 T00280028=
201611220953 METAR KCLM 220953Z AUTO 00000KT 10SM CLR 02/02 A2994 RMK AO2 SLP141 T00220022=
201611220853 METAR KCLM 220853Z AUTO 00000KT 9SM BKN110 02/02 A2996 RMK AO2 SLP148 T00220022 58009=
201611220753 METAR KCLM 220753Z AUTO 17004KT 10SM FEW022 SCT100 03/02 A2999 RMK AO2 SLP157 T00280022 401060017=
201611220653 METAR KCLM 220653Z AUTO 19003KT 10SM CLR 03/03 A2999 RMK AO2 SLP157 T00280028=
201611220553 METAR KCLM 220553Z AUTO 19003KT 10SM CLR 03/02 A2999 RMK AO2 SLP157 T00280022 10094 20017 50000=
201611220453 METAR KCLM 220453Z AUTO 24005KT 7SM CLR 04/03 A3000 RMK AO2 SLP159 T00390033=
201611220353 METAR KCLM 220353Z AUTO 23006KT 5SM BR BKN030 06/04 A3000 RMK AO2 SLP162 T00560044=
201611220253 METAR KCLM 220253Z AUTO 22005KT 10SM CLR 05/04 A2999 RMK AO2 SLP157 T00500044 50000=
201611220153 METAR KCLM 220153Z AUTO 00000KT 10SM BKN034 07/05 A2999 RMK AO2 SLP159 T00670050=
201611220101 SPECI KCLM 220101Z AUTO 21003KT 10SM OVC030 07/05 A2999 RMK AO2 T00720050=
201611220053 METAR KCLM 220053Z AUTO 21003KT 10SM BKN029 08/05 A2999 RMK AO2 SLP159 T00780050=
201611212353 METAR KCLM 212353Z AUTO 00000KT 10SM BKN028 08/05 A2999 RMK AO2 SLP156 T00830050 10106 20083 51008=
201611212351 SPECI KCLM 212351Z AUTO 00000KT 10SM BKN028 09/05 A2999 RMK AO2=
201611212253 METAR KCLM 212253Z AUTO 00000KT 10SM BKN030 OVC041 10/04 A2998 RMK AO2 SLP153 T01000044=
201611212241 SPECI KCLM 212241Z AUTO VRB03KT 10SM BKN030 OVC039 10/04 A2998 RMK AO2 T01000044=
201611212153 METAR KCLM 212153Z AUTO 34004KT 10SM BKN028 OVC033 10/05 A2997 RMK AO2 SLP148 T01000050=
201611212150 SPECI KCLM 212150Z AUTO 35005KT 10SM BKN028 OVC033 11/06 A2996 RMK AO2=
201611212122 SPECI KCLM 212122Z AUTO 31004KT 10SM BKN030 OVC037 10/05 A2996 RMK AO2 T01000050=
201611212053 METAR KCLM 212053Z AUTO 32004KT 10SM BKN026 10/06 A2996 RMK AO2 SLP145 T01000056 51003=
201611212049 SPECI KCLM 212049Z AUTO 30008KT 10SM BKN026 10/06 A2996 RMK AO2=
201611211953 METAR KCLM 211953Z AUTO 30009KT 10SM CLR 10/05 A2995 RMK AO2 SLP143 T01000050=
201611211853 METAR KCLM 211853Z AUTO 27004KT 10SM CLR 10/06 A2995 RMK AO2 SLP142 T01000061=
201611211753 METAR KCLM 211753Z AUTO 24006KT 10SM BKN055 09/06 A2993 RMK AO2 SLP137 T00940056 10094 20061 51014=
201611211653 METAR KCLM 211653Z AUTO 25007KT 10SM BKN032 BKN042 BKN055 08/06 A2992 RMK AO2 SLP133 T00780056=
201611211618 SPECI KCLM 211618Z AUTO 25008KT 10SM OVC030 08/06 A2991 RMK AO2 T00780056=
201611211553 METAR KCLM 211553Z AUTO 25007KT 10SM OVC026 08/06 A2991 RMK AO2 SLP128 T00780056=
201611211505 SPECI KCLM 211505Z AUTO 26004KT 10SM BKN029 OVC037 08/06 A2989 RMK AO2 T00780056=
201611211453 METAR KCLM 211453Z AUTO 23005KT 10SM SCT029 OVC035 08/06 A2989 RMK AO2 SLP123 T00780056 53014=
201611211353 METAR KCLM 211353Z AUTO 24006KT 10SM FEW040 BKN048 OVC080 07/06 A2987 RMK AO2 SLP116 T00720056=
201611211253 METAR KCLM 211253Z AUTO 22003KT 10SM OVC055 08/06 A2987 RMK AO2 SLP115 T00780056=
201611211153 METAR KCLM 211153Z AUTO 19005KT 10SM BKN060 08/06 A2985 RMK AO2 SLP109 70004 T00780056 10094 20067 51012=
201611211053 METAR KCLM 211053Z AUTO 23006KT 10SM BKN060 08/06 A2984 RMK AO2 SLP106 T00780056=
201611210953 METAR KCLM 210953Z AUTO 26006KT 10SM OVC055 08/06 A2983 RMK AO2 SLP101 T00830056=
201611210853 METAR KCLM 210853Z AUTO 25008KT 10SM BKN050 OVC060 08/06 A2981 RMK AO2 SLP097 T00780056 52017=
201611210753 METAR KCLM 210753Z AUTO 28012KT 10SM FEW070 08/06 A2980 RMK AO2 SLP093 T00830056 401330078=
201611210653 METAR KCLM 210653Z AUTO 24013KT 10SM SCT055 SCT120 09/06 A2978 RMK AO2 SLP084 T00890056=
201611210553 METAR KCLM 210553Z AUTO 24009KT 10SM BKN055 BKN065 OVC095 09/06 A2977 RMK AO2 RAB08E47 SLP080 P0002 60002 T00890061 10106 20078 51022=
201611210453 METAR KCLM 210453Z AUTO 25008KT 10SM BKN060 OVC085 08/06 A2975 RMK AO2 RAB09E25 SLP074 P0000 T00830061=
201611210353 METAR KCLM 210353Z AUTO 23007KT 10SM BKN060 09/06 A2972 RMK AO2 SLP066 T00940056=
201611210253 METAR KCLM 210253Z AUTO 24003KT 10SM FEW100 09/07 A2970 RMK AO2 SLP058 60000 T00940067 53013=
201611210153 METAR KCLM 210153Z AUTO 25005KT 10SM SCT065 09/06 A2969 RMK AO2 SLP054 T00940061=
201611210053 METAR KCLM 210053Z AUTO 23006KT 10SM CLR 10/07 A2967 RMK AO2 RAE33 SLP048 P0000 T01000072=
201611202353 METAR KCLM 202353Z AUTO 26010G17KT 10SM -RA FEW040 SCT065 BKN095 11/08 A2966 RMK AO2 RAE03B31 SLP045 P0000 60002 T01060078 10133 20100 53012=
201611202253 METAR KCLM 202253Z AUTO 12006KT 10SM -RA SCT040 BKN060 OVC070 12/09 A2962 RMK AO2 RAB08 PRESFR SLP031 P0002 T01170094=
201611202153 METAR KCLM 202153Z AUTO 32005KT 10SM SCT100 12/08 A2963 RMK AO2 SLP033 T01170083=
201611202053 METAR KCLM 202053Z AUTO 00000KT 10SM FEW047 BKN070 12/09 A2963 RMK AO2 RAB40E49 SLP032 P0000 60000 T01220089 52004=
201611201953 METAR KCLM 201953Z AUTO 32004KT 10SM FEW046 SCT070 13/08 A2961 RMK AO2 SLP029 T01330078=
201611201853 METAR KCLM 201853Z AUTO 00000KT 10SM SCT065 11/08 A2962 RMK AO2 SLP032 T01060078=
201611201753 METAR KCLM 201753Z AUTO VRB03KT 10SM BKN065 BKN075 10/08 A2961 RMK AO2 SLP029 60000 T01000078 10106 20078 50006=
201611201653 METAR KCLM 201653Z AUTO 00000KT 10SM OVC060 10/07 A2962 RMK AO2 SLP030 T01000072=
201611201553 METAR KCLM 201553Z AUTO 00000KT 10SM BKN060 OVC075 09/07 A2960 RMK AO2 RAB08E17 SLP023 P0000 T00940067=
201611201453 METAR KCLM 201453Z AUTO 22005KT 10SM OVC060 08/07 A2960 RMK AO2 SLP022 T00830072 51014=
201611201353 METAR KCLM 201353Z AUTO 25005KT 10SM OVC060 09/08 A2959 RMK AO2 SLP020 T00890078=
201611201253 METAR KCLM 201253Z AUTO 33004KT 10SM OVC060 08/07 A2957 RMK AO2 SLP014 T00830072=
201611201153 METAR KCLM 201153Z AUTO 00000KT 10SM OVC060 08/08 A2955 RMK AO2 SLP008 60000 70004 T00830078 10094 20078 58010=
201611201053 METAR KCLM 201053Z AUTO 10SM OVC060 09/08 A2958 RMK AO2 SLP018 T00890078=
201611200953 METAR KCLM 200953Z AUTO 22005KT 10SM OVC055 08/08 A2957 RMK AO2 SLP015 T00830078=
201611200853 METAR KCLM 200853Z AUTO 26005KT 10SM OVC060 08/08 A2958 RMK AO2 SLP018 60000 T00780078 55002=
201611200753 METAR KCLM 200753Z AUTO 30003KT 10SM OVC060 08/08 A2958 RMK AO2 RAB0658E35 SLP018 P0000 T00830078 401110044=
201611200653 METAR KCLM 200653Z AUTO VRB03KT 10SM OVC065 08/08 A2958 RMK AO2 SLP019 T00830078=
201611200553 METAR KCLM 200553Z AUTO 14007KT 10SM BKN060 OVC090 08/08 A2959 RMK AO2 RAB0456E34 SLP021 P0002 60004 T00830083 10100 20078 50000=
201611200453 METAR KCLM 200453Z AUTO 25004KT 10SM OVC060 08/08 A2960 RMK AO2 RAE39 SLP025 P0000 T00830078=
201611200353 METAR KCLM 200353Z AUTO 33003KT 10SM -RA OVC060 08/08 A2958 RMK AO2 RAB49 SLP020 P0000 T00830078=
201611200253 METAR KCLM 200253Z AUTO 00000KT 9SM OVC065 08/08 A2959 RMK AO2 RAE39 SLP021 P0002 60002 T00780078 58015=
201611200153 METAR KCLM 200153Z AUTO 13003KT 10SM -RA OVC065 08/08 A2961 RMK AO2 RAB12E24B49 SLP029 P0000 T00830078=
201611200053 METAR KCLM 200053Z AUTO 14003KT 10SM BKN060 BKN080 OVC100 08/08 A2962 RMK AO2 RAB08E48 SLP031 P0000 T00830078=
201611192353 METAR KCLM 192353Z AUTO 18003KT 10SM BKN070 BKN080 09/07 A2963 RMK AO2 SLP035 T00940072 10111 20067 55002=
201611192253 METAR KCLM 192253Z AUTO 00000KT 10SM FEW055 BKN080 11/07 A2962 RMK AO2 SLP032 T01060072=
201611192153 METAR KCLM 192153Z AUTO 00000KT 10SM BKN070 OVC080 11/07 A2964 RMK AO2 SLP037 T01060072=
201611192053 METAR KCLM 192053Z AUTO 00000KT 10SM SCT070 11/07 A2964 RMK AO2 SLP038 T01060067 58001=
201611191953 METAR KCLM 191953Z AUTO 27006KT 10SM FEW110 10/06 A2964 RMK AO2 SLP038 T01000061=
201611191853 METAR KCLM 191853Z AUTO 00000KT 10SM FEW070 SCT090 09/06 A2965 RMK AO2 SLP043 T00940061=
201611191753 METAR KCLM 191753Z AUTO 00000KT 10SM CLR 07/05 A2964 RMK AO2 SLP040 T00720050 10094 20044 53009=
201611191653 METAR KCLM 191653Z AUTO VRB06KT 10SM CLR 05/04 A2964 RMK AO2 SLP037 T00500039=
201611191553 METAR KCLM 191553Z AUTO 00000KT 10SM CLR 06/03 A2962 RMK AO2 SLP033 T00560033=
201611191453 METAR KCLM 191453Z AUTO 00000KT 10SM BKN065 BKN080 07/03 A2962 RMK AO2 SLP030 T00720033 53007=
201611191353 METAR KCLM 191353Z AUTO 24005KT 10SM OVC065 06/03 A2960 RMK AO2 SLP025 T00610033=
201611191253 METAR KCLM 191253Z AUTO 16004KT 10SM OVC065 07/03 A2961 RMK AO2 SLP027 T00670028=
201611191153 METAR KCLM 191153Z AUTO VRB03KT 10SM BKN070 OVC085 08/03 A2959 RMK AO2 SLP023 T00780028 10089 20056 58006=
201611191053 METAR KCLM 191053Z AUTO 03003KT 10SM OVC070 07/03 A2961 RMK AO2 SLP029 T00670033=
201611190953 METAR KCLM 190953Z AUTO 00000KT 10SM BKN070 OVC085 09/02 A2961 RMK AO2 SLP029 T00890022=
201611190853 METAR KCLM 190853Z AUTO 10SM FEW075 OVC100 06/04 A2961 RMK AO2 SLP029 T00610039 58021=
201611190753 METAR KCLM 190753Z AUTO 22005KT 10SM BKN075 OVC095 06/03 A2964 RMK AO2 SLP037 T00610033 400891006=
201611190653 METAR KCLM 190653Z AUTO 22003KT 10SM BKN100 BKN110 06/03 A2966 RMK AO2 SLP044 T00610033=
201611190553 METAR KCLM 190553Z AUTO 24008KT 10SM BKN110 06/03 A2967 RMK AO2 SLP050 T00610033 10089 20039 56022=
201611190453 METAR KCLM 190453Z AUTO 26004KT 10SM CLR 06/03 A2969 RMK AO2 SLP056 T00560033=
201611190353 METAR KCLM 190353Z AUTO 09009KT 10SM BKN120 09/03 A2972 RMK AO2 SLP064 T00890028=
201611190253 METAR KCLM 190253Z AUTO 00000KT 10SM FEW120 04/03 A2974 RMK AO2 SLP073 T00440033 56016=
201611190153 METAR KCLM 190153Z AUTO 00000KT 10SM CLR 04/03 A2975 RMK AO2 SLP077 T00390033=
201611190053 METAR KCLM 190053Z AUTO 24007KT 10SM CLR 06/03 A2977 RMK AO2 SLP084 T00560028=
201611182353 METAR KCLM 182353Z AUTO 23004KT 10SM FEW095 07/04 A2979 RMK AO2 SLP090 T00670044 10072 20044 58036=
201611182253 METAR KCLM 182253Z AUTO 00000KT 10SM SCT110 07/04 A2985 RMK AO2 SLP108 T00670044=
201611182153 METAR KCLM 182153Z AUTO 26005KT 10SM BKN120 07/04 A2986 RMK AO2 SLP114 T00670044=
201611182053 METAR KCLM 182053Z AUTO 10SM BKN110 06/05 A2989 RMK AO2 SLP124 T00610050 58025=
201611181953 METAR KCLM 181953Z AUTO 20003KT 10SM FEW090 OVC110 06/04 A2993 RMK AO2 SLP137 T00560044=
201611181853 METAR KCLM 181853Z AUTO 24004KT 10SM OVC100 05/03 A2997 RMK AO2 SLP150 T00500033=
201611181753 METAR KCLM 181753Z AUTO 00000KT 10SM OVC100 05/04 A2997 RMK AO2 SLP150 T00500044 10050 20000 58023=
201611181653 METAR KCLM 181653Z AUTO 23003KT 10SM CLR 03/03 A3000 RMK AO2 SLP161 T00280028=
201611181553 METAR KCLM 181553Z AUTO 22004KT 10SM CLR 02/02 A3002 RMK AO2 SLP168 T00220022=
201611181453 METAR KCLM 181453Z AUTO 22005KT 10SM CLR 02/02 A3004 RMK AO2 SLP174 T00220022 58019=
201611181353 METAR KCLM 181353Z AUTO 00000KT 10SM CLR 01/01 A3006 RMK AO2 SLP181 T00060006=
201611181253 METAR KCLM 181253Z AUTO 23004KT 10SM CLR 01/01 A3007 RMK AO2 SLP186 T00110011=
201611181153 METAR KCLM 181153Z AUTO 00000KT 9SM CLR 00/00 A3009 RMK AO2 SLP192 T00000000 10033 21006 58021=
201611181053 METAR KCLM 181053Z AUTO 00000KT 10SM FEW010 01/01 A3012 RMK AO2 SLP201 T00060006=
201611180953 METAR KCLM 180953Z AUTO 22004KT 10SM CLR 01/01 A3014 RMK AO2 SLP207 T00110011=
201611180853 METAR KCLM 180853Z AUTO 23007KT 10SM CLR 02/01 A3015 RMK AO2 SLP213 T00170011 58004=
201611180753 METAR KCLM 180753Z AUTO 24004KT 10SM CLR 02/02 A3017 RMK AO2 SLP217 T00170017 400940000=
201611180653 METAR KCLM 180653Z AUTO 00000KT 10SM CLR 02/01 A3016 RMK AO2 SLP216 T00170011=
201611180553 METAR KCLM 180553Z AUTO 24006KT 10SM CLR 03/02 A3017 RMK AO2 SLP217 T00280022 10072 20028 55000=
201611180453 METAR KCLM 180453Z AUTO 23006KT 10SM CLR 04/03 A3017 RMK AO2 SLP218 T00390028=
201611180353 METAR KCLM 180353Z AUTO 24004KT 10SM CLR 04/03 A3016 RMK AO2 SLP217 T00390028=
201611180253 METAR KCLM 180253Z AUTO 24004KT 10SM CLR 04/04 A3017 RMK AO2 SLP218 T00390039 53003=
201611180153 METAR KCLM 180153Z AUTO 00000KT 4SM BR CLR 04/04 A3017 RMK AO2 SLP218 T00390039=
201611180053 METAR KCLM 180053Z AUTO 00000KT 10SM CLR 04/04 A3016 RMK AO2 SLP215 T00440044=
201611172353 METAR KCLM 172353Z AUTO 00000KT 10SM CLR 07/06 A3016 RMK AO2 SLP215 T00720056 10094 20072 53004=
201611172253 METAR KCLM 172253Z AUTO 00000KT 10SM CLR 09/06 A3015 RMK AO2 SLP211 T00890056=
201611172153 METAR KCLM 172153Z AUTO VRB03KT 10SM CLR 09/06 A3015 RMK AO2 SLP211 T00890061=
201611172053 METAR KCLM 172053Z AUTO VRB04KT 10SM CLR 09/06 A3015 RMK AO2 SLP210 T00940056 51005=
201611171953 METAR KCLM 171953Z AUTO 03004KT 10SM CLR 09/06 A3014 RMK AO2 SLP209 T00890056=
201611171853 METAR KCLM 171853Z AUTO 14003KT 10SM CLR 09/05 A3015 RMK AO2 SLP211 T00890050=
201611171753 METAR KCLM 171753Z AUTO 00000KT 10SM SCT060 07/05 A3013 RMK AO2 SLP205 60000 T00720050 10072 20011 51012=
201611171653 METAR KCLM 171653Z AUTO 00000KT 10SM CLR 04/03 A3012 RMK AO2 SLP202 T00390033=
201611171553 METAR KCLM 171553Z AUTO 00000KT 10SM CLR 02/02 A3011 RMK AO2 RAB06E20 SLP198 P0000 T00220022=
201611171453 METAR KCLM 171453Z AUTO 23004KT 10SM CLR 02/02 A3010 RMK AO2 RAB35E52 SLP193 P0000 60000 T00170017 53002=
201611171353 METAR KCLM 171353Z AUTO 00000KT 10SM CLR 02/02 A3009 RMK AO2 RAE01B22E31 SLP190 P0000 T00220022=
201611171253 METAR KCLM 171253Z AUTO 00000KT 10SM -RA BKN055 02/02 A3008 RMK AO2 RAB45 SLP189 P0000 T00220022=
201611171153 METAR KCLM 171153Z AUTO 23004KT 10SM OVC055 04/04 A3009 RMK AO2 RAB40E49 SLP191 P0000 60002 70004 T00440039 10067 20022 51007=
201611171053 METAR KCLM 171053Z AUTO 24006KT 10SM OVC060 04/04 A3009 RMK AO2 RAE0959 SLP191 P0000 T00440039=
201611170953 METAR KCLM 170953Z AUTO 00000KT 7SM -RA BKN070 02/02 A3007 RMK AO2 RAB05 SLP185 P0000 T00220022=
201611170853 METAR KCLM 170853Z AUTO 00000KT 10SM FEW060 04/04 A3007 RMK AO2 RAB33E39 SLP184 P0000 60002 T00390039 53001=
201611170753 METAR KCLM 170753Z AUTO 30004KT 10SM CLR 04/04 A3007 RMK AO2 RAB24E38 SLP184 P0000 T00440044 401060022=
201611170653 METAR KCLM 170653Z AUTO 19004KT 10SM FEW038 BKN090 BKN110 06/05 A3006 RMK AO2 RAE45 SLP181 P0002 T00610050=
201611170553 METAR KCLM 170553Z AUTO 26004KT 10SM -RA SCT050 OVC075 06/06 A3007 RMK AO2 RAB0455 SLP183 P0002 60002 T00610056 10094 20061 51004=
201611170453 METAR KCLM 170453Z AUTO 25004KT 10SM SCT060 BKN075 OVC095 06/06 A3006 RMK AO2 RAB0359E40 SLP183 P0000 T00610056=
201611170435 SPECI KCLM 170435Z AUTO 25006KT 10SM -RA SCT022 BKN055 OVC100 07/06 A3007 RMK AO2 RAB0359 P0000 T00670056=
201611170401 SPECI KCLM 170401Z AUTO 28008KT 10SM -RA SCT015 BKN024 OVC055 07/06 A3007 RMK AO2 RAB0359 P0000 T00670056=
201611170353 METAR KCLM 170353Z AUTO 27008KT 10SM BKN013 OVC024 07/06 A3007 RMK AO2 RAE12B37E51 SLP184 P0000 T00670056=
201611170334 SPECI KCLM 170334Z AUTO 27007KT 10SM BKN013 OVC060 07/06 A3007 RMK AO2 RAE12 P0000 T00720061=
201611170253 METAR KCLM 170253Z AUTO 25006KT 10SM -RA SCT043 OVC055 07/06 A3005 RMK AO2 SLP179 P0000 60000 T00670056 53009=
201611170153 METAR KCLM 170153Z AUTO 23004KT 10SM -RA SCT044 BKN055 OVC075 07/06 A3004 RMK AO2 RAB43 SLP175 P0000 T00720061=
201611170053 METAR KCLM 170053Z AUTO 25003KT 10SM CLR 07/06 A3003 RMK AO2 RAE25 SLP172 P0000 T00670061=
201611162353 METAR KCLM 162353Z AUTO 00000KT 10SM -RA OVC055 09/06 A3003 RMK AO2 RAB48 SLP170 P0000 60000 T00890061 10106 20072 53007=
201611162253 METAR KCLM 162253Z AUTO 00000KT 10SM BKN065 09/05 A3002 RMK AO2 SLP167 T00940050=
201611162153 METAR KCLM 162153Z AUTO 13005KT 10SM FEW065 09/06 A3001 RMK AO2 SLP163 T00890056=
201611162053 METAR KCLM 162053Z AUTO 08005KT 10SM CLR 09/05 A3001 RMK AO2 SLP162 T00940050 51004=
201611161953 METAR KCLM 161953Z AUTO 00000KT 10SM CLR 10/04 A3000 RMK AO2 SLP160 T01000039=
201611161853 METAR KCLM 161853Z AUTO 24003KT 10SM CLR 09/04 A3001 RMK AO2 SLP163 T00890039=
201611161753 METAR KCLM 161753Z AUTO 24005KT 10SM SCT041 07/04 A2999 RMK AO2 SLP158 60000 T00720039 10072 20022 51006=
201611161653 METAR KCLM 161653Z AUTO 24003KT 10SM BKN044 06/04 A2999 RMK AO2 RAE02 SLP157 P0000 T00560039=
201611161553 METAR KCLM 161553Z AUTO 22006KT 10SM -RA OVC042 06/03 A2999 RMK AO2 RAB1455E07B47 SLP157 P0000 T00610033=
201611161453 METAR KCLM 161453Z AUTO 23006KT 10SM BKN055 OVC075 06/03 A2998 RMK AO2 SLP153 T00560028 53008=
201611161353 METAR KCLM 161353Z AUTO 22005KT 10SM OVC055 06/03 A2996 RMK AO2 SLP148 T00560028=
201611161253 METAR KCLM 161253Z AUTO 25010KT 10SM FEW065 OVC085 05/03 A2996 RMK AO2 SLP148 T00500028=
201611161153 METAR KCLM 161153Z AUTO 00000KT 10SM CLR 02/02 A2995 RMK AO2 SLP144 70020 T00220017 10067 20022 52007=
201611161053 METAR KCLM 161053Z AUTO 00000KT 10SM CLR 06/02 A2995 RMK AO2 SLP142 T00610022=
201611160953 METAR KCLM 160953Z AUTO 23007KT 10SM CLR 05/03 A2994 RMK AO2 SLP140 T00500028=
201611160853 METAR KCLM 160853Z AUTO 24008KT 10SM CLR 06/03 A2993 RMK AO2 SLP137 T00560033 53010=
201611160753 METAR KCLM 160753Z AUTO 24012KT 10SM CLR 06/04 A2992 RMK AO2 SLP132 T00610039 401170061=
201611160653 METAR KCLM 160653Z AUTO 26011KT 10SM CLR 07/04 A2991 RMK AO2 SLP129 T00670044=
201611160553 METAR KCLM 160553Z AUTO 26006KT 10SM FEW065 FEW085 07/04 A2990 RMK AO2 SLP128 60008 T00670044 10072 20061 51011=
201611160453 METAR KCLM 160453Z AUTO 24008KT 10SM SCT050 OVC075 07/05 A2990 RMK AO2 SLP126 T00670050=
201611160353 METAR KCLM 160353Z AUTO 25008KT 10SM BKN065 OVC085 07/05 A2988 RMK AO2 SLP119 P0002 T00720050=
201611160253 METAR KCLM 160253Z AUTO 25010KT 10SM FEW042 BKN060 OVC070 07/06 A2987 RMK AO2 RAE44 SLP117 P0000 60006 T00720056 53010=
201611160153 METAR KCLM 160153Z AUTO 26006KT 10SM -RA OVC055 07/06 A2986 RMK AO2 SLP112 P0000 T00670061=
201611160053 METAR KCLM 160053Z AUTO 28005KT 8SM -RA OVC044 07/06 A2984 RMK AO2 SLP108 P0006 T00670061=
201611152353 METAR KCLM 152353Z AUTO 29006KT 6SM -RA BR BKN043 OVC050 07/06 A2984 RMK AO2 RAB2259 SLP106 P0008 60008 T00720061 10117 20072 53011=
201611152253 METAR KCLM 152253Z AUTO 28010KT 10SM BKN050 BKN060 OVC075 09/06 A2982 RMK AO2 SLP099 T00940056=
201611152153 METAR KCLM 152153Z AUTO 30009KT 10SM SCT060 11/06 A2981 RMK AO2 SLP096 T01060061=
201611152053 METAR KCLM 152053Z AUTO 29006KT 10SM SCT036 SCT043 BKN055 12/06 A2981 RMK AO2 SLP094 T01170061 51006=
201611151953 METAR KCLM 151953Z AUTO 28009KT 10SM CLR 11/07 A2980 RMK AO2 SLP092 T01060072=
201611151853 METAR KCLM 151853Z AUTO 34004KT 10SM FEW041 SCT055 11/08 A2980 RMK AO2 SLP093 T01110078=
201611151753 METAR KCLM 151753Z AUTO 26006KT 10SM SCT060 SCT070 SCT090 09/08 A2979 RMK AO2 RAB38E49 SLP090 P0000 60004 T00890078 10094 20072 51024=
201611151653 METAR KCLM 151653Z AUTO 00000KT 10SM OVC050 08/08 A2978 RMK AO2 SLP086 T00830078=
201611151553 METAR KCLM 151553Z AUTO 10003KT 10SM FEW021 OVC048 08/07 A2975 RMK AO2 RAB04E46 SLP077 P0000 T00780072=
201611151453 METAR KCLM 151453Z AUTO 26005KT 10SM OVC041 07/07 A2972 RMK AO2 RAB1357E50 SLP065 P0002 60004 T00720067 51003=
201611151426 SPECI KCLM 151426Z AUTO 26004KT 10SM -RA SCT015 OVC045 07/07 A2973 RMK AO2 RAB1357 P0002 T00720067=
201611151404 SPECI KCLM 151404Z AUTO 28003KT 10SM -RA BKN015 OVC047 08/07 A2972 RMK AO2 RAB1357 P0000 T00780072=
201611151353 METAR KCLM 151353Z AUTO 25005KT 10SM SCT017 OVC047 08/07 A2972 RMK AO2 RAE46 SLP063 P0000 T00780067=
201611151351 SPECI KCLM 151351Z AUTO 25003KT 10SM SCT017 OVC047 08/07 A2971 RMK AO2 RAE46 P0000=
201611151253 METAR KCLM 151253Z AUTO 24004KT 10SM -RA FEW010 OVC015 08/08 A2971 RMK AO2 RAE42B49 SLP061 P0002 T00780078=
201611151244 SPECI KCLM 151244Z AUTO 22004KT 10SM SCT010 OVC015 08/08 A2972 RMK AO2 RAE42 P0002 T00780078=
201611151213 SPECI KCLM 151213Z AUTO 28003KT 6SM -RA BR BKN009 OVC013 08/08 A2972 RMK AO2 CIG 008V012 P0002 T00780078=
201611151153 METAR KCLM 151153Z AUTO 24003KT 4SM -RA BR FEW010 OVC014 08/08 A2973 RMK AO2 SLP068 P0009 60019 70019 T00780078 10083 20072 56017=
201611151053 METAR KCLM 151053Z AUTO 21003KT 4SM RA BR OVC012 08/08 A2974 RMK AO2 RAB01 SLP072 P0010 T00780078=
201611150953 METAR KCLM 150953Z AUTO 26006KT 10SM OVC010 08/07 A2975 RMK AO2 CIG 009V014 SLP076 T00780067=
201611150937 SPECI KCLM 150937Z AUTO 27005KT 10SM OVC013 08/06 A2976 RMK AO2 T00780061=
201611150911 SPECI KCLM 150911Z AUTO 23006KT 10SM FEW009 OVC015 08/07 A2977 RMK AO2 T00780067=
201611150853 METAR KCLM 150853Z AUTO 27004KT 10SM OVC011 08/07 A2978 RMK AO2 SLP086 T00780072 56035=
201611150753 METAR KCLM 150753Z AUTO 00000KT 10SM OVC008 08/08 A2981 RMK AO2 SLP094 T00780078 401280067=
201611150744 SPECI KCLM 150744Z AUTO 00000KT 10SM BKN008 OVC013 08/08 A2981 RMK AO2 T00780078=
201611150715 SPECI KCLM 150715Z AUTO 27003KT 10SM BKN010 OVC019 08/08 A2983 RMK AO2 T00780078=
201611150700 SPECI KCLM 150700Z AUTO 24004KT 10SM BKN009 OVC022 07/07 A2984 RMK AO2 CIG 008V015 T00720072=
201611150653 METAR KCLM 150653Z AUTO 23003KT 10SM SCT012 OVC023 07/07 A2984 RMK AO2 SLP106 T00720072=
201611150621 SPECI KCLM 150621Z AUTO 00000KT 9SM SCT008 OVC024 07/07 A2987 RMK AO2 T00670067=
201611150553 METAR KCLM 150553Z AUTO 00000KT 6SM BR BKN025 07/07 A2989 RMK AO2 SLP121 T00670067 10111 20067 58031=
201611150529 SPECI KCLM 150529Z AUTO 00000KT 9SM SCT023 SCT120 07/07 A2990 RMK AO2 T00720072=
201611150506 SPECI KCLM 150506Z AUTO 00000KT 9SM BKN023 07/07 A2991 RMK AO2 T00720072=
201611150453 METAR KCLM 150453Z AUTO 00000KT 8SM FEW023 07/07 A2992 RMK AO2 SLP132 T00720072=
201611150353 METAR KCLM 150353Z AUTO 00000KT 5SM BR FEW110 07/07 A2995 RMK AO2 SLP144 T00720072=
201611150253 METAR KCLM 150253Z AUTO 00000KT 4SM BR BKN085 08/08 A2998 RMK AO2 SLP153 T00780078 56019=
201611150153 METAR KCLM 150153Z AUTO 00000KT 10SM CLR 09/09 A2999 RMK AO2 SLP157 T00890089=
201611150053 METAR KCLM 150053Z AUTO 11004KT 10SM FEW095 10/08 A3002 RMK AO2 SLP166 T01000083=
201611142353 METAR KCLM 142353Z AUTO 10004KT 10SM CLR 11/09 A3004 RMK AO2 SLP172 T01110089 10128 20106 58011=
201611142253 METAR KCLM 142253Z AUTO 08005KT 10SM BKN065 OVC100 12/09 A3005 RMK AO2 SLP178 T01170089=
201611142153 METAR KCLM 142153Z AUTO 10007KT 10SM FEW016 SCT060 12/09 A3006 RMK AO2 SLP180 T01170089=
201611142053 METAR KCLM 142053Z AUTO 10007KT 10SM FEW060 12/08 A3007 RMK AO2 SLP183 T01220083 52004=
201611141953 METAR KCLM 141953Z AUTO 10006KT 10SM CLR 12/09 A3006 RMK AO2 SLP180 T01220089=
201611141853 METAR KCLM 141853Z AUTO 11004KT 10SM CLR 12/08 A3007 RMK AO2 SLP182 T01220083=
201611141753 METAR KCLM 141753Z AUTO VRB04KT 10SM CLR 11/07 A3006 RMK AO2 SLP179 T01060067 10106 20067 53024=
201611141653 METAR KCLM 141653Z AUTO 26008KT 10SM CLR 09/07 A3003 RMK AO2 SLP171 T00940072=
201611141553 METAR KCLM 141553Z AUTO 26009KT 10SM CLR 08/07 A3000 RMK AO2 SLP161 T00830067=
201611141453 METAR KCLM 141453Z AUTO 26010KT 10SM SCT070 08/07 A2999 RMK AO2 SLP155 T00830072 53014=
201611141353 METAR KCLM 141353Z AUTO 26008KT 10SM CLR 08/08 A2997 RMK AO2 SLP150 T00830078=
201611141312 SPECI KCLM 141312Z AUTO 27006KT 8SM CLR 07/07 A2996 RMK AO2 T00670067=
201611141304 SPECI KCLM 141304Z AUTO 26003KT 2SM BR FEW002 07/07 A2995 RMK AO2 T00720072=
201611141301 SPECI KCLM 141301Z AUTO 24003KT 1SM BR VV002 07/07 A2995 RMK AO2 T00670067=
201611141258 SPECI KCLM 141258Z AUTO 24003KT 3/4SM BR VV001 07/07 A2995 RMK AO2 T00670067=
201611141253 METAR KCLM 141253Z AUTO 00000KT 1 1/4SM BR FEW001 07/07 A2995 RMK AO2 SLP143 T00670067=
201611141250 SPECI KCLM 141250Z AUTO 00000KT 1 1/4SM BR FEW001 07/07 A2995 RMK AO2=
201611141238 SPECI KCLM 141238Z AUTO 00000KT 1/2SM FG VV001 07/07 A2994 RMK AO2 T00720072=
201611141231 SPECI KCLM 141231Z AUTO 00000KT 1SM BR VV001 07/07 A2994 RMK AO2 VIS 1/2V5 T00670067=
201611141153 METAR KCLM 141153Z AUTO 17003KT 10SM CLR 08/08 A2994 RMK AO2 SLP141 60010 70038 T00830083 10100 20083 50001=
201611141137 SPECI KCLM 141137Z AUTO 20003KT 3SM BR CLR 08/08 A2994 RMK AO2 T00830083=
201611141127 SPECI KCLM 141127Z AUTO 22003KT 1 3/4SM BR CLR 08/08 A2994 RMK AO2 T00830083=
201611141053 METAR KCLM 141053Z AUTO 00000KT 10SM FEW018 09/09 A2996 RMK AO2 SLP145 T00890089=
201611140953 METAR KCLM 140953Z AUTO 00000KT 10SM BKN046 OVC050 09/09 A2994 RMK AO2 RAE41 SLP141 P0002 T00890089=
201611140853 METAR KCLM 140853Z AUTO 22003KT 10SM -RA FEW034 OVC055 09/09 A2994 RMK AO2 SLP140 P0000 60008 T00940094 50004=
201611140753 METAR KCLM 140753Z AUTO 24006KT 9SM -RA FEW028 SCT041 OVC060 10/09 A2995 RMK AO2 SLP144 P0002 T01000094 401110067=
201611140708 SPECI KCLM 140708Z AUTO 18004KT 5SM -RA BR FEW018 SCT027 OVC044 09/09 A2994 RMK AO2 P0002 T00940089=
201611140653 METAR KCLM 140653Z AUTO 25004KT 7SM -RA BKN017 OVC025 09/09 A2995 RMK AO2 SLP144 P0006 T00940089=
201611140638 SPECI KCLM 140638Z AUTO 28005KT 6SM -RA BR FEW004 FEW007 OVC015 09/09 A2994 RMK AO2 P0006 T00940094=
201611140624 SPECI KCLM 140624Z AUTO 31007KT 3SM -RA BR FEW003 OVC012 09/09 A2994 RMK AO2 P0004 T00940094=
201611140618 SPECI KCLM 140618Z AUTO 32007G17KT 2SM -RA BR BKN007 OVC012 09/09 A2994 RMK AO2 P0004 T00940094=
201611140610 SPECI KCLM 140610Z AUTO 00000KT 3SM -RA BR BKN009 OVC012 10/10 A2993 RMK AO2 P0002 T01000100=
201611140605 SPECI KCLM 140605Z AUTO 26003KT 3SM -RA BR BKN012 OVC018 10/10 A2993 RMK AO2 P0002 T01000100=
201611140553 METAR KCLM 140553Z AUTO 00000KT 1 1/2SM -RA BR OVC014 10/10 A2993 RMK AO2 SLP136 P0006 60028 T01000100 10106 20094 53014=
201611140545 SPECI KCLM 140545Z AUTO 00000KT 1 3/4SM -RA BR OVC014 10/10 A2993 RMK AO2 P0006 T01000100=
201611140507 SPECI KCLM 140507Z AUTO 21003KT 4SM -RA BR SCT004 OVC014 10/10 A2992 RMK AO2 P0002 T01000100=
201611140453 METAR KCLM 140453Z AUTO 00000KT 8SM -RA OVC014 10/10 A2991 RMK AO2 SLP131 P0002 T01000100=
201611140445 SPECI KCLM 140445Z AUTO 00000KT 9SM -RA BKN013 BKN060 OVC080 10/10 A2992 RMK AO2 P0002 T01000100=
201611140403 SPECI KCLM 140403Z AUTO 14006KT 10SM -RA SCT005 BKN065 OVC080 10/10 A2990 RMK AO2 P0000 T01000100=
201611140353 METAR KCLM 140353Z AUTO 23004KT 5SM -RA BR BKN005 BKN045 OVC085 10/10 A2990 RMK AO2 SLP126 P0012 T01000100=
201611140326 SPECI KCLM 140326Z AUTO 00000KT 4SM RA BR BKN004 OVC055 10/10 A2991 RMK AO2 P0010 T01000100=
201611140310 SPECI KCLM 140310Z AUTO 30006KT 3SM RA BR FEW005 OVC060 10/10 A2990 RMK AO2 P0004 T01000100=
201611140253 METAR KCLM 140253Z AUTO 29014G18KT 10SM -RA OVC065 11/09 A2989 RMK AO2 SLP122 P0006 60008 T01060094 53002=
201611140153 METAR KCLM 140153Z AUTO 03003KT 8SM -RA BKN090 OVC110 10/09 A2985 RMK AO2 SLP108 P0000 T01000089=
201611140053 METAR KCLM 140053Z AUTO 15005KT 8SM -RA OVC090 09/09 A2987 RMK AO2 SLP115 P0002 T00940089=
201611132353 METAR KCLM 132353Z AUTO 31005KT 10SM -RA FEW060 BKN090 OVC110 10/09 A2988 RMK AO2 RAB26 SLP119 P0000 60000 T01000094 10111 20100 56030=
201611132253 METAR KCLM 132253Z AUTO VRB04KT 10SM SCT120 11/09 A2989 RMK AO2 SLP123 T01060089=
201611132153 METAR KCLM 132153Z AUTO 00000KT 10SM BKN110 11/09 A2992 RMK AO2 SLP132 T01060089=
201611132105 SPECI KCLM 132105Z AUTO 04003KT 10SM SCT007 OVC100 10/09 A2996 RMK AO2 T01000089=
201611132053 METAR KCLM 132053Z AUTO 00000KT 10SM BKN007 OVC110 10/09 A2997 RMK AO2 RAE01B30E39 SLP150 P0000 60000 T01000094 56023=
201611132015 SPECI KCLM 132015Z AUTO 00000KT 10SM BKN005 BKN070 OVC090 10/09 A2999 RMK AO2 RAE01 P0000 T01000094=
201611132003 SPECI KCLM 132003Z AUTO 00000KT 10SM SCT004 BKN090 OVC100 10/09 A2999 RMK AO2 RAE01 P0000 T01000094=
201611131953 METAR KCLM 131953Z AUTO 00000KT 10SM -RA FEW070 OVC095 10/09 A2999 RMK AO2 RAB51 SLP157 P0000 T01000094=
201611131853 METAR KCLM 131853Z AUTO 35004KT 10SM SCT065 OVC110 10/09 A3001 RMK AO2 SLP162 T01000089=
201611131753 METAR KCLM 131753Z AUTO 00000KT 10SM FEW070 SCT095 BKN120 10/09 A3004 RMK AO2 SLP173 60000 T01000089 10100 20078 58014=
201611131653 METAR KCLM 131653Z AUTO 00000KT 10SM OVC070 09/08 A3006 RMK AO2 RAE04 SLP181 P0000 T00890083=
201611131553 METAR KCLM 131553Z AUTO 15004KT 8SM -RA BKN065 OVC100 08/08 A3008 RMK AO2 RAB44 SLP187 P0000 T00830078=
201611131529 SPECI KCLM 131529Z AUTO 18003KT 10SM FEW009 SCT075 BKN090 08/08 A3008 RMK AO2 T00830083=
201611131500 SPECI KCLM 131500Z AUTO 00000KT 10SM FEW012 BKN075 08/08 A3008 RMK AO2 T00780078=
201611131453 METAR KCLM 131453Z AUTO 00000KT 10SM FEW008 BKN012 BKN075 08/08 A3008 RMK AO2 SLP187 60000 T00780078 55003=
201611131449 SPECI KCLM 131449Z AUTO 17003KT 10SM SCT008 BKN012 BKN080 08/08 A3008 RMK AO2=
201611131426 SPECI KCLM 131426Z AUTO 22003KT 10SM SCT009 OVC110 08/07 A3008 RMK AO2 T00780072=
201611131353 METAR KCLM 131353Z AUTO 26003KT 10SM FEW010 FEW055 OVC100 08/07 A3008 RMK AO2 RAB34E46 SLP187 P0000 T00830072=
201611131253 METAR KCLM 131253Z AUTO 00000KT 10SM SCT009 OVC110 08/08 A3009 RMK AO2 SLP190 T00780078=
201611131230 SPECI KCLM 131230Z AUTO 00000KT 10SM SCT008 OVC110 08/08 A3010 RMK AO2 T00780078=
201611131153 METAR KCLM 131153Z AUTO 00000KT 10SM OVC110 08/08 A3009 RMK AO2 SLP192 70015 T00780078 10100 20067 56020=
201611131053 METAR KCLM 131053Z AUTO 00000KT 10SM CLR 07/07 A3011 RMK AO2 SLP198 T00720072=
201611130953 METAR KCLM 130953Z AUTO 00000KT 10SM CLR 08/07 A3013 RMK AO2 SLP204 T00780072=
201611130853 METAR KCLM 130853Z AUTO 21003KT 10SM BKN032 08/08 A3015 RMK AO2 SLP212 T00830078 58001=
201611130830 SPECI KCLM 130830Z AUTO 00000KT 10SM OVC030 08/08 A3016 RMK AO2 T00830078=
201611130816 SPECI KCLM 130816Z AUTO 00000KT 10SM BKN029 08/07 A3016 RMK AO2 T00780072=
201611130753 METAR KCLM 130753Z AUTO 00000KT 10SM FEW028 BKN055 08/07 A3017 RMK AO2 SLP217 T00830072 401500078=
201611130721 SPECI KCLM 130721Z AUTO 25003KT 10SM SCT026 OVC060 09/08 A3017 RMK AO2 T00890078=
201611130653 METAR KCLM 130653Z AUTO 24006KT 10SM BKN023 OVC050 09/09 A3018 RMK AO2 SLP219 T00890089=
201611130642 SPECI KCLM 130642Z AUTO 25003KT 10SM BKN021 BKN050 09/08 A3017 RMK AO2 T00890083=
201611130621 SPECI KCLM 130621Z AUTO 20003KT 10SM SCT015 BKN120 09/09 A3017 RMK AO2 T00940089=
201611130614 SPECI KCLM 130614Z AUTO 22004KT 10SM BKN015 BKN120 09/09 A3017 RMK AO2 T00940089=
201611130553 METAR KCLM 130553Z AUTO 11004KT 10SM SCT014 SCT019 BKN120 10/09 A3016 RMK AO2 SLP213 T01000094 10122 20078 53005=
201611130453 METAR KCLM 130453Z AUTO 14008KT 10SM CLR 08/07 A3015 RMK AO2 SLP212 T00830067=
201611130353 METAR KCLM 130353Z AUTO 26009KT 10SM CLR 09/07 A3013 RMK AO2 SLP203 T00940072=
201611130253 METAR KCLM 130253Z AUTO 29006KT 10SM FEW080 09/08 A3014 RMK AO2 SLP208 T00940078 51017=
201611130153 METAR KCLM 130153Z AUTO 23007KT 10SM FEW055 BKN100 11/09 A3012 RMK AO2 SLP201 T01060089=
201611130053 METAR KCLM 130053Z AUTO 27006KT 10SM OVC065 11/08 A3013 RMK AO2 SLP203 T01060078=
201611122353 METAR KCLM 122353Z AUTO 31006KT 10SM OVC060 12/08 A3009 RMK AO2 SLP191 60000 T01220078 10150 20122 52037=
201611122253 METAR KCLM 122253Z AUTO 31007KT 10SM SCT060 SCT070 12/09 A3005 RMK AO2 SLP177 T01220089=
201611122153 METAR KCLM 122153Z AUTO 32007KT 10SM BKN047 BKN055 OVC070 14/08 A3002 RMK AO2 SLP167 T01390078=
201611122053 METAR KCLM 122053Z AUTO 26006KT 10SM FEW044 SCT055 15/09 A2998 RMK AO2 PRESRR SLP152 60000 T01500094 53056=
201611121953 METAR KCLM 121953Z AUTO 29012G20KT 10SM FEW050 BKN060 BKN080 14/12 A2992 RMK AO2 RAE25 PRESRR SLP131 P0000 T01390122=
201611121853 METAR KCLM 121853Z AUTO 28008KT 10SM -RA SCT050 BKN060 BKN070 13/12 A2987 RMK AO2 RAB25E34B52 SLP114 P0000 T01330122=
201611121753 METAR KCLM 121753Z AUTO 30005KT 8SM OVC060 12/12 A2981 RMK AO2 SLP097 60015 T01220122 10122 20094 53031=
201611121653 METAR KCLM 121653Z AUTO 00000KT 4SM BR OVC065 12/12 A2976 RMK AO2 RAB1559E10 SLP077 P0001 T01170117=
201611121629 SPECI KCLM 121629Z AUTO 00000KT 4SM BR FEW055 OVC070 11/11 A2975 RMK AO2 RAB1559E10 P0001 T01110111=
201611121620 SPECI KCLM 121620Z AUTO 00000KT 2SM BR SCT060 OVC080 11/11 A2974 RMK AO2 RAB1559E10 P0000 T01060106=
201611121601 SPECI KCLM 121601Z AUTO 15004KT 3SM -RA BR FEW060 BKN075 OVC090 11/11 A2973 RMK AO2 RAB1559 P0000 T01060106=
201611121553 METAR KCLM 121553Z AUTO 00000KT 1 1/2SM BR FEW060 BKN075 OVC095 10/10 A2973 RMK AO2 RAE33 SLP067 P0000 T01000100=
201611121534 SPECI KCLM 121534Z AUTO 00000KT 2SM BR BKN075 OVC090 10/10 A2972 RMK AO2 RAE33 P0000 T01000100=
201611121453 METAR KCLM 121453Z AUTO 28003KT 4SM -RA BR BKN070 OVC085 11/11 A2972 RMK AO2 RAE31B50 SLP065 P0002 60014 T01060106 52001=
201611121427 SPECI KCLM 121427Z AUTO 00000KT 3SM -RA BR FEW055 OVC080 11/11 A2972 RMK AO2 P0002 T01060106=
201611121416 SPECI KCLM 121416Z AUTO 02003KT 1 3/4SM -RA BR FEW055 BKN070 OVC085 11/11 A2971 RMK AO2 VIS 1/2V5 P0002 T01060106=
201611121353 METAR KCLM 121353Z AUTO 17004KT 3SM -RA BR FEW010 BKN070 OVC090 10/10 A2972 RMK AO2 SLP065 P0007 T01000100=
201611121337 SPECI KCLM 121337Z AUTO 00000KT 4SM -RA BR BKN008 BKN075 OVC090 10/10 A2972 RMK AO2 P0005 T01000100=
201611121324 SPECI KCLM 121324Z AUTO 00000KT 5SM -RA BR SCT008 OVC070 10/10 A2972 RMK AO2 P0005 T01000100=
201611121315 SPECI KCLM 121315Z AUTO 00000KT 4SM -RA BR BKN009 OVC070 10/10 A2972 RMK AO2 P0005 T01000100=
201611121306 SPECI KCLM 121306Z AUTO 00000KT 2SM RA BR FEW009 OVC070 10/10 A2972 RMK AO2 P0003 T01000100=
201611121253 METAR KCLM 121253Z AUTO 24005KT 3SM -RA BR OVC070 10/10 A2972 RMK AO2 RAB35 SLP064 P0005 T01000100=
201611121250 SPECI KCLM 121250Z AUTO 23007KT 3SM -RA BR FEW012 OVC070 10/10 A2972 RMK AO2 RAB35 P0004=
201611121244 SPECI KCLM 121244Z AUTO VRB03KT 1 3/4SM -RA BR FEW012 OVC070 09/09 A2972 RMK AO2 RAB35 P0004 T00940094=
201611121236 SPECI KCLM 121236Z AUTO 00000KT 3/4SM -RA BR FEW010 BKN070 OVC085 09/09 A2972 RMK AO2 RAB35 P0002 T00890089=
201611121211 SPECI KCLM 121211Z AUTO 00000KT 1 3/4SM BR FEW011 BKN065 BKN080 09/09 A2972 RMK AO2 T00940094=
201611121153 METAR KCLM 121153Z AUTO 00000KT 4SM BR FEW015 BKN060 BKN080 10/10 A2972 RMK AO2 RAE1059 SLP064 P0000 60013 70013 T01000100 10111 20100 58010=
201611121053 METAR KCLM 121053Z AUTO 00000KT 3SM -RA BR FEW015 BKN065 OVC100 11/11 A2974 RMK AO2 SLP071 P0002 T01060106=
201611120953 METAR KCLM 120953Z AUTO 24004KT 3SM -RA BR FEW007 OVC080 11/11 A2974 RMK AO2 SLP071 P0010 T01060106=
201611120938 SPECI KCLM 120938Z AUTO 20003KT 4SM -RA BR SCT007 BKN070 OVC085 11/11 A2974 RMK AO2 P0005 T01060106=
201611120853 METAR KCLM 120853Z AUTO 00000KT 5SM -RA BR BKN006 BKN055 OVC080 11/11 A2975 RMK AO2 RAB14E38B44 SLP074 P0001 60001 T01060106 56013=
201611120841 SPECI KCLM 120841Z AUTO 00000KT 7SM SCT006 BKN055 OVC080 11/11 A2975 RMK AO2 RAB14E38 P0001 T01060106=
201611120832 SPECI KCLM 120832Z AUTO 00000KT 6SM -RA BR BKN006 BKN055 OVC080 11/11 A2975 RMK AO2 RAB14 P0001 T01060106=
201611120820 SPECI KCLM 120820Z AUTO 00000KT 4SM -RA BR SCT008 BKN060 OVC075 11/11 A2976 RMK AO2 RAB14 P0001 T01060106=
201611120753 METAR KCLM 120753Z AUTO 00000KT 5SM BR FEW012 BKN070 OVC100 11/11 A2975 RMK AO2 RAB05E29 SLP076 P0000 T01060106 401330094=
201611120653 METAR KCLM 120653Z AUTO 00000KT 6SM BR SCT007 BKN070 OVC080 11/11 A2977 RMK AO2 RAB0558E21 SLP082 P0000 T01060106=
201611120553 METAR KCLM 120553Z AUTO 16003KT 8SM SCT006 OVC065 11/11 A2979 RMK AO2 SLP088 60000 T01110111 10117 20100 56012=
201611120501 SPECI KCLM 120501Z AUTO 00000KT 5SM BR BKN005 OVC070 11/11 A2980 RMK AO2 CIG 002V008 T01060106=
201611120453 METAR KCLM 120453Z AUTO 22003KT 5SM BR SCT003 OVC070 11/11 A2980 RMK AO2 SLP092 T01060106=
201611120450 SPECI KCLM 120450Z AUTO 00000KT 6SM BR SCT003 SCT007 OVC070 11/11 A2980 RMK AO2=
201611120419 SPECI KCLM 120419Z AUTO 11004KT 6SM BR BKN003 OVC085 11/11 A2980 RMK AO2 T01060106=
201611120353 METAR KCLM 120353Z AUTO 00000KT 5SM BR FEW004 BKN090 OVC110 11/11 A2980 RMK AO2 RAB14E43 SLP091 P0000 T01060106=
201611120253 METAR KCLM 120253Z AUTO VRB03KT 4SM BR FEW003 SCT080 BKN120 11/11 A2982 RMK AO2 SLP100 T01060106 58017=
201611120153 METAR KCLM 120153Z AUTO 00000KT 7SM FEW006 11/11 A2984 RMK AO2 SLP104 T01060106=
201611120134 SPECI KCLM 120134Z AUTO 00000KT 7SM FEW010 FEW023 11/11 A2985 RMK AO2 T01060106=
201611120053 METAR KCLM 120053Z AUTO 00000KT 9SM BKN015 11/11 A2986 RMK AO2 SLP112 T01110106=
201611120042 SPECI KCLM 120042Z AUTO 12003KT 8SM BKN015 11/11 A2986 RMK AO2 T01060106=
201611120009 SPECI KCLM 120009Z AUTO 00000KT 8SM FEW008 11/11 A2986 RMK AO2 T01110111=
201611112353 METAR KCLM 112353Z AUTO 12004KT 8SM BKN008 12/11 A2987 RMK AO2 SLP117 T01170106 10133 20106 58006=
201611112257 SPECI KCLM 112257Z AUTO 00000KT 9SM BKN008 12/11 A2989 RMK AO2 CIG 006V010 T01170111=
201611112253 METAR KCLM 112253Z AUTO 00000KT 9SM SCT010 12/11 A2988 RMK AO2 SLP120 T01170111=
201611112250 SPECI KCLM 112250Z AUTO 10003KT 10SM BKN010 12/11 A2989 RMK AO2=
201611112153 METAR KCLM 112153Z AUTO VRB03KT 10SM OVC008 12/11 A2989 RMK AO2 CIG 006V010 SLP123 T01170106=
201611112151 SPECI KCLM 112151Z AUTO 13003KT 10SM OVC008 12/11 A2991 RMK AO2 CIG 006V012=
201611112126 SPECI KCLM 112126Z AUTO 01004KT 10SM OVC010 12/11 A2988 RMK AO2 CIG 007V012 T01170106=
201611112114 SPECI KCLM 112114Z AUTO VRB03KT 10SM BKN009 12/11 A2991 RMK AO2 T01170111=
201611112105 SPECI KCLM 112105Z AUTO 07003KT 10SM SCT009 12/11 A2990 RMK AO2 T01170111=
201611112053 METAR KCLM 112053Z AUTO VRB03KT 8SM CLR 12/11 A2990 RMK AO2 SLP127 T01170111 56021=
201611111953 METAR KCLM 111953Z AUTO 00000KT 10SM CLR 13/12 A2992 RMK AO2 SLP132 T01330122=
201611111853 METAR KCLM 111853Z AUTO VRB03KT 8SM FEW033 12/11 A2993 RMK AO2 PRESFR SLP137 T01170111=
201611111753 METAR KCLM 111753Z AUTO 00000KT 6SM BR SCT110 11/11 A2997 RMK AO2 SLP149 T01060106 10111 20094 51006=
201611111653 METAR KCLM 111653Z AUTO 00000KT 7SM SCT002 BKN120 11/11 A2997 RMK AO2 SLP149 T01060106=
201611111623 SPECI KCLM 111623Z AUTO 00000KT 10SM FEW002 BKN120 10/10 A2998 RMK AO2 T01000100=
201611111553 METAR KCLM 111553Z AUTO 00000KT 10SM FEW120 10/10 A2997 RMK AO2 SLP151 T01000100=
201611111453 METAR KCLM 111453Z AUTO 34003KT 10SM BKN120 10/10 A2995 RMK AO2 SLP143 T01000100 56007=
201611111353 METAR KCLM 111353Z AUTO 30004KT 10SM BKN100 OVC120 10/10 A2996 RMK AO2 SLP145 T01000100=
201611111253 METAR KCLM 111253Z AUTO 00000KT 9SM FEW120 09/09 A2996 RMK AO2 SLP147 T00940094=
201611111153 METAR KCLM 111153Z AUTO 00000KT 10SM CLR 10/10 A2997 RMK AO2 SLP151 T01000100 10111 20094 58014=
201611111053 METAR KCLM 111053Z AUTO 23003KT 10SM CLR 11/11 A2999 RMK AO2 SLP157 T01060106=
201611110953 METAR KCLM 110953Z AUTO 24006KT 10SM CLR 11/11 A3001 RMK AO2 SLP164 T01060106=
201611110853 METAR KCLM 110853Z AUTO 24003KT 10SM CLR 11/11 A3001 RMK AO2 SLP164 T01060106 56002=
201611110753 METAR KCLM 110753Z AUTO 00000KT 10SM CLR 11/11 A3001 RMK AO2 SLP164 T01060106 401390094=
201611110653 METAR KCLM 110653Z AUTO 23005KT 10SM CLR 11/11 A3002 RMK AO2 SLP165 T01060106=
201611110553 METAR KCLM 110553Z AUTO 24005KT 10SM FEW120 10/10 A3002 RMK AO2 SLP166 T01000100 10133 20094 50007=
201611110453 METAR KCLM 110453Z AUTO 25005KT 10SM FEW120 10/10 A3002 RMK AO2 SLP167 T01000100=
201611110353 METAR KCLM 110353Z AUTO 00000KT 10SM CLR 10/10 A3001 RMK AO2 SLP163 T01000100=
201611110253 METAR KCLM 110253Z AUTO 24004KT 10SM CLR 11/11 A3000 RMK AO2 SLP159 T01060106 55003=
201611110153 METAR KCLM 110153Z AUTO 25004KT 10SM CLR 12/11 A3000 RMK AO2 SLP159 T01170111=
201611110053 METAR KCLM 110053Z AUTO 00000KT 10SM CLR 12/11 A3001 RMK AO2 SLP162 T01170111=
201611102353 METAR KCLM 102353Z AUTO 00000KT 10SM CLR 13/11 A3001 RMK AO2 SLP162 T01330111 10139 20111 58012=
201611102253 METAR KCLM 102253Z AUTO 00000KT 10SM CLR 14/11 A3002 RMK AO2 SLP165 T01390111=
201611102200 SPECI KCLM 102200Z AUTO 35004KT 10SM SCT012 12/11 A3003 RMK AO2 T01220111=
201611102153 METAR KCLM 102153Z AUTO 01004KT 10SM BKN012 12/11 A3004 RMK AO2 SLP172 T01220111=
201611102119 SPECI KCLM 102119Z AUTO 26003KT 10SM BKN011 13/11 A3004 RMK AO2 T01330111=
201611102104 SPECI KCLM 102104Z AUTO 26003KT 10SM SCT010 13/11 A3004 RMK AO2 T01280106=
201611102053 METAR KCLM 102053Z AUTO 00000KT 10SM BKN010 13/11 A3004 RMK AO2 SLP173 T01280106 58014=
201611101953 METAR KCLM 101953Z AUTO 00000KT 10SM FEW004 OVC012 12/11 A3006 RMK AO2 SLP179 T01220111=
201611101853 METAR KCLM 101853Z AUTO 05004KT 10SM OVC003 11/11 A3007 RMK AO2 SLP184 T01110111=
201611101833 SPECI KCLM 101833Z AUTO 00000KT 9SM BKN004 OVC012 12/11 A3008 RMK AO2 T01170111 $=
201611101803 SPECI KCLM 101803Z AUTO 10SM 11/11 A3008 RMK AO2 T01110106 $=
201611101753 METAR KCLM 101753Z AUTO 00000KT 10SM FEW003 OVC012 12/ A3008 RMK AO2 SLP188 T0117 10128 20100 50003 $=
201611101729 SPECI KCLM 101729Z AUTO 00000KT 10SM SCT005 BKN013 12/ A3009 RMK AO2 T0117 $=
201611101715 SPECI KCLM 101715Z AUTO 00000KT 10SM BKN005 OVC013 12/10 A3008 RMK AO2 T01170100 $=
201611101708 SPECI KCLM 101708Z AUTO 00000KT 10SM SCT005 OVC013 12/10 A3008 RMK AO2 T01170100 $=
201611101653 METAR KCLM 101653Z AUTO 00000KT 10SM BKN005 OVC013 12/10 A3008 RMK AO2 SLP188 T01220100 $=
201611101625 SPECI KCLM 101625Z AUTO 00000KT 10SM BKN005 OVC012 11/09 A3009 RMK AO2 T01060094=
201611101553 METAR KCLM 101553Z AUTO 24004KT 10SM SCT004 OVC010 11/09 A3009 RMK AO2 SLP189 T01060089=
201611101507 SPECI KCLM 101507Z AUTO 27004KT 10SM BKN004 OVC010 11/09 A3008 RMK AO2 T01060094 $=
201611101453 METAR KCLM 101453Z AUTO 25004KT 8SM SCT004 OVC011 11/09 A3007 RMK AO2 SLP185 T01060094 58005 $=
201611101406 SPECI KCLM 101406Z AUTO 00000KT 10SM OVC004 11/09 A3008 RMK AO2 T01060089 $=
201611101353 METAR KCLM 101353Z AUTO 00000KT 10SM OVC005 11/09 A3008 RMK AO2 SLP186 T01060089 $=
201611101253 METAR KCLM 101253Z AUTO 24003KT 10SM OVC005 11/09 A3009 RMK AO2 SLP190 T01060089 $=
201611101237 SPECI KCLM 101237Z AUTO 23004KT 10SM OVC005 11/09 A3009 RMK AO2 T01060089 $=
201611101153 METAR KCLM 101153Z AUTO 24004KT 10SM OVC004 11/10 A3009 RMK AO2 SLP190 7//// T01110100 10128 20111 58009 $=
201611101053 METAR KCLM 101053Z AUTO 00000KT 10SM OVC003 12/11 A3010 RMK AO2 SLP193 T01170111 $=
201611101039 SPECI KCLM 101039Z AUTO 23004KT 4SM BR OVC003 11/11 A3011 RMK AO2 T01110106 $=
201611101034 SPECI KCLM 101034Z AUTO 24005KT 1 1/4SM BR OVC003 12/11 A3012 RMK AO2 T01170106 $=
201611101019 SPECI KCLM 101019Z AUTO 27003KT 1/2SM FG VV003 12/11 A3012 RMK AO2 T01170111 $=
201611100953 METAR KCLM 100953Z AUTO 00000KT 1/4SM FG VV002 12/11 A3012 RMK AO2 SLP198 T01170111 $=
201611100948 SPECI KCLM 100948Z AUTO 00000KT 1/4SM FG VV002 12/11 A3012 RMK AO2 $=
201611100853 METAR KCLM 100853Z AUTO 00000KT 1/4SM FG VV001 12/11 A3012 RMK AO2 SLP198 T01220111 58013 $=
201611100833 SPECI KCLM 100833Z AUTO 00000KT 1/4SM FG BKN001 OVC026 12/11 A3012 RMK AO2 T01220111 $=
201611100820 SPECI KCLM 100820Z AUTO 08003KT 1/4SM FG BKN002 OVC025 12/11 A3012 RMK AO2 PRESFR T01220111 $=
201611100809 SPECI KCLM 100809Z AUTO 00000KT 1/2SM FG BKN002 OVC025 12/11 A3013 RMK AO2 T01220111 $=
201611100753 METAR KCLM 100753Z AUTO 00000KT 1 3/4SM BR OVC002 12/11 A3015 RMK AO2 SLP208 T01220111 401560122 $=
201611100741 SPECI KCLM 100741Z AUTO 00000KT 1 3/4SM BR OVC002 12/11 A3015 RMK AO2 T01220111 $=
201611100715 SPECI KCLM 100715Z AUTO 00000KT 4SM BR OVC002 12/12 A3016 RMK AO2 T01220117 $=
201611100707 SPECI KCLM 100707Z AUTO 00000KT 2SM BR OVC002 12/12 A3016 RMK AO2 T01220117 $=
201611100700 SPECI KCLM 100700Z AUTO 35003KT 3/4SM BR VV002 13/12 A3016 RMK AO2 T01280117 $=
201611100653 METAR KCLM 100653Z AUTO 28004KT 1/4SM FG VV002 13/12 A3016 RMK AO2 SLP214 T01280117 $=
201611100553 METAR KCLM 100553Z AUTO 26004KT 1/4SM FG VV002 12/12 A3015 RMK AO2 SLP211 T01220117 10133 20122 55003 $=
201611100453 METAR KCLM 100453Z AUTO 15003KT 1/4SM FG VV001 12/12 A3014 RMK AO2 SLP206 T01220117 $=
201611100353 METAR KCLM 100353Z AUTO 00000KT 1/4SM FG VV001 13/12 A3016 RMK AO2 SLP214 T01280117 $=
201611100338 SPECI KCLM 100338Z AUTO 00000KT 1/4SM FG VV001 12/12 A3016 RMK AO2 T01220117 $=
201611100253 METAR KCLM 100253Z AUTO 00000KT 1/4SM FG VV002 13/12 A3016 RMK AO2 SLP212 T01330122 58007 $=
201611100236 SPECI KCLM 100236Z AUTO 11004KT 1/4SM FG VV002 13/12 A3016 RMK AO2 T01330122 $=
201611100204 SPECI KCLM 100204Z AUTO 09006KT 1/4SM FG VV001 13/12 A3017 RMK AO2 T01280117 $=
201611100153 METAR KCLM 100153Z AUTO 08004KT 1/4SM FG VV002 12/12 A3017 RMK AO2 SLP218 T01220117 $=
201611100123 SPECI KCLM 100123Z AUTO 08003KT 1/4SM FG VV001 12/12 A3018 RMK AO2 T01220117 $=
201611100053 METAR KCLM 100053Z AUTO 00000KT 1/4SM FG VV002 13/12 A3017 RMK AO2 SLP217 T01280117 $=
201611092353 METAR KCLM 092353Z AUTO 07003KT 1/4SM FG VV002 13/12 A3018 RMK AO2 SLP219 6//// T01330122 10156 20128 56003 $=
201611092325 SPECI KCLM 092325Z AUTO 10005KT 1/4SM FG BKN002 OVC026 13/12 A3017 RMK AO2 T01330122 $=
201611092318 SPECI KCLM 092318Z AUTO 09006KT 1 1/2SM BR 13/13 A3018 RMK AO2 T01330128 $=
201611092253 METAR KCLM 092253Z AUTO 14/13 A3018 RMK AO2 SLP219 T01440128 PWINO $=
201611092250 SPECI KCLM 092250Z AUTO 14/13 A3018 RMK AO2 PWINO $=
201611092237 SPECI KCLM 092237Z AUTO 00000KT 3SM BR BKN002 OVC020 14/13 A3018 RMK AO2 T01390128 $=
201611092227 SPECI KCLM 092227Z AUTO 00000KT 1SM BR BKN002 OVC020 14/13 A3018 RMK AO2 T01390128=
201611092153 METAR KCLM 092153Z AUTO 00000KT 1/4SM FG VV002 13/12 A3019 RMK AO2 RAB43E53 SLP222 P0000 T01330122=
201611092122 SPECI KCLM 092122Z AUTO 06003KT 1/4SM FG VV002 13/13 A3018 RMK AO2 T01330128 PWINO $=
201611092105 SPECI KCLM 092105Z AUTO 35003KT M1/4SM FG BKN001 OVC021 13/12 A3017 RMK AO2 T01330122 PWINO $=
201611092053 METAR KCLM 092053Z AUTO 36003KT M1/4SM FG BKN003 OVC021 13/12 A3017 RMK AO2 SLP218 T01330122 51012 PWINO $=
201611092049 SPECI KCLM 092049Z AUTO 35004KT 1/4SM FG BKN003 OVC021 13/12 A3017 RMK AO2 PWINO $=
201611092035 SPECI KCLM 092035Z AUTO 00000KT FEW001 BKN021 OVC070 14/13 A3017 RMK AO2 T01440128 $=
201611092000 SPECI KCLM 092000Z AUTO 00000KT 10SM SCT004 BKN040 16/13 A3016 RMK AO2 T01560133=
201611091953 METAR KCLM 091953Z AUTO 00000KT 10SM BKN002 BKN040 15/13 A3016 RMK AO2 CIG 002V006 SLP214 T01500133=
201611091937 SPECI KCLM 091937Z AUTO 00000KT 8SM OVC002 14/13 A3016 RMK AO2 T01440133=
201611091930 SPECI KCLM 091930Z AUTO 00000KT 2 1/2SM BR OVC002 14/13 A3016 RMK AO2 T01440133=
201611091915 SPECI KCLM 091915Z AUTO 16003KT 1/2SM FG OVC002 14/13 A3016 RMK AO2 T01390128=
201611091907 SPECI KCLM 091907Z AUTO 15003KT 1SM BR OVC002 14/13 A3016 RMK AO2 T01390128=
201611091853 METAR KCLM 091853Z AUTO 00000KT 1/4SM FG VV002 13/13 A3016 RMK AO2 SLP213 T01330128=
201611091800 SPECI KCLM 091800Z AUTO 00000KT 1/4SM FG OVC004 14/12 A3014 RMK AO2 T01390122=
201611091757 SPECI KCLM 091757Z AUTO 01003KT 1 1/4SM BR OVC006 14/13 A3014 RMK AO2 T01390128=
201611091753 METAR KCLM 091753Z AUTO 00000KT 9SM OVC006 14/13 A3014 RMK AO2 RAE40 SLP206 P0001 60026 T01390128 10139 20133 51019=
201611091742 SPECI KCLM 091742Z AUTO 32003KT 7SM BKN006 BKN040 OVC070 14/12 A3014 RMK AO2 RAE40 P0001 T01390122=
201611091734 SPECI KCLM 091734Z AUTO 32003KT 5SM -RA BR SCT006 BKN044 OVC065 14/13 A3014 RMK AO2 P0001 T01390128=
201611091653 METAR KCLM 091653Z AUTO 00000KT 5SM -RA BR BKN048 OVC065 14/13 A3013 RMK AO2 SLP201 P0015 T01390128=
201611091650 SPECI KCLM 091650Z AUTO 00000KT 3SM -RA BR BKN048 OVC065 14/13 A3012 RMK AO2 P0015=
201611091645 SPECI KCLM 091645Z AUTO 00000KT 1 1/4SM RA BR FEW025 BKN046 OVC060 14/12 A3012 RMK AO2 P0015 T01390122=
201611091636 SPECI KCLM 091636Z AUTO 18003KT 2 1/2SM -RA BR SCT024 BKN047 OVC055 14/12 A3012 RMK AO2 P0008 T01390122=
201611091618 SPECI KCLM 091618Z AUTO 00000KT 5SM -RA BR BKN023 BKN047 OVC055 14/13 A3011 RMK AO2 P0006 T01390128=
201611091610 SPECI KCLM 091610Z AUTO 00000KT 3SM -RA BR SCT021 OVC055 13/13 A3011 RMK AO2 P0006 T01330128=
201611091602 SPECI KCLM 091602Z AUTO 00000KT 1 3/4SM RA BR FEW021 BKN049 OVC065 13/13 A3011 RMK AO2 P0004 T01330128=
201611091553 METAR KCLM 091553Z AUTO 21004KT 3SM -RA BR FEW013 BKN049 OVC070 13/12 A3011 RMK AO2 RAB11 SLP195 P0009 T01330122=
201611091540 SPECI KCLM 091540Z AUTO 26004KT 2SM -RA BR FEW004 BKN028 OVC048 13/12 A3010 RMK AO2 RAB11 P0009 T01330122=
201611091533 SPECI KCLM 091533Z AUTO 30004KT 2 1/2SM -RA BR SCT003 BKN011 OVC048 13/12 A3010 RMK AO2 RAB11 P0007 T01330122=
201611091529 SPECI KCLM 091529Z AUTO 29003KT 3SM -RA BR SCT003 BKN025 OVC048 13/12 A3010 RMK AO2 RAB11 P0005 T01330122=
201611091526 SPECI KCLM 091526Z AUTO 00000KT 2 1/2SM -RA BR BKN003 BKN022 OVC048 13/13 A3010 RMK AO2 RAB11 P0005 T01330128=
201611091511 SPECI KCLM 091511Z AUTO 23003KT 3SM -RA BR OVC003 13/12 A3009 RMK AO2 RAB11 P0000 T01330122=
201611091453 METAR KCLM 091453Z AUTO 00000KT 1 1/4SM BR OVC003 13/12 A3008 RMK AO2 SLP187 60001 T01330122 52015=
201611091444 SPECI KCLM 091444Z AUTO 00000KT 2SM BR OVC003 13/13 A3008 RMK AO2 T01330128=
201611091353 METAR KCLM 091353Z AUTO 29005KT 1 3/4SM BR OVC002 13/12 A3006 RMK AO2 RAB1257E23 SLP180 P0000 T01330122=
201611091340 SPECI KCLM 091340Z AUTO 32005KT 1 3/4SM BR OVC002 13/12 A3006 RMK AO2 RAB1257E23 P0000 T01330122=
201611091328 SPECI KCLM 091328Z AUTO 31006KT 2SM BR OVC002 13/12 A3006 RMK AO2 RAB1257E23 P0000 T01330122=
201611091319 SPECI KCLM 091319Z AUTO 31008KT 4SM -RA BR OVC004 13/12 A3006 RMK AO2 RAB1257 CIG 002V005 P0000 T01330122=
201611091253 METAR KCLM 091253Z AUTO 24003KT 9SM OVC006 14/13 A3006 RMK AO2 RAB02E44 CIG 005V010 SLP179 P0001 T01390128=
201611091244 SPECI KCLM 091244Z AUTO 00000KT 10SM BKN005 OVC011 14/13 A3005 RMK AO2 RAB02E44 CIG 003V008 P0001 T01390128=
201611091210 SPECI KCLM 091210Z AUTO 00000KT 9SM -RA BKN003 OVC009 13/12 A3005 RMK AO2 RAB02 P0000 T01330122=
201611091153 METAR KCLM 091153Z AUTO 00000KT 8SM BKN007 OVC012 14/13 A3004 RMK AO2 RAE50 CIG 003V010 SLP172 P0004 60017 70017 T01390128 10144 20122 53005=
201611091145 SPECI KCLM 091145Z AUTO 00000KT 10SM -RA BKN007 BKN012 OVC018 14/13 A3004 RMK AO2 CIG 003V011 P0004 T01390128=
201611091117 SPECI KCLM 091117Z AUTO 29005KT 7SM -RA FEW004 BKN011 OVC085 14/13 A3004 RMK AO2 P0004 T01390128=
201611091102 SPECI KCLM 091102Z AUTO 00000KT 8SM -RA FEW004 SCT009 OVC085 14/13 A3003 RMK AO2 P0002 T01390128=
201611091053 METAR KCLM 091053Z AUTO 35004KT 5SM -RA BR OVC085 14/13 A3003 RMK AO2 SLP167 P0004 T01390128=
201611090953 METAR KCLM 090953Z AUTO 20003KT 5SM -RA BR OVC080 13/12 A3002 RMK AO2 SLP167 P0005 T01330122=
201611090853 METAR KCLM 090853Z AUTO 25006KT 10SM -RA SCT045 BKN060 OVC085 13/12 A3002 RMK AO2 RAE29B52 SLP167 P0000 60004 T01330122 53006=
201611090753 METAR KCLM 090753Z AUTO 00000KT 8SM -RA OVC090 14/12 A3000 RMK AO2 SLP160 P0004 T01390122 401940083=
201611090653 METAR KCLM 090653Z AUTO 00000KT 10SM -RA BKN050 BKN080 OVC100 13/12 A3002 RMK AO2 SLP165 P0000 T01280117=
201611090553 METAR KCLM 090553Z AUTO 15004KT 10SM -RA SCT055 OVC100 13/11 A3000 RMK AO2 SLP160 P0000 60000 T01280111 10156 20122 51013=
201611090453 METAR KCLM 090453Z AUTO 15003KT 10SM -RA FEW050 BKN060 OVC080 13/12 A3000 RMK AO2 RAB07 SLP159 P0000 T01330117=
201611090353 METAR KCLM 090353Z AUTO 16006KT 10SM OVC060 13/11 A2997 RMK AO2 RAE49 SLP151 P0000 T01280111=
201611090253 METAR KCLM 090253Z AUTO 23004KT 10SM -RA OVC060 13/12 A2997 RMK AO2 RAB19 SLP148 P0000 60000 T01280117 55000=
201611090153 METAR KCLM 090153Z AUTO 00000KT 10SM BKN055 BKN070 13/12 A2995 RMK AO2 SLP144 T01330117=
201611090053 METAR KCLM 090053Z AUTO 00000KT 10SM FEW050 BKN065 14/11 A2995 RMK AO2 RAB25E32 SLP142 P0000 T01390111=
201611082353 METAR KCLM 082353Z AUTO 01003KT 10SM BKN070 16/11 A2997 RMK AO2 SLP148 T01560111 10194 20156 55010=
201611082253 METAR KCLM 082253Z AUTO 00000KT 10SM BKN070 BKN085 17/12 A2996 RMK AO2 SLP146 T01720122=
201611082153 METAR KCLM 082153Z AUTO 27005KT 10SM BKN080 18/13 A2999 RMK AO2 SLP154 T01830128=
201611082053 METAR KCLM 082053Z AUTO 00000KT 10SM FEW070 BKN085 18/12 A3000 RMK AO2 SLP158 T01830122 58005=
201611081953 METAR KCLM 081953Z AUTO 00000KT 10SM FEW060 BKN085 18/12 A3001 RMK AO2 SLP162 T01830122=
201611081853 METAR KCLM 081853Z AUTO 28004KT 10SM BKN060 BKN080 19/13 A3002 RMK AO2 SLP164 T01890128=
201611081753 METAR KCLM 081753Z AUTO 26004KT 10SM FEW060 BKN085 18/13 A3001 RMK AO2 SLP163 T01780128 10178 20083 51014=
201611081653 METAR KCLM 081653Z AUTO 00000KT 10SM BKN080 13/11 A3001 RMK AO2 SLP162 T01280111=
201611081553 METAR KCLM 081553Z AUTO 00000KT 10SM FEW080 11/09 A2999 RMK AO2 SLP157 T01060094=
201611081453 METAR KCLM 081453Z AUTO 29005KT 10SM FEW080 10/08 A2997 RMK AO2 SLP150 T01000083 53001=
201611081353 METAR KCLM 081353Z AUTO 27005KT 10SM CLR 10/08 A2997 RMK AO2 SLP148 T01000083=
201611081253 METAR KCLM 081253Z AUTO 21003KT 10SM FEW065 09/08 A2996 RMK AO2 SLP147 T00940083=
201611081153 METAR KCLM 081153Z AUTO VRB04KT 10SM SCT075 09/08 A2997 RMK AO2 SLP149 T00890078 10106 20089 58007=
201611081053 METAR KCLM 081053Z AUTO 23003KT 10SM FEW070 09/08 A2998 RMK AO2 SLP152 T00940083=
201611080953 METAR KCLM 080953Z AUTO 13004KT 10SM FEW075 09/08 A2998 RMK AO2 SLP153 T00890078=
201611080853 METAR KCLM 080853Z AUTO 24005KT 10SM CLR 11/09 A2999 RMK AO2 SLP156 T01060089 55008=
201611080753 METAR KCLM 080753Z AUTO 26006KT 10SM CLR 09/08 A2999 RMK AO2 SLP155 T00940078 401560083=
201611080653 METAR KCLM 080653Z AUTO 23007KT 10SM CLR 10/08 A3000 RMK AO2 SLP160 T01000083=
201611080553 METAR KCLM 080553Z AUTO 25004KT 10SM FEW070 10/08 A3001 RMK AO2 SLP164 T01000083 10128 20089 55008=
201611080453 METAR KCLM 080453Z AUTO 27003KT 10SM SCT075 09/08 A3001 RMK AO2 SLP162 T00940083=
201611080353 METAR KCLM 080353Z AUTO 00000KT 10SM CLR 10/08 A3002 RMK AO2 SLP167 T01000083=
201611080253 METAR KCLM 080253Z AUTO 28004KT 10SM SCT120 11/09 A3004 RMK AO2 SLP172 T01110094 55002=
201611080153 METAR KCLM 080153Z AUTO 00000KT 10SM CLR 11/09 A3002 RMK AO2 SLP168 T01060089=
201611080053 METAR KCLM 080053Z AUTO VRB03KT 10SM CLR 11/09 A3003 RMK AO2 SLP170 T01110094=
201611072353 METAR KCLM 072353Z AUTO 23003KT 10SM CLR 13/09 A3004 RMK AO2 SLP174 T01280094 10156 20122 58003=
201611072253 METAR KCLM 072253Z AUTO VRB03KT 10SM CLR 13/09 A3004 RMK AO2 SLP175 T01330094=
201611072153 METAR KCLM 072153Z AUTO 32005KT 10SM FEW055 SCT070 SCT085 13/09 A3007 RMK AO2 SLP184 T01280094=
201611072053 METAR KCLM 072053Z AUTO 35005KT 10SM CLR 13/10 A3005 RMK AO2 SLP178 T01280100 58003=
201611071953 METAR KCLM 071953Z AUTO 12006KT 10SM CLR 14/10 A3005 RMK AO2 SLP176 T01390100=
201611071853 METAR KCLM 071853Z AUTO 32004KT 10SM FEW007 SCT013 SCT060 12/10 A3007 RMK AO2 SLP184 T01220100=
201611071816 SPECI KCLM 071816Z AUTO 29004KT 10SM FEW007 SCT055 12/11 A3006 RMK AO2 T01220106=
201611071753 METAR KCLM 071753Z AUTO 29008KT 10SM BKN007 BKN060 12/11 A3006 RMK AO2 SLP181 60000 T01220106 10122 20083 53011=
201611071751 SPECI KCLM 071751Z AUTO 28005KT 10SM BKN007 BKN060 12/11 A3006 RMK AO2=
201611071723 SPECI KCLM 071723Z AUTO VRB04KT 10SM SCT005 BKN060 12/10 A3005 RMK AO2 T01170100=
201611071715 SPECI KCLM 071715Z AUTO 29008KT 10SM BKN005 BKN065 12/10 A3005 RMK AO2 T01170100=
201611071653 METAR KCLM 071653Z AUTO 28004KT 10SM FEW006 SCT120 11/09 A3003 RMK AO2 SLP169 T01110094=
201611071648 SPECI KCLM 071648Z AUTO 29005KT 10SM SCT006 SCT120 11/09 A3003 RMK AO2=
201611071641 SPECI KCLM 071641Z AUTO 00000KT 10SM BKN006 BKN120 11/10 A3002 RMK AO2 T01110100=
201611071553 METAR KCLM 071553Z AUTO 00000KT 10SM SCT005 OVC120 10/09 A3002 RMK AO2 SLP166 T01000089=
201611071532 SPECI KCLM 071532Z AUTO 24005KT 10SM BKN005 BKN120 09/08 A3002 RMK AO2 T00940083 $=
201611071513 SPECI KCLM 071513Z AUTO 00000KT 10SM FEW006 SCT120 09/09 A3001 RMK AO2 T00940089 $=
201611071453 METAR KCLM 071453Z AUTO 26006KT 10SM FEW055 FEW070 SCT120 09/08 A2999 RMK AO2 RAB08E17 SLP158 P0000 60000 T00890078 51007 $=
201611071353 METAR KCLM 071353Z AUTO 00000KT 9SM BKN110 09/08 A2999 RMK AO2 RAE1255B21E30 SLP156 P0000 T00940083 $=
201611071253 METAR KCLM 071253Z AUTO 00000KT 10SM -RA OVC095 09/08 A2999 RMK AO2 RAB17 SLP157 P0000 T00940083 $=
201611071153 METAR KCLM 071153Z AUTO 00000KT 10SM CLR 09/08 A2997 RMK AO2 SLP151 60000 70002 T00890078 10100 20083 53002 $=
201611071053 METAR KCLM 071053Z AUTO 20003KT 10SM FEW055 09/08 A2995 RMK AO2 SLP144 T00890078 $=
201611070953 METAR KCLM 070953Z AUTO 25004KT 10SM FEW070 FEW120 09/08 A2995 RMK AO2 SLP144 T00890078 $=
201611070853 METAR KCLM 070853Z AUTO 00000KT 10SM SCT011 08/07 A2997 RMK AO2 SLP148 60000 T00830072 58005 $=
201611070753 METAR KCLM 070753Z AUTO 00000KT 10SM OVC110 09/08 A2998 RMK AO2 RAB42E51 SLP151 P0000 T00940083 401280056 $=
201611070653 METAR KCLM 070653Z AUTO 21003KT 10SM SCT120 09/08 A2997 RMK AO2 SLP151 T00940083 $=
201611070553 METAR KCLM 070553Z AUTO 24003KT 10SM SCT070 BKN100 OVC110 10/08 A2998 RMK AO2 SLP153 60002 T01000083 10111 20089 56005 $=
201611070527 SPECI KCLM 070527Z AUTO 28004KT 10SM FEW007 BKN075 OVC100 10/08 A2999 RMK AO2 T01000083 $=
201611070453 METAR KCLM 070453Z AUTO 32003KT 10SM SCT075 SCT120 09/08 A2999 RMK AO2 SLP155 T00940083 $=
201611070353 METAR KCLM 070353Z AUTO 00000KT 10SM FEW070 FEW120 09/08 A2998 RMK AO2 RAE24 SLP153 P0002 T00940083 $=
201611070253 METAR KCLM 070253Z AUTO 22005KT 10SM -RA SCT070 BKN085 OVC110 10/08 A3000 RMK AO2 RAB47 SLP159 P0000 60000 T01000083 50004 $=
201611070153 METAR KCLM 070153Z AUTO 00000KT 10SM FEW120 10/09 A3000 RMK AO2 SLP160 T01000089 $=
201611070053 METAR KCLM 070053Z AUTO 15004KT 10SM CLR 10/08 A2999 RMK AO2 SLP155 T01000083 $=
201611062353 METAR KCLM 062353Z AUTO 00000KT 10SM CLR 11/09 A2999 RMK AO2 SLP155 T01110089 10128 20106 50001 $=
201611062253 METAR KCLM 062253Z AUTO 00000KT 10SM CLR 12/08 A2999 RMK AO2 SLP157 T01170083 $=
201611062153 METAR KCLM 062153Z AUTO 00000KT 10SM CLR 12/08 A2999 RMK AO2 SLP157 T01220083 $=
201611062137 SPECI KCLM 062137Z AUTO 29003KT 10SM SCT007 11/09 A2999 RMK AO2 T01110094 $=
201611062053 METAR KCLM 062053Z AUTO 00000KT 10SM BKN006 11/09 A2998 RMK AO2 SLP154 T01110089 50006 $=
201611061953 METAR KCLM 061953Z AUTO 00000KT 10SM OVC007 11/09 A2998 RMK AO2 CIG 005V009 SLP154 T01110094 $=
201611061920 SPECI KCLM 061920Z AUTO 03003KT 10SM BKN005 11/09 A2999 RMK AO2 CIG 003V007 T01110094 $=
201611061853 METAR KCLM 061853Z AUTO 36004KT 10SM FEW004 11/09 A2999 RMK AO2 SLP155 T01110089 $=
201611061753 METAR KCLM 061753Z AUTO 00000KT 10SM SCT006 BKN065 12/10 A2996 RMK AO2 SLP148 T01170100 10117 20056 52003 $=
201611061750 SPECI KCLM 061750Z AUTO 00000KT 10SM BKN006 BKN065 11/09 A2996 RMK AO2 $=
201611061653 METAR KCLM 061653Z AUTO 23003KT 10SM SCT005 BKN065 09/08 A2996 RMK AO2 SLP145 T00890078 $=
201611061648 SPECI KCLM 061648Z AUTO 18004KT 10SM BKN005 BKN070 09/08 A2996 RMK AO2 $=
201611061555 SPECI KCLM 061555Z AUTO 00000KT 3SM BR FEW002 SCT075 06/06 A2995 RMK AO2 T00610056 $=
201611061553 METAR KCLM 061553Z AUTO 00000KT 1 1/2SM BR SCT002 SCT075 07/06 A2995 RMK AO2 SLP141 T00670056 $=
201611061549 SPECI KCLM 061549Z AUTO 00000KT 1 1/4SM BR SCT002 BKN075 07/06 A2994 RMK AO2 $=
201611061540 SPECI KCLM 061540Z AUTO 00000KT 2 1/2SM BR BKN002 BKN075 07/06 A2994 RMK AO2 T00720061 $=
201611061528 SPECI KCLM 061528Z AUTO 18003KT 3SM BR OVC003 07/06 A2994 RMK AO2 T00670056 $=
201611061521 SPECI KCLM 061521Z AUTO 00000KT 1 1/4SM BR BKN003 06/06 A2994 RMK AO2 VIS 3/4V4 T00610056 $=
201611061500 SPECI KCLM 061500Z AUTO 00000KT 1/2SM FG VV002 06/05 A2993 RMK AO2 T00560050 $=
201611061453 METAR KCLM 061453Z AUTO 00000KT 1SM BR VV001 07/06 A2993 RMK AO2 SLP135 T00670056 51012 $=
201611061450 SPECI KCLM 061450Z AUTO 00000KT 2 1/2SM BR SCT001 07/06 A2993 RMK AO2 $=
201611061437 SPECI KCLM 061437Z AUTO 21003KT 9SM BKN001 OVC060 07/06 A2992 RMK AO2 T00720061 $=
201611061429 SPECI KCLM 061429Z AUTO 00000KT 9SM BKN002 BKN060 07/06 A2992 RMK AO2 T00720061 $=
201611061421 SPECI KCLM 061421Z AUTO 00000KT 9SM SCT002 BKN060 07/06 A2992 RMK AO2 T00670061 $=
201611061353 METAR KCLM 061353Z AUTO 00000KT 5SM BR SCT060 07/06 A2992 RMK AO2 SLP132 T00670061 $=
201611061253 METAR KCLM 061253Z AUTO 20003KT 9SM OVC060 08/07 A2990 RMK AO2 SLP126 T00830072 $=
201611061153 METAR KCLM 061153Z AUTO 23004KT 10SM SCT070 BKN085 OVC110 08/07 A2989 RMK AO2 SLP123 60000 70064 T00830072 10106 20078 51013 $=
201611061053 METAR KCLM 061053Z AUTO 18003KT 10SM SCT022 BKN100 08/07 A2988 RMK AO2 SLP120 T00830072 $=
201611061029 SPECI KCLM 061029Z AUTO 24003KT 6SM BR FEW022 SCT027 SCT036 08/07 A2988 RMK AO2 T00830072 $=
201611061008 SPECI KCLM 061008Z AUTO 00000KT 10SM FEW016 SCT024 BKN029 09/08 A2987 RMK AO2 T00940078 $=
201611060953 METAR KCLM 060953Z AUTO 00000KT 10SM FEW017 SCT029 BKN100 10/08 A2987 RMK AO2 RAE07 SLP114 P0000 T01000078 $=
201611060853 METAR KCLM 060853Z AUTO 25003KT 10SM -RA BKN055 BKN070 OVC080 10/08 A2985 RMK AO2 RAB43 SLP109 P0000 60000 T01000083 53007 $=
201611060753 METAR KCLM 060753Z AUTO 20004KT 10SM FEW017 FEW065 BKN100 09/08 A2983 RMK AO2 SLP103 T00940078 401330089 $=
201611060700 SPECI KCLM 060700Z AUTO 24005KT 10SM SCT025 SCT032 OVC085 10/08 A2983 RMK AO2 T01000083 $=
201611060653 METAR KCLM 060653Z AUTO 24003KT 10SM BKN023 BKN032 OVC090 11/09 A2983 RMK AO2 SLP103 T01060089 $=
201611060606 SPECI KCLM 060606Z AUTO 00000KT 10SM BKN016 OVC070 10/09 A2983 RMK AO2 T01000089 $=
201611060553 METAR KCLM 060553Z AUTO 22004KT 10SM FEW015 BKN070 OVC090 11/09 A2983 RMK AO2 RAE07 SLP102 P0000 60001 T01060089 10128 20100 53007 $=
201611060453 METAR KCLM 060453Z AUTO 22004KT 10SM -RA OVC065 11/09 A2981 RMK AO2 RAB35 SLP097 P0000 T01060089 $=
201611060353 METAR KCLM 060353Z AUTO 23003KT 10SM SCT019 BKN085 OVC110 11/09 A2980 RMK AO2 SLP093 T01060094 $=
201611060253 METAR KCLM 060253Z AUTO 21003KT 10SM FEW065 OVC090 11/10 A2981 RMK AO2 RAB22E38 SLP095 P0001 60001 T01110100 55001 $=
201611060232 SPECI KCLM 060232Z AUTO 16003KT 10SM -RA SCT027 BKN060 OVC085 12/11 A2981 RMK AO2 RAB22 P0001 T01170106 $=
201611060203 SPECI KCLM 060203Z AUTO 27003KT 7SM BKN023 BKN029 OVC060 11/10 A2980 RMK AO2 T01110100 $=
201611060153 METAR KCLM 060153Z AUTO 00000KT 2 1/2SM BR BKN023 OVC060 11/11 A2980 RMK AO2 VIS 1V4 SLP092 T01110106 $=
201611060149 SPECI KCLM 060149Z AUTO 00000KT 2 1/2SM BR BKN021 OVC060 12/11 A2980 RMK AO2 VIS 1V4 $=
201611060145 SPECI KCLM 060145Z AUTO 00000KT 2 1/2SM BR SCT021 BKN060 11/11 A2980 RMK AO2 T01110106 $=
201611060137 SPECI KCLM 060137Z AUTO 23003KT 1 3/4SM BR BKN060 11/11 A2980 RMK AO2 VIS 1V4 T01110106 $=
201611060053 METAR KCLM 060053Z AUTO 15003KT 7SM CLR 12/11 A2980 RMK AO2 SLP091 T01170106 $=
201611052353 METAR KCLM 052353Z AUTO 00000KT 8SM FEW005 BKN060 12/11 A2981 RMK AO2 RAE40 SLP095 P0000 60024 T01220111 10133 20122 53002 $=
201611052333 SPECI KCLM 052333Z AUTO 00000KT 5SM -RA BR FEW005 SCT037 OVC055 13/12 A2980 RMK AO2 P0000 T01280117 $=
201611052306 SPECI KCLM 052306Z AUTO 14004KT 9SM -RA SCT012 BKN050 OVC065 13/11 A2981 RMK AO2 P0000 T01280111 $=
201611052259 SPECI KCLM 052259Z AUTO 00000KT 2 1/2SM -RA BR FEW003 BKN030 OVC065 13/11 A2980 RMK AO2 P0000 T01280111 $=
201611052253 METAR KCLM 052253Z AUTO 00000KT 3SM -RA BR FEW003 BKN011 OVC031 12/12 A2980 RMK AO2 SLP093 P0005 T01220117 $=
201611052250 SPECI KCLM 052250Z AUTO 00000KT 4SM -RA BR FEW003 BKN011 OVC031 12/11 A2980 RMK AO2 P0005 $=
201611052228 SPECI KCLM 052228Z AUTO 00000KT 3SM -RA BR OVC006 12/12 A2981 RMK AO2 P0003 T01220117 $=
201611052225 SPECI KCLM 052225Z AUTO 00000KT 2 1/2SM -RA BR OVC004 12/12 A2981 RMK AO2 P0003 T01220117 $=
201611052205 SPECI KCLM 052205Z AUTO 00000KT 4SM -RA BR BKN003 OVC011 12/12 A2981 RMK AO2 P0000 T01220117 $=
201611052153 METAR KCLM 052153Z AUTO 00000KT 3SM -RA BR SCT003 BKN007 OVC010 13/12 A2981 RMK AO2 SLP093 P0009 T01280117 $=
201611052148 SPECI KCLM 052148Z AUTO 00000KT 2 1/2SM -RA BR BKN005 OVC012 13/12 A2981 RMK AO2 P0008 $=
201611052138 SPECI KCLM 052138Z AUTO 00000KT 1 3/4SM -RA BR BKN005 OVC016 13/12 A2980 RMK AO2 P0008 T01280117 $=
201611052128 SPECI KCLM 052128Z AUTO 00000KT 1 3/4SM -RA BR OVC003 13/12 A2980 RMK AO2 P0006 T01280117 $=
201611052119 SPECI KCLM 052119Z AUTO 00000KT 3SM -RA BR BKN003 OVC007 12/12 A2980 RMK AO2 P0004 T01220117 $=
201611052114 SPECI KCLM 052114Z AUTO 00000KT 1 3/4SM -RA BR BKN003 OVC007 12/12 A2980 RMK AO2 P0004 T01220117 $=
201611052053 METAR KCLM 052053Z AUTO 01003KT 3/4SM -RA BR VV002 12/12 A2980 RMK AO2 RAE31B38 SLPNO P0005 60010 T01220117 58004 $=
201611052039 SPECI KCLM 052039Z AUTO 00000KT 1/2SM -RA FG BKN002 OVC006 13/12 A2980 RMK AO2 RAE31B38 P0003 T01280117 $=
201611052031 SPECI KCLM 052031Z AUTO 36003KT 1 1/2SM BR BKN003 OVC016 13/12 A2980 RMK AO2 RAE31 P0003 T01280117 $=
201611052024 SPECI KCLM 052024Z AUTO 35004KT 5SM -RA BR BKN003 BKN007 OVC016 13/12 A2980 RMK AO2 CIG 001V005 P0003 T01280117 $=
201611052003 SPECI KCLM 052003Z AUTO 15003KT 3SM -RA BR FEW004 OVC015 13/12 A2981 RMK AO2 P0002 T01280117 $=
201611051953 METAR KCLM 051953Z AUTO 00000KT 4SM -RA BR FEW004 SCT008 OVC014 13/12 A2981 RMK AO2 SLP094 P0005 T01280117 $=
201611051948 SPECI KCLM 051948Z AUTO 00000KT 4SM -RA BR SCT004 SCT008 OVC014 13/12 A2981 RMK AO2 P0005 $=
201611051929 SPECI KCLM 051929Z AUTO 00000KT 3SM -RA BR BKN002 OVC006 13/12 A2982 RMK AO2 P0002 T01280117 $=
201611051920 SPECI KCLM 051920Z AUTO 00000KT 1 1/2SM -RA BR OVC002 13/12 A2982 RMK AO2 P0002 T01280117 $=
201611051903 SPECI KCLM 051903Z AUTO 00000KT 3/4SM -RA BR VV002 13/12 A2982 RMK AO2 P0000 T01280117 $=
201611051853 METAR KCLM 051853Z AUTO 00000KT 1/4SM -RA FG VV002 13/12 A2982 RMK AO2 RAB49 SLP098 P0000 T01280122 $=
201611051810 SPECI KCLM 051810Z AUTO 31005KT 1/4SM FG VV002 13/12 A2983 RMK AO2 T01280117 $=
201611051801 SPECI KCLM 051801Z AUTO 30005KT 1 3/4SM BR OVC003 13/12 A2982 RMK AO2 VIS 1V5 T01280117 $=
201611051753 METAR KCLM 051753Z AUTO 31006KT 8SM OVC003 13/12 A2981 RMK AO2 SLP095 60039 T01330117 10133 20122 57001 $=
201611051712 SPECI KCLM 051712Z AUTO 29005KT 10SM BKN004 OVC014 13/12 A2981 RMK AO2 T01330117 $=
201611051653 METAR KCLM 051653Z AUTO 00000KT 10SM SCT005 BKN014 OVC065 13/12 A2981 RMK AO2 RAB1556E24 SLP095 P0000 T01280122 $=
201611051553 METAR KCLM 051553Z AUTO 30004KT 10SM BKN005 BKN015 OVC100 12/11 A2982 RMK AO2 RAE37 SLP098 P0004 T01220106 $=
201611051549 SPECI KCLM 051549Z AUTO 28005KT 10SM SCT005 BKN015 OVC100 12/11 A2982 RMK AO2 RAE37 P0002 $=
201611051535 SPECI KCLM 051535Z AUTO 00000KT 10SM -RA SCT006 BKN070 OVC100 12/12 A2981 RMK AO2 P0002 T01220117 $=
201611051453 METAR KCLM 051453Z AUTO 11008KT 9SM -RA SCT055 BKN090 OVC100 12/11 A2980 RMK AO2 SLP093 P0009 60035 T01220111 58021 $=
201611051353 METAR KCLM 051353Z AUTO 00000KT 10SM -RA FEW041 OVC080 13/12 A2984 RMK AO2 SLP106 P0004 T01280117 $=
201611051253 METAR KCLM 051253Z AUTO 14005KT 4SM -RA BR SCT017 BKN033 OVC070 12/11 A2986 RMK AO2 SLP112 P0022 T01220111 $=
201611051229 SPECI KCLM 051229Z AUTO 00000KT 3SM RA BR FEW008 OVC016 12/11 A2987 RMK AO2 P0015 T01220111 $=
201611051153 METAR KCLM 051153Z AUTO 00000KT 4SM RA BR BKN008 OVC047 12/12 A2987 RMK AO2 SLP114 P0018 6//// 7//// T01220117 51010 $=
201611051108 SPECI KCLM 051108Z AUTO 00000KT 4SM -RA BR BKN008 OVC060 12/11 A2986 RMK AO2 P0003 T01220111 $=
201611051053 METAR KCLM 051053Z AUTO 00000KT 4SM -RA BR FEW008 BKN065 OVC075 12/11 A2986 RMK AO2 SLP112 P0014 T01220111 $=
201611050953 METAR KCLM 050953Z AUTO 27004KT 4SM -RA BR 12/11 A2985 RMK AO2 RAB31 SLP108 P0003 T01220111 $=
201611050853 METAR KCLM 050853Z AUTO A2983 RMK AO2 SLPNO 6//// PWINO FZRANO $=
201611050753 METAR KCLM 050753Z AUTO 14/10 A2983 RMK AO2 RAB12RAEMM SLP102 P0002 T01440100 401940033 PWINO $=
201611050653 METAR KCLM 050653Z AUTO VRB04G20KT 10SM 19/06 A2981 RMK AO2 PK WND 23038/0641 RAB09E19 SLP095 P0000 T01890056 $=
201611050553 METAR KCLM 050553Z AUTO VRB03G22KT 10SM SCT055 SCT090 17/07 A2983 RMK AO2 RAB0454E08B30E43 SLP100 P0000 60002 T01670067 10189 20100 58017 $=
201611050453 METAR KCLM 050453Z AUTO 36005KT 10SM SCT060 SCT075 13/08 A2985 RMK AO2 RAB23E41 SLP108 P0002 T01280078 $=
201611050353 METAR KCLM 050353Z AUTO 00000KT 10SM FEW100 11/07 A2988 RMK AO2 RAB00E21 SLP120 P0000 T01060072 $=
201611050253 METAR KCLM 050253Z AUTO 13004KT 10SM BKN110 12/07 A2988 RMK AO2 PRESFR SLP119 60000 T01170067 55020 $=
201611050153 METAR KCLM 050153Z AUTO 24004KT 10SM FEW090 11/07 A2985 RMK AO2 PRESFR SLP109 T01060072 $=
201611050053 METAR KCLM 050053Z AUTO VRB05KT 10SM CLR 12/07 A2992 RMK AO2 RAE2359 PRESRR SLP131 P0000 T01170072 $=
201611042353 METAR KCLM 042353Z AUTO VRB05KT 10SM -RA FEW080 SCT090 BKN110 11/08 A2994 RMK AO2 RAB48 SLP138 P0000 60000 T01110078 10122 20106 55010 $=
201611042253 METAR KCLM 042253Z AUTO 32003KT 10SM CLR 12/08 A2989 RMK AO2 PRESFR SLP122 T01170078 $=
201611042153 METAR KCLM 042153Z AUTO 08004KT 10SM CLR 12/08 A2991 RMK AO2 PRESFR SLP130 T01170078 $=
201611042053 METAR KCLM 042053Z AUTO VRB04KT 10SM CLR 12/08 A2997 RMK AO2 SLP149 T01170078 56009 $=
201611041953 METAR KCLM 041953Z AUTO 00000KT 10SM CLR 12/08 A2997 RMK AO2 SLP149 T01170078 $=
201611041853 METAR KCLM 041853Z AUTO 09003KT 10SM CLR 12/08 A2998 RMK AO2 SLP154 T01170078 $=
201611041753 METAR KCLM 041753Z AUTO 00000KT 10SM CLR 11/07 A2999 RMK AO2 SLP158 T01060072 10106 20033 51001 $=
201611041653 METAR KCLM 041653Z AUTO 24005KT 10SM CLR 09/07 A2999 RMK AO2 SLP158 T00890067 $=
201611041553 METAR KCLM 041553Z AUTO 23004KT 10SM CLR 06/04 A2999 RMK AO2 SLP158 T00560044 $=
201611041453 METAR KCLM 041453Z AUTO 00000KT 10SM CLR 04/03 A2999 RMK AO2 SLP157 T00390033 55005 $=
201611041353 METAR KCLM 041353Z AUTO 22004KT 10SM CLR 04/02 A2999 RMK AO2 SLP157 T00390022 $=
201611041253 METAR KCLM 041253Z AUTO VRB03KT 10SM CLR 04/02 A3000 RMK AO2 SLP160 T00440022 $=
201611041153 METAR KCLM 041153Z AUTO 21003KT 10SM CLR 06/02 A3001 RMK AO2 SLP162 T00560022 10078 20033 58016 $=
201611041053 METAR KCLM 041053Z AUTO VRB05KT 10SM CLR 06/02 A3001 RMK AO2 SLP165 T00610017 $=
201611040953 METAR KCLM 040953Z AUTO 25004KT 10SM CLR 06/02 A3004 RMK AO2 SLP175 T00560017 $=
201611040853 METAR KCLM 040853Z AUTO 27005KT 10SM CLR 04/02 A3005 RMK AO2 SLP178 T00390022 56018 $=
201611040753 METAR KCLM 040753Z AUTO 16004KT 10SM CLR 03/02 A3005 RMK AO2 SLP179 T00330017 401560033 $=
201611040653 METAR KCLM 040653Z AUTO 00000KT 10SM CLR 04/03 A3008 RMK AO2 SLP186 T00440028 $=
201611040553 METAR KCLM 040553Z AUTO 19004KT 10SM CLR 05/03 A3011 RMK AO2 SLP196 T00500033 10128 20044 56005 $=
201611040453 METAR KCLM 040453Z AUTO 21005KT 10SM CLR 06/04 A3011 RMK AO2 SLP197 T00610039 $=
201611040353 METAR KCLM 040353Z AUTO VRB03KT 10SM CLR 07/04 A3011 RMK AO2 SLP198 T00720044 $=
201611040253 METAR KCLM 040253Z AUTO 22008KT 10SM CLR 09/06 A3012 RMK AO2 SLP201 T00940061 56011 $=
201611040153 METAR KCLM 040153Z AUTO 25006KT 10SM CLR 10/07 A3013 RMK AO2 SLP203 T01000067 $=
201611040053 METAR KCLM 040053Z AUTO 24003KT 10SM CLR 11/07 A3013 RMK AO2 SLP205 T01060072 $=
201611032353 METAR KCLM 032353Z AUTO 00000KT 10SM CLR 13/08 A3015 RMK AO2 SLP212 T01280078 10156 20111 58017 $=
201611032253 METAR KCLM 032253Z AUTO 00000KT 10SM CLR 16/07 A3017 RMK AO2 SLP219 T01560067 $=
201611032153 METAR KCLM 032153Z AUTO 10003KT 10SM CLR 14/08 A3019 RMK AO2 SLP223 T01390083 $=
201611032053 METAR KCLM 032053Z AUTO 00000KT 10SM CLR 14/09 A3020 RMK AO2 SLP229 T01440094 58003 $=
201611032015 SPECI KCLM 032015Z AUTO 00000KT 10SM SCT004 12/09 A3023 RMK AO2 T01220094 $=
201611031953 METAR KCLM 031953Z AUTO 36004KT 10SM BKN004 12/09 A3024 RMK AO2 SLP240 T01170094 $=
201611031927 SPECI KCLM 031927Z AUTO 35005KT 10SM BKN004 11/09 A3023 RMK AO2 T01110089 $=
201611031853 METAR KCLM 031853Z AUTO VRB05KT 5SM HZ FEW001 12/09 A3022 RMK AO2 SLP236 T01170089 $=
201611031753 METAR KCLM 031753Z AUTO 01003KT 10SM CLR 13/09 A3021 RMK AO2 SLP231 T01280089 10139 20056 50009 $=
201611031653 METAR KCLM 031653Z AUTO 00000KT 10SM CLR 12/08 A3022 RMK AO2 SLP235 T01170078 $=
201611031553 METAR KCLM 031553Z AUTO 00000KT 10SM CLR 07/06 A3020 RMK AO2 SLP227 T00670061 $=
201611031453 METAR KCLM 031453Z AUTO VRB03KT 10SM CLR 06/04 A3019 RMK AO2 SLP223 T00560039 51010 $=
201611031353 METAR KCLM 031353Z AUTO 22005KT 10SM CLR 07/06 A3018 RMK AO2 SLP222 T00720061 $=
201611031313 SPECI KCLM 031313Z AUTO 27007KT 10SM SCT003 09/07 A3019 RMK AO2 T00890072 $=
201611031253 METAR KCLM 031253Z AUTO 29007KT 10SM CLR 08/06 A3018 RMK AO2 SLP222 T00780056 $=
201611031153 METAR KCLM 031153Z AUTO 06006KT 9SM CLR 07/06 A3016 RMK AO2 SLP213 60002 70034 T00670056 10122 20056 50007 $=
201611031111 SPECI KCLM 031111Z AUTO 00000KT 7SM FEW006 06/05 A3016 RMK AO2 T00610050 $=
201611031053 METAR KCLM 031053Z AUTO 17003KT 10SM FEW060 07/06 A3017 RMK AO2 SLP217 T00720056 $=
201611030953 METAR KCLM 030953Z AUTO 24005KT 10SM FEW065 08/06 A3015 RMK AO2 SLP211 T00780061 $=
201611030853 METAR KCLM 030853Z AUTO 26009KT 10SM FEW070 09/07 A3013 RMK AO2 SLP205 60002 T00890067 53021 $=
201611030753 METAR KCLM 030753Z AUTO VRB04KT 10SM FEW060 11/07 A3011 RMK AO2 SLP198 T01110072 401440083 $=
201611030653 METAR KCLM 030653Z AUTO 34005KT 10SM SCT110 11/08 A3007 RMK AO2 RAE27 SLP183 P0002 T01060083 $=
201611030553 METAR KCLM 030553Z AUTO 18006KT 10SM -RA BKN065 OVC085 12/08 A3007 RMK AO2 SLP184 P0002 60006 T01220078 10144 20111 51039 $=
201611030453 METAR KCLM 030453Z AUTO 27011KT 10SM -RA SCT065 BKN075 OVC100 12/09 A3005 RMK AO2 SLP177 P0002 T01220094 $=
201611030353 METAR KCLM 030353Z AUTO 28005KT 10SM -RA BKN034 BKN045 OVC060 12/09 A3000 RMK AO2 SLP160 P0002 T01170094 $=
201611030253 METAR KCLM 030253Z AUTO 29006KT 10SM -RA BKN060 OVC075 12/09 A2996 RMK AO2 RAB06 PRESRR SLP145 P0000 60000 T01170089 53030 $=
201611030153 METAR KCLM 030153Z AUTO 25006KT 10SM BKN065 OVC080 12/08 A2988 RMK AO2 SLP120 T01220083 $=
201611030053 METAR KCLM 030053Z AUTO VRB03KT 10SM SCT060 BKN075 12/09 A2987 RMK AO2 SLP117 T01220089 $=
201611022353 METAR KCLM 022353Z AUTO 00000KT 10SM FEW060 OVC080 12/11 A2986 RMK AO2 RAE53 SLP114 P0000 60004 T01220106 10128 20111 55007 $=
201611022253 METAR KCLM 022253Z AUTO 28004KT 7SM -RA OVC090 12/10 A2986 RMK AO2 RAE01B08 SLP113 P0002 T01220100 $=
201611022208 SPECI KCLM 022208Z AUTO 31005KT 9SM -RA SCT007 SCT048 OVC090 12/10 A2987 RMK AO2 RAE01B08 P0000 T01220100 $=
201611022201 SPECI KCLM 022201Z AUTO 31006KT 10SM BKN006 OVC085 12/10 A2987 RMK AO2 RAE01 P0000 T01220100 $=
201611022153 METAR KCLM 022153Z AUTO 32005KT 10SM -RA SCT006 BKN049 OVC080 12/10 A2986 RMK AO2 RAE09B27 SLP112 P0000 T01220100 $=
201611022053 METAR KCLM 022053Z AUTO 00000KT 8SM -RA FEW005 BKN060 OVC075 12/10 A2989 RMK AO2 RAE34B50 SLP121 P0000 60002 T01220100 51003 $=
201611021953 METAR KCLM 021953Z AUTO 35005KT 10SM -RA SCT005 BKN070 OVC080 12/10 A2989 RMK AO2 SLP121 P0002 T01220100 $=
201611021932 SPECI KCLM 021932Z AUTO 33004KT 7SM -RA SCT004 BKN070 OVC100 12/11 A2988 RMK AO2 P0000 T01220106 $=
201611021853 METAR KCLM 021853Z AUTO 04004KT 4SM -RA BR BKN002 OVC055 12/11 A2988 RMK AO2 RAE19B23 SLP120 P0000 T01220111 $=
201611021829 SPECI KCLM 021829Z AUTO 00000KT 6SM -RA BR BKN002 BKN046 OVC070 11/10 A2989 RMK AO2 RAE19B23 P0000 T01110100 $=
201611021819 SPECI KCLM 021819Z AUTO 00000KT 6SM BR SCT002 BKN048 OVC075 12/11 A2988 RMK AO2 RAE19 P0000 T01170106 $=
201611021753 METAR KCLM 021753Z AUTO 02004KT 6SM -RA BR BKN070 OVC090 12/11 A2988 RMK AO2 RAE1658B29 SLP118 P0000 60022 T01170106 10122 20089 53004 $=
201611021713 SPECI KCLM 021713Z AUTO 00000KT 5SM BR FEW002 OVC070 11/10 A2987 RMK AO2 RAE1658 P0000 T01110100 $=
201611021653 METAR KCLM 021653Z AUTO 00000KT 4SM -RA BR FEW050 OVC070 11/09 A2987 RMK AO2 RAE19B44 SLP114 P0002 T01060094 $=
201611021628 SPECI KCLM 021628Z AUTO 00000KT 2 1/2SM BR FEW001 OVC070 10/09 A2985 RMK AO2 RAE19 P0002 T01000089 $=
201611021553 METAR KCLM 021553Z AUTO 00000KT 4SM -RA BR BKN070 OVC090 10/09 A2986 RMK AO2 SLP111 P0006 T01000089 $=
201611021453 METAR KCLM 021453Z AUTO 00000KT 5SM -RA BR OVC080 09/09 A2986 RMK AO2 SLP114 P0010 60014 T00940089 55011 $=
201611021406 SPECI KCLM 021406Z AUTO 00000KT 7SM -RA SCT003 BKN060 OVC095 09/08 A2986 RMK AO2 P0000 T00940083 $=
201611021353 METAR KCLM 021353Z AUTO 15003KT 6SM -RA BR BKN003 BKN020 OVC100 09/08 A2986 RMK AO2 SLP111 P0004 T00890078 $=
201611021300 SPECI KCLM 021300Z AUTO 00000KT 5SM -RA BR BKN004 BKN070 OVC080 09/08 A2988 RMK AO2 P0002 T00890078 $=
201611021253 METAR KCLM 021253Z AUTO 25003KT 6SM -RA BR SCT004 BKN020 OVC070 09/08 A2989 RMK AO2 RAB18 SLP121 P0000 T00890078 $=
201611021231 SPECI KCLM 021231Z AUTO 22003KT 9SM -RA FEW004 BKN060 OVC075 09/07 A2989 RMK AO2 RAB18 P0000 T00890072 $=
201611021153 METAR KCLM 021153Z AUTO 00000KT 10SM FEW060 BKN110 09/08 A2990 RMK AO2 RAB28E49 SLP125 P0000 60000 70006 T00890078 10100 20083 58019 $=
201611021053 METAR KCLM 021053Z AUTO 00000KT 10SM OVC065 09/07 A2993 RMK AO2 SLP135 T00890072 $=
201611020953 METAR KCLM 020953Z AUTO 00000KT 9SM OVC065 09/08 A2995 RMK AO2 SLP141 T00890078 $=
201611020915 SPECI KCLM 020915Z AUTO 00000KT 7SM SCT005 OVC065 09/08 A2995 RMK AO2 T00890078 $=
201611020853 METAR KCLM 020853Z AUTO 00000KT 10SM OVC005 09/08 A2995 RMK AO2 SLP144 T00940083 53004 $=
201611020753 METAR KCLM 020753Z AUTO 24004KT 10SM OVC007 09/08 A2995 RMK AO2 CIG 004V010 SLP143 T00940083 401220078 $=
201611020739 SPECI KCLM 020739Z AUTO 24004KT 9SM BKN007 OVC060 09/08 A2995 RMK AO2 T00890078 $=
201611020703 SPECI KCLM 020703Z AUTO 22004KT 7SM FEW005 SCT060 BKN100 09/08 A2994 RMK AO2 T00890078 $=
201611020653 METAR KCLM 020653Z AUTO 27003KT 8SM BKN005 BKN060 OVC120 09/08 A2994 RMK AO2 CIG 004V017 SLP139 T00890083 $=
201611020650 SPECI KCLM 020650Z AUTO 00000KT 8SM SCT005 BKN060 OVC110 09/08 A2994 RMK AO2 $=
201611020638 SPECI KCLM 020638Z AUTO 00000KT 7SM BKN005 BKN070 OVC120 09/08 A2994 RMK AO2 T00890078 $=
201611020553 METAR KCLM 020553Z AUTO 25003KT 10SM OVC003 09/09 A2994 RMK AO2 SLP140 60002 T00940089 10106 20094 51005 $=
201611020501 SPECI KCLM 020501Z AUTO 15003KT 7SM BKN002 OVC120 09/08 A2995 RMK AO2 T00940083 $=
201611020453 METAR KCLM 020453Z AUTO 00000KT 7SM SCT002 BKN120 09/08 A2994 RMK AO2 SLP140 T00940083 $=
201611020450 SPECI KCLM 020450Z AUTO 00000KT 8SM SCT002 BKN120 09/08 A2995 RMK AO2 $=
201611020353 METAR KCLM 020353Z AUTO 00000KT 10SM SCT075 OVC095 10/08 A2993 RMK AO2 RAB21E53 SLP135 P0000 T01000083 $=
201611020253 METAR KCLM 020253Z AUTO 00000KT 10SM BKN060 OVC090 10/09 A2994 RMK AO2 RAE00 SLP140 P0000 60002 T01000089 53012 $=
201611020153 METAR KCLM 020153Z AUTO 12008KT 10SM -RA FEW050 BKN080 OVC100 10/09 A2989 RMK AO2 SLP122 P0000 T01000089 $=
201611020107 SPECI KCLM 020107Z AUTO 19003KT 10SM -RA SCT006 BKN060 OVC080 11/09 A2994 RMK AO2 P0000 T01060089 $=
201611020053 METAR KCLM 020053Z AUTO 00000KT 9SM -RA BKN006 BKN010 OVC060 11/09 A2994 RMK AO2 RAB36 SLP139 P0002 T01060094 $=
201611020019 SPECI KCLM 020019Z AUTO 00000KT 10SM BKN005 OVC010 11/09 A2993 RMK AO2 T01060094 $=
201611020009 SPECI KCLM 020009Z AUTO 00000KT 10SM OVC004 11/09 A2991 RMK AO2 T01060094 $=
201611012353 METAR KCLM 012353Z AUTO 00000KT 10SM OVC005 11/09 A2991 RMK AO2 RAB13E47 CIG 003V008 SLP128 P0000 60000 T01060089 10122 20106 53002 $=
201611012346 SPECI KCLM 012346Z AUTO 03003KT 10SM -RA OVC005 11/09 A2990 RMK AO2 RAB13 CIG 003V008 P0000 T01060094 $=
201611012338 SPECI KCLM 012338Z AUTO 00000KT 10SM -RA OVC003 11/09 A2991 RMK AO2 RAB13 CIG 003V008 P0000 T01060094 $=
201611012324 SPECI KCLM 012324Z AUTO 00000KT 10SM -RA BKN007 BKN060 OVC075 11/09 A2991 RMK AO2 RAB13 P0000 T01060089 $=
201611012253 METAR KCLM 012253Z AUTO 33006KT 10SM SCT007 BKN060 OVC070 11/09 A2990 RMK AO2 RAB31E50 SLP127 P0000 T01110089 $=
201611012236 SPECI KCLM 012236Z AUTO 01004KT 10SM -RA SCT007 OVC065 11/09 A2989 RMK AO2 RAB31 P0000 T01110089 $=
201611012224 SPECI KCLM 012224Z AUTO 29004KT 10SM BKN007 BKN075 11/09 A2990 RMK AO2 T01110089 $=
201611012204 SPECI KCLM 012204Z AUTO 32005KT 10SM SCT006 BKN060 BKN075 11/09 A2990 RMK AO2 T01110089 $=
201611012153 METAR KCLM 012153Z AUTO 33003KT 10SM BKN065 BKN075 11/09 A2990 RMK AO2 SLP126 T01110089 $=
201611012053 METAR KCLM 012053Z AUTO 00000KT 10SM OVC070 12/08 A2990 RMK AO2 SLP124 60000 T01170083 51012 $=
201611011953 METAR KCLM 011953Z AUTO 35004KT 10SM SCT055 BKN070 12/07 A2989 RMK AO2 RAB18E38 SLP121 P0000 T01170072 $=
201611011853 METAR KCLM 011853Z AUTO 34003KT 10SM OVC070 11/07 A2988 RMK AO2 SLP118 T01110072 $=
201611011753 METAR KCLM 011753Z AUTO 04003KT 10SM SCT055 SCT090 12/08 A2986 RMK AO2 SLP112 60004 T01220078 10122 20078 50005 $=
201611011653 METAR KCLM 011653Z AUTO 00000KT 10SM OVC065 11/08 A2986 RMK AO2 SLP113 T01110078 $=
201611011553 METAR KCLM 011553Z AUTO 00000KT 10SM BKN070 09/08 A2985 RMK AO2 SLP108 T00890078 $=
201611011453 METAR KCLM 011453Z AUTO 00000KT 10SM FEW060 FEW070 BKN100 08/06 A2985 RMK AO2 RAE1357 SLP107 P0000 60004 T00780061 51005 $=
201611011353 METAR KCLM 011353Z AUTO 00000KT 10SM -RA OVC055 08/07 A2985 RMK AO2 SLP107 P0002 T00830072 $=
201611011253 METAR KCLM 011253Z AUTO 22006KT 10SM -RA OVC060 09/07 A2983 RMK AO2 RAE16B33 SLP104 P0002 T00890067 $=
201611011153 METAR KCLM 011153Z AUTO 17006KT 9SM -RA OVC049 09/07 A2983 RMK AO2 SLP102 P0004 60008 70018 T00890072 10106 20089 51008=
201611011053 METAR KCLM 011053Z AUTO 25007KT 10SM -RA OVC055 09/06 A2983 RMK AO2 RAE01B24 SLP102 P0002 T00890061=
201611010953 METAR KCLM 010953Z AUTO 25005KT 10SM -RA OVC055 09/06 A2982 RMK AO2 RAE0856B20 SLP098 P0000 T00890061=
201611010853 METAR KCLM 010853Z AUTO 23005KT 10SM -RA OVC055 09/07 A2981 RMK AO2 SLP094 P0002 60002 T00890067 50004=
201611010753 METAR KCLM 010753Z AUTO 22004KT 10SM -RA OVC070 09/07 A2981 RMK AO2 RAB06 SLP095 P0000 T00940067 401330094=
201611010653 METAR KCLM 010653Z AUTO 32003KT 10SM BKN070 OVC090 10/08 A2981 RMK AO2 RAB34E45 SLP094 P0000 T01000078=
201611010553 METAR KCLM 010553Z AUTO 20004KT 10SM FEW060 OVC080 10/08 A2979 RMK AO2 SLP090 T01000083 10122 20094 53000=
201611010453 METAR KCLM 010453Z AUTO 34005KT 10SM OVC070 11/08 A2978 RMK AO2 SLP086 T01060083=
201611010353 METAR KCLM 010353Z AUTO 24004KT 10SM OVC100 10/07 A2979 RMK AO2 SLP089 T01000072=
201611010253 METAR KCLM 010253Z AUTO 16004KT 10SM FEW024 OVC100 11/08 A2979 RMK AO2 SLP090 T01110083 53002=
201611010153 METAR KCLM 010153Z AUTO 13003KT 10SM BKN038 BKN110 11/08 A2979 RMK AO2 SLP089 T01110083=
201611010053 METAR KCLM 010053Z AUTO 12006KT 10SM CLR 12/08 A2979 RMK AO2 SLP087 T01170083=

# No short TAF reports from KCLM in databse.

###################################
#  large TAF from KCLM
###################################
201611302324 TAF KCLM 302324Z 0100/0124 27014G24KT P6SM FEW035 BKN045 BKN090
                       FM010800 28012KT P6SM SCT025 BKN040 FM011800
                       VRB04KT P6SM BKN020 OVC040=
201611301720 TAF KCLM 301720Z 3018/0118 25012KT P6SM -SHRA FEW020 OVC040
                      TEMPO 3018/3021 4SM -SHRA BR OVC020 FM302200
                       28015G28KT P6SM SCT025 BKN045 FM010600 28012KT
                       P6SM SCT025 BKN040=
201611301121 TAF KCLM 301121Z 3012/0112 28007KT P6SM -SHRA SCT025 OVC045
                      TEMPO 3012/3016 BKN025 OVC040 FM301600 28014G24KT
                       P6SM -SHRA BKN025 BKN040 FM302200 28015G28KT
                       P6SM VCSH SCT025 BKN045 FM010600 28012KT
                       P6SM SCT025 BKN040=
201611300905 KCLM 300905Z 3009/0106 28007KT P6SM -RA SCT025 OVC045
                      TEMPO 3009/3013 BKN025 OVC040 FM301500 28014G24KT
                       P6SM -SHRA BKN025 BKN040 FM302200 28012G22KT
                       P6SM VCSH SCT025 BKN045=
201611300615 KCLM 300615Z 3006/0106 28007KT P6SM -RA BKN025 OVC040 FM301500
                       28014G24KT P6SM -SHRA BKN025 BKN040 FM302200
                       28012G22KT P6SM VCSH SCT025 BKN045=
201611292334 TAF KCLM 292334Z 3000/3024 01003KT P6SM OVC090 FM300200 00000KT
                       P6SM SCT025 OVC070 FM300600 25007G19KT P6SM
                       -RA BKN015 OVC030 FM301800 28017G24KT P6SM
                       VCSH BKN015 BKN120=
201611291733 TAF KCLM 291733Z 2918/3018 25004KT P6SM OVC110 FM292100 03004KT
                       P6SM SCT025 OVC045 FM300600 24004KT P6SM
                       -RA BKN015 OVC030 FM301200 26008G16KT P6SM
                       VCSH BKN015 OVC030=
201611291120 TAF KCLM 291120Z 2912/3012 VRB03KT P6SM SCT005 SCT030 BKN045
                      TEMPO 2912/2916 5SM BR BKN005 OVC025 FM291600
                       VRB03KT P6SM BKN025 OVC045 FM292100 06004KT
                       P6SM BKN035 OVC050 FM300600 07006KT 6SM
                       -RA OVC030 FM301000 28010KT P6SM -SHRA OVC025=
201611291011 KCLM 291011Z 2910/3006 VRB03KT P6SM BKN020 OVC045
                      TEMPO 2912/2916 BKN030 OVC045 FM292100 06004KT
                       P6SM OVC050=
201611290522 TAF KCLM 290522Z 2906/3006 VRB03KT P6SM SCT030 OVC050
                      TEMPO 2912/2916 BKN030 OVC045 FM292100 06004KT
                       P6SM OVC050=
201611282325 TAF KCLM 282325Z 2900/2924 29008KT P6SM OVC040 FM290800 VRB03KT
                       P6SM SCT030 OVC040 FM292100 06004KT P6SM
                       OVC060=
201611281721 TAF KCLM 281721Z 2818/2918 25008KT P6SM BKN035 OVC100 FM282000
                       26008KT P6SM SCT035 BKN060 FM290800 VRB03KT
                       P6SM SCT030 BKN050=
201611281138 TAF KCLM 281138Z 2812/2912 26012KT P6SM SCT050 FM282000 26008KT
                       P6SM SCT030 BKN050 FM290800 VRB03KT P6SM
                       SCT030 BKN050=
201611280546 TAF KCLM 280546Z 2806/2906 26015G25KT P6SM SCT070 FM281500 28012KT
                       P6SM SCT025 BKN040=
201611272324 TAF KCLM 272324Z 2800/2824 00000KT P6SM -RA BKN050 BKN070 OVC090
                       FM280500 26015G25KT P6SM VCSH SCT020 BKN070
                       FM281800 28013KT P6SM BKN035=
201611271744 TAF KCLM 271744Z 2718/2818 26005KT P6SM VCSH OVC060 FM271900 27004KT
                       P6SM SCT020 BKN050 OVC120 FM272200 30004KT
                       5SM BR BKN020 OVC040 FM280000 26008KT 5SM
                       -RA OVC019 FM280500 27020G28KT P6SM VCSH
                       BKN020 BKN040 FM281100 26017G26KT P6SM BKN015
                       OVC030 FM281300 25013G24KT P6SM SCT035=
201611271120 TAF KCLM 271120Z 2712/2812 25008KT P6SM SCT020
                      TEMPO 2712/2716 BKN020 FM271600 VRB03KT P6SM
                       SCT030 BKN120 FM272100 VRB03KT P6SM -RA
                       BKN030 OVC050 FM280300 28012G22KT P6SM VCSH
                       BKN020 BKN040=
201611270902 KCLM 270902Z 2709/2806 25006KT P6SM SCT020
                      TEMPO 2710/2714 BKN020 FM271400 VRB03KT P6SM
                       SCT030 BKN080 FM272100 VRB03KT P6SM -SHRA
                       BKN030 OVC050 FM280300 28012G22KT P6SM VCSH
                       BKN020 BKN040=
201611270700 KCLM 270700Z 2707/2806 VRB03KT P6SM SCT010 BKN025
                      TEMPO 2707/2711 OVC020 FM271800 09004KT P6SM
                       SCT030 BKN080 FM272100 VRB04KT P6SM -SHRA
                       BKN030 OVC050 FM280300 28012G22KT P6SM VCSH
                       BKN020 BKN040=
201611270528 TAF KCLM 270528Z 2706/2806 VRB03KT P6SM SCT010 BKN035
                      TEMPO 2712/2716 SCT035 FM271800 09004KT P6SM
                       BKN040 BKN080 FM272100 VRB04KT P6SM -SHRA
                       BKN030 OVC050 FM280300 28012G22KT P6SM VCSH
                       BKN020 BKN040=
201611270302 TAF AMD KCLM 270302Z 2703/2724 VRB03KT P6SM -RA SCT005 OVC020
                      TEMPO 2703/2706 5SM -RA BR BKN005 OVC015
                       FM270600 VRB03KT P6SM VCSH SCT007 BKN018
                       OVC030 FM271000 VRB03KT P6SM VCSH BKN015
                       FM271800 VRB03KT P6SM BKN025
                      TEMPO 2720/2724 SCT030=
201611262323 TAF KCLM 262323Z 2700/2724 28003KT 3SM -RA BR OVC018 FM270700 26008KT
                       P6SM VCSH OVC009 FM271400 24009KT P6SM SCT019
                       BKN035 OVC120 FM271700 29005KT P6SM OVC025=
201611261924 KCLM 261924Z 2619/2718 00000KT 6SM -RA BR OVC003 FM262100 29005KT
                       P6SM VCSH BKN030 FM270600 26009KT P6SM BKN025
                       FM271300 24009KT P6SM OVC035 FM271700 25007KT
                       P6SM SCT030 OVC060=
201611261728 TAF KCLM 261728Z 2618/2718 00000KT P6SM -RA OVC007 FM262100 29005KT
                       P6SM VCSH BKN030 FM270600 26009KT P6SM BKN025
                       FM271300 24009KT P6SM OVC035 FM271700 25007KT
                       P6SM SCT030 OVC060=
201611261120 TAF KCLM 261120Z 2612/2712 VRB03KT P6SM -RA OVC045 FM261500 VRB03KT
                       P6SM -RA BKN025 OVC045 FM262000 27007KT
                       P6SM VCSH BKN030 FM270600 VRB04KT P6SM BKN025=
201611260520 TAF KCLM 260520Z 2606/2706 22004KT P6SM -RA BKN018 OVC060 FM261000
                       24003KT P6SM -RA BKN015 OVC035 FM262200
                       32004KT P6SM VCSH SCT020 BKN040=
201611260502 KCLM 260502Z 2605/2624 22004KT P6SM -RA BKN018 OVC060 FM261000
                       24003KT P6SM -RA BKN015 OVC035 FM262200
                       32004KT P6SM VCSH SCT020 BKN040=
201611252332 TAF KCLM 252332Z 2600/2624 00000KT P6SM FEW020 OVC200 FM260400
                       00000KT P6SM -RA OVC045 FM261000 24003KT
                       P6SM -RA BKN015 OVC035 FM262200 32004KT
                       P6SM VCSH SCT020 BKN040=
201611251720 TAF KCLM 251720Z 2518/2618 23006KT P6SM SCT050 SCT250 FM260400
                       VRB03KT P6SM -RA OVC050 FM260800 24004KT
                       P6SM -RA OVC019=
201611251216 KCLM 251216Z 2512/2612 13010KT P6SM BKN022
                      TEMPO 2512/2515 SCT025 FM251500 VRB04KT P6SM
                       VCSH SCT030 BKN050 FM260500 VRB04KT P6SM
                       -RA BKN025 OVC050=
201611251120 TAF KCLM 251120Z 2512/2612 VRB04KT P6SM VCSH SCT030 BKN050 FM260500
                       VRB04KT P6SM -RA BKN025 OVC050=
201611250520 TAF KCLM 250520Z 2506/2606 25010KT P6SM -RA BKN015 OVC040 FM251000
                       VRB04KT P6SM VCSH SCT030 BKN050 FM260500
                       VRB04KT P6SM BKN025=
201611242325 TAF KCLM 242325Z 2500/2524 00000KT 6SM -RA BR SCT020 BKN045 OVC060
                       FM250200 VRB03KT 6SM -RA BKN015 OVC035 FM250800
                       25006KT P6SM VCSH SCT025 BKN050 FM251500
                       VRB03KT P6SM BKN050=
201611242103 KCLM 242103Z 2421/2518 33003KT P6SM SCT012 OVC070
                      TEMPO 2421/2424 P6SM -RA BKN012 OVC070 FM250200
                       VRB03KT P6SM -RA SCT020 OVC035 FM251100
                       25006KT P6SM VCSH SCT025 BKN050=
201611241731 TAF KCLM 241731Z 2418/2518 18003KT P6SM VCSH OVC070 FM250200 VRB03KT
                       P6SM -RA SCT020 OVC035 FM251100 25006KT
                       P6SM VCSH SCT025 BKN050=
201611241120 TAF KCLM 241120Z 2412/2512 VRB04KT P6SM -RA OVC040 FM241500 VRB04KT
                       P6SM VCSH SCT025 BKN050 FM250000 09006KT
                       P6SM -RA OVC035 FM251100 27007KT P6SM VCSH
                       SCT025 BKN050=
201611240520 TAF KCLM 240520Z 2406/2506 VRB04KT P6SM -RA OVC040 FM241200 VRB04KT
                       P6SM -SHRA BKN040 FM250000 09004KT P6SM
                       -RA OVC040=
201611232338 TAF KCLM 232338Z 2400/2424 24004KT P6SM -RA BKN045 OVC070 FM240300
                       VRB03KT P6SM -RA OVC050 FM240700 VRB04KT
                       5SM -RA BR OVC025 FM241100 VRB04KT 4SM RA
                       BR OVC015 FM241300 26005KT P6SM -RA SCT025
                       BKN050=
201611231740 TAF KCLM 231740Z 2318/2418 21004KT P6SM SCT080 BKN120 FM240300
                       VRB03KT P6SM -RA OVC050 FM240700 VRB04KT
                       5SM -RA BR OVC025 FM241200 VRB04KT 4SM RA
                       BR OVC015 FM241600 26005KT P6SM -SHRA SCT025
                       BKN050=
201611231134 TAF KCLM 231134Z 2312/2412 VRB03KT P6SM SCT030 BKN070
                      TEMPO 2313/2317 -SHRA BKN030 BKN050 FM231700
                       VRB03KT P6SM -SHRA SCT030 BKN060 FM240300
                       VRB03KT P6SM -RA OVC050=
201611230538 TAF KCLM 230538Z 2306/2406 28007KT 6SM -RA BR OVC045 FM230800 25003KT
                       6SM -RA BKN025 OVC040 FM231200 24003KT P6SM
                       BKN015 OVC040 FM231600 28004KT P6SM VCSH
                       SCT025 BKN050 FM240200 VRB03KT P6SM -RA
                       OVC060=
201611230059 KCLM 230059Z 2301/2324 30007KT P6SM BKN007 BKN120 FM230500 25003KT
                       6SM -RA BKN020 OVC040 FM231100 24005KT P6SM
                       SCT025 BKN040 FM231400 23003KT P6SM BKN100=
201611222323 TAF KCLM 222323Z 2300/2324 34004KT P6SM -SHRA OVC090 FM230500 25003KT
                       6SM -RA BKN020 OVC040 FM231100 24005KT P6SM
                       SCT025 BKN040 FM231400 23003KT P6SM BKN100=
201611221740 TAF KCLM 221740Z 2218/2318 00000KT 4SM -RA BR OVC050 FM230400 25003KT
                       P6SM BKN020 OVC040 FM230900 26005KT P6SM
                       OVC040=
201611221120 TAF KCLM 221120Z 2212/2312 VRB03KT P6SM SCT050 BKN080 FM221400
                       VRB03KT P6SM -RA BKN050 OVC080 FM221800
                       VRB03KT 5SM -RA BR BKN025 OVC050 FM230000
                       VRB03KT P6SM -RA BKN020 OVC040=
201611220528 TAF KCLM 220528Z 2206/2306 24005KT P6SM SCT035 OVC100 FM221200
                       VRB03KT P6SM -RA OVC050 FM221700 VRB03KT
                       5SM -RA BR BKN025 OVC050=
201611220344 KCLM 220344Z 2204/2224 22004KT P6SM SCT035 OVC100 FM221500 VRB03KT
                       P6SM -RA OVC050 FM221900 VRB03KT 5SM -RA
                       BR BKN025=
201611212344 TAF KCLM 212344Z 2200/2224 00000KT P6SM BKN030 OVC040 FM220300
                       22004KT P6SM SCT035 OVC100 FM221500 23004KT
                       P6SM VCSH OVC040 FM221900 10003KT 5SM -RA
                       BKN025=
201611212101 KCLM 212101Z 2121/2218 32004KT P6SM BKN026 FM220000 33004KT P6SM
                       BKN035 FM220300 22004KT P6SM SCT035 OVC100
                       FM221500 23004KT P6SM VCSH OVC040=
201611211741 TAF KCLM 211741Z 2118/2218 25007KT P6SM BKN035 BKN060 FM212200
                       33004KT P6SM BKN035 FM220300 22004KT P6SM
                       SCT035 OVC100 FM221500 23004KT P6SM VCSH
                       OVC040=
201611211137 TAF KCLM 211137Z 2112/2212 26008KT P6SM -SHRA SCT025 OVC050
                      TEMPO 2114/2118 BKN025 OVC050 FM211800 28006KT
                       P6SM SCT030 BKN050 FM220200 VRB03KT P6SM
                       SCT040 BKN070=
201611210537 TAF KCLM 210537Z 2106/2206 26008KT P6SM -SHRA SCT040 OVC060 FM211200
                       25006KT P6SM VCSH BKN025 OVC040 FM211800
                       31006KT P6SM SCT040 BKN070=
201611202337 TAF KCLM 202337Z 2100/2124 12006KT P6SM -SHRA SCT040 BKN060 OVC070
                       FM210900 27006KT P6SM VCSH BKN025 OVC040
                       FM212200 33005KT P6SM OVC040=
201611201725 TAF KCLM 201725Z 2018/2118 00000KT P6SM VCSH OVC060 FM202200 VRB03KT
                       P6SM -SHRA BKN035 OVC050 FM210300 26007KT
                       P6SM -SHRA BKN030 OVC050 FM210600 27010KT
                       P6SM BKN025 OVC040=
201611201136 TAF KCLM 201136Z 2012/2112 VRB03KT P6SM -SHRA OVC060 FM202200 VRB03KT
                       P6SM -SHRA BKN035 OVC050 FM210300 26007KT
                       P6SM -SHRA BKN030 OVC050 FM210600 27010KT
                       P6SM BKN025 OVC040=
201611200529 TAF KCLM 200529Z 2006/2106 VRB03KT P6SM -RA OVC050 FM201600 VRB03KT
                       P6SM -RA BKN035 OVC050=
201611192326 TAF KCLM 192326Z 2000/2024 00000KT P6SM VCSH FEW060 BKN080 FM200500
                       VRB03KT P6SM -RA OVC045 FM202200 24003KT
                       P6SM -RA OVC030=
201611191729 TAF KCLM 191729Z 1918/2018 VRB06KT P6SM VCSH SCT120 OVC150 FM200000
                       00000KT P6SM OVC060 FM200500 VRB03KT P6SM
                       -RA OVC050=
201611191120 TAF KCLM 191120Z 1912/2012 VRB03KT P6SM -RA OVC070 FM191800 VRB03KT
                       P6SM SCT070 BKN100 FM200100 VRB03KT P6SM
                       -RA BKN050 OVC070=
201611190520 TAF KCLM 190520Z 1906/2006 VRB05KT P6SM OVC100 FM190800 VRB03KT
                       P6SM -RA BKN050 OVC100=
201611182336 TAF KCLM 182336Z 1900/1924 07004KT P6SM BKN100 OVC150 FM190800
                       VRB03KT P6SM -RA BKN060 OVC100=
201611181720 TAF KCLM 181720Z 1818/1918 07005KT P6SM OVC130 FM190700 VRB03KT
                       P6SM -RA BKN060 OVC100=
201611181138 TAF KCLM 181138Z 1812/1912 00000KT P6SM FEW010 BKN250 FM182000
                       09008KT P6SM BKN120 BKN250 FM190700 VRB03KT
                       P6SM -RA BKN060 OVC100=
201611180522 TAF KCLM 180522Z 1806/1906 23005KT P6SM BKN250 FM182000 09008KT
                       P6SM BKN120 BKN250=
201611172326 TAF KCLM 172326Z 1800/1824 VRB04KT P6SM FEW030 SCT060 BKN250 FM180300
                       VRB04KT P6SM FEW040 BKN250 FM181200 09008KT
                       P6SM BKN250=
201611171722 TAF KCLM 171722Z 1718/1818 VRB04KT P6SM SCT040 BKN100 FM172100
                       08004KT P6SM FEW050 FM181200 09004KT P6SM
                       BKN200=
201611171124 TAF KCLM 171124Z 1712/1812 24006KT P6SM FEW020 BKN060 FM171800
                       VRB04KT P6SM SCT060 BKN150=
201611170521 TAF KCLM 170521Z 1706/1806 25004KT P6SM SCT015 BKN060
                      TEMPO 1706/1710 BKN015 OVC060 FM171800 VRB04KT
                       P6SM SCT060 BKN150=
201611170035 KCLM 170035Z 1701/1724 VRB03KT P6SM VCSH SCT040 BKN060
                      TEMPO 1701/1705 -SHRA BKN040 FM170600 22004KT
                       P6SM FEW020 BKN040 FM171800 VRB04KT P6SM
                       SCT040=
201611162323 TAF KCLM 162323Z 1700/1724 VRB03KT P6SM SCT040 BKN060 FM170600
                       22004KT P6SM FEW020 BKN040 FM171800 VRB04KT
                       P6SM SCT040=
201611161733 TAF KCLM 161733Z 1618/1718 24004KT P6SM BKN040 FM162000 VRB03KT
                       P6SM SCT040 BKN060 FM170300 22004KT P6SM
                       FEW020 BKN040=
201611161120 TAF KCLM 161120Z 1612/1712 24004KT P6SM SCT070 FM161900 34004KT
                       P6SM SCT060 BKN150 FM170200 22004KT P6SM
                       FEW050 BKN100=
201611160520 TAF KCLM 160520Z 1606/1706 24008KT P6SM SCT050 OVC080 FM161800
                       VRB04KT P6SM SCT030 BKN040=
201611152324 TAF KCLM 152324Z 1600/1624 28010KT P6SM VCSH BKN050 OVC080 FM160600
                       VRB04KT P6SM SCT020 BKN040 FM161800 VRB04KT
                       P6SM VCSH SCT030 BKN040=
201611151733 TAF KCLM 151733Z 1518/1618 28007KT P6SM VCSH SCT030 BKN050 FM152200
                       29008KT P6SM SCT040 BKN100=
201611151221 KCLM 151221Z 1512/1612 28003KT P6SM -RA SCT009 OVC015
                      TEMPO 1512/1515 3SM -RA BR BKN009 OVC015
                       FM151500 26005KT P6SM -SHRA BKN020 OVC035
                       FM151800 29010KT P6SM BKN035 FM152200 29008KT
                       P6SM SCT040 BKN100=
201611151151 TAF KCLM 151151Z 1512/1612 21003KT 4SM RA BR OVC015 FM151500 26005KT
                       P6SM -SHRA BKN020 OVC035 FM151800 29010KT
                       P6SM BKN035 FM152200 29008KT P6SM SCT040
                       BKN100=
201611150904 KCLM 150904Z 1509/1606 27004KT P6SM BKN010 OVC025 FM151300 27008KT
                       P6SM -SHRA SCT015 BKN030 FM152000 29010KT
                       P6SM VCSH BKN035=
201611150548 TAF KCLM 150548Z 1506/1606 00000KT P6SM SCT023 BKN120 FM151000
                       25008KT P6SM -RA OVC040 FM151500 27008KT
                       P6SM -SHRA BKN030 FM152000 29010KT P6SM
                       VCSH BKN035=
201611142325 TAF KCLM 142325Z 1500/1524 10007KT P6SM BKN060 BKN250 FM151000
                       25008KT P6SM -RA OVC040 FM151500 27008KT
                       P6SM -SHRA BKN030 FM152000 29010KT P6SM
                       VCSH BKN035=
201611142154 KCLM 142154Z 1422/1518 10007KT P6SM SCT060 FM151000 27008KT P6SM
                       -RA OVC030 FM151200 27008KT P6SM -RA OVC022=
201611141732 TAF KCLM 141732Z 1418/1518 28008KT P6SM SKC FM142100 VRB04KT P6SM
                       SCT030 FM151000 27008KT P6SM -RA OVC030
                       FM151200 27008KT P6SM -RA OVC022=
201611141236 KCLM 141236Z 1413/1512 VRB04KT 4SM BR VCSH SCT005 BKN050
                      TEMPO 1413/1415 00000KT 1/2SM FG VV002 FM141500
                       VRB04KT P6SM SCT025 BKN070 FM150000 28006KT
                       P6SM -RA OVC050 FM150500 27008KT P6SM -RA
                       OVC030=
201611141143 TAF KCLM 141143Z 1412/1512 27004KT P6SM VCSH SCT015 BKN070
                      TEMPO 1412/1414 5SM BR BKN015 FM141500 VRB04KT
                       P6SM SCT025 BKN070 FM150000 28006KT P6SM
                       -RA OVC050 FM150500 27008KT P6SM -RA OVC030=
201611140541 TAF KCLM 140541Z 1406/1506 22005KT P6SM -RA SCT004 SCT015 OVC070
                       TEMPO 1406/1408 3SM -SHRA BR BKN004 BKN015
                       BKN070 FM140800 27008KT P6SM -SHRA SCT005
                       OVC015 FM141200 27007KT P6SM VCSH SCT015
                       BKN070 FM141700 VRB04KT P6SM OVC070 FM150000
                       28010KT P6SM -RA OVC050=
201611132327 TAF KCLM 132327Z 1400/1424 VRB03KT P6SM -RA OVC070 FM140900 27008KT
                       P6SM -SHRA OVC009 FM141300 27010KT P6SM
                       VCSH SCT009 BKN035 FM141700 25005KT P6SM
                       VCSH OVC070=
201611131730 TAF KCLM 131730Z 1318/1418 00000KT P6SM VCSH OVC070 FM131900 VRB03KT
                       5SM -RA OVC035 FM140400 VRB03KT 5SM RA OVC030
                       FM140900 26009KT P6SM -SHRA OVC035 FM141500
                       26011KT P6SM VCSH BKN035=
201611131139 TAF KCLM 131139Z 1312/1412 VRB04KT P6SM SCT030 SCT050 OVC100 FM131400
                       13005KT P6SM SCT030 BKN050 OVC080 FM131700
                       VRB04KT P6SM -RA SCT030 OVC050 FM140000
                       VRB04KT P6SM RA OVC030 FM140300 25008KT
                       P6SM RA OVC025 FM140600 27009KT P6SM -SHRA
                       BKN035=
201611130619 KCLM 130619Z 1306/1406 14005KT P6SM SCT015 BKN060 BKN100
                      TEMPO 1306/1308 VRB04KT BKN015 FM131300 13005KT
                       P6SM SCT030 BKN060 OVC080 FM131700 VRB04KT
                       P6SM -RA SCT030 OVC050 FM132300 25008KT
                       P6SM RA OVC035=
201611130534 TAF KCLM 130534Z 1306/1406 14005KT P6SM SCT030 BKN060 BKN100 FM131300
                       13005KT P6SM SCT030 BKN060 OVC080 FM131700
                       VRB04KT P6SM -RA SCT030 OVC050 FM132300
                       25008KT P6SM RA OVC035=
201611122334 TAF KCLM 122334Z 1300/1324 31007KT P6SM VCSH SCT060 SCT070 FM130400
                       VRB03KT P6SM OVC035 FM132000 VRB03KT P6SM
                       -RA BKN030 OVC050=
201611121735 TAF KCLM 121735Z 1218/1318 00000KT 4SM BR OVC070 FM122000 29012G19KT
                       P6SM BKN040 FM130400 VRB03KT P6SM OVC035=
201611121129 TAF KCLM 121129Z 1212/1312 24005KT 5SM -RA SCT006 BKN060 OVC080
                       TEMPO 1212/1214 3SM -RA BR BKN006 BKN060
                       OVC080 FM121400 25006KT 5SM -RA BR BKN015
                       OVC040 FM121500 24006KT 6SM -RA BKN015 OVC030
                       FM121800 29015G25KT P6SM -SHRA OVC050 FM122200
                       28013G22KT P6SM BKN040 FM130200 27010KT
                       P6SM BKN035 FM130600 24005KT 4SM BR SCT010
                       SCT030=
201611121056 KCLM 121056Z 1211/1306 24005KT 5SM -RA SCT006 BKN060 OVC080
                      TEMPO 1211/1213 3SM -RA BR BKN006 BKN060
                       OVC080 FM121300 25006KT 5SM -RA BR BKN015
                       OVC040 FM121500 24006KT 6SM -RA BKN015 OVC030
                       FM121800 29015G25KT P6SM -SHRA OVC050 FM122200
                       28013G22KT P6SM BKN040 FM130200 27010KT
                       P6SM BKN035=
201611120839 KCLM 120839Z 1209/1306 VRB04KT 5SM -RA SCT006 BKN060 OVC080
                      TEMPO 1209/1211 4SM -RA BR BKN005 OVC050
                       FM121200 VRB04KT 5SM -RA OVC045 FM121400
                       24006KT 6SM -RA OVC030 FM121800 29015G25KT
                       P6SM -SHRA OVC050 FM122200 28013G22KT P6SM
                       BKN040 FM130200 28010KT P6SM BKN035=
201611120533 TAF KCLM 120533Z 1206/1306 10004KT P6SM SCT005 BKN080 OVC120
                      TEMPO 1206/1207 4SM -RA BR OVC005 FM120700
                       VRB04KT 5SM -RA SCT005 OVC060 FM121200 VRB04KT
                       5SM -RA OVC045 FM121400 24006KT 6SM -RA
                       OVC030 FM121800 29015G25KT P6SM -SHRA OVC050
                       FM122200 28013G22KT P6SM BKN040 FM130200
                       28010KT P6SM BKN035=
201611120435 KCLM 120435Z 1205/1224 10004KT P6SM SCT003 BKN080 OVC120
                      TEMPO 1205/1207 4SM BR OVC003 FM120700 VRB04KT
                       P6SM -RA SCT005 OVC060 FM121200 25003KT
                       P6SM -RA OVC045 FM121400 00000KT 6SM -RA
                       OVC030 FM121700 28009G18KT P6SM -SHRA OVC019=
201611112335 TAF KCLM 112335Z 1200/1224 00000KT P6SM SCT008 BKN120 OVC200
                      TEMPO 1200/1203 BKN008 OVC120 FM120300 00000KT
                       P6SM SCT080 OVC120 FM120700 20002KT P6SM
                       -RA OVC060 FM121200 25003KT P6SM -RA OVC045
                       FM121400 00000KT 6SM -RA OVC030 FM121700
                       28009G18KT P6SM -SHRA OVC019=
201611111733 TAF KCLM 111733Z 1118/1218 00000KT P6SM BKN120 OVC200 FM120300
                       00000KT P6SM OVC060 FM120900 24004KT 6SM
                       -RA OVC060 FM121200 23003KT P6SM -RA OVC050
                       FM121400 23003KT P6SM -RA OVC030 FM121600
                       27010KT P6SM -SHRA OVC030=
201611111120 TAF KCLM 111120Z 1112/1212 23004KT P6SM SCT100 OVC150 FM112000
                       10006KT P6SM SCT080 OVC120 FM120200 12006KT
                       P6SM -RA SCT050 OVC070 FM120700 23005KT
                       P6SM -RA OVC050 FM121000 26007KT P6SM -SHRA
                       BKN070=
201611110807 KCLM 110807Z 1108/1206 25004KT P6SM SCT005 SCT120 OVC200 FM111400
                       VRB03KT P6SM SCT005 SCT100 OVC150 FM112000
                       VRB04KT P6SM BKN100 OVC150 FM120300 12004KT
                       P6SM -RA OVC090=
201611110520 TAF KCLM 110520Z 1106/1206 00000KT P6SM SCT150 BKN200 FM110800
                       25004KT 4SM BR BKN005 FM111300 VRB03KT P6SM
                       SCT005 SCT120 OVC200 FM112000 VRB04KT P6SM
                       BKN120 OVC150 FM120300 12004KT P6SM -RA
                       OVC090=
201611102341 TAF KCLM 102341Z 1100/1124 00000KT P6SM SCT130 BKN200 FM110800
                       25004KT 4SM BR OVC005 FM111000 25004KT 4SM
                       BR OVC001 FM111700 VRB03KT P6SM OVC004 FM112000
                       35004KT P6SM OVC200=
201611101729 TAF KCLM 101729Z 1018/1118 00000KT P6SM BKN005 OVC013 FM102000
                       36004KT P6SM OVC200 FM110300 VRB03KT P6SM
                       OVC120 FM111100 24004KT P6SM OVC009 FM111600
                       24002KT P6SM OVC004=
201611101120 TAF KCLM 101120Z 1012/1112 VRB04KT 5SM BR BKN005
                      TEMPO 1012/1015 00000KT 1SM BR OVC002 FM101500
                       28005KT 5SM BR SCT006 FM101600 24004KT P6SM
                       SCT010 SCT200 FM102000 24005KT P6SM BKN200
                       FM110000 22005KT P6SM OVC150=
201611100551 TAF KCLM 100551Z 1006/1106 VRB03KT 1/4SM FG VV001 FM101100 09005KT
                       1SM BR BKN002 FM101400 09006KT 3SM BR OVC006
                       FM101800 VRB03KT P6SM SCT040=
201611100404 KCLM 100404Z 1004/1024 VRB03KT 1/4SM FG VV001 FM101100 09005KT
                       1SM BR BKN002 FM101400 09006KT 3SM BR OVC006
                       FM101800 VRB03KT P6SM SCT040=
201611100010 KCLM 100010Z 1000/1024 VRB03KT 3SM BR SCT002 BKN015
                      TEMPO 1000/1004 1/4SM FG VV002 FM101100 09005KT
                       5SM BR BKN005 FM101800 VRB03KT P6SM SCT040=
201611092320 TAF KCLM 092320Z 1000/1024 VRB03KT P6SM SCT002 BKN015
                      TEMPO 1000/1004 3SM BR BKN002 FM101100 09005KT
                       5SM BR BKN005 FM101800 VRB03KT P6SM SCT040=
201611092115 KCLM 092115Z 0921/1018 00000KT 2SM BR BKN002 OVC050
                      TEMPO 0921/0924 1/4SM FG VV001 FM100000 27004KT
                       P6SM BKN040 FM100300 00000KT P6SM SCT040
                       FM101100 VRB03KT P6SM OVC004=
201611091907 KCLM 091907Z 0919/1018 00000KT 2SM BR BKN004 OVC050
                      TEMPO 0919/0921 1/4SM FG VV002 FM092100 27004KT
                       P6SM BKN040 FM092300 00000KT P6SM SCT040
                       FM101100 VRB03KT P6SM OVC004=
201611091731 TAF KCLM 091731Z 0918/1018 00000KT 5SM -RA BR BKN050 OVC070 FM091900
                       27004KT P6SM BKN040 FM092300 00000KT P6SM
                       SCT040 FM101100 VRB03KT P6SM OVC004=
201611091219 KCLM 091219Z 0912/1012 VRB03KT P6SM -RA BKN005 OVC010 FM091600
                       26004KT P6SM SCT010 BKN020 FM092100 10004KT
                       P6SM SCT040 BKN100=
201611091123 TAF KCLM 091123Z 0912/1012 VRB03KT 6SM -RA BR SCT005 BKN010 OVC060
                       FM091600 26004KT P6SM SCT020 BKN040 FM092100
                       10004KT P6SM SCT040 BKN100=
201611090532 TAF KCLM 090532Z 0906/1006 VRB03KT P6SM -RA BKN040 OVC080 FM091200
                       27005KT 6SM -RA BR SCT020 BKN030 OVC060
                       FM091600 26004KT P6SM SCT040 FM092100 07004KT
                       P6SM SCT040 BKN100=
201611082320 TAF KCLM 082320Z 0900/0924 VRB03KT P6SM BKN080 FM090600 VRB03KT
                       P6SM -RA BKN040 OVC080 FM091200 27005KT
                       6SM -RA BR SCT020 BKN030 OVC060 FM091600
                       26004KT P6SM SCT040=
201611081720 TAF KCLM 081720Z 0818/0918 VRB03KT P6SM BKN080 FM090600 VRB03KT
                       P6SM -RA BKN040 OVC080 FM091200 27005KT
                       5SM -RA BR SCT020 BKN030 OVC060=
201611081120 TAF KCLM 081120Z 0812/0912 VRB03KT P6SM SCT080 BKN200 FM090100
                       VRB03KT P6SM -RA SCT020 BKN040 OVC080 FM090500
                       VRB03KT P6SM -RA BKN015=
201611080520 TAF KCLM 080520Z 0806/0906 VRB03KT P6SM SCT080 BKN120 OVC200 FM090100
                       VRB03KT P6SM -RA SCT020 BKN040 OVC080=
201611072326 TAF KCLM 072326Z 0800/0824 VRB03KT P6SM BKN080 BKN120 OVC200=
201611071722 TAF KCLM 071722Z 0718/0818 28005KT P6SM SCT005 BKN060 OVC120
                      TEMPO 0718/0719 BKN005 FM072100 VRB03KT P6SM
                       BKN060 BKN150 FM080600 VRB03KT P6SM SCT060
                       OVC100=
201611071120 TAF KCLM 071120Z 0712/0812 VRB03KT P6SM SCT060 BKN080
                      TEMPO 0712/0716 -RA OVC050 FM071600 VRB03KT
                       P6SM SCT060 BKN100 FM071900 VRB03KT P6SM
                       SCT060 BKN150 FM080600 VRB03KT P6SM BKN060
                       OVC100=
201611070520 TAF KCLM 070520Z 0706/0806 VRB03KT P6SM SCT060 OVC150 FM070700
                       VRB03KT P6SM -RA BKN050 OVC080 FM071600
                       VRB03KT P6SM BKN060 BKN120 FM071900 VRB03KT
                       P6SM SCT060 BKN150=
201611062321 TAF KCLM 062321Z 0700/0724 VRB03KT P6SM SCT006 OVC150 FM070600
                       VRB03KT P6SM -RA BKN050 OVC080 FM071600
                       VRB03KT P6SM BKN060 BKN120 FM071900 VRB03KT
                       P6SM SCT060 BKN150=
201611062106 KCLM 062106Z 0621/0718 VRB03KT P6SM SCT006 BKN060 FM070000 06003KT
                       P6SM BKN060 FM070200 VRB03KT P6SM BKN120
                       FM070500 VRB03KT P6SM -RA SCT050 OVC080=
201611061927 KCLM 061927Z 0619/0718 VRB03KT P6SM SCT005 BKN060
                      TEMPO 0619/0621 BKN005 BKN060 FM062100 06003KT
                       P6SM BKN060 FM070000 VRB03KT P6SM BKN120
                       FM070500 VRB03KT P6SM -RA SCT050 OVC080=
201611061739 TAF KCLM 061739Z 0618/0718 VRB03KT P6SM FEW005 BKN060 FM062000
                       06003KT P6SM BKN060 FM070000 VRB03KT P6SM
                       BKN120 FM070500 VRB03KT P6SM -RA SCT050
                       OVC080=
201611061521 KCLM 061521Z 0615/0712 00000KT P6SM SCT003 BKN060
                      TEMPO 0615/0618 BKN003 BKN060 FM061900 07003KT
                       P6SM SCT025 BKN070 FM070100 14003KT P6SM
                       SCT050 BKN090 FM070500 VRB03KT P6SM -RA
                       SCT025 BKN050=
201611061449 KCLM 061449Z 0615/0712 21003KT P6SM BKN001 OVC060
                      TEMPO 0616/0618 SCT003 SCT020 BKN060 FM061900
                       07004KT P6SM SCT025 BKN070 FM070100 14003KT
                       P6SM SCT050 BKN090 FM070500 VRB03KT P6SM
                       -RA SCT025 BKN050=
201611061120 TAF KCLM 061120Z 0612/0712 VRB03KT P6SM SCT020 BKN060 FM061900
                       07004KT P6SM SCT025 BKN070 FM070100 14003KT
                       P6SM SCT050 BKN090 FM070500 VRB03KT P6SM
                       -RA SCT025 BKN050=
201611060520 TAF KCLM 060520Z 0606/0706 VRB04KT P6SM -RA SCT030 OVC060 FM061000
                       VRB03KT P6SM SCT010 BKN020 OVC050
                      TEMPO 0612/0616 1/2SM FG OVC003 FM061700
                       VRB03KT P6SM BKN020 BKN050 FM061900 07004KT
                       P6SM SCT025 BKN050 FM070100 14003KT P6SM
                       SCT050 BKN090=
201611052326 TAF KCLM 052326Z 0600/0624 VRB04KT P6SM -RA SCT010 BKN030 OVC050
                       TEMPO 0600/0604 2SM -RA BR BKN010 OVC030
                       FM061000 VRB03KT P6SM SCT010 BKN015 OVC050
                       FM061400 00000KT 1/2SM FG OVC003 FM061700
                       VRB03KT P6SM BKN020 BKN050 FM061900 07004KT
                       P6SM SCT025 BKN050=
201611051857 KCLM 051857Z 0519/0618 VRB04KT P6SM -RA SCT004 BKN015 OVC050
                      TEMPO 0519/0522 1/2SM -RA FG BKN002 OVC015
                       FM052200 VRB03KT P6SM -RA SCT015 OVC050
                       FM060200 VRB03KT P6SM -RA BKN015 OVC050
                       FM060400 28004KT P6SM BKN035 OVC070=
201611051729 TAF KCLM 051729Z 0518/0618 VRB04KT P6SM -RA SCT004 BKN015 OVC050
                       TEMPO 0518/0520 4SM -RA BR BKN004 OVC015
                       FM052000 VRB03KT P6SM -RA SCT015 OVC050
                       FM060200 VRB03KT P6SM -RA BKN015 OVC050
                       FM060400 28004KT P6SM BKN035 OVC070=
201611051429 KCLM 051429Z 0514/0612 VRB04KT P6SM -RA SCT010 BKN045 OVC070
                      TEMPO 0514/0518 4SM -RA BR BKN010 OVC030
                       FM052000 VRB03KT P6SM -RA SCT007 OVC015
                       FM060200 VRB03KT 6SM -RA BR BKN015 OVC030
                       FM060600 24003KT P6SM BKN030 OVC050=
201611051120 TAF KCLM 051120Z 0512/0612 VRB04KT 4SM -RA BR SCT010 BKN045 OVC070
                       FM051300 VRB03KT 4SM -RA BR BKN010 OVC030
                       FM052000 VRB03KT 4SM -RA BR BKN007 OVC015
                       FM060200 VRB03KT 6SM -RA BR BKN015 OVC030
                       FM060600 24003KT P6SM BKN030 OVC050=
201611050520 TAF KCLM 050520Z 0506/0606 VRB03KT P6SM -RA BKN050 OVC070 FM051000
                       VRB04KT 6SM -RA BR BKN025 OVC040 FM051300
                       VRB03KT 6SM -RA BR BKN015 OVC025 FM052000
                       VRB03KT 5SM -RA BR BKN007 OVC015 FM060200
                       VRB03KT 4SM -RA BR BKN015 OVC030=
201611042327 TAF KCLM 042327Z 0500/0524 27005KT P6SM BKN100 OVC150 FM050400
                       VRB03KT P6SM -RA OVC050 FM051000 VRB04KT
                       6SM -RA BR BKN025 OVC040 FM051300 VRB03KT
                       6SM -RA BR BKN015 OVC025=
201611041740 TAF KCLM 041740Z 0418/0518 09005KT P6SM OVC200 FM050000 27005KT
                       P6SM BKN100 OVC150 FM050400 VRB03KT P6SM
                       -RA OVC050 FM051000 VRB04KT 5SM -RA BR BKN020
                       OVC040=
201611041131 TAF KCLM 041131Z 0412/0512 VRB03KT P6SM SCT200 FM041800 09005KT
                       P6SM BKN200 FM042200 09005KT P6SM SCT120
                       OVC200 FM050400 09005KT P6SM -RA OVC050=
201611040526 TAF KCLM 040526Z 0406/0506 VRB03KT P6SM SCT200 FM041800 09005KT
                       P6SM BKN200 FM042200 09005KT P6SM SCT120
                       OVC200 FM050400 09005KT P6SM -RA OVC050=
201611032329 TAF KCLM 032329Z 0400/0424 VRB03KT P6SM SCT200 FM040600 21004KT
                       P6SM VCFG SCT200 FM041800 09005KT P6SM BKN200=
201611031735 TAF KCLM 031735Z 0318/0418 VRB03KT P6SM BKN200 FM040600 21004KT
                       P6SM VCFG SCT200=
201611031514 KCLM 031514Z 0315/0412 VRB03KT P6SM VCFG FEW005 SCT050 SCT200 FM031800
                       VRB03KT P6SM SCT200=
201611031133 TAF KCLM 031133Z 0312/0412 VRB03KT P6SM SCT006 SCT050
                      TEMPO 0312/0316 BKN006 BKN050 FM031800 VRB03KT
                       P6SM SCT200=
201611030539 TAF KCLM 030539Z 0306/0406 27008KT P6SM -RA OVC050 FM030900 VRB03KT
                       P6SM BKN060 FM031800 07004KT P6SM SCT050
                       BKN200=
201611022334 TAF KCLM 022334Z 0300/0324 28005KT P6SM VCSH SCT035 OVC070
                      TEMPO 0300/0303 -RA FM030300 25005KT 5SM
                       -RA BR SCT020 BKN035 OVC050
                      TEMPO 0303/0306 -RA BKN020 OVC035 FM030600
                       VRB03KT P6SM VCFG SCT035 BKN050
                      TEMPO 0306/0308 -SHRA FM031800 07004KT P6SM
                       SCT050 BKN200=
201611022207 KCLM 022207Z 0222/0318 31005KT P6SM VCSH SCT006 BKN070 OVC110
                      TEMPO 0222/0224 -RA BKN006 OVC070 FM030000
                       VRB03KT P6SM VCSH SCT035 OVC070
                      TEMPO 0300/0303 -RA FM030300 29005KT P6SM
                       -RA BKN035 OVC050 FM030600 24005KT P6SM
                       VCFG SCT035 SCT050
                      TEMPO 0306/0307 BKN035 BKN050=
201611021919 KCLM 021919Z 0219/0318 VRB03KT 6SM -RA BR FEW002 OVC070
                      TEMPO 0219/0221 2SM -DZ BR BKN002 OVC050
                       FM022100 VRB03KT P6SM VCSH SCT070 BKN110
                       BKN200 FM030000 VRB03KT P6SM VCSH SCT035
                       OVC070
                      TEMPO 0300/0303 -RA FM030300 29005KT P6SM
                       -RA BKN035 OVC050 FM030600 24005KT P6SM
                       VCFG SCT035 SCT050
                      TEMPO 0306/0307 BKN035 BKN050=
201611021740 TAF KCLM 021740Z 0218/0318 VRB03KT 6SM BR FEW002 OVC070
                      TEMPO 0218/0220 2SM -DZ BR FM022100 VRB03KT
                       P6SM VCSH SCT070 BKN110 BKN200 FM030000
                       VRB03KT P6SM VCSH SCT035 OVC070
                      TEMPO 0300/0303 -RA FM030300 29005KT P6SM
                       -RA BKN035 OVC050 FM030600 24005KT P6SM
                       VCFG SCT035 SCT050
                      TEMPO 0306/0307 BKN035 BKN050=
201611021639 KCLM 021639Z 0217/0312 VRB03KT 5SM -RA BR FEW002 BKN050 OVC090
                       TEMPO 0217/0219 2SM -RA BR BKN002 OVC050
                       FM022100 11006KT P6SM SCT040 BKN070 OVC120
                       FM030400 VRB03KT P6SM -RA OVC050 FM030900
                       VRB03KT P6SM SCT020 BKN040=
201611021614 KCLM 021614Z 0216/0312 VRB03KT 6SM -RA BR FEW035 BKN050 OVC090
                       TEMPO 0216/0219 4SM -RA BR FM022100 11006KT
                       P6SM SCT040 BKN070 OVC120 FM030400 VRB03KT
                       P6SM -RA OVC050 FM030900 VRB03KT P6SM SCT020
                       BKN040=
201611021309 KCLM 021309Z 0213/0312 VRB03KT P6SM -RA BKN050 OVC080
                      TEMPO 0213/0217 5SM -RA BR BKN004 FM022100
                       11006KT P6SM SCT040 BKN070 OVC120 FM030400
                       VRB03KT P6SM -RA OVC050 FM030900 VRB03KT
                       P6SM SCT020 BKN040=
201611021136 TAF KCLM 021136Z 0212/0312 VRB03KT P6SM -RA BKN050 OVC080 FM022100
                       11006KT P6SM SCT040 BKN070 OVC120 FM030400
                       VRB03KT P6SM -RA OVC050 FM030900 VRB03KT
                       P6SM SCT020 BKN040=
201611020538 TAF KCLM 020538Z 0206/0306 VRB03KT P6SM -RA SCT002 BKN060 OVC100
                       TEMPO 0206/0208 BKN002 OVC060 FM020900 VRB03KT
                       P6SM -RA BKN050 OVC080 FM022100 11006KT
                       P6SM SCT040 BKN070 OVC120=
201611012336 TAF KCLM 012336Z 0200/0224 VRB03KT P6SM -RA SCT007 BKN035 OVC050
                       TEMPO 0200/0204 BKN007 OVC035 FM020600 VRB03KT
                       P6SM VCSH SCT035 BKN060 OVC110
                      TEMPO 0206/0210 -RA FM021200 VRB03KT P6SM
                       VCSH BKN070 OVC150
                      PROB30 0212/0218 -RA OVC050 FM021800 10005KT
                       P6SM VCSH SCT070 OVC150=
201611012239 KCLM 012239Z 0123/0218 VRB03KT P6SM VCSH SCT007 BKN050 OVC090
                      TEMPO 0123/0203 -RA BKN007 OVC050 FM020300
                       VRB03KT P6SM -RA SCT025 OVC050 FM020900
                       VRB03KT P6SM VCSH SCT050 BKN090 OVC150
                      PROB30 0209/0215 -RA OVC050=
201611011818 KCLM 011818Z 0118/0218 VRB03KT P6SM SCT050 SCT090 BKN150 FM012100
                       VRB03KT P6SM SCT050 BKN090 OVC150 FM020000
                       VRB03KT P6SM VCSH BKN050 OVC090 FM020300
                       VRB03KT P6SM -RA SCT025 OVC050
                      PROB30 0203/0209 4SM -RA BR OVC025 FM020900
                       VRB03KT P6SM VCSH SCT050 BKN090 OVC150
                      PROB30 0209/0215 -RA OVC050=
201611011740 TAF KCLM 011740Z 0118/0218 VRB03KT P6SM SCT070 BKN150=
201611011503 KCLM 011503Z 0115/0212 VRB03KT P6SM VCSH SCT060 BKN110 FM011800
                       VRB03KT P6SM SCT060 BKN150 FM020100 11006KT
                       P6SM -RA OVC040=
201611011130 TAF KCLM 011130Z 0112/0212 VRB03KT P6SM -RA OVC050 FM011800 VRB03KT
                       P6SM SCT035 BKN060 FM020100 11006KT P6SM
                       -RA OVC040=
201611010541 TAF KCLM 010541Z 0106/0206 VRB03KT P6SM -RA OVC050 FM011000 VRB03KT
                       P6SM SCT010 BKN025 OVC050 FM011800 VRB03KT
                       P6SM SCT035 BKN060 BKN150 FM020100 11006KT
                       P6SM -RA OVC040=