##########################################################
# Query made at 02/16/2025 03:11:19 UTC
# Time interval: from 07/01/2016 00:00  to 07/31/2016 23:59  UTC
##########################################################

##########################################################
# KCLM, Port Angeles, William R. Fairchild International Airport (United States)
# WMO index: -----. WIGOS ID: Unknown
# Latitude 48-07-20N. Longitude 123-30-19W. Altitude 87 m.
##########################################################

###################################
#  METAR/SPECI from KCLM
###################################
201607312353 METAR KCLM 312353Z AUTO VRB05KT 10SM CLR 20/12 A3006 RMK AO2 SLP180 T02000117 10200 20156 58004=
201607312253 METAR KCLM 312253Z AUTO 02005KT 10SM CLR 19/11 A3007 RMK AO2 SLP181 T01890111=
201607312200 METAR KCLM NIL=
201607312153 METAR KCLM 312153Z AUTO VRB05KT 10SM CLR 18/11 A3008 RMK AO2 SLP185 T01780111=
201607312053 METAR KCLM 312053Z AUTO 01005KT 10SM CLR 17/11 A3007 RMK AO2 SLP183 T01670111 51004=
201607311953 METAR KCLM 311953Z AUTO 05005KT 10SM CLR 16/11 A3007 RMK AO2 SLP183 T01610111=
201607311853 METAR KCLM 311853Z AUTO 36007KT 10SM FEW012 16/11 A3006 RMK AO2 SLP180 T01610111=
201607311753 METAR KCLM 311753Z AUTO 36006KT 10SM CLR 16/11 A3006 RMK AO2 SLP180 T01610111 10161 20089 51009=
201607311735 SPECI KCLM 311735Z AUTO 33005KT 10SM SCT012 16/11 A3006 RMK AO2 T01610106=
201607311653 METAR KCLM 311653Z AUTO VRB03KT 10SM OVC012 14/11 A3005 RMK AO2 SLP177 T01440106=
201607311553 METAR KCLM 311553Z AUTO 36005KT 10SM OVC012 14/11 A3005 RMK AO2 SLP175 T01390106=
201607311453 METAR KCLM 311453Z AUTO 00000KT 10SM OVC012 14/11 A3003 RMK AO2 SLP170 T01390111 53014=
201607311406 SPECI KCLM 311406Z AUTO 00000KT 10SM BKN013 OVC043 12/10 A3002 RMK AO2 T01170100=
201607311353 METAR KCLM 311353Z AUTO 00000KT 10SM FEW011 BKN043 11/09 A3002 RMK AO2 SLP165 T01060089=
201607311253 METAR KCLM 311253Z AUTO 00000KT 10SM CLR 09/08 A3000 RMK AO2 SLP158 T00890078=
201607311153 METAR KCLM 311153Z AUTO 00000KT 10SM CLR 10/08 A2999 RMK AO2 SLP156 T01000083 10128 20094 53010=
201607311053 METAR KCLM 311053Z AUTO 20004KT 9SM CLR 11/09 A2997 RMK AO2 SLP150 T01060089=
201607310953 METAR KCLM 310953Z AUTO 23006KT 9SM CLR 11/09 A2997 RMK AO2 SLP148 T01060089=
201607310853 METAR KCLM 310853Z AUTO 28004KT 9SM CLR 12/10 A2996 RMK AO2 SLP146 T01170100 53003=
201607310753 METAR KCLM 310753Z AUTO 29005KT 9SM CLR 12/10 A2996 RMK AO2 SLP144 T01170100 402170094=
201607310653 METAR KCLM 310653Z AUTO 30008KT 9SM CLR 12/10 A2995 RMK AO2 SLP142 T01220100=
201607310553 METAR KCLM 310553Z AUTO 26007KT 9SM CLR 12/10 A2995 RMK AO2 SLP143 T01220100 10211 20122 51005=
201607310453 METAR KCLM 310453Z AUTO 28005KT 10SM CLR 13/10 A2995 RMK AO2 SLP142 T01280100=
201607310353 METAR KCLM 310353Z AUTO 27005KT 9SM CLR 13/10 A2994 RMK AO2 SLP140 T01330100=
201607310253 METAR KCLM 310253Z AUTO 31007KT 10SM CLR 16/10 A2994 RMK AO2 SLP138 T01610100 58003=
201607310153 METAR KCLM 310153Z AUTO 32009KT 10SM CLR 18/11 A2995 RMK AO2 SLP140 T01780106=
201607310053 METAR KCLM 310053Z AUTO 30009KT 10SM CLR 18/11 A2995 RMK AO2 SLP143 T01830111=
201607302353 METAR KCLM 302353Z AUTO VRB05KT 10SM CLR 21/11 A2995 RMK AO2 SLP141 T02110111 10217 20172 58002=
201607302253 METAR KCLM 302253Z AUTO 35005KT 10SM CLR 20/11 A2995 RMK AO2 SLP143 T02000111=
201607302153 METAR KCLM 302153Z AUTO VRB04KT 10SM CLR 19/11 A2996 RMK AO2 SLP144 T01940111=
201607302053 METAR KCLM 302053Z AUTO 36005KT 10SM CLR 19/11 A2995 RMK AO2 SLP143 T01890106 50000=
201607301953 METAR KCLM 301953Z AUTO 01006KT 10SM CLR 18/11 A2996 RMK AO2 SLP146 T01780106=
201607301853 METAR KCLM 301853Z AUTO 36006KT 10SM CLR 18/11 A2996 RMK AO2 SLP145 T01780106=
201607301753 METAR KCLM 301753Z AUTO VRB05KT 10SM CLR 18/11 A2995 RMK AO2 SLP142 T01780106 10178 20094 53002=
201607301653 METAR KCLM 301653Z AUTO 34006KT 10SM FEW015 16/11 A2994 RMK AO2 SLP139 T01610106=
201607301648 SPECI KCLM 301648Z AUTO 36007KT 10SM SCT017 16/11 A2994 RMK AO2=
201607301553 METAR KCLM 301553Z AUTO 36005KT 10SM SCT016 OVC022 16/11 A2994 RMK AO2 SLP140 T01560106=
201607301544 SPECI KCLM 301544Z AUTO 36004KT 10SM BKN016 BKN022 16/11 A2994 RMK AO2 T01610106=
201607301453 METAR KCLM 301453Z AUTO 29005KT 10SM CLR 15/11 A2993 RMK AO2 SLP136 T01500106 51010=
201607301353 METAR KCLM 301353Z AUTO 00000KT 10SM CLR 12/11 A2993 RMK AO2 SLP134 T01220106=
201607301253 METAR KCLM 301253Z AUTO 00000KT 7SM CLR 10/08 A2991 RMK AO2 SLP129 T01000083=
201607301153 METAR KCLM 301153Z AUTO 24005KT 9SM CLR 12/09 A2990 RMK AO2 SLP126 T01170094 10144 20111 58000=
201607301053 METAR KCLM 301053Z AUTO 26003KT 9SM CLR 12/10 A2991 RMK AO2 SLP126 T01220100=
201607300953 METAR KCLM 300953Z AUTO 26005KT 9SM CLR 12/10 A2990 RMK AO2 SLP124 T01220100=
201607300853 METAR KCLM 300853Z AUTO 25004KT 10SM CLR 12/10 A2990 RMK AO2 SLP125 T01220100 56005=
201607300753 METAR KCLM 300753Z AUTO 30003KT 10SM CLR 13/10 A2991 RMK AO2 SLP126 T01280100 402610117=
201607300653 METAR KCLM 300653Z AUTO 28005KT 10SM CLR 13/11 A2991 RMK AO2 SLP127 T01330106=
201607300553 METAR KCLM 300553Z AUTO 10SM CLR 14/11 A2992 RMK AO2 SLP130 T01440106 10233 20144 56002=
201607300453 METAR KCLM 300453Z AUTO 30014KT 10SM CLR 16/11 A2992 RMK AO2 SLP130 T01560111=
201607300353 METAR KCLM 300353Z AUTO 28008KT 10SM CLR 17/12 A2992 RMK AO2 SLP131 T01670117=
201607300253 METAR KCLM 300253Z AUTO 30009KT 10SM CLR 19/12 A2993 RMK AO2 SLP132 T01890122 56012=
201607300153 METAR KCLM 300153Z AUTO 33005KT 10SM CLR 21/13 A2993 RMK AO2 SLP133 T02060128=
201607300053 METAR KCLM 300053Z AUTO 29007KT 10SM CLR 22/13 A2994 RMK AO2 SLP139 T02220133=
201607292353 METAR KCLM 292353Z AUTO 33007KT 10SM CLR 23/13 A2996 RMK AO2 SLP144 T02280133 10261 20217 58009=
201607292253 METAR KCLM 292253Z AUTO VRB06KT 10SM CLR 23/13 A2997 RMK AO2 SLP148 T02280133=
201607292232 SPECI KCLM 292232Z AUTO VRB05KT 10SM FEW002 23/13 A2997 RMK AO2 T02280133=
201607292153 METAR KCLM 292153Z AUTO VRB04KT 10SM CLR 23/13 A2998 RMK AO2 SLP152 T02280133=
201607292053 METAR KCLM 292053Z AUTO 07008KT 10SM CLR 25/13 A2999 RMK AO2 SLP153 T02500133 58012=
201607291953 METAR KCLM 291953Z AUTO 06007KT 030V090 10SM CLR 24/13 A3000 RMK AO2 SLP158 T02440128=
201607291853 METAR KCLM 291853Z AUTO 09009KT 10SM CLR 24/13 A3001 RMK AO2 SLP161 T02440133=
201607291753 METAR KCLM 291753Z AUTO 09010KT 10SM CLR 24/13 A3002 RMK AO2 SLP165 T02390133 10239 20117 50000=
201607291653 METAR KCLM 291653Z AUTO 10008G14KT 10SM CLR 22/13 A3003 RMK AO2 SLP167 T02220133=
201607291553 METAR KCLM 291553Z AUTO 03005KT 10SM CLR 17/13 A3002 RMK AO2 SLP166 T01720128=
201607291453 METAR KCLM 291453Z AUTO 00000KT 10SM CLR 18/14 A3002 RMK AO2 SLP165 T01830139 58001 $=
201607291353 METAR KCLM 291353Z AUTO 9SM CLR 14/13 A3003 RMK AO2 SLP168 T01440128 $=
201607291253 METAR KCLM 291253Z AUTO 00000KT 10SM CLR 12/11 A3002 RMK AO2 SLP164 T01220111 $=
201607291153 METAR KCLM 291153Z AUTO 00000KT 10SM CLR 13/11 A3002 RMK AO2 SLP166 T01280111 10150 20128 50000 $=
201607291053 METAR KCLM 291053Z AUTO 00000KT 10SM CLR 13/12 A3003 RMK AO2 SLP168 T01280117 $=
201607290953 METAR KCLM 290953Z AUTO 16003KT 10SM CLR 14/12 A3003 RMK AO2 SLP169 T01390122 $=
201607290853 METAR KCLM 290853Z AUTO 00000KT 10SM CLR 14/12 A3002 RMK AO2 SLP165 T01390122 58005 $=
201607290753 METAR KCLM 290753Z AUTO 28004KT 10SM CLR 14/12 A3004 RMK AO2 SLP170 T01440122 402670111 $=
201607290653 METAR KCLM 290653Z AUTO 00000KT 10SM CLR 15/13 A3004 RMK AO2 SLP171 T01500128 $=
201607290553 METAR KCLM 290553Z AUTO 29005KT 10SM CLR 15/12 A3004 RMK AO2 SLP170 T01500122 10239 20150 56005 $=
201607290453 METAR KCLM 290453Z AUTO 30003KT 10SM CLR 17/13 A3004 RMK AO2 SLP172 T01670128 $=
201607290353 METAR KCLM 290353Z AUTO 25003KT 10SM CLR 21/13 A3004 RMK AO2 SLP170 T02110133 $=
201607290253 METAR KCLM 290253Z AUTO 28005KT 10SM CLR 21/13 A3005 RMK AO2 SLP176 T02060128 56010 $=
201607290153 METAR KCLM 290153Z AUTO 31005KT 10SM CLR 21/13 A3007 RMK AO2 SLP181 T02060128 $=
201607290053 METAR KCLM 290053Z AUTO 32005KT 10SM CLR 22/13 A3007 RMK AO2 SLP183 T02170128 $=
201607282353 METAR KCLM 282353Z AUTO 31004KT 10SM CLR 23/13 A3009 RMK AO2 SLP186 T02330128 10267 20222 57009 $=
201607282253 METAR KCLM 282253Z AUTO VRB03KT 10SM CLR 24/13 A3009 RMK AO2 SLP189 T02440133 $=
201607282244 SPECI KCLM 282244Z AUTO VRB04KT 10SM FEW001 25/13 A3009 RMK AO2 T02500133 $=
201607282153 METAR KCLM 282153Z AUTO VRB03KT 10SM CLR 24/13 A3011 RMK AO2 SLP193 T02440133 $=
201607282053 METAR KCLM 282053Z AUTO 08008KT 10SM CLR 26/13 A3011 RMK AO2 SLP196 T02560133 58012 $=
201607281953 METAR KCLM 281953Z AUTO 09009KT 10SM CLR 25/13 A3013 RMK AO2 SLP203 T02500133=
201607281853 METAR KCLM 281853Z AUTO 08008KT 10SM CLR 24/13 A3014 RMK AO2 SLP206 T02390133=
201607281753 METAR KCLM 281753Z AUTO 07005KT 10SM CLR 23/13 A3015 RMK AO2 SLP207 T02280128 10233 20111 55000=
201607281653 METAR KCLM 281653Z AUTO 08005KT 10SM CLR 21/13 A3014 RMK AO2 SLP207 T02060128=
201607281553 METAR KCLM 281553Z AUTO 00000KT 10SM CLR 19/13 A3015 RMK AO2 SLP207 T01940128=
201607281453 METAR KCLM 281453Z AUTO 00000KT 10SM CLR 15/13 A3015 RMK AO2 SLP207 T01500128 53004=
201607281353 METAR KCLM 281353Z AUTO 00000KT 10SM CLR 13/12 A3014 RMK AO2 SLP207 T01280117=
201607281253 METAR KCLM 281253Z AUTO 23004KT 10SM SCT001 12/10 A3013 RMK AO2 SLP204 T01170100=
201607281245 SPECI KCLM 281245Z AUTO 00000KT 4SM BR BKN001 12/11 A3013 RMK AO2 T01170106=
201607281241 SPECI KCLM 281241Z AUTO 00000KT 1SM BR VV001 12/11 A3013 RMK AO2 T01170106=
201607281230 SPECI KCLM 281230Z AUTO 24003KT 1/4SM FG VV001 12/11 A3013 RMK AO2 T01170111=
201607281222 SPECI KCLM 281222Z AUTO 24004KT 1/2SM FG VV001 12/11 A3013 RMK AO2 T01170111=
201607281204 SPECI KCLM 281204Z AUTO 27005KT 1 1/4SM BR OVC001 12/11 A3013 RMK AO2 T01170111=
201607281201 SPECI KCLM 281201Z AUTO 27004KT 3/4SM BR VV002 12/12 A3013 RMK AO2 T01220117=
201607281153 METAR KCLM 281153Z AUTO 26006KT 1/4SM FG VV002 12/12 A3013 RMK AO2 SLP204 T01220117 10150 20122 51004=
201607281116 SPECI KCLM 281116Z AUTO 27004KT 1/2SM FG VV002 12/12 A3013 RMK AO2 T01220117=
201607281106 SPECI KCLM 281106Z AUTO 28004KT 1/4SM FG VV002 12/12 A3013 RMK AO2 T01220117=
201607281053 METAR KCLM 281053Z AUTO 00000KT 3/4SM BR OVC002 13/12 A3013 RMK AO2 SLP201 T01280117=
201607281042 SPECI KCLM 281042Z AUTO 00000KT 1 1/2SM BR OVC002 13/12 A3013 RMK AO2 T01280122=
201607281004 SPECI KCLM 281004Z AUTO 31003KT 5SM BR OVC002 13/12 A3012 RMK AO2 T01280122=
201607280953 METAR KCLM 280953Z AUTO 00000KT 2SM BR OVC002 13/12 A3012 RMK AO2 SLP199 T01330122=
201607280949 SPECI KCLM 280949Z AUTO 00000KT 2SM BR OVC002 13/12 A3012 RMK AO2=
201607280925 SPECI KCLM 280925Z AUTO 00000KT 5SM BR OVC002 13/12 A3011 RMK AO2 T01330122=
201607280916 SPECI KCLM 280916Z AUTO 26003KT 2SM BR OVC002 13/12 A3011 RMK AO2 T01330122=
201607280853 METAR KCLM 280853Z AUTO 30005KT 3/4SM BR OVC002 13/12 A3012 RMK AO2 SLP198 T01330122 56004=
201607280844 SPECI KCLM 280844Z AUTO 30004KT 1 3/4SM BR BKN003 13/12 A3012 RMK AO2 T01330122=
201607280837 SPECI KCLM 280837Z AUTO 33004KT 7SM BKN003 13/12 A3011 RMK AO2 T01330122=
201607280828 SPECI KCLM 280828Z AUTO 33003KT 9SM SCT003 13/12 A3011 RMK AO2 T01280117=
201607280753 METAR KCLM 280753Z AUTO 26005KT 10SM CLR 13/12 A3012 RMK AO2 SLP198 T01330122 402330106=
201607280653 METAR KCLM 280653Z AUTO 28004KT 10SM CLR 14/12 A3012 RMK AO2 SLP200 T01390122=
201607280553 METAR KCLM 280553Z AUTO 29007KT 10SM CLR 15/13 A3013 RMK AO2 SLP201 T01500128 10228 20150 53012=
201607280453 METAR KCLM 280453Z AUTO 29006KT 10SM CLR 15/12 A3012 RMK AO2 SLP197 T01500122=
201607280353 METAR KCLM 280353Z AUTO 30004KT 10SM CLR 16/12 A3010 RMK AO2 SLP190 T01560122=
201607280253 METAR KCLM 280253Z AUTO 31004KT 10SM CLR 21/13 A3009 RMK AO2 SLP190 T02060133 56010=
201607280153 METAR KCLM 280153Z AUTO 32006KT 10SM CLR 21/13 A3010 RMK AO2 SLP192 T02110128=
201607280053 METAR KCLM 280053Z AUTO 31005KT 10SM CLR 23/13 A3011 RMK AO2 SLP195 T02280128=
201607272353 METAR KCLM 272353Z AUTO 30009KT 10SM CLR 21/12 A3012 RMK AO2 SLP200 T02060122 10233 20200 55008=
201607272253 METAR KCLM 272253Z AUTO 36005KT 10SM CLR 22/12 A3012 RMK AO2 SLP198 T02220122=
201607272153 METAR KCLM 272153Z AUTO VRB06KT 10SM CLR 22/12 A3014 RMK AO2 SLP205 T02170122=
201607272053 METAR KCLM 272053Z AUTO 35005KT 10SM CLR 21/12 A3015 RMK AO2 SLP209 T02110122 58001=
201607271953 METAR KCLM 271953Z AUTO 03004KT 10SM CLR 22/13 A3015 RMK AO2 SLP209 T02220133=
201607271853 METAR KCLM 271853Z AUTO VRB04KT 10SM CLR 21/12 A3015 RMK AO2 SLP211 T02060122=
201607271753 METAR KCLM 271753Z AUTO 08007KT 10SM CLR 23/13 A3015 RMK AO2 SLP209 T02280133 10228 20106 58003=
201607271653 METAR KCLM 271653Z AUTO 10009KT 10SM CLR 23/13 A3016 RMK AO2 SLP211 T02280133=
201607271553 METAR KCLM 271553Z AUTO 10008KT 10SM CLR 20/13 A3016 RMK AO2 SLP213 T02000128=
201607271453 METAR KCLM 271453Z AUTO 00000KT 10SM CLR 14/12 A3016 RMK AO2 SLP212 T01390122 53008=
201607271411 SPECI KCLM 271411Z AUTO 00000KT 10SM SCT001 12/12 A3016 RMK AO2 T01220117=
201607271400 SPECI KCLM 271400Z AUTO 00000KT 3SM BR BKN001 12/11 A3015 RMK AO2 T01170111=
201607271358 SPECI KCLM 271358Z AUTO 00000KT 1 1/4SM BR BKN001 12/11 A3015 RMK AO2 T01170111=
201607271353 METAR KCLM 271353Z AUTO 00000KT 1/4SM FG VV002 11/11 A3015 RMK AO2 SLP210 T01110111=
201607271311 SPECI KCLM 271311Z AUTO 00000KT M1/4SM FG VV002 11/10 A3014 RMK AO2 T01110100=
201607271253 METAR KCLM 271253Z AUTO 00000KT 1/4SM FG VV001 11/10 A3013 RMK AO2 SLP204 T01060100=
201607271248 SPECI KCLM 271248Z AUTO 00000KT 3/4SM BR OVC001 11/10 A3013 RMK AO2=
201607271227 SPECI KCLM 271227Z AUTO 24003KT 1/4SM FG VV001 11/11 A3013 RMK AO2 T01110106=
201607271201 SPECI KCLM 271201Z AUTO 26004KT 1/4SM FG VV002 12/11 A3013 RMK AO2 T01170106=
201607271153 METAR KCLM 271153Z AUTO 28003KT 1/2SM FG VV002 12/11 A3013 RMK AO2 SLP203 T01170111 10128 20111 52005=
201607271128 SPECI KCLM 271128Z AUTO 00000KT 1/2SM FG VV002 11/11 A3013 RMK AO2 T01110106=
201607271053 METAR KCLM 271053Z AUTO 23004KT 1/4SM FG VV002 12/11 A3013 RMK AO2 SLP203 T01170111=
201607271043 SPECI KCLM 271043Z AUTO 24003KT 1/2SM FG OVC002 12/12 A3013 RMK AO2 T01220117=
201607271035 SPECI KCLM 271035Z AUTO 28003KT 1SM BR VV002 12/12 A3013 RMK AO2 T01220117=
201607270953 METAR KCLM 270953Z AUTO 30004KT 3/4SM BR VV002 12/11 A3012 RMK AO2 SLP199 T01220111=
201607270944 SPECI KCLM 270944Z AUTO 00000KT 3/4SM BR OVC002 12/12 A3012 RMK AO2 T01220117=
201607270900 SPECI KCLM 270900Z AUTO 29006KT 1 1/2SM BR OVC002 12/12 A3012 RMK AO2 T01220117=
201607270853 METAR KCLM 270853Z AUTO 29005KT 2SM BR OVC002 12/12 A3012 RMK AO2 SLP198 T01220117 56005=
201607270841 SPECI KCLM 270841Z AUTO 31004KT 4SM BR OVC002 12/12 A3011 RMK AO2 T01220117=
201607270813 SPECI KCLM 270813Z AUTO 28007KT 2SM BR OVC002 13/12 A3012 RMK AO2 T01280117=
201607270753 METAR KCLM 270753Z AUTO 28005KT 6SM BR OVC002 13/12 A3012 RMK AO2 SLP201 T01280117 402000122=
201607270732 SPECI KCLM 270732Z AUTO 31006KT 9SM BKN002 13/12 A3013 RMK AO2 T01280117=
201607270714 SPECI KCLM 270714Z AUTO 31007KT 10SM SCT003 12/11 A3013 RMK AO2 T01220111=
201607270653 METAR KCLM 270653Z AUTO 30008KT 10SM CLR 13/11 A3012 RMK AO2 SLP200 T01280111=
201607270553 METAR KCLM 270553Z AUTO 29010KT 10SM FEW004 13/11 A3013 RMK AO2 SLP203 T01280111 10183 20128 50003=
201607270542 SPECI KCLM 270542Z AUTO 30011KT 10SM SCT004 13/12 A3013 RMK AO2 T01280117=
201607270453 METAR KCLM 270453Z AUTO 29008KT 10SM OVC006 13/12 A3014 RMK AO2 SLP207 T01330117=
201607270404 SPECI KCLM 270404Z AUTO 29009KT 10SM SCT006 13/11 A3014 RMK AO2 T01330111=
201607270353 METAR KCLM 270353Z AUTO 28011KT 10SM CLR 13/11 A3013 RMK AO2 SLP204 T01330111=
201607270253 METAR KCLM 270253Z AUTO 29007KT 10SM CLR 16/12 A3012 RMK AO2 SLP200 T01560117 55002=
201607270153 METAR KCLM 270153Z AUTO 31008G16KT 10SM CLR 17/12 A3011 RMK AO2 SLP196 T01670122=
201607270053 METAR KCLM 270053Z AUTO 31011KT 10SM CLR 18/12 A3012 RMK AO2 SLP200 T01780122=
201607262353 METAR KCLM 262353Z AUTO 31009G14KT 10SM CLR 18/12 A3013 RMK AO2 SLP201 T01830122 10200 20167 58011=
201607262253 METAR KCLM 262253Z AUTO 30008KT 270V330 10SM CLR 19/13 A3014 RMK AO2 SLP205 T01890128=
201607262153 METAR KCLM 262153Z AUTO 31011G15KT 10SM CLR 19/13 A3015 RMK AO2 SLP210 T01890128=
201607262053 METAR KCLM 262053Z AUTO 30011KT 10SM CLR 19/13 A3016 RMK AO2 SLP213 T01890128 58006=
201607261953 METAR KCLM 261953Z AUTO 31010KT 10SM CLR 18/13 A3016 RMK AO2 SLP215 T01830128=
201607261921 SPECI KCLM 261921Z AUTO 30008KT 270V330 10SM SCT012 18/13 A3017 RMK AO2 T01830128=
201607261853 METAR KCLM 261853Z AUTO 30009KT 270V330 10SM OVC012 18/12 A3017 RMK AO2 SLP218 T01780122=
201607261753 METAR KCLM 261753Z AUTO 30012KT 10SM OVC013 17/12 A3018 RMK AO2 SLP218 T01670122 10172 20133 51006=
201607261653 METAR KCLM 261653Z AUTO 30006KT 10SM OVC012 17/12 A3017 RMK AO2 SLP216 T01670122=
201607261553 METAR KCLM 261553Z AUTO 32007KT 10SM OVC010 16/12 A3017 RMK AO2 SLP216 T01610122=
201607261526 SPECI KCLM 261526Z AUTO 31007KT 10SM BKN010 16/12 A3016 RMK AO2 T01560122=
201607261453 METAR KCLM 261453Z AUTO 30007KT 10SM BKN008 14/12 A3016 RMK AO2 CIG 007V011 SLP212 T01440117 51011=
201607261400 SPECI KCLM 261400Z AUTO 29009KT 9SM SCT006 14/12 A3015 RMK AO2 T01390122=
201607261353 METAR KCLM 261353Z AUTO 29008KT 9SM BKN008 14/12 A3015 RMK AO2 CIG 005V010 SLP208 T01390117=
201607261336 SPECI KCLM 261336Z AUTO 29008KT 8SM BKN008 13/12 A3014 RMK AO2 CIG 005V012 T01330117=
201607261322 SPECI KCLM 261322Z AUTO 29006KT 8SM BKN010 13/12 A3014 RMK AO2 CIG 006V012 T01330117=
201607261310 SPECI KCLM 261310Z AUTO 28008KT 8SM SCT008 13/12 A3014 RMK AO2 T01330117=
201607261253 METAR KCLM 261253Z AUTO 28007KT 8SM BKN007 13/12 A3014 RMK AO2 CIG 006V011 SLP206 T01330117=
201607261233 SPECI KCLM 261233Z AUTO 29009KT 9SM BKN006 13/12 A3014 RMK AO2 T01330117=
201607261210 SPECI KCLM 261210Z AUTO 29010KT 10SM FEW006 13/12 A3013 RMK AO2 T01330117=
201607261153 METAR KCLM 261153Z AUTO 30009KT 10SM CLR 13/12 A3013 RMK AO2 SLP201 T01330117 10144 20133 53008=
201607261053 METAR KCLM 261053Z AUTO 29011KT 10SM CLR 13/12 A3011 RMK AO2 SLP198 T01330117=
201607260953 METAR KCLM 260953Z AUTO 28014KT 10SM CLR 14/12 A3010 RMK AO2 SLP193 T01390117=
201607260853 METAR KCLM 260853Z AUTO 29015KT 10SM CLR 14/12 A3010 RMK AO2 SLP193 T01390117 53004=
201607260753 METAR KCLM 260753Z AUTO 30014G21KT 10SM CLR 14/12 A3010 RMK AO2 SLP191 T01390117 402170122=
201607260653 METAR KCLM 260653Z AUTO 29013KT 10SM CLR 14/12 A3009 RMK AO2 SLP187 T01440117=
201607260553 METAR KCLM 260553Z AUTO 29015KT 10SM CLR 14/12 A3009 RMK AO2 SLP190 T01440122 10200 20144 52005=
201607260453 METAR KCLM 260453Z AUTO 30009KT 10SM CLR 14/12 A3009 RMK AO2 SLP190 T01440122=
201607260353 METAR KCLM 260353Z AUTO 31008KT 10SM CLR 15/12 A3008 RMK AO2 SLP185 T01500122=
201607260337 SPECI KCLM 260337Z AUTO 30009KT 10SM FEW008 15/12 A3008 RMK AO2 T01500122=
201607260253 METAR KCLM 260253Z AUTO 29014G20KT 10SM BKN006 15/13 A3008 RMK AO2 SLP185 T01500128 53001=
201607260238 SPECI KCLM 260238Z AUTO 29011KT 10SM BKN007 16/13 A3008 RMK AO2 T01560128=
201607260228 SPECI KCLM 260228Z AUTO 28013G21KT 10SM SCT007 16/13 A3008 RMK AO2 T01560128=
201607260153 METAR KCLM 260153Z AUTO 31009KT 10SM CLR 18/13 A3007 RMK AO2 SLP181 T01780133=
201607260053 METAR KCLM 260053Z AUTO 31007KT 280V340 10SM CLR 19/13 A3007 RMK AO2 SLP182 T01890133=
201607252353 METAR KCLM 252353Z AUTO 31011G17KT 280V350 10SM CLR 19/13 A3008 RMK AO2 SLP184 T01890133 10217 20183 58005=
201607252253 METAR KCLM 252253Z AUTO 30009KT 10SM CLR 20/14 A3008 RMK AO2 SLP185 T02000139=
201607252153 METAR KCLM 252153Z AUTO 30010KT 10SM CLR 21/14 A3009 RMK AO2 SLP189 T02110139=
201607252053 METAR KCLM 252053Z AUTO 32007KT 10SM CLR 22/14 A3009 RMK AO2 SLP188 T02170139 58003=
201607251953 METAR KCLM 251953Z AUTO 31008KT 10SM CLR 20/14 A3009 RMK AO2 SLP191 T02000139=
201607251853 METAR KCLM 251853Z AUTO 31005KT 10SM CLR 21/14 A3010 RMK AO2 SLP191 T02060139=
201607251753 METAR KCLM 251753Z AUTO 32005KT 10SM CLR 18/13 A3010 RMK AO2 SLP192 T01830133 10194 20122 53007=
201607251653 METAR KCLM 251653Z AUTO 30007KT 10SM CLR 18/13 A3009 RMK AO2 SLP189 T01780128=
201607251553 METAR KCLM 251553Z AUTO 32005KT 10SM CLR 15/13 A3009 RMK AO2 SLP189 T01500128=
201607251453 METAR KCLM 251453Z AUTO 00000KT 10SM CLR 14/13 A3008 RMK AO2 SLP186 T01440133 53008=
201607251407 SPECI KCLM 251407Z AUTO 00000KT 10SM SCT002 14/13 A3007 RMK AO2 T01390128=
201607251353 METAR KCLM 251353Z AUTO 00000KT 10SM BKN002 13/13 A3007 RMK AO2 SLP183 T01330128=
201607251337 SPECI KCLM 251337Z AUTO 28003KT 10SM BKN003 13/12 A3007 RMK AO2 T01330122=
201607251253 METAR KCLM 251253Z AUTO 00000KT 10SM SCT002 13/12 A3006 RMK AO2 SLP178 T01280122=
201607251248 SPECI KCLM 251248Z AUTO 00000KT 10SM BKN002 13/12 A3006 RMK AO2=
201607251241 SPECI KCLM 251241Z AUTO 27004KT 2SM BR OVC002 13/12 A3006 RMK AO2 T01280122=
201607251230 SPECI KCLM 251230Z AUTO 27005KT 3/4SM BR VV002 13/12 A3006 RMK AO2 T01330122=
201607251211 SPECI KCLM 251211Z AUTO 28003KT 1/4SM FG VV002 13/12 A3005 RMK AO2 T01330122=
201607251153 METAR KCLM 251153Z AUTO 27003KT 1/2SM FG VV002 13/12 A3006 RMK AO2 SLP177 T01330122 10161 20128 51005=
201607251150 SPECI KCLM 251150Z AUTO 26004KT 1/2SM FG VV002 13/12 A3005 RMK AO2=
201607251140 SPECI KCLM 251140Z AUTO 00000KT 1 1/2SM BR BKN002 13/13 A3005 RMK AO2 T01330128=
201607251133 SPECI KCLM 251133Z AUTO 00000KT 4SM BR BKN002 13/12 A3005 RMK AO2 T01330122=
201607251126 SPECI KCLM 251126Z AUTO 00000KT 2 1/2SM BR BKN002 13/12 A3005 RMK AO2 T01330117=
201607251122 SPECI KCLM 251122Z AUTO 00000KT 1 1/4SM BR SCT002 13/12 A3005 RMK AO2 T01280117=
201607251112 SPECI KCLM 251112Z AUTO 00000KT 1 1/2SM BR BKN001 13/12 A3005 RMK AO2 T01330117=
201607251105 SPECI KCLM 251105Z AUTO 00000KT 2 1/2SM BR BKN002 13/12 A3005 RMK AO2 T01330122=
201607251053 METAR KCLM 251053Z AUTO 30003KT 10SM SCT002 13/12 A3005 RMK AO2 SLP174 T01330122=
201607251003 SPECI KCLM 251003Z AUTO 30004KT 10SM SCT002 14/13 A3004 RMK AO2 T01390128=
201607250953 METAR KCLM 250953Z AUTO 29005KT 8SM BKN002 13/13 A3004 RMK AO2 SLP172 T01330128=
201607250853 METAR KCLM 250853Z AUTO 29008KT 10SM BKN003 14/13 A3005 RMK AO2 SLP175 T01390128 55001=
201607250832 SPECI KCLM 250832Z AUTO 30006KT 10SM FEW003 14/12 A3005 RMK AO2 T01390122=
201607250753 METAR KCLM 250753Z AUTO 31007KT 10SM CLR 14/12 A3005 RMK AO2 SLP175 T01390122 402170117=
201607250653 METAR KCLM 250653Z AUTO 29008KT 10SM CLR 15/12 A3005 RMK AO2 SLP174 T01500122=
201607250553 METAR KCLM 250553Z AUTO 31007KT 10SM CLR 16/12 A3005 RMK AO2 SLP175 T01610122 10211 20161 58001=
201607250453 METAR KCLM 250453Z AUTO 28006KT 10SM CLR 17/12 A3006 RMK AO2 SLP177 T01670117=
201607250353 METAR KCLM 250353Z AUTO 29009KT 10SM CLR 17/12 A3005 RMK AO2 SLP176 T01720117=
201607250253 METAR KCLM 250253Z AUTO 29010KT 10SM CLR 19/12 A3005 RMK AO2 SLP176 T01890122 56012=
201607250153 METAR KCLM 250153Z AUTO 30008KT 10SM CLR 19/12 A3006 RMK AO2 SLP177 T01940122=
201607250053 METAR KCLM 250053Z AUTO 31007KT 10SM CLR 19/13 A3007 RMK AO2 SLP183 T01940128=
201607242353 METAR KCLM 242353Z AUTO 30008KT 10SM CLR 21/13 A3009 RMK AO2 SLP189 T02060128 10217 20189 58010=
201607242253 METAR KCLM 242253Z AUTO 30013KT 10SM CLR 20/12 A3010 RMK AO2 SLP194 T02000122=
201607242153 METAR KCLM 242153Z AUTO 31008KT 10SM CLR 21/12 A3011 RMK AO2 SLP197 T02110122=
201607242053 METAR KCLM 242053Z AUTO 35006KT 10SM CLR 21/12 A3012 RMK AO2 SLP199 T02060122 58007=
201607241953 METAR KCLM 241953Z AUTO 33007KT 10SM CLR 19/12 A3014 RMK AO2 SLP205 T01940117=
201607241853 METAR KCLM 241853Z AUTO 33008KT 10SM CLR 19/12 A3014 RMK AO2 SLP207 T01940122=
201607241753 METAR KCLM 241753Z AUTO 01005KT 10SM CLR 19/12 A3014 RMK AO2 SLP207 T01890117 10189 20117 58003=
201607241653 METAR KCLM 241653Z AUTO 01004KT 10SM CLR 18/12 A3015 RMK AO2 SLP210 T01830117=
201607241553 METAR KCLM 241553Z AUTO 34005KT 10SM CLR 16/12 A3016 RMK AO2 SLP213 T01560117=
201607241453 METAR KCLM 241453Z AUTO VRB03KT 10SM CLR 16/11 A3015 RMK AO2 SLP210 T01610111 58001=
201607241353 METAR KCLM 241353Z AUTO 00000KT 10SM CLR 13/11 A3015 RMK AO2 SLP210 T01330106=
201607241253 METAR KCLM 241253Z AUTO 00000KT 10SM CLR 12/09 A3015 RMK AO2 SLP211 T01220094=
201607241153 METAR KCLM 241153Z AUTO 27006KT 10SM CLR 13/11 A3015 RMK AO2 SLP211 T01280106 10144 20122 58012=
201607241053 METAR KCLM 241053Z AUTO 29007KT 10SM CLR 13/11 A3017 RMK AO2 SLP217 T01280106=
201607240953 METAR KCLM 240953Z AUTO 26006KT 10SM CLR 13/11 A3018 RMK AO2 SLP220 T01280106=
201607240853 METAR KCLM 240853Z AUTO 27006KT 10SM CLR 13/11 A3019 RMK AO2 SLP222 T01280106 56014=
201607240753 METAR KCLM 240753Z AUTO 27006KT 10SM CLR 13/11 A3020 RMK AO2 SLP227 T01280106 401940128=
201607240653 METAR KCLM 240653Z AUTO 27006KT 10SM CLR 13/11 A3021 RMK AO2 SLP230 T01330106=
201607240553 METAR KCLM 240553Z AUTO 27008KT 10SM CLR 14/11 A3023 RMK AO2 SLP236 T01440106 10189 20144 58003=
201607240453 METAR KCLM 240453Z AUTO 28009KT 10SM CLR 14/11 A3023 RMK AO2 SLP238 T01440106=
201607240353 METAR KCLM 240353Z AUTO 28009KT 10SM CLR 16/10 A3024 RMK AO2 SLP238 T01560100=
201607240253 METAR KCLM 240253Z AUTO 30008KT 10SM CLR 17/10 A3024 RMK AO2 SLP239 T01670100 55009=
201607240153 METAR KCLM 240153Z AUTO VRB06KT 10SM CLR 18/11 A3024 RMK AO2 SLP239 T01780106=
201607240053 METAR KCLM 240053Z AUTO 31007KT 280V350 10SM CLR 19/11 A3025 RMK AO2 SLP243 T01890106=
201607232353 METAR KCLM 232353Z AUTO 31009KT 10SM CLR 18/10 A3026 RMK AO2 SLP248 T01830100 10194 20172 58005=
201607232253 METAR KCLM 232253Z AUTO 31007KT 10SM OVC046 19/11 A3027 RMK AO2 SLP251 T01890111=
201607232153 METAR KCLM 232153Z AUTO 30012G18KT 10SM OVC047 18/11 A3029 RMK AO2 SLP257 T01780106=
201607232053 METAR KCLM 232053Z AUTO 31010G16KT 10SM OVC043 18/11 A3028 RMK AO2 SLP253 T01780111 55002=
201607231953 METAR KCLM 231953Z AUTO 31009G18KT 10SM CLR 19/11 A3027 RMK AO2 SLP251 T01940111=
201607231853 METAR KCLM 231853Z AUTO 33007G14KT 300V360 10SM CLR 19/12 A3027 RMK AO2 SLP251 T01890117=
201607231753 METAR KCLM 231753Z AUTO 32013G19KT 10SM CLR 18/11 A3029 RMK AO2 SLP255 T01780111 10189 20144 53008=
201607231653 METAR KCLM 231653Z AUTO 30014KT 10SM FEW045 18/11 A3027 RMK AO2 SLP252 T01780106=
201607231553 METAR KCLM 231553Z AUTO 32008KT 10SM FEW120 18/10 A3027 RMK AO2 SLP250 T01780100=
201607231453 METAR KCLM 231453Z AUTO 26005KT 10SM CLR 17/11 A3026 RMK AO2 SLP248 T01670106 52002=
201607231353 METAR KCLM 231353Z AUTO 26006KT 10SM FEW040 16/11 A3026 RMK AO2 SLP247 T01560106=
201607231253 METAR KCLM 231253Z AUTO 28006KT 10SM OVC039 14/10 A3026 RMK AO2 SLP247 T01440100=
201607231153 METAR KCLM 231153Z AUTO 25007KT 10SM SCT031 BKN043 15/10 A3026 RMK AO2 SLP246 T01500100 10150 20133 57007=
201607231104 SPECI KCLM 231104Z AUTO 25011KT 10SM FEW028 OVC045 14/12 A3026 RMK AO2 T01440117=
201607231053 METAR KCLM 231053Z AUTO 25012KT 10SM BKN028 OVC043 14/12 A3027 RMK AO2 SLP249 T01440117=
201607231025 SPECI KCLM 231025Z AUTO 26008KT 10SM BKN026 14/12 A3027 RMK AO2 T01440117=
201607230953 METAR KCLM 230953Z AUTO 27010KT 10SM CLR 14/12 A3027 RMK AO2 SLP250 T01390117=
201607230853 METAR KCLM 230853Z AUTO 28011KT 10SM FEW015 14/12 A3028 RMK AO2 SLP253 T01390117 58002=
201607230827 SPECI KCLM 230827Z AUTO 27009KT 10SM FEW008 FEW012 14/12 A3028 RMK AO2 T01390117=
201607230753 METAR KCLM 230753Z AUTO 28008KT 10SM FEW037 13/12 A3028 RMK AO2 SLP254 T01330117 401940133=
201607230653 METAR KCLM 230653Z AUTO 30006KT 10SM OVC033 14/12 A3028 RMK AO2 SLP255 T01440117=
201607230553 METAR KCLM 230553Z AUTO 28004KT 10SM OVC032 14/12 A3028 RMK AO2 SLP255 T01440117 10178 20144 50003=
201607230528 SPECI KCLM 230528Z AUTO 28007KT 10SM SCT027 OVC034 14/12 A3028 RMK AO2 T01440117=
201607230453 METAR KCLM 230453Z AUTO 28008KT 10SM OVC027 15/12 A3029 RMK AO2 SLP256 T01500117=
201607230353 METAR KCLM 230353Z AUTO 27005KT 10SM SCT016 OVC028 16/12 A3028 RMK AO2 SLP252 T01610117=
201607230253 METAR KCLM 230253Z AUTO 26010KT 10SM FEW018 OVC029 17/12 A3028 RMK AO2 SLP252 T01670117 53001=
201607230153 METAR KCLM 230153Z AUTO 32005KT 10SM FEW022 OVC028 17/12 A3027 RMK AO2 SLP250 T01720117=
201607230053 METAR KCLM 230053Z AUTO 31009KT 10SM BKN026 OVC033 17/11 A3027 RMK AO2 SLP251 T01670111=
201607230027 SPECI KCLM 230027Z AUTO 30008KT 10SM SCT022 BKN029 OVC033 17/12 A3027 RMK AO2 T01720117=
201607230016 SPECI KCLM 230016Z AUTO 30010KT 10SM SCT020 OVC031 17/12 A3027 RMK AO2 T01720117=
201607230002 SPECI KCLM 230002Z AUTO 30008KT 10SM SCT024 BKN029 OVC035 17/12 A3027 RMK AO2 T01720117=
201607222353 METAR KCLM 222353Z AUTO 31012KT 10SM FEW020 OVC033 17/12 A3027 RMK AO2 SLP251 T01670117 10189 20167 50002=
201607222253 METAR KCLM 222253Z AUTO 30010KT 10SM OVC024 18/12 A3027 RMK AO2 SLP252 T01830117=
201607222153 METAR KCLM 222153Z AUTO 31008KT 10SM BKN020 OVC027 18/12 A3028 RMK AO2 SLP252 T01780117=
201607222053 METAR KCLM 222053Z AUTO 30007KT 280V350 10SM BKN016 OVC022 18/12 A3027 RMK AO2 SLP249 T01780117 51014=
201607221953 METAR KCLM 221953Z AUTO 31012G20KT 10SM BKN018 OVC044 17/12 A3026 RMK AO2 SLP246 T01720117=
201607221921 SPECI KCLM 221921Z AUTO 31012G21KT 10SM BKN019 BKN030 OVC042 18/12 A3025 RMK AO2 T01830117=
201607221853 METAR KCLM 221853Z AUTO 31014G24KT 10SM FEW029 18/12 A3025 RMK AO2 SLP242 T01830117=
201607221753 METAR KCLM 221753Z AUTO 30011G20KT 10SM BKN043 19/12 A3022 RMK AO2 SLP234 T01890117 10189 20156 51012=
201607221653 METAR KCLM 221653Z AUTO 31013G18KT 10SM CLR 18/11 A3021 RMK AO2 SLP230 T01830111=
201607221553 METAR KCLM 221553Z AUTO 30010G20KT 10SM BKN034 18/11 A3020 RMK AO2 SLP226 T01780111=
201607221453 METAR KCLM 221453Z AUTO 30005KT 10SM BKN033 16/11 A3019 RMK AO2 SLP222 T01610111 51012=
201607221353 METAR KCLM 221353Z AUTO 29006KT 10SM OVC031 16/11 A3018 RMK AO2 SLP219 T01560111=
201607221253 METAR KCLM 221253Z AUTO 30007KT 10SM OVC030 16/11 A3017 RMK AO2 LTG DSNT E SLP216 T01560111=
201607221226 SPECI KCLM 221226Z AUTO 29007KT 10SM OVC030 16/11 A3016 RMK AO2 T01560111=
201607221153 METAR KCLM 221153Z AUTO 30009KT 10SM OVC028 16/11 A3015 RMK AO2 SLP210 60000 T01560111 10167 20156 53012=
201607221126 SPECI KCLM 221126Z AUTO 30008KT 10SM OVC029 16/12 A3015 RMK AO2 T01610117=
201607221053 METAR KCLM 221053Z AUTO 28010KT 10SM FEW030 SCT070 OVC085 16/12 A3014 RMK AO2 LTG DSNT S SLP205 T01610117=
201607220953 METAR KCLM 220953Z AUTO 28009KT 10SM FEW080 16/12 A3013 RMK AO2 SLP201 T01610122=
201607220916 SPECI KCLM 220916Z AUTO 25003KT 10SM CLR 16/12 A3013 RMK AO2 LTG DSNT SE T01610122=
201607220901 SPECI KCLM 220901Z AUTO 29004KT 10SM VCTS CLR 16/12 A3013 RMK AO2 LTG DSNT SE T01610122=
201607220853 METAR KCLM 220853Z AUTO 29006KT 10SM CLR 16/12 A3012 RMK AO2 LTG DSNT SE SLP198 60000 T01610122 53007=
201607220753 METAR KCLM 220753Z AUTO 30012KT 10SM FEW110 16/13 A3011 RMK AO2 LTG DSNT SE RAE01 SLP194 P0000 T01610128 402500100=
201607220735 SPECI KCLM 220735Z AUTO 28012G18KT 10SM BKN110 16/13 A3010 RMK AO2 LTG DSNT SE RAE01 P0000 T01610128=
201607220720 SPECI KCLM 220720Z AUTO 29015G20KT 10SM VCTS FEW070 BKN110 16/12 A3010 RMK AO2 RAE01 P0000 T01610122=
201607220653 METAR KCLM 220653Z AUTO 29008KT 10SM -RA FEW075 BKN100 BKN120 16/12 A3010 RMK AO2 LTG DSNT S RAB39 SLP192 P0000 T01560122=
201607220553 METAR KCLM 220553Z AUTO 26007KT 10SM CLR 16/12 A3010 RMK AO2 LTG DSNT S SLP191 60000 T01610122 10211 20161 53011=
201607220453 METAR KCLM 220453Z AUTO 29011KT 10SM SCT065 SCT085 BKN110 17/12 A3008 RMK AO2 LTG DSNT S RAB30E43 TSB01E26 SLP186 P0000 T01720122=
201607220432 SPECI KCLM 220432Z AUTO 29008KT 10SM -RA FEW055 FEW070 SCT110 17/12 A3008 RMK AO2 LTG DSNT E RAB30 TSB01E26 P0000 T01720122=
201607220407 SPECI KCLM 220407Z AUTO 28012KT 10SM TS SCT080 SCT095 18/12 A3008 RMK AO2 LTG DSNT E TSB01 T01830122=
201607220353 METAR KCLM 220353Z AUTO 26010KT 10SM VCTS BKN080 18/12 A3008 RMK AO2 LTG DSNT E-S SLP184 T01830122=
201607220328 SPECI KCLM 220328Z AUTO 27010G18KT 10SM VCTS SCT080 19/12 A3007 RMK AO2 LTG DSNT E-S T01890122=
201607220313 SPECI KCLM 220313Z AUTO 27012KT 10SM FEW080 19/12 A3007 RMK AO2 LTG DSNT E-S T01890117=
201607220253 METAR KCLM 220253Z AUTO 29006KT 10SM VCTS CLR 20/12 A3007 RMK AO2 LTG DSNT E-S SLP180 T02000122 53006=
201607220153 METAR KCLM 220153Z AUTO 29009KT 10SM FEW120 20/12 A3004 RMK AO2 LTG DSNT SE SLP174 T02000122=
201607220053 METAR KCLM 220053Z AUTO 31007KT 10SM CLR 20/12 A3004 RMK AO2 SLP173 T02000122=
201607212353 METAR KCLM 212353Z AUTO 30009KT 10SM CLR 20/12 A3005 RMK AO2 SLP175 T02000122 10250 20200 56005=
201607212253 METAR KCLM 212253Z AUTO 31007KT 10SM CLR 21/12 A3005 RMK AO2 SLP175 T02060117=
201607212153 METAR KCLM 212153Z AUTO 03005KT 10SM CLR 23/11 A3005 RMK AO2 SLP176 T02330111=
201607212053 METAR KCLM 212053Z AUTO 04005KT 10SM CLR 24/11 A3006 RMK AO2 SLP179 T02390111 58006=
201607211953 METAR KCLM 211953Z AUTO VRB03KT 10SM CLR 24/12 A3007 RMK AO2 SLP182 T02390122=
201607211853 METAR KCLM 211853Z AUTO VRB06KT 10SM CLR 23/13 A3008 RMK AO2 SLP185 T02280133=
201607211753 METAR KCLM 211753Z AUTO VRB05KT 10SM CLR 22/13 A3008 RMK AO2 SLP186 T02170133 10217 20100 58005=
201607211653 METAR KCLM 211653Z AUTO 08005KT 10SM CLR 21/13 A3009 RMK AO2 SLP189 T02060133=
201607211553 METAR KCLM 211553Z AUTO 00000KT 10SM CLR 18/12 A3010 RMK AO2 SLP192 T01830117=
201607211453 METAR KCLM 211453Z AUTO 00000KT 10SM CLR 17/12 A3010 RMK AO2 SLP191 T01720122 53004=
201607211353 METAR KCLM 211353Z AUTO 00000KT 10SM CLR 14/12 A3009 RMK AO2 SLP190 T01390122=
201607211253 METAR KCLM 211253Z AUTO 00000KT 10SM CLR 11/10 A3009 RMK AO2 SLP188 T01060100=
201607211153 METAR KCLM 211153Z AUTO 00000KT 10SM CLR 11/10 A3009 RMK AO2 SLP188 T01060100 10156 20106 58001=
201607211053 METAR KCLM 211053Z AUTO 00000KT 10SM CLR 12/11 A3009 RMK AO2 SLP189 T01220106=
201607210953 METAR KCLM 210953Z AUTO 00000KT 9SM CLR 13/12 A3009 RMK AO2 SLP189 T01280122=
201607210853 METAR KCLM 210853Z AUTO 30004KT 10SM CLR 14/12 A3009 RMK AO2 SLP189 T01390117 58004=
201607210753 METAR KCLM 210753Z AUTO 26003KT 10SM CLR 13/12 A3010 RMK AO2 SLP192 T01330117 402170133=
201607210653 METAR KCLM 210653Z AUTO 30003KT 10SM CLR 14/12 A3010 RMK AO2 SLP191 T01390117=
201607210553 METAR KCLM 210553Z AUTO 27007KT 10SM CLR 15/12 A3010 RMK AO2 SLP192 T01500117 10217 20150 56001=
201607210453 METAR KCLM 210453Z AUTO 27007KT 10SM CLR 16/12 A3010 RMK AO2 SLP193 T01610122=
201607210353 METAR KCLM 210353Z AUTO 29005KT 10SM CLR 17/12 A3009 RMK AO2 SLP190 T01720122=
201607210253 METAR KCLM 210253Z AUTO 30006KT 10SM CLR 19/13 A3010 RMK AO2 SLP193 T01890128 56008=
201607210153 METAR KCLM 210153Z AUTO 31009KT 10SM CLR 19/13 A3011 RMK AO2 SLP195 T01940128=
201607210053 METAR KCLM 210053Z AUTO 31010KT 10SM CLR 20/12 A3012 RMK AO2 SLP198 T02000122=
201607202353 METAR KCLM 202353Z AUTO VRB06KT 10SM FEW095 22/12 A3013 RMK AO2 SLP200 T02170122 10217 20183 56009=
201607202253 METAR KCLM 202253Z AUTO 29008KT 10SM OVC095 21/12 A3014 RMK AO2 SLP204 T02060122=
201607202153 METAR KCLM 202153Z AUTO VRB05KT 10SM OVC100 21/13 A3014 RMK AO2 SLP205 T02110128=
201607202053 METAR KCLM 202053Z AUTO 36005KT 10SM OVC100 19/12 A3015 RMK AO2 SLP210 T01940122 56001=
201607201953 METAR KCLM 201953Z AUTO 01004KT 10SM OVC100 20/12 A3015 RMK AO2 SLP209 T02000122=
201607201853 METAR KCLM 201853Z AUTO 01005KT 10SM OVC100 19/13 A3015 RMK AO2 SLP211 T01890128=
201607201753 METAR KCLM 201753Z AUTO VRB05KT 10SM OVC100 18/13 A3016 RMK AO2 SLP211 T01830128 10194 20139 53007=
201607201653 METAR KCLM 201653Z AUTO 32005KT 10SM BKN100 17/13 A3014 RMK AO2 SLP208 T01720128=
201607201553 METAR KCLM 201553Z AUTO 33005KT 10SM FEW008 OVC100 16/13 A3014 RMK AO2 SLP207 T01610128=
201607201453 METAR KCLM 201453Z AUTO 31005KT 10SM FEW006 16/13 A3014 RMK AO2 SLP205 T01560128 53004=
201607201409 SPECI KCLM 201409Z AUTO 00000KT 10SM FEW004 SCT037 15/13 A3013 RMK AO2 T01500133=
201607201353 METAR KCLM 201353Z AUTO 31004KT 10SM SCT037 BKN048 14/13 A3013 RMK AO2 SLP203 T01390128=
201607201253 METAR KCLM 201253Z AUTO 30004KT 10SM SCT004 OVC046 14/13 A3012 RMK AO2 SLP200 T01390128=
201607201250 SPECI KCLM 201250Z AUTO 30004KT 10SM SCT004 OVC046 14/13 A3012 RMK AO2=
201607201153 METAR KCLM 201153Z AUTO 30003KT 10SM SCT039 14/12 A3011 RMK AO2 SLP194 T01390122 10161 20139 56003=
201607201053 METAR KCLM 201053Z AUTO 29003KT 10SM BKN041 OVC050 14/13 A3011 RMK AO2 SLP195 T01440128=
201607200953 METAR KCLM 200953Z AUTO 00000KT 10SM SCT040 SCT050 14/12 A3011 RMK AO2 SLP195 T01390122=
201607200853 METAR KCLM 200853Z AUTO 29005KT 10SM FEW045 SCT050 14/12 A3011 RMK AO2 SLP197 T01390122 57004=
201607200753 METAR KCLM 200753Z AUTO 25003KT 10SM BKN049 OVC055 16/13 A3012 RMK AO2 SLP198 T01560133 402110150=
201607200653 METAR KCLM 200653Z AUTO 27007KT 10SM BKN045 OVC080 16/13 A3012 RMK AO2 SLP200 T01560133=
201607200553 METAR KCLM 200553Z AUTO 29004KT 10SM BKN049 BKN065 OVC080 16/13 A3012 RMK AO2 SLP201 T01560128 10189 20156 53010=
201607200453 METAR KCLM 200453Z AUTO 30006KT 10SM FEW050 OVC075 17/13 A3011 RMK AO2 SLP195 T01670133=
201607200353 METAR KCLM 200353Z AUTO 35003KT 10SM OVC050 17/13 A3010 RMK AO2 SLP192 T01670133=
201607200253 METAR KCLM 200253Z AUTO 30006KT 10SM FEW047 OVC080 18/13 A3009 RMK AO2 SLP191 T01780133 56006=
201607200153 METAR KCLM 200153Z AUTO 31007KT 10SM OVC070 18/13 A3010 RMK AO2 SLP192 T01780133=
201607200053 METAR KCLM 200053Z AUTO 31007KT 10SM OVC065 18/13 A3010 RMK AO2 SLP194 T01830128=
201607192353 METAR KCLM 192353Z AUTO 33007KT 10SM SCT050 OVC065 18/13 A3011 RMK AO2 SLP197 T01830128 10211 20178 58002=
201607192253 METAR KCLM 192253Z AUTO 31007KT 10SM OVC060 19/13 A3012 RMK AO2 SLP200 T01940128=
201607192153 METAR KCLM 192153Z AUTO VRB04KT 10SM BKN060 18/12 A3012 RMK AO2 SLP200 T01830117=
201607192053 METAR KCLM 192053Z AUTO VRB06KT 10SM OVC075 20/12 A3012 RMK AO2 SLP198 T02000122 51006=
201607191953 METAR KCLM 191953Z AUTO 35006KT OVC065 19/12 A3011 RMK AO2 SLP196 T01940122 $=
201607191853 METAR KCLM 191853Z AUTO VRB05KT 10SM CLR 19/12 A3011 RMK AO2 SLP196 T01890122 $=
201607191753 METAR KCLM 191753Z AUTO 01008KT 10SM FEW055 19/12 A3010 RMK AO2 SLP191 T01890122 10194 20150 51002=
201607191653 METAR KCLM 191653Z AUTO 01005KT 10SM FEW024 18/12 A3010 RMK AO2 SLP190 T01830122=
201607191639 SPECI KCLM 191639Z AUTO 03006KT 10SM SCT019 SCT025 SCT055 18/12 A3010 RMK AO2 T01780122=
201607191632 SPECI KCLM 191632Z AUTO 04005KT 10SM SCT019 BKN023 BKN048 18/12 A3010 RMK AO2 T01830122=
201607191553 METAR KCLM 191553Z AUTO 07003KT 10SM OVC048 18/12 A3010 RMK AO2 SLP190 T01780122=
201607191453 METAR KCLM 191453Z AUTO 00000KT 10SM BKN041 OVC049 17/12 A3009 RMK AO2 SLP189 T01670122 51005=
201607191425 SPECI KCLM 191425Z AUTO 00000KT 10SM SCT019 OVC039 16/12 A3009 RMK AO2 T01610122=
201607191353 METAR KCLM 191353Z AUTO 00000KT 10SM BKN020 OVC035 16/12 A3009 RMK AO2 SLP188 T01560117=
201607191349 SPECI KCLM 191349Z AUTO 00000KT 10SM BKN022 OVC037 16/12 A3009 RMK AO2=
201607191253 METAR KCLM 191253Z AUTO 00000KT 10SM OVC034 16/12 A3008 RMK AO2 SLP184 T01560122=
201607191153 METAR KCLM 191153Z AUTO 26005KT 10SM OVC038 16/12 A3006 RMK AO2 SLP180 T01560117 10167 20150 53005=
201607191129 SPECI KCLM 191129Z AUTO 26003KT 10SM SCT030 OVC038 15/12 A3006 RMK AO2 T01500117=
201607191053 METAR KCLM 191053Z AUTO 27003KT 10SM OVC028 15/12 A3005 RMK AO2 SLP176 T01500122=
201607190953 METAR KCLM 190953Z AUTO 26005KT 10SM OVC026 16/12 A3005 RMK AO2 SLP175 T01560122=
201607190853 METAR KCLM 190853Z AUTO 26005KT 10SM OVC029 16/12 A3005 RMK AO2 SLP173 T01560122 50000=
201607190753 METAR KCLM 190753Z AUTO 25005KT 10SM OVC020 16/13 A3005 RMK AO2 SLP175 T01610128 402110122=
201607190653 METAR KCLM 190653Z AUTO 29005KT 10SM OVC025 16/13 A3005 RMK AO2 SLP176 T01560128=
201607190553 METAR KCLM 190553Z AUTO 28008KT 10SM OVC024 17/12 A3005 RMK AO2 SLP173 T01670122 10194 20167 51010=
201607190453 METAR KCLM 190453Z AUTO 26006KT 10SM OVC025 17/12 A3004 RMK AO2 SLP172 T01720122=
201607190353 METAR KCLM 190353Z AUTO 26005KT 10SM OVC024 17/12 A3002 RMK AO2 SLP166 T01720122=
201607190253 METAR KCLM 190253Z AUTO 29007KT 10SM OVC022 18/12 A3001 RMK AO2 SLP164 T01780122 53001=
201607190220 SPECI KCLM 190220Z AUTO VRB06KT 10SM BKN022 OVC047 18/12 A3001 RMK AO2 T01780122=
201607190153 METAR KCLM 190153Z AUTO 32007KT 10SM BKN047 OVC080 18/12 A3000 RMK AO2 SLP159 T01780122=
201607190053 METAR KCLM 190053Z AUTO 31008KT 10SM OVC030 18/13 A3001 RMK AO2 SLP161 T01780128=
201607182353 METAR KCLM 182353Z AUTO 30009KT 10SM OVC035 17/13 A3001 RMK AO2 LTG DSNT S SLP162 T01720128 10211 20172 51010=
201607182253 METAR KCLM 182253Z AUTO 28009KT 10SM BKN030 BKN049 OVC080 18/13 A3000 RMK AO2 SLP159 T01830128=
201607182153 METAR KCLM 182153Z AUTO 31009KT 10SM FEW032 SCT049 BKN070 18/13 A3000 RMK AO2 SLP158 T01830128=
201607182053 METAR KCLM 182053Z AUTO 31011KT 10SM CLR 19/13 A2998 RMK AO2 SLP152 T01940128 53008=
201607181953 METAR KCLM 181953Z AUTO VRB06KT 10SM CLR 21/13 A2997 RMK AO2 SLP148 T02060133=
201607181853 METAR KCLM 181853Z AUTO 33006KT 10SM CLR 19/13 A2996 RMK AO2 SLP146 T01940128=
201607181753 METAR KCLM 181753Z AUTO 35006KT 10SM CLR 19/13 A2996 RMK AO2 SLP144 T01940133 10194 20128 58002=
201607181653 METAR KCLM 181653Z AUTO 31005KT 10SM BKN080 18/13 A2996 RMK AO2 SLP145 T01780128=
201607181553 METAR KCLM 181553Z AUTO 32004KT 10SM OVC080 16/13 A2997 RMK AO2 SLP149 T01560128=
201607181526 SPECI KCLM 181526Z AUTO VRB04KT 10SM FEW006 OVC075 15/13 A2997 RMK AO2 T01500128=
201607181453 METAR KCLM 181453Z AUTO 33005KT 10SM FEW065 OVC075 16/13 A2996 RMK AO2 SLP146 T01560128 53008=
201607181353 METAR KCLM 181353Z AUTO 29004KT 10SM FEW038 BKN055 14/13 A2996 RMK AO2 SLP144 T01390128=
201607181338 SPECI KCLM 181338Z AUTO 29003KT 9SM SCT002 BKN038 OVC050 13/13 A2995 RMK AO2 T01330128=
201607181328 SPECI KCLM 181328Z AUTO 28004KT 3SM BR BKN002 BKN037 OVC050 13/12 A2995 RMK AO2 T01330122=
201607181320 SPECI KCLM 181320Z AUTO 25004KT 1 3/4SM BR OVC002 13/12 A2995 RMK AO2 T01280122=
201607181253 METAR KCLM 181253Z AUTO 29003KT 7SM OVC002 13/12 A2994 RMK AO2 SLP139 T01280122=
201607181153 METAR KCLM 181153Z AUTO 29005KT 10SM BKN003 13/12 A2994 RMK AO2 SLP138 T01330117 10150 20122 53002=
201607181145 SPECI KCLM 181145Z AUTO 30004KT 10SM SCT003 13/12 A2994 RMK AO2 T01280117=
201607181053 METAR KCLM 181053Z AUTO 29003KT 10SM BKN065 13/12 A2994 RMK AO2 SLP137 T01330117=
201607180953 METAR KCLM 180953Z AUTO 24003KT 10SM OVC070 13/12 A2993 RMK AO2 SLP136 T01330117=
201607180853 METAR KCLM 180853Z AUTO 28004KT 7SM FEW002 12/11 A2993 RMK AO2 SLP136 T01220111 58007=
201607180753 METAR KCLM 180753Z AUTO 29004KT 10SM FEW003 13/12 A2995 RMK AO2 SLP140 T01280117 402060122=
201607180735 SPECI KCLM 180735Z AUTO 29005KT 10SM SCT004 BKN080 13/12 A2995 RMK AO2 T01330117=
201607180653 METAR KCLM 180653Z AUTO 24003KT 10SM BKN060 OVC075 15/13 A2995 RMK AO2 SLP140 T01500128=
201607180553 METAR KCLM 180553Z AUTO 28004KT 10SM FEW060 BKN075 14/12 A2995 RMK AO2 SLP143 T01390122 10183 20139 51005=
201607180453 METAR KCLM 180453Z AUTO 26003KT 10SM FEW039 OVC070 14/12 A2995 RMK AO2 SLP142 T01440122=
201607180353 METAR KCLM 180353Z AUTO 33005KT 10SM CLR 14/12 A2994 RMK AO2 SLP140 T01440122=
201607180253 METAR KCLM 180253Z AUTO 31004KT 10SM CLR 18/13 A2994 RMK AO2 SLP138 T01780128 56005=
201607180153 METAR KCLM 180153Z AUTO 30006KT 10SM CLR 17/12 A2994 RMK AO2 SLP139 T01670122=
201607180053 METAR KCLM 180053Z AUTO 32006KT 10SM CLR 18/13 A2994 RMK AO2 SLP137 T01830128=
201607172353 METAR KCLM 172353Z AUTO 30007KT 10SM BKN110 17/12 A2995 RMK AO2 SLP143 T01720122 10206 20172 56003=
201607172253 METAR KCLM 172253Z AUTO 33007KT 10SM FEW110 19/13 A2996 RMK AO2 SLP143 T01890128=
201607172153 METAR KCLM 172153Z AUTO 31008KT 10SM CLR 20/13 A2995 RMK AO2 SLP143 T02000128=
201607172053 METAR KCLM 172053Z AUTO 01007KT 10SM SCT120 20/13 A2996 RMK AO2 SLP145 T02000128 58011=
201607171953 METAR KCLM 171953Z AUTO 01005KT 10SM SCT120 20/13 A2998 RMK AO2 SLP150 T02000128=
201607171853 METAR KCLM 171853Z AUTO 34005KT 10SM CLR 19/13 A2999 RMK AO2 SLP155 T01940128=
201607171753 METAR KCLM 171753Z AUTO VRB04KT 10SM CLR 18/13 A2999 RMK AO2 SLP157 T01780128 10183 20133 58004=
201607171653 METAR KCLM 171653Z AUTO 31006KT 10SM CLR 17/13 A3000 RMK AO2 SLP158 T01720128=
201607171616 SPECI KCLM 171616Z AUTO 34006KT 10SM FEW007 16/12 A3000 RMK AO2 T01560122=
201607171607 SPECI KCLM 171607Z AUTO 36006KT 10SM BKN006 16/13 A3001 RMK AO2 CIG 004V009 T01610128=
201607171553 METAR KCLM 171553Z AUTO VRB03KT 10SM BKN004 16/13 A3000 RMK AO2 SLP160 T01560128=
201607171453 METAR KCLM 171453Z AUTO 29004KT 7SM OVC003 14/13 A3001 RMK AO2 SLP161 T01390128 53004=
201607171353 METAR KCLM 171353Z AUTO 27005KT 6SM BR OVC003 13/13 A3000 RMK AO2 SLP157 T01330128=
201607171253 METAR KCLM 171253Z AUTO 28005KT 4SM BR OVC002 13/12 A3000 RMK AO2 SLP159 T01330122=
201607171218 SPECI KCLM 171218Z AUTO 30005KT 4SM BR OVC002 13/12 A3000 RMK AO2 T01330122=
201607171153 METAR KCLM 171153Z AUTO 31005KT 2 1/2SM BR OVC002 13/12 A2999 RMK AO2 SLP157 T01330122 10133 20122 58004=
201607171147 SPECI KCLM 171147Z AUTO 31004KT 3SM BR OVC002 13/12 A3000 RMK AO2=
201607171116 SPECI KCLM 171116Z AUTO 29005KT 1 3/4SM BR OVC002 13/12 A2999 RMK AO2 T01280117=
201607171053 METAR KCLM 171053Z AUTO 29004KT 3SM BR OVC002 13/12 A2999 RMK AO2 SLP157 T01280117=
201607170953 METAR KCLM 170953Z AUTO 24005KT 7SM OVC003 13/12 A3001 RMK AO2 SLP164 T01330122=
201607170928 SPECI KCLM 170928Z AUTO 25003KT 8SM BKN003 BKN008 13/12 A3002 RMK AO2 T01280122=
201607170914 SPECI KCLM 170914Z AUTO 30004KT 7SM FEW002 13/12 A3002 RMK AO2 T01280117=
201607170853 METAR KCLM 170853Z AUTO 32004KT 8SM CLR 13/12 A3001 RMK AO2 SLP161 T01280117 58006=
201607170753 METAR KCLM 170753Z AUTO 24005KT 10SM CLR 13/12 A3002 RMK AO2 SLP164 T01280117 401940122=
201607170653 METAR KCLM 170653Z AUTO 28005KT 10SM CLR 13/12 A3002 RMK AO2 SLP166 T01330117=
201607170553 METAR KCLM 170553Z AUTO 29003KT 10SM CLR 13/12 A3003 RMK AO2 SLP167 T01330122 10194 20133 58003=
201607170453 METAR KCLM 170453Z AUTO 30004KT 10SM FEW050 14/12 A3003 RMK AO2 SLP169 T01390117=
201607170353 METAR KCLM 170353Z AUTO 30004KT 10SM OVC050 16/12 A3003 RMK AO2 SLP169 T01560122=
201607170253 METAR KCLM 170253Z AUTO 31005KT 10SM OVC050 16/12 A3003 RMK AO2 SLP170 T01610117 56002=
201607170153 METAR KCLM 170153Z AUTO 00000KT 10SM OVC050 17/12 A3003 RMK AO2 SLP170 T01720122=
201607170053 METAR KCLM 170053Z AUTO 00000KT 10SM OVC048 18/11 A3004 RMK AO2 SLP172 T01780111=
201607162353 METAR KCLM 162353Z AUTO 04005KT 10SM FEW049 19/12 A3004 RMK AO2 SLP172 T01940117 10194 20167 58010=
201607162253 METAR KCLM 162253Z AUTO VRB03KT 10SM CLR 19/12 A3005 RMK AO2 SLP176 T01890122=
201607162153 METAR KCLM 162153Z AUTO VRB06KT 10SM CLR 18/12 A3006 RMK AO2 SLP180 T01780122=
201607162053 METAR KCLM 162053Z AUTO 08005KT 10SM CLR 19/12 A3007 RMK AO2 SLP182 T01890122 58000=
201607161953 METAR KCLM 161953Z AUTO 10005KT 10SM CLR 19/12 A3007 RMK AO2 SLP182 T01890117=
201607161853 METAR KCLM 161853Z AUTO VRB05KT 10SM CLR 17/11 A3008 RMK AO2 SLP184 T01720111=
201607161753 METAR KCLM 161753Z AUTO 34006KT 10SM FEW065 17/11 A3007 RMK AO2 SLP183 T01720111 10172 20122 55003=
201607161653 METAR KCLM 161653Z AUTO 36008KT 10SM CLR 16/11 A3007 RMK AO2 SLP182 T01610111=
201607161603 SPECI KCLM 161603Z AUTO VRB03KT 10SM SCT012 16/12 A3007 RMK AO2 T01610117=
201607161553 METAR KCLM 161553Z AUTO 00000KT 10SM BKN012 16/12 A3007 RMK AO2 SLP183 T01560117=
201607161453 METAR KCLM 161453Z AUTO 30007KT 10SM BKN013 BKN065 14/11 A3008 RMK AO2 SLP185 T01440111 51004=
201607161443 SPECI KCLM 161443Z AUTO 30004KT 10SM SCT014 BKN065 14/11 A3008 RMK AO2 T01440111=
201607161426 SPECI KCLM 161426Z AUTO 27004KT 10SM BKN014 OVC065 14/11 A3008 RMK AO2 T01390111=
201607161416 SPECI KCLM 161416Z AUTO 26004KT 10SM SCT013 OVC065 14/11 A3008 RMK AO2 T01390111=
201607161353 METAR KCLM 161353Z AUTO 28003KT 10SM BKN013 BKN095 13/11 A3008 RMK AO2 SLP186 T01330111=
201607161318 SPECI KCLM 161318Z AUTO 00000KT 10SM BKN012 OVC095 13/11 A3007 RMK AO2 T01330111=
201607161253 METAR KCLM 161253Z AUTO 23004KT 10SM FEW013 13/11 A3007 RMK AO2 SLP182 T01280111=
201607161153 METAR KCLM 161153Z AUTO 28007KT 10SM SCT080 SCT100 13/11 A3006 RMK AO2 SLP180 T01280111 10133 20122 58007=
201607161053 METAR KCLM 161053Z AUTO 28009KT 10SM OVC085 13/11 A3007 RMK AO2 SLP183 T01330111=
201607161024 SPECI KCLM 161024Z AUTO 29008KT 10SM SCT012 OVC080 13/11 A3008 RMK AO2 T01330111=
201607160953 METAR KCLM 160953Z AUTO 28009KT 10SM OVC012 13/11 A3008 RMK AO2 SLP187 T01330111=
201607160853 METAR KCLM 160853Z AUTO 28008KT 10SM BKN011 13/11 A3009 RMK AO2 SLP188 T01280111 55010=
201607160753 METAR KCLM 160753Z AUTO 29008KT 10SM SCT008 13/11 A3008 RMK AO2 SLP186 T01280111 402060089=
201607160653 METAR KCLM 160653Z AUTO 28007KT 10SM CLR 13/11 A3010 RMK AO2 SLP193 T01280111=
201607160553 METAR KCLM 160553Z AUTO 29007KT 9SM CLR 13/11 A3012 RMK AO2 SLP198 T01330111 10200 20128 53007=
201607160453 METAR KCLM 160453Z AUTO 29008KT 9SM CLR 13/11 A3011 RMK AO2 SLP195 T01330111=
201607160353 METAR KCLM 160353Z AUTO 30005KT 10SM CLR 14/12 A3010 RMK AO2 SLP192 T01440117=
201607160253 METAR KCLM 160253Z AUTO 31007KT 10SM CLR 17/12 A3010 RMK AO2 SLP191 T01670117 58007=
201607160153 METAR KCLM 160153Z AUTO 30008KT 10SM CLR 17/12 A3011 RMK AO2 SLP195 T01720117=
201607160053 METAR KCLM 160053Z AUTO VRB06KT 10SM CLR 18/11 A3011 RMK AO2 SLP196 T01780111=
201607152353 METAR KCLM 152353Z AUTO 01004KT 10SM CLR 19/12 A3012 RMK AO2 SLP198 T01940117 10206 20167 58012=
201607152253 METAR KCLM 152253Z AUTO 01006KT 10SM CLR 19/11 A3013 RMK AO2 SLP203 T01890111=
201607152153 METAR KCLM 152153Z AUTO 01005KT 10SM CLR 19/11 A3014 RMK AO2 SLP207 T01940111=
201607152053 METAR KCLM 152053Z AUTO 02005KT 10SM CLR 19/11 A3015 RMK AO2 SLP210 T01940106 58002=
201607151953 METAR KCLM 151953Z AUTO VRB05KT 10SM CLR 19/11 A3016 RMK AO2 SLP213 T01890106=
201607151853 METAR KCLM 151853Z AUTO 36006KT 10SM CLR 17/11 A3016 RMK AO2 SLP212 T01720106=
201607151753 METAR KCLM 151753Z AUTO 02004KT 10SM CLR 18/11 A3016 RMK AO2 SLP212 T01780106 10178 20089 58002=
201607151653 METAR KCLM 151653Z AUTO 34004KT 10SM CLR 16/11 A3017 RMK AO2 SLP215 T01610106=
201607151553 METAR KCLM 151553Z AUTO 01006KT 10SM CLR 16/11 A3017 RMK AO2 SLP215 T01560111=
201607151453 METAR KCLM 151453Z AUTO 00000KT 10SM CLR 14/09 A3016 RMK AO2 SLP215 T01440094 51003=
201607151353 METAR KCLM 151353Z AUTO 22003KT 10SM CLR 12/09 A3016 RMK AO2 SLP213 T01170089=
201607151253 METAR KCLM 151253Z AUTO 18003KT 10SM CLR 09/08 A3016 RMK AO2 SLP214 T00890078=
201607151153 METAR KCLM 151153Z AUTO 30006KT 10SM CLR 12/09 A3016 RMK AO2 SLP212 T01170089 10128 20117 56009=
201607151053 METAR KCLM 151053Z AUTO 29006KT 10SM CLR 12/10 A3017 RMK AO2 SLP215 T01170100=
201607150953 METAR KCLM 150953Z AUTO 28009KT 10SM CLR 12/10 A3017 RMK AO2 SLP216 T01220100=
201607150853 METAR KCLM 150853Z AUTO 29009KT 10SM CLR 12/10 A3018 RMK AO2 SLP221 T01170100 58005=
201607150753 METAR KCLM 150753Z AUTO 27008KT 10SM CLR 12/11 A3019 RMK AO2 SLP224 T01220106 402000106=
201607150653 METAR KCLM 150653Z AUTO 29008KT 10SM CLR 12/11 A3020 RMK AO2 SLP225 T01220106=
201607150553 METAR KCLM 150553Z AUTO 29008KT 10SM CLR 13/11 A3020 RMK AO2 SLP226 T01280106 10183 20128 56007=
201607150453 METAR KCLM 150453Z AUTO 29008KT 10SM CLR 14/11 A3020 RMK AO2 SLP228 T01390106=
201607150353 METAR KCLM 150353Z AUTO 27011KT 10SM CLR 14/11 A3020 RMK AO2 SLP226 T01440106=
201607150253 METAR KCLM 150253Z AUTO 28011G17KT 10SM CLR 15/11 A3022 RMK AO2 SLP233 T01500111 53002=
201607150153 METAR KCLM 150153Z AUTO 28007KT 250V310 10SM CLR 17/11 A3021 RMK AO2 SLP231 T01720111=
201607150053 METAR KCLM 150053Z AUTO 31011G14KT 10SM CLR 17/11 A3021 RMK AO2 SLP229 T01720111=
201607142353 METAR KCLM 142353Z AUTO 32011G18KT 10SM CLR 18/11 A3021 RMK AO2 SLP231 T01830111 10200 20172 58010=
201607142253 METAR KCLM 142253Z AUTO 31011KT 10SM FEW039 18/12 A3023 RMK AO2 SLP236 T01780117=
201607142153 METAR KCLM 142153Z AUTO 32011KT 10SM SCT043 SCT055 18/12 A3024 RMK AO2 SLP239 T01830122=
201607142053 METAR KCLM 142053Z AUTO 32011KT 10SM CLR 19/12 A3025 RMK AO2 SLP242 T01890122 58005=
201607141953 METAR KCLM 141953Z AUTO 32010KT 10SM CLR 19/12 A3025 RMK AO2 SLP243 T01890117=
201607141853 METAR KCLM 141853Z AUTO 29009KT 10SM FEW055 18/11 A3026 RMK AO2 SLP246 T01780111=
201607141753 METAR KCLM 141753Z AUTO 30010KT 10SM CLR 17/11 A3026 RMK AO2 SLP247 T01720111 10172 20106 55001=
201607141653 METAR KCLM 141653Z AUTO 31007KT 280V350 10SM CLR 17/11 A3026 RMK AO2 SLP247 T01720111=
201607141553 METAR KCLM 141553Z AUTO 32006KT 10SM CLR 16/11 A3026 RMK AO2 SLP248 T01610106=
201607141453 METAR KCLM 141453Z AUTO 30007KT 10SM CLR 15/11 A3027 RMK AO2 SLP249 T01500111 51007=
201607141353 METAR KCLM 141353Z AUTO 26005KT 10SM CLR 12/09 A3026 RMK AO2 SLP247 T01220094=
201607141253 METAR KCLM 141253Z AUTO 29005KT 10SM CLR 11/09 A3026 RMK AO2 SLP246 T01110089=
201607141153 METAR KCLM 141153Z AUTO 26008KT 10SM CLR 11/09 A3025 RMK AO2 SLP242 T01110089 10139 20106 58003=
201607141053 METAR KCLM 141053Z AUTO 29007KT 10SM CLR 11/09 A3025 RMK AO2 SLP243 T01060089=
201607140953 METAR KCLM 140953Z AUTO 27006KT 10SM CLR 12/09 A3026 RMK AO2 SLP246 T01170094=
201607140853 METAR KCLM 140853Z AUTO 26006KT 10SM CLR 13/10 A3025 RMK AO2 SLP245 T01280100 56002=
201607140753 METAR KCLM 140753Z AUTO 27007KT 10SM CLR 13/10 A3026 RMK AO2 SLP246 T01330100 402060117=
201607140653 METAR KCLM 140653Z AUTO 27006KT 10SM CLR 13/11 A3025 RMK AO2 SLP245 T01330111=
201607140553 METAR KCLM 140553Z AUTO 30005KT 10SM CLR 13/11 A3026 RMK AO2 SLP247 T01330111 10194 20133 50004=
201607140453 METAR KCLM 140453Z AUTO 29009KT 10SM CLR 14/11 A3026 RMK AO2 SLP248 T01440111=
201607140353 METAR KCLM 140353Z AUTO 28009KT 10SM CLR 16/11 A3025 RMK AO2 SLP245 T01560106=
201607140253 METAR KCLM 140253Z AUTO 30008KT 10SM CLR 17/10 A3025 RMK AO2 SLP243 T01720100 55003=
201607140153 METAR KCLM 140153Z AUTO 30008KT 10SM CLR 18/10 A3024 RMK AO2 SLP241 T01830100=
201607140053 METAR KCLM 140053Z AUTO 31010KT 10SM CLR 19/09 A3025 RMK AO2 SLP242 T01890089=
201607132353 METAR KCLM 132353Z AUTO 32009KT 10SM CLR 19/08 A3026 RMK AO2 SLP246 T01940083 10206 20156 51000=
201607132253 METAR KCLM 132253Z AUTO 31011KT 10SM CLR 19/09 A3026 RMK AO2 SLP246 T01940089=
201607132153 METAR KCLM 132153Z AUTO 31010KT 10SM CLR 19/10 A3026 RMK AO2 SLP246 T01890100=
201607132053 METAR KCLM 132053Z AUTO 34007KT 10SM CLR 19/11 A3026 RMK AO2 SLP245 T01890111 58000=
201607131953 METAR KCLM 131953Z AUTO 35006KT 10SM BKN060 19/12 A3026 RMK AO2 SLP247 T01890117=
201607131853 METAR KCLM 131853Z AUTO 36004KT 10SM OVC060 17/12 A3027 RMK AO2 SLP249 T01670117=
201607131753 METAR KCLM 131753Z AUTO 30006KT 10SM OVC060 17/12 A3026 RMK AO2 SLP246 T01670117 10167 20128 51009=
201607131653 METAR KCLM 131653Z AUTO 32005KT 10SM OVC060 16/12 A3025 RMK AO2 SLP242 T01610117=
201607131553 METAR KCLM 131553Z AUTO 29004KT 10SM OVC060 16/11 A3024 RMK AO2 SLP240 T01560111=
201607131453 METAR KCLM 131453Z AUTO 29003KT 10SM OVC060 15/11 A3023 RMK AO2 SLP236 T01500111 53011=
201607131353 METAR KCLM 131353Z AUTO 00000KT 10SM OVC055 13/12 A3022 RMK AO2 SLP232 T01330117=
201607131253 METAR KCLM 131253Z AUTO 00000KT 10SM OVC055 13/12 A3020 RMK AO2 SLP228 T01330117=
201607131153 METAR KCLM 131153Z AUTO 28005KT 10SM OVC050 12/11 A3020 RMK AO2 SLP225 T01220111 10139 20117 53009=
201607131053 METAR KCLM 131053Z AUTO 25003KT 10SM OVC055 13/11 A3018 RMK AO2 SLP220 T01280111=
201607130953 METAR KCLM 130953Z AUTO 00000KT 10SM OVC055 12/11 A3018 RMK AO2 SLP219 T01220106=
201607130853 METAR KCLM 130853Z AUTO 27006KT 10SM OVC055 13/11 A3017 RMK AO2 SLP215 T01330111 51006=
201607130753 METAR KCLM 130753Z AUTO 27004KT 10SM OVC060 13/11 A3016 RMK AO2 SLP213 T01280106 401940128=
201607130653 METAR KCLM 130653Z AUTO 28004KT 10SM OVC050 13/11 A3016 RMK AO2 SLP212 T01330111=
201607130553 METAR KCLM 130553Z AUTO 27008KT 10SM FEW009 BKN055 OVC070 13/11 A3015 RMK AO2 SLP209 60000 T01280111 10161 20128 51008=
201607130549 SPECI KCLM 130549Z AUTO 28007KT 10SM FEW009 OVC060 13/11 A3015 RMK AO2=
201607130453 METAR KCLM 130453Z AUTO 28007KT 10SM FEW042 OVC060 13/12 A3014 RMK AO2 RAE09 SLP208 P0000 T01330117=
201607130353 METAR KCLM 130353Z AUTO 28006KT 3SM -RA BR FEW029 OVC041 13/12 A3012 RMK AO2 RAE11B31 SLP201 P0000 T01330122=
201607130307 SPECI KCLM 130307Z AUTO 29007KT 8SM -RA SCT006 SCT011 OVC036 13/12 A3011 RMK AO2 P0000 T01330122=
201607130253 METAR KCLM 130253Z AUTO 30008KT 4SM -RA BR BKN006 OVC009 14/13 A3011 RMK AO2 SLP195 P0000 60000 T01390128 53012=
201607130251 SPECI KCLM 130251Z AUTO 30008KT 4SM -RA BR OVC006 14/13 A3011 RMK AO2 P0000=
201607130239 SPECI KCLM 130239Z AUTO 30009G17KT 2SM -RA BR BKN004 OVC008 14/12 A3010 RMK AO2 P0000 T01390122=
201607130158 SPECI KCLM 130158Z AUTO 29008KT 3SM -RA BR BKN003 OVC045 14/13 A3010 RMK AO2 P0000 T01440133=
201607130153 METAR KCLM 130153Z AUTO 31007KT 4SM -RA BR FEW003 SCT007 OVC047 15/13 A3009 RMK AO2 SLP191 P0000 T01500133=
201607130129 SPECI KCLM 130129Z AUTO 31005KT 10SM -RA FEW007 OVC049 16/14 A3009 RMK AO2 P0000 T01560139=
201607130053 METAR KCLM 130053Z AUTO 31007KT 10SM -RA BKN047 OVC055 16/13 A3008 RMK AO2 RAB38 SLP185 P0000 T01560133=
201607122353 METAR KCLM 122353Z AUTO 30010KT 10SM FEW090 17/12 A3007 RMK AO2 SLP183 60000 T01720122 10194 20172 51007=
201607122253 METAR KCLM 122253Z AUTO 31007KT 10SM FEW040 BKN100 18/12 A3007 RMK AO2 RAB03E13 SLP181 P0000 T01780117=
201607122153 METAR KCLM 122153Z AUTO 33008KT 300V360 10SM BKN042 BKN050 OVC080 18/11 A3006 RMK AO2 SLP179 T01830111=
201607122053 METAR KCLM 122053Z AUTO VRB05KT 10SM OVC075 18/11 A3005 RMK AO2 RAB1955E13 SLP176 P0000 60000 T01830111 52012=
201607121953 METAR KCLM 121953Z AUTO 32008KT 10SM FEW065 SCT080 19/12 A3004 RMK AO2 SLP172 T01890117=
201607121853 METAR KCLM 121853Z AUTO 32008KT 10SM SCT046 OVC070 18/12 A3003 RMK AO2 SLP168 T01780117=
201607121753 METAR KCLM 121753Z AUTO VRB06KT 10SM BKN046 BKN060 BKN110 18/12 A3002 RMK AO2 SLP164 60000 T01830122 10183 20133 51009=
201607121653 METAR KCLM 121653Z AUTO VRB04KT 10SM BKN042 BKN080 OVC110 18/13 A3001 RMK AO2 SLP162 T01780128=
201607121553 METAR KCLM 121553Z AUTO 00000KT 10SM OVC038 16/13 A3000 RMK AO2 RAE01 SLP159 P0000 T01610128=
201607121453 METAR KCLM 121453Z AUTO 00000KT 10SM -RA OVC095 16/13 A2999 RMK AO2 RAB45 SLP155 P0000 60000 T01560128 53008=
201607121353 METAR KCLM 121353Z AUTO 00000KT 10SM OVC034 14/12 A2998 RMK AO2 SLP151 T01440122=
201607121253 METAR KCLM 121253Z AUTO 29003KT 10SM BKN040 OVC060 14/12 A2997 RMK AO2 SLP148 T01390122=
201607121153 METAR KCLM 121153Z AUTO 00000KT 10SM FEW035 OVC047 13/12 A2996 RMK AO2 SLP146 T01330117 10144 20133 56003=
201607121053 METAR KCLM 121053Z AUTO 00000KT 10SM OVC040 14/12 A2997 RMK AO2 SLP147 T01390122=
201607120953 METAR KCLM 120953Z AUTO 25004KT 10SM OVC035 14/12 A2996 RMK AO2 SLP147 T01440122=
201607120853 METAR KCLM 120853Z AUTO 00000KT 10SM OVC035 14/13 A2997 RMK AO2 SLP149 T01440128 56008=
201607120753 METAR KCLM 120753Z AUTO 22004KT 10SM OVC035 14/12 A2998 RMK AO2 SLP150 T01390122 401940094=
201607120653 METAR KCLM 120653Z AUTO 24003KT 10SM FEW100 13/12 A2999 RMK AO2 SLP155 T01330122=
201607120553 METAR KCLM 120553Z AUTO 23004KT 10SM SCT100 14/12 A3000 RMK AO2 SLP158 60000 T01390117 10178 20139 58006=
201607120453 METAR KCLM 120453Z AUTO 26006KT 10SM OVC075 14/12 A3001 RMK AO2 SLP161 T01440117=
201607120353 METAR KCLM 120353Z AUTO 27005KT 10SM FEW043 BKN060 BKN100 14/12 A3001 RMK AO2 SLP162 T01440122=
201607120253 METAR KCLM 120253Z AUTO 28005KT 10SM OVC095 15/13 A3002 RMK AO2 RAB02E42 SLP164 P0000 60000 T01500128 56010=
201607120153 METAR KCLM 120153Z AUTO 31005KT 10SM OVC070 16/11 A3002 RMK AO2 SLP167 T01560111=
201607120053 METAR KCLM 120053Z AUTO 35004KT 10SM SCT060 OVC095 17/11 A3003 RMK AO2 SLP170 T01670111=
201607112353 METAR KCLM 112353Z AUTO 30006KT 10SM BKN042 OVC065 17/11 A3005 RMK AO2 SLP175 T01720111 10194 20150 58009=
201607112253 METAR KCLM 112253Z AUTO 35005KT 10SM FEW037 BKN044 OVC120 18/10 A3006 RMK AO2 SLP181 T01780100=
201607112153 METAR KCLM 112153Z AUTO 35003KT 10SM OVC036 17/11 A3007 RMK AO2 SLP183 T01720106=
201607112053 METAR KCLM 112053Z AUTO VRB04KT 10SM BKN035 OVC050 19/11 A3007 RMK AO2 SLP184 T01940106 58005=
201607111953 METAR KCLM 111953Z AUTO 03005KT 10SM BKN034 17/11 A3008 RMK AO2 SLP187 T01670111=
201607111853 METAR KCLM 111853Z AUTO VRB04KT 10SM OVC035 16/11 A3009 RMK AO2 SLP188 T01560106=
201607111753 METAR KCLM 111753Z AUTO 01005KT 10SM OVC032 16/11 A3009 RMK AO2 SLP189 T01560106 10161 20094 58003=
201607111653 METAR KCLM 111653Z AUTO 01005KT 10SM SCT032 16/11 A3010 RMK AO2 SLP191 T01560106=
201607111639 SPECI KCLM 111639Z AUTO 00000KT 10SM BKN031 15/11 A3010 RMK AO2 T01500106=
201607111553 METAR KCLM 111553Z AUTO 34003KT 10SM BKN029 14/11 A3010 RMK AO2 SLP192 T01440106=
201607111549 SPECI KCLM 111549Z AUTO 35005KT 10SM BKN029 14/11 A3010 RMK AO2=
201607111453 METAR KCLM 111453Z AUTO 00000KT 10SM CLR 14/11 A3009 RMK AO2 SLP189 T01390106 50003=
201607111353 METAR KCLM 111353Z AUTO 26003KT 10SM CLR 13/10 A3009 RMK AO2 SLP190 T01280100=
201607111253 METAR KCLM 111253Z AUTO 00000KT 10SM CLR 10/08 A3008 RMK AO2 SLP187 T01000083=
201607111153 METAR KCLM 111153Z AUTO 24006KT 10SM CLR 12/09 A3008 RMK AO2 SLP186 T01170094 10133 20117 53000=
201607111053 METAR KCLM 111053Z AUTO 27008KT 10SM FEW100 12/09 A3008 RMK AO2 SLP185 T01220094=
201607110953 METAR KCLM 110953Z AUTO 28013KT 10SM OVC100 13/10 A3007 RMK AO2 SLP184 T01330100=
201607110853 METAR KCLM 110853Z AUTO 28010KT 10SM FEW080 OVC100 13/10 A3008 RMK AO2 SLP186 T01330100 58000=
201607110753 METAR KCLM 110753Z AUTO 29007KT 10SM OVC100 13/11 A3009 RMK AO2 SLP189 T01280106 402000117=
201607110727 SPECI KCLM 110727Z AUTO 27008KT 10SM SCT009 BKN100 12/11 A3009 RMK AO2 T01220106=
201607110715 SPECI KCLM 110715Z AUTO 28007KT 10SM BKN009 BKN090 13/11 A3009 RMK AO2 CIG 007V012 T01280106=
201607110653 METAR KCLM 110653Z AUTO 29009KT 10SM SCT009 OVC090 13/11 A3009 RMK AO2 SLP189 T01280106=
201607110643 SPECI KCLM 110643Z AUTO 29011KT 10SM BKN009 OVC090 13/11 A3009 RMK AO2 CIG 007V011 T01280106=
201607110622 SPECI KCLM 110622Z AUTO 29009KT 10SM BKN010 OVC090 13/11 A3009 RMK AO2 T01330106=
201607110553 METAR KCLM 110553Z AUTO 28009KT 10SM OVC090 13/11 A3008 RMK AO2 SLP187 T01330106 10189 20128 50007=
201607110453 METAR KCLM 110453Z AUTO 27012KT 10SM CLR 13/10 A3008 RMK AO2 SLP187 T01330100=
201607110433 SPECI KCLM 110433Z AUTO 28009KT 10SM SCT014 13/10 A3008 RMK AO2 T01330100=
201607110353 METAR KCLM 110353Z AUTO 29010KT 10SM OVC013 14/11 A3007 RMK AO2 SLP183 T01390106=
201607110253 METAR KCLM 110253Z AUTO 29013G20KT 10SM OVC010 14/11 A3006 RMK AO2 SLP180 T01440106 52009=
201607110230 SPECI KCLM 110230Z AUTO 29010G17KT 10SM OVC010 14/11 A3006 RMK AO2 T01440111=
201607110153 METAR KCLM 110153Z AUTO 29013G19KT 10SM OVC008 14/11 A3005 RMK AO2 SLP177 T01440111=
201607110101 SPECI KCLM 110101Z AUTO 29014G19KT 10SM BKN008 16/12 A3005 RMK AO2 T01560117=
201607110053 METAR KCLM 110053Z AUTO 30012G19KT 10SM FEW010 16/12 A3004 RMK AO2 SLP174 T01560117=
201607102353 METAR KCLM 102353Z AUTO 32010KT 10SM CLR 19/11 A3004 RMK AO2 SLP171 T01890111 10200 20167 51001=
201607102253 METAR KCLM 102253Z AUTO 32009KT 10SM FEW075 19/10 A3004 RMK AO2 SLP171 T01940100=
201607102153 METAR KCLM 102153Z AUTO 32009KT 10SM CLR 19/11 A3004 RMK AO2 SLP172 T01890111=
201607102053 METAR KCLM 102053Z AUTO VRB06KT 10SM CLR 18/11 A3003 RMK AO2 SLP169 T01830111 50001=
201607101953 METAR KCLM 101953Z AUTO VRB05KT 10SM CLR 19/11 A3003 RMK AO2 SLP170 T01940111=
201607101853 METAR KCLM 101853Z AUTO VRB04KT 10SM FEW045 19/11 A3003 RMK AO2 SLP169 T01940106=
201607101753 METAR KCLM 101753Z AUTO 34005KT 10SM BKN043 17/11 A3003 RMK AO2 SLP169 T01720111 10189 20128 51003=
201607101653 METAR KCLM 101653Z AUTO 31003KT 10SM BKN038 17/12 A3002 RMK AO2 SLP167 T01720117=
201607101553 METAR KCLM 101553Z AUTO 27005KT 10SM OVC033 16/12 A3003 RMK AO2 SLP168 T01560122=
201607101508 SPECI KCLM 101508Z AUTO 27004KT 7SM FEW018 FEW025 OVC037 14/12 A3002 RMK AO2 T01440122=
201607101453 METAR KCLM 101453Z AUTO 30003KT 10SM FEW018 BKN026 OVC037 14/12 A3002 RMK AO2 SLP166 T01440122 53009=
201607101353 METAR KCLM 101353Z AUTO 30003KT 10SM BKN020 OVC035 13/12 A3001 RMK AO2 SLP163 T01330117=
201607101253 METAR KCLM 101253Z AUTO 33003KT 10SM OVC019 13/11 A3000 RMK AO2 SLP159 T01280111=
201607101153 METAR KCLM 101153Z AUTO 00000KT 10SM OVC017 13/11 A2999 RMK AO2 SLP156 T01280111 10139 20117 53005=
201607101137 SPECI KCLM 101137Z AUTO 30003KT 10SM OVC016 13/11 A2999 RMK AO2 T01280111=
201607101053 METAR KCLM 101053Z AUTO 00000KT 10SM OVC014 13/12 A2998 RMK AO2 SLP153 T01330117=
201607101041 SPECI KCLM 101041Z AUTO 27003KT 10SM OVC014 14/12 A2998 RMK AO2 T01390117=
201607100953 METAR KCLM 100953Z AUTO 27004KT 10SM OVC028 12/11 A2998 RMK AO2 SLP151 T01220106=
201607100949 SPECI KCLM 100949Z AUTO 29003KT 10SM OVC030 12/11 A2998 RMK AO2=
201607100936 SPECI KCLM 100936Z AUTO 24003KT 10SM BKN029 12/11 A2998 RMK AO2 T01220111=
201607100853 METAR KCLM 100853Z AUTO 24005KT 10SM CLR 12/11 A2998 RMK AO2 SLP150 T01220111 58004=
201607100753 METAR KCLM 100753Z AUTO 23003KT 10SM BKN085 13/11 A2998 RMK AO2 SLP152 T01330111 401830128=
201607100653 METAR KCLM 100653Z AUTO 01003KT 10SM OVC080 13/11 A2999 RMK AO2 SLP154 T01330111=
201607100553 METAR KCLM 100553Z AUTO 00000KT 10SM OVC080 13/12 A2999 RMK AO2 SLP155 60000 T01330117 10172 20133 53003=
201607100453 METAR KCLM 100453Z AUTO 00000KT 10SM FEW110 14/12 A2998 RMK AO2 SLP153 T01440122=
201607100353 METAR KCLM 100353Z AUTO 00000KT 10SM FEW070 BKN090 OVC110 15/12 A2998 RMK AO2 RAB15E51 SLP152 P0000 T01500122=
201607100253 METAR KCLM 100253Z AUTO 00000KT 10SM SCT060 OVC070 16/11 A2998 RMK AO2 SLP151 60000 T01560111 53000=
201607100153 METAR KCLM 100153Z AUTO 00000KT 10SM FEW055 OVC080 17/12 A2998 RMK AO2 RAB27E45 SLP151 P0000 T01670117=
201607100053 METAR KCLM 100053Z AUTO 00000KT 10SM OVC075 16/12 A2997 RMK AO2 SLP150 T01610117=
201607092353 METAR KCLM 092353Z AUTO 35005KT 10SM FEW090 SCT120 17/12 A2998 RMK AO2 RAE02 SLP151 P0000 60000 T01720117 10183 20144 50002=
201607092253 METAR KCLM 092253Z AUTO 00000KT 10SM -RA FEW033 BKN090 OVC110 17/12 A2998 RMK AO2 RAB03 SLP152 P0000 T01670122=
201607092153 METAR KCLM 092153Z AUTO 30003KT 10SM FEW065 BKN100 17/11 A2998 RMK AO2 SLP151 T01670111=
201607092053 METAR KCLM 092053Z AUTO VRB05KT 10SM SCT065 OVC120 16/11 A2997 RMK AO2 SLP149 T01610106 53009=
201607091953 METAR KCLM 091953Z AUTO VRB04KT 10SM SCT070 BKN110 16/11 A2996 RMK AO2 SLP146 T01560106=
201607091853 METAR KCLM 091853Z AUTO 04007KT 10SM FEW032 BKN090 16/11 A2995 RMK AO2 SLP142 T01610111=
201607091803 SPECI KCLM 091803Z AUTO 35005KT 10SM FEW023 BKN030 OVC085 16/12 A2995 RMK AO2 T01560117=
201607091753 METAR KCLM 091753Z AUTO 35005KT 10SM BKN026 OVC090 16/11 A2994 RMK AO2 RAE1655 SLP140 P0000 60000 T01560111 10161 20128 51004=
201607091653 METAR KCLM 091653Z AUTO 00000KT 10SM -RA OVC027 16/11 A2994 RMK AO2 RAB37 SLP137 P0000 T01560111=
201607091553 METAR KCLM 091553Z AUTO 13004KT 10SM OVC024 16/11 A2994 RMK AO2 SLP139 T01560106=
201607091453 METAR KCLM 091453Z AUTO 00000KT 10SM BKN029 OVC070 14/11 A2993 RMK AO2 SLP136 T01440106 52007=
201607091448 SPECI KCLM 091448Z AUTO 00000KT 10SM BKN029 OVC070 14/11 A2993 RMK AO2=
201607091353 METAR KCLM 091353Z AUTO 00000KT 10SM BKN030 BKN075 14/11 A2991 RMK AO2 SLP129 T01390111=
201607091349 SPECI KCLM 091349Z AUTO 00000KT 10SM BKN030 BKN075 14/11 A2991 RMK AO2=
201607091253 METAR KCLM 091253Z AUTO 30003KT 10SM BKN028 13/11 A2991 RMK AO2 SLP127 T01280111=
201607091153 METAR KCLM 091153Z AUTO 33003KT 10SM OVC016 14/12 A2989 RMK AO2 RAE20 SLP122 P0000 60000 T01390117 10150 20139 53010=
201607091053 METAR KCLM 091053Z AUTO 00000KT 4SM RA BR OVC016 14/12 A2988 RMK AO2 RAB48 SLP118 P0000 T01390117=
201607090953 METAR KCLM 090953Z AUTO 29004KT 10SM OVC027 14/12 A2987 RMK AO2 SLP113 T01440117=
201607090925 SPECI KCLM 090925Z AUTO 28004KT 10SM OVC029 14/12 A2986 RMK AO2 T01440117=
201607090853 METAR KCLM 090853Z AUTO 24003KT 10SM FEW016 SCT030 BKN090 14/12 A2986 RMK AO2 SLP112 T01440117 55001=
201607090753 METAR KCLM 090753Z AUTO 27004KT 10SM SCT031 BKN043 OVC095 14/12 A2986 RMK AO2 SLP110 T01440117 401940122=
201607090653 METAR KCLM 090653Z AUTO 28005KT 10SM SCT036 SCT044 BKN050 14/12 A2986 RMK AO2 SLP112 T01440117=
201607090553 METAR KCLM 090553Z AUTO 27007KT 10SM BKN031 15/12 A2987 RMK AO2 SLP113 T01500117 10183 20150 58006=
201607090453 METAR KCLM 090453Z AUTO 25004KT 10SM BKN034 BKN046 16/12 A2987 RMK AO2 SLP116 T01560117=
201607090353 METAR KCLM 090353Z AUTO 27006KT 10SM BKN040 OVC085 16/12 A2988 RMK AO2 SLP118 T01610117=
201607090253 METAR KCLM 090253Z AUTO 30005KT 10SM BKN040 17/12 A2988 RMK AO2 SLP120 T01670117 55003=
201607090153 METAR KCLM 090153Z AUTO 30008KT 10SM SCT040 BKN100 17/12 A2988 RMK AO2 SLP119 T01670117=
201607090053 METAR KCLM 090053Z AUTO 29006KT 10SM SCT042 BKN100 18/12 A2988 RMK AO2 SLP119 T01780122=
201607082353 METAR KCLM 082353Z AUTO 32006KT 10SM BKN042 BKN100 17/12 A2989 RMK AO2 SLP122 60000 T01720122 10194 20161 55001=
201607082253 METAR KCLM 082253Z AUTO 31006KT 10SM SCT070 BKN090 18/12 A2989 RMK AO2 SLP122 T01830117=
201607082153 METAR KCLM 082153Z AUTO 36007KT 10SM CLR 19/12 A2989 RMK AO2 RAB08E27 SLP122 P0000 T01890122=
201607082053 METAR KCLM 082053Z AUTO VRB04KT 10SM FEW026 BKN044 OVC080 17/12 A2990 RMK AO2 SLP124 T01720122 51012=
201607081953 METAR KCLM 081953Z AUTO 36006KT 10SM OVC042 17/12 A2989 RMK AO2 SLP121 T01720117=
201607081853 METAR KCLM 081853Z AUTO 35005KT 10SM BKN045 OVC060 17/12 A2988 RMK AO2 SLP117 T01720117=
201607081809 SPECI KCLM 081809Z AUTO 36006KT 10SM SCT017 OVC065 17/11 A2986 RMK AO2 T01720111=
201607081753 METAR KCLM 081753Z AUTO 34005KT 10SM BKN017 OVC060 17/11 A2986 RMK AO2 SLP112 T01670111 10178 20133 51009=
201607081720 SPECI KCLM 081720Z AUTO 01004KT 10SM SCT017 SCT031 OVC060 17/12 A2986 RMK AO2 T01670117=
201607081700 SPECI KCLM 081700Z AUTO VRB03KT 10SM BKN016 BKN031 OVC075 17/12 A2986 RMK AO2 T01670122=
201607081653 METAR KCLM 081653Z AUTO 08004KT 10SM OVC014 16/12 A2986 RMK AO2 SLP110 T01610122=
201607081608 SPECI KCLM 081608Z AUTO VRB03KT 10SM OVC011 16/12 A2985 RMK AO2 T01610122=
201607081553 METAR KCLM 081553Z AUTO 08003KT 10SM OVC009 16/13 A2985 RMK AO2 CIG 004V011 SLP108 T01560128=
201607081523 SPECI KCLM 081523Z AUTO 08004KT 10SM OVC006 14/13 A2984 RMK AO2 CIG 004V009 T01440133=
201607081453 METAR KCLM 081453Z AUTO 05003KT 6SM BR OVC003 14/13 A2984 RMK AO2 CIG 002V007 SLP103 T01390128 53008=
201607081353 METAR KCLM 081353Z AUTO 00000KT 4SM BR OVC004 14/13 A2982 RMK AO2 SLP098 T01390128=
201607081315 SPECI KCLM 081315Z AUTO 00000KT 3SM BR BKN003 OVC009 14/13 A2982 RMK AO2 T01390133=
201607081312 SPECI KCLM 081312Z AUTO 00000KT 1 3/4SM BR BKN003 OVC008 14/13 A2982 RMK AO2 T01390133=
201607081302 SPECI KCLM 081302Z AUTO 00000KT 3/4SM BR VV003 13/13 A2982 RMK AO2 T01330133=
201607081253 METAR KCLM 081253Z AUTO 00000KT 1/4SM FG VV003 13/13 A2982 RMK AO2 SLP098 T01330128=
201607081226 SPECI KCLM 081226Z AUTO 00000KT 1/4SM FG VV002 13/12 A2982 RMK AO2 T01330122=
201607081153 METAR KCLM 081153Z AUTO 00000KT 1/4SM FG VV001 13/13 A2981 RMK AO2 SLP095 70002 T01330128 10139 20111 53000=
201607081124 SPECI KCLM 081124Z AUTO 00000KT 1/4SM FG VV002 14/13 A2981 RMK AO2 T01390128=
201607081104 SPECI KCLM 081104Z AUTO 00000KT 3/4SM BR VV002 13/13 A2981 RMK AO2 T01330128=
201607081053 METAR KCLM 081053Z AUTO 00000KT 1SM BR OVC002 13/13 A2981 RMK AO2 SLP095 T01330128=
201607081051 SPECI KCLM 081051Z AUTO 00000KT 1 1/2SM BR OVC002 13/13 A2981 RMK AO2=
201607081036 SPECI KCLM 081036Z AUTO 00000KT 3SM BR OVC002 13/12 A2982 RMK AO2 T01280122=
201607081032 SPECI KCLM 081032Z AUTO 00000KT 1 3/4SM BR OVC002 13/12 A2982 RMK AO2 T01280122=
201607081022 SPECI KCLM 081022Z AUTO VRB03KT 3/4SM BR VV002 13/12 A2982 RMK AO2 T01280122=
201607080953 METAR KCLM 080953Z AUTO 00000KT 1/4SM FG VV002 12/12 A2981 RMK AO2 SLP094 T01220117=
201607080944 SPECI KCLM 080944Z AUTO 26003KT 1/4SM FG VV002 13/12 A2981 RMK AO2 T01280117=
201607080918 SPECI KCLM 080918Z AUTO 00000KT 1/2SM FG VV002 13/12 A2981 RMK AO2 T01280122=
201607080853 METAR KCLM 080853Z AUTO 00000KT 1 1/4SM BR OVC002 13/12 A2981 RMK AO2 SLP095 T01330122 56004=
201607080753 METAR KCLM 080753Z AUTO 22003KT 10SM OVC004 12/11 A2982 RMK AO2 SLP096 T01220106 401780111=
201607080748 SPECI KCLM 080748Z AUTO 22003KT 10SM OVC004 11/10 A2981 RMK AO2=
201607080653 METAR KCLM 080653Z AUTO 24003KT 10SM OVC006 12/11 A2982 RMK AO2 SLP099 T01220111=
201607080603 SPECI KCLM 080603Z AUTO 00000KT 8SM BKN008 13/12 A2983 RMK AO2 T01330117=
201607080553 METAR KCLM 080553Z AUTO 00000KT 10SM SCT008 13/12 A2984 RMK AO2 SLP103 60000 T01330122 10172 20128 58000=
201607080550 SPECI KCLM 080550Z AUTO 00000KT 4SM BR FEW009 14/12 A2984 RMK AO2=
201607080548 SPECI KCLM 080548Z AUTO 00000KT 1 3/4SM BR FEW009 13/12 A2984 RMK AO2=
201607080541 SPECI KCLM 080541Z AUTO 00000KT 1 3/4SM BR CLR 13/12 A2984 RMK AO2 T01280117=
201607080453 METAR KCLM 080453Z AUTO 17003KT 10SM CLR 15/12 A2984 RMK AO2 SLP106 T01500122=
201607080353 METAR KCLM 080353Z AUTO 00000KT 10SM SCT095 16/13 A2984 RMK AO2 SLP103 T01560128=
201607080253 METAR KCLM 080253Z AUTO 00000KT 10SM FEW120 17/13 A2984 RMK AO2 SLP104 60000 T01720133 56012=
201607080153 METAR KCLM 080153Z AUTO 26004KT 10SM FEW027 BKN070 OVC090 16/13 A2985 RMK AO2 RAB11E49 SLP107 P0000 T01610133=
201607080053 METAR KCLM 080053Z AUTO 30007KT 10SM OVC075 16/12 A2986 RMK AO2 RAB17E31 SLP112 P0000 T01560117=
201607072353 METAR KCLM 072353Z AUTO 33004KT 10SM SCT050 BKN075 OVC090 15/12 A2988 RMK AO2 SLP117 60000 T01500117 10178 20150 58006=
201607072253 METAR KCLM 072253Z AUTO 00000KT 10SM FEW018 OVC065 17/12 A2989 RMK AO2 SLP120 T01670122=
201607072251 SPECI KCLM 072251Z AUTO 00000KT 10SM SCT018 OVC065 17/12 A2989 RMK AO2=
201607072153 METAR KCLM 072153Z AUTO VRB03KT 10SM OVC018 17/12 A2989 RMK AO2 SLP122 T01670122=
201607072053 METAR KCLM 072053Z AUTO 01004KT 10SM OVC017 16/12 A2990 RMK AO2 SLP124 60000 T01610122 58006=
201607071953 METAR KCLM 071953Z AUTO 08004KT 10SM OVC018 16/12 A2991 RMK AO2 RAB15E27 SLP128 P0000 T01560117=
201607071853 METAR KCLM 071853Z AUTO VRB04KT 10SM OVC020 16/12 A2991 RMK AO2 SLP129 T01610117=
201607071753 METAR KCLM 071753Z AUTO 36003KT 10SM BKN016 OVC075 16/12 A2992 RMK AO2 RAE44 SLP130 P0000 60002 T01610117 10167 20133 56002=
201607071751 SPECI KCLM 071751Z AUTO 35004KT 10SM BKN016 OVC075 16/12 A2991 RMK AO2 RAE44 P0000=
201607071653 METAR KCLM 071653Z AUTO 00000KT 9SM -RA FEW017 OVC060 16/13 A2992 RMK AO2 RAB44 SLP131 P0000 T01560128=
201607071553 METAR KCLM 071553Z AUTO 25004KT 10SM BKN036 OVC060 15/13 A2992 RMK AO2 RAE10 SLP132 P0000 T01500128=
201607071453 METAR KCLM 071453Z AUTO 26004KT 8SM -RA BKN042 BKN050 OVC065 14/13 A2992 RMK AO2 SLP130 P0002 60002 T01440128 55000=
201607071353 METAR KCLM 071353Z AUTO 27003KT 10SM -RA FEW043 OVC060 13/12 A2991 RMK AO2 RAB50 SLP130 P0000 T01330117=
201607071253 METAR KCLM 071253Z AUTO 31004KT 10SM OVC060 13/11 A2991 RMK AO2 SLP130 T01330111=
201607071153 METAR KCLM 071153Z AUTO 27003KT 10SM OVC065 13/11 A2992 RMK AO2 SLP130 T01330111 10150 20128 56010=
201607071053 METAR KCLM 071053Z AUTO 00000KT 10SM FEW070 BKN090 13/11 A2992 RMK AO2 SLP132 T01330111=
201607070953 METAR KCLM 070953Z AUTO 00000KT 10SM CLR 13/11 A2993 RMK AO2 SLP136 T01330111=
201607070853 METAR KCLM 070853Z AUTO 00000KT 10SM SCT085 14/11 A2995 RMK AO2 SLP141 T01390111 58010=
201607070753 METAR KCLM 070753Z AUTO 28006KT 10SM CLR 14/11 A2996 RMK AO2 SLP145 T01390111 401890111=
201607070653 METAR KCLM 070653Z AUTO 28006KT 10SM CLR 15/11 A2997 RMK AO2 SLP148 T01500111=
201607070553 METAR KCLM 070553Z AUTO 29006KT 10SM OVC065 15/11 A2998 RMK AO2 SLP151 T01500111 10178 20150 58012=
201607070453 METAR KCLM 070453Z AUTO 29009KT 10SM BKN060 15/11 A2999 RMK AO2 SLP157 T01500106=
201607070353 METAR KCLM 070353Z AUTO 28007KT 10SM OVC060 16/11 A3000 RMK AO2 SLP160 T01560106=
201607070253 METAR KCLM 070253Z AUTO 32005KT 10SM OVC065 16/10 A3001 RMK AO2 SLP163 T01560100 56011=
201607070153 METAR KCLM 070153Z AUTO 30006KT 10SM OVC070 16/10 A3002 RMK AO2 SLP165 T01560100=
201607070053 METAR KCLM 070053Z AUTO 31005KT 10SM OVC070 17/10 A3003 RMK AO2 SLP168 T01670100=
201607062353 METAR KCLM 062353Z AUTO 31005KT 10SM OVC070 17/11 A3004 RMK AO2 SLP174 T01720106 10189 20150 56009=
201607062253 METAR KCLM 062253Z AUTO 01004KT 10SM BKN070 16/10 A3006 RMK AO2 SLP177 T01610100=
201607062153 METAR KCLM 062153Z AUTO 01007KT 10SM CLR 17/10 A3006 RMK AO2 SLP179 T01720100=
201607062053 METAR KCLM 062053Z AUTO 36006KT 10SM CLR 17/10 A3007 RMK AO2 SLP183 T01720100 58001=
201607061953 METAR KCLM 061953Z AUTO VRB04KT 10SM CLR 17/10 A3008 RMK AO2 SLP185 T01670100=
201607061853 METAR KCLM 061853Z AUTO 36006KT 10SM CLR 16/10 A3008 RMK AO2 SLP186 T01560100=
201607061753 METAR KCLM 061753Z AUTO 35008KT 10SM 15/09 A3007 RMK AO2 SLP184 T01500094 10156 20111 58002=
201607061653 METAR KCLM 061653Z AUTO VRB06KT 10SM 15/10 A3008 RMK AO2 SLP184 T01500100=
201607061646 SPECI KCLM 061646Z AUTO 15/10 A3008 RMK AO2 T01500100 PWINO=
201607061618 SPECI KCLM 061618Z AUTO 01004KT 10SM OVC015 14/10 A3008 RMK AO2 T01440100 $=
201607061601 SPECI KCLM 061601Z AUTO 01005KT 10SM BKN014 14/11 A3008 RMK AO2 T01440106 $=
201607061553 METAR KCLM 061553Z AUTO VRB05KT 10SM SCT013 14/10 A3008 RMK AO2 SLP186 T01440100 $=
201607061536 SPECI KCLM 061536Z AUTO 33006KT 10SM BKN013 14/11 A3008 RMK AO2 T01440106 $=
201607061453 METAR KCLM 061453Z AUTO VRB05KT 10SM CLR 14/11 A3008 RMK AO2 SLP186 T01390106 51005 $=
201607061353 METAR KCLM 061353Z AUTO 25003KT 10SM CLR 13/09 A3008 RMK AO2 SLP185 T01280089 $=
201607061253 METAR KCLM 061253Z AUTO 25005KT 10SM CLR 11/09 A3007 RMK AO2 SLP181 T01110089 $=
201607061153 METAR KCLM 061153Z AUTO 27005KT 10SM CLR 12/09 A3006 RMK AO2 SLP180 T01170094 10128 20111 56010 $=
201607061053 METAR KCLM 061053Z AUTO 25006KT 10SM CLR 12/09 A3007 RMK AO2 SLP183 T01170094 $=
201607060953 METAR KCLM 060953Z AUTO 27007KT 10SM OVC033 12/10 A3008 RMK AO2 SLP187 T01220100 $=
201607060916 SPECI KCLM 060916Z AUTO 24005KT 10SM SCT012 SCT025 BKN033 12/11 A3009 RMK AO2 T01220106 $=
201607060907 SPECI KCLM 060907Z AUTO 24005KT 10SM SCT012 BKN025 OVC033 12/11 A3009 RMK AO2 T01220106 $=
201607060853 METAR KCLM 060853Z AUTO 25006KT 10SM BKN011 OVC025 12/11 A3009 RMK AO2 SLP190 T01220106 53005 $=
201607060846 SPECI KCLM 060846Z AUTO 26005KT 10SM BKN011 OVC025 12/11 A3009 RMK AO2 T01220106 $=
201607060753 METAR KCLM 060753Z AUTO 25004KT 10SM OVC009 12/11 A3009 RMK AO2 CIG 006V012 SLP189 T01220106 401720094 $=
201607060653 METAR KCLM 060653Z AUTO 28007KT 10SM BKN006 OVC085 12/11 A3008 RMK AO2 SLP185 T01220106 $=
201607060651 SPECI KCLM 060651Z AUTO 27006KT 10SM BKN006 OVC085 12/11 A3008 RMK AO2 $=
201607060553 METAR KCLM 060553Z AUTO 33005KT 10SM SCT007 OVC090 12/10 A3007 RMK AO2 SLP184 T01170100 10167 20117 58005 $=
201607060453 METAR KCLM 060453Z AUTO 30003KT 10SM FEW090 12/10 A3008 RMK AO2 SLP187 T01220100 $=
201607060353 METAR KCLM 060353Z AUTO 31003KT 10SM OVC050 14/10 A3009 RMK AO2 SLP190 T01390100=
201607060253 METAR KCLM 060253Z AUTO 33005KT 10SM BKN055 14/10 A3009 RMK AO2 SLP189 T01440100 56003=
201607060153 METAR KCLM 060153Z AUTO 31008KT 10SM OVC055 14/10 A3009 RMK AO2 SLP190 T01440100=
201607060053 METAR KCLM 060053Z AUTO 30009G17KT 10SM FEW017 16/10 A3009 RMK AO2 SLP190 T01610100=
201607052353 METAR KCLM 052353Z AUTO 31012G20KT 10SM CLR 16/10 A3010 RMK AO2 SLP193 60000 T01610100 10172 20139 56005=
201607052253 METAR KCLM 052253Z AUTO 31009G18KT 10SM CLR 17/11 A3010 RMK AO2 SLP194 T01670106=
201607052153 METAR KCLM 052153Z AUTO 31008KT 10SM CLR 17/11 A3011 RMK AO2 SLP194 T01670106=
201607052053 METAR KCLM 052053Z AUTO 30012KT 10SM BKN070 OVC100 15/11 A3011 RMK AO2 SLP197 60000 T01500106 57000=
201607051953 METAR KCLM 051953Z AUTO 33012KT 10SM FEW080 OVC100 15/11 A3012 RMK AO2 SLP198 T01500106 $=
201607051853 METAR KCLM 051853Z AUTO 32007KT 10SM FEW014 SCT070 BKN100 15/11 A3011 RMK AO2 RAE14 SLP197 P0000 T01500111 $=
201607051753 METAR KCLM 051753Z AUTO 30007KT 10SM -RA BKN070 OVC090 14/12 A3012 RMK AO2 RAE00B29 SLP198 P0000 60000 T01440117 10144 20094 55001 $=
201607051653 METAR KCLM 051653Z AUTO 26007KT 10SM -RA BKN075 OVC090 14/11 A3011 RMK AO2 RAE30B49 SLP197 P0000 T01390106 $=
201607051553 METAR KCLM 051553Z AUTO 29006KT 9SM -RA FEW035 BKN075 OVC090 13/11 A3012 RMK AO2 RAB07E23B40 SLP199 P0000 T01280106 $=
201607051453 METAR KCLM 051453Z AUTO 28005KT 10SM OVC090 12/09 A3012 RMK AO2 SLP199 T01220089 53003 $=
201607051353 METAR KCLM 051353Z AUTO 25006KT 10SM OVC110 12/08 A3011 RMK AO2 SLP197 T01170083 $=
201607051253 METAR KCLM 051253Z AUTO 25007KT 10SM OVC110 11/08 A3011 RMK AO2 SLP197 T01060083 $=
201607051153 METAR KCLM 051153Z AUTO 24005KT 10SM SCT026 10/08 A3011 RMK AO2 SLP196 T01000083 10128 20100 56008 $=
201607051129 SPECI KCLM 051129Z AUTO 27006KT 10SM BKN026 11/09 A3011 RMK AO2 T01110094 $=
201607051053 METAR KCLM 051053Z AUTO 26005KT 10SM CLR 11/09 A3012 RMK AO2 SLP198 T01060089 $=
201607050953 METAR KCLM 050953Z AUTO 27006KT 10SM CLR 11/09 A3012 RMK AO2 SLP201 T01110094 $=
201607050853 METAR KCLM 050853Z AUTO 27005KT 10SM FEW015 11/09 A3013 RMK AO2 SLP204 T01110089 58003 $=
201607050753 METAR KCLM 050753Z AUTO 21003KT 10SM CLR 12/09 A3014 RMK AO2 SLP207 T01170094 401780117 $=
201607050653 METAR KCLM 050653Z AUTO 26006KT 10SM CLR 12/09 A3015 RMK AO2 SLP208 T01220094 $=
201607050604 SPECI KCLM 050604Z AUTO 27007KT 10SM SCT013 12/10 A3014 RMK AO2 T01220100 $=
201607050553 METAR KCLM 050553Z AUTO 28006KT 10SM BKN013 BKN019 13/10 A3014 RMK AO2 SLP207 T01280100 10161 20122 50003 $=
201607050538 SPECI KCLM 050538Z AUTO 27006KT 10SM BKN013 OVC018 13/10 A3015 RMK AO2 T01280100 $=
201607050501 SPECI KCLM 050501Z AUTO 30007KT 10SM BKN007 12/11 A3015 RMK AO2 T01220106 $=
201607050453 METAR KCLM 050453Z AUTO 30010G22KT 10SM SCT007 12/11 A3015 RMK AO2 SLP208 T01220106 $=
201607050448 SPECI KCLM 050448Z AUTO 30013G22KT 10SM SCT007 12/11 A3014 RMK AO2 $=
201607050353 METAR KCLM 050353Z AUTO 30017G23KT 10SM SCT011 13/11 A3013 RMK AO2 PK WND 31028/0259 SLP204 T01280106 $=
201607050337 SPECI KCLM 050337Z AUTO 30014G18KT 10SM BKN011 BKN046 13/11 A3014 RMK AO2 PK WND 31028/0259 T01330106 $=
201607050253 METAR KCLM 050253Z AUTO 31019G28KT 10SM CLR 13/11 A3013 RMK AO2 PK WND 30028/0246 SLP204 T01330106 55005 $=
201607050153 METAR KCLM 050153Z AUTO 31018G29KT 10SM CLR 15/10 A3013 RMK AO2 PK WND 30030/0133 SLP203 T01500100 $=
201607050053 METAR KCLM 050053Z AUTO 31017G25KT 10SM CLR 15/10 A3014 RMK AO2 PK WND 30028/0015 SLP206 T01500100 $=
201607042353 METAR KCLM 042353Z AUTO 32013G26KT 10SM CLR 16/10 A3015 RMK AO2 PK WND 29030/2306 SLP210 T01610100 10178 20144 55003 $=
201607042253 METAR KCLM 042253Z AUTO 31014G24KT 10SM CLR 18/10 A3015 RMK AO2 PK WND 29026/2241 SLP209 T01780100 $=
201607042153 METAR KCLM 042153Z AUTO 31013G23KT 10SM FEW048 17/11 A3015 RMK AO2 SLP211 T01670106 $=
201607042108 SPECI KCLM 042108Z AUTO 29013G19KT 10SM SCT020 17/11 A3016 RMK AO2 T01670111 $=
201607042053 METAR KCLM 042053Z AUTO 29015G23KT 10SM BKN018 16/11 A3016 RMK AO2 SLP213 T01610106 53003 $=
201607042029 SPECI KCLM 042029Z AUTO 30014G24KT 10SM BKN016 16/11 A3016 RMK AO2 T01560106 $=
201607042006 SPECI KCLM 042006Z AUTO 30017G23KT 10SM FEW007 BKN013 16/11 A3015 RMK AO2 T01560111 $=
201607041953 METAR KCLM 041953Z AUTO 30015G24KT 10SM FEW008 SCT013 16/11 A3015 RMK AO2 PK WND 29027/1925 SLP210 T01610111 $=
201607041853 METAR KCLM 041853Z AUTO 30015G19KT 10SM FEW009 SCT048 OVC075 14/11 A3015 RMK AO2 SLP210 T01440106 $=
201607041753 METAR KCLM 041753Z AUTO 31013KT 10SM BKN048 OVC100 15/11 A3015 RMK AO2 SLP208 T01500106 10156 20117 50005 $=
201607041653 METAR KCLM 041653Z AUTO 30012G19KT 10SM SCT047 BKN055 OVC100 14/11 A3015 RMK AO2 SLP209 T01440106 $=
201607041553 METAR KCLM 041553Z AUTO 32009KT 10SM FEW050 SCT070 SCT090 14/10 A3014 RMK AO2 SLP206 T01390100 $=
201607041453 METAR KCLM 041453Z AUTO 31008KT 10SM BKN085 14/09 A3013 RMK AO2 SLP203 T01390094 55001 $=
201607041353 METAR KCLM 041353Z AUTO 24006KT 10SM OVC080 13/09 A3013 RMK AO2 SLP201 T01330089 $=
201607041253 METAR KCLM 041253Z AUTO 28011KT 10SM OVC080 13/10 A3013 RMK AO2 SLP202 T01280100 $=
201607041153 METAR KCLM 041153Z AUTO 29008KT 10SM CLR 12/09 A3013 RMK AO2 SLP204 T01170094 10128 20117 58004 $=
201607041053 METAR KCLM 041053Z AUTO 29006KT 10SM FEW015 12/10 A3014 RMK AO2 SLP206 T01170100 $=
201607040953 METAR KCLM 040953Z AUTO 28010KT 10SM BKN042 12/10 A3014 RMK AO2 SLP208 T01220100 $=
201607040907 SPECI KCLM 040907Z AUTO 29014KT 10SM SCT009 BKN045 12/11 A3015 RMK AO2 T01220106 $=
201607040901 SPECI KCLM 040901Z AUTO 29012KT 10SM BKN009 BKN044 12/11 A3015 RMK AO2 CIG 006V011 T01220106 $=
201607040853 METAR KCLM 040853Z AUTO 30011KT 10SM SCT009 BKN044 12/10 A3015 RMK AO2 SLP209 T01170100 50001 $=
201607040813 SPECI KCLM 040813Z AUTO 30012G18KT 10SM BKN006 12/10 A3015 RMK AO2 T01170100 $=
201607040753 METAR KCLM 040753Z AUTO 30014G21KT 10SM FEW006 12/10 A3015 RMK AO2 SLP209 T01220100 401830117 $=
201607040653 METAR KCLM 040653Z AUTO 30006KT 10SM SCT120 13/10 A3015 RMK AO2 SLP209 T01280100 $=
201607040553 METAR KCLM 040553Z AUTO 29010KT 10SM SCT090 13/10 A3014 RMK AO2 SLP208 T01280100 10167 20128 58002 $=
201607040453 METAR KCLM 040453Z AUTO 27007KT 10SM BKN085 13/10 A3015 RMK AO2 SLP211 T01330100 $=
201607040353 METAR KCLM 040353Z AUTO 30014G19KT 10SM FEW011 13/10 A3016 RMK AO2 SLP211 T01330100 $=
201607040253 METAR KCLM 040253Z AUTO 30010G20KT 10SM CLR 14/10 A3015 RMK AO2 PK WND 29027/0202 SLP210 T01390100 55003 $=
201607040153 METAR KCLM 040153Z AUTO 29015KT 10SM CLR 16/09 A3014 RMK AO2 SLP206 T01560089 $=
201607040053 METAR KCLM 040053Z AUTO 29015G25KT 10SM CLR 17/09 A3015 RMK AO2 PK WND 29027/0018 SLP208 T01670089 $=
201607032353 METAR KCLM 032353Z AUTO 30015G24KT 10SM CLR 17/08 A3016 RMK AO2 PK WND 29031/2312 SLP213 T01670078 10183 20150 50001 $=
201607032253 METAR KCLM 032253Z AUTO 30018G26KT 10SM CLR 16/08 A3017 RMK AO2 PK WND 29027/2241 SLP215 T01560083 $=
201607032153 METAR KCLM 032153Z AUTO 31009G21KT 10SM CLR 17/09 A3016 RMK AO2 PK WND 30026/2137 SLP213 T01670089 $=
201607032053 METAR KCLM 032053Z AUTO 30020G27KT 10SM CLR 17/09 A3016 RMK AO2 PK WND 29027/2053 SLP212 T01720089 50004 $=
201607031953 METAR KCLM 031953Z AUTO 30016G25KT 10SM CLR 17/09 A3016 RMK AO2 PK WND 30030/1903 SLP213 T01670089 $=
201607031853 METAR KCLM 031853Z AUTO 31018G26KT 10SM CLR 18/08 A3015 RMK AO2 PK WND 30029/1808 SLP208 T01780083 $=
201607031753 METAR KCLM 031753Z AUTO 32015G24KT 10SM CLR 17/08 A3015 RMK AO2 PK WND 29028/1731 SLP208 T01720083 10172 20128 51010 $=
201607031653 METAR KCLM 031653Z AUTO 31017G24KT 10SM CLR 17/08 A3014 RMK AO2 PK WND 31026/1639 SLP206 T01670083 $=
201607031553 METAR KCLM 031553Z AUTO 31008KT 10SM CLR 16/09 A3013 RMK AO2 SLP204 T01560089 $=
201607031453 METAR KCLM 031453Z AUTO 31008KT 10SM CLR 16/09 A3012 RMK AO2 SLP198 T01560089 53007 $=
201607031353 METAR KCLM 031353Z AUTO 30008KT 10SM FEW014 SCT033 14/11 A3010 RMK AO2 SLP194 T01390106 $=
201607031348 SPECI KCLM 031348Z AUTO 30009KT 10SM FEW014 BKN033 14/11 A3011 RMK AO2 $=
201607031337 SPECI KCLM 031337Z AUTO 30004KT 10SM FEW009 BKN015 OVC033 14/11 A3011 RMK AO2 T01390111 $=
201607031307 SPECI KCLM 031307Z AUTO 26006KT 10SM BKN013 13/11 A3010 RMK AO2 T01280111 $=
201607031253 METAR KCLM 031253Z AUTO 28007KT 10SM BKN015 BKN034 13/11 A3010 RMK AO2 SLP191 T01280106 $=
201607031251 SPECI KCLM 031251Z AUTO 29008G19KT 10SM BKN015 OVC034 13/11 A3010 RMK AO2 $=
201607031222 SPECI KCLM 031222Z AUTO 25007KT 10SM SCT028 BKN033 13/11 A3008 RMK AO2 T01330106 $=
201607031153 METAR KCLM 031153Z AUTO 25005KT 10SM BKN028 13/11 A3008 RMK AO2 SLP185 T01330111 10133 20117 53010 $=
201607031053 METAR KCLM 031053Z AUTO VRB03KT 10SM FEW055 13/11 A3006 RMK AO2 SLP180 T01280106 $=
201607030953 METAR KCLM 030953Z AUTO 28006KT 10SM FEW010 FEW050 BKN065 13/11 A3005 RMK AO2 SLP177 T01330106 $=
201607030853 METAR KCLM 030853Z AUTO 34003KT 10SM SCT044 OVC060 13/11 A3005 RMK AO2 SLP175 T01280106 53001 $=
201607030753 METAR KCLM 030753Z AUTO 00000KT 10SM OVC060 13/11 A3004 RMK AO2 SLP171 T01330106 401830128 $=
201607030653 METAR KCLM 030653Z AUTO 27009KT 10SM OVC060 13/11 A3004 RMK AO2 SLP171 T01330106 $=
201607030553 METAR KCLM 030553Z AUTO 29010KT 10SM OVC090 13/11 A3004 RMK AO2 SLP174 T01280106 10172 20128 50002 $=
201607030453 METAR KCLM 030453Z AUTO 28009KT 10SM CLR 13/10 A3005 RMK AO2 SLP175 T01280100 $=
201607030353 METAR KCLM 030353Z AUTO 29009KT 10SM CLR 14/10 A3004 RMK AO2 SLP173 T01390100 $=
201607030253 METAR KCLM 030253Z AUTO 29012G18KT 10SM CLR 15/11 A3004 RMK AO2 SLP172 T01500106 55003 $=
201607030153 METAR KCLM 030153Z AUTO 29013KT 10SM BKN110 16/10 A3003 RMK AO2 SLP169 T01560100 $=
201607030053 METAR KCLM 030053Z AUTO 31014G19KT 10SM CLR 16/09 A3004 RMK AO2 SLP173 T01610094 $=
201607022353 METAR KCLM 022353Z AUTO 31015G21KT 10SM FEW021 17/10 A3005 RMK AO2 SLP174 T01720100 10183 20161 58003 $=
201607022253 METAR KCLM 022253Z AUTO 31010G17KT 10SM OVC019 17/11 A3005 RMK AO2 SLP177 T01670106 $=
201607022153 METAR KCLM 022153Z AUTO 30012G17KT 10SM OVC017 17/11 A3006 RMK AO2 SLP178 T01670106=
201607022053 METAR KCLM 022053Z AUTO 30014G20KT 10SM OVC020 17/11 A3006 RMK AO2 SLP178 T01720106 51002=
201607021953 METAR KCLM 021953Z AUTO 31013KT 10SM OVC018 17/11 A3005 RMK AO2 SLP177 T01720106=
201607021853 METAR KCLM 021853Z AUTO 30009KT 10SM OVC019 17/11 A3005 RMK AO2 SLP177 T01720111=
201607021753 METAR KCLM 021753Z AUTO 31007KT 10SM OVC017 17/11 A3005 RMK AO2 SLP176 T01670111 10167 20139 58002=
201607021713 SPECI KCLM 021713Z AUTO 29010KT 10SM OVC015 16/12 A3006 RMK AO2 T01610117=
201607021653 METAR KCLM 021653Z AUTO 30009KT 10SM OVC013 16/12 A3006 RMK AO2 SLP179 T01610117=
201607021604 SPECI KCLM 021604Z AUTO 30006KT 10SM BKN011 OVC020 16/13 A3005 RMK AO2 T01610128=
201607021553 METAR KCLM 021553Z AUTO 30007KT 10SM SCT011 OVC020 16/12 A3005 RMK AO2 SLP177 T01560122=
201607021538 SPECI KCLM 021538Z AUTO 31008KT 10SM SCT011 OVC020 16/12 A3006 RMK AO2 T01560122=
201607021505 SPECI KCLM 021505Z AUTO 30007KT 10SM OVC010 15/12 A3006 RMK AO2 T01500122=
201607021453 METAR KCLM 021453Z AUTO 29007KT 10SM BKN008 OVC021 15/13 A3006 RMK AO2 CIG 006V012 SLP178 T01500128 53004=
201607021443 SPECI KCLM 021443Z AUTO 30007KT 10SM BKN008 OVC021 15/13 A3006 RMK AO2 CIG 005V010 T01500128=
201607021416 SPECI KCLM 021416Z AUTO 31005KT 10SM FEW004 OVC020 14/12 A3005 RMK AO2 T01390122=
201607021353 METAR KCLM 021353Z AUTO 33004KT 10SM OVC017 14/13 A3005 RMK AO2 SLP176 T01390128=
201607021253 METAR KCLM 021253Z AUTO 30004KT 10SM OVC016 14/12 A3005 RMK AO2 SLP174 T01390122=
201607021153 METAR KCLM 021153Z AUTO 30004KT 10SM OVC016 14/13 A3005 RMK AO2 SLP175 T01440128 10150 20139 55001=
201607021053 METAR KCLM 021053Z AUTO 29005KT 10SM OVC017 15/13 A3005 RMK AO2 SLP174 T01500133=
201607021004 SPECI KCLM 021004Z AUTO 28006KT 10SM FEW006 OVC017 15/13 A3005 RMK AO2 T01500133=
201607020953 METAR KCLM 020953Z AUTO 28005KT 10SM BKN006 OVC017 14/13 A3005 RMK AO2 SLP175 T01440133=
201607020905 SPECI KCLM 020905Z AUTO 28005KT 10SM OVC005 15/13 A3005 RMK AO2 T01500133=
201607020853 METAR KCLM 020853Z AUTO 27004KT 10SM OVC004 15/13 A3005 RMK AO2 SLP176 T01500133 56009=
201607020753 METAR KCLM 020753Z AUTO 29007KT 10SM OVC004 14/13 A3005 RMK AO2 SLP177 T01440133 401780106=
201607020722 SPECI KCLM 020722Z AUTO 30005KT 10SM OVC004 14/13 A3006 RMK AO2 T01440133=
201607020653 METAR KCLM 020653Z AUTO 28007KT 10SM OVC005 14/13 A3007 RMK AO2 CIG 004V010 SLP181 T01440133=
201607020642 SPECI KCLM 020642Z AUTO 28009KT 10SM BKN007 OVC011 15/13 A3007 RMK AO2 CIG 004V009 T01500133=
201607020630 SPECI KCLM 020630Z AUTO 28007KT 10SM FEW005 OVC011 15/13 A3007 RMK AO2 CIG 008V012 T01500133=
201607020616 SPECI KCLM 020616Z AUTO 28008KT 10SM BKN011 OVC016 15/13 A3008 RMK AO2 T01500133=
201607020553 METAR KCLM 020553Z AUTO 28007KT 10SM BKN016 OVC032 15/13 A3008 RMK AO2 SLP185 T01500133 10178 20144 56003=
201607020453 METAR KCLM 020453Z AUTO 00000KT 10SM OVC033 15/13 A3008 RMK AO2 SLP187 T01500133=
201607020434 SPECI KCLM 020434Z AUTO 30003KT 10SM OVC034 15/13 A3009 RMK AO2 T01500133=
201607020353 METAR KCLM 020353Z AUTO 33004KT 10SM BKN028 OVC039 16/13 A3009 RMK AO2 SLP188 T01560133=
201607020318 SPECI KCLM 020318Z AUTO 30004KT 10SM BKN029 OVC037 16/13 A3009 RMK AO2 T01610133=
201607020253 METAR KCLM 020253Z AUTO 31006KT 10SM OVC035 17/13 A3009 RMK AO2 SLP190 T01670133 56008=
201607020153 METAR KCLM 020153Z AUTO 30003KT 10SM OVC035 18/13 A3010 RMK AO2 SLP192 T01780128=
201607020139 SPECI KCLM 020139Z AUTO 28004KT 10SM SCT025 OVC035 18/13 A3010 RMK AO2 T01780128=
201607020053 METAR KCLM 020053Z AUTO 36003KT 10SM OVC027 17/13 A3011 RMK AO2 SLP195 T01720128=
201607012353 METAR KCLM 012353Z AUTO 00000KT 10SM OVC028 17/13 A3012 RMK AO2 RAE2255B13E22 SLP198 P0000 60000 T01720133 10172 20144 58004=
201607012339 SPECI KCLM 012339Z AUTO 00000KT 10SM BKN029 OVC045 17/13 A3012 RMK AO2 RAE2255B13E22 P0000 T01670133=
201607012253 METAR KCLM 012253Z AUTO 00000KT 5SM -RA BKN035 OVC044 16/13 A3013 RMK AO2 RAB2157 SLP201 P0000 T01610133=
201607012251 SPECI KCLM 012251Z AUTO 00000KT 4SM -RA BKN035 OVC044 16/13 A3013 RMK AO2 RAB2157 P0000=
201607012242 SPECI KCLM 012242Z AUTO 00000KT 2 1/2SM -RA BKN035 BKN042 OVC049 16/13 A3013 RMK AO2 RAB2157 P0000 T01560128=
201607012230 SPECI KCLM 012230Z AUTO 00000KT 1 3/4SM -RA SCT035 OVC047 16/13 A3013 RMK AO2 RAB2157 P0000 T01560128=
201607012153 METAR KCLM 012153Z AUTO VRB03KT 10SM OVC048 15/12 A3013 RMK AO2 SLP202 T01500117=
201607012053 METAR KCLM 012053Z AUTO VRB04KT 10SM OVC048 17/12 A3013 RMK AO2 SLP203 60000 T01670117 58004=
201607011953 METAR KCLM 011953Z AUTO 03003KT 10SM OVC049 17/12 A3013 RMK AO2 RAB01E32 SLP203 P0000 T01670117=
201607011853 METAR KCLM 011853Z AUTO 35004KT 9SM FEW020 OVC046 14/11 A3014 RMK AO2 RAE20 SLP207 P0000 T01440111=
201607011753 METAR KCLM 011753Z AUTO 35004KT 10SM -RA OVC050 14/11 A3014 RMK AO2 RAB48 SLP206 P0000 60000 T01440106 10156 20106 53006=
201607011653 METAR KCLM 011653Z AUTO 00000KT 10SM OVC060 14/10 A3013 RMK AO2 RAE15B42E52 SLP203 P0000 T01440100=
201607011553 METAR KCLM 011553Z AUTO 00000KT 10SM -RA BKN070 OVC090 14/10 A3013 RMK AO2 RAB44 SLP203 P0000 T01440100=
201607011453 METAR KCLM 011453Z AUTO 29005KT 10SM OVC075 14/09 A3012 RMK AO2 SLP200 T01390094 53004=
201607011353 METAR KCLM 011353Z AUTO 27007KT 10SM CLR 13/09 A3011 RMK AO2 SLP197 T01330094=
201607011253 METAR KCLM 011253Z AUTO 25005KT 10SM CLR 11/09 A3011 RMK AO2 SLP197 T01110089=
201607011153 METAR KCLM 011153Z AUTO 25006KT 10SM CLR 11/09 A3011 RMK AO2 SLP196 T01110089 10128 20111 56005=
201607011053 METAR KCLM 011053Z AUTO 26006KT 10SM CLR 12/09 A3011 RMK AO2 SLP197 T01170089=
201607010953 METAR KCLM 010953Z AUTO 25008KT 10SM CLR 12/09 A3012 RMK AO2 SLP200 T01220089=
201607010853 METAR KCLM 010853Z AUTO 25007KT 10SM CLR 12/09 A3013 RMK AO2 SLP201 T01220089 58009=
201607010753 METAR KCLM 010753Z AUTO 26007KT 10SM CLR 12/08 A3014 RMK AO2 SLP207 T01220083 401720117=
201607010653 METAR KCLM 010653Z AUTO 28010KT 10SM CLR 13/09 A3015 RMK AO2 SLP208 T01280089=
201607010553 METAR KCLM 010553Z AUTO 28009KT 10SM CLR 13/09 A3015 RMK AO2 SLP211 T01280089 10167 20122 56004=
201607010453 METAR KCLM 010453Z AUTO 28009KT 10SM CLR 13/09 A3016 RMK AO2 SLP213 T01280089=
201607010353 METAR KCLM 010353Z AUTO 30010KT 10SM CLR 13/09 A3015 RMK AO2 SLP211 T01330089=
201607010253 METAR KCLM 010253Z AUTO 30008KT 10SM CLR 15/09 A3016 RMK AO2 SLP214 T01500089 56008=
201607010153 METAR KCLM 010153Z AUTO 27013KT 10SM CLR 17/09 A3017 RMK AO2 SLP216 T01670094=
201607010053 METAR KCLM 010053Z AUTO 31012KT 10SM CLR 16/10 A3017 RMK AO2 SLP218 T01610100=

# No short TAF reports from KCLM in databse.

###################################
#  large TAF from KCLM
###################################
201607312320 TAF KCLM 312320Z 0100/0124 31005KT P6SM SKC FM010100 29006KT P6SM
                       FEW100 FM011000 28006KT P6SM BKN009 FM011600
                       32004KT P6SM BKN015 FM011800 33006KT P6SM
                       SCT020 SCT250=
201607311720 TAF KCLM 311720Z 3118/0118 VRB03KT P6SM OVC015 FM312000 33008KT
                       P6SM SCT020 SCT050 FM010100 29006KT P6SM
                       FEW100 FM011000 28006KT P6SM BKN009 FM011500
                       32004KT P6SM BKN015=
201607311120 TAF KCLM 311120Z 3112/0112 21004KT P6SM SCT060 FM311700 33007KT
                       P6SM SCT070 FM010100 29006KT P6SM FEW100
                       FM011000 28006KT P6SM BKN009=
201607310524 TAF KCLM 310524Z 3106/0106 28005KT P6SM FEW060 FM311100 26006KT
                       P6SM BKN015 FM311700 33007KT P6SM SCT040
                       SCT250 FM010100 29006KT P6SM FEW100=
201607302320 TAF KCLM 302320Z 3100/3124 32008KT P6SM SKC FM310300 29010KT P6SM
                       FEW060 FM310800 27010KT P6SM OVC015 FM311300
                       27006KT P6SM SCT020 BKN040 FM311700 33007KT
                       P6SM SCT040 SCT250=
201607301720 TAF KCLM 301720Z 3018/3118 32008KT P6SM SKC FM310300 29010KT P6SM
                       FEW060 FM310800 27010KT P6SM OVC015 FM311300
                       27006KT P6SM SCT020 BKN040=
201607301120 TAF KCLM 301120Z 3012/3112 26003KT P6SM SKC FM301800 33012KT P6SM
                       FEW060 FM310300 29010KT P6SM FEW060 FM310800
                       27010KT P6SM OVC015=
201607300520 TAF KCLM 300520Z 3006/3106 29010KT P6SM SKC FM301100 28010KT P6SM
                       BKN010 FM301700 30009KT P6SM SCT015 FM301900
                       33012KT P6SM SKC=
201607300052 TAF AMD KCLM 300052Z 3001/3024 31010KT P6SM SCT250 FM300900 28012KT
                       P6SM BKN015 FM301700 30009KT P6SM SCT020
                       SCT250 FM302000 33012KT P6SM SCT250=
201607292320 TAF KCLM 292320Z 3000/3024 30008KT P6SM SKC FM300100 30010KT P6SM
                       SCT040 SCT200 FM300900 28012KT P6SM BKN015
                       FM301700 30009KT P6SM SCT020 SCT250 FM302000
                       33012KT P6SM SCT250=
201607291720 TAF KCLM 291720Z 2918/3018 VRB04KT P6SM SKC FM291900 30008KT P6SM
                       SKC FM300000 30014KT P6SM SCT040 SCT200
                       FM300900 28007KT P6SM BKN015 FM301700 30009KT
                       P6SM SCT020 SCT250=
201607291120 TAF KCLM 291120Z 2912/3012 00000KT P6SM VCFG SKC FM291900 30008KT
                       P6SM SKC FM300000 30014KT P6SM SCT040 SCT200
                       FM300900 28007KT P6SM BKN015=
201607290520 TAF KCLM 290520Z 2906/3006 30003KT P6SM SKC FM290800 VRB03KT P6SM
                       VCFG SCT001 FM291700 32007KT P6SM SKC=
201607282320 TAF KCLM 282320Z 2900/2924 VRB03KT P6SM SKC FM290200 29007KT P6SM
                       SKC FM290800 VRB03KT P6SM VCFG SCT001 FM291700
                       32007KT P6SM SKC=
201607281728 TAF KCLM 281728Z 2818/2918 08005KT P6SM SKC FM282300 32006KT P6SM
                       SKC FM290200 29007KT P6SM SKC FM290800 VRB03KT
                       P6SM VCFG SCT001 FM291700 32007KT P6SM SKC=
201607281444 TAF AMD KCLM 281444Z 2815/2912 00000KT P6SM SKC FM281600 33005KT
                       P6SM SKC FM290800 VRB03KT 2SM BR BKN002=
201607281120 TAF KCLM 281120Z 2812/2912 00000KT 2SM BR OVC002
                      TEMPO 2812/2816 1/2SM FG VV001 FM281600 33005KT
                       P6SM SKC FM290800 VRB03KT 2SM BR BKN002=
201607280842 TAF AMD KCLM 280842Z 2809/2906 33004KT 3SM BR BKN003
                      TEMPO 2809/2811 1SM BR OVC001 FM281600 33005KT
                       P6SM SKC=
201607280520 TAF KCLM 280520Z 2806/2906 29006KT P6SM SKC FM281100 27005KT P6SM
                       VCFG SCT001 FM281600 34005KT P6SM SKC=
201607272320 TAF KCLM 272320Z 2800/2824 34005KT P6SM SKC FM280200 29007KT P6SM
                       SKC FM281100 27005KT P6SM VCFG SCT001 FM281600
                       34005KT P6SM SKC=
201607271724 TAF KCLM 271724Z 2718/2818 10009KT P6SM SKC FM272200 34005KT P6SM
                       SKC FM280200 29007KT P6SM SKC FM281100 27005KT
                       P6SM VCFG SCT001 FM281600 34005KT P6SM SKC=
201607271428 TAF AMD KCLM 271428Z 2714/2812 00000KT P6SM SCT001 FM271600 VRB03KT
                       P6SM SKC FM271800 30007KT P6SM SKC=
201607271120 TAF KCLM 271120Z 2712/2812 24004KT 2SM BR BKN003
                      TEMPO 2712/2716 1/4SM FG VV001 FM271800 30007KT
                       P6SM SKC=
201607270817 TAF AMD KCLM 270817Z 2708/2806 28008KT 2SM BR OVC002
                      TEMPO 2710/2714 4SM BR BKN004 FM271400 25005KT
                       5SM BR BKN005
                      TEMPO 2714/2718 SCT005 FM271800 30007KT P6SM
                       SKC=
201607270520 TAF KCLM 270520Z 2706/2806 30008KT P6SM BKN005
                      TEMPO 2706/2709 SCT005 FM271900 34007KT P6SM
                       SKC=
201607270502 TAF AMD KCLM 270502Z 2705/2724 30008KT P6SM BKN005
                      TEMPO 2705/2709 SCT005 FM271900 34007KT P6SM
                       SKC=
201607262320 TAF KCLM 262320Z 2700/2724 30012KT P6SM SKC FM270700 28008KT P6SM
                       SKC FM271000 27007KT P6SM SCT012
                      TEMPO 2712/2716 BKN012 FM271900 34007KT P6SM
                       SKC=
201607261937 TAF AMD KCLM 261937Z 2620/2718 30008KT P6SM SCT012 FM262100 32010G16KT
                       P6SM SCT250 FM262300 30012G20KT P6SM SCT250
                       FM270400 29009KT P6SM SCT250 FM271000 27007KT
                       P6SM OVC012 FM271700 26005KT P6SM SCT025=
201607261726 TAF KCLM 261726Z 2618/2718 30006KT P6SM OVC012 FM262100 32010G16KT
                       P6SM SCT250 FM262300 30012G20KT P6SM SCT250
                       FM270400 29009KT P6SM SCT250 FM271000 27007KT
                       P6SM OVC012 FM271700 26005KT P6SM SCT025=
201607261502 TAF AMD KCLM 261502Z 2615/2712 30007KT P6SM BKN008 FM261800 32008KT
                       P6SM SCT015 FM262200 32012KT P6SM SKC=
201607261120 TAF KCLM 261120Z 2612/2712 28012KT P6SM BKN005 FM261800 32008KT
                       P6SM SCT015 FM262200 32012KT P6SM SKC=
201607260520 TAF KCLM 260520Z 2606/2706 30009KT P6SM SCT008 FM261000 28008KT
                       P6SM OVC005 FM261900 32008KT P6SM FEW250=
201607252327 TAF KCLM 252327Z 2600/2624 30009KT P6SM FEW250 FM260100 29012G22KT
                       P6SM FEW250 FM261000 28008KT P6SM OVC005
                       FM261900 32008KT P6SM FEW250=
201607251723 TAF KCLM 251723Z 2518/2618 30007KT P6SM SCT220 FM260100 29012G22KT
                       P6SM SCT220 FM261000 28008KT P6SM OVC005=
201607251444 TAF AMD KCLM 251444Z 2515/2612 00000KT P6SM SCT002 FM251700 32010KT
                       P6SM SCT200 FM260100 29012G22KT P6SM SKC
                       FM261000 28011KT P6SM SCT006=
201607251120 TAF KCLM 251120Z 2512/2612 27006KT 4SM BR SCT003
                      TEMPO 2512/2516 1/2SM FG OVC001 FM251700
                       32010KT P6SM SCT200 FM260100 29012G22KT
                       P6SM SKC FM261000 28011KT P6SM SCT006=
201607250528 TAF KCLM 250528Z 2506/2606 28006KT P6SM SKC FM251000 27006KT P6SM
                       VCFG SCT005 FM251700 32010KT P6SM SCT200=
201607242342 TAF KCLM 242342Z 2500/2524 29011KT P6SM SKC FM251200 29006KT P6SM
                       VCFG BKN006 FM251800 32010KT P6SM SCT250=
201607242324 TAF AMD KCLM 242324Z 2423/2518 31012KT P6SM SKC FM250300 28009KT
                       P6SM SKC FM251200 28005KT P6SM VCFG FEW006
                       FM251600 28005KT P6SM SCT250=
201607241736 TAF KCLM 241736Z 2418/2518 34008KT P6SM SKC FM250300 29007KT P6SM
                       SKC FM251200 29005KT P6SM VCFG FEW006 FM251600
                       29005KT P6SM SCT250=
201607241120 TAF KCLM 241120Z 2412/2512 28007KT P6SM SKC FM241800 33008KT P6SM
                       SKC FM250700 28007KT P6SM SCT012 BKN150=
201607240520 TAF KCLM 240520Z 2406/2506 27007KT P6SM SKC FM241800 33008KT P6SM
                       SKC=
201607232323 TAF KCLM 232323Z 2400/2424 31011KT P6SM SCT050
                      TEMPO 2400/2402 BKN050 FM240200 28009KT P6SM
                       SKC FM241200 28005KT P6SM VCFG FEW009 FM241800
                       34008KT P6SM SKC=
201607232110 TAF AMD KCLM 232110Z 2321/2418 32013KT P6SM SCT050
                      TEMPO 2321/2324 BKN050 FM240200 29010KT P6SM
                       SKC FM240900 27005KT P6SM VCFG SCT009
                      TEMPO 2411/2415 BKN009=
201607231726 TAF KCLM 231726Z 2318/2418 32013KT P6SM SCT050 FM240200 29010KT
                       P6SM SKC FM240900 27005KT P6SM VCFG SCT009
                       TEMPO 2411/2415 BKN009=
201607231500 TAF AMD KCLM 231500Z 2315/2412 28005KT P6SM SCT035
                      TEMPO 2315/2318 BKN035 FM231800 32010KT P6SM
                       SCT030 FM232300 30010KT P6SM SKC=
201607231120 TAF KCLM 231120Z 2312/2412 26010KT P6SM BKN030 OVC040 FM231800
                       32010KT P6SM SCT030 FM232300 30010KT P6SM
                       SKC=
201607230537 TAF KCLM 230537Z 2306/2406 27007KT P6SM SCT018 BKN030 FM231800
                       32010KT P6SM SCT025 FM232300 31011KT P6SM
                       SKC=
201607222338 TAF KCLM 222338Z 2300/2324 28012KT P6SM OVC025 FM230600 28008KT
                       P6SM OVC015 FM231800 32009KT P6SM BKN022
                       BKN250 FM232000 32009KT P6SM FEW035 BKN250=
201607222104 TAF AMD KCLM 222104Z 2221/2318 31015KT P6SM VCSH BKN020 OVC050
                       FM230100 28013KT P6SM SCT020 BKN050
                      TEMPO 2301/2304 28013G22KT FM230900 28010KT
                       P6SM BKN018 FM231200 28007KT P6SM OVC011=
201607221944 TAF AMD KCLM 221944Z 2220/2318 31015G22KT P6SM VCSH SCT020 BKN050
                       TEMPO 2220/2222 BKN020 OVC050 FM230100 28013KT
                       P6SM SCT200
                      TEMPO 2301/2304 28013G22KT FM230900 28010KT
                       P6SM BKN018 FM231200 28007KT P6SM OVC011=
201607221741 TAF KCLM 221741Z 2218/2318 31015G22KT P6SM SCT035 SCT100
                      TEMPO 2218/2220 BKN035 BKN100 FM222000 31015G22KT
                       P6SM VCSH SCT050 SCT100 FM230100 28013KT
                       P6SM SCT200
                      TEMPO 2301/2304 28013G22KT FM230900 28010KT
                       P6SM BKN018 FM231200 28007KT P6SM OVC011=
201607221609 TAF AMD KCLM 221609Z 2216/2312 31015KT P6SM BKN035 BKN200 FM221800
                       31015KT P6SM SCT045 BKN200 FM230100 28009KT
                       P6SM BKN200=
201607221431 TAF AMD KCLM 221431Z 2215/2312 29007KT P6SM BKN035 BKN200 FM221800
                       31011KT P6SM SCT045 BKN200 FM230100 28009KT
                       P6SM BKN200=
201607221129 TAF KCLM 221129Z 2212/2312 28010KT P6SM SCT030 BKN070
                      TEMPO 2212/2214 6SM -TSRA BR SCT030 BKN070CB
                       FM221800 30011KT P6SM SCT025 SCT045=
201607220535 TAF KCLM 220535Z 2206/2306 29010G18KT P6SM VCSH SCT060 BKN100
                      TEMPO 2206/2210 6SM -TSRA BKN060CB OVC100
                       FM221200 28010KT P6SM VCSH OVC025 FM221800
                       31011KT P6SM SCT020 BKN045=
201607220226 TAF AMD KCLM 220226Z 2202/2224 29010KT P6SM -TSRA SCT050 OVC080CB
                       FM220400 28012G20KT P6SM VCSH SCT050 BKN080
                       FM220700 30010G18KT P6SM VCSH BKN070 OVC100
                       TEMPO 2207/2211 -SHRA FM221200 30010KT P6SM
                       OVC025 FM221800 28008KT P6SM BKN040=
201607212334 TAF KCLM 212334Z 2200/2224 31008KT P6SM SCT080 BKN120 FM220200
                       30012G18KT P6SM SCT070 OVC100 FM220700 30010G18KT
                       P6SM VCSH BKN070 OVC100
                      TEMPO 2207/2211 -SHRA FM221200 30010KT P6SM
                       OVC025 FM221800 28008KT P6SM BKN040=
201607211742 TAF KCLM 211742Z 2118/2218 VRB04KT P6SM FEW200 FM212200 36008KT
                       P6SM SCT060 BKN080 FM220300 28012G18KT P6SM
                       VCSH SCT022 BKN070 OVC100
                      TEMPO 2208/2212 -SHRA OVC022 FM221200 29010KT
                       P6SM VCSH OVC022=
201607211127 TAF KCLM 211127Z 2112/2212 VRB04KT P6SM SCT200 FM212200 33008KT
                       P6SM SCT060 BKN080 FM220300 28012G18KT P6SM
                       VCSH SCT018 BKN070 OVC100
                      TEMPO 2208/2212 -SHRA=
201607210539 TAF KCLM 210539Z 2106/2206 26004KT P6SM SCT200 FM212100 33008KT
                       P6SM VCSH SCT050 BKN080=
201607202338 TAF KCLM 202338Z 2100/2124 29008KT P6SM BKN100 FM210900 28006KT
                       P6SM FEW040 SCT080 FM212000 35006KT P6SM
                       SCT040 BKN080=
201607201747 TAF KCLM 201747Z 2018/2118 32005KT P6SM FEW040 BKN100 FM210100
                       30010KT P6SM SCT030 SCT100 FM210900 32006KT
                       P6SM SCT030 SCT100=
201607201122 TAF KCLM 201122Z 2012/2112 29003KT P6SM BKN040 OVC050 FM202000
                       32005KT P6SM SCT050 FM210100 30008KT P6SM
                       FEW100=
201607200521 TAF KCLM 200521Z 2006/2106 30006KT P6SM FEW050 OVC080 FM201000
                       27004KT P6SM BKN060 FM202200 32006KT P6SM
                       SCT060=
201607192320 TAF KCLM 192320Z 2000/2024 31007KT P6SM BKN060 FM201000 27004KT
                       P6SM SCT060 FM202200 32006KT P6SM SCT060=
201607191746 TAF KCLM 191746Z 1918/2018 01005KT P6SM FEW024 SCT050 FM192200
                       29007KT P6SM SCT035 BKN050 FM201000 27004KT
                       P6SM OVC025 FM201600 30003KT P6SM SCT030
                       BKN060=
201607191641 TAF AMD KCLM 191641Z 1917/2012 00000KT P6SM SCT020 BKN040 OVC050
                       TEMPO 1917/1919 BKN020 BKN040 FM191900 30005KT
                       P6SM SCT035 BKN050 FM201000 28005KT P6SM
                       OVC030=
201607191503 TAF AMD KCLM 191503Z 1915/2012 00000KT P6SM SCT020 BKN040 OVC050
                       FM191900 30005KT P6SM SCT035 BKN050 FM201000
                       28005KT P6SM OVC030=
201607191120 TAF KCLM 191120Z 1912/2012 26005KT P6SM OVC026 FM191900 30005KT
                       P6SM SCT030 BKN050 FM201000 28005KT P6SM
                       OVC030=
201607190520 TAF KCLM 190520Z 1906/2006 26006KT P6SM OVC025 FM190800 27006KT
                       P6SM BKN015 BKN050 FM191900 30005KT P6SM
                       BKN050=
201607190447 TAF AMD KCLM 190447Z 1905/1924 26005KT P6SM OVC024 FM190800 27006KT
                       P6SM BKN015 BKN050 FM191700 32005KT P6SM
                       BKN050=
201607182323 TAF KCLM 182323Z 1900/1924 28009KT P6SM -SHRA BKN030 BKN050 OVC080
                       FM190200 28012KT P6SM SCT030 BKN050 BKN080
                       FM190800 27006KT P6SM BKN015 BKN050 FM191700
                       32005KT P6SM BKN050=
201607181729 TAF KCLM 181729Z 1818/1918 31005KT P6SM BKN080 FM182200 29011KT
                       P6SM VCSH BKN060 BKN100 FM190800 27006KT
                       P6SM BKN010 BKN050=
201607181503 TAF AMD KCLM 181503Z 1815/1912 33005KT P6SM BKN060 OVC080 FM181900
                       30008KT P6SM BKN060 BKN100 FM190000 30011KT
                       P6SM VCSH BKN060 OVC100 FM190900 27006KT
                       P6SM BKN010 BKN050=
201607181333 TAF AMD KCLM 181333Z 1814/1912 24004KT P6SM FEW005 SCT050
                      TEMPO 1814/1817 3SM BR BKN002 FM181700 28006KT
                       P6SM SCT005 SCT050 BKN100 FM181900 30008KT
                       P6SM BKN050 BKN100 FM190000 30011KT P6SM
                       VCSH BKN050 OVC100 FM190900 27006KT P6SM
                       BKN010 BKN050=
201607181123 TAF KCLM 181123Z 1812/1912 24004KT P6SM FEW005 SCT050
                      TEMPO 1812/1816 BKN005 FM181600 28006KT P6SM
                       SCT005 SCT050 BKN100 FM181900 30008KT P6SM
                       BKN050 BKN100 FM190000 30011KT P6SM VCSH
                       BKN050 OVC100 FM190900 27006KT P6SM BKN010
                       BKN050=
201607180538 TAF KCLM 180538Z 1806/1906 27006KT P6SM BKN060 FM180900 29004KT
                       P6SM SCT060 FM181100 29006KT P6SM BKN011
                       FM181700 32008KT P6SM SCT050=
201607172320 TAF KCLM 172320Z 1800/1824 31008KT P6SM FEW050 BKN120 FM180300
                       29008KT P6SM FEW050 SCT120 FM181100 29006KT
                       P6SM BKN011 FM181900 32008KT P6SM FEW050
                       SCT090=
201607171722 TAF KCLM 171722Z 1718/1818 31006KT P6SM FEW040 SCT120 FM180200
                       29010KT P6SM SCT050 FM181100 29006KT P6SM
                       BKN011=
201607171125 TAF KCLM 171125Z 1712/1812 29004KT 5SM BR SCT002 OVC006
                      TEMPO 1712/1716 1 1/2SM BR OVC002 FM171600
                       29004KT P6SM SCT006 BKN011 FM171700 32006KT
                       P6SM SCT050 FM180200 29010KT P6SM SCT050
                       FM181100 29006KT P6SM BKN011=
201607170542 TAF KCLM 170542Z 1706/1806 28005KT P6SM SCT050 FM171300 28004KT
                       P6SM BKN015 BKN050 FM171800 32006KT P6SM
                       SCT050=
201607162329 TAF KCLM 162329Z 1700/1724 31004KT P6SM FEW040 FM170400 28005KT
                       P6SM SCT050 BKN100 FM171000 28004KT P6SM
                       BKN015 BKN050 FM171800 35006KT P6SM SCT050=
201607161721 TAF KCLM 161721Z 1618/1718 36008KT P6SM FEW050 FM170300 30008KT
                       P6SM SCT060 FM171000 28004KT P6SM BKN015=
201607161326 TAF AMD KCLM 161326Z 1613/1712 28008KT P6SM OVC060
                      TEMPO 1614/1617 BKN012 FM170300 30008KT P6SM
                       SCT060=
201607161138 TAF KCLM 161138Z 1612/1712 28008KT P6SM OVC060 FM170300 30008KT
                       P6SM SCT060=
201607160533 TAF KCLM 160533Z 1606/1706 29008KT P6SM FEW050 FM161200 28006KT
                       P6SM SCT015 SCT050 FM161700 33006KT P6SM
                       FEW020 SCT050 FM170100 30008KT P6SM FEW050=
201607152320 TAF KCLM 152320Z 1600/1624 29008KT P6SM FEW050 FM160900 28006KT
                       P6SM BKN015 BKN050 FM161700 33006KT P6SM
                       FEW020 BKN060=
201607151720 TAF KCLM 151720Z 1518/1618 34006KT P6SM FEW040 FM160100 29008KT
                       P6SM FEW050 SCT100 FM160900 28006KT P6SM
                       BKN015 BKN050=
201607151120 TAF KCLM 151120Z 1512/1612 29006KT P6SM SKC FM151700 34005KT P6SM
                       SCT015 BKN100 FM160100 29008KT P6SM SCT100
                       SCT250 FM160900 28010KT P6SM SCT020 BKN100=
201607150520 TAF KCLM 150520Z 1506/1606 29008KT P6SM SCT100 SCT250 FM150900
                       27008KT P6SM BKN015 BKN100 FM151700 34005KT
                       P6SM SCT015 BKN100 FM160100 29008KT P6SM
                       SCT100 SCT250=
201607142335 TAF KCLM 142335Z 1500/1524 32012KT P6SM FEW040 FM150200 29010KT
                       P6SM FEW050 SCT100 FM150900 27008KT P6SM
                       BKN015 BKN100 FM151700 34005KT P6SM SCT015
                       BKN100=
201607141720 TAF KCLM 141720Z 1418/1518 32012KT P6SM FEW040 FM150200 29010KT
                       P6SM FEW050 SCT100 FM150900 27008KT P6SM
                       BKN015 BKN100=
201607141120 TAF KCLM 141120Z 1412/1512 29007KT P6SM SCT250
                      TEMPO 1412/1416 BKN004 FM141600 29010KT P6SM
                       FEW250 FM142200 30016G24KT P6SM SCT035 SCT250
                       FM150500 28011KT P6SM SKC=
201607140520 TAF KCLM 140520Z 1406/1506 29009KT P6SM SKC FM141200 28008KT P6SM
                       SCT004
                      TEMPO 1412/1416 BKN004 FM141600 29010KT P6SM
                       FEW250 FM142000 29016G24KT P6SM SCT035 SCT250
                       FM150500 28011KT P6SM SKC=
201607132335 TAF KCLM 132335Z 1400/1424 31011KT P6SM SCT070 FM140300 28012KT
                       P6SM SKC FM141200 28008KT P6SM SCT004
                      TEMPO 1412/1416 BKN004 FM141600 29010KT P6SM
                       FEW250 FM142100 29014G22KT P6SM SCT035 SCT250=
201607132100 TAF AMD KCLM 132100Z 1321/1418 34007KT P6SM SCT040 SCT060 BKN250
                       FM132300 31009KT P6SM SCT040 SCT060 BKN250
                       FM140500 28012KT P6SM SKC FM141200 28006KT
                       P6SM OVC004 FM141500 29006KT P6SM SCT006
                       BKN015=
201607131120 TAF KCLM 131120Z 1312/1412 25003KT P6SM OVC060 FM131800 34007KT
                       P6SM SCT060 SCT250 FM140000 28010KT P6SM
                       SKC=
201607130520 TAF KCLM 130520Z 1306/1406 28007KT P6SM FEW040 OVC060 FM131200
                       28004KT P6SM OVC015 FM131800 33007KT P6SM
                       SCT020 SCT250 FM140000 30010KT P6SM SKC=
201607130204 TAF AMD KCLM 130204Z 1302/1324 31007KT P6SM VCSH SCT040 BKN100
                       TEMPO 1302/1304 3SM -RA BR BKN003 FM130600
                       18008KT P6SM BKN020 OVC040 FM131200 28004KT
                       P6SM OVC015 FM131800 33007KT P6SM SCT020
                       SCT250=
201607122335 TAF KCLM 122335Z 1300/1324 31007KT P6SM VCSH SCT040 BKN100 FM130600
                       18008KT P6SM BKN020 OVC040 FM131200 28004KT
                       P6SM OVC015 FM131800 33007KT P6SM SCT020
                       SCT250=
201607122100 TAF AMD KCLM 122100Z 1221/1318 32008KT P6SM VCSH SCT035 BKN080
                       FM130600 18008KT P6SM BKN020 OVC040 FM131200
                       28004KT P6SM OVC015=
201607121725 TAF KCLM 121725Z 1218/1318 VRB04KT P6SM BKN040 BKN080 OVC110
                      TEMPO 1219/1223 -RA OVC035 FM122300 30008KT
                       P6SM VCSH BKN040 OVC100 FM130600 18008KT
                       P6SM BKN020 OVC040 FM131200 28004KT P6SM
                       OVC015=
201607121120 TAF KCLM 121120Z 1212/1312 VRB03KT P6SM OVC040 FM121800 30006KT
                       P6SM VCSH BKN040
                      TEMPO 1219/1223 -RA OVC035 FM122300 30008KT
                       P6SM VCSH BKN040 OVC100 FM130600 18008KT
                       P6SM BKN020 OVC040=
201607120524 TAF KCLM 120524Z 1206/1306 26006KT P6SM OVC080 FM121200 27005KT
                       P6SM OVC040 FM121800 30006KT P6SM BKN040
                       TEMPO 1219/1223 -RA OVC035 FM122300 30010KT
                       P6SM VCSH BKN040 OVC100=
201607112335 TAF KCLM 112335Z 1200/1224 35005KT P6SM FEW035 BKN045 OVC120
                      TEMPO 1200/1204 SCT045 BKN120 FM120600 27004KT
                       P6SM OVC100 FM121200 27005KT P6SM OVC040
                       FM121800 26006KT P6SM -RA OVC035=
201607111720 TAF KCLM 111720Z 1118/1218 01005KT P6SM SCT030 FM120000 29006KT
                       P6SM BKN050 OVC100 FM120600 27004KT P6SM
                       OVC100 FM121200 27005KT P6SM OVC040=
201607111625 TAF AMD KCLM 111625Z 1116/1212 34003KT P6SM BKN029 FM111800 VRB04KT
                       P6SM SCT040 BKN120=
201607111120 TAF KCLM 111120Z 1112/1212 28007KT P6SM FEW015 SCT100 FM111800
                       VRB04KT P6SM SCT040 BKN120=
201607110520 TAF KCLM 110520Z 1106/1206 27011G16KT P6SM FEW015
                      TEMPO 1106/1109 BKN015 FM110900 28007KT P6SM
                       BKN015 FM111800 30006KT P6SM SCT035 BKN120=
201607110151 TAF AMD KCLM 110151Z 1102/1124 30011G16KT P6SM SCT008 FM110800
                       28007KT P6SM BKN015 BKN035 FM111600 33006KT
                       P6SM SCT015 BKN035=
201607102328 TAF KCLM 102328Z 1100/1124 30011G16KT P6SM SCT050 FM110800 28007KT
                       P6SM BKN015 BKN035 FM111600 33006KT P6SM
                       SCT015 BKN035=
201607101748 TAF AMD KCLM 101748Z 1018/1118 30007KT P6SM SCT035 FM102100 28012G17KT
                       P6SM SCT050 FM110800 28007KT P6SM BKN015
                       BKN035 FM111600 28007KT P6SM SCT015 BKN035=
201607101740 TAF KCLM 101740Z 1018/1118 VRB04KT P6SM SCT030 SCT100 FM102100
                       27010KT P6SM SCT050=
201607101120 TAF KCLM 101120Z 1012/1112 VRB04KT P6SM OVC014 FM101600 VRB04KT
                       P6SM SCT030 SCT100 FM102100 27010KT P6SM
                       SCT050=
201607100520 TAF KCLM 100520Z 1006/1106 VRB03KT P6SM VCSH SCT050 BKN100 FM101200
                       27007KT P6SM SCT050 BKN080 FM101800 33010KT
                       P6SM SCT050=
201607092320 TAF KCLM 092320Z 1000/1024 VRB03KT P6SM -SHRA BKN035 BKN110 FM101200
                       27007KT P6SM SCT035 OVC110 FM101800 33010KT
                       P6SM OVC110=
201607092021 TAF AMD KCLM 092021Z 0920/1018 08003KT P6SM -SHRA SCT070 BKN110
                       FM100000 VRB03KT P6SM -SHRA BKN040 BKN100
                       FM101200 27007KT P6SM SCT015 BKN035=
201607091747 TAF AMD KCLM 091747Z 0918/1018 08003KT P6SM -SHRA OVC027 FM100000
                       VRB03KT P6SM -SHRA BKN040 BKN100 FM101200
                       27007KT P6SM SCT015 BKN035=
201607091740 TAF KCLM 091740Z 0918/1018 00000KT P6SM -RA OVC027
                      TEMPO 0918/0919 BKN025 FM100000 VRB04KT P6SM
                       VCSH BKN040 BKN100=
201607091125 TAF KCLM 091125Z 0912/1012 VRB04KT P6SM VCSH OVC015
                      TEMPO 0912/0915 4SM -RA BR FM091500 VRB04KT
                       P6SM SCT030 SCT070
                      TEMPO 0915/0919 BKN025 FM100000 VRB04KT P6SM
                       VCSH BKN040 BKN100=
201607090520 TAF KCLM 090520Z 0906/1006 25005KT P6SM VCSH BKN035 BKN045 FM091200
                       VRB04KT P6SM BKN025 BKN050 FM092000 VRB04KT
                       P6SM SCT030 BKN060=
201607082320 TAF KCLM 082320Z 0900/0924 31007KT P6SM SCT030 BKN060 BKN200 FM091000
                       VRB04KT P6SM VCSH BKN025 BKN050 FM092000
                       VRB04KT P6SM SCT030 BKN060=
201607081933 TAF AMD KCLM 081933Z 0820/0918 34006KT P6SM BKN050 FM090900 09006KT
                       P6SM BKN020 OVC050 FM091700 09006KT P6SM
                       SCT020 BKN050=
201607081720 TAF KCLM 081720Z 0818/0918 VRB04KT P6SM VCSH BKN015 BKN030 BKN070
                       FM090900 09006KT P6SM BKN015 OVC035 FM091700
                       09006KT P6SM SCT020 BKN050=
201607081126 TAF KCLM 081126Z 0812/0912 00000KT 2SM BR VCSH SCT005 BKN030 OVC100
                       TEMPO 0812/0816 1SM BR VV002 FM081600 VRB04KT
                       P6SM BKN025 FM082100 33006KT P6SM VCSH BKN035
                       BKN100=
201607081020 TAF AMD KCLM 081020Z 0810/0906 00000KT P6SM VCSH SCT005 BKN030
                       OVC100
                      TEMPO 0810/0812 1/2SM FG VV002 FM081200 00000KT
                       P6SM BKN009 OVC030 FM081700 32004KT P6SM
                       VCSH OVC030 FM082100 33006KT P6SM VCSH BKN035=
201607080904 TAF AMD KCLM 080904Z 0809/0906 00000KT P6SM VCSH SCT005 BKN030
                       OVC100
                      TEMPO 0809/0812 2SM BR BKN002 FM081200 00000KT
                       P6SM BKN009 OVC030 FM081700 32004KT P6SM
                       VCSH OVC030 FM082100 33006KT P6SM VCSH BKN035=
201607080520 TAF KCLM 080520Z 0806/0906 00000KT P6SM VCSH SCT010 BKN030 OVC100
                       FM081000 00000KT P6SM BKN009 OVC030 FM081700
                       32004KT P6SM VCSH OVC030 FM082100 33006KT
                       P6SM VCSH BKN035=
201607072333 TAF KCLM 072333Z 0800/0824 00000KT P6SM -RA BKN020 OVC060 FM080500
                       00000KT P6SM VCSH OVC018 FM081000 00000KT
                       P6SM OVC009 FM081700 32004KT P6SM VCSH OVC018
                       FM082100 33006KT P6SM VCSH OVC035=
201607071726 TAF KCLM 071726Z 0718/0818 00000KT P6SM -SHRA FEW017 OVC060
                      TEMPO 0718/0721 -SHRA BKN018 OVC045 FM072100
                       VRB03KT P6SM VCSH BKN030 OVC050 FM080300
                       00000KT P6SM VCSH OVC019 FM081500 VRB03KT
                       P6SM VCSH OVC035=
201607071120 TAF KCLM 071120Z 0712/0812 VRB03KT P6SM SCT070 OVC120 FM071500
                       VRB03KT P6SM VCSH BKN040 BKN080 OVC100=
201607070520 TAF KCLM 070520Z 0706/0806 27008KT P6SM BKN060 BKN200 FM071100
                       VRB03KT P6SM BKN050 OVC100 FM071500 VRB03KT
                       P6SM VCSH OVC030=
201607062329 TAF KCLM 062329Z 0700/0724 27004KT P6SM BKN070 FM070600 27008KT
                       P6SM SCT070 BKN200 FM071100 VRB03KT P6SM
                       BKN050 OVC100 FM071700 VRB03KT P6SM -SHRA
                       OVC030=
201607061726 TAF KCLM 061726Z 0618/0718 VRB06KT P6SM SCT040 FM061900 35006KT
                       P6SM SCT050 SCT100 FM062300 30006KT P6SM
                       SCT100 SCT200 FM070500 27004KT P6SM BKN050
                       BKN200 FM071100 VRB03KT P6SM BKN040 OVC100=
201607061630 TAF AMD KCLM 061630Z 0617/0712 01004KT P6SM SCT015
                      TEMPO 0617/0620 OVC015 FM070100 29006KT P6SM
                       SCT100 BKN200 FM070600 27004KT P6SM BKN050
                       OVC080=
201607061120 TAF KCLM 061120Z 0612/0712 25006KT P6SM SCT035 BKN060 FM061600
                       32005KT P6SM SCT060 SCT100 FM070100 29006KT
                       P6SM SCT100 BKN200 FM070600 27004KT P6SM
                       BKN050 OVC080=
201607061031 TAF AMD KCLM 061031Z 0611/0706 27007KT P6SM OVC035 FM061600 32005KT
                       P6SM SCT050 SCT100 FM070100 29006KT P6SM
                       SCT100 BKN200=
201607060757 TAF AMD KCLM 060757Z 0608/0706 25004KT P6SM OVC009 FM061600 32005KT
                       P6SM SCT050 SCT100 FM070100 29006KT P6SM
                       SCT100 BKN200=
201607060520 TAF KCLM 060520Z 0606/0706 30003KT P6SM SCT090 FM060900 26004KT
                       P6SM BKN050 FM061700 32005KT P6SM SCT050
                       SCT100 FM070100 29006KT P6SM SCT100 BKN200=
201607060418 TAF AMD KCLM 060418Z 0604/0624 29005KT P6SM OVC050 FM060900 27005KT
                       P6SM OVC030 FM061000 27005KT P6SM OVC020
                       FM061300 32005KT P6SM OVC035=
201607052335 TAF KCLM 052335Z 0600/0624 31009G18KT P6SM VCSH SCT035 BKN080 FM060200
                       30010G20KT P6SM VCSH BKN035 OVC050 FM060600
                       28009KT P6SM SCT035 BKN050 FM060900 27005KT
                       P6SM OVC030 FM061000 27005KT P6SM OVC020
                       FM061300 32005KT P6SM OVC035=
201607051730 TAF KCLM 051730Z 0518/0618 26007KT P6SM VCSH BKN050 OVC090 FM052000
                       31008G14KT P6SM VCSH BKN035 OVC050 FM060600
                       28005KT P6SM SCT035 BKN050=
201607051120 TAF KCLM 051120Z 0512/0612 26005KT P6SM SCT015 BKN035
                      TEMPO 0512/0516 BKN015 BKN035 FM051900 30008KT
                       P6SM BKN035 OVC050 FM060300 29006KT P6SM
                       SCT035 BKN050=
201607050928 TAF AMD KCLM 050928Z 0509/0606 27005KT P6SM SCT015 BKN035
                      TEMPO 0510/0514 BKN015 BKN035 FM051900 30009G16KT
                       P6SM SCT025 BKN035 OVC050 FM060300 29006KT
                       P6SM SCT035 BKN050=
201607050546 TAF AMD KCLM 050546Z 0506/0606 27006KT P6SM BKN013 OVC018 FM051900
                       30009G16KT P6SM SCT025 BKN035 OVC050 FM060300
                       29006KT P6SM SCT035 BKN050=
201607050524 TAF KCLM 050524Z 0506/0606 30007KT P6SM SCT007 BKN045
                      TEMPO 0506/0509 BKN007 OVC045 FM051100 27007KT
                       P6SM OVC010 FM051900 30009G16KT P6SM SCT025
                       BKN035 OVC050 FM060300 29006KT P6SM SCT035
                       BKN050=
201607042332 TAF KCLM 042332Z 0500/0524 31014G24KT P6SM SCT120 FM050600 29009G15KT
                       P6SM OVC020 FM051100 27007KT P6SM OVC015
                       FM051800 32009G16KT P6SM SCT020=
201607041737 TAF KCLM 041737Z 0418/0518 30012G19KT P6SM SCT045 BKN060 OVC100
                       FM042100 30016G23KT P6SM SCT025 BKN035 FM050300
                       29013G20KT P6SM BKN035 FM050600 28010KT
                       P6SM OVC030 FM050700 27011KT P6SM OVC019
                       FM051100 27007KT P6SM OVC015=
201607041120 TAF KCLM 041120Z 0412/0512 29006KT P6SM VCSH SCT015 BKN040 FM041400
                       28008KT P6SM VCSH SCT008 OVC012 FM042100
                       31012G20KT P6SM SCT025 BKN035 FM050500 28010KT
                       P6SM SCT035 BKN050=
201607041012 TAF AMD KCLM 041012Z 0410/0506 28010KT P6SM VCSH SCT009 SCT015
                       BKN040 FM041400 28008KT P6SM VCSH SCT008
                       OVC015 FM042100 31012G20KT P6SM SCT025 BKN035
                       FM050500 28010KT P6SM SCT035 BKN050=
201607040817 TAF AMD KCLM 040817Z 0408/0506 30012G18KT P6SM BKN006 FM041000
                       28009KT P6SM VCSH OVC006 FM041700 32010KT
                       P6SM VCSH SCT008 OVC025 FM042100 31012G20KT
                       P6SM SCT025 BKN035 FM050500 28010KT P6SM
                       SCT035 BKN050=
201607040523 TAF KCLM 040523Z 0406/0506 27010KT P6SM BKN090 FM041000 28009KT
                       P6SM VCSH BKN025 BKN050 FM041400 27008KT
                       P6SM VCSH BKN015 BKN030 FM042100 31012G20KT
                       P6SM SCT025 BKN035 FM050500 28010KT P6SM
                       SCT035 BKN050=
201607032337 TAF KCLM 032337Z 0400/0424 30016G24KT P6SM SKC FM040600 29015G25KT
                       P6SM BKN050 FM041000 28011KT P6SM BKN025
                       BKN050 FM041400 29010G18KT P6SM BKN015 BKN030
                       FM042200 21013G22KT P6SM SCT030=
201607031736 TAF KCLM 031736Z 0318/0418 30016G24KT P6SM SKC FM040300 29015G25KT
                       P6SM BKN050 BKN250 FM040800 28011KT P6SM
                       BKN025 OVC050=
201607031131 TAF KCLM 031131Z 0312/0412 VRB03KT P6SM VCSH SCT050 FM031400 VRB03KT
                       P6SM SCT025 OVC050 FM031800 30014G20KT P6SM
                       SCT025 BKN050 FM032100 31016G24KT P6SM SCT250
                       FM040100 28016G25KT P6SM BKN050 BKN250 FM040800
                       28012KT P6SM BKN025 OVC050=
201607030520 TAF KCLM 030520Z 0306/0406 28009KT P6SM SCT150 FM030800 29012KT
                       P6SM VCSH OVC020 FM031600 30014G20KT P6SM
                       SCT025 BKN050 FM032000 31016G24KT P6SM SCT250
                       FM040500 28012G20KT P6SM OVC025=
201607022320 TAF KCLM 022320Z 0300/0324 30014G21KT P6SM BKN020 FM030200 29014G22KT
                       P6SM SCT020 SCT045 FM030700 29012KT P6SM
                       VCSH OVC015 FM031500 30014G20KT P6SM SCT020
                       FM032000 31016G24KT P6SM SKC=
201607021740 TAF KCLM 021740Z 0218/0318 29011KT P6SM OVC018 FM022100 30011KT
                       P6SM SCT025 BKN080 FM030000 29014G21KT P6SM
                       SCT045 BKN060 FM030700 29012KT P6SM VCSH
                       OVC015 FM031500 30014G20KT P6SM SCT020=
201607021120 TAF KCLM 021120Z 0212/0312 29005KT P6SM OVC017 FM021500 28004KT
                       P6SM OVC010 FM022000 32007KT P6SM SCT025
                       BKN050 BKN100 FM030000 29014G21KT P6SM BKN050
                       BKN100 FM030700 29012KT P6SM OVC015=
201607020708 TAF AMD KCLM 020708Z 0207/0306 28007KT P6SM OVC005 FM021500 28004KT
                       P6SM OVC010 FM022000 32007KT P6SM SCT025
                       BKN050 BKN100 FM030000 30014G21KT P6SM BKN050
                       BKN100=
201607020524 TAF KCLM 020524Z 0206/0306 00000KT P6SM OVC035 FM021200 28004KT
                       P6SM OVC018 FM022000 32007KT P6SM SCT025
                       BKN050 BKN100 FM030000 30014G21KT P6SM BKN050
                       BKN100=
201607020434 TAF AMD KCLM 020434Z 0205/0224 33004KT P6SM BKN028 OVC040 FM021200
                       28008KT P6SM BKN012 OVC020 FM021800 28008KT
                       P6SM SCT030 BKN250=
201607020011 TAF AMD KCLM 020011Z 0200/0224 28006KT P6SM BKN035 OVC050
                      TEMPO 0200/0204 -RA OVC030 FM020400 28006KT
                       P6SM SCT035 BKN060 FM020500 28012KT P6SM
                       SCT060 BKN250 FM021200 28008KT P6SM BKN012
                       OVC020 FM021800 28008KT P6SM SCT030 BKN250=
201607012337 TAF KCLM 012337Z 0200/0224 28006KT P6SM -RA BKN035 OVC050 FM020200
                       28006KT P6SM SCT035 BKN060 FM020500 28012KT
                       P6SM SCT060 BKN250 FM021200 28008KT P6SM
                       BKN012 OVC020 FM021800 28008KT P6SM SCT030
                       BKN250=
201607011736 TAF KCLM 011736Z 0118/0218 28006KT P6SM OVC060 FM020200 28012KT
                       P6SM SCT060 BKN250 FM021200 28006KT P6SM
                       BKN250=
201607011120 TAF KCLM 011120Z 0112/0212 26006KT P6SM BKN200 FM011700 32005KT
                       P6SM OVC035 FM011900 33005KT P6SM OVC060
                       FM012200 31006KT P6SM BKN035 BKN060 FM020500
                       28010G17KT P6SM OVC019=
201607010525 TAF KCLM 010525Z 0106/0206 28009KT P6SM SCT250 FM011000 29005KT
                       P6SM OVC015 FM011500 30004KT P6SM OVC035
                       FM011900 33006KT P6SM BKN035 BKN050 FM020300
                       30007KT P6SM OVC030=