##########################################################
# Query made at 02/16/2025 03:07:58 UTC
# Time interval: from 04/01/2016 00:00  to 04/30/2016 23:59  UTC
##########################################################

##########################################################
# KCLM, Port Angeles, William R. Fairchild International Airport (United States)
# WMO index: -----. WIGOS ID: Unknown
# Latitude 48-07-20N. Longitude 123-30-19W. Altitude 87 m.
##########################################################

###################################
#  METAR/SPECI from KCLM
###################################
201604302353 METAR KCLM 302353Z AUTO 35006KT 9SM CLR 15/07 A3035 RMK AO2 SLP277 60000 T01500072 10167 20117 57006=
201604302253 METAR KCLM 302253Z AUTO 33003KT 9SM CLR 16/07 A3035 RMK AO2 RAB17E31 SLP278 P0000 T01560072=
201604302153 METAR KCLM 302153Z AUTO 04005KT 10SM CLR 16/04 A3036 RMK AO2 RAE29 SLP281 P0000 T01610044=
201604302053 METAR KCLM 302053Z AUTO 03005KT 10SM -RA CLR 16/06 A3036 RMK AO2 RAE08B24 SLP283 P0000 60000 T01560056 58005=
201604301953 METAR KCLM 301953Z AUTO VRB04KT 10SM -RA CLR 14/05 A3038 RMK AO2 SLP289 P0000 T01440050=
201604301853 METAR KCLM 301853Z AUTO VRB04KT 8SM -RA CLR 13/07 A3038 RMK AO2 SLP288 P0000 T01330072=
201604301753 METAR KCLM 301753Z AUTO 03006KT 8SM -RA CLR 13/06 A3038 RMK AO2 SLP288 P0000 60000 T01280061 10128 20061 53003=
201604301653 METAR KCLM 301653Z AUTO VRB03KT 7SM -RA CLR 12/07 A3037 RMK AO2 RAB39 SLP286 P0000 T01170067=
201604301553 METAR KCLM 301553Z AUTO 00000KT 10SM CLR 12/04 A3037 RMK AO2 SLP285 T01170044=
201604301453 METAR KCLM 301453Z AUTO 24006KT 10SM CLR 10/03 A3037 RMK AO2 SLP285 60000 T01000033 53018=
201604301353 METAR KCLM 301353Z AUTO 24006KT 10SM CLR 07/03 A3035 RMK AO2 SLP279 T00720033=
201604301253 METAR KCLM 301253Z AUTO 24006KT 10SM CLR 07/03 A3033 RMK AO2 RAB32E48 SLP272 P0000 T00720028=
201604301153 METAR KCLM 301153Z AUTO 24009KT 10SM CLR 08/03 A3031 RMK AO2 SLP266 T00780028 10083 20067 51016=
201604301053 METAR KCLM 301053Z AUTO 26007KT 10SM CLR 07/03 A3030 RMK AO2 SLP263 T00720033=
201604300953 METAR KCLM 300953Z AUTO 25008KT 10SM CLR 08/03 A3029 RMK AO2 SLP258 T00780033=
201604300853 METAR KCLM 300853Z AUTO 26009KT 10SM CLR 08/03 A3027 RMK AO2 SLP250 T00830033 51008=
201604300753 METAR KCLM 300753Z AUTO 30004KT 10SM CLR 07/04 A3026 RMK AO2 SLP249 T00670039 401390067=
201604300653 METAR KCLM 300653Z AUTO 26006KT 10SM CLR 08/05 A3025 RMK AO2 SLP246 T00780050=
201604300553 METAR KCLM 300553Z AUTO 27007KT 10SM CLR 07/05 A3024 RMK AO2 SLP242 60000 T00720050 10128 20072 53018=
201604300453 METAR KCLM 300453Z AUTO 28006KT 10SM CLR 09/04 A3023 RMK AO2 SLP236 T00940044=
201604300353 METAR KCLM 300353Z AUTO 27006KT 8SM CLR 09/06 A3020 RMK AO2 SLP227 T00940061=
201604300253 METAR KCLM 300253Z AUTO 29009KT 7SM CLR 11/06 A3019 RMK AO2 RAE38 SLP224 P0000 60000 T01060061 52013=
201604300153 METAR KCLM 300153Z AUTO 30012G19KT 9SM -RA CLR 12/06 A3018 RMK AO2 SLP219 P0000 T01170061=
201604300053 METAR KCLM 300053Z AUTO 31017G22KT 9SM -RA CLR 12/07 A3016 RMK AO2 SLP214 P0000 T01220067=
201604292353 METAR KCLM 292353Z AUTO 30013G20KT 10SM -RA CLR 13/08 A3015 RMK AO2 SLP210 P0000 60000 T01280078 10139 20117 51010=
201604292253 METAR KCLM 292253Z AUTO 30013G23KT 10SM -RA CLR 13/08 A3014 RMK AO2 SLP206 P0000 T01330078=
201604292153 METAR KCLM 292153Z AUTO 33016G22KT 10SM -RA CLR 13/08 A3013 RMK AO2 RAB03 SLP205 P0000 T01330078=
201604292053 METAR KCLM 292053Z AUTO 32008G17KT 280V350 10SM CLR 14/08 A3012 RMK AO2 RAB25E36 SLP200 P0000 60000 T01390083 56001=
201604291953 METAR KCLM 291953Z AUTO 32010G20KT 10SM CLR 13/07 A3012 RMK AO2 RAE1858B31E41 SLP201 P0000 T01280072=
201604291853 METAR KCLM 291853Z AUTO 33011KT 10SM -RA SCT060 13/07 A3012 RMK AO2 RAE23B48 SLP200 P0000 T01280072=
201604291753 METAR KCLM 291753Z AUTO 30011G19KT 10SM -RA BKN060 13/07 A3012 RMK AO2 RAB19E27B48 SLP202 P0000 60000 T01280072 10128 20083 51009=
201604291653 METAR KCLM 291653Z AUTO 30007KT 10SM OVC060 11/07 A3012 RMK AO2 SLP201 T01110067=
201604291553 METAR KCLM 291553Z AUTO 26006KT 10SM SCT049 OVC060 11/06 A3011 RMK AO2 SLP197 T01060056=
201604291453 METAR KCLM 291453Z AUTO 28006KT 10SM OVC045 09/05 A3010 RMK AO2 RAB29E38 SLP192 P0000 60000 T00940050 53005=
201604291353 METAR KCLM 291353Z AUTO 27007KT 10SM BKN045 OVC095 09/04 A3009 RMK AO2 SLP191 T00940044=
201604291253 METAR KCLM 291253Z AUTO 26007KT 10SM CLR 08/04 A3009 RMK AO2 SLP189 T00830039=
201604291153 METAR KCLM 291153Z AUTO 27007KT 10SM SCT100 09/03 A3008 RMK AO2 SLP187 T00890033 10094 20089 58006=
201604291053 METAR KCLM 291053Z AUTO 27008KT 10SM BKN110 09/04 A3009 RMK AO2 SLP192 T00890039=
201604290953 METAR KCLM 290953Z AUTO 28008KT 10SM OVC100 09/04 A3010 RMK AO2 SLP193 T00890044=
201604290853 METAR KCLM 290853Z AUTO 28010KT 10SM BKN037 OVC100 09/04 A3010 RMK AO2 SLP194 T00940044 58001=
201604290753 METAR KCLM 290753Z AUTO 28010KT 10SM SCT045 OVC100 09/05 A3010 RMK AO2 SLP195 T00940050 401440094=
201604290653 METAR KCLM 290653Z AUTO 28009G16KT 10SM OVC045 09/05 A3011 RMK AO2 SLP195 T00940050=
201604290553 METAR KCLM 290553Z AUTO 27006KT 10SM OVC100 09/06 A3011 RMK AO2 SLP195 T00940061 10111 20094 50001=
201604290453 METAR KCLM 290453Z AUTO 28009KT 10SM OVC110 09/07 A3011 RMK AO2 SLP196 T00940067=
201604290353 METAR KCLM 290353Z AUTO 28009KT 10SM BKN050 OVC110 10/07 A3010 RMK AO2 SLP195 T01000067=
201604290341 SPECI KCLM 290341Z AUTO 29010KT 9SM SCT015 BKN050 10/07 A3010 RMK AO2 T01000067=
201604290313 SPECI KCLM 290313Z AUTO 31007KT 9SM BKN016 BKN070 10/07 A3011 RMK AO2 T01000067=
201604290253 METAR KCLM 290253Z AUTO 29009KT 9SM SCT018 OVC070 11/07 A3010 RMK AO2 SLP194 T01060067 55004=
201604290153 METAR KCLM 290153Z AUTO 31007KT 9SM OVC017 11/07 A3010 RMK AO2 SLP194 T01060067=
201604290053 METAR KCLM 290053Z AUTO 31012G17KT 9SM OVC019 11/07 A3011 RMK AO2 SLP198 T01060072=
201604282353 METAR KCLM 282353Z AUTO 30009G16KT 9SM OVC019 12/07 A3011 RMK AO2 SLP198 60000 T01170072 10144 20111 50002=
201604282253 METAR KCLM 282253Z AUTO 31011G17KT 10SM OVC018 11/07 A3012 RMK AO2 RAB01E11B29E37 SLP200 P0000 T01110067=
201604282153 METAR KCLM 282153Z AUTO 30015KT 10SM SCT018 BKN023 OVC042 12/07 A3012 RMK AO2 RAB06E50 SLP202 P0000 T01220072=
201604282053 METAR KCLM 282053Z AUTO 31011KT 10SM OVC075 13/08 A3011 RMK AO2 RAB36E46 SLP196 P0000 60000 T01330078 55001=
201604281953 METAR KCLM 281953Z AUTO 32011KT 10SM BKN034 13/07 A3010 RMK AO2 RAB11E29 SLP194 P0000 T01330072=
201604281853 METAR KCLM 281853Z AUTO 33006KT 10SM CLR 14/08 A3010 RMK AO2 RAB04E13B42E52 SLP193 P0000 T01390078=
201604281753 METAR KCLM 281753Z AUTO 32009KT 10SM CLR 13/07 A3011 RMK AO2 RAB10E33 SLP197 P0000 60000 T01280072 10128 20094 55000=
201604281653 METAR KCLM 281653Z AUTO 33010KT 10SM CLR 12/06 A3011 RMK AO2 SLP195 T01220061=
201604281553 METAR KCLM 281553Z AUTO 33008KT 10SM CLR 13/07 A3012 RMK AO2 SLP199 T01280067=
201604281453 METAR KCLM 281453Z AUTO 28009KT 10SM CLR 11/06 A3011 RMK AO2 SLP198 T01110056 53010=
201604281353 METAR KCLM 281353Z AUTO 27005KT 10SM OVC070 10/05 A3010 RMK AO2 SLP194 T01000050=
201604281253 METAR KCLM 281253Z AUTO 26007KT 10SM OVC075 10/05 A3009 RMK AO2 SLP190 T01000050=
201604281153 METAR KCLM 281153Z AUTO 26007KT 10SM OVC075 10/05 A3008 RMK AO2 SLP188 T01000050 10100 20094 53006=
201604281053 METAR KCLM 281053Z AUTO 25006KT 10SM OVC075 10/05 A3008 RMK AO2 SLP185 T01000050=
201604280953 METAR KCLM 280953Z AUTO 27008KT 10SM OVC120 10/06 A3007 RMK AO2 SLP183 T01000056=
201604280853 METAR KCLM 280853Z AUTO 27008KT 10SM OVC120 10/06 A3006 RMK AO2 SLP181 T01000056 50001=
201604280753 METAR KCLM 280753Z AUTO 26008KT 10SM OVC120 10/06 A3007 RMK AO2 SLP183 T01000056 401440072=
201604280653 METAR KCLM 280653Z AUTO 26009KT 10SM OVC120 10/06 A3006 RMK AO2 SLP181 T01000056=
201604280553 METAR KCLM 280553Z AUTO 27011KT 10SM BKN120 10/06 A3006 RMK AO2 SLP180 T01000061 10139 20089 51005=
201604280453 METAR KCLM 280453Z AUTO 27008KT 10SM FEW120 09/06 A3006 RMK AO2 SLP180 T00940061=
201604280353 METAR KCLM 280353Z AUTO 28010KT 10SM CLR 10/06 A3005 RMK AO2 SLP178 T01000061=
201604280253 METAR KCLM 280253Z AUTO 29007KT 10SM CLR 11/05 A3004 RMK AO2 SLP174 T01110050 53003=
201604280153 METAR KCLM 280153Z AUTO 29007KT 10SM CLR 13/05 A3004 RMK AO2 SLP173 T01280050=
201604280053 METAR KCLM 280053Z AUTO 32007G15KT 10SM CLR 13/06 A3004 RMK AO2 SLP172 T01280056=
201604272353 METAR KCLM 272353Z AUTO 32010KT 10SM CLR 13/04 A3004 RMK AO2 RAB2256E24 SLP172 P0000 60000 T01330044 10144 20111 53001=
201604272253 METAR KCLM 272253Z AUTO 34005KT 10SM CLR 14/07 A3003 RMK AO2 SLP170 T01440067=
201604272153 METAR KCLM 272153Z AUTO 35007KT 10SM CLR 14/05 A3003 RMK AO2 RAB07E17 SLP170 P0000 T01390050=
201604272053 METAR KCLM 272053Z AUTO VRB04KT 10SM CLR 14/06 A3003 RMK AO2 SLP170 60000 T01390056 50002=
201604271953 METAR KCLM 271953Z AUTO VRB04KT 10SM SCT055 14/05 A3003 RMK AO2 RAB44E53 SLP170 P0000 T01440050=
201604271853 METAR KCLM 271853Z AUTO 35006KT 10SM SCT055 12/06 A3003 RMK AO2 SLP171 T01220056=
201604271753 METAR KCLM 271753Z AUTO 01006KT 10SM BKN110 11/06 A3003 RMK AO2 SLP168 T01110056 10117 20072 51003=
201604271653 METAR KCLM 271653Z AUTO VRB05KT 10SM CLR 12/06 A3002 RMK AO2 SLP167 T01170056=
201604271553 METAR KCLM 271553Z AUTO VRB03KT 10SM BKN100 11/06 A3002 RMK AO2 SLP166 T01060056=
201604271453 METAR KCLM 271453Z AUTO 26005KT 9SM SCT047 BKN060 10/06 A3001 RMK AO2 SLP165 T01000061 53001 $=
201604271353 METAR KCLM 271353Z AUTO 25004KT 8SM BKN048 BKN060 OVC095 08/06 A3001 RMK AO2 SLP162 T00780056 $=
201604271253 METAR KCLM 271253Z AUTO 24005KT 9SM FEW047 SCT055 OVC100 08/06 A3001 RMK AO2 SLP161 T00780056 $=
201604271153 METAR KCLM 271153Z AUTO 24004KT 10SM FEW046 SCT065 OVC080 08/05 A3001 RMK AO2 SLP164 T00780050 10094 20078 56004 $=
201604271053 METAR KCLM 271053Z AUTO 25005KT 10SM BKN046 BKN070 OVC100 08/05 A3001 RMK AO2 SLP164 T00830050 $=
201604270953 METAR KCLM 270953Z AUTO 25005KT 10SM OVC100 08/05 A3002 RMK AO2 SLP166 T00830050 $=
201604270853 METAR KCLM 270853Z AUTO 25004KT 10SM OVC110 08/05 A3002 RMK AO2 SLP168 T00830050 56003 $=
201604270753 METAR KCLM 270753Z AUTO 25005KT 10SM OVC120 09/05 A3003 RMK AO2 SLP168 T00890050 401220033 $=
201604270653 METAR KCLM 270653Z AUTO 27006KT 10SM OVC100 09/05 A3003 RMK AO2 SLP170 T00890050 $=
201604270553 METAR KCLM 270553Z AUTO 27007KT 10SM OVC110 09/04 A3003 RMK AO2 SLP171 T00940044 10111 20094 56002 $=
201604270453 METAR KCLM 270453Z AUTO 27007KT 10SM SCT070 OVC110 09/05 A3003 RMK AO2 SLP171 T00940050 $=
201604270353 METAR KCLM 270353Z AUTO 27006KT 10SM BKN065 OVC120 10/05 A3003 RMK AO2 SLP171 T01000050 $=
201604270253 METAR KCLM 270253Z AUTO 29005KT 9SM BKN060 OVC120 10/05 A3004 RMK AO2 SLP173 T01000050 57008 $=
201604270153 METAR KCLM 270153Z AUTO 30007KT 9SM BKN060 11/04 A3005 RMK AO2 SLP177 T01060044 $=
201604270053 METAR KCLM 270053Z AUTO 29008KT 10SM FEW070 11/04 A3006 RMK AO2 SLP180 T01060044 $=
201604262353 METAR KCLM 262353Z AUTO 30007KT 9SM SCT060 11/04 A3006 RMK AO2 SLP183 T01110039 10122 20106 58007 $=
201604262253 METAR KCLM 262253Z AUTO 30005KT 10SM OVC060 11/04 A3008 RMK AO2 SLP186 T01060039 $=
201604262153 METAR KCLM 262153Z AUTO 32003KT 10SM SCT060 11/04 A3008 RMK AO2 SLP189 T01060039 $=
201604262053 METAR KCLM 262053Z AUTO 05005KT 10SM CLR 12/04 A3009 RMK AO2 SLP189 T01220044 58012 $=
201604261953 METAR KCLM 261953Z AUTO 07005KT 10SM CLR 12/04 A3010 RMK AO2 SLP193 T01170044 $=
201604261853 METAR KCLM 261853Z AUTO VRB05KT 10SM CLR 11/04 A3011 RMK AO2 SLP197 T01110044 $=
201604261753 METAR KCLM 261753Z AUTO 04006KT 10SM CLR 11/04 A3012 RMK AO2 RAB25E34 SLP201 P0000 60000 T01060039 10111 20033 58006 $=
201604261653 METAR KCLM 261653Z AUTO VRB05KT 10SM CLR 11/03 A3013 RMK AO2 SLP203 T01060033 $=
201604261553 METAR KCLM 261553Z AUTO 00000KT 10SM FEW027 10/03 A3014 RMK AO2 SLP207 T01000028 $=
201604261453 METAR KCLM 261453Z AUTO 24004KT 10SM CLR 07/03 A3014 RMK AO2 SLP207 T00720033 57009 $=
201604261436 SPECI KCLM 261436Z AUTO 23004KT 10SM FEW027 06/03 A3015 RMK AO2 T00610028 $=
201604261409 SPECI KCLM 261409Z AUTO 24006KT 10SM BKN027 05/03 A3015 RMK AO2 T00500028 $=
201604261353 METAR KCLM 261353Z AUTO 23007KT 10SM FEW027 04/02 A3015 RMK AO2 SLP212 T00440022 $=
201604261253 METAR KCLM 261253Z AUTO 22006KT 10SM CLR 03/01 A3016 RMK AO2 SLP214 T00330011 $=
201604261153 METAR KCLM 261153Z AUTO 22006KT 10SM CLR 04/02 A3017 RMK AO2 SLP216 T00440017 10078 20039 56003 $=
201604261053 METAR KCLM 261053Z AUTO 23006KT 10SM CLR 04/02 A3017 RMK AO2 SLP218 T00440022 $=
201604260953 METAR KCLM 260953Z AUTO 24007KT 10SM CLR 05/02 A3017 RMK AO2 SLP217 T00500022 $=
201604260853 METAR KCLM 260853Z AUTO 24008KT 10SM CLR 06/03 A3018 RMK AO2 SLP220 T00560028 58008 $=
201604260753 METAR KCLM 260753Z AUTO 25008KT 10SM CLR 07/03 A3019 RMK AO2 SLP226 T00670028 401280061 $=
201604260653 METAR KCLM 260653Z AUTO 25008KT 10SM CLR 07/03 A3020 RMK AO2 SLP228 T00720028 $=
201604260553 METAR KCLM 260553Z AUTO 25007KT 10SM CLR 07/03 A3020 RMK AO2 SLP228 T00720033 10117 20072 51001 $=
201604260453 METAR KCLM 260453Z AUTO 26007KT 9SM CLR 07/04 A3020 RMK AO2 SLP228 T00720039 $=
201604260353 METAR KCLM 260353Z AUTO 27008KT 9SM CLR 08/04 A3020 RMK AO2 SLP229 T00830039 $=
201604260253 METAR KCLM 260253Z AUTO 28008KT 9SM CLR 09/04 A3020 RMK AO2 SLP227 T00890044 55001 $=
201604260153 METAR KCLM 260153Z AUTO 29012KT 9SM CLR 10/04 A3020 RMK AO2 SLP227 T01000044 $=
201604260053 METAR KCLM 260053Z AUTO 31013G19KT 9SM CLR 12/05 A3020 RMK AO2 SLP227 T01170050 $=
201604252353 METAR KCLM 252353Z AUTO 30015G21KT 9SM CLR 12/04 A3020 RMK AO2 SLP229 60000 T01170044 10128 20111 56001 $=
201604252253 METAR KCLM 252253Z AUTO 31011G21KT 9SM CLR 12/04 A3021 RMK AO2 SLP230 T01220044 $=
201604252153 METAR KCLM 252153Z AUTO 32013G22KT 10SM CLR 12/03 A3020 RMK AO2 RAB24E34 SLP228 P0000 T01220033 $=
201604252053 METAR KCLM 252053Z AUTO 30012KT 10SM CLR 12/03 A3021 RMK AO2 SLP230 T01170028 58004 $=
201604251953 METAR KCLM 251953Z AUTO 31010G21KT 10SM CLR 12/05 A3021 RMK AO2 SLP232 T01170050 $=
201604251853 METAR KCLM 251853Z AUTO 30010KT 10SM CLR 12/06 A3022 RMK AO2 SLP233 T01220061 $=
201604251753 METAR KCLM 251753Z AUTO 34009G16KT 10SM FEW038 11/05 A3022 RMK AO2 SLP234 60000 T01110050 10117 20067 50004 $=
201604251653 METAR KCLM 251653Z AUTO 32008KT 10SM FEW029 SCT046 11/04 A3022 RMK AO2 RAE17 SLP234 P0000 T01110039 $=
201604251553 METAR KCLM 251553Z AUTO 27007KT 9SM -RA OVC046 10/04 A3021 RMK AO2 SLP232 P0000 T01000039 $=
201604251453 METAR KCLM 251453Z AUTO 25006KT 9SM -RA OVC050 08/02 A3020 RMK AO2 RAE1355B14 SLP229 P0000 60000 T00780022 51008 $=
201604251353 METAR KCLM 251353Z AUTO 26010KT 10SM -RA SCT047 OVC060 07/02 A3020 RMK AO2 RAB46 SLP226 P0000 T00670022 $=
201604251253 METAR KCLM 251253Z AUTO 26010KT 10SM FEW044 BKN080 07/02 A3019 RMK AO2 SLP225 T00720017 $=
201604251153 METAR KCLM 251153Z AUTO 26009KT 10SM SCT041 BKN050 07/01 A3018 RMK AO2 SLP221 70006 T00670011 10078 20067 53004 $=
201604251053 METAR KCLM 251053Z AUTO 25012KT 10SM SCT043 BKN080 07/02 A3017 RMK AO2 SLP218 T00720017 $=
201604250953 METAR KCLM 250953Z AUTO 26012KT 10SM OVC075 07/02 A3017 RMK AO2 SLP216 T00720017 $=
201604250853 METAR KCLM 250853Z AUTO 25009KT 10SM BKN060 OVC075 07/02 A3017 RMK AO2 SLP217 T00720017 53004 $=
201604250753 METAR KCLM 250753Z AUTO 25011KT 10SM SCT045 SCT055 07/02 A3016 RMK AO2 SLP215 T00720017 401390067 $=
201604250653 METAR KCLM 250653Z AUTO 25008KT 10SM SCT050 07/02 A3016 RMK AO2 SLP213 T00670017 $=
201604250553 METAR KCLM 250553Z AUTO 25008KT 10SM CLR 07/02 A3016 RMK AO2 SLP213 60002 T00670017 10106 20067 52011 $=
201604250453 METAR KCLM 250453Z AUTO 28007KT 10SM CLR 07/02 A3015 RMK AO2 SLP210 T00670017 $=
201604250353 METAR KCLM 250353Z AUTO 27010KT 10SM CLR 08/02 A3014 RMK AO2 SLP206 T00830022 $=
201604250253 METAR KCLM 250253Z AUTO 27009KT 10SM FEW041 SCT080 09/04 A3013 RMK AO2 SLP202 60002 T00890039 51008 $=
201604250153 METAR KCLM 250153Z AUTO 28009KT 10SM FEW034 BKN047 BKN055 09/04 A3012 RMK AO2 RAE40 SLP201 P0002 T00940044 $=
201604250135 SPECI KCLM 250135Z AUTO 28010KT 4SM -RA FEW027 BKN035 OVC044 09/05 A3012 RMK AO2 P0002 T00890050 $=
201604250124 SPECI KCLM 250124Z AUTO 31011G19KT 5SM -RA BKN029 OVC037 09/05 A3012 RMK AO2 P0000 T00940050 $=
201604250053 METAR KCLM 250053Z AUTO 30010G23KT 6SM -RA BKN036 OVC047 10/05 A3011 RMK AO2 RAE23B46 SLP197 P0000 T01000050 $=
201604242353 METAR KCLM 242353Z AUTO 30012G21KT 5SM -RA BKN038 BKN046 OVC060 10/05 A3010 RMK AO2 RAB49 SLP194 P0000 60002 T01000050 10139 20089 53009 $=
201604242253 METAR KCLM 242253Z AUTO 32011G21KT 9SM SCT039 BKN055 12/06 A3009 RMK AO2 RAB33E49 SLP189 P0000 T01220056 $=
201604242153 METAR KCLM 242153Z AUTO 34008KT 10SM FEW038 SCT049 BKN070 12/06 A3008 RMK AO2 RAB28E45 SLP186 P0000 T01170056 $=
201604242053 METAR KCLM 242053Z AUTO 28009KT 10SM FEW065 BKN080 BKN110 11/04 A3007 RMK AO2 RAE1958B17E27 SLP185 P0000 60002 T01110039 51007 $=
201604241953 METAR KCLM 241953Z AUTO 27014G24KT 6SM -RA FEW027 OVC045 09/04 A3007 RMK AO2 PK WND 31031/1931 RAE1854B35 SLP184 P0002 T00940044 $=
201604241853 METAR KCLM 241853Z AUTO 26009KT 10SM -RA BKN045 OVC055 11/06 A3006 RMK AO2 RAB12 SLP180 P0000 T01060056 $=
201604241753 METAR KCLM 241753Z AUTO 30007KT 10SM FEW060 BKN080 09/06 A3005 RMK AO2 RAB22E40 SLP178 P0000 60002 T00940056 10100 20083 53015 $=
201604241653 METAR KCLM 241653Z AUTO 27008G17KT 10SM FEW070 SCT090 BKN120 10/04 A3004 RMK AO2 SLP172 T01000044 $=
201604241553 METAR KCLM 241553Z AUTO 27012KT 10SM FEW041 SCT048 OVC100 09/04 A3002 RMK AO2 SLP167 T00890039 $=
201604241453 METAR KCLM 241453Z AUTO 29006KT 9SM FEW050 SCT065 BKN080 09/06 A3001 RMK AO2 RAB1356E22 SLP162 P0002 60002 T00890056 52007 $=
201604241353 METAR KCLM 241353Z AUTO 28012G18KT 9SM FEW050 SCT060 OVC075 09/06 A3000 RMK AO2 SLP160 T00890061 $=
201604241253 METAR KCLM 241253Z AUTO 28009KT 10SM FEW049 08/06 A2999 RMK AO2 SLP158 T00830061 $=
201604241153 METAR KCLM 241153Z AUTO 26007KT 10SM BKN037 BKN045 09/07 A2999 RMK AO2 SLP155 60008 70016 T00890067 10106 20083 50002 $=
201604241053 METAR KCLM 241053Z AUTO 26006KT 10SM BKN041 OVC080 09/08 A2999 RMK AO2 RAE47 SLP156 P0008 T00940078 $=
201604241037 SPECI KCLM 241037Z AUTO 25004KT 5SM -RA BR BKN039 OVC047 09/08 A2999 RMK AO2 P0008 T00940078 $=
201604241021 SPECI KCLM 241021Z AUTO 26008KT 2SM +RA BR OVC039 09/08 A3000 RMK AO2 P0006 T00940078 $=
201604240953 METAR KCLM 240953Z AUTO 24009KT 8SM -RA FEW038 OVC048 10/07 A3000 RMK AO2 RAB0858 SLP158 P0000 T01000072 $=
201604240853 METAR KCLM 240853Z AUTO 26005KT 10SM FEW048 BKN055 BKN100 09/07 A2998 RMK AO2 RAB0755E53 SLP154 P0000 60000 T00940072 53002 $=
201604240753 METAR KCLM 240753Z AUTO 28007KT 10SM BKN060 10/08 A2997 RMK AO2 SLP151 T01000078 401500083 $=
201604240653 METAR KCLM 240653Z AUTO 30006KT 10SM OVC090 10/08 A2997 RMK AO2 SLP150 T01000078 $=
201604240553 METAR KCLM 240553Z AUTO 31006KT 10SM FEW007 OVC085 10/09 A2998 RMK AO2 RAB08E31 SLP152 P0002 60008 T01000089 10139 20100 53000 $=
201604240518 SPECI KCLM 240518Z AUTO 28009KT 9SM -RA SCT008 BKN060 OVC085 11/09 A2998 RMK AO2 RAB08 P0000 T01060089 $=
201604240501 SPECI KCLM 240501Z AUTO 29010KT 10SM BKN008 BKN085 OVC110 11/09 A2998 RMK AO2 T01060089 $=
201604240453 METAR KCLM 240453Z AUTO 29010KT 10SM FEW010 SCT085 OVC110 11/09 A2998 RMK AO2 SLP152 T01060089 $=
201604240423 SPECI KCLM 240423Z AUTO 31005KT 8SM SCT006 OVC110 10/09 A2997 RMK AO2 T01000089 $=
201604240402 SPECI KCLM 240402Z AUTO 30006KT 9SM BKN007 OVC100 11/09 A2997 RMK AO2 CIG 005V009 T01060089 $=
201604240353 METAR KCLM 240353Z AUTO 31006KT 9SM SCT007 BKN060 OVC100 11/09 A2997 RMK AO2 RAE41 SLP150 P0000 T01060089 $=
201604240337 SPECI KCLM 240337Z AUTO 29006KT 8SM -RA SCT007 BKN060 OVC075 11/09 A2997 RMK AO2 P0000 T01060089 $=
201604240253 METAR KCLM 240253Z AUTO 29006KT 6SM -RA BR OVC046 11/09 A2998 RMK AO2 SLP151 P0004 60006 T01110094 58001 $=
201604240229 SPECI KCLM 240229Z AUTO 28005KT 3SM -RA BR FEW005 OVC060 11/09 A2998 RMK AO2 P0004 T01060094 $=
201604240214 SPECI KCLM 240214Z AUTO 30005KT 2SM RA BR FEW005 BKN045 OVC055 11/10 A2998 RMK AO2 P0004 T01110100 $=
201604240153 METAR KCLM 240153Z AUTO 28005KT 2SM -RA BR OVC045 11/09 A2998 RMK AO2 RAE20B30 SLP153 P0002 T01110094 $=
201604240137 SPECI KCLM 240137Z AUTO VRB03KT 5SM -RA BR SCT007 OVC048 12/10 A2998 RMK AO2 RAE20B30 P0000 T01170100 $=
201604240121 SPECI KCLM 240121Z AUTO 00000KT 8SM BKN008 OVC046 12/10 A2999 RMK AO2 RAE20 CIG 006V015 P0000 T01170100 $=
201604240053 METAR KCLM 240053Z AUTO 31005KT 6SM -RA OVC045 12/09 A2998 RMK AO2 RAB17 SLP153 P0000 T01220094 $=
201604232353 METAR KCLM 232353Z AUTO 00000KT 10SM BKN075 14/09 A2998 RMK AO2 SLP151 60000 T01390089 10150 20128 58012 $=
201604232253 METAR KCLM 232253Z AUTO 08007KT 10SM BKN047 14/09 A2999 RMK AO2 SLP155 T01440089 $=
201604232153 METAR KCLM 232153Z AUTO 08007KT 10SM BKN050 14/08 A3001 RMK AO2 SLP161 T01390083 $=
201604232053 METAR KCLM 232053Z AUTO 12008KT 10SM SCT047 14/09 A3001 RMK AO2 RAB42E52 SLP163 P0000 60000 T01440089 58005 $=
201604231953 METAR KCLM 231953Z AUTO 03004KT 10SM BKN048 BKN055 14/08 A3003 RMK AO2 SLP168 T01440078 $=
201604231853 METAR KCLM 231853Z AUTO 05004KT 10SM BKN036 OVC046 14/08 A3003 RMK AO2 SLP169 T01390078 $=
201604231753 METAR KCLM 231753Z AUTO 34004KT 9SM OVC034 13/08 A3003 RMK AO2 SLP170 T01280083 10128 20083 53008 $=
201604231723 SPECI KCLM 231723Z AUTO 01005KT 9SM SCT021 12/08 A3002 RMK AO2 T01220078 $=
201604231653 METAR KCLM 231653Z AUTO 36003KT 9SM BKN021 12/08 A3002 RMK AO2 SLP165 T01220078 $=
201604231645 SPECI KCLM 231645Z AUTO 00000KT 8SM BKN023 12/08 A3001 RMK AO2 T01220078 $=
201604231553 METAR KCLM 231553Z AUTO 25003KT 9SM CLR 12/08 A3001 RMK AO2 SLP163 T01170078 $=
201604231453 METAR KCLM 231453Z AUTO 24003KT 10SM FEW025 SCT040 BKN095 11/08 A3000 RMK AO2 SLP161 T01060078 51008 $=
201604231445 SPECI KCLM 231445Z AUTO 25003KT 10SM SCT025 BKN041 BKN090 11/08 A3000 RMK AO2 T01060078 $=
201604231404 SPECI KCLM 231404Z AUTO 26005KT 10SM BKN023 BKN090 09/07 A3000 RMK AO2 T00940072 $=
201604231353 METAR KCLM 231353Z AUTO 26005KT 10SM SCT022 09/07 A3000 RMK AO2 SLP159 T00890072 $=
201604231253 METAR KCLM 231253Z AUTO 26003KT 10SM FEW031 08/07 A2999 RMK AO2 SLP155 T00830067 $=
201604231211 SPECI KCLM 231211Z AUTO 00000KT 10SM SCT026 OVC090 10/07 A2998 RMK AO2 T01000072 $=
201604231153 METAR KCLM 231153Z AUTO 00000KT 10SM BKN025 OVC095 11/07 A2998 RMK AO2 SLP153 70006 T01110072 10117 20100 51011 $=
201604231053 METAR KCLM 231053Z AUTO 27005KT 10SM OVC026 11/08 A2998 RMK AO2 SLP152 T01060078 $=
201604230953 METAR KCLM 230953Z AUTO 28004KT 10SM OVC028 11/08 A2996 RMK AO2 SLP146 T01060083 $=
201604230853 METAR KCLM 230853Z AUTO 30007KT 9SM OVC022 11/08 A2995 RMK AO2 SLP141 T01110083 51016 $=
201604230753 METAR KCLM 230753Z AUTO 00000KT 9SM OVC021 12/09 A2994 RMK AO2 SLP137 T01170089 401720094 $=
201604230723 SPECI KCLM 230723Z AUTO 26004KT 10SM BKN020 BKN027 OVC090 12/09 A2993 RMK AO2 T01170089 $=
201604230653 METAR KCLM 230653Z AUTO 28005KT 10SM FEW044 OVC090 12/09 A2991 RMK AO2 SLP130 T01170089 $=
201604230629 SPECI KCLM 230629Z AUTO 26005KT 10SM SCT023 SCT070 OVC090 12/09 A2990 RMK AO2 T01170089 $=
201604230553 METAR KCLM 230553Z AUTO 25004KT 10SM BKN024 OVC085 12/09 A2990 RMK AO2 SLP125 60000 T01170089 10133 20117 51019 $=
201604230453 METAR KCLM 230453Z AUTO 23003KT 10SM OVC026 12/09 A2989 RMK AO2 SLP120 T01220089 $=
201604230353 METAR KCLM 230353Z AUTO 25003KT 10SM BKN028 OVC034 12/09 A2987 RMK AO2 SLP115 T01220094 $=
201604230253 METAR KCLM 230253Z AUTO 26004KT 10SM OVC027 13/09 A2984 RMK AO2 SLP106 60000 T01280094 51017 $=
201604230226 SPECI KCLM 230226Z AUTO 28004KT 9SM FEW021 OVC029 13/10 A2984 RMK AO2 T01280100 $=
201604230219 SPECI KCLM 230219Z AUTO 29003KT 9SM SCT021 OVC031 13/10 A2983 RMK AO2 T01280100 $=
201604230153 METAR KCLM 230153Z AUTO 30006KT 9SM OVC019 13/09 A2983 RMK AO2 SLP102 T01280094 $=
201604230053 METAR KCLM 230053Z AUTO VRB06KT 9SM OVC018 13/10 A2981 RMK AO2 RAE2357 SLP095 P0000 T01280100 $=
201604230031 SPECI KCLM 230031Z AUTO 32007KT 9SM BKN016 OVC070 13/10 A2981 RMK AO2 RAE2357 P0000 T01280100 $=
201604222353 METAR KCLM 222353Z AUTO 32006KT 8SM -RA SCT012 OVC060 13/11 A2979 RMK AO2 RAE10B31 SLP088 P0000 60003 T01280106 10172 20128 51025 $=
201604222307 SPECI KCLM 222307Z AUTO 31005KT 5SM -RA BR FEW014 BKN055 OVC070 13/11 A2978 RMK AO2 P0000 T01280106 $=
201604222253 METAR KCLM 222253Z AUTO VRB04KT 2SM -RA BR SCT016 OVC046 13/11 A2977 RMK AO2 RAE12B40 SLP081 P0000 T01280106 $=
201604222230 SPECI KCLM 222230Z AUTO 31009KT 7SM BKN017 BKN035 OVC044 13/11 A2976 RMK AO2 RAE12 P0000 T01330106 $=
201604222215 SPECI KCLM 222215Z AUTO VRB06KT 9SM SCT027 BKN035 OVC044 13/11 A2976 RMK AO2 RAE12 P0000 T01330111 $=
201604222200 METAR KCLM NIL=
201604222153 METAR KCLM 222153Z AUTO 35004KT 3SM -RA BKN027 BKN033 OVC055 14/11 A2974 RMK AO2 SLP071 P0003 T01390111 $=
201604222135 SPECI KCLM 222135Z AUTO 31004KT 4SM -RA BR OVC060 14/12 A2973 RMK AO2 P0003 T01390117 $=
201604222118 SPECI KCLM 222118Z AUTO 28004KT 2 1/2SM -RA FEW042 OVC060 14/11 A2973 RMK AO2 P0001 T01390111 $=
201604222053 METAR KCLM 222053Z AUTO 32004KT 4SM -RA FEW041 OVC060 14/11 A2972 RMK AO2 RAB09 SLP064 P0000 60000 T01390106 53026 $=
201604221953 METAR KCLM 221953Z AUTO 32005KT 10SM OVC055 14/09 A2969 RMK AO2 SLP054 T01440094 $=
201604221853 METAR KCLM 221853Z AUTO 31007KT 10SM BKN055 OVC075 16/09 A2966 RMK AO2 SLP044 T01610089 $=
201604221753 METAR KCLM 221753Z AUTO 33005KT 10SM BKN075 16/10 A2964 RMK AO2 SLP036 60003 T01610100 10161 20111 53005 $=
201604221653 METAR KCLM 221653Z AUTO 36004KT 10SM CLR 16/10 A2963 RMK AO2 SLP033 T01560100 $=
201604221553 METAR KCLM 221553Z AUTO 28005KT 10SM OVC085 15/11 A2963 RMK AO2 SLP032 T01500111 $=
201604221453 METAR KCLM 221453Z AUTO 27006KT 10SM CLR 12/10 A2962 RMK AO2 RAE1354B42E51 SLP031 P0000 60003 T01220100 51002 $=
201604221353 METAR KCLM 221353Z AUTO 30005KT 9SM -RA BKN060 BKN075 OVC090 11/10 A2962 RMK AO2 RAE01B21 SLP030 P0003 T01110100=
201604221253 METAR KCLM 221253Z AUTO 31007KT 10SM -RA FEW055 SCT070 BKN095 12/10 A2962 RMK AO2 RAB28 SLP029 P0000 T01220100 $=
201604221153 METAR KCLM 221153Z AUTO 26009KT 10SM FEW070 BKN100 OVC120 12/09 A2962 RMK AO2 RAB02E31 SLP028 P0000 60000 T01220094 10133 20094 58009 $=
201604221053 METAR KCLM 221053Z AUTO 31005KT 10SM BKN075 BKN090 BKN120 12/09 A2963 RMK AO2 SLP035 T01170094 $=
201604220953 METAR KCLM 220953Z AUTO 26003KT 10SM BKN070 11/09 A2963 RMK AO2 SLP034 T01110089 $=
201604220853 METAR KCLM 220853Z AUTO 00000KT 10SM FEW055 FEW065 11/09 A2964 RMK AO2 SLP038 T01060089 56016 $=
201604220753 METAR KCLM 220753Z AUTO 22004KT 9SM CLR 12/09 A2966 RMK AO2 SLP043 T01170094 401670094 $=
201604220653 METAR KCLM 220653Z AUTO 22006KT 9SM CLR 12/09 A2967 RMK AO2 SLP047 T01170089=
201604220553 METAR KCLM 220553Z AUTO 24006KT 10SM CLR 12/09 A2969 RMK AO2 SLP054 T01170094 10156 20111 58008=
201604220453 METAR KCLM 220453Z AUTO 00000KT 10SM OVC060 13/10 A2971 RMK AO2 SLP060 T01330100=
201604220353 METAR KCLM 220353Z AUTO 24005KT 10SM CLR 13/09 A2971 RMK AO2 SLP061 T01330094=
201604220253 METAR KCLM 220253Z AUTO 29005KT 10SM CLR 14/09 A2971 RMK AO2 SLP062 T01440094 57004=
201604220153 METAR KCLM 220153Z AUTO 29005KT 10SM FEW075 16/09 A2972 RMK AO2 SLP063 T01560094=
201604220053 METAR KCLM 220053Z AUTO 31007KT 9SM SCT075 16/09 A2972 RMK AO2 SLP065 T01560094=
201604212353 METAR KCLM 212353Z AUTO 29005KT 10SM FEW110 16/09 A2973 RMK AO2 SLP066 T01560094 10167 20133 56016=
201604212253 METAR KCLM 212253Z AUTO 30008KT 10SM FEW110 16/09 A2974 RMK AO2 SLP069 T01610094=
201604212200 METAR KCLM NIL=
201604212153 METAR KCLM 212153Z AUTO 01006KT 10SM SCT095 16/08 A2975 RMK AO2 SLP075 T01560083=
201604212053 METAR KCLM 212053Z AUTO VRB06KT 10SM CLR 15/09 A2977 RMK AO2 SLP082 T01500094 58008=
201604211953 METAR KCLM 211953Z AUTO 00000KT 10SM SCT110 15/09 A2978 RMK AO2 SLP085 T01500094=
201604211923 SPECI KCLM 211923Z AUTO 35005KT 10SM FEW018 SCT110 14/09 A2979 RMK AO2 T01440094=
201604211853 METAR KCLM 211853Z AUTO 35005KT 10SM OVC016 14/09 A2979 RMK AO2 SLP087 T01440094=
201604211812 SPECI KCLM 211812Z AUTO VRB04KT 10SM OVC015 14/09 A2979 RMK AO2 T01390094=
201604211753 METAR KCLM 211753Z AUTO 33004KT 9SM OVC014 13/09 A2980 RMK AO2 SLP089 T01330089 10139 20117 58008=
201604211653 METAR KCLM 211653Z AUTO 28004KT 9SM OVC012 13/09 A2981 RMK AO2 SLP093 T01330094=
201604211553 METAR KCLM 211553Z AUTO 30005KT 8SM OVC012 12/09 A2981 RMK AO2 SLP096 T01220094=
201604211453 METAR KCLM 211453Z AUTO 27005KT 7SM OVC011 12/10 A2982 RMK AO2 SLP097 T01220100 53003=
201604211353 METAR KCLM 211353Z AUTO 25004KT 6SM BR OVC010 12/09 A2981 RMK AO2 SLP095 T01170094 $=
201604211253 METAR KCLM 211253Z AUTO 24005KT 7SM OVC007 12/09 A2981 RMK AO2 SLP095 T01170094 $=
201604211153 METAR KCLM 211153Z AUTO 30003KT 8SM OVC008 11/09 A2981 RMK AO2 SLP094 60000 T01110094 10117 20111 55000 $=
201604211053 METAR KCLM 211053Z AUTO 29004KT 8SM OVC007 11/09 A2982 RMK AO2 SLP096 T01110094 $=
201604210953 METAR KCLM 210953Z AUTO 29012KT 8SM OVC008 11/09 A2979 RMK AO2 RAE09 SLP087 P0000 T01110094 $=
201604210853 METAR KCLM 210853Z AUTO 29009KT 7SM -RA BKN009 BKN028 OVC090 11/09 A2981 RMK AO2 RAB50 PRESFR SLP094 P0000 60000 T01110094 50004 $=
201604210753 METAR KCLM 210753Z AUTO 29007KT 8SM OVC008 12/09 A2982 RMK AO2 SLP099 T01170094 402440094 $=
201604210653 METAR KCLM 210653Z AUTO 30009KT 8SM OVC007 12/09 A2980 RMK AO2 SLP090 T01170094 $=
201604210614 SPECI KCLM 210614Z AUTO 30007KT 7SM BKN007 12/10 A2981 RMK AO2 T01170100 $=
201604210602 SPECI KCLM 210602Z AUTO 31007KT 8SM FEW007 12/10 A2980 RMK AO2 T01170100 $=
201604210553 METAR KCLM 210553Z AUTO 30008KT 8SM CLR 12/10 A2980 RMK AO2 SLP090 60000 T01170100 10183 20117 53019 $=
201604210453 METAR KCLM 210453Z AUTO 29005KT 9SM CLR 13/09 A2978 RMK AO2 SLP083 T01330094 $=
201604210353 METAR KCLM 210353Z AUTO 27008KT 10SM CLR 15/08 A2976 RMK AO2 SLP076 T01500083 $=
201604210253 METAR KCLM 210253Z AUTO 29007KT 10SM CLR 17/08 A2974 RMK AO2 SLP070 60000 T01670078 56010 $=
201604210153 METAR KCLM 210153Z AUTO 28009KT 9SM CLR 18/10 A2974 RMK AO2 SLP071 T01830100 $=
201604210053 METAR KCLM 210053Z AUTO 30008KT 9SM CLR 18/10 A2976 RMK AO2 RAE06 SLP076 P0000 T01780100 $=
201604202353 METAR KCLM 202353Z AUTO 30010KT 9SM -RA CLR 18/10 A2977 RMK AO2 RAE00B48 SLP081 P0000 60000 T01780100 10244 20178 56016 $=
201604202253 METAR KCLM 202253Z AUTO 03004KT 10SM -RA CLR 24/06 A2978 RMK AO2 RAE2155B28 SLP083 P0000 T02440061 $=
201604202153 METAR KCLM 202153Z AUTO VRB04KT 10SM -RA CLR 24/08 A2980 RMK AO2 RAB45 SLP089 P0000 T02440078 $=
201604202053 METAR KCLM 202053Z AUTO 09006KT 10SM CLR 23/08 A2982 RMK AO2 SLP097 T02330078 58017 $=
201604201953 METAR KCLM 201953Z AUTO 10008KT 10SM CLR 23/08 A2984 RMK AO2 SLP104 T02280078 $=
201604201853 METAR KCLM 201853Z AUTO 09006KT 10SM CLR 22/08 A2986 RMK AO2 SLP111 T02220083 $=
201604201753 METAR KCLM 201753Z AUTO 10006KT 10SM CLR 21/08 A2987 RMK AO2 SLP114 60000 T02060083 10211 20094 58002 $=
201604201653 METAR KCLM 201653Z AUTO 10009KT 10SM CLR 19/08 A2988 RMK AO2 SLP117 T01940083 $=
201604201553 METAR KCLM 201553Z AUTO 12004KT 10SM CLR 19/09 A2988 RMK AO2 RAB10E14 SLP116 P0000 T01940094 $=
201604201453 METAR KCLM 201453Z AUTO 00000KT 7SM CLR 15/11 A2988 RMK AO2 SLP117 60000 T01500111 56003 $=
201604201353 METAR KCLM 201353Z AUTO 23003KT 10SM CLR 12/08 A2988 RMK AO2 RAB40E50 SLP117 P0000 T01170083 $=
201604201253 METAR KCLM 201253Z AUTO 22003KT 10SM CLR 10/08 A2988 RMK AO2 SLP118 T01000078 $=
201604201153 METAR KCLM 201153Z AUTO 20003KT 9SM CLR 11/08 A2989 RMK AO2 SLP120 T01060078 10139 20100 53001 $=
201604201053 METAR KCLM 201053Z AUTO 19003KT 10SM CLR 10/07 A2988 RMK AO2 SLP117 T01000072 $=
201604200953 METAR KCLM 200953Z AUTO 00000KT 10SM CLR 11/08 A2988 RMK AO2 SLP117 T01110078 $=
201604200853 METAR KCLM 200853Z AUTO 00000KT 10SM CLR 11/08 A2988 RMK AO2 SLP119 T01110083 56001 $=
201604200753 METAR KCLM 200753Z AUTO 00000KT 10SM CLR 11/08 A2989 RMK AO2 SLP120 T01110083 402330089 $=
201604200653 METAR KCLM 200653Z AUTO 00000KT 10SM CLR 11/08 A2988 RMK AO2 SLP117 T01060083 $=
201604200553 METAR KCLM 200553Z AUTO 00000KT 10SM CLR 13/09 A2988 RMK AO2 SLP119 60000 T01280094 10233 20117 58002 $=
201604200453 METAR KCLM 200453Z AUTO 00000KT 10SM CLR 14/10 A2989 RMK AO2 SLP122 T01390100 $=
201604200353 METAR KCLM 200353Z AUTO 00000KT 10SM CLR 17/11 A2989 RMK AO2 RAE01B18E21 SLP121 P0000 T01670106 $=
201604200253 METAR KCLM 200253Z AUTO 00000KT 10SM -RA CLR 18/11 A2989 RMK AO2 RAB51 SLP122 P0000 60000 T01780111 56012 $=
201604200153 METAR KCLM 200153Z AUTO 00000KT 10SM CLR 21/09 A2990 RMK AO2 RAB34E44 SLP125 P0000 T02110089 $=
201604200053 METAR KCLM 200053Z AUTO 01003KT 9SM CLR 22/09 A2990 RMK AO2 SLP126 T02220089 $=
201604192353 METAR KCLM 192353Z AUTO 00000KT 10SM CLR 22/08 A2993 RMK AO2 RAB01E11B43E53 SLP134 P0000 60000 T02220078 10228 20178 58020 $=
201604192253 METAR KCLM 192253Z AUTO 08004KT 10SM CLR 22/08 A2995 RMK AO2 SLP140 T02220078 $=
201604192153 METAR KCLM 192153Z AUTO 07005KT 10SM CLR 22/08 A2997 RMK AO2 SLP149 T02170083 $=
201604192053 METAR KCLM 192053Z AUTO 09006KT 10SM CLR 21/08 A2999 RMK AO2 SLP154 T02060083 58014 $=
201604191953 METAR KCLM 191953Z AUTO 09006KT 10SM CLR 21/09 A3000 RMK AO2 SLP159 T02060089 $=
201604191853 METAR KCLM 191853Z AUTO 08006KT 10SM CLR 19/08 A3002 RMK AO2 SLP164 T01940083 $=
201604191753 METAR KCLM 191753Z AUTO VRB05KT 10SM CLR 18/09 A3003 RMK AO2 SLP167 T01780089 10189 20089 55004 $=
201604191653 METAR KCLM 191653Z AUTO 06004KT 10SM CLR 18/08 A3003 RMK AO2 SLP166 T01830083 $=
201604191553 METAR KCLM 191553Z AUTO 05004KT 10SM CLR 17/08 A3003 RMK AO2 SLP170 T01720078 $=
201604191453 METAR KCLM 191453Z AUTO 00000KT 7SM CLR 14/11 A3004 RMK AO2 SLP173 T01390106 53001 $=
201604191353 METAR KCLM 191353Z AUTO 16004KT 9SM CLR 10/08 A3004 RMK AO2 SLP172 T01000078 $=
201604191253 METAR KCLM 191253Z AUTO 19003KT 10SM CLR 09/07 A3004 RMK AO2 SLP172 T00940072 $=
201604191153 METAR KCLM 191153Z AUTO 00000KT 10SM CLR 10/07 A3004 RMK AO2 SLP171 T01000072 10194 20089 53000 $=
201604191053 METAR KCLM 191053Z AUTO 21003KT 10SM CLR 13/08 A3003 RMK AO2 SLP168 T01330078 $=
201604190953 METAR KCLM 190953Z AUTO 15003KT 9SM CLR 12/08 A3003 RMK AO2 SLP168 T01170078 $=
201604190853 METAR KCLM 190853Z AUTO 13003KT 10SM CLR 12/08 A3004 RMK AO2 SLP171 T01170078 53001 $=
201604190753 METAR KCLM 190753Z AUTO 00000KT 9SM CLR 13/08 A3004 RMK AO2 SLP171 T01330083 402500072 $=
201604190653 METAR KCLM 190653Z AUTO 18004KT 9SM CLR 14/09 A3003 RMK AO2 SLP169 T01390089 $=
201604190553 METAR KCLM 190553Z AUTO 25012KT 10SM CLR 19/08 A3003 RMK AO2 SLP169 60000 T01940078 10239 20161 51001 $=
201604190453 METAR KCLM 190453Z AUTO 27007KT 10SM CLR 17/08 A3003 RMK AO2 SLP170 T01720078 $=
201604190353 METAR KCLM 190353Z AUTO 23004KT 10SM CLR 17/08 A3003 RMK AO2 RAB02E25 SLP170 P0000 T01720083 $=
201604190253 METAR KCLM 190253Z AUTO 24004KT 10SM CLR 19/08 A3003 RMK AO2 SLP169 T01890083 56010 $=
201604190153 METAR KCLM 190153Z AUTO 29003KT 10SM CLR 22/07 A3004 RMK AO2 SLP172 T02220072 $=
201604190053 METAR KCLM 190053Z AUTO 00000KT 10SM CLR 22/07 A3005 RMK AO2 SLP174 T02220072 $=
201604182353 METAR KCLM 182353Z AUTO 35005KT 10SM CLR 24/06 A3006 RMK AO2 RAB17E19 SLP180 P0000 60000 T02390061 10250 20172 58012 $=
201604182253 METAR KCLM 182253Z AUTO 30003KT 10SM CLR 23/06 A3007 RMK AO2 RAB32E49 SLP183 P0000 T02330061 $=
201604182153 METAR KCLM 182153Z AUTO 29003KT 10SM CLR 22/06 A3009 RMK AO2 RAB2054E11B29E39 SLP190 P0000 T02220061 $=
201604182053 METAR KCLM 182053Z AUTO 00000KT 10SM CLR 21/08 A3010 RMK AO2 RAB07E10 SLP192 P0000 60000 T02060078 58003 $=
201604181953 METAR KCLM 181953Z AUTO VRB03KT 10SM CLR 20/08 A3010 RMK AO2 RAE1856B23E33 SLP194 P0000 T02000083=
201604181853 METAR KCLM 181853Z AUTO VRB04KT 10SM -RA CLR 18/08 A3011 RMK AO2 RAB46 SLP197 P0000 T01780078=
201604181753 METAR KCLM 181753Z AUTO VRB04KT 10SM CLR 18/08 A3011 RMK AO2 RAE38 SLP195 P0000 60000 T01780078 10178 20078 50004=
201604181653 METAR KCLM 181653Z AUTO 00000KT 10SM -RA CLR 17/08 A3011 RMK AO2 RAB38 SLP197 P0000 T01670078=
201604181553 METAR KCLM 181553Z AUTO 00000KT 10SM CLR 16/08 A3011 RMK AO2 SLP197 T01560083=
201604181453 METAR KCLM 181453Z AUTO 00000KT 7SM CLR 12/09 A3010 RMK AO2 SLP191 T01170094 53008=
201604181353 METAR KCLM 181353Z AUTO 24006KT 9SM CLR 10/07 A3008 RMK AO2 SLP187 T01000072=
201604181253 METAR KCLM 181253Z AUTO 23003KT 9SM CLR 09/07 A3007 RMK AO2 SLP182 T00890072=
201604181153 METAR KCLM 181153Z AUTO 22003KT 9SM CLR 08/07 A3007 RMK AO2 SLP183 T00830067 10094 20072 55004=
201604181053 METAR KCLM 181053Z AUTO 00000KT 9SM CLR 08/06 A3007 RMK AO2 SLP183 T00780061=
201604180953 METAR KCLM 180953Z AUTO 00000KT 9SM CLR 08/06 A3007 RMK AO2 SLP183 T00780061=
201604180853 METAR KCLM 180853Z AUTO 00000KT 9SM CLR 08/06 A3008 RMK AO2 SLP188 T00780061 58008=
201604180753 METAR KCLM 180753Z AUTO 00000KT 10SM CLR 08/06 A3009 RMK AO2 SLP192 T00780061 401780044=
201604180653 METAR KCLM 180653Z AUTO 14003KT 9SM CLR 09/07 A3010 RMK AO2 SLP193 T00890072=
201604180553 METAR KCLM 180553Z AUTO 00000KT 9SM CLR 09/07 A3011 RMK AO2 SLP196 T00940072 10178 20089 58003=
201604180453 METAR KCLM 180453Z AUTO 00000KT 9SM CLR 09/07 A3011 RMK AO2 SLP198 T00940072=
201604180353 METAR KCLM 180353Z AUTO 00000KT 8SM CLR 11/07 A3012 RMK AO2 SLP199 T01060072=
201604180253 METAR KCLM 180253Z AUTO 14004KT 10SM CLR 14/07 A3012 RMK AO2 SLP198 T01440072 56012=
201604180153 METAR KCLM 180153Z AUTO 10004KT 10SM CLR 16/08 A3012 RMK AO2 SLP202 T01610078=
201604180053 METAR KCLM 180053Z AUTO 08006KT 10SM CLR 17/07 A3014 RMK AO2 SLP206 T01670072=
201604172353 METAR KCLM 172353Z AUTO 10006KT 10SM CLR 17/07 A3015 RMK AO2 SLP211 T01720072 10178 20128 58019=
201604172253 METAR KCLM 172253Z AUTO 11007KT 10SM CLR 17/08 A3017 RMK AO2 SLP218 T01720078=
201604172153 METAR KCLM 172153Z AUTO 09007KT 10SM CLR 16/07 A3019 RMK AO2 SLP224 T01560067=
201604172053 METAR KCLM 172053Z AUTO 10007KT 10SM CLR 15/07 A3021 RMK AO2 SLP230 T01500072 58016=
201604171953 METAR KCLM 171953Z AUTO 07007KT 350V100 10SM CLR 14/07 A3023 RMK AO2 SLP236 T01440072=
201604171853 METAR KCLM 171853Z AUTO 09009KT 10SM CLR 13/07 A3024 RMK AO2 SLP240 T01330067=
201604171753 METAR KCLM 171753Z AUTO 08008KT 9SM CLR 13/07 A3025 RMK AO2 SLP246 T01280067 10128 20056 58009=
201604171653 METAR KCLM 171653Z AUTO 09006KT 9SM CLR 13/07 A3026 RMK AO2 SLP249 T01280067=
201604171553 METAR KCLM 171553Z AUTO 09007KT 10SM CLR 12/07 A3028 RMK AO2 SLP254 T01220067=
201604171453 METAR KCLM 171453Z AUTO 14004KT 9SM CLR 11/07 A3028 RMK AO2 SLP255 T01060072 56003=
201604171353 METAR KCLM 171353Z AUTO 00000KT 9SM CLR 07/04 A3028 RMK AO2 SLP256 T00670044=
201604171253 METAR KCLM 171253Z AUTO 14003KT 10SM CLR 06/04 A3028 RMK AO2 SLP256 T00610044=
201604171153 METAR KCLM 171153Z AUTO 00000KT 9SM CLR 06/04 A3029 RMK AO2 SLP258 T00560039 10083 20044 58010=
201604171053 METAR KCLM 171053Z AUTO 00000KT 10SM CLR 06/04 A3030 RMK AO2 SLP261 T00610044=
201604170953 METAR KCLM 170953Z AUTO 00000KT 10SM CLR 07/04 A3031 RMK AO2 SLP266 T00670044=
201604170853 METAR KCLM 170853Z AUTO 00000KT 10SM CLR 07/05 A3032 RMK AO2 SLP268 T00670050 58001=
201604170753 METAR KCLM 170753Z AUTO 00000KT 10SM CLR 08/06 A3033 RMK AO2 SLP270 T00780056 401390039=
201604170653 METAR KCLM 170653Z AUTO 00000KT 9SM CLR 08/06 A3032 RMK AO2 SLP269 T00780056=
201604170553 METAR KCLM 170553Z AUTO 00000KT 9SM CLR 08/06 A3032 RMK AO2 SLP269 T00780061 10139 20072 53007=
201604170453 METAR KCLM 170453Z AUTO 00000KT 8SM CLR 08/06 A3031 RMK AO2 SLP265 T00830061=
201604170353 METAR KCLM 170353Z AUTO 22003KT 9SM CLR 08/06 A3030 RMK AO2 SLP263 T00830056=
201604170253 METAR KCLM 170253Z AUTO 15004KT 8SM CLR 11/05 A3030 RMK AO2 SLP262 T01110050 57002=
201604170153 METAR KCLM 170153Z AUTO 00000KT 10SM CLR 13/05 A3030 RMK AO2 SLP263 T01280050=
201604170053 METAR KCLM 170053Z AUTO 36004KT 10SM BKN100 13/06 A3030 RMK AO2 SLP263 T01330056=
201604162353 METAR KCLM 162353Z AUTO VRB03KT 10SM BKN110 13/06 A3031 RMK AO2 SLP264 60000 T01330061 10139 20106 58009=
201604162253 METAR KCLM 162253Z AUTO 00000KT 10SM CLR 13/07 A3033 RMK AO2 SLP271 T01330067=
201604162200 METAR KCLM NIL=
201604162153 METAR KCLM 162153Z AUTO 03004KT 9SM BKN110 13/07 A3033 RMK AO2 RAB28E37 SLP271 P0000 T01280067=
201604162053 METAR KCLM 162053Z AUTO 06004KT 9SM OVC100 12/07 A3033 RMK AO2 SLP273 T01170067 58002=
201604161953 METAR KCLM 161953Z AUTO 02004KT 9SM FEW110 11/07 A3034 RMK AO2 SLP274 T01110072=
201604161853 METAR KCLM 161853Z AUTO VRB05KT 8SM OVC100 11/07 A3034 RMK AO2 SLP275 T01110067=
201604161753 METAR KCLM 161753Z AUTO VRB04KT 9SM BKN100 11/07 A3034 RMK AO2 SLP275 T01110067 10111 20039 53001=
201604161653 METAR KCLM 161653Z AUTO VRB04KT 9SM BKN085 11/07 A3033 RMK AO2 SLP272 T01060072=
201604161553 METAR KCLM 161553Z AUTO 03003KT 8SM BKN080 10/07 A3033 RMK AO2 SLP273 T01000072=
201604161453 METAR KCLM 161453Z AUTO 00000KT 10SM BKN070 OVC085 09/06 A3033 RMK AO2 SLP273 T00890061 50003=
201604161353 METAR KCLM 161353Z AUTO 00000KT 8SM OVC080 06/05 A3034 RMK AO2 SLP274 T00560050=
201604161253 METAR KCLM 161253Z AUTO 18003KT 10SM SCT085 04/03 A3033 RMK AO2 SLP273 T00440033=
201604161153 METAR KCLM 161153Z AUTO 22004KT 10SM CLR 06/04 A3033 RMK AO2 SLP270 T00610044 10078 20044 58007=
201604161053 METAR KCLM 161053Z AUTO 24006KT 10SM SCT085 07/04 A3034 RMK AO2 SLP275 T00720044=
201604160953 METAR KCLM 160953Z AUTO 23004KT 10SM BKN033 OVC080 08/05 A3034 RMK AO2 SLP276 T00780050=
201604160853 METAR KCLM 160853Z AUTO 22005KT 10SM OVC075 07/04 A3035 RMK AO2 SLP277 T00720044 55004=
201604160753 METAR KCLM 160753Z AUTO 00000KT 9SM CLR 06/03 A3034 RMK AO2 SLP277 T00560033 401330039=
201604160653 METAR KCLM 160653Z AUTO 21003KT 9SM CLR 06/04 A3034 RMK AO2 SLP275 T00610039=
201604160553 METAR KCLM 160553Z AUTO 22004KT 10SM BKN039 07/05 A3036 RMK AO2 SLP281 T00720050 10117 20072 50006=
201604160453 METAR KCLM 160453Z AUTO 00000KT 10SM SCT040 BKN100 08/05 A3036 RMK AO2 SLP282 T00780050=
201604160353 METAR KCLM 160353Z AUTO 00000KT 10SM SCT050 OVC100 10/06 A3035 RMK AO2 SLP279 T01000061=
201604160253 METAR KCLM 160253Z AUTO 00000KT 9SM FEW040 SCT049 OVC110 11/06 A3034 RMK AO2 SLP275 T01060056 50005=
201604160153 METAR KCLM 160153Z AUTO 31004KT 10SM OVC037 11/05 A3034 RMK AO2 SLP275 T01110050=
201604160053 METAR KCLM 160053Z AUTO 30004KT 10SM BKN037 BKN049 BKN065 12/06 A3033 RMK AO2 SLP274 T01170061=
201604152353 METAR KCLM 152353Z AUTO 34004KT 8SM BKN045 12/07 A3032 RMK AO2 SLP270 T01170072 10133 20106 50003=
201604152253 METAR KCLM 152253Z AUTO VRB03KT 10SM SCT070 13/05 A3033 RMK AO2 SLP271 T01330050=
201604152153 METAR KCLM 152153Z AUTO 09005KT 10SM OVC060 12/06 A3033 RMK AO2 SLP271 T01220061=
201604152053 METAR KCLM 152053Z AUTO VRB04KT 10SM FEW065 13/06 A3032 RMK AO2 SLP267 T01280056 51006=
201604151953 METAR KCLM 151953Z AUTO 07004KT 10SM CLR 12/06 A3031 RMK AO2 SLP266 T01170056=
201604151853 METAR KCLM 151853Z AUTO VRB06KT 10SM FEW050 12/06 A3031 RMK AO2 SLP265 T01170061=
201604151753 METAR KCLM 151753Z AUTO 00000KT 10SM OVC050 11/06 A3030 RMK AO2 SLP260 T01060056 10111 20039 53023=
201604151653 METAR KCLM 151653Z AUTO 00000KT 10SM OVC035 10/04 A3027 RMK AO2 SLP251 T01000044=
201604151553 METAR KCLM 151553Z AUTO 24005KT 10SM OVC042 08/04 A3025 RMK AO2 SLP245 T00830039=
201604151453 METAR KCLM 151453Z AUTO 23003KT 10SM OVC037 07/04 A3023 RMK AO2 SLP237 T00720039 52020=
201604151353 METAR KCLM 151353Z AUTO 24006KT 10SM CLR 05/03 A3021 RMK AO2 SLP230 T00500028=
201604151253 METAR KCLM 151253Z AUTO 18003KT 10SM CLR 04/02 A3019 RMK AO2 SLP225 T00390022=
201604151153 METAR KCLM 151153Z AUTO 22006KT 10SM CLR 05/02 A3017 RMK AO2 SLP217 T00500022 10083 20044 51027=
201604151053 METAR KCLM 151053Z AUTO 21005KT 10SM CLR 06/03 A3014 RMK AO2 SLP209 T00560028=
201604150953 METAR KCLM 150953Z AUTO 26006KT 10SM CLR 07/03 A3012 RMK AO2 SLP201 T00670028=
201604150853 METAR KCLM 150853Z AUTO 26006KT 10SM CLR 07/03 A3009 RMK AO2 SLP190 T00720033 53022=
201604150753 METAR KCLM 150753Z AUTO 25009KT 10SM CLR 08/04 A3007 RMK AO2 SLP182 T00780039 401220050=
201604150653 METAR KCLM 150653Z AUTO 26007KT 10SM CLR 08/04 A3005 RMK AO2 SLP176 T00780044=
201604150553 METAR KCLM 150553Z AUTO 27007KT 10SM CLR 08/05 A3002 RMK AO2 SLP168 T00780050 10117 20078 51027=
201604150453 METAR KCLM 150453Z AUTO 28009KT 10SM CLR 09/06 A3000 RMK AO2 SLP161 T00890056=
201604150353 METAR KCLM 150353Z AUTO 27009KT 9SM CLR 09/06 A2998 RMK AO2 SLP152 T00890061=
201604150253 METAR KCLM 150253Z AUTO 28010KT 9SM CLR 09/06 A2994 RMK AO2 SLP142 T00940056 51023=
201604150153 METAR KCLM 150153Z AUTO 30009G16KT 10SM SCT070 11/06 A2992 RMK AO2 SLP134 T01110056=
201604150053 METAR KCLM 150053Z AUTO 30011KT 10SM FEW065 BKN100 11/04 A2990 RMK AO2 SLP127 T01110039=
201604142353 METAR KCLM 142353Z AUTO 36005KT 10SM FEW060 SCT080 12/04 A2988 RMK AO2 SLP118 T01170039 10122 20089 51020=
201604142253 METAR KCLM 142253Z AUTO 32004KT 10SM BKN080 11/04 A2986 RMK AO2 SLP112 T01110044=
201604142153 METAR KCLM 142153Z AUTO VRB04KT 10SM SCT100 11/06 A2984 RMK AO2 SLP105 T01060056=
201604142053 METAR KCLM 142053Z AUTO 05004KT 10SM OVC036 11/05 A2982 RMK AO2 SLP098 T01060050 51021=
201604141953 METAR KCLM 141953Z AUTO VRB04KT 10SM FEW015 BKN032 11/06 A2980 RMK AO2 SLP091 T01060056=
201604141941 SPECI KCLM 141941Z AUTO 08004KT 10SM FEW014 BKN027 OVC035 10/06 A2980 RMK AO2 T01000056=
201604141853 METAR KCLM 141853Z AUTO VRB03KT 10SM FEW009 FEW026 OVC035 09/07 A2978 RMK AO2 SLP086 T00940067=
201604141807 SPECI KCLM 141807Z AUTO 34006KT 9SM FEW008 BKN033 OVC050 09/07 A2976 RMK AO2 T00940067=
201604141753 METAR KCLM 141753Z AUTO 01006KT 9SM FEW020 BKN025 OVC032 10/07 A2975 RMK AO2 SLP076 T01000067 10106 20050 53009=
201604141748 SPECI KCLM 141748Z AUTO VRB05KT 9SM SCT020 BKN025 BKN030 10/07 A2975 RMK AO2=
201604141712 SPECI KCLM 141712Z AUTO 34004KT 10SM SCT017 BKN050 10/06 A2974 RMK AO2 T01000061=
201604141653 METAR KCLM 141653Z AUTO 36006KT 10SM BKN017 10/06 A2973 RMK AO2 SLP067 T01000061=
201604141648 SPECI KCLM 141648Z AUTO 36007KT 10SM BKN017 10/06 A2973 RMK AO2=
201604141553 METAR KCLM 141553Z AUTO 27006KT 10SM CLR 09/03 A2972 RMK AO2 SLP063 T00890028=
201604141453 METAR KCLM 141453Z AUTO 24005KT 10SM CLR 06/03 A2970 RMK AO2 SLP059 T00560028 53005=
201604141353 METAR KCLM 141353Z AUTO 24005KT 10SM CLR 06/02 A2969 RMK AO2 SLP056 T00560022=
201604141340 SPECI KCLM 141340Z AUTO 23004KT 10SM FEW025 06/03 A2969 RMK AO2 T00560028=
201604141253 METAR KCLM 141253Z AUTO 31003KT 10SM BKN018 07/03 A2969 RMK AO2 SLP053 T00670033=
201604141235 SPECI KCLM 141235Z AUTO VRB03KT 10SM BKN016 07/03 A2969 RMK AO2 T00720028=
201604141153 METAR KCLM 141153Z AUTO 27008KT 10SM FEW026 07/03 A2968 RMK AO2 SLP053 T00720028 10089 20061 53005=
201604141053 METAR KCLM 141053Z AUTO 25007KT 10SM FEW031 OVC085 08/04 A2968 RMK AO2 SLP052 T00830039=
201604140953 METAR KCLM 140953Z AUTO 26008KT 10SM CLR 09/03 A2966 RMK AO2 SLP045 T00890033=
201604140853 METAR KCLM 140853Z AUTO 29006KT 10SM FEW090 OVC110 08/04 A2967 RMK AO2 SLP048 T00830039 53006=
201604140753 METAR KCLM 140753Z AUTO 25003KT 9SM BKN080 07/04 A2966 RMK AO2 SLP043 T00720044 401170039=
201604140653 METAR KCLM 140653Z AUTO 22005KT 9SM CLR 07/04 A2964 RMK AO2 SLP037 T00720044=
201604140553 METAR KCLM 140553Z AUTO 00000KT 9SM FEW095 SCT120 07/05 A2965 RMK AO2 SLP042 T00720050 10106 20072 58021=
201604140453 METAR KCLM 140453Z AUTO 25004KT 8SM OVC110 07/05 A2968 RMK AO2 SLP051 T00720050=
201604140353 METAR KCLM 140353Z AUTO 00000KT 9SM CLR 07/05 A2969 RMK AO2 SLP055 T00720050=
201604140253 METAR KCLM 140253Z AUTO 00000KT 8SM CLR 08/04 A2971 RMK AO2 SLP064 T00780044 57044=
201604140153 METAR KCLM 140153Z AUTO 00000KT 10SM CLR 09/05 A2976 RMK AO2 SLP078 T00890050=
201604140053 METAR KCLM 140053Z AUTO 11004KT 10SM CLR 10/03 A2981 RMK AO2 SLP095 T01000033=
201604132353 METAR KCLM 132353Z AUTO 08003KT 9SM OVC085 10/04 A2985 RMK AO2 SLP108 T01000044 10117 20089 56031=
201604132253 METAR KCLM 132253Z AUTO 35003KT 10SM OVC110 09/04 A2988 RMK AO2 SLP119 T00940044=
201604132153 METAR KCLM 132153Z AUTO 00000KT 10SM FEW110 12/04 A2991 RMK AO2 SLP128 T01170039=
201604132053 METAR KCLM 132053Z AUTO 34003KT 10SM CLR 10/06 A2994 RMK AO2 SLP141 T01000061 58026=
201604131953 METAR KCLM 131953Z AUTO VRB03KT 10SM CLR 09/06 A2997 RMK AO2 SLP151 T00940056=
201604131853 METAR KCLM 131853Z AUTO 04004KT 10SM CLR 09/06 A3000 RMK AO2 SLP160 T00940056=
201604131753 METAR KCLM 131753Z AUTO 02005KT 10SM CLR 09/06 A3002 RMK AO2 SLP166 T00940061 10100 20050 56016=
201604131653 METAR KCLM 131653Z AUTO 09005KT 10SM CLR 09/05 A3002 RMK AO2 SLP168 T00940050=
201604131553 METAR KCLM 131553Z AUTO 00000KT 10SM CLR 09/04 A3004 RMK AO2 SLP173 T00940044=
201604131453 METAR KCLM 131453Z AUTO 00000KT 10SM OVC080 07/06 A3007 RMK AO2 SLP184 T00720056 58009=
201604131353 METAR KCLM 131353Z AUTO 23004KT 9SM OVC080 06/04 A3008 RMK AO2 SLP189 T00560039=
201604131253 METAR KCLM 131253Z AUTO 00000KT 9SM FEW031 OVC085 05/04 A3009 RMK AO2 SLP190 T00500039=
201604131237 SPECI KCLM 131237Z AUTO 00000KT 10SM BKN031 OVC090 06/04 A3009 RMK AO2 T00560044=
201604131219 SPECI KCLM 131219Z AUTO 24004KT 10SM BKN029 OVC065 06/04 A3010 RMK AO2 T00610044=
201604131153 METAR KCLM 131153Z AUTO 00000KT 10SM FEW027 OVC060 06/04 A3010 RMK AO2 SLP192 70032 T00610044 10067 20039 50000=
201604131119 SPECI KCLM 131119Z AUTO 00000KT 10SM SCT024 BKN065 06/04 A3010 RMK AO2 T00610044=
201604131053 METAR KCLM 131053Z AUTO 24005KT 10SM BKN019 BKN065 06/04 A3010 RMK AO2 SLP192 T00610039=
201604131012 SPECI KCLM 131012Z AUTO 23004KT 10SM SCT012 BKN019 OVC060 06/04 A3010 RMK AO2 T00560044=
201604130955 SPECI KCLM 130955Z AUTO 24003KT 10SM BKN013 BKN017 05/04 A3010 RMK AO2 T00500039=
201604130953 METAR KCLM 130953Z AUTO 24004KT 10SM SCT013 05/04 A3010 RMK AO2 SLP193 T00500039=
201604130948 SPECI KCLM 130948Z AUTO 25004KT 10SM FEW013 SCT019 05/04 A3010 RMK AO2=
201604130914 SPECI KCLM 130914Z AUTO 00000KT 10SM BKN020 BKN032 05/04 A3009 RMK AO2 T00500039=
201604130901 SPECI KCLM 130901Z AUTO 00000KT 10SM SCT020 04/03 A3009 RMK AO2 T00390028=
201604130853 METAR KCLM 130853Z AUTO 23003KT 10SM BKN020 04/03 A3009 RMK AO2 SLP191 T00440033 51007=
201604130753 METAR KCLM 130753Z AUTO 23006KT 10SM FEW021 SCT027 06/04 A3009 RMK AO2 SLP190 T00560039 401280044=
201604130653 METAR KCLM 130653Z AUTO 24004KT 10SM CLR 05/04 A3008 RMK AO2 SLP188 T00500039=
201604130553 METAR KCLM 130553Z AUTO 28007KT 10SM FEW070 07/03 A3007 RMK AO2 SLP184 60012 T00670033 10117 20067 50007=
201604130453 METAR KCLM 130453Z AUTO 26008KT 10SM OVC060 08/04 A3007 RMK AO2 SLP184 T00780044=
201604130353 METAR KCLM 130353Z AUTO 26006KT 10SM SCT065 BKN095 08/06 A3006 RMK AO2 RAE38 SLP180 P0000 T00780056=
201604130253 METAR KCLM 130253Z AUTO 00000KT 3SM -RA BR FEW022 BKN049 OVC070 08/07 A3005 RMK AO2 RAB06 SLP176 P0012 60012 T00830072 53007=
201604130226 SPECI KCLM 130226Z AUTO 31011G18KT 1 3/4SM RA BR FEW012 BKN036 OVC049 08/06 A3006 RMK AO2 RAB06 P0004 T00830061=
201604130153 METAR KCLM 130153Z AUTO 33007KT 8SM BKN070 09/06 A3004 RMK AO2 SLP175 T00940061=
201604130053 METAR KCLM 130053Z AUTO 27009KT 10SM FEW043 SCT060 11/07 A3002 RMK AO2 RAB2355E35 SLP166 P0000 T01060067=
201604122353 METAR KCLM 122353Z AUTO 27008KT 10SM FEW047 BKN055 BKN070 12/07 A3003 RMK AO2 SLP169 60020 T01170067 10128 20094 58008=
201604122253 METAR KCLM 122253Z AUTO 24004KT 10SM FEW049 12/07 A3004 RMK AO2 RAE36 SLP172 P0000 T01170072=
201604122153 METAR KCLM 122153Z AUTO 00000KT 4SM -RA FEW013 BKN047 OVC060 12/08 A3005 RMK AO2 SLP176 P0004 T01170083=
201604122053 METAR KCLM 122053Z AUTO 10006KT 4SM -RA BKN047 OVC055 11/08 A3005 RMK AO2 SLP177 P0006 60016 T01110083 51004=
201604122036 SPECI KCLM 122036Z AUTO 16003KT 3SM -RA SCT044 OVC055 11/08 A3005 RMK AO2 P0004 T01060078=
201604122026 SPECI KCLM 122026Z AUTO 15004KT 2SM -RA BR OVC050 10/08 A3005 RMK AO2 P0002 T01000078=
201604121953 METAR KCLM 121953Z AUTO 11003KT 3SM -RA BR BKN045 OVC055 09/07 A3005 RMK AO2 RAB06 SLP176 P0010 T00940072=
201604121923 SPECI KCLM 121923Z AUTO 30004KT 1 3/4SM RA BKN048 OVC060 09/07 A3005 RMK AO2 RAB06 P0004 T00940067=
201604121853 METAR KCLM 121853Z AUTO VRB03KT 9SM BKN050 OVC060 11/07 A3004 RMK AO2 RAB17E30 SLP173 P0000 T01060067=
201604121753 METAR KCLM 121753Z AUTO 09008KT 9SM SCT060 BKN070 11/06 A3004 RMK AO2 RAB1656E14 SLP174 P0000 60000 T01110061 10117 20044 55004=
201604121653 METAR KCLM 121653Z AUTO 09004KT 9SM FEW060 SCT070 SCT100 11/06 A3004 RMK AO2 SLP173 T01110056=
201604121553 METAR KCLM 121553Z AUTO 00000KT 10SM FEW037 10/06 A3005 RMK AO2 RAB1459E28 SLP177 P0000 T01000056=
201604121453 METAR KCLM 121453Z AUTO 27003KT 8SM FEW055 SCT070 BKN095 09/07 A3005 RMK AO2 SLP177 T00890067 53006=
201604121353 METAR KCLM 121353Z AUTO 13003KT 7SM FEW065 SCT090 06/04 A3003 RMK AO2 SLP170 T00560039=
201604121253 METAR KCLM 121253Z AUTO 18003KT 9SM BKN070 07/06 A3003 RMK AO2 SLP171 T00720056=
201604121153 METAR KCLM 121153Z AUTO 17003KT 9SM SCT026 BKN090 OVC110 07/05 A3004 RMK AO2 SLP172 T00720050 10089 20067 53003=
201604121053 METAR KCLM 121053Z AUTO 15005KT 9SM CLR 07/04 A3002 RMK AO2 SLP167 T00670044=
201604121039 SPECI KCLM 121039Z AUTO 00000KT 10SM SCT028 07/05 A3003 RMK AO2 T00670050=
201604121030 SPECI KCLM 121030Z AUTO 00000KT 10SM BKN028 07/05 A3003 RMK AO2 T00720050=
201604120953 METAR KCLM 120953Z AUTO 22003KT 10SM BKN031 08/06 A3003 RMK AO2 SLP171 T00830056=
201604120853 METAR KCLM 120853Z AUTO 00000KT 10SM OVC030 08/06 A3003 RMK AO2 SLP169 T00830056 58004=
201604120833 SPECI KCLM 120833Z AUTO 00000KT 10SM OVC030 09/06 A3003 RMK AO2 T00890056=
201604120826 SPECI KCLM 120826Z AUTO 28003KT 10SM OVC028 08/06 A3003 RMK AO2 T00830056=
201604120804 SPECI KCLM 120804Z AUTO 00000KT 10SM FEW024 OVC030 08/06 A3003 RMK AO2 T00830056=
201604120753 METAR KCLM 120753Z AUTO 00000KT 10SM OVC029 09/06 A3003 RMK AO2 SLP171 T00890056 401110083=
201604120653 METAR KCLM 120653Z AUTO 27006KT 10SM OVC028 09/06 A3004 RMK AO2 SLP172 T00890061=
201604120553 METAR KCLM 120553Z AUTO 30005KT 10SM OVC027 09/06 A3004 RMK AO2 SLP173 T00890061 10100 20083 58006=
201604120453 METAR KCLM 120453Z AUTO 30003KT 10SM OVC027 09/06 A3005 RMK AO2 SLP176 T00890061=
201604120405 SPECI KCLM 120405Z AUTO 28004KT 8SM OVC029 09/06 A3005 RMK AO2 T00890061=
201604120353 METAR KCLM 120353Z AUTO 28004KT 7SM OVC030 09/06 A3005 RMK AO2 SLP178 T00890061=
201604120253 METAR KCLM 120253Z AUTO 26005KT 10SM FEW027 OVC042 09/06 A3006 RMK AO2 SLP180 T00890061 58015=
201604120245 SPECI KCLM 120245Z AUTO 26006KT 10SM FEW025 OVC042 09/06 A3006 RMK AO2 T00940061=
201604120210 SPECI KCLM 120210Z AUTO 27006KT 10SM BKN025 OVC041 09/06 A3007 RMK AO2 T00940056=
201604120153 METAR KCLM 120153Z AUTO 25005KT 10SM FEW025 BKN039 OVC046 09/06 A3007 RMK AO2 SLP185 T00940061=
201604120120 SPECI KCLM 120120Z AUTO 27008KT 10SM FEW020 OVC037 09/06 A3008 RMK AO2 T00940061=
201604120053 METAR KCLM 120053Z AUTO 29009KT 10SM BKN015 OVC022 09/06 A3009 RMK AO2 SLP191 T00940061=
201604120004 SPECI KCLM 120004Z AUTO 30006KT 9SM BKN013 BKN025 OVC035 10/07 A3010 RMK AO2 T01000067=
201604112353 METAR KCLM 112353Z AUTO 27005KT 8SM FEW011 SCT026 OVC035 10/07 A3010 RMK AO2 SLP195 T01000067 10111 20094 58009=
201604112342 SPECI KCLM 112342Z AUTO 27004KT 6SM HZ FEW010 SCT014 OVC036 10/07 A3011 RMK AO2 T01000072=
201604112324 SPECI KCLM 112324Z AUTO 29006KT 5SM HZ BKN012 BKN025 OVC037 09/07 A3011 RMK AO2 T00940067=
201604112253 METAR KCLM 112253Z AUTO 29008KT 10SM BKN018 OVC023 10/06 A3012 RMK AO2 SLP200 T01000061=
201604112217 SPECI KCLM 112217Z AUTO 30010KT 8SM FEW009 BKN018 OVC023 10/07 A3012 RMK AO2 T01000067=
201604112153 METAR KCLM 112153Z AUTO 30008KT 9SM SCT010 OVC018 10/07 A3013 RMK AO2 SLP202 T01000072=
201604112124 SPECI KCLM 112124Z AUTO 34006KT 10SM BKN012 BKN017 OVC026 10/07 A3013 RMK AO2 T01000072=
201604112053 METAR KCLM 112053Z AUTO 30005KT 10SM OVC027 11/07 A3013 RMK AO2 SLP204 T01060072 51004=
201604112006 SPECI KCLM 112006Z AUTO 00000KT 10SM BKN021 OVC055 11/07 A3013 RMK AO2 T01060067=
201604111953 METAR KCLM 111953Z AUTO 36007KT 10SM FEW024 OVC055 11/07 A3013 RMK AO2 SLP203 T01060067=
201604111853 METAR KCLM 111853Z AUTO 36006KT 10SM FEW019 SCT055 10/06 A3012 RMK AO2 SLP201 T01000061=
201604111753 METAR KCLM 111753Z AUTO VRB04KT 10SM CLR 11/07 A3012 RMK AO2 SLP200 T01110072 10111 20089 53006=
201604111653 METAR KCLM 111653Z AUTO 36004KT 10SM FEW019 11/06 A3011 RMK AO2 SLP197 T01060061=
201604111553 METAR KCLM 111553Z AUTO 14003KT 10SM OVC047 11/07 A3010 RMK AO2 SLP194 T01060067=
201604111453 METAR KCLM 111453Z AUTO 00000KT 10SM FEW023 OVC041 09/06 A3010 RMK AO2 SLP194 T00940061 53012=
201604111445 SPECI KCLM 111445Z AUTO 00000KT 9SM SCT022 OVC038 09/07 A3010 RMK AO2 T00890072=
201604111436 SPECI KCLM 111436Z AUTO 00000KT 10SM BKN022 OVC034 09/07 A3010 RMK AO2 T00890072=
201604111353 METAR KCLM 111353Z AUTO 00000KT 8SM OVC035 09/07 A3008 RMK AO2 SLP188 T00890067=
201604111340 SPECI KCLM 111340Z AUTO 00000KT 9SM SCT010 OVC037 09/07 A3008 RMK AO2 T00890072=
201604111305 SPECI KCLM 111305Z AUTO 00000KT 6SM BR BKN012 OVC035 09/07 A3008 RMK AO2 T00890067=
201604111253 METAR KCLM 111253Z AUTO 00000KT 6SM BR FEW011 OVC034 09/07 A3008 RMK AO2 SLP186 T00890067=
201604111153 METAR KCLM 111153Z AUTO 12003KT 10SM FEW011 OVC034 09/07 A3007 RMK AO2 SLP182 T00890067 10094 20089 53000=
201604111148 SPECI KCLM 111148Z AUTO 11003KT 10SM SCT011 OVC034 09/07 A3006 RMK AO2=
201604111122 SPECI KCLM 111122Z AUTO 00000KT 10SM BKN011 BKN016 OVC036 09/07 A3007 RMK AO2 T00890067=
201604111100 SPECI KCLM 111100Z AUTO 30003KT 10SM BKN015 OVC033 09/07 A3007 RMK AO2 T00890067=
201604111053 METAR KCLM 111053Z AUTO 29004KT 10SM SCT017 OVC035 09/07 A3007 RMK AO2 SLP182 T00890067=
201604110953 METAR KCLM 110953Z AUTO 00000KT 10SM BKN031 OVC038 09/07 A3006 RMK AO2 SLP180 T00890072=
201604110937 SPECI KCLM 110937Z AUTO 00000KT 9SM SCT014 SCT030 OVC038 09/07 A3005 RMK AO2 T00940067=
201604110913 SPECI KCLM 110913Z AUTO 00000KT 6SM BR BKN014 OVC025 09/07 A3005 RMK AO2 T00890072=
201604110853 METAR KCLM 110853Z AUTO 25003KT 9SM FEW014 OVC028 09/07 A3005 RMK AO2 SLP176 T00940072 53014=
201604110800 METAR KCLM NIL=
201604110757 SPECI KCLM 110757Z AUTO 24003KT 3SM BR SCT013 OVC023 09/07 A3003 RMK AO2 T00940072=
201604110755 SPECI KCLM 110755Z AUTO 25003KT 1 3/4SM BR BKN013 OVC023 09/07 A3003 RMK AO2 T00940072=
201604110748 METAR KCLM 110748Z AUTO 24003KT 2SM BR BKN013 BKN021 OVC028 09/07 A3003=
201604110747 SPECI KCLM 110747Z AUTO 24004KT 2 1/2SM BR BKN013 BKN021 OVC028 09/07 A3003 RMK AO2=
201604110710 SPECI KCLM 110710Z AUTO 26004KT 10SM FEW013 BKN026 OVC032 09/07 A3002 RMK AO2 T00940072=
201604110702 SPECI KCLM 110702Z AUTO 26005KT 9SM FEW013 SCT026 OVC032 09/07 A3002 RMK AO2 T00940072=
201604110653 METAR KCLM 110653Z AUTO 26005KT 9SM FEW013 BKN026 OVC032 09/07 A3002 RMK AO2 SLP165 T00940072=
201604110553 METAR KCLM 110553Z AUTO 29006KT 9SM BKN020 OVC026 09/07 A3001 RMK AO2 SLP161 T00940072 10128 20094 51010=
201604110453 METAR KCLM 110453Z AUTO 27006KT 10SM OVC024 10/07 A3000 RMK AO2 SLP160 T01000067=
201604110353 METAR KCLM 110353Z AUTO 29007KT 10SM OVC027 11/07 A2999 RMK AO2 SLP156 T01060067=
201604110253 METAR KCLM 110253Z AUTO 27008KT 10SM OVC028 11/07 A2998 RMK AO2 SLP151 T01110067 53008=
201604110231 SPECI KCLM 110231Z AUTO 29004KT 10SM OVC029 11/07 A2997 RMK AO2 T01110067=
201604110153 METAR KCLM 110153Z AUTO 31005KT 10SM OVC031 11/06 A2997 RMK AO2 SLP148 T01110061=
201604110053 METAR KCLM 110053Z AUTO 33007KT 10SM OVC031 12/06 A2996 RMK AO2 SLP145 T01170056=
201604110010 SPECI KCLM 110010Z AUTO 36004KT 10SM SCT026 OVC033 13/07 A2995 RMK AO2 T01280067=
201604102353 METAR KCLM 102353Z AUTO 00000KT 10SM BKN026 OVC034 13/06 A2995 RMK AO2 SLP143 T01280061 10128 20100 55000=
201604102253 METAR KCLM 102253Z AUTO 00000KT 10SM OVC026 12/06 A2995 RMK AO2 SLP142 T01220061=
201604102153 METAR KCLM 102153Z AUTO VRB03KT 10SM OVC023 12/07 A2995 RMK AO2 SLP142 T01170067=
201604102103 SPECI KCLM 102103Z AUTO 36004KT 10SM BKN025 OVC030 11/07 A2995 RMK AO2 T01110067=
201604102053 METAR KCLM 102053Z AUTO VRB04KT 10SM OVC030 11/07 A2995 RMK AO2 SLP143 T01110067 50004=
201604102039 SPECI KCLM 102039Z AUTO 01005KT 10SM FEW022 OVC030 12/07 A2995 RMK AO2 T01170072=
201604101953 METAR KCLM 101953Z AUTO 34003KT 10SM OVC025 11/07 A2995 RMK AO2 SLP143 T01060067=
201604101853 METAR KCLM 101853Z AUTO 04005KT 10SM OVC021 11/07 A2995 RMK AO2 SLP142 T01060067=
201604101753 METAR KCLM 101753Z AUTO 33004KT 9SM FEW013 OVC025 11/07 A2994 RMK AO2 SLP139 T01060067 10106 20083 53011=
201604101653 METAR KCLM 101653Z AUTO 27003KT 5SM HZ OVC020 10/07 A2993 RMK AO2 SLP135 T01000072=
201604101553 METAR KCLM 101553Z AUTO 00000KT 7SM OVC019 09/07 A2992 RMK AO2 SLP131 T00940072=
201604101453 METAR KCLM 101453Z AUTO 26004KT 7SM OVC021 09/07 A2991 RMK AO2 SLP128 T00890067 53008=
201604101417 SPECI KCLM 101417Z AUTO 00000KT 5SM BR OVC015 09/07 A2990 RMK AO2 T00890072=
201604101353 METAR KCLM 101353Z AUTO 00000KT 5SM BR OVC014 09/07 A2990 RMK AO2 SLP124 T00890067=
201604101253 METAR KCLM 101253Z AUTO 21003KT 9SM OVC014 09/07 A2989 RMK AO2 SLP121 T00890067=
201604101248 SPECI KCLM 101248Z AUTO 21003KT 9SM OVC014 09/07 A2988 RMK AO2=
201604101153 METAR KCLM 101153Z AUTO 22003KT 9SM OVC015 08/07 A2988 RMK AO2 SLP117 T00780067 10083 20056 51008=
201604101142 SPECI KCLM 101142Z AUTO 00000KT 9SM OVC015 08/07 A2987 RMK AO2 T00780067=
201604101053 METAR KCLM 101053Z AUTO 22004KT 8SM BKN013 06/05 A2987 RMK AO2 SLP116 T00610050=
201604101000 SPECI KCLM 101000Z AUTO 24005KT 8SM BKN013 06/04 A2986 RMK AO2 T00560044=
201604100953 METAR KCLM 100953Z AUTO 24004KT 8SM SCT013 06/04 A2986 RMK AO2 SLP112 T00560044=
201604100853 METAR KCLM 100853Z AUTO 24005KT 8SM CLR 07/06 A2985 RMK AO2 SLP109 T00670056 53007=
201604100753 METAR KCLM 100753Z AUTO 26006KT 7SM CLR 08/06 A2985 RMK AO2 SLP107 T00780061 401610056=
201604100653 METAR KCLM 100653Z AUTO 27006KT 5SM BR CLR 08/07 A2984 RMK AO2 SLP104 T00830067=
201604100553 METAR KCLM 100553Z AUTO 28006KT 5SM BR CLR 08/07 A2983 RMK AO2 SLP102 T00830067 10156 20083 53005=
201604100453 METAR KCLM 100453Z AUTO 28008KT 6SM BR CLR 09/07 A2983 RMK AO2 SLP101 T00890072=
201604100353 METAR KCLM 100353Z AUTO 29007KT 6SM HZ CLR 09/07 A2982 RMK AO2 SLP098 T00940067=
201604100253 METAR KCLM 100253Z AUTO 28006KT 6SM HZ CLR 09/07 A2982 RMK AO2 SLP098 T00940067 50000=
201604100153 METAR KCLM 100153Z AUTO 30005KT 7SM CLR 12/08 A2982 RMK AO2 SLP098 T01170078=
201604100053 METAR KCLM 100053Z AUTO VRB04KT 10SM CLR 13/07 A2982 RMK AO2 SLP098 T01330072=
201604092353 METAR KCLM 092353Z AUTO VRB03KT 10SM CLR 15/06 A2982 RMK AO2 SLP097 T01500061 10161 20111 56013=
201604092253 METAR KCLM 092253Z AUTO 10007KT 10SM CLR 15/06 A2982 RMK AO2 SLP100 T01500056=
201604092153 METAR KCLM 092153Z AUTO 10008KT 10SM CLR 15/06 A2985 RMK AO2 SLP107 T01500061=
201604092053 METAR KCLM 092053Z AUTO VRB06KT 10SM CLR 15/06 A2986 RMK AO2 SLP110 T01500056 58007=
201604091953 METAR KCLM 091953Z AUTO 07005KT 10SM CLR 14/06 A2987 RMK AO2 SLP117 T01390061=
201604091853 METAR KCLM 091853Z AUTO 07007KT 030V100 10SM CLR 13/06 A2987 RMK AO2 SLP116 T01330061=
201604091753 METAR KCLM 091753Z AUTO 00000KT 10SM FEW001 11/07 A2988 RMK AO2 SLP118 T01110067 10111 20056 51003=
201604091740 SPECI KCLM 091740Z AUTO 00000KT 3SM BR FEW001 09/07 A2988 RMK AO2 T00940072=
201604091731 SPECI KCLM 091731Z AUTO 01004KT 1 3/4SM BR FEW001 09/07 A2988 RMK AO2 T00890067=
201604091653 METAR KCLM 091653Z AUTO VRB03KT 7SM SCT002 10/07 A2988 RMK AO2 SLP117 T01000072=
201604091636 SPECI KCLM 091636Z AUTO 08004KT 3SM BR OVC002 08/07 A2987 RMK AO2 T00780067=
201604091632 SPECI KCLM 091632Z AUTO 07004KT 1SM BR OVC002 08/07 A2987 RMK AO2 T00780067=
201604091621 SPECI KCLM 091621Z AUTO 00000KT 1/4SM FG OVC003 07/07 A2988 RMK AO2 T00720067=
201604091615 SPECI KCLM 091615Z AUTO 08003KT 1 1/2SM BR OVC003 07/07 A2988 RMK AO2 T00720067=
201604091601 SPECI KCLM 091601Z AUTO 02003KT 5SM BR BKN003 08/06 A2988 RMK AO2 T00780061=
201604091553 METAR KCLM 091553Z AUTO VRB03KT 9SM SCT003 08/07 A2988 RMK AO2 SLP118 T00780067=
201604091545 SPECI KCLM 091545Z AUTO 00000KT 10SM SCT003 08/07 A2988 RMK AO2 T00780067=
201604091527 SPECI KCLM 091527Z AUTO 00000KT 4SM BR BKN001 07/07 A2987 RMK AO2 T00670067=
201604091524 SPECI KCLM 091524Z AUTO 00000KT 1SM BR BKN001 07/06 A2987 RMK AO2 T00670061=
201604091514 SPECI KCLM 091514Z AUTO 26003KT 1/4SM FG VV001 07/06 A2987 RMK AO2 T00670056=
201604091453 METAR KCLM 091453Z AUTO 23005KT M1/4SM FG VV002 06/05 A2987 RMK AO2 SLP115 T00610050 53004=
201604091419 SPECI KCLM 091419Z AUTO 23003KT M1/4SM FG VV002 06/05 A2986 RMK AO2 T00560050=
201604091353 METAR KCLM 091353Z AUTO 26004KT M1/4SM FG VV001 06/06 A2985 RMK AO2 SLP110 T00610056=
201604091253 METAR KCLM 091253Z AUTO 00000KT M1/4SM FG VV001 07/06 A2987 RMK AO2 SLP115 T00720061=
201604091222 SPECI KCLM 091222Z AUTO 00000KT M1/4SM FG VV001 07/06 A2986 RMK AO2 T00670061=
201604091153 METAR KCLM 091153Z AUTO 00000KT 1/4SM FG VV002 07/07 A2986 RMK AO2 SLP111 T00720067 10094 20072 58004=
201604091134 SPECI KCLM 091134Z AUTO 24003KT 1/4SM FG OVC002 07/07 A2986 RMK AO2 T00720067=
201604091105 SPECI KCLM 091105Z AUTO 24005KT 1 3/4SM BR OVC003 08/07 A2986 RMK AO2 VIS 1V4 T00780067=
201604091053 METAR KCLM 091053Z AUTO 27004KT 5SM BR OVC003 08/07 A2986 RMK AO2 SLP112 T00780067=
201604091013 SPECI KCLM 091013Z AUTO 26006KT 5SM BR OVC004 08/07 A2986 RMK AO2 T00830072=
201604090953 METAR KCLM 090953Z AUTO 27005KT 5SM BR OVC005 08/07 A2986 RMK AO2 SLP113 T00830067=
201604090913 SPECI KCLM 090913Z AUTO 27004KT 7SM BKN006 08/06 A2986 RMK AO2 T00780061=
201604090904 SPECI KCLM 090904Z AUTO 28006KT 7SM SCT006 08/06 A2987 RMK AO2 T00780061=
201604090853 METAR KCLM 090853Z AUTO 29005KT 7SM CLR 08/06 A2987 RMK AO2 SLP114 T00780061 56004=
201604090753 METAR KCLM 090753Z AUTO 31005KT 9SM CLR 08/06 A2987 RMK AO2 SLP115 T00830061 401560078=
201604090653 METAR KCLM 090653Z AUTO 29007KT 9SM CLR 08/06 A2987 RMK AO2 SLP116 T00830061=
201604090553 METAR KCLM 090553Z AUTO 29008KT 10SM CLR 09/07 A2988 RMK AO2 SLP119 T00940067 10139 20089 50005=
201604090453 METAR KCLM 090453Z AUTO 30004KT 9SM CLR 09/07 A2989 RMK AO2 SLP122 T00940067=
201604090353 METAR KCLM 090353Z AUTO 31004KT 8SM CLR 10/07 A2988 RMK AO2 SLP121 T01000072=
201604090253 METAR KCLM 090253Z AUTO 28011G16KT 8SM CLR 11/07 A2987 RMK AO2 SLP114 T01060072 56005=
201604090153 METAR KCLM 090153Z AUTO 29009G15KT 270V330 8SM CLR 12/08 A2987 RMK AO2 SLP115 T01220083=
201604090053 METAR KCLM 090053Z AUTO 31014G22KT 8SM CLR 13/08 A2987 RMK AO2 SLP116 T01280083=
201604082353 METAR KCLM 082353Z AUTO 29011KT 8SM CLR 14/09 A2988 RMK AO2 SLP119 T01390089 10156 20122 56014=
201604082253 METAR KCLM 082253Z AUTO 31010KT 8SM CLR 14/09 A2989 RMK AO2 SLP122 T01390089=
201604082153 METAR KCLM 082153Z AUTO 30006KT 8SM CLR 15/09 A2991 RMK AO2 SLP128 T01500094=
201604082053 METAR KCLM 082053Z AUTO 31010KT 8SM CLR 14/09 A2992 RMK AO2 SLP133 T01390094 57005=
201604081953 METAR KCLM 081953Z AUTO 30009G17KT 8SM CLR 13/09 A2993 RMK AO2 SLP136 T01330094=
201604081907 SPECI KCLM 081907Z AUTO 31012KT 7SM FEW009 13/09 A2993 RMK AO2 T01280094=
201604081853 METAR KCLM 081853Z AUTO 32008KT 7SM CLR 13/09 A2993 RMK AO2 SLP136 T01280094=
201604081801 SPECI KCLM 081801Z AUTO 29010KT 5SM HZ FEW007 13/09 A2994 RMK AO2 T01280094=
201604081753 METAR KCLM 081753Z AUTO 31007KT 1 1/4SM HZ FEW007 13/09 A2994 RMK AO2 SLP139 T01280094 10128 20083 53002=
201604081735 SPECI KCLM 081735Z AUTO 30007KT 8SM SCT005 12/09 A2994 RMK AO2 T01220094=
201604081723 SPECI KCLM 081723Z AUTO 31007KT 8SM BKN005 11/09 A2994 RMK AO2 T01110094=
201604081653 METAR KCLM 081653Z AUTO 30008KT 6SM BR OVC004 10/09 A2993 RMK AO2 SLP137 T01000089=
201604081633 SPECI KCLM 081633Z AUTO 29008KT 4SM BR OVC002 10/09 A2994 RMK AO2 T01000089=
201604081618 SPECI KCLM 081618Z AUTO 31007KT 2SM BR OVC002 10/09 A2994 RMK AO2 T01000089=
201604081611 SPECI KCLM 081611Z AUTO 31005KT 2SM BR OVC001 10/09 A2994 RMK AO2 T01000094=
201604081553 METAR KCLM 081553Z AUTO 29006KT 1/2SM FG OVC001 10/09 A2994 RMK AO2 SLP138 T01000089=
201604081546 SPECI KCLM 081546Z AUTO 31006KT 1/4SM FG OVC001 10/09 A2994 RMK AO2 T01000089=
201604081535 SPECI KCLM 081535Z AUTO 30004KT 1/4SM FG OVC002 09/09 A2994 RMK AO2 T00940089=
201604081519 SPECI KCLM 081519Z AUTO 30005KT 1/2SM FG OVC001 09/09 A2994 RMK AO2 T00940089=
201604081505 SPECI KCLM 081505Z AUTO 28003KT 1/4SM FG OVC001 09/08 A2994 RMK AO2 T00940083=
201604081453 METAR KCLM 081453Z AUTO 29006KT 1/4SM FG OVC002 09/08 A2993 RMK AO2 SLP137 T00890083 53005=
201604081446 SPECI KCLM 081446Z AUTO 28006KT 1/4SM FG OVC002 09/08 A2993 RMK AO2 T00890083=
201604081435 SPECI KCLM 081435Z AUTO 29005KT 1 3/4SM BR OVC002 09/08 A2993 RMK AO2 T00890078=
201604081430 SPECI KCLM 081430Z AUTO 29005KT 3SM BR OVC002 09/08 A2993 RMK AO2 T00890078=
201604081426 SPECI KCLM 081426Z AUTO 30006KT 1SM BR BKN002 09/08 A2993 RMK AO2 T00890078=
201604081413 SPECI KCLM 081413Z AUTO 29005KT 1/4SM FG VV002 09/08 A2993 RMK AO2 T00890083=
201604081408 SPECI KCLM 081408Z AUTO 31006KT 1SM BR VV002 09/08 A2993 RMK AO2 T00890078=
201604081406 SPECI KCLM 081406Z AUTO 32005KT 2 1/2SM BR SCT002 09/08 A2993 RMK AO2 T00890078=
201604081353 METAR KCLM 081353Z AUTO 31004KT 4SM BR CLR 09/08 A2992 RMK AO2 SLP133 T00890078=
201604081253 METAR KCLM 081253Z AUTO 28006KT 10SM CLR 11/08 A2992 RMK AO2 SLP131 T01060078=
201604081153 METAR KCLM 081153Z AUTO 24003KT 10SM CLR 09/07 A2992 RMK AO2 SLP131 T00940072 10117 20078 55002=
201604081053 METAR KCLM 081053Z AUTO 31003KT 9SM CLR 09/07 A2991 RMK AO2 SLP128 T00890067=
201604080953 METAR KCLM 080953Z AUTO 00000KT 10SM CLR 09/07 A2991 RMK AO2 SLP129 T00890067=
201604080853 METAR KCLM 080853Z AUTO 22004KT 10SM CLR 10/07 A2992 RMK AO2 SLP134 T01000072 51001=
201604080753 METAR KCLM 080753Z AUTO 00000KT 10SM CLR 09/07 A2992 RMK AO2 SLP133 T00940072 401830083=
201604080653 METAR KCLM 080653Z AUTO 00000KT 10SM CLR 09/07 A2993 RMK AO2 SLP136 T00890072=
201604080553 METAR KCLM 080553Z AUTO 18003KT 10SM CLR 12/09 A2992 RMK AO2 SLP132 60000 T01170089 10183 20100 53007=
201604080453 METAR KCLM 080453Z AUTO 00000KT 9SM CLR 11/09 A2991 RMK AO2 SLP129 T01060089=
201604080353 METAR KCLM 080353Z AUTO 17003KT 9SM CLR 13/09 A2990 RMK AO2 SLP127 T01330094=
201604080253 METAR KCLM 080253Z AUTO 25004KT 10SM CLR 16/09 A2990 RMK AO2 SLP124 60000 T01560094 56011=
201604080153 METAR KCLM 080153Z AUTO 00000KT 10SM CLR 18/08 A2991 RMK AO2 SLP127 T01780083=
201604080053 METAR KCLM 080053Z AUTO 06003KT 10SM CLR 18/08 A2992 RMK AO2 RAB09E19 SLP130 P0000 T01780078=
201604072353 METAR KCLM 072353Z AUTO 02003KT 10SM CLR 18/08 A2993 RMK AO2 SLP134 T01780078 10178 20122 58020=
201604072253 METAR KCLM 072253Z AUTO 09005KT 10SM CLR 17/08 A2995 RMK AO2 SLP142 T01670078=
201604072153 METAR KCLM 072153Z AUTO 02004KT 10SM CLR 16/08 A2997 RMK AO2 SLP149 T01560083=
201604072053 METAR KCLM 072053Z AUTO 08006KT 10SM CLR 14/08 A2999 RMK AO2 SLP155 T01440078 58021=
201604071953 METAR KCLM 071953Z AUTO 10007KT 10SM CLR 13/08 A3001 RMK AO2 SLP163 T01330078=
201604071853 METAR KCLM 071853Z AUTO 09009KT 10SM CLR 13/08 A3003 RMK AO2 SLP171 T01280078=
201604071753 METAR KCLM 071753Z AUTO 09008KT 10SM CLR 13/08 A3005 RMK AO2 SLP177 T01280083 10128 20083 56017=
201604071653 METAR KCLM 071653Z AUTO 11008KT 10SM FEW020 12/08 A3007 RMK AO2 SLP182 T01220083=
201604071553 METAR KCLM 071553Z AUTO 12008KT 10SM CLR 11/08 A3008 RMK AO2 SLP187 T01110083=
201604071453 METAR KCLM 071453Z AUTO 14007KT 10SM CLR 09/07 A3010 RMK AO2 SLP194 T00940072 56016=
201604071353 METAR KCLM 071353Z AUTO 13007KT 10SM CLR 09/07 A3011 RMK AO2 SLP198 T00890067=
201604071253 METAR KCLM 071253Z AUTO 13007KT 10SM CLR 09/07 A3013 RMK AO2 SLP205 T00940072=
201604071153 METAR KCLM 071153Z AUTO 14008KT 10SM CLR 09/07 A3015 RMK AO2 SLP209 T00890067 10106 20072 56027=
201604071053 METAR KCLM 071053Z AUTO 13007KT 10SM CLR 09/07 A3017 RMK AO2 SLP218 T00940067=
201604070953 METAR KCLM 070953Z AUTO 12008KT 10SM CLR 09/06 A3019 RMK AO2 SLP225 T00940061=
201604070853 METAR KCLM 070853Z AUTO 14008KT 10SM CLR 11/06 A3023 RMK AO2 SLP237 T01060061 57012=
201604070753 METAR KCLM 070753Z AUTO 14004KT 10SM CLR 09/06 A3024 RMK AO2 SLP241 T00890056 401560050=
201604070653 METAR KCLM 070653Z AUTO 14004KT 9SM CLR 07/06 A3025 RMK AO2 SLP245 T00720056=
201604070553 METAR KCLM 070553Z AUTO 12003KT 10SM CLR 08/06 A3026 RMK AO2 SLP249 T00780056 10156 20072 58013=
201604070453 METAR KCLM 070453Z AUTO 16003KT 10SM CLR 08/06 A3029 RMK AO2 SLP258 T00780056=
201604070353 METAR KCLM 070353Z AUTO 15003KT 10SM CLR 10/06 A3030 RMK AO2 SLP261 T01000061=
201604070253 METAR KCLM 070253Z AUTO 11004KT 10SM CLR 12/06 A3030 RMK AO2 SLP262 T01220056 56015=
201604070153 METAR KCLM 070153Z AUTO 11007KT 10SM CLR 13/06 A3032 RMK AO2 SLP267 T01330056=
201604070053 METAR KCLM 070053Z AUTO 08007KT 10SM CLR 15/04 A3033 RMK AO2 SLP271 T01500044=
201604062353 METAR KCLM 062353Z AUTO 08004KT 10SM CLR 16/06 A3035 RMK AO2 SLP277 T01560061 10156 20117 56023=
201604062253 METAR KCLM 062253Z AUTO VRB04KT 10SM CLR 15/06 A3036 RMK AO2 SLP283 T01500061=
201604062153 METAR KCLM 062153Z AUTO 02005KT 10SM CLR 14/07 A3038 RMK AO2 SLP290 T01440067=
201604062053 METAR KCLM 062053Z AUTO VRB03KT 9SM CLR 14/07 A3041 RMK AO2 SLP300 T01390072 58012=
201604061953 METAR KCLM 061953Z AUTO VRB04KT 10SM CLR 13/06 A3043 RMK AO2 SLP307 T01280061=
201604061853 METAR KCLM 061853Z AUTO 36004KT 10SM CLR 13/06 A3045 RMK AO2 SLP311 T01280061=
201604061753 METAR KCLM 061753Z AUTO 01004KT 10SM CLR 12/06 A3045 RMK AO2 SLP313 T01170061 10133 20050 51002=
201604061653 METAR KCLM 061653Z AUTO 10006KT 10SM CLR 12/06 A3044 RMK AO2 SLP310 T01220056=
201604061553 METAR KCLM 061553Z AUTO 23005KT 10SM OVC040 09/03 A3046 RMK AO2 SLP314 T00940033=
201604061453 METAR KCLM 061453Z AUTO 23003KT 10SM OVC039 08/03 A3044 RMK AO2 SLP311 T00780028 53004=
201604061353 METAR KCLM 061353Z AUTO 23005KT 10SM OVC041 07/03 A3042 RMK AO2 SLP303 T00720028=
201604061253 METAR KCLM 061253Z AUTO 00000KT 10SM BKN043 06/03 A3041 RMK AO2 SLP300 T00560028=
201604061153 METAR KCLM 061153Z AUTO VRB03KT 10SM CLR 06/02 A3043 RMK AO2 SLP306 70002 T00560022 10094 20050 58009=
201604061053 METAR KCLM 061053Z AUTO 23005KT 10SM CLR 06/03 A3045 RMK AO2 SLP312 T00560028=
201604060953 METAR KCLM 060953Z AUTO 00000KT 10SM CLR 06/03 A3046 RMK AO2 SLP315 T00560028=
201604060853 METAR KCLM 060853Z AUTO 21004KT 10SM CLR 07/03 A3046 RMK AO2 SLP316 T00720033 55005=
201604060753 METAR KCLM 060753Z AUTO 23004KT 10SM OVC080 09/04 A3046 RMK AO2 SLP314 T00890039 401330056=
201604060653 METAR KCLM 060653Z AUTO 25007KT 10SM OVC080 09/04 A3048 RMK AO2 SLP322 T00890044=
201604060553 METAR KCLM 060553Z AUTO 28004KT 10SM OVC080 09/04 A3048 RMK AO2 SLP322 T00890044 10133 20061 53006=
201604060453 METAR KCLM 060453Z AUTO 23006KT 10SM BKN085 07/05 A3046 RMK AO2 SLP316 T00720050=
201604060353 METAR KCLM 060353Z AUTO 23003KT 10SM CLR 07/05 A3047 RMK AO2 SLP318 T00720050=
201604060253 METAR KCLM 060253Z AUTO 00000KT 10SM SCT110 09/06 A3046 RMK AO2 SLP315 T00940061 58003=
201604060153 METAR KCLM 060153Z AUTO 34003KT 10SM CLR 11/06 A3048 RMK AO2 SLP321 T01060056=
201604060053 METAR KCLM 060053Z AUTO 09005KT 10SM CLR 12/05 A3046 RMK AO2 SLP317 T01170050=
201604052353 METAR KCLM 052353Z AUTO 13008KT 10SM CLR 13/04 A3047 RMK AO2 SLP318 T01280044 10128 20094 58027=
201604052253 METAR KCLM 052253Z AUTO 12003KT 10SM FEW042 11/05 A3051 RMK AO2 SLP332 T01110050=
201604052153 METAR KCLM 052153Z AUTO 08005KT 10SM FEW055 11/04 A3051 RMK AO2 SLP333 T01060044=
201604052053 METAR KCLM 052053Z AUTO 04003KT 10SM BKN060 10/04 A3055 RMK AO2 SLP345 T01000044 51008=
201604051953 METAR KCLM 051953Z AUTO 00000KT 10SM OVC075 11/04 A3054 RMK AO2 SLP343 T01060044=
201604051853 METAR KCLM 051853Z AUTO 10004KT 10SM OVC050 09/06 A3053 RMK AO2 SLP339 T00940061=
201604051753 METAR KCLM 051753Z AUTO 07004KT 10SM BKN060 BKN070 11/05 A3052 RMK AO2 RAB1656E13 SLP337 P0000 60002 T01060050 10106 20056 51016=
201604051653 METAR KCLM 051653Z AUTO 08003KT 10SM OVC055 09/06 A3052 RMK AO2 SLP335 T00940056=
201604051553 METAR KCLM 051553Z AUTO 00000KT 10SM OVC070 09/06 A3050 RMK AO2 SLP330 T00890056=
201604051453 METAR KCLM 051453Z AUTO 15003KT 10SM OVC070 08/06 A3047 RMK AO2 SLP320 60002 T00780056 55002=
201604051353 METAR KCLM 051353Z AUTO 16003KT 9SM OVC070 06/05 A3046 RMK AO2 RAE02 SLP317 P0000 T00610050=
201604051253 METAR KCLM 051253Z AUTO 16004KT 8SM -RA BKN047 OVC095 06/04 A3048 RMK AO2 SLP322 P0002 T00610044=
201604051153 METAR KCLM 051153Z AUTO 25003KT 7SM -RA OVC045 06/04 A3048 RMK AO2 SLP323 P0002 60002 70002 T00610044 10078 20056 53013=
201604051053 METAR KCLM 051053Z AUTO 16004KT 7SM -RA OVC046 06/03 A3045 RMK AO2 RAB31 SLP311 P0000 T00610033=
201604050953 METAR KCLM 050953Z AUTO 00000KT 10SM FEW060 OVC100 07/02 A3045 RMK AO2 SLP311 T00670017=
201604050853 METAR KCLM 050853Z AUTO 23004KT 10SM CLR 07/02 A3044 RMK AO2 SLP310 T00670017 51017=
201604050753 METAR KCLM 050753Z AUTO 26011KT 10SM CLR 07/02 A3042 RMK AO2 SLP303 T00720017 401330061=
201604050653 METAR KCLM 050653Z AUTO 26009KT 10SM CLR 07/02 A3042 RMK AO2 SLP302 T00720022=
201604050553 METAR KCLM 050553Z AUTO 27009KT 10SM CLR 07/02 A3039 RMK AO2 SLP292 T00720022 10122 20072 51018=
201604050453 METAR KCLM 050453Z AUTO 25008KT 10SM CLR 08/02 A3038 RMK AO2 SLP289 T00780022=
201604050353 METAR KCLM 050353Z AUTO 24009KT 10SM CLR 08/02 A3037 RMK AO2 SLP285 T00780022=
201604050253 METAR KCLM 050253Z AUTO 25007KT 10SM CLR 08/02 A3034 RMK AO2 SLP274 T00830017 53014=
201604050153 METAR KCLM 050153Z AUTO 28015G19KT 10SM CLR 10/03 A3032 RMK AO2 SLP269 T01000028=
201604050053 METAR KCLM 050053Z AUTO 30013G19KT 10SM FEW047 BKN065 12/03 A3031 RMK AO2 SLP263 T01170028=
201604042353 METAR KCLM 042353Z AUTO 31012KT 10SM FEW050 SCT065 BKN075 11/04 A3030 RMK AO2 SLP260 T01110044 10133 20106 51022=
201604042253 METAR KCLM 042253Z AUTO 29014G24KT 10SM BKN055 BKN070 12/04 A3028 RMK AO2 PK WND 30027/2240 SLP253 T01170039=
201604042153 METAR KCLM 042153Z AUTO 31011G19KT 10SM SCT048 OVC060 11/06 A3025 RMK AO2 SLP246 T01110056=
201604042053 METAR KCLM 042053Z AUTO 30015G23KT 10SM FEW048 OVC060 12/03 A3023 RMK AO2 SLP237 T01220033 51020=
201604041953 METAR KCLM 041953Z AUTO 30008G19KT 9SM BKN046 BKN060 11/05 A3022 RMK AO2 SLP233 T01060050=
201604041853 METAR KCLM 041853Z AUTO 29015G20KT 10SM SCT043 BKN050 11/03 A3020 RMK AO2 SLP227 T01110033=
201604041753 METAR KCLM 041753Z AUTO 31011G18KT 10SM BKN047 OVC060 11/04 A3017 RMK AO2 SLP218 60000 T01110039 10122 20072 53026=
201604041653 METAR KCLM 041653Z AUTO 30012KT 10SM CLR 11/04 A3013 RMK AO2 SLP203 T01110044=
201604041553 METAR KCLM 041553Z AUTO 30012KT 10SM FEW065 10/05 A3012 RMK AO2 SLP199 T01000050=
201604041453 METAR KCLM 041453Z AUTO 26008KT 10SM FEW070 08/04 A3009 RMK AO2 SLP191 60000 T00830039 53020=
201604041353 METAR KCLM 041353Z AUTO 26009G17KT 10SM FEW034 07/05 A3006 RMK AO2 SLP181 T00720050=
201604041253 METAR KCLM 041253Z AUTO 30012G16KT 10SM FEW038 FEW095 08/06 A3004 RMK AO2 RAE04 SLP174 P0000 T00830061=
201604041153 METAR KCLM 041153Z AUTO 29007KT 9SM -RA OVC045 09/07 A3003 RMK AO2 RAB19 SLP170 P0006 60014 70014 T00890072 10111 20089 53022=
201604041053 METAR KCLM 041053Z AUTO 29007KT 10SM SCT043 SCT060 09/08 A3000 RMK AO2 RAE08B25E48 SLP160 P0002 T00940078=
201604040953 METAR KCLM 040953Z AUTO 28005KT 6SM -RA BR FEW012 BKN050 BKN070 10/09 A2998 RMK AO2 RAB01E36B48 SLP153 P0002 T01000089=
201604040940 SPECI KCLM 040940Z AUTO 30005KT 10SM FEW010 BKN060 BKN070 10/08 A2998 RMK AO2 RAB01E36 P0002 T01000083=
201604040933 SPECI KCLM 040933Z AUTO 30004KT 9SM -RA FEW009 BKN012 BKN055 10/09 A2998 RMK AO2 RAB01 P0002 T01000089=
201604040923 SPECI KCLM 040923Z AUTO 29004KT 5SM -RA BR SCT009 OVC055 10/09 A2998 RMK AO2 RAB01 P0002 T01000089=
201604040907 SPECI KCLM 040907Z AUTO 29008KT 4SM -RA BR BKN009 OVC060 10/09 A2997 RMK AO2 RAB01 P0000 T01000089=
201604040853 METAR KCLM 040853Z AUTO 20003KT 7SM FEW009 BKN060 BKN110 10/08 A2997 RMK AO2 RAE30 SLP148 P0002 60004 T01000083 53020=
201604040846 SPECI KCLM 040846Z AUTO 23003KT 7SM FEW009 SCT060 BKN070 10/09 A2996 RMK AO2 RAE30 P0002 T01000089=
201604040753 METAR KCLM 040753Z AUTO 32008KT 5SM -RA BR BKN060 10/08 A2994 RMK AO2 RAE0657B48 SLP139 P0002 T01000083 401560050=
201604040653 METAR KCLM 040653Z AUTO 00000KT 7SM -RA BKN070 BKN085 OVC120 11/09 A2991 RMK AO2 RAB17 SLP129 P0000 T01060094=
201604040553 METAR KCLM 040553Z AUTO 00000KT 7SM OVC095 10/08 A2991 RMK AO2 RAE0454 SLP128 P0000 60000 T01000083 10156 20100 50004=
201604040453 METAR KCLM 040453Z AUTO 33004KT 9SM -RA SCT080 OVC100 10/08 A2991 RMK AO2 RAB29 SLP129 P0000 T01000078=
201604040353 METAR KCLM 040353Z AUTO 00000KT 8SM BKN090 OVC110 10/08 A2990 RMK AO2 RAE15 SLP127 P0000 T01000083=
201604040253 METAR KCLM 040253Z AUTO 00000KT 7SM -RA FEW060 BKN075 OVC090 11/08 A2989 RMK AO2 RAB33 SLP124 P0000 60000 T01060083 56011=
201604040153 METAR KCLM 040153Z AUTO 31005KT 10SM OVC075 13/07 A2990 RMK AO2 SLP126 T01330067=
201604040053 METAR KCLM 040053Z AUTO 27005KT 9SM CLR 16/08 A2991 RMK AO2 SLP129 T01560078=
201604032353 METAR KCLM 032353Z AUTO 28003KT 10SM CLR 14/08 A2993 RMK AO2 SLP135 T01390078 10139 20106 56024=
201604032253 METAR KCLM 032253Z AUTO VRB04KT 10SM CLR 13/07 A2995 RMK AO2 SLP142 T01330072=
201604032153 METAR KCLM 032153Z AUTO VRB03KT 9SM CLR 13/08 A2997 RMK AO2 SLP151 T01330078=
201604032053 METAR KCLM 032053Z AUTO VRB04KT 8SM CLR 12/07 A3000 RMK AO2 SLP159 T01170072 56016=
201604031953 METAR KCLM 031953Z AUTO 03005KT 6SM HZ CLR 11/08 A3001 RMK AO2 SLP163 T01060078=
201604031908 SPECI KCLM 031908Z AUTO 09006KT 8SM FEW009 12/08 A3002 RMK AO2 T01170083=
201604031853 METAR KCLM 031853Z AUTO VRB05KT 8SM FEW010 12/08 A3003 RMK AO2 SLP169 T01170078=
201604031753 METAR KCLM 031753Z AUTO 08005KT 8SM FEW090 11/07 A3004 RMK AO2 SLP174 T01110072 10117 20050 56007=
201604031653 METAR KCLM 031653Z AUTO 09006KT 10SM FEW090 11/06 A3005 RMK AO2 SLP175 T01060061=
201604031553 METAR KCLM 031553Z AUTO 12005KT 9SM CLR 11/06 A3006 RMK AO2 SLP178 T01060061=
201604031453 METAR KCLM 031453Z AUTO 13005KT 7SM OVC090 08/07 A3006 RMK AO2 SLP181 T00830067 57009=
201604031353 METAR KCLM 031353Z AUTO 00000KT 7SM OVC090 07/06 A3007 RMK AO2 SLP185 T00670056=
201604031253 METAR KCLM 031253Z AUTO 16003KT 8SM OVC085 06/05 A3008 RMK AO2 SLP186 T00610050=
201604031153 METAR KCLM 031153Z AUTO 24004KT 7SM SCT085 06/04 A3009 RMK AO2 SLP190 T00560039 10089 20050 58009=
201604031053 METAR KCLM 031053Z AUTO 00000KT 8SM BKN090 06/04 A3010 RMK AO2 SLP193 T00560039=
201604030953 METAR KCLM 030953Z AUTO 22004KT 9SM CLR 06/04 A3011 RMK AO2 SLP197 T00610044=
201604030853 METAR KCLM 030853Z AUTO 23004KT 10SM SCT090 07/04 A3012 RMK AO2 SLP200 T00720044 58004=
201604030753 METAR KCLM 030753Z AUTO 24005KT 10SM OVC090 08/05 A3013 RMK AO2 SLP204 T00830050 401220072=
201604030653 METAR KCLM 030653Z AUTO 26003KT 10SM OVC095 08/05 A3013 RMK AO2 SLP203 T00830050=
201604030553 METAR KCLM 030553Z AUTO 22003KT 10SM OVC095 08/05 A3013 RMK AO2 SLP203 T00830050 10122 20083 50005=
201604030453 METAR KCLM 030453Z AUTO 25004KT 10SM OVC095 08/05 A3013 RMK AO2 SLP205 T00830050=
201604030353 METAR KCLM 030353Z AUTO 28006KT 10SM FEW095 08/04 A3013 RMK AO2 SLP202 T00830044=
201604030253 METAR KCLM 030253Z AUTO 28008KT 10SM CLR 09/04 A3011 RMK AO2 SLP198 T00890044 56005=
201604030153 METAR KCLM 030153Z AUTO 31006KT 9SM CLR 11/05 A3012 RMK AO2 SLP199 T01060050=
201604030053 METAR KCLM 030053Z AUTO 31010G18KT 9SM CLR 11/04 A3012 RMK AO2 SLP202 T01110044=
201604022353 METAR KCLM 022353Z AUTO 30012G17KT 9SM CLR 12/05 A3013 RMK AO2 SLP204 T01170050 10122 20100 56011=
201604022253 METAR KCLM 022253Z AUTO 30013KT 10SM CLR 12/05 A3014 RMK AO2 SLP207 T01170050=
201604022153 METAR KCLM 022153Z AUTO 31011G20KT 9SM CLR 12/05 A3015 RMK AO2 SLP211 T01170050=
201604022053 METAR KCLM 022053Z AUTO 30011G18KT 10SM CLR 12/05 A3016 RMK AO2 SLP215 T01170050 58004=
201604022030 SPECI KCLM 022030Z AUTO 31011G18KT 9SM SCT024 12/06 A3017 RMK AO2 T01170056=
201604021953 METAR KCLM 021953Z AUTO 33010G17KT 10SM OVC022 11/05 A3017 RMK AO2 SLP218 T01110050=
201604021853 METAR KCLM 021853Z AUTO 33007G17KT 9SM OVC021 11/06 A3018 RMK AO2 SLP221 T01110061=
201604021753 METAR KCLM 021753Z AUTO 33010G16KT 9SM OVC019 11/06 A3018 RMK AO2 SLP219 T01060056 10106 20072 51007=
201604021706 SPECI KCLM 021706Z AUTO 30008G17KT 9SM BKN019 10/06 A3017 RMK AO2 T01000056=
201604021653 METAR KCLM 021653Z AUTO 30009KT 9SM SCT019 11/06 A3017 RMK AO2 SLP217 T01060056=
201604021553 METAR KCLM 021553Z AUTO 28011KT 10SM CLR 09/05 A3017 RMK AO2 SLP217 T00940050=
201604021453 METAR KCLM 021453Z AUTO 24007KT 9SM CLR 08/05 A3016 RMK AO2 SLP213 T00780050 51004=
201604021353 METAR KCLM 021353Z AUTO 27011KT 9SM CLR 07/04 A3015 RMK AO2 SLP212 T00720044=
201604021253 METAR KCLM 021253Z AUTO 28013KT 10SM CLR 07/04 A3015 RMK AO2 SLP209 T00720044=
201604021153 METAR KCLM 021153Z AUTO 27009KT 10SM CLR 07/04 A3014 RMK AO2 SLP209 T00720044 10083 20072 50000=
201604021053 METAR KCLM 021053Z AUTO 29010KT 9SM CLR 07/05 A3015 RMK AO2 SLP210 T00720050=
201604020953 METAR KCLM 020953Z AUTO 30011KT 10SM CLR 07/05 A3014 RMK AO2 SLP208 T00720050=
201604020853 METAR KCLM 020853Z AUTO 29012KT 10SM CLR 07/05 A3014 RMK AO2 SLP208 T00720050 50000=
201604020753 METAR KCLM 020753Z AUTO 30012G20KT 9SM CLR 08/06 A3015 RMK AO2 SLP210 T00780056 401560072=
201604020653 METAR KCLM 020653Z AUTO 29010KT 9SM CLR 08/06 A3015 RMK AO2 SLP209 T00780061=
201604020553 METAR KCLM 020553Z AUTO 30011KT 8SM FEW007 08/07 A3014 RMK AO2 SLP208 T00830067 10144 20083 50000=
201604020539 SPECI KCLM 020539Z AUTO 29010KT 8SM FEW007 08/07 A3014 RMK AO2 T00830067=
201604020453 METAR KCLM 020453Z AUTO 29012KT 8SM CLR 08/07 A3015 RMK AO2 SLP209 T00830067=
201604020353 METAR KCLM 020353Z AUTO 30013G19KT 8SM CLR 09/07 A3014 RMK AO2 SLP208 T00890067=
201604020253 METAR KCLM 020253Z AUTO 29012KT 8SM CLR 09/07 A3014 RMK AO2 SLP208 T00940067 55007=
201604020153 METAR KCLM 020153Z AUTO 32006KT 10SM CLR 11/07 A3014 RMK AO2 SLP207 T01110072=
201604020053 METAR KCLM 020053Z AUTO 32009KT 10SM CLR 13/08 A3015 RMK AO2 SLP211 T01280078=
201604012353 METAR KCLM 012353Z AUTO 30006KT 10SM CLR 14/08 A3016 RMK AO2 SLP215 T01440083 10156 20089 56013=
201604012253 METAR KCLM 012253Z AUTO 34006KT 10SM CLR 14/08 A3017 RMK AO2 SLP219 T01440083=
201604012153 METAR KCLM 012153Z AUTO 31007KT 10SM CLR 13/08 A3019 RMK AO2 SLP223 T01280078=
201604012053 METAR KCLM 012053Z AUTO 32007KT 10SM CLR 13/08 A3020 RMK AO2 SLP228 T01280078 56005=
201604011953 METAR KCLM 011953Z AUTO 33007KT 10SM CLR 12/07 A3020 RMK AO2 SLP229 T01220072=
201604011853 METAR KCLM 011853Z AUTO 33008KT 10SM CLR 12/07 A3021 RMK AO2 SLP232 T01170072=
201604011841 SPECI KCLM 011841Z AUTO 30008KT 10SM SCT010 12/08 A3021 RMK AO2 T01170078=
201604011833 SPECI KCLM 011833Z AUTO 29007KT 10SM BKN010 11/08 A3021 RMK AO2 T01110078=
201604011753 METAR KCLM 011753Z AUTO 33006KT 9SM OVC007 09/07 A3022 RMK AO2 SLP233 T00890067 10089 20072 51008=
201604011653 METAR KCLM 011653Z AUTO 31008KT 8SM OVC005 08/07 A3021 RMK AO2 SLP231 T00830072=
201604011553 METAR KCLM 011553Z AUTO 29006KT 5SM BR OVC003 08/07 A3020 RMK AO2 SLP228 T00780072=
201604011533 SPECI KCLM 011533Z AUTO 27005KT 3SM BR OVC002 08/07 A3020 RMK AO2 T00780067=
201604011522 SPECI KCLM 011522Z AUTO 28006KT 1 1/4SM BR OVC002 07/07 A3020 RMK AO2 T00720067=
201604011511 SPECI KCLM 011511Z AUTO 29007KT 3/4SM BR OVC002 07/07 A3020 RMK AO2 T00720067=
201604011453 METAR KCLM 011453Z AUTO 28008KT 1SM BR OVC002 07/06 A3019 RMK AO2 SLP225 T00720061 53009=
201604011426 SPECI KCLM 011426Z AUTO 27006KT 1/2SM FG OVC002 07/07 A3019 RMK AO2 T00720067=
201604011410 SPECI KCLM 011410Z AUTO 27007KT 1/4SM FG OVC002 07/06 A3019 RMK AO2 T00720061=
201604011353 METAR KCLM 011353Z AUTO 27005KT 1 1/4SM BR OVC002 07/07 A3018 RMK AO2 SLP221 T00720067=
201604011340 SPECI KCLM 011340Z AUTO 28005KT 1SM BR OVC002 07/07 A3018 RMK AO2 T00720067=
201604011253 METAR KCLM 011253Z AUTO 27005KT 3/4SM BR VV002 08/07 A3017 RMK AO2 SLP218 T00780067=
201604011245 SPECI KCLM 011245Z AUTO 26005KT 1/2SM FG VV002 08/07 A3017 RMK AO2 T00780067=
201604011153 METAR KCLM 011153Z AUTO 00000KT 1/4SM FG VV002 08/07 A3017 RMK AO2 SLP216 T00780072 10089 20078 53007=
201604011139 SPECI KCLM 011139Z AUTO 20003KT 1/4SM FG VV002 08/07 A3016 RMK AO2 T00780072=
201604011133 SPECI KCLM 011133Z AUTO 22003KT 1/2SM FG OVC001 08/07 A3017 RMK AO2 T00780072=
201604011121 SPECI KCLM 011121Z AUTO 27003KT 3/4SM BR OVC002 08/07 A3016 RMK AO2 T00780067=
201604011110 SPECI KCLM 011110Z AUTO 29004KT 1 1/4SM BR OVC002 08/07 A3016 RMK AO2 T00780067=
201604011053 METAR KCLM 011053Z AUTO 25005KT 2 1/2SM BR OVC002 08/07 A3016 RMK AO2 SLP212 T00780067=
201604010953 METAR KCLM 010953Z AUTO 28006KT 5SM BR OVC002 08/07 A3015 RMK AO2 SLP210 T00780067=
201604010928 SPECI KCLM 010928Z AUTO 29006KT 3SM BR BKN002 08/07 A3015 RMK AO2 T00830072=
201604010919 SPECI KCLM 010919Z AUTO 30008KT 4SM BR SCT002 08/07 A3015 RMK AO2 T00830072=
201604010853 METAR KCLM 010853Z AUTO 30009KT 6SM BR CLR 08/07 A3014 RMK AO2 SLP207 T00830067 51003=
201604010753 METAR KCLM 010753Z AUTO 31008KT 8SM CLR 09/07 A3014 RMK AO2 SLP206 T00890072 401830039=
201604010653 METAR KCLM 010653Z AUTO 30009KT 7SM CLR 08/07 A3014 RMK AO2 SLP208 T00830072=
201604010553 METAR KCLM 010553Z AUTO 30008KT 8SM CLR 09/08 A3013 RMK AO2 SLP205 T00890078 10167 20083 51011=
201604010453 METAR KCLM 010453Z AUTO 31006KT 7SM CLR 08/07 A3012 RMK AO2 SLP202 T00830072=
201604010353 METAR KCLM 010353Z AUTO 30005KT 8SM CLR 09/07 A3011 RMK AO2 SLP198 T00940072=
201604010253 METAR KCLM 010253Z AUTO 29006KT 10SM CLR 11/07 A3010 RMK AO2 SLP194 T01060072 53000=
201604010153 METAR KCLM 010153Z AUTO 30005KT 10SM CLR 11/08 A3010 RMK AO2 SLP195 T01110083=
201604010053 METAR KCLM 010053Z AUTO 31006KT 10SM CLR 14/08 A3009 RMK AO2 SLP192 T01390078=

# No short TAF reports from KCLM in databse.

###################################
#  large TAF from KCLM
###################################
201604302328 TAF KCLM 302328Z 0100/0124 31008KT P6SM SKC FM010800 VRB03KT P6SM
                       SKC=
201604301728 TAF KCLM 301728Z 3018/0118 VRB03KT P6SM SKC FM302300 29008KT P6SM
                       SCT050 FM010800 VRB03KT P6SM SKC=
201604301307 TAF AMD KCLM 301307Z 3013/0112 25005KT P6SM BKN200 FM301700 35008KT
                       P6SM BKN200 FM010300 29005KT P6SM SCT250
                       FM010600 23004KT P6SM SKC=
201604301120 TAF KCLM 301120Z 3012/0112 26008KT P6SM SCT060 FM301700 35008KT
                       P6SM SKC FM010300 VRB03KT P6SM SKC=
201604300520 TAF KCLM 300520Z 3006/0106 29008KT P6SM SCT060 FM301700 01008KT
                       P6SM SKC FM010300 VRB03KT P6SM SKC=
201604292338 TAF KCLM 292338Z 3000/3024 29014G20KT P6SM SCT050 FM300700 29008KT
                       P6SM SCT060=
201604291735 TAF KCLM 291735Z 2918/3018 29012KT P6SM BKN050 FM300700 29008KT
                       P6SM SCT060=
201604291120 TAF KCLM 291120Z 2912/3012 27008KT P6SM SCT020 OVC100 FM291300
                       26006KT P6SM VCSH SCT012 BKN060
                      TEMPO 2913/2916 -SHRA SCT010 OVC025 FM291600
                       33009KT P6SM SCT025 BKN050 FM291900 30013G22KT
                       P6SM SCT030 BKN060 FM300400 29009KT P6SM
                       SCT060 SCT200=
201604290523 TAF KCLM 290523Z 2906/3006 27008KT P6SM SCT020 OVC100 FM291200
                       26006KT P6SM VCSH SCT012 BKN060
                      TEMPO 2913/2916 -SHRA SCT010 OVC025 FM291600
                       33009KT P6SM SCT025 BKN050 FM292200 30013G22KT
                       P6SM SCT030 BKN060 FM300300 29009KT P6SM
                       SCT060 SCT200=
201604282334 TAF KCLM 282334Z 2900/2924 32011G18KT P6SM SCT020 BKN050 FM290700
                       27008KT P6SM SCT018 OVC080 FM291200 26006KT
                       P6SM VCSH SCT012 BKN060 FM292000 31012G20KT
                       P6SM SCT025 SCT050=
201604281740 TAF KCLM 281740Z 2818/2918 32011G18KT P6SM SCT050 FM290700 27008KT
                       P6SM SCT018 OVC080 FM291200 26006KT P6SM
                       VCSH SCT012 BKN060=
201604281120 TAF KCLM 281120Z 2812/2912 26006KT P6SM SCT040 OVC080 FM281700
                       32008KT P6SM SCT040 BKN100 FM290100 30012G20KT
                       P6SM BKN040 OVC100 FM290700 28005KT P6SM
                       SCT020 OVC040=
201604280520 TAF KCLM 280520Z 2806/2906 27006KT P6SM SKC FM281200 26006KT P6SM
                       SCT040 FM281700 32010KT P6SM SCT040 BKN100
                       FM290100 30012G20KT P6SM BKN040 OVC100=
201604272320 TAF KCLM 272320Z 2800/2824 32006KT P6SM SKC FM281200 VRB03KT P6SM
                       SCT040 FM281700 VRB03KT P6SM BKN040=
201604271720 TAF KCLM 271720Z 2718/2818 VRB04KT P6SM SCT050 BKN200 FM272200
                       32006KT P6SM BKN050 FM280900 VRB03KT P6SM
                       SKC=
201604271126 TAF KCLM 271126Z 2712/2812 VRB04KT P6SM VCSH BKN050 OVC100 FM271800
                       35007KT P6SM SCT060 BKN100 FM280000 29009KT
                       P6SM SCT100 FM280600 26005KT P6SM SKC=
201604270544 TAF KCLM 270544Z 2706/2806 26006KT P6SM VCSH SCT060 OVC100 FM271200
                       VRB03KT P6SM VCSH BKN060 OVC100 FM271800
                       35006KT P6SM SCT060 BKN100 FM280200 29008KT
                       P6SM SCT100=
201604270316 TAF AMD KCLM 270316Z 2703/2724 28006KT P6SM BKN060 OVC120 FM270600
                       25005KT P6SM VCSH BKN060 OVC120 FM271500
                       25005KT P6SM FEW025 SCT060 BKN120 FM271800
                       35006KT P6SM SCT070 SCT120=
201604262320 TAF KCLM 262320Z 2700/2724 30007KT P6SM BKN060 OVC120=
201604261720 TAF KCLM 261720Z 2618/2718 VRB04KT P6SM SCT030 BKN200 FM262100
                       VRB04KT P6SM SCT070 BKN120 BKN200 FM270600
                       00000KT P6SM BKN070 BKN120 OVC200=
201604261435 TAF AMD KCLM 261435Z 2615/2712 23006KT P6SM SCT025 SCT200
                      TEMPO 2615/2618 BKN025 FM261800 34006KT P6SM
                       SCT120 BKN200 FM270100 29006KT P6SM SCT070
                       OVC120 FM270600 VRB03KT P6SM VCSH FEW040
                       BKN070 OVC120=
201604261132 TAF KCLM 261132Z 2612/2712 23006KT P6SM BKN200 FM261800 34006KT
                       P6SM SCT120 BKN200 FM270100 29006KT P6SM
                       SCT070 OVC120 FM270600 VRB03KT P6SM VCSH
                       FEW040 BKN070 OVC120=
201604260534 TAF KCLM 260534Z 2606/2706 25006KT P6SM SCT200 FM261800 34006KT
                       P6SM SCT120 BKN200 FM270100 29006KT P6SM
                       SCT070 OVC120=
201604260501 TAF AMD KCLM 260501Z 2605/2624 26007KT P6SM BKN200 FM261600 09006KT
                       P6SM OVC120=
201604260210 TAF AMD KCLM 260210Z 2602/2624 29012KT P6SM BKN200 FM260900 25005KT
                       P6SM BKN200 FM261600 09006KT P6SM OVC120=
201604252320 TAF KCLM 252320Z 2600/2624 32012G22KT P6SM SKC FM260900 00000KT
                       P6SM BKN200 FM261600 09006KT P6SM OVC120=
201604252158 TAF AMD KCLM 252158Z 2522/2618 32012G22KT P6SM SCT040 FM260900
                       00000KT P6SM SCT120 OVC200 FM261600 09006KT
                       P6SM OVC120=
201604251720 TAF KCLM 251720Z 2518/2618 30010KT P6SM SCT040 FM260900 00000KT
                       P6SM SCT120 OVC200 FM261600 09006KT P6SM
                       OVC120=
201604251120 TAF KCLM 251120Z 2512/2612 26010KT P6SM FEW035 SCT070
                      TEMPO 2512/2516 FEW035 BKN070 FM251800 31012KT
                       P6SM SCT070 FM260200 28010KT P6SM SCT200
                       FM260900 25005KT P6SM BKN200=
201604251001 TAF AMD KCLM 251001Z 2510/2606 27010KT P6SM FEW030 BKN060 FM251200
                       27008KT P6SM SCT022 SCT060
                      TEMPO 2514/2518 BKN022 BKN060 FM251800 31011KT
                       P6SM FEW035 SCT200 FM260200 28010KT P6SM
                       SCT200=
201604250523 TAF KCLM 250523Z 2506/2606 27008KT P6SM SKC FM251200 27008KT P6SM
                       SCT022
                      TEMPO 2514/2518 BKN022 FM251800 31011KT P6SM
                       FEW035 SCT200 FM260200 28010KT P6SM SCT200=
201604250314 TAF AMD KCLM 250314Z 2503/2524 27009KT P6SM VCSH SCT040 SCT080
                       TEMPO 2503/2506 BKN040 BKN080 FM250600 27006KT
                       P6SM SCT050 FM251200 26007KT P6SM SCT030=
201604250141 TAF AMD KCLM 250141Z 2502/2524 28012KT 6SM -SHRA SCT025 BKN035
                       OVC050
                      TEMPO 2502/2504 4SM SHRA BKN025 OVC040 FM250600
                       28010KT P6SM SCT035 BKN050 FM251200 26007KT
                       P6SM SCT030=
201604250105 TAF AMD KCLM 250105Z 2501/2524 30010G23KT 6SM -SHRA BKN035 OVC045
                       FM250500 28010KT P6SM SCT040 FM251200 26007KT
                       P6SM SCT030=
201604242324 TAF KCLM 242324Z 2500/2524 30010KT P6SM VCSH SCT035 BKN050 FM250600
                       28010KT P6SM SCT040 FM251200 26007KT P6SM
                       SCT030=
201604241727 TAF KCLM 241727Z 2418/2518 27012KT P6SM VCSH SCT035 BKN080 FM250300
                       28010KT P6SM SCT050 SCT080 FM250900 26007KT
                       P6SM BKN030=
201604241131 TAF KCLM 241131Z 2412/2512 28008KT P6SM VCSH SCT035 BKN070
                      TEMPO 2412/2416 5SM SHRA BKN035 OVC070 FM241800
                       31015G22KT P6SM VCSH SCT035 SCT050
                      TEMPO 2420/2424 BKN035 BKN050 FM250300 28012KT
                       P6SM SCT050 FM250900 26007KT P6SM FEW025
                       SCT050=
201604241021 TAF AMD KCLM 241021Z 2410/2506 26013KT P6SM VCSH SCT025 BKN050
                       TEMPO 2410/2413 -SHRA BKN025 OVC050 FM241800
                       31015G22KT P6SM VCSH SCT035 SCT050 FM250300
                       28012KT P6SM VCSH SCT050=
201604240535 TAF KCLM 240535Z 2406/2506 28010KT P6SM VCSH SCT008 SCT035 BKN100
                       TEMPO 2406/2409 28010G20KT 4SM SHRA BKN008
                       OVC035 FM240900 28013KT P6SM VCSH SCT025
                       SCT050 BKN100
                      TEMPO 2409/2413 28013G23KT -SHRA BKN025 OVC050
                       FM241800 31015G22KT P6SM VCSH SCT035 SCT050
                       PROB30 2418/2424 -SHRA OVC035 FM250300 28012KT
                       P6SM VCSH SCT050=
201604240215 TAF AMD KCLM 240215Z 2402/2424 28005KT P6SM -SHRA FEW008 SCT022
                       OVC040
                      TEMPO 2402/2404 2SM SHRA BKN008 BKN022 OVC040
                       FM240400 28010KT P6SM -SHRA SCT008 BKN022
                       OVC035
                      TEMPO 2404/2408 2SM SHRA BKN008 OVC020 FM240800
                       28013G20KT P6SM -SHRA BKN030 OVC050 FM241200
                       27015G20KT P6SM -SHRA BKN025 OVC050=
201604232324 TAF KCLM 232324Z 2400/2424 VRB05KT P6SM -SHRA BKN040 BKN080 OVC200
                       FM240300 29010KT P6SM -SHRA BKN030 OVC080
                       FM241200 27015G20KT P6SM -SHRA BKN025 OVC050=
201604231720 TAF KCLM 231720Z 2318/2418 24004KT P6SM BKN030 BKN050 BKN110
                      TEMPO 2318/2320 BKN020 FM232000 33005KT P6SM
                       VCSH BKN035 BKN050 OVC110 FM240000 32007KT
                       P6SM -SHRA BKN028 OVC050 FM240300 29010KT
                       P6SM -SHRA BKN018 OVC030 FM240900 27015G20KT
                       P6SM -SHRA BKN028 OVC050=
201604231318 TAF AMD KCLM 231318Z 2313/2412 24003KT P6SM SCT025 BKN090
                      TEMPO 2313/2316 BKN025 OVC090 FM231800 24004KT
                       P6SM BKN030 BKN050 OVC110 FM232000 35005KT
                       P6SM VCSH BKN035 BKN050 OVC110 FM240000
                       32007KT P6SM -SHRA BKN028 OVC050 FM240300
                       29010KT P6SM -SHRA BKN018 OVC030 FM240900
                       27015G20KT P6SM -SHRA BKN028 OVC050=
201604231147 TAF KCLM 231147Z 2312/2412 28006KT P6SM OVC025 FM231800 24004KT
                       P6SM BKN030 BKN050 OVC110 FM232000 35005KT
                       P6SM VCSH BKN035 BKN050 OVC110 FM240000
                       32007KT P6SM -SHRA BKN028 OVC050 FM240300
                       29010KT P6SM -SHRA BKN018 OVC030 FM240900
                       27015G20KT P6SM -SHRA BKN028 OVC050=
201604231023 TAF AMD KCLM 231023Z 2310/2406 VRB03KT P6SM OVC025 FM231800 VRB03KT
                       P6SM BKN030 BKN050 OVC110 FM232000 35005KT
                       P6SM VCSH BKN035 BKN050 OVC110
                      PROB30 2320/2324 -SHRA FM240000 31006KT P6SM
                       -SHRA BKN028 OVC050 FM240300 28012KT P6SM
                       -SHRA BKN018 OVC030=
201604230639 TAF AMD KCLM 230639Z 2307/2406 VRB03KT P6SM SCT025 BKN070
                      TEMPO 2307/2311 BKN025 BKN070 FM231800 VRB03KT
                       P6SM BKN030 BKN050 OVC110 FM232000 35005KT
                       P6SM VCSH BKN035 BKN050 OVC110
                      PROB30 2320/2324 -SHRA FM240000 31006KT P6SM
                       -SHRA BKN028 OVC050 FM240300 28012KT P6SM
                       -SHRA BKN018 OVC030=
201604230541 TAF KCLM 230541Z 2306/2406 VRB03KT P6SM OVC022 FM231800 VRB03KT
                       P6SM BKN030 BKN050 OVC110 FM232000 35005KT
                       P6SM VCSH BKN035 BKN050 OVC110
                      PROB30 2320/2324 -SHRA FM240000 31006KT P6SM
                       -SHRA BKN028 OVC050 FM240300 28012KT P6SM
                       -SHRA BKN018 OVC030=
201604230242 TAF AMD KCLM 230242Z 2303/2324 28005KT P6SM OVC028 FM230600 27007KT
                       P6SM BKN025 FM231800 27005KT P6SM BKN030=
201604230144 TAF AMD KCLM 230144Z 2302/2324 VRB06KT P6SM VCSH OVC018 FM230600
                       27007KT P6SM BKN025 FM231800 27005KT P6SM
                       BKN030=
201604222320 TAF KCLM 222320Z 2300/2324 29012G18KT 5SM -SHRA SCT015 BKN050 BKN080
                       FM230600 27007KT P6SM BKN025 FM231800 27005KT
                       P6SM BKN030=
201604221732 TAF KCLM 221732Z 2218/2318 31005KT P6SM SCT045 BKN120 FM222000
                       29006KT P6SM -SHRA SCT030 BKN040 BKN080
                       FM230100 29012G18KT P6SM -SHRA BKN030 FM230600
                       27007KT P6SM BKN025=
201604221120 TAF KCLM 221120Z 2212/2312 31005KT P6SM VCSH SCT045 BKN070 BKN120
                       FM222000 29006KT 5SM -SHRA BR OVC025 FM230100
                       29012G18KT P6SM VCSH OVC025=
201604220535 TAF KCLM 220535Z 2206/2306 26004KT P6SM OVC060 FM221200 VRB03KT
                       P6SM VCSH BKN040 OVC080 FM222000 29006KT
                       5SM -SHRA BR OVC025 FM230100 29012G18KT
                       P6SM VCSH OVC025=
201604212320 TAF KCLM 212320Z 2200/2224 30008KT P6SM SCT080 SCT200 FM220200
                       29009KT P6SM SCT100 SCT200 FM220800 28006KT
                       P6SM SCT050 BKN100 FM221200 31006KT P6SM
                       VCSH BKN050 OVC080 FM221600 30005KT P6SM
                       -SHRA BKN050 OVC080 FM221900 31007KT P6SM
                       -SHRA BKN035 OVC050=
201604211720 TAF KCLM 211720Z 2118/2218 29005KT P6SM SCT012 BKN080 BKN200
                      TEMPO 2118/2120 OVC012 FM212000 34005KT P6SM
                       FEW020 SCT080 SCT200 FM220800 28006KT P6SM
                       SCT050 OVC100 FM221200 VRB04KT P6SM VCSH
                       BKN050 OVC080 FM221500 26005KT P6SM -SHRA
                       BKN050 OVC080=
201604211120 TAF KCLM 211120Z 2112/2212 29012KT P6SM OVC008 FM211800 VRB04KT
                       P6SM SCT012 BKN080 BKN200 FM212000 32004KT
                       P6SM FEW030 SCT080 SCT200 FM220600 28006KT
                       P6SM SCT050 OVC100
                      PROB30 2206/2212 -SHRA OVC050=
201604210645 TAF AMD KCLM 210645Z 2107/2206 30007KT P6SM BKN007 FM211200 27006KT
                       P6SM BKN012 BKN080 OVC200 FM211800 VRB04KT
                       P6SM SCT025 BKN080 BKN200 FM212000 VRB04KT
                       P6SM FEW030 SCT080 SCT200=
201604210527 TAF KCLM 210527Z 2106/2206 29005KT P6SM SKC FM211200 27006KT P6SM
                       BKN020 BKN080 OVC200 FM211800 VRB04KT P6SM
                       SCT025 BKN080 BKN200 FM212000 VRB04KT P6SM
                       FEW030 SCT080 SCT200=
201604202323 TAF KCLM 202323Z 2100/2124 VRB04KT P6SM FEW250 FM210200 29010KT
                       P6SM SCT040 BKN080 BKN250 FM210500 28012G20KT
                       P6SM -SHRA SCT040 BKN080 OVC200 FM211200
                       27006KT P6SM BKN020 BKN080 OVC200 FM211800
                       VRB04KT P6SM SCT025 BKN080 BKN200 FM212000
                       VRB04KT P6SM FEW030 SCT080 SCT200=
201604201729 TAF KCLM 201729Z 2018/2118 10008KT P6SM SKC FM202300 VRB04KT P6SM
                       SCT250 FM210100 29010KT P6SM SCT040 BKN080
                       BKN250 FM210300 28012G20KT P6SM -SHRA SCT040
                       BKN080 OVC200 FM211100 27006KT P6SM BKN020
                       BKN080 OVC200 FM211600 VRB04KT P6SM SCT025
                       BKN080 OVC200=
201604201125 TAF KCLM 201125Z 2012/2112 19003KT P6SM SKC FM210200 27010G17KT
                       P6SM VCSH SCT040 BKN080 BKN250 FM211100
                       27006KT P6SM BKN012=
201604200535 TAF KCLM 200535Z 2006/2106 00000KT P6SM SKC FM210200 27010G17KT
                       P6SM VCSH SCT040 BKN080 BKN250=
201604192331 TAF KCLM 192331Z 2000/2024 08004KT P6SM SCT250 FM200200 30005KT
                       P6SM FEW250 FM201000 VRB04KT P6SM FEW005
                       SCT250 FM201800 33005KT P6SM SCT250=
201604191723 TAF KCLM 191723Z 1918/2018 06004KT P6SM SCT250 FM200000 VRB04KT
                       P6SM SKC FM200200 30006KT P6SM SKC FM201200
                       VRB04KT P6SM SKC=
201604191122 TAF KCLM 191122Z 1912/2012 21003KT P6SM SKC FM200300 28004KT P6SM
                       SKC=
201604190520 TAF KCLM 190520Z 1906/2006 27007KT P6SM SKC FM190700 VRB03KT P6SM
                       SKC FM200300 28004KT P6SM SKC=
201604182320 TAF KCLM 182320Z 1900/1924 30003KT P6SM SCT250 FM190300 27005KT
                       P6SM SCT250 FM190700 VRB03KT P6SM SKC=
201604181720 TAF KCLM 181720Z 1818/1918 00000KT P6SM BKN250 FM190300 24003KT
                       P6SM FEW250=
201604181120 TAF KCLM 181120Z 1812/1912 00000KT P6SM SCT250 FM181700 07006KT
                       P6SM SCT250 FM190300 24003KT P6SM FEW250=
201604180520 TAF KCLM 180520Z 1806/1906 00000KT P6SM SCT250 FM181700 07006KT
                       P6SM SCT250 FM190300 24003KT P6SM FEW250=
201604172320 TAF KCLM 172320Z 1800/1824 11007KT P6SM SCT250 FM180300 VRB03KT
                       P6SM SKC=
201604171721 TAF KCLM 171721Z 1718/1818 09006KT P6SM SCT200 FM180300 00000KT
                       P6SM SKC=
201604171120 TAF KCLM 171120Z 1712/1812 00000KT P6SM SCT250 FM171800 10005KT
                       P6SM SCT250 FM180300 00000KT P6SM SCT250=
201604170520 TAF KCLM 170520Z 1706/1806 23004KT P6SM SCT250 FM171800 10005KT
                       P6SM SCT250=
201604162320 TAF KCLM 162320Z 1700/1724 VRB03KT P6SM SCT250=
201604161745 TAF KCLM 161745Z 1618/1718 VRB04KT P6SM BKN090 FM162100 24008KT
                       P6SM BKN250 FM170300 VRB03KT P6SM SCT250=
201604161120 TAF KCLM 161120Z 1612/1712 24005KT P6SM SCT090 BKN250 FM161900
                       05005KT P6SM BKN080 BKN250 FM170300 VRB03KT
                       P6SM FEW100 BKN250=
201604160520 TAF KCLM 160520Z 1606/1706 00000KT P6SM FEW050 BKN100 OVC250 FM161000
                       00000KT P6SM BKN060 OVC100 FM161900 05005KT
                       P6SM BKN080 BKN250=
201604152320 TAF KCLM 152320Z 1600/1624 VRB03KT P6SM SCT070 BKN150 FM160300
                       29005KT P6SM SCT060 BKN200 FM160600 22003KT
                       P6SM SCT060 BKN120 FM161000 VRB03KT P6SM
                       OVC060 FM161900 05005KT P6SM BKN250=
201604151720 TAF KCLM 151720Z 1518/1618 00000KT P6SM OVC035 FM152100 32007KT
                       P6SM SCT040 BKN200 FM160300 29005KT P6SM
                       SCT040 BKN200 FM160600 22003KT P6SM SCT060
                       BKN120 FM161000 VRB03KT P6SM OVC060=
201604151122 TAF KCLM 151122Z 1512/1612 21005KT P6SM SCT050 BKN200 FM151700
                       33004KT P6SM BKN050 BKN150 FM160000 29005KT
                       P6SM SCT050 BKN200 FM160400 22003KT P6SM
                       FEW060 SCT250=
201604150520 TAF KCLM 150520Z 1506/1606 28008KT P6SM FEW080 BKN250 FM151200
                       25004KT P6SM SCT025 BKN040 FM151800 33004KT
                       P6SM SCT040=
201604142320 TAF KCLM 142320Z 1500/1524 29008KT P6SM BKN080 FM150600 28005KT
                       P6SM SCT080 FM151200 27004KT P6SM SCT040=
201604141726 TAF KCLM 141726Z 1418/1518 34005KT P6SM BKN017 FM142000 VRB04KT
                       P6SM SCT020 BKN100 FM150100 29008KT P6SM
                       SCT060 BKN200 FM151000 27006KT P6SM BKN060
                       BKN200=
201604141122 TAF KCLM 141122Z 1412/1512 24005KT P6SM FEW030 OVC090 FM141800
                       34005KT P6SM BKN060 BKN120 FM150100 29008KT
                       P6SM SCT060 BKN200 FM151000 27006KT P6SM
                       BKN060 BKN200=
201604140522 TAF KCLM 140522Z 1406/1506 23004KT P6SM SCT060 BKN120 BKN250 FM141800
                       34005KT P6SM BKN060 BKN120 FM150100 29008KT
                       P6SM SCT060 BKN200=
201604132324 TAF KCLM 132324Z 1400/1424 09006KT P6SM SCT040 BKN100 FM140300
                       09006KT P6SM VCSH BKN040 OVC080 FM140900
                       VRB05KT P6SM VCSH BKN030=
201604131720 TAF KCLM 131720Z 1318/1418 09006KT P6SM SCT040 SCT250 FM140000
                       09006KT P6SM -SHRA BKN040 OVC080 FM140900
                       27010KT P6SM VCSH BKN030=
201604131120 TAF KCLM 131120Z 1312/1412 24004KT P6SM BKN018 BKN060 BKN200
                      TEMPO 1312/1316 SCT020 BKN060 FM131600 09006KT
                       P6SM SCT020 BKN050 BKN120 FM132200 09006KT
                       P6SM -RA BKN040 OVC080 FM140300 27010KT
                       P6SM VCSH BKN030=
201604131007 TAF AMD KCLM 131007Z 1310/1406 24004KT P6SM BKN015 BKN080 BKN200
                       FM131600 09006KT P6SM SCT020 BKN050 BKN120
                       FM132200 09006KT P6SM -RA BKN040 OVC080
                       FM140300 27010KT P6SM VCSH BKN030=
201604130520 TAF KCLM 130520Z 1306/1406 26008KT P6SM VCSH OVC060 FM131000 VRB04KT
                       P6SM VCSH BKN060 FM131600 10005KT P6SM SCT060=
201604122355 TAF KCLM 122355Z 1300/1324 29006KT P6SM VCSH SCT030 BKN045 OVC060
                       TEMPO 1300/1304 4SM -SHRA BR OVC030 FM130600
                       26006KT P6SM VCSH BKN045 BKN060 FM131000
                       VRB04KT P6SM VCSH BKN060 FM131600 10005KT
                       P6SM SCT060=
201604122323 TAF KCLM 122323Z 1300/1324 29006KT P6SM VCSH SCT030 BKN045 OVC060
                       TEMPO 1300/1304 4SM -SHRA BR OVC030 FM130600
                       26006KT P6SM VCSH BKN045 BKN060 FM131000
                       VRB04KT P6SM VCSH BKN060 FM131600 10005KT
                       P6SM SCT060=
201604121929 TAF AMD KCLM 121929Z 1219/1318 32008KT P6SM -SHRA BKN050
                      TEMPO 1219/1222 2SM SHRA OVC040 FM130000
                       28008KT P6SM VCSH BKN045=
201604121720 TAF KCLM 121720Z 1218/1318 VRB04KT P6SM -SHRA SCT040 BKN060 FM121900
                       32008KT P6SM -SHRA BKN040 FM130000 28008KT
                       P6SM VCSH BKN045=
201604121120 TAF KCLM 121120Z 1212/1312 VRB04KT P6SM SCT040 OVC100 FM121600
                       09005KT P6SM BKN040 OVC080 FM121700 VRB04KT
                       P6SM -RA OVC040 FM122100 30010KT P6SM -SHRA
                       BKN030=
201604120520 TAF KCLM 120520Z 1206/1306 VRB03KT P6SM OVC027 FM121200 26008KT
                       P6SM OVC030 FM121700 25006KT P6SM -RA OVC030
                       FM122100 31010KT P6SM -SHRA BKN030=
201604112320 TAF KCLM 112320Z 1200/1224 30010KT P6SM SCT018 OVC025
                      TEMPO 1200/1204 OVC018 FM121200 26008KT P6SM
                       OVC035 FM121700 25006KT P6SM -RA OVC040
                       FM122100 31010KT P6SM -SHRA BKN030 OVC045=
201604112219 TAF AMD KCLM 112219Z 1122/1218 31007KT P6SM SCT018 OVC025
                      TEMPO 1122/1124 OVC018 FM120000 30005KT P6SM
                       BKN025 FM120800 26008KT P6SM OVC035=
201604112058 TAF AMD KCLM 112058Z 1121/1218 31007KT P6SM SCT025 OVC050
                      TEMPO 1121/1124 OVC025 FM120800 26008KT P6SM
                       OVC030=
201604111731 TAF KCLM 111731Z 1118/1218 VRB04KT P6SM SCT017 BKN040 FM112100
                       33008KT P6SM BKN040 FM120800 27006KT P6SM
                       OVC030=
201604111123 TAF KCLM 111123Z 1112/1212 29004KT P6SM SCT017 OVC035
                      TEMPO 1112/1116 BKN015 OVC035 FM112100 30008KT
                       P6SM BKN040 FM120600 28008KT P6SM OVC030=
201604111120 TAF KCLM 111120Z 1112/1212 29004KT P6SM SCT017 OVC035 FM112100
                       30008KT P6SM BKN040 FM120600 28008KT P6SM
                       OVC030=
201604110520 TAF KCLM 110520Z 1106/1206 27007KT P6SM OVC022 FM112100 30008KT
                       P6SM BKN030=
201604110310 TAF AMD KCLM 110310Z 1103/1124 28008KT P6SM OVC025 FM112100 31008KT
                       P6SM BKN030=
201604102334 TAF KCLM 102334Z 1100/1124 VRB04KT P6SM OVC030 FM110300 28007KT
                       P6SM BKN035 FM110600 28007KT P6SM BKN028
                       FM110900 25005KT P6SM OVC018
                      PROB30 1109/1115 4SM -DZ BR OVC008 FM111800
                       31006KT P6SM OVC025 FM112100 31008KT P6SM
                       BKN030=
201604102115 TAF AMD KCLM 102115Z 1021/1118 34007KT P6SM OVC028 FM110100 28011KT
                       P6SM OVC030 FM110900 28005KT P6SM OVC018
                       PROB30 1109/1115 4SM -DZ BR OVC007 FM111500
                       28005KT P6SM OVC022=
201604101738 TAF KCLM 101738Z 1018/1118 VRB05KT 6SM BR OVC020 FM102000 32008KT
                       P6SM OVC028 FM102200 32008KT P6SM BKN035
                       FM110100 28011KT P6SM OVC030 FM110900 28005KT
                       P6SM OVC018
                      PROB30 1109/1115 4SM -DZ BR OVC007 FM111500
                       28005KT P6SM OVC022=
201604101533 TAF AMD KCLM 101533Z 1016/1112 28005KT P6SM OVC022 FM101800 35006KT
                       P6SM BKN028 FM102000 31009KT P6SM SCT035
                       FM110000 28012KT P6SM SKC FM110600 28007KT
                       P6SM BKN030=
201604101425 TAF AMD KCLM 101425Z 1014/1112 VRB03KT 5SM BR OVC015 FM101800 35006KT
                       P6SM BKN022 FM102000 31009KT P6SM SCT030
                       FM110000 28012KT P6SM SKC FM110600 28007KT
                       P6SM BKN030=
201604101120 TAF KCLM 101120Z 1012/1112 22006KT P6SM BKN012 FM101800 26006KT
                       P6SM SCT020 SCT040 FM102200 28012KT P6SM
                       SCT040 FM110600 28007KT P6SM BKN030=
201604101006 TAF AMD KCLM 101006Z 1010/1106 24007KT P6SM BKN012
                      TEMPO 1010/1014 5SM BR FM101400 24007KT P6SM
                       BKN015 BKN040
                      TEMPO 1014/1018 4SM BR OVC012 FM101800 27007KT
                       P6SM SCT020 BKN040 FM102200 27014KT P6SM
                       SCT040=
201604100520 TAF KCLM 100520Z 1006/1106 28008KT 6SM BR SKC FM100900 25005KT
                       5SM BR SKC FM101200 22005KT 1/2SM FG VV001
                       FM101600 22005KT P6SM VCFG SCT003 FM101800
                       32008KT P6SM SCT250=
201604092320 TAF KCLM 092320Z 1000/1024 07006KT P6SM SKC FM100200 29006KT P6SM
                       SKC FM100900 25005KT 5SM BR SKC FM101200
                       22005KT 1/2SM FG VV001 FM101600 22005KT
                       P6SM VCFG SCT003 FM101800 32008KT P6SM SCT250=
201604091742 TAF KCLM 091742Z 0918/1018 06005KT P6SM VCFG FEW005 FM092000 02006KT
                       P6SM SKC FM100200 29006KT P6SM SKC FM100900
                       25005KT 5SM BR SKC FM101200 22005KT 1/2SM
                       FG VV001 FM101600 22005KT P6SM VCFG SCT003=
201604091705 TAF AMD KCLM 091705Z 0917/1012 VRB03KT P6SM VCFG SCT003
                      TEMPO 0917/0918 BKN003 FM091900 02007KT P6SM
                       SKC FM100200 28006KT P6SM SKC=
201604091537 TAF AMD KCLM 091537Z 0916/1012 VRB03KT 4SM BR BKN003
                      TEMPO 0916/0918 1SM BR BKN001 FM091800 02007KT
                       P6SM SKC FM100200 28006KT P6SM SKC=
201604091507 TAF AMD KCLM 091507Z 0915/1012 VRB03KT 1/4SM FG VV002 FM091700
                       33005KT 3SM BR BKN004 FM091800 02007KT P6SM
                       SKC FM100200 28006KT P6SM SKC=
201604091424 TAF AMD KCLM 091424Z 0914/1012 VRB03KT 1/4SM FG VV001 FM091700
                       33005KT 3SM BR BKN004 FM091800 02007KT P6SM
                       SKC FM100200 28006KT P6SM SKC=
201604091300 TAF AMD KCLM 091300Z 0913/1012 00000KT 1/4SM FG VV001
                      TEMPO 0915/0916 2SM BR OVC002 FM091600 00000KT
                       3SM BR BKN004 FM091800 33007KT P6SM SKC=
201604091120 TAF KCLM 091120Z 0912/1012 26006KT 5SM BR OVC004
                      TEMPO 0912/0916 2SM BR OVC002 FM091800 33007KT
                       P6SM SKC=
201604090520 TAF KCLM 090520Z 0906/1006 30007KT P6SM BKN250 FM091000 25005KT
                       P6SM VCFG SCT007
                      TEMPO 0912/0916 BKN007 FM091800 33007KT P6SM
                       SKC=
201604082342 TAF KCLM 082342Z 0900/0924 29013KT P6SM BKN250 FM090600 27009KT
                       P6SM SKC FM091000 25005KT P6SM VCFG SCT007
                       TEMPO 0912/0916 BKN007 FM091800 36007KT
                       P6SM SKC=
201604082107 TAF AMD KCLM 082107Z 0821/0918 31015KT P6SM BKN250 FM090100 29013KT
                       P6SM BKN250
                      TEMPO 0901/0904 29015G25KT FM090400 27009KT
                       P6SM FEW011 SCT250 FM091200 29006KT P6SM
                       VCFG OVC006=
201604081730 TAF KCLM 081730Z 0818/0918 31011KT P6SM VCFG BKN006 BKN250 FM081900
                       31015KT P6SM SCT009 BKN250 FM082000 31015G23KT
                       P6SM BKN250 FM090100 29013KT P6SM BKN250
                       TEMPO 0901/0904 29015G25KT FM090400 27009KT
                       P6SM FEW011 SCT250 FM091200 29006KT P6SM
                       VCFG OVC006=
201604081614 TAF AMD KCLM 081614Z 0816/0912 31006KT 2SM BR OVC002
                      TEMPO 0816/0818 1/2SM FG VV001 FM081800 33009KT
                       4SM BR BKN004 BKN250 FM082000 33013KT P6SM
                       SCT008 SCT250 FM090000 29013G23KT P6SM SKC
                       FM090600 29007KT P6SM SKC=
201604081504 TAF AMD KCLM 081504Z 0815/0912 31006KT 1SM BR OVC002
                      TEMPO 0815/0818 1/4SM FG FM081800 33009KT
                       4SM BR BKN004 BKN250 FM082000 33013KT P6SM
                       SCT008 SCT250 FM090000 29013G23KT P6SM SKC
                       FM090600 29007KT P6SM SKC=
201604081411 TAF AMD KCLM 081411Z 0814/0912 33006KT 4SM BR FEW002 BKN250
                      TEMPO 0814/0816 1 1/2SM BR VV002 FM081700
                       33009KT P6SM VCFG BKN250 FM081900 31013KT
                       P6SM SCT250 FM090000 29013G23KT P6SM SKC
                       FM090600 29007KT P6SM SKC=
201604081401 TAF AMD KCLM 081401Z 0814/0912 31006KT P6SM FEW005 BKN250
                      TEMPO 0814/0816 4SM BR FM081700 33009KT P6SM
                       VCFG BKN250 FM081900 31013KT P6SM SCT250
                       FM090000 29013G23KT P6SM SKC FM090600 29007KT
                       P6SM SKC=
201604081120 TAF KCLM 081120Z 0812/0912 VRB03KT P6SM SCT250 FM082200 29012G18KT
                       P6SM SKC FM090600 29007KT P6SM SKC=
201604080520 TAF KCLM 080520Z 0806/0906 VRB03KT P6SM SCT250 FM082200 29012G18KT
                       P6SM SKC=
201604072335 TAF KCLM 072335Z 0800/0824 09005KT P6SM SKC FM080500 27005KT P6SM
                       SCT250 FM082200 29012G18KT P6SM SKC=
201604071735 TAF KCLM 071735Z 0718/0818 11008KT P6SM FEW020 FM080500 26005KT
                       P6SM SCT250=
201604071120 TAF KCLM 071120Z 0712/0812 12005KT P6SM SCT250 FM080500 26005KT
                       P6SM SCT250=
201604070520 TAF KCLM 070520Z 0706/0806 VRB03KT P6SM SCT250 FM071400 07005KT
                       P6SM SCT250 FM080500 26005KT P6SM SCT250=
201604062332 TAF KCLM 062332Z 0700/0724 VRB03KT P6SM SCT250 FM071200 07005KT
                       P6SM SCT250=
201604061728 TAF KCLM 061728Z 0618/0718 10006KT P6SM SCT250 FM070000 23004KT
                       P6SM SCT250=
201604061120 TAF KCLM 061120Z 0612/0712 VRB03KT P6SM SCT250 FM062000 01006KT
                       P6SM SCT250 FM062300 07004KT P6SM SCT250
                       FM070300 24006KT P6SM SCT250=
201604060520 TAF KCLM 060520Z 0606/0706 24003KT P6SM BKN090 BKN200 FM061200
                       VRB03KT P6SM SCT250 FM062000 01006KT P6SM
                       SCT250 FM062300 07004KT P6SM SCT250 FM070300
                       VRB03KT P6SM SCT250=
201604052328 TAF KCLM 052328Z 0600/0624 12003KT P6SM FEW040 BKN200 FM061200
                       VRB03KT P6SM BKN250 FM062000 01006KT P6SM
                       SCT250=
201604051724 TAF KCLM 051724Z 0518/0618 08003KT P6SM OVC060 FM052100 35004KT
                       P6SM SCT035 BKN060 FM060600 27004KT P6SM
                       SCT060 OVC120=
201604051134 TAF KCLM 051134Z 0512/0612 VRB03KT P6SM OVC040 FM052100 VRB03KT
                       P6SM SCT040 BKN060 FM060400 VRB03KT P6SM
                       SCT060=
201604050539 TAF KCLM 050539Z 0506/0606 27010KT P6SM SCT050 FM051400 29006KT
                       P6SM SCT035 BKN060=
201604042333 TAF KCLM 042333Z 0500/0524 29014G24KT P6SM BKN060 BKN070 FM050600
                       27010G16KT P6SM SCT025 OVC045 FM051000 30005KT
                       P6SM OVC035=
201604041724 TAF KCLM 041724Z 0418/0518 30012KT P6SM SCT035 SCT180 FM050600
                       27012KT P6SM BKN050 FM050800 26007KT P6SM
                       OVC050=
201604041142 TAF KCLM 041142Z 0412/0512 27012KT P6SM SCT035 BKN060 FM041600
                       28016G24KT P6SM SCT035 BKN060 FM050200 28012KT
                       P6SM SCT035 BKN060=
201604040538 TAF KCLM 040538Z 0406/0506 VRB03KT P6SM -RA OVC040 FM040900 28014KT
                       P6SM -RA SCT008 OVC015 FM041200 27020G30KT
                       P6SM -SHRA SCT018 BKN035 FM042000 28016G24KT
                       P6SM SCT035 BKN060 FM050200 28012KT P6SM
                       SCT035 BKN060=
201604032325 TAF KCLM 032325Z 0400/0424 VRB04KT P6SM SCT130 BKN220 FM040300
                       VRB03KT P6SM -RA SCT015 OVC025 FM040900
                       28014KT P6SM -RA SCT008 OVC015 FM041200
                       27020G30KT P6SM -SHRA SCT018 BKN035 FM042000
                       28016G24KT P6SM SCT040 BKN080=
201604031720 TAF KCLM 031720Z 0318/0418 09006KT P6SM SCT090 BKN210 FM032300
                       VRB03KT P6SM BKN060 OVC100 FM040300 VRB03KT
                       P6SM -RA SCT015 OVC025 FM040900 28014KT
                       P6SM -RA SCT008 OVC015 FM041200 27020G30KT
                       P6SM -SHRA SCT018 BKN035=
201604031132 TAF KCLM 031132Z 0312/0412 VRB03KT P6SM BKN120 BKN200 FM032300
                       VRB03KT P6SM BKN060 OVC100 FM040300 VRB03KT
                       P6SM -RA SCT015 OVC025 FM040900 28014KT
                       P6SM -RA SCT008 OVC015=
201604030540 TAF KCLM 030540Z 0306/0406 VRB03KT P6SM BKN120 BKN200 FM031800
                       06005KT P6SM SCT120 BKN200 FM032300 VRB03KT
                       P6SM BKN060 OVC100 FM040300 VRB03KT P6SM
                       -RA OVC030=
201604022330 TAF KCLM 022330Z 0300/0324 30009KT P6SM SKC FM031000 25004KT P6SM
                       SCT008 FM031500 VRB03KT P6SM BKN012 FM032100
                       06005KT P6SM SCT070 OVC200=
201604021734 TAF KCLM 021734Z 0218/0318 31009KT P6SM BKN018 FM022200 31007KT
                       P6SM SCT035 FM030100 29006KT P6SM SCT080
                       FM031000 25004KT P6SM SCT008=
201604021130 TAF KCLM 021130Z 0212/0312 28006KT P6SM SCT005 FM021800 30010KT
                       P6SM SCT250 FM030900 27004KT P6SM SCT250=
201604020538 TAF KCLM 020538Z 0206/0306 30010KT P6SM SKC FM020900 28006KT 5SM
                       BR OVC006 FM021800 28006KT P6SM BKN011 FM022000
                       26005KT P6SM SKC=
201604012320 TAF KCLM 012320Z 0200/0224 30010KT P6SM SKC FM020900 28006KT 5SM
                       BR OVC006 FM021800 28006KT P6SM BKN011 FM022000
                       26005KT P6SM SKC=
201604011720 TAF KCLM 011720Z 0118/0218 29007KT P6SM BKN005 FM012000 28007KT
                       P6SM SKC FM020000 28010KT P6SM SKC FM020900
                       28006KT 5SM BR OVC006=
201604011136 TAF KCLM 011136Z 0112/0212 27004KT 1/2SM FG OVC002
                      TEMPO 0113/0116 3SM BR FM011600 VRB03KT 4SM
                       BR OVC004 FM011700 VRB03KT 5SM BR BKN006
                       FM011800 VRB03KT P6SM FEW250 FM012200 31010KT
                       P6SM FEW250 FM020900 28006KT 5SM BR OVC006=
201604010536 TAF KCLM 010536Z 0106/0206 29006KT P6SM FEW250 FM010800 27006KT
                       P6SM VCFG FEW004
                      TEMPO 0110/0114 1SM BR BKN004 FM011700 VRB03KT
                       P6SM FEW250 FM012200 31010KT P6SM FEW250=