##########################################################
# Query made at 02/16/2025 03:13:35 UTC
# Time interval: from 09/01/2016 00:00  to 09/30/2016 23:59  UTC
##########################################################

##########################################################
# KCLM, Port Angeles, William R. Fairchild International Airport (United States)
# WMO index: -----. WIGOS ID: Unknown
# Latitude 48-07-20N. Longitude 123-30-19W. Altitude 87 m.
##########################################################

###################################
#  METAR/SPECI from KCLM
###################################
201609302353 METAR KCLM 302353Z AUTO 00000KT 10SM FEW080 SCT095 14/07 A2997 RMK AO2 SLP150 T01390072 10144 20111 56011=
201609302253 METAR KCLM 302253Z AUTO 35003KT 10SM CLR 13/08 A2998 RMK AO2 SLP153 T01280078=
201609302153 METAR KCLM 302153Z AUTO 01004KT 10SM CLR 13/08 A2999 RMK AO2 SLP156 T01330078=
201609302053 METAR KCLM 302053Z AUTO VRB03KT 10SM CLR 13/08 A3000 RMK AO2 SLP161 T01280078 58013=
201609301953 METAR KCLM 301953Z AUTO 35004KT 10SM CLR 13/08 A3002 RMK AO2 SLP166 T01280078=
201609301853 METAR KCLM 301853Z AUTO 34005KT 10SM CLR 12/08 A3003 RMK AO2 SLP170 T01170078=
201609301753 METAR KCLM 301753Z AUTO 34004KT 10SM CLR 11/08 A3004 RMK AO2 SLP174 T01110083 10117 20061 58003=
201609301653 METAR KCLM 301653Z AUTO 36004KT 10SM CLR 11/08 A3005 RMK AO2 SLP176 T01110078=
201609301553 METAR KCLM 301553Z AUTO 23004KT 10SM CLR 10/06 A3005 RMK AO2 SLP177 T01000056=
201609301453 METAR KCLM 301453Z AUTO 24007KT 10SM CLR 09/06 A3005 RMK AO2 SLP177 T00890056 58001=
201609301353 METAR KCLM 301353Z AUTO 24006KT 10SM CLR 08/05 A3005 RMK AO2 SLP178 T00830050=
201609301253 METAR KCLM 301253Z AUTO 27005KT 10SM CLR 08/06 A3005 RMK AO2 SLP178 T00830056=
201609301153 METAR KCLM 301153Z AUTO 24004KT 10SM CLR 07/04 A3005 RMK AO2 SLP178 T00720044 10100 20072 58002=
201609301053 METAR KCLM 301053Z AUTO 24004KT 10SM CLR 08/04 A3006 RMK AO2 SLP181 T00780044=
201609300953 METAR KCLM 300953Z AUTO 27006KT 10SM SCT060 10/06 A3006 RMK AO2 SLP179 T01000056=
201609300853 METAR KCLM 300853Z AUTO 28006KT 10SM BKN060 09/06 A3006 RMK AO2 SLP180 T00890056 55004=
201609300753 METAR KCLM 300753Z AUTO 27005KT 10SM CLR 08/06 A3006 RMK AO2 SLP179 T00830056 401610050=
201609300653 METAR KCLM 300653Z AUTO 25007KT 10SM SCT060 10/07 A3007 RMK AO2 SLP182 T01000067=
201609300553 METAR KCLM 300553Z AUTO 27003KT 10SM CLR 08/06 A3007 RMK AO2 SLP184 T00830061 10144 20083 57004=
201609300453 METAR KCLM 300453Z AUTO 26005KT 10SM CLR 09/07 A3008 RMK AO2 SLP185 T00890067=
201609300353 METAR KCLM 300353Z AUTO 25005KT 10SM CLR 10/07 A3008 RMK AO2 SLP186 T01000072=
201609300253 METAR KCLM 300253Z AUTO 26004KT 10SM CLR 11/07 A3008 RMK AO2 SLP188 T01060072 53001=
201609300153 METAR KCLM 300153Z AUTO 00000KT 10SM CLR 12/07 A3008 RMK AO2 SLP186 T01170067=
201609300053 METAR KCLM 300053Z AUTO 31005KT 10SM CLR 13/07 A3008 RMK AO2 SLP187 T01330067=
201609292353 METAR KCLM 292353Z AUTO 32007KT 10SM CLR 14/06 A3008 RMK AO2 SLP187 T01390056 10161 20128 56004=
201609292253 METAR KCLM 292253Z AUTO 31008KT 10SM CLR 16/04 A3008 RMK AO2 SLP187 T01610044=
201609292153 METAR KCLM 292153Z AUTO 35005KT 10SM CLR 16/05 A3008 RMK AO2 SLP188 T01560050=
201609292053 METAR KCLM 292053Z AUTO 36005KT 10SM CLR 16/06 A3009 RMK AO2 SLP191 T01560056 58004=
201609291953 METAR KCLM 291953Z AUTO VRB05KT 10SM CLR 14/07 A3010 RMK AO2 SLP192 T01440067=
201609291853 METAR KCLM 291853Z AUTO 01005KT 10SM CLR 13/07 A3010 RMK AO2 SLP195 T01330067=
201609291753 METAR KCLM 291753Z AUTO 29003KT 10SM CLR 13/06 A3010 RMK AO2 SLP194 T01330061 10133 20050 51007=
201609291653 METAR KCLM 291653Z AUTO 28005KT 10SM CLR 12/06 A3010 RMK AO2 SLP194 T01170061=
201609291553 METAR KCLM 291553Z AUTO 30005KT 10SM CLR 10/04 A3009 RMK AO2 SLP191 T01000039=
201609291453 METAR KCLM 291453Z AUTO 22004KT 10SM CLR 07/03 A3008 RMK AO2 SLP187 T00670028 51003=
201609291353 METAR KCLM 291353Z AUTO 25003KT 10SM CLR 07/03 A3008 RMK AO2 SLP186 T00720028=
201609291253 METAR KCLM 291253Z AUTO 00000KT 10SM CLR 07/03 A3008 RMK AO2 SLP186 T00670028=
201609291153 METAR KCLM 291153Z AUTO 00000KT 10SM CLR 06/02 A3007 RMK AO2 SLP184 T00560022 10111 20050 51000=
201609291053 METAR KCLM 291053Z AUTO 00000KT 10SM CLR 06/03 A3007 RMK AO2 SLP183 T00610033=
201609290953 METAR KCLM 290953Z AUTO 25004KT 10SM CLR 07/03 A3008 RMK AO2 SLP184 T00720033=
201609290853 METAR KCLM 290853Z AUTO 30004KT 10SM CLR 09/04 A3007 RMK AO2 SLP183 T00890044 53002=
201609290753 METAR KCLM 290753Z AUTO 32006KT 10SM CLR 09/04 A3006 RMK AO2 SLP180 T00940044 401890050=
201609290653 METAR KCLM 290653Z AUTO 32005KT 10SM CLR 11/05 A3006 RMK AO2 SLP180 T01060050=
201609290553 METAR KCLM 290553Z AUTO 29007KT 10SM CLR 11/04 A3007 RMK AO2 SLP181 T01060039 10161 20100 53001=
201609290453 METAR KCLM 290453Z AUTO 28008KT 10SM CLR 11/05 A3006 RMK AO2 SLP179 T01110050=
201609290353 METAR KCLM 290353Z AUTO 29009KT 10SM CLR 12/05 A3007 RMK AO2 SLP182 T01170050=
201609290253 METAR KCLM 290253Z AUTO 27008KT 10SM CLR 11/06 A3006 RMK AO2 SLP181 T01110061 56004=
201609290153 METAR KCLM 290153Z AUTO 00000KT 10SM CLR 12/07 A3006 RMK AO2 SLP182 T01170072=
201609290053 METAR KCLM 290053Z AUTO 30005KT 10SM CLR 15/07 A3007 RMK AO2 SLP183 T01500067=
201609282353 METAR KCLM 282353Z AUTO VRB03KT 10SM CLR 16/07 A3007 RMK AO2 SLP185 T01560072 10189 20156 56013=
201609282253 METAR KCLM 282253Z AUTO VRB03KT 10SM CLR 19/06 A3008 RMK AO2 SLP185 T01890061=
201609282153 METAR KCLM 282153Z AUTO 08006KT 10SM CLR 18/06 A3009 RMK AO2 SLP190 T01830056=
201609282053 METAR KCLM 282053Z AUTO 10006KT 10SM CLR 18/06 A3011 RMK AO2 SLP197 T01830056 56008=
201609281953 METAR KCLM 281953Z AUTO 10007KT 10SM CLR 18/04 A3012 RMK AO2 SLP199 T01780044 TSNO=
201609281853 METAR KCLM 281853Z AUTO 11008KT 10SM CLR 17/04 A3013 RMK AO2 SLP203 T01720039=
201609281753 METAR KCLM 281753Z AUTO 08006KT 10SM CLR 16/04 A3014 RMK AO2 SLP205 T01610039 10161 20050 50001=
201609281653 METAR KCLM 281653Z AUTO 09004KT 10SM CLR 16/04 A3014 RMK AO2 SLP208 T01560044=
201609281553 METAR KCLM 281553Z AUTO 25004KT 10SM CLR 12/06 A3014 RMK AO2 SLP208 T01170056=
201609281453 METAR KCLM 281453Z AUTO 00000KT 10SM CLR 07/04 A3013 RMK AO2 SLP205 T00670039 50000=
201609281353 METAR KCLM 281353Z AUTO 15003KT 10SM CLR 07/04 A3013 RMK AO2 SLP205 T00720039=
201609281253 METAR KCLM 281253Z AUTO 22003KT 10SM CLR 08/04 A3013 RMK AO2 SLP205 T00780039=
201609281153 METAR KCLM 281153Z AUTO 21004KT 10SM CLR 09/04 A3013 RMK AO2 SLP204 T00890039 10117 20078 56005=
201609281053 METAR KCLM 281053Z AUTO 00000KT 10SM CLR 09/05 A3014 RMK AO2 SLP205 T00890050=
201609280953 METAR KCLM 280953Z AUTO 00000KT 10SM CLR 09/04 A3014 RMK AO2 SLP207 T00940044=
201609280853 METAR KCLM 280853Z AUTO 23006KT 10SM CLR 11/04 A3015 RMK AO2 SLP209 T01060044 56004=
201609280753 METAR KCLM 280753Z AUTO 21003KT 10SM CLR 10/04 A3015 RMK AO2 SLP210 T01000044 401780078=
201609280653 METAR KCLM 280653Z AUTO 00000KT 10SM CLR 11/04 A3015 RMK AO2 SLP211 T01060044=
201609280553 METAR KCLM 280553Z AUTO 24004KT 10SM CLR 10/06 A3016 RMK AO2 SLP214 T01000056 10178 20078 58003=
201609280453 METAR KCLM 280453Z AUTO 00000KT 10SM CLR 08/06 A3017 RMK AO2 SLP216 T00830056=
201609280353 METAR KCLM 280353Z AUTO 00000KT 10SM CLR 09/07 A3017 RMK AO2 SLP217 T00940067=
201609280253 METAR KCLM 280253Z AUTO 00000KT 10SM CLR 10/08 A3017 RMK AO2 SLP217 T01000078 56007=
201609280153 METAR KCLM 280153Z AUTO 00000KT 10SM CLR 11/08 A3017 RMK AO2 SLP218 T01060078=
201609280053 METAR KCLM 280053Z AUTO 09003KT 10SM CLR 16/07 A3018 RMK AO2 SLP220 T01560067=
201609272353 METAR KCLM 272353Z AUTO VRB06KT 10SM CLR 18/05 A3019 RMK AO2 SLP223 T01780050 10178 20128 58009=
201609272253 METAR KCLM 272253Z AUTO 09007KT 10SM CLR 17/04 A3020 RMK AO2 SLP226 T01720044=
201609272153 METAR KCLM 272153Z AUTO 06004KT 10SM CLR 17/08 A3021 RMK AO2 SLP230 T01670078=
201609272053 METAR KCLM 272053Z AUTO 04004KT 10SM CLR 16/11 A3022 RMK AO2 SLP232 T01610106 56007=
201609271953 METAR KCLM 271953Z AUTO VRB03KT 10SM CLR 17/11 A3022 RMK AO2 SLP234 T01670111=
201609271933 SPECI KCLM 271933Z AUTO VRB04KT 4SM HZ FEW001 13/10 A3022 RMK AO2 T01330100=
201609271853 METAR KCLM 271853Z AUTO VRB04KT 10SM CLR 16/11 A3023 RMK AO2 SLP235 T01560106=
201609271813 SPECI KCLM 271813Z AUTO VRB03KT 10SM SCT003 SCT019 13/12 A3023 RMK AO2 T01330117=
201609271753 METAR KCLM 271753Z AUTO 36003KT 8SM OVC002 13/11 A3024 RMK AO2 SLP239 T01280111 10133 20117 53013=
201609271750 SPECI KCLM 271750Z AUTO VRB03KT 3SM BR OVC002 13/12 A3023 RMK AO2=
201609271746 SPECI KCLM 271746Z AUTO 00000KT 1SM BR OVC002 13/12 A3024 RMK AO2 T01280122=
201609271653 METAR KCLM 271653Z AUTO 34003KT M1/4SM FG VV002 12/11 A3023 RMK AO2 SLP235 T01170111=
201609271553 METAR KCLM 271553Z AUTO 34003KT M1/4SM FG VV001 12/11 A3021 RMK AO2 SLP229 T01220111=
201609271544 SPECI KCLM 271544Z AUTO 36004KT 1/4SM FG VV002 13/11 A3020 RMK AO2 T01280111=
201609271509 SPECI KCLM 271509Z AUTO 25003KT 1/2SM FG OVC002 13/12 A3020 RMK AO2 T01330122=
201609271453 METAR KCLM 271453Z AUTO 00000KT 1 1/4SM BR OVC002 13/12 A3020 RMK AO2 SLP226 T01280122 51014=
201609271414 SPECI KCLM 271414Z AUTO 22004KT 1/2SM FG VV002 13/12 A3019 RMK AO2 T01280117=
201609271353 METAR KCLM 271353Z AUTO 00000KT 1/4SM FG VV002 12/12 A3019 RMK AO2 SLP222 T01220117=
201609271345 SPECI KCLM 271345Z AUTO 31004KT 1/4SM FG VV002 12/12 A3019 RMK AO2 T01220117=
201609271253 METAR KCLM 271253Z AUTO 28007KT 1/2SM FG VV002 13/12 A3017 RMK AO2 SLP218 T01330122=
201609271239 SPECI KCLM 271239Z AUTO 28005KT 1/2SM FG VV002 13/12 A3017 RMK AO2 T01330122=
201609271232 SPECI KCLM 271232Z AUTO 31003KT 1SM BR OVC002 13/12 A3017 RMK AO2 T01330122=
201609271220 SPECI KCLM 271220Z AUTO 00000KT 2SM BR OVC002 13/12 A3017 RMK AO2 T01330122=
201609271153 METAR KCLM 271153Z AUTO 27003KT 1SM BR VV002 13/13 A3016 RMK AO2 SLP212 T01330128 10172 20128 51015=
201609271109 SPECI KCLM 271109Z AUTO 29010KT 1/2SM FG VV002 13/12 A3015 RMK AO2 T01330122=
201609271059 SPECI KCLM 271059Z AUTO 29011KT 1 3/4SM BR OVC002 13/12 A3015 RMK AO2 VIS 3/4V4 T01330122=
201609271053 METAR KCLM 271053Z AUTO 30009KT 4SM BR OVC002 13/12 A3015 RMK AO2 SLP210 T01330122=
201609271038 SPECI KCLM 271038Z AUTO 29007KT 4SM BR BKN002 OVC080 14/13 A3015 RMK AO2 T01390128=
201609271029 SPECI KCLM 271029Z AUTO 31009KT 4SM BR SCT002 OVC080 14/12 A3015 RMK AO2 T01390122=
201609270953 METAR KCLM 270953Z AUTO 32005KT 10SM OVC085 15/12 A3014 RMK AO2 SLP204 T01500122=
201609270853 METAR KCLM 270853Z AUTO 30006KT 10SM BKN090 17/13 A3011 RMK AO2 SLP197 T01670128 53008=
201609270753 METAR KCLM 270753Z AUTO 30008KT 10SM CLR 15/12 A3010 RMK AO2 SLP194 T01500122 402170089=
201609270653 METAR KCLM 270653Z AUTO 30004KT 10SM FEW070 15/13 A3010 RMK AO2 SLP191 T01500128=
201609270553 METAR KCLM 270553Z AUTO 29008KT 10SM CLR 17/13 A3009 RMK AO2 SLP189 T01670133 10200 20150 51014=
201609270453 METAR KCLM 270453Z AUTO 30006KT 10SM CLR 16/13 A3008 RMK AO2 SLP185 T01610133=
201609270353 METAR KCLM 270353Z AUTO 29013KT 10SM FEW012 17/14 A3007 RMK AO2 SLP181 T01670139=
201609270253 METAR KCLM 270253Z AUTO 29013KT 10SM CLR 17/14 A3005 RMK AO2 SLP175 T01720144 53002=
201609270153 METAR KCLM 270153Z AUTO 29012KT 10SM SCT120 17/14 A3004 RMK AO2 SLP173 T01720139=
201609270053 METAR KCLM 270053Z AUTO 28013KT 10SM CLR 19/13 A3004 RMK AO2 SLP171 T01890128=
201609262353 METAR KCLM 262353Z AUTO 30009KT 10SM CLR 20/12 A3004 RMK AO2 SLP174 T02000122 10217 20172 56010=
201609262253 METAR KCLM 262253Z AUTO 31008KT 10SM CLR 18/11 A3006 RMK AO2 SLP178 T01830111=
201609262153 METAR KCLM 262153Z AUTO 35003KT 10SM CLR 20/12 A3005 RMK AO2 SLP177 T02000117=
201609262053 METAR KCLM 262053Z AUTO VRB03KT 10SM CLR 21/12 A3008 RMK AO2 SLP184 T02110117 58010=
201609261953 METAR KCLM 261953Z AUTO 04005KT 10SM CLR 18/11 A3008 RMK AO2 SLP187 T01830111=
201609261853 METAR KCLM 261853Z AUTO 01005KT 10SM CLR 17/11 A3010 RMK AO2 SLP194 T01720111=
201609261753 METAR KCLM 261753Z AUTO 08007KT 10SM CLR 18/11 A3011 RMK AO2 SLP195 T01780111 10178 20089 58016=
201609261653 METAR KCLM 261653Z AUTO 09006KT 10SM CLR 17/11 A3013 RMK AO2 SLP202 T01720111=
201609261553 METAR KCLM 261553Z AUTO 13007KT 10SM CLR 16/11 A3014 RMK AO2 SLP206 T01560111=
201609261453 METAR KCLM 261453Z AUTO 00000KT 10SM CLR 12/10 A3016 RMK AO2 SLP211 T01170100 58005=
201609261353 METAR KCLM 261353Z AUTO 18006KT 10SM CLR 11/09 A3016 RMK AO2 SLP215 T01110089=
201609261253 METAR KCLM 261253Z AUTO 17003KT 10SM CLR 11/09 A3018 RMK AO2 SLP221 T01110089=
201609261153 METAR KCLM 261153Z AUTO 12009KT 10SM CLR 12/09 A3017 RMK AO2 SLP216 T01170089 10133 20100 58026=
201609261053 METAR KCLM 261053Z AUTO 13006KT 10SM CLR 12/09 A3019 RMK AO2 SLP225 T01170089=
201609260953 METAR KCLM 260953Z AUTO 13006KT 10SM CLR 13/09 A3023 RMK AO2 SLP236 T01280094=
201609260853 METAR KCLM 260853Z AUTO 14007KT 10SM CLR 12/09 A3025 RMK AO2 SLP242 T01170089 58013=
201609260753 METAR KCLM 260753Z AUTO 13006KT 10SM CLR 12/09 A3026 RMK AO2 SLP248 T01220094 401830100=
201609260653 METAR KCLM 260653Z AUTO 13006KT 10SM CLR 12/09 A3027 RMK AO2 SLP252 T01170094=
201609260553 METAR KCLM 260553Z AUTO 00000KT 10SM CLR 11/09 A3028 RMK AO2 SLP255 T01110089 10178 20111 58010=
201609260453 METAR KCLM 260453Z AUTO 11004KT 10SM CLR 12/10 A3029 RMK AO2 SLP258 T01220100=
201609260353 METAR KCLM 260353Z AUTO 15004KT 10SM CLR 13/10 A3031 RMK AO2 SLP265 T01280100=
201609260253 METAR KCLM 260253Z AUTO 15003KT 10SM CLR 13/09 A3031 RMK AO2 SLP265 T01330094 56019=
201609260153 METAR KCLM 260153Z AUTO 13005KT 10SM CLR 16/09 A3032 RMK AO2 SLP267 T01560094=
201609260053 METAR KCLM 260053Z AUTO 13005KT 10SM CLR 17/09 A3035 RMK AO2 SLP276 T01720094=
201609252353 METAR KCLM 252353Z AUTO VRB03KT 10SM CLR 17/10 A3037 RMK AO2 SLP284 T01720100 10183 20144 56015=
201609252253 METAR KCLM 252253Z AUTO 10005KT 10SM CLR 18/11 A3037 RMK AO2 SLP285 T01780106=
201609252153 METAR KCLM 252153Z AUTO 09005KT 10SM SCT035 17/11 A3040 RMK AO2 SLP293 T01720106=
201609252053 METAR KCLM 252053Z AUTO VRB06KT 10SM BKN034 17/11 A3041 RMK AO2 SLP299 T01720111 58004=
201609251953 METAR KCLM 251953Z AUTO 11005KT 10SM FEW014 SCT036 BKN070 16/11 A3042 RMK AO2 SLP300 T01610111=
201609251938 SPECI KCLM 251938Z AUTO 07005KT 10SM FEW014 BKN036 16/11 A3042 RMK AO2 T01610111=
201609251853 METAR KCLM 251853Z AUTO 10005KT 10SM OVC011 15/11 A3043 RMK AO2 SLP304 T01500111=
201609251810 SPECI KCLM 251810Z AUTO 10007KT 10SM OVC010 14/11 A3042 RMK AO2 T01440111=
201609251753 METAR KCLM 251753Z AUTO 08006KT 10SM OVC009 14/11 A3043 RMK AO2 SLP304 60000 T01440111 10144 20122 51008=
201609251742 SPECI KCLM 251742Z AUTO 10004KT 10SM OVC009 14/11 A3042 RMK AO2 T01390111=
201609251705 SPECI KCLM 251705Z AUTO VRB03KT 10SM BKN010 OVC035 14/11 A3042 RMK AO2 T01390111=
201609251653 METAR KCLM 251653Z AUTO 09003KT 10SM FEW010 OVC035 14/11 A3042 RMK AO2 SLP301 T01390111=
201609251553 METAR KCLM 251553Z AUTO 00000KT 10SM OVC037 13/11 A3041 RMK AO2 SLP299 T01330106=
201609251453 METAR KCLM 251453Z AUTO 00000KT 10SM OVC039 13/11 A3040 RMK AO2 SLP296 60000 T01330111 53007=
201609251353 METAR KCLM 251353Z AUTO 15003KT 10SM OVC040 13/11 A3039 RMK AO2 SLP292 T01280106=
201609251253 METAR KCLM 251253Z AUTO 14004KT 10SM OVC040 13/11 A3038 RMK AO2 RAE1159B25E39 SLP289 P0000 T01280111=
201609251153 METAR KCLM 251153Z AUTO 00000KT 8SM -RA OVC043 13/11 A3038 RMK AO2 SLP288 P0000 60000 T01280106 10139 20128 58001=
201609251053 METAR KCLM 251053Z AUTO 17003KT 10SM -RA OVC048 13/10 A3038 RMK AO2 RAB39 SLP289 P0000 T01280100=
201609250953 METAR KCLM 250953Z AUTO 00000KT 10SM OVC049 13/10 A3038 RMK AO2 SLP289 T01280100=
201609250853 METAR KCLM 250853Z AUTO 00000KT 10SM OVC049 13/11 A3038 RMK AO2 SLP289 T01330106 58006=
201609250753 METAR KCLM 250753Z AUTO 17003KT 10SM OVC055 13/11 A3039 RMK AO2 SLP290 T01330106 401560072=
201609250653 METAR KCLM 250653Z AUTO 00000KT 10SM OVC060 13/11 A3041 RMK AO2 SLP296 T01330106=
201609250553 METAR KCLM 250553Z AUTO 00000KT 10SM BKN031 OVC060 13/10 A3040 RMK AO2 SLP294 60000 T01330100 10144 20128 51018=
201609250453 METAR KCLM 250453Z AUTO 00000KT 10SM OVC060 13/10 A3038 RMK AO2 SLP288 T01330100=
201609250353 METAR KCLM 250353Z AUTO 00000KT 10SM OVC065 13/11 A3037 RMK AO2 SLP285 T01330106=
201609250253 METAR KCLM 250253Z AUTO 00000KT 10SM OVC070 13/10 A3035 RMK AO2 SLP278 60000 T01280100 55002=
201609250153 METAR KCLM 250153Z AUTO 00000KT 10SM OVC070 14/11 A3033 RMK AO2 SLP273 T01390106=
201609250053 METAR KCLM 250053Z AUTO 00000KT 10SM OVC075 14/10 A3034 RMK AO2 RAB01E16 SLP275 P0000 T01440100=
201609242353 METAR KCLM 242353Z AUTO 00000KT 10SM FEW070 BKN085 OVC110 13/09 A3035 RMK AO2 RAB25E50 SLP280 P0000 60000 T01280094 10156 20128 56006=
201609242253 METAR KCLM 242253Z AUTO 35003KT 10SM OVC100 14/09 A3036 RMK AO2 SLP282 T01440094=
201609242153 METAR KCLM 242153Z AUTO 05004KT 10SM BKN100 14/09 A3036 RMK AO2 SLP282 T01440089=
201609242053 METAR KCLM 242053Z AUTO 02004KT 10SM BKN110 14/09 A3037 RMK AO2 SLP284 T01440089 58008=
201609241953 METAR KCLM 241953Z AUTO 36005KT 10SM FEW120 15/09 A3039 RMK AO2 SLP290 T01500089=
201609241853 METAR KCLM 241853Z AUTO 00000KT 10SM SCT120 13/09 A3040 RMK AO2 SLP296 T01330089=
201609241753 METAR KCLM 241753Z AUTO 34004KT 10SM CLR 13/09 A3039 RMK AO2 SLP293 T01280089 10144 20072 53017=
201609241653 METAR KCLM 241653Z AUTO 03003KT 10SM CLR 14/09 A3037 RMK AO2 SLP286 T01390089=
201609241553 METAR KCLM 241553Z AUTO 00000KT 10SM CLR 12/08 A3035 RMK AO2 SLP277 T01220083=
201609241453 METAR KCLM 241453Z AUTO 20003KT 10SM CLR 10/07 A3034 RMK AO2 SLP277 T01000072 51020=
201609241353 METAR KCLM 241353Z AUTO 22005KT 10SM CLR 08/06 A3032 RMK AO2 SLP268 T00780061=
201609241253 METAR KCLM 241253Z AUTO 23005KT 10SM CLR 08/06 A3031 RMK AO2 SLP265 T00830061=
201609241153 METAR KCLM 241153Z AUTO 20004KT 10SM SCT042 10/07 A3029 RMK AO2 SLP255 70004 T01000067 10117 20094 51012=
201609241053 METAR KCLM 241053Z AUTO 27005KT 10SM CLR 11/07 A3028 RMK AO2 SLP253 T01060067=
201609240953 METAR KCLM 240953Z AUTO 27007KT 10SM CLR 10/07 A3027 RMK AO2 SLP249 T01000072=
201609240853 METAR KCLM 240853Z AUTO 27007KT 10SM SCT047 11/08 A3025 RMK AO2 SLP244 T01060083 51020=
201609240753 METAR KCLM 240753Z AUTO 27006KT 10SM SCT050 11/09 A3023 RMK AO2 SLP237 T01110089 401720100=
201609240653 METAR KCLM 240653Z AUTO 27007KT 10SM FEW003 10/09 A3021 RMK AO2 SLP232 T01000089=
201609240635 SPECI KCLM 240635Z AUTO 30005KT 10SM FEW003 10/09 A3020 RMK AO2 T01000089=
201609240553 METAR KCLM 240553Z AUTO 28008KT 10SM CLR 10/09 A3019 RMK AO2 SLP225 T01000089 10172 20100 51031=
201609240453 METAR KCLM 240453Z AUTO 31006KT 10SM FEW006 SCT040 12/11 A3017 RMK AO2 SLP219 T01220106=
201609240442 SPECI KCLM 240442Z AUTO 32005KT 10SM FEW006 FEW031 BKN040 13/11 A3017 RMK AO2 T01280106=
201609240418 SPECI KCLM 240418Z AUTO 33006KT 10SM SCT011 OVC032 13/11 A3015 RMK AO2 T01330106=
201609240407 SPECI KCLM 240407Z AUTO 33006KT 10SM BKN010 OVC033 13/11 A3015 RMK AO2 T01330106=
201609240353 METAR KCLM 240353Z AUTO 31006KT 10SM FEW012 OVC033 13/10 A3015 RMK AO2 SLP210 T01330100=
201609240253 METAR KCLM 240253Z AUTO 00000KT 10SM OVC041 13/10 A3010 RMK AO2 SLP193 T01280100 53034=
201609240153 METAR KCLM 240153Z AUTO 00000KT 10SM OVC065 14/10 A3007 RMK AO2 SLP183 T01390100=
201609240053 METAR KCLM 240053Z AUTO VRB04KT 10SM SCT060 14/09 A3003 RMK AO2 SLP168 T01390094=
201609232353 METAR KCLM 232353Z AUTO 09008KT 10SM CLR 17/10 A3000 RMK AO2 SLP158 T01720100 10172 20122 51020=
201609232253 METAR KCLM 232253Z AUTO 03004KT 10SM FEW033 SCT044 17/10 A2999 RMK AO2 SLP154 T01670100=
201609232153 METAR KCLM 232153Z AUTO VRB03KT 10SM SCT029 16/10 A2996 RMK AO2 SLP145 T01610100=
201609232141 SPECI KCLM 232141Z AUTO VRB04KT 10SM BKN029 16/10 A2996 RMK AO2 T01610100=
201609232053 METAR KCLM 232053Z AUTO 33004KT 10SM CLR 16/11 A2994 RMK AO2 SLP138 T01610106 51012=
201609232009 SPECI KCLM 232009Z AUTO 35003KT 10SM FEW013 16/10 A2993 RMK AO2 T01560100=
201609231953 METAR KCLM 231953Z AUTO 25004KT 10SM BKN011 16/11 A2993 RMK AO2 SLP136 T01560111=
201609231937 SPECI KCLM 231937Z AUTO VRB03KT 10SM OVC010 14/11 A2993 RMK AO2 T01440106=
201609231853 METAR KCLM 231853Z AUTO 30007KT 10SM BKN008 OVC065 13/11 A2991 RMK AO2 CIG 006V010 SLP130 T01330106=
201609231840 SPECI KCLM 231840Z AUTO 30007KT 10SM BKN008 OVC065 13/11 A2991 RMK AO2 CIG 005V010 T01280106=
201609231809 SPECI KCLM 231809Z AUTO 29007KT 10SM SCT006 OVC065 12/11 A2990 RMK AO2 T01220106=
201609231753 METAR KCLM 231753Z AUTO 27006KT 10SM BKN006 OVC070 12/11 A2990 RMK AO2 CIG 004V008 SLP127 60004 T01220106 10122 20111 55006=
201609231719 SPECI KCLM 231719Z AUTO 29007KT 6SM BR OVC005 12/10 A2989 RMK AO2 CIG 003V007 T01170100=
201609231653 METAR KCLM 231653Z AUTO 30004KT 10SM OVC004 12/11 A2988 RMK AO2 RAE01B06E16 CIG 003V007 SLP120 P0000 T01170106=
201609231625 SPECI KCLM 231625Z AUTO 30005KT 10SM BKN005 OVC085 12/11 A2988 RMK AO2 RAE01B06E16 P0000 T01220106=
201609231601 SPECI KCLM 231601Z AUTO 31004KT 10SM FEW003 FEW055 OVC090 12/10 A2990 RMK AO2 RAE01 P0000 T01170100=
201609231553 METAR KCLM 231553Z AUTO 32003KT 9SM -RA FEW055 BKN090 OVC100 11/10 A2990 RMK AO2 RAB52 SLP125 P0000 T01110100=
201609231453 METAR KCLM 231453Z AUTO 23004KT 10SM FEW045 SCT070 BKN090 11/10 A2992 RMK AO2 RAE45 SLP133 P0000 60004 T01110100 58028=
201609231353 METAR KCLM 231353Z AUTO 12006KT 10SM -RA BKN090 OVC100 12/09 A2995 RMK AO2 RAB20 SLP144 P0000 T01170094=
201609231253 METAR KCLM 231253Z AUTO 10004KT 10SM OVC080 12/10 A2998 RMK AO2 RAE26 SLP153 P0004 T01170100=
201609231153 METAR KCLM 231153Z AUTO 11006KT 5SM -RA BR BKN065 OVC080 12/10 A3001 RMK AO2 RAB01 SLP161 P0005 60005 70005 T01170100 10122 20111 58006=
201609231053 METAR KCLM 231053Z AUTO 00000KT 10SM FEW002 SCT028 OVC095 11/09 A3002 RMK AO2 SLP166 T01110089=
201609231046 SPECI KCLM 231046Z AUTO 00000KT 10SM FEW002 BKN029 OVC090 12/09 A3002 RMK AO2 T01170089=
201609230953 METAR KCLM 230953Z AUTO 21003KT 10SM BKN023 12/09 A3003 RMK AO2 SLP169 T01170089=
201609230853 METAR KCLM 230853Z AUTO 00000KT 10SM BKN023 11/09 A3002 RMK AO2 SLP167 T01110089 50000=
201609230800 METAR KCLM NIL=
201609230753 METAR KCLM 230753Z AUTO 00000KT 10SM OVC022 12/09 A3003 RMK AO2 SLP168 T01170089 401670056=
201609230653 METAR KCLM 230653Z AUTO 22003KT 10SM OVC023 12/09 A3003 RMK AO2 SLP170 T01170089=
201609230641 SPECI KCLM 230641Z AUTO 22005KT 10SM BKN024 12/09 A3004 RMK AO2 T01170089=
201609230553 METAR KCLM 230553Z AUTO 25004KT 10SM CLR 12/08 A3002 RMK AO2 SLP167 T01170083 10144 20111 58008=
201609230453 METAR KCLM 230453Z AUTO 26009KT 10SM CLR 12/08 A3004 RMK AO2 SLP175 T01170083=
201609230353 METAR KCLM 230353Z AUTO 26007KT 10SM CLR 12/08 A3005 RMK AO2 SLP176 T01170083=
201609230253 METAR KCLM 230253Z AUTO 28006KT 10SM CLR 12/08 A3005 RMK AO2 SLP176 T01170083 50001=
201609230153 METAR KCLM 230153Z AUTO 29005KT 10SM BKN085 13/09 A3005 RMK AO2 SLP177 T01280089=
201609230053 METAR KCLM 230053Z AUTO 31007KT 10SM CLR 13/09 A3005 RMK AO2 SLP177 T01330089=
201609222353 METAR KCLM 222353Z AUTO 30010KT 10SM CLR 14/09 A3005 RMK AO2 SLP175 T01440094 10167 20133 56007=
201609222253 METAR KCLM 222253Z AUTO 29005KT 10SM CLR 16/10 A3005 RMK AO2 SLP177 T01560100=
201609222153 METAR KCLM 222153Z AUTO 35005KT 10SM CLR 16/10 A3004 RMK AO2 SLP172 T01610100=
201609222053 METAR KCLM 222053Z AUTO 30010KT 10SM CLR 15/09 A3007 RMK AO2 SLP181 T01500094 53009=
201609221953 METAR KCLM 221953Z AUTO VRB06KT 10SM CLR 15/09 A3004 RMK AO2 SLP173 T01500094=
201609221853 METAR KCLM 221853Z AUTO 01006KT 10SM CLR 14/09 A3004 RMK AO2 SLP172 T01390089=
201609221753 METAR KCLM 221753Z AUTO 00000KT 10SM CLR 14/09 A3004 RMK AO2 SLP171 T01390089 10144 20056 51010=
201609221653 METAR KCLM 221653Z AUTO 36005KT 10SM CLR 13/08 A3003 RMK AO2 SLP169 T01280083=
201609221553 METAR KCLM 221553Z AUTO 31004KT 10SM CLR 12/08 A3003 RMK AO2 SLP168 T01220078=
201609221453 METAR KCLM 221453Z AUTO 00000KT 10SM CLR 08/05 A3001 RMK AO2 SLP162 T00780050 53008=
201609221353 METAR KCLM 221353Z AUTO 18003KT 10SM CLR 06/03 A3000 RMK AO2 SLP160 T00610033=
201609221253 METAR KCLM 221253Z AUTO 00000KT 10SM CLR 07/04 A2998 RMK AO2 SLP153 T00720044=
201609221153 METAR KCLM 221153Z AUTO 00000KT 10SM CLR 07/04 A2998 RMK AO2 SLP153 T00670039 10128 20067 51009=
201609221053 METAR KCLM 221053Z AUTO 00000KT 10SM CLR 08/05 A2998 RMK AO2 SLP151 T00830050=
201609220953 METAR KCLM 220953Z AUTO 27009KT 10SM CLR 11/04 A2997 RMK AO2 SLP149 T01110044=
201609220853 METAR KCLM 220853Z AUTO 24009KT 10SM CLR 12/04 A2996 RMK AO2 SLP144 T01220044 58005=
201609220753 METAR KCLM 220753Z AUTO 23009KT 10SM CLR 12/05 A2996 RMK AO2 SLP146 T01220050 402060078=
201609220653 METAR KCLM 220653Z AUTO 24008KT 10SM CLR 12/05 A2997 RMK AO2 SLP147 T01220050=
201609220553 METAR KCLM 220553Z AUTO 26010KT 10SM CLR 13/05 A2997 RMK AO2 SLP149 T01280050 10206 20100 57002=
201609220453 METAR KCLM 220453Z AUTO 25009KT 10SM CLR 13/05 A2997 RMK AO2 SLP149 T01330050=
201609220353 METAR KCLM 220353Z AUTO 25007KT 10SM CLR 14/06 A2998 RMK AO2 SLP152 T01390056=
201609220253 METAR KCLM 220253Z AUTO 29005KT 10SM CLR 13/07 A2998 RMK AO2 SLP152 T01280072 56015=
201609220153 METAR KCLM 220153Z AUTO 30004KT 10SM CLR 13/07 A2999 RMK AO2 SLP156 T01330072=
201609220053 METAR KCLM 220053Z AUTO 18004KT 10SM CLR 20/04 A2999 RMK AO2 SLP157 T02000044=
201609212353 METAR KCLM 212353Z AUTO 14005KT 10SM CLR 20/05 A3002 RMK AO2 SLP166 T02000050 10206 20172 56017=
201609212253 METAR KCLM 212253Z AUTO 10005KT 10SM CLR 20/05 A3004 RMK AO2 SLP171 T02000050=
201609212153 METAR KCLM 212153Z AUTO VRB04KT 10SM CLR 21/06 A3005 RMK AO2 SLP176 T02060056=
201609212053 METAR KCLM 212053Z AUTO 00000KT 10SM CLR 20/06 A3007 RMK AO2 SLP183 T02000056 58013=
201609211953 METAR KCLM 211953Z AUTO VRB03KT 10SM CLR 19/06 A3009 RMK AO2 SLP188 T01890056=
201609211853 METAR KCLM 211853Z AUTO 10005KT 10SM CLR 18/07 A3010 RMK AO2 SLP193 T01780072=
201609211753 METAR KCLM 211753Z AUTO 08006KT 10SM CLR 18/08 A3011 RMK AO2 SLP195 T01780083 10178 20078 56004=
201609211653 METAR KCLM 211653Z AUTO 00000KT 10SM CLR 17/08 A3011 RMK AO2 SLP195 T01670083=
201609211553 METAR KCLM 211553Z AUTO 24005KT 10SM CLR 13/08 A3011 RMK AO2 SLP197 T01330078=
201609211453 METAR KCLM 211453Z AUTO 24008KT 10SM CLR 11/07 A3012 RMK AO2 SLP200 T01060067 58003=
201609211353 METAR KCLM 211353Z AUTO 23006KT 10SM CLR 09/06 A3013 RMK AO2 SLP202 T00940061 $=
201609211253 METAR KCLM 211253Z AUTO 23005KT 10SM CLR 09/06 A3013 RMK AO2 SLP202 T00890061 $=
201609211153 METAR KCLM 211153Z AUTO 24007KT 10SM CLR 10/06 A3013 RMK AO2 SLP203 T01000061 10117 20083 53002 $=
201609211053 METAR KCLM 211053Z AUTO 24008KT 10SM CLR 11/06 A3013 RMK AO2 SLP201 T01110061 $=
201609210953 METAR KCLM 210953Z AUTO 23006KT 10SM BKN060 12/07 A3012 RMK AO2 SLP201 T01170067 $=
201609210853 METAR KCLM 210853Z AUTO 24007KT 10SM OVC055 12/07 A3012 RMK AO2 SLP201 T01170067 58001 $=
201609210753 METAR KCLM 210753Z AUTO 24007KT 10SM OVC050 12/07 A3013 RMK AO2 SLP201 T01170067 401830078 $=
201609210653 METAR KCLM 210653Z AUTO 23006KT 10SM OVC055 11/07 A3013 RMK AO2 SLP203 T01110067 $=
201609210553 METAR KCLM 210553Z AUTO 23005KT 10SM CLR 09/07 A3013 RMK AO2 SLP203 T00940067 10178 20089 50002 $=
201609210453 METAR KCLM 210453Z AUTO 24005KT 10SM CLR 12/07 A3014 RMK AO2 SLP206 T01170072 $=
201609210353 METAR KCLM 210353Z AUTO 23006KT 10SM CLR 10/08 A3013 RMK AO2 SLP205 T01000078=
201609210253 METAR KCLM 210253Z AUTO 28005KT 10SM CLR 11/08 A3012 RMK AO2 SLP201 T01110078 55001=
201609210153 METAR KCLM 210153Z AUTO 16004KT 10SM CLR 16/08 A3011 RMK AO2 SLP198 T01560078=
201609210053 METAR KCLM 210053Z AUTO 12004KT 10SM CLR 17/07 A3012 RMK AO2 SLP199 T01720072=
201609202353 METAR KCLM 202353Z AUTO VRB04KT 10SM CLR 18/07 A3013 RMK AO2 SLP201 T01780072 10183 20122 56011=
201609202253 METAR KCLM 202253Z AUTO VRB04KT 10SM CLR 18/08 A3013 RMK AO2 SLP203 T01830078=
201609202153 METAR KCLM 202153Z AUTO VRB05KT 10SM CLR 17/08 A3014 RMK AO2 SLP206 T01670083=
201609202053 METAR KCLM 202053Z AUTO 01004KT 10SM CLR 16/09 A3016 RMK AO2 SLP212 T01610094 58006=
201609202006 SPECI KCLM 202006Z AUTO 08004KT 10SM SCT019 17/09 A3016 RMK AO2 T01670094=
201609201953 METAR KCLM 201953Z AUTO VRB04KT 10SM BKN018 BKN026 16/09 A3016 RMK AO2 SLP213 T01610094=
201609201927 SPECI KCLM 201927Z AUTO 15005KT 10SM BKN016 OVC025 15/09 A3017 RMK AO2 T01500094=
201609201853 METAR KCLM 201853Z AUTO 13005KT 10SM OVC013 13/09 A3017 RMK AO2 SLP218 T01330094=
201609201814 SPECI KCLM 201814Z AUTO 14004KT 10SM OVC010 13/10 A3018 RMK AO2 T01330100=
201609201753 METAR KCLM 201753Z AUTO 00000KT 10SM OVC009 12/09 A3018 RMK AO2 SLP220 T01220094 10128 20078 51004=
201609201730 SPECI KCLM 201730Z AUTO 10004KT 10SM OVC009 12/09 A3018 RMK AO2 T01220094=
201609201653 METAR KCLM 201653Z AUTO VRB03KT 10SM OVC012 13/09 A3017 RMK AO2 SLP218 T01280094=
201609201637 SPECI KCLM 201637Z AUTO VRB03KT 10SM BKN012 OVC017 13/09 A3017 RMK AO2 T01280094=
201609201553 METAR KCLM 201553Z AUTO 00000KT 10SM BKN017 11/09 A3017 RMK AO2 SLP217 T01110094=
201609201500 SPECI KCLM 201500Z AUTO 00000KT 10SM BKN016 09/07 A3017 RMK AO2 T00890072=
201609201453 METAR KCLM 201453Z AUTO 00000KT 10SM SCT016 08/07 A3017 RMK AO2 SLP216 T00830067 53005=
201609201353 METAR KCLM 201353Z AUTO 10003KT 9SM CLR 08/07 A3016 RMK AO2 SLP213 T00830067=
201609201253 METAR KCLM 201253Z AUTO 00000KT 10SM BKN075 09/08 A3015 RMK AO2 SLP211 T00940083=
201609201153 METAR KCLM 201153Z AUTO 24003KT 10SM OVC075 11/09 A3015 RMK AO2 SLP209 70016 T01060089 10122 20100 53001=
201609201053 METAR KCLM 201053Z AUTO 00000KT 10SM OVC075 11/09 A3015 RMK AO2 SLP209 T01060089=
201609200953 METAR KCLM 200953Z AUTO 25003KT 10SM OVC080 11/09 A3015 RMK AO2 SLP208 T01060089=
201609200853 METAR KCLM 200853Z AUTO 00000KT 10SM OVC075 12/09 A3015 RMK AO2 SLP208 T01170094 53003=
201609200753 METAR KCLM 200753Z AUTO 00000KT 10SM BKN065 OVC080 12/09 A3014 RMK AO2 SLP205 T01170089 401670117=
201609200653 METAR KCLM 200653Z AUTO 31003KT 10SM OVC060 12/10 A3014 RMK AO2 SLP207 T01220100=
201609200553 METAR KCLM 200553Z AUTO 00000KT 10SM OVC075 12/11 A3014 RMK AO2 SLP205 T01220106 10156 20117 51005=
201609200453 METAR KCLM 200453Z AUTO 00000KT 10SM OVC075 12/10 A3013 RMK AO2 SLP204 T01220100=
201609200353 METAR KCLM 200353Z AUTO 00000KT 10SM OVC065 13/10 A3013 RMK AO2 SLP202 T01330100=
201609200253 METAR KCLM 200253Z AUTO 00000KT 10SM OVC060 14/09 A3012 RMK AO2 SLP199 T01390094 53006=
201609200153 METAR KCLM 200153Z AUTO 00000KT 10SM OVC075 14/09 A3010 RMK AO2 SLP194 T01390094=
201609200053 METAR KCLM 200053Z AUTO 34004KT 10SM FEW060 BKN080 BKN090 14/09 A3011 RMK AO2 SLP194 T01440089=
201609192353 METAR KCLM 192353Z AUTO 35003KT 10SM BKN070 14/09 A3010 RMK AO2 SLP193 T01440089 10167 20133 51006=
201609192253 METAR KCLM 192253Z AUTO 00000KT 10SM FEW047 BKN065 OVC075 16/09 A3010 RMK AO2 SLP191 T01560094=
201609192153 METAR KCLM 192153Z AUTO 00000KT 10SM BKN065 OVC075 15/09 A3009 RMK AO2 SLP189 T01500094=
201609192053 METAR KCLM 192053Z AUTO 01004KT 10SM BKN065 16/09 A3008 RMK AO2 SLP187 T01610094 51012=
201609191953 METAR KCLM 191953Z AUTO VRB05KT 10SM BKN070 16/09 A3008 RMK AO2 SLP186 T01560089=
201609191853 METAR KCLM 191853Z AUTO 33005KT 10SM BKN065 16/11 A3007 RMK AO2 SLP181 T01560106=
201609191753 METAR KCLM 191753Z AUTO VRB04KT 10SM SCT095 BKN120 15/11 A3005 RMK AO2 RAE30 SLP175 P0006 60016 T01500106 10150 20117 50011=
201609191724 SPECI KCLM 191724Z AUTO 21006KT 7SM -RA SCT050 BKN065 OVC100 13/11 A3005 RMK AO2 P0006 T01330106=
201609191717 SPECI KCLM 191717Z AUTO 18006KT 2 1/2SM -RA BKN055 OVC070 13/10 A3005 RMK AO2 P0006 T01280100=
201609191653 METAR KCLM 191653Z AUTO 28008G17KT 8SM -RA FEW048 BKN060 OVC075 13/11 A3005 RMK AO2 SLP177 P0004 T01330106=
201609191553 METAR KCLM 191553Z AUTO 26007KT 7SM -RA OVC070 13/11 A3002 RMK AO2 RAE1459B16 SLP166 P0002 T01330106=
201609191453 METAR KCLM 191453Z AUTO 21004KT 10SM -RA BKN060 OVC075 12/11 A3002 RMK AO2 SLP164 P0004 60004 T01220106 53004=
201609191353 METAR KCLM 191353Z AUTO 25008KT 10SM -RA BKN065 13/09 A3001 RMK AO2 RAB51 SLP163 P0000 T01280094=
201609191253 METAR KCLM 191253Z AUTO 22004KT 10SM SCT065 BKN080 13/09 A3000 RMK AO2 SLP158 T01280094=
201609191153 METAR KCLM 191153Z AUTO 00000KT 10SM SCT060 BKN100 12/11 A3001 RMK AO2 RAE27 SLP161 P0004 60006 70009 T01170106 10133 20111 56006=
201609191053 METAR KCLM 191053Z AUTO 22004KT 9SM -RA BKN070 OVC085 12/11 A3001 RMK AO2 RAB24 SLP162 P0002 T01220106=
201609190953 METAR KCLM 190953Z AUTO 21003KT 10SM BKN060 12/11 A3002 RMK AO2 SLP165 T01220106=
201609190853 METAR KCLM 190853Z AUTO 00000KT 10SM BKN060 BKN080 12/11 A3002 RMK AO2 RAB13E27 SLP166 P0000 60000 T01170106 58001=
201609190753 METAR KCLM 190753Z AUTO 22005KT 10SM OVC060 12/11 A3003 RMK AO2 SLP169 T01220106 401890083=
201609190653 METAR KCLM 190653Z AUTO VRB04KT 10SM BKN070 OVC090 12/11 A3003 RMK AO2 SLP169 T01220106=
201609190553 METAR KCLM 190553Z AUTO 00000KT 8SM FEW120 11/10 A3003 RMK AO2 SLP168 60003 T01110100 10161 20106 58005=
201609190453 METAR KCLM 190453Z AUTO 00000KT 10SM BKN090 13/11 A3003 RMK AO2 SLP170 T01280111=
201609190353 METAR KCLM 190353Z AUTO 21003KT 10SM SCT065 OVC090 14/12 A3004 RMK AO2 SLP173 T01390117=
201609190253 METAR KCLM 190253Z AUTO 22003KT 10SM SCT060 OVC085 14/12 A3004 RMK AO2 RAB0155E14 SLP172 P0000 60003 T01390122 56005=
201609190153 METAR KCLM 190153Z AUTO 21004KT 10SM FEW026 SCT070 OVC090 15/13 A3005 RMK AO2 SLP176 T01500128=
201609190053 METAR KCLM 190053Z AUTO 30003KT 9SM FEW095 14/12 A3005 RMK AO2 RAE28 SLP175 P0003 T01440122=
201609190019 SPECI KCLM 190019Z AUTO 00000KT 5SM -RA FEW050 BKN065 OVC090 16/13 A3005 RMK AO2 P0003 T01560128=
201609190007 SPECI KCLM 190007Z AUTO 00000KT 2 1/2SM -RA SCT049 OVC065 15/12 A3005 RMK AO2 VIS 1 3/4V4 P0003 T01500117=
201609182353 METAR KCLM 182353Z AUTO 30005KT 10SM -RA BKN049 OVC060 16/11 A3006 RMK AO2 RAB49 SLP178 P0000 60000 T01610106 10189 20150 55005=
201609182253 METAR KCLM 182253Z AUTO 04003KT 10SM FEW070 BKN095 16/09 A3005 RMK AO2 SLP177 T01610094=
201609182153 METAR KCLM 182153Z AUTO 03005KT 10SM FEW075 SCT090 18/09 A3005 RMK AO2 SLP177 T01830089=
201609182053 METAR KCLM 182053Z AUTO 09004KT 10SM FEW065 17/11 A3007 RMK AO2 SLP183 T01720106 53003=
201609181953 METAR KCLM 181953Z AUTO VRB04KT 10SM SCT065 BKN080 16/11 A3007 RMK AO2 SLP181 T01610111=
201609181853 METAR KCLM 181853Z AUTO 36006KT 10SM CLR 16/11 A3007 RMK AO2 SLP182 T01560111=
201609181753 METAR KCLM 181753Z AUTO 34006KT 10SM FEW060 16/11 A3006 RMK AO2 SLP180 T01610111 10172 20089 53003=
201609181653 METAR KCLM 181653Z AUTO 00000KT 10SM FEW039 OVC060 16/08 A3006 RMK AO2 SLP178 T01610078=
201609181553 METAR KCLM 181553Z AUTO 26008KT 10SM OVC070 14/08 A3006 RMK AO2 SLP177 T01440083=
201609181453 METAR KCLM 181453Z AUTO 25006KT 10SM CLR 11/08 A3006 RMK AO2 SLP178 T01110083 53004=
201609181353 METAR KCLM 181353Z AUTO 17003KT 10SM BKN050 09/07 A3004 RMK AO2 SLP174 T00940072=
201609181253 METAR KCLM 181253Z AUTO 25003KT 10SM BKN050 12/08 A3004 RMK AO2 SLP173 T01220078=
201609181153 METAR KCLM 181153Z AUTO 20005KT 10SM SCT047 11/08 A3004 RMK AO2 SLP173 70023 T01060083 10144 20083 51010=
201609181053 METAR KCLM 181053Z AUTO 29006KT 10SM FEW050 12/08 A3003 RMK AO2 SLP170 T01220083=
201609180953 METAR KCLM 180953Z AUTO 00000KT 10SM CLR 11/08 A3002 RMK AO2 SLP166 T01060083=
201609180853 METAR KCLM 180853Z AUTO 16005KT 10SM CLR 12/10 A3001 RMK AO2 SLP163 T01170100 53012=
201609180753 METAR KCLM 180753Z AUTO 00000KT 10SM CLR 11/09 A3000 RMK AO2 SLP158 T01110094 402000106=
201609180653 METAR KCLM 180653Z AUTO 25009KT 10SM CLR 14/09 A2998 RMK AO2 SLP153 T01440094=
201609180553 METAR KCLM 180553Z AUTO 25009KT 10SM CLR 14/10 A2998 RMK AO2 SLP151 60000 T01440100 10144 20111 51012=
201609180453 METAR KCLM 180453Z AUTO 25006KT 10SM CLR 12/11 A2997 RMK AO2 SLP148 T01220106=
201609180353 METAR KCLM 180353Z AUTO 22004KT 10SM FEW048 SCT100 12/11 A2995 RMK AO2 SLP143 T01220106=
201609180314 SPECI KCLM 180314Z AUTO 00000KT 10SM FEW008 BKN048 OVC060 13/12 A2995 RMK AO2 T01330117=
201609180253 METAR KCLM 180253Z AUTO 23004KT 10SM SCT047 BKN060 OVC080 13/12 A2994 RMK AO2 SLP139 60000 T01330117 51016=
201609180153 METAR KCLM 180153Z AUTO 32007KT 10SM OVC050 13/12 A2993 RMK AO2 RAE23 SLP134 P0000 T01280117=
201609180053 METAR KCLM 180053Z AUTO 29011KT 10SM -RA BKN060 OVC080 13/11 A2991 RMK AO2 RAB33 SLP128 P0000 T01330111=
201609180018 SPECI KCLM 180018Z AUTO 29020G25KT 10SM FEW009 OVC085 13/11 A2991 RMK AO2 T01330111=
201609172353 METAR KCLM 172353Z AUTO 31017G25KT 10SM FEW048 SCT065 OVC090 14/11 A2989 RMK AO2 PK WND 30029/2320 SLP123 60004 T01440111 10200 20139 53016=
201609172253 METAR KCLM 172253Z AUTO 30014G22KT 10SM SCT050 BKN060 OVC095 18/11 A2987 RMK AO2 SLP114 T01780111=
201609172153 METAR KCLM 172153Z AUTO 30013G19KT 10SM BKN050 BKN060 OVC080 18/13 A2986 RMK AO2 SLP111 T01780128=
201609172053 METAR KCLM 172053Z AUTO 28012KT 10SM FEW110 20/13 A2985 RMK AO2 SLP107 60004 T02000133 51012=
201609171953 METAR KCLM 171953Z AUTO 00000KT 8SM FEW001 OVC095 15/13 A2984 RMK AO2 RAE34 SLP104 P0002 T01500133=
201609171909 SPECI KCLM 171909Z AUTO 31005KT 3SM -RA BR FEW029 OVC075 16/14 A2983 RMK AO2 P0000 T01610139=
201609171859 SPECI KCLM 171859Z AUTO 35008G16KT 1 1/2SM -RA FEW028 BKN065 OVC080 16/13 A2983 RMK AO2 P0000 T01560128=
201609171853 METAR KCLM 171853Z AUTO 27012G18KT 10SM -RA BKN070 OVC080 19/14 A2982 RMK AO2 RAB07 SLP099 P0002 T01890139=
201609171832 SPECI KCLM 171832Z AUTO VRB05KT 5SM -RA BR SCT003 OVC070 15/13 A2982 RMK AO2 RAB07 P0000 T01500133=
201609171753 METAR KCLM 171753Z AUTO 00000KT 10SM BKN004 OVC090 14/13 A2981 RMK AO2 RAE17 SLP095 P0000 60019 T01440128 10144 20122 55002=
201609171737 SPECI KCLM 171737Z AUTO 29003KT 4SM BR BKN002 OVC080 13/13 A2981 RMK AO2 RAE17 P0000 T01330128=
201609171735 SPECI KCLM 171735Z AUTO 25004KT 1 1/4SM BR BKN002 OVC080 13/13 A2981 RMK AO2 RAE17 P0000 T01330128=
201609171725 SPECI KCLM 171725Z AUTO 31007KT 3/4SM BR BKN001 OVC085 13/12 A2980 RMK AO2 RAE17 P0000 T01330122=
201609171722 SPECI KCLM 171722Z AUTO 33005KT 2 1/2SM BR BKN001 OVC085 14/12 A2980 RMK AO2 VIS 3/4V5 RAE17 P0000 T01390122=
201609171653 METAR KCLM 171653Z AUTO 34004KT 7SM -RA FEW001 OVC075 13/12 A2979 RMK AO2 RAE25B43 SLP088 P0001 T01330122=
201609171553 METAR KCLM 171553Z AUTO 19003KT 5SM -RA BR SCT044 BKN055 OVC070 13/12 A2981 RMK AO2 SLP093 P0004 T01280117=
201609171540 SPECI KCLM 171540Z AUTO 30003KT 4SM -RA BR FEW001 BKN048 OVC060 13/12 A2981 RMK AO2 P0004 T01280117=
201609171533 SPECI KCLM 171533Z AUTO 28003KT 2 1/2SM -RA BR FEW001 BKN045 OVC060 12/11 A2981 RMK AO2 P0004 T01220111=
201609171512 SPECI KCLM 171512Z AUTO 00000KT 1 1/4SM -RA BR FEW001 BKN031 OVC055 12/11 A2982 RMK AO2 P0002 T01220111=
201609171459 SPECI KCLM 171459Z AUTO 00000KT 1/2SM -RA FG FEW001 OVC020 12/11 A2982 RMK AO2 P0000 T01220111=
201609171453 METAR KCLM 171453Z AUTO 00000KT 1/4SM -RA FG VV020 12/11 A2982 RMK AO2 SLP097 P0006 60014 T01220111 58027=
201609171446 SPECI KCLM 171446Z AUTO 00000KT 1/4SM -RA FG VV011 12/11 A2983 RMK AO2 P0004 T01220111=
201609171432 SPECI KCLM 171432Z AUTO 00000KT 1/4SM -RA FG VV002 12/11 A2983 RMK AO2 P0004 T01220111=
201609171422 SPECI KCLM 171422Z AUTO 33003KT 1/2SM -RA FG VV002 12/11 A2984 RMK AO2 P0002 T01220111=
201609171412 SPECI KCLM 171412Z AUTO 00000KT 1 1/2SM -RA BR OVC002 12/11 A2984 RMK AO2 P0002 T01220111=
201609171407 SPECI KCLM 171407Z AUTO 00000KT 2 1/2SM -RA BR BKN001 OVC095 13/11 A2984 RMK AO2 P0002 T01280111=
201609171353 METAR KCLM 171353Z AUTO 00000KT 5SM -RA BR BKN003 BKN080 OVC095 13/12 A2985 RMK AO2 SLP108 P0006 T01280117=
201609171313 SPECI KCLM 171313Z AUTO 08004KT 7SM -RA BKN002 OVC055 13/12 A2986 RMK AO2 P0000 T01330122=
201609171305 SPECI KCLM 171305Z AUTO 08004KT 8SM -RA SCT004 BKN055 OVC100 13/12 A2986 RMK AO2 P0000 T01330122=
201609171253 METAR KCLM 171253Z AUTO 09005KT 9SM -RA SCT012 BKN055 OVC100 13/12 A2987 RMK AO2 SLP113 P0002 T01330122=
201609171211 SPECI KCLM 171211Z AUTO 12004KT 10SM -RA OVC010 14/12 A2989 RMK AO2 CIG 006V011 P0002 T01390122=
201609171153 METAR KCLM 171153Z AUTO 11003KT 8SM -RA OVC006 13/13 A2990 RMK AO2 RAE1055B32 CIG 002V009 SLP124 P0000 60008 70008 T01330128 10144 20133 56018=
201609171120 SPECI KCLM 171120Z AUTO 07003KT 7SM BKN004 OVC007 14/13 A2991 RMK AO2 RAE1055 P0000 T01390128=
201609171053 METAR KCLM 171053Z AUTO 11005KT 7SM -RA BKN008 OVC046 14/13 A2991 RMK AO2 SLP128 P0002 T01390128=
201609171025 SPECI KCLM 171025Z AUTO 6SM -RA BR FEW006 BKN010 OVC045 14/13 A2992 RMK AO2 P0002 T01390128=
201609170953 METAR KCLM 170953Z AUTO 00000KT 8SM -RA OVC010 14/13 A2993 RMK AO2 RAE36B40 SLP136 P0002 T01390128=
201609170938 SPECI KCLM 170938Z AUTO 00000KT 10SM BKN011 OVC050 14/13 A2994 RMK AO2 RAE36 P0002 T01390128=
201609170853 METAR KCLM 170853Z AUTO 00000KT 5SM -RA BR OVC050 14/13 A2995 RMK AO2 SLP142 P0004 60004 T01390128 58007=
201609170753 METAR KCLM 170753Z AUTO 00000KT 8SM -RA OVC055 14/12 A2997 RMK AO2 RAB45 SLP147 P0000 T01390122 401780094=
201609170731 SPECI KCLM 170731Z AUTO 22004KT 10SM SCT011 SCT028 OVC060 14/12 A2997 RMK AO2 T01440122=
201609170653 METAR KCLM 170653Z AUTO 26007KT 10SM BKN012 BKN017 OVC060 14/12 A2998 RMK AO2 RAE17 SLP152 P0000 T01390122=
201609170643 SPECI KCLM 170643Z AUTO 27006KT 10SM SCT009 BKN015 OVC060 14/12 A2998 RMK AO2 RAE17 P0000 T01390122=
201609170636 SPECI KCLM 170636Z AUTO 26006KT 10SM SCT007 BKN013 OVC060 14/12 A2998 RMK AO2 RAE17 P0000 T01390122=
201609170626 SPECI KCLM 170626Z AUTO 27005KT 10SM BKN009 BKN016 OVC065 14/12 A2997 RMK AO2 RAE17 CIG 006V012 P0000 T01390122=
201609170619 SPECI KCLM 170619Z AUTO 29005KT 10SM SCT007 BKN014 OVC065 14/12 A2997 RMK AO2 RAE17 P0000 T01390122=
201609170600 SPECI KCLM 170600Z AUTO 27005KT 10SM -RA FEW007 FEW011 OVC065 14/12 A2998 RMK AO2 P0000 T01390122=
201609170553 METAR KCLM 170553Z AUTO 29006KT 10SM -RA SCT007 BKN011 OVC070 14/12 A2997 RMK AO2 RAB52 SLP150 P0000 60000 T01390122 10156 20139 58003=
201609170514 SPECI KCLM 170514Z AUTO 27005KT 10SM BKN008 OVC075 14/12 A2998 RMK AO2 CIG 007V012 T01390122=
201609170502 SPECI KCLM 170502Z AUTO 27006KT 10SM SCT008 OVC075 14/12 A2998 RMK AO2 T01440122=
201609170453 METAR KCLM 170453Z AUTO 26005KT 10SM OVC080 14/12 A2998 RMK AO2 RAB40E49 SLP152 P0000 T01440122=
201609170353 METAR KCLM 170353Z AUTO 28007KT 10SM OVC080 14/12 A2998 RMK AO2 SLP153 T01390117=
201609170253 METAR KCLM 170253Z AUTO 23003KT 10SM OVC090 14/12 A2998 RMK AO2 RAE43 SLP153 P0000 60000 T01390122 58009=
201609170153 METAR KCLM 170153Z AUTO 31004KT 10SM -RA BKN110 14/12 A3000 RMK AO2 RAB42 SLP160 P0000 T01440117=
201609170053 METAR KCLM 170053Z AUTO 27005KT 10SM BKN110 15/11 A3000 RMK AO2 SLP159 T01500111=
201609162353 METAR KCLM 162353Z AUTO 26005KT 10SM CLR 16/12 A3001 RMK AO2 SLP162 T01560117 10178 20144 56012=
201609162253 METAR KCLM 162253Z AUTO 31007KT 10SM CLR 16/12 A3001 RMK AO2 SLP163 T01610117=
201609162153 METAR KCLM 162153Z AUTO 32007KT 10SM FEW120 17/12 A3003 RMK AO2 SLP169 T01670117=
201609162053 METAR KCLM 162053Z AUTO 31010KT 10SM FEW120 16/11 A3005 RMK AO2 SLP174 T01610111 56007=
201609161953 METAR KCLM 161953Z AUTO 31004KT 10SM OVC120 15/11 A3006 RMK AO2 SLP177 T01500111=
201609161853 METAR KCLM 161853Z AUTO 36005KT 10SM CLR 16/12 A3006 RMK AO2 SLP177 T01560117=
201609161753 METAR KCLM 161753Z AUTO VRB04KT 10SM CLR 14/12 A3007 RMK AO2 SLP182 T01440117 10150 20094 56005=
201609161653 METAR KCLM 161653Z AUTO 00000KT 10SM CLR 14/12 A3007 RMK AO2 SLP183 T01440117=
201609161553 METAR KCLM 161553Z AUTO 00000KT 10SM CLR 13/11 A3007 RMK AO2 SLP183 T01330111=
201609161453 METAR KCLM 161453Z AUTO 00000KT 10SM CLR 12/11 A3008 RMK AO2 SLP187 T01220106 56005=
201609161416 SPECI KCLM 161416Z AUTO 21003KT 10SM FEW004 12/10 A3009 RMK AO2 T01170100=
201609161353 METAR KCLM 161353Z AUTO 24004KT 10SM CLR 10/09 A3009 RMK AO2 SLP189 T01000089=
201609161253 METAR KCLM 161253Z AUTO 00000KT 10SM CLR 11/09 A3008 RMK AO2 SLP184 T01110094=
201609161153 METAR KCLM 161153Z AUTO 25003KT 10SM CLR 12/10 A3010 RMK AO2 SLP192 T01170100 10128 20089 58005=
201609161053 METAR KCLM 161053Z AUTO 29004KT 10SM CLR 12/11 A3011 RMK AO2 SLP197 T01220106=
201609160953 METAR KCLM 160953Z AUTO 29003KT 10SM CLR 11/09 A3012 RMK AO2 SLP199 T01110094=
201609160853 METAR KCLM 160853Z AUTO 28004KT 10SM CLR 12/11 A3011 RMK AO2 SLP198 T01170106 58007=
201609160753 METAR KCLM 160753Z AUTO 28008KT 10SM CLR 10/08 A3014 RMK AO2 SLP205 T01000083 401830078=
201609160653 METAR KCLM 160653Z AUTO 22004KT 10SM CLR 11/09 A3012 RMK AO2 SLP199 T01110094=
201609160553 METAR KCLM 160553Z AUTO 28005KT 10SM CLR 13/11 A3014 RMK AO2 SLP205 T01280106 10172 20122 51004=
201609160453 METAR KCLM 160453Z AUTO 28008KT 10SM CLR 13/11 A3014 RMK AO2 SLP205 T01330106=
201609160353 METAR KCLM 160353Z AUTO 29008KT 10SM CLR 13/11 A3013 RMK AO2 SLP203 T01330106=
201609160253 METAR KCLM 160253Z AUTO 29006KT 10SM CLR 13/10 A3012 RMK AO2 SLP202 T01280100 58006=
201609160153 METAR KCLM 160153Z AUTO 30005KT 10SM CLR 15/11 A3013 RMK AO2 SLP204 T01500106=
201609160053 METAR KCLM 160053Z AUTO 32005KT 10SM CLR 16/11 A3014 RMK AO2 SLP205 T01610106=
201609152353 METAR KCLM 152353Z AUTO VRB05KT 10SM CLR 17/11 A3014 RMK AO2 SLP207 T01720106 10183 20156 58010=
201609152253 METAR KCLM 152253Z AUTO 30007KT 10SM CLR 17/10 A3016 RMK AO2 SLP214 T01720100=
201609152153 METAR KCLM 152153Z AUTO 36004KT 10SM CLR 17/11 A3017 RMK AO2 SLP215 T01670106=
201609152053 METAR KCLM 152053Z AUTO VRB05KT 10SM CLR 17/11 A3017 RMK AO2 SLP217 T01670106 58005=
201609151953 METAR KCLM 151953Z AUTO VRB06KT 10SM CLR 16/11 A3018 RMK AO2 SLP219 T01610106=
201609151853 METAR KCLM 151853Z AUTO 04005KT 10SM CLR 16/11 A3019 RMK AO2 SLP221 T01610106=
201609151753 METAR KCLM 151753Z AUTO VRB04KT 10SM CLR 16/11 A3019 RMK AO2 SLP222 T01560106 10161 20078 53001=
201609151653 METAR KCLM 151653Z AUTO 00000KT 10SM CLR 16/11 A3018 RMK AO2 SLP221 T01610111=
201609151553 METAR KCLM 151553Z AUTO 30004KT 10SM CLR 14/11 A3019 RMK AO2 SLP221 T01390111=
201609151453 METAR KCLM 151453Z AUTO 23003KT 10SM CLR 11/09 A3018 RMK AO2 SLP222 T01060089 53008=
201609151424 SPECI KCLM 151424Z AUTO 23003KT 8SM FEW009 09/08 A3018 RMK AO2 T00890078=
201609151353 METAR KCLM 151353Z AUTO 22004KT 7SM SCT010 08/07 A3018 RMK AO2 SLP218 T00830072=
201609151253 METAR KCLM 151253Z AUTO 22004KT 10SM CLR 09/08 A3017 RMK AO2 SLP215 T00890078=
201609151153 METAR KCLM 151153Z AUTO 25005KT 10SM CLR 09/08 A3016 RMK AO2 SLP213 T00940083 10128 20094 53006=
201609151053 METAR KCLM 151053Z AUTO 24005KT 10SM CLR 10/08 A3015 RMK AO2 SLP211 T01000083=
201609150953 METAR KCLM 150953Z AUTO 25005KT 10SM CLR 11/09 A3015 RMK AO2 SLP209 T01060094=
201609150853 METAR KCLM 150853Z AUTO 25005KT 10SM CLR 11/10 A3014 RMK AO2 SLP207 T01110100 51005=
201609150753 METAR KCLM 150753Z AUTO 27006KT 10SM CLR 12/10 A3014 RMK AO2 SLP206 T01170100 402390072=
201609150653 METAR KCLM 150653Z AUTO 28008KT 10SM CLR 12/11 A3014 RMK AO2 SLP205 T01220106=
201609150553 METAR KCLM 150553Z AUTO 29008KT 10SM CLR 13/11 A3013 RMK AO2 SLP201 T01280106 10189 20128 51014=
201609150453 METAR KCLM 150453Z AUTO 28009KT 10SM CLR 13/11 A3012 RMK AO2 SLP198 T01280106=
201609150400 METAR KCLM NIL=
201609150353 METAR KCLM 150353Z AUTO 29011KT 10SM CLR 13/11 A3011 RMK AO2 SLP196 T01330111=
201609150253 METAR KCLM 150253Z AUTO 30008KT 10SM CLR 14/11 A3008 RMK AO2 SLP187 T01390106 53005=
201609150153 METAR KCLM 150153Z AUTO 31007KT 10SM CLR 17/10 A3007 RMK AO2 SLP183 T01720100=
201609150053 METAR KCLM 150053Z AUTO 32005KT 10SM CLR 18/08 A3007 RMK AO2 SLP182 T01830083=
201609142353 METAR KCLM 142353Z AUTO VRB03KT 10SM CLR 18/08 A3007 RMK AO2 SLP182 T01830078 10239 20172 53004=
201609142253 METAR KCLM 142253Z AUTO 35005KT 10SM CLR 19/09 A3006 RMK AO2 SLP180 T01940089=
201609142153 METAR KCLM 142153Z AUTO 35005KT 10SM CLR 19/10 A3006 RMK AO2 SLP178 T01940100=
201609142053 METAR KCLM 142053Z AUTO 09005KT 10SM CLR 22/09 A3006 RMK AO2 SLP178 T02220089 55001=
201609141953 METAR KCLM 141953Z AUTO 08006KT 10SM CLR 21/08 A3006 RMK AO2 SLP178 T02060083=
201609141853 METAR KCLM 141853Z AUTO 10007KT 10SM CLR 20/09 A3005 RMK AO2 SLP176 T02000089=
201609141753 METAR KCLM 141753Z AUTO 07007KT 10SM CLR 19/09 A3006 RMK AO2 SLP178 T01940094 10194 20072 53010=
201609141653 METAR KCLM 141653Z AUTO 05005KT 10SM CLR 18/09 A3005 RMK AO2 SLP176 T01830089=
201609141553 METAR KCLM 141553Z AUTO 09006KT 10SM CLR 18/08 A3004 RMK AO2 SLP171 T01830078=
201609141453 METAR KCLM 141453Z AUTO 00000KT 10SM CLR 12/07 A3003 RMK AO2 SLP168 T01220067 53014=
201609141353 METAR KCLM 141353Z AUTO 00000KT 10SM CLR 08/04 A3001 RMK AO2 SLP161 T00830039=
201609141253 METAR KCLM 141253Z AUTO 00000KT 10SM CLR 10/04 A2999 RMK AO2 SLP156 T01000039=
201609141153 METAR KCLM 141153Z AUTO 24005KT 10SM CLR 08/04 A2999 RMK AO2 SLP155 T00780039 10172 20072 51007=
201609141053 METAR KCLM 141053Z AUTO 00000KT 10SM CLR 11/04 A2999 RMK AO2 SLP154 T01060039=
201609140953 METAR KCLM 140953Z AUTO 00000KT 10SM CLR 10/04 A2998 RMK AO2 SLP150 T01000044=
201609140853 METAR KCLM 140853Z AUTO 00000KT 10SM CLR 08/03 A2997 RMK AO2 SLP148 T00830033 50001=
201609140753 METAR KCLM 140753Z AUTO 00000KT 10SM CLR 11/04 A2997 RMK AO2 SLP149 T01110039 402560078=
201609140653 METAR KCLM 140653Z AUTO 25004KT 10SM CLR 13/04 A2997 RMK AO2 SLP148 T01280039 TSNO=
201609140553 METAR KCLM 140553Z AUTO 24010KT 10SM CLR 16/03 A2996 RMK AO2 SLP146 T01610033 10256 20117 50001 TSNO=
201609140453 METAR KCLM 140453Z AUTO 25005KT 10SM CLR 13/05 A2997 RMK AO2 SLP147 T01330050=
201609140353 METAR KCLM 140353Z AUTO 23003KT 10SM CLR 12/07 A2997 RMK AO2 SLP149 T01170067=
201609140253 METAR KCLM 140253Z AUTO 23003KT 10SM CLR 14/07 A2996 RMK AO2 SLP145 T01440067 56008=
201609140153 METAR KCLM 140153Z AUTO 00000KT 10SM CLR 17/06 A2996 RMK AO2 SLP146 T01720061=
201609140053 METAR KCLM 140053Z AUTO 13003KT 10SM CLR 26/01 A2997 RMK AO2 SLP147 T02560006=
201609132353 METAR KCLM 132353Z AUTO 09005KT 10SM CLR 24/03 A2999 RMK AO2 SLP154 T02440028 10250 20194 56023=
201609132253 METAR KCLM 132253Z AUTO 07004KT 10SM CLR 24/04 A3000 RMK AO2 SLP159 T02390039=
201609132153 METAR KCLM 132153Z AUTO VRB04KT 10SM CLR 23/04 A3003 RMK AO2 SLP167 T02280039=
201609132053 METAR KCLM 132053Z AUTO 10006KT 10SM CLR 22/05 A3006 RMK AO2 SLP176 T02220050 58015=
201609131953 METAR KCLM 131953Z AUTO 09007KT 10SM CLR 22/06 A3007 RMK AO2 SLP184 T02170056=
201609131853 METAR KCLM 131853Z AUTO VRB05KT 10SM CLR 21/06 A3009 RMK AO2 SLP188 T02110056=
201609131753 METAR KCLM 131753Z AUTO 10006KT 10SM CLR 19/04 A3010 RMK AO2 SLP193 T01940044 10194 20100 58004=
201609131653 METAR KCLM 131653Z AUTO VRB05KT 10SM CLR 19/06 A3011 RMK AO2 SLP195 T01890056=
201609131553 METAR KCLM 131553Z AUTO 23003KT 10SM CLR 17/04 A3011 RMK AO2 SLP196 T01670044=
201609131453 METAR KCLM 131453Z AUTO 22005KT 10SM CLR 12/04 A3011 RMK AO2 SLP197 T01220039 55002=
201609131353 METAR KCLM 131353Z AUTO 23007KT 10SM CLR 11/03 A3011 RMK AO2 SLP196 T01060028=
201609131253 METAR KCLM 131253Z AUTO 24007KT 10SM CLR 11/03 A3011 RMK AO2 SLP196 T01060028=
201609131153 METAR KCLM 131153Z AUTO 23005KT 10SM CLR 10/03 A3012 RMK AO2 SLP200 T01000033 10139 20078 55001=
201609131053 METAR KCLM 131053Z AUTO 21003KT 10SM CLR 10/03 A3012 RMK AO2 SLP198 T01000033=
201609130953 METAR KCLM 130953Z AUTO 23008KT 10SM CLR 12/03 A3012 RMK AO2 SLP198 T01220028=
201609130853 METAR KCLM 130853Z AUTO 23008KT 10SM CLR 13/02 A3012 RMK AO2 SLP200 T01330022 56002=
201609130753 METAR KCLM 130753Z AUTO 23008KT 10SM CLR 13/03 A3012 RMK AO2 SLP200 T01280028 402280078=
201609130653 METAR KCLM 130653Z AUTO 23006KT 10SM CLR 13/03 A3013 RMK AO2 SLP201 T01330028=
201609130553 METAR KCLM 130553Z AUTO 24008KT 10SM CLR 14/03 A3013 RMK AO2 SLP202 T01390028 10228 20117 58006=
201609130453 METAR KCLM 130453Z AUTO 23008KT 10SM CLR 13/03 A3014 RMK AO2 SLP205 T01330028=
201609130353 METAR KCLM 130353Z AUTO 24007KT 10SM CLR 13/03 A3015 RMK AO2 SLP209 T01330033=
201609130253 METAR KCLM 130253Z AUTO 19005KT 10SM CLR 14/05 A3014 RMK AO2 SLP208 T01440050 55009=
201609130153 METAR KCLM 130153Z AUTO 16004KT 10SM CLR 21/01 A3014 RMK AO2 SLP207 T02060011=
201609130053 METAR KCLM 130053Z AUTO 13004KT 10SM CLR 22/01 A3016 RMK AO2 SLP212 T02220006=
201609122353 METAR KCLM 122353Z AUTO 10004KT 10SM CLR 22/03 A3017 RMK AO2 SLP217 T02220033 10222 20194 56017=
201609122253 METAR KCLM 122253Z AUTO VRB03KT 10SM CLR 21/04 A3019 RMK AO2 SLP223 T02110044=
201609122153 METAR KCLM 122153Z AUTO VRB05KT 10SM CLR 22/05 A3020 RMK AO2 SLP227 T02170050=
201609122053 METAR KCLM 122053Z AUTO 04007KT 10SM CLR 21/06 A3022 RMK AO2 SLP234 T02110056 58012=
201609121953 METAR KCLM 121953Z AUTO VRB06KT 10SM CLR 21/06 A3024 RMK AO2 SLP239 T02060056=
201609121853 METAR KCLM 121853Z AUTO VRB03KT 10SM CLR 20/06 A3025 RMK AO2 SLP244 T02000056=
201609121753 METAR KCLM 121753Z AUTO 04005KT 10SM CLR 19/06 A3026 RMK AO2 SLP246 T01940056 10200 20078 50002=
201609121653 METAR KCLM 121653Z AUTO 04004KT 10SM CLR 19/06 A3026 RMK AO2 SLP247 T01890056=
201609121553 METAR KCLM 121553Z AUTO 23004KT 10SM CLR 16/08 A3025 RMK AO2 SLP245 T01560078=
201609121453 METAR KCLM 121453Z AUTO 22007KT 10SM CLR 12/07 A3025 RMK AO2 SLP244 T01170067 53007=
201609121353 METAR KCLM 121353Z AUTO 24007KT 10SM CLR 09/06 A3024 RMK AO2 SLP240 T00940056=
201609121253 METAR KCLM 121253Z AUTO 22004KT 10SM CLR 09/06 A3023 RMK AO2 SLP237 T00940061=
201609121153 METAR KCLM 121153Z AUTO 00000KT 10SM CLR 08/06 A3023 RMK AO2 SLP237 T00830056 10122 20083 51007=
201609121053 METAR KCLM 121053Z AUTO 22005KT 10SM CLR 09/06 A3023 RMK AO2 SLP236 T00940056=
201609120953 METAR KCLM 120953Z AUTO 23007KT 10SM CLR 11/06 A3022 RMK AO2 SLP234 T01060056=
201609120853 METAR KCLM 120853Z AUTO 22004KT 10SM CLR 09/06 A3021 RMK AO2 SLP230 T00940056 53002=
201609120753 METAR KCLM 120753Z AUTO VRB04KT 10SM CLR 09/05 A3021 RMK AO2 SLP229 T00890050 402000078=
201609120653 METAR KCLM 120653Z AUTO 23004KT 10SM CLR 09/06 A3020 RMK AO2 SLP225 T00890056=
201609120553 METAR KCLM 120553Z AUTO 24006KT 10SM CLR 11/06 A3020 RMK AO2 SLP228 T01110061 10200 20094 51011=
201609120453 METAR KCLM 120453Z AUTO 23005KT 10SM CLR 12/08 A3019 RMK AO2 SLP224 T01170078=
201609120353 METAR KCLM 120353Z AUTO 28004KT 10SM CLR 12/08 A3019 RMK AO2 SLP223 T01170083=
201609120253 METAR KCLM 120253Z AUTO 30004KT 10SM CLR 14/08 A3017 RMK AO2 SLP217 T01440078 53001=
201609120153 METAR KCLM 120153Z AUTO 00000KT 10SM CLR 19/07 A3017 RMK AO2 SLP216 T01890067=
201609120053 METAR KCLM 120053Z AUTO 00000KT 10SM CLR 19/07 A3017 RMK AO2 SLP217 T01890072=
201609112353 METAR KCLM 112353Z AUTO 00000KT 10SM CLR 20/07 A3017 RMK AO2 SLP216 60000 T02000067 10200 20144 56007=
201609112253 METAR KCLM 112253Z AUTO 05004KT 10SM CLR 20/07 A3018 RMK AO2 SLP218 T02000072=
201609112153 METAR KCLM 112153Z AUTO 06006KT 10SM CLR 19/07 A3019 RMK AO2 SLP222 T01940072=
201609112053 METAR KCLM 112053Z AUTO 10006KT 10SM CLR 18/07 A3019 RMK AO2 SLP224 60000 T01830072 53001=
201609111953 METAR KCLM 111953Z AUTO 08007KT 10SM CLR 17/10 A3019 RMK AO2 SLP222 T01720100=
201609111853 METAR KCLM 111853Z AUTO VRB03KT 10SM CLR 17/09 A3018 RMK AO2 RAE1759 SLP221 P0000 T01670089=
201609111753 METAR KCLM 111753Z AUTO 12004KT 4SM -RA OVC031 14/11 A3019 RMK AO2 RAB48 SLP222 P0000 60000 T01440111 10150 20078 51017=
201609111653 METAR KCLM 111653Z AUTO 00000KT 10SM OVC033 14/10 A3018 RMK AO2 SLP221 T01390100=
201609111553 METAR KCLM 111553Z AUTO 00000KT 10SM FEW015 SCT022 BKN038 13/08 A3016 RMK AO2 SLP214 T01280078=
201609111453 METAR KCLM 111453Z AUTO 00000KT 10SM CLR 11/08 A3014 RMK AO2 SLP206 T01060078 53014=
201609111353 METAR KCLM 111353Z AUTO 21004KT 10SM FEW030 SCT040 BKN049 09/08 A3012 RMK AO2 SLP201 T00890078=
201609111253 METAR KCLM 111253Z AUTO 21005KT 10SM FEW016 09/07 A3011 RMK AO2 SLP195 T00890072=
201609111153 METAR KCLM 111153Z AUTO 22004KT 10SM CLR 10/07 A3010 RMK AO2 SLP191 T01000072 10128 20100 53004=
201609111053 METAR KCLM 111053Z AUTO 21003KT 10SM SCT046 OVC055 12/08 A3010 RMK AO2 SLP191 T01170083=
201609110953 METAR KCLM 110953Z AUTO 28005KT 10SM CLR 12/09 A3008 RMK AO2 SLP186 T01170089=
201609110853 METAR KCLM 110853Z AUTO 29007KT 10SM CLR 11/09 A3008 RMK AO2 SLP187 T01110094 56003=
201609110753 METAR KCLM 110753Z AUTO 29008KT 10SM CLR 12/09 A3008 RMK AO2 SLP187 T01170089 402000106=
201609110653 METAR KCLM 110653Z AUTO 26016KT 10SM CLR 12/09 A3009 RMK AO2 SLP189 T01220089=
201609110553 METAR KCLM 110553Z AUTO 29009KT 10SM CLR 12/09 A3009 RMK AO2 SLP190 T01170094 10183 20117 50002=
201609110453 METAR KCLM 110453Z AUTO 31010KT 10SM CLR 12/10 A3009 RMK AO2 SLP191 T01220100=
201609110353 METAR KCLM 110353Z AUTO 31010KT 10SM CLR 13/11 A3009 RMK AO2 SLP191 T01280106=
201609110300 SPECI KCLM 110300Z AUTO 29015KT 10SM FEW007 13/11 A3009 RMK AO2 T01280111=
201609110253 METAR KCLM 110253Z AUTO 28015KT 10SM BKN007 13/11 A3009 RMK AO2 SLP188 T01330111 56006=
201609110225 SPECI KCLM 110225Z AUTO 29011KT 10SM BKN007 14/12 A3009 RMK AO2 T01390117=
201609110217 SPECI KCLM 110217Z AUTO 28012G19KT 10SM SCT007 14/12 A3009 RMK AO2 T01390117=
201609110153 METAR KCLM 110153Z AUTO 28011KT 10SM FEW011 15/12 A3009 RMK AO2 SLP190 T01500122=
201609110053 METAR KCLM 110053Z AUTO 31009KT 10SM CLR 17/12 A3009 RMK AO2 SLP191 T01670122=
201609102353 METAR KCLM 102353Z AUTO 30009KT 10SM CLR 18/12 A3010 RMK AO2 SLP194 T01830122 10200 20172 58009=
201609102319 SPECI KCLM 102319Z AUTO 30011G17KT 10SM BKN030 19/13 A3011 RMK AO2 T01890128=
201609102253 METAR KCLM 102253Z AUTO 31010KT 10SM OVC027 18/13 A3012 RMK AO2 SLP199 T01780128=
201609102153 METAR KCLM 102153Z AUTO 29009KT 10SM OVC022 18/13 A3013 RMK AO2 SLP202 T01780128=
201609102053 METAR KCLM 102053Z AUTO 30008KT 10SM OVC017 18/13 A3013 RMK AO2 SLP203 T01780133 50000=
201609102046 SPECI KCLM 102046Z AUTO 29008KT 10SM OVC015 18/13 A3013 RMK AO2 T01780133=
201609102032 SPECI KCLM 102032Z AUTO 29009KT 10SM OVC013 18/13 A3013 RMK AO2 T01780133=
201609101953 METAR KCLM 101953Z AUTO 30010G15KT 10SM OVC015 18/13 A3013 RMK AO2 SLP204 T01780133=
201609101943 SPECI KCLM 101943Z AUTO 32009KT 290V360 10SM OVC015 18/14 A3013 RMK AO2 T01830139=
201609101853 METAR KCLM 101853Z AUTO 31008KT 10SM BKN014 OVC020 18/14 A3014 RMK AO2 SLP206 T01780139=
201609101828 SPECI KCLM 101828Z AUTO 31009KT 10SM BKN022 18/14 A3013 RMK AO2 T01830139=
201609101753 METAR KCLM 101753Z AUTO 31006KT 10SM CLR 19/14 A3013 RMK AO2 SLP203 T01890139 10194 20139 56008=
201609101653 METAR KCLM 101653Z AUTO 33005KT 10SM CLR 18/13 A3013 RMK AO2 SLP203 T01830133=
201609101553 METAR KCLM 101553Z AUTO 35004KT 10SM BKN060 17/12 A3014 RMK AO2 SLP205 T01720117=
201609101453 METAR KCLM 101453Z AUTO 25004KT 10SM BKN060 15/11 A3015 RMK AO2 SLP211 T01500111 56005=
201609101353 METAR KCLM 101353Z AUTO 25006KT 10SM OVC044 16/11 A3016 RMK AO2 SLP213 T01560106=
201609101253 METAR KCLM 101253Z AUTO 26008KT 10SM OVC048 15/11 A3015 RMK AO2 SLP211 T01500106=
201609101153 METAR KCLM 101153Z AUTO 24008KT 10SM CLR 14/11 A3017 RMK AO2 SLP217 T01390106 10139 20106 58006=
201609101053 METAR KCLM 101053Z AUTO 23006KT 10SM FEW019 11/09 A3018 RMK AO2 SLP218 T01060089=
201609100953 METAR KCLM 100953Z AUTO 29005KT 10SM CLR 12/09 A3019 RMK AO2 SLP224 T01170094=
201609100853 METAR KCLM 100853Z AUTO 26005KT 10SM CLR 12/09 A3019 RMK AO2 SLP223 T01220094 58017=
201609100753 METAR KCLM 100753Z AUTO 25004KT 10SM OVC080 13/09 A3021 RMK AO2 SLP230 T01280094 402000061=
201609100653 METAR KCLM 100653Z AUTO 24004KT 10SM CLR 12/09 A3023 RMK AO2 SLP236 T01170089=
201609100553 METAR KCLM 100553Z AUTO 00000KT 10SM CLR 12/09 A3024 RMK AO2 SLP240 T01220094 10200 20111 55006=
201609100453 METAR KCLM 100453Z AUTO 26005KT 10SM CLR 12/09 A3024 RMK AO2 SLP239 T01220094=
201609100353 METAR KCLM 100353Z AUTO 00000KT 10SM CLR 12/09 A3024 RMK AO2 SLP240 T01220094=
201609100253 METAR KCLM 100253Z AUTO 30003KT 10SM CLR 13/09 A3026 RMK AO2 SLP247 T01280094 58010=
201609100153 METAR KCLM 100153Z AUTO 00000KT 10SM CLR 16/10 A3026 RMK AO2 SLP249 T01560100=
201609100053 METAR KCLM 100053Z AUTO 35003KT 10SM CLR 17/09 A3029 RMK AO2 SLP257 T01670094=
201609092353 METAR KCLM 092353Z AUTO 03004KT 10SM CLR 19/08 A3029 RMK AO2 SLP256 T01940078 10200 20139 58015=
201609092253 METAR KCLM 092253Z AUTO VRB03KT 10SM CLR 19/08 A3031 RMK AO2 SLP262 T01890078=
201609092153 METAR KCLM 092153Z AUTO 05004KT 10SM CLR 18/08 A3032 RMK AO2 SLP267 T01830083=
201609092053 METAR KCLM 092053Z AUTO 03004KT 10SM CLR 18/09 A3033 RMK AO2 SLP271 T01830089 58009=
201609091953 METAR KCLM 091953Z AUTO 02005KT 10SM CLR 18/09 A3034 RMK AO2 SLP276 T01780094=
201609091853 METAR KCLM 091853Z AUTO VRB04KT 10SM CLR 16/11 A3035 RMK AO2 SLP278 T01610106=
201609091753 METAR KCLM 091753Z AUTO 02005KT 10SM CLR 14/11 A3036 RMK AO2 SLP280 T01440106 10150 20061 56003=
201609091653 METAR KCLM 091653Z AUTO 00000KT 9SM CLR 13/11 A3036 RMK AO2 SLP282 T01330106=
201609091553 METAR KCLM 091553Z AUTO 35004KT 10SM CLR 13/09 A3036 RMK AO2 SLP280 T01330094=
201609091453 METAR KCLM 091453Z AUTO 00000KT 10SM CLR 11/09 A3037 RMK AO2 SLP284 T01060094 53003=
201609091353 METAR KCLM 091353Z AUTO 00000KT 10SM CLR 08/06 A3036 RMK AO2 SLP283 T00780061=
201609091253 METAR KCLM 091253Z AUTO 00000KT 10SM CLR 07/06 A3035 RMK AO2 SLP280 T00720061=
201609091153 METAR KCLM 091153Z AUTO 00000KT 10SM CLR 08/07 A3036 RMK AO2 SLP281 T00780067 10117 20078 53004=
201609091053 METAR KCLM 091053Z AUTO 00000KT 10SM CLR 08/07 A3036 RMK AO2 SLP279 T00780067=
201609090953 METAR KCLM 090953Z AUTO 00000KT 9SM CLR 09/07 A3034 RMK AO2 SLP273 T00890072=
201609090853 METAR KCLM 090853Z AUTO 25004KT 10SM CLR 11/09 A3035 RMK AO2 SLP276 T01110089 53007=
201609090753 METAR KCLM 090753Z AUTO 23003KT 10SM CLR 10/08 A3034 RMK AO2 SLP273 T01000078 401890100=
201609090653 METAR KCLM 090653Z AUTO 18003KT 9SM CLR 10/08 A3034 RMK AO2 SLP272 T01000083=
201609090553 METAR KCLM 090553Z AUTO 29006KT 8SM CLR 11/09 A3033 RMK AO2 SLP269 T01110094 10161 20106 53011=
201609090453 METAR KCLM 090453Z AUTO 26005KT 9SM CLR 11/10 A3031 RMK AO2 SLP264 T01110100=
201609090353 METAR KCLM 090353Z AUTO 28004KT 10SM CLR 11/09 A3030 RMK AO2 SLP263 T01110094=
201609090253 METAR KCLM 090253Z AUTO 28007KT 10SM CLR 12/10 A3029 RMK AO2 SLP258 T01220100 50007=
201609090153 METAR KCLM 090153Z AUTO 28005KT 10SM CLR 14/10 A3030 RMK AO2 SLP260 T01390100=
201609090053 METAR KCLM 090053Z AUTO 32005KT 10SM CLR 15/11 A3028 RMK AO2 SLP253 T01500106=
201609082353 METAR KCLM 082353Z AUTO 33006KT 10SM CLR 16/11 A3027 RMK AO2 SLP251 T01610111 10189 20150 53000=
201609082253 METAR KCLM 082253Z AUTO 35007KT 10SM CLR 18/12 A3027 RMK AO2 SLP251 T01830117=
201609082153 METAR KCLM 082153Z AUTO 33006KT 10SM CLR 18/12 A3027 RMK AO2 SLP250 T01830117=
201609082053 METAR KCLM 082053Z AUTO 30012KT 10SM CLR 18/11 A3027 RMK AO2 SLP251 T01780111 51006=
201609081953 METAR KCLM 081953Z AUTO 31010KT 10SM CLR 17/11 A3027 RMK AO2 SLP250 T01670111=
201609081853 METAR KCLM 081853Z AUTO 33009KT 10SM BKN048 15/11 A3027 RMK AO2 SLP250 T01500111=
201609081753 METAR KCLM 081753Z AUTO 30007KT 10SM FEW011 15/12 A3025 RMK AO2 SLP245 T01500117 10156 20111 50011=
201609081653 METAR KCLM 081653Z AUTO 30008KT 10SM CLR 14/12 A3025 RMK AO2 SLP245 T01440117=
201609081553 METAR KCLM 081553Z AUTO 30008KT 10SM FEW005 13/12 A3023 RMK AO2 SLP238 T01330117=
201609081453 METAR KCLM 081453Z AUTO 28007KT 10SM CLR 13/10 A3022 RMK AO2 SLP233 T01280100 53008=
201609081353 METAR KCLM 081353Z AUTO 26006KT 10SM CLR 11/09 A3021 RMK AO2 SLP230 T01110089=
201609081253 METAR KCLM 081253Z AUTO 23004KT 10SM FEW010 12/11 A3019 RMK AO2 SLP224 T01170106=
201609081248 SPECI KCLM 081248Z AUTO 20003KT 10SM SCT010 12/11 A3019 RMK AO2=
201609081235 SPECI KCLM 081235Z AUTO 25006KT 10SM BKN010 12/11 A3019 RMK AO2 CIG 007V013 T01220106=
201609081153 METAR KCLM 081153Z AUTO 26006KT 10SM OVC009 13/12 A3019 RMK AO2 SLP222 70010 T01280117 10133 20100 51014=
201609081112 SPECI KCLM 081112Z AUTO 24007KT 10SM BKN013 OVC018 13/12 A3018 RMK AO2 T01330117=
201609081103 SPECI KCLM 081103Z AUTO 26004KT 10SM OVC015 13/12 A3018 RMK AO2 T01330117=
201609081053 METAR KCLM 081053Z AUTO 25006KT 10SM BKN012 OVC017 13/12 A3018 RMK AO2 SLP218 T01330117=
201609080953 METAR KCLM 080953Z AUTO 20003KT 10SM OVC013 13/12 A3016 RMK AO2 SLP214 T01280117=
201609080920 SPECI KCLM 080920Z AUTO 22005KT 10SM BKN011 12/11 A3015 RMK AO2 T01220111=
201609080859 SPECI KCLM 080859Z AUTO 23004KT 3SM BR FEW002 FEW011 11/11 A3015 RMK AO2 T01110106=
201609080856 SPECI KCLM 080856Z AUTO 22003KT 1SM BR FEW002 FEW011 11/11 A3015 RMK AO2 T01110106=
201609080853 METAR KCLM 080853Z AUTO 22003KT 1/2SM FG VV002 11/10 A3015 RMK AO2 SLP209 T01110100 51007=
201609080851 SPECI KCLM 080851Z AUTO 24003KT 1/2SM FG VV002 11/09 A3015 RMK AO2=
201609080842 SPECI KCLM 080842Z AUTO 24003KT 3/4SM BR VV010 11/09 A3014 RMK AO2 T01060094=
201609080839 SPECI KCLM 080839Z AUTO 24003KT 1 1/2SM BR FEW010 11/10 A3014 RMK AO2 T01060100=
201609080832 SPECI KCLM 080832Z AUTO 23004KT 7SM SCT010 12/11 A3014 RMK AO2 T01170106=
201609080753 METAR KCLM 080753Z AUTO 23005KT 7SM OVC010 12/11 A3013 RMK AO2 SLP204 T01220111 401720117=
201609080735 SPECI KCLM 080735Z AUTO 23004KT 6SM BR BKN010 12/11 A3013 RMK AO2 T01170106=
201609080728 SPECI KCLM 080728Z AUTO 24003KT 2 1/2SM BR BKN010 12/11 A3013 RMK AO2 T01220111=
201609080711 SPECI KCLM 080711Z AUTO 00000KT 1 3/4SM BR FEW006 12/11 A3013 RMK AO2 T01170111=
201609080704 SPECI KCLM 080704Z AUTO 00000KT 8SM SCT006 13/12 A3013 RMK AO2 T01280117=
201609080653 METAR KCLM 080653Z AUTO 00000KT 5SM BR BKN006 13/12 A3013 RMK AO2 SLP202 T01280117=
201609080553 METAR KCLM 080553Z AUTO 00000KT 4SM BR OVC005 13/12 A3012 RMK AO2 SLP201 60000 T01280117 10150 20122 50002=
201609080534 SPECI KCLM 080534Z AUTO 00000KT 8SM BKN006 OVC015 13/12 A3012 RMK AO2 CIG 004V008 T01330117=
201609080514 SPECI KCLM 080514Z AUTO 00000KT 7SM SCT008 BKN015 OVC065 13/13 A3013 RMK AO2 T01330128=
201609080453 METAR KCLM 080453Z AUTO 29004KT 6SM BR OVC016 13/12 A3014 RMK AO2 SLP206 T01330122=
201609080429 SPECI KCLM 080429Z AUTO 28004KT 6SM BR FEW005 BKN018 OVC050 13/12 A3013 RMK AO2 T01330117=
201609080419 SPECI KCLM 080419Z AUTO 32003KT 4SM BR SCT018 BKN050 OVC070 13/12 A3013 RMK AO2 T01280117=
201609080410 SPECI KCLM 080410Z AUTO 00000KT 2SM BR FEW018 BKN055 OVC085 13/12 A3013 RMK AO2 VIS 1V5 T01330117=
201609080353 METAR KCLM 080353Z AUTO 00000KT 6SM BR BKN055 OVC085 13/12 A3012 RMK AO2 RAE09B28E40 SLP201 P0000 T01330122=
201609080253 METAR KCLM 080253Z AUTO 00000KT 9SM -RA OVC060 14/13 A3012 RMK AO2 RAB51 SLP199 P0000 60000 T01440128 58010=
201609080153 METAR KCLM 080153Z AUTO 09003KT 10SM BKN060 OVC080 15/13 A3013 RMK AO2 SLP204 T01500128=
201609080055 SPECI KCLM 080055Z AUTO 00000KT 10SM SCT010 BKN032 OVC070 14/12 A3014 RMK AO2 T01440122=
201609080053 METAR KCLM 080053Z AUTO 00000KT 10SM BKN009 BKN032 OVC070 14/13 A3015 RMK AO2 SLP208 T01440128=
201609080019 SPECI KCLM 080019Z AUTO 35004KT 7SM BKN008 OVC075 14/13 A3015 RMK AO2 CIG 004V010 T01440128=
201609072353 METAR KCLM 072353Z AUTO 00000KT 10SM SCT006 OVC080 15/13 A3015 RMK AO2 RAE26 SLP209 P0000 60010 T01500128 10172 20139 58005=
201609072350 SPECI KCLM 072350Z AUTO 00000KT 10SM SCT006 OVC080 14/13 A3015 RMK AO2 RAE26 P0000=
201609072339 SPECI KCLM 072339Z AUTO 00000KT 10SM BKN006 OVC085 14/13 A3015 RMK AO2 RAE26 P0000 T01440128=
201609072253 METAR KCLM 072253Z AUTO 29005KT 8SM -RA FEW005 BKN034 OVC090 14/12 A3017 RMK AO2 SLP217 P0006 T01390122=
201609072206 SPECI KCLM 072206Z AUTO 31005KT 5SM -RA BR FEW008 OVC080 14/12 A3016 RMK AO2 P0002 T01390122=
201609072153 METAR KCLM 072153Z AUTO 00000KT 5SM -RA BR BKN075 OVC090 14/12 A3016 RMK AO2 SLP214 P0004 T01440122=
201609072053 METAR KCLM 072053Z AUTO 33006KT 7SM -RA FEW036 FEW050 OVC085 15/11 A3017 RMK AO2 RAB40 SLP215 P0000 60000 T01500111 53005=
201609071953 METAR KCLM 071953Z AUTO 31007KT 10SM FEW110 16/11 A3015 RMK AO2 SLP211 T01610111=
201609071853 METAR KCLM 071853Z AUTO 33009KT 10SM FEW027 17/11 A3015 RMK AO2 SLP210 T01670111=
201609071753 METAR KCLM 071753Z AUTO 34005KT 10SM FEW029 16/11 A3015 RMK AO2 SLP210 T01610111 10167 20117 51007=
201609071653 METAR KCLM 071653Z AUTO 28005KT 10SM CLR 16/12 A3014 RMK AO2 SLP207 T01560117=
201609071638 SPECI KCLM 071638Z AUTO 29004KT 10SM FEW009 SCT016 15/12 A3015 RMK AO2 T01500117=
201609071631 SPECI KCLM 071631Z AUTO 30005KT 10SM SCT009 BKN015 14/11 A3015 RMK AO2 T01440111=
201609071553 METAR KCLM 071553Z AUTO 25003KT 10SM SCT003 13/11 A3014 RMK AO2 SLP207 T01330111=
201609071453 METAR KCLM 071453Z AUTO 29004KT 10SM OVC003 13/12 A3013 RMK AO2 SLP203 T01280117 53007=
201609071425 SPECI KCLM 071425Z AUTO 24003KT 6SM BR OVC002 12/12 A3014 RMK AO2 T01220117=
201609071411 SPECI KCLM 071411Z AUTO 24003KT 2SM BR OVC002 12/12 A3013 RMK AO2 T01220117=
201609071353 METAR KCLM 071353Z AUTO 28006KT 5SM BR BKN002 OVC013 12/11 A3013 RMK AO2 SLP201 T01220111=
201609071253 METAR KCLM 071253Z AUTO 26003KT 6SM BR OVC002 12/12 A3011 RMK AO2 SLP196 T01220117=
201609071246 SPECI KCLM 071246Z AUTO 26004KT 4SM BR OVC002 12/11 A3011 RMK AO2 T01220111=
201609071238 SPECI KCLM 071238Z AUTO 28006KT 2 1/2SM BR OVC002 12/11 A3011 RMK AO2 T01220111=
201609071210 SPECI KCLM 071210Z AUTO 29006KT 7SM BKN004 OVC008 12/11 A3011 RMK AO2 CIG 002V007 T01220111=
201609071153 METAR KCLM 071153Z AUTO 29006KT 10SM OVC006 12/11 A3011 RMK AO2 CIG 004V008 SLP196 70001 T01220111 10139 20122 53004=
201609071143 SPECI KCLM 071143Z AUTO 27005KT 10SM OVC005 12/11 A3011 RMK AO2 T01220111=
201609071053 METAR KCLM 071053Z AUTO 29006KT 5SM BR OVC002 12/12 A3011 RMK AO2 SLP195 T01220117=
201609071035 SPECI KCLM 071035Z AUTO 28008KT 3SM BR OVC002 12/12 A3010 RMK AO2 T01220117=
201609071031 SPECI KCLM 071031Z AUTO 27006KT 1 1/2SM BR OVC002 12/12 A3010 RMK AO2 T01220117=
201609071013 SPECI KCLM 071013Z AUTO 30005KT 3/4SM BR VV002 12/12 A3010 RMK AO2 T01220117=
201609070958 SPECI KCLM 070958Z AUTO 31006KT 1 3/4SM BR OVC002 12/11 A3009 RMK AO2 T01220111=
201609070953 METAR KCLM 070953Z AUTO 30005KT 3SM BR OVC002 12/11 A3009 RMK AO2 SLP189 T01220111=
201609070911 SPECI KCLM 070911Z AUTO 28004KT 7SM BKN002 OVC028 12/11 A3009 RMK AO2 T01220111=
201609070903 SPECI KCLM 070903Z AUTO 30006KT 10SM SCT004 OVC028 13/11 A3010 RMK AO2 T01280111=
201609070853 METAR KCLM 070853Z AUTO 32004KT 10SM BKN028 OVC035 13/12 A3010 RMK AO2 SLP192 T01330117 53002=
201609070842 SPECI KCLM 070842Z AUTO 29003KT 10SM BKN028 OVC035 13/12 A3009 RMK AO2 T01330117=
201609070834 SPECI KCLM 070834Z AUTO 27005KT 10SM FEW008 SCT028 OVC035 13/12 A3009 RMK AO2 T01330117=
201609070808 SPECI KCLM 070808Z AUTO 28006KT 10SM FEW006 BKN023 OVC036 13/12 A3009 RMK AO2 T01330117=
201609070753 METAR KCLM 070753Z AUTO 27004KT 10SM BKN022 OVC034 13/12 A3009 RMK AO2 SLP190 T01330117 401780117=
201609070653 METAR KCLM 070653Z AUTO 33004KT 10SM OVC018 14/12 A3009 RMK AO2 SLP188 T01390117=
201609070553 METAR KCLM 070553Z AUTO 30006KT 10SM SCT017 BKN022 OVC034 14/12 A3009 RMK AO2 SLP190 T01440117 10172 20139 53015=
201609070453 METAR KCLM 070453Z AUTO 00000KT 10SM OVC031 15/12 A3006 RMK AO2 SLP179 T01500117=
201609070442 SPECI KCLM 070442Z AUTO 25004KT 10SM OVC030 15/12 A3006 RMK AO2 T01500117=
201609070353 METAR KCLM 070353Z AUTO 29004KT 10SM OVC025 14/11 A3006 RMK AO2 SLP181 T01440111=
201609070337 SPECI KCLM 070337Z AUTO 32003KT 9SM OVC029 15/11 A3006 RMK AO2 T01500111=
201609070253 METAR KCLM 070253Z AUTO 00000KT 10SM OVC040 15/11 A3005 RMK AO2 SLP175 T01500111 53009=
201609070153 METAR KCLM 070153Z AUTO 00000KT 10SM FEW033 OVC045 16/11 A3004 RMK AO2 SLP171 T01610111=
201609070053 METAR KCLM 070053Z AUTO VRB03KT 10SM OVC037 17/11 A3003 RMK AO2 SLP170 T01720111=
201609062353 METAR KCLM 062353Z AUTO 09006KT 10SM FEW022 OVC033 17/11 A3002 RMK AO2 SLP166 T01720111 10178 20128 53006=
201609062253 METAR KCLM 062253Z AUTO 00000KT 10SM FEW020 OVC039 17/11 A3002 RMK AO2 SLP165 T01720111=
201609062240 SPECI KCLM 062240Z AUTO VRB04KT 10SM SCT020 OVC039 17/11 A3002 RMK AO2 T01720111=
201609062153 METAR KCLM 062153Z AUTO 00000KT 10SM OVC018 17/11 A3001 RMK AO2 SLP161 T01670106=
201609062053 METAR KCLM 062053Z AUTO 00000KT 10SM OVC015 16/11 A3001 RMK AO2 SLP161 T01560111 53011=
201609062012 SPECI KCLM 062012Z AUTO 07003KT 10SM SCT009 OVC015 14/12 A3000 RMK AO2 T01440117=
201609061953 METAR KCLM 061953Z AUTO VRB03KT 10SM BKN009 OVC015 14/12 A2999 RMK AO2 CIG 007V012 SLP156 T01440117=
201609061917 SPECI KCLM 061917Z AUTO 00000KT 10SM OVC005 13/12 A2999 RMK AO2 T01330117=
201609061853 METAR KCLM 061853Z AUTO 05005KT 9SM OVC003 13/12 A2998 RMK AO2 CIG 002V006 SLP153 T01280117=
201609061840 SPECI KCLM 061840Z AUTO VRB03KT 8SM OVC002 13/12 A2998 RMK AO2 T01280122=
201609061833 SPECI KCLM 061833Z AUTO 36004KT 2 1/2SM BR OVC002 13/12 A2998 RMK AO2 T01280117=
201609061826 SPECI KCLM 061826Z AUTO VRB04KT 1/2SM FG BKN002 OVC015 13/12 A2998 RMK AO2 T01280122=
201609061817 SPECI KCLM 061817Z AUTO 36004KT 1 3/4SM BR BKN002 OVC015 13/12 A2998 RMK AO2 VIS 1V5 T01330122=
201609061807 SPECI KCLM 061807Z AUTO 35004KT 3SM BR BKN003 BKN009 OVC015 13/12 A2997 RMK AO2 T01330122=
201609061759 SPECI KCLM 061759Z AUTO 00000KT 1 3/4SM BR BKN003 BKN009 OVC015 13/12 A2997 RMK AO2 VIS 1V5 T01280122=
201609061753 METAR KCLM 061753Z AUTO 36003KT 4SM BR BKN003 BKN009 OVC015 13/12 A2997 RMK AO2 SLP149 60001 T01280122 10133 20122 53012=
201609061741 SPECI KCLM 061741Z AUTO 00000KT 4SM BR OVC003 13/12 A2997 RMK AO2 T01330122=
201609061739 SPECI KCLM 061739Z AUTO VRB03KT 1 3/4SM BR OVC003 13/12 A2997 RMK AO2 T01330122=
201609061726 SPECI KCLM 061726Z AUTO VRB03KT 1/2SM FG OVC002 13/12 A2997 RMK AO2 T01280117=
201609061653 METAR KCLM 061653Z AUTO VRB03KT 1 1/2SM BR OVC002 13/12 A2996 RMK AO2 VIS 3/4V3 SLP145 T01280122=
201609061612 SPECI KCLM 061612Z AUTO 32004KT 1/4SM FG VV002 12/12 A2995 RMK AO2 T01220117=
201609061553 METAR KCLM 061553Z AUTO 30004KT 1/2SM FG VV002 13/12 A2995 RMK AO2 SLP141 T01280117=
201609061506 SPECI KCLM 061506Z AUTO 00000KT 1/4SM FG VV002 12/11 A2994 RMK AO2 T01220111=
201609061500 METAR KCLM NIL=
201609061449 METAR KCLM 061449Z AUTO 00000KT 3/4SM BR OVC002 12/11 A2994=
201609061448 SPECI KCLM 061448Z AUTO 00000KT 3/4SM BR OVC002 12/11 A2994 RMK AO2=
201609061408 SPECI KCLM 061408Z AUTO 00000KT 2SM BR OVC003 12/11 A2993 RMK AO2 T01220111=
201609061353 METAR KCLM 061353Z AUTO 00000KT 3SM BR OVC004 12/11 A2992 RMK AO2 SLP133 T01220111=
201609061253 METAR KCLM 061253Z AUTO 00000KT 3SM BR OVC004 12/11 A2992 RMK AO2 RAE37 SLP130 P0001 T01220111=
201609061153 METAR KCLM 061153Z AUTO 00000KT 4SM -RA BR OVC002 12/11 A2992 RMK AO2 RAB49 SLP132 P0000 60002 70013 T01220111 10133 20117 55001=
201609061101 SPECI KCLM 061101Z AUTO 00000KT 8SM OVC004 12/11 A2992 RMK AO2 T01220111=
201609061053 METAR KCLM 061053Z AUTO 00000KT 5SM BR OVC005 12/11 A2992 RMK AO2 SLP131 T01220106=
201609060953 METAR KCLM 060953Z AUTO 11003KT 8SM OVC006 12/11 A2991 RMK AO2 SLP129 T01220111=
201609060922 SPECI KCLM 060922Z AUTO 00000KT 7SM SCT002 BKN009 OVC065 12/11 A2992 RMK AO2 T01170111=
201609060853 METAR KCLM 060853Z AUTO 00000KT 5SM BR OVC001 12/11 A2993 RMK AO2 RAB01E11 SLP133 P0000 60002 T01170106 56012=
201609060845 SPECI KCLM 060845Z AUTO 08004KT 4SM BR BKN001 OVC070 12/11 A2992 RMK AO2 RAB01E11 P0000 T01170106=
201609060833 SPECI KCLM 060833Z AUTO 00000KT 2SM BR BKN001 OVC070 12/11 A2993 RMK AO2 RAB01E11 P0000 T01220106=
201609060829 SPECI KCLM 060829Z AUTO 00000KT 2 1/2SM BR SCT002 OVC070 12/11 A2993 RMK AO2 RAB01E11 P0000 T01220106=
201609060753 METAR KCLM 060753Z AUTO 10004KT 10SM BKN075 OVC085 13/11 A2993 RMK AO2 RAE36 SLP135 P0000 T01280106 401670083=
201609060653 METAR KCLM 060653Z AUTO 10004KT 10SM -RA BKN085 OVC110 13/11 A2994 RMK AO2 SLP139 P0002 T01280111=
201609060553 METAR KCLM 060553Z AUTO 00000KT 10SM -RA OVC100 13/12 A2996 RMK AO2 SLP145 P0002 60011 T01280117 10156 20128 58006=
201609060453 METAR KCLM 060453Z AUTO 00000KT 6SM -RA BR FEW055 OVC090 13/12 A2997 RMK AO2 SLP149 P0004 T01280117=
201609060353 METAR KCLM 060353Z AUTO 00000KT 9SM -RA FEW023 OVC050 13/12 A2999 RMK AO2 SLP154 P0002 T01330122=
201609060253 METAR KCLM 060253Z AUTO 00000KT 9SM -RA BKN060 OVC075 13/12 A2998 RMK AO2 SLP152 P0001 60003 T01330117 58006=
201609060153 METAR KCLM 060153Z AUTO 00000KT 9SM -RA BKN060 OVC075 14/12 A2998 RMK AO2 RAB0054 SLP154 P0002 T01390122=
201609060053 METAR KCLM 060053Z AUTO 00000KT 10SM OVC070 15/11 A3000 RMK AO2 RAE22 SLP159 P0000 T01500106=
201609052353 METAR KCLM 052353Z AUTO 00000KT 10SM -RA OVC070 16/10 A3000 RMK AO2 RAB26 SLP158 P0000 60000 T01560100 10167 20144 58008=
201609052253 METAR KCLM 052253Z AUTO 04003KT 10SM BKN037 OVC095 16/09 A3001 RMK AO2 SLP161 T01610094=
201609052211 SPECI KCLM 052211Z AUTO 00000KT 10SM OVC031 16/09 A3001 RMK AO2 T01610089=
201609052153 METAR KCLM 052153Z AUTO 06003KT 10SM BKN029 OVC090 17/09 A3001 RMK AO2 SLP163 T01670089=
201609052053 METAR KCLM 052053Z AUTO 02004KT 10SM BKN029 OVC100 16/09 A3002 RMK AO2 SLP165 T01560089 56004=
201609052029 SPECI KCLM 052029Z AUTO 03004KT 10SM FEW025 BKN100 16/09 A3002 RMK AO2 T01560089=
201609052020 SPECI KCLM 052020Z AUTO 04004KT 10SM BKN025 BKN100 15/09 A3002 RMK AO2 T01500089=
201609051953 METAR KCLM 051953Z AUTO 32003KT 10SM SCT024 BKN110 16/09 A3002 RMK AO2 SLP166 T01610089=
201609051916 SPECI KCLM 051916Z AUTO 13004KT 10SM SCT023 OVC100 16/09 A3002 RMK AO2 T01560089=
201609051853 METAR KCLM 051853Z AUTO 16003KT 10SM OVC024 16/09 A3003 RMK AO2 SLP168 T01560089=
201609051801 SPECI KCLM 051801Z AUTO 28006KT 10SM BKN025 16/09 A3003 RMK AO2 T01560094=
201609051753 METAR KCLM 051753Z AUTO VRB03KT 10SM SCT025 14/09 A3003 RMK AO2 SLP170 T01440089 10150 20083 51005=
201609051708 SPECI KCLM 051708Z AUTO 00000KT 10SM SCT019 14/09 A3002 RMK AO2 T01390089=
201609051653 METAR KCLM 051653Z AUTO 02003KT 10SM BKN018 14/09 A3003 RMK AO2 SLP168 T01390094=
201609051645 SPECI KCLM 051645Z AUTO 06004KT 10SM BKN018 14/09 A3003 RMK AO2 T01390094=
201609051553 METAR KCLM 051553Z AUTO 14005KT 10SM CLR 13/10 A3002 RMK AO2 SLP167 T01330100=
201609051453 METAR KCLM 051453Z AUTO 21005KT 10SM CLR 11/09 A3002 RMK AO2 SLP166 T01110089 53003=
201609051353 METAR KCLM 051353Z AUTO 22003KT 10SM CLR 09/08 A3000 RMK AO2 SLP160 T00940078=
201609051300 SPECI KCLM 051300Z AUTO 25005KT 10SM FEW009 SCT014 10/08 A3001 RMK AO2 T01000083=
201609051253 METAR KCLM 051253Z AUTO 28006KT 10SM CLR 09/08 A3001 RMK AO2 SLP163 T00940078=
201609051207 SPECI KCLM 051207Z AUTO 26004KT 10SM SCT007 11/09 A3001 RMK AO2 T01060089=
201609051153 METAR KCLM 051153Z AUTO 28004KT 10SM SCT007 BKN012 11/09 A3001 RMK AO2 SLP161 T01060089 10111 20100 53002=
201609051128 SPECI KCLM 051128Z AUTO 28005KT 10SM SCT006 11/09 A3000 RMK AO2 T01110094=
201609051053 METAR KCLM 051053Z AUTO 29008KT 10SM BKN007 11/09 A3001 RMK AO2 SLP160 T01110094=
201609051041 SPECI KCLM 051041Z AUTO 28007KT 10SM BKN007 BKN080 11/09 A3001 RMK AO2 T01110094=
201609051022 SPECI KCLM 051022Z AUTO 28007KT 10SM FEW008 BKN080 11/09 A3001 RMK AO2 T01110094=
201609050953 METAR KCLM 050953Z AUTO 30007KT 10SM CLR 11/09 A3000 RMK AO2 SLP159 T01060089=
201609050924 SPECI KCLM 050924Z AUTO 29005KT 10SM SCT006 11/09 A3000 RMK AO2 T01060094=
201609050916 SPECI KCLM 050916Z AUTO 28006KT 10SM BKN006 11/09 A3000 RMK AO2 T01110094=
201609050853 METAR KCLM 050853Z AUTO 29009KT 10SM SCT006 11/09 A3000 RMK AO2 SLP159 T01110094 52003=
201609050830 SPECI KCLM 050830Z AUTO 29010KT 10SM SCT006 11/09 A3000 RMK AO2 T01110094=
201609050805 SPECI KCLM 050805Z AUTO 29009KT 10SM BKN005 11/09 A3000 RMK AO2 T01110094=
201609050753 METAR KCLM 050753Z AUTO 29010KT 10SM SCT005 11/09 A3000 RMK AO2 SLP159 T01110094 401670067=
201609050711 SPECI KCLM 050711Z AUTO 29010KT 10SM FEW004 11/09 A2999 RMK AO2 T01110094=
201609050653 METAR KCLM 050653Z AUTO 29011KT 10SM CLR 11/10 A2999 RMK AO2 SLP156 T01110100=
201609050553 METAR KCLM 050553Z AUTO 29008KT 10SM BKN090 11/10 A2999 RMK AO2 SLP156 T01110100 10156 20111 58001=
201609050453 METAR KCLM 050453Z AUTO 30008KT 10SM FEW005 12/10 A3000 RMK AO2 SLP158 T01170100=
201609050443 SPECI KCLM 050443Z AUTO 29009KT 10SM SCT005 12/10 A3000 RMK AO2 T01170100=
201609050424 SPECI KCLM 050424Z AUTO 29010KT 10SM BKN005 12/10 A3000 RMK AO2 T01170100=
201609050405 SPECI KCLM 050405Z AUTO 29010KT 10SM FEW005 12/10 A3000 RMK AO2 T01170100=
201609050400 METAR KCLM NIL=
201609050353 METAR KCLM 050353Z AUTO 29009KT 10SM CLR 12/10 A3000 RMK AO2 SLP158 T01170100=
201609050253 METAR KCLM 050253Z AUTO 28009KT 10SM CLR 12/10 A2998 RMK AO2 SLP154 T01220100 53000=
201609050153 METAR KCLM 050153Z AUTO 31007KT 10SM CLR 14/11 A2998 RMK AO2 SLP153 T01440106=
201609050053 METAR KCLM 050053Z AUTO 00000KT 10SM CLR 14/10 A2998 RMK AO2 SLP153 T01440100=
201609042353 METAR KCLM 042353Z AUTO 33005KT 10SM CLR 16/09 A2998 RMK AO2 SLP153 T01560094 10167 20144 56006=
201609042253 METAR KCLM 042253Z AUTO VRB05KT 10SM CLR 16/09 A2998 RMK AO2 SLP153 T01560094=
201609042153 METAR KCLM 042153Z AUTO 36004KT 10SM CLR 16/10 A2999 RMK AO2 SLP154 T01610100=
201609042053 METAR KCLM 042053Z AUTO 35005KT 10SM CLR 15/10 A3000 RMK AO2 SLP159 T01500100 58006=
201609041953 METAR KCLM 041953Z AUTO 05003KT 10SM CLR 16/10 A3001 RMK AO2 SLP162 T01610100=
201609041853 METAR KCLM 041853Z AUTO VRB03KT 10SM CLR 16/10 A3001 RMK AO2 SLP163 T01610100=
201609041753 METAR KCLM 041753Z AUTO 09006KT 10SM CLR 17/10 A3002 RMK AO2 SLP165 T01670100 10167 20067 50001=
201609041653 METAR KCLM 041653Z AUTO 35004KT 10SM CLR 14/09 A3002 RMK AO2 SLP166 T01440094=
201609041553 METAR KCLM 041553Z AUTO 00000KT 10SM CLR 14/09 A3002 RMK AO2 SLP166 T01390089=
201609041453 METAR KCLM 041453Z AUTO 00000KT 10SM CLR 11/08 A3002 RMK AO2 SLP166 T01060083 53005=
201609041353 METAR KCLM 041353Z AUTO 00000KT 10SM CLR 07/06 A3001 RMK AO2 SLP163 T00720056=
201609041253 METAR KCLM 041253Z AUTO 31003KT 10SM CLR 08/06 A3000 RMK AO2 SLP159 T00830061=
201609041153 METAR KCLM 041153Z AUTO 24004KT 10SM CLR 10/07 A3000 RMK AO2 SLP160 T01000072 10117 20094 53002=
201609041053 METAR KCLM 041053Z AUTO 25006KT 10SM CLR 11/08 A3000 RMK AO2 SLP160 T01060078=
201609040953 METAR KCLM 040953Z AUTO 24004KT 10SM CLR 11/08 A3000 RMK AO2 SLP157 T01060078=
201609040853 METAR KCLM 040853Z AUTO 24007KT 10SM CLR 11/08 A3000 RMK AO2 SLP158 T01110083 58004=
201609040753 METAR KCLM 040753Z AUTO 24006KT 10SM CLR 11/08 A3001 RMK AO2 SLP161 T01110083 401780094=
201609040653 METAR KCLM 040653Z AUTO 27005KT 10SM CLR 11/09 A3001 RMK AO2 SLP163 T01110089=
201609040553 METAR KCLM 040553Z AUTO 25004KT 10SM CLR 11/08 A3001 RMK AO2 SLP162 T01060083 10167 20100 50002=
201609040453 METAR KCLM 040453Z AUTO 23005KT 10SM CLR 11/09 A3001 RMK AO2 SLP163 T01110089=
201609040353 METAR KCLM 040353Z AUTO 00000KT 10SM CLR 12/09 A3001 RMK AO2 SLP162 T01220094=
201609040253 METAR KCLM 040253Z AUTO 29004KT 10SM CLR 13/09 A3000 RMK AO2 SLP161 T01280094 52001=
201609040153 METAR KCLM 040153Z AUTO 30009KT 10SM CLR 14/09 A3000 RMK AO2 SLP161 T01390094=
201609040053 METAR KCLM 040053Z AUTO VRB03KT 10SM CLR 17/09 A3000 RMK AO2 SLP158 T01670094=
201609032353 METAR KCLM 032353Z AUTO 01006KT 10SM CLR 17/09 A3000 RMK AO2 SLP159 T01720089 10178 20156 56010=
201609032253 METAR KCLM 032253Z AUTO 36006KT 10SM CLR 17/09 A3000 RMK AO2 SLP160 T01720089=
201609032153 METAR KCLM 032153Z AUTO 35005KT 10SM CLR 18/09 A3002 RMK AO2 SLP164 T01780089=
201609032053 METAR KCLM 032053Z AUTO 34008KT 10SM CLR 18/09 A3003 RMK AO2 SLP169 T01780089 58002=
201609031953 METAR KCLM 031953Z AUTO 35008KT 10SM CLR 16/09 A3004 RMK AO2 SLP171 T01610089=
201609031853 METAR KCLM 031853Z AUTO 33007KT 270V010 10SM CLR 17/09 A3004 RMK AO2 SLP172 T01670094=
201609031753 METAR KCLM 031753Z AUTO 31007KT 10SM BKN090 16/09 A3003 RMK AO2 SLP170 T01560089 10156 20100 53002=
201609031722 SPECI KCLM 031722Z AUTO 31005KT 10SM SCT021 OVC090 15/10 A3003 RMK AO2 T01500100=
201609031700 SPECI KCLM 031700Z AUTO 32007KT 10SM BKN019 OVC090 14/09 A3003 RMK AO2 T01440094=
201609031653 METAR KCLM 031653Z AUTO 32007KT 10SM SCT019 OVC090 15/10 A3003 RMK AO2 SLP168 T01500100=
201609031553 METAR KCLM 031553Z AUTO 26005KT 10SM CLR 12/08 A3003 RMK AO2 SLP168 T01220083=
201609031453 METAR KCLM 031453Z AUTO 26005KT 10SM OVC085 11/08 A3003 RMK AO2 SLP169 T01110083 53006=
201609031353 METAR KCLM 031353Z AUTO 28005KT 10SM OVC085 11/08 A3002 RMK AO2 SLP165 T01060078=
201609031317 SPECI KCLM 031317Z AUTO 24006KT 10SM FEW009 OVC080 11/08 A3002 RMK AO2 T01060083=
201609031253 METAR KCLM 031253Z AUTO 24005KT 10SM BKN080 11/08 A3001 RMK AO2 SLP162 T01060083=
201609031153 METAR KCLM 031153Z AUTO 26005KT 10SM BKN080 10/08 A3001 RMK AO2 SLP162 70020 T01000078 10122 20094 58000=
201609031053 METAR KCLM 031053Z AUTO 23005KT 10SM FEW080 10/08 A3002 RMK AO2 SLP164 T01000083=
201609030953 METAR KCLM 030953Z AUTO 25005KT 10SM SCT080 10/08 A3002 RMK AO2 SLP164 T01000083=
201609030853 METAR KCLM 030853Z AUTO 25007KT 10SM CLR 11/09 A3001 RMK AO2 SLP162 T01060089 58004=
201609030753 METAR KCLM 030753Z AUTO 22005KT 10SM CLR 11/09 A3001 RMK AO2 SLP164 T01110094 401780100=
201609030653 METAR KCLM 030653Z AUTO 26005KT 10SM BKN075 12/10 A3002 RMK AO2 SLP165 T01170100=
201609030553 METAR KCLM 030553Z AUTO 25005KT 10SM CLR 12/11 A3002 RMK AO2 SLP166 60000 T01220106 10161 20117 50005=
201609030526 SPECI KCLM 030526Z AUTO 27005KT 10SM SCT008 12/11 A3002 RMK AO2 T01170106=
201609030516 SPECI KCLM 030516Z AUTO 27006KT 10SM SCT010 12/11 A3002 RMK AO2 T01220106=
201609030509 SPECI KCLM 030509Z AUTO 25006KT 10SM SCT007 BKN012 12/11 A3002 RMK AO2 T01220106=
201609030453 METAR KCLM 030453Z AUTO 25007KT 10SM OVC007 13/11 A3002 RMK AO2 CIG 006V012 SLP166 T01280106=
201609030400 METAR KCLM NIL=
201609030353 METAR KCLM 030353Z AUTO 29009KT 10SM OVC007 13/11 A3002 RMK AO2 SLP165 T01280106=
201609030253 METAR KCLM 030253Z AUTO 29008KT 10SM BKN009 OVC030 13/11 A3001 RMK AO2 CIG 007V014 SLP161 60000 T01330106 53005=
201609030245 SPECI KCLM 030245Z AUTO 29010KT 10SM BKN009 BKN013 OVC065 13/11 A3001 RMK AO2 T01330106=
201609030153 METAR KCLM 030153Z AUTO 30008KT 10SM SCT016 BKN021 OVC045 15/11 A3000 RMK AO2 RAB02E19 SLP159 P0000 T01500111=
201609030128 SPECI KCLM 030128Z AUTO 31009G15KT 10SM BKN017 BKN033 OVC044 16/11 A3000 RMK AO2 RAB02E19 P0000 T01560111=
201609030053 METAR KCLM 030053Z AUTO VRB06KT 10SM BKN030 BKN035 OVC047 16/11 A2999 RMK AO2 RAE13B42E51 SLP157 P0000 T01560111=
201609030051 SPECI KCLM 030051Z AUTO 33006KT 10SM BKN030 BKN035 OVC047 16/11 A2999 RMK AO2 RAE13B42E51 P0000=
201609030033 SPECI KCLM 030033Z AUTO VRB06KT 10SM BKN028 BKN035 OVC045 16/11 A2999 RMK AO2 RAE13 P0000 T01560111=
201609022353 METAR KCLM 022353Z AUTO 30007KT 10SM -RA OVC044 16/11 A2998 RMK AO2 RAB50 SLP153 P0000 60000 T01610111 10178 20156 53002=
201609022253 METAR KCLM 022253Z AUTO VRB04KT 10SM FEW026 FEW035 17/11 A2998 RMK AO2 SLP151 T01670111=
201609022248 SPECI KCLM 022248Z AUTO 30007KT 10SM FEW028 SCT033 BKN080 16/11 A2998 RMK AO2=
201609022220 SPECI KCLM 022220Z AUTO 34006KT 10SM BKN029 BKN080 17/11 A2998 RMK AO2 T01670106=
201609022153 METAR KCLM 022153Z AUTO 35005KT 10SM BKN085 17/11 A2998 RMK AO2 SLP150 T01670106=
201609022053 METAR KCLM 022053Z AUTO 36005KT 10SM FEW050 BKN070 17/11 A2997 RMK AO2 SLP147 T01670106 53009=
201609021953 METAR KCLM 021953Z AUTO VRB05KT 10SM SCT075 17/11 A2996 RMK AO2 SLP143 T01670111=
201609021853 METAR KCLM 021853Z AUTO 33005KT 10SM SCT070 16/12 A2995 RMK AO2 SLP141 T01610117=
201609021753 METAR KCLM 021753Z AUTO 29007KT 270V330 10SM CLR 16/12 A2994 RMK AO2 SLP137 60020 T01610122 10167 20111 53005=
201609021653 METAR KCLM 021653Z AUTO 33005KT 10SM FEW055 16/13 A2992 RMK AO2 SLP133 T01560128=
201609021553 METAR KCLM 021553Z AUTO 29005KT 10SM BKN060 OVC075 13/11 A2993 RMK AO2 RAE31 SLP134 P0001 T01280111=
201609021453 METAR KCLM 021453Z AUTO 00000KT 5SM -RA BR OVC070 12/11 A2992 RMK AO2 SLP132 P0002 60019 T01220111 53005=
201609021353 METAR KCLM 021353Z AUTO 12006KT 5SM -RA BR SCT050 BKN070 OVC090 13/12 A2991 RMK AO2 SLP128 P0014 T01280117=
201609021351 SPECI KCLM 021351Z AUTO 12005KT 4SM -RA BR SCT050 BKN070 OVC085 13/12 A2991 RMK AO2 P0014=
201609021338 SPECI KCLM 021338Z AUTO 11005KT 2 1/2SM RA BR OVC055 12/11 A2991 RMK AO2 P0011 T01220111=
201609021253 METAR KCLM 021253Z AUTO 00000KT 5SM -RA BR OVC070 12/11 A2991 RMK AO2 RAB13 SLP128 P0003 T01170111=
201609021153 METAR KCLM 021153Z AUTO 16004KT 10SM BKN085 OVC120 11/10 A2991 RMK AO2 SLP127 70005 T01110100 10133 20100 57002=
201609021053 METAR KCLM 021053Z AUTO 23005KT 10SM BKN070 11/09 A2990 RMK AO2 SLP126 T01110094=
201609020953 METAR KCLM 020953Z AUTO 22004KT 10SM SCT075 11/10 A2991 RMK AO2 SLP129 T01110100=
201609020927 SPECI KCLM 020927Z AUTO 00000KT 3SM BR FEW001 11/10 A2991 RMK AO2 T01110100=
201609020922 SPECI KCLM 020922Z AUTO VRB04KT 1 1/4SM BR SCT001 11/10 A2992 RMK AO2 VIS 1/2V5 T01110100=
201609020918 SPECI KCLM 020918Z AUTO VRB03KT 3/4SM BR VV001 11/10 A2991 RMK AO2 VIS 1/2V3 T01060100=
201609020914 SPECI KCLM 020914Z AUTO 00000KT 1 1/4SM BR FEW001 11/09 A2991 RMK AO2 VIS 3/4V4 T01060094=
201609020908 SPECI KCLM 020908Z AUTO 11003KT 1/2SM FG VV001 11/09 A2991 RMK AO2 T01060094=
201609020901 SPECI KCLM 020901Z AUTO 11003KT 1/2SM FG VV002 11/10 A2991 RMK AO2 T01060100=
201609020853 METAR KCLM 020853Z AUTO 00000KT 3/4SM BR CLR 11/10 A2991 RMK AO2 SLP129 T01110100 58002=
201609020850 SPECI KCLM 020850Z AUTO 00000KT 1SM BR CLR 11/10 A2991 RMK AO2 VIS 1/2V2 1/2=
201609020840 SPECI KCLM 020840Z AUTO 00000KT 2 1/2SM BR CLR 11/10 A2991 RMK AO2 VIS 1 1/4V5 T01110100=
201609020821 SPECI KCLM 020821Z AUTO 00000KT 1 3/4SM BR CLR 11/11 A2992 RMK AO2 T01110106=
201609020753 METAR KCLM 020753Z AUTO 27004KT 10SM FEW060 12/11 A2992 RMK AO2 SLP132 T01220111 401610117=
201609020653 METAR KCLM 020653Z AUTO 26003KT 10SM OVC060 13/12 A2992 RMK AO2 SLP131 T01330117=
201609020623 SPECI KCLM 020623Z AUTO 00000KT 7SM SCT002 BKN060 13/12 A2992 RMK AO2 T01330122=
201609020553 METAR KCLM 020553Z AUTO 29005KT 7SM BKN003 OVC009 13/12 A2992 RMK AO2 RAB18E34 SLP130 P0000 60002 T01280117 10161 20128 53000=
201609020517 SPECI KCLM 020517Z AUTO 00000KT 4SM BR BKN009 OVC013 13/12 A2991 RMK AO2 T01280122=
201609020455 SPECI KCLM 020455Z AUTO 22004KT 3SM BR FEW003 BKN010 OVC070 13/13 A2990 RMK AO2 T01330128=
201609020452 METAR KCLM 020452Z AUTO 22003KT 1 1/4SM BR FEW004 BKN010 OVC110 13/12 A2990 RMK AO2 RAE05 SLP126 P0000 T01330122=
201609020451 SPECI KCLM 020451Z AUTO 22003KT 1SM BR FEW004 BKN010 OVC110 13/12 A2990 RMK AO2 RAE05 P0000=
201609020443 SPECI KCLM 020443Z AUTO 23004KT 1SM BR BKN004 BKN070 BKN110 13/12 A2990 RMK AO2 RAE05 P0000 T01330122=
201609020425 SPECI KCLM 020425Z AUTO 26004KT 3/4SM BR SCT007 BKN075 OVC090 13/12 A2991 RMK AO2 VIS 1/2V5 RAE05 P0000 T01280117=
201609020420 SPECI KCLM 020420Z AUTO 00000KT 2SM BR FEW007 BKN075 OVC090 13/12 A2991 RMK AO2 RAE05 P0000 T01280117=
201609020353 METAR KCLM 020353Z AUTO 00000KT 8SM -RA BKN080 OVC095 14/12 A2991 RMK AO2 RAB30 SLP127 P0000 T01390122=
201609020253 METAR KCLM 020253Z AUTO 00000KT 10SM BKN090 OVC110 14/12 A2992 RMK AO2 SLP130 60002 T01440122 56016=
201609020153 METAR KCLM 020153Z AUTO 00000KT 10SM OVC090 16/12 A2993 RMK AO2 SLP134 T01610122=
201609020053 METAR KCLM 020053Z AUTO 00000KT 10SM SCT070 OVC085 16/13 A2995 RMK AO2 RAE27B44E51 SLP140 P0002 T01560133=
201609012353 METAR KCLM 012353Z AUTO 30003KT 8SM -RA OVC085 15/13 A2996 RMK AO2 SLP146 P0001 60003 T01500128 10161 20144 56007=
201609012253 METAR KCLM 012253Z AUTO 00000KT 8SM -RA OVC085 15/13 A2997 RMK AO2 RAB17 SLP148 P0000 T01500133=
201609012153 METAR KCLM 012153Z AUTO 00000KT 10SM BKN070 OVC090 14/13 A2997 RMK AO2 RAE30 SLP150 P0000 T01440128=
201609012053 METAR KCLM 012053Z AUTO 29004KT 5SM -RA OVC080 16/13 A2998 RMK AO2 RAB10 SLP153 P0002 60002 T01560128 58002=
201609011953 METAR KCLM 011953Z AUTO 31005KT 10SM SCT070 BKN110 16/13 A2998 RMK AO2 SLP153 T01560128=
201609011853 METAR KCLM 011853Z AUTO VRB03KT 10SM FEW070 16/13 A2999 RMK AO2 SLP157 T01560133=
201609011812 SPECI KCLM 011812Z AUTO 00000KT 10SM FEW012 16/12 A2999 RMK AO2 T01560122=
201609011801 SPECI KCLM 011801Z AUTO 00000KT 10SM BKN012 16/13 A2999 RMK AO2 T01560128=
201609011753 METAR KCLM 011753Z AUTO 00000KT 10SM SCT010 16/13 A2999 RMK AO2 SLP155 T01560128 10156 20128 58001=
201609011741 SPECI KCLM 011741Z AUTO 00000KT 10SM SCT008 14/12 A2999 RMK AO2 T01440122=
201609011653 METAR KCLM 011653Z AUTO 33004KT 9SM SCT019 13/12 A3000 RMK AO2 SLP157 T01330117=
201609011624 SPECI KCLM 011624Z AUTO 03003KT 10SM BKN020 BKN027 14/12 A2999 RMK AO2 T01440117=
201609011553 METAR KCLM 011553Z AUTO 00000KT 10SM CLR 14/12 A2999 RMK AO2 SLP156 T01440117=
201609011453 METAR KCLM 011453Z AUTO 14005KT 10SM CLR 13/12 A2999 RMK AO2 SLP157 T01330117 51004=
201609011353 METAR KCLM 011353Z AUTO 00000KT 10SM CLR 14/10 A2999 RMK AO2 SLP157 T01390100=
201609011253 METAR KCLM 011253Z AUTO 24007KT 10SM CLR 14/11 A2998 RMK AO2 SLP153 T01390106=
201609011153 METAR KCLM 011153Z AUTO 24010KT 10SM CLR 14/11 A2998 RMK AO2 SLP153 60004 70021 T01390111 10150 20122 56003=
201609011053 METAR KCLM 011053Z AUTO 24009KT 10SM CLR 14/11 A2999 RMK AO2 SLP154 T01440111=
201609010953 METAR KCLM 010953Z AUTO 29006KT 10SM FEW041 SCT048 BKN060 14/12 A2999 RMK AO2 RAE23 SLP154 P0003 T01440122=
201609010853 METAR KCLM 010853Z AUTO 29007KT 5SM -RA BR FEW018 BKN030 OVC038 14/13 A2999 RMK AO2 RAB23E32B34 SLP156 P0001 60001 T01440133 51009=
201609010848 SPECI KCLM 010848Z AUTO 29007KT 3SM -RA BR FEW018 BKN030 OVC036 14/13 A2999 RMK AO2 RAB23E32B34 P0001=
201609010833 SPECI KCLM 010833Z AUTO 25004KT 10SM SCT008 BKN018 OVC029 14/13 A2999 RMK AO2 RAB23E32 P0000 T01440133=
201609010800 SPECI KCLM 010800Z AUTO 00000KT 8SM BKN008 BKN060 BKN090 14/13 A2998 RMK AO2 T01390133=
201609010753 METAR KCLM 010753Z AUTO 35003KT 6SM BR FEW012 SCT036 BKN090 14/13 A2998 RMK AO2 SLP151 T01390128 401890133=
201609010653 METAR KCLM 010653Z AUTO 00000KT 6SM BR FEW011 SCT065 SCT095 13/13 A2996 RMK AO2 SLP146 T01330128=
201609010648 SPECI KCLM 010648Z AUTO VRB03KT 4SM BR FEW065 SCT095 14/13 A2996 RMK AO2=
201609010636 SPECI KCLM 010636Z AUTO 00000KT 1 3/4SM BR SCT065 14/13 A2996 RMK AO2 VIS 1/2V5 T01390128=
201609010553 METAR KCLM 010553Z AUTO 00000KT 10SM SCT020 15/13 A2996 RMK AO2 SLP145 60001 T01500133 10178 20144 50001=
201609010506 SPECI KCLM 010506Z AUTO 29003KT 10SM BKN023 BKN060 15/13 A2996 RMK AO2 T01500133=
201609010453 METAR KCLM 010453Z AUTO 24005KT 10SM FEW021 SCT060 15/14 A2996 RMK AO2 RAE24 SLP146 P0000 T01500139=
201609010353 METAR KCLM 010353Z AUTO 33003KT 7SM -RA FEW023 BKN032 OVC065 16/14 A2997 RMK AO2 RAB26 SLP148 P0001 T01560139=
201609010253 METAR KCLM 010253Z AUTO 30003KT 10SM OVC070 17/14 A2996 RMK AO2 RAE0154 SLP145 P0000 60000 T01670139 55002=
201609010153 METAR KCLM 010153Z AUTO 33003KT 10SM -RA FEW029 SCT060 BKN080 17/14 A2995 RMK AO2 RAB38 SLP143 P0000 T01670139=
201609010053 METAR KCLM 010053Z AUTO 31005KT 10SM SCT021 BKN045 OVC060 17/13 A2996 RMK AO2 SLP146 T01720133=
201609010026 SPECI KCLM 010026Z AUTO 30006KT 10SM BKN021 BKN060 OVC075 17/13 A2997 RMK AO2 T01720133=

# No short TAF reports from KCLM in databse.

###################################
#  large TAF from KCLM
###################################
201609302329 TAF KCLM 302329Z 0100/0124 35003KT P6SM SKC FM010200 28004KT P6SM
                       SCT060 BKN150 FM011200 19003KT P6SM VCSH
                       BKN050 FM011700 17004KT 5SM -RA SCT007 OVC015
                       FM012100 11005KT 4SM -RA SCT007 OVC015=
201609301741 TAF KCLM 301741Z 3018/0118 36004KT P6SM SKC FM302200 33005KT P6SM
                       BKN200 FM010200 28004KT P6SM SCT060 BKN150
                       FM011200 19003KT P6SM VCSH BKN050 FM011700
                       17004KT 6SM -RA SCT007 OVC040=
201609301120 TAF KCLM 301120Z 3012/0112 24004KT P6SM FEW010 SCT250 FM301800
                       04004KT P6SM SCT250 FM302200 33005KT P6SM
                       BKN200 FM010200 28004KT P6SM SCT060 BKN150=
201609300523 TAF KCLM 300523Z 3006/0106 26005KT P6SM SCT250 FM301800 04004KT
                       P6SM SCT250 FM302200 33005KT P6SM BKN200
                       FM010200 28004KT P6SM SCT060 BKN150=
201609292324 TAF KCLM 292324Z 3000/3024 29008KT P6SM FEW150 BKN250 FM301200
                       27006KT P6SM SCT250
                      TEMPO 3012/3016 BKN006=
201609291721 TAF KCLM 291721Z 2918/3018 28006KT P6SM SCT150 SCT250 FM300100
                       29008KT P6SM SCT250=
201609291121 TAF KCLM 291121Z 2912/3012 25004KT P6SM BKN250 FM291800 35006KT
                       P6SM BKN250 FM300100 29006KT P6SM SCT150
                       BKN250=
201609290520 TAF KCLM 290520Z 2906/3006 28006KT P6SM SCT250 FM291800 35006KT
                       P6SM BKN250 FM300100 29006KT P6SM SCT150
                       BKN250=
201609282320 TAF KCLM 282320Z 2900/2924 VRB04KT P6SM SCT200 FM290200 29006KT
                       P6SM SCT200 FM291000 VRB04KT P6SM BKN200
                       FM291800 03005KT P6SM SCT120 BKN200 FM292100
                       34006KT P6SM SCT120 BKN200=
201609281729 TAF KCLM 281729Z 2818/2918 VRB04KT P6SM SCT200 FM290200 29006KT
                       P6SM BKN200 FM291000 VRB04KT P6SM BKN200=
201609281120 TAF KCLM 281120Z 2812/2912 00000KT P6SM BKN200 FM281800 VRB03KT
                       P6SM SCT200 FM290000 VRB03KT P6SM BKN200=
201609280520 TAF KCLM 280520Z 2806/2906 00000KT P6SM BKN250
                      TEMPO 2811/2815 VRB03KT 2SM BR SCT002 FM281800
                       34004KT P6SM SKC=
201609272320 TAF KCLM 272320Z 2800/2824 VRB04KT P6SM SCT200 FM280200 29005KT
                       P6SM FEW015 SCT200
                      TEMPO 2811/2815 VRB03KT 2SM BR FEW005 BKN015
                       FM281800 34004KT P6SM FEW015=
201609271807 KCLM 271807Z 2718/2818 34004KT 5SM BR OVC002 FM272000 34005KT P6SM
                       SCT010 FM272200 35005KT P6SM SCT200 FM280200
                       28007KT P6SM BKN200
                      TEMPO 2811/2815 2SM BR SCT005=
201609271731 TAF KCLM 271731Z 2718/2818 34004KT 2SM BR OVC002
                      TEMPO 2718/2719 1/2SM FG VV002 FM272000 34005KT
                       P6SM SCT010 FM272200 35005KT P6SM SCT200
                       FM280200 28007KT P6SM BKN200
                      TEMPO 2811/2815 2SM BR SCT005=
201609271604 KCLM 271604Z 2716/2812 28007KT 2SM BR OVC002
                      TEMPO 2716/2718 1/4SM FG VV001 FM271900 28005KT
                       P6SM VCFG SCT003 FM272000 32005KT P6SM SCT200
                       FM272200 30007KT P6SM SCT040=
201609271306 KCLM 271306Z 2713/2812 28007KT 2SM BR OVC002
                      TEMPO 2713/2716 1/2SM FG FM271700 28005KT
                       P6SM VCFG SCT003 FM271900 32005KT P6SM SCT200
                       FM272200 30007KT P6SM SCT040=
201609271120 TAF KCLM 271120Z 2712/2812 30010KT 2SM BR OVC002 FM271600 30007KT
                       P6SM SCT005 BKN040 FM271800 30007KT P6SM
                       SCT020 BKN040 FM272200 30007KT P6SM SCT040=
201609271059 KCLM 271059Z 2711/2806 30010KT 4SM BR OVC002 FM271600 30007KT P6SM
                       SCT005 BKN040 FM271800 30007KT P6SM SCT020
                       BKN040 FM272200 30007KT P6SM SCT040=
201609270520 TAF KCLM 270520Z 2706/2806 30010KT P6SM SCT012 BKN080 FM270900
                       28008KT P6SM SCT012 BKN040 OVC080
                      TEMPO 2709/2712 5SM -SHRA BKN015 OVC040 FM271800
                       28008KT P6SM SCT020 BKN040 FM272200 30010KT
                       P6SM SCT040=
201609262320 TAF KCLM 262320Z 2700/2724 35006KT P6SM FEW050 BKN150 FM270200
                       28012G22KT P6SM SCT050 BKN120 FM270700 28010KT
                       P6SM -SHRA BKN020 OVC040 FM271000 29010KT
                       P6SM VCSH OVC025 FM271800 03006KT P6SM SCT030
                       BKN050 FM272000 05006KT P6SM SCT050=
201609261744 TAF KCLM 261744Z 2618/2718 09006KT P6SM BKN200 FM270000 28010KT
                       P6SM SCT040 BKN120 FM270200 28012G22KT P6SM
                       BKN040 BKN120 FM270700 28010KT P6SM VCSH
                       BKN020 OVC040 FM271000 29010KT P6SM VCSH
                       OVC020=
201609261121 TAF KCLM 261121Z 2612/2712 13006KT P6SM BKN250 FM261600 VRB04KT
                       P6SM BKN200 FM262200 28012KT P6SM SCT040
                       BKN120 FM270400 28012G22KT P6SM BKN040 BKN120
                       FM270700 28010KT P6SM VCSH BKN020 OVC040=
201609260520 TAF KCLM 260520Z 2606/2706 11004KT P6SM SCT250 FM261000 04005KT
                       P6SM VCFG BKN250 FM261600 VRB04KT P6SM BKN200
                       FM270000 28012KT P6SM SCT040 BKN120=
201609252324 TAF KCLM 252324Z 2600/2624 07004KT P6SM BKN250 FM260600 25005KT
                       P6SM VCFG BKN250 FM261600 04005KT P6SM BKN250
                       FM262100 33005KT P6SM BKN250=
201609251917 KCLM 251917Z 2519/2618 VRB03KT P6SM BKN015 BKN035 BKN060 FM252100
                       VRB03KT P6SM FEW020 SCT040 BKN060 FM260000
                       VRB03KT P6SM FEW060 FM260600 28005KT P6SM
                       VCFG FEW250=
201609251720 TAF KCLM 251720Z 2518/2618 VRB03KT P6SM SCT015 BKN035 OVC060
                      TEMPO 2518/2520 BKN015 OVC035 FM252000 VRB03KT
                       P6SM SCT040 BKN060 FM260000 VRB03KT P6SM
                       FEW060 FM260600 28005KT P6SM VCFG FEW250=
201609251120 TAF KCLM 251120Z 2512/2612 17003KT P6SM OVC050 FM251800 VRB04KT
                       P6SM SCT050 FM252200 33006KT P6SM SKC=
201609250520 TAF KCLM 250520Z 2506/2606 00000KT P6SM VCSH OVC060 FM251200 00000KT
                       P6SM SCT010 BKN070 FM251800 VRB04KT P6SM
                       SCT070 FM252200 33006KT P6SM SKC=
201609242355 KCLM 242355Z 2500/2524 VRB03KT P6SM VCSH SCT060 OVC110 FM251200
                       VRB03KT P6SM BKN110 OVC200 FM251800 VRB03KT
                       P6SM SCT110 BKN200=
201609242342 TAF KCLM 242342Z 2500/2524 04005KT P6SM VCSH SCT035 BKN110 OVC200
                       FM250200 VRB03KT P6SM FEW060 OVC110=
201609242023 KCLM 242023Z 2420/2518 04005KT P6SM VCSH SCT035 BKN110 OVC200
                      TEMPO 2421/2423 -RA FM250200 VRB03KT P6SM
                       FEW060 OVC110=
201609241726 TAF KCLM 241726Z 2418/2518 04005KT P6SM SCT110 OVC200 FM250200
                       VRB03KT P6SM FEW060 OVC110=
201609241120 TAF KCLM 241120Z 2412/2512 27005KT P6SM SKC FM241800 05005KT P6SM
                       BKN200 FM242000 02005KT P6SM BKN150=
201609240520 TAF KCLM 240520Z 2406/2506 31006KT P6SM SCT005 SCT030 FM240900
                       25005KT P6SM SCT020 SCT200 FM241200 VRB03KT
                       P6SM BKN012 BKN200 FM241800 05005KT P6SM
                       SCT018 BKN200 FM242000 02005KT P6SM SCT110
                       BKN200=
201609232345 TAF KCLM 232345Z 2400/2424 33006KT P6SM SCT040 FM240200 28009KT
                       P6SM FEW030 FM240900 25005KT P6SM SCT020
                       SCT200 FM241200 VRB03KT P6SM BKN012 BKN200
                       FM241800 05005KT P6SM SCT018 BKN200 FM242000
                       02005KT P6SM SCT110 BKN200=
201609232122 KCLM 232122Z 2321/2418 VRB05KT P6SM VCSH SCT030 FM240000 29010KT
                       P6SM FEW009 OVC025 FM240900 25005KT P6SM
                       OVC011=
201609231905 KCLM 231905Z 2319/2418 VRB05KT P6SM VCSH SCT005 OVC050
                      TEMPO 2319/2321 6SM -RA BR BKN005 OVC050
                       FM232100 VRB05KT P6SM VCSH FEW011 OVC030
                       FM240000 29010KT P6SM FEW009 OVC025 FM240900
                       25005KT P6SM OVC011=
201609231742 TAF KCLM 231742Z 2318/2418 30006KT P6SM VCSH SCT004 OVC080
                      TEMPO 2318/2321 6SM BR BKN005 OVC080 FM232100
                       VRB04KT P6SM -RA BKN010 OVC020 FM240000
                       29007KT P6SM VCSH BKN020 OVC050 FM240600
                       28006KT P6SM BKN020 OVC035=
201609231440 KCLM 231440Z 2315/2412 11006KT P6SM VCSH OVC070
                      TEMPO 2315/2317 -RA FM231700 08006KT P6SM
                       -RA SCT025 OVC040 FM232100 VRB04KT P6SM
                       -RA BKN010 OVC020 FM240000 29007KT P6SM
                       VCSH BKN020 OVC050 FM240600 28006KT P6SM
                       BKN020 OVC035=
201609231144 TAF KCLM 231144Z 2312/2412 00000KT P6SM SCT030 OVC080 FM231400
                       27004KT P6SM BKN035 OVC070 FM231700 00000KT
                       P6SM -RA OVC019 FM232100 VRB04KT P6SM -RA
                       BKN010 OVC020 FM240000 29007KT P6SM VCSH
                       BKN020 OVC050 FM240600 28006KT P6SM BKN020
                       OVC035=
201609230538 TAF KCLM 230538Z 2306/2406 29009KT P6SM SKC FM231200 27004KT P6SM
                       BKN035 OVC070 FM231500 00000KT P6SM VCSH
                       OVC019 FM232100 VRB04KT P6SM -RA BKN010
                       OVC020 FM240000 29007KT P6SM VCSH BKN020
                       OVC035=
201609222320 TAF KCLM 222320Z 2300/2324 29005KT P6SM SKC FM231200 27004KT P6SM
                       BKN035 OVC070 FM231500 00000KT P6SM VCSH
                       OVC019=
201609221720 TAF KCLM 221720Z 2218/2318 36005KT P6SM SKC FM222000 32006KT P6SM
                       SCT050 FM230600 25005KT P6SM OVC250 FM231200
                       00000KT P6SM VCSH BKN030 OVC070=
201609221145 TAF KCLM 221145Z 2212/2312 00000KT P6SM SKC FM221800 35006KT P6SM
                       SKC FM230300 28005KT P6SM SKC FM230600 26004KT
                       P6SM BKN050=
201609220539 TAF KCLM 220539Z 2206/2306 25004KT P6SM SCT040 FM221200 24004KT
                       P6SM SCT025 FM221800 32006KT P6SM SKC FM230300
                       26005KT P6SM SKC=
201609212320 TAF KCLM 212320Z 2200/2224 VRB04KT P6SM SKC FM220200 26004KT P6SM
                       SCT040 FM221200 32004KT P6SM SCT025 FM221800
                       27006KT P6SM SKC=
201609211727 TAF KCLM 211727Z 2118/2218 00000KT P6SM SKC FM212100 36005KT P6SM
                       SKC FM220600 24004KT P6SM SCT040 FM221200
                       VRB03KT P6SM SCT025=
201609211120 TAF KCLM 211120Z 2112/2212 24005KT P6SM SKC FM211800 VRB04KT P6SM
                       SKC FM220000 34007KT P6SM SKC FM220600 24003KT
                       P6SM SKC=
201609210542 TAF KCLM 210542Z 2106/2206 24005KT P6SM SKC FM211500 VRB04KT P6SM
                       SKC FM220000 34007KT P6SM SKC=
201609202320 TAF KCLM 202320Z 2100/2124 VRB03KT P6SM SKC FM210400 19005KT P6SM
                       FEW040=
201609201720 TAF KCLM 201720Z 2018/2118 VRB03KT P6SM OVC012 FM201900 02004KT
                       P6SM SCT060 FM210600 VRB03KT P6SM FEW040=
201609201127 TAF KCLM 201127Z 2012/2112 24003KT P6SM OVC080
                      TEMPO 2014/2016 P6SM BKN025 FM201800 VRB04KT
                       P6SM SCT050 BKN060 FM202100 32006KT P6SM
                       SCT060 FM210600 25004KT P6SM SKC=
201609200549 TAF KCLM 200549Z 2006/2106 00000KT P6SM FEW045 OVC070 FM200900
                       21003KT P6SM BKN060 BKN080
                      TEMPO 2014/2016 P6SM BKN025 FM201800 VRB04KT
                       P6SM SCT050 BKN060 FM202100 29006KT P6SM
                       SCT060=
201609192320 TAF KCLM 192320Z 2000/2024 00000KT P6SM FEW045 BKN070 OVC080 FM200700
                       15004KT P6SM BKN060 BKN080=
201609191721 TAF KCLM 191721Z 1918/2018 28008G17KT P6SM VCSH FEW050 BKN060 OVC080
                       TEMPO 1918/1920 5SM -SHRA OVC035 FM200000
                       29004KT P6SM SCT040 BKN080 FM200700 VRB03KT
                       P6SM SCT080 BKN200=
201609191128 TAF KCLM 191128Z 1912/2012 VRB03KT P6SM -SHRA SCT025 BKN040 BKN070
                       FM200100 28008KT P6SM SCT035 BKN060 FM200700
                       VRB03KT P6SM SCT080 BKN200=
201609190538 TAF KCLM 190538Z 1906/2006 VRB03KT P6SM SCT040 BKN080 FM191400
                       VRB03KT P6SM BKN040 BKN080 FM191800 27006KT
                       5SM -RA BR OVC025 FM192200 29008KT P6SM
                       BKN040 BKN060=
201609182320 TAF KCLM 182320Z 1900/1924 04003KT P6SM FEW070 BKN100 FM191200
                       VRB04KT P6SM OVC020
                      TEMPO 1912/1916 5SM -RA BR OVC015 FM191600
                       27006KT 5SM -RA BR OVC015 FM192200 29008KT
                       P6SM -RA BKN040 OVC050=
201609181725 TAF KCLM 181725Z 1818/1918 00000KT P6SM FEW040 OVC060 FM182000
                       27006KT P6SM SCT030 BKN060 FM191200 25003KT
                       6SM -RA OVC015=
201609181500 KCLM 181500Z 1815/1912 25006KT P6SM SCT020 FM181700 27006KT P6SM
                       SCT030 BKN060=
201609181134 TAF KCLM 181134Z 1812/1912 27004KT P6SM SCT050 FM181700 27006KT
                       P6SM SCT030 BKN060=
201609180540 TAF KCLM 180540Z 1806/1906 26006KT P6SM SCT050 FM181000 27004KT
                       4SM BR OVC004 FM181600 VRB03KT P6SM BKN008
                       FM181700 28006KT P6SM SCT025 BKN050=
201609172330 TAF KCLM 172330Z 1800/1824 30014G22KT P6SM SCT050 BKN060 OVC100
                       FM180400 27010KT P6SM SCT025 BKN040 FM180900
                       27004KT 4SM BR OVC015 FM182000 29009KT P6SM
                       VCSH SCT025 BKN050=
201609171730 TAF KCLM 171730Z 1718/1818 31007KT 3SM -RA BR SCT001 OVC030
                      TEMPO 1718/1721 1SM RA BR BKN001 OVC020 FM172100
                       27006KT P6SM -SHRA SCT015 BKN025 BKN040
                       FM180300 27010KT P6SM SCT025 BKN040 FM180900
                       27004KT 4SM BR OVC015=
201609171141 TAF KCLM 171141Z 1712/1812 VRB03KT P6SM -RA SCT004 OVC008
                      TEMPO 1712/1716 4SM -RA OVC004 FM172000 27006KT
                       P6SM -SHRA SCT015 BKN025 BKN040 FM180300
                       27010KT P6SM SCT025 BKN040=
201609170539 TAF KCLM 170539Z 1706/1806 27006KT P6SM SCT008 OVC060
                      TEMPO 1706/1710 BKN008 OVC060 FM171000 VRB03KT
                       P6SM -RA SCT010 OVC040 FM171300 VRB03KT
                       4SM -RA BR OVC015 FM172000 27010KT P6SM
                       -SHRA BKN025 BKN045=
201609162335 TAF KCLM 162335Z 1700/1724 31007KT P6SM BKN120 OVC220 FM170700
                       VRB03KT P6SM -RA OVC040 FM171200 VRB03KT
                       4SM -RA BR OVC015 FM172200 27010KT P6SM
                       -SHRA BKN025 BKN045=
201609161725 TAF KCLM 161725Z 1618/1718 00000KT P6SM BKN150 OVC250 FM162300
                       VRB03KT P6SM SCT070 BKN120 OVC250 FM170500
                       VRB03KT P6SM -RA OVC040 FM171000 VRB03KT
                       P6SM -RA OVC025 FM171500 28003KT 4SM -RA
                       BR OVC015=
201609161136 TAF KCLM 161136Z 1612/1712 28006KT P6SM SCT120 BKN250 FM162300
                       VRB03KT P6SM SCT070 BKN120 OVC250 FM170500
                       VRB03KT P6SM -RA OVC040 FM171000 VRB03KT
                       P6SM -RA OVC025=
201609160909 TAF AMD KCLM 160909Z 1609/1706 28007KT P6SM SCT250 FM161800 34007KT
                       P6SM SCT120 BKN250 FM162300 VRB03KT P6SM
                       SCT070 BKN120 OVC250 FM170500 VRB03KT P6SM
                       -RA OVC040=
201609160524 TAF KCLM 160524Z 1606/1706 28007KT P6SM SCT250 FM161800 34007KT
                       P6SM SCT120 BKN250 FM162300 VRB03KT P6SM
                       SCT070 BKN120 OVC250 FM170500 VRB03KT P6SM
                       -RA OVC040=
201609152340 TAF KCLM 152340Z 1600/1624 28007KT P6SM SCT250 FM160900 VRB03KT
                       P6SM VCFG FEW008 SCT250
                      TEMPO 1612/1616 5SM BR BKN008 FM161800 34007KT
                       P6SM SCT120 BKN250=
201609151739 TAF KCLM 151739Z 1518/1618 02005KT P6SM SKC FM160000 33005KT P6SM
                       SCT250 FM160300 28005KT P6SM SCT250 FM160900
                       VRB03KT P6SM VCFG FEW005 SCT250=
201609151604 TAF AMD KCLM 151604Z 1516/1612 33004KT P6SM VCFG FEW010 FM151800
                       02005KT P6SM SCT250 FM160000 28008KT P6SM
                       SCT250=
201609151407 TAF AMD KCLM 151407Z 1514/1612 22004KT 6SM BR SCT010
                      TEMPO 1514/1518 3SM BR BKN007 FM151800 VRB03KT
                       P6SM SCT250 FM160000 28008KT P6SM SCT250=
201609151136 TAF KCLM 151136Z 1512/1612 26006KT P6SM SKC FM151400 26006KT P6SM
                       BKN011 FM151700 VRB03KT P6SM SCT250 FM160000
                       28008KT P6SM SCT250=
201609150536 TAF KCLM 150536Z 1506/1606 28008KT P6SM SCT250 FM151100 28006KT
                       P6SM OVC011 FM151800 VRB03KT P6SM SCT250
                       FM160000 28008KT P6SM SCT250=
201609142336 TAF KCLM 142336Z 1500/1524 32007KT P6SM SCT250 FM150200 28008KT
                       P6SM SCT250 FM150900 28005KT P6SM VCFG SCT010
                       SCT250 FM151200 28005KT 2SM BR BKN004 BKN250
                       FM151800 02005KT P6SM SCT250=
201609141736 TAF KCLM 141736Z 1418/1518 05005KT P6SM SCT250 FM142300 33007KT
                       P6SM SCT250 FM150200 28007KT P6SM SCT250
                       FM150900 28005KT P6SM VCFG SCT010 SCT250
                       FM151200 28005KT 2SM BR OVC004=
201609141120 TAF KCLM 141120Z 1412/1512 VRB04KT P6SM SKC FM141800 06005KT P6SM
                       SKC FM142100 03005KT P6SM SKC FM150200 30006KT
                       P6SM SKC FM150400 29008KT P6SM SKC FM151000
                       27005KT 5SM BR SCT003=
201609140520 TAF KCLM 140520Z 1406/1506 23005KT P6SM SKC FM141800 VRB04KT P6SM
                       SKC FM150200 27007KT P6SM SKC FM150400 28010KT
                       P6SM SKC=
201609132338 TAF KCLM 132338Z 1400/1424 VRB04KT P6SM SKC FM140500 26006KT P6SM
                       SKC FM141800 VRB04KT P6SM SKC=
201609131745 TAF KCLM 131745Z 1318/1418 VRB04KT P6SM SKC FM140500 28006KT P6SM
                       SKC=
201609131120 TAF KCLM 131120Z 1312/1412 23006KT P6SM SKC FM131800 06006KT P6SM
                       SKC FM140000 VRB04KT P6SM SKC FM140500 28006KT
                       P6SM SKC=
201609130520 TAF KCLM 130520Z 1306/1406 24005KT P6SM SKC FM131200 VRB04KT P6SM
                       SKC FM131800 06006KT P6SM SKC FM140300 35005KT
                       P6SM SKC=
201609122320 TAF KCLM 122320Z 1300/1324 06006KT P6SM SKC FM130200 28005KT P6SM
                       SKC FM131800 09006KT P6SM SKC=
201609121733 TAF KCLM 121733Z 1218/1318 04006KT P6SM SKC FM122000 06006KT P6SM
                       SKC FM130200 28005KT P6SM SKC=
201609121120 TAF KCLM 121120Z 1212/1312 23006KT P6SM SKC FM121700 09006KT P6SM
                       SKC FM122000 06006KT P6SM SKC FM130200 28005KT
                       P6SM SKC=
201609120520 TAF KCLM 120520Z 1206/1306 VRB04KT P6SM SKC=
201609112320 TAF KCLM 112320Z 1200/1224 VRB04KT P6SM SKC=
201609111720 TAF KCLM 111720Z 1118/1218 VRB03KT P6SM BKN035 FM112100 33005KT
                       P6SM SCT040 FM120600 VRB04KT P6SM SKC=
201609111124 TAF KCLM 111124Z 1112/1212 27005KT P6SM FEW020 BKN050
                      TEMPO 1112/1115 SCT005 BKN020 FM111700 30006KT
                       P6SM SCT025 BKN050 FM111900 01006KT P6SM
                       SKC FM120000 VRB04KT P6SM SKC=
201609111017 TAF AMD KCLM 111017Z 1110/1206 29006KT P6SM FEW006 SCT040
                      TEMPO 1111/1115 OVC006 FM111500 30007KT P6SM
                       SCT012 SCT040 FM111800 34006KT P6SM SKC
                       FM120000 VRB04KT P6SM SKC=
201609110536 TAF KCLM 110536Z 1106/1206 31010KT P6SM SCT006 SCT020 FM110900
                       32010KT P6SM SCT006 BKN020
                      TEMPO 1110/1113 OVC006 FM111300 32008KT P6SM
                       OVC012 FM111600 VRB04KT P6SM BKN020 FM111800
                       VRB04KT P6SM SKC=
201609110229 TAF AMD KCLM 110229Z 1102/1124 29012G22KT P6SM SCT010 SCT020
                      TEMPO 1102/1104 BKN008 FM110900 32010KT P6SM
                       OVC020 FM111200 32008KT P6SM BKN030 FM111700
                       VRB04KT P6SM SCT030=
201609110221 TAF AMD KCLM 110221Z 1102/1124 29012G22KT P6SM SCT020 FM110900
                       32010KT P6SM OVC020 FM111200 32008KT P6SM
                       BKN030 FM111700 VRB04KT P6SM SCT030=
201609102320 TAF KCLM 102320Z 1100/1124 32012G22KT P6SM BKN025 FM110600 32010KT
                       P6SM OVC020 FM111200 32008KT P6SM BKN030
                       FM111700 VRB04KT P6SM SCT030=
201609101900 KCLM 101900Z 1019/1118 31010KT P6SM SCT012 OVC025
                      TEMPO 1019/1022 BKN012 OVC020 FM102200 32012G22KT
                       P6SM BKN015 OVC030 FM110600 32010KT P6SM
                       OVC012 FM111200 32008KT P6SM BKN015 BKN030
                       FM111700 VRB04KT P6SM SCT030=
201609101720 TAF KCLM 101720Z 1018/1118 32008KT P6SM BKN050 FM110000 32012G22KT
                       P6SM BKN040 FM110600 32012KT P6SM BKN020
                       FM111700 32008KT P6SM SCT030=
201609101120 TAF KCLM 101120Z 1012/1112 26005KT P6SM FEW018 SCT080 BKN200 FM101400
                       27005KT P6SM FEW020 BKN080 BKN200 FM101700
                       29006KT P6SM SCT040 BKN080 FM102000 30010KT
                       P6SM BKN040 BKN080 FM110000 28012KT P6SM
                       SCT025 OVC040 FM110500 28010KT P6SM BKN022
                       OVC040 FM110800 28010KT 5SM BR OVC020=
201609100534 TAF KCLM 100534Z 1006/1106 26005KT P6SM SCT200 FM100800 VRB04KT
                       P6SM SCT120 BKN200 FM101800 VRB04KT P6SM
                       SCT040 BKN120 FM102100 30010KT P6SM BKN040
                       FM110000 28012KT P6SM SCT020 BKN040 FM110500
                       28010KT P6SM BKN020 BKN040=
201609092320 TAF KCLM 092320Z 1000/1024 VRB04KT P6SM SCT200 FM100800 VRB04KT
                       P6SM SCT120 BKN200 FM101800 VRB04KT P6SM
                       SCT040 BKN120 FM102200 30012KT P6SM BKN040=
201609091720 TAF KCLM 091720Z 0918/1018 VRB03KT P6SM SCT250 FM100000 27007KT
                       P6SM SCT100 BKN250=
201609091512 TAF AMD KCLM 091512Z 0915/1012 VRB03KT P6SM SCT250 FM100000 27007KT
                       P6SM SCT100 BKN250=
201609091120 TAF KCLM 091120Z 0912/1012 00000KT P6SM VCFG SCT002
                      TEMPO 0912/0916 1SM BR BKN002 FM091700 03005KT
                       P6SM SKC FM100200 28005KT P6SM SKC FM100900
                       28004KT P6SM SCT100 BKN250=
201609090520 TAF KCLM 090520Z 0906/1006 27006KT P6SM SCT030 SCT250 FM091200
                       00000KT P6SM VCFG SCT002
                      TEMPO 0912/0916 1SM BR BKN002 FM091700 03005KT
                       P6SM SKC FM100200 28003KT P6SM SKC=
201609082320 TAF KCLM 082320Z 0900/0924 33006KT P6SM SCT030 SCT250 FM091200
                       00000KT P6SM VCFG SCT002
                      TEMPO 0912/0916 1SM BR BKN002 FM091700 33006KT
                       P6SM SKC=
201609081756 TAF KCLM 081756Z 0818/0918 30007KT P6SM FEW011 FM082000 32008KT
                       P6SM SCT035 BKN200 FM082300 30007KT P6SM
                       SCT200 FM090300 VRB03KT P6SM SCT250=
201609081121 TAF KCLM 081121Z 0812/0912 28006KT P6SM BKN010 OVC020 FM081800
                       32006KT P6SM BKN020 BKN200 FM082000 32008KT
                       P6SM SCT035 BKN200 FM082300 30007KT P6SM
                       SCT200 FM090300 VRB03KT P6SM SCT250=
201609080721 TAF AMD KCLM 080721Z 0807/0906 28006KT P6SM BKN020 BKN050
                      TEMPO 0807/0809 2SM BR OVC005 FM080900 28006KT
                       P6SM OVC020
                      TEMPO 0809/0813 4SM BR OVC015 FM081800 32006KT
                       P6SM BKN025 BKN200 FM082000 32008KT P6SM
                       FEW035 BKN200 FM082300 30007KT P6SM SCT200=
201609080524 TAF KCLM 080524Z 0806/0906 28006KT P6SM BKN020 BKN050
                      TEMPO 0806/0809 4SM BR OVC015 FM080900 28006KT
                       P6SM OVC020
                      TEMPO 0809/0813 4SM BR OVC015 FM081800 32006KT
                       P6SM BKN025 BKN200 FM082000 32008KT P6SM
                       FEW035 BKN200 FM082300 30007KT P6SM SCT200=
201609080004 TAF AMD KCLM 080004Z 0800/0824 VRB03KT P6SM VCSH SCT006 OVC080
                       TEMPO 0800/0802 BKN006 OVC080 FM080300 29007KT
                       P6SM VCSH SCT035 OVC050 FM080600 28006KT
                       P6SM BKN028 BKN050 FM080900 28006KT P6SM
                       OVC020 FM081800 32006KT P6SM BKN025 BKN200
                       FM082000 32008KT P6SM FEW035 BKN200=
201609072341 TAF KCLM 072341Z 0800/0824 VRB03KT P6SM -RA FEW005 BKN035 OVC080
                       FM080300 29007KT P6SM -RA FEW020 BKN035
                       OVC050 FM080600 28006KT P6SM BKN028 BKN050
                       FM080900 28006KT P6SM OVC020=
201609072200 TAF AMD KCLM 072200Z 0722/0818 VRB03KT 5SM -RA BR SCT035 BKN050
                       OVC100 FM080300 29007KT P6SM -RA FEW020
                       BKN035 OVC050 FM080600 28006KT P6SM BKN028
                       BKN050 FM080900 28006KT P6SM OVC020=
201609072039 TAF AMD KCLM 072039Z 0721/0818 31008KT P6SM -RA SCT035 BKN050 OVC100
                       FM080000 29007KT P6SM -RA FEW020 BKN035
                       OVC050 FM080300 28006KT P6SM BKN028 BKN050
                       FM080900 28006KT P6SM OVC020=
201609071838 TAF AMD KCLM 071838Z 0719/0818 34006KT P6SM FEW030 SCT050 OVC200
                       FM072100 31008KT P6SM VCSH SCT035 BKN050
                       OVC200
                      TEMPO 0722/0724 -RA FM080000 29007KT P6SM
                       -RA FEW020 BKN035 OVC050 FM080300 28006KT
                       P6SM BKN028 BKN050 FM080900 28006KT P6SM
                       OVC020=
201609071746 TAF KCLM 071746Z 0718/0818 33006KT P6SM SCT050 SCT090 BKN200 FM080200
                       29004KT P6SM SCT015 OVC030 FM080900 28006KT
                       5SM BR SCT007 OVC015=
201609071638 TAF AMD KCLM 071638Z 0717/0812 30005KT P6SM SCT009 BKN015 FM071800
                       33006KT P6SM FEW015 SCT030 SCT060
                      TEMPO 0720/0724 -RA BKN030 BKN060 FM080200
                       29004KT P6SM SCT015 OVC030 FM080900 28006KT
                       5SM BR SCT007 OVC015=
201609071429 TAF AMD KCLM 071429Z 0714/0812 24004KT 6SM BR OVC002
                      TEMPO 0714/0716 2SM BR FM071700 28004KT P6SM
                       BKN007 FM071800 33006KT P6SM FEW015 SCT030
                       SCT060
                      TEMPO 0720/0724 -RA BKN030 BKN060 FM080200
                       29004KT P6SM SCT015 OVC030 FM080900 28006KT
                       5SM BR SCT007 OVC015=
201609071120 TAF KCLM 071120Z 0712/0812 26004KT P6SM VCFG OVC005
                      TEMPO 0712/0716 3SM BR OVC001 FM072000 33006KT
                       P6SM VCSH SCT030 OVC060
                      TEMPO 0720/0724 -RA BKN030 FM080200 29004KT
                       P6SM SCT015 OVC030 FM080900 28006KT 5SM
                       BR SCT007 OVC015=
201609071006 TAF AMD KCLM 071006Z 0710/0806 26004KT P6SM VCFG BKN005 OVC015
                       TEMPO 0710/0714 1SM BR OVC001 FM072000 33006KT
                       P6SM VCSH SCT030 OVC060
                      TEMPO 0720/0724 -RA BKN030 FM080200 29004KT
                       P6SM SCT015 OVC030=
201609070949 TAF AMD KCLM 070949Z 0710/0806 26004KT P6SM VCFG BKN005 OVC015
                       FM072000 33006KT P6SM VCSH SCT030 OVC060
                       TEMPO 0720/0724 -RA BKN030 FM080200 29004KT
                       P6SM SCT015 OVC030=
201609070524 TAF KCLM 070524Z 0706/0806 29005KT P6SM OVC030 FM070900 26004KT
                       P6SM VCFG SCT005 OVC015 FM072000 33006KT
                       P6SM VCSH SCT040 OVC060
                      TEMPO 0720/0724 -RA BKN030 FM080200 29004KT
                       P6SM SCT015 OVC030=
201609062338 TAF KCLM 062338Z 0700/0724 32005KT P6SM BKN040 FM070400 29005KT
                       P6SM SCT040 FM070700 29006KT P6SM VCFG SCT005
                       SCT120 FM072200 32009KT P6SM -RA SCT040
                       OVC060=
201609062107 TAF AMD KCLM 062107Z 0621/0718 35004KT P6SM OVC018 FM062300 32005KT
                       P6SM BKN025 BKN040 FM070100 31006KT P6SM
                       SCT040 FM070500 29006KT P6SM VCFG SCT005
                       SCT120=
201609061736 TAF KCLM 061736Z 0618/0718 35003KT 3SM BR OVC004 FM061900 34003KT
                       P6SM SCT008 BKN015 FM062100 32005KT P6SM
                       SCT030 SCT050 FM070500 29006KT P6SM VCFG
                       SCT005 SCT120=
201609061459 TAF AMD KCLM 061459Z 0615/0712 VRB03KT 2SM BR OVC005
                      TEMPO 0615/0617 3/4SM BR OVC002 FM061800
                       36003KT P6SM BKN012 BKN040 FM062100 34006KT
                       P6SM SCT030 SCT050 FM070500 29006KT P6SM
                       VCFG SCT005 SCT100=
201609061120 TAF KCLM 061120Z 0612/0712 VRB03KT P6SM OVC005 FM061500 VRB03KT
                       P6SM VCSH BKN010 OVC025 FM061900 35006KT
                       P6SM VCSH SCT010 BKN030 FM070200 29006KT
                       P6SM SCT010 OVC020 FM070800 28007KT P6SM
                       OVC010=
201609060906 TAF AMD KCLM 060906Z 0609/0706 VRB03KT P6SM SCT025 BKN060
                      TEMPO 0609/0613 4SM BR OVC001 FM061300 VRB03KT
                       P6SM VCSH BKN010 OVC025 FM062000 35006KT
                       P6SM VCSH SCT030 BKN050 FM070200 29006KT
                       P6SM SCT030 OVC050=
201609060526 TAF KCLM 060526Z 0606/0706 VRB03KT P6SM SCT025 BKN060
                      TEMPO 0606/0610 4SM BR SCT005 OVC015 FM061300
                       VRB03KT P6SM VCSH BKN010 OVC025 FM062000
                       35006KT P6SM VCSH SCT030 BKN050 FM070200
                       29006KT P6SM SCT030 OVC050=
201609052338 TAF KCLM 052338Z 0600/0624 VRB03KT P6SM -RA BKN035 OVC060 FM060300
                       VRB03KT 6SM -RA BKN018 OVC045 FM060600 24003KT
                       5SM -RA SCT005 BKN015 OVC050 FM061300 27004KT
                       P6SM VCSH BKN006 OVC015 FM062000 31006KT
                       P6SM VCSH SCT030 SCT045=
201609051737 TAF KCLM 051737Z 0518/0618 35005KT P6SM VCSH SCT020 BKN100 FM052200
                       33005KT P6SM -RA BKN030 OVC045 FM060100
                       VRB03KT 5SM -RA BR BKN018 OVC045 FM060600
                       24003KT P6SM -SHRA SCT005 BKN025 OVC050
                       FM061300 27004KT P6SM VCSH BKN006 OVC015=
201609051648 TAF AMD KCLM 051648Z 0517/0612 29008KT P6SM BKN100 FM051900 34005KT
                       P6SM SCT040 OVC090 FM052200 33005KT P6SM
                       VCSH BKN035 OVC050 FM060100 VRB03KT 5SM
                       -RA BR BKN018 OVC045 FM060600 24003KT P6SM
                       -SHRA SCT005 BKN020 OVC050=
201609051138 TAF KCLM 051138Z 0512/0612 29008KT P6SM BKN007 FM051900 34005KT
                       P6SM SCT025 OVC090 FM052200 33005KT P6SM
                       SCT080 BKN100 FM060000 00000KT P6SM VCSH
                       SCT015 OVC060 FM060300 00000KT 6SM -RA BKN025
                       OVC050 FM060700 00000KT P6SM -SHRA BKN015
                       OVC050=
201609051046 TAF AMD KCLM 051046Z 0511/0606 28007KT P6SM BKN007 BKN080 FM051900
                       34005KT P6SM SCT015 SCT150 FM052200 33005KT
                       P6SM SCT080 BKN100 FM060000 00000KT P6SM
                       VCSH BKN025 OVC050 FM060500 00000KT 5SM
                       -RA OVC015=
201609050536 TAF KCLM 050536Z 0506/0606 30008KT P6SM FEW005
                      TEMPO 0506/0510 OVC005 FM051100 27006KT P6SM
                       SCT005 BKN010 FM051900 34005KT P6SM SCT015
                       SCT150 FM052200 33005KT P6SM SCT080 BKN100
                       FM060000 00000KT P6SM VCSH BKN025 OVC050
                       FM060500 00000KT 5SM -RA OVC015=
201609050441 TAF AMD KCLM 050441Z 0505/0524 29010KT P6SM BKN005 FM051100 27006KT
                       P6SM SCT005 BKN010 FM051900 34005KT P6SM
                       SCT015 SCT150 FM052200 33005KT P6SM SCT040
                       OVC100=
201609042335 TAF KCLM 042335Z 0500/0524 29011KT P6SM VCFG SKC FM051100 27006KT
                       P6SM SCT005 BKN010 FM051900 34005KT P6SM
                       SCT015 SCT150 FM052200 33005KT P6SM SCT040
                       OVC100=
201609041739 TAF KCLM 041739Z 0418/0518 35005KT P6SM VCFG SCT045 FM050000 29011KT
                       P6SM SKC FM051100 27006KT P6SM SCT008 BKN015=
201609041126 TAF KCLM 041126Z 0412/0512 25006KT P6SM SKC FM041700 35005KT P6SM
                       SCT150 FM051000 27006KT P6SM SCT025=
201609040544 TAF KCLM 040544Z 0406/0506 23005KT P6SM SKC FM040900 VRB03KT P6SM
                       OVC080 FM041700 01006KT P6SM SCT080 FM050000
                       30005KT P6SM SCT100=
201609032322 TAF KCLM 032322Z 0400/0424 31007KT P6SM SCT050 FM040400 28005KT
                       P6SM BKN080 FM040900 VRB03KT P6SM OVC080
                       FM041700 01006KT P6SM SCT080=
201609031720 TAF KCLM 031720Z 0318/0418 29005KT P6SM BKN015 FM032100 31007KT
                       P6SM SCT015 BKN050 FM040000 28005KT P6SM
                       OVC080 FM040900 VRB03KT P6SM OVC080=
201609031130 TAF KCLM 031130Z 0312/0412 23005KT P6SM FEW080 FM031500 29005KT
                       P6SM BKN015 FM032100 31007KT P6SM SCT015
                       BKN050 FM040000 30005KT P6SM OVC080=
201609030541 TAF KCLM 030541Z 0306/0406 27005KT P6SM SCT008
                      TEMPO 0306/0310 OVC007 FM031000 VRB03KT P6SM
                       BKN015 FM032000 30007KT P6SM SCT040 FM040200
                       28005KT P6SM SCT250=
201609022320 TAF KCLM 022320Z 0300/0324 30008KT P6SM SCT040
                      TEMPO 0303/0307 -SHRA BKN030 FM031200 VRB03KT
                       P6SM BKN020 FM031800 30007KT P6SM SCT040=
201609021720 TAF KCLM 021720Z 0218/0318 31006KT P6SM SCT040
                      TEMPO 0221/0224 -SHRA BKN030 FM030000 30010KT
                       P6SM VCSH SCT025 BKN050 FM031200 VRB03KT
                       P6SM BKN015 FM031700 23006KT P6SM SCT030=
201609021345 TAF AMD KCLM 021345Z 0214/0312 23005KT P6SM -SHRA OVC050
                      TEMPO 0214/0216 2SM -SHRA BKN030 FM021800
                       28006KT P6SM SCT007 OVC025 FM030000 28008KT
                       P6SM OVC050 FM030700 28004KT P6SM BKN015
                       OVC050=
201609021120 TAF KCLM 021120Z 0212/0312 23005KT P6SM VCSH BKN070 FM021800 28006KT
                       P6SM SCT007 OVC025 FM030000 28008KT P6SM
                       OVC050 FM030700 28004KT P6SM BKN015 OVC050=
201609020750 TAF AMD KCLM 020750Z 0208/0306 22004KT P6SM OVC015
                      TEMPO 0209/0212 4SM BR OVC007 FM021200 VRB04KT
                       P6SM VCSH OVC007 FM021800 28006KT P6SM SCT007
                       OVC025 FM030000 28008KT P6SM OVC050=
201609020538 TAF KCLM 020538Z 0206/0306 22004KT 4SM BR OVC009
                      TEMPO 0206/0209 1SM BR OVC007 FM021200 VRB04KT
                       P6SM VCSH OVC007 FM021800 28006KT P6SM SCT007
                       OVC025 FM030000 28008KT P6SM OVC050=
201609012320 TAF KCLM 012320Z 0200/0224 VRB03KT P6SM -RA SCT025 OVC050
                      TEMPO 0202/0206 5SM -RA BR BKN020 OVC040
                       FM020600 26006KT P6SM -SHRA BKN020 BKN050
                       FM021200 VRB04KT P6SM VCSH BKN015 BKN030
                       FM021800 26006KT P6SM SCT020 BKN050=
201609011720 TAF KCLM 011720Z 0118/0218 VRB04KT P6SM SCT025 BKN060 OVC120
                      TEMPO 0118/0122 BKN025 OVC060 FM012200 VRB04KT
                       P6SM -RA BKN025 OVC050 FM020800 23006KT
                       P6SM VCSH BKN020 BKN040=
201609011123 TAF KCLM 011123Z 0112/0212 25007KT P6SM SCT025 SCT050 BKN100
                      TEMPO 0114/0117 SCT025 BKN050 FM011700 VRB03KT
                       5SM -RA BR BKN025 OVC050 FM020300 25006KT
                       P6SM -SHRA BKN022 BKN040=
201609010641 TAF AMD KCLM 010641Z 0107/0206 26005KT P6SM VCSH SCT025 BKN050
                       BKN120
                      TEMPO 0107/0110 5SM -SHRA BR BKN022 OVC050
                       FM011000 VRB03KT P6SM BKN025 OVC050 FM011800
                       VRB03KT P6SM -RA BKN025 OVC050=
201609010521 TAF KCLM 010521Z 0106/0206 26005KT P6SM VCSH SCT025 BKN050 BKN120
                       TEMPO 0106/0110 -SHRA BKN022 OVC050 FM011000
                       VRB03KT P6SM BKN025 OVC050 FM011800 VRB03KT
                       P6SM -RA BKN025 OVC050=