##########################################################
# Query made at 02/16/2025 03:23:55 UTC
# Time interval: from 06/01/2017 00:00  to 06/30/2017 23:59  UTC
##########################################################

##########################################################
# KCLM, Port Angeles, William R. Fairchild International Airport (United States)
# WMO index: -----. WIGOS ID: Unknown
# Latitude 48-07-20N. Longitude 123-30-19W. Altitude 87 m.
##########################################################

###################################
#  METAR/SPECI from KCLM
###################################
201706302353 METAR KCLM 302353Z AUTO 31008KT 10SM FEW080 SCT090 18/13 A3002 RMK AO2 SLP164 T01780128 10206 20156 57014=
201706302253 METAR KCLM 302253Z AUTO 34006KT 10SM CLR 19/13 A3003 RMK AO2 SLP170 T01890128=
201706302153 METAR KCLM 302153Z AUTO 30008KT 10SM CLR 19/13 A3004 RMK AO2 SLP172 T01890128=
201706302053 METAR KCLM 302053Z AUTO 33008KT 10SM CLR 17/12 A3006 RMK AO2 SLP178 T01720122 58007=
201706301953 METAR KCLM 301953Z AUTO 32007KT 10SM CLR 16/12 A3007 RMK AO2 SLP181 T01560117=
201706301853 METAR KCLM 301853Z AUTO 36005KT 10SM CLR 17/12 A3007 RMK AO2 SLP183 T01720122=
201706301753 METAR KCLM 301753Z AUTO 36005KT 10SM CLR 17/12 A3008 RMK AO2 SLP185 T01670122 10172 20100 58008=
201706301653 METAR KCLM 301653Z AUTO 32005KT 10SM CLR 15/12 A3008 RMK AO2 SLP187 T01500122=
201706301553 METAR KCLM 301553Z AUTO 30004KT 10SM CLR 14/12 A3010 RMK AO2 SLP192 T01390122=
201706301530 SPECI KCLM 301530Z AUTO 30004KT 10SM SCT002 12/12 A3010 RMK AO2 T01220117=
201706301509 SPECI KCLM 301509Z AUTO VRB03KT 3SM BR OVC002 12/12 A3010 RMK AO2 T01170117=
201706301502 SPECI KCLM 301502Z AUTO 28004KT 1 1/2SM BR OVC002 11/11 A3010 RMK AO2 VIS 1V3 T01110111=
201706301453 METAR KCLM 301453Z AUTO 30005KT 3/4SM BR OVC002 11/11 A3010 RMK AO2 SLP193 T01110111 51002=
201706301353 METAR KCLM 301353Z AUTO 30003KT M1/4SM FG VV002 11/11 A3010 RMK AO2 SLP192 T01060106=
201706301324 SPECI KCLM 301324Z AUTO 30004KT M1/4SM FG VV002 10/10 A3010 RMK AO2 T01000100=
201706301253 METAR KCLM 301253Z AUTO 28004KT M1/4SM FG VV001 10/10 A3010 RMK AO2 SLP191 T01000100=
201706301225 SPECI KCLM 301225Z AUTO 29003KT 1/4SM FG VV001 10/10 A3010 RMK AO2 T01000100=
201706301153 METAR KCLM 301153Z AUTO 00000KT 1/4SM FG VV002 10/10 A3009 RMK AO2 SLP191 T01000100 10117 20100 56002=
201706301129 SPECI KCLM 301129Z AUTO 28004KT 1/2SM FG VV002 10/10 A3010 RMK AO2 T01000100=
201706301118 SPECI KCLM 301118Z AUTO 30005KT 1/4SM FG VV002 11/11 A3010 RMK AO2 T01060106=
201706301053 METAR KCLM 301053Z AUTO 28004KT 1/2SM FG VV002 11/11 A3010 RMK AO2 SLP191 T01060106=
201706301042 SPECI KCLM 301042Z AUTO 28006KT 1/2SM FG VV002 11/11 A3009 RMK AO2 T01060106=
201706300953 METAR KCLM 300953Z AUTO 28005KT 1/4SM FG VV002 11/11 A3010 RMK AO2 SLP193 T01060106=
201706300942 SPECI KCLM 300942Z AUTO 00000KT 1/2SM FG VV002 11/11 A3010 RMK AO2 T01060106=
201706300931 SPECI KCLM 300931Z AUTO 29004KT 1 3/4SM BR OVC002 11/11 A3010 RMK AO2 T01060106=
201706300853 METAR KCLM 300853Z AUTO 30005KT 6SM BR BKN003 11/11 A3010 RMK AO2 SLP192 T01060106 56005=
201706300841 SPECI KCLM 300841Z AUTO 29003KT 7SM SCT003 11/11 A3010 RMK AO2 T01060106=
201706300753 METAR KCLM 300753Z AUTO 28005KT 8SM CLR 11/11 A3010 RMK AO2 SLP193 T01110106 401890094=
201706300653 METAR KCLM 300653Z AUTO 30004KT 8SM CLR 11/11 A3011 RMK AO2 SLP197 T01060106=
201706300553 METAR KCLM 300553Z AUTO 28005KT 9SM CLR 11/11 A3012 RMK AO2 SLP199 T01110106 10178 20111 56003=
201706300453 METAR KCLM 300453Z AUTO 30004KT 9SM CLR 11/11 A3012 RMK AO2 SLP199 T01110106=
201706300353 METAR KCLM 300353Z AUTO 30004KT 10SM CLR 13/11 A3012 RMK AO2 SLP198 T01280111=
201706300253 METAR KCLM 300253Z AUTO 31007KT 10SM CLR 14/11 A3013 RMK AO2 SLP202 T01440111 56005=
201706300153 METAR KCLM 300153Z AUTO 31004KT 10SM CLR 16/12 A3013 RMK AO2 SLP203 T01610122=
201706300053 METAR KCLM 300053Z AUTO 33004KT 10SM CLR 17/12 A3013 RMK AO2 SLP204 T01720122=
201706292353 METAR KCLM 292353Z AUTO 33006KT 10SM CLR 17/12 A3014 RMK AO2 SLP208 T01720122 10189 20150 58007=
201706292253 METAR KCLM 292253Z AUTO 31008KT 10SM CLR 18/12 A3015 RMK AO2 SLP211 T01780122=
201706292153 METAR KCLM 292153Z AUTO 30007KT 10SM CLR 18/12 A3016 RMK AO2 SLP212 T01830122=
201706292053 METAR KCLM 292053Z AUTO 32006KT 10SM CLR 19/12 A3017 RMK AO2 SLP215 T01890122 58003=
201706291953 METAR KCLM 291953Z AUTO 30007KT 10SM CLR 16/12 A3017 RMK AO2 SLP218 T01610117=
201706291853 METAR KCLM 291853Z AUTO 35006KT 10SM CLR 16/12 A3018 RMK AO2 SLP218 T01610117=
201706291753 METAR KCLM 291753Z AUTO VRB05KT 10SM CLR 15/11 A3018 RMK AO2 SLP218 T01500111 10156 20094 51007=
201706291653 METAR KCLM 291653Z AUTO VRB04KT 10SM CLR 15/11 A3018 RMK AO2 SLP219 T01500111=
201706291553 METAR KCLM 291553Z AUTO VRB04KT 10SM CLR 14/11 A3016 RMK AO2 SLP213 T01440111=
201706291453 METAR KCLM 291453Z AUTO 35003KT 10SM CLR 13/11 A3016 RMK AO2 SLP211 T01330111 51008=
201706291353 METAR KCLM 291353Z AUTO 26003KT 9SM CLR 12/11 A3015 RMK AO2 SLP208 T01220111=
201706291253 METAR KCLM 291253Z AUTO 27005KT 7SM CLR 10/09 A3014 RMK AO2 SLP207 T01000094=
201706291153 METAR KCLM 291153Z AUTO 27005KT 8SM CLR 10/09 A3013 RMK AO2 SLP203 T01000094 10117 20100 51011=
201706291053 METAR KCLM 291053Z AUTO 24003KT 8SM CLR 10/09 A3012 RMK AO2 SLP198 T01000094=
201706290953 METAR KCLM 290953Z AUTO 30005KT 8SM CLR 11/10 A3011 RMK AO2 SLP196 T01060100=
201706290853 METAR KCLM 290853Z AUTO 29006KT 8SM CLR 11/10 A3010 RMK AO2 SLP191 T01060100 51006=
201706290753 METAR KCLM 290753Z AUTO 29006KT 8SM CLR 11/11 A3009 RMK AO2 SLP190 T01110106 401890100=
201706290653 METAR KCLM 290653Z AUTO 27005KT 8SM CLR 11/11 A3009 RMK AO2 SLP190 T01110106=
201706290553 METAR KCLM 290553Z AUTO 30007KT 8SM CLR 11/11 A3008 RMK AO2 SLP185 T01110106 10183 20111 51007=
201706290453 METAR KCLM 290453Z AUTO 25004KT 10SM CLR 13/11 A3008 RMK AO2 SLP184 T01280106=
201706290353 METAR KCLM 290353Z AUTO 28006KT 9SM CLR 13/11 A3006 RMK AO2 SLP180 T01330111=
201706290253 METAR KCLM 290253Z AUTO 32006KT 10SM CLR 14/11 A3006 RMK AO2 SLP177 T01440111 51006=
201706290153 METAR KCLM 290153Z AUTO 30005KT 10SM CLR 16/12 A3005 RMK AO2 SLP176 T01610117=
201706290053 METAR KCLM 290053Z AUTO 34005KT 10SM FEW049 17/12 A3004 RMK AO2 SLP173 T01670122=
201706282353 METAR KCLM 282353Z AUTO 04004KT 10SM CLR 18/12 A3004 RMK AO2 SLP171 T01780122 10189 20150 58001=
201706282253 METAR KCLM 282253Z AUTO 04004KT 10SM CLR 18/12 A3004 RMK AO2 SLP171 T01780122=
201706282153 METAR KCLM 282153Z AUTO VRB06KT 10SM CLR 17/12 A3004 RMK AO2 SLP172 T01720122=
201706282053 METAR KCLM 282053Z AUTO VRB04KT 10SM CLR 18/12 A3004 RMK AO2 SLP172 T01780122 51006=
201706281953 METAR KCLM 281953Z AUTO VRB05KT 10SM CLR 17/11 A3004 RMK AO2 SLP172 T01670111=
201706281853 METAR KCLM 281853Z AUTO VRB04KT 10SM CLR 16/11 A3004 RMK AO2 SLP171 T01560106=
201706281753 METAR KCLM 281753Z AUTO 34005KT 10SM CLR 15/11 A3002 RMK AO2 SLP166 T01500106 10161 20100 53003=
201706281653 METAR KCLM 281653Z AUTO VRB05KT 10SM CLR 15/11 A3002 RMK AO2 SLP167 T01500111=
201706281553 METAR KCLM 281553Z AUTO 01006KT 10SM CLR 14/11 A3001 RMK AO2 SLP162 T01390111=
201706281534 SPECI KCLM 281534Z AUTO 00000KT 10SM SCT010 14/11 A3001 RMK AO2 T01390111=
201706281523 SPECI KCLM 281523Z AUTO 34003KT 10SM BKN010 13/11 A3001 RMK AO2 T01330111=
201706281453 METAR KCLM 281453Z AUTO 30005KT 10SM OVC009 13/11 A3001 RMK AO2 SLP163 T01330111 51008=
201706281353 METAR KCLM 281353Z AUTO 30006KT 9SM OVC008 12/11 A3001 RMK AO2 SLP163 T01170111=
201706281253 METAR KCLM 281253Z AUTO 26003KT 7SM OVC007 11/11 A3000 RMK AO2 SLP159 T01060106=
201706281237 SPECI KCLM 281237Z AUTO 27005KT 6SM BR BKN006 11/11 A3000 RMK AO2 T01060106=
201706281207 SPECI KCLM 281207Z AUTO 28006KT 7SM SCT007 11/11 A2999 RMK AO2 T01060106=
201706281153 METAR KCLM 281153Z AUTO 28006KT 8SM BKN007 11/10 A2999 RMK AO2 SLP154 T01060100 10128 20106 51003=
201706281131 SPECI KCLM 281131Z AUTO 27005KT 8SM BKN008 11/11 A2999 RMK AO2 T01060106=
201706281113 SPECI KCLM 281113Z AUTO 27005KT 8SM FEW007 11/11 A2999 RMK AO2 T01060106=
201706281053 METAR KCLM 281053Z AUTO 28005KT 8SM CLR 11/11 A2999 RMK AO2 SLP154 T01060106=
201706280953 METAR KCLM 280953Z AUTO 29009KT 8SM CLR 11/11 A2998 RMK AO2 SLP153 T01110106=
201706280853 METAR KCLM 280853Z AUTO 30006KT 10SM CLR 11/11 A2998 RMK AO2 SLP151 T01110106 58001=
201706280753 METAR KCLM 280753Z AUTO 30011KT 10SM CLR 12/11 A2998 RMK AO2 SLP151 T01170106 401780083=
201706280653 METAR KCLM 280653Z AUTO 29008KT 10SM CLR 12/11 A2998 RMK AO2 SLP153 T01170106=
201706280553 METAR KCLM 280553Z AUTO 29008KT 10SM CLR 13/11 A2998 RMK AO2 SLP153 T01280106 10172 20117 56001=
201706280453 METAR KCLM 280453Z AUTO 30007KT 10SM CLR 13/11 A2998 RMK AO2 SLP153 T01280106=
201706280353 METAR KCLM 280353Z AUTO 29005KT 10SM CLR 14/11 A2998 RMK AO2 SLP151 T01390106=
201706280253 METAR KCLM 280253Z AUTO 30006KT 10SM CLR 15/11 A2999 RMK AO2 SLP154 T01500106 56007=
201706280153 METAR KCLM 280153Z AUTO 32006KT 10SM CLR 15/11 A2999 RMK AO2 SLP156 T01500106=
201706280053 METAR KCLM 280053Z AUTO 30007KT 10SM CLR 16/11 A3000 RMK AO2 SLP158 T01610111=
201706272353 METAR KCLM 272353Z AUTO 34005KT 10SM CLR 17/12 A3001 RMK AO2 SLP161 T01670117 10178 20144 58010=
201706272253 METAR KCLM 272253Z AUTO VRB03KT 10SM CLR 17/12 A3002 RMK AO2 SLP166 T01720117=
201706272153 METAR KCLM 272153Z AUTO 02005KT 10SM CLR 16/12 A3003 RMK AO2 SLP170 T01610117=
201706272053 METAR KCLM 272053Z AUTO 02007KT 360V060 10SM CLR 16/12 A3004 RMK AO2 SLP172 T01560117 58005=
201706271953 METAR KCLM 271953Z AUTO VRB04KT 10SM CLR 16/12 A3005 RMK AO2 SLP177 T01610117=
201706271853 METAR KCLM 271853Z AUTO 04007KT 10SM CLR 15/11 A3005 RMK AO2 SLP176 T01500111=
201706271806 SPECI KCLM 271806Z AUTO VRB03KT 10SM FEW010 15/11 A3005 RMK AO2 T01500111=
201706271753 METAR KCLM 271753Z AUTO VRB04KT 10SM BKN010 15/11 A3005 RMK AO2 SLP177 T01500111 10150 20083 51005=
201706271710 SPECI KCLM 271710Z AUTO 04005KT 10SM OVC011 14/11 A3005 RMK AO2 T01390106=
201706271653 METAR KCLM 271653Z AUTO VRB04KT 10SM 14/11 A3005 RMK AO2 SLP176 T01440111=
201706271622 SPECI KCLM 271622Z AUTO 14/11 A3006 RMK AO2 T01390106 PWINO $=
201706271553 METAR KCLM 271553Z AUTO 09004KT 10SM BKN013 13/11 A3005 RMK AO2 SLP177 T01330106 $=
201706271529 SPECI KCLM 271529Z AUTO VRB05KT 10SM BKN013 13/11 A3004 RMK AO2 T01330106 $=
201706271453 METAR KCLM 271453Z AUTO 12006KT 10SM FEW014 13/11 A3004 RMK AO2 SLP172 T01280106 51005 $=
201706271353 METAR KCLM 271353Z AUTO 00000KT 10SM CLR 12/10 A3004 RMK AO2 SLP171 T01170100 $=
201706271253 METAR KCLM 271253Z AUTO 22004KT 10SM CLR 09/09 A3003 RMK AO2 SLP170 T00890089=
201706271153 METAR KCLM 271153Z AUTO 25003KT 10SM CLR 09/09 A3002 RMK AO2 SLP167 T00940089 10111 20083 51007=
201706271053 METAR KCLM 271053Z AUTO 23005KT 10SM CLR 09/08 A3002 RMK AO2 SLP167 T00890078=
201706270953 METAR KCLM 270953Z AUTO 00000KT 10SM CLR 09/09 A3001 RMK AO2 SLP163 T00940089=
201706270853 METAR KCLM 270853Z AUTO 27006KT 10SM CLR 10/09 A3000 RMK AO2 SLP159 T01000094 53003=
201706270753 METAR KCLM 270753Z AUTO 29007KT 10SM CLR 11/09 A3000 RMK AO2 SLP158 T01060094 401780100=
201706270653 METAR KCLM 270653Z AUTO 29008KT 10SM CLR 10/09 A2999 RMK AO2 SLP157 T01000094=
201706270553 METAR KCLM 270553Z AUTO VRB05KT 10SM CLR 11/10 A2999 RMK AO2 SLP157 T01110100 10172 20106 50007=
201706270453 METAR KCLM 270453Z AUTO 28007KT 10SM CLR 11/09 A3000 RMK AO2 SLP158 T01110094=
201706270353 METAR KCLM 270353Z AUTO 30007KT 10SM CLR 12/10 A2998 RMK AO2 SLP152 T01220100=
201706270253 METAR KCLM 270253Z AUTO 27010G20KT 10SM CLR 14/10 A2997 RMK AO2 SLP149 T01390100 53004=
201706270153 METAR KCLM 270153Z AUTO 29010KT 10SM CLR 16/10 A2996 RMK AO2 SLP145 T01560100=
201706270053 METAR KCLM 270053Z AUTO 29010G20KT 10SM CLR 16/10 A2996 RMK AO2 SLP144 T01610100=
201706262353 METAR KCLM 262353Z AUTO 30012G19KT 10SM CLR 17/11 A2996 RMK AO2 PK WND 30026/2300 SLP145 T01720106 10178 20150 58003=
201706262253 METAR KCLM 262253Z AUTO 29017G24KT 10SM CLR 17/11 A2997 RMK AO2 SLP148 T01720111=
201706262153 METAR KCLM 262153Z AUTO 31011G16KT 10SM CLR 18/12 A2997 RMK AO2 SLP149 T01780117=
201706262053 METAR KCLM 262053Z AUTO 33007KT 10SM CLR 17/12 A2997 RMK AO2 SLP148 T01670117 50004=
201706261953 METAR KCLM 261953Z AUTO 32009KT 10SM CLR 16/11 A2998 RMK AO2 SLP151 T01560111=
201706261853 METAR KCLM 261853Z AUTO VRB06KT 10SM CLR 16/12 A2996 RMK AO2 SLP147 T01610117=
201706261753 METAR KCLM 261753Z AUTO 32008KT 10SM CLR 15/11 A2996 RMK AO2 SLP144 T01500111 10156 20117 53006=
201706261653 METAR KCLM 261653Z AUTO 31010KT 10SM CLR 14/11 A2995 RMK AO2 SLP142 T01440111=
201706261553 METAR KCLM 261553Z AUTO 31007KT 10SM CLR 14/11 A2995 RMK AO2 SLP141 T01390106=
201706261453 METAR KCLM 261453Z AUTO 31007KT 10SM CLR 14/11 A2994 RMK AO2 SLP139 T01390106 58001=
201706261353 METAR KCLM 261353Z AUTO 29006KT 10SM CLR 13/11 A2995 RMK AO2 SLP141 T01330106=
201706261253 METAR KCLM 261253Z AUTO 29010KT 10SM CLR 12/11 A2995 RMK AO2 SLP141 T01220106 $=
201706261153 METAR KCLM 261153Z AUTO 31004KT 10SM CLR 13/09 A2994 RMK AO2 SLP138 T01280094 10156 20122 51017 $=
201706261053 METAR KCLM 261053Z AUTO 28014G19KT 10SM CLR 13/09 A2993 RMK AO2 SLP134 T01330094 $=
201706260953 METAR KCLM 260953Z AUTO 28013G18KT 10SM CLR 13/10 A2992 RMK AO2 SLP129 T01330100 $=
201706260853 METAR KCLM 260853Z AUTO 29010KT 10SM CLR 14/10 A2989 RMK AO2 SLP121 T01390100 53005 $=
201706260753 METAR KCLM 260753Z AUTO 29007KT 10SM CLR 14/10 A2988 RMK AO2 SLP117 T01390100 403060133 $=
201706260653 METAR KCLM 260653Z AUTO 30006KT 10SM CLR 15/09 A2987 RMK AO2 SLP113 T01500094 $=
201706260553 METAR KCLM 260553Z AUTO 28004KT 10SM CLR 14/10 A2988 RMK AO2 SLP116 T01390100 10244 20139 50001 $=
201706260453 METAR KCLM 260453Z AUTO 26005KT 10SM CLR 17/11 A2988 RMK AO2 SLP117 T01720111 $=
201706260353 METAR KCLM 260353Z AUTO 29004KT 10SM CLR 17/11 A2988 RMK AO2 SLP116 T01720111 $=
201706260253 METAR KCLM 260253Z AUTO 27010KT 10SM CLR 20/11 A2987 RMK AO2 SLP115 T02000111 56007 $=
201706260153 METAR KCLM 260153Z AUTO 29006KT 10SM CLR 22/11 A2988 RMK AO2 SLP116 T02220111 $=
201706260053 METAR KCLM 260053Z AUTO 30006KT 10SM CLR 22/12 A2988 RMK AO2 SLP117 T02170117 $=
201706252353 METAR KCLM 252353Z AUTO 31007KT 10SM CLR 24/11 A2989 RMK AO2 SLP122 T02390106 10306 20233 55006 $=
201706252253 METAR KCLM 252253Z AUTO VRB03KT 10SM CLR 28/11 A2989 RMK AO2 SLP121 T02830106 $=
201706252153 METAR KCLM 252153Z AUTO 04004KT 10SM CLR 29/09 A2990 RMK AO2 SLP123 T02890094=
201706252053 METAR KCLM 252053Z AUTO 03004KT 10SM CLR 27/11 A2991 RMK AO2 SLP128 T02720106 58013=
201706251953 METAR KCLM 251953Z AUTO VRB05KT 10SM CLR 27/11 A2993 RMK AO2 SLP133 T02720106=
201706251853 METAR KCLM 251853Z AUTO VRB03KT 10SM CLR 26/11 A2994 RMK AO2 SLP137 T02560106=
201706251753 METAR KCLM 251753Z AUTO VRB05KT 10SM CLR 24/10 A2995 RMK AO2 SLP140 T02390100 10256 20133 58006=
201706251653 METAR KCLM 251653Z AUTO 04005KT 10SM CLR 24/10 A2996 RMK AO2 SLP144 T02440100=
201706251553 METAR KCLM 251553Z AUTO 10008KT 10SM CLR 23/10 A2997 RMK AO2 SLP147 T02330100=
201706251453 METAR KCLM 251453Z AUTO 08006KT 10SM CLR 23/09 A2997 RMK AO2 SLP146 T02330089 58001=
201706251353 METAR KCLM 251353Z AUTO 00000KT 10SM CLR 19/12 A2997 RMK AO2 SLP149 T01890117=
201706251253 METAR KCLM 251253Z AUTO 22004KT 10SM CLR 15/09 A2998 RMK AO2 SLP149 T01500094=
201706251153 METAR KCLM 251153Z AUTO 22003KT 10SM CLR 15/09 A2997 RMK AO2 SLP148 T01500089 10183 20133 56004=
201706251053 METAR KCLM 251053Z AUTO 22004KT 10SM CLR 17/08 A2997 RMK AO2 SLP148 T01720083=
201706250953 METAR KCLM 250953Z AUTO 20003KT 10SM CLR 16/09 A2998 RMK AO2 SLP151 T01610094=
201706250853 METAR KCLM 250853Z AUTO 22005KT 10SM CLR 16/09 A2998 RMK AO2 SLP152 T01560094 57009=
201706250753 METAR KCLM 250753Z AUTO 23007KT 10SM CLR 16/10 A2999 RMK AO2 SLP155 T01610100 402780100=
201706250653 METAR KCLM 250653Z AUTO 00000KT 10SM CLR 16/11 A3000 RMK AO2 SLP158 T01560106=
201706250553 METAR KCLM 250553Z AUTO 21003KT 10SM CLR 17/11 A3001 RMK AO2 SLP161 T01720106 10278 20167 58006=
201706250453 METAR KCLM 250453Z AUTO 00000KT 10SM CLR 19/12 A3002 RMK AO2 SLP164 T01890117=
201706250353 METAR KCLM 250353Z AUTO 00000KT 10SM CLR 23/11 A3002 RMK AO2 SLP165 T02280106=
201706250253 METAR KCLM 250253Z AUTO 12004KT 10SM CLR 26/08 A3003 RMK AO2 SLP166 T02610083 56019=
201706250153 METAR KCLM 250153Z AUTO 10003KT 10SM CLR 27/08 A3004 RMK AO2 SLP172 T02720078=
201706250053 METAR KCLM 250053Z AUTO 09006KT 10SM CLR 27/08 A3006 RMK AO2 SLP178 T02720078=
201706242353 METAR KCLM 242353Z AUTO 09006KT 10SM CLR 28/08 A3009 RMK AO2 SLP186 T02780078 10278 20228 57020=
201706242253 METAR KCLM 242253Z AUTO VRB06KT 10SM CLR 27/07 A3011 RMK AO2 SLP193 T02720072=
201706242153 METAR KCLM 242153Z AUTO 09008KT 10SM CLR 27/08 A3012 RMK AO2 SLP200 T02670078=
201706242053 METAR KCLM 242053Z AUTO 10005KT 10SM CLR 26/09 A3014 RMK AO2 SLP206 T02560094 58012=
201706241953 METAR KCLM 241953Z AUTO 09007KT 050V130 10SM CLR 24/09 A3016 RMK AO2 SLP211 T02440094=
201706241853 METAR KCLM 241853Z AUTO 09007KT 10SM CLR 24/09 A3017 RMK AO2 SLP216 T02440094=
201706241753 METAR KCLM 241753Z AUTO 11008KT 10SM CLR 23/10 A3018 RMK AO2 SLP219 T02280100 10233 20106 58004=
201706241653 METAR KCLM 241653Z AUTO VRB05KT 10SM CLR 22/10 A3018 RMK AO2 SLP220 T02220100=
201706241553 METAR KCLM 241553Z AUTO VRB03KT 10SM CLR 21/08 A3019 RMK AO2 SLP222 T02110083=
201706241453 METAR KCLM 241453Z AUTO 13006KT 10SM CLR 21/08 A3019 RMK AO2 SLP222 T02110083 53008=
201706241353 METAR KCLM 241353Z AUTO 21004KT 10SM CLR 17/07 A3018 RMK AO2 SLP219 T01720067=
201706241253 METAR KCLM 241253Z AUTO 22004KT 10SM CLR 14/05 A3017 RMK AO2 SLP216 T01390050=
201706241153 METAR KCLM 241153Z AUTO 23005KT 10SM CLR 14/04 A3017 RMK AO2 SLP214 T01440039 10161 20100 55000=
201706241053 METAR KCLM 241053Z AUTO 23008KT 10SM CLR 16/04 A3016 RMK AO2 SLP213 T01560039=
201706240953 METAR KCLM 240953Z AUTO 24009KT 10SM CLR 16/04 A3016 RMK AO2 SLP213 T01560044=
201706240853 METAR KCLM 240853Z AUTO 23005KT 10SM CLR 13/06 A3017 RMK AO2 SLP214 T01280056 57002=
201706240753 METAR KCLM 240753Z AUTO 23007KT 10SM CLR 13/07 A3017 RMK AO2 SLP216 T01280067 402610083=
201706240653 METAR KCLM 240653Z AUTO 00000KT 10SM CLR 12/08 A3017 RMK AO2 SLP216 T01220083=
201706240553 METAR KCLM 240553Z AUTO 25004KT 10SM CLR 13/10 A3017 RMK AO2 SLP217 T01330100 10256 20128 50001=
201706240453 METAR KCLM 240453Z AUTO 21003KT 10SM CLR 15/10 A3017 RMK AO2 SLP218 T01500100=
201706240353 METAR KCLM 240353Z AUTO 33003KT 10SM CLR 17/09 A3017 RMK AO2 SLP215 T01670094=
201706240253 METAR KCLM 240253Z AUTO 00000KT 10SM CLR 22/09 A3017 RMK AO2 SLP215 T02220094 56010=
201706240153 METAR KCLM 240153Z AUTO 08003KT 10SM CLR 25/06 A3018 RMK AO2 SLP219 T02500061=
201706240053 METAR KCLM 240053Z AUTO 08004KT 10SM CLR 25/07 A3019 RMK AO2 SLP222 T02500067=
201706232353 METAR KCLM 232353Z AUTO 11006KT 10SM CLR 26/07 A3020 RMK AO2 SLP226 T02560067 10261 20200 58011=
201706232253 METAR KCLM 232253Z AUTO 09006KT 10SM CLR 24/08 A3021 RMK AO2 SLP231 T02440083=
201706232153 METAR KCLM 232153Z AUTO VRB05KT 10SM CLR 24/08 A3022 RMK AO2 SLP233 T02390083=
201706232053 METAR KCLM 232053Z AUTO 10005KT 10SM CLR 22/08 A3023 RMK AO2 SLP238 T02220083 58007=
201706231953 METAR KCLM 231953Z AUTO VRB06KT 10SM CLR 21/09 A3024 RMK AO2 SLP242 T02110089=
201706231853 METAR KCLM 231853Z AUTO VRB06KT 10SM CLR 21/09 A3025 RMK AO2 SLP244 T02110089=
201706231753 METAR KCLM 231753Z AUTO 10007KT 10SM CLR 20/07 A3026 RMK AO2 SLP245 T02000072 10200 20083 58002=
201706231653 METAR KCLM 231653Z AUTO 10007KT 10SM CLR 19/07 A3027 RMK AO2 SLP250 T01890072=
201706231553 METAR KCLM 231553Z AUTO 10011KT 10SM CLR 18/06 A3027 RMK AO2 SLP251 T01830061=
201706231453 METAR KCLM 231453Z AUTO 12010KT 10SM CLR 18/06 A3026 RMK AO2 SLP248 T01830061 51007=
201706231353 METAR KCLM 231353Z AUTO 12003KT 10SM CLR 13/08 A3026 RMK AO2 SLP246 T01330078=
201706231253 METAR KCLM 231253Z AUTO 00000KT 10SM CLR 09/06 A3025 RMK AO2 SLP244 T00890061=
201706231153 METAR KCLM 231153Z AUTO 23009KT 10SM CLR 11/06 A3024 RMK AO2 SLP240 T01060061 10139 20083 55003=
201706231053 METAR KCLM 231053Z AUTO 23006KT 10SM CLR 09/06 A3023 RMK AO2 SLP238 T00940061=
201706230953 METAR KCLM 230953Z AUTO 23009KT 10SM CLR 11/06 A3024 RMK AO2 SLP241 T01110061=
201706230853 METAR KCLM 230853Z AUTO 00000KT 10SM CLR 09/07 A3025 RMK AO2 SLP243 T00890067 50000=
201706230753 METAR KCLM 230753Z AUTO 12003KT 10SM CLR 10/07 A3026 RMK AO2 SLP246 T01000072 402220061=
201706230653 METAR KCLM 230653Z AUTO 29006KT 10SM CLR 13/07 A3025 RMK AO2 SLP245 T01280072=
201706230553 METAR KCLM 230553Z AUTO 27006KT 10SM CLR 13/09 A3025 RMK AO2 SLP244 T01330089 10222 20117 58004=
201706230453 METAR KCLM 230453Z AUTO 26006KT 10SM CLR 13/09 A3026 RMK AO2 SLP247 T01280094=
201706230353 METAR KCLM 230353Z AUTO 29004KT 10SM CLR 14/09 A3025 RMK AO2 SLP245 T01390094=
201706230253 METAR KCLM 230253Z AUTO 30006KT 10SM CLR 15/09 A3026 RMK AO2 SLP248 T01500094 56004=
201706230153 METAR KCLM 230153Z AUTO 30005KT 10SM CLR 17/10 A3026 RMK AO2 SLP248 T01720100=
201706230053 METAR KCLM 230053Z AUTO 04005KT 10SM CLR 22/06 A3026 RMK AO2 SLP247 T02220061=
201706222353 METAR KCLM 222353Z AUTO 05005KT 10SM CLR 22/06 A3028 RMK AO2 SLP252 T02170056 10217 20167 56013=
201706222253 METAR KCLM 222253Z AUTO 09004KT 10SM CLR 22/06 A3029 RMK AO2 SLP256 T02170061=
201706222153 METAR KCLM 222153Z AUTO 00000KT 10SM CLR 21/08 A3030 RMK AO2 SLP260 T02060078=
201706222053 METAR KCLM 222053Z AUTO VRB06KT 10SM CLR 19/08 A3031 RMK AO2 SLP265 T01890083 58008=
201706221953 METAR KCLM 221953Z AUTO 10007KT 10SM CLR 18/08 A3032 RMK AO2 SLP268 T01830083=
201706221853 METAR KCLM 221853Z AUTO 09007KT 10SM CLR 17/07 A3033 RMK AO2 SLP270 T01720072=
201706221753 METAR KCLM 221753Z AUTO 08008KT 10SM CLR 17/07 A3034 RMK AO2 SLP273 T01670072 10172 20061 50002=
201706221653 METAR KCLM 221653Z AUTO 10008KT 10SM CLR 16/08 A3034 RMK AO2 SLP274 T01610078=
201706221553 METAR KCLM 221553Z AUTO 09008KT 10SM CLR 16/08 A3034 RMK AO2 SLP274 T01560083=
201706221453 METAR KCLM 221453Z AUTO 00000KT 10SM CLR 14/09 A3033 RMK AO2 SLP271 T01390094 53009=
201706221353 METAR KCLM 221353Z AUTO 10003KT 10SM CLR 11/09 A3032 RMK AO2 SLP267 T01110089=
201706221253 METAR KCLM 221253Z AUTO 22004KT 10SM CLR 07/07 A3032 RMK AO2 SLP267 T00670067=
201706221153 METAR KCLM 221153Z AUTO 24005KT 10SM CLR 06/06 A3030 RMK AO2 SLP263 T00610056 10100 20061 55006=
201706221053 METAR KCLM 221053Z AUTO 00000KT 10SM CLR 08/07 A3030 RMK AO2 SLP262 T00780072=
201706220953 METAR KCLM 220953Z AUTO 24003KT 10SM CLR 07/06 A3031 RMK AO2 SLP265 T00670061=
201706220853 METAR KCLM 220853Z AUTO 00000KT 10SM CLR 08/07 A3032 RMK AO2 SLP270 T00780072 53005=
201706220753 METAR KCLM 220753Z AUTO 28005KT 10SM CLR 09/08 A3031 RMK AO2 SLP266 T00890078 401670072=
201706220653 METAR KCLM 220653Z AUTO 00000KT 10SM CLR 08/07 A3030 RMK AO2 SLP262 T00830072=
201706220553 METAR KCLM 220553Z AUTO 00000KT 10SM CLR 10/09 A3031 RMK AO2 SLP264 T01000089 10150 20094 55001=
201706220453 METAR KCLM 220453Z AUTO 26003KT 10SM CLR 11/09 A3030 RMK AO2 SLP261 T01060089=
201706220353 METAR KCLM 220353Z AUTO 25004KT 10SM CLR 13/09 A3030 RMK AO2 SLP260 T01280089=
201706220253 METAR KCLM 220253Z AUTO 30006KT 10SM CLR 13/09 A3031 RMK AO2 SLP265 T01330094 55004=
201706220153 METAR KCLM 220153Z AUTO 31008G15KT 10SM CLR 14/09 A3030 RMK AO2 SLP261 T01390089=
201706220053 METAR KCLM 220053Z AUTO 30011G19KT 10SM CLR 14/09 A3031 RMK AO2 SLP266 T01440089=
201706212353 METAR KCLM 212353Z AUTO 31011G17KT 10SM CLR 15/09 A3032 RMK AO2 SLP270 T01500089 10167 20139 50002=
201706212253 METAR KCLM 212253Z AUTO 30012G24KT 10SM CLR 14/09 A3033 RMK AO2 SLP272 T01440094=
201706212153 METAR KCLM 212153Z AUTO 30015G24KT 10SM CLR 15/09 A3032 RMK AO2 SLP270 T01500094=
201706212053 METAR KCLM 212053Z AUTO 30011KT 10SM CLR 16/09 A3032 RMK AO2 SLP267 T01610094 58003=
201706211953 METAR KCLM 211953Z AUTO 32009G15KT 10SM CLR 16/11 A3033 RMK AO2 SLP269 T01560106=
201706211853 METAR KCLM 211853Z AUTO 31013G20KT 10SM CLR 15/10 A3033 RMK AO2 SLP271 T01500100=
201706211753 METAR KCLM 211753Z AUTO 32010KT 10SM CLR 14/10 A3033 RMK AO2 SLP270 T01440100 10150 20072 51011=
201706211653 METAR KCLM 211653Z AUTO 30008G18KT 10SM CLR 15/09 A3033 RMK AO2 SLP270 T01500094=
201706211553 METAR KCLM 211553Z AUTO 31012G18KT 10SM CLR 14/08 A3032 RMK AO2 SLP266 T01390083=
201706211523 SPECI KCLM 211523Z AUTO 31014G20KT 10SM FEW002 14/08 A3030 RMK AO2 T01390078=
201706211453 METAR KCLM 211453Z AUTO 28009G16KT 10SM CLR 13/08 A3030 RMK AO2 SLP259 T01330078 53003=
201706211353 METAR KCLM 211353Z AUTO 28011KT 10SM CLR 11/06 A3029 RMK AO2 SLP258 T01060061=
201706211253 METAR KCLM 211253Z AUTO 26009KT 10SM CLR 08/05 A3028 RMK AO2 SLP256 T00780050=
201706211153 METAR KCLM 211153Z AUTO 27008KT 10SM CLR 08/06 A3028 RMK AO2 SLP256 T00830056 10111 20078 52007=
201706211053 METAR KCLM 211053Z AUTO 27005KT 10SM CLR 08/06 A3028 RMK AO2 SLP256 T00780056=
201706210953 METAR KCLM 210953Z AUTO 26008KT 10SM CLR 09/06 A3027 RMK AO2 SLP250 T00890061=
201706210853 METAR KCLM 210853Z AUTO 26007KT 10SM CLR 10/06 A3026 RMK AO2 SLP250 T01000056 53005=
201706210753 METAR KCLM 210753Z AUTO 26012KT 10SM CLR 10/06 A3026 RMK AO2 SLP247 T01000056 401720100=
201706210653 METAR KCLM 210653Z AUTO 28011KT 10SM CLR 11/05 A3025 RMK AO2 SLP243 T01110050=
201706210553 METAR KCLM 210553Z AUTO 26008KT 10SM CLR 11/06 A3025 RMK AO2 SLP244 T01110056 10156 20111 53010=
201706210453 METAR KCLM 210453Z AUTO 28012KT 10SM CLR 11/07 A3024 RMK AO2 SLP241 T01110072=
201706210353 METAR KCLM 210353Z AUTO VRB05KT 10SM CLR 12/08 A3022 RMK AO2 PK WND 29026/0311 SLP234 T01220083=
201706210253 METAR KCLM 210253Z AUTO 29016G27KT 10SM CLR 12/09 A3022 RMK AO2 PK WND 30027/0251 SLP233 T01220089 53006=
201706210153 METAR KCLM 210153Z AUTO 31014G20KT 10SM CLR 14/09 A3021 RMK AO2 SLP230 T01390089=
201706210053 METAR KCLM 210053Z AUTO 30012G22KT 10SM CLR 14/09 A3020 RMK AO2 SLP228 T01440094=
201706202353 METAR KCLM 202353Z AUTO 28012G21KT 10SM CLR 16/10 A3020 RMK AO2 SLP227 T01560100 10156 20139 51007=
201706202253 METAR KCLM 202253Z AUTO 31016G24KT 10SM CLR 15/10 A3019 RMK AO2 PK WND 30027/2158 SLP224 T01500100=
201706202153 METAR KCLM 202153Z AUTO 31016G27KT 10SM CLR 14/10 A3019 RMK AO2 PK WND 30031/2129 SLP224 T01440100=
201706202135 SPECI KCLM 202135Z AUTO 31018G31KT 10SM SCT018 14/11 A3018 RMK AO2 PK WND 30031/2129 T01440106=
201706202053 METAR KCLM 202053Z AUTO 31018G27KT 10SM OVC016 14/11 A3018 RMK AO2 PK WND 33027/2053 SLP220 T01440106 52016=
201706202036 SPECI KCLM 202036Z AUTO 30016G24KT 10SM OVC015 15/11 A3017 RMK AO2 PK WND 31026/2008 T01500111=
201706201953 METAR KCLM 201953Z AUTO 32014G26KT 10SM OVC012 14/11 A3017 RMK AO2 PK WND 30026/1947 SLP216 T01390111=
201706201853 METAR KCLM 201853Z AUTO 31010G20KT 10SM OVC010 14/12 A3014 RMK AO2 SLP208 T01390117=
201706201753 METAR KCLM 201753Z AUTO 32008KT 10SM OVC008 14/13 A3013 RMK AO2 SLP204 T01440128 10172 20133 53009=
201706201653 METAR KCLM 201653Z AUTO 30013G19KT 10SM OVC007 14/13 A3011 RMK AO2 CIG 005V010 SLP197 T01390128=
201706201635 SPECI KCLM 201635Z AUTO 29012KT 10SM OVC005 14/13 A3011 RMK AO2 T01390133=
201706201553 METAR KCLM 201553Z AUTO 29013G18KT 10SM OVC004 14/14 A3010 RMK AO2 SLP194 T01390139=
201706201550 SPECI KCLM 201550Z AUTO 30008KT 10SM OVC004 14/14 A3011 RMK AO2=
201706201514 SPECI KCLM 201514Z AUTO 33006KT 10SM BKN009 OVC065 16/14 A3008 RMK AO2 T01560144=
201706201453 METAR KCLM 201453Z AUTO 30006KT 10SM OVC065 17/15 A3008 RMK AO2 SLP184 T01720150 53010=
201706201353 METAR KCLM 201353Z AUTO 32004KT 10SM BKN095 16/14 A3006 RMK AO2 SLP179 T01560144=
201706201345 SPECI KCLM 201345Z AUTO 31005KT 10SM FEW009 OVC095 16/14 A3006 RMK AO2 T01560144=
201706201308 SPECI KCLM 201308Z AUTO 00000KT 10SM SCT012 OVC090 15/14 A3006 RMK AO2 T01500144=
201706201253 METAR KCLM 201253Z AUTO 29003KT 10SM BKN012 OVC090 14/14 A3005 RMK AO2 SLP176 T01440144=
201706201221 SPECI KCLM 201221Z AUTO 00000KT 10SM BKN011 OVC100 14/14 A3004 RMK AO2 T01440139=
201706201153 METAR KCLM 201153Z AUTO 31003KT 10SM BKN100 14/14 A3004 RMK AO2 SLP174 T01390139 10161 20139 51006=
201706201053 METAR KCLM 201053Z AUTO 28007KT 10SM FEW050 OVC100 14/14 A3004 RMK AO2 SLP172 T01440139=
201706201040 SPECI KCLM 201040Z AUTO 26006KT 10SM SCT006 SCT050 OVC100 14/14 A3004 RMK AO2 T01440139=
201706201005 SPECI KCLM 201005Z AUTO 28008KT 10SM BKN006 OVC095 14/14 A3004 RMK AO2 T01440139=
201706200953 METAR KCLM 200953Z AUTO 29008KT 10SM SCT007 SCT012 OVC100 14/14 A3004 RMK AO2 SLP173 T01440139=
201706200925 SPECI KCLM 200925Z AUTO 30009KT 10SM FEW006 BKN100 OVC120 14/14 A3004 RMK AO2 T01440139=
201706200853 METAR KCLM 200853Z AUTO 30006KT 10SM BKN110 14/14 A3003 RMK AO2 SLP167 T01440139 51002=
201706200753 METAR KCLM 200753Z AUTO 28004KT 10SM BKN035 BKN110 15/14 A3002 RMK AO2 SLP166 T01500139 402060133=
201706200653 METAR KCLM 200653Z AUTO 34005KT 10SM BKN034 16/14 A3003 RMK AO2 SLP167 T01560144=
201706200553 METAR KCLM 200553Z AUTO 35003KT 10SM BKN120 16/14 A3002 RMK AO2 SLP165 T01560144 10206 20156 56001=
201706200453 METAR KCLM 200453Z AUTO 00000KT 10SM SCT120 17/14 A3002 RMK AO2 SLP165 T01670144=
201706200353 METAR KCLM 200353Z AUTO 26004KT 10SM CLR 18/14 A3001 RMK AO2 SLP161 T01780139=
201706200253 METAR KCLM 200253Z AUTO 25003KT 10SM BKN050 17/13 A3002 RMK AO2 SLP165 T01720133 53003=
201706200153 METAR KCLM 200153Z AUTO 28004KT 10SM FEW110 16/12 A3002 RMK AO2 SLP164 T01610122=
201706200053 METAR KCLM 200053Z AUTO 36003KT 10SM CLR 18/13 A3002 RMK AO2 SLP164 T01830128=
201706192353 METAR KCLM 192353Z AUTO 00000KT 10SM CLR 21/14 A3001 RMK AO2 SLP163 T02060139 10206 20167 58008=
201706192253 METAR KCLM 192253Z AUTO 00000KT 10SM FEW120 19/13 A3003 RMK AO2 SLP167 T01940133=
201706192153 METAR KCLM 192153Z AUTO 04003KT 10SM SCT120 18/12 A3005 RMK AO2 SLP174 T01780122=
201706192053 METAR KCLM 192053Z AUTO VRB05KT 10SM CLR 18/13 A3004 RMK AO2 SLP171 T01830128 58010=
201706191953 METAR KCLM 191953Z AUTO 09006KT 10SM FEW017 18/13 A3006 RMK AO2 SLP178 T01780128=
201706191853 METAR KCLM 191853Z AUTO 09007KT 10SM CLR 17/13 A3006 RMK AO2 SLP179 T01720128=
201706191810 SPECI KCLM 191810Z AUTO 09006KT 10SM FEW013 17/13 A3007 RMK AO2 T01720133=
201706191753 METAR KCLM 191753Z AUTO 11004KT 10SM BKN011 17/13 A3007 RMK AO2 SLP182 T01670133 10167 20133 58001=
201706191748 SPECI KCLM 191748Z AUTO 14003KT 10SM OVC011 17/13 A3008 RMK AO2=
201706191653 METAR KCLM 191653Z AUTO 00000KT 10SM BKN008 16/14 A3007 RMK AO2 SLP184 T01560144=
201706191616 SPECI KCLM 191616Z AUTO VRB03KT 10SM FEW006 15/14 A3007 RMK AO2 T01500139=
201706191601 SPECI KCLM 191601Z AUTO 13003KT 10SM SCT010 15/14 A3007 RMK AO2 T01500139=
201706191553 METAR KCLM 191553Z AUTO 00000KT 10SM BKN009 15/14 A3007 RMK AO2 CIG 006V011 SLP183 T01500139=
201706191453 METAR KCLM 191453Z AUTO 00000KT 7SM OVC006 14/14 A3007 RMK AO2 SLP183 T01440139 55005=
201706191353 METAR KCLM 191353Z AUTO 13004KT 4SM BR OVC007 14/14 A3007 RMK AO2 CIG 003V009 SLP183 T01390139=
201706191253 METAR KCLM 191253Z AUTO 12003KT 3SM BR BKN005 OVC009 14/14 A3008 RMK AO2 CIG 002V008 SLP186 T01390139=
201706191244 SPECI KCLM 191244Z AUTO 12003KT 2 1/2SM BR OVC005 14/14 A3008 RMK AO2 CIG 002V007 T01390139=
201706191237 SPECI KCLM 191237Z AUTO 11004KT 1 3/4SM BR BKN003 OVC007 14/14 A3008 RMK AO2 T01390139=
201706191153 METAR KCLM 191153Z AUTO 09003KT 2 1/2SM BR OVC006 14/14 A3009 RMK AO2 CIG 002V008 SLP189 70004 T01390139 10139 20133 58013=
201706191146 SPECI KCLM 191146Z AUTO 10005KT 2SM BR OVC006 14/14 A3009 RMK AO2 CIG 002V008 T01390139=
201706191138 SPECI KCLM 191138Z AUTO 10004KT 1 3/4SM BR OVC004 14/14 A3009 RMK AO2 CIG 002V007 T01390139=
201706191053 METAR KCLM 191053Z AUTO 09003KT 2SM BR FEW003 OVC008 14/14 A3010 RMK AO2 SLP194 T01390139=
201706191044 SPECI KCLM 191044Z AUTO 10003KT 2SM BR SCT003 OVC008 14/14 A3010 RMK AO2 CIG 006V011 T01390139=
201706191037 SPECI KCLM 191037Z AUTO 10003KT 3SM BR FEW003 OVC008 14/14 A3010 RMK AO2 T01390139=
201706191029 SPECI KCLM 191029Z AUTO 00000KT 2 1/2SM BR FEW003 OVC008 14/14 A3011 RMK AO2 T01390139=
201706190953 METAR KCLM 190953Z AUTO 00000KT 4SM BR OVC008 14/14 A3012 RMK AO2 CIG 007V010 SLP198 T01390139=
201706190853 METAR KCLM 190853Z AUTO 14004KT 4SM BR BKN005 OVC010 13/13 A3013 RMK AO2 SLP202 T01330133 58011=
201706190841 SPECI KCLM 190841Z AUTO 00000KT 4SM BR OVC005 13/13 A3013 RMK AO2 T01330133=
201706190820 SPECI KCLM 190820Z AUTO 13003KT 2SM BR OVC006 13/13 A3014 RMK AO2 T01330133=
201706190753 METAR KCLM 190753Z AUTO 15004KT 1 1/2SM BR OVC005 13/13 A3015 RMK AO2 SLP208 T01330133 401500100=
201706190746 SPECI KCLM 190746Z AUTO 15003KT 1 1/4SM BR OVC005 13/13 A3015 RMK AO2 T01330133=
201706190701 SPECI KCLM 190701Z AUTO 13003KT 1SM BR OVC003 13/13 A3016 RMK AO2 T01330133=
201706190653 METAR KCLM 190653Z AUTO 17003KT 3/4SM BR OVC002 13/13 A3016 RMK AO2 SLP212 T01330133=
201706190638 SPECI KCLM 190638Z AUTO 00000KT 1/2SM FG VV002 13/13 A3016 RMK AO2 T01330133=
201706190629 SPECI KCLM 190629Z AUTO 00000KT 1/4SM FG VV002 13/13 A3016 RMK AO2 T01330133=
201706190610 SPECI KCLM 190610Z AUTO 12004KT 1/2SM FG OVC002 13/13 A3016 RMK AO2 T01330133=
201706190558 SPECI KCLM 190558Z AUTO 12003KT 1 3/4SM BR OVC002 13/13 A3016 RMK AO2 T01330133=
201706190553 METAR KCLM 190553Z AUTO 11004KT 3SM BR OVC002 13/13 A3016 RMK AO2 SLP213 T01330133 10150 20133 56002=
201706190253 METAR KCLM 190253Z AUTO 09004KT 10SM BKN008 OVC050 14/13 A3017 RMK AO2 CIG 005V010 SLP217 T01390133 55006=
201706190222 SPECI KCLM 190222Z AUTO 09005KT 10SM BKN006 OVC047 14/13 A3017 RMK AO2 CIG 005V009 T01390133=
201706190206 SPECI KCLM 190206Z AUTO 10005KT 10SM SCT006 OVC046 14/13 A3017 RMK AO2 T01390128=
201706190153 METAR KCLM 190153Z AUTO 09005KT 10SM OVC046 14/13 A3017 RMK AO2 SLP215 T01440128=
201706190053 METAR KCLM 190053Z AUTO 08003KT 10SM SCT007 SCT039 OVC048 14/13 A3017 RMK AO2 SLP217 T01440128=
201706182353 METAR KCLM 182353Z AUTO 08005KT 10SM FEW006 BKN040 OVC060 14/13 A3019 RMK AO2 SLP221 T01440128 10150 20117 53001=
201706182253 METAR KCLM 182253Z AUTO 01005KT 10SM FEW060 BKN075 15/12 A3018 RMK AO2 SLP220 T01500122=
201706182221 SPECI KCLM 182221Z AUTO 02005KT 10SM SCT010 BKN070 OVC080 14/12 A3018 RMK AO2 T01440122=
201706182153 METAR KCLM 182153Z AUTO 36003KT 10SM OVC010 14/12 A3018 RMK AO2 SLP221 T01440122=
201706182111 SPECI KCLM 182111Z AUTO VRB03KT 10SM OVC010 14/12 A3018 RMK AO2 CIG 007V013 T01390117=
201706182053 METAR KCLM 182053Z AUTO 00000KT 10SM OVC008 14/12 A3018 RMK AO2 CIG 006V010 SLP222 T01390117 51005=
201706182027 SPECI KCLM 182027Z AUTO 00000KT 10SM OVC006 13/12 A3019 RMK AO2 CIG 004V011 T01330122=
201706182010 SPECI KCLM 182010Z AUTO 36003KT 7SM OVC004 13/12 A3019 RMK AO2 T01280122=
201706181953 METAR KCLM 181953Z AUTO VRB03KT 8SM OVC005 13/12 A3018 RMK AO2 CIG 003V008 SLP221 T01280122=
201706181941 SPECI KCLM 181941Z AUTO 10005KT 10SM OVC005 13/12 A3018 RMK AO2 T01280117=
201706181853 METAR KCLM 181853Z AUTO 07003KT 7SM OVC004 12/12 A3018 RMK AO2 CIG 002V006 SLP219 T01170117=
201706181845 SPECI KCLM 181845Z AUTO 00000KT 8SM OVC004 12/12 A3018 RMK AO2 CIG 002V008 T01170117=
201706181753 METAR KCLM 181753Z AUTO VRB04KT 10SM OVC006 12/11 A3017 RMK AO2 CIG 003V009 SLP217 60004 T01170111 10122 20100 51010=
201706181744 SPECI KCLM 181744Z AUTO 09004KT 10SM OVC005 12/11 A3017 RMK AO2 CIG 003V009 T01170111=
201706181653 METAR KCLM 181653Z AUTO 08004KT 4SM BR OVC003 11/11 A3016 RMK AO2 RAE24 SLP215 P0001 T01060106=
201706181644 SPECI KCLM 181644Z AUTO VRB03KT 3SM BR OVC004 11/11 A3016 RMK AO2 RAE24 P0001 T01060106=
201706181628 SPECI KCLM 181628Z AUTO 09003KT 2SM BR OVC004 11/11 A3016 RMK AO2 RAE24 P0001 T01060106=
201706181553 METAR KCLM 181553Z AUTO 09003KT 1 3/4SM -RA BR OVC004 10/10 A3016 RMK AO2 RAB03E14B36 SLP213 P0002 T01000100=
201706181542 SPECI KCLM 181542Z AUTO 00000KT 1 3/4SM -RA BR OVC005 10/10 A3016 RMK AO2 RAB03E14B36 P0002 T01000100=
201706181536 SPECI KCLM 181536Z AUTO VRB04KT 3SM -RA BR OVC005 11/10 A3016 RMK AO2 RAB03E14B36 P0000 T01060100=
201706181528 SPECI KCLM 181528Z AUTO 00000KT 2 1/2SM BR OVC005 11/10 A3015 RMK AO2 RAB03E14 P0000 T01060100=
201706181513 SPECI KCLM 181513Z AUTO 08005KT 4SM -RA BR OVC005 10/10 A3014 RMK AO2 RAB03 CIG 004V007 P0000 T01000100=
201706181453 METAR KCLM 181453Z AUTO 10004KT 8SM BKN004 OVC008 10/10 A3014 RMK AO2 SLP207 60001 T01000100 50005=
201706181404 SPECI KCLM 181404Z AUTO 09004KT 3SM BR BKN007 OVC010 11/10 A3014 RMK AO2 CIG 003V009 T01060100=
201706181353 METAR KCLM 181353Z AUTO 07003KT 4SM BR SCT005 BKN010 OVC045 11/10 A3014 RMK AO2 RAE41 SLP208 P0001 T01060100=
201706181341 SPECI KCLM 181341Z AUTO 08005KT 3SM BR SCT005 BKN010 OVC043 11/11 A3014 RMK AO2 RAE41 P0001 T01060106=
201706181330 SPECI KCLM 181330Z AUTO 09003KT 2 1/2SM -RA BR FEW005 OVC045 11/10 A3013 RMK AO2 P0001 T01060100=
201706181253 METAR KCLM 181253Z AUTO 09004KT 4SM -RA BR OVC049 11/10 A3012 RMK AO2 RAB48 SLP202 P0000 T01060100=
201706181153 METAR KCLM 181153Z AUTO 09003KT 10SM OVC047 11/10 A3012 RMK AO2 SLP202 60000 70005 T01060100 10106 20100 58003=
201706181053 METAR KCLM 181053Z AUTO 10003KT 8SM OVC049 11/11 A3013 RMK AO2 SLP204 T01060106=
201706180953 METAR KCLM 180953Z AUTO 00000KT 8SM FEW038 OVC050 11/11 A3014 RMK AO2 RAB02E40 SLP207 P0000 T01060106=
201706180853 METAR KCLM 180853Z AUTO 00000KT 10SM OVC050 11/11 A3013 RMK AO2 SLP205 60000 T01060106 51000=
201706180753 METAR KCLM 180753Z AUTO 00000KT 10SM OVC055 11/11 A3013 RMK AO2 RAB25E35 SLP204 P0000 T01060106 401390089=
201706180653 METAR KCLM 180653Z AUTO 00000KT 10SM OVC055 11/10 A3014 RMK AO2 RAE03 SLP206 P0000 T01060100=
201706180553 METAR KCLM 180553Z AUTO 00000KT 10SM -RA SCT055 OVC070 11/10 A3013 RMK AO2 RAB32 SLP205 P0000 60003 T01060100 10117 20106 55005=
201706180453 METAR KCLM 180453Z AUTO 00000KT 10SM BKN055 OVC070 11/10 A3013 RMK AO2 RAB0357E37 SLP204 P0000 T01060100=
201706180353 METAR KCLM 180353Z AUTO 00000KT 10SM OVC050 11/10 A3014 RMK AO2 RAB07E17 SLP206 P0000 T01110100=
201706180253 METAR KCLM 180253Z AUTO 28003KT 10SM SCT045 OVC055 11/09 A3015 RMK AO2 SLP210 60003 T01110094 58008=
201706180153 METAR KCLM 180153Z AUTO 26003KT 10SM OVC060 11/09 A3015 RMK AO2 RAE23 SLP211 P0002 T01110094=
201706180053 METAR KCLM 180053Z AUTO 30006KT 6SM -RA BR OVC060 11/09 A3017 RMK AO2 SLP219 P0001 T01110094=
201706172353 METAR KCLM 172353Z AUTO 28004KT 8SM -RA OVC065 12/09 A3017 RMK AO2 SLP218 P0000 60002 T01170089 10139 20117 55000=
201706172253 METAR KCLM 172253Z AUTO 29003KT 10SM -RA FEW075 OVC090 12/08 A3016 RMK AO2 SLP214 P0002 T01220083=
201706172153 METAR KCLM 172153Z AUTO 01003KT 10SM -RA BKN060 OVC075 13/07 A3017 RMK AO2 RAB29 SLP218 P0000 T01280067=
201706172053 METAR KCLM 172053Z AUTO 35004KT 10SM BKN032 13/04 A3017 RMK AO2 SLP218 T01330044 58001=
201706171953 METAR KCLM 171953Z AUTO VRB03KT 10SM OVC033 14/06 A3018 RMK AO2 SLP219 T01390061=
201706171853 METAR KCLM 171853Z AUTO 01004KT 10SM BKN034 13/07 A3018 RMK AO2 SLP219 T01330067=
201706171753 METAR KCLM 171753Z AUTO VRB05KT 10SM CLR 13/07 A3017 RMK AO2 SLP219 T01280067 10128 20100 58003=
201706171653 METAR KCLM 171653Z AUTO 01004KT 10SM SCT035 12/08 A3018 RMK AO2 SLP220 T01220078=
201706171611 SPECI KCLM 171611Z AUTO VRB03KT 10SM OVC031 12/08 A3019 RMK AO2 T01220078=
201706171553 METAR KCLM 171553Z AUTO 30003KT 10SM OVC029 12/08 A3019 RMK AO2 SLP224 T01170078=
201706171453 METAR KCLM 171453Z AUTO 26003KT 10SM OVC028 11/08 A3018 RMK AO2 SLP222 T01110078 53005=
201706171353 METAR KCLM 171353Z AUTO 26003KT 10SM OVC026 10/07 A3017 RMK AO2 SLP217 T01000072=
201706171253 METAR KCLM 171253Z AUTO 24004KT 10SM OVC028 10/08 A3017 RMK AO2 SLP217 T01000078=
201706171153 METAR KCLM 171153Z AUTO 23004KT 10SM OVC029 10/08 A3017 RMK AO2 SLP217 T01000078 10106 20089 53001=
201706171128 SPECI KCLM 171128Z AUTO 25004KT 10SM BKN029 09/07 A3017 RMK AO2 T00940072=
201706171102 SPECI KCLM 171102Z AUTO 26005KT 10SM SCT026 SCT032 BKN044 09/07 A3017 RMK AO2 T00940067=
201706171053 METAR KCLM 171053Z AUTO 25004KT 10SM BKN026 BKN032 BKN044 10/07 A3017 RMK AO2 SLP217 T01000072=
201706171024 SPECI KCLM 171024Z AUTO 26003KT 10SM BKN027 09/07 A3017 RMK AO2 T00940067=
201706170953 METAR KCLM 170953Z AUTO 28006KT 10SM SCT028 09/06 A3017 RMK AO2 SLP216 T00940056=
201706170908 SPECI KCLM 170908Z AUTO 29004KT 10SM BKN029 10/06 A3017 RMK AO2 T01000056=
201706170853 METAR KCLM 170853Z AUTO 28004KT 10SM BKN030 09/06 A3017 RMK AO2 SLP218 T00940056 51008=
201706170811 SPECI KCLM 170811Z AUTO 29006KT 10SM OVC030 10/06 A3017 RMK AO2 T01000056=
201706170801 SPECI KCLM 170801Z AUTO 29006KT 10SM OVC029 10/06 A3017 RMK AO2 T01000061=
201706170753 METAR KCLM 170753Z AUTO 29005KT 10SM BKN030 10/06 A3017 RMK AO2 SLP216 T01000061 401440089=
201706170731 SPECI KCLM 170731Z AUTO 29005KT 10SM BKN030 10/06 A3016 RMK AO2 T01000061=
201706170700 SPECI KCLM 170700Z AUTO 28006KT 10SM BKN029 09/07 A3016 RMK AO2 T00940067=
201706170653 METAR KCLM 170653Z AUTO 28005KT 10SM BKN030 09/07 A3016 RMK AO2 SLP214 T00940067=
201706170553 METAR KCLM 170553Z AUTO 28004KT 10SM CLR 09/08 A3015 RMK AO2 SLP210 T00940083 10133 20094 53012=
201706170453 METAR KCLM 170453Z AUTO 27007KT 10SM OVC030 11/09 A3014 RMK AO2 SLP206 T01060089=
201706170353 METAR KCLM 170353Z AUTO 30008KT 10SM OVC029 12/08 A3012 RMK AO2 SLP200 T01170083=
201706170344 SPECI KCLM 170344Z AUTO 31011KT 10SM OVC029 12/08 A3012 RMK AO2 T01170083=
201706170315 SPECI KCLM 170315Z AUTO 31007KT 10SM OVC030 12/08 A3012 RMK AO2 T01220083=
201706170253 METAR KCLM 170253Z AUTO 33007KT 10SM OVC029 13/08 A3011 RMK AO2 SLP197 T01280083 51002=
201706170153 METAR KCLM 170153Z AUTO 29007KT 10SM OVC029 13/08 A3011 RMK AO2 SLP196 T01280083=
201706170137 SPECI KCLM 170137Z AUTO 30007KT 10SM OVC029 13/08 A3011 RMK AO2 T01280083=
201706170105 SPECI KCLM 170105Z AUTO 31010KT 10SM SCT025 OVC030 13/08 A3011 RMK AO2 T01280083=
201706170053 METAR KCLM 170053Z AUTO 30009G18KT 10SM BKN026 OVC032 13/08 A3011 RMK AO2 SLP199 T01280083=
201706162353 METAR KCLM 162353Z AUTO 31011G18KT 10SM BKN023 OVC030 13/08 A3011 RMK AO2 SLP195 T01280083 10144 20122 51005=
201706162253 METAR KCLM 162253Z AUTO 31009KT 10SM OVC018 13/09 A3010 RMK AO2 SLP193 T01280094=
201706162153 METAR KCLM 162153Z AUTO 31008KT 10SM OVC019 13/09 A3010 RMK AO2 SLP194 T01330094=
201706162101 SPECI KCLM 162101Z AUTO 31008KT 10SM OVC015 13/09 A3009 RMK AO2 T01330094=
201706162053 METAR KCLM 162053Z AUTO 32006KT 10SM OVC014 13/09 A3009 RMK AO2 SLP191 T01330094 53013=
201706161953 METAR KCLM 161953Z AUTO 31007KT 280V340 10SM OVC012 13/11 A3007 RMK AO2 SLP183 T01330106=
201706161927 SPECI KCLM 161927Z AUTO 33007KT 10SM BKN012 OVC019 13/11 A3007 RMK AO2 T01330106=
201706161853 METAR KCLM 161853Z AUTO 30009KT 10SM OVC016 13/11 A3006 RMK AO2 SLP181 T01280106=
201706161753 METAR KCLM 161753Z AUTO VRB06KT 10SM OVC016 14/11 A3005 RMK AO2 SLP176 T01390111 10144 20106 51016=
201706161653 METAR KCLM 161653Z AUTO 34005KT 10SM OVC015 13/10 A3004 RMK AO2 SLP172 T01280100=
201706161635 SPECI KCLM 161635Z AUTO 36005KT 10SM BKN014 13/10 A3003 RMK AO2 T01280100=
201706161553 METAR KCLM 161553Z AUTO 02004KT 10SM CLR 12/10 A3003 RMK AO2 SLP168 T01220100=
201706161453 METAR KCLM 161453Z AUTO 08004KT 10SM CLR 13/11 A3001 RMK AO2 SLP160 T01280106 53011=
201706161353 METAR KCLM 161353Z AUTO 27005KT 10SM CLR 12/11 A2999 RMK AO2 SLP154 T01220106=
201706161253 METAR KCLM 161253Z AUTO 22004KT 10SM SCT010 11/11 A2999 RMK AO2 SLP154 T01060106=
201706161243 SPECI KCLM 161243Z AUTO 21003KT 10SM BKN010 11/11 A2999 RMK AO2 CIG 008V013 T01060106=
201706161210 SPECI KCLM 161210Z AUTO 29006KT 10SM OVC009 11/10 A2997 RMK AO2 T01060100=
201706161153 METAR KCLM 161153Z AUTO 29007KT 10SM OVC012 11/10 A2997 RMK AO2 SLP150 7//// T01060100 10122 20089 51014=
201706161112 SPECI KCLM 161112Z AUTO 27004KT 7SM FEW008 BKN014 10/10 A2997 RMK AO2 T01000100=
201706161053 METAR KCLM 161053Z AUTO 00000KT 10SM CLR 09/09 A2996 RMK AO2 SLP147 T00940089=
201706161023 SPECI KCLM 161023Z AUTO 25006KT 10SM SCT024 11/10 A2995 RMK AO2 T01060100=
201706161014 SPECI KCLM 161014Z AUTO 26006KT 10SM FEW011 BKN024 11/10 A2995 RMK AO2 T01060100=
201706161006 SPECI KCLM 161006Z AUTO 27006KT 10SM FEW011 SCT024 10/10 A2996 RMK AO2 T01000100=
201706160953 METAR KCLM 160953Z AUTO 28006KT 10SM FEW010 BKN018 11/10 A2995 RMK AO2 SLP140 T01060100=
201706160853 METAR KCLM 160853Z AUTO 30005KT 10SM SCT007 BKN016 11/11 A2993 RMK AO2 SLP136 T01110111 51018=
201706160847 SPECI KCLM 160847Z AUTO 30007KT 10SM SCT007 OVC016 11/11 A2993 RMK AO2=
201706160822 SPECI KCLM 160822Z AUTO 31005KT 10SM BKN009 OVC014 12/11 A2992 RMK AO2 T01170111=
201706160753 METAR KCLM 160753Z AUTO VRB04KT 10SM OVC012 12/11 A2991 RMK AO2 SLP129 T01170111 401560094=
201706160737 SPECI KCLM 160737Z AUTO VRB04KT 10SM OVC010 12/11 A2991 RMK AO2 T01170111=
201706160653 METAR KCLM 160653Z AUTO 32003KT 10SM BKN007 OVC011 12/12 A2990 RMK AO2 SLP125 T01170117=
201706160645 SPECI KCLM 160645Z AUTO 33003KT 10SM SCT007 OVC011 12/11 A2989 RMK AO2 T01170111=
201706160629 SPECI KCLM 160629Z AUTO 00000KT 10SM OVC011 12/12 A2988 RMK AO2 T01220117=
201706160553 METAR KCLM 160553Z AUTO 31003KT 10SM OVC009 12/12 A2988 RMK AO2 SLP118 60001 T01220117 10150 20122 53024=
201706160531 SPECI KCLM 160531Z AUTO 00000KT 10SM OVC010 12/12 A2987 RMK AO2 T01220117=
201706160501 SPECI KCLM 160501Z AUTO 00000KT 10SM OVC009 13/12 A2985 RMK AO2 T01280122=
201706160453 METAR KCLM 160453Z AUTO 00000KT 10SM OVC010 13/13 A2985 RMK AO2 CIG 007V010 SLP108 T01280128=
201706160423 SPECI KCLM 160423Z AUTO 00000KT 10SM OVC010 13/12 A2983 RMK AO2 T01330122 TSNO=
201706160353 METAR KCLM 160353Z AUTO 00000KT 10SM FEW004 OVC009 13/13 A2983 RMK AO2 SLP101 T01280128 TSNO=
201706160253 METAR KCLM 160253Z AUTO 00000KT 10SM BKN004 BKN013 OVC060 13/13 A2980 RMK AO2 SLP093 60001 T01330133 53015=
201706160244 SPECI KCLM 160244Z AUTO 35003KT 10SM BKN004 BKN015 OVC060 13/13 A2980 RMK AO2 T01330133 TSNO=
201706160225 SPECI KCLM 160225Z AUTO 00000KT 10SM SCT006 BKN015 OVC060 13/13 A2980 RMK AO2 T01330133 TSNO=
201706160208 SPECI KCLM 160208Z AUTO 00000KT 10SM FEW007 BKN014 OVC065 14/13 A2979 RMK AO2 T01390133=
201706160201 SPECI KCLM 160201Z AUTO 00000KT 10SM SCT005 BKN040 OVC070 14/13 A2979 RMK AO2 T01390133=
201706160153 METAR KCLM 160153Z AUTO VRB03KT 10SM FEW013 SCT036 OVC060 14/13 A2979 RMK AO2 RAE02 SLP088 P0000 T01390133=
201706160146 SPECI KCLM 160146Z AUTO 33003KT 10SM SCT013 BKN036 OVC070 14/13 A2978 RMK AO2 RAE02 P0000 T01390133=
201706160112 SPECI KCLM 160112Z AUTO 33004KT 10SM FEW007 BKN013 OVC090 14/14 A2977 RMK AO2 RAE02 P0000 T01440139=
201706160102 SPECI KCLM 160102Z AUTO VRB03KT 10SM FEW008 BKN015 OVC070 14/14 A2977 RMK AO2 RAE02 P0000 T01440139=
201706160053 METAR KCLM 160053Z AUTO 00000KT 7SM -RA FEW010 BKN015 OVC034 15/14 A2976 RMK AO2 SLP077 P0001 T01500144=
201706160046 SPECI KCLM 160046Z AUTO 29004KT 6SM -RA BR SCT009 OVC015 14/14 A2976 RMK AO2 P0001 T01440139=
201706160036 SPECI KCLM 160036Z AUTO 31006KT 6SM -RA BR BKN009 OVC015 15/14 A2977 RMK AO2 P0000 T01500139=
201706160022 SPECI KCLM 160022Z AUTO 24004KT 7SM -RA BKN013 OVC065 15/14 A2976 RMK AO2 P0000 T01500139=
201706152353 METAR KCLM 152353Z AUTO 22005KT 5SM -RA BR FEW013 BKN046 OVC060 15/13 A2976 RMK AO2 RAE20B38 SLP078 P0000 60003 T01500133 10156 20117 53015=
201706152253 METAR KCLM 152253Z AUTO VRB03KT 8SM -RA FEW012 BKN055 OVC070 14/13 A2974 RMK AO2 RAB14 SLP072 P0002 T01440128=
201706152153 METAR KCLM 152153Z AUTO 31005KT 10SM OVC070 15/12 A2971 RMK AO2 RAE12 SLP060 P0000 T01500122=
201706152053 METAR KCLM 152053Z AUTO 00000KT 9SM -RA SCT046 BKN065 OVC095 13/11 A2972 RMK AO2 RAB07 SLP063 P0000 60001 T01330111 58007=
201706151953 METAR KCLM 151953Z AUTO 29008KT 10SM FEW038 SCT049 BKN065 14/12 A2973 RMK AO2 RAE26 SLP069 P0001 T01440117=
201706151853 METAR KCLM 151853Z AUTO 34003KT 6SM -RA SCT070 OVC090 12/09 A2973 RMK AO2 RAB45 SLP067 P0000 T01220089=
201706151753 METAR KCLM 151753Z AUTO 36004KT 10SM FEW039 SCT050 BKN070 12/09 A2974 RMK AO2 RAE1658B24E39 SLP070 P0000 6//// T01220094 10133 20094 56025=
201706151653 METAR KCLM 151653Z AUTO 34004KT 10SM -RA OVC075 13/09 A2976 RMK AO2 RAB47 SLP078 T01280089 PNO=
201706151553 METAR KCLM 151553Z AUTO VRB03KT 10SM FEW045 12/10 A2978 RMK AO2 RAB00E32 SLP085 P0000 T01170100=
201706151453 METAR KCLM 151453Z AUTO 00000KT 10SM FEW005 OVC070 11/10 A2981 RMK AO2 SLP096 T01060100 56016=
201706151450 SPECI KCLM 151450Z AUTO 00000KT 10SM FEW005 BKN070 OVC110 11/10 A2982 RMK AO2=
201706151353 METAR KCLM 151353Z AUTO 36003KT 10SM FEW060 BKN120 11/09 A2984 RMK AO2 SLP105 T01060094=
201706151253 METAR KCLM 151253Z AUTO 00000KT 10SM OVC110 10/09 A2986 RMK AO2 SLP112 T01000089=
201706151153 METAR KCLM 151153Z AUTO 00000KT 10SM OVC095 09/09 A2989 RMK AO2 SLP122 T00940089 10106 20094 56020=
201706151053 METAR KCLM 151053Z AUTO 00000KT 10SM OVC070 10/09 A2991 RMK AO2 SLP128 T01000089=
201706150953 METAR KCLM 150953Z AUTO 13006KT 10SM SCT085 SCT120 11/09 A2992 RMK AO2 SLP133 T01060089=
201706150853 METAR KCLM 150853Z AUTO 00000KT 10SM OVC100 11/08 A2995 RMK AO2 SLP143 T01060083 58023=
201706150753 METAR KCLM 150753Z AUTO 00000KT 10SM OVC110 10/08 A2997 RMK AO2 SLP151 T01000083 401390078=
201706150653 METAR KCLM 150653Z AUTO 22003KT 10SM OVC110 10/08 A3000 RMK AO2 SLP160 T01000083=
201706150553 METAR KCLM 150553Z AUTO 00000KT 10SM OVC031 11/08 A3002 RMK AO2 SLP166 T01060083 10133 20106 58013=
201706150453 METAR KCLM 150453Z AUTO 00000KT 10SM BKN031 OVC075 11/08 A3003 RMK AO2 SLP171 T01060083=
201706150353 METAR KCLM 150353Z AUTO 00000KT 10SM BKN075 OVC110 11/08 A3004 RMK AO2 SLP175 T01110083=
201706150253 METAR KCLM 150253Z AUTO 00000KT 10SM OVC110 12/09 A3006 RMK AO2 SLP179 T01170089 56011=
201706150153 METAR KCLM 150153Z AUTO 00000KT 10SM BKN050 BKN085 OVC120 13/09 A3006 RMK AO2 SLP181 T01280089=
201706150053 METAR KCLM 150053Z AUTO VRB03KT 10SM CLR 13/09 A3008 RMK AO2 SLP186 T01280094=
201706142353 METAR KCLM 142353Z AUTO 34005KT 10SM BKN043 OVC110 13/08 A3009 RMK AO2 SLP190 T01280083 10139 20122 58001=
201706142253 METAR KCLM 142253Z AUTO 00000KT 10SM OVC060 13/09 A3010 RMK AO2 SLP192 T01330089=
201706142153 METAR KCLM 142153Z AUTO 02003KT 10SM BKN042 OVC060 12/08 A3009 RMK AO2 SLP190 T01220078=
201706142053 METAR KCLM 142053Z AUTO VRB03KT 10SM OVC045 13/08 A3009 RMK AO2 SLP191 T01280083 50003=
201706141953 METAR KCLM 141953Z AUTO VRB04KT 10SM OVC044 13/08 A3010 RMK AO2 SLP192 T01280083=
201706141853 METAR KCLM 141853Z AUTO 08005KT 10SM BKN048 OVC060 13/08 A3009 RMK AO2 SLP192 T01280083=
201706141753 METAR KCLM 141753Z AUTO 09007KT 10SM FEW039 SCT055 OVC070 12/08 A3009 RMK AO2 SLP189 60000 T01220083 10128 20094 55002=
201706141653 METAR KCLM 141653Z AUTO 07007KT 10SM BKN060 12/09 A3008 RMK AO2 SLP188 T01220089=
201706141553 METAR KCLM 141553Z AUTO 09006KT 10SM FEW014 OVC085 12/09 A3008 RMK AO2 SLP188 T01220089=
201706141528 SPECI KCLM 141528Z AUTO 10005KT 10SM SCT020 BKN060 OVC075 12/09 A3008 RMK AO2 T01170089=
201706141453 METAR KCLM 141453Z AUTO 13004KT 10SM OVC018 11/09 A3009 RMK AO2 SLP190 60000 T01110089 50001=
201706141353 METAR KCLM 141353Z AUTO 00000KT 8SM OVC019 10/09 A3009 RMK AO2 RAE01B24E40 SLP191 P0000 T01000094=
201706141253 METAR KCLM 141253Z AUTO 00000KT 10SM -RA OVC024 09/08 A3009 RMK AO2 RAB52 SLP190 P0000 T00940083=
201706141153 METAR KCLM 141153Z AUTO 00000KT 10SM OVC027 09/08 A3009 RMK AO2 SLP189 T00940083 10106 20078 55002=
201706141136 SPECI KCLM 141136Z AUTO 00000KT 10SM BKN028 OVC046 09/08 A3009 RMK AO2 T00940083=
201706141053 METAR KCLM 141053Z AUTO 23003KT 10SM BKN030 OVC048 09/08 A3008 RMK AO2 SLP187 T00890078=
201706140953 METAR KCLM 140953Z AUTO 00000KT 10SM FEW030 FEW060 08/07 A3008 RMK AO2 SLP186 T00830072=
201706140853 METAR KCLM 140853Z AUTO 30005KT 10SM FEW038 OVC060 09/07 A3009 RMK AO2 SLP191 T00940072 56002=
201706140753 METAR KCLM 140753Z AUTO 33004KT 10SM OVC036 10/07 A3010 RMK AO2 SLP192 T01000072 401500056=
201706140653 METAR KCLM 140653Z AUTO 28009KT 10SM FEW037 OVC055 11/08 A3009 RMK AO2 SLP191 T01060078=
201706140553 METAR KCLM 140553Z AUTO 26005KT 10SM SCT037 OVC060 10/07 A3010 RMK AO2 SLP192 T01000072 10133 20100 50000=
201706140453 METAR KCLM 140453Z AUTO 28006KT 10SM OVC031 11/07 A3011 RMK AO2 SLP196 T01060072=
201706140353 METAR KCLM 140353Z AUTO 29008KT 10SM OVC033 11/07 A3010 RMK AO2 SLP195 T01110067=
201706140253 METAR KCLM 140253Z AUTO 28010KT 10SM FEW037 OVC060 12/07 A3010 RMK AO2 SLP192 T01220067 55007=
201706140153 METAR KCLM 140153Z AUTO 32009KT 10SM OVC036 13/06 A3010 RMK AO2 SLP193 T01280061=
201706140053 METAR KCLM 140053Z AUTO 31008KT 10SM OVC034 13/07 A3011 RMK AO2 SLP195 T01330067=
201706132353 METAR KCLM 132353Z AUTO 30009KT 10SM OVC036 12/06 A3012 RMK AO2 SLP200 T01220061 10150 20117 50000=
201706132253 METAR KCLM 132253Z AUTO 31008G17KT 10SM OVC037 12/07 A3012 RMK AO2 SLP201 T01220072=
201706132153 METAR KCLM 132153Z AUTO 31009KT 10SM OVC034 12/07 A3012 RMK AO2 SLP201 T01220072=
201706132053 METAR KCLM 132053Z AUTO 33009G16KT 10SM BKN036 OVC046 12/08 A3012 RMK AO2 SLP200 T01220078 51007 $=
201706131953 METAR KCLM 131953Z AUTO 30014G22KT 10SM BKN048 13/07 A3011 RMK AO2 SLP198 T01330072 $=
201706131853 METAR KCLM 131853Z AUTO 31011G21KT 280V360 10SM CLR 14/07 A3011 RMK AO2 SLP197 T01440072 $=
201706131753 METAR KCLM 131753Z AUTO 31012G21KT 290V360 10SM SCT046 15/08 A3010 RMK AO2 SLP192 T01500078 10150 20067 58003 $=
201706131653 METAR KCLM 131653Z AUTO 30011G19KT 10SM BKN046 OVC055 14/07 A3010 RMK AO2 SLP194 T01440067 $=
201706131553 METAR KCLM 131553Z AUTO 31009KT 10SM OVC047 13/07 A3011 RMK AO2 SLP197 T01280072 $=
201706131453 METAR KCLM 131453Z AUTO 30010KT 10SM BKN045 13/07 A3011 RMK AO2 SLP196 T01280072 53001 $=
201706131353 METAR KCLM 131353Z AUTO 26007KT 10SM CLR 11/07 A3010 RMK AO2 SLP195 T01060067 $=
201706131253 METAR KCLM 131253Z AUTO 25007KT 10SM CLR 07/06 A3010 RMK AO2 SLP194 T00720056=
201706131153 METAR KCLM 131153Z AUTO 25006KT 10SM CLR 07/06 A3011 RMK AO2 SLP196 T00670056 10100 20056 51011=
201706131053 METAR KCLM 131053Z AUTO 24004KT 10SM CLR 06/05 A3010 RMK AO2 SLP193 T00610050=
201706130953 METAR KCLM 130953Z AUTO 27005KT 10SM CLR 09/06 A3009 RMK AO2 SLP189 T00940056=
201706130853 METAR KCLM 130853Z AUTO 26007KT 10SM CLR 09/06 A3007 RMK AO2 SLP185 T00940061 58002=
201706130753 METAR KCLM 130753Z AUTO 27008KT 10SM CLR 10/07 A3008 RMK AO2 SLP185 T01000067 401560083=
201706130653 METAR KCLM 130653Z AUTO 28008KT 10SM CLR 10/07 A3008 RMK AO2 SLP186 T01000067=
201706130553 METAR KCLM 130553Z AUTO 28007KT 10SM CLR 10/07 A3008 RMK AO2 SLP187 T01000067 10139 20100 53008=
201706130453 METAR KCLM 130453Z AUTO 28009G15KT 10SM CLR 11/07 A3007 RMK AO2 SLP185 T01060072=
201706130353 METAR KCLM 130353Z AUTO 29017G24KT 10SM CLR 11/08 A3006 RMK AO2 SLP179 T01060083=
201706130253 METAR KCLM 130253Z AUTO 30011G23KT 10SM CLR 11/09 A3006 RMK AO2 PK WND 30030/0157 SLP179 T01110089 53005=
201706130153 METAR KCLM 130153Z AUTO 31016G25KT 10SM CLR 12/09 A3004 RMK AO2 PK WND 30027/0141 SLP173 T01220089=
201706130053 METAR KCLM 130053Z AUTO 30014G24KT 10SM CLR 13/09 A3005 RMK AO2 PK WND 31027/2356 SLP176 T01280089=
201706122353 METAR KCLM 122353Z AUTO 30017G29KT 10SM CLR 14/09 A3004 RMK AO2 PK WND 29029/2352 SLP174 T01390089 10156 20133 51009=
201706122253 METAR KCLM 122253Z AUTO 30017G23KT 10SM FEW020 14/09 A3004 RMK AO2 SLP172 T01390094=
201706122153 METAR KCLM 122153Z AUTO 32011G20KT 10SM CLR 15/11 A3002 RMK AO2 SLP165 T01500106=
201706122053 METAR KCLM 122053Z AUTO 31012G18KT 10SM CLR 15/11 A3001 RMK AO2 SLP163 T01500106 50003=
201706121953 METAR KCLM 121953Z AUTO 32010G19KT 10SM CLR 15/10 A3002 RMK AO2 SLP164 T01500100=
201706121853 METAR KCLM 121853Z AUTO 32009G17KT 10SM CLR 15/10 A3001 RMK AO2 SLP161 T01500100=
201706121753 METAR KCLM 121753Z AUTO 32008G16KT 10SM CLR 14/10 A3000 RMK AO2 SLP160 T01440100 10150 20083 53000=
201706121653 METAR KCLM 121653Z AUTO 31008KT 10SM CLR 14/09 A3000 RMK AO2 SLP160 T01390094=
201706121553 METAR KCLM 121553Z AUTO 30009KT 10SM CLR 13/09 A3000 RMK AO2 SLP159 T01330094=
201706121453 METAR KCLM 121453Z AUTO 31006KT 10SM FEW110 13/09 A3000 RMK AO2 SLP160 T01330094 50006=
201706121353 METAR KCLM 121353Z AUTO 28005KT 10SM BKN110 12/09 A3001 RMK AO2 SLP161 T01170094=
201706121253 METAR KCLM 121253Z AUTO 28004KT 10SM SCT120 09/08 A3000 RMK AO2 SLP158 T00940083=
201706121153 METAR KCLM 121153Z AUTO 30006KT 10SM FEW080 09/08 A2998 RMK AO2 SLP153 T00890078 10111 20089 55003=
201706121053 METAR KCLM 121053Z AUTO 27007KT 10SM CLR 10/08 A2998 RMK AO2 SLP153 T01000083=
201706120953 METAR KCLM 120953Z AUTO 28007KT 10SM SCT120 11/09 A2998 RMK AO2 SLP153 T01060089=
201706120853 METAR KCLM 120853Z AUTO 28010KT 10SM CLR 10/09 A2999 RMK AO2 SLP156 T01000089 56007=
201706120753 METAR KCLM 120753Z AUTO 28005KT 10SM CLR 10/09 A3000 RMK AO2 SLP159 T01000094 401780089=
201706120653 METAR KCLM 120653Z AUTO 30006KT 10SM CLR 11/09 A3000 RMK AO2 SLP159 T01060094=
201706120553 METAR KCLM 120553Z AUTO 29009KT 10SM CLR 11/10 A3001 RMK AO2 SLP163 T01110100 10167 20111 55000=
201706120453 METAR KCLM 120453Z AUTO 29006KT 10SM CLR 11/09 A3001 RMK AO2 SLP163 T01110094=
201706120353 METAR KCLM 120353Z AUTO 31006KT 10SM CLR 13/09 A3001 RMK AO2 SLP161 T01280094=
201706120253 METAR KCLM 120253Z AUTO 30008KT 10SM CLR 14/09 A3001 RMK AO2 SLP163 T01440094 55005=
201706120153 METAR KCLM 120153Z AUTO 31007KT 10SM CLR 14/09 A3001 RMK AO2 SLP163 T01440094=
201706120053 METAR KCLM 120053Z AUTO 33007KT 10SM CLR 16/09 A3001 RMK AO2 SLP163 T01560094=
201706112353 METAR KCLM 112353Z AUTO 29008KT 10SM CLR 16/10 A3003 RMK AO2 SLP168 T01610100 10178 20139 56004=
201706112253 METAR KCLM 112253Z AUTO 34007KT 10SM SCT070 17/08 A3003 RMK AO2 SLP169 T01720083=
201706112153 METAR KCLM 112153Z AUTO VRB04KT 10SM CLR 17/09 A3003 RMK AO2 SLP169 T01670089=
201706112053 METAR KCLM 112053Z AUTO 03006KT 10SM CLR 16/09 A3004 RMK AO2 SLP172 T01610094 58003=
201706111953 METAR KCLM 111953Z AUTO 01004KT 10SM CLR 16/09 A3004 RMK AO2 SLP174 T01560089=
201706111853 METAR KCLM 111853Z AUTO 35006KT 10SM CLR 15/09 A3005 RMK AO2 SLP176 T01500089=
201706111753 METAR KCLM 111753Z AUTO 35005KT 10SM CLR 14/09 A3005 RMK AO2 SLP176 T01390089 10144 20089 50004=
201706111653 METAR KCLM 111653Z AUTO 33005KT 10SM SCT033 14/09 A3005 RMK AO2 SLP176 T01390089=
201706111553 METAR KCLM 111553Z AUTO 31005KT 10SM CLR 13/09 A3004 RMK AO2 SLP174 T01330094=
201706111453 METAR KCLM 111453Z AUTO 27006KT 10SM CLR 13/09 A3004 RMK AO2 SLP171 T01280089 51013=
201706111353 METAR KCLM 111353Z AUTO 24004KT 10SM CLR 11/08 A3002 RMK AO2 SLP166 T01110078=
201706111253 METAR KCLM 111253Z AUTO 24005KT 10SM CLR 09/07 A3001 RMK AO2 SLP164 T00940072=
201706111153 METAR KCLM 111153Z AUTO 26005KT 10SM CLR 09/07 A3000 RMK AO2 SLP159 T00890072 10106 20089 53009=
201706111053 METAR KCLM 111053Z AUTO 26006KT 10SM CLR 09/08 A2999 RMK AO2 SLP155 T00940078=
201706110953 METAR KCLM 110953Z AUTO 30007KT 10SM SCT070 10/08 A2998 RMK AO2 SLP152 T01000078=
201706110853 METAR KCLM 110853Z AUTO 28008KT 10SM CLR 10/08 A2997 RMK AO2 SLP150 T01000083 51009=
201706110753 METAR KCLM 110753Z AUTO 31005KT 10SM CLR 09/08 A2996 RMK AO2 SLP148 T00890083 401610083=
201706110653 METAR KCLM 110653Z AUTO 27006KT 10SM CLR 09/09 A2995 RMK AO2 SLP143 T00940089=
201706110553 METAR KCLM 110553Z AUTO 29008KT 10SM FEW075 11/09 A2994 RMK AO2 SLP140 T01060094 10161 20106 51012=
201706110453 METAR KCLM 110453Z AUTO 30007KT 10SM SCT065 11/09 A2994 RMK AO2 SLP138 T01110094=
201706110353 METAR KCLM 110353Z AUTO 29009KT 10SM CLR 12/09 A2992 RMK AO2 SLP134 T01170089=
201706110253 METAR KCLM 110253Z AUTO 28011KT 10SM FEW075 12/08 A2991 RMK AO2 SLP129 T01220083 51010=
201706110153 METAR KCLM 110153Z AUTO 31010G15KT 10SM CLR 14/08 A2990 RMK AO2 SLP126 T01390083=
201706110053 METAR KCLM 110053Z AUTO 30009KT 10SM CLR 14/08 A2989 RMK AO2 SLP122 T01390083=
201706102353 METAR KCLM 102353Z AUTO 30011KT 10SM FEW080 16/08 A2988 RMK AO2 SLP119 T01560083 10161 20122 50001=
201706102253 METAR KCLM 102253Z AUTO 30009KT 10SM CLR 16/08 A2988 RMK AO2 SLP119 T01560083=
201706102153 METAR KCLM 102153Z AUTO 30013G18KT 10SM CLR 14/08 A2988 RMK AO2 SLP118 T01440083=
201706102053 METAR KCLM 102053Z AUTO 31010KT 10SM CLR 14/09 A2988 RMK AO2 SLP117 T01390089 53001=
201706101953 METAR KCLM 101953Z AUTO 30009KT 10SM CLR 16/08 A2987 RMK AO2 SLP114 T01560083=
201706101853 METAR KCLM 101853Z AUTO 33010KT 10SM SCT055 OVC065 14/08 A2987 RMK AO2 SLP116 T01390083=
201706101753 METAR KCLM 101753Z AUTO 34007KT 10SM FEW060 OVC080 12/08 A2987 RMK AO2 SLP116 T01220083 10144 20083 51006=
201706101653 METAR KCLM 101653Z AUTO 34004KT 10SM BKN060 OVC085 13/08 A2987 RMK AO2 SLP116 T01280078=
201706101553 METAR KCLM 101553Z AUTO 30003KT 10SM OVC060 12/07 A2986 RMK AO2 SLP113 T01220072=
201706101453 METAR KCLM 101453Z AUTO 29005KT 10SM OVC060 11/08 A2985 RMK AO2 SLP110 T01060078 51001=
201706101353 METAR KCLM 101353Z AUTO 00000KT 10SM OVC060 09/08 A2985 RMK AO2 SLP110 T00940078=
201706101253 METAR KCLM 101253Z AUTO 27003KT 10SM OVC065 09/07 A2986 RMK AO2 SLP111 T00890072=
201706101153 METAR KCLM 101153Z AUTO 29004KT 10SM BKN032 OVC065 09/08 A2985 RMK AO2 RAE24 SLP110 P0000 60000 70001 T00890078 10100 20089 55000=
201706101053 METAR KCLM 101053Z AUTO 24006KT 10SM -RA FEW043 OVC050 10/08 A2985 RMK AO2 RAB49 SLP108 P0000 T01000083=
201706100953 METAR KCLM 100953Z AUTO 26005KT 10SM OVC060 10/08 A2985 RMK AO2 SLP110 T01000083=
201706100853 METAR KCLM 100853Z AUTO 26007KT 10SM OVC055 10/09 A2985 RMK AO2 SLP109 T01000089 53002=
201706100753 METAR KCLM 100753Z AUTO 27008KT 10SM SCT065 OVC100 10/09 A2985 RMK AO2 SLP108 T01000089 401500044=
201706100653 METAR KCLM 100653Z AUTO 26008KT 10SM FEW020 OVC065 10/09 A2985 RMK AO2 SLP109 T01000089=
201706100553 METAR KCLM 100553Z AUTO 27007KT 10SM SCT035 BKN060 OVC100 10/09 A2985 RMK AO2 SLP108 60001 T01000089 10128 20089 53008=
201706100453 METAR KCLM 100453Z AUTO 27006KT 10SM CLR 09/08 A2983 RMK AO2 SLP102 T00940083=
201706100353 METAR KCLM 100353Z AUTO 26006KT 10SM BKN055 11/09 A2983 RMK AO2 SLP101 T01060089=
201706100253 METAR KCLM 100253Z AUTO 27006KT 10SM CLR 11/09 A2982 RMK AO2 SLP099 60001 T01060094 55004=
201706100153 METAR KCLM 100153Z AUTO VRB04KT 10SM SCT110 11/10 A2982 RMK AO2 RAE13 SLP099 P0000 T01110100=
201706100053 METAR KCLM 100053Z AUTO 29006KT 5SM -RA BR BKN060 OVC095 12/10 A2982 RMK AO2 RAB2358E15B44 SLP100 P0001 T01220100=
201706092353 METAR KCLM 092353Z AUTO 29005KT 10SM SCT037 OVC075 13/08 A2983 RMK AO2 SLP103 60000 T01280083 10150 20111 55004=
201706092253 METAR KCLM 092253Z AUTO 36003KT 10SM BKN075 BKN090 13/08 A2983 RMK AO2 SLP101 T01280083=
201706092153 METAR KCLM 092153Z AUTO 35005KT 10SM BKN065 13/09 A2983 RMK AO2 SLP103 T01330089=
201706092053 METAR KCLM 092053Z AUTO 01005KT 10SM BKN070 OVC085 14/08 A2985 RMK AO2 RAE11 SLP108 P0000 60000 T01390078 58012=
201706091953 METAR KCLM 091953Z AUTO 34004KT 6SM -RA BKN060 OVC070 12/09 A2987 RMK AO2 RAB44 SLP114 P0000 T01220089=
201706091853 METAR KCLM 091853Z AUTO 00000KT 10SM BKN055 12/09 A2988 RMK AO2 RAB34E43 SLP118 P0000 T01220089=
201706091837 SPECI KCLM 091837Z AUTO 02005KT 10SM -RA SCT009 OVC055 12/09 A2988 RMK AO2 RAB34 P0000 T01220089=
201706091800 SPECI KCLM 091800Z AUTO VRB03KT 10SM BKN006 OVC050 12/10 A2988 RMK AO2 T01170100=
201706091753 METAR KCLM 091753Z AUTO 34004KT 10SM SCT005 OVC050 11/09 A2988 RMK AO2 RAB12E23 SLP119 P0000 60000 T01110094 10122 20044 50003=
201706091745 SPECI KCLM 091745Z AUTO 36005KT 10SM BKN005 OVC050 11/09 A2988 RMK AO2 RAB12E23 P0000 T01060094=
201706091653 METAR KCLM 091653Z AUTO 35004KT 10SM FEW005 OVC065 11/09 A2988 RMK AO2 SLP120 T01110094=
201706091631 SPECI KCLM 091631Z AUTO VRB03KT 10SM FEW005 BKN070 BKN110 11/09 A2988 RMK AO2 T01110094=
201706091553 METAR KCLM 091553Z AUTO VRB05KT 10SM CLR 11/08 A2988 RMK AO2 SLP117 T01060083=
201706091453 METAR KCLM 091453Z AUTO 08004KT 10SM CLR 11/07 A2987 RMK AO2 SLP117 T01110072 56010=
201706091353 METAR KCLM 091353Z AUTO 00000KT 10SM FEW110 09/09 A2988 RMK AO2 SLP119 T00940089=
201706091253 METAR KCLM 091253Z AUTO 23004KT 10SM FEW120 06/06 A2989 RMK AO2 SLP122 T00610061=
201706091153 METAR KCLM 091153Z AUTO 00000KT 9SM BKN110 05/05 A2990 RMK AO2 SLP127 70006 T00500050 10083 20044 58009=
201706091053 METAR KCLM 091053Z AUTO 24003KT 10SM OVC110 06/06 A2992 RMK AO2 SLP132 T00560056=
201706090953 METAR KCLM 090953Z AUTO 00000KT 9SM FEW110 05/04 A2993 RMK AO2 SLP136 T00500044=
201706090853 METAR KCLM 090853Z AUTO 23003KT 10SM CLR 05/05 A2993 RMK AO2 SLP136 T00500050 53001=
201706090753 METAR KCLM 090753Z AUTO 00000KT 10SM CLR 06/06 A2993 RMK AO2 SLP136 T00610061 401440061=
201706090653 METAR KCLM 090653Z AUTO 00000KT 10SM FEW080 07/07 A2992 RMK AO2 SLP133 T00670067=
201706090553 METAR KCLM 090553Z AUTO 13003KT 10SM FEW032 BKN080 08/07 A2993 RMK AO2 SLP135 T00830067 10139 20078 51007=
201706090453 METAR KCLM 090453Z AUTO 28007KT 10SM CLR 08/07 A2992 RMK AO2 SLP132 T00830067=
201706090353 METAR KCLM 090353Z AUTO 25003KT 10SM CLR 10/07 A2992 RMK AO2 SLP131 T01000072=
201706090253 METAR KCLM 090253Z AUTO 31010G16KT 10SM SCT070 11/08 A2991 RMK AO2 SLP128 T01110078 51024=
201706090153 METAR KCLM 090153Z AUTO 31011G20KT 10SM SCT048 OVC065 12/08 A2988 RMK AO2 SLP119 T01170083=
201706090053 METAR KCLM 090053Z AUTO 34011G22KT 10SM FEW050 OVC065 13/08 A2986 RMK AO2 PK WND 32026/0020 SLP112 T01280083=
201706082353 METAR KCLM 082353Z AUTO 32013G24KT 10SM SCT060 13/08 A2983 RMK AO2 SLP102 60004 T01280083 10144 20111 51029=
201706082253 METAR KCLM 082253Z AUTO 31014G21KT 10SM FEW038 BKN060 BKN075 14/08 A2981 RMK AO2 SLP093 T01390078=
201706082153 METAR KCLM 082153Z AUTO 30013KT 10SM SCT049 BKN060 OVC070 13/09 A2978 RMK AO2 SLP082 T01330094=
201706082053 METAR KCLM 082053Z AUTO 31011G23KT 10SM BKN044 BKN060 BKN070 13/11 A2975 RMK AO2 RAE07 SLP073 P0000 60004 T01280106 51033=
201706082001 SPECI KCLM 082001Z AUTO 31008KT 8SM -RA FEW015 SCT039 OVC065 13/12 A2973 RMK AO2 P0000 T01280117=
201706081953 METAR KCLM 081953Z AUTO 31008KT 10SM -RA SCT015 BKN026 OVC060 13/12 A2972 RMK AO2 SLP064 P0003 T01280117=
201706081911 SPECI KCLM 081911Z AUTO 00000KT 5SM -RA BR BKN017 OVC034 12/12 A2970 RMK AO2 P0002 T01220117=
201706081853 METAR KCLM 081853Z AUTO 28004KT 2 1/2SM -RA BR FEW005 BKN019 OVC034 12/12 A2970 RMK AO2 RAB32 SLP056 P0001 T01170117=
201706081840 SPECI KCLM 081840Z AUTO 31004KT 2 1/2SM -RA BR SCT004 BKN023 OVC050 12/11 A2968 RMK AO2 RAB32 P0000 T01170111=
201706081802 SPECI KCLM 081802Z AUTO VRB03KT 6SM BR BKN003 OVC065 11/11 A2966 RMK AO2 T01110111=
201706081753 METAR KCLM 081753Z AUTO 01004KT 7SM SCT004 BKN065 OVC075 11/11 A2965 RMK AO2 SLP039 60002 T01110106 10122 20111 53012=
201706081731 SPECI KCLM 081731Z AUTO 35003KT 10SM SCT004 BKN075 11/11 A2963 RMK AO2 T01110106=
201706081653 METAR KCLM 081653Z AUTO 02003KT 10SM OVC004 12/11 A2962 RMK AO2 SLP031 T01170111=
201706081635 SPECI KCLM 081635Z AUTO 00000KT 10SM OVC005 11/11 A2962 RMK AO2 T01110106=
201706081553 METAR KCLM 081553Z AUTO 09003KT 9SM OVC004 11/11 A2961 RMK AO2 SLP026 T01110106=
201706081453 METAR KCLM 081453Z AUTO 08003KT 10SM OVC004 11/11 A2961 RMK AO2 RAB1355E42 SLP027 P0002 60002 T01110106 55010=
201706081444 SPECI KCLM 081444Z AUTO 09003KT 10SM BKN004 OVC075 11/11 A2961 RMK AO2 RAB1355E42 P0002 T01110106=
201706081411 SPECI KCLM 081411Z AUTO 00000KT 6SM -RA BR FEW003 BKN042 OVC055 11/11 A2961 RMK AO2 RAB1355 P0002 T01110106=
201706081353 METAR KCLM 081353Z AUTO 03003KT 10SM OVC042 11/10 A2961 RMK AO2 SLP025 T01110100=
201706081253 METAR KCLM 081253Z AUTO 00000KT 10SM BKN080 OVC100 11/11 A2962 RMK AO2 RAB11E36 SLP030 P0000 T01110106=
201706081153 METAR KCLM 081153Z AUTO 15004KT 10SM FEW085 12/10 A2964 RMK AO2 SLP037 60000 T01220100 10139 20117 58015=
201706081053 METAR KCLM 081053Z AUTO 13003KT 10SM SCT070 BKN110 12/11 A2967 RMK AO2 RAE0957 SLP046 P0000 T01220111=
201706080953 METAR KCLM 080953Z AUTO 00000KT 10SM -RA SCT065 OVC110 12/11 A2968 RMK AO2 RAB22 SLP051 P0000 T01220106=
201706080853 METAR KCLM 080853Z AUTO 00000KT 10SM SCT065 SCT090 BKN110 12/11 A2969 RMK AO2 SLP053 60000 T01220106 58010=
201706080753 METAR KCLM 080753Z AUTO 22004KT 10SM SCT075 OVC100 12/11 A2971 RMK AO2 RAE20 SLP059 P0000 T01220106 402000089=
201706080653 METAR KCLM 080653Z AUTO 20004KT 10SM -RA OVC100 13/08 A2971 RMK AO2 RAB0556E25B45 SLP060 P0000 T01330083=
201706080553 METAR KCLM 080553Z AUTO 25006KT 10SM BKN110 14/07 A2972 RMK AO2 SLP063 T01390072 10183 20139 53010=
201706080453 METAR KCLM 080453Z AUTO 28007KT 10SM SCT110 14/07 A2972 RMK AO2 SLP062 T01440067=
201706080353 METAR KCLM 080353Z AUTO 28006KT 10SM CLR 15/06 A2969 RMK AO2 SLP054 T01500056=
201706080253 METAR KCLM 080253Z AUTO 27008KT 10SM CLR 16/06 A2969 RMK AO2 SLP054 T01610061 55002=
201706080153 METAR KCLM 080153Z AUTO 29005KT 10SM CLR 16/08 A2968 RMK AO2 SLP049 T01610078=
201706080053 METAR KCLM 080053Z AUTO 31008KT 10SM CLR 18/08 A2969 RMK AO2 SLP052 T01780083=
201706072353 METAR KCLM 072353Z AUTO 31006KT 10SM SCT110 18/07 A2970 RMK AO2 SLP056 T01780067 10200 20150 56015=
201706072253 METAR KCLM 072253Z AUTO 31007KT 10SM CLR 19/08 A2971 RMK AO2 SLP059 T01940078=
201706072153 METAR KCLM 072153Z AUTO 31008KT 10SM CLR 18/07 A2972 RMK AO2 SLP065 T01780072=
201706072053 METAR KCLM 072053Z AUTO 32006KT 10SM CLR 17/08 A2974 RMK AO2 SLP071 T01720078 56015=
201706071953 METAR KCLM 071953Z AUTO VRB03KT 10SM CLR 17/09 A2976 RMK AO2 SLP076 T01720094=
201706071853 METAR KCLM 071853Z AUTO 35005KT 10SM CLR 16/09 A2977 RMK AO2 SLP080 T01560094=
201706071753 METAR KCLM 071753Z AUTO 01006KT 10SM CLR 15/10 A2979 RMK AO2 SLP086 T01500100 10167 20089 58017=
201706071653 METAR KCLM 071653Z AUTO 34003KT 10SM CLR 16/09 A2980 RMK AO2 SLP092 T01560094=
201706071553 METAR KCLM 071553Z AUTO 01003KT 10SM CLR 14/09 A2983 RMK AO2 SLP100 T01390089 $=
201706071453 METAR KCLM 071453Z AUTO 00000KT 10SM CLR 15/08 A2984 RMK AO2 SLP103 T01500083 58013 $=
201706071353 METAR KCLM 071353Z AUTO 00000KT 10SM CLR 13/09 A2985 RMK AO2 SLP107 T01280089 $=
201706071253 METAR KCLM 071253Z AUTO 00000KT 9SM CLR 09/08 A2987 RMK AO2 SLP113 T00890083 $=
201706071153 METAR KCLM 071153Z AUTO 00000KT 10SM CLR 11/09 A2988 RMK AO2 SLP116 T01060089 10139 20100 58008 $=
201706071053 METAR KCLM 071053Z AUTO 00000KT 10SM CLR 11/09 A2989 RMK AO2 SLP120 T01110089 $=
201706070953 METAR KCLM 070953Z AUTO 27004KT 10SM CLR 12/08 A2990 RMK AO2 SLP123 T01220078 $=
201706070853 METAR KCLM 070853Z AUTO 25005KT 10SM CLR 13/06 A2990 RMK AO2 SLP125 T01280061 58005 $=
201706070753 METAR KCLM 070753Z AUTO 28007KT 10SM CLR 13/07 A2991 RMK AO2 SLP128 T01280072 402280061 $=
201706070653 METAR KCLM 070653Z AUTO 28005KT 10SM CLR 13/08 A2991 RMK AO2 SLP128 T01330078 $=
201706070553 METAR KCLM 070553Z AUTO 28005KT 10SM CLR 13/08 A2992 RMK AO2 SLP130 T01330083 10217 20133 50001 $=
201706070453 METAR KCLM 070453Z AUTO 28005KT 10SM CLR 14/08 A2992 RMK AO2 SLP132 T01390078 $=
201706070353 METAR KCLM 070353Z AUTO 30008KT 10SM CLR 16/07 A2992 RMK AO2 SLP131 T01560072 $=
201706070253 METAR KCLM 070253Z AUTO 28008KT 10SM CLR 16/08 A2991 RMK AO2 SLP130 T01610078 50002 $=
201706070153 METAR KCLM 070153Z AUTO 31009KT 10SM CLR 17/08 A2992 RMK AO2 SLP131 T01670083 $=
201706070053 METAR KCLM 070053Z AUTO 31005KT 10SM CLR 19/09 A2991 RMK AO2 SLP127 T01890094 $=
201706062353 METAR KCLM 062353Z AUTO 36004KT 10SM CLR 22/08 A2991 RMK AO2 SLP128 T02170083 10228 20178 56014 $=
201706062253 METAR KCLM 062253Z AUTO 36005KT 10SM CLR 22/06 A2992 RMK AO2 SLP132 T02170061 $=
201706062153 METAR KCLM 062153Z AUTO 00000KT 10SM CLR 21/06 A2993 RMK AO2 SLP136 T02060056 $=
201706062053 METAR KCLM 062053Z AUTO 02003KT 10SM CLR 21/07 A2995 RMK AO2 SLP141 T02060067 56012 $=
201706061953 METAR KCLM 061953Z AUTO VRB05KT 10SM CLR 19/08 A2996 RMK AO2 SLP144 T01890083 $=
201706061853 METAR KCLM 061853Z AUTO 06006KT 10SM CLR 19/08 A2997 RMK AO2 SLP147 T01890078 $=
201706061753 METAR KCLM 061753Z AUTO 12006KT 10SM CLR 18/08 A2999 RMK AO2 SLP154 T01780078 10183 20061 58009 $=
201706061653 METAR KCLM 061653Z AUTO 08007KT 10SM CLR 17/08 A3000 RMK AO2 SLP160 T01720083 $=
201706061553 METAR KCLM 061553Z AUTO VRB03KT 10SM CLR 17/07 A3001 RMK AO2 SLP162 T01720067 $=
201706061453 METAR KCLM 061453Z AUTO 00000KT 10SM CLR 16/08 A3001 RMK AO2 SLP163 T01610078 $=
201706061353 METAR KCLM 061353Z AUTO 23003KT 10SM CLR 11/07 A3001 RMK AO2 SLP164 T01110072 $=
201706061253 METAR KCLM 061253Z AUTO 00000KT 10SM 07/06 A3002 RMK AO2 SLP168 T00670056 $=
201706061153 METAR KCLM 061153Z AUTO 00000KT 10SM CLR 07/06 A3004 RMK AO2 SLP172 T00720061 10117 20072 58006 $=
201706061053 METAR KCLM 061053Z AUTO 00000KT 10SM CLR 08/07 A3005 RMK AO2 SLP175 T00830067 $=
201706060953 METAR KCLM 060953Z AUTO 00000KT 10SM CLR 09/08 A3005 RMK AO2 SLP177 T00890078 $=
201706060853 METAR KCLM 060853Z AUTO 27003KT 10SM CLR 10/08 A3005 RMK AO2 SLP177 T01000083 58010 $=
201706060753 METAR KCLM 060753Z AUTO 30005KT 10SM CLR 10/08 A3007 RMK AO2 SLP182 T01000083 401720072 $=
201706060653 METAR KCLM 060653Z AUTO 00000KT 10SM CLR 11/08 A3008 RMK AO2 SLP184 T01110083 $=
201706060553 METAR KCLM 060553Z AUTO 28004KT 10SM CLR 12/07 A3008 RMK AO2 SLP187 T01170072 10156 20100 58004 $=
201706060453 METAR KCLM 060453Z AUTO 28005KT 10SM CLR 11/07 A3009 RMK AO2 SLP190 T01060072 $=
201706060353 METAR KCLM 060353Z AUTO 29005KT 10SM CLR 12/08 A3010 RMK AO2 SLP192 T01170078 $=
201706060253 METAR KCLM 060253Z AUTO 29005KT 10SM CLR 13/08 A3010 RMK AO2 SLP191 T01330078 56007 $=
201706060153 METAR KCLM 060153Z AUTO 31006KT 10SM CLR 14/09 A3010 RMK AO2 SLP193 T01440089 $=
201706060053 METAR KCLM 060053Z AUTO 31009KT 10SM CLR 15/09 A3011 RMK AO2 SLP197 T01500089 $=
201706052353 METAR KCLM 052353Z AUTO 30008KT 10SM CLR 15/08 A3012 RMK AO2 SLP199 T01500078 10172 20133 56014 $=
201706052253 METAR KCLM 052253Z AUTO 01004KT 10SM CLR 17/07 A3013 RMK AO2 SLP202 T01670067 $=
201706052153 METAR KCLM 052153Z AUTO 35005KT 10SM CLR 16/08 A3014 RMK AO2 SLP209 T01560078 $=
201706052053 METAR KCLM 052053Z AUTO 03005KT 10SM CLR 16/08 A3016 RMK AO2 SLP214 T01560078 58013 $=
201706051953 METAR KCLM 051953Z AUTO VRB03KT 10SM CLR 15/08 A3018 RMK AO2 SLP221 T01500083 $=
201706051853 METAR KCLM 051853Z AUTO 35005KT 10SM CLR 14/09 A3019 RMK AO2 SLP224 T01390089 $=
201706051753 METAR KCLM 051753Z AUTO 36005KT 10SM CLR 13/09 A3020 RMK AO2 SLP227 T01330094 10133 20078 58000 $=
201706051653 METAR KCLM 051653Z AUTO 36005KT 10SM CLR 12/09 A3020 RMK AO2 SLP228 T01170089 $=
201706051553 METAR KCLM 051553Z AUTO 01005KT 10SM CLR 12/08 A3021 RMK AO2 SLP230 T01170078 $=
201706051453 METAR KCLM 051453Z AUTO 26005KT 10SM CLR 12/06 A3020 RMK AO2 SLP228 T01170061 53001 $=
201706051353 METAR KCLM 051353Z AUTO 27008KT 10SM CLR 09/04 A3020 RMK AO2 SLP226 T00890044 $=
201706051253 METAR KCLM 051253Z AUTO 26010KT 10SM CLR 08/04 A3020 RMK AO2 SLP226 T00780044=
201706051153 METAR KCLM 051153Z AUTO 25008KT 10SM CLR 08/04 A3020 RMK AO2 SLP227 T00830044 10094 20072 56003=
201706051053 METAR KCLM 051053Z AUTO 25007KT 10SM CLR 08/05 A3020 RMK AO2 SLP227 T00830050=
201706050953 METAR KCLM 050953Z AUTO 24006KT 10SM CLR 08/06 A3020 RMK AO2 SLP229 T00780056=
201706050853 METAR KCLM 050853Z AUTO 26006KT 10SM CLR 08/06 A3021 RMK AO2 SLP230 T00830056 53003=
201706050753 METAR KCLM 050753Z AUTO 26006KT 10SM CLR 08/06 A3020 RMK AO2 SLP229 T00780056 401440072=
201706050653 METAR KCLM 050653Z AUTO 26008KT 10SM CLR 09/06 A3020 RMK AO2 SLP228 T00890056=
201706050553 METAR KCLM 050553Z AUTO 27008KT 10SM CLR 09/06 A3020 RMK AO2 SLP227 T00940061 10139 20094 51006=
201706050453 METAR KCLM 050453Z AUTO 27008KT 10SM CLR 10/07 A3019 RMK AO2 SLP226 T01000067=
201706050353 METAR KCLM 050353Z AUTO 28010KT 10SM CLR 11/07 A3019 RMK AO2 SLP223 T01060067=
201706050253 METAR KCLM 050253Z AUTO 29012G19KT 10SM CLR 12/06 A3018 RMK AO2 SLP221 T01220056 53007=
201706050153 METAR KCLM 050153Z AUTO 31012G18KT 10SM CLR 13/06 A3017 RMK AO2 SLP218 T01280056=
201706050053 METAR KCLM 050053Z AUTO 31011G18KT 10SM CLR 13/05 A3016 RMK AO2 PK WND 30026/0001 SLP215 T01330050=
201706042353 METAR KCLM 042353Z AUTO 30013G21KT 10SM CLR 14/05 A3016 RMK AO2 SLP214 T01390050 10144 20122 51007=
201706042253 METAR KCLM 042253Z AUTO 32012G21KT 10SM CLR 14/04 A3015 RMK AO2 SLP212 T01390039=
201706042153 METAR KCLM 042153Z AUTO 32012G21KT 10SM CLR 14/04 A3016 RMK AO2 SLP213 T01390044=
201706042053 METAR KCLM 042053Z AUTO 30016G21KT 10SM CLR 14/03 A3014 RMK AO2 SLP207 T01390028 50002=
201706041953 METAR KCLM 041953Z AUTO 30011G18KT 10SM CLR 14/04 A3014 RMK AO2 SLP207 T01390039=
201706041853 METAR KCLM 041853Z AUTO 32012G20KT 10SM CLR 13/05 A3014 RMK AO2 SLP207 T01330050=
201706041753 METAR KCLM 041753Z AUTO 31010G22KT 280V340 10SM CLR 12/07 A3013 RMK AO2 SLP205 T01220072 10128 20072 51010=
201706041653 METAR KCLM 041653Z AUTO 31013G19KT 10SM CLR 12/06 A3012 RMK AO2 SLP201 T01220061=
201706041553 METAR KCLM 041553Z AUTO 31010KT 10SM CLR 12/06 A3012 RMK AO2 SLP199 T01170056=
201706041453 METAR KCLM 041453Z AUTO 30009KT 10SM CLR 11/05 A3010 RMK AO2 SLP194 T01110050 51009=
201706041353 METAR KCLM 041353Z AUTO 25008KT 10SM CLR 08/05 A3009 RMK AO2 SLP191 T00780050=
201706041253 METAR KCLM 041253Z AUTO 26008KT 10SM CLR 07/05 A3008 RMK AO2 SLP188 T00720050=
201706041153 METAR KCLM 041153Z AUTO 27006KT 10SM FEW060 07/05 A3007 RMK AO2 SLP185 T00720050 10094 20072 53006=
201706041053 METAR KCLM 041053Z AUTO 27009KT 10SM SCT060 08/06 A3006 RMK AO2 SLP182 T00830056=
201706040953 METAR KCLM 040953Z AUTO 28009KT 10SM SCT060 08/06 A3006 RMK AO2 SLP180 T00830056=
201706040853 METAR KCLM 040853Z AUTO 27010KT 10SM CLR 09/06 A3005 RMK AO2 SLP178 T00890056 56005=
201706040753 METAR KCLM 040753Z AUTO 26008KT 10SM BKN060 09/06 A3006 RMK AO2 SLP180 T00890061 401390078=
201706040653 METAR KCLM 040653Z AUTO 27007KT 10SM CLR 08/07 A3006 RMK AO2 SLP181 T00830067=
201706040553 METAR KCLM 040553Z AUTO 28006KT 10SM CLR 08/07 A3007 RMK AO2 SLP184 T00830072 10139 20083 50003=
201706040453 METAR KCLM 040453Z AUTO 27008KT 10SM CLR 10/07 A3008 RMK AO2 SLP186 T01000072=
201706040353 METAR KCLM 040353Z AUTO 29013KT 10SM BKN055 11/06 A3006 RMK AO2 SLP180 T01110061=
201706040253 METAR KCLM 040253Z AUTO 31008KT 10SM OVC048 13/06 A3006 RMK AO2 SLP180 T01280056 55005=
201706040153 METAR KCLM 040153Z AUTO 29008KT 10SM OVC048 13/06 A3006 RMK AO2 SLP180 T01280056=
201706040053 METAR KCLM 040053Z AUTO 31007KT 10SM OVC043 14/06 A3006 RMK AO2 SLP181 T01390061=
201706032353 METAR KCLM 032353Z AUTO 31006KT 10SM OVC039 14/07 A3008 RMK AO2 SLP186 T01390067 10139 20117 58007=
201706032253 METAR KCLM 032253Z AUTO 31007KT 10SM OVC038 13/07 A3009 RMK AO2 SLP190 T01280067=
201706032153 METAR KCLM 032153Z AUTO 29011KT 10SM OVC041 13/07 A3009 RMK AO2 SLP191 T01280067=
201706032053 METAR KCLM 032053Z AUTO 31007KT 10SM OVC042 13/07 A3010 RMK AO2 SLP193 T01280067 58001=
201706031953 METAR KCLM 031953Z AUTO 32007KT 10SM OVC040 13/07 A3010 RMK AO2 SLP195 T01280072=
201706031853 METAR KCLM 031853Z AUTO 30006KT 10SM OVC040 12/07 A3011 RMK AO2 SLP195 T01220072=
201706031753 METAR KCLM 031753Z AUTO VRB05KT 10SM OVC038 12/08 A3010 RMK AO2 SLP194 T01170083 10122 20083 53015=
201706031653 METAR KCLM 031653Z AUTO 32008KT 10SM OVC037 12/08 A3008 RMK AO2 SLP188 T01220078=
201706031553 METAR KCLM 031553Z AUTO 31009KT 10SM OVC036 12/07 A3007 RMK AO2 SLP183 T01170072=
201706031453 METAR KCLM 031453Z AUTO 29005KT 10SM OVC041 12/07 A3006 RMK AO2 SLP178 T01220072 51011=
201706031353 METAR KCLM 031353Z AUTO 29005KT 10SM OVC032 11/08 A3005 RMK AO2 SLP176 T01060083=
201706031253 METAR KCLM 031253Z AUTO 23004KT 10SM OVC032 10/08 A3004 RMK AO2 SLP171 T01000083=
201706031153 METAR KCLM 031153Z AUTO 00000KT 10SM BKN065 09/08 A3002 RMK AO2 SLP167 T00890083 10106 20089 53007=
201706031102 SPECI KCLM 031102Z AUTO 30004KT 10SM SCT023 10/08 A3002 RMK AO2 T01000083=
201706031053 METAR KCLM 031053Z AUTO 30006KT 10SM BKN023 10/09 A3001 RMK AO2 SLP163 T01000089=
201706030953 METAR KCLM 030953Z AUTO 28006KT 10SM BKN019 OVC070 11/09 A3000 RMK AO2 SLP160 T01060094=
201706030948 SPECI KCLM 030948Z AUTO 27005KT 10SM BKN019 BKN070 11/09 A3000 RMK AO2=
201706030853 METAR KCLM 030853Z AUTO 31003KT 10SM CLR 11/09 A3000 RMK AO2 SLP159 T01060094 53004=
201706030753 METAR KCLM 030753Z AUTO 27009KT 10SM CLR 11/09 A2999 RMK AO2 SLP158 T01060089 401720072=
201706030653 METAR KCLM 030653Z AUTO 29004KT 10SM CLR 10/09 A2999 RMK AO2 SLP155 T01000094=
201706030553 METAR KCLM 030553Z AUTO 28004KT 10SM CLR 09/09 A2999 RMK AO2 SLP155 T00940089 10172 20089 56014=
201706030453 METAR KCLM 030453Z AUTO 00000KT 10SM CLR 11/08 A3000 RMK AO2 SLP159 T01110083=
201706030353 METAR KCLM 030353Z AUTO 28007KT 10SM CLR 12/09 A3001 RMK AO2 SLP164 T01170089=
201706030253 METAR KCLM 030253Z AUTO 31007KT 10SM CLR 13/09 A3003 RMK AO2 SLP169 T01280089 58016=
201706030153 METAR KCLM 030153Z AUTO 33006KT 10SM SCT065 15/10 A3004 RMK AO2 SLP173 T01500100=
201706030053 METAR KCLM 030053Z AUTO 34005KT 10SM CLR 16/11 A3006 RMK AO2 SLP180 T01560106=
201706022353 METAR KCLM 022353Z AUTO 01005KT 10SM SCT070 17/10 A3007 RMK AO2 SLP185 T01670100 10172 20122 58015=
201706022253 METAR KCLM 022253Z AUTO VRB04KT 10SM FEW029 OVC037 16/11 A3009 RMK AO2 SLP191 T01560106=
201706022246 SPECI KCLM 022246Z AUTO 34004KT 10SM SCT029 OVC037 15/11 A3010 RMK AO2 T01500106=
201706022218 SPECI KCLM 022218Z AUTO 01004KT 10SM OVC029 14/10 A3010 RMK AO2 T01390100=
201706022153 METAR KCLM 022153Z AUTO VRB04KT 10SM OVC030 14/11 A3011 RMK AO2 SLP197 T01390106=
201706022053 METAR KCLM 022053Z AUTO 00000KT 10SM OVC030 14/11 A3012 RMK AO2 SLP200 T01390106 50005=
201706022045 SPECI KCLM 022045Z AUTO 01003KT 10SM OVC030 14/11 A3012 RMK AO2 T01390106=
201706021953 METAR KCLM 021953Z AUTO 34004KT 10SM OVC026 13/11 A3012 RMK AO2 SLP201 T01280106=
201706021853 METAR KCLM 021853Z AUTO 01005KT 10SM SCT016 OVC029 12/11 A3012 RMK AO2 SLP201 T01220106=
201706021806 SPECI KCLM 021806Z AUTO 35004KT 10SM SCT007 OVC018 13/11 A3011 RMK AO2 T01280106=
201706021753 METAR KCLM 021753Z AUTO 36003KT 10SM BKN006 OVC018 13/11 A3010 RMK AO2 CIG 004V010 SLP195 T01280111 10128 20072 51016=
201706021653 METAR KCLM 021653Z AUTO VRB03KT 10SM OVC009 12/11 A3009 RMK AO2 CIG 007V011 SLP191 T01220106=
201706021553 METAR KCLM 021553Z AUTO 32005KT 10SM OVC005 11/11 A3008 RMK AO2 SLP188 T01110111=
201706021458 SPECI KCLM 021458Z AUTO 30006KT 10SM BKN008 BKN019 OVC080 11/11 A3006 RMK AO2 CIG 006V012 T01110106=
201706021453 METAR KCLM 021453Z AUTO 30008KT 10SM SCT008 SCT019 BKN075 11/10 A3006 RMK AO2 SLP179 T01110100 53020=
201706021353 METAR KCLM 021353Z AUTO 26005KT 10SM BKN060 OVC070 11/10 A3004 RMK AO2 SLP173 T01060100=
201706021253 METAR KCLM 021253Z AUTO 00000KT 10SM OVC065 09/09 A3001 RMK AO2 SLP162 T00940089=
201706021153 METAR KCLM 021153Z AUTO 00000KT 10SM SCT070 07/07 A3000 RMK AO2 SLP159 60000 T00720072 10117 20072 52003=
201706021053 METAR KCLM 021053Z AUTO 00000KT 10SM BKN060 08/08 A3000 RMK AO2 SLP159 T00780078=
201706020953 METAR KCLM 020953Z AUTO 00000KT 10SM FEW021 BKN065 10/09 A2999 RMK AO2 SLP156 T01000089=
201706020853 METAR KCLM 020853Z AUTO 22003KT 10SM SCT085 BKN110 11/09 A2999 RMK AO2 RAB31E44 SLP156 P0000 60000 T01060094 53003=
201706020830 SPECI KCLM 020830Z AUTO 00000KT 10SM SCT022 OVC085 11/09 A2999 RMK AO2 T01110094=
201706020753 METAR KCLM 020753Z AUTO 26005KT 10SM OVC022 11/10 A2999 RMK AO2 SLP155 T01110100 401560106=
201706020653 METAR KCLM 020653Z AUTO 20003KT 10SM OVC020 11/10 A2998 RMK AO2 RAB33E47 SLP152 P0000 T01110100=
201706020641 SPECI KCLM 020641Z AUTO 22003KT 9SM -RA BKN020 OVC110 11/10 A2998 RMK AO2 RAB33 P0000 T01110100=
201706020614 SPECI KCLM 020614Z AUTO 23003KT 10SM SCT020 OVC100 12/10 A2998 RMK AO2 T01170100=
201706020553 METAR KCLM 020553Z AUTO 27003KT 10SM OVC020 11/10 A2998 RMK AO2 SLP152 60000 T01110100 10150 20111 51001=
201706020453 METAR KCLM 020453Z AUTO 27003KT 10SM OVC022 12/10 A2998 RMK AO2 SLP151 T01220100 TSNO=
201706020353 METAR KCLM 020353Z AUTO VRB03KT 10SM BKN023 BKN033 OVC110 12/09 A2998 RMK AO2 RAB42E48 SLP153 P0000 T01220094=
201706020253 METAR KCLM 020253Z AUTO 30006KT 10SM OVC025 13/09 A2997 RMK AO2 SLP151 T01280094 52004=
201706020153 METAR KCLM 020153Z AUTO 29006KT 10SM BKN026 BKN043 OVC110 13/09 A2997 RMK AO2 SLP149 T01330094=
201706020053 METAR KCLM 020053Z AUTO 30008KT 10SM BKN045 OVC055 14/09 A2997 RMK AO2 SLP149 T01390094=
201706012353 METAR KCLM 012353Z AUTO 28009KT 10SM FEW035 OVC047 15/11 A2996 RMK AO2 SLP146 T01500106 10156 20122 53007=
201706012253 METAR KCLM 012253Z AUTO 30009KT 10SM OVC035 15/11 A2995 RMK AO2 SLP143 T01500106=
201706012215 SPECI KCLM 012215Z AUTO 30010KT 10SM OVC031 14/11 A2995 RMK AO2 T01440106=
201706012153 METAR KCLM 012153Z AUTO 32005KT 10SM OVC028 14/11 A2994 RMK AO2 SLP140 T01440106=
201706012053 METAR KCLM 012053Z AUTO 31009KT 10SM BKN019 OVC025 14/11 A2994 RMK AO2 SLP139 T01390106 52007=
201706011953 METAR KCLM 011953Z AUTO 32007KT 10SM OVC015 13/11 A2993 RMK AO2 SLP137 T01330106=
201706011948 SPECI KCLM 011948Z AUTO 30007KT 10SM OVC015 14/11 A2993 RMK AO2=
201706011853 METAR KCLM 011853Z AUTO 32006KT 10SM OVC012 12/09 A2992 RMK AO2 SLP133 T01220094=
201706011832 SPECI KCLM 011832Z AUTO 30008KT 10SM BKN012 OVC027 13/11 A2992 RMK AO2 T01280106=
201706011753 METAR KCLM 011753Z AUTO 32006KT 10SM OVC029 12/11 A2991 RMK AO2 SLP129 T01220106 10128 20106 53004=
201706011731 SPECI KCLM 011731Z AUTO 30006KT 10SM FEW013 OVC028 13/11 A2991 RMK AO2 T01280106=
201706011653 METAR KCLM 011653Z AUTO 30004KT 10SM BKN013 OVC027 12/11 A2990 RMK AO2 SLP126 T01220106=
201706011635 SPECI KCLM 011635Z AUTO 29004KT 10SM FEW010 SCT014 OVC027 12/11 A2990 RMK AO2 T01170106=
201706011553 METAR KCLM 011553Z AUTO 30007KT 10SM FEW005 OVC012 11/11 A2990 RMK AO2 SLP124 T01110106=
201706011551 SPECI KCLM 011551Z AUTO 29008KT 10SM FEW005 OVC012 11/11 A2990 RMK AO2=
201706011453 METAR KCLM 011453Z AUTO 30007KT 4SM BR OVC002 11/11 A2989 RMK AO2 SLP122 T01060106 51003=
201706011443 SPECI KCLM 011443Z AUTO 31004KT 2 1/2SM BR OVC002 11/11 A2989 RMK AO2 T01060106=
201706011413 SPECI KCLM 011413Z AUTO 31004KT 4SM BR OVC002 11/11 A2989 RMK AO2 T01060106=
201706011353 METAR KCLM 011353Z AUTO 30007KT 2 1/2SM BR OVC003 11/11 A2988 RMK AO2 SLP121 T01060106=
201706011253 METAR KCLM 011253Z AUTO 30005KT 2SM BR OVC004 11/11 A2988 RMK AO2 CIG 002V009 SLP119 T01060106=
201706011247 SPECI KCLM 011247Z AUTO 29008KT 2 1/2SM BR BKN004 OVC009 11/11 A2988 RMK AO2=
201706011153 METAR KCLM 011153Z AUTO 31008KT 5SM BR OVC007 12/11 A2987 RMK AO2 CIG 004V010 SLP113 T01170111 10128 20111 53003=
201706011053 METAR KCLM 011053Z AUTO 30003KT 10SM BKN009 OVC013 12/12 A2986 RMK AO2 SLP110 T01220117=
201706011000 SPECI KCLM 011000Z AUTO 00000KT 10SM BKN012 OVC030 12/12 A2986 RMK AO2 T01220117=
201706010953 METAR KCLM 010953Z AUTO 00000KT 10SM SCT012 OVC030 12/12 A2986 RMK AO2 SLP110 T01170117=
201706010935 SPECI KCLM 010935Z AUTO 00000KT 10SM SCT015 OVC030 12/12 A2985 RMK AO2 T01170117=
201706010853 METAR KCLM 010853Z AUTO 19003KT 10SM BKN013 OVC028 11/11 A2985 RMK AO2 SLP109 T01110111 58002=
201706010814 SPECI KCLM 010814Z AUTO 00000KT 10SM SCT013 BKN028 11/11 A2985 RMK AO2 T01110111=
201706010753 METAR KCLM 010753Z AUTO 00000KT 10SM FEW013 FEW027 SCT065 11/11 A2985 RMK AO2 SLP109 T01110111 401440100=
201706010738 SPECI KCLM 010738Z AUTO 00000KT 10SM SCT027 SCT050 SCT110 12/11 A2985 RMK AO2 T01170111=
201706010729 SPECI KCLM 010729Z AUTO 00000KT 10SM BKN027 BKN055 BKN100 12/11 A2985 RMK AO2 T01170111=
201706010653 METAR KCLM 010653Z AUTO 00000KT 10SM SCT037 BKN060 BKN110 12/12 A2986 RMK AO2 SLP111 T01170117=
201706010600 SPECI KCLM 010600Z AUTO 23003KT 10SM SCT025 BKN060 BKN080 12/12 A2986 RMK AO2 T01220117=
201706010553 METAR KCLM 010553Z AUTO 22003KT 10SM BKN025 BKN075 12/12 A2986 RMK AO2 SLP111 60000 T01220117 10139 20111 53005=
201706010453 METAR KCLM 010453Z AUTO 00000KT 10SM OVC026 12/12 A2985 RMK AO2 SLP107 T01220117=
201706010442 SPECI KCLM 010442Z AUTO 26003KT 10SM BKN027 OVC080 12/11 A2985 RMK AO2 T01170111=
201706010353 METAR KCLM 010353Z AUTO 31003KT 7SM FEW065 SCT080 OVC095 11/11 A2984 RMK AO2 SLP105 T01110111=
201706010253 METAR KCLM 010253Z AUTO 00000KT 10SM BKN090 OVC100 12/12 A2984 RMK AO2 RAE03B31E49 SLP106 P0000 60000 T01220117 56007=
201706010153 METAR KCLM 010153Z AUTO 29003KT 9SM -RA FEW070 OVC090 13/11 A2984 RMK AO2 RAB40 SLP106 P0000 T01280106=
201706010053 METAR KCLM 010053Z AUTO 31005KT 10SM FEW050 OVC085 14/11 A2985 RMK AO2 RAB2359E28 SLP109 P0000 T01390111=

# No short TAF reports from KCLM in databse.

###################################
#  large TAF from KCLM
###################################
201706302320 TAF KCLM 302320Z 0100/0124 33008KT P6SM SCT015 FM010300 30014G20KT
                       P6SM SCT015 FM010700 30010KT P6SM BKN015
                       FM011800 30009KT P6SM SKC=
201706301720 TAF KCLM 301720Z 3018/0118 33008KT P6SM FEW200 FM010300 30014G22KT
                       P6SM SCT020 BKN200 FM010700 30010KT P6SM
                       BKN015=
201706301556 KCLM 301556Z 3016/0112 30005KT P6SM SCT005 FM301800 33008KT P6SM
                       BKN250 FM010200 30014G22KT P6SM SCT020 BKN200
                       FM010700 30010KT P6SM BKN015=
201706301120 TAF KCLM 301120Z 3012/0112 28004KT 1SM BR BKN002
                      TEMPO 3012/3016 1/4SM FG VV001 FM301700 30005KT
                       P6SM SCT005 FM301800 33008KT P6SM BKN250
                       FM010200 30014G22KT P6SM SCT020 BKN200 FM010700
                       30010KT P6SM BKN015=
201706301019 KCLM 301019Z 3010/0106 28005KT 2SM BR BKN002
                      TEMPO 3010/3014 1/4SM FG VV001 FM301600 30005KT
                       P6SM SCT005 FM301800 33008KT P6SM BKN250
                       FM010200 30014G22KT P6SM SCT020 BKN200=
201706300905 KCLM 300905Z 3009/0106 30005KT 5SM BR BKN005
                      TEMPO 3009/3013 3SM BR BKN003 FM301600 30005KT
                       P6SM SCT005 FM301800 33008KT P6SM BKN250
                       FM010200 30014G22KT P6SM SCT020 BKN200=
201706300520 TAF KCLM 300520Z 3006/0106 30004KT P6SM SCT250 FM301300 30005KT
                       P6SM SCT010 FM301800 33008KT P6SM BKN250
                       FM010200 30014G22KT P6SM SCT020 BKN200=
201706292320 TAF KCLM 292320Z 3000/3024 32008KT P6SM SKC FM300400 28007KT P6SM
                       SKC FM301300 30005KT P6SM BKN020 FM301800
                       33008KT P6SM SCT030=
201706291720 TAF KCLM 291720Z 2918/3018 VRB03KT P6SM SKC FM291900 26006KT P6SM
                       SCT030 FM292200 32008KT P6SM SKC FM300400
                       28007KT P6SM SKC FM301300 30005KT P6SM BKN020=
201706291120 TAF KCLM 291120Z 2912/3012 VRB03KT P6SM SKC
                      TEMPO 2914/2917 5SM BR SCT010 FM291900 26006KT
                       P6SM SCT030 FM292200 32008KT P6SM SKC=
201706290520 TAF KCLM 290520Z 2906/3006 25005KT P6SM SKC FM291100 28006KT P6SM
                       SCT010 FM291700 34006KT P6SM SCT040=
201706282320 TAF KCLM 282320Z 2900/2924 VRB05KT P6SM SKC FM291100 28006KT P6SM
                       BKN050 FM291700 34006KT P6SM SCT060 SCT250=
201706281720 TAF KCLM 281720Z 2818/2918 VRB05KT P6SM SKC FM281900 32008KT P6SM
                       SKC FM291100 27006KT P6SM BKN050=
201706281120 TAF KCLM 281120Z 2812/2912 28005KT P6SM SCT010
                      TEMPO 2813/2817 BKN010 FM281800 32008KT P6SM
                       SKC=
201706280520 TAF KCLM 280520Z 2806/2906 30007KT P6SM SKC FM281400 26006KT P6SM
                       SCT009
                      TEMPO 2814/2818 BKN009 FM281800 34008KT P6SM
                       SKC=
201706272337 TAF KCLM 272337Z 2800/2824 31006KT P6SM BKN250 FM280300 28008KT
                       P6SM SCT250 FM281400 26006KT P6SM SCT009
                       SCT250
                      TEMPO 2814/2818 BKN009 BKN250 FM281800 34008KT
                       P6SM SCT250=
201706272109 KCLM 272109Z 2721/2818 02007KT P6SM BKN250 FM280000 31007KT P6SM
                       SCT250 FM280300 28009KT P6SM SCT250 FM281400
                       26006KT P6SM SCT009
                      TEMPO 2814/2818 BKN009=
201706271738 TAF KCLM 271738Z 2718/2818 03005KT P6SM BKN013 BKN250 FM271900
                       35006KT P6SM SCT250 FM280000 31007KT P6SM
                       SCT250 FM280300 28009KT P6SM SCT250 FM281400
                       26006KT P6SM SCT009
                      TEMPO 2814/2818 BKN009=
201706271537 KCLM 271537Z 2716/2812 VRB05KT P6SM SCT015 BKN200
                      TEMPO 2716/2719 BKN015 BKN200 FM271900 33008KT
                       P6SM SCT200 FM280200 28010KT P6SM SCT200=
201706271535 KCLM 271535Z 2716/2812 VRB05KT P6SM SCT015 BKN200
                      TEMPO 2718/2719 BKN015 BKN200 FM271900 33008KT
                       P6SM SCT200 FM280200 28010KT P6SM SCT200=
201706271433 KCLM 271433Z 2715/2812 23005KT P6SM FEW020 BKN200 FM271800 33008KT
                       P6SM SCT200 FM280200 28010KT P6SM SCT200=
201706271120 TAF KCLM 271120Z 2712/2812 23007KT P6SM SCT020
                      TEMPO 2712/2715 BKN020 FM271500 23005KT P6SM
                       BKN020 FM272000 28008KT P6SM SCT040 SCT200
                       FM280000 28012KT P6SM SCT200 FM281000 28008KT
                       P6SM SCT020=
201706270520 TAF KCLM 270520Z 2706/2806 28007KT P6SM SKC
                      TEMPO 2709/2712 BKN018 FM271200 28006KT P6SM
                       OVC018 FM271800 33008KT P6SM BKN022 BKN200
                       FM272000 33008KT P6SM SCT200=
201706262320 TAF KCLM 262320Z 2700/2724 29015KT P6SM BKN200
                      TEMPO 2700/2704 29015G25KT FM270600 28009KT
                       P6SM FEW022 FM271100 28006KT P6SM OVC018
                       FM271800 33007KT P6SM BKN022 BKN200 FM272000
                       33009KT P6SM SCT200=
201706262105 KCLM 262105Z 2621/2718 31010KT P6SM SCT200
                      TEMPO 2621/2624 31013G23KT FM270000 29015KT
                       P6SM SCT200
                      TEMPO 2700/2704 29015G25KT FM270600 27011KT
                       P6SM FEW022 FM271100 26007KT P6SM OVC018=
201706261741 TAF KCLM 261741Z 2618/2718 31013KT P6SM FEW090 BKN200
                      TEMPO 2620/2624 31013G23KT FM270000 29015KT
                       P6SM SCT200
                      TEMPO 2700/2704 29015G25KT FM270600 27011KT
                       P6SM FEW022 FM271100 26007KT P6SM OVC018=
201706261414 KCLM 261414Z 2614/2712 31010KT P6SM VCFG SCT010 BKN200
                      TEMPO 2615/2618 BKN010 BKN200 FM261800 31016KT
                       P6SM SCT040 BKN200=
201706261120 TAF KCLM 261120Z 2612/2712 28012G20KT P6SM BKN008 BKN200
                      TEMPO 2612/2615 SCT010 BKN200 FM261500 31010KT
                       P6SM BKN015 BKN200 FM261800 31016KT P6SM
                       SCT040 BKN200=
201706261020 KCLM 261020Z 2610/2706 28012G20KT P6SM FEW015 BKN200 FM261200 28012G20KT
                       P6SM VCFG BKN008 BKN200 FM261500 31010KT
                       P6SM BKN015 BKN200 FM261800 31016KT P6SM
                       FEW022 FEW050 SCT200=
201706260520 TAF KCLM 260520Z 2606/2706 28012KT P6SM FEW015 BKN200 FM261000
                       28012KT P6SM VCFG BKN008 BKN200 FM261500
                       31010KT P6SM BKN015 BKN200 FM261800 31016KT
                       P6SM FEW022 FEW050 SCT200=
201706252342 TAF KCLM 252342Z 2600/2624 31009KT P6SM BKN250 FM260600 28015KT
                       P6SM FEW015 BKN250
                      TEMPO 2606/2610 28015G25KT FM261000 28012KT
                       P6SM VCFG BKN008 BKN200 FM261500 31010KT
                       P6SM BKN015 BKN200 FM261800 31016KT P6SM
                       FEW022 FEW050 SCT200=
201706251742 TAF KCLM 251742Z 2518/2618 04005KT P6SM BKN250 FM260000 31008KT
                       P6SM BKN250 FM260600 28015KT P6SM FEW015
                       SCT250
                      TEMPO 2606/2610 28015G25KT FM261000 28015KT
                       P6SM BKN009 BKN250 FM261500 31012KT P6SM
                       BKN009 BKN250=
201706251512 KCLM 251512Z 2515/2612 07006KT P6SM SCT250 FM251800 04005KT P6SM
                       SCT200 FM260000 29011KT P6SM BKN200=
201706251120 TAF KCLM 251120Z 2512/2612 23006KT P6SM SKC FM251800 06005KT P6SM
                       SCT200 FM260000 29011KT P6SM BKN200=
201706250536 TAF KCLM 250536Z 2506/2606 23006KT P6SM SKC FM251800 06005KT P6SM
                       SCT200 FM260000 30009KT P6SM BKN200=
201706242322 TAF KCLM 242322Z 2500/2524 VRB04KT P6SM SKC FM250400 23006KT P6SM
                       SKC FM251800 04005KT P6SM SKC=
201706241724 TAF KCLM 241724Z 2418/2518 08006KT P6SM SKC FM250100 VRB03KT P6SM
                       SKC FM250400 23006KT P6SM SKC=
201706241511 KCLM 241511Z 2415/2512 12006KT P6SM SKC FM241700 09007KT P6SM SKC
                       FM250400 23005KT P6SM SKC=
201706241120 TAF KCLM 241120Z 2412/2512 23005KT P6SM SKC FM241700 09007KT P6SM
                       SKC FM250400 23005KT P6SM SKC=
201706240528 TAF KCLM 240528Z 2406/2506 VRB03KT P6SM SKC FM241700 09007KT P6SM
                       SKC FM250400 VRB03KT P6SM SKC=
201706232324 TAF KCLM 232324Z 2400/2424 07005KT P6SM SKC FM240100 VRB03KT P6SM
                       SKC FM241700 09007KT P6SM SKC=
201706231730 TAF KCLM 231730Z 2318/2418 10008KT P6SM SKC FM232100 06005KT P6SM
                       SKC FM240100 VRB03KT P6SM SKC=
201706231120 TAF KCLM 231120Z 2312/2412 23005KT P6SM SKC FM231600 08008KT P6SM
                       SKC FM240500 24005KT P6SM SKC=
201706230530 TAF KCLM 230530Z 2306/2406 24004KT P6SM SKC FM231600 08008KT P6SM
                       SKC=
201706222320 TAF KCLM 222320Z 2300/2324 06007KT P6SM SKC FM230100 28005KT P6SM
                       SKC FM231100 VRB03KT P6SM SKC FM231600 08010KT
                       P6SM SKC=
201706221720 TAF KCLM 221720Z 2218/2318 06007KT P6SM SKC FM230000 28005KT P6SM
                       SKC FM230400 24004KT P6SM SKC FM231600 08010KT
                       P6SM SKC=
201706221120 TAF KCLM 221120Z 2212/2312 21004KT P6SM SKC FM221600 06007KT P6SM
                       SKC FM230400 24004KT P6SM SKC=
201706220527 TAF KCLM 220527Z 2206/2306 21004KT P6SM FEW030 FM221600 05008KT
                       P6SM SKC=
201706212339 TAF KCLM 212339Z 2200/2224 30012KT P6SM SKC FM220500 27007KT P6SM
                       SKC FM221600 05008KT P6SM SKC=
201706211720 TAF KCLM 211720Z 2118/2218 31011G22KT P6SM SKC FM220600 28007KT
                       P6SM SKC=
201706211551 KCLM 211551Z 2116/2212 31010G20KT P6SM SKC FM211800 31011G22KT
                       P6SM SCT250 FM220600 28007KT P6SM SKC=
201706211144 TAF KCLM 211144Z 2112/2212 27005KT P6SM SKC FM211800 33011KT P6SM
                       SCT250 FM220600 28007KT P6SM SKC=
201706210537 TAF KCLM 210537Z 2106/2206 28012KT P6SM SKC FM211200 29010KT P6SM
                       BKN010 FM211800 32011KT P6SM SCT250=
201706202320 TAF KCLM 202320Z 2100/2124 31016G24KT P6SM SKC FM210600 28012KT
                       P6SM SCT050 FM211200 29010KT P6SM BKN010
                       FM211800 32011KT P6SM SCT250=
201706202200 KCLM 202200Z 2022/2118 31016G27KT P6SM SCT020 SCT070 FM210600 28012KT
                       P6SM SCT050 FM211200 29010KT P6SM BKN010
                       OVC025=
201706201950 KCLM 201950Z 2020/2118 31010G20KT P6SM BKN010 BKN050 FM202200 30020G28KT
                       P6SM SCT050 FM210300 28012KT P6SM SCT050
                       FM211200 29010KT P6SM BKN010 OVC025=
201706201729 TAF KCLM 201729Z 2018/2118 30013G19KT P6SM OVC007 FM201900 30015G22KT
                       P6SM SCT015 SCT050 FM202300 30020G28KT P6SM
                       SCT050 FM210300 28012KT P6SM SCT050 FM211200
                       29010KT P6SM BKN010 OVC025=
201706201553 KCLM 201553Z 2016/2112 33006KT P6SM SCT009 OVC070
                      TEMPO 2016/2018 BKN009 OVC070 FM201800 30015G22KT
                       P6SM SCT020 SCT050 FM202300 30020G28KT P6SM
                       SCT050 FM210300 28012KT P6SM FEW070=
201706201150 TAF KCLM 201150Z 2012/2112 28008KT P6SM SCT050 OVC100
                      TEMPO 2013/2015 OVC007 FM201700 30015G22KT
                       P6SM SCT020 SCT050 FM202300 30020G28KT P6SM
                       SCT050 FM210300 28012KT P6SM FEW070=
201706200543 TAF KCLM 200543Z 2006/2106 28004KT P6SM SCT120 FM200700 28008KT
                       P6SM OVC035 FM201000 28008KT P6SM BKN010
                       OVC035
                      TEMPO 2012/2015 OVC007 FM201700 30015G22KT
                       P6SM SCT020 SCT050 FM202200 30020G28KT P6SM
                       SCT050=
201706192325 TAF KCLM 192325Z 2000/2024 00000KT P6SM FEW120 OVC200 FM200300
                       28008KT P6SM OVC070 FM200700 28008KT P6SM
                       OVC035 FM201000 28008KT P6SM BKN010 OVC035
                       TEMPO 2012/2015 OVC007 FM201700 30015G22KT
                       P6SM SCT020 SCT050 FM202200 30020G28KT P6SM
                       SCT050=
201706191730 TAF KCLM 191730Z 1918/2018 00000KT P6SM SCT008 BKN120 FM191900
                       30006KT P6SM BKN120 FM200100 28008KT P6SM
                       OVC070 FM200600 28008KT P6SM SCT015 OVC050
                       FM200900 28008KT P6SM BKN010 OVC035
                      PROB30 2012/2016 -SHRA=
201706191621 KCLM 191621Z 1916/2012 VRB03KT P6SM FEW006 BKN150 FM191900 35006KT
                       P6SM BKN120 FM200300 28008KT P6SM OVC100
                       FM200600 28008KT P6SM SCT040 OVC070 FM200900
                       28008KT P6SM BKN020 OVC035=
201706191424 KCLM 191424Z 1914/2012 13004KT 4SM BR OVC007 FM191800 VRB03KT P6SM
                       BKN010 FM191900 35006KT P6SM SCT250 FM200300
                       28008KT P6SM SCT100 OVC200 FM200600 28008KT
                       P6SM SCT040 BKN070 OVC150 FM200900 28008KT
                       P6SM BKN020 OVC035=
201706191132 TAF KCLM 191132Z 1912/2012 VRB03KT 4SM BR SCT003 OVC008
                      TEMPO 1912/1915 2SM BR BKN003 OVC008 FM191700
                       VRB03KT P6SM BKN010 FM191800 35006KT P6SM
                       SCT250 FM200300 28008KT P6SM SCT100 OVC200
                       FM200600 28008KT P6SM SCT040 BKN070 OVC150
                       FM200900 28008KT P6SM BKN020 OVC035=
201706190707 KCLM 190707Z 1907/2006 VRB03KT 3/4SM BR OVC002 FM191100 VRB03KT
                       4SM BR BKN003 FM191400 VRB03KT P6SM SCT250
                       FM191800 35006KT P6SM SCT250 FM200300 28008KT
                       P6SM SCT100 OVC200=
201706190538 TAF KCLM 190538Z 1906/2006 VRB03KT P6SM BKN008 OVC050 FM190900
                       VRB03KT P6SM SCT060 FM191800 35006KT P6SM
                       SCT250 FM200300 28008KT P6SM SCT100 OVC200=
201706182320 TAF KCLM 182320Z 1900/1924 VRB03KT P6SM FEW010 BKN070 FM190600
                       VRB03KT P6SM SCT060 FM191800 35006KT P6SM
                       FEW060 SCT250=
201706181720 TAF KCLM 181720Z 1818/1918 08004KT 4SM BR OVC004 FM182100 VRB03KT
                       P6SM BKN008 OVC015 FM190200 29003KT P6SM
                       SCT020 BKN050 OVC090 FM190500 28005KT P6SM
                       BKN060=
201706181337 KCLM 181337Z 1814/1912 VRB03KT P6SM SCT005 OVC050
                      TEMPO 1814/1817 2SM BR BKN005 FM190300 VRB03KT
                       P6SM SCT050 BKN100=
201706181134 TAF KCLM 181134Z 1812/1912 VRB03KT P6SM FEW035 OVC050 FM190300
                       VRB03KT P6SM SCT050 BKN100=
201706180540 TAF KCLM 180540Z 1806/1906 VRB03KT P6SM FEW035 OVC050 FM190300
                       VRB03KT P6SM SCT050 BKN100=
201706172321 TAF KCLM 172321Z 1800/1824 29003KT P6SM -RA FEW050 OVC090 FM180600
                       VRB03KT P6SM FEW035 OVC050=
201706171721 TAF KCLM 171721Z 1718/1818 01004KT P6SM SCT035 BKN150 FM180000
                       31006KT P6SM FEW050 OVC090 FM180600 VRB03KT
                       P6SM FEW035 OVC050=
201706171120 TAF KCLM 171120Z 1712/1812 27006KT P6SM SCT025 SCT250
                      TEMPO 1712/1714 BKN025 FM171600 VRB04KT P6SM
                       SCT035 SCT100 BKN150 FM172100 VRB04KT P6SM
                       SCT035 BKN080 OVC150 FM180300 VRB04KT P6SM
                       -RA BKN035 OVC060 FM180600 VRB04KT P6SM
                       -DZ OVC035=
201706170520 TAF KCLM 170520Z 1706/1806 30007KT P6SM SCT030 SCT100 BKN200
                      TEMPO 1706/1710 BKN030 FM171000 27006KT P6SM
                       OVC025 FM171600 VRB04KT P6SM SCT035 SCT100
                       BKN150 FM172100 VRB04KT P6SM SCT035 BKN080
                       OVC150 FM180200 VRB04KT P6SM -RA BKN035
                       OVC060=
201706170333 KCLM 170333Z 1704/1724 31008KT P6SM SCT030 SCT100 BKN200
                      TEMPO 1704/1706 OVC030 FM170600 27006KT P6SM
                       SCT030 SCT100 BKN200 FM171800 35005KT P6SM
                       SCT050 BKN120=
201706162326 TAF KCLM 162326Z 1700/1724 31008KT P6SM OVC018 FM170300 29010KT
                       P6SM SCT025 BKN100 FM170700 27005KT P6SM
                       SCT040 BKN200 FM171800 35005KT P6SM SCT050
                       BKN120=
201706162137 KCLM 162137Z 1622/1718 31008KT P6SM BKN015 BKN080 FM170000 30010G20KT
                       P6SM SCT020 BKN050 FM170700 27005KT P6SM
                       SCT040 BKN200=
201706161720 TAF KCLM 161720Z 1618/1718 34005KT P6SM BKN015 BKN080 FM162000
                       32008KT P6SM SCT020 BKN050 FM170000 30010G20KT
                       P6SM SCT050 FM170700 27005KT P6SM SCT040
                       BKN200=
201706161442 KCLM 161442Z 1615/1712 27005KT P6SM SCT010 BKN200 FM161600 26006KT
                       P6SM SCT025 BKN035 FM161800 29009KT P6SM
                       SCT035 BKN050 FM170000 30010G20KT P6SM SCT050=
201706161120 TAF KCLM 161120Z 1612/1712 26006KT P6SM SCT010 BKN025 FM161600
                       26006KT P6SM SCT025 BKN035 FM161800 29009KT
                       P6SM SCT035 BKN050 FM170000 30010G20KT P6SM
                       SCT050=
201706160529 TAF KCLM 160529Z 1606/1706 29005KT 6SM BR OVC008 FM161600 26007KT
                       P6SM BKN022 BKN035 FM161800 31009KT P6SM
                       SCT035 BKN050 FM170000 29012G22KT P6SM SCT050=
201706160423 KCLM 160423Z 1604/1624 29007KT P6SM VCSH SCT008 BKN013 OVC060
                      TEMPO 1604/1608 5SM BR SCT004 OVC008 FM160800
                       28008KT P6SM OVC013 FM161400 31008KT P6SM
                       BKN022 BKN035 FM161700 29006KT P6SM SCT035
                       BKN060=
201706160048 KCLM 160048Z 1601/1624 29006KT 5SM RA BR BKN008 OVC015 FM160200
                       29008KT 6SM -SHRA BKN025 OVC045 FM160600
                       28005KT P6SM VCSH OVC025 FM161800 31013G19KT
                       P6SM OVC035=
201706152323 TAF KCLM 152323Z 1600/1624 VRB03KT P6SM -RA FEW012 BKN060 OVC070
                       FM160100 27005KT 6SM -SHRA BKN025 OVC045
                       FM160600 28005KT P6SM VCSH OVC025 FM161800
                       31013G19KT P6SM OVC035=
201706151727 TAF KCLM 151727Z 1518/1618 34004KT P6SM -RA OVC080 FM151900 VRB03KT
                       5SM RA OVC015 FM160000 26004KT P6SM -SHRA
                       SCT020 OVC035 FM160500 28010G16KT P6SM VCSH
                       SCT020 BKN035=
201706151132 TAF KCLM 151132Z 1512/1612 12005KT P6SM -RA SCT030 OVC060 FM152000
                       12008KT 5SM -RA OVC020 FM152300 VRB04KT
                       P6SM -SHRA BKN025 OVC035 FM160300 28008KT
                       P6SM -SHRA SCT025 BKN040=
201706150924 KCLM 150924Z 1509/1606 VRB04KT P6SM OVC080 FM151100 10005KT P6SM
                       -RA SCT030 OVC060 FM151800 12008KT 5SM -RA
                       OVC020 FM152100 VRB04KT P6SM -RA BKN025
                       OVC035 FM160000 28005KT P6SM -SHRA BKN040=
201706150528 TAF KCLM 150528Z 1506/1606 VRB04KT P6SM BKN030 OVC060 FM151100
                       10005KT P6SM -RA SCT020 OVC030 FM151800
                       12008KT 5SM -RA OVC020 FM152100 VRB04KT
                       P6SM -RA BKN025 OVC035 FM160000 28005KT
                       P6SM -SHRA BKN040=
201706142323 TAF KCLM 142323Z 1500/1524 00000KT P6SM OVC060 FM151000 00000KT
                       P6SM -RA SCT025 OVC045 FM151800 00000KT
                       5SM -RA OVC019=
201706141729 TAF KCLM 141729Z 1418/1518 07007KT P6SM BKN060 FM150500 00000KT
                       P6SM OVC060 FM151000 00000KT P6SM -RA SCT025
                       OVC045=
201706141120 TAF KCLM 141120Z 1412/1512 26005KT P6SM SCT030 BKN060 FM141800
                       31007KT P6SM SCT040 BKN080 FM150600 VRB04KT
                       P6SM OVC080=
201706141003 KCLM 141003Z 1410/1506 26005KT P6SM SCT020 BKN060 FM141800 VRB04KT
                       P6SM BKN040 BKN060=
201706140520 TAF KCLM 140520Z 1406/1506 28008KT P6SM OVC030 FM141000 26005KT
                       P6SM SCT020 OVC030
                      TEMPO 1411/1415 OVC020 FM141800 VRB04KT P6SM
                       BKN040 BKN060=
201706132341 TAF KCLM 132341Z 1400/1424 31010G20KT P6SM OVC035 FM140300 29008KT
                       P6SM BKN060 FM140600 27007KT P6SM OVC040
                       FM141200 26004KT P6SM OVC030 FM141800 33006KT
                       P6SM BKN050=
201706131736 TAF KCLM 131736Z 1318/1418 31010G20KT P6SM BKN045 OVC060 FM140300
                       29010KT P6SM BKN060 FM140600 27007KT P6SM
                       OVC040 FM141200 26004KT P6SM OVC030=
201706131121 TAF KCLM 131121Z 1312/1412 27007KT P6SM BKN080 BKN120 FM131600
                       31006KT P6SM BKN080 FM140000 30010KT P6SM
                       BKN080=
201706130520 TAF KCLM 130520Z 1306/1406 29014G24KT P6SM BKN080 BKN120 FM130800
                       28013G22KT P6SM SCT025 OVC080 FM131200 27012KT
                       P6SM OVC025 FM131800 31006KT P6SM BKN030
                       OVC050 FM132100 30010KT P6SM BKN060=
201706122351 TAF KCLM 122351Z 1300/1324 31015G25KT P6SM FEW020 FM130700 27010KT
                       P6SM OVC020 FM131200 26008KT P6SM OVC025
                       FM131800 32010KT P6SM BKN030 OVC050=
201706121738 TAF KCLM 121738Z 1218/1318 31008KT P6SM FEW110 FM130000 31012KT
                       P6SM BKN035 FM130700 27008KT P6SM OVC025=
201706121120 TAF KCLM 121120Z 1212/1312 27005KT P6SM SCT015 BKN050
                      TEMPO 1212/1216 BKN012 FM122000 30006KT P6SM
                       SCT030 BKN050 FM130000 27010KT P6SM BKN030
                       FM130700 27006KT P6SM OVC025=
201706120532 TAF KCLM 120532Z 1206/1306 29006KT P6SM SCT200 FM121000 21005KT
                       P6SM SCT015
                      TEMPO 1212/1216 BKN012 FM122000 33006KT P6SM
                       SCT030 BKN050=
201706112320 TAF KCLM 112320Z 1200/1224 33008KT P6SM SCT060 FM120400 30012KT
                       P6SM SKC FM121000 21005KT P6SM SCT015
                      TEMPO 1212/1216 BKN012 FM122000 33006KT P6SM
                       SCT030 BKN050=
201706111720 TAF KCLM 111720Z 1118/1218 33005KT P6SM SCT040 FM112300 30012KT
                       P6SM SCT040 FM120900 00000KT P6SM SCT010
                       TEMPO 1212/1216 BKN010 FM121700 VRB04KT
                       P6SM SCT040=
201706111120 TAF KCLM 111120Z 1112/1212 26005KT P6SM SCT200 FM111800 31007KT
                       P6SM SCT040=
201706110520 TAF KCLM 110520Z 1106/1206 30007KT P6SM SCT060 SCT200 FM110900
                       VRB03KT P6SM SKC FM111800 31007KT P6SM SCT040=
201706102320 TAF KCLM 102320Z 1100/1124 31010KT P6SM SCT040 SCT200 FM110900
                       VRB03KT P6SM SKC FM111800 31007KT P6SM SCT040=
201706101720 TAF KCLM 101720Z 1018/1118 33007KT P6SM BKN050=
201706101123 TAF KCLM 101123Z 1012/1112 27006KT P6SM VCSH SCT040 BKN070
                      TEMPO 1012/1014 -SHRA FM101800 33007KT P6SM
                       SCT050 SCT070=
201706100717 KCLM 100717Z 1007/1106 27006KT P6SM VCSH FEW020 OVC060 FM100900
                       VRB04KT P6SM BKN040 FM101800 33007KT P6SM
                       SCT050 SCT070=
201706100532 TAF KCLM 100532Z 1006/1106 27006KT P6SM SCT040 SCT120 FM100900
                       VRB04KT P6SM BKN040 FM101800 33007KT P6SM
                       SCT050 SCT070=
201706092324 TAF KCLM 092324Z 1000/1024 33007KT P6SM VCSH BKN050 BKN090 FM100900
                       VRB04KT P6SM BKN040 FM101800 33007KT P6SM
                       BKN050 BKN090=
201706091720 TAF KCLM 091720Z 0918/1018 VRB04KT P6SM VCSH BKN050 FM100000 28010KT
                       P6SM BKN050 FM100900 28006KT P6SM BKN040
                       FM101700 30006KT P6SM SCT040=
201706091120 TAF KCLM 091120Z 0912/1012 28005KT P6SM OVC110 FM091800 VRB05KT
                       P6SM BKN060 BKN100 FM100000 30008KT P6SM
                       BKN040 BKN080=
201706090520 TAF KCLM 090520Z 0906/1006 28008KT P6SM FEW040 SCT080 FM090900
                       VRB03KT P6SM SCT040 BKN080 FM091800 35005KT
                       P6SM BKN060 BKN100=
201706082320 TAF KCLM 082320Z 0900/0924 29012G20KT P6SM FEW040 BKN060 BKN090
                       FM090300 28008KT P6SM SCT040 BKN080 FM090700
                       VRB03KT P6SM SCT050 BKN090 FM091800 35005KT
                       P6SM BKN060 BKN100=
201706081737 KCLM 081737Z 0818/0918 35003KT P6SM SCT004 BKN080
                      TEMPO 0818/0820 BKN004 OVC080 FM082000 30010KT
                       P6SM -SHRA BKN020 BKN070 FM082300 31012KT
                       P6SM BKN040 BKN080 FM090400 VRB04KT P6SM
                       SCT040 BKN080=
201706081720 TAF KCLM 081720Z 0818/0918 VRB03KT P6SM OVC004 FM082000 30010KT
                       P6SM -SHRA BKN020 BKN070 FM082300 31012KT
                       P6SM BKN040 BKN080 FM090400 VRB04KT P6SM
                       SCT040 BKN080=
201706081452 KCLM 081452Z 0815/0912 09003KT P6SM BKN004 OVC080 FM081900 30010KT
                       P6SM -SHRA BKN040 BKN070 FM082300 31012KT
                       P6SM BKN040 FM090400 VRB04KT P6SM BKN030=
201706081120 TAF KCLM 081120Z 0812/0912 VRB04KT P6SM -RA SCT050 SCT070 OVC100
                       FM081900 30010KT P6SM -SHRA BKN040 BKN070
                       FM082300 31012KT P6SM BKN040 FM090400 VRB04KT
                       P6SM BKN030=
201706080520 TAF KCLM 080520Z 0806/0906 29006KT P6SM FEW060 BKN100 FM081000
                       VRB03KT P6SM -RA OVC050 FM081500 VRB03KT
                       P6SM -RA OVC020 FM081900 30010KT P6SM -SHRA
                       BKN030 OVC060=
201706072320 TAF KCLM 072320Z 0800/0824 29008KT P6SM FEW060 BKN120 BKN250 FM080600
                       VRB03KT P6SM OVC070 FM081000 VRB03KT P6SM
                       -RA OVC050 FM081500 VRB03KT P6SM -RA OVC020
                       FM081900 30010KT P6SM -SHRA BKN030 OVC060=
201706071720 TAF KCLM 071720Z 0718/0818 33005KT P6SM FEW120 BKN250 FM080000
                       29008KT P6SM SCT070 BKN120 FM080600 VRB03KT
                       P6SM OVC070 FM081000 VRB03KT P6SM -RA OVC050
                       FM081500 VRB03KT P6SM -RA OVC020=
201706071120 TAF KCLM 071120Z 0712/0812 00000KT P6SM SKC FM072000 32006KT P6SM
                       BKN200 FM080000 29007KT P6SM BKN070 OVC150
                       FM080600 VRB03KT P6SM OVC050 FM081000 VRB03KT
                       P6SM -RA OVC050=
201706070520 TAF KCLM 070520Z 0706/0806 28005KT P6SM SKC FM070800 26005KT P6SM
                       BKN200 FM072000 32006KT P6SM BKN200 FM080000
                       29007KT P6SM BKN070 OVC150=
201706062320 TAF KCLM 062320Z 0700/0724 36005KT P6SM SCT250 FM070200 29008KT
                       P6SM BKN200 FM070800 26005KT P6SM BKN200
                       FM072000 35005KT P6SM BKN200=
201706061733 TAF KCLM 061733Z 0618/0718 06006KT P6SM SCT250 FM062000 01006KT
                       P6SM SCT250 FM070200 29008KT P6SM BKN200
                       FM070800 26005KT P6SM BKN200=
201706061120 TAF KCLM 061120Z 0612/0712 00000KT P6SM SKC FM061600 VRB04KT P6SM
                       SCT250 FM070200 29008KT P6SM BKN250 FM070800
                       26005KT P6SM BKN250=
201706060520 TAF KCLM 060520Z 0606/0706 28005KT P6SM SKC FM060700 25003KT P6SM
                       BKN200 FM061600 36005KT P6SM SCT250 FM070200
                       27006KT P6SM BKN250=
201706052320 TAF KCLM 052320Z 0600/0624 29005KT P6SM BKN250 FM060700 25003KT
                       P6SM BKN200 FM061600 36005KT P6SM SCT250=
201706051720 TAF KCLM 051720Z 0518/0618 36005KT P6SM FEW250 FM060100 29005KT
                       P6SM BKN200=
201706051120 TAF KCLM 051120Z 0512/0612 25007KT P6SM SKC FM051500 VRB04KT P6SM
                       SKC FM052000 34007KT P6SM SKC FM060100 29005KT
                       P6SM SCT180=
201706050520 TAF KCLM 050520Z 0506/0606 27008KT P6SM SCT250 FM050800 26006KT
                       P6SM SCT250 FM051500 VRB04KT P6SM SCT250
                       FM052000 34007KT P6SM SCT250 FM060100 29005KT
                       P6SM SCT250=
201706042320 TAF KCLM 042320Z 0500/0524 30012G22KT P6SM SCT250 FM050800 26006KT
                       P6SM SCT250 FM051500 VRB04KT P6SM SCT250
                       FM052000 34007KT P6SM SCT250=
201706041720 TAF KCLM 041720Z 0418/0518 33012KT P6SM SCT035 SCT050 SCT250 FM042200
                       30012G22KT P6SM SCT250 FM050800 26006KT
                       P6SM SCT250 FM051500 32005KT P6SM SCT250=
201706041120 TAF KCLM 041120Z 0412/0512 27009KT P6SM SCT060 FM041900 33012KT
                       P6SM SCT035 SCT050 SCT250 FM042200 30012G22KT
                       P6SM SCT250 FM050800 26006KT P6SM SCT250=
201706040520 TAF KCLM 040520Z 0406/0506 27008KT P6SM SCT050 FM040800 28010KT
                       P6SM BKN050 BKN200 FM041100 27009KT P6SM
                       BKN035 OVC050 FM041900 33012KT P6SM SCT035
                       SCT050 SCT250 FM042200 30012G22KT P6SM SCT250=
201706032320 TAF KCLM 032320Z 0400/0424 30009KT P6SM SCT035 SCT050 BKN200 FM040800
                       28010KT P6SM BKN050 BKN200 FM041100 27009KT
                       P6SM BKN030 OVC050 FM041900 33012KT P6SM
                       SCT035 SCT050 SCT250=
201706031720 TAF KCLM 031720Z 0318/0418 30008KT P6SM OVC035 FM031900 30009KT
                       P6SM SCT035 SCT050 BKN200 FM032200 29012G20KT
                       P6SM BKN200 FM040800 28010KT P6SM BKN050
                       BKN200 FM041100 27009KT P6SM BKN030 OVC050=
201706031314 KCLM 031314Z 0313/0412 23005KT P6SM OVC035 FM031400 23005KT P6SM
                       OVC028 FM031900 30009KT P6SM SCT035 SCT050
                       BKN200 FM032200 29012G20KT P6SM BKN200 FM040800
                       28010KT P6SM BKN050 BKN200 FM041100 27009KT
                       P6SM BKN030 OVC050=
201706031147 KCLM 031147Z 0312/0412 30005KT P6SM SCT022 BKN150
                      TEMPO 0312/0314 BKN022 OVC150 FM031400 30005KT
                       P6SM OVC022 FM031900 30009KT P6SM SCT050
                       FM032200 29012G20KT P6SM SCT200 FM040800
                       28010KT P6SM BKN050 FM041100 27009KT P6SM
                       BKN030 OVC050=
201706031120 TAF KCLM 031120Z 0312/0412 30006KT P6SM BKN023 BKN050 FM031900
                       30009KT P6SM SCT050 FM032200 29012G20KT
                       P6SM SCT200 FM040800 28010KT P6SM BKN050
                       FM041100 27009KT P6SM BKN030 OVC050=
201706030955 KCLM 030955Z 0310/0406 27005KT P6SM BKN019 BKN070 FM031900 30009KT
                       P6SM SCT050 FM032200 29012G20KT P6SM SCT200=
201706030526 TAF KCLM 030526Z 0306/0406 27004KT P6SM BKN200 FM031200 29008KT
                       P6SM SCT030 SCT050 BKN200 FM031900 30009KT
                       P6SM SCT050 FM032200 29012G20KT P6SM SCT200=
201706022323 TAF KCLM 022323Z 0300/0324 30006KT P6SM BKN040 FM030300 30012KT
                       P6SM SCT040 FM031200 29008KT P6SM BKN035
                       FM032000 31010KT P6SM SCT040=
201706021722 TAF KCLM 021722Z 0218/0318 VRB03KT P6SM BKN009 BKN040
                      TEMPO 0218/0220 SCT009 BKN040 FM022000 30006KT
                       P6SM BKN040 FM030300 30012KT P6SM SCT040
                       FM031200 29008KT P6SM BKN035=
201706021505 KCLM 021505Z 0215/0312 30006KT P6SM VCSH SCT008 SCT020 BKN070
                      TEMPO 0215/0218 BKN008 OVC020 FM021800 35004KT
                       P6SM OVC045 FM022100 30005KT P6SM SCT025=
201706021120 TAF KCLM 021120Z 0212/0312 00000KT P6SM VCSH BKN060 FM021600 34003KT
                       P6SM VCSH OVC035 FM021800 35004KT P6SM OVC045
                       FM022100 30005KT P6SM SCT025=
201706020520 TAF KCLM 020520Z 0206/0306 27003KT P6SM VCSH OVC022 FM021000 00000KT
                       P6SM VCSH OVC020 FM021300 VRB03KT P6SM OVC035
                       FM021800 33005KT P6SM OVC045 FM022100 31006KT
                       P6SM SCT025 BKN050=
201706020303 KCLM 020303Z 0203/0224 30006KT P6SM OVC025 FM020900 25003KT P6SM
                       -SHRA BKN020 OVC040 FM021800 32008KT P6SM
                       BKN050=
201706012332 TAF KCLM 012332Z 0200/0224 31006KT P6SM BKN040 BKN080 FM020900
                       25003KT P6SM -SHRA BKN020 OVC040 FM021800
                       32008KT P6SM BKN050=
201706011734 TAF KCLM 011734Z 0118/0218 31005KT P6SM VCSH BKN025 OVC045
                      TEMPO 0118/0120 BKN014 OVC025 FM012100 31010KT
                       P6SM SCT025 BKN045 FM020600 25003KT P6SM
                       VCSH OVC030 FM020800 VRB03KT P6SM -SHRA
                       BKN015 OVC025=
201706011308 KCLM 011308Z 0113/0212 31006KT 6SM BR VCSH OVC007
                      TEMPO 0113/0116 2SM -SHRA BR OVC004 FM011600
                       31007KT P6SM VCSH BKN012 OVC030 FM012100
                       31004KT P6SM SCT025 BKN045 FM020600 25003KT
                       P6SM OVC030 FM020800 00000KT P6SM OVC050=
201706011205 KCLM 011205Z 0112/0212 31007KT 6SM BR VCSH OVC007 FM011600 31007KT
                       P6SM VCSH BKN012 OVC030 FM012100 31004KT
                       P6SM SCT025 BKN045 FM020600 25003KT P6SM
                       OVC030 FM020800 00000KT P6SM OVC050=
201706011120 TAF KCLM 011120Z 0112/0212 30003KT P6SM VCSH BKN009 OVC013 FM011600
                       VRB03KT P6SM VCSH SCT012 BKN025 FM012100
                       31004KT P6SM SCT025 BKN045 FM020600 25003KT
                       P6SM OVC030 FM020800 00000KT P6SM OVC050=
201706010535 TAF KCLM 010535Z 0106/0206 00000KT P6SM VCSH OVC026 FM010900 VRB03KT
                       P6SM VCSH BKN015 OVC030 FM012000 31005KT
                       P6SM SCT025 BKN045=