##########################################################
# Query made at 02/16/2025 03:25:01 UTC
# Time interval: from 07/01/2017 00:00  to 07/31/2017 23:59  UTC
##########################################################

##########################################################
# KCLM, Port Angeles, William R. Fairchild International Airport (United States)
# WMO index: -----. WIGOS ID: Unknown
# Latitude 48-07-20N. Longitude 123-30-19W. Altitude 87 m.
##########################################################

###################################
#  METAR/SPECI from KCLM
###################################
201707312353 METAR KCLM 312353Z AUTO 36004KT 10SM CLR 21/12 A3022 RMK AO2 SLP233 T02110122 10261 20206 56014=
201707312253 METAR KCLM 312253Z AUTO VRB04KT 10SM CLR 24/12 A3023 RMK AO2 SLP235 T02440122=
201707312153 METAR KCLM 312153Z AUTO VRB05KT 10SM CLR 26/12 A3025 RMK AO2 SLP243 T02560117=
201707312053 METAR KCLM 312053Z AUTO 10005KT 10SM CLR 26/12 A3026 RMK AO2 SLP247 T02560117 58011=
201707311953 METAR KCLM 311953Z AUTO 09006KT 10SM CLR 23/12 A3028 RMK AO2 SLP251 T02330117=
201707311853 METAR KCLM 311853Z AUTO 10008KT 10SM CLR 22/12 A3029 RMK AO2 SLP257 T02170117=
201707311753 METAR KCLM 311753Z AUTO 08010KT 10SM CLR 21/11 A3029 RMK AO2 SLP258 T02110111 10217 20100 58001=
201707311653 METAR KCLM 311653Z AUTO 04005KT 10SM CLR 21/10 A3030 RMK AO2 SLP259 T02060100=
201707311553 METAR KCLM 311553Z AUTO VRB04KT 10SM CLR 17/09 A3031 RMK AO2 SLP264 T01670094=
201707311453 METAR KCLM 311453Z AUTO 00000KT 10SM CLR 16/10 A3030 RMK AO2 SLP260 T01610100 50004=
201707311353 METAR KCLM 311353Z AUTO 00000KT 10SM CLR 12/08 A3030 RMK AO2 SLP260 T01170078=
201707311253 METAR KCLM 311253Z AUTO 23003KT 10SM CLR 13/09 A3029 RMK AO2 SLP258 T01280089=
201707311153 METAR KCLM 311153Z AUTO 27006KT 10SM CLR 13/09 A3029 RMK AO2 SLP255 T01330094 10144 20122 51002=
201707311053 METAR KCLM 311053Z AUTO 24007KT 10SM CLR 14/09 A3028 RMK AO2 SLP255 T01390094=
201707310953 METAR KCLM 310953Z AUTO 26006KT 10SM CLR 13/09 A3029 RMK AO2 SLP256 T01280094=
201707310853 METAR KCLM 310853Z AUTO 28005KT 10SM CLR 13/09 A3028 RMK AO2 SLP253 T01330094 56004=
201707310753 METAR KCLM 310753Z AUTO 29008KT 10SM CLR 13/09 A3028 RMK AO2 SLP254 T01330089 402060106=
201707310653 METAR KCLM 310653Z AUTO 28008KT 10SM CLR 14/10 A3029 RMK AO2 SLP256 T01390100=
201707310553 METAR KCLM 310553Z AUTO 28007KT 10SM CLR 14/09 A3029 RMK AO2 SLP257 T01390094 10189 20139 50002=
201707310453 METAR KCLM 310453Z AUTO 28011KT 10SM CLR 14/09 A3030 RMK AO2 SLP259 T01440089=
201707310353 METAR KCLM 310353Z AUTO 28010KT 10SM CLR 15/09 A3029 RMK AO2 SLP257 T01500094=
201707310253 METAR KCLM 310253Z AUTO 28010G18KT 10SM CLR 17/10 A3028 RMK AO2 SLP255 T01670100 58002=
201707310153 METAR KCLM 310153Z AUTO 29012KT 10SM CLR 17/10 A3029 RMK AO2 SLP257 T01720100=
201707310053 METAR KCLM 310053Z AUTO 31015KT 10SM CLR 18/10 A3029 RMK AO2 SLP257 T01780100=
201707302353 METAR KCLM 302353Z AUTO 31014G21KT 10SM CLR 19/10 A3029 RMK AO2 SLP257 T01890100 10206 20172 56005=
201707302253 METAR KCLM 302253Z AUTO 31012G20KT 10SM CLR 19/10 A3029 RMK AO2 SLP257 T01940100=
201707302153 METAR KCLM 302153Z AUTO 31010G20KT 10SM CLR 20/10 A3030 RMK AO2 SLP260 T02000100=
201707302053 METAR KCLM 302053Z AUTO 31010G17KT 10SM CLR 20/10 A3030 RMK AO2 SLP262 T02000100 58001=
201707301953 METAR KCLM 301953Z AUTO 32013KT 10SM CLR 19/11 A3031 RMK AO2 SLP264 T01890106=
201707301924 SPECI KCLM 301924Z AUTO 31011G17KT 10SM FEW025 19/11 A3031 RMK AO2 T01890106=
201707301853 METAR KCLM 301853Z AUTO 33007KT 10SM OVC024 18/12 A3032 RMK AO2 SLP266 T01830122=
201707301753 METAR KCLM 301753Z AUTO 30007KT 10SM OVC021 18/12 A3031 RMK AO2 SLP263 T01830122 10183 20106 53005=
201707301653 METAR KCLM 301653Z AUTO 27012KT 10SM OVC019 18/13 A3029 RMK AO2 SLP257 T01780133=
201707301553 METAR KCLM 301553Z AUTO 28010KT 10SM SCT015 OVC021 16/14 A3030 RMK AO2 SLP259 T01610139=
201707301527 SPECI KCLM 301527Z AUTO 29008KT 10SM OVC015 16/14 A3029 RMK AO2 T01560139=
201707301453 METAR KCLM 301453Z AUTO 27008KT 10SM FEW005 OVC014 15/14 A3029 RMK AO2 SLP257 T01500139 51013=
201707301451 SPECI KCLM 301451Z AUTO 26008KT 10SM SCT005 OVC014 15/14 A3029 RMK AO2=
201707301437 SPECI KCLM 301437Z AUTO 28008KT 10SM BKN005 OVC012 14/14 A3029 RMK AO2 CIG 003V008 T01440144=
201707301353 METAR KCLM 301353Z AUTO 27006KT 10SM BKN004 OVC017 14/14 A3027 RMK AO2 CIG 004V008 SLP250 T01440139=
201707301336 SPECI KCLM 301336Z AUTO 27003KT 10SM SCT007 OVC017 13/13 A3026 RMK AO2 T01330133=
201707301319 SPECI KCLM 301319Z AUTO 27004KT 10SM BKN017 12/12 A3026 RMK AO2 T01220122=
201707301253 METAR KCLM 301253Z AUTO 25004KT 10SM FEW016 12/12 A3025 RMK AO2 SLP245 T01170117=
201707301153 METAR KCLM 301153Z AUTO 00000KT 10SM CLR 12/12 A3024 RMK AO2 SLP241 T01220117 10156 20117 53008=
201707301053 METAR KCLM 301053Z AUTO 25003KT 10SM CLR 13/13 A3023 RMK AO2 SLP236 T01330128=
201707300953 METAR KCLM 300953Z AUTO 25004KT 10SM CLR 14/14 A3022 RMK AO2 SLP232 T01440139=
201707300915 SPECI KCLM 300915Z AUTO 23005KT 10SM FEW009 14/13 A3022 RMK AO2 T01390133=
201707300853 METAR KCLM 300853Z AUTO 21003KT 10SM SCT010 14/14 A3022 RMK AO2 SLP232 T01390139 53007=
201707300831 SPECI KCLM 300831Z AUTO 28007KT 10SM FEW009 15/14 A3021 RMK AO2 T01500139=
201707300753 METAR KCLM 300753Z AUTO 26008KT 10SM CLR 16/14 A3021 RMK AO2 SLP230 T01560144 402220117=
201707300653 METAR KCLM 300653Z AUTO 25006KT 10SM CLR 14/14 A3020 RMK AO2 SLP226 T01440144=
201707300612 SPECI KCLM 300612Z AUTO 29015G19KT 10SM FEW004 15/14 A3019 RMK AO2 T01500144=
201707300553 METAR KCLM 300553Z AUTO 28013KT 10SM CLR 15/14 A3019 RMK AO2 SLP225 T01500144 10206 20150 53007=
201707300453 METAR KCLM 300453Z AUTO 29008KT 10SM CLR 16/14 A3018 RMK AO2 SLP221 T01610139=
201707300353 METAR KCLM 300353Z AUTO 28011KT 10SM CLR 17/14 A3018 RMK AO2 SLP218 T01720144=
201707300253 METAR KCLM 300253Z AUTO 30009KT 10SM CLR 18/14 A3017 RMK AO2 SLP217 T01830139 55000=
201707300153 METAR KCLM 300153Z AUTO 29015G19KT 10SM CLR 19/14 A3017 RMK AO2 SLP215 T01940144=
201707300053 METAR KCLM 300053Z AUTO 31011G17KT 10SM CLR 20/14 A3017 RMK AO2 SLP216 T02000139=
201707292353 METAR KCLM 292353Z AUTO 31010KT 10SM CLR 21/14 A3017 RMK AO2 SLP217 T02110139 10222 20167 58006=
201707292253 METAR KCLM 292253Z AUTO 29012KT 10SM CLR 22/13 A3018 RMK AO2 SLP219 T02170133=
201707292153 METAR KCLM 292153Z AUTO VRB06KT 10SM CLR 21/12 A3019 RMK AO2 SLP221 T02060117=
201707292053 METAR KCLM 292053Z AUTO 31011G17KT 10SM CLR 19/11 A3019 RMK AO2 SLP223 T01890111 53004=
201707291953 METAR KCLM 291953Z AUTO 32009KT 10SM CLR 19/11 A3018 RMK AO2 SLP221 T01890111=
201707291853 METAR KCLM 291853Z AUTO 30007KT 10SM CLR 18/12 A3018 RMK AO2 SLP220 T01830117=
201707291753 METAR KCLM 291753Z AUTO 01006KT 10SM CLR 17/11 A3018 RMK AO2 SLP219 T01670111 10178 20117 53006=
201707291653 METAR KCLM 291653Z AUTO 31008KT 10SM CLR 16/11 A3017 RMK AO2 SLP217 T01610106=
201707291553 METAR KCLM 291553Z AUTO 33006KT 10SM CLR 16/11 A3016 RMK AO2 SLP214 T01560106=
201707291453 METAR KCLM 291453Z AUTO 29007KT 10SM CLR 14/11 A3016 RMK AO2 SLP213 T01440106 53010=
201707291353 METAR KCLM 291353Z AUTO 26006KT 10SM CLR 13/10 A3014 RMK AO2 SLP206 T01280100=
201707291253 METAR KCLM 291253Z AUTO 26006KT 10SM CLR 12/09 A3013 RMK AO2 SLP202 T01170094=
201707291153 METAR KCLM 291153Z AUTO 28008KT 10SM CLR 12/09 A3013 RMK AO2 SLP202 T01220094 10133 20122 51007=
201707291053 METAR KCLM 291053Z AUTO 27008KT 10SM CLR 13/09 A3012 RMK AO2 SLP200 T01280094=
201707290953 METAR KCLM 290953Z AUTO 28009KT 10SM CLR 13/09 A3011 RMK AO2 SLP197 T01280094=
201707290853 METAR KCLM 290853Z AUTO 28010KT 10SM CLR 13/09 A3011 RMK AO2 SLP195 T01280094 58003=
201707290753 METAR KCLM 290753Z AUTO 29012KT 10SM CLR 13/09 A3011 RMK AO2 SLP197 T01330094 402000089=
201707290653 METAR KCLM 290653Z AUTO 29010KT 10SM CLR 13/09 A3011 RMK AO2 SLP197 T01330094=
201707290553 METAR KCLM 290553Z AUTO 28011KT 10SM CLR 13/10 A3011 RMK AO2 SLP197 T01330100 10189 20133 53002=
201707290453 METAR KCLM 290453Z AUTO 28010KT 10SM CLR 13/10 A3011 RMK AO2 SLP197 T01330100=
201707290353 METAR KCLM 290353Z AUTO 29011KT 10SM CLR 14/09 A3010 RMK AO2 SLP194 T01390094=
201707290253 METAR KCLM 290253Z AUTO 29013G19KT 10SM CLR 15/09 A3011 RMK AO2 SLP195 T01500094 53001=
201707290153 METAR KCLM 290153Z AUTO 29013G19KT 10SM CLR 17/11 A3010 RMK AO2 SLP193 T01670106=
201707290053 METAR KCLM 290053Z AUTO 31010KT 10SM CLR 17/12 A3010 RMK AO2 SLP193 T01720122=
201707282353 METAR KCLM 282353Z AUTO 31009KT 10SM CLR 18/12 A3011 RMK AO2 SLP194 T01830122 10200 20156 56007=
201707282253 METAR KCLM 282253Z AUTO 33007KT 10SM CLR 19/12 A3011 RMK AO2 SLP197 T01890122=
201707282153 METAR KCLM 282153Z AUTO 32007KT 10SM CLR 19/13 A3012 RMK AO2 SLP199 T01890128=
201707282053 METAR KCLM 282053Z AUTO 31009KT 10SM CLR 18/12 A3013 RMK AO2 SLP202 T01830122 58003=
201707281953 METAR KCLM 281953Z AUTO 31008KT 10SM CLR 17/12 A3013 RMK AO2 SLP203 T01720122=
201707281853 METAR KCLM 281853Z AUTO 32006KT 10SM CLR 16/12 A3014 RMK AO2 SLP205 T01610117=
201707281753 METAR KCLM 281753Z AUTO 32006KT 10SM CLR 16/12 A3014 RMK AO2 SLP205 T01560117 10156 20094 52004=
201707281653 METAR KCLM 281653Z AUTO 29006KT 10SM CLR 15/12 A3013 RMK AO2 SLP203 T01500117=
201707281553 METAR KCLM 281553Z AUTO 30009KT 10SM CLR 14/12 A3013 RMK AO2 SLP203 T01390117=
201707281453 METAR KCLM 281453Z AUTO 10SM CLR 13/11 A3013 RMK AO2 SLP201 T01330106 53003=
201707281353 METAR KCLM 281353Z AUTO 29006KT 10SM CLR 12/11 A3012 RMK AO2 SLP200 T01170106=
201707281253 METAR KCLM 281253Z AUTO 25005KT 10SM CLR 10/09 A3012 RMK AO2 SLP199 T01000094=
201707281153 METAR KCLM 281153Z AUTO 26006KT 10SM CLR 09/09 A3012 RMK AO2 SLP198 T00940089 10128 20089 53002=
201707281053 METAR KCLM 281053Z AUTO 23005KT 10SM CLR 10/09 A3011 RMK AO2 SLP196 T01000094=
201707280953 METAR KCLM 280953Z AUTO 25003KT 10SM CLR 11/10 A3012 RMK AO2 SLP198 T01060100=
201707280853 METAR KCLM 280853Z AUTO 26003KT 10SM CLR 11/09 A3011 RMK AO2 SLP196 T01060094 55000=
201707280753 METAR KCLM 280753Z AUTO 27007KT 10SM CLR 12/10 A3011 RMK AO2 SLP195 T01170100 401830117=
201707280653 METAR KCLM 280653Z AUTO 27008KT 10SM CLR 13/11 A3011 RMK AO2 SLP197 T01280106=
201707280553 METAR KCLM 280553Z AUTO 27010KT 10SM CLR 12/11 A3011 RMK AO2 SLP197 T01220111 10178 20122 57004=
201707280453 METAR KCLM 280453Z AUTO 28009KT 10SM CLR 13/11 A3012 RMK AO2 SLP199 T01280111=
201707280353 METAR KCLM 280353Z AUTO 29008KT 10SM CLR 13/11 A3012 RMK AO2 SLP198 T01330106=
201707280253 METAR KCLM 280253Z AUTO 29010KT 10SM CLR 16/11 A3012 RMK AO2 SLP201 T01560106 58006=
201707280153 METAR KCLM 280153Z AUTO 31010KT 10SM CLR 16/11 A3013 RMK AO2 SLP202 T01610106=
201707280053 METAR KCLM 280053Z AUTO 31014G21KT 10SM CLR 17/10 A3014 RMK AO2 SLP207 T01670100=
201707272353 METAR KCLM 272353Z AUTO 31013G19KT 10SM CLR 18/10 A3014 RMK AO2 SLP206 T01780100 10183 20156 58009=
201707272253 METAR KCLM 272253Z AUTO 31013G21KT 10SM CLR 18/10 A3016 RMK AO2 SLP212 T01780100=
201707272153 METAR KCLM 272153Z AUTO 31012G22KT 10SM CLR 18/11 A3017 RMK AO2 SLP215 T01780106=
201707272053 METAR KCLM 272053Z AUTO 31015G21KT 10SM CLR 18/11 A3017 RMK AO2 SLP216 T01780111 50000=
201707271953 METAR KCLM 271953Z AUTO 30012G19KT 10SM CLR 18/11 A3017 RMK AO2 SLP215 T01780111=
201707271932 SPECI KCLM 271932Z AUTO 31013G18KT 10SM SCT025 17/11 A3017 RMK AO2 T01720111=
201707271853 METAR KCLM 271853Z AUTO 32011KT 10SM OVC024 16/11 A3017 RMK AO2 SLP218 T01610111=
201707271753 METAR KCLM 271753Z AUTO 32010G17KT 10SM OVC022 15/11 A3017 RMK AO2 SLP216 T01500111 10161 20122 51009=
201707271653 METAR KCLM 271653Z AUTO 31012KT 10SM OVC020 16/11 A3016 RMK AO2 SLP214 T01560111=
201707271553 METAR KCLM 271553Z AUTO 30010KT 10SM BKN017 15/12 A3015 RMK AO2 SLP210 T01500117=
201707271541 SPECI KCLM 271541Z AUTO 31011KT 10SM BKN017 15/11 A3015 RMK AO2 T01500111=
201707271453 METAR KCLM 271453Z AUTO 29011KT 10SM SCT019 14/12 A3014 RMK AO2 SLP207 T01440117 51003=
201707271435 SPECI KCLM 271435Z AUTO 29011KT 10SM SCT019 14/12 A3014 RMK AO2 T01440117=
201707271353 METAR KCLM 271353Z AUTO 29006KT 10SM BKN021 13/12 A3014 RMK AO2 SLP206 T01330117=
201707271350 SPECI KCLM 271350Z AUTO 29007KT 10SM BKN021 13/12 A3014 RMK AO2=
201707271305 SPECI KCLM 271305Z AUTO 22004KT 10SM SCT020 12/11 A3014 RMK AO2 T01220111=
201707271253 METAR KCLM 271253Z AUTO 25004KT 10SM BKN019 13/11 A3013 RMK AO2 SLP203 T01280111=
201707271246 SPECI KCLM 271246Z AUTO 26004KT 10SM BKN019 13/12 A3013 RMK AO2 T01280117=
201707271153 METAR KCLM 271153Z AUTO 29004KT 10SM CLR 13/11 A3011 RMK AO2 SLP196 T01280111 10133 20122 53006=
201707271053 METAR KCLM 271053Z AUTO 28008KT 10SM CLR 13/11 A3009 RMK AO2 SLP190 T01280111=
201707270953 METAR KCLM 270953Z AUTO 28010KT 10SM CLR 13/12 A3009 RMK AO2 SLP189 T01330117=
201707270853 METAR KCLM 270853Z AUTO 28012KT 10SM FEW013 13/12 A3009 RMK AO2 SLP190 T01330117 53005=
201707270753 METAR KCLM 270753Z AUTO 28012KT 10SM CLR 13/11 A3008 RMK AO2 SLP187 T01280111 402110122=
201707270653 METAR KCLM 270653Z AUTO 29010KT 10SM CLR 13/11 A3008 RMK AO2 SLP187 T01280111=
201707270553 METAR KCLM 270553Z AUTO 29012G19KT 10SM CLR 13/12 A3008 RMK AO2 SLP185 T01330117 10183 20133 53002=
201707270453 METAR KCLM 270453Z AUTO 29009G19KT 10SM CLR 13/12 A3007 RMK AO2 SLP184 T01330117=
201707270353 METAR KCLM 270353Z AUTO 29010KT 10SM CLR 14/12 A3007 RMK AO2 SLP181 T01390122=
201707270253 METAR KCLM 270253Z AUTO 29010KT 10SM CLR 14/12 A3007 RMK AO2 SLP183 T01440122 56006=
201707270153 METAR KCLM 270153Z AUTO 30010G15KT 10SM CLR 17/13 A3007 RMK AO2 SLP184 T01670128=
201707270053 METAR KCLM 270053Z AUTO 32010KT 10SM CLR 18/13 A3008 RMK AO2 SLP185 T01830133=
201707262353 METAR KCLM 262353Z AUTO 32011KT 10SM CLR 18/13 A3009 RMK AO2 SLP189 T01830133 10211 20161 56002=
201707262253 METAR KCLM 262253Z AUTO 31012G18KT 10SM CLR 18/13 A3009 RMK AO2 SLP191 T01830133=
201707262153 METAR KCLM 262153Z AUTO 31012G18KT 10SM CLR 21/14 A3009 RMK AO2 SLP188 T02060139=
201707262053 METAR KCLM 262053Z AUTO 32010KT 10SM CLR 19/13 A3009 RMK AO2 SLP191 T01940133 58004=
201707261953 METAR KCLM 261953Z AUTO 33007KT 280V360 10SM CLR 18/13 A3010 RMK AO2 SLP193 T01830133=
201707261853 METAR KCLM 261853Z AUTO 32012KT 10SM SCT012 18/13 A3011 RMK AO2 SLP194 T01780133=
201707261753 METAR KCLM 261753Z AUTO 31011G15KT 10SM CLR 16/13 A3011 RMK AO2 SLP195 T01610128 10167 20122 51004=
201707261653 METAR KCLM 261653Z AUTO 30008KT 280V350 10SM CLR 17/13 A3010 RMK AO2 SLP192 T01670128=
201707261553 METAR KCLM 261553Z AUTO 29008KT 10SM FEW009 15/13 A3010 RMK AO2 SLP194 T01500128=
201707261516 SPECI KCLM 261516Z AUTO 31004KT 10SM FEW007 14/13 A3010 RMK AO2 T01440128=
201707261453 METAR KCLM 261453Z AUTO 30007KT 10SM BKN006 14/13 A3009 RMK AO2 SLP191 T01390128 53009=
201707261353 METAR KCLM 261353Z AUTO 29008KT 10SM OVC005 13/12 A3008 RMK AO2 SLP187 T01280122=
201707261253 METAR KCLM 261253Z AUTO 29009KT 10SM OVC005 12/12 A3007 RMK AO2 SLP183 T01220122=
201707261217 SPECI KCLM 261217Z AUTO 29010KT 10SM OVC005 12/12 A3007 RMK AO2 T01220122=
201707261153 METAR KCLM 261153Z AUTO 29009KT 10SM OVC004 12/12 A3007 RMK AO2 SLP181 T01220122 10133 20122 53005=
201707261053 METAR KCLM 261053Z AUTO 31011KT 10SM OVC004 12/12 A3006 RMK AO2 SLP177 T01220122=
201707260953 METAR KCLM 260953Z AUTO 28010KT 10SM OVC004 13/13 A3005 RMK AO2 SLP176 T01280128=
201707260853 METAR KCLM 260853Z AUTO 30013G19KT 9SM OVC004 12/12 A3005 RMK AO2 SLP176 T01220122 50004=
201707260753 METAR KCLM 260753Z AUTO 30009G17KT 10SM BKN004 12/12 A3005 RMK AO2 SLP176 T01220122 402280089=
201707260734 SPECI KCLM 260734Z AUTO 30010KT 10SM FEW004 12/12 A3005 RMK AO2 T01220122=
201707260653 METAR KCLM 260653Z AUTO 29012KT 10SM CLR 13/12 A3004 RMK AO2 SLP173 T01280122=
201707260553 METAR KCLM 260553Z AUTO 28012KT 10SM CLR 13/12 A3004 RMK AO2 SLP171 T01330122 10217 20133 51006=
201707260453 METAR KCLM 260453Z AUTO 28008KT 10SM CLR 14/12 A3003 RMK AO2 SLP170 T01390122=
201707260353 METAR KCLM 260353Z AUTO 29009KT 10SM CLR 15/12 A3003 RMK AO2 SLP167 T01500117=
201707260253 METAR KCLM 260253Z AUTO 29011KT 10SM CLR 17/12 A3002 RMK AO2 SLP166 T01720117 55003=
201707260153 METAR KCLM 260153Z AUTO 32006KT 10SM CLR 19/13 A3002 RMK AO2 SLP164 T01940128=
201707260053 METAR KCLM 260053Z AUTO 31008KT 10SM CLR 21/13 A3002 RMK AO2 SLP166 T02110128=
201707252353 METAR KCLM 252353Z AUTO 34006KT 10SM CLR 21/13 A3003 RMK AO2 SLP169 T02110128 10228 20194 58007=
201707252253 METAR KCLM 252253Z AUTO 31007KT 10SM CLR 21/12 A3004 RMK AO2 SLP173 T02060122=
201707252153 METAR KCLM 252153Z AUTO 36004KT 10SM CLR 22/12 A3005 RMK AO2 SLP174 T02170122=
201707252053 METAR KCLM 252053Z AUTO 01004KT 10SM CLR 22/11 A3005 RMK AO2 SLP177 T02220106 58004=
201707251953 METAR KCLM 251953Z AUTO VRB04KT 10SM CLR 21/12 A3006 RMK AO2 SLP179 T02110117=
201707251853 METAR KCLM 251853Z AUTO VRB04KT 10SM CLR 21/11 A3006 RMK AO2 SLP179 T02110111=
201707251753 METAR KCLM 251753Z AUTO 01005KT 10SM CLR 19/12 A3007 RMK AO2 SLP181 T01940117 10200 20089 51006=
201707251653 METAR KCLM 251653Z AUTO 36006KT 10SM CLR 17/12 A3006 RMK AO2 SLP179 T01720122=
201707251553 METAR KCLM 251553Z AUTO 00000KT 10SM CLR 18/13 A3006 RMK AO2 SLP176 T01830128=
201707251453 METAR KCLM 251453Z AUTO 00000KT 10SM CLR 16/12 A3005 RMK AO2 SLP174 T01610122 51011=
201707251353 METAR KCLM 251353Z AUTO 00000KT 10SM CLR 12/11 A3004 RMK AO2 SLP172 T01220106=
201707251253 METAR KCLM 251253Z AUTO 00000KT 10SM CLR 09/08 A3003 RMK AO2 SLP170 T00890083=
201707251153 METAR KCLM 251153Z AUTO 00000KT 10SM CLR 10/09 A3001 RMK AO2 SLP164 T01000089 10156 20100 51006=
201707251053 METAR KCLM 251053Z AUTO 17003KT 10SM CLR 11/09 A3001 RMK AO2 SLP161 T01110094=
201707250953 METAR KCLM 250953Z AUTO 00000KT 10SM CLR 11/09 A3001 RMK AO2 SLP160 T01060094=
201707250853 METAR KCLM 250853Z AUTO 00000KT 10SM CLR 12/10 A3000 RMK AO2 SLP157 T01220100 53002=
201707250753 METAR KCLM 250753Z AUTO 00000KT 10SM CLR 12/10 A3000 RMK AO2 SLP157 T01170100 402560089=
201707250653 METAR KCLM 250653Z AUTO VRB03KT 10SM CLR 14/11 A2999 RMK AO2 SLP155 T01440106=
201707250553 METAR KCLM 250553Z AUTO 25006KT 10SM CLR 15/11 A2999 RMK AO2 SLP155 T01500106 10233 20144 51004=
201707250453 METAR KCLM 250453Z AUTO 26005KT 10SM CLR 16/11 A2999 RMK AO2 SLP154 T01610111=
201707250353 METAR KCLM 250353Z AUTO 28006KT 10SM CLR 17/11 A2999 RMK AO2 SLP153 T01720111=
201707250253 METAR KCLM 250253Z AUTO 29008KT 10SM CLR 19/11 A2998 RMK AO2 SLP152 T01890106 57002=
201707250153 METAR KCLM 250153Z AUTO 30006KT 10SM CLR 19/11 A2998 RMK AO2 SLP152 T01890111=
201707250053 METAR KCLM 250053Z AUTO 29006KT 10SM CLR 19/11 A2999 RMK AO2 SLP155 T01890111=
201707242353 METAR KCLM 242353Z AUTO 35005KT 10SM CLR 23/11 A2999 RMK AO2 SLP154 T02330106 10256 20206 56015=
201707242253 METAR KCLM 242253Z AUTO 01004KT 10SM CLR 24/11 A3000 RMK AO2 SLP160 T02390106=
201707242153 METAR KCLM 242153Z AUTO 03006KT 10SM CLR 24/11 A3001 RMK AO2 SLP163 T02440106=
201707242053 METAR KCLM 242053Z AUTO VRB06KT 10SM CLR 24/11 A3003 RMK AO2 SLP168 T02390106 58014=
201707241953 METAR KCLM 241953Z AUTO 10007KT 10SM CLR 23/10 A3005 RMK AO2 SLP175 T02280100=
201707241853 METAR KCLM 241853Z AUTO 09007KT 050V130 10SM CLR 22/09 A3006 RMK AO2 SLP180 T02170094=
201707241753 METAR KCLM 241753Z AUTO 10012KT 10SM CLR 21/09 A3007 RMK AO2 SLP183 T02060094 10211 20089 50002=
201707241653 METAR KCLM 241653Z AUTO 10009KT 10SM CLR 20/09 A3007 RMK AO2 SLP183 T02000089=
201707241553 METAR KCLM 241553Z AUTO 08007KT 10SM CLR 20/09 A3007 RMK AO2 SLP181 T02000094=
201707241453 METAR KCLM 241453Z AUTO 00000KT 10SM CLR 17/11 A3007 RMK AO2 SLP181 T01720106 51004=
201707241353 METAR KCLM 241353Z AUTO 24006KT 10SM CLR 13/10 A3006 RMK AO2 SLP180 T01330100=
201707241253 METAR KCLM 241253Z AUTO 23007KT 10SM CLR 11/09 A3006 RMK AO2 SLP177 T01110094=
201707241153 METAR KCLM 241153Z AUTO 00000KT 10SM CLR 09/09 A3005 RMK AO2 SLP177 T00940094 10139 20094 55000=
201707241053 METAR KCLM 241053Z AUTO 00000KT 10SM CLR 10/09 A3005 RMK AO2 SLP175 T01000089=
201707240953 METAR KCLM 240953Z AUTO 00000KT 10SM CLR 11/09 A3005 RMK AO2 SLP176 T01060094=
201707240853 METAR KCLM 240853Z AUTO 22005KT 10SM CLR 12/11 A3005 RMK AO2 SLP177 T01220106 50000=
201707240753 METAR KCLM 240753Z AUTO 23005KT 10SM CLR 13/11 A3006 RMK AO2 SLP179 T01330111 401940122=
201707240653 METAR KCLM 240653Z AUTO 27005KT 10SM CLR 14/12 A3006 RMK AO2 SLP178 T01390117=
201707240553 METAR KCLM 240553Z AUTO 26003KT 10SM CLR 13/11 A3005 RMK AO2 SLP177 T01330111 10194 20122 56004=
201707240453 METAR KCLM 240453Z AUTO 27004KT 10SM CLR 14/11 A3006 RMK AO2 SLP178 T01440111=
201707240353 METAR KCLM 240353Z AUTO 27004KT 10SM CLR 15/11 A3006 RMK AO2 SLP179 T01500111=
201707240253 METAR KCLM 240253Z AUTO 29005KT 10SM CLR 16/11 A3007 RMK AO2 SLP181 T01610111 55004=
201707240153 METAR KCLM 240153Z AUTO 30008KT 10SM CLR 17/11 A3006 RMK AO2 SLP180 T01720111=
201707240053 METAR KCLM 240053Z AUTO 29007KT 10SM CLR 18/11 A3007 RMK AO2 SLP183 T01780111=
201707232353 METAR KCLM 232353Z AUTO 31008KT 10SM CLR 18/11 A3008 RMK AO2 SLP185 T01830111 10194 20161 58008=
201707232253 METAR KCLM 232253Z AUTO 32008G17KT 10SM CLR 19/11 A3010 RMK AO2 SLP192 T01890111=
201707232153 METAR KCLM 232153Z AUTO 32007KT 10SM CLR 19/11 A3010 RMK AO2 SLP192 T01890111=
201707232053 METAR KCLM 232053Z AUTO 32008KT 10SM CLR 18/11 A3010 RMK AO2 SLP194 T01780111 56009=
201707231953 METAR KCLM 231953Z AUTO 31010KT 10SM CLR 18/11 A3011 RMK AO2 SLP197 T01780111=
201707231853 METAR KCLM 231853Z AUTO 30011G16KT 10SM FEW020 17/11 A3012 RMK AO2 SLP199 T01720111=
201707231846 SPECI KCLM 231846Z AUTO 30011KT 10SM SCT020 18/11 A3012 RMK AO2 T01780111=
201707231753 METAR KCLM 231753Z AUTO 31012G19KT 10SM OVC020 16/11 A3013 RMK AO2 SLP203 T01610106 10161 20144 51002=
201707231653 METAR KCLM 231653Z AUTO 31007KT 10SM OVC020 16/11 A3013 RMK AO2 SLP203 T01560111=
201707231553 METAR KCLM 231553Z AUTO 30008KT 10SM OVC021 16/12 A3013 RMK AO2 SLP204 T01560117=
201707231453 METAR KCLM 231453Z AUTO 31008KT 10SM OVC020 15/12 A3012 RMK AO2 SLP201 T01500117 53004=
201707231353 METAR KCLM 231353Z AUTO 29008KT 10SM OVC016 15/12 A3012 RMK AO2 SLP198 T01500122=
201707231253 METAR KCLM 231253Z AUTO 30007KT 10SM OVC019 14/13 A3012 RMK AO2 SLP198 T01440128=
201707231153 METAR KCLM 231153Z AUTO 28009KT 10SM OVC015 15/13 A3011 RMK AO2 SLP197 T01500128 10150 20144 56005=
201707231053 METAR KCLM 231053Z AUTO 29008KT 10SM OVC014 15/13 A3012 RMK AO2 SLP198 T01500133=
201707230953 METAR KCLM 230953Z AUTO 28008KT 10SM OVC014 15/13 A3012 RMK AO2 SLP198 T01500133=
201707230908 SPECI KCLM 230908Z AUTO 27009KT 10SM SCT008 OVC013 14/14 A3012 RMK AO2 T01440139=
201707230853 METAR KCLM 230853Z AUTO 27006KT 10SM BKN008 OVC015 14/14 A3013 RMK AO2 CIG 005V011 SLP202 T01440139 58007=
201707230753 METAR KCLM 230753Z AUTO 29005KT 10SM OVC005 14/14 A3014 RMK AO2 SLP206 T01440144 402110144=
201707230712 SPECI KCLM 230712Z AUTO 29007KT 7SM OVC005 15/14 A3014 RMK AO2 T01500144=
201707230653 METAR KCLM 230653Z AUTO 29007KT 9SM BKN004 OVC013 15/14 A3015 RMK AO2 SLP208 T01500144=
201707230643 SPECI KCLM 230643Z AUTO 30006KT 8SM BKN004 OVC013 15/14 A3015 RMK AO2 T01500144=
201707230617 SPECI KCLM 230617Z AUTO 31004KT 10SM SCT007 OVC014 15/15 A3015 RMK AO2 T01500150=
201707230553 METAR KCLM 230553Z AUTO 00000KT 10SM BKN007 OVC014 15/15 A3015 RMK AO2 CIG 004V011 SLP209 T01500150 10211 20150 50001=
201707230510 SPECI KCLM 230510Z AUTO 29007KT 5SM BR BKN006 OVC017 16/16 A3016 RMK AO2 T01610156=
201707230501 SPECI KCLM 230501Z AUTO 28006KT 9SM SCT008 OVC017 16/16 A3016 RMK AO2 T01610156=
201707230453 METAR KCLM 230453Z AUTO 28005KT 10SM OVC017 16/16 A3016 RMK AO2 SLP212 T01610156=
201707230438 SPECI KCLM 230438Z AUTO 27007KT 10SM FEW007 OVC015 16/16 A3016 RMK AO2 T01610161=
201707230423 SPECI KCLM 230423Z AUTO 29007KT 5SM BR SCT006 OVC013 16/16 A3016 RMK AO2 T01610161=
201707230353 METAR KCLM 230353Z AUTO 29009KT 8SM BKN007 BKN016 OVC021 17/16 A3015 RMK AO2 CIG 006V010 SLP209 T01670161=
201707230341 SPECI KCLM 230341Z AUTO 28006KT 10SM SCT007 BKN020 OVC030 17/16 A3015 RMK AO2 T01720161=
201707230253 METAR KCLM 230253Z AUTO 29006KT 10SM FEW060 17/15 A3015 RMK AO2 SLP208 T01720150 56008=
201707230153 METAR KCLM 230153Z AUTO 30006KT 10SM FEW030 19/16 A3015 RMK AO2 SLP211 T01890156=
201707230140 SPECI KCLM 230140Z AUTO 30009KT 10SM FEW019 BKN030 19/15 A3015 RMK AO2 T01940150=
201707230115 SPECI KCLM 230115Z AUTO 32007KT 290V350 10SM BKN020 20/16 A3016 RMK AO2 T02000156=
201707230053 METAR KCLM 230053Z AUTO 31006KT 10SM CLR 20/16 A3016 RMK AO2 SLP213 T02000161=
201707222353 METAR KCLM 222353Z AUTO 31007KT 10SM OVC035 19/15 A3017 RMK AO2 SLP217 T01890150 10206 20167 58011=
201707222253 METAR KCLM 222253Z AUTO 30007KT 10SM BKN038 BKN048 BKN070 19/16 A3018 RMK AO2 SLP221 T01890156=
201707222153 METAR KCLM 222153Z AUTO 34005KT 10SM OVC070 21/14 A3020 RMK AO2 SLP224 T02060144=
201707222053 METAR KCLM 222053Z AUTO 36006KT 10SM OVC070 19/13 A3020 RMK AO2 SLP227 T01940128 50003=
201707221953 METAR KCLM 221953Z AUTO 36004KT 10SM OVC070 18/13 A3021 RMK AO2 SLP230 T01780128=
201707221853 METAR KCLM 221853Z AUTO 35006KT 10SM SCT070 OVC085 18/13 A3020 RMK AO2 SLP227 T01780133=
201707221753 METAR KCLM 221753Z AUTO VRB05KT 10SM FEW060 BKN090 17/13 A3020 RMK AO2 SLP225 T01720133 10178 20144 50002=
201707221653 METAR KCLM 221653Z AUTO 02004KT 10SM FEW070 OVC090 17/13 A3020 RMK AO2 SLP226 T01720133=
201707221553 METAR KCLM 221553Z AUTO 00000KT 10SM OVC055 15/14 A3020 RMK AO2 SLP226 T01500139=
201707221453 METAR KCLM 221453Z AUTO 00000KT 10SM FEW050 OVC070 14/14 A3019 RMK AO2 SLP223 T01440139 53008=
201707221353 METAR KCLM 221353Z AUTO 00000KT 10SM OVC060 16/14 A3017 RMK AO2 SLP218 T01560139=
201707221253 METAR KCLM 221253Z AUTO 00000KT 10SM OVC055 14/14 A3017 RMK AO2 SLP216 T01440139=
201707221153 METAR KCLM 221153Z AUTO 00000KT 10SM OVC050 14/14 A3017 RMK AO2 RAE15B39E47 SLP215 P0000 60000 T01440139 10156 20144 53008=
201707221053 METAR KCLM 221053Z AUTO 00000KT 10SM -RA OVC050 14/13 A3015 RMK AO2 RAB50 SLP210 P0000 T01440128=
201707220953 METAR KCLM 220953Z AUTO 30003KT 10SM OVC050 15/13 A3015 RMK AO2 SLP209 T01500133=
201707220853 METAR KCLM 220853Z AUTO 00000KT 10SM OVC050 16/13 A3014 RMK AO2 SLP207 T01560128 58001=
201707220753 METAR KCLM 220753Z AUTO 00000KT 10SM OVC055 15/12 A3014 RMK AO2 SLP207 T01500122 401890117=
201707220653 METAR KCLM 220653Z AUTO 00000KT 10SM BKN075 BKN085 OVC100 16/12 A3015 RMK AO2 SLP209 T01560122=
201707220553 METAR KCLM 220553Z AUTO 28003KT 10SM OVC060 16/12 A3014 RMK AO2 SLP208 T01560122 10172 20150 56002=
201707220453 METAR KCLM 220453Z AUTO 00000KT 10SM BKN070 OVC085 15/12 A3015 RMK AO2 SLP208 T01500122=
201707220353 METAR KCLM 220353Z AUTO 00000KT 10SM BKN060 BKN075 BKN120 16/12 A3014 RMK AO2 SLP208 T01610117=
201707220253 METAR KCLM 220253Z AUTO 35003KT 10SM OVC060 17/12 A3015 RMK AO2 SLP209 T01670117 56006=
201707220153 METAR KCLM 220153Z AUTO 32004KT 10SM OVC060 17/11 A3016 RMK AO2 SLP212 T01670111=
201707220053 METAR KCLM 220053Z AUTO VRB03KT 10SM OVC080 17/11 A3016 RMK AO2 SLP213 T01670111=
201707212353 METAR KCLM 212353Z AUTO 00000KT 10SM BKN080 OVC090 17/12 A3017 RMK AO2 RAB00E23 SLP216 P0000 60000 T01670117 10189 20156 50000=
201707212253 METAR KCLM 212253Z AUTO 34004KT 10SM OVC080 17/11 A3017 RMK AO2 SLP217 T01670111=
201707212153 METAR KCLM 212153Z AUTO 35006KT 10SM BKN080 OVC110 18/10 A3017 RMK AO2 RAE05 SLP216 P0000 T01830100=
201707212053 METAR KCLM 212053Z AUTO VRB03KT 10SM -RA FEW055 FEW070 OVC090 18/11 A3017 RMK AO2 RAB53 SLP215 P0000 60000 T01780106 51000=
201707211953 METAR KCLM 211953Z AUTO 34004KT 10SM OVC090 18/10 A3017 RMK AO2 SLP216 T01780100=
201707211853 METAR KCLM 211853Z AUTO 00000KT 10SM OVC090 17/12 A3017 RMK AO2 SLP216 T01670122=
201707211753 METAR KCLM 211753Z AUTO 01003KT 10SM OVC100 16/12 A3017 RMK AO2 SLP215 T01610117 10161 20128 53008=
201707211653 METAR KCLM 211653Z AUTO 00000KT 10SM OVC110 16/12 A3015 RMK AO2 SLP210 T01560117=
201707211553 METAR KCLM 211553Z AUTO 34003KT 10SM BKN120 16/12 A3015 RMK AO2 SLP208 T01560117=
201707211453 METAR KCLM 211453Z AUTO 00000KT 10SM BKN120 14/12 A3014 RMK AO2 SLP207 T01440117 51005=
201707211353 METAR KCLM 211353Z AUTO 23003KT 10SM CLR 13/11 A3014 RMK AO2 SLP206 T01330106=
201707211253 METAR KCLM 211253Z AUTO 26007KT 10SM CLR 13/11 A3013 RMK AO2 SLP202 T01330106=
201707211153 METAR KCLM 211153Z AUTO 26005KT 10SM CLR 12/11 A3013 RMK AO2 SLP201 T01220111 10144 20111 58005=
201707211053 METAR KCLM 211053Z AUTO 28006KT 10SM BKN033 12/12 A3013 RMK AO2 SLP204 T01220117=
201707210953 METAR KCLM 210953Z AUTO 32003KT 10SM OVC033 13/12 A3014 RMK AO2 SLP205 T01330122=
201707210853 METAR KCLM 210853Z AUTO 29005KT 10SM CLR 12/12 A3014 RMK AO2 SLP206 T01220117 55002=
201707210753 METAR KCLM 210753Z AUTO 30004KT 10SM CLR 12/12 A3014 RMK AO2 SLP205 T01170117 401830111=
201707210653 METAR KCLM 210653Z AUTO 00000KT 10SM CLR 12/11 A3014 RMK AO2 SLP206 T01170111=
201707210553 METAR KCLM 210553Z AUTO 24004KT 10SM CLR 14/12 A3015 RMK AO2 SLP208 T01390122 10167 20139 57000=
201707210501 SPECI KCLM 210501Z AUTO 27005KT 10SM SCT023 14/12 A3015 RMK AO2 T01440122=
201707210453 METAR KCLM 210453Z AUTO 27008KT 10SM BKN023 14/12 A3015 RMK AO2 SLP209 T01440122=
201707210430 SPECI KCLM 210430Z AUTO 28005KT 10SM BKN025 14/12 A3015 RMK AO2 T01440122=
201707210403 SPECI KCLM 210403Z AUTO 29009KT 10SM SCT027 BKN060 15/12 A3014 RMK AO2 T01500122=
201707210353 METAR KCLM 210353Z AUTO 28007KT 10SM BKN026 BKN060 16/12 A3014 RMK AO2 SLP208 T01560117=
201707210253 METAR KCLM 210253Z AUTO 29007KT 10SM BKN027 OVC060 17/12 A3015 RMK AO2 SLP208 T01670122 55003=
201707210153 METAR KCLM 210153Z AUTO 31006KT 10SM BKN046 OVC055 16/12 A3015 RMK AO2 SLP208 T01610122=
201707210053 METAR KCLM 210053Z AUTO 30005KT 10SM OVC041 17/12 A3015 RMK AO2 SLP209 T01670122=
201707202353 METAR KCLM 202353Z AUTO 28005KT 10SM OVC037 17/13 A3016 RMK AO2 SLP212 T01670128 10178 20161 58003=
201707202253 METAR KCLM 202253Z AUTO 31007KT 10SM OVC036 16/13 A3016 RMK AO2 SLP213 T01610128=
201707202153 METAR KCLM 202153Z AUTO 29007KT 10SM SCT011 OVC044 16/13 A3016 RMK AO2 SLP214 T01610133=
201707202124 SPECI KCLM 202124Z AUTO 26007KT 7SM SCT013 SCT027 OVC047 17/13 A3017 RMK AO2 T01670133=
201707202118 SPECI KCLM 202118Z AUTO 28007KT 3SM HZ BKN012 BKN021 OVC047 17/13 A3017 RMK AO2 T01670133=
201707202053 METAR KCLM 202053Z AUTO 30009KT 10SM SCT015 BKN028 OVC050 17/13 A3017 RMK AO2 SLP215 T01670128 51017=
201707202047 SPECI KCLM 202047Z AUTO 30009KT 10SM SCT015 BKN040 OVC050 17/13 A3016 RMK AO2=
201707202032 SPECI KCLM 202032Z AUTO 31007G14KT 10SM OVC014 17/13 A3016 RMK AO2 T01720128=
201707202013 SPECI KCLM 202013Z AUTO 31007KT 280V350 10SM BKN015 OVC048 17/13 A3016 RMK AO2 T01720128=
201707202003 SPECI KCLM 202003Z AUTO 31010KT 10SM SCT017 OVC046 17/13 A3016 RMK AO2 T01720128=
201707201953 METAR KCLM 201953Z AUTO 32008KT 10SM BKN017 OVC046 17/13 A3016 RMK AO2 SLP212 T01670128=
201707201853 METAR KCLM 201853Z AUTO 32009G15KT 10SM SCT029 BKN035 OVC043 17/13 A3014 RMK AO2 SLP208 T01670128=
201707201753 METAR KCLM 201753Z AUTO 33007KT 10SM FEW024 17/13 A3012 RMK AO2 SLP198 60000 T01720133 10183 20122 51012=
201707201653 METAR KCLM 201653Z AUTO VRB06KT 10SM OVC075 17/12 A3011 RMK AO2 SLP194 T01720122=
201707201553 METAR KCLM 201553Z AUTO 02004KT 10SM FEW050 BKN070 18/13 A3009 RMK AO2 SLP190 T01780128=
201707201523 SPECI KCLM 201523Z AUTO 00000KT 10SM SCT026 BKN055 BKN070 17/13 A3009 RMK AO2 T01670128=
201707201453 METAR KCLM 201453Z AUTO 00000KT 10SM BKN029 OVC049 16/13 A3008 RMK AO2 SLP186 60000 T01560128 53010=
201707201353 METAR KCLM 201353Z AUTO 30005KT 10SM FEW035 FEW045 OVC060 14/13 A3007 RMK AO2 RAB42E52 SLP183 P0000 T01390128=
201707201330 SPECI KCLM 201330Z AUTO 00000KT 10SM BKN033 OVC065 14/13 A3006 RMK AO2 T01440128=
201707201253 METAR KCLM 201253Z AUTO 00000KT 10SM OVC026 13/13 A3006 RMK AO2 SLP179 T01330128=
201707201153 METAR KCLM 201153Z AUTO 17003KT 10SM SCT023 BKN028 BKN048 12/12 A3005 RMK AO2 SLP176 T01220117 10150 20117 53004=
201707201053 METAR KCLM 201053Z AUTO 22003KT 10SM BKN090 12/12 A3004 RMK AO2 SLP171 T01170117=
201707200953 METAR KCLM 200953Z AUTO 22003KT 10SM CLR 12/12 A3003 RMK AO2 SLP170 T01220117=
201707200853 METAR KCLM 200853Z AUTO 00000KT 10SM FEW014 FEW095 14/13 A3004 RMK AO2 SLP172 T01440128 52003=
201707200753 METAR KCLM 200753Z AUTO 24006KT 10SM OVC095 14/13 A3004 RMK AO2 SLP171 T01440128 402110083=
201707200653 METAR KCLM 200653Z AUTO 28005KT 10SM BKN095 14/12 A3003 RMK AO2 SLP170 T01440122=
201707200553 METAR KCLM 200553Z AUTO 29008KT 10SM OVC070 15/13 A3003 RMK AO2 SLP169 60000 T01500128 10189 20144 53002=
201707200453 METAR KCLM 200453Z AUTO 30007KT 10SM FEW090 14/12 A3002 RMK AO2 SLP167 T01440122=
201707200353 METAR KCLM 200353Z AUTO 28009KT 10SM OVC060 16/12 A3002 RMK AO2 SLP166 T01560122=
201707200253 METAR KCLM 200253Z AUTO 29009KT 10SM FEW055 BKN070 OVC110 16/12 A3002 RMK AO2 RAB0158E31 SLP166 P0000 60000 T01610122 56007=
201707200153 METAR KCLM 200153Z AUTO 27012KT 10SM OVC070 17/12 A3003 RMK AO2 SLP167 T01670122=
201707200053 METAR KCLM 200053Z AUTO 30012G17KT 10SM SCT065 SCT095 18/12 A3003 RMK AO2 SLP168 T01780117=
201707192353 METAR KCLM 192353Z AUTO 31011KT 10SM SCT100 19/12 A3005 RMK AO2 SLP174 T01890117 10211 20183 56012=
201707192253 METAR KCLM 192253Z AUTO 30009KT 10SM FEW070 19/12 A3005 RMK AO2 SLP177 T01890117=
201707192153 METAR KCLM 192153Z AUTO 30012KT 10SM CLR 20/12 A3007 RMK AO2 SLP181 T02000117=
201707192053 METAR KCLM 192053Z AUTO 32008KT 290V350 10SM CLR 19/11 A3008 RMK AO2 SLP186 T01940111 58009=
201707191953 METAR KCLM 191953Z AUTO 32010KT 10SM CLR 19/12 A3009 RMK AO2 SLP188 T01940117=
201707191853 METAR KCLM 191853Z AUTO 32008KT 10SM CLR 19/12 A3010 RMK AO2 SLP193 T01890117=
201707191753 METAR KCLM 191753Z AUTO 30007KT 10SM CLR 18/11 A3011 RMK AO2 SLP195 T01830111 10183 20083 58003=
201707191653 METAR KCLM 191653Z AUTO 31006KT 10SM CLR 17/11 A3011 RMK AO2 SLP197 T01720106=
201707191553 METAR KCLM 191553Z AUTO 32004KT 10SM CLR 16/09 A3012 RMK AO2 SLP199 T01610089=
201707191453 METAR KCLM 191453Z AUTO 00000KT 10SM CLR 14/10 A3012 RMK AO2 SLP199 T01440100 51008=
201707191353 METAR KCLM 191353Z AUTO 00000KT 10SM CLR 11/10 A3011 RMK AO2 SLP196 T01110100=
201707191253 METAR KCLM 191253Z AUTO 24006KT 10SM CLR 09/09 A3011 RMK AO2 SLP194 T00890089=
201707191153 METAR KCLM 191153Z AUTO 21003KT 10SM CLR 09/08 A3009 RMK AO2 SLP190 T00940083 10128 20089 51007=
201707191053 METAR KCLM 191053Z AUTO 25004KT 10SM CLR 11/09 A3009 RMK AO2 SLP187 T01060094=
201707190953 METAR KCLM 190953Z AUTO 29009KT 10SM CLR 12/10 A3008 RMK AO2 SLP187 T01170100=
201707190853 METAR KCLM 190853Z AUTO 28008KT 10SM CLR 12/11 A3007 RMK AO2 SLP183 T01220106 50004=
201707190753 METAR KCLM 190753Z AUTO 28010KT 10SM CLR 12/11 A3008 RMK AO2 SLP184 T01220106 402110106=
201707190653 METAR KCLM 190653Z AUTO 28009KT 10SM CLR 13/11 A3007 RMK AO2 SLP181 T01280111=
201707190553 METAR KCLM 190553Z AUTO 29010KT 10SM CLR 13/12 A3006 RMK AO2 SLP179 T01280117 10206 20128 53007=
201707190453 METAR KCLM 190453Z AUTO 28012G16KT 10SM CLR 13/12 A3005 RMK AO2 SLP177 T01330117=
201707190353 METAR KCLM 190353Z AUTO 28010G18KT 10SM CLR 14/11 A3004 RMK AO2 SLP172 T01440111=
201707190253 METAR KCLM 190253Z AUTO 28009G17KT 10SM CLR 17/11 A3004 RMK AO2 SLP172 T01670106 53002=
201707190153 METAR KCLM 190153Z AUTO 30008G17KT 10SM CLR 18/09 A3003 RMK AO2 SLP168 T01830089=
201707190053 METAR KCLM 190053Z AUTO 31009G17KT 10SM CLR 19/08 A3003 RMK AO2 SLP169 T01890083=
201707182353 METAR KCLM 182353Z AUTO 32010KT 10SM CLR 21/06 A3003 RMK AO2 SLP170 T02060061 10211 20172 56004=
201707182253 METAR KCLM 182253Z AUTO 30012G16KT 10SM CLR 20/08 A3004 RMK AO2 SLP171 T02000083=
201707182153 METAR KCLM 182153Z AUTO VRB06KT 10SM CLR 21/08 A3004 RMK AO2 SLP171 T02110083=
201707182053 METAR KCLM 182053Z AUTO 31011KT 10SM CLR 20/09 A3005 RMK AO2 SLP174 T02000089 58003=
201707181953 METAR KCLM 181953Z AUTO 30007KT 10SM CLR 20/09 A3005 RMK AO2 SLP176 T02000094=
201707181853 METAR KCLM 181853Z AUTO 29007KT 10SM CLR 18/11 A3006 RMK AO2 SLP177 T01780111=
201707181753 METAR KCLM 181753Z AUTO 36005KT 10SM CLR 17/12 A3005 RMK AO2 SLP177 T01720122 10172 20106 58000=
201707181653 METAR KCLM 181653Z AUTO 30005KT 10SM CLR 16/12 A3006 RMK AO2 SLP178 T01560117=
201707181553 METAR KCLM 181553Z AUTO 31005KT 10SM CLR 13/11 A3006 RMK AO2 SLP180 T01330111=
201707181453 METAR KCLM 181453Z AUTO 33005KT 10SM CLR 13/11 A3006 RMK AO2 SLP178 T01280106 53007=
201707181353 METAR KCLM 181353Z AUTO 28006KT 10SM CLR 13/09 A3005 RMK AO2 SLP175 T01280089=
201707181253 METAR KCLM 181253Z AUTO 29005KT 10SM CLR 11/08 A3004 RMK AO2 SLP173 T01110083=
201707181153 METAR KCLM 181153Z AUTO 28006KT 10SM CLR 11/08 A3004 RMK AO2 SLP171 T01110078 10144 20111 55000=
201707181053 METAR KCLM 181053Z AUTO 31006KT 10SM CLR 12/08 A3003 RMK AO2 SLP170 T01220083=
201707180853 METAR KCLM 180853Z AUTO 27006KT 10SM CLR 12/09 A3004 RMK AO2 SLP171 T01220089 58005=
201707180753 METAR KCLM 180753Z AUTO 27006KT 10SM CLR 14/09 A3004 RMK AO2 SLP171 T01390089 402220072=
201707180653 METAR KCLM 180653Z AUTO 27007KT 10SM CLR 14/09 A3005 RMK AO2 SLP175 T01390094=
201707180553 METAR KCLM 180553Z AUTO 29006KT 10SM CLR 13/09 A3005 RMK AO2 SLP176 T01330094 10206 20128 58001=
201707180453 METAR KCLM 180453Z AUTO 29006KT 10SM CLR 15/09 A3006 RMK AO2 SLP178 T01500089=
201707180353 METAR KCLM 180353Z AUTO 27007KT 10SM CLR 16/09 A3005 RMK AO2 SLP176 T01560089=
201707180253 METAR KCLM 180253Z AUTO 28008KT 10SM CLR 17/09 A3005 RMK AO2 SLP177 T01720089 56004=
201707180153 METAR KCLM 180153Z AUTO 30008KT 10SM CLR 18/09 A3006 RMK AO2 SLP178 T01780094=
201707180053 METAR KCLM 180053Z AUTO 30007KT 10SM CLR 18/09 A3006 RMK AO2 SLP180 T01780094=
201707172353 METAR KCLM 172353Z AUTO 31005KT 10SM CLR 20/09 A3007 RMK AO2 SLP181 T02000094 10222 20183 58014=
201707172253 METAR KCLM 172253Z AUTO 02006KT 10SM CLR 19/11 A3009 RMK AO2 SLP188 T01940106=
201707172153 METAR KCLM 172153Z AUTO 02004KT 10SM CLR 21/09 A3009 RMK AO2 SLP190 T02060094=
201707172053 METAR KCLM 172053Z AUTO 03005KT 10SM CLR 21/09 A3011 RMK AO2 SLP195 T02060089 58009=
201707171953 METAR KCLM 171953Z AUTO VRB06KT 10SM CLR 21/07 A3012 RMK AO2 SLP200 T02110067=
201707171853 METAR KCLM 171853Z AUTO 10008KT 10SM CLR 20/07 A3013 RMK AO2 SLP202 T02000072=
201707171753 METAR KCLM 171753Z AUTO VRB05KT 10SM CLR 18/09 A3014 RMK AO2 SLP204 T01830094 10183 20072 58006=
201707171653 METAR KCLM 171653Z AUTO 06003KT 10SM CLR 17/09 A3014 RMK AO2 SLP207 T01670094=
201707171553 METAR KCLM 171553Z AUTO 00000KT 10SM CLR 16/11 A3015 RMK AO2 SLP211 T01610106=
201707171453 METAR KCLM 171453Z AUTO 26005KT 10SM CLR 14/08 A3015 RMK AO2 SLP210 T01440078 55000=
201707171353 METAR KCLM 171353Z AUTO 00000KT 10SM CLR 11/08 A3015 RMK AO2 SLP209 T01060083=
201707171253 METAR KCLM 171253Z AUTO 22003KT 10SM CLR 08/07 A3015 RMK AO2 SLP210 T00780072=
201707171153 METAR KCLM 171153Z AUTO 00000KT 10SM CLR 08/07 A3015 RMK AO2 SLP210 T00780067 10122 20078 56006=
201707171053 METAR KCLM 171053Z AUTO 23005KT 10SM CLR 11/08 A3016 RMK AO2 SLP211 T01110083=
201707170953 METAR KCLM 170953Z AUTO 28009KT 10SM CLR 12/08 A3016 RMK AO2 SLP214 T01170083=
201707170853 METAR KCLM 170853Z AUTO 27007KT 10SM CLR 11/09 A3017 RMK AO2 SLP216 T01110089 58010=
201707170753 METAR KCLM 170753Z AUTO 26007KT 10SM CLR 12/08 A3018 RMK AO2 SLP221 T01170083 401890078=
201707170653 METAR KCLM 170653Z AUTO 28004KT 10SM CLR 11/08 A3019 RMK AO2 SLP223 T01110078=
201707170553 METAR KCLM 170553Z AUTO 29004KT 10SM CLR 12/09 A3020 RMK AO2 SLP226 T01170089 10183 20117 56007=
201707170453 METAR KCLM 170453Z AUTO 25006KT 10SM CLR 13/09 A3020 RMK AO2 SLP227 T01330094=
201707170353 METAR KCLM 170353Z AUTO 28006KT 10SM BKN075 14/09 A3021 RMK AO2 SLP230 T01440089=
201707170253 METAR KCLM 170253Z AUTO 30010KT 10SM CLR 16/08 A3022 RMK AO2 SLP233 T01560083 56008=
201707170153 METAR KCLM 170153Z AUTO 29012G19KT 10SM CLR 17/08 A3023 RMK AO2 SLP235 T01670083=
201707170053 METAR KCLM 170053Z AUTO 31010KT 10SM CLR 17/09 A3023 RMK AO2 SLP238 T01720094=
201707162353 METAR KCLM 162353Z AUTO 31009KT 10SM CLR 17/10 A3024 RMK AO2 SLP241 T01720100 10189 20167 56012=
201707162253 METAR KCLM 162253Z AUTO 32010G18KT 10SM CLR 17/11 A3026 RMK AO2 SLP246 T01720106=
201707162153 METAR KCLM 162153Z AUTO 32007KT 10SM CLR 18/11 A3026 RMK AO2 SLP248 T01780106=
201707162053 METAR KCLM 162053Z AUTO 31010KT 10SM CLR 18/11 A3028 RMK AO2 SLP253 T01780111 55001=
201707161953 METAR KCLM 161953Z AUTO 32012G18KT 10SM CLR 18/10 A3028 RMK AO2 SLP253 T01830100=
201707161853 METAR KCLM 161853Z AUTO 34008KT 300V010 10SM CLR 17/12 A3028 RMK AO2 SLP253 T01720117=
201707161753 METAR KCLM 161753Z AUTO 31008KT 290V350 10SM OVC075 17/11 A3028 RMK AO2 SLP253 T01720111 10172 20106 50004=
201707161653 METAR KCLM 161653Z AUTO 32007KT 10SM OVC070 15/11 A3028 RMK AO2 SLP255 T01500106=
201707161553 METAR KCLM 161553Z AUTO 30010KT 10SM OVC070 16/10 A3028 RMK AO2 SLP253 T01560100=
201707161453 METAR KCLM 161453Z AUTO 26008KT 10SM CLR 16/09 A3027 RMK AO2 SLP249 T01560089 53004=
201707161353 METAR KCLM 161353Z AUTO 26007KT 10SM SCT060 14/08 A3025 RMK AO2 SLP244 T01390078=
201707161253 METAR KCLM 161253Z AUTO 24005KT 10SM OVC060 12/08 A3026 RMK AO2 SLP248 T01170078=
201707161153 METAR KCLM 161153Z AUTO 25005KT 10SM BKN047 OVC055 11/08 A3025 RMK AO2 SLP245 T01060083 10122 20078 53013=
201707161053 METAR KCLM 161053Z AUTO 25005KT 10SM CLR 09/07 A3024 RMK AO2 SLP241 T00890072=
201707160953 METAR KCLM 160953Z AUTO 28004KT 10SM CLR 09/07 A3023 RMK AO2 SLP235 T00940072=
201707160853 METAR KCLM 160853Z AUTO 30006KT 10SM CLR 11/08 A3022 RMK AO2 SLP232 T01110078 53004=
201707160753 METAR KCLM 160753Z AUTO 27007KT 10SM CLR 12/09 A3021 RMK AO2 SLP231 T01170089 401940089=
201707160653 METAR KCLM 160653Z AUTO 26009KT 10SM CLR 12/10 A3021 RMK AO2 SLP228 T01220100=
201707160553 METAR KCLM 160553Z AUTO 29005KT 10SM CLR 11/09 A3020 RMK AO2 SLP228 T01110094 10167 20111 56002=
201707160453 METAR KCLM 160453Z AUTO 26006KT 10SM CLR 13/10 A3020 RMK AO2 SLP228 T01280100=
201707160353 METAR KCLM 160353Z AUTO 27007KT 10SM FEW044 14/10 A3020 RMK AO2 SLP228 T01390100=
201707160253 METAR KCLM 160253Z AUTO 30016G23KT 10SM OVC041 15/10 A3021 RMK AO2 SLP230 T01500100 56005=
201707160153 METAR KCLM 160153Z AUTO 30014G21KT 10SM CLR 15/11 A3021 RMK AO2 SLP231 T01500106=
201707160053 METAR KCLM 160053Z AUTO 31013G21KT 10SM CLR 16/11 A3022 RMK AO2 SLP232 T01610106=
201707152353 METAR KCLM 152353Z AUTO 30011G17KT 10SM CLR 17/09 A3022 RMK AO2 SLP235 T01670089 10194 20161 58001=
201707152253 METAR KCLM 152253Z AUTO 30011G17KT 10SM FEW030 BKN050 17/11 A3023 RMK AO2 SLP236 T01720106=
201707152153 METAR KCLM 152153Z AUTO 30017G22KT 10SM SCT041 17/12 A3024 RMK AO2 SLP239 T01720117=
201707152053 METAR KCLM 152053Z AUTO 31012G23KT 10SM FEW044 18/12 A3023 RMK AO2 SLP236 T01780117 53005=
201707151953 METAR KCLM 151953Z AUTO 32011G20KT 10SM CLR 18/12 A3022 RMK AO2 SLP235 T01830117=
201707151853 SPECI KCLM 151853Z AUTO 33010KT 10SM CLR 19/11 A3021 RMK AO2 SLP231 T01890111=
201707151853 METAR KCLM 151853Z AUTO 33010KT 10SM CLR 19/11 A3021 RMK AO2 SLP231 T01890111=
201707151753 METAR KCLM 151753Z AUTO 31008KT 10SM CLR 18/10 A3021 RMK AO2 SLP231 T01830100 10183 20089 51006=
201707151653 METAR KCLM 151653Z AUTO 31007KT 10SM CLR 17/10 A3021 RMK AO2 SLP230 T01720100=
201707151553 METAR KCLM 151553Z AUTO 36004KT 10SM CLR 16/09 A3020 RMK AO2 SLP228 T01610089=
201707151453 METAR KCLM 151453Z AUTO 26003KT 10SM CLR 15/09 A3020 RMK AO2 SLP225 T01500094 51007=
201707151353 METAR KCLM 151353Z AUTO 00000KT 10SM CLR 12/09 A3019 RMK AO2 SLP222 T01170089=
201707151253 METAR KCLM 151253Z AUTO 22005KT 10SM CLR 10/08 A3018 RMK AO2 SLP221 T01000078=
201707151153 METAR KCLM 151153Z AUTO 22004KT 10SM CLR 10/08 A3017 RMK AO2 SLP217 T01000078 10133 20100 51007=
201707151053 METAR KCLM 151053Z AUTO 26003KT 10SM CLR 12/07 A3016 RMK AO2 SLP214 T01220072=
201707150953 METAR KCLM 150953Z AUTO 26006KT 10SM CLR 13/07 A3016 RMK AO2 SLP213 T01280072=
201707150853 METAR KCLM 150853Z AUTO 27008KT 10SM CLR 13/07 A3015 RMK AO2 SLP210 T01280072 53007=
201707150753 METAR KCLM 150753Z AUTO 28009KT 10SM CLR 13/08 A3014 RMK AO2 SLP206 T01280078 401940083=
201707150653 METAR KCLM 150653Z AUTO 27010KT 10SM CLR 13/08 A3013 RMK AO2 SLP203 T01330083=
201707150553 METAR KCLM 150553Z AUTO 27009KT 10SM CLR 13/09 A3013 RMK AO2 SLP203 T01330089 10189 20133 51010=
201707150453 METAR KCLM 150453Z AUTO 27011KT 10SM CLR 14/08 A3013 RMK AO2 SLP203 T01390078=
201707150353 METAR KCLM 150353Z AUTO 27012KT 10SM CLR 14/08 A3011 RMK AO2 SLP197 T01440078=
201707150253 METAR KCLM 150253Z AUTO 29010KT 10SM CLR 16/08 A3010 RMK AO2 SLP193 T01610078 56008=
201707150153 METAR KCLM 150153Z AUTO 30007KT 10SM CLR 17/08 A3011 RMK AO2 SLP195 T01720078=
201707150053 METAR KCLM 150053Z AUTO 30009KT 10SM CLR 18/08 A3012 RMK AO2 SLP198 T01780078=
201707142353 METAR KCLM 142353Z AUTO 30011KT 10SM CLR 18/07 A3013 RMK AO2 SLP202 T01830072 10194 20172 58012=
201707142253 METAR KCLM 142253Z AUTO 31010KT 10SM CLR 19/07 A3014 RMK AO2 SLP207 T01890072=
201707142153 METAR KCLM 142153Z AUTO 32008KT 10SM CLR 19/08 A3015 RMK AO2 SLP210 T01940078=
201707142053 METAR KCLM 142053Z AUTO 30008KT 10SM CLR 19/08 A3016 RMK AO2 SLP214 T01940078 58007=
201707141953 METAR KCLM 141953Z AUTO 32006KT 10SM CLR 19/09 A3017 RMK AO2 SLP217 T01890089=
201707141853 METAR KCLM 141853Z AUTO 34006KT 10SM CLR 17/09 A3018 RMK AO2 SLP219 T01720094=
201707141753 METAR KCLM 141753Z AUTO 32008KT 10SM CLR 17/08 A3018 RMK AO2 SLP221 T01720083 10172 20083 51001=
201707141653 METAR KCLM 141653Z AUTO 32006KT 10SM CLR 16/09 A3018 RMK AO2 SLP221 T01610094=
201707141553 METAR KCLM 141553Z AUTO 33006KT 10SM CLR 15/09 A3018 RMK AO2 SLP221 T01500089=
201707141453 METAR KCLM 141453Z AUTO 30006KT 10SM CLR 14/09 A3018 RMK AO2 SLP220 T01440089 51002=
201707141353 METAR KCLM 141353Z AUTO 26005KT 10SM CLR 12/09 A3018 RMK AO2 SLP219 T01170094=
201707141253 METAR KCLM 141253Z AUTO 25004KT 10SM CLR 09/08 A3018 RMK AO2 SLP219 T00940083=
201707141153 METAR KCLM 141153Z AUTO 24005KT 10SM CLR 09/08 A3017 RMK AO2 SLP218 T00940083 10122 20094 51001=
201707141053 METAR KCLM 141053Z AUTO 24007KT 10SM CLR 10/09 A3017 RMK AO2 SLP218 T01000089=
201707140953 METAR KCLM 140953Z AUTO 25006KT 10SM CLR 10/08 A3017 RMK AO2 SLP217 T01000083=
201707140853 METAR KCLM 140853Z AUTO 24006KT 10SM CLR 11/08 A3017 RMK AO2 SLP217 T01110083 50002=
201707140753 METAR KCLM 140753Z AUTO 25007KT 10SM CLR 11/08 A3017 RMK AO2 SLP217 T01110083 401830094=
201707140653 METAR KCLM 140653Z AUTO 26007KT 10SM CLR 12/09 A3017 RMK AO2 SLP215 T01220089=
201707140553 METAR KCLM 140553Z AUTO 27008KT 10SM CLR 12/08 A3016 RMK AO2 SLP215 T01220083 10183 20117 50003=
201707140453 METAR KCLM 140453Z AUTO 28007KT 10SM CLR 12/08 A3017 RMK AO2 SLP216 T01220078=
201707140353 METAR KCLM 140353Z AUTO 29009KT 10SM CLR 13/08 A3016 RMK AO2 SLP213 T01330078=
201707140253 METAR KCLM 140253Z AUTO 31006KT 10SM CLR 16/09 A3016 RMK AO2 SLP212 T01560089 56007=
201707140153 METAR KCLM 140153Z AUTO 30006KT 10SM CLR 17/09 A3016 RMK AO2 SLP213 T01720089=
201707140053 METAR KCLM 140053Z AUTO 31007KT 10SM SCT048 18/08 A3017 RMK AO2 SLP216 T01780078=
201707132353 METAR KCLM 132353Z AUTO 30010KT 10SM OVC047 18/09 A3018 RMK AO2 SLP219 T01780089 10178 20150 50000=
201707132253 METAR KCLM 132253Z AUTO 33007KT 10SM OVC038 17/10 A3018 RMK AO2 SLP219 T01720100=
201707132153 METAR KCLM 132153Z AUTO 30010G16KT 10SM OVC036 17/09 A3018 RMK AO2 SLP219 T01720094=
201707132053 METAR KCLM 132053Z AUTO 30007KT 10SM OVC036 16/10 A3018 RMK AO2 SLP219 T01610100 53008=
201707132030 SPECI KCLM 132030Z AUTO 32007KT 10SM FEW028 OVC035 16/10 A3017 RMK AO2 T01610100=
201707131953 METAR KCLM 131953Z AUTO 31008KT 250V360 10SM OVC028 16/11 A3017 RMK AO2 SLP216 T01610111=
201707131853 METAR KCLM 131853Z AUTO 31007KT 10SM OVC028 16/11 A3016 RMK AO2 SLP212 T01560111=
201707131753 METAR KCLM 131753Z AUTO 28009KT 10SM OVC026 15/11 A3015 RMK AO2 SLP210 T01500111 10150 20094 53017=
201707131653 METAR KCLM 131653Z AUTO 30009KT 10SM OVC025 14/11 A3013 RMK AO2 SLP203 T01390106=
201707131602 SPECI KCLM 131602Z AUTO 29007KT 10SM OVC029 14/12 A3012 RMK AO2 T01390117=
201707131553 METAR KCLM 131553Z AUTO 30005KT 10SM OVC030 14/12 A3012 RMK AO2 SLP198 T01390117=
201707131453 METAR KCLM 131453Z AUTO 31004KT 10SM OVC031 13/12 A3010 RMK AO2 SLP193 T01280122 51011=
201707131433 SPECI KCLM 131433Z AUTO 32003KT 10SM OVC029 13/12 A3010 RMK AO2 T01280122=
201707131353 METAR KCLM 131353Z AUTO 29005KT 10SM OVC034 12/11 A3009 RMK AO2 SLP189 T01220111=
201707131253 METAR KCLM 131253Z AUTO 22004KT 10SM OVC032 11/11 A3007 RMK AO2 SLP182 T01110106=
201707131153 METAR KCLM 131153Z AUTO 00000KT 10SM FEW038 09/09 A3006 RMK AO2 SLP178 T00940089 10128 20094 53012=
201707131053 METAR KCLM 131053Z AUTO 00000KT 10SM CLR 12/11 A3004 RMK AO2 SLP173 T01170106=
201707130953 METAR KCLM 130953Z AUTO 24004KT 10SM SCT070 12/11 A3003 RMK AO2 SLP169 T01220111=
201707130853 METAR KCLM 130853Z AUTO 27007KT 10SM FEW075 13/11 A3002 RMK AO2 SLP166 T01280111 50002=
201707130753 METAR KCLM 130753Z AUTO 27006KT 10SM CLR 12/11 A3002 RMK AO2 SLP166 T01220111 401940106=
201707130653 METAR KCLM 130653Z AUTO 27007KT 10SM BKN075 12/11 A3002 RMK AO2 SLP165 T01220111=
201707130553 METAR KCLM 130553Z AUTO 28007KT 10SM CLR 12/11 A3002 RMK AO2 SLP164 T01220111 10178 20122 50002=
201707130453 METAR KCLM 130453Z AUTO 28007KT 10SM CLR 13/11 A3002 RMK AO2 SLP165 T01280111=
201707130353 METAR KCLM 130353Z AUTO 28013KT 10SM CLR 14/11 A3001 RMK AO2 SLP161 T01390106=
201707130253 METAR KCLM 130253Z AUTO 30010KT 10SM CLR 16/10 A3001 RMK AO2 SLP162 T01560100 56010=
201707130153 METAR KCLM 130153Z AUTO 30008KT 10SM CLR 17/11 A3001 RMK AO2 SLP163 T01670106=
201707130053 METAR KCLM 130053Z AUTO 32009KT 10SM CLR 18/12 A3002 RMK AO2 SLP167 T01780117=
201707122353 METAR KCLM 122353Z AUTO 31011G17KT 10SM CLR 18/12 A3004 RMK AO2 SLP172 T01780117 10194 20167 57010=
201707122253 METAR KCLM 122253Z AUTO 30013KT 10SM CLR 18/12 A3005 RMK AO2 SLP176 T01830117=
201707122153 METAR KCLM 122153Z AUTO 30011KT 10SM CLR 19/12 A3006 RMK AO2 SLP180 T01890117=
201707122053 METAR KCLM 122053Z AUTO 34010KT 10SM FEW075 19/12 A3007 RMK AO2 SLP183 T01890122 58002=
201707122013 SPECI KCLM 122013Z AUTO 30010KT 10SM SCT028 18/12 A3007 RMK AO2 T01830117=
201707121953 METAR KCLM 121953Z AUTO 30011G15KT 10SM BKN029 18/12 A3008 RMK AO2 SLP184 T01780117=
201707121853 METAR KCLM 121853Z AUTO 34007KT 10SM BKN080 17/12 A3008 RMK AO2 SLP185 T01720117=
201707121753 METAR KCLM 121753Z AUTO 30009KT 10SM OVC080 17/12 A3008 RMK AO2 SLP185 T01670117 10167 20106 53002=
201707121710 SPECI KCLM 121710Z AUTO VRB05KT 10SM SCT022 OVC075 16/12 A3007 RMK AO2 T01610117=
201707121653 METAR KCLM 121653Z AUTO 31006KT 10SM BKN022 OVC075 16/11 A3007 RMK AO2 SLP183 T01610106=
201707121636 SPECI KCLM 121636Z AUTO 31010KT 10SM BKN021 17/11 A3007 RMK AO2 T01670111=
201707121553 METAR KCLM 121553Z AUTO 29006KT 10SM CLR 16/11 A3007 RMK AO2 SLP184 T01560111=
201707121453 METAR KCLM 121453Z AUTO 30005KT 10SM CLR 14/11 A3007 RMK AO2 SLP183 T01440106 51007=
201707121353 METAR KCLM 121353Z AUTO 00000KT 10SM CLR 12/10 A3006 RMK AO2 SLP179 T01220100=
201707121253 METAR KCLM 121253Z AUTO 24004KT 10SM CLR 11/09 A3006 RMK AO2 SLP181 T01110094=
201707121153 METAR KCLM 121153Z AUTO 23004KT 10SM CLR 11/09 A3005 RMK AO2 SLP176 T01060094 10128 20106 51003=
201707121053 METAR KCLM 121053Z AUTO 28007KT 10SM CLR 12/09 A3005 RMK AO2 SLP176 T01170094=
201707120953 METAR KCLM 120953Z AUTO 28010KT 10SM CLR 12/09 A3005 RMK AO2 SLP175 T01170094=
201707120853 METAR KCLM 120853Z AUTO 28009KT 10SM CLR 12/09 A3004 RMK AO2 SLP173 T01170094 56003=
201707120753 METAR KCLM 120753Z AUTO 28008KT 10SM CLR 12/09 A3004 RMK AO2 SLP173 T01220094 401830089=
201707120653 METAR KCLM 120653Z AUTO 28009KT 10SM FEW060 12/10 A3005 RMK AO2 SLP175 T01220100=
201707120553 METAR KCLM 120553Z AUTO 28010KT 10SM CLR 12/10 A3005 RMK AO2 SLP176 T01220100 10178 20122 58007=
201707120453 METAR KCLM 120453Z AUTO 27009KT 10SM CLR 13/10 A3007 RMK AO2 SLP181 T01280100=
201707120353 METAR KCLM 120353Z AUTO 29009KT 10SM CLR 13/10 A3007 RMK AO2 SLP181 T01330100=
201707120253 METAR KCLM 120253Z AUTO 29011G18KT 10SM CLR 14/09 A3007 RMK AO2 SLP183 T01440094 56008=
201707120153 METAR KCLM 120153Z AUTO 30008KT 10SM CLR 16/08 A3008 RMK AO2 SLP185 T01610083=
201707120053 METAR KCLM 120053Z AUTO 31008G16KT 10SM CLR 16/07 A3008 RMK AO2 SLP186 T01610067=
201707112353 METAR KCLM 112353Z AUTO 31011G17KT 10SM CLR 17/07 A3010 RMK AO2 SLP191 T01720067 10183 20150 57012=
201707112253 METAR KCLM 112253Z AUTO 31010G15KT 10SM CLR 18/08 A3011 RMK AO2 SLP195 T01780078=
201707112153 METAR KCLM 112153Z AUTO 31012KT 10SM CLR 17/10 A3012 RMK AO2 SLP199 T01720100=
201707112053 METAR KCLM 112053Z AUTO 30009KT 10SM CLR 17/11 A3013 RMK AO2 SLP203 T01670106 58003=
201707111953 METAR KCLM 111953Z AUTO 32007KT 10SM CLR 17/11 A3013 RMK AO2 SLP203 T01670111=
201707111853 METAR KCLM 111853Z AUTO 34010G18KT 10SM CLR 15/11 A3015 RMK AO2 SLP208 T01500106=
201707111753 METAR KCLM 111753Z AUTO 30011KT 10SM CLR 16/11 A3014 RMK AO2 SLP207 T01560106 10156 20089 51005=
201707111653 METAR KCLM 111653Z AUTO 31009KT 10SM CLR 14/11 A3014 RMK AO2 SLP205 T01390106=
201707111553 METAR KCLM 111553Z AUTO 31010KT 10SM CLR 13/10 A3014 RMK AO2 SLP205 T01330100=
201707111453 METAR KCLM 111453Z AUTO 32006KT 10SM CLR 13/10 A3013 RMK AO2 SLP202 T01330100 50004=
201707111353 METAR KCLM 111353Z AUTO 27005KT 10SM CLR 10/08 A3013 RMK AO2 SLP203 T01000083=
201707111253 METAR KCLM 111253Z AUTO 26007KT 10SM CLR 09/08 A3012 RMK AO2 SLP202 T00890078=
201707111153 METAR KCLM 111153Z AUTO 26006KT 10SM FEW045 09/08 A3011 RMK AO2 SLP199 T00940078 10117 20089 53001=
201707111053 METAR KCLM 111053Z AUTO 25006KT 10SM CLR 10/08 A3011 RMK AO2 SLP198 T01000078=
201707110953 METAR KCLM 110953Z AUTO 26006KT 10SM CLR 10/08 A3011 RMK AO2 SLP196 T01000078=
201707110853 METAR KCLM 110853Z AUTO 24006KT 10SM CLR 10/08 A3011 RMK AO2 SLP196 T01000083 51003=
201707110753 METAR KCLM 110753Z AUTO 27007KT 10SM CLR 11/08 A3011 RMK AO2 SLP196 T01060078 401780100=
201707110653 METAR KCLM 110653Z AUTO 00000KT 10SM CLR 11/08 A3011 RMK AO2 SLP196 T01110078=
201707110553 METAR KCLM 110553Z AUTO 27011KT 10SM CLR 12/08 A3010 RMK AO2 SLP194 T01170078 10156 20117 53001=
201707110453 METAR KCLM 110453Z AUTO 29010KT 10SM CLR 12/09 A3010 RMK AO2 SLP192 T01170089=
201707110353 METAR KCLM 110353Z AUTO 30015G22KT 10SM CLR 12/09 A3010 RMK AO2 SLP191 T01220089=
201707110253 METAR KCLM 110253Z AUTO 31015G24KT 10SM CLR 13/09 A3010 RMK AO2 SLP192 T01280094 53002=
201707110153 METAR KCLM 110153Z AUTO 30017G21KT 10SM CLR 14/09 A3009 RMK AO2 SLP189 T01390094=
201707110053 METAR KCLM 110053Z AUTO 32012KT 10SM BKN100 14/09 A3009 RMK AO2 SLP190 T01440094=
201707102353 METAR KCLM 102353Z AUTO 31011KT 10SM OVC100 14/09 A3009 RMK AO2 SLP191 T01440089 10178 20144 51006=
201707102253 METAR KCLM 102253Z AUTO 31012G18KT 10SM OVC100 14/09 A3009 RMK AO2 SLP190 T01440094=
201707102153 METAR KCLM 102153Z AUTO VRB06KT 10SM FEW110 16/09 A3009 RMK AO2 SLP189 T01610094=
201707102053 METAR KCLM 102053Z AUTO 31011G16KT 10SM CLR 16/10 A3008 RMK AO2 SLP184 T01560100 53006=
201707101953 METAR KCLM 101953Z AUTO 35004KT 10SM CLR 16/11 A3007 RMK AO2 SLP181 T01560111=
201707101853 METAR KCLM 101853Z AUTO 32007KT 10SM CLR 17/12 A3006 RMK AO2 SLP179 T01670117=
201707101753 METAR KCLM 101753Z AUTO 32008KT 10SM CLR 17/12 A3006 RMK AO2 SLP178 T01670117 10167 20106 50006=
201707101653 METAR KCLM 101653Z AUTO 31009KT 10SM CLR 15/12 A3006 RMK AO2 SLP179 T01500117=
201707101553 METAR KCLM 101553Z AUTO 33007KT 10SM CLR 14/11 A3005 RMK AO2 SLP175 T01440111=
201707101453 METAR KCLM 101453Z AUTO 30005KT 10SM CLR 13/11 A3004 RMK AO2 SLP173 T01330111 53005=
201707101353 METAR KCLM 101353Z AUTO 29009KT 10SM CLR 12/11 A3003 RMK AO2 SLP170 T01220111=
201707101253 METAR KCLM 101253Z AUTO 28006KT 10SM FEW049 11/10 A3003 RMK AO2 SLP168 T01060100=
201707101153 METAR KCLM 101153Z AUTO 28006KT 10SM BKN050 11/10 A3003 RMK AO2 SLP167 T01060100 10139 20106 58005=
201707101053 METAR KCLM 101053Z AUTO 29005KT 10SM SCT055 11/10 A3004 RMK AO2 SLP172 T01110100=
201707100953 METAR KCLM 100953Z AUTO 27004KT 10SM BKN050 11/11 A3005 RMK AO2 SLP175 T01110106=
201707100853 METAR KCLM 100853Z AUTO 33007KT 10SM BKN060 12/11 A3004 RMK AO2 SLP173 T01220106 56007=
201707100753 METAR KCLM 100753Z AUTO 29008KT 10SM BKN060 13/11 A3004 RMK AO2 SLP173 T01280106 402110122=
201707100653 METAR KCLM 100653Z AUTO 31004KT 10SM CLR 12/11 A3005 RMK AO2 SLP177 T01220111=
201707100553 METAR KCLM 100553Z AUTO 29008KT 10SM CLR 13/12 A3006 RMK AO2 SLP180 T01330117 10200 20133 58003=
201707100453 METAR KCLM 100453Z AUTO 27008KT 10SM CLR 14/12 A3007 RMK AO2 SLP182 T01390117=
201707100353 METAR KCLM 100353Z AUTO 28006KT 10SM BKN055 14/12 A3007 RMK AO2 SLP181 T01390117=
201707100253 METAR KCLM 100253Z AUTO 31008KT 10SM CLR 16/12 A3007 RMK AO2 SLP183 T01610122 56013=
201707100153 METAR KCLM 100153Z AUTO 32007KT 10SM CLR 17/13 A3008 RMK AO2 SLP185 T01720128=
201707100053 METAR KCLM 100053Z AUTO 31008KT 280V340 10SM BKN060 18/13 A3010 RMK AO2 SLP193 T01780128=
201707092353 METAR KCLM 092353Z AUTO 30010KT 10SM FEW060 20/14 A3011 RMK AO2 SLP196 T02000139 10211 20183 58008=
201707092253 METAR KCLM 092253Z AUTO 27010KT 10SM SCT060 19/14 A3012 RMK AO2 SLP201 T01890144=
201707092153 METAR KCLM 092153Z AUTO 30013G17KT 10SM OVC050 19/14 A3013 RMK AO2 SLP203 T01890144=
201707092053 METAR KCLM 092053Z AUTO 31008G18KT 10SM OVC047 19/14 A3014 RMK AO2 SLP204 T01940144 50001=
201707091953 METAR KCLM 091953Z AUTO 33011G18KT 10SM CLR 19/14 A3014 RMK AO2 SLP207 T01940144=
201707091853 METAR KCLM 091853Z AUTO 30012G18KT 10SM FEW021 19/14 A3014 RMK AO2 SLP207 T01890139=
201707091753 METAR KCLM 091753Z AUTO VRB06KT 10SM FEW016 BKN070 19/14 A3013 RMK AO2 SLP203 T01890139 10194 20128 55000=
201707091653 METAR KCLM 091653Z AUTO 32006KT 10SM OVC080 18/14 A3013 RMK AO2 SLP202 T01780139=
201707091553 METAR KCLM 091553Z AUTO 30007KT 10SM FEW004 BKN065 OVC080 16/13 A3013 RMK AO2 SLP203 T01610133=
201707091551 SPECI KCLM 091551Z AUTO 32006KT 10SM FEW004 BKN065 OVC080 16/14 A3013 RMK AO2=
201707091528 SPECI KCLM 091528Z AUTO 29006KT 10SM OVC004 14/13 A3013 RMK AO2 T01440133=
201707091500 SPECI KCLM 091500Z AUTO 32005KT 10SM BKN005 14/13 A3013 RMK AO2 T01390128=
201707091453 METAR KCLM 091453Z AUTO 30006KT 10SM SCT005 14/13 A3013 RMK AO2 SLP201 T01390128 51011=
201707091436 SPECI KCLM 091436Z AUTO 32005KT 10SM FEW005 SCT090 14/13 A3012 RMK AO2 T01390128=
201707091353 METAR KCLM 091353Z AUTO 35004KT 10SM BKN070 OVC085 14/12 A3011 RMK AO2 SLP197 T01440122=
201707091253 METAR KCLM 091253Z AUTO 00000KT 10SM FEW095 13/12 A3011 RMK AO2 SLP196 T01330117=
201707091153 METAR KCLM 091153Z AUTO 26005KT 10SM SCT090 14/11 A3009 RMK AO2 SLP190 T01440111 10150 20139 51001=
201707091053 METAR KCLM 091053Z AUTO 28008KT 10SM CLR 15/11 A3009 RMK AO2 SLP190 T01500106=
201707090953 METAR KCLM 090953Z AUTO 10SM CLR 14/11 A3009 RMK AO2 SLP191 T01440106=
201707090853 METAR KCLM 090853Z AUTO 30011KT 10SM CLR 14/11 A3009 RMK AO2 SLP189 T01440106 53003=
201707090753 METAR KCLM 090753Z AUTO 29012G17KT 10SM CLR 14/10 A3008 RMK AO2 SLP187 T01440100 402060100=
201707090653 METAR KCLM 090653Z AUTO 28007KT 10SM CLR 14/09 A3008 RMK AO2 SLP187 T01390094=
201707090553 METAR KCLM 090553Z AUTO VRB06KT 10SM CLR 14/11 A3008 RMK AO2 SLP187 T01440111 10194 20139 51003=
201707090453 METAR KCLM 090453Z AUTO 30009KT 10SM CLR 14/11 A3008 RMK AO2 SLP187 T01390111=
201707090353 METAR KCLM 090353Z AUTO 30007KT 10SM CLR 14/11 A3008 RMK AO2 SLP185 T01440111=
201707090253 METAR KCLM 090253Z AUTO 28008KT 10SM CLR 17/12 A3007 RMK AO2 SLP183 T01670117 55007=
201707090153 METAR KCLM 090153Z AUTO 28008KT 10SM CLR 18/12 A3007 RMK AO2 SLP181 T01830117=
201707090053 METAR KCLM 090053Z AUTO 31008KT 10SM CLR 18/12 A3008 RMK AO2 SLP186 T01830122=
201707082353 METAR KCLM 082353Z AUTO VRB06KT 10SM CLR 19/13 A3010 RMK AO2 SLP191 T01890128 10206 20167 57013=
201707082253 METAR KCLM 082253Z AUTO 30009KT 8SM CLR 18/12 A3011 RMK AO2 SLP195 T01780122=
201707082153 METAR KCLM 082153Z AUTO 33007KT 10SM CLR 19/12 A3012 RMK AO2 SLP199 T01890122=
201707082053 METAR KCLM 082053Z AUTO 34007KT 10SM CLR 19/12 A3013 RMK AO2 SLP204 T01890122 58007=
201707081953 METAR KCLM 081953Z AUTO 36005KT 10SM CLR 19/12 A3014 RMK AO2 SLP206 T01890122=
201707081853 METAR KCLM 081853Z AUTO 30005KT 10SM CLR 18/11 A3015 RMK AO2 SLP210 T01780111=
201707081753 METAR KCLM 081753Z AUTO 36005KT 10SM CLR 17/12 A3015 RMK AO2 SLP210 T01720122 10172 20100 58005=
201707081653 METAR KCLM 081653Z AUTO 36004KT 10SM CLR 15/12 A3016 RMK AO2 SLP214 T01500122=
201707081553 METAR KCLM 081553Z AUTO 36004KT 10SM CLR 16/12 A3016 RMK AO2 SLP213 T01610117=
201707081453 METAR KCLM 081453Z AUTO 30005KT 10SM CLR 14/11 A3017 RMK AO2 SLP215 T01440111 58006=
201707081353 METAR KCLM 081353Z AUTO 29007KT 10SM CLR 13/11 A3018 RMK AO2 SLP219 T01280106=
201707081253 METAR KCLM 081253Z AUTO 29003KT 10SM CLR 11/09 A3019 RMK AO2 SLP223 T01060094=
201707081153 METAR KCLM 081153Z AUTO 29004KT 10SM CLR 11/09 A3019 RMK AO2 PK WND 33026/1055 SLP222 T01060094 10133 20106 55001=
201707081053 METAR KCLM 081053Z AUTO 10SM CLR 12/09 A3019 RMK AO2 SLP222 T01170094=
201707080953 METAR KCLM 080953Z AUTO 27008KT 10SM CLR 13/09 A3019 RMK AO2 SLP222 T01280094=
201707080853 METAR KCLM 080853Z AUTO 26007KT 10SM CLR 12/09 A3019 RMK AO2 SLP223 T01220094 58005=
201707080753 METAR KCLM 080753Z AUTO 27007KT 10SM CLR 13/09 A3020 RMK AO2 SLP227 T01280094 401830106=
201707080653 METAR KCLM 080653Z AUTO 28007KT 10SM CLR 13/09 A3021 RMK AO2 SLP231 T01330094=
201707080553 METAR KCLM 080553Z AUTO 27008KT 10SM CLR 13/10 A3021 RMK AO2 SLP229 T01330100 10178 20128 58003=
201707080453 METAR KCLM 080453Z AUTO 28012KT 10SM CLR 13/10 A3022 RMK AO2 SLP232 T01330100=
201707080353 METAR KCLM 080353Z AUTO 28009KT 10SM CLR 14/10 A3022 RMK AO2 SLP232 T01390100=
201707080253 METAR KCLM 080253Z AUTO 29012KT 10SM CLR 16/09 A3022 RMK AO2 SLP232 T01560094 56013=
201707080153 METAR KCLM 080153Z AUTO 29014G22KT 10SM CLR 17/09 A3023 RMK AO2 SLP236 T01670094=
201707080053 METAR KCLM 080053Z AUTO 30011G19KT 10SM CLR 17/09 A3024 RMK AO2 SLP240 T01720094=
201707072353 METAR KCLM 072353Z AUTO 31008G17KT 10SM CLR 18/09 A3025 RMK AO2 SLP245 T01780094 10183 20150 58005=
201707072253 METAR KCLM 072253Z AUTO 33009G20KT 10SM CLR 18/10 A3026 RMK AO2 SLP248 T01780100=
201707072153 METAR KCLM 072153Z AUTO 32013G22KT 280V340 10SM CLR 17/10 A3027 RMK AO2 SLP251 T01720100=
201707072053 METAR KCLM 072053Z AUTO 30010G19KT 10SM SCT031 17/11 A3027 RMK AO2 SLP250 T01720106 51016=
201707071953 METAR KCLM 071953Z AUTO 32010G21KT 10SM SCT031 17/11 A3026 RMK AO2 SLP246 T01720106=
201707071853 METAR KCLM 071853Z AUTO 30013G19KT 10SM SCT031 16/11 A3024 RMK AO2 SLP240 T01560106=
201707071753 METAR KCLM 071753Z AUTO 31012G18KT 10SM CLR 16/11 A3022 RMK AO2 SLP234 T01560111 10156 20106 51018=
201707071653 METAR KCLM 071653Z AUTO 31014G21KT 10SM FEW025 15/11 A3021 RMK AO2 SLP230 T01500106=
201707071553 METAR KCLM 071553Z AUTO 31010G19KT 10SM CLR 14/11 A3019 RMK AO2 SLP225 T01440106=
201707071453 METAR KCLM 071453Z AUTO 31007KT 10SM FEW015 14/11 A3017 RMK AO2 SLP216 T01440106 51022=
201707071353 METAR KCLM 071353Z AUTO 28009KT 10SM CLR 13/10 A3015 RMK AO2 SLP211 T01280100=
201707071253 METAR KCLM 071253Z AUTO 28009KT 10SM CLR 11/09 A3013 RMK AO2 SLP202 T01110094=
201707071153 METAR KCLM 071153Z AUTO 29007KT 10SM CLR 11/09 A3010 RMK AO2 SLP194 T01110089 10133 20111 53010=
201707071053 METAR KCLM 071053Z AUTO 30007KT 10SM CLR 12/08 A3009 RMK AO2 SLP188 T01170078=
201707070953 METAR KCLM 070953Z AUTO 29007KT 10SM CLR 12/08 A3008 RMK AO2 SLP186 T01170083=
201707070853 METAR KCLM 070853Z AUTO 30010KT 10SM CLR 12/08 A3007 RMK AO2 SLP183 T01220078 56003=
201707070753 METAR KCLM 070753Z AUTO 29010KT 10SM CLR 13/08 A3007 RMK AO2 SLP184 T01330083 401940111=
201707070653 METAR KCLM 070653Z AUTO 29010KT 10SM CLR 13/09 A3008 RMK AO2 SLP185 T01280094=
201707070553 METAR KCLM 070553Z AUTO 30008KT 10SM CLR 13/10 A3008 RMK AO2 SLP186 T01280100 10189 20128 57000=
201707070453 METAR KCLM 070453Z AUTO 29010KT 10SM CLR 13/10 A3008 RMK AO2 SLP187 T01330100=
201707070353 METAR KCLM 070353Z AUTO 30008KT 10SM CLR 14/10 A3008 RMK AO2 SLP186 T01440100=
201707070253 METAR KCLM 070253Z AUTO 29008KT 10SM CLR 17/10 A3008 RMK AO2 SLP187 T01670100 56008=
201707070153 METAR KCLM 070153Z AUTO 31005KT 10SM CLR 18/09 A3009 RMK AO2 SLP188 T01780094=
201707070053 METAR KCLM 070053Z AUTO 32007KT 10SM CLR 18/11 A3010 RMK AO2 SLP192 T01830106=
201707062353 METAR KCLM 062353Z AUTO 31007KT 10SM CLR 19/11 A3011 RMK AO2 SLP195 T01890111 10194 20156 58016=
201707062253 METAR KCLM 062253Z AUTO 31009KT 10SM CLR 19/12 A3013 RMK AO2 SLP201 T01890117=
201707062153 METAR KCLM 062153Z AUTO 32008KT 10SM CLR 18/11 A3014 RMK AO2 SLP205 T01830111=
201707062053 METAR KCLM 062053Z AUTO 31007KT 10SM CLR 18/12 A3015 RMK AO2 SLP210 T01780117 56007=
201707061953 METAR KCLM 061953Z AUTO 30007KT 10SM CLR 17/11 A3016 RMK AO2 SLP213 T01720111=
201707061853 METAR KCLM 061853Z AUTO 31008KT 10SM CLR 16/11 A3016 RMK AO2 SLP215 T01610111=
201707061753 METAR KCLM 061753Z AUTO 28008KT 10SM CLR 16/11 A3017 RMK AO2 SLP217 T01560111 10161 20111 50002=
201707061653 METAR KCLM 061653Z AUTO 33008KT 10SM CLR 15/11 A3018 RMK AO2 SLP219 T01500111=
201707061553 METAR KCLM 061553Z AUTO 31008KT 10SM CLR 14/11 A3017 RMK AO2 SLP217 T01390111=
201707061453 METAR KCLM 061453Z AUTO 33006KT 10SM CLR 13/11 A3017 RMK AO2 SLP215 T01330106 51012=
201707061353 METAR KCLM 061353Z AUTO 29008KT 10SM CLR 12/10 A3016 RMK AO2 SLP213 T01220100=
201707061253 METAR KCLM 061253Z AUTO 30009KT 10SM CLR 11/09 A3015 RMK AO2 SLP209 T01110094=
201707061153 METAR KCLM 061153Z AUTO 29011KT 10SM CLR 12/09 A3013 RMK AO2 SLP204 T01170089 10150 20117 53006=
201707061053 METAR KCLM 061053Z AUTO 29009KT 10SM CLR 12/08 A3013 RMK AO2 SLP201 T01220083=
201707060953 METAR KCLM 060953Z AUTO 29010G16KT 10SM CLR 12/08 A3012 RMK AO2 SLP199 T01220078=
201707060853 METAR KCLM 060853Z AUTO 29009KT 10SM CLR 13/08 A3011 RMK AO2 SLP198 T01280078 51015=
201707060753 METAR KCLM 060753Z AUTO 29008KT 10SM CLR 13/08 A3010 RMK AO2 SLP193 T01330083 402110078=
201707060653 METAR KCLM 060653Z AUTO 29008KT 10SM CLR 14/09 A3009 RMK AO2 SLP188 T01390094=
201707060553 METAR KCLM 060553Z AUTO 31005KT 10SM CLR 14/09 A3007 RMK AO2 SLP183 T01390094 10194 20139 53013=
201707060453 METAR KCLM 060453Z AUTO 30006KT 10SM CLR 14/08 A3006 RMK AO2 SLP178 T01440083=
201707060353 METAR KCLM 060353Z AUTO 28007KT 10SM CLR 17/06 A3004 RMK AO2 SLP173 T01720056=
201707060253 METAR KCLM 060253Z AUTO 28009KT 10SM CLR 19/08 A3003 RMK AO2 SLP170 T01890078 53002=
201707060153 METAR KCLM 060153Z AUTO VRB05KT 10SM CLR 19/09 A3002 RMK AO2 SLP167 T01940094=
201707060053 METAR KCLM 060053Z AUTO 31007KT 10SM CLR 19/11 A3002 RMK AO2 SLP166 T01890106=
201707052353 METAR KCLM 052353Z AUTO 30009KT 10SM CLR 19/11 A3003 RMK AO2 SLP167 T01890106 10211 20189 58001=
201707052253 METAR KCLM 052253Z AUTO 36005KT 10SM CLR 19/11 A3003 RMK AO2 SLP168 T01940111=
201707052153 METAR KCLM 052153Z AUTO 35004KT 10SM CLR 20/12 A3003 RMK AO2 SLP168 T02000117=
201707052053 METAR KCLM 052053Z AUTO VRB04KT 10SM CLR 21/12 A3003 RMK AO2 SLP168 T02060117 58002=
201707051953 METAR KCLM 051953Z AUTO VRB04KT 10SM CLR 21/12 A3003 RMK AO2 SLP169 T02060117=
201707051853 METAR KCLM 051853Z AUTO VRB04KT 10SM CLR 21/12 A3004 RMK AO2 SLP170 T02060122=
201707051753 METAR KCLM 051753Z AUTO 06003KT 10SM CLR 20/12 A3003 RMK AO2 SLP170 T02000117 10200 20078 50002=
201707051653 METAR KCLM 051653Z AUTO 36004KT 10SM CLR 17/12 A3004 RMK AO2 SLP172 T01670117=
201707051553 METAR KCLM 051553Z AUTO 01004KT 10SM CLR 15/11 A3004 RMK AO2 SLP171 T01500111=
201707051453 METAR KCLM 051453Z AUTO 00000KT 10SM CLR 15/11 A3003 RMK AO2 SLP168 T01500106 53006=
201707051353 METAR KCLM 051353Z AUTO 00000KT 10SM CLR 12/11 A3002 RMK AO2 SLP167 T01170106=
201707051253 METAR KCLM 051253Z AUTO 00000KT 9SM CLR 08/08 A3001 RMK AO2 SLP162 T00830078=
201707051153 METAR KCLM 051153Z AUTO 00000KT 10SM CLR 08/08 A3001 RMK AO2 SLP161 T00830083 10128 20078 51002=
201707051053 METAR KCLM 051053Z AUTO 29003KT 10SM CLR 09/08 A3001 RMK AO2 SLP161 T00940083=
201707050953 METAR KCLM 050953Z AUTO 30003KT 10SM CLR 10/09 A3000 RMK AO2 SLP160 T01000089=
201707050853 METAR KCLM 050853Z AUTO 30004KT 10SM CLR 11/09 A3000 RMK AO2 SLP159 T01110094 56005=
201707050753 METAR KCLM 050753Z AUTO 29006KT 10SM CLR 12/09 A3000 RMK AO2 SLP160 T01170089 402000083=
201707050653 METAR KCLM 050653Z AUTO 29008KT 10SM CLR 12/09 A3001 RMK AO2 SLP162 T01220089=
201707050553 METAR KCLM 050553Z AUTO 30007KT 10SM CLR 13/08 A3001 RMK AO2 SLP164 T01280083 10189 20128 56002=
201707050453 METAR KCLM 050453Z AUTO 29009KT 10SM CLR 13/08 A3002 RMK AO2 SLP165 T01330083=
201707050353 METAR KCLM 050353Z AUTO 29007KT 10SM CLR 14/09 A3001 RMK AO2 SLP163 T01440089=
201707050253 METAR KCLM 050253Z AUTO 28007KT 10SM CLR 18/08 A3002 RMK AO2 SLP166 T01780083 56007=
201707050153 METAR KCLM 050153Z AUTO 31008KT 10SM CLR 18/10 A3003 RMK AO2 SLP167 T01830100=
201707050053 METAR KCLM 050053Z AUTO 31007KT 270V330 10SM CLR 18/11 A3004 RMK AO2 SLP171 T01830106=
201707042353 METAR KCLM 042353Z AUTO 29009KT 10SM CLR 18/11 A3004 RMK AO2 SLP174 T01780106 10200 20167 58009=
201707042253 METAR KCLM 042253Z AUTO 01006KT 10SM CLR 19/11 A3005 RMK AO2 SLP177 T01890111=
201707042153 METAR KCLM 042153Z AUTO 35005KT 10SM CLR 18/11 A3007 RMK AO2 SLP181 T01830111=
201707042053 METAR KCLM 042053Z AUTO 35005KT 10SM CLR 18/11 A3007 RMK AO2 SLP183 T01780106 58006=
201707041953 METAR KCLM 041953Z AUTO VRB05KT 10SM CLR 18/11 A3008 RMK AO2 SLP186 T01830106=
201707041853 METAR KCLM 041853Z AUTO VRB04KT 10SM CLR 18/10 A3009 RMK AO2 SLP188 T01830100=
201707041753 METAR KCLM 041753Z AUTO VRB03KT 10SM CLR 17/10 A3009 RMK AO2 SLP189 T01720100 10172 20083 56005=
201707041653 METAR KCLM 041653Z AUTO 36003KT 10SM CLR 16/11 A3009 RMK AO2 SLP191 T01560106=
201707041553 METAR KCLM 041553Z AUTO 36003KT 10SM CLR 14/11 A3010 RMK AO2 SLP192 T01440106=
201707041453 METAR KCLM 041453Z AUTO 00000KT 10SM CLR 14/11 A3010 RMK AO2 SLP194 T01390106 50003=
201707041353 METAR KCLM 041353Z AUTO 26004KT 10SM CLR 11/10 A3011 RMK AO2 SLP194 T01110100=
201707041253 METAR KCLM 041253Z AUTO 30003KT 10SM CLR 09/08 A3010 RMK AO2 SLP194 T00890083=
201707041153 METAR KCLM 041153Z AUTO 00000KT 10SM CLR 09/08 A3010 RMK AO2 SLP192 T00890083 10111 20083 56007=
201707041053 METAR KCLM 041053Z AUTO 25004KT 10SM CLR 09/08 A3010 RMK AO2 SLP193 T00890083=
201707040953 METAR KCLM 040953Z AUTO 26005KT 10SM CLR 09/09 A3011 RMK AO2 SLP195 T00940089=
201707040853 METAR KCLM 040853Z AUTO 31006KT 10SM CLR 10/09 A3012 RMK AO2 SLP199 T01000089 56008=
201707040753 METAR KCLM 040753Z AUTO 29006KT 10SM CLR 09/09 A3012 RMK AO2 SLP199 T00940089 401940094=
201707040653 METAR KCLM 040653Z AUTO 30007KT 10SM CLR 11/10 A3012 RMK AO2 SLP200 T01110100=
201707040553 METAR KCLM 040553Z AUTO 29007KT 10SM CLR 10/09 A3014 RMK AO2 SLP207 T01000089 10172 20100 58006=
201707040453 METAR KCLM 040453Z AUTO 28006KT 10SM CLR 12/09 A3015 RMK AO2 SLP211 T01170094=
201707040353 METAR KCLM 040353Z AUTO 30007KT 10SM CLR 13/09 A3016 RMK AO2 SLP211 T01330094=
201707040253 METAR KCLM 040253Z AUTO 31006KT 10SM CLR 15/09 A3016 RMK AO2 SLP214 T01500094 58009=
201707040153 METAR KCLM 040153Z AUTO 31009KT 10SM CLR 16/09 A3017 RMK AO2 SLP217 T01560094=
201707040053 METAR KCLM 040053Z AUTO 33007KT 10SM CLR 17/10 A3018 RMK AO2 SLP221 T01670100=
201707032353 METAR KCLM 032353Z AUTO 31012G17KT 10SM CLR 17/11 A3019 RMK AO2 SLP223 T01720106 10194 20150 58004=
201707032253 METAR KCLM 032253Z AUTO 31009KT 10SM BKN040 19/11 A3020 RMK AO2 SLP226 T01940111=
201707032153 METAR KCLM 032153Z AUTO 32006KT 10SM BKN040 17/10 A3020 RMK AO2 SLP227 T01720100=
201707032053 METAR KCLM 032053Z AUTO 01005KT 10SM CLR 18/11 A3020 RMK AO2 SLP228 T01780106 58002=
201707031953 METAR KCLM 031953Z AUTO 36007KT 10SM CLR 16/11 A3021 RMK AO2 SLP228 T01610106=
201707031853 METAR KCLM 031853Z AUTO VRB06KT 10SM CLR 16/11 A3021 RMK AO2 SLP230 T01610106=
201707031753 METAR KCLM 031753Z AUTO 33008G16KT 10SM CLR 16/11 A3021 RMK AO2 SLP230 T01560106 10156 20100 51007=
201707031653 METAR KCLM 031653Z AUTO 31007KT 10SM CLR 14/10 A3021 RMK AO2 SLP229 T01440100=
201707031553 METAR KCLM 031553Z AUTO 31009KT 10SM BKN049 14/09 A3020 RMK AO2 SLP225 T01390094=
201707031453 METAR KCLM 031453Z AUTO 30005KT 10SM SCT048 13/09 A3019 RMK AO2 SLP223 T01330094 53012=
201707031353 METAR KCLM 031353Z AUTO 27006KT 10SM BKN038 13/09 A3017 RMK AO2 SLP218 T01280089=
201707031253 METAR KCLM 031253Z AUTO 29004KT 10SM CLR 10/08 A3017 RMK AO2 SLP215 T01000083=
201707031153 METAR KCLM 031153Z AUTO 28007KT 10SM CLR 10/08 A3015 RMK AO2 SLP211 T01000083 10128 20094 53007=
201707031053 METAR KCLM 031053Z AUTO 28008KT 10SM CLR 11/09 A3014 RMK AO2 SLP207 T01060089=
201707030953 METAR KCLM 030953Z AUTO 29008KT 10SM FEW037 11/09 A3014 RMK AO2 SLP206 T01110089=
201707030853 METAR KCLM 030853Z AUTO 28008KT 10SM CLR 12/09 A3013 RMK AO2 SLP204 T01170089 53005=
201707030753 METAR KCLM 030753Z AUTO 28011KT 10SM CLR 12/09 A3013 RMK AO2 SLP203 T01220094 402060111=
201707030653 METAR KCLM 030653Z AUTO 29014G19KT 10SM CLR 12/10 A3012 RMK AO2 SLP199 T01220100=
201707030553 METAR KCLM 030553Z AUTO 27009KT 10SM CLR 13/11 A3012 RMK AO2 SLP198 T01280106 10189 20128 53007=
201707030453 METAR KCLM 030453Z AUTO 28010G16KT 10SM CLR 13/11 A3011 RMK AO2 SLP195 T01280111=
201707030353 METAR KCLM 030353Z AUTO 28016G22KT 10SM CLR 14/11 A3009 RMK AO2 PK WND 29026/0308 SLP190 T01390111=
201707030253 METAR KCLM 030253Z AUTO 29010G20KT 10SM CLR 15/12 A3010 RMK AO2 SLP191 T01500117 55000=
201707030226 SPECI KCLM 030226Z AUTO 30010G18KT 10SM SCT013 15/12 A3009 RMK AO2 T01500117=
201707030153 METAR KCLM 030153Z AUTO 30012G20KT 10SM OVC010 15/12 A3009 RMK AO2 PK WND 30026/0107 SLP191 T01500122=
201707030146 SPECI KCLM 030146Z AUTO 29014G21KT 10SM OVC009 14/12 A3010 RMK AO2 PK WND 30026/0107 T01440122=
201707030053 METAR KCLM 030053Z AUTO 30016G24KT 10SM BKN011 16/13 A3010 RMK AO2 SLP191 T01560128=
201707030049 SPECI KCLM 030049Z AUTO 30017G25KT 10SM BKN011 16/13 A3010 RMK AO2=
201707022353 METAR KCLM 022353Z AUTO 31010KT 10SM CLR 19/13 A3009 RMK AO2 SLP189 T01890128 10206 20172 56001=
201707022253 METAR KCLM 022253Z AUTO 32011G18KT 10SM CLR 20/13 A3009 RMK AO2 SLP189 T02000133=
201707022153 METAR KCLM 022153Z AUTO 30013G18KT 10SM CLR 19/13 A3009 RMK AO2 SLP189 T01890133=
201707022053 METAR KCLM 022053Z AUTO 30010G18KT 10SM CLR 19/13 A3009 RMK AO2 SLP190 T01890128 53001=
201707021953 METAR KCLM 021953Z AUTO 32008G16KT 10SM CLR 18/13 A3009 RMK AO2 SLP189 T01780128=
201707021853 METAR KCLM 021853Z AUTO 33009KT 10SM CLR 18/13 A3009 RMK AO2 SLP189 T01780128=
201707021753 METAR KCLM 021753Z AUTO 31008KT 10SM CLR 18/13 A3009 RMK AO2 SLP189 T01780128 10178 20111 50002=
201707021653 METAR KCLM 021653Z AUTO 31008KT 10SM CLR 17/12 A3009 RMK AO2 SLP191 T01670122=
201707021553 METAR KCLM 021553Z AUTO 32006KT 10SM CLR 16/12 A3009 RMK AO2 SLP189 T01560117=
201707021453 METAR KCLM 021453Z AUTO 29006KT 10SM CLR 15/12 A3008 RMK AO2 SLP187 T01500117 50001=
201707021353 METAR KCLM 021353Z AUTO 28005KT 10SM SCT011 13/11 A3009 RMK AO2 SLP188 T01330111=
201707021331 SPECI KCLM 021331Z AUTO 28005KT 10SM FEW010 12/11 A3008 RMK AO2 T01220111=
201707021253 METAR KCLM 021253Z AUTO 28007KT 10SM OVC012 12/11 A3008 RMK AO2 SLP187 T01220111=
201707021205 SPECI KCLM 021205Z AUTO 28007KT 10SM BKN012 12/11 A3008 RMK AO2 T01170106=
201707021153 METAR KCLM 021153Z AUTO 28009KT 10SM FEW012 11/11 A3008 RMK AO2 SLP185 T01110106 10122 20111 53004=
201707021053 METAR KCLM 021053Z AUTO 28007KT 10SM CLR 11/11 A3007 RMK AO2 SLP182 T01110106=
201707020953 METAR KCLM 020953Z AUTO 28008KT 10SM CLR 12/11 A3006 RMK AO2 SLP181 T01170106=
201707020853 METAR KCLM 020853Z AUTO 28009KT 10SM CLR 12/11 A3007 RMK AO2 SLP181 T01170106 58001=
201707020753 METAR KCLM 020753Z AUTO 28009KT 10SM CLR 12/11 A3007 RMK AO2 SLP181 T01170106 401670100=
201707020653 METAR KCLM 020653Z AUTO 29009KT 10SM CLR 12/11 A3007 RMK AO2 SLP183 T01170106=
201707020553 METAR KCLM 020553Z AUTO 29013KT 10SM CLR 12/11 A3007 RMK AO2 SLP182 T01220111 10167 20122 56002=
201707020453 METAR KCLM 020453Z AUTO 29011G16KT 10SM CLR 12/11 A3008 RMK AO2 SLP184 T01220106=
201707020353 METAR KCLM 020353Z AUTO 28011KT 10SM CLR 13/11 A3007 RMK AO2 SLP181 T01330106=
201707020253 METAR KCLM 020253Z AUTO 30009G14KT 10SM CLR 15/11 A3007 RMK AO2 SLP184 T01500111 56002=
201707020153 METAR KCLM 020153Z AUTO 31011G16KT 10SM CLR 16/11 A3008 RMK AO2 SLP185 T01560111=
201707020053 METAR KCLM 020053Z AUTO 32012G18KT 10SM CLR 16/11 A3008 RMK AO2 SLP184 T01610106=
201707012353 METAR KCLM 012353Z AUTO 31009KT 10SM CLR 16/11 A3008 RMK AO2 SLP186 T01610106 10167 20139 56005=
201707012253 METAR KCLM 012253Z AUTO 30011KT 10SM CLR 16/10 A3009 RMK AO2 SLP188 T01610100=
201707012153 METAR KCLM 012153Z AUTO 32012KT 290V350 10SM CLR 16/10 A3009 RMK AO2 SLP188 T01560100=
201707012053 METAR KCLM 012053Z AUTO 31011G16KT 10SM CLR 16/10 A3010 RMK AO2 SLP191 T01610100 51000=
201707011953 METAR KCLM 011953Z AUTO 33009KT 10SM CLR 16/11 A3010 RMK AO2 SLP191 T01560106=
201707011853 METAR KCLM 011853Z AUTO 30009G17KT 10SM CLR 15/11 A3010 RMK AO2 SLP191 T01500106=
201707011753 METAR KCLM 011753Z AUTO 31011G18KT 10SM CLR 14/10 A3009 RMK AO2 SLP191 T01440100 10144 20100 53004=
201707011653 METAR KCLM 011653Z AUTO 30012KT 10SM CLR 14/10 A3009 RMK AO2 SLP189 T01440100=
201707011553 METAR KCLM 011553Z AUTO 31009KT 10SM SCT013 13/10 A3008 RMK AO2 SLP187 T01330100=
201707011453 METAR KCLM 011453Z AUTO 29010KT 10SM CLR 13/10 A3008 RMK AO2 SLP187 T01280100 51009=
201707011353 METAR KCLM 011353Z AUTO 28012KT 10SM CLR 11/09 A3008 RMK AO2 SLP185 T01110094=
201707011253 METAR KCLM 011253Z AUTO 28008KT 10SM CLR 10/09 A3008 RMK AO2 SLP185 T01000094=
201707011153 METAR KCLM 011153Z AUTO 27011KT 10SM CLR 11/09 A3006 RMK AO2 SLP177 T01060094 10122 20106 52016=
201707011053 METAR KCLM 011053Z AUTO 29010KT 10SM CLR 11/09 A3004 RMK AO2 SLP172 T01060094=
201707010953 METAR KCLM 010953Z AUTO 28011G16KT 10SM CLR 11/09 A3003 RMK AO2 SLP167 T01110094=
201707010853 METAR KCLM 010853Z AUTO 29012G20KT 10SM CLR 11/09 A3001 RMK AO2 SLP162 T01110094 51001=
201707010753 METAR KCLM 010753Z AUTO 28012KT 10SM CLR 12/09 A3001 RMK AO2 SLP161 T01170094 402060100=
201707010653 METAR KCLM 010653Z AUTO 29010KT 10SM CLR 12/10 A3001 RMK AO2 SLP161 T01170100=
201707010553 METAR KCLM 010553Z AUTO 29013KT 10SM CLR 12/11 A3001 RMK AO2 SLP161 T01220106 10183 20122 53001=
201707010453 METAR KCLM 010453Z AUTO 28009KT 10SM CLR 12/11 A3000 RMK AO2 SLP159 T01220111=
201707010353 METAR KCLM 010353Z AUTO 29010KT 10SM CLR 13/11 A3000 RMK AO2 SLP157 T01280111=
201707010253 METAR KCLM 010253Z AUTO 29011G18KT 9SM CLR 14/12 A3000 RMK AO2 SLP159 T01390117 56004=
201707010153 METAR KCLM 010153Z AUTO 31008KT 10SM CLR 16/12 A3000 RMK AO2 SLP159 T01560122=
201707010053 METAR KCLM 010053Z AUTO 32009KT 10SM BKN080 18/13 A3001 RMK AO2 SLP162 T01780128=

# No short TAF reports from KCLM in databse.

###################################
#  large TAF from KCLM
###################################
201707312320 TAF KCLM 312320Z 0100/0124 VRB04KT P6SM SKC FM010100 30005KT P6SM
                       SKC FM011000 VRB03KT P6SM SKC FM011600 08009KT
                       P6SM SKC FM012000 05006KT P6SM SKC=
201707311720 TAF KCLM 311720Z 3118/0118 03006KT P6SM SKC FM010000 29005KT P6SM
                       SKC FM011000 VRB03KT P6SM SKC FM011600 08009KT
                       P6SM SKC=
201707311120 TAF KCLM 311120Z 3112/0112 24007KT P6SM SKC FM311900 02006KT P6SM
                       SKC FM010000 29005KT P6SM SKC=
201707310536 TAF KCLM 310536Z 3106/0106 28011KT P6SM SKC FM311100 27006KT P6SM
                       SKC FM311900 01008KT P6SM SKC FM010000 31005KT
                       P6SM SKC=
201707302324 TAF KCLM 302324Z 3100/3124 31010G18KT P6SM SKC FM310900 28006KT
                       P6SM SKC FM311700 01007KT P6SM SKC=
201707301720 TAF KCLM 301720Z 3018/3118 29010KT P6SM SCT012 SCT020
                      TEMPO 3018/3020 SCT012 BKN020 FM302000 30008KT
                       P6SM SKC FM310100 30009G16KT P6SM SKC FM310700
                       28006KT P6SM SKC FM311300 VRB04KT P6SM SKC=
201707301524 KCLM 301524Z 3015/3112 27008KT P6SM SCT005 BKN013 FM301800 32008KT
                       P6SM SCT020 FM302000 32009KT P6SM SKC FM310000
                       30006KT P6SM SKC=
201707301416 KCLM 301416Z 3014/3112 27006KT P6SM OVC004 FM301600 30005KT 5SM
                       BR OVC007 FM301800 32008KT P6SM OVC007 FM302100
                       32009KT P6SM SKC FM310000 30006KT P6SM SKC=
201707301120 TAF KCLM 301120Z 3012/3112 25003KT P6SM SKC FM301500 30007KT 5SM
                       BR OVC007 FM301800 32008KT P6SM OVC007 FM302100
                       32009KT P6SM SKC FM310000 30006KT P6SM SKC=
201707300520 TAF KCLM 300520Z 3006/3106 29008KT P6SM SKC FM300800 29005KT P6SM
                       SCT025
                      TEMPO 3008/3012 BKN025 FM301200 29005KT P6SM
                       OVC025 FM301800 32009G15KT P6SM SKC FM310500
                       29009KT P6SM SKC=
201707292320 TAF KCLM 292320Z 3000/3024 30010G20KT P6SM SKC FM300600 28008KT
                       P6SM SCT020 FM301000 27006KT P6SM OVC016
                       FM301700 30007KT P6SM BKN025 FM301900 31008KT
                       P6SM SKC=
201707291720 TAF KCLM 291720Z 2918/3018 33006KT P6SM SKC FM300100 31008G15KT
                       P6SM SKC FM300300 29010G18KT P6SM SKC FM300700
                       28009KT P6SM SCT020 FM300900 27006KT P6SM
                       OVC016=
201707291120 TAF KCLM 291120Z 2912/3012 27008KT P6SM SKC FM291800 33006KT P6SM
                       SKC FM292100 31008G15KT P6SM SKC FM300500
                       29011G17KT P6SM SKC FM300800 28009KT P6SM
                       OVC019=
201707290524 TAF KCLM 290524Z 2906/3006 28010KT P6SM SKC FM291300 30004KT P6SM
                       SCT025 FM291800 34006KT P6SM SKC FM292100
                       31009G16KT P6SM SKC FM300500 29010KT P6SM
                       SKC=
201707282320 TAF KCLM 282320Z 2900/2924 32008KT P6SM SKC FM290100 30010G18KT
                       P6SM SKC FM290700 29008KT P6SM SKC FM291000
                       28006KT P6SM OVC020 FM291700 30007KT P6SM
                       SCT025 FM291900 30006KT P6SM SKC=
201707281720 TAF KCLM 281720Z 2818/2918 30008KT P6SM SKC FM282200 31010G20KT
                       P6SM SKC FM290700 29008KT P6SM SKC FM291000
                       28006KT P6SM OVC020 FM291700 30007KT P6SM
                       SCT025=
201707281124 TAF KCLM 281124Z 2812/2912 29005KT P6SM SCT020
                      TEMPO 2812/2816 BKN020 FM281700 31006KT P6SM
                       FEW040=
201707280524 TAF KCLM 280524Z 2806/2906 29010KT P6SM SKC FM281100 29007KT P6SM
                       BKN015 BKN040 FM281700 31006KT P6SM FEW015
                       SCT040 FM281900 33008KT P6SM FEW040=
201707272321 TAF KCLM 272321Z 2800/2824 29012G20KT P6SM SKC FM281100 29007KT
                       P6SM BKN015 BKN040 FM281700 31006KT P6SM
                       FEW015 SCT040 FM281900 33008KT P6SM FEW040=
201707271720 TAF KCLM 271720Z 2718/2818 31012KT P6SM OVC020 FM272000 31012KT
                       P6SM SCT020 BKN050 FM272100 31012KT P6SM
                       SCT050 FM280100 29012G18KT P6SM FEW050 FM281100
                       29007KT P6SM BKN015 BKN050 FM281700 31006KT
                       P6SM FEW015 SCT050=
201707271121 TAF KCLM 271121Z 2712/2812 29008KT P6SM OVC015 FM271900 31008KT
                       P6SM SCT020 BKN050 FM272100 31012KT P6SM
                       SCT050=
201707270520 TAF KCLM 270520Z 2706/2806 29012G18KT P6SM BKN250 FM270800 29008KT
                       P6SM OVC015 FM271900 31008KT P6SM SCT020
                       BKN050 FM272100 31012KT P6SM SCT050=
201707262323 TAF KCLM 262323Z 2700/2724 29012G18KT P6SM FEW050 BKN250 FM270800
                       29008KT P6SM OVC015 FM271900 31008KT P6SM
                       SCT020 BKN050 FM272100 31012KT P6SM SCT050=
201707261721 TAF KCLM 261721Z 2618/2718 32008KT P6SM SCT250 FM270100 29012G18KT
                       P6SM BKN250 FM270700 29008KT P6SM OVC015=
201707261628 KCLM 261628Z 2616/2712 29008KT P6SM FEW009 FM261800 31012KT P6SM
                       SKC=
201707261120 TAF KCLM 261120Z 2612/2712 29010KT P6SM OVC004 FM261800 31012KT
                       P6SM FEW015=
201707260807 KCLM 260807Z 2608/2706 29008KT P6SM BKN004 FM261800 31008KT P6SM
                       FEW015=
201707260523 TAF KCLM 260523Z 2606/2706 29008KT P6SM SKC
                      TEMPO 2606/2610 SCT010 FM261000 29005KT P6SM
                       BKN010 FM261800 31008KT P6SM FEW015=
201707252322 TAF KCLM 252322Z 2600/2624 29008KT P6SM SKC FM261000 29005KT P6SM
                       SCT010 FM261200 29005KT P6SM BKN010 FM261800
                       31008KT P6SM FEW015=
201707251721 TAF KCLM 251721Z 2518/2618 36006KT P6SM SKC FM260200 29008KT P6SM
                       SKC FM261200 29005KT P6SM SCT010
                      TEMPO 2612/2616 BKN010=
201707251120 TAF KCLM 251120Z 2512/2612 VRB04KT P6SM FEW250 FM252000 30006KT
                       P6SM SKC=
201707250520 TAF KCLM 250520Z 2506/2606 29005KT P6SM SKC FM251000 VRB03KT P6SM
                       SKC FM251600 08006KT P6SM SKC FM252200 36006KT
                       P6SM SKC=
201707242320 TAF KCLM 242320Z 2500/2524 33006KT P6SM FEW250 FM250200 29008KT
                       P6SM SKC FM251000 VRB03KT P6SM SKC FM251600
                       08006KT P6SM SKC FM252200 36006KT P6SM SKC=
201707241720 TAF KCLM 241720Z 2418/2518 06008KT P6SM FEW250 FM242100 36008KT
                       P6SM FEW250 FM250100 29010KT P6SM SKC FM251000
                       VRB03KT P6SM SKC FM251600 08006KT P6SM SKC=
201707241123 TAF KCLM 241123Z 2412/2512 00000KT P6SM SKC
                      TEMPO 2413/2416 SCT004 FM241800 02008KT P6SM
                       SKC FM250100 29010KT P6SM SKC=
201707240525 TAF KCLM 240525Z 2406/2506 27004KT P6SM SKC FM241300 26006KT P6SM
                       SCT005 FM241800 02008KT P6SM SKC FM250100
                       29010KT P6SM SKC=
201707232320 TAF KCLM 232320Z 2400/2424 32012KT P6SM SKC FM241300 26006KT P6SM
                       SCT005 FM241700 33008KT P6SM SKC=
201707231940 KCLM 231940Z 2320/2418 30014KT P6SM FEW020 FM232100 30014KT P6SM
                       FEW040 FM240600 31012KT P6SM SKC FM241300
                       26006KT P6SM SCT005 FM241700 33008KT P6SM
                       SKC=
201707231720 TAF KCLM 231720Z 2318/2418 31008KT P6SM BKN020 FM232100 31010KT
                       P6SM SCT040 FM240600 31012KT P6SM SKC FM241300
                       26006KT P6SM SCT005 FM241700 33008KT P6SM
                       SKC=
201707231130 TAF KCLM 231130Z 2312/2412 29008KT P6SM OVC014
                      TEMPO 2313/2316 3SM BR OVC006 FM231900 32010KT
                       P6SM SCT008 OVC017 FM232100 32011KT P6SM
                       FEW250=
201707230526 TAF KCLM 230526Z 2306/2406 29007KT P6SM SCT006 OVC017
                      TEMPO 2306/2310 4SM BR BKN006 OVC017 FM231000
                       27008KT 3SM BR OVC006 FM232000 32010KT P6SM
                       SCT008 OVC017 FM232200 34007KT P6SM SCT025=
201707222320 TAF KCLM 222320Z 2300/2324 29006KT P6SM BKN040 BKN070 FM230400
                       29008KT P6SM BKN015 OVC040 FM231200 28007KT
                       6SM BR SCT006 BKN010 FM231800 31010KT P6SM
                       SCT015 SCT040=
201707221742 TAF KCLM 221742Z 2218/2318 VRB03KT P6SM VCSH SCT050 BKN070 FM222200
                       32007KT P6SM VCFG SCT010 BKN035 FM230400
                       29008KT P6SM SCT015 FM231200 28007KT 6SM
                       BR SCT006 BKN010=
201707221130 TAF KCLM 221130Z 2212/2312 00000KT P6SM VCSH OVC050 FM222000 29008KT
                       P6SM SCT040 OVC060 FM230900 29010KT P6SM
                       OVC012=
201707220534 TAF KCLM 220534Z 2206/2306 00000KT P6SM VCSH BKN070 OVC090 FM221800
                       31005KT P6SM VCSH BKN050=
201707212337 TAF KCLM 212337Z 2200/2224 VRB03KT P6SM VCSH SCT050 OVC080
                      TEMPO 2200/2204 -RA FM221000 VRB03KT P6SM
                       OVC050
                      TEMPO 2210/2214 -RA FM221800 32006KT P6SM
                       VCFG SCT015 BKN030=
201707212100 KCLM 212100Z 2121/2218 VRB03KT P6SM VCSH SCT050 OVC080 FM221000
                       VRB03KT P6SM OVC050
                      TEMPO 2210/2214 -RA FM221600 VRB03KT P6SM
                       SCT025 OVC040=
201707211738 TAF KCLM 211738Z 2118/2218 34004KT P6SM FEW030 OVC100 FM221000
                       VRB03KT P6SM OVC050
                      TEMPO 2210/2214 -RA FM221600 VRB03KT P6SM
                       SCT025 OVC040=
201707211130 TAF KCLM 211130Z 2112/2212 28006KT P6SM BKN035
                      TEMPO 2113/2116 BKN015 FM211600 28004KT P6SM
                       FEW020 BKN150 FM212200 34005KT P6SM OVC100
                       FM220400 26004KT P6SM OVC060
                      PROB30 2206/2212 -RA OVC050=
201707210530 TAF KCLM 210530Z 2106/2206 27005KT P6SM SCT023 FM210900 27005KT
                       P6SM OVC015 FM211600 28004KT P6SM FEW020
                       BKN150 FM212200 34005KT P6SM OVC100=
201707202320 TAF KCLM 202320Z 2100/2124 31007KT P6SM OVC035 FM210300 29008KT
                       P6SM SCT080 FM210900 27005KT P6SM OVC015
                       FM211600 28004KT P6SM FEW020 BKN150 FM211900
                       34005KT P6SM OVC100=
201707202120 KCLM 202120Z 2021/2118 30008KT P6SM SCT025 BKN050
                      TEMPO 2021/2024 BKN025 OVC050 FM210300 29008KT
                       P6SM SCT080 FM210900 27003KT P6SM OVC015
                       FM211600 28004KT P6SM FEW020 BKN150=
201707201720 TAF KCLM 201720Z 2018/2118 33006KT P6SM SCT050 BKN080 FM210300
                       29008KT P6SM SCT080 FM210900 27003KT P6SM
                       OVC015 FM211600 28004KT P6SM FEW020 BKN150=
201707201122 TAF KCLM 201122Z 2012/2112 22003KT P6SM SCT015 BKN090 FM201300
                       28005KT P6SM VCSH BKN015 OVC040 FM201900
                       32006KT P6SM SCT030 BKN050 FM210300 29008KT
                       P6SM SCT080 FM210900 27003KT P6SM OVC015=
201707200721 TAF KCLM 200721Z 2006/2106 30007KT P6SM FEW090 FM200900 28005KT
                       P6SM BKN015 OVC040 FM201900 32006KT P6SM
                       SCT030 BKN050=
201707192321 TAF KCLM 192321Z 2000/2024 30008KT P6SM FEW070 SCT250 FM200300
                       29008KT P6SM BKN070 BKN100 FM200900 28005KT
                       P6SM BKN015 OVC040 FM201900 32006KT P6SM
                       SCT030 BKN050=
201707191721 TAF KCLM 191721Z 1918/2018 33006KT P6SM FEW250 FM200000 29008KT
                       P6SM BKN080 FM201400 28005KT P6SM BKN020
                       OVC050=
201707191120 TAF KCLM 191120Z 1912/2012 28005KT P6SM FEW010 SCT250 FM191900
                       33006KT P6SM SCT250 FM192300 30008KT P6SM
                       SCT050 BKN100 FM200600 28005KT P6SM SCT025
                       OVC050=
201707190520 TAF KCLM 190520Z 1906/2006 29010KT P6SM FEW250 FM191300 28005KT
                       P6SM FEW010 SCT250 FM191900 33006KT P6SM
                       SCT250 FM192300 30008KT P6SM BKN100=
201707182320 TAF KCLM 182320Z 1900/1924 32006KT P6SM FEW250 FM190100 29010KT
                       P6SM FEW250 FM191300 28005KT P6SM FEW010
                       SCT250 FM191900 33006KT P6SM SCT250=
201707181726 TAF KCLM 181726Z 1818/1918 33006KT P6SM FEW010 FM190100 29010KT
                       P6SM FEW250 FM191300 28005KT P6SM FEW010
                       SCT250=
201707181120 TAF KCLM 181120Z 1812/1912 30006KT P6SM FEW250 FM181700 35006KT
                       P6SM FEW250 FM190100 29010KT P6SM FEW250=
201707180520 TAF KCLM 180520Z 1806/1906 30006KT P6SM FEW250 FM181700 35006KT
                       P6SM FEW250 FM190100 29010KT P6SM FEW250=
201707172320 TAF KCLM 172320Z 1800/1824 02006KT P6SM FEW250 FM180500 30006KT
                       P6SM FEW250=
201707171727 TAF KCLM 171727Z 1718/1818 06003KT P6SM SCT250 FM180500 27007KT
                       P6SM FEW250=
201707171120 TAF KCLM 171120Z 1712/1812 27007KT P6SM FEW250 FM171800 35007KT
                       P6SM FEW250 FM180200 28006KT P6SM SKC=
201707170520 TAF KCLM 170520Z 1706/1806 27007KT P6SM SCT250 FM171800 35007KT
                       P6SM FEW250 FM180200 28005KT P6SM SKC=
201707162329 TAF KCLM 162329Z 1700/1724 32010G18KT P6SM SKC FM170400 27007KT
                       P6SM SCT250 FM171800 36007KT P6SM BKN250=
201707161739 TAF KCLM 161739Z 1618/1718 32007KT P6SM OVC070 FM162300 31010G16KT
                       P6SM SCT070 FM170400 27007G15KT P6SM SCT250=
201707161120 TAF KCLM 161120Z 1612/1712 27008KT P6SM SCT035 FM161700 32010KT
                       P6SM SCT035 BKN050 FM162200 31010G16KT P6SM
                       SCT050 SCT250 FM170200 28009KT P6SM SCT250=
201707160521 TAF KCLM 160521Z 1606/1706 27010KT P6SM SCT020 BKN040 FM161200
                       27008KT P6SM OVC020 FM161600 30009KT P6SM
                       BKN035 FM161700 32010G16KT P6SM SCT025 BKN045
                       FM162200 31010KT P6SM SCT045 SCT250 FM170200
                       28007KT P6SM SCT250=
201707152331 TAF KCLM 152331Z 1600/1624 30011G17KT P6SM FEW030 BKN050 FM160400
                       29013G20KT P6SM SCT020 BKN040 FM161200 27008KT
                       P6SM OVC020 FM161600 30009KT P6SM BKN035
                       FM161700 32010G16KT P6SM SCT025 BKN045=
201707152102 TAF AMD KCLM 152102Z 1521/1618 31012G23KT P6SM FEW045 FM152200
                       31013G23KT P6SM SCT100 SCT250 FM160700 28012KT
                       P6SM SCT020 OVC040 FM161000 27008KT P6SM
                       OVC020 FM161600 31008KT P6SM SCT020 BKN050=
201707151720 TAF KCLM 151720Z 1518/1618 31007KT P6SM SKC FM152200 31013KT P6SM
                       SCT100 SCT250 FM160700 28012KT P6SM SCT020
                       OVC040 FM161000 27008KT P6SM OVC020 FM161600
                       31008KT P6SM SCT020 BKN050=
201707151120 TAF KCLM 151120Z 1512/1612 28005KT P6SM FEW250 FM151600 31008KT
                       P6SM SCT100 SCT250 FM152200 29015G23KT P6SM
                       SCT050 BKN100 FM160800 27011KT P6SM SCT020
                       OVC040=
201707150520 TAF KCLM 150520Z 1506/1606 27010KT P6SM SKC FM150900 28008KT P6SM
                       SCT250 FM151600 31008KT P6SM SCT100 SCT250
                       FM152200 29015G23KT P6SM BKN100=
201707142325 TAF KCLM 142325Z 1500/1524 31010KT P6SM SKC FM150900 30008G15KT
                       P6SM SCT250=
201707141720 TAF KCLM 141720Z 1418/1518 32006KT P6SM FEW250 FM142000 30009G15KT
                       P6SM SCT250 FM150900 29007KT P6SM SCT250=
201707141120 TAF KCLM 141120Z 1412/1512 25006KT P6SM SKC FM141500 29006KT P6SM
                       SKC FM141800 33009KT P6SM SKC FM150300 28009KT
                       P6SM SCT250=
201707140904 KCLM 140904Z 1409/1506 25006KT P6SM SKC FM141800 33009KT P6SM SKC
                       FM150300 29008KT P6SM SKC=
201707140543 TAF KCLM 140543Z 1406/1506 28006KT P6SM SKC FM141800 33009KT P6SM
                       SKC FM150300 29008KT P6SM SKC=
201707140227 KCLM 140227Z 1402/1424 28008KT P6SM FEW050 FM141400 27004KT P6SM
                       SKC FM141900 32007KT P6SM SKC=
201707132320 TAF KCLM 132320Z 1400/1424 33007KT P6SM OVC040 FM140300 28008KT
                       P6SM SKC FM141400 27004KT P6SM SKC FM141900
                       32007KT P6SM SKC=
201707132102 KCLM 132102Z 1321/1418 30007KT P6SM OVC035 FM140000 29012KT P6SM
                       SCT050 FM140600 28006KT P6SM SKC FM141400
                       30003KT P6SM SKC=
201707131720 TAF KCLM 131720Z 1318/1418 30009KT P6SM OVC025 FM132000 32012KT
                       P6SM FEW028 BKN050 FM140000 29012KT P6SM
                       FEW050 FM140600 28006KT P6SM SKC FM141400
                       30003KT P6SM SKC=
201707131438 KCLM 131438Z 1315/1412 32003KT P6SM OVC025 FM131900 32012KT P6SM
                       FEW028 BKN050 FM140000 29010KT P6SM FEW050
                       FM140600 28006KT P6SM FEW022 FEW120=
201707131120 TAF KCLM 131120Z 1312/1412 28005KT P6SM FEW022 BKN070 FM131400
                       28005KT P6SM SCT018 BKN050
                      TEMPO 1314/1318 BKN018 BKN050 FM131800 32012KT
                       P6SM FEW028 BKN050 FM140000 29010KT P6SM
                       FEW050 FM140600 28006KT P6SM FEW022 FEW120=
201707131118 KCLM 131118Z 1311/1406 28006KT P6SM FEW018 BKN070 FM131800 32009KT
                       P6SM BKN025 BKN050 FM132000 32012KT P6SM
                       FEW030 BKN050 FM140000 29010KT P6SM FEW050=
201707130904 KCLM 130904Z 1309/1406 27006KT P6SM FEW018 SCT070
                      TEMPO 1309/1311 FEW018 BKN070 FM131100 28006KT
                       P6SM BKN018 OVC050 FM131800 32009KT P6SM
                       BKN025 BKN050 FM132000 32012KT P6SM FEW030
                       BKN050 FM140000 29010KT P6SM FEW050=
201707130532 TAF KCLM 130532Z 1306/1406 28008KT P6SM SCT070 FM130800 28008KT
                       P6SM SCT018 OVC070 FM131100 28006KT P6SM
                       BKN018 OVC050 FM131800 32009KT P6SM BKN025
                       BKN050 FM132000 32012KT P6SM FEW030 BKN050
                       FM140000 29010KT P6SM FEW050=
201707122327 TAF KCLM 122327Z 1300/1324 30013KT P6SM SKC FM130400 29009KT P6SM
                       SKC FM131000 28006KT P6SM BKN022 FM131900
                       32010KT P6SM SCT050=
201707121854 KCLM 121854Z 1219/1318 30010KT P6SM BKN080 FM122200 30010G17KT
                       P6SM SCT080 BKN250 FM130300 29010KT P6SM
                       SCT025 BKN250 FM130800 28006KT P6SM OVC022=
201707121725 TAF KCLM 121725Z 1218/1318 31006KT P6SM BKN022 OVC080 FM122000
                       32010KT P6SM SCT030 SCT080 BKN250 FM130300
                       29010KT P6SM SCT025 BKN250 FM130800 28006KT
                       P6SM OVC022=
201707121139 TAF KCLM 121139Z 1212/1312 28007KT P6SM SKC FM121400 29007KT P6SM
                       SCT050 FM121900 32010KT P6SM SCT250 FM130300
                       29008KT P6SM SKC FM130800 28006KT P6SM BKN025=
201707120536 TAF KCLM 120536Z 1206/1306 27009KT P6SM SCT120 FM121100 29004KT
                       P6SM BKN025 FM121900 32010KT P6SM SCT250
                       FM130300 29008KT P6SM SKC=
201707112320 TAF KCLM 112320Z 1200/1224 31010G15KT P6SM SCT250 FM120600 29009KT
                       P6SM SCT250 FM121100 29004KT P6SM BKN030
                       FM121900 32010KT P6SM SCT250=
201707111720 TAF KCLM 111720Z 1118/1218 31009KT P6SM SKC FM112200 30012G17KT
                       P6SM SCT250 FM120600 29009KT P6SM SCT250
                       FM121100 29004KT P6SM OVC020=
201707111412 KCLM 111412Z 1114/1212 27005KT P6SM SCT050 FM111800 32007KT P6SM
                       SCT035 SCT050 FM112100 31009KT P6SM SKC
                       FM120600 29008KT P6SM SCT030=
201707111153 TAF KCLM 111153Z 1112/1212 25006KT P6SM FEW040 FM111400 27005KT
                       P6SM BKN025 FM111800 32007KT P6SM SCT035
                       SCT050 FM112100 31009KT P6SM SKC FM120600
                       29008KT P6SM SCT030=
201707110545 TAF KCLM 110545Z 1106/1206 29010KT P6SM BKN120 FM111000 28013KT
                       P6SM BKN020 FM111400 30005KT P6SM BKN030
                       FM111800 32007KT P6SM SCT035 SCT050 FM120000
                       31012KT P6SM SKC=
201707102321 TAF KCLM 102321Z 1100/1124 31012G18KT P6SM OVC100 FM110800 28013KT
                       P6SM BKN020 FM111400 29005KT P6SM BKN020
                       FM111800 32007KT P6SM SCT035 SCT050=
201707101725 TAF KCLM 101725Z 1018/1118 29009KT P6SM SCT050 FM102000 33008KT
                       P6SM SCT050 BKN120 FM110000 31012G20KT P6SM
                       SCT120 FM110800 28011KT P6SM BKN020 FM111500
                       29005KT P6SM BKN020=
201707101434 KCLM 101434Z 1015/1112 29009KT P6SM SCT050 FM102000 33008KT P6SM
                       SCT050 BKN120 FM110000 31012G20KT P6SM SCT120
                       FM110800 28010KT P6SM BKN025=
201707101138 TAF KCLM 101138Z 1012/1112 29006KT P6SM BKN050 FM101400 30006KT
                       P6SM BKN030 FM102000 33008KT P6SM SCT030
                       BKN120 FM110000 31012G20KT P6SM SCT120 FM110800
                       28010KT P6SM BKN025=
201707100550 TAF KCLM 100550Z 1006/1106 27008KT P6SM FEW060 FM100800 28009KT
                       P6SM BKN030 FM101100 27006KT P6SM OVC020
                       FM102000 33008KT P6SM SCT030 SCT200 FM110000
                       31012G20KT P6SM SCT060=
201707092328 TAF KCLM 092328Z 1000/1024 28012G20KT P6SM SCT060 SCT200 FM100600
                       32010KT P6SM OVC030 FM101100 27006KT P6SM
                       OVC020 FM101800 27008KT P6SM SCT030 SCT200=
201707091720 TAF KCLM 091720Z 0918/1018 31009KT P6SM OVC080 FM092100 30009KT
                       P6SM SCT030 BKN050 FM100300 32012KT P6SM
                       OVC030=
201707091618 KCLM 091618Z 0916/1012 28008KT P6SM SCT004 BKN060 FM091800 31009KT
                       P6SM SCT020 BKN060 FM092100 30006KT P6SM
                       SCT030 BKN050 FM100300 32006KT P6SM OVC030=
201707091545 KCLM 091545Z 0916/1012 28008KT P6SM BKN004 FM091800 31009KT P6SM
                       SCT020 FM092100 30006KT P6SM SCT030 BKN050
                       FM100300 32006KT P6SM OVC030=
201707091147 TAF KCLM 091147Z 0912/1012 28008KT P6SM SCT050 BKN120 FM091600
                       31009KT P6SM BKN060 FM092100 30006KT P6SM
                       SCT030 BKN050 FM100300 32006KT P6SM OVC030=
201707090540 TAF KCLM 090540Z 0906/1006 30009KT P6SM SCT200 FM090900 29008KT
                       P6SM SCT250 FM091200 28004KT P6SM SCT050
                       BKN150 FM091600 31009KT P6SM OVC050 FM092100
                       30006KT P6SM SCT030 BKN050=
201707082323 TAF KCLM 082323Z 0900/0924 30009KT P6SM FEW015 SCT200 FM090900
                       29008KT P6SM SCT250 FM091200 28004KT P6SM
                       SCT050 BKN150 FM091600 31009KT P6SM OVC050
                       FM092100 30006KT P6SM SCT030 BKN050=
201707081733 TAF KCLM 081733Z 0818/0918 36004KT P6SM SKC FM090100 29012G22KT
                       P6SM SCT250 FM090900 29008KT P6SM SCT250
                       FM091200 26007KT P6SM SCT050 BKN150 FM091600
                       31005KT P6SM BKN070=
201707081124 TAF KCLM 081124Z 0812/0912 29006KT P6SM BKN250 FM081800 31008KT
                       P6SM SCT250 FM090100 29012G22KT P6SM SCT250
                       FM090900 29008KT P6SM SCT250=
201707080520 TAF KCLM 080520Z 0806/0906 29010KT P6SM BKN250 FM081300 29006KT
                       P6SM SCT011 BKN250
                      TEMPO 0813/0816 BKN011 FM081800 31008KT P6SM
                       SCT250 FM090100 29012G22KT P6SM SCT250=
201707080302 KCLM 080302Z 0803/0824 30012G22KT P6SM BKN250 FM080800 29010KT
                       P6SM SCT012 BKN250
                      TEMPO 0812/0816 OVC012 FM081800 31008KT P6SM
                       SCT020 SCT250=
201707072324 TAF KCLM 072324Z 0800/0824 32012G24KT P6SM SCT250 FM080800 29010KT
                       P6SM SCT012 BKN250
                      TEMPO 0812/0816 OVC012 FM081800 31008KT P6SM
                       SCT020 SCT250=
201707071720 TAF KCLM 071720Z 0718/0818 30010G20KT P6SM FEW025 SCT250 FM072300
                       31012G24KT P6SM BKN250 FM081200 29006KT
                       P6SM SCT012 BKN250
                      TEMPO 0813/0817 OVC012=
201707071121 TAF KCLM 071121Z 0712/0812 29010KT P6SM SKC FM071300 30010KT P6SM
                       VCFG SCT006 FM071700 29007KT P6SM SCT250
                       FM072300 31012KT P6SM BKN250=
201707070532 TAF KCLM 070532Z 0706/0806 29010KT P6SM SKC FM071300 30010KT P6SM
                       VCFG BKN006 FM071700 29007KT P6SM SKC FM072300
                       31012KT P6SM SCT250=
201707062321 TAF KCLM 062321Z 0700/0724 31009KT P6SM SKC FM070600 29010KT P6SM
                       SKC FM071300 30010G17KT P6SM OVC006 FM071600
                       29007KT P6SM SKC=
201707061728 TAF KCLM 061728Z 0618/0718 33008KT P6SM SKC FM062200 31008KT P6SM
                       SKC FM070600 29009KT P6SM SKC FM071400 29007KT
                       P6SM OVC010 FM071700 31009KT P6SM SCT012=
201707061120 TAF KCLM 061120Z 0612/0712 29010KT P6SM VCFG SKC FM061700 31006KT
                       P6SM SKC FM070000 31010KT P6SM SKC=
201707060520 TAF KCLM 060520Z 0606/0706 28007KT P6SM SKC FM061200 28007KT P6SM
                       VCFG SCT003
                      TEMPO 0613/0616 1/2SM FG VV002 FM061700 31006KT
                       P6SM SKC FM070000 32010KT P6SM SKC=
201707052320 TAF KCLM 052320Z 0600/0624 33008KT P6SM SKC FM061200 27007KT 3SM
                       BR BKN003
                      TEMPO 0612/0616 1/2SM FG VV002 FM061700 33006KT
                       P6SM SCT005 FM061900 33006KT P6SM SKC=
201707051720 TAF KCLM 051720Z 0518/0618 33006KT P6SM SKC FM060200 30010KT P6SM
                       SKC FM061200 27007KT 3SM BR BKN003
                      TEMPO 0612/0616 1/2SM FG VV002 FM061700 33006KT
                       P6SM SCT005=
201707051121 TAF KCLM 051121Z 0512/0612 29003KT P6SM SKC FM051800 01006KT P6SM
                       SKC FM060100 29006KT P6SM SKC=
201707050522 TAF KCLM 050522Z 0506/0606 27005KT P6SM SKC FM051800 01006KT P6SM
                       SKC FM060100 29006KT P6SM SKC=
201707042320 TAF KCLM 042320Z 0500/0524 30008KT P6SM SKC FM051200 VRB03KT P6SM
                       SKC FM051800 30008KT P6SM SKC=
201707041720 TAF KCLM 041720Z 0418/0518 VRB03KT P6SM SCT250 FM042200 34008KT
                       P6SM SCT250 FM050300 29010KT P6SM SKC=
201707041120 TAF KCLM 041120Z 0412/0512 25004KT P6SM BKN250 FM041700 34008KT
                       P6SM BKN250 FM050100 29008KT P6SM SCT250=
201707040520 TAF KCLM 040520Z 0406/0506 28006KT P6SM SCT250 FM041200 21005KT
                       P6SM SCT012 FM041700 34008KT P6SM SKC FM050100
                       29008KT P6SM SKC=
201707032320 TAF KCLM 032320Z 0400/0424 32008KT P6SM SCT040 FM040300 32008KT
                       P6SM SKC FM041200 21005KT P6SM BKN012 FM041600
                       30006KT P6SM SCT015 FM041800 30010KT P6SM
                       SKC=
201707031727 TAF KCLM 031727Z 0318/0418 30010KT P6SM FEW040 FM040200 30012KT
                       P6SM SKC FM041000 VRB03KT P6SM SCT005
                      TEMPO 0410/0412 3SM BR BKN005 FM041200 VRB03KT
                       3SM BR OVC005 FM041700 30006KT P6SM SCT010=
201707031558 KCLM 031558Z 0316/0412 31010KT P6SM SCT040
                      TEMPO 0316/0320 BKN040 FM040200 32012KT P6SM
                       SKC FM041100 21005KT P6SM SCT005=
201707031120 TAF KCLM 031120Z 0312/0412 28008KT P6SM FEW015 SCT040 FM031400
                       29006KT P6SM BKN015 BKN040 FM031900 33010KT
                       P6SM FEW020 SCT040 FM032100 32010KT P6SM
                       SKC=
201707030522 TAF KCLM 030522Z 0306/0406 28012G18KT P6SM SKC FM031000 29010KT
                       P6SM BKN010 BKN050 FM031900 33010KT P6SM
                       SCT020 FM032100 32010KT P6SM SKC=
201707030104 KCLM 030104Z 0301/0324 29015KT P6SM SCT011
                      TEMPO 0301/0305 29015G25KT BKN011 FM031000
                       29012KT P6SM BKN010 BKN050 FM031900 33010KT
                       P6SM SCT020=
201707022320 TAF KCLM 022320Z 0300/0324 32011G18KT P6SM SKC FM031000 29012KT
                       P6SM BKN010 BKN050 FM031900 33010KT P6SM
                       SCT020=
201707022103 KCLM 022103Z 0221/0318 30010G18KT P6SM SKC FM030000 29014G22KT
                       P6SM SCT250 FM030800 29012KT P6SM BKN010
                       BKN050=
201707021736 TAF KCLM 021736Z 0218/0318 31008KT P6SM SKC FM030000 29014G22KT
                       P6SM SCT250 FM030800 29012KT P6SM BKN010
                       BKN050=
201707021601 KCLM 021601Z 0216/0312 32006KT P6SM SCT010 FM021700 31010KT P6SM
                       BKN050 FM030300 29014G22KT P6SM SCT050 FM030800
                       29012KT P6SM BKN010 BKN050=
201707021121 TAF KCLM 021121Z 0212/0312 28006KT P6SM SCT010
                      TEMPO 0213/0217 BKN010 FM021700 31010KT P6SM
                       BKN050 FM030300 29014G22KT P6SM SCT050 FM030800
                       29012KT P6SM BKN010 BKN050=
201707020524 TAF KCLM 020524Z 0206/0306 29008KT P6SM SKC FM021000 29006KT P6SM
                       SCT015 FM021700 31010KT P6SM BKN050 FM030300
                       29014G22KT P6SM SCT050=
201707020122 KCLM 020122Z 0201/0224 30013KT P6SM SKC FM020900 29008KT P6SM SCT015
                       FM021200 29004KT P6SM OVC015 FM021700 31010KT
                       P6SM SCT050 SCT250 FM022200 31012G20KT P6SM
                       SKC=
201707012333 TAF KCLM 012333Z 0200/0224 30011KT P6SM SKC FM020900 29008KT P6SM
                       SCT015 FM021200 29004KT P6SM OVC015 FM021700
                       31010KT P6SM SCT050 SCT250 FM022200 31012G20KT
                       P6SM SKC=
201707011728 TAF KCLM 011728Z 0118/0218 30012KT P6SM SKC FM020900 29006KT P6SM
                       SCT015 FM021200 29004KT P6SM OVC015=
201707011126 TAF KCLM 011126Z 0112/0212 29010KT P6SM FEW015 BKN250 FM011800
                       32010KT P6SM SKC FM020900 29006KT P6SM BKN020=
201707010931 KCLM 010931Z 0110/0206 29012G20KT P6SM SKC FM011200 29008KT P6SM
                       BKN015 FM011800 32009KT P6SM SKC=
201707010524 TAF KCLM 010524Z 0106/0206 28010KT P6SM BKN250 FM010900 29008KT
                       P6SM BKN015 FM011800 32009KT P6SM SKC=