##########################################################
# Query made at 02/16/2025 03:26:08 UTC
# Time interval: from 08/01/2017 00:00  to 08/31/2017 23:59  UTC
##########################################################

##########################################################
# KCLM, Port Angeles, William R. Fairchild International Airport (United States)
# WMO index: -----. WIGOS ID: Unknown
# Latitude 48-07-20N. Longitude 123-30-19W. Altitude 87 m.
##########################################################

###################################
#  METAR/SPECI from KCLM
###################################
201708312353 METAR KCLM 312353Z AUTO 30006KT 10SM CLR 18/12 A3016 RMK AO2 SLP213 T01780122 10200 20150 58009=
201708312253 METAR KCLM 312253Z AUTO 30008KT 10SM FEW035 19/12 A3017 RMK AO2 SLP218 T01890122=
201708312153 METAR KCLM 312153Z AUTO 31008KT 10SM OVC035 18/12 A3018 RMK AO2 SLP219 T01830122=
201708312053 METAR KCLM 312053Z AUTO 32005KT 10SM OVC036 17/13 A3019 RMK AO2 SLP222 T01720128 53000=
201708311953 METAR KCLM 311953Z AUTO 30009KT 10SM OVC034 17/13 A3019 RMK AO2 SLP222 T01720133=
201708311853 METAR KCLM 311853Z AUTO 32006KT 10SM OVC031 16/13 A3018 RMK AO2 SLP220 T01610128=
201708311753 METAR KCLM 311753Z AUTO 31006KT 10SM OVC030 16/13 A3019 RMK AO2 SLP221 T01560133 10156 20133 53009=
201708311738 SPECI KCLM 311738Z AUTO 31008KT 10SM OVC030 16/13 A3018 RMK AO2 T01560133=
201708311727 SPECI KCLM 311727Z AUTO 32006KT 10SM OVC029 16/13 A3018 RMK AO2 T01560133=
201708311713 SPECI KCLM 311713Z AUTO 30008KT 10SM FEW006 OVC030 15/13 A3018 RMK AO2 T01500133=
201708311653 METAR KCLM 311653Z AUTO 31009KT 10SM FEW006 OVC028 14/13 A3018 RMK AO2 SLP219 T01440133=
201708311638 SPECI KCLM 311638Z AUTO 32007KT 10SM FEW007 OVC029 15/14 A3017 RMK AO2 T01500139=
201708311630 SPECI KCLM 311630Z AUTO 31006KT 10SM BKN028 OVC038 15/13 A3016 RMK AO2 T01500133=
201708311600 SPECI KCLM 311600Z AUTO 27004KT 10SM SCT024 OVC038 15/14 A3016 RMK AO2 T01500139=
201708311553 METAR KCLM 311553Z AUTO 27004KT 10SM BKN024 OVC038 15/14 A3015 RMK AO2 SLP211 T01500144=
201708311523 SPECI KCLM 311523Z AUTO 00000KT 10SM FEW004 FEW018 OVC027 14/14 A3016 RMK AO2 T01390139=
201708311453 METAR KCLM 311453Z AUTO 00000KT 10SM OVC028 14/14 A3016 RMK AO2 SLP212 T01390139 51017=
201708311429 SPECI KCLM 311429Z AUTO 30004KT 10SM FEW003 BKN028 OVC035 14/14 A3015 RMK AO2 T01390139=
201708311421 SPECI KCLM 311421Z AUTO 26003KT 10SM SCT003 BKN030 OVC035 14/14 A3015 RMK AO2 T01390139=
201708311353 METAR KCLM 311353Z AUTO 27004KT 10SM OVC002 13/13 A3014 RMK AO2 SLP207 T01330133=
201708311253 METAR KCLM 311253Z AUTO 29003KT 6SM BR OVC002 13/13 A3012 RMK AO2 SLP200 T01330133=
201708311234 SPECI KCLM 311234Z AUTO 31003KT 5SM BR OVC002 13/13 A3012 RMK AO2 T01330133=
201708311222 SPECI KCLM 311222Z AUTO 35003KT 2 1/2SM BR BKN004 OVC029 13/13 A3011 RMK AO2 VIS 1 3/4V5 T01330133=
201708311153 METAR KCLM 311153Z AUTO 27003KT 10SM FEW004 OVC029 14/14 A3011 RMK AO2 SLP195 T01440144 10161 20139 50004=
201708311148 SPECI KCLM 311148Z AUTO 28005KT 10SM SCT004 OVC029 14/14 A3011 RMK AO2=
201708311053 METAR KCLM 311053Z AUTO 29006KT 10SM OVC003 14/14 A3010 RMK AO2 SLP193 T01390139=
201708310953 METAR KCLM 310953Z AUTO 33004KT 10SM OVC004 14/14 A3009 RMK AO2 SLP190 T01440144=
201708310931 SPECI KCLM 310931Z AUTO 32003KT 10SM BKN004 OVC015 16/16 A3009 RMK AO2 T01560156=
201708310920 SPECI KCLM 310920Z AUTO 29006KT 10SM SCT004 OVC015 16/16 A3008 RMK AO2 T01560156=
201708310907 SPECI KCLM 310907Z AUTO 27005KT 10SM SCT002 OVC014 16/16 A3008 RMK AO2 T01560156=
201708310853 METAR KCLM 310853Z AUTO 29005KT 7SM BKN002 OVC014 16/16 A3007 RMK AO2 SLP184 T01560156 53003=
201708310849 SPECI KCLM 310849Z AUTO 28006KT 4SM BR OVC002 16/16 A3007 RMK AO2=
201708310842 SPECI KCLM 310842Z AUTO 29007KT 2 1/2SM BR OVC002 15/15 A3007 RMK AO2 VIS 2V5 T01500150=
201708310824 SPECI KCLM 310824Z AUTO 30007KT 1 3/4SM BR OVC002 16/16 A3007 RMK AO2 VIS 3/4V3 T01560156=
201708310817 SPECI KCLM 310817Z AUTO 30006KT 3SM BR OVC002 16/16 A3007 RMK AO2 T01560156=
201708310805 SPECI KCLM 310805Z AUTO 29006KT 1 3/4SM BR OVC002 16/16 A3007 RMK AO2 T01560156=
201708310753 METAR KCLM 310753Z AUTO 29007KT 3SM BR OVC002 16/16 A3006 RMK AO2 SLP179 T01560156 402000156=
201708310653 METAR KCLM 310653Z AUTO 29009KT 5SM BR OVC002 16/16 A3007 RMK AO2 SLP181 T01560156=
201708310600 SPECI KCLM 310600Z AUTO 29008KT 10SM BKN004 OVC038 16/16 A3006 RMK AO2 T01610161=
201708310553 METAR KCLM 310553Z AUTO 29007KT 10SM SCT004 BKN035 OVC042 16/16 A3006 RMK AO2 RAB0455E05 SLP180 P0000 60000 T01610161 10200 20161 51009=
201708310541 SPECI KCLM 310541Z AUTO 29006KT 10SM FEW004 BKN036 OVC050 16/16 A3007 RMK AO2 RAB0455E05 P0000 T01610161=
201708310453 METAR KCLM 310453Z AUTO 29006KT 10SM BKN050 OVC070 16/16 A3006 RMK AO2 RAB10E51 SLP179 P0000 T01610161=
201708310353 METAR KCLM 310353Z AUTO 28010KT 10SM FEW008 BKN060 OVC085 17/16 A3005 RMK AO2 SLP175 T01720156=
201708310323 SPECI KCLM 310323Z AUTO 28010KT 10SM SCT009 BKN060 OVC080 17/16 A3004 RMK AO2 T01720156=
201708310253 METAR KCLM 310253Z AUTO 29009KT 10SM BKN011 OVC060 17/16 A3004 RMK AO2 SLP171 T01720156 53001=
201708310153 METAR KCLM 310153Z AUTO 30008KT 10SM OVC055 18/16 A3003 RMK AO2 SLP170 T01830156=
201708310053 METAR KCLM 310053Z AUTO 30011KT 10SM OVC065 18/15 A3003 RMK AO2 SLP169 T01830150=
201708302353 METAR KCLM 302353Z AUTO 33006KT 10SM OVC075 19/15 A3003 RMK AO2 SLP169 T01940150 10200 20183 53003=
201708302253 METAR KCLM 302253Z AUTO 29009KT 10SM OVC085 19/15 A3003 RMK AO2 SLP167 T01940150=
201708302153 METAR KCLM 302153Z AUTO 33007KT 10SM OVC075 19/14 A3003 RMK AO2 SLP168 T01890144=
201708302053 METAR KCLM 302053Z AUTO VRB04KT 10SM OVC080 19/14 A3002 RMK AO2 SLP167 T01890139 53005=
201708301953 METAR KCLM 301953Z AUTO 34006KT 10SM FEW070 19/13 A3002 RMK AO2 SLP164 T01940133=
201708301853 METAR KCLM 301853Z AUTO VRB05KT 10SM CLR 18/13 A3001 RMK AO2 SLP163 T01830128=
201708301805 SPECI KCLM 301805Z AUTO 03006KT 10SM SCT016 SCT023 18/13 A3001 RMK AO2 T01830133=
201708301753 METAR KCLM 301753Z AUTO 04006KT 10SM BKN016 19/13 A3001 RMK AO2 SLP162 T01890133 10189 20156 51008=
201708301653 METAR KCLM 301653Z AUTO 00000KT 10SM OVC016 17/14 A3000 RMK AO2 SLP160 T01670139=
201708301553 METAR KCLM 301553Z AUTO VRB03KT 10SM OVC016 16/14 A2999 RMK AO2 SLP157 T01610139=
201708301541 SPECI KCLM 301541Z AUTO VRB03KT 10SM OVC016 16/14 A2999 RMK AO2 T01610139=
201708301453 METAR KCLM 301453Z AUTO 00000KT 10SM OVC014 17/14 A2999 RMK AO2 SLP154 T01670139 53008=
201708301439 SPECI KCLM 301439Z AUTO 00000KT 10SM OVC015 16/14 A2998 RMK AO2 T01610144=
201708301409 SPECI KCLM 301409Z AUTO 00000KT 10SM OVC014 16/14 A2998 RMK AO2 T01560144=
201708301353 METAR KCLM 301353Z AUTO 00000KT 10SM OVC015 16/14 A2998 RMK AO2 SLP151 T01560139=
201708301325 SPECI KCLM 301325Z AUTO 00000KT 10SM OVC014 16/14 A2997 RMK AO2 T01560139=
201708301253 METAR KCLM 301253Z AUTO 00000KT 10SM OVC016 16/14 A2997 RMK AO2 SLP147 T01560139=
201708301208 SPECI KCLM 301208Z AUTO 31005KT 10SM OVC016 16/14 A2997 RMK AO2 T01560139=
201708301153 METAR KCLM 301153Z AUTO 32003KT 10SM OVC014 16/14 A2996 RMK AO2 SLP144 T01560139 10161 20150 51012=
201708301053 METAR KCLM 301053Z AUTO 31003KT 10SM OVC011 16/14 A2995 RMK AO2 SLP141 T01560139=
201708300953 METAR KCLM 300953Z AUTO 28003KT 10SM OVC012 16/14 A2994 RMK AO2 SLP137 T01560144=
201708300901 SPECI KCLM 300901Z AUTO 30004KT 10SM OVC011 16/14 A2993 RMK AO2 T01560144=
201708300853 METAR KCLM 300853Z AUTO 30003KT 10SM BKN009 OVC013 16/14 A2993 RMK AO2 CIG 008V012 SLP133 T01560144 51007=
201708300833 SPECI KCLM 300833Z AUTO 29004KT 10SM OVC009 16/14 A2993 RMK AO2 T01560144=
201708300753 METAR KCLM 300753Z AUTO 28006KT 10SM OVC011 16/14 A2992 RMK AO2 SLP131 T01560144 402280122=
201708300653 METAR KCLM 300653Z AUTO 27008KT 10SM OVC013 16/14 A2991 RMK AO2 SLP127 T01560144=
201708300609 SPECI KCLM 300609Z AUTO 28011KT 10SM OVC014 16/14 A2991 RMK AO2 T01560144=
201708300553 METAR KCLM 300553Z AUTO 28010KT 10SM OVC015 15/14 A2990 RMK AO2 SLP125 T01500144 10200 20144 51009=
201708300531 SPECI KCLM 300531Z AUTO 28011KT 10SM FEW010 BKN017 15/14 A2990 RMK AO2 T01500139=
201708300520 SPECI KCLM 300520Z AUTO 28011KT 10SM SCT011 SCT017 15/14 A2990 RMK AO2 T01500139=
201708300513 SPECI KCLM 300513Z AUTO 29010KT 10SM SCT011 BKN017 15/14 A2990 RMK AO2 T01500139=
201708300453 METAR KCLM 300453Z AUTO 28011KT 10SM SCT010 15/14 A2990 RMK AO2 SLP124 T01500139=
201708300353 METAR KCLM 300353Z AUTO 28011KT 10SM CLR 15/14 A2989 RMK AO2 SLP119 T01500139=
201708300253 METAR KCLM 300253Z AUTO 28013KT 10SM CLR 16/14 A2988 RMK AO2 SLP117 T01610139 53001=
201708300153 METAR KCLM 300153Z AUTO 31007KT 10SM CLR 18/14 A2987 RMK AO2 SLP116 T01780144=
201708300053 METAR KCLM 300053Z AUTO 31012G17KT 10SM CLR 19/14 A2987 RMK AO2 SLP116 T01890144=
201708292353 METAR KCLM 292353Z AUTO 31011G20KT 10SM CLR 19/14 A2987 RMK AO2 SLP116 T01940144 10217 20194 58004=
201708292253 METAR KCLM 292253Z AUTO 31011G18KT 10SM CLR 20/14 A2988 RMK AO2 SLP118 T02000139=
201708292153 METAR KCLM 292153Z AUTO 31011G19KT 280V350 10SM CLR 21/14 A2989 RMK AO2 SLP120 T02060139=
201708292053 METAR KCLM 292053Z AUTO 32014G21KT 10SM CLR 21/13 A2989 RMK AO2 SLP119 T02060133 53003=
201708291953 METAR KCLM 291953Z AUTO 30009KT 10SM CLR 21/14 A2988 RMK AO2 SLP116 T02110139=
201708291853 METAR KCLM 291853Z AUTO 30007KT 9SM CLR 21/13 A2988 RMK AO2 SLP116 T02060133=
201708291753 METAR KCLM 291753Z AUTO VRB06KT 10SM CLR 21/13 A2988 RMK AO2 SLP116 T02110128 10228 20122 53007=
201708291653 METAR KCLM 291653Z AUTO 33007KT 300V360 10SM CLR 21/13 A2987 RMK AO2 SLP114 T02060128=
201708291553 METAR KCLM 291553Z AUTO 29005KT 10SM CLR 22/12 A2986 RMK AO2 SLP111 T02220122=
201708291453 METAR KCLM 291453Z AUTO 23004KT 8SM CLR 17/12 A2986 RMK AO2 SLP109 T01720117 51009=
201708291353 METAR KCLM 291353Z AUTO 00000KT 9SM CLR 13/11 A2985 RMK AO2 SLP107 T01330106=
201708291253 METAR KCLM 291253Z AUTO 00000KT 10SM CLR 13/11 A2984 RMK AO2 SLP104 T01280111=
201708291153 METAR KCLM 291153Z AUTO 22003KT 10SM CLR 13/11 A2983 RMK AO2 SLP100 T01330111 10172 20128 50001=
201708291053 METAR KCLM 291053Z AUTO 00000KT 10SM CLR 14/11 A2983 RMK AO2 SLP101 T01390111=
201708290953 METAR KCLM 290953Z AUTO 16003KT 10SM CLR 14/12 A2983 RMK AO2 SLP100 T01440117=
201708290853 METAR KCLM 290853Z AUTO 00000KT 10SM CLR 15/12 A2983 RMK AO2 SLP099 T01500117 53001=
201708290753 METAR KCLM 290753Z AUTO 00000KT 10SM CLR 15/12 A2983 RMK AO2 SLP099 T01500117 402830122=
201708290653 METAR KCLM 290653Z AUTO 13003KT 10SM CLR 16/12 A2982 RMK AO2 SLP096 T01610122=
201708290553 METAR KCLM 290553Z AUTO 00000KT 10SM CLR 17/13 A2982 RMK AO2 SLP098 T01670128 10283 20167 55001=
201708290453 METAR KCLM 290453Z AUTO 00000KT 10SM CLR 19/14 A2982 RMK AO2 SLP098 T01940139=
201708290353 METAR KCLM 290353Z AUTO 00000KT 10SM CLR 19/13 A2982 RMK AO2 SLP098 T01940133=
201708290253 METAR KCLM 290253Z AUTO 00000KT 10SM CLR 24/12 A2983 RMK AO2 SLP099 T02440122 56011=
201708290153 METAR KCLM 290153Z AUTO 10004KT 10SM CLR 27/12 A2983 RMK AO2 SLP100 T02720122=
201708290053 METAR KCLM 290053Z AUTO 08006KT 10SM CLR 28/12 A2984 RMK AO2 SLP104 T02780122=
201708282353 METAR KCLM 282353Z AUTO 09006KT 10SM CLR 28/12 A2986 RMK AO2 SLP110 T02830122 10283 20244 56020=
201708282253 METAR KCLM 282253Z AUTO 07004KT 10SM CLR 28/13 A2988 RMK AO2 SLP115 T02780128=
201708282153 METAR KCLM 282153Z AUTO 09006KT 10SM CLR 27/13 A2990 RMK AO2 SLP123 T02670133=
201708282053 METAR KCLM 282053Z AUTO 08006KT 10SM CLR 27/13 A2992 RMK AO2 SLP130 T02720128 58020=
201708281953 METAR KCLM 281953Z AUTO 10008KT 10SM CLR 27/13 A2994 RMK AO2 SLP137 T02670128=
201708281853 METAR KCLM 281853Z AUTO VRB05KT 10SM CLR 26/13 A2996 RMK AO2 SLP145 T02560128=
201708281753 METAR KCLM 281753Z AUTO 10007KT 10SM CLR 24/12 A2998 RMK AO2 SLP151 T02440122 10267 20122 55002=
201708281653 METAR KCLM 281653Z AUTO 10010KT 10SM CLR 27/12 A2998 RMK AO2 SLP150 T02670117=
201708281553 METAR KCLM 281553Z AUTO 08006KT 10SM CLR 24/12 A2998 RMK AO2 SLP151 T02390122=
201708281453 METAR KCLM 281453Z AUTO 13004KT 10SM CLR 21/12 A2998 RMK AO2 SLP152 T02110122 53005=
201708281353 METAR KCLM 281353Z AUTO 14004KT 10SM CLR 18/11 A2998 RMK AO2 SLP151 T01830106=
201708281253 METAR KCLM 281253Z AUTO 00000KT 10SM CLR 13/11 A2997 RMK AO2 SLP147 T01330106=
201708281153 METAR KCLM 281153Z AUTO 00000KT 10SM CLR 13/10 A2997 RMK AO2 SLP147 T01280100 10161 20122 58005=
201708281053 METAR KCLM 281053Z AUTO 00000KT 10SM CLR 14/11 A2998 RMK AO2 SLP150 T01440111=
201708280953 METAR KCLM 280953Z AUTO 00000KT 10SM CLR 14/11 A2998 RMK AO2 SLP151 T01440111=
201708280853 METAR KCLM 280853Z AUTO 00000KT 10SM CLR 14/11 A2999 RMK AO2 SLP153 T01390111 56003=
201708280753 METAR KCLM 280753Z AUTO 00000KT 10SM CLR 14/12 A2999 RMK AO2 SLP153 T01390117 402890106=
201708280653 METAR KCLM 280653Z AUTO 00000KT 10SM CLR 15/12 A2999 RMK AO2 SLP153 T01500122=
201708280553 METAR KCLM 280553Z AUTO 00000KT 10SM CLR 15/12 A3000 RMK AO2 SLP156 T01500122 10283 20150 58002=
201708280453 METAR KCLM 280453Z AUTO 00000KT 10SM CLR 16/13 A3000 RMK AO2 SLP158 T01610128=
201708280353 METAR KCLM 280353Z AUTO 00000KT 10SM CLR 17/12 A3000 RMK AO2 SLP159 T01720122=
201708280253 METAR KCLM 280253Z AUTO 26003KT 10SM CLR 18/12 A3000 RMK AO2 SLP158 T01830122 56008=
201708280153 METAR KCLM 280153Z AUTO 35004KT 10SM CLR 23/12 A3000 RMK AO2 SLP158 T02330117=
201708280053 METAR KCLM 280053Z AUTO 08006KT 10SM CLR 28/12 A3001 RMK AO2 SLP162 T02780117=
201708272353 METAR KCLM 272353Z AUTO 07006KT 10SM CLR 28/11 A3003 RMK AO2 SLP167 T02830111 10289 20244 57021=
201708272253 METAR KCLM 272253Z AUTO 09008KT 10SM CLR 28/11 A3005 RMK AO2 SLP173 T02830106=
201708272153 METAR KCLM 272153Z AUTO 11008KT 10SM CLR 28/11 A3007 RMK AO2 SLP182 T02830111=
201708272053 METAR KCLM 272053Z AUTO 11009KT 10SM CLR 27/12 A3009 RMK AO2 SLP188 T02720117 58014=
201708271953 METAR KCLM 271953Z AUTO 09009KT 10SM CLR 26/12 A3011 RMK AO2 SLP195 T02610122=
201708271853 METAR KCLM 271853Z AUTO 09011KT 10SM CLR 25/13 A3013 RMK AO2 SLP201 T02500128=
201708271753 METAR KCLM 271753Z AUTO 11011KT 10SM CLR 24/12 A3013 RMK AO2 SLP202 T02440122 10244 20117 58000=
201708271653 METAR KCLM 271653Z AUTO 09008KT 10SM CLR 23/11 A3013 RMK AO2 SLP203 T02330111=
201708271553 METAR KCLM 271553Z AUTO 10007KT 10SM CLR 23/11 A3014 RMK AO2 SLP204 T02280111=
201708271453 METAR KCLM 271453Z AUTO 00000KT 10SM CLR 18/12 A3013 RMK AO2 SLP202 T01830122 53003=
201708271353 METAR KCLM 271353Z AUTO 00000KT 10SM CLR 13/11 A3013 RMK AO2 SLP202 T01330106=
201708271253 METAR KCLM 271253Z AUTO 23005KT 10SM CLR 13/10 A3012 RMK AO2 SLP199 T01280100=
201708271153 METAR KCLM 271153Z AUTO 23006KT 10SM CLR 12/09 A3012 RMK AO2 SLP200 T01170094 10161 20106 58001=
201708271053 METAR KCLM 271053Z AUTO 22004KT 10SM CLR 11/09 A3013 RMK AO2 SLP202 T01110094=
201708270953 METAR KCLM 270953Z AUTO 00000KT 10SM CLR 12/10 A3013 RMK AO2 SLP204 T01220100=
201708270853 METAR KCLM 270853Z AUTO 00000KT 10SM CLR 12/10 A3013 RMK AO2 SLP202 T01220100 58008=
201708270753 METAR KCLM 270753Z AUTO 22003KT 10SM CLR 13/11 A3013 RMK AO2 SLP204 T01330106 402220089=
201708270653 METAR KCLM 270653Z AUTO 27003KT 10SM CLR 15/11 A3014 RMK AO2 SLP208 T01500111=
201708270553 METAR KCLM 270553Z AUTO 26004KT 10SM CLR 16/12 A3015 RMK AO2 SLP210 T01610117 10200 20150 50001=
201708270453 METAR KCLM 270453Z AUTO 29004KT 10SM CLR 16/13 A3016 RMK AO2 SLP211 T01560128=
201708270353 METAR KCLM 270353Z AUTO 28004KT 10SM CLR 16/13 A3016 RMK AO2 SLP211 T01610128=
201708270253 METAR KCLM 270253Z AUTO 31005KT 10SM CLR 17/12 A3015 RMK AO2 SLP208 T01670122 56008=
201708270153 METAR KCLM 270153Z AUTO 30007KT 10SM CLR 19/12 A3015 RMK AO2 SLP209 T01890117=
201708270053 METAR KCLM 270053Z AUTO 31007KT 10SM CLR 20/11 A3016 RMK AO2 SLP212 T02000111=
201708262353 METAR KCLM 262353Z AUTO 32007KT 290V350 10SM CLR 19/10 A3017 RMK AO2 SLP217 T01940100 10222 20167 56008=
201708262253 METAR KCLM 262253Z AUTO 30007KT 10SM CLR 21/09 A3018 RMK AO2 SLP219 T02060089=
201708262153 METAR KCLM 262153Z AUTO 36004KT 10SM CLR 22/09 A3018 RMK AO2 SLP220 T02170089=
201708262053 METAR KCLM 262053Z AUTO 36005KT 10SM CLR 19/11 A3020 RMK AO2 SLP225 T01890106 58004=
201708261953 METAR KCLM 261953Z AUTO 35005KT 10SM CLR 18/11 A3021 RMK AO2 SLP228 T01830106=
201708261853 METAR KCLM 261853Z AUTO 02005KT 10SM CLR 19/11 A3021 RMK AO2 SLP229 T01890111=
201708261753 METAR KCLM 261753Z AUTO VRB04KT 10SM CLR 17/11 A3021 RMK AO2 SLP230 T01720106 10178 20089 51009=
201708261653 METAR KCLM 261653Z AUTO 36004KT 10SM CLR 16/11 A3020 RMK AO2 SLP227 T01610111=
201708261553 METAR KCLM 261553Z AUTO VRB03KT 10SM CLR 17/09 A3019 RMK AO2 SLP225 T01720094=
201708261453 METAR KCLM 261453Z AUTO 00000KT 10SM CLR 13/09 A3018 RMK AO2 SLP221 T01330089 53008=
201708261353 METAR KCLM 261353Z AUTO 12003KT 10SM CLR 09/08 A3017 RMK AO2 SLP217 T00890078=
201708261253 METAR KCLM 261253Z AUTO 27005KT 10SM CLR 12/09 A3017 RMK AO2 SLP216 T01220089=
201708261153 METAR KCLM 261153Z AUTO VRB04KT 10SM CLR 12/09 A3016 RMK AO2 SLP213 T01170089 10133 20106 53010=
201708261053 METAR KCLM 261053Z AUTO 28006KT 10SM CLR 12/09 A3015 RMK AO2 SLP209 T01220089=
201708260953 METAR KCLM 260953Z AUTO 30004KT 10SM CLR 12/09 A3013 RMK AO2 SLP204 T01220089=
201708260853 METAR KCLM 260853Z AUTO 28005KT 10SM CLR 12/09 A3013 RMK AO2 SLP203 T01220089 50002=
201708260753 METAR KCLM 260753Z AUTO 27006KT 10SM CLR 12/09 A3013 RMK AO2 SLP203 T01170089 402000100=
201708260653 METAR KCLM 260653Z AUTO 26007KT 10SM CLR 13/09 A3013 RMK AO2 SLP203 T01280094=
201708260553 METAR KCLM 260553Z AUTO 28007KT 10SM CLR 13/09 A3012 RMK AO2 SLP201 T01280094 10189 20122 51005=
201708260453 METAR KCLM 260453Z AUTO 27005KT 10SM CLR 13/10 A3012 RMK AO2 SLP199 T01330100=
201708260353 METAR KCLM 260353Z AUTO 28008KT 10SM CLR 14/10 A3011 RMK AO2 SLP197 T01390100=
201708260253 METAR KCLM 260253Z AUTO 30005KT 10SM CLR 16/09 A3011 RMK AO2 SLP195 T01560094 51004=
201708260153 METAR KCLM 260153Z AUTO 28012KT 10SM CLR 17/08 A3011 RMK AO2 SLP195 T01720083=
201708260053 METAR KCLM 260053Z AUTO 30008KT 10SM CLR 18/08 A3011 RMK AO2 SLP195 T01830078=
201708252353 METAR KCLM 252353Z AUTO 31010G18KT 10SM CLR 18/07 A3010 RMK AO2 SLP191 T01830067 10200 20167 56006=
201708252253 METAR KCLM 252253Z AUTO 32007KT 10SM CLR 19/07 A3010 RMK AO2 SLP192 T01940072=
201708252153 METAR KCLM 252153Z AUTO 31011G19KT 10SM CLR 19/08 A3011 RMK AO2 SLP196 T01890083=
201708252053 METAR KCLM 252053Z AUTO 31012G18KT 10SM CLR 19/08 A3011 RMK AO2 SLP198 T01940083=
201708251953 METAR KCLM 251953Z AUTO 31007KT 10SM CLR 18/09 A3010 RMK AO2 SLP193 T01830094=
201708251853 METAR KCLM 251853Z AUTO 31009KT 10SM CLR 17/11 A3011 RMK AO2 SLP197 T01670106=
201708251753 METAR KCLM 251753Z AUTO 34006KT 7SM CLR 19/11 A3011 RMK AO2 SLP195 T01890111 10194 20111 53003 PWINO $=
201708251653 METAR KCLM 251653Z AUTO 34003KT 10SM CLR 16/11 A3010 RMK AO2 SLP194 T01560106=
201708251553 METAR KCLM 251553Z AUTO 31005KT 10SM CLR 13/10 A3010 RMK AO2 SLP192 T01330100=
201708251453 METAR KCLM 251453Z AUTO 30005KT 10SM CLR 13/08 A3010 RMK AO2 SLP191 T01280083 51006=
201708251353 METAR KCLM 251353Z AUTO 29005KT 10SM CLR 12/08 A3009 RMK AO2 SLP191 T01170083=
201708251253 METAR KCLM 251253Z AUTO 27007KT 10SM CLR 12/08 A3009 RMK AO2 SLP187 T01170083=
201708251153 METAR KCLM 251153Z AUTO 26007KT 10SM CLR 12/08 A3008 RMK AO2 SLP185 T01220083 10139 20100 50001=
201708251053 METAR KCLM 251053Z AUTO 27005KT 10SM CLR 11/08 A3008 RMK AO2 SLP186 T01060083=
201708250953 METAR KCLM 250953Z AUTO 29007KT 10SM CLR 12/09 A3008 RMK AO2 SLP184 T01170089=
201708250853 METAR KCLM 250853Z AUTO 28006KT 10SM CLR 12/09 A3007 RMK AO2 SLP183 T01220089 55002=
201708250753 METAR KCLM 250753Z AUTO 26009KT 10SM CLR 14/10 A3007 RMK AO2 SLP183 T01390100 402000128=
201708250653 METAR KCLM 250653Z AUTO 27007KT 10SM CLR 13/11 A3008 RMK AO2 SLP185 T01280106=
201708250553 METAR KCLM 250553Z AUTO 28008KT 10SM CLR 13/11 A3008 RMK AO2 SLP186 T01330106 10178 20133 50002=
201708250453 METAR KCLM 250453Z AUTO 27009KT 10SM CLR 13/11 A3009 RMK AO2 SLP188 T01330111=
201708250353 METAR KCLM 250353Z AUTO 28009KT 10SM CLR 14/11 A3009 RMK AO2 SLP188 T01390111=
201708250253 METAR KCLM 250253Z AUTO 28010KT 10SM CLR 14/12 A3007 RMK AO2 SLP183 T01440117 55001=
201708250153 METAR KCLM 250153Z AUTO 30009KT 10SM CLR 16/12 A3007 RMK AO2 SLP181 T01610117=
201708250053 METAR KCLM 250053Z AUTO 31013KT 10SM CLR 17/12 A3007 RMK AO2 SLP182 T01720122=
201708242353 METAR KCLM 242353Z AUTO 31012KT 10SM CLR 18/12 A3007 RMK AO2 SLP184 T01780122 10200 20167 58005=
201708242253 METAR KCLM 242253Z AUTO 32007KT 10SM CLR 19/12 A3008 RMK AO2 SLP187 T01890117=
201708242153 METAR KCLM 242153Z AUTO 30013G22KT 10SM CLR 18/12 A3009 RMK AO2 SLP189 T01780117=
201708242053 METAR KCLM 242053Z AUTO 31009KT 10SM CLR 19/11 A3009 RMK AO2 SLP189 T01940111 58001=
201708241953 METAR KCLM 241953Z AUTO 31012G17KT 10SM CLR 19/11 A3010 RMK AO2 SLP192 T01890111=
201708241853 METAR KCLM 241853Z AUTO 36007KT 10SM CLR 17/11 A3010 RMK AO2 SLP192 T01670106=
201708241753 METAR KCLM 241753Z AUTO 32010KT 10SM CLR 18/10 A3009 RMK AO2 SLP190 T01830100 10189 20139 50008=
201708241653 METAR KCLM 241653Z AUTO 32014G19KT 10SM CLR 17/09 A3009 RMK AO2 SLP190 T01720094=
201708241553 METAR KCLM 241553Z AUTO 31012G19KT 10SM CLR 17/09 A3009 RMK AO2 SLP188 T01670089=
201708241453 METAR KCLM 241453Z AUTO 28008G17KT 10SM FEW038 16/08 A3007 RMK AO2 SLP182 T01610078 51013=
201708241353 METAR KCLM 241353Z AUTO 27012KT 10SM CLR 14/07 A3006 RMK AO2 SLP178 T01440067=
201708241253 METAR KCLM 241253Z AUTO 28014G23KT 10SM CLR 14/06 A3004 RMK AO2 SLP173 T01440061=
201708241153 METAR KCLM 241153Z AUTO 28014G22KT 10SM CLR 14/06 A3003 RMK AO2 SLP169 T01390056 10150 20139 53007=
201708241053 METAR KCLM 241053Z AUTO 29011G17KT 10SM CLR 14/06 A3002 RMK AO2 SLP165 T01390061=
201708240953 METAR KCLM 240953Z AUTO 29012G22KT 10SM CLR 14/07 A3001 RMK AO2 SLP163 T01390067=
201708240853 METAR KCLM 240853Z AUTO 30012G18KT 10SM CLR 14/08 A3001 RMK AO2 SLP161 T01390083 50003=
201708240753 METAR KCLM 240753Z AUTO 30013KT 10SM SCT060 14/08 A3001 RMK AO2 PK WND 29027/0736 SLP163 T01440078 402060106=
201708240653 METAR KCLM 240653Z AUTO 29012KT 10SM SCT060 14/07 A3000 RMK AO2 SLP160 T01440072=
201708240553 METAR KCLM 240553Z AUTO 29012G19KT 10SM BKN065 OVC080 15/07 A3000 RMK AO2 SLP159 T01500072 10178 20144 51001=
201708240453 METAR KCLM 240453Z AUTO 29007KT 10SM OVC080 15/09 A3000 RMK AO2 SLP159 T01500089=
201708240353 METAR KCLM 240353Z AUTO 27011KT 10SM SCT039 BKN075 14/09 A3000 RMK AO2 SLP159 T01440094=
201708240253 METAR KCLM 240253Z AUTO 29008KT 10SM FEW023 BKN100 14/09 A3000 RMK AO2 SLP158 T01440094 55003=
201708240153 METAR KCLM 240153Z AUTO 31009KT 10SM FEW019 FEW100 16/11 A2999 RMK AO2 SLP156 T01560106=
201708240053 METAR KCLM 240053Z AUTO 30011G18KT 10SM CLR 17/12 A3000 RMK AO2 SLP158 T01720122=
201708240036 SPECI KCLM 240036Z AUTO 29012G20KT 10SM SCT012 17/13 A3000 RMK AO2 T01720128=
201708232353 METAR KCLM 232353Z AUTO 29016G23KT 10SM BKN010 17/14 A3001 RMK AO2 CIG 009V014 SLP162 T01720139 10206 20167 55002=
201708232253 METAR KCLM 232253Z AUTO 30010KT 10SM CLR 20/15 A3000 RMK AO2 SLP160 T02000150=
201708232153 METAR KCLM 232153Z AUTO 30010KT 10SM CLR 21/14 A3001 RMK AO2 SLP161 T02060144=
201708232053 METAR KCLM 232053Z AUTO 29008KT 10SM CLR 19/14 A3002 RMK AO2 SLP164 T01940144 58008=
201708231953 METAR KCLM 231953Z AUTO 30006KT 10SM CLR 18/14 A3003 RMK AO2 SLP168 T01830139=
201708231853 METAR KCLM 231853Z AUTO 35005KT 10SM CLR 19/13 A3004 RMK AO2 SLP170 T01890133=
201708231753 METAR KCLM 231753Z AUTO VRB05KT 10SM CLR 19/13 A3004 RMK AO2 SLP171 T01890133 10189 20106 58004=
201708231653 METAR KCLM 231653Z AUTO VRB05KT 10SM CLR 18/13 A3005 RMK AO2 SLP174 T01780128=
201708231553 METAR KCLM 231553Z AUTO 34005KT 10SM CLR 14/12 A3006 RMK AO2 SLP178 T01440122=
201708231453 METAR KCLM 231453Z AUTO 33003KT 10SM CLR 13/12 A3005 RMK AO2 SLP176 T01330122 53005=
201708231353 METAR KCLM 231353Z AUTO 00000KT 10SM CLR 11/11 A3005 RMK AO2 SLP175 T01060106=
201708231253 METAR KCLM 231253Z AUTO 22005KT 10SM CLR 13/12 A3004 RMK AO2 SLP171 T01280122=
201708231153 METAR KCLM 231153Z AUTO 24003KT 10SM CLR 12/12 A3004 RMK AO2 SLP171 T01220117 10167 20106 56003=
201708231053 METAR KCLM 231053Z AUTO VRB03KT 10SM CLR 13/12 A3004 RMK AO2 SLP171 T01280117=
201708230953 METAR KCLM 230953Z AUTO 00000KT 10SM CLR 12/11 A3004 RMK AO2 SLP171 T01220111=
201708230853 METAR KCLM 230853Z AUTO 30007KT 10SM CLR 13/11 A3005 RMK AO2 SLP173 T01280111 50004=
201708230753 METAR KCLM 230753Z AUTO 29007KT 10SM CLR 16/12 A3005 RMK AO2 SLP175 T01610122 402390111=
201708230653 METAR KCLM 230653Z AUTO 28011KT 10SM CLR 17/12 A3004 RMK AO2 SLP172 T01670122=
201708230553 METAR KCLM 230553Z AUTO 29010KT 10SM CLR 17/13 A3003 RMK AO2 SLP169 T01670133 10206 20156 51004=
201708230453 METAR KCLM 230453Z AUTO 28011KT 10SM CLR 16/13 A3003 RMK AO2 SLP168 T01610133=
201708230353 METAR KCLM 230353Z AUTO 29008KT 10SM CLR 16/14 A3003 RMK AO2 SLP168 T01610139=
201708230253 METAR KCLM 230253Z AUTO 29014KT 10SM CLR 17/13 A3002 RMK AO2 SLP166 T01670133 53001=
201708230153 METAR KCLM 230153Z AUTO 30012G19KT 10SM CLR 19/14 A3001 RMK AO2 SLP163 T01890144=
201708230053 METAR KCLM 230053Z AUTO 30012KT 10SM CLR 19/14 A3002 RMK AO2 SLP164 T01890144=
201708222353 METAR KCLM 222353Z AUTO 30015G23KT 10SM CLR 21/15 A3002 RMK AO2 SLP165 T02110150 10239 20189 58004=
201708222253 METAR KCLM 222253Z AUTO 31011KT 10SM CLR 23/16 A3002 RMK AO2 SLP165 T02280156=
201708222153 METAR KCLM 222153Z AUTO 31009KT 10SM CLR 23/14 A3003 RMK AO2 SLP168 T02330144=
201708222053 METAR KCLM 222053Z AUTO 30009KT 10SM CLR 22/14 A3003 RMK AO2 SLP168 T02220139 55000=
201708221953 METAR KCLM 221953Z AUTO VRB05KT 10SM CLR 23/13 A3003 RMK AO2 SLP167 T02280133=
201708221853 METAR KCLM 221853Z AUTO VRB06KT 10SM CLR 20/13 A3003 RMK AO2 SLP169 T02000133=
201708221753 METAR KCLM 221753Z AUTO 33007KT 10SM CLR 19/13 A3003 RMK AO2 SLP169 T01890133 10211 20111 53004=
201708221653 METAR KCLM 221653Z AUTO 29004KT 10SM CLR 19/14 A3002 RMK AO2 SLP167 T01890139=
201708221553 METAR KCLM 221553Z AUTO 00000KT 10SM CLR 20/14 A3002 RMK AO2 SLP164 T02000139=
201708221453 METAR KCLM 221453Z AUTO 00000KT 10SM CLR 17/13 A3002 RMK AO2 SLP166 T01670133 53008=
201708221353 METAR KCLM 221353Z AUTO 00000KT 10SM CLR 13/12 A3001 RMK AO2 SLP163 T01280117=
201708221253 METAR KCLM 221253Z AUTO 00000KT 10SM CLR 12/11 A3000 RMK AO2 SLP158 T01220106=
201708221153 METAR KCLM 221153Z AUTO 12003KT 10SM CLR 12/11 A3000 RMK AO2 SLP157 T01220111 10150 20117 57003=
201708221053 METAR KCLM 221053Z AUTO 00000KT 10SM CLR 14/12 A3000 RMK AO2 SLP157 T01390117=
201708220953 METAR KCLM 220953Z AUTO 00000KT 10SM CLR 13/12 A3000 RMK AO2 SLP159 T01330117=
201708220853 METAR KCLM 220853Z AUTO 00000KT 10SM CLR 13/12 A3001 RMK AO2 SLP159 T01330117 57008=
201708220753 METAR KCLM 220753Z AUTO 00000KT 10SM CLR 12/12 A3001 RMK AO2 SLP163 T01220117 402560083=
201708220653 METAR KCLM 220653Z AUTO 00000KT 10SM CLR 14/12 A3002 RMK AO2 SLP166 T01390122=
201708220553 METAR KCLM 220553Z AUTO 00000KT 10SM CLR 14/12 A3003 RMK AO2 SLP169 T01440122 10244 20139 56005=
201708220453 METAR KCLM 220453Z AUTO 23004KT 10SM CLR 14/13 A3003 RMK AO2 SLP169 T01440128=
201708220353 METAR KCLM 220353Z AUTO 26003KT 10SM CLR 16/13 A3004 RMK AO2 SLP172 T01610128=
201708220253 METAR KCLM 220253Z AUTO 30003KT 10SM CLR 16/13 A3004 RMK AO2 SLP174 T01610128 56011=
201708220153 METAR KCLM 220153Z AUTO 32004KT 10SM CLR 18/12 A3005 RMK AO2 SLP175 T01830122=
201708220053 METAR KCLM 220053Z AUTO 09004KT 10SM CLR 24/12 A3006 RMK AO2 SLP180 T02440117=
201708212353 METAR KCLM 212353Z AUTO 04004KT 10SM CLR 23/12 A3008 RMK AO2 SLP185 T02330117 10256 20150 58017=
201708212253 METAR KCLM 212253Z AUTO 11007KT 10SM CLR 25/11 A3010 RMK AO2 SLP191 T02500111=
201708212153 METAR KCLM 212153Z AUTO 08006KT 10SM CLR 23/12 A3012 RMK AO2 SLP197 T02330117=
201708212053 METAR KCLM 212053Z AUTO 08006KT 10SM CLR 23/12 A3013 RMK AO2 SLP201 T02280117 58009=
201708211953 METAR KCLM 211953Z AUTO 05006KT 10SM CLR 22/12 A3014 RMK AO2 SLP204 T02220122=
201708211853 METAR KCLM 211853Z AUTO 35005KT 10SM CLR 18/12 A3015 RMK AO2 SLP209 T01780122=
201708211753 METAR KCLM 211753Z AUTO 00000KT 10SM CLR 14/13 A3015 RMK AO2 SLP211 T01440128 10183 20083 55001=
201708211653 METAR KCLM 211653Z AUTO 04004KT 10SM CLR 17/13 A3014 RMK AO2 SLP208 T01670128=
201708211553 METAR KCLM 211553Z AUTO 00000KT 10SM CLR 16/14 A3015 RMK AO2 SLP211 T01610139=
201708211453 METAR KCLM 211453Z AUTO 00000KT 10SM CLR 13/13 A3016 RMK AO2 SLP211 T01280128 53007=
201708211353 METAR KCLM 211353Z AUTO 00000KT 10SM CLR 10/10 A3015 RMK AO2 SLP208 T01000100=
201708211253 METAR KCLM 211253Z AUTO 27003KT 10SM SCT001 09/09 A3014 RMK AO2 SLP206 T00890089=
201708211239 SPECI KCLM 211239Z AUTO 00000KT 10SM SCT001 10/10 A3014 RMK AO2 T01000100=
201708211232 SPECI KCLM 211232Z AUTO 00000KT 10SM CLR 10/10 A3014 RMK AO2 T01000100=
201708211222 SPECI KCLM 211222Z AUTO 00000KT 2SM BR CLR 10/10 A3013 RMK AO2 T01000100=
201708211207 SPECI KCLM 211207Z AUTO 00000KT 7SM SCT001 10/10 A3013 RMK AO2 T01000100=
201708211158 SPECI KCLM 211158Z AUTO 00000KT 3SM BR BKN001 11/11 A3013 RMK AO2 T01060106=
201708211153 METAR KCLM 211153Z AUTO 00000KT 1 1/2SM BR BKN001 11/11 A3013 RMK AO2 SLP204 T01060106 10139 20106 58003=
201708211144 SPECI KCLM 211144Z AUTO 00000KT 1SM BR VV001 11/11 A3013 RMK AO2 T01060106=
201708211132 SPECI KCLM 211132Z AUTO 00000KT 1/2SM FG VV002 11/11 A3014 RMK AO2 T01060106=
201708211053 METAR KCLM 211053Z AUTO 29004KT 1/4SM FG VV002 12/12 A3014 RMK AO2 SLP207 T01170117=
201708211045 SPECI KCLM 211045Z AUTO 30003KT 1/4SM FG VV002 12/12 A3014 RMK AO2 T01170117=
201708211033 SPECI KCLM 211033Z AUTO 00000KT 1/2SM FG VV002 11/11 A3014 RMK AO2 T01110111=
201708211025 SPECI KCLM 211025Z AUTO 00000KT 1/2SM FG OVC001 12/12 A3014 RMK AO2 T01170117=
201708210953 METAR KCLM 210953Z AUTO 31004KT 1/4SM FG VV001 12/12 A3014 RMK AO2 SLP207 T01170117=
201708210944 SPECI KCLM 210944Z AUTO 31004KT 1/2SM FG VV001 12/12 A3014 RMK AO2 T01170117=
201708210936 SPECI KCLM 210936Z AUTO 31005KT 1/4SM FG VV002 12/12 A3014 RMK AO2 T01170117=
201708210926 SPECI KCLM 210926Z AUTO 00000KT 3/4SM BR OVC001 12/12 A3014 RMK AO2 T01170117=
201708210919 SPECI KCLM 210919Z AUTO 30003KT 1SM BR OVC001 12/12 A3014 RMK AO2 T01220122=
201708210915 SPECI KCLM 210915Z AUTO 29003KT 3/4SM BR VV002 12/12 A3014 RMK AO2 T01220122=
201708210853 METAR KCLM 210853Z AUTO 29003KT 1/4SM FG VV002 12/12 A3014 RMK AO2 SLP207 T01220122 58000=
201708210843 SPECI KCLM 210843Z AUTO 31004KT 1/4SM FG VV002 12/12 A3014 RMK AO2 T01220122=
201708210813 SPECI KCLM 210813Z AUTO 31006KT 1/2SM FG VV001 13/13 A3014 RMK AO2 T01280128=
201708210806 SPECI KCLM 210806Z AUTO 32006KT 1SM BR VV001 13/13 A3015 RMK AO2 T01280128=
201708210803 SPECI KCLM 210803Z AUTO 32007KT 2 1/2SM BR FEW001 13/13 A3015 RMK AO2 T01280128=
201708210753 METAR KCLM 210753Z AUTO 31005KT 10SM CLR 13/13 A3015 RMK AO2 SLP208 T01280128 401940106=
201708210704 SPECI KCLM 210704Z AUTO 29007KT 10SM SCT002 13/13 A3014 RMK AO2 T01330133=
201708210653 METAR KCLM 210653Z AUTO 30008KT 10SM BKN002 13/13 A3014 RMK AO2 SLP207 T01330133=
201708210553 METAR KCLM 210553Z AUTO 29007KT 7SM BKN003 13/13 A3014 RMK AO2 SLP207 T01330133 10189 20133 50001=
201708210545 SPECI KCLM 210545Z AUTO 31005KT 10SM SCT003 13/13 A3014 RMK AO2 T01330133=
201708210453 METAR KCLM 210453Z AUTO 30005KT 10SM CLR 14/13 A3015 RMK AO2 SLP209 T01390128=
201708210353 METAR KCLM 210353Z AUTO 26006KT 10SM CLR 16/13 A3015 RMK AO2 SLP208 T01560133=
201708210253 METAR KCLM 210253Z AUTO 29006KT 10SM CLR 17/13 A3014 RMK AO2 SLP206 T01670133 53001=
201708210153 METAR KCLM 210153Z AUTO VRB04KT 10SM CLR 17/14 A3014 RMK AO2 SLP205 T01720139=
201708210053 METAR KCLM 210053Z AUTO VRB05KT 10SM CLR 19/14 A3013 RMK AO2 SLP203 T01890139=
201708202353 METAR KCLM 202353Z AUTO 29010G19KT 10SM CLR 19/14 A3014 RMK AO2 SLP205 T01890139 10194 20150 55007=
201708202253 METAR KCLM 202253Z AUTO 34010KT 10SM CLR 19/14 A3013 RMK AO2 SLP202 T01890139=
201708202153 METAR KCLM 202153Z AUTO 31008KT 10SM FEW015 18/14 A3015 RMK AO2 SLP210 T01780139=
201708202053 METAR KCLM 202053Z AUTO 31008KT 10SM CLR 16/13 A3016 RMK AO2 SLP213 T01610133 55003=
201708201953 METAR KCLM 201953Z AUTO 31005KT 10SM CLR 18/13 A3016 RMK AO2 SLP212 T01780133=
201708201853 METAR KCLM 201853Z AUTO 30007KT 270V330 10SM FEW007 16/13 A3017 RMK AO2 SLP216 T01560128=
201708201824 SPECI KCLM 201824Z AUTO 29009KT 10SM FEW009 16/13 A3017 RMK AO2 T01560128=
201708201753 METAR KCLM 201753Z AUTO 30009KT 10SM CLR 16/12 A3017 RMK AO2 SLP216 T01610122 10172 20106 58001=
201708201653 METAR KCLM 201653Z AUTO 30008KT 10SM CLR 16/12 A3018 RMK AO2 SLP219 T01560122=
201708201553 METAR KCLM 201553Z AUTO 29007KT 10SM CLR 17/11 A3017 RMK AO2 SLP215 T01670111=
201708201453 METAR KCLM 201453Z AUTO 28006KT 10SM CLR 13/11 A3017 RMK AO2 SLP217 T01330111 53003=
201708201353 METAR KCLM 201353Z AUTO 28005KT 10SM CLR 12/09 A3016 RMK AO2 SLP212 T01220094=
201708201253 METAR KCLM 201253Z AUTO 24004KT 10SM CLR 11/09 A3017 RMK AO2 SLP216 T01110094=
201708201153 METAR KCLM 201153Z AUTO 27004KT 10SM CLR 12/09 A3016 RMK AO2 SLP214 T01170094 10133 20111 58005=
201708201053 METAR KCLM 201053Z AUTO 29007KT 10SM CLR 12/09 A3017 RMK AO2 SLP215 T01170094=
201708200953 METAR KCLM 200953Z AUTO 30006KT 10SM CLR 11/09 A3018 RMK AO2 SLP219 T01110094=
201708200853 METAR KCLM 200853Z AUTO 29007KT 10SM CLR 12/09 A3018 RMK AO2 SLP219 T01170094 56005=
201708200753 METAR KCLM 200753Z AUTO 27005KT 10SM CLR 12/09 A3019 RMK AO2 SLP221 T01220089 401940100=
201708200653 METAR KCLM 200653Z AUTO 28007KT 10SM CLR 12/10 A3018 RMK AO2 SLP219 T01220100=
201708200553 METAR KCLM 200553Z AUTO 27006KT 10SM CLR 12/10 A3019 RMK AO2 SLP224 T01220100 10183 20122 58003=
201708200453 METAR KCLM 200453Z AUTO 27007KT 10SM CLR 14/10 A3020 RMK AO2 SLP225 T01390100=
201708200353 METAR KCLM 200353Z AUTO 28009KT 10SM CLR 13/11 A3020 RMK AO2 SLP227 T01330106=
201708200253 METAR KCLM 200253Z AUTO 29011KT 10SM CLR 14/11 A3020 RMK AO2 SLP226 T01440111 53001=
201708200153 METAR KCLM 200153Z AUTO 29011KT 10SM CLR 17/10 A3019 RMK AO2 SLP223 T01670100=
201708200053 METAR KCLM 200053Z AUTO 31010KT 10SM CLR 17/10 A3019 RMK AO2 SLP224 T01720100=
201708192353 METAR KCLM 192353Z AUTO 31007KT 10SM CLR 18/11 A3020 RMK AO2 SLP225 T01830111 10194 20156 58009=
201708192253 METAR KCLM 192253Z AUTO 34007KT 10SM CLR 18/12 A3021 RMK AO2 SLP232 T01780117=
201708192153 METAR KCLM 192153Z AUTO VRB06KT 10SM CLR 19/12 A3022 RMK AO2 SLP233 T01940122=
201708192053 METAR KCLM 192053Z AUTO 35006KT 10SM CLR 18/12 A3022 RMK AO2 SLP234 T01830117 58003=
201708191953 METAR KCLM 191953Z AUTO VRB06KT 10SM CLR 17/12 A3023 RMK AO2 SLP236 T01720117=
201708191853 METAR KCLM 191853Z AUTO 01008KT 10SM CLR 16/12 A3023 RMK AO2 SLP237 T01610117=
201708191753 METAR KCLM 191753Z AUTO 34008KT 10SM CLR 16/12 A3023 RMK AO2 SLP237 T01610117 10167 20100 53007=
201708191653 METAR KCLM 191653Z AUTO 30005KT 10SM CLR 16/12 A3022 RMK AO2 SLP234 T01560117=
201708191553 METAR KCLM 191553Z AUTO 29006KT 10SM CLR 14/12 A3022 RMK AO2 SLP232 T01440117=
201708191453 METAR KCLM 191453Z AUTO 26006KT 10SM CLR 13/11 A3021 RMK AO2 SLP230 T01280106 53008=
201708191353 METAR KCLM 191353Z AUTO 25006KT 10SM CLR 11/09 A3020 RMK AO2 SLP228 T01110094=
201708191253 METAR KCLM 191253Z AUTO 26005KT 10SM CLR 11/09 A3019 RMK AO2 SLP224 T01060089=
201708191153 METAR KCLM 191153Z AUTO 27007KT 10SM CLR 11/09 A3019 RMK AO2 SLP222 T01060089 10139 20100 53002=
201708191053 METAR KCLM 191053Z AUTO 29007KT 10SM CLR 11/09 A3018 RMK AO2 SLP218 T01060094=
201708190953 METAR KCLM 190953Z AUTO 26007KT 10SM CLR 11/09 A3018 RMK AO2 SLP220 T01110094=
201708190853 METAR KCLM 190853Z AUTO 28008KT 10SM CLR 12/09 A3018 RMK AO2 SLP220 T01220094 50002=
201708190753 METAR KCLM 190753Z AUTO 29007KT 10SM CLR 12/09 A3019 RMK AO2 SLP221 T01220089 401940111=
201708190653 METAR KCLM 190653Z AUTO 28008KT 10SM CLR 13/11 A3019 RMK AO2 SLP223 T01280106=
201708190553 METAR KCLM 190553Z AUTO 27012KT 10SM CLR 14/12 A3017 RMK AO2 SLP218 T01390117 10189 20133 50003=
201708190453 METAR KCLM 190453Z AUTO 28012KT 10SM CLR 14/12 A3018 RMK AO2 SLP219 T01390122=
201708190353 METAR KCLM 190353Z AUTO 27017G24KT 10SM FEW017 14/12 A3017 RMK AO2 SLP215 T01390122=
201708190323 SPECI KCLM 190323Z AUTO 28010G20KT 10SM SCT007 14/13 A3017 RMK AO2 T01440128=
201708190253 METAR KCLM 190253Z AUTO 27015G21KT 10SM OVC007 15/14 A3017 RMK AO2 SLP215 T01500139 55001=
201708190223 SPECI KCLM 190223Z AUTO 29011G17KT 10SM BKN007 15/14 A3016 RMK AO2 CIG 005V011 T01500139=
201708190216 SPECI KCLM 190216Z AUTO 29013KT 10SM FEW005 SCT011 14/13 A3016 RMK AO2 T01440133=
201708190153 METAR KCLM 190153Z AUTO 29010KT 10SM CLR 18/14 A3015 RMK AO2 SLP210 T01780139=
201708190053 METAR KCLM 190053Z AUTO 31012KT 10SM FEW015 SCT075 17/14 A3016 RMK AO2 SLP211 T01720144=
201708190021 SPECI KCLM 190021Z AUTO 28008G16KT 10SM SCT015 BKN038 BKN049 19/15 A3016 RMK AO2 T01890150=
201708182353 METAR KCLM 182353Z AUTO 28009KT 10SM BKN013 BKN034 18/16 A3017 RMK AO2 SLP216 T01830156 10194 20172 58002=
201708182350 SPECI KCLM 182350Z AUTO 28010KT 10SM BKN013 BKN034 18/16 A3017 RMK AO2=
201708182310 SPECI KCLM 182310Z AUTO 30008KT 10SM FEW013 FEW020 BKN065 19/16 A3017 RMK AO2 T01890156=
201708182253 METAR KCLM 182253Z AUTO 31008KT 10SM SCT013 BKN019 OVC065 18/15 A3018 RMK AO2 SLP218 T01830150=
201708182217 SPECI KCLM 182217Z AUTO 31012KT 10SM BKN012 OVC070 18/15 A3018 RMK AO2 T01780150=
201708182153 METAR KCLM 182153Z AUTO 31013G22KT 10SM FEW012 BKN070 19/15 A3018 RMK AO2 SLP220 T01890150=
201708182053 METAR KCLM 182053Z AUTO 30010KT 10SM OVC065 18/14 A3017 RMK AO2 SLP218 T01830144 51002=
201708181953 METAR KCLM 181953Z AUTO 30010KT 10SM OVC065 18/14 A3017 RMK AO2 SLP217 T01780139=
201708181853 METAR KCLM 181853Z AUTO 27006KT 10SM OVC065 19/14 A3017 RMK AO2 SLP217 T01890139=
201708181753 METAR KCLM 181753Z AUTO 30010KT 10SM CLR 18/13 A3017 RMK AO2 SLP216 T01830133 10194 20111 53002=
201708181653 METAR KCLM 181653Z AUTO 01006KT 10SM CLR 18/13 A3016 RMK AO2 SLP213 T01780133=
201708181553 METAR KCLM 181553Z AUTO VRB03KT 10SM CLR 17/13 A3016 RMK AO2 SLP213 T01720128=
201708181453 METAR KCLM 181453Z AUTO 00000KT 10SM CLR 16/12 A3016 RMK AO2 SLP214 T01560117 53005=
201708181353 METAR KCLM 181353Z AUTO 23005KT 10SM CLR 13/11 A3016 RMK AO2 SLP211 T01280111=
201708181253 METAR KCLM 181253Z AUTO 26007KT 10SM CLR 13/11 A3015 RMK AO2 SLP210 T01330111=
201708181153 METAR KCLM 181153Z AUTO 25004KT 10SM CLR 12/11 A3015 RMK AO2 SLP209 T01220106 10144 20111 56001=
201708181053 METAR KCLM 181053Z AUTO 00000KT 10SM CLR 12/11 A3015 RMK AO2 SLP209 T01220106=
201708180953 METAR KCLM 180953Z AUTO 29008KT 10SM CLR 13/11 A3015 RMK AO2 SLP209 T01330106=
201708180853 METAR KCLM 180853Z AUTO 28009KT 10SM CLR 14/11 A3015 RMK AO2 SLP210 T01390106 58010=
201708180753 METAR KCLM 180753Z AUTO 26007KT 10SM CLR 13/11 A3017 RMK AO2 SLP215 T01280106 401940117=
201708180653 METAR KCLM 180653Z AUTO 28010KT 10SM CLR 14/11 A3017 RMK AO2 SLP218 T01390106=
201708180553 METAR KCLM 180553Z AUTO 28010G19KT 10SM CLR 14/11 A3018 RMK AO2 SLP220 T01390106 10183 20139 52001=
201708180453 METAR KCLM 180453Z AUTO 28010G18KT 10SM CLR 14/11 A3018 RMK AO2 SLP220 T01390106=
201708180353 METAR KCLM 180353Z AUTO 28012KT 10SM CLR 14/11 A3018 RMK AO2 SLP219 T01390106=
201708180253 METAR KCLM 180253Z AUTO 29010KT 10SM CLR 15/11 A3018 RMK AO2 SLP219 T01500106 55004=
201708180153 METAR KCLM 180153Z AUTO 31010KT 10SM CLR 17/11 A3017 RMK AO2 SLP218 T01670111=
201708180053 METAR KCLM 180053Z AUTO 30012KT 10SM CLR 18/12 A3018 RMK AO2 SLP219 T01780117=
201708172353 METAR KCLM 172353Z AUTO 32012G18KT 10SM CLR 18/12 A3019 RMK AO2 SLP223 T01830117 10194 20161 58006=
201708172253 METAR KCLM 172253Z AUTO 31010G19KT 10SM CLR 19/12 A3020 RMK AO2 SLP226 T01940122=
201708172153 METAR KCLM 172153Z AUTO 30010KT 10SM CLR 18/13 A3020 RMK AO2 SLP227 T01830128=
201708172053 METAR KCLM 172053Z AUTO 30010KT 10SM CLR 18/13 A3021 RMK AO2 SLP229 T01830128 50002=
201708171953 METAR KCLM 171953Z AUTO 30009KT 10SM CLR 17/13 A3021 RMK AO2 SLP230 T01720128=
201708171853 METAR KCLM 171853Z AUTO 33010KT 10SM CLR 17/12 A3021 RMK AO2 SLP230 T01670122=
201708171753 METAR KCLM 171753Z AUTO 30012KT 10SM CLR 17/12 A3020 RMK AO2 SLP227 T01670122 10167 20117 53005=
201708171653 METAR KCLM 171653Z AUTO 32009KT 10SM CLR 16/12 A3019 RMK AO2 SLP224 T01560122=
201708171553 METAR KCLM 171553Z AUTO 30010KT 10SM CLR 15/13 A3019 RMK AO2 SLP225 T01500128=
201708171539 SPECI KCLM 171539Z AUTO 31008KT 10SM FEW009 14/13 A3019 RMK AO2 T01440128=
201708171453 METAR KCLM 171453Z AUTO 30007KT 10SM CLR 14/12 A3019 RMK AO2 SLP222 T01390122 53010=
201708171353 METAR KCLM 171353Z AUTO 26006KT 10SM CLR 12/12 A3017 RMK AO2 SLP217 T01220117=
201708171253 METAR KCLM 171253Z AUTO 26006KT 10SM CLR 12/12 A3016 RMK AO2 SLP213 T01170117 $=
201708171153 METAR KCLM 171153Z AUTO 28007KT 10SM CLR 12/11 A3016 RMK AO2 SLP212 T01170111 10150 20117 53007 $=
201708171053 METAR KCLM 171053Z AUTO 29005KT 10SM SCT022 12/11 A3014 RMK AO2 SLP206 T01220111 $=
201708170953 METAR KCLM 170953Z AUTO 30006KT 10SM FEW022 13/12 A3014 RMK AO2 SLP206 T01330117 $=
201708170927 SPECI KCLM 170927Z AUTO 28006KT 10SM SCT025 13/12 A3013 RMK AO2 T01330117 $=
201708170853 METAR KCLM 170853Z AUTO 30007KT 10SM OVC026 14/12 A3014 RMK AO2 SLP205 T01440122 53003 $=
201708170753 METAR KCLM 170753Z AUTO 30007KT 10SM OVC026 15/13 A3013 RMK AO2 SLP203 T01500128 402060117 $=
201708170653 METAR KCLM 170653Z AUTO 29007KT 10SM OVC027 15/14 A3013 RMK AO2 SLP203 T01500139 TSNO $=
201708170553 METAR KCLM 170553Z AUTO 30008KT 10SM FEW007 OVC023 15/14 A3013 RMK AO2 SLP202 T01500144 10200 20150 51009 TSNO $=
201708170545 SPECI KCLM 170545Z AUTO 30008KT 10SM SCT007 OVC023 15/14 A3013 RMK AO2 T01500144 TSNO $=
201708170524 SPECI KCLM 170524Z AUTO 30009KT 10SM BKN006 OVC023 15/14 A3012 RMK AO2 T01500144 TSNO $=
201708170504 SPECI KCLM 170504Z AUTO 30007KT 10SM FEW009 OVC024 15/14 A3012 RMK AO2 T01500144 TSNO $=
201708170453 METAR KCLM 170453Z AUTO 30008KT 10SM SCT010 OVC024 15/14 A3012 RMK AO2 SLP200 T01500144 TSNO $=
201708170439 SPECI KCLM 170439Z AUTO 30006KT 10SM BKN010 OVC024 16/14 A3012 RMK AO2 CIG 007V012 T01560144 TSNO $=
201708170417 SPECI KCLM 170417Z AUTO 32005KT 10SM SCT010 OVC023 16/14 A3012 RMK AO2 T01560144 TSNO $=
201708170353 METAR KCLM 170353Z AUTO 29008KT 10SM OVC008 16/15 A3011 RMK AO2 SLP197 T01610150 TSNO $=
201708170335 SPECI KCLM 170335Z AUTO 29009G16KT 10SM BKN009 OVC016 16/15 A3011 RMK AO2 T01610150 TSNO $=
201708170327 SPECI KCLM 170327Z AUTO 29009G17KT 10SM SCT008 BKN016 16/15 A3011 RMK AO2 T01610150 TSNO $=
201708170253 METAR KCLM 170253Z AUTO 28007KT 10SM OVC008 16/15 A3010 RMK AO2 SLP193 T01610150 55000 $=
201708170153 METAR KCLM 170153Z AUTO 27010KT 10SM OVC007 17/15 A3010 RMK AO2 SLP193 T01670150 $=
201708170116 SPECI KCLM 170116Z AUTO 27011KT 10SM OVC009 17/15 A3010 RMK AO2 T01720150 $=
201708170053 METAR KCLM 170053Z AUTO 27010KT 10SM BKN010 OVC015 18/15 A3010 RMK AO2 CIG 009V013 SLP193 T01830150 $=
201708170030 SPECI KCLM 170030Z AUTO 27012KT 10SM BKN015 19/15 A3010 RMK AO2 T01890150 $=
201708162353 METAR KCLM 162353Z AUTO 30011KT 10SM SCT017 19/15 A3010 RMK AO2 SLP194 T01890150 10206 20167 56005 $=
201708162253 METAR KCLM 162253Z AUTO 32008KT 10SM FEW060 20/15 A3010 RMK AO2 SLP194 T02000150 $=
201708162153 METAR KCLM 162153Z AUTO VRB06KT 10SM OVC055 20/14 A3011 RMK AO2 SLP197 T02000144 $=
201708162053 METAR KCLM 162053Z AUTO 31011G17KT 10SM FEW036 OVC065 19/14 A3012 RMK AO2 SLP199 T01940139 52000 $=
201708161953 METAR KCLM 161953Z AUTO 28007KT 10SM BKN046 OVC055 19/14 A3012 RMK AO2 SLP200 T01890139 $=
201708161853 METAR KCLM 161853Z AUTO 30005KT 10SM OVC060 17/13 A3012 RMK AO2 SLP199 T01720133 $=
201708161753 METAR KCLM 161753Z AUTO VRB04KT 10SM OVC060 17/13 A3012 RMK AO2 SLP199 T01670133 10167 20122 53007=
201708161653 METAR KCLM 161653Z AUTO 31007KT 10SM OVC080 16/13 A3011 RMK AO2 SLP194 T01610128=
201708161553 METAR KCLM 161553Z AUTO 28007KT 240V300 10SM SCT080 16/13 A3010 RMK AO2 SLP193 T01610128=
201708161453 METAR KCLM 161453Z AUTO 28007KT 10SM CLR 14/12 A3010 RMK AO2 SLP192 T01440122 53008 $=
201708161353 METAR KCLM 161353Z AUTO 29008KT 10SM FEW095 13/11 A3008 RMK AO2 SLP187 T01280111 $=
201708161253 METAR KCLM 161253Z AUTO 29008KT 10SM CLR 12/11 A3007 RMK AO2 SLP183 T01220106 $=
201708161153 METAR KCLM 161153Z AUTO 26006KT 10SM SCT110 13/11 A3007 RMK AO2 SLP184 T01280106 10139 20117 51007 $=
201708161053 METAR KCLM 161053Z AUTO 27012KT 9SM CLR 12/12 A3007 RMK AO2 SLP182 T01220117 $=
201708160953 METAR KCLM 160953Z AUTO 29010KT 10SM CLR 12/11 A3006 RMK AO2 SLP178 T01220106 $=
201708160853 METAR KCLM 160853Z AUTO 27008KT 10SM CLR 13/09 A3005 RMK AO2 SLP176 T01280094 52003 $=
201708160753 METAR KCLM 160753Z AUTO 27007KT 10SM CLR 13/09 A3005 RMK AO2 SLP174 T01330094 402000094 $=
201708160653 METAR KCLM 160653Z AUTO 27008KT 10SM CLR 13/09 A3005 RMK AO2 SLP174 T01280094 $=
201708160553 METAR KCLM 160553Z AUTO 28010KT 10SM CLR 13/09 A3004 RMK AO2 SLP172 T01330094 10200 20133 51008 $=
201708160453 METAR KCLM 160453Z AUTO 26008KT 10SM CLR 14/09 A3003 RMK AO2 SLP170 T01440094 $=
201708160353 METAR KCLM 160353Z AUTO 27008KT 10SM CLR 14/09 A3003 RMK AO2 SLP170 T01440089 $=
201708160253 METAR KCLM 160253Z AUTO 30009KT 10SM CLR 16/09 A3002 RMK AO2 SLP165 T01560089 53003 $=
201708160153 METAR KCLM 160153Z AUTO 29012KT 10SM CLR 17/09 A3001 RMK AO2 SLP162 T01720089 $=
201708160053 METAR KCLM 160053Z AUTO 28015KT 10SM CLR 19/11 A3001 RMK AO2 SLP161 T01940106 $=
201708152353 METAR KCLM 152353Z AUTO 31010KT 10SM CLR 19/11 A3001 RMK AO2 SLP161 T01890111 10200 20150 56002 $=
201708152253 METAR KCLM 152253Z AUTO 34007KT 10SM CLR 19/11 A3001 RMK AO2 SLP163 T01890111 $=
201708152153 METAR KCLM 152153Z AUTO VRB04KT 10SM CLR 19/12 A3001 RMK AO2 SLP161 T01890117 $=
201708152053 METAR KCLM 152053Z AUTO 30006KT 10SM CLR 18/12 A3001 RMK AO2 SLP163 T01830117 53002 $=
201708151953 METAR KCLM 151953Z AUTO 36006KT 10SM CLR 18/11 A3000 RMK AO2 SLP159 T01830111 $=
201708151853 METAR KCLM 151853Z AUTO 01005KT 10SM CLR 18/11 A3001 RMK AO2 SLP161 T01780106 $=
201708151753 METAR KCLM 151753Z AUTO 35005KT 10SM CLR 15/11 A3001 RMK AO2 SLP161 T01500111 10167 20094 53007=
201708151653 METAR KCLM 151653Z AUTO 35005KT 10SM CLR 14/11 A3000 RMK AO2 SLP160 T01390111=
201708151553 METAR KCLM 151553Z AUTO 00000KT 10SM CLR 15/11 A2998 RMK AO2 SLP152 T01500111=
201708151524 SPECI KCLM 151524Z AUTO 00000KT 9SM SCT001 12/12 A2998 RMK AO2 T01170117=
201708151516 SPECI KCLM 151516Z AUTO 28003KT 2SM BR BKN001 11/11 A2998 RMK AO2 T01110111=
201708151508 SPECI KCLM 151508Z AUTO 30005KT 3/4SM BR VV001 11/11 A2999 RMK AO2 T01060106=
201708151500 SPECI KCLM 151500Z AUTO 33006KT 1SM BR VV001 11/10 A2999 RMK AO2 T01060100=
201708151458 SPECI KCLM 151458Z AUTO 33006KT 2SM BR FEW001 11/11 A2999 RMK AO2 T01060106=
201708151453 METAR KCLM 151453Z AUTO 32005KT 8SM CLR 11/11 A2999 RMK AO2 SLP155 T01060106 53013=
201708151353 METAR KCLM 151353Z AUTO 30003KT 10SM CLR 10/09 A2997 RMK AO2 SLP148 T01000094=
201708151253 METAR KCLM 151253Z AUTO 30004KT 10SM CLR 11/09 A2996 RMK AO2 SLP146 T01060094=
201708151153 METAR KCLM 151153Z AUTO 28007KT 9SM CLR 09/09 A2995 RMK AO2 SLP140 T00940089 10117 20094 58002=
201708151053 METAR KCLM 151053Z AUTO 29005KT 10SM CLR 10/09 A2995 RMK AO2 SLP142 T01000094=
201708150953 METAR KCLM 150953Z AUTO 27006KT 10SM CLR 11/10 A2995 RMK AO2 SLP143 T01110100=
201708150853 METAR KCLM 150853Z AUTO 30007KT 9SM CLR 11/11 A2995 RMK AO2 SLP142 T01060106 53002=
201708150753 METAR KCLM 150753Z AUTO 29007KT 8SM CLR 11/10 A2995 RMK AO2 SLP140 T01060100 401830100=
201708150653 METAR KCLM 150653Z AUTO 31006KT 8SM CLR 11/11 A2995 RMK AO2 SLP142 T01110106=
201708150553 METAR KCLM 150553Z AUTO 28005KT 7SM CLR 11/11 A2995 RMK AO2 SLP141 T01060106 10167 20106 58004=
201708150453 METAR KCLM 150453Z AUTO 31004KT 10SM CLR 12/11 A2996 RMK AO2 SLP144 T01170106=
201708150353 METAR KCLM 150353Z AUTO 28007KT 10SM CLR 13/11 A2996 RMK AO2 SLP145 T01330111=
201708150253 METAR KCLM 150253Z AUTO 31006KT 9SM CLR 13/11 A2996 RMK AO2 SLP144 T01330111 55008=
201708150153 METAR KCLM 150153Z AUTO 00000KT 9SM CLR 16/12 A2996 RMK AO2 SLP144 T01610117=
201708150053 METAR KCLM 150053Z AUTO 30005KT 10SM CLR 16/11 A2998 RMK AO2 SLP150 T01560111=
201708142353 METAR KCLM 142353Z AUTO 31008KT 10SM CLR 16/11 A2998 RMK AO2 SLP153 T01610111 10183 20150 56013=
201708142253 METAR KCLM 142253Z AUTO 34006KT 10SM CLR 18/11 A2999 RMK AO2 SLP155 T01780111=
201708142153 METAR KCLM 142153Z AUTO 34006KT 10SM CLR 17/11 A3001 RMK AO2 SLP161 T01670111=
201708142053 METAR KCLM 142053Z AUTO 32005KT 10SM CLR 18/11 A3002 RMK AO2 SLP166 T01780111 58004=
201708141953 METAR KCLM 141953Z AUTO VRB04KT 10SM CLR 16/11 A3003 RMK AO2 SLP167 T01610111=
201708141853 METAR KCLM 141853Z AUTO 35007KT 10SM CLR 15/11 A3004 RMK AO2 SLP172 T01500111=
201708141753 METAR KCLM 141753Z AUTO 33006KT 10SM CLR 16/11 A3003 RMK AO2 SLP170 T01560111 10156 20100 51002=
201708141653 METAR KCLM 141653Z AUTO 33007KT 10SM CLR 15/11 A3003 RMK AO2 SLP169 T01500111=
201708141553 METAR KCLM 141553Z AUTO 28006KT 10SM CLR 14/11 A3003 RMK AO2 SLP170 T01440106=
201708141453 METAR KCLM 141453Z AUTO 26005KT 10SM CLR 13/08 A3003 RMK AO2 SLP168 T01330083 55001=
201708141353 METAR KCLM 141353Z AUTO 25005KT 10SM CLR 12/07 A3003 RMK AO2 SLP167 T01170072=
201708141253 METAR KCLM 141253Z AUTO 26005KT 10SM CLR 11/07 A3002 RMK AO2 SLP167 T01060072=
201708141153 METAR KCLM 141153Z AUTO 25007KT 10SM OVC050 11/08 A3003 RMK AO2 SLP168 T01110078 10139 20106 58004=
201708141053 METAR KCLM 141053Z AUTO 26006KT 10SM FEW049 11/08 A3004 RMK AO2 SLP171 T01060078=
201708140953 METAR KCLM 140953Z AUTO 27006KT 10SM CLR 11/08 A3004 RMK AO2 SLP172 T01060078=
201708140853 METAR KCLM 140853Z AUTO 26008KT 10SM CLR 11/08 A3004 RMK AO2 SLP173 T01110083 58002=
201708140753 METAR KCLM 140753Z AUTO 26007KT 10SM CLR 12/08 A3005 RMK AO2 SLP174 T01170083 401720106=
201708140653 METAR KCLM 140653Z AUTO 28008KT 10SM CLR 12/08 A3006 RMK AO2 SLP177 T01220083=
201708140553 METAR KCLM 140553Z AUTO 29010KT 10SM CLR 14/08 A3005 RMK AO2 SLP175 T01390078 10161 20128 53002=
201708140453 METAR KCLM 140453Z AUTO 28012KT 10SM CLR 13/09 A3004 RMK AO2 SLP173 T01330094 $=
201708140353 METAR KCLM 140353Z AUTO 30013KT 10SM CLR 13/09 A3004 RMK AO2 SLP172 T01330094=
201708140253 METAR KCLM 140253Z AUTO 31007KT 10SM CLR 15/10 A3004 RMK AO2 SLP173 T01500100 54000=
201708140153 METAR KCLM 140153Z AUTO 30014G19KT 10SM CLR 15/10 A3004 RMK AO2 SLP174 T01500100=
201708140053 METAR KCLM 140053Z AUTO 30012G20KT 9SM CLR 16/11 A3004 RMK AO2 PK WND 29030/0019 SLP172 T01610106=
201708132353 METAR KCLM 132353Z AUTO 30016G22KT 9SM CLR 16/11 A3004 RMK AO2 PK WND 28026/2335 SLP173 T01610106 10172 20156 51004=
201708132253 METAR KCLM 132253Z AUTO 31016G25KT 8SM CLR 16/11 A3004 RMK AO2 SLP173 T01560111=
201708132153 METAR KCLM 132153Z AUTO 30013G25KT 8SM CLR 16/12 A3004 RMK AO2 PK WND 30029/2056 SLP172 T01610117=
201708132053 METAR KCLM 132053Z AUTO 31016G26KT 8SM CLR 16/12 A3003 RMK AO2 PK WND 29026/2045 SLP169 T01610122 53009=
201708131953 METAR KCLM 131953Z AUTO 31012G21KT 10SM CLR 17/13 A3002 RMK AO2 SLP165 T01720128=
201708131853 METAR KCLM 131853Z AUTO 31013G21KT 10SM FEW055 16/13 A3001 RMK AO2 SLP163 T01610128=
201708131811 SPECI KCLM 131811Z AUTO 31008G18KT 270V360 9SM FEW009 SCT050 16/14 A3001 RMK AO2 T01610139=
201708131753 METAR KCLM 131753Z AUTO 32007KT 270V340 10SM FEW047 16/13 A3000 RMK AO2 SLP160 60000 T01560128 10167 20133 52021=
201708131653 METAR KCLM 131653Z AUTO 33006KT 10SM FEW034 SCT055 16/13 A2998 RMK AO2 SLP152 T01560128=
201708131553 METAR KCLM 131553Z AUTO 32006KT 10SM OVC033 13/12 A2996 RMK AO2 SLP145 T01330122=
201708131453 METAR KCLM 131453Z AUTO VRB03KT 10SM FEW007 BKN036 15/15 A2994 RMK AO2 SLP138 60000 T01500150 51011=
201708131411 SPECI KCLM 131411Z AUTO 28008KT 10SM SCT007 BKN036 BKN042 14/14 A2992 RMK AO2 T01440144=
201708131353 METAR KCLM 131353Z AUTO 28009KT 10SM OVC006 14/14 A2993 RMK AO2 RAB1258E08 SLP134 P0000 T01440144=
201708131253 METAR KCLM 131253Z AUTO 32006KT 10SM OVC006 14/14 A2993 RMK AO2 RAB08E22 SLP134 P0000 T01440144=
201708131227 SPECI KCLM 131227Z AUTO 29004KT 10SM OVC002 14/14 A2991 RMK AO2 RAB08E22 P0000 T01440144=
201708131219 SPECI KCLM 131219Z AUTO 27005KT 2SM -RA BR OVC002 14/14 A2991 RMK AO2 RAB08 P0000 T01440144=
201708131206 SPECI KCLM 131206Z AUTO 00000KT 1/2SM FG VV002 14/14 A2991 RMK AO2 T01390139=
201708131153 METAR KCLM 131153Z AUTO 30003KT 1/4SM FG VV002 14/14 A2991 RMK AO2 SLP127 60002 70014 T01390139 10150 20139 51005=
201708131149 SPECI KCLM 131149Z AUTO 33003KT 1/2SM FG VV002 14/14 A2990 RMK AO2=
201708131130 SPECI KCLM 131130Z AUTO 33003KT 1 3/4SM BR OVC003 14/14 A2990 RMK AO2 VIS 1 1/4V3 T01390139=
201708131053 METAR KCLM 131053Z AUTO 28003KT 10SM OVC003 14/14 A2990 RMK AO2 SLP123 T01440144=
201708130953 METAR KCLM 130953Z AUTO 27004KT 10SM BKN004 BKN008 OVC018 14/14 A2989 RMK AO2 CIG 002V006 SLP122 T01440144=
201708130943 SPECI KCLM 130943Z AUTO 00000KT 10SM BKN005 BKN009 OVC013 14/14 A2989 RMK AO2 T01440144=
201708130923 SPECI KCLM 130923Z AUTO 29003KT 10SM BKN004 OVC014 14/14 A2990 RMK AO2 T01440144=
201708130908 SPECI KCLM 130908Z AUTO 28003KT 10SM FEW004 BKN014 OVC080 14/14 A2990 RMK AO2 T01440144=
201708130853 METAR KCLM 130853Z AUTO 27003KT 10SM BKN014 OVC070 15/14 A2990 RMK AO2 SLP124 60002 T01500144 58004=
201708130834 SPECI KCLM 130834Z AUTO 26003KT 10SM BKN014 OVC065 15/14 A2990 RMK AO2 T01500144=
201708130753 METAR KCLM 130753Z AUTO 23003KT 10SM OVC016 15/15 A2991 RMK AO2 RAE0658 SLP129 P0000 T01500150 401890106=
201708130733 SPECI KCLM 130733Z AUTO 23003KT 10SM BKN017 OVC060 14/14 A2991 RMK AO2 RAE0658 P0000 T01440144=
201708130653 METAR KCLM 130653Z AUTO 23004KT 10SM -RA FEW022 FEW048 OVC070 14/14 A2991 RMK AO2 SLP129 P0002 T01440144=
201708130553 METAR KCLM 130553Z AUTO 00000KT 7SM -RA OVC070 14/14 A2991 RMK AO2 SLP128 P0003 60012 T01440144 10178 20139 58008=
201708130453 METAR KCLM 130453Z AUTO 00000KT 7SM -RA SCT070 BKN090 OVC100 14/14 A2992 RMK AO2 SLP132 P0005 T01440144=
201708130353 METAR KCLM 130353Z AUTO 00000KT 5SM -RA BR OVC095 14/14 A2993 RMK AO2 RAB0255 SLP135 P0004 T01440139=
201708130253 METAR KCLM 130253Z AUTO 30003KT 10SM BKN075 15/13 A2993 RMK AO2 SLP136 T01500128 51004=
201708130153 METAR KCLM 130153Z AUTO 30008KT 10SM CLR 16/13 A2993 RMK AO2 SLP135 T01560128=
201708130053 METAR KCLM 130053Z AUTO 30012G17KT 10SM FEW016 17/13 A2993 RMK AO2 SLP134 T01670128=
201708122353 METAR KCLM 122353Z AUTO 30009KT 10SM CLR 18/13 A2992 RMK AO2 SLP132 T01780128 10189 20150 56007=
201708122253 METAR KCLM 122253Z AUTO 34010KT 10SM CLR 18/13 A2992 RMK AO2 SLP133 T01830128=
201708122153 METAR KCLM 122153Z AUTO 31011KT 10SM CLR 19/13 A2993 RMK AO2 SLP136 T01890128=
201708122053 METAR KCLM 122053Z AUTO 31008KT 10SM CLR 18/12 A2994 RMK AO2 SLP139 T01780122 58001=
201708121953 METAR KCLM 121953Z AUTO 30007KT 10SM CLR 17/12 A2995 RMK AO2 SLP140 T01720122=
201708121853 METAR KCLM 121853Z AUTO 36004KT 10SM FEW014 16/12 A2995 RMK AO2 SLP141 T01610117=
201708121753 METAR KCLM 121753Z AUTO VRB05KT 10SM CLR 15/12 A2994 RMK AO2 SLP139 T01500117 10156 20106 51002=
201708121653 METAR KCLM 121653Z AUTO VRB04KT 10SM CLR 15/12 A2994 RMK AO2 SLP138 T01500117=
201708121553 METAR KCLM 121553Z AUTO 27007KT 10SM CLR 14/12 A2994 RMK AO2 SLP138 T01390117=
201708121523 SPECI KCLM 121523Z AUTO 28006KT 10SM SCT006 13/12 A2995 RMK AO2 T01280117=
201708121453 METAR KCLM 121453Z AUTO 30003KT 10SM OVC007 12/12 A2994 RMK AO2 SLP137 T01220117 50003=
201708121423 SPECI KCLM 121423Z AUTO 00000KT 10SM BKN007 BKN011 12/12 A2995 RMK AO2 CIG 003V009 T01170117=
201708121407 SPECI KCLM 121407Z AUTO 00000KT 8SM FEW005 11/10 A2995 RMK AO2 T01060100=
201708121353 METAR KCLM 121353Z AUTO 00000KT 10SM CLR 11/11 A2996 RMK AO2 SLP144 T01060106=
201708121253 METAR KCLM 121253Z AUTO 28003KT 10SM CLR 12/11 A2994 RMK AO2 SLP138 T01170111=
201708121153 METAR KCLM 121153Z AUTO 30013G18KT 10SM CLR 12/11 A2993 RMK AO2 SLP134 T01220111 10122 20117 58001=
201708121053 METAR KCLM 121053Z AUTO 26004KT 10SM CLR 12/12 A2994 RMK AO2 SLP139 T01170117=
201708121013 SPECI KCLM 121013Z AUTO 00000KT 10SM SCT005 12/12 A2995 RMK AO2 T01170117=
201708121002 SPECI KCLM 121002Z AUTO 00000KT 10SM BKN005 12/12 A2994 RMK AO2 T01170117=
201708120953 METAR KCLM 120953Z AUTO 00000KT 10SM OVC004 12/12 A2994 RMK AO2 SLP139 T01170117=
201708120853 METAR KCLM 120853Z AUTO 29008KT 10SM OVC003 12/12 A2993 RMK AO2 SLP136 T01170117 50005=
201708120753 METAR KCLM 120753Z AUTO 29008KT 9SM OVC003 12/12 A2993 RMK AO2 SLP136 T01170117 401830106=
201708120653 METAR KCLM 120653Z AUTO 28010KT 6SM BR OVC002 12/12 A2992 RMK AO2 SLP130 T01170117 TSNO=
201708120553 METAR KCLM 120553Z AUTO 29013G20KT 9SM OVC003 12/12 A2992 RMK AO2 SLP130 T01220122 10156 20122 53003=
201708120453 METAR KCLM 120453Z AUTO 29013G19KT 10SM BKN004 12/12 A2991 RMK AO2 SLP128 T01220122=
201708120430 SPECI KCLM 120430Z AUTO 29013KT 10SM BKN004 12/12 A2990 RMK AO2 T01220122=
201708120420 SPECI KCLM 120420Z AUTO 29011KT 10SM SCT004 12/12 A2990 RMK AO2 T01220122=
201708120353 METAR KCLM 120353Z AUTO 29011KT 10SM BKN004 12/12 A2990 RMK AO2 SLP126 T01220117=
201708120338 SPECI KCLM 120338Z AUTO 30009KT 10SM BKN004 12/12 A2990 RMK AO2 T01220117=
201708120318 SPECI KCLM 120318Z AUTO 30008KT 10SM FEW005 12/12 A2991 RMK AO2 T01220117=
201708120253 METAR KCLM 120253Z AUTO 32007KT 10SM CLR 13/12 A2991 RMK AO2 SLP128 T01330122 58007=
201708120205 SPECI KCLM 120205Z AUTO 29013G20KT 10SM SCT006 13/12 A2991 RMK AO2 T01330122=
201708120153 METAR KCLM 120153Z AUTO 29012G20KT 10SM BKN006 14/12 A2991 RMK AO2 SLP130 T01390122=
201708120124 SPECI KCLM 120124Z AUTO 29011G18KT 10SM BKN007 14/12 A2992 RMK AO2 T01390122=
201708120108 SPECI KCLM 120108Z AUTO 28016KT 10SM FEW008 14/12 A2992 RMK AO2 T01440122=
201708120053 METAR KCLM 120053Z AUTO 29009G16KT 10SM CLR 15/13 A2992 RMK AO2 SLP133 T01500128=
201708112353 METAR KCLM 112353Z AUTO 29007KT 10SM CLR 16/12 A2993 RMK AO2 SLP134 T01560122 10183 20144 56008=
201708112253 METAR KCLM 112253Z AUTO 31009KT 10SM CLR 17/13 A2994 RMK AO2 SLP137 T01720128=
201708112153 METAR KCLM 112153Z AUTO 30009KT 10SM CLR 18/13 A2994 RMK AO2 SLP138 T01780128=
201708112053 METAR KCLM 112053Z AUTO 32006KT 10SM CLR 17/12 A2995 RMK AO2 SLP142 T01720122 58004=
201708111953 METAR KCLM 111953Z AUTO 30008KT 7SM CLR 15/12 A2996 RMK AO2 SLP146 T01500122=
201708111853 METAR KCLM 111853Z AUTO VRB06KT 10SM CLR 16/12 A2997 RMK AO2 SLP147 T01610122=
201708111753 METAR KCLM 111753Z AUTO 31006KT 10SM CLR 14/12 A2996 RMK AO2 SLP146 T01440117 10150 20106 58002=
201708111653 METAR KCLM 111653Z AUTO 30007KT 10SM CLR 13/12 A2997 RMK AO2 SLP149 T01330117=
201708111608 SPECI KCLM 111608Z AUTO 31004KT 10SM SCT004 13/12 A2997 RMK AO2 T01330117=
201708111553 METAR KCLM 111553Z AUTO 30005KT 10SM BKN003 13/12 A2997 RMK AO2 SLP149 T01280117=
201708111518 SPECI KCLM 111518Z AUTO 28005KT 8SM OVC002 11/11 A2997 RMK AO2 T01110111=
201708111508 SPECI KCLM 111508Z AUTO 29005KT 2SM BR OVC002 11/11 A2997 RMK AO2 VIS 1 1/2V3 T01110111=
201708111500 SPECI KCLM 111500Z AUTO 28005KT 3SM BR OVC002 11/11 A2997 RMK AO2 T01060106=
201708111453 METAR KCLM 111453Z AUTO 29005KT 2 1/2SM BR OVC002 11/11 A2997 RMK AO2 SLP149 T01110111 51005=
201708111441 SPECI KCLM 111441Z AUTO 29004KT 1 1/4SM BR OVC002 11/11 A2997 RMK AO2 T01060106=
201708111420 SPECI KCLM 111420Z AUTO 28005KT 3/4SM BR VV002 11/11 A2997 RMK AO2 T01060106=
201708111353 METAR KCLM 111353Z AUTO 30006KT 1/4SM FG VV002 11/11 A2997 RMK AO2 SLP149 T01060106=
201708111323 SPECI KCLM 111323Z AUTO 29006KT 1/4SM FG VV002 11/11 A2996 RMK AO2 T01060106=
201708111253 METAR KCLM 111253Z AUTO 30006KT 3/4SM BR VV002 11/11 A2996 RMK AO2 SLP145 T01060106=
201708111153 METAR KCLM 111153Z AUTO 29006KT 3/4SM BR VV002 11/11 A2996 RMK AO2 SLP143 T01060106 10111 20106 50006=
201708111129 SPECI KCLM 111129Z AUTO 28005KT 3/4SM BR VV002 11/11 A2995 RMK AO2 T01060106=
201708111117 SPECI KCLM 111117Z AUTO 29007KT 1SM BR VV002 11/11 A2996 RMK AO2 T01060106=
201708111053 METAR KCLM 111053Z AUTO 29006KT 3/4SM BR VV002 11/11 A2996 RMK AO2 SLP144 T01060106=
201708110953 METAR KCLM 110953Z AUTO 30004KT 1/2SM FG VV002 11/11 A2995 RMK AO2 SLP141 T01060106=
201708110853 METAR KCLM 110853Z AUTO 28005KT 1/2SM FG VV002 11/11 A2994 RMK AO2 SLP138 T01110111 51009=
201708110845 SPECI KCLM 110845Z AUTO 29004KT 1/2SM FG VV002 11/11 A2994 RMK AO2 T01110111=
201708110827 SPECI KCLM 110827Z AUTO 31004KT 1/4SM FG VV002 11/11 A2994 RMK AO2 T01110111=
201708110816 SPECI KCLM 110816Z AUTO 29003KT 1/2SM FG VV002 11/11 A2994 RMK AO2 T01110111=
201708110806 SPECI KCLM 110806Z AUTO 28003KT 1/4SM FG VV002 11/11 A2993 RMK AO2 T01110111=
201708110753 METAR KCLM 110753Z AUTO 00000KT 1/2SM FG VV002 11/11 A2993 RMK AO2 SLP136 T01110111 402060100=
201708110742 SPECI KCLM 110742Z AUTO 00000KT 3/4SM BR VV002 11/11 A2993 RMK AO2 T01110111=
201708110729 SPECI KCLM 110729Z AUTO 00000KT 1 3/4SM BR BKN001 11/11 A2993 RMK AO2 T01110111=
201708110726 SPECI KCLM 110726Z AUTO 00000KT 2 1/2SM BR BKN002 11/11 A2993 RMK AO2 T01060106=
201708110722 SPECI KCLM 110722Z AUTO 31003KT 5SM BR SCT002 11/11 A2992 RMK AO2 T01060106=
201708110653 METAR KCLM 110653Z AUTO 00000KT 10SM CLR 11/11 A2992 RMK AO2 SLP131 T01110111=
201708110553 METAR KCLM 110553Z AUTO 30004KT 10SM CLR 12/12 A2991 RMK AO2 SLP129 T01170117 10183 20117 53001=
201708110453 METAR KCLM 110453Z AUTO 29006KT 10SM CLR 12/12 A2991 RMK AO2 SLP127 T01170117=
201708110353 METAR KCLM 110353Z AUTO 31005KT 10SM CLR 13/12 A2991 RMK AO2 SLP126 T01280117=
201708110253 METAR KCLM 110253Z AUTO 31004KT 10SM CLR 15/12 A2991 RMK AO2 SLP128 T01500122 56014=
201708110153 METAR KCLM 110153Z AUTO 32003KT 10SM CLR 17/13 A2992 RMK AO2 SLP130 T01720128=
201708110053 METAR KCLM 110053Z AUTO 30008KT 10SM CLR 17/12 A2993 RMK AO2 SLP136 T01720122=
201708102353 METAR KCLM 102353Z AUTO VRB05KT 10SM CLR 18/13 A2995 RMK AO2 SLP141 T01830128 10206 20167 58012=
201708102253 METAR KCLM 102253Z AUTO VRB05KT 8SM CLR 19/13 A2996 RMK AO2 SLP145 T01890128=
201708102153 METAR KCLM 102153Z AUTO 34007KT 8SM CLR 19/13 A2998 RMK AO2 SLP150 T01890128=
201708102053 METAR KCLM 102053Z AUTO 32005KT 9SM CLR 19/13 A2998 RMK AO2 SLP153 T01890128 58005=
201708101953 METAR KCLM 101953Z AUTO VRB04KT 8SM CLR 19/13 A2999 RMK AO2 SLP156 T01940128=
201708101853 METAR KCLM 101853Z AUTO VRB04KT 10SM CLR 17/12 A2999 RMK AO2 SLP156 T01720122=
201708101753 METAR KCLM 101753Z AUTO 33004KT 10SM CLR 17/13 A3000 RMK AO2 SLP158 T01720128 10172 20100 53001=
201708101653 METAR KCLM 101653Z AUTO 36004KT 10SM CLR 15/12 A3000 RMK AO2 SLP158 T01500122=
201708101553 METAR KCLM 101553Z AUTO 01003KT 10SM CLR 14/12 A2999 RMK AO2 SLP157 T01390122=
201708101453 METAR KCLM 101453Z AUTO 00000KT 10SM FEW001 12/12 A3000 RMK AO2 SLP157 T01170117 51006=
201708101451 SPECI KCLM 101451Z AUTO 00000KT 10SM SCT001 12/12 A3000 RMK AO2=
201708101436 SPECI KCLM 101436Z AUTO 00000KT 3SM BR BKN001 11/11 A3000 RMK AO2 T01110111=
201708101424 SPECI KCLM 101424Z AUTO 30004KT 1SM BR VV001 11/11 A2999 RMK AO2 T01060106=
201708101353 METAR KCLM 101353Z AUTO 28003KT M1/4SM FG VV001 11/11 A2999 RMK AO2 SLP156 T01060106=
201708101331 SPECI KCLM 101331Z AUTO 29005KT M1/4SM FG VV001 10/10 A2998 RMK AO2 T01000100=
201708101320 SPECI KCLM 101320Z AUTO 30005KT 1/4SM FG VV002 10/10 A2998 RMK AO2 T01000100=
201708101313 SPECI KCLM 101313Z AUTO 29004KT 1/2SM FG VV003 10/10 A2998 RMK AO2 T01000100=
201708101256 SPECI KCLM 101256Z AUTO 31004KT 3/4SM BR VV006 10/10 A2998 RMK AO2 T01000100=
201708101253 METAR KCLM 101253Z AUTO 31003KT 1 1/4SM BR CLR 11/11 A2998 RMK AO2 SLP151 T01060106=
201708101245 SPECI KCLM 101245Z AUTO 31003KT 1 3/4SM BR CLR 10/10 A2998 RMK AO2 T01000100=
201708101153 METAR KCLM 101153Z AUTO 26003KT 10SM CLR 11/11 A2997 RMK AO2 SLP149 T01110111 10122 20100 52001=
201708101053 METAR KCLM 101053Z AUTO 00000KT 10SM CLR 11/11 A2997 RMK AO2 SLP149 T01110111=
201708101035 SPECI KCLM 101035Z AUTO 26004KT 10SM SCT002 11/11 A2998 RMK AO2 T01060106=
201708101028 SPECI KCLM 101028Z AUTO 26004KT 10SM BKN002 11/11 A2998 RMK AO2 T01060106=
201708101020 SPECI KCLM 101020Z AUTO 25005KT 2SM BR BKN002 11/11 A2997 RMK AO2 T01060106=
201708101002 SPECI KCLM 101002Z AUTO 27004KT 1/2SM FG VV002 11/11 A2997 RMK AO2 T01110111=
201708100953 METAR KCLM 100953Z AUTO 26006KT 1/2SM FG VV001 11/11 A2997 RMK AO2 SLP148 T01110111=
201708100948 SPECI KCLM 100948Z AUTO 26005KT 1/2SM FG VV001 11/11 A2997 RMK AO2=
201708100937 SPECI KCLM 100937Z AUTO 26006KT 1/2SM FG VV002 11/11 A2997 RMK AO2 T01110111=
201708100930 SPECI KCLM 100930Z AUTO 27005KT 1SM BR VV002 11/11 A2997 RMK AO2 T01110111=
201708100921 SPECI KCLM 100921Z AUTO 26004KT 3/4SM BR VV002 11/11 A2997 RMK AO2 T01110111=
201708100909 SPECI KCLM 100909Z AUTO 29003KT 1/4SM FG VV002 12/12 A2997 RMK AO2 T01170117=
201708100853 METAR KCLM 100853Z AUTO 00000KT 1/2SM FG VV002 12/12 A2997 RMK AO2 SLP148 T01170117 53006=
201708100840 SPECI KCLM 100840Z AUTO 31004KT 1/4SM FG VV001 11/11 A2997 RMK AO2 T01110111=
201708100834 SPECI KCLM 100834Z AUTO 31003KT 1SM BR VV001 11/11 A2996 RMK AO2 T01110111=
201708100828 SPECI KCLM 100828Z AUTO 33003KT 2SM BR FEW001 11/11 A2996 RMK AO2 T01060106=
201708100820 SPECI KCLM 100820Z AUTO 00000KT 1 3/4SM BR CLR 11/11 A2996 RMK AO2 VIS 1/2V5 T01110111=
201708100753 METAR KCLM 100753Z AUTO 00000KT 10SM CLR 11/11 A2996 RMK AO2 SLP145 T01110111 402170089=
201708100740 SPECI KCLM 100740Z AUTO 00000KT 10SM SCT003 12/12 A2996 RMK AO2 T01170117=
201708100725 SPECI KCLM 100725Z AUTO 25003KT 10SM BKN003 12/12 A2996 RMK AO2 T01170117=
201708100709 SPECI KCLM 100709Z AUTO 00000KT 10SM FEW003 12/12 A2996 RMK AO2 T01170117=
201708100653 METAR KCLM 100653Z AUTO 28004KT 10SM CLR 12/12 A2995 RMK AO2 SLP142 T01170117=
201708100553 METAR KCLM 100553Z AUTO 28006KT 10SM CLR 12/12 A2995 RMK AO2 SLP142 T01220117 10217 20122 52007=
201708100453 METAR KCLM 100453Z AUTO 28006KT 10SM CLR 13/12 A2994 RMK AO2 SLP140 T01330122=
201708100353 METAR KCLM 100353Z AUTO 32003KT 10SM CLR 14/13 A2994 RMK AO2 SLP137 T01440128=
201708100253 METAR KCLM 100253Z AUTO 34003KT 9SM CLR 18/14 A2993 RMK AO2 SLP135 T01780139 56006=
201708100153 METAR KCLM 100153Z AUTO 29004KT 8SM CLR 19/14 A2993 RMK AO2 SLP136 T01940139=
201708100053 METAR KCLM 100053Z AUTO 32006KT 9SM CLR 19/14 A2994 RMK AO2 SLP138 T01890139=
201708092353 METAR KCLM 092353Z AUTO 30004KT 7SM CLR 21/14 A2995 RMK AO2 SLP141 T02110139 10211 20183 58013=
201708092253 METAR KCLM 092253Z AUTO 30006KT 8SM CLR 20/14 A2996 RMK AO2 SLP146 T02000139=
201708092153 METAR KCLM 092153Z AUTO VRB05KT 10SM CLR 20/13 A2997 RMK AO2 SLP150 T02000133=
201708092053 METAR KCLM 092053Z AUTO 29008KT 9SM CLR 19/13 A2998 RMK AO2 SLP153 T01890133 55001=
201708091953 METAR KCLM 091953Z AUTO 34008KT 9SM CLR 19/13 A2998 RMK AO2 SLP153 T01890128=
201708091853 METAR KCLM 091853Z AUTO VRB06KT 10SM CLR 19/13 A2999 RMK AO2 SLP154 T01890133=
201708091753 METAR KCLM 091753Z AUTO VRB03KT 8SM CLR 18/13 A2999 RMK AO2 SLP154 T01830133 10183 20089 51005=
201708091653 METAR KCLM 091653Z AUTO 33003KT 10SM CLR 17/13 A2998 RMK AO2 SLP153 T01720133=
201708091553 METAR KCLM 091553Z AUTO 31003KT 6SM BR CLR 16/14 A2998 RMK AO2 SLP151 T01610139=
201708091453 METAR KCLM 091453Z AUTO 00000KT 6SM BR CLR 13/12 A2997 RMK AO2 SLP149 T01280122 51005=
201708091353 METAR KCLM 091353Z AUTO 00000KT 3SM BR CLR 10/10 A2997 RMK AO2 SLP148 T01000100=
201708091339 SPECI KCLM 091339Z AUTO 00000KT 3SM BR CLR 09/09 A2997 RMK AO2 T00890089=
201708091313 SPECI KCLM 091313Z AUTO 00000KT 1 3/4SM BR CLR 10/10 A2997 RMK AO2 T01000100=
201708091253 METAR KCLM 091253Z AUTO 00000KT 5SM BR CLR 10/09 A2997 RMK AO2 SLP147 T01000094=
201708091153 METAR KCLM 091153Z AUTO 00000KT 6SM BR CLR 09/09 A2996 RMK AO2 SLP144 T00940094 10133 20094 51002=
201708091053 METAR KCLM 091053Z AUTO 00000KT 8SM CLR 11/11 A2996 RMK AO2 SLP144 T01060106=
201708091015 SPECI KCLM 091015Z AUTO 28003KT 3SM BR FEW019 10/10 A2995 RMK AO2 T01000100=
201708091006 SPECI KCLM 091006Z AUTO 29003KT 1 1/4SM BR FEW019 10/10 A2996 RMK AO2 T01000100=
201708090953 METAR KCLM 090953Z AUTO 30003KT 3/4SM BR VV019 10/10 A2995 RMK AO2 SLP143 T01000100=
201708090951 SPECI KCLM 090951Z AUTO 00000KT 3/4SM BR VV019 10/10 A2995 RMK AO2=
201708090947 SPECI KCLM 090947Z AUTO 00000KT 1 1/2SM BR FEW018 11/11 A2995 RMK AO2=
201708090853 METAR KCLM 090853Z AUTO 00000KT 8SM CLR 11/11 A2995 RMK AO2 SLP142 T01110111 51008=
201708090753 METAR KCLM 090753Z AUTO 00000KT 9SM CLR 11/11 A2995 RMK AO2 SLP142 T01110111 402220083=
201708090653 METAR KCLM 090653Z AUTO 00000KT 9SM CLR 12/12 A2993 RMK AO2 SLP136 T01220117=
201708090553 METAR KCLM 090553Z AUTO 25003KT 7SM CLR 13/12 A2992 RMK AO2 SLP133 T01280122 10206 20128 50000=
201708090453 METAR KCLM 090453Z AUTO 23003KT 9SM CLR 14/13 A2993 RMK AO2 SLP136 T01390128=
201708090353 METAR KCLM 090353Z AUTO 00000KT 6SM BR CLR 16/13 A2993 RMK AO2 SLP135 T01560133=
201708090253 METAR KCLM 090253Z AUTO 32003KT 8SM CLR 18/13 A2992 RMK AO2 SLP133 T01780133 56007=
201708090153 METAR KCLM 090153Z AUTO 00000KT 10SM CLR 19/13 A2993 RMK AO2 SLP134 T01890133=
201708090053 METAR KCLM 090053Z AUTO VRB04KT 9SM CLR 19/13 A2994 RMK AO2 SLP137 T01890133=
201708082353 METAR KCLM 082353Z AUTO 31005KT 9SM CLR 20/13 A2995 RMK AO2 SLP141 T02000133 10222 20167 58013=
201708082253 METAR KCLM 082253Z AUTO 33004KT 9SM CLR 22/13 A2996 RMK AO2 SLP146 T02220133=
201708082153 METAR KCLM 082153Z AUTO VRB04KT 8SM CLR 22/13 A2997 RMK AO2 SLP150 T02220133=
201708082053 METAR KCLM 082053Z AUTO 35004KT 10SM CLR 21/13 A2999 RMK AO2 SLP154 T02060128 58009=
201708081953 METAR KCLM 081953Z AUTO 35005KT 10SM CLR 19/13 A3000 RMK AO2 SLP157 T01890128=
201708081853 METAR KCLM 081853Z AUTO 36004KT 10SM CLR 17/13 A3001 RMK AO2 SLP161 T01720128=
201708081753 METAR KCLM 081753Z AUTO 34004KT 10SM CLR 18/13 A3001 RMK AO2 SLP163 T01780133 10178 20083 58002=
201708081653 METAR KCLM 081653Z AUTO VRB03KT 10SM CLR 15/12 A3002 RMK AO2 SLP164 T01500122=
201708081553 METAR KCLM 081553Z AUTO 30003KT 10SM CLR 14/13 A3002 RMK AO2 SLP165 T01440128=
201708081453 METAR KCLM 081453Z AUTO 32003KT 8SM CLR 12/12 A3002 RMK AO2 SLP165 T01220122 50001=
201708081353 METAR KCLM 081353Z AUTO 00000KT 10SM SCT009 10/10 A3002 RMK AO2 SLP166 T01000100=
201708081347 SPECI KCLM 081347Z AUTO 00000KT 5SM BR BKN009 09/09 A3002 RMK AO2=
201708081344 SPECI KCLM 081344Z AUTO 00000KT 1SM BR VV011 09/09 A3002 RMK AO2 T00940094=
201708081337 SPECI KCLM 081337Z AUTO 00000KT 1/4SM FG VV010 10/10 A3002 RMK AO2 T01000100=
201708081331 SPECI KCLM 081331Z AUTO 00000KT 1/4SM FG VV004 10/10 A3002 RMK AO2 T01000100=
201708081328 SPECI KCLM 081328Z AUTO 00000KT 3/4SM BR VV006 09/09 A3002 RMK AO2 T00940094=
201708081325 SPECI KCLM 081325Z AUTO 00000KT 1 3/4SM BR SCT009 09/09 A3002 RMK AO2 T00940094=
201708081313 SPECI KCLM 081313Z AUTO 00000KT 3SM BR CLR 09/09 A3002 RMK AO2 T00890089=
201708081303 SPECI KCLM 081303Z AUTO 00000KT 1 3/4SM BR CLR 09/09 A3002 RMK AO2 VIS 1/2V5 T00890089=
201708081253 METAR KCLM 081253Z AUTO 00000KT 10SM FEW005 09/09 A3002 RMK AO2 SLP164 T00940094=
201708081249 SPECI KCLM 081249Z AUTO 00000KT 10SM SCT005 09/09 A3002 RMK AO2=
201708081242 SPECI KCLM 081242Z AUTO 00000KT 2 1/2SM BR BKN005 09/09 A3002 RMK AO2 T00940094=
201708081239 SPECI KCLM 081239Z AUTO 24003KT 1/2SM FG VV005 09/09 A3002 RMK AO2 T00940094=
201708081237 SPECI KCLM 081237Z AUTO 25003KT 1/4SM FG VV004 09/09 A3002 RMK AO2 T00940094=
201708081222 SPECI KCLM 081222Z AUTO 24003KT M1/4SM FG VV001 10/10 A3001 RMK AO2 T01000100=
201708081212 SPECI KCLM 081212Z AUTO 00000KT 1/4SM FG VV005 09/09 A3001 RMK AO2 T00940094=
201708081202 SPECI KCLM 081202Z AUTO 00000KT 1/4SM FG VV011 09/09 A3001 RMK AO2 T00940094=
201708081153 METAR KCLM 081153Z AUTO 00000KT 3/4SM BR VV020 09/09 A3001 RMK AO2 SLP163 T00890089 10117 20089 53002=
201708081144 SPECI KCLM 081144Z AUTO 00000KT 1/2SM FG BKN024 09/09 A3001 RMK AO2 T00940094=
201708081134 SPECI KCLM 081134Z AUTO 00000KT 1 3/4SM BR CLR 10/10 A3001 RMK AO2 T01000100=
201708081053 METAR KCLM 081053Z AUTO 30003KT 7SM CLR 09/09 A3001 RMK AO2 SLP161 T00940094=
201708081004 SPECI KCLM 081004Z AUTO 00000KT 4SM BR FEW027 11/11 A3001 RMK AO2 T01060106=
201708080953 METAR KCLM 080953Z AUTO 00000KT 1 1/2SM BR FEW031 10/10 A3001 RMK AO2 SLP161 T01000100=
201708080951 SPECI KCLM 080951Z AUTO 00000KT 1 3/4SM BR FEW031 10/10 A3001 RMK AO2=
201708080900 SPECI KCLM 080900Z AUTO 25003KT 10SM SCT001 11/11 A3001 RMK AO2 T01060106=
201708080853 METAR KCLM 080853Z AUTO 00000KT 6SM BR BKN001 11/11 A3000 RMK AO2 SLP160 T01060106 51006=
201708080851 SPECI KCLM 080851Z AUTO 00000KT 3SM BR BKN001 11/11 A3000 RMK AO2=
201708080847 SPECI KCLM 080847Z AUTO 00000KT 1SM BR VV001 11/11 A3001 RMK AO2=
201708080753 METAR KCLM 080753Z AUTO 00000KT 1/4SM FG VV001 11/11 A3000 RMK AO2 SLP160 T01110111 402280106=
201708080702 SPECI KCLM 080702Z AUTO 29003KT 1/4SM FG VV001 11/11 A2999 RMK AO2 T01110111=
201708080653 METAR KCLM 080653Z AUTO 00000KT 1/4SM FG VV002 11/11 A2999 RMK AO2 SLP156 T01110111=
201708080645 SPECI KCLM 080645Z AUTO 00000KT 1/4SM FG VV002 11/11 A2999 RMK AO2 T01110111=
201708080635 SPECI KCLM 080635Z AUTO 32004KT 3/4SM BR VV002 11/11 A2999 RMK AO2 T01110111=
201708080632 SPECI KCLM 080632Z AUTO 30004KT 1 1/2SM BR SCT001 BKN006 11/11 A2999 RMK AO2 T01110111=
201708080629 SPECI KCLM 080629Z AUTO 27003KT 3SM BR SCT001 SCT010 11/11 A2999 RMK AO2 T01110111=
201708080553 METAR KCLM 080553Z AUTO 29003KT 7SM CLR 12/12 A2999 RMK AO2 SLP154 T01170117 10194 20111 51005=
201708080453 METAR KCLM 080453Z AUTO 00000KT 10SM CLR 13/12 A2998 RMK AO2 SLP153 T01280122=
201708080353 METAR KCLM 080353Z AUTO 00000KT 10SM CLR 14/13 A2998 RMK AO2 SLP152 T01440128=
201708080253 METAR KCLM 080253Z AUTO 00000KT 10SM CLR 16/13 A2997 RMK AO2 SLP149 T01610133 56006=
201708080153 METAR KCLM 080153Z AUTO 33004KT 10SM CLR 18/13 A2997 RMK AO2 SLP150 T01780133=
201708080053 METAR KCLM 080053Z AUTO 35004KT 10SM CLR 19/13 A2998 RMK AO2 SLP152 T01940133=
201708072353 METAR KCLM 072353Z AUTO 30007KT 10SM CLR 18/13 A2999 RMK AO2 SLP155 T01780128 10228 20172 56008=
201708072253 METAR KCLM 072253Z AUTO 30006KT 10SM CLR 19/13 A2999 RMK AO2 SLP157 T01890128=
201708072153 METAR KCLM 072153Z AUTO VRB04KT 10SM CLR 21/13 A3001 RMK AO2 SLP160 T02060128=
201708072053 METAR KCLM 072053Z AUTO 35004KT 10SM CLR 21/13 A3001 RMK AO2 SLP163 T02060133 58005=
201708071953 METAR KCLM 071953Z AUTO 05003KT 8SM CLR 22/13 A3002 RMK AO2 SLP166 T02170133=
201708071853 METAR KCLM 071853Z AUTO VRB03KT 6SM HZ CLR 22/14 A3003 RMK AO2 SLP168 T02170139=
201708071753 METAR KCLM 071753Z AUTO 36004KT 10SM CLR 18/13 A3003 RMK AO2 SLP168 T01780133 10189 20106 50002=
201708071653 METAR KCLM 071653Z AUTO 00000KT 10SM CLR 17/14 A3003 RMK AO2 SLP168 T01720139=
201708071553 METAR KCLM 071553Z AUTO 00000KT 10SM SCT002 13/13 A3002 RMK AO2 SLP167 T01280128=
201708071530 SPECI KCLM 071530Z AUTO 00000KT 3SM BR OVC002 12/12 A3002 RMK AO2 T01220122=
201708071523 SPECI KCLM 071523Z AUTO 27003KT 1SM BR OVC002 12/12 A3002 RMK AO2 T01220122=
201708071453 METAR KCLM 071453Z AUTO 30005KT 1/4SM FG VV002 12/12 A3002 RMK AO2 SLP165 T01170117 51005=
201708071448 SPECI KCLM 071448Z AUTO 31004KT 1/4SM FG VV002 12/12 A3002 RMK AO2=
201708071436 SPECI KCLM 071436Z AUTO 30004KT 3/4SM BR OVC002 12/12 A3002 RMK AO2 T01170117=
201708071353 METAR KCLM 071353Z AUTO 00000KT 1/4SM FG VV002 11/11 A3001 RMK AO2 SLP163 T01110111=
201708071341 SPECI KCLM 071341Z AUTO 28004KT M1/4SM FG VV002 11/11 A3001 RMK AO2 T01110111=
201708071332 SPECI KCLM 071332Z AUTO 00000KT M1/4SM FG VV001 11/11 A3001 RMK AO2 T01110111=
201708071316 SPECI KCLM 071316Z AUTO 25004KT 1/4SM FG VV002 11/11 A3001 RMK AO2 T01110111=
201708071305 SPECI KCLM 071305Z AUTO 28003KT 3/4SM BR VV002 11/11 A3001 RMK AO2 T01110111=
201708071259 SPECI KCLM 071259Z AUTO 28003KT 2SM BR OVC002 11/11 A3001 RMK AO2 VIS 1 1/4V4 T01110111=
201708071253 METAR KCLM 071253Z AUTO 28004KT 3/4SM BR OVC002 11/11 A3001 RMK AO2 SLP161 T01060106=
201708071153 METAR KCLM 071153Z AUTO 29004KT 1/2SM FG VV002 11/11 A3000 RMK AO2 SLP159 T01110111 10122 20111 53003=
201708071053 METAR KCLM 071053Z AUTO 28005KT 1/2SM FG VV002 11/11 A3000 RMK AO2 SLP157 T01110111=
201708071011 SPECI KCLM 071011Z AUTO 28004KT 1/2SM FG VV002 11/11 A3000 RMK AO2 T01110111=
201708070953 METAR KCLM 070953Z AUTO 29005KT 1/4SM FG VV002 12/12 A2999 RMK AO2 SLP157 T01170117=
201708070937 SPECI KCLM 070937Z AUTO 28004KT 1/4SM FG VV002 12/12 A2999 RMK AO2 T01170117=
201708070853 METAR KCLM 070853Z AUTO 28004KT 3/4SM BR VV002 12/12 A2999 RMK AO2 SLP156 T01170117 53007=
201708070811 SPECI KCLM 070811Z AUTO 28006KT 1/2SM FG VV002 12/12 A2999 RMK AO2 T01170117=
201708070753 METAR KCLM 070753Z AUTO 30005KT 1SM BR VV002 12/12 A2999 RMK AO2 SLP154 T01170117 401940117=
201708070741 SPECI KCLM 070741Z AUTO 29005KT 1 1/4SM BR OVC002 12/12 A2998 RMK AO2 T01170117=
201708070653 METAR KCLM 070653Z AUTO 28005KT 3/4SM BR VV002 12/12 A2997 RMK AO2 SLP149 T01220122=
201708070651 SPECI KCLM 070651Z AUTO 28005KT 3/4SM BR VV002 12/12 A2997 RMK AO2=
201708070637 SPECI KCLM 070637Z AUTO 27005KT 1SM BR VV002 12/12 A2997 RMK AO2 T01220122=
201708070621 SPECI KCLM 070621Z AUTO 29005KT 1SM BR OVC001 12/12 A2997 RMK AO2 T01220122=
201708070611 SPECI KCLM 070611Z AUTO 29005KT 1 3/4SM BR OVC002 12/12 A2997 RMK AO2 T01220122=
201708070553 METAR KCLM 070553Z AUTO 29004KT 9SM BKN002 12/12 A2997 RMK AO2 SLP147 T01170117 10178 20117 52008=
201708070509 SPECI KCLM 070509Z AUTO 27003KT 8SM BKN002 12/12 A2996 RMK AO2 T01170117=
201708070453 METAR KCLM 070453Z AUTO 29003KT 8SM FEW003 12/12 A2996 RMK AO2 SLP144 T01220122=
201708070353 METAR KCLM 070353Z AUTO 29005KT 10SM CLR 12/12 A2995 RMK AO2 SLP141 T01220122=
201708070253 METAR KCLM 070253Z AUTO 31003KT 10SM CLR 14/13 A2994 RMK AO2 SLP138 T01390128 56007=
201708070153 METAR KCLM 070153Z AUTO 31004KT 10SM CLR 16/13 A2994 RMK AO2 SLP139 T01610133=
201708070053 METAR KCLM 070053Z AUTO 31006KT 10SM CLR 17/13 A2995 RMK AO2 SLP143 T01670133=
201708062353 METAR KCLM 062353Z AUTO 33005KT 10SM CLR 17/13 A2996 RMK AO2 SLP145 T01720133 10194 20161 58007=
201708062253 METAR KCLM 062253Z AUTO 30006KT 10SM CLR 18/14 A2997 RMK AO2 SLP149 T01780139=
201708062153 METAR KCLM 062153Z AUTO 33007KT 10SM CLR 18/14 A2998 RMK AO2 SLP151 T01830139=
201708062053 METAR KCLM 062053Z AUTO 33006KT 10SM CLR 18/14 A2998 RMK AO2 SLP152 T01780139 58003=
201708061953 METAR KCLM 061953Z AUTO 29006KT 10SM CLR 17/14 A2999 RMK AO2 SLP154 T01720139=
201708061853 METAR KCLM 061853Z AUTO 29007KT 10SM CLR 17/14 A2999 RMK AO2 SLP156 T01670139=
201708061753 METAR KCLM 061753Z AUTO VRB04KT 10SM FEW005 16/14 A2999 RMK AO2 SLP155 T01610139 10167 20122 50000=
201708061744 SPECI KCLM 061744Z AUTO VRB03KT 10SM SCT005 16/14 A2999 RMK AO2 T01610139=
201708061730 SPECI KCLM 061730Z AUTO 32005KT 10SM BKN005 16/14 A2999 RMK AO2 T01560139=
201708061653 METAR KCLM 061653Z AUTO VRB03KT 9SM OVC003 14/14 A2999 RMK AO2 SLP155 T01390139=
201708061615 SPECI KCLM 061615Z AUTO 00000KT 3SM BR OVC002 14/14 A2999 RMK AO2 T01390139=
201708061605 SPECI KCLM 061605Z AUTO 00000KT 1 1/4SM BR OVC002 13/13 A2999 RMK AO2 T01330133=
201708061553 METAR KCLM 061553Z AUTO 32005KT 3/4SM BR VV002 13/13 A2999 RMK AO2 SLP155 T01330133=
201708061537 SPECI KCLM 061537Z AUTO 28004KT 1/2SM FG VV002 13/13 A2999 RMK AO2 T01330133=
201708061453 METAR KCLM 061453Z AUTO 28003KT 1/4SM FG VV002 13/13 A2999 RMK AO2 SLP155 T01280128 53008=
201708061353 METAR KCLM 061353Z AUTO 28003KT 1/4SM FG VV002 12/12 A2998 RMK AO2 SLP150 T01220122=
201708061309 SPECI KCLM 061309Z AUTO 27004KT 1/4SM FG VV002 13/13 A2997 RMK AO2 T01280128=
201708061300 SPECI KCLM 061300Z AUTO 28004KT 1/2SM FG VV002 13/13 A2997 RMK AO2 T01280128=
201708061253 METAR KCLM 061253Z AUTO 28004KT 1SM BR VV002 13/13 A2997 RMK AO2 SLP148 T01280128=
201708061244 SPECI KCLM 061244Z AUTO 27004KT 1SM BR OVC001 13/13 A2997 RMK AO2 T01280128=
201708061153 METAR KCLM 061153Z AUTO 28006KT 1/2SM FG VV002 13/13 A2996 RMK AO2 SLP146 T01280128 10139 20128 51005=
201708061136 SPECI KCLM 061136Z AUTO 29006KT 1/2SM FG VV002 13/13 A2996 RMK AO2 T01280128=
201708061118 SPECI KCLM 061118Z AUTO 27004KT 1/4SM FG VV002 13/13 A2996 RMK AO2 T01280128=
201708061053 METAR KCLM 061053Z AUTO 30004KT 1/2SM FG VV002 13/13 A2996 RMK AO2 SLP144 T01330133=
201708061025 SPECI KCLM 061025Z AUTO 29005KT 3/4SM BR VV002 13/13 A2996 RMK AO2 T01330133=
201708061013 SPECI KCLM 061013Z AUTO 28004KT 1 3/4SM BR OVC002 13/13 A2996 RMK AO2 T01330133=
201708060953 METAR KCLM 060953Z AUTO 27004KT 4SM BR OVC002 13/13 A2995 RMK AO2 SLP143 T01330133=
201708060853 METAR KCLM 060853Z AUTO 29004KT 7SM BKN004 13/13 A2995 RMK AO2 SLP140 T01280128 52004=
201708060834 SPECI KCLM 060834Z AUTO 28005KT 8SM BKN004 13/13 A2995 RMK AO2 T01330133=
201708060817 SPECI KCLM 060817Z AUTO 28005KT 8SM FEW004 13/13 A2995 RMK AO2 T01330133=
201708060753 METAR KCLM 060753Z AUTO 28005KT 9SM CLR 13/13 A2994 RMK AO2 SLP139 T01330128 401890122=
201708060653 METAR KCLM 060653Z AUTO 28003KT 10SM CLR 13/13 A2994 RMK AO2 SLP137 T01330133=
201708060553 METAR KCLM 060553Z AUTO 28008KT 10SM CLR 14/13 A2993 RMK AO2 SLP136 T01390133 10189 20139 50006=
201708060453 METAR KCLM 060453Z AUTO 28009KT 10SM CLR 14/13 A2994 RMK AO2 SLP137 T01440133=
201708060353 METAR KCLM 060353Z AUTO 29006KT 10SM CLR 15/13 A2992 RMK AO2 SLP133 T01500133=
201708060253 METAR KCLM 060253Z AUTO 30007KT 10SM CLR 16/13 A2991 RMK AO2 SLP130 T01610133 56005=
201708060153 METAR KCLM 060153Z AUTO 29006KT 10SM CLR 17/14 A2991 RMK AO2 SLP130 T01720139=
201708060053 METAR KCLM 060053Z AUTO 31007KT 10SM CLR 18/14 A2992 RMK AO2 SLP130 T01830139=
201708052353 METAR KCLM 052353Z AUTO 33008KT 10SM CLR 19/14 A2993 RMK AO2 SLP134 T01890139 10189 20156 58008=
201708052253 METAR KCLM 052253Z AUTO 31008KT 10SM CLR 19/14 A2994 RMK AO2 SLP138 T01890144=
201708052153 METAR KCLM 052153Z AUTO 31009KT 10SM CLR 18/14 A2995 RMK AO2 SLP141 T01830139=
201708052053 METAR KCLM 052053Z AUTO 31006KT 10SM CLR 18/14 A2995 RMK AO2 SLP143 T01830139 50001=
201708051953 METAR KCLM 051953Z AUTO 32006KT 10SM CLR 18/14 A2996 RMK AO2 SLP145 T01780139=
201708051853 METAR KCLM 051853Z AUTO VRB06KT 10SM CLR 17/14 A2996 RMK AO2 SLP144 T01670139=
201708051824 SPECI KCLM 051824Z AUTO VRB05KT 10SM SCT008 17/14 A2996 RMK AO2 T01720139=
201708051753 METAR KCLM 051753Z AUTO VRB03KT 10SM OVC005 16/14 A2995 RMK AO2 SLP142 T01560139 10156 20128 52006=
201708051721 SPECI KCLM 051721Z AUTO 30004KT 9SM OVC005 15/14 A2995 RMK AO2 T01500139=
201708051653 METAR KCLM 051653Z AUTO 31003KT 9SM OVC004 14/14 A2995 RMK AO2 SLP140 T01440139=
201708051553 METAR KCLM 051553Z AUTO 30003KT 4SM BR OVC002 13/13 A2994 RMK AO2 SLP138 T01330133=
201708051542 SPECI KCLM 051542Z AUTO 28004KT 2 1/2SM BR OVC002 13/13 A2994 RMK AO2 T01330133=
201708051523 SPECI KCLM 051523Z AUTO 28007KT 1 1/4SM BR OVC002 13/13 A2994 RMK AO2 T01330133=
201708051505 SPECI KCLM 051505Z AUTO 28003KT 1SM BR OVC001 13/13 A2993 RMK AO2 T01330133=
201708051453 METAR KCLM 051453Z AUTO 32003KT 3/4SM BR OVC002 13/13 A2993 RMK AO2 SLP136 T01330133 53013=
201708051353 METAR KCLM 051353Z AUTO 28005KT 1/2SM FG OVC002 13/13 A2992 RMK AO2 SLP132 T01280128=
201708051339 SPECI KCLM 051339Z AUTO 29005KT 1/2SM FG OVC002 13/13 A2992 RMK AO2 T01280128=
201708051323 SPECI KCLM 051323Z AUTO 28005KT 1/2SM FG OVC001 13/13 A2991 RMK AO2 T01280128=
201708051253 METAR KCLM 051253Z AUTO 29005KT 1SM BR OVC001 13/13 A2991 RMK AO2 SLP127 T01280128=
201708051215 SPECI KCLM 051215Z AUTO 30006KT 1SM BR OVC001 13/13 A2990 RMK AO2 T01280128=
201708051207 SPECI KCLM 051207Z AUTO 28007KT 1SM BR OVC002 13/13 A2990 RMK AO2 T01280128=
201708051153 METAR KCLM 051153Z AUTO 27006KT 3/4SM BR OVC002 13/13 A2990 RMK AO2 SLP123 T01280128 10144 20122 53005=
201708051135 SPECI KCLM 051135Z AUTO 29006KT 1 3/4SM BR OVC002 13/13 A2989 RMK AO2 T01330133=
201708051053 METAR KCLM 051053Z AUTO 29004KT 3SM BR OVC003 13/13 A2989 RMK AO2 SLP121 T01280128=
201708051035 SPECI KCLM 051035Z AUTO 31003KT 5SM BR BKN003 13/13 A2989 RMK AO2 T01280128=
201708050953 METAR KCLM 050953Z AUTO 27003KT 6SM BR FEW004 FEW055 13/13 A2988 RMK AO2 SLP118 T01280128=
201708050932 SPECI KCLM 050932Z AUTO 28005KT 6SM BR FEW004 FEW048 13/13 A2988 RMK AO2 T01280128=
201708050853 METAR KCLM 050853Z AUTO 28003KT 7SM SCT050 13/13 A2988 RMK AO2 SLP117 T01330133 53002=
201708050753 METAR KCLM 050753Z AUTO 29008KT 7SM BKN049 14/13 A2988 RMK AO2 SLP115 T01390133 402890133=
201708050653 METAR KCLM 050653Z AUTO 29006KT 8SM OVC047 14/13 A2987 RMK AO2 SLP115 T01440133=
201708050553 METAR KCLM 050553Z AUTO 29005KT 8SM OVC055 14/13 A2987 RMK AO2 SLP115 T01440133 10244 20144 51005=
201708050453 METAR KCLM 050453Z AUTO 32003KT 9SM OVC055 16/13 A2987 RMK AO2 SLP114 T01560133=
201708050353 METAR KCLM 050353Z AUTO 29006KT 8SM OVC044 17/13 A2986 RMK AO2 SLP111 T01720133=
201708050253 METAR KCLM 050253Z AUTO 31005KT 8SM CLR 18/13 A2986 RMK AO2 SLP110 T01780133 55002=
201708050153 METAR KCLM 050153Z AUTO 31007KT 8SM CLR 19/13 A2986 RMK AO2 SLP109 T01940133=
201708050053 METAR KCLM 050053Z AUTO 29004KT 8SM CLR 21/13 A2985 RMK AO2 SLP108 T02110128=
201708042353 METAR KCLM 042353Z AUTO 36004KT 6SM HZ CLR 23/13 A2987 RMK AO2 SLP112 T02330128 10289 20228 56008=
201708042253 METAR KCLM 042253Z AUTO VRB05KT 5SM HZ CLR 28/12 A2987 RMK AO2 SLP113 T02830117=
201708042153 METAR KCLM 042153Z AUTO VRB04KT 6SM HZ CLR 28/12 A2988 RMK AO2 SLP117 T02780117=
201708042053 METAR KCLM 042053Z AUTO 10005KT 7SM CLR 27/13 A2989 RMK AO2 SLP120 T02670128 56007=
201708041953 METAR KCLM 041953Z AUTO 09005KT 9SM CLR 25/12 A2990 RMK AO2 SLP122 T02500122=
201708041853 METAR KCLM 041853Z AUTO 05005KT 9SM CLR 25/12 A2990 RMK AO2 SLP124 T02500122=
201708041753 METAR KCLM 041753Z AUTO 09006KT 10SM CLR 24/12 A2991 RMK AO2 SLP128 T02440117 10256 20133 51003=
201708041653 METAR KCLM 041653Z AUTO 07006KT 10SM CLR 25/11 A2991 RMK AO2 SLP128 T02500111=
201708041553 METAR KCLM 041553Z AUTO 08007KT 10SM CLR 24/11 A2991 RMK AO2 SLP126 T02440106=
201708041453 METAR KCLM 041453Z AUTO 12007KT 8SM CLR 24/11 A2990 RMK AO2 SLP124 T02440111 53007=
201708041353 METAR KCLM 041353Z AUTO 13006KT 5SM HZ CLR 19/11 A2989 RMK AO2 SLP120 T01890111=
201708041253 METAR KCLM 041253Z AUTO 15005KT 4SM HZ CLR 15/11 A2988 RMK AO2 SLP119 T01500111=
201708041153 METAR KCLM 041153Z AUTO 16004KT 4SM HZ CLR 14/11 A2988 RMK AO2 SLP118 T01440111 10189 20139 53001=
201708041053 METAR KCLM 041053Z AUTO 00000KT 4SM HZ CLR 15/11 A2988 RMK AO2 SLP117 T01500111=
201708040953 METAR KCLM 040953Z AUTO 15005KT 4SM HZ CLR 16/12 A2988 RMK AO2 SLP116 T01560117=
201708040853 METAR KCLM 040853Z AUTO 20003KT 4SM HZ CLR 16/12 A2988 RMK AO2 SLP117 T01560122 56002=
201708040753 METAR KCLM 040753Z AUTO 00000KT 4SM HZ CLR 17/12 A2988 RMK AO2 SLP117 T01720122 403110144=
201708040653 METAR KCLM 040653Z AUTO 00000KT 4SM HZ CLR 17/13 A2988 RMK AO2 SLP117 T01670128=
201708040553 METAR KCLM 040553Z AUTO 00000KT 5SM HZ CLR 18/13 A2988 RMK AO2 SLP119 T01780133 10311 20172 58003=
201708040453 METAR KCLM 040453Z AUTO 24004KT 6SM HZ CLR 19/13 A2989 RMK AO2 SLP121 T01890128=
201708040353 METAR KCLM 040353Z AUTO 31005KT 5SM HZ CLR 19/12 A2990 RMK AO2 SLP122 T01940122=
201708040253 METAR KCLM 040253Z AUTO 13003KT 4SM HZ CLR 28/10 A2990 RMK AO2 SLP121 T02830100 56015=
201708040153 METAR KCLM 040153Z AUTO 07003KT 4SM HZ CLR 31/08 A2990 RMK AO2 SLP123 T03060083=
201708040053 METAR KCLM 040053Z AUTO 09007KT 4SM HZ CLR 31/09 A2992 RMK AO2 SLP129 T03060094=
201708032353 METAR KCLM 032353Z AUTO 10008KT 4SM HZ CLR 31/09 A2994 RMK AO2 SLP136 T03110094 10311 20272 58018=
201708032253 METAR KCLM 032253Z AUTO 09007KT 5SM HZ CLR 30/11 A2996 RMK AO2 SLP145 T03000106=
201708032153 METAR KCLM 032153Z AUTO 11009KT 6SM HZ CLR 30/12 A2998 RMK AO2 SLP152 T03000122=
201708032053 METAR KCLM 032053Z AUTO 11006KT 7SM CLR 30/12 A2999 RMK AO2 SLP154 T03000122 56008=
201708031953 METAR KCLM 031953Z AUTO 11007KT 7SM CLR 28/12 A3000 RMK AO2 SLP156 T02830122=
201708031853 METAR KCLM 031853Z AUTO 09007KT 6SM HZ CLR 29/12 A3001 RMK AO2 SLP160 T02890122=
201708031753 METAR KCLM 031753Z AUTO 10010KT 7SM CLR 28/12 A3001 RMK AO2 SLP162 T02780122 10278 20150 58003=
201708031653 METAR KCLM 031653Z AUTO 10008KT 7SM CLR 27/12 A3002 RMK AO2 SLP164 T02670122=
201708031553 METAR KCLM 031553Z AUTO 11009KT 7SM CLR 26/12 A3002 RMK AO2 SLP165 T02560122=
201708031453 METAR KCLM 031453Z AUTO 16003KT 3SM HZ CLR 23/12 A3002 RMK AO2 SLP165 T02330117 51006=
201708031353 METAR KCLM 031353Z AUTO 23004KT 3SM HZ CLR 19/11 A3002 RMK AO2 SLP163 T01940106=
201708031253 METAR KCLM 031253Z AUTO 23005KT 4SM HZ CLR 15/11 A3001 RMK AO2 SLP161 T01500111=
201708031153 METAR KCLM 031153Z AUTO 00000KT 4SM HZ CLR 16/11 A3001 RMK AO2 SLP159 T01610106 10194 20144 51006=
201708031053 METAR KCLM 031053Z AUTO 23004KT 4SM HZ CLR 15/11 A3000 RMK AO2 SLP157 T01500111=
201708030953 METAR KCLM 030953Z AUTO 14003KT 4SM HZ FEW049 16/11 A3000 RMK AO2 SLP156 T01560111=
201708030853 METAR KCLM 030853Z AUTO 14003KT 4SM HZ OVC047 18/11 A2999 RMK AO2 SLP153 T01780111 55003=
201708030753 METAR KCLM 030753Z AUTO 00000KT 3SM HZ OVC047 17/11 A2999 RMK AO2 SLP152 T01720111 403330139=
201708030653 METAR KCLM 030653Z AUTO 00000KT 3SM HZ OVC047 17/12 A2999 RMK AO2 SLP155 T01670117=
201708030553 METAR KCLM 030553Z AUTO 00000KT 3SM HZ OVC046 18/13 A3000 RMK AO2 SLP157 T01780128 10333 20178 50004=
201708030453 METAR KCLM 030453Z AUTO 00000KT 4SM HZ OVC045 19/12 A3000 RMK AO2 SLP158 T01890122=
201708030353 METAR KCLM 030353Z AUTO 00000KT 3SM HZ OVC037 21/12 A2999 RMK AO2 SLP156 T02060117=
201708030253 METAR KCLM 030253Z AUTO 34003KT 3SM HZ OVC033 23/12 A2999 RMK AO2 SLP153 T02280117 56010=
201708030237 SPECI KCLM 030237Z AUTO 00000KT 3SM HZ OVC031 24/11 A2999 RMK AO2 T02440111=
201708030153 METAR KCLM 030153Z AUTO 11003KT 2SM HZ OVC029 32/07 A2999 RMK AO2 SLP152 T03220072=
201708030143 SPECI KCLM 030143Z AUTO 11003KT 1 3/4SM HZ OVC029 33/07 A2999 RMK AO2 T03280067=
201708030053 METAR KCLM 030053Z AUTO 11005KT 2SM HZ OVC032 33/06 A3000 RMK AO2 SLP157 T03330061=
201708030012 SPECI KCLM 030012Z AUTO 08005KT 2SM HZ BKN030 OVC038 33/06 A3001 RMK AO2 T03330061=
201708022353 METAR KCLM 022353Z AUTO 09005KT 1 3/4SM HZ BKN029 OVC038 33/06 A3001 RMK AO2 SLP162 T03330056 10333 20272 57006=
201708022351 SPECI KCLM 022351Z AUTO 08006KT 1 3/4SM HZ BKN029 OVC038 33/06 A3002 RMK AO2=
201708022253 METAR KCLM 022253Z AUTO 09007KT 2SM HZ BKN029 OVC036 32/07 A3003 RMK AO2 SLP168 T03220072=
201708022249 SPECI KCLM 022249Z AUTO 09006KT 2SM HZ BKN029 OVC036 32/07 A3003 RMK AO2=
201708022153 METAR KCLM 022153Z AUTO VRB06KT 2SM HZ BKN030 OVC036 32/08 A3006 RMK AO2 SLP176 T03170078=
201708022053 METAR KCLM 022053Z AUTO 09009KT 2 1/2SM HZ OVC034 31/09 A3007 RMK AO2 SLP181 T03060089 58009=
201708022023 SPECI KCLM 022023Z AUTO 09007KT 2 1/2SM HZ OVC037 30/09 A3008 RMK AO2 T03000089=
201708021953 METAR KCLM 021953Z AUTO 10007KT 3SM HZ OVC038 30/10 A3008 RMK AO2 SLP185 T03000100=
201708021853 METAR KCLM 021853Z AUTO 12007KT 4SM HZ OVC039 29/11 A3010 RMK AO2 SLP189 T02940106=
201708021753 METAR KCLM 021753Z AUTO 10006KT 7SM OVC044 27/13 A3010 RMK AO2 SLP191 T02720128 10272 20144 50000=
201708021653 METAR KCLM 021653Z AUTO 12008KT 7SM BKN050 25/12 A3011 RMK AO2 SLP194 T02500122=
201708021553 METAR KCLM 021553Z AUTO 13006KT 4SM HZ BKN050 24/12 A3010 RMK AO2 SLP193 T02390122=
201708021453 METAR KCLM 021453Z AUTO 00000KT 3SM HZ BKN050 21/12 A3010 RMK AO2 SLP191 T02060122 53003=
201708021353 METAR KCLM 021353Z AUTO 22005KT 3SM HZ FEW060 16/12 A3009 RMK AO2 SLP189 T01610117=
201708021321 SPECI KCLM 021321Z AUTO 21004KT 3SM HZ CLR 15/11 A3009 RMK AO2 T01500106=
201708021307 SPECI KCLM 021307Z AUTO 00000KT 2 1/2SM HZ CLR 18/10 A3009 RMK AO2 T01780100=
201708021253 METAR KCLM 021253Z AUTO 23006KT 4SM HZ CLR 18/10 A3009 RMK AO2 SLP188 T01830100=
201708021153 METAR KCLM 021153Z AUTO 21004KT 3SM HZ CLR 15/11 A3009 RMK AO2 SLP187 T01500106 10206 20139 50004=
201708021053 METAR KCLM 021053Z AUTO 18003KT 3SM HZ CLR 15/11 A3009 RMK AO2 SLP189 T01500111=
201708020953 METAR KCLM 020953Z AUTO 00000KT 3SM HZ CLR 14/11 A3009 RMK AO2 SLP188 T01440111=
201708020853 METAR KCLM 020853Z AUTO 00000KT 3SM HZ CLR 15/11 A3008 RMK AO2 SLP184 T01500111 50000=
201708020753 METAR KCLM 020753Z AUTO 00000KT 4SM HZ FEW046 17/12 A3008 RMK AO2 SLP184 T01670117 402940106=
201708020653 METAR KCLM 020653Z AUTO 21005KT 4SM HZ OVC038 18/12 A3008 RMK AO2 SLP184 T01830117=
201708020553 METAR KCLM 020553Z AUTO 00000KT 8SM OVC042 17/13 A3008 RMK AO2 SLP184 T01720128 10294 20161 58004=
201708020453 METAR KCLM 020453Z AUTO 28003KT 10SM OVC046 19/13 A3008 RMK AO2 SLP185 T01890128=
201708020353 METAR KCLM 020353Z AUTO 00000KT 10SM OVC050 18/12 A3009 RMK AO2 SLP187 T01780122=
201708020253 METAR KCLM 020253Z AUTO 00000KT 10SM BKN049 22/13 A3009 RMK AO2 SLP188 T02170133 56007=
201708020153 METAR KCLM 020153Z AUTO 00000KT 10SM OVC044 23/12 A3009 RMK AO2 SLP189 T02280117=
201708020053 METAR KCLM 020053Z AUTO 00000KT 10SM OVC042 28/12 A3009 RMK AO2 SLP189 T02780122=
201708012353 METAR KCLM 012353Z AUTO 10004KT 10SM FEW048 29/11 A3011 RMK AO2 SLP195 T02940106 10294 20244 58016=
201708012253 METAR KCLM 012253Z AUTO 08005KT 10SM FEW050 29/11 A3013 RMK AO2 SLP201 T02890111=
201708012153 METAR KCLM 012153Z AUTO 00000KT 10SM CLR 28/11 A3015 RMK AO2 SLP208 T02830106=
201708012053 METAR KCLM 012053Z AUTO 10007KT 10SM CLR 27/11 A3016 RMK AO2 SLP212 T02720106 58012=
201708011953 METAR KCLM 011953Z AUTO 11008KT 10SM CLR 26/11 A3017 RMK AO2 SLP217 T02610106=
201708011853 METAR KCLM 011853Z AUTO 11011KT 10SM CLR 26/11 A3018 RMK AO2 SLP218 T02560106=
201708011753 METAR KCLM 011753Z AUTO 10008KT 10SM CLR 24/10 A3019 RMK AO2 SLP223 T02440100 10250 20106 52000=
201708011653 METAR KCLM 011653Z AUTO 10008KT 10SM CLR 24/09 A3019 RMK AO2 SLP222 T02440089=
201708011553 METAR KCLM 011553Z AUTO 09007KT 10SM CLR 23/09 A3020 RMK AO2 SLP224 T02280089=
201708011453 METAR KCLM 011453Z AUTO 10008KT 10SM CLR 21/09 A3019 RMK AO2 SLP223 T02110094 53004=
201708011353 METAR KCLM 011353Z AUTO 00000KT 10SM CLR 13/11 A3019 RMK AO2 SLP223 T01330111=
201708011253 METAR KCLM 011253Z AUTO 21003KT 10SM CLR 11/09 A3018 RMK AO2 SLP220 T01110094=
201708011153 METAR KCLM 011153Z AUTO 15003KT 10SM CLR 11/10 A3018 RMK AO2 SLP219 T01110100 10178 20111 53001=
201708011053 METAR KCLM 011053Z AUTO 00000KT 10SM CLR 12/10 A3017 RMK AO2 SLP215 T01170100=
201708010953 METAR KCLM 010953Z AUTO 00000KT 10SM CLR 13/10 A3017 RMK AO2 SLP214 T01330100=
201708010853 METAR KCLM 010853Z AUTO 23004KT 10SM CLR 15/11 A3018 RMK AO2 SLP218 T01500106 56002=
201708010753 METAR KCLM 010753Z AUTO 00000KT 10SM CLR 14/12 A3018 RMK AO2 SLP218 T01390117 402610100=
201708010653 METAR KCLM 010653Z AUTO 02003KT 10SM CLR 15/11 A3017 RMK AO2 SLP216 T01500111=
201708010553 METAR KCLM 010553Z AUTO 28003KT 10SM CLR 14/12 A3018 RMK AO2 SLP220 T01390117 10233 20139 58002=
201708010453 METAR KCLM 010453Z AUTO 25003KT 10SM CLR 17/12 A3019 RMK AO2 SLP221 T01670122=
201708010353 METAR KCLM 010353Z AUTO 00000KT 10SM CLR 16/11 A3019 RMK AO2 SLP222 T01610111=
201708010253 METAR KCLM 010253Z AUTO 30003KT 10SM CLR 18/11 A3019 RMK AO2 SLP223 T01830111 56010=
201708010153 METAR KCLM 010153Z AUTO 36003KT 10SM CLR 21/12 A3020 RMK AO2 SLP225 T02110122=
201708010053 METAR KCLM 010053Z AUTO VRB03KT 10SM CLR 22/12 A3021 RMK AO2 SLP229 T02170122=

# No short TAF reports from KCLM in databse.

###################################
#  large TAF from KCLM
###################################
201708312320 TAF KCLM 312320Z 0100/0124 30008KT P6SM FEW040 FM010300 29009KT
                       P6SM SKC FM011800 VRB04KT P6SM SKC=
201708311727 TAF KCLM 311727Z 3118/0118 28004KT P6SM FEW006 OVC030 FM312100
                       28004KT P6SM SCT030 FM010000 29009KT P6SM
                       FEW040=
201708311325 KCLM 311325Z 3113/0112 28004KT 6SM BR BKN002 OVC015 FM311500 28004KT
                       P6SM SCT004 BKN012 OVC029 FM311700 34005KT
                       P6SM SCT030 FM010100 29006KT P6SM FEW250=
201708311221 KCLM 311221Z 3112/0112 28004KT P6SM SCT004 OVC029 FM311700 34005KT
                       P6SM SCT030 FM010100 29006KT P6SM FEW250=
201708311120 TAF KCLM 311120Z 3112/0112 28004KT P6SM OVC004 FM311700 34005KT
                       P6SM SCT007 BKN015 FM311800 34005KT P6SM
                       SCT030 FM010100 29006KT P6SM FEW250=
201708310802 KCLM 310802Z 3108/0106 29006KT 3SM BR OVC002 FM311800 33004KT P6SM
                       SCT004 OVC025 FM311900 34005KT P6SM SCT030
                       FM010100 29006KT P6SM FEW250=
201708310524 TAF KCLM 310524Z 3106/0106 29006KT P6SM SCT010 OVC060 FM310800
                       29006KT P6SM OVC008 FM311900 30005KT P6SM
                       SCT030 FM010100 29006KT P6SM FEW250=
201708310302 KCLM 310302Z 3103/3124 29008KT P6SM SCT010 BKN060
                      TEMPO 3103/3106 BKN010 OVC060 FM310600 27006KT
                       P6SM OVC010 FM311900 30005KT P6SM SCT030=
201708302320 TAF KCLM 302320Z 3100/3124 30008KT P6SM BKN080 FM310600 27007KT
                       P6SM BKN030 FM310900 27005KT P6SM OVC022
                       FM311900 30005KT P6SM SCT030=
201708301720 TAF KCLM 301720Z 3018/3118 30005KT P6SM OVC016 FM301900 30005KT
                       P6SM BKN020 FM310000 30008KT P6SM VCSH OVC025=
201708301120 TAF KCLM 301120Z 3012/3112 30005KT P6SM OVC012 FM301900 30005KT
                       P6SM BKN020 FM310000 30008KT P6SM VCSH OVC025=
201708301003 KCLM 301003Z 3010/3106 28005KT P6SM OVC012 FM301900 28005KT P6SM
                       BKN020 FM310000 28008KT P6SM VCSH OVC025=
201708300839 KCLM 300839Z 3009/3106 28008KT P6SM OVC007 FM301600 28005KT P6SM
                       BKN007 OVC012 FM301900 28005KT P6SM BKN020
                       FM310000 28008KT P6SM VCSH OVC025=
201708300628 KCLM 300628Z 3006/3106 28012KT P6SM BKN012 FM300900 28008KT P6SM
                       BKN007 OVC012 FM301600 28005KT P6SM SCT007
                       OVC012 FM301900 28005KT P6SM BKN020 FM310000
                       28008KT P6SM VCSH OVC025=
201708300520 TAF KCLM 300520Z 3006/3106 28012KT P6SM SCT010
                      TEMPO 3006/3009 BKN008 FM300900 28008KT P6SM
                       BKN007 OVC012 FM301600 28005KT P6SM SCT007
                       OVC012 FM301900 28005KT P6SM BKN020 FM310000
                       28008KT P6SM VCSH OVC025=
201708300017 TAF KCLM 300017Z 3000/3024 31011G20KT P6SM SKC FM300700 28005KT
                       P6SM OVC015 FM301200 27003KT P6SM BKN007
                       OVC015 FM301700 33004KT P6SM BKN015 FM302100
                       01004KT P6SM SCT015 BKN050=
201708291737 TAF KCLM 291737Z 2918/3018 33007KT P6SM SKC FM292100 31014G20KT
                       P6SM SKC FM300100 30006KT P6SM SKC FM300700
                       28005KT P6SM OVC015 FM301200 27003KT P6SM
                       BKN007 OVC015 FM301700 33004KT P6SM BKN015=
201708291120 TAF KCLM 291120Z 2912/3012 00000KT P6SM SKC FM291600 28008KT P6SM
                       SKC FM292100 28012G22KT P6SM SKC FM300600
                       28012KT P6SM SCT015
                      TEMPO 3006/3010 BKN015 FM301000 28008KT P6SM
                       OVC012=
201708290520 TAF KCLM 290520Z 2906/3006 00000KT P6SM SKC FM291200 28008KT P6SM
                       SKC FM292100 29014KT P6SM SKC FM300500 30012KT
                       P6SM BKN005=
201708282323 TAF KCLM 282323Z 2900/2924 07004KT P6SM SKC FM290200 VRB02KT P6SM
                       SKC FM291100 29005KT P6SM SKC FM292000 33010KT
                       P6SM BKN200=
201708281736 TAF KCLM 281736Z 2818/2918 10010KT P6SM SKC FM290200 VRB02KT P6SM
                       SKC FM291100 29005KT P6SM SKC=
201708281120 TAF KCLM 281120Z 2812/2912 00000KT P6SM SCT200 FM281800 VRB04KT
                       P6SM SKC FM290700 28008KT P6SM SKC=
201708280520 TAF KCLM 280520Z 2806/2906 00000KT P6SM SCT200 FM281800 VRB04KT
                       P6SM SCT070 BKN200=
201708272320 TAF KCLM 272320Z 2800/2824 07007KT P6SM SKC FM280300 02005KT P6SM
                       SKC FM280600 29005KT P6SM SKC FM281200 VRB04KT
                       P6SM SKC FM281800 09008KT P6SM SCT080=
201708272103 KCLM 272103Z 2721/2818 10009KT P6SM SKC FM280000 05006KT P6SM SKC
                       FM280300 32004KT P6SM SKC FM281000 22004KT
                       P6SM SKC=
201708271729 TAF KCLM 271729Z 2718/2818 07008KT P6SM SKC FM272100 04006KT P6SM
                       SKC FM280000 35006KT P6SM SKC FM280300 29004KT
                       P6SM SKC FM281000 22004KT P6SM SKC=
201708271120 TAF KCLM 271120Z 2712/2812 VRB04KT P6SM SKC=
201708270520 TAF KCLM 270520Z 2706/2806 29004KT P6SM SKC FM271200 VRB03KT P6SM
                       SKC FM271800 06007KT P6SM SKC FM272100 02006KT
                       P6SM SKC=
201708262339 TAF KCLM 262339Z 2700/2724 29006KT P6SM SKC FM271200 VRB03KT P6SM
                       SKC FM271800 06007KT P6SM SKC FM272100 02006KT
                       P6SM SKC=
201708262111 KCLM 262111Z 2621/2718 35006KT P6SM SKC FM270300 29006KT P6SM SKC
                       FM271200 VRB03KT P6SM SKC=
201708261720 TAF KCLM 261720Z 2618/2718 03006KT P6SM SKC FM270000 35006KT P6SM
                       SKC FM270300 29006KT P6SM SKC FM271200 VRB03KT
                       P6SM SKC=
201708261120 TAF KCLM 261120Z 2612/2712 VRB03KT P6SM SKC FM262000 33007KT P6SM
                       SKC=
201708260520 TAF KCLM 260520Z 2606/2706 28006KT P6SM SKC=
201708252326 TAF KCLM 252326Z 2600/2624 32007KT P6SM SCT250 FM260200 28007KT
                       P6SM FEW250 FM261500 32005KT P6SM SKC FM261800
                       36007KT P6SM SKC=
201708252058 KCLM 252058Z 2521/2618 32012KT P6SM SCT250 FM260200 28009KT P6SM
                       SCT250 FM261500 32005KT P6SM SCT250=
201708251721 TAF KCLM 251721Z 2518/2618 34008KT P6SM SCT150 BKN250 FM260200
                       28006KT P6SM SCT250 FM261500 32005KT P6SM
                       SCT250=
201708251120 TAF KCLM 251120Z 2512/2612 27005KT P6SM BKN200=
201708250520 TAF KCLM 250520Z 2506/2606 27007KT P6SM SKC FM251100 VRB04KT P6SM
                       SCT020 FM251600 33007KT P6SM SCT030 BKN200=
201708242320 TAF KCLM 242320Z 2500/2524 30010KT P6SM SCT200 FM250800 27008KT
                       P6SM SCT200 FM251100 VRB04KT P6SM BKN020
                       FM251600 33007KT P6SM SCT030 SCT250=
201708241720 TAF KCLM 241720Z 2418/2518 31012G20KT P6SM SCT035 SCT200 FM250000
                       30012KT P6SM SCT200 FM250800 27008KT P6SM
                       SCT200 FM251100 VRB04KT P6SM BKN020=
201708241128 TAF KCLM 241128Z 2412/2512 29012G22KT P6SM SCT020 SCT050
                      TEMPO 2413/2415 OVC020 FM241500 30005KT P6SM
                       BKN025 FM241700 29008KT P6SM SCT035 SCT200
                       FM250000 30012KT P6SM SCT200 FM250800 27005KT
                       P6SM SCT200=
201708240520 TAF KCLM 240520Z 2406/2506 27012G22KT P6SM SCT030 BKN080 BKN200
                       FM241100 28007KT P6SM OVC013 FM241800 30005KT
                       P6SM BKN025 FM242000 29008KT P6SM SCT035
                       SCT200 FM250000 30012KT P6SM SCT035 SCT200=
201708232320 TAF KCLM 232320Z 2400/2424 30010KT P6SM SKC FM240200 29014G22KT
                       P6SM SCT030 BKN080 BKN250 FM240900 28008KT
                       P6SM OVC013 FM241900 31008KT P6SM SCT035
                       BKN120=
201708231730 TAF KCLM 231730Z 2318/2418 VRB05KT P6SM SKC FM232200 29013G20KT
                       P6SM SCT030 SCT250 FM240900 28008KT P6SM
                       OVC013=
201708231131 TAF KCLM 231131Z 2312/2412 28006KT P6SM OVC008 FM231900 31006KT
                       P6SM SCT030 BKN250 FM240100 30010G20KT P6SM
                       SCT030 BKN250=
201708230520 TAF KCLM 230520Z 2306/2406 31010G20KT P6SM SCT250 FM231000 29008KT
                       P6SM BKN012 BKN250 FM231200 28006KT P6SM
                       OVC008 FM231900 31006KT P6SM SCT030 BKN250
                       FM240100 30010G20KT P6SM SCT030 BKN250=
201708222330 TAF KCLM 222330Z 2300/2324 31013G20KT P6SM SKC FM230900 29006KT
                       P6SM OVC011 FM231900 31006KT P6SM SCT035
                       BKN250=
201708221725 TAF KCLM 221725Z 2218/2318 29004KT P6SM SKC FM230000 29012G20KT
                       P6SM SCT250 FM230900 29006KT P6SM OVC011=
201708221120 TAF KCLM 221120Z 2212/2312 VRB03KT P6SM SKC FM221800 32007KT P6SM
                       SKC FM230000 29012G20KT P6SM SCT250 FM230900
                       29006KT P6SM OVC015=
201708220539 TAF KCLM 220539Z 2206/2306 VRB03KT P6SM SKC FM221800 32007KT P6SM
                       SKC FM230000 29012KT P6SM SCT250=
201708212320 TAF KCLM 212320Z 2200/2224 11007KT P6SM SKC FM220900 29004KT 5SM
                       BR OVC006 FM221700 32007KT P6SM SCT250=
201708211720 TAF KCLM 211720Z 2118/2218 04004KT P6SM SKC FM220000 30006KT P6SM
                       SKC FM220900 29004KT 5SM BR OVC006=
201708211259 KCLM 211259Z 2113/2212 VRB03KT P6SM SCT002
                      TEMPO 2113/2116 BKN002 FM211700 VRB03KT P6SM
                       SKC FM220000 30006KT P6SM SKC FM220900 29004KT
                       5SM BR OVC006=
201708210821 KCLM 210821Z 2108/2206 29006KT 1/2SM FG VV002
                      TEMPO 2108/2112 3SM BR BKN003 FM211200 VRB03KT
                       P6SM SCT004
                      TEMPO 2112/2116 BKN004 FM211700 VRB03KT P6SM
                       SKC FM220000 30006KT P6SM SKC=
201708210616 KCLM 210616Z 2106/2206 29006KT 5SM BR BKN003
                      TEMPO 2106/2110 SCT003 FM211000 VRB03KT P6SM
                       SCT004
                      TEMPO 2110/2114 BKN004 FM211700 VRB03KT P6SM
                       SKC FM220000 30006KT P6SM SKC=
201708210521 TAF KCLM 210521Z 2106/2206 29006KT P6SM SCT200 FM211200 VRB03KT
                       P6SM SCT004
                      TEMPO 2113/2116 BKN004 FM211700 VRB03KT P6SM
                       SKC FM220000 30006KT P6SM SKC=
201708202335 TAF KCLM 202335Z 2100/2124 34010KT P6SM SCT250 FM210900 29005KT
                       P6SM BKN006 FM211700 29006KT P6SM SKC=
201708201725 TAF KCLM 201725Z 2018/2118 30010KT P6SM SCT250 FM210900 29005KT
                       P6SM BKN006 FM211700 29006KT P6SM SKC=
201708201124 TAF KCLM 201124Z 2012/2112 29009KT P6SM SCT250=
201708200536 TAF KCLM 200536Z 2006/2106 29009KT P6SM SCT250=
201708192320 TAF KCLM 192320Z 2000/2024 34007KT P6SM SCT250 FM200100 29009KT
                       P6SM SCT250 FM200900 29007KT P6SM OVC012
                       FM201600 31008KT P6SM SCT250=
201708191730 TAF KCLM 191730Z 1918/2018 30005KT P6SM SCT040 SCT250 FM200100
                       29009KT P6SM SCT250 FM200900 29007KT P6SM
                       OVC012=
201708191125 TAF KCLM 191125Z 1912/2012 29008KT P6SM SCT060=
201708190525 TAF KCLM 190525Z 1906/2006 29012KT P6SM SCT060 FM191300 28008KT
                       P6SM SCT010 FM191900 33010KT P6SM SCT035
                       SCT250=
201708182340 TAF KCLM 182340Z 1900/1924 30008KT P6SM SCT013 BKN070 FM190400
                       29008KT P6SM SCT070 FM190900 28007KT P6SM
                       OVC010 FM191900 33010KT P6SM SCT035=
201708181722 TAF KCLM 181722Z 1818/1918 01006KT P6SM SKC FM182000 31009KT P6SM
                       BKN050 FM190100 29014KT P6SM SCT030 BKN050
                       FM190800 29008KT P6SM SCT050 FM190900 28007KT
                       P6SM OVC010=
201708181128 TAF KCLM 181128Z 1812/1912 29010KT P6SM SCT250 FM181300 29008KT
                       P6SM SCT100 BKN200 FM181800 32008KT P6SM
                       SCT030 BKN045 FM190100 29014KT P6SM SCT030
                       BKN045 FM190800 29008KT P6SM SCT050=
201708180539 TAF KCLM 180539Z 1806/1906 29010KT P6SM SCT250 FM181300 29008KT
                       P6SM SCT100 BKN200 FM181800 32008KT P6SM
                       SCT030 BKN045=
201708172342 TAF KCLM 172342Z 1800/1824 31013KT P6SM SKC FM180300 29013KT P6SM
                       SCT250 FM180900 28009KT P6SM FEW022 SCT100
                       BKN250 FM181200 28004KT P6SM OVC018 FM181800
                       32008KT P6SM BKN028 BKN050 FM182100 32011KT
                       P6SM SCT035 BKN050=
201708171738 TAF KCLM 171738Z 1718/1818 32010KT P6SM FEW015 FM172000 32010KT
                       P6SM SKC FM180300 29010KT P6SM SCT250 FM180900
                       28008KT P6SM FEW022 SCT100 BKN250 FM181200
                       28004KT P6SM OVC018=
201708171605 KCLM 171605Z 1716/1812 32010KT P6SM FEW009 FM171800 32010KT P6SM
                       SCT250 FM180200 28010KT P6SM SCT250=
201708171408 KCLM 171408Z 1714/1812 25005KT P6SM SCT018
                      TEMPO 1714/1716 BKN018 FM171600 25005KT P6SM
                       OVC018 FM171900 31009KT P6SM SCT250=
201708171126 TAF KCLM 171126Z 1712/1812 27004KT P6SM SCT025 FM171400 27004KT
                       P6SM SCT008 BKN018 FM171700 31009KT P6SM
                       SCT250=
201708170540 TAF KCLM 170540Z 1706/1806 27008KT P6SM SCT008 BKN018 OVC030
                      TEMPO 1706/1709 BKN008 OVC018 FM170900 27004KT
                       P6SM OVC008 FM171800 31009KT P6SM SCT250=
201708170300 KCLM 170300Z 1703/1724 29012KT P6SM OVC008 FM170600 27008KT P6SM
                       SCT008 BKN018 BKN050 FM171900 33009KT P6SM
                       SCT250=
201708162321 TAF KCLM 162321Z 1700/1724 32010KT P6SM SCT050 FM170200 29013G20KT
                       P6SM BKN050 FM170600 27010KT P6SM SCT020
                       BKN050 FM170900 27007KT P6SM OVC012 FM171700
                       30007KT P6SM BKN015 BKN250 FM171900 33009KT
                       P6SM SCT250=
201708162111 KCLM 162111Z 1621/1718 31013KT P6SM FEW035 BKN050 FM170200 29013G20KT
                       P6SM FEW028 BKN050 FM170600 27010KT P6SM
                       SCT022 SCT050 FM170900 27007KT P6SM OVC015=
201708161742 TAF KCLM 161742Z 1618/1718 32009KT P6SM SCT050 BKN080 FM162100
                       32011KT P6SM BKN050 BKN090 FM170200 29013G20KT
                       P6SM FEW028 BKN050 FM170600 27010KT P6SM
                       SCT022 SCT050 FM170900 27007KT P6SM OVC015=
201708161449 KCLM 161449Z 1615/1712 30008KT P6SM SCT100 BKN250 FM161800 33010KT
                       P6SM SCT050 BKN100 BKN250 FM170100 28010KT
                       P6SM BKN050 BKN250 FM170700 28010KT P6SM
                       OVC030=
201708161120 TAF KCLM 161120Z 1612/1712 28010KT P6SM SCT250 FM161700 33006KT
                       P6SM SCT250 FM162100 31008KT P6SM SCT050
                       BKN250 FM170300 28010KT P6SM BKN050 BKN250
                       FM170700 28010KT P6SM OVC030=
201708160520 TAF KCLM 160520Z 1606/1706 28007KT P6SM SCT250 FM161200 29006KT
                       P6SM VCFG FEW003 SCT100 BKN250 FM161700
                       33006KT P6SM FEW012 SCT050 BKN250 FM162000
                       33008KT P6SM BKN050 BKN100 BKN250=
201708152341 TAF KCLM 152341Z 1600/1624 32008KT P6SM SCT250 FM160200 28010KT
                       P6SM SKC FM160600 28007KT P6SM SCT250 FM161200
                       29006KT P6SM VCFG FEW003 SCT100 BKN250 FM161800
                       33009KT P6SM FEW008 SCT050 SCT100=
201708151740 TAF KCLM 151740Z 1518/1618 34008KT P6SM BKN250 FM160000 31009KT
                       P6SM SCT250 FM160200 28012KT P6SM SCT250
                       FM160600 28007KT P6SM SCT250 FM161200 29006KT
                       P6SM VCFG FEW003 SCT090 BKN250=
201708151617 KCLM 151617Z 1516/1612 34004KT P6SM BCFG FEW003 FM151700 34006KT
                       P6SM VCFG FEW007 FM151800 34008KT P6SM SCT150
                       FM160100 30012KT P6SM SCT040 SCT120=
201708151506 KCLM 151506Z 1515/1612 34006KT 4SM BR SCT003
                      TEMPO 1515/1517 3/4SM BR VV001 FM151700 34006KT
                       P6SM VCFG FEW007 FM151800 34008KT P6SM SCT150
                       FM160100 30012KT P6SM SCT040 SCT120=
201708151416 KCLM 151416Z 1514/1612 31004KT P6SM VCFG FEW005 FM151800 34007KT
                       P6SM SCT150 FM160100 30012KT P6SM SCT040
                       SCT120=
201708151120 TAF KCLM 151120Z 1512/1612 29006KT P6SM SCT010 SCT150 BKN250
                      TEMPO 1512/1516 5SM BR OVC008 FM152000 19007KT
                       P6SM SCT150 FM160100 30012KT P6SM SCT040
                       SCT120=
201708150520 TAF KCLM 150520Z 1506/1606 28007KT P6SM BKN250 FM151100 25005KT
                       P6SM FEW010 SCT150 BKN250 FM152000 35007KT
                       P6SM SCT150 FM160100 30010KT P6SM SCT150=
201708142328 TAF KCLM 142328Z 1500/1524 32007KT P6SM BKN250 FM150200 29007KT
                       P6SM BKN250 FM150900 25005KT P6SM FEW010
                       SCT100 BKN250 FM151800 35007KT P6SM SCT250=
201708141734 TAF KCLM 141734Z 1418/1518 33008KT P6SM BKN250 FM150200 29008KT
                       P6SM SCT250 FM151200 25005KT P6SM SCT100
                       SCT250=
201708141507 KCLM 141507Z 1415/1512 27005KT P6SM FEW035 OVC130 FM141800 30006KT
                       P6SM BKN200 FM150000 33008KT P6SM SCT200=
201708141120 TAF KCLM 141120Z 1412/1512 27005KT P6SM FEW025 SCT200
                      TEMPO 1412/1416 BKN025 FM141800 30006KT P6SM
                       BKN200 FM150000 33008KT P6SM SCT200=
201708140528 TAF KCLM 140528Z 1406/1506 28012KT P6SM FEW200 FM140900 26006KT
                       P6SM SCT020 FM141200 28005KT P6SM BKN020
                       FM141800 33007KT P6SM FEW025 BKN200=
201708132320 TAF KCLM 132320Z 1400/1424 29015G25KT P6SM SKC FM140500 28010KT
                       P6SM FEW200 FM141200 26006KT P6SM SCT020
                       FM141800 33008KT P6SM BKN200=
201708131742 TAF KCLM 131742Z 1318/1418 31012G20KT P6SM SCT035
                      TEMPO 1318/1322 BKN035 FM132200 29015G25KT
                       P6SM SCT040 FM140500 28010KT P6SM FEW200
                       FM141200 25006KT P6SM BKN012=
201708131448 KCLM 131448Z 1315/1412 29010KT P6SM SCT007 BKN030 FM131800 30012G20KT
                       P6SM BKN030 FM132000 29015G25KT P6SM SCT030
                       SCT060 FM140500 28012KT P6SM SCT060=
201708131305 KCLM 131305Z 1313/1412 32006KT P6SM OVC006 FM131800 30012G20KT
                       P6SM BKN025 OVC040 FM132000 29015G25KT P6SM
                       SCT030 SCT060 FM140500 28012KT P6SM SCT060=
201708131159 KCLM 131159Z 1312/1412 30003KT 1/4SM FG VV002 FM131500 32005KT
                       5SM BR OVC007 FM131800 30012G20KT P6SM BKN025
                       OVC040 FM132000 29015G25KT P6SM SCT030 SCT060
                       FM140500 28012KT P6SM SCT060=
201708131137 TAF KCLM 131137Z 1312/1412 28004KT P6SM BKN004 OVC015 FM131500
                       28005KT 5SM BR SCT005 OVC012 FM131800 30012G20KT
                       P6SM BKN025 OVC040 FM132000 29015G25KT P6SM
                       SCT030 SCT060 FM140500 28012KT P6SM SCT060=
201708130933 KCLM 130933Z 1310/1406 28004KT P6SM BKN004 OVC015 FM131400 28005KT
                       5SM BR SCT005 OVC012 FM131800 30012G20KT
                       P6SM BKN025 OVC040 FM132000 29015G25KT P6SM
                       SCT030 SCT060 FM140500 28012KT P6SM SCT060=
201708130539 TAF KCLM 130539Z 1306/1406 VRB04KT P6SM -RA BKN060 OVC080 FM131000
                       VRB04KT 5SM -RA BR BKN015 OVC040 FM131100
                       28005KT 5SM BR VCSH OVC006 FM131800 30012G23KT
                       P6SM BKN020 OVC040 FM132100 29014G25KT P6SM
                       BKN060 FM140400 28012KT P6SM SCT060=
201708122329 TAF KCLM 122329Z 1300/1324 31010KT P6SM SCT150 FM130400 28006KT
                       P6SM -RA BKN050 OVC080 FM130700 VRB03KT
                       P6SM -RA BKN012 OVC040 FM131200 28005KT
                       P6SM OVC006 FM131800 30012G20KT P6SM BKN020
                       OVC040=
201708121732 TAF KCLM 121732Z 1218/1318 31009KT P6SM SCT200 FM130300 28006KT
                       P6SM -RA BKN050 OVC080 FM130600 VRB03KT
                       P6SM -RA BKN012 OVC040 FM130900 28005KT
                       P6SM OVC012=
201708121428 KCLM 121428Z 1214/1312 VRB03KT P6SM BKN007 BKN012
                      TEMPO 1214/1217 SCT007 SCT012 FM121700 30005KT
                       P6SM SCT020 SCT100 FM121900 33008KT P6SM
                       SCT150 BKN200 FM130600 28006KT P6SM -RA
                       BKN050 OVC080=
201708121244 KCLM 121244Z 1213/1312 30013G18KT P6SM SCT005
                      TEMPO 1213/1216 OVC005 FM121600 30005KT 5SM
                       BR OVC006 FM121800 32005KT P6SM OVC015 FM121900
                       33008KT P6SM SCT150 BKN200 FM130600 28006KT
                       P6SM -RA BKN050 OVC080=
201708121136 TAF KCLM 121136Z 1212/1312 26006KT P6SM SCT005 SCT150
                      TEMPO 1212/1216 OVC003 FM121600 30005KT 5SM
                       BR OVC006 FM121800 32005KT P6SM OVC015 FM121900
                       33008KT P6SM SCT150 BKN200 FM130600 28006KT
                       P6SM -RA BKN050 OVC080=
201708120520 TAF KCLM 120520Z 1206/1306 29012G20KT P6SM BKN004
                      TEMPO 1206/1208 SCT006 FM121000 29008KT P6SM
                       OVC003 FM121600 30005KT 5SM BR OVC008 FM121700
                       32005KT P6SM OVC012 FM121900 33008KT P6SM
                       SCT150=
201708120347 KCLM 120347Z 1204/1224 29010KT P6SM BKN004
                      TEMPO 1204/1208 SCT006 FM121400 30005KT 3SM
                       BR OVC008 FM121700 30005KT P6SM OVC012 FM121900
                       33007KT P6SM SCT150=
201708120132 KCLM 120132Z 1202/1224 30012G20KT P6SM BKN007 BKN120
                      TEMPO 1202/1206 SCT007 BKN120 FM120600 29010KT
                       P6SM BKN008 FM121400 30005KT 3SM BR OVC008
                       FM121700 30005KT P6SM OVC012 FM121900 33007KT
                       P6SM SCT150=
201708112325 TAF KCLM 112325Z 1200/1224 30012KT P6SM BKN150 FM121100 29008KT
                       P6SM BKN010 FM121400 30005KT 3SM BR OVC008
                       FM121700 30005KT P6SM OVC012 FM121900 33007KT
                       P6SM SCT150=
201708111734 TAF KCLM 111734Z 1118/1218 31007KT P6SM VCFG SCT004 SCT150 FM112100
                       31009KT P6SM FEW005 SCT150 FM120200 29010G20KT
                       P6SM BKN150 FM120500 30010KT 1/2SM FG OVC002=
201708111624 KCLM 111624Z 1116/1212 31005KT P6SM SCT002
                      TEMPO 1116/1118 1/2SM BCFG OVC002 FM111800
                       32007KT P6SM VCFG SCT150 FM120000 29010KT
                       P6SM SCT200 FM120500 30010KT P6SM BKN020
                       OVC050=
201708111120 TAF KCLM 111120Z 1112/1212 29006KT 1/2SM FG OVC002 FM111700 32007KT
                       P6SM VCFG SCT150 FM120000 29010KT P6SM SCT200
                       FM120500 30010KT P6SM BKN020 OVC050=
201708110812 KCLM 110812Z 1108/1206 29006KT 1/2SM FG OVC002 FM111700 32007KT
                       P6SM VCFG SCT150 FM120000 29012KT P6SM SCT200=
201708110520 TAF KCLM 110520Z 1106/1206 32007KT P6SM VCFG SKC FM110900 29006KT
                       1SM BR BKN003 FM111700 32007KT P6SM VCFG
                       SCT150 FM120000 29012KT P6SM SCT200=
201708102329 TAF KCLM 102329Z 1100/1124 32007KT P6SM VCFG SKC FM110900 29006KT
                       1SM BR BKN003 FM111700 32007KT P6SM VCFG
                       SCT150=
201708101734 TAF KCLM 101734Z 1018/1118 32007KT P6SM VCFG SKC FM110900 29006KT
                       1SM BR BKN003 FM111700 34005KT P6SM VCFG
                       SCT150=
201708101120 TAF KCLM 101120Z 1012/1112 VRB03KT 5SM FU BR VCFG SKC
                      TEMPO 1012/1016 1/2SM FG OVC001 FM102000
                       35006KT P6SM SKC FM110200 29006KT P6SM SKC
                       FM110800 30005KT 4SM BR OVC003=
201708100901 KCLM 100901Z 1009/1106 VRB03KT 5SM FU BR VCFG SKC
                      TEMPO 1009/1013 1/2SM FG VV002 FM102000 35006KT
                       P6SM SKC FM110200 29006KT P6SM SKC=
201708100520 TAF KCLM 100520Z 1006/1106 32005KT P6SM SKC FM101000 29004KT 5SM
                       FU BR VCFG SKC FM102000 35006KT P6SM SKC
                       FM110200 29006KT P6SM SKC=
201708092340 TAF KCLM 092340Z 1000/1024 32005KT P6SM SKC FM101000 29004KT 5SM
                       FU BR VCFG SKC FM102000 31006KT P6SM SKC=
201708091723 TAF KCLM 091723Z 0918/1018 32005KT P6SM SKC FM101000 29004KT 5SM
                       FU BR VCFG SKC=
201708091120 TAF KCLM 091120Z 0912/1012 29005KT P6SM SKC
                      TEMPO 0912/0916 2SM BR BKN002 FM091600 03005KT
                       P6SM SKC FM100000 31006KT P6SM SKC=
201708090901 TAF AMD KCLM 090901Z 0909/1006 29005KT P6SM SKC
                      TEMPO 0911/0915 2SM BR BKN002 FM091600 03005KT
                       P6SM SKC FM100100 31006KT P6SM SKC=
201708090528 TAF KCLM 090528Z 0906/1006 VRB04KT P6SM SKC FM090900 29005KT 2SM
                       BR BKN002 FM091600 03005KT P6SM SKC FM100100
                       31006KT P6SM SKC=
201708082320 TAF KCLM 082320Z 0900/0924 31004KT P6SM SKC FM090700 29005KT 2SM
                       BR BKN002 FM091600 03005KT P6SM SKC=
201708081722 TAF KCLM 081722Z 0818/0918 01005KT P6SM SKC FM090100 30005KT P6SM
                       SKC FM090700 29005KT 2SM BR BKN002=
201708081120 TAF KCLM 081120Z 0812/0912 VRB03KT P6SM VCFG SCT002 SCT045
                      TEMPO 0812/0816 1SM BR BKN002 BKN045 FM081800
                       05005KT P6SM SCT060 FM090100 30005KT P6SM
                       SCT060 FM090900 VRB03KT 5SM BR SCT050=
201708080637 KCLM 080637Z 0807/0906 VRB03KT P6SM SKC
                      TEMPO 0807/0811 1SM BR OVC005 FM081200 VRB03KT
                       P6SM VCFG SCT002 SCT045
                      TEMPO 0812/0816 2SM BR BKN002 BKN045 FM081800
                       05005KT P6SM SCT060 FM090100 30005KT P6SM
                       SCT060=
201708080520 TAF KCLM 080520Z 0806/0906 VRB03KT P6SM SKC FM081200 VRB03KT P6SM
                       VCFG SCT002 SCT045
                      TEMPO 0812/0816 2SM BR BKN002 BKN045 FM081800
                       05005KT P6SM SCT060 FM090100 30005KT P6SM
                       SCT060=
201708072333 TAF KCLM 072333Z 0800/0824 35007KT P6SM SCT060 FM080300 29007KT
                       P6SM SKC FM081200 VRB03KT P6SM VCFG SCT002
                       SCT045
                      TEMPO 0812/0816 2SM BR BKN002 BKN045 FM081800
                       02005KT P6SM SCT060=
201708071834 KCLM 071834Z 0719/0818 35007KT P6SM SCT060 FM080300 29007KT P6SM
                       SKC FM081200 VRB03KT P6SM VCFG SCT002 SCT045
                       TEMPO 0812/0816 2SM BR BKN002 BKN045=
201708071740 TAF KCLM 071740Z 0718/0818 VRB03KT P6SM BKN050 FM080000 32006KT
                       P6SM SCT050 FM080600 29006KT P6SM SCT002=
201708071620 KCLM 071620Z 0716/0812 00000KT P6SM VCFG SCT003 BKN050
                      TEMPO 0716/0718 4SM BR BKN003 BKN050 FM071800
                       VRB03KT P6SM BKN050 FM080000 32006KT P6SM
                       SCT050 FM080600 29006KT P6SM SCT002=
201708071421 KCLM 071421Z 0714/0812 00000KT 1/2SM FG VV002
                      TEMPO 0714/0716 1/4SM FG FM071700 VRB03KT
                       4SM BR BKN005 FM071800 VRB03KT P6SM SKC
                       FM080000 32006KT P6SM SKC FM080600 29006KT
                       P6SM SCT002=
201708071130 TAF KCLM 071130Z 0712/0812 28005KT 1/2SM FG VV002 FM071800 VRB03KT
                       6SM BR SCT002 FM080000 32006KT P6SM SKC
                       FM080600 29006KT P6SM SCT002=
201708070633 KCLM 070633Z 0707/0806 29005KT 1SM BR OVC001 FM071800 VRB03KT 6SM
                       BR SKC FM080300 32005KT P6SM SKC=
201708070547 TAF KCLM 070547Z 0706/0806 27003KT P6SM BKN002 FM071100 29005KT
                       1/2SM FG OVC002 FM071800 VRB03KT 6SM BR
                       SKC FM080300 32005KT P6SM SKC=
201708062325 TAF KCLM 062325Z 0700/0724 30009KT P6SM SKC FM071100 29005KT 1/2SM
                       FG OVC002 FM071600 VRB03KT 6SM BR BKN003
                       FM071800 35005KT P6SM SKC=
201708061729 TAF KCLM 061729Z 0618/0718 VRB03KT P6SM SCT003
                      TEMPO 0618/0620 OVC003 FM062000 33006KT P6SM
                       SKC FM070400 30009KT P6SM SKC FM071100 28003KT
                       1/2SM FG OVC002=
201708061120 TAF KCLM 061120Z 0612/0712 30004KT 1/2SM FG OVC002 FM061800 VRB04KT
                       P6SM SKC FM070000 32006KT P6SM SKC=
201708060854 KCLM 060854Z 0609/0706 28005KT P6SM BKN004 FM061000 29005KT 1/2SM
                       FG BKN001 FM061700 VRB04KT P6SM SKC FM070000
                       32006KT P6SM SKC=
201708060550 TAF KCLM 060550Z 0606/0706 28009KT P6SM SKC FM061000 29005KT 1/2SM
                       FG BKN001 FM061700 VRB04KT P6SM SKC FM070000
                       32006KT P6SM SKC=
201708052320 TAF KCLM 052320Z 0600/0624 29008KT P6SM SKC FM061000 29005KT 1/2SM
                       FG BKN001 FM061700 VRB04KT P6SM SKC=
201708051921 KCLM 051921Z 0519/0618 VRB05KT P6SM SKC FM060000 32006KT P6SM SKC
                       FM061000 29005KT 1/2SM FG OVC001 FM061700
                       35003KT P6SM SKC=
201708051732 TAF KCLM 051732Z 0518/0618 35003KT P6SM BKN005 FM052000 01006KT
                       P6SM SKC FM060000 32006KT P6SM SKC FM061000
                       29005KT 1/2SM FG OVC001 FM061700 35003KT
                       P6SM SKC=
201708051613 KCLM 051613Z 0516/0612 28003KT 5SM FU BR OVC002 FM051900 01006KT
                       6SM FU HZ SKC FM060000 32006KT 6SM FU HZ
                       SKC=
201708051335 KCLM 051335Z 0514/0612 28005KT 1/2SM FG OVC001
                      TEMPO 0514/0516 3SM FU BR OVC003 FM051600
                       28003KT 5SM FU BR BKN006 FM051800 03006KT
                       6SM FU HZ SKC FM060000 32006KT 6SM FU HZ
                       SKC=
201708051145 TAF KCLM 051145Z 0512/0612 31003KT 3SM FU BR OVC003 FM051600 28003KT
                       5SM FU BR BKN006 FM051800 03006KT 6SM FU
                       HZ SKC FM060000 32006KT 6SM FU HZ SKC=
201708051044 KCLM 051044Z 0511/0606 31003KT 5SM FU HZ BKN003 FM051600 28003KT
                       5SM FU HZ BKN010 FM051800 01006KT 6SM FU
                       HZ SKC FM060000 22006KT 6SM FU HZ SKC=
201708050548 TAF KCLM 050548Z 0506/0606 31003KT 6SM FU HZ SKC FM051800 01006KT
                       6SM FU HZ SKC FM060000 22006KT 6SM FU HZ
                       SKC=
201708042321 TAF KCLM 042321Z 0500/0524 VRB05KT 5SM FU HZ SKC FM050300 29006KT
                       5SM FU HZ SKC FM051800 01006KT 6SM FU HZ
                       SKC=
201708041720 TAF KCLM 041720Z 0418/0518 07005KT 6SM FU HZ SKC FM050000 29006KT
                       P6SM SKC FM051400 27004KT 5SM FU HZ SKC=
201708041129 TAF KCLM 041129Z 0412/0512 00000KT 4SM FU HZ SKC FM041800 07005KT
                       5SM FU HZ SKC FM050000 29006KT 6SM FU HZ
                       SKC=
201708040547 TAF KCLM 040547Z 0406/0506 24004KT 5SM FU HZ SKC FM041200 29003KT
                       5SM FU HZ SKC FM041800 07005KT 5SM FU HZ
                       SKC=
201708032320 TAF KCLM 032320Z 0400/0424 09006KT 5SM FU HZ SKC FM040200 27004KT
                       4SM FU HZ SKC FM041600 07005KT 5SM FU HZ
                       SKC=
201708031720 TAF KCLM 031720Z 0318/0418 09006KT 5SM FU HZ SKC FM040000 29004KT
                       4SM FU HZ SKC FM041600 07005KT 5SM FU HZ
                       SKC=
201708031120 TAF KCLM 031120Z 0312/0412 VRB04KT 4SM FU HZ SKC FM031800 09006KT
                       4SM FU HZ SKC FM040000 29004KT 4SM FU HZ
                       SKC=
201708030556 TAF KCLM 030556Z 0306/0406 00000KT 3SM FU HZ SKC FM031800 09006KT
                       4SM FU HZ SKC FM040000 29004KT 4SM FU HZ
                       SKC=
201708022320 TAF KCLM 022320Z 0300/0324 09007KT 2SM FU HZ BKN035=
201708022139 KCLM 022139Z 0222/0318 09008KT 4SM FU HZ SCT040
                      TEMPO 0222/0302 2SM FU HZ BKN035=
201708021720 TAF KCLM 021720Z 0218/0318 10007KT 4SM HZ FU SCT040=
201708021327 KCLM 021327Z 0213/0312 VRB03KT 3SM HZ SKC FM021700 09005KT P6SM
                       SKC FM022100 31005KT P6SM SKC=
201708021120 TAF KCLM 021120Z 0212/0312 18003KT 5SM HZ SKC FM021700 09005KT
                       P6SM SKC FM022100 31005KT P6SM SKC=
201708020525 TAF KCLM 020525Z 0206/0306 28003KT P6SM SCT045 FM022100 02005KT
                       P6SM SKC=
201708012320 TAF KCLM 012320Z 0200/0224 08005KT P6SM FEW050 FM020200 27007KT
                       P6SM SKC=
201708011725 TAF KCLM 011725Z 0118/0218 09006KT P6SM SKC FM020200 27007KT P6SM
                       SKC=
201708011120 TAF KCLM 011120Z 0112/0212 00000KT P6SM SKC FM011800 34005KT P6SM
                       SKC=
201708010527 TAF KCLM 010527Z 0106/0206 25003KT P6SM SKC FM011000 VRB03KT P6SM
                       SKC FM011800 04006KT P6SM SKC=