##########################################################
# Query made at 02/16/2025 03:19:18 UTC
# Time interval: from 02/01/2017 00:00  to 02/28/2017 23:59  UTC
##########################################################

##########################################################
# KCLM, Port Angeles, William R. Fairchild International Airport (United States)
# WMO index: -----. WIGOS ID: Unknown
# Latitude 48-07-20N. Longitude 123-30-19W. Altitude 87 m.
##########################################################

###################################
#  METAR/SPECI from KCLM
###################################
201702282353 METAR KCLM 282353Z AUTO 09005KT 10SM BKN065 BKN090 OVC110 06/01 A3010 RMK AO2 SLP196 T00610011 10067 20006 51007=
201702282253 METAR KCLM 282253Z AUTO 09005KT 10SM BKN070 OVC120 06/01 A3010 RMK AO2 SLP196 T00610006=
201702282153 METAR KCLM 282153Z AUTO 09006KT 10SM BKN120 06/01 A3010 RMK AO2 SLP195 T00610006=
201702282053 METAR KCLM 282053Z AUTO VRB03KT 10SM CLR 06/01 A3008 RMK AO2 SLP190 T00560011 53020=
201702281953 METAR KCLM 281953Z AUTO 11003KT 10SM CLR 04/M01 A3006 RMK AO2 SLP183 T00391006=
201702281853 METAR KCLM 281853Z AUTO 13006KT 10SM FEW060 03/M01 A3004 RMK AO2 SLP176 T00281011=
201702281753 METAR KCLM 281753Z AUTO 00000KT 7SM OVC060 01/01 A3002 RMK AO2 SLP169 60000 T00060006 10011 21011 53031=
201702281653 METAR KCLM 281653Z AUTO 00000KT 6SM BR BKN041 OVC055 00/00 A2999 RMK AO2 SNB13E24 SLP157 P0000 T00000000=
201702281553 METAR KCLM 281553Z AUTO 00000KT 7SM BKN050 OVC065 M01/M01 A2996 RMK AO2 SLP147 T10061006=
201702281453 METAR KCLM 281453Z AUTO 00000KT 10SM SCT027 BKN044 OVC070 M01/M01 A2993 RMK AO2 SNB22E33 SLP137 P0000 60000 T10061006 53024=
201702281404 SPECI KCLM 281404Z AUTO 00000KT 10SM OVC029 00/00 A2991 RMK AO2 T00000000=
201702281353 METAR KCLM 281353Z AUTO 14003KT 10SM BKN030 OVC037 00/00 A2990 RMK AO2 SLP128 T00000000=
201702281253 METAR KCLM 281253Z AUTO 18003KT 9SM BKN035 BKN042 OVC050 00/00 A2987 RMK AO2 SLP119 T00000000=
201702281153 METAR KCLM 281153Z AUTO 00000KT 10SM SCT032 BKN044 OVC070 00/00 A2986 RMK AO2 SLP113 60000 70040 I6000 T00000000 10006 21022 53020=
201702281137 SPECI KCLM 281137Z AUTO 00000KT 9SM BKN031 OVC042 M01/M01 A2985 RMK AO2 T10061006=
201702281109 SPECI KCLM 281109Z AUTO 22004KT 8SM BKN029 BKN046 OVC070 M01/M01 A2984 RMK AO2 T10061006=
201702281053 METAR KCLM 281053Z AUTO 00000KT 9SM FEW029 FEW046 OVC070 00/00 A2983 RMK AO2 SLP105 T00000000=
201702280953 METAR KCLM 280953Z AUTO 23003KT 7SM SCT024 BKN032 OVC060 M01/M01 A2982 RMK AO2 SLP100 I1000 T10061006=
201702280942 SPECI KCLM 280942Z AUTO 20003KT 3SM BR SCT024 BKN032 OVC060 M01/M01 A2981 RMK AO2 I1000 T10061006=
201702280933 SPECI KCLM 280933Z AUTO 00000KT 1 3/4SM BR FEW023 SCT035 OVC060 M01/M01 A2981 RMK AO2 I1000 T10061006=
201702280928 SPECI KCLM 280928Z AUTO 00000KT 4SM BR FEW022 FEW035 OVC060 M01/M01 A2981 RMK AO2 I1000 T10111011=
201702280920 SPECI KCLM 280920Z AUTO 00000KT 2SM BR SCT022 SCT035 OVC065 M01/M01 A2980 RMK AO2 T10111011=
201702280913 SPECI KCLM 280913Z AUTO 00000KT 1/2SM FZFG SCT022 BKN034 OVC060 M01/M01 A2980 RMK AO2 T10061006=
201702280901 SPECI KCLM 280901Z AUTO 00000KT 1SM BR BKN022 OVC060 M01/M01 A2980 RMK AO2 T10111011=
201702280853 METAR KCLM 280853Z AUTO 00000KT 1/2SM FZFG FEW022 SCT044 BKN065 M01/M01 A2980 RMK AO2 SLP093 60000 I1000 I3000 T10111011 53007=
201702280843 SPECI KCLM 280843Z AUTO 00000KT 3/4SM BR FEW001 SCT045 BKN065 M02/M02 A2979 RMK AO2 I1000 T10171017=
201702280839 SPECI KCLM 280839Z AUTO 00000KT 1 3/4SM BR SCT045 BKN065 M01/M01 A2979 RMK AO2 I1000 T10111011=
201702280753 METAR KCLM 280753Z AUTO 00000KT 8SM SCT038 M01/M01 A2978 RMK AO2 SLP087 T10061006 400441017=
201702280653 METAR KCLM 280653Z AUTO 14005KT 10SM FEW025 BKN050 BKN065 M01/M01 A2977 RMK AO2 SNE25 SLP085 P0000 T10061006=
201702280651 SPECI KCLM 280651Z AUTO 14005KT 10SM SCT025 BKN050 BKN065 M01/M01 A2977 RMK AO2 SNE25 P0000=
201702280604 SPECI KCLM 280604Z AUTO 12005KT 3SM -SN BR FEW014 OVC025 01/01 A2977 RMK AO2 P0000 T00060006=
201702280557 SPECI KCLM 280557Z AUTO 14005KT 2 1/2SM -SN BR FEW007 SCT012 OVC025 00/00 A2977 RMK AO2 P0000 T00000000=
201702280553 METAR KCLM 280553Z AUTO 14005KT 1 1/2SM -SN BR SCT007 BKN012 OVC025 00/00 A2977 RMK AO2 SLP084 P0007 60034 T00000000 10028 20000 51016=
201702280532 SPECI KCLM 280532Z AUTO 00000KT 1SM -SN BR SCT009 OVC013 00/00 A2977 RMK AO2 P0005 T00000000=
201702280519 SPECI KCLM 280519Z AUTO 15003KT 1SM -SN BR VV013 00/00 A2976 RMK AO2 P0004 T00000000=
201702280503 SPECI KCLM 280503Z AUTO 14003KT 1/2SM SN FG FEW002 OVC006 00/00 A2976 RMK AO2 P0002 T00000000=
201702280453 METAR KCLM 280453Z AUTO 00000KT 1/2SM SN FG VV004 00/00 A2976 RMK AO2 UPB05E08SNE05B08 SLP080 P0012 T00000000=
201702280444 SPECI KCLM 280444Z AUTO 00000KT 3/4SM -SN BR OVC002 00/00 A2976 RMK AO2 UPB05E08SNE05B08 P0009 T00000000=
201702280427 SPECI KCLM 280427Z AUTO 00000KT 1SM -SN BR OVC004 01/01 A2975 RMK AO2 UPB05E08SNE05B08 P0004 T00060006=
201702280420 SPECI KCLM 280420Z AUTO 10003KT 1SM -SN BR BKN005 OVC010 01/01 A2974 RMK AO2 UPB05E08SNE05B08 P0002 T00060006=
201702280412 SPECI KCLM 280412Z AUTO 00000KT 2 1/2SM -SN BR BKN005 OVC012 01/00 A2975 RMK AO2 UPB05E08SNE05B08 P0000 T00060000=
201702280359 SPECI KCLM 280359Z AUTO 00000KT 3SM -SN BR FEW009 BKN012 OVC017 01/01 A2974 RMK AO2 P0000 T00060006=
201702280353 METAR KCLM 280353Z AUTO 00000KT 2 1/2SM -SN BR SCT009 OVC015 01/01 A2974 RMK AO2 RAE0258SNB0258 SLP073 P0010 T00060006=
201702280345 SPECI KCLM 280345Z AUTO 00000KT 4SM -SN BR SCT007 SCT010 OVC017 01/01 A2974 RMK AO2 RAE0258SNB0258 P0009 T00060006=
201702280329 SPECI KCLM 280329Z AUTO 29003KT 3SM -SN BR OVC007 01/00 A2973 RMK AO2 RAE0258SNB0258 P0009 T00060000=
201702280315 SPECI KCLM 280315Z AUTO 00000KT 1 1/4SM -SN BR BKN007 BKN012 OVC018 01/01 A2973 RMK AO2 RAE0258SNB0258 P0007 T00060006=
201702280302 SPECI KCLM 280302Z AUTO 17003KT 1 3/4SM -SN BR SCT008 BKN012 OVC025 01/01 A2973 RMK AO2 RAE0258SNB0258 P0003 T00110011=
201702280258 SPECI KCLM 280258Z AUTO 19004KT 6SM -SN BR FEW008 BKN012 OVC034 01/01 A2973 RMK AO2 RAE58SNB58 P0002 T00110011=
201702280253 METAR KCLM 280253Z AUTO 19003KT 10SM -RA SCT014 SCT019 OVC034 02/01 A2972 RMK AO2 RAE20B42 SLP068 P0000 60005 T00170011 51005=
201702280245 SPECI KCLM 280245Z AUTO 15005KT 10SM -RA SCT014 BKN026 OVC038 02/01 A2972 RMK AO2 RAE20B42 P0000 T00170011=
201702280236 SPECI KCLM 280236Z AUTO 15006KT 10SM FEW022 BKN049 OVC065 01/01 A2972 RMK AO2 RAE20 P0000 T00110011=
201702280217 SPECI KCLM 280217Z AUTO 16004KT 10SM -RA BKN025 OVC032 01/01 A2972 RMK AO2 P0000 T00110011=
201702280153 METAR KCLM 280153Z AUTO 13004KT 5SM -RA BR SCT012 SCT025 OVC032 01/01 A2971 RMK AO2 SLP063 P0004 T00110011=
201702280146 SPECI KCLM 280146Z AUTO 13003KT 9SM -RA SCT012 BKN028 OVC036 01/01 A2971 RMK AO2 P0004 T00110011=
201702280135 SPECI KCLM 280135Z AUTO 14005KT 6SM -RA BR BKN011 BKN019 01/01 A2971 RMK AO2 P0004 T00110006=
201702280053 METAR KCLM 280053Z AUTO 13003KT 10SM -RA SCT011 BKN019 OVC026 02/02 A2971 RMK AO2 RAB09E39B46 SLP062 P0001 T00170017=
201702280045 SPECI KCLM 280045Z AUTO 16006KT 10SM FEW009 SCT019 BKN027 02/02 A2970 RMK AO2 RAB09E39 P0001 T00170017=
201702280033 SPECI KCLM 280033Z AUTO 13006KT 4SM -RA BR SCT009 BKN013 BKN019 02/01 A2970 RMK AO2 RAB09 P0001 T00220011=
201702280028 SPECI KCLM 280028Z AUTO 11006KT 2 1/2SM -RA BR SCT009 BKN015 OVC034 02/02 A2970 RMK AO2 RAB09 P0001 T00220017=
201702280021 SPECI KCLM 280021Z AUTO 00000KT 4SM -RA BR BKN009 BKN015 OVC033 03/02 A2970 RMK AO2 RAB09 P0001 T00280017=
201702272353 METAR KCLM 272353Z AUTO 11004KT 10SM BKN011 BKN029 OVC100 03/02 A2970 RMK AO2 RAE46 SLP059 P0002 60006 T00280017 10044 20017 51006=
201702272351 SPECI KCLM 272351Z AUTO 10004KT 10SM BKN011 BKN029 OVC100 03/02 A2970 RMK AO2 RAE46 P0002=
201702272332 SPECI KCLM 272332Z AUTO 00000KT 7SM -RA BKN009 OVC014 03/02 A2970 RMK AO2 CIG 006V012 P0002 T00330022=
201702272323 SPECI KCLM 272323Z AUTO VRB03KT 9SM -RA SCT009 BKN014 OVC023 03/02 A2969 RMK AO2 P0000 T00330022=
201702272314 SPECI KCLM 272314Z AUTO VRB03KT 10SM -RA FEW009 BKN015 OVC029 03/02 A2969 RMK AO2 P0000 T00330017=
201702272253 METAR KCLM 272253Z AUTO 27008KT 6SM -RA BR BKN030 BKN038 OVC065 03/01 A2969 RMK AO2 RAB29E43B48SNB2157E07 SLP056 P0000 T00330011=
201702272153 METAR KCLM 272153Z AUTO 31012G19KT 8SM BKN035 BKN048 BKN095 03/M01 A2968 RMK AO2 RAB41E43SNE08B43E53 SLP052 P0002 T00281006=
201702272110 SPECI KCLM 272110Z AUTO 30006KT 9SM SCT020 BKN036 OVC080 03/00 A2967 RMK AO2 SNE08 P0000 T00330000=
201702272053 METAR KCLM 272053Z AUTO 26013G22KT 3SM -SN BR BKN021 BKN031 OVC060 02/00 A2968 RMK AO2 RAB27E38SNB38 SLP054 P0000 60002 T00220000 53002=
201702272048 SPECI KCLM 272048Z AUTO 26014G22KT 4SM -SN BR BKN025 BKN035 OVC047 02/00 A2968 RMK AO2 RAB27E38SNB38 P0000=
201702271953 METAR KCLM 271953Z AUTO 27007KT 10SM FEW050 OVC065 04/02 A2967 RMK AO2 RAB15E36 SLP050 P0002 T00390017=
201702271853 METAR KCLM 271853Z AUTO 00000KT 10SM BKN060 BKN075 OVC110 03/01 A2968 RMK AO2 UPE1759 SLP052 P0000 T00330011=
201702271803 SPECI KCLM 271803Z AUTO 18004KT 10SM SCT033 BKN046 OVC065 02/01 A2968 RMK AO2 UPE1759 P0000 T00170011=
201702271753 METAR KCLM 271753Z AUTO 00000KT 8SM UP BKN029 BKN035 OVC046 02/01 A2969 RMK AO2 UPB19E21B38SNB18E19B21E38 SLP056 P0000 60000 T00170011 10017 21011 55006=
201702271724 SPECI KCLM 271724Z AUTO 29004KT 6SM -SN BR BKN022 OVC033 01/00 A2969 RMK AO2 UPB19E21SNB18E19B21 P0000 T00110000=
201702271653 METAR KCLM 271653Z AUTO 28007KT 10SM BKN050 OVC060 01/00 A2969 RMK AO2 SLP056 T00110000=
201702271553 METAR KCLM 271553Z AUTO 23004KT 10SM OVC065 01/00 A2969 RMK AO2 SLP056 T00060000=
201702271453 METAR KCLM 271453Z AUTO 23006KT 10SM OVC070 01/M01 A2971 RMK AO2 SLP063 T00061006 56009=
201702271353 METAR KCLM 271353Z AUTO 22003KT 10SM BKN100 M01/M01 A2972 RMK AO2 SLP066 T10061011=
201702271253 METAR KCLM 271253Z AUTO 00000KT 10SM CLR M01/M01 A2972 RMK AO2 SLP066 T10111011=
201702271153 METAR KCLM 271153Z AUTO 22004KT 10SM CLR M01/M01 A2974 RMK AO2 SLP072 70031 T10061006 10011 21017 58009=
201702271053 METAR KCLM 271053Z AUTO 24005KT 10SM CLR M01/M01 A2975 RMK AO2 SLP077 T10061011=
201702270953 METAR KCLM 270953Z AUTO 22005KT 10SM CLR M01/M01 A2976 RMK AO2 SLP082 T10061011=
201702270853 METAR KCLM 270853Z AUTO 23007KT 10SM CLR 00/M01 A2976 RMK AO2 SLP081 T00001006 56003=
201702270753 METAR KCLM 270753Z AUTO 00000KT 10SM CLR M01/M01 A2977 RMK AO2 SLP082 T10111011 400391011=
201702270653 METAR KCLM 270653Z AUTO 21003KT 10SM FEW050 01/01 A2977 RMK AO2 SLP083 T00060006=
201702270553 METAR KCLM 270553Z AUTO 22004KT 10SM OVC065 01/01 A2977 RMK AO2 SLP084 T00110011 10039 20011 50003=
201702270453 METAR KCLM 270453Z AUTO 21003KT 10SM OVC070 01/01 A2978 RMK AO2 SLP085 T00110006=
201702270353 METAR KCLM 270353Z AUTO 00000KT 10SM OVC065 02/02 A2976 RMK AO2 SLP082 T00220017=
201702270253 METAR KCLM 270253Z AUTO 23003KT 10SM OVC060 02/02 A2976 RMK AO2 SLP082 T00220022 51006=
201702270153 METAR KCLM 270153Z AUTO 00000KT 10SM OVC055 03/02 A2976 RMK AO2 SLP079 T00280022=
201702270053 METAR KCLM 270053Z AUTO 00000KT 10SM FEW042 OVC055 04/02 A2975 RMK AO2 SLP078 T00390022=
201702262353 METAR KCLM 262353Z AUTO 22003KT 10SM FEW037 OVC050 04/02 A2975 RMK AO2 SLP075 60020 T00390022 10039 20011 53005=
201702262253 METAR KCLM 262253Z AUTO 20003KT 10SM OVC037 03/02 A2974 RMK AO2 RAE37 SLP072 P0000 T00280022=
201702262245 SPECI KCLM 262245Z AUTO 19003KT 10SM SCT027 OVC035 03/02 A2973 RMK AO2 RAE37 P0000 T00280022=
201702262153 METAR KCLM 262153Z AUTO 16006KT 10SM -RA FEW010 BKN025 OVC034 02/02 A2973 RMK AO2 RAB2055E16B32SNE2055B16E32 SLP070 P0009 T00220017=
201702262148 SPECI KCLM 262148Z AUTO 15007KT 7SM -RA SCT014 BKN023 OVC036 02/02 A2973 RMK AO2 RAB2055E16B32SNE2055B16E32 P0009=
201702262132 SPECI KCLM 262132Z AUTO 14007KT 3SM -RA BR BKN013 OVC019 02/01 A2973 RMK AO2 RAB2055E16B32SNE2055B16E32 P0009 T00170011=
201702262125 SPECI KCLM 262125Z AUTO 12003KT 1 1/2SM -SN BR OVC013 01/01 A2973 RMK AO2 RAB2055E16SNE2055B16 P0008 T00110011=
201702262100 SPECI KCLM 262100Z AUTO 10006KT 2 1/2SM RA BR FEW006 OVC013 02/02 A2973 RMK AO2 RAB2055SNE2055 P0002 T00170017=
201702262053 METAR KCLM 262053Z AUTO 11007KT 2 1/2SM -SN BR BKN008 OVC013 02/02 A2973 RMK AO2 RAE42SNB42 SLP069 P0011 60011 T00170017 54000=
201702262049 SPECI KCLM 262049Z AUTO 09007KT 2 1/2SM -SN BR BKN006 OVC011 02/02 A2973 RMK AO2 RAE42SNB42 P0011=
201702262030 SPECI KCLM 262030Z AUTO 09008KT 1 3/4SM RA BR BKN006 BKN011 OVC018 03/02 A2973 RMK AO2 P0005 T00280022=
201702261953 METAR KCLM 261953Z AUTO 09008KT 4SM -RA BR OVC009 03/02 A2973 RMK AO2 RAE1858B24 SLP069 P0000 T00280022=
201702261914 SPECI KCLM 261914Z AUTO 09009KT 10SM SCT007 OVC013 03/02 A2973 RMK AO2 RAE1858 P0000 T00330022=
201702261853 METAR KCLM 261853Z AUTO 08011G16KT 7SM -RA BKN007 OVC013 03/02 A2972 RMK AO2 RAE1755B30 CIG 005V010 SLP066 P0000 T00280022=
201702261753 METAR KCLM 261753Z AUTO 08007KT 10SM -RA BKN009 OVC015 03/02 A2970 RMK AO2 CIG 007V011 SLP061 P0000 60011 T00330022 10033 20011 53012=
201702261746 SPECI KCLM 261746Z AUTO 07008KT 10SM -RA BKN011 OVC017 03/02 A2970 RMK AO2 P0000 T00330022=
201702261737 SPECI KCLM 261737Z AUTO 08007KT 10SM -RA SCT011 OVC015 03/02 A2970 RMK AO2 P0000 T00330022=
201702261716 SPECI KCLM 261716Z AUTO 08010G15KT 8SM -RA BKN013 BKN018 OVC022 03/02 A2969 RMK AO2 P0000 T00280022=
201702261705 SPECI KCLM 261705Z AUTO 08007KT 050V110 10SM -RA BKN015 OVC024 03/02 A2969 RMK AO2 P0000 T00330017=
201702261653 METAR KCLM 261653Z AUTO 08009KT 10SM -RA OVC014 03/02 A2969 RMK AO2 SLP057 P0003 T00280017=
201702261634 SPECI KCLM 261634Z AUTO 13004KT 4SM -RA BR OVC012 03/02 A2969 RMK AO2 P0003 T00280022=
201702261622 SPECI KCLM 261622Z AUTO 00000KT 2SM -RA BR BKN010 OVC016 02/02 A2969 RMK AO2 P0001 T00220022=
201702261608 SPECI KCLM 261608Z AUTO 00000KT 6SM -RA BR BKN013 BKN023 OVC037 02/02 A2968 RMK AO2 P0000 T00220022=
201702261553 METAR KCLM 261553Z AUTO 21003KT 6SM -RA BR BKN037 OVC049 02/02 A2968 RMK AO2 SLP052 P0002 T00170017=
201702261520 SPECI KCLM 261520Z AUTO 00000KT 6SM -RA BR OVC030 02/02 A2967 RMK AO2 P0000 T00170017=
201702261453 METAR KCLM 261453Z AUTO 00000KT 6SM -RA BR OVC022 02/02 A2967 RMK AO2 SLP049 P0006 60006 T00170017 56011=
201702261428 SPECI KCLM 261428Z AUTO 22003KT 5SM -RA BR SCT012 OVC022 02/02 A2967 RMK AO2 P0004 T00170017=
201702261353 METAR KCLM 261353Z AUTO 23004KT 9SM -RA OVC013 02/02 A2967 RMK AO2 RAB00 SLP051 P0000 T00170017=
201702261325 SPECI KCLM 261325Z AUTO 00000KT 9SM -RA OVC014 02/02 A2968 RMK AO2 RAB00 P0000 T00170017=
201702261312 SPECI KCLM 261312Z AUTO 00000KT 9SM -RA BKN015 OVC042 02/02 A2968 RMK AO2 RAB00 P0000 T00170017=
201702261253 METAR KCLM 261253Z AUTO 22003KT 7SM OVC044 02/02 A2968 RMK AO2 SLP054 T00170017=
201702261153 METAR KCLM 261153Z AUTO 00000KT 6SM BR OVC060 01/01 A2970 RMK AO2 SLP060 60006 70007 T00110011 10033 20011 56036=
201702261053 METAR KCLM 261053Z AUTO 00000KT 6SM BR OVC060 02/02 A2973 RMK AO2 RAE0954 SLP070 P0000 T00170017=
201702260953 METAR KCLM 260953Z AUTO 11004KT 10SM -RA OVC046 02/02 A2977 RMK AO2 SLP082 P0000 T00220017=
201702260913 SPECI KCLM 260913Z AUTO 12003KT 6SM -RA BR SCT014 SCT021 OVC034 02/02 A2979 RMK AO2 P0000 T00220022=
201702260904 SPECI KCLM 260904Z AUTO 00000KT 6SM -RA BR BKN014 OVC034 02/02 A2980 RMK AO2 P0000 T00220017=
201702260853 METAR KCLM 260853Z AUTO 16003KT 6SM -RA BR BKN015 OVC055 02/02 A2981 RMK AO2 SLP095 P0002 60006 T00220017 56025=
201702260850 SPECI KCLM 260850Z AUTO 00000KT 7SM -RA BKN015 OVC055 02/02 A2981 RMK AO2 P0002=
201702260753 METAR KCLM 260753Z AUTO 11005KT 8SM -RA OVC034 02/02 A2984 RMK AO2 SLP106 P0002 T00220017 400671017=
201702260739 SPECI KCLM 260739Z AUTO 11005KT 8SM -RA OVC030 02/02 A2985 RMK AO2 P0002 T00220017=
201702260715 SPECI KCLM 260715Z AUTO 12005KT 6SM -RA BR FEW023 OVC028 02/02 A2987 RMK AO2 P0002 T00220017=
201702260705 SPECI KCLM 260705Z AUTO 12005KT 7SM -RA FEW022 OVC030 02/02 A2987 RMK AO2 P0000 T00220017=
201702260653 METAR KCLM 260653Z AUTO 12004KT 10SM -RA SCT022 OVC029 03/02 A2988 RMK AO2 SLP120 P0002 T00280017=
201702260638 SPECI KCLM 260638Z AUTO 13006KT 9SM -RA FEW022 OVC029 03/02 A2989 RMK AO2 P0002 T00280017=
201702260611 SPECI KCLM 260611Z AUTO 14005KT 10SM -RA OVC031 03/02 A2990 RMK AO2 P0000 T00280022=
201702260553 METAR KCLM 260553Z AUTO 13005KT 8SM -RA OVC025 03/02 A2991 RMK AO2 RAB12 SLP130 P0001 60001 T00330017 10050 20022 56029=
201702260532 SPECI KCLM 260532Z AUTO 00000KT 7SM -RA OVC027 04/01 A2992 RMK AO2 RAB12 P0000 T00390006=
201702260453 METAR KCLM 260453Z AUTO 00000KT 10SM FEW036 BKN060 OVC070 03/02 A2993 RMK AO2 SLP138 T00280017=
201702260353 METAR KCLM 260353Z AUTO 21003KT 10SM SCT041 BKN055 OVC075 04/01 A2996 RMK AO2 SLP146 T00390006=
201702260253 METAR KCLM 260253Z AUTO 24005KT 10SM OVC050 04/01 A3000 RMK AO2 SLP160 T00440006 56029=
201702260153 METAR KCLM 260153Z AUTO 17003KT 10SM OVC048 04/02 A3002 RMK AO2 SLP168 T00440017=
201702260053 METAR KCLM 260053Z AUTO 00000KT 10SM FEW021 FEW030 OVC050 05/02 A3005 RMK AO2 SLP178 T00500017=
201702252353 METAR KCLM 252353Z AUTO 18003KT 10SM OVC048 05/02 A3008 RMK AO2 SLP189 T00500017 10067 20033 56033=
201702252253 METAR KCLM 252253Z AUTO 33006G15KT 10SM OVC050 05/02 A3012 RMK AO2 SLP202 T00500017=
201702252153 METAR KCLM 252153Z AUTO VRB03KT 10SM BKN060 OVC100 06/01 A3013 RMK AO2 PRESFR SLP203 T00610011=
201702252053 METAR KCLM 252053Z AUTO 34008KT 10SM FEW038 OVC055 06/00 A3018 RMK AO2 SLP223 T00610000 58016=
201702251953 METAR KCLM 251953Z AUTO VRB05KT 10SM CLR 06/01 A3020 RMK AO2 SLP230 T00610006=
201702251853 METAR KCLM 251853Z AUTO 24004KT 10SM CLR 05/M01 A3021 RMK AO2 SLP234 T00501006=
201702251753 METAR KCLM 251753Z AUTO 26003KT 10SM FEW055 04/01 A3023 RMK AO2 SLP239 I6001 T00390006 10039 21017 58006=
201702251653 METAR KCLM 251653Z AUTO 24006KT 10SM CLR 01/M01 A3025 RMK AO2 SLP245 T00111006=
201702251553 METAR KCLM 251553Z AUTO 23007KT 10SM CLR 00/M01 A3025 RMK AO2 SLP247 T00001006=
201702251453 METAR KCLM 251453Z AUTO 24006KT 10SM CLR M01/M02 A3025 RMK AO2 SLP245 I3001 T10111017 56005=
201702251353 METAR KCLM 251353Z AUTO 23005KT 8SM CLR M01/M01 A3025 RMK AO2 SLP246 I1001 T10111011=
201702251253 METAR KCLM 251253Z AUTO 21003KT 10SM FEW055 M01/M01 A3026 RMK AO2 SLP249 T10061006=
201702251153 METAR KCLM 251153Z AUTO 22004KT 10SM FEW033 BKN060 01/01 A3026 RMK AO2 SLP251 60011 70011 T00060006 10022 20006 58004=
201702251053 METAR KCLM 251053Z AUTO 24006KT 10SM OVC034 01/01 A3028 RMK AO2 SLP256 T00060006=
201702251016 SPECI KCLM 251016Z AUTO 21003KT 9SM OVC031 01/01 A3028 RMK AO2 T00110011=
201702251006 SPECI KCLM 251006Z AUTO 16003KT 10SM OVC029 01/01 A3028 RMK AO2 T00110011=
201702250953 METAR KCLM 250953Z AUTO 15003KT 10SM OVC030 01/01 A3028 RMK AO2 SLP256 T00110011=
201702250929 SPECI KCLM 250929Z AUTO 00000KT 6SM BR SCT024 OVC030 01/01 A3027 RMK AO2 T00060006=
201702250906 SPECI KCLM 250906Z AUTO 19004KT 7SM FEW016 BKN023 OVC031 01/01 A3028 RMK AO2 T00060006=
201702250853 METAR KCLM 250853Z AUTO 21003KT 7SM SCT017 SCT023 OVC031 01/01 A3028 RMK AO2 SLP255 60011 T00060006 53006=
201702250812 SPECI KCLM 250812Z AUTO 00000KT 10SM FEW014 BKN032 01/01 A3026 RMK AO2 T00110011=
201702250805 SPECI KCLM 250805Z AUTO 16003KT 10SM BKN014 BKN032 01/01 A3026 RMK AO2 T00110011=
201702250753 METAR KCLM 250753Z AUTO 22004KT 10SM BKN016 BKN032 02/01 A3026 RMK AO2 RAE43 SLP250 P0006 T00170011 400561017=
201702250715 SPECI KCLM 250715Z AUTO 24005KT 3SM -RA BR BKN017 OVC023 01/01 A3027 RMK AO2 P0004 T00110011=
201702250700 SPECI KCLM 250700Z AUTO 22004KT 2 1/2SM RA BR BKN017 OVC023 02/02 A3027 RMK AO2 P0001 T00170017=
201702250653 METAR KCLM 250653Z AUTO 20005KT 3SM RA BR BKN018 OVC022 02/02 A3027 RMK AO2 RAB17 SLP252 P0005 T00170017=
201702250553 METAR KCLM 250553Z AUTO 23006KT 10SM OVC018 02/01 A3026 RMK AO2 SLP250 T00220011 10056 20022 51017=
201702250453 METAR KCLM 250453Z AUTO 26003KT 10SM OVC018 03/01 A3025 RMK AO2 SLP246 T00280011=
201702250353 METAR KCLM 250353Z AUTO 25004KT 10SM BKN022 OVC027 03/01 A3023 RMK AO2 SLP238 T00280006=
201702250253 METAR KCLM 250253Z AUTO 31003KT 10SM BKN024 OVC030 04/M01 A3021 RMK AO2 SLP233 T00391006 53014=
201702250153 METAR KCLM 250153Z AUTO 27004KT 10SM CLR 03/M01 A3019 RMK AO2 SLP226 T00331011=
201702250053 METAR KCLM 250053Z AUTO 22003KT 10SM OVC070 05/M01 A3018 RMK AO2 SLP222 T00501011=
201702242353 METAR KCLM 242353Z AUTO 00000KT 10SM CLR 04/M01 A3017 RMK AO2 SLP219 T00441006 10056 20039 53004=
201702242253 METAR KCLM 242253Z AUTO 00000KT 10SM CLR 04/00 A3016 RMK AO2 SLP215 T00440000=
201702242153 METAR KCLM 242153Z AUTO 34006KT 10SM CLR 05/00 A3015 RMK AO2 SLP213 T00500000=
201702242053 METAR KCLM 242053Z AUTO 33006KT 10SM CLR 05/01 A3015 RMK AO2 SLP214 T00500006 51010=
201702241953 METAR KCLM 241953Z AUTO VRB04KT 10SM CLR 06/01 A3015 RMK AO2 SLP212 T00560006=
201702241853 METAR KCLM 241853Z AUTO VRB03KT 10SM CLR 05/00 A3014 RMK AO2 SLP208 T00500000=
201702241753 METAR KCLM 241753Z AUTO 00000KT 10SM SCT065 04/M01 A3012 RMK AO2 SLP204 T00441011 10044 21011 53008=
201702241653 METAR KCLM 241653Z AUTO 22003KT 10SM OVC075 01/M01 A3011 RMK AO2 SLP199 T00111011=
201702241553 METAR KCLM 241553Z AUTO 00000KT 10SM OVC070 00/M02 A3011 RMK AO2 SLP197 T00001017=
201702241453 METAR KCLM 241453Z AUTO 24003KT 10SM OVC060 02/M04 A3010 RMK AO2 SLP195 T00171044 55001=
201702241353 METAR KCLM 241353Z AUTO 22004KT 10SM OVC085 M01/M02 A3010 RMK AO2 SLP194 T10061022=
201702241253 METAR KCLM 241253Z AUTO 23005KT 10SM OVC085 01/M03 A3010 RMK AO2 SLP195 T00061028=
201702241153 METAR KCLM 241153Z AUTO 00000KT 10SM OVC110 M01/M03 A3010 RMK AO2 SLP196 70003 T10061028 10011 21017 56010=
201702241053 METAR KCLM 241053Z AUTO 00000KT 10SM CLR M01/M03 A3010 RMK AO2 SLP197 T10061028=
201702240953 METAR KCLM 240953Z AUTO 23007KT 10SM CLR 00/M02 A3012 RMK AO2 SLP203 T00001022=
201702240853 METAR KCLM 240853Z AUTO 22005KT 10SM CLR 00/M02 A3013 RMK AO2 SLP207 T00001017 58012=
201702240753 METAR KCLM 240753Z AUTO 24004KT 10SM CLR M01/M02 A3015 RMK AO2 SLP211 T10111017 400611011=
201702240653 METAR KCLM 240653Z AUTO 24005KT 10SM CLR 01/M01 A3016 RMK AO2 SLP217 T00061011=
201702240553 METAR KCLM 240553Z AUTO 24004KT 10SM CLR 01/M01 A3017 RMK AO2 SLP219 60000 T00061006 10061 20006 56008=
201702240453 METAR KCLM 240453Z AUTO 23004KT 10SM BKN080 02/00 A3017 RMK AO2 SLP218 T00170000=
201702240353 METAR KCLM 240353Z AUTO 23003KT 10SM OVC065 02/00 A3018 RMK AO2 RAB23E39 SLP222 P0000 T00220000=
201702240253 METAR KCLM 240253Z AUTO 24006KT 10SM FEW050 BKN085 01/M01 A3019 RMK AO2 SLP227 T00061006 56004=
201702240153 METAR KCLM 240153Z AUTO 23004KT 10SM BKN049 02/M01 A3020 RMK AO2 SLP229 T00221006=
201702240053 METAR KCLM 240053Z AUTO 10006KT 10SM CLR 05/00 A3020 RMK AO2 SLP228 T00500000=
201702232353 METAR KCLM 232353Z AUTO 11005KT 10SM CLR 06/M01 A3021 RMK AO2 SLP231 T00561006 10061 20017 58017=
201702232253 METAR KCLM 232253Z AUTO 12005KT 10SM CLR 06/00 A3023 RMK AO2 SLP239 T00560000=
201702232153 METAR KCLM 232153Z AUTO 09006KT 10SM CLR 06/01 A3024 RMK AO2 SLP242 T00560006=
201702232053 METAR KCLM 232053Z AUTO 04004KT 10SM FEW025 05/M01 A3025 RMK AO2 SLP248 T00501006 58005=
201702231953 METAR KCLM 231953Z AUTO 09006KT 10SM CLR 04/M01 A3027 RMK AO2 SLP252 T00441006=
201702231853 METAR KCLM 231853Z AUTO 11006KT 10SM FEW020 04/01 A3027 RMK AO2 SLP252 T00440006=
201702231753 METAR KCLM 231753Z AUTO 00000KT 10SM FEW036 02/01 A3027 RMK AO2 SLP253 60003 T00170006 10017 20000 51009=
201702231653 METAR KCLM 231653Z AUTO 23003KT 10SM OVC049 01/00 A3026 RMK AO2 SLP250 T00110000=
201702231553 METAR KCLM 231553Z AUTO 00000KT 10SM OVC049 00/00 A3026 RMK AO2 SLP249 T00000000=
201702231453 METAR KCLM 231453Z AUTO 24006KT 10SM FEW028 BKN049 OVC060 01/M01 A3024 RMK AO2 SLP244 60003 T00061006 51003=
201702231353 METAR KCLM 231353Z AUTO 24006KT 10SM OVC055 01/00 A3024 RMK AO2 SLP242 T00060000=
201702231305 SPECI KCLM 231305Z AUTO 19005KT 10SM FEW040 BKN049 OVC060 01/01 A3024 RMK AO2 T00110006=
201702231253 METAR KCLM 231253Z AUTO 20005KT 9SM FEW007 BKN029 OVC047 01/01 A3024 RMK AO2 SNE51 SLP243 P0003 T00060006=
201702231246 SPECI KCLM 231246Z AUTO 20006KT 3SM -SN BR FEW007 BKN023 OVC047 01/01 A3024 RMK AO2 P0003 T00060006=
201702231240 SPECI KCLM 231240Z AUTO 20006KT 1 1/2SM -SN BR FEW007 BKN016 OVC022 01/00 A3024 RMK AO2 P0003 T00060000=
201702231229 SPECI KCLM 231229Z AUTO 18003KT 1 1/2SM -SN BR BKN008 BKN015 OVC022 01/00 A3025 RMK AO2 P0002 T00060000=
201702231225 SPECI KCLM 231225Z AUTO 00000KT 2SM -SN BR SCT008 BKN015 OVC022 01/M01 A3024 RMK AO2 P0002 T00061006=
201702231217 SPECI KCLM 231217Z AUTO 00000KT 3SM -SN BR SCT013 OVC022 01/M01 A3024 RMK AO2 P0000 T00061006=
201702231203 SPECI KCLM 231203Z AUTO 27008KT 1 3/4SM -SN BR BKN015 OVC026 01/M02 A3024 RMK AO2 P0000 T00061017=
201702231153 METAR KCLM 231153Z AUTO 28006KT 8SM -SN BKN017 OVC026 01/M02 A3023 RMK AO2 RAB44E45SNB26 SLP241 P0000 60000 T00111017 10011 21006 53002=
201702231128 SPECI KCLM 231128Z AUTO 27007KT 10SM -SN BKN026 OVC034 01/M02 A3023 RMK AO2 SNB26 P0000 T00111017=
201702231053 METAR KCLM 231053Z AUTO 24006KT 10SM FEW026 BKN035 01/M02 A3022 RMK AO2 SLP237 T00061017=
201702231016 SPECI KCLM 231016Z AUTO 23004KT 10SM BKN031 BKN035 OVC060 01/M01 A3022 RMK AO2 T00061011=
201702230953 METAR KCLM 230953Z AUTO 24005KT 10SM BKN028 OVC060 01/M01 A3022 RMK AO2 SLP237 T00061011=
201702230853 METAR KCLM 230853Z AUTO 24005KT 10SM FEW060 00/M02 A3023 RMK AO2 SLP238 T00001017 53003=
201702230753 METAR KCLM 230753Z AUTO 25009KT 10SM CLR 01/M01 A3022 RMK AO2 SLP236 T00111011 400721006=
201702230653 METAR KCLM 230653Z AUTO 24005KT 10SM FEW065 M01/M01 A3022 RMK AO2 SLP236 T10061011=
201702230553 METAR KCLM 230553Z AUTO 24005KT 10SM CLR M01/M01 A3022 RMK AO2 SLP235 T10061011 10061 21006 53003=
201702230453 METAR KCLM 230453Z AUTO 23005KT 10SM CLR 01/M01 A3021 RMK AO2 SLP233 T00061006=
201702230353 METAR KCLM 230353Z AUTO 22005KT 10SM CLR 01/00 A3020 RMK AO2 SLP230 T00060000=
201702230253 METAR KCLM 230253Z AUTO 23004KT 10SM CLR 02/01 A3021 RMK AO2 SLP232 T00220006 53006=
201702230204 SPECI KCLM 230204Z AUTO 25003KT 10SM SCT025 BKN038 04/01 A3020 RMK AO2 T00390006=
201702230153 METAR KCLM 230153Z AUTO 27003KT 10SM BKN024 OVC038 04/01 A3020 RMK AO2 SLP230 T00390006=
201702230053 METAR KCLM 230053Z AUTO 35003KT 10SM BKN031 06/M01 A3019 RMK AO2 SLP226 T00561006=
201702230012 SPECI KCLM 230012Z AUTO 00000KT 10SM BKN034 BKN042 BKN070 06/00 A3019 RMK AO2 T00560000=
201702230004 SPECI KCLM 230004Z AUTO 00000KT 10SM BKN029 OVC039 06/M01 A3019 RMK AO2 T00561006=
201702222353 METAR KCLM 222353Z AUTO VRB03KT 10SM SCT025 SCT032 BKN041 06/M01 A3019 RMK AO2 SLP225 T00561006 10072 20050 57000=
201702222253 METAR KCLM 222253Z AUTO 26004KT 10SM CLR 05/01 A3019 RMK AO2 SLP226 T00500006=
201702222153 METAR KCLM 222153Z AUTO 30008KT 10SM CLR 05/01 A3019 RMK AO2 SLP225 T00500011=
201702222053 METAR KCLM 222053Z AUTO 34008KT 310V010 10SM FEW050 07/02 A3019 RMK AO2 SLP225 T00670022 58000=
201702221953 METAR KCLM 221953Z AUTO 34007KT 10SM FEW042 06/01 A3019 RMK AO2 SLP226 T00560006=
201702221853 METAR KCLM 221853Z AUTO 35007KT 10SM CLR 06/00 A3019 RMK AO2 SLP226 T00610000=
201702221753 METAR KCLM 221753Z AUTO 26006KT 10SM CLR 06/M01 A3019 RMK AO2 SLP225 T00561006 10056 20017 53008=
201702221653 METAR KCLM 221653Z AUTO 26008KT 10SM CLR 04/M01 A3018 RMK AO2 SLP221 T00391006=
201702221553 METAR KCLM 221553Z AUTO 26008KT 10SM CLR 02/M01 A3017 RMK AO2 SLP221 T00221011=
201702221453 METAR KCLM 221453Z AUTO 26008KT 10SM CLR 02/M02 A3017 RMK AO2 SLP218 T00171017 51002=
201702221353 METAR KCLM 221353Z AUTO 24009KT 10SM SCT070 02/M01 A3017 RMK AO2 SLP217 T00221006=
201702221253 METAR KCLM 221253Z AUTO 25007KT 10SM FEW036 02/M01 A3016 RMK AO2 SLP216 T00171011=
201702221153 METAR KCLM 221153Z AUTO 25009KT 10SM FEW047 02/M01 A3016 RMK AO2 SLP215 T00221011 10033 20017 51006=
201702221053 METAR KCLM 221053Z AUTO 25006KT 10SM CLR 02/M01 A3016 RMK AO2 SLP214 T00171011=
201702220953 METAR KCLM 220953Z AUTO 25008KT 10SM FEW060 02/M01 A3016 RMK AO2 SLP214 T00221006=
201702220853 METAR KCLM 220853Z AUTO 25007KT 10SM CLR 03/M01 A3014 RMK AO2 SLP210 T00281011 53008=
201702220753 METAR KCLM 220753Z AUTO 25012KT 10SM CLR 03/00 A3013 RMK AO2 SLP204 T00280000 400780022=
201702220653 METAR KCLM 220653Z AUTO 25009KT 10SM FEW060 03/M01 A3013 RMK AO2 SLP204 T00281006=
201702220553 METAR KCLM 220553Z AUTO 23008KT 10SM SCT050 03/00 A3012 RMK AO2 SLP201 T00330000 10072 20028 51017=
201702220453 METAR KCLM 220453Z AUTO 25007KT 10SM OVC060 04/01 A3011 RMK AO2 SLP197 T00390006=
201702220353 METAR KCLM 220353Z AUTO 27007KT 10SM CLR 03/00 A3008 RMK AO2 SLP189 T00280000=
201702220253 METAR KCLM 220253Z AUTO 25006KT 10SM CLR 04/M01 A3007 RMK AO2 SLP184 T00441006 52023=
201702220153 METAR KCLM 220153Z AUTO 30011KT 10SM CLR 06/00 A3005 RMK AO2 SLP176 T00560000=
201702220053 METAR KCLM 220053Z AUTO 31012G21KT 10SM CLR 07/02 A3002 RMK AO2 SLP168 T00670017=
201702212353 METAR KCLM 212353Z AUTO 31015G22KT 10SM CLR 07/02 A3000 RMK AO2 SLP161 T00720017 10078 20061 53019=
201702212253 METAR KCLM 212253Z AUTO 31011G18KT 10SM CLR 08/02 A2998 RMK AO2 SLP153 T00780017=
201702212153 METAR KCLM 212153Z AUTO 30012G19KT 10SM CLR 08/01 A2996 RMK AO2 SLP147 T00780011=
201702212053 METAR KCLM 212053Z AUTO 30012KT 10SM FEW015 08/04 A2994 RMK AO2 SLP141 T00780044 51021=
201702211953 METAR KCLM 211953Z AUTO 30010KT 10SM CLR 07/05 A2993 RMK AO2 SLP138 T00720050=
201702211926 SPECI KCLM 211926Z AUTO 32007KT 10SM SCT012 07/05 A2992 RMK AO2 T00670050=
201702211902 SPECI KCLM 211902Z AUTO 32008KT 10SM FEW007 BKN011 OVC026 07/06 A2991 RMK AO2 T00670056=
201702211853 METAR KCLM 211853Z AUTO 30007KT 10SM BKN009 OVC027 07/06 A2991 RMK AO2 CIG 006V013 SLP129 T00670056=
201702211841 SPECI KCLM 211841Z AUTO 30006KT 10SM SCT009 OVC025 07/06 A2990 RMK AO2 T00670056=
201702211802 SPECI KCLM 211802Z AUTO 27005KT 10SM FEW008 BKN012 OVC026 06/06 A2989 RMK AO2 T00610056=
201702211753 METAR KCLM 211753Z AUTO 26004KT 10SM FEW008 BKN022 OVC035 06/06 A2988 RMK AO2 SLP120 60000 T00610056 10061 20050 53031=
201702211749 SPECI KCLM 211749Z AUTO 25005KT 10SM FEW009 BKN022 OVC026 06/06 A2988 RMK AO2=
201702211708 SPECI KCLM 211708Z AUTO 28004KT 10SM BKN014 OVC020 06/05 A2986 RMK AO2 T00560050=
201702211653 METAR KCLM 211653Z AUTO 26004KT 10SM BKN019 OVC023 06/05 A2985 RMK AO2 SLP109 T00560050=
201702211553 METAR KCLM 211553Z AUTO 15003KT 10SM OVC019 05/05 A2982 RMK AO2 RAE00 SLP098 P0000 T00500050=
201702211453 METAR KCLM 211453Z AUTO 00000KT 6SM -RA BR SCT011 OVC019 05/05 A2979 RMK AO2 RAB43 SLP088 P0000 60000 T00500050 51011=
201702211448 SPECI KCLM 211448Z AUTO 00000KT 5SM -RA BR BKN011 OVC019 05/05 A2978 RMK AO2 RAB43 P0000=
201702211353 METAR KCLM 211353Z AUTO 00000KT 7SM OVC016 05/05 A2977 RMK AO2 RAB00E09 SLP081 P0000 T00500050=
201702211303 SPECI KCLM 211303Z AUTO 21003KT 6SM -RA BR FEW008 OVC015 05/05 A2976 RMK AO2 RAB00 P0000 T00500050=
201702211253 METAR KCLM 211253Z AUTO 23003KT 10SM SCT009 OVC014 05/05 A2975 RMK AO2 RAE25 SLP077 P0000 T00500050=
201702211213 SPECI KCLM 211213Z AUTO 24003KT 4SM -RA BR BKN007 OVC011 05/05 A2975 RMK AO2 CIG 004V009 P0000 T00500050=
201702211153 METAR KCLM 211153Z AUTO 25003KT 4SM -RA BR OVC012 05/05 A2974 RMK AO2 RAB42 SLP074 P0002 60005 70015 T00500050 10050 20044 51001=
201702211105 SPECI KCLM 211105Z AUTO 00000KT 10SM BKN010 OVC024 05/05 A2974 RMK AO2 T00500050=
201702211053 METAR KCLM 211053Z AUTO 22003KT 10SM SCT011 OVC023 05/05 A2974 RMK AO2 SLP074 T00500050=
201702210953 METAR KCLM 210953Z AUTO 00000KT 9SM OVC023 04/04 A2974 RMK AO2 RAE37 SLP073 P0000 T00440044=
201702210853 METAR KCLM 210853Z AUTO 00000KT 5SM -RA BR BKN027 OVC037 05/05 A2974 RMK AO2 RAB36 SLP073 P0001 60003 T00500050 53004=
201702210753 METAR KCLM 210753Z AUTO 00000KT 10SM OVC032 05/05 A2973 RMK AO2 RAE05 SLP070 P0000 T00500050 400720017=
201702210653 METAR KCLM 210653Z AUTO 28004KT 10SM -RA OVC031 05/05 A2973 RMK AO2 RAB20 SLP069 P0002 T00500050=
201702210553 METAR KCLM 210553Z AUTO 00000KT 7SM OVC032 05/05 A2973 RMK AO2 SLP069 60010 T00500050 10072 20050 53005=
201702210519 SPECI KCLM 210519Z AUTO 00000KT 5SM BR OVC036 06/05 A2971 RMK AO2 T00560050=
201702210509 SPECI KCLM 210509Z AUTO 00000KT 2SM BR BKN038 BKN048 OVC060 06/05 A2971 RMK AO2 VIS 1V3 T00560050=
201702210453 METAR KCLM 210453Z AUTO 00000KT 8SM OVC039 06/06 A2972 RMK AO2 RAE44 SLP064 P0002 T00560056=
201702210409 SPECI KCLM 210409Z AUTO 00000KT 3SM -RA BR SCT019 BKN034 06/06 A2972 RMK AO2 P0002 T00560056=
201702210404 SPECI KCLM 210404Z AUTO 00000KT 2SM -RA BR BKN020 BKN029 OVC034 06/06 A2972 RMK AO2 P0002 T00560056=
201702210353 METAR KCLM 210353Z AUTO 00000KT 3SM -RA BR OVC020 06/06 A2972 RMK AO2 RAB11 SLP064 P0002 T00560056=
201702210253 METAR KCLM 210253Z AUTO 00000KT 7SM OVC027 06/06 A2972 RMK AO2 RAE06 SLP064 P0000 60006 T00610061 52008=
201702210153 METAR KCLM 210153Z AUTO 00000KT 8SM -RA BKN019 OVC049 06/06 A2970 RMK AO2 SLP060 P0002 T00610061=
201702210105 SPECI KCLM 210105Z AUTO 00000KT 8SM -RA SCT030 OVC039 07/06 A2969 RMK AO2 P0000 T00670061=
201702210053 METAR KCLM 210053Z AUTO 00000KT 8SM -RA BKN028 OVC037 07/06 A2969 RMK AO2 RAB02 SLP056 P0004 T00670061=
201702210010 SPECI KCLM 210010Z AUTO 00000KT 10SM -RA BKN029 BKN049 OVC080 07/06 A2968 RMK AO2 RAB02 P0000 T00720056=
201702202353 METAR KCLM 202353Z AUTO 00000KT 10SM BKN050 BKN070 OVC080 07/06 A2967 RMK AO2 RAE44 SLP048 P0000 60000 T00720056 10072 20056 53027=
201702202318 SPECI KCLM 202318Z AUTO 00000KT 9SM -RA BKN030 BKN038 OVC048 07/06 A2965 RMK AO2 P0000 T00720056=
201702202253 METAR KCLM 202253Z AUTO 24003KT 9SM -RA BKN029 OVC034 07/06 A2964 RMK AO2 SLP039 P0000 T00720056=
201702202153 METAR KCLM 202153Z AUTO 33003KT 8SM -RA BKN020 OVC035 07/05 A2961 RMK AO2 RAB42 SLP029 P0000 T00720050=
201702202053 METAR KCLM 202053Z AUTO 00000KT 10SM OVC016 07/06 A2959 RMK AO2 SLP021 60000 T00670056 53019=
201702202035 SPECI KCLM 202035Z AUTO 00000KT 10SM FEW007 OVC015 06/06 A2958 RMK AO2 T00610056=
201702201953 METAR KCLM 201953Z AUTO VRB03KT 9SM OVC006 06/06 A2956 RMK AO2 RAB11E31 SLP012 P0000 T00610056=
201702201858 SPECI KCLM 201858Z AUTO 00000KT 10SM BKN009 BKN016 OVC028 07/05 A2954 RMK AO2 CIG 008V014 T00670050=
201702201853 METAR KCLM 201853Z AUTO 00000KT 10SM SCT011 BKN016 OVC028 06/05 A2954 RMK AO2 SLP005 T00610050=
201702201802 SPECI KCLM 201802Z AUTO 00000KT 10SM OVC011 06/04 A2953 RMK AO2 T00560044=
201702201753 METAR KCLM 201753Z AUTO 29003KT 10SM OVC009 06/04 A2953 RMK AO2 CIG 006V013 SLP002 T00560039 10056 20039 53005=
201702201707 SPECI KCLM 201707Z AUTO 25003KT 10SM OVC009 06/03 A2952 RMK AO2 CIG 006V011 T00560033=
201702201653 METAR KCLM 201653Z AUTO 00000KT 10SM BKN011 OVC033 05/03 A2952 RMK AO2 CIG 006V014 SLP999 T00500033=
201702201638 SPECI KCLM 201638Z AUTO 25003KT 10SM SCT008 BKN011 OVC033 05/03 A2952 RMK AO2 T00500033=
201702201603 SPECI KCLM 201603Z AUTO 26004KT 10SM BKN006 OVC034 04/03 A2952 RMK AO2 T00440033=
201702201553 METAR KCLM 201553Z AUTO 26004KT 10SM SCT006 OVC034 04/03 A2951 RMK AO2 SLP996 T00390033=
201702201550 SPECI KCLM 201550Z AUTO 25003KT 10SM SCT006 OVC034 04/03 A2951 RMK AO2=
201702201453 METAR KCLM 201453Z AUTO 00000KT 10SM OVC033 04/03 A2952 RMK AO2 SLP997 T00390028 56012=
201702201353 METAR KCLM 201353Z AUTO 23004KT 10SM OVC032 04/03 A2953 RMK AO2 SLP000 T00390033=
201702201312 SPECI KCLM 201312Z AUTO 23003KT 10SM SCT020 OVC032 04/03 A2953 RMK AO2 T00390033=
201702201253 METAR KCLM 201253Z AUTO 24003KT 10SM BKN020 OVC033 04/03 A2954 RMK AO2 SLP005 T00390033=
201702201207 SPECI KCLM 201207Z AUTO 00000KT 10SM FEW014 SCT021 OVC034 04/03 A2955 RMK AO2 T00390033=
201702201153 METAR KCLM 201153Z AUTO 00000KT 10SM FEW013 BKN019 OVC032 04/03 A2955 RMK AO2 SLP009 70002 T00390033 10050 20017 58010=
201702201053 METAR KCLM 201053Z AUTO 19003KT 10SM SCT013 OVC027 04/03 A2957 RMK AO2 SLP014 T00390033=
201702201046 SPECI KCLM 201046Z AUTO 22004KT 10SM SCT013 OVC027 03/03 A2957 RMK AO2 T00330033=
201702200953 METAR KCLM 200953Z AUTO 00000KT 10SM BKN013 OVC022 03/03 A2958 RMK AO2 SLP018 T00330033=
201702200911 SPECI KCLM 200911Z AUTO 00000KT 10SM BKN013 OVC021 03/03 A2958 RMK AO2 T00330033=
201702200853 METAR KCLM 200853Z AUTO 00000KT 10SM FEW013 BKN019 OVC070 03/03 A2958 RMK AO2 SLP019 T00330028 51007=
201702200753 METAR KCLM 200753Z AUTO 14004KT 10SM BKN065 03/02 A2957 RMK AO2 SLP015 T00280022 400830028=
201702200653 METAR KCLM 200653Z AUTO 00000KT 10SM OVC070 03/03 A2956 RMK AO2 SLP012 T00280028=
201702200553 METAR KCLM 200553Z AUTO 23005KT 10SM BKN065 05/03 A2955 RMK AO2 SLP006 60000 T00500028 10078 20044 51026=
201702200453 METAR KCLM 200453Z AUTO 26007KT 10SM BKN065 06/03 A2952 RMK AO2 SLP999 T00560028=
201702200353 METAR KCLM 200353Z AUTO 26006KT 10SM FEW085 05/03 A2949 RMK AO2 SLP989 T00500028=
201702200253 METAR KCLM 200253Z AUTO 20004KT 10SM CLR 07/02 A2947 RMK AO2 SLP980 60000 T00670022 51020=
201702200153 METAR KCLM 200153Z AUTO 24009KT 10SM SCT050 07/03 A2945 RMK AO2 SLP974 T00670033=
201702200053 METAR KCLM 200053Z AUTO 00000KT 10SM BKN060 07/06 A2943 RMK AO2 RAE03 SLP968 P0000 T00720056=
201702192353 METAR KCLM 192353Z AUTO 24008G21KT 10SM -RA SCT043 BKN055 07/04 A2941 RMK AO2 RAB25 SLP960 P0000 60002 T00670039 10083 20061 53008=
201702192253 METAR KCLM 192253Z AUTO 00000KT 10SM FEW013 08/06 A2940 RMK AO2 RAE2158 SLP956 P0000 T00780056=
201702192153 METAR KCLM 192153Z AUTO 00000KT 10SM -RA BKN035 BKN047 BKN060 08/06 A2938 RMK AO2 RAB37 SLP952 P0000 T00780056=
201702192053 METAR KCLM 192053Z AUTO 14005KT 10SM BKN047 BKN065 08/06 A2939 RMK AO2 RAE13 SLP952 P0000 60002 T00780056 51009=
201702191953 METAR KCLM 191953Z AUTO 08004KT 5SM -RA BR BKN038 BKN046 OVC060 07/06 A2938 RMK AO2 RAB17 SLP952 P0002 T00720056=
201702191908 SPECI KCLM 191908Z AUTO 00000KT 10SM FEW012 BKN065 BKN075 07/04 A2939 RMK AO2 T00670044=
201702191853 METAR KCLM 191853Z AUTO 00000KT 10SM BKN012 BKN065 BKN075 07/05 A2938 RMK AO2 SLP949 T00720050=
201702191823 SPECI KCLM 191823Z AUTO 00000KT 10SM BKN011 BKN065 07/04 A2937 RMK AO2 T00670044=
201702191753 METAR KCLM 191753Z AUTO 00000KT 10SM FEW009 SCT065 06/04 A2936 RMK AO2 SLP943 T00610044 10061 20039 53005=
201702191712 SPECI KCLM 191712Z AUTO 25006KT 10SM SCT021 BKN070 05/03 A2936 RMK AO2 T00500033=
201702191653 METAR KCLM 191653Z AUTO 25005KT 10SM BKN021 BKN030 04/03 A2935 RMK AO2 SLP941 T00440033=
201702191553 METAR KCLM 191553Z AUTO 26008KT 10SM FEW009 BKN021 04/03 A2935 RMK AO2 SLP939 T00440028=
201702191530 SPECI KCLM 191530Z AUTO 25007KT 10SM SCT008 BKN024 04/03 A2934 RMK AO2 T00390028=
201702191518 SPECI KCLM 191518Z AUTO 25008KT 10SM FEW008 BKN012 BKN024 04/03 A2934 RMK AO2 T00390028=
201702191509 SPECI KCLM 191509Z AUTO 25008KT 10SM FEW010 SCT014 BKN026 04/03 A2934 RMK AO2 T00390033=
201702191453 METAR KCLM 191453Z AUTO 24005KT 10SM OVC009 04/04 A2934 RMK AO2 CIG 008V013 SLP938 T00440039 55003=
201702191353 METAR KCLM 191353Z AUTO 26004KT 10SM BKN008 OVC014 04/04 A2934 RMK AO2 SLP936 T00390039=
201702191344 SPECI KCLM 191344Z AUTO 29003KT 10SM BKN008 OVC015 04/04 A2934 RMK AO2 T00390039=
201702191303 SPECI KCLM 191303Z AUTO 24004KT 10SM OVC016 04/04 A2934 RMK AO2 T00390039=
201702191253 METAR KCLM 191253Z AUTO 24004KT 10SM OVC014 04/04 A2934 RMK AO2 SLP936 T00390039=
201702191153 METAR KCLM 191153Z AUTO 26004KT 10SM OVC011 05/04 A2935 RMK AO2 SLP942 70020 T00500044 10050 20044 58007=
201702191053 METAR KCLM 191053Z AUTO 26003KT 10SM OVC010 05/05 A2937 RMK AO2 SLP946 T00500050=
201702191039 SPECI KCLM 191039Z AUTO 25003KT 10SM OVC010 05/04 A2937 RMK AO2 T00500044=
201702191012 SPECI KCLM 191012Z AUTO 23004KT 10SM OVC009 05/05 A2937 RMK AO2 T00500050=
201702190953 METAR KCLM 190953Z AUTO 26003KT 10SM OVC010 05/05 A2938 RMK AO2 SLP949 T00500050=
201702190948 SPECI KCLM 190948Z AUTO 26004KT 10SM OVC010 05/05 A2938 RMK AO2=
201702190924 SPECI KCLM 190924Z AUTO 23004KT 10SM OVC009 05/05 A2938 RMK AO2 T00500050=
201702190853 METAR KCLM 190853Z AUTO 30004KT 10SM OVC010 05/05 A2939 RMK AO2 SLP952 T00500050 56003=
201702190851 SPECI KCLM 190851Z AUTO 30004KT 10SM OVC010 05/05 A2939 RMK AO2=
201702190836 SPECI KCLM 190836Z AUTO 27003KT 10SM OVC009 05/05 A2939 RMK AO2 CIG 008V013 T00500050=
201702190820 SPECI KCLM 190820Z AUTO 22004KT 10SM BKN011 BKN017 BKN024 04/04 A2939 RMK AO2 T00440044=
201702190753 METAR KCLM 190753Z AUTO 23004KT 10SM BKN015 OVC031 05/05 A2940 RMK AO2 SLP956 T00500050 400670044=
201702190751 SPECI KCLM 190751Z AUTO 23003KT 10SM SCT012 BKN017 OVC031 05/05 A2940 RMK AO2=
201702190701 SPECI KCLM 190701Z AUTO 27003KT 10SM BKN014 OVC033 05/05 A2940 RMK AO2 T00500050=
201702190653 METAR KCLM 190653Z AUTO 24003KT 9SM SCT015 OVC033 05/05 A2940 RMK AO2 SLP959 T00500050=
201702190639 SPECI KCLM 190639Z AUTO 25003KT 8SM SCT012 OVC031 05/05 A2940 RMK AO2 T00500050=
201702190612 SPECI KCLM 190612Z AUTO 00000KT 4SM BR BKN012 OVC034 05/05 A2940 RMK AO2 T00500050=
201702190604 SPECI KCLM 190604Z AUTO 00000KT 2 1/2SM BR BKN010 OVC037 04/04 A2940 RMK AO2 T00440044=
201702190553 METAR KCLM 190553Z AUTO 00000KT 4SM BR FEW009 OVC036 04/04 A2941 RMK AO2 SLP959 60004 T00440044 10056 20044 53002=
201702190545 SPECI KCLM 190545Z AUTO 00000KT 3SM BR FEW009 OVC036 05/05 A2941 RMK AO2 T00500050=
201702190519 SPECI KCLM 190519Z AUTO 00000KT 2 1/2SM BR FEW009 OVC030 05/05 A2941 RMK AO2 T00500050=
201702190505 SPECI KCLM 190505Z AUTO 00000KT 2SM BR OVC029 05/05 A2940 RMK AO2 T00500050=
201702190453 METAR KCLM 190453Z AUTO 00000KT 1 1/2SM BR OVC029 05/05 A2940 RMK AO2 RAB06E23 SLP958 P0000 T00500050=
201702190451 SPECI KCLM 190451Z AUTO 00000KT 1 1/2SM BR BKN029 OVC037 04/04 A2940 RMK AO2 RAB06E23 P0000=
201702190428 SPECI KCLM 190428Z AUTO 00000KT 2SM BR SCT003 BKN030 OVC037 05/05 A2940 RMK AO2 RAB06E23 P0000 T00500050=
201702190411 SPECI KCLM 190411Z AUTO 00000KT 3SM -RA BR OVC003 05/05 A2940 RMK AO2 RAB06 P0000 T00500050=
201702190402 SPECI KCLM 190402Z AUTO 00000KT 2SM BR OVC003 05/05 A2940 RMK AO2 T00500050=
201702190353 METAR KCLM 190353Z AUTO 00000KT 4SM BR OVC003 06/06 A2940 RMK AO2 RAE09B34E44 SLP956 P0000 T00560056=
201702190337 SPECI KCLM 190337Z AUTO 00000KT 5SM -RA BR BKN003 OVC027 06/06 A2940 RMK AO2 RAE09B34 P0000 T00560056=
201702190319 SPECI KCLM 190319Z AUTO 10003KT 4SM BR SCT004 OVC027 06/06 A2940 RMK AO2 RAE09 P0000 T00560056=
201702190253 METAR KCLM 190253Z AUTO 09003KT 5SM -RA BR OVC027 05/05 A2940 RMK AO2 SLP957 P0002 60004 T00500050 56001=
201702190153 METAR KCLM 190153Z AUTO 13004KT 7SM -RA FEW004 BKN027 OVC036 06/05 A2940 RMK AO2 RAB25 SLP957 P0002 T00560050=
201702190136 SPECI KCLM 190136Z AUTO 13004KT 6SM -RA BR SCT005 OVC026 06/05 A2940 RMK AO2 RAB25 P0000 T00560050=
201702190053 METAR KCLM 190053Z AUTO 09004KT 6SM BR SCT005 OVC008 06/06 A2940 RMK AO2 RAE40 SLP957 P0000 T00560056=
201702182353 METAR KCLM 182353Z AUTO 12005KT 4SM -RA BR OVC007 06/05 A2940 RMK AO2 CIG 005V010 SLP959 P0006 60014 T00560050 10061 20056 56002=
201702182253 METAR KCLM 182253Z AUTO 10004KT 5SM -RA BR OVC006 06/05 A2940 RMK AO2 RAB24 CIG 006V010 SLP958 P0002 T00560050=
201702182153 METAR KCLM 182153Z AUTO 08003KT 10SM OVC006 06/05 A2940 RMK AO2 SLP958 T00560050=
201702182107 SPECI KCLM 182107Z AUTO 00000KT 10SM OVC005 06/05 A2941 RMK AO2 T00560050=
201702182053 METAR KCLM 182053Z AUTO 08005KT 10SM OVC004 06/05 A2941 RMK AO2 RAE37 SLP960 P0000 60006 T00560050 58012=
201702182008 SPECI KCLM 182008Z AUTO 08004KT 8SM -RA OVC004 06/05 A2942 RMK AO2 P0000 T00560050=
201702181953 METAR KCLM 181953Z AUTO 00000KT 6SM -RA BR BKN005 OVC010 06/05 A2943 RMK AO2 SLP966 P0004 T00560050=
201702181942 SPECI KCLM 181942Z AUTO 06003KT 7SM -RA BKN005 BKN010 OVC019 06/05 A2943 RMK AO2 CIG 004V008 P0002 T00560050=
201702181933 SPECI KCLM 181933Z AUTO 07004KT 6SM -RA BR FEW007 SCT010 OVC019 06/05 A2943 RMK AO2 P0002 T00610050=
201702181920 SPECI KCLM 181920Z AUTO 09005KT 7SM -RA FEW010 BKN019 OVC031 06/05 A2943 RMK AO2 P0000 T00610050=
201702181901 SPECI KCLM 181901Z AUTO 09004KT 7SM -RA FEW010 FEW020 OVC031 06/05 A2943 RMK AO2 P0000 T00610050=
201702181853 METAR KCLM 181853Z AUTO 09005KT 8SM -RA FEW010 BKN020 OVC031 06/05 A2943 RMK AO2 SLP969 P0002 T00610050=
201702181833 SPECI KCLM 181833Z AUTO 13003KT 6SM -RA BR FEW009 OVC019 06/05 A2944 RMK AO2 P0002 T00610050=
201702181824 SPECI KCLM 181824Z AUTO 14003KT 6SM -RA BR SCT009 BKN013 OVC020 06/06 A2944 RMK AO2 P0002 T00560056=
201702181753 METAR KCLM 181753Z AUTO VRB04KT 8SM -RA BKN012 OVC020 06/04 A2944 RMK AO2 RAB02 SLP972 P0002 60002 T00560044 10061 20050 58009=
201702181726 SPECI KCLM 181726Z AUTO 09003KT 8SM -RA BKN011 BKN016 OVC022 06/05 A2945 RMK AO2 RAB02 P0000 T00560050=
201702181653 METAR KCLM 181653Z AUTO 13006KT 10SM OVC028 06/04 A2945 RMK AO2 RAB29E49 SLP975 P0000 T00560044=
201702181602 SPECI KCLM 181602Z AUTO 13005KT 10SM OVC029 06/04 A2946 RMK AO2 T00560039=
201702181553 METAR KCLM 181553Z AUTO 13005KT 10SM OVC030 05/04 A2946 RMK AO2 SLP978 T00500039=
201702181453 METAR KCLM 181453Z AUTO 12006KT 10SM BKN031 OVC075 06/04 A2947 RMK AO2 SLP981 T00560039 58007=
201702181353 METAR KCLM 181353Z AUTO 14006KT 10SM OVC030 06/03 A2948 RMK AO2 SLP985 T00560033=
201702181253 METAR KCLM 181253Z AUTO 13004KT 10SM OVC029 06/03 A2948 RMK AO2 SLP985 T00560033=
201702181153 METAR KCLM 181153Z AUTO 14006KT 10SM OVC029 06/03 A2949 RMK AO2 SLP988 T00610033 10067 20061 56008=
201702181108 SPECI KCLM 181108Z AUTO 14005KT 10SM OVC029 06/03 A2949 RMK AO2 T00610033=
201702181053 METAR KCLM 181053Z AUTO 13007KT 10SM OVC030 06/03 A2950 RMK AO2 SLP989 T00610033=
201702181009 SPECI KCLM 181009Z AUTO 12006KT 10SM OVC030 06/03 A2951 RMK AO2 T00610033=
201702180953 METAR KCLM 180953Z AUTO 10003KT 10SM OVC029 06/03 A2951 RMK AO2 SLP993 T00610033=
201702180853 METAR KCLM 180853Z AUTO 12005KT 10SM OVC032 06/04 A2952 RMK AO2 SLP997 T00610039 58014=
201702180753 METAR KCLM 180753Z AUTO 14004KT 10SM OVC033 06/04 A2953 RMK AO2 SLP001 T00610039 400830011=
201702180653 METAR KCLM 180653Z AUTO 13005KT 10SM OVC031 06/04 A2955 RMK AO2 SLP008 T00610039=
201702180553 METAR KCLM 180553Z AUTO 14005KT 10SM SCT029 OVC038 06/04 A2956 RMK AO2 SLP011 T00610044 10078 20056 58007=
201702180453 METAR KCLM 180453Z AUTO 12003KT 10SM BKN029 OVC036 06/05 A2957 RMK AO2 SLP015 T00560050=
201702180448 SPECI KCLM 180448Z AUTO 00000KT 10SM BKN029 OVC036 06/05 A2957 RMK AO2=
201702180353 METAR KCLM 180353Z AUTO 00000KT 10SM FEW025 OVC032 06/05 A2958 RMK AO2 SLP018 T00560050=
201702180350 SPECI KCLM 180350Z AUTO 14003KT 10SM SCT025 OVC032 06/05 A2958 RMK AO2=
201702180339 SPECI KCLM 180339Z AUTO 00000KT 10SM BKN025 OVC035 06/05 A2959 RMK AO2 T00560050=
201702180253 METAR KCLM 180253Z AUTO 00000KT 10SM SCT026 OVC033 06/06 A2960 RMK AO2 SLP025 T00610056 56004=
201702180250 SPECI KCLM 180250Z AUTO 00000KT 10SM SCT026 OVC033 06/05 A2960 RMK AO2=
201702180211 SPECI KCLM 180211Z AUTO 00000KT 10SM BKN023 OVC034 06/06 A2961 RMK AO2 T00610056=
201702180153 METAR KCLM 180153Z AUTO 00000KT 10SM FEW022 OVC034 07/05 A2961 RMK AO2 SLP027 T00670050=
201702180053 METAR KCLM 180053Z AUTO 00000KT 10SM FEW021 OVC031 08/05 A2961 RMK AO2 SLP029 T00780050=
201702180005 SPECI KCLM 180005Z AUTO 00000KT 10SM OVC030 08/06 A2963 RMK AO2 T00780056=
201702172353 METAR KCLM 172353Z AUTO 00000KT 10SM OVC027 08/05 A2963 RMK AO2 SLP035 T00780050 10083 20072 56019=
201702172253 METAR KCLM 172253Z AUTO 00000KT 10SM OVC024 08/04 A2964 RMK AO2 SLP038 T00780044=
201702172153 METAR KCLM 172153Z AUTO 00000KT 10SM OVC026 07/06 A2966 RMK AO2 SLP045 T00720061=
201702172053 METAR KCLM 172053Z AUTO 03003KT 10SM OVC024 08/05 A2969 RMK AO2 SLP055 T00780050 58013=
201702172026 SPECI KCLM 172026Z AUTO 00000KT 10SM FEW009 OVC022 08/06 A2970 RMK AO2 T00780061=
201702171953 METAR KCLM 171953Z AUTO 04003KT 10SM FEW012 OVC023 08/06 A2970 RMK AO2 SLP060 T00780056=
201702171853 METAR KCLM 171853Z AUTO 36004KT 10SM SCT008 OVC022 07/07 A2972 RMK AO2 SLP065 T00720067=
201702171835 SPECI KCLM 171835Z AUTO 34003KT 10SM FEW006 OVC022 08/07 A2972 RMK AO2 T00780067=
201702171808 SPECI KCLM 171808Z AUTO 29003KT 10SM BKN022 07/05 A2972 RMK AO2 T00720050=
201702171753 METAR KCLM 171753Z AUTO 26004KT 10SM CLR 07/04 A2973 RMK AO2 SLP068 T00670039 10072 20028 57001=
201702171653 METAR KCLM 171653Z AUTO 25006KT 10SM CLR 06/04 A2973 RMK AO2 SLP068 T00610044=
201702171553 METAR KCLM 171553Z AUTO 23006KT 10SM FEW075 03/03 A2973 RMK AO2 SLP068 T00330033=
201702171510 SPECI KCLM 171510Z AUTO 23004KT 10SM SCT020 BKN033 OVC075 04/04 A2973 RMK AO2 T00390039=
201702171453 METAR KCLM 171453Z AUTO 23005KT 10SM BKN020 OVC033 04/04 A2973 RMK AO2 SLP069 T00390039 58001=
201702171353 METAR KCLM 171353Z AUTO 23004KT 10SM OVC015 04/04 A2974 RMK AO2 SLP072 T00440044=
201702171351 SPECI KCLM 171351Z AUTO 23004KT 10SM OVC015 04/04 A2974 RMK AO2=
201702171253 METAR KCLM 171253Z AUTO 22005KT 10SM OVC012 04/04 A2973 RMK AO2 SLP070 T00390039=
201702171216 SPECI KCLM 171216Z AUTO 00000KT 10SM BKN012 OVC080 03/03 A2973 RMK AO2 T00280028=
201702171153 METAR KCLM 171153Z AUTO 24006KT 10SM BKN080 03/03 A2974 RMK AO2 SLP071 70003 I6000 T00280028 10044 20011 50004=
201702171130 SPECI KCLM 171130Z AUTO 23003KT 4SM BR FEW013 SCT031 BKN080 03/03 A2974 RMK AO2 T00280028=
201702171053 METAR KCLM 171053Z AUTO 00000KT 10SM SCT016 BKN028 OVC055 03/03 A2975 RMK AO2 SLP075 T00330033=
201702170953 METAR KCLM 170953Z AUTO 22003KT 10SM OVC065 03/03 A2973 RMK AO2 SLP069 I1000 T00330033=
201702170853 METAR KCLM 170853Z AUTO 24004KT 7SM FEW017 02/02 A2972 RMK AO2 SLP067 T00170017 51017=
201702170844 SPECI KCLM 170844Z AUTO 00000KT 6SM BR FEW001 SCT014 02/02 A2972 RMK AO2 T00170017=
201702170753 METAR KCLM 170753Z AUTO 00000KT 9SM FEW016 03/03 A2971 RMK AO2 SLP061 T00330033 401170028=
201702170719 SPECI KCLM 170719Z AUTO 21003KT 7SM SCT015 03/03 A2970 RMK AO2 T00280028=
201702170711 SPECI KCLM 170711Z AUTO 22004KT 8SM BKN015 03/03 A2970 RMK AO2 T00330033=
201702170653 METAR KCLM 170653Z AUTO 24004KT 8SM OVC014 04/04 A2970 RMK AO2 SLP059 T00390039=
201702170635 SPECI KCLM 170635Z AUTO 00000KT 2 1/2SM BR BKN014 BKN060 03/03 A2970 RMK AO2 VIS 1 1/2V5 T00280028=
201702170553 METAR KCLM 170553Z AUTO 00000KT 10SM CLR 04/04 A2967 RMK AO2 SLP050 60000 T00440044 10078 20039 53017=
201702170453 METAR KCLM 170453Z AUTO 00000KT 5SM BR SCT025 05/05 A2964 RMK AO2 SLP040 T00500050=
201702170356 SPECI KCLM 170356Z AUTO 00000KT 7SM SCT008 SCT015 05/05 A2963 RMK AO2 T00500050=
201702170353 METAR KCLM 170353Z AUTO 00000KT 6SM BR SCT010 BKN015 06/06 A2963 RMK AO2 SLP034 T00560056=
201702170306 SPECI KCLM 170306Z AUTO 00000KT 8SM SCT021 06/06 A2961 RMK AO2 T00560056=
201702170253 METAR KCLM 170253Z AUTO 24003KT 10SM FEW016 SCT021 BKN027 06/06 A2961 RMK AO2 SLP027 60000 T00610056 53020=
201702170237 SPECI KCLM 170237Z AUTO 00000KT 10SM FEW009 SCT021 BKN028 06/06 A2960 RMK AO2 T00560056=
201702170221 SPECI KCLM 170221Z AUTO 00000KT 10SM FEW009 07/06 A2959 RMK AO2 T00670061=
201702170153 METAR KCLM 170153Z AUTO 00000KT 10SM FEW013 FEW070 SCT085 07/06 A2958 RMK AO2 SLP017 T00670061=
201702170117 SPECI KCLM 170117Z AUTO 27011KT 10SM SCT010 BKN034 BKN085 07/07 A2957 RMK AO2 T00720067=
201702170053 METAR KCLM 170053Z AUTO 26009KT 10SM BKN009 BKN031 07/07 A2957 RMK AO2 RAE16 CIG 006V012 SLP013 P0000 T00720067=
201702170043 SPECI KCLM 170043Z AUTO 29008KT 10SM BKN010 OVC033 08/07 A2956 RMK AO2 RAE16 CIG 007V012 P0000 T00780072=
201702170021 SPECI KCLM 170021Z AUTO 29007KT 10SM FEW008 BKN033 OVC050 08/07 A2956 RMK AO2 RAE16 P0000 T00780072=
201702162353 METAR KCLM 162353Z AUTO 30008KT 10SM -RA BKN012 OVC047 08/07 A2955 RMK AO2 SLP007 P0002 60003 T00780072 10089 20078 53020=
201702162334 SPECI KCLM 162334Z AUTO 30009KT 4SM -RA BR BKN012 BKN020 OVC055 08/07 A2954 RMK AO2 P0002 T00780072=
201702162326 SPECI KCLM 162326Z AUTO 30009KT 7SM -RA SCT011 BKN020 OVC055 08/07 A2954 RMK AO2 P0002 T00780072=
201702162253 METAR KCLM 162253Z AUTO 30008KT 7SM -RA FEW020 OVC050 08/07 A2952 RMK AO2 RAB06E17B40 SLP996 P0000 T00830067=
201702162245 SPECI KCLM 162245Z AUTO 31006KT 7SM -RA FEW020 SCT028 OVC050 08/07 A2952 RMK AO2 RAB06E17B40 P0000 T00830067=
201702162234 SPECI KCLM 162234Z AUTO 30006KT 10SM FEW020 BKN026 OVC055 08/07 A2951 RMK AO2 RAB06E17 P0000 T00830067=
201702162153 METAR KCLM 162153Z AUTO 32005KT 10SM SCT018 BKN043 BKN065 09/07 A2950 RMK AO2 RAE13 SLP990 P0000 T00890072=
201702162053 METAR KCLM 162053Z AUTO VRB03KT 7SM -RA OVC019 08/07 A2949 RMK AO2 SLP986 P0001 60001 T00830072 51020=
201702161953 METAR KCLM 161953Z AUTO 00000KT 10SM -RA BKN020 OVC042 08/07 A2948 RMK AO2 RAB32 SLP983 P0000 T00830067=
201702161853 METAR KCLM 161853Z AUTO 29006KT 10SM BKN020 BKN028 OVC075 09/07 A2945 RMK AO2 RAB16E26 SLP975 P0000 T00890067=
201702161846 SPECI KCLM 161846Z AUTO VRB05KT 10SM BKN020 BKN032 OVC075 09/07 A2945 RMK AO2 RAB16E26 P0000 T00890072=
201702161753 METAR KCLM 161753Z AUTO 00000KT 10SM BKN065 OVC075 08/07 A2943 RMK AO2 SLP966 T00830072 10083 20039 51024=
201702161700 SPECI KCLM 161700Z AUTO 27004KT 10SM SCT016 SCT060 07/06 A2940 RMK AO2 T00670061=
201702161653 METAR KCLM 161653Z AUTO 29003KT 10SM FEW010 BKN016 BKN060 07/07 A2940 RMK AO2 SLP958 T00720067=
201702161645 SPECI KCLM 161645Z AUTO 00000KT 10SM SCT010 BKN016 08/07 A2941 RMK AO2 T00780067=
201702161621 SPECI KCLM 161621Z AUTO 12003KT 10SM BKN009 BKN046 OVC060 07/07 A2940 RMK AO2 T00720067=
201702161612 SPECI KCLM 161612Z AUTO 12003KT 10SM SCT009 BKN048 OVC060 07/07 A2940 RMK AO2 T00720067=
201702161553 METAR KCLM 161553Z AUTO 29008KT 10SM BKN046 OVC055 07/07 A2939 RMK AO2 SLP952 T00720067=
201702161538 SPECI KCLM 161538Z AUTO 30012KT 10SM SCT015 BKN044 OVC055 07/06 A2937 RMK AO2 T00720061=
201702161519 SPECI KCLM 161519Z AUTO 30015G19KT 10SM FEW009 OVC015 07/06 A2937 RMK AO2 T00720061=
201702161456 SPECI KCLM 161456Z AUTO 00000KT 9SM BKN013 OVC038 04/04 A2936 RMK AO2 T00440044=
201702161453 METAR KCLM 161453Z AUTO 00000KT 10SM SCT015 OVC038 05/05 A2936 RMK AO2 SLP943 T00500050 53018=
201702161442 SPECI KCLM 161442Z AUTO 00000KT 4SM BR SCT013 SCT018 BKN039 05/05 A2935 RMK AO2 T00500050=
201702161435 SPECI KCLM 161435Z AUTO 00000KT 9SM BKN013 BKN039 05/05 A2934 RMK AO2 T00500050=
201702161353 METAR KCLM 161353Z AUTO 19004KT 5SM BR CLR 04/04 A2933 RMK AO2 SLP933 T00440044=
201702161253 METAR KCLM 161253Z AUTO 32007KT 9SM CLR 06/06 A2932 RMK AO2 SLP931 T00560056=
201702161153 METAR KCLM 161153Z AUTO 00000KT 10SM CLR 08/07 A2931 RMK AO2 SLP924 60016 70071 T00780072 10117 20067 53005=
201702161053 METAR KCLM 161053Z AUTO 24007KT 10SM CLR 10/07 A2928 RMK AO2 SLP915 T01000067=
201702160953 METAR KCLM 160953Z AUTO 27007KT 10SM BKN055 BKN075 09/09 A2929 RMK AO2 RAE39 SLP920 P0002 T00890089=
201702160853 METAR KCLM 160853Z AUTO 00000KT 5SM -RA BR FEW004 BKN055 OVC070 08/08 A2929 RMK AO2 SLP919 P0002 60014 T00830083 55008=
201702160832 SPECI KCLM 160832Z AUTO 20003KT 5SM -RA BR SCT002 BKN015 OVC060 08/08 A2928 RMK AO2 P0000 T00830083=
201702160826 SPECI KCLM 160826Z AUTO 00000KT 5SM -RA BR BKN002 BKN016 OVC060 09/09 A2928 RMK AO2 P0000 T00890089=
201702160819 SPECI KCLM 160819Z AUTO 14005KT 2 1/2SM -RA BR BKN002 OVC070 09/09 A2927 RMK AO2 P0000 T00890089=
201702160813 SPECI KCLM 160813Z AUTO VRB03KT 1 1/2SM -RA BR SCT003 OVC065 08/08 A2928 RMK AO2 VIS 1V3 P0000 T00830083=
201702160805 SPECI KCLM 160805Z AUTO 23005KT 2 1/2SM -RA BR SCT003 OVC065 08/08 A2929 RMK AO2 VIS 1V5 P0000 T00830083=
201702160800 SPECI KCLM 160800Z AUTO 00000KT 3SM -RA BR BKN065 OVC085 09/09 A2929 RMK AO2 P0000 T00890089=
201702160753 METAR KCLM 160753Z AUTO 07003KT 1 1/4SM -RA BR FEW002 BKN065 OVC080 09/09 A2928 RMK AO2 SLP917 P0005 T00890089 401110050=
201702160723 SPECI KCLM 160723Z AUTO 14003KT 1 1/4SM -RA BR FEW002 BKN034 OVC080 08/08 A2930 RMK AO2 P0003 T00830083=
201702160708 SPECI KCLM 160708Z AUTO 12003KT 1 1/4SM -RA BR SCT002 OVC017 09/09 A2930 RMK AO2 P0002 T00890089=
201702160659 SPECI KCLM 160659Z AUTO 00000KT 1 1/4SM -RA BR BKN002 OVC011 09/09 A2931 RMK AO2 P0002 T00890089=
201702160653 METAR KCLM 160653Z AUTO 00000KT 1 1/4SM -RA BR SCT002 OVC021 09/09 A2931 RMK AO2 SLP925 P0007 T00890089=
201702160648 SPECI KCLM 160648Z AUTO 00000KT 1 1/2SM -RA BR SCT002 OVC028 09/09 A2931 RMK AO2 P0007=
201702160644 SPECI KCLM 160644Z AUTO 35003KT 2SM -RA BR SCT003 OVC038 09/09 A2930 RMK AO2 P0007 T00890089=
201702160628 SPECI KCLM 160628Z AUTO 33003KT 1SM -RA BR FEW004 OVC050 09/09 A2931 RMK AO2 P0006 T00890089=
201702160607 SPECI KCLM 160607Z AUTO 00000KT 3/4SM -RA BR OVC055 08/08 A2932 RMK AO2 P0003 T00830083=
201702160553 METAR KCLM 160553Z AUTO 00000KT 1 1/4SM RA BR OVC060 08/08 A2932 RMK AO2 SLP927 P0008 60030 T00830083 10089 20078 56009=
201702160545 SPECI KCLM 160545Z AUTO 00000KT 3/4SM -RA BR OVC060 09/09 A2931 RMK AO2 P0006 T00890089=
201702160509 SPECI KCLM 160509Z AUTO 00000KT 2 1/2SM -RA BR OVC055 08/08 A2930 RMK AO2 P0002 T00830083=
201702160453 METAR KCLM 160453Z AUTO 00000KT 3SM -RA BR OVC060 08/08 A2932 RMK AO2 SLP929 P0009 T00830083=
201702160416 SPECI KCLM 160416Z AUTO 24005KT 3SM -RA BR OVC055 08/08 A2933 RMK AO2 P0003 T00830083=
201702160406 SPECI KCLM 160406Z AUTO 26003KT 2 1/2SM -RA BR OVC055 08/08 A2932 RMK AO2 P0002 T00830083=
201702160353 METAR KCLM 160353Z AUTO 28004KT 3SM -RA BR OVC060 08/08 A2933 RMK AO2 SLP933 P0004 T00780078=
201702160253 METAR KCLM 160253Z AUTO 00000KT 3SM -RA BR OVC065 08/08 A2934 RMK AO2 SLP937 P0002 60009 T00830083 55003=
201702160250 SPECI KCLM 160250Z AUTO 23003KT 3SM -RA BR OVC065 08/08 A2934 RMK AO2 P0002=
201702160241 SPECI KCLM 160241Z AUTO 00000KT 2 1/2SM -RA BR OVC065 08/08 A2934 RMK AO2 P0002 T00780078=
201702160229 SPECI KCLM 160229Z AUTO 00000KT 3SM -RA BR OVC065 08/08 A2934 RMK AO2 P0002 T00830083=
201702160223 SPECI KCLM 160223Z AUTO 24003KT 1 1/4SM -RA BR FEW002 OVC065 08/08 A2933 RMK AO2 P0000 T00830083=
201702160211 SPECI KCLM 160211Z AUTO 00000KT 3/4SM -RA BR FEW002 BKN043 OVC070 08/08 A2933 RMK AO2 P0000 T00830083=
201702160200 SPECI KCLM 160200Z AUTO 29003KT 2SM -RA BR FEW001 BKN031 OVC070 08/08 A2934 RMK AO2 P0000 T00830083=
201702160153 METAR KCLM 160153Z AUTO 00000KT 1/2SM -RA FG FEW001 BKN022 OVC075 08/08 A2933 RMK AO2 SLP934 P0003 T00830083=
201702160137 SPECI KCLM 160137Z AUTO 00000KT 1 3/4SM -RA BR FEW001 BKN070 OVC085 09/09 A2935 RMK AO2 P0003 T00890089=
201702160115 SPECI KCLM 160115Z AUTO 00000KT 2SM -RA BR BKN070 OVC085 09/09 A2935 RMK AO2 P0002 T00890089=
201702160053 METAR KCLM 160053Z AUTO 14003KT 3SM -RA BR FEW011 SCT070 OVC085 09/09 A2935 RMK AO2 SLP940 P0004 T00890089=
201702152353 METAR KCLM 152353Z AUTO 00000KT 3SM -RA BR SCT003 BKN049 OVC070 09/09 A2938 RMK AO2 SLP951 P0011 60013 T00890089 10111 20083 56063=
201702152347 SPECI KCLM 152347Z AUTO 00000KT 2SM -RA BR SCT003 BKN049 OVC070 09/09 A2940 RMK AO2 P0009=
201702152330 SPECI KCLM 152330Z AUTO 00000KT 1 3/4SM RA BR BKN003 BKN060 OVC080 09/09 A2941 RMK AO2 P0006 T00890089=
201702152253 METAR KCLM 152253Z AUTO 00000KT 4SM -RA BR BKN003 OVC065 09/09 A2944 RMK AO2 RAE2158B17 SLP971 P0002 T00890089=
201702152232 SPECI KCLM 152232Z AUTO 00000KT 5SM -RA BR BKN003 BKN050 OVC070 09/09 A2946 RMK AO2 RAE2158B17 P0000 T00940094=
201702152223 SPECI KCLM 152223Z AUTO 35003KT 6SM -RA BR BKN005 BKN055 OVC070 09/09 A2947 RMK AO2 RAE2158B17 P0000 T00940094=
201702152207 SPECI KCLM 152207Z AUTO VRB03KT 8SM SCT006 BKN055 OVC090 09/09 A2949 RMK AO2 RAE2158 P0000 T00890089=
201702152153 METAR KCLM 152153Z AUTO 00000KT 8SM -RA BKN003 BKN075 OVC095 09/09 A2949 RMK AO2 RAB04 CIG 003V011 PRESFR SLP989 P0000 T00890089=
201702152144 SPECI KCLM 152144Z AUTO 00000KT 6SM -RA BR BKN003 OVC090 09/09 A2951 RMK AO2 RAB04 PRESFR P0000 T00890089=
201702152053 METAR KCLM 152053Z AUTO 05004KT 6SM BR FEW001 BKN060 OVC110 08/08 A2957 RMK AO2 RAB1954E03B33E46 SLP014 P0000 60000 T00830083 58027=
201702151953 METAR KCLM 151953Z AUTO 31003KT 10SM FEW060 BKN100 10/10 A2960 RMK AO2 SLP027 T01000100=
201702151853 METAR KCLM 151853Z AUTO 00000KT 10SM SCT065 SCT080 11/10 A2963 RMK AO2 SLP036 T01060100=
201702151753 METAR KCLM 151753Z AUTO 12003KT 10SM FEW065 FEW100 09/09 A2965 RMK AO2 RAE17 SLP042 P0000 60012 T00890089 10089 20050 58003=
201702151653 METAR KCLM 151653Z AUTO 15005KT 8SM -RA OVC090 07/07 A2967 RMK AO2 RAB29 SLP048 P0002 T00720072=
201702151553 METAR KCLM 151553Z AUTO 22004KT 4SM BR FEW001 05/05 A2966 RMK AO2 SLP046 T00500050=
201702151551 SPECI KCLM 151551Z AUTO 23004KT 5SM BR FEW001 05/05 A2966 RMK AO2=
201702151541 SPECI KCLM 151541Z AUTO 18005KT 2SM BR FEW001 06/06 A2966 RMK AO2 VIS 3/4V5 T00560056=
201702151526 SPECI KCLM 151526Z AUTO 00000KT 1/2SM FG VV001 06/06 A2966 RMK AO2 T00560056=
201702151524 SPECI KCLM 151524Z AUTO 00000KT 1/2SM FG VV011 06/06 A2966 RMK AO2 VIS 1/4V4 T00560056=
201702151511 SPECI KCLM 151511Z AUTO 33003KT 3/4SM BR SCT035 SCT070 06/06 A2966 RMK AO2 T00560056=
201702151501 SPECI KCLM 151501Z AUTO 00000KT 1 3/4SM BR SCT042 BKN055 BKN065 05/05 A2965 RMK AO2 VIS 3/4V5 T00500050=
201702151452 METAR KCLM 151452Z AUTO 00000KT 3SM BR BKN050 BKN070 06/06 A2965 RMK AO2 RAE00 SLP042 P0000 60010 T00560056 51004=
201702151451 SPECI KCLM 151451Z AUTO 00000KT 3SM BR BKN050 OVC070 06/06 A2965 RMK AO2 RAE00 P0000=
201702151435 SPECI KCLM 151435Z AUTO VRB03KT 1 3/4SM BR SCT050 BKN080 BKN100 05/05 A2966 RMK AO2 VIS 1V5 RAE00 P0000 T00500050=
201702151353 METAR KCLM 151353Z AUTO 13005KT 6SM -RA BR SCT046 BKN080 BKN095 06/06 A2963 RMK AO2 SLP036 P0002 T00610061=
201702151313 SPECI KCLM 151313Z AUTO 16003KT 4SM -RA BR SCT003 BKN060 OVC100 06/06 A2964 RMK AO2 P0002 T00610061=
201702151253 METAR KCLM 151253Z AUTO 00000KT 3SM -RA BR OVC003 06/06 A2967 RMK AO2 SLP047 P0008 T00610061=
201702151216 SPECI KCLM 151216Z AUTO 20003KT 4SM -RA BR BKN003 OVC055 06/06 A2963 RMK AO2 P0003 T00610061=
201702151204 SPECI KCLM 151204Z AUTO 28005KT 3SM -RA BR SCT003 OVC055 06/06 A2963 RMK AO2 P0001 T00610061=
201702151200 SPECI KCLM 151200Z AUTO 00000KT 2 1/2SM -RA BR BKN003 BKN015 OVC055 06/06 A2964 RMK AO2 P0000 T00610061=
201702151153 METAR KCLM 151153Z AUTO 00000KT 3SM RA BR BKN003 BKN015 OVC055 06/06 A2964 RMK AO2 SLP038 P0009 60034 70040 T00610061 10061 20044 55004=
201702151129 SPECI KCLM 151129Z AUTO 23005KT 4SM -RA BR BKN002 OVC060 06/06 A2962 RMK AO2 P0003 T00560056=
201702151126 SPECI KCLM 151126Z AUTO 26003KT 4SM -RA BR SCT002 BKN060 OVC070 06/06 A2962 RMK AO2 P0003 T00560056=
201702151053 METAR KCLM 151053Z AUTO VRB03KT 4SM -RA BR SCT080 OVC100 06/06 A2963 RMK AO2 SLP036 P0004 T00560056=
201702150953 METAR KCLM 150953Z AUTO 24005KT 5SM -RA BR BKN070 OVC090 06/06 A2963 RMK AO2 SLP037 P0005 T00560056=
201702150853 METAR KCLM 150853Z AUTO 22004KT 6SM -RA BR FEW065 BKN080 OVC100 05/05 A2965 RMK AO2 SLP043 P0004 60016 T00500050 56030=
201702150753 METAR KCLM 150753Z AUTO 21006KT 6SM -RA BR BKN085 OVC110 05/05 A2966 RMK AO2 SLP045 P0008 T00500050 400891017=
201702150653 METAR KCLM 150653Z AUTO 24004KT 7SM -RA OVC085 05/05 A2969 RMK AO2 SLP056 P0004 T00500050=
201702150553 METAR KCLM 150553Z AUTO 18004KT 10SM -RA BKN100 OVC120 05/04 A2974 RMK AO2 SLP073 P0004 60006 T00500044 10078 20050 58020=
201702150453 METAR KCLM 150453Z AUTO 17003KT 10SM -RA BKN090 OVC110 05/05 A2978 RMK AO2 SLP086 P0002 T00500050=
201702150353 METAR KCLM 150353Z AUTO 00000KT 10SM -RA BKN100 OVC110 05/04 A2980 RMK AO2 SLP093 P0000 T00500044=
201702150253 METAR KCLM 150253Z AUTO 00000KT 10SM -RA SCT080 OVC090 06/03 A2980 RMK AO2 RAE0157B21 SLP094 P0000 60000 T00610033 56021=
201702150153 METAR KCLM 150153Z AUTO 22004KT 10SM -RA OVC065 07/03 A2981 RMK AO2 RAB50 SLP096 P0000 T00670033=
201702150053 METAR KCLM 150053Z AUTO 00000KT 10SM OVC065 08/03 A2984 RMK AO2 SLP105 T00780033=
201702142353 METAR KCLM 142353Z AUTO 29008KT 10SM SCT085 08/03 A2986 RMK AO2 SLP114 T00780033 10089 20028 56026=
201702142253 METAR KCLM 142253Z AUTO 30007KT 10SM FEW075 08/03 A2989 RMK AO2 SLP122 T00830033=
201702142153 METAR KCLM 142153Z AUTO VRB04KT 10SM CLR 08/03 A2991 RMK AO2 SLP131 T00830028=
201702142053 METAR KCLM 142053Z AUTO 00000KT 10SM CLR 07/06 A2994 RMK AO2 SLP141 T00670056 58029=
201702141953 METAR KCLM 141953Z AUTO 00000KT 10SM CLR 06/05 A2998 RMK AO2 SLP154 T00610050=
201702141853 METAR KCLM 141853Z AUTO 25005KT 10SM CLR 05/03 A3001 RMK AO2 SLP167 T00500033=
201702141753 METAR KCLM 141753Z AUTO 00000KT 4SM BR CLR 03/03 A3003 RMK AO2 SLP171 T00330028 10033 21017 58008=
201702141653 METAR KCLM 141653Z AUTO 24005KT 10SM CLR 01/01 A3005 RMK AO2 SLP179 T00110011=
201702141553 METAR KCLM 141553Z AUTO 00000KT 9SM FEW120 01/01 A3006 RMK AO2 SLP180 T00110011=
201702141453 METAR KCLM 141453Z AUTO 21003KT 9SM FEW005 SCT120 01/01 A3005 RMK AO2 SLP179 T00060006 56012=
201702141434 SPECI KCLM 141434Z AUTO 13003KT 9SM SCT005 01/01 A3004 RMK AO2 T00060006=
201702141353 METAR KCLM 141353Z AUTO 00000KT 10SM OVC006 00/00 A3006 RMK AO2 SLP181 T00000000=
201702141328 SPECI KCLM 141328Z AUTO 24003KT 10SM BKN005 M01/M01 A3007 RMK AO2 T10061006=
201702141253 METAR KCLM 141253Z AUTO 23006KT 10SM FEW008 01/00 A3007 RMK AO2 SLP186 T00060000=
201702141244 SPECI KCLM 141244Z AUTO 23008KT 10SM SCT008 01/00 A3008 RMK AO2 T00060000=
201702141235 SPECI KCLM 141235Z AUTO 24006KT 10SM BKN008 00/M01 A3009 RMK AO2 T00001006=
201702141219 SPECI KCLM 141219Z AUTO 22003KT 10SM FEW008 M01/M01 A3008 RMK AO2 T10111011=
201702141153 METAR KCLM 141153Z AUTO 00000KT 10SM CLR 00/00 A3009 RMK AO2 SLP190 T00000000 10022 21017 56009=
201702141053 METAR KCLM 141053Z AUTO 00000KT 10SM CLR 00/M01 A3010 RMK AO2 SLP194 T00001006=
201702140953 METAR KCLM 140953Z AUTO 00000KT 10SM CLR 02/01 A3010 RMK AO2 SLP195 T00170011=
201702140853 METAR KCLM 140853Z AUTO 00000KT 10SM CLR 00/M01 A3011 RMK AO2 SLP200 T00001006 58002=
201702140753 METAR KCLM 140753Z AUTO 22003KT 10SM CLR 00/M01 A3013 RMK AO2 SLP206 T00001006 400721033=
201702140653 METAR KCLM 140653Z AUTO 00000KT 10SM CLR 00/00 A3013 RMK AO2 SLP205 T00000000=
201702140553 METAR KCLM 140553Z AUTO 00000KT 10SM CLR 00/00 A3012 RMK AO2 SLP202 T00000000 10072 21006 56005=
201702140453 METAR KCLM 140453Z AUTO 00000KT 10SM CLR 01/00 A3013 RMK AO2 SLP205 T00060000=
201702140353 METAR KCLM 140353Z AUTO 21003KT 10SM CLR 00/00 A3012 RMK AO2 SLP204 T00000000=
201702140253 METAR KCLM 140253Z AUTO 19003KT 10SM CLR 01/01 A3013 RMK AO2 SLP207 T00110006 56014=
201702140153 METAR KCLM 140153Z AUTO 19003KT 10SM CLR 03/01 A3015 RMK AO2 SLP212 T00330011=
201702140053 METAR KCLM 140053Z AUTO 10005KT 10SM CLR 07/02 A3015 RMK AO2 SLP213 T00670022=
201702132353 METAR KCLM 132353Z AUTO 09006KT 10SM CLR 07/03 A3018 RMK AO2 SLP221 T00720033 10072 20056 56022=
201702132253 METAR KCLM 132253Z AUTO 10007KT 10SM CLR 07/04 A3019 RMK AO2 SLP226 T00720039=
201702132153 METAR KCLM 132153Z AUTO 09007KT 10SM CLR 07/04 A3022 RMK AO2 SLP236 T00670039=
201702132053 METAR KCLM 132053Z AUTO 09007KT 10SM SCT010 07/04 A3024 RMK AO2 SLP243 T00670039 58021=
201702131953 METAR KCLM 131953Z AUTO 09007KT 060V130 10SM FEW010 06/04 A3027 RMK AO2 SLP252 T00610039=
201702131853 METAR KCLM 131853Z AUTO 09007KT 10SM CLR 06/03 A3029 RMK AO2 SLP260 T00610033=
201702131753 METAR KCLM 131753Z AUTO 11005KT 10SM CLR 06/02 A3030 RMK AO2 SLP264 I6002 T00560022 10056 21028 58005=
201702131653 METAR KCLM 131653Z AUTO 12005KT 10SM CLR 02/02 A3032 RMK AO2 SLP269 T00220017=
201702131553 METAR KCLM 131553Z AUTO 15005KT 8SM CLR 00/00 A3032 RMK AO2 SLP270 I1001 T00000000=
201702131453 METAR KCLM 131453Z AUTO 17005KT 7SM CLR 00/00 A3032 RMK AO2 SLP269 I1001 I3001 T00000000 58012=
201702131353 METAR KCLM 131353Z AUTO 15004KT 9SM CLR M02/M02 A3033 RMK AO2 SLP275 I1000 T10171017=
201702131253 METAR KCLM 131253Z AUTO 00000KT 7SM CLR M02/M02 A3034 RMK AO2 SLP278 I1000 T10171017=
201702131153 METAR KCLM 131153Z AUTO 00000KT 10SM CLR M02/M02 A3035 RMK AO2 SLP281 I1000 I6000 T10221022 10006 21033 58015=
201702131116 SPECI KCLM 131116Z AUTO 20003KT 9SM CLR M02/M02 A3036 RMK AO2 T10171022=
201702131108 SPECI KCLM 131108Z AUTO 00000KT 2 1/2SM BR CLR M03/M03 A3037 RMK AO2 VIS 1V5 T10331033=
201702131053 METAR KCLM 131053Z AUTO 00000KT 10SM CLR M02/M02 A3037 RMK AO2 SLP288 I1000 T10171017=
201702130953 METAR KCLM 130953Z AUTO 20003KT 9SM CLR M01/M01 A3039 RMK AO2 SLP293 I1000 T10111011=
201702130853 METAR KCLM 130853Z AUTO 00000KT 10SM CLR M01/M01 A3040 RMK AO2 SLP296 I1000 I3000 T10111011 53000=
201702130753 METAR KCLM 130753Z AUTO 21003KT 10SM CLR M01/M01 A3040 RMK AO2 SLP297 I1000 T10111011 400671017=
201702130653 METAR KCLM 130653Z AUTO 22004KT 9SM CLR M02/M02 A3039 RMK AO2 SLP295 I1000 T10171017=
201702130553 METAR KCLM 130553Z AUTO 23004KT 10SM CLR 00/00 A3039 RMK AO2 SLP296 I1000 I6000 T00000000 10067 21017 50000=
201702130453 METAR KCLM 130453Z AUTO 22004KT 9SM CLR M01/M01 A3041 RMK AO2 SLP299 T10061011=
201702130353 METAR KCLM 130353Z AUTO 20004KT 10SM CLR M01/M01 A3041 RMK AO2 SLP300 T10061006=
201702130253 METAR KCLM 130253Z AUTO 00000KT 8SM CLR 00/M01 A3039 RMK AO2 SLP296 T00001006 55000=
201702130153 METAR KCLM 130153Z AUTO 00000KT 10SM CLR 03/02 A3039 RMK AO2 SLP293 T00280022=
201702130053 METAR KCLM 130053Z AUTO 10004KT 10SM CLR 05/03 A3038 RMK AO2 SLP292 T00500028=
201702122353 METAR KCLM 122353Z AUTO 00000KT 10SM CLR 07/03 A3039 RMK AO2 SLP295 T00670033 10067 20022 56013=
201702122253 METAR KCLM 122253Z AUTO 12006KT 10SM FEW012 06/03 A3040 RMK AO2 PRESFR SLP296 T00560033=
201702122153 METAR KCLM 122153Z AUTO 13006KT 10SM OVC012 05/03 A3043 RMK AO2 SLP308 T00500028=
201702122053 METAR KCLM 122053Z AUTO 09005KT 10SM OVC010 06/03 A3046 RMK AO2 SLP317 T00560033 55001=
201702122009 SPECI KCLM 122009Z AUTO 00000KT 10SM BKN010 05/03 A3047 RMK AO2 T00500033=
201702121953 METAR KCLM 121953Z AUTO VRB05KT 10SM FEW011 06/03 A3046 RMK AO2 SLP316 T00560033=
201702121853 METAR KCLM 121853Z AUTO 10005KT 10SM CLR 06/02 A3046 RMK AO2 SLP315 T00560022=
201702121753 METAR KCLM 121753Z AUTO 14004KT 7SM CLR 02/02 A3047 RMK AO2 SLP320 T00220022 10028 21011 50004=
201702121653 METAR KCLM 121653Z AUTO 23005KT 10SM CLR 02/01 A3048 RMK AO2 SLP324 T00170006=
201702121553 METAR KCLM 121553Z AUTO 00000KT 10SM CLR 00/M01 A3045 RMK AO2 SLP316 T00001006=
201702121453 METAR KCLM 121453Z AUTO 24003KT 10SM CLR 01/00 A3045 RMK AO2 SLP315 T00060000 55006=
201702121353 METAR KCLM 121353Z AUTO 18003KT 10SM CLR M01/M01 A3045 RMK AO2 SLP314 T10061006=
201702121253 METAR KCLM 121253Z AUTO 23005KT 10SM FEW012 02/00 A3047 RMK AO2 SLP320 T00170000=
201702121153 METAR KCLM 121153Z AUTO 24006KT 10SM FEW009 02/01 A3047 RMK AO2 SLP321 T00220006 10039 20022 58009=
201702121138 SPECI KCLM 121138Z AUTO 23007KT 10SM FEW009 02/01 A3048 RMK AO2 T00220006=
201702121053 METAR KCLM 121053Z AUTO 25005KT 10SM SCT010 03/01 A3049 RMK AO2 SLP327 T00280006=
201702120953 METAR KCLM 120953Z AUTO 24006KT 10SM BKN011 03/01 A3050 RMK AO2 SLP330 T00330006=
201702120853 METAR KCLM 120853Z AUTO 27011KT 10SM CLR 04/01 A3050 RMK AO2 SLP330 T00390006 58004=
201702120815 SPECI KCLM 120815Z AUTO 25007KT 10SM FEW013 03/01 A3050 RMK AO2 T00330006=
201702120753 METAR KCLM 120753Z AUTO 24005KT 10SM BKN012 03/01 A3051 RMK AO2 SLP335 T00330011 400780000=
201702120736 SPECI KCLM 120736Z AUTO 25007KT 10SM SCT012 03/01 A3052 RMK AO2 T00330011=
201702120713 SPECI KCLM 120713Z AUTO 26008KT 10SM BKN011 03/01 A3051 RMK AO2 T00330011=
201702120653 METAR KCLM 120653Z AUTO 25009KT 10SM SCT011 03/01 A3051 RMK AO2 SLP333 T00330011=
201702120553 METAR KCLM 120553Z AUTO 25012KT 10SM CLR 03/02 A3051 RMK AO2 SLP335 T00330017 10072 20011 56002=
201702120453 METAR KCLM 120453Z AUTO 25010KT 10SM CLR 04/02 A3051 RMK AO2 SLP336 T00390017=
201702120353 METAR KCLM 120353Z AUTO 24006KT 10SM CLR 02/01 A3051 RMK AO2 SLP335 T00220011=
201702120253 METAR KCLM 120253Z AUTO 24003KT 10SM CLR 02/01 A3052 RMK AO2 SLP337 T00170011 58000=
201702120153 METAR KCLM 120153Z AUTO 22005KT 10SM CLR 03/02 A3052 RMK AO2 SLP338 T00330017=
201702120053 METAR KCLM 120053Z AUTO 00000KT 10SM BKN047 OVC060 06/03 A3053 RMK AO2 SLP339 T00610033=
201702112353 METAR KCLM 112353Z AUTO 11003KT 10SM OVC055 07/02 A3052 RMK AO2 SLP336 T00670017 10078 20022 51010=
201702112253 METAR KCLM 112253Z AUTO 12006KT 10SM FEW040 BKN055 05/02 A3051 RMK AO2 SLP335 T00500022=
201702112153 METAR KCLM 112153Z AUTO 00000KT 10SM FEW040 FEW055 07/02 A3050 RMK AO2 SLP331 T00720017=
201702112053 METAR KCLM 112053Z AUTO 00000KT 10SM CLR 07/02 A3049 RMK AO2 SLP326 T00670022 51014=
201702111953 METAR KCLM 111953Z AUTO 33004KT 10SM CLR 07/01 A3047 RMK AO2 SLP321 T00670011=
201702111853 METAR KCLM 111853Z AUTO 00000KT 10SM CLR 04/01 A3046 RMK AO2 SLP318 T00440011=
201702111753 METAR KCLM 111753Z AUTO 23005KT 10SM CLR 03/00 A3045 RMK AO2 SLP313 T00330000 10039 20000 51037=
201702111653 METAR KCLM 111653Z AUTO 23006KT 10SM FEW055 03/00 A3041 RMK AO2 SLP302 T00280000=
201702111553 METAR KCLM 111553Z AUTO 24006KT 10SM BKN060 02/00 A3037 RMK AO2 SLP289 T00220000=
201702111453 METAR KCLM 111453Z AUTO 24006KT 10SM SCT055 SCT075 02/00 A3034 RMK AO2 SLP276 T00220000 51021=
201702111353 METAR KCLM 111353Z AUTO 25004KT 10SM OVC050 02/01 A3032 RMK AO2 SLP271 T00220006=
201702111253 METAR KCLM 111253Z AUTO 23006KT 10SM FEW060 02/00 A3029 RMK AO2 SLP261 T00170000=
201702111153 METAR KCLM 111153Z AUTO 21004KT 10SM CLR 01/M01 A3027 RMK AO2 SLP255 70026 T00111006 10039 20006 51025=
201702111053 METAR KCLM 111053Z AUTO 24003KT 10SM FEW060 BKN070 02/01 A3026 RMK AO2 SLP249 T00170006=
201702110953 METAR KCLM 110953Z AUTO 23003KT 10SM SCT055 BKN080 02/01 A3023 RMK AO2 SLP240 T00220006=
201702110853 METAR KCLM 110853Z AUTO 26005KT 10SM FEW055 SCT075 03/01 A3020 RMK AO2 SLP229 T00280006 53035=
201702110753 METAR KCLM 110753Z AUTO 26009KT 10SM SCT080 04/01 A3016 RMK AO2 SLP216 T00390006 400720017=
201702110653 METAR KCLM 110653Z AUTO 25010KT 10SM CLR 03/01 A3013 RMK AO2 SLP204 T00280006=
201702110553 METAR KCLM 110553Z AUTO 24009KT 10SM FEW050 SCT080 03/01 A3010 RMK AO2 SLP194 60000 T00330006 10050 20028 51037=
201702110500 METAR KCLM NIL=
201702110353 METAR KCLM 110353Z AUTO 26008KT 10SM BKN070 BKN090 04/01 A3003 RMK AO2 SLP171 T00390006=
201702110253 METAR KCLM 110253Z AUTO 26009KT 10SM BKN050 BKN075 03/01 A2999 RMK AO2 SLP157 60000 T00330006 53046=
201702110153 METAR KCLM 110153Z AUTO 26008KT 10SM SCT050 BKN065 OVC090 04/00 A2995 RMK AO2 RAB05E23 SLP143 P0000 T00390000=
201702110053 METAR KCLM 110053Z AUTO 26007KT 10SM BKN080 04/01 A2989 RMK AO2 SLP124 T00390006=
201702102353 METAR KCLM 102353Z AUTO 28010KT 10SM BKN065 04/M01 A2985 RMK AO2 SLP110 60014 T00441006 10056 20033 51051=
201702102253 METAR KCLM 102253Z AUTO 29016G29KT 10SM BKN046 BKN055 04/01 A2982 RMK AO2 PK WND 28029/2246 RAE31 PRESRR SLP098 P0001 T00390011=
201702102153 METAR KCLM 102153Z AUTO 28016G21KT 10SM -RA BKN039 OVC047 04/03 A2976 RMK AO2 PRESRR SLP079 P0000 T00440028=
201702102053 METAR KCLM 102053Z AUTO 27012KT 10SM -RA FEW020 OVC044 06/04 A2970 RMK AO2 RAE01B19 SLP058 P0000 60013 T00560039 53040=
201702101953 METAR KCLM 101953Z AUTO 27005KT 8SM -RA BKN041 OVC048 05/04 A2965 RMK AO2 SLP044 P0003 T00500039=
201702101853 METAR KCLM 101853Z AUTO 18003KT 8SM -RA BKN033 OVC044 04/03 A2960 RMK AO2 SLP024 P0010 T00440033=
201702101827 SPECI KCLM 101827Z AUTO 00000KT 3SM -RA BR OVC030 04/04 A2958 RMK AO2 P0006 T00390039=
201702101819 SPECI KCLM 101819Z AUTO 00000KT 2 1/2SM RA BR OVC030 03/03 A2959 RMK AO2 VIS 2V4 P0004 T00330033=
201702101753 METAR KCLM 101753Z AUTO 20004KT 10SM -RA BKN039 OVC050 03/03 A2958 RMK AO2 SLP017 P0005 60012 T00330033 10067 20017 53002=
201702101653 METAR KCLM 101653Z AUTO 20004KT 7SM -RA OVC036 03/03 A2957 RMK AO2 SLP016 P0001 T00330033=
201702101553 METAR KCLM 101553Z AUTO 18003KT 4SM -RA BR FEW008 OVC044 02/02 A2957 RMK AO2 RAB1456E08B37UPB34E37 SLP014 P0000 T00220022=
201702101537 SPECI KCLM 101537Z AUTO 16003KT 4SM -RA BR SCT010 OVC044 02/02 A2957 RMK AO2 RAB1456E08B37UPB34E37 P0000 T00170017=
201702101519 SPECI KCLM 101519Z AUTO 19004KT 10SM BKN010 BKN055 OVC070 03/03 A2958 RMK AO2 RAB1456E08 P0000 T00280028=
201702101505 SPECI KCLM 101505Z AUTO 30004KT 9SM -RA SCT009 OVC050 03/03 A2957 RMK AO2 RAB1456 P0000 T00280028=
201702101453 METAR KCLM 101453Z AUTO 02003KT 6SM BR BKN050 OVC065 02/02 A2957 RMK AO2 RAE30 SLP015 P0000 60006 T00220022 58002=
201702101353 METAR KCLM 101353Z AUTO 24005KT 9SM -RA BKN048 OVC070 03/03 A2957 RMK AO2 SLP016 P0002 T00330033 $=
201702101253 METAR KCLM 101253Z AUTO 22004KT 3SM RA BR FEW030 OVC035 03/03 A2958 RMK AO2 SLP019 P0004 T00280028 $=
201702101153 METAR KCLM 101153Z AUTO VRB03KT 8SM -RA FEW013 BKN048 OVC055 04/04 A2958 RMK AO2 RAE01B39 SLP017 P0000 60002 70066 T00440039 10078 20028 50007 $=
201702101053 METAR KCLM 101053Z AUTO 15003KT 10SM -RA OVC047 06/05 A2958 RMK AO2 RAE24B41 SLP018 P0000 T00560050 $=
201702100953 METAR KCLM 100953Z AUTO 23006KT 9SM -RA FEW015 OVC044 05/04 A2957 RMK AO2 RAB43 SLP014 P0000 T00500044 $=
201702100853 METAR KCLM 100853Z AUTO 20005KT 10SM FEW043 OVC050 05/04 A2955 RMK AO2 RAE35 SLP010 P0000 60002 T00500039 53033 $=
201702100753 METAR KCLM 100753Z AUTO VRB05KT 9SM -RA OVC044 07/06 A2952 RMK AO2 RAB40 SLP998 P0002 T00670056 401000006 $=
201702100653 METAR KCLM 100653Z AUTO 00000KT 10SM OVC060 06/05 A2948 RMK AO2 SLP985 T00560050 $=
201702100553 METAR KCLM 100553Z AUTO 10005KT 10SM FEW036 SCT070 08/06 A2946 RMK AO2 SLP976 60001 T00780061 10100 20017 53041 $=
201702100453 METAR KCLM 100453Z AUTO 14005KT 10SM CLR 04/04 A2941 RMK AO2 SLP961 T00390039 $=
201702100353 METAR KCLM 100353Z AUTO 14003KT 10SM FEW060 06/06 A2937 RMK AO2 SLP947 T00610056=
201702100253 METAR KCLM 100253Z AUTO 10SM FEW060 06/05 A2934 RMK AO2 SLP936 60001 T00560050 53022=
201702100153 METAR KCLM 100153Z AUTO 13009KT 10SM FEW032 FEW055 06/05 A2929 RMK AO2 RAB0057E38 SLP921 P0000 T00610050=
201702100053 METAR KCLM 100053Z AUTO 23007KT 5SM BR FEW029 BKN042 OVC070 04/04 A2927 RMK AO2 RAE39 SLP912 P0001 T00440044=
201702100040 SPECI KCLM 100040Z AUTO 00000KT 3SM BR SCT031 BKN042 OVC070 04/04 A2927 RMK AO2 RAE39 P0001 T00440044=
201702100027 SPECI KCLM 100027Z AUTO 1 3/4SM -RA BR SCT031 BKN046 OVC060 03/03 A2927 RMK AO2 VIS 3/4V5 P0001 T00330028=
201702100013 SPECI KCLM 100013Z AUTO VRB06KT 7SM -RA SCT031 BKN042 OVC060 04/04 A2926 RMK AO2 P0001 T00440044=
201702100005 SPECI KCLM 100005Z AUTO 32005KT 2SM -RA BR SCT033 OVC060 04/04 A2925 RMK AO2 VIS 3/4V4 P0001 T00390039=
201702092353 METAR KCLM 092353Z AUTO 10SM -RA FEW009 BKN045 OVC060 04/04 A2927 RMK AO2 RAE23B29 PRESRR SLP915 P0000 60018 T00440044 10044 20011 53031=
201702092343 SPECI KCLM 092343Z AUTO 21004KT 4SM BR FEW007 BKN048 OVC065 04/04 A2926 RMK AO2 RAE23B29E40 P0000 T00440039=
201702092341 SPECI KCLM 092341Z AUTO 21005KT 1 3/4SM BR FEW007 BKN046 OVC065 04/04 A2926 RMK AO2 RAE23B29E40 P0000 T00390039=
201702092333 SPECI KCLM 092333Z AUTO 00000KT 1/2SM -RA FG SCT044 BKN065 OVC080 03/03 A2925 RMK AO2 RAE23B29 P0000 T00330033=
201702092325 SPECI KCLM 092325Z AUTO 00000KT 1 1/4SM BR SCT048 BKN065 OVC080 03/03 A2924 RMK AO2 RAE23 P0000 T00280028=
201702092314 SPECI KCLM 092314Z AUTO 25005KT 5SM -RA BR SCT047 BKN065 OVC075 04/04 A2923 RMK AO2 P0000 T00390039=
201702092304 SPECI KCLM 092304Z AUTO 35004KT 2SM -RA BR BKN047 OVC065 04/04 A2923 RMK AO2 VIS 1V5 PRESRR P0000 T00440039=
201702092253 METAR KCLM 092253Z AUTO 00000KT 4SM -RA BR BKN049 OVC060 03/03 A2921 RMK AO2 SLP895 P0005 T00280028=
201702092228 SPECI KCLM 092228Z AUTO 25006KT 3SM -RA BR FEW003 BKN050 OVC065 03/03 A2921 RMK AO2 P0003 T00280028=
201702092215 SPECI KCLM 092215Z AUTO 32003KT 1 3/4SM -RA BR FEW003 OVC055 03/03 A2921 RMK AO2 P0002 T00330033=
201702092211 SPECI KCLM 092211Z AUTO 19003KT 3SM -RA BR FEW004 BKN050 OVC065 04/04 A2920 RMK AO2 P0002 T00390039=
201702092153 METAR KCLM 092153Z AUTO 33005KT 3SM -RA BR BKN055 OVC070 03/03 A2920 RMK AO2 PRESRR SLP891 P0003 T00330033=
201702092150 SPECI KCLM 092150Z AUTO VRB03KT 3SM -RA BR BKN055 OVC070 03/03 A2919 RMK AO2 P0003=
201702092140 SPECI KCLM 092140Z AUTO 00000KT 1 3/4SM -RA BR FEW004 OVC065 03/03 A2919 RMK AO2 P0002 T00280028=
201702092130 SPECI KCLM 092130Z AUTO 15003KT 6SM -RA BR FEW004 BKN055 OVC070 03/03 A2918 RMK AO2 P0002 T00330033=
201702092053 METAR KCLM 092053Z AUTO VRB03KT 4SM -RA BR OVC004 03/03 A2918 RMK AO2 SLP883 P0003 60010 T00280028 53001 $=
201702092033 SPECI KCLM 092033Z AUTO 12004KT 1 1/4SM -RA BR OVC003 02/02 A2917 RMK AO2 P0003 T00220022 $=
201702092026 SPECI KCLM 092026Z AUTO 11004KT 2SM -RA BR OVC003 02/02 A2917 RMK AO2 P0003 T00170017=
201702092014 SPECI KCLM 092014Z AUTO 17005KT 1 1/4SM -RA BR OVC003 02/02 A2918 RMK AO2 VIS 1/2V1 3/4 P0003 T00220022=
201702091953 METAR KCLM 091953Z AUTO VRB03KT 2 1/2SM -RA BR OVC004 01/01 A2917 RMK AO2 VIS 1 1/2V5 RAE1854B15 SLP880 P0003 T00110011=
201702091938 SPECI KCLM 091938Z AUTO 00000KT 2 1/2SM -RA BR OVC004 02/02 A2917 RMK AO2 VIS 1 3/4V4 RAE1854B15 P0002 T00170017=
201702091926 SPECI KCLM 091926Z AUTO VRB04KT 1 3/4SM RA BR OVC004 02/02 A2916 RMK AO2 RAE1854B15 PRESFR P0002 T00220022=
201702091913 SPECI KCLM 091913Z AUTO 13004KT 9SM OVC004 03/03 A2917 RMK AO2 RAE1854 P0000 T00280028=
201702091903 SPECI KCLM 091903Z AUTO 00000KT 8SM OVC005 03/03 A2917 RMK AO2 RAE1854 P0000 T00280028=
201702091853 METAR KCLM 091853Z AUTO 00000KT 5SM -RA BR OVC004 02/02 A2918 RMK AO2 SLP884 P0004 T00220022=
201702091845 SPECI KCLM 091845Z AUTO 12004KT 3SM -RA BR OVC004 02/02 A2918 RMK AO2 P0004 T00220022=
201702091753 METAR KCLM 091753Z AUTO 10003KT 1 1/4SM RA BR OVC003 02/02 A2918 RMK AO2 SLP882 P0005 60045 T00170017 10022 20011 56031=
201702091743 SPECI KCLM 091743Z AUTO 15005KT 2 1/2SM -RA BR OVC003 02/02 A2919 RMK AO2 P0003 T00170017=
201702091653 METAR KCLM 091653Z AUTO 13005KT 3/4SM RA BR OVC003 01/01 A2921 RMK AO2 SLP895 P0007 T00110011=
201702091636 SPECI KCLM 091636Z AUTO 12004KT 1/4SM RA FG OVC002 01/01 A2922 RMK AO2 P0006 T00110011=
201702091629 SPECI KCLM 091629Z AUTO 12005KT 1/2SM RA FG OVC002 02/02 A2922 RMK AO2 P0004 T00170017=
201702091553 METAR KCLM 091553Z AUTO 10005KT 1SM -RA BR OVC002 02/02 A2923 RMK AO2 RAE12B34 PRESFR SLP899 P0000 T00170017=
201702091550 SPECI KCLM 091550Z AUTO 10005KT 1 1/2SM BR OVC002 01/01 A2923 RMK AO2 RAE12B34E44 P0000=
201702091540 SPECI KCLM 091540Z AUTO 11004KT 3SM -RA BR OVC002 02/02 A2925 RMK AO2 RAE12B34 P0000 T00170017=
201702091518 SPECI KCLM 091518Z AUTO 00000KT 1 3/4SM BR OVC003 02/02 A2925 RMK AO2 RAE12 P0000 T00170017=
201702091453 METAR KCLM 091453Z AUTO 12005KT 4SM RA BR OVC004 01/01 A2927 RMK AO2 SLP913 P0008 60033 T00110011 58021=
201702091353 METAR KCLM 091353Z AUTO 09003KT 4SM -RA BR BKN004 OVC046 02/02 A2928 RMK AO2 SLP919 P0018 T00170017=
201702091253 METAR KCLM 091253Z AUTO 14006KT 5SM -RA BR OVC005 01/01 A2932 RMK AO2 SLP932 P0007 T00110011=
201702091229 SPECI KCLM 091229Z AUTO 12005KT 4SM -RA BR OVC005 01/01 A2931 RMK AO2 P0004 T00060006=
201702091153 METAR KCLM 091153Z AUTO 15004KT 3SM RA BR OVC003 01/01 A2933 RMK AO2 SLP935 P0014 60044 70118 T00060006 10028 20006 56019=
201702091109 SPECI KCLM 091109Z AUTO 00000KT 4SM -RA BR OVC002 02/02 A2934 RMK AO2 P0005 T00170017=
201702091053 METAR KCLM 091053Z AUTO 29003KT 2 1/2SM RA BR OVC002 02/02 A2935 RMK AO2 SLP942 P0006 T00170017=
201702091024 SPECI KCLM 091024Z AUTO VRB03KT 4SM -RA BR OVC002 02/02 A2934 RMK AO2 P0003 T00220022=
201702091008 SPECI KCLM 091008Z AUTO 34005KT 2SM -RA BR OVC002 02/02 A2935 RMK AO2 P0002 T00220022=
201702090953 METAR KCLM 090953Z AUTO 00000KT 3SM -RA BR OVC002 02/02 A2936 RMK AO2 SLP944 P0006 T00220022=
201702090853 METAR KCLM 090853Z AUTO VRB03KT 4SM -RA BR OVC004 02/02 A2939 RMK AO2 SLP955 P0007 60018 T00170017 58048=
201702090845 SPECI KCLM 090845Z AUTO 10003KT 4SM -RA BR OVC004 01/01 A2940 RMK AO2 PRESFR P0006 T00110011=
201702090753 METAR KCLM 090753Z AUTO 12004KT 5SM -RA BR OVC006 01/01 A2945 RMK AO2 SLP975 P0006 T00060006 400061061=
201702090653 METAR KCLM 090653Z AUTO 14004KT 4SM -RA BR OVC006 01/01 A2950 RMK AO2 SLP993 P0005 T00060006=
201702090553 METAR KCLM 090553Z AUTO 14005KT 4SM -RA BR OVC007 01/01 A2953 RMK AO2 SLP003 P0006 60036 T00060006 10006 20000 58034=
201702090530 SPECI KCLM 090530Z AUTO 12006KT 3SM -RA BR OVC007 01/01 A2954 RMK AO2 P0005 T00060006=
201702090522 SPECI KCLM 090522Z AUTO 13006KT 2 1/2SM -RA BR OVC007 01/01 A2955 RMK AO2 P0003 T00060006=
201702090453 METAR KCLM 090453Z AUTO 11003KT 4SM -RA BR OVC006 01/01 A2957 RMK AO2 SLP016 P0004 T00060006=
201702090353 METAR KCLM 090353Z AUTO 12004KT 4SM -RA BR OVC007 01/01 A2960 RMK AO2 SLP027 P0006 T00060006=
201702090253 METAR KCLM 090253Z AUTO 13005KT 7SM -RA OVC008 01/01 A2963 RMK AO2 UPE0159RAB0159E03B24 SLP037 P0002 60020 T00060006 56041=
201702090240 SPECI KCLM 090240Z AUTO 10005KT 6SM -RA BR OVC008 01/01 A2963 RMK AO2 UPE0159RAB0159E03B24 CIG 006V011 PRESFR P0002 T00060006=
201702090153 METAR KCLM 090153Z AUTO 12006KT 5SM UP BR OVC010 01/01 A2967 RMK AO2 UPB34SNE34 SLP051 P0014 T00060006=
201702090148 SPECI KCLM 090148Z AUTO 13008KT 3SM UP BR OVC010 00/00 A2967 RMK AO2 UPB34SNE34 P0014=
201702090142 SPECI KCLM 090142Z AUTO 12009KT 1 3/4SM UP BR FEW005 OVC010 00/00 A2967 RMK AO2 UPB34SNE34 PRESFR P0013 T00000000=
201702090053 METAR KCLM 090053Z AUTO 10004KT 1SM -SN BR BKN005 OVC008 00/00 A2970 RMK AO2 SLP062 P0004 T00000000=
201702090046 SPECI KCLM 090046Z AUTO 11004KT 1SM -SN BR SCT002 OVC008 00/00 A2972 RMK AO2 P0004 T00000000=
201702090027 SPECI KCLM 090027Z AUTO 12005KT 3/4SM -SN BR OVC002 01/01 A2974 RMK AO2 P0001 T00060006=
201702090018 SPECI KCLM 090018Z AUTO 10006KT 1SM -SN BR OVC002 01/01 A2974 RMK AO2 P0001 T00060006=
201702082353 METAR KCLM 082353Z AUTO 12004KT 1/2SM -SN FG OVC002 00/00 A2976 RMK AO2 SLP080 P0012 60036 T00000000 10006 20000 58027=
201702082335 SPECI KCLM 082335Z AUTO 10005KT 1/2SM -SN FG OVC002 00/00 A2977 RMK AO2 P0009 T00000000=
201702082322 SPECI KCLM 082322Z AUTO 09003KT 1/4SM SN FG OVC003 00/00 A2978 RMK AO2 P0007 T00000000=
201702082313 SPECI KCLM 082313Z AUTO 10004KT 1/2SM SN FG OVC003 00/00 A2978 RMK AO2 P0004 T00000000=
201702082253 METAR KCLM 082253Z AUTO 08003KT 1/4SM SN FG OVC003 00/00 A2979 RMK AO2 SLP091 P0011 T00000000=
201702082153 METAR KCLM 082153Z AUTO 11004KT 3/4SM -SN BR OVC004 01/00 A2981 RMK AO2 SLP098 P0006 T00060000=
201702082144 SPECI KCLM 082144Z AUTO 11003KT 1SM -SN BR OVC004 01/01 A2981 RMK AO2 P0005 T00060006=
201702082116 SPECI KCLM 082116Z AUTO 10005KT 3/4SM -SN BR OVC004 01/01 A2983 RMK AO2 P0002 T00060006=
201702082053 METAR KCLM 082053Z AUTO 11006KT 3/4SM -SN BR OVC006 01/01 A2984 RMK AO2 SLP107 P0004 60007 T00060006 58025=
201702082029 SPECI KCLM 082029Z AUTO 11004KT 3/4SM -SN BR OVC007 00/00 A2985 RMK AO2 P0003 T00000000=
201702082017 SPECI KCLM 082017Z AUTO 11005KT 1SM -SN BR OVC008 01/01 A2985 RMK AO2 P0003 T00060006=
201702081953 METAR KCLM 081953Z AUTO 12007KT 3/4SM -SN BR BKN009 OVC014 01/00 A2985 RMK AO2 PRESFR SLP113 P0002 T00060000=
201702081942 SPECI KCLM 081942Z AUTO 12005KT 3/4SM -SN BR BKN009 OVC014 01/01 A2987 RMK AO2 P0002 T00060006=
201702081930 SPECI KCLM 081930Z AUTO 11005KT 3/4SM -SN BR FEW006 BKN011 OVC016 01/00 A2987 RMK AO2 P0002 T00060000=
201702081918 SPECI KCLM 081918Z AUTO 11006KT 3/4SM -SN BR FEW004 SCT007 OVC015 01/01 A2987 RMK AO2 PRESFR P0000 T00060006=
201702081853 METAR KCLM 081853Z AUTO 12007KT 1SM -SN BR OVC007 01/00 A2990 RMK AO2 CIG 005V010 SLP128 P0001 T00060000=
201702081811 SPECI KCLM 081811Z AUTO 13005KT 1SM -SN BR BKN008 OVC013 01/01 A2992 RMK AO2 P0000 T00060006=
201702081753 METAR KCLM 081753Z AUTO 12006KT 1SM -SN BR OVC013 01/00 A2991 RMK AO2 SLP132 P0002 60002 T00060000 10006 21028 56010=
201702081748 SPECI KCLM 081748Z AUTO 12007KT 1SM -SN BR OVC013 01/00 A2991 RMK AO2 P0002=
201702081737 SPECI KCLM 081737Z AUTO 13007KT 3/4SM -SN BR OVC013 01/00 A2991 RMK AO2 P0002 T00060000=
201702081653 METAR KCLM 081653Z AUTO 13006KT 1 1/4SM -SN BR BKN014 OVC021 00/M01 A2993 RMK AO2 SNB35 SLP139 P0000 T00001006=
201702081646 SPECI KCLM 081646Z AUTO 13004KT 1 1/2SM -SN BR BKN014 OVC021 M01/M01 A2993 RMK AO2 SNB35 P0000 T10061006=
201702081640 SPECI KCLM 081640Z AUTO 14004KT 2 1/2SM -SN BR BKN016 OVC023 M01/M01 A2993 RMK AO2 SNB35 P0000 T10111011=
201702081610 SPECI KCLM 081610Z AUTO 00000KT 10SM OVC014 M01/M01 A2995 RMK AO2 T10061006=
201702081600 SPECI KCLM 081600Z AUTO 00000KT 10SM OVC015 00/M01 A2994 RMK AO2 T00001006=
201702081553 METAR KCLM 081553Z AUTO 00000KT 10SM OVC014 M01/M01 A2994 RMK AO2 SLP142 T10061011=
201702081530 SPECI KCLM 081530Z AUTO 06003KT 10SM OVC014 M02/M02 A2994 RMK AO2 T10171017=
201702081453 METAR KCLM 081453Z AUTO 00000KT 10SM BKN015 OVC023 M02/M02 A2996 RMK AO2 SLP148 T10221022 58008=
201702081353 METAR KCLM 081353Z AUTO 22003KT 10SM OVC021 M02/M02 A2998 RMK AO2 SLP154 T10221022=
201702081253 METAR KCLM 081253Z AUTO 12003KT 10SM BKN024 OVC070 M02/M02 A2998 RMK AO2 SLP155 T10221022=
201702081153 METAR KCLM 081153Z AUTO 13003KT 10SM OVC023 M02/M02 A2998 RMK AO2 SLP156 70007 I6000 T10221022 11022 21061 58003=
201702081127 SPECI KCLM 081127Z AUTO 12003KT 10SM BKN024 OVC075 M03/M03 A2999 RMK AO2 T10331033=
201702081053 METAR KCLM 081053Z AUTO 00000KT 10SM OVC075 M04/M04 A2999 RMK AO2 SLP160 T10441044=
201702080953 METAR KCLM 080953Z AUTO 00000KT 10SM FEW024 OVC070 M06/M06 A3000 RMK AO2 SLP163 T10561056=
201702080853 METAR KCLM 080853Z AUTO 00000KT 10SM OVC065 M04/M04 A2999 RMK AO2 SLP160 I3000 T10391039 51021=
201702080753 METAR KCLM 080753Z AUTO 00000KT 10SM OVC070 M04/M04 A2998 RMK AO2 SLP156 I1000 T10441044 400061067=
201702080653 METAR KCLM 080653Z AUTO 20003KT 8SM BKN075 M04/M04 A2996 RMK AO2 SLP148 T10441044=
201702080553 METAR KCLM 080553Z AUTO 19003KT 5SM BR CLR M05/M05 A2993 RMK AO2 SLP138 I1000 I6001 T10501050 11011 21067 53012=
201702080457 SPECI KCLM 080457Z AUTO 19003KT 3SM BR CLR M06/M06 A2991 RMK AO2 T10611061=
201702080453 METAR KCLM 080453Z AUTO 17003KT 1 1/4SM BR CLR M06/M06 A2991 RMK AO2 SLP132 I1000 T10561056=
201702080450 SPECI KCLM 080450Z AUTO 00000KT 1SM BR CLR M05/M05 A2991 RMK AO2 VIS 1/2V4 I1000=
201702080430 SPECI KCLM 080430Z AUTO 00000KT 1/2SM FZFG CLR M05/M05 A2991 RMK AO2 T10501050=
201702080421 SPECI KCLM 080421Z AUTO 00000KT 1/4SM FZFG VV002 M04/M04 A2990 RMK AO2 T10441044=
201702080410 SPECI KCLM 080410Z AUTO 00000KT 1 3/4SM BR FEW002 M04/M04 A2990 RMK AO2 T10441044=
201702080405 SPECI KCLM 080405Z AUTO 00000KT 1/2SM FZFG VV002 M04/M04 A2990 RMK AO2 T10441044=
201702080356 SPECI KCLM 080356Z AUTO 00000KT 1 3/4SM BR CLR M04/M04 A2989 RMK AO2 T10441044=
201702080353 METAR KCLM 080353Z AUTO 00000KT 3SM BR CLR M04/M04 A2989 RMK AO2 SLP126 I1001 T10391044=
201702080346 SPECI KCLM 080346Z AUTO 00000KT 2SM BR CLR M04/M06 A2989 RMK AO2 VIS 3/4V5 I1001 T10441056=
201702080336 SPECI KCLM 080336Z AUTO 00000KT 1/2SM FZFG CLR M05/M05 A2989 RMK AO2 I1001 T10501050=
201702080327 SPECI KCLM 080327Z AUTO 00000KT 1 3/4SM BR CLR M04/M04 A2989 RMK AO2 VIS 1/2V5 I1000 T10441044=
201702080253 METAR KCLM 080253Z AUTO 13003KT 10SM CLR M04/M04 A2987 RMK AO2 SLP119 T10391044 53023=
201702080153 METAR KCLM 080153Z AUTO 15004KT 10SM SCT026 M03/M04 A2984 RMK AO2 SLP110 T10281044=
201702080140 SPECI KCLM 080140Z AUTO 15005KT 10SM FEW025 M02/M04 A2984 RMK AO2 T10221039=
201702080112 SPECI KCLM 080112Z AUTO 15005KT 10SM BKN025 M02/M03 A2983 RMK AO2 T10221033=
201702080053 METAR KCLM 080053Z AUTO 15005KT 10SM FEW025 M02/M03 A2982 RMK AO2 SLP103 T10171028=
201702072353 METAR KCLM 072353Z AUTO 14005KT 10SM CLR M01/M03 A2980 RMK AO2 SLP096 60001 T10111033 10006 21011 53019=
201702072253 METAR KCLM 072253Z AUTO 14004KT 10SM SCT029 01/M03 A2978 RMK AO2 SLP086 T00061033=
201702072249 SPECI KCLM 072249Z AUTO 12004KT 10SM BKN029 00/M03 A2977 RMK AO2=
201702072230 SPECI KCLM 072230Z AUTO 12005KT 10SM BKN031 00/M04 A2977 RMK AO2 T00001039=
201702072153 METAR KCLM 072153Z AUTO 05004KT 10SM OVC027 01/M03 A2975 RMK AO2 SLP076 T00061033=
201702072053 METAR KCLM 072053Z AUTO VRB05KT 10SM OVC025 01/M03 A2973 RMK AO2 SNE05 SLP070 P0000 60001 T00061033 51014=
201702072003 SPECI KCLM 072003Z AUTO VRB05KT 6SM -SN FEW015 OVC019 01/M02 A2972 RMK AO2 P0000 T00061022=
201702071953 METAR KCLM 071953Z AUTO VRB03KT 2SM -SN BR BKN015 OVC019 00/M02 A2972 RMK AO2 SLP068 P0001 T00001017=
201702071929 SPECI KCLM 071929Z AUTO VRB04KT 1 3/4SM -SN BR FEW008 BKN015 OVC019 00/M01 A2972 RMK AO2 P0001 T00001011=
201702071918 SPECI KCLM 071918Z AUTO 02005KT 1SM -SN BR SCT008 OVC014 00/M01 A2972 RMK AO2 P0001 T00001011=
201702071911 SPECI KCLM 071911Z AUTO VRB03KT 3/4SM -SN BR BKN008 OVC014 00/M01 A2971 RMK AO2 CIG 005V010 P0001 T00001011=
201702071853 METAR KCLM 071853Z AUTO 00000KT 1SM -SN BR BKN007 OVC012 00/M01 A2971 RMK AO2 SNB1759 SLP063 P0000 T00001011=
201702071813 SPECI KCLM 071813Z AUTO 27007KT 1SM -SN BR BKN005 OVC014 M01/M02 A2969 RMK AO2 SNB1759 CIG 004V011 P0000 T10061017=
201702071805 SPECI KCLM 071805Z AUTO 30006KT 2 1/2SM -SN BR BKN007 BKN014 OVC021 M01/M02 A2969 RMK AO2 SNB1759 CIG 004V011 P0000 T10111017=
201702071800 SPECI KCLM 071800Z AUTO 27006KT 4SM -SN BR SCT008 BKN014 OVC021 M01/M02 A2969 RMK AO2 SNB1759 P0000 T10061022=
201702071753 METAR KCLM 071753Z AUTO 29009KT 9SM FEW010 BKN014 OVC021 M01/M03 A2969 RMK AO2 SLP056 60006 I6001 T10111028 10006 21022 53015=
201702071728 SPECI KCLM 071728Z AUTO 24005KT 10SM BKN023 OVC039 M02/M03 A2968 RMK AO2 T10171028=
201702071653 METAR KCLM 071653Z AUTO 24007KT 10SM CLR M02/M03 A2967 RMK AO2 SLP050 T10221033=
201702071620 SPECI KCLM 071620Z AUTO 23006KT 10SM SCT026 M02/M03 A2966 RMK AO2 T10221028=
201702071611 SPECI KCLM 071611Z AUTO 24007KT 10SM FEW010 BKN026 BKN041 M02/M03 A2966 RMK AO2 T10221028=
201702071553 METAR KCLM 071553Z AUTO 24008KT 10SM FEW010 SCT019 OVC042 M02/M03 A2965 RMK AO2 UPB1457E04SNE1457 SLP044 P0000 T10171028=
201702071539 SPECI KCLM 071539Z AUTO 25006KT 10SM SCT010 BKN019 OVC028 M01/M02 A2965 RMK AO2 UPB1457E04SNE1457 P0000 T10111022=
201702071522 SPECI KCLM 071522Z AUTO 24008KT 10SM SCT005 BKN011 OVC028 M01/M02 A2965 RMK AO2 UPB1457E04SNE1457 P0000 T10111017=
201702071515 SPECI KCLM 071515Z AUTO 24006KT 10SM BKN005 BKN011 OVC028 M01/M01 A2965 RMK AO2 UPB1457E04SNE1457 CIG 003V007 P0000 T10111011=
201702071453 METAR KCLM 071453Z AUTO 27011KT 5SM -SN BR BKN002 OVC011 M01/M01 A2965 RMK AO2 SLP041 P0005 60006 I3001 T10111011 55017=
201702071451 SPECI KCLM 071451Z AUTO 26011G14KT 5SM -SN BR OVC002 00/00 A2964 RMK AO2 P0005=
201702071442 SPECI KCLM 071442Z AUTO VRB06KT 2SM -SN BR OVC002 01/01 A2964 RMK AO2 P0005 T00060006=
201702071429 SPECI KCLM 071429Z AUTO VRB06KT 3/4SM -SN BR OVC002 00/00 A2965 RMK AO2 P0005 T00000000=
201702071353 METAR KCLM 071353Z AUTO VRB03KT 1 1/4SM -SN BR OVC003 M01/M01 A2968 RMK AO2 SLP053 P0001 T10061006=
201702071340 SPECI KCLM 071340Z AUTO 00000KT 2SM -SN BR OVC004 00/00 A2969 RMK AO2 P0000 T00000000=
201702071330 SPECI KCLM 071330Z AUTO VRB03KT 3SM -SN BR OVC004 M01/M01 A2969 RMK AO2 P0000 T10061011=
201702071318 SPECI KCLM 071318Z AUTO 00000KT 1 1/4SM -SN BR OVC004 M01/M01 A2969 RMK AO2 P0000 T10061006=
201702071310 SPECI KCLM 071310Z AUTO VRB03KT 2SM -SN BR OVC004 M01/M01 A2969 RMK AO2 P0000 T10111011=
201702071300 SPECI KCLM 071300Z AUTO 21004KT 3SM -SN BR BKN004 OVC017 M01/M02 A2969 RMK AO2 P0000 T10111017=
201702071253 METAR KCLM 071253Z AUTO 23005KT 4SM -SN BR SCT004 BKN017 OVC028 M02/M02 A2969 RMK AO2 UPB49E51SNB51 SLP058 P0000 I1001 T10171022=
201702071244 SPECI KCLM 071244Z AUTO 25003KT 10SM FEW007 BKN017 OVC028 M02/M03 A2970 RMK AO2 I1001 T10171028=
201702071153 METAR KCLM 071153Z AUTO 27005KT 10SM SCT024 OVC031 M01/M02 A2971 RMK AO2 SLP065 60002 70029 T10111017 10000 21017 56005=
201702071053 METAR KCLM 071053Z AUTO 00000KT 10SM FEW019 BKN029 OVC035 M01/M01 A2973 RMK AO2 SLP070 T10111011=
201702071048 SPECI KCLM 071048Z AUTO 19004KT 10SM FEW011 SCT019 OVC033 M01/M01 A2973 RMK AO2=
201702071037 SPECI KCLM 071037Z AUTO 19003KT 8SM SCT012 BKN018 OVC030 M02/M02 A2973 RMK AO2 T10171017=
201702071027 SPECI KCLM 071027Z AUTO 17003KT 7SM BKN012 BKN018 OVC023 M02/M02 A2973 RMK AO2 T10171017=
201702071015 SPECI KCLM 071015Z AUTO 15003KT 10SM BKN016 BKN023 OVC030 M01/M01 A2973 RMK AO2 T10111011=
201702070953 METAR KCLM 070953Z AUTO 15003KT 7SM OVC014 M01/M01 A2973 RMK AO2 SNE26 SLP071 P0000 T10111011=
201702070918 SPECI KCLM 070918Z AUTO 00000KT 3SM -SN BR BKN010 BKN017 OVC022 00/00 A2974 RMK AO2 CIG 008V013 P0000 T00000000=
201702070909 SPECI KCLM 070909Z AUTO 17003KT 4SM -SN BR SCT010 BKN017 OVC022 00/00 A2974 RMK AO2 P0000 T00000000=
201702070900 SPECI KCLM 070900Z AUTO 13005KT 2SM -SN BR BKN010 OVC014 00/00 A2974 RMK AO2 CIG 007V013 P0000 T00000000=
201702070853 METAR KCLM 070853Z AUTO 12004KT 2SM -SN BR SCT008 OVC016 00/00 A2975 RMK AO2 SLP075 P0000 60002 T00000000 51009=
201702070849 SPECI KCLM 070849Z AUTO 14004KT 2 1/2SM -SN BR BKN008 OVC014 00/00 A2975 RMK AO2 CIG 005V013 P0000=
201702070845 SPECI KCLM 070845Z AUTO 13005KT 3SM -SN BR SCT008 OVC014 00/00 A2975 RMK AO2 P0000 T00000000=
201702070832 SPECI KCLM 070832Z AUTO 12004KT 2 1/2SM -SN BR BKN008 OVC014 00/00 A2975 RMK AO2 CIG 005V010 P0000 T00000000=
201702070809 SPECI KCLM 070809Z AUTO 13005KT 2SM -SN BR BKN010 BKN014 OVC021 M01/M01 A2975 RMK AO2 P0000 T10061006=
201702070753 METAR KCLM 070753Z AUTO 14004KT 2SM -SN BR SCT008 BKN012 OVC024 M01/M01 A2974 RMK AO2 SNE30B39 SLP075 P0000 T10061006 400061022=
201702070750 SPECI KCLM 070750Z AUTO 14004KT 1 3/4SM -SN BR SCT008 BKN014 OVC024 00/00 A2974 RMK AO2 SNE30B39 P0000=
201702070742 SPECI KCLM 070742Z AUTO 14005KT 2 1/2SM -SN BR BKN009 OVC015 00/00 A2974 RMK AO2 SNE30B39 P0000 T00000000=
201702070735 SPECI KCLM 070735Z AUTO 14005KT 5SM BR SCT009 OVC015 M01/M01 A2974 RMK AO2 SNE30 P0000 T10061006=
201702070721 SPECI KCLM 070721Z AUTO 12005KT 5SM -SN BR BKN006 OVC013 00/00 A2974 RMK AO2 CIG 004V009 P0000 T00000000=
201702070713 SPECI KCLM 070713Z AUTO 00000KT 5SM -SN BR SCT004 OVC011 00/00 A2974 RMK AO2 P0000 T00000000=
201702070710 SPECI KCLM 070710Z AUTO 08003KT 3SM -SN BR BKN004 OVC011 00/00 A2974 RMK AO2 CIG 003V009 P0000 T00000000=
201702070653 METAR KCLM 070653Z AUTO 12006KT 1 1/4SM -SN BR OVC004 00/00 A2974 RMK AO2 SLP073 P0002 T00000000=
201702070627 SPECI KCLM 070627Z AUTO VRB03KT 1 3/4SM -SN BR OVC004 00/00 A2973 RMK AO2 P0000 T00000000=
201702070614 SPECI KCLM 070614Z AUTO 10004KT 2SM -SN BR OVC004 00/00 A2973 RMK AO2 CIG 003V008 P0000 T00000000=
201702070553 METAR KCLM 070553Z AUTO 00000KT 1 3/4SM -SN BR OVC003 00/00 A2972 RMK AO2 SLP066 P0001 60019 T00000000 10000 21006 51023=
201702070530 SPECI KCLM 070530Z AUTO 14005KT 1 1/2SM -SN BR OVC003 00/00 A2971 RMK AO2 P0000 T00000000=
201702070516 SPECI KCLM 070516Z AUTO 11004KT 1 1/2SM -SN BR OVC005 00/00 A2970 RMK AO2 CIG 003V010 P0000 T00000000=
201702070505 SPECI KCLM 070505Z AUTO 10007KT 2SM -SN BR OVC005 00/M01 A2969 RMK AO2 CIG 003V010 P0000 T00001006=
201702070453 METAR KCLM 070453Z AUTO 00000KT 1 1/2SM -SN BR OVC006 00/00 A2969 RMK AO2 CIG 003V008 SLP055 P0002 T00000000=
201702070451 SPECI KCLM 070451Z AUTO 00000KT 1 1/2SM -SN BR OVC006 00/00 A2968 RMK AO2 CIG 004V010 P0002=
201702070443 SPECI KCLM 070443Z AUTO 17004KT 2SM -SN BR OVC006 00/00 A2968 RMK AO2 CIG 004V010 P0002 T00000000=
201702070427 SPECI KCLM 070427Z AUTO 17004KT 2 1/2SM -SN BR OVC004 00/00 A2967 RMK AO2 CIG 002V008 P0000 T00000000=
201702070408 SPECI KCLM 070408Z AUTO 11003KT 1 1/4SM -SN BR OVC002 00/00 A2965 RMK AO2 P0000 T00000000=
201702070353 METAR KCLM 070353Z AUTO VRB04KT 1/2SM SN FG OVC003 00/00 A2965 RMK AO2 SLP042 P0006 T00000000=
201702070351 SPECI KCLM 070351Z AUTO VRB03KT 1/2SM SN FG OVC003 00/M01 A2965 RMK AO2 P0005=
201702070309 SPECI KCLM 070309Z AUTO VRB04KT 1 1/4SM -SN BR OVC002 00/00 A2963 RMK AO2 P0002 T00000000=
201702070253 METAR KCLM 070253Z AUTO 06006KT 1/2SM SN FG OVC002 00/00 A2962 RMK AO2 SNB0157 SLP032 P0006 60010 T00000000 53020=
201702070234 SPECI KCLM 070234Z AUTO VRB04KT 1/2SM SN FG OVC004 00/00 A2961 RMK AO2 SNB0157 P0005 T00000000=
201702070226 SPECI KCLM 070226Z AUTO VRB05KT 3/4SM -SN BR SCT002 BKN008 OVC015 00/00 A2961 RMK AO2 SNB0157 P0003 T00000000=
201702070213 SPECI KCLM 070213Z AUTO 00000KT 1SM -SN BR FEW006 BKN015 OVC025 00/00 A2960 RMK AO2 SNB0157 P0002 T00000000=
201702070209 SPECI KCLM 070209Z AUTO 00000KT 3/4SM -SN BR SCT015 OVC029 00/M01 A2960 RMK AO2 SNB0157 P0002 T00001006=
201702070202 SPECI KCLM 070202Z AUTO 00000KT 1 1/2SM -SN BR FEW013 BKN035 OVC070 M01/M01 A2959 RMK AO2 SNB0157 P0002 T10061006=
201702070153 METAR KCLM 070153Z AUTO 10003KT 6SM BR BKN041 BKN075 OVC090 M01/M01 A2959 RMK AO2 SNE12 SLP023 P0000 T10061006=
201702070116 SPECI KCLM 070116Z AUTO 00000KT 4SM BR BKN044 OVC070 M01/M01 A2956 RMK AO2 SNE12 P0000 T10061006=
201702070107 SPECI KCLM 070107Z AUTO 13005KT 2 1/2SM -SN BR BKN030 BKN070 OVC085 M01/M01 A2955 RMK AO2 P0000 T10061006=
201702070053 METAR KCLM 070053Z AUTO 11003KT 1SM -SN BR OVC021 00/00 A2956 RMK AO2 SLP011 P0004 T00000000=
201702070038 SPECI KCLM 070038Z AUTO 16003KT 3/4SM -SN BR VV018 M01/M01 A2956 RMK AO2 P0004 T10061006=
201702070024 SPECI KCLM 070024Z AUTO 00000KT 1/2SM SN FG VV013 00/00 A2955 RMK AO2 P0003 T00000000=
201702062352 METAR KCLM 062352Z AUTO 00000KT 1/4SM +SN FZFG VV011 M01/M01 A2953 RMK AO2 SLP004 P0003 60006 T10061006 10006 21011 53013=
201702062351 SPECI KCLM 062351Z AUTO 00000KT 1/4SM +SN FZFG VV011 M01/M01 A2953 RMK AO2 P0003=
201702062338 SPECI KCLM 062338Z AUTO 11006KT 1/2SM SN FZFG VV015 M01/M01 A2953 RMK AO2 P0001 T10061006=
201702062335 SPECI KCLM 062335Z AUTO 12006KT 1/4SM +SN FZFG VV014 M01/M01 A2953 RMK AO2 P0001 T10061006=
201702062324 SPECI KCLM 062324Z AUTO 11005KT 1/2SM SN FZFG VV015 M01/M01 A2952 RMK AO2 P0001 T10061011=
201702062253 METAR KCLM 062253Z AUTO 14008KT 1/2SM SN FZFG FEW005 OVC010 M01/M01 A2951 RMK AO2 SNB05 SLP997 P0003 T10061006=
201702062235 SPECI KCLM 062235Z AUTO 12007KT 1/4SM +SN FZFG VV011 M01/M01 A2950 RMK AO2 SNB05 P0000 T10061011=
201702062217 SPECI KCLM 062217Z AUTO 14006KT 1/2SM SN FG BKN018 OVC027 00/M02 A2951 RMK AO2 SNB05 P0000 T00001017=
201702062207 SPECI KCLM 062207Z AUTO 11003KT 1 3/4SM -SN BR FEW018 BKN024 OVC029 00/M02 A2950 RMK AO2 SNB05 P0000 T00001022=
201702062153 METAR KCLM 062153Z AUTO 14003KT 10SM SCT016 BKN026 OVC046 00/M02 A2950 RMK AO2 SNE18 SLP994 P0000 T00001017=
201702062053 METAR KCLM 062053Z AUTO 12004KT 3SM -SN BR OVC020 01/M02 A2950 RMK AO2 SNE30B43 SLP991 P0000 60000 T00061017 51015=
201702062041 SPECI KCLM 062041Z AUTO 12006KT 9SM BKN020 BKN033 OVC060 00/M02 A2949 RMK AO2 SNE30 P0000 T00001022=
201702062025 SPECI KCLM 062025Z AUTO 13003KT 5SM -SN BR FEW022 BKN034 OVC060 M01/M02 A2949 RMK AO2 P0000 T10061022=
201702062017 SPECI KCLM 062017Z AUTO 13003KT 2 1/2SM -SN BR SCT022 BKN034 OVC060 M01/M02 A2949 RMK AO2 P0000 T10061017=
201702061955 SPECI KCLM 061955Z AUTO 14005KT 1 1/2SM -SN BR BKN024 BKN029 OVC035 M01/M02 A2949 RMK AO2 P0000 T10061022=
201702061953 METAR KCLM 061953Z AUTO 13006KT 3SM -SN BR BKN026 OVC035 M01/M02 A2949 RMK AO2 SNB31 SLP987 P0000 T10061022=
201702061853 METAR KCLM 061853Z AUTO 12004KT 10SM SCT030 BKN039 M01/M03 A2947 RMK AO2 SNE06B26E38 SLP982 P0000 T10111028=
201702061815 SPECI KCLM 061815Z AUTO 12006KT 10SM FEW027 BKN046 OVC055 M01/M03 A2946 RMK AO2 SNE06 P0000 T10111028=
201702061753 METAR KCLM 061753Z AUTO 12007KT 4SM -SN BR BKN025 OVC055 M01/M03 A2945 RMK AO2 SLP976 P0002 60002 T10111028 11011 21022 51010=
201702061746 SPECI KCLM 061746Z AUTO 13009KT 3SM -SN BR OVC025 M01/M03 A2945 RMK AO2 P0002 T10111028=
201702061705 SPECI KCLM 061705Z AUTO 12007KT 1 3/4SM -SN BR OVC019 M01/M02 A2944 RMK AO2 P0000 T10111022 $=
201702061653 METAR KCLM 061653Z AUTO 12007KT 4SM -SN BR OVC021 M01/M02 A2944 RMK AO2 SLP971 P0000 T10111022 $=
201702061649 SPECI KCLM 061649Z AUTO 11006KT 2 1/2SM -SN BR OVC021 M01/M02 A2944 RMK AO2 P0000 $=
201702061636 SPECI KCLM 061636Z AUTO 13010KT 1 1/4SM -SN BR OVC023 M02/M02 A2943 RMK AO2 P0000 T10171022 $=
201702061626 SPECI KCLM 061626Z AUTO 12010KT 2 1/2SM -SN BR OVC023 M02/M02 A2942 RMK AO2 P0000 T10171022 $=
201702061601 SPECI KCLM 061601Z AUTO 12009KT 1 1/4SM -SN BR OVC023 M02/M03 A2942 RMK AO2 P0000 T10171028 $=
201702061553 METAR KCLM 061553Z AUTO 11010KT 2 1/2SM -SN BR FEW016 BKN025 OVC032 M02/M03 A2942 RMK AO2 SNE22B49 SLP966 P0000 T10171028 $=
201702061502 SPECI KCLM 061502Z AUTO 13012KT 5SM -SN BR FEW014 BKN019 OVC065 M02/M03 A2940 RMK AO2 P0000 T10221028 $=
201702061453 METAR KCLM 061453Z AUTO 12012KT 2 1/2SM -SN BR FEW012 OVC021 M02/M03 A2940 RMK AO2 SLP958 P0000 60000 T10171028 52017 $=
201702061445 SPECI KCLM 061445Z AUTO 11010KT 1 1/4SM -SN BR FEW008 SCT012 OVC023 M02/M02 A2939 RMK AO2 P0000 T10171022 $=
201702061436 SPECI KCLM 061436Z AUTO 10011KT 1 3/4SM -SN BR FEW008 BKN032 OVC049 M02/M02 A2939 RMK AO2 P0000 T10171022 $=
201702061426 SPECI KCLM 061426Z AUTO 11009KT 5SM -SN BR FEW009 OVC048 M02/M02 A2939 RMK AO2 P0000 T10171022 $=
201702061417 SPECI KCLM 061417Z AUTO 11009KT 4SM -SN BR OVC049 M02/M02 A2939 RMK AO2 P0000 T10171022 $=
201702061404 SPECI KCLM 061404Z AUTO 11009KT 2 1/2SM -SN BR SCT026 OVC045 M02/M02 A2939 RMK AO2 P0000 T10171022 $=
201702061353 METAR KCLM 061353Z AUTO 11008KT 2 1/2SM -SN BR BKN019 OVC045 M02/M02 A2938 RMK AO2 SNB31 SLP952 P0000 T10171022 $=
201702061345 SPECI KCLM 061345Z AUTO 12009KT 1 1/4SM -SN BR OVC025 M01/M02 A2938 RMK AO2 SNB31 P0000 T10111022 $=
201702061337 SPECI KCLM 061337Z AUTO 12008KT 2 1/2SM -SN BR OVC027 M01/M02 A2938 RMK AO2 SNB31 P0000 T10111022 $=
201702061253 METAR KCLM 061253Z AUTO 11006KT 8SM OVC050 M01/M02 A2937 RMK AO2 SNE52 SLP947 P0000 T10111022 $=
201702061241 SPECI KCLM 061241Z AUTO 12007KT 4SM -SN BR FEW014 OVC046 M01/M02 A2936 RMK AO2 P0000 T10111022 $=
201702061225 SPECI KCLM 061225Z AUTO 12007KT 2 1/2SM -SN BR FEW014 OVC041 M01/M02 A2935 RMK AO2 P0000 T10111022 $=
201702061206 SPECI KCLM 061206Z AUTO 12007KT 7SM -SN BKN038 OVC046 M01/M02 A2935 RMK AO2 P0000 T10111017 $=
201702061157 SPECI KCLM 061157Z AUTO 13007KT 2SM -SN BR BKN030 OVC046 M01/M02 A2935 RMK AO2 P0000 T10111017 $=
201702061153 METAR KCLM 061153Z AUTO 13006KT 1 1/2SM -SN BR BKN028 OVC046 M01/M02 A2935 RMK AO2 SLP941 P0000 60012 70038 T10111017 11006 21011 53004 $=
201702061149 SPECI KCLM 061149Z AUTO 13006KT 1 1/2SM -SN BR BKN026 OVC046 M01/M02 A2935 RMK AO2 P0000 $=
201702061142 SPECI KCLM 061142Z AUTO 13007KT 2SM -SN BR OVC028 M01/M02 A2935 RMK AO2 P0000 T10111017 $=
201702061053 METAR KCLM 061053Z AUTO 14007KT 4SM -SN BR BKN045 OVC055 M01/M02 A2934 RMK AO2 SLP936 P0001 T10111017 $=
201702061034 SPECI KCLM 061034Z AUTO 13007KT 3SM -SN BR SCT012 OVC035 M01/M02 A2934 RMK AO2 P0001 T10111017 $=
201702061029 SPECI KCLM 061029Z AUTO 13007KT 2 1/2SM -SN BR BKN012 OVC033 M01/M02 A2934 RMK AO2 P0001 T10111017 $=
201702061020 SPECI KCLM 061020Z AUTO 13006KT 3SM -SN BR FEW009 BKN012 OVC031 M01/M02 A2934 RMK AO2 P0001 T10111017 $=
201702061012 SPECI KCLM 061012Z AUTO 13006KT 2 1/2SM -SN BR SCT009 BKN014 OVC031 M01/M02 A2934 RMK AO2 P0001 T10111017 $=
201702060953 METAR KCLM 060953Z AUTO 13006KT 1 3/4SM -SN BR SCT007 OVC012 M01/M02 A2934 RMK AO2 SLP936 P0002 T10111017 $=
201702060853 METAR KCLM 060853Z AUTO 15006KT 1 1/2SM -SN BR BKN006 OVC011 M01/M02 A2934 RMK AO2 CIG 005V010 SLP938 P0006 60009 T10111017 51005 $=
201702060822 SPECI KCLM 060822Z AUTO 14004KT 1 1/2SM -SN BR BKN008 OVC014 M01/M02 A2934 RMK AO2 CIG 007V010 P0003 T10111017 $=
201702060802 SPECI KCLM 060802Z AUTO VRB03KT 1 1/2SM -SN BR BKN013 OVC020 M01/M02 A2934 RMK AO2 P0001 T10061017 $=
201702060753 METAR KCLM 060753Z AUTO 07007KT 2SM -SN BR BKN013 OVC022 M01/M02 A2934 RMK AO2 SNE18B41 SLP938 P0000 T10061017 400391011 $=
201702060708 SPECI KCLM 060708Z AUTO VRB06KT 5SM -SN BR BKN010 BKN017 OVC025 M01/M01 A2934 RMK AO2 CIG 007V014 P0000 T10061011=
201702060700 SPECI KCLM 060700Z AUTO VRB04KT 3SM -SN BR BKN008 BKN012 OVC025 M01/M01 A2934 RMK AO2 P0000 T10061011=
201702060653 METAR KCLM 060653Z AUTO VRB06G16KT 1 3/4SM -SN BR BKN009 OVC018 M01/M01 A2934 RMK AO2 CIG 007V013 SLP936 P0003 T10061011=
201702060629 SPECI KCLM 060629Z AUTO VRB05G15KT 1 1/4SM -SN BR BKN007 OVC011 M01/M01 A2932 RMK AO2 CIG 003V009 P0003 T10061011=
201702060618 SPECI KCLM 060618Z AUTO VRB04G18KT 3/4SM -SN BR OVC005 M01/M01 A2932 RMK AO2 P0003 T10061006=
201702060553 METAR KCLM 060553Z AUTO 03008KT 3/4SM -SN BR OVC002 M01/M01 A2933 RMK AO2 SLP933 P0006 60026 T10061006 10033 21006 56021=
201702060506 SPECI KCLM 060506Z AUTO VRB04KT 3/4SM -SN BR OVC002 00/00 A2934 RMK AO2 P0001 T00000000=
201702060453 METAR KCLM 060453Z AUTO 08006KT 1SM -SN BR OVC002 00/00 A2935 RMK AO2 SLP940 P0006 T00000000=
201702060417 SPECI KCLM 060417Z AUTO VRB04KT 1SM -SN BR OVC003 01/01 A2935 RMK AO2 P0003 T00060006=
201702060409 SPECI KCLM 060409Z AUTO 09007KT 2SM -SN BR OVC003 01/01 A2936 RMK AO2 P0001 T00060006=
201702060353 METAR KCLM 060353Z AUTO 10011KT 1 1/4SM -SN BR OVC003 01/01 A2936 RMK AO2 RAE02SNB02 SLP946 P0012 T00060006=
201702060318 SPECI KCLM 060318Z AUTO 08005KT 1 1/2SM -SN BR BKN004 OVC014 01/01 A2938 RMK AO2 RAE02SNB02 P0003 T00060006=
201702060312 SPECI KCLM 060312Z AUTO 08004KT 1 3/4SM -SN BR SCT008 OVC014 01/01 A2938 RMK AO2 RAE02SNB02 P0001 T00060006=
201702060305 SPECI KCLM 060305Z AUTO 09005KT 2 1/2SM -SN BR FEW008 OVC016 01/01 A2938 RMK AO2 RAE02SNB02 P0001 T00110006=
201702060302 SPECI KCLM 060302Z AUTO VRB03KT 4SM -SN BR FEW008 BKN014 OVC022 01/01 A2939 RMK AO2 RAE02SNB02 P0000 T00110006=
201702060253 METAR KCLM 060253Z AUTO 09005KT 5SM -RA BR SCT014 OVC029 01/01 A2939 RMK AO2 SLP955 P0002 60002 T00110011 58030=
201702060153 METAR KCLM 060153Z AUTO 15004KT 10SM -RA OVC040 02/01 A2942 RMK AO2 UPB0057E0059 SLP966 P0000 T00170011=
201702060053 METAR KCLM 060053Z AUTO 14005KT 10SM -RA OVC038 02/01 A2946 RMK AO2 RAB35 SLP977 P0000 T00220006=
201702052353 METAR KCLM 052353Z AUTO 00000KT 10SM OVC050 03/01 A2948 RMK AO2 SLP985 60000 T00330011 10039 20011 56029=
201702052253 METAR KCLM 052253Z AUTO 10005KT 10SM FEW013 BKN047 OVC060 03/01 A2950 RMK AO2 RAB23E52 SLP991 P0000 T00330006=
201702052243 SPECI KCLM 052243Z AUTO 10005KT 10SM -RA SCT015 BKN023 OVC055 04/01 A2950 RMK AO2 RAB23 P0000 T00390011=
201702052153 METAR KCLM 052153Z AUTO 00000KT 10SM OVC070 04/03 A2952 RMK AO2 SLP999 T00390028=
201702052053 METAR KCLM 052053Z AUTO 00000KT 10SM OVC060 04/03 A2957 RMK AO2 SLP014 60000 T00390028 58022=
201702051953 METAR KCLM 051953Z AUTO 00000KT 10SM FEW024 BKN070 OVC090 03/03 A2960 RMK AO2 RAE00 SLP025 P0000 T00330033=
201702051931 SPECI KCLM 051931Z AUTO 00000KT 10SM FEW015 OVC100 03/03 A2961 RMK AO2 RAE00 P0000 T00280028=
201702051853 METAR KCLM 051853Z AUTO 00000KT 3SM -RA BR BKN016 OVC023 02/02 A2962 RMK AO2 RAB45 SLP033 P0000 T00220022=
201702051753 METAR KCLM 051753Z AUTO 00000KT 9SM OVC021 01/01 A2963 RMK AO2 SLP037 I6000 T00110011 10011 21011 56001=
201702051733 SPECI KCLM 051733Z AUTO 00000KT 8SM BKN020 OVC075 01/01 A2963 RMK AO2 T00060006=
201702051653 METAR KCLM 051653Z AUTO 24003KT 10SM OVC090 00/00 A2963 RMK AO2 SLP037 I1000 T00000000=
201702051553 METAR KCLM 051553Z AUTO 00000KT 10SM FEW019 BKN090 BKN110 M01/M01 A2963 RMK AO2 SLP036 T10061006=
201702051453 METAR KCLM 051453Z AUTO 24003KT 10SM FEW019 BKN065 BKN120 00/00 A2963 RMK AO2 SLP037 T00000000 55002=
201702051353 METAR KCLM 051353Z AUTO 23004KT 10SM SCT070 BKN100 M01/M01 A2963 RMK AO2 SLP036 T10061006=
201702051253 METAR KCLM 051253Z AUTO 00000KT 10SM FEW065 BKN095 BKN120 00/00 A2963 RMK AO2 SLP037 T00000000=
201702051153 METAR KCLM 051153Z AUTO 28004KT 10SM BKN065 01/01 A2964 RMK AO2 RAB1057E18 SLP039 P0000 60019 70057 T00060006 10028 20006 50007=
201702051053 METAR KCLM 051053Z AUTO 17006KT 10SM FEW032 OVC045 01/01 A2964 RMK AO2 RAE10B30E42 SLP040 P0000 T00110011=
201702050953 METAR KCLM 050953Z AUTO 28004KT 9SM -RA OVC031 01/01 A2963 RMK AO2 SLP036 P0001 T00110011=
201702050945 SPECI KCLM 050945Z AUTO 26004KT 7SM -RA OVC027 02/02 A2963 RMK AO2 P0000 T00170017=
201702050922 SPECI KCLM 050922Z AUTO 21005KT 10SM -RA SCT009 SCT027 OVC037 01/01 A2963 RMK AO2 P0000 T00110011=
201702050910 SPECI KCLM 050910Z AUTO VRB04KT 10SM -RA BKN008 BKN015 OVC028 01/01 A2962 RMK AO2 P0000 T00110011=
201702050901 SPECI KCLM 050901Z AUTO 00000KT 7SM -RA SCT010 BKN013 OVC047 01/01 A2962 RMK AO2 P0000 T00110011=
201702050853 METAR KCLM 050853Z AUTO 00000KT 9SM -RA SCT013 BKN022 OVC050 01/01 A2962 RMK AO2 SLP032 P0000 60018 T00110011 51010=
201702050826 SPECI KCLM 050826Z AUTO 21003KT 10SM -RA BKN020 BKN070 OVC085 01/01 A2962 RMK AO2 P0000 T00060006=
201702050803 SPECI KCLM 050803Z AUTO 00000KT 9SM -RA BKN032 BKN070 OVC080 01/01 A2962 RMK AO2 P0000 T00060006=
201702050753 METAR KCLM 050753Z AUTO 21003KT 6SM -RA BR OVC026 01/01 A2962 RMK AO2 RAE12B35SNB12E35 SLP032 P0017 T00060006 400560006=
201702050739 SPECI KCLM 050739Z AUTO 00000KT 5SM -RA BR OVC022 01/01 A2961 RMK AO2 RAE12B35SNB12E35 P0015 T00060006=
201702050732 SPECI KCLM 050732Z AUTO 25004KT 2 1/2SM -SN BR FEW007 OVC015 01/01 A2962 RMK AO2 RAE12SNB12 P0015 T00060006=
201702050722 SPECI KCLM 050722Z AUTO 23005KT 2SM -SN BR SCT007 OVC013 01/01 A2963 RMK AO2 RAE12SNB12 P0011 T00060006=
201702050715 SPECI KCLM 050715Z AUTO 27006KT 3SM -SN BR SCT007 OVC013 01/01 A2962 RMK AO2 RAE12SNB12 P0008 T00110011=
201702050657 SPECI KCLM 050657Z AUTO 30005KT 5SM -RA BR BKN007 BKN012 OVC025 03/02 A2962 RMK AO2 P0000 T00280022=
201702050653 METAR KCLM 050653Z AUTO 30005KT 5SM -RA BR SCT007 BKN016 OVC031 03/02 A2961 RMK AO2 RAE06B28 SLP029 P0001 T00280022=
201702050643 SPECI KCLM 050643Z AUTO VRB06KT 5SM -RA BR SCT007 BKN014 OVC055 03/02 A2960 RMK AO2 RAE06B28 P0000 T00280022=
201702050553 METAR KCLM 050553Z AUTO 29006KT 10SM -RA OVC045 03/02 A2959 RMK AO2 SLP021 P0000 60015 T00280022 10050 20022 51011=
201702050453 METAR KCLM 050453Z AUTO 22004KT 9SM -RA SCT012 SCT018 OVC041 03/03 A2958 RMK AO2 SLP018 P0007 T00280028=
201702050438 SPECI KCLM 050438Z AUTO 29004KT 4SM RA BR SCT004 BKN012 OVC019 03/03 A2958 RMK AO2 P0005 T00280028=
201702050353 METAR KCLM 050353Z AUTO 27005KT 5SM -RA BR OVC004 03/03 A2957 RMK AO2 SLP015 P0002 T00330033=
201702050253 METAR KCLM 050253Z AUTO 15008KT 5SM -RA BR OVC003 03/03 A2955 RMK AO2 RAB02 SLP010 P0001 60006 T00330033 58014=
201702050153 METAR KCLM 050153Z AUTO 00000KT 9SM OVC003 03/03 A2958 RMK AO2 RAE08 SLP017 P0000 T00330033=
201702050053 METAR KCLM 050053Z AUTO VRB03KT 4SM -RA BR OVC002 04/04 A2958 RMK AO2 SLP018 P0005 T00390039=
201702050026 SPECI KCLM 050026Z AUTO VRB04KT 5SM -RA BR BKN003 OVC014 04/04 A2959 RMK AO2 CIG 002V008 P0002 T00440044=
201702050011 SPECI KCLM 050011Z AUTO 00000KT 6SM -RA BR SCT005 BKN009 OVC015 05/04 A2959 RMK AO2 CIG 007V012 P0002 T00500044=
201702042357 SPECI KCLM 042357Z AUTO 11004KT 8SM -RA SCT009 BKN012 OVC018 05/04 A2959 RMK AO2 P0000 T00500044=
201702042353 METAR KCLM 042353Z AUTO 11004KT 8SM -RA SCT012 OVC018 05/04 A2959 RMK AO2 SLP023 P0003 60013 T00500044 10056 20039 56018=
201702042333 SPECI KCLM 042333Z AUTO 09003KT 10SM -RA FEW005 SCT009 OVC016 05/04 A2960 RMK AO2 P0002 T00500044=
201702042304 SPECI KCLM 042304Z AUTO 07003KT 4SM -RA BR BKN009 OVC014 06/04 A2961 RMK AO2 CIG 006V013 P0002 T00560044=
201702042253 METAR KCLM 042253Z AUTO 00000KT 6SM -RA BR OVC012 06/04 A2962 RMK AO2 SLP030 P0001 T00560044=
201702042237 SPECI KCLM 042237Z AUTO 12003KT 10SM -RA FEW007 BKN012 OVC017 06/05 A2961 RMK AO2 P0000 T00560050=
201702042218 SPECI KCLM 042218Z AUTO 10006KT 7SM -RA SCT005 SCT008 OVC017 06/05 A2961 RMK AO2 P0000 T00560050=
201702042200 SPECI KCLM 042200Z AUTO 11005KT 5SM -RA BR BKN005 OVC012 05/05 A2962 RMK AO2 CIG 004V008 P0000 T00500050=
201702042153 METAR KCLM 042153Z AUTO 10006KT 5SM -RA BR SCT007 OVC012 05/05 A2962 RMK AO2 SLP033 P0006 T00500050=
201702042132 SPECI KCLM 042132Z AUTO 08007KT 6SM -RA BR SCT009 BKN014 OVC030 05/04 A2964 RMK AO2 P0003 T00500044=
201702042053 METAR KCLM 042053Z AUTO 08007KT 6SM -RA BR SCT020 OVC029 05/04 A2965 RMK AO2 SLP041 P0003 60003 T00500044 58001=
201702041953 METAR KCLM 041953Z AUTO 09005KT 9SM -RA OVC026 06/04 A2967 RMK AO2 RAB1856 SLP047 P0000 T00560044=
201702041936 SPECI KCLM 041936Z AUTO 09005KT 10SM -RA BKN024 OVC031 06/04 A2967 RMK AO2 RAB1856 P0000 T00560044=
201702041853 METAR KCLM 041853Z AUTO 10005KT 10SM SCT060 OVC075 06/04 A2966 RMK AO2 SLP045 T00560044=
201702041753 METAR KCLM 041753Z AUTO 13006KT 10SM OVC060 04/03 A2965 RMK AO2 RAB03E29 SLP043 P0000 60010 T00390033 10039 20017 51017=
201702041653 METAR KCLM 041653Z AUTO 14004KT 10SM FEW007 SCT050 OVC070 03/03 A2964 RMK AO2 RAE45 SLP039 P0000 T00330033=
201702041642 SPECI KCLM 041642Z AUTO 15004KT 6SM -RA BR SCT007 BKN036 OVC075 03/03 A2963 RMK AO2 P0000 T00280028=
201702041553 METAR KCLM 041553Z AUTO 22003KT 10SM -RA OVC006 02/02 A2963 RMK AO2 SLP036 P0002 T00170017=
201702041510 SPECI KCLM 041510Z AUTO 23004KT 8SM -RA OVC005 02/02 A2961 RMK AO2 P0002 T00170017=
201702041453 METAR KCLM 041453Z AUTO 22005KT 7SM -RA OVC004 02/02 A2960 RMK AO2 SLP026 P0001 60008 T00170017 53025=
201702041353 METAR KCLM 041353Z AUTO 24003KT 7SM -RA OVC004 02/02 A2957 RMK AO2 SLP015 P0006 T00170017=
201702041253 METAR KCLM 041253Z AUTO VRB03KT 8SM -RA OVC004 03/03 A2955 RMK AO2 RAB1157 SLP008 P0001 T00330028=
201702041153 METAR KCLM 041153Z AUTO 00000KT 8SM OVC004 02/02 A2953 RMK AO2 RAB41E51 SLP001 P0000 60002 70022 T00220022 10033 20017 53019=
201702041053 METAR KCLM 041053Z AUTO 22003KT 9SM OVC003 02/02 A2951 RMK AO2 RAE51 SLP994 P0000 T00170017=
201702040953 METAR KCLM 040953Z AUTO 21004KT 6SM -RA BR OVC003 02/02 A2948 RMK AO2 RAB0855 SLP984 P0002 T00220022=
201702040853 METAR KCLM 040853Z AUTO VRB04KT 7SM OVC003 03/03 A2947 RMK AO2 RAB10E34 SLP981 P0000 60000 T00280028 53015=
201702040753 METAR KCLM 040753Z AUTO 7SM OVC003 03/03 A2945 RMK AO2 UPB31E42RAB42E43 SLP974 P0000 T00280028 400330000=
201702040653 METAR KCLM 040653Z AUTO VRB05KT 5SM BR OVC003 02/02 A2943 RMK AO2 SLP970 T00220022=
201702040553 METAR KCLM 040553Z AUTO 00000KT 4SM BR OVC003 02/02 A2942 RMK AO2 RAB30E40 SLP966 P0000 60012 T00220022 10022 20006 51009=
201702040453 METAR KCLM 040453Z AUTO 11004KT 6SM BR OVC003 02/02 A2942 RMK AO2 RAE30 SLP964 P0000 T00220022=
201702040353 METAR KCLM 040353Z AUTO VRB04KT 6SM -RA BR OVC003 02/02 A2941 RMK AO2 RAB43 SLP962 P0000 T00170017=
201702040253 METAR KCLM 040253Z AUTO 07005KT 10SM OVC002 02/02 A2940 RMK AO2 RAE14 SLP957 P0000 60012 T00170017 58000=
201702040153 METAR KCLM 040153Z AUTO 33003KT 5SM -RA BR OVC004 01/01 A2940 RMK AO2 RAB03SNE03B37E52 SLP958 P0007 T00110006=
201702040128 SPECI KCLM 040128Z AUTO 21003KT 4SM RA BR OVC004 01/01 A2940 RMK AO2 RAB03SNE03 P0003 T00060006=
201702040053 METAR KCLM 040053Z AUTO 12003KT 3SM -SN BR OVC005 01/01 A2940 RMK AO2 RAE29B34E52SNB29E39B52 SLP957 P0005 T00110006=
201702040051 SPECI KCLM 040051Z AUTO VRB04KT 3SM -RA BR OVC006 01/01 A2940 RMK AO2 RAE29B34SNB29E39 P0005=
201702040031 SPECI KCLM 040031Z AUTO 00000KT 2SM -SN BR OVC007 01/01 A2941 RMK AO2 RAE29SNB29 P0003 T00060006=
201702032353 METAR KCLM 032353Z AUTO 00000KT 5SM -RA BR OVC008 01/01 A2941 RMK AO2 SLP962 P0004 60008 T00110006 10033 20011 58008=
201702032335 SPECI KCLM 032335Z AUTO 00000KT 4SM -RA BR BKN008 OVC013 01/01 A2941 RMK AO2 CIG 007V011 P0002 T00110006=
201702032320 SPECI KCLM 032320Z AUTO 00000KT 4SM -RA BR BKN010 OVC013 01/01 A2941 RMK AO2 P0002 T00110006=
201702032253 METAR KCLM 032253Z AUTO 10004KT 5SM -RA BR BKN017 OVC047 02/01 A2942 RMK AO2 UPB07E10 SLP964 P0004 T00170006=
201702032228 SPECI KCLM 032228Z AUTO 10003KT 4SM -RA BR FEW015 OVC048 02/01 A2942 RMK AO2 UPB07E10 P0002 T00220006=
201702032205 SPECI KCLM 032205Z AUTO 00000KT 10SM -RA BKN015 OVC055 03/01 A2943 RMK AO2 P0000 T00280006=
201702032153 METAR KCLM 032153Z AUTO 00000KT 10SM -RA OVC013 03/01 A2944 RMK AO2 RAE01B44 SLP970 P0000 T00280006=
201702032149 SPECI KCLM 032149Z AUTO 00000KT 10SM -RA OVC013 03/01 A2944 RMK AO2 RAE01B44 P0000=
201702032053 METAR KCLM 032053Z AUTO VRB03KT 10SM -RA OVC018 03/M01 A2947 RMK AO2 RAB52 SLP981 P0000 60000 T00281006 58032=
201702031953 METAR KCLM 031953Z AUTO VRB03KT 10SM OVC016 03/M01 A2951 RMK AO2 SLP994 T00281006=
201702031905 SPECI KCLM 031905Z AUTO 00000KT 10SM OVC015 02/M01 A2953 RMK AO2 T00221006=
201702031853 METAR KCLM 031853Z AUTO 28003KT 10SM OVC013 02/M01 A2953 RMK AO2 SLP004 T00221006=
201702031801 SPECI KCLM 031801Z AUTO 24007KT 10SM OVC013 01/M01 A2956 RMK AO2 T00111011=
201702031753 METAR KCLM 031753Z AUTO 25009KT 10SM OVC015 01/M01 A2956 RMK AO2 SLP013 60000 T00111006 10017 20000 58025=
201702031653 METAR KCLM 031653Z AUTO 24003KT 10SM OVC020 01/M01 A2959 RMK AO2 SLP022 T00061011=
201702031553 METAR KCLM 031553Z AUTO 23004KT 10SM OVC020 00/M01 A2961 RMK AO2 RAE22 SLP030 P0000 T00001011=
201702031453 METAR KCLM 031453Z AUTO 00000KT 10SM -RA BKN023 OVC034 01/M01 A2964 RMK AO2 RAB08UPB09E10 SLP039 P0000 60000 T00061011 56028=
201702031435 SPECI KCLM 031435Z AUTO 16003KT 8SM RA BKN023 BKN050 OVC070 01/M02 A2964 RMK AO2 RAB08UPB09E10 P0000 T00111017=
201702031353 METAR KCLM 031353Z AUTO 15004KT 10SM BKN075 OVC090 01/M02 A2966 RMK AO2 RAE02 SLP047 P0000 T00061017=
201702031253 METAR KCLM 031253Z AUTO 17003KT 10SM -RA BKN055 OVC070 01/M02 A2969 RMK AO2 RAB27 SLP057 P0000 T00111022=
201702031153 METAR KCLM 031153Z AUTO 11004KT 10SM BKN055 OVC075 02/M03 A2972 RMK AO2 SLP067 T00171028 10022 20006 56033=
201702031053 METAR KCLM 031053Z AUTO 00000KT 10SM OVC050 01/M03 A2975 RMK AO2 SLP076 T00111033=
201702030953 METAR KCLM 030953Z AUTO 00000KT 10SM OVC060 01/M05 A2978 RMK AO2 SLP088 T00111050=
201702030853 METAR KCLM 030853Z AUTO 00000KT 10SM OVC060 01/M06 A2982 RMK AO2 SLP100 T00111056 58036=
201702030753 METAR KCLM 030753Z AUTO 00000KT 10SM OVC075 01/M06 A2986 RMK AO2 SLP114 T00111061 400501028=
201702030653 METAR KCLM 030653Z AUTO 25006KT 10SM OVC080 02/M07 A2989 RMK AO2 SLP123 T00221072=
201702030553 METAR KCLM 030553Z AUTO 27005KT 10SM FEW120 02/M07 A2992 RMK AO2 SLP136 T00171072 10050 21006 56025=
201702030453 METAR KCLM 030453Z AUTO 26006KT 10SM CLR 01/M08 A2994 RMK AO2 SLP142 T00061078=
201702030353 METAR KCLM 030353Z AUTO 24007KT 10SM CLR 01/M08 A2998 RMK AO2 SLP154 T00061078=
201702030253 METAR KCLM 030253Z AUTO 00000KT 10SM CLR 02/M08 A3000 RMK AO2 SLP161 T00171083 56021=
201702030153 METAR KCLM 030153Z AUTO 13003KT 10SM CLR 02/M08 A3002 RMK AO2 SLP168 T00221083=
201702030053 METAR KCLM 030053Z AUTO 09009KT 10SM CLR 04/M08 A3004 RMK AO2 SLP174 T00441083=
201702022353 METAR KCLM 022353Z AUTO 09008KT 10SM CLR 05/M09 A3006 RMK AO2 SLP182 T00501089 10050 20022 56024=
201702022253 METAR KCLM 022253Z AUTO 09011G20KT 10SM CLR 05/M09 A3008 RMK AO2 SLP187 T00501089=
201702022153 METAR KCLM 022153Z AUTO 09011G18KT 10SM CLR 04/M08 A3011 RMK AO2 SLP198 T00391083=
201702022053 METAR KCLM 022053Z AUTO 09013G21KT 10SM CLR 05/M08 A3013 RMK AO2 SLP207 T00501083 58021=
201702021953 METAR KCLM 021953Z AUTO 09016G23KT 10SM CLR 04/M10 A3016 RMK AO2 SLP216 T00441100=
201702021853 METAR KCLM 021853Z AUTO 11015G19KT 10SM CLR 03/M09 A3018 RMK AO2 SLP223 T00331089=
201702021753 METAR KCLM 021753Z AUTO 11011KT 10SM CLR 02/M11 A3020 RMK AO2 SLP228 T00221106 10022 21022 58002=
201702021653 METAR KCLM 021653Z AUTO 13008KT 10SM CLR 01/M12 A3020 RMK AO2 SLP230 T00061117=
201702021553 METAR KCLM 021553Z AUTO 13009KT 10SM CLR M01/M12 A3020 RMK AO2 SLP231 T10111122=
201702021453 METAR KCLM 021453Z AUTO 12007KT 10SM CLR M02/M13 A3020 RMK AO2 SLP230 T10221128 58005=
201702021353 METAR KCLM 021353Z AUTO 10008KT 10SM CLR M01/M12 A3021 RMK AO2 SLP233 T10061122=
201702021253 METAR KCLM 021253Z AUTO 11009KT 10SM CLR M01/M12 A3022 RMK AO2 SLP235 T10061117=
201702021153 METAR KCLM 021153Z AUTO 10008KT 10SM CLR M01/M12 A3022 RMK AO2 SLP235 T10061117 10011 21028 58005=
201702021053 METAR KCLM 021053Z AUTO 12007KT 10SM CLR M02/M12 A3023 RMK AO2 SLP238 T10171117=
201702020953 METAR KCLM 020953Z AUTO 13008KT 10SM CLR M02/M11 A3023 RMK AO2 SLP240 T10221111=
201702020853 METAR KCLM 020853Z AUTO 12009KT 10SM CLR M01/M11 A3023 RMK AO2 SLP241 T10111111 58004=
201702020753 METAR KCLM 020753Z AUTO 12008KT 10SM CLR M02/M11 A3024 RMK AO2 SLP244 T10171111 400441061=
201702020653 METAR KCLM 020653Z AUTO 11008KT 10SM CLR M01/M11 A3025 RMK AO2 SLP246 T10111106=
201702020553 METAR KCLM 020553Z AUTO 10009KT 10SM CLR 01/M11 A3025 RMK AO2 SLP245 T00111106 10039 21006 56007=
201702020453 METAR KCLM 020453Z AUTO 10008KT 10SM CLR 00/M08 A3025 RMK AO2 SLP247 T00001083=
201702020353 METAR KCLM 020353Z AUTO 10007KT 10SM CLR 01/M07 A3026 RMK AO2 SLP250 T00111072=
201702020253 METAR KCLM 020253Z AUTO 11007KT 10SM CLR 01/M08 A3027 RMK AO2 SLP254 T00061083 58001=
201702020153 METAR KCLM 020153Z AUTO 11007KT 10SM CLR 02/M08 A3028 RMK AO2 SLP256 T00171083=
201702020053 METAR KCLM 020053Z AUTO 12008G15KT 10SM CLR 03/M08 A3027 RMK AO2 SLP254 T00281078=
201702012353 METAR KCLM 012353Z AUTO 10012G20KT 10SM CLR 04/M09 A3027 RMK AO2 SLP254 T00391094 10044 20017 56014=
201702012253 METAR KCLM 012253Z AUTO 08012G19KT 10SM CLR 04/M09 A3028 RMK AO2 SLP255 T00391089=
201702012153 METAR KCLM 012153Z AUTO 08011G19KT 10SM CLR 04/M07 A3029 RMK AO2 SLP260 T00391072=
201702012053 METAR KCLM 012053Z AUTO 09013KT 10SM CLR 03/M08 A3031 RMK AO2 SLP268 T00331078 58013=
201702011953 METAR KCLM 011953Z AUTO 10011KT 10SM CLR 03/M07 A3034 RMK AO2 SLP278 T00331067=
201702011853 METAR KCLM 011853Z AUTO 12008KT 10SM CLR 03/M06 A3036 RMK AO2 SLP284 T00281061=
201702011753 METAR KCLM 011753Z AUTO 11005KT 10SM CLR 02/M05 A3035 RMK AO2 SLP281 T00171050 10017 21061 57004=
201702011653 METAR KCLM 011653Z AUTO 00000KT 10SM CLR M01/M06 A3035 RMK AO2 SLP282 T10111056=
201702011553 METAR KCLM 011553Z AUTO 14003KT 10SM FEW043 M03/M06 A3036 RMK AO2 SLP285 T10331061=
201702011453 METAR KCLM 011453Z AUTO 17003KT 10SM CLR M06/M07 A3036 RMK AO2 SLP286 T10561072 58011=
201702011353 METAR KCLM 011353Z AUTO 14006KT 10SM CLR M02/M07 A3037 RMK AO2 SLP289 T10221072=
201702011253 METAR KCLM 011253Z AUTO 10005KT 10SM CLR M01/M07 A3039 RMK AO2 SLP294 T10061067=
201702011153 METAR KCLM 011153Z AUTO 12005KT 10SM FEW045 M01/M07 A3040 RMK AO2 SLP296 T10061067 10000 21044 51005=
201702011053 METAR KCLM 011053Z AUTO 14005KT 10SM CLR M04/M06 A3039 RMK AO2 SLP295 T10391061=
201702010953 METAR KCLM 010953Z AUTO VRB03KT 10SM CLR M03/M06 A3039 RMK AO2 SLP293 T10281061=
201702010853 METAR KCLM 010853Z AUTO 23004KT 10SM CLR M03/M06 A3038 RMK AO2 SLP291 T10331061 53008=
201702010753 METAR KCLM 010753Z AUTO 21008KT 10SM CLR M02/M06 A3038 RMK AO2 SLP289 T10171061 400561033=
201702010653 METAR KCLM 010653Z AUTO 23006KT 10SM CLR M02/M06 A3036 RMK AO2 SLP285 T10171056=
201702010553 METAR KCLM 010553Z AUTO 21005KT 10SM CLR M02/M05 A3036 RMK AO2 SLP283 T10171050 10044 21033 51003=
201702010453 METAR KCLM 010453Z AUTO 21004KT 10SM CLR M02/M05 A3036 RMK AO2 SLP282 T10171050=
201702010353 METAR KCLM 010353Z AUTO 00000KT 10SM CLR M03/M05 A3035 RMK AO2 SLP283 T10281050=
201702010253 METAR KCLM 010253Z AUTO 00000KT 10SM CLR M02/M06 A3035 RMK AO2 SLP281 T10221056 51012=
201702010153 METAR KCLM 010153Z AUTO 18003KT 10SM FEW055 M01/M05 A3034 RMK AO2 SLP278 T10111050=
201702010053 METAR KCLM 010053Z AUTO 09005KT 10SM CLR 03/M07 A3033 RMK AO2 SLP274 T00331072=

# No short TAF reports from KCLM in databse.

###################################
#  large TAF from KCLM
###################################
201702282323 TAF KCLM 282323Z 0100/0124 09006KT P6SM BKN070 OVC120 FM010600
                       26005KT P6SM VCSH BKN050 FM010900 27015G22KT
                       P6SM VCSH BKN050 FM011300 27018G27KT P6SM
                       BKN050 FM012000 29011KT P6SM SCT025 BKN040=
201702281736 TAF KCLM 281736Z 2818/0118 00000KT P6SM BKN040 OVC060 FM010000
                       29007KT P6SM -RA OVC040 FM010900 27011KT
                       P6SM -SHRA BKN040 BKN060 FM011200 27014KT
                       P6SM -SHRA SCT025 BKN050=
201702281421 KCLM 281421Z 2814/0112 VRB03KT P6SM BKN025 BKN045 FM281600 23006KT
                       P6SM SCT030 BKN050 FM010000 27012KT P6SM
                       -RA OVC040 FM010900 28008KT P6SM -SHRA BKN040
                       BKN060=
201702281154 TAF KCLM 281154Z 2812/0112 VRB04KT P6SM VCSH BKN030 BKN050 FM281500
                       23006KT P6SM SCT030 BKN050 FM010000 27012KT
                       P6SM -RA OVC040 FM010900 28008KT P6SM -SHRA
                       BKN040 BKN060=
201702281022 KCLM 281022Z 2810/0106 VRB04KT 5SM BR VCSH SCT020 BKN030 BKN060
                       TEMPO 2810/2813 4SM BR SCT015 BKN025 BKN060
                       FM281300 23006KT P6SM SCT030 BKN050 FM010100
                       27012KT P6SM -RA OVC035=
201702280926 KCLM 280926Z 2809/0106 VRB04KT 5SM BR VCSH FEW006 SCT012 BKN060
                       TEMPO 2809/2813 2SM BR SCT006 BKN012 BKN060
                       FM281300 23006KT P6SM BKN050 FM010100 27012KT
                       P6SM -RA OVC035=
201702280726 KCLM 280726Z 2807/0106 13005KT 6SM -SHSN SCT015 BKN025 OVC050
                      TEMPO 2807/2809 2SM -SHSN SCT006 OVC015 FM281000
                       VRB04KT 5SM BR VCSH SCT015 BKN025 BKN050
                       FM281200 23006KT P6SM BKN050 FM010100 27012KT
                       P6SM -RA OVC035=
201702280622 KCLM 280622Z 2806/0106 12005KT 5SM -SHSN BR SCT006 SCT015 OVC025
                       TEMPO 2806/2809 2SM -SN BKN006 OVC015 FM281000
                       VRB04KT 5SM BR VCSH SCT015 BKN035 FM281400
                       29006KT P6SM BKN045 FM010100 27012KT P6SM
                       -RA OVC035=
201702280526 TAF KCLM 280526Z 2806/0106 VRB03KT 3/4SM -SHSN BR OVC005 FM280700
                       24007KT P6SM SCT005 BKN030
                      TEMPO 2807/2811 3SM -SHSN BKN005 OVC015 FM281100
                       24006KT 5SM BR VCSH BKN035 FM281800 29006KT
                       P6SM SCT035 BKN050 FM010100 27012KT P6SM
                       -RA OVC035=
201702280430 KCLM 280430Z 2805/2824 VRB04KT 3SM -SN BKN006 OVC012
                      TEMPO 2805/2806 1/2SM -SN FG OVC004 FM280600
                       24008KT 3SM -SHSN SCT005 OVC012
                      TEMPO 2806/2809 1/2SM -SN FG OVC004 FM281100
                       24006KT 5SM BR VCSH BKN020 FM281800 32006KT
                       P6SM SCT035 BKN050=
201702272346 TAF KCLM 272346Z 2800/2824 VRB05KT P6SM -SHRA BKN014 OVC025
                      TEMPO 2800/2803 4SM -SHRA BR BKN008 OVC014
                       FM280300 29008KT P6SM VCSH SCT030 BKN050
                       FM280600 24006KT P6SM BKN035 FM281900 34006KT
                       P6SM SCT035 BKN050=
201702271749 TAF KCLM 271749Z 2718/2818 29006KT P6SM SCT025 BKN050
                      TEMPO 2718/2722 -SHRASN BKN020 OVC030 FM272200
                       29008KT P6SM VCSH SCT030 BKN050 FM280300
                       25006KT P6SM BKN035=
201702271126 TAF KCLM 271126Z 2712/2812 VRB03KT P6SM BKN050 FM271800 28006KT
                       P6SM VCSH BKN030 BKN050 FM280300 25006KT
                       P6SM BKN035=
201702270522 TAF KCLM 270522Z 2706/2806 VRB03KT P6SM BKN050 FM272000 26005KT
                       P6SM VCSH BKN030 BKN050 FM280300 25006KT
                       P6SM BKN035=
201702262320 TAF KCLM 262320Z 2700/2724 VRB04KT P6SM VCSH BKN035 FM270600 04006KT
                       P6SM SCT040 FM271200 21005KT P6SM VCSH BKN040=
201702262036 KCLM 262036Z 2621/2718 09010KT 2SM RA BR BKN006 OVC015 FM262300
                       09008KT 4SM -RA BR SCT006 BKN015 OVC030
                       FM270200 09008KT P6SM VCSH BKN015 BKN030
                       FM270500 09006KT P6SM VCSH SCT020 BKN040=
201702261909 KCLM 261909Z 2619/2718 09012KT P6SM -RA SCT007 OVC015
                      TEMPO 2619/2622 4SM -RASN BR BKN007 OVC015
                       FM262200 09008KT P6SM VCSH BKN015 BKN030
                       FM270500 09006KT P6SM VCSH SCT020 BKN040=
201702261720 TAF KCLM 261720Z 2618/2718 09008KT P6SM -RA SCT012 OVC025
                      TEMPO 2618/2621 4SM -RASN BR BKN012 OVC025
                       FM262100 09008KT P6SM VCSH BKN030 FM270000
                       09006KT P6SM VCSH BKN040=
201702261132 TAF KCLM 261132Z 2612/2712 VRB03KT P6SM -SHRA SCT012 OVC030
                      TEMPO 2612/2616 3SM -SHSN BR OVC012 FM261700
                       07006KT P6SM -SHSN BKN025 FM262200 08007KT
                       P6SM VCSH BKN040 FM270200 VRB03KT P6SM SCT040=
201702260705 KCLM 260705Z 2607/2706 12005KT P6SM -SHRA BKN025 OVC035 FM260900
                       VRB03KT 5SM -RASN BR BKN015 OVC030
                      TEMPO 2610/2614 3SM -SN BR OVC012 FM261700
                       07006KT P6SM -SHSN BKN025 FM262200 08007KT
                       P6SM VCSH BKN040 FM270200 VRB03KT P6SM SCT040=
201702260520 TAF KCLM 260520Z 2606/2706 VRB03KT P6SM SCT040 OVC050 FM260900
                       VRB03KT 5SM -RASN BR BKN015 OVC030
                      TEMPO 2610/2614 3SM -SN BR OVC012 FM261700
                       07006KT P6SM -SHSN BKN025 FM262200 08007KT
                       P6SM VCSH BKN040 FM270200 VRB03KT P6SM SCT040=
201702260415 KCLM 260415Z 2604/2624 VRB03KT P6SM SCT040 OVC050 FM260800 VRB04KT
                       5SM -RASN BR BKN015 OVC030
                      TEMPO 2608/2612 3SM -SN BR OVC012 FM261700
                       04006KT P6SM -SHSN BKN025 FM262200 04010KT
                       P6SM VCSH BKN040=
201702252320 TAF KCLM 252320Z 2600/2624 32010KT P6SM VCSH BKN050 FM260400 30012KT
                       P6SM -SHRA OVC040 FM260800 VRB04KT 5SM -RASN
                       BR BKN015 OVC030
                      TEMPO 2608/2612 3SM -SN BR OVC012 FM261700
                       04006KT P6SM -SHSN BKN025 FM262200 04010KT
                       P6SM VCSH BKN040=
201702251722 TAF KCLM 251722Z 2518/2618 24006KT P6SM SCT050 FM260300 VRB04KT
                       P6SM -RASN OVC030 FM261000 07007KT 5SM -RASN
                       BR BKN015 OVC030
                      TEMPO 2612/2616 3SM -SN BR OVC012=
201702251120 TAF KCLM 251120Z 2512/2612 25005KT P6SM SCT020 BKN040 FM251800
                       32010KT P6SM BKN040 FM260200 27007KT P6SM
                       -RA SCT010 OVC025 FM260800 23005KT P6SM
                       -RA BKN010=
201702250524 TAF KCLM 250524Z 2506/2606 VRB03KT P6SM BKN020 FM251000 25005KT
                       P6SM SCT020 SCT040 FM251800 32010KT P6SM
                       BKN040 FM260200 27007KT P6SM SCT010 OVC025=
201702242320 TAF KCLM 242320Z 2500/2524 VRB03KT P6SM SCT050 FM251800 VRB03KT
                       P6SM BKN040=
201702241733 TAF KCLM 241733Z 2418/2518 VRB03KT P6SM SCT030 BKN060 FM250600
                       04006KT P6SM SCT060=
201702241349 KCLM 241349Z 2414/2512 23005KT P6SM VCSH OVC090 FM242100 08004KT
                       P6SM SCT025 BKN050 FM250100 VRB03KT P6SM
                       SCT050 SCT250 FM250700 23006KT P6SM SCT250=
201702241120 TAF KCLM 241120Z 2412/2512 23004KT P6SM VCSH SCT010 SCT025
                      TEMPO 2412/2416 2SM -SHSN BR BKN005 OVC010
                       FM242100 08004KT P6SM SCT025 BKN050 FM250100
                       VRB03KT P6SM SCT050 SCT250 FM250700 23006KT
                       P6SM SCT250=
201702240520 TAF KCLM 240520Z 2406/2506 VRB03KT P6SM BKN080 FM240700 23005KT
                       P6SM SCT025 OVC050 FM241100 23004KT 6SM
                       BR VCSH SCT008 BKN018
                      TEMPO 2412/2416 1SM -SHSN BR BKN004 OVC008
                       FM242100 08004KT P6SM SCT025 BKN050 FM250100
                       VRB03KT P6SM SCT050 SCT250=
201702232349 TAF KCLM 232349Z 2400/2424 VRB03KT P6SM SCT050 FM240700 23005KT
                       P6SM SCT025 OVC040 FM241100 23004KT 6SM
                       BR VCSH SCT008 BKN018
                      TEMPO 2412/2416 1SM -SHSN BR BKN004 OVC008
                       FM242100 08004KT P6SM VCSH SCT025 BKN050=
201702231750 TAF KCLM 231750Z 2318/2418 04003KT P6SM SCT035 BKN050 FM240200
                       26005KT P6SM SCT050 FM240800 23005KT P6SM
                       SCT025 OVC040 FM241100 23004KT 6SM BR VCSH
                       SCT008 BKN018
                      TEMPO 2412/2416 1SM -SHSN BR BKN004 OVC008=
201702231400 KCLM 231400Z 2314/2412 24006KT P6SM OVC060 FM231900 06004KT P6SM
                       SCT030 SCT050 FM240200 24005KT P6SM SCT050
                       SCT100 FM240900 24005KT P6SM SCT025 OVC050=
201702231214 KCLM 231214Z 2312/2412 23006KT P6SM SCT015 BKN030
                      TEMPO 2312/2314 2SM -SN BR BKN010 FM231900
                       06004KT P6SM SCT030 SCT050 FM240200 24005KT
                       P6SM SCT050 SCT100 FM240900 24005KT P6SM
                       SCT025 OVC050=
201702231120 TAF KCLM 231120Z 2312/2412 23006KT P6SM SCT015 BKN030 FM231900
                       06004KT P6SM SCT030 SCT050 FM240200 24005KT
                       P6SM SCT050 SCT100 FM240900 24005KT P6SM
                       SCT025 OVC050=
201702230522 TAF KCLM 230522Z 2306/2406 25005KT P6SM SCT060 FM231300 23006KT
                       P6SM SCT015 FM231900 06004KT P6SM SCT030
                       SCT050 FM240200 24005KT P6SM SCT050 SCT250=
201702222340 TAF KCLM 222340Z 2300/2324 30005KT P6SM VCSH SCT030 SCT050 FM230400
                       25005KT P6SM SCT060 FM231300 23003KT P6SM
                       SCT015 FM231900 06004KT P6SM SCT030 SCT050=
201702221730 TAF KCLM 221730Z 2218/2318 32005KT P6SM VCSH SCT030 SCT050 FM230300
                       25005KT P6SM SCT050 FM231300 23003KT P6SM
                       SCT015=
201702221126 TAF KCLM 221126Z 2212/2312 25006KT P6SM SCT020 BKN050 OVC100
                      TEMPO 2214/2218 6SM -SHRA BR SCT010 OVC020
                       FM221800 33005KT P6SM VCSH SCT030 BKN050
                       BKN200
                      TEMPO 2218/2222 -SHRA BKN020 FM230000 25005KT
                       P6SM SCT050 SCT200=
201702220520 TAF KCLM 220520Z 2206/2306 26008KT P6SM SCT015 OVC050 FM221000
                       25006KT P6SM SCT020 BKN050 OVC100
                      TEMPO 2214/2218 6SM -SHRA BR SCT010 OVC015
                       FM221800 33005KT P6SM SCT030 SCT050 SCT200=
201702212342 TAF KCLM 212342Z 2200/2224 30012G20KT P6SM SCT040 BKN200 FM220600
                       26008KT P6SM SCT015 FM221000 25006KT 6SM
                       -SHRA BR SCT010 OVC015 FM221800 33005KT
                       P6SM SCT030 SCT050=
201702211752 TAF KCLM 211752Z 2118/2218 28005KT P6SM BKN015 OVC020 FM212000
                       30012G20KT P6SM SCT030 BKN200 FM220400 26008KT
                       P6SM SCT015 FM220900 25006KT 6SM -SHRA BR
                       SCT010 OVC015=
201702211121 TAF KCLM 211121Z 2112/2212 24004KT P6SM BKN010 OVC030
                      TEMPO 2112/2116 4SM BR OVC010 FM211600 26007KT
                       P6SM BKN010 OVC018 FM211800 30011KT P6SM
                       BKN150 FM220300 26009KT P6SM SCT150 SCT250=
201702210526 TAF KCLM 210526Z 2106/2206 24005KT P6SM SCT040 BKN050 OVC060
                      TEMPO 2106/2110 2SM BR OVC030 FM211400 26007KT
                       P6SM VCSH BKN010 OVC018 FM212000 29011KT
                       P6SM BKN150 FM220300 26009KT P6SM SCT150
                       SCT250=
201702202340 TAF KCLM 202340Z 2100/2124 26010G18KT P6SM -RA SCT020 BKN035 OVC050
                       FM210500 24005KT P6SM VCSH SCT030 BKN050
                       OVC100 FM211400 21004KT P6SM VCSH BKN010
                       OVC018 FM212000 29011KT P6SM BKN150=
201702201751 TAF KCLM 201751Z 2018/2118 04005KT P6SM OVC009 FM202100 29003KT
                       P6SM -RA OVC012 FM210100 26010G18KT P6SM
                       SCT020 BKN045 FM210600 24005KT P6SM SCT050
                       BKN120 FM211600 21004KT P6SM BKN012 OVC020=
201702201121 TAF KCLM 201121Z 2012/2112 19003KT P6SM SCT013 OVC027 FM201800
                       VRB03KT P6SM SCT030 BKN050 FM202200 30009KT
                       P6SM BKN050 FM210300 24004KT P6SM BKN050=
201702200900 KCLM 200900Z 2009/2106 00000KT P6SM VCSH FEW013 BKN019 OVC070 FM201800
                       VRB03KT P6SM BKN070 FM202200 30009KT P6SM
                       BKN050=
201702200536 TAF KCLM 200536Z 2006/2106 26007KT P6SM VCSH BKN070 FM201200 VRB03KT
                       P6SM BKN070 FM202200 30009KT P6SM BKN050=
201702192337 TAF KCLM 192337Z 2000/2024 VRB03KT P6SM SCT020 BKN050
                      TEMPO 2000/2004 6SM -SHRA BKN020 OVC050 FM200400
                       VRB03KT P6SM VCSH SCT025 BKN060 FM201500
                       30005KT P6SM VCSH SCT030 BKN070=
201702191737 TAF KCLM 191737Z 1918/2018 29005KT P6SM -SHRA SCT025 BKN070
                      TEMPO 1918/1922 6SM -SHRA BKN025 BKN050 FM192200
                       VRB05KT P6SM -SHRA SCT025 BKN070
                      TEMPO 1922/2002 6SM -SHRA BKN025 BKN050 FM200200
                       VRB03KT P6SM VCSH SCT025 BKN060=
201702191546 KCLM 191546Z 1916/2012 25007KT P6SM -RA SCT008 BKN020 OVC050 FM191800
                       29005KT P6SM -SHRA BKN025 BKN050 FM192200
                       VRB03KT P6SM VCSH SCT025 BKN050=
201702191125 TAF KCLM 191125Z 1912/2012 26003KT P6SM OVC010 FM191300 VRB03KT
                       4SM -RA BR OVC008 FM191800 VRB03KT P6SM
                       -SHRA BKN025 BKN050 FM192200 VRB03KT P6SM
                       VCSH SCT025 BKN050=
201702190941 KCLM 190941Z 1910/2006 23004KT P6SM OVC009 FM191300 VRB03KT 4SM
                       -RA BR OVC008 FM191800 VRB03KT P6SM -RA
                       BKN025 BKN050 FM192200 VRB03KT P6SM VCSH
                       SCT025 BKN050=
201702190902 KCLM 190902Z 1909/2006 30004KT P6SM OVC010 FM191300 VRB03KT 4SM
                       -RA BR OVC008 FM191800 VRB03KT P6SM -RA
                       BKN025 BKN050 FM192200 VRB03KT P6SM VCSH
                       SCT025 BKN050=
201702190701 KCLM 190701Z 1907/2006 24003KT P6SM SCT015 OVC035 FM191300 VRB03KT
                       4SM -RA BR OVC008 FM191800 VRB03KT P6SM
                       -RA BKN025 BKN050 FM192200 VRB03KT P6SM
                       VCSH SCT025 BKN050=
201702190520 TAF KCLM 190520Z 1906/2006 00000KT 2SM BR SCT008 OVC029 FM191300
                       VRB03KT 4SM -RA BR OVC008 FM191800 VRB03KT
                       P6SM -RA BKN025 BKN050 FM192200 VRB03KT
                       P6SM VCSH SCT025 BKN050=
201702190405 KCLM 190405Z 1904/1924 00000KT 4SM BR OVC003 FM190700 VRB03KT P6SM
                       BKN008 BKN025 OVC050 FM191300 VRB03KT P6SM
                       -RA BKN010 OVC020 FM192100 VRB03KT P6SM
                       BKN025 BKN050=
201702190314 TAF AMD KCLM 190314Z 1903/1924 09003KT 5SM -RA BR VCSH OVC027 FM190700
                       VRB03KT P6SM BKN025 OVC050 FM191300 VRB03KT
                       P6SM -RA BKN010 OVC020 FM192100 VRB03KT
                       P6SM BKN025 BKN050=
201702182341 TAF KCLM 182341Z 1900/1924 13007KT P6SM SCT006 OVC030
                      TEMPO 1900/1903 5SM -SHRA BR BKN006 OVC030
                       FM190300 VRB03KT P6SM VCSH BKN012 OVC030
                       FM191200 VRB03KT P6SM BKN025 OVC050 FM191400
                       VRB03KT P6SM -RA BKN010 OVC020=
201702182013 KCLM 182013Z 1820/1918 13007KT P6SM -RA SCT004 BKN010 OVC030
                      TEMPO 1820/1824 3SM -RA BR BKN004 OVC010
                       FM190100 25004KT P6SM SCT025 BKN050 BKN080
                       FM191500 09005KT P6SM -RA SCT025 OVC050=
201702181739 TAF KCLM 181739Z 1818/1918 13007KT P6SM -RA BKN015 OVC030 FM190100
                       25004KT P6SM SCT025 BKN050 BKN080 FM191500
                       09005KT P6SM -RA SCT025 OVC050=
201702181120 TAF KCLM 181120Z 1812/1912 13007KT P6SM OVC030 FM181500 VRB03KT
                       P6SM -RA OVC025 FM182200 30005KT P6SM SCT025
                       BKN050 OVC080=
201702180955 KCLM 180955Z 1810/1906 12005KT P6SM OVC030 FM181500 VRB03KT P6SM
                       -RA BKN025 OVC035 FM182000 30005KT P6SM
                       BKN050 OVC080=
201702180527 TAF KCLM 180527Z 1806/1906 12003KT P6SM BKN029 OVC035 FM181500
                       VRB03KT P6SM -RA BKN025 OVC035 FM182000
                       30005KT P6SM BKN050 OVC080=
201702172342 TAF KCLM 172342Z 1800/1824 03005KT P6SM BKN025 BKN200 FM180600
                       25004KT P6SM SCT025 BKN200 FM181500 VRB03KT
                       P6SM BKN100 BKN150 FM182000 31006KT P6SM
                       BKN050 OVC080=
201702172113 KCLM 172113Z 1721/1818 03005KT P6SM BKN025 BKN200 FM180000 36004KT
                       P6SM SCT025 BKN200 FM180600 27008KT P6SM
                       BKN100 FM181300 25006KT P6SM BKN050 OVC080=
201702171840 KCLM 171840Z 1719/1818 25006KT P6SM FEW006 SCT022 BKN080
                      TEMPO 1719/1721 FEW006 BKN022 BKN080 FM172100
                       33005KT P6SM FEW025 BKN200 FM180100 28006KT
                       P6SM BKN200 FM180600 27008KT P6SM BKN100
                       FM181300 25006KT P6SM BKN050 OVC080=
201702171738 TAF KCLM 171738Z 1718/1818 25006KT P6SM FEW005 SCT035 SCT080 FM172000
                       33005KT P6SM FEW035 BKN200 FM180100 28006KT
                       P6SM BKN200 FM180600 27008KT P6SM BKN100
                       FM181300 25006KT P6SM BKN050 OVC080=
201702171120 TAF KCLM 171120Z 1712/1812 00000KT P6SM SCT016 BKN028 OVC060 FM171700
                       VRB04KT P6SM SCT060 BKN100 FM180200 27007KT
                       P6SM BKN100 FM180700 25006KT P6SM OVC050=
201702170520 TAF KCLM 170520Z 1706/1806 00000KT P6SM VCSH SCT008 SCT015
                      TEMPO 1706/1709 5SM BR SCT008 BKN015 BKN025
                       FM170900 VRB03KT P6SM SCT020 BKN050 FM171800
                       VRB04KT P6SM SCT050 BKN100=
201702162320 TAF KCLM 162320Z 1700/1724 30008KT P6SM VCSH SCT020 BKN050 FM170700
                       VRB03KT P6SM SCT020 BKN050=
201702162005 KCLM 162005Z 1620/1718 VRB04KT P6SM BKN020 BKN050 FM162200 26010KT
                       P6SM SCT020 BKN050 FM170700 VRB03KT P6SM
                       SCT020 BKN050=
201702161720 TAF KCLM 161720Z 1618/1718 VRB04KT P6SM BKN015 BKN050 FM162000
                       26010KT P6SM SCT020 BKN050 FM162300 26006KT
                       P6SM SCT030 BKN050=
201702161648 KCLM 161648Z 1617/1712 VRB04KT P6SM BKN015 FM161900 26010KT P6SM
                       SCT020 BKN050 FM162300 26006KT P6SM SCT030
                       BKN050=
201702161140 TAF KCLM 161140Z 1612/1712 26008KT P6SM SCT050 FM161600 26010KT
                       P6SM SCT030 BKN050 FM162300 26006KT P6SM
                       SCT030 BKN050=
201702160544 TAF KCLM 160544Z 1606/1706 00000KT 4SM -RA BR OVC040 FM161300 26010KT
                       P6SM -SHRA BKN020 OVC040 FM162000 26006KT
                       P6SM VCSH SCT025 BKN050=
201702152320 TAF KCLM 152320Z 1600/1624 00000KT 4SM -RA BR SCT003 OVC040
                      TEMPO 1600/1604 2SM RA BR BKN003 OVC030 FM161600
                       22010KT P6SM -SHRA BKN020 OVC040 FM162000
                       26006KT P6SM VCSH SCT025 BKN050=
201702151720 TAF KCLM 151720Z 1518/1618 VRB04KT P6SM -RA SCT015 OVC050
                      TEMPO 1518/1522 5SM -RA BR BKN015 OVC050
                       FM152200 09010KT P6SM -RA BKN015 OVC030
                       FM161600 22010KT P6SM -SHRA BKN020 OVC040=
201702151519 KCLM 151519Z 1515/1612 VRB03KT P6SM SCT020 BKN050
                      TEMPO 1515/1518 1SM MIFG FM151800 VRB03KT
                       P6SM -RA BKN025 OVC045 FM161000 27003KT
                       6SM -RA OVC045=
201702151200 KCLM 151200Z 1512/1612 VRB03KT 5SM -RA BR BKN020 OVC050
                      TEMPO 1512/1516 3SM -RA BR BKN003 BKN015
                       OVC040 FM151800 VRB03KT P6SM -RA BKN025
                       OVC045 FM161000 27003KT 6SM -RA OVC045=
201702151125 TAF KCLM 151125Z 1512/1612 VRB03KT 4SM -RA BR SCT080 OVC100 FM151800
                       VRB03KT P6SM -RA BKN025 OVC045 FM161000
                       27003KT 6SM -RA OVC045=
201702150520 TAF KCLM 150520Z 1506/1606 17003KT P6SM -RA BKN090 OVC110 FM151000
                       10002KT P6SM -RA OVC030 FM151800 00000KT
                       P6SM -RA BKN025 OVC045=
201702142331 TAF KCLM 142331Z 1500/1524 VRB05KT P6SM OVC100 FM150100 07005KT
                       P6SM -RA BKN045 OVC070 FM151100 07006KT
                       P6SM -RA BKN025 OVC045 FM151400 VRB04KT
                       4SM -RA BR OVC015 FM152200 VRB03KT P6SM
                       -RA SCT015 OVC030=
201702141720 TAF KCLM 141720Z 1418/1518 VRB04KT P6SM BKN200 FM142000 09004KT
                       P6SM OVC120 FM150000 07005KT P6SM -RA BKN045
                       OVC090 FM151100 07006KT P6SM -RA BKN025
                       OVC045 FM151400 VRB04KT 4SM -RA BR OVC015=
201702141339 KCLM 141339Z 1414/1512 24004KT P6SM SCT008 SCT200
                      TEMPO 1414/1416 BKN005 FM141600 00000KT P6SM
                       BKN200 FM142000 07004KT P6SM OVC120 FM150000
                       07005KT P6SM -RA BKN045 OVC090 FM151100
                       07006KT P6SM -RA SCT025 OVC045=
201702141123 TAF KCLM 141123Z 1412/1512 00000KT P6SM SCT200 FM141500 00000KT
                       P6SM BKN200 FM142000 07004KT P6SM OVC120
                       FM150000 07005KT P6SM -RA BKN045 OVC090
                       FM151100 07006KT P6SM -RA SCT025 OVC045=
201702140529 TAF KCLM 140529Z 1406/1506 00000KT P6SM SCT200 FM141800 VRB03KT
                       P6SM SCT120 OVC200 FM150200 07004KT P6SM
                       -RA BKN045 OVC100=
201702132320 TAF KCLM 132320Z 1400/1424 10004KT P6SM SKC FM140200 VRB03KT P6SM
                       SCT250 FM141000 VRB03KT P6SM BKN250=
201702131720 TAF KCLM 131720Z 1318/1418 10004KT P6SM SKC FM140200 VRB03KT P6SM
                       SCT250=
201702131120 TAF KCLM 131120Z 1312/1412 00000KT 2SM BR SKC
                      TEMPO 1312/1316 BKN002 FM131600 07004KT P6SM
                       SKC=
201702130522 TAF KCLM 130522Z 1306/1406 22004KT P6SM SKC FM131200 VRB03KT P6SM
                       SKC=
201702122344 TAF KCLM 122344Z 1300/1324 09005KT P6SM SCT012 SCT200 FM130300
                       10006KT P6SM SKC FM131200 12007KT P6SM SKC=
201702122140 KCLM 122140Z 1222/1318 09005KT P6SM SCT011 SCT200
                      TEMPO 1222/1224 OVC011 FM130300 09006KT P6SM
                       SKC=
201702121731 TAF KCLM 121731Z 1218/1318 VRB04KT P6SM BKN200 FM122000 09005KT
                       P6SM SCT200 FM130300 09006KT P6SM SKC=
201702121120 TAF KCLM 121120Z 1212/1312 25005KT P6SM SCT010 BKN200
                      TEMPO 1212/1216 BKN010 FM121600 22005KT P6SM
                       SCT004 BKN200 FM121800 27004KT P6SM SCT200
                       FM122000 09004KT P6SM SKC FM130300 21004KT
                       P6SM SKC=
201702121049 KCLM 121049Z 1211/1306 24006KT P6SM BKN011 FM121600 VRB03KT P6SM
                       SCT200 FM122000 08005KT P6SM SKC FM130300
                       VRB03KT P6SM SKC=
201702120526 TAF KCLM 120526Z 1206/1306 25010KT P6SM BKN200 FM121000 23005KT
                       P6SM SCT200 FM121600 VRB03KT P6SM SCT200
                       FM122000 08005KT P6SM SKC FM130300 VRB03KT
                       P6SM SKC=
201702112339 TAF KCLM 112339Z 1200/1224 12005KT P6SM BKN050 FM120300 VRB04KT
                       P6SM SCT050 SCT200 FM121800 VRB04KT P6SM
                       SKC=
201702111722 TAF KCLM 111722Z 1118/1218 23006KT P6SM BKN060 BKN200 FM112100
                       VRB04KT P6SM SCT070 BKN200=
201702111134 TAF KCLM 111134Z 1112/1212 VRB03KT P6SM BKN060 FM112200 VRB03KT
                       P6SM BKN200=
201702110536 TAF KCLM 110536Z 1106/1206 26008KT P6SM BKN050 BKN080 FM111000
                       26008KT P6SM BKN060 FM111800 VRB03KT P6SM
                       BKN060=
201702102349 TAF KCLM 102349Z 1100/1124 29018G35KT P6SM -SHRA BKN030 BKN045
                       FM110600 27012G24KT P6SM SCT030 BKN050 FM111000
                       27010KT P6SM BKN050 FM111400 29006KT P6SM
                       BKN070=
201702101720 TAF KCLM 101720Z 1018/1118 VRB03KT P6SM -SHRA BKN030 BKN045 FM102000
                       28022G35KT P6SM VCSH BKN030 BKN045 FM110300
                       27014G25KT P6SM BKN040 FM111000 26010KT
                       P6SM BKN040=
201702101125 TAF KCLM 101125Z 1012/1112 12004KT P6SM VCSH SCT030 BKN040
                      TEMPO 1012/1016 -SHRA BKN030 FM101800 28012G22KT
                       P6SM VCSH BKN030 BKN040 FM102000 28025G35KT
                       P6SM BKN030 FM110300 27012KT P6SM SCT040=
201702100532 TAF KCLM 100532Z 1006/1106 VRB05KT P6SM VCSH SCT030 BKN060 FM101200
                       23004KT P6SM VCSH BKN020 OVC030 FM101900
                       28012G22KT P6SM BKN030 FM102100 28020G35KT
                       P6SM BKN030=
201702092320 TAF KCLM 092320Z 1000/1024 25008KT P6SM FEW003 OVC050
                      TEMPO 1000/1003 4SM -SHRA BR SCT003 OVC050
                       FM100700 26004KT P6SM SCT030 BKN050 FM101600
                       23004KT P6SM -SHRA BKN020 OVC030=
201702092057 KCLM 092057Z 0921/1018 VRB03KT 4SM -RA BR OVC004 FM092200 27006KT
                       P6SM -RA BKN012 OVC022 FM100300 27005KT
                       P6SM VCSH BKN025 OVC050 FM100700 26004KT
                       P6SM SCT030 BKN050 FM101300 23004KT P6SM
                       BKN020 OVC030=
201702091720 TAF KCLM 091720Z 0918/1018 13005KT 3SM -RA BR OVC005
                      TEMPO 0918/0920 3/4SM RA BR OVC003 FM092000
                       27006KT P6SM -RA SCT012 OVC022 FM100300
                       27005KT P6SM VCSH BKN030 OVC050 FM100700
                       26004KT P6SM SCT030 BKN050 FM101300 23004KT
                       P6SM BKN020 OVC030=
201702091137 TAF KCLM 091137Z 0912/1012 VRB05KT 4SM -RA BR OVC002 FM091900 27006KT
                       P6SM -RA SCT012 OVC022 FM100300 27005KT
                       P6SM VCSH BKN030=
201702090522 TAF KCLM 090522Z 0906/1006 12006KT 4SM -RA BR OVC006 FM092000 27006KT
                       4SM -RA BR SCT005 BKN020 OVC040=
201702090200 KCLM 090200Z 0902/0924 12006KT 4SM -RA BR OVC010 FM092000 27006KT
                       4SM -RA BR SCT005 BKN020 OVC040=
201702082320 TAF KCLM 082320Z 0900/0924 08004KT 1/4SM SN FG OVC003 FM090300
                       VRB03KT 1SM -RA BR BKN005 OVC015 FM092000
                       27006KT 4SM -RA BR SCT005 BKN020 OVC040=
201702082125 KCLM 082125Z 0821/0918 10005KT 1SM -SN BR OVC005 FM090300 VRB03KT
                       4SM -RA BR OVC015=
201702081725 TAF KCLM 081725Z 0818/0918 11006KT 2SM -SN OVC015 FM090300 VRB03KT
                       4SM -RA BR OVC015=
201702081600 KCLM 081600Z 0816/0912 00000KT P6SM OVC015 FM081800 09010KT P6SM
                       -RA BKN015 OVC050=
201702081124 TAF KCLM 081124Z 0812/0912 VRB03KT P6SM OVC070 FM082000 09010KT
                       P6SM -RA SCT035 OVC050 FM090000 11010KT
                       P6SM -RA OVC025=
201702080800 KCLM 080800Z 0808/0906 VRB03KT P6SM OVC070 FM081400 13004KT P6SM
                       SCT010 BKN120 OVC200 FM082000 09010KT 5SM
                       -RA BR BKN010 OVC050=
201702080524 TAF KCLM 080524Z 0806/0906 VRB03KT 2SM BR SCT002
                      TEMPO 0810/0814 1/2SM FZFG VV002 FM081400
                       13004KT P6SM SCT010 BKN120 OVC200 FM082000
                       09010KT 5SM -RA BR BKN010 OVC050=
201702080411 KCLM 080411Z 0804/0824 VRB03KT 1/2SM FZFG VV002 FM081400 13004KT
                       P6SM SCT015 BKN120 OVC200 FM082000 09010KT
                       5SM -RA BR BKN010 OVC050=
201702080335 KCLM 080335Z 0804/0824 VRB03KT 2SM BR SCT001 FM081400 13004KT P6SM
                       SCT015 BKN120 OVC200 FM082000 09010KT 5SM
                       -RA BR BKN010 OVC050=
201702072345 TAF KCLM 072345Z 0800/0824 VRB03KT P6SM FEW030 SCT200 FM081400
                       13004KT P6SM SCT015 BKN120 OVC200 FM082000
                       09010KT 5SM -RA BR BKN010 OVC050=
201702072102 KCLM 072102Z 0721/0818 05006KT P6SM BKN025 FM080000 VRB03KT P6SM
                       SCT200 FM081400 13004KT P6SM SCT015 BKN120
                       OVC200=
201702071739 TAF KCLM 071739Z 0718/0818 06004KT P6SM SCT020 BKN035
                      TEMPO 0718/0720 5SM -SHSN BR BKN020 OVC035
                       FM072000 VRB03KT P6SM SCT200 FM081400 13004KT
                       P6SM SCT015 BKN120 OVC200=
201702071353 KCLM 071353Z 0714/0812 VRB04KT P6SM VCSH SCT020 OVC030
                      TEMPO 0714/0717 2SM -SHSN BR BKN005 FM071700
                       06004KT P6SM SCT020 SCT120 FM072000 07006KT
                       P6SM SCT120 SCT200=
201702071122 TAF KCLM 071122Z 0712/0812 VRB04KT P6SM VCSH SCT020 OVC030
                      TEMPO 0712/0716 -SHSN BKN018 FM071700 06004KT
                       P6SM SCT020 SCT120 FM072000 07006KT P6SM
                       SCT120 SCT200=
201702070920 KCLM 070920Z 0709/0806 12004KT 4SM -SN BR BKN006 OVC013 FM071100
                       VRB04KT P6SM BKN007 OVC050 FM071700 06004KT
                       P6SM SCT020 SCT100=
201702070727 KCLM 070727Z 0707/0806 12004KT 5SM -SN BR BKN006 OVC013 FM070900
                       25004KT P6SM VCSH BKN007 OVC050 FM071700
                       06004KT P6SM SCT020 SCT100=
201702070530 TAF KCLM 070530Z 0706/0806 VRB04KT 1/2SM -SN FG OVC002 FM070900
                       25004KT P6SM VCSH BKN007 OVC050 FM071700
                       06004KT P6SM SCT020 SCT100=
201702070305 KCLM 070305Z 0703/0724 VRB04KT 1/2SM -SN FG OVC002 FM070600 25004KT
                       P6SM VCSH BKN007 OVC050 FM071700 09004KT
                       P6SM SCT050 BKN100=
201702070141 KCLM 070141Z 0702/0724 00000KT 4SM -SN BR SCT020 BKN045 OVC070
                       FM070400 25004KT P6SM VCSH SCT015 OVC050
                       FM071700 09004KT P6SM SCT050 BKN100=
201702070003 KCLM 070003Z 0700/0724 VRB06KT 1/2SM SN FG BKN015 BKN040 FM070300
                       25004KT P6SM VCSH SCT015 OVC050 FM071700
                       09004KT P6SM SCT050 BKN100=
201702062340 TAF KCLM 062340Z 0700/0724 VRB06KT P6SM -SHSN BKN015 BKN040 FM070300
                       25004KT P6SM VCSH SCT015 OVC050 FM071700
                       09004KT P6SM SCT050 BKN100=
201702061811 KCLM 061811Z 0618/0718 VRB06KT P6SM -SHSN BKN015 BKN040
                      TEMPO 0618/0622 4SM -SHSN BR FM070300 25004KT
                       P6SM VCSH OVC050 FM071700 09004KT P6SM BKN100=
201702061739 TAF KCLM 061739Z 0618/0718 VRB06KT P6SM -SHSN BKN015 BKN040 FM070300
                       25004KT P6SM VCSH OVC050=
201702061140 TAF KCLM 061140Z 0612/0712 14007KT 4SM -SN BR BKN045 OVC060
                      TEMPO 0612/0616 1 1/2SM -SN BR OVC007 FM061800
                       VRB06KT P6SM -SHSN BKN015 BKN040 FM070300
                       25004KT P6SM VCSH OVC050=
201702060900 KCLM 060900Z 0609/0706 15006KT 1 1/2SM -SN BR BKN006 OVC011 FM061700
                       04012KT P6SM -SHSN BKN015 BKN040 FM070300
                       25004KT P6SM VCSH OVC050=
201702060520 TAF KCLM 060520Z 0606/0706 VRB04KT 3/4SM -SN BR OVC002 FM060800
                       04012KT 3SM -SN OVC010 FM061700 04012KT
                       P6SM -SHSN BKN015 BKN040 FM070300 25004KT
                       P6SM VCSH OVC050=
201702052320 TAF KCLM 052320Z 0600/0624 06006KT P6SM -RA SCT020 OVC040
                      TEMPO 0600/0602 -RA BKN020 OVC040 FM060200
                       04004KT P6SM -RASN BKN010 OVC030 FM060800
                       04012KT 3SM -SN OVC010 FM061700 04012KT
                       P6SM -SHSN BKN015 BKN040=
201702052216 KCLM 052216Z 0522/0618 00000KT P6SM SCT020 OVC050
                      TEMPO 0522/0602 -RA BKN020 OVC050 FM060200
                       04004KT P6SM -RASN BKN010 OVC030 FM060800
                       04012KT 3SM -SN OVC010 FM061700 04012KT
                       P6SM VCSH SCT010 BKN040=
201702051744 TAF KCLM 051744Z 0518/0618 24003KT P6SM VCSH OVC090 FM052200 08004KT
                       P6SM -RASN BKN008 OVC030 FM060600 04010KT
                       P6SM -SN OVC025 FM061200 25008KT P6SM OVC050=
201702051140 TAF KCLM 051140Z 0512/0612 17006KT P6SM VCSH FEW030 OVC045 FM052200
                       08004KT P6SM -RA BKN008 OVC030 FM060600
                       04010KT P6SM -SN OVC025=
201702050535 TAF KCLM 050535Z 0506/0606 22004KT P6SM -RA SCT012 SCT018 OVC040
                       FM050900 26010KT P6SM -RA SCT025 BKN045
                       FM051400 VRB03KT P6SM -RA SCT008 BKN035
                       OVC045 FM052200 08004KT P6SM -RA BKN008
                       OVC030=
201702050310 KCLM 050310Z 0503/0524 15008KT 5SM -RA BR OVC003 FM050600 26010KT
                       P6SM -RA SCT025 BKN045 FM051400 VRB03KT
                       P6SM -RA SCT008 BKN035 OVC045 FM052200 08004KT
                       P6SM -RA BKN008 OVC030=
201702042349 TAF KCLM 042349Z 0500/0524 08004KT 5SM -RA BR SCT008 OVC018 FM050100
                       26010KT P6SM -SHRA SCT025 BKN045 FM051400
                       VRB03KT P6SM VCSH SCT008 BKN035 OVC045 FM052200
                       08004KT P6SM -RA BKN008 OVC030=
201702042042 KCLM 042042Z 0421/0518 08004KT 5SM -RA BR SCT008 OVC020 FM050100
                       26010KT P6SM -SHRA SCT025 BKN045 FM051400
                       VRB03KT P6SM -SHRA SCT008 BKN035 OVC045=
201702041752 TAF KCLM 041752Z 0418/0518 25005KT P6SM VCSH BKN008 OVC050 FM042100
                       07004KT 5SM -RA BR BKN008 OVC012 FM050100
                       26010KT P6SM -SHRA SCT025 BKN045 FM051400
                       VRB03KT P6SM -SHRA SCT008 BKN035 OVC045=
201702041135 TAF KCLM 041135Z 0412/0512 22003KT P6SM VCSH OVC003 FM041800 25005KT
                       P6SM -RA SCT012 BKN020 OVC050 FM042000 07004KT
                       5SM -RA BR SCT008 OVC012 FM050400 27008KT
                       P6SM VCSH SCT025 OVC040=
201702040530 TAF KCLM 040530Z 0406/0506 11004KT 6SM BR VCSH OVC003 FM041500
                       25005KT P6SM -SHRA SCT012 BKN020 OVC050
                       FM042000 07004KT 5SM -RA BR SCT008 OVC012
                       FM050400 27008KT P6SM VCSH SCT025 OVC040=
201702032348 TAF KCLM 032348Z 0400/0424 09005KT 4SM -RA BR BKN008 OVC012 FM040300
                       VRB03KT P6SM VCSH SCT008 OVC012 FM041500
                       25005KT P6SM -SHRA SCT012 BKN020 OVC050
                       FM042000 07004KT 5SM -RA BR SCT008 OVC012=
201702031752 TAF KCLM 031752Z 0318/0418 VRB03KT P6SM VCSH SCT010 OVC018 FM032200
                       06006KT 6SM -RA BR SCT008 OVC012 FM040300
                       VRB03KT P6SM VCSH SCT010 BKN018 OVC050 FM041200
                       25005KT P6SM -SHRA SCT015 BKN030 BKN080=
201702031320 KCLM 031320Z 0313/0412 VRB03KT P6SM -RASN OVC050
                      TEMPO 0313/0317 4SM -SN OVC015 FM031800 12002KT
                       P6SM -RA OVC015 FM040900 21002KT P6SM -RA
                       OVC015=
201702031135 TAF KCLM 031135Z 0312/0412 00000KT P6SM OVC050
                      TEMPO 0314/0318 -SN OVC015 FM031800 12002KT
                       P6SM -RA OVC015 FM040900 21002KT P6SM -RA
                       OVC015=
201702030520 TAF KCLM 030520Z 0306/0406 26006KT P6SM BKN100 OVC150 FM031000
                       12003KT P6SM OVC100 FM031400 12005KT P6SM
                       VCSH BKN060 OVC080 FM031500 14006KT P6SM
                       -SHRA OVC060 FM031900 VRB04KT P6SM -SHRA
                       OVC050=
201702030001 TAF KCLM 030001Z 0300/0324 10010G20KT P6SM SCT250 FM030400 12005KT
                       P6SM OVC250 FM031000 12003KT P6SM OVC100
                       FM031400 12005KT P6SM VCSH BKN060 OVC080
                       FM031500 14006KT P6SM -SHRA OVC060 FM031900
                       VRB04KT P6SM -SHRA OVC050=
201702021743 TAF KCLM 021743Z 0218/0318 12007KT P6SM SKC FM030300 14004KT P6SM
                       OVC250 FM030900 15003KT P6SM OVC100 FM031400
                       15010KT P6SM VCSH OVC080=
201702021125 TAF KCLM 021125Z 0212/0312 12007KT P6SM SKC FM030300 14004KT P6SM
                       OVC250 FM030900 15003KT P6SM OVC100=
201702020533 TAF KCLM 020533Z 0206/0306 10008KT P6SM SKC FM021200 12008KT P6SM
                       SCT250=
201702012340 TAF KCLM 012340Z 0200/0224 08010G20KT P6SM SCT250 FM020400 12008KT
                       P6SM SCT250=
201702012320 TAF KCLM 012320Z 0200/0224 06010KT P6SM SCT250 FM020400 12008KT
                       P6SM SCT250=
201702011828 TAF KCLM 011828Z 0118/0218 06010KT P6SM SCT250 FM020400 12008KT
                       P6SM SCT250=
201702011120 TAF KCLM 011120Z 0112/0212 VRB04KT P6SM FEW250 FM011700 10012KT
                       P6SM FEW250 FM020000 14007KT P6SM SKC=
201702010520 TAF KCLM 010520Z 0106/0206 VRB04KT P6SM FEW250 FM011700 10012KT
                       P6SM FEW250 FM020000 14005KT P6SM SKC=