##########################################################
# Query made at 02/16/2025 03:27:17 UTC
# Time interval: from 09/01/2017 00:00  to 09/30/2017 23:59  UTC
##########################################################

##########################################################
# KCLM, Port Angeles, William R. Fairchild International Airport (United States)
# WMO index: -----. WIGOS ID: Unknown
# Latitude 48-07-20N. Longitude 123-30-19W. Altitude 87 m.
##########################################################

###################################
#  METAR/SPECI from KCLM
###################################
201709302353 METAR KCLM 302353Z AUTO 00000KT 10SM -RA OVC048 13/12 A3006 RMK AO2 RAE28B49 SLP180 P0000 60012 T01280122 10172 20117 56006=
201709302253 METAR KCLM 302253Z AUTO 00000KT 6SM -RA BR OVC060 13/12 A3007 RMK AO2 SLP182 P0004 T01280122=
201709302153 METAR KCLM 302153Z AUTO 13004KT 4SM -RA BR OVC055 12/12 A3007 RMK AO2 SLP183 P0002 T01220117=
201709302101 SPECI KCLM 302101Z AUTO 34003KT 6SM -RA BR FEW007 OVC060 12/11 A3008 RMK AO2 P0000 T01170111=
201709302053 METAR KCLM 302053Z AUTO VRB03KT 5SM -RA BR BKN055 OVC070 12/11 A3008 RMK AO2 SLP187 P0003 60006 T01170111 53001=
201709301953 METAR KCLM 301953Z AUTO 30006KT 3SM -RA BR OVC055 12/11 A3008 RMK AO2 RAB29 SLP187 P0003 T01220111=
201709301853 METAR KCLM 301853Z AUTO 35006KT 10SM CLR 15/09 A3007 RMK AO2 SLP184 T01500089=
201709301753 METAR KCLM 301753Z AUTO 30007KT 10SM SCT070 16/09 A3008 RMK AO2 SLP185 60001 T01560089 10156 20089 51002=
201709301653 METAR KCLM 301653Z AUTO 24010KT 10SM FEW060 14/09 A3008 RMK AO2 SLP184 T01440089=
201709301553 METAR KCLM 301553Z AUTO 25010KT 10SM FEW048 SCT070 12/09 A3007 RMK AO2 SLP184 T01170089=
201709301453 METAR KCLM 301453Z AUTO 25008KT 10SM SCT050 BKN060 11/09 A3007 RMK AO2 RAE07 SLP183 P0000 60001 T01060089 56000=
201709301353 METAR KCLM 301353Z AUTO 22003KT 10SM -RA OVC060 10/09 A3007 RMK AO2 RAB31 SLP183 P0001 T01000089=
201709301253 METAR KCLM 301253Z AUTO 23005KT 10SM BKN048 OVC075 09/09 A3006 RMK AO2 RAE02 SLP180 P0000 T00890089=
201709301153 METAR KCLM 301153Z AUTO 00000KT 8SM -RA BKN046 OVC055 10/09 A3007 RMK AO2 SLP183 P0000 60003 70005 T01000094 10128 20072 50006=
201709301053 METAR KCLM 301053Z AUTO 00000KT 10SM -RA SCT060 OVC080 10/09 A3007 RMK AO2 SLP184 P0003 T01000094=
201709300953 METAR KCLM 300953Z AUTO 00000KT 10SM -RA OVC055 12/07 A3006 RMK AO2 RAB47 SLP178 P0000 T01170072=
201709300853 METAR KCLM 300853Z AUTO 21003KT 10SM OVC060 11/07 A3005 RMK AO2 SLP177 T01060072 50000=
201709300753 METAR KCLM 300753Z AUTO 17003KT 10SM BKN070 OVC090 08/07 A3006 RMK AO2 SLP178 T00830067 401720072=
201709300653 METAR KCLM 300653Z AUTO 18004KT 10SM FEW120 07/06 A3006 RMK AO2 SLP179 T00720056=
201709300553 METAR KCLM 300553Z AUTO 15003KT 10SM CLR 09/06 A3005 RMK AO2 SLP176 T00890056 10167 20089 51012=
201709300453 METAR KCLM 300453Z AUTO 26007KT 10SM FEW060 12/06 A3004 RMK AO2 SLP171 T01220056=
201709300353 METAR KCLM 300353Z AUTO 31004KT 10SM BKN060 13/07 A3003 RMK AO2 SLP169 T01280072=
201709300253 METAR KCLM 300253Z AUTO 28004KT 10SM CLR 13/07 A3001 RMK AO2 SLP163 T01330067 53007=
201709300153 METAR KCLM 300153Z AUTO 30007KT 10SM CLR 14/07 A3001 RMK AO2 SLP161 T01440067=
201709300053 METAR KCLM 300053Z AUTO 27010G19KT 10SM OVC055 16/07 A3000 RMK AO2 SLP157 T01610067=
201709292353 METAR KCLM 292353Z AUTO 29011G20KT 10SM OVC050 16/08 A2999 RMK AO2 PK WND 28028/2333 SLP157 60000 T01610078 10172 20128 53014=
201709292253 METAR KCLM 292253Z AUTO 30015G24KT 10SM FEW032 OVC050 16/08 A2997 RMK AO2 RAE2157 SLP150 P0000 T01560083=
201709292209 SPECI KCLM 292209Z AUTO 29016G21KT 10SM FEW018 OVC050 14/09 A2997 RMK AO2 RAE2157 P0000 T01440094=
201709292153 METAR KCLM 292153Z AUTO 31011G18KT 290V350 10SM -RA SCT014 BKN022 OVC047 14/11 A2996 RMK AO2 PK WND 30026/2055 RAB48 SLP147 P0000 T01440111=
201709292139 SPECI KCLM 292139Z AUTO 31007KT 300V360 10SM FEW009 BKN014 OVC030 14/11 A2996 RMK AO2 PK WND 30026/2055 T01440111=
201709292102 SPECI KCLM 292102Z AUTO 31014G26KT 10SM BKN010 BKN060 OVC080 13/11 A2996 RMK AO2 PK WND 30026/2055 CIG 005V018 T01280111=
201709292053 METAR KCLM 292053Z AUTO 30018G30KT 10SM SCT009 SCT016 BKN060 14/12 A2995 RMK AO2 PK WND 30030/2048 PRESRR SLP143 60000 T01390117 53018=
201709291953 METAR KCLM 291953Z AUTO 04004KT 10SM OVC065 16/13 A2991 RMK AO2 SLP129 T01610133=
201709291853 METAR KCLM 291853Z AUTO 00000KT 10SM FEW023 SCT034 BKN075 16/14 A2991 RMK AO2 RAB23E45 SLP129 P0000 T01560139=
201709291753 METAR KCLM 291753Z AUTO 14003KT 10SM BKN100 17/13 A2990 RMK AO2 RAB10E23 SLP125 P0000 60002 T01670133 10167 20128 53000 TSNO=
201709291701 SPECI KCLM 291701Z AUTO 12004KT 10SM SCT023 BKN070 16/13 A2990 RMK AO2 T01560133=
201709291653 METAR KCLM 291653Z AUTO 12004KT 10SM BKN023 OVC070 16/13 A2990 RMK AO2 SLP124 T01560133=
201709291553 METAR KCLM 291553Z AUTO 12003KT 10SM OVC020 15/14 A2990 RMK AO2 SLP123 T01500139=
201709291533 SPECI KCLM 291533Z AUTO 00000KT 10SM BKN021 BKN070 14/14 A2990 RMK AO2 T01440139=
201709291513 SPECI KCLM 291513Z AUTO 15004KT 10SM SCT021 BKN075 14/13 A2990 RMK AO2 T01390133=
201709291453 METAR KCLM 291453Z AUTO 00000KT 10SM BKN020 14/13 A2990 RMK AO2 SLP124 60002 T01440133 53005=
201709291416 SPECI KCLM 291416Z AUTO 23005KT 10SM BKN020 BKN095 14/13 A2988 RMK AO2 T01390133=
201709291353 METAR KCLM 291353Z AUTO 24005KT 10SM FEW019 SCT100 13/13 A2988 RMK AO2 RAE38 SLP116 P0002 T01330133=
201709291253 METAR KCLM 291253Z AUTO 00000KT 10SM -RA FEW070 OVC090 14/13 A2988 RMK AO2 RAB45 SLP118 P0000 T01390128=
201709291221 SPECI KCLM 291221Z AUTO 00000KT 10SM FEW016 OVC090 14/13 A2989 RMK AO2 T01440133=
201709291203 SPECI KCLM 291203Z AUTO 25005KT 10SM BKN015 BKN120 14/13 A2989 RMK AO2 T01440128=
201709291153 METAR KCLM 291153Z AUTO 24006KT 10SM SCT016 SCT021 BKN120 14/13 A2989 RMK AO2 RAB24E32 SLP119 P0000 60000 T01440128 10150 20133 53003=
201709291053 METAR KCLM 291053Z AUTO 24003KT 10SM FEW090 BKN110 14/13 A2987 RMK AO2 RAB09E27 SLP112 P0000 T01390128=
201709290953 METAR KCLM 290953Z AUTO 26005KT 10SM FEW120 14/13 A2988 RMK AO2 SLP117 T01390128=
201709290853 METAR KCLM 290853Z AUTO 28007KT 8SM CLR 14/13 A2988 RMK AO2 SLP117 T01390128 50004=
201709290753 METAR KCLM 290753Z AUTO 28010KT 7SM SCT010 14/13 A2989 RMK AO2 SLP120 T01390133 402440078=
201709290653 METAR KCLM 290653Z AUTO 28012KT 8SM CLR 14/13 A2988 RMK AO2 SLP118 T01440128=
201709290553 METAR KCLM 290553Z AUTO 28008KT 10SM CLR 15/12 A2986 RMK AO2 SLP112 T01500122 10244 20150 52004=
201709290453 METAR KCLM 290453Z AUTO 31006KT 10SM CLR 15/11 A2986 RMK AO2 SLP112 T01500106=
201709290353 METAR KCLM 290353Z AUTO 25006KT 10SM CLR 16/11 A2985 RMK AO2 SLP109 T01610106=
201709290253 METAR KCLM 290253Z AUTO 24005KT 10SM CLR 16/11 A2985 RMK AO2 SLP108 T01560106 56002=
201709290153 METAR KCLM 290153Z AUTO 27006KT 10SM CLR 17/10 A2985 RMK AO2 SLP108 T01670100=
201709290053 METAR KCLM 290053Z AUTO 35003KT 10SM CLR 24/09 A2985 RMK AO2 SLP106 T02390094=
201709282353 METAR KCLM 282353Z AUTO 36005KT 10SM CLR 24/09 A2986 RMK AO2 SLP111 T02390094 10244 20178 57015=
201709282253 METAR KCLM 282253Z AUTO VRB04KT 10SM CLR 23/09 A2987 RMK AO2 SLP116 T02330094=
201709282153 METAR KCLM 282153Z AUTO 00000KT 10SM CLR 22/10 A2989 RMK AO2 SLP120 T02220100=
201709282053 METAR KCLM 282053Z AUTO 35006KT 10SM CLR 19/11 A2990 RMK AO2 SLP126 T01940111 57014=
201709281953 METAR KCLM 281953Z AUTO VRB03KT 10SM CLR 19/12 A2992 RMK AO2 SLP130 T01940117=
201709281853 METAR KCLM 281853Z AUTO 04005KT 10SM CLR 18/12 A2993 RMK AO2 SLP136 T01830122=
201709281753 METAR KCLM 281753Z AUTO 09005KT 10SM CLR 18/12 A2995 RMK AO2 SLP140 T01780122 10178 20078 58005=
201709281653 METAR KCLM 281653Z AUTO 05005KT 10SM CLR 17/13 A2996 RMK AO2 SLP143 T01670128=
201709281553 METAR KCLM 281553Z AUTO 00000KT 10SM CLR 15/13 A2996 RMK AO2 SLP144 T01500133=
201709281453 METAR KCLM 281453Z AUTO 00000KT 10SM CLR 10/09 A2996 RMK AO2 SLP147 T01000094 56006=
201709281353 METAR KCLM 281353Z AUTO 18004KT 10SM CLR 10/09 A2996 RMK AO2 SLP147 T01000094=
201709281253 METAR KCLM 281253Z AUTO 13004KT 10SM CLR 09/08 A2997 RMK AO2 SLP149 T00890083=
201709281153 METAR KCLM 281153Z AUTO 21003KT 10SM CLR 09/09 A2998 RMK AO2 SLP151 T00890089 10117 20083 56010=
201709281053 METAR KCLM 281053Z AUTO 22004KT 10SM CLR 10/09 A2998 RMK AO2 SLP152 T01000094=
201709280953 METAR KCLM 280953Z AUTO 00000KT 10SM CLR 10/09 A3000 RMK AO2 SLP158 T01000094=
201709280853 METAR KCLM 280853Z AUTO 22004KT 10SM CLR 11/10 A3001 RMK AO2 SLP162 T01060100 55004=
201709280753 METAR KCLM 280753Z AUTO 00000KT 10SM CLR 11/10 A3001 RMK AO2 SLP161 T01060100 402110083=
201709280653 METAR KCLM 280653Z AUTO 00000KT 10SM CLR 12/11 A3002 RMK AO2 SLP165 T01170111=
201709280553 METAR KCLM 280553Z AUTO 00000KT 10SM CLR 12/11 A3002 RMK AO2 SLP166 T01170111 10200 20117 52003=
201709280453 METAR KCLM 280453Z AUTO 00000KT 10SM CLR 12/12 A3002 RMK AO2 SLP166 T01220117=
201709280353 METAR KCLM 280353Z AUTO 00000KT 10SM CLR 13/12 A3002 RMK AO2 SLP164 T01330122=
201709280253 METAR KCLM 280253Z AUTO 23005KT 10SM CLR 14/12 A3001 RMK AO2 SLP163 T01440117 56008=
201709280153 METAR KCLM 280153Z AUTO 12004KT 10SM CLR 17/12 A3001 RMK AO2 SLP164 T01720122=
201709280053 METAR KCLM 280053Z AUTO 11006KT 10SM CLR 19/12 A3002 RMK AO2 SLP165 T01940122=
201709272353 METAR KCLM 272353Z AUTO 11006KT 10SM CLR 20/12 A3004 RMK AO2 SLP171 T02000122 10211 20172 56022=
201709272253 METAR KCLM 272253Z AUTO 09008KT 10SM CLR 20/12 A3006 RMK AO2 SLP178 T02000122=
201709272153 METAR KCLM 272153Z AUTO 10006KT 10SM CLR 20/12 A3008 RMK AO2 SLP186 T02000117=
201709272053 METAR KCLM 272053Z AUTO 08007KT 10SM CLR 19/12 A3010 RMK AO2 SLP193 T01890122 58016=
201709271953 METAR KCLM 271953Z AUTO 08006KT 10SM CLR 18/13 A3012 RMK AO2 SLP199 T01830128=
201709271853 METAR KCLM 271853Z AUTO 12006KT 10SM CLR 18/13 A3014 RMK AO2 SLP207 T01780128=
201709271753 METAR KCLM 271753Z AUTO 11007KT 10SM CLR 17/13 A3015 RMK AO2 SLP210 T01720133 10172 20083 50003=
201709271653 METAR KCLM 271653Z AUTO 10007KT 10SM CLR 16/13 A3015 RMK AO2 SLP210 T01610133=
201709271553 METAR KCLM 271553Z AUTO 10003KT 10SM CLR 16/13 A3014 RMK AO2 SLP208 T01560133=
201709271453 METAR KCLM 271453Z AUTO 14005KT 8SM CLR 11/11 A3014 RMK AO2 SLP208 T01060106 57003=
201709271353 METAR KCLM 271353Z AUTO 16004KT 10SM CLR 08/08 A3014 RMK AO2 SLP208 T00830083=
201709271253 METAR KCLM 271253Z AUTO 00000KT 9SM CLR 09/09 A3015 RMK AO2 SLP209 T00890089=
201709271153 METAR KCLM 271153Z AUTO 00000KT 6SM BR CLR 10/09 A3015 RMK AO2 SLP210 T01000094 10117 20089 56005=
201709271053 METAR KCLM 271053Z AUTO 00000KT 10SM CLR 10/09 A3015 RMK AO2 SLP211 T01000094=
201709270953 METAR KCLM 270953Z AUTO 00000KT 10SM CLR 10/10 A3016 RMK AO2 SLP214 T01000100=
201709270853 METAR KCLM 270853Z AUTO 00000KT 10SM CLR 11/10 A3017 RMK AO2 SLP215 T01060100 53001=
201709270753 METAR KCLM 270753Z AUTO 18003KT 10SM CLR 11/09 A3016 RMK AO2 SLP214 T01060094 402060100=
201709270653 METAR KCLM 270653Z AUTO 00000KT 10SM CLR 11/10 A3016 RMK AO2 SLP214 T01060100=
201709270553 METAR KCLM 270553Z AUTO 00000KT 10SM CLR 11/10 A3016 RMK AO2 SLP214 T01060100 10200 20106 51004=
201709270453 METAR KCLM 270453Z AUTO 22003KT 10SM CLR 12/11 A3016 RMK AO2 SLP214 T01170106=
201709270353 METAR KCLM 270353Z AUTO 00000KT 10SM CLR 12/11 A3016 RMK AO2 SLP212 T01220111=
201709270253 METAR KCLM 270253Z AUTO 20003KT 10SM CLR 14/12 A3015 RMK AO2 SLP211 T01390117 55004=
201709270153 METAR KCLM 270153Z AUTO 12005KT 10SM CLR 17/12 A3015 RMK AO2 SLP209 T01720117=
201709270053 METAR KCLM 270053Z AUTO 12005KT 10SM CLR 19/12 A3015 RMK AO2 SLP211 T01940122=
201709262353 METAR KCLM 262353Z AUTO 08006KT 10SM CLR 20/12 A3017 RMK AO2 SLP215 T02000117 10206 20167 58012=
201709262253 METAR KCLM 262253Z AUTO VRB05KT 10SM CLR 19/12 A3019 RMK AO2 SLP222 T01940122=
201709262153 METAR KCLM 262153Z AUTO 02005KT 10SM CLR 19/12 A3020 RMK AO2 SLP226 T01890122=
201709262053 METAR KCLM 262053Z AUTO VRB04KT 10SM CLR 19/13 A3020 RMK AO2 SLP227 T01890128 58003=
201709261953 METAR KCLM 261953Z AUTO VRB03KT 10SM CLR 18/13 A3020 RMK AO2 SLP227 T01830133=
201709261853 METAR KCLM 261853Z AUTO 06005KT 10SM FEW022 17/13 A3021 RMK AO2 SLP231 T01670128=
201709261826 SPECI KCLM 261826Z AUTO 04005KT 10SM SCT022 17/13 A3021 RMK AO2 T01670128=
201709261753 METAR KCLM 261753Z AUTO 11003KT 10SM OVC021 18/13 A3021 RMK AO2 SLP230 T01780128 10178 20122 50002=
201709261653 METAR KCLM 261653Z AUTO 00000KT 10SM OVC020 16/13 A3022 RMK AO2 SLP234 T01560133=
201709261553 METAR KCLM 261553Z AUTO 00000KT 10SM OVC021 15/14 A3021 RMK AO2 SLP229 T01500139=
201709261453 METAR KCLM 261453Z AUTO 00000KT 10SM OVC018 14/13 A3020 RMK AO2 SLP228 T01390133 53005=
201709261353 METAR KCLM 261353Z AUTO 00000KT 9SM OVC016 13/13 A3019 RMK AO2 SLP225 T01330128=
201709261319 SPECI KCLM 261319Z AUTO 29003KT 7SM OVC015 13/13 A3019 RMK AO2 T01280128=
201709261253 METAR KCLM 261253Z AUTO 18003KT 10SM OVC013 13/13 A3018 RMK AO2 SLP218 T01330133=
201709261153 METAR KCLM 261153Z AUTO 00000KT 10SM OVC012 12/12 A3019 RMK AO2 SLP223 70003 T01220122 10133 20100 53009=
201709261053 METAR KCLM 261053Z AUTO 00000KT 10SM OVC014 11/11 A3017 RMK AO2 SLP216 T01110111=
201709261026 SPECI KCLM 261026Z AUTO 00000KT 9SM BKN016 10/10 A3017 RMK AO2 T01000100=
201709261000 SPECI KCLM 261000Z AUTO 00000KT 7SM FEW015 10/10 A3017 RMK AO2 T01000100=
201709260953 METAR KCLM 260953Z AUTO 00000KT 1 1/2SM BR FEW015 10/10 A3017 RMK AO2 SLP215 T01000100=
201709260946 SPECI KCLM 260946Z AUTO 00000KT 1/2SM FG VV015 11/11 A3016 RMK AO2 T01060106=
201709260939 SPECI KCLM 260939Z AUTO 00000KT 1 1/4SM BR CLR 10/10 A3017 RMK AO2 VIS 1/4V4 T01000100=
201709260922 SPECI KCLM 260922Z AUTO 00000KT 3SM BR CLR 11/11 A3016 RMK AO2 T01060106=
201709260911 SPECI KCLM 260911Z AUTO 00000KT 1 3/4SM BR CLR 11/11 A3016 RMK AO2 T01060106=
201709260853 METAR KCLM 260853Z AUTO 22004KT 7SM CLR 11/11 A3016 RMK AO2 SLP213 T01060106 53008=
201709260823 SPECI KCLM 260823Z AUTO 00000KT 7SM SCT017 11/11 A3015 RMK AO2 T01060106=
201709260753 METAR KCLM 260753Z AUTO 00000KT 9SM BKN017 11/11 A3015 RMK AO2 SLP211 T01110111 401610111=
201709260745 SPECI KCLM 260745Z AUTO 00000KT 8SM BKN017 11/11 A3015 RMK AO2 T01110111=
201709260653 METAR KCLM 260653Z AUTO 00000KT 10SM FEW016 SCT075 12/12 A3014 RMK AO2 SLP205 T01170117=
201709260638 SPECI KCLM 260638Z AUTO 17003KT 10SM SCT017 BKN080 13/12 A3014 RMK AO2 T01280122=
201709260626 SPECI KCLM 260626Z AUTO 00000KT 10SM BKN017 OVC080 13/13 A3014 RMK AO2 T01330128=
201709260553 METAR KCLM 260553Z AUTO 00000KT 10SM OVC080 13/12 A3014 RMK AO2 SLP204 T01330122 10144 20128 51008=
201709260453 METAR KCLM 260453Z AUTO 00000KT 10SM SCT049 OVC060 13/13 A3013 RMK AO2 SLP202 T01330128=
201709260353 METAR KCLM 260353Z AUTO 00000KT 10SM OVC049 14/13 A3012 RMK AO2 SLP201 T01390128=
201709260253 METAR KCLM 260253Z AUTO 00000KT 10SM BKN060 OVC090 14/13 A3011 RMK AO2 SLP196 T01390128 51004=
201709260153 METAR KCLM 260153Z AUTO 00000KT 10SM SCT049 BKN070 OVC100 13/12 A3011 RMK AO2 SLP195 T01330122=
201709260053 METAR KCLM 260053Z AUTO 00000KT 9SM SCT047 OVC055 14/13 A3011 RMK AO2 SLP195 T01440128=
201709252353 METAR KCLM 252353Z AUTO 02003KT 10SM OVC065 14/12 A3010 RMK AO2 SLP192 T01440122 10161 20144 55002=
201709252253 METAR KCLM 252253Z AUTO VRB03KT 10SM OVC085 16/13 A3009 RMK AO2 SLP190 T01560128=
201709252211 SPECI KCLM 252211Z AUTO 00000KT 7SM SCT011 BKN050 OVC085 16/13 A3010 RMK AO2 T01560133=
201709252153 METAR KCLM 252153Z AUTO 03004KT 10SM BKN011 OVC030 16/13 A3011 RMK AO2 SLP195 T01560128=
201709252053 METAR KCLM 252053Z AUTO 10005KT 10SM OVC011 16/13 A3010 RMK AO2 SLP194 T01560133 53004=
201709252025 SPECI KCLM 252025Z AUTO 11004KT 10SM BKN011 OVC065 16/13 A3010 RMK AO2 T01560133=
201709252002 SPECI KCLM 252002Z AUTO 09005KT 10SM SCT010 OVC060 15/13 A3011 RMK AO2 T01500133=
201709251953 METAR KCLM 251953Z AUTO 10005KT 10SM BKN010 BKN060 OVC080 16/13 A3010 RMK AO2 SLP193 T01560133=
201709251853 METAR KCLM 251853Z AUTO 09005KT 10SM SCT011 BKN080 OVC095 16/13 A3009 RMK AO2 SLP189 T01560133=
201709251848 SPECI KCLM 251848Z AUTO 11007KT 10SM BKN011 OVC090 16/13 A3009 RMK AO2=
201709251803 SPECI KCLM 251803Z AUTO 11005KT 10SM SCT010 OVC095 16/13 A3010 RMK AO2 T01560133=
201709251753 METAR KCLM 251753Z AUTO 11004KT 10SM BKN010 BKN080 BKN100 16/14 A3010 RMK AO2 RAB09E44 SLP191 P0000 60003 T01560139 10156 20122 54000=
201709251751 SPECI KCLM 251751Z AUTO 08003KT 10SM BKN010 BKN031 OVC100 16/13 A3010 RMK AO2 RAB09E44 P0000=
201709251653 METAR KCLM 251653Z AUTO 00000KT 10SM FEW065 OVC085 15/14 A3010 RMK AO2 RAB14E52 SLP192 P0001 T01500139=
201709251553 METAR KCLM 251553Z AUTO 00000KT 10SM OVC080 14/14 A3010 RMK AO2 RAE1459B18E41 SLP192 P0000 T01390139=
201709251453 METAR KCLM 251453Z AUTO 13003KT 7SM -RA OVC095 13/13 A3009 RMK AO2 RAE1354B22 SLP189 P0000 60002 T01280128 56001=
201709251353 METAR KCLM 251353Z AUTO 00000KT 9SM -RA SCT070 OVC090 12/12 A3009 RMK AO2 SLP189 P0001 T01220122=
201709251253 METAR KCLM 251253Z AUTO 00000KT 10SM -RA SCT075 OVC100 12/12 A3009 RMK AO2 SLP188 P0001 T01220122=
201709251153 METAR KCLM 251153Z AUTO 00000KT 10SM -RA FEW049 OVC095 12/12 A3009 RMK AO2 RAB1057 SLP189 P0000 60000 T01220122 10139 20122 55003=
201709251053 METAR KCLM 251053Z AUTO 00000KT 10SM BKN060 OVC100 13/12 A3009 RMK AO2 RAE10 SLP188 P0000 T01330122=
201709250953 METAR KCLM 250953Z AUTO 25006KT 10SM -RA SCT070 BKN090 OVC110 13/12 A3009 RMK AO2 RAB36 SLP188 P0000 T01330122=
201709250853 METAR KCLM 250853Z AUTO 26006KT 10SM BKN065 BKN095 14/12 A3010 RMK AO2 SLP192 T01390122 58003=
201709250753 METAR KCLM 250753Z AUTO 28008KT 10SM BKN060 OVC100 13/12 A3011 RMK AO2 SLP194 T01330122 401940078=
201709250653 METAR KCLM 250653Z AUTO 27006KT 10SM OVC060 13/12 A3011 RMK AO2 SLP195 T01280122=
201709250624 SPECI KCLM 250624Z AUTO 26005KT 10SM FEW005 BKN060 OVC090 12/12 A3011 RMK AO2 T01220122=
201709250553 METAR KCLM 250553Z AUTO 28003KT 10SM BKN090 12/12 A3011 RMK AO2 SLP196 T01220117 10161 20117 52000=
201709250453 METAR KCLM 250453Z AUTO 29003KT 10SM CLR 12/11 A3010 RMK AO2 SLP194 T01220111=
201709250353 METAR KCLM 250353Z AUTO 29006KT 10SM FEW110 12/11 A3011 RMK AO2 SLP197 T01220111=
201709250253 METAR KCLM 250253Z AUTO 28007KT 10SM CLR 13/11 A3011 RMK AO2 SLP196 T01330111 56004=
201709250153 METAR KCLM 250153Z AUTO 29008KT 10SM CLR 14/11 A3011 RMK AO2 SLP196 T01390111=
201709250053 METAR KCLM 250053Z AUTO 28007KT 10SM FEW085 16/10 A3011 RMK AO2 SLP196 T01560100=
201709242353 METAR KCLM 242353Z AUTO 31007KT 10SM FEW110 16/11 A3012 RMK AO2 SLP200 T01560111 10194 20117 56011=
201709242253 METAR KCLM 242253Z AUTO 30008KT 10SM CLR 16/11 A3013 RMK AO2 SLP202 T01560111=
201709242153 METAR KCLM 242153Z AUTO 30007KT 10SM CLR 18/10 A3014 RMK AO2 SLP206 T01780100=
201709242053 METAR KCLM 242053Z AUTO 33011KT 10SM CLR 16/11 A3015 RMK AO2 SLP211 T01560106 50000=
201709241953 METAR KCLM 241953Z AUTO VRB06KT 10SM CLR 16/11 A3016 RMK AO2 SLP211 T01560111=
201709241853 METAR KCLM 241853Z AUTO 35005KT 10SM CLR 15/11 A3016 RMK AO2 SLP212 T01500106=
201709241753 METAR KCLM 241753Z AUTO 01005KT 6SM BR FEW002 12/10 A3015 RMK AO2 SLP212 T01170100 10167 20083 56003=
201709241653 METAR KCLM 241653Z AUTO 00000KT 10SM CLR 14/11 A3016 RMK AO2 SLP214 T01440111=
201709241553 METAR KCLM 241553Z AUTO 00000KT 10SM CLR 13/09 A3015 RMK AO2 SLP210 T01280094=
201709241453 METAR KCLM 241453Z AUTO 24004KT 10SM FEW001 11/10 A3016 RMK AO2 SLP215 T01060100 53006=
201709241444 SPECI KCLM 241444Z AUTO 26003KT 10SM SCT001 11/11 A3016 RMK AO2 T01060106=
201709241437 SPECI KCLM 241437Z AUTO 27004KT 1 1/2SM BR SCT001 10/10 A3017 RMK AO2 T01000100=
201709241431 SPECI KCLM 241431Z AUTO 27005KT 1/2SM FG VV001 11/11 A3016 RMK AO2 T01060106=
201709241424 SPECI KCLM 241424Z AUTO 30008KT 1 1/4SM BR SCT001 11/10 A3016 RMK AO2 T01060100=
201709241353 METAR KCLM 241353Z AUTO 35006KT 10SM CLR 12/08 A3016 RMK AO2 SLP212 T01170083=
201709241253 METAR KCLM 241253Z AUTO 00000KT 10SM CLR 11/08 A3014 RMK AO2 SLP206 T01060078=
201709241153 METAR KCLM 241153Z AUTO 17004KT 10SM CLR 08/07 A3015 RMK AO2 SLP209 T00830067 10128 20078 58001=
201709241053 METAR KCLM 241053Z AUTO 32005KT 10SM CLR 09/08 A3016 RMK AO2 SLP212 T00940083=
201709240953 METAR KCLM 240953Z AUTO 27006KT 10SM CLR 11/10 A3016 RMK AO2 SLP212 T01110100=
201709240853 METAR KCLM 240853Z AUTO 29007KT 10SM CLR 11/09 A3015 RMK AO2 SLP209 T01110094 53007=
201709240753 METAR KCLM 240753Z AUTO 29005KT 10SM CLR 11/09 A3014 RMK AO2 SLP207 T01110094 401830094=
201709240653 METAR KCLM 240653Z AUTO 27009KT 10SM CLR 12/08 A3013 RMK AO2 SLP202 T01220078=
201709240553 METAR KCLM 240553Z AUTO 28007KT 10SM CLR 12/09 A3013 RMK AO2 SLP202 T01170089 10161 20111 53001=
201709240453 METAR KCLM 240453Z AUTO 28006KT 10SM CLR 12/09 A3013 RMK AO2 SLP203 T01170089=
201709240353 METAR KCLM 240353Z AUTO 00000KT 10SM CLR 12/11 A3012 RMK AO2 SLP200 T01170106=
201709240253 METAR KCLM 240253Z AUTO 30003KT 10SM FEW060 13/11 A3013 RMK AO2 SLP201 T01280111 53001=
201709240153 METAR KCLM 240153Z AUTO 30007KT 10SM CLR 13/11 A3012 RMK AO2 SLP201 T01330111=
201709240053 METAR KCLM 240053Z AUTO 30005KT 10SM FEW060 16/09 A3012 RMK AO2 SLP198 T01560094=
201709232353 METAR KCLM 232353Z AUTO 32006KT 10SM FEW110 16/08 A3012 RMK AO2 SLP200 T01610083 10183 20150 53003=
201709232253 METAR KCLM 232253Z AUTO VRB03KT 10SM CLR 18/07 A3011 RMK AO2 SLP197 T01780067=
201709232153 METAR KCLM 232153Z AUTO 01005KT 10SM CLR 18/06 A3011 RMK AO2 SLP194 T01780061=
201709232053 METAR KCLM 232053Z AUTO 09004KT 10SM CLR 18/08 A3011 RMK AO2 SLP196 T01780078 53002=
201709231953 METAR KCLM 231953Z AUTO VRB05KT 10SM CLR 16/08 A3010 RMK AO2 SLP194 T01610083=
201709231853 METAR KCLM 231853Z AUTO VRB04KT 10SM CLR 17/09 A3010 RMK AO2 SLP193 T01670094=
201709231753 METAR KCLM 231753Z AUTO 35004KT 10SM CLR 15/09 A3011 RMK AO2 SLP195 T01500094 10156 20094 53009=
201709231653 METAR KCLM 231653Z AUTO 01004KT 10SM CLR 15/09 A3010 RMK AO2 SLP192 T01500094=
201709231553 METAR KCLM 231553Z AUTO 27005KT 10SM OVC100 13/08 A3009 RMK AO2 SLP188 T01330083=
201709231453 METAR KCLM 231453Z AUTO 27004KT 10SM FEW110 12/09 A3008 RMK AO2 SLP187 T01220089 53010=
201709231353 METAR KCLM 231353Z AUTO 20003KT 10SM CLR 11/08 A3005 RMK AO2 SLP177 T01060083=
201709231253 METAR KCLM 231253Z AUTO 22004KT 10SM CLR 10/08 A3004 RMK AO2 SLP173 T01000083=
201709231153 METAR KCLM 231153Z AUTO 00000KT 10SM FEW080 BKN120 11/09 A3005 RMK AO2 SLP175 T01110094 10128 20106 55001=
201709231053 METAR KCLM 231053Z AUTO 00000KT 10SM OVC080 12/09 A3005 RMK AO2 SLP175 T01170094=
201709230953 METAR KCLM 230953Z AUTO 27003KT 10SM OVC110 12/09 A3004 RMK AO2 SLP174 T01170094=
201709230853 METAR KCLM 230853Z AUTO 29008KT 10SM BKN080 OVC110 12/09 A3005 RMK AO2 SLP177 T01220094 53006=
201709230753 METAR KCLM 230753Z AUTO 00000KT 10SM OVC110 12/09 A3005 RMK AO2 SLP175 T01220094 401890094=
201709230653 METAR KCLM 230653Z AUTO 28005KT 10SM SCT120 12/09 A3004 RMK AO2 SLP172 T01170094=
201709230553 METAR KCLM 230553Z AUTO 00000KT 10SM CLR 11/08 A3003 RMK AO2 SLP170 T01060083 10167 20100 55001=
201709230453 METAR KCLM 230453Z AUTO 28004KT 10SM CLR 11/08 A3003 RMK AO2 SLP168 T01110083=
201709230353 METAR KCLM 230353Z AUTO 28004KT 10SM CLR 12/09 A3003 RMK AO2 SLP171 T01170089=
201709230253 METAR KCLM 230253Z AUTO 25003KT 10SM FEW120 12/08 A3004 RMK AO2 SLP172 T01170083 53001=
201709230153 METAR KCLM 230153Z AUTO 29003KT 10SM CLR 12/08 A3003 RMK AO2 SLP171 T01220083=
201709230053 METAR KCLM 230053Z AUTO 01003KT 10SM CLR 16/08 A3003 RMK AO2 SLP170 T01560083=
201709222353 METAR KCLM 222353Z AUTO 02003KT 10SM CLR 17/07 A3003 RMK AO2 SLP170 T01670067 10189 20161 55005=
201709222253 METAR KCLM 222253Z AUTO 00000KT 10SM CLR 18/06 A3003 RMK AO2 SLP169 T01830056=
201709222153 METAR KCLM 222153Z AUTO VRB03KT 10SM CLR 19/06 A3004 RMK AO2 SLP173 T01890061=
201709222053 METAR KCLM 222053Z AUTO 09006KT 10SM CLR 18/07 A3005 RMK AO2 SLP175 T01780072 58007=
201709221953 METAR KCLM 221953Z AUTO 07004KT 10SM CLR 18/07 A3006 RMK AO2 SLP179 T01830067=
201709221853 METAR KCLM 221853Z AUTO 07005KT 10SM CLR 18/08 A3006 RMK AO2 SLP180 T01780078=
201709221753 METAR KCLM 221753Z AUTO 05005KT 10SM CLR 16/08 A3007 RMK AO2 SLP182 T01610078 10167 20094 50003=
201709221653 METAR KCLM 221653Z AUTO VRB04KT 10SM CLR 16/07 A3008 RMK AO2 SLP185 T01610067=
201709221553 METAR KCLM 221553Z AUTO 23006KT 10SM BKN090 13/05 A3007 RMK AO2 SLP182 T01280050=
201709221453 METAR KCLM 221453Z AUTO 24006KT 10SM OVC095 11/05 A3006 RMK AO2 SLP179 T01110050 50006=
201709221353 METAR KCLM 221353Z AUTO 25004KT 10SM OVC095 11/05 A3006 RMK AO2 SLP180 T01060050=
201709221253 METAR KCLM 221253Z AUTO 27003KT 10SM OVC095 10/06 A3004 RMK AO2 SLP174 T01000056=
201709221153 METAR KCLM 221153Z AUTO 00000KT 10SM OVC100 11/04 A3004 RMK AO2 SLP173 T01060044 10133 20106 53007=
201709221053 METAR KCLM 221053Z AUTO 26007KT 10SM OVC100 12/03 A3003 RMK AO2 SLP168 T01170033=
201709220953 METAR KCLM 220953Z AUTO 26010KT 10SM OVC095 12/03 A3002 RMK AO2 SLP165 T01220033=
201709220853 METAR KCLM 220853Z AUTO 26009KT 10SM OVC100 12/04 A3002 RMK AO2 SLP166 T01220039 51004=
201709220753 METAR KCLM 220753Z AUTO 25009KT 10SM OVC100 13/04 A3002 RMK AO2 SLP165 T01280039 401890072=
201709220653 METAR KCLM 220653Z AUTO 26007KT 10SM OVC100 13/06 A3002 RMK AO2 SLP165 T01330056=
201709220553 METAR KCLM 220553Z AUTO 23004KT 10SM OVC100 13/06 A3001 RMK AO2 SLP162 T01280061 10183 20117 50007=
201709220453 METAR KCLM 220453Z AUTO 26007KT 10SM OVC100 13/07 A3001 RMK AO2 SLP163 T01280067 TSNO=
201709220353 METAR KCLM 220353Z AUTO 29004KT 10SM OVC100 12/07 A3001 RMK AO2 SLP163 T01220072=
201709220253 METAR KCLM 220253Z AUTO 00000KT 10SM OVC100 14/07 A2999 RMK AO2 SLP156 T01390067 53006=
201709220153 METAR KCLM 220153Z AUTO 08003KT 10SM OVC100 17/04 A2998 RMK AO2 SLP152 T01720039=
201709220053 METAR KCLM 220053Z AUTO 10006KT 10SM BKN100 18/03 A2997 RMK AO2 SLP148 T01830028=
201709212353 METAR KCLM 212353Z AUTO 11004KT 10SM CLR 18/03 A2997 RMK AO2 SLP148 T01830028 10189 20139 50003=
201709212253 METAR KCLM 212253Z AUTO 04005KT 10SM CLR 17/05 A2997 RMK AO2 SLP149 T01720050=
201709212153 METAR KCLM 212153Z AUTO VRB03KT 10SM CLR 18/04 A2997 RMK AO2 SLP148 T01780044=
201709212053 METAR KCLM 212053Z AUTO 10SM CLR 17/07 A2996 RMK AO2 SLP146 T01670067 53003=
201709211953 METAR KCLM 211953Z AUTO 09007KT 10SM CLR 16/08 A2995 RMK AO2 SLP143 T01610078=
201709211853 METAR KCLM 211853Z AUTO 07005KT 10SM CLR 16/08 A2995 RMK AO2 SLP144 T01560078=
201709211753 METAR KCLM 211753Z AUTO 00000KT 10SM CLR 14/08 A2995 RMK AO2 SLP143 T01440083 10144 20072 51013=
201709211653 METAR KCLM 211653Z AUTO 03005KT 10SM FEW100 13/08 A2994 RMK AO2 SLP141 T01330078=
201709211553 METAR KCLM 211553Z AUTO 00000KT 10SM FEW120 11/08 A2993 RMK AO2 SLP135 T01110078=
201709211453 METAR KCLM 211453Z AUTO 00000KT 10SM SCT085 08/06 A2991 RMK AO2 SLP131 T00780061 51013=
201709211353 METAR KCLM 211353Z AUTO 00000KT 10SM SCT060 BKN070 OVC085 09/06 A2990 RMK AO2 SLP127 T00940061=
201709211253 METAR KCLM 211253Z AUTO 23003KT 10SM OVC060 10/06 A2990 RMK AO2 SLP124 T01000061=
201709211153 METAR KCLM 211153Z AUTO 23005KT 10SM FEW060 08/06 A2988 RMK AO2 SLP118 T00780056 10100 20072 51014=
201709211053 METAR KCLM 211053Z AUTO 24006KT 10SM FEW060 SCT085 OVC110 10/06 A2987 RMK AO2 SLP114 T01000056=
201709210953 METAR KCLM 210953Z AUTO 23006KT 10SM BKN095 08/06 A2985 RMK AO2 SLP110 T00830056=
201709210853 METAR KCLM 210853Z AUTO 27006KT 10SM BKN080 09/06 A2984 RMK AO2 SLP104 T00940056 53004=
201709210753 METAR KCLM 210753Z AUTO 25006KT 10SM SCT060 09/06 A2983 RMK AO2 SLP103 T00940061 401500067=
201709210653 METAR KCLM 210653Z AUTO 23005KT 10SM CLR 08/06 A2982 RMK AO2 SLP098 T00830061=
201709210553 METAR KCLM 210553Z AUTO 00000KT 10SM CLR 08/06 A2982 RMK AO2 SLP099 T00830061 10150 20078 53011=
201709210453 METAR KCLM 210453Z AUTO 27008KT 10SM CLR 10/07 A2982 RMK AO2 SLP098 T01000072=
201709210353 METAR KCLM 210353Z AUTO 24004KT 10SM CLR 09/07 A2979 RMK AO2 SLP089 T00890067=
201709210253 METAR KCLM 210253Z AUTO 00000KT 10SM CLR 09/06 A2979 RMK AO2 SLP088 T00940061 51012=
201709210153 METAR KCLM 210153Z AUTO 26003KT 10SM CLR 11/06 A2978 RMK AO2 SLP085 T01110061=
201709210053 METAR KCLM 210053Z AUTO 31005KT 10SM CLR 14/06 A2977 RMK AO2 SLP080 T01390061=
201709202353 METAR KCLM 202353Z AUTO 00000KT 10SM FEW065 15/07 A2975 RMK AO2 SLP076 T01500072 10150 20117 53005=
201709202253 METAR KCLM 202253Z AUTO 33005KT 10SM FEW065 13/09 A2975 RMK AO2 SLP075 T01330089=
201709202153 METAR KCLM 202153Z AUTO VRB05KT 10SM OVC060 14/08 A2974 RMK AO2 SLP070 T01390078=
201709202053 METAR KCLM 202053Z AUTO VRB03KT 10SM OVC060 13/09 A2974 RMK AO2 SLP071 T01280089 51011=
201709201953 METAR KCLM 201953Z AUTO VRB03KT 10SM SCT060 14/07 A2973 RMK AO2 SLP068 T01440072=
201709201912 SPECI KCLM 201912Z AUTO 06004KT 10SM SCT025 SCT060 13/07 A2972 RMK AO2 T01330072=
201709201853 METAR KCLM 201853Z AUTO 04005KT 10SM OVC025 14/07 A2972 RMK AO2 SLP065 T01390072=
201709201753 METAR KCLM 201753Z AUTO 00000KT 10SM BKN023 OVC028 12/08 A2971 RMK AO2 SLP060 60000 T01170078 10117 20083 53012=
201709201653 METAR KCLM 201653Z AUTO 00000KT 10SM BKN019 OVC036 11/08 A2969 RMK AO2 SLP056 T01110078=
201709201624 SPECI KCLM 201624Z AUTO 23004KT 10SM FEW010 BKN017 OVC026 10/07 A2969 RMK AO2 T01000072=
201709201553 METAR KCLM 201553Z AUTO 26004KT 10SM OVC011 09/07 A2968 RMK AO2 SLP051 T00940067=
201709201502 SPECI KCLM 201502Z AUTO 23003KT 10SM SCT007 OVC013 09/07 A2967 RMK AO2 T00890072=
201709201453 METAR KCLM 201453Z AUTO 23004KT 10SM BKN007 OVC015 09/07 A2967 RMK AO2 RAB09E26 SLP049 P0000 60000 T00890072 53010=
201709201353 METAR KCLM 201353Z AUTO 24005KT 10SM BKN009 OVC060 08/06 A2966 RMK AO2 CIG 006V011 SLP045 T00830061=
201709201331 SPECI KCLM 201331Z AUTO 25005KT 10SM BKN009 OVC039 09/06 A2966 RMK AO2 T00890061=
201709201319 SPECI KCLM 201319Z AUTO 26005KT 10SM SCT008 OVC039 09/06 A2966 RMK AO2 T00890061=
201709201253 METAR KCLM 201253Z AUTO 27006KT 10SM FEW039 OVC060 08/06 A2965 RMK AO2 SLP041 T00830061=
201709201153 METAR KCLM 201153Z AUTO 22003KT 10SM OVC055 08/07 A2964 RMK AO2 SLP038 70002 T00830067 10100 20067 55005=
201709201053 METAR KCLM 201053Z AUTO 24005KT 10SM BKN044 08/07 A2964 RMK AO2 SLP038 T00830067=
201709200953 METAR KCLM 200953Z AUTO 23005KT 10SM CLR 08/07 A2966 RMK AO2 SLP043 T00780067=
201709200853 METAR KCLM 200853Z AUTO 00000KT 10SM FEW050 07/07 A2966 RMK AO2 SLP043 T00670067 58020=
201709200753 METAR KCLM 200753Z AUTO 00000KT 10SM OVC050 08/08 A2968 RMK AO2 SLP050 T00780078 401330061=
201709200653 METAR KCLM 200653Z AUTO 12003KT 10SM OVC050 08/07 A2970 RMK AO2 SLP059 T00780072=
201709200553 METAR KCLM 200553Z AUTO 19005KT 10SM BKN055 OVC070 10/08 A2972 RMK AO2 SLP063 60000 T01000083 10128 20089 58008=
201709200453 METAR KCLM 200453Z AUTO 00000KT 10SM SCT060 09/09 A2972 RMK AO2 SLP066 T00940089=
201709200353 METAR KCLM 200353Z AUTO 25003KT 10SM OVC055 10/09 A2974 RMK AO2 RAE0255 SLP070 P0000 T01000094=
201709200253 METAR KCLM 200253Z AUTO 30004KT 10SM -RA FEW035 BKN060 11/09 A2974 RMK AO2 RAB01E28B44 SLP071 P0000 60000 T01060094 57005=
201709200153 METAR KCLM 200153Z AUTO 25005KT 10SM BKN055 OVC110 11/09 A2974 RMK AO2 RAB0056E07 SLP072 P0000 T01110094=
201709200053 METAR KCLM 200053Z AUTO 31005KT 10SM OVC065 12/09 A2975 RMK AO2 SLP075 T01220089=
201709192353 METAR KCLM 192353Z AUTO 33009KT 10SM SCT023 OVC060 13/09 A2975 RMK AO2 SLP076 60001 T01280089 10133 20111 58001=
201709192253 METAR KCLM 192253Z AUTO VRB06KT 10SM BKN050 BKN060 OVC080 13/10 A2976 RMK AO2 RAB28E38 SLP077 P0000 T01330100=
201709192153 METAR KCLM 192153Z AUTO 31006KT 10SM FEW028 BKN043 OVC050 12/11 A2976 RMK AO2 RAB07E47 SLP079 P0001 T01170106=
201709192053 METAR KCLM 192053Z AUTO 00000KT 10SM FEW009 OVC047 12/11 A2976 RMK AO2 SLP077 T01220106 50001=
201709192046 SPECI KCLM 192046Z AUTO 00000KT 10SM FEW009 BKN047 OVC055 12/11 A2976 RMK AO2 T01170106=
201709191953 METAR KCLM 191953Z AUTO 36006KT 10SM FEW030 OVC048 12/09 A2976 RMK AO2 SLP078 T01220094=
201709191853 METAR KCLM 191853Z AUTO 36003KT 10SM OVC065 12/09 A2976 RMK AO2 SLP079 T01220094=
201709191801 SPECI KCLM 191801Z AUTO 00000KT 10SM FEW009 SCT014 OVC065 12/09 A2975 RMK AO2 T01170094=
201709191753 METAR KCLM 191753Z AUTO 00000KT 10SM SCT009 BKN019 OVC065 12/10 A2975 RMK AO2 SLP075 60001 T01170100 10117 20061 51012=
201709191735 SPECI KCLM 191735Z AUTO 04003KT 9SM OVC010 11/10 A2975 RMK AO2 CIG 006V012 T01110100=
201709191719 SPECI KCLM 191719Z AUTO 00000KT 10SM BKN009 OVC060 11/09 A2975 RMK AO2 T01110094=
201709191653 METAR KCLM 191653Z AUTO 00000KT 10SM OVC060 11/09 A2974 RMK AO2 RAE13 SLP072 P0000 T01110094=
201709191553 METAR KCLM 191553Z AUTO 22003KT 6SM -RA BR OVC060 10/09 A2973 RMK AO2 RAB04E13B19 SLP068 P0001 T01000089=
201709191527 SPECI KCLM 191527Z AUTO 23004KT 9SM -RA SCT005 SCT013 OVC060 09/09 A2972 RMK AO2 RAB04E13B19 P0000 T00940089=
201709191453 METAR KCLM 191453Z AUTO 00000KT 10SM OVC005 09/09 A2972 RMK AO2 RAE1354 SLP064 P0000 60000 T00890089 51016=
201709191416 SPECI KCLM 191416Z AUTO 24003KT 10SM BKN005 OVC060 08/08 A2971 RMK AO2 RAE1354 P0000 T00830083=
201709191407 SPECI KCLM 191407Z AUTO 23004KT 10SM SCT005 OVC060 08/08 A2971 RMK AO2 RAE1354 P0000 T00830083=
201709191353 METAR KCLM 191353Z AUTO 23005KT 10SM -RA BKN005 OVC065 08/08 A2970 RMK AO2 SLP059 P0000 T00830078=
201709191337 SPECI KCLM 191337Z AUTO 23004KT 10SM -RA BKN005 BKN019 OVC060 08/08 A2970 RMK AO2 P0000 T00830078=
201709191329 SPECI KCLM 191329Z AUTO 26003KT 10SM -RA SCT005 BKN019 OVC060 08/08 A2970 RMK AO2 P0000 T00830078=
201709191318 SPECI KCLM 191318Z AUTO 24004KT 10SM -RA SCT005 BKN031 OVC060 08/08 A2970 RMK AO2 P0000 T00830078=
201709191253 METAR KCLM 191253Z AUTO 00000KT 10SM -RA FEW032 OVC060 07/07 A2969 RMK AO2 RAB44 SLP054 P0000 T00720072=
201709191217 SPECI KCLM 191217Z AUTO 00000KT 3SM BR FEW037 SCT070 BKN100 07/07 A2968 RMK AO2 T00670067=
201709191209 SPECI KCLM 191209Z AUTO 24003KT 1 1/4SM BR BKN070 07/07 A2968 RMK AO2 T00670067=
201709191153 METAR KCLM 191153Z AUTO 00000KT 3/4SM BR SCT075 07/07 A2967 RMK AO2 VIS 1/4V5 SLP048 70009 T00720072 10100 20072 53002=
201709191151 SPECI KCLM 191151Z AUTO 00000KT 1 1/4SM BR SCT075 07/07 A2967 RMK AO2 VIS 1/4V5=
201709191053 METAR KCLM 191053Z AUTO 00000KT 10SM BKN065 08/08 A2967 RMK AO2 SLP046 T00780078=
201709190953 METAR KCLM 190953Z AUTO 00000KT 10SM BKN070 08/08 A2966 RMK AO2 SLP043 T00830078=
201709190853 METAR KCLM 190853Z AUTO 00000KT 10SM OVC070 08/08 A2966 RMK AO2 SLP046 T00830083 55000=
201709190753 METAR KCLM 190753Z AUTO 00000KT 10SM FEW070 09/08 A2966 RMK AO2 SLP043 T00890083 401500072=
201709190653 METAR KCLM 190653Z AUTO 00000KT 10SM BKN065 OVC080 09/08 A2966 RMK AO2 SLP044 T00940083=
201709190553 METAR KCLM 190553Z AUTO 28004KT 10SM BKN065 OVC080 09/09 A2966 RMK AO2 RAB04E49 SLP046 P0001 60003 T00940089 10128 20089 56005=
201709190453 METAR KCLM 190453Z AUTO 00000KT 10SM BKN065 OVC080 09/09 A2966 RMK AO2 SLP046 T00940094=
201709190353 METAR KCLM 190353Z AUTO 27003KT 10SM FEW060 SCT070 OVC110 09/09 A2967 RMK AO2 SLP047 T00940089=
201709190253 METAR KCLM 190253Z AUTO 00000KT 10SM SCT100 BKN110 09/09 A2968 RMK AO2 SLP051 60002 T00940089 57010=
201709190153 METAR KCLM 190153Z AUTO 33003KT 10SM SCT065 SCT080 11/10 A2969 RMK AO2 RAE29 SLP054 P0001 T01060100=
201709190053 METAR KCLM 190053Z AUTO 00000KT 10SM -RA OVC050 12/11 A2970 RMK AO2 RAB08 SLP058 P0001 T01170106=
201709182353 METAR KCLM 182353Z AUTO 10004KT 10SM OVC070 13/08 A2971 RMK AO2 SLP061 60005 T01330078 10150 20117 56012=
201709182253 METAR KCLM 182253Z AUTO 11004KT 10SM FEW022 FEW045 SCT055 13/09 A2972 RMK AO2 RAE45 SLP064 P0005 T01280094=
201709182239 SPECI KCLM 182239Z AUTO 12006KT 3SM -RA FEW022 BKN040 BKN047 12/09 A2972 RMK AO2 P0005 T01220094=
201709182230 SPECI KCLM 182230Z AUTO 13006KT 1 3/4SM +RA FEW029 BKN040 OVC055 12/09 A2973 RMK AO2 P0004 T01220094=
201709182153 METAR KCLM 182153Z AUTO 14003KT 7SM -RA FEW040 BKN055 OVC070 12/08 A2974 RMK AO2 RAB16 SLP070 P0000 T01220083=
201709182053 METAR KCLM 182053Z AUTO 07004KT 10SM BKN040 OVC047 13/07 A2975 RMK AO2 RAB23E36 SLP073 P0000 60000 T01330072 58003=
201709181953 METAR KCLM 181953Z AUTO 09006KT 10SM BKN070 OVC090 14/08 A2975 RMK AO2 SLP075 T01440083=
201709181853 METAR KCLM 181853Z AUTO 03004KT 10SM BKN070 13/08 A2976 RMK AO2 SLP078 T01280078=
201709181753 METAR KCLM 181753Z AUTO 35005KT 10SM CLR 12/09 A2975 RMK AO2 SLP076 60001 T01220089 10128 20078 53001=
201709181653 METAR KCLM 181653Z AUTO VRB05KT 10SM SCT060 12/08 A2975 RMK AO2 SLP074 T01170083=
201709181553 METAR KCLM 181553Z AUTO 25005KT 10SM FEW070 11/09 A2974 RMK AO2 SLP073 T01110089=
201709181453 METAR KCLM 181453Z AUTO 24007KT 10SM SCT050 OVC070 10/08 A2975 RMK AO2 RAE52 SLP076 P0001 60001 T01000083 55006=
201709181353 METAR KCLM 181353Z AUTO 00000KT 10SM -RA SCT055 OVC070 09/08 A2975 RMK AO2 SLP075 P0000 T00890078=
201709181253 METAR KCLM 181253Z AUTO 29004KT 10SM -RA FEW046 BKN060 OVC090 09/08 A2976 RMK AO2 RAB01 SLP080 P0000 T00890083=
201709181153 METAR KCLM 181153Z AUTO 23005KT 10SM BKN060 BKN110 08/08 A2977 RMK AO2 SLP081 60003 70008 T00780078 10117 20072 55005=
201709181053 METAR KCLM 181053Z AUTO 20003KT 10SM CLR 09/07 A2976 RMK AO2 SLP079 T00890072=
201709180953 METAR KCLM 180953Z AUTO 27009KT 10SM OVC060 11/08 A2978 RMK AO2 SLP085 T01060078=
201709180853 METAR KCLM 180853Z AUTO 17004KT 10SM FEW075 BKN095 09/08 A2979 RMK AO2 SLP086 60003 T00890078 56006=
201709180753 METAR KCLM 180753Z AUTO 24005KT 10SM BKN065 BKN110 09/08 A2979 RMK AO2 RAE0658 SLP086 P0000 T00940078 401670078=
201709180653 METAR KCLM 180653Z AUTO 21004KT 10SM -RA BKN055 OVC070 11/09 A2980 RMK AO2 RAB03 SLP091 P0003 T01060089=
201709180553 METAR KCLM 180553Z AUTO 27010KT 10SM OVC055 11/08 A2980 RMK AO2 RAB22E32 SLP092 P0000 60000 T01060083 10139 20100 51014=
201709180453 METAR KCLM 180453Z AUTO 31003KT 10SM OVC070 11/08 A2979 RMK AO2 SLP088 T01060078=
201709180353 METAR KCLM 180353Z AUTO 27006KT 10SM OVC070 12/08 A2979 RMK AO2 SLP087 T01220078=
201709180253 METAR KCLM 180253Z AUTO 31005KT 10SM CLR 11/09 A2976 RMK AO2 SLP079 T01060089 53002=
201709180153 METAR KCLM 180153Z AUTO 26006KT 10SM CLR 13/09 A2975 RMK AO2 SLP076 T01280089=
201709180053 METAR KCLM 180053Z AUTO 25008KT 10SM OVC070 14/09 A2976 RMK AO2 SLP076 T01390089=
201709172353 METAR KCLM 172353Z AUTO 28004KT 10SM SCT047 OVC060 12/12 A2976 RMK AO2 RAE42 SLP077 P0002 60005 T01220122 10167 20117 51003=
201709172314 SPECI KCLM 172314Z AUTO VRB03KT 5SM -RA BR FEW004 OVC037 12/12 A2975 RMK AO2 P0002 T01220117=
201709172306 SPECI KCLM 172306Z AUTO 21004KT 2 1/2SM -RA BR FEW005 SCT008 OVC035 12/12 A2975 RMK AO2 P0002 T01220117=
201709172253 METAR KCLM 172253Z AUTO 28003KT 2SM -RA BR BKN005 OVC013 12/12 A2975 RMK AO2 RAB01 SLP076 P0003 T01170117=
201709172248 SPECI KCLM 172248Z AUTO 31003KT 1 3/4SM -RA BR SCT005 BKN008 OVC020 12/12 A2976 RMK AO2 RAB01 P0003=
201709172224 SPECI KCLM 172224Z AUTO 31007KT 1 3/4SM -RA BR SCT007 BKN023 OVC034 12/12 A2976 RMK AO2 RAB01 P0001 T01170117=
201709172218 SPECI KCLM 172218Z AUTO 30010KT 2 1/2SM -RA BR FEW007 BKN030 OVC050 12/12 A2976 RMK AO2 RAB01 P0000 T01220117=
201709172153 METAR KCLM 172153Z AUTO 31009KT 6SM BR BKN036 BKN046 OVC060 12/11 A2975 RMK AO2 RAB05E34 SLP074 P0000 T01220111=
201709172053 METAR KCLM 172053Z AUTO 05004KT 10SM BKN070 OVC090 17/09 A2971 RMK AO2 RAE05B21E40 SLP061 P0000 60000 T01670094 56021=
201709171953 METAR KCLM 171953Z AUTO 13005KT 10SM -RA FEW065 SCT090 OVC110 16/09 A2972 RMK AO2 RAB50 SLP062 P0000 T01560094=
201709171853 METAR KCLM 171853Z AUTO 13010KT 10SM FEW060 SCT080 OVC110 15/09 A2975 RMK AO2 RAB39E50 SLP072 P0000 T01500094=
201709171753 METAR KCLM 171753Z AUTO 12007KT 10SM SCT120 15/09 A2977 RMK AO2 SLP082 T01500094 10150 20111 58012=
201709171653 METAR KCLM 171653Z AUTO 11005KT 10SM CLR 14/10 A2979 RMK AO2 SLP087 T01440100=
201709171553 METAR KCLM 171553Z AUTO VRB05KT 10SM CLR 13/11 A2981 RMK AO2 SLP095 T01330106=
201709171453 METAR KCLM 171453Z AUTO 23004KT 10SM CLR 12/11 A2981 RMK AO2 SLP095 T01170106 58013=
201709171353 METAR KCLM 171353Z AUTO 26006KT 10SM CLR 11/09 A2982 RMK AO2 SLP100 T01110094=
201709171253 METAR KCLM 171253Z AUTO 29006KT 10SM CLR 11/09 A2984 RMK AO2 SLP103 T01110094=
201709171153 METAR KCLM 171153Z AUTO 27006KT 10SM CLR 12/09 A2985 RMK AO2 SLP107 T01170094 10117 20078 55007=
201709171053 METAR KCLM 171053Z AUTO 24006KT 10SM CLR 11/07 A2985 RMK AO2 SLP106 T01060072=
201709170953 METAR KCLM 170953Z AUTO 21003KT 10SM CLR 09/08 A2987 RMK AO2 SLP113 T00940078=
201709170853 METAR KCLM 170853Z AUTO 00000KT 10SM CLR 09/07 A2987 RMK AO2 SLP114 T00940072 58009=
201709170753 METAR KCLM 170753Z AUTO 00000KT 10SM CLR 09/08 A2988 RMK AO2 SLP119 T00940078 402060061=
201709170653 METAR KCLM 170653Z AUTO 30004KT 10SM CLR 11/08 A2990 RMK AO2 SLP124 T01060083=
201709170553 METAR KCLM 170553Z AUTO 27004KT 10SM CLR 10/07 A2990 RMK AO2 SLP124 T01000067 10206 20094 58007=
201709170453 METAR KCLM 170453Z AUTO 29007KT 10SM CLR 10/07 A2991 RMK AO2 SLP128 T01000072=
201709170353 METAR KCLM 170353Z AUTO 25005KT 10SM CLR 11/07 A2992 RMK AO2 SLP132 T01060072=
201709170253 METAR KCLM 170253Z AUTO 25004KT 10SM CLR 11/08 A2992 RMK AO2 SLP133 T01110083 56009=
201709170153 METAR KCLM 170153Z AUTO 30004KT 10SM CLR 12/09 A2993 RMK AO2 SLP136 T01220089=
201709170053 METAR KCLM 170053Z AUTO 00000KT 10SM CLR 18/04 A2993 RMK AO2 SLP133 T01830039=
201709162353 METAR KCLM 162353Z AUTO 00000KT 10SM CLR 19/04 A2995 RMK AO2 SLP141 T01890039 10194 20139 56017=
201709162253 METAR KCLM 162253Z AUTO 00000KT 10SM CLR 19/04 A2996 RMK AO2 SLP146 T01890044=
201709162153 METAR KCLM 162153Z AUTO 08004KT 10SM CLR 18/05 A2998 RMK AO2 SLP151 T01780050=
201709162053 METAR KCLM 162053Z AUTO VRB03KT 10SM CLR 19/04 A3000 RMK AO2 SLP158 T01890044 58012=
201709161953 METAR KCLM 161953Z AUTO 10003KT 10SM CLR 18/04 A3002 RMK AO2 SLP164 T01780044=
201709161853 METAR KCLM 161853Z AUTO 03003KT 10SM CLR 17/07 A3002 RMK AO2 SLP167 T01670072=
201709161753 METAR KCLM 161753Z AUTO 02005KT 10SM CLR 16/06 A3003 RMK AO2 SLP170 T01560061 10183 20061 56003=
201709161653 METAR KCLM 161653Z AUTO 00000KT 10SM CLR 16/04 A3004 RMK AO2 SLP171 T01560039=
201709161553 METAR KCLM 161553Z AUTO 00000KT 10SM CLR 14/07 A3004 RMK AO2 SLP171 T01390067=
201709161453 METAR KCLM 161453Z AUTO 00000KT 10SM CLR 09/05 A3004 RMK AO2 SLP174 T00940050 53007=
201709161353 METAR KCLM 161353Z AUTO 00000KT 10SM CLR 06/03 A3002 RMK AO2 SLP166 T00610028=
201709161253 METAR KCLM 161253Z AUTO 26003KT 10SM CLR 07/03 A3001 RMK AO2 SLP163 T00670028=
201709161153 METAR KCLM 161153Z AUTO 00000KT 10SM CLR 08/02 A3002 RMK AO2 SLP166 T00780022 10128 20067 50000=
201709161053 METAR KCLM 161053Z AUTO 00000KT 10SM CLR 08/03 A3003 RMK AO2 SLP167 T00780033=
201709160953 METAR KCLM 160953Z AUTO 00000KT 10SM CLR 09/03 A3003 RMK AO2 SLP168 T00890033=
201709160853 METAR KCLM 160853Z AUTO 16003KT 10SM CLR 07/03 A3002 RMK AO2 SLP166 T00720033 58001=
201709160753 METAR KCLM 160753Z AUTO 00000KT 10SM CLR 10/04 A3002 RMK AO2 SLP167 T01000039 402390067=
201709160653 METAR KCLM 160653Z AUTO 00000KT 10SM CLR 10/04 A3002 RMK AO2 SLP167 T01000039=
201709160553 METAR KCLM 160553Z AUTO 23004KT 10SM CLR 13/03 A3002 RMK AO2 SLP167 T01280033 10239 20100 58004=
201709160453 METAR KCLM 160453Z AUTO 25004KT 10SM CLR 12/05 A3003 RMK AO2 SLP169 T01170050=
201709160353 METAR KCLM 160353Z AUTO 24004KT 10SM CLR 12/06 A3004 RMK AO2 SLP171 T01170061=
201709160253 METAR KCLM 160253Z AUTO 26004KT 10SM CLR 14/06 A3004 RMK AO2 SLP171 T01440061 58005=
201709160153 METAR KCLM 160153Z AUTO 28003KT 10SM CLR 14/07 A3004 RMK AO2 SLP175 T01440067=
201709160053 METAR KCLM 160053Z AUTO 33007KT 10SM CLR 19/02 A3005 RMK AO2 SLP174 T01890022=
201709152353 METAR KCLM 152353Z AUTO 08005KT 10SM CLR 23/M03 A3005 RMK AO2 SLP176 T02331028 10239 20183 56013=
201709152253 METAR KCLM 152253Z AUTO 08005KT 10SM CLR 23/M02 A3006 RMK AO2 SLP177 T02331022=
201709152153 METAR KCLM 152153Z AUTO VRB04KT 10SM CLR 23/M01 A3007 RMK AO2 SLP183 T02331011=
201709152053 METAR KCLM 152053Z AUTO 10006KT 10SM CLR 22/01 A3009 RMK AO2 SLP188 T02220006 58007=
201709151953 METAR KCLM 151953Z AUTO VRB04KT 10SM CLR 21/04 A3010 RMK AO2 SLP193 T02110039=
201709151853 METAR KCLM 151853Z AUTO 04004KT 10SM CLR 20/06 A3011 RMK AO2 SLP195 T02000056=
201709151753 METAR KCLM 151753Z AUTO VRB03KT 10SM CLR 20/05 A3011 RMK AO2 SLP196 T02000050 10200 20067 51005=
201709151653 METAR KCLM 151653Z AUTO 10005KT 10SM CLR 19/04 A3011 RMK AO2 SLP196 T01940039=
201709151553 METAR KCLM 151553Z AUTO 24004KT 10SM CLR 16/02 A3011 RMK AO2 SLP195 T01610017=
201709151453 METAR KCLM 151453Z AUTO 22005KT 10SM CLR 11/01 A3010 RMK AO2 SLP191 T01110011 52009=
201709151353 METAR KCLM 151353Z AUTO 23006KT 10SM CLR 09/00 A3009 RMK AO2 SLP189 T00940000=
201709151253 METAR KCLM 151253Z AUTO 23003KT 10SM CLR 07/01 A3007 RMK AO2 SLP184 T00670011=
201709151153 METAR KCLM 151153Z AUTO 24004KT 10SM CLR 10/01 A3007 RMK AO2 SLP182 T01000006 10144 20078 53010=
201709151053 METAR KCLM 151053Z AUTO 24008KT 10SM CLR 12/M01 A3006 RMK AO2 SLP177 T01221006=
201709150953 METAR KCLM 150953Z AUTO 24008KT 10SM CLR 13/M01 A3004 RMK AO2 SLP172 T01331011=
201709150853 METAR KCLM 150853Z AUTO 24008KT 10SM CLR 13/M01 A3004 RMK AO2 SLP170 T01331011 51009=
201709150753 METAR KCLM 150753Z AUTO 24010KT 10SM CLR 13/M01 A3003 RMK AO2 SLP168 T01331011 402330061=
201709150653 METAR KCLM 150653Z AUTO 25011KT 10SM CLR 14/M01 A3002 RMK AO2 SLP164 T01391011=
201709150553 METAR KCLM 150553Z AUTO 25010KT 10SM CLR 14/M01 A3001 RMK AO2 SLP162 T01441006 10233 20117 51004=
201709150453 METAR KCLM 150453Z AUTO 25007KT 10SM CLR 13/01 A3001 RMK AO2 SLP161 T01330006=
201709150353 METAR KCLM 150353Z AUTO 25007KT 10SM CLR 14/02 A3001 RMK AO2 SLP163 T01440022=
201709150253 METAR KCLM 150253Z AUTO 00000KT 10SM CLR 15/03 A3000 RMK AO2 SLP159 T01500028 53005=
201709150153 METAR KCLM 150153Z AUTO 31005KT 10SM CLR 17/04 A2999 RMK AO2 SLP154 T01720039=
201709150053 METAR KCLM 150053Z AUTO 00000KT 10SM CLR 23/M03 A2998 RMK AO2 SLP153 T02281033=
201709142353 METAR KCLM 142353Z AUTO 00000KT 10SM CLR 23/M03 A2998 RMK AO2 SLP153 T02281028 10233 20206 58008=
201709142253 METAR KCLM 142253Z AUTO VRB04KT 10SM CLR 23/M02 A2999 RMK AO2 SLP156 T02281022=
201709142153 METAR KCLM 142153Z AUTO VRB05KT 10SM CLR 23/M03 A3000 RMK AO2 SLP159 T02281033=
201709142053 METAR KCLM 142053Z AUTO VRB06KT 10SM CLR 23/M03 A3001 RMK AO2 SLP161 T02281033 55003=
201709141953 METAR KCLM 141953Z AUTO 12008KT 10SM CLR 23/M02 A3001 RMK AO2 SLP159 T02281022=
201709141853 METAR KCLM 141853Z AUTO 07006KT 10SM CLR 22/01 A3002 RMK AO2 SLP164 T02170006=
201709141753 METAR KCLM 141753Z AUTO 08004KT 10SM CLR 21/02 A3002 RMK AO2 SLP164 T02060017 10211 20061 50004=
201709141653 METAR KCLM 141653Z AUTO 13005KT 10SM CLR 20/02 A3002 RMK AO2 SLP165 T02000022=
201709141553 METAR KCLM 141553Z AUTO 00000KT 10SM CLR 17/07 A3002 RMK AO2 SLP164 T01670067=
201709141453 METAR KCLM 141453Z AUTO 22004KT 10SM CLR 11/06 A3000 RMK AO2 SLP161 T01060061 53013=
201709141353 METAR KCLM 141353Z AUTO 20003KT 10SM CLR 08/04 A2999 RMK AO2 SLP156 T00780044=
201709141253 METAR KCLM 141253Z AUTO 24004KT 10SM CLR 08/05 A2998 RMK AO2 SLP151 T00830050=
201709141153 METAR KCLM 141153Z AUTO 00000KT 10SM CLR 09/05 A2997 RMK AO2 SLP147 T00890050 10133 20083 53006=
201709141053 METAR KCLM 141053Z AUTO 22007KT 10SM CLR 11/06 A2996 RMK AO2 SLP145 T01060056=
201709140953 METAR KCLM 140953Z AUTO 24009KT 10SM CLR 12/06 A2995 RMK AO2 SLP141 T01170056=
201709140853 METAR KCLM 140853Z AUTO 24008KT 10SM CLR 12/06 A2995 RMK AO2 SLP141 T01170056 51002=
201709140753 METAR KCLM 140753Z AUTO 24005KT 10SM CLR 12/06 A2995 RMK AO2 SLP140 T01220056 402000044=
201709140653 METAR KCLM 140653Z AUTO 25008KT 10SM CLR 13/06 A2995 RMK AO2 SLP141 T01280056=
201709140553 METAR KCLM 140553Z AUTO 25007KT 10SM CLR 12/06 A2994 RMK AO2 SLP138 T01220061 10200 20106 50000=
201709140453 METAR KCLM 140453Z AUTO 25007KT 10SM CLR 12/07 A2995 RMK AO2 SLP140 T01170072=
201709140353 METAR KCLM 140353Z AUTO 24003KT 10SM CLR 12/09 A2995 RMK AO2 SLP141 T01220089=
201709140253 METAR KCLM 140253Z AUTO 24003KT 10SM CLR 12/09 A2994 RMK AO2 SLP139 T01220089 55003=
201709140153 METAR KCLM 140153Z AUTO 00000KT 10SM CLR 18/07 A2993 RMK AO2 SLP136 T01830067=
201709140053 METAR KCLM 140053Z AUTO 09005KT 10SM CLR 20/07 A2994 RMK AO2 SLP137 T02000067=
201709132353 METAR KCLM 132353Z AUTO 09004KT 10SM CLR 19/08 A2995 RMK AO2 SLP142 T01940083 10200 20156 56011=
201709132253 METAR KCLM 132253Z AUTO 12005KT 10SM CLR 20/08 A2996 RMK AO2 SLP144 T02000083=
201709132153 METAR KCLM 132153Z AUTO 09007KT 10SM CLR 19/08 A2997 RMK AO2 SLP147 T01940083=
201709132053 METAR KCLM 132053Z AUTO 10008KT 10SM CLR 18/08 A2998 RMK AO2 SLP153 T01780083 58009=
201709131953 METAR KCLM 131953Z AUTO 09008KT 050V120 10SM CLR 17/09 A2999 RMK AO2 SLP158 T01720089=
201709131853 METAR KCLM 131853Z AUTO 08008KT 10SM CLR 16/09 A3000 RMK AO2 SLP159 T01560094=
201709131753 METAR KCLM 131753Z AUTO 08006KT 10SM CLR 16/10 A3001 RMK AO2 SLP162 T01560100 10156 20044 50002=
201709131738 SPECI KCLM 131738Z AUTO 07006KT 10SM SCT021 15/10 A3001 RMK AO2 T01500100=
201709131653 METAR KCLM 131653Z AUTO 08004KT 10SM FEW013 BKN020 14/11 A3001 RMK AO2 SLP163 T01390106=
201709131553 METAR KCLM 131553Z AUTO 00000KT 10SM BKN019 12/10 A3001 RMK AO2 SLP162 T01220100=
201709131453 METAR KCLM 131453Z AUTO 22003KT 10SM CLR 08/07 A3001 RMK AO2 SLP162 T00780072 53008=
201709131353 METAR KCLM 131353Z AUTO 22005KT 10SM CLR 05/05 A2999 RMK AO2 SLP156 T00500050=
201709131253 METAR KCLM 131253Z AUTO 22004KT 10SM CLR 06/06 A2998 RMK AO2 SLP154 T00610056=
201709131153 METAR KCLM 131153Z AUTO 22004KT 10SM CLR 05/05 A2998 RMK AO2 SLP153 T00500050 10100 20050 55001=
201709131053 METAR KCLM 131053Z AUTO 25003KT 10SM CLR 07/07 A2998 RMK AO2 SLP151 T00720067=
201709130953 METAR KCLM 130953Z AUTO 23006KT 10SM CLR 09/08 A2998 RMK AO2 SLP150 T00890083=
201709130853 METAR KCLM 130853Z AUTO 24005KT 10SM CLR 09/08 A2998 RMK AO2 SLP153 T00940083 58003=
201709130753 METAR KCLM 130753Z AUTO 00000KT 10SM CLR 07/07 A2999 RMK AO2 SLP154 T00720072 401940067=
201709130653 METAR KCLM 130653Z AUTO 26006KT 10SM CLR 09/08 A3000 RMK AO2 SLP157 T00940078=
201709130553 METAR KCLM 130553Z AUTO 27003KT 10SM CLR 10/09 A2999 RMK AO2 SLP156 T01000094 10167 20100 51004=
201709130453 METAR KCLM 130453Z AUTO 30003KT 10SM CLR 12/10 A2999 RMK AO2 SLP154 T01170100=
201709130353 METAR KCLM 130353Z AUTO 28003KT 10SM CLR 12/10 A2999 RMK AO2 SLP156 T01170100=
201709130253 METAR KCLM 130253Z AUTO 29009KT 10SM CLR 13/11 A2998 RMK AO2 SLP152 T01280106 58002=
201709130153 METAR KCLM 130153Z AUTO 28006KT 10SM CLR 14/12 A2998 RMK AO2 SLP152 T01440117=
201709130053 METAR KCLM 130053Z AUTO 29010KT 10SM CLR 16/13 A2999 RMK AO2 SLP154 T01610128=
201709122353 METAR KCLM 122353Z AUTO 31011KT 10SM CLR 17/13 A2998 RMK AO2 SLP153 T01670128 10194 20161 56011=
201709122253 METAR KCLM 122253Z AUTO 34008KT 10SM FEW033 17/13 A2999 RMK AO2 SLP157 T01720133=
201709122153 METAR KCLM 122153Z AUTO VRB05KT 10SM CLR 18/13 A3000 RMK AO2 SLP160 T01830133=
201709122053 METAR KCLM 122053Z AUTO 01005KT 10SM CLR 18/13 A3002 RMK AO2 SLP165 T01780133 58003=
201709121953 METAR KCLM 121953Z AUTO 31007KT 10SM BKN030 18/13 A3002 RMK AO2 SLP167 T01780133=
201709121903 SPECI KCLM 121903Z AUTO 36006KT 10SM SCT024 18/13 A3003 RMK AO2 T01830133=
201709121853 METAR KCLM 121853Z AUTO 34006KT 10SM BKN023 19/13 A3003 RMK AO2 SLP167 T01890133=
201709121849 SPECI KCLM 121849Z AUTO VRB04KT 10SM BKN023 18/13 A3003 RMK AO2=
201709121835 SPECI KCLM 121835Z AUTO 32006KT 10SM FEW019 SCT027 19/14 A3003 RMK AO2 T01890139=
201709121759 SPECI KCLM 121759Z AUTO 00000KT 10SM SCT004 OVC015 16/14 A3003 RMK AO2 T01610144=
201709121753 METAR KCLM 121753Z AUTO 26005KT 10SM BKN004 OVC014 16/14 A3003 RMK AO2 SLP169 T01610144 10161 20144 55000=
201709121653 METAR KCLM 121653Z AUTO 33004KT 8SM OVC003 15/14 A3003 RMK AO2 SLP169 T01500144=
201709121553 METAR KCLM 121553Z AUTO 30005KT 10SM BKN004 OVC013 15/14 A3003 RMK AO2 SLP170 T01500144=
201709121543 SPECI KCLM 121543Z AUTO 34005KT 10SM SCT004 OVC013 15/14 A3003 RMK AO2 T01500144=
201709121453 METAR KCLM 121453Z AUTO 33003KT 10SM BKN013 OVC033 16/13 A3003 RMK AO2 SLP169 T01560128 53002=
201709121449 SPECI KCLM 121449Z AUTO 00000KT 10SM BKN013 OVC033 16/13 A3003 RMK AO2=
201709121402 SPECI KCLM 121402Z AUTO 22003KT 10SM SCT014 OVC034 15/12 A3002 RMK AO2 T01500122=
201709121353 METAR KCLM 121353Z AUTO 21004KT 10SM BKN012 BKN017 OVC034 15/12 A3002 RMK AO2 SLP167 T01500122=
201709121322 SPECI KCLM 121322Z AUTO 27004KT 10SM BKN014 OVC019 15/13 A3003 RMK AO2 T01500128=
201709121301 SPECI KCLM 121301Z AUTO 32003KT 10SM OVC016 15/13 A3003 RMK AO2 T01500128=
201709121253 METAR KCLM 121253Z AUTO 00000KT 10SM OVC014 16/13 A3002 RMK AO2 SLP166 T01560128=
201709121236 SPECI KCLM 121236Z AUTO 28003KT 10SM OVC014 15/13 A3002 RMK AO2 T01500128=
201709121153 METAR KCLM 121153Z AUTO 21003KT 10SM OVC017 15/13 A3002 RMK AO2 SLP165 T01500128 10167 20139 58003=
201709121100 SPECI KCLM 121100Z AUTO 00000KT 10SM BKN027 14/12 A3003 RMK AO2 T01440122=
201709121053 METAR KCLM 121053Z AUTO 00000KT 10SM SCT026 14/12 A3003 RMK AO2 SLP166 T01390122=
201709120953 METAR KCLM 120953Z AUTO 27006KT 10SM CLR 14/12 A3003 RMK AO2 SLP170 T01440122=
201709120853 METAR KCLM 120853Z AUTO 30004KT 10SM CLR 14/13 A3003 RMK AO2 SLP168 T01390128 56007=
201709120753 METAR KCLM 120753Z AUTO 28006KT 10SM CLR 14/13 A3003 RMK AO2 SLP169 T01440128 402220083=
201709120653 METAR KCLM 120653Z AUTO 25004KT 10SM CLR 15/14 A3004 RMK AO2 SLP173 T01500139=
201709120553 METAR KCLM 120553Z AUTO 28007KT 10SM CLR 17/14 A3005 RMK AO2 SLP176 T01670144 10222 20161 58005=
201709120453 METAR KCLM 120453Z AUTO 27003KT 10SM CLR 16/14 A3006 RMK AO2 SLP178 T01610139=
201709120353 METAR KCLM 120353Z AUTO 28009KT 10SM CLR 17/14 A3007 RMK AO2 SLP182 T01720144=
201709120253 METAR KCLM 120253Z AUTO 28008KT 10SM CLR 18/14 A3007 RMK AO2 SLP182 T01780139 55006=
201709120153 METAR KCLM 120153Z AUTO 30012KT 10SM CLR 19/13 A3006 RMK AO2 SLP180 T01940133=
201709120053 METAR KCLM 120053Z AUTO 31010G16KT 10SM CLR 21/12 A3007 RMK AO2 SLP182 T02110122=
201709112353 METAR KCLM 112353Z AUTO 30006KT 10SM CLR 22/11 A3009 RMK AO2 SLP188 T02220111 10222 20172 56012=
201709112253 METAR KCLM 112253Z AUTO 29007KT 10SM CLR 21/11 A3010 RMK AO2 SLP192 T02110106=
201709112153 METAR KCLM 112153Z AUTO 35005KT 10SM CLR 19/11 A3011 RMK AO2 SLP195 T01890111=
201709112053 METAR KCLM 112053Z AUTO 04004KT 10SM CLR 22/09 A3012 RMK AO2 SLP200 T02170094 58013=
201709111953 METAR KCLM 111953Z AUTO VRB03KT 10SM CLR 20/11 A3014 RMK AO2 SLP206 T02000111=
201709111853 METAR KCLM 111853Z AUTO VRB04KT 10SM CLR 19/12 A3015 RMK AO2 SLP210 T01890117=
201709111753 METAR KCLM 111753Z AUTO 05004KT 10SM CLR 19/12 A3016 RMK AO2 SLP213 T01940117 10194 20083 56011=
201709111653 METAR KCLM 111653Z AUTO 02005KT 10SM CLR 18/11 A3016 RMK AO2 SLP214 T01780111=
201709111553 METAR KCLM 111553Z AUTO 00000KT 10SM CLR 16/12 A3017 RMK AO2 SLP217 T01560117=
201709111453 METAR KCLM 111453Z AUTO 23006KT 10SM CLR 13/11 A3019 RMK AO2 SLP225 T01280111 58005=
201709111353 METAR KCLM 111353Z AUTO 23005KT 9SM CLR 09/09 A3020 RMK AO2 SLP227 T00890089=
201709111253 METAR KCLM 111253Z AUTO 00000KT 10SM CLR 09/09 A3021 RMK AO2 SLP231 T00890089=
201709111153 METAR KCLM 111153Z AUTO 00000KT 10SM CLR 09/08 A3021 RMK AO2 SLP230 T00890083 10128 20083 58009=
201709111053 METAR KCLM 111053Z AUTO 00000KT 10SM CLR 08/08 A3022 RMK AO2 SLP233 T00830083=
201709110953 METAR KCLM 110953Z AUTO 00000KT 10SM CLR 09/09 A3023 RMK AO2 SLP237 T00940094=
201709110853 METAR KCLM 110853Z AUTO 23004KT 10SM CLR 11/10 A3024 RMK AO2 SLP239 T01060100 58007=
201709110753 METAR KCLM 110753Z AUTO 23007KT 10SM CLR 12/11 A3025 RMK AO2 SLP243 T01170106 401940094=
201709110653 METAR KCLM 110653Z AUTO 24003KT 10SM CLR 11/10 A3025 RMK AO2 SLP245 T01060100=
201709110553 METAR KCLM 110553Z AUTO 00000KT 10SM CLR 11/10 A3026 RMK AO2 SLP246 T01060100 10189 20106 58004=
201709110453 METAR KCLM 110453Z AUTO 24004KT 10SM CLR 13/11 A3027 RMK AO2 SLP251 T01280111=
201709110353 METAR KCLM 110353Z AUTO 23003KT 10SM CLR 12/11 A3027 RMK AO2 SLP252 T01220106=
201709110253 METAR KCLM 110253Z AUTO 00000KT 10SM CLR 15/12 A3027 RMK AO2 SLP251 T01500117 58006=
201709110153 METAR KCLM 110153Z AUTO 29003KT 10SM CLR 17/11 A3028 RMK AO2 SLP253 T01720111=
201709110053 METAR KCLM 110053Z AUTO VRB04KT 10SM CLR 18/11 A3028 RMK AO2 SLP255 T01780111=
201709102353 METAR KCLM 102353Z AUTO VRB04KT 10SM CLR 18/12 A3029 RMK AO2 SLP256 T01830117 10194 20150 58009=
201709102253 METAR KCLM 102253Z AUTO 35005KT 10SM CLR 19/11 A3029 RMK AO2 SLP258 T01890111=
201709102153 METAR KCLM 102153Z AUTO VRB05KT 10SM CLR 18/11 A3031 RMK AO2 SLP264 T01830106=
201709102053 METAR KCLM 102053Z AUTO 33005KT 10SM CLR 18/11 A3031 RMK AO2 SLP265 T01830111 53001=
201709101953 METAR KCLM 101953Z AUTO 33004KT 10SM CLR 17/12 A3031 RMK AO2 SLP265 T01720117=
201709101853 METAR KCLM 101853Z AUTO 01004KT 10SM CLR 16/11 A3031 RMK AO2 SLP264 T01610111=
201709101753 METAR KCLM 101753Z AUTO 04004KT 10SM CLR 16/11 A3031 RMK AO2 SLP264 T01560106 10172 20111 53007=
201709101653 METAR KCLM 101653Z AUTO 26005KT 10SM CLR 17/09 A3030 RMK AO2 SLP262 T01670094=
201709101553 METAR KCLM 101553Z AUTO 25008KT 10SM CLR 15/09 A3029 RMK AO2 SLP258 T01500089=
201709101453 METAR KCLM 101453Z AUTO 25010KT 10SM CLR 13/08 A3029 RMK AO2 SLP257 T01280083 53013=
201709101353 METAR KCLM 101353Z AUTO 26008KT 10SM CLR 12/08 A3027 RMK AO2 SLP251 T01220083=
201709101253 METAR KCLM 101253Z AUTO 25010KT 10SM CLR 12/08 A3026 RMK AO2 SLP246 T01220083=
201709101153 METAR KCLM 101153Z AUTO 25013KT 10SM CLR 12/09 A3025 RMK AO2 SLP244 70006 T01220089 10133 20106 51009=
201709101053 METAR KCLM 101053Z AUTO 26013KT 10SM CLR 12/09 A3024 RMK AO2 SLP241 T01170094=
201709100953 METAR KCLM 100953Z AUTO 24008KT 10SM CLR 12/09 A3024 RMK AO2 SLP240 T01170094=
201709100853 METAR KCLM 100853Z AUTO 26008KT 10SM CLR 12/10 A3022 RMK AO2 SLP235 T01220100 51015=
201709100753 METAR KCLM 100753Z AUTO 27009KT 10SM CLR 12/10 A3022 RMK AO2 SLP233 T01170100 401610117=
201709100653 METAR KCLM 100653Z AUTO 26013KT 10SM CLR 13/11 A3019 RMK AO2 SLP223 T01280106=
201709100553 METAR KCLM 100553Z AUTO 26010KT 10SM CLR 13/11 A3018 RMK AO2 SLP220 T01330111 10161 20117 51017=
201709100453 METAR KCLM 100453Z AUTO 26006KT 10SM CLR 13/12 A3017 RMK AO2 SLP218 T01280122=
201709100353 METAR KCLM 100353Z AUTO 26005KT 10SM CLR 13/12 A3016 RMK AO2 SLP214 T01280122=
201709100253 METAR KCLM 100253Z AUTO 33003KT 10SM CLR 14/13 A3013 RMK AO2 SLP202 T01390133 53004=
201709100153 METAR KCLM 100153Z AUTO 00000KT 10SM FEW034 OVC055 16/13 A3012 RMK AO2 SLP201 T01560133=
201709100053 METAR KCLM 100053Z AUTO 17003KT 10SM FEW023 OVC031 14/13 A3012 RMK AO2 SLP198 T01440133=
201709100049 SPECI KCLM 100049Z AUTO 20003KT 10SM FEW023 OVC031 14/13 A3011 RMK AO2=
201709092353 METAR KCLM 092353Z AUTO 33003KT 8SM FEW004 OVC026 14/13 A3009 RMK AO2 SLP191 60002 T01390133 10161 20122 50013=
201709092348 SPECI KCLM 092348Z AUTO 32004KT 7SM SCT004 BKN026 OVC055 14/13 A3010 RMK AO2=
201709092338 SPECI KCLM 092338Z AUTO VRB03KT 7SM BKN004 BKN026 OVC055 14/13 A3009 RMK AO2 T01390133=
201709092328 SPECI KCLM 092328Z AUTO 31003KT 7SM SCT004 BKN026 OVC055 14/13 A3009 RMK AO2 T01390133=
201709092253 METAR KCLM 092253Z AUTO 31003KT 5SM BR OVC006 13/13 A3007 RMK AO2 SLP184 T01330133=
201709092153 METAR KCLM 092153Z AUTO 00000KT 4SM BR OVC003 13/13 A3006 RMK AO2 SLP177 T01330133=
201709092112 SPECI KCLM 092112Z AUTO 00000KT 3SM BR OVC002 13/13 A3004 RMK AO2 T01280128=
201709092104 SPECI KCLM 092104Z AUTO 08003KT 1SM BR VV002 13/13 A3004 RMK AO2 T01280128=
201709092053 METAR KCLM 092053Z AUTO 00000KT 1/4SM FG VV002 12/12 A3004 RMK AO2 RAE23 SLP173 P0000 60002 T01220122 51007=
201709092042 SPECI KCLM 092042Z AUTO VRB04KT 1/4SM FG VV002 12/12 A3004 RMK AO2 RAE23 P0000 T01220122=
201709092034 SPECI KCLM 092034Z AUTO 00000KT 3/4SM BR OVC001 12/12 A3004 RMK AO2 RAE23 P0000 T01220122=
201709092020 SPECI KCLM 092020Z AUTO 08004KT 2SM -RA BR OVC001 12/12 A3004 RMK AO2 P0000 T01220122=
201709092012 SPECI KCLM 092012Z AUTO 05003KT 1 1/2SM -RA BR OVC002 12/12 A3004 RMK AO2 P0000 T01220122=
201709091953 METAR KCLM 091953Z AUTO 08003KT 2SM -RA BR OVC002 13/12 A3004 RMK AO2 RAB04E27B30 SLP171 P0002 T01280122=
201709091943 SPECI KCLM 091943Z AUTO 04003KT 1 3/4SM -RA BR OVC002 12/12 A3004 RMK AO2 RAB04E27B30 P0002 T01220122=
201709091929 SPECI KCLM 091929Z AUTO 36004KT 2SM BR BKN002 BKN042 OVC050 12/12 A3004 RMK AO2 RAB04E27 P0002 T01220122=
201709091910 SPECI KCLM 091910Z AUTO VRB04KT 2 1/2SM -RA BR FEW002 BKN050 OVC060 12/12 A3004 RMK AO2 RAB04 P0000 T01220122=
201709091853 METAR KCLM 091853Z AUTO 35005KT 7SM SCT039 OVC055 13/12 A3003 RMK AO2 SLP169 T01330122=
201709091753 METAR KCLM 091753Z AUTO 08005KT 10SM OVC060 16/12 A3002 RMK AO2 RAE02 SLP166 P0000 60004 T01560122 10156 20117 55000=
201709091653 METAR KCLM 091653Z AUTO 11004KT 5SM -RA BR OVC060 13/13 A3001 RMK AO2 SLP163 P0003 T01330133=
201709091553 METAR KCLM 091553Z AUTO 00000KT 4SM -RA BR OVC065 12/12 A3002 RMK AO2 SLP164 P0001 T01220122=
201709091453 METAR KCLM 091453Z AUTO 00000KT 6SM -RA BR OVC095 12/12 A3002 RMK AO2 RAB15 SLP166 P0000 60000 T01220117 51013=
201709091353 METAR KCLM 091353Z AUTO 14006KT 10SM BKN033 BKN065 OVC110 13/11 A3002 RMK AO2 SLP164 T01280106=
201709091253 METAR KCLM 091253Z AUTO 18003KT 10SM FEW035 SCT120 12/10 A3000 RMK AO2 SLP157 T01220100=
201709091153 METAR KCLM 091153Z AUTO 00000KT 10SM BKN033 12/09 A2998 RMK AO2 SLP153 70002 T01220094 10139 20122 52000=
201709091112 SPECI KCLM 091112Z AUTO 00000KT 10SM OVC030 13/09 A2999 RMK AO2 T01280094=
201709091053 METAR KCLM 091053Z AUTO 00000KT 10SM OVC027 13/09 A2998 RMK AO2 SLP153 T01280094=
201709091015 SPECI KCLM 091015Z AUTO 00000KT 10SM BKN028 14/09 A2999 RMK AO2 T01390089=
201709090953 METAR KCLM 090953Z AUTO 00000KT 10SM CLR 13/09 A2998 RMK AO2 SLP152 T01330089=
201709090937 SPECI KCLM 090937Z AUTO 00000KT 10SM FEW026 13/09 A2998 RMK AO2 T01330089=
201709090853 METAR KCLM 090853Z AUTO 30004KT 10SM OVC027 13/09 A2998 RMK AO2 SLP152 T01330089 50004=
201709090753 METAR KCLM 090753Z AUTO 28009KT 10SM OVC028 14/09 A2999 RMK AO2 SLP154 T01390094 401780133=
201709090653 METAR KCLM 090653Z AUTO 26009KT 10SM OVC029 14/11 A2998 RMK AO2 SLP152 T01390106=
201709090626 SPECI KCLM 090626Z AUTO 28006KT 10SM BKN026 OVC033 13/11 A2998 RMK AO2 T01330106=
201709090553 METAR KCLM 090553Z AUTO 27007KT 10SM FEW027 OVC034 13/11 A2997 RMK AO2 SLP148 T01330111 10172 20133 51007=
201709090517 SPECI KCLM 090517Z AUTO 29005KT 10SM SCT025 OVC032 14/11 A2996 RMK AO2 T01390111=
201709090453 METAR KCLM 090453Z AUTO 28007KT 10SM OVC023 14/12 A2997 RMK AO2 SLP148 T01390117=
201709090353 METAR KCLM 090353Z AUTO 29006KT 10SM OVC021 14/12 A2997 RMK AO2 SLP149 T01440117=
201709090253 METAR KCLM 090253Z AUTO 28007KT 10SM OVC018 15/12 A2995 RMK AO2 SLP141 T01500117 58002=
201709090234 SPECI KCLM 090234Z AUTO 29008KT 10SM BKN018 BKN095 15/12 A2995 RMK AO2 T01500117=
201709090153 METAR KCLM 090153Z AUTO 29009KT 10SM FEW030 SCT050 16/12 A2996 RMK AO2 SLP144 T01560117=
201709090053 METAR KCLM 090053Z AUTO 28010KT 10SM OVC032 17/13 A2996 RMK AO2 SLP146 T01670133=
201709082353 METAR KCLM 082353Z AUTO 33007KT 10SM OVC055 18/14 A2995 RMK AO2 SLP143 T01780139 10178 20156 58007=
201709082253 METAR KCLM 082253Z AUTO 31006KT 10SM FEW038 FEW055 17/15 A2996 RMK AO2 SLP146 T01720150=
201709082201 SPECI KCLM 082201Z AUTO 32005KT 10SM SCT011 BKN060 17/15 A2996 RMK AO2 T01720150=
201709082153 METAR KCLM 082153Z AUTO 32006KT 10SM SCT008 BKN012 BKN060 17/15 A2997 RMK AO2 SLP148 T01720150=
201709082145 SPECI KCLM 082145Z AUTO 31005KT 10SM OVC010 17/15 A2997 RMK AO2 T01720150=
201709082053 METAR KCLM 082053Z AUTO 30004KT 10SM BKN007 17/16 A2997 RMK AO2 SLP149 T01720156 56005=
201709081953 METAR KCLM 081953Z AUTO 30003KT 10SM OVC005 17/16 A2998 RMK AO2 SLP150 T01670156=
201709081932 SPECI KCLM 081932Z AUTO 30003KT 10SM OVC005 16/16 A2998 RMK AO2 T01610156=
201709081853 METAR KCLM 081853Z AUTO VRB03KT 10SM OVC004 16/16 A2999 RMK AO2 SLP154 T01610156=
201709081753 METAR KCLM 081753Z AUTO VRB04KT 9SM OVC003 16/16 A2999 RMK AO2 SLP155 60002 T01560156 10161 20150 51007=
201709081653 METAR KCLM 081653Z AUTO 30005KT 6SM BR OVC003 16/16 A2999 RMK AO2 SLP154 T01560156=
201709081553 METAR KCLM 081553Z AUTO 32003KT 6SM BR OVC004 16/16 A2997 RMK AO2 CIG 002V006 SLP150 T01560156=
201709081453 METAR KCLM 081453Z AUTO 28003KT 6SM BR OVC003 15/15 A2997 RMK AO2 SLP148 60002 T01500150 53006=
201709081353 METAR KCLM 081353Z AUTO 26003KT 7SM OVC003 15/15 A2996 RMK AO2 RAE09 SLP144 P0000 T01500150=
201709081302 SPECI KCLM 081302Z AUTO 27004KT 8SM -RA BKN003 BKN075 OVC110 15/15 A2995 RMK AO2 P0000 T01500150=
201709081253 METAR KCLM 081253Z AUTO 27004KT 7SM -RA SCT003 BKN021 OVC110 15/15 A2995 RMK AO2 SLP142 P0002 T01500150=
201709081250 SPECI KCLM 081250Z AUTO 00000KT 6SM -RA BR SCT003 BKN018 OVC110 15/15 A2995 RMK AO2 P0002=
201709081215 SPECI KCLM 081215Z AUTO 26005KT 4SM -RA BR BKN004 OVC100 15/15 A2994 RMK AO2 LTG DSNT SE P0001 T01500150=
201709081153 METAR KCLM 081153Z AUTO 29005KT 7SM -RA SCT005 SCT070 OVC110 15/15 A2995 RMK AO2 RAB52 SLP141 P0000 60000 T01500150 10161 20144 50002=
201709081144 SPECI KCLM 081144Z AUTO 27005KT 7SM BKN005 OVC110 15/15 A2995 RMK AO2 CIG 004V009 T01500150=
201709081133 SPECI KCLM 081133Z AUTO 29003KT 7SM BKN004 15/15 A2995 RMK AO2 CIG 004V008 T01500150=
201709081053 METAR KCLM 081053Z AUTO 29007KT 7SM OVC005 15/15 A2995 RMK AO2 CIG 004V008 SLP142 T01500150=
201709081031 SPECI KCLM 081031Z AUTO 28007KT 7SM BKN006 16/15 A2995 RMK AO2 T01560150=
201709081011 SPECI KCLM 081011Z AUTO 30008KT 7SM SCT007 16/15 A2995 RMK AO2 T01560150=
201709080953 METAR KCLM 080953Z AUTO 29007KT 6SM BR BKN007 16/15 A2994 RMK AO2 CIG 004V009 SLP137 T01560150=
201709080941 SPECI KCLM 080941Z AUTO 29006KT 7SM SCT004 BKN100 16/15 A2994 RMK AO2 T01560150=
201709080852 METAR KCLM 080852Z AUTO 27008KT 6SM BR BKN004 OVC013 15/15 A2994 RMK AO2 SLP139 T01500150 53004=
201709080851 SPECI KCLM 080851Z AUTO 27008KT 6SM BR BKN004 BKN013 15/15 A2994 RMK AO2=
201709080842 SPECI KCLM 080842Z AUTO 28007KT 6SM BR SCT005 BKN012 15/15 A2994 RMK AO2 T01500150=
201709080753 METAR KCLM 080753Z AUTO 30003KT 4SM BR BKN002 OVC016 14/14 A2994 RMK AO2 SLP138 T01440144 402060139=
201709080734 SPECI KCLM 080734Z AUTO 30004KT 4SM BR FEW002 SCT008 OVC016 14/14 A2994 RMK AO2 T01440144=
201709080723 SPECI KCLM 080723Z AUTO 33005KT 6SM BR SCT008 OVC014 15/14 A2994 RMK AO2 T01500144=
201709080710 SPECI KCLM 080710Z AUTO 00000KT 7SM SCT010 BKN014 16/16 A2993 RMK AO2 T01560156=
201709080653 METAR KCLM 080653Z AUTO 30003KT 7SM FEW011 16/16 A2993 RMK AO2 SLP134 T01560156=
201709080607 SPECI KCLM 080607Z AUTO 29006KT 7SM SCT008 16/16 A2993 RMK AO2 T01610156=
201709080553 METAR KCLM 080553Z AUTO 27005KT 7SM BKN008 16/16 A2993 RMK AO2 CIG 004V010 SLP134 60000 T01610156 10194 20156 51007=
201709080549 SPECI KCLM 080549Z AUTO 24003KT 7SM BKN006 16/16 A2993 RMK AO2 CIG 004V009=
201709080519 SPECI KCLM 080519Z AUTO 30008KT 6SM BR FEW003 SCT120 16/16 A2993 RMK AO2 T01560156=
201709080453 METAR KCLM 080453Z AUTO 28009KT 9SM BKN120 17/16 A2992 RMK AO2 SLP132 T01670156=
201709080353 METAR KCLM 080353Z AUTO 00000KT 8SM BKN110 16/16 A2991 RMK AO2 RAE0258 SLP128 P0000 T01610156=
201709080253 METAR KCLM 080253Z AUTO 31003KT 8SM -RA FEW046 BKN110 17/16 A2988 RMK AO2 RAB20 SLP117 P0000 60000 T01720161 57005=
201709080153 METAR KCLM 080153Z AUTO 03005KT 9SM SCT110 18/16 A2988 RMK AO2 SLP119 T01780161=
201709080053 METAR KCLM 080053Z AUTO 27007KT 9SM CLR 18/16 A2989 RMK AO2 SLP120 T01830161=
201709072353 METAR KCLM 072353Z AUTO 33006KT 9SM FEW012 19/16 A2989 RMK AO2 SLP121 T01940156 10206 20178 56005=
201709072253 METAR KCLM 072253Z AUTO 31008KT 9SM SCT013 19/16 A2990 RMK AO2 SLP125 T01940161=
201709072153 METAR KCLM 072153Z AUTO 31009KT 9SM CLR 20/16 A2990 RMK AO2 SLP123 T02000161=
201709072053 METAR KCLM 072053Z AUTO 31010KT 10SM CLR 19/16 A2991 RMK AO2 SLP126 T01940161 58004=
201709071953 METAR KCLM 071953Z AUTO 31008KT 9SM CLR 18/16 A2992 RMK AO2 SLP130 T01830161=
201709071853 METAR KCLM 071853Z AUTO 35005KT 10SM CLR 19/16 A2992 RMK AO2 SLP130 T01940161=
201709071753 METAR KCLM 071753Z AUTO 32006KT 9SM CLR 19/16 A2992 RMK AO2 SLP130 T01940156 10200 20139 55007=
201709071653 METAR KCLM 071653Z AUTO 29006KT 8SM CLR 19/16 A2992 RMK AO2 SLP130 T01890161=
201709071553 METAR KCLM 071553Z AUTO 28004KT 8SM CLR 18/16 A2993 RMK AO2 SLP132 T01830161=
201709071453 METAR KCLM 071453Z AUTO 24003KT 5SM BR CLR 17/16 A2994 RMK AO2 SLP137 T01670156 55000=
201709071353 METAR KCLM 071353Z AUTO 23006KT 5SM BR CLR 15/14 A2993 RMK AO2 SLP135 T01500144=
201709071253 METAR KCLM 071253Z AUTO 24005KT 6SM BR CLR 14/14 A2994 RMK AO2 SLP138 T01440144=
201709071153 METAR KCLM 071153Z AUTO 23006KT 7SM CLR 16/15 A2994 RMK AO2 SLP138 T01560150 10167 20144 55003=
201709071053 METAR KCLM 071053Z AUTO 24003KT 7SM CLR 15/14 A2993 RMK AO2 SLP135 T01500144=
201709070953 METAR KCLM 070953Z AUTO 28008KT 8SM SCT050 16/15 A2995 RMK AO2 SLP140 T01610150=
201709070853 METAR KCLM 070853Z AUTO 29010KT 8SM OVC055 16/15 A2995 RMK AO2 SLP141 T01610150 50001=
201709070753 METAR KCLM 070753Z AUTO 29011KT 7SM BKN060 17/16 A2995 RMK AO2 SLP143 T01670156 402280133=
201709070653 METAR KCLM 070653Z AUTO 28008KT 7SM SCT055 16/14 A2995 RMK AO2 SLP141 T01560144=
201709070553 METAR KCLM 070553Z AUTO 32003KT 7SM OVC050 16/14 A2995 RMK AO2 SLP141 T01560144 10217 20150 53013=
201709070453 METAR KCLM 070453Z AUTO 33003KT 7SM OVC050 16/14 A2991 RMK AO2 SLP128 T01560144=
201709070353 METAR KCLM 070353Z AUTO 00000KT 7SM OVC055 18/16 A2990 RMK AO2 SLP123 T01780156=
201709070253 METAR KCLM 070253Z AUTO 27005KT 8SM OVC055 18/16 A2991 RMK AO2 SLP128 T01830156 58001=
201709070153 METAR KCLM 070153Z AUTO 27005KT 6SM HZ BKN060 20/16 A2992 RMK AO2 SLP131 T02000156=
201709070053 METAR KCLM 070053Z AUTO 31006KT 6SM HZ CLR 21/16 A2992 RMK AO2 SLP130 T02110156=
201709062353 METAR KCLM 062353Z AUTO 30006KT 6SM HZ CLR 22/16 A2991 RMK AO2 SLP128 T02170156 10228 20172 58008=
201709062253 METAR KCLM 062253Z AUTO 32004KT 7SM FEW050 20/15 A2992 RMK AO2 SLP132 T02000150=
201709062153 METAR KCLM 062153Z AUTO 31007KT 7SM CLR 21/15 A2993 RMK AO2 SLP135 T02110150=
201709062053 METAR KCLM 062053Z AUTO 32007KT 8SM CLR 21/15 A2994 RMK AO2 SLP137 T02060150 56003=
201709061953 METAR KCLM 061953Z AUTO 35005KT 8SM CLR 17/13 A2994 RMK AO2 SLP139 T01720133=
201709061853 METAR KCLM 061853Z AUTO 00000KT 6SM HZ CLR 21/15 A2994 RMK AO2 SLP138 T02110150=
201709061753 METAR KCLM 061753Z AUTO 00000KT 8SM BKN055 18/14 A2995 RMK AO2 SLP140 T01830139 10189 20133 58002=
201709061653 METAR KCLM 061653Z AUTO 33004KT 7SM BKN050 17/15 A2996 RMK AO2 SLP143 T01720150=
201709061553 METAR KCLM 061553Z AUTO 00000KT 4SM HZ BKN049 17/14 A2995 RMK AO2 SLP140 T01720144=
201709061453 METAR KCLM 061453Z AUTO 00000KT 3SM BR OVC045 16/13 A2995 RMK AO2 SLP142 T01560133 56002=
201709061353 METAR KCLM 061353Z AUTO 24003KT 4SM BR OVC050 14/13 A2995 RMK AO2 SLP142 T01440128=
201709061253 METAR KCLM 061253Z AUTO 22004KT 6SM BR OVC050 14/13 A2996 RMK AO2 SLP143 T01440133=
201709061153 METAR KCLM 061153Z AUTO 27003KT 5SM BR OVC049 14/13 A2996 RMK AO2 SLP144 T01440128 10194 20139 53008=
201709061053 METAR KCLM 061053Z AUTO 00000KT 5SM HZ OVC047 17/14 A2995 RMK AO2 SLP140 T01670139=
201709060953 METAR KCLM 060953Z AUTO 00000KT 4SM HZ OVC047 17/13 A2994 RMK AO2 SLP137 T01720133=
201709060853 METAR KCLM 060853Z AUTO 00000KT 5SM HZ OVC049 17/14 A2993 RMK AO2 SLP135 T01670139 50000=
201709060753 METAR KCLM 060753Z AUTO 00000KT 5SM HZ OVC049 17/14 A2994 RMK AO2 SLP136 T01720144 402890172=
201709060653 METAR KCLM 060653Z AUTO 00000KT 6SM HZ OVC048 18/14 A2993 RMK AO2 SLP135 T01780144=
201709060553 METAR KCLM 060553Z AUTO 00000KT 7SM OVC050 18/14 A2993 RMK AO2 SLP135 T01830144 10283 20178 51008=
201709060453 METAR KCLM 060453Z AUTO 00000KT 8SM OVC050 19/13 A2993 RMK AO2 SLP133 T01940133=
201709060353 METAR KCLM 060353Z AUTO 00000KT 8SM OVC050 18/13 A2992 RMK AO2 SLP132 T01830128=
201709060253 METAR KCLM 060253Z AUTO 32005KT 7SM OVC048 21/14 A2991 RMK AO2 SLP127 T02110139 55000=
201709060153 METAR KCLM 060153Z AUTO 23003KT 6SM HZ BKN043 25/13 A2991 RMK AO2 SLP127 T02500128=
201709060053 METAR KCLM 060053Z AUTO 00000KT 6SM HZ BKN044 27/12 A2991 RMK AO2 SLP128 T02670117=
201709052353 METAR KCLM 052353Z AUTO 00000KT 5SM HZ SCT046 SCT070 28/13 A2991 RMK AO2 SLP127 T02830128 10289 20244 56011=
201709052253 METAR KCLM 052253Z AUTO 11005KT 5SM HZ CLR 28/11 A2992 RMK AO2 SLP130 T02830111=
201709052153 METAR KCLM 052153Z AUTO 10004KT 5SM HZ CLR 28/12 A2993 RMK AO2 SLP133 T02830122=
201709052053 METAR KCLM 052053Z AUTO 14003KT 6SM HZ CLR 28/12 A2995 RMK AO2 SLP138 T02780117 50006=
201709051953 METAR KCLM 051953Z AUTO 22004KT 9SM CLR 26/13 A2995 RMK AO2 SLP141 T02610133=
201709051853 METAR KCLM 051853Z AUTO 00000KT 9SM CLR 26/13 A2994 RMK AO2 SLP136 T02560128=
201709051753 METAR KCLM 051753Z AUTO 00000KT 10SM BKN050 25/13 A2993 RMK AO2 SLP133 T02500128 10256 20183 53003=
201709051653 METAR KCLM 051653Z AUTO 00000KT 7SM FEW050 23/14 A2992 RMK AO2 SLP131 T02330144=
201709051553 METAR KCLM 051553Z AUTO 00000KT 10SM SCT050 21/14 A2992 RMK AO2 SLP130 T02110144=
201709051453 METAR KCLM 051453Z AUTO 00000KT 10SM OVC044 19/14 A2992 RMK AO2 SLP130 T01890139 53004=
201709051353 METAR KCLM 051353Z AUTO 00000KT 10SM OVC055 19/13 A2992 RMK AO2 SLP129 T01890133=
201709051253 METAR KCLM 051253Z AUTO 23003KT 9SM OVC055 20/13 A2990 RMK AO2 SLP124 T02000128=
201709051153 METAR KCLM 051153Z AUTO 00000KT 9SM OVC050 21/12 A2991 RMK AO2 SLP125 T02110117 10228 20189 56002=
201709051053 METAR KCLM 051053Z AUTO 22005KT 8SM OVC055 22/10 A2991 RMK AO2 SLP125 T02220100=
201709050953 METAR KCLM 050953Z AUTO 23008KT 10SM OVC060 21/11 A2991 RMK AO2 SLP125 T02110111=
201709050853 METAR KCLM 050853Z AUTO 23006KT 10SM OVC065 21/12 A2991 RMK AO2 SLP127 T02060117 53002=
201709050753 METAR KCLM 050753Z AUTO 23007KT 10SM OVC070 23/11 A2991 RMK AO2 SLP126 T02280106 403110133=
201709050653 METAR KCLM 050653Z AUTO 23006KT 10SM OVC065 22/12 A2990 RMK AO2 SLP124 T02170117=
201709050553 METAR KCLM 050553Z AUTO 22006KT 10SM CLR 20/13 A2990 RMK AO2 SLP124 T02000128 10311 20194 58002=
201709050453 METAR KCLM 050453Z AUTO 22004KT 10SM CLR 20/13 A2991 RMK AO2 SLP125 T02000128=
201709050353 METAR KCLM 050353Z AUTO 22004KT 10SM CLR 21/13 A2991 RMK AO2 SLP128 T02110133=
201709050253 METAR KCLM 050253Z AUTO 18004KT 10SM CLR 23/14 A2991 RMK AO2 SLP127 T02330139 56019=
201709050153 METAR KCLM 050153Z AUTO 16004KT 10SM CLR 28/12 A2992 RMK AO2 SLP131 T02830122=
201709050053 METAR KCLM 050053Z AUTO 14006KT 10SM CLR 31/11 A2994 RMK AO2 SLP136 T03060111=
201709042353 METAR KCLM 042353Z AUTO 09004KT 10SM CLR 31/11 A2997 RMK AO2 SLP146 T03060111 10311 20272 58022=
201709042253 METAR KCLM 042253Z AUTO 09003KT 10SM CLR 30/11 A2999 RMK AO2 SLP154 T03000111=
201709042153 METAR KCLM 042153Z AUTO 11007KT 10SM CLR 29/13 A3001 RMK AO2 SLP162 T02890128=
201709042053 METAR KCLM 042053Z AUTO 08008KT 10SM CLR 29/13 A3003 RMK AO2 SLP168 T02940128 58017=
201709041953 METAR KCLM 041953Z AUTO 12007KT 10SM CLR 30/13 A3005 RMK AO2 SLP175 T03000133=
201709041853 METAR KCLM 041853Z AUTO 12010KT 10SM CLR 28/13 A3007 RMK AO2 SLP181 T02780133=
201709041753 METAR KCLM 041753Z AUTO 11010KT 10SM CLR 28/13 A3008 RMK AO2 SLP185 T02780128 10283 20150 58003=
201709041653 METAR KCLM 041653Z AUTO 11009KT 10SM CLR 28/13 A3009 RMK AO2 SLP187 T02780133=
201709041553 METAR KCLM 041553Z AUTO 10005KT 10SM CLR 25/13 A3009 RMK AO2 SLP188 T02500133=
201709041453 METAR KCLM 041453Z AUTO 00000KT 10SM CLR 19/13 A3009 RMK AO2 SLP188 T01890133 53005=
201709041353 METAR KCLM 041353Z AUTO 21004KT 10SM CLR 16/11 A3008 RMK AO2 SLP186 T01560106=
201709041253 METAR KCLM 041253Z AUTO 00000KT 10SM CLR 17/11 A3008 RMK AO2 SLP184 T01720106=
201709041153 METAR KCLM 041153Z AUTO VRB04KT 10SM CLR 16/11 A3008 RMK AO2 SLP183 T01560106 10172 20133 50002=
201709041053 METAR KCLM 041053Z AUTO 00000KT 10SM CLR 14/11 A3008 RMK AO2 SLP184 T01390111=
201709040953 METAR KCLM 040953Z AUTO 00000KT 10SM CLR 15/11 A3007 RMK AO2 SLP182 T01500111=
201709040853 METAR KCLM 040853Z AUTO 00000KT 10SM CLR 14/11 A3007 RMK AO2 SLP181 T01440111 53006=
201709040753 METAR KCLM 040753Z AUTO 00000KT 10SM CLR 15/12 A3006 RMK AO2 SLP179 T01500117 402830133=
201709040653 METAR KCLM 040653Z AUTO 00000KT 10SM CLR 16/13 A3006 RMK AO2 SLP177 T01610128=
201709040553 METAR KCLM 040553Z AUTO 00000KT 10SM CLR 18/14 A3005 RMK AO2 SLP175 T01780139 10261 20167 51003=
201709040453 METAR KCLM 040453Z AUTO 22006KT 10SM CLR 17/14 A3005 RMK AO2 SLP175 T01720144=
201709040353 METAR KCLM 040353Z AUTO 26003KT 10SM CLR 19/16 A3005 RMK AO2 SLP175 T01890156=
201709040253 METAR KCLM 040253Z AUTO 24003KT 10SM CLR 19/15 A3004 RMK AO2 SLP172 T01940150 56003=
201709040153 METAR KCLM 040153Z AUTO 31003KT 10SM CLR 21/16 A3004 RMK AO2 SLP173 T02110156=
201709040053 METAR KCLM 040053Z AUTO 31005KT 10SM CLR 23/15 A3004 RMK AO2 SLP170 T02280150=
201709032353 METAR KCLM 032353Z AUTO 35003KT 10SM CLR 26/16 A3005 RMK AO2 SLP175 T02560156 10283 20244 56004=
201709032253 METAR KCLM 032253Z AUTO VRB04KT 10SM CLR 28/14 A3005 RMK AO2 SLP175 T02780139=
201709032153 METAR KCLM 032153Z AUTO 08005KT 10SM CLR 28/14 A3005 RMK AO2 SLP176 T02780144=
201709032053 METAR KCLM 032053Z AUTO VRB04KT 10SM CLR 28/14 A3006 RMK AO2 SLP179 T02780144 58001=
201709031953 METAR KCLM 031953Z AUTO 04005KT 10SM CLR 26/16 A3006 RMK AO2 SLP179 T02610156=
201709031853 METAR KCLM 031853Z AUTO 08007KT 10SM CLR 26/16 A3006 RMK AO2 SLP179 T02610156=
201709031753 METAR KCLM 031753Z AUTO VRB06KT 10SM CLR 25/16 A3006 RMK AO2 SLP179 T02500156 10250 20133 51011=
201709031653 METAR KCLM 031653Z AUTO 08005KT 10SM CLR 24/14 A3005 RMK AO2 SLP176 T02440144=
201709031553 METAR KCLM 031553Z AUTO 00000KT 10SM CLR 23/14 A3005 RMK AO2 SLP173 T02280144=
201709031453 METAR KCLM 031453Z AUTO 00000KT 10SM CLR 17/15 A3003 RMK AO2 SLP169 T01720150 53009=
201709031353 METAR KCLM 031353Z AUTO 00000KT 10SM CLR 13/12 A3002 RMK AO2 SLP165 T01330122=
201709031253 METAR KCLM 031253Z AUTO 13003KT 10SM CLR 15/13 A3001 RMK AO2 SLP161 T01500128=
201709031153 METAR KCLM 031153Z AUTO 00000KT 10SM CLR 14/13 A3000 RMK AO2 SLP159 T01440133 10217 20144 50005=
201709031053 METAR KCLM 031053Z AUTO VRB03KT 10SM CLR 15/14 A3001 RMK AO2 SLP160 T01500144=
201709030953 METAR KCLM 030953Z AUTO 03003KT 10SM CLR 16/14 A3000 RMK AO2 SLP157 T01560139=
201709030853 METAR KCLM 030853Z AUTO 32005KT 10SM CLR 16/14 A2999 RMK AO2 SLP154 T01610144 53001=
201709030753 METAR KCLM 030753Z AUTO 30006KT 10SM CLR 17/15 A2998 RMK AO2 SLP152 T01670150 402610122=
201709030653 METAR KCLM 030653Z AUTO 28007KT 10SM CLR 20/16 A2998 RMK AO2 SLP150 T02000161=
201709030553 METAR KCLM 030553Z AUTO 30005KT 10SM CLR 20/17 A2999 RMK AO2 SLP153 T02000167 10244 20189 53002=
201709030453 METAR KCLM 030453Z AUTO 29006KT 10SM CLR 19/17 A2998 RMK AO2 SLP151 T01940167=
201709030353 METAR KCLM 030353Z AUTO 25004KT 10SM CLR 19/17 A2998 RMK AO2 SLP152 T01940172=
201709030253 METAR KCLM 030253Z AUTO 26005KT 10SM CLR 21/17 A2998 RMK AO2 SLP151 T02060172 58006=
201709030153 METAR KCLM 030153Z AUTO 30007KT 10SM CLR 22/17 A2998 RMK AO2 SLP151 T02220172=
201709030053 METAR KCLM 030053Z AUTO 31008KT 10SM CLR 23/18 A3000 RMK AO2 SLP157 T02280178=
201709022353 METAR KCLM 022353Z AUTO 30009KT 10SM CLR 24/18 A3000 RMK AO2 SLP157 T02440183 10261 20211 58012=
201709022253 METAR KCLM 022253Z AUTO VRB05KT 10SM CLR 25/16 A3001 RMK AO2 SLP160 T02500161=
201709022153 METAR KCLM 022153Z AUTO 32007KT 10SM CLR 24/12 A3002 RMK AO2 SLP166 T02440122=
201709022053 METAR KCLM 022053Z AUTO VRB05KT 10SM CLR 24/13 A3003 RMK AO2 SLP168 T02390133 58005=
201709021953 METAR KCLM 021953Z AUTO VRB05KT 10SM CLR 23/14 A3004 RMK AO2 SLP171 T02330139=
201709021853 METAR KCLM 021853Z AUTO 34004KT 10SM CLR 21/13 A3005 RMK AO2 SLP174 T02110128=
201709021753 METAR KCLM 021753Z AUTO 34005KT 10SM CLR 23/12 A3005 RMK AO2 SLP174 T02330122 10233 20122 51002=
201709021653 METAR KCLM 021653Z AUTO 36004KT 10SM CLR 22/13 A3005 RMK AO2 SLP173 T02220133=
201709021553 METAR KCLM 021553Z AUTO 02003KT 10SM CLR 20/13 A3005 RMK AO2 SLP173 T02000128=
201709021453 METAR KCLM 021453Z AUTO 00000KT 10SM CLR 17/14 A3004 RMK AO2 SLP172 T01720139 55000=
201709021353 METAR KCLM 021353Z AUTO 23003KT 10SM CLR 14/13 A3004 RMK AO2 SLP171 T01390128=
201709021253 METAR KCLM 021253Z AUTO 00000KT 10SM CLR 13/12 A3003 RMK AO2 SLP170 T01280117=
201709021153 METAR KCLM 021153Z AUTO 00000KT 10SM CLR 13/12 A3004 RMK AO2 SLP173 T01330117 10189 20122 58003=
201709021053 METAR KCLM 021053Z AUTO 00000KT 10SM CLR 13/11 A3005 RMK AO2 SLP174 T01280111=
201709020953 METAR KCLM 020953Z AUTO 00000KT 10SM CLR 16/12 A3005 RMK AO2 SLP176 T01560117=
201709020853 METAR KCLM 020853Z AUTO 29004KT 10SM CLR 17/12 A3005 RMK AO2 SLP175 T01720117 55006=
201709020753 METAR KCLM 020753Z AUTO 28004KT 10SM CLR 17/11 A3005 RMK AO2 SLP175 T01720111 402280078=
201709020653 METAR KCLM 020653Z AUTO 28003KT 10SM CLR 17/11 A3006 RMK AO2 SLP178 T01720111=
201709020553 METAR KCLM 020553Z AUTO 28005KT 10SM CLR 16/10 A3007 RMK AO2 SLP182 T01610100 10222 20150 50000=
201709020453 METAR KCLM 020453Z AUTO 25003KT 10SM CLR 16/11 A3007 RMK AO2 SLP184 T01610106=
201709020353 METAR KCLM 020353Z AUTO 28005KT 10SM CLR 16/11 A3008 RMK AO2 SLP185 T01560106=
201709020253 METAR KCLM 020253Z AUTO 00000KT 10SM CLR 18/10 A3007 RMK AO2 SLP181 T01830100 58014=
201709020153 METAR KCLM 020153Z AUTO 32003KT 10SM CLR 18/11 A3008 RMK AO2 SLP187 T01830106=
201709020053 METAR KCLM 020053Z AUTO 10SM CLR 19/11 A3010 RMK AO2 SLP192 T01940111=
201709012353 METAR KCLM 012353Z AUTO 35005KT 10SM CLR 21/12 A3011 RMK AO2 SLP195 T02110122 10228 20178 56014=
201709012253 METAR KCLM 012253Z AUTO 35005KT 10SM CLR 20/12 A3012 RMK AO2 SLP198 T02000122=
201709012153 METAR KCLM 012153Z AUTO 36005KT 10SM CLR 21/12 A3013 RMK AO2 SLP204 T02060117=
201709012053 METAR KCLM 012053Z AUTO 04006KT 10SM CLR 22/11 A3015 RMK AO2 SLP208 T02220111 58014=
201709011953 METAR KCLM 011953Z AUTO 03005KT 10SM CLR 20/12 A3017 RMK AO2 SLP215 T02000117=
201709011853 METAR KCLM 011853Z AUTO 01005KT 10SM CLR 18/11 A3019 RMK AO2 SLP222 T01830111=
201709011753 METAR KCLM 011753Z AUTO VRB03KT 10SM CLR 18/11 A3019 RMK AO2 SLP223 T01830106 10189 20078 50004=
201709011653 METAR KCLM 011653Z AUTO 36004KT 10SM CLR 16/10 A3019 RMK AO2 SLP223 T01560100=
201709011553 METAR KCLM 011553Z AUTO 32003KT 10SM CLR 15/11 A3019 RMK AO2 SLP223 T01500111=
201709011453 METAR KCLM 011453Z AUTO 00000KT 10SM CLR 12/11 A3018 RMK AO2 SLP219 T01170106 53008=
201709011353 METAR KCLM 011353Z AUTO 14003KT 10SM CLR 08/08 A3017 RMK AO2 SLP215 T00830083=
201709011253 METAR KCLM 011253Z AUTO 00000KT 10SM CLR 09/09 A3016 RMK AO2 SLP214 T00940089=
201709011237 SPECI KCLM 011237Z AUTO 00000KT 7SM SCT001 09/09 A3016 RMK AO2 T00890089=
201709011233 SPECI KCLM 011233Z AUTO 00000KT 2 1/2SM BR BKN001 09/09 A3016 RMK AO2 T00940094=
201709011228 SPECI KCLM 011228Z AUTO 00000KT 3/4SM BR VV001 09/09 A3016 RMK AO2 T00940094=
201709011221 SPECI KCLM 011221Z AUTO 28003KT 1SM BR VV001 09/09 A3016 RMK AO2 T00940094=
201709011218 SPECI KCLM 011218Z AUTO 31003KT 2SM BR BKN002 09/09 A3016 RMK AO2 T00940094=
201709011214 SPECI KCLM 011214Z AUTO 34004KT 6SM BR SCT002 09/09 A3016 RMK AO2 T00940089=
201709011153 METAR KCLM 011153Z AUTO 00000KT 10SM CLR 09/09 A3015 RMK AO2 SLP211 T00940089 10144 20094 55003=
201709011121 SPECI KCLM 011121Z AUTO 00000KT 3SM BR SCT001 10/10 A3016 RMK AO2 T01000100=
201709011114 SPECI KCLM 011114Z AUTO 27003KT 2SM BR BKN001 10/10 A3016 RMK AO2 T01000100=
201709011110 SPECI KCLM 011110Z AUTO 30003KT 2 1/2SM BR SCT002 11/11 A3016 RMK AO2 T01060106=
201709011053 METAR KCLM 011053Z AUTO 30005KT 10SM CLR 11/10 A3015 RMK AO2 SLP211 T01110100=
201709010953 METAR KCLM 010953Z AUTO 25003KT 10SM CLR 12/11 A3015 RMK AO2 SLP210 T01220106=
201709010853 METAR KCLM 010853Z AUTO 29006KT 10SM CLR 13/10 A3016 RMK AO2 SLP214 T01280100 53001=
201709010753 METAR KCLM 010753Z AUTO 27006KT 10SM CLR 13/09 A3016 RMK AO2 SLP212 T01280094 402000128=
201709010653 METAR KCLM 010653Z AUTO 29005KT 10SM CLR 13/10 A3016 RMK AO2 SLP212 T01330100=
201709010553 METAR KCLM 010553Z AUTO 26007KT 10SM CLR 14/09 A3016 RMK AO2 SLP213 T01440094 10183 20139 58001=
201709010453 METAR KCLM 010453Z AUTO 28011KT 10SM CLR 14/09 A3018 RMK AO2 SLP219 T01440094=
201709010353 METAR KCLM 010353Z AUTO 28011KT 10SM CLR 14/09 A3018 RMK AO2 SLP219 T01440094=
201709010253 METAR KCLM 010253Z AUTO 29005KT 10SM CLR 15/11 A3016 RMK AO2 SLP214 T01500111 53001=
201709010153 METAR KCLM 010153Z AUTO 29008KT 10SM CLR 17/13 A3016 RMK AO2 SLP213 T01670128=
201709010053 METAR KCLM 010053Z AUTO 30007KT 10SM CLR 18/13 A3015 RMK AO2 SLP211 T01830128=

# No short TAF reports from KCLM in databse.

###################################
#  large TAF from KCLM
###################################
201709302320 TAF KCLM 302320Z 0100/0124 24010KT P6SM VCSH SCT025 BKN045 FM010800
                       VRB04KT P6SM BKN020 FM011700 28008KT P6SM
                       SCT030=
201709301720 TAF KCLM 301720Z 3018/0118 24010KT P6SM VCSH SCT025 BKN045 FM010800
                       VRB04KT P6SM BKN020 FM011700 28008KT P6SM
                       SCT030=
201709301120 TAF KCLM 301120Z 3012/0112 00000KT P6SM SCT060 OVC080 FM301400
                       00000KT P6SM OVC035 FM301800 35004KT P6SM
                       VCSH OVC035 FM302000 30005KT P6SM VCSH SCT025
                       BKN050 FM010900 27005KT P6SM BKN025=
201709300529 TAF KCLM 300529Z 3006/0106 26007KT P6SM FEW060 FM300900 VRB03KT
                       P6SM OVC035 FM301800 30006G14KT P6SM VCSH
                       SCT025 BKN050=
201709292320 TAF KCLM 292320Z 3000/3024 30014G24KT P6SM BKN040 FM300500 30010KT
                       P6SM BKN040 FM301000 VRB03KT P6SM BKN020
                       FM301800 26006KT P6SM SCT025 BKN050=
201709292102 KCLM 292102Z 2921/3018 30017G27KT P6SM VCSH SCT025 BKN050 FM300000
                       30012G22KT P6SM VCSH SCT025 BKN050 FM300500
                       VRB04KT P6SM VCSH BKN025 BKN040=
201709291720 TAF KCLM 291720Z 2918/3018 VRB04KT P6SM SCT025 BKN050 OVC100
                      TEMPO 2918/2921 -RA BKN025 OVC050 FM292100
                       27012G20KT P6SM VCSH SCT025 BKN050 FM300500
                       VRB04KT P6SM VCSH BKN025 BKN040=
201709291531 KCLM 291531Z 2916/3012 VRB04KT P6SM SCT020 OVC060
                      TEMPO 2917/2921 -RA BKN020 OVC040 FM292100
                       31010G17KT P6SM VCSH BKN025 BKN040 FM300900
                       27005KT P6SM VCSH BKN040=
201709291211 KCLM 291211Z 2912/3012 25005KT P6SM BKN015 BKN120 FM291500 30007G15KT
                       5SM -RA OVC009 FM292100 31010G17KT P6SM
                       VCSH BKN025 BKN040 FM300900 27005KT P6SM
                       VCSH BKN040=
201709291120 TAF KCLM 291120Z 2912/3012 24003KT P6SM BKN100 OVC200 FM291500
                       30007G15KT 5SM -RA OVC009 FM292100 31010G17KT
                       P6SM VCSH BKN025 BKN040 FM300900 27005KT
                       P6SM VCSH BKN040=
201709290527 TAF KCLM 290527Z 2906/3006 31006KT P6SM SKC FM290700 28004KT P6SM
                       BKN100 OVC250 FM291200 28004KT P6SM OVC035
                       FM291400 27004KT 6SM -RA BKN015 OVC030 FM291700
                       30005KT 5SM -RA OVC009 FM292200 29016G22KT
                       P6SM VCSH OVC019=
201709282320 TAF KCLM 282320Z 2900/2924 VRB04KT P6SM SKC FM290200 27005KT P6SM
                       SKC FM290900 VRB03KT P6SM BKN050 OVC080
                       FM291200 VRB03KT P6SM -RA OVC040 FM291600
                       VRB03KT P6SM -RA BKN020 OVC040 FM292100
                       30009KT P6SM SCT025 BKN040=
201709281732 TAF KCLM 281732Z 2818/2918 05005KT P6SM SKC FM290100 27005KT P6SM
                       SKC FM290900 VRB03KT P6SM BKN050 OVC080
                       FM291000 VRB03KT P6SM -RA OVC040=
201709281120 TAF KCLM 281120Z 2812/2912 22004KT P6SM VCFG SKC FM281600 VRB03KT
                       P6SM SKC FM290000 VRB03KT P6SM SCT250=
201709280531 TAF KCLM 280531Z 2806/2906 00000KT P6SM SKC FM290000 VRB03KT P6SM
                       SCT250=
201709272320 TAF KCLM 272320Z 2800/2824 08006KT P6SM SKC FM280300 VRB03KT P6SM
                       SKC=
201709271720 TAF KCLM 271720Z 2718/2818 08006KT P6SM SKC FM280400 22003KT P6SM
                       SKC=
201709271120 TAF KCLM 271120Z 2712/2812 VRB04KT P6SM SKC FM271800 08007KT P6SM
                       SKC FM280400 26003KT P6SM SKC=
201709270520 TAF KCLM 270520Z 2706/2806 VRB04KT P6SM SKC FM271800 08007KT P6SM
                       SKC=
201709262320 TAF KCLM 262320Z 2700/2724 02005KT P6SM SKC FM270300 VRB04KT P6SM
                       SKC FM271800 08007KT P6SM SKC=
201709261843 KCLM 261843Z 2619/2718 04006KT P6SM SCT020 FM262100 04006KT P6SM
                       SKC FM270000 VRB04KT P6SM SKC=
201709261720 TAF KCLM 261720Z 2618/2718 VRB03KT P6SM OVC020 FM262100 04005KT
                       P6SM SCT025 SCT200 FM270000 VRB04KT P6SM
                       SKC=
201709261123 TAF KCLM 261123Z 2612/2712 VRB03KT P6SM OVC015 FM261800 07004KT
                       P6SM SCT025 BKN200 FM262000 05006KT P6SM
                       SCT250 FM270000 28004KT P6SM SKC=
201709261004 KCLM 261004Z 2610/2706 VRB03KT P6SM SCT015
                      TEMPO 2610/2614 1/2SM FG SCT004 BKN015 FM261800
                       07004KT P6SM SCT025 SCT250 FM262000 02006KT
                       P6SM SCT250=
201709260802 KCLM 260802Z 2608/2706 VRB03KT P6SM BKN015
                      TEMPO 2608/2612 4SM BR BKN008 FM261200 VRB03KT
                       4SM BR OVC008 FM261800 07004KT P6SM BKN011
                       BKN250 FM262000 02006KT P6SM SCT250=
201709260520 TAF KCLM 260520Z 2606/2706 VRB03KT P6SM SCT050 OVC060 FM261200
                       VRB03KT 4SM BR OVC008 FM261800 07004KT P6SM
                       BKN011 BKN250 FM262000 02006KT P6SM SCT250=
201709252329 TAF KCLM 252329Z 2600/2624 VRB03KT P6SM SCT011 SCT050 OVC090
                      TEMPO 2600/2602 -RA BKN011 OVC050 FM260600
                       VRB03KT P6SM OVC011 FM261200 VRB03KT 4SM
                       BR OVC008 FM261800 07004KT P6SM BKN011 BKN250
                       FM262000 02006KT P6SM SCT250=
201709252106 KCLM 252106Z 2521/2618 VRB05KT P6SM VCSH SCT011 OVC080
                      TEMPO 2521/2524 BKN011 OVC080 FM260200 27004KT
                       P6SM FEW015 OVC035 FM261200 VRB03KT 4SM
                       BR OVC008=
201709251946 KCLM 251946Z 2520/2618 VRB05KT P6SM VCSH SCT011 OVC080
                      TEMPO 2520/2524 -RA BKN011 OVC080 FM260200
                       27004KT P6SM FEW015 OVC035 FM261200 VRB03KT
                       4SM BR OVC008=
201709251729 TAF KCLM 251729Z 2518/2618 VRB03KT P6SM -RA FEW005 SCT035 OVC070
                       FM252100 VRB03KT P6SM VCSH FEW005 BKN035
                       OVC050 FM260200 27004KT P6SM FEW015 OVC035
                       FM261200 VRB03KT 4SM BR OVC008=
201709251120 TAF KCLM 251120Z 2512/2612 25005KT P6SM -RA BKN060 OVC100 FM251400
                       27004KT P6SM -RA SCT025 BKN050 OVC070 FM252100
                       VRB04KT P6SM BKN030 OVC050=
201709251004 KCLM 251004Z 2510/2606 25005KT P6SM -RA BKN070 OVC150 FM251200
                       27004KT P6SM -RA SCT012 BKN030 OVC050 FM252100
                       VRB04KT P6SM BKN030 OVC040=
201709250520 TAF KCLM 250520Z 2506/2606 27005KT P6SM BKN070 OVC150 FM251200
                       28003KT P6SM VCSH SCT009 OVC050 FM251500
                       28003KT P6SM -RA SCT012 OVC030 FM252100
                       VRB04KT P6SM BKN030 OVC040=
201709242328 TAF KCLM 242328Z 2500/2524 29009KT P6SM FEW050 SCT120 OVC200 FM250600
                       27005KT P6SM FEW013 BKN050 OVC100 FM251200
                       VRB03KT P6SM VCSH SCT009 OVC050 FM251800
                       VRB03KT P6SM -RA SCT012 OVC035
                      PROB30 2518/2522 4SM -RA BR BKN012 OVC035=
201709242115 KCLM 242115Z 2421/2518 33009KT P6SM SCT050 SCT120 BKN200 FM250100
                       28009KT P6SM SCT050 BKN120 OVC200 FM250600
                       28009KT P6SM FEW013 BKN050 OVC100 FM251200
                       VRB03KT P6SM BKN009 OVC050
                      PROB30 2512/2518 5SM -RA OVC009=
201709241727 TAF KCLM 241727Z 2418/2518 VRB03KT P6SM SCT050 BKN200
                      TEMPO 2418/2420 BKN050 BKN200 FM242000 34005KT
                       P6SM BKN050 BKN120 BKN200 FM250100 28008KT
                       P6SM SCT050 BKN120 OVC200 FM250600 28008KT
                       P6SM FEW013 BKN050 OVC100 FM251200 VRB03KT
                       P6SM BKN009 OVC050
                      PROB30 2512/2518 5SM -RA OVC009=
201709241503 KCLM 241503Z 2415/2512 VRB05KT P6SM VCFG SCT001 BKN200
                      TEMPO 2415/2418 1/2SM FG VV001 FM241800 30006KT
                       P6SM SCT120 BKN150 FM250000 28007KT P6SM
                       SCT050 BKN100 FM250600 29004KT P6SM BKN050
                       OVC100=
201709241429 KCLM 241429Z 2414/2512 32007KT 4SM BR SCT001 BKN200
                      TEMPO 2414/2418 1/4SM FG VV001 FM241800 30006KT
                       P6SM SCT120 BKN150 FM250000 28007KT P6SM
                       SCT050 BKN100 FM250600 29004KT P6SM BKN050
                       OVC100=
201709241120 TAF KCLM 241120Z 2412/2512 32004KT P6SM SCT150 BKN200 FM241800
                       30006KT P6SM SCT120 BKN150 FM250000 28007KT
                       P6SM SCT050 BKN100 FM250600 29004KT P6SM
                       BKN050 OVC100=
201709240520 TAF KCLM 240520Z 2406/2506 28005KT P6SM FEW100 FM240900 VRB03KT
                       P6SM FEW050 OVC100 FM241800 30006KT P6SM
                       BKN050 OVC100=
201709232332 TAF KCLM 232332Z 2400/2424 33004KT P6SM SCT100 BKN200 FM240200
                       28005KT P6SM BKN100 OVC200 FM240900 VRB03KT
                       P6SM FEW050 OVC100 FM241800 33006KT P6SM
                       BKN050 OVC100=
201709232112 KCLM 232112Z 2321/2418 VRB04KT P6SM BKN200 FM232300 33004KT P6SM
                       SCT100 BKN200 FM240200 28004KT P6SM BKN100
                       OVC200 FM240900 VRB03KT P6SM SCT050 OVC100
                       FM241500 VRB03KT P6SM BKN050 OVC100=
201709231731 TAF KCLM 231731Z 2318/2418 01005KT P6SM FEW100 SCT200 FM232300
                       33004KT P6SM SCT100 BKN200 FM240200 28004KT
                       P6SM BKN100 OVC200 FM240900 VRB03KT P6SM
                       SCT050 OVC100 FM241500 VRB03KT P6SM BKN050
                       OVC100=
201709231418 KCLM 231418Z 2314/2412 VRB03KT P6SM SCT080 OVC200 FM232100 VRB05KT
                       P6SM SCT080 SCT100 FM240000 27004KT P6SM
                       SCT100=
201709231121 TAF KCLM 231121Z 2312/2412 27004KT P6SM OVC080 FM232100 VRB05KT
                       P6SM SCT080 SCT100 FM240000 27004KT P6SM
                       SCT100=
201709230520 TAF KCLM 230520Z 2306/2406 29005KT P6SM OVC150 FM231000 27004KT
                       P6SM OVC060 FM231800 25005KT P6SM SCT080
                       SCT120=
201709222320 TAF KCLM 222320Z 2300/2324 28005KT P6SM SCT100 BKN150 FM230600
                       29005KT P6SM OVC080 FM231000 27004KT P6SM
                       OVC060 FM231800 25005KT P6SM SCT080 SCT100=
201709221750 TAF KCLM 221750Z 2218/2318 VRB04KT P6SM SCT100 FM230000 28005KT
                       P6SM SCT100 BKN150 FM230600 29005KT P6SM
                       OVC080 FM231000 27004KT P6SM OVC060=
201709221120 TAF KCLM 221120Z 2212/2312 29006KT P6SM OVC100 FM221800 06005KT
                       P6SM SCT100 SCT200 FM230000 28005KT P6SM
                       BKN200=
201709220520 TAF KCLM 220520Z 2206/2306 29004KT P6SM OVC100 FM221200 24004KT
                       P6SM SCT100 FM221800 06005KT P6SM SCT200=
201709212345 TAF KCLM 212345Z 2200/2224 04005KT P6SM SCT200 FM220500 29004KT
                       P6SM SCT070 SCT200 FM221200 24004KT P6SM
                       SCT200 FM221800 06005KT P6SM SCT200=
201709211726 TAF KCLM 211726Z 2118/2218 03004KT P6SM SCT100 FM220300 29004KT
                       P6SM SCT060 SCT200 FM221200 24004KT P6SM
                       SCT100 SCT200=
201709211524 KCLM 211524Z 2115/2212 VRB04KT P6SM BKN060 FM211900 05003KT P6SM
                       SCT060 FM220200 29004KT P6SM SCT060 SCT200=
201709211140 TAF KCLM 211140Z 2112/2212 25006KT P6SM SCT008 BKN050 OVC080 FM211400
                       25006KT P6SM BKN008 OVC020 FM211700 25006KT
                       P6SM SCT015 BKN025 FM211900 27006KT P6SM
                       SCT030 BKN050 FM212100 27006KT P6SM SCT050
                       FM220500 VRB03KT P6SM SCT200=
201709210540 TAF KCLM 210540Z 2106/2206 27008KT P6SM SCT050 FM211300 00000KT
                       P6SM BKN008 BKN014 FM211700 00000KT P6SM
                       SCT008 BKN015 FM211800 27006KT P6SM SCT040=
201709202320 TAF KCLM 202320Z 2100/2124 32006KT P6SM SCT060 FM211000 00000KT
                       P6SM SCT015 SCT040 FM212000 30006KT P6SM
                       SCT040=
201709201927 KCLM 201927Z 2019/2118 VRB04KT P6SM SCT025 SCT050 FM202200 31006KT
                       P6SM SCT025 BKN050 FM210600 00000KT P6SM
                       SCT015 SCT050 FM211200 00000KT P6SM BKN012
                       BKN050=
201709201728 TAF KCLM 201728Z 2018/2118 VRB04KT P6SM BKN020 OVC040 FM202200
                       31006KT P6SM SCT020 BKN050 FM210600 00000KT
                       P6SM SCT015 SCT050 FM211200 00000KT P6SM
                       BKN012 BKN050=
201709201344 KCLM 201344Z 2014/2112 VRB03KT P6SM VCSH SCT009 BKN035 OVC050
                      TEMPO 2014/2018 -SHRA BKN009 OVC035 FM201800
                       29006KT P6SM BKN060 FM211000 VRB03KT P6SM
                       BKN006 OVC011=
201709201223 KCLM 201223Z 2012/2112 VRB03KT P6SM VCSH SCT035 OVC060 FM201800
                       29006KT P6SM BKN060 FM211000 VRB03KT P6SM
                       BKN006 OVC011=
201709201135 TAF KCLM 201135Z 2012/2112 VRB03KT P6SM BKN060
                      TEMPO 2012/2015 3SM BR FM201800 29006KT P6SM
                       BKN060 FM211000 VRB03KT P6SM BKN006 OVC011=
201709200539 TAF KCLM 200539Z 2006/2106 VRB03KT P6SM BKN060
                      TEMPO 2012/2015 3SM BR FM201800 29006KT P6SM
                       BKN060=
201709192320 TAF KCLM 192320Z 2000/2024 30007KT P6SM VCSH SCT025 BKN050 FM200600
                       VRB03KT P6SM VCSH SCT020 BKN040 FM201200
                       VRB03KT P6SM VCSH BKN025 BKN040 FM201800
                       30007KT P6SM BKN050=
201709191757 KCLM 191757Z 1918/2018 VRB04KT P6SM VCSH SCT025 BKN050
                      TEMPO 1918/1921 BKN020 OVC050 FM201200 VRB03KT
                       P6SM VCSH BKN020 BKN040 FM201700 33006KT
                       P6SM SCT030 BKN060=
201709191722 TAF KCLM 191722Z 1918/2018 VRB04KT P6SM SCT025 BKN050 FM201200
                       VRB03KT P6SM VCSH BKN020 BKN040 FM201700
                       33006KT P6SM SCT030 BKN060=
201709191349 KCLM 191349Z 1914/2012 VRB03KT P6SM VCSH FEW005 SCT020 BKN050
                      TEMPO 1914/1917 -SHRA BKN005 BKN020 OVC050
                       FM192200 29006KT P6SM SCT040 BKN060 FM200600
                       VRB03KT P6SM SCT060=
201709191301 KCLM 191301Z 1913/2012 VRB03KT P6SM VCSH SCT030 BKN050
                      TEMPO 1913/1917 -SHRA BKN030 OVC050 FM192200
                       29006KT P6SM SCT040 BKN060 FM200600 VRB03KT
                       P6SM SCT060=
201709191200 KCLM 191200Z 1912/2012 00000KT 2SM BR VCSH SCT030 SCT070
                      TEMPO 1912/1914 3/4SM BR FM191400 VRB03KT
                       P6SM VCSH SCT030 BKN050 FM192200 29006KT
                       P6SM SCT040 BKN060 FM200600 VRB03KT P6SM
                       SCT060=
201709191137 TAF KCLM 191137Z 1912/2012 VRB03KT P6SM SCT030 BKN050 FM192200
                       29006KT P6SM SCT040 BKN060 FM200600 VRB03KT
                       P6SM SCT060=
201709190541 TAF KCLM 190541Z 1906/2006 VRB03KT P6SM -SHRA SCT025 BKN040 BKN060
                       FM191900 29006KT P6SM SCT040 BKN060=
201709182322 TAF KCLM 182322Z 1900/1924 VRB04KT P6SM VCSH SCT025 BKN050 FM190300
                       28008KT P6SM -SHRA BKN025 OVC040 FM191700
                       30006KT P6SM SCT040=
201709181724 TAF KCLM 181724Z 1818/1918 VRB04KT P6SM VCSH SCT025 BKN050 FM190300
                       28008KT P6SM -SHRA BKN025 OVC040 FM191700
                       30006KT P6SM SCT040=
201709181228 KCLM 181228Z 1812/1912 23005KT P6SM VCSH FEW025 SCT050 BKN110
                      TEMPO 1812/1814 5SM SHRA BKN025 OVC050 FM181800
                       35005KT P6SM VCSH SCT025 BKN050
                      TEMPO 1820/1824 -SHRA FM190300 26004KT P6SM
                       VCSH SCT025 BKN050
                      PROB30 1903/1909 -SHRA=
201709181120 TAF KCLM 181120Z 1812/1912 VRB03KT P6SM VCSH BKN025 BKN050 FM182000
                       33004KT P6SM -RA SCT030 BKN050 FM190300
                       26004KT P6SM VCSH BKN030 OVC050=
201709180520 TAF KCLM 180520Z 1806/1906 28005KT P6SM VCSH SCT015 OVC070 FM181000
                       VRB03KT P6SM VCSH BKN025 BKN050 FM182000
                       VRB04KT P6SM -RA SCT030 BKN050 FM190300
                       26004KT P6SM VCSH BKN030 OVC050=
201709172320 TAF KCLM 172320Z 1800/1824 28010KT P6SM -SHRA SCT005 OVC015
                      TEMPO 1800/1803 2SM -SHRA BR BKN005 OVC015
                       FM181000 28008KT P6SM VCSH BKN025 BKN050
                       FM182000 VRB04KT P6SM VCSH SCT030 BKN050=
201709171720 TAF KCLM 171720Z 1718/1818 VRB04KT P6SM -RA SCT020 SCT040 OVC090
                       FM172000 VRB04KT 4SM -RA BR SCT008 OVC020
                       FM172200 28012KT P6SM -SHRA BKN025 OVC050
                       FM180600 28008KT P6SM VCSH SCT025 BKN050=
201709171236 KCLM 171236Z 1713/1812 25005KT P6SM OVC150 FM171800 VRB05KT P6SM
                       -RA SCT020 SCT040 OVC090 FM172000 31009KT
                       4SM -RA BR SCT008 OVC020 FM180000 28011KT
                       P6SM -SHRA BKN028 BKN040 FM180600 25004KT
                       P6SM VCSH SCT028 SCT040 BKN070=
201709171120 TAF KCLM 171120Z 1712/1812 22005KT P6SM SCT010 BKN150 FM171700
                       09005KT P6SM BKN030 OVC080 FM172000 31006KT
                       P6SM -RA BKN030 OVC080 FM180200 28009KT
                       P6SM OVC040 FM180800 26004KT P6SM OVC040=
201709170522 TAF KCLM 170522Z 1706/1806 28008KT P6SM SCT200 FM171200 VRB03KT
                       P6SM SCT010 BKN150 FM171700 09005KT P6SM
                       BKN030 OVC080 FM172000 31006KT P6SM -RA
                       BKN030 OVC080 FM180200 28009KT P6SM OVC040=
201709162320 TAF KCLM 162320Z 1700/1724 25006KT P6SM BKN200 FM170300 28008KT
                       P6SM SCT200 FM171200 VRB03KT P6SM SCT010
                       BKN150 FM171700 09005KT P6SM BKN030 OVC080
                       FM172000 VRB04KT P6SM -RA BKN030 OVC080=
201709161728 TAF KCLM 161728Z 1618/1718 00000KT P6SM BKN200 FM170300 27007KT
                       P6SM SCT200 FM171200 09005KT P6SM SCT010
                       BKN150 FM171700 09005KT P6SM BKN030 OVC080=
201709161120 TAF KCLM 161120Z 1612/1712 VRB04KT P6SM BKN200 FM161700 04006KT
                       P6SM SCT200 FM162300 31005KT P6SM SCT200
                       FM170200 28004KT P6SM SCT200=
201709160520 TAF KCLM 160520Z 1606/1706 VRB04KT P6SM BKN200 FM161700 04006KT
                       P6SM SCT200 FM162300 31005KT P6SM SCT200=
201709152324 TAF KCLM 152324Z 1600/1624 VRB04KT P6SM SCT250 FM160600 00000KT
                       P6SM BKN200=
201709151720 TAF KCLM 151720Z 1518/1618 09005KT P6SM SCT250 FM152200 33006KT
                       P6SM BKN200 FM160600 VRB03KT P6SM BKN200=
201709151128 TAF KCLM 151128Z 1512/1612 24008KT P6SM SKC FM151800 08006KT P6SM
                       SKC FM160000 VRB03KT P6SM SKC FM160300 28004KT
                       P6SM SKC=
201709150534 TAF KCLM 150534Z 1506/1606 25007KT P6SM SKC FM151200 VRB04KT P6SM
                       SKC FM151800 08006KT P6SM SKC FM160000 VRB03KT
                       P6SM SKC FM160300 28004KT P6SM SKC=
201709142330 TAF KCLM 142330Z 1500/1524 VRB03KT P6SM SKC FM150300 29004KT P6SM
                       SKC FM150600 25004KT P6SM SKC FM151200 09004KT
                       P6SM SKC=
201709141724 TAF KCLM 141724Z 1418/1518 13005KT P6SM SKC FM142200 01006KT P6SM
                       SKC FM150300 28004KT P6SM SKC FM150600 26004KT
                       P6SM SKC FM151200 VRB03KT P6SM SKC=
201709141129 TAF KCLM 141129Z 1412/1512 22006KT P6SM SKC FM141500 VRB03KT P6SM
                       SKC FM141800 08006KT P6SM SKC FM150000 29007KT
                       P6SM SKC FM150600 25004KT P6SM SKC=
201709140522 TAF KCLM 140522Z 1406/1506 25006KT P6SM SKC FM141500 VRB03KT P6SM
                       SKC FM141800 07006KT P6SM SKC FM150000 29007KT
                       P6SM SKC=
201709132320 TAF KCLM 132320Z 1400/1424 08006KT P6SM SKC FM140300 28006KT P6SM
                       SKC FM140600 24006KT P6SM SKC FM141500 VRB03KT
                       P6SM SKC FM141800 07006KT P6SM SKC=
201709131740 TAF KCLM 131740Z 1318/1418 VRB03KT P6SM SCT020 SCT250 FM132000
                       05005KT P6SM SCT250 FM140000 34006KT P6SM
                       SKC FM140300 28006KT P6SM SKC FM140600 24006KT
                       P6SM SKC=
201709131720 TAF KCLM 131720Z 1318/1418 VRB04KT P6SM SCT020 SCT250
                      TEMPO 1318/1320 BKN018 FM132100 26005KT P6SM
                       SCT020 SCT250 FM140300 29005KT P6SM SKC
                       FM140600 24007KT P6SM SKC=
201709131603 KCLM 131603Z 1316/1412 VRB03KT P6SM SCT020
                      TEMPO 1316/1318 BKN020 FM131800 03006KT P6SM
                       SCT250 FM140000 34006KT P6SM SKC FM140300
                       28006KT P6SM SKC FM140600 24006KT P6SM SKC=
201709131131 TAF KCLM 131131Z 1312/1412 27004KT P6SM VCFG OVC250 FM131800 03006KT
                       P6SM SCT250 FM140000 34006KT P6SM SKC FM140300
                       28006KT P6SM SKC FM140600 24006KT P6SM SKC=
201709130907 KCLM 130907Z 1309/1406 24005KT P6SM VCFG OVC250 FM131800 03006KT
                       P6SM SCT250 FM140000 34006KT P6SM SKC FM140300
                       28006KT P6SM SKC=
201709130540 TAF KCLM 130540Z 1306/1406 28005KT P6SM BKN250 FM131800 03006KT
                       P6SM SCT250 FM140000 34006KT P6SM SKC FM140300
                       28006KT P6SM SKC=
201709130157 KCLM 130157Z 1302/1324 28007KT P6SM BKN250 FM131200 VRB04KT P6SM
                       SCT015
                      TEMPO 1314/1318 BKN015 FM131800 33006KT P6SM
                       SCT030 BKN250=
201709122320 TAF KCLM 122320Z 1300/1324 33010KT P6SM SCT030 SCT200 FM131200
                       VRB04KT P6SM SCT015
                      TEMPO 1314/1318 BKN015 FM131800 33006KT P6SM
                       SCT030 BKN250=
201709122005 KCLM 122005Z 1220/1318 31008KT P6SM BKN030 BKN200 FM131200 VRB04KT
                       P6SM BKN015 FM131700 33006KT P6SM SCT030=
201709121720 TAF KCLM 121720Z 1218/1318 VRB04KT 5SM BR BKN005 BKN200 FM122000
                       33008KT P6SM BKN008 BKN200 FM122300 33008KT
                       P6SM SCT015 SCT200 FM131200 VRB04KT P6SM
                       BKN015 FM131700 33006KT P6SM SCT030=
201709121559 KCLM 121559Z 1216/1312 30007KT P6SM SCT004 BKN012
                      TEMPO 1216/1219 4SM BR BKN004 OVC012 FM122000
                       32008KT P6SM BKN020 BKN050 BKN250 FM122300
                       32012KT P6SM SCT040 BKN250 FM131100 27005KT
                       P6SM BKN020=
201709121135 TAF KCLM 121135Z 1212/1312 27005KT P6SM VCFG BKN025 BKN080 BKN250
                       FM121800 32008KT P6SM BKN035 BKN060 BKN250
                       FM122100 32012KT P6SM SCT035 SCT060 BKN250
                       FM130200 29010KT P6SM SCT060 SCT250 FM130900
                       27005KT P6SM SCT025 SCT250=
201709120905 TAF AMD KCLM 120905Z 1209/1306 29005KT P6SM VCFG SCT008
                      TEMPO 1209/1213 4SM BR BKN008 FM121700 30008KT
                       P6SM BKN015 BKN030 FM122100 33010G18KT P6SM
                       SCT015 BKN030 BKN120 FM130300 29010KT P6SM
                       SCT100=
201709120520 TAF KCLM 120520Z 1206/1306 27003KT P6SM SKC FM120700 28008KT P6SM
                       VCFG SCT005 FM120900 28008KT 3SM BR BKN005
                       TEMPO 1212/1216 1SM BR OVC003 FM121700 30008KT
                       P6SM BKN015 BKN030 FM122100 33010G18KT P6SM
                       SCT015 BKN030 BKN120 FM130300 29010KT P6SM
                       SCT100=
201709112320 TAF KCLM 112320Z 1200/1224 29008KT P6SM SKC FM120700 28008KT P6SM
                       VCFG SCT005 FM120900 28008KT 3SM BR BKN005
                       TEMPO 1212/1216 1SM BR OVC003 FM121700 30008KT
                       P6SM BKN010 BKN030 FM122000 33010KT P6SM
                       SCT015 BKN030=
201709111720 TAF KCLM 111720Z 1118/1218 VRB04KT P6SM SKC FM120000 28008KT P6SM
                       SKC FM120500 28008KT P6SM VCFG SCT005 FM120700
                       28008KT 3SM BR BKN005
                      TEMPO 1212/1216 1SM BR OVC003 FM121700 30008KT
                       P6SM BKN010=
201709111126 TAF KCLM 111126Z 1112/1212 VRB03KT P6SM SCT250 FM111800 02005KT
                       P6SM FEW250 FM112100 35006KT P6SM FEW250
                       FM120100 29006KT P6SM FEW100 SCT250 FM120900
                       28004KT P6SM FEW011 BKN100 OVC250=
201709110536 TAF KCLM 110536Z 1106/1206 23004KT P6SM SKC FM111800 02005KT P6SM
                       SKC FM112100 35006KT P6SM SKC FM120100 29006KT
                       P6SM SKC=
201709110309 KCLM 110309Z 1103/1124 VRB03KT P6SM SKC=
201709102320 TAF KCLM 102320Z 1100/1124 31004KT P6SM SCT200 FM110600 26004KT
                       P6SM SKC=
201709101720 TAF KCLM 101720Z 1018/1118 26005KT P6SM BKN200 FM102100 31004KT
                       P6SM SCT200 FM110200 26006KT P6SM SKC=
201709101123 TAF KCLM 101123Z 1012/1112 26010KT P6SM SKC FM101700 VRB03KT P6SM
                       SKC FM110200 26006KT P6SM SKC=
201709100534 TAF KCLM 100534Z 1006/1106 26006KT P6SM SKC FM101100 VRB03KT 4SM
                       BR SCT002 FM101400 VRB03KT P6SM SKC=
201709092351 KCLM 092351Z 1000/1024 VRB03KT P6SM SCT004 BKN025 OVC050
                      TEMPO 1000/1003 BKN004 FM100900 VRB03KT 3SM
                       BR OVC004 FM101500 VRB04KT P6SM SCT015 FM101900
                       VRB04KT P6SM SCT040=
201709092325 TAF KCLM 092325Z 1000/1024 VRB03KT 5SM BR OVC006 FM100900 VRB03KT
                       3SM BR OVC004 FM101500 VRB04KT P6SM SCT015
                       FM101900 VRB04KT P6SM SCT040=
201709092105 KCLM 092105Z 0921/1018 VRB03KT 3SM -RA BR SCT010 BKN040 OVC060
                       TEMPO 0921/0924 1SM -RA BR VV002 FM100000
                       32005KT P6SM BKN030 BKN050 FM100900 VRB03KT
                       P6SM BKN018 BKN250=
201709091945 KCLM 091945Z 0920/1018 VRB03KT 5SM -RA BR SCT030 BKN040 OVC060
                       TEMPO 0920/0921 2SM -RA BR BKN002 FM092100
                       32005KT P6SM BKN030 BKN050 FM100900 VRB03KT
                       P6SM BKN018 BKN250=
201709091919 KCLM 091919Z 0919/1018 VRB03KT 5SM -RA BR SCT030 BKN050 OVC060
                       TEMPO 0919/0921 2SM -RA BR FEW002 FM092100
                       32005KT P6SM BKN030 BKN050 FM100900 VRB03KT
                       P6SM BKN018 BKN250=
201709091722 TAF KCLM 091722Z 0918/1018 VRB03KT 5SM -RA BR SCT030 OVC060 FM092100
                       32005KT P6SM BKN030 BKN050 FM100900 VRB03KT
                       P6SM BKN018 BKN250=
201709091635 KCLM 091635Z 0917/1012 VRB03KT 4SM -RA BR SCT030 OVC060 FM092100
                       32005KT P6SM VCSH BKN028 BKN050 FM100100
                       29005KT P6SM BKN028 BKN050 FM100900 VRB03KT
                       P6SM BKN018 BKN250=
201709091135 TAF KCLM 091135Z 0912/1012 VRB03KT P6SM BKN028 BKN050 OVC150 FM091500
                       VRB03KT P6SM -RA OVC022
                      TEMPO 0915/0919 4SM -RA BR SCT007 OVC015
                       FM092100 32005KT P6SM VCSH BKN028 BKN050
                       FM100100 29005KT P6SM BKN028 BKN050 FM100900
                       VRB03KT P6SM BKN018 BKN250=
201709091023 KCLM 091023Z 0910/1006 VRB03KT P6SM SCT028 OVC200
                      TEMPO 0910/0913 BKN028 OVC200 FM091500 VRB03KT
                       P6SM -RA SCT020 OVC035
                      TEMPO 0915/0919 4SM -RA BR SCT007 OVC020
                       FM092100 31005KT P6SM BKN020 OVC035 FM100000
                       29005KT P6SM BKN028 BKN050=
201709090544 TAF KCLM 090544Z 0906/1006 28005KT P6SM BKN035
                      TEMPO 0906/0910 BKN025 FM091000 VRB03KT P6SM
                       BKN035 BKN070 FM091500 VRB03KT P6SM -RA
                       SCT020 OVC035
                      TEMPO 0915/0919 4SM -RA BR SCT007 OVC020
                       FM092100 31005KT P6SM BKN020 OVC035 FM100000
                       29005KT P6SM BKN028 BKN050=
201709090257 KCLM 090257Z 0903/0924 28008KT P6SM BKN018 FM091000 27005KT P6SM
                       OVC025 FM091600 VRB05KT P6SM -RA OVC025
                       FM092100 VRB05KT P6SM BKN030=
201709090211 KCLM 090211Z 0902/0924 28008KT P6SM FEW030 SCT050 SCT250 FM090600
                       28008KT P6SM BKN030 FM091000 27005KT P6SM
                       OVC025 FM091600 VRB05KT P6SM -RA OVC025
                       FM092100 VRB05KT P6SM BKN030=
201709082320 TAF KCLM 082320Z 0900/0924 29006KT P6SM FEW030 BKN080 FM090600
                       28008KT P6SM BKN030 FM091000 27005KT P6SM
                       OVC025 FM091600 VRB05KT P6SM -RA OVC025
                       FM092100 VRB05KT P6SM BKN030=
201709082107 KCLM 082107Z 0821/0918 29005KT P6SM BKN007 FM082300 29006KT P6SM
                       SCT025 BKN070 BKN120 FM090300 28008KT P6SM
                       OVC015=
201709082002 KCLM 082002Z 0820/0918 29005KT P6SM BKN005 FM082100 30006KT P6SM
                       BKN020 BKN120 FM082300 29006KT P6SM SCT025
                       BKN070 BKN120 FM090300 28008KT P6SM OVC015=
201709081720 TAF KCLM 081720Z 0818/0918 29005KT 6SM BR OVC004 FM081900 30006KT
                       P6SM BKN020 BKN120 FM082200 29006KT P6SM
                       SCT025 BKN070 BKN120 FM090300 28008KT P6SM
                       OVC015=
201709081125 TAF KCLM 081125Z 0812/0912 29007KT P6SM OVC005
                      TEMPO 0812/0816 4SM -SHRA OVC001 FM081900
                       30006KT P6SM BKN020 BKN120 FM082200 29006KT
                       P6SM SCT025 BKN070 BKN120 FM090300 28008KT
                       P6SM OVC015=
201709080520 TAF KCLM 080520Z 0806/0906 28009KT P6SM BKN120 BKN200 FM080800
                       29006KT P6SM SCT030 OVC060 FM080900 27005KT
                       P6SM SCT010 OVC025 FM081200 27005KT 5SM
                       BR OVC009 FM081900 30006KT P6SM BKN020 BKN120
                       FM082200 21006KT P6SM SCT025 BKN070 BKN120=
201709072320 TAF KCLM 072320Z 0800/0824 32010KT P6SM SCT120 BKN200 FM080800
                       29006KT P6SM SCT030 OVC060 FM080900 27005KT
                       P6SM SCT010 OVC025 FM081200 27005KT 5SM
                       BR OVC009 FM081900 30006KT P6SM BKN020 BKN120
                       FM082200 21006KT P6SM SCT120=
201709071720 TAF KCLM 071720Z 0718/0818 30006KT P6SM SCT020 BKN250 FM072100
                       32007KT P6SM BKN150 BKN250 FM080600 29006KT
                       P6SM SCT030 OVC060 FM080900 27005KT P6SM
                       SCT010 OVC025 FM081200 27005KT 5SM BR OVC009=
201709071334 KCLM 071334Z 0714/0812 24006KT P6SM SCT010 BKN250 FM071800 31005KT
                       P6SM SCT020 BKN250 FM072000 32005KT P6SM
                       BKN150 BKN250 FM080600 29006KT P6SM SCT030
                       OVC060=
201709071130 TAF KCLM 071130Z 0712/0812 24003KT P6SM SCT010 BKN250
                      TEMPO 0712/0716 BKN010 FM071800 31005KT P6SM
                       SCT020 BKN250 FM072000 32005KT P6SM BKN150
                       BKN250 FM080600 29006KT P6SM SCT030 OVC060=
201709070530 TAF KCLM 070530Z 0706/0806 33003KT P6SM OVC050 FM071100 30005KT
                       P6SM OVC010 FM071800 31005KT P6SM SCT020
                       BKN250 FM072000 32005KT P6SM BKN150 BKN250=
201709062345 TAF KCLM 062345Z 0700/0724 31006KT P6SM OVC050
                      TEMPO 0700/0703 6SM FU FM070300 30007KT P6SM
                       OVC060 FM070600 30006KT P6SM FEW060 SCT150
                       BKN200 FM071100 30005KT 5SM BR OVC012 FM071800
                       31005KT P6SM SCT020 BKN150 BKN200 FM072000
                       32005KT P6SM BKN150 BKN200=
201709061744 TAF KCLM 061744Z 0618/0718 VRB04KT 6SM FU OVC045
                      TEMPO 0618/0620 4SM FU FM062000 VRB04KT P6SM
                       OVC060 FM070000 29005KT P6SM OVC060 FM070300
                       30007KT P6SM SCT060 BKN200 FM071000 30006KT
                       5SM BR OVC009=
201709061540 KCLM 061540Z 0616/0712 VRB04KT 5SM FU OVC045
                      TEMPO 0616/0618 3SM FU OVC035 FM062000 06005KT
                       P6SM SCT050 BKN200 FM070000 29005KT P6SM
                       SCT100 BKN200 FM071000 30004KT 5SM BR OVC009=
201709061125 TAF KCLM 061125Z 0612/0712 04005KT 5SM FU OVC045 FM061800 06004KT
                       P6SM SCT050 BKN250 FM070000 29010KT P6SM
                       SCT120 BKN250 FM070900 30004KT P6SM OVC009=
201709060525 TAF KCLM 060525Z 0606/0706 29004KT P6SM OVC050 FM061600 04005KT
                       P6SM SCT040 BKN250 FM070000 29010KT P6SM
                       SCT120 BKN250=
201709052321 TAF KCLM 052321Z 0600/0624 VRB04KT 5SM HZ SCT050 BKN200 FM061800
                       VRB04KT P6SM BKN200=
201709051732 TAF KCLM 051732Z 0518/0618 VRB04KT P6SM BKN050 FM060300 28006KT
                       P6SM SCT050 BKN200 FM060900 VRB04KT P6SM
                       SCT050 BKN200=
201709051140 TAF KCLM 051140Z 0512/0612 22005KT P6SM OVC060 FM052300 VRB04KT
                       P6SM SCT050 FM060300 28006KT P6SM SKC=
201709050525 TAF KCLM 050525Z 0506/0606 22004KT P6SM SCT060 FM050800 VRB03KT
                       P6SM SCT050 FM051200 09006KT 5SM FU BKN050
                       BKN200 FM052300 VRB04KT P6SM SCT050=
201709042320 TAF KCLM 042320Z 0500/0524 09003KT P6SM SCT050 BKN200 FM050600
                       VRB03KT P6SM SCT050 FM051200 09006KT 5SM
                       FU BKN050 BKN200 FM052300 VRB04KT P6SM SCT050=
201709041720 TAF KCLM 041720Z 0418/0518 10008KT P6SM FEW250 FM050400 VRB03KT
                       P6SM SCT060 FM051200 09006KT 5SM FU BKN050
                       BKN200=
201709041120 TAF KCLM 041120Z 0412/0512 00000KT P6SM FEW250 FM041700 08005KT
                       P6SM SCT060 FM042300 07005KT P6SM BKN060
                       FM050200 29004KT P6SM BKN060=
201709040522 TAF KCLM 040522Z 0406/0506 26004KT P6SM SCT250 FM041700 08005KT
                       P6SM SCT060 FM042300 07005KT P6SM BKN060
                       FM050200 29004KT P6SM BKN060=
201709032320 TAF KCLM 032320Z 0400/0424 VRB04KT P6SM SKC FM040100 29004KT P6SM
                       SKC FM041700 08005KT P6SM SKC=
201709031720 TAF KCLM 031720Z 0318/0418 08005KT P6SM SKC FM040100 29004KT P6SM
                       SKC FM041700 08005KT P6SM SKC=
201709031120 TAF KCLM 031120Z 0312/0412 VRB03KT P6SM SKC FM031700 05005KT P6SM
                       SKC FM040100 29005KT P6SM SKC=
201709030520 TAF KCLM 030520Z 0306/0406 29006KT P6SM FEW003 FM031700 05005KT
                       P6SM SKC FM040100 29005KT P6SM SKC=
201709022320 TAF KCLM 022320Z 0300/0324 VRB05KT P6SM SKC FM030100 30008KT P6SM
                       SKC FM030600 29008KT P6SM VCFG FEW002 FM031700
                       05005KT P6SM SKC=
201709021720 TAF KCLM 021720Z 0218/0318 36004KT P6SM SKC FM030100 30008KT P6SM
                       SKC FM030600 29008KT P6SM VCFG FEW002 FM031700
                       05005KT P6SM SKC=
201709021120 TAF KCLM 021120Z 0212/0312 00000KT P6SM SKC FM021700 35006KT P6SM
                       SKC FM030100 29006KT P6SM SKC FM030600 29006KT
                       P6SM SCT005=
201709020528 TAF KCLM 020528Z 0206/0306 25003KT P6SM SKC FM021700 35006KT P6SM
                       SKC FM030100 29006KT P6SM SKC=
201709012320 TAF KCLM 012320Z 0200/0224 35005KT P6SM SKC FM020100 29005KT P6SM
                       SKC FM021700 35006KT P6SM SKC=
201709011720 TAF KCLM 011720Z 0118/0218 36004KT P6SM SKC FM020100 29005KT P6SM
                       SKC=
201709011120 TAF KCLM 011120Z 0112/0212 29004KT P6SM SCT002
                      TEMPO 0112/0116 3/4SM BR BKN002 FM011800
                       04006KT P6SM SKC FM020100 29005KT P6SM SKC=
201709010520 TAF KCLM 010520Z 0106/0206 28008KT P6SM SKC FM011800 04006KT P6SM
                       SKC FM020100 29005KT P6SM SKC=