##########################################################
# Query made at 02/16/2025 03:18:09 UTC
# Time interval: from 01/01/2017 00:00  to 01/31/2017 23:59  UTC
##########################################################

##########################################################
# KCLM, Port Angeles, William R. Fairchild International Airport (United States)
# WMO index: -----. WIGOS ID: Unknown
# Latitude 48-07-20N. Longitude 123-30-19W. Altitude 87 m.
##########################################################

###################################
#  METAR/SPECI from KCLM
###################################
201701312353 METAR KCLM 312353Z AUTO 06004KT 10SM CLR 04/M07 A3031 RMK AO2 SLP268 T00391067 10056 20033 58001=
201701312253 METAR KCLM 312253Z AUTO 08005KT 10SM CLR 05/M07 A3032 RMK AO2 SLP269 T00501067=
201701312153 METAR KCLM 312153Z AUTO 09004KT 10SM FEW050 05/M06 A3032 RMK AO2 SLP269 T00501061=
201701312053 METAR KCLM 312053Z AUTO 10008KT 10SM CLR 05/M04 A3032 RMK AO2 SLP269 T00501044 50003 $=
201701311953 METAR KCLM 311953Z AUTO 10005KT 10SM CLR 04/M05 A3032 RMK AO2 SLP269 T00441050 $=
201701311853 METAR KCLM 311853Z AUTO 13008KT 10SM FEW033 04/M03 A3032 RMK AO2 SLP270 T00441028 $=
201701311753 METAR KCLM 311753Z AUTO 11005KT 10SM CLR 03/M03 A3031 RMK AO2 SLP267 T00331028 10033 21028 53008 $=
201701311653 METAR KCLM 311653Z AUTO 12003KT 10SM CLR 01/M03 A3029 RMK AO2 SLP262 T00111033 $=
201701311553 METAR KCLM 311553Z AUTO 15008KT 10SM CLR M01/M05 A3029 RMK AO2 SLP259 T10111050 $=
201701311453 METAR KCLM 311453Z AUTO 15003KT 10SM CLR M02/M03 A3028 RMK AO2 SLP258 T10171028 53011 $=
201701311353 METAR KCLM 311353Z AUTO 15006KT 10SM CLR M02/M04 A3026 RMK AO2 SLP251 T10171044 $=
201701311253 METAR KCLM 311253Z AUTO 13005KT 10SM CLR M01/M03 A3025 RMK AO2 SLP247 T10061028 $=
201701311153 METAR KCLM 311153Z AUTO 16006KT 10SM CLR 01/M02 A3025 RMK AO2 SLP247 T00061022 10033 20000 50005 $=
201701311053 METAR KCLM 311053Z AUTO 16006KT 10SM BKN070 01/M01 A3028 RMK AO2 SLP255 T00111006 $=
201701310953 METAR KCLM 310953Z AUTO 12003KT 10SM OVC065 02/01 A3026 RMK AO2 SLP250 T00170006 $=
201701310853 METAR KCLM 310853Z AUTO 14004KT 10SM BKN055 02/01 A3024 RMK AO2 SLP242 T00170011 58008 $=
201701310753 METAR KCLM 310753Z AUTO 18003KT 10SM OVC035 03/02 A3025 RMK AO2 SLP246 T00330017 400611006 $=
201701310653 METAR KCLM 310653Z AUTO 00000KT 10SM BKN034 OVC042 03/03 A3026 RMK AO2 SLP250 T00280028 $=
201701310621 SPECI KCLM 310621Z AUTO 00000KT 10SM OVC030 03/03 A3027 RMK AO2 T00330028 $=
201701310553 METAR KCLM 310553Z AUTO 00000KT 10SM OVC027 03/03 A3026 RMK AO2 SLP251 60000 T00280028 10050 20028 56004 $=
201701310453 METAR KCLM 310453Z AUTO 00000KT 10SM OVC023 03/03 A3026 RMK AO2 SLP251 T00330028 $=
201701310353 METAR KCLM 310353Z AUTO 00000KT 10SM BKN024 BKN032 OVC110 04/02 A3027 RMK AO2 RAB04E13 SLP254 P0000 T00390022 $=
201701310253 METAR KCLM 310253Z AUTO 10003KT 10SM SCT021 BKN028 OVC037 05/01 A3027 RMK AO2 SLP255 T00500011 56013 $=
201701310237 SPECI KCLM 310237Z AUTO VRB03KT 10SM SCT021 OVC036 05/01 A3028 RMK AO2 T00500011 $=
201701310153 METAR KCLM 310153Z AUTO 08003KT 10SM FEW019 BKN024 OVC037 05/01 A3028 RMK AO2 SLP257 T00500011 $=
201701310053 METAR KCLM 310053Z AUTO 08006KT 10SM OVC022 05/02 A3030 RMK AO2 SLP262 T00500017 $=
201701302353 METAR KCLM 302353Z AUTO 09006KT 10SM OVC022 05/02 A3031 RMK AO2 SLP267 T00500017 10061 20028 58024 $=
201701302341 SPECI KCLM 302341Z AUTO 10007KT 10SM BKN022 OVC110 05/02 A3032 RMK AO2 T00500017 $=
201701302253 METAR KCLM 302253Z AUTO 09008KT 10SM FEW021 SCT120 06/01 A3033 RMK AO2 SLP273 T00560011 $=
201701302153 METAR KCLM 302153Z AUTO 12009KT 10SM FEW019 OVC110 06/02 A3037 RMK AO2 SLP286 T00560017 $=
201701302123 SPECI KCLM 302123Z AUTO 10007KT 10SM SCT020 SCT037 BKN110 06/02 A3038 RMK AO2 T00560017 $=
201701302053 METAR KCLM 302053Z AUTO 08007KT 10SM BKN019 OVC036 06/02 A3038 RMK AO2 SLP291 T00560017 55003 $=
201701302046 SPECI KCLM 302046Z AUTO 09008KT 10SM BKN019 OVC036 06/02 A3038 RMK AO2 T00560017 $=
201701301953 METAR KCLM 301953Z AUTO 11009KT 10SM BKN037 06/02 A3038 RMK AO2 SLP291 T00610017 $=
201701301853 METAR KCLM 301853Z AUTO 10005KT 10SM SCT020 SCT035 06/02 A3039 RMK AO2 SLP293 T00560022 $=
201701301753 METAR KCLM 301753Z AUTO 23003KT 10SM BKN034 03/01 A3039 RMK AO2 SLP294 T00280006 10033 21006 58005 $=
201701301736 SPECI KCLM 301736Z AUTO 00000KT 10SM SCT026 OVC034 02/00 A3039 RMK AO2 T00220000 $=
201701301707 SPECI KCLM 301707Z AUTO 23004KT 10SM BKN025 BKN030 OVC036 02/01 A3039 RMK AO2 T00170006 $=
201701301653 METAR KCLM 301653Z AUTO 21003KT 10SM FEW025 BKN036 01/00 A3040 RMK AO2 SLP296 T00110000 $=
201701301553 METAR KCLM 301553Z AUTO 22004KT 10SM CLR M01/M01 A3041 RMK AO2 SLP298 T10061011 $=
201701301453 METAR KCLM 301453Z AUTO 22003KT 10SM CLR 01/M01 A3041 RMK AO2 SLP299 T00061011 56006 $=
201701301353 METAR KCLM 301353Z AUTO 24007KT 10SM FEW021 01/00 A3041 RMK AO2 SLP299 T00110000 $=
201701301253 METAR KCLM 301253Z AUTO 24006KT 10SM CLR 02/01 A3042 RMK AO2 SLP302 T00220006 $=
201701301153 METAR KCLM 301153Z AUTO 25006KT 10SM FEW026 03/02 A3043 RMK AO2 SLP305 70002 T00330017 10067 20033 58004 $=
201701301148 SPECI KCLM 301148Z AUTO 24008KT 10SM SCT026 03/02 A3043 RMK AO2 $=
201701301053 METAR KCLM 301053Z AUTO 26005KT 10SM OVC026 05/03 A3044 RMK AO2 SLP310 T00500028 $=
201701300953 METAR KCLM 300953Z AUTO 26004KT 10SM OVC025 06/04 A3044 RMK AO2 SLP308 T00560039 $=
201701300853 METAR KCLM 300853Z AUTO 27005KT 10SM OVC022 06/04 A3045 RMK AO2 SLP314 T00610044 58001 $=
201701300753 METAR KCLM 300753Z AUTO 30009KT 10SM BKN017 OVC023 06/05 A3046 RMK AO2 SLP317 T00610050 401221006 $=
201701300730 SPECI KCLM 300730Z AUTO 28008KT 10SM OVC015 06/05 A3046 RMK AO2 T00610050 $=
201701300653 METAR KCLM 300653Z AUTO 30008KT 10SM SCT008 OVC013 06/06 A3046 RMK AO2 SLP316 T00610056 $=
201701300553 METAR KCLM 300553Z AUTO 28011G18KT 10SM OVC008 07/06 A3045 RMK AO2 CIG 006V012 SLP315 T00670056 10094 20061 53012 $=
201701300541 SPECI KCLM 300541Z AUTO 27012KT 10SM BKN007 OVC016 07/06 A3045 RMK AO2 CIG 006V010 T00670061 $=
201701300530 SPECI KCLM 300530Z AUTO 30012G16KT 10SM SCT007 BKN017 07/06 A3045 RMK AO2 T00670056 $=
201701300519 SPECI KCLM 300519Z AUTO 30005KT 10SM BKN016 BKN034 07/06 A3045 RMK AO2 T00670056 $=
201701300453 METAR KCLM 300453Z AUTO 30004KT 10SM SCT017 SCT023 06/05 A3045 RMK AO2 SLP313 T00610050 $=
201701300414 SPECI KCLM 300414Z AUTO 26003KT 10SM BKN015 OVC033 08/06 A3043 RMK AO2 T00780056 $=
201701300404 SPECI KCLM 300404Z AUTO 00000KT 10SM OVC014 08/06 A3042 RMK AO2 T00780061 $=
201701300353 METAR KCLM 300353Z AUTO 00000KT 10SM OVC016 08/06 A3042 RMK AO2 SLP303 T00780061 $=
201701300253 METAR KCLM 300253Z AUTO 36003KT 10SM OVC017 08/06 A3042 RMK AO2 SLP303 T00830061 51017 $=
201701300222 SPECI KCLM 300222Z AUTO 03003KT 10SM BKN018 OVC033 08/06 A3041 RMK AO2 T00830061 $=
201701300153 METAR KCLM 300153Z AUTO 00000KT 10SM SCT022 BKN032 08/06 A3041 RMK AO2 SLP299 T00830061 $=
201701300138 SPECI KCLM 300138Z AUTO 00000KT 10SM FEW020 BKN032 08/06 A3040 RMK AO2 T00830061 $=
201701300109 SPECI KCLM 300109Z AUTO 03003KT 10SM BKN024 09/06 A3039 RMK AO2 T00890056 $=
201701300053 METAR KCLM 300053Z AUTO 08005KT 10SM FEW022 08/06 A3038 RMK AO2 SLP290 T00830056 $=
201701292353 METAR KCLM 292353Z AUTO 10005KT 10SM SCT019 09/06 A3037 RMK AO2 SLP285 60002 T00940056 10122 20061 53013 $=
201701292253 METAR KCLM 292253Z AUTO VRB06KT 10SM CLR 10/06 A3033 RMK AO2 SLP272 T01000061 $=
201701292153 METAR KCLM 292153Z AUTO 33006KT 10SM OVC055 12/07 A3030 RMK AO2 SLP264 T01170067 $=
201701292053 METAR KCLM 292053Z AUTO 23007KT 10SM BKN055 OVC070 07/06 A3033 RMK AO2 RAE24 SLP272 P0000 60002 T00720061 50013 $=
201701291953 METAR KCLM 291953Z AUTO 00000KT 9SM -RA OVC065 07/06 A3034 RMK AO2 RAB00 SLP277 P0002 T00720056 $=
201701291853 METAR KCLM 291853Z AUTO 03005KT 10SM FEW041 BKN065 OVC095 08/03 A3031 RMK AO2 PRESRR SLP266 T00780033 $=
201701291753 METAR KCLM 291753Z AUTO 12003KT 9SM CLR 07/04 A3029 RMK AO2 PRESFR SLP259 T00720044 10072 20006 58012 $=
201701291653 METAR KCLM 291653Z AUTO 00000KT 10SM CLR 02/01 A3031 RMK AO2 SLP268 T00170011 $=
201701291553 METAR KCLM 291553Z AUTO 29004KT 10SM CLR 02/01 A3033 RMK AO2 PRESRR SLP273 T00170006 $=
201701291453 METAR KCLM 291453Z AUTO 14003KT 10SM CLR 01/01 A3032 RMK AO2 SLP271 T00110006 56019 $=
201701291353 METAR KCLM 291353Z AUTO 10004KT 10SM CLR 02/01 A3034 RMK AO2 SLP277 T00170011 $=
201701291253 METAR KCLM 291253Z AUTO 15008KT 10SM CLR 01/01 A3032 RMK AO2 SLP271 T00110006 $=
201701291153 METAR KCLM 291153Z AUTO 26005KT 10SM CLR 01/00 A3038 RMK AO2 SLP290 T00060000 10017 21006 56013 $=
201701291053 METAR KCLM 291053Z AUTO 27004KT 10SM CLR 00/00 A3038 RMK AO2 SLP291 T00000000 $=
201701290953 METAR KCLM 290953Z AUTO 23004KT 10SM CLR 01/01 A3041 RMK AO2 SLP300 T00060006 $=
201701290853 METAR KCLM 290853Z AUTO 00000KT 8SM CLR 00/00 A3042 RMK AO2 SLP303 T00000000 58017 $=
201701290753 METAR KCLM 290753Z AUTO 14005KT 9SM CLR 00/00 A3042 RMK AO2 SLP305 T00000000 400721011 $=
201701290653 METAR KCLM 290653Z AUTO 23005KT 10SM CLR 01/01 A3047 RMK AO2 SLP320 T00110011 $=
201701290553 METAR KCLM 290553Z AUTO 23003KT 10SM CLR 01/01 A3047 RMK AO2 SLP321 T00110011 10061 20000 55002 $=
201701290543 SPECI KCLM 290543Z AUTO 24006KT 10SM FEW008 01/01 A3047 RMK AO2 T00110011 $=
201701290453 METAR KCLM 290453Z AUTO 00000KT 8SM CLR 01/01 A3046 RMK AO2 SLP316 T00110006 $=
201701290353 METAR KCLM 290353Z AUTO 00000KT 7SM CLR 01/01 A3047 RMK AO2 SLP320 T00110011 $=
201701290253 METAR KCLM 290253Z AUTO 00000KT 5SM BR CLR 02/02 A3048 RMK AO2 SLP323 T00170017 58007 $=
201701290153 METAR KCLM 290153Z AUTO 22003KT 8SM CLR 03/03 A3049 RMK AO2 SLP327 T00280028 $=
201701290053 METAR KCLM 290053Z AUTO 25003KT 10SM CLR 04/03 A3050 RMK AO2 SLP333 T00440033 $=
201701282353 METAR KCLM 282353Z AUTO 10003KT 10SM CLR 06/04 A3050 RMK AO2 SLP329 T00610039 10072 20033 58015 $=
201701282253 METAR KCLM 282253Z AUTO 09004KT 9SM CLR 06/05 A3051 RMK AO2 SLP334 T00610050 $=
201701282232 SPECI KCLM 282232Z AUTO 11003KT 8SM SCT007 06/05 A3052 RMK AO2 T00610050 $=
201701282203 SPECI KCLM 282203Z AUTO 08003KT 8SM BKN008 06/04 A3052 RMK AO2 T00610044 $=
201701282153 METAR KCLM 282153Z AUTO 00000KT 9SM SCT008 06/04 A3053 RMK AO2 SLP341 T00610044 $=
201701282053 METAR KCLM 282053Z AUTO VRB03KT 9SM CLR 07/05 A3054 RMK AO2 SLP345 T00670050 58010 $=
201701282005 SPECI KCLM 282005Z AUTO 00000KT 10SM SCT008 07/04 A3056 RMK AO2 T00670044 $=
201701281953 METAR KCLM 281953Z AUTO 00000KT 8SM BKN008 07/05 A3057 RMK AO2 SLP353 T00670050 $=
201701281853 METAR KCLM 281853Z AUTO 00000KT 10SM OVC007 06/04 A3057 RMK AO2 SLP355 T00560044 $=
201701281753 METAR KCLM 281753Z AUTO 23005KT 10SM OVC007 03/02 A3057 RMK AO2 SLP356 T00330022 10033 20017 53003 $=
201701281739 SPECI KCLM 281739Z AUTO 23005KT 10SM BKN008 03/03 A3057 RMK AO2 T00330028 $=
201701281653 METAR KCLM 281653Z AUTO 00000KT 6SM BR FEW009 03/03 A3055 RMK AO2 SLP349 T00330033 $=
201701281553 METAR KCLM 281553Z AUTO 19003KT 10SM OVC009 02/02 A3054 RMK AO2 SLP346 T00220022 $=
201701281453 METAR KCLM 281453Z AUTO 24004KT 10SM OVC009 03/03 A3056 RMK AO2 SLP352 T00280028 58008 $=
201701281353 METAR KCLM 281353Z AUTO 00000KT 10SM OVC009 03/02 A3057 RMK AO2 SLP354 T00280022 $=
201701281253 METAR KCLM 281253Z AUTO 00000KT 10SM OVC009 02/02 A3058 RMK AO2 SLP359 T00220017 $=
201701281153 METAR KCLM 281153Z AUTO 23005KT 10SM BKN007 02/01 A3059 RMK AO2 SLP359 I6001 T00170011 10022 21011 50001 $=
201701281149 SPECI KCLM 281149Z AUTO 22005KT 10SM SCT007 02/01 A3059 RMK AO2 $=
201701281053 METAR KCLM 281053Z AUTO 23006KT 8SM CLR 02/01 A3059 RMK AO2 SLP361 I1000 T00170011 $=
201701280953 METAR KCLM 280953Z AUTO 24006KT 6SM BR CLR M01/M01 A3058 RMK AO2 SLP359 I1001 T10061006 $=
201701280853 METAR KCLM 280853Z AUTO 00000KT 7SM CLR 00/00 A3057 RMK AO2 SLP356 T00000000 58006=
201701280753 METAR KCLM 280753Z AUTO 00000KT 8SM CLR 01/01 A3059 RMK AO2 SLP361 T00060006 400671011=
201701280653 METAR KCLM 280653Z AUTO 21003KT 7SM CLR 01/01 A3058 RMK AO2 SLP357 T00060006=
201701280553 METAR KCLM 280553Z AUTO 22004KT 8SM CLR 01/01 A3059 RMK AO2 SLP362 T00110011 10061 20011 51001=
201701280453 METAR KCLM 280453Z AUTO 23005KT 10SM CLR 03/03 A3059 RMK AO2 SLP361 T00330028=
201701280353 METAR KCLM 280353Z AUTO 18004KT 10SM CLR 04/04 A3059 RMK AO2 SLP363 T00440039=
201701280253 METAR KCLM 280253Z AUTO 00000KT 10SM CLR 05/04 A3059 RMK AO2 SLP360 T00500039 58008=
201701280153 METAR KCLM 280153Z AUTO 12005KT 10SM CLR 04/04 A3059 RMK AO2 SLP363 T00440039=
201701280053 METAR KCLM 280053Z AUTO 12004KT 10SM FEW012 06/04 A3061 RMK AO2 SLP368 T00560039=
201701272353 METAR KCLM 272353Z AUTO 00000KT 10SM FEW010 06/04 A3061 RMK AO2 SLP367 T00610039 10067 20039 55001=
201701272253 METAR KCLM 272253Z AUTO 00000KT 10SM SCT012 06/04 A3060 RMK AO2 SLP366 T00610044=
201701272245 SPECI KCLM 272245Z AUTO 00000KT 10SM SCT013 07/04 A3060 RMK AO2 T00670044=
201701272153 METAR KCLM 272153Z AUTO 33004KT 10SM BKN013 07/04 A3061 RMK AO2 SLP369 T00670044=
201701272151 SPECI KCLM 272151Z AUTO 00000KT 10SM BKN013 06/04 A3061 RMK AO2=
201701272134 SPECI KCLM 272134Z AUTO VRB03KT 10SM FEW014 06/04 A3061 RMK AO2 T00610039=
201701272053 METAR KCLM 272053Z AUTO 35005KT 10SM OVC014 06/04 A3062 RMK AO2 SLP372 T00610044 56009=
201701272051 SPECI KCLM 272051Z AUTO 33004KT 10SM OVC014 07/04 A3062 RMK AO2=
201701272016 SPECI KCLM 272016Z AUTO 31004KT 10SM OVC015 06/04 A3062 RMK AO2 T00610039=
201701271953 METAR KCLM 271953Z AUTO 34003KT 10SM OVC014 06/04 A3063 RMK AO2 SLP373 T00610039=
201701271931 SPECI KCLM 271931Z AUTO 35003KT 10SM OVC013 06/04 A3064 RMK AO2 T00610039=
201701271923 SPECI KCLM 271923Z AUTO 00000KT 10SM OVC015 06/04 A3064 RMK AO2 T00610039=
201701271911 SPECI KCLM 271911Z AUTO 00000KT 10SM OVC014 07/04 A3064 RMK AO2 T00670044=
201701271853 METAR KCLM 271853Z AUTO 00000KT 10SM OVC016 06/04 A3065 RMK AO2 SLP381 T00560044=
201701271801 SPECI KCLM 271801Z AUTO 15003KT 10SM OVC016 04/03 A3065 RMK AO2 T00390028=
201701271753 METAR KCLM 271753Z AUTO 00000KT 10SM OVC014 04/03 A3065 RMK AO2 SLP381 T00390028 10039 21011 53014=
201701271725 SPECI KCLM 271725Z AUTO 24004KT 10SM BKN014 03/02 A3064 RMK AO2 T00280022=
201701271653 METAR KCLM 271653Z AUTO 23004KT 8SM CLR 00/00 A3063 RMK AO2 SLP375 T00000000=
201701271553 METAR KCLM 271553Z AUTO 00000KT 4SM BR FEW012 M01/M01 A3061 RMK AO2 SLP368 T10061006=
201701271550 SPECI KCLM 271550Z AUTO 00000KT 4SM BR FEW012 00/00 A3061 RMK AO2=
201701271522 SPECI KCLM 271522Z AUTO 20004KT 8SM BKN013 BKN110 00/00 A3060 RMK AO2 T00000000=
201701271453 METAR KCLM 271453Z AUTO 00000KT 7SM FEW110 00/00 A3060 RMK AO2 SLP366 T00000000 55001=
201701271353 METAR KCLM 271353Z AUTO 26004KT 8SM CLR 00/M01 A3059 RMK AO2 SLP361 T00001006=
201701271253 METAR KCLM 271253Z AUTO 00000KT 10SM OVC110 00/00 A3058 RMK AO2 SLP360 T00000000=
201701271153 METAR KCLM 271153Z AUTO 22003KT 10SM FEW120 02/01 A3061 RMK AO2 SLP366 T00220011 10033 20000 51015=
201701271134 SPECI KCLM 271134Z AUTO 26005KT 10SM FEW013 SCT120 02/01 A3061 RMK AO2 T00220011=
201701271123 SPECI KCLM 271123Z AUTO 25005KT 10SM SCT009 BKN014 BKN120 03/01 A3060 RMK AO2 T00280011=
201701271053 METAR KCLM 271053Z AUTO 25005KT 10SM BKN008 OVC016 03/02 A3060 RMK AO2 CIG 007V012 SLP363 T00280022=
201701270953 METAR KCLM 270953Z AUTO 25005KT 10SM BKN008 OVC013 03/02 A3058 RMK AO2 SLP357 T00280022=
201701270853 METAR KCLM 270853Z AUTO 22003KT 8SM BKN009 BKN013 00/00 A3056 RMK AO2 CIG 006V012 SLP351 T00000000 58001=
201701270846 SPECI KCLM 270846Z AUTO 22004KT 9SM SCT009 BKN013 01/01 A3056 RMK AO2 T00110006=
201701270753 METAR KCLM 270753Z AUTO 00000KT 8SM CLR 01/01 A3057 RMK AO2 SLP353 T00110006 400721006=
201701270653 METAR KCLM 270653Z AUTO 23004KT 10SM CLR 02/02 A3057 RMK AO2 SLP353 T00220017=
201701270553 METAR KCLM 270553Z AUTO 24006KT 10SM CLR 03/03 A3056 RMK AO2 SLP352 T00330028 10061 20028 53007=
201701270453 METAR KCLM 270453Z AUTO 25004KT 8SM FEW012 04/04 A3056 RMK AO2 SLP350 T00440039=
201701270353 METAR KCLM 270353Z AUTO 00000KT 8SM FEW009 OVC013 06/05 A3055 RMK AO2 SLP347 T00560050=
201701270342 SPECI KCLM 270342Z AUTO 00000KT 9SM SCT009 OVC012 06/04 A3055 RMK AO2 T00560044=
201701270253 METAR KCLM 270253Z AUTO 10003KT 5SM BR OVC011 05/04 A3054 RMK AO2 SLP345 T00500044 50001=
201701270153 METAR KCLM 270153Z AUTO 00000KT 8SM BKN010 04/04 A3055 RMK AO2 SLP349 T00440039=
201701270146 SPECI KCLM 270146Z AUTO 00000KT 8SM BKN010 04/04 A3055 RMK AO2 T00440044=
201701270053 METAR KCLM 270053Z AUTO 00000KT 10SM FEW010 SCT055 06/04 A3054 RMK AO2 SLP344 T00560044=
201701270048 SPECI KCLM 270048Z AUTO 09003KT 10SM FEW010 SCT017 SCT055 06/04 A3054 RMK AO2=
201701270034 SPECI KCLM 270034Z AUTO 08003KT 10SM SCT009 BKN016 06/04 A3054 RMK AO2 T00610044=
201701270010 SPECI KCLM 270010Z AUTO 10004KT 10SM OVC015 07/04 A3054 RMK AO2 T00670044=
201701262353 METAR KCLM 262353Z AUTO 10004KT 10SM OVC014 07/05 A3054 RMK AO2 SLP343 T00670050 10072 20056 53012=
201701262253 METAR KCLM 262253Z AUTO 10006KT 10SM BKN012 OVC016 07/04 A3052 RMK AO2 SLP339 T00670044=
201701262153 METAR KCLM 262153Z AUTO VRB04KT 10SM BKN012 07/04 A3050 RMK AO2 SLP331 T00670044=
201701262053 METAR KCLM 262053Z AUTO 09007KT 10SM CLR 07/04 A3050 RMK AO2 SLP331 T00720044 58001=
201701262017 SPECI KCLM 262017Z AUTO 08006KT 10SM SCT016 07/04 A3051 RMK AO2 T00720039=
201701261953 METAR KCLM 261953Z AUTO 08006KT 10SM OVC016 07/04 A3053 RMK AO2 SLP339 T00670039=
201701261902 SPECI KCLM 261902Z AUTO 08005KT 10SM BKN015 BKN042 07/03 A3052 RMK AO2 T00670033=
201701261853 METAR KCLM 261853Z AUTO 08006KT 10SM SCT015 07/04 A3052 RMK AO2 SLP336 T00720039=
201701261753 METAR KCLM 261753Z AUTO 00000KT 10SM OVC044 06/03 A3050 RMK AO2 SLP331 T00560033 10056 21006 53016=
201701261701 SPECI KCLM 261701Z AUTO 14004KT 10SM SCT014 05/03 A3047 RMK AO2 T00500033=
201701261653 METAR KCLM 261653Z AUTO 00000KT 10SM BKN014 BKN042 05/04 A3047 RMK AO2 SLP319 T00500039=
201701261553 METAR KCLM 261553Z AUTO 00000KT 9SM OVC014 02/02 A3046 RMK AO2 SLP319 T00220022=
201701261453 METAR KCLM 261453Z AUTO 22003KT 10SM BKN010 OVC016 02/02 A3046 RMK AO2 SLP316 T00220017 51019=
201701261407 SPECI KCLM 261407Z AUTO 24006KT 10SM BKN009 02/02 A3044 RMK AO2 T00170017=
201701261353 METAR KCLM 261353Z AUTO 23004KT 7SM SCT009 00/00 A3042 RMK AO2 SLP306 T00000000=
201701261344 SPECI KCLM 261344Z AUTO 20003KT 7SM FEW009 M01/M01 A3042 RMK AO2 T10061006=
201701261253 METAR KCLM 261253Z AUTO 00000KT 6SM BR CLR 02/02 A3040 RMK AO2 SLP296 T00170017=
201701261153 METAR KCLM 261153Z AUTO 15003KT 10SM FEW015 OVC075 03/03 A3040 RMK AO2 SLP296 70002 T00330033 10044 20028 55001=
201701261148 SPECI KCLM 261148Z AUTO 13004KT 10SM SCT014 OVC075 03/03 A3040 RMK AO2=
201701261107 SPECI KCLM 261107Z AUTO 00000KT 10SM OVC014 04/04 A3040 RMK AO2 T00390039=
201701261053 METAR KCLM 261053Z AUTO 23003KT 10SM BKN009 OVC014 04/04 A3040 RMK AO2 CIG 008V013 SLP297 T00440039=
201701261048 SPECI KCLM 261048Z AUTO 23004KT 10SM BKN009 OVC014 04/04 A3040 RMK AO2 CIG 008V013=
201701261031 SPECI KCLM 261031Z AUTO 23003KT 10SM OVC010 04/04 A3040 RMK AO2 CIG 008V015 T00440039=
201701261016 SPECI KCLM 261016Z AUTO 22004KT 10SM BKN008 OVC013 04/04 A3039 RMK AO2 T00390039=
201701260959 SPECI KCLM 260959Z AUTO 24004KT 10SM SCT009 BKN013 OVC034 04/04 A3039 RMK AO2 T00390039=
201701260953 METAR KCLM 260953Z AUTO 23004KT 10SM FEW009 SCT016 OVC034 04/04 A3038 RMK AO2 SLP291 T00390039=
201701260909 SPECI KCLM 260909Z AUTO 00000KT 10SM SCT019 OVC031 04/04 A3037 RMK AO2 T00390039=
201701260853 METAR KCLM 260853Z AUTO 00000KT 10SM OVC018 04/04 A3036 RMK AO2 SLP284 T00390039 53005=
201701260811 SPECI KCLM 260811Z AUTO 00000KT 10SM BKN016 OVC085 04/03 A3036 RMK AO2 T00390033=
201701260802 SPECI KCLM 260802Z AUTO 00000KT 10SM SCT016 OVC085 04/04 A3035 RMK AO2 T00390039=
201701260753 METAR KCLM 260753Z AUTO 00000KT 8SM BKN015 OVC085 04/04 A3035 RMK AO2 SLP280 T00390039 400720022=
201701260748 SPECI KCLM 260748Z AUTO 00000KT 8SM BKN015 OVC085 04/04 A3035 RMK AO2=
201701260732 SPECI KCLM 260732Z AUTO 15003KT 9SM OVC014 04/03 A3035 RMK AO2 T00390033=
201701260653 METAR KCLM 260653Z AUTO 00000KT 9SM OVC017 04/04 A3035 RMK AO2 SLP279 T00390039=
201701260610 SPECI KCLM 260610Z AUTO 00000KT 9SM OVC015 04/03 A3034 RMK AO2 T00390033=
201701260553 METAR KCLM 260553Z AUTO 00000KT 9SM BKN014 OVC028 03/03 A3033 RMK AO2 SLP273 T00330033 10061 20028 51011=
201701260551 SPECI KCLM 260551Z AUTO 00000KT 9SM BKN014 OVC028 03/03 A3033 RMK AO2=
201701260528 SPECI KCLM 260528Z AUTO 00000KT 9SM BKN028 OVC039 03/03 A3032 RMK AO2 T00330033=
201701260453 METAR KCLM 260453Z AUTO 00000KT 8SM OVC090 03/03 A3031 RMK AO2 SLP266 T00330033=
201701260353 METAR KCLM 260353Z AUTO 00000KT 7SM OVC095 03/03 A3030 RMK AO2 SLP263 T00280028=
201701260253 METAR KCLM 260253Z AUTO 00000KT 10SM OVC037 04/03 A3030 RMK AO2 SLP264 T00390033 53009=
201701260153 METAR KCLM 260153Z AUTO 00000KT 10SM CLR 04/03 A3029 RMK AO2 SLP260 T00390033=
201701260053 METAR KCLM 260053Z AUTO 00000KT 10SM FEW039 BKN055 06/04 A3028 RMK AO2 SLP257 T00560039=
201701260021 SPECI KCLM 260021Z AUTO 00000KT 10SM FEW011 BKN040 OVC049 06/04 A3028 RMK AO2 T00610039=
201701252353 METAR KCLM 252353Z AUTO 08003KT 10SM BKN011 BKN040 BKN110 06/04 A3028 RMK AO2 SLP254 T00610039 10072 20044 53006=
201701252302 SPECI KCLM 252302Z AUTO 08003KT 10SM BKN012 OVC026 06/04 A3027 RMK AO2 T00610044=
201701252253 METAR KCLM 252253Z AUTO 11004KT 10SM SCT010 OVC027 06/04 A3027 RMK AO2 SLP251 T00610044=
201701252212 SPECI KCLM 252212Z AUTO 00000KT 10SM FEW008 OVC029 06/04 A3026 RMK AO2 T00610044=
201701252201 SPECI KCLM 252201Z AUTO VRB03KT 10SM BKN029 OVC070 06/04 A3026 RMK AO2 T00610044=
201701252153 METAR KCLM 252153Z AUTO 35003KT 10SM SCT029 BKN070 OVC090 06/04 A3026 RMK AO2 SLP249 T00610039=
201701252053 METAR KCLM 252053Z AUTO 36004KT 10SM FEW031 FEW070 BKN090 06/04 A3026 RMK AO2 SLP248 T00610044 51003=
201701251953 METAR KCLM 251953Z AUTO 00000KT 10SM BKN085 06/04 A3025 RMK AO2 SLP247 T00610044=
201701251853 METAR KCLM 251853Z AUTO 00000KT 10SM OVC050 06/04 A3026 RMK AO2 SLP248 T00560039=
201701251753 METAR KCLM 251753Z AUTO 23004KT 10SM SCT007 OVC038 04/03 A3025 RMK AO2 SLP244 60002 T00440028 10044 20022 53009=
201701251741 SPECI KCLM 251741Z AUTO 23003KT 10SM BKN007 OVC038 04/03 A3024 RMK AO2 T00440033=
201701251730 SPECI KCLM 251730Z AUTO 26003KT 10SM SCT007 OVC040 04/03 A3024 RMK AO2 T00440033=
201701251653 METAR KCLM 251653Z AUTO 24003KT 10SM OVC039 04/03 A3023 RMK AO2 RAE45 SLP240 P0002 T00390028=
201701251553 METAR KCLM 251553Z AUTO 23006KT 10SM -RA FEW037 OVC049 03/02 A3023 RMK AO2 RAB21 SLP237 P0000 T00330022=
201701251453 METAR KCLM 251453Z AUTO 24003KT 10SM BKN055 OVC070 03/02 A3022 RMK AO2 SLP235 T00330022 53005=
201701251353 METAR KCLM 251353Z AUTO 26003KT 10SM OVC048 03/02 A3021 RMK AO2 SLP231 T00280022=
201701251312 SPECI KCLM 251312Z AUTO 00000KT 10SM SCT009 OVC049 03/03 A3021 RMK AO2 T00280028=
201701251253 METAR KCLM 251253Z AUTO 22004KT 10SM BKN009 OVC050 03/02 A3021 RMK AO2 SLP230 T00280022=
201701251245 SPECI KCLM 251245Z AUTO 00000KT 10SM BKN009 OVC050 03/02 A3021 RMK AO2 T00280022=
201701251236 SPECI KCLM 251236Z AUTO 00000KT 10SM SCT008 OVC050 03/02 A3020 RMK AO2 T00280022=
201701251153 METAR KCLM 251153Z AUTO 00000KT 10SM OVC050 02/02 A3020 RMK AO2 SLP230 T00220022 10033 20022 50005=
201701251053 METAR KCLM 251053Z AUTO 22003KT 10SM BKN039 OVC047 03/02 A3021 RMK AO2 SLP232 T00330022=
201701250953 METAR KCLM 250953Z AUTO 00000KT 10SM FEW035 BKN046 03/03 A3020 RMK AO2 SLP229 T00280028=
201701250853 METAR KCLM 250853Z AUTO 00000KT 10SM FEW034 SCT044 02/02 A3019 RMK AO2 SLP225 T00220022 53002=
201701250753 METAR KCLM 250753Z AUTO 00000KT 9SM BKN035 03/02 A3018 RMK AO2 SLP223 T00280022 400611017=
201701250653 METAR KCLM 250653Z AUTO 00000KT 8SM BKN032 03/03 A3019 RMK AO2 SLP224 T00280028=
201701250553 METAR KCLM 250553Z AUTO 00000KT 9SM BKN032 OVC048 03/03 A3018 RMK AO2 SLP224 T00330033 10056 20033 51005=
201701250453 METAR KCLM 250453Z AUTO 00000KT 9SM OVC034 04/03 A3018 RMK AO2 SLP222 T00390033=
201701250353 METAR KCLM 250353Z AUTO 00000KT 7SM BKN035 OVC047 04/03 A3018 RMK AO2 SLP221 T00390033=
201701250253 METAR KCLM 250253Z AUTO 00000KT 9SM OVC034 04/04 A3017 RMK AO2 SLP219 T00440039 51008=
201701250153 METAR KCLM 250153Z AUTO 11004KT 9SM FEW010 OVC035 05/04 A3016 RMK AO2 SLP216 T00500039=
201701250142 SPECI KCLM 250142Z AUTO 11003KT 9SM FEW010 OVC035 05/04 A3016 RMK AO2 T00500039=
201701250101 SPECI KCLM 250101Z AUTO 11003KT 9SM OVC010 06/04 A3016 RMK AO2 T00560039=
201701250053 METAR KCLM 250053Z AUTO 11003KT 10SM OVC009 06/04 A3016 RMK AO2 SLP215 T00560039=
201701250037 SPECI KCLM 250037Z AUTO 08004KT 10SM BKN009 OVC031 06/04 A3016 RMK AO2 T00560039=
201701250025 SPECI KCLM 250025Z AUTO 11004KT 10SM SCT009 OVC031 06/04 A3016 RMK AO2 T00560039=
201701242353 METAR KCLM 242353Z AUTO 10005KT 10SM OVC031 06/03 A3014 RMK AO2 SLP209 T00560033 10061 20039 53005=
201701242253 METAR KCLM 242253Z AUTO 00000KT 10SM FEW033 OVC100 06/03 A3014 RMK AO2 SLP207 T00610033=
201701242153 METAR KCLM 242153Z AUTO 08004KT 10SM BKN031 BKN110 06/03 A3013 RMK AO2 SLP206 T00560033=
201701242053 METAR KCLM 242053Z AUTO 10003KT 10SM SCT013 OVC110 06/03 A3013 RMK AO2 SLP205 T00610033 50005=
201701242039 SPECI KCLM 242039Z AUTO 10005KT 10SM FEW013 SCT029 OVC110 06/03 A3013 RMK AO2 T00610033=
201701242017 SPECI KCLM 242017Z AUTO 11003KT 10SM SCT013 BKN029 OVC110 06/03 A3014 RMK AO2 T00560033=
201701241953 METAR KCLM 241953Z AUTO 10004KT 10SM FEW013 SCT029 OVC110 06/03 A3014 RMK AO2 SLP207 T00560028=
201701241853 METAR KCLM 241853Z AUTO 09005KT 10SM SCT013 SCT030 BKN120 06/03 A3013 RMK AO2 SLP206 T00560033=
201701241806 SPECI KCLM 241806Z AUTO 00000KT 10SM FEW021 SCT027 04/01 A3012 RMK AO2 T00440011=
201701241753 METAR KCLM 241753Z AUTO 24003KT 10SM BKN027 03/01 A3012 RMK AO2 SLP200 T00330011 10033 21011 53014=
201701241708 SPECI KCLM 241708Z AUTO 23005KT 10SM SCT010 OVC019 02/M01 A3011 RMK AO2 T00171006=
201701241653 METAR KCLM 241653Z AUTO 22003KT 10SM SCT010 BKN014 OVC021 01/00 A3010 RMK AO2 SLP195 T00110000=
201701241626 SPECI KCLM 241626Z AUTO 23004KT 10SM BKN014 OVC029 01/M01 A3009 RMK AO2 T00061006=
201701241553 METAR KCLM 241553Z AUTO 22004KT 10SM OVC029 00/M01 A3008 RMK AO2 SLP190 T00001006=
201701241528 SPECI KCLM 241528Z AUTO 00000KT 10SM BKN029 01/00 A3008 RMK AO2 T00110000=
201701241453 METAR KCLM 241453Z AUTO 24006KT 10SM FEW023 02/M01 A3007 RMK AO2 SLP187 T00171011 51009=
201701241353 METAR KCLM 241353Z AUTO 22005KT 10SM FEW018 02/M01 A3006 RMK AO2 SLP183 T00171011=
201701241253 METAR KCLM 241253Z AUTO 25007KT 10SM CLR 02/M01 A3006 RMK AO2 SLP180 T00221011=
201701241153 METAR KCLM 241153Z AUTO 25008KT 10SM FEW018 03/M01 A3005 RMK AO2 SLP176 T00281011 10039 21017 52013=
201701241053 METAR KCLM 241053Z AUTO 26010G20KT 10SM FEW016 03/M01 A3004 RMK AO2 SLP174 T00331006=
201701240953 METAR KCLM 240953Z AUTO 11004KT 10SM CLR 01/M01 A3001 RMK AO2 SLP165 T00061011=
201701240853 METAR KCLM 240853Z AUTO 24009KT 10SM CLR 03/00 A3001 RMK AO2 SLP164 T00280000 50009=
201701240753 METAR KCLM 240753Z AUTO 25010KT 10SM CLR 03/00 A3002 RMK AO2 SLP167 T00330000 400830017=
201701240653 METAR KCLM 240653Z AUTO 26011KT 10SM CLR 03/01 A2999 RMK AO2 SLP159 T00280006=
201701240553 METAR KCLM 240553Z AUTO 28009KT 10SM CLR 04/01 A2998 RMK AO2 SLP154 T00390006 10083 20017 53011=
201701240453 METAR KCLM 240453Z AUTO 24006KT 10SM CLR 03/01 A2996 RMK AO2 SLP147 T00280006=
201701240353 METAR KCLM 240353Z AUTO 26007KT 10SM CLR 03/01 A2995 RMK AO2 SLP144 T00280011=
201701240253 METAR KCLM 240253Z AUTO 26005KT 10SM CLR 03/01 A2995 RMK AO2 SLP143 T00330011 51016=
201701240153 METAR KCLM 240153Z AUTO 00000KT 10SM CLR 02/00 A2993 RMK AO2 SLP138 T00170000=
201701240053 METAR KCLM 240053Z AUTO 23006KT 10SM CLR 05/01 A2992 RMK AO2 SLP134 T00500011=
201701232353 METAR KCLM 232353Z AUTO 17004KT 10SM CLR 08/02 A2990 RMK AO2 SLP128 T00830017 10083 20050 51014=
201701232253 METAR KCLM 232253Z AUTO 17004KT 10SM CLR 08/03 A2989 RMK AO2 SLP123 T00780033=
201701232153 METAR KCLM 232153Z AUTO VRB04KT 10SM CLR 08/04 A2988 RMK AO2 SLP118 T00780039=
201701232053 METAR KCLM 232053Z AUTO 13005KT 10SM CLR 07/04 A2986 RMK AO2 SLP113 T00720044 53003=
201701232030 SPECI KCLM 232030Z AUTO 09005KT 10SM SCT013 06/04 A2986 RMK AO2 T00610039=
201701232019 SPECI KCLM 232019Z AUTO VRB05KT 10SM BKN013 07/04 A2986 RMK AO2 T00670039=
201701231953 METAR KCLM 231953Z AUTO 09003KT 10SM FEW014 SCT026 07/04 A2985 RMK AO2 SLP111 T00720044=
201701231944 SPECI KCLM 231944Z AUTO 09004KT 10SM FEW012 BKN027 07/05 A2985 RMK AO2 T00670050=
201701231853 METAR KCLM 231853Z AUTO 00000KT 10SM BKN013 OVC029 06/04 A2985 RMK AO2 SLP111 T00610044=
201701231851 SPECI KCLM 231851Z AUTO 00000KT 10SM BKN013 OVC029 06/04 A2985 RMK AO2=
201701231841 SPECI KCLM 231841Z AUTO 00000KT 10SM SCT011 OVC029 06/05 A2985 RMK AO2 T00610050=
201701231833 SPECI KCLM 231833Z AUTO 00000KT 10SM FEW013 SCT023 OVC030 06/05 A2985 RMK AO2 T00610050=
201701231819 SPECI KCLM 231819Z AUTO 00000KT 10SM SCT013 BKN023 OVC030 06/04 A2984 RMK AO2 T00560044=
201701231809 SPECI KCLM 231809Z AUTO 00000KT 10SM BKN013 BKN021 OVC030 06/04 A2984 RMK AO2 T00560044=
201701231753 METAR KCLM 231753Z AUTO 00000KT 10SM FEW013 SCT021 OVC029 05/04 A2983 RMK AO2 SLP105 T00500044 10056 20039 51027=
201701231704 SPECI KCLM 231704Z AUTO 14004KT 10SM OVC016 05/04 A2981 RMK AO2 T00500039=
201701231653 METAR KCLM 231653Z AUTO 00000KT 10SM OVC014 05/04 A2981 RMK AO2 SLP096 T00500039=
201701231553 METAR KCLM 231553Z AUTO VRB04KT 10SM SCT008 OVC013 06/04 A2978 RMK AO2 SLP087 T00560039=
201701231523 SPECI KCLM 231523Z AUTO VRB04KT 10SM FEW009 OVC013 06/04 A2976 RMK AO2 T00560039=
201701231453 METAR KCLM 231453Z AUTO VRB04KT 10SM FEW009 BKN015 OVC024 06/04 A2975 RMK AO2 SLP077 T00560039 53026 $=
201701231404 SPECI KCLM 231404Z AUTO 05005KT 10SM SCT009 OVC017 06/04 A2973 RMK AO2 T00560039 $=
201701231353 METAR KCLM 231353Z AUTO 07005KT 10SM BKN012 OVC017 06/04 A2972 RMK AO2 SLP067 T00560039 $=
201701231333 SPECI KCLM 231333Z AUTO VRB03KT 10SM OVC013 06/04 A2971 RMK AO2 T00560044 $=
201701231318 SPECI KCLM 231318Z AUTO VRB04KT 10SM OVC015 06/04 A2970 RMK AO2 T00560044 $=
201701231253 METAR KCLM 231253Z AUTO 00000KT 10SM OVC011 06/04 A2970 RMK AO2 SLP057 T00560039 $=
201701231202 SPECI KCLM 231202Z AUTO VRB03KT 10SM OVC012 05/04 A2968 RMK AO2 T00500039 $=
201701231153 METAR KCLM 231153Z AUTO 00000KT 10SM BKN009 OVC014 05/04 A2967 RMK AO2 CIG 008V013 SLP050 T00500039 10050 20017 51022 $=
201701231114 SPECI KCLM 231114Z AUTO 24004KT 10SM BKN009 OVC013 04/03 A2967 RMK AO2 CIG 008V012 T00440033 $=
201701231108 SPECI KCLM 231108Z AUTO 00000KT 10SM OVC011 04/03 A2966 RMK AO2 T00440033 $=
201701231053 METAR KCLM 231053Z AUTO 25004KT 10SM OVC009 04/03 A2966 RMK AO2 SLP045 T00440033 $=
201701231032 SPECI KCLM 231032Z AUTO VRB03KT 10SM BKN009 BKN013 OVC021 04/03 A2965 RMK AO2 T00440033 $=
201701231024 SPECI KCLM 231024Z AUTO 23005KT 10SM BKN011 OVC020 04/03 A2965 RMK AO2 T00440033 $=
201701231002 SPECI KCLM 231002Z AUTO 25007KT 10SM SCT016 BKN021 OVC085 04/03 A2963 RMK AO2 T00390028 $=
201701230955 SPECI KCLM 230955Z AUTO 21007KT 10SM SCT014 OVC085 03/02 A2963 RMK AO2 T00330022 $=
201701230953 METAR KCLM 230953Z AUTO 22007KT 10SM BKN014 OVC085 04/02 A2963 RMK AO2 SLP035 T00390022 $=
201701230925 SPECI KCLM 230925Z AUTO 21004KT 10SM BKN014 OVC090 04/02 A2962 RMK AO2 T00390022 $=
201701230853 METAR KCLM 230853Z AUTO 25010KT 10SM OVC095 04/02 A2961 RMK AO2 SLP027 T00390017 51011 $=
201701230753 METAR KCLM 230753Z AUTO 25006KT 10SM CLR 04/02 A2960 RMK AO2 SLP025 T00390017 400721006 $=
201701230653 METAR KCLM 230653Z AUTO 25005KT 10SM CLR 02/02 A2959 RMK AO2 SLP020 T00220017 $=
201701230553 METAR KCLM 230553Z AUTO 25006KT 10SM FEW080 02/01 A2957 RMK AO2 SLP017 T00170011 10067 20006 53012 $=
201701230453 METAR KCLM 230453Z AUTO 26006KT 10SM FEW013 OVC080 03/02 A2955 RMK AO2 SLP010 T00280022 $=
201701230353 METAR KCLM 230353Z AUTO 21003KT 10SM FEW080 01/01 A2955 RMK AO2 SLP007 T00110011 $=
201701230305 SPECI KCLM 230305Z AUTO 28004KT 10SM FEW008 FEW013 BKN080 03/03 A2954 RMK AO2 T00330028 $=
201701230253 METAR KCLM 230253Z AUTO 26007KT 10SM BKN080 03/03 A2954 RMK AO2 SLP004 T00280028 53003 $=
201701230153 METAR KCLM 230153Z AUTO 00000KT 10SM CLR 03/03 A2953 RMK AO2 SLP002 T00330028 $=
201701230053 METAR KCLM 230053Z AUTO 00000KT 10SM FEW080 04/04 A2953 RMK AO2 SLP002 T00440039 $=
201701222353 METAR KCLM 222353Z AUTO 18003KT 10SM FEW013 FEW075 06/05 A2953 RMK AO2 SLP002 60000 T00610050 10072 20050 53018 $=
201701222253 METAR KCLM 222253Z AUTO 00000KT 10SM FEW009 07/05 A2951 RMK AO2 SLP995 T00670050 $=
201701222153 METAR KCLM 222153Z AUTO 01003KT 10SM CLR 07/04 A2949 RMK AO2 SLP989 T00670044 $=
201701222053 METAR KCLM 222053Z AUTO 26006KT 10SM BKN080 OVC090 07/04 A2948 RMK AO2 SLP984 60000 T00670039 51017 $=
201701221953 METAR KCLM 221953Z AUTO 24004KT 10SM FEW040 SCT060 BKN090 07/04 A2946 RMK AO2 RAB43E52 SLP980 P0000 T00670039 $=
201701221853 METAR KCLM 221853Z AUTO 24006KT 10SM BKN080 07/03 A2945 RMK AO2 SLP973 T00670033 $=
201701221753 METAR KCLM 221753Z AUTO 24012KT 10SM BKN060 OVC075 05/03 A2943 RMK AO2 SLP966 T00500028 10061 21006 53016 $=
201701221653 METAR KCLM 221653Z AUTO 24006KT 10SM BKN095 BKN110 03/02 A2939 RMK AO2 SLP956 T00280017 $=
201701221553 METAR KCLM 221553Z AUTO 08005KT 10SM CLR 06/04 A2938 RMK AO2 SLP951 T00610039 $=
201701221453 METAR KCLM 221453Z AUTO 11011G19KT 10SM CLR 06/03 A2938 RMK AO2 SLP950 T00560033 56023 $=
201701221353 METAR KCLM 221353Z AUTO 00000KT 10SM CLR 00/00 A2940 RMK AO2 SLP957 T00000000 $=
201701221328 SPECI KCLM 221328Z AUTO 00000KT 3SM BR CLR 00/00 A2941 RMK AO2 T00000000 $=
201701221321 SPECI KCLM 221321Z AUTO 23003KT 1 1/4SM BR CLR M01/M01 A2941 RMK AO2 T10061006 $=
201701221312 SPECI KCLM 221312Z AUTO 00000KT 2 1/2SM BR CLR 01/01 A2941 RMK AO2 T00060006 $=
201701221253 METAR KCLM 221253Z AUTO 00000KT 5SM BR CLR 00/00 A2942 RMK AO2 SLP964 T00000000 $=
201701221233 SPECI KCLM 221233Z AUTO 18004KT 7SM SCT005 01/01 A2943 RMK AO2 T00110011=
201701221223 SPECI KCLM 221223Z AUTO 11004KT 7SM OVC004 01/01 A2943 RMK AO2 T00110006=
201701221204 SPECI KCLM 221204Z AUTO 17003KT 9SM OVC005 01/01 A2945 RMK AO2 T00060006=
201701221153 METAR KCLM 221153Z AUTO 17005KT 2SM BR BKN005 M01/M01 A2945 RMK AO2 SLP973 T10061006 10039 21006 58029=
201701221144 SPECI KCLM 221144Z AUTO 00000KT 3SM BR BKN005 01/01 A2945 RMK AO2 PRESFR T00060006=
201701221134 SPECI KCLM 221134Z AUTO 00000KT 1 3/4SM BR FEW003 01/01 A2947 RMK AO2 T00060006=
201701221053 METAR KCLM 221053Z AUTO 00000KT 10SM CLR 01/01 A2950 RMK AO2 SLP991 T00060006=
201701220953 METAR KCLM 220953Z AUTO 22006KT 10SM BKN070 02/02 A2952 RMK AO2 SLP996 T00170017=
201701220853 METAR KCLM 220853Z AUTO 00000KT 10SM FEW021 00/M01 A2953 RMK AO2 SLP002 T00001006 50001=
201701220753 METAR KCLM 220753Z AUTO 00000KT 10SM CLR 00/00 A2955 RMK AO2 SLP008 T00000000 400890000=
201701220653 METAR KCLM 220653Z AUTO 22004KT 10SM CLR 03/03 A2953 RMK AO2 SLP003 T00330028=
201701220553 METAR KCLM 220553Z AUTO 24009KT 10SM CLR 04/03 A2953 RMK AO2 SLP001 T00390033 10083 20022 51012=
201701220508 SPECI KCLM 220508Z AUTO 25006KT 10SM SCT020 03/03 A2953 RMK AO2 T00330028=
201701220453 METAR KCLM 220453Z AUTO 24006KT 10SM BKN020 03/03 A2952 RMK AO2 SLP999 T00330033=
201701220353 METAR KCLM 220353Z AUTO 23004KT 10SM BKN070 04/04 A2951 RMK AO2 SLP995 T00440039=
201701220253 METAR KCLM 220253Z AUTO 24007KT 10SM BKN075 04/03 A2949 RMK AO2 SLP989 T00390033 53021=
201701220153 METAR KCLM 220153Z AUTO 22005KT 10SM CLR 04/04 A2947 RMK AO2 SLP982 T00440039=
201701220053 METAR KCLM 220053Z AUTO 00000KT 10SM FEW075 07/04 A2945 RMK AO2 SLP975 T00720039=
201701212353 METAR KCLM 212353Z AUTO 27003KT 10SM FEW070 08/04 A2943 RMK AO2 SLP968 T00830044 10089 20044 53022=
201701212253 METAR KCLM 212253Z AUTO 33004KT 10SM SCT070 SCT120 09/04 A2940 RMK AO2 SLP959 T00890044=
201701212153 METAR KCLM 212153Z AUTO 29006KT 10SM FEW015 SCT075 08/05 A2938 RMK AO2 SLP950 T00830050=
201701212053 METAR KCLM 212053Z AUTO 28006KT 10SM FEW024 07/06 A2937 RMK AO2 SLP946 T00720056 51015=
201701211953 METAR KCLM 211953Z AUTO 26003KT 10SM FEW120 07/05 A2936 RMK AO2 SLP943 T00670050=
201701211853 METAR KCLM 211853Z AUTO 24004KT 10SM CLR 05/04 A2935 RMK AO2 SLP939 T00500039=
201701211753 METAR KCLM 211753Z AUTO 25004KT 10SM OVC080 06/04 A2932 RMK AO2 SLP931 T00560039 10056 20022 53022=
201701211737 SPECI KCLM 211737Z AUTO 24004KT 10SM FEW019 BKN080 OVC120 05/04 A2932 RMK AO2 T00500039=
201701211703 SPECI KCLM 211703Z AUTO 24006KT 10SM BKN019 BKN110 04/03 A2930 RMK AO2 T00440028=
201701211653 METAR KCLM 211653Z AUTO 23006KT 10SM FEW013 SCT019 BKN120 04/03 A2930 RMK AO2 SLP923 T00390028=
201701211553 METAR KCLM 211553Z AUTO 25007KT 10SM FEW015 SCT080 04/03 A2928 RMK AO2 SLP915 T00390028=
201701211545 SPECI KCLM 211545Z AUTO 24006KT 10SM SCT013 04/03 A2927 RMK AO2 T00390028=
201701211531 SPECI KCLM 211531Z AUTO 24006KT 10SM BKN015 BKN020 BKN070 04/03 A2927 RMK AO2 T00440028=
201701211453 METAR KCLM 211453Z AUTO 26006KT 10SM OVC080 04/03 A2926 RMK AO2 SLP909 T00390028 53012=
201701211353 METAR KCLM 211353Z AUTO 25005KT 10SM BKN080 03/02 A2924 RMK AO2 SLP904 T00330022=
201701211253 METAR KCLM 211253Z AUTO 24005KT 10SM BKN075 04/03 A2923 RMK AO2 SLP899 T00390028=
201701211153 METAR KCLM 211153Z AUTO 22004KT 10SM FEW085 04/03 A2922 RMK AO2 SLP897 T00390028 10056 20028 51014=
201701211053 METAR KCLM 211053Z AUTO 24005KT 10SM FEW015 04/03 A2922 RMK AO2 SLP895 T00390033=
201701211045 SPECI KCLM 211045Z AUTO 24004KT 10SM SCT016 04/03 A2921 RMK AO2 T00390028=
201701211018 SPECI KCLM 211018Z AUTO 21006KT 10SM SCT014 BKN019 BKN070 05/04 A2921 RMK AO2 T00500039=
201701210953 METAR KCLM 210953Z AUTO 26008KT 10SM FEW011 SCT017 BKN070 06/04 A2920 RMK AO2 SLP890 T00560039=
201701210853 METAR KCLM 210853Z AUTO 26009KT 10SM CLR 05/03 A2918 RMK AO2 SLP883 T00500033 52010=
201701210753 METAR KCLM 210753Z AUTO 25009KT 10SM FEW070 OVC110 05/03 A2917 RMK AO2 SLP879 T00500033 400780011=
201701210653 METAR KCLM 210653Z AUTO 25006KT 10SM OVC075 05/03 A2916 RMK AO2 SLP876 T00500033=
201701210553 METAR KCLM 210553Z AUTO 24005KT 10SM OVC110 04/03 A2915 RMK AO2 SLP872 T00390033 10072 20033 51008=
201701210453 METAR KCLM 210453Z AUTO 23007KT 10SM OVC110 04/04 A2914 RMK AO2 SLP870 T00440039=
201701210353 METAR KCLM 210353Z AUTO 24005KT 10SM FEW090 SCT120 04/03 A2914 RMK AO2 SLP869 T00390033=
201701210253 METAR KCLM 210253Z AUTO 00000KT 10SM BKN100 OVC120 04/04 A2913 RMK AO2 SLP864 T00390039 53007=
201701210153 METAR KCLM 210153Z AUTO 00000KT 10SM OVC080 05/04 A2912 RMK AO2 SLP860 T00500044=
201701210053 METAR KCLM 210053Z AUTO 24003KT 10SM CLR 06/04 A2911 RMK AO2 SLP857 T00560039=
201701202353 METAR KCLM 202353Z AUTO 33003KT 10SM CLR 07/04 A2910 RMK AO2 SLP857 T00720039 10078 20033 56003=
201701202253 METAR KCLM 202253Z AUTO 04004KT 10SM CLR 07/04 A2911 RMK AO2 SLP858 T00720039=
201701202153 METAR KCLM 202153Z AUTO 18003KT 10SM CLR 07/04 A2910 RMK AO2 SLP857 T00720039=
201701202053 METAR KCLM 202053Z AUTO 15005KT 10SM CLR 07/03 A2911 RMK AO2 SLP860 T00670033 58014=
201701201953 METAR KCLM 201953Z AUTO 00000KT 10SM CLR 06/03 A2913 RMK AO2 SLP867 T00610033=
201701201853 METAR KCLM 201853Z AUTO 12003KT 10SM CLR 06/04 A2915 RMK AO2 SLP871 T00560044=
201701201753 METAR KCLM 201753Z AUTO 16004KT 3SM BR SCT013 03/03 A2916 RMK AO2 SLP874 T00330033 10033 20011 56013=
201701201720 SPECI KCLM 201720Z AUTO 23005KT 10SM BKN014 02/02 A2916 RMK AO2 T00220022=
201701201653 METAR KCLM 201653Z AUTO 22003KT 10SM FEW014 02/02 A2916 RMK AO2 SLP878 T00170017=
201701201602 SPECI KCLM 201602Z AUTO 23004KT 3SM BR FEW002 02/02 A2917 RMK AO2 T00220022=
201701201558 SPECI KCLM 201558Z AUTO 22004KT 1 1/4SM BR FEW002 02/02 A2917 RMK AO2 VIS 1/2V4 T00220022=
201701201553 METAR KCLM 201553Z AUTO 00000KT 3/4SM BR VV002 02/02 A2918 RMK AO2 SLP881 T00220022=
201701201539 SPECI KCLM 201539Z AUTO 00000KT 3/4SM BR VV002 02/02 A2918 RMK AO2 T00220022=
201701201533 SPECI KCLM 201533Z AUTO 00000KT 1 1/2SM BR FEW002 02/02 A2918 RMK AO2 T00220022=
201701201520 SPECI KCLM 201520Z AUTO 22005KT 10SM SCT007 03/03 A2919 RMK AO2 T00280028=
201701201453 METAR KCLM 201453Z AUTO 00000KT 9SM OVC007 03/03 A2919 RMK AO2 SLP887 T00330033 56027=
201701201419 SPECI KCLM 201419Z AUTO 00000KT 7SM FEW003 OVC008 03/03 A2921 RMK AO2 T00330033=
201701201353 METAR KCLM 201353Z AUTO 24003KT 10SM OVC002 03/03 A2922 RMK AO2 SLP895 T00330033=
201701201333 SPECI KCLM 201333Z AUTO 00000KT 10SM BKN003 OVC012 03/03 A2922 RMK AO2 CIG 002V007 T00330033=
201701201321 SPECI KCLM 201321Z AUTO 00000KT 8SM SCT002 OVC012 03/03 A2923 RMK AO2 T00330033=
201701201253 METAR KCLM 201253Z AUTO 00000KT 10SM BKN002 OVC012 03/03 A2925 RMK AO2 SLP905 T00330033=
201701201242 SPECI KCLM 201242Z AUTO 00000KT 10SM BKN003 OVC012 03/03 A2925 RMK AO2 T00330033=
201701201153 METAR KCLM 201153Z AUTO 00000KT 5SM BR FEW003 SCT007 OVC011 03/03 A2928 RMK AO2 SLP915 70013 T00330033 10033 20011 58026=
201701201145 SPECI KCLM 201145Z AUTO 00000KT 7SM BKN005 OVC011 03/03 A2928 RMK AO2 T00330033=
201701201053 METAR KCLM 201053Z AUTO 00000KT 8SM OVC004 03/03 A2931 RMK AO2 SLP926 T00280028=
201701201036 SPECI KCLM 201036Z AUTO 00000KT 9SM OVC004 03/03 A2932 RMK AO2 T00280028=
201701200953 METAR KCLM 200953Z AUTO 00000KT 7SM BKN005 OVC012 02/02 A2933 RMK AO2 SLP935 T00220022=
201701200944 SPECI KCLM 200944Z AUTO 00000KT 9SM BKN005 OVC013 02/02 A2934 RMK AO2 T00170017=
201701200921 SPECI KCLM 200921Z AUTO 23003KT 6SM BR BKN004 BKN070 03/03 A2934 RMK AO2 T00280028=
201701200914 SPECI KCLM 200914Z AUTO 00000KT 4SM BR SCT006 BKN070 02/02 A2934 RMK AO2 T00170017=
201701200902 SPECI KCLM 200902Z AUTO 00000KT 3SM BR BKN070 02/02 A2935 RMK AO2 T00220022=
201701200853 METAR KCLM 200853Z AUTO 25004KT 1 3/4SM BR FEW017 BKN070 02/02 A2935 RMK AO2 VIS 1V4 SLP941 T00170017 58020=
201701200850 SPECI KCLM 200850Z AUTO 00000KT 1 3/4SM BR FEW017 BKN065 02/02 A2935 RMK AO2=
201701200838 SPECI KCLM 200838Z AUTO 21005KT 3SM BR FEW017 SCT025 SCT060 02/02 A2936 RMK AO2 T00170017=
201701200753 METAR KCLM 200753Z AUTO 00000KT 9SM SCT015 BKN024 03/03 A2938 RMK AO2 SLP949 T00280028 400890011=
201701200710 SPECI KCLM 200710Z AUTO 00000KT 3SM BR BKN016 03/03 A2939 RMK AO2 T00280028=
201701200707 SPECI KCLM 200707Z AUTO 22003KT 1 1/4SM BR SCT016 03/03 A2940 RMK AO2 VIS 1/2V5 T00330033=
201701200704 SPECI KCLM 200704Z AUTO 00000KT 3/4SM BR VV016 03/03 A2940 RMK AO2 T00330028=
201701200653 METAR KCLM 200653Z AUTO 00000KT 3/4SM BR FEW002 FEW015 02/02 A2939 RMK AO2 SLP955 T00170017=
201701200647 SPECI KCLM 200647Z AUTO 00000KT 3/4SM BR VV014 02/02 A2939 RMK AO2=
201701200623 SPECI KCLM 200623Z AUTO 22003KT 1SM BR SCT017 BKN041 BKN075 03/03 A2940 RMK AO2 T00330033=
201701200614 SPECI KCLM 200614Z AUTO 00000KT 3/4SM BR SCT018 BKN028 OVC080 02/02 A2940 RMK AO2 T00220022=
201701200611 SPECI KCLM 200611Z AUTO 00000KT 1 1/2SM BR SCT018 BKN060 OVC080 03/03 A2941 RMK AO2 VIS 1/2V5 T00280028=
201701200553 METAR KCLM 200553Z AUTO 22003KT 5SM BR BKN070 OVC085 04/04 A2941 RMK AO2 RAB23E38 SLP961 P0000 60004 T00440044 10072 20033 58006=
201701200521 SPECI KCLM 200521Z AUTO 00000KT 7SM SCT014 OVC070 04/04 A2941 RMK AO2 T00390039=
201701200504 SPECI KCLM 200504Z AUTO 23005KT 3SM BR BKN014 OVC070 04/04 A2942 RMK AO2 T00390039=
201701200500 SPECI KCLM 200500Z AUTO 24003KT 1 3/4SM BR BKN014 OVC075 04/04 A2942 RMK AO2 T00440044=
201701200453 METAR KCLM 200453Z AUTO 00000KT 2SM BR SCT014 BKN060 OVC080 04/04 A2942 RMK AO2 RAE20 SLP964 P0000 T00390039=
201701200426 SPECI KCLM 200426Z AUTO 00000KT 8SM SCT013 BKN060 OVC080 04/04 A2942 RMK AO2 RAE20 P0000 T00440044=
201701200412 SPECI KCLM 200412Z AUTO 24004KT 5SM -RA BR BKN013 BKN050 OVC080 04/04 A2942 RMK AO2 P0000 T00440044=
201701200353 METAR KCLM 200353Z AUTO 19003KT 6SM -RA BR FEW015 SCT031 OVC050 05/05 A2942 RMK AO2 SLP965 P0001 T00500050=
201701200301 SPECI KCLM 200301Z AUTO 24005KT 4SM -RA BR SCT004 BKN046 OVC070 06/06 A2943 RMK AO2 P0001 T00560056=
201701200253 METAR KCLM 200253Z AUTO 16003KT 4SM -RA BR BKN004 BKN010 OVC037 06/06 A2943 RMK AO2 RAB37 SLP967 P0000 60003 T00560056 50001=
201701200248 SPECI KCLM 200248Z AUTO 17003KT 6SM -RA BR BKN005 OVC010 06/06 A2943 RMK AO2 RAB37 P0000=
201701200237 SPECI KCLM 200237Z AUTO 19003KT 9SM -RA BKN003 BKN009 OVC060 05/05 A2943 RMK AO2 RAB37 P0000 T00500050=
201701200203 SPECI KCLM 200203Z AUTO 00000KT 10SM FEW007 BKN060 OVC075 06/05 A2943 RMK AO2 T00560050=
201701200153 METAR KCLM 200153Z AUTO 00000KT 10SM OVC065 06/06 A2943 RMK AO2 RAE25 SLP969 P0000 T00610056=
201701200053 METAR KCLM 200053Z AUTO 29003KT 7SM -RA FEW011 SCT015 OVC045 07/07 A2943 RMK AO2 SLP966 P0003 T00670067=
201701192353 METAR KCLM 192353Z AUTO 00000KT 7SM -RA BKN048 OVC060 07/06 A2942 RMK AO2 RAB28 SLP965 P0000 60000 T00720061 10089 20056 56003=
201701192334 SPECI KCLM 192334Z AUTO 13003KT 10SM -RA FEW017 OVC070 07/07 A2942 RMK AO2 RAB28 P0000 T00720067=
201701192253 METAR KCLM 192253Z AUTO 10005KT 10SM OVC018 08/07 A2942 RMK AO2 SLP965 T00780067=
201701192225 SPECI KCLM 192225Z AUTO 11004KT 10SM FEW007 BKN017 BKN060 08/07 A2942 RMK AO2 T00780067=
201701192216 SPECI KCLM 192216Z AUTO 10006KT 10SM SCT017 BKN060 08/07 A2942 RMK AO2 T00780072=
201701192153 METAR KCLM 192153Z AUTO 11006KT 10SM FEW007 BKN018 08/07 A2943 RMK AO2 SLP967 T00780067=
201701192142 SPECI KCLM 192142Z AUTO 10005KT 10SM FEW007 BKN018 07/07 A2943 RMK AO2 T00720067=
201701192053 METAR KCLM 192053Z AUTO 11003KT 10SM FEW006 FEW043 08/07 A2943 RMK AO2 SLP968 60000 T00830072 58004=
201701192044 SPECI KCLM 192044Z AUTO 08004KT 10SM SCT006 BKN042 09/07 A2944 RMK AO2 T00890072=
201701192007 SPECI KCLM 192007Z AUTO 00000KT 10SM BKN005 BKN036 BKN044 08/07 A2945 RMK AO2 T00830072=
201701191953 METAR KCLM 191953Z AUTO 00000KT 10SM FEW005 BKN041 OVC065 08/07 A2945 RMK AO2 RAB07E52 SLP974 P0000 T00830072=
201701191910 SPECI KCLM 191910Z AUTO 00000KT 10SM -RA SCT023 OVC055 07/07 A2945 RMK AO2 RAB07 P0000 T00720067=
201701191853 METAR KCLM 191853Z AUTO 00000KT 10SM OVC023 07/06 A2945 RMK AO2 RAB14E24 SLP975 P0000 T00670061=
201701191821 SPECI KCLM 191821Z AUTO 23003KT 10SM -RA BKN023 OVC095 06/06 A2945 RMK AO2 RAB14 P0000 T00610061=
201701191753 METAR KCLM 191753Z AUTO 26003KT 10SM FEW020 BKN044 OVC090 06/05 A2945 RMK AO2 RAE45 SLP973 P0002 60009 T00560050 10067 20039 51011=
201701191653 METAR KCLM 191653Z AUTO 00000KT 10SM -RA FEW038 BKN050 OVC085 05/05 A2944 RMK AO2 SLP969 P0001 T00500050=
201701191553 METAR KCLM 191553Z AUTO 23006KT 9SM -RA OVC044 05/04 A2943 RMK AO2 RAB18 SLP966 P0003 T00500044=
201701191453 METAR KCLM 191453Z AUTO 22003KT 10SM OVC055 06/05 A2941 RMK AO2 RAE19 SLP962 P0000 60003 T00560050 52017=
201701191443 SPECI KCLM 191443Z AUTO 24003KT 3SM BR FEW015 OVC050 06/05 A2941 RMK AO2 RAE19 P0000 T00560050=
201701191433 SPECI KCLM 191433Z AUTO 18003KT 1 3/4SM BR FEW015 BKN037 OVC055 04/04 A2941 RMK AO2 VIS 1V5 RAE19 P0000 T00390039=
201701191353 METAR KCLM 191353Z AUTO 24004KT 10SM -RA OVC050 05/05 A2939 RMK AO2 RAE20B37 SLP955 P0000 T00500050=
201701191253 METAR KCLM 191253Z AUTO 24006KT 10SM -RA OVC044 06/06 A2938 RMK AO2 SLP951 P0003 T00610056=
201701191210 SPECI KCLM 191210Z AUTO 19005KT 6SM -RA BR FEW006 BKN049 OVC070 04/04 A2938 RMK AO2 P0000 T00440044=
201701191153 METAR KCLM 191153Z AUTO 11004KT 3SM -RA BR BKN006 OVC041 05/05 A2936 RMK AO2 RAE37B40 SLP945 P0006 60011 70069 T00500050 10072 20044 51009=
201701191138 SPECI KCLM 191138Z AUTO 00000KT 6SM BR BKN006 BKN055 OVC070 04/04 A2937 RMK AO2 RAE37 P0003 T00440044=
201701191128 SPECI KCLM 191128Z AUTO 19003KT 9SM -RA SCT006 BKN041 OVC070 06/06 A2937 RMK AO2 P0003 T00560056=
201701191104 SPECI KCLM 191104Z AUTO 00000KT 2 1/2SM -RA BR FEW004 FEW010 OVC044 06/06 A2936 RMK AO2 VIS 1 1/4V5 P0003 T00560056=
201701191053 METAR KCLM 191053Z AUTO 00000KT 6SM -RA BR SCT004 SCT020 OVC050 06/06 A2936 RMK AO2 RAE0958B23 SLP944 P0002 T00560056=
201701191050 SPECI KCLM 191050Z AUTO 00000KT 8SM -RA SCT004 SCT020 OVC050 06/06 A2937 RMK AO2 RAE0958B23 P0000=
201701191019 SPECI KCLM 191019Z AUTO 24003KT 10SM OVC004 06/06 A2936 RMK AO2 RAE0958 P0000 T00610056=
201701190953 METAR KCLM 190953Z AUTO 00000KT 10SM -RA BKN006 06/06 A2935 RMK AO2 RAE38B42 SLP939 P0001 T00610061=
201701190938 SPECI KCLM 190938Z AUTO 11004KT 10SM SCT006 BKN055 06/06 A2934 RMK AO2 RAE38 P0001 T00560056=
201701190853 METAR KCLM 190853Z AUTO 13005KT 10SM -RA BKN050 OVC110 06/06 A2933 RMK AO2 RAB36 SLP935 P0000 60002 T00560056 53034=
201701190753 METAR KCLM 190753Z AUTO 00000KT 10SM BKN110 06/05 A2927 RMK AO2 SLP914 T00560050 401110056=
201701190653 METAR KCLM 190653Z AUTO 28011KT 10SM FEW060 FEW070 OVC100 07/06 A2926 RMK AO2 RAE46 SLP909 P0002 T00670061=
201701190553 METAR KCLM 190553Z AUTO 26010KT 8SM -RA OVC046 07/06 A2923 RMK AO2 SLP901 P0003 60016 T00720061 10089 20067 53010=
201701190453 METAR KCLM 190453Z AUTO 25008KT 7SM -RA OVC046 07/06 A2921 RMK AO2 SLP893 P0004 T00720061=
201701190353 METAR KCLM 190353Z AUTO 27010KT 9SM -RA OVC050 07/07 A2921 RMK AO2 SLP891 P0003 T00720067=
201701190253 METAR KCLM 190253Z AUTO 00000KT 6SM -RA BR OVC049 07/07 A2920 RMK AO2 SLP890 P0003 60006 T00720072 55008=
201701190153 METAR KCLM 190153Z AUTO 23006KT 10SM -RA OVC060 08/07 A2920 RMK AO2 SLP889 P0000 T00780072=
201701190100 SPECI KCLM 190100Z AUTO 22004KT 8SM -RA OVC055 08/08 A2922 RMK AO2 P0000 T00780078=
201701190053 METAR KCLM 190053Z AUTO 25005KT 2 1/2SM -RA BR OVC055 08/08 A2923 RMK AO2 VIS 1/2V5 SLP898 P0003 T00780078=
201701190050 SPECI KCLM 190050Z AUTO 25006KT 1 3/4SM -RA BR OVC055 08/08 A2923 RMK AO2 VIS 1/2V5 P0003=
201701182353 METAR KCLM 182353Z AUTO 26004KT 7SM -RA BKN055 OVC070 09/09 A2925 RMK AO2 SLP904 P0003 60015 T00890089 10100 20078 51001=
201701182349 SPECI KCLM 182349Z AUTO 00000KT 3SM -RA BR BKN055 OVC070 09/09 A2925 RMK AO2 P0003=
201701182337 SPECI KCLM 182337Z AUTO 00000KT 1 1/4SM -RA BR OVC055 09/09 A2925 RMK AO2 P0003 T00940094=
201701182253 METAR KCLM 182253Z AUTO 00000KT 5SM -RA BR BKN060 OVC080 09/09 A2924 RMK AO2 SLP903 P0002 T00940094=
201701182153 METAR KCLM 182153Z AUTO 00000KT 7SM -RA OVC065 09/09 A2925 RMK AO2 SLP905 P0001 T00940094=
201701182053 METAR KCLM 182053Z AUTO 24004KT 7SM -RA OVC065 09/09 A2924 RMK AO2 SLP903 P0005 60009 T00940094 53008=
201701182017 SPECI KCLM 182017Z AUTO 18004KT 4SM -RA BR FEW002 BKN050 OVC070 08/08 A2926 RMK AO2 P0003 T00830083=
201701182001 SPECI KCLM 182001Z AUTO 00000KT 2SM -RA BR FEW002 BKN050 OVC080 08/08 A2924 RMK AO2 P0002 T00830083=
201701181953 METAR KCLM 181953Z AUTO 31003KT 3SM -RA BR FEW002 BKN060 OVC075 08/08 A2924 RMK AO2 SLP903 P0001 T00830083=
201701181853 METAR KCLM 181853Z AUTO 11005KT 7SM -RA BKN060 OVC075 08/08 A2922 RMK AO2 SLP894 P0003 T00830083=
201701181753 METAR KCLM 181753Z AUTO 22004KT 4SM -RA BR OVC055 08/08 A2922 RMK AO2 SLP895 P0003 60027 T00830078 10089 20056 53003=
201701181653 METAR KCLM 181653Z AUTO 14007KT 6SM -RA BR FEW039 BKN055 OVC070 07/07 A2917 RMK AO2 SLP879 P0006 T00720072=
201701181625 SPECI KCLM 181625Z AUTO 11006KT 3SM -RA BR BKN050 OVC070 06/06 A2918 RMK AO2 P0006 T00610061=
201701181553 METAR KCLM 181553Z AUTO 23004KT 2 1/2SM RA BR OVC055 06/06 A2921 RMK AO2 RAB24 SLP893 P0006 T00610061=
201701181528 SPECI KCLM 181528Z AUTO 00000KT 6SM -RA BR BKN060 OVC075 07/07 A2921 RMK AO2 RAB24 P0000 T00670067=
201701181519 SPECI KCLM 181519Z AUTO 00000KT 2SM BR BKN060 OVC075 06/06 A2920 RMK AO2 VIS 1V5 T00610061=
201701181453 METAR KCLM 181453Z AUTO 00000KT 9SM SCT003 SCT045 OVC070 07/07 A2921 RMK AO2 RAE46 SLP893 P0009 60012 T00720072 58029=
201701181435 SPECI KCLM 181435Z AUTO 28003KT 7SM -RA SCT002 BKN060 OVC085 07/07 A2923 RMK AO2 P0009 T00720072=
201701181353 METAR KCLM 181353Z AUTO 00000KT 10SM -RA OVC065 06/06 A2927 RMK AO2 SLP912 P0003 T00610061=
201701181253 METAR KCLM 181253Z AUTO 00000KT 10SM -RA BKN070 OVC100 07/07 A2930 RMK AO2 RAB49 SLP923 P0000 T00670067=
201701181153 METAR KCLM 181153Z AUTO 15006KT 10SM FEW040 SCT070 08/07 A2930 RMK AO2 RAB05E33 SLP923 P0000 60000 70054 T00780067 10111 20078 58013=
201701181053 METAR KCLM 181053Z AUTO 26008G16KT 230V300 10SM FEW060 SCT090 10/07 A2932 RMK AO2 RAE07 SLP930 P0000 T01000067=
201701180953 METAR KCLM 180953Z AUTO 29008KT 10SM -RA FEW060 BKN075 BKN100 08/07 A2932 RMK AO2 RAB42 SLP930 P0000 T00830067=
201701180853 METAR KCLM 180853Z AUTO 29010KT 10SM BKN046 08/07 A2934 RMK AO2 RAB37E48 SLP935 P0000 60000 T00830067 55002=
201701180753 METAR KCLM 180753Z AUTO 24005KT 10SM CLR 09/07 A2933 RMK AO2 SLP931 T00890067 401110017=
201701180653 METAR KCLM 180653Z AUTO 26015G24KT 10SM CLR 11/07 A2935 RMK AO2 RAE29 SLP938 P0000 T01060067=
201701180553 METAR KCLM 180553Z AUTO 17006KT 6SM -RA BR SCT048 BKN075 OVC090 08/07 A2935 RMK AO2 SLP939 P0005 60033 T00780072 10094 20067 53010=
201701180453 METAR KCLM 180453Z AUTO 00000KT 10SM -RA BKN060 BKN090 OVC110 09/08 A2934 RMK AO2 SLP937 P0004 T00890083=
201701180353 METAR KCLM 180353Z AUTO 07004KT 5SM -RA BR OVC065 08/08 A2932 RMK AO2 SLP928 P0005 T00830083=
201701180253 METAR KCLM 180253Z AUTO 00000KT 5SM -RA BR OVC065 09/09 A2932 RMK AO2 SLP929 P0009 60019 T00940089 56023=
201701180153 METAR KCLM 180153Z AUTO 00000KT 5SM -RA BR OVC065 08/08 A2933 RMK AO2 SLP934 P0004 T00780078=
201701180053 METAR KCLM 180053Z AUTO VRB03KT 7SM -RA OVC065 07/07 A2935 RMK AO2 SLP941 P0006 T00720072=
201701180038 SPECI KCLM 180038Z AUTO VRB04KT 3SM -RA BR OVC065 07/07 A2935 RMK AO2 P0006 T00720072=
201701180031 SPECI KCLM 180031Z AUTO 25003KT 1 3/4SM -RA BR BKN060 OVC075 07/07 A2936 RMK AO2 PRESFR P0006 T00670067=
201701180008 SPECI KCLM 180008Z AUTO 00000KT 2 1/2SM -RA BR BKN060 OVC075 07/07 A2939 RMK AO2 P0003 T00670067=
201701172353 METAR KCLM 172353Z AUTO 00000KT 1 1/4SM +RA BR BKN060 OVC075 07/07 A2939 RMK AO2 SLP952 P0009 60018 T00720072 10094 20061 56057=
201701172350 SPECI KCLM 172350Z AUTO 29003KT 1 3/4SM RA BR BKN065 BKN075 OVC090 07/07 A2939 RMK AO2 P0007=
201701172304 SPECI KCLM 172304Z AUTO 00000KT 4SM -RA BR OVC075 08/07 A2941 RMK AO2 PRESFR P0001 T00780072=
201701172253 METAR KCLM 172253Z AUTO 35003KT 2 1/2SM RA BR BKN075 OVC090 08/08 A2943 RMK AO2 SLP966 P0005 T00780078=
201701172153 METAR KCLM 172153Z AUTO 35003KT 9SM -RA BKN070 OVC095 09/09 A2949 RMK AO2 RAE2059B40 SLP988 P0000 T00940089=
201701172053 METAR KCLM 172053Z AUTO 00000KT 8SM -RA OVC065 08/07 A2956 RMK AO2 PRESFR SLP010 P0001 60004 T00830067 58017=
201701171953 METAR KCLM 171953Z AUTO 30003KT 9SM -RA OVC060 09/07 A2960 RMK AO2 RAE18B52 SLP025 P0002 T00890067=
201701171853 METAR KCLM 171853Z AUTO 00000KT 10SM -RA FEW044 BKN070 OVC085 07/06 A2962 RMK AO2 RAB1754 SLP033 P0001 T00720056=
201701171753 METAR KCLM 171753Z AUTO 25004KT 10SM SCT045 SCT060 BKN070 06/06 A2961 RMK AO2 RAE47 SLP027 P0000 60003 T00560056 10056 20017 55004=
201701171653 METAR KCLM 171653Z AUTO 00000KT 5SM -RA BR SCT044 BKN070 BKN095 05/05 A2959 RMK AO2 RAB03 SLP022 P0002 T00500050=
201701171553 METAR KCLM 171553Z AUTO 21005KT 5SM BR SCT050 BKN065 BKN075 03/03 A2959 RMK AO2 RAE49 SLP023 P0000 T00330033=
201701171517 SPECI KCLM 171517Z AUTO 00000KT 4SM -RA BR SCT007 BKN065 OVC100 03/03 A2960 RMK AO2 P0000 T00330033=
201701171453 METAR KCLM 171453Z AUTO 00000KT 6SM -RA BR OVC006 04/04 A2962 RMK AO2 RAE05B29 SLP031 P0001 60001 T00390039 56034=
201701171413 SPECI KCLM 171413Z AUTO 22004KT 4SM BR BKN007 BKN012 OVC070 02/02 A2964 RMK AO2 RAE05 P0000 T00220022=
201701171353 METAR KCLM 171353Z AUTO 23004KT 5SM -RA BR SCT009 OVC070 02/02 A2966 RMK AO2 RAB24 PRESFR SLP046 P0000 T00220022=
201701171349 SPECI KCLM 171349Z AUTO 00000KT 6SM -RA BR BKN009 OVC070 02/02 A2966 RMK AO2 RAB24 PRESFR P0000=
201701171304 SPECI KCLM 171304Z AUTO 18005KT 8SM BKN010 OVC070 03/03 A2971 RMK AO2 T00280028=
201701171253 METAR KCLM 171253Z AUTO 21004KT 8SM SCT010 OVC070 03/02 A2972 RMK AO2 RAB06E21 SLP065 P0000 T00280022=
201701171153 METAR KCLM 171153Z AUTO 14007KT 10SM SCT075 BKN100 03/03 A2975 RMK AO2 RAE26 SLP077 P0000 60000 T00280028 10039 20017 58025=
201701171053 METAR KCLM 171053Z AUTO 16004KT 6SM -RA BR OVC070 03/03 A2981 RMK AO2 SLP097 P0000 T00280028=
201701170953 METAR KCLM 170953Z AUTO 22005KT 8SM -RA BKN070 OVC080 03/03 A2982 RMK AO2 RAB09 SLP099 P0000 T00330033=
201701170853 METAR KCLM 170853Z AUTO 26006KT 10SM BKN080 BKN090 OVC110 02/02 A2983 RMK AO2 SLP102 T00220022 56018=
201701170753 METAR KCLM 170753Z AUTO 25005KT 10SM SCT070 OVC110 03/02 A2984 RMK AO2 SLP105 T00280022 400561022=
201701170653 METAR KCLM 170653Z AUTO 00000KT 9SM FEW007 BKN070 BKN110 02/01 A2985 RMK AO2 SLP111 T00170011=
201701170610 SPECI KCLM 170610Z AUTO 00000KT 9SM FEW007 SCT065 SCT110 03/02 A2987 RMK AO2 T00280017=
201701170553 METAR KCLM 170553Z AUTO 00000KT 9SM FEW065 SCT120 02/02 A2988 RMK AO2 SLP121 60000 T00220017 10050 20017 58021=
201701170453 METAR KCLM 170453Z AUTO 12004KT 10SM OVC060 04/02 A2992 RMK AO2 SLP133 T00390022=
201701170353 METAR KCLM 170353Z AUTO 00000KT 9SM BKN065 OVC110 03/02 A2993 RMK AO2 RAB0259E23 SLP137 P0000 T00330022=
201701170253 METAR KCLM 170253Z AUTO 13004KT 9SM SCT080 BKN090 OVC110 03/02 A2994 RMK AO2 PRESFR SLP143 T00330017 58005=
201701170153 METAR KCLM 170153Z AUTO 24006KT 10SM BKN070 OVC085 04/02 A2997 RMK AO2 SLP151 T00440022=
201701170053 METAR KCLM 170053Z AUTO 31003KT 10SM SCT055 OVC090 04/02 A2994 RMK AO2 SLP140 T00440022=
201701162353 METAR KCLM 162353Z AUTO 18003KT 10SM SCT065 OVC085 05/02 A2996 RMK AO2 SLP148 T00500022 10056 20017 56028=
201701162253 METAR KCLM 162253Z AUTO 27004KT 10SM SCT085 OVC110 06/03 A2998 RMK AO2 SLP155 T00560028=
201701162153 METAR KCLM 162153Z AUTO 28008KT 10SM SCT085 OVC120 06/03 A3001 RMK AO2 SLP163 T00560028=
201701162053 METAR KCLM 162053Z AUTO 30006KT 8SM BKN090 05/02 A3004 RMK AO2 SLP176 T00500022 58024=
201701161953 METAR KCLM 161953Z AUTO VRB04KT 10SM BKN090 05/02 A3009 RMK AO2 SLP194 T00500017=
201701161853 METAR KCLM 161853Z AUTO VRB04KT 10SM OVC090 04/02 A3011 RMK AO2 SLP199 T00440022=
201701161753 METAR KCLM 161753Z AUTO 00000KT 9SM FEW085 02/01 A3011 RMK AO2 SLP200 60000 T00170006 10017 21006 58016=
201701161653 METAR KCLM 161653Z AUTO 24006KT 10SM FEW110 01/01 A3014 RMK AO2 RAB10E17 SLP211 P0000 T00110006=
201701161553 METAR KCLM 161553Z AUTO 00000KT 10SM FEW085 BKN120 01/01 A3015 RMK AO2 SLP213 T00060006=
201701161453 METAR KCLM 161453Z AUTO 16003KT 10SM SCT085 01/01 A3016 RMK AO2 RAB29E45 SLP216 P0000 60000 T00060006 58019=
201701161353 METAR KCLM 161353Z AUTO 00000KT 10SM OVC090 00/00 A3019 RMK AO2 UPB34E43 SLP226 P0000 T00000000=
201701161253 METAR KCLM 161253Z AUTO 24006KT 9SM SCT100 BKN110 M01/M01 A3021 RMK AO2 UPE1154B29E35 SLP231 P0000 T10061006=
201701161153 METAR KCLM 161153Z AUTO 00000KT 9SM UP BKN095 00/00 A3022 RMK AO2 UPE1059B39 SLP235 P0000 60000 T00000000 10006 21022 57009=
201701161053 METAR KCLM 161053Z AUTO 19003KT 8SM UP BKN090 OVC110 M01/M01 A3022 RMK AO2 UPE0958B42 SLP237 P0000 T10061006=
201701160953 METAR KCLM 160953Z AUTO 12003KT 6SM UP BR SCT110 M01/M02 A3024 RMK AO2 UPB05E31B48 SLP242 P0000 T10111017=
201701160853 METAR KCLM 160853Z AUTO 17004KT 9SM SCT100 M01/M01 A3024 RMK AO2 UPB02E22B38E46 SLP244 P0000 60000 T10111011 58015=
201701160753 METAR KCLM 160753Z AUTO 00000KT 10SM BKN120 01/M01 A3027 RMK AO2 UPB10E19 SLP253 P0000 T00061006 400561056=
201701160653 METAR KCLM 160653Z AUTO 00000KT 10SM BKN120 01/00 A3027 RMK AO2 UPB07E39 SLP254 P0000 T00060000=
201701160553 METAR KCLM 160553Z AUTO 18003KT 10SM CLR 00/M01 A3029 RMK AO2 SLP260 60000 T00001006 10044 21011 50003=
201701160453 METAR KCLM 160453Z AUTO 22004KT 10SM CLR 00/M01 A3029 RMK AO2 UPB39E45 SLP262 P0000 T00001006=
201701160353 METAR KCLM 160353Z AUTO 00000KT 9SM CLR M01/M01 A3028 RMK AO2 UPE0254B30E53 SLP258 P0000 T10111011=
201701160253 METAR KCLM 160253Z AUTO 00000KT 10SM UP CLR 01/M01 A3028 RMK AO2 RAE51UPB51 SLP258 P0000 60000 T00061006 55004=
201701160153 METAR KCLM 160153Z AUTO 13004KT 10SM -RA CLR 01/00 A3026 RMK AO2 RAB37 SLP252 P0000 T00110000=
201701160053 METAR KCLM 160053Z AUTO 14004KT 10SM CLR 02/00 A3028 RMK AO2 RAB21E52 SLP256 P0000 T00170000=
201701152353 METAR KCLM 152353Z AUTO 12004KT 10SM SCT065 04/01 A3029 RMK AO2 SLP261 T00440011 10056 20000 53004=
201701152253 METAR KCLM 152253Z AUTO 10003KT 10SM CLR 05/01 A3029 RMK AO2 SLP258 T00500011=
201701152153 METAR KCLM 152153Z AUTO 06003KT 10SM FEW070 06/02 A3029 RMK AO2 SLP259 T00560017=
201701152053 METAR KCLM 152053Z AUTO 01003KT 10SM CLR 05/01 A3028 RMK AO2 SLP256 T00500011 58005=
201701151953 METAR KCLM 151953Z AUTO 12003KT 10SM CLR 04/01 A3028 RMK AO2 SLP258 T00440006=
201701151853 METAR KCLM 151853Z AUTO 12005KT 10SM CLR 04/01 A3031 RMK AO2 SLP267 T00390006=
201701151753 METAR KCLM 151753Z AUTO 24004KT 10SM CLR M01/M01 A3029 RMK AO2 SLP263 I6001 T10061006 11006 21056 53004=
201701151653 METAR KCLM 151653Z AUTO 00000KT 9SM CLR M04/M04 A3027 RMK AO2 SLP255 T10391039=
201701151553 METAR KCLM 151553Z AUTO 22003KT 9SM SCT080 M03/M03 A3028 RMK AO2 SLP256 I1000 T10331033=
201701151453 METAR KCLM 151453Z AUTO 00000KT 10SM CLR M04/M04 A3028 RMK AO2 SLP259 I3001 T10391044 56005=
201701151353 METAR KCLM 151353Z AUTO 22003KT 9SM CLR M03/M04 A3028 RMK AO2 SLP259 I1001 T10331039=
201701151253 METAR KCLM 151253Z AUTO 18003KT 8SM CLR M03/M03 A3029 RMK AO2 SLP260 I1000 T10331033=
201701151153 METAR KCLM 151153Z AUTO 23004KT 10SM FEW090 BKN110 M02/M02 A3030 RMK AO2 SLP263 I6000 T10171022 11011 21028 50004=
201701151053 METAR KCLM 151053Z AUTO 00000KT 10SM SCT095 M02/M02 A3031 RMK AO2 SLP268 T10221022=
201701150953 METAR KCLM 150953Z AUTO 00000KT 10SM CLR M02/M02 A3029 RMK AO2 SLP260 T10171022=
201701150853 METAR KCLM 150853Z AUTO 17003KT 10SM OVC110 M02/M02 A3029 RMK AO2 SLP260 I3000 T10221022 50003=
201701150753 METAR KCLM 150753Z AUTO 00000KT 8SM CLR M02/M02 A3029 RMK AO2 SLP260 T10221022 400331067=
201701150653 METAR KCLM 150653Z AUTO 22005KT 9SM CLR M02/M02 A3028 RMK AO2 SLP257 I1000 T10221022=
201701150553 METAR KCLM 150553Z AUTO 00000KT 10SM CLR M03/M03 A3028 RMK AO2 SLP257 I1000 I6000 T10281028 10022 21033 58003=
201701150453 METAR KCLM 150453Z AUTO 22003KT 9SM CLR M03/M03 A3029 RMK AO2 SLP261 I1000 T10281028=
201701150353 METAR KCLM 150353Z AUTO 22004KT 10SM CLR M03/M03 A3029 RMK AO2 SLP260 I1000 T10281028=
201701150253 METAR KCLM 150253Z AUTO 00000KT 8SM CLR M02/M02 A3029 RMK AO2 SLP260 I1000 I3000 T10221022 55006=
201701150153 METAR KCLM 150153Z AUTO 00000KT 8SM CLR M03/M04 A3027 RMK AO2 SLP256 T10281039=
201701150053 METAR KCLM 150053Z AUTO 15004KT 10SM CLR M01/M02 A3028 RMK AO2 SLP259 T10111017=
201701142353 METAR KCLM 142353Z AUTO 09005KT 10SM CLR 02/M01 A3030 RMK AO2 SLP266 T00221006 10033 21017 56015=
201701142253 METAR KCLM 142253Z AUTO 11005KT 10SM CLR 03/M01 A3032 RMK AO2 SLP271 T00281006=
201701142153 METAR KCLM 142153Z AUTO 08006KT 10SM CLR 03/M01 A3032 RMK AO2 SLP272 T00281006=
201701142053 METAR KCLM 142053Z AUTO 10004KT 10SM FEW018 03/M01 A3035 RMK AO2 SLP280 T00331011 56012=
201701142050 SPECI KCLM 142050Z AUTO 10005KT 10SM SCT018 03/M01 A3035 RMK AO2=
201701142006 SPECI KCLM 142006Z AUTO 10006KT 10SM BKN017 03/M01 A3037 RMK AO2 T00331006=
201701141953 METAR KCLM 141953Z AUTO 00000KT 10SM FEW017 03/M01 A3037 RMK AO2 SLP288 T00331006=
201701141853 METAR KCLM 141853Z AUTO VRB03KT 10SM FEW017 03/M01 A3038 RMK AO2 SLP292 T00281006=
201701141753 METAR KCLM 141753Z AUTO 16003KT 10SM CLR M02/M02 A3039 RMK AO2 SLP294 I6000 T10171017 11017 21067 58001=
201701141653 METAR KCLM 141653Z AUTO 00000KT 7SM CLR M05/M05 A3040 RMK AO2 SLP298 T10501050=
201701141553 METAR KCLM 141553Z AUTO 17003KT 9SM CLR M06/M07 A3039 RMK AO2 SLP296 I1000 T10611067=
201701141453 METAR KCLM 141453Z AUTO 00000KT 7SM CLR M06/M06 A3039 RMK AO2 SLP296 I1000 I3000 T10561061 58014=
201701141353 METAR KCLM 141353Z AUTO 14004KT 8SM CLR M06/M06 A3042 RMK AO2 SLP304 I1000 T10611061=
201701141253 METAR KCLM 141253Z AUTO 15004KT 10SM CLR M06/M07 A3042 RMK AO2 SLP305 I1000 T10611067=
201701141153 METAR KCLM 141153Z AUTO 00000KT 10SM CLR M06/M06 A3043 RMK AO2 SLP309 I1000 I6000 T10611061 11006 21067 55003=
201701141053 METAR KCLM 141053Z AUTO 00000KT 10SM CLR M04/M04 A3043 RMK AO2 SLP309 I1000 T10391044=
201701140953 METAR KCLM 140953Z AUTO 16003KT 8SM CLR M05/M06 A3044 RMK AO2 SLP311 I1000 T10501056=
201701140853 METAR KCLM 140853Z AUTO 00000KT 10SM CLR M04/M05 A3044 RMK AO2 SLP312 I1000 I3000 T10441050 53001=
201701140753 METAR KCLM 140753Z AUTO 00000KT 8SM CLR M03/M04 A3043 RMK AO2 SLP309 T10331039 400221061=
201701140653 METAR KCLM 140653Z AUTO 00000KT 10SM CLR M02/M03 A3044 RMK AO2 SLP309 T10221028=
201701140553 METAR KCLM 140553Z AUTO 13004KT 10SM CLR M02/M02 A3044 RMK AO2 SLP311 T10171022 10017 21017 58001=
201701140453 METAR KCLM 140453Z AUTO 14003KT 10SM CLR M01/M02 A3045 RMK AO2 SLP315 T10111017=
201701140353 METAR KCLM 140353Z AUTO 00000KT 9SM CLR M01/M02 A3044 RMK AO2 SLP312 T10061017=
201701140253 METAR KCLM 140253Z AUTO 00000KT 10SM CLR M01/M01 A3044 RMK AO2 SLP312 T10061011 50002=
201701140153 METAR KCLM 140153Z AUTO 19003KT 10SM FEW023 00/M02 A3045 RMK AO2 SLP317 T00001017=
201701140053 METAR KCLM 140053Z AUTO 13006KT 10SM FEW018 01/M02 A3043 RMK AO2 SLP310 T00061017=
201701132353 METAR KCLM 132353Z AUTO 12005KT 10SM CLR 02/M02 A3043 RMK AO2 SLP309 T00171017 10022 21011 50002=
201701132253 METAR KCLM 132253Z AUTO 13005KT 10SM CLR 02/M02 A3044 RMK AO2 SLP314 T00171017=
201701132153 METAR KCLM 132153Z AUTO 09004KT 10SM FEW019 02/M02 A3043 RMK AO2 SLP307 T00171022=
201701132053 METAR KCLM 132053Z AUTO 10006KT 10SM CLR 02/M03 A3043 RMK AO2 SLP308 T00171028 58008=
201701131953 METAR KCLM 131953Z AUTO 09005KT 10SM CLR 02/M03 A3044 RMK AO2 SLP312 T00221033=
201701131912 SPECI KCLM 131912Z AUTO 08003KT 10SM SCT022 02/M03 A3045 RMK AO2 T00171033=
201701131853 METAR KCLM 131853Z AUTO 09005KT 10SM BKN022 01/M03 A3046 RMK AO2 SLP319 T00111028=
201701131753 METAR KCLM 131753Z AUTO 00000KT 10SM OVC021 M01/M02 A3045 RMK AO2 SLP316 T10111022 11011 21033 53015=
201701131653 METAR KCLM 131653Z AUTO 24003KT 10SM OVC016 M02/M03 A3044 RMK AO2 SLP311 T10171028=
201701131553 METAR KCLM 131553Z AUTO 23005KT 10SM OVC016 M02/M03 A3042 RMK AO2 SLP306 T10221033=
201701131536 SPECI KCLM 131536Z AUTO 23005KT 10SM OVC015 M02/M03 A3042 RMK AO2 T10221033=
201701131506 SPECI KCLM 131506Z AUTO 00000KT 10SM BKN014 OVC019 M02/M03 A3041 RMK AO2 T10221028=
201701131453 METAR KCLM 131453Z AUTO 22005KT 10SM OVC018 M02/M03 A3041 RMK AO2 SLP302 T10221033 53003=
201701131353 METAR KCLM 131353Z AUTO 00000KT 10SM OVC019 M02/M03 A3040 RMK AO2 SLP298 T10221033=
201701131253 METAR KCLM 131253Z AUTO 22005KT 10SM OVC015 M03/M04 A3040 RMK AO2 SLP300 T10281039=
201701131153 METAR KCLM 131153Z AUTO 22005KT 10SM OVC019 M03/M04 A3040 RMK AO2 SLP299 I6000 T10331039 11028 21061 53013=
201701131125 SPECI KCLM 131125Z AUTO 24005KT 10SM BKN019 M04/M05 A3039 RMK AO2 T10441050=
201701131053 METAR KCLM 131053Z AUTO 21004KT 10SM CLR M06/M06 A3038 RMK AO2 SLP292 I1000 T10561056=
201701130953 METAR KCLM 130953Z AUTO 00000KT 10SM CLR M06/M06 A3036 RMK AO2 SLP286 I1000 T10561061=
201701130853 METAR KCLM 130853Z AUTO 24003KT 6SM BR CLR M05/M06 A3036 RMK AO2 SLP286 I1000 I3000 T10501056 50008=
201701130836 SPECI KCLM 130836Z AUTO 15003KT 10SM SCT028 M06/M06 A3036 RMK AO2 T10561061=
201701130753 METAR KCLM 130753Z AUTO 00000KT 10SM BKN025 M04/M05 A3037 RMK AO2 SLP288 T10441050 400221078=
201701130733 SPECI KCLM 130733Z AUTO 22005KT 10SM BKN023 M03/M04 A3037 RMK AO2 T10331044=
201701130653 METAR KCLM 130653Z AUTO 00000KT 10SM CLR M04/M04 A3035 RMK AO2 SLP281 T10391044=
201701130553 METAR KCLM 130553Z AUTO 22005KT 10SM CLR M03/M04 A3034 RMK AO2 SLP277 I6001 T10331044 10017 21061 53006=
201701130500 METAR KCLM NIL=
201701130400 METAR KCLM NIL=
201701130353 METAR KCLM 130353Z AUTO 21004KT 10SM CLR M04/M05 A3032 RMK AO2 SLP272 T10391050=
201701130253 METAR KCLM 130253Z AUTO 23006KT 10SM CLR M04/M04 A3032 RMK AO2 SLP272 I1001 I3001 T10391044 53013=
201701130153 METAR KCLM 130153Z AUTO 21003KT 10SM CLR M02/M03 A3029 RMK AO2 SLP262 T10221033=
201701130053 METAR KCLM 130053Z AUTO 17003KT 10SM CLR M02/M03 A3029 RMK AO2 SLP260 T10171033=
201701122353 METAR KCLM 122353Z AUTO 00000KT 10SM FEW021 01/M03 A3028 RMK AO2 SLP258 T00111028 10022 21033 53013=
201701122253 METAR KCLM 122253Z AUTO 09006KT 10SM FEW020 02/M02 A3025 RMK AO2 SLP247 T00221022=
201701122153 METAR KCLM 122153Z AUTO 09006KT 10SM CLR 02/M03 A3024 RMK AO2 SLP243 T00171033=
201701122053 METAR KCLM 122053Z AUTO 09004KT 10SM CLR 02/M04 A3024 RMK AO2 SLP245 T00221039 50003=
201701121953 METAR KCLM 121953Z AUTO 10005KT 10SM CLR 02/M04 A3025 RMK AO2 SLP249 T00171039=
201701121853 METAR KCLM 121853Z AUTO 26003KT 10SM CLR M01/M04 A3025 RMK AO2 SLP248 T10061044=
201701121753 METAR KCLM 121753Z AUTO 23007KT 10SM CLR M03/M06 A3023 RMK AO2 SLP242 T10331061 11033 21078 51021=
201701121653 METAR KCLM 121653Z AUTO 23008KT 10SM CLR M05/M07 A3022 RMK AO2 SLP240 T10501072=
201701121553 METAR KCLM 121553Z AUTO 22005KT 10SM CLR M06/M08 A3020 RMK AO2 SLP231 T10611078=
201701121453 METAR KCLM 121453Z AUTO 23008KT 10SM CLR M06/M08 A3017 RMK AO2 SLP222 T10611078 53013=
201701121353 METAR KCLM 121353Z AUTO 23009KT 10SM CLR M06/M08 A3016 RMK AO2 SLP216 T10611083=
201701121253 METAR KCLM 121253Z AUTO 22005KT 10SM CLR M07/M08 A3015 RMK AO2 SLP214 T10671083=
201701121153 METAR KCLM 121153Z AUTO 24009KT 10SM CLR M06/M08 A3013 RMK AO2 SLP208 T10611078 11050 21067 50018=
201701121053 METAR KCLM 121053Z AUTO 23008KT 10SM CLR M06/M08 A3014 RMK AO2 SLP209 T10561078=
201701120953 METAR KCLM 120953Z AUTO 23007KT 10SM CLR M06/M08 A3010 RMK AO2 SLP196 T10561078=
201701120853 METAR KCLM 120853Z AUTO 23007KT 10SM CLR M06/M08 A3008 RMK AO2 SLP190 T10561078 53012=
201701120753 METAR KCLM 120753Z AUTO 24009KT 10SM CLR M06/M08 A3007 RMK AO2 SLP186 T10561078 400061061=
201701120653 METAR KCLM 120653Z AUTO 24007KT 10SM CLR M06/M08 A3005 RMK AO2 SLP180 T10611083=
201701120553 METAR KCLM 120553Z AUTO 23009KT 10SM CLR M05/M08 A3005 RMK AO2 SLP178 T10501078 10000 21061 51020=
201701120453 METAR KCLM 120453Z AUTO 23008KT 10SM CLR M05/M08 A3003 RMK AO2 SLP174 T10501078=
201701120353 METAR KCLM 120353Z AUTO 23007KT 10SM CLR M06/M08 A3000 RMK AO2 SLP165 T10561078=
201701120253 METAR KCLM 120253Z AUTO 22006KT 10SM CLR M05/M07 A2999 RMK AO2 SLP159 T10501072 53018=
201701120153 METAR KCLM 120153Z AUTO 22006KT 10SM CLR M04/M07 A2997 RMK AO2 SLP153 T10441067=
201701120053 METAR KCLM 120053Z AUTO 23004KT 10SM CLR M03/M06 A2994 RMK AO2 SLP144 T10331056=
201701112353 METAR KCLM 112353Z AUTO 00000KT 10SM CLR 00/M09 A2993 RMK AO2 SLP140 T00001094 10006 21044 53023=
201701112253 METAR KCLM 112253Z AUTO 00000KT 10SM CLR 01/M08 A2991 RMK AO2 SLP132 T00061083=
201701112153 METAR KCLM 112153Z AUTO VRB03KT 10SM CLR 01/M08 A2989 RMK AO2 SLP125 T00061083=
201701112053 METAR KCLM 112053Z AUTO 09004KT 10SM CLR 00/M09 A2986 RMK AO2 SLP117 T00001089 51015=
201701111953 METAR KCLM 111953Z AUTO 26003KT 10SM CLR M02/M08 A2986 RMK AO2 SLP114 T10171078=
201701111853 METAR KCLM 111853Z AUTO 24007KT 10SM CLR M03/M08 A2985 RMK AO2 SLP112 T10331083=
201701111753 METAR KCLM 111753Z AUTO 25011KT 10SM CLR M04/M09 A2982 RMK AO2 SLP102 T10441089 11044 21056 51024=
201701111653 METAR KCLM 111653Z AUTO 25011KT 10SM CLR M06/M09 A2980 RMK AO2 SLP095 T10561094=
201701111553 METAR KCLM 111553Z AUTO 25011KT 10SM CLR M06/M09 A2977 RMK AO2 SLP085 T10561094=
201701111453 METAR KCLM 111453Z AUTO 25011KT 10SM SCT085 M06/M09 A2975 RMK AO2 SLP077 T10561094 53010=
201701111353 METAR KCLM 111353Z AUTO 25013KT 10SM CLR M06/M09 A2973 RMK AO2 SLP071 T10561094=
201701111253 METAR KCLM 111253Z AUTO 25011KT 10SM CLR M06/M09 A2972 RMK AO2 SLP068 T10561094=
201701111153 METAR KCLM 111153Z AUTO 26006KT 10SM CLR M05/M09 A2972 RMK AO2 SLP067 70011 T10501094 11017 21056 51011=
201701111053 METAR KCLM 111053Z AUTO VRB06G15KT 10SM CLR M04/M09 A2972 RMK AO2 SLP066 T10441094=
201701110953 METAR KCLM 110953Z AUTO 25006KT 10SM CLR M05/M09 A2970 RMK AO2 SLP060 T10501094=
201701110853 METAR KCLM 110853Z AUTO 24009KT 10SM CLR M04/M09 A2968 RMK AO2 SLP056 T10441094 56014=
201701110753 METAR KCLM 110753Z AUTO 24008KT 10SM CLR M05/M09 A2969 RMK AO2 SLP058 T10501094 400281050=
201701110653 METAR KCLM 110653Z AUTO 08004KT 10SM CLR M02/M12 A2971 RMK AO2 SLP065 T10221122=
201701110553 METAR KCLM 110553Z AUTO 07010G16KT 10SM CLR M02/M11 A2973 RMK AO2 SLP070 T10171111 10000 21017 51005=
201701110453 METAR KCLM 110453Z AUTO VRB05G14KT 10SM CLR M01/M10 A2972 RMK AO2 SLP068 T10111100=
201701110353 METAR KCLM 110353Z AUTO 06008G15KT 020V110 10SM CLR M01/M10 A2971 RMK AO2 SLP065 T10111100=
201701110253 METAR KCLM 110253Z AUTO 06010G22KT 10SM CLR M01/M11 A2971 RMK AO2 SLP064 T10061106 50002=
201701110153 METAR KCLM 110153Z AUTO 06009G16KT 020V080 10SM CLR M01/M10 A2971 RMK AO2 SLP064 T10061100=
201701110053 METAR KCLM 110053Z AUTO VRB06KT 10SM CLR M01/M09 A2971 RMK AO2 SLP064 T10061094=
201701102353 METAR KCLM 102353Z AUTO VRB05KT 10SM CLR 00/M09 A2971 RMK AO2 SLP062 60002 T00001089 10011 21006 53004=
201701102253 METAR KCLM 102253Z AUTO 06007KT 10SM SCT065 01/M07 A2970 RMK AO2 SLP059 T00061067=
201701102153 METAR KCLM 102153Z AUTO 24005KT 10SM OVC060 01/M02 A2969 RMK AO2 SLP056 T00061022=
201701102053 METAR KCLM 102053Z AUTO VRB04KT 10SM OVC060 01/M05 A2970 RMK AO2 SLP058 60002 T00111050 58010=
201701101953 METAR KCLM 101953Z AUTO 24004KT 10SM FEW032 OVC050 00/M01 A2971 RMK AO2 SNE1858 SLP063 P0000 T00001011=
201701101909 SPECI KCLM 101909Z AUTO 22006KT 10SM SCT027 OVC034 M01/M01 A2972 RMK AO2 SNE1858 P0000 T10061011=
201701101858 SPECI KCLM 101858Z AUTO 19004KT 3SM BR FEW009 BKN024 OVC038 M01/M01 A2972 RMK AO2 SNE58 P0000 T10061006=
201701101853 METAR KCLM 101853Z AUTO 20003KT 1 1/4SM -SN BR FEW009 BKN024 OVC038 M01/M01 A2972 RMK AO2 SLP067 P0002 T10061006=
201701101850 SPECI KCLM 101850Z AUTO 00000KT 1SM -SN BR FEW009 SCT013 OVC021 M01/M01 A2972 RMK AO2 P0002=
201701101843 SPECI KCLM 101843Z AUTO 00000KT 1/2SM -SN FZFG SCT009 OVC014 M01/M01 A2973 RMK AO2 P0002 T10061006=
201701101830 SPECI KCLM 101830Z AUTO 07003KT 3/4SM -SN BR BKN009 OVC014 M01/M01 A2973 RMK AO2 P0000 T10061011=
201701101808 SPECI KCLM 101808Z AUTO 06005KT 1SM -SN BR FEW007 OVC013 M01/M01 A2973 RMK AO2 P0000 T10061011=
201701101753 METAR KCLM 101753Z AUTO 07006KT 1/2SM SN FZFG SCT004 OVC011 M01/M01 A2972 RMK AO2 SLP068 P0004 60009 T10061006 10028 21006 51014=
201701101746 SPECI KCLM 101746Z AUTO VRB04KT 1/2SM SN FZFG SCT004 OVC012 M01/M01 A2972 RMK AO2 P0004 T10061006=
201701101735 SPECI KCLM 101735Z AUTO VRB03KT 1/2SM SN FG BKN004 OVC010 00/M01 A2972 RMK AO2 P0003 T00001006=
201701101723 SPECI KCLM 101723Z AUTO 00000KT 1/2SM SN FG SCT004 OVC010 00/00 A2972 RMK AO2 P0003 T00000000=
201701101712 SPECI KCLM 101712Z AUTO VRB04KT 1/2SM SN FG VV011 00/M01 A2972 RMK AO2 P0001 T00001006=
201701101653 METAR KCLM 101653Z AUTO VRB04KT 3/4SM -SN BR BKN009 OVC013 00/00 A2971 RMK AO2 UPB09E12SNE1558B12 CIG 006V012 SLP064 P0001 T00000000=
201701101649 SPECI KCLM 101649Z AUTO VRB05KT 1 1/4SM -SN BR OVC011 00/M01 A2971 RMK AO2 UPB09E12SNE1558B12 P0001=
201701101633 SPECI KCLM 101633Z AUTO 03005KT 1 3/4SM -SN BR BKN008 OVC013 00/00 A2971 RMK AO2 UPB09E12SNE1558B12 CIG 005V011 P0001 T00000000=
201701101624 SPECI KCLM 101624Z AUTO VRB04KT 2 1/2SM -SN BR SCT006 OVC013 00/M01 A2970 RMK AO2 UPB09E12SNE1558B12 P0000 T00001006=
201701101553 METAR KCLM 101553Z AUTO VRB06KT 4SM -SN BR OVC007 01/00 A2968 RMK AO2 SLP054 P0001 T00060000=
201701101549 SPECI KCLM 101549Z AUTO VRB04KT 2 1/2SM -SN BR OVC007 01/00 A2968 RMK AO2 P0001=
201701101502 SPECI KCLM 101502Z AUTO 05007KT 1 1/2SM -SN BR OVC009 01/00 A2966 RMK AO2 P0000 T00060000=
201701101453 METAR KCLM 101453Z AUTO 04007KT 350V080 2SM -SN BR OVC007 01/01 A2966 RMK AO2 RAE12SNB12 CIG 005V010 SLP045 P0003 60003 T00060006 53005=
201701101424 SPECI KCLM 101424Z AUTO VRB05G18KT 2SM -SN BR OVC007 01/01 A2965 RMK AO2 RAE12SNB12 P0001 T00110006=
201701101353 METAR KCLM 101353Z AUTO 00000KT 7SM -RA BKN009 OVC013 02/02 A2964 RMK AO2 RAE1258B49 CIG 008V012 SLP038 P0000 T00170017=
201701101341 SPECI KCLM 101341Z AUTO 19003KT 9SM BKN014 OVC020 02/02 A2963 RMK AO2 RAE1258 P0000 T00220022=
201701101330 SPECI KCLM 101330Z AUTO 00000KT 10SM FEW007 OVC015 03/02 A2963 RMK AO2 RAE1258 P0000 T00280022=
201701101316 SPECI KCLM 101316Z AUTO VRB04KT 10SM SCT009 OVC014 03/02 A2963 RMK AO2 RAE1258 P0000 T00280022=
201701101300 SPECI KCLM 101300Z AUTO VRB06KT 10SM BKN009 OVC016 03/02 A2963 RMK AO2 RAE1258 CIG 006V012 P0000 T00280017=
201701101253 METAR KCLM 101253Z AUTO VRB03KT 10SM -RA BKN013 OVC018 02/02 A2963 RMK AO2 RAB48 SLP038 P0000 T00220017=
201701101153 METAR KCLM 101153Z AUTO 00000KT 10SM OVC020 01/01 A2964 RMK AO2 SLP040 I6000 T00110006 10017 21006 53002=
201701101053 METAR KCLM 101053Z AUTO 23004KT 10SM BKN019 OVC080 01/00 A2964 RMK AO2 SLP039 T00110000=
201701100953 METAR KCLM 100953Z AUTO 24006KT 10SM OVC025 01/00 A2963 RMK AO2 SLP037 T00110000=
201701100853 METAR KCLM 100853Z AUTO 24005KT 10SM BKN026 BKN100 01/01 A2963 RMK AO2 SLP038 I3000 T00060006 58002=
201701100753 METAR KCLM 100753Z AUTO 24005KT 10SM OVC015 01/M01 A2964 RMK AO2 SLP038 T00061006 400561022=
201701100733 SPECI KCLM 100733Z AUTO 23003KT 10SM BKN015 OVC100 01/00 A2964 RMK AO2 T00060000=
201701100653 METAR KCLM 100653Z AUTO 23006KT 10SM OVC013 01/00 A2964 RMK AO2 SLP040 I1000 T00060000=
201701100637 SPECI KCLM 100637Z AUTO 24006KT 10SM BKN013 BKN110 01/00 A2963 RMK AO2 I1000 T00060000=
201701100616 SPECI KCLM 100616Z AUTO 00000KT 10SM SCT013 BKN110 00/00 A2963 RMK AO2 I1000 T00000000=
201701100553 METAR KCLM 100553Z AUTO 23004KT 10SM BKN013 00/00 A2964 RMK AO2 SLP040 I1001 I6001 T00000000 10050 21022 55000=
201701100511 SPECI KCLM 100511Z AUTO 00000KT 10SM BKN013 M01/M01 A2964 RMK AO2 I1000 T10061006=
201701100453 METAR KCLM 100453Z AUTO 00000KT 10SM CLR M01/M01 A2964 RMK AO2 SLP039 T10061006=
201701100353 METAR KCLM 100353Z AUTO 23008KT 10SM SCT012 00/00 A2964 RMK AO2 SLP038 T00000000=
201701100253 METAR KCLM 100253Z AUTO 21003KT 8SM FEW011 M02/M02 A2964 RMK AO2 SLP040 T10171017 58003=
201701100212 SPECI KCLM 100212Z AUTO 24006KT 10SM SCT011 M01/M01 A2965 RMK AO2 T10061006=
201701100153 METAR KCLM 100153Z AUTO 00000KT 10SM OVC011 M01/M01 A2965 RMK AO2 SLP042 T10061006=
201701100142 SPECI KCLM 100142Z AUTO 00000KT 10SM BKN011 00/00 A2965 RMK AO2 T00000000=
201701100053 METAR KCLM 100053Z AUTO 00000KT 8SM FEW070 02/01 A2965 RMK AO2 SLP044 T00170011=
201701092353 METAR KCLM 092353Z AUTO 00000KT 10SM OVC085 05/03 A2965 RMK AO2 SLP042 T00500028 10056 20006 53015=
201701092253 METAR KCLM 092253Z AUTO 00000KT 10SM BKN100 05/03 A2964 RMK AO2 SLP037 T00500033=
201701092153 METAR KCLM 092153Z AUTO 08003KT 10SM CLR 06/02 A2962 RMK AO2 SLP031 T00560022=
201701092053 METAR KCLM 092053Z AUTO 00000KT 10SM CLR 05/03 A2961 RMK AO2 SLP027 T00500033 58002=
201701091953 METAR KCLM 091953Z AUTO 26003KT 10SM CLR 04/02 A2961 RMK AO2 SLP030 T00440022=
201701091853 METAR KCLM 091853Z AUTO 21004KT 10SM CLR 03/01 A2962 RMK AO2 SLP033 T00330011=
201701091753 METAR KCLM 091753Z AUTO 24006KT 10SM CLR 01/00 A2961 RMK AO2 SLP030 60000 T00060000 10033 21011 53017=
201701091653 METAR KCLM 091653Z AUTO 17005KT 10SM SCT085 BKN110 00/M01 A2959 RMK AO2 SLP023 T00001006=
201701091553 METAR KCLM 091553Z AUTO 00000KT 10SM SCT080 BKN100 M01/M01 A2958 RMK AO2 SLP019 T10111011=
201701091453 METAR KCLM 091453Z AUTO VRB04KT 10SM FEW038 BKN060 BKN090 01/01 A2956 RMK AO2 SLP013 60000 T00060006 53009=
201701091353 METAR KCLM 091353Z AUTO 16007KT 10SM CLR 01/01 A2954 RMK AO2 SLP007 T00110006=
201701091253 METAR KCLM 091253Z AUTO 29005KT 10SM CLR 02/02 A2954 RMK AO2 RAE16 SLP006 P0000 T00170017=
201701091223 SPECI KCLM 091223Z AUTO 28008KT 10SM SCT022 02/02 A2953 RMK AO2 RAE16 P0000 T00220017=
201701091201 SPECI KCLM 091201Z AUTO 29008KT 5SM -RA BR OVC024 03/03 A2954 RMK AO2 P0000 T00330028=
201701091153 METAR KCLM 091153Z AUTO 29009KT 7SM -RA OVC030 03/03 A2954 RMK AO2 SLP003 P0003 60020 70027 T00330028 10033 20017 51027=
201701091053 METAR KCLM 091053Z AUTO VRB05KT 9SM -RA FEW021 OVC030 03/03 A2953 RMK AO2 RAB0956 SLP000 P0011 T00330033=
201701091027 SPECI KCLM 091027Z AUTO 26004KT 3SM RA BR FEW016 OVC023 03/03 A2952 RMK AO2 RAB0956 P0009 T00280028=
201701091016 SPECI KCLM 091016Z AUTO 23006KT 2SM +RA BR SCT016 BKN023 OVC036 03/03 A2952 RMK AO2 RAB0956 P0006 T00280028=
201701090953 METAR KCLM 090953Z AUTO 25004KT 9SM FEW008 BKN048 OVC085 02/02 A2948 RMK AO2 RAE50 SLP985 P0004 T00170017=
201701090938 SPECI KCLM 090938Z AUTO 00000KT 7SM -RA SCT008 SCT027 OVC040 02/02 A2946 RMK AO2 P0004 T00220022=
201701090929 SPECI KCLM 090929Z AUTO 00000KT 5SM -RA BR BKN008 BKN014 OVC038 03/02 A2947 RMK AO2 P0003 T00280022=
201701090922 SPECI KCLM 090922Z AUTO 27006KT 6SM -RA BR SCT008 BKN014 OVC038 03/02 A2946 RMK AO2 P0003 T00280022=
201701090914 SPECI KCLM 090914Z AUTO 00000KT 6SM -RA BR SCT010 BKN017 OVC040 03/03 A2946 RMK AO2 P0001 T00280028=
201701090906 SPECI KCLM 090906Z AUTO 00000KT 6SM -RA BR BKN007 BKN015 OVC038 03/03 A2946 RMK AO2 P0001 T00280028=
201701090901 SPECI KCLM 090901Z AUTO 00000KT 6SM -RA BR SCT007 BKN015 OVC037 03/03 A2946 RMK AO2 P0001 T00280028=
201701090853 METAR KCLM 090853Z AUTO 00000KT 9SM -RA BKN006 BKN011 OVC037 03/03 A2946 RMK AO2 SLP977 P0002 60002 T00280028 51016=
201701090753 METAR KCLM 090753Z AUTO 22004KT 7SM -RA OVC006 03/02 A2945 RMK AO2 SLP974 P0000 T00280022 400441028=
201701090658 SPECI KCLM 090658Z AUTO 26006KT 9SM -RA BKN009 BKN047 OVC055 02/02 A2944 RMK AO2 P0000 T00220022=
201701090653 METAR KCLM 090653Z AUTO 27006KT 10SM -RA BKN010 BKN047 OVC055 02/02 A2943 RMK AO2 RAB0558E07B50 SLP968 P0000 T00220022=
201701090617 SPECI KCLM 090617Z AUTO 23004KT 10SM BKN009 BKN060 OVC070 02/02 A2942 RMK AO2 RAB0558E07 P0000 T00220022=
201701090610 SPECI KCLM 090610Z AUTO 27003KT 10SM SCT009 BKN024 OVC060 02/02 A2941 RMK AO2 RAB0558E07 P0000 T00220022=
201701090553 METAR KCLM 090553Z AUTO 23006KT 10SM FEW012 OVC060 02/02 A2941 RMK AO2 RAE27 SLP961 P0001 60003 T00220017 10039 20017 51012=
201701090453 METAR KCLM 090453Z AUTO 25007KT 7SM -RA BKN055 OVC070 02/02 A2941 RMK AO2 RAB17 SLP960 P0002 T00220017=
201701090430 SPECI KCLM 090430Z AUTO 21003KT 10SM -RA FEW018 SCT029 OVC060 02/02 A2939 RMK AO2 RAB17 P0000 T00220022=
201701090405 SPECI KCLM 090405Z AUTO 25004KT 10SM FEW009 BKN019 OVC060 02/02 A2938 RMK AO2 T00220022=
201701090353 METAR KCLM 090353Z AUTO 23004KT 10SM FEW010 BKN048 OVC060 02/02 A2938 RMK AO2 RAE41 SLP951 P0000 T00170017=
201701090330 SPECI KCLM 090330Z AUTO 22003KT 10SM -RA SCT010 BKN038 OVC110 03/02 A2937 RMK AO2 P0000 T00280022=
201701090315 SPECI KCLM 090315Z AUTO 23005KT 10SM -RA BKN010 OVC060 03/03 A2938 RMK AO2 P0000 T00280028=
201701090253 METAR KCLM 090253Z AUTO 24005KT 10SM -RA SCT060 BKN075 OVC095 03/02 A2937 RMK AO2 SLP949 P0000 60000 T00280022 55005=
201701090214 SPECI KCLM 090214Z AUTO 26008KT 10SM -RA SCT014 BKN070 OVC090 03/02 A2937 RMK AO2 P0000 T00280022=
201701090153 METAR KCLM 090153Z AUTO 25009KT 10SM -RA OVC013 03/02 A2937 RMK AO2 SLP948 P0000 T00280022=
201701090053 METAR KCLM 090053Z AUTO 25009KT 10SM -RA OVC012 02/02 A2938 RMK AO2 RAB2358 SLP952 P0000 T00220017=
201701082353 METAR KCLM 082353Z AUTO VRB03KT 10SM OVC013 04/03 A2939 RMK AO2 RAE52 SLP954 P0000 60004 T00390028 10044 20006 56028=
201701082310 SPECI KCLM 082310Z AUTO 09009G21KT 10SM -RA OVC014 04/03 A2941 RMK AO2 P0000 T00390028=
201701082253 METAR KCLM 082253Z AUTO 09008KT 10SM -RA OVC015 04/03 A2940 RMK AO2 RAE2156B20 SLP959 P0001 T00440028=
201701082153 METAR KCLM 082153Z AUTO 00000KT 10SM -RA BKN019 BKN044 OVC060 03/02 A2942 RMK AO2 SLP967 P0003 T00280022=
201701082125 SPECI KCLM 082125Z AUTO 00000KT 4SM -RA BR BKN023 BKN036 OVC055 02/02 A2944 RMK AO2 P0003 T00220017=
201701082053 METAR KCLM 082053Z AUTO 22003KT 6SM -RA BR FEW028 SCT042 OVC055 03/01 A2947 RMK AO2 RAB33 SLP982 P0000 60000 T00280006 58056=
201701081953 METAR KCLM 081953Z AUTO 23006KT 10SM FEW025 BKN110 02/M01 A2953 RMK AO2 SLP001 T00221006=
201701081853 METAR KCLM 081853Z AUTO 23005KT 10SM CLR 01/M01 A2960 RMK AO2 SLP025 T00111011=
201701081753 METAR KCLM 081753Z AUTO 23004KT 10SM SCT080 01/M01 A2964 RMK AO2 PRESFR SLP039 T00111011 10022 21011 56045=
201701081709 SPECI KCLM 081709Z AUTO 23004KT 10SM SCT016 01/M01 A2967 RMK AO2 T00111011=
201701081653 METAR KCLM 081653Z AUTO 00000KT 10SM BKN017 02/M01 A2967 RMK AO2 SLP050 T00171011=
201701081553 METAR KCLM 081553Z AUTO 13004KT 10SM OVC019 02/M02 A2972 RMK AO2 SLP067 T00171017=
201701081453 METAR KCLM 081453Z AUTO 15005KT 10SM OVC021 01/M03 A2977 RMK AO2 SLP085 T00111028 58039=
201701081353 METAR KCLM 081353Z AUTO 00000KT 10SM BKN023 OVC060 M01/M02 A2982 RMK AO2 SLP100 T10061017=
201701081253 METAR KCLM 081253Z AUTO 00000KT 10SM BKN065 BKN080 BKN095 M01/M03 A2986 RMK AO2 SLP113 T10111028=
201701081153 METAR KCLM 081153Z AUTO 21003KT 10SM OVC070 M01/M03 A2989 RMK AO2 UPB17E27 SLP124 P0000 60000 T10111028 10011 21028 58003=
201701081053 METAR KCLM 081053Z AUTO 20004KT 10SM FEW110 M02/M04 A2990 RMK AO2 SLP129 T10221039=
201701080953 METAR KCLM 080953Z AUTO 00000KT 10SM FEW060 M01/M03 A2991 RMK AO2 SLP130 T10111033=
201701080853 METAR KCLM 080853Z AUTO 00000KT 10SM BKN065 OVC075 M01/M03 A2990 RMK AO2 SLP127 60000 T10061028 51012=
201701080753 METAR KCLM 080753Z AUTO 24003KT 10SM BKN065 OVC080 00/M03 A2989 RMK AO2 SLP125 T00001028 400281056=
201701080653 METAR KCLM 080653Z AUTO 00000KT 10SM OVC090 00/M03 A2988 RMK AO2 UPB25E35 SLP121 P0000 T00001033=
201701080553 METAR KCLM 080553Z AUTO 25003KT 10SM OVC070 01/M03 A2986 RMK AO2 SLP115 T00061033 10022 20006 53024=
201701080453 METAR KCLM 080453Z AUTO 13003KT 10SM FEW060 OVC085 01/M04 A2984 RMK AO2 SLP108 T00111044=
201701080353 METAR KCLM 080353Z AUTO 21003KT 10SM OVC100 02/M06 A2982 RMK AO2 SLP100 T00221061=
201701080253 METAR KCLM 080253Z AUTO 25010KT 10SM FEW075 BKN100 OVC120 02/M05 A2979 RMK AO2 SLP092 T00171050 51013=
201701080153 METAR KCLM 080153Z AUTO 24003KT 10SM OVC060 01/M04 A2979 RMK AO2 SLP090 T00061044=
201701080053 METAR KCLM 080053Z AUTO 00000KT 10SM OVC065 01/M06 A2977 RMK AO2 SLP083 T00111056=
201701072353 METAR KCLM 072353Z AUTO 16003KT 10SM BKN090 02/M06 A2976 RMK AO2 SLP079 T00171056 10028 21017 56006=
201701072253 METAR KCLM 072253Z AUTO 11004KT 10SM OVC110 03/M06 A2976 RMK AO2 SLP079 T00281061=
201701072153 METAR KCLM 072153Z AUTO 10009KT 10SM BKN070 OVC085 03/M06 A2976 RMK AO2 SLP081 T00281061=
201701072053 METAR KCLM 072053Z AUTO 00000KT 10SM OVC070 02/M04 A2977 RMK AO2 SLP085 T00171044 56021=
201701071953 METAR KCLM 071953Z AUTO 00000KT 10SM OVC085 02/M06 A2979 RMK AO2 SLP090 T00221056=
201701071853 METAR KCLM 071853Z AUTO 00000KT 10SM OVC085 01/M02 A2982 RMK AO2 SLP099 T00111017=
201701071753 METAR KCLM 071753Z AUTO 16003KT 10SM CLR M01/M03 A2983 RMK AO2 SLP106 I6000 T10111028 11011 21056 56015=
201701071653 METAR KCLM 071653Z AUTO 00000KT 10SM FEW095 M04/M05 A2984 RMK AO2 SLP107 T10441050=
201701071553 METAR KCLM 071553Z AUTO 00000KT 10SM CLR M05/M06 A2986 RMK AO2 SLP114 I1000 T10501061=
201701071453 METAR KCLM 071453Z AUTO 24004KT 10SM CLR M04/M05 A2988 RMK AO2 SLP121 T10441050 56015=
201701071353 METAR KCLM 071353Z AUTO 00000KT 10SM CLR M05/M06 A2988 RMK AO2 SLP123 T10501061=
201701071253 METAR KCLM 071253Z AUTO 23007KT 10SM CLR M02/M06 A2990 RMK AO2 SLP129 T10221061=
201701071153 METAR KCLM 071153Z AUTO 23006KT 10SM CLR M03/M06 A2992 RMK AO2 SLP136 T10281061 10006 21039 58004=
201701071053 METAR KCLM 071053Z AUTO 22005KT 10SM CLR M02/M06 A2994 RMK AO2 SLP140 T10171061=
201701070953 METAR KCLM 070953Z AUTO 26009KT 10SM CLR M01/M06 A2994 RMK AO2 SLP140 T10061061=
201701070853 METAR KCLM 070853Z AUTO 25009KT 10SM CLR M01/M06 A2994 RMK AO2 SLP140 T10061056 58003=
201701070753 METAR KCLM 070753Z AUTO 24006KT 10SM CLR M01/M06 A2994 RMK AO2 SLP143 T10111056 400721028=
201701070653 METAR KCLM 070653Z AUTO 25008KT 10SM CLR M01/M05 A2995 RMK AO2 SLP144 T10061050=
201701070553 METAR KCLM 070553Z AUTO 25010KT 10SM CLR 00/M04 A2995 RMK AO2 SLP144 T00001044 10033 21017 55001=
201701070453 METAR KCLM 070453Z AUTO 25009KT 10SM CLR 01/M04 A2994 RMK AO2 SLP143 T00061039=
201701070353 METAR KCLM 070353Z AUTO 26013KT 10SM CLR 01/M03 A2995 RMK AO2 SLP145 T00061033=
201701070253 METAR KCLM 070253Z AUTO 25008KT 10SM CLR 01/M02 A2995 RMK AO2 SLP145 T00111022 56004=
201701070153 METAR KCLM 070153Z AUTO 25005KT 10SM CLR M01/M03 A2995 RMK AO2 SLP144 T10111028=
201701070053 METAR KCLM 070053Z AUTO 24005KT 10SM CLR 01/M02 A2995 RMK AO2 SLP145 T00061022=
201701062353 METAR KCLM 062353Z AUTO 28005KT 10SM CLR 03/M01 A2996 RMK AO2 SLP149 T00331011 10072 20033 53001=
201701062253 METAR KCLM 062253Z AUTO 30004KT 10SM FEW060 05/M02 A2996 RMK AO2 SLP149 T00501017=
201701062153 METAR KCLM 062153Z AUTO 04004KT 10SM CLR 05/M02 A2996 RMK AO2 SLP146 T00501022=
201701062053 METAR KCLM 062053Z AUTO 00000KT 10SM CLR 07/M05 A2996 RMK AO2 SLP148 T00671050 58010=
201701061953 METAR KCLM 061953Z AUTO 14004KT 10SM FEW060 06/M03 A2998 RMK AO2 SLP155 T00561028=
201701061853 METAR KCLM 061853Z AUTO 28003KT 10SM SCT060 04/M03 A2999 RMK AO2 SLP159 T00441033=
201701061753 METAR KCLM 061753Z AUTO VRB03KT 10SM OVC065 03/M04 A2999 RMK AO2 SLP158 T00331044 10044 21011 53002=
201701061653 METAR KCLM 061653Z AUTO 17005KT 10SM BKN060 00/M04 A2998 RMK AO2 SLP155 T00001044=
201701061553 METAR KCLM 061553Z AUTO 00000KT 10SM OVC055 00/M06 A2998 RMK AO2 SLP155 T00001056=
201701061453 METAR KCLM 061453Z AUTO 12008KT 10SM OVC055 M01/M06 A2998 RMK AO2 SLP156 T10061056 58021=
201701061353 METAR KCLM 061353Z AUTO 15003KT 10SM OVC055 00/M06 A3001 RMK AO2 SLP164 T00001056=
201701061253 METAR KCLM 061253Z AUTO 22004KT 10SM OVC055 M01/M06 A3002 RMK AO2 SLP170 T10061056=
201701061153 METAR KCLM 061153Z AUTO 24008KT 10SM OVC055 M02/M06 A3005 RMK AO2 SLP177 T10171061 11011 21033 58011=
201701061053 METAR KCLM 061053Z AUTO 24008KT 10SM BKN055 M01/M06 A3006 RMK AO2 SLP182 T10111056=
201701060953 METAR KCLM 060953Z AUTO 24008KT 10SM CLR M02/M06 A3007 RMK AO2 SLP186 T10171056=
201701060853 METAR KCLM 060853Z AUTO 24008KT 10SM CLR M02/M06 A3008 RMK AO2 SLP188 T10171056 56024=
201701060753 METAR KCLM 060753Z AUTO 24008KT 10SM CLR M01/M06 A3010 RMK AO2 SLP195 T10111056 400331056=
201701060653 METAR KCLM 060653Z AUTO 24007KT 10SM CLR M02/M05 A3012 RMK AO2 SLP202 T10171050=
201701060553 METAR KCLM 060553Z AUTO 24007KT 10SM CLR M02/M05 A3015 RMK AO2 SLP214 T10171050 10022 21044 55007=
201701060453 METAR KCLM 060453Z AUTO 24005KT 10SM CLR M03/M05 A3015 RMK AO2 SLP213 T10331050=
201701060353 METAR KCLM 060353Z AUTO 23006KT 10SM CLR M02/M05 A3015 RMK AO2 SLP215 T10221050=
201701060253 METAR KCLM 060253Z AUTO 23005KT 10SM CLR M02/M05 A3017 RMK AO2 SLP221 T10171050 56015=
201701060153 METAR KCLM 060153Z AUTO 25006KT 10SM CLR M02/M05 A3019 RMK AO2 SLP228 T10171050=
201701060053 METAR KCLM 060053Z AUTO 21003KT 10SM CLR M02/M05 A3019 RMK AO2 SLP227 T10221050=
201701052353 METAR KCLM 052353Z AUTO 00000KT 10SM CLR 02/M03 A3022 RMK AO2 SLP235 T00221028 10033 21022 56013=
201701052253 METAR KCLM 052253Z AUTO 10003KT 10SM CLR 03/M03 A3023 RMK AO2 SLP239 T00281028=
201701052153 METAR KCLM 052153Z AUTO 00000KT 10SM CLR 03/M03 A3024 RMK AO2 SLP242 T00281033=
201701052053 METAR KCLM 052053Z AUTO 21003KT 10SM CLR 02/M06 A3026 RMK AO2 SLP248 T00221056 58015=
201701051953 METAR KCLM 051953Z AUTO 36004KT 10SM CLR 02/M04 A3027 RMK AO2 SLP252 T00221039=
201701051853 METAR KCLM 051853Z AUTO 24007KT 10SM CLR M01/M06 A3029 RMK AO2 SLP262 T10061061=
201701051753 METAR KCLM 051753Z AUTO 23007KT 10SM CLR M02/M07 A3030 RMK AO2 SLP264 T10221067 11022 21056 58003=
201701051653 METAR KCLM 051653Z AUTO 23007KT 10SM CLR M04/M08 A3031 RMK AO2 SLP267 T10391078=
201701051553 METAR KCLM 051553Z AUTO 24009KT 10SM CLR M04/M08 A3031 RMK AO2 SLP267 T10441083=
201701051453 METAR KCLM 051453Z AUTO 24008KT 10SM CLR M05/M08 A3031 RMK AO2 SLP267 T10501083 58014=
201701051353 METAR KCLM 051353Z AUTO 24006KT 10SM CLR M06/M09 A3032 RMK AO2 SLP272 T10561089=
201701051253 METAR KCLM 051253Z AUTO 23008KT 10SM CLR M04/M08 A3034 RMK AO2 SLP278 T10391083=
201701051153 METAR KCLM 051153Z AUTO 23008KT 10SM CLR M04/M08 A3035 RMK AO2 SLP281 T10391083 11033 21039 58002=
201701051053 METAR KCLM 051053Z AUTO 24009KT 10SM CLR M04/M08 A3036 RMK AO2 SLP283 T10391083=
201701050953 METAR KCLM 050953Z AUTO 23009KT 10SM CLR M04/M08 A3036 RMK AO2 SLP285 T10391083=
201701050853 METAR KCLM 050853Z AUTO 23008KT 10SM CLR M04/M08 A3036 RMK AO2 SLP283 T10391083 58006=
201701050753 METAR KCLM 050753Z AUTO 23008KT 10SM CLR M04/M08 A3037 RMK AO2 SLP287 T10391083 400281089=
201701050653 METAR KCLM 050653Z AUTO 24011KT 10SM CLR M03/M08 A3038 RMK AO2 SLP291 T10331083=
201701050553 METAR KCLM 050553Z AUTO 24009KT 10SM CLR M03/M08 A3038 RMK AO2 SLP290 T10331078 10011 21044 51004=
201701050453 METAR KCLM 050453Z AUTO 24011KT 10SM CLR M03/M08 A3037 RMK AO2 SLP289 T10331078=
201701050353 METAR KCLM 050353Z AUTO 24008KT 10SM CLR M03/M08 A3037 RMK AO2 SLP288 T10331078=
201701050253 METAR KCLM 050253Z AUTO 24009KT 10SM CLR M03/M08 A3036 RMK AO2 SLP286 T10331078 53012=
201701050153 METAR KCLM 050153Z AUTO 23007KT 10SM CLR M04/M08 A3035 RMK AO2 SLP282 T10391078=
201701050053 METAR KCLM 050053Z AUTO 20003KT 10SM CLR M03/M08 A3034 RMK AO2 SLP279 T10281078=
201701042353 METAR KCLM 042353Z AUTO 13004KT 10SM CLR 01/M08 A3033 RMK AO2 SLP275 T00111083 10028 20000 53006=
201701042253 METAR KCLM 042253Z AUTO 13006KT 10SM CLR 02/M08 A3032 RMK AO2 SLP270 T00221083=
201701042153 METAR KCLM 042153Z AUTO 08004KT 10SM CLR 02/M09 A3032 RMK AO2 SLP270 T00221094=
201701042053 METAR KCLM 042053Z AUTO 10006KT 10SM CLR 02/M09 A3031 RMK AO2 SLP268 T00221089 51004=
201701041953 METAR KCLM 041953Z AUTO 09006KT 10SM CLR 02/M09 A3031 RMK AO2 SLP267 T00171094=
201701041853 METAR KCLM 041853Z AUTO VRB06KT 10SM CLR 02/M09 A3031 RMK AO2 SLP267 T00171094=
201701041753 METAR KCLM 041753Z AUTO 14008KT 10SM CLR 00/M09 A3030 RMK AO2 SLP264 T00001089 10000 21050 53019=
201701041653 METAR KCLM 041653Z AUTO 13006KT 10SM CLR M02/M11 A3027 RMK AO2 SLP256 T10221111=
201701041553 METAR KCLM 041553Z AUTO 12007KT 10SM CLR M04/M12 A3025 RMK AO2 SLP248 T10391122=
201701041453 METAR KCLM 041453Z AUTO 14010KT 10SM CLR M04/M12 A3024 RMK AO2 SLP244 T10391117 53002=
201701041353 METAR KCLM 041353Z AUTO 12010KT 10SM CLR M04/M11 A3024 RMK AO2 SLP242 T10391111=
201701041253 METAR KCLM 041253Z AUTO 12010KT 10SM CLR M04/M11 A3023 RMK AO2 SLP241 T10441111=
201701041153 METAR KCLM 041153Z AUTO 12010KT 10SM CLR M04/M11 A3023 RMK AO2 SLP242 I6000 T10441111 11033 21089 56012=
201701041053 METAR KCLM 041053Z AUTO 11009KT 10SM CLR M04/M11 A3024 RMK AO2 SLP243 T10391106=
201701040953 METAR KCLM 040953Z AUTO 14007KT 10SM CLR M07/M09 A3025 RMK AO2 SLP249 T10721094=
201701040853 METAR KCLM 040853Z AUTO 13006KT 10SM CLR M08/M09 A3027 RMK AO2 SLP254 I1000 I3000 T10781089 58009=
201701040753 METAR KCLM 040753Z AUTO 00000KT 10SM CLR M08/M09 A3029 RMK AO2 SLP261 T10781089 410061083=
201701040653 METAR KCLM 040653Z AUTO 22004KT 10SM FEW037 M07/M08 A3030 RMK AO2 SLP263 T10671083=
201701040553 METAR KCLM 040553Z AUTO 22004KT 10SM CLR M07/M09 A3030 RMK AO2 SLP263 T10671089 11022 21072 58009=
201701040453 METAR KCLM 040453Z AUTO 21006KT 10SM CLR M06/M09 A3031 RMK AO2 SLP269 T10561089=
201701040353 METAR KCLM 040353Z AUTO 23004KT 10SM SCT045 M05/M09 A3032 RMK AO2 SLP271 T10501089=
201701040253 METAR KCLM 040253Z AUTO 00000KT 10SM BKN046 M06/M09 A3033 RMK AO2 SLP273 T10561094 58003=
201701040153 METAR KCLM 040153Z AUTO 00000KT 10SM CLR M06/M09 A3033 RMK AO2 SLP275 T10561089=
201701040053 METAR KCLM 040053Z AUTO 19004KT 10SM CLR M04/M09 A3033 RMK AO2 SLP276 T10391089=
201701032353 METAR KCLM 032353Z AUTO 15005KT 10SM CLR M02/M10 A3033 RMK AO2 SLP276 T10221100 11006 21022 56001=
201701032253 METAR KCLM 032253Z AUTO 11005KT 10SM SCT039 M01/M09 A3034 RMK AO2 SLP277 T10111094=
201701032153 METAR KCLM 032153Z AUTO 18003KT 10SM FEW040 M01/M10 A3033 RMK AO2 SLP274 T10111100=
201701032053 METAR KCLM 032053Z AUTO 00000KT 10SM OVC039 M01/M11 A3034 RMK AO2 SLP277 T10111106 51003=
201701031953 METAR KCLM 031953Z AUTO VRB03KT 10SM OVC038 M02/M10 A3034 RMK AO2 SLP277 T10171100=
201701031853 METAR KCLM 031853Z AUTO 04004KT 10SM OVC037 M02/M09 A3034 RMK AO2 SLP277 T10171094=
201701031753 METAR KCLM 031753Z AUTO 07004KT 10SM OVC038 M02/M09 A3033 RMK AO2 SLP274 T10171094 11006 21022 51004=
201701031653 METAR KCLM 031653Z AUTO VRB04KT 10SM OVC040 M02/M10 A3033 RMK AO2 SLP272 T10171100=
201701031553 METAR KCLM 031553Z AUTO VRB06KT 10SM OVC040 M02/M09 A3032 RMK AO2 SLP270 T10171094=
201701031453 METAR KCLM 031453Z AUTO 07007KT 10SM OVC039 M02/M09 A3032 RMK AO2 SLP269 T10171094 53011=
201701031353 METAR KCLM 031353Z AUTO VRB04KT 10SM OVC038 M01/M08 A3031 RMK AO2 SLP267 T10111083=
201701031253 METAR KCLM 031253Z AUTO VRB05KT 10SM OVC039 M01/M08 A3029 RMK AO2 SLP262 T10111083=
201701031153 METAR KCLM 031153Z AUTO 06007KT 350V090 10SM OVC037 M01/M08 A3028 RMK AO2 SLP258 T10061083 10000 21022 51016=
201701031053 METAR KCLM 031053Z AUTO 04004KT 10SM OVC036 M01/M07 A3027 RMK AO2 SLP253 T10111067=
201701030953 METAR KCLM 030953Z AUTO 09003KT 10SM OVC037 M02/M06 A3025 RMK AO2 SLP247 T10171061=
201701030853 METAR KCLM 030853Z AUTO 10003KT 10SM OVC041 M02/M07 A3024 RMK AO2 SLP242 T10171067 51013=
201701030753 METAR KCLM 030753Z AUTO 13003KT 10SM OVC041 M02/M07 A3022 RMK AO2 SLP238 T10171067 400111017=
201701030653 METAR KCLM 030653Z AUTO 11004KT 10SM OVC040 M01/M08 A3021 RMK AO2 SLP234 T10061078=
201701030553 METAR KCLM 030553Z AUTO 08003KT 10SM OVC039 M01/M07 A3020 RMK AO2 SLP229 T10061067 10006 21017 53020=
201701030453 METAR KCLM 030453Z AUTO 07005KT 10SM OVC040 00/M08 A3018 RMK AO2 SLP223 T00001078=
201701030353 METAR KCLM 030353Z AUTO 09004KT 10SM OVC043 00/M08 A3016 RMK AO2 SLP215 T00001078=
201701030253 METAR KCLM 030253Z AUTO VRB06KT 10SM OVC045 00/M08 A3014 RMK AO2 SLP209 T00001083 51015=
201701030153 METAR KCLM 030153Z AUTO 00000KT 10SM OVC046 M01/M07 A3013 RMK AO2 SLP205 T10111072=
201701030053 METAR KCLM 030053Z AUTO 00000KT 10SM OVC050 M01/M08 A3011 RMK AO2 SLP200 T10111078=
201701022353 METAR KCLM 022353Z AUTO 10004KT 10SM OVC047 00/M09 A3009 RMK AO2 SLP194 T00001089 10000 21006 53015=
201701022253 METAR KCLM 022253Z AUTO 10005KT 10SM OVC047 00/M09 A3008 RMK AO2 SLP188 T00001089=
201701022153 METAR KCLM 022153Z AUTO VRB05KT 10SM OVC045 00/M09 A3007 RMK AO2 SLP184 T00001089=
201701022053 METAR KCLM 022053Z AUTO 07005KT 10SM OVC047 00/M09 A3005 RMK AO2 SLP179 T00001089 51010=
201701021953 METAR KCLM 021953Z AUTO 08009KT 10SM OVC046 00/M09 A3005 RMK AO2 SLP178 T00001089=
201701021853 METAR KCLM 021853Z AUTO 08007KT 350V090 10SM OVC049 00/M09 A3004 RMK AO2 SLP176 T00001089=
201701021753 METAR KCLM 021753Z AUTO 07007G15KT 030V100 10SM OVC047 M01/M09 A3002 RMK AO2 SLP169 T10061089 10006 21006 53017=
201701021653 METAR KCLM 021653Z AUTO VRB06KT 10SM OVC048 M01/M08 A3000 RMK AO2 SLP161 T10061083=
201701021553 METAR KCLM 021553Z AUTO 07007G15KT 020V090 10SM OVC050 M01/M09 A2998 RMK AO2 SLP155 T10061089=
201701021453 METAR KCLM 021453Z AUTO 07009G18KT 10SM OVC055 00/M09 A2997 RMK AO2 SLP151 T00001089 53015=
201701021353 METAR KCLM 021353Z AUTO VRB05G14KT 10SM OVC050 00/M09 A2995 RMK AO2 SLP146 T00001089=
201701021253 METAR KCLM 021253Z AUTO 06009G19KT 10SM OVC050 00/M09 A2994 RMK AO2 SLP140 T00001089=
201701021153 METAR KCLM 021153Z AUTO 06007KT 030V110 10SM OVC050 01/M08 A2992 RMK AO2 SLP136 70005 T00061083 10011 20006 51008=
201701021053 METAR KCLM 021053Z AUTO 06008G15KT 10SM OVC050 01/M09 A2992 RMK AO2 SLP136 T00061089=
201701020953 METAR KCLM 020953Z AUTO 07010G20KT 030V100 10SM OVC050 01/M08 A2991 RMK AO2 SLP131 T00061083=
201701020853 METAR KCLM 020853Z AUTO 06010G22KT 030V090 10SM OVC050 01/M08 A2990 RMK AO2 SLP127 T00061083 51008=
201701020753 METAR KCLM 020753Z AUTO 07010G24KT 040V120 10SM OVC050 01/M07 A2989 RMK AO2 PK WND 06027/0737 SLP126 T00111072 400331006=
201701020653 METAR KCLM 020653Z AUTO 07014G23KT 030V100 10SM OVC050 01/M08 A2988 RMK AO2 PK WND 06026/0642 SLP121 T00111078=
201701020553 METAR KCLM 020553Z AUTO 07010G19KT 020V090 10SM OVC050 01/M08 A2987 RMK AO2 SLP119 T00111078 10028 20011 51013=
201701020453 METAR KCLM 020453Z AUTO 06010G19KT 10SM SCT049 OVC060 01/M07 A2987 RMK AO2 SLP117 T00111072=
201701020353 METAR KCLM 020353Z AUTO 05014G25KT 010V080 10SM FEW050 OVC060 02/M08 A2985 RMK AO2 SLP112 T00171078=
201701020253 METAR KCLM 020253Z AUTO 06011G22KT 010V090 10SM OVC060 02/M08 A2984 RMK AO2 PK WND 03026/0237 SLP106 T00171078 51013=
201701020153 METAR KCLM 020153Z AUTO 06009G21KT 020V090 10SM SCT049 OVC065 02/M07 A2983 RMK AO2 SLP103 T00221072=
201701020100 METAR KCLM NIL=
201701020000 METAR KCLM NIL=
201701012300 METAR KCLM NIL=
201701012200 METAR KCLM NIL=
201701012100 METAR KCLM NIL=
201701012000 METAR KCLM NIL=
201701011900 METAR KCLM NIL=
201701011800 METAR KCLM NIL=
201701011700 METAR KCLM NIL=
201701011600 METAR KCLM NIL=
201701011500 METAR KCLM NIL=
201701011400 METAR KCLM NIL=
201701011300 METAR KCLM NIL=
201701011200 METAR KCLM NIL=
201701011100 METAR KCLM NIL=
201701011000 METAR KCLM NIL=
201701010900 METAR KCLM NIL=
201701010800 METAR KCLM NIL=
201701010700 METAR KCLM NIL=
201701010600 METAR KCLM NIL=
201701010500 METAR KCLM NIL=
201701010400 METAR KCLM NIL=
201701010300 METAR KCLM NIL=
201701010200 METAR KCLM NIL=
201701010100 METAR KCLM NIL=
201701010000 METAR KCLM NIL=

# No short TAF reports from KCLM in databse.

###################################
#  large TAF from KCLM
###################################
201701312320 TAF KCLM 312320Z 0100/0124 08005KT P6SM FEW250 FM010300 VRB04KT
                       P6SM FEW250 FM011700 10012KT P6SM FEW250=
201701311723 TAF KCLM 311723Z 3118/0118 08006KT P6SM FEW060 FM010300 VRB04KT
                       P6SM SKC=
201701311328 KCLM 311328Z 3113/0112 11005KT P6SM SKC FM312000 10010KT P6SM SCT060=
201701311120 TAF KCLM 311120Z 3112/0112 16007KT P6SM BKN060 FM312000 10010KT
                       P6SM SCT060=
201701310520 TAF KCLM 310520Z 3106/0106 VRB03KT P6SM OVC020 FM311000 24007KT
                       P6SM BKN010 FM312000 14010KT P6SM SCT025=
201701302326 TAF KCLM 302326Z 3100/3124 09006KT P6SM FEW020 BKN120 FM310300
                       25005KT P6SM FEW020 BKN120 FM311000 23004KT
                       P6SM BKN015 FM311900 09010KT P6SM SCT025=
201701301723 TAF KCLM 301723Z 3018/3118 21003KT P6SM SCT030 BKN150
                      TEMPO 3018/3021 BKN030 OVC150 FM302100 03005KT
                       P6SM SCT035 BKN150 FM310300 25005KT P6SM
                       SCT025 BKN150 FM311100 23004KT P6SM BKN015=
201701301355 KCLM 301355Z 3014/3112 26005KT P6SM SCT025 SCT150
                      TEMPO 3014/3017 BKN025 BKN150 FM301700 27005KT
                       P6SM SCT025 OVC120 FM302000 31007KT P6SM
                       OVC120 FM310300 27007KT P6SM SCT025 BKN150=
201701301120 TAF KCLM 301120Z 3012/3112 26005KT P6SM OVC025 FM302000 31007KT
                       P6SM BKN025 OVC035 FM310100 27007KT P6SM
                       SCT025 BKN040=
201701300520 TAF KCLM 300520Z 3006/3106 27006KT P6SM SCT015 BKN020 FM301000
                       26005KT P6SM BKN007 OVC015 FM302000 31007KT
                       P6SM BKN015 OVC035=
201701292331 TAF KCLM 292331Z 3000/3024 27006KT P6SM VCSH SCT035 BKN120 FM300400
                       26006KT P6SM BKN025 OVC050=
201701291732 TAF KCLM 291732Z 2918/3018 00000KT P6SM OVC150
                      TEMPO 2919/2921 20014G23KT OVC100 FM292100
                       28006KT P6SM -RA OVC030 FM300200 28009KT
                       P6SM OVC019=
201701291120 TAF KCLM 291120Z 2912/3012 VRB03KT P6SM BKN160 OVC220 FM292000
                       29007KT P6SM VCSH OVC020
                      TEMPO 2920/2924 3SM -RA BR OVC015 FM300000
                       27008KT P6SM SCT010 OVC015 FM300800 25006KT
                       P6SM OVC010=
201701290520 TAF KCLM 290520Z 2906/3006 09004KT P6SM BKN160 OVC220 FM292000
                       29007KT P6SM VCSH OVC020
                      TEMPO 2920/2924 3SM -RA BR OVC015 FM300000
                       27005KT P6SM SCT010 OVC015=
201701282322 TAF KCLM 282322Z 2900/2924 09004KT P6SM BKN160 OVC220 FM292000
                       29007KT P6SM VCSH OVC020=
201701281723 TAF KCLM 281723Z 2818/2918 00000KT 6SM BR FEW009 BKN150 FM282100
                       VRB03KT P6SM SCT150 OVC200 FM291200 VRB03KT
                       P6SM OVC004 FM291500 VRB03KT P6SM SCT150
                       OVC200=
201701281200 KCLM 281200Z 2812/2912 20003KT P6SM BKN007 OVC200 FM281700 VRB03KT
                       P6SM OVC200 FM290600 23003KT P6SM OVC200=
201701281120 TAF KCLM 281120Z 2812/2912 20003KT P6SM BKN200 FM281300 VRB03KT
                       P6SM OVC200 FM281700 VRB03KT P6SM OVC200
                       FM290600 23003KT P6SM OVC200=
201701280520 TAF KCLM 280520Z 2806/2906 VRB03KT P6SM OVC200 FM281100 20003KT
                       P6SM OVC009 FM281300 VRB03KT P6SM OVC004
                       FM281700 VRB03KT P6SM OVC200=
201701272320 TAF KCLM 272320Z 2800/2824 00000KT P6SM SCT012 OVC200 FM280300
                       23003KT P6SM OVC200 FM280600 VRB03KT P6SM
                       OVC200 FM281100 20003KT P6SM OVC009 FM281300
                       VRB03KT P6SM OVC004 FM281700 VRB03KT P6SM
                       OVC200=
201701271726 TAF KCLM 271726Z 2718/2818 23004KT P6SM BKN200 FM271900 VRB03KT
                       P6SM BKN200 FM280300 VRB03KT P6SM OVC200=
201701271140 TAF KCLM 271140Z 2712/2812 23004KT P6SM VCFG FEW008 SCT015 SCT100
                       TEMPO 2712/2716 FEW008 BKN015 BKN100 FM271800
                       VRB03KT P6SM FEW018 SCT050 SCT100 FM272000
                       VRB03KT P6SM SCT100 BKN200 FM280600 22004KT
                       P6SM SCT100 BKN200=
201701270914 KCLM 270914Z 2709/2806 23004KT P6SM VCFG SCT006 SCT012 OVC200
                      TEMPO 2709/2713 BKN006 BKN012 OVC200 FM271800
                       VRB03KT P6SM OVC200=
201701270540 TAF KCLM 270540Z 2706/2806 23004KT P6SM VCFG SCT009 OVC200
                      TEMPO 2706/2709 4SM BR BKN009 OVC200 FM270900
                       23004KT 2SM BR SCT004 OVC200
                      TEMPO 2711/2715 3/4SM BR VV004 FM271800 VRB03KT
                       P6SM OVC200=
201701270258 KCLM 270258Z 2703/2724 VRB03KT 6SM BR SCT010 OVC200
                      TEMPO 2703/2706 4SM BR BKN010 OVC200 FM270600
                       VRB03KT 2SM BR OVC005
                      TEMPO 2710/2714 1/2SM FG VV002 FM271800 VRB03KT
                       5SM BR BKN008 OVC200 FM272000 VRB03KT P6SM
                       SCT100 OVC200=
201701262334 TAF KCLM 262334Z 2700/2724 VRB03KT P6SM OVC015 FM270200 VRB03KT
                       P6SM BKN200=
201701261742 TAF KCLM 261742Z 2618/2718 VRB03KT P6SM SCT015 BKN045 FM262300
                       VRB03KT P6SM FEW050 BKN100 FM270600 VRB03KT
                       P6SM SCT100 BKN200=
201701261445 KCLM 261445Z 2615/2712 25005KT P6SM BKN009 OVC070 FM261700 VRB03KT
                       P6SM SCT010 BKN070 FM261900 VRB03KT P6SM
                       SCT025 OVC100 FM262100 VRB03KT P6SM FEW050
                       BKN100 OVC200 FM270600 VRB03KT P6SM SCT100
                       BKN200=
201701261222 KCLM 261222Z 2612/2712 VRB03KT P6SM SCT015 OVC080
                      TEMPO 2612/2616 BKN015 OVC080 FM261800 VRB03KT
                       P6SM SCT025 OVC100 FM262100 VRB03KT P6SM
                       FEW050 BKN100 OVC200 FM270600 VRB03KT P6SM
                       SCT100 BKN200=
201701261140 TAF KCLM 261140Z 2612/2712 VRB03KT P6SM OVC015 FM261900 VRB03KT
                       P6SM BKN025 OVC050 FM262100 VRB03KT P6SM
                       SCT035 BKN050 OVC100 FM270300 VRB03KT P6SM
                       SCT050 BKN100 OVC200=
201701260928 KCLM 260928Z 2609/2706 VRB03KT P6SM SCT018 BKN035 OVC200
                      TEMPO 2609/2613 BKN018 OVC035 FM261800 VRB03KT
                       P6SM SCT028 BKN100 BKN200 FM270000 VRB03KT
                       P6SM SCT100 BKN200=
201701260658 KCLM 260658Z 2607/2706 VRB03KT P6SM OVC020 FM261800 VRB03KT P6SM
                       SCT028 BKN100 BKN200 FM270000 VRB03KT P6SM
                       SCT100 BKN200=
201701260542 KCLM 260542Z 2606/2706 VRB03KT P6SM SCT025 BKN100 BKN200
                      TEMPO 2606/2609 BKN028 OVC100 FM260900 VRB03KT
                       P6SM OVC020 FM261800 VRB03KT P6SM SCT028
                       BKN100 BKN200 FM270000 VRB03KT P6SM SCT100
                       BKN200=
201701260540 TAF KCLM 260540Z 2606/2706 VRB03KT P6SM BKN100 BKN200 FM261200
                       VRB03KT P6SM SCT022 BKN100 BKN200 FM261800
                       VRB03KT P6SM SCT035 BKN100 BKN200 FM270000
                       VRB03KT P6SM SCT100 BKN200=
201701260234 KCLM 260234Z 2603/2624 VRB03KT P6SM VCFG OVC130 FM260600 VRB03KT
                       4SM BR FEW004 BKN130
                      TEMPO 2610/2614 3/4SM BR VV004 FM261400 VRB03KT
                       3/4SM BR VV002 FM262100 VRB03KT P6SM SCT035
                       BKN060=
201701252340 TAF KCLM 252340Z 2600/2624 VRB03KT P6SM SCT012 OVC022
                      TEMPO 2600/2604 BKN012 OVC022 FM260800 VRB03KT
                       P6SM SCT022 OVC035 FM262100 VRB03KT P6SM
                       SCT035 BKN060=
201701251739 TAF KCLM 251739Z 2518/2618 VRB03KT P6SM BKN035 OVC050 FM260000
                       VRB03KT P6SM SCT035 BKN050 OVC080=
201701251133 TAF KCLM 251133Z 2512/2612 VRB03KT P6SM FEW028 OVC040 FM251800
                       VRB03KT P6SM VCSH BKN028 OVC040 FM260000
                       VRB03KT P6SM SCT022 BKN050 OVC130=
201701250906 TAF AMD KCLM 250906Z 2509/2606 VRB03KT P6SM VCFG SCT035 BKN130
                       FM251800 VRB03KT P6SM VCSH BKN028 OVC050
                       FM260300 VRB03KT P6SM SCT028 BKN050=
201701250538 TAF KCLM 250538Z 2506/2606 VRB03KT P6SM OVC035 FM250900 VRB03KT
                       P6SM VCFG OVC022 FM251800 VRB03KT P6SM VCSH
                       BKN028 OVC050 FM260300 VRB03KT P6SM SCT028
                       BKN050=
201701250313 KCLM 250313Z 2503/2524 VRB03KT P6SM OVC035 FM250800 23005KT P6SM
                       VCFG BKN012
                      TEMPO 2512/2516 3SM BR OVC010 FM252100 VRB03KT
                       P6SM BKN025
                      TEMPO 2521/2524 SCT030=
201701242320 TAF KCLM 242320Z 2500/2524 VRB03KT P6SM SCT015 BKN100 FM250800
                       21004KT P6SM VCFG BKN012
                      TEMPO 2512/2516 3SM BR OVC010 FM252100 VRB03KT
                       P6SM BKN025
                      TEMPO 2521/2524 SCT030=
201701242102 KCLM 242102Z 2421/2518 VRB03KT P6SM SCT015 BKN100
                      TEMPO 2421/2424 BKN015 OVC100 FM250800 21004KT
                       P6SM VCFG BKN012
                      TEMPO 2512/2516 3SM BR OVC010=
201701241829 KCLM 241829Z 2418/2518 00000KT P6SM SCT025 BKN200
                      TEMPO 2419/2423 BKN025 OVC200 FM250800 21004KT
                       P6SM VCFG BKN012
                      TEMPO 2512/2516 3SM BR OVC010=
201701241720 TAF KCLM 241720Z 2418/2518 00000KT P6SM OVC020 FM242100 VRB03KT
                       P6SM BKN020 BKN200 FM250800 21004KT P6SM
                       VCFG BKN012
                      TEMPO 2512/2516 3SM BR OVC010=
201701241634 KCLM 241634Z 2417/2512 24004KT P6SM BKN014 BKN025 FM241800 VRB03KT
                       P6SM BKN020 BKN200 FM250300 23005KT P6SM
                       BKN200 FM250900 23005KT P6SM SCT012 SCT200=
201701241140 TAF KCLM 241140Z 2412/2512 25008KT P6SM SCT015 SCT200 FM241800
                       VRB03KT P6SM BKN200 FM250300 23005KT P6SM
                       BKN200 FM250900 23005KT P6SM SCT012 SCT200=
201701240833 KCLM 240833Z 2409/2506 25008KT P6SM SKC FM241800 VRB03KT P6SM FEW120
                       FM250300 23005KT P6SM BKN120=
201701240540 TAF KCLM 240540Z 2406/2506 24005KT P6SM VCFG SKC FM241800 VRB03KT
                       P6SM FEW120 FM250300 23005KT P6SM BKN120=
201701232320 TAF KCLM 232320Z 2400/2424 VRB04KT P6SM FEW200 FM240600 23004KT
                       P6SM FEW200=
201701231722 TAF KCLM 231722Z 2318/2418 VRB04KT P6SM OVC015 FM232000 35005KT
                       P6SM SCT200 FM240600 23004KT P6SM SCT200=
201701231141 TAF KCLM 231141Z 2312/2412 24004KT P6SM BKN009 BKN080 BKN200
                      TEMPO 2312/2316 SCT009 BKN080 BKN200 FM231600
                       VRB04KT P6SM SCT100 BKN200 FM232000 35005KT
                       P6SM SCT200 FM240600 23004KT P6SM BKN035
                       BKN200=
201701231025 KCLM 231025Z 2310/2406 24004KT P6SM FEW012 BKN080 BKN200
                      TEMPO 2310/2314 2SM BCFG BKN012 BKN080 BKN200
                       FM231800 04005KT P6SM SCT200=
201701230534 TAF KCLM 230534Z 2306/2406 24004KT P6SM FEW010 BKN080 BKN200
                      TEMPO 2312/2316 2SM BCFG BKN006 BKN080 BKN200
                       FM231800 04005KT P6SM SCT200=
201701222323 TAF KCLM 222323Z 2300/2324 VRB03KT P6SM FEW009 SCT060 BKN150 FM230600
                       24004KT P6SM SCT060 FM231800 04005KT P6SM
                       SCT020=
201701221733 TAF KCLM 221733Z 2218/2318 VRB05KT P6SM VCSH SCT040 BKN100 FM222300
                       VRB03KT P6SM SCT060 BKN100=
201701221202 KCLM 221202Z 2212/2312 VRB03KT P6SM FEW005 BKN070
                      TEMPO 2212/2215 2SM BR BKN005 OVC070 FM221700
                       VRB03KT P6SM -RA BKN035 OVC060 FM222300
                       VRB03KT P6SM SCT060 BKN100=
201701221120 TAF KCLM 221120Z 2212/2312 25003KT P6SM FEW020 BKN070 FM221700
                       VRB03KT P6SM -RA BKN035 OVC060 FM222300
                       VRB03KT P6SM SCT060 BKN100=
201701220538 TAF KCLM 220538Z 2206/2306 25005KT P6SM SCT020 BKN070
                      TEMPO 2206/2210 BKN020 BKN070 FM221800 VRB03KT
                       P6SM -RA BKN035 OVC060 FM222300 VRB03KT
                       P6SM SCT060 BKN090=
201701212333 TAF KCLM 212333Z 2200/2224 VRB04KT P6SM SCT070 BKN120 FM220300
                       VRB04KT P6SM VCSH SCT040 OVC070 FM220800
                       VRB04KT P6SM SCT020 BKN070 FM221800 08005KT
                       P6SM VCSH BKN040 OVC070=
201701211736 TAF KCLM 211736Z 2118/2218 24006KT P6SM BKN020 BKN110 FM212000
                       08004KT P6SM SCT040 BKN080 FM220200 VRB04KT
                       P6SM VCSH BKN040 OVC070=
201701211144 TAF KCLM 211144Z 2112/2212 24005KT P6SM BKN070
                      TEMPO 2112/2116 BKN010 OVC070 FM211800 VRB03KT
                       P6SM VCSH BKN070 FM220400 23004KT P6SM VCSH
                       BKN040 OVC070=
201701210537 TAF KCLM 210537Z 2106/2206 24005KT P6SM OVC100
                      TEMPO 2110/2112 BKN010 OVC100 FM211200 VRB03KT
                       P6SM BKN010 OVC050 FM211600 VRB03KT P6SM
                       VCSH SCT015 BKN050 OVC080 FM220000 VRB04KT
                       P6SM VCSH SCT050 BKN080=
201701202320 TAF KCLM 202320Z 2100/2124 VRB03KT P6SM OVC100 FM210600 VRB03KT
                       P6SM SCT050 BKN080=
201701201813 KCLM 201813Z 2018/2118 VRB04KT P6SM FEW015 SCT200
                      TEMPO 2018/2020 3SM BR BKN015 FM202000 VRB04KT
                       P6SM SCT080 BKN200 FM202300 VRB03KT P6SM
                       BKN050 OVC080 FM210300 VRB03KT P6SM SCT050
                       BKN080=
201701201720 TAF KCLM 201720Z 2018/2118 VRB04KT P6SM FEW015 SCT200 FM201900
                       VRB04KT P6SM SCT080 BKN200 FM202300 VRB03KT
                       P6SM BKN050 OVC080 FM210300 VRB03KT P6SM
                       SCT050 BKN080=
201701201134 TAF KCLM 201134Z 2012/2112 00000KT P6SM BKN004 BKN012 OVC200
                      TEMPO 2012/2016 3SM BR SCT004 BKN012 OVC200
                       FM201600 VRB03KT P6SM SCT012 BKN200 FM201800
                       09005KT P6SM BKN100 OVC200 FM202300 VRB03KT
                       P6SM BKN050 OVC080
                      TEMPO 2023/2102 -RA FM210300 VRB03KT P6SM
                       SCT050 BKN080=
201701200908 TAF AMD KCLM 200908Z 2009/2106 VRB03KT P6SM SCT012 BKN070
                      TEMPO 2009/2013 1SM BR SCT001 BKN012 BKN070
                       FM201800 VRB03KT P6SM SCT100 BKN200 FM202100
                       VRB03KT P6SM -RA BKN050 OVC080 FM210200
                       VRB03KT P6SM SCT050 BKN080=
201701200538 TAF KCLM 200538Z 2006/2106 VRB03KT P6SM -SHRA SCT012 BKN040 OVC070
                       TEMPO 2006/2010 5SM -SHRA BR BKN012 OVC040
                       FM201000 20003KT P6SM BKN045 OVC080 FM201800
                       VRB03KT P6SM SCT100 BKN200 FM202100 VRB03KT
                       P6SM -RA BKN050 OVC080 FM210200 VRB03KT
                       P6SM SCT050 BKN080=
201701200326 KCLM 200326Z 2003/2024 VRB03KT P6SM -SHRA SCT005 BKN040 OVC070
                       TEMPO 2003/2006 4SM -SHRA BR BKN005 OVC040
                       FM200600 20003KT P6SM VCSH BKN045 OVC070
                       FM201300 VRB03KT P6SM SCT050 BKN100=
201701192330 TAF KCLM 192330Z 2000/2024 10005KT P6SM -RA OVC018 FM200300 20003KT
                       P6SM VCSH OVC019 FM201800 09004KT P6SM OVC060=
201701192119 KCLM 192119Z 1921/2018 11003KT P6SM FEW006 FEW045 FM192300 VRB03KT
                       P6SM -SHRA BKN030 OVC050 FM200500 VRB03KT
                       P6SM VCSH SCT030 BKN050=
201701191837 KCLM 191837Z 1919/2018 23003KT P6SM -SHRA BKN023 OVC100 FM200200
                       VRB03KT P6SM VCSH BKN030 FM200500 VRB03KT
                       P6SM VCSH SCT030 BKN050=
201701191733 TAF KCLM 191733Z 1918/2018 00000KT P6SM -SHRA FEW040 BKN050 OVC090
                       FM200200 VRB03KT P6SM VCSH BKN030 FM200500
                       VRB03KT P6SM VCSH SCT030 BKN050=
201701191136 TAF KCLM 191136Z 1912/2012 VRB03KT P6SM -SHRA SCT020 OVC045
                      TEMPO 1912/1916 4SM -SHRA BR SCT006 BKN020
                       OVC045 FM191800 VRB03KT P6SM -SHRA BKN025
                       OVC050 FM200200 VRB03KT P6SM VCSH SCT030
                       BKN060=
201701190540 TAF KCLM 190540Z 1906/2006 26005KT 6SM -RA BR OVC045 FM190900 26005KT
                       5SM -SHRA BKN020 OVC040 FM191300 VRB03KT
                       5SM BR VCSH BKN020 OVC040 FM192100 VRB03KT
                       P6SM -SHRA BKN030 BKN050=
201701182334 TAF KCLM 182334Z 1900/1924 00000KT 5SM -RA BR BKN060 OVC080 FM190300
                       VRB03KT 5SM -SHRA BKN015 OVC030 FM191300
                       VRB03KT 5SM BR VCSH OVC019 FM192100 VRB03KT
                       P6SM -SHRA BKN035 BKN070=
201701181732 TAF KCLM 181732Z 1818/1918 14007KT 6SM -RA BR FEW040 BKN060 OVC070
                       FM182200 28004KT P6SM -SHRA SCT030 OVC060
                       FM190300 VRB03KT P6SM VCSH BKN015 OVC030
                       FM190600 VRB03KT 5SM BR VCSH OVC035=
201701181121 TAF KCLM 181121Z 1812/1912 29006KT P6SM -RA SCT025 OVC080 FM181500
                       28006KT P6SM -SHRA BKN050 OVC080 FM190500
                       VRB03KT P6SM SCT050 BKN090=
201701180525 TAF KCLM 180525Z 1806/1906 07004KT 5SM -RA BR SCT020 OVC060 FM180900
                       VRB04KT P6SM -RA BKN020 OVC040 FM182000
                       28006KT P6SM -SHRA OVC015=
201701180413 KCLM 180413Z 1804/1824 07004KT 5SM -RA BR SCT020 OVC070 FM180900
                       VRB04KT P6SM -RA BKN020 OVC040 FM181800
                       28008KT P6SM -SHRA BKN025 BKN050=
201701180213 KCLM 180213Z 1802/1824 VRB03KT 6SM -RA BR FEW025 OVC050
                      TEMPO 1802/1804 2SM RA BR BKN025 OVC050 FM180400
                       09005KT 3SM RA BR OVC015 FM181400 VRB04KT
                       P6SM -RA BKN020 OVC040 FM181800 28008KT
                       P6SM -SHRA BKN025 BKN050=
201701180009 KCLM 180009Z 1800/1824 VRB04KT 3SM RA BR OVC040
                      TEMPO 1800/1804 1SM +RA BR OVC025 FM180400
                       09005KT 3SM RA BR OVC015 FM181400 VRB04KT
                       P6SM -RA BKN020 OVC040 FM181800 28008KT
                       P6SM -SHRA BKN025 BKN050=
201701172320 TAF KCLM 172320Z 1800/1824 VRB04KT 4SM -RA BR OVC040
                      TEMPO 1800/1804 2SM RA BR OVC025 FM180400
                       09005KT 3SM RA BR OVC015 FM181400 VRB04KT
                       P6SM -RA BKN020 OVC040 FM181800 28008KT
                       P6SM -SHRA BKN025 BKN050=
201701171720 TAF KCLM 171720Z 1718/1818 VRB03KT P6SM -RA OVC050 FM180000 09005KT
                       P6SM -RA OVC025 FM180400 09005KT 5SM RA
                       BR OVC015 FM181400 VRB04KT P6SM -RA BKN020
                       OVC040=
201701171436 KCLM 171436Z 1715/1812 VRB04KT P6SM -RA SCT015 OVC040
                      TEMPO 1715/1719 4SM -RA BR BKN010 OVC025
                       FM180100 VRB04KT P6SM -RA OVC025=
201701171131 TAF KCLM 171131Z 1712/1812 VRB04KT P6SM -RA OVC070 FM171400 VRB04KT
                       P6SM -RA OVC040 FM180100 VRB04KT P6SM -RA
                       OVC025=
201701170524 TAF KCLM 170524Z 1706/1806 VRB03KT P6SM OVC060 FM171400 VRB04KT
                       P6SM -RA OVC040 FM180100 VRB04KT P6SM -RA
                       OVC025=
201701162320 TAF KCLM 162320Z 1700/1724 25005KT P6SM BKN060 OVC120 FM170800
                       09006KT P6SM -RA OVC040 FM172100 09006KT
                       P6SM -RA OVC025=
201701161720 TAF KCLM 161720Z 1618/1718 24006KT P6SM BKN120 BKN200 FM162200
                       VRB03KT P6SM BKN080 OVC120 FM170600 09006KT
                       P6SM OVC060 FM171000 09010KT P6SM -RA OVC040=
201701161124 TAF KCLM 161124Z 1612/1712 VRB03KT P6SM OVC100 FM170100 VRB03KT
                       P6SM -RA SCT040 OVC060=
201701160520 TAF KCLM 160520Z 1606/1706 22004KT P6SM BKN150 FM161100 22003KT
                       P6SM SCT070 OVC100 FM170100 VRB03KT P6SM
                       -RA SCT040 OVC070=
201701152328 TAF KCLM 152328Z 1600/1624 VRB03KT P6SM SCT200 FM160500 VRB03KT
                       P6SM BKN150 FM161100 22003KT P6SM SCT060
                       OVC100 FM162000 VRB03KT P6SM -RA SCT030
                       OVC060=
201701151720 TAF KCLM 151720Z 1518/1618 VRB03KT P6SM SCT200 FM160500 VRB03KT
                       P6SM BKN150 FM161100 22003KT P6SM SCT060
                       OVC100=
201701151120 TAF KCLM 151120Z 1512/1612 00000KT P6SM BKN120 FM151500 VRB03KT
                       P6SM SCT200 FM160500 VRB03KT P6SM BKN150=
201701150525 TAF KCLM 150525Z 1506/1606 22003KT P6SM BKN250 FM150800 21004KT
                       P6SM BKN150 FM151700 VRB03KT P6SM SCT100
                       BKN150=
201701142320 TAF KCLM 142320Z 1500/1524 VRB03KT P6SM SCT200 FM150800 21004KT
                       P6SM BKN150 FM151700 VRB03KT P6SM SCT100
                       BKN150=
201701141720 TAF KCLM 141720Z 1418/1518 00000KT P6SM SCT200 FM142200 VRB03KT
                       P6SM BKN200 FM150800 22004KT P6SM OVC150=
201701141120 TAF KCLM 141120Z 1412/1512 00000KT P6SM SCT200 FM142200 VRB03KT
                       P6SM BKN200 FM150800 00000KT P6SM OVC150=
201701140520 TAF KCLM 140520Z 1406/1506 14003KT P6SM BKN150=
201701132320 TAF KCLM 132320Z 1400/1424 VRB03KT P6SM SCT018 OVC200=
201701131720 TAF KCLM 131720Z 1318/1418 VRB03KT P6SM SCT018 OVC200
                      TEMPO 1318/1320 OVC018=
201701131136 KCLM 131136Z 1312/1412 21004KT P6SM SCT020 BKN200
                      TEMPO 1312/1316 BKN018 FM131800 VRB03KT P6SM
                       OVC200=
201701131120 TAF KCLM 131120Z 1312/1412 21004KT P6SM BKN200 FM131800 VRB03KT
                       P6SM OVC200=
201701130520 TAF KCLM 130520Z 1306/1406 21004KT P6SM OVC200=
201701122320 TAF KCLM 122320Z 1300/1324 09006KT P6SM FEW020 FM130700 22005KT
                       P6SM SKC=
201701121720 TAF KCLM 121720Z 1218/1318 23008KT P6SM SKC FM122000 10004KT P6SM
                       SKC FM130700 22005KT P6SM SKC=
201701121132 TAF KCLM 121132Z 1212/1312 23006KT P6SM SKC=
201701120520 TAF KCLM 120520Z 1206/1306 23008KT P6SM SKC=
201701112320 TAF KCLM 112320Z 1200/1224 00000KT P6SM SKC FM120400 21006KT P6SM
                       SKC=
201701111720 TAF KCLM 111720Z 1118/1218 25011KT P6SM SKC FM112000 07005KT P6SM
                       SKC FM120400 21006KT P6SM SKC=
201701111120 TAF KCLM 111120Z 1112/1212 VRB06G15KT P6SM SKC FM112000 07005KT
                       P6SM SKC=
201701110520 TAF KCLM 110520Z 1106/1206 VRB05G14KT P6SM SKC FM112000 07005KT
                       P6SM SKC=
201701102320 TAF KCLM 102320Z 1100/1124 06007KT P6SM SCT070 FM110400 05009KT
                       P6SM SKC FM112000 07005KT P6SM SKC=
201701101951 KCLM 101951Z 1020/1118 VRB04KT P6SM VCSH SCT025 OVC035 FM102200
                       05009KT P6SM SCT050 FM110400 05009KT P6SM
                       SKC=
201701101733 TAF KCLM 101733Z 1018/1118 VRB04KT 1/2SM SN FG VV011 FM102000 05009KT
                       P6SM VCSH BKN015 BKN050 FM102200 05009KT
                       P6SM SCT050 FM110400 05009KT P6SM SKC=
201701101533 KCLM 101533Z 1016/1112 05007KT 2SM -SN BR OVC009 FM101800 05009KT
                       P6SM BKN015 OVC035 FM102000 05009KT P6SM
                       SCT015 SCT050 FM110400 05009KT P6SM SKC=
201701101120 TAF KCLM 101120Z 1012/1112 23004KT P6SM VCSH BKN018 OVC060 FM102000
                       05012KT P6SM SCT015 SCT050 FM110400 05012KT
                       P6SM SKC=
201701100520 TAF KCLM 100520Z 1006/1106 00000KT P6SM BKN012 FM101200 05005KT
                       P6SM BKN012 OVC050 FM110200 05012KT P6SM
                       SCT015 SCT050=
201701092326 TAF KCLM 092326Z 1000/1024 VRB03KT P6SM BKN100 FM101200 15005KT
                       P6SM BKN045 BKN100 FM101600 06010KT P6SM
                       SCT045 BKN200=
201701091732 TAF KCLM 091732Z 0918/1018 17005KT P6SM VCSH SCT070 BKN110 FM100400
                       15005KT P6SM SCT015 BKN045 FM101400 03011KT
                       P6SM VCSH BKN015 OVC045=
201701091147 TAF KCLM 091147Z 0912/1012 25007KT 6SM -SHRA BR SCT010 BKN030 OVC050
                       FM091500 04004KT P6SM VCSH BKN050
                      TEMPO 0923/1003 5SM -SHRA SCT012 BKN030 OVC050
                       FM100400 03008KT P6SM VCSH SCT015 BKN045
                       FM101100 03011KT 4SM -SHSN BR SCT006 BKN010
                       OVC018=
201701090552 TAF KCLM 090552Z 0906/1006 25007KT 6SM -SHRA BR SCT010 BKN030 OVC050
                       FM091500 25006KT P6SM VCSH SCT020 BKN050
                       FM092100 04004KT P6SM VCSH SCT035 SCT050
                       FM100300 VRB03KT P6SM VCSH SCT015 OVC050=
201701090034 KCLM 090034Z 0901/0924 VRB05KT 6SM BR VCSH FEW007 BKN015 OVC030
                       TEMPO 0901/0904 4SM -RA BR FM090800 25005KT
                       6SM -RA BR FEW007 BKN015 OVC030 FM091200
                       27009KT P6SM -SHRA BKN020 OVC035 FM091500
                       25006KT P6SM VCSH SCT020 BKN035 BKN050 FM091800
                       VRB04KT P6SM VCSH SCT035 BKN060=
201701082345 TAF KCLM 082345Z 0900/0924 VRB03KT 5SM -RA BR BKN020 OVC035 FM090800
                       24005KT 5SM -SHRA BR BKN020 OVC035 FM091200
                       27008KT P6SM -SHRA BKN020 OVC035=
201701082146 KCLM 082146Z 0822/0918 VRB03KT 5SM -RA BR SCT020 BKN035 OVC050
                       TEMPO 0822/0824 BKN020 OVC035 FM090000 VRB03KT
                       5SM -RA BR BKN020 OVC035 FM090800 24005KT
                       5SM -SHRA BR BKN020 OVC035 FM091200 27008KT
                       P6SM -SHRA BKN020 OVC035=
201701081828 KCLM 081828Z 0818/0918 23004KT P6SM VCSH FEW020 SCT080 OVC130 FM082100
                       12004KT P6SM VCSH SCT020 SCT035 OVC060
                      TEMPO 0821/0824 5SM -RA BR SCT020 OVC035
                       FM090000 VRB03KT 5SM -RA BR BKN020 OVC035
                       FM090800 24005KT 5SM -SHRA BR BKN020 OVC035
                       FM091200 27008KT P6SM -SHRA BKN020 OVC035=
201701081741 TAF KCLM 081741Z 0818/0918 VRB04KT P6SM VCSH OVC022 FM082000 10011G18KT
                       P6SM -RA BKN012 BKN050 OVC080
                      TEMPO 0821/0824 5SM -RA BR OVC012 FM090000
                       11008KT P6SM VCSH SCT012 BKN050 FM090600
                       22007KT P6SM -SHRA SCT050 BKN070=
201701081541 KCLM 081541Z 0816/0912 13005KT P6SM VCSH OVC022 FM081900 10011G18KT
                       P6SM -RA BKN012 BKN050 OVC080
                      TEMPO 0821/0824 5SM -RA BR OVC012 FM090000
                       11008KT P6SM VCSH SCT012 BKN050 FM090600
                       22007KT P6SM -SHRA SCT050 BKN070=
201701081146 TAF KCLM 081146Z 0812/0912 VRB03KT P6SM VCSH SCT050 OVC070
                      TEMPO 0812/0815 5SM -SHRASN SCT012 OVC050
                       FM081900 10011G18KT P6SM -RA BKN012 BKN050
                       OVC080
                      TEMPO 0821/0824 5SM -RA BR OVC012 FM090000
                       11008KT P6SM VCSH SCT012 BKN050 FM090600
                       22007KT P6SM -SHRA SCT050 BKN070=
201701080557 TAF KCLM 080557Z 0806/0906 VRB03KT P6SM VCSH SCT050 OVC070
                      TEMPO 0806/0808 6SM -RASN FM081400 12005KT
                       6SM -RA SCT012 OVC045 FM081700 10008KT P6SM
                       VCSH BKN012 BKN050 OVC080 FM082200 10006KT
                       5SM -RA BR SCT012 OVC050 FM090400 21004KT
                       P6SM VCSH SCT020 BKN050=
201701080053 KCLM 080053Z 0801/0824 VRB03KT P6SM OVC080 FM080600 VRB03KT P6SM
                       VCSH SCT035 OVC060
                      TEMPO 0808/0812 -SN FM081200 VRB03KT 6SM
                       -SN BKN035 OVC050 FM081800 10007KT P6SM
                       -RA FEW015 BKN035 OVC050=
201701072351 TAF KCLM 072351Z 0800/0824 10005KT P6SM OVC090 FM080300 VRB03KT
                       P6SM VCSH SCT050 OVC090=
201701072116 KCLM 072116Z 0721/0818 10005KT P6SM BKN090 OVC200 FM080300 VRB03KT
                       P6SM VCSH SCT050 OVC090
                      PROB30 0806/0812 -SN OVC050=
201701071848 KCLM 071848Z 0719/0818 VRB03KT P6SM SCT100 OVC200 FM072100 10005KT
                       P6SM SCT100 OVC200 FM080300 VRB03KT P6SM
                       VCSH SCT050 OVC100
                      PROB30 0806/0812 -SN OVC050=
201701071743 TAF KCLM 071743Z 0718/0818 VRB03KT P6SM OVC200 FM072100 10005KT
                       P6SM SCT070 OVC100 FM080400 09013G21KT P6SM
                       SCT012 BKN020 OVC060 FM080900 06008KT 6SM
                       -RA SCT008 BKN012 OVC050=
201701071146 TAF KCLM 071146Z 0712/0812 22005KT P6SM SCT150 BKN200 FM072100
                       10005KT P6SM SCT070 OVC100 FM080400 09013G21KT
                       P6SM SCT012 BKN020 OVC060 FM080900 06008KT
                       6SM -RA SCT008 BKN012 OVC050=
201701070550 TAF KCLM 070550Z 0706/0806 24005KT P6SM SCT150 BKN200 FM072100
                       10005KT P6SM SCT070 OVC100 FM080400 12003KT
                       5SM -RASN SCT012 BKN020 OVC060=
201701070025 KCLM 070025Z 0700/0724 VRB03KT P6SM BKN200 FM070900 VRB03KT P6SM
                       SCT200 FM071800 10005KT P6SM SCT100 BKN200=
201701062344 TAF KCLM 062344Z 0700/0724 VRB03KT P6SM FEW070 BKN200 FM070900
                       07007KT P6SM SCT200=
201701062147 KCLM 062147Z 0622/0718 VRB03KT P6SM SCT070 BKN150 FM070000 VRB03KT
                       P6SM SCT070 BKN150 FM070900 07007KT P6SM
                       SCT070 SCT150=
201701061745 TAF KCLM 061745Z 0618/0718 VRB05KT P6SM BKN070 FM070000 VRB03KT
                       P6SM SCT070 BKN150 FM070900 07007KT P6SM
                       SCT070 SCT150=
201701061123 TAF KCLM 061123Z 0612/0712 23007KT P6SM SCT030 BKN050 FM062000
                       08004KT P6SM BKN120 BKN200 FM070400 20004KT
                       P6SM BKN200=
201701060538 TAF KCLM 060538Z 0606/0706 23005KT P6SM FEW030 SCT050 OVC200 FM062000
                       08004KT P6SM BKN120 BKN200=
201701052320 TAF KCLM 052320Z 0600/0624 10003KT P6SM SCT250 FM060900 23004KT
                       P6SM SCT030 SCT120 FM061800 VRB03KT P6SM
                       BKN120 BKN250=
201701051732 TAF KCLM 051732Z 0518/0618 23007KT P6SM SKC FM060900 23005KT P6SM
                       SCT030 OVC070 FM061600 23003KT P6SM SCT040
                       BKN120=
201701051123 TAF KCLM 051123Z 0512/0612 23007KT P6SM SKC FM052000 09003KT P6SM
                       FEW040 SCT200 FM060300 23005KT P6SM SCT040
                       BKN200=
201701050537 TAF KCLM 050537Z 0506/0606 22005KT P6SM SKC FM052000 VRB03KT P6SM
                       FEW040 SCT200 FM060300 23004KT P6SM SCT040
                       BKN200=
201701042320 TAF KCLM 042320Z 0500/0524 13006KT P6SM SKC FM050600 22006KT P6SM
                       SKC FM051400 VRB03KT P6SM SKC FM052100 00000KT
                       P6SM SCT200=
201701041725 TAF KCLM 041725Z 0418/0518 13006KT P6SM SKC FM050600 21006KT P6SM
                       SKC FM051400 21004KT P6SM SKC=
201701041138 TAF KCLM 041138Z 0412/0512 11006KT P6SM SKC FM050500 21005KT P6SM
                       SKC=
201701040532 TAF KCLM 040532Z 0406/0506 21005KT P6SM SCT045 FM041900 11006KT
                       P6SM SKC=
201701032320 TAF KCLM 032320Z 0400/0424 11005KT P6SM SCT040 FM040600 21004KT
                       P6SM SKC FM042000 11006KT P6SM SKC=
201701031720 TAF KCLM 031720Z 0318/0418 VRB04KT P6SM OVC040 FM032000 10010KT
                       P6SM SCT035 FM040600 21004KT P6SM SKC=
201701031120 TAF KCLM 031120Z 0312/0412 13005KT P6SM BKN035 FM032000 10010KT
                       P6SM SCT035 FM040600 21004KT P6SM SKC=
201701030528 TAF KCLM 030528Z 0306/0406 13005KT P6SM BKN040 FM032000 10010KT
                       P6SM SKC=
201701022320 TAF KCLM 022320Z 0300/0324 10005KT P6SM OVC045 FM030600 21006KT
                       P6SM SCT250 FM032000 10010KT P6SM SKC=
201701021731 TAF KCLM 021731Z 0218/0318 VRB06KT P6SM OVC050 FM022200 10006KT
                       P6SM SCT100 BKN250 FM030600 10005KT P6SM
                       SCT250=
201701021125 TAF KCLM 021125Z 0212/0312 08009KT P6SM VCSH BKN045 FM021800 10012KT
                       P6SM SCT045 FM030600 21007KT P6SM SKC=
201701020534 TAF KCLM 020534Z 0206/0306 08009KT P6SM VCSH SCT045 OVC060 FM021000
                       VRB03KT P6SM BKN045 FM021800 10012KT P6SM
                       SCT045=
201701012325 TAF KCLM 012325Z 0200/0224 03010KT P6SM FEW020 BKN070 FM020300
                       06008KT P6SM SCT080 BKN150=
201701011723 TAF KCLM 011723Z 0118/0218 01010KT 5SM -SHSN BKN010 OVC040 FM012000
                       03010KT P6SM SCT020 BKN050 FM020300 06008KT
                       P6SM SCT080 BKN150=
201701011135 TAF KCLM 011135Z 0112/0212 VRB04KT P6SM SCT010 BKN045
                      TEMPO 0112/0114 1SM -SHSN OVC007 FM012100
                       13005KT P6SM FEW020 BKN070 FM020000 12012KT
                       P6SM SCT080 BKN250=
201701010530 TAF KCLM 010530Z 0106/0206 00000KT 6SM -RA FEW016 OVC040
                      TEMPO 0106/0110 4SM -RA BR OVC014 FM011000
                       28010KT 4SM -SHSN OVC012
                      TEMPO 0110/0114 1SM -SHSN OVC007 FM011800
                       VRB05KT P6SM BKN015 OVC030 FM012100 13005KT
                       P6SM FEW020 OVC040 FM020000 15009KT P6SM
                       BKN250=