##########################################################
# Query made at 02/16/2025 03:21:38 UTC
# Time interval: from 04/01/2017 00:00  to 04/30/2017 23:59  UTC
##########################################################

##########################################################
# KCLM, Port Angeles, William R. Fairchild International Airport (United States)
# WMO index: -----. WIGOS ID: Unknown
# Latitude 48-07-20N. Longitude 123-30-19W. Altitude 87 m.
##########################################################

###################################
#  METAR/SPECI from KCLM
###################################
201704302353 METAR KCLM 302353Z AUTO 31010G20KT 10SM FEW060 11/07 A3032 RMK AO2 PK WND 33026/2327 SLP268 T01060067 10117 20094 53005=
201704302253 METAR KCLM 302253Z AUTO 32014G23KT 10SM CLR 11/06 A3031 RMK AO2 SLP264 T01110056=
201704302153 METAR KCLM 302153Z AUTO 31015G25KT 10SM FEW023 09/06 A3031 RMK AO2 PK WND 34026/2103 SLP266 T00940056=
201704302053 METAR KCLM 302053Z AUTO 31014G23KT 10SM BKN055 BKN070 11/06 A3030 RMK AO2 SLP263 T01060061 51014=
201704301953 METAR KCLM 301953Z AUTO 31013G23KT 10SM CLR 11/07 A3030 RMK AO2 PK WND 32030/1919 SLP261 T01060067=
201704301853 METAR KCLM 301853Z AUTO 32014G21KT 10SM CLR 11/06 A3028 RMK AO2 PK WND 31027/1821 SLP255 T01060056=
201704301753 METAR KCLM 301753Z AUTO 31016G22KT 10SM CLR 11/04 A3026 RMK AO2 SLP248 T01110044 10111 20056 53015=
201704301653 METAR KCLM 301653Z AUTO 32014G20KT 10SM CLR 11/04 A3025 RMK AO2 SLP243 T01060039=
201704301553 METAR KCLM 301553Z AUTO 32010G15KT 10SM OVC050 11/04 A3023 RMK AO2 SLP236 T01060039=
201704301453 METAR KCLM 301453Z AUTO 27006KT 10SM CLR 09/04 A3022 RMK AO2 SLP233 T00890044 53016=
201704301353 METAR KCLM 301353Z AUTO 26010KT 10SM FEW060 07/04 A3019 RMK AO2 SLP226 T00670039=
201704301253 METAR KCLM 301253Z AUTO 29007KT 10SM BKN060 06/03 A3019 RMK AO2 SLP224 T00560033=
201704301153 METAR KCLM 301153Z AUTO 25007KT 10SM OVC044 07/05 A3017 RMK AO2 RAE1054B28E36 SLP218 P0000 60000 70014 T00670050 10083 20067 51021=
201704301053 METAR KCLM 301053Z AUTO 28009KT 10SM -RA FEW024 BKN055 BKN070 07/06 A3016 RMK AO2 RAB32 SLP213 P0000 T00720056=
201704300953 METAR KCLM 300953Z AUTO 27008KT 10SM FEW014 BKN060 07/06 A3013 RMK AO2 SLP204 T00720061=
201704300853 METAR KCLM 300853Z AUTO 28011KT 10SM SCT045 SCT060 08/07 A3011 RMK AO2 SLP195 T00780067 51011=
201704300835 SPECI KCLM 300835Z AUTO 28008KT 10SM SCT012 BKN040 OVC060 08/07 A3010 RMK AO2 T00780072=
201704300753 METAR KCLM 300753Z AUTO 28005KT 10SM OVC010 08/08 A3010 RMK AO2 CIG 008V013 SLP193 T00780078 401000039=
201704300727 SPECI KCLM 300727Z AUTO 00000KT 10SM OVC013 08/08 A3009 RMK AO2 T00780078=
201704300705 SPECI KCLM 300705Z AUTO 27004KT 10SM BKN016 OVC041 07/07 A3009 RMK AO2 T00720072=
201704300653 METAR KCLM 300653Z AUTO 27005KT 10SM SCT018 OVC041 07/07 A3009 RMK AO2 SLP189 T00720067=
201704300553 METAR KCLM 300553Z AUTO 28003KT 9SM OVC065 07/07 A3007 RMK AO2 SLP184 60007 T00670067 10089 20067 53005=
201704300453 METAR KCLM 300453Z AUTO 17005KT 10SM BKN060 07/07 A3006 RMK AO2 SLP181 T00720072=
201704300439 SPECI KCLM 300439Z AUTO 00000KT 3SM BR BKN065 BKN085 07/07 A3006 RMK AO2 T00720072=
201704300431 SPECI KCLM 300431Z AUTO 00000KT 1 3/4SM BR SCT060 BKN080 07/07 A3006 RMK AO2 VIS 3/4V5 T00720072=
201704300353 METAR KCLM 300353Z AUTO 00000KT 10SM SCT060 OVC080 08/07 A3004 RMK AO2 SLP175 T00780072=
201704300253 METAR KCLM 300253Z AUTO 12003KT 10SM OVC070 08/08 A3006 RMK AO2 RAE36 SLP180 P0000 60007 T00830078 56017=
201704300153 METAR KCLM 300153Z AUTO 00000KT 8SM -RA OVC055 08/07 A3007 RMK AO2 RAE16B45 SLP184 P0002 T00830072=
201704300053 METAR KCLM 300053Z AUTO 00000KT 7SM -RA OVC065 09/08 A3009 RMK AO2 SLP190 P0005 T00890078=
201704292353 METAR KCLM 292353Z AUTO 00000KT 5SM -RA BR SCT029 SCT049 OVC060 09/08 A3011 RMK AO2 SLP197 P0006 60007 T00890078 10100 20089 58011=
201704292253 METAR KCLM 292253Z AUTO 00000KT 10SM -RA OVC065 09/07 A3012 RMK AO2 RAB35 SLP200 P0001 T00940067=
201704292153 METAR KCLM 292153Z AUTO VRB04KT 10SM SCT014 BKN042 OVC075 09/07 A3014 RMK AO2 RAB40E49 SLP207 P0000 T00940072=
201704292053 METAR KCLM 292053Z AUTO 33006KT 10SM SCT010 OVC013 09/07 A3016 RMK AO2 SLP214 T00940072 55016=
201704292031 SPECI KCLM 292031Z AUTO 32007KT 300V360 10SM BKN013 OVC070 09/07 A3015 RMK AO2 T00940072=
201704292022 SPECI KCLM 292022Z AUTO VRB05KT 10SM SCT009 BKN015 OVC070 09/08 A3015 RMK AO2 T00940078=
201704292012 SPECI KCLM 292012Z AUTO 35005KT 10SM SCT011 OVC070 09/07 A3015 RMK AO2 T00940072=
201704291958 SPECI KCLM 291958Z AUTO VRB06KT 10SM BKN013 OVC070 09/07 A3014 RMK AO2 T00940072=
201704291953 METAR KCLM 291953Z AUTO 03005KT 10SM SCT013 OVC070 09/07 A3014 RMK AO2 SLP207 T00940072=
201704291853 METAR KCLM 291853Z AUTO 10008KT 10SM OVC085 09/06 A3018 RMK AO2 SLP219 T00890056=
201704291753 METAR KCLM 291753Z AUTO 08007KT 10SM BKN090 09/06 A3021 RMK AO2 SLP230 T00940056 10094 20039 58028=
201704291653 METAR KCLM 291653Z AUTO 11009KT 10SM OVC070 09/05 A3022 RMK AO2 PRESFR SLP235 T00890050=
201704291553 METAR KCLM 291553Z AUTO 00000KT 10SM OVC085 08/05 A3028 RMK AO2 SLP255 T00780050=
201704291453 METAR KCLM 291453Z AUTO 23004KT 10SM OVC100 07/04 A3029 RMK AO2 SLP259 T00670039 53002=
201704291353 METAR KCLM 291353Z AUTO 24005KT 10SM FEW120 06/03 A3027 RMK AO2 SLP250 T00610033=
201704291253 METAR KCLM 291253Z AUTO 23006KT 10SM BKN120 04/03 A3027 RMK AO2 SLP254 T00440033=
201704291153 METAR KCLM 291153Z AUTO 23005KT 10SM CLR 04/03 A3028 RMK AO2 SLP257 T00390028 10072 20039 56012=
201704291053 METAR KCLM 291053Z AUTO 24007KT 10SM CLR 05/03 A3029 RMK AO2 SLP260 T00500033=
201704290953 METAR KCLM 290953Z AUTO 24005KT 10SM CLR 05/04 A3030 RMK AO2 SLP262 T00500039=
201704290853 METAR KCLM 290853Z AUTO 25006KT 10SM CLR 06/04 A3032 RMK AO2 SLP268 T00610044 56008=
201704290753 METAR KCLM 290753Z AUTO 26007KT 10SM CLR 07/04 A3033 RMK AO2 SLP270 T00670039 401220044=
201704290653 METAR KCLM 290653Z AUTO 27007KT 10SM CLR 07/04 A3032 RMK AO2 SLP269 T00720039=
201704290553 METAR KCLM 290553Z AUTO 27007KT 10SM CLR 07/04 A3034 RMK AO2 SLP276 T00670044 10117 20067 50000=
201704290453 METAR KCLM 290453Z AUTO 28007KT 10SM SCT023 08/05 A3035 RMK AO2 SLP278 T00780050=
201704290427 SPECI KCLM 290427Z AUTO 28006KT 10SM BKN023 08/06 A3035 RMK AO2 T00780056=
201704290403 SPECI KCLM 290403Z AUTO 30007KT 10SM FEW023 07/05 A3034 RMK AO2 T00720050=
201704290353 METAR KCLM 290353Z AUTO 29006KT 10SM BKN023 08/05 A3034 RMK AO2 SLP276 T00780050=
201704290321 SPECI KCLM 290321Z AUTO 30006KT 10SM BKN023 08/05 A3034 RMK AO2 T00830050=
201704290253 METAR KCLM 290253Z AUTO 30008KT 10SM CLR 09/06 A3034 RMK AO2 SLP277 T00890056 58001=
201704290153 METAR KCLM 290153Z AUTO 29010KT 10SM OVC036 11/06 A3035 RMK AO2 SLP278 T01060061=
201704290053 METAR KCLM 290053Z AUTO 31012KT 10SM BKN037 OVC050 11/05 A3034 RMK AO2 SLP278 T01060050=
201704282353 METAR KCLM 282353Z AUTO 33008KT 10SM SCT040 BKN065 12/06 A3035 RMK AO2 SLP277 T01170061 10122 20106 58004=
201704282253 METAR KCLM 282253Z AUTO 32009G15KT 290V350 10SM SCT040 12/06 A3036 RMK AO2 SLP280 T01170061=
201704282153 METAR KCLM 282153Z AUTO 35007KT 320V050 10SM BKN043 11/07 A3036 RMK AO2 SLP283 T01110067=
201704282053 METAR KCLM 282053Z AUTO 35007KT 10SM CLR 11/06 A3036 RMK AO2 SLP281 T01110056 58000=
201704281953 METAR KCLM 281953Z AUTO 35007KT 10SM CLR 12/06 A3036 RMK AO2 SLP282 T01170061=
201704281853 METAR KCLM 281853Z AUTO VRB04KT 10SM CLR 11/06 A3036 RMK AO2 SLP282 T01110061=
201704281753 METAR KCLM 281753Z AUTO VRB05KT 10SM CLR 11/06 A3036 RMK AO2 SLP282 T01060056 10106 20044 51014=
201704281653 METAR KCLM 281653Z AUTO VRB04KT 10SM CLR 11/04 A3034 RMK AO2 SLP277 T01060039=
201704281553 METAR KCLM 281553Z AUTO 00000KT 10SM CLR 09/02 A3034 RMK AO2 SLP275 T00890022=
201704281453 METAR KCLM 281453Z AUTO 24007KT 10SM CLR 07/02 A3032 RMK AO2 SLP268 T00670017 53018=
201704281353 METAR KCLM 281353Z AUTO 24006KT 10SM CLR 06/01 A3030 RMK AO2 SLP263 T00560011=
201704281253 METAR KCLM 281253Z AUTO 23007KT 10SM CLR 05/01 A3028 RMK AO2 SLP254 T00500011=
201704281153 METAR KCLM 281153Z AUTO 25010KT 10SM CLR 05/01 A3026 RMK AO2 SLP250 T00500011 10061 20050 51011=
201704281053 METAR KCLM 281053Z AUTO 26009KT 10SM CLR 06/01 A3026 RMK AO2 SLP247 T00560011=
201704280953 METAR KCLM 280953Z AUTO 25011KT 10SM FEW055 06/01 A3024 RMK AO2 SLP241 T00610011=
201704280853 METAR KCLM 280853Z AUTO 26009KT 10SM CLR 06/01 A3023 RMK AO2 SLP239 T00560011 53010=
201704280753 METAR KCLM 280753Z AUTO 26011KT 10SM CLR 06/02 A3022 RMK AO2 SLP234 T00560017 401110050=
201704280653 METAR KCLM 280653Z AUTO 25012KT 10SM CLR 06/02 A3021 RMK AO2 SLP230 T00610022=
201704280553 METAR KCLM 280553Z AUTO 25008KT 10SM CLR 06/02 A3020 RMK AO2 SLP228 60000 T00610017 10100 20061 51017=
201704280453 METAR KCLM 280453Z AUTO 26010KT 10SM CLR 07/02 A3019 RMK AO2 SLP224 T00670017=
201704280353 METAR KCLM 280353Z AUTO 27009KT 10SM CLR 07/02 A3017 RMK AO2 RAE0256 SLP216 P0000 T00670022=
201704280253 METAR KCLM 280253Z AUTO 28009KT 10SM -RA FEW021 BKN033 BKN042 07/04 A3015 RMK AO2 RAB38 SLP212 P0000 60000 T00720039 53013=
201704280153 METAR KCLM 280153Z AUTO 31012G23KT 10SM SCT027 09/04 A3014 RMK AO2 PK WND 32026/0143 SLP207 T00890039=
201704280102 SPECI KCLM 280102Z AUTO 31017G22KT 10SM BKN027 BKN033 09/05 A3012 RMK AO2 T00940050=
201704280053 METAR KCLM 280053Z AUTO 30014G21KT 10SM SCT027 09/05 A3012 RMK AO2 SLP202 T00940050=
201704272353 METAR KCLM 272353Z AUTO 30015G18KT 10SM FEW028 SCT085 10/06 A3011 RMK AO2 RAE28 SLP199 P0000 60000 T01000056 10111 20089 50007=
201704272326 SPECI KCLM 272326Z AUTO 29011G21KT 10SM -RA FEW019 BKN037 OVC085 09/07 A3012 RMK AO2 P0000 T00940067=
201704272317 SPECI KCLM 272317Z AUTO 29009KT 260V330 5SM -RA BR SCT020 BKN027 OVC050 09/07 A3012 RMK AO2 P0000 T00890067=
201704272253 METAR KCLM 272253Z AUTO 30012G19KT 10SM -RA FEW026 BKN043 OVC080 09/06 A3012 RMK AO2 RAB22 SLP200 P0000 T00940061=
201704272153 METAR KCLM 272153Z AUTO 31015G21KT 10SM FEW048 SCT065 SCT085 10/04 A3011 RMK AO2 PK WND 31026/2123 SLP195 T01000044=
201704272053 METAR KCLM 272053Z AUTO 30016G21KT 10SM FEW060 FEW080 10/03 A3009 RMK AO2 SLP191 T01000033 51006=
201704271953 METAR KCLM 271953Z AUTO 30012G20KT 10SM FEW070 SCT085 10/03 A3008 RMK AO2 SLP187 T01000033=
201704271853 METAR KCLM 271853Z AUTO 31017G23KT 10SM FEW060 10/04 A3008 RMK AO2 SLP188 T01000044=
201704271753 METAR KCLM 271753Z AUTO 32009G15KT 10SM OVC080 10/04 A3007 RMK AO2 SLP184 60000 T01000044 10100 20056 52008=
201704271653 METAR KCLM 271653Z AUTO 31009KT 10SM FEW070 SCT090 09/04 A3006 RMK AO2 SLP181 T00940039=
201704271553 METAR KCLM 271553Z AUTO 28011G18KT 10SM BKN050 10/03 A3006 RMK AO2 SLP180 T01000028=
201704271453 METAR KCLM 271453Z AUTO 26005KT 10SM SCT070 BKN095 07/03 A3005 RMK AO2 SLP177 60000 T00720028 53008=
201704271353 METAR KCLM 271353Z AUTO 25008KT 10SM FEW037 FEW048 SCT085 06/02 A3004 RMK AO2 SLP174 T00610022=
201704271253 METAR KCLM 271253Z AUTO 25008KT 10SM OVC049 06/02 A3003 RMK AO2 RAB32E42 SLP169 P0000 T00610022=
201704271153 METAR KCLM 271153Z AUTO 25011KT 10SM FEW044 06/02 A3002 RMK AO2 SLP168 70004 T00560017 10072 20050 53007=
201704271053 METAR KCLM 271053Z AUTO 30007KT 10SM CLR 05/02 A3001 RMK AO2 SLP164 T00500017=
201704270953 METAR KCLM 270953Z AUTO 25008KT 10SM SCT049 06/02 A3001 RMK AO2 SLP162 T00610017=
201704270853 METAR KCLM 270853Z AUTO 25008KT 10SM CLR 06/02 A3000 RMK AO2 SLP162 T00610022 53012=
201704270753 METAR KCLM 270753Z AUTO 28013G20KT 10SM BKN049 07/02 A2999 RMK AO2 SLP157 T00720017 401280061=
201704270653 METAR KCLM 270653Z AUTO 28010KT 10SM CLR 07/02 A2997 RMK AO2 SLP151 T00670022=
201704270553 METAR KCLM 270553Z AUTO 29010KT 10SM FEW045 07/02 A2997 RMK AO2 SLP149 60000 T00720017 10122 20072 51020=
201704270453 METAR KCLM 270453Z AUTO 27015G21KT 10SM FEW036 08/02 A2996 RMK AO2 RAB13E22 SLP144 P0000 T00780017=
201704270353 METAR KCLM 270353Z AUTO 29014G18KT 10SM BKN046 08/02 A2994 RMK AO2 SLP138 T00780017=
201704270253 METAR KCLM 270253Z AUTO 30012KT 10SM FEW047 SCT055 08/02 A2991 RMK AO2 SLP129 T00830022 53014=
201704270153 METAR KCLM 270153Z AUTO 28016G23KT 10SM FEW060 10/03 A2989 RMK AO2 SLP123 T01000028=
201704270053 METAR KCLM 270053Z AUTO 31017G26KT 10SM FEW043 BKN055 11/03 A2988 RMK AO2 PK WND 29026/0047 SLP120 T01060033=
201704262353 METAR KCLM 262353Z AUTO 29014G22KT 10SM BKN060 12/04 A2987 RMK AO2 SLP115 60002 T01170039 10128 20083 53000=
201704262253 METAR KCLM 262253Z AUTO 30011G20KT 10SM SCT037 BKN055 OVC080 10/06 A2986 RMK AO2 PK WND 29027/2207 RAB2158E12 SLP113 P0000 T01000056=
201704262153 METAR KCLM 262153Z AUTO 28015G25KT 10SM FEW050 FEW070 FEW085 12/04 A2986 RMK AO2 PK WND 29027/2128 RAE11 SLP112 P0002 T01170044=
201704262053 METAR KCLM 262053Z AUTO 29021G29KT 5SM -RA SCT020 BKN049 BKN080 09/05 A2987 RMK AO2 PK WND 29029/2046 RAB39 SLP115 P0000 60000 T00890050 53020=
201704261953 METAR KCLM 261953Z AUTO 29019G29KT 10SM FEW055 12/05 A2983 RMK AO2 PK WND 28029/1953 SLP102 T01220050=
201704261853 METAR KCLM 261853Z AUTO 30015G20KT 10SM FEW050 12/05 A2981 RMK AO2 SLP096 T01220050=
201704261807 SPECI KCLM 261807Z AUTO 29015G20KT 10SM FEW023 BKN031 OVC060 10/06 A2981 RMK AO2 T01000056=
201704261753 METAR KCLM 261753Z AUTO 31014G22KT 10SM FEW023 BKN029 BKN036 11/06 A2981 RMK AO2 RAB1655E30 SLP095 P0000 60002 T01060061 10111 20067 51006=
201704261746 SPECI KCLM 261746Z AUTO 30013G19KT 10SM SCT024 BKN029 BKN042 11/07 A2981 RMK AO2 RAB1655E30 P0000 T01110072=
201704261653 METAR KCLM 261653Z AUTO 31012G18KT 10SM SCT021 BKN033 OVC047 09/07 A2980 RMK AO2 RAE01 SLP093 P0002 T00940067=
201704261649 SPECI KCLM 261649Z AUTO 31010G18KT 10SM BKN021 BKN033 OVC045 09/07 A2980 RMK AO2 RAE01 P0002=
201704261553 METAR KCLM 261553Z AUTO 28007KT 10SM -RA FEW032 BKN045 OVC060 09/07 A2979 RMK AO2 RAB11E30B52 SLP088 P0000 T00940072=
201704261453 METAR KCLM 261453Z AUTO 26004KT 10SM FEW023 SCT047 OVC060 08/07 A2978 RMK AO2 RAB02E40 SLP085 P0000 60000 T00830072 53009=
201704261353 METAR KCLM 261353Z AUTO 27007KT 10SM BKN060 08/07 A2976 RMK AO2 RAE10 SLP080 P0000 T00780072=
201704261313 SPECI KCLM 261313Z AUTO 25007KT 10SM FEW009 BKN050 BKN065 08/07 A2976 RMK AO2 RAE10 P0000 T00780072=
201704261253 METAR KCLM 261253Z AUTO 28005KT 10SM -RA BKN060 08/07 A2976 RMK AO2 RAB14E25B53 SLP077 P0000 T00780072=
201704261153 METAR KCLM 261153Z AUTO 29003KT 10SM SCT065 OVC080 07/07 A2975 RMK AO2 SLP076 60002 70002 T00670067 10089 20067 50000=
201704261053 METAR KCLM 261053Z AUTO VRB03KT 10SM FEW011 BKN037 BKN060 08/07 A2975 RMK AO2 SLP076 T00780072=
201704261049 SPECI KCLM 261049Z AUTO 26003KT 10SM SCT011 SCT032 BKN060 08/07 A2975 RMK AO2=
201704261002 SPECI KCLM 261002Z AUTO 00000KT 10SM OVC013 08/08 A2975 RMK AO2 T00780078=
201704260953 METAR KCLM 260953Z AUTO 00000KT 10SM OVC015 08/08 A2975 RMK AO2 RAE08 SLP075 P0000 T00780078=
201704260933 SPECI KCLM 260933Z AUTO 00000KT 10SM BKN017 BKN040 OVC060 07/07 A2975 RMK AO2 RAE08 P0000 T00720072=
201704260853 METAR KCLM 260853Z AUTO 25003KT 8SM -RA FEW048 OVC060 08/07 A2975 RMK AO2 RAB46 SLP073 P0002 60002 T00780072 53008=
201704260753 METAR KCLM 260753Z AUTO 22003KT 10SM BKN065 07/07 A2973 RMK AO2 SLP069 T00720067 401170039=
201704260653 METAR KCLM 260653Z AUTO 29003KT 10SM FEW060 BKN080 BKN100 08/07 A2973 RMK AO2 SLP067 T00830072=
201704260553 METAR KCLM 260553Z AUTO 30005KT 10SM OVC055 09/08 A2972 RMK AO2 RAE47 SLP065 P0000 60000 T00890078 10117 20083 53000=
201704260453 METAR KCLM 260453Z AUTO 30004KT 10SM -RA OVC060 08/08 A2971 RMK AO2 RAB20E32B49 SLP061 P0000 T00830078=
201704260353 METAR KCLM 260353Z AUTO 26005KT 10SM OVC070 09/07 A2971 RMK AO2 SLP061 T00890072=
201704260253 METAR KCLM 260253Z AUTO 26004KT 10SM OVC070 09/08 A2972 RMK AO2 SLP064 60000 T00890078 56023=
201704260153 METAR KCLM 260153Z AUTO 00000KT 10SM BKN060 OVC075 09/07 A2974 RMK AO2 RAE50 SLP070 P0000 T00940067=
201704260053 METAR KCLM 260053Z AUTO 00000KT 10SM -RA BKN055 OVC070 10/06 A2976 RMK AO2 RAB51 SLP081 P0000 T01000061=
201704252353 METAR KCLM 252353Z AUTO 00000KT 10SM BKN080 12/06 A2979 RMK AO2 SLP088 60000 T01170061 10117 20100 58029=
201704252253 METAR KCLM 252253Z AUTO VRB03KT 10SM SCT055 OVC085 11/06 A2982 RMK AO2 RAB26E41 SLP100 P0000 T01060061=
201704252153 METAR KCLM 252153Z AUTO 31004KT 10SM BKN075 OVC095 11/06 A2986 RMK AO2 SLP111 T01060061=
201704252053 METAR KCLM 252053Z AUTO VRB03KT 10SM SCT110 11/07 A2987 RMK AO2 SLP118 T01060067 58012=
201704251953 METAR KCLM 251953Z AUTO VRB03KT 10SM SCT027 BKN045 11/06 A2989 RMK AO2 SLP121 T01110056=
201704251853 METAR KCLM 251853Z AUTO VRB05KT 10SM FEW017 SCT038 OVC060 11/06 A2991 RMK AO2 SLP129 T01060061=
201704251753 METAR KCLM 251753Z AUTO VRB04KT 10SM SCT036 11/06 A2991 RMK AO2 SLP129 T01060061 10106 20039 55008=
201704251653 METAR KCLM 251653Z AUTO VRB04KT 10SM BKN033 11/07 A2990 RMK AO2 SLP127 T01060067=
201704251630 SPECI KCLM 251630Z AUTO 08008KT 10SM SCT020 SCT033 10/07 A2991 RMK AO2 T01000067=
201704251553 METAR KCLM 251553Z AUTO 04004KT 10SM BKN017 10/07 A2991 RMK AO2 SLP129 T01000067=
201704251453 METAR KCLM 251453Z AUTO 00000KT 10SM FEW022 08/05 A2993 RMK AO2 SLP137 T00780050 51007=
201704251353 METAR KCLM 251353Z AUTO 24006KT 10SM BKN065 07/04 A2993 RMK AO2 SLP136 T00670039=
201704251253 METAR KCLM 251253Z AUTO 23006KT 10SM FEW019 BKN065 04/03 A2993 RMK AO2 SLP136 T00440033=
201704251153 METAR KCLM 251153Z AUTO 23005KT 10SM FEW025 04/03 A2991 RMK AO2 SLP130 T00440033 10078 20044 58003=
201704251143 SPECI KCLM 251143Z AUTO 00000KT 10SM FEW013 SCT025 05/03 A2991 RMK AO2 T00500033=
201704251132 SPECI KCLM 251132Z AUTO 22003KT 10SM SCT013 BKN025 06/04 A2991 RMK AO2 T00610039=
201704251123 SPECI KCLM 251123Z AUTO 27003KT 10SM BKN013 OVC025 06/04 A2992 RMK AO2 T00610039=
201704251053 METAR KCLM 251053Z AUTO 26005KT 10SM BKN023 06/04 A2993 RMK AO2 SLP134 T00610039=
201704251051 SPECI KCLM 251051Z AUTO 26006KT 10SM BKN023 06/04 A2993 RMK AO2=
201704250953 METAR KCLM 250953Z AUTO 21005KT 10SM SCT060 06/04 A2992 RMK AO2 SLP133 T00560039=
201704250853 METAR KCLM 250853Z AUTO 23007KT 10SM CLR 05/04 A2992 RMK AO2 SLP133 T00500039 53008=
201704250753 METAR KCLM 250753Z AUTO 22005KT 10SM CLR 07/04 A2991 RMK AO2 SLP128 T00670044 401330061=
201704250653 METAR KCLM 250653Z AUTO 24005KT 10SM CLR 07/06 A2991 RMK AO2 SLP130 T00720056=
201704250553 METAR KCLM 250553Z AUTO 25007KT 10SM FEW021 08/06 A2990 RMK AO2 SLP126 T00780061 10122 20078 51023=
201704250453 METAR KCLM 250453Z AUTO 26007KT 10SM SCT013 09/08 A2988 RMK AO2 SLP118 T00890078=
201704250445 SPECI KCLM 250445Z AUTO 28009KT 10SM BKN013 09/08 A2988 RMK AO2 T00890078=
201704250353 METAR KCLM 250353Z AUTO 28008KT 10SM CLR 09/08 A2986 RMK AO2 SLP112 T00890078=
201704250253 METAR KCLM 250253Z AUTO 29006KT 10SM CLR 10/08 A2983 RMK AO2 SLP102 T01000078 53013=
201704250153 METAR KCLM 250153Z AUTO 30009KT 10SM CLR 11/06 A2982 RMK AO2 SLP097 T01110061=
201704250053 METAR KCLM 250053Z AUTO 32008KT 10SM CLR 12/06 A2980 RMK AO2 SLP092 T01170061=
201704242353 METAR KCLM 242353Z AUTO 34005KT 10SM CLR 12/07 A2979 RMK AO2 SLP089 T01220067 10133 20089 51002=
201704242253 METAR KCLM 242253Z AUTO 00000KT 10SM CLR 13/05 A2979 RMK AO2 SLP089 T01280050=
201704242153 METAR KCLM 242153Z AUTO VRB03KT 10SM BKN047 12/04 A2980 RMK AO2 SLP091 T01220039=
201704242053 METAR KCLM 242053Z AUTO VRB03KT 10SM CLR 12/05 A2979 RMK AO2 SLP087 T01170050 51012=
201704241953 METAR KCLM 241953Z AUTO VRB04KT 10SM BKN034 10/06 A2977 RMK AO2 SLP082 T01000056=
201704241910 SPECI KCLM 241910Z AUTO 00000KT 10SM FEW017 OVC031 10/06 A2977 RMK AO2 T01000056=
201704241853 METAR KCLM 241853Z AUTO VRB03KT 10SM FEW018 OVC029 10/06 A2977 RMK AO2 SLP080 T01000061=
201704241840 SPECI KCLM 241840Z AUTO 36004KT 10SM OVC029 09/07 A2976 RMK AO2 T00940067=
201704241803 SPECI KCLM 241803Z AUTO 02003KT 10SM SCT019 BKN031 OVC046 10/05 A2975 RMK AO2 T01000050=
201704241753 METAR KCLM 241753Z AUTO 00000KT 10SM BKN018 OVC046 09/07 A2975 RMK AO2 SLP075 T00890067 10094 20061 53006=
201704241706 SPECI KCLM 241706Z AUTO VRB03KT 10SM BKN016 OVC021 09/06 A2974 RMK AO2 T00940061=
201704241653 METAR KCLM 241653Z AUTO VRB04KT 10SM BKN014 OVC019 09/06 A2974 RMK AO2 SLP071 T00940061=
201704241553 METAR KCLM 241553Z AUTO 26003KT 10SM OVC010 08/06 A2974 RMK AO2 SLP071 T00780056=
201704241526 SPECI KCLM 241526Z AUTO 24006KT 10SM BKN010 OVC020 07/05 A2974 RMK AO2 T00720050=
201704241453 METAR KCLM 241453Z AUTO 25006KT 10SM OVC021 07/04 A2973 RMK AO2 SLP070 T00670044 53003=
201704241353 METAR KCLM 241353Z AUTO 23004KT 10SM BKN021 OVC036 06/04 A2973 RMK AO2 SLP067 T00610044=
201704241351 SPECI KCLM 241351Z AUTO 24004KT 10SM BKN021 OVC036 06/04 A2973 RMK AO2=
201704241253 METAR KCLM 241253Z AUTO 24003KT 10SM OVC033 07/04 A2972 RMK AO2 SLP066 T00670044=
201704241153 METAR KCLM 241153Z AUTO 24006KT 10SM SCT024 OVC031 07/04 A2973 RMK AO2 SLP068 T00670044 10078 20067 56008=
201704241053 METAR KCLM 241053Z AUTO 24004KT 10SM OVC024 07/05 A2974 RMK AO2 SLP070 T00670050=
201704240953 METAR KCLM 240953Z AUTO 25003KT 10SM OVC022 07/06 A2974 RMK AO2 SLP073 T00720056=
201704240853 METAR KCLM 240853Z AUTO 00000KT 10SM OVC017 07/07 A2975 RMK AO2 SLP076 T00720067 58007=
201704240803 SPECI KCLM 240803Z AUTO 00000KT 10SM BKN017 BKN060 OVC100 07/06 A2976 RMK AO2 T00720061=
201704240753 METAR KCLM 240753Z AUTO 00000KT 10SM SCT017 SCT060 OVC100 07/06 A2976 RMK AO2 SLP080 T00720061 401220061=
201704240745 SPECI KCLM 240745Z AUTO 00000KT 10SM FEW017 BKN060 OVC095 07/06 A2976 RMK AO2 T00720061=
201704240653 METAR KCLM 240653Z AUTO 00000KT 10SM OVC020 08/06 A2977 RMK AO2 SLP082 T00780061=
201704240553 METAR KCLM 240553Z AUTO 00000KT 10SM OVC018 08/06 A2978 RMK AO2 SLP083 T00780061 10117 20078 51003=
201704240453 METAR KCLM 240453Z AUTO 00000KT 10SM BKN018 08/06 A2978 RMK AO2 SLP083 T00830061=
201704240353 METAR KCLM 240353Z AUTO 00000KT 10SM OVC021 09/07 A2977 RMK AO2 SLP083 T00890067=
201704240331 SPECI KCLM 240331Z AUTO 34003KT 10SM BKN022 OVC090 09/07 A2977 RMK AO2 T00890067=
201704240253 METAR KCLM 240253Z AUTO 00000KT 10SM FEW019 OVC110 09/07 A2976 RMK AO2 SLP080 T00890067 56001=
201704240153 METAR KCLM 240153Z AUTO 00000KT 10SM OVC100 10/07 A2977 RMK AO2 SLP080 T01000072=
201704240053 METAR KCLM 240053Z AUTO 31008KT 10SM BKN110 10/07 A2977 RMK AO2 SLP080 T01000072=
201704232353 METAR KCLM 232353Z AUTO 29010KT 10SM BKN075 BKN100 11/08 A2977 RMK AO2 SLP081 60000 T01110078 10122 20094 55006=
201704232253 METAR KCLM 232253Z AUTO 30010G17KT 10SM FEW075 12/08 A2977 RMK AO2 SLP081 T01170078=
201704232153 METAR KCLM 232153Z AUTO 31009KT 10SM FEW011 12/09 A2977 RMK AO2 SLP082 T01170089=
201704232139 SPECI KCLM 232139Z AUTO 30007KT 10SM SCT011 11/08 A2977 RMK AO2 T01110083=
201704232119 SPECI KCLM 232119Z AUTO 31007KT 10SM BKN011 11/08 A2978 RMK AO2 T01060083=
201704232053 METAR KCLM 232053Z AUTO 33005KT 10SM FEW007 SCT048 SCT075 10/08 A2979 RMK AO2 SLP087 60000 T01000083 58022=
201704232039 SPECI KCLM 232039Z AUTO 34005KT 10SM SCT006 BKN039 OVC070 10/08 A2979 RMK AO2 T01000083=
201704232023 SPECI KCLM 232023Z AUTO 35005KT 10SM BKN006 OVC060 09/08 A2980 RMK AO2 T00940083=
201704232013 SPECI KCLM 232013Z AUTO VRB03KT 10SM SCT007 BKN050 OVC060 10/09 A2980 RMK AO2 T01000089=
201704231953 METAR KCLM 231953Z AUTO 01004KT 10SM OVC060 10/08 A2981 RMK AO2 SLP094 T01000078=
201704231853 METAR KCLM 231853Z AUTO 08005KT 10SM FEW048 SCT055 OVC070 10/08 A2983 RMK AO2 RAB1757E29 SLP102 P0000 T01000078=
201704231753 METAR KCLM 231753Z AUTO 08006KT 10SM BKN060 OVC075 10/07 A2985 RMK AO2 SLP109 T01000072 10100 20067 56008=
201704231738 SPECI KCLM 231738Z AUTO 09007KT 10SM SCT026 OVC070 10/07 A2985 RMK AO2 T01000072=
201704231653 METAR KCLM 231653Z AUTO 09007KT 10SM BKN016 BKN021 BKN025 09/08 A2985 RMK AO2 SLP110 T00940078=
201704231553 METAR KCLM 231553Z AUTO 08006KT 10SM OVC014 10/08 A2986 RMK AO2 SLP113 T01000078=
201704231510 SPECI KCLM 231510Z AUTO 11004KT 10SM BKN014 OVC021 09/08 A2987 RMK AO2 T00940078=
201704231453 METAR KCLM 231453Z AUTO 09003KT 10SM OVC015 09/08 A2987 RMK AO2 SLP117 T00890083 58009=
201704231353 METAR KCLM 231353Z AUTO 00000KT 10SM OVC020 08/08 A2989 RMK AO2 SLP121 T00780078=
201704231253 METAR KCLM 231253Z AUTO 00000KT 10SM OVC015 07/07 A2989 RMK AO2 SLP124 T00720072=
201704231203 SPECI KCLM 231203Z AUTO 00000KT 10SM BKN019 BKN065 07/07 A2990 RMK AO2 T00720067=
201704231153 METAR KCLM 231153Z AUTO 00000KT 10SM SCT018 BKN065 07/06 A2990 RMK AO2 SLP126 70007 T00670061 10089 20061 58011=
201704231111 SPECI KCLM 231111Z AUTO 23005KT 10SM SCT025 07/06 A2991 RMK AO2 T00720061=
201704231053 METAR KCLM 231053Z AUTO 22004KT 10SM FEW017 OVC024 07/07 A2992 RMK AO2 SLP131 T00720067=
201704231043 SPECI KCLM 231043Z AUTO 22004KT 10SM BKN015 OVC024 07/07 A2992 RMK AO2 T00720067=
201704231020 SPECI KCLM 231020Z AUTO 00000KT 10SM BKN014 07/06 A2992 RMK AO2 T00670061=
201704230953 METAR KCLM 230953Z AUTO 24004KT 10SM FEW016 FEW031 SCT065 07/06 A2992 RMK AO2 SLP134 T00720061=
201704230941 SPECI KCLM 230941Z AUTO 26005KT 10SM SCT016 SCT022 SCT065 08/06 A2993 RMK AO2 T00780061=
201704230927 SPECI KCLM 230927Z AUTO 24004KT 10SM BKN016 BKN060 OVC095 08/07 A2993 RMK AO2 T00780067=
201704230853 METAR KCLM 230853Z AUTO 00000KT 10SM SCT027 BKN065 OVC080 08/07 A2993 RMK AO2 SLP137 T00780067 51002=
201704230850 SPECI KCLM 230850Z AUTO 22004KT 10SM SCT027 BKN065 OVC080 08/07 A2993 RMK AO2=
201704230753 METAR KCLM 230753Z AUTO 26005KT 10SM BKN024 OVC070 08/07 A2993 RMK AO2 SLP136 T00780067 401330056=
201704230713 SPECI KCLM 230713Z AUTO 27003KT 10SM BKN025 OVC060 07/07 A2993 RMK AO2 T00670067=
201704230653 METAR KCLM 230653Z AUTO 21004KT 10SM SCT024 BKN060 BKN085 07/07 A2993 RMK AO2 SLP135 T00720067=
201704230553 METAR KCLM 230553Z AUTO 22004KT 10SM FEW022 SCT060 SCT100 08/07 A2993 RMK AO2 SLP136 60000 T00780067 10128 20067 52015=
201704230453 METAR KCLM 230453Z AUTO 00000KT 10SM BKN060 08/08 A2992 RMK AO2 SLP132 T00830083=
201704230353 METAR KCLM 230353Z AUTO 00000KT 10SM FEW055 08/08 A2990 RMK AO2 SLP125 T00830078=
201704230253 METAR KCLM 230253Z AUTO 00000KT 10SM SCT039 SCT070 09/09 A2988 RMK AO2 RAB24E47 SLP121 P0000 60000 T00940089 53016=
201704230234 SPECI KCLM 230234Z AUTO 00000KT 7SM -RA SCT009 BKN045 OVC065 10/09 A2988 RMK AO2 RAB24 P0000 T01000089=
201704230227 SPECI KCLM 230227Z AUTO 00000KT 10SM -RA BKN009 BKN050 OVC065 10/09 A2988 RMK AO2 RAB24 P0000 T01000089=
201704230210 SPECI KCLM 230210Z AUTO 00000KT 10SM SCT009 BKN043 BKN065 10/09 A2988 RMK AO2 T01000089=
201704230153 METAR KCLM 230153Z AUTO 36004KT 10SM BKN045 BKN065 10/08 A2987 RMK AO2 RAB13E22 SLP116 P0000 T01000083=
201704230053 METAR KCLM 230053Z AUTO VRB05KT 10SM SCT070 13/09 A2984 RMK AO2 RAB2358E08 SLP106 P0000 T01280089=
201704222353 METAR KCLM 222353Z AUTO 33006KT 10SM OVC070 12/09 A2984 RMK AO2 RAB02E31 SLP105 P0002 60007 T01220089 10133 20106 53015=
201704222253 METAR KCLM 222253Z AUTO 17003KT 10SM SCT046 OVC060 13/08 A2981 RMK AO2 RAE51 SLP095 P0002 T01330083=
201704222153 METAR KCLM 222153Z AUTO 00000KT 10SM -RA FEW046 BKN060 OVC080 12/09 A2981 RMK AO2 RAB19 SLP096 P0003 T01170089=
201704222053 METAR KCLM 222053Z AUTO 35007KT 10SM FEW041 SCT050 BKN060 13/09 A2979 RMK AO2 SLP089 60000 T01280089 51010=
201704221953 METAR KCLM 221953Z AUTO VRB04KT 10SM SCT065 12/08 A2979 RMK AO2 RAE09 SLP089 P0000 T01220083=
201704221853 METAR KCLM 221853Z AUTO 26007KT 10SM -RA FEW050 OVC070 11/07 A2978 RMK AO2 RAB22 SLP086 P0000 T01110072=
201704221753 METAR KCLM 221753Z AUTO 26010KT 10SM BKN095 OVC110 11/06 A2976 RMK AO2 SLP079 T01110056 10111 20061 53002=
201704221653 METAR KCLM 221653Z AUTO 26008KT 10SM FEW120 10/06 A2974 RMK AO2 SLP071 T01000056=
201704221553 METAR KCLM 221553Z AUTO 25004KT 10SM SCT110 09/06 A2974 RMK AO2 SLP073 T00940056=
201704221453 METAR KCLM 221453Z AUTO 25006KT 10SM CLR 09/06 A2976 RMK AO2 SLP078 T00890061 56022=
201704221353 METAR KCLM 221353Z AUTO 08003KT 10SM CLR 08/06 A2976 RMK AO2 SLP079 T00780061=
201704221253 METAR KCLM 221253Z AUTO 00000KT 10SM CLR 07/06 A2979 RMK AO2 SLP090 T00670056=
201704221153 METAR KCLM 221153Z AUTO 25005KT 10SM CLR 07/06 A2982 RMK AO2 SLP100 T00670056 10089 20056 56032=
201704221053 METAR KCLM 221053Z AUTO 24006KT 10SM CLR 07/06 A2985 RMK AO2 SLP110 T00670056=
201704220953 METAR KCLM 220953Z AUTO 24004KT 10SM CLR 07/07 A2989 RMK AO2 SLP122 T00720067=
201704220853 METAR KCLM 220853Z AUTO 25003KT 10SM CLR 08/07 A2992 RMK AO2 SLP132 T00830067 58031=
201704220753 METAR KCLM 220753Z AUTO 00000KT 10SM CLR 08/07 A2996 RMK AO2 SLP145 T00780072 401330056=
201704220653 METAR KCLM 220653Z AUTO 00000KT 10SM CLR 08/07 A2998 RMK AO2 SLP153 T00830072=
201704220553 METAR KCLM 220553Z AUTO 00000KT 10SM CLR 08/07 A3001 RMK AO2 SLP164 T00780072 10133 20078 58027=
201704220453 METAR KCLM 220453Z AUTO 21003KT 10SM CLR 09/08 A3005 RMK AO2 SLP176 T00890078=
201704220353 METAR KCLM 220353Z AUTO 00000KT 10SM CLR 10/07 A3007 RMK AO2 SLP183 T01000072=
201704220253 METAR KCLM 220253Z AUTO 00000KT 10SM CLR 12/08 A3009 RMK AO2 SLP192 T01170078 56029=
201704220153 METAR KCLM 220153Z AUTO 11003KT 10SM CLR 13/07 A3012 RMK AO2 SLP200 T01280067=
201704220053 METAR KCLM 220053Z AUTO 08006KT 10SM CLR 13/06 A3015 RMK AO2 SLP209 T01330061=
201704212353 METAR KCLM 212353Z AUTO 08007KT 10SM CLR 13/07 A3018 RMK AO2 SLP221 T01330067 10133 20100 58036=
201704212253 METAR KCLM 212253Z AUTO 08008KT 10SM CLR 13/07 A3022 RMK AO2 SLP233 T01280067=
201704212153 METAR KCLM 212153Z AUTO 07008KT 030V090 10SM CLR 13/06 A3026 RMK AO2 SLP246 T01280056=
201704212053 METAR KCLM 212053Z AUTO 06007KT 10SM CLR 12/07 A3029 RMK AO2 SLP257 T01170072 58022=
201704211953 METAR KCLM 211953Z AUTO 09008KT 040V120 10SM CLR 12/07 A3032 RMK AO2 SLP267 T01170072=
201704211902 SPECI KCLM 211902Z AUTO 09009KT 10SM SCT012 11/08 A3035 RMK AO2 T01060078=
201704211853 METAR KCLM 211853Z AUTO 08008KT 10SM BKN013 10/07 A3035 RMK AO2 SLP279 T01000072=
201704211848 SPECI KCLM 211848Z AUTO 08010KT 10SM BKN013 10/07 A3035 RMK AO2=
201704211753 METAR KCLM 211753Z AUTO VRB05KT 10SM CLR 11/07 A3036 RMK AO2 SLP281 T01110072 10117 20056 57016=
201704211653 METAR KCLM 211653Z AUTO 07006KT 10SM CLR 11/07 A3038 RMK AO2 SLP287 T01110067=
201704211553 METAR KCLM 211553Z AUTO 09008KT 10SM FEW020 11/06 A3039 RMK AO2 SLP291 T01060061=
201704211538 SPECI KCLM 211538Z AUTO 00000KT 10SM SCT018 09/07 A3039 RMK AO2 T00940067=
201704211523 SPECI KCLM 211523Z AUTO 00000KT 10SM BKN017 BKN044 08/06 A3040 RMK AO2 T00780061=
201704211453 METAR KCLM 211453Z AUTO 24004KT 10SM FEW019 OVC037 07/05 A3041 RMK AO2 SLP297 T00670050 50002=
201704211446 SPECI KCLM 211446Z AUTO 24004KT 10SM SCT019 OVC037 07/05 A3041 RMK AO2 T00670050=
201704211353 METAR KCLM 211353Z AUTO 23005KT 10SM BKN021 OVC031 06/05 A3041 RMK AO2 SLP299 T00610050=
201704211253 METAR KCLM 211253Z AUTO 25005KT 10SM OVC022 06/04 A3040 RMK AO2 SLP297 T00560044=
201704211153 METAR KCLM 211153Z AUTO 23006KT 10SM OVC026 06/05 A3040 RMK AO2 SLP296 70016 T00610050 10078 20061 58003=
201704211111 SPECI KCLM 211111Z AUTO 24006KT 10SM OVC029 06/05 A3040 RMK AO2 T00610050=
201704211053 METAR KCLM 211053Z AUTO 24006KT 10SM OVC031 07/05 A3040 RMK AO2 SLP296 T00670050=
201704210953 METAR KCLM 210953Z AUTO 25006KT 10SM OVC035 07/06 A3041 RMK AO2 SLP298 T00670056=
201704210853 METAR KCLM 210853Z AUTO 24006KT 10SM OVC050 07/06 A3041 RMK AO2 SLP298 T00720061 51008=
201704210753 METAR KCLM 210753Z AUTO 26005KT 10SM OVC050 07/07 A3041 RMK AO2 SLP298 T00720067 401330044=
201704210653 METAR KCLM 210653Z AUTO 24005KT 10SM BKN049 07/06 A3040 RMK AO2 SLP295 T00670061=
201704210553 METAR KCLM 210553Z AUTO 28004KT 10SM BKN050 07/07 A3039 RMK AO2 SLP291 60010 T00720072 10106 20072 51020=
201704210453 METAR KCLM 210453Z AUTO 26004KT 10SM OVC050 08/08 A3037 RMK AO2 SLP285 T00830083=
201704210353 METAR KCLM 210353Z AUTO 29004KT 10SM FEW045 BKN055 08/08 A3035 RMK AO2 SLP278 T00780078=
201704210253 METAR KCLM 210253Z AUTO 28003KT 10SM BKN047 OVC060 09/09 A3033 RMK AO2 RAE45 SLP271 P0002 60010 T00940089 51013=
201704210153 METAR KCLM 210153Z AUTO 30003KT 10SM -RA OVC044 09/08 A3032 RMK AO2 RAE35B52 SLP269 P0006 T00940083=
201704210126 SPECI KCLM 210126Z AUTO 34004KT 6SM -RA BR OVC047 09/08 A3031 RMK AO2 P0006 T00940083=
201704210109 SPECI KCLM 210109Z AUTO 00000KT 2 1/2SM -RA BR FEW038 OVC047 09/09 A3031 RMK AO2 P0005 T00940089=
201704210053 METAR KCLM 210053Z AUTO 28003KT 3SM -RA BR BKN038 OVC048 09/08 A3030 RMK AO2 RAB25 SLP264 P0002 T00940083=
201704202353 METAR KCLM 202353Z AUTO 34003KT 10SM BKN043 OVC055 11/08 A3029 RMK AO2 RAE38 SLP258 P0005 60006 T01060083 10133 20106 53021=
201704202253 METAR KCLM 202253Z AUTO 36003KT 10SM -RA OVC050 11/07 A3026 RMK AO2 RAB10E23B47 SLP248 P0000 T01110067=
201704202153 METAR KCLM 202153Z AUTO 01004KT 10SM SCT065 SCT075 13/06 A3024 RMK AO2 RAB2054E17 SLP241 P0000 T01330056=
201704202053 METAR KCLM 202053Z AUTO 09004KT 10SM FEW040 BKN050 OVC060 12/07 A3023 RMK AO2 RAE12B33E44 SLP237 P0001 60001 T01220067 51011=
201704201953 METAR KCLM 201953Z AUTO VRB04KT 10SM -RA OVC050 11/07 A3022 RMK AO2 RAB29 SLP234 P0000 T01110067=
201704201853 METAR KCLM 201853Z AUTO 03007KT 10SM FEW060 13/07 A3021 RMK AO2 SLP230 T01280072=
201704201753 METAR KCLM 201753Z AUTO VRB03KT 10SM OVC060 11/06 A3019 RMK AO2 SLP225 T01060061 10111 20044 51023=
201704201653 METAR KCLM 201653Z AUTO 08004KT 10SM OVC060 11/07 A3017 RMK AO2 SLP218 T01110072=
201704201553 METAR KCLM 201553Z AUTO 00000KT 10SM OVC070 11/07 A3015 RMK AO2 SLP210 T01060067=
201704201453 METAR KCLM 201453Z AUTO 00000KT 10SM BKN075 OVC090 09/06 A3013 RMK AO2 SLP202 T00940061 52013=
201704201353 METAR KCLM 201353Z AUTO 22005KT 10SM CLR 04/04 A3012 RMK AO2 SLP200 T00440039=
201704201253 METAR KCLM 201253Z AUTO 24006KT 10SM CLR 05/04 A3010 RMK AO2 SLP193 T00500044=
201704201153 METAR KCLM 201153Z AUTO 00000KT 10SM FEW040 OVC055 06/06 A3009 RMK AO2 SLP189 70002 T00560056 10089 20056 51007=
201704201053 METAR KCLM 201053Z AUTO 00000KT 10SM FEW027 BKN032 OVC060 07/06 A3008 RMK AO2 SLP187 T00670061=
201704201029 SPECI KCLM 201029Z AUTO 00000KT 10SM BKN028 BKN080 07/06 A3007 RMK AO2 T00670056=
201704200953 METAR KCLM 200953Z AUTO 23004KT 10SM FEW034 BKN065 BKN095 07/06 A3007 RMK AO2 SLP182 T00670061=
201704200853 METAR KCLM 200853Z AUTO 16004KT 10SM FEW030 SCT034 BKN070 07/06 A3006 RMK AO2 SLP179 T00670056 51012=
201704200753 METAR KCLM 200753Z AUTO 23004KT 10SM OVC055 08/06 A3005 RMK AO2 SLP176 T00780061 401390044=
201704200653 METAR KCLM 200653Z AUTO 22003KT 10SM CLR 08/06 A3003 RMK AO2 SLP171 T00830061=
201704200553 METAR KCLM 200553Z AUTO 30005KT 10SM SCT050 SCT060 08/07 A3002 RMK AO2 RAE32 SLP167 P0000 60000 T00830072 10133 20083 51014=
201704200453 METAR KCLM 200453Z AUTO 29010KT 9SM -RA BKN050 OVC065 09/06 A3002 RMK AO2 SLP165 P0000 T00940061=
201704200353 METAR KCLM 200353Z AUTO 00000KT 10SM -RA OVC055 10/07 A3000 RMK AO2 RAB45 SLP159 P0000 T01000067=
201704200253 METAR KCLM 200253Z AUTO 28004KT 10SM FEW050 SCT070 10/06 A2998 RMK AO2 SLP154 T01000056 56005=
201704200153 METAR KCLM 200153Z AUTO VRB04KT 10SM BKN070 11/06 A2999 RMK AO2 SLP155 T01110056=
201704200053 METAR KCLM 200053Z AUTO 29007KT 10SM FEW070 12/06 A2999 RMK AO2 SLP157 T01220056=
201704192353 METAR KCLM 192353Z AUTO 31005KT 10SM OVC075 13/06 A3000 RMK AO2 SLP159 T01330056 10139 20106 58002=
201704192253 METAR KCLM 192253Z AUTO VRB04KT 10SM BKN070 OVC080 14/05 A2999 RMK AO2 LTG DSNT N SLP157 T01390050=
201704192153 METAR KCLM 192153Z AUTO 01004KT 10SM BKN075 OVC085 13/06 A3001 RMK AO2 SLP164 T01330056=
201704192053 METAR KCLM 192053Z AUTO 07004KT 10SM BKN070 13/06 A3000 RMK AO2 SLP161 T01280056 51011=
201704191953 METAR KCLM 191953Z AUTO VRB03KT 10SM BKN055 OVC065 12/06 A2999 RMK AO2 SLP158 T01220061=
201704191853 METAR KCLM 191853Z AUTO VRB04KT 10SM OVC060 13/05 A2998 RMK AO2 SLP155 T01330050=
201704191753 METAR KCLM 191753Z AUTO 26008KT 10SM FEW055 OVC080 12/06 A2997 RMK AO2 RAE20B41E51 SLP150 P0000 60002 T01170061 10128 20061 53014=
201704191653 METAR KCLM 191653Z AUTO 25012KT 10SM -RA FEW048 OVC060 11/07 A2996 RMK AO2 PK WND 24031/1625 RAB18 SLP146 P0002 T01060067=
201704191553 METAR KCLM 191553Z AUTO VRB03KT 10SM OVC090 11/04 A2994 RMK AO2 SLP138 T01060044=
201704191453 METAR KCLM 191453Z AUTO VRB03KT 10SM OVC070 11/03 A2993 RMK AO2 RAB11E21 SLP136 P0000 60000 T01110033 56010=
201704191353 METAR KCLM 191353Z AUTO VRB03KT 10SM OVC075 09/04 A2994 RMK AO2 SLP140 T00890044=
201704191253 METAR KCLM 191253Z AUTO VRB04KT 10SM BKN080 OVC090 08/05 A2995 RMK AO2 SLP141 T00780050=
201704191153 METAR KCLM 191153Z AUTO VRB04KT 10SM BKN080 07/05 A2996 RMK AO2 SLP146 T00670050 10083 20044 56015=
201704191053 METAR KCLM 191053Z AUTO 00000KT 10SM FEW080 04/04 A2997 RMK AO2 SLP148 T00440044=
201704190953 METAR KCLM 190953Z AUTO 00000KT 10SM BKN085 07/06 A2998 RMK AO2 SLP153 T00670056=
201704190853 METAR KCLM 190853Z AUTO 00000KT 10SM OVC080 07/06 A3000 RMK AO2 SLP161 T00720056 58012=
201704190753 METAR KCLM 190753Z AUTO 17003KT 10SM SCT080 06/05 A3002 RMK AO2 SLP166 T00560050 401330039=
201704190653 METAR KCLM 190653Z AUTO 00000KT 10SM FEW065 07/05 A3004 RMK AO2 SLP174 T00720050=
201704190553 METAR KCLM 190553Z AUTO 21004KT 10SM FEW085 08/06 A3004 RMK AO2 SLP173 T00780061 10128 20067 50010=
201704190453 METAR KCLM 190453Z AUTO 00000KT 10SM CLR 08/07 A3004 RMK AO2 SLP174 T00780067=
201704190353 METAR KCLM 190353Z AUTO 24004KT 10SM CLR 08/07 A3003 RMK AO2 SLP170 T00780067=
201704190253 METAR KCLM 190253Z AUTO 00000KT 10SM CLR 09/06 A3001 RMK AO2 SLP163 T00940061 51006=
201704190153 METAR KCLM 190153Z AUTO 34004KT 10SM FEW065 11/07 A3000 RMK AO2 SLP161 T01060067=
201704190053 METAR KCLM 190053Z AUTO 01005KT 10SM FEW046 BKN060 12/07 A3000 RMK AO2 SLP159 T01170072=
201704182353 METAR KCLM 182353Z AUTO 03005KT 10SM FEW029 SCT039 BKN049 12/08 A2999 RMK AO2 RAE07B40E53 SLP156 P0000 60000 T01220078 10133 20100 50006=
201704182253 METAR KCLM 182253Z AUTO 00000KT 10SM -RA SCT045 OVC055 12/07 A2999 RMK AO2 RAB35 SLP157 P0000 T01220072=
201704182153 METAR KCLM 182153Z AUTO VRB04KT 10SM FEW038 BKN070 OVC085 12/07 A2998 RMK AO2 SLP152 T01220067=
201704182053 METAR KCLM 182053Z AUTO 05006KT 10SM FEW044 BKN060 BKN075 13/07 A2997 RMK AO2 SLP150 60000 T01280072 53016=
201704181953 METAR KCLM 181953Z AUTO VRB04KT 10SM BKN055 BKN075 BKN095 12/08 A2995 RMK AO2 RAB07E24 SLP143 P0000 T01170078=
201704181853 METAR KCLM 181853Z AUTO VRB04KT 10SM SCT060 BKN080 12/08 A2994 RMK AO2 SLP139 T01170078=
201704181753 METAR KCLM 181753Z AUTO VRB04KT 10SM BKN055 10/08 A2992 RMK AO2 SLP133 60000 T01000083 10117 20056 53017=
201704181653 METAR KCLM 181653Z AUTO 00000KT 10SM BKN060 OVC075 11/08 A2990 RMK AO2 SLP126 T01060083=
201704181553 METAR KCLM 181553Z AUTO 10003KT 10SM BKN065 10/08 A2988 RMK AO2 SLP119 T01000083=
201704181453 METAR KCLM 181453Z AUTO 00000KT 10SM BKN065 09/07 A2987 RMK AO2 RAE05 SLP116 P0000 60000 T00890072 53008=
201704181353 METAR KCLM 181353Z AUTO 26006KT 8SM -RA BKN050 BKN060 OVC080 08/07 A2985 RMK AO2 RAB23 SLP109 P0000 T00830067=
201704181253 METAR KCLM 181253Z AUTO 22005KT 10SM SCT080 OVC095 07/07 A2985 RMK AO2 SLP108 T00720067=
201704181153 METAR KCLM 181153Z AUTO 23004KT 10SM BKN110 05/05 A2985 RMK AO2 SLP108 60000 T00500050 10078 20039 53002=
201704181053 METAR KCLM 181053Z AUTO 24003KT 10SM FEW025 FEW110 04/04 A2984 RMK AO2 SLP107 T00440044=
201704180953 METAR KCLM 180953Z AUTO 22004KT 10SM SCT100 07/06 A2984 RMK AO2 RAB10E21 SLP106 P0000 T00670056=
201704180853 METAR KCLM 180853Z AUTO 00000KT 10SM CLR 06/05 A2984 RMK AO2 SLP107 T00560050 50000=
201704180753 METAR KCLM 180753Z AUTO 20003KT 10SM FEW060 BKN110 06/06 A2985 RMK AO2 SLP109 T00610056 401330061=
201704180653 METAR KCLM 180653Z AUTO 21003KT 10SM OVC060 07/06 A2985 RMK AO2 SLP108 T00670061=
201704180553 METAR KCLM 180553Z AUTO 19003KT 10SM BKN065 BKN095 07/07 A2984 RMK AO2 SLP107 T00720067 10128 20072 51009=
201704180453 METAR KCLM 180453Z AUTO 20004KT 10SM OVC100 07/07 A2984 RMK AO2 SLP105 T00720067=
201704180353 METAR KCLM 180353Z AUTO 14004KT 10SM BKN055 BKN095 08/07 A2983 RMK AO2 SLP100 T00830067=
201704180253 METAR KCLM 180253Z AUTO 28003KT 10SM BKN070 09/07 A2982 RMK AO2 SLP097 T00940067 53004=
201704180153 METAR KCLM 180153Z AUTO 32004KT 10SM FEW050 SCT075 SCT090 11/07 A2980 RMK AO2 SLP093 T01110067=
201704180053 METAR KCLM 180053Z AUTO 32006KT 10SM OVC055 12/06 A2980 RMK AO2 SLP093 T01220056=
201704172353 METAR KCLM 172353Z AUTO 00000KT 10SM FEW050 BKN065 OVC080 13/06 A2980 RMK AO2 SLP093 T01280061 10133 20117 58001=
201704172253 METAR KCLM 172253Z AUTO 02003KT 10SM SCT065 BKN120 12/06 A2980 RMK AO2 SLP092 T01220056=
201704172153 METAR KCLM 172153Z AUTO VRB04KT 10SM SCT060 BKN070 OVC100 12/05 A2981 RMK AO2 SLP095 T01220050=
201704172053 METAR KCLM 172053Z AUTO 35005KT 10SM FEW050 BKN060 OVC110 12/05 A2981 RMK AO2 SLP094 T01220050 58005=
201704171953 METAR KCLM 171953Z AUTO 02003KT 10SM OVC060 13/05 A2981 RMK AO2 SLP096 T01280050=
201704171853 METAR KCLM 171853Z AUTO 09007KT 10SM BKN055 OVC070 12/04 A2982 RMK AO2 SLP098 T01220044=
201704171753 METAR KCLM 171753Z AUTO 06004KT 10SM OVC065 13/05 A2982 RMK AO2 SLP098 T01280050 10133 20061 53006=
201704171653 METAR KCLM 171653Z AUTO 04005KT 10SM SCT070 13/06 A2981 RMK AO2 SLP096 T01330061=
201704171553 METAR KCLM 171553Z AUTO 08003KT 10SM CLR 12/06 A2981 RMK AO2 SLP094 T01170056=
201704171453 METAR KCLM 171453Z AUTO 13003KT 10SM CLR 08/06 A2980 RMK AO2 SLP092 T00830061 50009=
201704171353 METAR KCLM 171353Z AUTO 23005KT 10SM FEW065 07/05 A2980 RMK AO2 SLP093 T00670050=
201704171253 METAR KCLM 171253Z AUTO 25005KT 10SM SCT070 07/04 A2979 RMK AO2 SLP088 T00720044=
201704171153 METAR KCLM 171153Z AUTO 24004KT 10SM BKN070 OVC110 08/06 A2977 RMK AO2 SLP083 T00780056 10106 20072 53001=
201704171053 METAR KCLM 171053Z AUTO 00000KT 10SM OVC085 08/06 A2977 RMK AO2 SLP081 T00830061=
201704170953 METAR KCLM 170953Z AUTO 23004KT 10SM OVC090 08/06 A2977 RMK AO2 SLP082 T00830061=
201704170853 METAR KCLM 170853Z AUTO 00000KT 10SM BKN095 08/07 A2977 RMK AO2 SLP082 T00830067 55002=
201704170753 METAR KCLM 170753Z AUTO 23004KT 10SM BKN090 OVC100 09/07 A2976 RMK AO2 SLP080 T00940067 401280006=
201704170653 METAR KCLM 170653Z AUTO 20003KT 10SM OVC100 09/07 A2977 RMK AO2 SLP083 T00890072=
201704170553 METAR KCLM 170553Z AUTO 20004KT 10SM BKN055 BKN075 OVC085 11/07 A2978 RMK AO2 SLP084 60000 T01060067 10122 20094 55000=
201704170453 METAR KCLM 170453Z AUTO 27005KT 10SM OVC075 11/07 A2978 RMK AO2 RAB11E34 SLP084 P0000 T01060067=
201704170353 METAR KCLM 170353Z AUTO 00000KT 10SM BKN080 OVC095 09/06 A2977 RMK AO2 SLP083 T00940061=
201704170253 METAR KCLM 170253Z AUTO 00000KT 10SM OVC110 11/05 A2978 RMK AO2 SLP084 T01110050 56010=
201704170153 METAR KCLM 170153Z AUTO 00000KT 10SM OVC100 12/04 A2978 RMK AO2 SLP086 T01170039=
201704170053 METAR KCLM 170053Z AUTO 00000KT 10SM SCT100 12/03 A2980 RMK AO2 SLP090 T01220033=
201704162353 METAR KCLM 162353Z AUTO 11007KT 10SM CLR 12/04 A2981 RMK AO2 SLP095 T01220039 10128 20089 56024=
201704162253 METAR KCLM 162253Z AUTO VRB06KT 10SM CLR 12/04 A2983 RMK AO2 SLP102 T01220039=
201704162153 METAR KCLM 162153Z AUTO 09009KT 10SM CLR 11/03 A2985 RMK AO2 SLP111 T01060033=
201704162053 METAR KCLM 162053Z AUTO 09008KT 10SM CLR 10/04 A2988 RMK AO2 SLP119 T01000044 56029=
201704161953 METAR KCLM 161953Z AUTO VRB06KT 10SM CLR 09/04 A2991 RMK AO2 SLP129 T00940039=
201704161901 SPECI KCLM 161901Z AUTO VRB05KT 10SM FEW021 09/04 A2993 RMK AO2 T00890039=
201704161853 METAR KCLM 161853Z AUTO VRB05KT 10SM BKN021 09/04 A2994 RMK AO2 SLP139 T00940044=
201704161753 METAR KCLM 161753Z AUTO 05006KT 10SM CLR 09/04 A2997 RMK AO2 SLP149 T00890044 10089 20011 56019=
201704161653 METAR KCLM 161653Z AUTO 07007KT 040V100 10SM SCT016 08/04 A2998 RMK AO2 SLP153 T00830044=
201704161646 SPECI KCLM 161646Z AUTO VRB06KT 10SM SCT018 08/05 A2998 RMK AO2 T00830050=
201704161553 METAR KCLM 161553Z AUTO VRB05KT 10SM OVC017 08/05 A3001 RMK AO2 SLP163 T00780050=
201704161542 SPECI KCLM 161542Z AUTO VRB03KT 10SM OVC016 08/06 A3001 RMK AO2 T00780056=
201704161512 SPECI KCLM 161512Z AUTO 00000KT 10SM BKN012 OVC019 07/06 A3002 RMK AO2 T00670056=
201704161453 METAR KCLM 161453Z AUTO 00000KT 10SM OVC016 06/04 A3002 RMK AO2 SLP168 T00560044 56017=
201704161436 SPECI KCLM 161436Z AUTO 23003KT 10SM OVC013 06/04 A3003 RMK AO2 T00560044=
201704161353 METAR KCLM 161353Z AUTO 23003KT 10SM OVC016 04/04 A3003 RMK AO2 SLP172 T00440039=
201704161253 METAR KCLM 161253Z AUTO 22004KT 10SM OVC010 04/03 A3005 RMK AO2 SLP177 T00390033=
201704161207 SPECI KCLM 161207Z AUTO 24003KT 10SM BKN011 01/01 A3007 RMK AO2 T00110011=
201704161153 METAR KCLM 161153Z AUTO 19003KT 10SM FEW013 01/01 A3007 RMK AO2 SLP185 T00060006 10033 20006 58021=
201704161053 METAR KCLM 161053Z AUTO 00000KT 10SM CLR 01/01 A3009 RMK AO2 SLP191 T00060006=
201704160953 METAR KCLM 160953Z AUTO 00000KT 10SM CLR 02/01 A3012 RMK AO2 SLP202 T00170011=
201704160853 METAR KCLM 160853Z AUTO 00000KT 10SM CLR 02/02 A3013 RMK AO2 SLP206 T00220017 56011=
201704160753 METAR KCLM 160753Z AUTO 00000KT 10SM CLR 03/02 A3014 RMK AO2 SLP209 T00280022 401170022=
201704160653 METAR KCLM 160653Z AUTO 23004KT 10SM CLR 03/03 A3015 RMK AO2 SLP212 T00280028=
201704160553 METAR KCLM 160553Z AUTO 20003KT 10SM CLR 03/03 A3017 RMK AO2 SLP217 T00330028 10111 20028 58010=
201704160453 METAR KCLM 160453Z AUTO 21004KT 10SM CLR 04/03 A3018 RMK AO2 SLP223 T00390028=
201704160353 METAR KCLM 160353Z AUTO 00000KT 10SM CLR 06/04 A3019 RMK AO2 SLP226 T00560039=
201704160253 METAR KCLM 160253Z AUTO 33003KT 10SM CLR 08/04 A3020 RMK AO2 SLP228 T00780044 58007=
201704160153 METAR KCLM 160153Z AUTO 36003KT 10SM CLR 10/04 A3021 RMK AO2 SLP233 T01000039=
201704160053 METAR KCLM 160053Z AUTO 36004KT 10SM CLR 10/04 A3022 RMK AO2 SLP234 T01000044=
201704152353 METAR KCLM 152353Z AUTO 03005KT 10SM CLR 11/04 A3022 RMK AO2 SLP235 T01060044 10117 20089 56014=
201704152253 METAR KCLM 152253Z AUTO VRB05KT 10SM CLR 11/04 A3023 RMK AO2 SLP238 T01110044=
201704152153 METAR KCLM 152153Z AUTO 07005KT 10SM SCT050 09/04 A3025 RMK AO2 SLP245 T00940044=
201704152053 METAR KCLM 152053Z AUTO 12007KT 10SM CLR 11/06 A3026 RMK AO2 SLP249 T01060061 58005=
201704151953 METAR KCLM 151953Z AUTO VRB06KT 10SM SCT015 BKN055 BKN095 09/06 A3027 RMK AO2 SLP251 T00940056=
201704151853 METAR KCLM 151853Z AUTO VRB06KT 10SM CLR 09/06 A3027 RMK AO2 SLP253 T00940061=
201704151753 METAR KCLM 151753Z AUTO VRB06KT 10SM SCT018 09/05 A3028 RMK AO2 SLP254 T00890050 10100 20039 53006=
201704151701 SPECI KCLM 151701Z AUTO VRB04KT 10SM FEW016 BKN035 08/05 A3026 RMK AO2 T00830050=
201704151653 METAR KCLM 151653Z AUTO VRB04KT 10SM BKN018 BKN032 BKN040 08/05 A3027 RMK AO2 SLP251 T00830050=
201704151553 METAR KCLM 151553Z AUTO 00000KT 10SM OVC017 08/05 A3026 RMK AO2 SLP250 T00780050=
201704151537 SPECI KCLM 151537Z AUTO 00000KT 10SM BKN017 OVC065 07/05 A3026 RMK AO2 T00720050=
201704151453 METAR KCLM 151453Z AUTO 00000KT 10SM FEW018 OVC060 06/06 A3026 RMK AO2 SLP248 T00610061 53005=
201704151426 SPECI KCLM 151426Z AUTO 14003KT 10SM FEW022 BKN065 05/05 A3026 RMK AO2 T00500050=
201704151353 METAR KCLM 151353Z AUTO 00000KT 10SM OVC018 05/05 A3025 RMK AO2 SLP247 T00500050=
201704151253 METAR KCLM 151253Z AUTO 00000KT 10SM BKN016 BKN028 OVC045 04/04 A3024 RMK AO2 SLP244 T00440039=
201704151210 SPECI KCLM 151210Z AUTO 00000KT 10SM BKN029 04/04 A3024 RMK AO2 T00440039=
201704151153 METAR KCLM 151153Z AUTO 23003KT 10SM FEW029 SCT034 04/04 A3024 RMK AO2 SLP243 70001 T00440039 10061 20039 53003=
201704151053 METAR KCLM 151053Z AUTO 00000KT 10SM SCT028 OVC120 04/04 A3024 RMK AO2 SLP241 T00440039=
201704151019 SPECI KCLM 151019Z AUTO 22004KT 10SM BKN025 05/04 A3024 RMK AO2 T00500039=
201704150953 METAR KCLM 150953Z AUTO 00000KT 10SM SCT060 SCT110 04/04 A3023 RMK AO2 SLP239 T00440039=
201704150853 METAR KCLM 150853Z AUTO 00000KT 10SM FEW065 BKN100 05/04 A3023 RMK AO2 SLP240 T00500039 53011=
201704150753 METAR KCLM 150753Z AUTO 00000KT 10SM FEW090 05/04 A3022 RMK AO2 SLP235 T00500039 401000033=
201704150653 METAR KCLM 150653Z AUTO 25003KT 10SM SCT070 05/04 A3021 RMK AO2 SLP231 T00500039=
201704150553 METAR KCLM 150553Z AUTO 00000KT 10SM SCT029 OVC085 06/05 A3020 RMK AO2 SLP229 60000 T00560050 10094 20056 51011=
201704150544 SPECI KCLM 150544Z AUTO 00000KT 10SM BKN029 BKN070 OVC085 06/04 A3020 RMK AO2 T00610044=
201704150453 METAR KCLM 150453Z AUTO 26006KT 10SM FEW065 OVC085 06/05 A3020 RMK AO2 SLP227 T00560050=
201704150353 METAR KCLM 150353Z AUTO 00000KT 10SM FEW031 SCT080 BKN100 06/06 A3018 RMK AO2 SLP222 T00610056=
201704150253 METAR KCLM 150253Z AUTO 14003KT 10SM BKN034 07/05 A3017 RMK AO2 SLP218 60000 T00720050 53004=
201704150153 METAR KCLM 150153Z AUTO 00000KT 10SM FEW029 SCT037 BKN085 08/05 A3016 RMK AO2 RAE00 SLP215 P0000 T00780050=
201704150105 SPECI KCLM 150105Z AUTO 34004KT 10SM FEW024 BKN033 OVC042 08/06 A3016 RMK AO2 RAE00 P0000 T00830056=
201704150053 METAR KCLM 150053Z AUTO 00000KT 10SM -RA BKN024 BKN036 OVC044 08/06 A3016 RMK AO2 RAB47 SLP214 P0000 T00830056=
201704150051 SPECI KCLM 150051Z AUTO 34003KT 10SM -RA BKN024 BKN038 OVC050 08/06 A3016 RMK AO2 RAB47 P0000=
201704142353 METAR KCLM 142353Z AUTO 05004KT 10SM SCT030 OVC037 09/06 A3015 RMK AO2 SLP212 60001 T00890056 10100 20078 51006=
201704142253 METAR KCLM 142253Z AUTO 00000KT 10SM OVC039 09/06 A3014 RMK AO2 RAB02E36 SLP210 P0001 T00890056=
201704142153 METAR KCLM 142153Z AUTO 36005KT 10SM FEW014 OVC035 08/05 A3014 RMK AO2 SLP208 T00780050=
201704142146 SPECI KCLM 142146Z AUTO 36005KT 10SM FEW014 SCT029 OVC036 08/06 A3014 RMK AO2 T00830056=
201704142123 SPECI KCLM 142123Z AUTO 33006KT 10SM BKN029 OVC039 08/04 A3014 RMK AO2 T00780044=
201704142053 METAR KCLM 142053Z AUTO VRB05KT 10SM FEW016 FEW034 BKN042 09/06 A3013 RMK AO2 RAB19E30 SLP205 P0000 60000 T00890056 52010=
201704141953 METAR KCLM 141953Z AUTO 00000KT 10SM OVC038 09/06 A3012 RMK AO2 RAE1854B17E38 SLP201 P0000 T00890056=
201704141853 METAR KCLM 141853Z AUTO 07005KT 10SM -RA BKN042 BKN055 OVC090 09/06 A3011 RMK AO2 RAB43 SLP199 P0000 T00890056=
201704141753 METAR KCLM 141753Z AUTO 06005KT 10SM FEW016 09/05 A3010 RMK AO2 SLP195 T00890050 10094 20033 51015=
201704141653 METAR KCLM 141653Z AUTO 34004KT 10SM SCT065 BKN100 08/05 A3009 RMK AO2 SLP191 T00830050=
201704141553 METAR KCLM 141553Z AUTO 00000KT 10SM SCT016 SCT060 BKN080 07/05 A3007 RMK AO2 SLP185 T00720050=
201704141541 SPECI KCLM 141541Z AUTO 00000KT 10SM BKN016 07/05 A3007 RMK AO2 T00720050=
201704141528 SPECI KCLM 141528Z AUTO 27003KT 10SM SCT015 07/04 A3007 RMK AO2 T00670044=
201704141453 METAR KCLM 141453Z AUTO 23003KT 10SM OVC015 06/04 A3006 RMK AO2 SLP180 T00560044 53013=
201704141440 SPECI KCLM 141440Z AUTO 00000KT 10SM BKN016 OVC065 05/05 A3005 RMK AO2 T00500050=
201704141353 METAR KCLM 141353Z AUTO 00000KT 10SM BKN070 BKN080 OVC095 04/04 A3004 RMK AO2 SLP175 T00390039=
201704141253 METAR KCLM 141253Z AUTO 00000KT 10SM FEW021 05/04 A3003 RMK AO2 SLP170 T00500039=
201704141230 SPECI KCLM 141230Z AUTO 00000KT 10SM FEW019 SCT025 BKN034 05/04 A3002 RMK AO2 T00500039=
201704141153 METAR KCLM 141153Z AUTO 25004KT 10SM OVC018 06/04 A3002 RMK AO2 SLP168 T00560039 10067 20050 51012=
201704141053 METAR KCLM 141053Z AUTO 21003KT 10SM OVC019 06/04 A3001 RMK AO2 SLP164 T00560044=
201704140953 METAR KCLM 140953Z AUTO 24003KT 10SM OVC020 06/04 A3000 RMK AO2 SLP161 T00560044=
201704140853 METAR KCLM 140853Z AUTO 19003KT 10SM BKN017 BKN024 OVC110 06/03 A2999 RMK AO2 SLP155 T00610028 51016=
201704140753 METAR KCLM 140753Z AUTO 25003KT 10SM BKN016 OVC025 06/03 A2997 RMK AO2 SLP152 T00610033 401110044=
201704140735 SPECI KCLM 140735Z AUTO 00000KT 10SM BKN014 BKN025 06/04 A2997 RMK AO2 T00560044=
201704140653 METAR KCLM 140653Z AUTO 12003KT 10SM FEW048 05/04 A2995 RMK AO2 SLP144 T00500039=
201704140553 METAR KCLM 140553Z AUTO 19003KT 10SM FEW017 SCT037 07/04 A2994 RMK AO2 SLP139 T00670044 10100 20061 51009=
201704140550 SPECI KCLM 140550Z AUTO 19003KT 10SM SCT017 SCT037 07/04 A2994 RMK AO2=
201704140538 SPECI KCLM 140538Z AUTO 21004KT 10SM BKN017 07/04 A2994 RMK AO2 T00720039=
201704140527 SPECI KCLM 140527Z AUTO 26005KT 10SM SCT017 06/04 A2994 RMK AO2 T00610039=
201704140453 METAR KCLM 140453Z AUTO 00000KT 10SM OVC021 07/06 A2993 RMK AO2 SLP137 T00720056=
201704140434 SPECI KCLM 140434Z AUTO 00000KT 10SM BKN019 BKN025 OVC037 08/06 A2992 RMK AO2 T00780061=
201704140353 METAR KCLM 140353Z AUTO 27003KT 10SM BKN033 OVC040 08/05 A2991 RMK AO2 SLP129 T00830050=
201704140253 METAR KCLM 140253Z AUTO 00000KT 10SM SCT036 BKN047 OVC060 09/04 A2989 RMK AO2 SLP122 T00890044 53017=
201704140153 METAR KCLM 140153Z AUTO 11003KT 10SM BKN050 BKN075 10/04 A2987 RMK AO2 SLP115 T01000044=
201704140053 METAR KCLM 140053Z AUTO 00000KT 10SM FEW037 SCT048 10/05 A2985 RMK AO2 SLP111 T01000050=
201704132353 METAR KCLM 132353Z AUTO VRB06KT 10SM FEW020 FEW047 BKN055 10/06 A2984 RMK AO2 RAB05E14 SLP104 P0000 60000 T01000061 10111 20083 51022=
201704132253 METAR KCLM 132253Z AUTO VRB03KT 10SM FEW036 SCT048 BKN070 10/06 A2981 RMK AO2 RAE2155B24E36 SLP096 P0000 T01000061=
201704132153 METAR KCLM 132153Z AUTO 33009G14KT 10SM -RA SCT034 OVC060 09/06 A2979 RMK AO2 RAE00B46 SLP090 P0000 T00940061=
201704132053 METAR KCLM 132053Z AUTO 32005KT 9SM -RA BKN035 OVC048 10/07 A2977 RMK AO2 RAE03B36 SLP082 P0000 60000 T01000067 53017=
201704131953 METAR KCLM 131953Z AUTO VRB03KT 7SM -RA BKN043 OVC060 09/06 A2975 RMK AO2 RAB47 SLP074 P0000 T00940061=
201704131853 METAR KCLM 131853Z AUTO 35004KT 10SM BKN080 09/07 A2974 RMK AO2 RAE1755 SLP070 P0000 T00890067=
201704131803 SPECI KCLM 131803Z AUTO 36004KT 10SM SCT009 BKN042 OVC070 09/07 A2972 RMK AO2 RAE1755 P0000 T00890072=
201704131753 METAR KCLM 131753Z AUTO 03004KT 10SM -RA BKN009 BKN045 OVC055 08/07 A2972 RMK AO2 RAB46 SLP065 P0000 60000 T00830072 10089 20044 53010=
201704131653 METAR KCLM 131653Z AUTO 03005KT 10SM BKN007 OVC013 08/07 A2971 RMK AO2 SLP061 T00830072=
201704131637 SPECI KCLM 131637Z AUTO VRB03KT 10SM BKN007 BKN055 09/07 A2970 RMK AO2 T00890072=
201704131624 SPECI KCLM 131624Z AUTO VRB03KT 10SM FEW007 BKN023 09/07 A2970 RMK AO2 T00890072=
201704131619 SPECI KCLM 131619Z AUTO 34004KT 10SM SCT023 09/07 A2970 RMK AO2 T00890072=
201704131610 SPECI KCLM 131610Z AUTO 36003KT 10SM BKN023 09/07 A2970 RMK AO2 T00890067=
201704131553 METAR KCLM 131553Z AUTO 36003KT 10SM CLR 09/06 A2970 RMK AO2 SLP058 T00890061=
201704131453 METAR KCLM 131453Z AUTO 23004KT 10SM BKN033 BKN060 BKN075 07/06 A2969 RMK AO2 SLP055 T00670056 53005=
201704131353 METAR KCLM 131353Z AUTO 00000KT 9SM BKN032 05/05 A2969 RMK AO2 SLP054 T00500050=
201704131327 SPECI KCLM 131327Z AUTO 00000KT 10SM BKN032 BKN065 05/05 A2968 RMK AO2 T00500050=
201704131319 SPECI KCLM 131319Z AUTO 00000KT 2 1/2SM BR SCT032 BKN041 BKN070 05/05 A2968 RMK AO2 T00500050=
201704131310 SPECI KCLM 131310Z AUTO 00000KT 4SM BR FEW031 05/05 A2968 RMK AO2 T00500050=
201704131253 METAR KCLM 131253Z AUTO 00000KT 2 1/2SM BR CLR 05/05 A2968 RMK AO2 VIS 1 1/2V5 SLP050 T00500050=
201704131153 METAR KCLM 131153Z AUTO 13003KT 10SM CLR 07/06 A2967 RMK AO2 SLP049 60003 70020 T00670061 10089 20061 53003=
201704131053 METAR KCLM 131053Z AUTO 14004KT 10SM FEW028 SCT044 07/06 A2967 RMK AO2 SLP047 T00670061=
201704131020 SPECI KCLM 131020Z AUTO 16005KT 10SM BKN026 07/07 A2967 RMK AO2 T00670067=
201704130953 METAR KCLM 130953Z AUTO 15003KT 10SM FEW026 OVC100 07/06 A2967 RMK AO2 SLP046 T00720061=
201704130853 METAR KCLM 130853Z AUTO 27005KT 10SM OVC070 08/07 A2966 RMK AO2 RAE16 SLP046 P0000 60003 T00780067 53002=
201704130753 METAR KCLM 130753Z AUTO 30008KT 10SM -RA SCT015 OVC060 08/07 A2966 RMK AO2 RAE22B35 SLP043 P0002 T00780067 401220067=
201704130741 SPECI KCLM 130741Z AUTO 31008KT 10SM -RA SCT013 SCT024 OVC060 08/07 A2966 RMK AO2 RAE22B35 P0002 T00780072=
201704130738 SPECI KCLM 130738Z AUTO 32006KT 10SM -RA BKN013 OVC060 08/07 A2966 RMK AO2 RAE22B35 P0002 T00780072=
201704130732 SPECI KCLM 130732Z AUTO 32008KT 10SM SCT013 SCT019 OVC055 08/07 A2966 RMK AO2 RAE22 P0002 T00780072=
201704130704 SPECI KCLM 130704Z AUTO 34004KT 10SM -RA BKN015 OVC050 08/08 A2966 RMK AO2 P0002 T00830078=
201704130653 METAR KCLM 130653Z AUTO 34003KT 9SM -RA OVC014 08/07 A2965 RMK AO2 SLP041 P0001 T00830072=
201704130607 SPECI KCLM 130607Z AUTO 30004KT 10SM -RA FEW006 OVC013 09/08 A2966 RMK AO2 P0000 T00890083=
201704130553 METAR KCLM 130553Z AUTO 32004KT 10SM -RA SCT006 BKN009 OVC013 09/08 A2966 RMK AO2 RAB49 SLP044 P0000 60000 T00890083 10117 20089 51000=
201704130551 SPECI KCLM 130551Z AUTO 31005KT 10SM -RA SCT006 OVC013 09/08 A2966 RMK AO2 RAB49 P0000=
201704130542 SPECI KCLM 130542Z AUTO 32007KT 10SM BKN005 OVC013 09/08 A2966 RMK AO2 T00890083=
201704130534 SPECI KCLM 130534Z AUTO 30005KT 10SM SCT005 OVC013 09/09 A2966 RMK AO2 T00940089=
201704130518 SPECI KCLM 130518Z AUTO 32005KT 10SM BKN014 BKN070 OVC120 09/08 A2967 RMK AO2 T00890083=
201704130453 METAR KCLM 130453Z AUTO 27005KT 10SM BKN070 OVC110 09/08 A2966 RMK AO2 RAE0354 SLP045 P0000 T00890078=
201704130353 METAR KCLM 130353Z AUTO VRB04KT 10SM -RA OVC065 09/08 A2966 RMK AO2 RAB16 SLP044 P0000 T00940083=
201704130253 METAR KCLM 130253Z AUTO 00000KT 10SM SCT075 OVC100 10/08 A2965 RMK AO2 SLP040 T01000078 56014=
201704130153 METAR KCLM 130153Z AUTO 00000KT 10SM BKN070 BKN120 11/07 A2966 RMK AO2 SLP043 T01060072=
201704130053 METAR KCLM 130053Z AUTO 00000KT 10SM SCT070 12/07 A2968 RMK AO2 SLP050 T01170072=
201704122353 METAR KCLM 122353Z AUTO 00000KT 10SM BKN070 12/07 A2969 RMK AO2 SLP054 60000 T01170072 10122 20083 58007=
201704122253 METAR KCLM 122253Z AUTO 00000KT 10SM SCT055 BKN075 12/06 A2970 RMK AO2 SLP057 T01220061=
201704122153 METAR KCLM 122153Z AUTO 09003KT 10SM SCT013 BKN065 OVC085 12/08 A2971 RMK AO2 SLP061 T01170083=
201704122123 SPECI KCLM 122123Z AUTO VRB04KT 10SM BKN010 BKN019 OVC070 11/09 A2971 RMK AO2 T01060089=
201704122053 METAR KCLM 122053Z AUTO VRB03KT 10SM FEW008 FEW039 OVC065 10/08 A2971 RMK AO2 SLP062 60000 T01000083 51010=
201704122013 SPECI KCLM 122013Z AUTO 02007KT 10SM SCT009 OVC065 10/08 A2970 RMK AO2 T01000083=
201704121953 METAR KCLM 121953Z AUTO 00000KT 10SM BKN008 OVC065 10/08 A2970 RMK AO2 SLP059 T01000078=
201704121913 SPECI KCLM 121913Z AUTO 07004KT 10SM SCT006 BKN009 OVC017 09/08 A2970 RMK AO2 T00890078=
201704121906 SPECI KCLM 121906Z AUTO 07005KT 10SM SCT009 BKN017 OVC055 09/08 A2970 RMK AO2 T00890078=
201704121853 METAR KCLM 121853Z AUTO 07005KT 10SM BKN009 OVC017 09/08 A2970 RMK AO2 RAB15E24 CIG 006V012 SLP059 P0000 T00890078=
201704121753 METAR KCLM 121753Z AUTO VRB03KT 10SM BKN009 OVC026 08/08 A2968 RMK AO2 RAB32E44 SLP052 P0000 60017 T00830078 10083 20067 53019=
201704121712 SPECI KCLM 121712Z AUTO 31003KT 10SM BKN006 OVC010 08/08 A2966 RMK AO2 CIG 004V009 T00830078=
201704121653 METAR KCLM 121653Z AUTO 29006KT 10SM OVC011 08/07 A2965 RMK AO2 CIG 008V014 SLP040 P0002 T00830072=
201704121639 SPECI KCLM 121639Z AUTO 28006KT 10SM OVC013 08/07 A2964 RMK AO2 P0002 T00830072=
201704121622 SPECI KCLM 121622Z AUTO 27008KT 10SM OVC015 08/07 A2963 RMK AO2 P0002 T00830067=
201704121553 METAR KCLM 121553Z AUTO 26007KT 10SM BKN010 OVC015 07/06 A2962 RMK AO2 RAE34 CIG 008V012 SLP033 P0000 T00720061=
201704121548 SPECI KCLM 121548Z AUTO 26005KT 10SM BKN010 OVC013 07/06 A2962 RMK AO2 RAE34 CIG 007V012 P0000=
201704121453 METAR KCLM 121453Z AUTO 27004KT 9SM -RA OVC006 07/07 A2962 RMK AO2 CIG 005V010 SLP031 P0002 60015 T00720072 55006=
201704121353 METAR KCLM 121353Z AUTO 12004KT 7SM -RA OVC008 07/07 A2962 RMK AO2 SLP030 P0010 T00720072=
201704121253 METAR KCLM 121253Z AUTO 15004KT 6SM -RA BR OVC007 07/07 A2963 RMK AO2 RAB09 CIG 007V010 SLP033 P0003 T00720067=
201704121229 SPECI KCLM 121229Z AUTO 13005KT 9SM -RA OVC009 07/07 A2963 RMK AO2 RAB09 CIG 008V013 P0000 T00720067=
201704121202 SPECI KCLM 121202Z AUTO 11007KT 10SM BKN013 BKN029 OVC055 08/06 A2964 RMK AO2 T00780061=
201704121153 METAR KCLM 121153Z AUTO 11005KT 10SM FEW015 BKN038 OVC055 07/06 A2964 RMK AO2 RAB11E46 SLP037 P0001 60001 70004 T00720061 10078 20072 56022=
201704121053 METAR KCLM 121053Z AUTO 10005KT 10SM OVC039 08/06 A2965 RMK AO2 RAB12E41 SLP040 P0000 T00780056=
201704120953 METAR KCLM 120953Z AUTO 16005KT 10SM OVC039 08/05 A2968 RMK AO2 RAB0855E15 SLP050 P0000 T00780050=
201704120853 METAR KCLM 120853Z AUTO 14006KT 10SM BKN048 OVC060 08/05 A2970 RMK AO2 RAB42E52 SLP059 P0000 60000 T00780050 56024=
201704120753 METAR KCLM 120753Z AUTO 10005KT 10SM OVC065 07/05 A2973 RMK AO2 SLP067 T00720050 401060028=
201704120653 METAR KCLM 120653Z AUTO 14003KT 10SM OVC070 08/04 A2975 RMK AO2 SLP074 T00780044=
201704120553 METAR KCLM 120553Z AUTO 10004KT 10SM FEW080 OVC095 07/04 A2978 RMK AO2 SLP084 T00720039 10106 20072 58021=
201704120453 METAR KCLM 120453Z AUTO 13006KT 10SM FEW110 08/04 A2981 RMK AO2 SLP095 T00780039=
201704120353 METAR KCLM 120353Z AUTO 17004KT 10SM FEW070 08/04 A2983 RMK AO2 SLP102 T00780044=
201704120253 METAR KCLM 120253Z AUTO 11004KT 10SM SCT110 09/04 A2984 RMK AO2 SLP105 T00890039 58023=
201704120153 METAR KCLM 120153Z AUTO 13005KT 10SM FEW120 09/04 A2986 RMK AO2 SLP114 T00940039=
201704120053 METAR KCLM 120053Z AUTO 09005KT 10SM CLR 10/03 A2989 RMK AO2 SLP123 T01000033=
201704112353 METAR KCLM 112353Z AUTO 09007KT 10SM CLR 10/03 A2991 RMK AO2 SLP129 T01000028 10106 20072 56022=
201704112253 METAR KCLM 112253Z AUTO 10007KT 10SM CLR 10/03 A2992 RMK AO2 SLP134 T01000033=
201704112153 METAR KCLM 112153Z AUTO 08008KT 10SM CLR 09/03 A2995 RMK AO2 SLP144 T00940033=
201704112053 METAR KCLM 112053Z AUTO VRB06KT 10SM CLR 09/04 A2997 RMK AO2 SLP151 T00940039 58023=
201704111953 METAR KCLM 111953Z AUTO 11008KT 10SM CLR 09/04 A3000 RMK AO2 SLP160 T00940044=
201704111940 SPECI KCLM 111940Z AUTO 10009KT 10SM FEW015 08/05 A3001 RMK AO2 T00830050=
201704111911 SPECI KCLM 111911Z AUTO 11010KT 10SM BKN015 BKN021 08/04 A3002 RMK AO2 T00780044=
201704111853 METAR KCLM 111853Z AUTO 08009KT 10SM BKN013 BKN019 08/05 A3003 RMK AO2 SLP170 T00830050=
201704111808 SPECI KCLM 111808Z AUTO VRB06KT 10SM BKN013 07/04 A3004 RMK AO2 T00720044=
201704111753 METAR KCLM 111753Z AUTO VRB05KT 10SM SCT013 08/04 A3004 RMK AO2 SLP175 60003 T00780044 10083 20028 56012=
201704111653 METAR KCLM 111653Z AUTO 04006KT 10SM SCT018 08/04 A3005 RMK AO2 SLP178 T00780044=
201704111649 SPECI KCLM 111649Z AUTO VRB05KT 10SM SCT016 08/04 A3005 RMK AO2=
201704111553 METAR KCLM 111553Z AUTO 29003KT 10SM BKN017 06/04 A3008 RMK AO2 SLP187 T00610039=
201704111453 METAR KCLM 111453Z AUTO 24003KT 10SM SCT018 BKN025 OVC032 04/04 A3010 RMK AO2 SLP193 60003 T00390039 56008=
201704111353 METAR KCLM 111353Z AUTO 22004KT 10SM SCT018 BKN028 BKN041 03/03 A3010 RMK AO2 RAE1258 SLP196 P0000 T00280028=
201704111334 SPECI KCLM 111334Z AUTO 24005KT 10SM SCT019 BKN041 03/02 A3011 RMK AO2 RAE1258 P0000 T00280022=
201704111253 METAR KCLM 111253Z AUTO 24003KT 10SM -RA BKN020 OVC027 03/03 A3011 RMK AO2 SLP197 P0003 T00330033=
201704111153 METAR KCLM 111153Z AUTO 23006KT 9SM -RA BKN017 OVC030 03/02 A3012 RMK AO2 RAB53 SLP202 P0000 60000 70008 T00330022 10044 20022 58009=
201704111127 SPECI KCLM 111127Z AUTO 24007KT 10SM SCT020 BKN027 BKN036 03/02 A3013 RMK AO2 T00280017=
201704111053 METAR KCLM 111053Z AUTO 23003KT 10SM BKN031 03/02 A3014 RMK AO2 SLP207 T00280022=
201704111006 SPECI KCLM 111006Z AUTO 24005KT 10SM BKN030 OVC041 03/02 A3014 RMK AO2 T00330022=
201704110953 METAR KCLM 110953Z AUTO 23005KT 10SM BKN028 BKN037 OVC044 04/03 A3015 RMK AO2 SLP210 T00390028=
201704110917 SPECI KCLM 110917Z AUTO 23003KT 10SM BKN017 BKN032 OVC042 04/03 A3015 RMK AO2 T00390028=
201704110902 SPECI KCLM 110902Z AUTO 24006KT 10SM FEW019 BKN030 OVC044 04/03 A3015 RMK AO2 T00390028=
201704110853 METAR KCLM 110853Z AUTO 24006KT 10SM BKN029 OVC041 04/03 A3015 RMK AO2 SLP211 T00390028 51005=
201704110753 METAR KCLM 110753Z AUTO 23006KT 10SM BKN026 04/02 A3015 RMK AO2 SLP210 T00390022 401000022=
201704110737 SPECI KCLM 110737Z AUTO 00000KT 10SM BKN027 04/03 A3014 RMK AO2 T00440028=
201704110653 METAR KCLM 110653Z AUTO 25006KT 10SM SCT080 04/02 A3014 RMK AO2 SLP209 T00390022=
201704110553 METAR KCLM 110553Z AUTO 23005KT 10SM FEW060 04/03 A3013 RMK AO2 SLP206 60000 T00390028 10094 20039 51020=
201704110453 METAR KCLM 110453Z AUTO 24004KT 10SM CLR 04/02 A3012 RMK AO2 SLP201 T00440022=
201704110353 METAR KCLM 110353Z AUTO 27012KT 10SM CLR 06/03 A3010 RMK AO2 SLP196 T00610028=
201704110253 METAR KCLM 110253Z AUTO 30010KT 10SM CLR 06/04 A3007 RMK AO2 SLP186 60000 T00610039 51019=
201704110153 METAR KCLM 110153Z AUTO 26008KT 10SM BKN050 OVC060 08/04 A3006 RMK AO2 RAB00E47 SLP181 P0000 T00780044=
201704110053 METAR KCLM 110053Z AUTO 26010KT 10SM SCT044 OVC060 08/05 A3004 RMK AO2 RAB2354E04B20E45 SLP173 P0000 T00780050=
201704102353 METAR KCLM 102353Z AUTO 30003KT 10SM FEW034 BKN045 OVC055 09/05 A3002 RMK AO2 RAB01E47 SLP167 P0003 60006 T00940050 10100 20072 53010=
201704102253 METAR KCLM 102253Z AUTO 28007KT 10SM FEW048 BKN060 OVC070 08/04 A3000 RMK AO2 RAB08E38 SLP161 P0002 T00830044=
201704102153 METAR KCLM 102153Z AUTO 28006KT 10SM FEW032 SCT043 BKN060 10/06 A2999 RMK AO2 RAE42 SLP156 P0001 T01000061=
201704102053 METAR KCLM 102053Z AUTO 03003KT 8SM -RA SCT033 BKN047 OVC065 08/04 A2999 RMK AO2 RAB45 SLP156 P0000 60000 T00830044 53002=
201704101953 METAR KCLM 101953Z AUTO VRB06KT 10SM SCT043 BKN055 09/04 A2996 RMK AO2 RAB18E39 SLP148 P0000 T00890039=
201704101853 METAR KCLM 101853Z AUTO 00000KT 10SM FEW017 SCT042 09/06 A2997 RMK AO2 RAE30 SLP148 P0000 T00890056=
201704101824 SPECI KCLM 101824Z AUTO 28005KT 6SM -RA FEW017 BKN039 OVC048 08/05 A2997 RMK AO2 P0000 T00780050=
201704101800 SPECI KCLM 101800Z AUTO 00000KT 7SM -RA SCT016 BKN028 OVC045 08/06 A2998 RMK AO2 P0000 T00780056=
201704101753 METAR KCLM 101753Z AUTO 00000KT 9SM -RA FEW016 BKN036 OVC044 08/06 A2998 RMK AO2 RAB28 SLP153 P0002 60002 T00780056 10089 20028 53008=
201704101653 METAR KCLM 101653Z AUTO 09009KT 10SM FEW015 FEW095 09/05 A2996 RMK AO2 SLP148 T00890050=
201704101643 SPECI KCLM 101643Z AUTO 08008KT 10SM SCT014 SCT095 08/04 A2996 RMK AO2 T00830044=
201704101636 SPECI KCLM 101636Z AUTO 08007KT 10SM BKN014 BKN100 08/05 A2996 RMK AO2 T00830050=
201704101612 SPECI KCLM 101612Z AUTO 12009KT 10SM BKN016 OVC110 08/06 A2996 RMK AO2 T00830056=
201704101553 METAR KCLM 101553Z AUTO 12009KT 10SM FEW018 BKN120 08/06 A2996 RMK AO2 SLP149 T00830056=
201704101453 METAR KCLM 101453Z AUTO 17003KT 10SM FEW017 06/04 A2996 RMK AO2 SLP146 60000 T00560044 51013=
201704101353 METAR KCLM 101353Z AUTO 23003KT 10SM CLR 03/03 A2995 RMK AO2 SLP144 T00280028=
201704101253 METAR KCLM 101253Z AUTO 00000KT 10SM FEW011 FEW030 SCT060 06/04 A2994 RMK AO2 RAB26E39 SLP139 P0000 T00560044=
201704101153 METAR KCLM 101153Z AUTO 25008KT 10SM BKN060 OVC080 06/04 A2992 RMK AO2 RAE09 SLP133 P0000 60000 T00610044 10083 20056 53014=
201704101053 METAR KCLM 101053Z AUTO 27007KT 10SM -RA FEW050 BKN065 OVC075 06/04 A2990 RMK AO2 RAB51 SLP126 P0000 T00610044=
201704100953 METAR KCLM 100953Z AUTO 27009KT 10SM SCT060 BKN080 07/04 A2988 RMK AO2 SLP120 T00670039=
201704100853 METAR KCLM 100853Z AUTO 24003KT 10SM SCT070 07/03 A2988 RMK AO2 SLP119 T00670033 53007=
201704100753 METAR KCLM 100753Z AUTO 31003KT 10SM SCT070 BKN110 07/03 A2986 RMK AO2 SLP113 T00670033 401000000=
201704100653 METAR KCLM 100653Z AUTO 27008KT 10SM OVC070 08/03 A2986 RMK AO2 SLP114 T00780028=
201704100553 METAR KCLM 100553Z AUTO 24009G15KT 10SM FEW070 08/02 A2985 RMK AO2 SLP111 T00830022 10094 20061 56006=
201704100500 METAR KCLM NIL=
201704100353 METAR KCLM 100353Z AUTO 27003KT 10SM BKN080 OVC095 07/04 A2986 RMK AO2 SLP115 T00670044=
201704100253 METAR KCLM 100253Z AUTO 14003KT 10SM CLR 08/04 A2987 RMK AO2 SLP118 T00830044 56020=
201704100153 METAR KCLM 100153Z AUTO 08004KT 10SM FEW075 09/04 A2989 RMK AO2 SLP125 T00940044=
201704100053 METAR KCLM 100053Z AUTO 00000KT 10SM FEW070 09/04 A2991 RMK AO2 SLP130 T00890044=
201704092353 METAR KCLM 092353Z AUTO 35003KT 10SM CLR 09/04 A2993 RMK AO2 SLP138 T00940039 10100 20072 57025=
201704092253 METAR KCLM 092253Z AUTO VRB03KT 10SM SCT070 09/03 A2996 RMK AO2 SLP147 T00940028=
201704092153 METAR KCLM 092153Z AUTO VRB04KT 10SM CLR 09/04 A2998 RMK AO2 SLP154 T00940039=
201704092053 METAR KCLM 092053Z AUTO VRB04KT 10SM CLR 08/04 A3001 RMK AO2 SLP163 T00830044 58015=
201704091953 METAR KCLM 091953Z AUTO 04005KT 10SM CLR 07/04 A3003 RMK AO2 SLP169 T00720039=
201704091853 METAR KCLM 091853Z AUTO VRB04KT 10SM FEW009 08/05 A3004 RMK AO2 SLP173 T00780050=
201704091753 METAR KCLM 091753Z AUTO VRB03KT 10SM SCT011 07/04 A3005 RMK AO2 SLP178 T00720044 10072 20000 58003=
201704091750 SPECI KCLM 091750Z AUTO 09005KT 10SM SCT011 07/04 A3005 RMK AO2=
201704091732 SPECI KCLM 091732Z AUTO VRB03KT 10SM BKN012 07/04 A3006 RMK AO2 T00720044=
201704091717 SPECI KCLM 091717Z AUTO VRB04KT 10SM SCT011 07/04 A3006 RMK AO2 T00720044=
201704091709 SPECI KCLM 091709Z AUTO VRB04KT 10SM BKN011 07/04 A3006 RMK AO2 T00670044=
201704091702 SPECI KCLM 091702Z AUTO VRB04KT 10SM SCT011 07/04 A3006 RMK AO2 T00670044=
201704091653 METAR KCLM 091653Z AUTO 04005KT 10SM BKN012 07/04 A3006 RMK AO2 SLP182 T00670044=
201704091651 SPECI KCLM 091651Z AUTO VRB04KT 10SM BKN012 07/04 A3006 RMK AO2=
201704091553 METAR KCLM 091553Z AUTO 00000KT 10SM CLR 07/04 A3006 RMK AO2 SLP182 T00670044=
201704091453 METAR KCLM 091453Z AUTO 22004KT 10SM CLR 02/02 A3007 RMK AO2 SLP183 T00220022 56003=
201704091353 METAR KCLM 091353Z AUTO 23005KT 10SM CLR 01/00 A3007 RMK AO2 SLP184 T00110000=
201704091253 METAR KCLM 091253Z AUTO 22006KT 10SM CLR 01/01 A3007 RMK AO2 SLP186 T00110006=
201704091153 METAR KCLM 091153Z AUTO 00000KT 10SM CLR 01/01 A3008 RMK AO2 SLP187 T00110011 10044 20011 50001=
201704091139 SPECI KCLM 091139Z AUTO 00000KT 10SM SCT013 01/01 A3008 RMK AO2 T00110011=
201704091127 SPECI KCLM 091127Z AUTO 22005KT 10SM BKN013 02/02 A3008 RMK AO2 T00220022=
201704091103 SPECI KCLM 091103Z AUTO 22005KT 10SM FEW015 BKN022 03/02 A3008 RMK AO2 T00280022=
201704091053 METAR KCLM 091053Z AUTO 24004KT 10SM FEW012 SCT024 02/02 A3008 RMK AO2 SLP187 T00220022=
201704091051 SPECI KCLM 091051Z AUTO 23004KT 10SM SCT012 SCT024 02/02 A3008 RMK AO2=
201704091013 SPECI KCLM 091013Z AUTO 00000KT 10SM BKN014 02/02 A3008 RMK AO2 T00170017=
201704091005 SPECI KCLM 091005Z AUTO 18003KT 10SM BKN015 02/01 A3008 RMK AO2 T00170011=
201704090953 METAR KCLM 090953Z AUTO 20003KT 10SM SCT015 SCT023 02/02 A3008 RMK AO2 SLP186 T00220017=
201704090853 METAR KCLM 090853Z AUTO 00000KT 10SM BKN023 02/02 A3008 RMK AO2 SLP187 T00170017 51014=
201704090753 METAR KCLM 090753Z AUTO 22005KT 10SM FEW060 03/02 A3007 RMK AO2 SLP183 T00280017 400890011=
201704090653 METAR KCLM 090653Z AUTO 00000KT 10SM CLR 03/02 A3005 RMK AO2 SLP179 T00330017=
201704090553 METAR KCLM 090553Z AUTO 24004KT 10SM CLR 05/02 A3004 RMK AO2 SLP173 T00500022 10089 20044 51016=
201704090453 METAR KCLM 090453Z AUTO 25008KT 10SM SCT055 06/02 A3002 RMK AO2 SLP169 T00560022=
201704090353 METAR KCLM 090353Z AUTO 00000KT 10SM CLR 05/04 A3001 RMK AO2 SLP163 T00500039=
201704090315 SPECI KCLM 090315Z AUTO 00000KT 10SM SCT022 BKN031 BKN035 07/04 A2999 RMK AO2 T00670044=
201704090304 SPECI KCLM 090304Z AUTO 00000KT 10SM SCT020 BKN029 BKN035 07/04 A2999 RMK AO2 T00720039=
201704090253 METAR KCLM 090253Z AUTO 00000KT 10SM FEW020 BKN031 07/04 A2999 RMK AO2 SLP156 T00720044 51015=
201704090153 METAR KCLM 090153Z AUTO 00000KT 10SM FEW034 BKN065 BKN120 08/04 A2998 RMK AO2 SLP153 T00830039=
201704090053 METAR KCLM 090053Z AUTO 00000KT 10SM SCT038 BKN045 BKN120 09/04 A2996 RMK AO2 SLP147 T00890044=
201704082353 METAR KCLM 082353Z AUTO VRB05KT 10SM SCT040 BKN050 09/04 A2994 RMK AO2 SLP142 T00890044 10089 20067 51015=
201704082253 METAR KCLM 082253Z AUTO VRB04KT 10SM FEW032 BKN041 BKN048 08/04 A2993 RMK AO2 SLP138 T00830039=
201704082153 METAR KCLM 082153Z AUTO 02005KT 10SM FEW024 BKN035 BKN070 08/05 A2992 RMK AO2 SLP134 T00830050=
201704082117 SPECI KCLM 082117Z AUTO VRB03KT 10SM SCT012 SCT027 OVC042 08/06 A2991 RMK AO2 T00780056=
201704082053 METAR KCLM 082053Z AUTO 03004KT 10SM BKN011 OVC026 08/06 A2990 RMK AO2 SLP126 T00780056 52020=
201704082037 SPECI KCLM 082037Z AUTO VRB03KT 10SM BKN011 BKN019 OVC028 08/06 A2989 RMK AO2 T00780056=
201704082015 SPECI KCLM 082015Z AUTO VRB05KT 10SM FEW011 SCT017 BKN025 08/06 A2988 RMK AO2 T00780061=
201704081953 METAR KCLM 081953Z AUTO VRB05KT 10SM SCT024 SCT031 BKN100 08/06 A2988 RMK AO2 SLP118 T00830061=
201704081908 SPECI KCLM 081908Z AUTO VRB03KT 10SM SCT009 BKN070 BKN085 08/06 A2986 RMK AO2 T00780061=
201704081853 METAR KCLM 081853Z AUTO 34005KT 10SM BKN009 BKN015 OVC070 08/06 A2986 RMK AO2 SLP113 T00780061=
201704081836 SPECI KCLM 081836Z AUTO 00000KT 10SM BKN009 OVC015 07/06 A2986 RMK AO2 T00720056=
201704081820 SPECI KCLM 081820Z AUTO 32005KT 10SM BKN010 OVC060 07/06 A2985 RMK AO2 T00720056=
201704081753 METAR KCLM 081753Z AUTO 35004KT 10SM BKN008 BKN015 OVC060 07/06 A2984 RMK AO2 RAB01E20 SLP105 P0000 60000 T00670056 10072 20056 53028=
201704081745 SPECI KCLM 081745Z AUTO 34006KT 10SM BKN008 BKN015 OVC026 07/06 A2983 RMK AO2 RAB01E20 P0000 T00670056=
201704081710 SPECI KCLM 081710Z AUTO 31004KT 9SM -RA FEW008 BKN022 OVC043 07/06 A2981 RMK AO2 RAB01 P0000 T00670056=
201704081653 METAR KCLM 081653Z AUTO 31005KT 10SM FEW007 BKN010 OVC014 07/06 A2981 RMK AO2 CIG 009V013 SLP095 T00670061=
201704081646 SPECI KCLM 081646Z AUTO 32004KT 9SM BKN007 OVC010 07/06 A2980 RMK AO2 CIG 005V010 T00670056=
201704081618 SPECI KCLM 081618Z AUTO 00000KT 9SM OVC011 07/06 A2979 RMK AO2 T00670056=
201704081611 SPECI KCLM 081611Z AUTO 00000KT 10SM BKN009 OVC012 07/06 A2979 RMK AO2 CIG 008V012 T00670056=
201704081553 METAR KCLM 081553Z AUTO 00000KT 10SM OVC012 07/06 A2978 RMK AO2 SLP086 T00720056=
201704081527 SPECI KCLM 081527Z AUTO 00000KT 10SM OVC014 07/06 A2977 RMK AO2 T00720061=
201704081453 METAR KCLM 081453Z AUTO 00000KT 10SM OVC018 07/06 A2975 RMK AO2 SLP078 T00670061 53019=
201704081421 SPECI KCLM 081421Z AUTO 00000KT 10SM SCT012 OVC023 06/06 A2974 RMK AO2 T00610056=
201704081353 METAR KCLM 081353Z AUTO 00000KT 10SM OVC013 06/06 A2973 RMK AO2 SLP070 T00610056=
201704081253 METAR KCLM 081253Z AUTO 24003KT 10SM OVC013 06/05 A2971 RMK AO2 SLP063 T00560050=
201704081153 METAR KCLM 081153Z AUTO 00000KT 10SM BKN014 OVC021 06/05 A2970 RMK AO2 SLP057 60004 70026 T00560050 10067 20050 53024=
201704081053 METAR KCLM 081053Z AUTO 25003KT 10SM SCT014 BKN020 BKN060 06/04 A2968 RMK AO2 SLP050 T00560044=
201704080953 METAR KCLM 080953Z AUTO 00000KT 10SM BKN055 BKN065 06/04 A2965 RMK AO2 RAE0856 SLP040 P0000 T00610044=
201704080853 METAR KCLM 080853Z AUTO 27010KT 10SM -RA BKN048 BKN070 06/04 A2963 RMK AO2 RAB12 SLP033 P0001 60004 T00610044 51028=
201704080753 METAR KCLM 080753Z AUTO 25007KT 10SM FEW038 BKN075 OVC110 06/05 A2960 RMK AO2 RAE42 SLP024 P0002 T00610050 401330061=
201704080653 METAR KCLM 080653Z AUTO 25006KT 10SM -RA FEW038 BKN048 OVC070 06/06 A2958 RMK AO2 SLP018 P0001 T00610056=
201704080553 METAR KCLM 080553Z AUTO 25006KT 10SM -RA FEW041 OVC049 07/06 A2954 RMK AO2 SLP005 P0002 60016 T00670061 10106 20067 51045=
201704080453 METAR KCLM 080453Z AUTO 00000KT 9SM -RA FEW037 OVC045 07/07 A2951 RMK AO2 SLP994 P0001 T00670067=
201704080353 METAR KCLM 080353Z AUTO 00000KT 9SM -RA OVC040 07/07 A2947 RMK AO2 SLP981 P0003 T00670067=
201704080253 METAR KCLM 080253Z AUTO 29003KT 5SM -RA BR OVC036 07/07 A2941 RMK AO2 SLP960 P0003 60010 T00670067 53053=
201704080153 METAR KCLM 080153Z AUTO 07005KT 7SM -RA BKN038 OVC046 08/06 A2934 RMK AO2 PRESRR SLP937 P0004 T00780061=
201704080053 METAR KCLM 080053Z AUTO 36006KT 7SM -RA OVC042 09/06 A2929 RMK AO2 SLP919 P0003 T00890056=
201704080000 METAR KCLM NIL=
201704072300 METAR KCLM NIL=
201704072153 METAR KCLM 072153Z AUTO 00000KT 10SM OVC050 12/04 A2922 RMK AO2 RAE48 SLP894 P0000 T01220044=
201704072053 METAR KCLM 072053Z AUTO VRB06KT 10SM -RA OVC055 12/05 A2919 RMK AO2 RAE17B43 SLP884 P0000 60000 T01170050 51023=
201704071953 METAR KCLM 071953Z AUTO 02003KT 10SM -RA OVC048 11/08 A2917 RMK AO2 RAB25 SLP877 P0000 T01060083=
201704071853 METAR KCLM 071853Z AUTO 28005KT 10SM SCT048 OVC060 09/08 A2915 RMK AO2 SLP870 T00940083=
201704071811 SPECI KCLM 071811Z AUTO 33004KT 10SM FEW004 SCT013 OVC050 08/08 A2913 RMK AO2 T00830083=
201704071753 METAR KCLM 071753Z AUTO 25004KT 10SM FEW004 BKN013 OVC060 08/08 A2912 RMK AO2 RAE45 SLP861 P0002 60006 T00780078 10083 20072 56009=
201704071733 SPECI KCLM 071733Z AUTO 00000KT 7SM -RA FEW005 BKN013 OVC060 08/08 A2911 RMK AO2 P0002 T00830078=
201704071724 SPECI KCLM 071724Z AUTO 30004KT 8SM -RA FEW005 SCT010 OVC015 08/08 A2912 RMK AO2 P0002 T00830078=
201704071711 SPECI KCLM 071711Z AUTO 30003KT 7SM -RA SCT005 BKN010 OVC016 08/08 A2912 RMK AO2 P0002 T00780078=
201704071653 METAR KCLM 071653Z AUTO 08005KT 5SM -RA BR OVC007 08/07 A2913 RMK AO2 CIG 004V011 SLP863 P0001 T00780072=
201704071553 METAR KCLM 071553Z AUTO VRB03KT 10SM -RA OVC008 08/07 A2913 RMK AO2 RAE1454B16 SLP865 P0000 T00780072=
201704071453 METAR KCLM 071453Z AUTO VRB05KT 10SM -RA OVC007 08/07 A2915 RMK AO2 CIG 004V010 SLP871 P0003 60003 T00780072 58013=
201704071353 METAR KCLM 071353Z AUTO 12007KT 10SM -RA OVC007 07/07 A2917 RMK AO2 RAB00 CIG 004V010 SLP877 P0000 T00720067=
201704071253 METAR KCLM 071253Z AUTO 00000KT 10SM OVC006 07/07 A2918 RMK AO2 RAE50 CIG 004V011 SLP880 P0000 T00720072=
201704071153 METAR KCLM 071153Z AUTO 00000KT 7SM -RA OVC007 07/07 A2919 RMK AO2 CIG 005V009 SLP884 P0018 60046 70051 T00720067 10089 20072 56024=
201704071110 SPECI KCLM 071110Z AUTO 00000KT 3SM RA BR BKN008 OVC013 07/07 A2921 RMK AO2 CIG 006V010 P0007 T00720067=
201704071103 SPECI KCLM 071103Z AUTO 00000KT 4SM RA BR SCT008 OVC013 07/07 A2921 RMK AO2 P0004 T00720067=
201704071053 METAR KCLM 071053Z AUTO 00000KT 5SM -RA BR OVC013 07/07 A2920 RMK AO2 SLP889 P0014 T00720072=
201704070953 METAR KCLM 070953Z AUTO VRB03KT 6SM -RA BR OVC014 08/07 A2922 RMK AO2 SLP895 P0011 T00780067=
201704070938 SPECI KCLM 070938Z AUTO 08004KT 6SM -RA BR BKN014 OVC050 08/07 A2923 RMK AO2 P0007 T00780067=
201704070853 METAR KCLM 070853Z AUTO 04003KT 7SM -RA OVC055 08/07 A2926 RMK AO2 RAB07 PRESFR SLP908 P0003 60003 T00780067 58055=
201704070753 METAR KCLM 070753Z AUTO 09003KT 10SM FEW120 08/06 A2932 RMK AO2 SLP928 T00830061 401110072=
201704070653 METAR KCLM 070653Z AUTO 10007KT 10SM CLR 09/06 A2936 RMK AO2 SLP944 T00890061=
201704070638 SPECI KCLM 070638Z AUTO 10005KT 10SM SCT028 08/06 A2938 RMK AO2 PRESFR T00830061=
201704070553 METAR KCLM 070553Z AUTO 08003KT 10SM OVC021 08/07 A2942 RMK AO2 SLP963 T00830067 10111 20072 58059=
201704070453 METAR KCLM 070453Z AUTO 10005KT 10SM OVC025 08/06 A2948 RMK AO2 PRESFR SLP983 T00830056=
201704070353 METAR KCLM 070353Z AUTO 11003KT 10SM BKN028 07/06 A2954 RMK AO2 SLP005 T00720056=
201704070329 SPECI KCLM 070329Z AUTO 08003KT 10SM BKN028 08/06 A2957 RMK AO2 T00780056=
201704070253 METAR KCLM 070253Z AUTO 11003KT 10SM OVC031 09/06 A2960 RMK AO2 SLP023 T00890056 58028=
201704070153 METAR KCLM 070153Z AUTO 08004KT 10SM OVC032 09/04 A2963 RMK AO2 SLP036 T00940044=
201704070053 METAR KCLM 070053Z AUTO 06003KT 10SM OVC030 10/05 A2967 RMK AO2 SLP047 T01000050=
201704062353 METAR KCLM 062353Z AUTO 00000KT 10SM BKN031 BKN060 10/06 A2968 RMK AO2 RAB27E43 SLP052 P0000 60005 T01000061 10106 20078 58015=
201704062320 SPECI KCLM 062320Z AUTO 23003KT 9SM SCT029 OVC060 09/06 A2970 RMK AO2 T00940056=
201704062310 SPECI KCLM 062310Z AUTO 26003KT 10SM BKN029 BKN065 09/06 A2970 RMK AO2 T00940056=
201704062253 METAR KCLM 062253Z AUTO 27005KT 7SM OVC030 09/06 A2970 RMK AO2 RAB06E22 SLP059 P0000 T00940056=
201704062201 SPECI KCLM 062201Z AUTO 31005KT 10SM OVC030 09/06 A2972 RMK AO2 T00890056=
201704062153 METAR KCLM 062153Z AUTO VRB05KT 10SM OVC029 09/06 A2972 RMK AO2 RAB2057E28 SLP065 P0000 T00890056=
201704062053 METAR KCLM 062053Z AUTO 30006KT 10SM OVC029 08/07 A2973 RMK AO2 RAE20 SLP067 P0002 60005 T00830067 52015=
201704062043 SPECI KCLM 062043Z AUTO 30007KT 9SM OVC030 08/07 A2973 RMK AO2 RAE20 P0002 T00830067=
201704061953 METAR KCLM 061953Z AUTO 29010KT 9SM -RA BKN017 OVC022 08/06 A2971 RMK AO2 RAB06 SLP063 P0003 T00780061=
201704061911 SPECI KCLM 061911Z AUTO 32010G17KT 5SM -RA OVC015 08/06 A2970 RMK AO2 RAB06 P0000 T00830056=
201704061853 METAR KCLM 061853Z AUTO 34007KT 10SM OVC013 09/07 A2970 RMK AO2 SLP057 T00890072=
201704061813 SPECI KCLM 061813Z AUTO 01004KT 10SM BKN015 OVC020 09/07 A2969 RMK AO2 T00940072=
201704061753 METAR KCLM 061753Z AUTO 00000KT 10SM BKN013 OVC020 09/07 A2968 RMK AO2 SLP052 T00940072 10100 20072 53015=
201704061728 SPECI KCLM 061728Z AUTO 33004KT 10SM BKN012 BKN070 09/07 A2967 RMK AO2 T00940072=
201704061653 METAR KCLM 061653Z AUTO 00000KT 10SM SCT013 OVC070 09/07 A2966 RMK AO2 SLP043 T00940072=
201704061651 SPECI KCLM 061651Z AUTO 29003KT 10SM SCT013 OVC065 09/07 A2966 RMK AO2=
201704061607 SPECI KCLM 061607Z AUTO VRB03KT 10SM OVC011 08/08 A2965 RMK AO2 CIG 008V013 T00830078=
201704061553 METAR KCLM 061553Z AUTO 27006KT 10SM OVC009 08/08 A2964 RMK AO2 CIG 005V011 SLP036 T00830078=
201704061533 SPECI KCLM 061533Z AUTO 29005KT 10SM BKN007 BKN010 OVC060 08/08 A2963 RMK AO2 T00830078=
201704061503 SPECI KCLM 061503Z AUTO 27008KT 10SM FEW005 BKN060 08/07 A2963 RMK AO2 T00780072=
201704061453 METAR KCLM 061453Z AUTO 28006KT 10SM FEW014 BKN060 08/07 A2963 RMK AO2 SLP034 T00780072 55007=
201704061450 SPECI KCLM 061450Z AUTO 28007KT 10SM FEW010 SCT016 OVC065 08/07 A2963 RMK AO2=
201704061439 SPECI KCLM 061439Z AUTO 26008KT 10SM SCT008 BKN014 OVC065 08/07 A2963 RMK AO2 T00780072=
201704061353 METAR KCLM 061353Z AUTO 00000KT 10SM OVC005 08/08 A2964 RMK AO2 SLP036 T00780078=
201704061253 METAR KCLM 061253Z AUTO 00000KT 10SM OVC007 08/07 A2965 RMK AO2 SLP041 T00780072=
201704061223 SPECI KCLM 061223Z AUTO 00000KT 9SM OVC006 07/07 A2966 RMK AO2 CIG 002V009 T00720072=
201704061153 METAR KCLM 061153Z AUTO 00000KT 7SM OVC003 07/07 A2967 RMK AO2 SLP049 60000 70016 T00720072 10083 20072 56025=
201704061053 METAR KCLM 061053Z AUTO 13003KT 9SM BKN004 BKN090 OVC110 07/07 A2969 RMK AO2 CIG 003V008 SLP055 T00720072=
201704061023 SPECI KCLM 061023Z AUTO 00000KT 9SM BKN004 BKN100 07/07 A2970 RMK AO2 T00720072=
201704060953 METAR KCLM 060953Z AUTO 00000KT 10SM FEW009 BKN013 OVC100 08/08 A2972 RMK AO2 RAE0855 SLP064 P0000 T00780078=
201704060853 METAR KCLM 060853Z AUTO 00000KT 8SM -RA OVC011 08/08 A2975 RMK AO2 RAB24 SLP074 P0000 60000 T00780078 58029=
201704060842 SPECI KCLM 060842Z AUTO 00000KT 8SM -RA BKN012 OVC060 08/08 A2975 RMK AO2 RAB24 P0000 T00780078=
201704060829 SPECI KCLM 060829Z AUTO 00000KT 9SM -RA SCT012 BKN065 OVC080 07/07 A2976 RMK AO2 RAB24 P0000 T00720072=
201704060753 METAR KCLM 060753Z AUTO 00000KT 10SM OVC014 08/08 A2979 RMK AO2 SLP087 T00780078 401110072=
201704060745 SPECI KCLM 060745Z AUTO 00000KT 10SM BKN014 08/07 A2979 RMK AO2 T00780072=
201704060719 SPECI KCLM 060719Z AUTO 00000KT 10SM SCT012 BKN120 08/07 A2979 RMK AO2 T00780072=
201704060653 METAR KCLM 060653Z AUTO 20004KT 10SM OVC011 08/08 A2980 RMK AO2 SLP091 T00830078=
201704060553 METAR KCLM 060553Z AUTO 20003KT 10SM OVC010 08/08 A2983 RMK AO2 SLP104 60000 T00830078 10111 20078 58010=
201704060515 SPECI KCLM 060515Z AUTO 00000KT 10SM OVC010 08/07 A2986 RMK AO2 T00830072=
201704060453 METAR KCLM 060453Z AUTO 00000KT 10SM OVC008 08/08 A2986 RMK AO2 CIG 005V011 SLP114 T00830078=
201704060404 SPECI KCLM 060404Z AUTO 29003KT 10SM OVC008 08/08 A2986 RMK AO2 CIG 006V012 T00830078=
201704060353 METAR KCLM 060353Z AUTO 29004KT 10SM BKN010 OVC070 08/08 A2987 RMK AO2 CIG 006V012 SLP114 T00830078=
201704060348 SPECI KCLM 060348Z AUTO 29003KT 10SM BKN008 BKN013 OVC070 08/08 A2987 RMK AO2 CIG 006V010=
201704060326 SPECI KCLM 060326Z AUTO 26004KT 10SM FEW007 BKN013 OVC085 08/08 A2986 RMK AO2 T00780078=
201704060258 SPECI KCLM 060258Z AUTO 32003KT 10SM BKN005 BKN014 BKN090 08/08 A2986 RMK AO2 T00830078=
201704060253 METAR KCLM 060253Z AUTO 32003KT 10SM SCT005 SCT014 BKN050 08/08 A2986 RMK AO2 SLP113 60000 T00830078 58013=
201704060239 SPECI KCLM 060239Z AUTO 30003KT 10SM FEW005 BKN014 OVC050 08/08 A2987 RMK AO2 T00830078=
201704060153 METAR KCLM 060153Z AUTO 30004KT 10SM OVC013 09/08 A2988 RMK AO2 RAB0055E08 SLP118 P0000 T00890078=
201704060108 SPECI KCLM 060108Z AUTO 35003KT 10SM BKN013 OVC034 09/08 A2989 RMK AO2 RAB0055E08 P0000 T00940078=
201704060053 METAR KCLM 060053Z AUTO 00000KT 10SM OVC034 11/08 A2989 RMK AO2 SLP123 T01060078=
201704052353 METAR KCLM 052353Z AUTO 00000KT 10SM OVC036 11/08 A2990 RMK AO2 SLP126 60002 T01060078 10111 20089 58004=
201704052315 SPECI KCLM 052315Z AUTO 00000KT 10SM FEW014 OVC033 11/08 A2991 RMK AO2 T01060078=
201704052253 METAR KCLM 052253Z AUTO 00000KT 10SM BKN014 OVC033 11/07 A2991 RMK AO2 SLP130 T01060072=
201704052222 SPECI KCLM 052222Z AUTO 00000KT 10SM OVC015 11/08 A2991 RMK AO2 T01060078=
201704052153 METAR KCLM 052153Z AUTO 00000KT 10SM OVC014 10/07 A2991 RMK AO2 SLP130 T01000072=
201704052053 METAR KCLM 052053Z AUTO 03003KT 10SM OVC011 09/07 A2991 RMK AO2 SLP130 60002 T00940072 53002=
201704052012 SPECI KCLM 052012Z AUTO VRB03KT 10SM FEW003 OVC011 09/08 A2991 RMK AO2 T00940083=
201704051953 METAR KCLM 051953Z AUTO 36003KT 10SM BKN003 OVC011 09/09 A2991 RMK AO2 CIG 002V006 SLP128 T00940089=
201704051937 SPECI KCLM 051937Z AUTO 00000KT 10SM BKN003 BKN009 OVC012 09/09 A2991 RMK AO2 CIG 002V006 T00940089=
201704051912 SPECI KCLM 051912Z AUTO VRB03KT 10SM FEW006 BKN012 OVC049 09/08 A2991 RMK AO2 T00940083=
201704051903 SPECI KCLM 051903Z AUTO 04003KT 10SM FEW006 BKN034 OVC049 10/09 A2990 RMK AO2 T01000089=
201704051853 METAR KCLM 051853Z AUTO 00000KT 10SM BKN034 BKN050 OVC080 10/08 A2991 RMK AO2 RAB02E34 SLP128 P0002 T01000083=
201704051839 SPECI KCLM 051839Z AUTO 00000KT 10SM FEW029 BKN036 OVC050 09/09 A2991 RMK AO2 RAB02E34 P0002 T00940089=
201704051824 SPECI KCLM 051824Z AUTO 09003KT 4SM -RA BR SCT012 BKN029 OVC055 09/09 A2991 RMK AO2 RAB02 P0002 T00940089=
201704051753 METAR KCLM 051753Z AUTO 34003KT 8SM SCT004 OVC013 09/09 A2991 RMK AO2 RAB02E39 SLP129 P0002 60014 T00890089 10094 20078 51012=
201704051748 SPECI KCLM 051748Z AUTO 02003KT 8SM SCT004 OVC011 09/09 A2991 RMK AO2 RAB02E39 P0002=
201704051700 SPECI KCLM 051700Z AUTO 34003KT 10SM BKN006 OVC017 09/09 A2990 RMK AO2 CIG 005V009 T00940089=
201704051653 METAR KCLM 051653Z AUTO 32003KT 10SM SCT006 OVC017 09/09 A2990 RMK AO2 SLP124 T00940094=
201704051650 SPECI KCLM 051650Z AUTO 00000KT 10SM SCT005 OVC017 09/09 A2989 RMK AO2=
201704051641 SPECI KCLM 051641Z AUTO 10004KT 10SM BKN005 OVC017 09/09 A2989 RMK AO2 T00940089=
201704051622 SPECI KCLM 051622Z AUTO 09004KT 10SM OVC004 09/09 A2989 RMK AO2 CIG 003V008 T00890089=
201704051612 SPECI KCLM 051612Z AUTO 08004KT 10SM OVC005 09/09 A2989 RMK AO2 CIG 003V008 T00940089=
201704051553 METAR KCLM 051553Z AUTO 08005KT 8SM BKN004 OVC075 09/09 A2987 RMK AO2 RAE18 SLP117 P0000 T00890089=
201704051509 SPECI KCLM 051509Z AUTO 11005KT 8SM -RA FEW006 BKN065 OVC075 09/09 A2988 RMK AO2 P0000 T00890089=
201704051453 METAR KCLM 051453Z AUTO 20003KT 8SM -RA BKN006 OVC060 09/09 A2988 RMK AO2 SLP120 P0002 60012 T00890089 51017=
201704051353 METAR KCLM 051353Z AUTO 33003KT 6SM -RA BR OVC008 08/08 A2988 RMK AO2 SLP117 P0005 T00830083=
201704051317 SPECI KCLM 051317Z AUTO 00000KT 9SM -RA BKN008 OVC012 08/08 A2986 RMK AO2 P0001 T00830078=
201704051307 SPECI KCLM 051307Z AUTO 13003KT 7SM -RA BKN010 OVC055 08/08 A2986 RMK AO2 P0001 T00780078=
201704051253 METAR KCLM 051253Z AUTO 00000KT 5SM -RA BR FEW010 OVC055 08/08 A2986 RMK AO2 SLP112 P0005 T00780078=
201704051153 METAR KCLM 051153Z AUTO 28003KT 5SM -RA BR OVC060 08/07 A2983 RMK AO2 SLP103 P0004 60017 70019 T00780072 10078 20067 53010=
201704051053 METAR KCLM 051053Z AUTO 00000KT 10SM -RA OVC060 08/08 A2982 RMK AO2 SLP100 P0002 T00780078=
201704050953 METAR KCLM 050953Z AUTO 25003KT 8SM -RA OVC065 08/08 A2981 RMK AO2 SLP095 P0002 T00780078=
201704050853 METAR KCLM 050853Z AUTO 27003KT 7SM -RA OVC060 08/07 A2980 RMK AO2 SLP093 P0005 60009 T00780072 53007=
201704050753 METAR KCLM 050753Z AUTO 00000KT 5SM -RA BR OVC065 07/07 A2978 RMK AO2 SLP086 P0003 T00720072 401110033=
201704050653 METAR KCLM 050653Z AUTO 00000KT 9SM -RA OVC060 07/07 A2978 RMK AO2 SLP085 P0001 T00720067=
201704050553 METAR KCLM 050553Z AUTO VRB03KT 8SM -RA OVC075 07/07 A2978 RMK AO2 SLP087 P0002 60002 T00670067 10106 20067 58007=
201704050453 METAR KCLM 050453Z AUTO 28003KT 9SM -RA OVC070 07/06 A2980 RMK AO2 SLP091 P0000 T00720061=
201704050353 METAR KCLM 050353Z AUTO 12004KT 10SM -RA BKN070 OVC095 08/05 A2979 RMK AO2 RAB40 SLP091 P0000 T00780050=
201704050253 METAR KCLM 050253Z AUTO 00000KT 10SM BKN110 08/05 A2980 RMK AO2 SLP094 T00830050 56011=
201704050153 METAR KCLM 050153Z AUTO 32005KT 10SM BKN120 09/04 A2981 RMK AO2 SLP098 T00890044=
201704050053 METAR KCLM 050053Z AUTO 31004KT 10SM BKN065 11/03 A2982 RMK AO2 SLP100 T01060033=
201704042353 METAR KCLM 042353Z AUTO 36004KT 10SM OVC060 10/03 A2984 RMK AO2 SLP105 T01000033 10111 20078 58021=
201704042253 METAR KCLM 042253Z AUTO 28004KT 10SM FEW065 FEW120 11/03 A2986 RMK AO2 SLP112 T01060028=
201704042153 METAR KCLM 042153Z AUTO 34004KT 10SM OVC110 10/03 A2988 RMK AO2 SLP121 T01000033=
201704042053 METAR KCLM 042053Z AUTO 01003KT 10SM OVC100 09/04 A2990 RMK AO2 SLP126 T00940039 58016=
201704041953 METAR KCLM 041953Z AUTO 35003KT 10SM OVC090 09/04 A2992 RMK AO2 SLP132 T00940044=
201704041853 METAR KCLM 041853Z AUTO 32006KT 10SM OVC080 08/04 A2994 RMK AO2 SLP139 T00830044=
201704041753 METAR KCLM 041753Z AUTO 28005KT 10SM OVC085 08/04 A2995 RMK AO2 SLP143 T00780039 10078 20039 58013=
201704041653 METAR KCLM 041653Z AUTO VRB03KT 10SM SCT015 OVC090 07/04 A2996 RMK AO2 SLP146 T00720044=
201704041553 METAR KCLM 041553Z AUTO 00000KT 10SM BKN100 07/04 A2998 RMK AO2 SLP153 T00670039=
201704041453 METAR KCLM 041453Z AUTO 00000KT 10SM BKN110 04/03 A2998 RMK AO2 SLP155 T00440033 56010=
201704041353 METAR KCLM 041353Z AUTO 00000KT 10SM OVC110 04/03 A2999 RMK AO2 SLP157 T00440028=
201704041253 METAR KCLM 041253Z AUTO 25003KT 10SM BKN110 04/02 A3001 RMK AO2 SLP164 T00390022=
201704041153 METAR KCLM 041153Z AUTO 00000KT 10SM OVC110 04/03 A3002 RMK AO2 SLP166 T00440028 10050 20033 57017=
201704041053 METAR KCLM 041053Z AUTO 22003KT 10SM BKN100 BKN120 04/02 A3003 RMK AO2 SLP172 T00440022=
201704040953 METAR KCLM 040953Z AUTO 00000KT 10SM CLR 04/02 A3005 RMK AO2 SLP177 T00390022=
201704040853 METAR KCLM 040853Z AUTO 22003KT 10SM CLR 04/03 A3006 RMK AO2 SLP183 T00390028 56013=
201704040753 METAR KCLM 040753Z AUTO 00000KT 10SM CLR 04/03 A3007 RMK AO2 SLP186 T00390028 401061006=
201704040653 METAR KCLM 040653Z AUTO 00000KT 10SM CLR 04/03 A3008 RMK AO2 SLP189 T00390028=
201704040553 METAR KCLM 040553Z AUTO 00000KT 10SM CLR 05/03 A3010 RMK AO2 SLP195 T00500028 10100 20044 58008=
201704040453 METAR KCLM 040453Z AUTO 00000KT 10SM CLR 06/03 A3012 RMK AO2 SLP202 T00560028=
201704040353 METAR KCLM 040353Z AUTO 22003KT 10SM CLR 06/02 A3013 RMK AO2 SLP204 T00560022=
201704040253 METAR KCLM 040253Z AUTO 00000KT 10SM CLR 06/02 A3013 RMK AO2 SLP203 T00610017 58019=
201704040153 METAR KCLM 040153Z AUTO 12003KT 10SM CLR 08/01 A3015 RMK AO2 SLP211 T00780011=
201704040053 METAR KCLM 040053Z AUTO 09004KT 10SM CLR 09/00 A3016 RMK AO2 SLP216 T00940000=
201704032353 METAR KCLM 032353Z AUTO 04004KT 10SM CLR 10/01 A3018 RMK AO2 SLP223 T01000011 10106 20072 58022=
201704032253 METAR KCLM 032253Z AUTO 08005KT 10SM CLR 10/01 A3020 RMK AO2 SLP230 T01000011=
201704032153 METAR KCLM 032153Z AUTO VRB05KT 10SM CLR 09/01 A3024 RMK AO2 SLP241 T00940011=
201704032053 METAR KCLM 032053Z AUTO 06006KT 10SM CLR 10/02 A3025 RMK AO2 SLP245 T01000022 58012=
201704031953 METAR KCLM 031953Z AUTO 05005KT 10SM CLR 09/03 A3027 RMK AO2 SLP254 T00890028=
201704031853 METAR KCLM 031853Z AUTO VRB06KT 10SM CLR 09/03 A3029 RMK AO2 SLP259 T00890033=
201704031753 METAR KCLM 031753Z AUTO VRB05KT 10SM CLR 08/02 A3028 RMK AO2 SLP257 T00780022 10078 21006 58001=
201704031653 METAR KCLM 031653Z AUTO VRB05KT 10SM CLR 08/02 A3029 RMK AO2 SLP257 T00780022=
201704031553 METAR KCLM 031553Z AUTO 23004KT 10SM SCT033 04/00 A3029 RMK AO2 SLP260 T00440000=
201704031453 METAR KCLM 031453Z AUTO 23005KT 10SM OVC035 03/M01 A3029 RMK AO2 SLP258 T00281006 53001=
201704031353 METAR KCLM 031353Z AUTO 00000KT 10SM FEW034 M01/M02 A3029 RMK AO2 SLP259 T10061022=
201704031253 METAR KCLM 031253Z AUTO 23006KT 10SM CLR 02/M02 A3028 RMK AO2 SLP254 T00171017=
201704031153 METAR KCLM 031153Z AUTO 25009KT 10SM CLR 03/M02 A3028 RMK AO2 SLP257 70001 T00281017 10044 20028 58002=
201704031053 METAR KCLM 031053Z AUTO 25010KT 10SM CLR 03/M02 A3028 RMK AO2 SLP257 T00331017=
201704030953 METAR KCLM 030953Z AUTO 25008KT 10SM CLR 03/M01 A3029 RMK AO2 SLP260 T00331011=
201704030853 METAR KCLM 030853Z AUTO 25009KT 10SM CLR 04/M01 A3029 RMK AO2 SLP259 T00391011 51002=
201704030753 METAR KCLM 030753Z AUTO 25011KT 10SM FEW055 04/M01 A3029 RMK AO2 SLP258 T00391011 401000033=
201704030653 METAR KCLM 030653Z AUTO 25010KT 10SM CLR 04/M01 A3029 RMK AO2 SLP260 T00391006=
201704030553 METAR KCLM 030553Z AUTO 26009KT 10SM CLR 04/M01 A3028 RMK AO2 SLP257 60000 T00391006 10083 20039 50004=
201704030453 METAR KCLM 030453Z AUTO 27009KT 10SM BKN085 06/M01 A3029 RMK AO2 SLP258 T00561011=
201704030353 METAR KCLM 030353Z AUTO 28009KT 10SM CLR 06/M01 A3028 RMK AO2 SLP255 T00611006=
201704030253 METAR KCLM 030253Z AUTO 27009KT 10SM FEW080 06/M01 A3027 RMK AO2 SLP253 60000 T00611006 55007=
201704030153 METAR KCLM 030153Z AUTO 28011KT 10SM CLR 07/03 A3027 RMK AO2 RAE02 SLP252 P0000 T00720028=
201704030053 METAR KCLM 030053Z AUTO 28011G19KT 9SM -RA SCT046 BKN055 07/03 A3029 RMK AO2 RAB52 SLP259 P0000 T00720028=
201704022353 METAR KCLM 022353Z AUTO 30015G22KT 10SM SCT055 08/03 A3029 RMK AO2 PK WND 31027/2259 SLP260 60001 T00780028 10100 20078 58005=
201704022253 METAR KCLM 022253Z AUTO 30018G24KT 10SM FEW047 BKN055 BKN070 09/03 A3029 RMK AO2 PK WND 30027/2237 RAB16E25 SLP261 P0001 T00890033=
201704022153 METAR KCLM 022153Z AUTO 31009KT 10SM FEW031 BKN040 OVC065 08/04 A3031 RMK AO2 RAB30E44 SLP265 P0000 T00830039=
201704022053 METAR KCLM 022053Z AUTO 30014G23KT 10SM OVC065 10/02 A3031 RMK AO2 SLP265 T01000022 58006=
201704021953 METAR KCLM 021953Z AUTO 30015KT 10SM CLR 09/04 A3032 RMK AO2 SLP269 T00940039=
201704021853 METAR KCLM 021853Z AUTO 33012G18KT 10SM FEW032 BKN043 08/03 A3033 RMK AO2 SLP273 T00830033=
201704021753 METAR KCLM 021753Z AUTO 31013G19KT 10SM FEW039 10/01 A3032 RMK AO2 SLP270 60000 T01000011 10100 20039 51004=
201704021653 METAR KCLM 021653Z AUTO 27016KT 10SM FEW070 09/01 A3032 RMK AO2 SLP268 T00890011=
201704021553 METAR KCLM 021553Z AUTO 29008KT 10SM FEW024 08/02 A3032 RMK AO2 SLP270 T00780022=
201704021453 METAR KCLM 021453Z AUTO 26010KT 10SM CLR 06/02 A3031 RMK AO2 SLP266 60000 T00560022 58001=
201704021353 METAR KCLM 021353Z AUTO 26006KT 10SM BKN037 04/04 A3032 RMK AO2 RAB21E37 SLP269 P0000 T00440039=
201704021253 METAR KCLM 021253Z AUTO 26008KT 10SM SCT036 05/01 A3031 RMK AO2 SLP266 T00500011=
201704021153 METAR KCLM 021153Z AUTO 25014G19KT 10SM FEW031 06/02 A3031 RMK AO2 RAB33E43 SLP266 P0000 60000 70012 T00610017 10078 20044 58007=
201704021053 METAR KCLM 021053Z AUTO 26006KT 10SM CLR 04/00 A3032 RMK AO2 SLP270 T00440000=
201704020953 METAR KCLM 020953Z AUTO 26008KT 10SM FEW085 04/01 A3033 RMK AO2 SLP273 T00440006=
201704020853 METAR KCLM 020853Z AUTO 28010KT 10SM CLR 05/01 A3033 RMK AO2 SLP274 T00500011 51017=
201704020753 METAR KCLM 020753Z AUTO 30010KT 10SM CLR 06/01 A3032 RMK AO2 SLP268 T00610011 401110061=
201704020653 METAR KCLM 020653Z AUTO 31011KT 10SM CLR 07/01 A3030 RMK AO2 SLP262 T00720006=
201704020553 METAR KCLM 020553Z AUTO 30012KT 10SM CLR 07/02 A3028 RMK AO2 SLP256 T00720017 10106 20072 53009=
201704020453 METAR KCLM 020453Z AUTO 29011KT 10SM CLR 08/02 A3027 RMK AO2 SLP251 T00780022=
201704020353 METAR KCLM 020353Z AUTO 28010KT 10SM CLR 08/03 A3027 RMK AO2 SLP253 T00780033=
201704020253 METAR KCLM 020253Z AUTO 29011G17KT 10SM CLR 08/05 A3026 RMK AO2 SLP249 T00830050 51002=
201704020220 SPECI KCLM 020220Z AUTO 30010KT 10SM SCT017 SCT024 08/06 A3026 RMK AO2 T00830061=
201704020153 METAR KCLM 020153Z AUTO 30016G22KT 10SM OVC015 09/07 A3026 RMK AO2 SLP248 T00890067=
201704020134 SPECI KCLM 020134Z AUTO 30019G24KT 10SM OVC015 09/07 A3026 RMK AO2 T00890067=
201704020053 METAR KCLM 020053Z AUTO 29013G21KT 10SM OVC012 09/07 A3026 RMK AO2 SLP247 T00940072=
201704012353 METAR KCLM 012353Z AUTO 31014G21KT 10SM OVC013 10/07 A3025 RMK AO2 SLP245 T01000072 10111 20089 53003=
201704012324 SPECI KCLM 012324Z AUTO 31007G16KT 10SM OVC013 10/08 A3025 RMK AO2 T01000078=
201704012317 SPECI KCLM 012317Z AUTO 31009KT 10SM OVC015 10/08 A3025 RMK AO2 T01000083=
201704012253 METAR KCLM 012253Z AUTO 30012G20KT 10SM OVC014 10/08 A3025 RMK AO2 SLP245 T01000083=
201704012213 SPECI KCLM 012213Z AUTO VRB06KT 10SM OVC010 10/08 A3024 RMK AO2 T01000083=
201704012153 METAR KCLM 012153Z AUTO 30007KT 10SM OVC009 10/08 A3024 RMK AO2 CIG 007V014 SLP240 T01000083=
201704012106 SPECI KCLM 012106Z AUTO VRB05KT 10SM BKN008 BKN012 10/08 A3025 RMK AO2 CIG 007V012 T01000078=
201704012053 METAR KCLM 012053Z AUTO 34004KT 10SM BKN012 10/07 A3024 RMK AO2 SLP242 T01000072 53011=
201704012038 SPECI KCLM 012038Z AUTO VRB04KT 10SM BKN012 11/08 A3024 RMK AO2 T01060078=
201704011953 METAR KCLM 011953Z AUTO 04005KT 10SM SCT008 10/08 A3023 RMK AO2 SLP238 T01000078=
201704011853 METAR KCLM 011853Z AUTO 00000KT 10SM CLR 10/08 A3022 RMK AO2 SLP235 T01000083=
201704011818 SPECI KCLM 011818Z AUTO VRB03KT 10SM FEW007 10/08 A3021 RMK AO2 T01000083=
201704011753 METAR KCLM 011753Z AUTO 00000KT 10SM OVC007 09/08 A3021 RMK AO2 CIG 005V010 SLP232 60012 T00940083 10100 20067 51017=
201704011739 SPECI KCLM 011739Z AUTO 36003KT 10SM BKN006 BKN011 OVC042 09/08 A3021 RMK AO2 CIG 005V010 T00940083=
201704011726 SPECI KCLM 011726Z AUTO 36003KT 10SM SCT006 BKN011 OVC042 09/08 A3021 RMK AO2 CIG 009V012 T00890078=
201704011702 SPECI KCLM 011702Z AUTO 00000KT 10SM BKN004 OVC044 09/08 A3019 RMK AO2 CIG 002V007 T00890083=
201704011653 METAR KCLM 011653Z AUTO 06004KT 9SM BKN005 OVC041 09/08 A3019 RMK AO2 CIG 002V006 SLP224 T00890083=
201704011646 SPECI KCLM 011646Z AUTO 01004KT 10SM BKN005 OVC041 09/08 A3018 RMK AO2 T00890083=
201704011629 SPECI KCLM 011629Z AUTO 00000KT 10SM FEW003 BKN041 OVC047 08/08 A3018 RMK AO2 T00830078=
201704011553 METAR KCLM 011553Z AUTO 00000KT 10SM BKN002 OVC043 07/07 A3019 RMK AO2 RAE1456 SLP224 P0000 T00720072=
201704011453 METAR KCLM 011453Z AUTO 00000KT 5SM -RA BR FEW015 OVC037 07/07 A3016 RMK AO2 SLP216 P0003 60012 T00720072 53003=
201704011414 SPECI KCLM 011414Z AUTO 00000KT 4SM -RA BR FEW004 BKN044 OVC055 07/07 A3015 RMK AO2 P0001 T00720072=
201704011402 SPECI KCLM 011402Z AUTO 15005KT 3SM -RA BR SCT004 BKN019 OVC035 07/07 A3015 RMK AO2 P0001 T00670067=
201704011353 METAR KCLM 011353Z AUTO 00000KT 2 1/2SM -RA BR BKN004 OVC019 07/07 A3016 RMK AO2 RAE04B27 SLP215 P0003 T00670067=
201704011339 SPECI KCLM 011339Z AUTO 00000KT 2 1/2SM -RA BR OVC004 07/07 A3016 RMK AO2 RAE04B27 P0001 T00670067=
201704011253 METAR KCLM 011253Z AUTO 00000KT 4SM -RA BR OVC005 07/07 A3015 RMK AO2 CIG 004V008 SLP210 P0006 T00670067=
201704011230 SPECI KCLM 011230Z AUTO 23004KT 4SM -RA BR BKN006 BKN010 OVC020 07/07 A3015 RMK AO2 CIG 004V007 P0004 T00670067=
201704011209 SPECI KCLM 011209Z AUTO 27004KT 3SM -RA BR SCT006 BKN014 OVC019 07/07 A3016 RMK AO2 P0004 T00670067=
201704011204 SPECI KCLM 011204Z AUTO 28003KT 2 1/2SM -RA BR SCT006 BKN015 OVC019 07/07 A3016 RMK AO2 P0003 T00670067=
201704011153 METAR KCLM 011153Z AUTO 30003KT 5SM -RA BR OVC006 07/06 A3015 RMK AO2 SLP213 P0000 60005 70005 T00670061 10078 20067 55008=
201704011116 SPECI KCLM 011116Z AUTO 00000KT 9SM -RA BKN007 BKN012 OVC026 07/07 A3015 RMK AO2 CIG 005V009 P0000 T00670067=
201704011112 SPECI KCLM 011112Z AUTO 00000KT 8SM -RA SCT007 SCT012 OVC026 07/07 A3015 RMK AO2 P0000 T00670067=
201704011100 SPECI KCLM 011100Z AUTO 00000KT 7SM -RA BKN028 OVC050 07/07 A3015 RMK AO2 P0000 T00670067=
201704011053 METAR KCLM 011053Z AUTO 00000KT 7SM -RA BKN030 OVC050 07/07 A3014 RMK AO2 SLP210 P0005 T00670067=
201704011017 SPECI KCLM 011017Z AUTO 23003KT 4SM -RA BR SCT022 OVC055 07/07 A3016 RMK AO2 P0002 T00670067=
201704010953 METAR KCLM 010953Z AUTO 25003KT 6SM -RA BR BKN022 OVC038 07/06 A3018 RMK AO2 RAB20 SLP221 P0000 T00670061=
201704010925 SPECI KCLM 010925Z AUTO 27003KT 9SM -RA SCT020 BKN037 OVC060 07/06 A3018 RMK AO2 RAB20 P0000 T00720056=
201704010853 METAR KCLM 010853Z AUTO 00000KT 10SM OVC019 07/06 A3018 RMK AO2 SLP220 60000 T00720056 56025=
201704010812 SPECI KCLM 010812Z AUTO 00000KT 10SM BKN019 OVC050 07/06 A3020 RMK AO2 T00720056=
201704010753 METAR KCLM 010753Z AUTO 00000KT 10SM FEW019 OVC050 07/06 A3021 RMK AO2 RAB06E17 SLP229 P0000 T00720056 401000017=
201704010653 METAR KCLM 010653Z AUTO 00000KT 10SM OVC055 07/05 A3022 RMK AO2 SLP235 T00720050=
201704010553 METAR KCLM 010553Z AUTO 25003KT 10SM OVC055 07/06 A3025 RMK AO2 SLP245 60000 T00720056 10094 20072 58002=
201704010453 METAR KCLM 010453Z AUTO 00000KT 10SM OVC055 08/05 A3026 RMK AO2 SLP249 T00780050=
201704010353 METAR KCLM 010353Z AUTO 30003KT 10SM OVC055 07/05 A3027 RMK AO2 SLP252 T00720050=
201704010253 METAR KCLM 010253Z AUTO 28003KT 10SM BKN100 OVC110 08/05 A3026 RMK AO2 RAB22E34 SLP248 P0000 60000 T00780050 56020=
201704010153 METAR KCLM 010153Z AUTO 00000KT 10SM FEW075 OVC090 08/04 A3027 RMK AO2 SLP253 T00830039=
201704010053 METAR KCLM 010053Z AUTO 00000KT 10SM BKN060 OVC095 09/04 A3029 RMK AO2 SLP261 T00940039=

# No short TAF reports from KCLM in databse.

###################################
#  large TAF from KCLM
###################################
201704302339 TAF KCLM 302339Z 0100/0124 29012G20KT P6SM VCSH SCT030 SCT050 FM010900
                       26005KT P6SM SCT015 OVC100 FM011400 VRB03KT
                       P6SM -RA SCT008 BKN015 OVC025 FM012000 35004KT
                       P6SM VCSH SCT012 BKN040=
201704301736 TAF KCLM 301736Z 3018/0118 31015G22KT P6SM VCSH SCT030 SCT050 FM010000
                       29010G18KT P6SM SKC FM010800 26005KT P6SM
                       SCT015 OVC100 FM011400 VRB03KT P6SM -RA
                       SCT008 BKN015 OVC025=
201704301120 TAF KCLM 301120Z 3012/0112 27010KT P6SM SCT015 BKN030
                      TEMPO 3012/3015 BKN015 BKN030 FM301700 28012G20KT
                       P6SM SCT030 BKN040 FM010000 30012G20KT P6SM
                       SCT050 BKN200 FM010600 28008KT P6SM SCT080
                       OVC150 FM011000 26005KT P6SM BKN050 OVC080=
201704300833 KCLM 300833Z 3009/0106 26008KT P6SM SCT012 SCT035 BKN050
                      TEMPO 3009/3012 OVC012 FM301200 27012KT P6SM
                       SCT015 BKN030 FM301600 28012G20KT P6SM SCT030
                       BKN040 FM010000 30013G22KT P6SM SCT050 BKN200=
201704300522 TAF KCLM 300522Z 3006/0106 26010KT P6SM VCSH SCT035 BKN050 FM301000
                       27013G20KT P6SM VCSH SCT030 BKN050 FM010000
                       30010G18KT P6SM SCT050 BKN200=
201704292342 TAF KCLM 292342Z 3000/3024 VRB03KT P6SM -RA OVC060 FM300400 26012G20KT
                       P6SM -SHRA SCT035 BKN050 FM300800 27010KT
                       P6SM VCSH SCT050
                      TEMPO 3017/3021 -SHRA BKN050 FM302200 31014G22KT
                       P6SM SCT050 BKN200=
201704291738 TAF KCLM 291738Z 2918/3018 07005KT P6SM OVC060 FM292200 03005KT
                       P6SM -RA OVC050 FM300400 28012KT P6SM -SHRA
                       SCT035 BKN050 FM300800 27010KT P6SM VCSH
                       SCT050
                      TEMPO 3016/3018 -SHRA BKN050=
201704291120 TAF KCLM 291120Z 2912/3012 VRB04KT P6SM SCT050 BKN200 FM291500
                       06005KT P6SM SCT100 BKN150 FM292000 09005KT
                       P6SM -SHRA BKN050 OVC080 FM292300 10005KT
                       P6SM -RA OVC045 FM300400 29010KT P6SM -SHRA
                       BKN040 FM300600 28012G22KT P6SM VCSH BKN040=
201704290726 KCLM 290726Z 2907/3006 28007KT P6SM SCT030 BKN200 FM291000 VRB04KT
                       P6SM SCT050 BKN200 FM291300 06005KT P6SM
                       SCT100 BKN150 FM292100 09005KT P6SM -RA
                       BKN050 OVC080 FM292300 25008KT P6SM -RA
                       OVC045 FM300200 29012KT P6SM -SHRA BKN035
                       BKN045 FM300500 27010KT P6SM VCSH BKN040=
201704290520 TAF KCLM 290520Z 2906/3006 28007KT P6SM SCT025 BKN050 BKN200
                      TEMPO 2906/2910 BKN025 FM291000 VRB04KT P6SM
                       SCT050 BKN200 FM291300 06005KT P6SM SCT100
                       BKN150 FM292100 09005KT P6SM -RA BKN050
                       OVC080 FM292300 25008KT P6SM -RA OVC045
                       FM300200 29012KT P6SM -SHRA BKN035 BKN045
                       FM300500 27010KT P6SM VCSH BKN040=
201704282328 TAF KCLM 282328Z 2900/2924 32009G15KT P6SM SCT040 SCT200 FM290700
                       26007KT P6SM SCT200 FM291000 08004KT P6SM
                       BKN200 FM292300 09003KT P6SM BKN080 OVC120=
201704281728 TAF KCLM 281728Z 2818/2918 VRB03KT P6SM SCT045 FM282300 30006KT
                       P6SM SCT045 FM290700 27006KT P6SM SCT035
                       SCT200 FM291200 VRB03KT P6SM OVC060=
201704281120 TAF KCLM 281120Z 2812/2912 26010KT P6SM SCT045 FM281500 29007KT
                       P6SM SCT050 FM281800 31006KT P6SM FEW050
                       FM290100 32009KT P6SM SKC FM290700 27007KT
                       P6SM BKN200=
201704280520 TAF KCLM 280520Z 2806/2906 27010KT P6SM SCT025 BKN035 FM281000
                       28006KT P6SM SCT040 FM281900 31006KT P6SM
                       SCT050 FM290100 32009KT P6SM SCT050=
201704272326 TAF KCLM 272326Z 2800/2824 30012G19KT P6SM VCSH FEW026 BKN045 OVC080
                       FM280400 27011G18KT P6SM BKN045 BKN080 FM280800
                       26009KT P6SM SCT080 FM281700 32007KT P6SM
                       BKN035=
201704271735 TAF KCLM 271735Z 2718/2818 31009KT P6SM FEW070 SCT090 FM272300
                       30014G20KT P6SM SCT070 FM280100 30013G19KT
                       P6SM VCSH FEW070 FM280400 27011G18KT P6SM
                       SKC FM280800 26009KT P6SM SKC FM281700 32007KT
                       P6SM BKN035=
201704271120 TAF KCLM 271120Z 2712/2812 28008KT P6SM VCSH SCT015 BKN040 FM272000
                       30012G20KT P6SM BKN050 FM280000 31014G24KT
                       P6SM BKN050 FM280700 28010KT P6SM SCT050=
201704270520 TAF KCLM 270520Z 2706/2806 28014G20KT P6SM VCSH BKN040 FM271000
                       27010KT P6SM VCSH BKN040 FM272200 30013G22KT
                       P6SM BKN050 FM280000 31014G24KT P6SM BKN050
                       FM280400 28010KT P6SM SCT050=
201704262328 TAF KCLM 262328Z 2700/2724 30011G20KT P6SM VCSH SCT035 BKN060 OVC080
                       FM270300 29017G24KT P6SM SCT050 FM270600
                       28014G21KT P6SM SCT035=
201704261725 TAF KCLM 261725Z 2618/2718 31012G18KT P6SM VCSH SCT021 BKN035 OVC045
                       FM262100 31016G22KT P6SM SCT025 BKN040 FM270000
                       30016G22KT P6SM OVC040 FM270600 27013G20KT
                       P6SM SCT035=
201704261120 TAF KCLM 261120Z 2612/2712 19010KT P6SM VCSH SCT012 SCT025 BKN035
                       FM261600 30012G22KT P6SM SCT030 BKN040 FM262000
                       30013G24KT P6SM SCT040 FM270600 27010KT
                       P6SM BKN030=
201704260540 TAF KCLM 260540Z 2606/2706 30005KT P6SM -RA OVC040 FM260900 28010KT
                       P6SM -SHRA BKN035 FM261200 28012KT P6SM
                       VCSH BKN035 FM262000 30014G25KT P6SM SCT050=
201704252320 TAF KCLM 252320Z 2600/2624 VRB04KT P6SM -RA OVC060 FM260300 09005KT
                       P6SM -RA OVC040 FM260900 28012KT P6SM -SHRA
                       BKN025 FM261800 28012G22KT P6SM VCSH BKN040=
201704251732 TAF KCLM 251732Z 2518/2618 VRB04KT P6SM SCT035 BKN120
                      TEMPO 2518/2522 BKN035 BKN120 FM252200 09006KT
                       P6SM -RA OVC030 FM260800 27012KT P6SM -SHRA
                       BKN020 FM261700 29012KT P6SM VCSH BKN030=
201704251122 TAF KCLM 251122Z 2512/2612 VRB03KT P6SM BKN020 OVC045
                      TEMPO 2512/2516 SCT020 BKN045 FM251600 VRB03KT
                       P6SM SCT020 BKN045
                      TEMPO 2516/2518 BKN020 BKN045 FM251800 VRB03KT
                       P6SM BKN040 BKN120 FM252300 VRB03KT P6SM
                       -RA OVC040 FM260400 VRB03KT P6SM -RA OVC025
                       FM260800 26010KT P6SM -SHRA OVC020=
201704250532 TAF KCLM 250532Z 2506/2606 27008KT P6SM SCT015 BKN045
                      TEMPO 2506/2510 BKN015 BKN045 FM251000 26006KT
                       P6SM BKN015 BKN045
                      TEMPO 2510/2514 SCT015 BKN045 FM251400 26006KT
                       P6SM SCT020 BKN045
                      TEMPO 2514/2518 BKN020 BKN045 FM251800 VRB03KT
                       P6SM BKN040 BKN120 FM252300 VRB03KT P6SM
                       -RA OVC040=
201704242320 TAF KCLM 242320Z 2500/2524 27010KT P6SM SCT050 FM251100 26006KT
                       P6SM BKN020 FM251800 VRB03KT P6SM BKN040
                       BKN120 FM252100 18012KT P6SM -RA OVC040=
201704242229 KCLM 242229Z 2422/2518 VRB04KT P6SM BKN040 FM250000 28012KT P6SM
                       VCSH BKN035 FM250900 28008KT P6SM OVC025
                       FM251600 VRB03KT P6SM BKN035=
201704241720 TAF KCLM 241720Z 2418/2518 VRB04KT P6SM SCT015 BKN030
                      TEMPO 2418/2422 BKN015 OVC030 FM250200 28012KT
                       P6SM VCSH BKN035 FM250900 28008KT P6SM OVC025
                       FM251600 VRB03KT P6SM BKN035=
201704241123 TAF KCLM 241123Z 2412/2512 22004KT P6SM VCSH SCT015 OVC020 FM241900
                       02004KT P6SM SCT015 BKN030 FM242100 32008KT
                       P6SM VCSH SCT035 FM250100 29008KT P6SM SKC
                       FM251000 25006KT P6SM SCT010 BKN015=
201704240540 TAF KCLM 240540Z 2406/2506 22004KT P6SM VCSH SCT012 OVC018 FM241300
                       VRB03KT 5SM -SHRA BR SCT008 BKN012 OVC018
                       FM241700 02004KT P6SM SCT015 BKN030 FM242000
                       32008KT P6SM VCSH SCT035 FM250000 29008KT
                       P6SM SKC=
201704232320 TAF KCLM 232320Z 2400/2424 30010KT P6SM VCSH SCT035 OVC060
                      TEMPO 2400/2404 -SHRA BKN030 OVC050 FM240400
                       25004KT P6SM -SHRA BKN025 OVC050 FM241800
                       VRB04KT P6SM SCT025 BKN060=
201704231721 TAF KCLM 231721Z 2318/2418 09006KT P6SM -RA BKN015 OVC025 FM240200
                       29004KT P6SM -SHRA BKN020 OVC030 FM240600
                       VRB03KT P6SM VCSH OVC025=
201704231137 TAF KCLM 231137Z 2312/2412 23004KT P6SM VCSH SCT015 BKN030 OVC050
                       FM231700 VRB03KT P6SM -RA SCT008 BKN015
                       OVC030 FM232100 32007KT 5SM -SHRA BR SCT010
                       BKN018 OVC045 FM240300 26005KT P6SM VCSH
                       SCT015 BKN030 OVC060=
201704230535 TAF KCLM 230535Z 2306/2406 24003KT P6SM VCSH BKN050 FM231100 23004KT
                       P6SM VCSH SCT015 BKN030 OVC050 FM231700
                       VRB03KT P6SM -RA SCT008 BKN015 OVC030 FM232100
                       32007KT 5SM -SHRA BR SCT010 BKN018 OVC045
                       FM240300 28005KT P6SM VCSH SCT015 BKN040
                       OVC060=
201704222324 TAF KCLM 222324Z 2300/2324 29005KT P6SM -SHRA SCT025 BKN050 OVC070
                       FM230400 27005KT P6SM SCT030 OVC050 FM232000
                       VRB03KT P6SM -RA SCT030 OVC050=
201704221721 TAF KCLM 221721Z 2218/2318 26008KT P6SM -RA BKN050 OVC100 FM222100
                       31005KT P6SM -SHRA SCT025 BKN050 OVC080
                       FM230400 27007KT P6SM VCSH SCT020 OVC050=
201704221126 TAF KCLM 221126Z 2212/2312 24005KT P6SM BKN200 FM221500 15003KT
                       P6SM BKN100 FM221800 31005KT P6SM -SHRA
                       BKN050 OVC080 FM230600 24004KT P6SM VCSH
                       SCT020 OVC050=
201704220543 TAF KCLM 220543Z 2206/2306 VRB03KT P6SM BKN200 FM221500 15003KT
                       P6SM BKN100 FM221800 31005KT P6SM -SHRA
                       BKN050 OVC080=
201704212320 TAF KCLM 212320Z 2200/2224 07008KT P6SM SKC FM220300 VRB03KT P6SM
                       BKN200 FM221500 VRB03KT P6SM BKN100 FM221900
                       09005KT P6SM -RA BKN050 OVC080=
201704211720 TAF KCLM 211720Z 2118/2218 07007KT P6SM SKC FM220000 VRB03KT P6SM
                       SCT200 FM221500 VRB03KT P6SM BKN100=
201704211120 TAF KCLM 211120Z 2112/2212 25005KT P6SM BKN028 FM211600 VRB03KT
                       P6SM SCT030 FM211800 09005KT P6SM SCT250
                       FM220500 09008KT P6SM BKN200=
201704210520 TAF KCLM 210520Z 2106/2206 25005KT P6SM BKN050 FM211200 VRB03KT
                       P6SM SCT010
                      TEMPO 2113/2117 3SM BR BKN010 FM211800 09005KT
                       P6SM SCT250 FM220500 09008KT P6SM BKN200=
201704202333 TAF KCLM 202333Z 2100/2124 32006KT P6SM VCSH BKN060
                      TEMPO 2100/2102 -SHRA FM210200 28008KT P6SM
                       VCSH SCT060 FM210600 25005KT P6SM SKC FM211800
                       07007KT P6SM SCT250=
201704202246 KCLM 202246Z 2023/2118 VRB05KT P6SM VCSH SCT070
                      TEMPO 2023/2101 -SHRA BKN070 FM210200 28008KT
                       P6SM SCT060 FM210900 25005KT P6SM FEW250=
201704202104 KCLM 202104Z 2021/2118 VRB05KT P6SM VCSH SCT035 BKN060
                      TEMPO 2021/2024 -SHRA BKN035 OVC060 FM210200
                       28008KT P6SM SCT060 FM210900 25005KT P6SM
                       FEW250=
201704201743 TAF KCLM 201743Z 2018/2118 04004KT P6SM BKN060 FM202000 33006KT
                       P6SM VCSH SCT035 BKN060 FM210200 28008KT
                       P6SM SCT060 FM210900 25005KT P6SM FEW250=
201704201120 TAF KCLM 201120Z 2012/2112 00000KT P6SM VCSH BKN035 BKN050 FM201800
                       26006KT P6SM VCSH BKN035 FM210000 26006KT
                       P6SM BKN040 FM211000 VRB03KT P6SM SCT040=
201704200534 TAF KCLM 200534Z 2006/2106 29010KT P6SM -SHRA SCT020 BKN050 FM201200
                       27007KT P6SM BKN020 FM201800 VRB03KT P6SM
                       BKN030 FM210000 27007KT P6SM BKN040 FM210500
                       27007KT P6SM SCT040=
201704192341 TAF KCLM 192341Z 2000/2024 VRB03KT P6SM VCSH BKN070 OVC100
                      TEMPO 2005/2009 -SHRA OVC050 FM200900 VRB03KT
                       P6SM VCSH SCT028 BKN060 BKN200 FM201800
                       31005KT P6SM VCSH SCT060 BKN200
                      PROB30 2020/2024 -SHRA OVC060=
201704191731 TAF KCLM 191731Z 1918/2018 VRB03KT P6SM VCSH OVC060
                      TEMPO 1918/1920 -RA FM192000 VRB03KT P6SM
                       -RA SCT035 OVC050 FM200000 VRB03KT P6SM
                       -SHRA SCT035 OVC050 FM200600 VRB03KT P6SM
                       VCSH SCT028 BKN060 BKN200
                      PROB30 2006/2012 -SHRA BKN028 OVC050=
201704191429 KCLM 191429Z 1914/2012 VRB03KT P6SM VCSH OVC070
                      TEMPO 1914/1918 -RA FM191800 09006KT P6SM
                       -RA OVC040 FM200000 26006KT P6SM -SHRA BKN025
                       BKN040=
201704191120 TAF KCLM 191120Z 1912/2012 09006KT P6SM SCT040 BKN080 OVC150 FM191800
                       09006KT P6SM -RA OVC040 FM200000 26006KT
                       P6SM -SHRA BKN025 BKN040=
201704190520 TAF KCLM 190520Z 1906/2006 VRB03KT P6SM BKN050 BKN200 FM191700
                       09006KT P6SM -RA OVC040 FM200000 26006KT
                       P6SM -SHRA BKN025 BKN040=
201704182320 TAF KCLM 182320Z 1900/1924 00000KT P6SM -RA SCT045 OVC060 FM190400
                       VRB03KT P6SM SCT060 SCT120 FM191200 VRB03KT
                       P6SM BKN080 OVC120 FM191900 08004KT P6SM
                       -RA OVC060=
201704181723 TAF KCLM 181723Z 1818/1918 33005KT P6SM BKN060 BKN100
                      TEMPO 1820/1824 -SHRA BKN035 OVC060 FM190400
                       VRB03KT P6SM SCT060 SCT120 FM191200 VRB03KT
                       P6SM BKN080 OVC120=
201704181120 TAF KCLM 181120Z 1812/1912 21004KT P6SM VCSH BKN050 BKN100
                      TEMPO 1814/1818 5SM SHRA BR OVC040 FM182000
                       VRB04KT P6SM VCSH BKN040 OVC080 FM190400
                       26006KT P6SM VCSH BKN050 BKN100=
201704180520 TAF KCLM 180520Z 1806/1906 21004KT P6SM VCSH BKN050 BKN100 FM182000
                       VRB04KT P6SM -RA BKN040 OVC080 FM190400
                       26006KT P6SM VCSH BKN050 BKN100=
201704172320 TAF KCLM 172320Z 1800/1824 VRB03KT P6SM -RA SCT040 BKN070 OVC120
                       FM180700 VRB03KT P6SM SCT035 BKN050=
201704171721 TAF KCLM 171721Z 1718/1818 07004KT P6SM FEW040 SCT070 FM172000
                       08003KT P6SM SCT040 BKN070 BKN100 FM180000
                       VRB03KT P6SM -RA BKN035 OVC050 FM180700
                       VRB03KT P6SM SCT035 BKN050=
201704171135 TAF KCLM 171135Z 1712/1812 VRB03KT P6SM OVC080 FM171900 VRB03KT
                       P6SM OVC050 FM180000 VRB03KT P6SM -RA OVC035
                       FM180700 VRB03KT P6SM SCT035 BKN050=
201704170540 TAF KCLM 170540Z 1706/1806 VRB03KT P6SM OVC080 FM171400 VRB03KT
                       P6SM OVC050=
201704162322 TAF KCLM 162322Z 1700/1724 VRB04KT P6SM SCT100 OVC200 FM170600
                       VRB03KT P6SM BKN090 OVC200 FM171200 VRB03KT
                       P6SM OVC050=
201704161720 TAF KCLM 161720Z 1618/1718 09006KT P6SM FEW020 BKN200 FM170600
                       VRB03KT P6SM BKN100 OVC200 FM171200 VRB03KT
                       P6SM OVC060=
201704161451 KCLM 161451Z 1615/1712 23004KT P6SM BKN015 FM161800 09004KT P6SM
                       BKN200 FM170600 VRB03KT P6SM BKN100 OVC200=
201704161120 TAF KCLM 161120Z 1612/1712 09004KT P6SM BKN200 FM170600 VRB03KT
                       P6SM BKN100 OVC200=
201704160538 TAF KCLM 160538Z 1606/1706 VRB03KT P6SM SKC FM161800 09005KT P6SM
                       BKN200=
201704152326 TAF KCLM 152326Z 1600/1624 VRB05KT P6SM SCT050 FM160400 VRB03KT
                       P6SM SKC FM161800 09005KT P6SM BKN200=
201704151727 TAF KCLM 151727Z 1518/1618 35005KT P6SM SCT020 BKN040
                      TEMPO 1518/1519 BKN020 BKN040 FM152100 35005KT
                       P6SM SCT045 BKN100 FM160400 VRB03KT P6SM
                       SKC=
201704151123 TAF KCLM 151123Z 1512/1612 26006KT P6SM SCT040 BKN080 FM151600
                       VRB03KT P6SM SCT040 SCT080 FM160400 VRB03KT
                       P6SM SKC=
201704150540 TAF KCLM 150540Z 1506/1606 26006KT P6SM SCT040 BKN080 FM151600
                       VRB03KT P6SM SCT040 SCT080 FM160400 VRB03KT
                       P6SM SKC=
201704142320 TAF KCLM 142320Z 1500/1524 00000KT P6SM BKN040 BKN100 FM150300
                       29008KT P6SM SCT040 BKN100 FM151000 24004KT
                       P6SM FEW040 SCT100 FM151700 35005KT P6SM
                       FEW050 SCT100=
201704141721 TAF KCLM 141721Z 1418/1518 34005KT P6SM FEW025 SCT070 BKN100
                      TEMPO 1419/1423 -SHRA BKN035 BKN070 FM150300
                       29007KT P6SM SCT035 BKN070 FM151000 24004KT
                       P6SM FEW035 BKN070=
201704141421 KCLM 141421Z 1414/1512 00000KT P6SM SCT020 BKN070 OVC100 FM141700
                       25006KT P6SM SCT025 BKN035 FM141900 33005KT
                       P6SM VCSH BKN050 FM150300 29007KT P6SM VCSH
                       SCT035 BKN060 FM151000 25005KT P6SM BKN030=
201704141128 TAF KCLM 141128Z 1412/1512 23004KT P6SM OVC020 FM141700 25006KT
                       P6SM SCT026 BKN035 FM141900 33005KT P6SM
                       VCSH BKN050 FM150300 29007KT P6SM VCSH SCT035
                       BKN060 FM151000 25005KT P6SM BKN030=
201704140542 TAF KCLM 140542Z 1406/1506 27005KT P6SM SCT015 FM141100 26004KT
                       P6SM SCT050 BKN150 FM141900 33005KT P6SM
                       VCSH BKN050 FM150300 29007KT P6SM SCT035
                       BKN060=
201704132320 TAF KCLM 132320Z 1400/1424 27005KT P6SM SCT030 BKN080 FM141100
                       26004KT P6SM SCT050 BKN150 FM141900 33005KT
                       P6SM VCSH BKN050=
201704131945 KCLM 131945Z 1320/1418 35004KT P6SM SCT030 BKN080
                      TEMPO 1320/1324 -SHRA BKN030 OVC080 FM140200
                       27005KT P6SM VCSH BKN035 OVC060 FM141100
                       26004KT P6SM VCSH SCT035 BKN050=
201704131916 TAF KCLM 131916Z 1319/1418 VRB03KT P6SM VCSH SCT007 BKN030 BKN070
                       FM132000 32003KT P6SM -SHRA FEW011 BKN022
                       OVC040 FM140200 27005KT P6SM VCSH BKN035
                       OVC060 FM141100 26004KT P6SM VCSH SCT035
                       BKN050=
201704131816 KCLM 131816Z 1318/1418 VRB03KT P6SM VCSH SCT007 BKN030 BKN070
                      TEMPO 1318/1319 BKN010 BKN030 BKN070 FM132000
                       32003KT P6SM -SHRA FEW011 BKN022 OVC040
                       FM140200 27005KT P6SM VCSH BKN035 OVC060
                       FM141100 26004KT P6SM VCSH SCT035 BKN050=
201704131740 TAF KCLM 131740Z 1318/1418 VRB03KT P6SM VCSH BKN007 BKN030 BKN070
                       FM132000 32003KT P6SM -SHRA FEW011 BKN022
                       OVC040 FM140200 27005KT P6SM VCSH BKN035
                       OVC060 FM141100 26004KT P6SM VCSH SCT035
                       BKN050=
201704131331 KCLM 131331Z 1314/1412 VRB03KT P6SM VCSH BKN030 BKN070 FM131900
                       32003KT P6SM -SHRA FEW011 BKN022 OVC040
                       FM140200 27005KT P6SM VCSH BKN035 OVC060=
201704131301 KCLM 131301Z 1313/1412 00000KT 2SM BR SKC FM131600 VRB03KT P6SM
                       VCSH BKN028 OVC050 FM131900 32003KT P6SM
                       -SHRA FEW011 BKN022 OVC040 FM140200 27005KT
                       P6SM VCSH BKN035 OVC060=
201704131139 TAF KCLM 131139Z 1312/1412 14004KT P6SM BKN045 FM131400 VRB03KT
                       P6SM VCSH BKN028 OVC050 FM131900 32003KT
                       P6SM -SHRA FEW011 BKN022 OVC040 FM140200
                       27005KT P6SM VCSH BKN035 OVC060=
201704130539 TAF KCLM 130539Z 1306/1406 VRB03KT P6SM -SHRA BKN015 OVC060 FM130800
                       VRB03KT P6SM -SHRA SCT008 OVC022 FM131400
                       VRB03KT P6SM VCSH BKN028 OVC050 FM131900
                       32003KT P6SM -SHRA FEW011 BKN022 OVC040
                       FM140200 27005KT P6SM VCSH BKN035 OVC060=
201704122343 TAF KCLM 122343Z 1300/1324 VRB03KT P6SM VCSH SCT035 BKN060 BKN100
                       FM130500 VRB03KT P6SM -SHRA BKN035 OVC050
                       FM130800 VRB03KT P6SM -SHRA SCT008 OVC022
                       FM131400 VRB03KT P6SM VCSH BKN028 OVC050
                       FM131900 VRB03KT P6SM -SHRA FEW011 BKN022
                       OVC040=
201704122015 KCLM 122015Z 1220/1318 VRB03KT P6SM VCSH SCT009 BKN060 OVC100
                      TEMPO 1220/1224 -SHRA BKN009 OVC030 FM130000
                       VRB03KT P6SM VCSH BKN035 BKN060 OVC100 FM130800
                       VRB03KT P6SM -SHRA SCT008 OVC022 FM131400
                       VRB03KT P6SM VCSH BKN028 OVC050=
201704121734 TAF KCLM 121734Z 1218/1318 VRB03KT P6SM VCSH SCT006 BKN015 OVC030
                       TEMPO 1218/1220 BKN006 OVC015 FM122000 VRB03KT
                       P6SM VCSH SCT011 BKN025 OVC050
                      TEMPO 1220/1224 5SM SHRA BKN011 OVC025 FM130000
                       VRB03KT P6SM VCSH BKN035 BKN060 OVC100 FM130800
                       VRB03KT P6SM -SHRA SCT008 OVC022 FM131400
                       VRB03KT P6SM VCSH BKN028 OVC050=
201704121652 KCLM 121652Z 1217/1312 28006KT P6SM VCSH OVC015 FM121900 VRB03KT
                       5SM -RA BR FEW009 OVC025 FM122200 VRB03KT
                       P6SM VCSH BKN035 BKN050 OVC100 FM130600
                       23005KT P6SM -SHRA BKN035 OVC060=
201704121236 KCLM 121236Z 1213/1312 13005KT P6SM -RA OVC009 FM121600 VRB03KT
                       P6SM -RA SCT025 OVC040 FM121800 VRB03KT
                       5SM -RA BR FEW009 OVC025 FM122200 VRB03KT
                       P6SM VCSH BKN035 BKN050 OVC100 FM130600
                       23005KT P6SM -SHRA BKN035 OVC060=
201704121128 TAF KCLM 121128Z 1212/1312 VRB03KT P6SM -RA OVC040 FM121500 VRB03KT
                       P6SM -RA SCT025 OVC040 FM121800 VRB03KT
                       5SM -RA BR FEW009 OVC025 FM122200 VRB03KT
                       P6SM VCSH BKN035 BKN050 OVC100 FM130600
                       23005KT P6SM -SHRA BKN035 OVC060=
201704120541 TAF KCLM 120541Z 1206/1306 13006KT P6SM FEW110 FM120800 VRB03KT
                       P6SM -RA BKN060 OVC120 FM121400 VRB03KT
                       P6SM -RA SCT025 OVC040 FM121700 VRB03KT
                       5SM -RA BR FEW009 OVC025 FM122200 VRB03KT
                       P6SM VCSH BKN035 BKN050 OVC100=
201704112339 TAF KCLM 112339Z 1200/1224 09006KT P6SM FEW060 SCT120 OVC200 FM120800
                       VRB03KT P6SM -RA BKN060 OVC120 FM121400
                       VRB03KT P6SM -RA SCT025 OVC040 FM121700
                       VRB03KT 5SM -RA BR FEW009 OVC025 FM122200
                       VRB03KT P6SM VCSH BKN035 BKN050 OVC100=
201704111846 KCLM 111846Z 1119/1218 05008KT P6SM SCT018 BKN250
                      TEMPO 1119/1120 BKN018 BKN250 FM112000 05008KT
                       P6SM FEW120 OVC200 FM120200 VRB03KT P6SM
                       SCT060 OVC120 FM120500 VRB03KT P6SM -RA
                       OVC060 FM121100 VRB03KT P6SM -RA SCT025
                       OVC040 FM121400 VRB03KT 6SM -RA BR FEW009
                       OVC025=
201704111721 TAF KCLM 111721Z 1118/1218 05008KT P6SM FEW020 BKN250 FM112000
                       05008KT P6SM FEW120 OVC200 FM120200 VRB03KT
                       P6SM SCT060 OVC120 FM120500 VRB03KT P6SM
                       -RA OVC060 FM121100 VRB03KT P6SM -RA SCT025
                       OVC040 FM121400 VRB03KT 6SM -RA BR FEW009
                       OVC025=
201704111626 KCLM 111626Z 1116/1212 31004KT P6SM VCSH BKN018 BKN250 FM111800
                       09007KT P6SM SCT250 FM120000 12004KT P6SM
                       BKN200 FM120800 20004KT P6SM -RA BKN035
                       OVC060=
201704111424 KCLM 111424Z 1114/1212 22004KT P6SM VCSH SCT018 SCT028 BKN045
                      TEMPO 1114/1116 SCT018 BKN028 OVC045 FM111800
                       09007KT P6SM SCT045 SCT250 FM120000 12004KT
                       P6SM BKN200 FM120800 20004KT P6SM -RA BKN035
                       OVC060=
201704111141 TAF KCLM 111141Z 1112/1212 24007KT P6SM BKN025 FM111500 VRB03KT
                       P6SM SCT030 FM111800 09007KT P6SM SCT200
                       FM120000 12004KT P6SM BKN200 FM120800 20004KT
                       P6SM -RA BKN035 OVC060=
201704110547 TAF KCLM 110547Z 1106/1206 25006KT P6SM SCT070 FM111200 22004KT
                       P6SM FEW018 FM111800 09007KT P6SM SCT200
                       FM120000 12004KT P6SM BKN200=
201704102320 TAF KCLM 102320Z 1100/1124 28006KT P6SM VCSH SCT035 BKN060 BKN200
                       TEMPO 1100/1103 -SHRA BKN035 OVC060 FM110300
                       26006KT P6SM BKN070 BKN200 FM110600 25006KT
                       P6SM SCT070 SCT200 FM111200 22004KT P6SM
                       FEW018 FM111800 04007KT P6SM SCT200=
201704101727 TAF KCLM 101727Z 1018/1118 09007KT P6SM VCSH FEW025 BKN060 FM102000
                       VRB05KT P6SM VCSH SCT030 BKN060
                      TEMPO 1020/1024 -SHRA BKN030 OVC060 FM110000
                       30005KT P6SM VCSH SCT035 BKN070 FM110300
                       27009KT P6SM BKN070 BKN200 FM110600 27007KT
                       P6SM SCT070 SCT200 FM111200 22004KT P6SM
                       FEW018 SCT200=
201704101621 KCLM 101621Z 1016/1112 11009KT P6SM VCSH SCT015 BKN090 BKN200
                      TEMPO 1016/1018 BKN015 OVC090 FM101800 30008KT
                       P6SM SCT020 BKN035
                      TEMPO 1018/1022 -SHRA BKN020 OVC035 FM102200
                       29008KT P6SM VCSH SCT020 BKN035=
201704101421 KCLM 101421Z 1014/1112 VRB03KT P6SM VCSH FEW030 SCT060 BKN200 FM101800
                       30008KT P6SM SCT020 BKN035
                      TEMPO 1018/1022 -SHRA BKN020 OVC035 FM102200
                       29008KT P6SM VCSH SCT020 BKN035=
201704101121 TAF KCLM 101121Z 1012/1112 25006KT P6SM VCSH SCT025 BKN045 FM101800
                       30008KT P6SM SCT020 BKN035
                      TEMPO 1018/1022 -SHRA BKN020 OVC035 FM102200
                       29008KT P6SM VCSH SCT020 BKN035=
201704100523 TAF KCLM 100523Z 1006/1106 VRB03KT P6SM OVC050
                      TEMPO 1008/1012 -RA FM101200 25006KT P6SM
                       VCSH SCT025 BKN040 FM101800 30006KT 6SM
                       -SHRA SCT020 BKN035 FM110300 28006KT P6SM
                       VCSH SCT020 BKN035=
201704092338 TAF KCLM 092338Z 1000/1024 VRB03KT P6SM BKN060 OVC150 FM100600
                       VRB03KT P6SM VCSH OVC050
                      TEMPO 1007/1011 -SHRA FM101200 25006KT P6SM
                       VCSH SCT015 BKN050 FM101800 32005KT 6SM
                       -SHRA SCT015 BKN035 OVC050=
201704091741 TAF KCLM 091741Z 0918/1018 09005KT P6SM SCT015 BKN060 OVC200 FM100600
                       VRB03KT P6SM VCSH OVC050
                      TEMPO 1007/1011 -SHRA=
201704091122 TAF KCLM 091122Z 0912/1012 VRB03KT P6SM SCT020
                      TEMPO 0912/0916 BKN020 FM091600 VRB03KT P6SM
                       SCT040 BKN200 FM092200 08006KT P6SM SCT045
                       BKN090 FM100600 VRB03KT P6SM -RA OVC045=
201704090904 TAF AMD KCLM 090904Z 0909/1006 VRB03KT P6SM BKN025 FM091300 VRB03KT
                       P6SM SCT045 BKN200 FM092200 08006KT P6SM
                       SCT045 BKN090=
201704090534 TAF KCLM 090534Z 0906/1006 VRB03KT P6SM SCT045 FM091300 VRB03KT
                       P6SM SCT045 BKN200 FM092200 08006KT P6SM
                       SCT045 BKN090=
201704082337 TAF KCLM 082337Z 0900/0924 29008KT P6SM BKN035 BKN060 FM090700
                       VRB03KT P6SM SCT045 FM091400 09004KT P6SM
                       SCT045 BKN200=
201704081728 TAF KCLM 081728Z 0818/0918 31006KT P6SM VCSH BKN035 OVC050
                      TEMPO 0818/0820 6SM -SHRA BKN025 OVC040 FM082000
                       30010KT P6SM VCSH SCT030 BKN045 FM090300
                       29006KT P6SM VCSH BKN045 FM090700 VRB03KT
                       P6SM SCT045=
201704081121 TAF KCLM 081121Z 0812/0912 24008KT P6SM SCT025 BKN040
                      TEMPO 0812/0816 5SM -SHRA BKN025 OVC040 FM081600
                       27010KT P6SM SCT025 BKN040
                      TEMPO 0816/0820 -SHRA BKN025 OVC040 FM082000
                       29010KT P6SM VCSH SCT030 BKN045 FM090300
                       29006KT P6SM VCSH BKN045 FM090700 VRB03KT
                       P6SM SCT045=
201704080531 TAF KCLM 080531Z 0806/0906 VRB03KT P6SM SCT030 BKN045
                      TEMPO 0806/0810 5SM -SHRA BKN030 OVC045 FM081000
                       24008KT P6SM SCT025 BKN040
                      TEMPO 0810/0814 5SM -SHRA BKN025 OVC040 FM081400
                       27010KT P6SM VCSH BKN030 BKN045 FM090300
                       29006KT P6SM VCSH BKN045=
201704072337 TAF KCLM 072337Z 0800/0824 24006KT P6SM -SHRA SCT040 OVC050 FM081200
                       26008KT P6SM VCSH BKN035 OVC060=
201704071737 TAF KCLM 071737Z 0718/0818 VRB04KT P6SM -SHRA SCT010 OVC015 FM072000
                       24006KT P6SM -SHRA SCT040 OVC050=
201704071128 KCLM 071128Z 0711/0812 VRB04KT P6SM -RA SCT010 OVC015
                      TEMPO 0712/0716 3SM RA BR BKN007 OVC010 FM071600
                       12010KT P6SM -RA BKN020 OVC040 FM072000
                       22012G22KT P6SM -SHRA BKN020 BKN040=
201704071120 TAF KCLM 071120Z 0712/0812 VRB04KT P6SM -RA SCT010 OVC015 FM071600
                       12010KT P6SM -RA BKN020 OVC040 FM072000
                       22012G22KT P6SM -SHRA BKN020 BKN040=
201704070520 TAF KCLM 070520Z 0706/0806 10006KT P6SM OVC025 FM071000 VRB04KT
                       P6SM -RA SCT025 OVC050 FM071600 12010KT
                       P6SM -RA BKN020 OVC040 FM072000 22012G22KT
                       P6SM -SHRA BKN020 BKN040=
201704062328 KCLM 062328Z 0623/0724 VRB04KT P6SM BKN030 OVC060
                      TEMPO 0700/0704 SCT030 BKN060 FM070600 07007KT
                       P6SM SCT040 BKN090 OVC200 FM071000 09012KT
                       P6SM -RA SCT025 OVC050 FM071600 09012G22KT
                       P6SM -RA BKN020 OVC040 FM072000 22012G22KT
                       P6SM -SHRA BKN020 BKN040=
201704062320 TAF KCLM 062320Z 0700/0724 VRB04KT P6SM BKN030 FM070600 07007KT
                       P6SM SCT040 BKN090 OVC200 FM071000 09012KT
                       P6SM -RA SCT025 OVC050 FM071600 09012G22KT
                       P6SM -RA BKN020 OVC040 FM072000 22012G22KT
                       P6SM -SHRA BKN020 BKN040=
201704062122 KCLM 062122Z 0621/0718 30008KT P6SM BKN028 FM070200 VRB04KT P6SM
                       SCT040 SCT090 FM071000 09010KT P6SM -RA
                       BKN015 OVC040 FM071700 21012G20KT P6SM -RA
                       BKN020 OVC040=
201704061720 TAF KCLM 061720Z 0618/0718 00000KT P6SM VCSH SCT015 OVC050
                      TEMPO 0618/0622 BKN015 OVC050 FM071000 09010KT
                       P6SM -RA BKN015 OVC040 FM071700 21012G20KT
                       P6SM -RA BKN020 OVC040=
201704061602 KCLM 061602Z 0616/0712 27007KT P6SM BKN010 OVC050
                      TEMPO 0616/0620 SCT015 BKN050 FM062000 27007KT
                       P6SM VCSH SCT015 BKN050 FM070000 VRB03KT
                       P6SM SCT030 BKN060 FM071000 09006KT P6SM
                       -RA BKN020 OVC050=
201704061411 KCLM 061411Z 0614/0712 VRB03KT P6SM VCSH BKN005 OVC050 FM061700
                       32006KT P6SM VCSH SCT010 BKN050 FM070000
                       VRB03KT P6SM SCT030 BKN060 FM071000 09006KT
                       P6SM -RA BKN020 OVC050=
201704061120 TAF KCLM 061120Z 0612/0712 VRB03KT P6SM BKN005 OVC100 FM061300
                       VRB04KT P6SM -RA SCT010 OVC020 FM061700
                       32006KT P6SM VCSH SCT020 BKN050 FM070000
                       VRB03KT P6SM SCT030 BKN060 FM071000 VRB03KT
                       P6SM -RA SCT020 OVC050=
201704060528 TAF KCLM 060528Z 0606/0706 VRB03KT P6SM OVC010 FM061200 VRB04KT
                       P6SM -RA SCT010 OVC030 FM061700 32006KT
                       P6SM VCSH SCT025 BKN050 FM070000 VRB03KT
                       P6SM SCT030 BKN060=
201704052320 TAF KCLM 052320Z 0600/0624 00000KT P6SM BKN015 OVC035 FM061000
                       16010KT P6SM -RA BKN015 OVC030 FM061700
                       26006KT P6SM VCSH SCT025 BKN050=
201704052005 KCLM 052005Z 0520/0618 VRB04KT P6SM SCT003 OVC015
                      TEMPO 0520/0523 5SM BR BKN003 OVC010 FM052300
                       27007KT P6SM -SHRA BKN015 BKN050 FM060500
                       VRB03KT P6SM SCT020 OVC050 FM061000 VRB03KT
                       P6SM -RA BKN025 OVC040=
201704051720 TAF KCLM 051720Z 0518/0618 VRB04KT P6SM SCT006 BKN017 OVC050
                      TEMPO 0518/0521 5SM -RA BR BKN006 OVC015
                       FM052100 27007KT P6SM -SHRA BKN030 BKN060
                       FM060500 VRB03KT P6SM SCT030 OVC060 FM061000
                       VRB03KT P6SM -RA BKN025 OVC040=
201704051605 KCLM 051605Z 0516/0612 VRB04KT P6SM -RA BKN004 OVC050 FM052000
                       26006KT P6SM -SHRA BKN010 OVC050 FM060000
                       30006KT P6SM VCSH SCT020 BKN050 FM061100
                       VRB03KT P6SM -RA BKN020 OVC050=
201704051329 KCLM 051329Z 0513/0612 VRB03KT P6SM -RA SCT008 OVC015
                      TEMPO 0513/0516 5SM -RA BR BKN008 OVC015
                       FM051600 29007KT P6SM -SHRA BKN025 BKN040
                       FM060000 30006KT P6SM VCSH SCT030 BKN045
                       FM061100 VRB03KT P6SM VCSH BKN030 OVC045=
201704051120 TAF KCLM 051120Z 0512/0612 VRB03KT P6SM -RA SCT030 OVC045
                      TEMPO 0512/0515 BKN030 OVC045 FM051500 29007KT
                       P6SM -SHRA BKN025 BKN040 FM060000 30006KT
                       P6SM VCSH SCT030 BKN045 FM061100 VRB03KT
                       P6SM VCSH BKN030 OVC045=
201704050541 TAF KCLM 050541Z 0506/0606 VRB03KT P6SM -RA SCT030 OVC045 FM051500
                       29007KT P6SM -SHRA BKN025 BKN040=
201704042320 TAF KCLM 042320Z 0500/0524 VRB04KT P6SM -RA SCT015 OVC040 FM050600
                       VRB04KT P6SM -RA OVC020 FM051500 27007KT
                       P6SM -SHRA BKN020 BKN040=
201704041720 TAF KCLM 041720Z 0418/0518 VRB03KT P6SM SCT015 OVC060 FM042200
                       09005KT P6SM -RA BKN015 OVC040 FM051500
                       28008KT P6SM -SHRA BKN020 BKN040=
201704041120 TAF KCLM 041120Z 0412/0512 VRB03KT P6SM OVC120 FM042000 09006KT
                       P6SM OVC090 FM050400 09006KT P6SM -RA OVC050=
201704040520 TAF KCLM 040520Z 0406/0506 VRB03KT P6SM OVC200 FM041100 VRB03KT
                       P6SM OVC120 FM042000 09006KT P6SM OVC090
                       FM050400 09006KT P6SM -RA OVC070=
201704032320 TAF KCLM 032320Z 0400/0424 VRB04KT P6SM BKN250 FM040600 00000KT
                       P6SM OVC150 FM041100 09006KT P6SM OVC090
                       FM042000 09006KT P6SM OVC050=
201704031720 TAF KCLM 031720Z 0318/0418 VRB04KT P6SM SKC FM040600 09005KT P6SM
                       BKN200 FM041200 09005KT P6SM OVC120=
201704031120 TAF KCLM 031120Z 0312/0412 26008KT P6SM SCT060 FM031700 04006KT
                       P6SM SCT035 SCT250 FM040200 VRB03KT P6SM
                       BKN250=
201704030520 TAF KCLM 030520Z 0306/0406 28010KT P6SM BKN080 FM030700 26005KT
                       P6SM SCT060 FM031700 04006KT P6SM SCT035
                       SCT250 FM040200 VRB03KT P6SM BKN250=
201704022320 TAF KCLM 022320Z 0300/0324 30012KT P6SM VCSH SCT030 BKN040 BKN060
                       FM030300 28010KT P6SM SCT060 FM030700 26005KT
                       P6SM FEW040 FM032000 04006KT P6SM SCT010
                       BKN035=
201704021734 TAF KCLM 021734Z 0218/0318 27014G22KT P6SM SCT030 SCT060 FM022200
                       30015G25KT P6SM VCSH SCT030 BKN060 FM030300
                       28011KT P6SM FEW060 FM030700 26006KT P6SM
                       SKC=
201704021120 TAF KCLM 021120Z 0212/0312 27010KT P6SM SCT015 OVC100 FM021700
                       27014G22KT P6SM SCT015 BKN040 FM022200 30017G26KT
                       P6SM SCT045 FM030300 28011KT P6SM SCT250
                       FM030600 25007KT P6SM SCT250=
201704020525 TAF KCLM 020525Z 0206/0306 29012KT P6SM SCT015 FM020900 27014G23KT
                       P6SM SCT015 OVC100 FM021200 27017G26KT P6SM
                       SCT015 BKN040 FM022200 30014G22KT P6SM SCT045
                       FM030300 28011KT P6SM SCT250=
201704012340 TAF KCLM 012340Z 0200/0224 31012G20KT P6SM BKN015 FM020200 29015G25KT
                       P6SM SCT015 FM021200 27012G20KT P6SM VCSH
                       SCT015 BKN040 FM022200 30014G22KT P6SM VCSH
                       SCT045=
201704012136 KCLM 012136Z 0122/0218 28014G24KT P6SM SCT015 SCT045
                      TEMPO 0122/0124 SCT008 OVC015 FM021500 27012G20KT
                       P6SM VCSH SCT020 BKN040=
201704011741 TAF KCLM 011741Z 0118/0218 30005KT P6SM VCSH SCT015 BKN040 FM012100
                       28014G24KT P6SM SCT020 SCT045 FM021500 27012G20KT
                       P6SM VCSH SCT020 BKN040=
201704011120 TAF KCLM 011120Z 0112/0212 VRB03KT P6SM -RA BKN025 OVC050 FM011500
                       27007KT P6SM VCSH SCT020 BKN050 FM012100
                       29013G22KT P6SM OVC025 FM020000 29017G26KT
                       P6SM BKN025 OVC040=
201704010520 TAF KCLM 010520Z 0106/0206 VRB03KT P6SM OVC050 FM010900 VRB03KT
                       P6SM -RA BKN025 OVC050 FM011500 27007KT
                       P6SM VCSH SCT020 BKN050 FM012100 29013G22KT
                       P6SM OVC025 FM020000 29017G26KT P6SM BKN025
                       OVC040=